#DEBUG: Format Typ    -> comma
#DEBUG: Time Period   -> 2017-04-01 00:00:00+00:00 2017-04-02 00:00:00+00:00
#DEBUG: Time Zone     -> Etc/UTC
#DEBUG: Data Contact   -> daryl herzmann akrherz@iastate.edu 515-294-5978
#DEBUG: Entries Found -> -1
station,valid,lon,lat,tmpf, dwpf, relh, drct, sknt, p01i, alti, mslp, vsby, gust, skyc1, skyc2, skyc3, skyc4, skyl1, skyl2, skyl3, skyl4, presentwx, metar
05U,2017-04-01 00:15,-116.0051,39.6042,39.20,30.20,69.88,350.00,10.00,0.00,30.01,M,10.00,M,OVC,M,M,M,2700.00,M,M,M,M,K05U 010015Z AUTO 35010KT 10SM OVC027 04/M01 A3001 RMK A01
05U,2017-04-01 00:35,-116.0051,39.6042,39.20,32.00,75.16,330.00,7.00,0.00,30.01,M,10.00,M,OVC,M,M,M,2700.00,M,M,M,M,K05U 010035Z AUTO 33007KT 10SM OVC027 04/M00 A3001 RMK A01
05U,2017-04-01 00:55,-116.0051,39.6042,39.20,32.00,75.16,330.00,8.00,0.00,30.02,M,10.00,M,OVC,M,M,M,2900.00,M,M,M,M,K05U 010055Z AUTO 33008KT 10SM OVC029 04/M00 A3002 RMK A01
05U,2017-04-01 01:15,-116.0051,39.6042,39.20,32.00,75.16,330.00,11.00,0.00,30.02,M,10.00,M,OVC,M,M,M,2900.00,M,M,M,M,K05U 010115Z AUTO 33011KT 10SM OVC029 04/M00 A3002 RMK A01
05U,2017-04-01 01:35,-116.0051,39.6042,39.20,32.00,75.16,330.00,8.00,0.00,30.03,M,10.00,M,OVC,M,M,M,3000.00,M,M,M,M,K05U 010135Z AUTO 33008KT 10SM OVC030 04/M00 A3003 RMK A01
05U,2017-04-01 01:55,-116.0051,39.6042,39.20,32.00,75.16,330.00,10.00,0.00,30.03,M,10.00,M,OVC,M,M,M,3000.00,M,M,M,M,K05U 010155Z AUTO 33010KT 10SM OVC030 04/M00 A3003 RMK A01
05U,2017-04-01 02:15,-116.0051,39.6042,39.20,32.00,75.16,320.00,8.00,0.00,30.04,M,10.00,M,OVC,M,M,M,3000.00,M,M,M,M,K05U 010215Z AUTO 32008KT 10SM OVC030 04/M00 A3004 RMK A01
05U,2017-04-01 02:35,-116.0051,39.6042,39.20,32.00,75.16,330.00,9.00,0.00,30.05,M,10.00,M,OVC,M,M,M,3100.00,M,M,M,M,K05U 010235Z AUTO 33009KT 10SM OVC031 04/M00 A3005 RMK A01
05U,2017-04-01 02:55,-116.0051,39.6042,39.20,32.00,75.16,330.00,10.00,0.00,30.06,M,10.00,M,OVC,M,M,M,3100.00,M,M,M,M,K05U 010255Z AUTO 33010KT 10SM OVC031 04/M00 A3006 RMK A01
05U,2017-04-01 03:15,-116.0051,39.6042,39.20,32.00,75.16,330.00,9.00,0.00,30.07,M,10.00,15.00,OVC,M,M,M,3100.00,M,M,M,M,K05U 010315Z AUTO 33009G15KT 10SM OVC031 04/M00 A3007 RMK A01
05U,2017-04-01 03:35,-116.0051,39.6042,39.20,32.00,75.16,330.00,10.00,0.00,30.08,M,10.00,M,OVC,M,M,M,3100.00,M,M,M,M,K05U 010335Z AUTO 33010KT 10SM OVC031 04/M00 A3008 RMK A01
05U,2017-04-01 03:55,-116.0051,39.6042,39.20,32.00,75.16,340.00,11.00,0.00,30.09,M,10.00,M,OVC,M,M,M,3100.00,M,M,M,M,K05U 010355Z AUTO 34011KT 10SM OVC031 04/M00 A3009 RMK A01
05U,2017-04-01 04:15,-116.0051,39.6042,39.20,32.00,75.16,340.00,10.00,0.00,30.10,M,10.00,17.00,OVC,M,M,M,3100.00,M,M,M,M,K05U 010415Z AUTO 34010G17KT 10SM OVC031 04/M00 A3010 RMK A01
05U,2017-04-01 04:35,-116.0051,39.6042,39.20,32.00,75.16,330.00,9.00,0.00,30.10,M,10.00,M,OVC,M,M,M,3100.00,M,M,M,M,K05U 010435Z AUTO 33009KT 10SM OVC031 04/M00 A3010 RMK A01
05U,2017-04-01 04:55,-116.0051,39.6042,39.20,32.00,75.16,0.00,0.00,0.00,30.12,M,10.00,M,OVC,M,M,M,2900.00,M,M,M,M,K05U 010455Z AUTO 00000KT 10SM OVC029 04/M00 A3012 RMK A01
05U,2017-04-01 05:15,-116.0051,39.6042,39.20,32.00,75.16,10.00,6.00,0.00,30.12,M,10.00,M,OVC,M,M,M,2900.00,M,M,M,M,K05U 010515Z AUTO 01006KT 10SM OVC029 04/M00 A3012 RMK A01
05U,2017-04-01 05:35,-116.0051,39.6042,39.20,32.00,75.16,340.00,6.00,0.00,30.12,M,10.00,M,BKN,OVC,M,M,3000.00,3600.00,M,M,M,K05U 010535Z AUTO 34006KT 10SM BKN030 OVC036 04/M00 A3012 RMK A01
05U,2017-04-01 05:55,-116.0051,39.6042,39.20,32.00,75.16,320.00,7.00,0.00,30.12,M,10.00,M,BKN,OVC,M,M,3400.00,4800.00,M,M,M,K05U 010555Z AUTO 32007KT 10SM BKN034 OVC048 04/M00 A3012 RMK A01
05U,2017-04-01 06:15,-116.0051,39.6042,39.20,32.00,75.16,330.00,6.00,0.00,30.13,M,10.00,M,FEW,OVC,M,M,3400.00,4700.00,M,M,M,K05U 010615Z AUTO 33006KT 10SM FEW034 OVC047 04/M00 A3013 RMK A01
05U,2017-04-01 06:35,-116.0051,39.6042,39.20,32.00,75.16,320.00,5.00,0.00,30.13,M,10.00,M,OVC,M,M,M,4700.00,M,M,M,M,K05U 010635Z AUTO 32005KT 10SM OVC047 04/M00 A3013 RMK A01
05U,2017-04-01 06:55,-116.0051,39.6042,37.40,32.00,80.65,0.00,0.00,0.00,30.13,M,10.00,M,OVC,M,M,M,4700.00,M,M,M,M,K05U 010655Z AUTO 00000KT 10SM OVC047 03/M00 A3013 RMK A01
05U,2017-04-01 07:15,-116.0051,39.6042,37.40,30.20,74.98,320.00,3.00,0.00,30.13,M,10.00,M,OVC,M,M,M,4900.00,M,M,M,M,K05U 010715Z AUTO 32003KT 10SM OVC049 03/M01 A3013 RMK A01
05U,2017-04-01 07:35,-116.0051,39.6042,37.40,32.00,80.65,320.00,5.00,0.00,30.13,M,10.00,M,OVC,M,M,M,4800.00,M,M,M,M,K05U 010735Z AUTO 32005KT 10SM OVC048 03/M00 A3013 RMK A01
05U,2017-04-01 07:55,-116.0051,39.6042,37.40,32.00,80.65,320.00,4.00,0.00,30.14,M,10.00,M,BKN,OVC,M,M,4900.00,5500.00,M,M,M,K05U 010755Z AUTO 32004KT 10SM BKN049 OVC055 03/M00 A3014 RMK A01
05U,2017-04-01 08:15,-116.0051,39.6042,37.40,30.20,74.98,340.00,3.00,0.00,30.15,M,10.00,M,OVC,M,M,M,5000.00,M,M,M,M,K05U 010815Z AUTO 34003KT 10SM OVC050 03/M01 A3015 RMK A01
05U,2017-04-01 08:35,-116.0051,39.6042,37.40,30.20,74.98,0.00,0.00,0.00,30.15,M,10.00,M,OVC,M,M,M,5000.00,M,M,M,M,K05U 010835Z AUTO 00000KT 10SM OVC050 03/M01 A3015 RMK A01
05U,2017-04-01 08:55,-116.0051,39.6042,35.60,30.20,80.51,0.00,0.00,0.00,30.15,M,10.00,M,OVC,M,M,M,5000.00,M,M,M,M,K05U 010855Z AUTO 00000KT 10SM OVC050 02/M01 A3015 RMK A01
05U,2017-04-01 09:15,-116.0051,39.6042,35.60,30.20,80.51,0.00,0.00,0.00,30.15,M,10.00,M,FEW,OVC,M,M,3000.00,5500.00,M,M,M,K05U 010915Z AUTO 00000KT 10SM FEW030 OVC055 02/M01 A3015 RMK A01
05U,2017-04-01 09:35,-116.0051,39.6042,35.60,30.20,80.51,0.00,0.00,0.00,30.15,M,10.00,M,SCT,OVC,M,M,3100.00,5500.00,M,M,M,K05U 010935Z AUTO 00000KT 10SM SCT031 OVC055 02/M01 A3015 RMK A01
05U,2017-04-01 09:55,-116.0051,39.6042,33.80,30.20,86.49,0.00,0.00,0.00,30.16,M,10.00,M,SCT,OVC,M,M,3000.00,5500.00,M,M,M,K05U 010955Z AUTO 00000KT 10SM SCT030 OVC055 01/M01 A3016 RMK A01
05U,2017-04-01 10:15,-116.0051,39.6042,33.80,28.40,80.36,0.00,0.00,0.00,30.16,M,10.00,M,OVC,M,M,M,2900.00,M,M,M,M,K05U 011015Z AUTO 00000KT 10SM OVC029 01/M02 A3016 RMK A01
05U,2017-04-01 10:35,-116.0051,39.6042,32.00,28.40,86.39,0.00,0.00,0.00,30.16,M,10.00,M,BKN,BKN,M,M,2900.00,5000.00,M,M,M,K05U 011035Z AUTO 00000KT 10SM BKN029 BKN050 00/M02 A3016 RMK A01
05U,2017-04-01 10:55,-116.0051,39.6042,30.20,26.60,86.28,0.00,0.00,0.00,30.16,M,10.00,M,FEW,FEW,M,M,2900.00,5000.00,M,M,M,K05U 011055Z AUTO 00000KT 10SM FEW029 FEW050 M01/M03 A3016 RMK A01
05U,2017-04-01 11:15,-116.0051,39.6042,30.20,28.40,92.92,0.00,0.00,0.00,30.16,M,10.00,M,CLR,M,M,M,M,M,M,M,M,K05U 011115Z AUTO 00000KT 10SM CLR M01/M02 A3016 RMK A01
05U,2017-04-01 11:35,-116.0051,39.6042,28.40,26.60,92.86,0.00,0.00,0.00,30.16,M,10.00,M,CLR,M,M,M,M,M,M,M,M,K05U 011135Z AUTO 00000KT 10SM CLR M02/M03 A3016 RMK A01
05U,2017-04-01 11:55,-116.0051,39.6042,28.40,26.60,92.86,170.00,3.00,0.00,30.16,M,10.00,M,CLR,M,M,M,M,M,M,M,M,K05U 011155Z AUTO 17003KT 10SM CLR M02/M03 A3016 RMK A01
05U,2017-04-01 12:15,-116.0051,39.6042,28.40,26.60,92.86,0.00,0.00,0.00,30.16,M,10.00,M,CLR,M,M,M,M,M,M,M,M,K05U 011215Z AUTO 00000KT 10SM CLR M02/M03 A3016 RMK A01
05U,2017-04-01 12:35,-116.0051,39.6042,28.40,26.60,92.86,220.00,3.00,0.00,30.17,M,10.00,M,CLR,M,M,M,M,M,M,M,M,K05U 011235Z AUTO 22003KT 10SM CLR M02/M03 A3017 RMK A01
05U,2017-04-01 12:55,-116.0051,39.6042,28.40,26.60,92.86,210.00,4.00,0.00,30.18,M,10.00,M,CLR,M,M,M,M,M,M,M,M,K05U 011255Z AUTO 21004KT 10SM CLR M02/M03 A3018 RMK A01
05U,2017-04-01 13:15,-116.0051,39.6042,28.40,26.60,92.86,180.00,4.00,0.00,30.18,M,10.00,M,CLR,M,M,M,M,M,M,M,M,K05U 011315Z AUTO 18004KT 10SM CLR M02/M03 A3018 RMK A01
05U,2017-04-01 13:35,-116.0051,39.6042,28.40,26.60,92.86,0.00,0.00,0.00,30.18,M,10.00,M,CLR,M,M,M,M,M,M,M,M,K05U 011335Z AUTO 00000KT 10SM CLR M02/M03 A3018 RMK A01
05U,2017-04-01 13:55,-116.0051,39.6042,26.60,24.80,92.80,0.00,0.00,0.00,30.20,M,10.00,M,CLR,M,M,M,M,M,M,M,M,K05U 011355Z AUTO 00000KT 10SM CLR M03/M04 A3020 RMK A01
05U,2017-04-01 14:15,-116.0051,39.6042,30.20,28.40,92.92,0.00,0.00,0.00,30.20,M,10.00,M,CLR,M,M,M,M,M,M,M,M,K05U 011415Z AUTO 00000KT 10SM CLR M01/M02 A3020 RMK A01
05U,2017-04-01 14:35,-116.0051,39.6042,33.80,30.20,86.49,0.00,0.00,0.00,30.21,M,10.00,M,CLR,M,M,M,M,M,M,M,M,K05U 011435Z AUTO 00000KT 10SM CLR 01/M01 A3021 RMK A01
05U,2017-04-01 14:55,-116.0051,39.6042,37.40,32.00,80.65,0.00,0.00,0.00,30.22,M,10.00,M,CLR,M,M,M,M,M,M,M,M,K05U 011455Z AUTO 00000KT 10SM CLR 03/M00 A3022 RMK A01
05U,2017-04-01 15:15,-116.0051,39.6042,37.40,32.00,80.65,0.00,0.00,0.00,30.22,M,10.00,M,CLR,M,M,M,M,M,M,M,M,K05U 011515Z AUTO 00000KT 10SM CLR 03/00 A3022 RMK A01
05U,2017-04-01 15:35,-116.0051,39.6042,39.20,32.00,75.16,0.00,0.00,0.00,30.22,M,10.00,M,CLR,M,M,M,M,M,M,M,M,K05U 011535Z AUTO 00000KT 10SM CLR 04/00 A3022 RMK A01
05U,2017-04-01 15:55,-116.0051,39.6042,41.00,32.00,70.08,0.00,0.00,0.00,30.22,M,10.00,M,CLR,M,M,M,M,M,M,M,M,K05U 011555Z AUTO 00000KT 10SM CLR 05/M00 A3022 RMK A01
05U,2017-04-01 16:15,-116.0051,39.6042,41.00,32.00,70.08,0.00,0.00,0.00,30.23,M,10.00,M,CLR,M,M,M,M,M,M,M,M,K05U 011615Z AUTO 00000KT 10SM CLR 05/M00 A3023 RMK A01
05U,2017-04-01 16:35,-116.0051,39.6042,42.80,32.00,65.38,40.00,5.00,0.00,30.23,M,10.00,M,CLR,M,M,M,M,M,M,M,M,K05U 011635Z AUTO 04005KT 10SM CLR 06/M00 A3023 RMK A01
05U,2017-04-01 16:55,-116.0051,39.6042,44.60,32.00,61.03,M,5.00,0.00,30.24,M,10.00,M,FEW,M,M,M,2200.00,M,M,M,M,K05U 011655Z AUTO VRB05KT 10SM FEW022 07/M00 A3024 RMK A01
05U,2017-04-01 17:15,-116.0051,39.6042,44.60,32.00,61.03,0.00,0.00,0.00,30.24,M,10.00,M,SCT,M,M,M,2300.00,M,M,M,M,K05U 011715Z AUTO 00000KT 10SM SCT023 07/M00 A3024 RMK A01
05U,2017-04-01 17:35,-116.0051,39.6042,46.40,32.00,57.00,40.00,5.00,0.00,30.24,M,10.00,M,FEW,M,M,M,2300.00,M,M,M,M,K05U 011735Z AUTO 04005KT 10SM FEW023 08/00 A3024 RMK A01
05U,2017-04-01 17:55,-116.0051,39.6042,48.20,32.00,53.27,M,5.00,0.00,30.22,M,10.00,M,CLR,M,M,M,M,M,M,M,M,K05U 011755Z AUTO VRB05KT 10SM CLR 09/00 A3022 RMK A01
05U,2017-04-01 18:15,-116.0051,39.6042,48.20,32.00,53.27,0.00,0.00,0.00,30.22,M,10.00,M,CLR,M,M,M,M,M,M,M,M,K05U 011815Z AUTO 00000KT 10SM CLR 09/00 A3022 RMK A01
05U,2017-04-01 18:35,-116.0051,39.6042,50.00,32.00,49.81,M,4.00,0.00,30.21,M,10.00,10.00,CLR,M,M,M,M,M,M,M,M,K05U 011835Z AUTO VRB04G10KT 10SM CLR 10/M00 A3021 RMK A01
05U,2017-04-01 18:55,-116.0051,39.6042,50.00,32.00,49.81,0.00,0.00,0.00,30.21,M,10.00,M,CLR,M,M,M,M,M,M,M,M,K05U 011855Z AUTO 00000KT 10SM CLR 10/M00 A3021 RMK A01
05U,2017-04-01 19:15,-116.0051,39.6042,50.00,32.00,49.81,330.00,4.00,0.00,30.20,M,10.00,M,CLR,M,M,M,M,M,M,M,M,K05U 011915Z AUTO 33004KT 10SM CLR 10/M00 A3020 RMK A01
05U,2017-04-01 19:35,-116.0051,39.6042,51.80,32.00,46.59,M,6.00,0.00,30.19,M,10.00,11.00,CLR,M,M,M,M,M,M,M,M,K05U 011935Z AUTO VRB06G11KT 10SM CLR 11/00 A3019 RMK A01
05U,2017-04-01 19:55,-116.0051,39.6042,51.80,32.00,46.59,360.00,7.00,0.00,30.18,M,10.00,M,CLR,M,M,M,M,M,M,M,M,K05U 011955Z AUTO 36007KT 10SM CLR 11/M00 A3018 RMK A01
05U,2017-04-01 20:15,-116.0051,39.6042,53.60,32.00,43.61,10.00,7.00,0.00,30.18,M,10.00,13.00,CLR,M,M,M,M,M,M,M,M,K05U 012015Z AUTO 01007G13KT 330V030 10SM CLR 12/00 A3018 RMK A01
05U,2017-04-01 20:35,-116.0051,39.6042,55.40,32.00,40.84,40.00,3.00,0.00,30.17,M,10.00,11.00,FEW,M,M,M,4400.00,M,M,M,M,K05U 012035Z AUTO 04003G11KT 10SM FEW044 13/00 A3017 RMK A01
05U,2017-04-01 20:55,-116.0051,39.6042,55.40,32.00,40.84,350.00,9.00,0.00,30.16,M,10.00,16.00,CLR,M,M,M,M,M,M,M,M,K05U 012055Z AUTO 35009G16KT 10SM CLR 13/00 A3016 RMK A01
05U,2017-04-01 21:15,-116.0051,39.6042,57.20,32.00,38.26,350.00,9.00,0.00,30.15,M,10.00,M,FEW,M,M,M,4800.00,M,M,M,M,K05U 012115Z AUTO 35009KT 320V020 10SM FEW048 14/00 A3015 RMK A01
05U,2017-04-01 21:35,-116.0051,39.6042,57.20,32.00,38.26,360.00,8.00,0.00,30.15,M,10.00,13.00,FEW,M,M,M,4800.00,M,M,M,M,K05U 012135Z AUTO 36008G13KT 10SM FEW048 14/M00 A3015 RMK A01
05U,2017-04-01 21:55,-116.0051,39.6042,57.20,30.20,35.57,360.00,8.00,0.00,30.14,M,10.00,M,CLR,M,M,M,M,M,M,M,M,K05U 012155Z AUTO 36008KT 330V030 10SM CLR 14/M01 A3014 RMK A01
05U,2017-04-01 22:15,-116.0051,39.6042,57.20,28.40,33.05,10.00,7.00,0.00,30.14,M,10.00,13.00,CLR,M,M,M,M,M,M,M,M,K05U 012215Z AUTO 01007G13KT 10SM CLR 14/M02 A3014 RMK A01
05U,2017-04-01 22:35,-116.0051,39.6042,57.20,30.20,35.57,350.00,6.00,0.00,30.14,M,10.00,12.00,CLR,M,M,M,M,M,M,M,M,K05U 012235Z AUTO 35006G12KT 10SM CLR 14/M01 A3014 RMK A01
05U,2017-04-01 22:55,-116.0051,39.6042,57.20,30.20,35.57,30.00,6.00,0.00,30.14,M,10.00,15.00,CLR,M,M,M,M,M,M,M,M,K05U 012255Z AUTO 03006G15KT 10SM CLR 14/M01 A3014 RMK A01
05U,2017-04-01 23:15,-116.0051,39.6042,57.20,30.20,35.57,360.00,10.00,0.00,30.13,M,10.00,15.00,CLR,M,M,M,M,M,M,M,M,K05U 012315Z AUTO 36010G15KT 10SM CLR 14/M01 A3013 RMK A01
05U,2017-04-01 23:35,-116.0051,39.6042,57.20,30.20,35.57,350.00,7.00,0.00,30.13,M,10.00,15.00,CLR,M,M,M,M,M,M,M,M,K05U 012335Z AUTO 35007G15KT 320V020 10SM CLR 14/M01 A3013 RMK A01
05U,2017-04-01 23:55,-116.0051,39.6042,57.20,30.20,35.57,20.00,9.00,0.00,30.13,M,10.00,M,CLR,M,M,M,M,M,M,M,M,K05U 012355Z AUTO 02009KT 10SM CLR 14/M01 A3013 RMK A01
