#DEBUG: Format Typ    -> comma
#DEBUG: Time Period   -> 2017-04-01 00:00:00+00:00 2017-04-02 00:00:00+00:00
#DEBUG: Time Zone     -> Etc/UTC
#DEBUG: Data Contact   -> daryl herzmann akrherz@iastate.edu 515-294-5978
#DEBUG: Entries Found -> -1
station,valid,lon,lat,tmpf, dwpf, relh, drct, sknt, p01i, alti, mslp, vsby, gust, skyc1, skyc2, skyc3, skyc4, skyl1, skyl2, skyl3, skyl4, presentwx, metar
0V4,2017-04-01 00:15,-79.0164,37.1417,60.80,46.00,58.13,300.00,11.00,0.00,29.68,M,10.00,18.00,SCT,BKN,OVC,M,3500.00,5000.00,6000.00,M,M,K0V4 010015Z AUTO 30011G18KT 10SM SCT035 BKN050 OVC060 16/08 A2968 RMK AO1 T01600078
0V4,2017-04-01 00:35,-79.0164,37.1417,59.70,46.60,61.83,300.00,9.00,0.00,29.70,M,10.00,M,SCT,OVC,M,M,5000.00,6500.00,M,M,M,K0V4 010035Z AUTO 30009KT 10SM SCT050 OVC065 15/08 A2970 RMK AO1 T01540081
0V4,2017-04-01 00:55,-79.0164,37.1417,59.40,46.40,62.03,300.00,9.00,0.00,29.70,M,10.00,M,OVC,M,M,M,6500.00,M,M,M,M,K0V4 010055Z AUTO 30009KT 10SM OVC065 15/08 A2970 RMK AO1 T01520080
0V4,2017-04-01 01:15,-79.0164,37.1417,58.30,47.10,66.25,300.00,9.00,0.00,29.71,M,10.00,15.00,BKN,OVC,M,M,6500.00,8500.00,M,M,M,K0V4 010115Z AUTO 30009G15KT 10SM BKN065 OVC085 15/08 A2971 RMK AO1 T01460084
0V4,2017-04-01 01:35,-79.0164,37.1417,57.90,46.20,64.96,290.00,8.00,0.00,29.72,M,10.00,M,SCT,OVC,M,M,7500.00,9500.00,M,M,M,K0V4 010135Z AUTO 29008KT 10SM SCT075 OVC095 14/08 A2972 RMK AO1 T01440079
0V4,2017-04-01 01:55,-79.0164,37.1417,57.70,44.40,61.11,280.00,7.00,0.00,29.73,M,10.00,M,SCT,M,M,M,11000.00,M,M,M,M,K0V4 010155Z AUTO 28007KT 10SM SCT110 14/07 A2973 RMK AO1 T01430069
0V4,2017-04-01 02:15,-79.0164,37.1417,57.20,43.70,60.58,270.00,5.00,0.00,29.73,M,10.00,M,SCT,M,M,M,11000.00,M,M,M,M,K0V4 010215Z AUTO 27005KT 10SM SCT110 14/07 A2973 RMK AO1 T01400065
0V4,2017-04-01 02:35,-79.0164,37.1417,56.10,43.70,63.03,250.00,8.00,0.00,29.73,M,10.00,M,CLR,M,M,M,M,M,M,M,M,K0V4 010235Z AUTO 25008KT 10SM CLR 13/07 A2973 RMK AO1 T01340065
0V4,2017-04-01 02:55,-79.0164,37.1417,56.50,43.30,61.18,260.00,7.00,0.00,29.74,M,10.00,15.00,CLR,M,M,M,M,M,M,M,M,K0V4 010255Z AUTO 26007G15KT 10SM CLR 14/06 A2974 RMK AO1 T01360063
0V4,2017-04-01 03:15,-79.0164,37.1417,55.80,43.70,63.72,260.00,8.00,0.00,29.74,M,10.00,M,CLR,M,M,M,M,M,M,M,M,K0V4 010315Z AUTO 26008KT 10SM CLR 13/07 A2974 RMK AO1 T01320065
0V4,2017-04-01 03:35,-79.0164,37.1417,55.40,43.70,64.65,260.00,6.00,0.00,29.75,M,10.00,M,CLR,M,M,M,M,M,M,M,M,K0V4 010335Z AUTO 26006KT 10SM CLR 13/07 A2975 RMK AO1 T01300065
0V4,2017-04-01 03:55,-79.0164,37.1417,54.70,43.30,65.31,230.00,5.00,0.00,29.75,M,10.00,M,CLR,M,M,M,M,M,M,M,M,K0V4 010355Z AUTO 23005KT 10SM CLR 13/06 A2975 RMK AO1 T01260063
0V4,2017-04-01 04:15,-79.0164,37.1417,52.90,43.70,70.84,270.00,5.00,0.00,29.75,M,10.00,M,CLR,M,M,M,M,M,M,M,M,K0V4 010415Z AUTO 27005KT 10SM CLR 12/07 A2975 RMK AO1 T01160065
0V4,2017-04-01 04:35,-79.0164,37.1417,54.50,43.20,65.54,250.00,6.00,0.00,29.73,M,10.00,M,CLR,M,M,M,M,M,M,M,M,K0V4 010435Z AUTO 25006KT 10SM CLR 13/06 A2973 RMK AO1 T01250062
0V4,2017-04-01 04:55,-79.0164,37.1417,52.90,43.00,68.96,210.00,4.00,0.00,29.74,M,10.00,M,CLR,M,M,M,M,M,M,M,M,K0V4 010455Z AUTO 21004KT 10SM CLR 12/06 A2974 RMK AO1 T01160061 401770100
0V4,2017-04-01 05:15,-79.0164,37.1417,53.80,42.80,66.21,230.00,6.00,0.00,29.74,M,10.00,M,CLR,M,M,M,M,M,M,M,M,K0V4 010515Z AUTO 23006KT 10SM CLR 12/06 A2974 RMK AO1 T01210060
0V4,2017-04-01 05:35,-79.0164,37.1417,51.60,43.50,73.74,140.00,3.00,0.00,29.74,M,10.00,M,CLR,M,M,M,M,M,M,M,M,K0V4 010535Z AUTO 14003KT 10SM CLR 11/06 A2974 RMK AO1 T01090064
0V4,2017-04-01 05:55,-79.0164,37.1417,53.10,43.50,69.78,230.00,8.00,0.00,29.74,M,10.00,M,CLR,M,M,M,M,M,M,M,M,K0V4 010555Z AUTO 23008KT 10SM CLR 12/06 A2974 RMK AO1 T01170064 10166 20109
0V4,2017-04-01 06:15,-79.0164,37.1417,51.60,44.10,75.45,160.00,4.00,0.00,29.74,M,10.00,M,CLR,M,M,M,M,M,M,M,M,K0V4 010615Z AUTO 16004KT 10SM CLR 11/07 A2974 RMK AO1 T01090067
0V4,2017-04-01 06:35,-79.0164,37.1417,52.00,44.20,74.63,220.00,9.00,0.00,29.74,M,10.00,M,CLR,M,M,M,M,M,M,M,M,K0V4 010635Z AUTO 22009KT 10SM CLR 11/07 A2974 RMK AO1 T01110068
0V4,2017-04-01 06:55,-79.0164,37.1417,52.90,44.10,71.93,230.00,6.00,0.00,29.74,M,10.00,M,CLR,M,M,M,M,M,M,M,M,K0V4 010655Z AUTO 23006KT 10SM CLR 12/07 A2974 RMK AO1 T01160067
0V4,2017-04-01 07:15,-79.0164,37.1417,53.20,44.10,71.14,250.00,9.00,0.00,29.74,M,10.00,M,CLR,M,M,M,M,M,M,M,M,K0V4 010715Z AUTO 25009KT 10SM CLR 12/07 A2974 RMK AO1 T01180067
0V4,2017-04-01 07:35,-79.0164,37.1417,54.00,44.10,69.09,240.00,8.00,0.00,29.75,M,10.00,M,CLR,M,M,M,M,M,M,M,M,K0V4 010735Z AUTO 24008KT 10SM CLR 12/07 A2975 RMK AO1 T01220067
0V4,2017-04-01 07:55,-79.0164,37.1417,50.90,44.60,78.92,180.00,8.00,0.00,29.76,M,10.00,M,CLR,M,M,M,M,M,M,M,M,K0V4 010755Z AUTO 18008KT 10SM CLR 11/07 A2976 RMK AO1 T01050070
0V4,2017-04-01 08:15,-79.0164,37.1417,52.00,44.40,75.20,210.00,7.00,0.00,29.77,M,10.00,M,CLR,M,M,M,M,M,M,M,M,K0V4 010815Z AUTO 21007KT 10SM CLR 11/07 A2977 RMK AO1 T01110069
0V4,2017-04-01 08:35,-79.0164,37.1417,53.40,44.60,71.98,250.00,9.00,0.00,29.77,M,10.00,M,CLR,M,M,M,M,M,M,M,M,K0V4 010835Z AUTO 25009KT 10SM CLR 12/07 A2977 RMK AO1 T01190070
0V4,2017-04-01 08:55,-79.0164,37.1417,52.00,44.60,75.78,250.00,8.00,0.00,29.77,M,10.00,M,CLR,M,M,M,M,M,M,M,M,K0V4 010855Z AUTO 25008KT 10SM CLR 11/07 A2977 RMK AO1 T01110070
0V4,2017-04-01 09:15,-79.0164,37.1417,52.30,44.60,74.95,220.00,4.00,0.00,29.79,M,10.00,M,CLR,M,M,M,M,M,M,M,M,K0V4 010915Z AUTO 22004KT 10SM CLR 11/07 A2979 RMK AO1 T01130070
0V4,2017-04-01 09:35,-79.0164,37.1417,52.50,44.60,74.40,240.00,5.00,0.00,29.79,M,10.00,M,CLR,M,M,M,M,M,M,M,M,K0V4 010935Z AUTO 24005KT 10SM CLR 11/07 A2979 RMK AO1 T01140070
0V4,2017-04-01 09:55,-79.0164,37.1417,51.80,44.80,76.92,210.00,3.00,0.00,29.80,M,10.00,M,CLR,M,M,M,M,M,M,M,M,K0V4 010955Z AUTO 21003KT 10SM CLR 11/07 A2980 RMK AO1 T01100071
0V4,2017-04-01 10:15,-79.0164,37.1417,52.90,44.60,73.31,220.00,5.00,0.00,29.81,M,10.00,M,CLR,M,M,M,M,M,M,M,M,K0V4 011015Z AUTO 22005KT 10SM CLR 12/07 A2981 RMK AO1 T01160070
0V4,2017-04-01 10:35,-79.0164,37.1417,52.90,44.10,71.93,260.00,5.00,0.00,29.81,M,10.00,M,CLR,M,M,M,M,M,M,M,M,K0V4 011035Z AUTO 26005KT 10SM CLR 12/07 A2981 RMK AO1 T01160067
0V4,2017-04-01 10:55,-79.0164,37.1417,50.40,44.60,80.40,270.00,4.00,0.00,29.83,M,10.00,M,CLR,M,M,M,M,M,M,M,M,K0V4 011055Z AUTO 27004KT 10SM CLR 10/07 A2983 RMK AO1 T01020070
0V4,2017-04-01 11:15,-79.0164,37.1417,51.60,44.40,76.32,250.00,3.00,0.00,29.84,M,10.00,M,CLR,M,M,M,M,M,M,M,M,K0V4 011115Z AUTO 25003KT 10SM CLR 11/07 A2984 RMK AO1 T01090069
0V4,2017-04-01 11:35,-79.0164,37.1417,50.90,44.20,77.73,0.00,0.00,0.00,29.85,M,10.00,M,CLR,M,M,M,M,M,M,M,M,K0V4 011135Z AUTO 00000KT 10SM CLR 11/07 A2985 RMK AO1 T01050068
0V4,2017-04-01 11:55,-79.0164,37.1417,51.60,46.40,82.34,0.00,0.00,0.00,29.85,M,10.00,M,CLR,M,M,M,M,M,M,M,M,K0V4 011155Z AUTO 00000KT 10SM CLR 11/08 A2985 RMK AO1 70052 T01090080 10123 20101
0V4,2017-04-01 12:15,-79.0164,37.1417,56.50,45.30,66.03,0.00,0.00,0.00,29.87,M,10.00,M,CLR,M,M,M,M,M,M,M,M,K0V4 011215Z AUTO 00000KT 10SM CLR 14/07 A2987 RMK AO1 T01360074
0V4,2017-04-01 12:35,-79.0164,37.1417,58.10,45.00,61.63,280.00,4.00,0.00,29.88,M,10.00,M,CLR,M,M,M,M,M,M,M,M,K0V4 011235Z AUTO 28004KT 10SM CLR 15/07 A2988 RMK AO1 T01450072
0V4,2017-04-01 12:55,-79.0164,37.1417,60.10,44.60,56.51,300.00,5.00,0.00,29.88,M,10.00,M,CLR,M,M,M,M,M,M,M,M,K0V4 011255Z AUTO 30005KT 10SM CLR 16/07 A2988 RMK AO1 T01560070
0V4,2017-04-01 13:15,-79.0164,37.1417,61.30,45.10,55.19,300.00,5.00,0.00,29.89,M,10.00,M,CLR,M,M,M,M,M,M,M,M,K0V4 011315Z AUTO 30005KT 10SM CLR 16/07 A2989 RMK AO1 T01630073
0V4,2017-04-01 13:35,-79.0164,37.1417,62.60,44.10,50.74,310.00,6.00,0.00,29.90,M,10.00,M,CLR,M,M,M,M,M,M,M,M,K0V4 011335Z AUTO 31006KT 10SM CLR 17/07 A2990 RMK AO1 T01700067
0V4,2017-04-01 13:55,-79.0164,37.1417,63.90,43.50,47.38,300.00,8.00,0.00,29.89,M,10.00,M,CLR,M,M,M,M,M,M,M,M,K0V4 011355Z AUTO 30008KT 10SM CLR 18/06 A2989 RMK AO1 T01770064
0V4,2017-04-01 14:15,-79.0164,37.1417,63.90,42.40,45.42,280.00,9.00,0.00,29.90,M,10.00,M,CLR,M,M,M,M,M,M,M,M,K0V4 011415Z AUTO 28009KT 10SM CLR 18/06 A2990 RMK AO1 T01770058
0V4,2017-04-01 14:35,-79.0164,37.1417,64.40,41.70,43.44,280.00,10.00,0.00,29.91,M,10.00,14.00,CLR,M,M,M,M,M,M,M,M,K0V4 011435Z AUTO 28010G14KT 10SM CLR 18/05 A2991 RMK AO1 T01800054
0V4,2017-04-01 14:55,-79.0164,37.1417,64.90,41.40,42.20,290.00,8.00,0.00,29.92,M,10.00,16.00,CLR,M,M,M,M,M,M,M,M,K0V4 011455Z AUTO 29008G16KT 10SM CLR 18/05 A2992 RMK AO1 T01830052
0V4,2017-04-01 15:15,-79.0164,37.1417,65.70,41.70,41.52,300.00,11.00,0.00,29.92,M,10.00,15.00,CLR,M,M,M,M,M,M,M,M,K0V4 011515Z AUTO 30011G15KT 10SM CLR 19/05 A2992 RMK AO1 T01870054
0V4,2017-04-01 15:35,-79.0164,37.1417,65.80,41.00,40.27,290.00,11.00,0.00,29.93,M,10.00,18.00,CLR,M,M,M,M,M,M,M,M,K0V4 011535Z AUTO 29011G18KT 10SM CLR 19/05 A2993 RMK AO1 T01880050
0V4,2017-04-01 15:55,-79.0164,37.1417,66.60,41.50,39.93,290.00,11.00,0.00,29.94,M,10.00,18.00,CLR,M,M,M,M,M,M,M,M,K0V4 011555Z AUTO 29011G18KT 10SM CLR 19/05 A2994 RMK AO1 T01920053
0V4,2017-04-01 16:15,-79.0164,37.1417,66.70,41.90,40.41,280.00,11.00,0.00,29.95,M,10.00,14.00,SCT,M,M,M,5000.00,M,M,M,M,K0V4 011615Z AUTO 28011G14KT 10SM SCT050 19/06 A2995 RMK AO1 T01930055
0V4,2017-04-01 16:35,-79.0164,37.1417,67.80,41.90,38.91,290.00,10.00,0.00,29.94,M,10.00,17.00,BKN,M,M,M,5000.00,M,M,M,M,K0V4 011635Z AUTO 29010G17KT 10SM BKN050 20/06 A2994 RMK AO1 T01990055
0V4,2017-04-01 16:55,-79.0164,37.1417,65.70,41.20,40.72,310.00,11.00,0.00,29.94,M,10.00,15.00,BKN,M,M,M,5000.00,M,M,M,M,K0V4 011655Z AUTO 31011G15KT 10SM BKN050 19/05 A2994 RMK AO1 T01870051
0V4,2017-04-01 17:15,-79.0164,37.1417,68.40,42.30,38.70,310.00,7.00,0.00,29.94,M,10.00,18.00,SCT,M,M,M,5000.00,M,M,M,M,K0V4 011715Z AUTO 31007G18KT 10SM SCT050 20/06 A2994 RMK AO1 T02020057
0V4,2017-04-01 17:35,-79.0164,37.1417,66.70,40.60,38.43,280.00,8.00,0.00,29.95,M,10.00,15.00,SCT,M,M,M,5000.00,M,M,M,M,K0V4 011735Z AUTO 28008G15KT 10SM SCT050 19/05 A2995 RMK AO1 T01930048
0V4,2017-04-01 17:55,-79.0164,37.1417,68.20,40.50,36.35,310.00,8.00,0.00,29.94,M,10.00,17.00,SCT,M,M,M,5000.00,M,M,M,M,K0V4 011755Z AUTO 31008G17KT 10SM SCT050 20/05 A2994 RMK AO1 T02010047 10205 20111
0V4,2017-04-01 18:15,-79.0164,37.1417,68.00,39.90,35.76,310.00,11.00,0.00,29.94,M,10.00,16.00,CLR,M,M,M,M,M,M,M,M,K0V4 011815Z AUTO 31011G16KT 10SM CLR 20/04 A2994 RMK AO1 T02000044
0V4,2017-04-01 18:35,-79.0164,37.1417,69.30,41.20,35.97,290.00,9.00,0.00,29.93,M,10.00,16.00,CLR,M,M,M,M,M,M,M,M,K0V4 011835Z AUTO 29009G16KT 10SM CLR 21/05 A2993 RMK AO1 T02070051
0V4,2017-04-01 18:55,-79.0164,37.1417,69.40,40.60,35.02,300.00,5.00,0.00,29.93,M,10.00,14.00,CLR,M,M,M,M,M,M,M,M,K0V4 011855Z AUTO 30005G14KT 10SM CLR 21/05 A2993 RMK AO1 T02080048
0V4,2017-04-01 19:15,-79.0164,37.1417,69.40,39.90,34.08,300.00,9.00,0.00,29.93,M,10.00,18.00,CLR,M,M,M,M,M,M,M,M,K0V4 011915Z AUTO 30009G18KT 10SM CLR 21/04 A2993 RMK AO1 T02080044
0V4,2017-04-01 19:35,-79.0164,37.1417,69.80,40.10,33.88,320.00,10.00,0.00,29.93,M,10.00,17.00,CLR,M,M,M,M,M,M,M,M,K0V4 011935Z AUTO 32010G17KT 10SM CLR 21/05 A2993 RMK AO1 T02100045
0V4,2017-04-01 19:55,-79.0164,37.1417,70.20,41.40,35.15,300.00,7.00,0.00,29.93,M,10.00,16.00,CLR,M,M,M,M,M,M,M,M,K0V4 011955Z AUTO 30007G16KT 10SM CLR 21/05 A2993 RMK AO1 T02120052
0V4,2017-04-01 20:15,-79.0164,37.1417,69.60,40.60,34.78,310.00,12.00,0.00,29.94,M,10.00,16.00,CLR,M,M,M,M,M,M,M,M,K0V4 012015Z AUTO 31012G16KT 10SM CLR 21/05 A2994 RMK AO1 T02090048
0V4,2017-04-01 20:35,-79.0164,37.1417,69.60,40.10,34.11,300.00,7.00,0.00,29.93,M,10.00,16.00,CLR,M,M,M,M,M,M,M,M,K0V4 012035Z AUTO 30007G16KT 10SM CLR 21/05 A2993 RMK AO1 T02090045
0V4,2017-04-01 20:55,-79.0164,37.1417,68.90,39.90,34.67,290.00,11.00,0.00,29.94,M,10.00,17.00,CLR,M,M,M,M,M,M,M,M,K0V4 012055Z AUTO 29011G17KT 10SM CLR 21/04 A2994 RMK AO1 T02050044
0V4,2017-04-01 21:15,-79.0164,37.1417,68.40,39.90,35.27,270.00,11.00,0.00,29.95,M,10.00,20.00,CLR,M,M,M,M,M,M,M,M,K0V4 012115Z AUTO 27011G20KT 10SM CLR 20/04 A2995 RMK AO1 T02020044
0V4,2017-04-01 21:35,-79.0164,37.1417,67.50,39.60,35.96,290.00,9.00,0.00,29.96,M,10.00,19.00,CLR,M,M,M,M,M,M,M,M,K0V4 012135Z AUTO 29009G19KT 10SM CLR 20/04 A2996 RMK AO1 T01970042
0V4,2017-04-01 21:55,-79.0164,37.1417,66.60,38.80,35.96,300.00,13.00,0.00,29.96,M,10.00,20.00,CLR,M,M,M,M,M,M,M,M,K0V4 012155Z AUTO 30013G20KT 10SM CLR 19/04 A2996 RMK AO1 T01920038
0V4,2017-04-01 22:15,-79.0164,37.1417,65.10,38.10,36.86,290.00,13.00,0.00,29.98,M,10.00,20.00,CLR,M,M,M,M,M,M,M,M,K0V4 012215Z AUTO 29013G20KT 10SM CLR 18/03 A2998 RMK AO1 T01840034
0V4,2017-04-01 22:35,-79.0164,37.1417,63.90,37.80,37.98,290.00,13.00,0.00,29.99,M,10.00,20.00,CLR,M,M,M,M,M,M,M,M,K0V4 012235Z AUTO 29013G20KT 10SM CLR 18/03 A2999 RMK AO1 T01770032
0V4,2017-04-01 22:55,-79.0164,37.1417,62.60,37.80,39.76,280.00,12.00,0.00,30.00,M,10.00,20.00,CLR,M,M,M,M,M,M,M,M,K0V4 012255Z AUTO 28012G20KT 10SM CLR 17/03 A3000 RMK AO1 T01700032
0V4,2017-04-01 23:15,-79.0164,37.1417,61.30,37.60,41.30,290.00,11.00,0.00,30.01,M,10.00,20.00,CLR,M,M,M,M,M,M,M,M,K0V4 012315Z AUTO 29011G20KT 10SM CLR 16/03 A3001 RMK AO1 T01630031
0V4,2017-04-01 23:35,-79.0164,37.1417,59.50,37.90,44.55,290.00,10.00,0.00,30.02,M,10.00,15.00,CLR,M,M,M,M,M,M,M,M,K0V4 012335Z AUTO 29010G15KT 10SM CLR 15/03 A3002 RMK AO1 T01530033
0V4,2017-04-01 23:55,-79.0164,37.1417,58.50,37.90,46.17,290.00,8.00,0.00,30.03,M,10.00,14.00,CLR,M,M,M,M,M,M,M,M,K0V4 012355Z AUTO 29008G14KT 10SM CLR 15/03 A3003 RMK AO1 T01470033 10215 20147
