#DEBUG: Format Typ    -> comma
#DEBUG: Time Period   -> 2017-04-01 00:00:00+00:00 2017-04-02 00:00:00+00:00
#DEBUG: Time Zone     -> Etc/UTC
#DEBUG: Data Contact   -> daryl herzmann akrherz@iastate.edu 515-294-5978
#DEBUG: Entries Found -> -1
station,valid,lon,lat,tmpf, dwpf, relh, drct, sknt, p01i, alti, mslp, vsby, gust, skyc1, skyc2, skyc3, skyc4, skyl1, skyl2, skyl3, skyl4, presentwx, metar
1K1,2017-04-01 00:15,-97.1132,37.7744,50.90,42.10,71.72,70.00,7.00,0.00,29.94,M,10.00,M,OVC,M,M,M,2900.00,M,M,M,M,K1K1 010015Z AUTO 07007KT 10SM OVC029 11/06 A2994 RMK AO2 T01050056
1K1,2017-04-01 00:35,-97.1132,37.7744,50.40,41.50,71.39,80.00,7.00,0.00,29.94,M,10.00,16.00,OVC,M,M,M,2700.00,M,M,M,M,K1K1 010035Z AUTO 08007G16KT 10SM OVC027 10/05 A2994 RMK AO2 T01020053
1K1,2017-04-01 00:55,-97.1132,37.7744,50.00,41.90,73.58,70.00,7.00,0.00,29.95,M,10.00,M,OVC,M,M,M,2500.00,M,M,M,M,K1K1 010055Z AUTO 07007KT 010V090 10SM OVC025 10/06 A2995 RMK AO2 T01000055
1K1,2017-04-01 01:15,-97.1132,37.7744,49.50,41.90,74.97,60.00,7.00,0.00,29.95,M,10.00,16.00,OVC,M,M,M,2500.00,M,M,M,M,K1K1 010115Z AUTO 06007G16KT 10SM OVC025 10/06 A2995 RMK AO2 T00970055
1K1,2017-04-01 01:35,-97.1132,37.7744,48.70,42.10,77.84,70.00,8.00,0.00,29.97,M,10.00,M,OVC,M,M,M,2300.00,M,M,M,M,K1K1 010135Z AUTO 07008KT 10SM OVC023 09/06 A2997 RMK AO2 T00930056
1K1,2017-04-01 01:55,-97.1132,37.7744,48.20,41.40,77.20,60.00,6.00,0.00,29.98,M,10.00,M,OVC,M,M,M,2300.00,M,M,M,M,K1K1 010155Z AUTO 06006KT 10SM OVC023 09/05 A2998 RMK AO2 T00900052
1K1,2017-04-01 02:15,-97.1132,37.7744,47.50,41.40,79.25,60.00,6.00,0.00,29.99,M,10.00,M,OVC,M,M,M,2100.00,M,M,M,M,K1K1 010215Z AUTO 06006KT 10SM OVC021 09/05 A2999 RMK AO2 T00860052
1K1,2017-04-01 02:35,-97.1132,37.7744,47.30,41.20,79.24,50.00,6.00,0.00,30.00,M,10.00,M,OVC,M,M,M,2100.00,M,M,M,M,K1K1 010235Z AUTO 05006KT 10SM OVC021 09/05 A3000 RMK AO2 T00850051
1K1,2017-04-01 02:55,-97.1132,37.7744,46.60,41.00,80.73,60.00,5.00,0.00,30.01,M,10.00,M,OVC,M,M,M,2100.00,M,M,M,M,K1K1 010255Z AUTO 06005KT 10SM OVC021 08/05 A3001 RMK AO2 T00810050
1K1,2017-04-01 03:15,-97.1132,37.7744,46.40,41.00,81.34,50.00,8.00,0.00,30.03,M,10.00,M,OVC,M,M,M,2100.00,M,M,M,M,K1K1 010315Z AUTO 05008KT 030V090 10SM OVC021 08/05 A3003 RMK AO2 T00800050
1K1,2017-04-01 03:35,-97.1132,37.7744,46.00,41.00,82.58,50.00,5.00,0.00,30.05,M,10.00,M,OVC,M,M,M,1900.00,M,M,M,M,K1K1 010335Z AUTO 05005KT 10SM OVC019 08/05 A3005 RMK AO2 T00780050
1K1,2017-04-01 03:55,-97.1132,37.7744,45.70,41.00,83.52,50.00,3.00,0.00,30.06,M,10.00,M,OVC,M,M,M,1900.00,M,M,M,M,K1K1 010355Z AUTO 05003KT 10SM OVC019 08/05 A3006 RMK AO2 T00760050
1K1,2017-04-01 04:15,-97.1132,37.7744,45.50,41.00,84.16,60.00,4.00,0.00,30.06,M,10.00,M,OVC,M,M,M,1700.00,M,M,M,M,K1K1 010415Z AUTO 06004KT 10SM OVC017 08/05 A3006 RMK AO2 T00750050
1K1,2017-04-01 04:35,-97.1132,37.7744,45.10,40.80,84.79,60.00,5.00,0.00,30.06,M,10.00,M,OVC,M,M,M,1500.00,M,M,M,M,K1K1 010435Z AUTO 06005KT 10SM OVC015 07/05 A3006 RMK AO2 T00730049
1K1,2017-04-01 04:55,-97.1132,37.7744,45.00,40.60,84.45,60.00,5.00,0.00,30.05,M,10.00,M,OVC,M,M,M,1500.00,M,M,M,M,K1K1 010455Z AUTO 06005KT 10SM OVC015 07/05 A3005 RMK AO2 T00720048
1K1,2017-04-01 05:15,-97.1132,37.7744,44.80,40.60,85.10,60.00,6.00,0.00,30.05,M,10.00,M,OVC,M,M,M,1500.00,M,M,M,M,K1K1 010515Z AUTO 06006KT 10SM OVC015 07/05 A3005 RMK AO2 T00710048
1K1,2017-04-01 05:35,-97.1132,37.7744,44.60,40.60,85.75,60.00,9.00,0.00,30.04,M,10.00,14.00,OVC,M,M,M,1700.00,M,M,M,M,K1K1 010535Z AUTO 06009G14KT 030V090 10SM OVC017 07/05 A3004 RMK AO2 T00700048
1K1,2017-04-01 05:55,-97.1132,37.7744,44.60,40.60,85.75,70.00,11.00,0.00,30.01,M,10.00,18.00,OVC,M,M,M,1500.00,M,M,M,M,K1K1 010555Z AUTO 07011G18KT 040V100 10SM OVC015 07/05 A3001 RMK AO2 T00700048 10108 20070 401300057
1K1,2017-04-01 06:15,-97.1132,37.7744,44.60,40.50,85.42,70.00,8.00,0.00,30.03,M,10.00,M,OVC,M,M,M,1300.00,M,M,M,M,K1K1 010615Z AUTO 07008KT 030V120 10SM OVC013 07/05 A3003 RMK AO2 T00700047
1K1,2017-04-01 06:35,-97.1132,37.7744,44.40,40.30,85.41,80.00,8.00,0.00,30.03,M,10.00,M,OVC,M,M,M,1300.00,M,M,M,M,K1K1 010635Z AUTO 08008KT 10SM OVC013 07/05 A3003 RMK AO2 T00690046
1K1,2017-04-01 06:55,-97.1132,37.7744,44.20,40.10,85.39,70.00,7.00,0.00,30.04,M,10.00,16.00,OVC,M,M,M,1300.00,M,M,M,M,K1K1 010655Z AUTO 07007G16KT 10SM OVC013 07/05 A3004 RMK AO2 T00680045
1K1,2017-04-01 07:15,-97.1132,37.7744,44.20,40.10,85.39,70.00,8.00,0.00,30.05,M,10.00,15.00,OVC,M,M,M,1300.00,M,M,M,M,K1K1 010715Z AUTO 07008G15KT 10SM OVC013 07/05 A3005 RMK AO2 T00680045
1K1,2017-04-01 07:35,-97.1132,37.7744,44.10,40.10,85.72,80.00,7.00,0.00,30.03,M,10.00,14.00,OVC,M,M,M,1300.00,M,M,M,M,K1K1 010735Z AUTO 08007G14KT 060V220 10SM OVC013 07/05 A3003 RMK AO2 T00670045
1K1,2017-04-01 07:55,-97.1132,37.7744,44.20,40.30,86.06,80.00,7.00,0.00,30.04,M,10.00,15.00,OVC,M,M,M,1300.00,M,M,M,M,K1K1 010755Z AUTO 08007G15KT 10SM OVC013 07/05 A3004 RMK AO2 T00680046
1K1,2017-04-01 08:15,-97.1132,37.7744,44.20,40.30,86.06,80.00,10.00,0.00,30.03,M,10.00,15.00,OVC,M,M,M,1300.00,M,M,M,M,K1K1 010815Z AUTO 08010G15KT 10SM OVC013 07/05 A3003 RMK AO2 T00680046
1K1,2017-04-01 08:35,-97.1132,37.7744,44.20,40.30,86.06,80.00,7.00,0.00,30.03,M,10.00,16.00,OVC,M,M,M,1300.00,M,M,M,M,K1K1 010835Z AUTO 08007G16KT 10SM OVC013 07/05 A3003 RMK AO2 T00680046
1K1,2017-04-01 08:55,-97.1132,37.7744,44.60,40.50,85.42,80.00,7.00,0.00,30.04,M,10.00,14.00,OVC,M,M,M,1300.00,M,M,M,M,K1K1 010855Z AUTO 08007G14KT 10SM OVC013 07/05 A3004 RMK AO2 T00700047
1K1,2017-04-01 09:15,-97.1132,37.7744,44.60,40.50,85.42,70.00,4.00,0.00,30.05,M,10.00,15.00,OVC,M,M,M,1300.00,M,M,M,M,K1K1 010915Z AUTO 07004G15KT 10SM OVC013 07/05 A3005 RMK AO2 T00700047
1K1,2017-04-01 09:35,-97.1132,37.7744,44.60,40.60,85.75,70.00,5.00,0.00,30.05,M,10.00,M,OVC,M,M,M,1300.00,M,M,M,M,K1K1 010935Z AUTO 07005KT 10SM OVC013 07/05 A3005 RMK AO2 T00700048
1K1,2017-04-01 09:55,-97.1132,37.7744,44.60,40.60,85.75,60.00,6.00,0.00,30.07,M,10.00,M,OVC,M,M,M,1300.00,M,M,M,M,K1K1 010955Z AUTO 06006KT 10SM OVC013 07/05 A3007 RMK AO2 T00700048
1K1,2017-04-01 10:15,-97.1132,37.7744,44.20,40.50,86.73,60.00,8.00,0.00,30.08,M,10.00,14.00,OVC,M,M,M,1300.00,M,M,M,M,K1K1 011015Z AUTO 06008G14KT 10SM OVC013 07/05 A3008 RMK AO2 T00680047
1K1,2017-04-01 10:35,-97.1132,37.7744,43.90,40.50,87.73,70.00,4.00,0.00,30.08,M,10.00,M,OVC,M,M,M,1100.00,M,M,M,M,K1K1 011035Z AUTO 07004KT 10SM OVC011 07/05 A3008 RMK AO2 T00660047
1K1,2017-04-01 10:55,-97.1132,37.7744,43.90,40.30,87.05,60.00,9.00,0.00,30.09,M,10.00,M,OVC,M,M,M,1100.00,M,M,M,M,K1K1 011055Z AUTO 06009KT 030V090 10SM OVC011 07/05 A3009 RMK AO2 T00660046
1K1,2017-04-01 11:15,-97.1132,37.7744,43.70,40.30,87.72,70.00,8.00,0.00,30.09,M,10.00,18.00,OVC,M,M,M,1100.00,M,M,M,M,K1K1 011115Z AUTO 07008G18KT 10SM OVC011 07/05 A3009 RMK AO2 T00650046
1K1,2017-04-01 11:35,-97.1132,37.7744,43.70,40.30,87.72,60.00,6.00,0.00,30.10,M,10.00,M,OVC,M,M,M,1100.00,M,M,M,M,K1K1 011135Z AUTO 06006KT 10SM OVC011 07/05 A3010 RMK AO2 T00650046
1K1,2017-04-01 11:55,-97.1132,37.7744,43.30,39.90,87.70,60.00,10.00,0.00,30.09,M,10.00,20.00,OVC,M,M,M,1100.00,M,M,M,M,K1K1 011155Z AUTO 06010G20KT 030V090 10SM OVC011 06/04 A3009 RMK AO2 T00630044 10070 20063
1K1,2017-04-01 12:15,-97.1132,37.7744,43.30,39.70,87.02,60.00,11.00,0.00,30.09,M,10.00,18.00,OVC,M,M,M,1100.00,M,M,M,M,K1K1 011215Z AUTO 06011G18KT 10SM OVC011 06/04 A3009 RMK AO2 T00630043
1K1,2017-04-01 12:35,-97.1132,37.7744,43.30,40.10,88.38,70.00,7.00,0.00,30.10,M,10.00,16.00,OVC,M,M,M,1100.00,M,M,M,M,K1K1 011235Z AUTO 07007G16KT 040V130 10SM OVC011 06/05 A3010 RMK AO2 T00630045
1K1,2017-04-01 12:55,-97.1132,37.7744,43.30,40.10,88.38,80.00,9.00,0.00,30.11,M,10.00,18.00,OVC,M,M,M,1100.00,M,M,M,M,K1K1 011255Z AUTO 08009G18KT 10SM OVC011 06/05 A3011 RMK AO2 T00630045
1K1,2017-04-01 13:15,-97.1132,37.7744,43.50,40.10,87.71,80.00,11.00,0.00,30.12,M,10.00,16.00,OVC,M,M,M,1100.00,M,M,M,M,K1K1 011315Z AUTO 08011G16KT 10SM OVC011 06/05 A3012 RMK AO2 T00640045
1K1,2017-04-01 13:35,-97.1132,37.7744,43.50,40.10,87.71,80.00,7.00,0.00,30.11,M,10.00,20.00,OVC,M,M,M,1100.00,M,M,M,M,K1K1 011335Z AUTO 08007G20KT 10SM OVC011 06/05 A3011 RMK AO2 T00640045
1K1,2017-04-01 13:55,-97.1132,37.7744,43.70,40.10,87.04,90.00,15.00,0.00,30.10,M,10.00,21.00,OVC,M,M,M,1100.00,M,M,M,M,K1K1 011355Z AUTO 09015G21KT 10SM OVC011 07/05 A3010 RMK AO2 T00650045
1K1,2017-04-01 14:15,-97.1132,37.7744,43.70,40.10,87.04,80.00,15.00,0.00,30.10,M,10.00,23.00,OVC,M,M,M,1100.00,M,M,M,M,K1K1 011415Z AUTO 08015G23KT 10SM OVC011 07/05 A3010 RMK AO2 T00650045
1K1,2017-04-01 14:35,-97.1132,37.7744,43.30,39.90,87.70,80.00,10.00,0.00,30.11,M,10.00,19.00,OVC,M,M,M,1100.00,M,M,M,M,K1K1 011435Z AUTO 08010G19KT 10SM OVC011 06/04 A3011 RMK AO2 T00630044
1K1,2017-04-01 14:55,-97.1132,37.7744,43.70,40.10,87.04,80.00,13.00,0.00,30.12,M,10.00,21.00,OVC,M,M,M,1100.00,M,M,M,M,K1K1 011455Z AUTO 08013G21KT 10SM OVC011 07/05 A3012 RMK AO2 T00650045
1K1,2017-04-01 15:15,-97.1132,37.7744,43.90,40.10,86.38,80.00,10.00,0.00,30.12,M,10.00,18.00,OVC,M,M,M,1100.00,M,M,M,M,K1K1 011515Z AUTO 08010G18KT 10SM OVC011 07/05 A3012 RMK AO2 T00660045
1K1,2017-04-01 15:35,-97.1132,37.7744,43.90,40.10,86.38,70.00,7.00,0.00,30.12,M,10.00,16.00,OVC,M,M,M,1100.00,M,M,M,M,K1K1 011535Z AUTO 07007G16KT 040V120 10SM OVC011 07/05 A3012 RMK AO2 T00660045
1K1,2017-04-01 15:55,-97.1132,37.7744,44.40,40.30,85.41,70.00,11.00,0.00,30.12,M,10.00,19.00,OVC,M,M,M,1100.00,M,M,M,M,K1K1 011555Z AUTO 07011G19KT 10SM OVC011 07/05 A3012 RMK AO2 T00690046
1K1,2017-04-01 16:15,-97.1132,37.7744,44.60,40.60,85.75,80.00,11.00,0.00,30.11,M,10.00,19.00,OVC,M,M,M,1100.00,M,M,M,M,K1K1 011615Z AUTO 08011G19KT 10SM OVC011 07/05 A3011 RMK AO2 T00700048
1K1,2017-04-01 16:35,-97.1132,37.7744,44.80,40.60,85.10,80.00,9.00,0.00,30.11,M,10.00,20.00,OVC,M,M,M,1100.00,M,M,M,M,K1K1 011635Z AUTO 08009G20KT 040V120 10SM OVC011 07/05 A3011 RMK AO2 T00710048
1K1,2017-04-01 16:55,-97.1132,37.7744,45.30,41.20,85.46,70.00,9.00,0.00,30.11,M,10.00,20.00,OVC,M,M,M,1100.00,M,M,M,M,K1K1 011655Z AUTO 07009G20KT 10SM OVC011 07/05 A3011 RMK AO2 T00740051
1K1,2017-04-01 17:15,-97.1132,37.7744,45.30,41.00,84.80,80.00,6.00,0.00,30.11,M,10.00,17.00,OVC,M,M,M,1100.00,M,M,M,M,K1K1 011715Z AUTO 08006G17KT 10SM OVC011 07/05 A3011 RMK AO2 T00740050
1K1,2017-04-01 17:35,-97.1132,37.7744,46.00,41.40,83.87,80.00,7.00,0.00,30.10,M,10.00,17.00,OVC,M,M,M,1100.00,M,M,M,M,K1K1 011735Z AUTO 08007G17KT 050V110 10SM OVC011 08/05 A3010 RMK AO2 T00780052
1K1,2017-04-01 17:55,-97.1132,37.7744,46.90,41.90,82.64,80.00,8.00,0.00,30.09,M,10.00,19.00,OVC,M,M,M,1300.00,M,M,M,M,K1K1 011755Z AUTO 08008G19KT 10SM OVC013 08/06 A3009 RMK AO2 T00830055 10083 20062
1K1,2017-04-01 18:15,-97.1132,37.7744,47.70,42.10,80.81,80.00,12.00,0.00,30.08,M,10.00,19.00,OVC,M,M,M,1300.00,M,M,M,M,K1K1 011815Z AUTO 08012G19KT 10SM OVC013 09/06 A3008 RMK AO2 T00870056
1K1,2017-04-01 18:35,-97.1132,37.7744,49.10,42.60,78.17,80.00,12.00,0.00,30.07,M,10.00,17.00,OVC,M,M,M,1500.00,M,M,M,M,K1K1 011835Z AUTO 08012G17KT 10SM OVC015 10/06 A3007 RMK AO2 T00950059
1K1,2017-04-01 18:55,-97.1132,37.7744,49.50,42.80,77.61,80.00,9.00,0.00,30.07,M,10.00,18.00,OVC,M,M,M,1500.00,M,M,M,M,K1K1 011855Z AUTO 08009G18KT 10SM OVC015 10/06 A3007 RMK AO2 T00970060
1K1,2017-04-01 19:15,-97.1132,37.7744,50.90,43.90,76.84,70.00,8.00,0.00,30.07,M,10.00,17.00,OVC,M,M,M,1700.00,M,M,M,M,K1K1 011915Z AUTO 07008G17KT 10SM OVC017 11/07 A3007 RMK AO2 T01050066
1K1,2017-04-01 19:35,-97.1132,37.7744,51.60,43.70,74.31,90.00,8.00,0.00,30.05,M,10.00,14.00,BKN,OVC,M,M,1700.00,9000.00,M,M,M,K1K1 011935Z AUTO 09008G14KT 10SM BKN017 OVC090 11/07 A3005 RMK AO2 T01090065
1K1,2017-04-01 19:55,-97.1132,37.7744,52.00,44.10,74.35,80.00,7.00,0.00,30.04,M,10.00,17.00,BKN,OVC,M,M,1900.00,9000.00,M,M,M,K1K1 011955Z AUTO 08007G17KT 10SM BKN019 OVC090 11/07 A3004 RMK AO2 T01110067
1K1,2017-04-01 20:15,-97.1132,37.7744,52.00,43.70,73.22,80.00,9.00,0.00,30.03,M,10.00,19.00,BKN,OVC,M,M,1900.00,9000.00,M,M,M,K1K1 012015Z AUTO 08009G19KT 10SM BKN019 OVC090 11/07 A3003 RMK AO2 T01110065
1K1,2017-04-01 20:35,-97.1132,37.7744,52.20,44.10,73.80,70.00,8.00,0.00,30.02,M,10.00,15.00,BKN,OVC,M,M,1900.00,9000.00,M,M,M,K1K1 012035Z AUTO 07008G15KT 10SM BKN019 OVC090 11/07 A3002 RMK AO2 T01120067
1K1,2017-04-01 20:55,-97.1132,37.7744,50.40,43.50,77.09,80.00,10.00,0.00,30.02,M,10.00,15.00,BKN,OVC,M,M,1900.00,9000.00,M,M,M,K1K1 012055Z AUTO 08010G15KT 10SM BKN019 OVC090 10/06 A3002 RMK AO2 T01020064
1K1,2017-04-01 21:15,-97.1132,37.7744,50.50,43.70,77.40,90.00,6.00,0.00,30.03,M,10.00,M,BKN,OVC,M,M,1900.00,9000.00,M,M,M,K1K1 012115Z AUTO 09006KT 10SM BKN019 OVC090 10/07 A3003 RMK AO2 T01030065
1K1,2017-04-01 21:35,-97.1132,37.7744,50.70,43.50,76.24,70.00,4.00,0.00,30.07,M,10.00,M,SCT,OVC,M,M,1900.00,10000.00,M,M,M,K1K1 012135Z AUTO 07004KT 10SM SCT019 OVC100 10/06 A3007 RMK AO2 T01040064
1K1,2017-04-01 21:55,-97.1132,37.7744,50.20,44.40,80.39,0.00,0.00,0.00,30.08,M,7.00,M,SCT,OVC,M,M,2100.00,10000.00,M,M,RA,K1K1 012155Z AUTO 00000KT 7SM RA SCT021 OVC100 10/07 A3008 RMK AO2 T01010069
1K1,2017-04-01 22:15,-97.1132,37.7744,48.40,45.00,87.96,70.00,5.00,0.00,30.04,M,5.00,M,SCT,OVC,M,M,2100.00,10000.00,M,M,-RA,K1K1 012215Z AUTO 07005KT 5SM -RA SCT021 OVC100 09/07 A3004 RMK AO2 T00910072
1K1,2017-04-01 22:35,-97.1132,37.7744,47.80,45.50,91.68,80.00,5.00,0.00,30.05,M,4.00,M,OVC,M,M,M,10000.00,M,M,M,-RA,K1K1 012235Z AUTO 08005KT 4SM -RA OVC100 09/08 A3005 RMK AO2 T00880075
1K1,2017-04-01 22:55,-97.1132,37.7744,47.80,45.50,91.68,80.00,6.00,0.00,30.04,M,7.00,M,SCT,OVC,M,M,8000.00,10000.00,M,M,-RA,K1K1 012255Z AUTO 08006KT 7SM -RA SCT080 OVC100 09/08 A3004 RMK AO2 T00880075
1K1,2017-04-01 23:15,-97.1132,37.7744,47.70,45.50,92.03,80.00,7.00,0.00,30.00,M,5.00,M,SCT,BKN,OVC,M,4000.00,9000.00,11000.00,M,-RA,K1K1 012315Z AUTO 08007KT 5SM -RA SCT040 BKN090 OVC110 09/08 A3000 RMK AO2 T00870075
1K1,2017-04-01 23:35,-97.1132,37.7744,48.40,45.70,90.33,70.00,4.00,0.00,30.03,M,7.00,M,SCT,BKN,OVC,M,4000.00,9000.00,12000.00,M,M,K1K1 012335Z AUTO 07004KT 7SM SCT040 BKN090 OVC120 09/08 A3003 RMK AO2 T00910076
1K1,2017-04-01 23:55,-97.1132,37.7744,48.60,46.20,91.37,70.00,7.00,0.00,30.01,M,7.00,M,SCT,OVC,M,M,6000.00,9000.00,M,M,RA,K1K1 012355Z AUTO 07007KT 7SM RA SCT060 OVC090 09/08 A3001 RMK AO2 T00920079 10117 20083
