#DEBUG: Format Typ    -> comma
#DEBUG: Time Period   -> 2017-04-01 00:00:00+00:00 2017-04-02 00:00:00+00:00
#DEBUG: Time Zone     -> Etc/UTC
#DEBUG: Data Contact   -> daryl herzmann akrherz@iastate.edu 515-294-5978
#DEBUG: Entries Found -> -1
station,valid,lon,lat,tmpf, dwpf, relh, drct, sknt, p01i, alti, mslp, vsby, gust, skyc1, skyc2, skyc3, skyc4, skyl1, skyl2, skyl3, skyl4, presentwx, metar
1P1,2017-04-01 00:15,-71.7537,43.7792,31.80,31.10,97.21,100.00,3.00,0.02,30.07,M,1.50,M,OVC,M,M,M,700.00,M,M,M,-SN,K1P1 010015Z AUTO 10003KT 1 1/2SM -SN OVC007 00/00 A3007 RMK AO2 P0002 T10011005
1P1,2017-04-01 00:35,-71.7537,43.7792,31.60,31.10,98.00,110.00,3.00,0.03,30.07,M,1.25,M,OVC,M,M,M,700.00,M,M,M,-SN,K1P1 010035Z AUTO 11003KT 1 1/4SM -SN OVC007 00/00 A3007 RMK AO2 P0003 T10021005
1P1,2017-04-01 00:55,-71.7537,43.7792,31.50,30.70,96.81,100.00,4.00,0.04,30.07,M,1.00,M,OVC,M,M,M,500.00,M,M,M,SN,K1P1 010055Z AUTO 10004KT 1SM SN OVC005 00/M01 A3007 RMK AO2 P0004 T10031007
1P1,2017-04-01 01:15,-71.7537,43.7792,31.50,30.70,96.81,110.00,3.00,0.01,30.07,M,1.00,M,OVC,M,M,M,500.00,M,M,M,SN,K1P1 010115Z AUTO 11003KT 1SM SN OVC005 00/M01 A3007 RMK AO2 P0001 T10031007
1P1,2017-04-01 01:35,-71.7537,43.7792,31.30,30.70,97.60,100.00,4.00,0.03,30.06,M,0.75,M,OVC,M,M,M,500.00,M,M,M,SN,K1P1 010135Z AUTO 10004KT 3/4SM SN OVC005 00/M01 A3006 RMK AO2 P0003 T10041007
1P1,2017-04-01 01:55,-71.7537,43.7792,31.10,30.60,97.99,110.00,3.00,0.04,30.05,M,1.00,M,OVC,M,M,M,500.00,M,M,M,SN,K1P1 010155Z AUTO 11003KT 1SM SN OVC005 00/M01 A3005 RMK AO2 P0004 T10051008
1P1,2017-04-01 02:15,-71.7537,43.7792,31.10,30.70,98.39,100.00,3.00,0.02,30.04,M,1.00,M,OVC,M,M,M,500.00,M,M,M,SN,K1P1 010215Z AUTO 10003KT 1SM SN OVC005 00/M01 A3004 RMK AO2 P0002 T10051007
1P1,2017-04-01 02:35,-71.7537,43.7792,31.10,30.70,98.39,100.00,3.00,0.03,30.04,M,1.25,M,OVC,M,M,M,500.00,M,M,M,SN,K1P1 010235Z AUTO 10003KT 1 1/4SM SN OVC005 00/M01 A3004 RMK AO2 P0003 T10051007
1P1,2017-04-01 02:55,-71.7537,43.7792,31.10,30.60,97.99,0.00,0.00,0.05,30.03,M,1.00,M,OVC,M,M,M,600.00,M,M,M,SN,K1P1 010255Z AUTO 00000KT 1SM SN OVC006 00/M01 A3003 RMK AO2 P0005 60013 T10051008
1P1,2017-04-01 03:15,-71.7537,43.7792,31.10,30.60,97.99,110.00,3.00,0.01,30.02,M,1.50,M,BKN,OVC,M,M,600.00,1400.00,M,M,-SN,K1P1 010315Z AUTO 11003KT 1 1/2SM -SN BKN006 OVC014 00/M01 A3002 RMK AO2 P0001 T10051008
1P1,2017-04-01 03:35,-71.7537,43.7792,31.10,30.60,97.99,0.00,0.00,0.02,30.01,M,1.50,M,BKN,OVC,M,M,600.00,1500.00,M,M,-SN,K1P1 010335Z AUTO 00000KT 1 1/2SM -SN BKN006 OVC015 00/M01 A3001 RMK AO2 P0002 T10051008
1P1,2017-04-01 03:55,-71.7537,43.7792,31.10,30.60,97.99,0.00,0.00,0.03,30.01,M,1.75,M,BKN,OVC,M,M,800.00,1800.00,M,M,-SN,K1P1 010355Z AUTO 00000KT 1 3/4SM -SN BKN008 OVC018 00/M01 A3001 RMK AO2 P0003 T10051008 400201013
1P1,2017-04-01 04:15,-71.7537,43.7792,31.10,30.70,98.39,0.00,0.00,0.01,30.01,M,1.50,M,OVC,M,M,M,600.00,M,M,M,-SN,K1P1 010415Z AUTO 00000KT 1 1/2SM -SN OVC006 00/M01 A3001 RMK AO2 P0001 T10051007
1P1,2017-04-01 04:35,-71.7537,43.7792,31.50,30.90,97.60,0.00,0.00,0.03,30.00,M,1.50,M,OVC,M,M,M,600.00,M,M,M,-SN,K1P1 010435Z AUTO 00000KT 1 1/2SM -SN OVC006 00/M01 A3000 RMK AO2 P0003 T10031006
1P1,2017-04-01 04:55,-71.7537,43.7792,31.50,31.10,98.40,100.00,3.00,0.05,29.99,M,1.50,M,OVC,M,M,M,600.00,M,M,M,-SN,K1P1 010455Z AUTO 10003KT 1 1/2SM -SN OVC006 00/00 A2999 RMK AO2 P0005 T10031005
1P1,2017-04-01 05:15,-71.7537,43.7792,31.60,31.10,98.00,0.00,0.00,0.01,29.98,M,1.50,M,SCT,BKN,OVC,M,200.00,600.00,1600.00,M,-SN,K1P1 010515Z AUTO 00000KT 1 1/2SM -SN SCT002 BKN006 OVC016 00/00 A2998 RMK AO2 P0001 T10021005
1P1,2017-04-01 05:35,-71.7537,43.7792,31.60,31.30,98.79,100.00,3.00,0.02,29.98,M,1.50,M,SCT,BKN,OVC,M,200.00,600.00,1400.00,M,-SN,K1P1 010535Z AUTO 10003KT 1 1/2SM -SN SCT002 BKN006 OVC014 00/00 A2998 RMK AO2 P0002 T10021004
1P1,2017-04-01 05:55,-71.7537,43.7792,31.80,31.50,98.80,100.00,3.00,0.03,29.96,M,1.25,M,OVC,M,M,M,600.00,M,M,M,-SN,K1P1 010555Z AUTO 10003KT 1 1/4SM -SN OVC006 00/00 A2996 RMK AO2 P0003 60024 T10011003 11001 21005
1P1,2017-04-01 06:15,-71.7537,43.7792,32.00,31.60,98.40,0.00,0.00,0.01,29.96,M,1.50,M,OVC,M,M,M,600.00,M,M,M,-SN,K1P1 010615Z AUTO 00000KT 1 1/2SM -SN OVC006 00/00 A2996 RMK AO2 LTG DSNT S P0001 T00001002
1P1,2017-04-01 06:35,-71.7537,43.7792,32.00,31.60,98.40,0.00,0.00,0.02,29.96,M,1.50,M,OVC,M,M,M,600.00,M,M,M,-SN,K1P1 010635Z AUTO 00000KT 1 1/2SM -SN OVC006 00/00 A2996 RMK AO2 P0002 T00001002
1P1,2017-04-01 06:55,-71.7537,43.7792,32.00,31.60,98.40,110.00,3.00,0.03,29.94,M,1.25,M,OVC,M,M,M,600.00,M,M,M,-SN,K1P1 010655Z AUTO 11003KT 1 1/4SM -SN OVC006 00/00 A2994 RMK AO2 P0003 T00001002
1P1,2017-04-01 07:15,-71.7537,43.7792,32.00,31.60,98.40,110.00,4.00,0.01,29.94,M,1.50,M,OVC,M,M,M,800.00,M,M,M,-SN,K1P1 010715Z AUTO 11004KT 1 1/2SM -SN OVC008 00/00 A2994 RMK AO2 P0001 T00001002
1P1,2017-04-01 07:35,-71.7537,43.7792,32.00,31.60,98.40,120.00,3.00,0.02,29.94,M,2.50,M,BKN,BKN,OVC,M,1000.00,1500.00,2500.00,M,-SN,K1P1 010735Z AUTO 12003KT 2 1/2SM -SN BKN010 BKN015 OVC025 00/00 A2994 RMK AO2 P0002 T00001002
1P1,2017-04-01 07:55,-71.7537,43.7792,32.00,31.50,98.00,110.00,3.00,0.02,29.93,M,1.50,M,BKN,OVC,M,M,800.00,1300.00,M,M,-SN,K1P1 010755Z AUTO 11003KT 1 1/2SM -SN BKN008 OVC013 00/00 A2993 RMK AO2 P0002 T00001003
1P1,2017-04-01 08:15,-71.7537,43.7792,32.00,31.50,98.00,120.00,3.00,0.01,29.92,M,1.25,M,OVC,M,M,M,800.00,M,M,M,-SN,K1P1 010815Z AUTO 12003KT 1 1/4SM -SN OVC008 00/00 A2992 RMK AO2 P0001 T00001003
1P1,2017-04-01 08:35,-71.7537,43.7792,32.00,31.10,96.43,110.00,4.00,0.02,29.91,M,2.00,M,OVC,M,M,M,800.00,M,M,M,-SN,K1P1 010835Z AUTO 11004KT 2SM -SN OVC008 00/00 A2991 RMK AO2 P0002 T00001005
1P1,2017-04-01 08:55,-71.7537,43.7792,32.00,31.10,96.43,100.00,4.00,0.02,29.91,M,1.25,M,OVC,M,M,M,800.00,M,M,M,-SN,K1P1 010855Z AUTO 10004KT 1 1/4SM -SN OVC008 00/00 A2991 RMK AO2 P0002 60007 T00001005
1P1,2017-04-01 09:15,-71.7537,43.7792,32.00,31.10,96.43,100.00,3.00,0.01,29.92,M,1.00,M,OVC,M,M,M,600.00,M,M,M,SN,K1P1 010915Z AUTO 10003KT 1SM SN OVC006 00/00 A2992 RMK AO2 P0001 T00001005
1P1,2017-04-01 09:35,-71.7537,43.7792,32.00,31.10,96.43,110.00,3.00,0.03,29.92,M,0.75,M,OVC,M,M,M,400.00,M,M,M,SN,K1P1 010935Z AUTO 11003KT 3/4SM SN OVC004 00/00 A2992 RMK AO2 LTG DSNT S P0003 T00001005
1P1,2017-04-01 09:55,-71.7537,43.7792,32.00,31.10,96.43,90.00,5.00,0.05,29.92,M,1.00,M,OVC,M,M,M,400.00,M,M,M,SN,K1P1 010955Z AUTO 09005KT 1SM SN OVC004 00/00 A2992 RMK AO2 P0005 T00001005
1P1,2017-04-01 10:15,-71.7537,43.7792,32.00,31.10,96.43,0.00,0.00,0.01,29.92,M,1.50,M,OVC,M,M,M,600.00,M,M,M,-SN,K1P1 011015Z AUTO 00000KT 1 1/2SM -SN OVC006 00/00 A2992 RMK AO2 P0001 T00001005
1P1,2017-04-01 10:35,-71.7537,43.7792,32.00,31.10,96.43,0.00,0.00,0.02,29.92,M,1.50,M,OVC,M,M,M,600.00,M,M,M,-SN,K1P1 011035Z AUTO 00000KT 1 1/2SM -SN OVC006 00/00 A2992 RMK AO2 P0002 T00001005
1P1,2017-04-01 10:55,-71.7537,43.7792,32.00,31.10,96.43,0.00,0.00,0.03,29.93,M,0.75,M,OVC,M,M,M,600.00,M,M,M,-SN,K1P1 011055Z AUTO 00000KT 3/4SM -SN OVC006 00/00 A2993 RMK AO2 P0003 T00001005
1P1,2017-04-01 11:15,-71.7537,43.7792,32.00,31.60,98.40,0.00,0.00,0.01,29.93,M,1.00,M,OVC,M,M,M,600.00,M,M,M,-SN,K1P1 011115Z AUTO 00000KT 1SM -SN OVC006 00/00 A2993 RMK AO2 P0001 T00001002
1P1,2017-04-01 11:35,-71.7537,43.7792,32.00,31.60,98.40,0.00,0.00,0.02,29.93,M,1.00,M,OVC,M,M,M,600.00,M,M,M,-SN,K1P1 011135Z AUTO 00000KT 1SM -SN OVC006 00/00 A2993 RMK AO2 P0002 T00001002
1P1,2017-04-01 11:55,-71.7537,43.7792,32.00,31.60,98.40,100.00,3.00,0.03,29.94,M,1.00,M,OVC,M,M,M,800.00,M,M,M,-SN,K1P1 011155Z AUTO 10003KT 1SM -SN OVC008 00/00 A2994 RMK AO2 P0003 60018 70048 T00001002 10000 21001
1P1,2017-04-01 12:15,-71.7537,43.7792,32.20,31.60,97.61,0.00,0.00,0.00,29.94,M,1.75,M,OVC,M,M,M,1000.00,M,M,M,-SN,K1P1 011215Z AUTO 00000KT 1 3/4SM -SN OVC010 00/00 A2994 RMK AO2 T00011002
1P1,2017-04-01 12:35,-71.7537,43.7792,32.70,30.90,92.99,90.00,6.00,0.00,29.94,M,1.50,M,BKN,OVC,M,M,1200.00,2300.00,M,M,-SN,K1P1 011235Z AUTO 09006KT 1 1/2SM -SN BKN012 OVC023 00/M01 A2994 RMK AO2 LTG DSNT SE T00041006
1P1,2017-04-01 12:55,-71.7537,43.7792,32.70,30.20,90.39,110.00,3.00,0.00,29.94,M,1.50,M,OVC,M,M,M,1200.00,M,M,M,-SN,K1P1 011255Z AUTO 11003KT 1 1/2SM -SN OVC012 00/M01 A2994 RMK AO2 T00041010
1P1,2017-04-01 13:15,-71.7537,43.7792,32.90,30.60,91.13,0.00,0.00,0.00,29.94,M,3.00,M,SCT,BKN,OVC,M,1400.00,1900.00,2600.00,M,-SN,K1P1 011315Z AUTO 00000KT 3SM -SN SCT014 BKN019 OVC026 01/M01 A2994 RMK AO2 T00051008
1P1,2017-04-01 13:35,-71.7537,43.7792,32.90,30.60,91.13,90.00,3.00,0.00,29.94,M,2.50,M,BKN,OVC,M,M,1600.00,2500.00,M,M,-SN,K1P1 011335Z AUTO 09003KT 2 1/2SM -SN BKN016 OVC025 01/M01 A2994 RMK AO2 VIS 2V3 T00051008
1P1,2017-04-01 13:55,-71.7537,43.7792,33.10,31.10,92.26,0.00,0.00,0.00,29.94,M,2.00,M,BKN,OVC,M,M,1400.00,2200.00,M,M,-SN,K1P1 011355Z AUTO 00000KT 2SM -SN BKN014 OVC022 01/00 A2994 RMK AO2 T00061005
1P1,2017-04-01 14:15,-71.7537,43.7792,33.40,31.50,92.64,0.00,0.00,0.00,29.95,M,3.00,M,SCT,BKN,OVC,M,1600.00,2400.00,3200.00,M,-SN,K1P1 011415Z AUTO 00000KT 3SM -SN SCT016 BKN024 OVC032 01/00 A2995 RMK AO2 T00081003
1P1,2017-04-01 14:35,-71.7537,43.7792,33.60,31.60,92.27,0.00,0.00,0.00,29.95,M,3.00,M,SCT,OVC,M,M,2100.00,2800.00,M,M,-SN,K1P1 011435Z AUTO 00000KT 3SM -SN SCT021 OVC028 01/00 A2995 RMK AO2 T00091002
1P1,2017-04-01 14:55,-71.7537,43.7792,33.60,32.00,93.78,0.00,0.00,0.00,29.95,M,1.50,M,BKN,OVC,M,M,1200.00,2000.00,M,M,-SN,K1P1 011455Z AUTO 00000KT 1 1/2SM -SN BKN012 OVC020 01/00 A2995 RMK AO2 T00090000
1P1,2017-04-01 15:15,-71.7537,43.7792,33.40,32.00,94.53,0.00,0.00,0.01,29.95,M,1.25,M,OVC,M,M,M,1200.00,M,M,M,-SN,K1P1 011515Z AUTO 00000KT 1 1/4SM -SN OVC012 01/00 A2995 RMK AO2 LTG DSNT SE P0001 T00080000
1P1,2017-04-01 15:35,-71.7537,43.7792,33.80,32.00,93.03,0.00,0.00,0.01,29.95,M,1.00,M,OVC,M,M,M,1000.00,M,M,M,-SN,K1P1 011535Z AUTO 00000KT 1SM -SN OVC010 01/00 A2995 RMK AO2 P0001 T00100000
1P1,2017-04-01 15:55,-71.7537,43.7792,33.80,32.00,93.03,0.00,0.00,0.02,29.94,M,1.00,M,OVC,M,M,M,800.00,M,M,M,-SN,K1P1 011555Z AUTO 00000KT 1SM -SN OVC008 01/00 A2994 RMK AO2 P0002 T00100000
1P1,2017-04-01 16:15,-71.7537,43.7792,33.80,32.00,93.03,0.00,0.00,0.01,29.94,M,0.75,M,OVC,M,M,M,800.00,M,M,M,-SN,K1P1 011615Z AUTO 00000KT 3/4SM -SN OVC008 01/00 A2994 RMK AO2 P0001 T00100000
1P1,2017-04-01 16:35,-71.7537,43.7792,33.80,32.20,93.78,0.00,0.00,0.03,29.94,M,0.75,M,OVC,M,M,M,600.00,M,M,M,-SN,K1P1 011635Z AUTO 00000KT 3/4SM -SN OVC006 01/00 A2994 RMK AO2 P0003 T00100001
1P1,2017-04-01 16:55,-71.7537,43.7792,34.00,32.70,94.92,0.00,0.00,0.04,29.94,M,0.75,M,BKN,OVC,M,M,200.00,600.00,M,M,-SN,K1P1 011655Z AUTO 00000KT 3/4SM -SN BKN002 OVC006 01/00 A2994 RMK AO2 P0004 T00110004
1P1,2017-04-01 17:15,-71.7537,43.7792,33.80,32.50,94.92,0.00,0.00,0.01,29.94,M,1.00,M,BKN,OVC,M,M,200.00,800.00,M,M,-SN,K1P1 011715Z AUTO 00000KT 1SM -SN BKN002 OVC008 01/00 A2994 RMK AO2 P0001 T00100003
1P1,2017-04-01 17:35,-71.7537,43.7792,34.00,32.40,93.79,0.00,0.00,0.02,29.94,M,1.50,M,SCT,OVC,M,M,200.00,1000.00,M,M,UP,K1P1 011735Z AUTO 00000KT 1 1/2SM UP SCT002 OVC010 01/00 A2994 RMK AO2 P0002 T00110002
1P1,2017-04-01 17:55,-71.7537,43.7792,34.30,32.40,92.67,0.00,0.00,0.02,29.93,M,1.75,M,OVC,M,M,M,1000.00,M,M,M,-SN,K1P1 011755Z AUTO 00000KT 1 3/4SM -SN OVC010 01/00 A2993 RMK AO2 P0002 60008 T00130002 10013 20000
1P1,2017-04-01 18:15,-71.7537,43.7792,34.70,32.40,91.20,0.00,0.00,0.01,29.92,M,2.00,M,OVC,M,M,M,1000.00,M,M,M,-SN,K1P1 011815Z AUTO 00000KT 2SM -SN OVC010 02/00 A2992 RMK AO2 P0001 T00150002
1P1,2017-04-01 18:35,-71.7537,43.7792,35.10,32.90,91.59,0.00,0.00,0.01,29.92,M,4.00,M,BKN,OVC,M,M,1400.00,2400.00,M,M,-SN,K1P1 011835Z AUTO 00000KT 4SM -SN BKN014 OVC024 02/01 A2992 RMK AO2 P0001 T00170005
1P1,2017-04-01 18:55,-71.7537,43.7792,35.60,33.10,90.51,0.00,0.00,0.01,29.92,M,5.00,M,BKN,OVC,M,M,1600.00,2400.00,M,M,-RA,K1P1 011855Z AUTO 00000KT 5SM -RA BKN016 OVC024 02/01 A2992 RMK AO2 P0001 T00200006
1P1,2017-04-01 19:15,-71.7537,43.7792,36.00,33.30,89.80,0.00,0.00,0.00,29.91,M,5.00,M,OVC,M,M,M,1400.00,M,M,M,-RA,K1P1 011915Z AUTO 00000KT 5SM -RA OVC014 02/01 A2991 RMK AO2 T00220007
1P1,2017-04-01 19:35,-71.7537,43.7792,36.10,33.60,90.53,0.00,0.00,0.00,29.91,M,5.00,M,OVC,M,M,M,1200.00,M,M,M,-RA,K1P1 011935Z AUTO 00000KT 5SM -RA OVC012 02/01 A2991 RMK AO2 T00230009
1P1,2017-04-01 19:55,-71.7537,43.7792,36.30,33.40,89.10,0.00,0.00,0.00,29.92,M,5.00,M,OVC,M,M,M,1400.00,M,M,M,-RA,K1P1 011955Z AUTO 00000KT 5SM -RA OVC014 02/01 A2992 RMK AO2 T00240008
1P1,2017-04-01 20:15,-71.7537,43.7792,36.00,33.40,90.16,0.00,0.00,0.00,29.93,M,5.00,M,BKN,BKN,OVC,M,1600.00,2200.00,3100.00,M,-DZ,K1P1 012015Z AUTO 00000KT 5SM -DZ BKN016 BKN022 OVC031 02/01 A2993 RMK AO2 T00220008
1P1,2017-04-01 20:35,-71.7537,43.7792,36.00,34.00,92.35,0.00,0.00,0.00,29.94,M,10.00,M,SCT,SCT,OVC,M,1800.00,2600.00,3100.00,M,-RA,K1P1 012035Z AUTO 00000KT 10SM -RA SCT018 SCT026 OVC031 02/01 A2994 RMK AO2 T00220011
1P1,2017-04-01 20:55,-71.7537,43.7792,36.50,34.70,93.11,0.00,0.00,0.00,29.94,M,10.00,M,OVC,M,M,M,2900.00,M,M,M,-DZ,K1P1 012055Z AUTO 00000KT 10SM -DZ OVC029 03/02 A2994 RMK AO2 60001 T00250015
1P1,2017-04-01 21:15,-71.7537,43.7792,36.70,34.30,90.92,0.00,0.00,0.00,29.95,M,10.00,M,OVC,M,M,M,2600.00,M,M,M,-RA,K1P1 012115Z AUTO 00000KT 10SM -RA OVC026 03/01 A2995 RMK AO2 T00260013
1P1,2017-04-01 21:35,-71.7537,43.7792,36.30,33.80,90.54,0.00,0.00,0.00,29.96,M,10.00,M,BKN,OVC,M,M,2300.00,2900.00,M,M,-RA,K1P1 012135Z AUTO 00000KT 10SM -RA BKN023 OVC029 02/01 A2996 RMK AO2 T00240010
1P1,2017-04-01 21:55,-71.7537,43.7792,36.10,33.80,91.26,0.00,0.00,0.00,29.96,M,10.00,M,SCT,BKN,OVC,M,2300.00,3100.00,4900.00,M,-DZ,K1P1 012155Z AUTO 00000KT 10SM -DZ SCT023 BKN031 OVC049 02/01 A2996 RMK AO2 T00230010
1P1,2017-04-01 22:15,-71.7537,43.7792,36.00,34.00,92.35,0.00,0.00,0.00,29.96,M,10.00,M,SCT,BKN,OVC,M,3200.00,4600.00,5500.00,M,M,K1P1 012215Z AUTO 00000KT 10SM SCT032 BKN046 OVC055 02/01 A2996 RMK AO2 T00220011
1P1,2017-04-01 22:35,-71.7537,43.7792,36.00,34.20,93.09,0.00,0.00,0.00,29.97,M,10.00,M,SCT,OVC,M,M,2300.00,3000.00,M,M,M,K1P1 012235Z AUTO 00000KT 10SM SCT023 OVC030 02/01 A2997 RMK AO2 T00220012
1P1,2017-04-01 22:55,-71.7537,43.7792,35.60,34.20,94.58,0.00,0.00,0.00,29.98,M,10.00,M,SCT,BKN,OVC,M,1300.00,3000.00,4900.00,M,-DZ,K1P1 012255Z AUTO 00000KT 10SM -DZ SCT013 BKN030 OVC049 02/01 A2998 RMK AO2 T00200012
1P1,2017-04-01 23:15,-71.7537,43.7792,35.10,34.00,95.71,90.00,3.00,0.00,29.97,M,7.00,M,SCT,BKN,OVC,M,500.00,1500.00,5000.00,M,M,K1P1 012315Z AUTO 09003KT 7SM SCT005 BKN015 OVC050 02/01 A2997 RMK AO2 T00170011
1P1,2017-04-01 23:35,-71.7537,43.7792,34.50,33.60,96.47,0.00,0.00,0.00,29.97,M,10.00,M,SCT,BKN,OVC,M,300.00,900.00,5000.00,M,M,K1P1 012335Z AUTO 00000KT 10SM SCT003 BKN009 OVC050 01/01 A2997 RMK AO2 T00140009
1P1,2017-04-01 23:55,-71.7537,43.7792,34.20,33.40,96.85,0.00,0.00,0.00,29.97,M,10.00,M,OVC,M,M,M,900.00,M,M,M,M,K1P1 012355Z AUTO 00000KT 10SM OVC009 01/01 A2997 RMK AO2 60001 T00120008 10026 20012
