#DEBUG: Format Typ    -> comma
#DEBUG: Time Period   -> 2017-04-01 00:00:00+00:00 2017-04-02 00:00:00+00:00
#DEBUG: Time Zone     -> Etc/UTC
#DEBUG: Data Contact   -> daryl herzmann akrherz@iastate.edu 515-294-5978
#DEBUG: Entries Found -> -1
station,valid,lon,lat,tmpf, dwpf, relh, drct, sknt, p01i, alti, mslp, vsby, gust, skyc1, skyc2, skyc3, skyc4, skyl1, skyl2, skyl3, skyl4, presentwx, metar
2C8,2017-04-01 00:15,-97.6320,48.7837,41.00,39.20,93.24,330.00,14.00,0.00,30.14,M,10.00,M,OVC,M,M,M,700.00,M,M,M,M,K2C8 010015Z AUTO 33014KT 10SM OVC007 05/04 A3014 RMK AO2
2C8,2017-04-01 00:35,-97.6320,48.7837,41.00,39.20,93.24,340.00,14.00,0.00,30.15,M,10.00,M,OVC,M,M,M,700.00,M,M,M,M,K2C8 010035Z AUTO 34014KT 10SM OVC007 05/04 A3015 RMK AO2
2C8,2017-04-01 00:55,-97.6320,48.7837,41.00,39.20,93.24,340.00,12.00,0.00,30.15,M,10.00,M,SCT,OVC,M,M,700.00,1300.00,M,M,M,K2C8 010055Z AUTO 34012KT 10SM SCT007 OVC013 05/04 A3015 RMK AO2
2C8,2017-04-01 01:15,-97.6320,48.7837,41.00,39.20,93.24,340.00,11.00,0.00,30.15,M,10.00,16.00,FEW,OVC,M,M,800.00,1200.00,M,M,M,K2C8 010115Z AUTO 34011G16KT 10SM FEW008 OVC012 05/04 A3015 RMK AO2
2C8,2017-04-01 01:35,-97.6320,48.7837,39.20,39.20,100.00,340.00,12.00,0.00,30.16,M,10.00,M,BKN,OVC,M,M,700.00,1300.00,M,M,M,K2C8 010135Z AUTO 34012KT 10SM BKN007 OVC013 04/04 A3016 RMK AO2
2C8,2017-04-01 01:55,-97.6320,48.7837,39.20,39.20,100.00,330.00,12.00,0.00,30.17,M,10.00,M,FEW,OVC,M,M,800.00,1300.00,M,M,M,K2C8 010155Z AUTO 33012KT 10SM FEW008 OVC013 04/04 A3017 RMK AO2
2C8,2017-04-01 02:15,-97.6320,48.7837,39.20,39.20,100.00,340.00,8.00,0.00,30.17,M,10.00,M,M,M,M,M,M,M,M,M,M,K2C8 010215Z AUTO 34008KT 10SM 04/04 A3017 RMK AO2
2C8,2017-04-01 02:35,-97.6320,48.7837,39.20,39.20,100.00,340.00,11.00,0.00,30.18,M,10.00,M,OVC,M,M,M,1600.00,M,M,M,M,K2C8 010235Z AUTO 34011KT 10SM OVC016 04/04 A3018 RMK AO2
2C8,2017-04-01 02:55,-97.6320,48.7837,39.20,37.40,93.19,340.00,10.00,0.00,30.18,M,10.00,M,OVC,M,M,M,1500.00,M,M,M,M,K2C8 010255Z AUTO 34010KT 10SM OVC015 04/03 A3018 RMK AO2
2C8,2017-04-01 03:15,-97.6320,48.7837,39.20,37.40,93.19,330.00,10.00,0.00,30.19,M,10.00,M,SCT,OVC,M,M,600.00,1600.00,M,M,M,K2C8 010315Z AUTO 33010KT 10SM SCT006 OVC016 04/03 A3019 RMK AO2
2C8,2017-04-01 03:35,-97.6320,48.7837,39.20,37.40,93.19,330.00,9.00,0.00,30.19,M,10.00,M,FEW,OVC,M,M,600.00,1700.00,M,M,M,K2C8 010335Z AUTO 33009KT 10SM FEW006 OVC017 04/03 A3019 RMK AO2
2C8,2017-04-01 03:55,-97.6320,48.7837,39.20,37.40,93.19,330.00,9.00,0.00,30.19,M,10.00,M,OVC,M,M,M,1700.00,M,M,M,M,K2C8 010355Z AUTO 33009KT 10SM OVC017 04/03 A3019 RMK AO2
2C8,2017-04-01 04:15,-97.6320,48.7837,39.20,37.40,93.19,340.00,8.00,0.00,30.19,M,10.00,M,SCT,OVC,M,M,1300.00,1900.00,M,M,M,K2C8 010415Z AUTO 34008KT 10SM SCT013 OVC019 04/03 A3019 RMK AO2
2C8,2017-04-01 04:35,-97.6320,48.7837,39.20,37.40,93.19,340.00,6.00,0.00,30.19,M,10.00,M,SCT,OVC,M,M,1300.00,1900.00,M,M,M,K2C8 010435Z AUTO 34006KT 10SM SCT013 OVC019 04/03 A3019 RMK AO2
2C8,2017-04-01 04:55,-97.6320,48.7837,39.20,37.40,93.19,340.00,9.00,0.00,30.20,M,8.00,M,SCT,BKN,OVC,M,600.00,1300.00,1800.00,M,M,K2C8 010455Z AUTO 34009KT 8SM SCT006 BKN013 OVC018 04/03 A3020 RMK AO2
2C8,2017-04-01 05:15,-97.6320,48.7837,37.40,37.40,100.00,330.00,8.00,0.00,30.20,M,4.00,M,FEW,OVC,M,M,500.00,1400.00,M,M,BR,K2C8 010515Z AUTO 33008KT 4SM BR FEW005 OVC014 03/03 A3020 RMK AO2
2C8,2017-04-01 05:35,-97.6320,48.7837,37.40,37.40,100.00,330.00,7.00,0.00,30.20,M,3.00,M,FEW,OVC,M,M,400.00,1400.00,M,M,BR,K2C8 010535Z AUTO 33007KT 3SM BR FEW004 OVC014 03/03 A3020 RMK AO2
2C8,2017-04-01 05:55,-97.6320,48.7837,37.40,37.40,100.00,320.00,8.00,0.00,30.20,M,3.00,M,SCT,BKN,OVC,M,500.00,1000.00,1400.00,M,BR,K2C8 010555Z AUTO 32008KT 3SM BR SCT005 BKN010 OVC014 03/03 A3020 RMK AO2
2C8,2017-04-01 06:15,-97.6320,48.7837,37.40,37.40,100.00,320.00,8.00,0.00,30.21,M,4.00,M,BKN,OVC,M,M,600.00,1200.00,M,M,BR,K2C8 010615Z AUTO 32008KT 4SM BR BKN006 OVC012 03/03 A3021 RMK AO2
2C8,2017-04-01 06:35,-97.6320,48.7837,37.40,37.40,100.00,310.00,6.00,0.00,30.21,M,4.00,M,BKN,OVC,M,M,600.00,1200.00,M,M,BR,K2C8 010635Z AUTO 31006KT 4SM BR BKN006 OVC012 03/03 A3021 RMK AO2
2C8,2017-04-01 06:55,-97.6320,48.7837,37.40,37.40,100.00,310.00,6.00,0.00,30.22,M,5.00,M,OVC,M,M,M,800.00,M,M,M,BR,K2C8 010655Z AUTO 31006KT 5SM BR OVC008 03/03 A3022 RMK AO2
2C8,2017-04-01 07:15,-97.6320,48.7837,37.40,37.40,100.00,320.00,7.00,0.00,30.22,M,10.00,M,OVC,M,M,M,1000.00,M,M,M,M,K2C8 010715Z AUTO 32007KT 10SM OVC010 03/03 A3022 RMK AO2
2C8,2017-04-01 07:35,-97.6320,48.7837,37.40,37.40,100.00,320.00,6.00,0.00,30.22,M,10.00,M,BKN,OVC,M,M,1100.00,1700.00,M,M,M,K2C8 010735Z AUTO 32006KT 10SM BKN011 OVC017 03/03 A3022 RMK AO2
2C8,2017-04-01 08:15,-97.6320,48.7837,37.40,35.60,93.14,320.00,6.00,0.00,30.22,M,10.00,M,BKN,OVC,M,M,1200.00,1700.00,M,M,M,K2C8 010815Z AUTO 32006KT 10SM BKN012 OVC017 03/02 A3022 RMK AO2
2C8,2017-04-01 08:35,-97.6320,48.7837,37.40,35.60,93.14,310.00,5.00,0.00,30.22,M,10.00,M,SCT,OVC,M,M,1100.00,1900.00,M,M,M,K2C8 010835Z AUTO 31005KT 10SM SCT011 OVC019 03/02 A3022 RMK AO2
2C8,2017-04-01 08:55,-97.6320,48.7837,37.40,35.60,93.14,320.00,4.00,0.00,30.22,M,10.00,M,OVC,M,M,M,2100.00,M,M,M,M,K2C8 010855Z AUTO 32004KT 10SM OVC021 03/02 A3022 RMK AO2
2C8,2017-04-01 09:15,-97.6320,48.7837,37.40,35.60,93.14,320.00,4.00,0.00,30.21,M,10.00,M,FEW,OVC,M,M,1300.00,2200.00,M,M,M,K2C8 010915Z AUTO 32004KT 10SM FEW013 OVC022 03/02 A3021 RMK AO2
2C8,2017-04-01 09:35,-97.6320,48.7837,37.40,35.60,93.14,0.00,0.00,0.00,30.21,M,10.00,M,BKN,OVC,M,M,1500.00,2300.00,M,M,M,K2C8 010935Z AUTO 00000KT 10SM BKN015 OVC023 03/02 A3021 RMK AO2
2C8,2017-04-01 09:55,-97.6320,48.7837,37.40,35.60,93.14,310.00,4.00,0.00,30.21,M,10.00,M,BKN,OVC,M,M,1600.00,2400.00,M,M,M,K2C8 010955Z AUTO 31004KT 10SM BKN016 OVC024 03/02 A3021 RMK AO2
2C8,2017-04-01 10:15,-97.6320,48.7837,37.40,35.60,93.14,310.00,6.00,0.00,30.21,M,10.00,M,FEW,OVC,M,M,1700.00,2400.00,M,M,M,K2C8 011015Z AUTO 31006KT 10SM FEW017 OVC024 03/02 A3021 RMK AO2
2C8,2017-04-01 10:35,-97.6320,48.7837,37.40,35.60,93.14,310.00,5.00,0.00,30.21,M,10.00,M,OVC,M,M,M,2200.00,M,M,M,M,K2C8 011035Z AUTO 31005KT 10SM OVC022 03/02 A3021 RMK AO2
2C8,2017-04-01 10:55,-97.6320,48.7837,37.40,35.60,93.14,310.00,5.00,0.00,30.22,M,10.00,M,OVC,M,M,M,2300.00,M,M,M,M,K2C8 011055Z AUTO 31005KT 10SM OVC023 03/02 A3022 RMK AO2
2C8,2017-04-01 11:15,-97.6320,48.7837,37.40,35.60,93.14,320.00,3.00,0.00,30.22,M,10.00,M,OVC,M,M,M,2600.00,M,M,M,M,K2C8 011115Z AUTO 32003KT 10SM OVC026 03/02 A3022 RMK AO2
2C8,2017-04-01 11:35,-97.6320,48.7837,37.40,35.60,93.14,320.00,4.00,0.00,30.22,M,10.00,M,OVC,M,M,M,2700.00,M,M,M,M,K2C8 011135Z AUTO 32004KT 10SM OVC027 03/02 A3022 RMK AO2
2C8,2017-04-01 11:55,-97.6320,48.7837,37.40,35.60,93.14,0.00,0.00,0.00,30.22,M,10.00,M,OVC,M,M,M,2800.00,M,M,M,M,K2C8 011155Z AUTO 00000KT 10SM OVC028 03/02 A3022 RMK AO2
2C8,2017-04-01 12:15,-97.6320,48.7837,37.40,35.60,93.14,310.00,4.00,0.00,30.22,M,10.00,M,OVC,M,M,M,2800.00,M,M,M,M,K2C8 011215Z AUTO 31004KT 10SM OVC028 03/02 A3022 RMK AO2
2C8,2017-04-01 12:35,-97.6320,48.7837,37.40,35.60,93.14,320.00,4.00,0.00,30.22,M,10.00,M,OVC,M,M,M,2700.00,M,M,M,M,K2C8 011235Z AUTO 32004KT 10SM OVC027 03/02 A3022 RMK AO2
2C8,2017-04-01 12:55,-97.6320,48.7837,37.40,35.60,93.14,310.00,4.00,0.00,30.22,M,10.00,M,OVC,M,M,M,2800.00,M,M,M,M,K2C8 011255Z AUTO 31004KT 10SM OVC028 03/02 A3022 RMK AO2
2C8,2017-04-01 13:15,-97.6320,48.7837,37.40,35.60,93.14,290.00,3.00,0.00,30.22,M,10.00,M,OVC,M,M,M,3000.00,M,M,M,M,K2C8 011315Z AUTO 29003KT 10SM OVC030 03/02 A3022 RMK AO2
2C8,2017-04-01 13:35,-97.6320,48.7837,37.40,35.60,93.14,300.00,3.00,0.00,30.23,M,10.00,M,OVC,M,M,M,3100.00,M,M,M,M,K2C8 011335Z AUTO 30003KT 10SM OVC031 03/02 A3023 RMK AO2
2C8,2017-04-01 13:55,-97.6320,48.7837,37.40,35.60,93.14,300.00,3.00,0.00,30.23,M,10.00,M,OVC,M,M,M,3100.00,M,M,M,M,K2C8 011355Z AUTO 30003KT 10SM OVC031 03/02 A3023 RMK AO2
2C8,2017-04-01 14:15,-97.6320,48.7837,39.20,35.60,86.79,340.00,4.00,0.00,30.23,M,10.00,M,OVC,M,M,M,3200.00,M,M,M,M,K2C8 011415Z AUTO 34004KT 10SM OVC032 04/02 A3023 RMK AO2
2C8,2017-04-01 14:35,-97.6320,48.7837,39.20,35.60,86.79,360.00,5.00,0.00,30.23,M,10.00,M,M,M,M,M,M,M,M,M,M,K2C8 011435Z AUTO 36005KT 10SM 04/02 A3023 RMK AO2
2C8,2017-04-01 14:55,-97.6320,48.7837,39.20,37.40,93.19,350.00,4.00,0.00,30.23,M,10.00,M,M,M,M,M,M,M,M,M,M,K2C8 011455Z AUTO 35004KT 10SM 04/03 A3023 RMK AO2
2C8,2017-04-01 15:15,-97.6320,48.7837,39.20,37.40,93.19,10.00,4.00,0.00,30.22,M,10.00,M,M,M,M,M,M,M,M,M,M,K2C8 011515Z AUTO 01004KT 10SM 04/03 A3022 RMK AO2
2C8,2017-04-01 15:35,-97.6320,48.7837,41.00,35.60,80.93,0.00,0.00,0.00,30.22,M,10.00,M,OVC,M,M,M,3500.00,M,M,M,M,K2C8 011535Z AUTO 00000KT 10SM OVC035 05/02 A3022 RMK AO2
2C8,2017-04-01 15:55,-97.6320,48.7837,42.80,33.80,70.28,0.00,0.00,0.00,30.22,M,10.00,M,OVC,M,M,M,3500.00,M,M,M,M,K2C8 011555Z AUTO 00000KT 10SM OVC035 06/01 A3022 RMK AO2
2C8,2017-04-01 16:15,-97.6320,48.7837,42.80,32.00,65.38,M,5.00,0.00,30.21,M,10.00,M,OVC,M,M,M,3500.00,M,M,M,M,K2C8 011615Z AUTO VRB05KT 10SM OVC035 06/M00 A3021 RMK AO2
2C8,2017-04-01 16:35,-97.6320,48.7837,42.80,30.20,60.79,M,4.00,0.00,30.22,M,10.00,M,OVC,M,M,M,3400.00,M,M,M,M,K2C8 011635Z AUTO VRB04KT 10SM OVC034 06/M01 A3022 RMK AO2
2C8,2017-04-01 16:55,-97.6320,48.7837,42.80,32.00,65.38,0.00,0.00,0.00,30.21,M,10.00,M,BKN,M,M,M,3200.00,M,M,M,M,K2C8 011655Z AUTO 00000KT 10SM BKN032 06/M00 A3021 RMK AO2
2C8,2017-04-01 17:15,-97.6320,48.7837,44.60,32.00,61.03,0.00,0.00,0.00,30.21,M,10.00,M,BKN,M,M,M,3200.00,M,M,M,M,K2C8 011715Z AUTO 00000KT 10SM BKN032 07/M00 A3021 RMK AO2
2C8,2017-04-01 17:35,-97.6320,48.7837,44.60,32.00,61.03,0.00,0.00,0.00,30.20,M,10.00,M,BKN,M,M,M,3200.00,M,M,M,M,K2C8 011735Z AUTO 00000KT 10SM BKN032 07/M00 A3020 RMK AO2
2C8,2017-04-01 17:55,-97.6320,48.7837,44.60,32.00,61.03,0.00,0.00,0.00,30.19,M,10.00,M,BKN,BKN,M,M,3300.00,12000.00,M,M,M,K2C8 011755Z AUTO 00000KT 10SM BKN033 BKN120 07/M00 A3019 RMK AO2
2C8,2017-04-01 18:15,-97.6320,48.7837,46.40,33.80,61.28,200.00,8.00,0.00,30.18,M,10.00,M,BKN,BKN,M,M,3200.00,12000.00,M,M,M,K2C8 011815Z AUTO 20008KT 10SM BKN032 BKN120 08/01 A3018 RMK AO2
2C8,2017-04-01 18:35,-97.6320,48.7837,46.40,32.00,57.00,320.00,4.00,0.00,30.18,M,10.00,M,BKN,BKN,M,M,3300.00,6000.00,M,M,M,K2C8 011835Z AUTO 32004KT 10SM BKN033 BKN060 08/00 A3018 RMK AO2
2C8,2017-04-01 18:55,-97.6320,48.7837,46.40,33.80,61.28,250.00,3.00,0.00,30.18,M,10.00,M,OVC,M,M,M,3200.00,M,M,M,M,K2C8 011855Z AUTO 25003KT 10SM OVC032 08/01 A3018 RMK AO2
2C8,2017-04-01 19:15,-97.6320,48.7837,46.40,33.80,61.28,210.00,4.00,0.00,30.17,M,10.00,M,OVC,M,M,M,3200.00,M,M,M,M,K2C8 011915Z AUTO 21004KT 10SM OVC032 08/01 A3017 RMK AO2
2C8,2017-04-01 19:35,-97.6320,48.7837,46.40,35.60,65.83,180.00,9.00,0.00,30.16,M,10.00,M,M,M,M,M,M,M,M,M,M,K2C8 011935Z AUTO 18009KT 10SM 08/02 A3016 RMK AO2
2C8,2017-04-01 19:55,-97.6320,48.7837,46.40,35.60,65.83,190.00,8.00,0.00,30.15,M,10.00,13.00,OVC,M,M,M,3100.00,M,M,M,M,K2C8 011955Z AUTO 19008G13KT 10SM OVC031 08/02 A3015 RMK AO2
2C8,2017-04-01 20:15,-97.6320,48.7837,46.40,37.40,70.68,190.00,10.00,0.00,30.13,M,10.00,M,BKN,OVC,M,M,3000.00,4800.00,M,M,M,K2C8 012015Z AUTO 19010KT 10SM BKN030 OVC048 08/03 A3013 RMK AO2
2C8,2017-04-01 20:35,-97.6320,48.7837,46.40,37.40,70.68,160.00,8.00,0.00,30.13,M,10.00,M,SCT,OVC,M,M,2900.00,4800.00,M,M,M,K2C8 012035Z AUTO 16008KT 10SM SCT029 OVC048 08/03 A3013 RMK AO2
2C8,2017-04-01 20:55,-97.6320,48.7837,46.40,37.40,70.68,160.00,6.00,0.00,30.11,M,10.00,11.00,SCT,BKN,M,M,2700.00,4900.00,M,M,M,K2C8 012055Z AUTO 16006G11KT 10SM SCT027 BKN049 08/03 A3011 RMK AO2
2C8,2017-04-01 21:15,-97.6320,48.7837,46.40,37.40,70.68,170.00,7.00,0.00,30.10,M,10.00,M,CLR,M,M,M,M,M,M,M,M,K2C8 012115Z AUTO 17007KT 10SM CLR 08/03 A3010 RMK AO2
2C8,2017-04-01 21:35,-97.6320,48.7837,46.40,39.20,75.84,170.00,8.00,0.00,30.10,M,10.00,M,CLR,M,M,M,M,M,M,M,M,K2C8 012135Z AUTO 17008KT 10SM CLR 08/04 A3010 RMK AO2
2C8,2017-04-01 21:55,-97.6320,48.7837,M,M,M,M,M,0.00,M,M,10.00,M,FEW,FEW,M,M,2300.00,3000.00,M,M,M,K2C8 012155Z AUTO 10SM FEW023 FEW030 RMK AO2 PWINO TSNO
2C8,2017-04-01 22:15,-97.6320,48.7837,46.40,39.20,75.84,160.00,9.00,0.00,30.08,M,10.00,M,M,M,M,M,M,M,M,M,M,K2C8 012215Z AUTO 16009KT 10SM 08/04 A3008 RMK AO2
2C8,2017-04-01 22:35,-97.6320,48.7837,46.40,39.20,75.84,140.00,7.00,0.00,30.07,M,10.00,M,BKN,M,M,M,3100.00,M,M,M,M,K2C8 012235Z AUTO 14007KT 10SM BKN031 08/04 A3007 RMK AO2
2C8,2017-04-01 22:55,-97.6320,48.7837,48.20,39.20,70.88,160.00,8.00,0.00,30.06,M,10.00,M,CLR,M,M,M,M,M,M,M,M,K2C8 012255Z AUTO 16008KT 10SM CLR 09/04 A3006 RMK AO2
2C8,2017-04-01 23:15,-97.6320,48.7837,48.20,39.20,70.88,140.00,7.00,0.00,30.06,M,10.00,M,M,M,M,M,M,M,M,M,M,K2C8 012315Z AUTO 14007KT 10SM 09/04 A3006 RMK AO2
2C8,2017-04-01 23:35,-97.6320,48.7837,46.40,39.20,75.84,150.00,7.00,0.00,30.05,M,10.00,M,CLR,M,M,M,M,M,M,M,M,K2C8 012335Z AUTO 15007KT 10SM CLR 08/04 A3005 RMK AO2
2C8,2017-04-01 23:55,-97.6320,48.7837,46.40,39.20,75.84,140.00,7.00,0.00,30.05,M,10.00,M,CLR,M,M,M,M,M,M,M,M,K2C8 012355Z AUTO 14007KT 10SM CLR 08/04 A3005 RMK AO2
