#DEBUG: Format Typ    -> comma
#DEBUG: Time Period   -> 2017-04-01 00:00:00+00:00 2017-04-02 00:00:00+00:00
#DEBUG: Time Zone     -> Etc/UTC
#DEBUG: Data Contact   -> daryl herzmann akrherz@iastate.edu 515-294-5978
#DEBUG: Entries Found -> -1
station,valid,lon,lat,tmpf, dwpf, relh, drct, sknt, p01i, alti, mslp, vsby, gust, skyc1, skyc2, skyc3, skyc4, skyl1, skyl2, skyl3, skyl4, presentwx, metar
46U,2017-04-01 00:00,-111.0424,43.1846,55.40,24.80,30.40,20.00,11.00,0.00,29.89,M,10.00,17.00,CLR,M,M,M,M,M,M,M,M,K46U 010000Z AUTO 02011G17KT 10SM CLR 13/M04 A2989 RMK A01
46U,2017-04-01 00:20,-111.0424,43.1846,53.60,24.80,32.46,350.00,12.00,0.00,29.90,M,10.00,17.00,CLR,M,M,M,M,M,M,M,M,K46U 010020Z AUTO 35012G17KT 10SM CLR 12/M04 A2990 RMK A01
46U,2017-04-01 00:40,-111.0424,43.1846,53.60,24.80,32.46,350.00,11.00,0.00,29.92,M,10.00,18.00,CLR,M,M,M,M,M,M,M,M,K46U 010040Z AUTO 35011G18KT 10SM CLR 12/M04 A2992 RMK A01
46U,2017-04-01 01:00,-111.0424,43.1846,51.80,24.80,34.69,350.00,10.00,0.00,29.93,M,10.00,18.00,CLR,M,M,M,M,M,M,M,M,K46U 010100Z AUTO 35010G18KT 10SM CLR 11/M04 A2993 RMK A01
46U,2017-04-01 01:20,-111.0424,43.1846,51.80,24.80,34.69,350.00,9.00,0.00,29.94,M,10.00,17.00,CLR,M,M,M,M,M,M,M,M,K46U 010120Z AUTO 35009G17KT 10SM CLR 11/M04 A2994 RMK A01
46U,2017-04-01 01:40,-111.0424,43.1846,50.00,24.80,37.08,30.00,5.00,0.00,29.96,M,10.00,13.00,CLR,M,M,M,M,M,M,M,M,K46U 010140Z AUTO 03005G13KT 10SM CLR 10/M04 A2996 RMK A01
46U,2017-04-01 02:00,-111.0424,43.1846,50.00,24.80,37.08,50.00,12.00,0.00,29.96,M,10.00,23.00,SCT,M,M,M,10000.00,M,M,M,M,K46U 010200Z AUTO 05012G23KT 10SM SCT100 10/M04 A2996 RMK A01
46U,2017-04-01 02:20,-111.0424,43.1846,50.00,24.80,37.08,0.00,0.00,0.00,29.96,M,10.00,M,BKN,M,M,M,9500.00,M,M,M,M,K46U 010220Z AUTO 00000KT 10SM BKN095 10/M04 A2996 RMK A01
46U,2017-04-01 02:40,-111.0424,43.1846,46.40,26.60,45.73,0.00,0.00,0.00,29.97,M,10.00,M,OVC,M,M,M,9000.00,M,M,M,M,K46U 010240Z AUTO 00000KT 10SM OVC090 08/M03 A2997 RMK A01
46U,2017-04-01 03:00,-111.0424,43.1846,46.40,28.40,49.24,M,4.00,0.00,29.98,M,10.00,M,SCT,BKN,M,M,9000.00,11000.00,M,M,M,K46U 010300Z AUTO VRB04KT 10SM SCT090 BKN110 08/M02 A2998 RMK A01
46U,2017-04-01 03:20,-111.0424,43.1846,44.60,28.40,52.72,210.00,4.00,0.00,29.99,M,10.00,M,SCT,M,M,M,11000.00,M,M,M,M,K46U 010320Z AUTO 21004KT 10SM SCT110 07/M02 A2999 RMK A01
46U,2017-04-01 03:40,-111.0424,43.1846,44.60,28.40,52.72,0.00,0.00,0.00,30.01,M,10.00,M,OVC,M,M,M,10000.00,M,M,M,M,K46U 010340Z AUTO 00000KT 10SM OVC100 07/M02 A3001 RMK A01
46U,2017-04-01 04:00,-111.0424,43.1846,44.60,28.40,52.72,240.00,5.00,0.00,30.02,M,10.00,M,BKN,M,M,M,11000.00,M,M,M,M,K46U 010400Z AUTO 24005KT 10SM BKN110 07/M02 A3002 RMK A01
46U,2017-04-01 04:20,-111.0424,43.1846,42.80,28.40,56.48,0.00,0.00,0.00,30.02,M,10.00,M,OVC,M,M,M,11000.00,M,M,M,M,K46U 010420Z AUTO 00000KT 10SM OVC110 06/M02 A3002 RMK A01
46U,2017-04-01 04:40,-111.0424,43.1846,44.60,26.60,48.96,M,5.00,0.00,30.03,M,10.00,M,OVC,M,M,M,11000.00,M,M,M,M,K46U 010440Z AUTO VRB05KT 10SM OVC110 07/M03 A3003 RMK A01
46U,2017-04-01 05:00,-111.0424,43.1846,41.00,26.60,56.22,100.00,5.00,0.00,30.03,M,10.00,M,BKN,M,M,M,12000.00,M,M,M,M,K46U 010500Z AUTO 10005KT 10SM BKN120 05/M03 A3003 RMK A01
46U,2017-04-01 05:20,-111.0424,43.1846,41.00,26.60,56.22,0.00,0.00,0.00,30.04,M,10.00,M,CLR,M,M,M,M,M,M,M,M,K46U 010520Z AUTO 00000KT 10SM CLR 05/M03 A3004 RMK A01
46U,2017-04-01 05:40,-111.0424,43.1846,41.00,28.40,60.54,0.00,0.00,0.00,30.05,M,10.00,M,CLR,M,M,M,M,M,M,M,M,K46U 010540Z AUTO 00000KT 10SM CLR 05/M02 A3005 RMK A01
46U,2017-04-01 06:00,-111.0424,43.1846,41.00,26.60,56.22,140.00,6.00,0.00,30.05,M,10.00,M,CLR,M,M,M,M,M,M,M,M,K46U 010600Z AUTO 14006KT 10SM CLR 05/M03 A3005 RMK A01
46U,2017-04-01 06:20,-111.0424,43.1846,37.40,26.60,64.70,0.00,0.00,0.00,30.06,M,10.00,M,CLR,M,M,M,M,M,M,M,M,K46U 010620Z AUTO 00000KT 10SM CLR 03/M03 A3006 RMK A01
46U,2017-04-01 06:40,-111.0424,43.1846,37.40,28.40,69.67,0.00,0.00,0.00,30.06,M,10.00,M,CLR,M,M,M,M,M,M,M,M,K46U 010640Z AUTO 00000KT 10SM CLR 03/M02 A3006 RMK A01
46U,2017-04-01 07:00,-111.0424,43.1846,35.60,28.40,74.80,0.00,0.00,0.00,30.08,M,10.00,M,CLR,M,M,M,M,M,M,M,M,K46U 010700Z AUTO 00000KT 10SM CLR 02/M02 A3008 RMK A01
46U,2017-04-01 07:20,-111.0424,43.1846,37.40,26.60,64.70,90.00,3.00,0.00,30.08,M,10.00,M,CLR,M,M,M,M,M,M,M,M,K46U 010720Z AUTO 09003KT 10SM CLR 03/M03 A3008 RMK A01
46U,2017-04-01 07:40,-111.0424,43.1846,37.40,26.60,64.70,120.00,7.00,0.00,30.09,M,10.00,M,CLR,M,M,M,M,M,M,M,M,K46U 010740Z AUTO 12007KT 10SM CLR 03/M03 A3009 RMK A01
46U,2017-04-01 08:00,-111.0424,43.1846,37.40,26.60,64.70,110.00,8.00,0.00,30.09,M,10.00,M,CLR,M,M,M,M,M,M,M,M,K46U 010800Z AUTO 11008KT 10SM CLR 03/M03 A3009 RMK A01
46U,2017-04-01 08:20,-111.0424,43.1846,37.40,26.60,64.70,110.00,8.00,0.00,30.10,M,10.00,M,CLR,M,M,M,M,M,M,M,M,K46U 010820Z AUTO 11008KT 10SM CLR 03/M03 A3010 RMK A01
46U,2017-04-01 08:40,-111.0424,43.1846,35.60,26.60,69.46,120.00,10.00,0.00,30.10,M,10.00,M,CLR,M,M,M,M,M,M,M,M,K46U 010840Z AUTO 12010KT 10SM CLR 02/M03 A3010 RMK A01
46U,2017-04-01 09:00,-111.0424,43.1846,35.60,26.60,69.46,140.00,7.00,0.00,30.10,M,10.00,13.00,CLR,M,M,M,M,M,M,M,M,K46U 010900Z AUTO 14007G13KT 10SM CLR 02/M03 A3010 RMK A01
46U,2017-04-01 09:20,-111.0424,43.1846,35.60,26.60,69.46,110.00,6.00,0.00,30.10,M,10.00,M,CLR,M,M,M,M,M,M,M,M,K46U 010920Z AUTO 11006KT 10SM CLR 02/M03 A3010 RMK A01
46U,2017-04-01 09:40,-111.0424,43.1846,35.60,26.60,69.46,130.00,11.00,0.00,30.10,M,10.00,M,CLR,M,M,M,M,M,M,M,M,K46U 010940Z AUTO 13011KT 10SM CLR 02/M03 A3010 RMK A01
46U,2017-04-01 10:00,-111.0424,43.1846,33.80,26.60,74.63,140.00,6.00,0.00,30.10,M,10.00,M,CLR,M,M,M,M,M,M,M,M,K46U 011000Z AUTO 14006KT 10SM CLR 01/M03 A3010 RMK A01
46U,2017-04-01 10:20,-111.0424,43.1846,35.60,26.60,69.46,130.00,10.00,0.00,30.11,M,10.00,M,CLR,M,M,M,M,M,M,M,M,K46U 011020Z AUTO 13010KT 10SM CLR 02/M03 A3011 RMK A01
46U,2017-04-01 10:40,-111.0424,43.1846,33.80,26.60,74.63,140.00,5.00,0.00,30.12,M,10.00,11.00,CLR,M,M,M,M,M,M,M,M,K46U 011040Z AUTO 14005G11KT 10SM CLR 01/M03 A3012 RMK A01
46U,2017-04-01 11:00,-111.0424,43.1846,30.20,26.60,86.28,0.00,0.00,0.00,30.13,M,10.00,M,CLR,M,M,M,M,M,M,M,M,K46U 011100Z AUTO 00000KT 10SM CLR M01/M03 A3013 RMK A01
46U,2017-04-01 11:20,-111.0424,43.1846,30.20,26.60,86.28,M,6.00,0.00,30.14,M,10.00,M,CLR,M,M,M,M,M,M,M,M,K46U 011120Z AUTO VRB06KT 10SM CLR M01/M03 A3014 RMK A01
46U,2017-04-01 11:40,-111.0424,43.1846,30.20,26.60,86.28,0.00,0.00,0.00,30.14,M,10.00,M,CLR,M,M,M,M,M,M,M,M,K46U 011140Z AUTO 00000KT 10SM CLR M01/M03 A3014 RMK A01
46U,2017-04-01 12:00,-111.0424,43.1846,30.20,26.60,86.28,0.00,0.00,0.00,30.15,M,10.00,M,CLR,M,M,M,M,M,M,M,M,K46U 011200Z AUTO 00000KT 10SM CLR M01/M03 A3015 RMK A01
46U,2017-04-01 12:20,-111.0424,43.1846,32.00,26.60,80.22,120.00,10.00,0.00,30.15,M,10.00,M,CLR,M,M,M,M,M,M,M,M,K46U 011220Z AUTO 12010KT 10SM CLR 00/M03 A3015 RMK A01
46U,2017-04-01 12:40,-111.0424,43.1846,32.00,26.60,80.22,M,5.00,0.00,30.16,M,10.00,M,CLR,M,M,M,M,M,M,M,M,K46U 011240Z AUTO VRB05KT 10SM CLR M00/M03 A3016 RMK A01
46U,2017-04-01 13:00,-111.0424,43.1846,32.00,26.60,80.22,0.00,0.00,0.00,30.17,M,10.00,M,CLR,M,M,M,M,M,M,M,M,K46U 011300Z AUTO 00000KT 10SM CLR M00/M03 A3017 RMK A01
46U,2017-04-01 13:20,-111.0424,43.1846,32.00,26.60,80.22,100.00,6.00,0.00,30.17,M,10.00,M,CLR,M,M,M,M,M,M,M,M,K46U 011320Z AUTO 10006KT 10SM CLR M00/M03 A3017 RMK A01
46U,2017-04-01 13:40,-111.0424,43.1846,30.20,26.60,86.28,0.00,0.00,0.00,30.17,M,10.00,M,SCT,M,M,M,3100.00,M,M,M,M,K46U 011340Z AUTO 00000KT 10SM SCT031 M01/M03 A3017 RMK A01
46U,2017-04-01 14:00,-111.0424,43.1846,32.00,26.60,80.22,90.00,5.00,0.00,30.17,M,10.00,10.00,FEW,M,M,M,3200.00,M,M,M,M,K46U 011400Z AUTO 09005G10KT 10SM FEW032 M00/M03 A3017 RMK A01
46U,2017-04-01 14:20,-111.0424,43.1846,33.80,26.60,74.63,120.00,9.00,0.00,30.17,M,10.00,M,CLR,M,M,M,M,M,M,M,M,K46U 011420Z AUTO 12009KT 10SM CLR 01/M03 A3017 RMK A01
46U,2017-04-01 14:40,-111.0424,43.1846,35.60,26.60,69.46,130.00,8.00,0.00,30.18,M,10.00,M,CLR,M,M,M,M,M,M,M,M,K46U 011440Z AUTO 13008KT 10SM CLR 02/M03 A3018 RMK A01
46U,2017-04-01 15:00,-111.0424,43.1846,35.60,26.60,69.46,120.00,8.00,0.00,30.17,M,10.00,M,CLR,M,M,M,M,M,M,M,M,K46U 011500Z AUTO 12008KT 10SM CLR 02/M03 A3017 RMK A01
46U,2017-04-01 15:20,-111.0424,43.1846,37.40,28.40,69.67,120.00,8.00,0.00,30.16,M,10.00,M,CLR,M,M,M,M,M,M,M,M,K46U 011520Z AUTO 12008KT 10SM CLR 03/M02 A3016 RMK A01
46U,2017-04-01 15:40,-111.0424,43.1846,41.00,28.40,60.54,M,4.00,0.00,30.16,M,10.00,M,CLR,M,M,M,M,M,M,M,M,K46U 011540Z AUTO VRB04KT 10SM CLR 05/M02 A3016 RMK A01
46U,2017-04-01 16:00,-111.0424,43.1846,41.00,30.20,65.16,0.00,0.00,0.00,30.17,M,10.00,M,CLR,M,M,M,M,M,M,M,M,K46U 011600Z AUTO 00000KT 10SM CLR 05/M01 A3017 RMK A01
46U,2017-04-01 16:20,-111.0424,43.1846,42.80,32.00,65.38,M,4.00,0.00,30.19,M,10.00,M,CLR,M,M,M,M,M,M,M,M,K46U 011620Z AUTO VRB04KT 10SM CLR 06/M00 A3019 RMK A01
46U,2017-04-01 16:40,-111.0424,43.1846,44.60,32.00,61.03,M,4.00,0.00,30.19,M,10.00,M,CLR,M,M,M,M,M,M,M,M,K46U 011640Z AUTO VRB04KT 10SM CLR 07/M00 A3019 RMK A01
46U,2017-04-01 17:00,-111.0424,43.1846,46.40,32.00,57.00,M,6.00,0.00,30.19,M,10.00,M,CLR,M,M,M,M,M,M,M,M,K46U 011700Z AUTO VRB06KT 10SM CLR 08/M00 A3019 RMK A01
46U,2017-04-01 17:20,-111.0424,43.1846,46.40,32.00,57.00,0.00,0.00,0.00,30.18,M,10.00,M,CLR,M,M,M,M,M,M,M,M,K46U 011720Z AUTO 00000KT 10SM CLR 08/M00 A3018 RMK A01
46U,2017-04-01 17:40,-111.0424,43.1846,48.20,32.00,53.27,180.00,3.00,0.00,30.17,M,10.00,M,CLR,M,M,M,M,M,M,M,M,K46U 011740Z AUTO 18003KT 10SM CLR 09/M00 A3017 RMK A01
46U,2017-04-01 18:00,-111.0424,43.1846,46.40,30.20,53.00,0.00,0.00,0.00,30.16,M,10.00,M,CLR,M,M,M,M,M,M,M,M,K46U 011800Z AUTO 00000KT 10SM CLR 08/M01 A3016 RMK A01
46U,2017-04-01 18:20,-111.0424,43.1846,48.20,30.20,49.53,230.00,4.00,0.00,30.14,M,10.00,M,CLR,M,M,M,M,M,M,M,M,K46U 011820Z AUTO 23004KT 10SM CLR 09/M01 A3014 RMK A01
46U,2017-04-01 18:40,-111.0424,43.1846,50.00,32.00,49.81,M,4.00,0.00,30.13,M,10.00,M,CLR,M,M,M,M,M,M,M,M,K46U 011840Z AUTO VRB04KT 10SM CLR 10/M00 A3013 RMK A01
46U,2017-04-01 19:00,-111.0424,43.1846,50.00,32.00,49.81,M,3.00,0.00,30.12,M,10.00,M,CLR,M,M,M,M,M,M,M,M,K46U 011900Z AUTO VRB03KT 10SM CLR 10/M00 A3012 RMK A01
46U,2017-04-01 19:20,-111.0424,43.1846,51.80,32.00,46.59,240.00,4.00,0.00,30.12,M,10.00,M,CLR,M,M,M,M,M,M,M,M,K46U 011920Z AUTO 24004KT 10SM CLR 11/00 A3012 RMK A01
46U,2017-04-01 19:40,-111.0424,43.1846,51.80,32.00,46.59,0.00,0.00,0.00,30.11,M,10.00,M,CLR,M,M,M,M,M,M,M,M,K46U 011940Z AUTO 00000KT 10SM CLR 11/M00 A3011 RMK A01
46U,2017-04-01 20:00,-111.0424,43.1846,51.80,32.00,46.59,M,3.00,0.00,30.10,M,10.00,M,FEW,M,M,M,4700.00,M,M,M,M,K46U 012000Z AUTO VRB03KT 10SM FEW047 11/M00 A3010 RMK A01
46U,2017-04-01 20:20,-111.0424,43.1846,53.60,32.00,43.61,220.00,3.00,0.00,30.09,M,10.00,10.00,FEW,M,M,M,4800.00,M,M,M,M,K46U 012020Z AUTO 22003G10KT 10SM FEW048 12/M00 A3009 RMK A01
46U,2017-04-01 20:40,-111.0424,43.1846,53.60,30.20,40.54,0.00,0.00,0.00,30.09,M,10.00,M,CLR,M,M,M,M,M,M,M,M,K46U 012040Z AUTO 00000KT 10SM CLR 12/M01 A3009 RMK A01
46U,2017-04-01 21:00,-111.0424,43.1846,55.40,32.00,40.84,290.00,6.00,0.00,30.08,M,10.00,M,SCT,M,M,M,5000.00,M,M,M,M,K46U 012100Z AUTO 29006KT 10SM SCT050 13/00 A3008 RMK A01
46U,2017-04-01 21:20,-111.0424,43.1846,55.40,30.20,37.97,M,6.00,0.00,30.07,M,10.00,11.00,SCT,M,M,M,5000.00,M,M,M,M,K46U 012120Z AUTO VRB06G11KT 10SM SCT050 13/M01 A3007 RMK A01
46U,2017-04-01 21:40,-111.0424,43.1846,55.40,32.00,40.84,280.00,9.00,0.00,30.07,M,10.00,M,FEW,M,M,M,5500.00,M,M,M,M,K46U 012140Z AUTO 28009KT 10SM FEW055 13/M00 A3007 RMK A01
46U,2017-04-01 22:00,-111.0424,43.1846,55.40,32.00,40.84,320.00,14.00,0.00,30.07,M,10.00,M,FEW,M,M,M,6000.00,M,M,M,M,K46U 012200Z AUTO 32014KT 10SM FEW060 13/00 A3007 RMK A01
46U,2017-04-01 22:20,-111.0424,43.1846,53.60,30.20,40.54,310.00,15.00,0.00,30.07,M,10.00,M,FEW,M,M,M,6000.00,M,M,M,M,K46U 012220Z AUTO 31015KT 10SM FEW060 12/M01 A3007 RMK A01
46U,2017-04-01 22:40,-111.0424,43.1846,53.60,30.20,40.54,300.00,12.00,0.00,30.06,M,10.00,M,BKN,M,M,M,6000.00,M,M,M,M,K46U 012240Z AUTO 30012KT 10SM BKN060 12/M01 A3006 RMK A01
46U,2017-04-01 23:00,-111.0424,43.1846,55.40,30.20,37.97,290.00,6.00,0.00,30.05,M,10.00,12.00,FEW,M,M,M,6000.00,M,M,M,M,K46U 012300Z AUTO 29006G12KT 10SM FEW060 13/M01 A3005 RMK A01
46U,2017-04-01 23:20,-111.0424,43.1846,55.40,30.20,37.97,290.00,6.00,0.00,30.05,M,10.00,12.00,CLR,M,M,M,M,M,M,M,M,K46U 012320Z AUTO 29006G12KT 10SM CLR 13/M01 A3005 RMK A01
46U,2017-04-01 23:40,-111.0424,43.1846,53.60,30.20,40.54,290.00,7.00,0.00,30.04,M,10.00,M,CLR,M,M,M,M,M,M,M,M,K46U 012340Z AUTO 29007KT 10SM CLR 12/M01 A3004 RMK A01
