#DEBUG: Format Typ    -> comma
#DEBUG: Time Period   -> 2017-04-01 00:00:00+00:00 2017-04-02 00:00:00+00:00
#DEBUG: Time Zone     -> Etc/UTC
#DEBUG: Data Contact   -> daryl herzmann akrherz@iastate.edu 515-294-5978
#DEBUG: Entries Found -> -1
station,valid,lon,lat,tmpf, dwpf, relh, drct, sknt, p01i, alti, mslp, vsby, gust, skyc1, skyc2, skyc3, skyc4, skyl1, skyl2, skyl3, skyl4, presentwx, metar
9V9,2017-04-01 00:15,-99.3183,43.7667,57.40,30.90,36.34,0.00,0.00,0.00,30.06,M,10.00,M,CLR,M,M,M,M,M,M,M,M,K9V9 010015Z AUTO 00000KT 10SM CLR 14/M01 A3006 RMK AO2 T01411006
9V9,2017-04-01 00:35,-99.3183,43.7667,55.90,31.30,38.99,40.00,3.00,0.00,30.06,M,10.00,M,CLR,M,M,M,M,M,M,M,M,K9V9 010035Z AUTO 04003KT 10SM CLR 13/00 A3006 RMK AO2 T01331004
9V9,2017-04-01 00:55,-99.3183,43.7667,54.90,30.20,38.66,50.00,3.00,0.00,30.07,M,10.00,M,CLR,M,M,M,M,M,M,M,M,K9V9 010055Z AUTO 05003KT 10SM CLR 13/M01 A3007 RMK AO2 T01271010
9V9,2017-04-01 01:15,-99.3183,43.7667,53.20,30.00,40.81,0.00,0.00,0.00,30.07,M,10.00,M,CLR,M,M,M,M,M,M,M,M,K9V9 010115Z AUTO 00000KT 10SM CLR 12/M01 A3007 RMK AO2 T01181011
9V9,2017-04-01 01:35,-99.3183,43.7667,52.20,30.20,42.68,0.00,0.00,0.00,30.08,M,10.00,M,CLR,M,M,M,M,M,M,M,M,K9V9 010135Z AUTO 00000KT 10SM CLR 11/M01 A3008 RMK AO2 T01121010
9V9,2017-04-01 01:55,-99.3183,43.7667,50.70,30.60,45.86,0.00,0.00,0.00,30.09,M,10.00,M,CLR,M,M,M,M,M,M,M,M,K9V9 010155Z AUTO 00000KT 10SM CLR 10/M01 A3009 RMK AO2 T01041008
9V9,2017-04-01 02:15,-99.3183,43.7667,50.40,30.00,45.25,30.00,3.00,0.00,30.10,M,10.00,M,CLR,M,M,M,M,M,M,M,M,K9V9 010215Z AUTO 03003KT 10SM CLR 10/M01 A3010 RMK AO2 T01021011
9V9,2017-04-01 02:35,-99.3183,43.7667,48.60,29.30,47.03,50.00,3.00,0.00,30.11,M,10.00,M,CLR,M,M,M,M,M,M,M,M,K9V9 010235Z AUTO 05003KT 10SM CLR 09/M01 A3011 RMK AO2 T00921015
9V9,2017-04-01 02:55,-99.3183,43.7667,48.40,29.80,48.36,30.00,3.00,0.00,30.12,M,10.00,M,CLR,M,M,M,M,M,M,M,M,K9V9 010255Z AUTO 03003KT 10SM CLR 09/M01 A3012 RMK AO2 T00911012
9V9,2017-04-01 03:15,-99.3183,43.7667,48.00,29.70,48.89,50.00,4.00,0.00,30.12,M,10.00,M,CLR,M,M,M,M,M,M,M,M,K9V9 010315Z AUTO 05004KT 10SM CLR 09/M01 A3012 RMK AO2 T00891013
9V9,2017-04-01 03:35,-99.3183,43.7667,48.60,29.70,47.81,0.00,0.00,0.00,30.14,M,10.00,M,CLR,M,M,M,M,M,M,M,M,K9V9 010335Z AUTO 00000KT 10SM CLR 09/M01 A3014 RMK AO2 T00921013
9V9,2017-04-01 03:55,-99.3183,43.7667,42.60,30.20,61.26,0.00,0.00,0.00,30.14,M,10.00,M,CLR,M,M,M,M,M,M,M,M,K9V9 010355Z AUTO 00000KT 10SM CLR 06/M01 A3014 RMK AO2 T00591010
9V9,2017-04-01 04:15,-99.3183,43.7667,43.20,31.60,63.35,0.00,0.00,0.00,30.15,M,10.00,M,CLR,M,M,M,M,M,M,M,M,K9V9 010415Z AUTO 00000KT 10SM CLR 06/00 A3015 RMK AO2 T00621002
9V9,2017-04-01 04:35,-99.3183,43.7667,43.00,31.10,62.56,0.00,0.00,0.00,30.15,M,10.00,M,CLR,M,M,M,M,M,M,M,M,K9V9 010435Z AUTO 00000KT 10SM CLR 06/00 A3015 RMK AO2 T00611005
9V9,2017-04-01 04:55,-99.3183,43.7667,43.30,29.80,58.67,0.00,0.00,0.00,30.16,M,10.00,M,CLR,M,M,M,M,M,M,M,M,K9V9 010455Z AUTO 00000KT 10SM CLR 06/M01 A3016 RMK AO2 T00631012
9V9,2017-04-01 05:15,-99.3183,43.7667,43.90,31.80,62.18,210.00,4.00,0.00,30.17,M,10.00,M,CLR,M,M,M,M,M,M,M,M,K9V9 010515Z AUTO 21004KT 10SM CLR 07/00 A3017 RMK AO2 T00661001
9V9,2017-04-01 05:35,-99.3183,43.7667,44.20,32.00,61.97,0.00,0.00,0.00,30.18,M,10.00,M,CLR,M,M,M,M,M,M,M,M,K9V9 010535Z AUTO 00000KT 10SM CLR 07/00 A3018 RMK AO2 T00680000
9V9,2017-04-01 05:55,-99.3183,43.7667,45.50,32.20,59.46,0.00,0.00,0.00,30.17,M,10.00,M,SCT,M,M,M,12000.00,M,M,M,M,K9V9 010555Z AUTO 00000KT 10SM SCT120 08/00 A3017 RMK AO2 T00750001 10143 20057 401580056
9V9,2017-04-01 06:15,-99.3183,43.7667,43.90,32.90,65.00,0.00,0.00,0.00,30.18,M,10.00,M,SCT,OVC,M,M,9000.00,11000.00,M,M,M,K9V9 010615Z AUTO 00000KT 10SM SCT090 OVC110 07/01 A3018 RMK AO2 T00660005
9V9,2017-04-01 06:35,-99.3183,43.7667,44.60,33.40,64.56,0.00,0.00,0.00,30.18,M,10.00,M,OVC,M,M,M,10000.00,M,M,M,M,K9V9 010635Z AUTO 00000KT 10SM OVC100 07/01 A3018 RMK AO2 T00700008
9V9,2017-04-01 06:55,-99.3183,43.7667,43.90,33.60,66.84,0.00,0.00,0.00,30.18,M,10.00,M,OVC,M,M,M,11000.00,M,M,M,M,K9V9 010655Z AUTO 00000KT 10SM OVC110 07/01 A3018 RMK AO2 T00660009
9V9,2017-04-01 07:15,-99.3183,43.7667,42.80,34.20,71.41,0.00,0.00,0.00,30.19,M,10.00,M,OVC,M,M,M,10000.00,M,M,M,M,K9V9 010715Z AUTO 00000KT 10SM OVC100 06/01 A3019 RMK AO2 T00600012
9V9,2017-04-01 07:35,-99.3183,43.7667,43.30,36.30,76.15,0.00,0.00,0.00,30.19,M,10.00,M,BKN,OVC,M,M,7000.00,9500.00,M,M,M,K9V9 010735Z AUTO 00000KT 10SM BKN070 OVC095 06/02 A3019 RMK AO2 T00630024
9V9,2017-04-01 07:55,-99.3183,43.7667,43.70,36.70,76.19,0.00,0.00,0.00,30.19,M,10.00,M,SCT,BKN,OVC,M,6500.00,7500.00,9000.00,M,M,K9V9 010755Z AUTO 00000KT 10SM SCT065 BKN075 OVC090 07/03 A3019 RMK AO2 T00650026
9V9,2017-04-01 08:15,-99.3183,43.7667,43.70,37.00,77.10,0.00,0.00,0.00,30.18,M,10.00,M,SCT,OVC,M,M,8000.00,10000.00,M,M,M,K9V9 010815Z AUTO 00000KT 10SM SCT080 OVC100 07/03 A3018 RMK AO2 T00650028
9V9,2017-04-01 08:35,-99.3183,43.7667,43.50,37.60,79.54,190.00,3.00,0.00,30.19,M,10.00,M,OVC,M,M,M,10000.00,M,M,M,M,K9V9 010835Z AUTO 19003KT 10SM OVC100 06/03 A3019 RMK AO2 T00640031
9V9,2017-04-01 08:55,-99.3183,43.7667,43.70,37.80,79.56,300.00,3.00,0.00,30.18,M,10.00,M,OVC,M,M,M,10000.00,M,M,M,M,K9V9 010855Z AUTO 30003KT 10SM OVC100 07/03 A3018 RMK AO2 T00650032
9V9,2017-04-01 09:15,-99.3183,43.7667,44.60,37.20,75.08,290.00,3.00,0.00,30.18,M,10.00,M,OVC,M,M,M,10000.00,M,M,M,M,K9V9 010915Z AUTO 29003KT 10SM OVC100 07/03 A3018 RMK AO2 T00700029
9V9,2017-04-01 09:35,-99.3183,43.7667,44.60,37.40,75.68,310.00,6.00,0.00,30.17,M,10.00,M,OVC,M,M,M,10000.00,M,M,M,M,K9V9 010935Z AUTO 31006KT 10SM OVC100 07/03 A3017 RMK AO2 T00700030
9V9,2017-04-01 09:55,-99.3183,43.7667,44.60,37.40,75.68,310.00,4.00,0.00,30.19,M,10.00,M,OVC,M,M,M,10000.00,M,M,M,M,K9V9 010955Z AUTO 31004KT 10SM OVC100 07/03 A3019 RMK AO2 T00700030
9V9,2017-04-01 10:15,-99.3183,43.7667,44.60,37.20,75.08,140.00,4.00,0.00,30.20,M,10.00,M,OVC,M,M,M,10000.00,M,M,M,M,K9V9 011015Z AUTO 14004KT 10SM OVC100 07/03 A3020 RMK AO2 T00700029
9V9,2017-04-01 10:35,-99.3183,43.7667,43.30,37.40,79.53,0.00,0.00,0.00,30.20,M,10.00,M,OVC,M,M,M,10000.00,M,M,M,M,K9V9 011035Z AUTO 00000KT 10SM OVC100 06/03 A3020 RMK AO2 T00630030
9V9,2017-04-01 10:55,-99.3183,43.7667,43.90,37.40,77.72,310.00,3.00,0.00,30.19,M,10.00,M,OVC,M,M,M,9000.00,M,M,M,M,K9V9 011055Z AUTO 31003KT 10SM OVC090 07/03 A3019 RMK AO2 T00660030
9V9,2017-04-01 11:15,-99.3183,43.7667,44.60,35.40,69.92,340.00,5.00,0.00,30.18,M,10.00,M,BKN,BKN,M,M,9000.00,12000.00,M,M,M,K9V9 011115Z AUTO 34005KT 10SM BKN090 BKN120 07/02 A3018 RMK AO2 T00700019
9V9,2017-04-01 11:35,-99.3183,43.7667,44.40,33.40,65.06,350.00,4.00,0.00,30.19,M,10.00,M,SCT,BKN,M,M,9000.00,11000.00,M,M,M,K9V9 011135Z AUTO 35004KT 10SM SCT090 BKN110 07/01 A3019 RMK AO2 T00690008
9V9,2017-04-01 11:55,-99.3183,43.7667,45.00,33.10,62.83,360.00,3.00,0.00,30.21,M,10.00,M,OVC,M,M,M,9000.00,M,M,M,M,K9V9 011155Z AUTO 36003KT 10SM OVC090 07/01 A3021 RMK AO2 T00720006 10076 20060
9V9,2017-04-01 12:15,-99.3183,43.7667,45.50,34.70,65.72,10.00,3.00,0.00,30.21,M,10.00,M,OVC,M,M,M,9000.00,M,M,M,M,K9V9 011215Z AUTO 01003KT 10SM OVC090 08/02 A3021 RMK AO2 T00750015
9V9,2017-04-01 12:35,-99.3183,43.7667,45.50,35.80,68.65,0.00,0.00,0.00,30.22,M,10.00,M,OVC,M,M,M,9000.00,M,M,M,M,K9V9 011235Z AUTO 00000KT 10SM OVC090 08/02 A3022 RMK AO2 T00750021
9V9,2017-04-01 12:55,-99.3183,43.7667,45.70,35.10,66.27,0.00,0.00,0.00,30.22,M,10.00,M,OVC,M,M,M,9000.00,M,M,M,M,K9V9 011255Z AUTO 00000KT 10SM OVC090 08/02 A3022 RMK AO2 T00760017
9V9,2017-04-01 13:15,-99.3183,43.7667,45.00,34.50,66.45,0.00,0.00,0.00,30.22,M,10.00,M,OVC,M,M,M,9000.00,M,M,M,M,K9V9 011315Z AUTO 00000KT 10SM OVC090 07/01 A3022 RMK AO2 T00720014
9V9,2017-04-01 13:35,-99.3183,43.7667,44.10,35.20,70.71,0.00,0.00,0.00,30.23,M,10.00,M,OVC,M,M,M,9000.00,M,M,M,M,K9V9 011335Z AUTO 00000KT 10SM OVC090 07/02 A3023 RMK AO2 T00670018
9V9,2017-04-01 13:55,-99.3183,43.7667,45.50,33.60,62.89,0.00,0.00,0.00,30.24,M,10.00,M,OVC,M,M,M,9000.00,M,M,M,M,K9V9 011355Z AUTO 00000KT 10SM OVC090 08/01 A3024 RMK AO2 T00750009
9V9,2017-04-01 14:15,-99.3183,43.7667,46.60,33.10,59.13,0.00,0.00,0.00,30.22,M,10.00,M,OVC,M,M,M,9000.00,M,M,M,M,K9V9 011415Z AUTO 00000KT 10SM OVC090 08/01 A3022 RMK AO2 T00810006
9V9,2017-04-01 14:35,-99.3183,43.7667,48.70,33.60,55.75,0.00,0.00,0.00,30.22,M,10.00,M,OVC,M,M,M,9000.00,M,M,M,M,K9V9 011435Z AUTO 00000KT 10SM OVC090 09/01 A3022 RMK AO2 T00930009
9V9,2017-04-01 14:55,-99.3183,43.7667,50.90,33.30,50.75,0.00,0.00,0.00,30.22,M,10.00,M,BKN,M,M,M,9000.00,M,M,M,M,K9V9 011455Z AUTO 00000KT 10SM BKN090 11/01 A3022 RMK AO2 T01050007
9V9,2017-04-01 15:15,-99.3183,43.7667,52.00,35.10,52.36,0.00,0.00,0.00,30.24,M,10.00,M,BKN,M,M,M,10000.00,M,M,M,M,K9V9 011515Z AUTO 00000KT 10SM BKN100 11/02 A3024 RMK AO2 T01110017
9V9,2017-04-01 15:35,-99.3183,43.7667,53.80,35.10,49.01,0.00,0.00,0.00,30.24,M,10.00,M,BKN,M,M,M,10000.00,M,M,M,M,K9V9 011535Z AUTO 00000KT 10SM BKN100 12/02 A3024 RMK AO2 T01210017
9V9,2017-04-01 15:55,-99.3183,43.7667,54.10,34.00,46.40,0.00,0.00,0.00,30.24,M,10.00,M,SCT,M,M,M,10000.00,M,M,M,M,K9V9 011555Z AUTO 00000KT 10SM SCT100 12/01 A3024 RMK AO2 T01230011
9V9,2017-04-01 16:15,-99.3183,43.7667,54.70,33.40,44.32,0.00,0.00,0.00,30.22,M,10.00,M,CLR,M,M,M,M,M,M,M,M,K9V9 011615Z AUTO 00000KT 10SM CLR 13/01 A3022 RMK AO2 T01260008
9V9,2017-04-01 16:35,-99.3183,43.7667,55.80,33.40,42.58,0.00,0.00,0.00,30.22,M,10.00,M,CLR,M,M,M,M,M,M,M,M,K9V9 011635Z AUTO 00000KT 10SM CLR 13/01 A3022 RMK AO2 T01320008
9V9,2017-04-01 16:55,-99.3183,43.7667,56.50,33.60,41.85,0.00,0.00,0.00,30.21,M,10.00,M,CLR,M,M,M,M,M,M,M,M,K9V9 011655Z AUTO 00000KT 10SM CLR 14/01 A3021 RMK AO2 T01360009
9V9,2017-04-01 17:15,-99.3183,43.7667,57.00,33.30,40.61,300.00,3.00,0.00,30.20,M,10.00,M,CLR,M,M,M,M,M,M,M,M,K9V9 011715Z AUTO 30003KT 10SM CLR 14/01 A3020 RMK AO2 T01390007
9V9,2017-04-01 17:35,-99.3183,43.7667,58.60,31.80,36.09,150.00,3.00,0.00,30.20,M,10.00,M,CLR,M,M,M,M,M,M,M,M,K9V9 011735Z AUTO 15003KT 10SM CLR 15/00 A3020 RMK AO2 T01481001
9V9,2017-04-01 17:55,-99.3183,43.7667,58.80,30.70,34.28,80.00,6.00,0.00,30.19,M,10.00,M,CLR,M,M,M,M,M,M,M,M,K9V9 011755Z AUTO 08006KT 10SM CLR 15/M01 A3019 RMK AO2 T01491007 10154 20065
9V9,2017-04-01 18:15,-99.3183,43.7667,58.60,28.90,32.08,0.00,0.00,0.00,30.18,M,10.00,M,CLR,M,M,M,M,M,M,M,M,K9V9 011815Z AUTO 00000KT 10SM CLR 15/M02 A3018 RMK AO2 T01481017
9V9,2017-04-01 18:35,-99.3183,43.7667,60.40,31.30,33.17,110.00,5.00,0.00,30.17,M,10.00,M,CLR,M,M,M,M,M,M,M,M,K9V9 011835Z AUTO 11005KT 10SM CLR 16/00 A3017 RMK AO2 T01581004
9V9,2017-04-01 18:55,-99.3183,43.7667,61.70,33.10,34.06,90.00,6.00,0.00,30.16,M,10.00,M,CLR,M,M,M,M,M,M,M,M,K9V9 011855Z AUTO 09006KT 10SM CLR 17/01 A3016 RMK AO2 T01650006
9V9,2017-04-01 19:15,-99.3183,43.7667,59.70,31.80,34.70,100.00,7.00,0.00,30.15,M,10.00,M,CLR,M,M,M,M,M,M,M,M,K9V9 011915Z AUTO 10007KT 10SM CLR 15/00 A3015 RMK AO2 T01541001
9V9,2017-04-01 19:35,-99.3183,43.7667,60.10,32.00,34.49,110.00,3.00,0.00,30.14,M,10.00,M,CLR,M,M,M,M,M,M,M,M,K9V9 011935Z AUTO 11003KT 10SM CLR 16/00 A3014 RMK AO2 T01560000
9V9,2017-04-01 19:55,-99.3183,43.7667,61.00,31.80,33.13,150.00,5.00,0.00,30.14,M,10.00,M,CLR,M,M,M,M,M,M,M,M,K9V9 011955Z AUTO 15005KT 10SM CLR 16/00 A3014 RMK AO2 T01611001
9V9,2017-04-01 20:15,-99.3183,43.7667,61.50,32.20,33.08,90.00,8.00,0.00,30.13,M,10.00,M,CLR,M,M,M,M,M,M,M,M,K9V9 012015Z AUTO 09008KT 10SM CLR 16/00 A3013 RMK AO2 T01640001
9V9,2017-04-01 20:35,-99.3183,43.7667,61.50,31.80,32.55,140.00,5.00,0.00,30.13,M,10.00,M,SCT,M,M,M,7500.00,M,M,M,M,K9V9 012035Z AUTO 14005KT 10SM SCT075 16/00 A3013 RMK AO2 T01641001
9V9,2017-04-01 20:55,-99.3183,43.7667,61.70,31.60,32.06,140.00,10.00,0.00,30.13,M,10.00,M,BKN,M,M,M,7500.00,M,M,M,M,K9V9 012055Z AUTO 14010KT 10SM BKN075 17/00 A3013 RMK AO2 T01651002
9V9,2017-04-01 21:15,-99.3183,43.7667,62.10,31.50,31.48,150.00,9.00,0.00,30.12,M,10.00,M,BKN,M,M,M,7500.00,M,M,M,M,K9V9 012115Z AUTO 15009KT 10SM BKN075 17/00 A3012 RMK AO2 T01671003
9V9,2017-04-01 21:35,-99.3183,43.7667,62.80,30.40,29.38,110.00,10.00,0.00,30.11,M,10.00,15.00,BKN,M,M,M,7500.00,M,M,M,M,K9V9 012135Z AUTO 11010G15KT 10SM BKN075 17/M01 A3011 RMK AO2 T01711009
9V9,2017-04-01 21:55,-99.3183,43.7667,62.40,30.20,29.55,140.00,13.00,0.00,30.11,M,10.00,22.00,SCT,M,M,M,7500.00,M,M,M,M,K9V9 012155Z AUTO 14013G22KT 10SM SCT075 17/M01 A3011 RMK AO2 T01691010
9V9,2017-04-01 22:15,-99.3183,43.7667,62.10,30.20,29.87,120.00,11.00,0.00,30.10,M,10.00,15.00,SCT,M,M,M,7500.00,M,M,M,M,K9V9 012215Z AUTO 12011G15KT 10SM SCT075 17/M01 A3010 RMK AO2 T01671010
9V9,2017-04-01 22:35,-99.3183,43.7667,61.50,30.90,31.39,140.00,9.00,0.00,30.09,M,10.00,M,SCT,M,M,M,7500.00,M,M,M,M,K9V9 012235Z AUTO 14009KT 10SM SCT075 16/M01 A3009 RMK AO2 T01641006
9V9,2017-04-01 22:55,-99.3183,43.7667,60.80,30.70,31.92,130.00,11.00,0.00,30.08,M,10.00,14.00,CLR,M,M,M,M,M,M,M,M,K9V9 012255Z AUTO 13011G14KT 10SM CLR 16/M01 A3008 RMK AO2 T01601007
9V9,2017-04-01 23:15,-99.3183,43.7667,60.30,31.60,33.69,140.00,11.00,0.00,30.08,M,10.00,14.00,CLR,M,M,M,M,M,M,M,M,K9V9 012315Z AUTO 14011G14KT 10SM CLR 16/00 A3008 RMK AO2 T01571002
9V9,2017-04-01 23:35,-99.3183,43.7667,59.40,31.30,34.37,140.00,10.00,0.00,30.07,M,10.00,M,CLR,M,M,M,M,M,M,M,M,K9V9 012335Z AUTO 14010KT 10SM CLR 15/00 A3007 RMK AO2 T01521004
9V9,2017-04-01 23:55,-99.3183,43.7667,58.10,31.80,36.75,140.00,8.00,0.00,30.07,M,10.00,M,CLR,M,M,M,M,M,M,M,M,K9V9 012355Z AUTO 14008KT 10SM CLR 15/00 A3007 RMK AO2 T01451001 10173 20145
