#DEBUG: Format Typ    -> comma
#DEBUG: Time Period   -> 2017-04-01 00:00:00+00:00 2017-04-02 00:00:00+00:00
#DEBUG: Time Zone     -> Etc/UTC
#DEBUG: Data Contact   -> daryl herzmann akrherz@iastate.edu 515-294-5978
#DEBUG: Entries Found -> -1
station,valid,lon,lat,tmpf, dwpf, relh, drct, sknt, p01i, alti, mslp, vsby, gust, skyc1, skyc2, skyc3, skyc4, skyl1, skyl2, skyl3, skyl4, presentwx, metar
AAT,2017-04-01 00:00,-120.5644,41.4914,M,M,M,10.00,16.00,M,30.13,M,10.00,21.00,CLR,M,M,M,M,M,M,M,M,KAAT 010000Z AUTO 01016G21KT 10SM CLR A3013 RMK MADISHF
AAT,2017-04-01 00:05,-120.5644,41.4914,M,M,M,360.00,14.00,M,30.13,M,10.00,19.00,CLR,M,M,M,M,M,M,M,M,KAAT 010005Z AUTO 36014G19KT 10SM CLR A3013 RMK MADISHF
AAT,2017-04-01 00:10,-120.5644,41.4914,M,M,M,20.00,15.00,M,30.12,M,10.00,20.00,CLR,M,M,M,M,M,M,M,M,KAAT 010010Z AUTO 02015G20KT 10SM CLR A3012 RMK MADISHF
AAT,2017-04-01 00:15,-120.5644,41.4914,M,M,M,20.00,14.00,M,30.12,M,10.00,M,CLR,M,M,M,M,M,M,M,M,KAAT 010015Z AUTO 02014KT 10SM CLR A3012 RMK MADISHF
AAT,2017-04-01 00:20,-120.5644,41.4914,M,M,M,20.00,17.00,M,30.12,M,10.00,M,CLR,M,M,M,M,M,M,M,M,KAAT 010020Z AUTO 02017KT 10SM CLR A3012 RMK MADISHF
AAT,2017-04-01 00:25,-120.5644,41.4914,M,M,M,20.00,12.00,M,30.12,M,10.00,17.00,CLR,M,M,M,M,M,M,M,M,KAAT 010025Z AUTO 02012G17KT 10SM CLR A3012 RMK MADISHF
AAT,2017-04-01 00:30,-120.5644,41.4914,M,M,M,20.00,13.00,M,30.12,M,10.00,M,CLR,M,M,M,M,M,M,M,M,KAAT 010030Z AUTO 02013KT 10SM CLR A3012 RMK MADISHF
AAT,2017-04-01 00:35,-120.5644,41.4914,M,M,M,10.00,13.00,M,30.12,M,10.00,M,CLR,M,M,M,M,M,M,M,M,KAAT 010035Z AUTO 01013KT 10SM CLR A3012 RMK MADISHF
AAT,2017-04-01 00:40,-120.5644,41.4914,M,M,M,20.00,10.00,M,30.12,M,10.00,M,CLR,M,M,M,M,M,M,M,M,KAAT 010040Z AUTO 02010KT 10SM CLR A3012 RMK MADISHF
AAT,2017-04-01 00:45,-120.5644,41.4914,M,M,M,360.00,13.00,M,30.11,M,10.00,M,CLR,M,M,M,M,M,M,M,M,KAAT 010045Z AUTO 36013KT 10SM CLR A3011 RMK MADISHF
AAT,2017-04-01 00:50,-120.5644,41.4914,M,M,M,30.00,10.00,M,30.11,M,10.00,M,CLR,M,M,M,M,M,M,M,M,KAAT 010050Z AUTO 03010KT 10SM CLR A3011 RMK MADISHF
AAT,2017-04-01 00:55,-120.5644,41.4914,53.10,25.00,33.34,20.00,12.00,0.00,30.11,1019.20,10.00,M,CLR,M,M,M,M,M,M,M,M,KAAT 010055Z AUTO 02012KT 10SM CLR 12/M04 A3011 RMK AO2 SLP192 T01171039 TSNO
AAT,2017-04-01 01:00,-120.5644,41.4914,M,M,M,10.00,11.00,M,30.11,M,10.00,M,CLR,M,M,M,M,M,M,M,M,KAAT 010100Z AUTO 01011KT 10SM CLR A3011 RMK MADISHF
AAT,2017-04-01 01:05,-120.5644,41.4914,M,M,M,10.00,11.00,M,30.11,M,10.00,M,CLR,M,M,M,M,M,M,M,M,KAAT 010105Z AUTO 01011KT 10SM CLR A3011 RMK MADISHF
AAT,2017-04-01 01:10,-120.5644,41.4914,M,M,M,10.00,11.00,M,30.11,M,10.00,M,CLR,M,M,M,M,M,M,M,M,KAAT 010110Z AUTO 01011KT 10SM CLR A3011 RMK MADISHF
AAT,2017-04-01 01:15,-120.5644,41.4914,M,M,M,360.00,10.00,M,30.11,M,10.00,M,CLR,M,M,M,M,M,M,M,M,KAAT 010115Z AUTO 36010KT 10SM CLR A3011 RMK MADISHF
AAT,2017-04-01 01:20,-120.5644,41.4914,M,M,M,360.00,9.00,M,30.11,M,10.00,M,CLR,M,M,M,M,M,M,M,M,KAAT 010120Z AUTO 36009KT 10SM CLR A3011 RMK MADISHF
AAT,2017-04-01 01:25,-120.5644,41.4914,M,M,M,360.00,8.00,M,30.11,M,10.00,M,CLR,M,M,M,M,M,M,M,M,KAAT 010125Z AUTO 36008KT 10SM CLR A3011 RMK MADISHF
AAT,2017-04-01 01:30,-120.5644,41.4914,M,M,M,360.00,11.00,M,30.12,M,10.00,M,CLR,M,M,M,M,M,M,M,M,KAAT 010130Z AUTO 36011KT 10SM CLR A3012 RMK MADISHF
AAT,2017-04-01 01:35,-120.5644,41.4914,M,M,M,350.00,9.00,M,30.12,M,10.00,M,CLR,M,M,M,M,M,M,M,M,KAAT 010135Z AUTO 35009KT 10SM CLR A3012 RMK MADISHF
AAT,2017-04-01 01:40,-120.5644,41.4914,M,M,M,350.00,7.00,M,30.13,M,10.00,M,CLR,M,M,M,M,M,M,M,M,KAAT 010140Z AUTO 35007KT 10SM CLR A3013 RMK MADISHF
AAT,2017-04-01 01:45,-120.5644,41.4914,M,M,M,350.00,8.00,M,30.13,M,10.00,M,CLR,M,M,M,M,M,M,M,M,KAAT 010145Z AUTO 35008KT 10SM CLR A3013 RMK MADISHF
AAT,2017-04-01 01:50,-120.5644,41.4914,M,M,M,350.00,10.00,M,30.14,M,10.00,M,CLR,M,M,M,M,M,M,M,M,KAAT 010150Z AUTO 35010KT 10SM CLR A3014 RMK MADISHF
AAT,2017-04-01 01:55,-120.5644,41.4914,51.10,26.10,37.57,350.00,10.00,0.00,30.14,1020.60,10.00,M,CLR,M,M,M,M,M,M,M,M,KAAT 010155Z AUTO 35010KT 10SM CLR 11/M03 A3014 RMK AO2 SLP206 T01061033 TSNO
AAT,2017-04-01 02:00,-120.5644,41.4914,M,M,M,350.00,10.00,M,30.14,M,10.00,M,CLR,M,M,M,M,M,M,M,M,KAAT 010200Z AUTO 35010KT 10SM CLR A3014 RMK MADISHF
AAT,2017-04-01 02:05,-120.5644,41.4914,M,M,M,350.00,11.00,M,30.14,M,10.00,M,CLR,M,M,M,M,M,M,M,M,KAAT 010205Z AUTO 35011KT 10SM CLR A3014 RMK MADISHF
AAT,2017-04-01 02:10,-120.5644,41.4914,M,M,M,360.00,12.00,M,30.14,M,10.00,M,CLR,M,M,M,M,M,M,M,M,KAAT 010210Z AUTO 36012KT 10SM CLR A3014 RMK MADISHF
AAT,2017-04-01 02:15,-120.5644,41.4914,M,M,M,360.00,8.00,M,30.15,M,10.00,M,CLR,M,M,M,M,M,M,M,M,KAAT 010215Z AUTO 36008KT 10SM CLR A3015 RMK MADISHF
AAT,2017-04-01 02:20,-120.5644,41.4914,M,M,M,360.00,9.00,M,30.15,M,10.00,M,CLR,M,M,M,M,M,M,M,M,KAAT 010220Z AUTO 36009KT 10SM CLR A3015 RMK MADISHF
AAT,2017-04-01 02:25,-120.5644,41.4914,M,M,M,360.00,8.00,M,30.15,M,10.00,M,CLR,M,M,M,M,M,M,M,M,KAAT 010225Z AUTO 36008KT 10SM CLR A3015 RMK MADISHF
AAT,2017-04-01 02:30,-120.5644,41.4914,M,M,M,360.00,7.00,M,30.16,M,10.00,M,CLR,M,M,M,M,M,M,M,M,KAAT 010230Z AUTO 36007KT 10SM CLR A3016 RMK MADISHF
AAT,2017-04-01 02:35,-120.5644,41.4914,M,M,M,10.00,5.00,M,30.16,M,10.00,M,CLR,M,M,M,M,M,M,M,M,KAAT 010235Z AUTO 01005KT 10SM CLR A3016 RMK MADISHF
AAT,2017-04-01 02:40,-120.5644,41.4914,M,M,M,30.00,4.00,M,30.16,M,10.00,M,CLR,M,M,M,M,M,M,M,M,KAAT 010240Z AUTO 03004KT 10SM CLR A3016 RMK MADISHF
AAT,2017-04-01 02:45,-120.5644,41.4914,M,M,M,30.00,4.00,M,30.16,M,10.00,M,CLR,M,M,M,M,M,M,M,M,KAAT 010245Z AUTO 03004KT 10SM CLR A3016 RMK MADISHF
AAT,2017-04-01 02:50,-120.5644,41.4914,M,M,M,30.00,4.00,M,30.16,M,10.00,M,CLR,M,M,M,M,M,M,M,M,KAAT 010250Z AUTO 03004KT 10SM CLR A3016 RMK MADISHF
AAT,2017-04-01 02:55,-120.5644,41.4914,46.90,27.00,45.62,20.00,4.00,0.00,30.16,1021.50,10.00,M,CLR,M,M,M,M,M,M,M,M,KAAT 010255Z AUTO 02004KT 10SM CLR 08/M03 A3016 RMK AO2 SLP215 T00831028 53008 TSNO
AAT,2017-04-01 03:00,-120.5644,41.4914,M,M,M,20.00,4.00,M,30.16,M,10.00,M,CLR,M,M,M,M,M,M,M,M,KAAT 010300Z AUTO 02004KT 10SM CLR A3016 RMK MADISHF
AAT,2017-04-01 03:05,-120.5644,41.4914,M,M,M,30.00,4.00,M,30.16,M,10.00,M,CLR,M,M,M,M,M,M,M,M,KAAT 010305Z AUTO 03004KT 10SM CLR A3016 RMK MADISHF
AAT,2017-04-01 03:10,-120.5644,41.4914,M,M,M,30.00,5.00,M,30.16,M,10.00,M,CLR,M,M,M,M,M,M,M,M,KAAT 010310Z AUTO 03005KT 10SM CLR A3016 RMK MADISHF
AAT,2017-04-01 03:15,-120.5644,41.4914,M,M,M,40.00,4.00,M,30.16,M,10.00,M,CLR,M,M,M,M,M,M,M,M,KAAT 010315Z AUTO 04004KT 10SM CLR A3016 RMK MADISHF
AAT,2017-04-01 03:20,-120.5644,41.4914,M,M,M,40.00,4.00,M,30.16,M,10.00,M,CLR,M,M,M,M,M,M,M,M,KAAT 010320Z AUTO 04004KT 10SM CLR A3016 RMK MADISHF
AAT,2017-04-01 03:25,-120.5644,41.4914,M,M,M,80.00,4.00,M,30.17,M,10.00,M,CLR,M,M,M,M,M,M,M,M,KAAT 010325Z AUTO 08004KT 10SM CLR A3017 RMK MADISHF
AAT,2017-04-01 03:30,-120.5644,41.4914,M,M,M,70.00,4.00,M,30.17,M,10.00,M,CLR,M,M,M,M,M,M,M,M,KAAT 010330Z AUTO 07004KT 10SM CLR A3017 RMK MADISHF
AAT,2017-04-01 03:35,-120.5644,41.4914,M,M,M,70.00,4.00,M,30.17,M,10.00,M,CLR,M,M,M,M,M,M,M,M,KAAT 010335Z AUTO 07004KT 10SM CLR A3017 RMK MADISHF
AAT,2017-04-01 03:40,-120.5644,41.4914,M,M,M,70.00,3.00,M,30.17,M,10.00,M,CLR,M,M,M,M,M,M,M,M,KAAT 010340Z AUTO 07003KT 10SM CLR A3017 RMK MADISHF
AAT,2017-04-01 03:45,-120.5644,41.4914,M,M,M,0.00,0.00,M,30.17,M,10.00,M,CLR,M,M,M,M,M,M,M,M,KAAT 010345Z AUTO 00000KT 10SM CLR A3017 RMK MADISHF
AAT,2017-04-01 03:50,-120.5644,41.4914,M,M,M,0.00,0.00,M,30.17,M,10.00,M,CLR,M,M,M,M,M,M,M,M,KAAT 010350Z AUTO 00000KT 10SM CLR A3017 RMK MADISHF
AAT,2017-04-01 03:55,-120.5644,41.4914,39.90,28.00,62.15,310.00,4.00,0.00,30.17,1022.20,10.00,M,CLR,M,M,M,M,M,M,M,M,KAAT 010355Z AUTO 31004KT 10SM CLR 04/M02 A3017 RMK AO2 SLP222 T00441022 TSNO
AAT,2017-04-01 04:00,-120.5644,41.4914,M,M,M,340.00,3.00,M,30.17,M,10.00,M,CLR,M,M,M,M,M,M,M,M,KAAT 010400Z AUTO 34003KT 10SM CLR A3017 RMK MADISHF
AAT,2017-04-01 04:05,-120.5644,41.4914,M,M,M,0.00,0.00,M,30.18,M,10.00,M,CLR,M,M,M,M,M,M,M,M,KAAT 010405Z AUTO 00000KT 10SM CLR A3018 RMK MADISHF
AAT,2017-04-01 04:10,-120.5644,41.4914,M,M,M,350.00,3.00,M,30.18,M,10.00,M,CLR,M,M,M,M,M,M,M,M,KAAT 010410Z AUTO 35003KT 10SM CLR A3018 RMK MADISHF
AAT,2017-04-01 04:15,-120.5644,41.4914,M,M,M,0.00,0.00,M,30.18,M,10.00,M,CLR,M,M,M,M,M,M,M,M,KAAT 010415Z AUTO 00000KT 10SM CLR A3018 RMK MADISHF
AAT,2017-04-01 04:20,-120.5644,41.4914,M,M,M,0.00,0.00,M,30.18,M,10.00,M,CLR,M,M,M,M,M,M,M,M,KAAT 010420Z AUTO 00000KT 10SM CLR A3018 RMK MADISHF
AAT,2017-04-01 04:25,-120.5644,41.4914,M,M,M,0.00,0.00,M,30.18,M,9.00,M,CLR,M,M,M,M,M,M,M,M,KAAT 010425Z AUTO 00000KT 9SM CLR A3018 RMK MADISHF
AAT,2017-04-01 04:30,-120.5644,41.4914,M,M,M,0.00,0.00,M,30.19,M,9.00,M,CLR,M,M,M,M,M,M,M,M,KAAT 010430Z AUTO 00000KT 9SM CLR A3019 RMK MADISHF
AAT,2017-04-01 04:35,-120.5644,41.4914,M,M,M,0.00,0.00,M,30.19,M,10.00,M,CLR,M,M,M,M,M,M,M,M,KAAT 010435Z AUTO 00000KT 10SM CLR A3019 RMK MADISHF
AAT,2017-04-01 04:40,-120.5644,41.4914,M,M,M,340.00,3.00,M,30.19,M,10.00,M,CLR,M,M,M,M,M,M,M,M,KAAT 010440Z AUTO 34003KT 10SM CLR A3019 RMK MADISHF
AAT,2017-04-01 04:45,-120.5644,41.4914,M,M,M,330.00,4.00,M,30.19,M,10.00,M,CLR,M,M,M,M,M,M,M,M,KAAT 010445Z AUTO 33004KT 10SM CLR A3019 RMK MADISHF
AAT,2017-04-01 04:50,-120.5644,41.4914,M,M,M,340.00,7.00,M,30.19,M,10.00,M,CLR,M,M,M,M,M,M,M,M,KAAT 010450Z AUTO 34007KT 10SM CLR A3019 RMK MADISHF
AAT,2017-04-01 04:55,-120.5644,41.4914,39.00,28.90,66.79,360.00,4.00,0.00,30.19,1022.80,10.00,M,CLR,M,M,M,M,M,M,M,M,KAAT 010455Z AUTO 36004KT 10SM CLR 04/M02 A3019 RMK AO2 SLP228 T00391017 TSNO
AAT,2017-04-01 05:00,-120.5644,41.4914,M,M,M,0.00,0.00,M,30.19,M,10.00,M,CLR,M,M,M,M,M,M,M,M,KAAT 010500Z AUTO 00000KT 10SM CLR A3019 RMK MADISHF
AAT,2017-04-01 05:05,-120.5644,41.4914,M,M,M,200.00,5.00,M,30.20,M,10.00,M,CLR,M,M,M,M,M,M,M,M,KAAT 010505Z AUTO 20005KT 10SM CLR A3020 RMK MADISHF
AAT,2017-04-01 05:10,-120.5644,41.4914,M,M,M,220.00,3.00,M,30.20,M,10.00,M,CLR,M,M,M,M,M,M,M,M,KAAT 010510Z AUTO 22003KT 10SM CLR A3020 RMK MADISHF
AAT,2017-04-01 05:15,-120.5644,41.4914,M,M,M,0.00,0.00,M,30.20,M,10.00,M,CLR,M,M,M,M,M,M,M,M,KAAT 010515Z AUTO 00000KT 10SM CLR A3020 RMK MADISHF
AAT,2017-04-01 05:20,-120.5644,41.4914,M,M,M,0.00,0.00,M,30.20,M,10.00,M,CLR,M,M,M,M,M,M,M,M,KAAT 010520Z AUTO 00000KT 10SM CLR A3020 RMK MADISHF
AAT,2017-04-01 05:25,-120.5644,41.4914,M,M,M,0.00,0.00,M,30.20,M,10.00,M,CLR,M,M,M,M,M,M,M,M,KAAT 010525Z AUTO 00000KT 10SM CLR A3020 RMK MADISHF
AAT,2017-04-01 05:30,-120.5644,41.4914,M,M,M,320.00,3.00,M,30.20,M,10.00,M,CLR,M,M,M,M,M,M,M,M,KAAT 010530Z AUTO 32003KT 10SM CLR A3020 RMK MADISHF
AAT,2017-04-01 05:35,-120.5644,41.4914,M,M,M,310.00,5.00,M,30.20,M,10.00,M,CLR,M,M,M,M,M,M,M,M,KAAT 010535Z AUTO 31005KT 10SM CLR A3020 RMK MADISHF
AAT,2017-04-01 05:40,-120.5644,41.4914,M,M,M,330.00,5.00,M,30.21,M,10.00,M,CLR,M,M,M,M,M,M,M,M,KAAT 010540Z AUTO 33005KT 10SM CLR A3021 RMK MADISHF
AAT,2017-04-01 05:45,-120.5644,41.4914,M,M,M,350.00,4.00,M,30.21,M,10.00,M,CLR,M,M,M,M,M,M,M,M,KAAT 010545Z AUTO 35004KT 10SM CLR A3021 RMK MADISHF
AAT,2017-04-01 06:10,-120.5644,41.4914,M,M,M,30.00,5.00,M,30.21,M,10.00,M,CLR,M,M,M,M,M,M,M,M,KAAT 010610Z AUTO 03005KT 10SM CLR A3021 RMK MADISHF
AAT,2017-04-01 06:15,-120.5644,41.4914,M,M,M,0.00,0.00,M,30.21,M,10.00,M,CLR,M,M,M,M,M,M,M,M,KAAT 010615Z AUTO 00000KT 10SM CLR A3021 RMK MADISHF
AAT,2017-04-01 06:20,-120.5644,41.4914,M,M,M,170.00,5.00,M,30.21,M,10.00,M,CLR,M,M,M,M,M,M,M,M,KAAT 010620Z AUTO 17005KT 10SM CLR A3021 RMK MADISHF
AAT,2017-04-01 06:25,-120.5644,41.4914,M,M,M,160.00,3.00,M,30.21,M,10.00,M,CLR,M,M,M,M,M,M,M,M,KAAT 010625Z AUTO 16003KT 10SM CLR A3021 RMK VRB03KT  MADISHF
AAT,2017-04-01 06:30,-120.5644,41.4914,M,M,M,140.00,3.00,M,30.22,M,10.00,M,CLR,M,M,M,M,M,M,M,M,KAAT 010630Z AUTO 14003KT 10SM CLR A3022 RMK VRB03KT  MADISHF
AAT,2017-04-01 06:35,-120.5644,41.4914,M,M,M,350.00,3.00,M,30.22,M,10.00,M,CLR,M,M,M,M,M,M,M,M,KAAT 010635Z AUTO 35003KT 10SM CLR A3022 RMK MADISHF
AAT,2017-04-01 06:40,-120.5644,41.4914,M,M,M,330.00,3.00,M,30.21,M,10.00,M,CLR,M,M,M,M,M,M,M,M,KAAT 010640Z AUTO 33003KT 10SM CLR A3021 RMK MADISHF
AAT,2017-04-01 06:45,-120.5644,41.4914,M,M,M,0.00,0.00,M,30.21,M,10.00,M,CLR,M,M,M,M,M,M,M,M,KAAT 010645Z AUTO 00000KT 10SM CLR A3021 RMK MADISHF
AAT,2017-04-01 06:50,-120.5644,41.4914,M,M,M,130.00,4.00,M,30.21,M,10.00,M,CLR,M,M,M,M,M,M,M,M,KAAT 010650Z AUTO 13004KT 10SM CLR A3021 RMK MADISHF
AAT,2017-04-01 06:55,-120.5644,41.4914,36.00,28.00,72.43,130.00,6.00,0.00,30.21,1023.40,10.00,M,CLR,M,M,M,M,M,M,M,M,KAAT 010655Z AUTO 13006KT 10SM CLR 02/M02 A3021 RMK AO2 SLP234 T00221022 TSNO
AAT,2017-04-01 07:00,-120.5644,41.4914,M,M,M,130.00,5.00,M,30.21,M,10.00,M,CLR,M,M,M,M,M,M,M,M,KAAT 010700Z AUTO 13005KT 10SM CLR A3021 RMK MADISHF
AAT,2017-04-01 07:05,-120.5644,41.4914,M,M,M,100.00,4.00,M,30.21,M,10.00,M,CLR,M,M,M,M,M,M,M,M,KAAT 010705Z AUTO 10004KT 10SM CLR A3021 RMK MADISHF
AAT,2017-04-01 07:10,-120.5644,41.4914,M,M,M,80.00,4.00,M,30.22,M,10.00,M,CLR,M,M,M,M,M,M,M,M,KAAT 010710Z AUTO 08004KT 10SM CLR A3022 RMK VRB04KT  MADISHF
AAT,2017-04-01 07:15,-120.5644,41.4914,M,M,M,80.00,4.00,M,30.21,M,10.00,M,CLR,M,M,M,M,M,M,M,M,KAAT 010715Z AUTO 08004KT 10SM CLR A3021 RMK MADISHF
AAT,2017-04-01 07:20,-120.5644,41.4914,M,M,M,90.00,5.00,M,M,M,10.00,M,CLR,M,M,M,M,M,M,M,M,KAAT 010720Z AUTO 09005KT 10SM CLR RMK MADISHF
AAT,2017-04-01 07:25,-120.5644,41.4914,M,M,M,80.00,4.00,M,M,M,10.00,M,CLR,M,M,M,M,M,M,M,M,KAAT 010725Z AUTO 08004KT 10SM CLR RMK MADISHF
AAT,2017-04-01 07:30,-120.5644,41.4914,M,M,M,80.00,5.00,M,30.22,M,10.00,M,CLR,M,M,M,M,M,M,M,M,KAAT 010730Z AUTO 08005KT 10SM CLR A3022 RMK MADISHF
AAT,2017-04-01 07:35,-120.5644,41.4914,M,M,M,100.00,4.00,M,M,M,10.00,M,CLR,M,M,M,M,M,M,M,M,KAAT 010735Z AUTO 10004KT 10SM CLR RMK MADISHF
AAT,2017-04-01 07:40,-120.5644,41.4914,M,M,M,210.00,3.00,M,M,M,10.00,M,CLR,M,M,M,M,M,M,M,M,KAAT 010740Z AUTO 21003KT 10SM CLR RMK MADISHF
AAT,2017-04-01 07:45,-120.5644,41.4914,M,M,M,190.00,3.00,M,M,M,10.00,M,CLR,M,M,M,M,M,M,M,M,KAAT 010745Z AUTO 19003KT 10SM CLR RMK MADISHF
AAT,2017-04-01 07:50,-120.5644,41.4914,M,M,M,0.00,0.00,M,30.22,M,10.00,M,CLR,M,M,M,M,M,M,M,M,KAAT 010750Z AUTO 00000KT 10SM CLR A3022 RMK MADISHF
AAT,2017-04-01 07:55,-120.5644,41.4914,30.00,26.10,85.21,0.00,0.00,0.00,30.22,1023.80,10.00,M,CLR,M,M,M,M,M,M,M,M,KAAT 010755Z AUTO 00000KT 10SM CLR M01/M03 A3022 RMK AO2 SLP238 T10111033 401171011 TSNO
AAT,2017-04-01 08:00,-120.5644,41.4914,M,M,M,0.00,0.00,M,30.22,M,10.00,M,CLR,M,M,M,M,M,M,M,M,KAAT 010800Z AUTO 00000KT 10SM CLR A3022 RMK MADISHF
AAT,2017-04-01 08:05,-120.5644,41.4914,M,M,M,0.00,0.00,M,30.22,M,10.00,M,CLR,M,M,M,M,M,M,M,M,KAAT 010805Z AUTO 00000KT 10SM CLR A3022 RMK MADISHF
AAT,2017-04-01 08:10,-120.5644,41.4914,M,M,M,0.00,0.00,M,30.22,M,10.00,M,CLR,M,M,M,M,M,M,M,M,KAAT 010810Z AUTO 00000KT 10SM CLR A3022 RMK MADISHF
AAT,2017-04-01 08:15,-120.5644,41.4914,M,M,M,0.00,0.00,M,30.22,M,10.00,M,CLR,M,M,M,M,M,M,M,M,KAAT 010815Z AUTO 00000KT 10SM CLR A3022 RMK MADISHF
AAT,2017-04-01 08:20,-120.5644,41.4914,M,M,M,0.00,0.00,M,30.22,M,10.00,M,CLR,M,M,M,M,M,M,M,M,KAAT 010820Z AUTO 00000KT 10SM CLR A3022 RMK MADISHF
AAT,2017-04-01 08:25,-120.5644,41.4914,M,M,M,0.00,0.00,M,30.22,M,10.00,M,CLR,M,M,M,M,M,M,M,M,KAAT 010825Z AUTO 00000KT 10SM CLR A3022 RMK MADISHF
AAT,2017-04-01 08:30,-120.5644,41.4914,M,M,M,0.00,0.00,M,30.22,M,10.00,M,CLR,M,M,M,M,M,M,M,M,KAAT 010830Z AUTO 00000KT 10SM CLR A3022 RMK MADISHF
AAT,2017-04-01 08:35,-120.5644,41.4914,M,M,M,160.00,3.00,M,30.22,M,10.00,M,CLR,M,M,M,M,M,M,M,M,KAAT 010835Z AUTO 16003KT 10SM CLR A3022 RMK MADISHF
AAT,2017-04-01 08:40,-120.5644,41.4914,M,M,M,120.00,4.00,M,30.22,M,10.00,M,CLR,M,M,M,M,M,M,M,M,KAAT 010840Z AUTO 12004KT 10SM CLR A3022 RMK MADISHF
AAT,2017-04-01 08:45,-120.5644,41.4914,M,M,M,0.00,0.00,M,30.22,M,10.00,M,CLR,M,M,M,M,M,M,M,M,KAAT 010845Z AUTO 00000KT 10SM CLR A3022 RMK MADISHF
AAT,2017-04-01 08:50,-120.5644,41.4914,M,M,M,70.00,3.00,M,30.22,M,10.00,M,CLR,M,M,M,M,M,M,M,M,KAAT 010850Z AUTO 07003KT 10SM CLR A3022 RMK MADISHF
AAT,2017-04-01 08:55,-120.5644,41.4914,34.00,28.00,78.43,60.00,3.00,0.00,30.22,1023.30,10.00,M,CLR,M,M,M,M,M,M,M,M,KAAT 010855Z AUTO 06003KT 10SM CLR 01/M02 A3022 RMK AO2 SLP233 T00111022 50003 TSNO
AAT,2017-04-01 09:00,-120.5644,41.4914,M,M,M,110.00,5.00,M,30.22,M,10.00,M,CLR,M,M,M,M,M,M,M,M,KAAT 010900Z AUTO 11005KT 10SM CLR A3022 RMK MADISHF
AAT,2017-04-01 09:05,-120.5644,41.4914,M,M,M,0.00,0.00,M,30.21,M,10.00,M,CLR,M,M,M,M,M,M,M,M,KAAT 010905Z AUTO 00000KT 10SM CLR A3021 RMK MADISHF
AAT,2017-04-01 09:10,-120.5644,41.4914,M,M,M,80.00,3.00,M,30.21,M,10.00,M,CLR,M,M,M,M,M,M,M,M,KAAT 010910Z AUTO 08003KT 10SM CLR A3021 RMK MADISHF
AAT,2017-04-01 09:15,-120.5644,41.4914,M,M,M,60.00,3.00,M,30.21,M,10.00,M,CLR,M,M,M,M,M,M,M,M,KAAT 010915Z AUTO 06003KT 10SM CLR A3021 RMK MADISHF
AAT,2017-04-01 09:20,-120.5644,41.4914,M,M,M,80.00,4.00,M,30.21,M,10.00,M,CLR,M,M,M,M,M,M,M,M,KAAT 010920Z AUTO 08004KT 10SM CLR A3021 RMK MADISHF
AAT,2017-04-01 09:30,-120.5644,41.4914,M,M,M,210.00,4.00,M,30.21,M,10.00,M,CLR,M,M,M,M,M,M,M,M,KAAT 010930Z AUTO 21004KT 10SM CLR A3021 RMK MADISHF
AAT,2017-04-01 09:35,-120.5644,41.4914,M,M,M,220.00,4.00,M,30.21,M,10.00,M,CLR,M,M,M,M,M,M,M,M,KAAT 010935Z AUTO 22004KT 10SM CLR A3021 RMK MADISHF
AAT,2017-04-01 09:40,-120.5644,41.4914,M,M,M,180.00,4.00,M,30.21,M,10.00,M,CLR,M,M,M,M,M,M,M,M,KAAT 010940Z AUTO 18004KT 10SM CLR A3021 RMK VRB04KT  MADISHF
AAT,2017-04-01 09:45,-120.5644,41.4914,M,M,M,180.00,4.00,M,30.21,M,10.00,M,CLR,M,M,M,M,M,M,M,M,KAAT 010945Z AUTO 18004KT 10SM CLR A3021 RMK MADISHF
AAT,2017-04-01 09:50,-120.5644,41.4914,M,M,M,0.00,0.00,M,30.21,M,10.00,M,CLR,M,M,M,M,M,M,M,M,KAAT 010950Z AUTO 00000KT 10SM CLR A3021 RMK MADISHF
AAT,2017-04-01 09:55,-120.5644,41.4914,30.90,27.00,85.26,0.00,0.00,0.00,30.21,1023.20,10.00,M,CLR,M,M,M,M,M,M,M,M,KAAT 010955Z AUTO 00000KT 10SM CLR M01/M03 A3021 RMK AO2 SLP232 T10061028 TSNO
AAT,2017-04-01 10:00,-120.5644,41.4914,M,M,M,160.00,3.00,M,30.21,M,10.00,M,CLR,M,M,M,M,M,M,M,M,KAAT 011000Z AUTO 16003KT 10SM CLR A3021 RMK MADISHF
AAT,2017-04-01 10:05,-120.5644,41.4914,M,M,M,0.00,0.00,M,30.21,M,10.00,M,CLR,M,M,M,M,M,M,M,M,KAAT 011005Z AUTO 00000KT 10SM CLR A3021 RMK MADISHF
AAT,2017-04-01 10:10,-120.5644,41.4914,M,M,M,0.00,0.00,M,30.21,M,10.00,M,CLR,M,M,M,M,M,M,M,M,KAAT 011010Z AUTO 00000KT 10SM CLR A3021 RMK MADISHF
AAT,2017-04-01 10:15,-120.5644,41.4914,M,M,M,110.00,3.00,M,30.21,M,10.00,M,CLR,M,M,M,M,M,M,M,M,KAAT 011015Z AUTO 11003KT 10SM CLR A3021 RMK MADISHF
AAT,2017-04-01 10:20,-120.5644,41.4914,M,M,M,110.00,3.00,M,30.21,M,8.00,M,CLR,M,M,M,M,M,M,M,M,KAAT 011020Z AUTO 11003KT 8SM CLR A3021 RMK MADISHF
AAT,2017-04-01 10:25,-120.5644,41.4914,M,M,M,90.00,3.00,M,30.21,M,9.00,M,CLR,M,M,M,M,M,M,M,M,KAAT 011025Z AUTO 09003KT 9SM CLR A3021 RMK MADISHF
AAT,2017-04-01 10:30,-120.5644,41.4914,M,M,M,60.00,3.00,M,30.21,M,10.00,M,CLR,M,M,M,M,M,M,M,M,KAAT 011030Z AUTO 06003KT 10SM CLR A3021 RMK MADISHF
AAT,2017-04-01 10:35,-120.5644,41.4914,M,M,M,70.00,3.00,M,30.22,M,10.00,M,CLR,M,M,M,M,M,M,M,M,KAAT 011035Z AUTO 07003KT 10SM CLR A3022 RMK MADISHF
AAT,2017-04-01 10:40,-120.5644,41.4914,M,M,M,80.00,3.00,M,30.22,M,10.00,M,CLR,M,M,M,M,M,M,M,M,KAAT 011040Z AUTO 08003KT 10SM CLR A3022 RMK MADISHF
AAT,2017-04-01 10:45,-120.5644,41.4914,M,M,M,0.00,0.00,M,30.22,M,10.00,M,CLR,M,M,M,M,M,M,M,M,KAAT 011045Z AUTO 00000KT 10SM CLR A3022 RMK MADISHF
AAT,2017-04-01 10:50,-120.5644,41.4914,M,M,M,0.00,0.00,M,30.22,M,10.00,M,CLR,M,M,M,M,M,M,M,M,KAAT 011050Z AUTO 00000KT 10SM CLR A3022 RMK MADISHF
AAT,2017-04-01 10:55,-120.5644,41.4914,28.90,26.10,89.12,0.00,0.00,0.00,30.22,1023.60,10.00,M,CLR,M,M,M,M,M,M,M,M,KAAT 011055Z AUTO 00000KT 10SM CLR M02/M03 A3022 RMK AO2 SLP236 T10171033 TSNO
AAT,2017-04-01 11:00,-120.5644,41.4914,M,M,M,0.00,0.00,M,30.22,M,10.00,M,CLR,M,M,M,M,M,M,M,M,KAAT 011100Z AUTO 00000KT 10SM CLR A3022 RMK MADISHF
AAT,2017-04-01 11:05,-120.5644,41.4914,M,M,M,0.00,0.00,M,30.22,M,10.00,M,CLR,M,M,M,M,M,M,M,M,KAAT 011105Z AUTO 00000KT 10SM CLR A3022 RMK MADISHF
AAT,2017-04-01 11:10,-120.5644,41.4914,M,M,M,0.00,0.00,M,30.22,M,10.00,M,CLR,M,M,M,M,M,M,M,M,KAAT 011110Z AUTO 00000KT 10SM CLR A3022 RMK MADISHF
AAT,2017-04-01 11:15,-120.5644,41.4914,M,M,M,0.00,0.00,M,30.22,M,10.00,M,CLR,M,M,M,M,M,M,M,M,KAAT 011115Z AUTO 00000KT 10SM CLR A3022 RMK MADISHF
AAT,2017-04-01 11:20,-120.5644,41.4914,M,M,M,130.00,3.00,M,30.22,M,10.00,M,CLR,M,M,M,M,M,M,M,M,KAAT 011120Z AUTO 13003KT 10SM CLR A3022 RMK MADISHF
AAT,2017-04-01 11:25,-120.5644,41.4914,M,M,M,100.00,3.00,M,30.22,M,10.00,M,CLR,M,M,M,M,M,M,M,M,KAAT 011125Z AUTO 10003KT 10SM CLR A3022 RMK MADISHF
AAT,2017-04-01 11:30,-120.5644,41.4914,M,M,M,0.00,0.00,M,30.22,M,10.00,M,CLR,M,M,M,M,M,M,M,M,KAAT 011130Z AUTO 00000KT 10SM CLR A3022 RMK MADISHF
AAT,2017-04-01 11:35,-120.5644,41.4914,M,M,M,0.00,0.00,M,30.22,M,10.00,M,CLR,M,M,M,M,M,M,M,M,KAAT 011135Z AUTO 00000KT 10SM CLR A3022 RMK MADISHF
AAT,2017-04-01 11:40,-120.5644,41.4914,M,M,M,0.00,0.00,M,30.22,M,10.00,M,CLR,M,M,M,M,M,M,M,M,KAAT 011140Z AUTO 00000KT 10SM CLR A3022 RMK MADISHF
AAT,2017-04-01 11:45,-120.5644,41.4914,M,M,M,0.00,0.00,M,30.22,M,10.00,M,CLR,M,M,M,M,M,M,M,M,KAAT 011145Z AUTO 00000KT 10SM CLR A3022 RMK MADISHF
AAT,2017-04-01 11:50,-120.5644,41.4914,M,M,M,0.00,0.00,M,30.22,M,10.00,M,CLR,M,M,M,M,M,M,M,M,KAAT 011150Z AUTO 00000KT 10SM CLR A3022 RMK MADISHF
AAT,2017-04-01 11:55,-120.5644,41.4914,28.00,25.00,88.33,120.00,4.00,0.00,30.22,1023.40,10.00,M,CLR,M,M,M,M,M,M,M,M,KAAT 011155Z AUTO 12004KT 10SM CLR M02/M04 A3022 RMK AO2 SLP234 T10221039 10050 21022 56000 TSNO
AAT,2017-04-01 12:00,-120.5644,41.4914,M,M,M,130.00,3.00,M,30.21,M,10.00,M,CLR,M,M,M,M,M,M,M,M,KAAT 011200Z AUTO 13003KT 10SM CLR A3021 RMK MADISHF
AAT,2017-04-01 12:05,-120.5644,41.4914,M,M,M,0.00,0.00,M,30.21,M,10.00,M,CLR,M,M,M,M,M,M,M,M,KAAT 011205Z AUTO 00000KT 10SM CLR A3021 RMK MADISHF
AAT,2017-04-01 12:10,-120.5644,41.4914,M,M,M,0.00,0.00,M,30.21,M,10.00,M,CLR,M,M,M,M,M,M,M,M,KAAT 011210Z AUTO 00000KT 10SM CLR A3021 RMK MADISHF
AAT,2017-04-01 12:15,-120.5644,41.4914,M,M,M,0.00,0.00,M,30.22,M,10.00,M,CLR,M,M,M,M,M,M,M,M,KAAT 011215Z AUTO 00000KT 10SM CLR A3022 RMK MADISHF
AAT,2017-04-01 12:20,-120.5644,41.4914,M,M,M,0.00,0.00,M,30.22,M,10.00,M,CLR,M,M,M,M,M,M,M,M,KAAT 011220Z AUTO 00000KT 10SM CLR A3022 RMK MADISHF
AAT,2017-04-01 12:25,-120.5644,41.4914,M,M,M,0.00,0.00,M,30.22,M,10.00,M,CLR,M,M,M,M,M,M,M,M,KAAT 011225Z AUTO 00000KT 10SM CLR A3022 RMK MADISHF
AAT,2017-04-01 12:30,-120.5644,41.4914,M,M,M,0.00,0.00,M,30.22,M,10.00,M,CLR,M,M,M,M,M,M,M,M,KAAT 011230Z AUTO 00000KT 10SM CLR A3022 RMK MADISHF
AAT,2017-04-01 12:35,-120.5644,41.4914,M,M,M,0.00,0.00,M,30.21,M,10.00,M,CLR,M,M,M,M,M,M,M,M,KAAT 011235Z AUTO 00000KT 10SM CLR A3021 RMK MADISHF
AAT,2017-04-01 12:40,-120.5644,41.4914,M,M,M,0.00,0.00,M,30.21,M,10.00,M,CLR,M,M,M,M,M,M,M,M,KAAT 011240Z AUTO 00000KT 10SM CLR A3021 RMK MADISHF
AAT,2017-04-01 12:45,-120.5644,41.4914,M,M,M,0.00,0.00,M,30.22,M,10.00,M,CLR,M,M,M,M,M,M,M,M,KAAT 011245Z AUTO 00000KT 10SM CLR A3022 RMK MADISHF
AAT,2017-04-01 12:50,-120.5644,41.4914,M,M,M,0.00,0.00,M,30.22,M,10.00,M,CLR,M,M,M,M,M,M,M,M,KAAT 011250Z AUTO 00000KT 10SM CLR A3022 RMK MADISHF
AAT,2017-04-01 12:55,-120.5644,41.4914,28.00,26.10,92.46,0.00,0.00,0.00,30.22,1023.50,10.00,M,CLR,M,M,M,M,M,M,M,M,KAAT 011255Z AUTO 00000KT 10SM CLR M02/M03 A3022 RMK AO2 SLP235 T10221033 TSNO
AAT,2017-04-01 13:00,-120.5644,41.4914,M,M,M,0.00,0.00,M,30.22,M,10.00,M,CLR,M,M,M,M,M,M,M,M,KAAT 011300Z AUTO 00000KT 10SM CLR A3022 RMK MADISHF
AAT,2017-04-01 13:05,-120.5644,41.4914,M,M,M,0.00,0.00,M,30.22,M,10.00,M,CLR,M,M,M,M,M,M,M,M,KAAT 011305Z AUTO 00000KT 10SM CLR A3022 RMK MADISHF
AAT,2017-04-01 13:10,-120.5644,41.4914,M,M,M,0.00,0.00,M,30.22,M,10.00,M,CLR,M,M,M,M,M,M,M,M,KAAT 011310Z AUTO 00000KT 10SM CLR A3022 RMK MADISHF
AAT,2017-04-01 13:15,-120.5644,41.4914,M,M,M,0.00,0.00,M,30.22,M,10.00,M,CLR,M,M,M,M,M,M,M,M,KAAT 011315Z AUTO 00000KT 10SM CLR A3022 RMK MADISHF
AAT,2017-04-01 13:20,-120.5644,41.4914,M,M,M,0.00,0.00,M,30.23,M,10.00,M,CLR,M,M,M,M,M,M,M,M,KAAT 011320Z AUTO 00000KT 10SM CLR A3023 RMK MADISHF
AAT,2017-04-01 13:25,-120.5644,41.4914,M,M,M,0.00,0.00,M,30.23,M,10.00,M,CLR,M,M,M,M,M,M,M,M,KAAT 011325Z AUTO 00000KT 10SM CLR A3023 RMK MADISHF
AAT,2017-04-01 13:30,-120.5644,41.4914,M,M,M,0.00,0.00,M,30.23,M,10.00,M,CLR,M,M,M,M,M,M,M,M,KAAT 011330Z AUTO 00000KT 10SM CLR A3023 RMK MADISHF
AAT,2017-04-01 13:35,-120.5644,41.4914,M,M,M,0.00,0.00,M,30.24,M,10.00,M,CLR,M,M,M,M,M,M,M,M,KAAT 011335Z AUTO 00000KT 10SM CLR A3024 RMK MADISHF
AAT,2017-04-01 13:40,-120.5644,41.4914,M,M,M,0.00,0.00,M,M,M,10.00,M,CLR,M,M,M,M,M,M,M,M,KAAT 011340Z AUTO 00000KT 10SM CLR RMK MADISHF
AAT,2017-04-01 13:45,-120.5644,41.4914,M,M,M,0.00,0.00,M,M,M,9.00,M,CLR,M,M,M,M,M,M,M,M,KAAT 011345Z AUTO 00000KT 9SM CLR RMK MADISHF
AAT,2017-04-01 13:50,-120.5644,41.4914,M,M,M,0.00,0.00,M,30.24,M,6.00,M,CLR,M,M,M,M,M,M,M,BR,KAAT 011350Z AUTO 00000KT 6SM BR CLR A3024 RMK MADISHF
AAT,2017-04-01 13:55,-120.5644,41.4914,27.00,25.00,92.05,0.00,0.00,0.00,30.24,1024.60,6.00,M,CLR,M,M,M,M,M,M,M,BR,KAAT 011355Z AUTO 00000KT 6SM BR CLR M03/M04 A3024 RMK AO2 SLP246 T10281039 TSNO
AAT,2017-04-01 14:00,-120.5644,41.4914,M,M,M,0.00,0.00,M,30.24,M,10.00,M,CLR,M,M,M,M,M,M,M,M,KAAT 011400Z AUTO 00000KT 10SM CLR A3024 RMK MADISHF
AAT,2017-04-01 14:05,-120.5644,41.4914,M,M,M,80.00,5.00,M,30.24,M,7.00,M,CLR,M,M,M,M,M,M,M,M,KAAT 011405Z AUTO 08005KT 7SM CLR A3024 RMK MADISHF
AAT,2017-04-01 14:10,-120.5644,41.4914,M,M,M,90.00,5.00,M,30.24,M,6.00,M,CLR,M,M,M,M,M,M,M,BR,KAAT 011410Z AUTO 09005KT 6SM BR CLR A3024 RMK MADISHF
AAT,2017-04-01 14:15,-120.5644,41.4914,M,M,M,90.00,6.00,M,30.24,M,8.00,M,CLR,M,M,M,M,M,M,M,M,KAAT 011415Z AUTO 09006KT 8SM CLR A3024 RMK MADISHF
AAT,2017-04-01 14:20,-120.5644,41.4914,M,M,M,100.00,4.00,M,30.24,M,9.00,M,CLR,M,M,M,M,M,M,M,M,KAAT 011420Z AUTO 10004KT 9SM CLR A3024 RMK MADISHF
AAT,2017-04-01 14:25,-120.5644,41.4914,M,M,M,100.00,4.00,M,30.24,M,10.00,M,CLR,M,M,M,M,M,M,M,M,KAAT 011425Z AUTO 10004KT 10SM CLR A3024 RMK MADISHF
AAT,2017-04-01 14:30,-120.5644,41.4914,M,M,M,100.00,3.00,M,30.24,M,10.00,M,CLR,M,M,M,M,M,M,M,M,KAAT 011430Z AUTO 10003KT 10SM CLR A3024 RMK MADISHF
AAT,2017-04-01 14:35,-120.5644,41.4914,M,M,M,0.00,0.00,M,30.24,M,10.00,M,CLR,M,M,M,M,M,M,M,M,KAAT 011435Z AUTO 00000KT 10SM CLR A3024 RMK MADISHF
AAT,2017-04-01 14:40,-120.5644,41.4914,M,M,M,0.00,0.00,M,30.24,M,10.00,M,CLR,M,M,M,M,M,M,M,M,KAAT 011440Z AUTO 00000KT 10SM CLR A3024 RMK MADISHF
AAT,2017-04-01 14:45,-120.5644,41.4914,M,M,M,0.00,0.00,M,30.24,M,10.00,M,CLR,M,M,M,M,M,M,M,M,KAAT 011445Z AUTO 00000KT 10SM CLR A3024 RMK MADISHF
AAT,2017-04-01 14:50,-120.5644,41.4914,M,M,M,0.00,0.00,M,30.25,M,10.00,M,CLR,M,M,M,M,M,M,M,M,KAAT 011450Z AUTO 00000KT 10SM CLR A3025 RMK MADISHF
AAT,2017-04-01 14:55,-120.5644,41.4914,32.00,28.00,84.98,290.00,4.00,0.00,30.25,1024.70,10.00,M,CLR,M,M,M,M,M,M,M,M,KAAT 011455Z AUTO 29004KT 10SM CLR 00/M02 A3025 RMK AO2 SLP247 T00001022 53010 TSNO
AAT,2017-04-01 15:00,-120.5644,41.4914,M,M,M,290.00,3.00,M,30.25,M,10.00,M,CLR,M,M,M,M,M,M,M,M,KAAT 011500Z AUTO 29003KT 10SM CLR A3025 RMK MADISHF
AAT,2017-04-01 15:05,-120.5644,41.4914,M,M,M,280.00,3.00,M,30.25,M,10.00,M,CLR,M,M,M,M,M,M,M,M,KAAT 011505Z AUTO 28003KT 10SM CLR A3025 RMK MADISHF
AAT,2017-04-01 15:10,-120.5644,41.4914,M,M,M,0.00,0.00,M,30.24,M,10.00,M,CLR,M,M,M,M,M,M,M,M,KAAT 011510Z AUTO 00000KT 10SM CLR A3024 RMK MADISHF
AAT,2017-04-01 15:15,-120.5644,41.4914,M,M,M,0.00,0.00,M,30.24,M,10.00,M,CLR,M,M,M,M,M,M,M,M,KAAT 011515Z AUTO 00000KT 10SM CLR A3024 RMK MADISHF
AAT,2017-04-01 15:20,-120.5644,41.4914,M,M,M,0.00,0.00,M,30.24,M,10.00,M,CLR,M,M,M,M,M,M,M,M,KAAT 011520Z AUTO 00000KT 10SM CLR A3024 RMK MADISHF
AAT,2017-04-01 15:25,-120.5644,41.4914,M,M,M,0.00,0.00,M,30.25,M,10.00,M,CLR,M,M,M,M,M,M,M,M,KAAT 011525Z AUTO 00000KT 10SM CLR A3025 RMK MADISHF
AAT,2017-04-01 15:30,-120.5644,41.4914,M,M,M,0.00,0.00,M,30.25,M,10.00,M,CLR,M,M,M,M,M,M,M,M,KAAT 011530Z AUTO 00000KT 10SM CLR A3025 RMK MADISHF
AAT,2017-04-01 15:35,-120.5644,41.4914,M,M,M,0.00,0.00,M,30.25,M,10.00,M,CLR,M,M,M,M,M,M,M,M,KAAT 011535Z AUTO 00000KT 10SM CLR A3025 RMK MADISHF
AAT,2017-04-01 15:40,-120.5644,41.4914,M,M,M,0.00,0.00,M,30.25,M,10.00,M,CLR,M,M,M,M,M,M,M,M,KAAT 011540Z AUTO 00000KT 10SM CLR A3025 RMK MADISHF
AAT,2017-04-01 15:45,-120.5644,41.4914,M,M,M,0.00,0.00,M,30.25,M,10.00,M,CLR,M,M,M,M,M,M,M,M,KAAT 011545Z AUTO 00000KT 10SM CLR A3025 RMK MADISHF
AAT,2017-04-01 15:50,-120.5644,41.4914,M,M,M,0.00,0.00,M,30.25,M,10.00,M,CLR,M,M,M,M,M,M,M,M,KAAT 011550Z AUTO 00000KT 10SM CLR A3025 RMK MADISHF
AAT,2017-04-01 15:55,-120.5644,41.4914,37.90,30.00,72.93,0.00,0.00,0.00,30.25,1024.70,10.00,M,CLR,M,M,M,M,M,M,M,M,KAAT 011555Z AUTO 00000KT 10SM CLR 03/M01 A3025 RMK AO2 SLP247 T00331011 TSNO
AAT,2017-04-01 16:00,-120.5644,41.4914,M,M,M,0.00,0.00,M,30.25,M,10.00,M,CLR,M,M,M,M,M,M,M,M,KAAT 011600Z AUTO 00000KT 10SM CLR A3025 RMK MADISHF
AAT,2017-04-01 16:05,-120.5644,41.4914,M,M,M,0.00,0.00,M,30.25,M,10.00,M,CLR,M,M,M,M,M,M,M,M,KAAT 011605Z AUTO 00000KT 10SM CLR A3025 RMK MADISHF
AAT,2017-04-01 16:10,-120.5644,41.4914,M,M,M,0.00,0.00,M,30.25,M,10.00,M,CLR,M,M,M,M,M,M,M,M,KAAT 011610Z AUTO 00000KT 10SM CLR A3025 RMK MADISHF
AAT,2017-04-01 16:15,-120.5644,41.4914,M,M,M,0.00,0.00,M,30.25,M,10.00,M,CLR,M,M,M,M,M,M,M,M,KAAT 011615Z AUTO 00000KT 10SM CLR A3025 RMK MADISHF
AAT,2017-04-01 16:20,-120.5644,41.4914,M,M,M,0.00,0.00,M,30.24,M,10.00,M,CLR,M,M,M,M,M,M,M,M,KAAT 011620Z AUTO 00000KT 10SM CLR A3024 RMK MADISHF
AAT,2017-04-01 16:25,-120.5644,41.4914,M,M,M,120.00,5.00,M,30.23,M,10.00,M,CLR,M,M,M,M,M,M,M,M,KAAT 011625Z AUTO 12005KT 10SM CLR A3023 RMK MADISHF
AAT,2017-04-01 16:30,-120.5644,41.4914,M,M,M,110.00,4.00,M,30.23,M,10.00,M,CLR,M,M,M,M,M,M,M,M,KAAT 011630Z AUTO 11004KT 10SM CLR A3023 RMK VRB04KT  MADISHF
AAT,2017-04-01 16:35,-120.5644,41.4914,M,M,M,160.00,5.00,M,30.23,M,10.00,M,CLR,M,M,M,M,M,M,M,M,KAAT 011635Z AUTO 16005KT 10SM CLR A3023 RMK MADISHF
AAT,2017-04-01 16:40,-120.5644,41.4914,M,M,M,130.00,4.00,M,30.23,M,10.00,M,CLR,M,M,M,M,M,M,M,M,KAAT 011640Z AUTO 13004KT 10SM CLR A3023 RMK VRB04KT  MADISHF
AAT,2017-04-01 16:45,-120.5644,41.4914,M,M,M,140.00,3.00,M,30.23,M,10.00,M,CLR,M,M,M,M,M,M,M,M,KAAT 011645Z AUTO 14003KT 10SM CLR A3023 RMK VRB03KT  MADISHF
AAT,2017-04-01 16:50,-120.5644,41.4914,M,M,M,0.00,0.00,M,30.23,M,10.00,M,CLR,M,M,M,M,M,M,M,M,KAAT 011650Z AUTO 00000KT 10SM CLR A3023 RMK MADISHF
AAT,2017-04-01 16:55,-120.5644,41.4914,44.10,32.00,62.21,0.00,0.00,0.00,30.23,1023.80,10.00,M,CLR,M,M,M,M,M,M,M,M,KAAT 011655Z AUTO 00000KT 10SM CLR 07/00 A3023 RMK AO2 SLP238 T00670000 TSNO
AAT,2017-04-01 17:00,-120.5644,41.4914,M,M,M,0.00,0.00,M,30.23,M,10.00,M,CLR,M,M,M,M,M,M,M,M,KAAT 011700Z AUTO 00000KT 10SM CLR A3023 RMK MADISHF
AAT,2017-04-01 17:05,-120.5644,41.4914,M,M,M,160.00,3.00,M,30.23,M,10.00,M,CLR,M,M,M,M,M,M,M,M,KAAT 011705Z AUTO 16003KT 10SM CLR A3023 RMK MADISHF
AAT,2017-04-01 17:10,-120.5644,41.4914,M,M,M,0.00,0.00,M,30.23,M,10.00,M,CLR,M,M,M,M,M,M,M,M,KAAT 011710Z AUTO 00000KT 10SM CLR A3023 RMK MADISHF
AAT,2017-04-01 17:15,-120.5644,41.4914,M,M,M,0.00,0.00,M,30.23,M,10.00,M,CLR,M,M,M,M,M,M,M,M,KAAT 011715Z AUTO 00000KT 10SM CLR A3023 RMK MADISHF
AAT,2017-04-01 17:20,-120.5644,41.4914,M,M,M,300.00,3.00,M,30.24,M,10.00,M,CLR,M,M,M,M,M,M,M,M,KAAT 011720Z AUTO 30003KT 10SM CLR A3024 RMK VRB03KT  MADISHF
AAT,2017-04-01 17:25,-120.5644,41.4914,M,M,M,0.00,0.00,M,30.24,M,10.00,M,CLR,M,M,M,M,M,M,M,M,KAAT 011725Z AUTO 00000KT 10SM CLR A3024 RMK MADISHF
AAT,2017-04-01 17:30,-120.5644,41.4914,M,M,M,340.00,3.00,M,30.24,M,10.00,M,CLR,M,M,M,M,M,M,M,M,KAAT 011730Z AUTO 34003KT 10SM CLR A3024 RMK VRB03KT  MADISHF
AAT,2017-04-01 17:35,-120.5644,41.4914,M,M,M,310.00,3.00,M,30.24,M,10.00,M,CLR,M,M,M,M,M,M,M,M,KAAT 011735Z AUTO 31003KT 10SM CLR A3024 RMK VRB03KT  MADISHF
AAT,2017-04-01 17:40,-120.5644,41.4914,M,M,M,330.00,3.00,M,30.24,M,10.00,M,CLR,M,M,M,M,M,M,M,M,KAAT 011740Z AUTO 33003KT 10SM CLR A3024 RMK MADISHF
AAT,2017-04-01 17:45,-120.5644,41.4914,M,M,M,300.00,3.00,M,30.24,M,10.00,M,CLR,M,M,M,M,M,M,M,M,KAAT 011745Z AUTO 30003KT 10SM CLR A3024 RMK VRB03KT  MADISHF
AAT,2017-04-01 17:50,-120.5644,41.4914,M,M,M,0.00,0.00,M,30.24,M,10.00,M,CLR,M,M,M,M,M,M,M,M,KAAT 011750Z AUTO 00000KT 10SM CLR A3024 RMK MADISHF
AAT,2017-04-01 17:55,-120.5644,41.4914,48.90,30.00,47.85,0.00,0.00,0.00,30.23,1023.80,10.00,M,CLR,M,M,M,M,M,M,M,M,KAAT 011755Z AUTO 00000KT 10SM CLR 09/M01 A3023 RMK AO2 SLP238 T00941011 10094 21033 55005 TSNO
AAT,2017-04-01 18:00,-120.5644,41.4914,M,M,M,0.00,0.00,M,30.23,M,10.00,M,CLR,M,M,M,M,M,M,M,M,KAAT 011800Z AUTO 00000KT 10SM CLR A3023 RMK MADISHF
AAT,2017-04-01 18:05,-120.5644,41.4914,M,M,M,360.00,3.00,M,30.23,M,10.00,M,CLR,M,M,M,M,M,M,M,M,KAAT 011805Z AUTO 36003KT 10SM CLR A3023 RMK VRB03KT  MADISHF
AAT,2017-04-01 18:10,-120.5644,41.4914,M,M,M,0.00,0.00,M,30.23,M,10.00,M,CLR,M,M,M,M,M,M,M,M,KAAT 011810Z AUTO 00000KT 10SM CLR A3023 RMK MADISHF
AAT,2017-04-01 18:15,-120.5644,41.4914,M,M,M,0.00,0.00,M,30.22,M,10.00,M,CLR,M,M,M,M,M,M,M,M,KAAT 011815Z AUTO 00000KT 10SM CLR A3022 RMK MADISHF
AAT,2017-04-01 18:20,-120.5644,41.4914,M,M,M,360.00,4.00,M,30.22,M,10.00,M,CLR,M,M,M,M,M,M,M,M,KAAT 011820Z AUTO 36004KT 10SM CLR A3022 RMK MADISHF
AAT,2017-04-01 18:25,-120.5644,41.4914,M,M,M,340.00,5.00,M,30.22,M,10.00,M,CLR,M,M,M,M,M,M,M,M,KAAT 011825Z AUTO 34005KT 10SM CLR A3022 RMK VRB05KT  MADISHF
AAT,2017-04-01 18:30,-120.5644,41.4914,M,M,M,70.00,4.00,M,30.22,M,10.00,M,CLR,M,M,M,M,M,M,M,M,KAAT 011830Z AUTO 07004KT 10SM CLR A3022 RMK MADISHF
AAT,2017-04-01 18:35,-120.5644,41.4914,M,M,M,M,M,M,30.22,M,10.00,M,CLR,M,M,M,M,M,M,M,M,KAAT 011835Z AUTO /////KT 10SM CLR A3022 RMK MADISHF
AAT,2017-04-01 18:40,-120.5644,41.4914,M,M,M,30.00,6.00,M,30.21,M,10.00,M,CLR,M,M,M,M,M,M,M,M,KAAT 011840Z AUTO 03006KT 10SM CLR A3021 RMK MADISHF
AAT,2017-04-01 18:45,-120.5644,41.4914,M,M,M,M,M,M,30.21,M,10.00,M,CLR,M,M,M,M,M,M,M,M,KAAT 011845Z AUTO /////KT 10SM CLR A3021 RMK MADISHF
AAT,2017-04-01 18:50,-120.5644,41.4914,M,M,M,40.00,6.00,M,30.21,M,10.00,M,CLR,M,M,M,M,M,M,M,M,KAAT 011850Z AUTO 04006KT 10SM CLR A3021 RMK MADISHF
AAT,2017-04-01 18:55,-120.5644,41.4914,55.90,23.00,27.69,50.00,5.00,0.00,30.21,1022.20,10.00,M,CLR,M,M,M,M,M,M,M,M,KAAT 011855Z AUTO 05005KT 10SM CLR 13/M05 A3021 RMK AO2 SLP222 T01331050 TSNO
AAT,2017-04-01 19:00,-120.5644,41.4914,M,M,M,70.00,3.00,M,30.21,M,10.00,M,CLR,M,M,M,M,M,M,M,M,KAAT 011900Z AUTO 07003KT 10SM CLR A3021 RMK VRB03KT  MADISHF
AAT,2017-04-01 19:05,-120.5644,41.4914,M,M,M,320.00,4.00,M,30.21,M,10.00,M,CLR,M,M,M,M,M,M,M,M,KAAT 011905Z AUTO 32004KT 10SM CLR A3021 RMK VRB04KT  MADISHF
AAT,2017-04-01 19:10,-120.5644,41.4914,M,M,M,40.00,5.00,M,30.21,M,10.00,M,CLR,M,M,M,M,M,M,M,M,KAAT 011910Z AUTO 04005KT 10SM CLR A3021 RMK VRB05KT  MADISHF
AAT,2017-04-01 19:15,-120.5644,41.4914,M,M,M,360.00,4.00,M,30.21,M,10.00,M,CLR,M,M,M,M,M,M,M,M,KAAT 011915Z AUTO 36004KT 10SM CLR A3021 RMK MADISHF
AAT,2017-04-01 19:20,-120.5644,41.4914,M,M,M,350.00,4.00,M,30.21,M,10.00,M,CLR,M,M,M,M,M,M,M,M,KAAT 011920Z AUTO 35004KT 10SM CLR A3021 RMK VRB04KT  MADISHF
AAT,2017-04-01 19:25,-120.5644,41.4914,M,M,M,340.00,6.00,M,30.20,M,10.00,M,CLR,M,M,M,M,M,M,M,M,KAAT 011925Z AUTO 34006KT 10SM CLR A3020 RMK VRB06KT  MADISHF
AAT,2017-04-01 19:30,-120.5644,41.4914,M,M,M,0.00,0.00,M,30.20,M,10.00,M,CLR,M,M,M,M,M,M,M,M,KAAT 011930Z AUTO 00000KT 10SM CLR A3020 RMK MADISHF
AAT,2017-04-01 19:35,-120.5644,41.4914,M,M,M,30.00,3.00,M,30.20,M,10.00,M,CLR,M,M,M,M,M,M,M,M,KAAT 011935Z AUTO 03003KT 10SM CLR A3020 RMK VRB03KT  MADISHF
AAT,2017-04-01 19:40,-120.5644,41.4914,M,M,M,60.00,3.00,M,30.19,M,10.00,M,CLR,M,M,M,M,M,M,M,M,KAAT 011940Z AUTO 06003KT 10SM CLR A3019 RMK VRB03KT  MADISHF
AAT,2017-04-01 19:45,-120.5644,41.4914,M,M,M,0.00,0.00,M,30.19,M,10.00,M,CLR,M,M,M,M,M,M,M,M,KAAT 011945Z AUTO 00000KT 10SM CLR A3019 RMK MADISHF
AAT,2017-04-01 19:50,-120.5644,41.4914,M,M,M,0.00,0.00,M,30.19,M,10.00,M,CLR,M,M,M,M,M,M,M,M,KAAT 011950Z AUTO 00000KT 10SM CLR A3019 RMK MADISHF
AAT,2017-04-01 19:55,-120.5644,41.4914,60.10,30.00,31.80,0.00,0.00,0.00,30.19,1021.70,10.00,M,CLR,M,M,M,M,M,M,M,M,KAAT 011955Z AUTO 00000KT 10SM CLR 16/M01 A3019 RMK AO2 SLP217 T01561011 TSNO
AAT,2017-04-01 20:00,-120.5644,41.4914,M,M,M,340.00,3.00,M,30.19,M,10.00,M,CLR,M,M,M,M,M,M,M,M,KAAT 012000Z AUTO 34003KT 10SM CLR A3019 RMK VRB03KT  MADISHF
AAT,2017-04-01 20:05,-120.5644,41.4914,M,M,M,220.00,4.00,M,30.19,M,10.00,M,CLR,M,M,M,M,M,M,M,M,KAAT 012005Z AUTO 22004KT 10SM CLR A3019 RMK VRB04KT  MADISHF
AAT,2017-04-01 20:10,-120.5644,41.4914,M,M,M,310.00,3.00,M,30.18,M,10.00,M,CLR,M,M,M,M,M,M,M,M,KAAT 012010Z AUTO 31003KT 10SM CLR A3018 RMK VRB03KT  MADISHF
AAT,2017-04-01 20:15,-120.5644,41.4914,M,M,M,280.00,4.00,M,30.18,M,10.00,M,CLR,M,M,M,M,M,M,M,M,KAAT 012015Z AUTO 28004KT 10SM CLR A3018 RMK VRB04KT  MADISHF
AAT,2017-04-01 20:20,-120.5644,41.4914,M,M,M,0.00,0.00,M,30.18,M,10.00,M,CLR,M,M,M,M,M,M,M,M,KAAT 012020Z AUTO 00000KT 10SM CLR A3018 RMK MADISHF
AAT,2017-04-01 20:25,-120.5644,41.4914,M,M,M,270.00,4.00,M,30.18,M,10.00,M,CLR,M,M,M,M,M,M,M,M,KAAT 012025Z AUTO 27004KT 10SM CLR A3018 RMK VRB04KT  MADISHF
AAT,2017-04-01 20:30,-120.5644,41.4914,M,M,M,350.00,6.00,M,30.18,M,10.00,M,CLR,M,M,M,M,M,M,M,M,KAAT 012030Z AUTO 35006KT 10SM CLR A3018 RMK MADISHF
AAT,2017-04-01 20:35,-120.5644,41.4914,M,M,M,M,M,M,30.18,M,10.00,M,CLR,M,M,M,M,M,M,M,M,KAAT 012035Z AUTO /////KT 10SM CLR A3018 RMK MADISHF
AAT,2017-04-01 20:40,-120.5644,41.4914,M,M,M,330.00,7.00,M,30.18,M,10.00,M,CLR,M,M,M,M,M,M,M,M,KAAT 012040Z AUTO 33007KT 10SM CLR A3018 RMK MADISHF
AAT,2017-04-01 20:45,-120.5644,41.4914,M,M,M,320.00,3.00,M,30.18,M,10.00,M,CLR,M,M,M,M,M,M,M,M,KAAT 012045Z AUTO 32003KT 10SM CLR A3018 RMK VRB03KT  MADISHF
AAT,2017-04-01 20:50,-120.5644,41.4914,M,M,M,250.00,5.00,M,30.18,M,10.00,M,CLR,M,M,M,M,M,M,M,M,KAAT 012050Z AUTO 25005KT 10SM CLR A3018 RMK MADISHF
AAT,2017-04-01 20:55,-120.5644,41.4914,63.00,34.00,33.72,280.00,6.00,0.00,30.18,1020.70,10.00,M,CLR,M,M,M,M,M,M,M,M,KAAT 012055Z AUTO 28006KT 10SM CLR 17/01 A3018 RMK AO2 SLP207 T01720011 56016 TSNO
AAT,2017-04-01 21:00,-120.5644,41.4914,M,M,M,20.00,5.00,M,30.18,M,10.00,M,CLR,M,M,M,M,M,M,M,M,KAAT 012100Z AUTO 02005KT 10SM CLR A3018 RMK VRB05KT  MADISHF
AAT,2017-04-01 21:05,-120.5644,41.4914,M,M,M,30.00,4.00,M,30.17,M,10.00,M,CLR,M,M,M,M,M,M,M,M,KAAT 012105Z AUTO 03004KT 10SM CLR A3017 RMK VRB04KT  MADISHF
AAT,2017-04-01 21:10,-120.5644,41.4914,M,M,M,240.00,3.00,M,30.17,M,10.00,M,CLR,M,M,M,M,M,M,M,M,KAAT 012110Z AUTO 24003KT 10SM CLR A3017 RMK VRB03KT  MADISHF
AAT,2017-04-01 21:15,-120.5644,41.4914,M,M,M,40.00,5.00,M,30.17,M,10.00,M,CLR,M,M,M,M,M,M,M,M,KAAT 012115Z AUTO 04005KT 10SM CLR A3017 RMK VRB05KT  MADISHF
AAT,2017-04-01 21:20,-120.5644,41.4914,M,M,M,0.00,0.00,M,30.17,M,10.00,M,CLR,M,M,M,M,M,M,M,M,KAAT 012120Z AUTO 00000KT 10SM CLR A3017 RMK MADISHF
AAT,2017-04-01 21:25,-120.5644,41.4914,M,M,M,0.00,0.00,M,30.17,M,10.00,M,CLR,M,M,M,M,M,M,M,M,KAAT 012125Z AUTO 00000KT 10SM CLR A3017 RMK MADISHF
AAT,2017-04-01 21:30,-120.5644,41.4914,M,M,M,M,M,M,30.16,M,10.00,M,CLR,M,M,M,M,M,M,M,M,KAAT 012130Z AUTO /////KT 10SM CLR A3016 RMK MADISHF
AAT,2017-04-01 21:35,-120.5644,41.4914,M,M,M,280.00,4.00,M,30.16,M,10.00,M,CLR,M,M,M,M,M,M,M,M,KAAT 012135Z AUTO 28004KT 10SM CLR A3016 RMK VRB04KT  MADISHF
AAT,2017-04-01 21:40,-120.5644,41.4914,M,M,M,310.00,5.00,M,30.16,M,10.00,M,CLR,M,M,M,M,M,M,M,M,KAAT 012140Z AUTO 31005KT 10SM CLR A3016 RMK VRB05KT  MADISHF
AAT,2017-04-01 21:45,-120.5644,41.4914,M,M,M,200.00,3.00,M,30.15,M,10.00,M,CLR,M,M,M,M,M,M,M,M,KAAT 012145Z AUTO 20003KT 10SM CLR A3015 RMK MADISHF
AAT,2017-04-01 21:50,-120.5644,41.4914,M,M,M,260.00,3.00,M,30.15,M,10.00,M,CLR,M,M,M,M,M,M,M,M,KAAT 012150Z AUTO 26003KT 10SM CLR A3015 RMK VRB03KT  MADISHF
AAT,2017-04-01 21:55,-120.5644,41.4914,64.00,37.00,36.68,0.00,0.00,0.00,30.15,1019.90,10.00,M,CLR,M,M,M,M,M,M,M,M,KAAT 012155Z AUTO 00000KT 10SM CLR 18/03 A3015 RMK AO2 SLP199 T01780028 TSNO
AAT,2017-04-01 22:00,-120.5644,41.4914,M,M,M,290.00,3.00,M,30.15,M,10.00,M,CLR,M,M,M,M,M,M,M,M,KAAT 012200Z AUTO 29003KT 10SM CLR A3015 RMK VRB03KT  MADISHF
AAT,2017-04-01 22:05,-120.5644,41.4914,M,M,M,0.00,0.00,M,30.14,M,10.00,M,CLR,M,M,M,M,M,M,M,M,KAAT 012205Z AUTO 00000KT 10SM CLR A3014 RMK MADISHF
AAT,2017-04-01 22:10,-120.5644,41.4914,M,M,M,260.00,3.00,M,30.14,M,10.00,M,CLR,M,M,M,M,M,M,M,M,KAAT 012210Z AUTO 26003KT 10SM CLR A3014 RMK VRB03KT  MADISHF
AAT,2017-04-01 22:15,-120.5644,41.4914,M,M,M,0.00,0.00,M,30.14,M,10.00,M,CLR,M,M,M,M,M,M,M,M,KAAT 012215Z AUTO 00000KT 10SM CLR A3014 RMK MADISHF
AAT,2017-04-01 22:20,-120.5644,41.4914,M,M,M,240.00,5.00,M,30.14,M,10.00,M,CLR,M,M,M,M,M,M,M,M,KAAT 012220Z AUTO 24005KT 10SM CLR A3014 RMK VRB05KT  MADISHF
AAT,2017-04-01 22:25,-120.5644,41.4914,M,M,M,320.00,3.00,M,30.14,M,10.00,M,CLR,M,M,M,M,M,M,M,M,KAAT 012225Z AUTO 32003KT 10SM CLR A3014 RMK VRB03KT  MADISHF
AAT,2017-04-01 22:30,-120.5644,41.4914,M,M,M,340.00,3.00,M,30.14,M,10.00,M,CLR,M,M,M,M,M,M,M,M,KAAT 012230Z AUTO 34003KT 10SM CLR A3014 RMK VRB03KT  MADISHF
AAT,2017-04-01 22:35,-120.5644,41.4914,M,M,M,320.00,6.00,M,30.14,M,10.00,M,CLR,M,M,M,M,M,M,M,M,KAAT 012235Z AUTO 32006KT 10SM CLR A3014 RMK MADISHF
AAT,2017-04-01 22:40,-120.5644,41.4914,M,M,M,0.00,0.00,M,30.13,M,10.00,M,FEW,M,M,M,6000.00,M,M,M,M,KAAT 012240Z AUTO 00000KT 10SM FEW060 A3013 RMK MADISHF
AAT,2017-04-01 22:45,-120.5644,41.4914,M,M,M,340.00,3.00,M,30.13,M,10.00,M,FEW,M,M,M,6000.00,M,M,M,M,KAAT 012245Z AUTO 34003KT 10SM FEW060 A3013 RMK VRB03KT  MADISHF
AAT,2017-04-01 22:50,-120.5644,41.4914,M,M,M,360.00,6.00,M,30.13,M,10.00,M,FEW,M,M,M,6000.00,M,M,M,M,KAAT 012250Z AUTO 36006KT 10SM FEW060 A3013 RMK MADISHF
AAT,2017-04-01 22:55,-120.5644,41.4914,66.00,37.00,34.21,M,3.00,0.00,30.12,1019.00,10.00,M,FEW,M,M,M,6000.00,M,M,M,M,KAAT 012255Z AUTO VRB03KT 10SM FEW060 19/03 A3012 RMK AO2 SLP190 T01890028 TSNO
AAT,2017-04-01 23:00,-120.5644,41.4914,M,M,M,10.00,4.00,M,30.12,M,10.00,M,FEW,M,M,M,6000.00,M,M,M,M,KAAT 012300Z AUTO 01004KT 10SM FEW060 A3012 RMK MADISHF
AAT,2017-04-01 23:05,-120.5644,41.4914,M,M,M,0.00,0.00,M,30.12,M,10.00,M,FEW,M,M,M,6000.00,M,M,M,M,KAAT 012305Z AUTO 00000KT 10SM FEW060 A3012 RMK MADISHF
AAT,2017-04-01 23:10,-120.5644,41.4914,M,M,M,300.00,5.00,M,30.12,M,10.00,M,CLR,M,M,M,M,M,M,M,M,KAAT 012310Z AUTO 30005KT 10SM CLR A3012 RMK MADISHF
AAT,2017-04-01 23:15,-120.5644,41.4914,M,M,M,20.00,5.00,M,30.12,M,10.00,M,CLR,M,M,M,M,M,M,M,M,KAAT 012315Z AUTO 02005KT 10SM CLR A3012 RMK MADISHF
AAT,2017-04-01 23:20,-120.5644,41.4914,M,M,M,40.00,3.00,M,30.12,M,10.00,M,CLR,M,M,M,M,M,M,M,M,KAAT 012320Z AUTO 04003KT 10SM CLR A3012 RMK MADISHF
AAT,2017-04-01 23:25,-120.5644,41.4914,M,M,M,300.00,3.00,M,30.12,M,10.00,M,CLR,M,M,M,M,M,M,M,M,KAAT 012325Z AUTO 30003KT 10SM CLR A3012 RMK VRB03KT  MADISHF
AAT,2017-04-01 23:30,-120.5644,41.4914,M,M,M,0.00,0.00,M,30.12,M,10.00,M,CLR,M,M,M,M,M,M,M,M,KAAT 012330Z AUTO 00000KT 10SM CLR A3012 RMK MADISHF
AAT,2017-04-01 23:35,-120.5644,41.4914,M,M,M,0.00,0.00,M,30.12,M,10.00,M,CLR,M,M,M,M,M,M,M,M,KAAT 012335Z AUTO 00000KT 10SM CLR A3012 RMK MADISHF
AAT,2017-04-01 23:40,-120.5644,41.4914,M,M,M,60.00,5.00,M,30.12,M,10.00,M,CLR,M,M,M,M,M,M,M,M,KAAT 012340Z AUTO 06005KT 10SM CLR A3012 RMK MADISHF
AAT,2017-04-01 23:45,-120.5644,41.4914,M,M,M,0.00,0.00,M,30.11,M,10.00,M,CLR,M,M,M,M,M,M,M,M,KAAT 012345Z AUTO 00000KT 10SM CLR A3011 RMK MADISHF
AAT,2017-04-01 23:50,-120.5644,41.4914,M,M,M,130.00,4.00,M,30.11,M,10.00,M,CLR,M,M,M,M,M,M,M,M,KAAT 012350Z AUTO 13004KT 10SM CLR A3011 RMK VRB04KT  MADISHF
AAT,2017-04-01 23:55,-120.5644,41.4914,64.90,36.00,34.17,M,3.00,0.00,30.11,1018.70,10.00,M,CLR,M,M,M,M,M,M,M,M,KAAT 012355Z AUTO VRB03KT 10SM CLR 18/02 A3011 RMK AO2 SLP187 T01830022 10194 20089 56021 TSNO
