#DEBUG: Format Typ    -> comma
#DEBUG: Time Period   -> 2017-04-01 00:00:00+00:00 2017-04-02 00:00:00+00:00
#DEBUG: Time Zone     -> Etc/UTC
#DEBUG: Data Contact   -> daryl herzmann akrherz@iastate.edu 515-294-5978
#DEBUG: Entries Found -> -1
station,valid,lon,lat,tmpf, dwpf, relh, drct, sknt, p01i, alti, mslp, vsby, gust, skyc1, skyc2, skyc3, skyc4, skyl1, skyl2, skyl3, skyl4, presentwx, metar
ABI,2017-04-01 00:00,-99.6819,32.4113,M,M,M,M,M,M,29.62,M,10.00,29.00,CLR,M,M,M,M,M,M,M,M,KABI 010000Z AUTO /////G29KT 10SM CLR A2962 RMK MADISHF
ABI,2017-04-01 00:05,-99.6819,32.4113,M,M,M,M,M,M,29.63,M,10.00,M,CLR,M,M,M,M,M,M,M,M,KABI 010005Z AUTO /////KT 10SM CLR A2963 RMK MADISHF
ABI,2017-04-01 00:10,-99.6819,32.4113,M,M,M,M,M,M,29.62,M,10.00,M,CLR,M,M,M,M,M,M,M,M,KABI 010010Z AUTO /////KT 10SM CLR A2962 RMK MADISHF
ABI,2017-04-01 00:15,-99.6819,32.4113,M,M,M,M,M,M,29.63,M,10.00,M,CLR,M,M,M,M,M,M,M,M,KABI 010015Z AUTO /////KT 10SM CLR A2963 RMK MADISHF
ABI,2017-04-01 00:20,-99.6819,32.4113,M,M,M,M,M,M,29.63,M,10.00,M,CLR,M,M,M,M,M,M,M,M,KABI 010020Z AUTO /////KT 10SM CLR A2963 RMK MADISHF
ABI,2017-04-01 00:25,-99.6819,32.4113,M,M,M,150.00,18.00,M,29.63,M,10.00,M,CLR,M,M,M,M,M,M,M,M,KABI 010025Z AUTO 15018KT 10SM CLR A2963 RMK MADISHF
ABI,2017-04-01 00:30,-99.6819,32.4113,M,M,M,160.00,20.00,M,29.63,M,10.00,M,CLR,M,M,M,M,M,M,M,M,KABI 010030Z AUTO 16020KT 10SM CLR A2963 RMK MADISHF
ABI,2017-04-01 00:35,-99.6819,32.4113,M,M,M,160.00,18.00,M,29.63,M,10.00,M,CLR,M,M,M,M,M,M,M,M,KABI 010035Z AUTO 16018KT 10SM CLR A2963 RMK MADISHF
ABI,2017-04-01 00:40,-99.6819,32.4113,M,M,M,150.00,18.00,M,29.63,M,10.00,M,CLR,M,M,M,M,M,M,M,M,KABI 010040Z AUTO 15018KT 10SM CLR A2963 RMK MADISHF
ABI,2017-04-01 00:45,-99.6819,32.4113,M,M,M,140.00,19.00,M,29.64,M,10.00,M,CLR,M,M,M,M,M,M,M,M,KABI 010045Z AUTO 14019KT 10SM CLR A2964 RMK MADISHF
ABI,2017-04-01 00:50,-99.6819,32.4113,M,M,M,140.00,18.00,M,29.64,M,10.00,M,CLR,M,M,M,M,M,M,M,M,KABI 010050Z AUTO 14018KT 10SM CLR A2964 RMK MADISHF
ABI,2017-04-01 00:52,-99.6819,32.4113,78.10,46.00,32.15,150.00,18.00,0.00,29.64,1001.50,10.00,M,CLR,M,M,M,M,M,M,M,M,KABI 010052Z 15018KT 10SM CLR 26/08 A2964 RMK AO2 PK WND 16033/0026 SLP015 T02560078 $
ABI,2017-04-01 00:55,-99.6819,32.4113,M,M,M,150.00,20.00,M,29.64,M,10.00,M,CLR,M,M,M,M,M,M,M,M,KABI 010055Z AUTO 15020KT 10SM CLR A2964 RMK MADISHF
ABI,2017-04-01 01:00,-99.6819,32.4113,M,M,M,150.00,17.00,M,29.64,M,10.00,M,CLR,M,M,M,M,M,M,M,M,KABI 010100Z AUTO 15017KT 10SM CLR A2964 RMK MADISHF
ABI,2017-04-01 01:05,-99.6819,32.4113,M,M,M,150.00,22.00,M,29.64,M,10.00,27.00,CLR,M,M,M,M,M,M,M,M,KABI 010105Z AUTO 15022G27KT 10SM CLR A2964 RMK MADISHF
ABI,2017-04-01 01:10,-99.6819,32.4113,M,M,M,150.00,17.00,M,29.64,M,10.00,M,CLR,M,M,M,M,M,M,M,M,KABI 010110Z AUTO 15017KT 10SM CLR A2964 RMK MADISHF
ABI,2017-04-01 01:15,-99.6819,32.4113,M,M,M,150.00,19.00,M,29.65,M,10.00,M,CLR,M,M,M,M,M,M,M,M,KABI 010115Z AUTO 15019KT 10SM CLR A2965 RMK MADISHF
ABI,2017-04-01 01:20,-99.6819,32.4113,M,M,M,150.00,18.00,M,29.65,M,10.00,M,CLR,M,M,M,M,M,M,M,M,KABI 010120Z AUTO 15018KT 10SM CLR A2965 RMK MADISHF
ABI,2017-04-01 01:25,-99.6819,32.4113,M,M,M,150.00,17.00,M,29.65,M,10.00,M,CLR,M,M,M,M,M,M,M,M,KABI 010125Z AUTO 15017KT 10SM CLR A2965 RMK MADISHF
ABI,2017-04-01 01:30,-99.6819,32.4113,M,M,M,150.00,17.00,M,29.66,M,10.00,M,CLR,M,M,M,M,M,M,M,M,KABI 010130Z AUTO 15017KT 10SM CLR A2966 RMK MADISHF
ABI,2017-04-01 01:35,-99.6819,32.4113,M,M,M,150.00,17.00,M,29.66,M,10.00,M,CLR,M,M,M,M,M,M,M,M,KABI 010135Z AUTO 15017KT 10SM CLR A2966 RMK MADISHF
ABI,2017-04-01 01:40,-99.6819,32.4113,M,M,M,150.00,16.00,M,29.66,M,10.00,M,CLR,M,M,M,M,M,M,M,M,KABI 010140Z AUTO 15016KT 10SM CLR A2966 RMK MADISHF
ABI,2017-04-01 01:45,-99.6819,32.4113,M,M,M,150.00,17.00,M,29.67,M,10.00,M,CLR,M,M,M,M,M,M,M,M,KABI 010145Z AUTO 15017KT 10SM CLR A2967 RMK MADISHF
ABI,2017-04-01 01:50,-99.6819,32.4113,M,M,M,150.00,14.00,M,29.67,M,10.00,19.00,CLR,M,M,M,M,M,M,M,M,KABI 010150Z AUTO 15014G19KT 10SM CLR A2967 RMK MADISHF
ABI,2017-04-01 01:52,-99.6819,32.4113,73.90,48.00,39.87,150.00,15.00,0.00,29.67,1002.70,10.00,25.00,CLR,M,M,M,M,M,M,M,M,KABI 010152Z 15015G25KT 10SM CLR 23/09 A2967 RMK AO2 PK WND 15028/0105 SLP027 T02330089 $
ABI,2017-04-01 01:55,-99.6819,32.4113,M,M,M,150.00,14.00,M,29.67,M,10.00,M,CLR,M,M,M,M,M,M,M,M,KABI 010155Z AUTO 15014KT 10SM CLR A2967 RMK MADISHF
ABI,2017-04-01 02:00,-99.6819,32.4113,M,M,M,140.00,17.00,M,29.67,M,10.00,M,CLR,M,M,M,M,M,M,M,M,KABI 010200Z AUTO 14017KT 10SM CLR A2967 RMK MADISHF
ABI,2017-04-01 02:05,-99.6819,32.4113,M,M,M,150.00,15.00,M,29.68,M,10.00,M,CLR,M,M,M,M,M,M,M,M,KABI 010205Z AUTO 15015KT 10SM CLR A2968 RMK MADISHF
ABI,2017-04-01 02:10,-99.6819,32.4113,M,M,M,150.00,16.00,M,29.68,M,10.00,M,CLR,M,M,M,M,M,M,M,M,KABI 010210Z AUTO 15016KT 10SM CLR A2968 RMK MADISHF
ABI,2017-04-01 02:15,-99.6819,32.4113,M,M,M,150.00,19.00,M,29.68,M,10.00,M,CLR,M,M,M,M,M,M,M,M,KABI 010215Z AUTO 15019KT 10SM CLR A2968 RMK MADISHF
ABI,2017-04-01 02:20,-99.6819,32.4113,M,M,M,140.00,19.00,M,29.68,M,10.00,M,CLR,M,M,M,M,M,M,M,M,KABI 010220Z AUTO 14019KT 10SM CLR A2968 RMK MADISHF
ABI,2017-04-01 02:25,-99.6819,32.4113,M,M,M,150.00,18.00,M,29.68,M,10.00,M,CLR,M,M,M,M,M,M,M,M,KABI 010225Z AUTO 15018KT 10SM CLR A2968 RMK MADISHF
ABI,2017-04-01 02:30,-99.6819,32.4113,M,M,M,140.00,20.00,M,29.68,M,10.00,M,CLR,M,M,M,M,M,M,M,M,KABI 010230Z AUTO 14020KT 10SM CLR A2968 RMK MADISHF
ABI,2017-04-01 02:35,-99.6819,32.4113,M,M,M,150.00,19.00,M,29.68,M,10.00,M,CLR,M,M,M,M,M,M,M,M,KABI 010235Z AUTO 15019KT 10SM CLR A2968 RMK MADISHF
ABI,2017-04-01 02:40,-99.6819,32.4113,M,M,M,150.00,20.00,M,29.68,M,10.00,M,CLR,M,M,M,M,M,M,M,M,KABI 010240Z AUTO 15020KT 10SM CLR A2968 RMK MADISHF
ABI,2017-04-01 02:45,-99.6819,32.4113,M,M,M,150.00,20.00,M,29.68,M,10.00,M,CLR,M,M,M,M,M,M,M,M,KABI 010245Z AUTO 15020KT 10SM CLR A2968 RMK MADISHF
ABI,2017-04-01 02:50,-99.6819,32.4113,M,M,M,140.00,22.00,M,29.68,M,10.00,28.00,CLR,M,M,M,M,M,M,M,M,KABI 010250Z AUTO 14022G28KT 10SM CLR A2968 RMK MADISHF
ABI,2017-04-01 02:52,-99.6819,32.4113,72.00,48.00,42.51,150.00,21.00,0.00,29.68,1002.80,10.00,28.00,CLR,M,M,M,M,M,M,M,M,KABI 010252Z 15021G28KT 10SM CLR 22/09 A2968 RMK AO2 PK WND 15029/0217 SLP028 T02220089 51018 $
ABI,2017-04-01 02:55,-99.6819,32.4113,M,M,M,150.00,22.00,M,29.68,M,10.00,M,CLR,M,M,M,M,M,M,M,M,KABI 010255Z AUTO 15022KT 10SM CLR A2968 RMK MADISHF
ABI,2017-04-01 03:00,-99.6819,32.4113,M,M,M,150.00,21.00,M,29.68,M,10.00,M,CLR,M,M,M,M,M,M,M,M,KABI 010300Z AUTO 15021KT 10SM CLR A2968 RMK MADISHF
ABI,2017-04-01 03:05,-99.6819,32.4113,M,M,M,150.00,21.00,M,29.68,M,10.00,M,CLR,M,M,M,M,M,M,M,M,KABI 010305Z AUTO 15021KT 10SM CLR A2968 RMK MADISHF
ABI,2017-04-01 03:10,-99.6819,32.4113,M,M,M,150.00,18.00,M,29.68,M,10.00,M,CLR,M,M,M,M,M,M,M,M,KABI 010310Z AUTO 15018KT 10SM CLR A2968 RMK MADISHF
ABI,2017-04-01 03:15,-99.6819,32.4113,M,M,M,150.00,19.00,M,29.68,M,10.00,M,CLR,M,M,M,M,M,M,M,M,KABI 010315Z AUTO 15019KT 10SM CLR A2968 RMK MADISHF
ABI,2017-04-01 03:20,-99.6819,32.4113,M,M,M,150.00,22.00,M,29.68,M,10.00,M,CLR,M,M,M,M,M,M,M,M,KABI 010320Z AUTO 15022KT 10SM CLR A2968 RMK MADISHF
ABI,2017-04-01 03:25,-99.6819,32.4113,M,M,M,150.00,20.00,M,29.68,M,10.00,M,CLR,M,M,M,M,M,M,M,M,KABI 010325Z AUTO 15020KT 10SM CLR A2968 RMK MADISHF
ABI,2017-04-01 03:30,-99.6819,32.4113,M,M,M,150.00,18.00,M,29.68,M,10.00,M,CLR,M,M,M,M,M,M,M,M,KABI 010330Z AUTO 15018KT 10SM CLR A2968 RMK MADISHF
ABI,2017-04-01 03:35,-99.6819,32.4113,M,M,M,150.00,19.00,M,29.68,M,10.00,M,CLR,M,M,M,M,M,M,M,M,KABI 010335Z AUTO 15019KT 10SM CLR A2968 RMK MADISHF
ABI,2017-04-01 03:40,-99.6819,32.4113,M,M,M,150.00,20.00,M,29.68,M,10.00,M,CLR,M,M,M,M,M,M,M,M,KABI 010340Z AUTO 15020KT 10SM CLR A2968 RMK MADISHF
ABI,2017-04-01 03:45,-99.6819,32.4113,M,M,M,150.00,21.00,M,29.68,M,10.00,M,CLR,M,M,M,M,M,M,M,M,KABI 010345Z AUTO 15021KT 10SM CLR A2968 RMK MADISHF
ABI,2017-04-01 03:50,-99.6819,32.4113,M,M,M,150.00,20.00,M,29.68,M,10.00,25.00,CLR,M,M,M,M,M,M,M,M,KABI 010350Z AUTO 15020G25KT 10SM CLR A2968 RMK MADISHF
ABI,2017-04-01 03:52,-99.6819,32.4113,70.00,50.00,49.03,150.00,20.00,0.00,29.68,1002.80,10.00,27.00,CLR,M,M,M,M,M,M,M,M,KABI 010352Z 15020G27KT 10SM CLR 21/10 A2968 RMK AO2 PK WND 15030/0319 SLP028 T02110100 $
ABI,2017-04-01 03:55,-99.6819,32.4113,M,M,M,150.00,20.00,M,29.68,M,10.00,M,CLR,M,M,M,M,M,M,M,M,KABI 010355Z AUTO 15020KT 10SM CLR A2968 RMK MADISHF
ABI,2017-04-01 04:00,-99.6819,32.4113,M,M,M,150.00,21.00,M,29.68,M,10.00,M,CLR,M,M,M,M,M,M,M,M,KABI 010400Z AUTO 15021KT 10SM CLR A2968 RMK MADISHF
ABI,2017-04-01 04:05,-99.6819,32.4113,M,M,M,150.00,22.00,M,29.68,M,10.00,M,CLR,M,M,M,M,M,M,M,M,KABI 010405Z AUTO 15022KT 10SM CLR A2968 RMK MADISHF
ABI,2017-04-01 04:10,-99.6819,32.4113,M,M,M,150.00,21.00,M,29.68,M,10.00,M,CLR,M,M,M,M,M,M,M,M,KABI 010410Z AUTO 15021KT 10SM CLR A2968 RMK MADISHF
ABI,2017-04-01 04:15,-99.6819,32.4113,M,M,M,150.00,24.00,M,29.68,M,10.00,M,CLR,M,M,M,M,M,M,M,M,KABI 010415Z AUTO 15024KT 10SM CLR A2968 RMK MADISHF
ABI,2017-04-01 04:20,-99.6819,32.4113,M,M,M,150.00,21.00,M,29.68,M,10.00,M,CLR,M,M,M,M,M,M,M,M,KABI 010420Z AUTO 15021KT 10SM CLR A2968 RMK MADISHF
ABI,2017-04-01 04:25,-99.6819,32.4113,M,M,M,150.00,26.00,M,29.67,M,10.00,M,CLR,M,M,M,M,M,M,M,M,KABI 010425Z AUTO 15026KT 10SM CLR A2967 RMK MADISHF
ABI,2017-04-01 04:30,-99.6819,32.4113,M,M,M,150.00,20.00,M,29.67,M,10.00,M,CLR,M,M,M,M,M,M,M,M,KABI 010430Z AUTO 15020KT 10SM CLR A2967 RMK MADISHF
ABI,2017-04-01 04:35,-99.6819,32.4113,M,M,M,150.00,23.00,M,29.68,M,10.00,M,CLR,M,M,M,M,M,M,M,M,KABI 010435Z AUTO 15023KT 10SM CLR A2968 RMK MADISHF
ABI,2017-04-01 04:40,-99.6819,32.4113,M,M,M,150.00,22.00,M,29.67,M,10.00,M,CLR,M,M,M,M,M,M,M,M,KABI 010440Z AUTO 15022KT 10SM CLR A2967 RMK MADISHF
ABI,2017-04-01 04:45,-99.6819,32.4113,M,M,M,150.00,22.00,M,29.68,M,10.00,M,CLR,M,M,M,M,M,M,M,M,KABI 010445Z AUTO 15022KT 10SM CLR A2968 RMK MADISHF
ABI,2017-04-01 04:50,-99.6819,32.4113,M,M,M,150.00,20.00,M,29.68,M,10.00,25.00,CLR,M,M,M,M,M,M,M,M,KABI 010450Z AUTO 15020G25KT 10SM CLR A2968 RMK MADISHF
ABI,2017-04-01 04:52,-99.6819,32.4113,69.10,52.00,54.45,150.00,20.00,0.00,29.68,1002.50,10.00,31.00,CLR,M,M,M,M,M,M,M,M,KABI 010452Z 15020G31KT 10SM CLR 21/11 A2968 RMK AO2 PK WND 14036/0424 SLP025 T02060111 $
ABI,2017-04-01 04:55,-99.6819,32.4113,M,M,M,150.00,19.00,M,29.68,M,10.00,M,CLR,M,M,M,M,M,M,M,M,KABI 010455Z AUTO 15019KT 10SM CLR A2968 RMK MADISHF
ABI,2017-04-01 05:00,-99.6819,32.4113,M,M,M,150.00,20.00,M,29.68,M,10.00,28.00,CLR,M,M,M,M,M,M,M,M,KABI 010500Z AUTO 15020G28KT 10SM CLR A2968 RMK MADISHF
ABI,2017-04-01 05:05,-99.6819,32.4113,M,M,M,150.00,23.00,M,29.67,M,10.00,M,CLR,M,M,M,M,M,M,M,M,KABI 010505Z AUTO 15023KT 10SM CLR A2967 RMK WND -3225V16  MADISHF
ABI,2017-04-01 05:10,-99.6819,32.4113,M,M,M,150.00,22.00,M,29.68,M,10.00,M,CLR,M,M,M,M,M,M,M,M,KABI 010510Z AUTO 15022KT 10SM CLR A2968 RMK MADISHF
ABI,2017-04-01 05:15,-99.6819,32.4113,M,M,M,150.00,21.00,M,29.68,M,10.00,M,CLR,M,M,M,M,M,M,M,M,KABI 010515Z AUTO 15021KT 10SM CLR A2968 RMK MADISHF
ABI,2017-04-01 05:20,-99.6819,32.4113,M,M,M,150.00,21.00,M,29.68,M,10.00,M,CLR,M,M,M,M,M,M,M,M,KABI 010520Z AUTO 15021KT 10SM CLR A2968 RMK MADISHF
ABI,2017-04-01 05:25,-99.6819,32.4113,M,M,M,160.00,21.00,M,29.68,M,10.00,M,CLR,M,M,M,M,M,M,M,M,KABI 010525Z AUTO 16021KT 10SM CLR A2968 RMK MADISHF
ABI,2017-04-01 05:30,-99.6819,32.4113,M,M,M,150.00,21.00,M,29.68,M,10.00,M,CLR,M,M,M,M,M,M,M,M,KABI 010530Z AUTO 15021KT 10SM CLR A2968 RMK MADISHF
ABI,2017-04-01 05:35,-99.6819,32.4113,M,M,M,150.00,20.00,M,29.67,M,10.00,M,CLR,M,M,M,M,M,M,M,M,KABI 010535Z AUTO 15020KT 10SM CLR A2967 RMK MADISHF
ABI,2017-04-01 05:40,-99.6819,32.4113,M,M,M,150.00,20.00,M,29.67,M,10.00,M,CLR,M,M,M,M,M,M,M,M,KABI 010540Z AUTO 15020KT 10SM CLR A2967 RMK MADISHF
ABI,2017-04-01 05:45,-99.6819,32.4113,M,M,M,M,M,M,29.67,M,10.00,M,CLR,M,M,M,M,M,M,M,M,KABI 010545Z AUTO /////KT 10SM CLR A2967 RMK MADISHF
ABI,2017-04-01 05:50,-99.6819,32.4113,M,M,M,150.00,22.00,M,29.67,M,10.00,28.00,CLR,M,M,M,M,M,M,M,M,KABI 010550Z AUTO 15022G28KT 10SM CLR A2967 RMK MADISHF
ABI,2017-04-01 05:52,-99.6819,32.4113,66.90,52.00,58.74,150.00,23.00,0.00,29.67,1002.20,10.00,32.00,CLR,M,M,M,M,M,M,M,M,KABI 010552Z 15023G32KT 10SM CLR 19/11 A2967 RMK AO2 PK WND 15032/0547 SLP022 T01940111 10278 20194 403060139 58003 $
ABI,2017-04-01 05:55,-99.6819,32.4113,M,M,M,150.00,20.00,M,29.67,M,10.00,25.00,CLR,M,M,M,M,M,M,M,M,KABI 010555Z AUTO 15020G25KT 10SM CLR A2967 RMK MADISHF
ABI,2017-04-01 06:00,-99.6819,32.4113,M,M,M,150.00,22.00,M,29.67,M,10.00,M,CLR,M,M,M,M,M,M,M,M,KABI 010600Z AUTO 15022KT 10SM CLR A2967 RMK MADISHF
ABI,2017-04-01 06:05,-99.6819,32.4113,M,M,M,150.00,23.00,M,29.67,M,10.00,M,CLR,M,M,M,M,M,M,M,M,KABI 010605Z AUTO 15023KT 10SM CLR A2967 RMK MADISHF
ABI,2017-04-01 06:10,-99.6819,32.4113,M,M,M,M,M,M,29.68,M,10.00,M,CLR,M,M,M,M,M,M,M,M,KABI 010610Z AUTO /////KT 10SM CLR A2968 RMK MADISHF
ABI,2017-04-01 06:15,-99.6819,32.4113,M,M,M,150.00,20.00,M,29.68,M,10.00,M,CLR,M,M,M,M,M,M,M,M,KABI 010615Z AUTO 15020KT 10SM CLR A2968 RMK MADISHF
ABI,2017-04-01 06:20,-99.6819,32.4113,M,M,M,150.00,21.00,M,29.68,M,10.00,M,CLR,M,M,M,M,M,M,M,M,KABI 010620Z AUTO 15021KT 10SM CLR A2968 RMK MADISHF
ABI,2017-04-01 06:25,-99.6819,32.4113,M,M,M,150.00,22.00,M,29.68,M,10.00,M,CLR,M,M,M,M,M,M,M,M,KABI 010625Z AUTO 15022KT 10SM CLR A2968 RMK MADISHF
ABI,2017-04-01 06:30,-99.6819,32.4113,M,M,M,150.00,25.00,M,29.68,M,10.00,M,CLR,M,M,M,M,M,M,M,M,KABI 010630Z AUTO 15025KT 10SM CLR A2968 RMK MADISHF
ABI,2017-04-01 06:35,-99.6819,32.4113,M,M,M,150.00,20.00,M,29.68,M,10.00,M,CLR,M,M,M,M,M,M,M,M,KABI 010635Z AUTO 15020KT 10SM CLR A2968 RMK MADISHF
ABI,2017-04-01 06:40,-99.6819,32.4113,M,M,M,150.00,23.00,M,29.68,M,10.00,M,CLR,M,M,M,M,M,M,M,M,KABI 010640Z AUTO 15023KT 10SM CLR A2968 RMK MADISHF
ABI,2017-04-01 06:45,-99.6819,32.4113,M,M,M,150.00,19.00,M,29.68,M,10.00,M,CLR,M,M,M,M,M,M,M,M,KABI 010645Z AUTO 15019KT 10SM CLR A2968 RMK MADISHF
ABI,2017-04-01 06:50,-99.6819,32.4113,M,M,M,M,M,M,29.68,M,10.00,26.00,CLR,M,M,M,M,M,M,M,M,KABI 010650Z AUTO /////G26KT 10SM CLR A2968 RMK MADISHF
ABI,2017-04-01 06:52,-99.6819,32.4113,64.90,51.10,60.90,160.00,22.00,0.00,29.69,1002.70,10.00,30.00,CLR,M,M,M,M,M,M,M,M,KABI 010652Z 16022G30KT 10SM CLR 18/11 A2969 RMK AO2 PK WND 15032/0601 SLP027 T01830106 $
ABI,2017-04-01 06:55,-99.6819,32.4113,M,M,M,160.00,20.00,M,29.69,M,10.00,M,CLR,M,M,M,M,M,M,M,M,KABI 010655Z AUTO 16020KT 10SM CLR A2969 RMK MADISHF
ABI,2017-04-01 07:00,-99.6819,32.4113,M,M,M,160.00,20.00,M,29.69,M,10.00,M,CLR,M,M,M,M,M,M,M,M,KABI 010700Z AUTO 16020KT 10SM CLR A2969 RMK MADISHF
ABI,2017-04-01 07:05,-99.6819,32.4113,M,M,M,160.00,21.00,M,29.70,M,10.00,M,CLR,M,M,M,M,M,M,M,M,KABI 010705Z AUTO 16021KT 10SM CLR A2970 RMK MADISHF
ABI,2017-04-01 07:10,-99.6819,32.4113,M,M,M,170.00,18.00,M,29.70,M,10.00,M,CLR,M,M,M,M,M,M,M,M,KABI 010710Z AUTO 17018KT 10SM CLR A2970 RMK MADISHF
ABI,2017-04-01 07:15,-99.6819,32.4113,M,M,M,160.00,17.00,M,29.70,M,10.00,M,CLR,M,M,M,M,M,M,M,M,KABI 010715Z AUTO 16017KT 10SM CLR A2970 RMK MADISHF
ABI,2017-04-01 07:20,-99.6819,32.4113,M,M,M,160.00,16.00,M,29.70,M,10.00,M,CLR,M,M,M,M,M,M,M,M,KABI 010720Z AUTO 16016KT 10SM CLR A2970 RMK MADISHF
ABI,2017-04-01 07:25,-99.6819,32.4113,M,M,M,160.00,16.00,M,29.70,M,10.00,M,CLR,M,M,M,M,M,M,M,M,KABI 010725Z AUTO 16016KT 10SM CLR A2970 RMK MADISHF
ABI,2017-04-01 07:30,-99.6819,32.4113,M,M,M,160.00,17.00,M,29.70,M,10.00,M,CLR,M,M,M,M,M,M,M,M,KABI 010730Z AUTO 16017KT 10SM CLR A2970 RMK MADISHF
ABI,2017-04-01 07:35,-99.6819,32.4113,M,M,M,160.00,17.00,M,29.71,M,10.00,M,CLR,M,M,M,M,M,M,M,M,KABI 010735Z AUTO 16017KT 10SM CLR A2971 RMK MADISHF
ABI,2017-04-01 07:40,-99.6819,32.4113,M,M,M,160.00,20.00,M,29.71,M,10.00,M,CLR,M,M,M,M,M,M,M,M,KABI 010740Z AUTO 16020KT 10SM CLR A2971 RMK MADISHF
ABI,2017-04-01 07:45,-99.6819,32.4113,M,M,M,160.00,18.00,M,29.71,M,10.00,M,CLR,M,M,M,M,M,M,M,M,KABI 010745Z AUTO 16018KT 10SM CLR A2971 RMK MADISHF
ABI,2017-04-01 07:50,-99.6819,32.4113,M,M,M,170.00,18.00,M,29.71,M,10.00,M,CLR,M,M,M,M,M,M,M,M,KABI 010750Z AUTO 17018KT 10SM CLR A2971 RMK MADISHF
ABI,2017-04-01 07:52,-99.6819,32.4113,63.00,48.90,59.98,170.00,16.00,0.00,29.71,1003.60,10.00,26.00,CLR,M,M,M,M,M,M,M,M,KABI 010752Z 17016G26KT 10SM CLR 17/09 A2971 RMK AO2 PK WND 17027/0712 SLP036 T01720094 $
ABI,2017-04-01 07:55,-99.6819,32.4113,M,M,M,160.00,15.00,M,29.71,M,10.00,20.00,CLR,M,M,M,M,M,M,M,M,KABI 010755Z AUTO 16015G20KT 10SM CLR A2971 RMK MADISHF
ABI,2017-04-01 08:00,-99.6819,32.4113,M,M,M,160.00,14.00,M,29.71,M,10.00,M,CLR,M,M,M,M,M,M,M,M,KABI 010800Z AUTO 16014KT 10SM CLR A2971 RMK MADISHF
ABI,2017-04-01 08:05,-99.6819,32.4113,M,M,M,160.00,15.00,M,29.71,M,10.00,M,CLR,M,M,M,M,M,M,M,M,KABI 010805Z AUTO 16015KT 10SM CLR A2971 RMK MADISHF
ABI,2017-04-01 08:10,-99.6819,32.4113,M,M,M,160.00,15.00,M,29.71,M,10.00,20.00,CLR,M,M,M,M,M,M,M,M,KABI 010810Z AUTO 16015G20KT 10SM CLR A2971 RMK MADISHF
ABI,2017-04-01 08:15,-99.6819,32.4113,M,M,M,160.00,16.00,M,29.71,M,10.00,M,CLR,M,M,M,M,M,M,M,M,KABI 010815Z AUTO 16016KT 10SM CLR A2971 RMK MADISHF
ABI,2017-04-01 08:20,-99.6819,32.4113,M,M,M,160.00,17.00,M,29.71,M,10.00,M,CLR,M,M,M,M,M,M,M,M,KABI 010820Z AUTO 16017KT 10SM CLR A2971 RMK MADISHF
ABI,2017-04-01 08:25,-99.6819,32.4113,M,M,M,160.00,14.00,M,29.72,M,10.00,M,CLR,M,M,M,M,M,M,M,M,KABI 010825Z AUTO 16014KT 10SM CLR A2972 RMK MADISHF
ABI,2017-04-01 08:30,-99.6819,32.4113,M,M,M,160.00,16.00,M,29.72,M,10.00,M,CLR,M,M,M,M,M,M,M,M,KABI 010830Z AUTO 16016KT 10SM CLR A2972 RMK MADISHF
ABI,2017-04-01 08:35,-99.6819,32.4113,M,M,M,160.00,14.00,M,29.72,M,10.00,M,CLR,M,M,M,M,M,M,M,M,KABI 010835Z AUTO 16014KT 10SM CLR A2972 RMK MADISHF
ABI,2017-04-01 08:40,-99.6819,32.4113,M,M,M,160.00,16.00,M,29.72,M,10.00,M,CLR,M,M,M,M,M,M,M,M,KABI 010840Z AUTO 16016KT 10SM CLR A2972 RMK MADISHF
ABI,2017-04-01 08:45,-99.6819,32.4113,M,M,M,160.00,16.00,M,29.73,M,10.00,M,CLR,M,M,M,M,M,M,M,M,KABI 010845Z AUTO 16016KT 10SM CLR A2973 RMK MADISHF
ABI,2017-04-01 08:50,-99.6819,32.4113,M,M,M,160.00,16.00,M,29.73,M,10.00,M,CLR,M,M,M,M,M,M,M,M,KABI 010850Z AUTO 16016KT 10SM CLR A2973 RMK MADISHF
ABI,2017-04-01 08:52,-99.6819,32.4113,61.00,46.90,59.71,160.00,16.00,0.00,29.73,1004.20,10.00,M,CLR,M,M,M,M,M,M,M,M,KABI 010852Z 16016KT 10SM CLR 16/08 A2973 RMK AO2 SLP042 T01610083 53018 $
ABI,2017-04-01 08:55,-99.6819,32.4113,M,M,M,150.00,15.00,M,29.72,M,10.00,M,CLR,M,M,M,M,M,M,M,M,KABI 010855Z AUTO 15015KT 10SM CLR A2972 RMK MADISHF
ABI,2017-04-01 09:00,-99.6819,32.4113,M,M,M,150.00,16.00,M,29.72,M,10.00,M,CLR,M,M,M,M,M,M,M,M,KABI 010900Z AUTO 15016KT 10SM CLR A2972 RMK MADISHF
ABI,2017-04-01 09:05,-99.6819,32.4113,M,M,M,160.00,15.00,M,29.73,M,10.00,M,CLR,M,M,M,M,M,M,M,M,KABI 010905Z AUTO 16015KT 10SM CLR A2973 RMK MADISHF
ABI,2017-04-01 09:10,-99.6819,32.4113,M,M,M,M,M,M,29.73,M,10.00,M,CLR,M,M,M,M,M,M,M,M,KABI 010910Z AUTO /////KT 10SM CLR A2973 RMK MADISHF
ABI,2017-04-01 09:15,-99.6819,32.4113,M,M,M,150.00,15.00,M,29.73,M,10.00,M,CLR,M,M,M,M,M,M,M,M,KABI 010915Z AUTO 15015KT 10SM CLR A2973 RMK MADISHF
ABI,2017-04-01 09:20,-99.6819,32.4113,M,M,M,160.00,14.00,M,29.74,M,10.00,M,CLR,M,M,M,M,M,M,M,M,KABI 010920Z AUTO 16014KT 10SM CLR A2974 RMK MADISHF
ABI,2017-04-01 09:25,-99.6819,32.4113,M,M,M,M,M,M,29.74,M,10.00,M,CLR,M,M,M,M,M,M,M,M,KABI 010925Z AUTO /////KT 10SM CLR A2974 RMK MADISHF
ABI,2017-04-01 09:30,-99.6819,32.4113,M,M,M,160.00,16.00,M,29.74,M,10.00,M,CLR,M,M,M,M,M,M,M,M,KABI 010930Z AUTO 16016KT 10SM CLR A2974 RMK MADISHF
ABI,2017-04-01 09:35,-99.6819,32.4113,M,M,M,160.00,14.00,M,29.74,M,10.00,M,CLR,M,M,M,M,M,M,M,M,KABI 010935Z AUTO 16014KT 10SM CLR A2974 RMK MADISHF
ABI,2017-04-01 09:40,-99.6819,32.4113,M,M,M,150.00,13.00,M,29.74,M,10.00,M,CLR,M,M,M,M,M,M,M,M,KABI 010940Z AUTO 15013KT 10SM CLR A2974 RMK MADISHF
ABI,2017-04-01 09:45,-99.6819,32.4113,M,M,M,150.00,13.00,M,29.74,M,10.00,M,CLR,M,M,M,M,M,M,M,M,KABI 010945Z AUTO 15013KT 10SM CLR A2974 RMK MADISHF
ABI,2017-04-01 09:50,-99.6819,32.4113,M,M,M,M,M,M,29.74,M,10.00,M,CLR,M,M,M,M,M,M,M,M,KABI 010950Z AUTO /////KT 10SM CLR A2974 RMK MADISHF
ABI,2017-04-01 09:52,-99.6819,32.4113,59.00,48.00,66.83,150.00,14.00,0.00,29.74,1004.60,10.00,M,CLR,M,M,M,M,M,M,M,M,KABI 010952Z 15014KT 10SM CLR 15/09 A2974 RMK AO2 SLP046 T01500089 $
ABI,2017-04-01 09:55,-99.6819,32.4113,M,M,M,150.00,14.00,M,29.74,M,10.00,M,CLR,M,M,M,M,M,M,M,M,KABI 010955Z AUTO 15014KT 10SM CLR A2974 RMK MADISHF
ABI,2017-04-01 10:00,-99.6819,32.4113,M,M,M,150.00,13.00,M,29.74,M,10.00,M,CLR,M,M,M,M,M,M,M,M,KABI 011000Z AUTO 15013KT 10SM CLR A2974 RMK MADISHF
ABI,2017-04-01 10:05,-99.6819,32.4113,M,M,M,150.00,12.00,M,29.75,M,10.00,M,CLR,M,M,M,M,M,M,M,M,KABI 011005Z AUTO 15012KT 10SM CLR A2975 RMK MADISHF
ABI,2017-04-01 10:10,-99.6819,32.4113,M,M,M,150.00,10.00,M,29.75,M,10.00,M,CLR,M,M,M,M,M,M,M,M,KABI 011010Z AUTO 15010KT 10SM CLR A2975 RMK MADISHF
ABI,2017-04-01 10:15,-99.6819,32.4113,M,M,M,160.00,7.00,M,29.76,M,10.00,M,CLR,M,M,M,M,M,M,M,M,KABI 011015Z AUTO 16007KT 10SM CLR A2976 RMK MADISHF
ABI,2017-04-01 10:20,-99.6819,32.4113,M,M,M,160.00,7.00,M,29.76,M,10.00,M,CLR,M,M,M,M,M,M,M,M,KABI 011020Z AUTO 16007KT 10SM CLR A2976 RMK MADISHF
ABI,2017-04-01 10:25,-99.6819,32.4113,M,M,M,140.00,10.00,M,29.76,M,10.00,M,CLR,M,M,M,M,M,M,M,M,KABI 011025Z AUTO 14010KT 10SM CLR A2976 RMK MADISHF
ABI,2017-04-01 10:30,-99.6819,32.4113,M,M,M,140.00,8.00,M,29.76,M,10.00,M,CLR,M,M,M,M,M,M,M,M,KABI 011030Z AUTO 14008KT 10SM CLR A2976 RMK MADISHF
ABI,2017-04-01 10:35,-99.6819,32.4113,M,M,M,140.00,8.00,M,29.76,M,10.00,M,CLR,M,M,M,M,M,M,M,M,KABI 011035Z AUTO 14008KT 10SM CLR A2976 RMK MADISHF
ABI,2017-04-01 10:40,-99.6819,32.4113,M,M,M,140.00,8.00,M,29.76,M,10.00,M,CLR,M,M,M,M,M,M,M,M,KABI 011040Z AUTO 14008KT 10SM CLR A2976 RMK MADISHF
ABI,2017-04-01 10:45,-99.6819,32.4113,M,M,M,160.00,6.00,M,29.77,M,10.00,M,CLR,M,M,M,M,M,M,M,M,KABI 011045Z AUTO 16006KT 10SM CLR A2977 RMK MADISHF
ABI,2017-04-01 10:50,-99.6819,32.4113,M,M,M,160.00,6.00,M,29.78,M,10.00,M,CLR,M,M,M,M,M,M,M,M,KABI 011050Z AUTO 16006KT 10SM CLR A2978 RMK MADISHF
ABI,2017-04-01 10:52,-99.6819,32.4113,57.00,48.90,74.27,160.00,7.00,0.00,29.78,1006.10,10.00,M,CLR,M,M,M,M,M,M,M,M,KABI 011052Z 16007KT 10SM CLR 14/09 A2978 RMK AO2 SLP061 T01390094 $
ABI,2017-04-01 10:55,-99.6819,32.4113,M,M,M,150.00,6.00,M,29.78,M,10.00,M,CLR,M,M,M,M,M,M,M,M,KABI 011055Z AUTO 15006KT 10SM CLR A2978 RMK MADISHF
ABI,2017-04-01 11:00,-99.6819,32.4113,M,M,M,150.00,4.00,M,29.78,M,10.00,M,CLR,M,M,M,M,M,M,M,M,KABI 011100Z AUTO 15004KT 10SM CLR A2978 RMK MADISHF
ABI,2017-04-01 11:05,-99.6819,32.4113,M,M,M,140.00,4.00,M,29.79,M,10.00,M,CLR,M,M,M,M,M,M,M,M,KABI 011105Z AUTO 14004KT 10SM CLR A2979 RMK MADISHF
ABI,2017-04-01 11:10,-99.6819,32.4113,M,M,M,160.00,5.00,M,29.79,M,10.00,M,CLR,M,M,M,M,M,M,M,M,KABI 011110Z AUTO 16005KT 10SM CLR A2979 RMK MADISHF
ABI,2017-04-01 11:15,-99.6819,32.4113,M,M,M,0.00,0.00,M,29.80,M,10.00,M,CLR,M,M,M,M,M,M,M,M,KABI 011115Z AUTO 00000KT 10SM CLR A2980 RMK MADISHF
ABI,2017-04-01 11:20,-99.6819,32.4113,M,M,M,100.00,3.00,M,29.80,M,10.00,M,FEW,M,M,M,4400.00,M,M,M,M,KABI 011120Z AUTO 10003KT 10SM FEW044 A2980 RMK MADISHF
ABI,2017-04-01 11:25,-99.6819,32.4113,M,M,M,0.00,0.00,M,29.81,M,10.00,M,FEW,M,M,M,4400.00,M,M,M,M,KABI 011125Z AUTO 00000KT 10SM FEW044 A2981 RMK MADISHF
ABI,2017-04-01 11:30,-99.6819,32.4113,M,M,M,0.00,0.00,M,29.81,M,10.00,M,SCT,M,M,M,4400.00,M,M,M,M,KABI 011130Z AUTO 00000KT 10SM SCT044 A2981 RMK MADISHF
ABI,2017-04-01 11:35,-99.6819,32.4113,M,M,M,120.00,6.00,M,29.80,M,10.00,M,SCT,M,M,M,4600.00,M,M,M,M,KABI 011135Z AUTO 12006KT 10SM SCT046 A2980 RMK MADISHF
ABI,2017-04-01 11:40,-99.6819,32.4113,M,M,M,130.00,5.00,M,29.81,M,10.00,M,SCT,M,M,M,4600.00,M,M,M,M,KABI 011140Z AUTO 13005KT 10SM SCT046 A2981 RMK MADISHF
ABI,2017-04-01 11:45,-99.6819,32.4113,M,M,M,130.00,6.00,M,29.81,M,10.00,M,SCT,M,M,M,4400.00,M,M,M,M,KABI 011145Z AUTO 13006KT 10SM SCT044 A2981 RMK MADISHF
ABI,2017-04-01 11:50,-99.6819,32.4113,M,M,M,130.00,5.00,M,29.81,M,10.00,M,BKN,M,M,M,4400.00,M,M,M,M,KABI 011150Z AUTO 13005KT 10SM BKN044 A2981 RMK MADISHF
ABI,2017-04-01 11:52,-99.6819,32.4113,57.00,52.00,83.33,130.00,6.00,0.00,29.81,1007.30,10.00,M,BKN,M,M,M,4200.00,M,M,M,M,KABI 011152Z 13006KT 10SM BKN042 14/11 A2981 RMK AO2 SLP073 T01390111 10189 20133 53027 $
ABI,2017-04-01 11:55,-99.6819,32.4113,M,M,M,140.00,9.00,M,29.81,M,10.00,M,BKN,M,M,M,4200.00,M,M,M,M,KABI 011155Z AUTO 14009KT 10SM BKN042 A2981 RMK MADISHF
ABI,2017-04-01 12:00,-99.6819,32.4113,M,M,M,130.00,8.00,M,29.81,M,10.00,M,BKN,M,M,M,4200.00,M,M,M,M,KABI 011200Z AUTO 13008KT 10SM BKN042 A2981 RMK MADISHF
ABI,2017-04-01 12:05,-99.6819,32.4113,M,M,M,130.00,10.00,M,29.81,M,10.00,M,OVC,M,M,M,3900.00,M,M,M,M,KABI 011205Z AUTO 13010KT 10SM OVC039 A2981 RMK MADISHF
ABI,2017-04-01 12:10,-99.6819,32.4113,M,M,M,130.00,10.00,M,29.81,M,10.00,M,OVC,M,M,M,3900.00,M,M,M,M,KABI 011210Z AUTO 13010KT 10SM OVC039 A2981 RMK MADISHF
ABI,2017-04-01 12:15,-99.6819,32.4113,M,M,M,120.00,9.00,M,29.82,M,10.00,M,OVC,M,M,M,3900.00,M,M,M,M,KABI 011215Z AUTO 12009KT 10SM OVC039 A2982 RMK MADISHF
ABI,2017-04-01 12:20,-99.6819,32.4113,M,M,M,120.00,9.00,M,29.82,M,10.00,M,OVC,M,M,M,3700.00,M,M,M,M,KABI 011220Z AUTO 12009KT 10SM OVC037 A2982 RMK MADISHF
ABI,2017-04-01 12:25,-99.6819,32.4113,M,M,M,120.00,9.00,M,29.82,M,10.00,M,OVC,M,M,M,3700.00,M,M,M,M,KABI 011225Z AUTO 12009KT 10SM OVC037 A2982 RMK MADISHF
ABI,2017-04-01 12:30,-99.6819,32.4113,M,M,M,120.00,10.00,M,29.82,M,10.00,M,OVC,M,M,M,3500.00,M,M,M,M,KABI 011230Z AUTO 12010KT 10SM OVC035 A2982 RMK MADISHF
ABI,2017-04-01 12:35,-99.6819,32.4113,M,M,M,120.00,10.00,M,29.82,M,10.00,M,OVC,M,M,M,3500.00,M,M,M,M,KABI 011235Z AUTO 12010KT 10SM OVC035 A2982 RMK MADISHF
ABI,2017-04-01 12:40,-99.6819,32.4113,M,M,M,120.00,11.00,M,29.82,M,10.00,M,OVC,M,M,M,3500.00,M,M,M,M,KABI 011240Z AUTO 12011KT 10SM OVC035 A2982 RMK MADISHF
ABI,2017-04-01 12:45,-99.6819,32.4113,M,M,M,120.00,12.00,M,29.82,M,10.00,M,OVC,M,M,M,3300.00,M,M,M,M,KABI 011245Z AUTO 12012KT 10SM OVC033 A2982 RMK MADISHF
ABI,2017-04-01 12:50,-99.6819,32.4113,M,M,M,130.00,10.00,M,29.83,M,10.00,M,OVC,M,M,M,3300.00,M,M,M,M,KABI 011250Z AUTO 13010KT 10SM OVC033 A2983 RMK MADISHF
ABI,2017-04-01 12:52,-99.6819,32.4113,57.90,55.00,90.04,130.00,11.00,0.00,29.83,1008.10,10.00,M,OVC,M,M,M,3300.00,M,M,M,M,KABI 011252Z 13011KT 10SM OVC033 14/13 A2983 RMK AO2 SLP081 T01440128 $
ABI,2017-04-01 12:55,-99.6819,32.4113,M,M,M,120.00,13.00,M,29.83,M,10.00,M,OVC,M,M,M,3300.00,M,M,M,M,KABI 011255Z AUTO 12013KT 10SM OVC033 A2983 RMK MADISHF
ABI,2017-04-01 13:00,-99.6819,32.4113,M,M,M,120.00,11.00,M,29.83,M,10.00,M,OVC,M,M,M,3300.00,M,M,M,M,KABI 011300Z AUTO 12011KT 10SM OVC033 A2983 RMK MADISHF
ABI,2017-04-01 13:05,-99.6819,32.4113,M,M,M,120.00,12.00,M,29.83,M,10.00,M,OVC,M,M,M,3200.00,M,M,M,M,KABI 011305Z AUTO 12012KT 10SM OVC032 A2983 RMK MADISHF
ABI,2017-04-01 13:10,-99.6819,32.4113,M,M,M,110.00,12.00,M,29.83,M,10.00,M,OVC,M,M,M,3200.00,M,M,M,M,KABI 011310Z AUTO 11012KT 10SM OVC032 A2983 RMK MADISHF
ABI,2017-04-01 13:15,-99.6819,32.4113,M,M,M,110.00,12.00,M,29.83,M,10.00,M,OVC,M,M,M,3000.00,M,M,M,M,KABI 011315Z AUTO 11012KT 10SM OVC030 A2983 RMK MADISHF
ABI,2017-04-01 13:20,-99.6819,32.4113,M,M,M,110.00,11.00,M,29.83,M,10.00,M,OVC,M,M,M,3000.00,M,M,M,M,KABI 011320Z AUTO 11011KT 10SM OVC030 A2983 RMK MADISHF
ABI,2017-04-01 13:25,-99.6819,32.4113,M,M,M,120.00,12.00,M,29.83,M,10.00,M,OVC,M,M,M,2800.00,M,M,M,M,KABI 011325Z AUTO 12012KT 10SM OVC028 A2983 RMK MADISHF
ABI,2017-04-01 13:30,-99.6819,32.4113,M,M,M,120.00,12.00,M,29.84,M,10.00,M,OVC,M,M,M,2800.00,M,M,M,M,KABI 011330Z AUTO 12012KT 10SM OVC028 A2984 RMK MADISHF
ABI,2017-04-01 13:31,-99.6819,32.4113,59.00,55.00,86.56,120.00,12.00,0.00,29.84,M,10.00,M,OVC,M,M,M,2800.00,M,M,M,M,KABI 011331Z 12012KT 10SM OVC028 15/13 A2984 RMK AO2 T01500128 $
ABI,2017-04-01 13:35,-99.6819,32.4113,M,M,M,120.00,11.00,M,29.84,M,10.00,M,OVC,M,M,M,2800.00,M,M,M,M,KABI 011335Z AUTO 12011KT 10SM OVC028 A2984 RMK MADISHF
ABI,2017-04-01 13:40,-99.6819,32.4113,M,M,M,130.00,12.00,M,29.84,M,10.00,M,OVC,M,M,M,2800.00,M,M,M,M,KABI 011340Z AUTO 13012KT 10SM OVC028 A2984 RMK MADISHF
ABI,2017-04-01 13:45,-99.6819,32.4113,M,M,M,120.00,14.00,M,29.84,M,10.00,M,OVC,M,M,M,2800.00,M,M,M,M,KABI 011345Z AUTO 12014KT 10SM OVC028 A2984 RMK MADISHF
ABI,2017-04-01 13:50,-99.6819,32.4113,M,M,M,130.00,11.00,M,29.84,M,10.00,M,OVC,M,M,M,2800.00,M,M,M,M,KABI 011350Z AUTO 13011KT 10SM OVC028 A2984 RMK MADISHF
ABI,2017-04-01 13:52,-99.6819,32.4113,59.00,55.90,89.44,130.00,12.00,0.00,29.85,1008.70,10.00,M,OVC,M,M,M,2800.00,M,M,M,M,KABI 011352Z 13012KT 10SM OVC028 15/13 A2985 RMK AO2 SLP087 T01500133 $
ABI,2017-04-01 13:55,-99.6819,32.4113,M,M,M,130.00,12.00,M,29.85,M,10.00,M,OVC,M,M,M,2800.00,M,M,M,M,KABI 011355Z AUTO 13012KT 10SM OVC028 A2985 RMK MADISHF
ABI,2017-04-01 14:00,-99.6819,32.4113,M,M,M,130.00,12.00,M,29.85,M,10.00,M,OVC,M,M,M,2800.00,M,M,M,M,KABI 011400Z AUTO 13012KT 10SM OVC028 A2985 RMK MADISHF
ABI,2017-04-01 14:05,-99.6819,32.4113,M,M,M,120.00,14.00,M,29.85,M,10.00,M,OVC,M,M,M,2700.00,M,M,M,M,KABI 011405Z AUTO 12014KT 10SM OVC027 A2985 RMK MADISHF
ABI,2017-04-01 14:10,-99.6819,32.4113,M,M,M,M,M,M,29.85,M,10.00,M,OVC,M,M,M,2700.00,M,M,M,M,KABI 011410Z AUTO /////KT 10SM OVC027 A2985 RMK MADISHF
ABI,2017-04-01 14:15,-99.6819,32.4113,M,M,M,120.00,16.00,M,29.84,M,10.00,M,BKN,OVC,M,M,2700.00,3500.00,M,M,M,KABI 011415Z AUTO 12016KT 10SM BKN027 OVC035 A2984 RMK MADISHF
ABI,2017-04-01 14:20,-99.6819,32.4113,M,M,M,120.00,15.00,M,29.85,M,10.00,M,BKN,OVC,M,M,2700.00,3700.00,M,M,M,KABI 011420Z AUTO 12015KT 10SM BKN027 OVC037 A2985 RMK MADISHF
ABI,2017-04-01 14:25,-99.6819,32.4113,M,M,M,120.00,14.00,M,29.85,M,10.00,M,SCT,OVC,M,M,2700.00,3700.00,M,M,M,KABI 011425Z AUTO 12014KT 10SM SCT027 OVC037 A2985 RMK MADISHF
ABI,2017-04-01 14:27,-99.6819,32.4113,60.10,57.00,89.48,120.00,16.00,0.00,29.85,M,10.00,M,BKN,M,M,M,3700.00,M,M,M,M,KABI 011427Z 12016KT 10SM BKN037 16/14 A2985 RMK AO2 T01560139 $
ABI,2017-04-01 14:30,-99.6819,32.4113,M,M,M,120.00,14.00,M,29.85,M,10.00,M,BKN,M,M,M,3700.00,M,M,M,M,KABI 011430Z AUTO 12014KT 10SM BKN037 A2985 RMK MADISHF
ABI,2017-04-01 14:35,-99.6819,32.4113,M,M,M,M,M,M,29.85,M,10.00,M,SCT,OVC,M,M,3000.00,3700.00,M,M,M,KABI 011435Z AUTO /////KT 10SM SCT030 OVC037 A2985 RMK MADISHF
ABI,2017-04-01 14:40,-99.6819,32.4113,M,M,M,120.00,13.00,M,29.85,M,10.00,M,SCT,OVC,M,M,2800.00,3700.00,M,M,M,KABI 011440Z AUTO 12013KT 10SM SCT028 OVC037 A2985 RMK MADISHF
ABI,2017-04-01 14:45,-99.6819,32.4113,M,M,M,130.00,14.00,M,29.85,M,10.00,M,SCT,OVC,M,M,2800.00,3700.00,M,M,M,KABI 011445Z AUTO 13014KT 10SM SCT028 OVC037 A2985 RMK MADISHF
ABI,2017-04-01 14:50,-99.6819,32.4113,M,M,M,120.00,15.00,M,29.85,M,10.00,M,BKN,OVC,M,M,2800.00,3900.00,M,M,M,KABI 011450Z AUTO 12015KT 10SM BKN028 OVC039 A2985 RMK MADISHF
ABI,2017-04-01 14:52,-99.6819,32.4113,61.00,57.90,89.52,130.00,14.00,0.00,29.85,1008.80,10.00,M,BKN,OVC,M,M,2800.00,3900.00,M,M,M,KABI 011452Z 13014KT 10SM BKN028 OVC039 16/14 A2985 RMK AO2 SLP088 T01610144 51013 $
ABI,2017-04-01 14:55,-99.6819,32.4113,M,M,M,M,M,M,29.85,M,10.00,M,BKN,OVC,M,M,2800.00,3900.00,M,M,M,KABI 011455Z AUTO /////KT 10SM BKN028 OVC039 A2985 RMK MADISHF
ABI,2017-04-01 15:00,-99.6819,32.4113,M,M,M,120.00,18.00,M,29.85,M,10.00,M,OVC,M,M,M,2800.00,M,M,M,M,KABI 011500Z AUTO 12018KT 10SM OVC028 A2985 RMK MADISHF
ABI,2017-04-01 15:05,-99.6819,32.4113,M,M,M,120.00,15.00,M,29.85,M,10.00,M,OVC,M,M,M,2800.00,M,M,M,M,KABI 011505Z AUTO 12015KT 10SM OVC028 A2985 RMK MADISHF
ABI,2017-04-01 15:10,-99.6819,32.4113,M,M,M,120.00,17.00,M,29.85,M,10.00,M,FEW,OVC,M,M,999.00,2900.00,M,M,M,KABI 011510Z AUTO 12017KT 10SM FEW009 OVC029 A2985 RMK MADISHF
ABI,2017-04-01 15:15,-99.6819,32.4113,M,M,M,130.00,16.00,M,29.85,M,10.00,M,FEW,OVC,M,M,999.00,2900.00,M,M,M,KABI 011515Z AUTO 13016KT 10SM FEW009 OVC029 A2985 RMK MADISHF
ABI,2017-04-01 15:20,-99.6819,32.4113,M,M,M,130.00,16.00,M,29.85,M,10.00,M,FEW,OVC,M,M,999.00,3100.00,M,M,M,KABI 011520Z AUTO 13016KT 10SM FEW009 OVC031 A2985 RMK MADISHF
ABI,2017-04-01 15:23,-99.6819,32.4113,63.00,57.90,83.42,130.00,17.00,0.00,29.85,M,10.00,M,SCT,OVC,M,M,1000.00,3100.00,M,M,M,KABI 011523Z 13017KT 10SM SCT010 OVC031 17/14 A2985 RMK AO2 T01720144 $
ABI,2017-04-01 15:25,-99.6819,32.4113,M,M,M,130.00,16.00,M,29.86,M,10.00,M,SCT,OVC,M,M,1100.00,3100.00,M,M,M,KABI 011525Z AUTO 13016KT 10SM SCT011 OVC031 A2986 RMK MADISHF
ABI,2017-04-01 15:30,-99.6819,32.4113,M,M,M,130.00,17.00,M,29.86,M,10.00,M,BKN,BKN,OVC,M,1100.00,2500.00,3100.00,M,M,KABI 011530Z AUTO 13017KT 10SM BKN011 BKN025 OVC031 A2986 RMK MADISHF
ABI,2017-04-01 15:33,-99.6819,32.4113,62.10,57.90,86.11,140.00,16.00,0.00,29.86,M,10.00,M,BKN,BKN,OVC,M,1300.00,2500.00,3100.00,M,M,KABI 011533Z 14016KT 10SM BKN013 BKN025 OVC031 17/14 A2986 RMK AO2 T01670144 $
ABI,2017-04-01 15:35,-99.6819,32.4113,M,M,M,130.00,17.00,M,29.86,M,10.00,M,BKN,OVC,M,M,1300.00,3100.00,M,M,M,KABI 011535Z AUTO 13017KT 10SM BKN013 OVC031 A2986 RMK MADISHF
ABI,2017-04-01 15:40,-99.6819,32.4113,M,M,M,130.00,17.00,M,29.86,M,10.00,M,BKN,OVC,M,M,1300.00,3100.00,M,M,M,KABI 011540Z AUTO 13017KT 10SM BKN013 OVC031 A2986 RMK MADISHF
ABI,2017-04-01 15:45,-99.6819,32.4113,M,M,M,130.00,14.00,M,29.87,M,10.00,M,OVC,M,M,M,1300.00,M,M,M,M,KABI 011545Z AUTO 13014KT 10SM OVC013 A2987 RMK MADISHF
ABI,2017-04-01 15:50,-99.6819,32.4113,M,M,M,130.00,17.00,M,29.87,M,10.00,M,OVC,M,M,M,1200.00,M,M,M,M,KABI 011550Z AUTO 13017KT 10SM OVC012 A2987 RMK MADISHF
ABI,2017-04-01 15:52,-99.6819,32.4113,62.10,57.90,86.11,140.00,14.00,0.00,29.87,1009.70,10.00,M,OVC,M,M,M,1200.00,M,M,M,M,KABI 011552Z 14014KT 10SM OVC012 17/14 A2987 RMK AO2 SLP097 T01670144 $
ABI,2017-04-01 15:55,-99.6819,32.4113,M,M,M,140.00,12.00,M,29.87,M,10.00,M,OVC,M,M,M,1200.00,M,M,M,M,KABI 011555Z AUTO 14012KT 10SM OVC012 A2987 RMK MADISHF
ABI,2017-04-01 16:00,-99.6819,32.4113,M,M,M,130.00,15.00,M,29.87,M,10.00,M,OVC,M,M,M,1200.00,M,M,M,M,KABI 011600Z AUTO 13015KT 10SM OVC012 A2987 RMK MADISHF
ABI,2017-04-01 16:05,-99.6819,32.4113,M,M,M,120.00,15.00,M,29.87,M,10.00,M,OVC,M,M,M,1200.00,M,M,M,M,KABI 011605Z AUTO 12015KT 10SM OVC012 A2987 RMK MADISHF
ABI,2017-04-01 16:10,-99.6819,32.4113,M,M,M,140.00,15.00,M,29.87,M,10.00,M,OVC,M,M,M,1200.00,M,M,M,M,KABI 011610Z AUTO 14015KT 10SM OVC012 A2987 RMK MADISHF
ABI,2017-04-01 16:15,-99.6819,32.4113,M,M,M,140.00,14.00,M,29.88,M,10.00,M,OVC,M,M,M,1100.00,M,M,M,M,KABI 011615Z AUTO 14014KT 10SM OVC011 A2988 RMK MADISHF
ABI,2017-04-01 16:20,-99.6819,32.4113,M,M,M,130.00,15.00,M,29.88,M,10.00,M,OVC,M,M,M,1100.00,M,M,M,M,KABI 011620Z AUTO 13015KT 10SM OVC011 A2988 RMK MADISHF
ABI,2017-04-01 16:25,-99.6819,32.4113,M,M,M,130.00,15.00,M,29.88,M,10.00,M,OVC,M,M,M,1200.00,M,M,M,M,KABI 011625Z AUTO 13015KT 10SM OVC012 A2988 RMK MADISHF
ABI,2017-04-01 16:30,-99.6819,32.4113,M,M,M,140.00,15.00,M,29.88,M,10.00,M,OVC,M,M,M,1200.00,M,M,M,M,KABI 011630Z AUTO 14015KT 10SM OVC012 A2988 RMK MADISHF
ABI,2017-04-01 16:35,-99.6819,32.4113,M,M,M,130.00,15.00,M,29.88,M,10.00,M,OVC,M,M,M,1200.00,M,M,M,M,KABI 011635Z AUTO 13015KT 10SM OVC012 A2988 RMK MADISHF
ABI,2017-04-01 16:40,-99.6819,32.4113,M,M,M,140.00,14.00,M,29.87,M,10.00,M,OVC,M,M,M,1200.00,M,M,M,M,KABI 011640Z AUTO 14014KT 10SM OVC012 A2987 RMK MADISHF
ABI,2017-04-01 16:45,-99.6819,32.4113,M,M,M,140.00,15.00,M,29.87,M,10.00,M,OVC,M,M,M,1200.00,M,M,M,M,KABI 011645Z AUTO 14015KT 10SM OVC012 A2987 RMK MADISHF
ABI,2017-04-01 16:50,-99.6819,32.4113,M,M,M,140.00,16.00,M,29.87,M,10.00,M,OVC,M,M,M,1400.00,M,M,M,M,KABI 011650Z AUTO 14016KT 10SM OVC014 A2987 RMK MADISHF
ABI,2017-04-01 16:52,-99.6819,32.4113,64.00,59.00,83.78,140.00,16.00,0.00,29.87,1009.60,10.00,M,OVC,M,M,M,1400.00,M,M,M,M,KABI 011652Z 14016KT 10SM OVC014 18/15 A2987 RMK AO2 SLP096 T01780150 $
ABI,2017-04-01 16:55,-99.6819,32.4113,M,M,M,130.00,14.00,M,29.87,M,10.00,M,OVC,M,M,M,1400.00,M,M,M,M,KABI 011655Z AUTO 13014KT 10SM OVC014 A2987 RMK MADISHF
ABI,2017-04-01 17:00,-99.6819,32.4113,M,M,M,140.00,16.00,M,29.87,M,10.00,M,OVC,M,M,M,1400.00,M,M,M,M,KABI 011700Z AUTO 14016KT 10SM OVC014 A2987 RMK MADISHF
ABI,2017-04-01 17:05,-99.6819,32.4113,M,M,M,140.00,15.00,M,29.87,M,10.00,M,OVC,M,M,M,1400.00,M,M,M,M,KABI 011705Z AUTO 14015KT 10SM OVC014 A2987 RMK MADISHF
ABI,2017-04-01 17:10,-99.6819,32.4113,M,M,M,140.00,16.00,M,29.87,M,10.00,M,OVC,M,M,M,1400.00,M,M,M,M,KABI 011710Z AUTO 14016KT 10SM OVC014 A2987 RMK MADISHF
ABI,2017-04-01 17:15,-99.6819,32.4113,M,M,M,140.00,13.00,M,29.87,M,10.00,19.00,OVC,M,M,M,1400.00,M,M,M,M,KABI 011715Z AUTO 14013G19KT 10SM OVC014 A2987 RMK MADISHF
ABI,2017-04-01 17:20,-99.6819,32.4113,M,M,M,150.00,15.00,M,29.87,M,10.00,M,OVC,M,M,M,1400.00,M,M,M,M,KABI 011720Z AUTO 15015KT 10SM OVC014 A2987 RMK MADISHF
ABI,2017-04-01 17:25,-99.6819,32.4113,M,M,M,130.00,15.00,M,29.87,M,10.00,M,OVC,M,M,M,1600.00,M,M,M,M,KABI 011725Z AUTO 13015KT 10SM OVC016 A2987 RMK MADISHF
ABI,2017-04-01 17:28,-99.6819,32.4113,64.90,59.00,81.19,140.00,15.00,0.00,29.87,M,10.00,M,OVC,M,M,M,1600.00,M,M,M,M,KABI 011728Z 14015KT 10SM OVC016 18/15 A2987 RMK AO2 T01830150 $
ABI,2017-04-01 17:30,-99.6819,32.4113,M,M,M,150.00,14.00,M,29.87,M,10.00,M,OVC,M,M,M,1600.00,M,M,M,M,KABI 011730Z AUTO 15014KT 10SM OVC016 A2987 RMK MADISHF
ABI,2017-04-01 17:35,-99.6819,32.4113,M,M,M,160.00,15.00,M,29.87,M,10.00,M,OVC,M,M,M,1600.00,M,M,M,M,KABI 011735Z AUTO 16015KT 10SM OVC016 A2987 RMK MADISHF
ABI,2017-04-01 17:40,-99.6819,32.4113,M,M,M,150.00,12.00,M,29.87,M,10.00,M,OVC,M,M,M,1600.00,M,M,M,M,KABI 011740Z AUTO 15012KT 10SM OVC016 A2987 RMK MADISHF
ABI,2017-04-01 17:45,-99.6819,32.4113,M,M,M,140.00,14.00,M,29.87,M,10.00,M,OVC,M,M,M,1600.00,M,M,M,M,KABI 011745Z AUTO 14014KT 10SM OVC016 A2987 RMK MADISHF
ABI,2017-04-01 17:50,-99.6819,32.4113,M,M,M,140.00,14.00,M,29.87,M,10.00,M,OVC,M,M,M,1600.00,M,M,M,M,KABI 011750Z AUTO 14014KT 10SM OVC016 A2987 RMK MADISHF
ABI,2017-04-01 17:52,-99.6819,32.4113,64.90,59.00,81.19,130.00,16.00,0.00,29.87,1009.60,10.00,M,OVC,M,M,M,1600.00,M,M,M,M,KABI 011752Z 13016KT 10SM OVC016 18/15 A2987 RMK AO2 SLP096 T01830150 10183 20139 50007 $
ABI,2017-04-01 17:55,-99.6819,32.4113,M,M,M,130.00,17.00,M,29.87,M,10.00,M,OVC,M,M,M,1600.00,M,M,M,M,KABI 011755Z AUTO 13017KT 10SM OVC016 A2987 RMK MADISHF
ABI,2017-04-01 18:00,-99.6819,32.4113,M,M,M,140.00,15.00,M,29.87,M,10.00,M,OVC,M,M,M,1400.00,M,M,M,M,KABI 011800Z AUTO 14015KT 10SM OVC014 A2987 RMK MADISHF
ABI,2017-04-01 18:04,-99.6819,32.4113,64.00,59.00,83.78,140.00,15.00,0.00,29.87,M,10.00,M,OVC,M,M,M,1400.00,M,M,M,M,KABI 011804Z 14015KT 10SM OVC014 18/15 A2987 RMK AO2 T01780150 $
ABI,2017-04-01 18:05,-99.6819,32.4113,M,M,M,140.00,13.00,M,29.87,M,10.00,M,OVC,M,M,M,1400.00,M,M,M,M,KABI 011805Z AUTO 14013KT 10SM OVC014 A2987 RMK MADISHF
ABI,2017-04-01 18:10,-99.6819,32.4113,M,M,M,140.00,16.00,M,29.87,M,10.00,M,OVC,M,M,M,1400.00,M,M,M,M,KABI 011810Z AUTO 14016KT 10SM OVC014 A2987 RMK MADISHF
ABI,2017-04-01 18:15,-99.6819,32.4113,M,M,M,140.00,17.00,M,29.87,M,10.00,M,OVC,M,M,M,1400.00,M,M,M,M,KABI 011815Z AUTO 14017KT 10SM OVC014 A2987 RMK MADISHF
ABI,2017-04-01 18:20,-99.6819,32.4113,M,M,M,140.00,14.00,M,29.87,M,10.00,M,OVC,M,M,M,1300.00,M,M,M,M,KABI 011820Z AUTO 14014KT 10SM OVC013 A2987 RMK MADISHF
ABI,2017-04-01 18:25,-99.6819,32.4113,M,M,M,130.00,15.00,M,29.86,M,10.00,M,OVC,M,M,M,1300.00,M,M,M,M,KABI 011825Z AUTO 13015KT 10SM OVC013 A2986 RMK MADISHF
ABI,2017-04-01 18:30,-99.6819,32.4113,M,M,M,140.00,14.00,M,29.86,M,10.00,M,OVC,M,M,M,1300.00,M,M,M,M,KABI 011830Z AUTO 14014KT 10SM OVC013 A2986 RMK MADISHF
ABI,2017-04-01 18:35,-99.6819,32.4113,M,M,M,150.00,13.00,M,29.86,M,10.00,M,OVC,M,M,M,1300.00,M,M,M,M,KABI 011835Z AUTO 15013KT 10SM OVC013 A2986 RMK MADISHF
ABI,2017-04-01 18:40,-99.6819,32.4113,M,M,M,140.00,13.00,M,29.86,M,10.00,M,OVC,M,M,M,1500.00,M,M,M,M,KABI 011840Z AUTO 14013KT 10SM OVC015 A2986 RMK MADISHF
ABI,2017-04-01 18:43,-99.6819,32.4113,66.00,60.10,81.27,150.00,14.00,0.00,29.86,M,10.00,M,OVC,M,M,M,1500.00,M,M,M,M,KABI 011843Z 15014KT 10SM OVC015 19/16 A2986 RMK AO2 T01890156 $
ABI,2017-04-01 18:45,-99.6819,32.4113,M,M,M,150.00,12.00,M,29.86,M,10.00,M,OVC,M,M,M,1500.00,M,M,M,M,KABI 011845Z AUTO 15012KT 10SM OVC015 A2986 RMK MADISHF
ABI,2017-04-01 18:50,-99.6819,32.4113,M,M,M,150.00,13.00,M,29.86,M,10.00,M,OVC,M,M,M,1500.00,M,M,M,M,KABI 011850Z AUTO 15013KT 10SM OVC015 A2986 RMK MADISHF
ABI,2017-04-01 18:52,-99.6819,32.4113,66.00,60.10,81.27,150.00,15.00,0.00,29.86,1009.20,10.00,M,OVC,M,M,M,1500.00,M,M,M,M,KABI 011852Z 15015KT 10SM OVC015 19/16 A2986 RMK AO2 SLP092 T01890156 $
ABI,2017-04-01 18:55,-99.6819,32.4113,M,M,M,150.00,13.00,M,29.86,M,10.00,M,OVC,M,M,M,1699.00,M,M,M,M,KABI 011855Z AUTO 15013KT 10SM OVC016 A2986 RMK MADISHF
ABI,2017-04-01 19:00,-99.6819,32.4113,M,M,M,150.00,12.00,M,29.86,M,10.00,M,OVC,M,M,M,1699.00,M,M,M,M,KABI 011900Z AUTO 15012KT 10SM OVC016 A2986 RMK MADISHF
ABI,2017-04-01 19:05,-99.6819,32.4113,M,M,M,160.00,11.00,M,29.86,M,10.00,M,OVC,M,M,M,1699.00,M,M,M,M,KABI 011905Z AUTO 16011KT 10SM OVC016 A2986 RMK MADISHF
ABI,2017-04-01 19:10,-99.6819,32.4113,M,M,M,150.00,11.00,M,29.86,M,10.00,M,OVC,M,M,M,1699.00,M,M,M,M,KABI 011910Z AUTO 15011KT 10SM OVC016 A2986 RMK MADISHF
ABI,2017-04-01 19:15,-99.6819,32.4113,M,M,M,150.00,13.00,M,29.85,M,10.00,M,OVC,M,M,M,1600.00,M,M,M,M,KABI 011915Z AUTO 15013KT 10SM OVC016 A2985 RMK MADISHF
ABI,2017-04-01 19:20,-99.6819,32.4113,M,M,M,160.00,9.00,M,29.85,M,10.00,M,OVC,M,M,M,1600.00,M,M,M,M,KABI 011920Z AUTO 16009KT 10SM OVC016 A2985 RMK MADISHF
ABI,2017-04-01 19:25,-99.6819,32.4113,M,M,M,140.00,13.00,M,29.85,M,10.00,M,OVC,M,M,M,1600.00,M,M,M,M,KABI 011925Z AUTO 14013KT 10SM OVC016 A2985 RMK MADISHF
ABI,2017-04-01 19:30,-99.6819,32.4113,M,M,M,150.00,11.00,M,29.85,M,10.00,M,OVC,M,M,M,1600.00,M,M,M,M,KABI 011930Z AUTO 15011KT 10SM OVC016 A2985 RMK MADISHF
ABI,2017-04-01 19:35,-99.6819,32.4113,M,M,M,150.00,11.00,M,29.85,M,10.00,M,OVC,M,M,M,1600.00,M,M,M,M,KABI 011935Z AUTO 15011KT 10SM OVC016 A2985 RMK MADISHF
ABI,2017-04-01 19:40,-99.6819,32.4113,M,M,M,150.00,11.00,M,29.85,M,10.00,M,OVC,M,M,M,1600.00,M,M,M,M,KABI 011940Z AUTO 15011KT 10SM OVC016 A2985 RMK MADISHF
ABI,2017-04-01 19:45,-99.6819,32.4113,M,M,M,140.00,9.00,M,29.85,M,10.00,M,OVC,M,M,M,1600.00,M,M,M,M,KABI 011945Z AUTO 14009KT 10SM OVC016 A2985 RMK MADISHF
ABI,2017-04-01 19:50,-99.6819,32.4113,M,M,M,140.00,10.00,M,29.85,M,10.00,M,OVC,M,M,M,1800.00,M,M,M,M,KABI 011950Z AUTO 14010KT 10SM OVC018 A2985 RMK MADISHF
ABI,2017-04-01 19:52,-99.6819,32.4113,66.90,61.00,81.33,130.00,10.00,0.00,29.85,1009.10,10.00,M,OVC,M,M,M,1800.00,M,M,M,M,KABI 011952Z 13010KT 10SM OVC018 19/16 A2985 RMK AO2 SLP091 T01940161 $
ABI,2017-04-01 19:55,-99.6819,32.4113,M,M,M,130.00,12.00,M,29.85,M,10.00,M,OVC,M,M,M,1800.00,M,M,M,M,KABI 011955Z AUTO 13012KT 10SM OVC018 A2985 RMK MADISHF
ABI,2017-04-01 20:00,-99.6819,32.4113,M,M,M,120.00,12.00,M,29.85,M,10.00,M,OVC,M,M,M,1800.00,M,M,M,M,KABI 012000Z AUTO 12012KT 10SM OVC018 A2985 RMK MADISHF
ABI,2017-04-01 20:05,-99.6819,32.4113,M,M,M,140.00,12.00,M,29.85,M,10.00,M,OVC,M,M,M,1900.00,M,M,M,M,KABI 012005Z AUTO 14012KT 10SM OVC019 A2985 RMK MADISHF
ABI,2017-04-01 20:10,-99.6819,32.4113,M,M,M,120.00,13.00,M,29.85,M,10.00,M,BKN,OVC,M,M,1900.00,2600.00,M,M,M,KABI 012010Z AUTO 12013KT 10SM BKN019 OVC026 A2985 RMK MADISHF
ABI,2017-04-01 20:15,-99.6819,32.4113,M,M,M,140.00,11.00,M,29.85,M,10.00,M,OVC,M,M,M,1699.00,M,M,M,M,KABI 012015Z AUTO 14011KT 10SM OVC016 A2985 RMK MADISHF
ABI,2017-04-01 20:20,-99.6819,32.4113,M,M,M,120.00,11.00,M,29.85,M,10.00,M,BKN,OVC,M,M,1699.00,2300.00,M,M,M,KABI 012020Z AUTO 12011KT 10SM BKN016 OVC023 A2985 RMK MADISHF
ABI,2017-04-01 20:25,-99.6819,32.4113,M,M,M,130.00,13.00,M,29.85,M,10.00,M,BKN,OVC,M,M,1699.00,2100.00,M,M,M,KABI 012025Z AUTO 13013KT 10SM BKN016 OVC021 A2985 RMK MADISHF
ABI,2017-04-01 20:30,-99.6819,32.4113,M,M,M,120.00,10.00,M,29.84,M,10.00,M,BKN,OVC,M,M,1500.00,2100.00,M,M,M,KABI 012030Z AUTO 12010KT 10SM BKN015 OVC021 A2984 RMK MADISHF
ABI,2017-04-01 20:35,-99.6819,32.4113,M,M,M,120.00,11.00,M,29.84,M,10.00,M,OVC,M,M,M,1500.00,M,M,M,M,KABI 012035Z AUTO 12011KT 10SM OVC015 A2984 RMK MADISHF
ABI,2017-04-01 20:40,-99.6819,32.4113,M,M,M,120.00,11.00,M,29.84,M,10.00,M,BKN,OVC,M,M,1500.00,1999.00,M,M,M,KABI 012040Z AUTO 12011KT 10SM BKN015 OVC019 A2984 RMK MADISHF
ABI,2017-04-01 20:45,-99.6819,32.4113,M,M,M,120.00,14.00,M,29.84,M,10.00,M,OVC,M,M,M,1699.00,M,M,M,M,KABI 012045Z AUTO 12014KT 10SM OVC016 A2984 RMK MADISHF
ABI,2017-04-01 20:50,-99.6819,32.4113,M,M,M,120.00,13.00,M,29.83,M,10.00,M,BKN,OVC,M,M,1500.00,2100.00,M,M,M,KABI 012050Z AUTO 12013KT 10SM BKN015 OVC021 A2983 RMK MADISHF
ABI,2017-04-01 20:52,-99.6819,32.4113,68.00,62.10,81.41,130.00,13.00,0.00,29.83,1008.50,10.00,M,BKN,OVC,M,M,1500.00,2100.00,M,M,M,KABI 012052Z 13013KT 10SM BKN015 OVC021 20/17 A2983 RMK AO2 SLP085 T02000167 58012 $
ABI,2017-04-01 20:55,-99.6819,32.4113,M,M,M,110.00,14.00,M,29.83,M,10.00,M,BKN,OVC,M,M,1699.00,2100.00,M,M,M,KABI 012055Z AUTO 11014KT 10SM BKN016 OVC021 A2983 RMK MADISHF
ABI,2017-04-01 21:00,-99.6819,32.4113,M,M,M,120.00,14.00,M,29.83,M,10.00,M,BKN,OVC,M,M,1699.00,2200.00,M,M,M,KABI 012100Z AUTO 12014KT 10SM BKN016 OVC022 A2983 RMK MADISHF
ABI,2017-04-01 21:05,-99.6819,32.4113,M,M,M,120.00,13.00,M,29.83,M,10.00,M,BKN,BKN,BKN,M,1699.00,2100.00,3700.00,M,M,KABI 012105Z AUTO 12013KT 10SM BKN016 BKN021 BKN037 A2983 RMK MADISHF
ABI,2017-04-01 21:10,-99.6819,32.4113,M,M,M,130.00,14.00,M,29.83,M,10.00,M,BKN,M,M,M,1699.00,M,M,M,M,KABI 012110Z AUTO 13014KT 10SM BKN016 A2983 RMK MADISHF
ABI,2017-04-01 21:15,-99.6819,32.4113,M,M,M,120.00,11.00,M,29.83,M,10.00,M,SCT,SCT,BKN,M,1699.00,2100.00,3800.00,M,M,KABI 012115Z AUTO 12011KT 10SM SCT016 SCT021 BKN038 A2983 RMK MADISHF
ABI,2017-04-01 21:20,-99.6819,32.4113,M,M,M,130.00,14.00,M,29.83,M,10.00,M,FEW,BKN,M,M,1699.00,3800.00,M,M,M,KABI 012120Z AUTO 13014KT 10SM FEW016 BKN038 A2983 RMK MADISHF
ABI,2017-04-01 21:21,-99.6819,32.4113,69.10,62.10,78.39,140.00,13.00,0.00,29.83,M,10.00,M,FEW,BKN,M,M,1700.00,3800.00,M,M,M,KABI 012121Z 14013KT 10SM FEW017 BKN038 21/17 A2983 RMK AO2 T02060167 $
ABI,2017-04-01 21:25,-99.6819,32.4113,M,M,M,120.00,12.00,M,29.83,M,10.00,M,FEW,BKN,M,M,1500.00,3900.00,M,M,M,KABI 012125Z AUTO 12012KT 10SM FEW015 BKN039 A2983 RMK MADISHF
ABI,2017-04-01 21:30,-99.6819,32.4113,M,M,M,130.00,11.00,M,29.83,M,10.00,M,FEW,BKN,M,M,1500.00,3900.00,M,M,M,KABI 012130Z AUTO 13011KT 10SM FEW015 BKN039 A2983 RMK MADISHF
ABI,2017-04-01 21:35,-99.6819,32.4113,M,M,M,130.00,12.00,M,29.83,M,10.00,M,FEW,BKN,M,M,1500.00,3900.00,M,M,M,KABI 012135Z AUTO 13012KT 10SM FEW015 BKN039 A2983 RMK MADISHF
ABI,2017-04-01 21:40,-99.6819,32.4113,M,M,M,110.00,12.00,M,29.83,M,10.00,M,FEW,OVC,M,M,1500.00,3900.00,M,M,M,KABI 012140Z AUTO 11012KT 10SM FEW015 OVC039 A2983 RMK MADISHF
ABI,2017-04-01 21:45,-99.6819,32.4113,M,M,M,120.00,13.00,M,29.83,M,10.00,M,SCT,OVC,M,M,1500.00,3900.00,M,M,M,KABI 012145Z AUTO 12013KT 10SM SCT015 OVC039 A2983 RMK MADISHF
ABI,2017-04-01 21:50,-99.6819,32.4113,M,M,M,110.00,11.00,M,29.83,M,10.00,M,SCT,OVC,M,M,1500.00,3900.00,M,M,M,KABI 012150Z AUTO 11011KT 10SM SCT015 OVC039 A2983 RMK MADISHF
ABI,2017-04-01 21:52,-99.6819,32.4113,68.00,61.00,78.30,120.00,11.00,0.00,29.83,1008.60,10.00,M,BKN,OVC,M,M,1500.00,3900.00,M,M,M,KABI 012152Z 12011KT 10SM BKN015 OVC039 20/16 A2983 RMK AO2 SLP086 T02000161 $
ABI,2017-04-01 21:55,-99.6819,32.4113,M,M,M,130.00,12.00,M,29.83,M,10.00,M,BKN,OVC,M,M,1500.00,3900.00,M,M,M,KABI 012155Z AUTO 13012KT 10SM BKN015 OVC039 A2983 RMK MADISHF
ABI,2017-04-01 22:00,-99.6819,32.4113,M,M,M,110.00,12.00,M,29.83,M,10.00,M,BKN,OVC,M,M,1400.00,3999.00,M,M,M,KABI 012200Z AUTO 11012KT 10SM BKN014 OVC039 A2983 RMK MADISHF
ABI,2017-04-01 22:04,-99.6819,32.4113,68.00,62.10,81.41,110.00,12.00,0.00,29.83,M,10.00,M,BKN,BKN,M,M,1400.00,4000.00,M,M,M,KABI 012204Z 11012KT 10SM BKN014 BKN040 20/17 A2983 RMK AO2 T02000167 $
ABI,2017-04-01 22:05,-99.6819,32.4113,M,M,M,120.00,13.00,M,29.84,M,10.00,M,BKN,BKN,M,M,1400.00,3999.00,M,M,M,KABI 012205Z AUTO 12013KT 10SM BKN014 BKN039 A2984 RMK MADISHF
ABI,2017-04-01 22:10,-99.6819,32.4113,M,M,M,120.00,12.00,M,29.84,M,10.00,M,BKN,BKN,M,M,1400.00,3999.00,M,M,M,KABI 012210Z AUTO 12012KT 10SM BKN014 BKN039 A2984 RMK MADISHF
ABI,2017-04-01 22:15,-99.6819,32.4113,M,M,M,120.00,13.00,M,29.83,M,10.00,M,BKN,M,M,M,1400.00,M,M,M,M,KABI 012215Z AUTO 12013KT 10SM BKN014 A2983 RMK MADISHF
ABI,2017-04-01 22:20,-99.6819,32.4113,M,M,M,M,M,M,29.83,M,10.00,M,BKN,M,M,M,1400.00,M,M,M,M,KABI 012220Z AUTO /////KT 10SM BKN014 A2983 RMK MADISHF
ABI,2017-04-01 22:25,-99.6819,32.4113,M,M,M,90.00,12.00,M,29.83,M,10.00,M,BKN,M,M,M,1400.00,M,M,M,M,KABI 012225Z AUTO 09012KT 10SM BKN014 A2983 RMK MADISHF
ABI,2017-04-01 22:30,-99.6819,32.4113,M,M,M,120.00,12.00,M,29.84,M,10.00,M,BKN,M,M,M,1400.00,M,M,M,M,KABI 012230Z AUTO 12012KT 10SM BKN014 A2984 RMK MADISHF
ABI,2017-04-01 22:35,-99.6819,32.4113,M,M,M,100.00,10.00,M,29.84,M,10.00,M,BKN,M,M,M,1400.00,M,M,M,M,KABI 012235Z AUTO 10010KT 10SM BKN014 A2984 RMK MADISHF
ABI,2017-04-01 22:40,-99.6819,32.4113,M,M,M,100.00,10.00,M,29.84,M,10.00,M,BKN,M,M,M,1600.00,M,M,M,M,KABI 012240Z AUTO 10010KT 10SM BKN016 A2984 RMK MADISHF
ABI,2017-04-01 22:45,-99.6819,32.4113,68.00,61.00,78.30,70.00,9.00,0.00,29.85,M,10.00,M,BKN,M,M,M,1600.00,M,M,M,M,KABI 012245Z 07009KT 10SM BKN016 20/16 A2985 RMK AO2 T02000161 $
ABI,2017-04-01 22:50,-99.6819,32.4113,M,M,M,70.00,9.00,M,29.84,M,10.00,M,OVC,M,M,M,1600.00,M,M,M,M,KABI 012250Z AUTO 07009KT 10SM OVC016 A2984 RMK  LTG DSNT NW! MADISHF
ABI,2017-04-01 22:52,-99.6819,32.4113,68.00,61.00,78.30,100.00,7.00,0.00,29.85,1009.20,10.00,M,OVC,M,M,M,1800.00,M,M,M,M,KABI 012252Z 10007KT 10SM OVC018 20/16 A2985 RMK AO2 SLP092 T02000161 $
ABI,2017-04-01 22:55,-99.6819,32.4113,M,M,M,80.00,8.00,M,29.86,M,10.00,M,OVC,M,M,M,1800.00,M,M,M,M,KABI 012255Z AUTO 08008KT 10SM OVC018 A2986 RMK  LTG DSNT NW! MADISHF
ABI,2017-04-01 23:00,-99.6819,32.4113,M,M,M,90.00,7.00,M,29.86,M,10.00,M,BKN,OVC,M,M,1800.00,2500.00,M,M,M,KABI 012300Z AUTO 09007KT 10SM BKN018 OVC025 A2986 RMK  LTG DSNT NW! MADISHF
ABI,2017-04-01 23:05,-99.6819,32.4113,M,M,M,M,M,M,29.87,M,10.00,20.00,BKN,OVC,M,M,1999.00,2500.00,M,M,M,KABI 012305Z AUTO /////G20KT 10SM BKN019 OVC025 A2987 RMK WND 31V01  MADISHF
ABI,2017-04-01 23:10,-99.6819,32.4113,M,M,M,M,M,M,29.88,M,10.00,M,BKN,OVC,M,M,1699.00,2300.00,M,M,M,KABI 012310Z AUTO /////KT 10SM BKN016 OVC023 A2988 RMK  LTG DSNT NW! MADISHF
ABI,2017-04-01 23:15,-99.6819,32.4113,M,M,M,M,M,M,29.87,M,10.00,M,BKN,OVC,M,M,1699.00,2300.00,M,M,M,KABI 012315Z AUTO /////KT 10SM BKN016 OVC023 A2987 RMK  LTG DSNT NW! MADISHF
ABI,2017-04-01 23:20,-99.6819,32.4113,M,M,M,M,M,M,29.88,M,10.00,M,BKN,OVC,M,M,1699.00,2300.00,M,M,M,KABI 012320Z AUTO /////KT 10SM BKN016 OVC023 A2988 RMK  LTG DSNT NW! MADISHF
ABI,2017-04-01 23:25,-99.6819,32.4113,55.90,53.10,90.29,360.00,19.00,0.00,29.88,M,10.00,26.00,BKN,BKN,OVC,M,1400.00,1900.00,2300.00,M,M,KABI 012325Z 36019G26KT 10SM BKN014 BKN019 OVC023 13/12 A2988 RMK AO2 PK WND 36026/2321 WSHFT 2305 T01330117 $
ABI,2017-04-01 23:30,-99.6819,32.4113,M,M,M,M,M,M,29.88,M,10.00,M,OVC,M,M,M,1400.00,M,M,M,M,KABI 012330Z AUTO /////KT 10SM OVC014 A2988 RMK MADISHF
ABI,2017-04-01 23:35,-99.6819,32.4113,M,M,M,M,M,M,29.88,M,10.00,M,OVC,M,M,M,1400.00,M,M,M,M,KABI 012335Z AUTO /////KT 10SM OVC014 A2988 RMK  LTG DSNT NW! MADISHF
ABI,2017-04-01 23:40,-99.6819,32.4113,M,M,M,M,M,M,29.89,M,10.00,M,FEW,OVC,M,M,900.00,1400.00,M,M,M,KABI 012340Z AUTO /////KT 10SM FEW009 OVC014 A2989 RMK  LTG DSNT NW! MADISHF
ABI,2017-04-01 23:45,-99.6819,32.4113,M,M,M,M,M,M,29.89,M,10.00,M,SCT,OVC,M,M,900.00,1400.00,M,M,M,KABI 012345Z AUTO /////KT 10SM SCT009 OVC014 A2989 RMK  LTG DSNT SW AND NW! MADISHF
ABI,2017-04-01 23:50,-99.6819,32.4113,M,M,M,M,M,M,29.88,M,10.00,M,BKN,OVC,M,M,900.00,1400.00,M,M,M,KABI 012350Z AUTO /////KT 10SM BKN009 OVC014 A2988 RMK  LTG DSNT SW AND W! MADISHF
ABI,2017-04-01 23:52,-99.6819,32.4113,54.00,52.00,92.92,340.00,22.00,0.00,29.88,1010.70,10.00,M,BKN,OVC,M,M,900.00,1400.00,M,M,M,KABI 012352Z 34022KT 10SM BKN009 OVC014 12/11 A2988 RMK AO2 PK WND 34026/2350 WSHFT 2305 SLP107 T01220111 10206 20122 53015 $
ABI,2017-04-01 23:55,-99.6819,32.4113,M,M,M,M,M,M,29.88,M,10.00,M,BKN,OVC,M,M,800.00,1400.00,M,M,M,KABI 012355Z AUTO /////KT 10SM BKN008 OVC014 A2988 RMK  LTG DSNT SW AND W! MADISHF
