#DEBUG: Format Typ    -> comma
#DEBUG: Time Period   -> 2017-04-01 00:00:00+00:00 2017-04-02 00:00:00+00:00
#DEBUG: Time Zone     -> Etc/UTC
#DEBUG: Data Contact   -> daryl herzmann akrherz@iastate.edu 515-294-5978
#DEBUG: Entries Found -> -1
station,valid,lon,lat,tmpf, dwpf, relh, drct, sknt, p01i, alti, mslp, vsby, gust, skyc1, skyc2, skyc3, skyc4, skyl1, skyl2, skyl3, skyl4, presentwx, metar
ABQ,2017-04-01 00:00,-106.6155,35.0419,M,M,M,M,M,M,29.69,M,10.00,M,OVC,M,M,M,9500.00,M,M,M,M,KABQ 010000Z AUTO /////KT 10SM OVC095 A2969 RMK MADISHF
ABQ,2017-04-01 00:05,-106.6155,35.0419,M,M,M,M,M,M,29.69,M,10.00,M,OVC,M,M,M,9500.00,M,M,M,M,KABQ 010005Z AUTO /////KT 10SM OVC095 A2969 RMK MADISHF
ABQ,2017-04-01 00:10,-106.6155,35.0419,M,M,M,M,M,M,29.70,M,10.00,M,OVC,M,M,M,9500.00,M,M,M,M,KABQ 010010Z AUTO /////KT 10SM OVC095 A2970 RMK MADISHF
ABQ,2017-04-01 00:15,-106.6155,35.0419,M,M,M,M,M,M,29.70,M,10.00,M,OVC,M,M,M,9500.00,M,M,M,M,KABQ 010015Z AUTO /////KT 10SM OVC095 A2970 RMK MADISHF
ABQ,2017-04-01 00:20,-106.6155,35.0419,M,M,M,M,M,M,29.70,M,10.00,M,FEW,BKN,M,M,7000.00,10000.00,M,M,M,KABQ 010020Z AUTO /////KT 10SM FEW070 BKN100 A2970 RMK  VIRGA ALQDS MADISHF
ABQ,2017-04-01 00:23,-106.6155,35.0419,53.10,25.00,33.34,310.00,10.00,0.00,29.71,M,10.00,M,FEW,BKN,BKN,M,7000.00,10000.00,15000.00,M,M,KABQ 010023Z 31010KT 10SM FEW070 BKN100 BKN150 12/M04 A2971 RMK AO2 WSHFT 0003 VIRGA ALQDS T01171039
ABQ,2017-04-01 00:25,-106.6155,35.0419,M,M,M,300.00,11.00,M,29.72,M,10.00,M,FEW,BKN,M,M,7000.00,10000.00,M,M,M,KABQ 010025Z AUTO 30011KT 10SM FEW070 BKN100 A2972 RMK  VIRGA ALQDS MADISHF
ABQ,2017-04-01 00:30,-106.6155,35.0419,M,M,M,M,M,M,29.72,M,10.00,M,FEW,BKN,M,M,7000.00,10000.00,M,M,M,KABQ 010030Z AUTO /////KT 10SM FEW070 BKN100 A2972 RMK  VIRGA ALQDS MADISHF
ABQ,2017-04-01 00:35,-106.6155,35.0419,M,M,M,M,M,M,29.73,M,10.00,M,FEW,BKN,M,M,7000.00,10000.00,M,M,M,KABQ 010035Z AUTO /////KT 10SM FEW070 BKN100 A2973 RMK  VIRGA ALQDS MADISHF
ABQ,2017-04-01 00:40,-106.6155,35.0419,M,M,M,M,M,M,29.75,M,10.00,M,FEW,BKN,M,M,7000.00,10000.00,M,M,M,KABQ 010040Z AUTO /////KT 10SM FEW070 BKN100 A2975 RMK  VIRGA ALQDS MADISHF
ABQ,2017-04-01 00:45,-106.6155,35.0419,M,M,M,M,M,M,29.76,M,10.00,M,FEW,BKN,M,M,7000.00,10000.00,M,M,M,KABQ 010045Z AUTO /////KT 10SM FEW070 BKN100 A2976 RMK  VIRGA ALQDS MADISHF
ABQ,2017-04-01 00:50,-106.6155,35.0419,M,M,M,290.00,26.00,M,29.76,M,10.00,M,FEW,SCT,M,M,7000.00,10000.00,M,M,M,KABQ 010050Z AUTO 29026KT 10SM FEW070 SCT100 A2976 RMK  VIRGA ALQDS MADISHF
ABQ,2017-04-01 00:52,-106.6155,35.0419,48.90,21.00,32.93,290.00,23.00,0.00,29.76,1003.50,10.00,34.00,FEW,SCT,BKN,M,7000.00,10000.00,15000.00,M,M,KABQ 010052Z 29023G34KT 10SM FEW070 SCT100 BKN150 09/M06 A2976 RMK AO2 PK WND 28036/0036 WSHFT 0003 SLP035 VIRGA ALQDS T00941061
ABQ,2017-04-01 00:55,-106.6155,35.0419,M,M,M,M,M,M,29.76,M,10.00,M,FEW,FEW,M,M,9000.00,12000.00,M,M,M,KABQ 010055Z AUTO /////KT 10SM FEW090 FEW120 A2976 RMK MADISHF
ABQ,2017-04-01 01:00,-106.6155,35.0419,M,M,M,M,M,M,29.76,M,10.00,M,FEW,M,M,M,5000.00,M,M,M,M,KABQ 010100Z AUTO /////KT 10SM FEW050 A2976 RMK MADISHF
ABQ,2017-04-01 01:05,-106.6155,35.0419,M,M,M,M,M,M,29.77,M,10.00,M,FEW,M,M,M,5000.00,M,M,M,M,KABQ 010105Z AUTO /////KT 10SM FEW050 A2977 RMK MADISHF
ABQ,2017-04-01 01:10,-106.6155,35.0419,M,M,M,M,M,M,29.77,M,10.00,M,CLR,M,M,M,M,M,M,M,M,KABQ 010110Z AUTO /////KT 10SM CLR A2977 RMK MADISHF
ABQ,2017-04-01 01:15,-106.6155,35.0419,M,M,M,M,M,M,29.77,M,10.00,M,FEW,M,M,M,9000.00,M,M,M,M,KABQ 010115Z AUTO /////KT 10SM FEW090 A2977 RMK MADISHF
ABQ,2017-04-01 01:20,-106.6155,35.0419,M,M,M,340.00,13.00,M,29.78,M,10.00,M,FEW,M,M,M,9000.00,M,M,M,M,KABQ 010120Z AUTO 34013KT 10SM FEW090 A2978 RMK MADISHF
ABQ,2017-04-01 01:25,-106.6155,35.0419,M,M,M,M,M,M,29.78,M,10.00,M,SCT,M,M,M,9000.00,M,M,M,M,KABQ 010125Z AUTO /////KT 10SM SCT090 A2978 RMK MADISHF
ABQ,2017-04-01 01:30,-106.6155,35.0419,M,M,M,330.00,16.00,M,29.79,M,10.00,M,FEW,BKN,M,M,6500.00,10000.00,M,M,M,KABQ 010130Z AUTO 33016KT 10SM FEW065 BKN100 A2979 RMK  VIRGA MADISHF
ABQ,2017-04-01 01:31,-106.6155,35.0419,46.00,30.00,53.37,330.00,15.00,0.00,29.79,M,10.00,24.00,FEW,BKN,BKN,M,6500.00,10000.00,16000.00,M,M,KABQ 010131Z 33015G24KT 10SM FEW065 BKN100 BKN160 08/M01 A2979 RMK AO2 PK WND 29032/0058 WSHFT 0111 VIRGA T00781011
ABQ,2017-04-01 01:35,-106.6155,35.0419,M,M,M,M,M,M,29.80,M,10.00,M,FEW,BKN,M,M,6500.00,10000.00,M,M,M,KABQ 010135Z AUTO /////KT 10SM FEW065 BKN100 A2980 RMK  VIRGA MADISHF
ABQ,2017-04-01 01:40,-106.6155,35.0419,M,M,M,330.00,16.00,M,29.81,M,10.00,M,FEW,BKN,M,M,6500.00,10000.00,M,M,M,KABQ 010140Z AUTO 33016KT 10SM FEW065 BKN100 A2981 RMK  VIRGA MADISHF
ABQ,2017-04-01 01:45,-106.6155,35.0419,M,M,M,330.00,15.00,M,29.82,M,10.00,M,FEW,BKN,M,M,6500.00,10000.00,M,M,M,KABQ 010145Z AUTO 33015KT 10SM FEW065 BKN100 A2982 RMK  VIRGA MADISHF
ABQ,2017-04-01 01:50,-106.6155,35.0419,M,M,M,330.00,16.00,M,29.82,M,10.00,M,FEW,BKN,M,M,6500.00,9000.00,M,M,M,KABQ 010150Z AUTO 33016KT 10SM FEW065 BKN090 A2982 RMK  VIRGA MADISHF
ABQ,2017-04-01 01:52,-106.6155,35.0419,45.00,30.90,57.50,330.00,16.00,0.00,29.83,1006.30,10.00,25.00,FEW,BKN,BKN,M,6500.00,9000.00,16000.00,M,M,KABQ 010152Z 33016G25KT 10SM FEW065 BKN090 BKN160 07/M01 A2983 RMK AO2 PK WND 29032/0058 WSHFT 0111 PRESRR SLP063 VIRGA T00721006
ABQ,2017-04-01 01:55,-106.6155,35.0419,M,M,M,M,M,M,29.83,M,10.00,M,SCT,OVC,M,M,7500.00,9000.00,M,M,M,KABQ 010155Z AUTO /////KT 10SM SCT075 OVC090 A2983 RMK MADISHF
ABQ,2017-04-01 02:00,-106.6155,35.0419,M,M,M,340.00,12.00,M,29.83,M,10.00,M,OVC,M,M,M,8500.00,M,M,M,M,KABQ 010200Z AUTO 34012KT 10SM OVC085 A2983 RMK MADISHF
ABQ,2017-04-01 02:05,-106.6155,35.0419,M,M,M,M,M,M,29.83,M,10.00,M,OVC,M,M,M,8500.00,M,M,M,M,KABQ 010205Z AUTO /////KT 10SM OVC085 A2983 RMK MADISHF
ABQ,2017-04-01 02:10,-106.6155,35.0419,M,M,M,340.00,12.00,M,29.84,M,10.00,M,OVC,M,M,M,9000.00,M,M,M,M,KABQ 010210Z AUTO 34012KT 10SM OVC090 A2984 RMK MADISHF
ABQ,2017-04-01 02:15,-106.6155,35.0419,M,M,M,M,M,M,29.84,M,10.00,M,OVC,M,M,M,8500.00,M,M,M,M,KABQ 010215Z AUTO /////KT 10SM OVC085 A2984 RMK MADISHF
ABQ,2017-04-01 02:20,-106.6155,35.0419,M,M,M,M,M,M,29.84,M,10.00,M,OVC,M,M,M,8500.00,M,M,M,M,KABQ 010220Z AUTO /////KT 10SM OVC085 A2984 RMK MADISHF
ABQ,2017-04-01 02:25,-106.6155,35.0419,M,M,M,10.00,13.00,M,29.84,M,10.00,M,OVC,M,M,M,8500.00,M,M,M,M,KABQ 010225Z AUTO 01013KT 10SM OVC085 A2984 RMK MADISHF
ABQ,2017-04-01 02:30,-106.6155,35.0419,M,M,M,10.00,14.00,M,29.84,M,10.00,M,OVC,M,M,M,8500.00,M,M,M,M,KABQ 010230Z AUTO 01014KT 10SM OVC085 A2984 RMK MADISHF
ABQ,2017-04-01 02:35,-106.6155,35.0419,M,M,M,360.00,12.00,M,29.85,M,10.00,M,OVC,M,M,M,8500.00,M,M,M,M,KABQ 010235Z AUTO 36012KT 10SM OVC085 A2985 RMK MADISHF
ABQ,2017-04-01 02:40,-106.6155,35.0419,M,M,M,350.00,11.00,M,29.85,M,10.00,M,OVC,M,M,M,7999.00,M,M,M,M,KABQ 010240Z AUTO 35011KT 10SM OVC079 A2985 RMK MADISHF
ABQ,2017-04-01 02:45,-106.6155,35.0419,M,M,M,350.00,10.00,M,29.85,M,10.00,M,OVC,M,M,M,7999.00,M,M,M,M,KABQ 010245Z AUTO 35010KT 10SM OVC079 A2985 RMK MADISHF
ABQ,2017-04-01 02:50,-106.6155,35.0419,M,M,M,360.00,10.00,M,29.85,M,10.00,M,FEW,BKN,M,M,5500.00,7999.00,M,M,M,KABQ 010250Z AUTO 36010KT 10SM FEW055 BKN079 A2985 RMK  VIRGA MADISHF
ABQ,2017-04-01 02:52,-106.6155,35.0419,43.00,32.00,64.88,350.00,11.00,0.00,29.85,1007.10,10.00,18.00,FEW,BKN,BKN,M,5500.00,8000.00,15000.00,M,M,KABQ 010252Z 35011G18KT 10SM FEW055 BKN080 BKN150 06/00 A2985 RMK AO2 SLP071 VIRGA T00610000 51049
ABQ,2017-04-01 02:55,-106.6155,35.0419,M,M,M,360.00,11.00,M,29.85,M,10.00,M,BKN,OVC,M,M,7999.00,11000.00,M,M,M,KABQ 010255Z AUTO 36011KT 10SM BKN079 OVC110 A2985 RMK MADISHF
ABQ,2017-04-01 03:00,-106.6155,35.0419,M,M,M,10.00,11.00,M,29.85,M,10.00,M,BKN,OVC,M,M,7999.00,11000.00,M,M,M,KABQ 010300Z AUTO 01011KT 10SM BKN079 OVC110 A2985 RMK MADISHF
ABQ,2017-04-01 03:05,-106.6155,35.0419,M,M,M,20.00,13.00,M,29.86,M,10.00,M,SCT,OVC,M,M,7999.00,11000.00,M,M,M,KABQ 010305Z AUTO 02013KT 10SM SCT079 OVC110 A2986 RMK MADISHF
ABQ,2017-04-01 03:10,-106.6155,35.0419,M,M,M,M,M,M,29.86,M,10.00,M,FEW,OVC,M,M,8500.00,11000.00,M,M,M,KABQ 010310Z AUTO /////KT 10SM FEW085 OVC110 A2986 RMK MADISHF
ABQ,2017-04-01 03:15,-106.6155,35.0419,M,M,M,30.00,12.00,M,29.86,M,10.00,M,FEW,OVC,M,M,8500.00,11000.00,M,M,M,KABQ 010315Z AUTO 03012KT 10SM FEW085 OVC110 A2986 RMK MADISHF
ABQ,2017-04-01 03:20,-106.6155,35.0419,M,M,M,20.00,13.00,M,29.86,M,10.00,M,BKN,M,M,M,11000.00,M,M,M,M,KABQ 010320Z AUTO 02013KT 10SM BKN110 A2986 RMK MADISHF
ABQ,2017-04-01 03:25,-106.6155,35.0419,M,M,M,20.00,11.00,M,29.86,M,10.00,M,BKN,M,M,M,11000.00,M,M,M,M,KABQ 010325Z AUTO 02011KT 10SM BKN110 A2986 RMK MADISHF
ABQ,2017-04-01 03:30,-106.6155,35.0419,M,M,M,30.00,11.00,M,29.87,M,10.00,M,SCT,M,M,M,11000.00,M,M,M,M,KABQ 010330Z AUTO 03011KT 10SM SCT110 A2987 RMK MADISHF
ABQ,2017-04-01 03:35,-106.6155,35.0419,M,M,M,10.00,9.00,M,29.87,M,10.00,M,FEW,M,M,M,11000.00,M,M,M,M,KABQ 010335Z AUTO 01009KT 10SM FEW110 A2987 RMK MADISHF
ABQ,2017-04-01 03:40,-106.6155,35.0419,M,M,M,360.00,8.00,M,29.87,M,10.00,M,FEW,M,M,M,11000.00,M,M,M,M,KABQ 010340Z AUTO 36008KT 10SM FEW110 A2987 RMK MADISHF
ABQ,2017-04-01 03:45,-106.6155,35.0419,M,M,M,330.00,8.00,M,29.86,M,10.00,M,FEW,M,M,M,12000.00,M,M,M,M,KABQ 010345Z AUTO 33008KT 10SM FEW120 A2986 RMK MADISHF
ABQ,2017-04-01 03:50,-106.6155,35.0419,M,M,M,340.00,8.00,M,29.86,M,10.00,M,FEW,BKN,M,M,6500.00,10000.00,M,M,M,KABQ 010350Z AUTO 34008KT 10SM FEW065 BKN100 A2986 RMK  VIRGA MADISHF
ABQ,2017-04-01 03:52,-106.6155,35.0419,43.00,30.00,59.83,350.00,7.00,0.00,29.86,1007.40,10.00,M,FEW,BKN,BKN,M,6500.00,10000.00,16000.00,M,M,KABQ 010352Z 35007KT 10SM FEW065 BKN100 BKN160 06/M01 A2986 RMK AO2 SLP074 VIRGA T00611011
ABQ,2017-04-01 03:55,-106.6155,35.0419,M,M,M,350.00,8.00,M,29.87,M,10.00,M,FEW,M,M,M,12000.00,M,M,M,M,KABQ 010355Z AUTO 35008KT 10SM FEW120 A2987 RMK MADISHF
ABQ,2017-04-01 04:00,-106.6155,35.0419,M,M,M,340.00,7.00,M,29.87,M,10.00,M,FEW,M,M,M,12000.00,M,M,M,M,KABQ 010400Z AUTO 34007KT 10SM FEW120 A2987 RMK MADISHF
ABQ,2017-04-01 04:05,-106.6155,35.0419,M,M,M,340.00,6.00,M,29.87,M,10.00,M,CLR,M,M,M,M,M,M,M,M,KABQ 010405Z AUTO 34006KT 10SM CLR A2987 RMK MADISHF
ABQ,2017-04-01 04:10,-106.6155,35.0419,M,M,M,330.00,6.00,M,29.87,M,10.00,M,CLR,M,M,M,M,M,M,M,M,KABQ 010410Z AUTO 33006KT 10SM CLR A2987 RMK MADISHF
ABQ,2017-04-01 04:15,-106.6155,35.0419,M,M,M,340.00,7.00,M,29.87,M,10.00,M,CLR,M,M,M,M,M,M,M,M,KABQ 010415Z AUTO 34007KT 10SM CLR A2987 RMK MADISHF
ABQ,2017-04-01 04:20,-106.6155,35.0419,M,M,M,340.00,6.00,M,29.87,M,10.00,M,FEW,M,M,M,12000.00,M,M,M,M,KABQ 010420Z AUTO 34006KT 10SM FEW120 A2987 RMK MADISHF
ABQ,2017-04-01 04:25,-106.6155,35.0419,M,M,M,330.00,6.00,M,29.87,M,10.00,M,SCT,M,M,M,12000.00,M,M,M,M,KABQ 010425Z AUTO 33006KT 10SM SCT120 A2987 RMK MADISHF
ABQ,2017-04-01 04:30,-106.6155,35.0419,M,M,M,320.00,7.00,M,29.87,M,10.00,M,SCT,M,M,M,12000.00,M,M,M,M,KABQ 010430Z AUTO 32007KT 10SM SCT120 A2987 RMK MADISHF
ABQ,2017-04-01 04:35,-106.6155,35.0419,M,M,M,310.00,6.00,M,29.87,M,10.00,M,SCT,M,M,M,12000.00,M,M,M,M,KABQ 010435Z AUTO 31006KT 10SM SCT120 A2987 RMK MADISHF
ABQ,2017-04-01 04:40,-106.6155,35.0419,M,M,M,310.00,7.00,M,29.87,M,10.00,M,SCT,M,M,M,12000.00,M,M,M,M,KABQ 010440Z AUTO 31007KT 10SM SCT120 A2987 RMK MADISHF
ABQ,2017-04-01 04:45,-106.6155,35.0419,M,M,M,320.00,8.00,M,29.87,M,10.00,M,SCT,M,M,M,11000.00,M,M,M,M,KABQ 010445Z AUTO 32008KT 10SM SCT110 A2987 RMK MADISHF
ABQ,2017-04-01 04:50,-106.6155,35.0419,M,M,M,340.00,6.00,M,29.88,M,10.00,M,SCT,M,M,M,11000.00,M,M,M,M,KABQ 010450Z AUTO 34006KT 10SM SCT110 A2988 RMK MADISHF
ABQ,2017-04-01 04:52,-106.6155,35.0419,42.10,30.00,61.94,340.00,7.00,0.00,29.88,1007.90,10.00,M,SCT,BKN,M,M,11000.00,20000.00,M,M,M,KABQ 010452Z 34007KT 10SM SCT110 BKN200 06/M01 A2988 RMK AO2 SLP079 T00561011
ABQ,2017-04-01 04:55,-106.6155,35.0419,M,M,M,350.00,6.00,M,29.88,M,10.00,M,FEW,M,M,M,12000.00,M,M,M,M,KABQ 010455Z AUTO 35006KT 10SM FEW120 A2988 RMK MADISHF
ABQ,2017-04-01 05:00,-106.6155,35.0419,M,M,M,330.00,6.00,M,29.89,M,10.00,M,FEW,M,M,M,11000.00,M,M,M,M,KABQ 010500Z AUTO 33006KT 10SM FEW110 A2989 RMK MADISHF
ABQ,2017-04-01 05:05,-106.6155,35.0419,M,M,M,320.00,4.00,M,29.89,M,10.00,M,FEW,M,M,M,11000.00,M,M,M,M,KABQ 010505Z AUTO 32004KT 10SM FEW110 A2989 RMK MADISHF
ABQ,2017-04-01 05:10,-106.6155,35.0419,M,M,M,270.00,5.00,M,29.88,M,10.00,M,FEW,M,M,M,11000.00,M,M,M,M,KABQ 010510Z AUTO 27005KT 10SM FEW110 A2988 RMK MADISHF
ABQ,2017-04-01 05:15,-106.6155,35.0419,M,M,M,290.00,4.00,M,29.88,M,10.00,M,SCT,M,M,M,12000.00,M,M,M,M,KABQ 010515Z AUTO 29004KT 10SM SCT120 A2988 RMK MADISHF
ABQ,2017-04-01 05:20,-106.6155,35.0419,M,M,M,300.00,3.00,M,29.89,M,10.00,M,SCT,M,M,M,12000.00,M,M,M,M,KABQ 010520Z AUTO 30003KT 10SM SCT120 A2989 RMK MADISHF
ABQ,2017-04-01 05:25,-106.6155,35.0419,M,M,M,320.00,4.00,M,29.89,M,10.00,M,BKN,M,M,M,12000.00,M,M,M,M,KABQ 010525Z AUTO 32004KT 10SM BKN120 A2989 RMK MADISHF
ABQ,2017-04-01 05:30,-106.6155,35.0419,M,M,M,330.00,3.00,M,29.89,M,10.00,M,SCT,M,M,M,12000.00,M,M,M,M,KABQ 010530Z AUTO 33003KT 10SM SCT120 A2989 RMK MADISHF
ABQ,2017-04-01 05:35,-106.6155,35.0419,M,M,M,320.00,3.00,M,29.89,M,10.00,M,SCT,M,M,M,12000.00,M,M,M,M,KABQ 010535Z AUTO 32003KT 10SM SCT120 A2989 RMK MADISHF
ABQ,2017-04-01 05:40,-106.6155,35.0419,M,M,M,330.00,4.00,M,29.89,M,10.00,M,SCT,M,M,M,12000.00,M,M,M,M,KABQ 010540Z AUTO 33004KT 10SM SCT120 A2989 RMK MADISHF
ABQ,2017-04-01 05:45,-106.6155,35.0419,M,M,M,320.00,5.00,M,29.89,M,10.00,M,SCT,M,M,M,12000.00,M,M,M,M,KABQ 010545Z AUTO 32005KT 10SM SCT120 A2989 RMK MADISHF
ABQ,2017-04-01 05:50,-106.6155,35.0419,M,M,M,340.00,5.00,M,29.89,M,10.00,M,SCT,M,M,M,12000.00,M,M,M,M,KABQ 010550Z AUTO 34005KT 10SM SCT120 A2989 RMK MADISHF
ABQ,2017-04-01 05:52,-106.6155,35.0419,42.10,30.00,61.94,350.00,5.00,0.00,29.89,1008.00,10.00,M,SCT,BKN,M,M,12000.00,20000.00,M,M,M,KABQ 010552Z 35005KT 10SM SCT120 BKN200 06/M01 A2989 RMK AO2 SLP080 T00561011 10133 20056 51011
ABQ,2017-04-01 05:55,-106.6155,35.0419,M,M,M,330.00,6.00,M,29.89,M,10.00,M,SCT,M,M,M,12000.00,M,M,M,M,KABQ 010555Z AUTO 33006KT 10SM SCT120 A2989 RMK MADISHF
ABQ,2017-04-01 06:00,-106.6155,35.0419,M,M,M,330.00,6.00,M,29.89,M,10.00,M,SCT,M,M,M,12000.00,M,M,M,M,KABQ 010600Z AUTO 33006KT 10SM SCT120 A2989 RMK MADISHF
ABQ,2017-04-01 06:05,-106.6155,35.0419,M,M,M,340.00,6.00,M,29.89,M,10.00,M,SCT,M,M,M,12000.00,M,M,M,M,KABQ 010605Z AUTO 34006KT 10SM SCT120 A2989 RMK MADISHF
ABQ,2017-04-01 06:10,-106.6155,35.0419,M,M,M,340.00,6.00,M,29.89,M,10.00,M,SCT,M,M,M,12000.00,M,M,M,M,KABQ 010610Z AUTO 34006KT 10SM SCT120 A2989 RMK MADISHF
ABQ,2017-04-01 06:15,-106.6155,35.0419,M,M,M,320.00,6.00,M,29.89,M,10.00,M,FEW,M,M,M,12000.00,M,M,M,M,KABQ 010615Z AUTO 32006KT 10SM FEW120 A2989 RMK MADISHF
ABQ,2017-04-01 06:20,-106.6155,35.0419,M,M,M,330.00,6.00,M,29.89,M,10.00,M,CLR,M,M,M,M,M,M,M,M,KABQ 010620Z AUTO 33006KT 10SM CLR A2989 RMK MADISHF
ABQ,2017-04-01 06:25,-106.6155,35.0419,M,M,M,340.00,5.00,M,29.89,M,10.00,M,CLR,M,M,M,M,M,M,M,M,KABQ 010625Z AUTO 34005KT 10SM CLR A2989 RMK MADISHF
ABQ,2017-04-01 06:30,-106.6155,35.0419,M,M,M,360.00,5.00,M,29.89,M,10.00,M,CLR,M,M,M,M,M,M,M,M,KABQ 010630Z AUTO 36005KT 10SM CLR A2989 RMK MADISHF
ABQ,2017-04-01 06:35,-106.6155,35.0419,M,M,M,360.00,5.00,M,29.89,M,10.00,M,FEW,M,M,M,11000.00,M,M,M,M,KABQ 010635Z AUTO 36005KT 10SM FEW110 A2989 RMK MADISHF
ABQ,2017-04-01 06:40,-106.6155,35.0419,M,M,M,20.00,4.00,M,29.90,M,10.00,M,FEW,M,M,M,11000.00,M,M,M,M,KABQ 010640Z AUTO 02004KT 10SM FEW110 A2990 RMK MADISHF
ABQ,2017-04-01 06:45,-106.6155,35.0419,M,M,M,360.00,3.00,M,29.90,M,10.00,M,FEW,M,M,M,11000.00,M,M,M,M,KABQ 010645Z AUTO 36003KT 10SM FEW110 A2990 RMK MADISHF
ABQ,2017-04-01 06:50,-106.6155,35.0419,M,M,M,360.00,3.00,M,29.90,M,10.00,M,FEW,M,M,M,11000.00,M,M,M,M,KABQ 010650Z AUTO 36003KT 10SM FEW110 A2990 RMK MADISHF
ABQ,2017-04-01 06:52,-106.6155,35.0419,39.90,28.90,64.49,340.00,3.00,0.00,29.89,1008.20,10.00,M,FEW,FEW,SCT,M,5000.00,11000.00,20000.00,M,M,KABQ 010652Z 34003KT 10SM FEW050 FEW110 SCT200 04/M02 A2989 RMK AO2 SLP082 MTN TOPS OBSC NE T00441017 401890044
ABQ,2017-04-01 06:55,-106.6155,35.0419,M,M,M,350.00,3.00,M,29.89,M,10.00,M,FEW,FEW,M,M,5000.00,11000.00,M,M,M,KABQ 010655Z AUTO 35003KT 10SM FEW050 FEW110 A2989 RMK  MTN TOPS OBSC NE MADISHF
ABQ,2017-04-01 07:00,-106.6155,35.0419,M,M,M,330.00,4.00,M,29.89,M,10.00,M,FEW,FEW,M,M,5000.00,11000.00,M,M,M,KABQ 010700Z AUTO 33004KT 10SM FEW050 FEW110 A2989 RMK  MTN TOPS OBSC NE MADISHF
ABQ,2017-04-01 07:05,-106.6155,35.0419,M,M,M,320.00,4.00,M,29.89,M,10.00,M,FEW,FEW,M,M,5000.00,11000.00,M,M,M,KABQ 010705Z AUTO 32004KT 10SM FEW050 FEW110 A2989 RMK  MTN TOPS OBSC NE MADISHF
ABQ,2017-04-01 07:10,-106.6155,35.0419,M,M,M,310.00,3.00,M,29.89,M,10.00,M,FEW,FEW,M,M,5000.00,11000.00,M,M,M,KABQ 010710Z AUTO 31003KT 10SM FEW050 FEW110 A2989 RMK  MTN TOPS OBSC NE MADISHF
ABQ,2017-04-01 07:15,-106.6155,35.0419,M,M,M,320.00,3.00,M,29.89,M,10.00,M,FEW,FEW,M,M,5000.00,11000.00,M,M,M,KABQ 010715Z AUTO 32003KT 10SM FEW050 FEW110 A2989 RMK  MTN TOPS OBSC NE MADISHF
ABQ,2017-04-01 07:20,-106.6155,35.0419,M,M,M,300.00,3.00,M,29.89,M,10.00,M,FEW,FEW,M,M,5000.00,11000.00,M,M,M,KABQ 010720Z AUTO 30003KT 10SM FEW050 FEW110 A2989 RMK  MTN TOPS OBSC NE MADISHF
ABQ,2017-04-01 07:25,-106.6155,35.0419,M,M,M,290.00,4.00,M,29.89,M,10.00,M,FEW,FEW,M,M,5000.00,11000.00,M,M,M,KABQ 010725Z AUTO 29004KT 10SM FEW050 FEW110 A2989 RMK  MTN TOPS OBSC NE MADISHF
ABQ,2017-04-01 07:30,-106.6155,35.0419,M,M,M,280.00,4.00,M,29.89,M,10.00,M,FEW,FEW,M,M,5000.00,11000.00,M,M,M,KABQ 010730Z AUTO 28004KT 10SM FEW050 FEW110 A2989 RMK  MTN TOPS OBSC NE MADISHF
ABQ,2017-04-01 07:35,-106.6155,35.0419,M,M,M,290.00,3.00,M,29.89,M,10.00,M,FEW,FEW,M,M,5000.00,11000.00,M,M,M,KABQ 010735Z AUTO 29003KT 10SM FEW050 FEW110 A2989 RMK  MTN TOPS OBSC NE MADISHF
ABQ,2017-04-01 07:40,-106.6155,35.0419,M,M,M,290.00,3.00,M,29.89,M,10.00,M,FEW,FEW,M,M,5000.00,11000.00,M,M,M,KABQ 010740Z AUTO 29003KT 10SM FEW050 FEW110 A2989 RMK  MTN TOPS OBSC NE MADISHF
ABQ,2017-04-01 07:45,-106.6155,35.0419,M,M,M,280.00,3.00,M,29.90,M,10.00,M,FEW,FEW,M,M,5000.00,11000.00,M,M,M,KABQ 010745Z AUTO 28003KT 10SM FEW050 FEW110 A2990 RMK  MTN TOPS OBSC NE MADISHF
ABQ,2017-04-01 07:50,-106.6155,35.0419,M,M,M,290.00,3.00,M,29.90,M,10.00,M,FEW,FEW,SCT,M,5000.00,10000.00,12000.00,M,M,KABQ 010750Z AUTO 29003KT 10SM FEW050 FEW100 SCT120 A2990 RMK  MTN TOPS OBSC NE MADISHF
ABQ,2017-04-01 07:52,-106.6155,35.0419,39.00,30.00,69.85,0.00,0.00,0.00,29.90,1009.10,10.00,M,FEW,FEW,SCT,BKN,5000.00,10000.00,12000.00,18000.00,M,KABQ 010752Z 00000KT 10SM FEW050 FEW100 SCT120 BKN180 04/M01 A2990 RMK AO2 SLP091 MTN TOPS OBSC NE T00391011
ABQ,2017-04-01 07:55,-106.6155,35.0419,M,M,M,0.00,0.00,M,29.90,M,10.00,M,SCT,SCT,M,M,10000.00,12000.00,M,M,M,KABQ 010755Z AUTO 00000KT 10SM SCT100 SCT120 A2990 RMK MADISHF
ABQ,2017-04-01 08:00,-106.6155,35.0419,M,M,M,150.00,4.00,M,29.90,M,10.00,M,FEW,FEW,SCT,M,5000.00,10000.00,12000.00,M,M,KABQ 010800Z AUTO 15004KT 10SM FEW050 FEW100 SCT120 A2990 RMK  MTNS OBSC NE MADISHF
ABQ,2017-04-01 08:05,-106.6155,35.0419,M,M,M,170.00,4.00,M,29.90,M,10.00,M,FEW,FEW,SCT,M,5000.00,10000.00,12000.00,M,M,KABQ 010805Z AUTO 17004KT 10SM FEW050 FEW100 SCT120 A2990 RMK  MTNS OBSC NE MADISHF
ABQ,2017-04-01 08:10,-106.6155,35.0419,M,M,M,150.00,3.00,M,29.90,M,10.00,M,FEW,FEW,SCT,M,5000.00,10000.00,12000.00,M,M,KABQ 010810Z AUTO 15003KT 10SM FEW050 FEW100 SCT120 A2990 RMK  MTNS OBSC NE MADISHF
ABQ,2017-04-01 08:15,-106.6155,35.0419,M,M,M,160.00,3.00,M,29.90,M,10.00,M,FEW,FEW,SCT,M,5000.00,10000.00,12000.00,M,M,KABQ 010815Z AUTO 16003KT 10SM FEW050 FEW100 SCT120 A2990 RMK  MTNS OBSC NE MADISHF
ABQ,2017-04-01 08:20,-106.6155,35.0419,M,M,M,150.00,3.00,M,29.90,M,10.00,M,FEW,FEW,SCT,M,5000.00,10000.00,12000.00,M,M,KABQ 010820Z AUTO 15003KT 10SM FEW050 FEW100 SCT120 A2990 RMK  MTNS OBSC NE MADISHF
ABQ,2017-04-01 08:25,-106.6155,35.0419,M,M,M,0.00,0.00,M,29.90,M,10.00,M,FEW,FEW,SCT,M,5000.00,10000.00,12000.00,M,M,KABQ 010825Z AUTO 00000KT 10SM FEW050 FEW100 SCT120 A2990 RMK  MTNS OBSC NE MADISHF
ABQ,2017-04-01 08:30,-106.6155,35.0419,M,M,M,0.00,0.00,M,29.90,M,10.00,M,FEW,FEW,SCT,M,5000.00,10000.00,12000.00,M,M,KABQ 010830Z AUTO 00000KT 10SM FEW050 FEW100 SCT120 A2990 RMK  MTNS OBSC NE MADISHF
ABQ,2017-04-01 08:35,-106.6155,35.0419,M,M,M,0.00,0.00,M,29.91,M,10.00,M,FEW,FEW,SCT,M,5000.00,10000.00,12000.00,M,M,KABQ 010835Z AUTO 00000KT 10SM FEW050 FEW100 SCT120 A2991 RMK  MTNS OBSC NE MADISHF
ABQ,2017-04-01 08:40,-106.6155,35.0419,M,M,M,0.00,0.00,M,29.91,M,10.00,M,FEW,SCT,BKN,M,5000.00,9000.00,12000.00,M,M,KABQ 010840Z AUTO 00000KT 10SM FEW050 SCT090 BKN120 A2991 RMK  VIRGA NE-OHD MTNS OBSC NE MADISHF
ABQ,2017-04-01 08:45,-106.6155,35.0419,M,M,M,0.00,0.00,M,29.91,M,10.00,M,FEW,SCT,BKN,M,5000.00,9000.00,12000.00,M,M,KABQ 010845Z AUTO 00000KT 10SM FEW050 SCT090 BKN120 A2991 RMK  VIRGA NE-OHD MTNS OBSC NE MADISHF
ABQ,2017-04-01 08:50,-106.6155,35.0419,M,M,M,0.00,0.00,M,29.91,M,10.00,M,FEW,SCT,BKN,M,5000.00,9000.00,12000.00,M,M,KABQ 010850Z AUTO 00000KT 10SM FEW050 SCT090 BKN120 A2991 RMK  VIRGA NE-OHD MTNS OBSC NE MADISHF
ABQ,2017-04-01 08:52,-106.6155,35.0419,39.00,28.90,66.79,0.00,0.00,0.00,29.91,1010.00,10.00,M,FEW,SCT,BKN,BKN,5000.00,9000.00,12000.00,18000.00,M,KABQ 010852Z 00000KT 10SM FEW050 SCT090 BKN120 BKN180 04/M02 A2991 RMK AO2 SLP100 VIRGA NE-OHD MTNS OBSC NE T00391017 53005
ABQ,2017-04-01 08:55,-106.6155,35.0419,M,M,M,0.00,0.00,M,29.91,M,10.00,M,OVC,M,M,M,10000.00,M,M,M,M,KABQ 010855Z AUTO 00000KT 10SM OVC100 A2991 RMK MADISHF
ABQ,2017-04-01 09:00,-106.6155,35.0419,M,M,M,0.00,0.00,M,29.91,M,10.00,M,OVC,M,M,M,10000.00,M,M,M,M,KABQ 010900Z AUTO 00000KT 10SM OVC100 A2991 RMK MADISHF
ABQ,2017-04-01 09:05,-106.6155,35.0419,M,M,M,0.00,0.00,M,29.90,M,10.00,M,FEW,BKN,OVC,M,5000.00,9000.00,12000.00,M,M,KABQ 010905Z AUTO 00000KT 10SM FEW050 BKN090 OVC120 A2990 RMK  VIRGA NE-OHD MTNS OBSC NE MADISHF
ABQ,2017-04-01 09:10,-106.6155,35.0419,M,M,M,240.00,4.00,M,29.90,M,10.00,M,FEW,BKN,OVC,M,5000.00,9000.00,12000.00,M,M,KABQ 010910Z AUTO 24004KT 10SM FEW050 BKN090 OVC120 A2990 RMK  VIRGA NE-OHD MTNS OBSC NE MADISHF
ABQ,2017-04-01 09:15,-106.6155,35.0419,M,M,M,230.00,3.00,M,29.90,M,10.00,M,FEW,BKN,OVC,M,5000.00,9000.00,12000.00,M,M,KABQ 010915Z AUTO 23003KT 10SM FEW050 BKN090 OVC120 A2990 RMK  VIRGA NE-OHD MTNS OBSC NE MADISHF
ABQ,2017-04-01 09:20,-106.6155,35.0419,M,M,M,0.00,0.00,M,29.91,M,10.00,M,FEW,BKN,OVC,M,5000.00,9000.00,12000.00,M,M,KABQ 010920Z AUTO 00000KT 10SM FEW050 BKN090 OVC120 A2991 RMK  VIRGA NE-OHD MTNS OBSC NE MADISHF
ABQ,2017-04-01 09:25,-106.6155,35.0419,M,M,M,0.00,0.00,M,29.91,M,10.00,M,FEW,BKN,OVC,M,5000.00,9000.00,12000.00,M,M,KABQ 010925Z AUTO 00000KT 10SM FEW050 BKN090 OVC120 A2991 RMK  VIRGA NE-OHD MTNS OBSC NE MADISHF
ABQ,2017-04-01 09:30,-106.6155,35.0419,M,M,M,290.00,3.00,M,29.91,M,10.00,M,FEW,BKN,OVC,M,5000.00,9000.00,12000.00,M,M,KABQ 010930Z AUTO 29003KT 10SM FEW050 BKN090 OVC120 A2991 RMK  VIRGA NE-OHD MTNS OBSC NE MADISHF
ABQ,2017-04-01 09:35,-106.6155,35.0419,M,M,M,300.00,3.00,M,29.91,M,10.00,M,FEW,BKN,OVC,M,5000.00,9000.00,12000.00,M,M,KABQ 010935Z AUTO 30003KT 10SM FEW050 BKN090 OVC120 A2991 RMK  VIRGA NE-OHD MTNS OBSC NE MADISHF
ABQ,2017-04-01 09:40,-106.6155,35.0419,M,M,M,270.00,4.00,M,29.91,M,10.00,M,FEW,BKN,OVC,M,3999.00,7000.00,10000.00,M,M,KABQ 010940Z AUTO 27004KT 10SM FEW039 BKN070 OVC100 A2991 RMK  VIRGA NE-OHD-NW MTNS OBSC NE VCSH E MADISHF
ABQ,2017-04-01 09:45,-106.6155,35.0419,M,M,M,0.00,0.00,M,29.91,M,10.00,M,FEW,FEW,BKN,M,1999.00,3999.00,7000.00,M,M,KABQ 010945Z AUTO 00000KT 10SM FEW019 FEW039 BKN070 A2991 RMK  VIRGA NE-OHD-NW MTNS OBSC NE-E VCSH E MADISHF
ABQ,2017-04-01 09:50,-106.6155,35.0419,M,M,M,0.00,0.00,M,29.91,M,10.00,M,FEW,FEW,BKN,M,1999.00,3999.00,7000.00,M,M,KABQ 010950Z AUTO 00000KT 10SM FEW019 FEW039 BKN070 A2991 RMK  VIRGA NE-OHD-NW MTNS OBSC NE-E VCSH E MADISHF
ABQ,2017-04-01 09:52,-106.6155,35.0419,39.00,30.90,72.45,310.00,3.00,0.00,29.91,1009.90,10.00,M,FEW,FEW,BKN,OVC,2000.00,4000.00,7000.00,13000.00,M,KABQ 010952Z 31003KT 10SM FEW020 FEW040 BKN070 OVC130 04/M01 A2991 RMK AO2 SLP099 VIRGA NE-OHD-NW MTNS OBSC NE-E VCSH E T00391006
ABQ,2017-04-01 09:55,-106.6155,35.0419,M,M,M,310.00,3.00,M,29.91,M,10.00,M,OVC,M,M,M,7000.00,M,M,M,M,KABQ 010955Z AUTO 31003KT 10SM OVC070 A2991 RMK MADISHF
ABQ,2017-04-01 10:00,-106.6155,35.0419,M,M,M,230.00,3.00,M,29.91,M,10.00,M,OVC,M,M,M,7000.00,M,M,M,M,KABQ 011000Z AUTO 23003KT 10SM OVC070 A2991 RMK MADISHF
ABQ,2017-04-01 10:05,-106.6155,35.0419,M,M,M,300.00,4.00,M,29.91,M,10.00,M,FEW,FEW,BKN,M,1999.00,3999.00,7000.00,M,M,KABQ 011005Z AUTO 30004KT 10SM FEW019 FEW039 BKN070 A2991 RMK  VIRGA NE-OHD-NW MTNS OBSC NE-E VCSH E MADISHF
ABQ,2017-04-01 10:10,-106.6155,35.0419,M,M,M,0.00,0.00,M,29.92,M,10.00,M,FEW,FEW,BKN,M,1999.00,3999.00,7000.00,M,M,KABQ 011010Z AUTO 00000KT 10SM FEW019 FEW039 BKN070 A2992 RMK  VIRGA NE-OHD-NW MTNS OBSC NE-E VCSH E MADISHF
ABQ,2017-04-01 10:15,-106.6155,35.0419,M,M,M,310.00,5.00,M,29.91,M,10.00,M,FEW,FEW,BKN,M,1999.00,3999.00,7000.00,M,M,KABQ 011015Z AUTO 31005KT 10SM FEW019 FEW039 BKN070 A2991 RMK  VIRGA NE-OHD-NW MTNS OBSC NE-E VCSH E MADISHF
ABQ,2017-04-01 10:20,-106.6155,35.0419,M,M,M,0.00,0.00,M,29.92,M,10.00,M,FEW,BKN,OVC,M,1999.00,5000.00,7000.00,M,M,KABQ 011020Z AUTO 00000KT 10SM FEW019 BKN050 OVC070 A2992 RMK  VIRGA NE-OHD-NW MTNS OBSC NE-E VCSH E MADISHF
ABQ,2017-04-01 10:25,-106.6155,35.0419,M,M,M,0.00,0.00,M,29.92,M,10.00,M,FEW,BKN,OVC,M,1999.00,5000.00,7000.00,M,M,KABQ 011025Z AUTO 00000KT 10SM FEW019 BKN050 OVC070 A2992 RMK  VIRGA NE-OHD-NW MTNS OBSC NE-E VCSH E MADISHF
ABQ,2017-04-01 10:30,-106.6155,35.0419,M,M,M,360.00,3.00,M,29.91,M,10.00,M,FEW,BKN,OVC,M,1999.00,5000.00,7000.00,M,M,KABQ 011030Z AUTO 36003KT 10SM FEW019 BKN050 OVC070 A2991 RMK  VIRGA NE-OHD-NW MTNS OBSC NE-E VCSH E MADISHF
ABQ,2017-04-01 10:35,-106.6155,35.0419,M,M,M,20.00,5.00,M,29.91,M,10.00,M,FEW,BKN,OVC,M,1999.00,5000.00,7000.00,M,-RA,KABQ 011035Z AUTO 02005KT 10SM -RA FEW019 BKN050 OVC070 A2991 RMK  VIRGA NE-OHD-NW MTNS OBSC NE-E VCSH E MADISHF
ABQ,2017-04-01 10:40,-106.6155,35.0419,M,M,M,0.00,0.00,M,29.91,M,10.00,M,FEW,BKN,OVC,M,1999.00,3999.00,6000.00,M,-RA,KABQ 011040Z AUTO 00000KT 10SM -RA FEW019 BKN039 OVC060 A2991 RMK  MTNS OBSC NE-E MADISHF
ABQ,2017-04-01 10:45,-106.6155,35.0419,M,M,M,300.00,4.00,M,29.91,M,10.00,M,FEW,BKN,OVC,M,1999.00,3999.00,6000.00,M,-RA,KABQ 011045Z AUTO 30004KT 10SM -RA FEW019 BKN039 OVC060 A2991 RMK  MTNS OBSC NE-E MADISHF
ABQ,2017-04-01 10:50,-106.6155,35.0419,M,M,M,330.00,4.00,M,29.90,M,10.00,M,FEW,BKN,OVC,M,1999.00,3999.00,6000.00,M,M,KABQ 011050Z AUTO 33004KT 10SM FEW019 BKN039 OVC060 A2990 RMK  MTNS OBSC NE-E MADISHF
ABQ,2017-04-01 10:52,-106.6155,35.0419,39.90,30.90,69.96,340.00,5.00,0.00,29.90,1009.70,10.00,M,FEW,BKN,OVC,M,2000.00,4000.00,6000.00,M,M,KABQ 011052Z 34005KT 10SM FEW020 BKN040 OVC060 04/M01 A2990 RMK AO2 RAB34E46 SLP097 MTNS OBSC NE-E P0000 T00441006
ABQ,2017-04-01 10:55,-106.6155,35.0419,M,M,M,360.00,6.00,M,29.90,M,10.00,M,FEW,BKN,OVC,M,1999.00,3999.00,6000.00,M,M,KABQ 011055Z AUTO 36006KT 10SM FEW019 BKN039 OVC060 A2990 RMK  MTNS OBSC NE-E MADISHF
ABQ,2017-04-01 11:00,-106.6155,35.0419,M,M,M,10.00,6.00,M,29.90,M,10.00,M,FEW,BKN,OVC,M,1999.00,3999.00,6000.00,M,M,KABQ 011100Z AUTO 01006KT 10SM FEW019 BKN039 OVC060 A2990 RMK  MTNS OBSC NE-E MADISHF
ABQ,2017-04-01 11:05,-106.6155,35.0419,M,M,M,20.00,7.00,M,29.90,M,10.00,M,FEW,SCT,BKN,M,1999.00,3999.00,6000.00,M,M,KABQ 011105Z AUTO 02007KT 10SM FEW019 SCT039 BKN060 A2990 RMK  MTNS OBSC NE-E MADISHF
ABQ,2017-04-01 11:10,-106.6155,35.0419,M,M,M,30.00,6.00,M,29.90,M,10.00,M,FEW,SCT,BKN,M,1999.00,3999.00,6000.00,M,M,KABQ 011110Z AUTO 03006KT 10SM FEW019 SCT039 BKN060 A2990 RMK  MTNS OBSC NE-E MADISHF
ABQ,2017-04-01 11:15,-106.6155,35.0419,M,M,M,30.00,6.00,M,29.90,M,10.00,M,FEW,SCT,BKN,M,1999.00,3999.00,6000.00,M,M,KABQ 011115Z AUTO 03006KT 10SM FEW019 SCT039 BKN060 A2990 RMK  MTNS OBSC NE-E MADISHF
ABQ,2017-04-01 11:20,-106.6155,35.0419,M,M,M,20.00,6.00,M,29.90,M,10.00,M,FEW,SCT,BKN,M,1999.00,3999.00,6000.00,M,M,KABQ 011120Z AUTO 02006KT 10SM FEW019 SCT039 BKN060 A2990 RMK  MTNS OBSC NE-E MADISHF
ABQ,2017-04-01 11:25,-106.6155,35.0419,M,M,M,30.00,6.00,M,29.90,M,10.00,M,FEW,SCT,BKN,M,1999.00,3999.00,6000.00,M,M,KABQ 011125Z AUTO 03006KT 10SM FEW019 SCT039 BKN060 A2990 RMK  MTNS OBSC NE-E MADISHF
ABQ,2017-04-01 11:30,-106.6155,35.0419,M,M,M,20.00,5.00,M,29.90,M,10.00,M,FEW,BKN,OVC,M,1999.00,3999.00,7999.00,M,M,KABQ 011130Z AUTO 02005KT 10SM FEW019 BKN039 OVC079 A2990 RMK  MTNS OBSC NE-E MADISHF
ABQ,2017-04-01 11:35,-106.6155,35.0419,M,M,M,20.00,4.00,M,29.91,M,10.00,M,FEW,BKN,OVC,M,1999.00,3999.00,7999.00,M,-RA,KABQ 011135Z AUTO 02004KT 10SM -RA FEW019 BKN039 OVC079 A2991 RMK  MTNS OBSC NE-E MADISHF
ABQ,2017-04-01 11:40,-106.6155,35.0419,M,M,M,10.00,5.00,M,29.90,M,10.00,M,FEW,BKN,OVC,M,1999.00,3999.00,7999.00,M,-RA,KABQ 011140Z AUTO 01005KT 10SM -RA FEW019 BKN039 OVC079 A2990 RMK  MTNS OBSC NE-E MADISHF
ABQ,2017-04-01 11:45,-106.6155,35.0419,M,M,M,360.00,6.00,M,29.90,M,10.00,M,FEW,BKN,OVC,M,1999.00,3999.00,7999.00,M,-RA,KABQ 011145Z AUTO 36006KT 10SM -RA FEW019 BKN039 OVC079 A2990 RMK  MTNS OBSC NE-E MADISHF
ABQ,2017-04-01 11:50,-106.6155,35.0419,M,M,M,350.00,5.00,M,29.90,M,9.00,M,SCT,BKN,OVC,M,1500.00,3000.00,7000.00,M,-RA,KABQ 011150Z AUTO 35005KT 9SM -RA SCT015 BKN030 OVC070 A2990 RMK  MTNS OBSC NE-SE MADISHF
ABQ,2017-04-01 11:52,-106.6155,35.0419,39.90,30.90,69.96,10.00,5.00,0.00,29.90,1009.60,9.00,M,SCT,BKN,OVC,M,1500.00,3000.00,7000.00,M,-RA,KABQ 011152Z 01005KT 9SM -RA SCT015 BKN030 OVC070 04/M01 A2990 RMK AO2 RAB34 SLP096 MTNS OBSC NE-SE P0000 60000 T00441006 10056 20028 58001
ABQ,2017-04-01 11:55,-106.6155,35.0419,M,M,M,10.00,6.00,M,29.91,M,9.00,M,SCT,BKN,OVC,M,1500.00,3000.00,7000.00,M,-RA,KABQ 011155Z AUTO 01006KT 9SM -RA SCT015 BKN030 OVC070 A2991 RMK  MTNS OBSC NE-SE MADISHF
ABQ,2017-04-01 12:00,-106.6155,35.0419,M,M,M,340.00,6.00,M,29.90,M,9.00,M,SCT,BKN,OVC,M,1500.00,3000.00,7000.00,M,-RA,KABQ 011200Z AUTO 34006KT 9SM -RA SCT015 BKN030 OVC070 A2990 RMK  MTNS OBSC NE-SE MADISHF
ABQ,2017-04-01 12:05,-106.6155,35.0419,M,M,M,340.00,7.00,0.01,29.90,M,9.00,M,SCT,BKN,OVC,M,1500.00,3000.00,7000.00,M,-RA,KABQ 011205Z AUTO 34007KT 9SM -RA SCT015 BKN030 OVC070 A2990 RMK P0001  MTNS OBSC NE-SE MADISHF
ABQ,2017-04-01 12:10,-106.6155,35.0419,M,M,M,350.00,6.00,0.01,29.91,M,9.00,M,SCT,BKN,OVC,M,1500.00,3000.00,7000.00,M,-RA,KABQ 011210Z AUTO 35006KT 9SM -RA SCT015 BKN030 OVC070 A2991 RMK P0001  MTNS OBSC NE-SE MADISHF
ABQ,2017-04-01 12:15,-106.6155,35.0419,M,M,M,340.00,6.00,0.01,29.90,M,9.00,M,SCT,BKN,OVC,M,1500.00,3000.00,7000.00,M,M,KABQ 011215Z AUTO 34006KT 9SM SCT015 BKN030 OVC070 A2990 RMK P0001  MTNS OBSC NE-SE VCSH N-NE MADISHF
ABQ,2017-04-01 12:20,-106.6155,35.0419,M,M,M,340.00,6.00,0.01,29.90,M,9.00,M,SCT,BKN,OVC,M,1500.00,3000.00,7000.00,M,M,KABQ 011220Z AUTO 34006KT 9SM SCT015 BKN030 OVC070 A2990 RMK P0001  MTNS OBSC NE-SE VCSH N-E MADISHF
ABQ,2017-04-01 12:25,-106.6155,35.0419,M,M,M,310.00,5.00,0.01,29.90,M,9.00,M,SCT,BKN,OVC,M,1500.00,3000.00,7000.00,M,M,KABQ 011225Z AUTO 31005KT 9SM SCT015 BKN030 OVC070 A2990 RMK P0001 VRB05KT MTNS OBSC NE-SE VCSH N-E MADISHF
ABQ,2017-04-01 12:30,-106.6155,35.0419,M,M,M,350.00,5.00,0.01,29.90,M,9.00,M,SCT,BKN,OVC,M,1500.00,3000.00,7000.00,M,M,KABQ 011230Z AUTO 35005KT 9SM SCT015 BKN030 OVC070 A2990 RMK P0001  MTNS OBSC NE-SE VCSH N-E MADISHF
ABQ,2017-04-01 12:35,-106.6155,35.0419,M,M,M,330.00,5.00,0.01,29.91,M,10.00,M,SCT,BKN,OVC,M,1500.00,3000.00,7000.00,M,M,KABQ 011235Z AUTO 33005KT 10SM SCT015 BKN030 OVC070 A2991 RMK P0001  MTNS OBSC NE-SE VCSH NE-E SHSN DSNT SE MADISHF
ABQ,2017-04-01 12:40,-106.6155,35.0419,M,M,M,340.00,5.00,0.01,29.90,M,10.00,M,SCT,BKN,OVC,M,1500.00,3000.00,7000.00,M,M,KABQ 011240Z AUTO 34005KT 10SM SCT015 BKN030 OVC070 A2990 RMK P0001  MTNS OBSC NE-SE VCSH NE-E SHSN DSNT SE MADISHF
ABQ,2017-04-01 12:45,-106.6155,35.0419,37.90,34.00,85.69,340.00,6.00,0.01,29.90,M,10.00,M,SCT,BKN,OVC,M,1500.00,2500.00,5000.00,M,M,KABQ 011245Z 34006KT 10SM SCT015 BKN025 OVC050 03/01 A2990 RMK AO2 RAE13 MTNS OBSC NE-SE VCSH NE-E SHSN DSNT SE P0001 T00330011
ABQ,2017-04-01 12:50,-106.6155,35.0419,M,M,M,350.00,7.00,0.01,29.90,M,10.00,M,SCT,BKN,OVC,M,999.00,2500.00,5000.00,M,M,KABQ 011250Z AUTO 35007KT 10SM SCT009 BKN025 OVC050 A2990 RMK P0001  MTNS OBSC NE-SE VCSH NE-E SHSN DSNT SE MADISHF
ABQ,2017-04-01 12:52,-106.6155,35.0419,37.90,34.00,85.69,360.00,7.00,0.01,29.90,1010.50,10.00,M,SCT,BKN,OVC,M,1000.00,2500.00,5000.00,M,M,KABQ 011252Z 36007KT 10SM SCT010 BKN025 OVC050 03/01 A2990 RMK AO2 RAE13 SLP105 MTNS OBSC NE-SE VCSH NE-E SHSN DSNT SE P0001 T00330011
ABQ,2017-04-01 12:55,-106.6155,35.0419,M,M,M,350.00,7.00,M,29.90,M,10.00,M,SCT,BKN,OVC,M,999.00,2500.00,5000.00,M,M,KABQ 011255Z AUTO 35007KT 10SM SCT009 BKN025 OVC050 A2990 RMK  MTNS OBSC NE-SE VCSH NE-E SHSN DSNT SE MADISHF
ABQ,2017-04-01 13:00,-106.6155,35.0419,M,M,M,360.00,7.00,M,29.90,M,10.00,M,SCT,BKN,OVC,M,999.00,2500.00,5000.00,M,M,KABQ 011300Z AUTO 36007KT 10SM SCT009 BKN025 OVC050 A2990 RMK  MTNS OBSC NE-SE VCSH NE-E SHSN DSNT SE MADISHF
ABQ,2017-04-01 13:05,-106.6155,35.0419,M,M,M,360.00,7.00,M,29.91,M,10.00,M,SCT,BKN,OVC,M,999.00,2500.00,5000.00,M,M,KABQ 011305Z AUTO 36007KT 10SM SCT009 BKN025 OVC050 A2991 RMK  MTNS OBSC NE-SE VCSH NE-E SHSN DSNT SE MADISHF
ABQ,2017-04-01 13:10,-106.6155,35.0419,M,M,M,10.00,9.00,M,29.91,M,10.00,M,SCT,BKN,OVC,M,999.00,2500.00,5000.00,M,-RA,KABQ 011310Z AUTO 01009KT 10SM -RA SCT009 BKN025 OVC050 A2991 RMK  MTNS OBSC NE-SE VCSH NE-E SHSN DSNT SE MADISHF
ABQ,2017-04-01 13:15,-106.6155,35.0419,M,M,M,10.00,7.00,M,29.91,M,10.00,M,SCT,BKN,OVC,M,999.00,2800.00,5000.00,M,-RA,KABQ 011315Z AUTO 01007KT 10SM -RA SCT009 BKN028 OVC050 A2991 RMK  MTNS OBSC NE-SE MADISHF
ABQ,2017-04-01 13:20,-106.6155,35.0419,M,M,M,360.00,8.00,M,29.92,M,10.00,M,SCT,BKN,OVC,M,999.00,2800.00,5000.00,M,-RA,KABQ 011320Z AUTO 36008KT 10SM -RA SCT009 BKN028 OVC050 A2992 RMK WND 35V05 MTNS OBSC NE-SE MADISHF
ABQ,2017-04-01 13:25,-106.6155,35.0419,M,M,M,10.00,9.00,M,29.92,M,10.00,M,FEW,BKN,OVC,M,999.00,2800.00,5000.00,M,M,KABQ 011325Z AUTO 01009KT 10SM FEW009 BKN028 OVC050 A2992 RMK  MTNS OBSC NE-SE SHSN DSNT NE AND SE MADISHF
ABQ,2017-04-01 13:30,-106.6155,35.0419,M,M,M,360.00,9.00,M,29.92,M,10.00,M,FEW,BKN,OVC,M,999.00,2700.00,3999.00,M,M,KABQ 011330Z AUTO 36009KT 10SM FEW009 BKN027 OVC039 A2992 RMK  MTNS OBSC NE-SE SHSN DSNT NE AND SE MADISHF
ABQ,2017-04-01 13:35,-106.6155,35.0419,M,M,M,10.00,9.00,M,29.92,M,10.00,M,FEW,BKN,OVC,M,999.00,2700.00,3999.00,M,M,KABQ 011335Z AUTO 01009KT 10SM FEW009 BKN027 OVC039 A2992 RMK  MTNS OBSC NE-SE SHSN DSNT NE AND SE MADISHF
ABQ,2017-04-01 13:40,-106.6155,35.0419,M,M,M,10.00,10.00,M,29.92,M,10.00,M,FEW,BKN,OVC,M,999.00,2500.00,3500.00,M,M,KABQ 011340Z AUTO 01010KT 10SM FEW009 BKN025 OVC035 A2992 RMK  MTNS OBSC NE-SE SHSN DSNT NE AND SE MADISHF
ABQ,2017-04-01 13:45,-106.6155,35.0419,M,M,M,10.00,9.00,M,29.92,M,10.00,M,FEW,BKN,OVC,M,999.00,2500.00,3500.00,M,M,KABQ 011345Z AUTO 01009KT 10SM FEW009 BKN025 OVC035 A2992 RMK  MTNS OBSC NE-SE VCSH SW SHSN DSNT NE AND SE MADISHF
ABQ,2017-04-01 13:50,-106.6155,35.0419,M,M,M,10.00,10.00,M,29.92,M,10.00,M,FEW,BKN,OVC,M,999.00,2500.00,3500.00,M,M,KABQ 011350Z AUTO 01010KT 10SM FEW009 BKN025 OVC035 A2992 RMK  MTNS OBSC NE-SE VCSH SW SHSN DSNT NE AND SE MADISHF
ABQ,2017-04-01 13:52,-106.6155,35.0419,37.90,35.10,89.53,360.00,10.00,0.00,29.92,1011.60,10.00,M,FEW,BKN,OVC,M,1000.00,2500.00,3500.00,M,M,KABQ 011352Z 36010KT 10SM FEW010 BKN025 OVC035 03/02 A2992 RMK AO2 RAB10E24 SLP116 MTNS OBSC NE-SE VCSH SW SHSN DSNT NE AND SE P0000 T00330017
ABQ,2017-04-01 13:55,-106.6155,35.0419,M,M,M,M,M,M,29.92,M,10.00,M,FEW,BKN,OVC,M,999.00,2500.00,3500.00,M,M,KABQ 011355Z AUTO /////KT 10SM FEW009 BKN025 OVC035 A2992 RMK MADISHF
ABQ,2017-04-01 14:00,-106.6155,35.0419,M,M,M,M,M,M,29.92,M,10.00,M,FEW,BKN,OVC,M,999.00,2500.00,3500.00,M,M,KABQ 011400Z AUTO /////KT 10SM FEW009 BKN025 OVC035 A2992 RMK MADISHF
ABQ,2017-04-01 14:05,-106.6155,35.0419,M,M,M,M,M,M,29.92,M,10.00,M,FEW,BKN,OVC,M,999.00,2500.00,3500.00,M,-RA,KABQ 011405Z AUTO /////KT 10SM -RA FEW009 BKN025 OVC035 A2992 RMK MADISHF
ABQ,2017-04-01 14:10,-106.6155,35.0419,M,M,M,30.00,8.00,M,29.92,M,7.00,M,FEW,BKN,OVC,M,999.00,2500.00,3500.00,M,RA,KABQ 011410Z AUTO 03008KT 7SM RA FEW009 BKN025 OVC035 A2992 RMK MADISHF
ABQ,2017-04-01 14:15,-106.6155,35.0419,M,M,M,30.00,8.00,0.01,29.92,M,8.00,M,FEW,BKN,OVC,M,999.00,2500.00,3500.00,M,-RA,KABQ 011415Z AUTO 03008KT 8SM -RA FEW009 BKN025 OVC035 A2992 RMK P0001 MADISHF
ABQ,2017-04-01 14:20,-106.6155,35.0419,M,M,M,70.00,7.00,0.01,29.93,M,10.00,M,FEW,BKN,OVC,M,999.00,2500.00,3500.00,M,-RA,KABQ 011420Z AUTO 07007KT 10SM -RA FEW009 BKN025 OVC035 A2993 RMK P0001  MTNS OBSC NE-SE SHRA DSNT N AND S MADISHF
ABQ,2017-04-01 14:25,-106.6155,35.0419,M,M,M,100.00,5.00,0.01,29.93,M,10.00,M,FEW,BKN,OVC,M,999.00,2500.00,3500.00,M,-RA,KABQ 011425Z AUTO 10005KT 10SM -RA FEW009 BKN025 OVC035 A2993 RMK P0001  MTNS OBSC NE-SE SHRA DSNT S AND NW MADISHF
ABQ,2017-04-01 14:30,-106.6155,35.0419,M,M,M,140.00,7.00,0.01,29.93,M,10.00,M,FEW,BKN,OVC,M,999.00,2500.00,3500.00,M,M,KABQ 011430Z AUTO 14007KT 10SM FEW009 BKN025 OVC035 A2993 RMK P0001  MTNS OBSC NE-SE SHRA DSNT S AND NW MADISHF
ABQ,2017-04-01 14:35,-106.6155,35.0419,M,M,M,150.00,8.00,0.01,29.93,M,10.00,M,FEW,BKN,OVC,M,999.00,2500.00,3500.00,M,M,KABQ 011435Z AUTO 15008KT 10SM FEW009 BKN025 OVC035 A2993 RMK P0001  MTNS OBSC NE-SE SHSN DSNT NE-SE SHRA DSNT NW MADISHF
ABQ,2017-04-01 14:40,-106.6155,35.0419,M,M,M,160.00,8.00,0.01,29.94,M,10.00,M,FEW,BKN,OVC,M,999.00,2500.00,3500.00,M,M,KABQ 011440Z AUTO 16008KT 10SM FEW009 BKN025 OVC035 A2994 RMK P0001  MTNS OBSC NE-SE SHSN DSNT NE-SE SHRA DSNT NW MADISHF
ABQ,2017-04-01 14:45,-106.6155,35.0419,M,M,M,280.00,8.00,0.01,29.94,M,10.00,M,FEW,BKN,OVC,M,999.00,2500.00,3500.00,M,M,KABQ 011445Z AUTO 28008KT 10SM FEW009 BKN025 OVC035 A2994 RMK P0001  MTNS OBSC NE-SE SHSN DSNT NE-SE SHRA DSNT NW MADISHF
ABQ,2017-04-01 14:50,-106.6155,35.0419,M,M,M,280.00,8.00,0.01,29.94,M,10.00,M,FEW,BKN,OVC,M,1500.00,2500.00,3500.00,M,M,KABQ 011450Z AUTO 28008KT 10SM FEW015 BKN025 OVC035 A2994 RMK P0001  MTNS OBSC NE-SE SHSN DSNT NE-SE SHRA DSNT S AND NW MADISHF
ABQ,2017-04-01 14:52,-106.6155,35.0419,39.00,37.00,92.45,300.00,7.00,0.01,29.94,1012.40,10.00,M,FEW,BKN,OVC,M,1500.00,2500.00,3500.00,M,M,KABQ 011452Z 30007KT 10SM FEW015 BKN025 OVC035 04/03 A2994 RMK AO2 RAB01E30 SLP124 MTNS OBSC NE-SE SHSN DSNT NE-SE SHRA DSNT S AND NW P0001 60002 T00390028 53009
ABQ,2017-04-01 14:55,-106.6155,35.0419,M,M,M,310.00,5.00,M,29.94,M,10.00,M,FEW,BKN,OVC,M,1500.00,2500.00,3500.00,M,M,KABQ 011455Z AUTO 31005KT 10SM FEW015 BKN025 OVC035 A2994 RMK VRB05KT MTNS OBSC NE-SE SHSN DSNT NE-SE SHRA DSNT S AND NW MADISHF
ABQ,2017-04-01 15:00,-106.6155,35.0419,M,M,M,290.00,4.00,M,29.94,M,10.00,M,FEW,BKN,OVC,M,1500.00,2500.00,3500.00,M,M,KABQ 011500Z AUTO 29004KT 10SM FEW015 BKN025 OVC035 A2994 RMK  MTNS OBSC NE-SE SHSN DSNT NE-SE SHRA DSNT S AND NW MADISHF
ABQ,2017-04-01 15:05,-106.6155,35.0419,M,M,M,310.00,3.00,M,29.94,M,10.00,M,FEW,BKN,OVC,M,1500.00,2500.00,3500.00,M,M,KABQ 011505Z AUTO 31003KT 10SM FEW015 BKN025 OVC035 A2994 RMK  MTNS OBSC NE-SE SHSN DSNT NE-SE SHRA DSNT S AND NW MADISHF
ABQ,2017-04-01 15:10,-106.6155,35.0419,M,M,M,330.00,4.00,M,29.94,M,10.00,M,FEW,BKN,OVC,M,1500.00,2500.00,3500.00,M,M,KABQ 011510Z AUTO 33004KT 10SM FEW015 BKN025 OVC035 A2994 RMK  MTNS OBSC NE-SE SHSN DSNT NE-SE SHRA DSNT S AND NW MADISHF
ABQ,2017-04-01 15:15,-106.6155,35.0419,M,M,M,310.00,5.00,M,29.94,M,10.00,M,FEW,BKN,OVC,M,1500.00,2500.00,3500.00,M,M,KABQ 011515Z AUTO 31005KT 10SM FEW015 BKN025 OVC035 A2994 RMK  MTNS OBSC NE-SE SHSN DSNT NE-SE SHRA DSNT S AND NW MADISHF
ABQ,2017-04-01 15:20,-106.6155,35.0419,M,M,M,290.00,5.00,M,29.95,M,10.00,M,FEW,BKN,OVC,M,1500.00,2500.00,3500.00,M,M,KABQ 011520Z AUTO 29005KT 10SM FEW015 BKN025 OVC035 A2995 RMK  MTNS OBSC NE-SE SHSN DSNT NE-SE SHRA DSNT S AND NW MADISHF
ABQ,2017-04-01 15:25,-106.6155,35.0419,M,M,M,220.00,5.00,M,29.95,M,9.00,M,FEW,BKN,OVC,M,1500.00,2500.00,3500.00,M,-RA,KABQ 011525Z AUTO 22005KT 9SM -RA FEW015 BKN025 OVC035 A2995 RMK  MTNS OBSC NE-SE SHSN DSNT NE-SE SHRA DSNT S AND NW MADISHF
ABQ,2017-04-01 15:30,-106.6155,35.0419,M,M,M,200.00,7.00,M,29.96,M,8.00,M,FEW,BKN,OVC,M,1500.00,2500.00,3500.00,M,-RA,KABQ 011530Z AUTO 20007KT 8SM -RA FEW015 BKN025 OVC035 A2996 RMK  MTNS OBSC NE-SE SHSN DSNT NE-SE SHRA DSNT S AND NW MADISHF
ABQ,2017-04-01 15:35,-106.6155,35.0419,M,M,M,200.00,11.00,M,29.96,M,6.00,M,FEW,BKN,OVC,M,1200.00,2500.00,3500.00,M,-RA BR,KABQ 011535Z AUTO 20011KT 6SM -RA BR FEW012 BKN025 OVC035 A2996 RMK  MTNS OBSC NE-SE SHSN DSNT NE-SE SHRA DSNT S AND NW MADISHF
ABQ,2017-04-01 15:40,-106.6155,35.0419,M,M,M,210.00,10.00,0.01,29.96,M,6.00,M,SCT,BKN,OVC,M,1200.00,2200.00,3500.00,M,-RA BR,KABQ 011540Z AUTO 21010KT 6SM -RA BR SCT012 BKN022 OVC035 A2996 RMK P0001  MTNS OBSC NE-SE SHSN DSNT NE-SE MADISHF
ABQ,2017-04-01 15:45,-106.6155,35.0419,M,M,M,210.00,11.00,0.01,29.96,M,7.00,M,SCT,BKN,OVC,M,1200.00,2200.00,3500.00,M,-RA,KABQ 011545Z AUTO 21011KT 7SM -RA SCT012 BKN022 OVC035 A2996 RMK P0001  MTNS OBSC NE-SE SHSN DSNT NE-SE MADISHF
ABQ,2017-04-01 15:50,-106.6155,35.0419,M,M,M,210.00,11.00,0.01,29.96,M,9.00,M,SCT,BKN,OVC,M,1200.00,2200.00,3500.00,M,-RA,KABQ 011550Z AUTO 21011KT 9SM -RA SCT012 BKN022 OVC035 A2996 RMK P0001  MTNS OBSC NE-SE SHSN DSNT NE-SE MADISHF
ABQ,2017-04-01 15:52,-106.6155,35.0419,37.00,36.00,96.13,210.00,11.00,0.01,29.97,1013.60,7.00,M,SCT,BKN,OVC,M,300.00,1200.00,3200.00,M,-RA,KABQ 011552Z 21011KT 7SM -RA SCT003 BKN012 OVC032 03/02 A2997 RMK AO2 RAB23 SLP136 MTNS OBSC NE-SE SHSN DSNT NE-SE P0001 T00280022
ABQ,2017-04-01 15:55,-106.6155,35.0419,M,M,M,220.00,9.00,M,29.96,M,9.00,M,SCT,BKN,OVC,M,300.00,1200.00,3000.00,M,-RA,KABQ 011555Z AUTO 22009KT 9SM -RA SCT003 BKN012 OVC030 A2996 RMK  MTNS OBSC NE-SE SHSN DSNT NE-SE MADISHF
ABQ,2017-04-01 16:00,-106.6155,35.0419,M,M,M,230.00,8.00,M,29.96,M,10.00,M,SCT,BKN,OVC,M,300.00,1200.00,3000.00,M,M,KABQ 011600Z AUTO 23008KT 10SM SCT003 BKN012 OVC030 A2996 RMK  MTNS OBSC NE-SE SHSN DSNT NE-SE MADISHF
ABQ,2017-04-01 16:05,-106.6155,35.0419,M,M,M,240.00,9.00,M,29.96,M,10.00,M,SCT,BKN,OVC,M,300.00,1200.00,3000.00,M,-RA,KABQ 011605Z AUTO 24009KT 10SM -RA SCT003 BKN012 OVC030 A2996 RMK  MTNS OBSC NE-SE SHSN DSNT NE-SE MADISHF
ABQ,2017-04-01 16:10,-106.6155,35.0419,M,M,M,250.00,8.00,M,29.97,M,10.00,M,SCT,BKN,OVC,M,300.00,1200.00,3000.00,M,-RA,KABQ 011610Z AUTO 25008KT 10SM -RA SCT003 BKN012 OVC030 A2997 RMK  MTNS OBSC NE-SE SHSN DSNT NE-SE MADISHF
ABQ,2017-04-01 16:15,-106.6155,35.0419,M,M,M,250.00,7.00,M,29.97,M,10.00,M,SCT,BKN,OVC,M,300.00,1200.00,3000.00,M,-RA,KABQ 011615Z AUTO 25007KT 10SM -RA SCT003 BKN012 OVC030 A2997 RMK  MTNS OBSC NE-SE SHSN DSNT NE-SE MADISHF
ABQ,2017-04-01 16:20,-106.6155,35.0419,M,M,M,260.00,5.00,M,29.97,M,10.00,M,SCT,BKN,OVC,M,300.00,1200.00,3000.00,M,-RA,KABQ 011620Z AUTO 26005KT 10SM -RA SCT003 BKN012 OVC030 A2997 RMK  MTNS OBSC NE-SE SHSN DSNT NE-SE MADISHF
ABQ,2017-04-01 16:25,-106.6155,35.0419,M,M,M,260.00,6.00,M,29.97,M,10.00,M,SCT,BKN,OVC,M,300.00,1200.00,3000.00,M,-RA,KABQ 011625Z AUTO 26006KT 10SM -RA SCT003 BKN012 OVC030 A2997 RMK  MTNS OBSC NE-SE SHSN DSNT NE-SE MADISHF
ABQ,2017-04-01 16:30,-106.6155,35.0419,M,M,M,240.00,6.00,M,29.97,M,10.00,M,SCT,BKN,OVC,M,300.00,1200.00,3000.00,M,-RA,KABQ 011630Z AUTO 24006KT 10SM -RA SCT003 BKN012 OVC030 A2997 RMK  MTNS OBSC NE-SE SHSN DSNT NE-SE MADISHF
ABQ,2017-04-01 16:35,-106.6155,35.0419,M,M,M,240.00,5.00,M,29.98,M,10.00,M,SCT,BKN,OVC,M,300.00,1200.00,3000.00,M,-RA,KABQ 011635Z AUTO 24005KT 10SM -RA SCT003 BKN012 OVC030 A2998 RMK  MTNS OBSC NE-SE SHSN DSNT NE-SE MADISHF
ABQ,2017-04-01 16:40,-106.6155,35.0419,M,M,M,230.00,6.00,M,29.98,M,9.00,M,SCT,BKN,OVC,M,300.00,1200.00,3000.00,M,-RA,KABQ 011640Z AUTO 23006KT 9SM -RA SCT003 BKN012 OVC030 A2998 RMK  MTNS OBSC NE-SE SHSN DSNT NE-SE MADISHF
ABQ,2017-04-01 16:45,-106.6155,35.0419,M,M,M,210.00,6.00,0.01,29.98,M,8.00,M,SCT,BKN,OVC,M,300.00,1200.00,3000.00,M,RA,KABQ 011645Z AUTO 21006KT 8SM RA SCT003 BKN012 OVC030 A2998 RMK P0001  MTNS OBSC NE-SE SHSN DSNT NE-SE MADISHF
ABQ,2017-04-01 16:50,-106.6155,35.0419,M,M,M,220.00,6.00,0.02,29.98,M,6.00,M,FEW,BKN,OVC,M,300.00,1200.00,1999.00,M,-RA BR,KABQ 011650Z AUTO 22006KT 6SM -RA BR FEW003 BKN012 OVC019 A2998 RMK P0002  MTNS OBSC NE-SE SHSN DSNT NE-SE MADISHF
ABQ,2017-04-01 16:52,-106.6155,35.0419,37.00,36.00,96.13,220.00,6.00,0.02,29.99,1014.40,5.00,M,FEW,BKN,OVC,M,300.00,1200.00,2000.00,M,RA BR,KABQ 011652Z 22006KT 5SM RA BR FEW003 BKN012 OVC020 03/02 A2999 RMK AO2 SLP144 MTNS OBSC NE-SE SHSN DSNT NE-SE P0002 T00280022 $
ABQ,2017-04-01 16:55,-106.6155,35.0419,M,M,M,240.00,7.00,0.01,29.99,M,5.00,M,FEW,BKN,OVC,M,300.00,1200.00,1999.00,M,RA BR,KABQ 011655Z AUTO 24007KT 5SM RA BR FEW003 BKN012 OVC019 A2999 RMK P0001  MTNS OBSC NE-SE SHSN DSNT NE-SE MADISHF
ABQ,2017-04-01 17:00,-106.6155,35.0419,M,M,M,230.00,6.00,0.02,29.98,M,4.00,M,FEW,BKN,OVC,M,300.00,1200.00,1999.00,M,RA BR,KABQ 011700Z AUTO 23006KT 4SM RA BR FEW003 BKN012 OVC019 A2998 RMK P0002  MTNS OBSC NE-SE SHSN DSNT NE-SE MADISHF
ABQ,2017-04-01 17:05,-106.6155,35.0419,M,M,M,250.00,6.00,0.03,29.98,M,5.00,M,FEW,BKN,OVC,M,300.00,1200.00,1999.00,M,-RA BR,KABQ 011705Z AUTO 25006KT 5SM -RA BR FEW003 BKN012 OVC019 A2998 RMK P0003  MTNS OBSC NE-SE SHSN DSNT NE-SE MADISHF
ABQ,2017-04-01 17:10,-106.6155,35.0419,M,M,M,250.00,11.00,0.03,29.98,M,4.00,M,FEW,BKN,OVC,M,300.00,1200.00,1999.00,M,RA BR,KABQ 011710Z AUTO 25011KT 4SM RA BR FEW003 BKN012 OVC019 A2998 RMK P0003  MTNS OBSC NE-SE SHSN DSNT NE-SE MADISHF
ABQ,2017-04-01 17:15,-106.6155,35.0419,M,M,M,M,M,0.05,29.98,M,5.00,M,FEW,BKN,OVC,M,300.00,1200.00,1999.00,M,-RA BR,KABQ 011715Z AUTO /////KT 5SM -RA BR FEW003 BKN012 OVC019 A2998 RMK P0005  MTNS OBSC NE-SE SHSN DSNT NE-SE MADISHF
ABQ,2017-04-01 17:20,-106.6155,35.0419,M,M,M,270.00,10.00,0.07,29.98,M,5.00,M,FEW,BKN,OVC,M,300.00,1200.00,1999.00,M,-RA BR,KABQ 011720Z AUTO 27010KT 5SM -RA BR FEW003 BKN012 OVC019 A2998 RMK P0007  MTNS OBSC NE-SE SHSN DSNT NE-SE MADISHF
ABQ,2017-04-01 17:25,-106.6155,35.0419,M,M,M,240.00,8.00,0.08,29.98,M,6.00,M,FEW,BKN,OVC,M,300.00,1200.00,1999.00,M,-RA BR,KABQ 011725Z AUTO 24008KT 6SM -RA BR FEW003 BKN012 OVC019 A2998 RMK P0008  MTNS OBSC NE-SE SHSN DSNT NE-SE MADISHF
ABQ,2017-04-01 17:30,-106.6155,35.0419,M,M,M,220.00,11.00,0.08,29.98,M,6.00,M,FEW,BKN,OVC,M,300.00,1200.00,1999.00,M,-RA BR,KABQ 011730Z AUTO 22011KT 6SM -RA BR FEW003 BKN012 OVC019 A2998 RMK P0008  MTNS OBSC NE-SE SHSN DSNT NE-SE MADISHF
ABQ,2017-04-01 17:35,-106.6155,35.0419,M,M,M,220.00,9.00,0.09,29.98,M,4.00,M,FEW,BKN,OVC,M,300.00,1200.00,1999.00,M,-RA BR,KABQ 011735Z AUTO 22009KT 4SM -RA BR FEW003 BKN012 OVC019 A2998 RMK P0009  MTNS OBSC NE-SE SHSN DSNT NE-SE MADISHF
ABQ,2017-04-01 17:40,-106.6155,35.0419,M,M,M,220.00,9.00,0.10,29.99,M,2.00,M,FEW,BKN,OVC,M,300.00,1200.00,1999.00,M,-RA -SN BR,KABQ 011740Z AUTO 22009KT 2SM -RA -SN BR FEW003 BKN012 OVC019 A2999 RMK P0010  MTNS OBSC NE-SE SHSN DSNT NE-SE MADISHF
ABQ,2017-04-01 17:42,-106.6155,35.0419,34.00,34.00,100.00,220.00,8.00,0.10,29.99,M,1.75,M,SCT,BKN,OVC,M,600.00,1000.00,1700.00,M,-RASN BR,KABQ 011742Z 22008KT 1 3/4SM -RASN BR SCT006 BKN010 OVC017 01/01 A2999 RMK AO2 SNB38 MTNS OBSC NE-SE P0010 T00110011 $
ABQ,2017-04-01 17:45,-106.6155,35.0419,M,M,M,220.00,6.00,0.11,29.98,M,1.50,M,SCT,BKN,OVC,M,600.00,999.00,1699.00,M,-RA -SN BR,KABQ 011745Z AUTO 22006KT 1 1/2SM -RA -SN BR SCT006 BKN009 OVC016 A2998 RMK P0011  MTNS OBSC NE-SE MADISHF
ABQ,2017-04-01 17:50,-106.6155,35.0419,M,M,M,220.00,5.00,0.12,29.98,M,2.00,M,FEW,BKN,OVC,M,300.00,999.00,1699.00,M,-RA -SN BR,KABQ 011750Z AUTO 22005KT 2SM -RA -SN BR FEW003 BKN009 OVC016 A2998 RMK P0012  MTNS OBSC NE-SE MADISHF
ABQ,2017-04-01 17:52,-106.6155,35.0419,34.00,34.00,100.00,220.00,5.00,0.12,29.98,1014.80,2.50,M,SCT,BKN,OVC,M,400.00,1000.00,1700.00,M,-RASN BR,KABQ 011752Z 22005KT 2 1/2SM -RASN BR SCT004 BKN010 OVC017 01/01 A2998 RMK AO2 SNB38 SLP148 MTNS OBSC NE-SE P0012 60017 T00110011 10050 20011 50013 $
ABQ,2017-04-01 17:55,-106.6155,35.0419,M,M,M,220.00,4.00,M,29.98,M,4.00,M,SCT,BKN,OVC,M,400.00,999.00,1699.00,M,-RA -SN BR,KABQ 011755Z AUTO 22004KT 4SM -RA -SN BR SCT004 BKN009 OVC016 A2998 RMK  MTNS OBSC NE-SE MADISHF
ABQ,2017-04-01 18:00,-106.6155,35.0419,M,M,M,230.00,5.00,0.01,29.99,M,4.00,M,SCT,BKN,OVC,M,400.00,800.00,1699.00,M,-RA BR,KABQ 011800Z AUTO 23005KT 4SM -RA BR SCT004 BKN008 OVC016 A2999 RMK P0001  MTNS OBSC NE-SE MADISHF
ABQ,2017-04-01 18:05,-106.6155,35.0419,M,M,M,230.00,4.00,0.01,29.99,M,4.00,M,SCT,BKN,OVC,M,400.00,800.00,1699.00,M,-RA BR,KABQ 011805Z AUTO 23004KT 4SM -RA BR SCT004 BKN008 OVC016 A2999 RMK P0001  MTNS OBSC NE-SE MADISHF
ABQ,2017-04-01 18:06,-106.6155,35.0419,34.00,34.00,100.00,240.00,3.00,0.01,29.99,M,5.00,M,SCT,BKN,OVC,M,400.00,800.00,1700.00,M,-RA BR,KABQ 011806Z 24003KT 5SM -RA BR SCT004 BKN008 OVC017 01/01 A2999 RMK AO2 SNE00 MTNS OBSC NE-SE P0001 T00110011 $
ABQ,2017-04-01 18:10,-106.6155,35.0419,M,M,M,230.00,3.00,0.01,29.99,M,4.00,M,SCT,BKN,OVC,M,400.00,800.00,1699.00,M,-RA BR,KABQ 011810Z AUTO 23003KT 4SM -RA BR SCT004 BKN008 OVC016 A2999 RMK P0001  MTNS OBSC NE-SE MADISHF
ABQ,2017-04-01 18:15,-106.6155,35.0419,M,M,M,320.00,3.00,0.01,29.98,M,7.00,M,SCT,BKN,OVC,M,400.00,800.00,1699.00,M,-RA,KABQ 011815Z AUTO 32003KT 7SM -RA SCT004 BKN008 OVC016 A2998 RMK P0001  MTNS OBSC NE-SE MADISHF
ABQ,2017-04-01 18:20,-106.6155,35.0419,M,M,M,0.00,0.00,0.01,29.98,M,10.00,M,SCT,BKN,OVC,M,400.00,800.00,1699.00,M,-RA,KABQ 011820Z AUTO 00000KT 10SM -RA SCT004 BKN008 OVC016 A2998 RMK P0001  MTNS OBSC NE-SE MADISHF
ABQ,2017-04-01 18:25,-106.6155,35.0419,M,M,M,0.00,0.00,0.01,29.98,M,10.00,M,FEW,SCT,OVC,M,300.00,1699.00,3800.00,M,M,KABQ 011825Z AUTO 00000KT 10SM FEW003 SCT016 OVC038 A2998 RMK P0001  MTNS OBSC NE-SE MADISHF
ABQ,2017-04-01 18:27,-106.6155,35.0419,36.00,36.00,100.00,0.00,0.00,0.01,29.98,M,10.00,M,FEW,SCT,OVC,M,300.00,1700.00,3800.00,M,M,KABQ 011827Z 00000KT 10SM FEW003 SCT017 OVC038 02/02 A2998 RMK AO2 RAE21SNE00 MTNS OBSC NE-SE P0001 T00220022 $
ABQ,2017-04-01 18:30,-106.6155,35.0419,M,M,M,0.00,0.00,0.01,29.99,M,10.00,M,FEW,SCT,OVC,M,300.00,1699.00,3800.00,M,M,KABQ 011830Z AUTO 00000KT 10SM FEW003 SCT016 OVC038 A2999 RMK P0001  MTNS OBSC NE-SE MADISHF
ABQ,2017-04-01 18:35,-106.6155,35.0419,M,M,M,130.00,4.00,0.01,29.99,M,10.00,M,FEW,SCT,OVC,M,300.00,1699.00,3800.00,M,M,KABQ 011835Z AUTO 13004KT 10SM FEW003 SCT016 OVC038 A2999 RMK P0001  MTNS OBSC NE-SE MADISHF
ABQ,2017-04-01 18:40,-106.6155,35.0419,M,M,M,120.00,4.00,0.01,29.98,M,10.00,M,FEW,SCT,OVC,M,300.00,1699.00,3800.00,M,M,KABQ 011840Z AUTO 12004KT 10SM FEW003 SCT016 OVC038 A2998 RMK P0001  MTNS OBSC NE-SE MADISHF
ABQ,2017-04-01 18:45,-106.6155,35.0419,M,M,M,110.00,4.00,0.01,29.98,M,10.00,M,FEW,SCT,OVC,M,300.00,1699.00,3800.00,M,M,KABQ 011845Z AUTO 11004KT 10SM FEW003 SCT016 OVC038 A2998 RMK P0001  MTNS OBSC NE-SE MADISHF
ABQ,2017-04-01 18:50,-106.6155,35.0419,M,M,M,90.00,4.00,0.01,29.98,M,10.00,M,FEW,SCT,OVC,M,300.00,1699.00,3800.00,M,M,KABQ 011850Z AUTO 09004KT 10SM FEW003 SCT016 OVC038 A2998 RMK P0001  MTNS OBSC NE-SE MADISHF
ABQ,2017-04-01 18:52,-106.6155,35.0419,37.90,37.00,96.52,90.00,4.00,0.01,29.98,1014.40,10.00,M,FEW,BKN,OVC,M,300.00,2900.00,3800.00,M,M,KABQ 011852Z 09004KT 10SM FEW003 BKN029 OVC038 03/03 A2998 RMK AO2 RAE21B51E52SNE00 SLP144 MTNS OBSC NE-SE P0001 T00330028
ABQ,2017-04-01 18:55,-106.6155,35.0419,M,M,M,100.00,6.00,M,29.98,M,10.00,M,FEW,BKN,OVC,M,300.00,2900.00,3800.00,M,M,KABQ 011855Z AUTO 10006KT 10SM FEW003 BKN029 OVC038 A2998 RMK  MTNS OBSC NE-SE MADISHF
ABQ,2017-04-01 19:00,-106.6155,35.0419,M,M,M,70.00,6.00,M,29.98,M,10.00,M,FEW,BKN,OVC,M,300.00,2900.00,3800.00,M,M,KABQ 011900Z AUTO 07006KT 10SM FEW003 BKN029 OVC038 A2998 RMK  MTNS OBSC NE-SE MADISHF
ABQ,2017-04-01 19:05,-106.6155,35.0419,M,M,M,60.00,7.00,M,29.98,M,10.00,M,FEW,BKN,OVC,M,300.00,2900.00,3800.00,M,M,KABQ 011905Z AUTO 06007KT 10SM FEW003 BKN029 OVC038 A2998 RMK  MTNS OBSC NE-SE MADISHF
ABQ,2017-04-01 19:10,-106.6155,35.0419,M,M,M,60.00,8.00,M,29.98,M,10.00,M,FEW,BKN,OVC,M,300.00,2900.00,3800.00,M,M,KABQ 011910Z AUTO 06008KT 10SM FEW003 BKN029 OVC038 A2998 RMK  MTNS OBSC NE-SE MADISHF
ABQ,2017-04-01 19:15,-106.6155,35.0419,M,M,M,50.00,7.00,M,29.98,M,10.00,M,FEW,BKN,OVC,M,300.00,2900.00,3800.00,M,M,KABQ 011915Z AUTO 05007KT 10SM FEW003 BKN029 OVC038 A2998 RMK  MTNS OBSC NE-SE MADISHF
ABQ,2017-04-01 19:20,-106.6155,35.0419,M,M,M,M,M,M,29.98,M,10.00,M,FEW,BKN,OVC,M,300.00,2900.00,3800.00,M,M,KABQ 011920Z AUTO /////KT 10SM FEW003 BKN029 OVC038 A2998 RMK  MTNS OBSC NE-SE MADISHF
ABQ,2017-04-01 19:25,-106.6155,35.0419,M,M,M,M,M,M,29.98,M,10.00,M,FEW,BKN,OVC,M,300.00,2900.00,3800.00,M,M,KABQ 011925Z AUTO /////KT 10SM FEW003 BKN029 OVC038 A2998 RMK  MTNS OBSC NE-SE MADISHF
ABQ,2017-04-01 19:30,-106.6155,35.0419,M,M,M,40.00,8.00,M,29.99,M,10.00,M,FEW,BKN,OVC,M,300.00,2900.00,3800.00,M,M,KABQ 011930Z AUTO 04008KT 10SM FEW003 BKN029 OVC038 A2999 RMK  MTNS OBSC NE-SE MADISHF
ABQ,2017-04-01 19:35,-106.6155,35.0419,M,M,M,M,M,M,29.98,M,10.00,M,FEW,BKN,OVC,M,300.00,2900.00,3800.00,M,M,KABQ 011935Z AUTO /////KT 10SM FEW003 BKN029 OVC038 A2998 RMK  MTNS OBSC NE-SE MADISHF
ABQ,2017-04-01 19:40,-106.6155,35.0419,M,M,M,20.00,6.00,M,29.99,M,10.00,M,FEW,BKN,OVC,M,300.00,2900.00,3800.00,M,M,KABQ 011940Z AUTO 02006KT 10SM FEW003 BKN029 OVC038 A2999 RMK  MTNS OBSC NE-SE MADISHF
ABQ,2017-04-01 19:45,-106.6155,35.0419,M,M,M,0.00,0.00,M,29.98,M,10.00,M,FEW,BKN,OVC,M,300.00,2900.00,3800.00,M,M,KABQ 011945Z AUTO 00000KT 10SM FEW003 BKN029 OVC038 A2998 RMK  MTNS OBSC NE-SE MADISHF
ABQ,2017-04-01 19:50,-106.6155,35.0419,M,M,M,100.00,11.00,M,29.98,M,10.00,M,FEW,SCT,OVC,M,1500.00,3000.00,3800.00,M,M,KABQ 011950Z AUTO 10011KT 10SM FEW015 SCT030 OVC038 A2998 RMK  MTNS OBSC NE-SE SHRA DSNT S-SW TS DSNT S MADISHF
ABQ,2017-04-01 19:52,-106.6155,35.0419,44.10,36.00,72.99,100.00,8.00,0.00,29.98,1013.70,10.00,M,FEW,BKN,OVC,M,1500.00,3000.00,7000.00,M,M,KABQ 011952Z 10008KT 10SM FEW015 BKN030 OVC070 07/02 A2998 RMK AO2 SLP137 MTNS OBSC NE-SE SHRA DSNT S-SW TS DSNT S T00670022
ABQ,2017-04-01 19:55,-106.6155,35.0419,M,M,M,110.00,12.00,M,29.98,M,10.00,M,FEW,BKN,OVC,M,1500.00,3000.00,7000.00,M,M,KABQ 011955Z AUTO 11012KT 10SM FEW015 BKN030 OVC070 A2998 RMK  MTNS OBSC NE-SE SHRA DSNT S-SW TS DSNT S MADISHF
ABQ,2017-04-01 20:00,-106.6155,35.0419,M,M,M,90.00,13.00,M,29.99,M,10.00,M,FEW,BKN,OVC,M,1500.00,3000.00,7000.00,M,M,KABQ 012000Z AUTO 09013KT 10SM FEW015 BKN030 OVC070 A2999 RMK  TS DSNT S MTNS OBSC NE-SE SHRA DSNT S-SW MADISHF
ABQ,2017-04-01 20:05,-106.6155,35.0419,M,M,M,120.00,13.00,M,29.99,M,10.00,M,FEW,BKN,OVC,M,1500.00,3000.00,7000.00,M,M,KABQ 012005Z AUTO 12013KT 10SM FEW015 BKN030 OVC070 A2999 RMK  TS DSNT S MTNS OBSC NE-SE SHRA DSNT S-SW MADISHF
ABQ,2017-04-01 20:10,-106.6155,35.0419,M,M,M,120.00,15.00,M,29.99,M,10.00,M,FEW,BKN,OVC,M,1500.00,3000.00,7000.00,M,M,KABQ 012010Z AUTO 12015KT 10SM FEW015 BKN030 OVC070 A2999 RMK  TS DSNT S MTNS OBSC NE-SE SHRA DSNT S-SW MADISHF
ABQ,2017-04-01 20:15,-106.6155,35.0419,M,M,M,140.00,14.00,M,29.99,M,10.00,19.00,FEW,BKN,OVC,M,1500.00,3500.00,6000.00,M,-RA,KABQ 012015Z AUTO 14014G19KT 10SM -RA FEW015 BKN035 OVC060 A2999 RMK  TS DSNT SE MTNS OBSC NE-SE MADISHF
ABQ,2017-04-01 20:20,-106.6155,35.0419,M,M,M,140.00,13.00,M,29.99,M,10.00,18.00,FEW,BKN,OVC,M,1500.00,3500.00,6000.00,M,-RA,KABQ 012020Z AUTO 14013G18KT 10SM -RA FEW015 BKN035 OVC060 A2999 RMK  MTNS OBSC NE-SE MADISHF
ABQ,2017-04-01 20:25,-106.6155,35.0419,M,M,M,M,M,M,29.99,M,10.00,M,FEW,BKN,OVC,M,1500.00,3500.00,6000.00,M,-RA,KABQ 012025Z AUTO /////KT 10SM -RA FEW015 BKN035 OVC060 A2999 RMK  MTNS OBSC NE-SE MADISHF
ABQ,2017-04-01 20:30,-106.6155,35.0419,M,M,M,M,M,M,30.00,M,10.00,M,FEW,BKN,OVC,M,1500.00,3500.00,6000.00,M,-RA,KABQ 012030Z AUTO /////KT 10SM -RA FEW015 BKN035 OVC060 A3000 RMK  MTNS OBSC NE-SE MADISHF
ABQ,2017-04-01 20:35,-106.6155,35.0419,M,M,M,M,M,M,30.00,M,10.00,M,FEW,BKN,OVC,M,1500.00,3500.00,5000.00,M,-RA,KABQ 012035Z AUTO /////KT 10SM -RA FEW015 BKN035 OVC050 A3000 RMK  MTNS OBSC NE-SE MADISHF
ABQ,2017-04-01 20:40,-106.6155,35.0419,M,M,M,M,M,M,30.00,M,10.00,M,FEW,OVC,M,M,1500.00,3000.00,M,M,-RA,KABQ 012040Z AUTO /////KT 10SM -RA FEW015 OVC030 A3000 RMK  MTNS OBSC NE-SE MADISHF
ABQ,2017-04-01 20:45,-106.6155,35.0419,M,M,M,180.00,15.00,0.01,30.00,M,10.00,M,FEW,BKN,OVC,M,1500.00,3399.00,4300.00,M,-RA,KABQ 012045Z AUTO 18015KT 10SM -RA FEW015 BKN033 OVC043 A3000 RMK P0001  MTNS OBSC NE-SE MADISHF
ABQ,2017-04-01 20:50,-106.6155,35.0419,M,M,M,190.00,12.00,0.01,30.00,M,10.00,M,FEW,BKN,OVC,M,1500.00,3399.00,4300.00,M,-RA,KABQ 012050Z AUTO 19012KT 10SM -RA FEW015 BKN033 OVC043 A3000 RMK P0001  MTNS OBSC NE-SE SHSN DSNT NE-SE MADISHF
ABQ,2017-04-01 20:52,-106.6155,35.0419,41.00,37.00,85.54,190.00,12.00,0.01,30.00,1014.80,10.00,M,FEW,BKN,OVC,M,1500.00,3400.00,4300.00,M,-RA,KABQ 012052Z 19012KT 10SM -RA FEW015 BKN034 OVC043 05/03 A3000 RMK AO2 RAB11 SLP148 MTNS OBSC NE-SE SHSN DSNT NE-SE P0001 60002 T00500028 53005
ABQ,2017-04-01 20:55,-106.6155,35.0419,M,M,M,170.00,9.00,M,30.00,M,10.00,M,FEW,BKN,OVC,M,1500.00,3399.00,4300.00,M,-RA,KABQ 012055Z AUTO 17009KT 10SM -RA FEW015 BKN033 OVC043 A3000 RMK  MTNS OBSC NE-SE SHSN DSNT NE-SE MADISHF
ABQ,2017-04-01 21:00,-106.6155,35.0419,M,M,M,200.00,9.00,M,30.00,M,10.00,M,FEW,BKN,OVC,M,1500.00,3399.00,4300.00,M,-RA,KABQ 012100Z AUTO 20009KT 10SM -RA FEW015 BKN033 OVC043 A3000 RMK  MTNS OBSC NE-SE SHSN DSNT NE-SE MADISHF
ABQ,2017-04-01 21:05,-106.6155,35.0419,M,M,M,190.00,11.00,M,30.00,M,10.00,M,FEW,BKN,OVC,M,1500.00,3399.00,4300.00,M,-RA,KABQ 012105Z AUTO 19011KT 10SM -RA FEW015 BKN033 OVC043 A3000 RMK  MTNS OBSC NE-SE SHSN DSNT NE-SE MADISHF
ABQ,2017-04-01 21:10,-106.6155,35.0419,M,M,M,210.00,9.00,M,30.00,M,10.00,M,FEW,BKN,OVC,M,1500.00,3399.00,4300.00,M,-RA,KABQ 012110Z AUTO 21009KT 10SM -RA FEW015 BKN033 OVC043 A3000 RMK  MTNS OBSC NE-SE SHSN DSNT NE-SE MADISHF
ABQ,2017-04-01 21:15,-106.6155,35.0419,M,M,M,190.00,9.00,M,30.00,M,10.00,M,FEW,BKN,OVC,M,1500.00,3399.00,4300.00,M,-RA,KABQ 012115Z AUTO 19009KT 10SM -RA FEW015 BKN033 OVC043 A3000 RMK  MTNS OBSC NE-SE SHSN DSNT NE-SE MADISHF
ABQ,2017-04-01 21:20,-106.6155,35.0419,M,M,M,200.00,5.00,M,30.00,M,7.00,M,FEW,SCT,OVC,M,1500.00,2200.00,3399.00,M,RA,KABQ 012120Z AUTO 20005KT 7SM RA FEW015 SCT022 OVC033 A3000 RMK  MTNS OBSC NE-SE SHSN DSNT NE-SE MADISHF
ABQ,2017-04-01 21:25,-106.6155,35.0419,M,M,M,190.00,9.00,M,30.01,M,7.00,M,FEW,SCT,OVC,M,1500.00,2200.00,3399.00,M,-RA,KABQ 012125Z AUTO 19009KT 7SM -RA FEW015 SCT022 OVC033 A3001 RMK  MTNS OBSC NE-SE SHSN DSNT NE-SE MADISHF
ABQ,2017-04-01 21:30,-106.6155,35.0419,M,M,M,170.00,5.00,0.01,30.01,M,10.00,M,SCT,BKN,OVC,M,2200.00,2900.00,3800.00,M,-RA,KABQ 012130Z AUTO 17005KT 10SM -RA SCT022 BKN029 OVC038 A3001 RMK P0001  MTNS OBSC NE-SE SHSN DSNT NE-SE MADISHF
ABQ,2017-04-01 21:34,-106.6155,35.0419,42.10,36.00,78.80,140.00,8.00,0.01,30.02,M,9.00,M,SCT,BKN,OVC,M,2200.00,2900.00,3800.00,M,-RA,KABQ 012134Z 14008KT 9SM -RA SCT022 BKN029 OVC038 06/02 A3002 RMK AO2 MTNS OBSC NE-SE SHSN DSNT NE-SE P0001 T00560022
ABQ,2017-04-01 21:35,-106.6155,35.0419,M,M,M,140.00,12.00,0.01,30.02,M,8.00,18.00,SCT,BKN,OVC,M,2200.00,2900.00,3800.00,M,-RA,KABQ 012135Z AUTO 14012G18KT 8SM -RA SCT022 BKN029 OVC038 A3002 RMK P0001  MTNS OBSC NE-SE SHSN DSNT NE-SE MADISHF
ABQ,2017-04-01 21:40,-106.6155,35.0419,M,M,M,110.00,13.00,0.01,30.01,M,6.00,M,SCT,BKN,OVC,M,2200.00,2900.00,3800.00,M,-RA BR,KABQ 012140Z AUTO 11013KT 6SM -RA BR SCT022 BKN029 OVC038 A3001 RMK P0001  MTNS OBSC NE-SE SHSN DSNT NE-SE MADISHF
ABQ,2017-04-01 21:45,-106.6155,35.0419,M,M,M,M,M,0.01,30.01,M,7.00,M,SCT,BKN,OVC,M,2200.00,2900.00,3800.00,M,-RA BR,KABQ 012145Z AUTO /////KT 7SM -RA BR SCT022 BKN029 OVC038 A3001 RMK P0001  MTNS OBSC NE-SE SHSN DSNT NE-SE MADISHF
ABQ,2017-04-01 21:50,-106.6155,35.0419,M,M,M,M,M,0.02,30.01,M,10.00,M,SCT,BKN,OVC,M,2200.00,2900.00,3800.00,M,-RA,KABQ 012150Z AUTO /////KT 10SM -RA SCT022 BKN029 OVC038 A3001 RMK P0002  MTNS OBSC NE-SE SHSN DSNT NE-SE MADISHF
ABQ,2017-04-01 21:52,-106.6155,35.0419,39.90,36.00,85.81,110.00,12.00,0.02,30.02,1015.50,10.00,M,SCT,BKN,OVC,M,2200.00,2900.00,3800.00,M,-RA,KABQ 012152Z 11012KT 10SM -RA SCT022 BKN029 OVC038 04/02 A3002 RMK AO2 PK WND 14026/2136 WSHFT 2135 SLP155 MTNS OBSC NE-SE SHSN DSNT NE-SE P0002 T00440022
ABQ,2017-04-01 21:55,-106.6155,35.0419,M,M,M,M,M,M,30.02,M,10.00,M,SCT,BKN,OVC,M,2200.00,2900.00,3800.00,M,M,KABQ 012155Z AUTO /////KT 10SM SCT022 BKN029 OVC038 A3002 RMK  MTNS OBSC NE-SE SHSN DSNT NE-SE MADISHF
ABQ,2017-04-01 22:00,-106.6155,35.0419,M,M,M,M,M,M,30.02,M,9.00,M,SCT,BKN,OVC,M,2200.00,2900.00,3800.00,M,M,KABQ 012200Z AUTO /////KT 9SM SCT022 BKN029 OVC038 A3002 RMK  MTNS OBSC NE-SE SHSN DSNT NE-SE MADISHF
ABQ,2017-04-01 22:05,-106.6155,35.0419,M,M,M,M,M,M,30.03,M,9.00,M,SCT,BKN,OVC,M,2200.00,2900.00,3800.00,M,M,KABQ 012205Z AUTO /////KT 9SM SCT022 BKN029 OVC038 A3003 RMK  MTNS OBSC NE-SE SHSN DSNT NE-SE MADISHF
ABQ,2017-04-01 22:10,-106.6155,35.0419,M,M,M,M,M,M,30.03,M,9.00,M,SCT,BKN,OVC,M,2200.00,2900.00,3800.00,M,-RA,KABQ 012210Z AUTO /////KT 9SM -RA SCT022 BKN029 OVC038 A3003 RMK  MTNS OBSC NE-SE SHSN DSNT NE-SE MADISHF
ABQ,2017-04-01 22:12,-106.6155,35.0419,39.00,36.00,88.87,230.00,14.00,0.00,30.03,M,10.00,M,FEW,SCT,OVC,M,1200.00,2400.00,3500.00,M,-RA,KABQ 012212Z 23014KT 10SM -RA FEW012 SCT024 OVC035 04/02 A3003 RMK AO2 WSHFT 2158 MTNS OBSC NE-SE SHSN DSNT NE-SE P0000 T00390022
ABQ,2017-04-01 22:15,-106.6155,35.0419,M,M,M,230.00,12.00,M,30.03,M,10.00,M,FEW,SCT,OVC,M,1200.00,2400.00,3500.00,M,-RA,KABQ 012215Z AUTO 23012KT 10SM -RA FEW012 SCT024 OVC035 A3003 RMK  MTNS OBSC NE-SE SHSN DSNT NE-SE MADISHF
ABQ,2017-04-01 22:20,-106.6155,35.0419,M,M,M,230.00,10.00,M,30.03,M,10.00,M,FEW,SCT,OVC,M,1200.00,2400.00,3500.00,M,-RA,KABQ 012220Z AUTO 23010KT 10SM -RA FEW012 SCT024 OVC035 A3003 RMK  MTNS OBSC NE-SE SHSN DSNT NE-SE MADISHF
ABQ,2017-04-01 22:25,-106.6155,35.0419,M,M,M,230.00,8.00,M,30.04,M,10.00,M,FEW,SCT,OVC,M,1200.00,2400.00,3500.00,M,-RA,KABQ 012225Z AUTO 23008KT 10SM -RA FEW012 SCT024 OVC035 A3004 RMK  MTNS OBSC NE-SE SHSN DSNT NE-SE MADISHF
ABQ,2017-04-01 22:30,-106.6155,35.0419,M,M,M,240.00,7.00,M,30.04,M,10.00,M,FEW,SCT,OVC,M,1200.00,2400.00,3500.00,M,-RA,KABQ 012230Z AUTO 24007KT 10SM -RA FEW012 SCT024 OVC035 A3004 RMK  MTNS OBSC NE-SE SHSN DSNT NE-SE MADISHF
ABQ,2017-04-01 22:35,-106.6155,35.0419,M,M,M,280.00,4.00,M,30.04,M,10.00,M,FEW,SCT,OVC,M,1200.00,2400.00,3500.00,M,-RA,KABQ 012235Z AUTO 28004KT 10SM -RA FEW012 SCT024 OVC035 A3004 RMK  MTNS OBSC NE-SE SHSN DSNT NE-SE MADISHF
ABQ,2017-04-01 22:40,-106.6155,35.0419,M,M,M,280.00,5.00,M,30.04,M,10.00,M,FEW,SCT,OVC,M,1200.00,2400.00,3500.00,M,M,KABQ 012240Z AUTO 28005KT 10SM FEW012 SCT024 OVC035 A3004 RMK  MTNS OBSC NE-SE SHSN DSNT NE-SE MADISHF
ABQ,2017-04-01 22:45,-106.6155,35.0419,M,M,M,290.00,3.00,M,30.03,M,10.00,M,FEW,SCT,OVC,M,1200.00,2400.00,3500.00,M,M,KABQ 012245Z AUTO 29003KT 10SM FEW012 SCT024 OVC035 A3003 RMK  MTNS OBSC NE-SE SHSN DSNT NE-SE MADISHF
ABQ,2017-04-01 22:50,-106.6155,35.0419,M,M,M,300.00,4.00,M,30.03,M,10.00,M,FEW,SCT,BKN,M,400.00,1999.00,4500.00,M,M,KABQ 012250Z AUTO 30004KT 10SM FEW004 SCT019 BKN045 A3003 RMK  VCSH SW-NW MTNS OBSC NE-SE MADISHF
ABQ,2017-04-01 22:52,-106.6155,35.0419,39.90,37.90,92.48,300.00,4.00,0.00,30.03,1016.00,10.00,M,FEW,SCT,BKN,M,400.00,2000.00,4500.00,M,M,KABQ 012252Z 30004KT 10SM FEW004 SCT020 BKN045 04/03 A3003 RMK AO2 WSHFT 2203 RAE39 SLP160 VCSH SW-NW MTNS OBSC NE-SE P0000 T00440033
ABQ,2017-04-01 22:55,-106.6155,35.0419,M,M,M,0.00,0.00,M,30.03,M,10.00,M,FEW,SCT,BKN,M,400.00,1999.00,4500.00,M,M,KABQ 012255Z AUTO 00000KT 10SM FEW004 SCT019 BKN045 A3003 RMK  VCSH SW-NW MTNS OBSC NE-SE MADISHF
ABQ,2017-04-01 23:00,-106.6155,35.0419,M,M,M,0.00,0.00,M,30.03,M,10.00,M,FEW,SCT,BKN,M,400.00,1999.00,4500.00,M,M,KABQ 012300Z AUTO 00000KT 10SM FEW004 SCT019 BKN045 A3003 RMK  VCSH SW-NW MTNS OBSC NE-SE MADISHF
ABQ,2017-04-01 23:05,-106.6155,35.0419,M,M,M,0.00,0.00,M,30.03,M,10.00,M,FEW,SCT,BKN,M,400.00,1999.00,4500.00,M,M,KABQ 012305Z AUTO 00000KT 10SM FEW004 SCT019 BKN045 A3003 RMK  VCSH SW-NW MTNS OBSC NE-SE MADISHF
ABQ,2017-04-01 23:10,-106.6155,35.0419,M,M,M,190.00,3.00,M,30.03,M,10.00,M,FEW,SCT,BKN,M,400.00,1999.00,4500.00,M,M,KABQ 012310Z AUTO 19003KT 10SM FEW004 SCT019 BKN045 A3003 RMK  VCSH SW-NW MTNS OBSC NE-SE MADISHF
ABQ,2017-04-01 23:15,-106.6155,35.0419,M,M,M,120.00,4.00,M,30.03,M,10.00,M,FEW,SCT,BKN,M,400.00,1999.00,4500.00,M,M,KABQ 012315Z AUTO 12004KT 10SM FEW004 SCT019 BKN045 A3003 RMK  VCSH SW-NW MTNS OBSC NE-SE MADISHF
ABQ,2017-04-01 23:20,-106.6155,35.0419,M,M,M,140.00,5.00,M,30.03,M,10.00,M,FEW,SCT,BKN,M,400.00,1999.00,4500.00,M,M,KABQ 012320Z AUTO 14005KT 10SM FEW004 SCT019 BKN045 A3003 RMK  VCSH SW-NW MTNS OBSC NE-SE MADISHF
ABQ,2017-04-01 23:25,-106.6155,35.0419,M,M,M,120.00,5.00,M,30.03,M,10.00,M,FEW,SCT,BKN,M,400.00,1999.00,4500.00,M,M,KABQ 012325Z AUTO 12005KT 10SM FEW004 SCT019 BKN045 A3003 RMK  VCSH SW-NW MTNS OBSC NE-SE MADISHF
ABQ,2017-04-01 23:30,-106.6155,35.0419,M,M,M,150.00,7.00,M,30.03,M,10.00,M,FEW,SCT,BKN,M,400.00,1999.00,4500.00,M,M,KABQ 012330Z AUTO 15007KT 10SM FEW004 SCT019 BKN045 A3003 RMK  VCSH SW-NW MTNS OBSC NE-SE MADISHF
ABQ,2017-04-01 23:35,-106.6155,35.0419,M,M,M,130.00,7.00,M,30.04,M,10.00,M,FEW,SCT,BKN,M,400.00,1999.00,4500.00,M,M,KABQ 012335Z AUTO 13007KT 10SM FEW004 SCT019 BKN045 A3004 RMK  VCSH SW-NW MTNS OBSC NE-SE MADISHF
ABQ,2017-04-01 23:40,-106.6155,35.0419,M,M,M,140.00,6.00,M,30.04,M,10.00,M,FEW,SCT,BKN,M,400.00,1999.00,4500.00,M,M,KABQ 012340Z AUTO 14006KT 10SM FEW004 SCT019 BKN045 A3004 RMK  VCSH SW-NW MTNS OBSC NE-SE MADISHF
ABQ,2017-04-01 23:45,-106.6155,35.0419,M,M,M,140.00,6.00,M,30.04,M,10.00,M,FEW,SCT,BKN,M,400.00,1999.00,4500.00,M,M,KABQ 012345Z AUTO 14006KT 10SM FEW004 SCT019 BKN045 A3004 RMK  VCSH SW-NW MTNS OBSC NE-SE MADISHF
ABQ,2017-04-01 23:50,-106.6155,35.0419,M,M,M,140.00,8.00,M,30.04,M,10.00,M,FEW,SCT,SCT,M,1500.00,3500.00,12000.00,M,M,KABQ 012350Z AUTO 14008KT 10SM FEW015 SCT035 SCT120 A3004 RMK  SHRA DSNT SE MTNS OBSC NE-SE MADISHF
ABQ,2017-04-01 23:52,-106.6155,35.0419,42.10,37.00,81.98,150.00,8.00,0.00,30.04,1016.10,10.00,M,FEW,SCT,SCT,BKN,1500.00,3500.00,12000.00,20000.00,M,KABQ 012352Z 15008KT 10SM FEW015 SCT035 SCT120 BKN200 06/03 A3004 RMK AO2 SLP161 MTNS OBSC NE-SE 60004 T00560028 10067 20011 51013
ABQ,2017-04-01 23:55,-106.6155,35.0419,M,M,M,150.00,8.00,M,30.04,M,10.00,M,FEW,SCT,SCT,M,1500.00,3500.00,12000.00,M,M,KABQ 012355Z AUTO 15008KT 10SM FEW015 SCT035 SCT120 A3004 RMK  MTNS OBSC NE-SE MADISHF
