#DEBUG: Format Typ    -> comma
#DEBUG: Time Period   -> 2017-04-01 00:00:00+00:00 2017-04-02 00:00:00+00:00
#DEBUG: Time Zone     -> Etc/UTC
#DEBUG: Data Contact   -> daryl herzmann akrherz@iastate.edu 515-294-5978
#DEBUG: Entries Found -> -1
station,valid,lon,lat,tmpf, dwpf, relh, drct, sknt, p01i, alti, mslp, vsby, gust, skyc1, skyc2, skyc3, skyc4, skyl1, skyl2, skyl3, skyl4, presentwx, metar
ABR,2017-04-01 00:00,-98.4200,45.4500,M,M,M,50.00,5.00,M,30.07,M,10.00,M,CLR,M,M,M,M,M,M,M,M,KABR 010000Z AUTO 05005KT 10SM CLR A3007 RMK MADISHF
ABR,2017-04-01 00:05,-98.4200,45.4500,M,M,M,50.00,6.00,M,30.07,M,10.00,M,CLR,M,M,M,M,M,M,M,M,KABR 010005Z AUTO 05006KT 10SM CLR A3007 RMK MADISHF
ABR,2017-04-01 00:10,-98.4200,45.4500,M,M,M,40.00,4.00,M,30.07,M,10.00,M,CLR,M,M,M,M,M,M,M,M,KABR 010010Z AUTO 04004KT 10SM CLR A3007 RMK MADISHF
ABR,2017-04-01 00:15,-98.4200,45.4500,M,M,M,40.00,4.00,M,30.08,M,10.00,M,CLR,M,M,M,M,M,M,M,M,KABR 010015Z AUTO 04004KT 10SM CLR A3008 RMK MADISHF
ABR,2017-04-01 00:20,-98.4200,45.4500,M,M,M,30.00,5.00,M,30.08,M,10.00,M,CLR,M,M,M,M,M,M,M,M,KABR 010020Z AUTO 03005KT 10SM CLR A3008 RMK MADISHF
ABR,2017-04-01 00:25,-98.4200,45.4500,M,M,M,40.00,5.00,M,30.08,M,10.00,M,CLR,M,M,M,M,M,M,M,M,KABR 010025Z AUTO 04005KT 10SM CLR A3008 RMK MADISHF
ABR,2017-04-01 00:30,-98.4200,45.4500,M,M,M,30.00,6.00,M,30.08,M,10.00,M,CLR,M,M,M,M,M,M,M,M,KABR 010030Z AUTO 03006KT 10SM CLR A3008 RMK MADISHF
ABR,2017-04-01 00:35,-98.4200,45.4500,M,M,M,40.00,5.00,M,30.08,M,10.00,M,CLR,M,M,M,M,M,M,M,M,KABR 010035Z AUTO 04005KT 10SM CLR A3008 RMK MADISHF
ABR,2017-04-01 00:40,-98.4200,45.4500,M,M,M,40.00,5.00,M,30.08,M,10.00,M,CLR,M,M,M,M,M,M,M,M,KABR 010040Z AUTO 04005KT 10SM CLR A3008 RMK MADISHF
ABR,2017-04-01 00:45,-98.4200,45.4500,M,M,M,40.00,5.00,M,30.09,M,10.00,M,CLR,M,M,M,M,M,M,M,M,KABR 010045Z AUTO 04005KT 10SM CLR A3009 RMK MADISHF
ABR,2017-04-01 00:50,-98.4200,45.4500,M,M,M,50.00,5.00,M,30.09,M,10.00,M,CLR,M,M,M,M,M,M,M,M,KABR 010050Z AUTO 05005KT 10SM CLR A3009 RMK MADISHF
ABR,2017-04-01 00:53,-98.4200,45.4500,52.00,30.90,44.24,50.00,5.00,0.00,30.09,1019.90,10.00,M,CLR,M,M,M,M,M,M,M,M,KABR 010053Z AUTO 05005KT 10SM CLR 11/M01 A3009 RMK AO2 SLP199 T01111006
ABR,2017-04-01 00:55,-98.4200,45.4500,M,M,M,50.00,5.00,M,30.09,M,10.00,M,CLR,M,M,M,M,M,M,M,M,KABR 010055Z AUTO 05005KT 10SM CLR A3009 RMK MADISHF
ABR,2017-04-01 01:00,-98.4200,45.4500,M,M,M,40.00,4.00,M,30.09,M,10.00,M,CLR,M,M,M,M,M,M,M,M,KABR 010100Z AUTO 04004KT 10SM CLR A3009 RMK MADISHF
ABR,2017-04-01 01:05,-98.4200,45.4500,M,M,M,40.00,4.00,M,30.09,M,10.00,M,CLR,M,M,M,M,M,M,M,M,KABR 010105Z AUTO 04004KT 10SM CLR A3009 RMK MADISHF
ABR,2017-04-01 01:10,-98.4200,45.4500,M,M,M,30.00,5.00,M,30.10,M,10.00,M,CLR,M,M,M,M,M,M,M,M,KABR 010110Z AUTO 03005KT 10SM CLR A3010 RMK MADISHF
ABR,2017-04-01 01:15,-98.4200,45.4500,M,M,M,30.00,5.00,M,30.10,M,9.00,M,CLR,M,M,M,M,M,M,M,M,KABR 010115Z AUTO 03005KT 9SM CLR A3010 RMK MADISHF
ABR,2017-04-01 01:20,-98.4200,45.4500,M,M,M,40.00,4.00,M,30.10,M,9.00,M,CLR,M,M,M,M,M,M,M,M,KABR 010120Z AUTO 04004KT 9SM CLR A3010 RMK MADISHF
ABR,2017-04-01 01:25,-98.4200,45.4500,M,M,M,50.00,5.00,M,30.10,M,9.00,M,CLR,M,M,M,M,M,M,M,M,KABR 010125Z AUTO 05005KT 9SM CLR A3010 RMK MADISHF
ABR,2017-04-01 01:30,-98.4200,45.4500,M,M,M,60.00,5.00,M,30.10,M,10.00,M,CLR,M,M,M,M,M,M,M,M,KABR 010130Z AUTO 06005KT 10SM CLR A3010 RMK MADISHF
ABR,2017-04-01 01:35,-98.4200,45.4500,M,M,M,60.00,5.00,M,30.11,M,10.00,M,CLR,M,M,M,M,M,M,M,M,KABR 010135Z AUTO 06005KT 10SM CLR A3011 RMK MADISHF
ABR,2017-04-01 01:40,-98.4200,45.4500,M,M,M,50.00,5.00,M,30.11,M,10.00,M,CLR,M,M,M,M,M,M,M,M,KABR 010140Z AUTO 05005KT 10SM CLR A3011 RMK MADISHF
ABR,2017-04-01 01:45,-98.4200,45.4500,M,M,M,60.00,4.00,M,30.11,M,10.00,M,CLR,M,M,M,M,M,M,M,M,KABR 010145Z AUTO 06004KT 10SM CLR A3011 RMK MADISHF
ABR,2017-04-01 01:50,-98.4200,45.4500,M,M,M,50.00,4.00,M,30.11,M,10.00,M,CLR,M,M,M,M,M,M,M,M,KABR 010150Z AUTO 05004KT 10SM CLR A3011 RMK MADISHF
ABR,2017-04-01 01:53,-98.4200,45.4500,46.00,30.90,55.36,50.00,4.00,0.00,30.12,1020.70,10.00,M,CLR,M,M,M,M,M,M,M,M,KABR 010153Z AUTO 05004KT 10SM CLR 08/M01 A3012 RMK AO2 SLP207 T00781006
ABR,2017-04-01 01:55,-98.4200,45.4500,M,M,M,50.00,5.00,M,30.12,M,10.00,M,CLR,M,M,M,M,M,M,M,M,KABR 010155Z AUTO 05005KT 10SM CLR A3012 RMK MADISHF
ABR,2017-04-01 02:00,-98.4200,45.4500,M,M,M,40.00,3.00,M,30.12,M,10.00,M,CLR,M,M,M,M,M,M,M,M,KABR 010200Z AUTO 04003KT 10SM CLR A3012 RMK MADISHF
ABR,2017-04-01 02:05,-98.4200,45.4500,M,M,M,0.00,0.00,M,30.12,M,10.00,M,CLR,M,M,M,M,M,M,M,M,KABR 010205Z AUTO 00000KT 10SM CLR A3012 RMK MADISHF
ABR,2017-04-01 02:10,-98.4200,45.4500,M,M,M,0.00,0.00,M,30.13,M,10.00,M,CLR,M,M,M,M,M,M,M,M,KABR 010210Z AUTO 00000KT 10SM CLR A3013 RMK MADISHF
ABR,2017-04-01 02:15,-98.4200,45.4500,M,M,M,0.00,0.00,M,30.13,M,10.00,M,CLR,M,M,M,M,M,M,M,M,KABR 010215Z AUTO 00000KT 10SM CLR A3013 RMK MADISHF
ABR,2017-04-01 02:20,-98.4200,45.4500,M,M,M,0.00,0.00,M,30.13,M,10.00,M,CLR,M,M,M,M,M,M,M,M,KABR 010220Z AUTO 00000KT 10SM CLR A3013 RMK MADISHF
ABR,2017-04-01 02:25,-98.4200,45.4500,M,M,M,0.00,0.00,M,30.13,M,10.00,M,CLR,M,M,M,M,M,M,M,M,KABR 010225Z AUTO 00000KT 10SM CLR A3013 RMK MADISHF
ABR,2017-04-01 02:30,-98.4200,45.4500,M,M,M,0.00,0.00,M,30.13,M,10.00,M,CLR,M,M,M,M,M,M,M,M,KABR 010230Z AUTO 00000KT 10SM CLR A3013 RMK MADISHF
ABR,2017-04-01 02:35,-98.4200,45.4500,M,M,M,0.00,0.00,M,30.13,M,10.00,M,CLR,M,M,M,M,M,M,M,M,KABR 010235Z AUTO 00000KT 10SM CLR A3013 RMK MADISHF
ABR,2017-04-01 02:40,-98.4200,45.4500,M,M,M,0.00,0.00,M,30.13,M,10.00,M,CLR,M,M,M,M,M,M,M,M,KABR 010240Z AUTO 00000KT 10SM CLR A3013 RMK MADISHF
ABR,2017-04-01 02:45,-98.4200,45.4500,M,M,M,0.00,0.00,M,30.14,M,10.00,M,CLR,M,M,M,M,M,M,M,M,KABR 010245Z AUTO 00000KT 10SM CLR A3014 RMK MADISHF
ABR,2017-04-01 02:50,-98.4200,45.4500,M,M,M,0.00,0.00,M,30.14,M,10.00,M,CLR,M,M,M,M,M,M,M,M,KABR 010250Z AUTO 00000KT 10SM CLR A3014 RMK MADISHF
ABR,2017-04-01 02:53,-98.4200,45.4500,41.00,30.90,67.03,0.00,0.00,0.00,30.14,1021.50,10.00,M,CLR,M,M,M,M,M,M,M,M,KABR 010253Z AUTO 00000KT 10SM CLR 05/M01 A3014 RMK AO2 SLP215 T00501006 53024
ABR,2017-04-01 02:55,-98.4200,45.4500,M,M,M,0.00,0.00,M,30.14,M,10.00,M,CLR,M,M,M,M,M,M,M,M,KABR 010255Z AUTO 00000KT 10SM CLR A3014 RMK MADISHF
ABR,2017-04-01 03:00,-98.4200,45.4500,M,M,M,0.00,0.00,M,30.14,M,10.00,M,CLR,M,M,M,M,M,M,M,M,KABR 010300Z AUTO 00000KT 10SM CLR A3014 RMK MADISHF
ABR,2017-04-01 03:05,-98.4200,45.4500,M,M,M,0.00,0.00,M,30.14,M,10.00,M,CLR,M,M,M,M,M,M,M,M,KABR 010305Z AUTO 00000KT 10SM CLR A3014 RMK MADISHF
ABR,2017-04-01 03:10,-98.4200,45.4500,M,M,M,0.00,0.00,M,30.15,M,10.00,M,CLR,M,M,M,M,M,M,M,M,KABR 010310Z AUTO 00000KT 10SM CLR A3015 RMK MADISHF
ABR,2017-04-01 03:15,-98.4200,45.4500,M,M,M,0.00,0.00,M,30.15,M,10.00,M,CLR,M,M,M,M,M,M,M,M,KABR 010315Z AUTO 00000KT 10SM CLR A3015 RMK MADISHF
ABR,2017-04-01 03:20,-98.4200,45.4500,M,M,M,0.00,0.00,M,30.15,M,10.00,M,CLR,M,M,M,M,M,M,M,M,KABR 010320Z AUTO 00000KT 10SM CLR A3015 RMK MADISHF
ABR,2017-04-01 03:25,-98.4200,45.4500,M,M,M,0.00,0.00,M,30.15,M,10.00,M,CLR,M,M,M,M,M,M,M,M,KABR 010325Z AUTO 00000KT 10SM CLR A3015 RMK MADISHF
ABR,2017-04-01 03:30,-98.4200,45.4500,M,M,M,0.00,0.00,M,30.15,M,10.00,M,CLR,M,M,M,M,M,M,M,M,KABR 010330Z AUTO 00000KT 10SM CLR A3015 RMK MADISHF
ABR,2017-04-01 03:35,-98.4200,45.4500,M,M,M,0.00,0.00,M,30.15,M,10.00,M,CLR,M,M,M,M,M,M,M,M,KABR 010335Z AUTO 00000KT 10SM CLR A3015 RMK MADISHF
ABR,2017-04-01 03:40,-98.4200,45.4500,M,M,M,0.00,0.00,M,30.15,M,10.00,M,CLR,M,M,M,M,M,M,M,M,KABR 010340Z AUTO 00000KT 10SM CLR A3015 RMK MADISHF
ABR,2017-04-01 03:45,-98.4200,45.4500,M,M,M,0.00,0.00,M,30.15,M,10.00,M,CLR,M,M,M,M,M,M,M,M,KABR 010345Z AUTO 00000KT 10SM CLR A3015 RMK MADISHF
ABR,2017-04-01 03:50,-98.4200,45.4500,M,M,M,0.00,0.00,M,30.15,M,10.00,M,CLR,M,M,M,M,M,M,M,M,KABR 010350Z AUTO 00000KT 10SM CLR A3015 RMK MADISHF
ABR,2017-04-01 03:53,-98.4200,45.4500,39.00,30.90,72.45,0.00,0.00,0.00,30.15,1021.90,10.00,M,CLR,M,M,M,M,M,M,M,M,KABR 010353Z AUTO 00000KT 10SM CLR 04/M01 A3015 RMK AO2 SLP219 T00391006
ABR,2017-04-01 03:55,-98.4200,45.4500,M,M,M,0.00,0.00,M,30.15,M,10.00,M,CLR,M,M,M,M,M,M,M,M,KABR 010355Z AUTO 00000KT 10SM CLR A3015 RMK MADISHF
ABR,2017-04-01 04:00,-98.4200,45.4500,M,M,M,0.00,0.00,M,30.15,M,10.00,M,CLR,M,M,M,M,M,M,M,M,KABR 010400Z AUTO 00000KT 10SM CLR A3015 RMK MADISHF
ABR,2017-04-01 04:05,-98.4200,45.4500,M,M,M,0.00,0.00,M,30.15,M,10.00,M,CLR,M,M,M,M,M,M,M,M,KABR 010405Z AUTO 00000KT 10SM CLR A3015 RMK MADISHF
ABR,2017-04-01 04:10,-98.4200,45.4500,M,M,M,0.00,0.00,M,30.15,M,10.00,M,CLR,M,M,M,M,M,M,M,M,KABR 010410Z AUTO 00000KT 10SM CLR A3015 RMK MADISHF
ABR,2017-04-01 04:15,-98.4200,45.4500,M,M,M,0.00,0.00,M,30.15,M,10.00,M,CLR,M,M,M,M,M,M,M,M,KABR 010415Z AUTO 00000KT 10SM CLR A3015 RMK MADISHF
ABR,2017-04-01 04:20,-98.4200,45.4500,M,M,M,0.00,0.00,M,30.15,M,10.00,M,CLR,M,M,M,M,M,M,M,M,KABR 010420Z AUTO 00000KT 10SM CLR A3015 RMK MADISHF
ABR,2017-04-01 04:25,-98.4200,45.4500,M,M,M,0.00,0.00,M,30.15,M,9.00,M,CLR,M,M,M,M,M,M,M,M,KABR 010425Z AUTO 00000KT 9SM CLR A3015 RMK MADISHF
ABR,2017-04-01 04:30,-98.4200,45.4500,M,M,M,0.00,0.00,M,30.15,M,9.00,M,CLR,M,M,M,M,M,M,M,M,KABR 010430Z AUTO 00000KT 9SM CLR A3015 RMK MADISHF
ABR,2017-04-01 04:35,-98.4200,45.4500,M,M,M,0.00,0.00,M,30.15,M,10.00,M,CLR,M,M,M,M,M,M,M,M,KABR 010435Z AUTO 00000KT 10SM CLR A3015 RMK MADISHF
ABR,2017-04-01 04:40,-98.4200,45.4500,M,M,M,0.00,0.00,M,30.15,M,10.00,M,CLR,M,M,M,M,M,M,M,M,KABR 010440Z AUTO 00000KT 10SM CLR A3015 RMK MADISHF
ABR,2017-04-01 04:45,-98.4200,45.4500,M,M,M,0.00,0.00,M,30.16,M,10.00,M,CLR,M,M,M,M,M,M,M,M,KABR 010445Z AUTO 00000KT 10SM CLR A3016 RMK MADISHF
ABR,2017-04-01 04:50,-98.4200,45.4500,M,M,M,0.00,0.00,M,30.16,M,10.00,M,CLR,M,M,M,M,M,M,M,M,KABR 010450Z AUTO 00000KT 10SM CLR A3016 RMK MADISHF
ABR,2017-04-01 04:53,-98.4200,45.4500,39.90,32.00,73.14,0.00,0.00,0.00,30.16,1022.00,10.00,M,CLR,M,M,M,M,M,M,M,M,KABR 010453Z AUTO 00000KT 10SM CLR 04/00 A3016 RMK AO2 SLP220 T00440000
ABR,2017-04-01 04:55,-98.4200,45.4500,M,M,M,0.00,0.00,M,30.16,M,10.00,M,CLR,M,M,M,M,M,M,M,M,KABR 010455Z AUTO 00000KT 10SM CLR A3016 RMK MADISHF
ABR,2017-04-01 05:00,-98.4200,45.4500,M,M,M,0.00,0.00,M,30.16,M,10.00,M,CLR,M,M,M,M,M,M,M,M,KABR 010500Z AUTO 00000KT 10SM CLR A3016 RMK MADISHF
ABR,2017-04-01 05:05,-98.4200,45.4500,M,M,M,0.00,0.00,M,30.17,M,10.00,M,FEW,M,M,M,12000.00,M,M,M,M,KABR 010505Z AUTO 00000KT 10SM FEW120 A3017 RMK MADISHF
ABR,2017-04-01 05:10,-98.4200,45.4500,M,M,M,0.00,0.00,M,30.17,M,10.00,M,FEW,M,M,M,12000.00,M,M,M,M,KABR 010510Z AUTO 00000KT 10SM FEW120 A3017 RMK MADISHF
ABR,2017-04-01 05:15,-98.4200,45.4500,M,M,M,0.00,0.00,M,30.16,M,10.00,M,FEW,M,M,M,12000.00,M,M,M,M,KABR 010515Z AUTO 00000KT 10SM FEW120 A3016 RMK MADISHF
ABR,2017-04-01 05:20,-98.4200,45.4500,M,M,M,0.00,0.00,M,30.16,M,10.00,M,FEW,M,M,M,12000.00,M,M,M,M,KABR 010520Z AUTO 00000KT 10SM FEW120 A3016 RMK MADISHF
ABR,2017-04-01 05:25,-98.4200,45.4500,M,M,M,0.00,0.00,M,30.16,M,10.00,M,FEW,M,M,M,12000.00,M,M,M,M,KABR 010525Z AUTO 00000KT 10SM FEW120 A3016 RMK MADISHF
ABR,2017-04-01 05:30,-98.4200,45.4500,M,M,M,0.00,0.00,M,30.17,M,10.00,M,CLR,M,M,M,M,M,M,M,M,KABR 010530Z AUTO 00000KT 10SM CLR A3017 RMK MADISHF
ABR,2017-04-01 05:35,-98.4200,45.4500,M,M,M,0.00,0.00,M,30.17,M,10.00,M,CLR,M,M,M,M,M,M,M,M,KABR 010535Z AUTO 00000KT 10SM CLR A3017 RMK MADISHF
ABR,2017-04-01 05:40,-98.4200,45.4500,M,M,M,0.00,0.00,M,30.17,M,10.00,M,CLR,M,M,M,M,M,M,M,M,KABR 010540Z AUTO 00000KT 10SM CLR A3017 RMK MADISHF
ABR,2017-04-01 05:45,-98.4200,45.4500,M,M,M,0.00,0.00,M,30.17,M,10.00,M,CLR,M,M,M,M,M,M,M,M,KABR 010545Z AUTO 00000KT 10SM CLR A3017 RMK MADISHF
ABR,2017-04-01 05:50,-98.4200,45.4500,M,M,M,0.00,0.00,M,30.17,M,10.00,M,CLR,M,M,M,M,M,M,M,M,KABR 010550Z AUTO 00000KT 10SM CLR A3017 RMK MADISHF
ABR,2017-04-01 05:53,-98.4200,45.4500,39.00,32.00,75.75,0.00,0.00,0.00,30.17,1022.40,10.00,M,CLR,M,M,M,M,M,M,M,M,KABR 010553Z AUTO 00000KT 10SM CLR 04/00 A3017 RMK AO2 SLP224 T00390000 10139 20039 401611006 51010
ABR,2017-04-01 05:55,-98.4200,45.4500,M,M,M,0.00,0.00,M,30.17,M,10.00,M,CLR,M,M,M,M,M,M,M,M,KABR 010555Z AUTO 00000KT 10SM CLR A3017 RMK MADISHF
ABR,2017-04-01 06:00,-98.4200,45.4500,M,M,M,0.00,0.00,M,30.17,M,10.00,M,CLR,M,M,M,M,M,M,M,M,KABR 010600Z AUTO 00000KT 10SM CLR A3017 RMK MADISHF
ABR,2017-04-01 06:05,-98.4200,45.4500,M,M,M,0.00,0.00,M,30.17,M,10.00,M,FEW,M,M,M,12000.00,M,M,M,M,KABR 010605Z AUTO 00000KT 10SM FEW120 A3017 RMK MADISHF
ABR,2017-04-01 06:10,-98.4200,45.4500,M,M,M,0.00,0.00,M,30.18,M,10.00,M,SCT,M,M,M,12000.00,M,M,M,M,KABR 010610Z AUTO 00000KT 10SM SCT120 A3018 RMK MADISHF
ABR,2017-04-01 06:15,-98.4200,45.4500,M,M,M,0.00,0.00,M,30.18,M,10.00,M,FEW,M,M,M,12000.00,M,M,M,M,KABR 010615Z AUTO 00000KT 10SM FEW120 A3018 RMK MADISHF
ABR,2017-04-01 06:20,-98.4200,45.4500,M,M,M,0.00,0.00,M,30.18,M,10.00,M,FEW,M,M,M,12000.00,M,M,M,M,KABR 010620Z AUTO 00000KT 10SM FEW120 A3018 RMK MADISHF
ABR,2017-04-01 06:25,-98.4200,45.4500,M,M,M,0.00,0.00,M,30.18,M,10.00,M,FEW,M,M,M,12000.00,M,M,M,M,KABR 010625Z AUTO 00000KT 10SM FEW120 A3018 RMK MADISHF
ABR,2017-04-01 06:30,-98.4200,45.4500,M,M,M,0.00,0.00,M,30.18,M,10.00,M,FEW,M,M,M,12000.00,M,M,M,M,KABR 010630Z AUTO 00000KT 10SM FEW120 A3018 RMK MADISHF
ABR,2017-04-01 06:35,-98.4200,45.4500,M,M,M,0.00,0.00,M,30.18,M,10.00,M,CLR,M,M,M,M,M,M,M,M,KABR 010635Z AUTO 00000KT 10SM CLR A3018 RMK MADISHF
ABR,2017-04-01 06:40,-98.4200,45.4500,M,M,M,0.00,0.00,M,30.19,M,10.00,M,CLR,M,M,M,M,M,M,M,M,KABR 010640Z AUTO 00000KT 10SM CLR A3019 RMK MADISHF
ABR,2017-04-01 06:45,-98.4200,45.4500,M,M,M,0.00,0.00,M,30.19,M,10.00,M,CLR,M,M,M,M,M,M,M,M,KABR 010645Z AUTO 00000KT 10SM CLR A3019 RMK MADISHF
ABR,2017-04-01 06:50,-98.4200,45.4500,M,M,M,0.00,0.00,M,30.19,M,10.00,M,CLR,M,M,M,M,M,M,M,M,KABR 010650Z AUTO 00000KT 10SM CLR A3019 RMK MADISHF
ABR,2017-04-01 06:53,-98.4200,45.4500,37.90,32.00,79.08,300.00,3.00,0.00,30.19,1022.90,10.00,M,CLR,M,M,M,M,M,M,M,M,KABR 010653Z AUTO 30003KT 10SM CLR 03/00 A3019 RMK AO2 SLP229 T00330000
ABR,2017-04-01 06:55,-98.4200,45.4500,M,M,M,300.00,3.00,M,30.19,M,10.00,M,CLR,M,M,M,M,M,M,M,M,KABR 010655Z AUTO 30003KT 10SM CLR A3019 RMK MADISHF
ABR,2017-04-01 07:00,-98.4200,45.4500,M,M,M,320.00,3.00,M,30.19,M,10.00,M,CLR,M,M,M,M,M,M,M,M,KABR 010700Z AUTO 32003KT 10SM CLR A3019 RMK MADISHF
ABR,2017-04-01 07:05,-98.4200,45.4500,M,M,M,0.00,0.00,M,30.19,M,10.00,M,CLR,M,M,M,M,M,M,M,M,KABR 010705Z AUTO 00000KT 10SM CLR A3019 RMK MADISHF
ABR,2017-04-01 07:10,-98.4200,45.4500,M,M,M,360.00,3.00,M,30.19,M,10.00,M,CLR,M,M,M,M,M,M,M,M,KABR 010710Z AUTO 36003KT 10SM CLR A3019 RMK MADISHF
ABR,2017-04-01 07:15,-98.4200,45.4500,M,M,M,350.00,3.00,M,30.19,M,10.00,M,CLR,M,M,M,M,M,M,M,M,KABR 010715Z AUTO 35003KT 10SM CLR A3019 RMK MADISHF
ABR,2017-04-01 07:20,-98.4200,45.4500,M,M,M,350.00,4.00,M,30.19,M,10.00,M,CLR,M,M,M,M,M,M,M,M,KABR 010720Z AUTO 35004KT 10SM CLR A3019 RMK MADISHF
ABR,2017-04-01 07:25,-98.4200,45.4500,M,M,M,350.00,5.00,M,30.19,M,10.00,M,FEW,M,M,M,5500.00,M,M,M,M,KABR 010725Z AUTO 35005KT 10SM FEW055 A3019 RMK MADISHF
ABR,2017-04-01 07:30,-98.4200,45.4500,M,M,M,360.00,6.00,M,30.19,M,10.00,M,SCT,M,M,M,5500.00,M,M,M,M,KABR 010730Z AUTO 36006KT 10SM SCT055 A3019 RMK MADISHF
ABR,2017-04-01 07:35,-98.4200,45.4500,M,M,M,350.00,6.00,M,30.20,M,10.00,M,BKN,M,M,M,5500.00,M,M,M,M,KABR 010735Z AUTO 35006KT 10SM BKN055 A3020 RMK MADISHF
ABR,2017-04-01 07:40,-98.4200,45.4500,M,M,M,10.00,6.00,M,30.20,M,10.00,M,BKN,M,M,M,5500.00,M,M,M,M,KABR 010740Z AUTO 01006KT 10SM BKN055 A3020 RMK MADISHF
ABR,2017-04-01 07:45,-98.4200,45.4500,M,M,M,340.00,5.00,M,30.20,M,10.00,M,BKN,M,M,M,5500.00,M,M,M,M,KABR 010745Z AUTO 34005KT 10SM BKN055 A3020 RMK MADISHF
ABR,2017-04-01 07:50,-98.4200,45.4500,M,M,M,340.00,3.00,M,30.20,M,10.00,M,OVC,M,M,M,5500.00,M,M,M,M,KABR 010750Z AUTO 34003KT 10SM OVC055 A3020 RMK MADISHF
ABR,2017-04-01 07:53,-98.4200,45.4500,39.00,33.10,79.17,20.00,3.00,0.00,30.20,1023.20,10.00,M,OVC,M,M,M,5500.00,M,M,M,M,KABR 010753Z AUTO 02003KT 10SM OVC055 04/01 A3020 RMK AO2 SLP232 T00390006
ABR,2017-04-01 07:55,-98.4200,45.4500,M,M,M,40.00,4.00,M,30.20,M,10.00,M,OVC,M,M,M,5500.00,M,M,M,M,KABR 010755Z AUTO 04004KT 10SM OVC055 A3020 RMK MADISHF
ABR,2017-04-01 08:00,-98.4200,45.4500,M,M,M,20.00,3.00,M,30.20,M,10.00,M,BKN,M,M,M,5500.00,M,M,M,M,KABR 010800Z AUTO 02003KT 10SM BKN055 A3020 RMK MADISHF
ABR,2017-04-01 08:05,-98.4200,45.4500,M,M,M,10.00,3.00,M,30.20,M,10.00,M,BKN,M,M,M,5500.00,M,M,M,M,KABR 010805Z AUTO 01003KT 10SM BKN055 A3020 RMK MADISHF
ABR,2017-04-01 08:10,-98.4200,45.4500,M,M,M,20.00,3.00,M,30.20,M,10.00,M,BKN,M,M,M,5500.00,M,M,M,M,KABR 010810Z AUTO 02003KT 10SM BKN055 A3020 RMK MADISHF
ABR,2017-04-01 08:15,-98.4200,45.4500,M,M,M,0.00,0.00,M,30.20,M,10.00,M,BKN,M,M,M,5500.00,M,M,M,M,KABR 010815Z AUTO 00000KT 10SM BKN055 A3020 RMK MADISHF
ABR,2017-04-01 08:20,-98.4200,45.4500,M,M,M,0.00,0.00,M,30.20,M,10.00,M,BKN,M,M,M,6000.00,M,M,M,M,KABR 010820Z AUTO 00000KT 10SM BKN060 A3020 RMK MADISHF
ABR,2017-04-01 08:25,-98.4200,45.4500,M,M,M,0.00,0.00,M,30.20,M,10.00,M,BKN,M,M,M,6000.00,M,M,M,M,KABR 010825Z AUTO 00000KT 10SM BKN060 A3020 RMK MADISHF
ABR,2017-04-01 08:30,-98.4200,45.4500,M,M,M,0.00,0.00,M,30.20,M,10.00,M,BKN,M,M,M,6000.00,M,M,M,M,KABR 010830Z AUTO 00000KT 10SM BKN060 A3020 RMK MADISHF
ABR,2017-04-01 08:35,-98.4200,45.4500,M,M,M,30.00,3.00,M,30.20,M,10.00,M,BKN,M,M,M,6000.00,M,M,M,M,KABR 010835Z AUTO 03003KT 10SM BKN060 A3020 RMK MADISHF
ABR,2017-04-01 08:40,-98.4200,45.4500,M,M,M,30.00,3.00,M,30.20,M,10.00,M,OVC,M,M,M,6000.00,M,M,M,M,KABR 010840Z AUTO 03003KT 10SM OVC060 A3020 RMK MADISHF
ABR,2017-04-01 08:45,-98.4200,45.4500,M,M,M,30.00,3.00,M,30.20,M,10.00,M,OVC,M,M,M,6000.00,M,M,M,M,KABR 010845Z AUTO 03003KT 10SM OVC060 A3020 RMK MADISHF
ABR,2017-04-01 08:50,-98.4200,45.4500,M,M,M,30.00,3.00,M,30.20,M,10.00,M,OVC,M,M,M,6000.00,M,M,M,M,KABR 010850Z AUTO 03003KT 10SM OVC060 A3020 RMK MADISHF
ABR,2017-04-01 08:53,-98.4200,45.4500,37.90,32.00,79.08,30.00,3.00,0.00,30.20,1023.30,10.00,M,OVC,M,M,M,6000.00,M,M,M,M,KABR 010853Z AUTO 03003KT 10SM OVC060 03/00 A3020 RMK AO2 SLP233 T00330000 51010
ABR,2017-04-01 08:55,-98.4200,45.4500,M,M,M,20.00,4.00,M,30.20,M,10.00,M,OVC,M,M,M,6000.00,M,M,M,M,KABR 010855Z AUTO 02004KT 10SM OVC060 A3020 RMK MADISHF
ABR,2017-04-01 09:00,-98.4200,45.4500,M,M,M,360.00,4.00,M,30.20,M,10.00,M,OVC,M,M,M,6000.00,M,M,M,M,KABR 010900Z AUTO 36004KT 10SM OVC060 A3020 RMK MADISHF
ABR,2017-04-01 09:05,-98.4200,45.4500,M,M,M,20.00,4.00,M,30.20,M,10.00,M,BKN,M,M,M,6000.00,M,M,M,M,KABR 010905Z AUTO 02004KT 10SM BKN060 A3020 RMK MADISHF
ABR,2017-04-01 09:10,-98.4200,45.4500,M,M,M,360.00,4.00,M,30.20,M,10.00,M,BKN,M,M,M,6000.00,M,M,M,M,KABR 010910Z AUTO 36004KT 10SM BKN060 A3020 RMK MADISHF
ABR,2017-04-01 09:15,-98.4200,45.4500,M,M,M,20.00,5.00,M,30.20,M,10.00,M,SCT,BKN,M,M,6000.00,12000.00,M,M,M,KABR 010915Z AUTO 02005KT 10SM SCT060 BKN120 A3020 RMK MADISHF
ABR,2017-04-01 09:20,-98.4200,45.4500,M,M,M,30.00,4.00,M,30.20,M,10.00,M,SCT,BKN,M,M,6000.00,12000.00,M,M,M,KABR 010920Z AUTO 03004KT 10SM SCT060 BKN120 A3020 RMK MADISHF
ABR,2017-04-01 09:25,-98.4200,45.4500,M,M,M,30.00,3.00,M,30.20,M,10.00,M,FEW,FEW,M,M,6000.00,12000.00,M,M,M,KABR 010925Z AUTO 03003KT 10SM FEW060 FEW120 A3020 RMK MADISHF
ABR,2017-04-01 09:30,-98.4200,45.4500,M,M,M,40.00,3.00,M,30.20,M,10.00,M,FEW,M,M,M,12000.00,M,M,M,M,KABR 010930Z AUTO 04003KT 10SM FEW120 A3020 RMK MADISHF
ABR,2017-04-01 09:35,-98.4200,45.4500,M,M,M,40.00,3.00,M,30.20,M,10.00,M,FEW,M,M,M,12000.00,M,M,M,M,KABR 010935Z AUTO 04003KT 10SM FEW120 A3020 RMK MADISHF
ABR,2017-04-01 09:40,-98.4200,45.4500,M,M,M,60.00,4.00,M,30.20,M,10.00,M,FEW,M,M,M,12000.00,M,M,M,M,KABR 010940Z AUTO 06004KT 10SM FEW120 A3020 RMK MADISHF
ABR,2017-04-01 09:45,-98.4200,45.4500,M,M,M,70.00,4.00,M,30.20,M,10.00,M,CLR,M,M,M,M,M,M,M,M,KABR 010945Z AUTO 07004KT 10SM CLR A3020 RMK MADISHF
ABR,2017-04-01 09:50,-98.4200,45.4500,M,M,M,70.00,5.00,M,30.19,M,10.00,M,CLR,M,M,M,M,M,M,M,M,KABR 010950Z AUTO 07005KT 10SM CLR A3019 RMK MADISHF
ABR,2017-04-01 09:53,-98.4200,45.4500,36.00,30.90,81.53,70.00,5.00,0.00,30.19,1023.00,10.00,M,CLR,M,M,M,M,M,M,M,M,KABR 010953Z AUTO 07005KT 10SM CLR 02/M01 A3019 RMK AO2 SLP230 T00221006
ABR,2017-04-01 09:55,-98.4200,45.4500,M,M,M,70.00,5.00,M,30.19,M,10.00,M,CLR,M,M,M,M,M,M,M,M,KABR 010955Z AUTO 07005KT 10SM CLR A3019 RMK MADISHF
ABR,2017-04-01 10:00,-98.4200,45.4500,M,M,M,70.00,5.00,M,30.19,M,10.00,M,CLR,M,M,M,M,M,M,M,M,KABR 011000Z AUTO 07005KT 10SM CLR A3019 RMK MADISHF
ABR,2017-04-01 10:05,-98.4200,45.4500,M,M,M,70.00,4.00,M,30.19,M,10.00,M,CLR,M,M,M,M,M,M,M,M,KABR 011005Z AUTO 07004KT 10SM CLR A3019 RMK MADISHF
ABR,2017-04-01 10:10,-98.4200,45.4500,M,M,M,70.00,4.00,M,30.20,M,10.00,M,CLR,M,M,M,M,M,M,M,M,KABR 011010Z AUTO 07004KT 10SM CLR A3020 RMK MADISHF
ABR,2017-04-01 10:15,-98.4200,45.4500,M,M,M,70.00,3.00,M,30.20,M,10.00,M,CLR,M,M,M,M,M,M,M,M,KABR 011015Z AUTO 07003KT 10SM CLR A3020 RMK MADISHF
ABR,2017-04-01 10:20,-98.4200,45.4500,M,M,M,60.00,3.00,M,30.20,M,10.00,M,CLR,M,M,M,M,M,M,M,M,KABR 011020Z AUTO 06003KT 10SM CLR A3020 RMK MADISHF
ABR,2017-04-01 10:25,-98.4200,45.4500,M,M,M,50.00,4.00,M,30.20,M,10.00,M,CLR,M,M,M,M,M,M,M,M,KABR 011025Z AUTO 05004KT 10SM CLR A3020 RMK MADISHF
ABR,2017-04-01 10:30,-98.4200,45.4500,M,M,M,50.00,4.00,M,30.20,M,10.00,M,CLR,M,M,M,M,M,M,M,M,KABR 011030Z AUTO 05004KT 10SM CLR A3020 RMK MADISHF
ABR,2017-04-01 10:35,-98.4200,45.4500,M,M,M,70.00,3.00,M,30.20,M,10.00,M,CLR,M,M,M,M,M,M,M,M,KABR 011035Z AUTO 07003KT 10SM CLR A3020 RMK MADISHF
ABR,2017-04-01 10:40,-98.4200,45.4500,M,M,M,70.00,4.00,M,30.20,M,10.00,M,CLR,M,M,M,M,M,M,M,M,KABR 011040Z AUTO 07004KT 10SM CLR A3020 RMK MADISHF
ABR,2017-04-01 10:45,-98.4200,45.4500,M,M,M,60.00,3.00,M,30.20,M,9.00,M,CLR,M,M,M,M,M,M,M,M,KABR 011045Z AUTO 06003KT 9SM CLR A3020 RMK MADISHF
ABR,2017-04-01 10:50,-98.4200,45.4500,M,M,M,70.00,4.00,M,30.20,M,8.00,M,CLR,M,M,M,M,M,M,M,M,KABR 011050Z AUTO 07004KT 8SM CLR A3020 RMK MADISHF
ABR,2017-04-01 10:53,-98.4200,45.4500,35.10,30.90,84.49,70.00,4.00,0.00,30.20,1023.30,7.00,M,CLR,M,M,M,M,M,M,M,M,KABR 011053Z AUTO 07004KT 7SM CLR 02/M01 A3020 RMK AO2 SLP233 T00171006
ABR,2017-04-01 10:55,-98.4200,45.4500,M,M,M,70.00,4.00,M,30.20,M,6.00,M,CLR,M,M,M,M,M,M,M,BR,KABR 011055Z AUTO 07004KT 6SM BR CLR A3020 RMK MADISHF
ABR,2017-04-01 11:00,-98.4200,45.4500,M,M,M,100.00,3.00,M,30.20,M,5.00,M,CLR,M,M,M,M,M,M,M,BR,KABR 011100Z AUTO 10003KT 5SM BR CLR A3020 RMK MADISHF
ABR,2017-04-01 11:05,-98.4200,45.4500,M,M,M,0.00,0.00,M,30.20,M,3.50,M,CLR,M,M,M,M,M,M,M,BR,KABR 011105Z AUTO 00000KT 3SM BR CLR A3020 RMK MADISHF
ABR,2017-04-01 11:10,-98.4200,45.4500,M,M,M,150.00,3.00,M,30.21,M,2.50,M,CLR,M,M,M,M,M,M,M,BR,KABR 011110Z AUTO 15003KT 2 1/2SM BR CLR A3021 RMK MADISHF
ABR,2017-04-01 11:13,-98.4200,45.4500,30.00,28.00,92.15,150.00,4.00,0.00,30.21,M,2.50,M,CLR,M,M,M,M,M,M,M,BR,KABR 011113Z AUTO 15004KT 2 1/2SM BR CLR M01/M02 A3021 RMK AO2 T10111022
ABR,2017-04-01 11:15,-98.4200,45.4500,M,M,M,160.00,4.00,M,30.21,M,2.50,M,CLR,M,M,M,M,M,M,M,BR,KABR 011115Z AUTO 16004KT 2 1/2SM BR CLR A3021 RMK MADISHF
ABR,2017-04-01 11:20,-98.4200,45.4500,M,M,M,150.00,3.00,M,30.21,M,4.00,M,CLR,M,M,M,M,M,M,M,BR,KABR 011120Z AUTO 15003KT 4SM BR CLR A3021 RMK MADISHF
ABR,2017-04-01 11:22,-98.4200,45.4500,30.00,28.00,92.15,150.00,3.00,0.00,30.21,M,4.00,M,CLR,M,M,M,M,M,M,M,BR,KABR 011122Z AUTO 15003KT 4SM BR CLR M01/M02 A3021 RMK AO2 T10111022
ABR,2017-04-01 11:25,-98.4200,45.4500,M,M,M,150.00,3.00,M,30.21,M,5.00,M,CLR,M,M,M,M,M,M,M,BR,KABR 011125Z AUTO 15003KT 5SM BR CLR A3021 RMK MADISHF
ABR,2017-04-01 11:30,-98.4200,45.4500,M,M,M,150.00,3.00,M,30.21,M,6.00,M,CLR,M,M,M,M,M,M,M,BR,KABR 011130Z AUTO 15003KT 6SM BR CLR A3021 RMK MADISHF
ABR,2017-04-01 11:35,-98.4200,45.4500,M,M,M,160.00,3.00,M,30.22,M,5.00,M,FEW,M,M,M,6500.00,M,M,M,BR,KABR 011135Z AUTO 16003KT 5SM BR FEW065 A3022 RMK MADISHF
ABR,2017-04-01 11:40,-98.4200,45.4500,M,M,M,0.00,0.00,M,30.22,M,5.00,M,SCT,M,M,M,6500.00,M,M,M,BR,KABR 011140Z AUTO 00000KT 5SM BR SCT065 A3022 RMK MADISHF
ABR,2017-04-01 11:45,-98.4200,45.4500,M,M,M,0.00,0.00,M,30.23,M,5.00,M,BKN,M,M,M,6500.00,M,M,M,BR,KABR 011145Z AUTO 00000KT 5SM BR BKN065 A3023 RMK MADISHF
ABR,2017-04-01 11:50,-98.4200,45.4500,M,M,M,330.00,4.00,M,30.23,M,6.00,M,BKN,M,M,M,6500.00,M,M,M,BR,KABR 011150Z AUTO 33004KT 6SM BR BKN065 A3023 RMK MADISHF
ABR,2017-04-01 11:53,-98.4200,45.4500,32.00,28.90,88.17,330.00,4.00,0.00,30.23,1024.40,7.00,M,BKN,M,M,M,6500.00,M,M,M,M,KABR 011153Z AUTO 33004KT 7SM BKN065 00/M02 A3023 RMK AO2 SLP244 T00001017 10044 21017 53008
ABR,2017-04-01 11:55,-98.4200,45.4500,M,M,M,340.00,6.00,M,30.23,M,7.00,M,FEW,BKN,M,M,200.00,6500.00,M,M,M,KABR 011155Z AUTO 34006KT 7SM FEW002 BKN065 A3023 RMK MADISHF
ABR,2017-04-01 11:57,-98.4200,45.4500,33.10,30.00,88.23,360.00,4.00,0.00,30.23,M,2.50,M,FEW,OVC,M,M,200.00,6500.00,M,M,BR,KABR 011157Z AUTO 36004KT 2 1/2SM BR FEW002 OVC065 01/M01 A3023 RMK AO2 T00061011
ABR,2017-04-01 11:59,-98.4200,45.4500,34.00,30.90,88.27,10.00,4.00,0.00,30.23,M,1.00,M,FEW,OVC,M,M,200.00,6500.00,M,M,BR,KABR 011159Z AUTO 01004KT 1SM BR FEW002 OVC065 01/M01 A3023 RMK AO2 T00111006
ABR,2017-04-01 12:00,-98.4200,45.4500,M,M,M,10.00,5.00,M,30.23,M,0.75,M,FEW,OVC,M,M,200.00,6500.00,M,M,BR,KABR 011200Z AUTO 01005KT 1SM BR FEW002 OVC065 A3023 RMK MADISHF
ABR,2017-04-01 12:05,-98.4200,45.4500,M,M,M,10.00,5.00,M,30.23,M,0.50,M,SCT,OVC,M,M,200.00,6500.00,M,M,FG,KABR 011205Z AUTO 01005KT 1/2SM FG SCT002 OVC065 A3023 RMK MADISHF
ABR,2017-04-01 12:06,-98.4200,45.4500,35.10,32.00,88.33,10.00,5.00,0.00,30.23,M,0.25,M,SCT,OVC,M,M,200.00,6500.00,M,M,FG,KABR 011206Z AUTO 01005KT 1/4SM FG SCT002 OVC065 02/00 A3023 RMK AO2 T00170000
ABR,2017-04-01 12:10,-98.4200,45.4500,M,M,M,10.00,5.00,M,30.22,M,0.25,M,BKN,OVC,M,M,200.00,6500.00,M,M,FG,KABR 011210Z AUTO 01005KT 1/4SM FG BKN002 OVC065 A3022 RMK MADISHF
ABR,2017-04-01 12:14,-98.4200,45.4500,35.10,33.10,92.32,20.00,4.00,0.00,30.22,M,0.25,M,BKN,OVC,M,M,200.00,6500.00,M,M,FG,KABR 011214Z AUTO 02004KT 1/4SM FG BKN002 OVC065 02/01 A3022 RMK AO2 T00170006
ABR,2017-04-01 12:15,-98.4200,45.4500,M,M,M,20.00,5.00,M,30.22,M,0.24,M,BKN,OVC,M,M,200.00,6500.00,M,M,FG,KABR 011215Z AUTO 02005KT 1/4SM FG BKN002 OVC065 A3022 RMK MADISHF
ABR,2017-04-01 12:20,-98.4200,45.4500,M,M,M,10.00,4.00,M,30.22,M,0.24,M,BKN,OVC,M,M,200.00,6500.00,M,M,FG,KABR 011220Z AUTO 01004KT 1/4SM FG BKN002 OVC065 A3022 RMK MADISHF
ABR,2017-04-01 12:25,-98.4200,45.4500,M,M,M,30.00,3.00,M,30.22,M,0.24,M,VV ,M,M,M,200.00,M,M,M,FG,KABR 011225Z AUTO 03003KT 1/4SM FG VV002 A3022 RMK MADISHF
ABR,2017-04-01 12:30,-98.4200,45.4500,M,M,M,20.00,3.00,M,30.22,M,0.13,M,VV ,M,M,M,100.00,M,M,M,FG,KABR 011230Z AUTO 02003KT 1/4SM FG VV001 A3022 RMK MADISHF
ABR,2017-04-01 12:33,-98.4200,45.4500,35.10,33.10,92.32,10.00,4.00,0.00,30.22,M,0.25,M,VV ,M,M,M,100.00,M,M,M,FG,KABR 011233Z AUTO 01004KT M1/4SM FG VV001 02/01 A3022 RMK AO2 T00170006
ABR,2017-04-01 12:35,-98.4200,45.4500,M,M,M,10.00,3.00,M,30.22,M,0.13,M,VV ,M,M,M,100.00,M,M,M,FG,KABR 011235Z AUTO 01003KT 1/4SM FG VV001 A3022 RMK MADISHF
ABR,2017-04-01 12:40,-98.4200,45.4500,M,M,M,30.00,3.00,M,30.22,M,0.13,M,VV ,M,M,M,100.00,M,M,M,FG,KABR 011240Z AUTO 03003KT 1/4SM FG VV001 A3022 RMK MADISHF
ABR,2017-04-01 12:45,-98.4200,45.4500,M,M,M,20.00,4.00,M,30.22,M,0.13,M,VV ,M,M,M,100.00,M,M,M,FG,KABR 011245Z AUTO 02004KT 1/4SM FG VV001 A3022 RMK MADISHF
ABR,2017-04-01 12:50,-98.4200,45.4500,M,M,M,10.00,5.00,M,30.22,M,0.13,M,VV ,M,M,M,100.00,M,M,M,FG,KABR 011250Z AUTO 01005KT 1/4SM FG VV001 A3022 RMK MADISHF
ABR,2017-04-01 12:53,-98.4200,45.4500,34.00,32.00,92.29,10.00,4.00,0.00,30.22,1024.20,0.25,M,VV ,M,M,M,100.00,M,M,M,FG,KABR 011253Z AUTO 01004KT M1/4SM FG VV001 01/00 A3022 RMK AO2 SLP242 T00110000
ABR,2017-04-01 12:55,-98.4200,45.4500,M,M,M,10.00,3.00,M,30.22,M,0.13,M,VV ,M,M,M,100.00,M,M,M,FG,KABR 011255Z AUTO 01003KT 1/4SM FG VV001 A3022 RMK MADISHF
ABR,2017-04-01 13:00,-98.4200,45.4500,M,M,M,360.00,5.00,M,30.22,M,0.13,M,VV ,M,M,M,100.00,M,M,M,FG,KABR 011300Z AUTO 36005KT 1/4SM FG VV001 A3022 RMK MADISHF
ABR,2017-04-01 13:05,-98.4200,45.4500,M,M,M,360.00,4.00,M,30.22,M,0.24,M,VV ,M,M,M,100.00,M,M,M,FG,KABR 011305Z AUTO 36004KT 1/4SM FG VV001 A3022 RMK MADISHF
ABR,2017-04-01 13:10,-98.4200,45.4500,M,M,M,0.00,0.00,M,30.22,M,0.24,M,VV ,M,M,M,100.00,M,M,M,FG,KABR 011310Z AUTO 00000KT 1/4SM FG VV001 A3022 RMK MADISHF
ABR,2017-04-01 13:15,-98.4200,45.4500,M,M,M,360.00,3.00,M,30.23,M,0.24,M,VV ,M,M,M,100.00,M,M,M,FG,KABR 011315Z AUTO 36003KT 1/4SM FG VV001 A3023 RMK MADISHF
ABR,2017-04-01 13:20,-98.4200,45.4500,M,M,M,10.00,3.00,M,30.22,M,0.24,M,VV ,M,M,M,100.00,M,M,M,FG,KABR 011320Z AUTO 01003KT 1/4SM FG VV001 A3022 RMK MADISHF
ABR,2017-04-01 13:25,-98.4200,45.4500,M,M,M,20.00,3.00,M,30.22,M,0.25,M,VV ,M,M,M,100.00,M,M,M,FG,KABR 011325Z AUTO 02003KT 1/4SM FG VV001 A3022 RMK MADISHF
ABR,2017-04-01 13:30,-98.4200,45.4500,M,M,M,20.00,3.00,M,30.23,M,0.75,M,VV ,M,M,M,100.00,M,M,M,BR,KABR 011330Z AUTO 02003KT 1SM BR VV001 A3023 RMK MADISHF
ABR,2017-04-01 13:33,-98.4200,45.4500,36.00,34.00,92.35,360.00,4.00,0.00,30.23,M,0.75,M,VV ,M,M,M,100.00,M,M,M,BR,KABR 011333Z AUTO 36004KT 3/4SM BR VV001 02/01 A3023 RMK AO2 T00220011
ABR,2017-04-01 13:35,-98.4200,45.4500,M,M,M,10.00,4.00,M,30.23,M,0.75,M,VV ,M,M,M,100.00,M,M,M,BR,KABR 011335Z AUTO 01004KT 1SM BR VV001 A3023 RMK MADISHF
ABR,2017-04-01 13:40,-98.4200,45.4500,M,M,M,20.00,3.00,M,30.23,M,0.75,M,VV ,M,M,M,100.00,M,M,M,BR,KABR 011340Z AUTO 02003KT 1SM BR VV001 A3023 RMK MADISHF
ABR,2017-04-01 13:45,-98.4200,45.4500,M,M,M,10.00,5.00,M,30.23,M,1.00,M,OVC,M,M,M,100.00,M,M,M,BR,KABR 011345Z AUTO 01005KT 1SM BR OVC001 A3023 RMK MADISHF
ABR,2017-04-01 13:49,-98.4200,45.4500,37.40,33.80,86.69,20.00,4.00,0.00,30.23,M,1.50,M,OVC,M,M,M,100.00,M,M,M,BR,KABR 011349Z AUTO 02004KT 1 1/2SM BR OVC001 03/01 A3023 RMK AO2
ABR,2017-04-01 13:50,-98.4200,45.4500,M,M,M,20.00,5.00,M,30.23,M,1.75,M,OVC,M,M,M,100.00,M,M,M,BR,KABR 011350Z AUTO 02005KT 2SM BR OVC001 A3023 RMK MADISHF
ABR,2017-04-01 13:53,-98.4200,45.4500,37.00,35.10,92.76,40.00,4.00,0.00,30.23,1024.70,1.75,M,OVC,M,M,M,100.00,M,M,M,BR,KABR 011353Z AUTO 04004KT 1 3/4SM BR OVC001 03/02 A3023 RMK AO2 SLP247 T00280017
ABR,2017-04-01 13:55,-98.4200,45.4500,M,M,M,40.00,4.00,M,30.23,M,1.50,M,OVC,M,M,M,100.00,M,M,M,BR,KABR 011355Z AUTO 04004KT 1 1/2SM BR OVC001 A3023 RMK MADISHF
ABR,2017-04-01 14:00,-98.4200,45.4500,M,M,M,30.00,4.00,M,30.24,M,1.00,M,OVC,M,M,M,100.00,M,M,M,BR,KABR 011400Z AUTO 03004KT 1SM BR OVC001 A3024 RMK MADISHF
ABR,2017-04-01 14:02,-98.4200,45.4500,37.90,35.10,89.53,20.00,5.00,0.00,30.24,M,1.25,M,OVC,M,M,M,100.00,M,M,M,BR,KABR 011402Z AUTO 02005KT 1 1/4SM BR OVC001 03/02 A3024 RMK AO2 T00330017
ABR,2017-04-01 14:05,-98.4200,45.4500,M,M,M,360.00,5.00,M,30.24,M,1.50,M,OVC,M,M,M,100.00,M,M,M,BR,KABR 011405Z AUTO 36005KT 1 1/2SM BR OVC001 A3024 RMK MADISHF
ABR,2017-04-01 14:07,-98.4200,45.4500,37.90,35.10,89.53,10.00,4.00,0.00,30.24,M,2.00,M,OVC,M,M,M,100.00,M,M,M,BR,KABR 011407Z AUTO 01004KT 2SM BR OVC001 03/02 A3024 RMK AO2 T00330017
ABR,2017-04-01 14:10,-98.4200,45.4500,M,M,M,30.00,4.00,M,30.24,M,2.00,M,OVC,M,M,M,100.00,M,M,M,BR,KABR 011410Z AUTO 03004KT 2SM BR OVC001 A3024 RMK MADISHF
ABR,2017-04-01 14:15,-98.4200,45.4500,M,M,M,40.00,3.00,M,30.24,M,2.50,M,BKN,M,M,M,100.00,M,M,M,BR,KABR 011415Z AUTO 04003KT 2 1/2SM BR BKN001 A3024 RMK MADISHF
ABR,2017-04-01 14:20,-98.4200,45.4500,37.90,36.00,92.78,20.00,3.00,0.00,30.23,M,5.00,M,BKN,M,M,M,200.00,M,M,M,BR,KABR 011420Z AUTO 02003KT 5SM BR BKN002 03/02 A3023 RMK AO2 T00330022
ABR,2017-04-01 14:25,-98.4200,45.4500,M,M,M,0.00,0.00,M,30.24,M,6.00,M,SCT,M,M,M,200.00,M,M,M,BR,KABR 011425Z AUTO 00000KT 6SM BR SCT002 A3024 RMK MADISHF
ABR,2017-04-01 14:30,-98.4200,45.4500,M,M,M,0.00,0.00,M,30.24,M,8.00,M,SCT,M,M,M,200.00,M,M,M,M,KABR 011430Z AUTO 00000KT 8SM SCT002 A3024 RMK MADISHF
ABR,2017-04-01 14:31,-98.4200,45.4500,39.00,36.00,88.87,0.00,0.00,0.00,30.23,M,8.00,M,SCT,M,M,M,200.00,M,M,M,M,KABR 011431Z AUTO 00000KT 8SM SCT002 04/02 A3023 RMK AO2 T00390022
ABR,2017-04-01 14:35,-98.4200,45.4500,M,M,M,0.00,0.00,M,30.23,M,10.00,M,FEW,M,M,M,200.00,M,M,M,M,KABR 011435Z AUTO 00000KT 10SM FEW002 A3023 RMK MADISHF
ABR,2017-04-01 14:40,-98.4200,45.4500,M,M,M,0.00,0.00,M,30.23,M,10.00,M,FEW,M,M,M,200.00,M,M,M,M,KABR 011440Z AUTO 00000KT 10SM FEW002 A3023 RMK MADISHF
ABR,2017-04-01 14:45,-98.4200,45.4500,M,M,M,150.00,3.00,M,30.24,M,10.00,M,CLR,M,M,M,M,M,M,M,M,KABR 011445Z AUTO 15003KT 10SM CLR A3024 RMK MADISHF
ABR,2017-04-01 14:50,-98.4200,45.4500,M,M,M,160.00,3.00,M,30.24,M,10.00,M,CLR,M,M,M,M,M,M,M,M,KABR 011450Z AUTO 16003KT 10SM CLR A3024 RMK MADISHF
ABR,2017-04-01 14:53,-98.4200,45.4500,44.10,37.00,75.93,150.00,5.00,0.00,30.24,1024.90,10.00,M,FEW,M,M,M,7000.00,M,M,M,M,KABR 011453Z AUTO 15005KT 10SM FEW070 07/03 A3024 RMK AO2 SLP249 T00670028 53004
ABR,2017-04-01 14:55,-98.4200,45.4500,M,M,M,160.00,4.00,M,30.24,M,10.00,M,FEW,M,M,M,7000.00,M,M,M,M,KABR 011455Z AUTO 16004KT 10SM FEW070 A3024 RMK MADISHF
ABR,2017-04-01 15:00,-98.4200,45.4500,M,M,M,190.00,4.00,M,30.24,M,10.00,M,SCT,M,M,M,7000.00,M,M,M,M,KABR 011500Z AUTO 19004KT 10SM SCT070 A3024 RMK MADISHF
ABR,2017-04-01 15:05,-98.4200,45.4500,M,M,M,190.00,5.00,M,30.24,M,10.00,M,BKN,M,M,M,7000.00,M,M,M,M,KABR 011505Z AUTO 19005KT 10SM BKN070 A3024 RMK MADISHF
ABR,2017-04-01 15:10,-98.4200,45.4500,M,M,M,180.00,4.00,M,30.24,M,10.00,M,BKN,M,M,M,7000.00,M,M,M,M,KABR 011510Z AUTO 18004KT 10SM BKN070 A3024 RMK MADISHF
ABR,2017-04-01 15:15,-98.4200,45.4500,M,M,M,180.00,5.00,M,30.24,M,10.00,M,BKN,M,M,M,7000.00,M,M,M,M,KABR 011515Z AUTO 18005KT 10SM BKN070 A3024 RMK MADISHF
ABR,2017-04-01 15:20,-98.4200,45.4500,M,M,M,200.00,6.00,M,30.24,M,10.00,M,OVC,M,M,M,7000.00,M,M,M,M,KABR 011520Z AUTO 20006KT 10SM OVC070 A3024 RMK MADISHF
ABR,2017-04-01 15:25,-98.4200,45.4500,M,M,M,200.00,5.00,M,30.24,M,10.00,M,OVC,M,M,M,7000.00,M,M,M,M,KABR 011525Z AUTO 20005KT 10SM OVC070 A3024 RMK MADISHF
ABR,2017-04-01 15:30,-98.4200,45.4500,M,M,M,210.00,3.00,M,30.23,M,10.00,M,BKN,OVC,M,M,7000.00,11000.00,M,M,M,KABR 011530Z AUTO 21003KT 10SM BKN070 OVC110 A3023 RMK MADISHF
ABR,2017-04-01 15:35,-98.4200,45.4500,M,M,M,250.00,4.00,M,30.22,M,10.00,M,BKN,BKN,M,M,7000.00,11000.00,M,M,M,KABR 011535Z AUTO 25004KT 10SM BKN070 BKN110 A3022 RMK MADISHF
ABR,2017-04-01 15:40,-98.4200,45.4500,M,M,M,230.00,3.00,M,30.22,M,10.00,M,SCT,BKN,M,M,7000.00,11000.00,M,M,M,KABR 011540Z AUTO 23003KT 10SM SCT070 BKN110 A3022 RMK VRB03KT  MADISHF
ABR,2017-04-01 15:45,-98.4200,45.4500,M,M,M,250.00,3.00,M,30.22,M,10.00,M,SCT,SCT,M,M,7000.00,11000.00,M,M,M,KABR 011545Z AUTO 25003KT 10SM SCT070 SCT110 A3022 RMK MADISHF
ABR,2017-04-01 15:50,-98.4200,45.4500,M,M,M,230.00,4.00,M,30.22,M,10.00,M,FEW,SCT,M,M,7000.00,11000.00,M,M,M,KABR 011550Z AUTO 23004KT 10SM FEW070 SCT110 A3022 RMK MADISHF
ABR,2017-04-01 15:53,-98.4200,45.4500,52.00,36.00,54.26,M,4.00,0.00,30.22,1024.30,10.00,M,FEW,SCT,M,M,7000.00,11000.00,M,M,M,KABR 011553Z AUTO VRB04KT 10SM FEW070 SCT110 11/02 A3022 RMK AO2 SLP243 T01110022
ABR,2017-04-01 15:55,-98.4200,45.4500,M,M,M,200.00,4.00,M,30.22,M,10.00,M,SCT,M,M,M,11000.00,M,M,M,M,KABR 011555Z AUTO 20004KT 10SM SCT110 A3022 RMK MADISHF
ABR,2017-04-01 16:00,-98.4200,45.4500,M,M,M,190.00,4.00,M,30.22,M,10.00,M,SCT,M,M,M,11000.00,M,M,M,M,KABR 011600Z AUTO 19004KT 10SM SCT110 A3022 RMK MADISHF
ABR,2017-04-01 16:05,-98.4200,45.4500,M,M,M,200.00,3.00,M,30.22,M,10.00,M,FEW,M,M,M,11000.00,M,M,M,M,KABR 011605Z AUTO 20003KT 10SM FEW110 A3022 RMK VRB03KT  MADISHF
ABR,2017-04-01 16:10,-98.4200,45.4500,M,M,M,190.00,3.00,M,30.22,M,10.00,M,FEW,M,M,M,11000.00,M,M,M,M,KABR 011610Z AUTO 19003KT 10SM FEW110 A3022 RMK MADISHF
ABR,2017-04-01 16:15,-98.4200,45.4500,M,M,M,190.00,5.00,M,30.22,M,10.00,M,FEW,M,M,M,11000.00,M,M,M,M,KABR 011615Z AUTO 19005KT 10SM FEW110 A3022 RMK MADISHF
ABR,2017-04-01 16:20,-98.4200,45.4500,M,M,M,210.00,5.00,M,30.22,M,10.00,M,FEW,M,M,M,11000.00,M,M,M,M,KABR 011620Z AUTO 21005KT 10SM FEW110 A3022 RMK MADISHF
ABR,2017-04-01 16:25,-98.4200,45.4500,M,M,M,200.00,5.00,M,30.22,M,10.00,M,SCT,M,M,M,11000.00,M,M,M,M,KABR 011625Z AUTO 20005KT 10SM SCT110 A3022 RMK MADISHF
ABR,2017-04-01 16:30,-98.4200,45.4500,M,M,M,230.00,6.00,M,30.22,M,10.00,M,SCT,M,M,M,11000.00,M,M,M,M,KABR 011630Z AUTO 23006KT 10SM SCT110 A3022 RMK MADISHF
ABR,2017-04-01 16:35,-98.4200,45.4500,M,M,M,190.00,5.00,M,30.22,M,10.00,M,BKN,M,M,M,11000.00,M,M,M,M,KABR 011635Z AUTO 19005KT 10SM BKN110 A3022 RMK MADISHF
ABR,2017-04-01 16:40,-98.4200,45.4500,M,M,M,210.00,4.00,M,30.22,M,10.00,M,BKN,M,M,M,11000.00,M,M,M,M,KABR 011640Z AUTO 21004KT 10SM BKN110 A3022 RMK MADISHF
ABR,2017-04-01 16:45,-98.4200,45.4500,M,M,M,220.00,7.00,M,30.21,M,10.00,M,SCT,M,M,M,11000.00,M,M,M,M,KABR 011645Z AUTO 22007KT 10SM SCT110 A3021 RMK MADISHF
ABR,2017-04-01 16:50,-98.4200,45.4500,M,M,M,210.00,7.00,M,30.21,M,10.00,M,SCT,M,M,M,11000.00,M,M,M,M,KABR 011650Z AUTO 21007KT 10SM SCT110 A3021 RMK MADISHF
ABR,2017-04-01 16:53,-98.4200,45.4500,57.90,27.00,30.43,220.00,6.00,0.00,30.21,1023.50,10.00,M,SCT,M,M,M,11000.00,M,M,M,M,KABR 011653Z AUTO 22006KT 10SM SCT110 14/M03 A3021 RMK AO2 SLP235 T01441028
ABR,2017-04-01 16:55,-98.4200,45.4500,M,M,M,220.00,8.00,M,30.21,M,10.00,M,SCT,M,M,M,11000.00,M,M,M,M,KABR 011655Z AUTO 22008KT 10SM SCT110 A3021 RMK MADISHF
ABR,2017-04-01 17:00,-98.4200,45.4500,M,M,M,230.00,6.00,M,30.21,M,10.00,M,FEW,M,M,M,10000.00,M,M,M,M,KABR 011700Z AUTO 23006KT 10SM FEW100 A3021 RMK MADISHF
ABR,2017-04-01 17:05,-98.4200,45.4500,M,M,M,200.00,7.00,M,30.21,M,10.00,M,CLR,M,M,M,M,M,M,M,M,KABR 011705Z AUTO 20007KT 10SM CLR A3021 RMK MADISHF
ABR,2017-04-01 17:10,-98.4200,45.4500,M,M,M,220.00,7.00,M,30.20,M,10.00,M,CLR,M,M,M,M,M,M,M,M,KABR 011710Z AUTO 22007KT 10SM CLR A3020 RMK MADISHF
ABR,2017-04-01 17:15,-98.4200,45.4500,M,M,M,250.00,7.00,M,30.20,M,10.00,M,CLR,M,M,M,M,M,M,M,M,KABR 011715Z AUTO 25007KT 10SM CLR A3020 RMK MADISHF
ABR,2017-04-01 17:20,-98.4200,45.4500,M,M,M,240.00,8.00,M,30.20,M,10.00,M,CLR,M,M,M,M,M,M,M,M,KABR 011720Z AUTO 24008KT 10SM CLR A3020 RMK MADISHF
ABR,2017-04-01 17:25,-98.4200,45.4500,M,M,M,230.00,8.00,M,30.19,M,10.00,M,CLR,M,M,M,M,M,M,M,M,KABR 011725Z AUTO 23008KT 10SM CLR A3019 RMK MADISHF
ABR,2017-04-01 17:30,-98.4200,45.4500,M,M,M,230.00,7.00,M,30.19,M,10.00,M,CLR,M,M,M,M,M,M,M,M,KABR 011730Z AUTO 23007KT 10SM CLR A3019 RMK MADISHF
ABR,2017-04-01 17:35,-98.4200,45.4500,M,M,M,200.00,7.00,M,30.19,M,10.00,M,CLR,M,M,M,M,M,M,M,M,KABR 011735Z AUTO 20007KT 10SM CLR A3019 RMK MADISHF
ABR,2017-04-01 17:40,-98.4200,45.4500,M,M,M,170.00,7.00,M,30.19,M,10.00,M,CLR,M,M,M,M,M,M,M,M,KABR 011740Z AUTO 17007KT 10SM CLR A3019 RMK MADISHF
ABR,2017-04-01 17:45,-98.4200,45.4500,M,M,M,190.00,7.00,M,30.18,M,10.00,M,CLR,M,M,M,M,M,M,M,M,KABR 011745Z AUTO 19007KT 10SM CLR A3018 RMK MADISHF
ABR,2017-04-01 17:50,-98.4200,45.4500,M,M,M,200.00,6.00,M,30.18,M,10.00,M,CLR,M,M,M,M,M,M,M,M,KABR 011750Z AUTO 20006KT 10SM CLR A3018 RMK MADISHF
ABR,2017-04-01 17:53,-98.4200,45.4500,60.10,28.00,29.31,210.00,6.00,0.00,30.18,1022.40,10.00,M,CLR,M,M,M,M,M,M,M,M,KABR 011753Z AUTO 21006KT 10SM CLR 16/M02 A3018 RMK AO2 SLP224 T01561022 10161 20006 58020
ABR,2017-04-01 17:55,-98.4200,45.4500,M,M,M,210.00,4.00,M,30.18,M,10.00,M,CLR,M,M,M,M,M,M,M,M,KABR 011755Z AUTO 21004KT 10SM CLR A3018 RMK VRB04KT  MADISHF
ABR,2017-04-01 18:00,-98.4200,45.4500,M,M,M,180.00,9.00,M,30.18,M,10.00,M,CLR,M,M,M,M,M,M,M,M,KABR 011800Z AUTO 18009KT 10SM CLR A3018 RMK MADISHF
ABR,2017-04-01 18:05,-98.4200,45.4500,M,M,M,140.00,4.00,M,30.17,M,10.00,M,CLR,M,M,M,M,M,M,M,M,KABR 011805Z AUTO 14004KT 10SM CLR A3017 RMK MADISHF
ABR,2017-04-01 18:10,-98.4200,45.4500,M,M,M,210.00,7.00,M,30.17,M,10.00,M,CLR,M,M,M,M,M,M,M,M,KABR 011810Z AUTO 21007KT 10SM CLR A3017 RMK MADISHF
ABR,2017-04-01 18:15,-98.4200,45.4500,M,M,M,200.00,5.00,M,30.17,M,10.00,M,CLR,M,M,M,M,M,M,M,M,KABR 011815Z AUTO 20005KT 10SM CLR A3017 RMK MADISHF
ABR,2017-04-01 18:20,-98.4200,45.4500,M,M,M,170.00,9.00,M,30.17,M,10.00,14.00,CLR,M,M,M,M,M,M,M,M,KABR 011820Z AUTO 17009G14KT 10SM CLR A3017 RMK MADISHF
ABR,2017-04-01 18:25,-98.4200,45.4500,M,M,M,160.00,7.00,M,30.17,M,10.00,M,CLR,M,M,M,M,M,M,M,M,KABR 011825Z AUTO 16007KT 10SM CLR A3017 RMK MADISHF
ABR,2017-04-01 18:30,-98.4200,45.4500,M,M,M,180.00,8.00,M,30.16,M,10.00,M,CLR,M,M,M,M,M,M,M,M,KABR 011830Z AUTO 18008KT 10SM CLR A3016 RMK MADISHF
ABR,2017-04-01 18:35,-98.4200,45.4500,M,M,M,200.00,6.00,M,30.16,M,10.00,M,CLR,M,M,M,M,M,M,M,M,KABR 011835Z AUTO 20006KT 10SM CLR A3016 RMK MADISHF
ABR,2017-04-01 18:40,-98.4200,45.4500,M,M,M,M,M,M,30.16,M,10.00,M,CLR,M,M,M,M,M,M,M,M,KABR 011840Z AUTO /////KT 10SM CLR A3016 RMK MADISHF
ABR,2017-04-01 18:45,-98.4200,45.4500,M,M,M,200.00,7.00,M,30.16,M,10.00,M,CLR,M,M,M,M,M,M,M,M,KABR 011845Z AUTO 20007KT 10SM CLR A3016 RMK WND 15V23  MADISHF
ABR,2017-04-01 18:50,-98.4200,45.4500,M,M,M,170.00,5.00,M,30.16,M,10.00,M,CLR,M,M,M,M,M,M,M,M,KABR 011850Z AUTO 17005KT 10SM CLR A3016 RMK MADISHF
ABR,2017-04-01 18:53,-98.4200,45.4500,61.00,27.00,27.24,M,6.00,0.00,30.15,1021.60,10.00,15.00,CLR,M,M,M,M,M,M,M,M,KABR 011853Z AUTO VRB06G15KT 10SM CLR 16/M03 A3015 RMK AO2 SLP216 T01611028
ABR,2017-04-01 18:55,-98.4200,45.4500,M,M,M,210.00,9.00,M,30.15,M,10.00,M,CLR,M,M,M,M,M,M,M,M,KABR 011855Z AUTO 21009KT 10SM CLR A3015 RMK MADISHF
ABR,2017-04-01 19:00,-98.4200,45.4500,M,M,M,250.00,3.00,M,30.15,M,10.00,M,CLR,M,M,M,M,M,M,M,M,KABR 011900Z AUTO 25003KT 10SM CLR A3015 RMK VRB03KT  MADISHF
ABR,2017-04-01 19:05,-98.4200,45.4500,M,M,M,210.00,9.00,M,30.15,M,10.00,M,CLR,M,M,M,M,M,M,M,M,KABR 011905Z AUTO 21009KT 10SM CLR A3015 RMK MADISHF
ABR,2017-04-01 19:10,-98.4200,45.4500,M,M,M,210.00,5.00,M,30.15,M,10.00,M,CLR,M,M,M,M,M,M,M,M,KABR 011910Z AUTO 21005KT 10SM CLR A3015 RMK VRB05KT  MADISHF
ABR,2017-04-01 19:15,-98.4200,45.4500,M,M,M,160.00,7.00,M,30.14,M,10.00,M,CLR,M,M,M,M,M,M,M,M,KABR 011915Z AUTO 16007KT 10SM CLR A3014 RMK MADISHF
ABR,2017-04-01 19:20,-98.4200,45.4500,M,M,M,170.00,5.00,M,30.14,M,10.00,M,CLR,M,M,M,M,M,M,M,M,KABR 011920Z AUTO 17005KT 10SM CLR A3014 RMK MADISHF
ABR,2017-04-01 19:25,-98.4200,45.4500,M,M,M,210.00,5.00,M,30.14,M,10.00,M,CLR,M,M,M,M,M,M,M,M,KABR 011925Z AUTO 21005KT 10SM CLR A3014 RMK MADISHF
ABR,2017-04-01 19:30,-98.4200,45.4500,M,M,M,120.00,3.00,M,30.14,M,10.00,M,CLR,M,M,M,M,M,M,M,M,KABR 011930Z AUTO 12003KT 10SM CLR A3014 RMK VRB03KT  MADISHF
ABR,2017-04-01 19:35,-98.4200,45.4500,M,M,M,210.00,9.00,M,30.13,M,10.00,M,CLR,M,M,M,M,M,M,M,M,KABR 011935Z AUTO 21009KT 10SM CLR A3013 RMK WND 17V24  MADISHF
ABR,2017-04-01 19:40,-98.4200,45.4500,M,M,M,190.00,8.00,M,30.13,M,10.00,M,CLR,M,M,M,M,M,M,M,M,KABR 011940Z AUTO 19008KT 10SM CLR A3013 RMK MADISHF
ABR,2017-04-01 19:45,-98.4200,45.4500,M,M,M,250.00,3.00,M,30.13,M,10.00,M,CLR,M,M,M,M,M,M,M,M,KABR 011945Z AUTO 25003KT 10SM CLR A3013 RMK VRB03KT  MADISHF
ABR,2017-04-01 19:50,-98.4200,45.4500,M,M,M,0.00,0.00,M,30.13,M,10.00,M,CLR,M,M,M,M,M,M,M,M,KABR 011950Z AUTO 00000KT 10SM CLR A3013 RMK MADISHF
ABR,2017-04-01 19:53,-98.4200,45.4500,62.10,25.00,24.12,M,M,0.00,30.13,1020.60,10.00,M,CLR,M,M,M,M,M,M,M,M,KABR 011953Z AUTO 10SM CLR 17/M04 A3013 RMK AO2 SLP206 T01671039
ABR,2017-04-01 19:55,-98.4200,45.4500,M,M,M,M,M,M,30.12,M,10.00,M,CLR,M,M,M,M,M,M,M,M,KABR 011955Z AUTO /////KT 10SM CLR A3012 RMK MADISHF
ABR,2017-04-01 20:00,-98.4200,45.4500,M,M,M,220.00,3.00,M,30.12,M,10.00,M,CLR,M,M,M,M,M,M,M,M,KABR 012000Z AUTO 22003KT 10SM CLR A3012 RMK MADISHF
ABR,2017-04-01 20:05,-98.4200,45.4500,M,M,M,M,M,M,30.12,M,10.00,M,CLR,M,M,M,M,M,M,M,M,KABR 012005Z AUTO /////KT 10SM CLR A3012 RMK MADISHF
ABR,2017-04-01 20:10,-98.4200,45.4500,M,M,M,200.00,4.00,M,30.12,M,10.00,M,CLR,M,M,M,M,M,M,M,M,KABR 012010Z AUTO 20004KT 10SM CLR A3012 RMK VRB04KT  MADISHF
ABR,2017-04-01 20:15,-98.4200,45.4500,M,M,M,M,M,M,30.12,M,10.00,M,CLR,M,M,M,M,M,M,M,M,KABR 012015Z AUTO /////KT 10SM CLR A3012 RMK MADISHF
ABR,2017-04-01 20:20,-98.4200,45.4500,M,M,M,220.00,9.00,M,30.12,M,10.00,M,CLR,M,M,M,M,M,M,M,M,KABR 012020Z AUTO 22009KT 10SM CLR A3012 RMK MADISHF
ABR,2017-04-01 20:25,-98.4200,45.4500,M,M,M,230.00,8.00,M,30.11,M,10.00,M,CLR,M,M,M,M,M,M,M,M,KABR 012025Z AUTO 23008KT 10SM CLR A3011 RMK MADISHF
ABR,2017-04-01 20:30,-98.4200,45.4500,M,M,M,290.00,5.00,M,30.11,M,10.00,M,CLR,M,M,M,M,M,M,M,M,KABR 012030Z AUTO 29005KT 10SM CLR A3011 RMK MADISHF
ABR,2017-04-01 20:35,-98.4200,45.4500,M,M,M,0.00,0.00,M,30.11,M,10.00,M,CLR,M,M,M,M,M,M,M,M,KABR 012035Z AUTO 00000KT 10SM CLR A3011 RMK MADISHF
ABR,2017-04-01 20:40,-98.4200,45.4500,M,M,M,210.00,7.00,M,30.11,M,10.00,M,CLR,M,M,M,M,M,M,M,M,KABR 012040Z AUTO 21007KT 10SM CLR A3011 RMK MADISHF
ABR,2017-04-01 20:45,-98.4200,45.4500,M,M,M,200.00,6.00,M,30.11,M,10.00,M,CLR,M,M,M,M,M,M,M,M,KABR 012045Z AUTO 20006KT 10SM CLR A3011 RMK MADISHF
ABR,2017-04-01 20:50,-98.4200,45.4500,M,M,M,240.00,7.00,M,30.10,M,10.00,M,CLR,M,M,M,M,M,M,M,M,KABR 012050Z AUTO 24007KT 10SM CLR A3010 RMK WND 20V28  MADISHF
ABR,2017-04-01 20:53,-98.4200,45.4500,64.00,27.00,24.51,M,6.00,0.00,30.10,1019.90,10.00,M,CLR,M,M,M,M,M,M,M,M,KABR 012053Z AUTO VRB06KT 10SM CLR 18/M03 A3010 RMK AO2 SLP199 T01781028 56024
ABR,2017-04-01 20:55,-98.4200,45.4500,M,M,M,0.00,0.00,M,30.10,M,10.00,M,CLR,M,M,M,M,M,M,M,M,KABR 012055Z AUTO 00000KT 10SM CLR A3010 RMK MADISHF
ABR,2017-04-01 21:00,-98.4200,45.4500,M,M,M,140.00,6.00,M,30.10,M,10.00,M,CLR,M,M,M,M,M,M,M,M,KABR 012100Z AUTO 14006KT 10SM CLR A3010 RMK MADISHF
ABR,2017-04-01 21:05,-98.4200,45.4500,M,M,M,180.00,4.00,M,30.10,M,10.00,M,CLR,M,M,M,M,M,M,M,M,KABR 012105Z AUTO 18004KT 10SM CLR A3010 RMK MADISHF
ABR,2017-04-01 21:10,-98.4200,45.4500,M,M,M,220.00,7.00,M,30.10,M,10.00,M,CLR,M,M,M,M,M,M,M,M,KABR 012110Z AUTO 22007KT 10SM CLR A3010 RMK MADISHF
ABR,2017-04-01 21:15,-98.4200,45.4500,M,M,M,220.00,6.00,M,30.09,M,10.00,M,CLR,M,M,M,M,M,M,M,M,KABR 012115Z AUTO 22006KT 10SM CLR A3009 RMK MADISHF
ABR,2017-04-01 21:20,-98.4200,45.4500,M,M,M,220.00,5.00,M,30.09,M,10.00,M,CLR,M,M,M,M,M,M,M,M,KABR 012120Z AUTO 22005KT 10SM CLR A3009 RMK MADISHF
ABR,2017-04-01 21:25,-98.4200,45.4500,M,M,M,140.00,11.00,M,30.09,M,10.00,M,CLR,M,M,M,M,M,M,M,M,KABR 012125Z AUTO 14011KT 10SM CLR A3009 RMK MADISHF
ABR,2017-04-01 21:30,-98.4200,45.4500,M,M,M,130.00,5.00,M,30.09,M,10.00,M,CLR,M,M,M,M,M,M,M,M,KABR 012130Z AUTO 13005KT 10SM CLR A3009 RMK MADISHF
ABR,2017-04-01 21:35,-98.4200,45.4500,M,M,M,140.00,5.00,M,30.09,M,10.00,M,CLR,M,M,M,M,M,M,M,M,KABR 012135Z AUTO 14005KT 10SM CLR A3009 RMK VRB05KT  MADISHF
ABR,2017-04-01 21:40,-98.4200,45.4500,M,M,M,170.00,7.00,M,30.08,M,10.00,M,CLR,M,M,M,M,M,M,M,M,KABR 012140Z AUTO 17007KT 10SM CLR A3008 RMK MADISHF
ABR,2017-04-01 21:45,-98.4200,45.4500,M,M,M,180.00,6.00,M,30.08,M,10.00,M,CLR,M,M,M,M,M,M,M,M,KABR 012145Z AUTO 18006KT 10SM CLR A3008 RMK MADISHF
ABR,2017-04-01 21:50,-98.4200,45.4500,M,M,M,160.00,8.00,M,30.08,M,10.00,M,CLR,M,M,M,M,M,M,M,M,KABR 012150Z AUTO 16008KT 10SM CLR A3008 RMK MADISHF
ABR,2017-04-01 21:53,-98.4200,45.4500,63.00,27.00,25.38,160.00,4.00,0.00,30.08,1019.10,10.00,M,CLR,M,M,M,M,M,M,M,M,KABR 012153Z AUTO 16004KT 10SM CLR 17/M03 A3008 RMK AO2 SLP191 T01721028
ABR,2017-04-01 21:55,-98.4200,45.4500,M,M,M,160.00,3.00,M,30.08,M,10.00,M,CLR,M,M,M,M,M,M,M,M,KABR 012155Z AUTO 16003KT 10SM CLR A3008 RMK VRB03KT  MADISHF
ABR,2017-04-01 22:00,-98.4200,45.4500,M,M,M,170.00,8.00,M,30.08,M,10.00,M,CLR,M,M,M,M,M,M,M,M,KABR 012200Z AUTO 17008KT 10SM CLR A3008 RMK MADISHF
ABR,2017-04-01 22:05,-98.4200,45.4500,M,M,M,190.00,5.00,M,30.08,M,10.00,M,CLR,M,M,M,M,M,M,M,M,KABR 012205Z AUTO 19005KT 10SM CLR A3008 RMK MADISHF
ABR,2017-04-01 22:10,-98.4200,45.4500,M,M,M,M,M,M,30.08,M,10.00,M,CLR,M,M,M,M,M,M,M,M,KABR 012210Z AUTO /////KT 10SM CLR A3008 RMK MADISHF
ABR,2017-04-01 22:15,-98.4200,45.4500,M,M,M,130.00,6.00,M,30.08,M,10.00,M,CLR,M,M,M,M,M,M,M,M,KABR 012215Z AUTO 13006KT 10SM CLR A3008 RMK MADISHF
ABR,2017-04-01 22:20,-98.4200,45.4500,M,M,M,150.00,5.00,M,30.08,M,10.00,M,CLR,M,M,M,M,M,M,M,M,KABR 012220Z AUTO 15005KT 10SM CLR A3008 RMK VRB05KT  MADISHF
ABR,2017-04-01 22:25,-98.4200,45.4500,M,M,M,190.00,5.00,M,30.08,M,10.00,M,CLR,M,M,M,M,M,M,M,M,KABR 012225Z AUTO 19005KT 10SM CLR A3008 RMK MADISHF
ABR,2017-04-01 22:30,-98.4200,45.4500,M,M,M,190.00,9.00,M,30.08,M,10.00,M,CLR,M,M,M,M,M,M,M,M,KABR 012230Z AUTO 19009KT 10SM CLR A3008 RMK MADISHF
ABR,2017-04-01 22:35,-98.4200,45.4500,M,M,M,250.00,5.00,M,30.08,M,10.00,M,CLR,M,M,M,M,M,M,M,M,KABR 012235Z AUTO 25005KT 10SM CLR A3008 RMK MADISHF
ABR,2017-04-01 22:40,-98.4200,45.4500,M,M,M,250.00,5.00,M,30.08,M,10.00,M,CLR,M,M,M,M,M,M,M,M,KABR 012240Z AUTO 25005KT 10SM CLR A3008 RMK MADISHF
ABR,2017-04-01 22:45,-98.4200,45.4500,M,M,M,200.00,6.00,M,30.08,M,10.00,M,CLR,M,M,M,M,M,M,M,M,KABR 012245Z AUTO 20006KT 10SM CLR A3008 RMK MADISHF
ABR,2017-04-01 22:50,-98.4200,45.4500,M,M,M,190.00,5.00,M,30.08,M,10.00,M,CLR,M,M,M,M,M,M,M,M,KABR 012250Z AUTO 19005KT 10SM CLR A3008 RMK MADISHF
ABR,2017-04-01 22:53,-98.4200,45.4500,64.00,24.10,21.73,M,6.00,0.00,30.08,1018.90,10.00,M,CLR,M,M,M,M,M,M,M,M,KABR 012253Z AUTO VRB06KT 10SM CLR 18/M04 A3008 RMK AO2 SLP189 T01781044
ABR,2017-04-01 22:55,-98.4200,45.4500,M,M,M,200.00,8.00,M,30.07,M,10.00,M,CLR,M,M,M,M,M,M,M,M,KABR 012255Z AUTO 20008KT 10SM CLR A3007 RMK MADISHF
ABR,2017-04-01 23:00,-98.4200,45.4500,M,M,M,220.00,6.00,M,30.07,M,10.00,M,CLR,M,M,M,M,M,M,M,M,KABR 012300Z AUTO 22006KT 10SM CLR A3007 RMK MADISHF
ABR,2017-04-01 23:05,-98.4200,45.4500,M,M,M,200.00,7.00,M,30.07,M,10.00,M,CLR,M,M,M,M,M,M,M,M,KABR 012305Z AUTO 20007KT 10SM CLR A3007 RMK MADISHF
ABR,2017-04-01 23:10,-98.4200,45.4500,M,M,M,210.00,6.00,M,30.07,M,10.00,M,CLR,M,M,M,M,M,M,M,M,KABR 012310Z AUTO 21006KT 10SM CLR A3007 RMK MADISHF
ABR,2017-04-01 23:15,-98.4200,45.4500,M,M,M,190.00,7.00,M,30.07,M,10.00,M,CLR,M,M,M,M,M,M,M,M,KABR 012315Z AUTO 19007KT 10SM CLR A3007 RMK MADISHF
ABR,2017-04-01 23:20,-98.4200,45.4500,M,M,M,190.00,11.00,M,30.07,M,10.00,M,CLR,M,M,M,M,M,M,M,M,KABR 012320Z AUTO 19011KT 10SM CLR A3007 RMK MADISHF
ABR,2017-04-01 23:25,-98.4200,45.4500,M,M,M,160.00,11.00,M,30.06,M,10.00,M,CLR,M,M,M,M,M,M,M,M,KABR 012325Z AUTO 16011KT 10SM CLR A3006 RMK MADISHF
ABR,2017-04-01 23:30,-98.4200,45.4500,M,M,M,180.00,11.00,M,30.06,M,10.00,M,CLR,M,M,M,M,M,M,M,M,KABR 012330Z AUTO 18011KT 10SM CLR A3006 RMK MADISHF
ABR,2017-04-01 23:35,-98.4200,45.4500,M,M,M,170.00,10.00,M,30.06,M,10.00,M,CLR,M,M,M,M,M,M,M,M,KABR 012335Z AUTO 17010KT 10SM CLR A3006 RMK MADISHF
ABR,2017-04-01 23:40,-98.4200,45.4500,M,M,M,M,M,M,30.06,M,10.00,M,CLR,M,M,M,M,M,M,M,M,KABR 012340Z AUTO /////KT 10SM CLR A3006 RMK MADISHF
ABR,2017-04-01 23:45,-98.4200,45.4500,M,M,M,170.00,9.00,M,30.06,M,10.00,M,CLR,M,M,M,M,M,M,M,M,KABR 012345Z AUTO 17009KT 10SM CLR A3006 RMK MADISHF
ABR,2017-04-01 23:50,-98.4200,45.4500,M,M,M,170.00,9.00,M,30.06,M,10.00,M,CLR,M,M,M,M,M,M,M,M,KABR 012350Z AUTO 17009KT 10SM CLR A3006 RMK MADISHF
ABR,2017-04-01 23:53,-98.4200,45.4500,62.10,26.10,25.24,170.00,11.00,0.00,30.05,1018.40,10.00,M,CLR,M,M,M,M,M,M,M,M,KABR 012353Z AUTO 17011KT 10SM CLR 17/M03 A3005 RMK AO2 SLP184 T01671033 10183 20156 56016
ABR,2017-04-01 23:55,-98.4200,45.4500,M,M,M,180.00,10.00,M,30.05,M,10.00,M,CLR,M,M,M,M,M,M,M,M,KABR 012355Z AUTO 18010KT 10SM CLR A3005 RMK MADISHF
