#DEBUG: Format Typ    -> comma
#DEBUG: Time Period   -> 2017-04-01 00:00:00+00:00 2017-04-02 00:00:00+00:00
#DEBUG: Time Zone     -> Etc/UTC
#DEBUG: Data Contact   -> daryl herzmann akrherz@iastate.edu 515-294-5978
#DEBUG: Entries Found -> -1
station,valid,lon,lat,tmpf, dwpf, relh, drct, sknt, p01i, alti, mslp, vsby, gust, skyc1, skyc2, skyc3, skyc4, skyl1, skyl2, skyl3, skyl4, presentwx, metar
ACK,2017-04-01 00:00,-70.0603,41.2531,M,M,M,100.00,15.00,0.01,30.03,M,6.00,M,SCT,SCT,OVC,M,1200.00,1900.00,3600.00,M,-RA BR,KACK 010000Z AUTO 10015KT 6SM -RA BR SCT012 SCT019 OVC036 A3003 RMK P0001 MADISHF
ACK,2017-04-01 00:05,-70.0603,41.2531,M,M,M,100.00,16.00,0.01,30.03,M,5.00,M,SCT,BKN,OVC,M,1200.00,1900.00,3600.00,M,-RA BR,KACK 010005Z AUTO 10016KT 5SM -RA BR SCT012 BKN019 OVC036 A3003 RMK P0001 MADISHF
ACK,2017-04-01 00:09,-70.0603,41.2531,37.00,33.10,85.64,100.00,17.00,0.02,30.03,M,6.00,M,SCT,BKN,OVC,M,1200.00,1900.00,3600.00,M,-RA BR,KACK 010009Z 10017KT 6SM -RA BR SCT012 BKN019 OVC036 03/01 A3003 RMK AO2 P0002 T00280006
ACK,2017-04-01 00:10,-70.0603,41.2531,M,M,M,100.00,16.00,0.02,30.03,M,6.00,M,SCT,BKN,OVC,M,1200.00,1900.00,3600.00,M,-RA BR,KACK 010010Z AUTO 10016KT 6SM -RA BR SCT012 BKN019 OVC036 A3003 RMK P0002 MADISHF
ACK,2017-04-01 00:15,-70.0603,41.2531,M,M,M,100.00,18.00,0.02,30.02,M,7.00,M,SCT,BKN,OVC,M,1200.00,1900.00,3600.00,M,-RA,KACK 010015Z AUTO 10018KT 7SM -RA SCT012 BKN019 OVC036 A3002 RMK P0002 MADISHF
ACK,2017-04-01 00:20,-70.0603,41.2531,M,M,M,100.00,16.00,0.02,30.02,M,8.00,M,SCT,BKN,OVC,M,1200.00,1900.00,3600.00,M,-RA,KACK 010020Z AUTO 10016KT 8SM -RA SCT012 BKN019 OVC036 A3002 RMK P0002 MADISHF
ACK,2017-04-01 00:25,-70.0603,41.2531,M,M,M,100.00,17.00,0.02,30.02,M,8.00,M,SCT,BKN,OVC,M,1200.00,1900.00,3600.00,M,-RA,KACK 010025Z AUTO 10017KT 8SM -RA SCT012 BKN019 OVC036 A3002 RMK P0002 MADISHF
ACK,2017-04-01 00:30,-70.0603,41.2531,M,M,M,100.00,22.00,0.02,30.01,M,7.00,M,SCT,BKN,OVC,M,1200.00,1900.00,3600.00,M,-RA,KACK 010030Z AUTO 10022KT 7SM -RA SCT012 BKN019 OVC036 A3001 RMK P0002 MADISHF
ACK,2017-04-01 00:35,-70.0603,41.2531,M,M,M,100.00,20.00,0.03,30.01,M,7.00,M,SCT,BKN,OVC,M,1200.00,1900.00,3600.00,M,-RA,KACK 010035Z AUTO 10020KT 7SM -RA SCT012 BKN019 OVC036 A3001 RMK P0003 MADISHF
ACK,2017-04-01 00:40,-70.0603,41.2531,M,M,M,100.00,17.00,0.03,30.01,M,6.00,M,SCT,BKN,OVC,M,1200.00,1900.00,3600.00,M,-RA BR,KACK 010040Z AUTO 10017KT 6SM -RA BR SCT012 BKN019 OVC036 A3001 RMK P0003 MADISHF
ACK,2017-04-01 00:45,-70.0603,41.2531,M,M,M,100.00,19.00,0.03,30.01,M,6.00,M,SCT,BKN,OVC,M,1200.00,1900.00,3600.00,M,-RA BR,KACK 010045Z AUTO 10019KT 6SM -RA BR SCT012 BKN019 OVC036 A3001 RMK P0003 MADISHF
ACK,2017-04-01 00:50,-70.0603,41.2531,M,M,M,100.00,19.00,0.04,30.00,M,5.00,M,BKN,OVC,M,M,1400.00,3399.00,M,M,-RA BR,KACK 010050Z AUTO 10019KT 5SM -RA BR BKN014 OVC033 A3000 RMK P0004 MADISHF
ACK,2017-04-01 00:53,-70.0603,41.2531,37.00,33.10,85.64,100.00,19.00,0.04,30.00,1016.00,5.00,25.00,SCT,OVC,M,M,1400.00,3400.00,M,M,-RA BR,KACK 010053Z 10019G25KT 5SM -RA BR SCT014 OVC034 03/01 A3000 RMK AO2 PK WND 11026/0041 SLP160 P0004 T00280006
ACK,2017-04-01 00:55,-70.0603,41.2531,M,M,M,100.00,19.00,M,30.00,M,5.00,M,SCT,OVC,M,M,1400.00,3399.00,M,M,-RA BR,KACK 010055Z AUTO 10019KT 5SM -RA BR SCT014 OVC033 A3000 RMK MADISHF
ACK,2017-04-01 01:00,-70.0603,41.2531,M,M,M,100.00,19.00,0.01,30.00,M,5.00,M,SCT,OVC,M,M,1400.00,3399.00,M,M,-RA BR,KACK 010100Z AUTO 10019KT 5SM -RA BR SCT014 OVC033 A3000 RMK P0001 MADISHF
ACK,2017-04-01 01:05,-70.0603,41.2531,M,M,M,100.00,21.00,0.01,30.00,M,6.00,M,SCT,OVC,M,M,1400.00,3399.00,M,M,-RA BR,KACK 010105Z AUTO 10021KT 6SM -RA BR SCT014 OVC033 A3000 RMK P0001 MADISHF
ACK,2017-04-01 01:10,-70.0603,41.2531,M,M,M,100.00,20.00,0.02,30.00,M,6.00,M,SCT,OVC,M,M,1400.00,3399.00,M,M,-RA BR,KACK 010110Z AUTO 10020KT 6SM -RA BR SCT014 OVC033 A3000 RMK P0002 MADISHF
ACK,2017-04-01 01:15,-70.0603,41.2531,M,M,M,100.00,21.00,0.02,29.99,M,6.00,M,SCT,OVC,M,M,1400.00,3399.00,M,M,RA BR,KACK 010115Z AUTO 10021KT 6SM RA BR SCT014 OVC033 A2999 RMK P0002 MADISHF
ACK,2017-04-01 01:20,-70.0603,41.2531,M,M,M,100.00,18.00,0.03,29.99,M,6.00,M,SCT,OVC,M,M,1400.00,3399.00,M,M,-RA BR,KACK 010120Z AUTO 10018KT 6SM -RA BR SCT014 OVC033 A2999 RMK P0003 MADISHF
ACK,2017-04-01 01:25,-70.0603,41.2531,M,M,M,100.00,21.00,0.04,29.99,M,5.00,M,SCT,OVC,M,M,1400.00,3399.00,M,M,RA BR,KACK 010125Z AUTO 10021KT 5SM RA BR SCT014 OVC033 A2999 RMK P0004 MADISHF
ACK,2017-04-01 01:30,-70.0603,41.2531,M,M,M,100.00,18.00,0.04,29.99,M,5.00,M,SCT,OVC,M,M,1400.00,3399.00,M,M,RA BR,KACK 010130Z AUTO 10018KT 5SM RA BR SCT014 OVC033 A2999 RMK P0004 MADISHF
ACK,2017-04-01 01:35,-70.0603,41.2531,M,M,M,100.00,21.00,0.05,29.98,M,5.00,M,SCT,OVC,M,M,1400.00,3399.00,M,M,RA BR,KACK 010135Z AUTO 10021KT 5SM RA BR SCT014 OVC033 A2998 RMK P0005 MADISHF
ACK,2017-04-01 01:40,-70.0603,41.2531,M,M,M,100.00,19.00,0.06,29.98,M,4.00,M,SCT,OVC,M,M,1400.00,3399.00,M,M,RA BR,KACK 010140Z AUTO 10019KT 4SM RA BR SCT014 OVC033 A2998 RMK P0006 MADISHF
ACK,2017-04-01 01:45,-70.0603,41.2531,M,M,M,100.00,20.00,0.07,29.98,M,4.00,M,SCT,OVC,M,M,1400.00,3399.00,M,M,RA BR,KACK 010145Z AUTO 10020KT 4SM RA BR SCT014 OVC033 A2998 RMK P0007 MADISHF
ACK,2017-04-01 01:50,-70.0603,41.2531,M,M,M,100.00,20.00,0.07,29.97,M,4.00,M,SCT,OVC,M,M,1400.00,3399.00,M,M,RA BR,KACK 010150Z AUTO 10020KT 4SM RA BR SCT014 OVC033 A2997 RMK P0007 MADISHF
ACK,2017-04-01 01:53,-70.0603,41.2531,37.00,33.10,85.64,100.00,21.00,0.08,29.97,1014.90,5.00,28.00,SCT,OVC,M,M,1400.00,3400.00,M,M,RA BR,KACK 010153Z AUTO 10021G28KT 5SM RA BR SCT014 OVC034 03/01 A2997 RMK AO2 PK WND 11028/0110 SLP149 P0008 T00280006
ACK,2017-04-01 01:55,-70.0603,41.2531,M,M,M,100.00,17.00,M,29.97,M,5.00,M,BKN,OVC,M,M,1400.00,2800.00,M,M,RA BR,KACK 010155Z AUTO 10017KT 5SM RA BR BKN014 OVC028 A2997 RMK MADISHF
ACK,2017-04-01 02:00,-70.0603,41.2531,37.00,33.10,85.64,100.00,20.00,0.01,29.97,M,5.00,27.00,BKN,OVC,M,M,1300.00,2800.00,M,M,-RA BR,KACK 010200Z AUTO 10020G27KT 5SM -RA BR BKN013 OVC028 03/01 A2997 RMK AO2 P0001 T00280006
ACK,2017-04-01 02:05,-70.0603,41.2531,M,M,M,100.00,21.00,0.02,29.96,M,5.00,M,BKN,OVC,M,M,1300.00,2800.00,M,M,RA BR,KACK 010205Z AUTO 10021KT 5SM RA BR BKN013 OVC028 A2996 RMK P0002 MADISHF
ACK,2017-04-01 02:10,-70.0603,41.2531,M,M,M,100.00,22.00,0.03,29.96,M,5.00,M,BKN,BKN,OVC,M,1300.00,1699.00,2800.00,M,RA BR,KACK 010210Z AUTO 10022KT 5SM RA BR BKN013 BKN016 OVC028 A2996 RMK P0003 MADISHF
ACK,2017-04-01 02:15,-70.0603,41.2531,M,M,M,100.00,22.00,0.03,29.96,M,5.00,M,BKN,OVC,M,M,1300.00,2700.00,M,M,RA BR,KACK 010215Z AUTO 10022KT 5SM RA BR BKN013 OVC027 A2996 RMK P0003 MADISHF
ACK,2017-04-01 02:20,-70.0603,41.2531,M,M,M,100.00,23.00,0.04,29.96,M,5.00,29.00,BKN,OVC,M,M,1300.00,2700.00,M,M,RA BR,KACK 010220Z AUTO 10023G29KT 5SM RA BR BKN013 OVC027 A2996 RMK P0004 MADISHF
ACK,2017-04-01 02:25,-70.0603,41.2531,M,M,M,100.00,20.00,0.05,29.95,M,5.00,M,BKN,OVC,M,M,1300.00,2700.00,M,M,RA BR,KACK 010225Z AUTO 10020KT 5SM RA BR BKN013 OVC027 A2995 RMK P0005 MADISHF
ACK,2017-04-01 02:30,-70.0603,41.2531,M,M,M,100.00,22.00,0.06,29.95,M,5.00,M,BKN,OVC,M,M,1300.00,2700.00,M,M,RA BR,KACK 010230Z AUTO 10022KT 5SM RA BR BKN013 OVC027 A2995 RMK P0006 MADISHF
ACK,2017-04-01 02:35,-70.0603,41.2531,M,M,M,100.00,21.00,0.07,29.94,M,4.00,M,BKN,OVC,M,M,1300.00,2700.00,M,M,RA BR,KACK 010235Z AUTO 10021KT 4SM RA BR BKN013 OVC027 A2994 RMK P0007 MADISHF
ACK,2017-04-01 02:40,-70.0603,41.2531,M,M,M,100.00,21.00,0.08,29.94,M,4.00,M,BKN,OVC,M,M,1300.00,2500.00,M,M,RA BR,KACK 010240Z AUTO 10021KT 4SM RA BR BKN013 OVC025 A2994 RMK P0008 MADISHF
ACK,2017-04-01 02:45,-70.0603,41.2531,M,M,M,100.00,20.00,0.09,29.94,M,5.00,M,BKN,OVC,M,M,1300.00,2500.00,M,M,RA BR,KACK 010245Z AUTO 10020KT 5SM RA BR BKN013 OVC025 A2994 RMK P0009 MADISHF
ACK,2017-04-01 02:50,-70.0603,41.2531,M,M,M,100.00,22.00,0.10,29.93,M,5.00,M,BKN,OVC,M,M,1100.00,2500.00,M,M,RA BR,KACK 010250Z AUTO 10022KT 5SM RA BR BKN011 OVC025 A2993 RMK P0010 MADISHF
ACK,2017-04-01 02:53,-70.0603,41.2531,37.00,34.00,88.78,100.00,22.00,0.10,29.93,1013.40,5.00,29.00,BKN,OVC,M,M,1100.00,2500.00,M,M,RA BR,KACK 010253Z AUTO 10022G29KT 5SM RA BR BKN011 OVC025 03/01 A2993 RMK AO2 PK WND 10030/0243 SLP134 P0010 60022 T00280011 58036
ACK,2017-04-01 02:55,-70.0603,41.2531,M,M,M,90.00,22.00,0.01,29.93,M,5.00,M,BKN,OVC,M,M,1100.00,2500.00,M,M,RA BR,KACK 010255Z AUTO 09022KT 5SM RA BR BKN011 OVC025 A2993 RMK P0001 MADISHF
ACK,2017-04-01 03:00,-70.0603,41.2531,M,M,M,90.00,20.00,0.01,29.92,M,5.00,M,BKN,OVC,M,M,1100.00,2500.00,M,M,RA BR,KACK 010300Z AUTO 09020KT 5SM RA BR BKN011 OVC025 A2992 RMK P0001 MADISHF
ACK,2017-04-01 03:05,-70.0603,41.2531,M,M,M,100.00,21.00,0.02,29.92,M,5.00,M,BKN,OVC,M,M,1100.00,2500.00,M,M,RA BR,KACK 010305Z AUTO 10021KT 5SM RA BR BKN011 OVC025 A2992 RMK P0002 MADISHF
ACK,2017-04-01 03:10,-70.0603,41.2531,M,M,M,100.00,23.00,0.03,29.92,M,5.00,M,SCT,SCT,OVC,M,1100.00,1600.00,2500.00,M,RA BR,KACK 010310Z AUTO 10023KT 5SM RA BR SCT011 SCT016 OVC025 A2992 RMK P0003 MADISHF
ACK,2017-04-01 03:14,-70.0603,41.2531,37.00,34.00,88.78,100.00,22.00,0.03,29.91,M,5.00,30.00,SCT,OVC,M,M,1100.00,2500.00,M,M,RA BR,KACK 010314Z AUTO 10022G30KT 5SM RA BR SCT011 OVC025 03/01 A2991 RMK AO2 PK WND 10030/0306 P0003 T00280011
ACK,2017-04-01 03:15,-70.0603,41.2531,M,M,M,90.00,24.00,0.04,29.91,M,5.00,M,SCT,OVC,M,M,1100.00,2500.00,M,M,-RA BR,KACK 010315Z AUTO 09024KT 5SM -RA BR SCT011 OVC025 A2991 RMK P0004 MADISHF
ACK,2017-04-01 03:20,-70.0603,41.2531,M,M,M,100.00,20.00,0.04,29.91,M,5.00,29.00,SCT,OVC,M,M,1100.00,2500.00,M,M,-RA BR,KACK 010320Z AUTO 10020G29KT 5SM -RA BR SCT011 OVC025 A2991 RMK P0004 MADISHF
ACK,2017-04-01 03:25,-70.0603,41.2531,M,M,M,90.00,20.00,0.04,29.91,M,6.00,M,FEW,SCT,OVC,M,1100.00,1600.00,2500.00,M,-RA BR,KACK 010325Z AUTO 09020KT 6SM -RA BR FEW011 SCT016 OVC025 A2991 RMK P0004 MADISHF
ACK,2017-04-01 03:30,-70.0603,41.2531,M,M,M,90.00,19.00,0.05,29.90,M,6.00,M,SCT,OVC,M,M,1300.00,2400.00,M,M,-RA BR,KACK 010330Z AUTO 09019KT 6SM -RA BR SCT013 OVC024 A2990 RMK P0005 MADISHF
ACK,2017-04-01 03:35,-70.0603,41.2531,M,M,M,90.00,23.00,0.05,29.90,M,6.00,M,SCT,OVC,M,M,1300.00,2400.00,M,M,-RA BR,KACK 010335Z AUTO 09023KT 6SM -RA BR SCT013 OVC024 A2990 RMK P0005 MADISHF
ACK,2017-04-01 03:40,-70.0603,41.2531,M,M,M,90.00,24.00,0.06,29.90,M,6.00,M,FEW,OVC,M,M,1300.00,2400.00,M,M,-RA BR,KACK 010340Z AUTO 09024KT 6SM -RA BR FEW013 OVC024 A2990 RMK P0006 MADISHF
ACK,2017-04-01 03:45,-70.0603,41.2531,M,M,M,90.00,22.00,0.06,29.90,M,6.00,M,FEW,FEW,OVC,M,999.00,1500.00,2400.00,M,-RA BR,KACK 010345Z AUTO 09022KT 6SM -RA BR FEW009 FEW015 OVC024 A2990 RMK P0006 MADISHF
ACK,2017-04-01 03:50,-70.0603,41.2531,M,M,M,90.00,22.00,0.06,29.90,M,6.00,M,SCT,OVC,M,M,1500.00,2400.00,M,M,-RA BR,KACK 010350Z AUTO 09022KT 6SM -RA BR SCT015 OVC024 A2990 RMK P0006 MADISHF
ACK,2017-04-01 03:53,-70.0603,41.2531,37.00,34.00,88.78,100.00,22.00,0.06,29.90,1012.30,6.00,30.00,SCT,OVC,M,M,1500.00,2400.00,M,M,-RA BR,KACK 010353Z AUTO 10022G30KT 6SM -RA BR SCT015 OVC024 03/01 A2990 RMK AO2 PK WND 09031/0342 SLP123 P0006 T00280011
ACK,2017-04-01 03:55,-70.0603,41.2531,M,M,M,90.00,23.00,M,29.89,M,6.00,M,SCT,OVC,M,M,1300.00,2400.00,M,M,-RA BR,KACK 010355Z AUTO 09023KT 6SM -RA BR SCT013 OVC024 A2989 RMK MADISHF
ACK,2017-04-01 04:00,-70.0603,41.2531,M,M,M,90.00,22.00,0.01,29.89,M,6.00,M,SCT,OVC,M,M,1300.00,2400.00,M,M,-RA BR,KACK 010400Z AUTO 09022KT 6SM -RA BR SCT013 OVC024 A2989 RMK P0001 MADISHF
ACK,2017-04-01 04:05,-70.0603,41.2531,M,M,M,100.00,22.00,0.01,29.89,M,5.00,M,SCT,OVC,M,M,1300.00,2400.00,M,M,RA BR,KACK 010405Z AUTO 10022KT 5SM RA BR SCT013 OVC024 A2989 RMK P0001 MADISHF
ACK,2017-04-01 04:10,-70.0603,41.2531,M,M,M,90.00,22.00,0.02,29.89,M,5.00,M,BKN,OVC,M,M,1300.00,2400.00,M,M,-RA BR,KACK 010410Z AUTO 09022KT 5SM -RA BR BKN013 OVC024 A2989 RMK P0002 MADISHF
ACK,2017-04-01 04:12,-70.0603,41.2531,37.00,34.00,88.78,90.00,21.00,0.02,29.89,M,5.00,31.00,BKN,OVC,M,M,1300.00,2400.00,M,M,-RA BR,KACK 010412Z AUTO 09021G31KT 5SM -RA BR BKN013 OVC024 03/01 A2989 RMK AO2 PK WND 09031/0409 P0002 T00280011
ACK,2017-04-01 04:15,-70.0603,41.2531,M,M,M,90.00,22.00,0.03,29.89,M,5.00,M,BKN,OVC,M,M,1400.00,2400.00,M,M,-RA BR,KACK 010415Z AUTO 09022KT 5SM -RA BR BKN014 OVC024 A2989 RMK P0003 MADISHF
ACK,2017-04-01 04:20,-70.0603,41.2531,M,M,M,90.00,21.00,0.03,29.88,M,5.00,27.00,SCT,OVC,M,M,1400.00,2400.00,M,M,-RA BR,KACK 010420Z AUTO 09021G27KT 5SM -RA BR SCT014 OVC024 A2988 RMK P0003 MADISHF
ACK,2017-04-01 04:24,-70.0603,41.2531,37.00,34.00,88.78,90.00,20.00,0.03,29.88,M,6.00,32.00,SCT,OVC,M,M,1400.00,2400.00,M,M,-RA BR,KACK 010424Z AUTO 09020G32KT 6SM -RA BR SCT014 OVC024 03/01 A2988 RMK AO2 PK WND 09032/0421 P0003 T00280011
ACK,2017-04-01 04:25,-70.0603,41.2531,M,M,M,90.00,23.00,0.03,29.88,M,6.00,28.00,SCT,OVC,M,M,1400.00,2400.00,M,M,-RA BR,KACK 010425Z AUTO 09023G28KT 6SM -RA BR SCT014 OVC024 A2988 RMK P0003 MADISHF
ACK,2017-04-01 04:30,-70.0603,41.2531,M,M,M,90.00,22.00,0.04,29.88,M,7.00,M,SCT,OVC,M,M,1400.00,2400.00,M,M,-RA,KACK 010430Z AUTO 09022KT 7SM -RA SCT014 OVC024 A2988 RMK P0004 MADISHF
ACK,2017-04-01 04:35,-70.0603,41.2531,M,M,M,90.00,19.00,0.04,29.88,M,7.00,M,SCT,OVC,M,M,1300.00,2400.00,M,M,-RA,KACK 010435Z AUTO 09019KT 7SM -RA SCT013 OVC024 A2988 RMK P0004 MADISHF
ACK,2017-04-01 04:40,-70.0603,41.2531,M,M,M,100.00,24.00,0.04,29.88,M,7.00,M,SCT,OVC,M,M,1300.00,2300.00,M,M,-RA,KACK 010440Z AUTO 10024KT 7SM -RA SCT013 OVC023 A2988 RMK P0004 MADISHF
ACK,2017-04-01 04:45,-70.0603,41.2531,M,M,M,90.00,19.00,0.05,29.87,M,6.00,M,SCT,OVC,M,M,1300.00,2300.00,M,M,-RA BR,KACK 010445Z AUTO 09019KT 6SM -RA BR SCT013 OVC023 A2987 RMK P0005 MADISHF
ACK,2017-04-01 04:50,-70.0603,41.2531,M,M,M,100.00,18.00,0.05,29.87,M,6.00,M,BKN,OVC,M,M,1300.00,2300.00,M,M,-RA BR,KACK 010450Z AUTO 10018KT 6SM -RA BR BKN013 OVC023 A2987 RMK P0005 MADISHF
ACK,2017-04-01 04:53,-70.0603,41.2531,37.90,34.00,85.69,100.00,23.00,0.06,29.87,1011.40,5.00,31.00,BKN,OVC,M,M,1300.00,2300.00,M,M,RA BR,KACK 010453Z AUTO 10023G31KT 5SM RA BR BKN013 OVC023 03/01 A2987 RMK AO2 PK WND 09032/0421 SLP114 P0006 T00330011 400500017
ACK,2017-04-01 04:55,-70.0603,41.2531,M,M,M,100.00,20.00,M,29.86,M,5.00,M,BKN,BKN,OVC,M,1300.00,1699.00,2300.00,M,RA BR,KACK 010455Z AUTO 10020KT 5SM RA BR BKN013 BKN016 OVC023 A2986 RMK MADISHF
ACK,2017-04-01 05:00,-70.0603,41.2531,M,M,M,100.00,21.00,0.01,29.86,M,4.00,M,BKN,OVC,M,M,1300.00,2300.00,M,M,-RA BR,KACK 010500Z AUTO 10021KT 4SM -RA BR BKN013 OVC023 A2986 RMK P0001 MADISHF
ACK,2017-04-01 05:05,-70.0603,41.2531,M,M,M,100.00,23.00,0.01,29.86,M,4.00,M,BKN,OVC,M,M,1300.00,2300.00,M,M,-RA BR,KACK 010505Z AUTO 10023KT 4SM -RA BR BKN013 OVC023 A2986 RMK P0001 MADISHF
ACK,2017-04-01 05:10,-70.0603,41.2531,M,M,M,100.00,21.00,0.02,29.86,M,4.00,M,BKN,OVC,M,M,1400.00,2300.00,M,M,-RA BR,KACK 010510Z AUTO 10021KT 4SM -RA BR BKN014 OVC023 A2986 RMK P0002 MADISHF
ACK,2017-04-01 05:15,-70.0603,41.2531,M,M,M,100.00,20.00,0.02,29.86,M,5.00,M,BKN,OVC,M,M,1200.00,2300.00,M,M,-RA BR,KACK 010515Z AUTO 10020KT 5SM -RA BR BKN012 OVC023 A2986 RMK P0002 MADISHF
ACK,2017-04-01 05:20,-70.0603,41.2531,M,M,M,100.00,17.00,0.02,29.86,M,5.00,M,BKN,OVC,M,M,1200.00,2300.00,M,M,-RA BR,KACK 010520Z AUTO 10017KT 5SM -RA BR BKN012 OVC023 A2986 RMK P0002 MADISHF
ACK,2017-04-01 05:25,-70.0603,41.2531,M,M,M,100.00,23.00,0.03,29.86,M,5.00,M,BKN,BKN,OVC,M,999.00,1699.00,2300.00,M,RA BR,KACK 010525Z AUTO 10023KT 5SM RA BR BKN009 BKN016 OVC023 A2986 RMK P0003 MADISHF
ACK,2017-04-01 05:30,-70.0603,41.2531,M,M,M,100.00,21.00,0.04,29.85,M,4.00,M,SCT,BKN,OVC,M,999.00,1400.00,2300.00,M,RA BR,KACK 010530Z AUTO 10021KT 4SM RA BR SCT009 BKN014 OVC023 A2985 RMK P0004 MADISHF
ACK,2017-04-01 05:35,-70.0603,41.2531,M,M,M,100.00,22.00,0.05,29.85,M,4.00,M,SCT,BKN,OVC,M,999.00,1400.00,2300.00,M,RA BR,KACK 010535Z AUTO 10022KT 4SM RA BR SCT009 BKN014 OVC023 A2985 RMK P0005 MADISHF
ACK,2017-04-01 05:40,-70.0603,41.2531,M,M,M,100.00,24.00,0.06,29.84,M,4.00,M,BKN,OVC,M,M,999.00,2300.00,M,M,RA BR,KACK 010540Z AUTO 10024KT 4SM RA BR BKN009 OVC023 A2984 RMK P0006 MADISHF
ACK,2017-04-01 05:45,-70.0603,41.2531,M,M,M,100.00,20.00,0.07,29.84,M,4.00,M,BKN,OVC,M,M,999.00,2300.00,M,M,RA BR,KACK 010545Z AUTO 10020KT 4SM RA BR BKN009 OVC023 A2984 RMK P0007 MADISHF
ACK,2017-04-01 05:50,-70.0603,41.2531,M,M,M,90.00,20.00,0.08,29.83,M,4.00,M,BKN,OVC,M,M,999.00,2300.00,M,M,RA BR,KACK 010550Z AUTO 09020KT 4SM RA BR BKN009 OVC023 A2983 RMK P0008 MADISHF
ACK,2017-04-01 05:53,-70.0603,41.2531,37.90,35.10,89.53,90.00,20.00,0.09,29.83,1010.10,4.00,29.00,BKN,OVC,M,M,1000.00,2300.00,M,M,RA BR,KACK 010553Z AUTO 09020G29KT 4SM RA BR BKN010 OVC023 03/02 A2983 RMK AO2 PK WND 10034/0513 SLP101 P0009 60043 T00330017 10033 20022 58022
ACK,2017-04-01 05:55,-70.0603,41.2531,M,M,M,100.00,24.00,M,29.83,M,3.50,M,BKN,OVC,M,M,999.00,2300.00,M,M,RA BR,KACK 010555Z AUTO 10024KT 3SM RA BR BKN009 OVC023 A2983 RMK MADISHF
ACK,2017-04-01 06:00,-70.0603,41.2531,M,M,M,90.00,21.00,0.01,29.82,M,3.50,M,BKN,BKN,OVC,M,999.00,1800.00,2300.00,M,RA BR,KACK 010600Z AUTO 09021KT 3SM RA BR BKN009 BKN018 OVC023 A2982 RMK P0001 MADISHF
ACK,2017-04-01 06:05,-70.0603,41.2531,M,M,M,90.00,23.00,0.03,29.81,M,3.50,M,BKN,BKN,OVC,M,999.00,1800.00,2300.00,M,RA BR,KACK 010605Z AUTO 09023KT 3SM RA BR BKN009 BKN018 OVC023 A2981 RMK P0003 MADISHF
ACK,2017-04-01 06:10,-70.0603,41.2531,M,M,M,100.00,23.00,0.04,29.81,M,3.50,M,BKN,BKN,OVC,M,999.00,1600.00,2300.00,M,RA BR,KACK 010610Z AUTO 10023KT 3SM RA BR BKN009 BKN016 OVC023 A2981 RMK P0004 MADISHF
ACK,2017-04-01 06:15,-70.0603,41.2531,M,M,M,100.00,24.00,0.06,29.80,M,3.50,M,BKN,BKN,OVC,M,800.00,1200.00,2200.00,M,RA BR,KACK 010615Z AUTO 10024KT 3SM RA BR BKN008 BKN012 OVC022 A2980 RMK P0006 MADISHF
ACK,2017-04-01 06:20,-70.0603,41.2531,37.90,35.10,89.53,100.00,24.00,0.07,29.79,M,3.00,37.00,BKN,BKN,OVC,M,800.00,1200.00,2200.00,M,RA BR,KACK 010620Z AUTO 10024G37KT 3SM RA BR BKN008 BKN012 OVC022 03/02 A2979 RMK AO2 PK WND 09037/0618 PRESFR P0007 T00330017
ACK,2017-04-01 06:25,-70.0603,41.2531,M,M,M,90.00,20.00,0.09,29.79,M,3.00,M,SCT,BKN,OVC,M,800.00,1200.00,1699.00,M,+RA BR,KACK 010625Z AUTO 09020KT 3SM +RA BR SCT008 BKN012 OVC016 A2979 RMK P0009 MADISHF
ACK,2017-04-01 06:30,-70.0603,41.2531,M,M,M,90.00,23.00,0.10,29.79,M,3.00,M,BKN,OVC,M,M,800.00,1900.00,M,M,+RA BR,KACK 010630Z AUTO 09023KT 3SM +RA BR BKN008 OVC019 A2979 RMK P0010 MADISHF
ACK,2017-04-01 06:35,-70.0603,41.2531,M,M,M,90.00,23.00,0.12,29.79,M,3.50,M,BKN,OVC,M,M,800.00,1900.00,M,M,RA BR,KACK 010635Z AUTO 09023KT 3SM RA BR BKN008 OVC019 A2979 RMK P0012 MADISHF
ACK,2017-04-01 06:40,-70.0603,41.2531,M,M,M,90.00,22.00,0.14,29.78,M,4.00,M,BKN,OVC,M,M,800.00,1900.00,M,M,RA BR,KACK 010640Z AUTO 09022KT 4SM RA BR BKN008 OVC019 A2978 RMK P0014 MADISHF
ACK,2017-04-01 06:45,-70.0603,41.2531,M,M,M,100.00,21.00,0.15,29.78,M,4.00,M,SCT,BKN,OVC,M,800.00,1100.00,1900.00,M,RA BR,KACK 010645Z AUTO 10021KT 4SM RA BR SCT008 BKN011 OVC019 A2978 RMK P0015 MADISHF
ACK,2017-04-01 06:50,-70.0603,41.2531,M,M,M,100.00,23.00,0.17,29.77,M,4.00,M,BKN,OVC,M,M,800.00,1900.00,M,M,RA BR,KACK 010650Z AUTO 10023KT 4SM RA BR BKN008 OVC019 A2977 RMK P0017 MADISHF
ACK,2017-04-01 06:53,-70.0603,41.2531,37.90,36.00,92.78,90.00,24.00,0.18,29.77,1008.20,4.00,34.00,BKN,OVC,M,M,800.00,1600.00,M,M,RA BR,KACK 010653Z AUTO 09024G34KT 4SM RA BR BKN008 OVC016 03/02 A2977 RMK AO2 PK WND 09037/0618 SLP082 P0018 T00330022
ACK,2017-04-01 06:55,-70.0603,41.2531,M,M,M,90.00,22.00,0.01,29.77,M,3.00,M,BKN,OVC,M,M,800.00,1600.00,M,M,RA BR,KACK 010655Z AUTO 09022KT 3SM RA BR BKN008 OVC016 A2977 RMK P0001 MADISHF
ACK,2017-04-01 07:00,-70.0603,41.2531,M,M,M,90.00,22.00,0.03,29.77,M,3.00,M,BKN,OVC,M,M,800.00,1300.00,M,M,RA BR,KACK 010700Z AUTO 09022KT 3SM RA BR BKN008 OVC013 A2977 RMK P0003 MADISHF
ACK,2017-04-01 07:05,-70.0603,41.2531,M,M,M,90.00,27.00,0.05,29.76,M,2.50,M,BKN,OVC,M,M,800.00,1300.00,M,M,+RA BR,KACK 010705Z AUTO 09027KT 2 1/2SM +RA BR BKN008 OVC013 A2976 RMK P0005 MADISHF
ACK,2017-04-01 07:09,-70.0603,41.2531,37.90,36.00,92.78,90.00,23.00,0.06,29.75,M,2.50,40.00,BKN,OVC,M,M,800.00,1300.00,M,M,+RA BR,KACK 010709Z AUTO 09023G40KT 2 1/2SM +RA BR BKN008 OVC013 03/02 A2975 RMK AO2 PK WND 10040/0705 PRESFR P0006 T00330022
ACK,2017-04-01 07:10,-70.0603,41.2531,M,M,M,90.00,26.00,0.06,29.75,M,2.50,M,BKN,OVC,M,M,800.00,1300.00,M,M,+RA BR,KACK 010710Z AUTO 09026KT 2 1/2SM +RA BR BKN008 OVC013 A2975 RMK P0006 MADISHF
ACK,2017-04-01 07:15,-70.0603,41.2531,M,M,M,90.00,21.00,0.08,29.74,M,2.00,M,OVC,M,M,M,800.00,M,M,M,+RA BR,KACK 010715Z AUTO 09021KT 2SM +RA BR OVC008 A2974 RMK P0008 MADISHF
ACK,2017-04-01 07:20,-70.0603,41.2531,M,M,M,90.00,28.00,0.10,29.74,M,2.00,M,OVC,M,M,M,800.00,M,M,M,+RA BR,KACK 010720Z AUTO 09028KT 2SM +RA BR OVC008 A2974 RMK P0010 MADISHF
ACK,2017-04-01 07:25,-70.0603,41.2531,M,M,M,90.00,24.00,0.12,29.74,M,2.50,M,OVC,M,M,M,800.00,M,M,M,+RA BR,KACK 010725Z AUTO 09024KT 2 1/2SM +RA BR OVC008 A2974 RMK P0012 MADISHF
ACK,2017-04-01 07:30,-70.0603,41.2531,M,M,M,90.00,25.00,0.14,29.74,M,3.00,M,OVC,M,M,M,800.00,M,M,M,RA BR,KACK 010730Z AUTO 09025KT 3SM RA BR OVC008 A2974 RMK P0014 MADISHF
ACK,2017-04-01 07:34,-70.0603,41.2531,39.00,36.00,88.87,90.00,24.00,0.16,29.73,M,4.00,35.00,OVC,M,M,M,800.00,M,M,M,RA BR,KACK 010734Z AUTO 09024G35KT 4SM RA BR OVC008 04/02 A2973 RMK AO2 PK WND 10040/0705 P0016 T00390022
ACK,2017-04-01 07:35,-70.0603,41.2531,M,M,M,90.00,24.00,0.16,29.73,M,4.00,M,OVC,M,M,M,800.00,M,M,M,RA BR,KACK 010735Z AUTO 09024KT 4SM RA BR OVC008 A2973 RMK P0016 MADISHF
ACK,2017-04-01 07:40,-70.0603,41.2531,M,M,M,90.00,28.00,0.18,29.73,M,4.00,M,OVC,M,M,M,800.00,M,M,M,RA BR,KACK 010740Z AUTO 09028KT 4SM RA BR OVC008 A2973 RMK P0018 MADISHF
ACK,2017-04-01 07:45,-70.0603,41.2531,M,M,M,80.00,21.00,0.20,29.72,M,3.50,M,OVC,M,M,M,800.00,M,M,M,RA BR,KACK 010745Z AUTO 08021KT 3SM RA BR OVC008 A2972 RMK P0020 MADISHF
ACK,2017-04-01 07:50,-70.0603,41.2531,M,M,M,90.00,23.00,0.22,29.72,M,3.00,M,OVC,M,M,M,800.00,M,M,M,RA BR,KACK 010750Z AUTO 09023KT 3SM RA BR OVC008 A2972 RMK P0022 MADISHF
ACK,2017-04-01 07:53,-70.0603,41.2531,39.00,36.00,88.87,90.00,26.00,0.23,29.72,1006.30,3.00,42.00,OVC,M,M,M,800.00,M,M,M,RA BR,KACK 010753Z AUTO 09026G42KT 3SM RA BR OVC008 04/02 A2972 RMK AO2 PK WND 10042/0753 SLP063 P0023 T00390022
ACK,2017-04-01 07:55,-70.0603,41.2531,M,M,M,90.00,25.00,M,29.72,M,3.50,M,BKN,OVC,M,M,800.00,1100.00,M,M,RA BR,KACK 010755Z AUTO 09025KT 3SM RA BR BKN008 OVC011 A2972 RMK MADISHF
ACK,2017-04-01 08:00,-70.0603,41.2531,M,M,M,90.00,21.00,0.02,29.71,M,4.00,27.00,BKN,OVC,M,M,800.00,1300.00,M,M,-RA BR,KACK 010800Z AUTO 09021G27KT 4SM -RA BR BKN008 OVC013 A2971 RMK P0002 MADISHF
ACK,2017-04-01 08:05,-70.0603,41.2531,M,M,M,90.00,24.00,0.03,29.70,M,5.00,M,OVC,M,M,M,800.00,M,M,M,RA BR,KACK 010805Z AUTO 09024KT 5SM RA BR OVC008 A2970 RMK P0003 MADISHF
ACK,2017-04-01 08:10,-70.0603,41.2531,M,M,M,90.00,26.00,0.04,29.70,M,4.00,M,BKN,OVC,M,M,800.00,1100.00,M,M,RA BR,KACK 010810Z AUTO 09026KT 4SM RA BR BKN008 OVC011 A2970 RMK P0004 MADISHF
ACK,2017-04-01 08:15,-70.0603,41.2531,M,M,M,90.00,24.00,0.04,29.69,M,4.00,M,OVC,M,M,M,800.00,M,M,M,RA BR,KACK 010815Z AUTO 09024KT 4SM RA BR OVC008 A2969 RMK P0004 CIG 6V12  MADISHF
ACK,2017-04-01 08:20,-70.0603,41.2531,M,M,M,90.00,27.00,0.05,29.69,M,3.50,M,OVC,M,M,M,800.00,M,M,M,RA BR,KACK 010820Z AUTO 09027KT 3SM RA BR OVC008 A2969 RMK P0005 MADISHF
ACK,2017-04-01 08:25,-70.0603,41.2531,M,M,M,90.00,26.00,0.06,29.69,M,4.00,M,OVC,M,M,M,800.00,M,M,M,RA BR,KACK 010825Z AUTO 09026KT 4SM RA BR OVC008 A2969 RMK P0006 MADISHF
ACK,2017-04-01 08:30,-70.0603,41.2531,M,M,M,90.00,25.00,0.07,29.68,M,4.00,M,OVC,M,M,M,800.00,M,M,M,RA BR,KACK 010830Z AUTO 09025KT 4SM RA BR OVC008 A2968 RMK P0007 MADISHF
ACK,2017-04-01 08:35,-70.0603,41.2531,M,M,M,90.00,25.00,0.08,29.68,M,4.00,M,OVC,M,M,M,800.00,M,M,M,-RA BR,KACK 010835Z AUTO 09025KT 4SM -RA BR OVC008 A2968 RMK P0008 MADISHF
ACK,2017-04-01 08:40,-70.0603,41.2531,M,M,M,90.00,30.00,0.08,29.68,M,6.00,37.00,OVC,M,M,M,800.00,M,M,M,-RA BR,KACK 010840Z AUTO 09030G37KT 6SM -RA BR OVC008 A2968 RMK P0008 MADISHF
ACK,2017-04-01 08:45,-70.0603,41.2531,M,M,M,90.00,27.00,0.08,29.68,M,7.00,33.00,OVC,M,M,M,800.00,M,M,M,-RA,KACK 010845Z AUTO 09027G33KT 7SM -RA OVC008 A2968 RMK P0008 MADISHF
ACK,2017-04-01 08:50,-70.0603,41.2531,M,M,M,90.00,25.00,0.08,29.67,M,7.00,31.00,OVC,M,M,M,800.00,M,M,M,-RA,KACK 010850Z AUTO 09025G31KT 7SM -RA OVC008 A2967 RMK P0008 MADISHF
ACK,2017-04-01 08:53,-70.0603,41.2531,39.90,37.00,89.27,90.00,26.00,0.08,29.67,1004.80,6.00,37.00,OVC,M,M,M,800.00,M,M,M,-RA BR,KACK 010853Z AUTO 09026G37KT 6SM -RA BR OVC008 04/03 A2967 RMK AO2 PK WND 10039/0837 SLP048 P0008 60049 T00440028 56053
ACK,2017-04-01 08:55,-70.0603,41.2531,M,M,M,90.00,26.00,M,29.67,M,6.00,32.00,OVC,M,M,M,800.00,M,M,M,-RA BR,KACK 010855Z AUTO 09026G32KT 6SM -RA BR OVC008 A2967 RMK MADISHF
ACK,2017-04-01 09:00,-70.0603,41.2531,M,M,M,90.00,25.00,0.01,29.67,M,5.00,30.00,OVC,M,M,M,800.00,M,M,M,-RA BR,KACK 010900Z AUTO 09025G30KT 5SM -RA BR OVC008 A2967 RMK P0001 MADISHF
ACK,2017-04-01 09:05,-70.0603,41.2531,M,M,M,90.00,22.00,0.01,29.66,M,5.00,30.00,OVC,M,M,M,800.00,M,M,M,-RA BR,KACK 010905Z AUTO 09022G30KT 5SM -RA BR OVC008 A2966 RMK P0001 MADISHF
ACK,2017-04-01 09:10,-70.0603,41.2531,M,M,M,90.00,27.00,0.01,29.66,M,6.00,M,OVC,M,M,M,800.00,M,M,M,-RA BR,KACK 010910Z AUTO 09027KT 6SM -RA BR OVC008 A2966 RMK P0001 MADISHF
ACK,2017-04-01 09:15,-70.0603,41.2531,M,M,M,90.00,25.00,0.01,29.66,M,5.00,M,OVC,M,M,M,800.00,M,M,M,-RA BR,KACK 010915Z AUTO 09025KT 5SM -RA BR OVC008 A2966 RMK P0001 MADISHF
ACK,2017-04-01 09:20,-70.0603,41.2531,M,M,M,90.00,23.00,0.02,29.65,M,4.00,M,OVC,M,M,M,800.00,M,M,M,-RA BR,KACK 010920Z AUTO 09023KT 4SM -RA BR OVC008 A2965 RMK P0002 MADISHF
ACK,2017-04-01 09:25,-70.0603,41.2531,M,M,M,90.00,25.00,0.02,29.64,M,4.00,M,OVC,M,M,M,800.00,M,M,M,-RA BR,KACK 010925Z AUTO 09025KT 4SM -RA BR OVC008 A2964 RMK P0002 MADISHF
ACK,2017-04-01 09:30,-70.0603,41.2531,M,M,M,90.00,26.00,0.03,29.64,M,3.50,31.00,OVC,M,M,M,800.00,M,M,M,RA BR,KACK 010930Z AUTO 09026G31KT 3SM RA BR OVC008 A2964 RMK P0003 MADISHF
ACK,2017-04-01 09:35,-70.0603,41.2531,M,M,M,90.00,27.00,0.05,29.64,M,3.50,38.00,OVC,M,M,M,800.00,M,M,M,RA BR,KACK 010935Z AUTO 09027G38KT 3SM RA BR OVC008 A2964 RMK P0005 MADISHF
ACK,2017-04-01 09:40,-70.0603,41.2531,M,M,M,90.00,28.00,0.06,29.63,M,3.00,40.00,BKN,OVC,M,M,700.00,1100.00,M,M,RA BR,KACK 010940Z AUTO 09028G40KT 3SM RA BR BKN007 OVC011 A2963 RMK P0006 MADISHF
ACK,2017-04-01 09:45,-70.0603,41.2531,M,M,M,90.00,28.00,0.07,29.62,M,2.50,M,OVC,M,M,M,700.00,M,M,M,RA BR,KACK 010945Z AUTO 09028KT 2 1/2SM RA BR OVC007 A2962 RMK P0007 MADISHF
ACK,2017-04-01 09:50,-70.0603,41.2531,M,M,M,90.00,28.00,0.08,29.61,M,2.50,35.00,BKN,OVC,M,M,700.00,1100.00,M,M,RA BR,KACK 010950Z AUTO 09028G35KT 2 1/2SM RA BR BKN007 OVC011 A2961 RMK P0008 MADISHF
ACK,2017-04-01 09:51,-70.0603,41.2531,41.00,37.40,86.89,90.00,28.00,0.09,29.62,M,2.50,38.00,BKN,OVC,M,M,700.00,1100.00,M,M,RA BR,KACK 010951Z AUTO 09028G38KT 2 1/2SM RA BR BKN007 OVC011 05/03 A2962 RMK AO2 PK WND 10043/0912 PRESFR P0009
ACK,2017-04-01 09:53,-70.0603,41.2531,41.00,37.90,88.62,90.00,29.00,0.09,29.62,1002.80,3.00,36.00,BKN,OVC,M,M,700.00,1300.00,M,M,RA BR,KACK 010953Z 09029G36KT 3SM RA BR BKN007 OVC013 05/03 A2962 RMK AO2 PK WND 10043/0912 SLP028 P0009 T00500033
ACK,2017-04-01 09:55,-70.0603,41.2531,M,M,M,90.00,27.00,0.01,29.62,M,3.00,36.00,BKN,OVC,M,M,700.00,1300.00,M,M,RA BR,KACK 010955Z AUTO 09027G36KT 3SM RA BR BKN007 OVC013 A2962 RMK P0001 MADISHF
ACK,2017-04-01 10:00,-70.0603,41.2531,M,M,M,90.00,29.00,0.02,29.62,M,3.50,35.00,BKN,OVC,M,M,700.00,1300.00,M,M,RA BR,KACK 011000Z AUTO 09029G35KT 3SM RA BR BKN007 OVC013 A2962 RMK P0002 MADISHF
ACK,2017-04-01 10:05,-70.0603,41.2531,M,M,M,90.00,26.00,0.03,29.61,M,4.00,33.00,BKN,OVC,M,M,800.00,1300.00,M,M,RA BR,KACK 011005Z AUTO 09026G33KT 4SM RA BR BKN008 OVC013 A2961 RMK P0003 MADISHF
ACK,2017-04-01 10:10,-70.0603,41.2531,M,M,M,90.00,27.00,0.05,29.61,M,4.00,38.00,BKN,OVC,M,M,800.00,1300.00,M,M,-RA BR,KACK 011010Z AUTO 09027G38KT 4SM -RA BR BKN008 OVC013 A2961 RMK P0005 MADISHF
ACK,2017-04-01 10:15,-70.0603,41.2531,M,M,M,90.00,27.00,0.05,29.61,M,4.00,43.00,BKN,OVC,M,M,800.00,1500.00,M,M,-RA BR,KACK 011015Z AUTO 09027G43KT 4SM -RA BR BKN008 OVC015 A2961 RMK P0005 MADISHF
ACK,2017-04-01 10:20,-70.0603,41.2531,M,M,M,90.00,26.00,0.06,29.61,M,5.00,35.00,BKN,OVC,M,M,800.00,1300.00,M,M,-RA BR,KACK 011020Z AUTO 09026G35KT 5SM -RA BR BKN008 OVC013 A2961 RMK P0006 MADISHF
ACK,2017-04-01 10:25,-70.0603,41.2531,M,M,M,80.00,28.00,0.06,29.59,M,5.00,33.00,BKN,OVC,M,M,800.00,1600.00,M,M,-RA BR,KACK 011025Z AUTO 08028G33KT 5SM -RA BR BKN008 OVC016 A2959 RMK P0006 MADISHF
ACK,2017-04-01 10:30,-70.0603,41.2531,M,M,M,80.00,26.00,0.07,29.59,M,5.00,32.00,BKN,OVC,M,M,800.00,1400.00,M,M,-RA BR,KACK 011030Z AUTO 08026G32KT 5SM -RA BR BKN008 OVC014 A2959 RMK P0007 MADISHF
ACK,2017-04-01 10:35,-70.0603,41.2531,M,M,M,90.00,23.00,0.08,29.59,M,4.00,31.00,BKN,OVC,M,M,800.00,1400.00,M,M,RA BR,KACK 011035Z AUTO 09023G31KT 4SM RA BR BKN008 OVC014 A2959 RMK P0008 MADISHF
ACK,2017-04-01 10:40,-70.0603,41.2531,M,M,M,90.00,27.00,0.09,29.58,M,3.00,33.00,OVC,M,M,M,800.00,M,M,M,+RA BR,KACK 011040Z AUTO 09027G33KT 3SM +RA BR OVC008 A2958 RMK P0009 MADISHF
ACK,2017-04-01 10:45,-70.0603,41.2531,M,M,M,90.00,28.00,0.10,29.58,M,3.00,34.00,OVC,M,M,M,800.00,M,M,M,+RA BR,KACK 011045Z AUTO 09028G34KT 3SM +RA BR OVC008 A2958 RMK P0010 MADISHF
ACK,2017-04-01 10:50,-70.0603,41.2531,M,M,M,90.00,26.00,0.12,29.57,M,3.00,M,BKN,OVC,M,M,800.00,1200.00,M,M,+RA BR,KACK 011050Z AUTO 09026KT 3SM +RA BR BKN008 OVC012 A2957 RMK P0012 MADISHF
ACK,2017-04-01 10:53,-70.0603,41.2531,41.00,39.00,92.52,80.00,27.00,0.13,29.57,1001.10,3.00,39.00,OVC,M,M,M,900.00,M,M,M,+RA BR,KACK 011053Z 08027G39KT 3SM +RA BR OVC009 05/04 A2957 RMK AO2 PK WND 09044/1015 SLP011 P0013 T00500039
ACK,2017-04-01 10:55,-70.0603,41.2531,M,M,M,90.00,26.00,0.01,29.57,M,2.50,36.00,OVC,M,M,M,900.00,M,M,M,+RA BR,KACK 011055Z AUTO 09026G36KT 2 1/2SM +RA BR OVC009 A2957 RMK P0001 MADISHF
ACK,2017-04-01 11:00,-70.0603,41.2531,M,M,M,80.00,29.00,0.02,29.56,M,2.50,38.00,OVC,M,M,M,900.00,M,M,M,+RA BR,KACK 011100Z AUTO 08029G38KT 2 1/2SM +RA BR OVC009 A2956 RMK P0002 MADISHF
ACK,2017-04-01 11:01,-70.0603,41.2531,41.00,39.00,92.52,80.00,25.00,0.03,29.55,M,2.50,39.00,OVC,M,M,M,900.00,M,M,M,+RA BR,KACK 011101Z 08025G39KT 2 1/2SM +RA BR OVC009 05/04 A2955 RMK AO2 PK WND 08039/1059 PRESFR P0003 T00500039
ACK,2017-04-01 11:05,-70.0603,41.2531,M,M,M,80.00,30.00,0.04,29.55,M,2.50,36.00,OVC,M,M,M,900.00,M,M,M,RA BR,KACK 011105Z AUTO 08030G36KT 2 1/2SM RA BR OVC009 A2955 RMK P0004 MADISHF
ACK,2017-04-01 11:10,-70.0603,41.2531,M,M,M,90.00,28.00,0.06,29.55,M,3.00,35.00,OVC,M,M,M,900.00,M,M,M,RA BR,KACK 011110Z AUTO 09028G35KT 3SM RA BR OVC009 A2955 RMK P0006 MADISHF
ACK,2017-04-01 11:15,-70.0603,41.2531,M,M,M,80.00,24.00,0.08,29.55,M,2.50,33.00,OVC,M,M,M,900.00,M,M,M,RA BR,KACK 011115Z AUTO 08024G33KT 2 1/2SM RA BR OVC009 A2955 RMK P0008 MADISHF
ACK,2017-04-01 11:20,-70.0603,41.2531,M,M,M,80.00,26.00,0.10,29.54,M,1.75,M,OVC,M,M,M,900.00,M,M,M,+RA BR,KACK 011120Z AUTO 08026KT 2SM +RA BR OVC009 A2954 RMK P0010 MADISHF
ACK,2017-04-01 11:25,-70.0603,41.2531,M,M,M,80.00,22.00,0.12,29.55,M,1.50,M,OVC,M,M,M,900.00,M,M,M,+RA BR,KACK 011125Z AUTO 08022KT 1 1/2SM +RA BR OVC009 A2955 RMK P0012 MADISHF
ACK,2017-04-01 11:26,-70.0603,41.2531,42.10,39.00,88.67,80.00,21.00,0.12,29.55,M,1.50,40.00,OVC,M,M,M,900.00,M,M,M,+RA BR,KACK 011126Z 08021G40KT 1 1/2SM +RA BR OVC009 06/04 A2955 RMK AO2 PK WND 08043/1111 P0012 T00560039
ACK,2017-04-01 11:30,-70.0603,41.2531,M,M,M,90.00,27.00,0.14,29.55,M,1.50,37.00,OVC,M,M,M,800.00,M,M,M,RA BR,KACK 011130Z AUTO 09027G37KT 1 1/2SM RA BR OVC008 A2955 RMK P0014 MADISHF
ACK,2017-04-01 11:35,-70.0603,41.2531,M,M,M,90.00,22.00,0.15,29.56,M,1.50,M,OVC,M,M,M,800.00,M,M,M,RA BR,KACK 011135Z AUTO 09022KT 1 1/2SM RA BR OVC008 A2956 RMK P0015 MADISHF
ACK,2017-04-01 11:40,-70.0603,41.2531,M,M,M,80.00,27.00,0.17,29.55,M,1.25,M,OVC,M,M,M,800.00,M,M,M,RA BR,KACK 011140Z AUTO 08027KT 1 1/2SM RA BR OVC008 A2955 RMK P0017 MADISHF
ACK,2017-04-01 11:45,-70.0603,41.2531,M,M,M,90.00,25.00,0.18,29.55,M,1.25,36.00,OVC,M,M,M,800.00,M,M,M,RA BR,KACK 011145Z AUTO 09025G36KT 1 1/2SM RA BR OVC008 A2955 RMK P0018 MADISHF
ACK,2017-04-01 11:50,-70.0603,41.2531,M,M,M,80.00,27.00,0.20,29.55,M,1.00,33.00,OVC,M,M,M,800.00,M,M,M,RA BR,KACK 011150Z AUTO 08027G33KT 1SM RA BR OVC008 A2955 RMK P0020 MADISHF
ACK,2017-04-01 11:53,-70.0603,41.2531,42.10,39.90,91.84,90.00,25.00,0.21,29.55,1000.50,1.25,40.00,OVC,M,M,M,800.00,M,M,M,RA BR,KACK 011153Z 09025G40KT 1 1/4SM R24/5500VP6000FT RA BR OVC008 06/04 A2955 RMK AO2 PK WND 08043/1111 SLP005 P0021 60092 70143 T00560044 10056 20033 58024
ACK,2017-04-01 11:55,-70.0603,41.2531,M,M,M,90.00,27.00,0.01,29.55,M,1.25,33.00,OVC,M,M,M,800.00,M,M,M,RA BR,KACK 011155Z AUTO 09027G33KT 1 1/2SM RA BR OVC008 A2955 RMK P0001 MADISHF
ACK,2017-04-01 12:00,-70.0603,41.2531,M,M,M,90.00,28.00,0.02,29.56,M,1.75,33.00,OVC,M,M,M,800.00,M,M,M,-RA BR,KACK 011200Z AUTO 09028G33KT 2SM -RA BR OVC008 A2956 RMK P0002 MADISHF
ACK,2017-04-01 12:05,-70.0603,41.2531,M,M,M,80.00,24.00,0.03,29.55,M,2.00,30.00,OVC,M,M,M,800.00,M,M,M,RA BR,KACK 011205Z AUTO 08024G30KT 2SM RA BR OVC008 A2955 RMK P0003 MADISHF
ACK,2017-04-01 12:08,-70.0603,41.2531,42.10,39.90,91.84,90.00,27.00,0.03,29.55,M,2.00,44.00,OVC,M,M,M,800.00,M,M,M,-RA BR,KACK 011208Z 09027G44KT 2SM -RA BR OVC008 06/04 A2955 RMK AO2 PK WND 09046/1157 P0003 T00560044
ACK,2017-04-01 12:10,-70.0603,41.2531,M,M,M,90.00,26.00,0.03,29.56,M,2.00,34.00,OVC,M,M,M,800.00,M,M,M,-RA BR,KACK 011210Z AUTO 09026G34KT 2SM -RA BR OVC008 A2956 RMK P0003 MADISHF
ACK,2017-04-01 12:15,-70.0603,41.2531,M,M,M,90.00,27.00,0.03,29.56,M,2.50,M,OVC,M,M,M,800.00,M,M,M,-RA BR,KACK 011215Z AUTO 09027KT 2 1/2SM -RA BR OVC008 A2956 RMK P0003 MADISHF
ACK,2017-04-01 12:20,-70.0603,41.2531,M,M,M,80.00,22.00,0.04,29.56,M,2.00,33.00,BKN,OVC,M,M,800.00,1100.00,M,M,RA BR,KACK 011220Z AUTO 08022G33KT 2SM RA BR BKN008 OVC011 A2956 RMK P0004 MADISHF
ACK,2017-04-01 12:25,-70.0603,41.2531,M,M,M,90.00,27.00,0.05,29.56,M,1.75,32.00,BKN,OVC,M,M,800.00,1300.00,M,M,RA BR,KACK 011225Z AUTO 09027G32KT 2SM RA BR BKN008 OVC013 A2956 RMK P0005 MADISHF
ACK,2017-04-01 12:30,-70.0603,41.2531,M,M,M,80.00,22.00,0.05,29.55,M,2.50,31.00,OVC,M,M,M,800.00,M,M,M,-RA BR,KACK 011230Z AUTO 08022G31KT 2 1/2SM -RA BR OVC008 A2955 RMK P0005 MADISHF
ACK,2017-04-01 12:35,-70.0603,41.2531,M,M,M,90.00,29.00,0.06,29.54,M,3.50,41.00,OVC,M,M,M,800.00,M,M,M,-RA BR,KACK 011235Z AUTO 09029G41KT 3SM -RA BR OVC008 A2954 RMK P0006 MADISHF
ACK,2017-04-01 12:38,-70.0603,41.2531,43.00,39.90,88.71,80.00,23.00,0.06,29.55,M,4.00,41.00,OVC,M,M,M,800.00,M,M,M,-RA BR,KACK 011238Z 08023G41KT 4SM -RA BR OVC008 06/04 A2955 RMK AO2 PK WND 09046/1157 P0006 T00610044
ACK,2017-04-01 12:40,-70.0603,41.2531,M,M,M,70.00,19.00,0.06,29.54,M,4.00,25.00,OVC,M,M,M,800.00,M,M,M,-RA BR,KACK 011240Z AUTO 07019G25KT 4SM -RA BR OVC008 A2954 RMK P0006 MADISHF
ACK,2017-04-01 12:45,-70.0603,41.2531,M,M,M,80.00,25.00,0.06,29.56,M,4.00,M,OVC,M,M,M,800.00,M,M,M,-RA BR,KACK 011245Z AUTO 08025KT 4SM -RA BR OVC008 A2956 RMK P0006 MADISHF
ACK,2017-04-01 12:50,-70.0603,41.2531,M,M,M,90.00,27.00,0.06,29.55,M,5.00,36.00,OVC,M,M,M,800.00,M,M,M,-RA BR,KACK 011250Z AUTO 09027G36KT 5SM -RA BR OVC008 A2955 RMK P0006 CIG 7V12  MADISHF
ACK,2017-04-01 12:53,-70.0603,41.2531,43.00,39.90,88.71,70.00,17.00,0.07,29.55,1000.60,3.00,36.00,OVC,M,M,M,800.00,M,M,M,-RA BR,KACK 011253Z 07017G36KT 3SM -RA BR OVC008 06/04 A2955 RMK AO2 PK WND 09046/1157 SLP006 P0007 T00610044
ACK,2017-04-01 12:55,-70.0603,41.2531,M,M,M,70.00,19.00,M,29.55,M,2.50,27.00,OVC,M,M,M,800.00,M,M,M,RA BR,KACK 011255Z AUTO 07019G27KT 2 1/2SM RA BR OVC008 A2955 RMK MADISHF
ACK,2017-04-01 12:58,-70.0603,41.2531,43.00,39.90,88.71,70.00,21.00,0.01,29.54,M,1.75,36.00,OVC,M,M,M,800.00,M,M,M,+RA BR,KACK 011258Z 07021G36KT 1 3/4SM +RA BR OVC008 06/04 A2954 RMK AO2 PK WND 06030/1258 P0001 T00610044
ACK,2017-04-01 13:00,-70.0603,41.2531,M,M,M,70.00,22.00,0.02,29.54,M,1.75,28.00,OVC,M,M,M,800.00,M,M,M,+RA BR,KACK 011300Z AUTO 07022G28KT 2SM +RA BR OVC008 A2954 RMK P0002 MADISHF
ACK,2017-04-01 13:05,-70.0603,41.2531,M,M,M,70.00,13.00,0.03,29.54,M,1.50,M,OVC,M,M,M,800.00,M,M,M,+RA BR,KACK 011305Z AUTO 07013KT 1 1/2SM +RA BR OVC008 A2954 RMK P0003 MADISHF
ACK,2017-04-01 13:10,-70.0603,41.2531,M,M,M,80.00,15.00,0.05,29.54,M,1.00,21.00,OVC,M,M,M,900.00,M,M,M,+RA BR,KACK 011310Z AUTO 08015G21KT 1SM +RA BR OVC009 A2954 RMK P0005 MADISHF
ACK,2017-04-01 13:15,-70.0603,41.2531,M,M,M,80.00,25.00,0.09,29.54,M,1.25,M,OVC,M,M,M,900.00,M,M,M,RA BR,KACK 011315Z AUTO 08025KT 1 1/2SM RA BR OVC009 A2954 RMK P0009 MADISHF
ACK,2017-04-01 13:20,-70.0603,41.2531,M,M,M,70.00,24.00,0.12,29.53,M,2.50,30.00,OVC,M,M,M,900.00,M,M,M,RA BR,KACK 011320Z AUTO 07024G30KT 2 1/2SM RA BR OVC009 A2953 RMK P0012 MADISHF
ACK,2017-04-01 13:21,-70.0603,41.2531,43.00,39.90,88.71,80.00,21.00,0.13,29.53,M,3.00,36.00,OVC,M,M,M,900.00,M,M,M,RA BR,KACK 011321Z 08021G36KT 3SM RA BR OVC009 06/04 A2953 RMK AO2 PK WND 09036/1314 P0013 T00610044
ACK,2017-04-01 13:25,-70.0603,41.2531,M,M,M,70.00,23.00,0.15,29.53,M,4.00,36.00,OVC,M,M,M,900.00,M,M,M,-RA BR,KACK 011325Z AUTO 07023G36KT 4SM -RA BR OVC009 A2953 RMK P0015 MADISHF
ACK,2017-04-01 13:30,-70.0603,41.2531,M,M,M,70.00,16.00,0.19,29.54,M,5.00,27.00,OVC,M,M,M,900.00,M,M,M,-RA BR,KACK 011330Z AUTO 07016G27KT 5SM -RA BR OVC009 A2954 RMK P0019 MADISHF
ACK,2017-04-01 13:35,-70.0603,41.2531,M,M,M,80.00,22.00,0.22,29.54,M,2.00,29.00,OVC,M,M,M,900.00,M,M,M,RA BR,KACK 011335Z AUTO 08022G29KT 2SM RA BR OVC009 A2954 RMK P0022 MADISHF
ACK,2017-04-01 13:37,-70.0603,41.2531,43.00,39.90,88.71,80.00,21.00,0.23,29.54,M,1.75,38.00,OVC,M,M,M,900.00,M,M,M,+RA BR,KACK 011337Z 08021G38KT 1 3/4SM R24/5500VP6000FT +RA BR OVC009 06/04 A2954 RMK AO2 PK WND 08038/1333 P0023 T00610044
ACK,2017-04-01 13:40,-70.0603,41.2531,M,M,M,80.00,23.00,0.26,29.54,M,1.25,28.00,OVC,M,M,M,900.00,M,M,M,+RA BR,KACK 011340Z AUTO 08023G28KT 1 1/2SM +RA BR OVC009 A2954 RMK P0026 MADISHF
ACK,2017-04-01 13:45,-70.0603,41.2531,M,M,M,80.00,20.00,0.29,29.54,M,1.75,26.00,BKN,M,M,M,900.00,M,M,M,RA BR,KACK 011345Z AUTO 08020G26KT 2SM RA BR BKN009 A2954 RMK P0028 MADISHF
ACK,2017-04-01 13:50,-70.0603,41.2531,M,M,M,80.00,20.00,0.32,29.54,M,2.50,25.00,BKN,M,M,M,900.00,M,M,M,-RA BR,KACK 011350Z AUTO 08020G25KT 2 1/2SM -RA BR BKN009 A2954 RMK P0032 MADISHF
ACK,2017-04-01 13:53,-70.0603,41.2531,43.00,39.90,88.71,80.00,18.00,0.33,29.54,1000.40,2.50,33.00,OVC,M,M,M,900.00,M,M,M,-RA BR,KACK 011353Z 08018G33KT 2 1/2SM -RA BR OVC009 06/04 A2954 RMK AO2 PK WND 08038/1333 SLP004 P0033 T00610044
ACK,2017-04-01 13:55,-70.0603,41.2531,M,M,M,80.00,25.00,0.01,29.54,M,2.50,33.00,OVC,M,M,M,900.00,M,M,M,-RA BR,KACK 011355Z AUTO 08025G33KT 2 1/2SM -RA BR OVC009 A2954 RMK P0001 MADISHF
ACK,2017-04-01 14:00,-70.0603,41.2531,M,M,M,70.00,22.00,0.02,29.54,M,2.50,28.00,OVC,M,M,M,900.00,M,M,M,-RA BR,KACK 011400Z AUTO 07022G28KT 2 1/2SM -RA BR OVC009 A2954 RMK P0002 MADISHF
ACK,2017-04-01 14:05,-70.0603,41.2531,M,M,M,70.00,19.00,0.02,29.54,M,2.50,26.00,OVC,M,M,M,900.00,M,M,M,-RA BR,KACK 011405Z AUTO 07019G26KT 2 1/2SM -RA BR OVC009 A2954 RMK P0002 MADISHF
ACK,2017-04-01 14:10,-70.0603,41.2531,M,M,M,70.00,18.00,0.02,29.54,M,2.50,25.00,OVC,M,M,M,900.00,M,M,M,-RA BR,KACK 011410Z AUTO 07018G25KT 2 1/2SM -RA BR OVC009 A2954 RMK P0002 MADISHF
ACK,2017-04-01 14:15,-70.0603,41.2531,M,M,M,70.00,21.00,0.03,29.54,M,2.50,M,OVC,M,M,M,800.00,M,M,M,-RA BR,KACK 011415Z AUTO 07021KT 2 1/2SM -RA BR OVC008 A2954 RMK P0003 MADISHF
ACK,2017-04-01 14:20,-70.0603,41.2531,M,M,M,70.00,23.00,0.04,29.54,M,2.00,28.00,OVC,M,M,M,800.00,M,M,M,RA BR,KACK 011420Z AUTO 07023G28KT 2SM RA BR OVC008 A2954 RMK P0004 MADISHF
ACK,2017-04-01 14:25,-70.0603,41.2531,M,M,M,70.00,21.00,0.05,29.54,M,1.75,26.00,OVC,M,M,M,800.00,M,M,M,RA BR,KACK 011425Z AUTO 07021G26KT 2SM RA BR OVC008 A2954 RMK P0005 MADISHF
ACK,2017-04-01 14:29,-70.0603,41.2531,43.00,39.90,88.71,70.00,18.00,0.06,29.54,M,1.75,29.00,OVC,M,M,M,800.00,M,M,M,RA BR,KACK 011429Z 07018G29KT 1 3/4SM RA BR OVC008 06/04 A2954 RMK AO2 PK WND 09034/1355 P0006 T00610044
ACK,2017-04-01 14:30,-70.0603,41.2531,M,M,M,70.00,19.00,0.06,29.54,M,1.75,24.00,OVC,M,M,M,800.00,M,M,M,RA BR,KACK 011430Z AUTO 07019G24KT 2SM RA BR OVC008 A2954 RMK P0006 MADISHF
ACK,2017-04-01 14:35,-70.0603,41.2531,M,M,M,60.00,19.00,0.08,29.53,M,1.50,26.00,OVC,M,M,M,800.00,M,M,M,RA BR,KACK 011435Z AUTO 06019G26KT 1 1/2SM RA BR OVC008 A2953 RMK P0008 MADISHF
ACK,2017-04-01 14:40,-70.0603,41.2531,M,M,M,50.00,19.00,0.10,29.54,M,1.25,M,OVC,M,M,M,800.00,M,M,M,+RA BR,KACK 011440Z AUTO 05019KT 1 1/2SM +RA BR OVC008 A2954 RMK P0010 MADISHF
ACK,2017-04-01 14:45,-70.0603,41.2531,M,M,M,50.00,20.00,0.13,29.54,M,1.50,28.00,OVC,M,M,M,800.00,M,M,M,+RA BR,KACK 011445Z AUTO 05020G28KT 1 1/2SM +RA BR OVC008 A2954 RMK P0013 MADISHF
ACK,2017-04-01 14:50,-70.0603,41.2531,M,M,M,50.00,19.00,0.15,29.54,M,2.00,24.00,OVC,M,M,M,800.00,M,M,M,RA BR,KACK 011450Z AUTO 05019G24KT 2SM RA BR OVC008 A2954 RMK P0015 MADISHF
ACK,2017-04-01 14:53,-70.0603,41.2531,43.00,39.90,88.71,50.00,21.00,0.16,29.54,1000.40,1.75,28.00,OVC,M,M,M,800.00,M,M,M,-RA BR,KACK 011453Z 05021G28KT 1 3/4SM -RA BR OVC008 06/04 A2954 RMK AO2 PK WND 09034/1355 SLP004 P0016 60056 T00610044 58000
ACK,2017-04-01 14:55,-70.0603,41.2531,M,M,M,50.00,20.00,M,29.54,M,1.75,M,OVC,M,M,M,800.00,M,M,M,-RA BR,KACK 011455Z AUTO 05020KT 2SM -RA BR OVC008 A2954 RMK MADISHF
ACK,2017-04-01 15:00,-70.0603,41.2531,M,M,M,40.00,21.00,M,29.54,M,1.75,M,OVC,M,M,M,800.00,M,M,M,-RA BR,KACK 011500Z AUTO 04021KT 2SM -RA BR OVC008 A2954 RMK MADISHF
ACK,2017-04-01 15:05,-70.0603,41.2531,M,M,M,40.00,20.00,0.01,29.54,M,1.75,M,OVC,M,M,M,800.00,M,M,M,-RA BR,KACK 011505Z AUTO 04020KT 2SM -RA BR OVC008 A2954 RMK P0001 MADISHF
ACK,2017-04-01 15:10,-70.0603,41.2531,M,M,M,40.00,20.00,0.01,29.54,M,1.75,M,OVC,M,M,M,800.00,M,M,M,-RA BR,KACK 011510Z AUTO 04020KT 2SM -RA BR OVC008 A2954 RMK P0001 MADISHF
ACK,2017-04-01 15:15,-70.0603,41.2531,M,M,M,40.00,18.00,0.01,29.54,M,1.75,23.00,OVC,M,M,M,600.00,M,M,M,-RA BR,KACK 011515Z AUTO 04018G23KT 2SM -RA BR OVC006 A2954 RMK P0001 MADISHF
ACK,2017-04-01 15:20,-70.0603,41.2531,M,M,M,40.00,21.00,0.02,29.54,M,1.75,26.00,OVC,M,M,M,600.00,M,M,M,-RA BR,KACK 011520Z AUTO 04021G26KT 2SM -RA BR OVC006 A2954 RMK P0002 MADISHF
ACK,2017-04-01 15:25,-70.0603,41.2531,M,M,M,40.00,19.00,0.02,29.54,M,1.75,26.00,OVC,M,M,M,600.00,M,M,M,-RA BR,KACK 011525Z AUTO 04019G26KT 2SM -RA BR OVC006 A2954 RMK P0002 MADISHF
ACK,2017-04-01 15:30,-70.0603,41.2531,M,M,M,50.00,18.00,0.03,29.54,M,1.75,M,OVC,M,M,M,600.00,M,M,M,-RA BR,KACK 011530Z AUTO 05018KT 2SM -RA BR OVC006 A2954 RMK P0003 MADISHF
ACK,2017-04-01 15:35,-70.0603,41.2531,M,M,M,40.00,18.00,0.05,29.54,M,1.75,M,BKN,OVC,M,M,600.00,1100.00,M,M,+RA BR,KACK 011535Z AUTO 04018KT 2SM +RA BR BKN006 OVC011 A2954 RMK P0005 MADISHF
ACK,2017-04-01 15:40,-70.0603,41.2531,M,M,M,50.00,17.00,0.07,29.54,M,1.75,22.00,BKN,OVC,M,M,800.00,1100.00,M,M,RA BR,KACK 011540Z AUTO 05017G22KT 2SM RA BR BKN008 OVC011 A2954 RMK P0007 MADISHF
ACK,2017-04-01 15:45,-70.0603,41.2531,M,M,M,40.00,23.00,0.09,29.54,M,1.75,M,BKN,OVC,M,M,800.00,1100.00,M,M,RA BR,KACK 011545Z AUTO 04023KT 2SM RA BR BKN008 OVC011 A2954 RMK P0009 MADISHF
ACK,2017-04-01 15:50,-70.0603,41.2531,M,M,M,50.00,22.00,0.11,29.53,M,1.00,M,OVC,M,M,M,800.00,M,M,M,RA BR,KACK 011550Z AUTO 05022KT 1SM RA BR OVC008 A2953 RMK P0011 MADISHF
ACK,2017-04-01 15:53,-70.0603,41.2531,44.10,41.00,88.77,50.00,21.00,0.12,29.53,1000.10,1.00,30.00,OVC,M,M,M,1000.00,M,M,M,RA BR,KACK 011553Z 05021G30KT 1SM R24/4000V4500FT RA BR OVC010 07/05 A2953 RMK AO2 PK WND 03031/1518 SLP001 P0012 T00670050
ACK,2017-04-01 15:55,-70.0603,41.2531,M,M,M,50.00,25.00,0.01,29.53,M,1.00,30.00,OVC,M,M,M,800.00,M,M,M,RA BR,KACK 011555Z AUTO 05025G30KT 1SM RA BR OVC008 A2953 RMK P0001 MADISHF
ACK,2017-04-01 16:00,-70.0603,41.2531,44.10,41.00,88.77,50.00,22.00,0.02,29.53,M,1.00,33.00,OVC,M,M,M,800.00,M,M,M,RA BR,KACK 011600Z 05022G33KT 1SM R24/4000V4500FT RA BR OVC008 07/05 A2953 RMK AO2 PK WND 04033/1554 P0002 T00670050
ACK,2017-04-01 16:05,-70.0603,41.2531,M,M,M,40.00,23.00,0.03,29.53,M,1.00,28.00,OVC,M,M,M,800.00,M,M,M,RA BR,KACK 011605Z AUTO 04023G28KT 1SM RA BR OVC008 A2953 RMK P0003 MADISHF
ACK,2017-04-01 16:10,-70.0603,41.2531,M,M,M,40.00,24.00,0.05,29.53,M,1.00,33.00,OVC,M,M,M,800.00,M,M,M,RA BR,KACK 011610Z AUTO 04024G33KT 1SM RA BR OVC008 A2953 RMK P0005 MADISHF
ACK,2017-04-01 16:15,-70.0603,41.2531,M,M,M,40.00,23.00,0.06,29.53,M,1.00,M,OVC,M,M,M,800.00,M,M,M,RA BR,KACK 011615Z AUTO 04023KT 1SM RA BR OVC008 A2953 RMK P0006 MADISHF
ACK,2017-04-01 16:20,-70.0603,41.2531,M,M,M,30.00,24.00,0.09,29.53,M,1.00,29.00,OVC,M,M,M,800.00,M,M,M,RA BR,KACK 011620Z AUTO 03024G29KT 1SM RA BR OVC008 A2953 RMK P0009 MADISHF
ACK,2017-04-01 16:25,-70.0603,41.2531,M,M,M,30.00,25.00,0.11,29.53,M,0.75,30.00,OVC,M,M,M,800.00,M,M,M,RA BR,KACK 011625Z AUTO 03025G30KT 1SM RA BR OVC008 A2953 RMK P0011 MADISHF
ACK,2017-04-01 16:28,-70.0603,41.2531,42.10,39.90,91.84,30.00,29.00,0.13,29.53,M,0.75,35.00,OVC,M,M,M,800.00,M,M,M,RA BR,KACK 011628Z 03029G35KT 3/4SM R24/3500V5500FT RA BR OVC008 06/04 A2953 RMK AO2 PK WND 04035/1606 P0013 T00560044
ACK,2017-04-01 16:30,-70.0603,41.2531,M,M,M,M,M,0.14,29.53,M,1.00,M,OVC,M,M,M,800.00,M,M,M,RA BR,KACK 011630Z AUTO /////KT 1SM RA BR OVC008 A2953 RMK P0014 MADISHF
ACK,2017-04-01 16:35,-70.0603,41.2531,42.10,39.90,91.84,30.00,24.00,0.15,29.53,M,1.00,35.00,OVC,M,M,M,800.00,M,M,M,RA BR,KACK 011635Z 03024G35KT 1SM R24/5000V6000FT RA BR OVC008 06/04 A2953 RMK AO2 PK WND 04035/1606 P0015 T00560044
ACK,2017-04-01 16:40,-70.0603,41.2531,M,M,M,30.00,26.00,0.17,29.53,M,1.25,31.00,OVC,M,M,M,800.00,M,M,M,RA BR,KACK 011640Z AUTO 03026G31KT 1 1/2SM RA BR OVC008 A2953 RMK P0017 MADISHF
ACK,2017-04-01 16:45,-70.0603,41.2531,M,M,M,20.00,26.00,0.18,29.53,M,1.25,M,OVC,M,M,M,800.00,M,M,M,RA BR,KACK 011645Z AUTO 02026KT 1 1/2SM RA BR OVC008 A2953 RMK P0018 MADISHF
ACK,2017-04-01 16:50,-70.0603,41.2531,M,M,M,30.00,25.00,0.20,29.53,M,1.00,30.00,BKN,OVC,M,M,800.00,1400.00,M,M,RA BR,KACK 011650Z AUTO 03025G30KT 1SM RA BR BKN008 OVC014 A2953 RMK P0020 MADISHF
ACK,2017-04-01 16:53,-70.0603,41.2531,42.10,39.90,91.84,30.00,26.00,0.21,29.53,999.90,1.00,37.00,VV ,M,M,M,800.00,M,M,M,RA BR,KACK 011653Z 03026G37KT 1SM R24/4500VP6000FT RA BR VV008 06/04 A2953 RMK AO2 PK WND 03037/1647 SLP999 P0021 T00560044
ACK,2017-04-01 16:55,-70.0603,41.2531,M,M,M,M,M,0.02,29.53,M,1.00,M,VV ,M,M,M,700.00,M,M,M,RA BR,KACK 011655Z AUTO /////KT 1SM RA BR VV007 A2953 RMK P0002 MADISHF
ACK,2017-04-01 17:00,-70.0603,41.2531,M,M,M,30.00,29.00,0.05,29.53,M,1.00,M,VV ,M,M,M,800.00,M,M,M,+RA BR,KACK 011700Z AUTO 03029KT 1SM +RA BR VV008 A2953 RMK P0005 MADISHF
ACK,2017-04-01 17:05,-70.0603,41.2531,M,M,M,M,M,0.10,29.52,M,1.00,M,VV ,M,M,M,700.00,M,M,M,+RA BR,KACK 011705Z AUTO /////KT 1SM +RA BR VV007 A2952 RMK P0010 MADISHF
ACK,2017-04-01 17:10,-70.0603,41.2531,M,M,M,30.00,25.00,0.12,29.52,M,1.00,30.00,VV ,M,M,M,800.00,M,M,M,+RA BR,KACK 011710Z AUTO 03025G30KT 1SM +RA BR VV008 A2952 RMK P0012 MADISHF
ACK,2017-04-01 17:15,-70.0603,41.2531,M,M,M,30.00,26.00,0.13,29.52,M,1.25,31.00,OVC,M,M,M,700.00,M,M,M,RA BR,KACK 011715Z AUTO 03026G31KT 1 1/2SM RA BR OVC007 A2952 RMK P0013 MADISHF
ACK,2017-04-01 17:20,-70.0603,41.2531,M,M,M,M,M,0.17,29.52,M,1.00,M,VV ,M,M,M,700.00,M,M,M,RA BR,KACK 011720Z AUTO /////KT 1SM RA BR VV007 A2952 RMK P0017 MADISHF
ACK,2017-04-01 17:25,-70.0603,41.2531,M,M,M,30.00,29.00,0.18,29.52,M,1.00,M,VV ,M,M,M,600.00,M,M,M,+RA BR,KACK 011725Z AUTO 03029KT 1SM +RA BR VV006 A2952 RMK P0018 MADISHF
ACK,2017-04-01 17:30,-70.0603,41.2531,M,M,M,30.00,27.00,0.21,29.53,M,1.00,M,OVC,M,M,M,600.00,M,M,M,RA BR,KACK 011730Z AUTO 03027KT 1SM RA BR OVC006 A2953 RMK P0021 MADISHF
ACK,2017-04-01 17:35,-70.0603,41.2531,M,M,M,20.00,26.00,0.22,29.53,M,1.25,33.00,OVC,M,M,M,600.00,M,M,M,RA BR,KACK 011735Z AUTO 02026G33KT 1 1/2SM RA BR OVC006 A2953 RMK P0022 MADISHF
ACK,2017-04-01 17:40,-70.0603,41.2531,M,M,M,M,M,0.23,29.53,M,1.25,38.00,OVC,M,M,M,600.00,M,M,M,-RA BR,KACK 011740Z AUTO /////G38KT 1 1/2SM -RA BR OVC006 A2953 RMK P0023 MADISHF
ACK,2017-04-01 17:45,-70.0603,41.2531,M,M,M,20.00,26.00,0.26,29.53,M,1.00,M,OVC,M,M,M,600.00,M,M,M,RA BR,KACK 011745Z AUTO 02026KT 1SM RA BR OVC006 A2953 RMK P0026 MADISHF
ACK,2017-04-01 17:50,-70.0603,41.2531,M,M,M,20.00,27.00,0.28,29.53,M,1.25,M,OVC,M,M,M,600.00,M,M,M,RA BR,KACK 011750Z AUTO 02027KT 1 1/2SM RA BR OVC006 A2953 RMK P0028 MADISHF
ACK,2017-04-01 17:53,-70.0603,41.2531,41.00,39.00,92.52,20.00,28.00,0.28,29.53,1000.10,1.25,35.00,OVC,M,M,M,600.00,M,M,M,RA BR,KACK 011753Z 02028G35KT 1 1/4SM RA BR OVC006 05/04 A2953 RMK AO2 PK WND 03039/1700 SLP001 P0028 60117 T00500039 10067 20050 55003
ACK,2017-04-01 17:55,-70.0603,41.2531,M,M,M,20.00,27.00,0.01,29.54,M,1.25,32.00,OVC,M,M,M,600.00,M,M,M,RA BR,KACK 011755Z AUTO 02027G32KT 1 1/2SM RA BR OVC006 A2954 RMK P0001 MADISHF
ACK,2017-04-01 18:00,-70.0603,41.2531,M,M,M,20.00,29.00,0.02,29.54,M,1.25,35.00,OVC,M,M,M,600.00,M,M,M,-RA BR,KACK 011800Z AUTO 02029G35KT 1 1/2SM -RA BR OVC006 A2954 RMK P0002 MADISHF
ACK,2017-04-01 18:05,-70.0603,41.2531,M,M,M,20.00,25.00,0.03,29.54,M,1.50,M,OVC,M,M,M,600.00,M,M,M,-RA BR,KACK 011805Z AUTO 02025KT 1 1/2SM -RA BR OVC006 A2954 RMK P0003 MADISHF
ACK,2017-04-01 18:10,-70.0603,41.2531,M,M,M,20.00,26.00,0.04,29.54,M,1.25,34.00,OVC,M,M,M,600.00,M,M,M,-RA BR,KACK 011810Z AUTO 02026G34KT 1 1/2SM -RA BR OVC006 A2954 RMK P0004 MADISHF
ACK,2017-04-01 18:15,-70.0603,41.2531,M,M,M,20.00,26.00,0.04,29.54,M,1.25,M,OVC,M,M,M,600.00,M,M,M,-RA BR,KACK 011815Z AUTO 02026KT 1 1/2SM -RA BR OVC006 A2954 RMK P0004 MADISHF
ACK,2017-04-01 18:20,-70.0603,41.2531,M,M,M,20.00,31.00,0.05,29.54,M,1.50,39.00,OVC,M,M,M,600.00,M,M,M,-RA BR,KACK 011820Z AUTO 02031G39KT 1 1/2SM -RA BR OVC006 A2954 RMK P0005 MADISHF
ACK,2017-04-01 18:25,-70.0603,41.2531,M,M,M,20.00,27.00,0.06,29.54,M,1.50,M,OVC,M,M,M,600.00,M,M,M,-RA BR,KACK 011825Z AUTO 02027KT 1 1/2SM -RA BR OVC006 A2954 RMK P0006 MADISHF
ACK,2017-04-01 18:30,-70.0603,41.2531,M,M,M,20.00,28.00,0.08,29.54,M,1.50,33.00,OVC,M,M,M,600.00,M,M,M,-RA BR,KACK 011830Z AUTO 02028G33KT 1 1/2SM -RA BR OVC006 A2954 RMK P0008 MADISHF
ACK,2017-04-01 18:35,-70.0603,41.2531,M,M,M,20.00,30.00,0.08,29.54,M,1.50,M,OVC,M,M,M,499.00,M,M,M,RA BR,KACK 011835Z AUTO 02030KT 1 1/2SM RA BR OVC004 A2954 RMK P0008 MADISHF
ACK,2017-04-01 18:40,-70.0603,41.2531,M,M,M,20.00,27.00,0.09,29.54,M,1.50,38.00,OVC,M,M,M,499.00,M,M,M,-RA BR,KACK 011840Z AUTO 02027G38KT 1 1/2SM -RA BR OVC004 A2954 RMK P0009 MADISHF
ACK,2017-04-01 18:45,-70.0603,41.2531,M,M,M,M,M,0.10,29.54,M,1.25,35.00,OVC,M,M,M,499.00,M,M,M,-RA BR,KACK 011845Z AUTO /////G35KT 1 1/2SM -RA BR OVC004 A2954 RMK P0010 MADISHF
ACK,2017-04-01 18:50,-70.0603,41.2531,M,M,M,20.00,30.00,0.10,29.54,M,1.25,37.00,OVC,M,M,M,499.00,M,M,M,-RA BR,KACK 011850Z AUTO 02030G37KT 1 1/2SM -RA BR OVC004 A2954 RMK P0010 MADISHF
ACK,2017-04-01 18:53,-70.0603,41.2531,39.90,37.90,92.48,20.00,29.00,0.12,29.54,1000.40,1.25,39.00,OVC,M,M,M,500.00,M,M,M,-RA BR,KACK 011853Z 02029G39KT 1 1/4SM -RA BR OVC005 04/03 A2954 RMK AO2 PK WND 03040/1833 SLP004 P0012 T00440033
ACK,2017-04-01 18:55,-70.0603,41.2531,M,M,M,20.00,29.00,M,29.55,M,1.25,36.00,OVC,M,M,M,499.00,M,M,M,-RA BR,KACK 011855Z AUTO 02029G36KT 1 1/2SM -RA BR OVC004 A2955 RMK MADISHF
ACK,2017-04-01 19:00,-70.0603,41.2531,M,M,M,20.00,29.00,M,29.55,M,1.25,M,OVC,M,M,M,499.00,M,M,M,RA BR,KACK 011900Z AUTO 02029KT 1 1/2SM RA BR OVC004 A2955 RMK MADISHF
ACK,2017-04-01 19:05,-70.0603,41.2531,M,M,M,10.00,29.00,M,29.55,M,1.50,37.00,OVC,M,M,M,499.00,M,M,M,-RA BR,KACK 011905Z AUTO 01029G37KT 1 1/2SM -RA BR OVC004 A2955 RMK MADISHF
ACK,2017-04-01 19:10,-70.0603,41.2531,M,M,M,20.00,27.00,0.01,29.55,M,1.50,34.00,OVC,M,M,M,600.00,M,M,M,-RA BR,KACK 011910Z AUTO 02027G34KT 1 1/2SM -RA BR OVC006 A2955 RMK P0001 MADISHF
ACK,2017-04-01 19:15,-70.0603,41.2531,M,M,M,20.00,29.00,0.01,29.56,M,1.75,36.00,OVC,M,M,M,600.00,M,M,M,-RA BR,KACK 011915Z AUTO 02029G36KT 2SM -RA BR OVC006 A2956 RMK P0001 MADISHF
ACK,2017-04-01 19:20,-70.0603,41.2531,M,M,M,M,M,0.01,29.56,M,1.75,36.00,OVC,M,M,M,600.00,M,M,M,-RA BR,KACK 011920Z AUTO /////G36KT 2SM -RA BR OVC006 A2956 RMK P0001 MADISHF
ACK,2017-04-01 19:25,-70.0603,41.2531,M,M,M,20.00,28.00,0.01,29.56,M,1.75,33.00,OVC,M,M,M,600.00,M,M,M,-RA BR,KACK 011925Z AUTO 02028G33KT 2SM -RA BR OVC006 A2956 RMK P0001 MADISHF
ACK,2017-04-01 19:30,-70.0603,41.2531,M,M,M,M,M,0.01,29.56,M,1.75,37.00,OVC,M,M,M,600.00,M,M,M,-RA BR,KACK 011930Z AUTO /////G37KT 2SM -RA BR OVC006 A2956 RMK P0001 MADISHF
ACK,2017-04-01 19:35,-70.0603,41.2531,M,M,M,M,M,0.03,29.57,M,1.25,40.00,OVC,M,M,M,600.00,M,M,M,-RA BR,KACK 011935Z AUTO /////G40KT 1 1/2SM -RA BR OVC006 A2957 RMK P0003 MADISHF
ACK,2017-04-01 19:40,-70.0603,41.2531,M,M,M,M,M,0.03,29.57,M,1.25,41.00,OVC,M,M,M,600.00,M,M,M,RA BR,KACK 011940Z AUTO /////G41KT 1 1/2SM RA BR OVC006 A2957 RMK P0003 MADISHF
ACK,2017-04-01 19:45,-70.0603,41.2531,M,M,M,M,M,0.03,29.57,M,1.25,M,OVC,M,M,M,600.00,M,M,M,-RA BR,KACK 011945Z AUTO /////KT 1 1/2SM -RA BR OVC006 A2957 RMK P0003 MADISHF
ACK,2017-04-01 19:50,-70.0603,41.2531,M,M,M,20.00,30.00,0.04,29.58,M,2.00,38.00,OVC,M,M,M,600.00,M,M,M,-RA BR,KACK 011950Z AUTO 02030G38KT 2SM -RA BR OVC006 A2958 RMK P0004 MADISHF
ACK,2017-04-01 19:53,-70.0603,41.2531,39.90,37.00,89.27,20.00,33.00,0.04,29.58,1001.60,2.00,40.00,OVC,M,M,M,600.00,M,M,M,-RA BR,KACK 011953Z 02033G40KT 2SM -RA BR OVC006 04/03 A2958 RMK AO2 PK WND 01043/1934 SLP016 P0004 T00440028
ACK,2017-04-01 19:55,-70.0603,41.2531,M,M,M,20.00,28.00,M,29.58,M,2.50,34.00,OVC,M,M,M,600.00,M,M,M,-RA BR,KACK 011955Z AUTO 02028G34KT 2 1/2SM -RA BR OVC006 A2958 RMK MADISHF
ACK,2017-04-01 20:00,-70.0603,41.2531,M,M,M,M,M,M,29.58,M,2.50,39.00,OVC,M,M,M,700.00,M,M,M,-RA BR,KACK 012000Z AUTO /////G39KT 2 1/2SM -RA BR OVC007 A2958 RMK MADISHF
ACK,2017-04-01 20:05,-70.0603,41.2531,M,M,M,20.00,28.00,M,29.59,M,2.00,37.00,OVC,M,M,M,700.00,M,M,M,-RA BR,KACK 012005Z AUTO 02028G37KT 2SM -RA BR OVC007 A2959 RMK MADISHF
ACK,2017-04-01 20:10,-70.0603,41.2531,M,M,M,M,M,0.02,29.59,M,2.00,M,OVC,M,M,M,700.00,M,M,M,-RA BR,KACK 012010Z AUTO /////KT 2SM -RA BR OVC007 A2959 RMK P0002 MADISHF
ACK,2017-04-01 20:15,-70.0603,41.2531,M,M,M,M,M,0.02,29.59,M,1.75,36.00,OVC,M,M,M,700.00,M,M,M,RA BR,KACK 012015Z AUTO /////G36KT 2SM RA BR OVC007 A2959 RMK P0002 MADISHF
ACK,2017-04-01 20:20,-70.0603,41.2531,M,M,M,M,M,0.02,29.59,M,2.00,M,OVC,M,M,M,700.00,M,M,M,-RA BR,KACK 012020Z AUTO /////KT 2SM -RA BR OVC007 A2959 RMK P0002 MADISHF
ACK,2017-04-01 20:25,-70.0603,41.2531,M,M,M,M,M,0.02,29.60,M,2.00,36.00,OVC,M,M,M,800.00,M,M,M,-RA BR,KACK 012025Z AUTO /////G36KT 2SM -RA BR OVC008 A2960 RMK P0002 MADISHF
ACK,2017-04-01 20:30,-70.0603,41.2531,M,M,M,M,M,0.04,29.60,M,2.00,41.00,OVC,M,M,M,800.00,M,M,M,-RA BR,KACK 012030Z AUTO /////G41KT 2SM -RA BR OVC008 A2960 RMK P0004 MADISHF
ACK,2017-04-01 20:35,-70.0603,41.2531,M,M,M,M,M,0.04,29.61,M,2.00,36.00,OVC,M,M,M,800.00,M,M,M,RA BR,KACK 012035Z AUTO /////G36KT 2SM RA BR OVC008 A2961 RMK P0004 MADISHF
ACK,2017-04-01 20:40,-70.0603,41.2531,M,M,M,20.00,29.00,0.04,29.61,M,2.00,37.00,OVC,M,M,M,800.00,M,M,M,-RA BR,KACK 012040Z AUTO 02029G37KT 2SM -RA BR OVC008 A2961 RMK P0004 MADISHF
ACK,2017-04-01 20:45,-70.0603,41.2531,M,M,M,M,M,0.04,29.61,M,2.00,38.00,OVC,M,M,M,800.00,M,M,M,-RA BR,KACK 012045Z AUTO /////G38KT 2SM -RA BR OVC008 A2961 RMK P0004 MADISHF
ACK,2017-04-01 20:50,-70.0603,41.2531,M,M,M,M,M,0.04,29.61,M,2.00,43.00,OVC,M,M,M,800.00,M,M,M,-RA BR,KACK 012050Z AUTO /////G43KT 2SM -RA BR OVC008 A2961 RMK P0004 MADISHF
ACK,2017-04-01 20:53,-70.0603,41.2531,39.90,37.00,89.27,20.00,30.00,0.04,29.61,1002.70,2.00,44.00,OVC,M,M,M,800.00,M,M,M,-RA BR,KACK 012053Z 02030G44KT 2SM -RA BR OVC008 04/03 A2961 RMK AO2 PK WND 02046/2043 SLP027 P0004 60020 T00440028 53025
ACK,2017-04-01 20:55,-70.0603,41.2531,M,M,M,20.00,32.00,M,29.61,M,2.00,M,OVC,M,M,M,800.00,M,M,M,-RA BR,KACK 012055Z AUTO 02032KT 2SM -RA BR OVC008 A2961 RMK MADISHF
ACK,2017-04-01 21:00,-70.0603,41.2531,M,M,M,M,M,0.02,29.62,M,2.50,40.00,OVC,M,M,M,800.00,M,M,M,-RA BR,KACK 012100Z AUTO /////G40KT 2 1/2SM -RA BR OVC008 A2962 RMK P0002 MADISHF
ACK,2017-04-01 21:05,-70.0603,41.2531,M,M,M,20.00,30.00,0.02,29.62,M,2.50,M,OVC,M,M,M,800.00,M,M,M,RA BR,KACK 012105Z AUTO 02030KT 2 1/2SM RA BR OVC008 A2962 RMK P0002 MADISHF
ACK,2017-04-01 21:10,-70.0603,41.2531,M,M,M,20.00,28.00,0.02,29.63,M,2.50,34.00,BKN,OVC,M,M,800.00,1100.00,M,M,-RA BR,KACK 012110Z AUTO 02028G34KT 2 1/2SM -RA BR BKN008 OVC011 A2963 RMK P0002 MADISHF
ACK,2017-04-01 21:15,-70.0603,41.2531,M,M,M,20.00,28.00,0.02,29.63,M,2.50,39.00,OVC,M,M,M,800.00,M,M,M,-RA BR,KACK 012115Z AUTO 02028G39KT 2 1/2SM -RA BR OVC008 A2963 RMK P0002 MADISHF
ACK,2017-04-01 21:20,-70.0603,41.2531,M,M,M,20.00,29.00,0.02,29.63,M,2.00,34.00,BKN,OVC,M,M,900.00,1200.00,M,M,-RA BR,KACK 012120Z AUTO 02029G34KT 2SM -RA BR BKN009 OVC012 A2963 RMK P0002 MADISHF
ACK,2017-04-01 21:25,-70.0603,41.2531,M,M,M,M,M,0.02,29.64,M,2.00,39.00,BKN,OVC,M,M,900.00,1200.00,M,M,-RA BR,KACK 012125Z AUTO /////G39KT 2SM -RA BR BKN009 OVC012 A2964 RMK P0002 MADISHF
ACK,2017-04-01 21:30,-70.0603,41.2531,39.90,37.00,89.27,20.00,32.00,0.02,29.64,M,3.00,44.00,OVC,M,M,M,1000.00,M,M,M,-RA BR,KACK 012130Z AUTO 02032G44KT 3SM -RA BR OVC010 04/03 A2964 RMK AO2 PK WND 03044/2124 P0002 T00440028
ACK,2017-04-01 21:35,-70.0603,41.2531,M,M,M,20.00,28.00,0.02,29.65,M,4.00,33.00,OVC,M,M,M,999.00,M,M,M,BR,KACK 012135Z AUTO 02028G33KT 4SM BR OVC009 A2965 RMK P0002 MADISHF
ACK,2017-04-01 21:40,-70.0603,41.2531,M,M,M,20.00,28.00,0.02,29.66,M,4.00,35.00,OVC,M,M,M,999.00,M,M,M,BR,KACK 012140Z AUTO 02028G35KT 4SM BR OVC009 A2966 RMK P0002 MADISHF
ACK,2017-04-01 21:45,-70.0603,41.2531,M,M,M,10.00,29.00,0.02,29.66,M,4.00,35.00,OVC,M,M,M,999.00,M,M,M,BR,KACK 012145Z AUTO 01029G35KT 4SM BR OVC009 A2966 RMK P0002 MADISHF
ACK,2017-04-01 21:50,-70.0603,41.2531,M,M,M,20.00,27.00,0.02,29.67,M,5.00,34.00,OVC,M,M,M,999.00,M,M,M,BR,KACK 012150Z AUTO 02027G34KT 5SM BR OVC009 A2967 RMK P0002 MADISHF
ACK,2017-04-01 21:53,-70.0603,41.2531,39.90,37.00,89.27,20.00,28.00,0.02,29.67,1004.60,5.00,39.00,OVC,M,M,M,1000.00,M,M,M,BR,KACK 012153Z 02028G39KT 5SM BR OVC010 04/03 A2967 RMK AO2 PK WND 03044/2124 RAE34 SLP046 P0002 T00440028
ACK,2017-04-01 21:55,-70.0603,41.2531,M,M,M,M,M,M,29.67,M,5.00,42.00,OVC,M,M,M,999.00,M,M,M,BR,KACK 012155Z AUTO /////G42KT 5SM BR OVC009 A2967 RMK MADISHF
ACK,2017-04-01 22:00,-70.0603,41.2531,M,M,M,10.00,29.00,M,29.68,M,5.00,M,OVC,M,M,M,999.00,M,M,M,BR,KACK 012200Z AUTO 01029KT 5SM BR OVC009 A2968 RMK MADISHF
ACK,2017-04-01 22:05,-70.0603,41.2531,M,M,M,10.00,31.00,M,29.69,M,4.00,36.00,OVC,M,M,M,999.00,M,M,M,BR,KACK 012205Z AUTO 01031G36KT 4SM BR OVC009 A2969 RMK MADISHF
ACK,2017-04-01 22:10,-70.0603,41.2531,M,M,M,10.00,29.00,M,29.70,M,4.00,36.00,OVC,M,M,M,999.00,M,M,M,BR,KACK 012210Z AUTO 01029G36KT 4SM BR OVC009 A2970 RMK MADISHF
ACK,2017-04-01 22:15,-70.0603,41.2531,M,M,M,360.00,24.00,M,29.70,M,4.00,29.00,OVC,M,M,M,999.00,M,M,M,BR,KACK 012215Z AUTO 36024G29KT 4SM BR OVC009 A2970 RMK MADISHF
ACK,2017-04-01 22:20,-70.0603,41.2531,M,M,M,360.00,28.00,M,29.71,M,3.00,M,OVC,M,M,M,999.00,M,M,M,BR,KACK 012220Z AUTO 36028KT 3SM BR OVC009 A2971 RMK MADISHF
ACK,2017-04-01 22:24,-70.0603,41.2531,39.00,37.00,92.45,360.00,26.00,0.00,29.72,M,2.50,37.00,OVC,M,M,M,800.00,M,M,M,-RA BR,KACK 012224Z 36026G37KT 2 1/2SM -RA BR OVC008 04/03 A2972 RMK AO2 PK WND 02043/2155 RAB23 PRESRR P0000 T00390028
ACK,2017-04-01 22:25,-70.0603,41.2531,M,M,M,360.00,24.00,M,29.72,M,2.50,29.00,OVC,M,M,M,800.00,M,M,M,-RA BR,KACK 012225Z AUTO 36024G29KT 2 1/2SM -RA BR OVC008 A2972 RMK MADISHF
ACK,2017-04-01 22:30,-70.0603,41.2531,M,M,M,10.00,23.00,M,29.73,M,2.00,28.00,OVC,M,M,M,800.00,M,M,M,-RA BR,KACK 012230Z AUTO 01023G28KT 2SM -RA BR OVC008 A2973 RMK MADISHF
ACK,2017-04-01 22:35,-70.0603,41.2531,M,M,M,360.00,24.00,M,29.73,M,2.50,32.00,OVC,M,M,M,800.00,M,M,M,-RA BR,KACK 012235Z AUTO 36024G32KT 2 1/2SM -RA BR OVC008 A2973 RMK MADISHF
ACK,2017-04-01 22:40,-70.0603,41.2531,M,M,M,360.00,25.00,0.01,29.74,M,2.50,30.00,OVC,M,M,M,600.00,M,M,M,-RA BR,KACK 012240Z AUTO 36025G30KT 2 1/2SM -RA BR OVC006 A2974 RMK P0001 MADISHF
ACK,2017-04-01 22:45,-70.0603,41.2531,M,M,M,360.00,24.00,0.01,29.74,M,2.50,M,OVC,M,M,M,600.00,M,M,M,-SN BR,KACK 012245Z AUTO 36024KT 2 1/2SM -SN BR OVC006 A2974 RMK P0001 MADISHF
ACK,2017-04-01 22:50,-70.0603,41.2531,M,M,M,360.00,26.00,0.01,29.75,M,2.50,31.00,OVC,M,M,M,600.00,M,M,M,-SN BR,KACK 012250Z AUTO 36026G31KT 2 1/2SM -SN BR OVC006 A2975 RMK P0001 MADISHF
ACK,2017-04-01 22:53,-70.0603,41.2531,37.90,36.00,92.78,360.00,28.00,0.01,29.75,1007.60,2.50,36.00,OVC,M,M,M,600.00,M,M,M,-SN BR,KACK 012253Z 36028G36KT 2 1/2SM -SN BR OVC006 03/02 A2975 RMK AO2 PK WND 02043/2155 RAB23E44SNB44 PRESRR SLP076 P0001 T00330022
ACK,2017-04-01 22:55,-70.0603,41.2531,M,M,M,360.00,24.00,M,29.75,M,1.25,M,OVC,M,M,M,600.00,M,M,M,-RA BR,KACK 012255Z AUTO 36024KT 1 1/2SM -RA BR OVC006 A2975 RMK MADISHF
ACK,2017-04-01 23:00,-70.0603,41.2531,37.90,36.00,92.78,360.00,28.00,0.02,29.76,M,1.25,36.00,OVC,M,M,M,600.00,M,M,M,-RA BR,KACK 012300Z 36028G36KT 1 1/4SM -RA BR OVC006 03/02 A2976 RMK AO2 PK WND 01035/2259 RAB2254SNE2254 P0002 T00330022
ACK,2017-04-01 23:05,-70.0603,41.2531,M,M,M,360.00,29.00,0.02,29.76,M,1.25,36.00,OVC,M,M,M,600.00,M,M,M,-RA BR,KACK 012305Z AUTO 36029G36KT 1 1/2SM -RA BR OVC006 A2976 RMK P0002 MADISHF
ACK,2017-04-01 23:10,-70.0603,41.2531,M,M,M,360.00,24.00,0.02,29.77,M,1.25,29.00,OVC,M,M,M,600.00,M,M,M,-RA BR,KACK 012310Z AUTO 36024G29KT 1 1/2SM -RA BR OVC006 A2977 RMK P0002 MADISHF
ACK,2017-04-01 23:15,-70.0603,41.2531,M,M,M,M,M,0.02,29.76,M,1.50,M,BKN,OVC,M,M,600.00,1100.00,M,M,-RA BR,KACK 012315Z AUTO /////KT 1 1/2SM -RA BR BKN006 OVC011 A2976 RMK P0002 MADISHF
ACK,2017-04-01 23:20,-70.0603,41.2531,M,M,M,360.00,24.00,0.02,29.77,M,1.50,34.00,BKN,OVC,M,M,600.00,1100.00,M,M,-RA BR,KACK 012320Z AUTO 36024G34KT 1 1/2SM -RA BR BKN006 OVC011 A2977 RMK P0002 MADISHF
ACK,2017-04-01 23:25,-70.0603,41.2531,M,M,M,360.00,25.00,0.03,29.77,M,1.50,35.00,BKN,OVC,M,M,600.00,1100.00,M,M,-RA BR,KACK 012325Z AUTO 36025G35KT 1 1/2SM -RA BR BKN006 OVC011 A2977 RMK P0003 MADISHF
ACK,2017-04-01 23:30,-70.0603,41.2531,M,M,M,10.00,29.00,0.03,29.76,M,1.50,35.00,BKN,OVC,M,M,600.00,1300.00,M,M,-RA BR,KACK 012330Z AUTO 01029G35KT 1 1/2SM -RA BR BKN006 OVC013 A2976 RMK P0003 MADISHF
ACK,2017-04-01 23:35,-70.0603,41.2531,M,M,M,10.00,27.00,0.03,29.77,M,1.50,34.00,BKN,OVC,M,M,600.00,1300.00,M,M,-RA BR,KACK 012335Z AUTO 01027G34KT 1 1/2SM -RA BR BKN006 OVC013 A2977 RMK P0003 MADISHF
ACK,2017-04-01 23:40,-70.0603,41.2531,M,M,M,10.00,28.00,0.03,29.78,M,1.50,33.00,BKN,OVC,M,M,800.00,1300.00,M,M,-RA BR,KACK 012340Z AUTO 01028G33KT 1 1/2SM -RA BR BKN008 OVC013 A2978 RMK P0003 MADISHF
ACK,2017-04-01 23:45,-70.0603,41.2531,M,M,M,10.00,26.00,0.03,29.78,M,1.50,31.00,BKN,OVC,M,M,600.00,1100.00,M,M,-RA BR,KACK 012345Z AUTO 01026G31KT 1 1/2SM -RA BR BKN006 OVC011 A2978 RMK P0003 MADISHF
ACK,2017-04-01 23:50,-70.0603,41.2531,M,M,M,M,M,0.03,29.78,M,3.50,M,BKN,OVC,M,M,600.00,1100.00,M,M,-RA BR,KACK 012350Z AUTO /////KT 3SM -RA BR BKN006 OVC011 A2978 RMK P0003 MADISHF
ACK,2017-04-01 23:53,-70.0603,41.2531,37.90,35.10,89.53,10.00,26.00,0.03,29.78,1008.60,4.00,36.00,OVC,M,M,M,600.00,M,M,M,-RA BR,KACK 012353Z 01026G36KT 4SM -RA BR OVC006 03/02 A2978 RMK AO2 PK WND 01040/2303 RAB2254SNE2254 SLP086 P0003 60026 T00330017 10050 20033 51059
ACK,2017-04-01 23:55,-70.0603,41.2531,M,M,M,10.00,25.00,M,29.78,M,4.00,30.00,OVC,M,M,M,600.00,M,M,M,-RA BR,KACK 012355Z AUTO 01025G30KT 4SM -RA BR OVC006 A2978 RMK MADISHF
