#DEBUG: Format Typ    -> comma
#DEBUG: Time Period   -> 2017-04-01 00:00:00+00:00 2017-04-02 00:00:00+00:00
#DEBUG: Time Zone     -> Etc/UTC
#DEBUG: Data Contact   -> daryl herzmann akrherz@iastate.edu 515-294-5978
#DEBUG: Entries Found -> -1
station,valid,lon,lat,tmpf, dwpf, relh, drct, sknt, p01i, alti, mslp, vsby, gust, skyc1, skyc2, skyc3, skyc4, skyl1, skyl2, skyl3, skyl4, presentwx, metar
ADG,2017-04-01 00:00,-84.0773,41.8677,M,M,M,M,M,M,29.84,M,6.00,M,OVC,M,M,M,800.00,M,M,M,BR,KADG 010000Z AUTO /////KT 6SM BR OVC008 A2984 RMK CIG 6V13  MADISHF
ADG,2017-04-01 00:05,-84.0773,41.8677,M,M,M,10.00,10.00,M,29.85,M,9.00,M,BKN,OVC,M,M,999.00,1300.00,M,M,M,KADG 010005Z AUTO 01010KT 9SM BKN009 OVC013 A2985 RMK CIG 6V12  MADISHF
ADG,2017-04-01 00:10,-84.0773,41.8677,37.00,36.00,96.13,10.00,10.00,0.00,29.85,M,9.00,M,OVC,M,M,M,1000.00,M,M,M,M,KADG 010010Z AUTO 01010KT 9SM OVC010 03/02 A2985 RMK AO2 T00280022
ADG,2017-04-01 00:15,-84.0773,41.8677,M,M,M,360.00,9.00,M,29.85,M,7.00,M,BKN,OVC,M,M,900.00,1300.00,M,M,M,KADG 010015Z AUTO 36009KT 7SM BKN009 OVC013 A2985 RMK CIG 7V11  MADISHF
ADG,2017-04-01 00:20,-84.0773,41.8677,37.00,36.00,96.13,360.00,10.00,0.00,29.85,M,6.00,M,BKN,OVC,M,M,900.00,1300.00,M,M,BR,KADG 010020Z AUTO 36010KT 6SM BR BKN009 OVC013 03/02 A2985 RMK AO2 CIG 007V012 T00280022
ADG,2017-04-01 00:25,-84.0773,41.8677,M,M,M,360.00,13.00,M,29.85,M,6.00,M,OVC,M,M,M,900.00,M,M,M,BR,KADG 010025Z AUTO 36013KT 6SM BR OVC009 A2985 RMK CIG 7V14  MADISHF
ADG,2017-04-01 00:30,-84.0773,41.8677,M,M,M,10.00,11.00,M,29.86,M,7.00,M,OVC,M,M,M,900.00,M,M,M,M,KADG 010030Z AUTO 01011KT 7SM OVC009 A2986 RMK CIG 7V14  MADISHF
ADG,2017-04-01 00:35,-84.0773,41.8677,M,M,M,M,M,M,29.86,M,7.00,M,OVC,M,M,M,999.00,M,M,M,M,KADG 010035Z AUTO /////KT 7SM OVC009 A2986 RMK CIG 7V13  MADISHF
ADG,2017-04-01 00:37,-84.0773,41.8677,37.00,35.10,92.76,10.00,13.00,0.00,29.86,M,7.00,M,OVC,M,M,M,1000.00,M,M,M,M,KADG 010037Z AUTO 01013KT 7SM OVC010 03/02 A2986 RMK AO2 CIG 007V013 T00280017
ADG,2017-04-01 00:40,-84.0773,41.8677,M,M,M,10.00,11.00,M,29.87,M,7.00,M,BKN,OVC,M,M,800.00,1200.00,M,M,M,KADG 010040Z AUTO 01011KT 7SM BKN008 OVC012 A2987 RMK CIG 7V11  MADISHF
ADG,2017-04-01 00:45,-84.0773,41.8677,M,M,M,10.00,10.00,M,29.87,M,5.00,M,BKN,OVC,M,M,999.00,1400.00,M,M,BR,KADG 010045Z AUTO 01010KT 5SM BR BKN009 OVC014 A2987 RMK CIG 7V12  MADISHF
ADG,2017-04-01 00:50,-84.0773,41.8677,M,M,M,360.00,9.00,0.00,29.87,M,4.00,M,OVC,M,M,M,999.00,M,M,M,UP BR,KADG 010050Z AUTO 36009KT 4SM UP BR OVC009 A2987 RMK P0000 MADISHF
ADG,2017-04-01 00:53,-84.0773,41.8677,37.00,36.00,96.13,360.00,10.00,0.00,29.87,1012.40,3.00,M,OVC,M,M,M,1100.00,M,M,M,UP BR,KADG 010053Z AUTO 36010KT 3SM UP BR OVC011 03/02 A2987 RMK AO2 UPB50 SLP124 P0000 T00280022
ADG,2017-04-01 00:55,-84.0773,41.8677,M,M,M,10.00,11.00,M,29.87,M,3.50,M,OVC,M,M,M,1100.00,M,M,M,-RA BR,KADG 010055Z AUTO 01011KT 3SM -RA BR OVC011 A2987 RMK MADISHF
ADG,2017-04-01 01:00,-84.0773,41.8677,M,M,M,10.00,11.00,M,29.88,M,4.00,M,OVC,M,M,M,1100.00,M,M,M,-RA BR,KADG 010100Z AUTO 01011KT 4SM -RA BR OVC011 A2988 RMK MADISHF
ADG,2017-04-01 01:02,-84.0773,41.8677,37.00,35.10,92.76,10.00,11.00,0.00,29.88,M,4.00,M,BKN,OVC,M,M,900.00,1300.00,M,M,-RA BR,KADG 010102Z AUTO 01011KT 4SM -RA BR BKN009 OVC013 03/02 A2988 RMK AO2 UPE0055RAB0055 P0000 T00280017
ADG,2017-04-01 01:05,-84.0773,41.8677,M,M,M,10.00,11.00,M,29.88,M,5.00,M,SCT,OVC,M,M,900.00,1300.00,M,M,BR,KADG 010105Z AUTO 01011KT 5SM BR SCT009 OVC013 A2988 RMK MADISHF
ADG,2017-04-01 01:10,-84.0773,41.8677,M,M,M,360.00,9.00,M,29.88,M,5.00,M,BKN,OVC,M,M,900.00,1300.00,M,M,BR,KADG 010110Z AUTO 36009KT 5SM BR BKN009 OVC013 A2988 RMK MADISHF
ADG,2017-04-01 01:15,-84.0773,41.8677,M,M,M,10.00,9.00,M,29.89,M,5.00,M,SCT,OVC,M,M,800.00,1100.00,M,M,BR,KADG 010115Z AUTO 01009KT 5SM BR SCT008 OVC011 A2989 RMK MADISHF
ADG,2017-04-01 01:17,-84.0773,41.8677,37.00,35.10,92.76,10.00,10.00,0.00,29.89,M,5.00,M,SCT,OVC,M,M,800.00,1300.00,M,M,BR,KADG 010117Z AUTO 01010KT 5SM BR SCT008 OVC013 03/02 A2989 RMK AO2 UPE0055RAB0055E04 P0000 T00280017
ADG,2017-04-01 01:20,-84.0773,41.8677,M,M,M,M,M,M,29.89,M,6.00,M,FEW,OVC,M,M,800.00,1300.00,M,M,BR,KADG 010120Z AUTO /////KT 6SM BR FEW008 OVC013 A2989 RMK MADISHF
ADG,2017-04-01 01:25,-84.0773,41.8677,M,M,M,10.00,11.00,M,29.89,M,6.00,M,BKN,OVC,M,M,1100.00,1699.00,M,M,BR,KADG 010125Z AUTO 01011KT 6SM BR BKN011 OVC016 A2989 RMK MADISHF
ADG,2017-04-01 01:30,-84.0773,41.8677,M,M,M,10.00,10.00,M,29.89,M,5.00,M,OVC,M,M,M,999.00,M,M,M,BR,KADG 010130Z AUTO 01010KT 5SM BR OVC009 A2989 RMK CIG 6V14  MADISHF
ADG,2017-04-01 01:35,-84.0773,41.8677,M,M,M,360.00,10.00,M,29.89,M,5.00,M,BKN,OVC,M,M,700.00,1400.00,M,M,BR,KADG 010135Z AUTO 36010KT 5SM BR BKN007 OVC014 A2989 RMK CIG 5V9  MADISHF
ADG,2017-04-01 01:39,-84.0773,41.8677,36.00,35.10,96.49,360.00,11.00,0.00,29.89,M,6.00,M,BKN,OVC,M,M,900.00,1400.00,M,M,BR,KADG 010139Z AUTO 36011KT 6SM BR BKN009 OVC014 02/02 A2989 RMK AO2 UPE0055RAB0055E04 CIG 005V011 P0000 T00220017
ADG,2017-04-01 01:40,-84.0773,41.8677,M,M,M,10.00,10.00,M,29.89,M,6.00,M,BKN,OVC,M,M,900.00,1400.00,M,M,BR,KADG 010140Z AUTO 01010KT 6SM BR BKN009 OVC014 A2989 RMK CIG 5V12  MADISHF
ADG,2017-04-01 01:45,-84.0773,41.8677,M,M,M,10.00,11.00,M,29.89,M,7.00,M,BKN,OVC,M,M,700.00,1300.00,M,M,M,KADG 010145Z AUTO 01011KT 7SM BKN007 OVC013 A2989 RMK MADISHF
ADG,2017-04-01 01:50,-84.0773,41.8677,M,M,M,10.00,11.00,M,29.90,M,9.00,M,OVC,M,M,M,999.00,M,M,M,M,KADG 010150Z AUTO 01011KT 9SM OVC009 A2990 RMK CIG 5V13  MADISHF
ADG,2017-04-01 01:53,-84.0773,41.8677,36.00,35.10,96.49,10.00,10.00,0.00,29.90,1013.20,10.00,M,BKN,OVC,M,M,800.00,1200.00,M,M,M,KADG 010153Z AUTO 01010KT 10SM BKN008 OVC012 02/02 A2990 RMK AO2 UPE0055RAB0055E04 CIG 005V011 SLP132 P0000 T00220017
ADG,2017-04-01 01:55,-84.0773,41.8677,M,M,M,10.00,10.00,M,29.90,M,10.00,M,BKN,OVC,M,M,800.00,1200.00,M,M,M,KADG 010155Z AUTO 01010KT 10SM BKN008 OVC012 A2990 RMK CIG 5V11  MADISHF
ADG,2017-04-01 02:00,-84.0773,41.8677,M,M,M,10.00,9.00,M,29.90,M,9.00,M,BKN,OVC,M,M,800.00,1200.00,M,M,M,KADG 010200Z AUTO 01009KT 9SM BKN008 OVC012 A2990 RMK CIG 5V11  MADISHF
ADG,2017-04-01 02:05,-84.0773,41.8677,M,M,M,360.00,11.00,M,29.91,M,9.00,M,BKN,OVC,M,M,800.00,1200.00,M,M,M,KADG 010205Z AUTO 36011KT 9SM BKN008 OVC012 A2991 RMK CIG 7V11  MADISHF
ADG,2017-04-01 02:10,-84.0773,41.8677,M,M,M,M,M,M,29.91,M,10.00,M,BKN,OVC,M,M,800.00,1200.00,M,M,M,KADG 010210Z AUTO /////KT 10SM BKN008 OVC012 A2991 RMK MADISHF
ADG,2017-04-01 02:15,-84.0773,41.8677,M,M,M,10.00,12.00,M,29.91,M,10.00,17.00,OVC,M,M,M,800.00,M,M,M,M,KADG 010215Z AUTO 01012G17KT 10SM OVC008 A2991 RMK CIG 7V13  MADISHF
ADG,2017-04-01 02:20,-84.0773,41.8677,M,M,M,10.00,11.00,M,29.91,M,10.00,M,OVC,M,M,M,900.00,M,M,M,M,KADG 010220Z AUTO 01011KT 10SM OVC009 A2991 RMK CIG 7V13  MADISHF
ADG,2017-04-01 02:25,-84.0773,41.8677,M,M,M,360.00,12.00,M,29.91,M,10.00,M,OVC,M,M,M,900.00,M,M,M,M,KADG 010225Z AUTO 36012KT 10SM OVC009 A2991 RMK CIG 7V13  MADISHF
ADG,2017-04-01 02:30,-84.0773,41.8677,M,M,M,10.00,12.00,M,29.91,M,10.00,M,OVC,M,M,M,900.00,M,M,M,M,KADG 010230Z AUTO 01012KT 10SM OVC009 A2991 RMK MADISHF
ADG,2017-04-01 02:35,-84.0773,41.8677,M,M,M,M,M,M,29.92,M,10.00,M,OVC,M,M,M,900.00,M,M,M,M,KADG 010235Z AUTO /////KT 10SM OVC009 A2992 RMK MADISHF
ADG,2017-04-01 02:40,-84.0773,41.8677,M,M,M,10.00,11.00,M,29.92,M,10.00,M,OVC,M,M,M,999.00,M,M,M,M,KADG 010240Z AUTO 01011KT 10SM OVC009 A2992 RMK MADISHF
ADG,2017-04-01 02:45,-84.0773,41.8677,M,M,M,M,M,M,29.92,M,10.00,M,OVC,M,M,M,999.00,M,M,M,M,KADG 010245Z AUTO /////KT 10SM OVC009 A2992 RMK MADISHF
ADG,2017-04-01 02:46,-84.0773,41.8677,36.00,34.00,92.35,10.00,14.00,0.00,29.92,M,10.00,M,OVC,M,M,M,1000.00,M,M,M,M,KADG 010246Z AUTO 01014KT 10SM OVC010 02/01 A2992 RMK AO2 T00220011
ADG,2017-04-01 02:50,-84.0773,41.8677,M,M,M,10.00,11.00,M,29.92,M,10.00,M,OVC,M,M,M,999.00,M,M,M,M,KADG 010250Z AUTO 01011KT 10SM OVC009 A2992 RMK MADISHF
ADG,2017-04-01 02:53,-84.0773,41.8677,36.00,34.00,92.35,10.00,13.00,0.00,29.92,1013.90,10.00,M,OVC,M,M,M,1000.00,M,M,M,M,KADG 010253Z AUTO 01013KT 10SM OVC010 02/01 A2992 RMK AO2 SLP139 60000 T00220011 51027
ADG,2017-04-01 02:55,-84.0773,41.8677,M,M,M,10.00,11.00,M,29.92,M,10.00,M,OVC,M,M,M,999.00,M,M,M,M,KADG 010255Z AUTO 01011KT 10SM OVC009 A2992 RMK MADISHF
ADG,2017-04-01 03:00,-84.0773,41.8677,M,M,M,10.00,12.00,M,29.92,M,10.00,M,OVC,M,M,M,999.00,M,M,M,M,KADG 010300Z AUTO 01012KT 10SM OVC009 A2992 RMK MADISHF
ADG,2017-04-01 03:05,-84.0773,41.8677,M,M,M,10.00,11.00,M,29.92,M,10.00,M,OVC,M,M,M,999.00,M,M,M,M,KADG 010305Z AUTO 01011KT 10SM OVC009 A2992 RMK CIG 10V13  MADISHF
ADG,2017-04-01 03:10,-84.0773,41.8677,M,M,M,10.00,12.00,M,29.92,M,10.00,M,OVC,M,M,M,999.00,M,M,M,M,KADG 010310Z AUTO 01012KT 10SM OVC009 A2992 RMK MADISHF
ADG,2017-04-01 03:15,-84.0773,41.8677,M,M,M,10.00,11.00,M,29.92,M,10.00,M,OVC,M,M,M,1200.00,M,M,M,M,KADG 010315Z AUTO 01011KT 10SM OVC012 A2992 RMK MADISHF
ADG,2017-04-01 03:20,-84.0773,41.8677,M,M,M,10.00,9.00,M,29.92,M,10.00,M,OVC,M,M,M,1200.00,M,M,M,M,KADG 010320Z AUTO 01009KT 10SM OVC012 A2992 RMK MADISHF
ADG,2017-04-01 03:25,-84.0773,41.8677,M,M,M,M,M,M,29.92,M,10.00,M,OVC,M,M,M,1200.00,M,M,M,M,KADG 010325Z AUTO /////KT 10SM OVC012 A2992 RMK MADISHF
ADG,2017-04-01 03:30,-84.0773,41.8677,M,M,M,10.00,11.00,M,29.93,M,10.00,M,OVC,M,M,M,1200.00,M,M,M,M,KADG 010330Z AUTO 01011KT 10SM OVC012 A2993 RMK MADISHF
ADG,2017-04-01 03:35,-84.0773,41.8677,M,M,M,M,M,M,29.93,M,10.00,M,OVC,M,M,M,1200.00,M,M,M,M,KADG 010335Z AUTO /////KT 10SM OVC012 A2993 RMK MADISHF
ADG,2017-04-01 03:40,-84.0773,41.8677,M,M,M,10.00,11.00,M,29.93,M,10.00,M,OVC,M,M,M,1300.00,M,M,M,M,KADG 010340Z AUTO 01011KT 10SM OVC013 A2993 RMK MADISHF
ADG,2017-04-01 03:45,-84.0773,41.8677,M,M,M,10.00,10.00,M,29.93,M,10.00,M,OVC,M,M,M,1300.00,M,M,M,M,KADG 010345Z AUTO 01010KT 10SM OVC013 A2993 RMK MADISHF
ADG,2017-04-01 03:50,-84.0773,41.8677,M,M,M,20.00,12.00,M,29.92,M,10.00,M,OVC,M,M,M,1300.00,M,M,M,M,KADG 010350Z AUTO 02012KT 10SM OVC013 A2992 RMK MADISHF
ADG,2017-04-01 03:53,-84.0773,41.8677,36.00,33.10,89.09,20.00,12.00,0.00,29.92,1014.10,10.00,M,OVC,M,M,M,1300.00,M,M,M,M,KADG 010353Z AUTO 02012KT 10SM OVC013 02/01 A2992 RMK AO2 SLP141 T00220006
ADG,2017-04-01 03:55,-84.0773,41.8677,M,M,M,M,M,M,29.92,M,10.00,M,OVC,M,M,M,1300.00,M,M,M,M,KADG 010355Z AUTO /////KT 10SM OVC013 A2992 RMK MADISHF
ADG,2017-04-01 04:00,-84.0773,41.8677,M,M,M,M,M,M,29.93,M,10.00,M,OVC,M,M,M,1300.00,M,M,M,M,KADG 010400Z AUTO /////KT 10SM OVC013 A2993 RMK MADISHF
ADG,2017-04-01 04:05,-84.0773,41.8677,M,M,M,M,M,M,29.93,M,10.00,M,OVC,M,M,M,1500.00,M,M,M,M,KADG 010405Z AUTO /////KT 10SM OVC015 A2993 RMK MADISHF
ADG,2017-04-01 04:09,-84.0773,41.8677,36.00,33.10,89.09,20.00,11.00,0.00,29.93,M,10.00,18.00,OVC,M,M,M,1500.00,M,M,M,M,KADG 010409Z AUTO 02011G18KT 10SM OVC015 02/01 A2993 RMK AO2 T00220006
ADG,2017-04-01 04:10,-84.0773,41.8677,M,M,M,20.00,9.00,M,29.93,M,10.00,M,OVC,M,M,M,1500.00,M,M,M,M,KADG 010410Z AUTO 02009KT 10SM OVC015 A2993 RMK MADISHF
ADG,2017-04-01 04:15,-84.0773,41.8677,M,M,M,10.00,9.00,M,29.93,M,10.00,M,OVC,M,M,M,1500.00,M,M,M,M,KADG 010415Z AUTO 01009KT 10SM OVC015 A2993 RMK MADISHF
ADG,2017-04-01 04:20,-84.0773,41.8677,M,M,M,10.00,10.00,M,29.93,M,10.00,M,OVC,M,M,M,1500.00,M,M,M,M,KADG 010420Z AUTO 01010KT 10SM OVC015 A2993 RMK MADISHF
ADG,2017-04-01 04:25,-84.0773,41.8677,M,M,M,10.00,9.00,M,29.93,M,10.00,M,OVC,M,M,M,1500.00,M,M,M,M,KADG 010425Z AUTO 01009KT 10SM OVC015 A2993 RMK MADISHF
ADG,2017-04-01 04:30,-84.0773,41.8677,M,M,M,20.00,11.00,M,29.93,M,10.00,M,OVC,M,M,M,1500.00,M,M,M,M,KADG 010430Z AUTO 02011KT 10SM OVC015 A2993 RMK MADISHF
ADG,2017-04-01 04:35,-84.0773,41.8677,M,M,M,20.00,13.00,M,29.93,M,10.00,M,OVC,M,M,M,1400.00,M,M,M,M,KADG 010435Z AUTO 02013KT 10SM OVC014 A2993 RMK MADISHF
ADG,2017-04-01 04:40,-84.0773,41.8677,36.00,33.10,89.09,20.00,11.00,0.00,29.94,M,10.00,M,BKN,OVC,M,M,1400.00,2400.00,M,M,M,KADG 010440Z AUTO 02011KT 10SM BKN014 OVC024 02/01 A2994 RMK AO2 T00220006
ADG,2017-04-01 04:45,-84.0773,41.8677,M,M,M,20.00,8.00,M,29.94,M,10.00,M,BKN,OVC,M,M,1400.00,2400.00,M,M,M,KADG 010445Z AUTO 02008KT 10SM BKN014 OVC024 A2994 RMK MADISHF
ADG,2017-04-01 04:50,-84.0773,41.8677,M,M,M,20.00,10.00,M,29.94,M,10.00,M,BKN,OVC,M,M,1400.00,2400.00,M,M,M,KADG 010450Z AUTO 02010KT 10SM BKN014 OVC024 A2994 RMK MADISHF
ADG,2017-04-01 04:53,-84.0773,41.8677,36.00,33.10,89.09,20.00,9.00,0.00,29.94,1014.70,10.00,M,BKN,OVC,M,M,1400.00,2400.00,M,M,M,KADG 010453Z AUTO 02009KT 10SM BKN014 OVC024 02/01 A2994 RMK AO2 SLP147 T00220006 400560022
ADG,2017-04-01 04:55,-84.0773,41.8677,M,M,M,10.00,11.00,M,29.94,M,10.00,M,BKN,OVC,M,M,1400.00,2400.00,M,M,M,KADG 010455Z AUTO 01011KT 10SM BKN014 OVC024 A2994 RMK MADISHF
ADG,2017-04-01 05:00,-84.0773,41.8677,M,M,M,10.00,9.00,M,29.95,M,10.00,M,BKN,OVC,M,M,1500.00,2400.00,M,M,M,KADG 010500Z AUTO 01009KT 10SM BKN015 OVC024 A2995 RMK MADISHF
ADG,2017-04-01 05:02,-84.0773,41.8677,36.00,33.10,89.09,10.00,9.00,0.00,29.95,M,10.00,M,BKN,OVC,M,M,1500.00,2400.00,M,M,M,KADG 010502Z AUTO 01009KT 10SM BKN015 OVC024 02/01 A2995 RMK AO2 T00220006
ADG,2017-04-01 05:05,-84.0773,41.8677,M,M,M,10.00,9.00,M,29.95,M,10.00,M,OVC,M,M,M,1500.00,M,M,M,M,KADG 010505Z AUTO 01009KT 10SM OVC015 A2995 RMK MADISHF
ADG,2017-04-01 05:10,-84.0773,41.8677,M,M,M,10.00,9.00,M,29.96,M,10.00,M,OVC,M,M,M,1500.00,M,M,M,M,KADG 010510Z AUTO 01009KT 10SM OVC015 A2996 RMK MADISHF
ADG,2017-04-01 05:15,-84.0773,41.8677,M,M,M,10.00,9.00,M,29.96,M,10.00,M,OVC,M,M,M,1500.00,M,M,M,M,KADG 010515Z AUTO 01009KT 10SM OVC015 A2996 RMK MADISHF
ADG,2017-04-01 05:20,-84.0773,41.8677,M,M,M,10.00,10.00,M,29.96,M,10.00,M,OVC,M,M,M,1500.00,M,M,M,M,KADG 010520Z AUTO 01010KT 10SM OVC015 A2996 RMK MADISHF
ADG,2017-04-01 05:25,-84.0773,41.8677,M,M,M,360.00,9.00,M,29.96,M,10.00,M,OVC,M,M,M,1500.00,M,M,M,M,KADG 010525Z AUTO 36009KT 10SM OVC015 A2996 RMK MADISHF
ADG,2017-04-01 05:30,-84.0773,41.8677,M,M,M,10.00,10.00,M,29.97,M,10.00,M,OVC,M,M,M,1500.00,M,M,M,M,KADG 010530Z AUTO 01010KT 10SM OVC015 A2997 RMK MADISHF
ADG,2017-04-01 05:35,-84.0773,41.8677,M,M,M,360.00,9.00,M,29.97,M,10.00,M,OVC,M,M,M,1500.00,M,M,M,M,KADG 010535Z AUTO 36009KT 10SM OVC015 A2997 RMK MADISHF
ADG,2017-04-01 05:40,-84.0773,41.8677,M,M,M,360.00,11.00,M,29.98,M,10.00,M,OVC,M,M,M,1500.00,M,M,M,M,KADG 010540Z AUTO 36011KT 10SM OVC015 A2998 RMK MADISHF
ADG,2017-04-01 05:45,-84.0773,41.8677,M,M,M,360.00,12.00,M,29.98,M,10.00,M,OVC,M,M,M,1400.00,M,M,M,M,KADG 010545Z AUTO 36012KT 10SM OVC014 A2998 RMK MADISHF
ADG,2017-04-01 05:49,-84.0773,41.8677,35.60,33.80,93.08,10.00,9.00,0.00,29.97,M,10.00,M,OVC,M,M,M,1400.00,M,M,M,M,KADG 010549Z AUTO 01009KT 10SM OVC014 02/01 A2997 RMK AO2
ADG,2017-04-01 05:50,-84.0773,41.8677,M,M,M,10.00,9.00,M,29.97,M,10.00,M,OVC,M,M,M,1400.00,M,M,M,M,KADG 010550Z AUTO 01009KT 10SM OVC014 A2997 RMK MADISHF
ADG,2017-04-01 05:53,-84.0773,41.8677,36.00,33.10,89.09,10.00,10.00,0.00,29.97,1015.80,10.00,M,OVC,M,M,M,1400.00,M,M,M,M,KADG 010553Z AUTO 01010KT 10SM OVC014 02/01 A2997 RMK AO2 SLP158 60000 T00220006 10028 20022 50017
ADG,2017-04-01 05:55,-84.0773,41.8677,M,M,M,10.00,12.00,M,29.98,M,10.00,M,OVC,M,M,M,1400.00,M,M,M,M,KADG 010555Z AUTO 01012KT 10SM OVC014 A2998 RMK MADISHF
ADG,2017-04-01 06:00,-84.0773,41.8677,M,M,M,10.00,11.00,M,29.98,M,10.00,M,OVC,M,M,M,1400.00,M,M,M,M,KADG 010600Z AUTO 01011KT 10SM OVC014 A2998 RMK MADISHF
ADG,2017-04-01 06:05,-84.0773,41.8677,M,M,M,360.00,10.00,M,29.98,M,10.00,M,OVC,M,M,M,1400.00,M,M,M,M,KADG 010605Z AUTO 36010KT 10SM OVC014 A2998 RMK MADISHF
ADG,2017-04-01 06:10,-84.0773,41.8677,M,M,M,360.00,11.00,M,29.98,M,10.00,M,OVC,M,M,M,1400.00,M,M,M,M,KADG 010610Z AUTO 36011KT 10SM OVC014 A2998 RMK MADISHF
ADG,2017-04-01 06:15,-84.0773,41.8677,M,M,M,360.00,8.00,M,29.99,M,10.00,M,OVC,M,M,M,1400.00,M,M,M,M,KADG 010615Z AUTO 36008KT 10SM OVC014 A2999 RMK MADISHF
ADG,2017-04-01 06:20,-84.0773,41.8677,M,M,M,360.00,8.00,M,29.99,M,10.00,M,OVC,M,M,M,1400.00,M,M,M,M,KADG 010620Z AUTO 36008KT 10SM OVC014 A2999 RMK MADISHF
ADG,2017-04-01 06:25,-84.0773,41.8677,M,M,M,360.00,9.00,M,29.99,M,10.00,M,OVC,M,M,M,1400.00,M,M,M,M,KADG 010625Z AUTO 36009KT 10SM OVC014 A2999 RMK MADISHF
ADG,2017-04-01 06:30,-84.0773,41.8677,M,M,M,360.00,6.00,M,29.99,M,10.00,M,OVC,M,M,M,1400.00,M,M,M,M,KADG 010630Z AUTO 36006KT 10SM OVC014 A2999 RMK MADISHF
ADG,2017-04-01 06:35,-84.0773,41.8677,M,M,M,360.00,10.00,M,30.00,M,10.00,M,OVC,M,M,M,1400.00,M,M,M,M,KADG 010635Z AUTO 36010KT 10SM OVC014 A3000 RMK MADISHF
ADG,2017-04-01 06:40,-84.0773,41.8677,M,M,M,360.00,9.00,M,30.00,M,10.00,M,OVC,M,M,M,1400.00,M,M,M,M,KADG 010640Z AUTO 36009KT 10SM OVC014 A3000 RMK MADISHF
ADG,2017-04-01 06:45,-84.0773,41.8677,M,M,M,10.00,11.00,M,30.00,M,10.00,M,OVC,M,M,M,1300.00,M,M,M,M,KADG 010645Z AUTO 01011KT 10SM OVC013 A3000 RMK MADISHF
ADG,2017-04-01 06:50,-84.0773,41.8677,M,M,M,10.00,10.00,M,30.00,M,10.00,M,OVC,M,M,M,1300.00,M,M,M,M,KADG 010650Z AUTO 01010KT 10SM OVC013 A3000 RMK MADISHF
ADG,2017-04-01 06:53,-84.0773,41.8677,36.00,33.10,89.09,10.00,8.00,0.00,29.99,1016.50,10.00,M,OVC,M,M,M,1300.00,M,M,M,M,KADG 010653Z AUTO 01008KT 10SM OVC013 02/01 A2999 RMK AO2 SLP165 T00220006
ADG,2017-04-01 06:55,-84.0773,41.8677,M,M,M,350.00,9.00,M,29.99,M,10.00,14.00,OVC,M,M,M,1300.00,M,M,M,M,KADG 010655Z AUTO 35009G14KT 10SM OVC013 A2999 RMK MADISHF
ADG,2017-04-01 07:00,-84.0773,41.8677,M,M,M,10.00,7.00,M,29.99,M,10.00,M,OVC,M,M,M,1300.00,M,M,M,M,KADG 010700Z AUTO 01007KT 10SM OVC013 A2999 RMK MADISHF
ADG,2017-04-01 07:05,-84.0773,41.8677,M,M,M,10.00,8.00,M,29.99,M,10.00,M,OVC,M,M,M,1500.00,M,M,M,M,KADG 010705Z AUTO 01008KT 10SM OVC015 A2999 RMK MADISHF
ADG,2017-04-01 07:09,-84.0773,41.8677,36.00,33.10,89.09,360.00,8.00,0.00,29.99,M,10.00,M,OVC,M,M,M,1500.00,M,M,M,M,KADG 010709Z AUTO 36008KT 10SM OVC015 02/01 A2999 RMK AO2 T00220006
ADG,2017-04-01 07:10,-84.0773,41.8677,M,M,M,360.00,8.00,M,29.99,M,10.00,M,OVC,M,M,M,1500.00,M,M,M,M,KADG 010710Z AUTO 36008KT 10SM OVC015 A2999 RMK MADISHF
ADG,2017-04-01 07:15,-84.0773,41.8677,M,M,M,360.00,6.00,M,30.00,M,10.00,M,OVC,M,M,M,1500.00,M,M,M,M,KADG 010715Z AUTO 36006KT 10SM OVC015 A3000 RMK MADISHF
ADG,2017-04-01 07:20,-84.0773,41.8677,M,M,M,350.00,6.00,M,30.00,M,10.00,M,OVC,M,M,M,1500.00,M,M,M,M,KADG 010720Z AUTO 35006KT 10SM OVC015 A3000 RMK MADISHF
ADG,2017-04-01 07:25,-84.0773,41.8677,M,M,M,350.00,7.00,M,30.00,M,10.00,M,OVC,M,M,M,1500.00,M,M,M,M,KADG 010725Z AUTO 35007KT 10SM OVC015 A3000 RMK MADISHF
ADG,2017-04-01 07:30,-84.0773,41.8677,M,M,M,350.00,8.00,M,30.01,M,10.00,M,OVC,M,M,M,1500.00,M,M,M,M,KADG 010730Z AUTO 35008KT 10SM OVC015 A3001 RMK MADISHF
ADG,2017-04-01 07:35,-84.0773,41.8677,M,M,M,350.00,7.00,M,30.01,M,10.00,M,OVC,M,M,M,1400.00,M,M,M,M,KADG 010735Z AUTO 35007KT 10SM OVC014 A3001 RMK MADISHF
ADG,2017-04-01 07:40,-84.0773,41.8677,M,M,M,350.00,8.00,M,30.01,M,10.00,M,OVC,M,M,M,1400.00,M,M,M,M,KADG 010740Z AUTO 35008KT 10SM OVC014 A3001 RMK MADISHF
ADG,2017-04-01 07:41,-84.0773,41.8677,36.00,33.10,89.09,350.00,7.00,0.00,30.01,M,10.00,M,OVC,M,M,M,1400.00,M,M,M,M,KADG 010741Z AUTO 35007KT 10SM OVC014 02/01 A3001 RMK AO2 T00220006
ADG,2017-04-01 07:45,-84.0773,41.8677,M,M,M,360.00,8.00,M,30.00,M,10.00,M,OVC,M,M,M,1400.00,M,M,M,M,KADG 010745Z AUTO 36008KT 10SM OVC014 A3000 RMK MADISHF
ADG,2017-04-01 07:50,-84.0773,41.8677,M,M,M,360.00,9.00,M,30.00,M,10.00,M,OVC,M,M,M,1400.00,M,M,M,M,KADG 010750Z AUTO 36009KT 10SM OVC014 A3000 RMK MADISHF
ADG,2017-04-01 07:53,-84.0773,41.8677,36.00,33.10,89.09,360.00,10.00,0.00,30.01,1016.90,10.00,M,OVC,M,M,M,1400.00,M,M,M,M,KADG 010753Z AUTO 36010KT 10SM OVC014 02/01 A3001 RMK AO2 SLP169 T00220006
ADG,2017-04-01 07:55,-84.0773,41.8677,M,M,M,350.00,8.00,M,30.00,M,10.00,M,OVC,M,M,M,1400.00,M,M,M,M,KADG 010755Z AUTO 35008KT 10SM OVC014 A3000 RMK MADISHF
ADG,2017-04-01 08:00,-84.0773,41.8677,M,M,M,350.00,9.00,M,30.01,M,10.00,M,OVC,M,M,M,1400.00,M,M,M,M,KADG 010800Z AUTO 35009KT 10SM OVC014 A3001 RMK MADISHF
ADG,2017-04-01 08:05,-84.0773,41.8677,M,M,M,350.00,9.00,M,30.01,M,10.00,M,OVC,M,M,M,1400.00,M,M,M,M,KADG 010805Z AUTO 35009KT 10SM OVC014 A3001 RMK MADISHF
ADG,2017-04-01 08:10,-84.0773,41.8677,M,M,M,360.00,9.00,M,30.01,M,10.00,M,OVC,M,M,M,1400.00,M,M,M,M,KADG 010810Z AUTO 36009KT 10SM OVC014 A3001 RMK MADISHF
ADG,2017-04-01 08:15,-84.0773,41.8677,M,M,M,350.00,10.00,M,30.01,M,10.00,M,OVC,M,M,M,1400.00,M,M,M,M,KADG 010815Z AUTO 35010KT 10SM OVC014 A3001 RMK MADISHF
ADG,2017-04-01 08:20,-84.0773,41.8677,M,M,M,360.00,10.00,M,30.01,M,10.00,M,OVC,M,M,M,1300.00,M,M,M,M,KADG 010820Z AUTO 36010KT 10SM OVC013 A3001 RMK MADISHF
ADG,2017-04-01 08:25,-84.0773,41.8677,M,M,M,360.00,8.00,M,30.01,M,10.00,M,OVC,M,M,M,1300.00,M,M,M,M,KADG 010825Z AUTO 36008KT 10SM OVC013 A3001 RMK MADISHF
ADG,2017-04-01 08:30,-84.0773,41.8677,M,M,M,360.00,7.00,M,30.02,M,10.00,M,OVC,M,M,M,1400.00,M,M,M,M,KADG 010830Z AUTO 36007KT 10SM OVC014 A3002 RMK MADISHF
ADG,2017-04-01 08:35,-84.0773,41.8677,M,M,M,10.00,8.00,M,30.02,M,10.00,M,OVC,M,M,M,1400.00,M,M,M,M,KADG 010835Z AUTO 01008KT 10SM OVC014 A3002 RMK MADISHF
ADG,2017-04-01 08:40,-84.0773,41.8677,M,M,M,360.00,7.00,M,30.02,M,10.00,M,OVC,M,M,M,1400.00,M,M,M,M,KADG 010840Z AUTO 36007KT 10SM OVC014 A3002 RMK MADISHF
ADG,2017-04-01 08:45,-84.0773,41.8677,M,M,M,360.00,9.00,M,30.02,M,10.00,M,OVC,M,M,M,1400.00,M,M,M,M,KADG 010845Z AUTO 36009KT 10SM OVC014 A3002 RMK MADISHF
ADG,2017-04-01 08:50,-84.0773,41.8677,M,M,M,360.00,8.00,M,30.02,M,10.00,M,OVC,M,M,M,1400.00,M,M,M,M,KADG 010850Z AUTO 36008KT 10SM OVC014 A3002 RMK MADISHF
ADG,2017-04-01 08:53,-84.0773,41.8677,36.00,33.10,89.09,360.00,9.00,0.00,30.02,1017.50,10.00,M,OVC,M,M,M,1400.00,M,M,M,M,KADG 010853Z AUTO 36009KT 10SM OVC014 02/01 A3002 RMK AO2 SLP175 T00220006 51017
ADG,2017-04-01 08:55,-84.0773,41.8677,M,M,M,360.00,10.00,M,30.03,M,10.00,M,OVC,M,M,M,1400.00,M,M,M,M,KADG 010855Z AUTO 36010KT 10SM OVC014 A3003 RMK MADISHF
ADG,2017-04-01 09:00,-84.0773,41.8677,M,M,M,360.00,9.00,M,30.03,M,10.00,M,OVC,M,M,M,1400.00,M,M,M,M,KADG 010900Z AUTO 36009KT 10SM OVC014 A3003 RMK MADISHF
ADG,2017-04-01 09:05,-84.0773,41.8677,M,M,M,360.00,11.00,M,30.03,M,10.00,M,OVC,M,M,M,1400.00,M,M,M,M,KADG 010905Z AUTO 36011KT 10SM OVC014 A3003 RMK MADISHF
ADG,2017-04-01 09:10,-84.0773,41.8677,M,M,M,10.00,10.00,M,30.03,M,10.00,M,OVC,M,M,M,1400.00,M,M,M,M,KADG 010910Z AUTO 01010KT 10SM OVC014 A3003 RMK MADISHF
ADG,2017-04-01 09:15,-84.0773,41.8677,M,M,M,360.00,10.00,M,30.04,M,10.00,M,OVC,M,M,M,1400.00,M,M,M,M,KADG 010915Z AUTO 36010KT 10SM OVC014 A3004 RMK MADISHF
ADG,2017-04-01 09:20,-84.0773,41.8677,M,M,M,360.00,11.00,M,30.04,M,10.00,M,OVC,M,M,M,1400.00,M,M,M,M,KADG 010920Z AUTO 36011KT 10SM OVC014 A3004 RMK MADISHF
ADG,2017-04-01 09:25,-84.0773,41.8677,M,M,M,10.00,10.00,M,30.04,M,10.00,M,OVC,M,M,M,1400.00,M,M,M,M,KADG 010925Z AUTO 01010KT 10SM OVC014 A3004 RMK MADISHF
ADG,2017-04-01 09:30,-84.0773,41.8677,M,M,M,10.00,8.00,M,30.04,M,10.00,M,OVC,M,M,M,1400.00,M,M,M,M,KADG 010930Z AUTO 01008KT 10SM OVC014 A3004 RMK MADISHF
ADG,2017-04-01 09:35,-84.0773,41.8677,M,M,M,10.00,11.00,M,30.04,M,10.00,M,OVC,M,M,M,1400.00,M,M,M,M,KADG 010935Z AUTO 01011KT 10SM OVC014 A3004 RMK MADISHF
ADG,2017-04-01 09:40,-84.0773,41.8677,M,M,M,360.00,9.00,M,30.05,M,10.00,M,OVC,M,M,M,1400.00,M,M,M,M,KADG 010940Z AUTO 36009KT 10SM OVC014 A3005 RMK MADISHF
ADG,2017-04-01 09:45,-84.0773,41.8677,M,M,M,360.00,9.00,M,30.05,M,10.00,M,OVC,M,M,M,1400.00,M,M,M,M,KADG 010945Z AUTO 36009KT 10SM OVC014 A3005 RMK MADISHF
ADG,2017-04-01 09:50,-84.0773,41.8677,M,M,M,360.00,9.00,M,30.05,M,10.00,M,OVC,M,M,M,1400.00,M,M,M,M,KADG 010950Z AUTO 36009KT 10SM OVC014 A3005 RMK MADISHF
ADG,2017-04-01 09:53,-84.0773,41.8677,36.00,32.00,85.23,360.00,9.00,0.00,30.05,1018.40,10.00,M,OVC,M,M,M,1400.00,M,M,M,M,KADG 010953Z AUTO 36009KT 10SM OVC014 02/00 A3005 RMK AO2 SLP184 T00220000
ADG,2017-04-01 09:55,-84.0773,41.8677,M,M,M,360.00,11.00,M,30.05,M,10.00,M,OVC,M,M,M,1400.00,M,M,M,M,KADG 010955Z AUTO 36011KT 10SM OVC014 A3005 RMK MADISHF
ADG,2017-04-01 10:00,-84.0773,41.8677,M,M,M,10.00,10.00,M,30.05,M,10.00,M,OVC,M,M,M,1300.00,M,M,M,M,KADG 011000Z AUTO 01010KT 10SM OVC013 A3005 RMK MADISHF
ADG,2017-04-01 10:05,-84.0773,41.8677,M,M,M,10.00,9.00,M,30.05,M,10.00,M,OVC,M,M,M,1300.00,M,M,M,M,KADG 011005Z AUTO 01009KT 10SM OVC013 A3005 RMK MADISHF
ADG,2017-04-01 10:10,-84.0773,41.8677,M,M,M,10.00,10.00,M,30.05,M,10.00,M,OVC,M,M,M,1300.00,M,M,M,M,KADG 011010Z AUTO 01010KT 10SM OVC013 A3005 RMK MADISHF
ADG,2017-04-01 10:15,-84.0773,41.8677,M,M,M,10.00,9.00,M,30.06,M,10.00,M,OVC,M,M,M,1400.00,M,M,M,M,KADG 011015Z AUTO 01009KT 10SM OVC014 A3006 RMK MADISHF
ADG,2017-04-01 10:20,-84.0773,41.8677,M,M,M,M,M,M,30.06,M,10.00,M,OVC,M,M,M,1400.00,M,M,M,M,KADG 011020Z AUTO /////KT 10SM OVC014 A3006 RMK MADISHF
ADG,2017-04-01 10:25,-84.0773,41.8677,M,M,M,M,M,M,30.07,M,10.00,M,OVC,M,M,M,1400.00,M,M,M,M,KADG 011025Z AUTO /////KT 10SM OVC014 A3007 RMK MADISHF
ADG,2017-04-01 10:30,-84.0773,41.8677,M,M,M,M,M,M,30.07,M,10.00,M,OVC,M,M,M,1500.00,M,M,M,M,KADG 011030Z AUTO /////KT 10SM OVC015 A3007 RMK MADISHF
ADG,2017-04-01 10:34,-84.0773,41.8677,36.00,32.00,85.23,10.00,12.00,0.00,30.07,M,10.00,M,OVC,M,M,M,1500.00,M,M,M,M,KADG 011034Z AUTO 01012KT 10SM OVC015 02/00 A3007 RMK AO2 T00220000
ADG,2017-04-01 10:35,-84.0773,41.8677,M,M,M,M,M,M,30.08,M,10.00,M,OVC,M,M,M,1500.00,M,M,M,M,KADG 011035Z AUTO /////KT 10SM OVC015 A3008 RMK MADISHF
ADG,2017-04-01 10:40,-84.0773,41.8677,M,M,M,M,M,M,30.08,M,10.00,M,OVC,M,M,M,1500.00,M,M,M,M,KADG 011040Z AUTO /////KT 10SM OVC015 A3008 RMK MADISHF
ADG,2017-04-01 10:45,-84.0773,41.8677,M,M,M,M,M,M,30.09,M,10.00,M,OVC,M,M,M,1500.00,M,M,M,M,KADG 011045Z AUTO /////KT 10SM OVC015 A3009 RMK MADISHF
ADG,2017-04-01 10:50,-84.0773,41.8677,M,M,M,M,M,M,30.09,M,10.00,M,OVC,M,M,M,1500.00,M,M,M,M,KADG 011050Z AUTO /////KT 10SM OVC015 A3009 RMK MADISHF
ADG,2017-04-01 10:53,-84.0773,41.8677,36.00,30.90,81.53,360.00,12.00,0.00,30.09,1019.70,10.00,M,OVC,M,M,M,1500.00,M,M,M,M,KADG 011053Z AUTO 36012KT 10SM OVC015 02/M01 A3009 RMK AO2 SLP197 T00221006
ADG,2017-04-01 10:55,-84.0773,41.8677,M,M,M,360.00,13.00,M,30.09,M,10.00,M,OVC,M,M,M,1400.00,M,M,M,M,KADG 011055Z AUTO 36013KT 10SM OVC014 A3009 RMK MADISHF
ADG,2017-04-01 11:00,-84.0773,41.8677,M,M,M,360.00,13.00,M,30.09,M,10.00,M,OVC,M,M,M,1400.00,M,M,M,M,KADG 011100Z AUTO 36013KT 10SM OVC014 A3009 RMK MADISHF
ADG,2017-04-01 11:01,-84.0773,41.8677,36.00,30.90,81.53,360.00,12.00,0.00,30.09,M,10.00,M,OVC,M,M,M,1400.00,M,M,M,M,KADG 011101Z AUTO 36012KT 10SM OVC014 02/M01 A3009 RMK AO2 T00221006
ADG,2017-04-01 11:05,-84.0773,41.8677,M,M,M,10.00,12.00,M,30.09,M,10.00,M,OVC,M,M,M,1400.00,M,M,M,M,KADG 011105Z AUTO 01012KT 10SM OVC014 A3009 RMK MADISHF
ADG,2017-04-01 11:10,-84.0773,41.8677,M,M,M,M,M,M,30.10,M,10.00,M,OVC,M,M,M,1400.00,M,M,M,M,KADG 011110Z AUTO /////KT 10SM OVC014 A3010 RMK MADISHF
ADG,2017-04-01 11:15,-84.0773,41.8677,M,M,M,10.00,9.00,M,30.10,M,10.00,M,OVC,M,M,M,1400.00,M,M,M,M,KADG 011115Z AUTO 01009KT 10SM OVC014 A3010 RMK MADISHF
ADG,2017-04-01 11:20,-84.0773,41.8677,M,M,M,360.00,10.00,M,30.11,M,10.00,M,OVC,M,M,M,1400.00,M,M,M,M,KADG 011120Z AUTO 36010KT 10SM OVC014 A3011 RMK MADISHF
ADG,2017-04-01 11:25,-84.0773,41.8677,M,M,M,10.00,6.00,M,30.11,M,10.00,M,OVC,M,M,M,1400.00,M,M,M,M,KADG 011125Z AUTO 01006KT 10SM OVC014 A3011 RMK MADISHF
ADG,2017-04-01 11:30,-84.0773,41.8677,M,M,M,10.00,7.00,M,30.12,M,10.00,M,OVC,M,M,M,1300.00,M,M,M,M,KADG 011130Z AUTO 01007KT 10SM OVC013 A3012 RMK MADISHF
ADG,2017-04-01 11:35,-84.0773,41.8677,M,M,M,20.00,11.00,M,30.12,M,10.00,16.00,OVC,M,M,M,1300.00,M,M,M,M,KADG 011135Z AUTO 02011G16KT 10SM OVC013 A3012 RMK MADISHF
ADG,2017-04-01 11:40,-84.0773,41.8677,M,M,M,10.00,11.00,M,30.12,M,10.00,M,OVC,M,M,M,1300.00,M,M,M,M,KADG 011140Z AUTO 01011KT 10SM OVC013 A3012 RMK MADISHF
ADG,2017-04-01 11:45,-84.0773,41.8677,M,M,M,10.00,11.00,M,30.12,M,10.00,M,OVC,M,M,M,1300.00,M,M,M,M,KADG 011145Z AUTO 01011KT 10SM OVC013 A3012 RMK MADISHF
ADG,2017-04-01 11:50,-84.0773,41.8677,M,M,M,360.00,8.00,M,30.12,M,10.00,M,OVC,M,M,M,1300.00,M,M,M,M,KADG 011150Z AUTO 36008KT 10SM OVC013 A3012 RMK MADISHF
ADG,2017-04-01 11:53,-84.0773,41.8677,36.00,32.00,85.23,10.00,7.00,0.00,30.12,1021.00,10.00,M,OVC,M,M,M,1400.00,M,M,M,M,KADG 011153Z AUTO 01007KT 10SM OVC014 02/00 A3012 RMK AO2 SLP210 T00220000 10022 20022 53033
ADG,2017-04-01 11:55,-84.0773,41.8677,M,M,M,360.00,8.00,M,30.12,M,10.00,M,OVC,M,M,M,1400.00,M,M,M,M,KADG 011155Z AUTO 36008KT 10SM OVC014 A3012 RMK MADISHF
ADG,2017-04-01 12:00,-84.0773,41.8677,M,M,M,10.00,11.00,M,30.12,M,10.00,M,OVC,M,M,M,1400.00,M,M,M,M,KADG 011200Z AUTO 01011KT 10SM OVC014 A3012 RMK MADISHF
ADG,2017-04-01 12:05,-84.0773,41.8677,M,M,M,20.00,10.00,M,30.12,M,10.00,M,OVC,M,M,M,1500.00,M,M,M,M,KADG 011205Z AUTO 02010KT 10SM OVC015 A3012 RMK MADISHF
ADG,2017-04-01 12:09,-84.0773,41.8677,36.00,30.90,81.53,20.00,13.00,0.00,30.13,M,10.00,18.00,OVC,M,M,M,1500.00,M,M,M,M,KADG 011209Z AUTO 02013G18KT 10SM OVC015 02/M01 A3013 RMK AO2 T00221006
ADG,2017-04-01 12:10,-84.0773,41.8677,M,M,M,M,M,M,30.13,M,10.00,M,OVC,M,M,M,1500.00,M,M,M,M,KADG 011210Z AUTO /////KT 10SM OVC015 A3013 RMK MADISHF
ADG,2017-04-01 12:15,-84.0773,41.8677,M,M,M,360.00,10.00,M,30.14,M,10.00,M,OVC,M,M,M,1500.00,M,M,M,M,KADG 011215Z AUTO 36010KT 10SM OVC015 A3014 RMK MADISHF
ADG,2017-04-01 12:20,-84.0773,41.8677,M,M,M,M,M,M,30.14,M,10.00,M,OVC,M,M,M,1600.00,M,M,M,M,KADG 011220Z AUTO /////KT 10SM OVC016 A3014 RMK MADISHF
ADG,2017-04-01 12:25,-84.0773,41.8677,M,M,M,10.00,9.00,M,30.14,M,10.00,M,OVC,M,M,M,1600.00,M,M,M,M,KADG 011225Z AUTO 01009KT 10SM OVC016 A3014 RMK MADISHF
ADG,2017-04-01 12:30,-84.0773,41.8677,M,M,M,10.00,9.00,M,30.14,M,10.00,M,OVC,M,M,M,1600.00,M,M,M,M,KADG 011230Z AUTO 01009KT 10SM OVC016 A3014 RMK MADISHF
ADG,2017-04-01 12:35,-84.0773,41.8677,M,M,M,20.00,10.00,M,30.14,M,10.00,M,OVC,M,M,M,1600.00,M,M,M,M,KADG 011235Z AUTO 02010KT 10SM OVC016 A3014 RMK MADISHF
ADG,2017-04-01 12:40,-84.0773,41.8677,M,M,M,20.00,10.00,M,30.13,M,10.00,M,OVC,M,M,M,1699.00,M,M,M,M,KADG 011240Z AUTO 02010KT 10SM OVC016 A3013 RMK MADISHF
ADG,2017-04-01 12:45,-84.0773,41.8677,M,M,M,40.00,10.00,M,30.13,M,10.00,M,OVC,M,M,M,1699.00,M,M,M,M,KADG 011245Z AUTO 04010KT 10SM OVC016 A3013 RMK MADISHF
ADG,2017-04-01 12:50,-84.0773,41.8677,M,M,M,30.00,9.00,M,30.13,M,10.00,M,OVC,M,M,M,1699.00,M,M,M,M,KADG 011250Z AUTO 03009KT 10SM OVC016 A3013 RMK MADISHF
ADG,2017-04-01 12:53,-84.0773,41.8677,37.00,30.90,78.37,30.00,10.00,0.00,30.13,1021.20,10.00,M,OVC,M,M,M,1700.00,M,M,M,M,KADG 011253Z AUTO 03010KT 10SM OVC017 03/M01 A3013 RMK AO2 SLP212 T00281006
ADG,2017-04-01 12:55,-84.0773,41.8677,M,M,M,30.00,12.00,M,30.13,M,10.00,M,OVC,M,M,M,1699.00,M,M,M,M,KADG 011255Z AUTO 03012KT 10SM OVC016 A3013 RMK MADISHF
ADG,2017-04-01 13:00,-84.0773,41.8677,M,M,M,30.00,9.00,M,30.13,M,10.00,M,OVC,M,M,M,1699.00,M,M,M,M,KADG 011300Z AUTO 03009KT 10SM OVC016 A3013 RMK MADISHF
ADG,2017-04-01 13:05,-84.0773,41.8677,M,M,M,30.00,11.00,M,30.13,M,10.00,M,OVC,M,M,M,1699.00,M,M,M,M,KADG 011305Z AUTO 03011KT 10SM OVC016 A3013 RMK MADISHF
ADG,2017-04-01 13:10,-84.0773,41.8677,M,M,M,30.00,9.00,M,30.13,M,10.00,M,BKN,M,M,M,1699.00,M,M,M,M,KADG 011310Z AUTO 03009KT 10SM BKN016 A3013 RMK MADISHF
ADG,2017-04-01 13:15,-84.0773,41.8677,M,M,M,40.00,9.00,M,30.13,M,10.00,M,BKN,M,M,M,1699.00,M,M,M,M,KADG 011315Z AUTO 04009KT 10SM BKN016 A3013 RMK MADISHF
ADG,2017-04-01 13:20,-84.0773,41.8677,M,M,M,30.00,9.00,M,30.13,M,10.00,M,BKN,M,M,M,1699.00,M,M,M,M,KADG 011320Z AUTO 03009KT 10SM BKN016 A3013 RMK MADISHF
ADG,2017-04-01 13:25,-84.0773,41.8677,M,M,M,40.00,9.00,M,30.12,M,10.00,M,BKN,M,M,M,1699.00,M,M,M,M,KADG 011325Z AUTO 04009KT 10SM BKN016 A3012 RMK MADISHF
ADG,2017-04-01 13:30,-84.0773,41.8677,M,M,M,40.00,10.00,M,30.13,M,10.00,M,BKN,M,M,M,1699.00,M,M,M,M,KADG 011330Z AUTO 04010KT 10SM BKN016 A3013 RMK MADISHF
ADG,2017-04-01 13:35,-84.0773,41.8677,M,M,M,30.00,10.00,M,30.13,M,10.00,M,BKN,M,M,M,1699.00,M,M,M,M,KADG 011335Z AUTO 03010KT 10SM BKN016 A3013 RMK MADISHF
ADG,2017-04-01 13:40,-84.0773,41.8677,M,M,M,30.00,12.00,M,30.14,M,10.00,M,SCT,M,M,M,1699.00,M,M,M,M,KADG 011340Z AUTO 03012KT 10SM SCT016 A3014 RMK MADISHF
ADG,2017-04-01 13:45,-84.0773,41.8677,37.90,30.90,75.64,30.00,8.00,0.00,30.14,M,10.00,M,SCT,M,M,M,1800.00,M,M,M,M,KADG 011345Z AUTO 03008KT 10SM SCT018 03/M01 A3014 RMK AO2 T00331006
ADG,2017-04-01 13:50,-84.0773,41.8677,M,M,M,20.00,10.00,M,30.15,M,10.00,M,FEW,M,M,M,1800.00,M,M,M,M,KADG 011350Z AUTO 02010KT 10SM FEW018 A3015 RMK MADISHF
ADG,2017-04-01 13:53,-84.0773,41.8677,37.90,30.90,75.64,30.00,8.00,0.00,30.15,1022.00,10.00,M,FEW,M,M,M,2000.00,M,M,M,M,KADG 011353Z AUTO 03008KT 10SM FEW020 03/M01 A3015 RMK AO2 PRESRR SLP220 T00331006
ADG,2017-04-01 13:55,-84.0773,41.8677,M,M,M,30.00,8.00,M,30.15,M,10.00,M,FEW,M,M,M,1999.00,M,M,M,M,KADG 011355Z AUTO 03008KT 10SM FEW019 A3015 RMK MADISHF
ADG,2017-04-01 14:00,-84.0773,41.8677,M,M,M,30.00,6.00,M,30.16,M,10.00,M,FEW,M,M,M,1800.00,M,M,M,M,KADG 011400Z AUTO 03006KT 10SM FEW018 A3016 RMK MADISHF
ADG,2017-04-01 14:05,-84.0773,41.8677,M,M,M,10.00,8.00,M,30.16,M,10.00,M,SCT,M,M,M,1800.00,M,M,M,M,KADG 011405Z AUTO 01008KT 10SM SCT018 A3016 RMK MADISHF
ADG,2017-04-01 14:10,-84.0773,41.8677,M,M,M,360.00,7.00,M,30.16,M,10.00,M,SCT,M,M,M,1800.00,M,M,M,M,KADG 011410Z AUTO 36007KT 10SM SCT018 A3016 RMK MADISHF
ADG,2017-04-01 14:15,-84.0773,41.8677,M,M,M,10.00,7.00,M,30.16,M,10.00,M,SCT,M,M,M,1800.00,M,M,M,M,KADG 011415Z AUTO 01007KT 10SM SCT018 A3016 RMK MADISHF
ADG,2017-04-01 14:20,-84.0773,41.8677,M,M,M,20.00,7.00,M,30.16,M,10.00,M,FEW,M,M,M,1800.00,M,M,M,M,KADG 011420Z AUTO 02007KT 10SM FEW018 A3016 RMK MADISHF
ADG,2017-04-01 14:25,-84.0773,41.8677,M,M,M,20.00,8.00,M,30.15,M,10.00,M,FEW,M,M,M,1900.00,M,M,M,M,KADG 011425Z AUTO 02008KT 10SM FEW019 A3015 RMK MADISHF
ADG,2017-04-01 14:30,-84.0773,41.8677,M,M,M,360.00,8.00,M,30.16,M,10.00,M,SCT,M,M,M,1900.00,M,M,M,M,KADG 011430Z AUTO 36008KT 10SM SCT019 A3016 RMK MADISHF
ADG,2017-04-01 14:35,-84.0773,41.8677,M,M,M,10.00,8.00,M,30.16,M,10.00,M,SCT,M,M,M,1900.00,M,M,M,M,KADG 011435Z AUTO 01008KT 10SM SCT019 A3016 RMK MADISHF
ADG,2017-04-01 14:40,-84.0773,41.8677,M,M,M,20.00,8.00,M,30.15,M,10.00,M,SCT,M,M,M,1999.00,M,M,M,M,KADG 011440Z AUTO 02008KT 10SM SCT019 A3015 RMK MADISHF
ADG,2017-04-01 14:45,-84.0773,41.8677,M,M,M,10.00,7.00,M,30.16,M,10.00,M,FEW,M,M,M,1999.00,M,M,M,M,KADG 011445Z AUTO 01007KT 10SM FEW019 A3016 RMK MADISHF
ADG,2017-04-01 14:50,-84.0773,41.8677,M,M,M,30.00,8.00,M,30.17,M,10.00,M,FEW,M,M,M,1999.00,M,M,M,M,KADG 011450Z AUTO 03008KT 10SM FEW019 A3017 RMK MADISHF
ADG,2017-04-01 14:53,-84.0773,41.8677,42.10,33.10,70.20,20.00,8.00,0.00,30.17,1022.50,10.00,M,FEW,M,M,M,2000.00,M,M,M,M,KADG 011453Z AUTO 02008KT 10SM FEW020 06/01 A3017 RMK AO2 SLP225 T00560006 53016
ADG,2017-04-01 14:55,-84.0773,41.8677,M,M,M,30.00,5.00,M,30.17,M,10.00,M,FEW,M,M,M,1999.00,M,M,M,M,KADG 011455Z AUTO 03005KT 10SM FEW019 A3017 RMK MADISHF
ADG,2017-04-01 15:00,-84.0773,41.8677,M,M,M,360.00,5.00,M,30.17,M,10.00,M,FEW,M,M,M,2300.00,M,M,M,M,KADG 011500Z AUTO 36005KT 10SM FEW023 A3017 RMK VRB05KT  MADISHF
ADG,2017-04-01 15:05,-84.0773,41.8677,M,M,M,350.00,5.00,M,30.17,M,10.00,M,FEW,M,M,M,2300.00,M,M,M,M,KADG 011505Z AUTO 35005KT 10SM FEW023 A3017 RMK MADISHF
ADG,2017-04-01 15:10,-84.0773,41.8677,M,M,M,50.00,7.00,M,30.17,M,10.00,M,FEW,M,M,M,2200.00,M,M,M,M,KADG 011510Z AUTO 05007KT 10SM FEW022 A3017 RMK MADISHF
ADG,2017-04-01 15:15,-84.0773,41.8677,M,M,M,360.00,8.00,M,30.17,M,10.00,M,SCT,M,M,M,2200.00,M,M,M,M,KADG 011515Z AUTO 36008KT 10SM SCT022 A3017 RMK WND 33V04  MADISHF
ADG,2017-04-01 15:20,-84.0773,41.8677,M,M,M,340.00,7.00,M,30.17,M,10.00,M,BKN,M,M,M,2200.00,M,M,M,M,KADG 011520Z AUTO 34007KT 10SM BKN022 A3017 RMK MADISHF
ADG,2017-04-01 15:25,-84.0773,41.8677,M,M,M,340.00,6.00,M,30.17,M,10.00,M,BKN,M,M,M,2200.00,M,M,M,M,KADG 011525Z AUTO 34006KT 10SM BKN022 A3017 RMK MADISHF
ADG,2017-04-01 15:26,-84.0773,41.8677,43.00,33.10,67.82,M,5.00,0.00,30.17,M,10.00,M,BKN,M,M,M,2200.00,M,M,M,M,KADG 011526Z AUTO VRB05KT 10SM BKN022 06/01 A3017 RMK AO2 T00610006
ADG,2017-04-01 15:30,-84.0773,41.8677,M,M,M,360.00,4.00,M,30.17,M,10.00,M,SCT,M,M,M,2200.00,M,M,M,M,KADG 011530Z AUTO 36004KT 10SM SCT022 A3017 RMK MADISHF
ADG,2017-04-01 15:34,-84.0773,41.8677,43.00,33.10,67.82,0.00,0.00,0.00,30.17,M,10.00,M,SCT,M,M,M,2200.00,M,M,M,M,KADG 011534Z AUTO 00000KT 10SM SCT022 06/01 A3017 RMK AO2 T00610006
ADG,2017-04-01 15:35,-84.0773,41.8677,M,M,M,0.00,0.00,M,30.17,M,10.00,M,SCT,M,M,M,2200.00,M,M,M,M,KADG 011535Z AUTO 00000KT 10SM SCT022 A3017 RMK MADISHF
ADG,2017-04-01 15:40,-84.0773,41.8677,M,M,M,340.00,6.00,M,30.17,M,10.00,M,SCT,M,M,M,2200.00,M,M,M,M,KADG 011540Z AUTO 34006KT 10SM SCT022 A3017 RMK MADISHF
ADG,2017-04-01 15:45,-84.0773,41.8677,M,M,M,20.00,7.00,M,30.17,M,10.00,M,SCT,M,M,M,2400.00,M,M,M,M,KADG 011545Z AUTO 02007KT 10SM SCT024 A3017 RMK WND 35V05  MADISHF
ADG,2017-04-01 15:50,-84.0773,41.8677,M,M,M,300.00,6.00,M,30.17,M,10.00,M,SCT,M,M,M,2400.00,M,M,M,M,KADG 011550Z AUTO 30006KT 10SM SCT024 A3017 RMK MADISHF
ADG,2017-04-01 15:53,-84.0773,41.8677,44.10,34.00,67.41,M,4.00,0.00,30.17,1022.60,10.00,M,BKN,M,M,M,2400.00,M,M,M,M,KADG 011553Z AUTO VRB04KT 10SM BKN024 07/01 A3017 RMK AO2 SLP226 T00670011
ADG,2017-04-01 15:55,-84.0773,41.8677,M,M,M,330.00,6.00,M,30.17,M,10.00,M,BKN,M,M,M,2400.00,M,M,M,M,KADG 011555Z AUTO 33006KT 10SM BKN024 A3017 RMK MADISHF
ADG,2017-04-01 16:00,-84.0773,41.8677,M,M,M,320.00,8.00,M,30.17,M,10.00,M,BKN,M,M,M,2400.00,M,M,M,M,KADG 011600Z AUTO 32008KT 10SM BKN024 A3017 RMK MADISHF
ADG,2017-04-01 16:05,-84.0773,41.8677,M,M,M,320.00,5.00,M,30.17,M,10.00,M,SCT,M,M,M,2400.00,M,M,M,M,KADG 011605Z AUTO 32005KT 10SM SCT024 A3017 RMK MADISHF
ADG,2017-04-01 16:07,-84.0773,41.8677,45.00,34.00,65.13,310.00,4.00,0.00,30.17,M,10.00,M,SCT,M,M,M,2400.00,M,M,M,M,KADG 011607Z AUTO 31004KT 10SM SCT024 07/01 A3017 RMK AO2 T00720011
ADG,2017-04-01 16:10,-84.0773,41.8677,M,M,M,290.00,3.00,M,30.17,M,10.00,M,SCT,M,M,M,2500.00,M,M,M,M,KADG 011610Z AUTO 29003KT 10SM SCT025 A3017 RMK VRB03KT  MADISHF
ADG,2017-04-01 16:15,-84.0773,41.8677,M,M,M,0.00,0.00,M,30.17,M,10.00,M,FEW,M,M,M,2500.00,M,M,M,M,KADG 011615Z AUTO 00000KT 10SM FEW025 A3017 RMK MADISHF
ADG,2017-04-01 16:20,-84.0773,41.8677,M,M,M,350.00,5.00,M,30.17,M,10.00,M,FEW,M,M,M,2500.00,M,M,M,M,KADG 011620Z AUTO 35005KT 10SM FEW025 A3017 RMK MADISHF
ADG,2017-04-01 16:25,-84.0773,41.8677,M,M,M,340.00,4.00,M,30.17,M,10.00,M,CLR,M,M,M,M,M,M,M,M,KADG 011625Z AUTO 34004KT 10SM CLR A3017 RMK MADISHF
ADG,2017-04-01 16:30,-84.0773,41.8677,M,M,M,350.00,8.00,M,30.17,M,10.00,M,CLR,M,M,M,M,M,M,M,M,KADG 011630Z AUTO 35008KT 10SM CLR A3017 RMK MADISHF
ADG,2017-04-01 16:35,-84.0773,41.8677,M,M,M,360.00,3.00,M,30.17,M,10.00,M,CLR,M,M,M,M,M,M,M,M,KADG 011635Z AUTO 36003KT 10SM CLR A3017 RMK VRB03KT  MADISHF
ADG,2017-04-01 16:40,-84.0773,41.8677,M,M,M,340.00,6.00,M,30.17,M,10.00,M,CLR,M,M,M,M,M,M,M,M,KADG 011640Z AUTO 34006KT 10SM CLR A3017 RMK MADISHF
ADG,2017-04-01 16:45,-84.0773,41.8677,M,M,M,330.00,6.00,M,30.16,M,10.00,M,CLR,M,M,M,M,M,M,M,M,KADG 011645Z AUTO 33006KT 10SM CLR A3016 RMK MADISHF
ADG,2017-04-01 16:50,-84.0773,41.8677,M,M,M,20.00,5.00,M,30.16,M,10.00,M,CLR,M,M,M,M,M,M,M,M,KADG 011650Z AUTO 02005KT 10SM CLR A3016 RMK MADISHF
ADG,2017-04-01 16:53,-84.0773,41.8677,46.90,35.10,63.33,M,4.00,0.00,30.16,1022.10,10.00,M,CLR,M,M,M,M,M,M,M,M,KADG 011653Z AUTO VRB04KT 10SM CLR 08/02 A3016 RMK AO2 SLP221 T00830017
ADG,2017-04-01 16:55,-84.0773,41.8677,M,M,M,30.00,6.00,M,30.16,M,10.00,M,CLR,M,M,M,M,M,M,M,M,KADG 011655Z AUTO 03006KT 10SM CLR A3016 RMK VRB06KT  MADISHF
ADG,2017-04-01 17:00,-84.0773,41.8677,M,M,M,340.00,6.00,M,30.16,M,10.00,M,CLR,M,M,M,M,M,M,M,M,KADG 011700Z AUTO 34006KT 10SM CLR A3016 RMK MADISHF
ADG,2017-04-01 17:05,-84.0773,41.8677,M,M,M,340.00,3.00,M,30.17,M,10.00,M,CLR,M,M,M,M,M,M,M,M,KADG 011705Z AUTO 34003KT 10SM CLR A3017 RMK VRB03KT  MADISHF
ADG,2017-04-01 17:10,-84.0773,41.8677,M,M,M,30.00,3.00,M,30.17,M,10.00,M,CLR,M,M,M,M,M,M,M,M,KADG 011710Z AUTO 03003KT 10SM CLR A3017 RMK MADISHF
ADG,2017-04-01 17:15,-84.0773,41.8677,M,M,M,340.00,6.00,M,30.16,M,10.00,M,CLR,M,M,M,M,M,M,M,M,KADG 011715Z AUTO 34006KT 10SM CLR A3016 RMK MADISHF
ADG,2017-04-01 17:20,-84.0773,41.8677,M,M,M,350.00,7.00,M,30.16,M,10.00,M,CLR,M,M,M,M,M,M,M,M,KADG 011720Z AUTO 35007KT 10SM CLR A3016 RMK MADISHF
ADG,2017-04-01 17:25,-84.0773,41.8677,M,M,M,330.00,9.00,M,30.16,M,10.00,M,CLR,M,M,M,M,M,M,M,M,KADG 011725Z AUTO 33009KT 10SM CLR A3016 RMK MADISHF
ADG,2017-04-01 17:30,-84.0773,41.8677,M,M,M,0.00,0.00,M,30.16,M,10.00,M,CLR,M,M,M,M,M,M,M,M,KADG 011730Z AUTO 00000KT 10SM CLR A3016 RMK MADISHF
ADG,2017-04-01 17:35,-84.0773,41.8677,M,M,M,360.00,7.00,M,30.16,M,10.00,M,CLR,M,M,M,M,M,M,M,M,KADG 011735Z AUTO 36007KT 10SM CLR A3016 RMK MADISHF
ADG,2017-04-01 17:40,-84.0773,41.8677,M,M,M,360.00,6.00,M,30.16,M,10.00,M,CLR,M,M,M,M,M,M,M,M,KADG 011740Z AUTO 36006KT 10SM CLR A3016 RMK MADISHF
ADG,2017-04-01 17:45,-84.0773,41.8677,M,M,M,10.00,6.00,M,30.16,M,10.00,M,CLR,M,M,M,M,M,M,M,M,KADG 011745Z AUTO 01006KT 10SM CLR A3016 RMK MADISHF
ADG,2017-04-01 17:50,-84.0773,41.8677,M,M,M,30.00,4.00,M,30.16,M,10.00,M,CLR,M,M,M,M,M,M,M,M,KADG 011750Z AUTO 03004KT 10SM CLR A3016 RMK VRB04KT  MADISHF
ADG,2017-04-01 17:53,-84.0773,41.8677,50.00,34.00,53.97,340.00,5.00,0.00,30.16,1022.00,10.00,M,CLR,M,M,M,M,M,M,M,M,KADG 011753Z AUTO 34005KT 10SM CLR 10/01 A3016 RMK AO2 SLP220 T01000011 10100 20022 58004
ADG,2017-04-01 17:55,-84.0773,41.8677,M,M,M,360.00,7.00,M,30.16,M,10.00,M,CLR,M,M,M,M,M,M,M,M,KADG 011755Z AUTO 36007KT 10SM CLR A3016 RMK WND 32V02  MADISHF
ADG,2017-04-01 18:00,-84.0773,41.8677,M,M,M,10.00,6.00,M,30.16,M,10.00,M,CLR,M,M,M,M,M,M,M,M,KADG 011800Z AUTO 01006KT 10SM CLR A3016 RMK MADISHF
ADG,2017-04-01 18:05,-84.0773,41.8677,M,M,M,20.00,8.00,M,30.16,M,10.00,M,CLR,M,M,M,M,M,M,M,M,KADG 011805Z AUTO 02008KT 10SM CLR A3016 RMK MADISHF
ADG,2017-04-01 18:10,-84.0773,41.8677,M,M,M,340.00,6.00,M,30.16,M,10.00,M,CLR,M,M,M,M,M,M,M,M,KADG 011810Z AUTO 34006KT 10SM CLR A3016 RMK VRB06KT  MADISHF
ADG,2017-04-01 18:15,-84.0773,41.8677,M,M,M,360.00,7.00,M,30.16,M,10.00,M,CLR,M,M,M,M,M,M,M,M,KADG 011815Z AUTO 36007KT 10SM CLR A3016 RMK MADISHF
ADG,2017-04-01 18:20,-84.0773,41.8677,M,M,M,330.00,9.00,M,30.16,M,10.00,M,CLR,M,M,M,M,M,M,M,M,KADG 011820Z AUTO 33009KT 10SM CLR A3016 RMK MADISHF
ADG,2017-04-01 18:25,-84.0773,41.8677,M,M,M,330.00,10.00,M,30.16,M,10.00,M,CLR,M,M,M,M,M,M,M,M,KADG 011825Z AUTO 33010KT 10SM CLR A3016 RMK MADISHF
ADG,2017-04-01 18:30,-84.0773,41.8677,M,M,M,10.00,9.00,M,30.16,M,10.00,M,CLR,M,M,M,M,M,M,M,M,KADG 011830Z AUTO 01009KT 10SM CLR A3016 RMK MADISHF
ADG,2017-04-01 18:35,-84.0773,41.8677,M,M,M,20.00,8.00,M,30.16,M,10.00,M,CLR,M,M,M,M,M,M,M,M,KADG 011835Z AUTO 02008KT 10SM CLR A3016 RMK MADISHF
ADG,2017-04-01 18:40,-84.0773,41.8677,M,M,M,350.00,8.00,M,30.15,M,10.00,M,CLR,M,M,M,M,M,M,M,M,KADG 011840Z AUTO 35008KT 10SM CLR A3015 RMK MADISHF
ADG,2017-04-01 18:45,-84.0773,41.8677,M,M,M,10.00,4.00,M,30.16,M,10.00,M,CLR,M,M,M,M,M,M,M,M,KADG 011845Z AUTO 01004KT 10SM CLR A3016 RMK MADISHF
ADG,2017-04-01 18:50,-84.0773,41.8677,M,M,M,340.00,9.00,M,30.15,M,10.00,M,CLR,M,M,M,M,M,M,M,M,KADG 011850Z AUTO 34009KT 10SM CLR A3015 RMK WND 31V02  MADISHF
ADG,2017-04-01 18:53,-84.0773,41.8677,53.10,34.00,48.13,360.00,6.00,0.00,30.15,1021.70,10.00,M,CLR,M,M,M,M,M,M,M,M,KADG 011853Z AUTO 36006KT 10SM CLR 12/01 A3015 RMK AO2 SLP217 T01170011
ADG,2017-04-01 18:55,-84.0773,41.8677,M,M,M,350.00,5.00,M,30.15,M,10.00,M,CLR,M,M,M,M,M,M,M,M,KADG 011855Z AUTO 35005KT 10SM CLR A3015 RMK MADISHF
ADG,2017-04-01 19:00,-84.0773,41.8677,M,M,M,M,M,M,30.15,M,10.00,M,CLR,M,M,M,M,M,M,M,M,KADG 011900Z AUTO /////KT 10SM CLR A3015 RMK MADISHF
ADG,2017-04-01 19:05,-84.0773,41.8677,M,M,M,20.00,8.00,M,30.15,M,10.00,M,CLR,M,M,M,M,M,M,M,M,KADG 011905Z AUTO 02008KT 10SM CLR A3015 RMK MADISHF
ADG,2017-04-01 19:10,-84.0773,41.8677,M,M,M,360.00,6.00,M,30.15,M,10.00,M,CLR,M,M,M,M,M,M,M,M,KADG 011910Z AUTO 36006KT 10SM CLR A3015 RMK MADISHF
ADG,2017-04-01 19:15,-84.0773,41.8677,M,M,M,20.00,7.00,M,30.15,M,10.00,M,CLR,M,M,M,M,M,M,M,M,KADG 011915Z AUTO 02007KT 10SM CLR A3015 RMK MADISHF
ADG,2017-04-01 19:20,-84.0773,41.8677,M,M,M,360.00,6.00,M,30.15,M,10.00,M,CLR,M,M,M,M,M,M,M,M,KADG 011920Z AUTO 36006KT 10SM CLR A3015 RMK MADISHF
ADG,2017-04-01 19:25,-84.0773,41.8677,M,M,M,M,M,M,30.16,M,10.00,M,CLR,M,M,M,M,M,M,M,M,KADG 011925Z AUTO /////KT 10SM CLR A3016 RMK MADISHF
ADG,2017-04-01 19:30,-84.0773,41.8677,M,M,M,340.00,9.00,M,30.16,M,10.00,M,CLR,M,M,M,M,M,M,M,M,KADG 011930Z AUTO 34009KT 10SM CLR A3016 RMK MADISHF
ADG,2017-04-01 19:35,-84.0773,41.8677,M,M,M,340.00,6.00,M,30.15,M,10.00,M,CLR,M,M,M,M,M,M,M,M,KADG 011935Z AUTO 34006KT 10SM CLR A3015 RMK VRB06KT  MADISHF
ADG,2017-04-01 19:40,-84.0773,41.8677,M,M,M,10.00,12.00,M,30.15,M,10.00,M,CLR,M,M,M,M,M,M,M,M,KADG 011940Z AUTO 01012KT 10SM CLR A3015 RMK MADISHF
ADG,2017-04-01 19:45,-84.0773,41.8677,M,M,M,360.00,9.00,M,30.16,M,10.00,M,CLR,M,M,M,M,M,M,M,M,KADG 011945Z AUTO 36009KT 10SM CLR A3016 RMK MADISHF
ADG,2017-04-01 19:50,-84.0773,41.8677,M,M,M,340.00,10.00,M,30.16,M,10.00,M,CLR,M,M,M,M,M,M,M,M,KADG 011950Z AUTO 34010KT 10SM CLR A3016 RMK MADISHF
ADG,2017-04-01 19:53,-84.0773,41.8677,55.00,30.00,38.21,340.00,7.00,0.00,30.16,1021.90,10.00,17.00,CLR,M,M,M,M,M,M,M,M,KADG 011953Z AUTO 34007G17KT 310V020 10SM CLR 13/M01 A3016 RMK AO2 SLP219 T01281011
ADG,2017-04-01 19:55,-84.0773,41.8677,M,M,M,340.00,8.00,M,30.16,M,10.00,M,CLR,M,M,M,M,M,M,M,M,KADG 011955Z AUTO 34008KT 10SM CLR A3016 RMK WND 31V02  MADISHF
ADG,2017-04-01 20:00,-84.0773,41.8677,M,M,M,360.00,11.00,M,30.16,M,10.00,M,CLR,M,M,M,M,M,M,M,M,KADG 012000Z AUTO 36011KT 10SM CLR A3016 RMK MADISHF
ADG,2017-04-01 20:05,-84.0773,41.8677,M,M,M,340.00,10.00,M,30.16,M,10.00,M,CLR,M,M,M,M,M,M,M,M,KADG 012005Z AUTO 34010KT 10SM CLR A3016 RMK MADISHF
ADG,2017-04-01 20:10,-84.0773,41.8677,M,M,M,360.00,10.00,M,30.16,M,10.00,M,CLR,M,M,M,M,M,M,M,M,KADG 012010Z AUTO 36010KT 10SM CLR A3016 RMK MADISHF
ADG,2017-04-01 20:15,-84.0773,41.8677,M,M,M,20.00,10.00,M,30.16,M,10.00,M,CLR,M,M,M,M,M,M,M,M,KADG 012015Z AUTO 02010KT 10SM CLR A3016 RMK MADISHF
ADG,2017-04-01 20:20,-84.0773,41.8677,M,M,M,10.00,10.00,M,30.15,M,10.00,M,CLR,M,M,M,M,M,M,M,M,KADG 012020Z AUTO 01010KT 10SM CLR A3015 RMK MADISHF
ADG,2017-04-01 20:25,-84.0773,41.8677,M,M,M,350.00,11.00,M,30.15,M,10.00,M,CLR,M,M,M,M,M,M,M,M,KADG 012025Z AUTO 35011KT 10SM CLR A3015 RMK MADISHF
ADG,2017-04-01 20:30,-84.0773,41.8677,M,M,M,10.00,11.00,M,30.15,M,10.00,M,CLR,M,M,M,M,M,M,M,M,KADG 012030Z AUTO 01011KT 10SM CLR A3015 RMK MADISHF
ADG,2017-04-01 20:35,-84.0773,41.8677,M,M,M,360.00,11.00,M,30.15,M,10.00,M,CLR,M,M,M,M,M,M,M,M,KADG 012035Z AUTO 36011KT 10SM CLR A3015 RMK MADISHF
ADG,2017-04-01 20:40,-84.0773,41.8677,M,M,M,360.00,11.00,M,30.15,M,10.00,M,CLR,M,M,M,M,M,M,M,M,KADG 012040Z AUTO 36011KT 10SM CLR A3015 RMK MADISHF
ADG,2017-04-01 20:45,-84.0773,41.8677,M,M,M,20.00,9.00,M,30.15,M,10.00,M,CLR,M,M,M,M,M,M,M,M,KADG 012045Z AUTO 02009KT 10SM CLR A3015 RMK MADISHF
ADG,2017-04-01 20:50,-84.0773,41.8677,M,M,M,10.00,12.00,M,30.15,M,10.00,M,CLR,M,M,M,M,M,M,M,M,KADG 012050Z AUTO 01012KT 10SM CLR A3015 RMK MADISHF
ADG,2017-04-01 20:53,-84.0773,41.8677,55.00,30.90,39.63,20.00,10.00,0.00,30.15,1021.70,10.00,M,CLR,M,M,M,M,M,M,M,M,KADG 012053Z AUTO 02010KT 10SM CLR 13/M01 A3015 RMK AO2 SLP217 T01281006 58002
ADG,2017-04-01 20:55,-84.0773,41.8677,M,M,M,20.00,9.00,M,30.15,M,10.00,M,CLR,M,M,M,M,M,M,M,M,KADG 012055Z AUTO 02009KT 10SM CLR A3015 RMK MADISHF
ADG,2017-04-01 21:00,-84.0773,41.8677,M,M,M,20.00,6.00,M,30.15,M,10.00,M,CLR,M,M,M,M,M,M,M,M,KADG 012100Z AUTO 02006KT 10SM CLR A3015 RMK MADISHF
ADG,2017-04-01 21:05,-84.0773,41.8677,M,M,M,320.00,9.00,M,30.15,M,10.00,M,CLR,M,M,M,M,M,M,M,M,KADG 012105Z AUTO 32009KT 10SM CLR A3015 RMK MADISHF
ADG,2017-04-01 21:10,-84.0773,41.8677,M,M,M,30.00,10.00,M,30.15,M,10.00,M,CLR,M,M,M,M,M,M,M,M,KADG 012110Z AUTO 03010KT 10SM CLR A3015 RMK MADISHF
ADG,2017-04-01 21:15,-84.0773,41.8677,M,M,M,30.00,7.00,M,30.15,M,10.00,M,CLR,M,M,M,M,M,M,M,M,KADG 012115Z AUTO 03007KT 10SM CLR A3015 RMK MADISHF
ADG,2017-04-01 21:20,-84.0773,41.8677,M,M,M,30.00,9.00,M,30.14,M,10.00,M,CLR,M,M,M,M,M,M,M,M,KADG 012120Z AUTO 03009KT 10SM CLR A3014 RMK MADISHF
ADG,2017-04-01 21:25,-84.0773,41.8677,M,M,M,20.00,5.00,M,30.14,M,10.00,M,CLR,M,M,M,M,M,M,M,M,KADG 012125Z AUTO 02005KT 10SM CLR A3014 RMK MADISHF
ADG,2017-04-01 21:30,-84.0773,41.8677,M,M,M,10.00,6.00,M,30.14,M,10.00,M,CLR,M,M,M,M,M,M,M,M,KADG 012130Z AUTO 01006KT 10SM CLR A3014 RMK MADISHF
ADG,2017-04-01 21:35,-84.0773,41.8677,M,M,M,20.00,7.00,M,30.14,M,10.00,M,CLR,M,M,M,M,M,M,M,M,KADG 012135Z AUTO 02007KT 10SM CLR A3014 RMK MADISHF
ADG,2017-04-01 21:40,-84.0773,41.8677,M,M,M,340.00,4.00,M,30.15,M,10.00,M,CLR,M,M,M,M,M,M,M,M,KADG 012140Z AUTO 34004KT 10SM CLR A3015 RMK VRB04KT  MADISHF
ADG,2017-04-01 21:45,-84.0773,41.8677,M,M,M,30.00,6.00,M,30.15,M,10.00,M,CLR,M,M,M,M,M,M,M,M,KADG 012145Z AUTO 03006KT 10SM CLR A3015 RMK MADISHF
ADG,2017-04-01 21:50,-84.0773,41.8677,M,M,M,20.00,3.00,M,30.15,M,10.00,M,CLR,M,M,M,M,M,M,M,M,KADG 012150Z AUTO 02003KT 10SM CLR A3015 RMK VRB03KT  MADISHF
ADG,2017-04-01 21:53,-84.0773,41.8677,55.90,30.90,38.36,30.00,7.00,0.00,30.15,1021.40,10.00,M,CLR,M,M,M,M,M,M,M,M,KADG 012153Z AUTO 03007KT 10SM CLR 13/M01 A3015 RMK AO2 SLP214 T01331006
ADG,2017-04-01 21:55,-84.0773,41.8677,M,M,M,20.00,6.00,M,30.15,M,10.00,M,CLR,M,M,M,M,M,M,M,M,KADG 012155Z AUTO 02006KT 10SM CLR A3015 RMK MADISHF
ADG,2017-04-01 22:00,-84.0773,41.8677,M,M,M,360.00,6.00,M,30.14,M,10.00,M,CLR,M,M,M,M,M,M,M,M,KADG 012200Z AUTO 36006KT 10SM CLR A3014 RMK MADISHF
ADG,2017-04-01 22:05,-84.0773,41.8677,M,M,M,360.00,3.00,M,30.14,M,10.00,M,CLR,M,M,M,M,M,M,M,M,KADG 012205Z AUTO 36003KT 10SM CLR A3014 RMK VRB03KT  MADISHF
ADG,2017-04-01 22:10,-84.0773,41.8677,M,M,M,20.00,4.00,M,30.14,M,10.00,M,CLR,M,M,M,M,M,M,M,M,KADG 012210Z AUTO 02004KT 10SM CLR A3014 RMK MADISHF
ADG,2017-04-01 22:15,-84.0773,41.8677,M,M,M,30.00,6.00,M,30.14,M,10.00,M,CLR,M,M,M,M,M,M,M,M,KADG 012215Z AUTO 03006KT 10SM CLR A3014 RMK MADISHF
ADG,2017-04-01 22:20,-84.0773,41.8677,M,M,M,20.00,7.00,M,30.14,M,10.00,M,CLR,M,M,M,M,M,M,M,M,KADG 012220Z AUTO 02007KT 10SM CLR A3014 RMK MADISHF
ADG,2017-04-01 22:25,-84.0773,41.8677,M,M,M,20.00,6.00,M,30.14,M,10.00,M,CLR,M,M,M,M,M,M,M,M,KADG 012225Z AUTO 02006KT 10SM CLR A3014 RMK MADISHF
ADG,2017-04-01 22:30,-84.0773,41.8677,M,M,M,10.00,5.00,M,30.15,M,10.00,M,CLR,M,M,M,M,M,M,M,M,KADG 012230Z AUTO 01005KT 10SM CLR A3015 RMK MADISHF
ADG,2017-04-01 22:35,-84.0773,41.8677,M,M,M,30.00,5.00,M,30.15,M,10.00,M,CLR,M,M,M,M,M,M,M,M,KADG 012235Z AUTO 03005KT 10SM CLR A3015 RMK MADISHF
ADG,2017-04-01 22:40,-84.0773,41.8677,M,M,M,10.00,5.00,M,30.15,M,10.00,M,CLR,M,M,M,M,M,M,M,M,KADG 012240Z AUTO 01005KT 10SM CLR A3015 RMK MADISHF
ADG,2017-04-01 22:45,-84.0773,41.8677,M,M,M,20.00,5.00,M,30.15,M,10.00,M,CLR,M,M,M,M,M,M,M,M,KADG 012245Z AUTO 02005KT 10SM CLR A3015 RMK MADISHF
ADG,2017-04-01 22:50,-84.0773,41.8677,M,M,M,350.00,7.00,M,30.16,M,10.00,M,CLR,M,M,M,M,M,M,M,M,KADG 012250Z AUTO 35007KT 10SM CLR A3016 RMK MADISHF
ADG,2017-04-01 22:53,-84.0773,41.8677,55.00,32.00,41.44,10.00,6.00,0.00,30.16,1021.80,10.00,M,CLR,M,M,M,M,M,M,M,M,KADG 012253Z AUTO 01006KT 10SM CLR 13/00 A3016 RMK AO2 SLP218 T01280000
ADG,2017-04-01 22:55,-84.0773,41.8677,M,M,M,350.00,7.00,M,30.16,M,10.00,M,CLR,M,M,M,M,M,M,M,M,KADG 012255Z AUTO 35007KT 10SM CLR A3016 RMK MADISHF
ADG,2017-04-01 23:00,-84.0773,41.8677,M,M,M,20.00,7.00,M,30.16,M,10.00,M,CLR,M,M,M,M,M,M,M,M,KADG 012300Z AUTO 02007KT 10SM CLR A3016 RMK MADISHF
ADG,2017-04-01 23:05,-84.0773,41.8677,M,M,M,20.00,5.00,M,30.16,M,10.00,M,CLR,M,M,M,M,M,M,M,M,KADG 012305Z AUTO 02005KT 10SM CLR A3016 RMK MADISHF
ADG,2017-04-01 23:10,-84.0773,41.8677,M,M,M,10.00,5.00,M,30.16,M,10.00,M,CLR,M,M,M,M,M,M,M,M,KADG 012310Z AUTO 01005KT 10SM CLR A3016 RMK MADISHF
ADG,2017-04-01 23:15,-84.0773,41.8677,M,M,M,350.00,4.00,M,30.16,M,10.00,M,CLR,M,M,M,M,M,M,M,M,KADG 012315Z AUTO 35004KT 10SM CLR A3016 RMK MADISHF
ADG,2017-04-01 23:20,-84.0773,41.8677,M,M,M,350.00,4.00,M,30.17,M,10.00,M,CLR,M,M,M,M,M,M,M,M,KADG 012320Z AUTO 35004KT 10SM CLR A3017 RMK MADISHF
ADG,2017-04-01 23:25,-84.0773,41.8677,M,M,M,360.00,4.00,M,30.17,M,10.00,M,CLR,M,M,M,M,M,M,M,M,KADG 012325Z AUTO 36004KT 10SM CLR A3017 RMK MADISHF
ADG,2017-04-01 23:30,-84.0773,41.8677,M,M,M,360.00,4.00,M,30.17,M,10.00,M,CLR,M,M,M,M,M,M,M,M,KADG 012330Z AUTO 36004KT 10SM CLR A3017 RMK MADISHF
ADG,2017-04-01 23:35,-84.0773,41.8677,M,M,M,360.00,4.00,M,30.17,M,10.00,M,CLR,M,M,M,M,M,M,M,M,KADG 012335Z AUTO 36004KT 10SM CLR A3017 RMK MADISHF
ADG,2017-04-01 23:40,-84.0773,41.8677,M,M,M,360.00,4.00,M,30.17,M,10.00,M,CLR,M,M,M,M,M,M,M,M,KADG 012340Z AUTO 36004KT 10SM CLR A3017 RMK MADISHF
ADG,2017-04-01 23:45,-84.0773,41.8677,M,M,M,360.00,3.00,M,30.17,M,10.00,M,CLR,M,M,M,M,M,M,M,M,KADG 012345Z AUTO 36003KT 10SM CLR A3017 RMK MADISHF
ADG,2017-04-01 23:50,-84.0773,41.8677,M,M,M,0.00,0.00,M,30.17,M,10.00,M,CLR,M,M,M,M,M,M,M,M,KADG 012350Z AUTO 00000KT 10SM CLR A3017 RMK MADISHF
ADG,2017-04-01 23:53,-84.0773,41.8677,52.00,32.00,46.25,0.00,0.00,0.00,30.17,1022.40,10.00,M,CLR,M,M,M,M,M,M,M,M,KADG 012353Z AUTO 00000KT 10SM CLR 11/00 A3017 RMK AO2 SLP224 T01110000 10133 20100 53006
ADG,2017-04-01 23:55,-84.0773,41.8677,M,M,M,0.00,0.00,M,30.17,M,10.00,M,CLR,M,M,M,M,M,M,M,M,KADG 012355Z AUTO 00000KT 10SM CLR A3017 RMK MADISHF
