#DEBUG: Format Typ    -> comma
#DEBUG: Time Period   -> 2017-04-01 00:00:00+00:00 2017-04-02 00:00:00+00:00
#DEBUG: Time Zone     -> Etc/UTC
#DEBUG: Data Contact   -> daryl herzmann akrherz@iastate.edu 515-294-5978
#DEBUG: Entries Found -> -1
station,valid,lon,lat,tmpf, dwpf, relh, drct, sknt, p01i, alti, mslp, vsby, gust, skyc1, skyc2, skyc3, skyc4, skyl1, skyl2, skyl3, skyl4, presentwx, metar
ADH,2017-04-01 00:15,-96.6712,34.8043,69.80,50.00,49.37,80.00,6.00,0.00,29.79,M,10.00,M,CLR,M,M,M,M,M,M,M,M,KADH 010015Z AUTO 08006KT 10SM CLR 21/10 A2979 RMK AO2
ADH,2017-04-01 00:35,-96.6712,34.8043,68.00,50.00,52.51,70.00,5.00,0.00,29.79,M,10.00,M,CLR,M,M,M,M,M,M,M,M,KADH 010035Z AUTO 07005KT 10SM CLR 20/10 A2979 RMK AO2
ADH,2017-04-01 00:55,-96.6712,34.8043,68.00,48.20,49.10,70.00,6.00,0.00,29.80,M,10.00,M,CLR,M,M,M,M,M,M,M,M,KADH 010055Z AUTO 07006KT 10SM CLR 20/09 A2980 RMK AO2
ADH,2017-04-01 01:15,-96.6712,34.8043,64.40,50.00,59.50,50.00,4.00,0.00,29.81,M,10.00,M,CLR,M,M,M,M,M,M,M,M,KADH 010115Z AUTO 05004KT 10SM CLR 18/10 A2981 RMK AO2
ADH,2017-04-01 01:35,-96.6712,34.8043,62.60,50.00,63.38,50.00,6.00,0.00,29.82,M,10.00,M,CLR,M,M,M,M,M,M,M,M,KADH 010135Z AUTO 05006KT 10SM CLR 17/10 A2982 RMK AO2
ADH,2017-04-01 01:55,-96.6712,34.8043,62.60,50.00,63.38,60.00,6.00,0.00,29.82,M,10.00,M,CLR,M,M,M,M,M,M,M,M,KADH 010155Z AUTO 06006KT 10SM CLR 17/10 A2982 RMK AO2
ADH,2017-04-01 02:15,-96.6712,34.8043,62.60,48.20,59.26,60.00,5.00,0.00,29.83,M,10.00,M,CLR,M,M,M,M,M,M,M,M,KADH 010215Z AUTO 06005KT 10SM CLR 17/09 A2983 RMK AO2
ADH,2017-04-01 02:35,-96.6712,34.8043,60.80,48.20,63.15,60.00,4.00,0.00,29.84,M,10.00,M,CLR,M,M,M,M,M,M,M,M,KADH 010235Z AUTO 06004KT 10SM CLR 16/09 A2984 RMK AO2
ADH,2017-04-01 02:55,-96.6712,34.8043,60.80,48.20,63.15,0.00,0.00,0.00,29.85,M,10.00,M,CLR,M,M,M,M,M,M,M,M,KADH 010255Z AUTO 00000KT 10SM CLR 16/09 A2985 RMK AO2
ADH,2017-04-01 03:15,-96.6712,34.8043,59.00,48.20,67.33,40.00,5.00,0.00,29.86,M,10.00,M,CLR,M,M,M,M,M,M,M,M,KADH 010315Z AUTO 04005KT 10SM CLR 15/09 A2986 RMK AO2
ADH,2017-04-01 03:35,-96.6712,34.8043,59.00,48.20,67.33,40.00,4.00,0.00,29.87,M,10.00,M,CLR,M,M,M,M,M,M,M,M,KADH 010335Z AUTO 04004KT 10SM CLR 15/09 A2987 RMK AO2
ADH,2017-04-01 03:55,-96.6712,34.8043,59.00,46.40,62.92,40.00,4.00,0.00,29.88,M,10.00,M,CLR,M,M,M,M,M,M,M,M,KADH 010355Z AUTO 04004KT 10SM CLR 15/08 A2988 RMK AO2
ADH,2017-04-01 04:15,-96.6712,34.8043,57.20,46.40,67.12,20.00,6.00,0.00,29.88,M,10.00,M,CLR,M,M,M,M,M,M,M,M,KADH 010415Z AUTO 02006KT 10SM CLR 14/08 A2988 RMK AO2
ADH,2017-04-01 04:35,-96.6712,34.8043,55.40,46.40,71.64,40.00,5.00,0.00,29.88,M,10.00,M,CLR,M,M,M,M,M,M,M,M,KADH 010435Z AUTO 04005KT 10SM CLR 13/08 A2988 RMK AO2
ADH,2017-04-01 04:55,-96.6712,34.8043,55.40,46.40,71.64,40.00,4.00,0.00,29.89,M,10.00,M,CLR,M,M,M,M,M,M,M,M,KADH 010455Z AUTO 04004KT 10SM CLR 13/08 A2989 RMK AO2
ADH,2017-04-01 05:10,-96.6712,34.8043,55.40,46.40,71.64,50.00,4.00,0.00,29.89,M,10.00,M,CLR,M,M,M,M,M,M,M,M,KADH 010510Z AUTO 05004KT 10SM CLR 13/08 A2989 RMK AO2
ADH,2017-04-01 05:35,-96.6712,34.8043,53.60,46.40,76.50,50.00,3.00,0.00,29.89,M,10.00,M,CLR,M,M,M,M,M,M,M,M,KADH 010535Z AUTO 05003KT 10SM CLR 12/08 A2989 RMK AO2
ADH,2017-04-01 05:55,-96.6712,34.8043,53.60,46.40,76.50,60.00,4.00,0.00,29.89,M,10.00,M,CLR,M,M,M,M,M,M,M,M,KADH 010555Z AUTO 06004KT 10SM CLR 12/08 A2989 RMK AO2
ADH,2017-04-01 06:15,-96.6712,34.8043,53.60,46.40,76.50,50.00,4.00,0.00,29.89,M,10.00,M,CLR,M,M,M,M,M,M,M,M,KADH 010615Z AUTO 05004KT 10SM CLR 12/08 A2989 RMK AO2
ADH,2017-04-01 06:35,-96.6712,34.8043,53.60,46.40,76.50,50.00,4.00,0.00,29.89,M,10.00,M,CLR,M,M,M,M,M,M,M,M,KADH 010635Z AUTO 05004KT 10SM CLR 12/08 A2989 RMK AO2 LTG DSNT NW
ADH,2017-04-01 06:55,-96.6712,34.8043,51.80,46.40,81.74,40.00,6.00,0.00,29.88,M,10.00,M,CLR,M,M,M,M,M,M,M,M,KADH 010655Z AUTO 04006KT 10SM CLR 11/08 A2988 RMK AO2
ADH,2017-04-01 07:15,-96.6712,34.8043,51.80,46.40,81.74,50.00,5.00,0.00,29.88,M,10.00,M,CLR,M,M,M,M,M,M,M,M,KADH 010715Z AUTO 05005KT 10SM CLR 11/08 A2988 RMK AO2
ADH,2017-04-01 07:35,-96.6712,34.8043,51.80,46.40,81.74,50.00,4.00,0.00,29.88,M,10.00,M,CLR,M,M,M,M,M,M,M,M,KADH 010735Z AUTO 05004KT 10SM CLR 11/08 A2988 RMK AO2
ADH,2017-04-01 07:55,-96.6712,34.8043,51.80,46.40,81.74,60.00,3.00,0.00,29.88,M,10.00,M,CLR,M,M,M,M,M,M,M,M,KADH 010755Z AUTO 06003KT 10SM CLR 11/08 A2988 RMK AO2
ADH,2017-04-01 08:15,-96.6712,34.8043,50.00,46.40,87.37,50.00,3.00,0.00,29.88,M,10.00,M,CLR,M,M,M,M,M,M,M,M,KADH 010815Z AUTO 05003KT 10SM CLR 10/08 A2988 RMK AO2
ADH,2017-04-01 08:35,-96.6712,34.8043,50.00,46.40,87.37,40.00,3.00,0.00,29.88,M,10.00,M,CLR,M,M,M,M,M,M,M,M,KADH 010835Z AUTO 04003KT 10SM CLR 10/08 A2988 RMK AO2 LTG DSNT N
ADH,2017-04-01 08:55,-96.6712,34.8043,50.00,46.40,87.37,40.00,4.00,0.00,29.89,M,10.00,M,CLR,M,M,M,M,M,M,M,M,KADH 010855Z AUTO 04004KT 10SM CLR 10/08 A2989 RMK AO2
ADH,2017-04-01 09:15,-96.6712,34.8043,50.00,46.40,87.37,40.00,4.00,0.00,29.89,M,10.00,M,CLR,M,M,M,M,M,M,M,M,KADH 010915Z AUTO 04004KT 10SM CLR 10/08 A2989 RMK AO2
ADH,2017-04-01 09:35,-96.6712,34.8043,50.00,46.40,87.37,40.00,4.00,0.00,29.90,M,10.00,M,CLR,M,M,M,M,M,M,M,M,KADH 010935Z AUTO 04004KT 10SM CLR 10/08 A2990 RMK AO2
ADH,2017-04-01 09:50,-96.6712,34.8043,50.00,46.40,87.37,40.00,4.00,0.00,29.91,M,10.00,M,CLR,M,M,M,M,M,M,M,M,KADH 010950Z AUTO 04004KT 10SM CLR 10/08 A2991 RMK AO2
ADH,2017-04-01 10:15,-96.6712,34.8043,46.40,46.40,100.00,30.00,3.00,0.00,29.92,M,10.00,M,CLR,M,M,M,M,M,M,M,M,KADH 011015Z AUTO 03003KT 10SM CLR 08/08 A2992 RMK AO2
ADH,2017-04-01 10:35,-96.6712,34.8043,46.40,46.40,100.00,0.00,0.00,0.00,29.93,M,10.00,M,CLR,M,M,M,M,M,M,M,M,KADH 011035Z AUTO 00000KT 10SM CLR 08/08 A2993 RMK AO2
ADH,2017-04-01 10:55,-96.6712,34.8043,46.40,46.40,100.00,0.00,0.00,0.00,29.94,M,10.00,M,CLR,M,M,M,M,M,M,M,M,KADH 011055Z AUTO 00000KT 10SM CLR 08/08 A2994 RMK AO2
ADH,2017-04-01 11:15,-96.6712,34.8043,46.40,46.40,100.00,0.00,0.00,0.00,29.96,M,10.00,M,CLR,M,M,M,M,M,M,M,M,KADH 011115Z AUTO 00000KT 10SM CLR 08/08 A2996 RMK AO2
ADH,2017-04-01 11:35,-96.6712,34.8043,44.60,44.60,100.00,0.00,0.00,0.00,29.97,M,10.00,M,CLR,M,M,M,M,M,M,M,M,KADH 011135Z AUTO 00000KT 10SM CLR 07/07 A2997 RMK AO2
ADH,2017-04-01 11:55,-96.6712,34.8043,44.60,44.60,100.00,0.00,0.00,0.00,29.97,M,10.00,M,CLR,M,M,M,M,M,M,M,M,KADH 011155Z AUTO 00000KT 10SM CLR 07/07 A2997 RMK AO2
ADH,2017-04-01 12:15,-96.6712,34.8043,44.60,44.60,100.00,0.00,0.00,0.00,29.98,M,10.00,M,CLR,M,M,M,M,M,M,M,M,KADH 011215Z AUTO 00000KT 10SM CLR 07/07 A2998 RMK AO2
ADH,2017-04-01 12:35,-96.6712,34.8043,46.40,46.40,100.00,60.00,3.00,0.00,29.97,M,10.00,M,CLR,M,M,M,M,M,M,M,M,KADH 011235Z AUTO 06003KT 10SM CLR 08/08 A2997 RMK AO2
ADH,2017-04-01 12:55,-96.6712,34.8043,48.20,46.40,93.45,70.00,3.00,0.00,29.97,M,10.00,M,CLR,M,M,M,M,M,M,M,M,KADH 011255Z AUTO 07003KT 10SM CLR 09/08 A2997 RMK AO2 LTG DSNT N
ADH,2017-04-01 13:15,-96.6712,34.8043,50.00,46.40,87.37,70.00,3.00,0.00,29.97,M,10.00,M,CLR,M,M,M,M,M,M,M,M,KADH 011315Z AUTO 07003KT 10SM CLR 10/08 A2997 RMK AO2
ADH,2017-04-01 13:35,-96.6712,34.8043,51.80,48.20,87.47,90.00,5.00,0.00,29.98,M,10.00,M,CLR,M,M,M,M,M,M,M,M,KADH 011335Z AUTO 09005KT 10SM CLR 11/09 A2998 RMK AO2
ADH,2017-04-01 13:55,-96.6712,34.8043,53.60,50.00,87.56,120.00,5.00,0.00,29.99,M,10.00,M,CLR,M,M,M,M,M,M,M,M,KADH 011355Z AUTO 12005KT 10SM CLR 12/10 A2999 RMK AO2
ADH,2017-04-01 14:15,-96.6712,34.8043,55.40,50.00,81.99,110.00,5.00,0.00,29.99,M,10.00,M,CLR,M,M,M,M,M,M,M,M,KADH 011415Z AUTO 11005KT 10SM CLR 13/10 A2999 RMK AO2
ADH,2017-04-01 14:35,-96.6712,34.8043,60.80,51.80,72.20,130.00,6.00,0.00,29.99,M,10.00,M,CLR,M,M,M,M,M,M,M,M,KADH 011435Z AUTO 13006KT 10SM CLR 16/11 A2999 RMK AO2
ADH,2017-04-01 14:55,-96.6712,34.8043,62.60,51.80,67.75,130.00,7.00,0.00,29.99,M,10.00,M,CLR,M,M,M,M,M,M,M,M,KADH 011455Z AUTO 13007KT 10SM CLR 17/11 A2999 RMK AO2
ADH,2017-04-01 15:15,-96.6712,34.8043,64.40,53.60,67.95,120.00,11.00,0.00,29.99,M,10.00,M,CLR,M,M,M,M,M,M,M,M,KADH 011515Z AUTO 12011KT 10SM CLR 18/12 A2999 RMK AO2
ADH,2017-04-01 15:35,-96.6712,34.8043,64.40,53.60,67.95,130.00,10.00,0.00,29.99,M,10.00,M,CLR,M,M,M,M,M,M,M,M,KADH 011535Z AUTO 13010KT 10SM CLR 18/12 A2999 RMK AO2
ADH,2017-04-01 15:55,-96.6712,34.8043,68.00,51.80,56.13,120.00,13.00,0.00,29.99,M,10.00,18.00,CLR,M,M,M,M,M,M,M,M,KADH 011555Z AUTO 12013G18KT 10SM CLR 20/11 A2999 RMK AO2
ADH,2017-04-01 16:15,-96.6712,34.8043,69.80,51.80,52.77,140.00,15.00,0.00,29.99,M,10.00,18.00,CLR,M,M,M,M,M,M,M,M,KADH 011615Z AUTO 14015G18KT 10SM CLR 21/11 A2999 RMK AO2
ADH,2017-04-01 16:35,-96.6712,34.8043,69.80,50.00,49.37,140.00,13.00,0.00,29.97,M,10.00,20.00,CLR,M,M,M,M,M,M,M,M,KADH 011635Z AUTO 14013G20KT 10SM CLR 21/10 A2997 RMK AO2
ADH,2017-04-01 16:55,-96.6712,34.8043,71.60,51.80,49.64,130.00,15.00,0.00,29.96,M,10.00,21.00,CLR,M,M,M,M,M,M,M,M,KADH 011655Z AUTO 13015G21KT 10SM CLR 22/11 A2996 RMK AO2
ADH,2017-04-01 17:15,-96.6712,34.8043,71.60,50.00,46.43,140.00,19.00,0.00,29.94,M,10.00,26.00,CLR,M,M,M,M,M,M,M,M,KADH 011715Z AUTO 14019G26KT 10SM CLR 22/10 A2994 RMK AO2
ADH,2017-04-01 17:35,-96.6712,34.8043,73.40,50.00,43.69,130.00,17.00,0.00,29.93,M,10.00,22.00,CLR,M,M,M,M,M,M,M,M,KADH 011735Z AUTO 13017G22KT 10SM CLR 23/10 A2993 RMK AO2
ADH,2017-04-01 17:55,-96.6712,34.8043,73.40,51.80,46.71,140.00,15.00,0.00,29.93,M,10.00,21.00,CLR,M,M,M,M,M,M,M,M,KADH 011755Z AUTO 14015G21KT 10SM CLR 23/11 A2993 RMK AO2
ADH,2017-04-01 18:15,-96.6712,34.8043,75.20,50.00,41.14,130.00,19.00,0.00,29.94,M,10.00,25.00,CLR,M,M,M,M,M,M,M,M,KADH 011815Z AUTO 13019G25KT 10SM CLR 24/10 A2994 RMK AO2
ADH,2017-04-01 18:35,-96.6712,34.8043,75.20,51.80,43.97,160.00,11.00,0.00,29.92,M,10.00,25.00,CLR,M,M,M,M,M,M,M,M,KADH 011835Z AUTO 16011G25KT 10SM CLR 24/11 A2992 RMK AO2
ADH,2017-04-01 18:55,-96.6712,34.8043,75.20,50.00,41.14,130.00,16.00,0.00,29.93,M,10.00,22.00,SCT,M,M,M,10000.00,M,M,M,M,KADH 011855Z AUTO 13016G22KT 10SM SCT100 24/10 A2993 RMK AO2
ADH,2017-04-01 19:15,-96.6712,34.8043,77.00,50.00,38.74,150.00,16.00,0.00,29.93,M,10.00,23.00,SCT,SCT,M,M,10000.00,12000.00,M,M,M,KADH 011915Z AUTO 15016G23KT 10SM SCT100 SCT120 25/10 A2993 RMK AO2
ADH,2017-04-01 19:35,-96.6712,34.8043,75.20,51.80,43.97,170.00,14.00,0.00,29.91,M,10.00,19.00,SCT,M,M,M,10000.00,M,M,M,M,KADH 011935Z AUTO 17014G19KT 10SM SCT100 24/11 A2991 RMK AO2
ADH,2017-04-01 19:55,-96.6712,34.8043,77.00,51.80,41.42,160.00,14.00,0.00,29.90,M,10.00,22.00,SCT,SCT,M,M,10000.00,12000.00,M,M,M,KADH 011955Z AUTO 16014G22KT 10SM SCT100 SCT120 25/11 A2990 RMK AO2 LTG DSNT NW
ADH,2017-04-01 20:15,-96.6712,34.8043,77.00,50.00,38.74,150.00,13.00,0.00,29.89,M,10.00,20.00,SCT,SCT,M,M,9000.00,11000.00,M,M,M,KADH 012015Z AUTO 15013G20KT 10SM SCT090 SCT110 25/10 A2989 RMK AO2
ADH,2017-04-01 20:35,-96.6712,34.8043,75.20,50.00,41.14,170.00,10.00,0.00,29.89,M,10.00,M,BKN,BKN,M,M,9000.00,12000.00,M,M,M,KADH 012035Z AUTO 17010KT 10SM BKN090 BKN120 24/10 A2989 RMK AO2 LTG DSNT NW
ADH,2017-04-01 20:55,-96.6712,34.8043,77.00,51.80,41.42,160.00,11.00,0.00,29.89,M,10.00,M,OVC,M,M,M,9000.00,M,M,M,M,KADH 012055Z AUTO 16011KT 10SM OVC090 25/11 A2989 RMK AO2 LTG DSNT N AND W
ADH,2017-04-01 21:15,-96.6712,34.8043,75.20,51.80,43.97,160.00,14.00,0.00,29.89,M,10.00,17.00,BKN,BKN,M,M,9000.00,11000.00,M,M,M,KADH 012115Z AUTO 16014G17KT 10SM BKN090 BKN110 24/11 A2989 RMK AO2 LTG DSNT SW
ADH,2017-04-01 21:35,-96.6712,34.8043,73.40,51.80,46.71,150.00,12.00,0.00,29.89,M,10.00,M,SCT,SCT,M,M,9000.00,11000.00,M,M,M,KADH 012135Z AUTO 15012KT 10SM SCT090 SCT110 23/11 A2989 RMK AO2 LTG DSNT W AND NW
ADH,2017-04-01 21:55,-96.6712,34.8043,73.40,51.80,46.71,130.00,12.00,0.00,29.88,M,10.00,M,SCT,SCT,M,M,10000.00,12000.00,M,M,M,KADH 012155Z AUTO 13012KT 10SM SCT100 SCT120 23/11 A2988 RMK AO2 LTG DSNT SW AND NW
ADH,2017-04-01 22:15,-96.6712,34.8043,71.60,51.80,49.64,140.00,8.00,0.00,29.89,M,10.00,M,BKN,BKN,M,M,10000.00,12000.00,M,M,M,KADH 012215Z AUTO 14008KT 10SM BKN100 BKN120 22/11 A2989 RMK AO2 LTG DSNT SW THRU NW
ADH,2017-04-01 22:35,-96.6712,34.8043,71.60,53.60,53.03,170.00,4.00,0.00,29.90,M,10.00,M,OVC,M,M,M,10000.00,M,M,M,TS,KADH 012235Z AUTO 17004KT 10SM TS OVC100 22/12 A2990 RMK AO2 LTG DSNT SW THRU NW
ADH,2017-04-01 22:55,-96.6712,34.8043,71.60,53.60,53.03,160.00,4.00,0.00,29.91,M,10.00,M,OVC,M,M,M,11000.00,M,M,M,TS,KADH 012255Z AUTO 16004KT 10SM TS OVC110 22/12 A2991 RMK AO2 LTG DSNT SW THRU NW
ADH,2017-04-01 23:15,-96.6712,34.8043,69.80,53.60,56.38,140.00,4.00,0.00,29.91,M,10.00,M,SCT,OVC,M,M,9500.00,11000.00,M,M,-RA,KADH 012315Z AUTO 14004KT 10SM -RA SCT095 OVC110 21/12 A2991 RMK AO2 LTG DSNT SW
ADH,2017-04-01 23:35,-96.6712,34.8043,68.00,57.20,68.35,120.00,3.00,0.00,29.91,M,10.00,M,SCT,OVC,M,M,6000.00,10000.00,M,M,-RA,KADH 012335Z AUTO 12003KT 10SM -RA SCT060 OVC100 20/14 A2991 RMK AO2 LTG DSNT S THRU NW
ADH,2017-04-01 23:55,-96.6712,34.8043,68.00,57.20,68.35,0.00,0.00,0.00,29.91,M,10.00,M,SCT,SCT,BKN,M,5000.00,6500.00,10000.00,M,-VCTSRA,KADH 012355Z AUTO 00000KT 10SM -VCTSRA SCT050 SCT065 BKN100 20/14 A2991 RMK AO2 LTG DSNT SW
