#DEBUG: Format Typ    -> comma
#DEBUG: Time Period   -> 2017-04-01 00:00:00+00:00 2017-04-02 00:00:00+00:00
#DEBUG: Time Zone     -> Etc/UTC
#DEBUG: Data Contact   -> daryl herzmann akrherz@iastate.edu 515-294-5978
#DEBUG: Entries Found -> -1
station,valid,lon,lat,tmpf, dwpf, relh, drct, sknt, p01i, alti, mslp, vsby, gust, skyc1, skyc2, skyc3, skyc4, skyl1, skyl2, skyl3, skyl4, presentwx, metar
ADU,2017-04-01 00:00,-94.9204,41.6994,48.20,42.80,81.47,0.00,0.00,0.00,30.05,M,10.00,M,OVC,M,M,M,2900.00,M,M,M,M,KADU 010000Z AUTO 00000KT 10SM OVC029 09/06 A3005 RMK AO2
ADU,2017-04-01 00:10,-94.9204,41.6994,46.40,42.80,87.19,50.00,6.00,0.00,30.05,M,10.00,M,OVC,M,M,M,2700.00,M,M,M,M,KADU 010010Z AUTO 05006KT 10SM OVC027 08/06 A3005 RMK AO2
ADU,2017-04-01 00:15,-94.9204,41.6994,46.40,41.00,81.34,70.00,9.00,0.00,30.05,M,10.00,M,SCT,OVC,M,M,2400.00,2900.00,M,M,M,KADU 010015Z AUTO 07009KT 10SM SCT024 OVC029 08/05 A3005 RMK AO2
ADU,2017-04-01 00:20,-94.9204,41.6994,46.40,41.00,81.34,50.00,7.00,0.00,30.05,M,10.00,M,OVC,M,M,M,2700.00,M,M,M,M,KADU 010020Z AUTO 05007KT 10SM OVC027 08/05 A3005 RMK AO2
ADU,2017-04-01 00:30,-94.9204,41.6994,46.40,41.00,81.34,50.00,6.00,0.00,30.06,M,10.00,M,SCT,OVC,M,M,2600.00,3100.00,M,M,M,KADU 010030Z AUTO 05006KT 10SM SCT026 OVC031 08/05 A3006 RMK AO2
ADU,2017-04-01 00:35,-94.9204,41.6994,46.40,41.00,81.34,50.00,6.00,0.00,30.06,M,10.00,M,SCT,OVC,M,M,2300.00,3100.00,M,M,M,KADU 010035Z AUTO 05006KT 10SM SCT023 OVC031 08/05 A3006 RMK AO2
ADU,2017-04-01 00:40,-94.9204,41.6994,46.40,41.00,81.34,50.00,6.00,0.00,30.06,M,10.00,M,OVC,M,M,M,3300.00,M,M,M,M,KADU 010040Z AUTO 05006KT 10SM OVC033 08/05 A3006 RMK AO2
ADU,2017-04-01 00:50,-94.9204,41.6994,44.60,39.20,81.20,50.00,7.00,0.00,30.05,M,10.00,M,BKN,M,M,M,3300.00,M,M,M,M,KADU 010050Z AUTO 05007KT 10SM BKN033 07/04 A3005 RMK AO2
ADU,2017-04-01 00:55,-94.9204,41.6994,44.60,39.20,81.20,40.00,6.00,0.00,30.05,M,10.00,M,BKN,M,M,M,3300.00,M,M,M,M,KADU 010055Z AUTO 04006KT 10SM BKN033 07/04 A3005 RMK AO2
ADU,2017-04-01 01:00,-94.9204,41.6994,44.60,39.20,81.20,40.00,6.00,0.00,30.05,M,10.00,M,SCT,M,M,M,3500.00,M,M,M,M,KADU 010100Z AUTO 04006KT 10SM SCT035 07/04 A3005 RMK AO2
ADU,2017-04-01 01:10,-94.9204,41.6994,44.60,39.20,81.20,40.00,7.00,0.00,30.06,M,10.00,M,SCT,M,M,M,3500.00,M,M,M,M,KADU 010110Z AUTO 04007KT 10SM SCT035 07/04 A3006 RMK AO2
ADU,2017-04-01 01:15,-94.9204,41.6994,42.80,39.20,86.99,40.00,6.00,0.00,30.06,M,10.00,M,CLR,M,M,M,M,M,M,M,M,KADU 010115Z AUTO 04006KT 10SM CLR 06/04 A3006 RMK AO2
ADU,2017-04-01 01:20,-94.9204,41.6994,42.80,39.20,86.99,40.00,6.00,0.00,30.06,M,10.00,M,CLR,M,M,M,M,M,M,M,M,KADU 010120Z AUTO 04006KT 10SM CLR 06/04 A3006 RMK AO2
ADU,2017-04-01 01:30,-94.9204,41.6994,42.80,37.40,81.07,30.00,6.00,0.00,30.07,M,10.00,M,CLR,M,M,M,M,M,M,M,M,KADU 010130Z AUTO 03006KT 10SM CLR 06/03 A3007 RMK AO2
ADU,2017-04-01 01:35,-94.9204,41.6994,42.80,37.40,81.07,30.00,5.00,0.00,30.08,M,10.00,M,CLR,M,M,M,M,M,M,M,M,KADU 010135Z AUTO 03005KT 10SM CLR 06/03 A3008 RMK AO2
ADU,2017-04-01 01:40,-94.9204,41.6994,42.80,37.40,81.07,40.00,5.00,0.00,30.08,M,10.00,M,CLR,M,M,M,M,M,M,M,M,KADU 010140Z AUTO 04005KT 10SM CLR 06/03 A3008 RMK AO2
ADU,2017-04-01 01:50,-94.9204,41.6994,41.00,37.40,86.89,30.00,3.00,0.00,30.09,M,10.00,M,SCT,SCT,M,M,1700.00,2400.00,M,M,M,KADU 010150Z AUTO 03003KT 10SM SCT017 SCT024 05/03 A3009 RMK AO2
ADU,2017-04-01 01:55,-94.9204,41.6994,41.00,37.40,86.89,20.00,3.00,0.00,30.09,M,10.00,M,SCT,SCT,M,M,1700.00,2400.00,M,M,M,KADU 010155Z AUTO 02003KT 10SM SCT017 SCT024 05/03 A3009 RMK AO2
ADU,2017-04-01 02:00,-94.9204,41.6994,41.00,37.40,86.89,40.00,4.00,0.00,30.09,M,10.00,M,SCT,BKN,M,M,1700.00,2400.00,M,M,M,KADU 010200Z AUTO 04004KT 10SM SCT017 BKN024 05/03 A3009 RMK AO2
ADU,2017-04-01 02:10,-94.9204,41.6994,42.80,37.40,81.07,40.00,6.00,0.00,30.10,M,10.00,M,BKN,M,M,M,2200.00,M,M,M,M,KADU 010210Z AUTO 04006KT 10SM BKN022 06/03 A3010 RMK AO2
ADU,2017-04-01 02:15,-94.9204,41.6994,42.80,37.40,81.07,40.00,7.00,0.00,30.10,M,10.00,M,OVC,M,M,M,2200.00,M,M,M,M,KADU 010215Z AUTO 04007KT 10SM OVC022 06/03 A3010 RMK AO2
ADU,2017-04-01 02:20,-94.9204,41.6994,42.80,37.40,81.07,60.00,8.00,0.00,30.10,M,10.00,M,OVC,M,M,M,2200.00,M,M,M,M,KADU 010220Z AUTO 06008KT 10SM OVC022 06/03 A3010 RMK AO2
ADU,2017-04-01 02:30,-94.9204,41.6994,42.80,37.40,81.07,50.00,8.00,0.00,30.10,M,10.00,M,OVC,M,M,M,2200.00,M,M,M,M,KADU 010230Z AUTO 05008KT 10SM OVC022 06/03 A3010 RMK AO2
ADU,2017-04-01 02:35,-94.9204,41.6994,42.80,37.40,81.07,50.00,8.00,0.00,30.10,M,10.00,M,OVC,M,M,M,2200.00,M,M,M,M,KADU 010235Z AUTO 05008KT 10SM OVC022 06/03 A3010 RMK AO2
ADU,2017-04-01 02:40,-94.9204,41.6994,42.80,37.40,81.07,50.00,8.00,0.00,30.11,M,10.00,M,OVC,M,M,M,2200.00,M,M,M,M,KADU 010240Z AUTO 05008KT 10SM OVC022 06/03 A3011 RMK AO2
ADU,2017-04-01 02:50,-94.9204,41.6994,42.80,37.40,81.07,50.00,9.00,0.00,30.11,M,10.00,M,OVC,M,M,M,2200.00,M,M,M,M,KADU 010250Z AUTO 05009KT 10SM OVC022 06/03 A3011 RMK AO2
ADU,2017-04-01 02:55,-94.9204,41.6994,42.80,37.40,81.07,50.00,9.00,0.00,30.10,M,10.00,M,OVC,M,M,M,2200.00,M,M,M,M,KADU 010255Z AUTO 05009KT 10SM OVC022 06/03 A3010 RMK AO2
ADU,2017-04-01 03:00,-94.9204,41.6994,42.80,37.40,81.07,50.00,9.00,0.00,30.11,M,10.00,M,OVC,M,M,M,2200.00,M,M,M,M,KADU 010300Z AUTO 05009KT 10SM OVC022 06/03 A3011 RMK AO2
ADU,2017-04-01 03:10,-94.9204,41.6994,42.80,37.40,81.07,50.00,8.00,0.00,30.11,M,10.00,M,SCT,OVC,M,M,1300.00,2200.00,M,M,M,KADU 010310Z AUTO 05008KT 10SM SCT013 OVC022 06/03 A3011 RMK AO2
ADU,2017-04-01 03:15,-94.9204,41.6994,42.80,37.40,81.07,50.00,6.00,0.00,30.11,M,10.00,M,SCT,OVC,M,M,1300.00,2200.00,M,M,M,KADU 010315Z AUTO 05006KT 10SM SCT013 OVC022 06/03 A3011 RMK AO2
ADU,2017-04-01 03:20,-94.9204,41.6994,41.00,37.40,86.89,60.00,7.00,0.00,30.11,M,10.00,M,SCT,OVC,M,M,1300.00,2200.00,M,M,M,KADU 010320Z AUTO 06007KT 10SM SCT013 OVC022 05/03 A3011 RMK AO2
ADU,2017-04-01 03:30,-94.9204,41.6994,41.00,37.40,86.89,60.00,7.00,0.00,30.11,M,10.00,M,OVC,M,M,M,2200.00,M,M,M,M,KADU 010330Z AUTO 06007KT 10SM OVC022 05/03 A3011 RMK AO2
ADU,2017-04-01 03:35,-94.9204,41.6994,41.00,37.40,86.89,60.00,8.00,0.00,30.12,M,10.00,M,OVC,M,M,M,2200.00,M,M,M,M,KADU 010335Z AUTO 06008KT 10SM OVC022 05/03 A3012 RMK AO2
ADU,2017-04-01 03:40,-94.9204,41.6994,41.00,37.40,86.89,60.00,6.00,0.00,30.12,M,10.00,M,OVC,M,M,M,2200.00,M,M,M,M,KADU 010340Z AUTO 06006KT 10SM OVC022 05/03 A3012 RMK AO2
ADU,2017-04-01 03:50,-94.9204,41.6994,41.00,37.40,86.89,60.00,7.00,0.00,30.12,M,10.00,M,OVC,M,M,M,2200.00,M,M,M,M,KADU 010350Z AUTO 06007KT 10SM OVC022 05/03 A3012 RMK AO2
ADU,2017-04-01 03:55,-94.9204,41.6994,41.00,37.40,86.89,60.00,6.00,0.00,30.12,M,10.00,M,OVC,M,M,M,2200.00,M,M,M,M,KADU 010355Z AUTO 06006KT 10SM OVC022 05/03 A3012 RMK AO2
ADU,2017-04-01 04:00,-94.9204,41.6994,41.00,37.40,86.89,50.00,8.00,0.00,30.12,M,10.00,M,OVC,M,M,M,2200.00,M,M,M,M,KADU 010400Z AUTO 05008KT 10SM OVC022 05/03 A3012 RMK AO2
ADU,2017-04-01 04:10,-94.9204,41.6994,41.00,37.40,86.89,60.00,5.00,0.00,30.13,M,10.00,M,OVC,M,M,M,2000.00,M,M,M,M,KADU 010410Z AUTO 06005KT 10SM OVC020 05/03 A3013 RMK AO2
ADU,2017-04-01 04:15,-94.9204,41.6994,41.00,37.40,86.89,60.00,6.00,0.00,30.13,M,10.00,M,OVC,M,M,M,2000.00,M,M,M,M,KADU 010415Z AUTO 06006KT 10SM OVC020 05/03 A3013 RMK AO2
ADU,2017-04-01 04:20,-94.9204,41.6994,41.00,37.40,86.89,60.00,7.00,0.00,30.13,M,10.00,M,OVC,M,M,M,2000.00,M,M,M,M,KADU 010420Z AUTO 06007KT 10SM OVC020 05/03 A3013 RMK AO2
ADU,2017-04-01 04:30,-94.9204,41.6994,41.00,37.40,86.89,60.00,6.00,0.00,30.13,M,10.00,M,OVC,M,M,M,2000.00,M,M,M,M,KADU 010430Z AUTO 06006KT 10SM OVC020 05/03 A3013 RMK AO2
ADU,2017-04-01 04:35,-94.9204,41.6994,41.00,37.40,86.89,60.00,6.00,0.00,30.14,M,10.00,M,OVC,M,M,M,2000.00,M,M,M,M,KADU 010435Z AUTO 06006KT 10SM OVC020 05/03 A3014 RMK AO2
ADU,2017-04-01 04:40,-94.9204,41.6994,41.00,37.40,86.89,60.00,6.00,0.00,30.13,M,10.00,M,OVC,M,M,M,2000.00,M,M,M,M,KADU 010440Z AUTO 06006KT 10SM OVC020 05/03 A3013 RMK AO2
ADU,2017-04-01 04:50,-94.9204,41.6994,41.00,37.40,86.89,60.00,5.00,0.00,30.13,M,10.00,M,OVC,M,M,M,2000.00,M,M,M,M,KADU 010450Z AUTO 06005KT 10SM OVC020 05/03 A3013 RMK AO2
ADU,2017-04-01 04:55,-94.9204,41.6994,41.00,37.40,86.89,60.00,5.00,0.00,30.13,M,10.00,M,OVC,M,M,M,2000.00,M,M,M,M,KADU 010455Z AUTO 06005KT 10SM OVC020 05/03 A3013 RMK AO2
ADU,2017-04-01 05:00,-94.9204,41.6994,41.00,37.40,86.89,60.00,3.00,0.00,30.14,M,10.00,M,OVC,M,M,M,2000.00,M,M,M,M,KADU 010500Z AUTO 06003KT 10SM OVC020 05/03 A3014 RMK AO2
ADU,2017-04-01 05:10,-94.9204,41.6994,41.00,37.40,86.89,70.00,3.00,0.00,30.14,M,10.00,M,OVC,M,M,M,1800.00,M,M,M,M,KADU 010510Z AUTO 07003KT 10SM OVC018 05/03 A3014 RMK AO2
ADU,2017-04-01 05:15,-94.9204,41.6994,41.00,37.40,86.89,60.00,6.00,0.00,30.14,M,10.00,M,OVC,M,M,M,1800.00,M,M,M,M,KADU 010515Z AUTO 06006KT 10SM OVC018 05/03 A3014 RMK AO2
ADU,2017-04-01 05:20,-94.9204,41.6994,41.00,37.40,86.89,60.00,7.00,0.00,30.14,M,10.00,M,OVC,M,M,M,1600.00,M,M,M,M,KADU 010520Z AUTO 06007KT 10SM OVC016 05/03 A3014 RMK AO2
ADU,2017-04-01 05:30,-94.9204,41.6994,41.00,35.60,80.93,80.00,6.00,0.00,30.14,M,10.00,M,OVC,M,M,M,1600.00,M,M,M,M,KADU 010530Z AUTO 08006KT 10SM OVC016 05/02 A3014 RMK AO2
ADU,2017-04-01 05:35,-94.9204,41.6994,41.00,35.60,80.93,60.00,6.00,0.00,30.14,M,10.00,M,OVC,M,M,M,1600.00,M,M,M,M,KADU 010535Z AUTO 06006KT 10SM OVC016 05/02 A3014 RMK AO2
ADU,2017-04-01 05:40,-94.9204,41.6994,39.20,35.60,86.79,70.00,8.00,0.00,30.14,M,10.00,M,OVC,M,M,M,1600.00,M,M,M,M,KADU 010540Z AUTO 07008KT 10SM OVC016 04/02 A3014 RMK AO2
ADU,2017-04-01 05:50,-94.9204,41.6994,39.20,35.60,86.79,70.00,8.00,0.00,30.15,M,10.00,M,OVC,M,M,M,1600.00,M,M,M,M,KADU 010550Z AUTO 07008KT 10SM OVC016 04/02 A3015 RMK AO2
ADU,2017-04-01 05:55,-94.9204,41.6994,41.00,35.60,80.93,70.00,6.00,0.00,30.15,M,10.00,M,OVC,M,M,M,1600.00,M,M,M,M,KADU 010555Z AUTO 07006KT 10SM OVC016 05/02 A3015 RMK AO2
ADU,2017-04-01 06:00,-94.9204,41.6994,41.00,35.60,80.93,80.00,6.00,0.00,30.16,M,10.00,M,OVC,M,M,M,1600.00,M,M,M,M,KADU 010600Z AUTO 08006KT 10SM OVC016 05/02 A3016 RMK AO2
ADU,2017-04-01 06:10,-94.9204,41.6994,41.00,35.60,80.93,90.00,4.00,0.00,30.16,M,10.00,M,OVC,M,M,M,1600.00,M,M,M,M,KADU 010610Z AUTO 09004KT 10SM OVC016 05/02 A3016 RMK AO2
ADU,2017-04-01 06:15,-94.9204,41.6994,41.00,35.60,80.93,90.00,5.00,0.00,30.16,M,10.00,M,OVC,M,M,M,1600.00,M,M,M,M,KADU 010615Z AUTO 09005KT 10SM OVC016 05/02 A3016 RMK AO2
ADU,2017-04-01 06:20,-94.9204,41.6994,41.00,35.60,80.93,100.00,3.00,0.00,30.17,M,10.00,M,OVC,M,M,M,1600.00,M,M,M,M,KADU 010620Z AUTO 10003KT 10SM OVC016 05/02 A3017 RMK AO2
ADU,2017-04-01 06:30,-94.9204,41.6994,39.20,35.60,86.79,0.00,0.00,0.00,30.17,M,10.00,M,SCT,OVC,M,M,1600.00,2200.00,M,M,M,KADU 010630Z AUTO 00000KT 10SM SCT016 OVC022 04/02 A3017 RMK AO2
ADU,2017-04-01 06:35,-94.9204,41.6994,39.20,35.60,86.79,0.00,0.00,0.00,30.17,M,10.00,M,SCT,OVC,M,M,1600.00,2200.00,M,M,M,KADU 010635Z AUTO 00000KT 10SM SCT016 OVC022 04/02 A3017 RMK AO2
ADU,2017-04-01 06:40,-94.9204,41.6994,39.20,35.60,86.79,0.00,0.00,0.00,30.17,M,10.00,M,OVC,M,M,M,2000.00,M,M,M,M,KADU 010640Z AUTO 00000KT 10SM OVC020 04/02 A3017 RMK AO2
ADU,2017-04-01 06:50,-94.9204,41.6994,39.20,35.60,86.79,0.00,0.00,0.00,30.17,M,10.00,M,OVC,M,M,M,2000.00,M,M,M,M,KADU 010650Z AUTO 00000KT 10SM OVC020 04/02 A3017 RMK AO2
ADU,2017-04-01 06:55,-94.9204,41.6994,39.20,35.60,86.79,0.00,0.00,0.00,30.17,M,10.00,M,OVC,M,M,M,2000.00,M,M,M,M,KADU 010655Z AUTO 00000KT 10SM OVC020 04/02 A3017 RMK AO2
ADU,2017-04-01 07:00,-94.9204,41.6994,39.20,35.60,86.79,0.00,0.00,0.00,30.18,M,10.00,M,OVC,M,M,M,2000.00,M,M,M,M,KADU 010700Z AUTO 00000KT 10SM OVC020 04/02 A3018 RMK AO2
ADU,2017-04-01 07:10,-94.9204,41.6994,39.20,35.60,86.79,0.00,0.00,0.00,30.18,M,10.00,M,OVC,M,M,M,2000.00,M,M,M,M,KADU 010710Z AUTO 00000KT 10SM OVC020 04/02 A3018 RMK AO2
ADU,2017-04-01 07:15,-94.9204,41.6994,39.20,35.60,86.79,0.00,0.00,0.00,30.18,M,10.00,M,OVC,M,M,M,2000.00,M,M,M,M,KADU 010715Z AUTO 00000KT 10SM OVC020 04/02 A3018 RMK AO2
ADU,2017-04-01 07:20,-94.9204,41.6994,39.20,35.60,86.79,0.00,0.00,0.00,30.18,M,10.00,M,OVC,M,M,M,2000.00,M,M,M,M,KADU 010720Z AUTO 00000KT 10SM OVC020 04/02 A3018 RMK AO2
ADU,2017-04-01 07:30,-94.9204,41.6994,39.20,35.60,86.79,0.00,0.00,0.00,30.18,M,10.00,M,OVC,M,M,M,1800.00,M,M,M,M,KADU 010730Z AUTO 00000KT 10SM OVC018 04/02 A3018 RMK AO2
ADU,2017-04-01 07:35,-94.9204,41.6994,39.20,35.60,86.79,0.00,0.00,0.00,30.18,M,10.00,M,OVC,M,M,M,1800.00,M,M,M,M,KADU 010735Z AUTO 00000KT 10SM OVC018 04/02 A3018 RMK AO2
ADU,2017-04-01 07:40,-94.9204,41.6994,39.20,35.60,86.79,0.00,0.00,0.00,30.18,M,10.00,M,OVC,M,M,M,1800.00,M,M,M,M,KADU 010740Z AUTO 00000KT 10SM OVC018 04/02 A3018 RMK AO2
ADU,2017-04-01 07:50,-94.9204,41.6994,39.20,35.60,86.79,70.00,5.00,0.00,30.16,M,10.00,M,OVC,M,M,M,1800.00,M,M,M,M,KADU 010750Z AUTO 07005KT 10SM OVC018 04/02 A3016 RMK AO2
ADU,2017-04-01 07:55,-94.9204,41.6994,39.20,35.60,86.79,80.00,5.00,0.00,30.15,M,10.00,M,OVC,M,M,M,1800.00,M,M,M,M,KADU 010755Z AUTO 08005KT 10SM OVC018 04/02 A3015 RMK AO2
ADU,2017-04-01 08:00,-94.9204,41.6994,39.20,35.60,86.79,100.00,4.00,0.00,30.15,M,10.00,M,BKN,M,M,M,1800.00,M,M,M,M,KADU 010800Z AUTO 10004KT 10SM BKN018 04/02 A3015 RMK AO2
ADU,2017-04-01 08:10,-94.9204,41.6994,39.20,35.60,86.79,110.00,3.00,0.00,30.16,M,10.00,M,BKN,M,M,M,1800.00,M,M,M,M,KADU 010810Z AUTO 11003KT 10SM BKN018 04/02 A3016 RMK AO2
ADU,2017-04-01 08:15,-94.9204,41.6994,39.20,35.60,86.79,100.00,3.00,0.00,30.17,M,10.00,M,BKN,M,M,M,1800.00,M,M,M,M,KADU 010815Z AUTO 10003KT 10SM BKN018 04/02 A3017 RMK AO2
ADU,2017-04-01 08:20,-94.9204,41.6994,39.20,35.60,86.79,0.00,0.00,0.00,30.17,M,10.00,M,BKN,M,M,M,1800.00,M,M,M,M,KADU 010820Z AUTO 00000KT 10SM BKN018 04/02 A3017 RMK AO2
ADU,2017-04-01 08:30,-94.9204,41.6994,39.20,35.60,86.79,0.00,0.00,0.00,30.17,M,10.00,M,SCT,M,M,M,1800.00,M,M,M,M,KADU 010830Z AUTO 00000KT 10SM SCT018 04/02 A3017 RMK AO2
ADU,2017-04-01 08:35,-94.9204,41.6994,39.20,35.60,86.79,0.00,0.00,0.00,30.17,M,10.00,M,SCT,M,M,M,1800.00,M,M,M,M,KADU 010835Z AUTO 00000KT 10SM SCT018 04/02 A3017 RMK AO2
ADU,2017-04-01 08:40,-94.9204,41.6994,39.20,35.60,86.79,90.00,3.00,0.00,30.17,M,10.00,M,SCT,M,M,M,1800.00,M,M,M,M,KADU 010840Z AUTO 09003KT 10SM SCT018 04/02 A3017 RMK AO2
ADU,2017-04-01 08:50,-94.9204,41.6994,39.20,35.60,86.79,70.00,3.00,0.00,30.17,M,10.00,M,SCT,M,M,M,1800.00,M,M,M,M,KADU 010850Z AUTO 07003KT 10SM SCT018 04/02 A3017 RMK AO2
ADU,2017-04-01 08:55,-94.9204,41.6994,37.40,35.60,93.14,0.00,0.00,0.00,30.17,M,10.00,M,CLR,M,M,M,M,M,M,M,M,KADU 010855Z AUTO 00000KT 10SM CLR 03/02 A3017 RMK AO2
ADU,2017-04-01 09:00,-94.9204,41.6994,37.40,35.60,93.14,0.00,0.00,0.00,30.18,M,10.00,M,CLR,M,M,M,M,M,M,M,M,KADU 010900Z AUTO 00000KT 10SM CLR 03/02 A3018 RMK AO2
ADU,2017-04-01 09:10,-94.9204,41.6994,37.40,35.60,93.14,0.00,0.00,0.00,30.18,M,10.00,M,CLR,M,M,M,M,M,M,M,M,KADU 010910Z AUTO 00000KT 10SM CLR 03/02 A3018 RMK AO2
ADU,2017-04-01 09:15,-94.9204,41.6994,37.40,35.60,93.14,0.00,0.00,0.00,30.18,M,10.00,M,CLR,M,M,M,M,M,M,M,M,KADU 010915Z AUTO 00000KT 10SM CLR 03/02 A3018 RMK AO2
ADU,2017-04-01 09:20,-94.9204,41.6994,37.40,35.60,93.14,10.00,3.00,0.00,30.18,M,10.00,M,CLR,M,M,M,M,M,M,M,M,KADU 010920Z AUTO 01003KT 10SM CLR 03/02 A3018 RMK AO2
ADU,2017-04-01 09:30,-94.9204,41.6994,37.40,33.80,86.69,0.00,0.00,0.00,30.18,M,10.00,M,CLR,M,M,M,M,M,M,M,M,KADU 010930Z AUTO 00000KT 10SM CLR 03/01 A3018 RMK AO2
ADU,2017-04-01 09:35,-94.9204,41.6994,37.40,33.80,86.69,0.00,0.00,0.00,30.18,M,10.00,M,CLR,M,M,M,M,M,M,M,M,KADU 010935Z AUTO 00000KT 10SM CLR 03/01 A3018 RMK AO2
ADU,2017-04-01 09:40,-94.9204,41.6994,37.40,33.80,86.69,0.00,0.00,0.00,30.18,M,10.00,M,CLR,M,M,M,M,M,M,M,M,KADU 010940Z AUTO 00000KT 10SM CLR 03/01 A3018 RMK AO2
ADU,2017-04-01 09:50,-94.9204,41.6994,37.40,33.80,86.69,0.00,0.00,0.00,30.19,M,10.00,M,CLR,M,M,M,M,M,M,M,M,KADU 010950Z AUTO 00000KT 10SM CLR 03/01 A3019 RMK AO2
ADU,2017-04-01 09:55,-94.9204,41.6994,37.40,33.80,86.69,0.00,0.00,0.00,30.20,M,10.00,M,CLR,M,M,M,M,M,M,M,M,KADU 010955Z AUTO 00000KT 10SM CLR 03/01 A3020 RMK AO2
ADU,2017-04-01 10:00,-94.9204,41.6994,37.40,33.80,86.69,0.00,0.00,0.00,30.21,M,10.00,M,CLR,M,M,M,M,M,M,M,M,KADU 011000Z AUTO 00000KT 10SM CLR 03/01 A3021 RMK AO2
ADU,2017-04-01 10:10,-94.9204,41.6994,37.40,33.80,86.69,0.00,0.00,0.00,30.21,M,10.00,M,CLR,M,M,M,M,M,M,M,M,KADU 011010Z AUTO 00000KT 10SM CLR 03/01 A3021 RMK AO2
ADU,2017-04-01 10:15,-94.9204,41.6994,35.60,33.80,93.08,0.00,0.00,0.00,30.21,M,10.00,M,CLR,M,M,M,M,M,M,M,M,KADU 011015Z AUTO 00000KT 10SM CLR 02/01 A3021 RMK AO2
ADU,2017-04-01 10:20,-94.9204,41.6994,35.60,33.80,93.08,0.00,0.00,0.00,30.20,M,7.00,M,CLR,M,M,M,M,M,M,M,M,KADU 011020Z AUTO 00000KT 7SM CLR 02/01 A3020 RMK AO2
ADU,2017-04-01 10:30,-94.9204,41.6994,35.60,33.80,93.08,0.00,0.00,0.00,30.20,M,7.00,M,CLR,M,M,M,M,M,M,M,M,KADU 011030Z AUTO 00000KT 7SM CLR 02/01 A3020 RMK AO2
ADU,2017-04-01 10:35,-94.9204,41.6994,35.60,33.80,93.08,0.00,0.00,0.00,30.20,M,7.00,M,CLR,M,M,M,M,M,M,M,M,KADU 011035Z AUTO 00000KT 7SM CLR 02/01 A3020 RMK AO2
ADU,2017-04-01 10:40,-94.9204,41.6994,35.60,33.80,93.08,0.00,0.00,0.00,30.20,M,7.00,M,CLR,M,M,M,M,M,M,M,M,KADU 011040Z AUTO 00000KT 7SM CLR 02/01 A3020 RMK AO2
ADU,2017-04-01 10:50,-94.9204,41.6994,35.60,32.00,86.59,0.00,0.00,0.00,30.21,M,7.00,M,CLR,M,M,M,M,M,M,M,M,KADU 011050Z AUTO 00000KT 7SM CLR 02/00 A3021 RMK AO2
ADU,2017-04-01 10:55,-94.9204,41.6994,35.60,32.00,86.59,0.00,0.00,0.00,30.20,M,7.00,M,CLR,M,M,M,M,M,M,M,M,KADU 011055Z AUTO 00000KT 7SM CLR 02/00 A3020 RMK AO2
ADU,2017-04-01 11:00,-94.9204,41.6994,35.60,32.00,86.59,0.00,0.00,0.00,30.21,M,7.00,M,CLR,M,M,M,M,M,M,M,M,KADU 011100Z AUTO 00000KT 7SM CLR 02/00 A3021 RMK AO2
ADU,2017-04-01 11:10,-94.9204,41.6994,35.60,32.00,86.59,0.00,0.00,0.00,30.21,M,7.00,M,CLR,M,M,M,M,M,M,M,M,KADU 011110Z AUTO 00000KT 7SM CLR 02/00 A3021 RMK AO2
ADU,2017-04-01 11:15,-94.9204,41.6994,35.60,32.00,86.59,0.00,0.00,0.00,30.21,M,7.00,M,CLR,M,M,M,M,M,M,M,M,KADU 011115Z AUTO 00000KT 7SM CLR 02/00 A3021 RMK AO2
ADU,2017-04-01 11:20,-94.9204,41.6994,35.60,32.00,86.59,0.00,0.00,0.00,30.22,M,7.00,M,CLR,M,M,M,M,M,M,M,M,KADU 011120Z AUTO 00000KT 7SM CLR 02/00 A3022 RMK AO2
ADU,2017-04-01 11:30,-94.9204,41.6994,35.60,32.00,86.59,0.00,0.00,0.00,30.21,M,7.00,M,CLR,M,M,M,M,M,M,M,M,KADU 011130Z AUTO 00000KT 7SM CLR 02/00 A3021 RMK AO2
ADU,2017-04-01 11:35,-94.9204,41.6994,35.60,32.00,86.59,0.00,0.00,0.00,30.22,M,7.00,M,CLR,M,M,M,M,M,M,M,M,KADU 011135Z AUTO 00000KT 7SM CLR 02/00 A3022 RMK AO2
ADU,2017-04-01 11:40,-94.9204,41.6994,35.60,32.00,86.59,0.00,0.00,0.00,30.22,M,7.00,M,CLR,M,M,M,M,M,M,M,M,KADU 011140Z AUTO 00000KT 7SM CLR 02/00 A3022 RMK AO2
ADU,2017-04-01 11:50,-94.9204,41.6994,35.60,33.80,93.08,0.00,0.00,0.00,30.22,M,7.00,M,CLR,M,M,M,M,M,M,M,M,KADU 011150Z AUTO 00000KT 7SM CLR 02/01 A3022 RMK AO2
ADU,2017-04-01 11:55,-94.9204,41.6994,35.60,33.80,93.08,0.00,0.00,0.00,30.22,M,7.00,M,CLR,M,M,M,M,M,M,M,M,KADU 011155Z AUTO 00000KT 7SM CLR 02/01 A3022 RMK AO2
ADU,2017-04-01 12:00,-94.9204,41.6994,35.60,32.00,86.59,0.00,0.00,0.00,30.22,M,7.00,M,CLR,M,M,M,M,M,M,M,M,KADU 011200Z AUTO 00000KT 7SM CLR 02/00 A3022 RMK AO2
ADU,2017-04-01 12:10,-94.9204,41.6994,33.80,32.00,93.03,0.00,0.00,0.00,30.23,M,5.00,M,CLR,M,M,M,M,M,M,M,BR,KADU 011210Z AUTO 00000KT 5SM BR CLR 01/00 A3023 RMK AO2
ADU,2017-04-01 12:15,-94.9204,41.6994,33.80,32.00,93.03,0.00,0.00,0.00,30.23,M,5.00,M,CLR,M,M,M,M,M,M,M,BR,KADU 011215Z AUTO 00000KT 5SM BR CLR 01/00 A3023 RMK AO2
ADU,2017-04-01 12:20,-94.9204,41.6994,35.60,33.80,93.08,0.00,0.00,0.00,30.23,M,5.00,M,CLR,M,M,M,M,M,M,M,BR,KADU 011220Z AUTO 00000KT 5SM BR CLR 02/01 A3023 RMK AO2
ADU,2017-04-01 12:30,-94.9204,41.6994,35.60,33.80,93.08,0.00,0.00,0.00,30.24,M,5.00,M,CLR,M,M,M,M,M,M,M,BR,KADU 011230Z AUTO 00000KT 5SM BR CLR 02/01 A3024 RMK AO2
ADU,2017-04-01 12:35,-94.9204,41.6994,35.60,33.80,93.08,0.00,0.00,0.00,30.24,M,5.00,M,CLR,M,M,M,M,M,M,M,BR,KADU 011235Z AUTO 00000KT 5SM BR CLR 02/01 A3024 RMK AO2
ADU,2017-04-01 12:40,-94.9204,41.6994,35.60,33.80,93.08,0.00,0.00,0.00,30.24,M,5.00,M,CLR,M,M,M,M,M,M,M,BR,KADU 011240Z AUTO 00000KT 5SM BR CLR 02/01 A3024 RMK AO2
ADU,2017-04-01 12:50,-94.9204,41.6994,35.60,33.80,93.08,0.00,0.00,0.00,30.23,M,5.00,M,CLR,M,M,M,M,M,M,M,BR,KADU 011250Z AUTO 00000KT 5SM BR CLR 02/01 A3023 RMK AO2
ADU,2017-04-01 12:55,-94.9204,41.6994,37.40,33.80,86.69,0.00,0.00,0.00,30.24,M,5.00,M,CLR,M,M,M,M,M,M,M,BR,KADU 011255Z AUTO 00000KT 5SM BR CLR 03/01 A3024 RMK AO2
ADU,2017-04-01 13:00,-94.9204,41.6994,37.40,35.60,93.14,0.00,0.00,0.00,30.23,M,5.00,M,CLR,M,M,M,M,M,M,M,BR,KADU 011300Z AUTO 00000KT 5SM BR CLR 03/02 A3023 RMK AO2
ADU,2017-04-01 13:10,-94.9204,41.6994,37.40,35.60,93.14,0.00,0.00,0.00,30.24,M,7.00,M,CLR,M,M,M,M,M,M,M,M,KADU 011310Z AUTO 00000KT 7SM CLR 03/02 A3024 RMK AO2
ADU,2017-04-01 13:15,-94.9204,41.6994,37.40,35.60,93.14,0.00,0.00,0.00,30.24,M,7.00,M,CLR,M,M,M,M,M,M,M,M,KADU 011315Z AUTO 00000KT 7SM CLR 03/02 A3024 RMK AO2
ADU,2017-04-01 13:20,-94.9204,41.6994,37.40,35.60,93.14,0.00,0.00,0.00,30.24,M,7.00,M,SCT,M,M,M,12000.00,M,M,M,M,KADU 011320Z AUTO 00000KT 7SM SCT120 03/02 A3024 RMK AO2
ADU,2017-04-01 13:30,-94.9204,41.6994,37.40,35.60,93.14,0.00,0.00,0.00,30.24,M,7.00,M,SCT,M,M,M,12000.00,M,M,M,M,KADU 011330Z AUTO 00000KT 7SM SCT120 03/02 A3024 RMK AO2
ADU,2017-04-01 13:35,-94.9204,41.6994,37.40,35.60,93.14,0.00,0.00,0.00,30.24,M,7.00,M,SCT,M,M,M,12000.00,M,M,M,M,KADU 011335Z AUTO 00000KT 7SM SCT120 03/02 A3024 RMK AO2
ADU,2017-04-01 13:40,-94.9204,41.6994,37.40,35.60,93.14,0.00,0.00,0.00,30.24,M,7.00,M,SCT,M,M,M,12000.00,M,M,M,M,KADU 011340Z AUTO 00000KT 7SM SCT120 03/02 A3024 RMK AO2
ADU,2017-04-01 13:50,-94.9204,41.6994,39.20,35.60,86.79,0.00,0.00,0.00,30.24,M,10.00,M,CLR,M,M,M,M,M,M,M,M,KADU 011350Z AUTO 00000KT 10SM CLR 04/02 A3024 RMK AO2
ADU,2017-04-01 13:55,-94.9204,41.6994,39.20,35.60,86.79,0.00,0.00,0.00,30.24,M,10.00,M,CLR,M,M,M,M,M,M,M,M,KADU 011355Z AUTO 00000KT 10SM CLR 04/02 A3024 RMK AO2
ADU,2017-04-01 14:00,-94.9204,41.6994,39.20,35.60,86.79,0.00,0.00,0.00,30.23,M,10.00,M,CLR,M,M,M,M,M,M,M,M,KADU 011400Z AUTO 00000KT 10SM CLR 04/02 A3023 RMK AO2
ADU,2017-04-01 14:10,-94.9204,41.6994,39.20,37.40,93.19,60.00,3.00,0.00,30.23,M,10.00,M,CLR,M,M,M,M,M,M,M,M,KADU 011410Z AUTO 06003KT 10SM CLR 04/03 A3023 RMK AO2
ADU,2017-04-01 14:15,-94.9204,41.6994,39.20,37.40,93.19,40.00,3.00,0.00,30.23,M,10.00,M,CLR,M,M,M,M,M,M,M,M,KADU 011415Z AUTO 04003KT 10SM CLR 04/03 A3023 RMK AO2
ADU,2017-04-01 14:20,-94.9204,41.6994,39.20,37.40,93.19,60.00,3.00,0.00,30.23,M,10.00,M,CLR,M,M,M,M,M,M,M,M,KADU 011420Z AUTO 06003KT 10SM CLR 04/03 A3023 RMK AO2
ADU,2017-04-01 14:30,-94.9204,41.6994,41.00,37.40,86.89,70.00,3.00,0.00,30.24,M,10.00,M,CLR,M,M,M,M,M,M,M,M,KADU 011430Z AUTO 07003KT 10SM CLR 05/03 A3024 RMK AO2
ADU,2017-04-01 14:35,-94.9204,41.6994,41.00,37.40,86.89,70.00,4.00,0.00,30.24,M,10.00,M,CLR,M,M,M,M,M,M,M,M,KADU 011435Z AUTO 07004KT 10SM CLR 05/03 A3024 RMK AO2
ADU,2017-04-01 14:40,-94.9204,41.6994,42.80,37.40,81.07,70.00,4.00,0.00,30.24,M,10.00,M,CLR,M,M,M,M,M,M,M,M,KADU 011440Z AUTO 07004KT 10SM CLR 06/03 A3024 RMK AO2
ADU,2017-04-01 14:50,-94.9204,41.6994,42.80,37.40,81.07,70.00,4.00,0.00,30.24,M,10.00,M,CLR,M,M,M,M,M,M,M,M,KADU 011450Z AUTO 07004KT 10SM CLR 06/03 A3024 RMK AO2
ADU,2017-04-01 14:55,-94.9204,41.6994,42.80,37.40,81.07,70.00,6.00,0.00,30.25,M,10.00,M,CLR,M,M,M,M,M,M,M,M,KADU 011455Z AUTO 07006KT 10SM CLR 06/03 A3025 RMK AO2
ADU,2017-04-01 15:00,-94.9204,41.6994,42.80,37.40,81.07,80.00,5.00,0.00,30.25,M,10.00,M,CLR,M,M,M,M,M,M,M,M,KADU 011500Z AUTO 08005KT 10SM CLR 06/03 A3025 RMK AO2
ADU,2017-04-01 15:10,-94.9204,41.6994,42.80,37.40,81.07,60.00,5.00,0.00,30.25,M,10.00,M,CLR,M,M,M,M,M,M,M,M,KADU 011510Z AUTO 06005KT 10SM CLR 06/03 A3025 RMK AO2
ADU,2017-04-01 15:15,-94.9204,41.6994,44.60,39.20,81.20,80.00,5.00,0.00,30.25,M,10.00,M,CLR,M,M,M,M,M,M,M,M,KADU 011515Z AUTO 08005KT 10SM CLR 07/04 A3025 RMK AO2
ADU,2017-04-01 15:20,-94.9204,41.6994,44.60,37.40,75.68,70.00,6.00,0.00,30.25,M,10.00,M,CLR,M,M,M,M,M,M,M,M,KADU 011520Z AUTO 07006KT 10SM CLR 07/03 A3025 RMK AO2
ADU,2017-04-01 15:30,-94.9204,41.6994,44.60,39.20,81.20,70.00,6.00,0.00,30.25,M,10.00,M,CLR,M,M,M,M,M,M,M,M,KADU 011530Z AUTO 07006KT 10SM CLR 07/04 A3025 RMK AO2
ADU,2017-04-01 15:35,-94.9204,41.6994,44.60,39.20,81.20,80.00,6.00,0.00,30.25,M,10.00,M,CLR,M,M,M,M,M,M,M,M,KADU 011535Z AUTO 08006KT 10SM CLR 07/04 A3025 RMK AO2
ADU,2017-04-01 15:40,-94.9204,41.6994,44.60,39.20,81.20,80.00,5.00,0.00,30.25,M,10.00,M,CLR,M,M,M,M,M,M,M,M,KADU 011540Z AUTO 08005KT 10SM CLR 07/04 A3025 RMK AO2
ADU,2017-04-01 15:50,-94.9204,41.6994,44.60,39.20,81.20,70.00,5.00,0.00,30.26,M,10.00,M,CLR,M,M,M,M,M,M,M,M,KADU 011550Z AUTO 07005KT 10SM CLR 07/04 A3026 RMK AO2
ADU,2017-04-01 15:55,-94.9204,41.6994,44.60,39.20,81.20,80.00,4.00,0.00,30.25,M,10.00,M,CLR,M,M,M,M,M,M,M,M,KADU 011555Z AUTO 08004KT 10SM CLR 07/04 A3025 RMK AO2
ADU,2017-04-01 16:00,-94.9204,41.6994,44.60,39.20,81.20,100.00,6.00,0.00,30.26,M,10.00,M,CLR,M,M,M,M,M,M,M,M,KADU 011600Z AUTO 10006KT 10SM CLR 07/04 A3026 RMK AO2
ADU,2017-04-01 16:10,-94.9204,41.6994,46.40,39.20,75.84,110.00,5.00,0.00,30.25,M,10.00,M,CLR,M,M,M,M,M,M,M,M,KADU 011610Z AUTO 11005KT 10SM CLR 08/04 A3025 RMK AO2
ADU,2017-04-01 16:15,-94.9204,41.6994,46.40,39.20,75.84,110.00,5.00,0.00,30.25,M,10.00,M,CLR,M,M,M,M,M,M,M,M,KADU 011615Z AUTO 11005KT 10SM CLR 08/04 A3025 RMK AO2
ADU,2017-04-01 16:20,-94.9204,41.6994,46.40,39.20,75.84,120.00,5.00,0.00,30.25,M,10.00,M,CLR,M,M,M,M,M,M,M,M,KADU 011620Z AUTO 12005KT 10SM CLR 08/04 A3025 RMK AO2
ADU,2017-04-01 16:30,-94.9204,41.6994,46.40,39.20,75.84,110.00,7.00,0.00,30.25,M,10.00,M,CLR,M,M,M,M,M,M,M,M,KADU 011630Z AUTO 11007KT 10SM CLR 08/04 A3025 RMK AO2
ADU,2017-04-01 16:35,-94.9204,41.6994,46.40,39.20,75.84,100.00,6.00,0.00,30.24,M,10.00,M,CLR,M,M,M,M,M,M,M,M,KADU 011635Z AUTO 10006KT 10SM CLR 08/04 A3024 RMK AO2
ADU,2017-04-01 16:40,-94.9204,41.6994,46.40,39.20,75.84,110.00,6.00,0.00,30.24,M,10.00,M,CLR,M,M,M,M,M,M,M,M,KADU 011640Z AUTO 11006KT 10SM CLR 08/04 A3024 RMK AO2
ADU,2017-04-01 16:50,-94.9204,41.6994,46.40,39.20,75.84,90.00,6.00,0.00,30.24,M,10.00,M,CLR,M,M,M,M,M,M,M,M,KADU 011650Z AUTO 09006KT 10SM CLR 08/04 A3024 RMK AO2
ADU,2017-04-01 16:55,-94.9204,41.6994,46.40,39.20,75.84,80.00,6.00,0.00,30.23,M,10.00,M,CLR,M,M,M,M,M,M,M,M,KADU 011655Z AUTO 08006KT 10SM CLR 08/04 A3023 RMK AO2
ADU,2017-04-01 17:00,-94.9204,41.6994,48.20,39.20,70.88,70.00,7.00,0.00,30.23,M,10.00,M,CLR,M,M,M,M,M,M,M,M,KADU 011700Z AUTO 07007KT 10SM CLR 09/04 A3023 RMK AO2
ADU,2017-04-01 17:10,-94.9204,41.6994,48.20,39.20,70.88,80.00,6.00,0.00,30.24,M,10.00,M,CLR,M,M,M,M,M,M,M,M,KADU 011710Z AUTO 08006KT 10SM CLR 09/04 A3024 RMK AO2
ADU,2017-04-01 17:15,-94.9204,41.6994,48.20,39.20,70.88,90.00,6.00,0.00,30.24,M,10.00,M,CLR,M,M,M,M,M,M,M,M,KADU 011715Z AUTO 09006KT 10SM CLR 09/04 A3024 RMK AO2
ADU,2017-04-01 17:20,-94.9204,41.6994,48.20,39.20,70.88,110.00,5.00,0.00,30.24,M,10.00,M,CLR,M,M,M,M,M,M,M,M,KADU 011720Z AUTO 11005KT 10SM CLR 09/04 A3024 RMK AO2
ADU,2017-04-01 17:30,-94.9204,41.6994,48.20,39.20,70.88,130.00,4.00,0.00,30.24,M,10.00,M,CLR,M,M,M,M,M,M,M,M,KADU 011730Z AUTO 13004KT 10SM CLR 09/04 A3024 RMK AO2
ADU,2017-04-01 17:35,-94.9204,41.6994,48.20,39.20,70.88,150.00,6.00,0.00,30.24,M,10.00,M,CLR,M,M,M,M,M,M,M,M,KADU 011735Z AUTO 15006KT 10SM CLR 09/04 A3024 RMK AO2
ADU,2017-04-01 17:40,-94.9204,41.6994,48.20,39.20,70.88,140.00,5.00,0.00,30.24,M,10.00,M,CLR,M,M,M,M,M,M,M,M,KADU 011740Z AUTO 14005KT 10SM CLR 09/04 A3024 RMK AO2
ADU,2017-04-01 17:50,-94.9204,41.6994,48.20,39.20,70.88,160.00,6.00,0.00,30.24,M,10.00,M,CLR,M,M,M,M,M,M,M,M,KADU 011750Z AUTO 16006KT 10SM CLR 09/04 A3024 RMK AO2
ADU,2017-04-01 17:55,-94.9204,41.6994,48.20,39.20,70.88,160.00,6.00,0.00,30.24,M,10.00,M,CLR,M,M,M,M,M,M,M,M,KADU 011755Z AUTO 16006KT 10SM CLR 09/04 A3024 RMK AO2
ADU,2017-04-01 18:00,-94.9204,41.6994,48.20,39.20,70.88,150.00,6.00,0.00,30.24,M,10.00,M,CLR,M,M,M,M,M,M,M,M,KADU 011800Z AUTO 15006KT 10SM CLR 09/04 A3024 RMK AO2
ADU,2017-04-01 18:10,-94.9204,41.6994,48.20,39.20,70.88,150.00,5.00,0.00,30.24,M,10.00,M,CLR,M,M,M,M,M,M,M,M,KADU 011810Z AUTO 15005KT 10SM CLR 09/04 A3024 RMK AO2
ADU,2017-04-01 18:15,-94.9204,41.6994,48.20,39.20,70.88,120.00,7.00,0.00,30.23,M,10.00,M,CLR,M,M,M,M,M,M,M,M,KADU 011815Z AUTO 12007KT 10SM CLR 09/04 A3023 RMK AO2
ADU,2017-04-01 18:20,-94.9204,41.6994,48.20,37.40,66.05,140.00,6.00,0.00,30.23,M,10.00,M,CLR,M,M,M,M,M,M,M,M,KADU 011820Z AUTO 14006KT 10SM CLR 09/03 A3023 RMK AO2
ADU,2017-04-01 18:30,-94.9204,41.6994,48.20,37.40,66.05,110.00,5.00,0.00,30.22,M,10.00,M,SCT,M,M,M,11000.00,M,M,M,M,KADU 011830Z AUTO 11005KT 10SM SCT110 09/03 A3022 RMK AO2
ADU,2017-04-01 18:35,-94.9204,41.6994,48.20,37.40,66.05,130.00,4.00,0.00,30.22,M,10.00,M,SCT,M,M,M,11000.00,M,M,M,M,KADU 011835Z AUTO 13004KT 10SM SCT110 09/03 A3022 RMK AO2
ADU,2017-04-01 18:40,-94.9204,41.6994,48.20,37.40,66.05,110.00,4.00,0.00,30.21,M,10.00,M,SCT,M,M,M,10000.00,M,M,M,M,KADU 011840Z AUTO 11004KT 10SM SCT100 09/03 A3021 RMK AO2
ADU,2017-04-01 18:50,-94.9204,41.6994,48.20,37.40,66.05,130.00,6.00,0.00,30.21,M,10.00,M,SCT,M,M,M,10000.00,M,M,M,M,KADU 011850Z AUTO 13006KT 10SM SCT100 09/03 A3021 RMK AO2
ADU,2017-04-01 18:55,-94.9204,41.6994,48.20,37.40,66.05,130.00,6.00,0.00,30.21,M,10.00,M,SCT,M,M,M,10000.00,M,M,M,M,KADU 011855Z AUTO 13006KT 10SM SCT100 09/03 A3021 RMK AO2
ADU,2017-04-01 19:00,-94.9204,41.6994,48.20,37.40,66.05,140.00,5.00,0.00,30.22,M,10.00,M,SCT,SCT,M,M,8000.00,10000.00,M,M,M,KADU 011900Z AUTO 14005KT 10SM SCT080 SCT100 09/03 A3022 RMK AO2
ADU,2017-04-01 19:10,-94.9204,41.6994,48.20,37.40,66.05,120.00,8.00,0.00,30.21,M,10.00,M,BKN,M,M,M,8000.00,M,M,M,M,KADU 011910Z AUTO 12008KT 10SM BKN080 09/03 A3021 RMK AO2
ADU,2017-04-01 19:15,-94.9204,41.6994,48.20,37.40,66.05,130.00,7.00,0.00,30.21,M,10.00,M,BKN,M,M,M,8000.00,M,M,M,M,KADU 011915Z AUTO 13007KT 10SM BKN080 09/03 A3021 RMK AO2
ADU,2017-04-01 19:20,-94.9204,41.6994,48.20,37.40,66.05,120.00,7.00,0.00,30.21,M,10.00,M,BKN,M,M,M,8000.00,M,M,M,M,KADU 011920Z AUTO 12007KT 10SM BKN080 09/03 A3021 RMK AO2
ADU,2017-04-01 19:30,-94.9204,41.6994,48.20,37.40,66.05,100.00,6.00,0.00,30.21,M,10.00,M,BKN,M,M,M,8000.00,M,M,M,M,KADU 011930Z AUTO 10006KT 10SM BKN080 09/03 A3021 RMK AO2
ADU,2017-04-01 19:35,-94.9204,41.6994,48.20,37.40,66.05,90.00,7.00,0.00,30.21,M,10.00,M,OVC,M,M,M,8000.00,M,M,M,M,KADU 011935Z AUTO 09007KT 10SM OVC080 09/03 A3021 RMK AO2
ADU,2017-04-01 19:40,-94.9204,41.6994,48.20,37.40,66.05,100.00,7.00,0.00,30.20,M,10.00,M,OVC,M,M,M,8000.00,M,M,M,M,KADU 011940Z AUTO 10007KT 10SM OVC080 09/03 A3020 RMK AO2
ADU,2017-04-01 19:50,-94.9204,41.6994,48.20,37.40,66.05,90.00,7.00,0.00,30.19,M,10.00,M,OVC,M,M,M,8000.00,M,M,M,M,KADU 011950Z AUTO 09007KT 10SM OVC080 09/03 A3019 RMK AO2
ADU,2017-04-01 19:55,-94.9204,41.6994,48.20,37.40,66.05,90.00,6.00,0.00,30.19,M,10.00,M,OVC,M,M,M,8000.00,M,M,M,M,KADU 011955Z AUTO 09006KT 10SM OVC080 09/03 A3019 RMK AO2
ADU,2017-04-01 20:00,-94.9204,41.6994,48.20,37.40,66.05,100.00,7.00,0.00,30.19,M,10.00,M,OVC,M,M,M,8000.00,M,M,M,M,KADU 012000Z AUTO 10007KT 10SM OVC080 09/03 A3019 RMK AO2
ADU,2017-04-01 20:10,-94.9204,41.6994,50.00,37.40,61.76,80.00,5.00,0.00,30.19,M,10.00,M,BKN,M,M,M,8000.00,M,M,M,M,KADU 012010Z AUTO 08005KT 10SM BKN080 10/03 A3019 RMK AO2
ADU,2017-04-01 20:15,-94.9204,41.6994,50.00,35.60,57.52,80.00,6.00,0.00,30.19,M,10.00,M,BKN,M,M,M,8000.00,M,M,M,M,KADU 012015Z AUTO 08006KT 10SM BKN080 10/02 A3019 RMK AO2
ADU,2017-04-01 20:20,-94.9204,41.6994,50.00,37.40,61.76,70.00,6.00,0.00,30.20,M,10.00,M,BKN,M,M,M,8000.00,M,M,M,M,KADU 012020Z AUTO 07006KT 10SM BKN080 10/03 A3020 RMK AO2
ADU,2017-04-01 20:30,-94.9204,41.6994,50.00,37.40,61.76,110.00,4.00,0.00,30.20,M,10.00,M,SCT,M,M,M,8000.00,M,M,M,M,KADU 012030Z AUTO 11004KT 10SM SCT080 10/03 A3020 RMK AO2
ADU,2017-04-01 20:35,-94.9204,41.6994,51.80,37.40,57.77,90.00,6.00,0.00,30.19,M,10.00,M,SCT,M,M,M,8000.00,M,M,M,M,KADU 012035Z AUTO 09006KT 10SM SCT080 11/03 A3019 RMK AO2
ADU,2017-04-01 20:40,-94.9204,41.6994,51.80,37.40,57.77,110.00,5.00,0.00,30.20,M,10.00,M,SCT,M,M,M,8000.00,M,M,M,M,KADU 012040Z AUTO 11005KT 10SM SCT080 11/03 A3020 RMK AO2
ADU,2017-04-01 20:50,-94.9204,41.6994,53.60,37.40,54.07,130.00,7.00,0.00,30.19,M,10.00,M,SCT,M,M,M,8000.00,M,M,M,M,KADU 012050Z AUTO 13007KT 10SM SCT080 12/03 A3019 RMK AO2
ADU,2017-04-01 20:55,-94.9204,41.6994,51.80,37.40,57.77,100.00,7.00,0.00,30.19,M,10.00,M,SCT,M,M,M,8000.00,M,M,M,M,KADU 012055Z AUTO 10007KT 10SM SCT080 11/03 A3019 RMK AO2
ADU,2017-04-01 21:00,-94.9204,41.6994,53.60,37.40,54.07,120.00,6.00,0.00,30.19,M,10.00,M,SCT,M,M,M,8000.00,M,M,M,M,KADU 012100Z AUTO 12006KT 10SM SCT080 12/03 A3019 RMK AO2
ADU,2017-04-01 21:10,-94.9204,41.6994,51.80,37.40,57.77,100.00,6.00,0.00,30.18,M,10.00,M,SCT,M,M,M,8000.00,M,M,M,M,KADU 012110Z AUTO 10006KT 10SM SCT080 11/03 A3018 RMK AO2
ADU,2017-04-01 21:15,-94.9204,41.6994,51.80,37.40,57.77,100.00,7.00,0.00,30.18,M,10.00,M,CLR,M,M,M,M,M,M,M,M,KADU 012115Z AUTO 10007KT 10SM CLR 11/03 A3018 RMK AO2
ADU,2017-04-01 21:20,-94.9204,41.6994,53.60,37.40,54.07,100.00,7.00,0.00,30.17,M,10.00,M,CLR,M,M,M,M,M,M,M,M,KADU 012120Z AUTO 10007KT 10SM CLR 12/03 A3017 RMK AO2
ADU,2017-04-01 21:30,-94.9204,41.6994,51.80,37.40,57.77,110.00,6.00,0.00,30.18,M,10.00,M,CLR,M,M,M,M,M,M,M,M,KADU 012130Z AUTO 11006KT 10SM CLR 11/03 A3018 RMK AO2
ADU,2017-04-01 21:35,-94.9204,41.6994,51.80,37.40,57.77,100.00,7.00,0.00,30.18,M,10.00,M,CLR,M,M,M,M,M,M,M,M,KADU 012135Z AUTO 10007KT 10SM CLR 11/03 A3018 RMK AO2
ADU,2017-04-01 21:40,-94.9204,41.6994,51.80,37.40,57.77,110.00,7.00,0.00,30.18,M,10.00,M,CLR,M,M,M,M,M,M,M,M,KADU 012140Z AUTO 11007KT 070V130 10SM CLR 11/03 A3018 RMK AO2
ADU,2017-04-01 21:50,-94.9204,41.6994,51.80,37.40,57.77,100.00,5.00,0.00,30.18,M,10.00,M,SCT,M,M,M,6500.00,M,M,M,M,KADU 012150Z AUTO 10005KT 10SM SCT065 11/03 A3018 RMK AO2
ADU,2017-04-01 21:55,-94.9204,41.6994,51.80,37.40,57.77,100.00,7.00,0.00,30.18,M,10.00,M,SCT,M,M,M,6500.00,M,M,M,M,KADU 012155Z AUTO 10007KT 10SM SCT065 11/03 A3018 RMK AO2
ADU,2017-04-01 22:00,-94.9204,41.6994,51.80,37.40,57.77,90.00,6.00,0.00,30.18,M,10.00,M,SCT,M,M,M,6500.00,M,M,M,M,KADU 012200Z AUTO 09006KT 10SM SCT065 11/03 A3018 RMK AO2
ADU,2017-04-01 22:10,-94.9204,41.6994,51.80,37.40,57.77,90.00,4.00,0.00,30.19,M,10.00,M,SCT,M,M,M,6500.00,M,M,M,M,KADU 012210Z AUTO 09004KT 10SM SCT065 11/03 A3019 RMK AO2
ADU,2017-04-01 22:15,-94.9204,41.6994,51.80,37.40,57.77,110.00,5.00,0.00,30.19,M,10.00,M,SCT,M,M,M,6500.00,M,M,M,M,KADU 012215Z AUTO 11005KT 10SM SCT065 11/03 A3019 RMK AO2
ADU,2017-04-01 22:20,-94.9204,41.6994,51.80,37.40,57.77,100.00,5.00,0.00,30.19,M,10.00,M,SCT,M,M,M,6500.00,M,M,M,M,KADU 012220Z AUTO 10005KT 10SM SCT065 11/03 A3019 RMK AO2
ADU,2017-04-01 22:30,-94.9204,41.6994,51.80,37.40,57.77,80.00,8.00,0.00,30.17,M,10.00,M,CLR,M,M,M,M,M,M,M,M,KADU 012230Z AUTO 08008KT 10SM CLR 11/03 A3017 RMK AO2
ADU,2017-04-01 22:35,-94.9204,41.6994,50.00,37.40,61.76,80.00,9.00,0.00,30.16,M,10.00,M,CLR,M,M,M,M,M,M,M,M,KADU 012235Z AUTO 08009KT 10SM CLR 10/03 A3016 RMK AO2
ADU,2017-04-01 22:40,-94.9204,41.6994,50.00,37.40,61.76,90.00,8.00,0.00,30.16,M,10.00,M,CLR,M,M,M,M,M,M,M,M,KADU 012240Z AUTO 09008KT 10SM CLR 10/03 A3016 RMK AO2
ADU,2017-04-01 22:50,-94.9204,41.6994,50.00,37.40,61.76,80.00,5.00,0.00,30.17,M,10.00,M,CLR,M,M,M,M,M,M,M,M,KADU 012250Z AUTO 08005KT 10SM CLR 10/03 A3017 RMK AO2
ADU,2017-04-01 22:55,-94.9204,41.6994,50.00,37.40,61.76,90.00,6.00,0.00,30.17,M,10.00,M,CLR,M,M,M,M,M,M,M,M,KADU 012255Z AUTO 09006KT 10SM CLR 10/03 A3017 RMK AO2
ADU,2017-04-01 23:00,-94.9204,41.6994,51.80,37.40,57.77,90.00,6.00,0.00,30.17,M,10.00,M,CLR,M,M,M,M,M,M,M,M,KADU 012300Z AUTO 09006KT 10SM CLR 11/03 A3017 RMK AO2
ADU,2017-04-01 23:10,-94.9204,41.6994,50.00,37.40,61.76,90.00,5.00,0.00,30.18,M,10.00,M,SCT,M,M,M,6500.00,M,M,M,M,KADU 012310Z AUTO 09005KT 10SM SCT065 10/03 A3018 RMK AO2
ADU,2017-04-01 23:15,-94.9204,41.6994,50.00,37.40,61.76,90.00,5.00,0.00,30.18,M,10.00,M,SCT,M,M,M,6500.00,M,M,M,M,KADU 012315Z AUTO 09005KT 10SM SCT065 10/03 A3018 RMK AO2
ADU,2017-04-01 23:20,-94.9204,41.6994,50.00,37.40,61.76,80.00,5.00,0.00,30.17,M,10.00,M,SCT,M,M,M,6500.00,M,M,M,M,KADU 012320Z AUTO 08005KT 10SM SCT065 10/03 A3017 RMK AO2
ADU,2017-04-01 23:30,-94.9204,41.6994,50.00,37.40,61.76,90.00,5.00,0.00,30.17,M,10.00,M,SCT,M,M,M,6500.00,M,M,M,M,KADU 012330Z AUTO 09005KT 10SM SCT065 10/03 A3017 RMK AO2
ADU,2017-04-01 23:35,-94.9204,41.6994,50.00,37.40,61.76,90.00,6.00,0.00,30.17,M,10.00,M,CLR,M,M,M,M,M,M,M,M,KADU 012335Z AUTO 09006KT 10SM CLR 10/03 A3017 RMK AO2
ADU,2017-04-01 23:40,-94.9204,41.6994,50.00,37.40,61.76,90.00,7.00,0.00,30.18,M,10.00,M,CLR,M,M,M,M,M,M,M,M,KADU 012340Z AUTO 09007KT 10SM CLR 10/03 A3018 RMK AO2
ADU,2017-04-01 23:50,-94.9204,41.6994,48.20,37.40,66.05,90.00,6.00,0.00,30.18,M,10.00,M,CLR,M,M,M,M,M,M,M,M,KADU 012350Z AUTO 09006KT 10SM CLR 09/03 A3018 RMK AO2
ADU,2017-04-01 23:55,-94.9204,41.6994,48.20,37.40,66.05,70.00,4.00,0.00,30.18,M,10.00,M,SCT,M,M,M,11000.00,M,M,M,M,KADU 012355Z AUTO 07004KT 10SM SCT110 09/03 A3018 RMK AO2
