#DEBUG: Format Typ    -> comma
#DEBUG: Time Period   -> 2017-04-01 00:00:00+00:00 2017-04-02 00:00:00+00:00
#DEBUG: Time Zone     -> Etc/UTC
#DEBUG: Data Contact   -> daryl herzmann akrherz@iastate.edu 515-294-5978
#DEBUG: Entries Found -> -1
station,valid,lon,lat,tmpf, dwpf, relh, drct, sknt, p01i, alti, mslp, vsby, gust, skyc1, skyc2, skyc3, skyc4, skyl1, skyl2, skyl3, skyl4, presentwx, metar
AEJ,2017-04-01 00:15,-106.1207,38.8142,32.00,30.20,92.97,0.00,0.00,0.00,29.87,M,0.25,M,OVC,M,M,M,400.00,M,M,M,+SN,KAEJ 010015Z AUTO 00000KT 1/4SM +SN OVC004 00/M01 A2987 RMK AO2 T00001010
AEJ,2017-04-01 00:35,-106.1207,38.8142,31.80,30.20,93.73,0.00,0.00,0.00,29.87,M,1.00,M,OVC,M,M,M,400.00,M,M,M,-SN,KAEJ 010035Z AUTO 00000KT 1SM -SN OVC004 00/M01 A2987 RMK AO2 T10011010
AEJ,2017-04-01 00:55,-106.1207,38.8142,31.80,30.20,93.73,0.00,0.00,0.00,29.89,M,1.50,M,BKN,OVC,M,M,1300.00,1800.00,M,M,-SN,KAEJ 010055Z AUTO 00000KT 1 1/2SM -SN BKN013 OVC018 00/M01 A2989 RMK AO2 T10011010
AEJ,2017-04-01 01:15,-106.1207,38.8142,31.80,30.20,93.73,0.00,0.00,0.00,29.89,M,1.75,M,BKN,BKN,OVC,M,1100.00,1500.00,3200.00,M,-SN,KAEJ 010115Z AUTO 00000KT 1 3/4SM -SN BKN011 BKN015 OVC032 00/M01 A2989 RMK AO2 T10011010
AEJ,2017-04-01 01:35,-106.1207,38.8142,32.00,30.20,92.97,0.00,0.00,0.00,29.90,M,2.00,M,BKN,BKN,OVC,M,1100.00,1400.00,3400.00,M,-SN,KAEJ 010135Z AUTO 00000KT 2SM -SN BKN011 BKN014 OVC034 00/M01 A2990 RMK AO2 T00001010
AEJ,2017-04-01 01:55,-106.1207,38.8142,31.80,30.00,92.97,110.00,4.00,0.00,29.91,M,1.00,M,OVC,M,M,M,400.00,M,M,M,SN,KAEJ 010155Z AUTO 11004KT 1SM SN OVC004 00/M01 A2991 RMK AO2 T10011011
AEJ,2017-04-01 02:15,-106.1207,38.8142,31.50,29.80,93.34,0.00,0.00,0.00,29.93,M,2.00,M,BKN,OVC,M,M,400.00,1000.00,M,M,-SN,KAEJ 010215Z AUTO 00000KT 2SM -SN BKN004 OVC010 00/M01 A2993 RMK AO2 T10031012
AEJ,2017-04-01 02:35,-106.1207,38.8142,31.30,29.80,94.09,130.00,4.00,0.00,29.94,M,2.00,M,BKN,OVC,M,M,800.00,1500.00,M,M,-SN,KAEJ 010235Z AUTO 13004KT 2SM -SN BKN008 OVC015 00/M01 A2994 RMK AO2 LTG DSNT SE T10041012
AEJ,2017-04-01 02:55,-106.1207,38.8142,31.10,29.80,94.86,130.00,6.00,0.00,29.95,M,1.50,M,OVC,M,M,M,300.00,M,M,M,-SN,KAEJ 010255Z AUTO 13006KT 1 1/2SM -SN OVC003 00/M01 A2995 RMK AO2 T10051012
AEJ,2017-04-01 03:15,-106.1207,38.8142,30.90,29.70,95.24,90.00,4.00,0.00,29.95,M,1.50,M,OVC,M,M,M,500.00,M,M,M,-SN,KAEJ 010315Z AUTO 09004KT 1 1/2SM -SN OVC005 M01/M01 A2995 RMK AO2 T10061013
AEJ,2017-04-01 03:35,-106.1207,38.8142,30.70,29.30,94.46,120.00,5.00,0.00,29.96,M,1.50,M,BKN,BKN,OVC,M,500.00,900.00,1500.00,M,-SN,KAEJ 010335Z AUTO 12005KT 1 1/2SM -SN BKN005 BKN009 OVC015 M01/M01 A2996 RMK AO2 T10071015
AEJ,2017-04-01 03:55,-106.1207,38.8142,30.20,29.10,95.62,110.00,3.00,0.00,29.95,M,1.75,M,BKN,OVC,M,M,500.00,1500.00,M,M,-SN,KAEJ 010355Z AUTO 11003KT 1 3/4SM -SN BKN005 OVC015 M01/M02 A2995 RMK AO2 T10101016
AEJ,2017-04-01 04:15,-106.1207,38.8142,30.20,29.10,95.62,120.00,7.00,0.00,29.99,M,1.25,M,OVC,M,M,M,500.00,M,M,M,SN,KAEJ 010415Z AUTO 12007KT 1 1/4SM SN OVC005 M01/M02 A2999 RMK AO2 T10101016
AEJ,2017-04-01 04:35,-106.1207,38.8142,30.20,29.10,95.62,120.00,5.00,0.00,29.99,M,1.00,M,OVC,M,M,M,500.00,M,M,M,SN,KAEJ 010435Z AUTO 12005KT 1SM SN OVC005 M01/M02 A2999 RMK AO2 T10101016
AEJ,2017-04-01 04:55,-106.1207,38.8142,29.80,28.60,95.22,130.00,5.00,0.00,30.00,M,2.50,M,SCT,BKN,OVC,M,500.00,1500.00,2000.00,M,-SN,KAEJ 010455Z AUTO 13005KT 2 1/2SM -SN SCT005 BKN015 OVC020 M01/M02 A3000 RMK AO2 T10121019
AEJ,2017-04-01 05:15,-106.1207,38.8142,30.00,28.60,94.45,100.00,4.00,0.00,30.01,M,2.50,M,SCT,BKN,OVC,M,300.00,800.00,2300.00,M,-SN,KAEJ 010515Z AUTO 10004KT 2 1/2SM -SN SCT003 BKN008 OVC023 M01/M02 A3001 RMK AO2 T10111019
AEJ,2017-04-01 05:35,-106.1207,38.8142,29.80,28.40,94.44,100.00,3.00,0.00,30.01,M,0.75,M,OVC,M,M,M,400.00,M,M,M,SN,KAEJ 010535Z AUTO 10003KT 3/4SM SN OVC004 M01/M02 A3001 RMK AO2 T10121020
AEJ,2017-04-01 05:55,-106.1207,38.8142,29.80,28.60,95.22,0.00,0.00,0.00,30.02,M,1.75,M,OVC,M,M,M,400.00,M,M,M,-SN,KAEJ 010555Z AUTO 00000KT 1 3/4SM -SN OVC004 M01/M02 A3002 RMK AO2 T10121019 10000 21012 400801024
AEJ,2017-04-01 06:15,-106.1207,38.8142,30.00,28.60,94.45,0.00,0.00,0.00,30.02,M,5.00,M,SCT,OVC,M,M,400.00,1000.00,M,M,-SN,KAEJ 010615Z AUTO 00000KT 5SM -SN SCT004 OVC010 M01/M02 A3002 RMK AO2 T10111019
AEJ,2017-04-01 06:35,-106.1207,38.8142,29.70,28.20,94.05,0.00,0.00,0.00,30.02,M,2.00,M,SCT,SCT,OVC,M,400.00,1000.00,4200.00,M,-SN,KAEJ 010635Z AUTO 00000KT 2SM -SN SCT004 SCT010 OVC042 M01/M02 A3002 RMK AO2 LTG DSNT E T10131021
AEJ,2017-04-01 06:55,-106.1207,38.8142,28.80,27.30,94.03,0.00,0.00,0.00,30.03,M,7.00,M,OVC,M,M,M,4000.00,M,M,M,-SN,KAEJ 010655Z AUTO 00000KT 7SM -SN OVC040 M02/M03 A3003 RMK AO2 T10181026
AEJ,2017-04-01 07:15,-106.1207,38.8142,29.10,27.90,95.20,0.00,0.00,0.00,30.03,M,7.00,M,OVC,M,M,M,4000.00,M,M,M,-SN,KAEJ 010715Z AUTO 00000KT 7SM -SN OVC040 M02/M02 A3003 RMK AO2 T10161023
AEJ,2017-04-01 07:35,-106.1207,38.8142,28.00,26.60,94.40,250.00,4.00,0.00,30.03,M,7.00,M,OVC,M,M,M,3600.00,M,M,M,-SN,KAEJ 010735Z AUTO 25004KT 7SM -SN OVC036 M02/M03 A3003 RMK AO2 T10221030
AEJ,2017-04-01 07:55,-106.1207,38.8142,28.20,26.60,93.62,290.00,3.00,0.00,30.03,M,5.00,M,OVC,M,M,M,3400.00,M,M,M,-SN,KAEJ 010755Z AUTO 29003KT 5SM -SN OVC034 M02/M03 A3003 RMK AO2 T10211030
AEJ,2017-04-01 08:15,-106.1207,38.8142,28.00,26.40,93.62,0.00,0.00,0.00,30.03,M,4.00,M,OVC,M,M,M,3200.00,M,M,M,-SN,KAEJ 010815Z AUTO 00000KT 4SM -SN OVC032 M02/M03 A3003 RMK AO2 T10221031
AEJ,2017-04-01 08:35,-106.1207,38.8142,28.40,26.60,92.86,0.00,0.00,0.00,30.03,M,4.00,M,BKN,OVC,M,M,3600.00,4300.00,M,M,-SN,KAEJ 010835Z AUTO 00000KT 4SM -SN BKN036 OVC043 M02/M03 A3003 RMK AO2 T10201030
AEJ,2017-04-01 08:55,-106.1207,38.8142,28.20,26.60,93.62,250.00,3.00,0.00,30.04,M,3.00,M,OVC,M,M,M,3600.00,M,M,M,-SN,KAEJ 010855Z AUTO 25003KT 3SM -SN OVC036 M02/M03 A3004 RMK AO2 T10211030
AEJ,2017-04-01 09:15,-106.1207,38.8142,28.60,25.90,89.47,250.00,3.00,0.00,30.05,M,2.50,M,OVC,M,M,M,3500.00,M,M,M,-SN,KAEJ 010915Z AUTO 25003KT 2 1/2SM -SN OVC035 M02/M03 A3005 RMK AO2 T10191034
AEJ,2017-04-01 09:35,-106.1207,38.8142,28.40,25.50,88.72,0.00,0.00,0.00,30.05,M,4.00,M,OVC,M,M,M,3500.00,M,M,M,-SN,KAEJ 010935Z AUTO 00000KT 4SM -SN OVC035 M02/M04 A3005 RMK AO2 T10201036
AEJ,2017-04-01 09:55,-106.1207,38.8142,28.40,25.90,90.21,330.00,4.00,0.00,30.05,M,5.00,M,OVC,M,M,M,3300.00,M,M,M,-SN,KAEJ 010955Z AUTO 33004KT 5SM -SN OVC033 M02/M03 A3005 RMK AO2 T10201034
AEJ,2017-04-01 10:15,-106.1207,38.8142,28.00,25.30,89.44,310.00,4.00,0.00,30.05,M,5.00,M,BKN,OVC,M,M,3300.00,4200.00,M,M,-SN,KAEJ 011015Z AUTO 31004KT 5SM -SN BKN033 OVC042 M02/M04 A3005 RMK AO2 T10221037
AEJ,2017-04-01 10:35,-106.1207,38.8142,27.90,25.30,89.81,350.00,3.00,0.00,30.05,M,10.00,M,BKN,OVC,M,M,3200.00,3800.00,M,M,M,KAEJ 011035Z AUTO 35003KT 10SM BKN032 OVC038 M02/M04 A3005 RMK AO2 T10231037
AEJ,2017-04-01 10:55,-106.1207,38.8142,28.40,26.60,92.86,360.00,3.00,0.00,30.07,M,10.00,M,OVC,M,M,M,3000.00,M,M,M,M,KAEJ 011055Z AUTO 36003KT 10SM OVC030 M02/M03 A3007 RMK AO2 T10201030
AEJ,2017-04-01 11:15,-106.1207,38.8142,28.40,26.40,92.09,0.00,0.00,0.00,30.07,M,10.00,M,OVC,M,M,M,3200.00,M,M,M,M,KAEJ 011115Z AUTO 00000KT 10SM OVC032 M02/M03 A3007 RMK AO2 T10201031
AEJ,2017-04-01 11:35,-106.1207,38.8142,27.50,25.50,92.06,0.00,0.00,0.00,30.07,M,10.00,M,OVC,M,M,M,3400.00,M,M,M,M,KAEJ 011135Z AUTO 00000KT 10SM OVC034 M02/M04 A3007 RMK AO2 T10251036
AEJ,2017-04-01 11:55,-106.1207,38.8142,27.50,25.30,91.30,310.00,3.00,0.00,30.07,M,10.00,M,OVC,M,M,M,3400.00,M,M,M,M,KAEJ 011155Z AUTO 31003KT 10SM OVC034 M02/M04 A3007 RMK AO2 T10251037 11011 21027
AEJ,2017-04-01 12:35,-106.1207,38.8142,27.50,25.20,90.92,0.00,0.00,0.00,30.09,M,10.00,M,OVC,M,M,M,3200.00,M,M,M,M,KAEJ 011235Z AUTO 00000KT 10SM OVC032 M02/M04 A3009 RMK AO2 T10251038
AEJ,2017-04-01 12:55,-106.1207,38.8142,28.00,24.60,86.87,250.00,4.00,0.00,30.10,M,10.00,M,OVC,M,M,M,3400.00,M,M,M,M,KAEJ 011255Z AUTO 25004KT 10SM OVC034 M02/M04 A3010 RMK AO2 T10221041
AEJ,2017-04-01 13:15,-106.1207,38.8142,27.90,23.90,84.72,0.00,0.00,0.00,30.10,M,10.00,M,OVC,M,M,M,3600.00,M,M,M,M,KAEJ 011315Z AUTO 00000KT 10SM OVC036 M02/M04 A3010 RMK AO2 T10231045
AEJ,2017-04-01 13:35,-106.1207,38.8142,28.00,23.90,84.37,260.00,3.00,0.00,30.10,M,10.00,M,OVC,M,M,M,3600.00,M,M,M,M,KAEJ 011335Z AUTO 26003KT 10SM OVC036 M02/M04 A3010 RMK AO2 T10221045
AEJ,2017-04-01 13:55,-106.1207,38.8142,28.60,23.70,81.63,240.00,4.00,0.00,30.11,M,10.00,M,OVC,M,M,M,3600.00,M,M,M,M,KAEJ 011355Z AUTO 24004KT 10SM OVC036 M02/M05 A3011 RMK AO2 T10191046
AEJ,2017-04-01 14:15,-106.1207,38.8142,28.60,23.90,82.32,240.00,4.00,0.00,30.11,M,5.00,M,OVC,M,M,M,3600.00,M,M,M,-SN,KAEJ 011415Z AUTO 24004KT 5SM -SN OVC036 M02/M04 A3011 RMK AO2 T10191045
AEJ,2017-04-01 14:35,-106.1207,38.8142,29.10,24.30,82.01,240.00,4.00,0.00,30.11,M,10.00,M,OVC,M,M,M,3600.00,M,M,M,M,KAEJ 011435Z AUTO 24004KT 10SM OVC036 M02/M04 A3011 RMK AO2 T10161043
AEJ,2017-04-01 14:55,-106.1207,38.8142,29.70,24.40,80.37,0.00,0.00,0.00,30.12,M,7.00,M,OVC,M,M,M,3600.00,M,M,M,-SN,KAEJ 011455Z AUTO 00000KT 7SM -SN OVC036 M01/M04 A3012 RMK AO2 T10131042
AEJ,2017-04-01 15:15,-106.1207,38.8142,30.20,24.80,80.07,220.00,3.00,0.00,30.12,M,10.00,M,OVC,M,M,M,3600.00,M,M,M,M,KAEJ 011515Z AUTO 22003KT 10SM OVC036 M01/M04 A3012 RMK AO2 T10101040
AEJ,2017-04-01 15:35,-106.1207,38.8142,29.80,26.60,87.70,120.00,3.00,0.00,30.12,M,10.00,M,OVC,M,M,M,3800.00,M,M,M,M,KAEJ 011535Z AUTO 12003KT 10SM OVC038 M01/M03 A3012 RMK AO2 T10121030
AEJ,2017-04-01 15:55,-106.1207,38.8142,30.20,26.60,86.28,0.00,0.00,0.00,30.12,M,10.00,M,OVC,M,M,M,4000.00,M,M,M,M,KAEJ 011555Z AUTO 00000KT 10SM OVC040 M01/M03 A3012 RMK AO2 T10101030
AEJ,2017-04-01 16:15,-106.1207,38.8142,30.90,26.80,84.56,100.00,3.00,0.00,30.13,M,10.00,M,OVC,M,M,M,4000.00,M,M,M,M,KAEJ 011615Z AUTO 10003KT 10SM OVC040 M01/M03 A3013 RMK AO2 T10061029
AEJ,2017-04-01 16:35,-106.1207,38.8142,31.30,25.90,80.16,0.00,0.00,0.00,30.12,M,7.00,M,SCT,OVC,M,M,2700.00,4400.00,M,M,M,KAEJ 011635Z AUTO 00000KT 7SM SCT027 OVC044 00/M03 A3012 RMK AO2 T10041034
AEJ,2017-04-01 16:55,-106.1207,38.8142,31.10,26.20,81.82,0.00,0.00,0.00,30.12,M,7.00,M,OVC,M,M,M,4400.00,M,M,M,-SN,KAEJ 011655Z AUTO 00000KT 7SM -SN OVC044 00/M03 A3012 RMK AO2 T10051032
AEJ,2017-04-01 17:15,-106.1207,38.8142,31.80,25.00,75.68,0.00,0.00,0.00,30.12,M,10.00,M,SCT,OVC,M,M,4400.00,5000.00,M,M,M,KAEJ 011715Z AUTO 00000KT 10SM SCT044 OVC050 00/M04 A3012 RMK AO2 T10011039
AEJ,2017-04-01 17:35,-106.1207,38.8142,32.00,25.30,76.01,0.00,0.00,0.00,30.11,M,10.00,M,BKN,BKN,OVC,M,3600.00,4400.00,5000.00,M,M,KAEJ 011735Z AUTO 00000KT 10SM BKN036 BKN044 OVC050 00/M04 A3011 RMK AO2 T00001037
AEJ,2017-04-01 17:55,-106.1207,38.8142,32.40,26.20,77.64,120.00,6.00,0.00,30.10,M,10.00,M,OVC,M,M,M,3400.00,M,M,M,M,KAEJ 011755Z AUTO 12006KT 10SM OVC034 00/M03 A3010 RMK AO2 T00021032 10003 21025
AEJ,2017-04-01 18:15,-106.1207,38.8142,32.00,27.70,83.94,120.00,5.00,0.00,30.10,M,10.00,M,SCT,OVC,M,M,3200.00,4000.00,M,M,M,KAEJ 011815Z AUTO 12005KT 10SM SCT032 OVC040 00/M02 A3010 RMK AO2 T00001024
AEJ,2017-04-01 18:35,-106.1207,38.8142,32.00,27.50,83.25,110.00,5.00,0.00,30.09,M,10.00,M,OVC,M,M,M,3800.00,M,M,M,M,KAEJ 011835Z AUTO 11005KT 10SM OVC038 00/M02 A3009 RMK AO2 T00001025
AEJ,2017-04-01 18:55,-106.1207,38.8142,32.90,27.30,79.63,120.00,5.00,0.00,30.09,M,10.00,M,OVC,M,M,M,3600.00,M,M,M,M,KAEJ 011855Z AUTO 12005KT 10SM OVC036 01/M03 A3009 RMK AO2 T00051026
AEJ,2017-04-01 19:15,-106.1207,38.8142,32.90,26.80,78.01,110.00,4.00,0.00,30.09,M,10.00,M,OVC,M,M,M,3400.00,M,M,M,M,KAEJ 011915Z AUTO 11004KT 10SM OVC034 01/M03 A3009 RMK AO2 T00051029
AEJ,2017-04-01 19:35,-106.1207,38.8142,33.10,26.80,77.38,0.00,0.00,0.00,30.08,M,10.00,M,OVC,M,M,M,3400.00,M,M,M,M,KAEJ 011935Z AUTO 00000KT 10SM OVC034 01/M03 A3008 RMK AO2 T00061029
AEJ,2017-04-01 19:55,-106.1207,38.8142,34.30,27.90,77.18,0.00,0.00,0.00,30.07,M,10.00,M,BKN,M,M,M,3600.00,M,M,M,M,KAEJ 011955Z AUTO 00000KT 10SM BKN036 01/M02 A3007 RMK AO2 T00131023
AEJ,2017-04-01 20:15,-106.1207,38.8142,35.80,27.50,71.52,0.00,0.00,0.00,30.07,M,10.00,M,SCT,SCT,BKN,M,3600.00,4500.00,11000.00,M,M,KAEJ 012015Z AUTO 00000KT 10SM SCT036 SCT045 BKN110 02/M02 A3007 RMK AO2 T00211025
AEJ,2017-04-01 20:35,-106.1207,38.8142,35.60,28.80,76.04,0.00,0.00,0.00,30.07,M,10.00,M,BKN,OVC,M,M,4300.00,11000.00,M,M,M,KAEJ 012035Z AUTO 00000KT 10SM BKN043 OVC110 02/M02 A3007 RMK AO2 T00201018
AEJ,2017-04-01 20:55,-106.1207,38.8142,36.00,28.60,74.23,0.00,0.00,0.00,30.07,M,10.00,M,OVC,M,M,M,4300.00,M,M,M,M,KAEJ 012055Z AUTO 00000KT 10SM OVC043 02/M02 A3007 RMK AO2 LTG DSNT S T00221019
AEJ,2017-04-01 21:15,-106.1207,38.8142,36.00,28.60,74.23,260.00,4.00,0.00,30.06,M,10.00,M,OVC,M,M,M,4300.00,M,M,M,M,KAEJ 012115Z AUTO 26004KT 10SM OVC043 02/M02 A3006 RMK AO2 T00221019
AEJ,2017-04-01 21:35,-106.1207,38.8142,35.60,27.50,72.09,0.00,0.00,0.00,30.06,M,10.00,M,OVC,M,M,M,4300.00,M,M,M,M,KAEJ 012135Z AUTO 00000KT 10SM OVC043 02/M02 A3006 RMK AO2 LTG DSNT S T00201025
AEJ,2017-04-01 21:55,-106.1207,38.8142,36.10,26.10,66.71,260.00,3.00,0.00,30.05,M,10.00,M,OVC,M,M,M,4700.00,M,M,M,M,KAEJ 012155Z AUTO 26003KT 10SM OVC047 02/M03 A3005 RMK AO2 LTG DSNT S T00231033
AEJ,2017-04-01 22:15,-106.1207,38.8142,36.90,27.50,68.48,0.00,0.00,0.00,30.05,M,10.00,M,BKN,OVC,M,M,4900.00,10000.00,M,M,M,KAEJ 012215Z AUTO 00000KT 10SM BKN049 OVC100 03/M02 A3005 RMK AO2 LTG DSNT S T00271025
AEJ,2017-04-01 22:35,-106.1207,38.8142,36.90,28.60,71.64,0.00,0.00,0.00,30.05,M,10.00,M,OVC,M,M,M,9000.00,M,M,M,M,KAEJ 012235Z AUTO 00000KT 10SM OVC090 03/M02 A3005 RMK AO2 LTG DSNT S T00271019
AEJ,2017-04-01 22:55,-106.1207,38.8142,36.90,27.50,68.48,0.00,0.00,0.00,30.04,M,10.00,M,BKN,BKN,M,M,9000.00,12000.00,M,M,M,KAEJ 012255Z AUTO 00000KT 10SM BKN090 BKN120 03/M02 A3004 RMK AO2 T00271025
AEJ,2017-04-01 23:15,-106.1207,38.8142,37.60,28.60,69.69,0.00,0.00,0.00,30.03,M,10.00,M,OVC,M,M,M,10000.00,M,M,M,M,KAEJ 012315Z AUTO 00000KT 10SM OVC100 03/M02 A3003 RMK AO2 T00311019
AEJ,2017-04-01 23:35,-106.1207,38.8142,37.80,28.40,68.58,120.00,5.00,0.00,30.03,M,10.00,M,SCT,BKN,M,M,10000.00,12000.00,M,M,M,KAEJ 012335Z AUTO 12005KT 10SM SCT100 BKN120 03/M02 A3003 RMK AO2 T00321020
AEJ,2017-04-01 23:55,-106.1207,38.8142,37.80,28.00,67.47,150.00,3.00,0.00,30.03,M,10.00,M,CLR,M,M,M,M,M,M,M,M,KAEJ 012355Z AUTO 15003KT 10SM CLR 03/M02 A3003 RMK AO2 T00321022 10032 20000
