#DEBUG: Format Typ    -> comma
#DEBUG: Time Period   -> 2017-04-01 00:00:00+00:00 2017-04-02 00:00:00+00:00
#DEBUG: Time Zone     -> Etc/UTC
#DEBUG: Data Contact   -> daryl herzmann akrherz@iastate.edu 515-294-5978
#DEBUG: Entries Found -> -1
station,valid,lon,lat,tmpf, dwpf, relh, drct, sknt, p01i, alti, mslp, vsby, gust, skyc1, skyc2, skyc3, skyc4, skyl1, skyl2, skyl3, skyl4, presentwx, metar
AFF,2017-04-01 00:08,-104.8128,38.9697,35.60,35.60,100.00,100.00,3.00,0.00,29.89,M,10.00,M,OVC,M,M,M,500.00,M,M,M,-RA,KAFF 010008Z AUTO 10003KT 10SM -RA OVC005 02/02 A2989 RMK AO2
AFF,2017-04-01 00:13,-104.8128,38.9697,35.60,35.60,100.00,140.00,5.00,0.00,29.90,M,10.00,M,OVC,M,M,M,400.00,M,M,M,-RA,KAFF 010013Z AUTO 14005KT 10SM -RA OVC004 02/02 A2990 RMK AO2
AFF,2017-04-01 00:23,-104.8128,38.9697,35.60,35.60,100.00,150.00,5.00,0.00,29.91,M,10.00,M,OVC,M,M,M,500.00,M,M,M,-RA,KAFF 010023Z AUTO 15005KT 10SM -RA OVC005 02/02 A2991 RMK AO2
AFF,2017-04-01 00:39,-104.8128,38.9697,35.60,35.60,100.00,160.00,5.00,0.00,29.92,M,10.00,M,BKN,OVC,M,M,500.00,1200.00,M,M,M,KAFF 010039Z AUTO 16005KT 10SM BKN005 OVC012 02/02 A2992 RMK AO2 RAE33DZB33E39 BKN V OVC
AFF,2017-04-01 00:48,-104.8128,38.9697,35.60,35.60,100.00,170.00,3.00,0.00,29.92,M,10.00,M,OVC,M,M,M,500.00,M,M,M,-DZ,KAFF 010048Z AUTO 17003KT 10SM -DZ OVC005 02/02 A2992 RMK AO2 RAE33DZB33E39DZB48 OVC V BKN
AFF,2017-04-01 00:58,-104.8128,38.9697,35.20,35.10,99.60,120.00,5.00,24.00,29.92,1013.10,9.00,M,OVC,M,M,M,500.00,M,M,M,-DZ,KAFF 010058Z AUTO 12005KT 9SM -DZ OVC005 02/02 A2992 RMK AO2 RAE33DZB33E39DZB48 SLP131 P2400 T00180017
AFF,2017-04-01 01:04,-104.8128,38.9697,35.60,35.60,100.00,130.00,4.00,0.00,29.92,M,9.00,M,BKN,OVC,M,M,500.00,1300.00,M,M,M,KAFF 010104Z AUTO 13004KT 9SM BKN005 OVC013 02/02 A2992 RMK AO2 DZE04 BKN V OVC
AFF,2017-04-01 01:25,-104.8128,38.9697,35.60,33.80,93.08,140.00,3.00,0.00,29.93,M,10.00,M,BKN,BKN,OVC,M,600.00,1300.00,2300.00,M,-DZ,KAFF 010125Z AUTO 14003KT 10SM -DZ BKN006 BKN013 OVC023 02/01 A2993 RMK AO2 DZE04DZB25 BKN006 V OVC
AFF,2017-04-01 01:40,-104.8128,38.9697,33.80,33.80,100.00,150.00,6.00,0.00,29.95,M,5.00,M,BKN,OVC,M,M,400.00,2000.00,M,M,-SN BR,KAFF 010140Z AUTO 15006KT 5SM -SN BR BKN004 OVC020 01/01 A2995 RMK AO2 DZE04DZB25E28SNB28 CIG 004V006 PRESRR
AFF,2017-04-01 01:45,-104.8128,38.9697,32.00,32.00,100.00,150.00,6.00,0.00,29.95,M,3.00,M,SCT,BKN,OVC,M,200.00,600.00,2000.00,M,-SN BR,KAFF 010145Z AUTO 15006KT 3SM -SN BR SCT002 BKN006 OVC020 00/00 A2995 RMK AO2 DZE04DZB25E28SNB28 CIG 004V006
AFF,2017-04-01 01:50,-104.8128,38.9697,32.00,32.00,100.00,160.00,5.00,0.00,29.95,M,3.00,M,BKN,OVC,M,M,200.00,1800.00,M,M,-SN BR,KAFF 010150Z AUTO 16005KT 3SM -SN BR BKN002 OVC018 00/00 A2995 RMK AO2 DZE04DZB25E28SNB28 CIG 002V006 BKN V SCT
AFF,2017-04-01 01:55,-104.8128,38.9697,32.00,32.00,100.00,170.00,4.00,0.00,29.95,M,3.00,M,SCT,OVC,M,M,200.00,1600.00,M,M,-SN BR,KAFF 010155Z AUTO 17004KT 3SM -SN BR SCT002 OVC016 00/00 A2995 RMK AO2 DZE04DZB25E28SNB28 CIG 002V018
AFF,2017-04-01 01:58,-104.8128,38.9697,33.10,32.90,99.20,170.00,4.00,18.85,29.95,1014.80,3.00,M,SCT,OVC,M,M,200.00,1600.00,M,M,-SN BR,KAFF 010158Z AUTO 17004KT 3SM -SN BR SCT002 OVC016 01/01 A2995 RMK AO2 DZE04DZB25E28SNB28 CIG 002V018 SLP148 P1885 T00060005
AFF,2017-04-01 02:03,-104.8128,38.9697,32.00,32.00,100.00,180.00,4.00,0.00,29.96,M,3.00,M,BKN,OVC,M,M,200.00,1500.00,M,M,-SN BR,KAFF 010203Z AUTO 18004KT 3SM -SN BR BKN002 OVC015 00/00 A2996 RMK AO2 CIG 002V018 BKN V SCT
AFF,2017-04-01 02:08,-104.8128,38.9697,32.00,32.00,100.00,200.00,3.00,0.00,29.95,M,4.00,M,BKN,OVC,M,M,200.00,1500.00,M,M,-SN BR,KAFF 010208Z AUTO 20003KT 4SM -SN BR BKN002 OVC015 00/00 A2995 RMK AO2 CIG 002V016 BKN V SCT
AFF,2017-04-01 02:13,-104.8128,38.9697,32.00,32.00,100.00,0.00,0.00,0.00,29.95,M,4.00,M,BKN,OVC,M,M,200.00,1700.00,M,M,-SN BR,KAFF 010213Z AUTO 00000KT 4SM -SN BR BKN002 OVC017 00/00 A2995 RMK AO2
AFF,2017-04-01 02:23,-104.8128,38.9697,32.00,32.00,100.00,280.00,3.00,0.00,29.95,M,3.00,M,BKN,BKN,OVC,M,200.00,600.00,1600.00,M,-SN BR,KAFF 010223Z AUTO 28003KT 3SM -SN BR BKN002 BKN006 OVC016 00/00 A2995 RMK AO2
AFF,2017-04-01 02:28,-104.8128,38.9697,32.00,32.00,100.00,260.00,3.00,0.00,29.96,M,2.00,M,BKN,OVC,M,M,200.00,600.00,M,M,-SN BR,KAFF 010228Z AUTO 26003KT 2SM -SN BR BKN002 OVC006 00/00 A2996 RMK AO2 VIS 2V4
AFF,2017-04-01 02:38,-104.8128,38.9697,32.00,32.00,100.00,200.00,4.00,0.00,29.98,M,5.00,M,BKN,OVC,M,M,200.00,2100.00,M,M,-SN BR,KAFF 010238Z AUTO 20004KT 5SM -SN BR BKN002 OVC021 00/00 A2998 RMK AO2 PRESRR
AFF,2017-04-01 02:50,-104.8128,38.9697,32.00,32.00,100.00,190.00,4.00,0.00,29.99,M,10.00,M,OVC,M,M,M,400.00,M,M,M,M,KAFF 010250Z AUTO 19004KT 10SM OVC004 00/00 A2999 RMK AO2 SNE50 CIG 002V004
AFF,2017-04-01 02:58,-104.8128,38.9697,32.00,32.00,100.00,200.00,4.00,18.42,29.98,1015.90,10.00,M,OVC,M,M,M,300.00,M,M,M,-SN,KAFF 010258Z AUTO 20004KT 10SM -SN OVC003 00/00 A2998 RMK AO2 SNE50SNB57 OVC V BKN SLP159 P1842 66127 52026
AFF,2017-04-01 03:07,-104.8128,38.9697,32.00,32.00,100.00,200.00,4.00,0.00,29.99,M,10.00,M,OVC,M,M,M,400.00,M,M,M,M,KAFF 010307Z AUTO 20004KT 10SM OVC004 00/00 A2999 RMK AO2 SNE07
AFF,2017-04-01 03:12,-104.8128,38.9697,32.00,32.00,100.00,210.00,4.00,0.00,29.99,M,10.00,M,OVC,M,M,M,500.00,M,M,M,M,KAFF 010312Z AUTO 21004KT 10SM OVC005 00/00 A2999 RMK AO2 SNE07
AFF,2017-04-01 03:26,-104.8128,38.9697,32.00,32.00,100.00,210.00,6.00,0.00,30.00,M,10.00,M,OVC,M,M,M,500.00,M,M,M,-SN,KAFF 010326Z AUTO 21006KT 10SM -SN OVC005 00/00 A3000 RMK AO2 SNE07SNB26
AFF,2017-04-01 03:31,-104.8128,38.9697,32.00,32.00,100.00,0.00,0.00,0.00,29.99,M,10.00,M,OVC,M,M,M,400.00,M,M,M,-SN,KAFF 010331Z AUTO 00000KT 10SM -SN OVC004 00/00 A2999 RMK AO2 SNE07SNB26
AFF,2017-04-01 03:58,-104.8128,38.9697,32.70,32.50,99.20,150.00,6.00,0.00,30.02,1017.30,5.00,M,OVC,M,M,M,200.00,M,M,M,-SN BR,KAFF 010358Z AUTO 15006KT 5SM -SN BR OVC002 00/00 A3002 RMK AO2 SNE07SNB26 OVC V BKN PRESRR SLP173 T00040003
AFF,2017-04-01 04:03,-104.8128,38.9697,32.00,32.00,100.00,150.00,4.00,0.00,30.03,M,3.00,M,BKN,OVC,M,M,200.00,1700.00,M,M,-SN BR,KAFF 010403Z AUTO 15004KT 3SM -SN BR BKN002 OVC017 00/00 A3003 RMK AO2 BKN V OVC
AFF,2017-04-01 04:43,-104.8128,38.9697,32.00,32.00,100.00,150.00,5.00,0.00,30.05,M,2.00,M,OVC,M,M,M,200.00,M,M,M,-SN BR,KAFF 010443Z AUTO 15005KT 2SM -SN BR OVC002 00/00 A3005 RMK AO2 VIS 2V3 OVC V BKN
AFF,2017-04-01 04:48,-104.8128,38.9697,32.00,32.00,100.00,150.00,4.00,0.00,30.05,M,1.50,M,OVC,M,M,M,200.00,M,M,M,-SN BR,KAFF 010448Z AUTO 15004KT 1 1/2SM -SN BR OVC002 00/00 A3005 RMK AO2 VIS 1 1/2V3
AFF,2017-04-01 04:58,-104.8128,38.9697,32.20,32.00,99.20,130.00,5.00,20.14,30.04,1018.00,1.50,M,OVC,M,M,M,200.00,M,M,M,-SN BR,KAFF 010458Z AUTO 13005KT 1 1/2SM -SN BR OVC002 00/00 A3004 RMK AO2 SLP180 P2014 T00011000
AFF,2017-04-01 05:08,-104.8128,38.9697,32.00,32.00,100.00,110.00,4.00,0.00,30.04,M,2.00,M,BKN,OVC,M,M,200.00,1700.00,M,M,-SN BR,KAFF 010508Z AUTO 11004KT 2SM -SN BR BKN002 OVC017 00/00 A3004 RMK AO2 VIS 1 1/2V2 BKN V OVC
AFF,2017-04-01 05:13,-104.8128,38.9697,32.00,32.00,100.00,0.00,0.00,0.00,30.04,M,2.50,M,SCT,OVC,M,M,200.00,1700.00,M,M,-SN BR,KAFF 010513Z AUTO 00000KT 2 1/2SM -SN BR SCT002 OVC017 00/00 A3004 RMK AO2 VIS 1 3/4V2 1/2 CIG 002V017
AFF,2017-04-01 05:28,-104.8128,38.9697,32.00,32.00,100.00,0.00,0.00,0.00,30.03,M,3.00,M,FEW,OVC,M,M,200.00,1900.00,M,M,-SN BR,KAFF 010528Z AUTO 00000KT 3SM -SN BR FEW002 OVC019 00/00 A3003 RMK AO2
AFF,2017-04-01 05:33,-104.8128,38.9697,32.00,32.00,100.00,0.00,0.00,0.00,30.04,M,3.00,M,FEW,OVC,M,M,300.00,2100.00,M,M,-SN BR,KAFF 010533Z AUTO 00000KT 3SM -SN BR FEW003 OVC021 00/00 A3004 RMK AO2
AFF,2017-04-01 05:38,-104.8128,38.9697,32.00,32.00,100.00,0.00,0.00,0.00,30.04,M,4.00,M,FEW,OVC,M,M,300.00,2100.00,M,M,-SN BR,KAFF 010538Z AUTO 00000KT 4SM -SN BR FEW003 OVC021 00/00 A3004 RMK AO2
AFF,2017-04-01 05:48,-104.8128,38.9697,32.00,32.00,100.00,0.00,0.00,0.00,30.04,M,5.00,M,FEW,OVC,M,M,200.00,2500.00,M,M,-SN BR,KAFF 010548Z AUTO 00000KT 5SM -SN BR FEW002 OVC025 00/00 A3004 RMK AO2
AFF,2017-04-01 05:58,-104.8128,38.9697,31.60,31.60,100.00,0.00,0.00,24.00,30.04,1018.60,7.00,M,FEW,OVC,M,M,1000.00,2900.00,M,M,-SN,KAFF 010558Z AUTO 00000KT 7SM -SN FEW010 OVC029 00/00 A3004 RMK AO2 SLP186 P2400 612941 T10021002 10020 21003 50016
AFF,2017-04-01 06:03,-104.8128,38.9697,32.00,32.00,100.00,0.00,0.00,0.00,30.03,M,9.00,M,FEW,OVC,M,M,1000.00,3100.00,M,M,-SN,KAFF 010603Z AUTO 00000KT 9SM -SN FEW010 OVC031 00/00 A3003 RMK AO2
AFF,2017-04-01 06:08,-104.8128,38.9697,32.00,32.00,100.00,0.00,0.00,0.00,30.03,M,9.00,M,BKN,OVC,M,M,2900.00,3800.00,M,M,-SN,KAFF 010608Z AUTO 00000KT 9SM -SN BKN029 OVC038 00/00 A3003 RMK AO2
AFF,2017-04-01 06:23,-104.8128,38.9697,32.00,32.00,100.00,0.00,0.00,0.00,30.04,M,10.00,M,OVC,M,M,M,3000.00,M,M,M,-SN,KAFF 010623Z AUTO 00000KT 10SM -SN OVC030 00/00 A3004 RMK AO2
AFF,2017-04-01 06:28,-104.8128,38.9697,32.00,32.00,100.00,0.00,0.00,0.00,30.04,M,10.00,M,OVC,M,M,M,2900.00,M,M,M,-SN,KAFF 010628Z AUTO 00000KT 10SM -SN OVC029 00/00 A3004 RMK AO2
AFF,2017-04-01 06:58,-104.8128,38.9697,31.80,31.80,100.00,0.00,0.00,24.00,30.05,1018.40,8.00,M,OVC,M,M,M,2600.00,M,M,M,-SN,KAFF 010658Z AUTO 00000KT 8SM -SN OVC026 00/00 A3005 RMK AO2 SLP184 P2400 T10011001 400531003
AFF,2017-04-01 07:08,-104.8128,38.9697,32.00,32.00,100.00,0.00,0.00,0.00,30.05,M,10.00,M,OVC,M,M,M,2400.00,M,M,M,-SN,KAFF 010708Z AUTO 00000KT 10SM -SN OVC024 00/00 A3005 RMK AO2
AFF,2017-04-01 07:18,-104.8128,38.9697,32.00,32.00,100.00,0.00,0.00,0.00,30.06,M,10.00,M,FEW,BKN,OVC,M,1400.00,2600.00,3100.00,M,UP,KAFF 010718Z AUTO 00000KT 10SM UP FEW014 BKN026 OVC031 00/00 A3006 RMK AO2 SNE11UPB11
AFF,2017-04-01 07:23,-104.8128,38.9697,32.00,32.00,100.00,0.00,0.00,0.00,30.06,M,10.00,M,SCT,OVC,M,M,2400.00,3300.00,M,M,UP,KAFF 010723Z AUTO 00000KT 10SM UP SCT024 OVC033 00/00 A3006 RMK AO2 SNE11UPB11
AFF,2017-04-01 07:58,-104.8128,38.9697,31.50,31.30,99.19,0.00,0.00,24.00,30.06,1019.30,10.00,M,OVC,M,M,M,3100.00,M,M,M,UP,KAFF 010758Z AUTO 00000KT 10SM UP OVC031 00/00 A3006 RMK AO2 SNE11UPB11 SLP193 P2400 T10031004
AFF,2017-04-01 08:48,-104.8128,38.9697,32.00,32.00,100.00,0.00,0.00,0.00,30.06,M,10.00,M,SCT,OVC,M,M,3100.00,3900.00,M,M,UP,KAFF 010848Z AUTO 00000KT 10SM UP SCT031 OVC039 00/00 A3006 RMK AO2
AFF,2017-04-01 08:58,-104.8128,38.9697,31.10,30.90,99.19,0.00,0.00,23.92,30.06,1019.30,10.00,M,SCT,OVC,M,M,3000.00,3900.00,M,M,UP,KAFF 010858Z AUTO 00000KT 10SM UP SCT030 OVC039 00/M01 A3006 RMK AO2 SLP193 P2392 67192 T10051006 51007
AFF,2017-04-01 09:26,-104.8128,38.9697,32.00,32.00,100.00,0.00,0.00,0.00,30.07,M,10.00,M,FEW,OVC,M,M,2000.00,3900.00,M,M,-SN,KAFF 010926Z AUTO 00000KT 10SM -SN FEW020 OVC039 00/00 A3007 RMK AO2 UPE04SNB04
AFF,2017-04-01 09:36,-104.8128,38.9697,32.00,32.00,100.00,0.00,0.00,0.00,30.07,M,10.00,M,BKN,OVC,M,M,2100.00,4000.00,M,M,UP,KAFF 010936Z AUTO 00000KT 10SM UP BKN021 OVC040 00/00 A3007 RMK AO2 UPE04SNB04E33UPB33 CIG 021V039 BKN V SCT
AFF,2017-04-01 09:41,-104.8128,38.9697,32.00,32.00,100.00,0.00,0.00,0.00,30.07,M,10.00,M,BKN,OVC,M,M,2300.00,3900.00,M,M,M,KAFF 010941Z AUTO 00000KT 10SM BKN023 OVC039 00/00 A3007 RMK AO2 UPE04SNB04E33UPB33E41 CIG 021V039
AFF,2017-04-01 09:58,-104.8128,38.9697,30.70,30.60,99.60,0.00,0.00,0.00,30.08,1020.10,10.00,M,OVC,M,M,M,2200.00,M,M,M,M,KAFF 010958Z 00000KT 10SM OVC022 M01/M01 A3008 RMK AO2A UPE04SNB04E33UPB33E41 OVC V BKN SLP201 T10071008
AFF,2017-04-01 10:23,-104.8128,38.9697,32.00,32.00,100.00,0.00,0.00,0.00,30.09,M,10.00,M,SCT,OVC,M,M,2200.00,3800.00,M,M,M,KAFF 011023Z AUTO 00000KT 10SM SCT022 OVC038 00/00 A3009 RMK AO2
AFF,2017-04-01 10:28,-104.8128,38.9697,32.00,32.00,100.00,0.00,0.00,0.00,30.09,M,10.00,M,BKN,OVC,M,M,2000.00,3800.00,M,M,M,KAFF 011028Z AUTO 00000KT 10SM BKN020 OVC038 00/00 A3009 RMK AO2 CIG 020V038
AFF,2017-04-01 10:33,-104.8128,38.9697,32.00,32.00,100.00,0.00,0.00,0.00,30.09,M,10.00,M,BKN,OVC,M,M,1900.00,3800.00,M,M,M,KAFF 011033Z AUTO 00000KT 10SM BKN019 OVC038 00/00 A3009 RMK AO2 CIG 019V038
AFF,2017-04-01 10:43,-104.8128,38.9697,32.00,32.00,100.00,0.00,0.00,0.00,30.09,M,10.00,M,BKN,BKN,OVC,M,1400.00,2200.00,3800.00,M,UP,KAFF 011043Z AUTO 00000KT 10SM UP BKN014 BKN022 OVC038 00/00 A3009 RMK AO2 UPB43 CIG 014V022
AFF,2017-04-01 10:58,-104.8128,38.9697,30.70,30.60,99.60,0.00,0.00,24.00,30.09,1020.40,10.00,M,OVC,M,M,M,1400.00,M,M,M,UP,KAFF 011058Z AUTO 00000KT 10SM UP OVC014 M01/M01 A3009 RMK AO2 UPB43 OVC V BKN SLP204 P2400 T10071008
AFF,2017-04-01 11:03,-104.8128,38.9697,32.00,32.00,100.00,0.00,0.00,0.00,30.09,M,10.00,M,BKN,OVC,M,M,1500.00,2000.00,M,M,UP,KAFF 011103Z AUTO 00000KT 10SM UP BKN015 OVC020 00/00 A3009 RMK AO2 BKN V OVC
AFF,2017-04-01 11:08,-104.8128,38.9697,32.00,32.00,100.00,0.00,0.00,0.00,30.09,M,10.00,M,BKN,OVC,M,M,1400.00,2000.00,M,M,UP,KAFF 011108Z AUTO 00000KT 10SM UP BKN014 OVC020 00/00 A3009 RMK AO2 BKN V OVC
AFF,2017-04-01 11:13,-104.8128,38.9697,32.00,32.00,100.00,0.00,0.00,0.00,30.10,M,10.00,M,BKN,OVC,M,M,1600.00,2100.00,M,M,UP,KAFF 011113Z AUTO 00000KT 10SM UP BKN016 OVC021 00/00 A3010 RMK AO2 CIG 014V018
AFF,2017-04-01 11:28,-104.8128,38.9697,32.00,32.00,100.00,0.00,0.00,0.00,30.10,M,9.00,M,SCT,BKN,OVC,M,800.00,1400.00,2100.00,M,UP,KAFF 011128Z AUTO 00000KT 9SM UP SCT008 BKN014 OVC021 00/00 A3010 RMK AO2 CIG 014V021
AFF,2017-04-01 11:43,-104.8128,38.9697,32.00,32.00,100.00,0.00,0.00,0.00,30.11,M,6.00,M,BKN,BKN,OVC,M,500.00,1100.00,1900.00,M,-SN BR,KAFF 011143Z AUTO 00000KT 6SM -SN BR BKN005 BKN011 OVC019 00/00 A3011 RMK AO2 UPE36SNB36 CIG 005V013 BKN005 V SCT
AFF,2017-04-01 11:48,-104.8128,38.9697,32.00,32.00,100.00,0.00,0.00,0.00,30.10,M,4.00,M,BKN,BKN,OVC,M,400.00,1100.00,1700.00,M,-SN BR,KAFF 011148Z AUTO 00000KT 4SM -SN BR BKN004 BKN011 OVC017 00/00 A3010 RMK AO2 UPE36SNB36 CIG 004V011
AFF,2017-04-01 11:58,-104.8128,38.9697,30.60,30.20,98.39,0.00,0.00,0.00,30.11,1021.10,4.00,M,BKN,OVC,M,M,300.00,1600.00,M,M,-SN BR,KAFF 011158Z 00000KT 4SM -SN BR BKN003 OVC016 M01/M01 A3011 RMK AO2A UPE36SNB36 CIG 003V008 SLP211 60002 70013 T10081010 11001 21008 52013
AFF,2017-04-01 12:03,-104.8128,38.9697,32.00,30.20,92.97,0.00,0.00,0.00,30.11,M,6.00,M,BKN,OVC,M,M,300.00,1900.00,M,M,-SN BR,KAFF 011203Z AUTO 00000KT 6SM -SN BR BKN003 OVC019 00/M01 A3011 RMK AO2
AFF,2017-04-01 12:11,-104.8128,38.9697,32.00,30.20,92.97,0.00,0.00,0.00,30.12,M,8.00,M,SCT,BKN,OVC,M,300.00,1000.00,2100.00,M,-FZRA,KAFF 011211Z AUTO 00000KT 8SM -FZRA SCT003 BKN010 OVC021 00/M01 A3012 RMK AO2 SNE10UPB10E11FZRAB11 CIG 003V010
AFF,2017-04-01 12:40,-104.8128,38.9697,32.00,32.00,100.00,0.00,0.00,0.00,30.12,M,10.00,M,FEW,BKN,OVC,M,1000.00,2300.00,3900.00,M,M,KAFF 011240Z 00000KT 10SM FEW010 BKN023 OVC039 00/00 A3012 RMK AO2A SNE10UPB10E11SNB11E40
AFF,2017-04-01 12:58,-104.8128,38.9697,30.60,30.40,99.19,0.00,0.00,0.00,30.12,1021.50,10.00,M,OVC,M,M,M,3600.00,M,M,M,M,KAFF 011258Z 00000KT 10SM OVC036 M01/M01 A3012 RMK AO2A SNE10UPB10E11SNB11E40 SLP215 T10081009
AFF,2017-04-01 13:13,-104.8128,38.9697,32.00,30.20,92.97,0.00,0.00,0.00,30.12,M,10.00,M,SCT,OVC,M,M,2100.00,3400.00,M,M,M,KAFF 011313Z AUTO 00000KT 10SM SCT021 OVC034 00/M01 A3012 RMK AO2
AFF,2017-04-01 13:18,-104.8128,38.9697,32.00,30.20,92.97,0.00,0.00,0.00,30.13,M,10.00,M,BKN,OVC,M,M,2000.00,3400.00,M,M,M,KAFF 011318Z AUTO 00000KT 10SM BKN020 OVC034 00/M01 A3013 RMK AO2 CIG 020V035
AFF,2017-04-01 13:38,-104.8128,38.9697,32.00,30.20,92.97,0.00,0.00,0.00,30.12,M,10.00,M,SCT,SCT,OVC,M,1900.00,2500.00,3500.00,M,M,KAFF 011338Z 00000KT 10SM SCT019 SCT025 OVC035 00/M01 A3012 RMK AO2A
AFF,2017-04-01 13:43,-104.8128,38.9697,32.00,32.00,100.00,0.00,0.00,0.00,30.12,M,10.00,M,SCT,BKN,OVC,M,1900.00,2500.00,3400.00,M,M,KAFF 011343Z 00000KT 10SM SCT019 BKN025 OVC034 00/00 A3012 RMK AO2A CIG 020V035 BKN V SCT
AFF,2017-04-01 13:48,-104.8128,38.9697,32.00,32.00,100.00,0.00,0.00,0.00,30.12,M,10.00,M,FEW,SCT,OVC,M,1900.00,2500.00,3400.00,M,M,KAFF 011348Z 00000KT 10SM FEW019 SCT025 OVC034 00/00 A3012 RMK AO2A
AFF,2017-04-01 13:58,-104.8128,38.9697,30.70,30.60,99.60,330.00,6.00,0.00,30.13,1022.40,10.00,M,FEW,OVC,M,M,1900.00,3400.00,M,M,M,KAFF 011358Z 33006KT 10SM FEW019 OVC034 M01/M01 A3013 RMK AO2A SLP224 T10071008
AFF,2017-04-01 14:08,-104.8128,38.9697,32.00,32.00,100.00,340.00,8.00,0.00,30.13,M,10.00,M,SCT,SCT,OVC,M,1900.00,2500.00,3400.00,M,UP,KAFF 011408Z 34008KT 10SM UP SCT019 SCT025 OVC034 00/00 A3013 RMK AO2A UPB08
AFF,2017-04-01 14:19,-104.8128,38.9697,32.00,32.00,100.00,350.00,9.00,0.00,30.13,M,10.00,M,BKN,OVC,M,M,2200.00,3300.00,M,M,M,KAFF 011419Z 35009KT 10SM BKN022 OVC033 00/00 A3013 RMK AO2A UPB08E19 CIG 022V034 BKN V SCT
AFF,2017-04-01 14:24,-104.8128,38.9697,32.00,32.00,100.00,330.00,6.00,0.00,30.13,M,10.00,M,BKN,OVC,M,M,2200.00,3200.00,M,M,M,KAFF 011424Z 33006KT 10SM BKN022 OVC032 00/00 A3013 RMK AO2A UPB08E19 CIG 022V034 BKN V SCT
AFF,2017-04-01 14:28,-104.8128,38.9697,32.00,32.00,100.00,350.00,8.00,0.00,30.13,M,10.00,M,FEW,BKN,BKN,OVC,1300.00,2100.00,2900.00,3400.00,UP,KAFF 011428Z 35008KT 10SM UP FEW013 BKN021 BKN029 OVC034 00/00 A3013 RMK AO2A UPB08E19UPB28 CIG 021V033
AFF,2017-04-01 14:33,-104.8128,38.9697,32.00,32.00,100.00,0.00,0.00,0.00,30.13,M,10.00,M,BKN,BKN,OVC,M,1900.00,2400.00,3200.00,M,UP,KAFF 011433Z AUTO 00000KT 10SM UP BKN019 BKN024 OVC032 00/00 A3013 RMK AO2 UPB08E19UPB28 CIG 019V024 BKN019 V SCT
AFF,2017-04-01 14:58,-104.8128,38.9697,32.00,32.00,100.00,350.00,8.00,0.00,30.14,1022.80,10.00,M,BKN,OVC,M,M,1800.00,2700.00,M,M,-SN,KAFF 011458Z 35008KT 10SM -SN BKN018 OVC027 00/00 A3014 RMK AO2A UPB08E19UPB28E49SNB49 CIG 016V022 SLP228 60000 52009
AFF,2017-04-01 15:13,-104.8128,38.9697,32.00,32.00,100.00,340.00,6.00,0.00,30.14,M,10.00,M,BKN,OVC,M,M,2000.00,3600.00,M,M,-SN,KAFF 011513Z 34006KT 10SM -SN BKN020 OVC036 00/00 A3014 RMK AO2A
AFF,2017-04-01 15:18,-104.8128,38.9697,32.00,32.00,100.00,350.00,5.00,0.00,30.14,M,10.00,M,FEW,SCT,BKN,OVC,700.00,2000.00,2800.00,3500.00,-SN,KAFF 011518Z 35005KT 10SM -SN FEW007 SCT020 BKN028 OVC035 00/00 A3014 RMK AO2A CIG 018V028
AFF,2017-04-01 15:28,-104.8128,38.9697,32.00,32.00,100.00,340.00,7.00,0.00,30.14,M,10.00,M,FEW,BKN,BKN,OVC,600.00,2200.00,2700.00,3700.00,UP,KAFF 011528Z 34007KT 10SM UP FEW006 BKN022 BKN027 OVC037 00/00 A3014 RMK AO2A SNE28UPB28 CIG 022V028 BKN022 V SCT
AFF,2017-04-01 15:38,-104.8128,38.9697,32.00,32.00,100.00,350.00,7.00,0.00,30.14,M,10.00,M,BKN,BKN,OVC,M,2500.00,3500.00,5500.00,M,-SN,KAFF 011538Z 35007KT 10SM -SN BKN025 BKN035 OVC055 00/00 A3014 RMK AO2A SNE28UPB28E32SNB32 CIG 022V028
AFF,2017-04-01 15:43,-104.8128,38.9697,32.00,32.00,100.00,350.00,8.00,0.00,30.14,M,10.00,M,SCT,BKN,OVC,M,2600.00,3400.00,5500.00,M,-SN,KAFF 011543Z 35008KT 10SM -SN SCT026 BKN034 OVC055 00/00 A3014 RMK AO2A SNE28UPB28E32SNB32
AFF,2017-04-01 15:48,-104.8128,38.9697,32.00,32.00,100.00,360.00,9.00,0.00,30.14,M,10.00,M,SCT,SCT,OVC,M,2600.00,3400.00,5500.00,M,-SN,KAFF 011548Z 36009KT 10SM -SN SCT026 SCT034 OVC055 00/00 A3014 RMK AO2A SNE28UPB28E32SNB32
AFF,2017-04-01 15:58,-104.8128,38.9697,31.50,30.90,97.60,350.00,8.00,0.00,30.13,1022.40,10.00,M,SCT,OVC,M,M,2700.00,5500.00,M,M,-SN,KAFF 011558Z 35008KT 10SM -SN SCT027 OVC055 00/M01 A3013 RMK AO2A SNE28UPB28E32SNB32 SLP224 T10031006
AFF,2017-04-01 16:23,-104.8128,38.9697,32.00,32.00,100.00,360.00,7.00,0.00,30.13,M,10.00,M,BKN,OVC,M,M,4900.00,6000.00,M,M,-SN,KAFF 011623Z 36007KT 10SM -SN BKN049 OVC060 00/00 A3013 RMK AO2A
AFF,2017-04-01 16:28,-104.8128,38.9697,32.00,32.00,100.00,10.00,7.00,0.00,30.13,M,10.00,M,OVC,M,M,M,5500.00,M,M,M,-SN,KAFF 011628Z 01007KT 10SM -SN OVC055 00/00 A3013 RMK AO2A
AFF,2017-04-01 16:48,-104.8128,38.9697,32.00,32.00,100.00,20.00,7.00,0.00,30.13,M,10.00,M,FEW,OVC,M,M,3600.00,6000.00,M,M,M,KAFF 011648Z 02007KT 10SM FEW036 OVC060 00/00 A3013 RMK AO2A SNE48
AFF,2017-04-01 16:58,-104.8128,38.9697,32.70,30.40,91.13,20.00,7.00,0.00,30.13,1022.40,10.00,M,FEW,OVC,M,M,3600.00,5500.00,M,M,M,KAFF 011658Z 02007KT 10SM FEW036 OVC055 00/M01 A3013 RMK AO2A SNE48 SLP224 T00041009
AFF,2017-04-01 17:13,-104.8128,38.9697,32.00,30.20,92.97,30.00,8.00,0.00,30.13,M,10.00,M,OVC,M,M,M,5000.00,M,M,M,M,KAFF 011713Z 03008KT 10SM OVC050 00/M01 A3013 RMK AO2A
AFF,2017-04-01 17:23,-104.8128,38.9697,32.00,30.20,92.97,40.00,5.00,0.00,30.13,M,10.00,M,BKN,OVC,M,M,4000.00,5000.00,M,M,-SN,KAFF 011723Z 04005KT 10SM -SN BKN040 OVC050 00/M01 A3013 RMK AO2A SNB23
AFF,2017-04-01 17:38,-104.8128,38.9697,32.00,30.20,92.97,40.00,5.00,0.00,30.13,M,5.00,M,BKN,OVC,M,M,3400.00,4500.00,M,M,-SN BR,KAFF 011738Z 04005KT 5SM -SN BR BKN034 OVC045 00/M01 A3013 RMK AO2A SNB23
AFF,2017-04-01 17:53,-104.8128,38.9697,32.00,30.20,92.97,20.00,8.00,0.00,30.13,M,5.00,M,OVC,M,M,M,2700.00,M,M,M,-SN BR,KAFF 011753Z 02008KT 5SM -SN BR OVC027 00/M01 A3013 RMK AO2A SNB23 CIG 027V032
AFF,2017-04-01 17:58,-104.8128,38.9697,32.20,29.80,90.74,10.00,8.00,0.00,30.12,1022.10,5.00,M,OVC,M,M,M,2500.00,M,M,M,-SN BR,KAFF 011758Z 01008KT 5SM -SN BR OVC025 00/M01 A3012 RMK AO2A SNB23 CIG 025V030 SLP221 60002 T00011012 10006 21009 57004
AFF,2017-04-01 18:03,-104.8128,38.9697,32.00,30.20,92.97,10.00,8.00,0.00,30.12,M,5.00,M,OVC,M,M,M,2100.00,M,M,M,-SN BR,KAFF 011803Z 01008KT 5SM -SN BR OVC021 00/M01 A3012 RMK AO2A CIG 021V027
AFF,2017-04-01 18:38,-104.8128,38.9697,32.00,32.00,100.00,350.00,7.00,0.00,30.11,M,3.00,M,FEW,OVC,M,M,300.00,2100.00,M,M,-SN BR,KAFF 011838Z 35007KT 3SM -SN BR FEW003 OVC021 00/00 A3011 RMK AO2A
AFF,2017-04-01 18:43,-104.8128,38.9697,32.00,32.00,100.00,360.00,6.00,0.00,30.10,M,4.00,M,FEW,OVC,M,M,300.00,2100.00,M,M,-SN BR,KAFF 011843Z 36006KT 4SM -SN BR FEW003 OVC021 00/00 A3010 RMK AO2A
AFF,2017-04-01 18:53,-104.8128,38.9697,32.00,32.00,100.00,350.00,6.00,0.00,30.10,M,2.00,M,SCT,OVC,M,M,200.00,1800.00,M,M,-SN BR,KAFF 011853Z 35006KT 2SM -SN BR SCT002 OVC018 00/00 A3010 RMK AO2A VIS 2V4
AFF,2017-04-01 18:58,-104.8128,38.9697,31.30,31.10,99.19,350.00,6.00,0.00,30.10,1021.40,1.50,M,SCT,OVC,M,M,200.00,1500.00,M,M,-SN BR,KAFF 011858Z 35006KT 1 1/2SM -SN BR SCT002 OVC015 00/00 A3010 RMK AO2A VIS 1 1/2V4 CIG 015V020 SLP214 T10041005
AFF,2017-04-01 19:03,-104.8128,38.9697,32.00,32.00,100.00,360.00,6.00,0.00,30.10,M,1.75,M,FEW,OVC,M,M,200.00,1400.00,M,M,-SN BR,KAFF 011903Z 36006KT 1 3/4SM -SN BR FEW002 OVC014 00/00 A3010 RMK AO2A VIS 1 1/2V2 CIG 014V018
AFF,2017-04-01 19:08,-104.8128,38.9697,32.00,32.00,100.00,350.00,4.00,0.00,30.10,M,2.00,M,FEW,OVC,M,M,200.00,1300.00,M,M,-SN BR,KAFF 011908Z 35004KT 2SM -SN BR FEW002 OVC013 00/00 A3010 RMK AO2A VIS 1 1/2V2
AFF,2017-04-01 19:23,-104.8128,38.9697,32.00,32.00,100.00,350.00,3.00,0.00,30.10,M,1.25,M,SCT,OVC,M,M,200.00,1100.00,M,M,-SN BR,KAFF 011923Z 35003KT 1 1/4SM -SN BR SCT002 OVC011 00/00 A3010 RMK AO2A VIS 1 1/4V2 1/2
AFF,2017-04-01 19:28,-104.8128,38.9697,32.00,32.00,100.00,20.00,3.00,0.00,30.11,M,0.75,M,BKN,OVC,M,M,200.00,1100.00,M,M,-SN BR,KAFF 011928Z 02003KT 3/4SM -SN BR BKN002 OVC011 00/00 A3011 RMK AO2A VIS 3/4V2 CIG 002V011 BKN V FEW RVRNO
AFF,2017-04-01 19:33,-104.8128,38.9697,32.00,32.00,100.00,40.00,3.00,0.00,30.11,M,0.75,M,SCT,OVC,M,M,200.00,1000.00,M,M,-SN BR,KAFF 011933Z 04003KT 3/4SM -SN BR SCT002 OVC010 00/00 A3011 RMK AO2A VIS 3/4V1 1/4 CIG 002V011 RVRNO
AFF,2017-04-01 19:38,-104.8128,38.9697,32.00,32.00,100.00,50.00,3.00,0.00,30.11,M,0.50,M,BKN,OVC,M,M,200.00,800.00,M,M,-SN,KAFF 011938Z 05003KT 1/2SM -SN BKN002 OVC008 00/00 A3011 RMK AO2A CIG 002V010 BKN V SCT RVRNO
AFF,2017-04-01 19:58,-104.8128,38.9697,30.90,30.70,99.19,40.00,4.00,0.00,30.10,1021.40,0.50,M,BKN,OVC,M,M,200.00,700.00,M,M,SN,KAFF 011958Z 04004KT 1/2SM SN BKN002 OVC007 M01/M01 A3010 RMK AO2A SLP214 T10061007 RVRNO
AFF,2017-04-01 20:10,-104.8128,38.9697,32.00,32.00,100.00,20.00,3.00,0.00,30.10,M,1.00,M,OVC,M,M,M,200.00,M,M,M,-SN BR,KAFF 012010Z 02003KT 1SM -SN BR OVC002 00/00 A3010 RMK AO2A VIS 1/2V1 RVRNO
AFF,2017-04-01 20:25,-104.8128,38.9697,32.00,32.00,100.00,30.00,3.00,0.00,30.10,M,1.50,M,BKN,OVC,M,M,200.00,1800.00,M,M,-SN BR,KAFF 012025Z 03003KT 1 1/2SM -SN BR BKN002 OVC018 00/00 A3010 RMK AO2A VIS 1V1 1/2 BKN V OVC
AFF,2017-04-01 20:30,-104.8128,38.9697,32.00,32.00,100.00,20.00,3.00,0.00,30.10,M,2.00,M,BKN,OVC,M,M,200.00,1700.00,M,M,-SN BR,KAFF 012030Z 02003KT 2SM -SN BR BKN002 OVC017 00/00 A3010 RMK AO2A VIS 1 1/4V2 BKN V OVC
AFF,2017-04-01 20:50,-104.8128,38.9697,32.00,32.00,100.00,10.00,5.00,0.00,30.09,M,6.00,M,BKN,OVC,M,M,200.00,1700.00,M,M,-SN BR,KAFF 012050Z 01005KT 6SM -SN BR BKN002 OVC017 00/00 A3009 RMK AO2A
AFF,2017-04-01 20:55,-104.8128,38.9697,32.00,32.00,100.00,40.00,3.00,0.00,30.09,M,4.00,M,BKN,OVC,M,M,200.00,1600.00,M,M,-SN BR,KAFF 012055Z 04003KT 4SM -SN BR BKN002 OVC016 00/00 A3009 RMK AO2A
AFF,2017-04-01 20:58,-104.8128,38.9697,32.00,32.00,100.00,50.00,3.00,18.81,30.10,1021.40,2.50,M,BKN,OVC,M,M,200.00,1600.00,M,M,-SN BR,KAFF 012058Z AUTO 05003KT 2 1/2SM -SN BR BKN002 OVC016 00/00 A3010 RMK AO2 VIS 2 1/2V6 SLP214 P1881 65277 55007
AFF,2017-04-01 21:14,-104.8128,38.9697,32.00,32.00,100.00,10.00,3.00,0.00,30.09,M,0.75,M,BKN,OVC,M,M,200.00,1600.00,M,M,-SN BR,KAFF 012114Z AUTO 01003KT 3/4SM -SN BR BKN002 OVC016 00/00 A3009 RMK AO2 BKN V OVC RVRNO
AFF,2017-04-01 21:19,-104.8128,38.9697,32.00,32.00,100.00,360.00,3.00,0.00,30.09,M,1.75,M,SCT,OVC,M,M,200.00,2500.00,M,M,-SN BR,KAFF 012119Z 36003KT 1 3/4SM -SN BR SCT002 OVC025 00/00 A3009 RMK AO2A VIS 1/2V1 3/4 CIG 002V025
AFF,2017-04-01 21:32,-104.8128,38.9697,32.00,32.00,100.00,340.00,6.00,0.00,30.08,M,4.00,M,FEW,OVC,M,M,200.00,3200.00,M,M,-SN BR,KAFF 012132Z 34006KT 4SM -SN BR FEW002 OVC032 00/00 A3008 RMK AO2A
AFF,2017-04-01 21:42,-104.8128,38.9697,32.00,32.00,100.00,320.00,6.00,0.00,30.08,M,2.50,M,OVC,M,M,M,2800.00,M,M,M,-SN BR,KAFF 012142Z 32006KT 2 1/2SM -SN BR OVC028 00/00 A3008 RMK AO2A VIS 2 1/2V4
AFF,2017-04-01 21:47,-104.8128,38.9697,32.00,32.00,100.00,330.00,6.00,0.00,30.08,M,2.50,M,OVC,M,M,M,3400.00,M,M,M,-SN BR,KAFF 012147Z 33006KT 2 1/2SM -SN BR OVC034 00/00 A3008 RMK AO2A
AFF,2017-04-01 21:52,-104.8128,38.9697,32.00,32.00,100.00,330.00,6.00,0.00,30.08,M,4.00,M,OVC,M,M,M,3600.00,M,M,M,-SN BR,KAFF 012152Z 33006KT 4SM -SN BR OVC036 00/00 A3008 RMK AO2A
AFF,2017-04-01 21:57,-104.8128,38.9697,32.00,32.00,100.00,340.00,4.00,0.00,30.08,M,6.00,M,OVC,M,M,M,3600.00,M,M,M,-SN BR,KAFF 012157Z 34004KT 6SM -SN BR OVC036 00/00 A3008 RMK AO2A
AFF,2017-04-01 21:58,-104.8128,38.9697,33.10,32.90,99.20,340.00,4.00,0.00,30.08,1020.70,6.00,M,OVC,M,M,M,3600.00,M,M,M,-SN BR,KAFF 012158Z 34004KT 6SM -SN BR OVC036 01/01 A3008 RMK AO2A SLP207 T00060005
AFF,2017-04-01 22:23,-104.8128,38.9697,32.00,32.00,100.00,0.00,0.00,0.00,30.08,M,10.00,M,SCT,BKN,M,M,4400.00,7000.00,M,M,-SN,KAFF 012223Z 00000KT 10SM -SN SCT044 BKN070 00/00 A3008 RMK AO2A
AFF,2017-04-01 22:28,-104.8128,38.9697,32.00,32.00,100.00,10.00,3.00,0.00,30.08,M,10.00,M,FEW,BKN,BKN,BKN,4600.00,7000.00,9000.00,20000.00,M,KAFF 012228Z 01003KT 10SM FEW046 BKN070 BKN090 BKN200 00/00 A3008 RMK AO2A SNE28
AFF,2017-04-01 22:58,-104.8128,38.9697,33.40,32.00,94.53,0.00,0.00,0.00,30.07,1020.30,10.00,M,BKN,BKN,M,M,4000.00,8000.00,M,M,M,KAFF 012258Z 00000KT 10SM BKN040 BKN080 01/00 A3007 RMK AO2A SNE28 SLP203 T00081000
AFF,2017-04-01 23:24,-104.8128,38.9697,33.80,32.00,93.03,0.00,0.00,0.00,30.06,M,10.00,M,FEW,BKN,OVC,M,1300.00,4000.00,9500.00,M,UP,KAFF 012324Z AUTO 00000KT 10SM UP FEW013 BKN040 OVC095 01/00 A3006 RMK AO2 UPB24
AFF,2017-04-01 23:35,-104.8128,38.9697,33.80,32.00,93.03,0.00,0.00,0.00,30.06,M,10.00,M,FEW,SCT,SCT,M,1100.00,3900.00,9500.00,M,M,KAFF 012335Z 00000KT 10SM FEW011 SCT039 SCT095 01/00 A3006 RMK AO2A UPB24E35
AFF,2017-04-01 23:58,-104.8128,38.9697,33.80,30.00,85.79,0.00,0.00,0.00,30.06,1019.30,10.00,M,FEW,M,M,M,7500.00,M,M,M,M,KAFF 012358Z 00000KT 10SM FEW075 01/M01 A3006 RMK AO2A UPB24E35 SLP193 60018 T00101011 10015 21006 57010
