#DEBUG: Format Typ    -> comma
#DEBUG: Time Period   -> 2017-04-01 00:00:00+00:00 2017-04-02 00:00:00+00:00
#DEBUG: Time Zone     -> Etc/UTC
#DEBUG: Data Contact   -> daryl herzmann akrherz@iastate.edu 515-294-5978
#DEBUG: Entries Found -> -1
station,valid,lon,lat,tmpf, dwpf, relh, drct, sknt, p01i, alti, mslp, vsby, gust, skyc1, skyc2, skyc3, skyc4, skyl1, skyl2, skyl3, skyl4, presentwx, metar
AFN,2017-04-01 00:00,-72.0030,42.8051,M,M,M,10.00,3.00,0.01,30.00,M,2.00,M,BKN,BKN,OVC,M,999.00,2600.00,3800.00,M,UP BR,KAFN 010000Z AUTO 01003KT 2SM UP BR BKN009 BKN026 OVC038 A3000 RMK P0001 VRB03KT  MADISHF
AFN,2017-04-01 00:05,-72.0030,42.8051,M,M,M,50.00,4.00,0.02,30.00,M,1.50,M,FEW,BKN,OVC,M,700.00,999.00,3800.00,M,UP BR,KAFN 010005Z AUTO 05004KT 1 1/2SM UP BR FEW007 BKN009 OVC038 A3000 RMK P0002 VRB04KT  MADISHF
AFN,2017-04-01 00:07,-72.0030,42.8051,30.00,27.00,88.44,M,3.00,0.02,30.00,M,1.25,M,FEW,BKN,OVC,M,700.00,1000.00,3800.00,M,UP BR,KAFN 010007Z AUTO VRB03KT 1 1/4SM UP BR FEW007 BKN010 OVC038 M01/M03 A3000 RMK AO2 P0002 T10111028
AFN,2017-04-01 00:10,-72.0030,42.8051,M,M,M,40.00,6.00,0.03,30.00,M,1.25,M,FEW,BKN,OVC,M,700.00,999.00,3800.00,M,UP BR,KAFN 010010Z AUTO 04006KT 1 1/2SM UP BR FEW007 BKN009 OVC038 A3000 RMK P0003 VRB06KT  MADISHF
AFN,2017-04-01 00:15,-72.0030,42.8051,M,M,M,30.00,3.00,0.04,30.00,M,1.50,M,BKN,BKN,OVC,M,1100.00,2100.00,3800.00,M,UP BR,KAFN 010015Z AUTO 03003KT 1 1/2SM UP BR BKN011 BKN021 OVC038 A3000 RMK P0004 VRB03KT  MADISHF
AFN,2017-04-01 00:17,-72.0030,42.8051,30.00,27.00,88.44,M,3.00,0.04,30.00,M,1.75,M,FEW,BKN,OVC,M,800.00,1100.00,3800.00,M,UP BR,KAFN 010017Z AUTO VRB03KT 1 3/4SM UP BR FEW008 BKN011 OVC038 M01/M03 A3000 RMK AO2 P0004 T10111028
AFN,2017-04-01 00:20,-72.0030,42.8051,M,M,M,M,M,0.05,30.00,M,1.75,M,BKN,BKN,OVC,M,1100.00,2300.00,3800.00,M,UP BR,KAFN 010020Z AUTO /////KT 2SM UP BR BKN011 BKN023 OVC038 A3000 RMK P0005 MADISHF
AFN,2017-04-01 00:25,-72.0030,42.8051,M,M,M,60.00,4.00,0.05,30.00,M,2.00,M,FEW,BKN,OVC,M,900.00,1300.00,3800.00,M,UP BR,KAFN 010025Z AUTO 06004KT 2SM UP BR FEW009 BKN013 OVC038 A3000 RMK P0005 VRB04KT  MADISHF
AFN,2017-04-01 00:27,-72.0030,42.8051,30.00,27.00,88.44,M,5.00,0.06,30.00,M,2.00,M,SCT,BKN,OVC,M,900.00,1300.00,3800.00,M,UP BR,KAFN 010027Z AUTO VRB05KT 2SM UP BR SCT009 BKN013 OVC038 M01/M03 A3000 RMK AO2 P0006 T10111028
AFN,2017-04-01 00:29,-72.0030,42.8051,30.00,27.00,88.44,M,4.00,0.06,30.00,M,1.75,M,FEW,BKN,OVC,M,900.00,2000.00,3800.00,M,UP BR,KAFN 010029Z AUTO VRB04KT 1 3/4SM UP BR FEW009 BKN020 OVC038 M01/M03 A3000 RMK AO2 P0006 T10111028
AFN,2017-04-01 00:30,-72.0030,42.8051,M,M,M,40.00,3.00,0.06,30.00,M,1.75,M,FEW,BKN,OVC,M,900.00,1999.00,3800.00,M,UP BR,KAFN 010030Z AUTO 04003KT 2SM UP BR FEW009 BKN019 OVC038 A3000 RMK P0006 VRB03KT  MADISHF
AFN,2017-04-01 00:35,-72.0030,42.8051,M,M,M,40.00,5.00,0.07,30.00,M,1.50,M,SCT,BKN,OVC,M,900.00,1400.00,3800.00,M,UP BR,KAFN 010035Z AUTO 04005KT 1 1/2SM UP BR SCT009 BKN014 OVC038 A3000 RMK P0007 VRB05KT  MADISHF
AFN,2017-04-01 00:38,-72.0030,42.8051,30.00,27.00,88.44,M,4.00,0.08,30.00,M,1.25,M,SCT,BKN,OVC,M,900.00,1200.00,3800.00,M,UP BR,KAFN 010038Z AUTO VRB04KT 1 1/4SM UP BR SCT009 BKN012 OVC038 M01/M03 A3000 RMK AO2 P0008 T10111028
AFN,2017-04-01 00:40,-72.0030,42.8051,M,M,M,30.00,3.00,0.08,30.00,M,1.25,M,SCT,BKN,OVC,M,900.00,1400.00,3800.00,M,UP BR,KAFN 010040Z AUTO 03003KT 1 1/2SM UP BR SCT009 BKN014 OVC038 A3000 RMK P0008 VRB03KT  MADISHF
AFN,2017-04-01 00:43,-72.0030,42.8051,30.00,27.00,88.44,M,4.00,0.09,29.99,M,1.50,M,SCT,BKN,OVC,M,900.00,1500.00,3800.00,M,UP BR,KAFN 010043Z AUTO VRB04KT 1 1/2SM UP BR SCT009 BKN015 OVC038 M01/M03 A2999 RMK AO2 P0009 T10111028
AFN,2017-04-01 00:45,-72.0030,42.8051,M,M,M,0.00,0.00,0.09,29.99,M,1.50,M,BKN,OVC,M,M,900.00,1500.00,M,M,UP BR,KAFN 010045Z AUTO 00000KT 1 1/2SM UP BR BKN009 OVC015 A2999 RMK P0009 MADISHF
AFN,2017-04-01 00:50,-72.0030,42.8051,M,M,M,M,M,0.10,29.99,M,1.50,M,BKN,OVC,M,M,900.00,1500.00,M,M,UP BR,KAFN 010050Z AUTO /////KT 1 1/2SM UP BR BKN009 OVC015 A2999 RMK P0010 MADISHF
AFN,2017-04-01 00:52,-72.0030,42.8051,30.00,27.00,88.44,M,3.00,0.10,29.99,1017.30,1.50,M,BKN,OVC,M,M,900.00,1500.00,M,M,UP BR,KAFN 010052Z AUTO VRB03KT 1 1/2SM UP BR BKN009 OVC015 M01/M03 A2999 RMK AO2 SLP173 P0010 T10111028
AFN,2017-04-01 00:55,-72.0030,42.8051,M,M,M,20.00,3.00,0.01,29.99,M,1.50,M,BKN,OVC,M,M,900.00,1500.00,M,M,UP BR,KAFN 010055Z AUTO 02003KT 1 1/2SM UP BR BKN009 OVC015 A2999 RMK P0001 VRB03KT  MADISHF
AFN,2017-04-01 01:00,-72.0030,42.8051,M,M,M,50.00,5.00,0.02,29.99,M,1.50,M,FEW,BKN,OVC,M,499.00,900.00,1300.00,M,UP BR,KAFN 010100Z AUTO 05005KT 1 1/2SM UP BR FEW004 BKN009 OVC013 A2999 RMK P0002 VRB05KT  MADISHF
AFN,2017-04-01 01:05,-72.0030,42.8051,M,M,M,30.00,5.00,0.03,29.99,M,1.50,M,SCT,OVC,M,M,900.00,1300.00,M,M,UP BR,KAFN 010105Z AUTO 03005KT 1 1/2SM UP BR SCT009 OVC013 A2999 RMK P0003 VRB05KT  MADISHF
AFN,2017-04-01 01:10,-72.0030,42.8051,30.00,27.00,88.44,M,3.00,0.03,29.99,M,1.50,M,SCT,OVC,M,M,700.00,1300.00,M,M,UP BR,KAFN 010110Z AUTO VRB03KT 1 1/2SM UP BR SCT007 OVC013 M01/M03 A2999 RMK AO2 P0003 T10111028
AFN,2017-04-01 01:15,-72.0030,42.8051,M,M,M,40.00,4.00,0.04,29.99,M,1.50,M,SCT,OVC,M,M,900.00,1300.00,M,M,UP BR,KAFN 010115Z AUTO 04004KT 1 1/2SM UP BR SCT009 OVC013 A2999 RMK P0004 VRB04KT  MADISHF
AFN,2017-04-01 01:20,-72.0030,42.8051,M,M,M,60.00,3.00,0.05,29.98,M,1.50,M,OVC,M,M,M,1300.00,M,M,M,UP BR,KAFN 010120Z AUTO 06003KT 1 1/2SM UP BR OVC013 A2998 RMK P0005 VRB03KT  MADISHF
AFN,2017-04-01 01:25,-72.0030,42.8051,M,M,M,0.00,0.00,0.05,29.98,M,1.50,M,SCT,OVC,M,M,900.00,1300.00,M,M,UP BR,KAFN 010125Z AUTO 00000KT 1 1/2SM UP BR SCT009 OVC013 A2998 RMK P0005 MADISHF
AFN,2017-04-01 01:30,-72.0030,42.8051,M,M,M,40.00,5.00,0.06,29.98,M,1.50,M,SCT,OVC,M,M,900.00,1300.00,M,M,UP BR,KAFN 010130Z AUTO 04005KT 1 1/2SM UP BR SCT009 OVC013 A2998 RMK P0006 VRB05KT  MADISHF
AFN,2017-04-01 01:35,-72.0030,42.8051,M,M,M,50.00,5.00,0.07,29.98,M,1.50,M,BKN,OVC,M,M,1100.00,1600.00,M,M,UP BR,KAFN 010135Z AUTO 05005KT 1 1/2SM UP BR BKN011 OVC016 A2998 RMK P0007 VRB05KT  MADISHF
AFN,2017-04-01 01:40,-72.0030,42.8051,M,M,M,50.00,3.00,0.07,29.98,M,1.25,M,SCT,OVC,M,M,700.00,1400.00,M,M,-SN BR,KAFN 010140Z AUTO 05003KT 1 1/2SM -SN BR SCT007 OVC014 A2998 RMK P0007 VRB03KT  MADISHF
AFN,2017-04-01 01:43,-72.0030,42.8051,30.00,27.00,88.44,M,4.00,0.08,29.97,M,1.25,M,SCT,OVC,M,M,700.00,1400.00,M,M,-SN BR,KAFN 010143Z AUTO VRB04KT 1 1/4SM -SN BR SCT007 OVC014 M01/M03 A2997 RMK AO2 UPE36SNB36 P0008 T10111028
AFN,2017-04-01 01:45,-72.0030,42.8051,M,M,M,50.00,5.00,0.08,29.97,M,1.25,M,BKN,OVC,M,M,700.00,1400.00,M,M,-SN BR,KAFN 010145Z AUTO 05005KT 1 1/2SM -SN BR BKN007 OVC014 A2997 RMK P0008 VRB05KT  MADISHF
AFN,2017-04-01 01:50,-72.0030,42.8051,M,M,M,20.00,4.00,0.09,29.97,M,1.25,M,SCT,OVC,M,M,800.00,1200.00,M,M,UP BR,KAFN 010150Z AUTO 02004KT 1 1/2SM UP BR SCT008 OVC012 A2997 RMK P0009 VRB04KT  MADISHF
AFN,2017-04-01 01:52,-72.0030,42.8051,30.00,27.00,88.44,M,5.00,0.09,29.96,1016.40,1.25,M,BKN,OVC,M,M,1000.00,1500.00,M,M,UP BR,KAFN 010152Z AUTO VRB05KT 1 1/4SM UP BR BKN010 OVC015 M01/M03 A2996 RMK AO2 UPE36B48SNB36E48 SLP164 P0009 T10111028
AFN,2017-04-01 01:54,-72.0030,42.8051,30.00,27.00,88.44,M,3.00,0.01,29.96,M,1.50,M,BKN,OVC,M,M,800.00,1300.00,M,M,UP BR,KAFN 010154Z AUTO VRB03KT 1 1/2SM UP BR BKN008 OVC013 M01/M03 A2996 RMK AO2 P0001 T10111028
AFN,2017-04-01 02:00,-72.0030,42.8051,M,M,M,30.00,7.00,0.01,29.96,M,1.50,M,BKN,OVC,M,M,800.00,1300.00,M,M,UP BR,KAFN 010200Z AUTO 03007KT 1 1/2SM UP BR BKN008 OVC013 A2996 RMK P0001 WND 36V08  MADISHF
AFN,2017-04-01 02:05,-72.0030,42.8051,M,M,M,40.00,4.00,0.02,29.96,M,1.50,M,BKN,OVC,M,M,999.00,1300.00,M,M,UP BR,KAFN 010205Z AUTO 04004KT 1 1/2SM UP BR BKN009 OVC013 A2996 RMK P0002 VRB04KT  MADISHF
AFN,2017-04-01 02:10,-72.0030,42.8051,30.00,28.00,92.15,M,6.00,0.03,29.96,M,1.25,M,OVC,M,M,M,1000.00,M,M,M,UP BR,KAFN 010210Z AUTO VRB06KT 1 1/4SM UP BR OVC010 M01/M02 A2996 RMK AO2 P0003 T10111022
AFN,2017-04-01 02:15,-72.0030,42.8051,M,M,M,0.00,0.00,0.04,29.96,M,1.25,M,BKN,OVC,M,M,999.00,1300.00,M,M,-SN BR,KAFN 010215Z AUTO 00000KT 1 1/2SM -SN BR BKN009 OVC013 A2996 RMK P0004 MADISHF
AFN,2017-04-01 02:18,-72.0030,42.8051,30.00,28.00,92.15,M,M,0.04,29.96,M,1.00,M,OVC,M,M,M,800.00,M,M,M,-SN BR,KAFN 010218Z AUTO 1SM -SN BR OVC008 M01/M02 A2996 RMK AO2 UPE12SNB12 P0004 T10111022
AFN,2017-04-01 02:20,-72.0030,42.8051,M,M,M,M,M,0.04,29.96,M,1.00,M,OVC,M,M,M,800.00,M,M,M,-SN BR,KAFN 010220Z AUTO /////KT 1SM -SN BR OVC008 A2996 RMK P0004 MADISHF
AFN,2017-04-01 02:25,-72.0030,42.8051,M,M,M,50.00,4.00,0.05,29.95,M,1.00,M,VV ,M,M,M,800.00,M,M,M,-SN BR,KAFN 010225Z AUTO 05004KT 1SM -SN BR VV008 A2995 RMK P0005 VRB04KT  MADISHF
AFN,2017-04-01 02:30,-72.0030,42.8051,M,M,M,40.00,4.00,0.06,29.94,M,0.75,M,VV ,M,M,M,800.00,M,M,M,-SN BR,KAFN 010230Z AUTO 04004KT 1SM -SN BR VV008 A2994 RMK P0006 VRB04KT  MADISHF
AFN,2017-04-01 02:32,-72.0030,42.8051,30.00,28.00,92.15,M,4.00,0.06,29.94,M,0.75,M,VV ,M,M,M,800.00,M,M,M,-SN BR,KAFN 010232Z AUTO VRB04KT 3/4SM -SN BR VV008 M01/M02 A2994 RMK AO2 UPE12SNB12 P0006 T10111022
AFN,2017-04-01 02:35,-72.0030,42.8051,M,M,M,30.00,4.00,0.07,29.94,M,0.75,M,VV ,M,M,M,800.00,M,M,M,-SN BR,KAFN 010235Z AUTO 03004KT 1SM -SN BR VV008 A2994 RMK P0007 VRB04KT  MADISHF
AFN,2017-04-01 02:45,-72.0030,42.8051,M,M,M,60.00,3.00,0.08,29.95,M,0.75,M,VV ,M,M,M,700.00,M,M,M,-SN BR,KAFN 010245Z AUTO 06003KT 1SM -SN BR VV007 A2995 RMK P0008 VRB03KT  MADISHF
AFN,2017-04-01 02:50,-72.0030,42.8051,M,M,M,30.00,3.00,0.09,29.94,M,1.00,M,VV ,M,M,M,800.00,M,M,M,-SN BR,KAFN 010250Z AUTO 03003KT 1SM -SN BR VV008 A2994 RMK P0009 VRB03KT  MADISHF
AFN,2017-04-01 02:52,-72.0030,42.8051,30.00,28.00,92.15,30.00,5.00,0.09,29.94,1015.40,1.00,M,VV ,M,M,M,800.00,M,M,M,-SN BR,KAFN 010252Z AUTO 03005KT 1SM -SN BR VV008 M01/M02 A2994 RMK AO2 UPE12SNB12 SLP154 P0009 60028 T10111022 58018
AFN,2017-04-01 02:55,-72.0030,42.8051,M,M,M,10.00,3.00,M,29.93,M,1.00,M,BKN,OVC,M,M,800.00,1300.00,M,M,-SN BR,KAFN 010255Z AUTO 01003KT 1SM -SN BR BKN008 OVC013 A2993 RMK VRB03KT  MADISHF
AFN,2017-04-01 03:00,-72.0030,42.8051,M,M,M,20.00,4.00,0.01,29.94,M,1.00,M,BKN,OVC,M,M,999.00,1500.00,M,M,-SN BR,KAFN 010300Z AUTO 02004KT 1SM -SN BR BKN009 OVC015 A2994 RMK P0001 VRB04KT  MADISHF
AFN,2017-04-01 03:04,-72.0030,42.8051,30.00,28.00,92.15,M,4.00,0.02,29.94,M,1.25,M,BKN,OVC,M,M,1000.00,1500.00,M,M,-SN BR,KAFN 010304Z AUTO VRB04KT 1 1/4SM -SN BR BKN010 OVC015 M01/M02 A2994 RMK AO2 P0002 T10111022
AFN,2017-04-01 03:05,-72.0030,42.8051,M,M,M,30.00,4.00,0.02,29.93,M,1.25,M,BKN,OVC,M,M,999.00,1500.00,M,M,-SN BR,KAFN 010305Z AUTO 03004KT 1 1/2SM -SN BR BKN009 OVC015 A2993 RMK P0002 VRB04KT  MADISHF
AFN,2017-04-01 03:10,-72.0030,42.8051,M,M,M,30.00,4.00,0.03,29.93,M,1.25,M,OVC,M,M,M,999.00,M,M,M,-SN BR,KAFN 010310Z AUTO 03004KT 1 1/2SM -SN BR OVC009 A2993 RMK P0003 VRB04KT  MADISHF
AFN,2017-04-01 03:20,-72.0030,42.8051,M,M,M,20.00,4.00,0.04,29.93,M,1.25,M,BKN,OVC,M,M,999.00,1500.00,M,M,-SN BR,KAFN 010320Z AUTO 02004KT 1 1/2SM -SN BR BKN009 OVC015 A2993 RMK P0004 VRB04KT  MADISHF
AFN,2017-04-01 03:25,-72.0030,42.8051,M,M,M,40.00,4.00,0.05,29.93,M,1.25,M,SCT,OVC,M,M,800.00,1200.00,M,M,-SN BR,KAFN 010325Z AUTO 04004KT 1 1/2SM -SN BR SCT008 OVC012 A2993 RMK P0005 VRB04KT  MADISHF
AFN,2017-04-01 03:30,-72.0030,42.8051,M,M,M,M,M,0.06,29.92,M,1.25,M,OVC,M,M,M,999.00,M,M,M,UP BR,KAFN 010330Z AUTO /////KT 1 1/2SM UP BR OVC009 A2992 RMK P0006 MADISHF
AFN,2017-04-01 03:35,-72.0030,42.8051,M,M,M,30.00,4.00,0.07,29.92,M,1.25,M,OVC,M,M,M,999.00,M,M,M,-SN BR,KAFN 010335Z AUTO 03004KT 1 1/2SM -SN BR OVC009 A2992 RMK P0007 VRB04KT  MADISHF
AFN,2017-04-01 03:40,-72.0030,42.8051,M,M,M,50.00,6.00,0.07,29.91,M,1.25,M,SCT,OVC,M,M,700.00,999.00,M,M,-SN BR,KAFN 010340Z AUTO 05006KT 1 1/2SM -SN BR SCT007 OVC009 A2991 RMK P0007 VRB06KT  MADISHF
AFN,2017-04-01 03:41,-72.0030,42.8051,30.00,28.00,92.15,M,5.00,0.07,29.91,M,1.00,M,SCT,OVC,M,M,700.00,1000.00,M,M,-SN BR,KAFN 010341Z AUTO VRB05KT 1SM -SN BR SCT007 OVC010 M01/M02 A2991 RMK AO2 UPB28E34SNE28B34 P0007 T10111022
AFN,2017-04-01 03:45,-72.0030,42.8051,M,M,M,30.00,5.00,0.08,29.91,M,1.00,M,OVC,M,M,M,999.00,M,M,M,-SN BR,KAFN 010345Z AUTO 03005KT 1SM -SN BR OVC009 A2991 RMK P0008 VRB05KT  MADISHF
AFN,2017-04-01 03:50,-72.0030,42.8051,M,M,M,40.00,5.00,0.09,29.91,M,1.00,M,OVC,M,M,M,999.00,M,M,M,-SN BR,KAFN 010350Z AUTO 04005KT 1SM -SN BR OVC009 A2991 RMK P0009 VRB05KT  MADISHF
AFN,2017-04-01 03:52,-72.0030,42.8051,30.00,28.00,92.15,M,4.00,0.09,29.91,1014.40,1.00,M,OVC,M,M,M,1000.00,M,M,M,-SN BR,KAFN 010352Z AUTO VRB04KT 1SM -SN BR OVC010 M01/M02 A2991 RMK AO2 UPB28E34SNE28B34 SLP144 P0009 T10111022
AFN,2017-04-01 03:55,-72.0030,42.8051,M,M,M,M,M,M,29.90,M,1.25,M,OVC,M,M,M,999.00,M,M,M,-SN BR,KAFN 010355Z AUTO /////KT 1 1/2SM -SN BR OVC009 A2990 RMK MADISHF
AFN,2017-04-01 04:00,-72.0030,42.8051,30.90,28.00,88.84,M,5.00,0.01,29.90,M,1.25,M,OVC,M,M,M,1000.00,M,M,M,-SN BR,KAFN 010400Z AUTO VRB05KT 1 1/4SM -SN BR OVC010 M01/M02 A2990 RMK AO2 P0001 T10061022
AFN,2017-04-01 04:04,-72.0030,42.8051,30.90,28.00,88.84,M,6.00,0.01,29.90,M,1.00,M,OVC,M,M,M,900.00,M,M,M,-SN BR,KAFN 010404Z AUTO VRB06KT 1SM -SN BR OVC009 M01/M02 A2990 RMK AO2 P0001 T10061022
AFN,2017-04-01 04:10,-72.0030,42.8051,M,M,M,30.00,3.00,0.02,29.91,M,1.00,M,OVC,M,M,M,900.00,M,M,M,-SN BR,KAFN 010410Z AUTO 03003KT 1SM -SN BR OVC009 A2991 RMK P0002 VRB03KT  MADISHF
AFN,2017-04-01 04:15,-72.0030,42.8051,M,M,M,50.00,6.00,0.03,29.90,M,1.00,M,OVC,M,M,M,800.00,M,M,M,-SN BR,KAFN 010415Z AUTO 05006KT 1SM -SN BR OVC008 A2990 RMK P0003 VRB06KT  MADISHF
AFN,2017-04-01 04:20,-72.0030,42.8051,M,M,M,70.00,4.00,0.03,29.90,M,1.25,M,OVC,M,M,M,800.00,M,M,M,-SN BR,KAFN 010420Z AUTO 07004KT 1 1/2SM -SN BR OVC008 A2990 RMK P0003 VRB04KT  MADISHF
AFN,2017-04-01 04:24,-72.0030,42.8051,30.90,28.00,88.84,M,4.00,0.03,29.90,M,1.25,M,BKN,OVC,M,M,800.00,1100.00,M,M,-SN BR,KAFN 010424Z AUTO VRB04KT 1 1/4SM -SN BR BKN008 OVC011 M01/M02 A2990 RMK AO2 P0003 T10061022
AFN,2017-04-01 04:30,-72.0030,42.8051,M,M,M,60.00,3.00,0.04,29.90,M,1.25,M,OVC,M,M,M,900.00,M,M,M,-SN BR,KAFN 010430Z AUTO 06003KT 1 1/2SM -SN BR OVC009 A2990 RMK P0004 VRB03KT  MADISHF
AFN,2017-04-01 04:35,-72.0030,42.8051,M,M,M,50.00,5.00,0.05,29.89,M,1.25,M,OVC,M,M,M,900.00,M,M,M,-SN BR,KAFN 010435Z AUTO 05005KT 1 1/2SM -SN BR OVC009 A2989 RMK P0005 VRB05KT  MADISHF
AFN,2017-04-01 04:40,-72.0030,42.8051,M,M,M,M,M,0.05,29.89,M,1.25,M,OVC,M,M,M,900.00,M,M,M,-SN BR,KAFN 010440Z AUTO /////KT 1 1/2SM -SN BR OVC009 A2989 RMK P0005 MADISHF
AFN,2017-04-01 04:50,-72.0030,42.8051,M,M,M,30.00,6.00,0.06,29.89,M,1.25,M,SCT,OVC,M,M,900.00,1200.00,M,M,-SN BR,KAFN 010450Z AUTO 03006KT 1 1/2SM -SN BR SCT009 OVC012 A2989 RMK P0006 VRB06KT  MADISHF
AFN,2017-04-01 04:52,-72.0030,42.8051,30.90,28.00,88.84,M,6.00,0.06,29.89,1013.70,1.25,M,OVC,M,M,M,900.00,M,M,M,-SN BR,KAFN 010452Z AUTO VRB06KT 1 1/4SM -SN BR OVC009 M01/M02 A2989 RMK AO2 SLP137 P0006 T10061022 400171011
AFN,2017-04-01 04:55,-72.0030,42.8051,M,M,M,30.00,4.00,0.01,29.88,M,1.25,M,OVC,M,M,M,900.00,M,M,M,-SN BR,KAFN 010455Z AUTO 03004KT 1 1/2SM -SN BR OVC009 A2988 RMK P0001 VRB04KT  MADISHF
AFN,2017-04-01 05:00,-72.0030,42.8051,M,M,M,40.00,3.00,0.02,29.88,M,1.25,M,OVC,M,M,M,900.00,M,M,M,-SN BR,KAFN 010500Z AUTO 04003KT 1 1/2SM -SN BR OVC009 A2988 RMK P0002 VRB03KT  MADISHF
AFN,2017-04-01 05:05,-72.0030,42.8051,M,M,M,0.00,0.00,0.02,29.88,M,1.25,M,OVC,M,M,M,900.00,M,M,M,-SN BR,KAFN 010505Z AUTO 00000KT 1 1/2SM -SN BR OVC009 A2988 RMK P0002 MADISHF
AFN,2017-04-01 05:10,-72.0030,42.8051,M,M,M,M,M,0.03,29.88,M,1.25,M,OVC,M,M,M,999.00,M,M,M,-SN BR,KAFN 010510Z AUTO /////KT 1 1/2SM -SN BR OVC009 A2988 RMK P0003 MADISHF
AFN,2017-04-01 05:15,-72.0030,42.8051,30.90,28.90,92.18,M,5.00,0.03,29.87,M,1.00,M,OVC,M,M,M,1000.00,M,M,M,-SN BR,KAFN 010515Z AUTO VRB05KT 1SM -SN BR OVC010 M01/M02 A2987 RMK AO2 P0003 T10061017
AFN,2017-04-01 05:20,-72.0030,42.8051,M,M,M,40.00,5.00,0.04,29.87,M,1.00,M,OVC,M,M,M,999.00,M,M,M,-SN BR,KAFN 010520Z AUTO 04005KT 1SM -SN BR OVC009 A2987 RMK P0004 VRB05KT  MADISHF
AFN,2017-04-01 05:25,-72.0030,42.8051,M,M,M,40.00,4.00,0.04,29.87,M,1.00,M,OVC,M,M,M,900.00,M,M,M,-SN BR,KAFN 010525Z AUTO 04004KT 1SM -SN BR OVC009 A2987 RMK P0004 VRB04KT  MADISHF
AFN,2017-04-01 05:30,-72.0030,42.8051,30.90,28.90,92.18,M,5.00,0.05,29.87,M,1.00,M,VV ,M,M,M,900.00,M,M,M,-SN BR,KAFN 010530Z AUTO VRB05KT 1SM -SN BR VV009 M01/M02 A2987 RMK AO2 P0005 T10061017
AFN,2017-04-01 05:40,-72.0030,42.8051,M,M,M,40.00,4.00,0.07,29.87,M,1.25,M,OVC,M,M,M,900.00,M,M,M,-SN BR,KAFN 010540Z AUTO 04004KT 1 1/2SM -SN BR OVC009 A2987 RMK P0007 VRB04KT  MADISHF
AFN,2017-04-01 05:41,-72.0030,42.8051,30.90,28.90,92.18,M,3.00,0.07,29.86,M,1.25,M,SCT,OVC,M,M,700.00,1100.00,M,M,-SN BR,KAFN 010541Z AUTO VRB03KT 1 1/4SM -SN BR SCT007 OVC011 M01/M02 A2986 RMK AO2 P0007 T10061017
AFN,2017-04-01 05:45,-72.0030,42.8051,M,M,M,M,M,0.07,29.86,M,1.25,M,OVC,M,M,M,1100.00,M,M,M,-SN BR,KAFN 010545Z AUTO /////KT 1 1/2SM -SN BR OVC011 A2986 RMK P0007 MADISHF
AFN,2017-04-01 05:50,-72.0030,42.8051,M,M,M,M,M,0.08,29.86,M,1.25,M,OVC,M,M,M,1100.00,M,M,M,-SN BR,KAFN 010550Z AUTO /////KT 1 1/2SM -SN BR OVC011 A2986 RMK P0008 MADISHF
AFN,2017-04-01 05:52,-72.0030,42.8051,30.90,28.90,92.18,M,M,0.08,29.86,1012.70,1.25,M,SCT,OVC,M,M,700.00,1100.00,M,M,-SN BR,KAFN 010552Z AUTO 1 1/4SM -SN BR SCT007 OVC011 M01/M02 A2986 RMK AO2 SLP127 P0008 60051 T10061017 11006 21011 56026
AFN,2017-04-01 05:55,-72.0030,42.8051,M,M,M,40.00,4.00,0.01,29.85,M,1.25,M,FEW,OVC,M,M,700.00,1100.00,M,M,UP BR,KAFN 010555Z AUTO 04004KT 1 1/2SM UP BR FEW007 OVC011 A2985 RMK P0001 VRB04KT  MADISHF
AFN,2017-04-01 06:00,-72.0030,42.8051,M,M,M,40.00,7.00,0.01,29.85,M,1.25,M,OVC,M,M,M,1300.00,M,M,M,-SN BR,KAFN 010600Z AUTO 04007KT 1 1/2SM -SN BR OVC013 A2985 RMK P0001 WND 36V08  MADISHF
AFN,2017-04-01 06:05,-72.0030,42.8051,M,M,M,40.00,5.00,0.02,29.84,M,1.25,M,BKN,OVC,M,M,1100.00,1400.00,M,M,-SN BR,KAFN 010605Z AUTO 04005KT 1 1/2SM -SN BR BKN011 OVC014 A2984 RMK P0002 VRB05KT  MADISHF
AFN,2017-04-01 06:15,-72.0030,42.8051,M,M,M,40.00,7.00,0.04,29.85,M,1.50,M,BKN,OVC,M,M,999.00,1400.00,M,M,UP BR,KAFN 010615Z AUTO 04007KT 1 1/2SM UP BR BKN009 OVC014 A2985 RMK P0004 WND 01V07  MADISHF
AFN,2017-04-01 06:19,-72.0030,42.8051,32.00,28.90,88.17,M,5.00,0.04,29.85,M,1.50,M,BKN,OVC,M,M,1000.00,1400.00,M,M,-SN BR,KAFN 010619Z AUTO VRB05KT 1 1/2SM -SN BR BKN010 OVC014 00/M02 A2985 RMK AO2 UPB0555E18SNE0555B0557E06B18 P0004 T00001017
AFN,2017-04-01 06:20,-72.0030,42.8051,M,M,M,30.00,5.00,0.04,29.85,M,1.50,M,BKN,OVC,M,M,999.00,1400.00,M,M,-SN BR,KAFN 010620Z AUTO 03005KT 1 1/2SM -SN BR BKN009 OVC014 A2985 RMK P0004 VRB05KT  MADISHF
AFN,2017-04-01 06:25,-72.0030,42.8051,M,M,M,20.00,3.00,0.05,29.85,M,1.25,M,OVC,M,M,M,1200.00,M,M,M,-SN BR,KAFN 010625Z AUTO 02003KT 1 1/2SM -SN BR OVC012 A2985 RMK P0005 VRB03KT  MADISHF
AFN,2017-04-01 06:30,-72.0030,42.8051,M,M,M,50.00,5.00,0.06,29.84,M,1.25,M,BKN,OVC,M,M,999.00,1400.00,M,M,-SN BR,KAFN 010630Z AUTO 05005KT 1 1/2SM -SN BR BKN009 OVC014 A2984 RMK P0006 VRB05KT  MADISHF
AFN,2017-04-01 06:31,-72.0030,42.8051,32.00,28.90,88.17,M,5.00,0.06,29.84,M,1.25,M,BKN,OVC,M,M,1000.00,1400.00,M,M,UP BR,KAFN 010631Z AUTO VRB05KT 1 1/4SM UP BR BKN010 OVC014 00/M02 A2984 RMK AO2 UPB0555E18B31SNE0555B0557E06B18E31 P0006 T00001017
AFN,2017-04-01 06:35,-72.0030,42.8051,M,M,M,50.00,7.00,0.06,29.84,M,1.25,M,OVC,M,M,M,1200.00,M,M,M,-SN BR,KAFN 010635Z AUTO 05007KT 1 1/2SM -SN BR OVC012 A2984 RMK P0006 WND 01V10  MADISHF
AFN,2017-04-01 06:40,-72.0030,42.8051,M,M,M,40.00,6.00,0.06,29.84,M,1.25,M,OVC,M,M,M,999.00,M,M,M,-SN BR,KAFN 010640Z AUTO 04006KT 1 1/2SM -SN BR OVC009 A2984 RMK P0006 VRB06KT  MADISHF
AFN,2017-04-01 06:50,-72.0030,42.8051,M,M,M,40.00,5.00,0.07,29.84,M,1.00,M,OVC,M,M,M,999.00,M,M,M,-SN BR,KAFN 010650Z AUTO 04005KT 1SM -SN BR OVC009 A2984 RMK P0007 VRB05KT  MADISHF
AFN,2017-04-01 06:52,-72.0030,42.8051,32.00,30.00,92.22,M,3.00,0.07,29.84,1012.00,1.00,M,OVC,M,M,M,1000.00,M,M,M,-SN BR,KAFN 010652Z AUTO VRB03KT 1SM -SN BR OVC010 00/M01 A2984 RMK AO2 UPB0555E18B31E33SNE0555B0557E06B18E31B33 SLP120 P0007 T00001011
AFN,2017-04-01 06:55,-72.0030,42.8051,M,M,M,50.00,3.00,M,29.84,M,1.00,M,OVC,M,M,M,999.00,M,M,M,-SN BR,KAFN 010655Z AUTO 05003KT 1SM -SN BR OVC009 A2984 RMK VRB03KT  MADISHF
AFN,2017-04-01 07:00,-72.0030,42.8051,M,M,M,40.00,4.00,0.01,29.83,M,1.25,M,OVC,M,M,M,999.00,M,M,M,-SN BR,KAFN 010700Z AUTO 04004KT 1 1/2SM -SN BR OVC009 A2983 RMK P0001 VRB04KT  MADISHF
AFN,2017-04-01 07:04,-72.0030,42.8051,30.90,28.90,92.18,M,6.00,0.01,29.83,M,1.25,M,OVC,M,M,M,1000.00,M,M,M,UP BR,KAFN 010704Z AUTO VRB06KT 1 1/4SM UP BR OVC010 M01/M02 A2983 RMK AO2 UPB03SNE03 P0001 T10061017
AFN,2017-04-01 07:05,-72.0030,42.8051,M,M,M,40.00,6.00,0.01,29.83,M,1.50,M,OVC,M,M,M,999.00,M,M,M,UP BR,KAFN 010705Z AUTO 04006KT 1 1/2SM UP BR OVC009 A2983 RMK P0001 VRB06KT  MADISHF
AFN,2017-04-01 07:10,-72.0030,42.8051,M,M,M,M,M,0.01,29.83,M,1.50,M,OVC,M,M,M,999.00,M,M,M,-SN BR,KAFN 010710Z AUTO /////KT 1 1/2SM -SN BR OVC009 A2983 RMK P0001 MADISHF
AFN,2017-04-01 07:11,-72.0030,42.8051,32.00,28.90,88.17,M,M,0.01,29.83,M,1.50,M,OVC,M,M,M,1000.00,M,M,M,-SN BR,KAFN 010711Z AUTO 1 1/2SM -SN BR OVC010 00/M02 A2983 RMK AO2 UPB03E07SNE03B07 P0001 T00001017
AFN,2017-04-01 07:15,-72.0030,42.8051,M,M,M,20.00,3.00,0.02,29.82,M,1.50,M,OVC,M,M,M,999.00,M,M,M,-SN BR,KAFN 010715Z AUTO 02003KT 1 1/2SM -SN BR OVC009 A2982 RMK P0002 VRB03KT  MADISHF
AFN,2017-04-01 07:20,-72.0030,42.8051,30.90,28.90,92.18,30.00,4.00,0.02,29.83,M,1.25,M,OVC,M,M,M,800.00,M,M,M,-SN BR,KAFN 010720Z AUTO 03004KT 1 1/4SM -SN BR OVC008 M01/M02 A2983 RMK AO2 UPB03E07SNE03B07 P0002 T10061017
AFN,2017-04-01 07:25,-72.0030,42.8051,M,M,M,20.00,6.00,0.02,29.82,M,1.25,M,OVC,M,M,M,800.00,M,M,M,-SN BR,KAFN 010725Z AUTO 02006KT 1 1/2SM -SN BR OVC008 A2982 RMK P0002 VRB06KT  MADISHF
AFN,2017-04-01 07:30,-72.0030,42.8051,M,M,M,350.00,4.00,0.02,29.82,M,1.25,M,OVC,M,M,M,800.00,M,M,M,-SN BR,KAFN 010730Z AUTO 35004KT 1 1/2SM -SN BR OVC008 A2982 RMK P0002 VRB04KT  MADISHF
AFN,2017-04-01 07:35,-72.0030,42.8051,M,M,M,40.00,5.00,0.02,29.82,M,1.00,M,OVC,M,M,M,800.00,M,M,M,-SN BR,KAFN 010735Z AUTO 04005KT 1SM -SN BR OVC008 A2982 RMK P0002 VRB05KT  MADISHF
AFN,2017-04-01 07:40,-72.0030,42.8051,M,M,M,10.00,4.00,0.03,29.82,M,1.00,M,VV ,M,M,M,800.00,M,M,M,-SN BR,KAFN 010740Z AUTO 01004KT 1SM -SN BR VV008 A2982 RMK P0003 VRB04KT  MADISHF
AFN,2017-04-01 07:41,-72.0030,42.8051,30.90,30.00,96.41,M,5.00,0.03,29.82,M,1.00,M,VV ,M,M,M,800.00,M,M,M,-SN BR,KAFN 010741Z AUTO VRB05KT 1SM -SN BR VV008 M01/M01 A2982 RMK AO2 UPB03E07SNE03B07 P0003 T10061011
AFN,2017-04-01 07:45,-72.0030,42.8051,M,M,M,M,M,0.03,29.82,M,1.00,M,VV ,M,M,M,800.00,M,M,M,-SN BR,KAFN 010745Z AUTO /////KT 1SM -SN BR VV008 A2982 RMK P0003 MADISHF
AFN,2017-04-01 07:50,-72.0030,42.8051,M,M,M,30.00,3.00,0.03,29.82,M,1.00,M,VV ,M,M,M,700.00,M,M,M,-SN BR,KAFN 010750Z AUTO 03003KT 1SM -SN BR VV007 A2982 RMK P0003 VRB03KT  MADISHF
AFN,2017-04-01 07:52,-72.0030,42.8051,30.90,30.00,96.41,M,5.00,0.03,29.82,1011.30,1.00,M,VV ,M,M,M,800.00,M,M,M,-SN BR,KAFN 010752Z AUTO VRB05KT 1SM -SN BR VV008 M01/M01 A2982 RMK AO2 UPB03E07SNE03B07 SLP113 P0003 T10061011
AFN,2017-04-01 07:55,-72.0030,42.8051,M,M,M,40.00,5.00,M,29.82,M,0.75,M,VV ,M,M,M,700.00,M,M,M,-SN BR,KAFN 010755Z AUTO 04005KT 1SM -SN BR VV007 A2982 RMK VRB05KT  MADISHF
AFN,2017-04-01 08:00,-72.0030,42.8051,30.90,30.00,96.41,M,6.00,0.01,29.82,M,0.75,M,VV ,M,M,M,700.00,M,M,M,-SN BR,KAFN 010800Z AUTO VRB06KT 3/4SM -SN BR VV007 M01/M01 A2982 RMK AO2 P0001 T10061011
AFN,2017-04-01 08:05,-72.0030,42.8051,M,M,M,20.00,4.00,0.01,29.82,M,0.75,M,VV ,M,M,M,700.00,M,M,M,-SN BR,KAFN 010805Z AUTO 02004KT 1SM -SN BR VV007 A2982 RMK P0001 VRB04KT  MADISHF
AFN,2017-04-01 08:10,-72.0030,42.8051,M,M,M,M,M,0.01,29.82,M,0.75,M,VV ,M,M,M,600.00,M,M,M,-SN BR,KAFN 010810Z AUTO /////KT 1SM -SN BR VV006 A2982 RMK P0001 MADISHF
AFN,2017-04-01 08:15,-72.0030,42.8051,M,M,M,30.00,6.00,0.02,29.82,M,0.75,M,VV ,M,M,M,600.00,M,M,M,-SN BR,KAFN 010815Z AUTO 03006KT 1SM -SN BR VV006 A2982 RMK P0002 VRB06KT  MADISHF
AFN,2017-04-01 08:20,-72.0030,42.8051,M,M,M,20.00,6.00,0.02,29.82,M,0.75,M,VV ,M,M,M,600.00,M,M,M,-SN BR,KAFN 010820Z AUTO 02006KT 1SM -SN BR VV006 A2982 RMK P0002 VRB06KT  MADISHF
AFN,2017-04-01 08:25,-72.0030,42.8051,M,M,M,20.00,6.00,0.02,29.81,M,0.75,M,VV ,M,M,M,700.00,M,M,M,-SN BR,KAFN 010825Z AUTO 02006KT 1SM -SN BR VV007 A2981 RMK P0002 VRB06KT  MADISHF
AFN,2017-04-01 08:30,-72.0030,42.8051,M,M,M,30.00,5.00,0.03,29.81,M,0.75,M,VV ,M,M,M,700.00,M,M,M,-SN BR,KAFN 010830Z AUTO 03005KT 1SM -SN BR VV007 A2981 RMK P0003 VRB05KT  MADISHF
AFN,2017-04-01 08:35,-72.0030,42.8051,M,M,M,M,M,0.03,29.81,M,0.75,M,VV ,M,M,M,700.00,M,M,M,-SN BR,KAFN 010835Z AUTO /////KT 1SM -SN BR VV007 A2981 RMK P0003 MADISHF
AFN,2017-04-01 08:40,-72.0030,42.8051,M,M,M,360.00,3.00,0.03,29.81,M,0.75,M,VV ,M,M,M,700.00,M,M,M,-SN BR,KAFN 010840Z AUTO 36003KT 1SM -SN BR VV007 A2981 RMK P0003 VRB03KT  MADISHF
AFN,2017-04-01 08:45,-72.0030,42.8051,M,M,M,40.00,5.00,0.04,29.81,M,0.75,M,VV ,M,M,M,700.00,M,M,M,-SN BR,KAFN 010845Z AUTO 04005KT 1SM -SN BR VV007 A2981 RMK P0004 VRB05KT  MADISHF
AFN,2017-04-01 08:50,-72.0030,42.8051,M,M,M,30.00,7.00,0.04,29.81,M,0.75,M,VV ,M,M,M,700.00,M,M,M,-SN BR,KAFN 010850Z AUTO 03007KT 1SM -SN BR VV007 A2981 RMK P0004 WND 35V06  MADISHF
AFN,2017-04-01 08:52,-72.0030,42.8051,30.90,30.00,96.41,M,4.00,0.04,29.81,1011.10,0.75,M,VV ,M,M,M,700.00,M,M,M,-SN BR,KAFN 010852Z AUTO VRB04KT 3/4SM -SN BR VV007 M01/M01 A2981 RMK AO2 SLP111 P0004 60014 T10061011 56015
AFN,2017-04-01 08:55,-72.0030,42.8051,M,M,M,40.00,6.00,0.01,29.81,M,0.75,M,VV ,M,M,M,600.00,M,M,M,-SN BR,KAFN 010855Z AUTO 04006KT 1SM -SN BR VV006 A2981 RMK P0001 VRB06KT  MADISHF
AFN,2017-04-01 09:00,-72.0030,42.8051,M,M,M,30.00,9.00,0.01,29.81,M,0.75,M,VV ,M,M,M,600.00,M,M,M,-SN BR,KAFN 010900Z AUTO 03009KT 1SM -SN BR VV006 A2981 RMK P0001 WND 35V06  MADISHF
AFN,2017-04-01 09:05,-72.0030,42.8051,M,M,M,M,M,0.01,29.81,M,0.75,M,VV ,M,M,M,600.00,M,M,M,-SN BR,KAFN 010905Z AUTO /////KT 1SM -SN BR VV006 A2981 RMK P0001 MADISHF
AFN,2017-04-01 09:10,-72.0030,42.8051,M,M,M,30.00,8.00,0.01,29.80,M,0.75,M,VV ,M,M,M,600.00,M,M,M,-SN BR,KAFN 010910Z AUTO 03008KT 1SM -SN BR VV006 A2980 RMK P0001 MADISHF
AFN,2017-04-01 09:15,-72.0030,42.8051,M,M,M,10.00,6.00,0.02,29.80,M,0.75,M,VV ,M,M,M,700.00,M,M,M,-SN BR,KAFN 010915Z AUTO 01006KT 1SM -SN BR VV007 A2980 RMK P0002 VRB06G17KT  MADISHF
AFN,2017-04-01 09:22,-72.0030,42.8051,30.90,30.00,96.41,30.00,7.00,0.02,29.80,M,1.00,M,OVC,M,M,M,700.00,M,M,M,-SN BR,KAFN 010922Z AUTO 03007KT 340V080 1SM -SN BR OVC007 M01/M01 A2980 RMK AO2 P0002 T10061011
AFN,2017-04-01 09:25,-72.0030,42.8051,M,M,M,10.00,4.00,0.02,29.80,M,1.00,M,OVC,M,M,M,700.00,M,M,M,-SN BR,KAFN 010925Z AUTO 01004KT 1SM -SN BR OVC007 A2980 RMK P0002 VRB04KT  MADISHF
AFN,2017-04-01 09:30,-72.0030,42.8051,M,M,M,20.00,4.00,0.03,29.80,M,1.00,M,VV ,M,M,M,800.00,M,M,M,-SN BR,KAFN 010930Z AUTO 02004KT 1SM -SN BR VV008 A2980 RMK P0003 VRB04KT  MADISHF
AFN,2017-04-01 09:35,-72.0030,42.8051,M,M,M,360.00,3.00,0.03,29.80,M,1.00,M,VV ,M,M,M,700.00,M,M,M,-SN BR,KAFN 010935Z AUTO 36003KT 1SM -SN BR VV007 A2980 RMK P0003 VRB03KT  MADISHF
AFN,2017-04-01 09:40,-72.0030,42.8051,M,M,M,10.00,5.00,0.03,29.80,M,1.00,M,OVC,M,M,M,700.00,M,M,M,-SN BR,KAFN 010940Z AUTO 01005KT 1SM -SN BR OVC007 A2980 RMK P0003 VRB05KT  MADISHF
AFN,2017-04-01 09:45,-72.0030,42.8051,M,M,M,20.00,5.00,0.04,29.80,M,1.00,M,OVC,M,M,M,700.00,M,M,M,-SN BR,KAFN 010945Z AUTO 02005KT 1SM -SN BR OVC007 A2980 RMK P0004 VRB05KT  MADISHF
AFN,2017-04-01 09:50,-72.0030,42.8051,M,M,M,10.00,5.00,0.04,29.80,M,1.00,M,OVC,M,M,M,700.00,M,M,M,-SN BR,KAFN 010950Z AUTO 01005KT 1SM -SN BR OVC007 A2980 RMK P0004 VRB05KT  MADISHF
AFN,2017-04-01 09:52,-72.0030,42.8051,30.90,30.00,96.41,M,3.00,0.04,29.80,1010.80,1.00,M,OVC,M,M,M,700.00,M,M,M,-SN BR,KAFN 010952Z AUTO VRB03KT 1SM -SN BR OVC007 M01/M01 A2980 RMK AO2 SLP108 P0004 T10061011
AFN,2017-04-01 09:55,-72.0030,42.8051,M,M,M,10.00,5.00,0.01,29.80,M,0.75,M,OVC,M,M,M,700.00,M,M,M,-SN BR,KAFN 010955Z AUTO 01005KT 1SM -SN BR OVC007 A2980 RMK P0001 VRB05KT  MADISHF
AFN,2017-04-01 10:01,-72.0030,42.8051,30.90,30.00,96.41,M,4.00,0.01,29.80,M,0.75,M,OVC,M,M,M,700.00,M,M,M,-SN BR,KAFN 011001Z AUTO VRB04KT 3/4SM -SN BR OVC007 M01/M01 A2980 RMK AO2 P0001 T10061011
AFN,2017-04-01 10:05,-72.0030,42.8051,M,M,M,10.00,5.00,0.01,29.80,M,0.75,M,OVC,M,M,M,700.00,M,M,M,-SN BR,KAFN 011005Z AUTO 01005KT 1SM -SN BR OVC007 A2980 RMK P0001 VRB05KT  MADISHF
AFN,2017-04-01 10:10,-72.0030,42.8051,M,M,M,10.00,5.00,0.02,29.80,M,0.75,M,OVC,M,M,M,600.00,M,M,M,-SN BR,KAFN 011010Z AUTO 01005KT 1SM -SN BR OVC006 A2980 RMK P0002 MADISHF
AFN,2017-04-01 10:15,-72.0030,42.8051,M,M,M,30.00,5.00,0.03,29.80,M,0.75,M,VV ,M,M,M,600.00,M,M,M,-SN BR,KAFN 011015Z AUTO 03005KT 1SM -SN BR VV006 A2980 RMK P0003 VRB05KT  MADISHF
AFN,2017-04-01 10:20,-72.0030,42.8051,M,M,M,330.00,4.00,0.03,29.80,M,0.75,M,OVC,M,M,M,600.00,M,M,M,-SN BR,KAFN 011020Z AUTO 33004KT 1SM -SN BR OVC006 A2980 RMK P0003 VRB04KT  MADISHF
AFN,2017-04-01 10:25,-72.0030,42.8051,M,M,M,10.00,6.00,0.03,29.80,M,0.75,M,VV ,M,M,M,600.00,M,M,M,-SN BR,KAFN 011025Z AUTO 01006KT 1SM -SN BR VV006 A2980 RMK P0003 VRB06KT  MADISHF
AFN,2017-04-01 10:30,-72.0030,42.8051,M,M,M,360.00,6.00,0.04,29.80,M,0.75,M,VV ,M,M,M,600.00,M,M,M,-SN BR,KAFN 011030Z AUTO 36006KT 1SM -SN BR VV006 A2980 RMK P0004 VRB06KT  MADISHF
AFN,2017-04-01 10:35,-72.0030,42.8051,M,M,M,10.00,6.00,0.04,29.80,M,0.75,M,VV ,M,M,M,600.00,M,M,M,-SN BR,KAFN 011035Z AUTO 01006KT 1SM -SN BR VV006 A2980 RMK P0004 VRB06KT  MADISHF
AFN,2017-04-01 10:40,-72.0030,42.8051,M,M,M,10.00,6.00,0.05,29.80,M,0.75,M,VV ,M,M,M,600.00,M,M,M,-SN BR,KAFN 011040Z AUTO 01006KT 1SM -SN BR VV006 A2980 RMK P0005 VRB06KT  MADISHF
AFN,2017-04-01 10:45,-72.0030,42.8051,M,M,M,20.00,5.00,0.05,29.80,M,0.75,M,VV ,M,M,M,600.00,M,M,M,-SN BR,KAFN 011045Z AUTO 02005KT 1SM -SN BR VV006 A2980 RMK P0005 VRB05KT  MADISHF
AFN,2017-04-01 10:50,-72.0030,42.8051,M,M,M,M,M,0.05,29.80,M,0.75,M,OVC,M,M,M,600.00,M,M,M,-SN BR,KAFN 011050Z AUTO /////KT 1SM -SN BR OVC006 A2980 RMK P0005 MADISHF
AFN,2017-04-01 10:52,-72.0030,42.8051,30.90,30.00,96.41,20.00,5.00,0.05,29.80,1010.80,0.75,M,OVC,M,M,M,600.00,M,M,M,-SN BR,KAFN 011052Z AUTO 02005KT 3/4SM -SN BR OVC006 M01/M01 A2980 RMK AO2 SLP108 P0005 T10061011
AFN,2017-04-01 10:55,-72.0030,42.8051,M,M,M,10.00,5.00,M,29.80,M,0.75,M,OVC,M,M,M,600.00,M,M,M,-SN BR,KAFN 011055Z AUTO 01005KT 1SM -SN BR OVC006 A2980 RMK VRB05KT  MADISHF
AFN,2017-04-01 11:00,-72.0030,42.8051,M,M,M,30.00,4.00,0.01,29.80,M,0.50,M,OVC,M,M,M,600.00,M,M,M,-SN FZFG,KAFN 011100Z AUTO 03004KT 1/2SM -SN FZFG OVC006 A2980 RMK P0001 VRB04KT  MADISHF
AFN,2017-04-01 11:05,-72.0030,42.8051,M,M,M,10.00,4.00,0.01,29.81,M,0.50,M,OVC,M,M,M,600.00,M,M,M,-SN FZFG,KAFN 011105Z AUTO 01004KT 1/2SM -SN FZFG OVC006 A2981 RMK P0001 VRB04KT  MADISHF
AFN,2017-04-01 11:10,-72.0030,42.8051,M,M,M,360.00,6.00,0.01,29.81,M,0.50,M,OVC,M,M,M,600.00,M,M,M,-SN FZFG,KAFN 011110Z AUTO 36006KT 1/2SM -SN FZFG OVC006 A2981 RMK P0001 VRB06KT  MADISHF
AFN,2017-04-01 11:15,-72.0030,42.8051,M,M,M,10.00,3.00,0.01,29.81,M,0.50,M,OVC,M,M,M,600.00,M,M,M,-SN FZFG,KAFN 011115Z AUTO 01003KT 1/2SM -SN FZFG OVC006 A2981 RMK P0001 VRB03KT  MADISHF
AFN,2017-04-01 11:20,-72.0030,42.8051,M,M,M,30.00,5.00,0.02,29.81,M,0.50,M,OVC,M,M,M,600.00,M,M,M,-SN FZFG,KAFN 011120Z AUTO 03005KT 1/2SM -SN FZFG OVC006 A2981 RMK P0002 VRB05KT  MADISHF
AFN,2017-04-01 11:25,-72.0030,42.8051,M,M,M,10.00,4.00,0.03,29.81,M,0.50,M,OVC,M,M,M,600.00,M,M,M,-SN FZFG,KAFN 011125Z AUTO 01004KT 1/2SM -SN FZFG OVC006 A2981 RMK P0003 VRB04KT  MADISHF
AFN,2017-04-01 11:30,-72.0030,42.8051,M,M,M,20.00,7.00,0.04,29.81,M,0.50,M,OVC,M,M,M,600.00,M,M,M,SN FZFG,KAFN 011130Z AUTO 02007KT 1/2SM SN FZFG OVC006 A2981 RMK P0004 WND 34V05  MADISHF
AFN,2017-04-01 11:35,-72.0030,42.8051,M,M,M,360.00,5.00,0.05,29.81,M,0.50,M,OVC,M,M,M,600.00,M,M,M,SN FZFG,KAFN 011135Z AUTO 36005KT 1/2SM SN FZFG OVC006 A2981 RMK P0005 VRB05KT  MADISHF
AFN,2017-04-01 11:40,-72.0030,42.8051,M,M,M,20.00,6.00,0.05,29.81,M,0.50,M,VV ,M,M,M,600.00,M,M,M,SN FZFG,KAFN 011140Z AUTO 02006KT 1/2SM SN FZFG VV006 A2981 RMK P0005 VRB06KT  MADISHF
AFN,2017-04-01 11:45,-72.0030,42.8051,M,M,M,20.00,4.00,0.06,29.81,M,0.50,M,VV ,M,M,M,600.00,M,M,M,-SN FZFG,KAFN 011145Z AUTO 02004KT 1/2SM -SN FZFG VV006 A2981 RMK P0006 VRB04KT  MADISHF
AFN,2017-04-01 11:50,-72.0030,42.8051,M,M,M,20.00,5.00,0.07,29.82,M,0.50,M,VV ,M,M,M,499.00,M,M,M,-SN FZFG,KAFN 011150Z AUTO 02005KT 1/2SM -SN FZFG VV004 A2982 RMK P0007 VRB05KT  MADISHF
AFN,2017-04-01 11:52,-72.0030,42.8051,32.00,30.00,92.22,M,5.00,0.07,29.82,1011.30,0.50,M,VV ,M,M,M,500.00,M,M,M,-SN FG,KAFN 011152Z AUTO VRB05KT 1/2SM -SN FG VV005 00/M01 A2982 RMK AO2 SLP113 P0007 60030 70129 T00001011 10000 21006 53001
AFN,2017-04-01 11:55,-72.0030,42.8051,M,M,M,20.00,5.00,0.01,29.82,M,0.25,M,VV ,M,M,M,499.00,M,M,M,SN FZFG,KAFN 011155Z AUTO 02005KT 1/4SM SN FZFG VV004 A2982 RMK P0001 MADISHF
AFN,2017-04-01 12:05,-72.0030,42.8051,M,M,M,360.00,5.00,0.02,29.82,M,0.25,M,VV ,M,M,M,499.00,M,M,M,SN FG,KAFN 011205Z AUTO 36005KT 1/4SM SN FG VV004 A2982 RMK P0002 VRB05KT  MADISHF
AFN,2017-04-01 12:10,-72.0030,42.8051,M,M,M,360.00,5.00,0.02,29.82,M,0.25,M,VV ,M,M,M,499.00,M,M,M,SN FG,KAFN 011210Z AUTO 36005KT 1/4SM SN FG VV004 A2982 RMK P0002 VRB05KT  MADISHF
AFN,2017-04-01 12:15,-72.0030,42.8051,M,M,M,360.00,4.00,0.03,29.82,M,0.50,M,VV ,M,M,M,499.00,M,M,M,-SN FG,KAFN 011215Z AUTO 36004KT 1/2SM -SN FG VV004 A2982 RMK P0003 VRB04KT  MADISHF
AFN,2017-04-01 12:20,-72.0030,42.8051,M,M,M,360.00,6.00,0.03,29.82,M,0.50,M,VV ,M,M,M,499.00,M,M,M,-SN FG,KAFN 011220Z AUTO 36006KT 1/2SM -SN FG VV004 A2982 RMK P0003 VRB06KT  MADISHF
AFN,2017-04-01 12:25,-72.0030,42.8051,M,M,M,360.00,5.00,0.03,29.82,M,0.50,M,VV ,M,M,M,499.00,M,M,M,-SN FG,KAFN 011225Z AUTO 36005KT 1/2SM -SN FG VV004 A2982 RMK P0003 VRB05KT  MADISHF
AFN,2017-04-01 12:30,-72.0030,42.8051,M,M,M,10.00,6.00,0.03,29.82,M,0.25,M,VV ,M,M,M,499.00,M,M,M,-SN FG,KAFN 011230Z AUTO 01006KT 1/4SM -SN FG VV004 A2982 RMK P0003 VRB06KT  MADISHF
AFN,2017-04-01 12:35,-72.0030,42.8051,M,M,M,20.00,5.00,0.04,29.82,M,0.25,M,VV ,M,M,M,499.00,M,M,M,SN FG,KAFN 011235Z AUTO 02005KT 1/4SM SN FG VV004 A2982 RMK P0004 VRB05KT  MADISHF
AFN,2017-04-01 12:40,-72.0030,42.8051,M,M,M,350.00,5.00,0.04,29.82,M,0.25,M,VV ,M,M,M,499.00,M,M,M,SN FG,KAFN 011240Z AUTO 35005KT 1/4SM SN FG VV004 A2982 RMK P0004 VRB05KT  MADISHF
AFN,2017-04-01 12:45,-72.0030,42.8051,M,M,M,20.00,5.00,0.05,29.82,M,0.25,M,VV ,M,M,M,499.00,M,M,M,SN FG,KAFN 011245Z AUTO 02005KT 1/4SM SN FG VV004 A2982 RMK P0005 VRB05KT  MADISHF
AFN,2017-04-01 12:52,-72.0030,42.8051,32.00,30.00,92.22,20.00,7.00,0.05,29.83,1011.70,0.25,M,VV ,M,M,M,500.00,M,M,M,-SN FG,KAFN 011252Z AUTO 02007KT 1/4SM -SN FG VV005 00/M01 A2983 RMK AO2 SLP117 P0005 T00001011
AFN,2017-04-01 12:55,-72.0030,42.8051,M,M,M,360.00,4.00,M,29.83,M,0.25,M,VV ,M,M,M,499.00,M,M,M,-SN FG,KAFN 011255Z AUTO 36004KT 1/4SM -SN FG VV004 A2983 RMK VRB04KT  MADISHF
AFN,2017-04-01 13:00,-72.0030,42.8051,M,M,M,10.00,5.00,0.01,29.83,M,0.25,M,OVC,M,M,M,499.00,M,M,M,-SN FG,KAFN 011300Z AUTO 01005KT 1/4SM -SN FG OVC004 A2983 RMK P0001 VRB05KT  MADISHF
AFN,2017-04-01 13:05,-72.0030,42.8051,M,M,M,350.00,4.00,0.01,29.83,M,0.25,M,OVC,M,M,M,499.00,M,M,M,-SN FG,KAFN 011305Z AUTO 35004KT 1/4SM -SN FG OVC004 A2983 RMK P0001 VRB04KT  MADISHF
AFN,2017-04-01 13:10,-72.0030,42.8051,M,M,M,10.00,4.00,0.01,29.83,M,0.50,M,VV ,M,M,M,499.00,M,M,M,-SN FG,KAFN 011310Z AUTO 01004KT 1/2SM -SN FG VV004 A2983 RMK P0001 VRB04KT  MADISHF
AFN,2017-04-01 13:15,-72.0030,42.8051,M,M,M,360.00,5.00,0.01,29.83,M,0.50,M,VV ,M,M,M,499.00,M,M,M,-SN FG,KAFN 011315Z AUTO 36005KT 1/2SM -SN FG VV004 A2983 RMK P0001 VRB05KT  MADISHF
AFN,2017-04-01 13:20,-72.0030,42.8051,M,M,M,30.00,4.00,0.02,29.83,M,0.50,M,OVC,M,M,M,499.00,M,M,M,-SN FG,KAFN 011320Z AUTO 03004KT 1/2SM -SN FG OVC004 A2983 RMK P0002 VRB04KT  MADISHF
AFN,2017-04-01 13:25,-72.0030,42.8051,M,M,M,M,M,0.02,29.83,M,0.50,M,OVC,M,M,M,499.00,M,M,M,-SN FG,KAFN 011325Z AUTO /////KT 1/2SM -SN FG OVC004 A2983 RMK P0002 MADISHF
AFN,2017-04-01 13:30,-72.0030,42.8051,M,M,M,10.00,6.00,0.02,29.83,M,0.50,M,OVC,M,M,M,499.00,M,M,M,-SN FG,KAFN 011330Z AUTO 01006KT 1/2SM -SN FG OVC004 A2983 RMK P0002 VRB06KT  MADISHF
AFN,2017-04-01 13:35,-72.0030,42.8051,M,M,M,350.00,5.00,0.03,29.84,M,0.50,M,OVC,M,M,M,499.00,M,M,M,SN FG,KAFN 011335Z AUTO 35005KT 1/2SM SN FG OVC004 A2984 RMK P0003 VRB05KT  MADISHF
AFN,2017-04-01 13:40,-72.0030,42.8051,M,M,M,10.00,6.00,0.03,29.84,M,0.25,M,OVC,M,M,M,499.00,M,M,M,SN FG,KAFN 011340Z AUTO 01006KT 1/4SM SN FG OVC004 A2984 RMK P0003 VRB06KT  MADISHF
AFN,2017-04-01 13:45,-72.0030,42.8051,M,M,M,20.00,7.00,0.04,29.84,M,0.25,M,OVC,M,M,M,499.00,M,M,M,SN FG,KAFN 011345Z AUTO 02007KT 1/4SM SN FG OVC004 A2984 RMK P0004 WND 33V10  MADISHF
AFN,2017-04-01 13:50,-72.0030,42.8051,M,M,M,10.00,5.00,0.04,29.84,M,0.25,M,VV ,M,M,M,499.00,M,M,M,SN FG,KAFN 011350Z AUTO 01005KT 1/4SM SN FG VV004 A2984 RMK P0004 VRB05G15KT  MADISHF
AFN,2017-04-01 13:52,-72.0030,42.8051,32.00,30.90,95.65,360.00,7.00,0.04,29.84,1012.20,0.25,15.00,VV ,M,M,M,400.00,M,M,M,SN FG,KAFN 011352Z AUTO 36007G15KT 330V050 1/4SM SN FG VV004 00/M01 A2984 RMK AO2 SLP122 P0004 T00001006
AFN,2017-04-01 13:55,-72.0030,42.8051,M,M,M,360.00,4.00,0.01,29.84,M,0.25,M,VV ,M,M,M,400.00,M,M,M,SN FG,KAFN 011355Z AUTO 36004KT 1/4SM SN FG VV004 A2984 RMK P0001 VRB04KT  MADISHF
AFN,2017-04-01 14:00,-72.0030,42.8051,M,M,M,20.00,6.00,0.01,29.85,M,0.25,M,OVC,M,M,M,400.00,M,M,M,SN FG,KAFN 011400Z AUTO 02006KT 1/4SM SN FG OVC004 A2985 RMK P0001 MADISHF
AFN,2017-04-01 14:10,-72.0030,42.8051,M,M,M,360.00,5.00,0.02,29.85,M,0.25,M,OVC,M,M,M,400.00,M,M,M,SN FG,KAFN 011410Z AUTO 36005KT 1/4SM SN FG OVC004 A2985 RMK P0002 VRB05KT  MADISHF
AFN,2017-04-01 14:15,-72.0030,42.8051,M,M,M,20.00,5.00,0.02,29.85,M,0.25,M,OVC,M,M,M,400.00,M,M,M,SN FG,KAFN 011415Z AUTO 02005KT 1/4SM SN FG OVC004 A2985 RMK P0002 VRB05KT  MADISHF
AFN,2017-04-01 14:20,-72.0030,42.8051,M,M,M,350.00,7.00,0.03,29.85,M,0.25,M,OVC,M,M,M,400.00,M,M,M,SN FG,KAFN 011420Z AUTO 35007KT 1/4SM SN FG OVC004 A2985 RMK P0003 WND 33V03  MADISHF
AFN,2017-04-01 14:25,-72.0030,42.8051,M,M,M,10.00,6.00,0.03,29.85,M,0.25,M,OVC,M,M,M,499.00,M,M,M,SN FG,KAFN 011425Z AUTO 01006KT 1/4SM SN FG OVC004 A2985 RMK P0003 VRB06G15KT  MADISHF
AFN,2017-04-01 14:30,-72.0030,42.8051,33.10,30.90,91.51,350.00,8.00,0.03,29.85,M,0.25,M,OVC,M,M,M,500.00,M,M,M,SN FG,KAFN 011430Z AUTO 35008KT 320V040 1/4SM SN FG OVC005 01/M01 A2985 RMK AO2 P0003 T00061006
AFN,2017-04-01 14:35,-72.0030,42.8051,M,M,M,10.00,7.00,0.04,29.85,M,0.25,M,OVC,M,M,M,499.00,M,M,M,SN FG,KAFN 011435Z AUTO 01007KT 1/4SM SN FG OVC004 A2985 RMK P0004 WND 33V06  MADISHF
AFN,2017-04-01 14:40,-72.0030,42.8051,M,M,M,10.00,6.00,0.04,29.86,M,0.25,M,OVC,M,M,M,499.00,M,M,M,SN FG,KAFN 011440Z AUTO 01006KT 1/4SM SN FG OVC004 A2986 RMK P0004 VRB06KT  MADISHF
AFN,2017-04-01 14:45,-72.0030,42.8051,M,M,M,360.00,4.00,0.04,29.86,M,0.50,M,OVC,M,M,M,499.00,M,M,M,SN FG,KAFN 011445Z AUTO 36004KT 1/2SM SN FG OVC004 A2986 RMK P0004 VRB04KT  MADISHF
AFN,2017-04-01 14:50,-72.0030,42.8051,M,M,M,0.00,0.00,0.05,29.86,M,0.50,M,OVC,M,M,M,499.00,M,M,M,SN FG,KAFN 011450Z AUTO 00000KT 1/2SM SN FG OVC004 A2986 RMK P0005 MADISHF
AFN,2017-04-01 14:52,-72.0030,42.8051,33.10,30.90,91.51,M,M,0.05,29.86,1012.70,0.50,M,OVC,M,M,M,500.00,M,M,M,SN FG,KAFN 011452Z AUTO 1/2SM SN FG OVC005 01/M01 A2986 RMK AO2 SLP127 P0005 60014 T00061006 53014
AFN,2017-04-01 14:55,-72.0030,42.8051,M,M,M,10.00,6.00,M,29.86,M,0.50,M,OVC,M,M,M,499.00,M,M,M,SN FG,KAFN 011455Z AUTO 01006KT 1/2SM SN FG OVC004 A2986 RMK VRB06KT  MADISHF
AFN,2017-04-01 15:00,-72.0030,42.8051,M,M,M,360.00,6.00,M,29.86,M,0.50,M,OVC,M,M,M,499.00,M,M,M,SN FG,KAFN 011500Z AUTO 36006KT 1/2SM SN FG OVC004 A2986 RMK VRB06KT  MADISHF
AFN,2017-04-01 15:05,-72.0030,42.8051,M,M,M,350.00,6.00,0.01,29.86,M,0.50,M,OVC,M,M,M,499.00,M,M,M,SN FG,KAFN 011505Z AUTO 35006KT 1/2SM SN FG OVC004 A2986 RMK P0001 MADISHF
AFN,2017-04-01 15:10,-72.0030,42.8051,M,M,M,360.00,7.00,0.01,29.86,M,0.50,M,OVC,M,M,M,700.00,M,M,M,SN FG,KAFN 011510Z AUTO 36007KT 1/2SM SN FG OVC007 A2986 RMK P0001 WND 33V05  MADISHF
AFN,2017-04-01 15:15,-72.0030,42.8051,M,M,M,10.00,7.00,0.01,29.86,M,0.75,M,BKN,OVC,M,M,499.00,900.00,M,M,-SN BR,KAFN 011515Z AUTO 01007KT 1SM -SN BR BKN004 OVC009 A2986 RMK P0001 MADISHF
AFN,2017-04-01 15:20,-72.0030,42.8051,M,M,M,10.00,6.00,0.01,29.86,M,0.75,M,BKN,OVC,M,M,700.00,999.00,M,M,-SN BR,KAFN 011520Z AUTO 01006KT 1SM -SN BR BKN007 OVC009 A2986 RMK P0001 VRB06KT  MADISHF
AFN,2017-04-01 15:22,-72.0030,42.8051,33.10,30.00,88.23,M,6.00,0.01,29.86,M,0.75,M,OVC,M,M,M,700.00,M,M,M,-SN BR,KAFN 011522Z AUTO VRB06KT 3/4SM -SN BR OVC007 01/M01 A2986 RMK AO2 P0001 T00061011
AFN,2017-04-01 15:25,-72.0030,42.8051,M,M,M,360.00,4.00,0.01,29.86,M,0.75,M,BKN,OVC,M,M,700.00,1100.00,M,M,-SN BR,KAFN 011525Z AUTO 36004KT 1SM -SN BR BKN007 OVC011 A2986 RMK P0001 VRB04KT  MADISHF
AFN,2017-04-01 15:30,-72.0030,42.8051,M,M,M,20.00,6.00,0.01,29.86,M,0.75,M,BKN,OVC,M,M,700.00,1100.00,M,M,-SN BR,KAFN 011530Z AUTO 02006KT 1SM -SN BR BKN007 OVC011 A2986 RMK P0001 VRB06KT  MADISHF
AFN,2017-04-01 15:35,-72.0030,42.8051,M,M,M,10.00,7.00,0.02,29.85,M,0.75,M,BKN,OVC,M,M,700.00,1100.00,M,M,-SN BR,KAFN 011535Z AUTO 01007KT 1SM -SN BR BKN007 OVC011 A2985 RMK P0002 WND 33V04  MADISHF
AFN,2017-04-01 15:40,-72.0030,42.8051,M,M,M,10.00,7.00,0.02,29.86,M,0.75,M,BKN,OVC,M,M,700.00,1100.00,M,M,-SN BR,KAFN 011540Z AUTO 01007KT 1SM -SN BR BKN007 OVC011 A2986 RMK P0002 WND 34V05  MADISHF
AFN,2017-04-01 15:45,-72.0030,42.8051,M,M,M,10.00,6.00,0.02,29.85,M,0.75,M,BKN,OVC,M,M,600.00,1100.00,M,M,-SN BR,KAFN 011545Z AUTO 01006KT 1SM -SN BR BKN006 OVC011 A2985 RMK P0002 VRB06G15KT  MADISHF
AFN,2017-04-01 15:52,-72.0030,42.8051,33.10,30.00,88.23,20.00,7.00,0.02,29.85,1012.50,0.75,M,BKN,OVC,M,M,600.00,1300.00,M,M,-SN BR,KAFN 011552Z AUTO 02007KT 350V060 3/4SM -SN BR BKN006 OVC013 01/M01 A2985 RMK AO2 SLP125 P0002 T00061011
AFN,2017-04-01 15:55,-72.0030,42.8051,M,M,M,20.00,8.00,M,29.85,M,0.75,M,BKN,OVC,M,M,600.00,1300.00,M,M,-SN BR,KAFN 011555Z AUTO 02008KT 1SM -SN BR BKN006 OVC013 A2985 RMK WND 33V06  MADISHF
AFN,2017-04-01 16:00,-72.0030,42.8051,M,M,M,360.00,4.00,M,29.85,M,0.75,M,BKN,OVC,M,M,600.00,1500.00,M,M,-SN BR,KAFN 011600Z AUTO 36004KT 1SM -SN BR BKN006 OVC015 A2985 RMK VRB04KT  MADISHF
AFN,2017-04-01 16:05,-72.0030,42.8051,M,M,M,360.00,7.00,M,29.85,M,0.75,M,BKN,OVC,M,M,700.00,1500.00,M,M,-SN BR,KAFN 011605Z AUTO 36007KT 1SM -SN BR BKN007 OVC015 A2985 RMK WND 32V03  MADISHF
AFN,2017-04-01 16:10,-72.0030,42.8051,M,M,M,10.00,7.00,M,29.85,M,0.75,M,BKN,OVC,M,M,700.00,1500.00,M,M,-SN BR,KAFN 011610Z AUTO 01007KT 1SM -SN BR BKN007 OVC015 A2985 RMK WND 33V05  MADISHF
AFN,2017-04-01 16:15,-72.0030,42.8051,M,M,M,350.00,6.00,0.01,29.85,M,0.75,M,BKN,OVC,M,M,700.00,1400.00,M,M,-SN BR,KAFN 011615Z AUTO 35006KT 1SM -SN BR BKN007 OVC014 A2985 RMK P0001 VRB06G17KT  MADISHF
AFN,2017-04-01 16:20,-72.0030,42.8051,M,M,M,30.00,7.00,0.01,29.85,M,0.75,M,BKN,OVC,M,M,700.00,1400.00,M,M,-SN BR,KAFN 011620Z AUTO 03007KT 1SM -SN BR BKN007 OVC014 A2985 RMK P0001 WND 35V15  MADISHF
AFN,2017-04-01 16:25,-72.0030,42.8051,M,M,M,10.00,6.00,0.01,29.85,M,1.00,M,BKN,OVC,M,M,700.00,1400.00,M,M,-SN BR,KAFN 011625Z AUTO 01006KT 1SM -SN BR BKN007 OVC014 A2985 RMK P0001 VRB06KT  MADISHF
AFN,2017-04-01 16:28,-72.0030,42.8051,33.10,30.00,88.23,M,5.00,0.01,29.85,M,1.00,M,BKN,OVC,M,M,700.00,1400.00,M,M,-SN BR,KAFN 011628Z AUTO VRB05KT 1SM -SN BR BKN007 OVC014 01/M01 A2985 RMK AO2 P0001 T00061011
AFN,2017-04-01 16:30,-72.0030,42.8051,M,M,M,20.00,6.00,0.01,29.85,M,1.00,M,BKN,OVC,M,M,700.00,1400.00,M,M,-SN BR,KAFN 011630Z AUTO 02006KT 1SM -SN BR BKN007 OVC014 A2985 RMK P0001 VRB06KT  MADISHF
AFN,2017-04-01 16:35,-72.0030,42.8051,M,M,M,10.00,10.00,0.01,29.85,M,1.25,17.00,BKN,OVC,M,M,700.00,1400.00,M,M,-SN BR,KAFN 011635Z AUTO 01010G17KT 1 1/2SM -SN BR BKN007 OVC014 A2985 RMK P0001 WND 32V08  MADISHF
AFN,2017-04-01 16:40,-72.0030,42.8051,33.10,30.00,88.23,M,5.00,0.01,29.85,M,1.25,18.00,BKN,OVC,M,M,700.00,1400.00,M,M,-SN BR,KAFN 011640Z AUTO VRB05G18KT 1 1/4SM -SN BR BKN007 OVC014 01/M01 A2985 RMK AO2 P0001 T00061011
AFN,2017-04-01 16:50,-72.0030,42.8051,M,M,M,30.00,6.00,0.01,29.85,M,1.25,M,BKN,OVC,M,M,700.00,1300.00,M,M,-SN BR,KAFN 011650Z AUTO 03006KT 1 1/2SM -SN BR BKN007 OVC013 A2985 RMK P0001 VRB06KT  MADISHF
AFN,2017-04-01 16:52,-72.0030,42.8051,33.10,30.00,88.23,30.00,8.00,0.01,29.85,1012.40,1.25,M,BKN,OVC,M,M,700.00,1300.00,M,M,-SN BR,KAFN 011652Z AUTO 03008KT 360V070 1 1/4SM -SN BR BKN007 OVC013 01/M01 A2985 RMK AO2 CIG 005V009 SLP124 P0001 T00061011
AFN,2017-04-01 16:55,-72.0030,42.8051,M,M,M,20.00,7.00,M,29.85,M,1.25,M,BKN,OVC,M,M,700.00,1300.00,M,M,-SN BR,KAFN 011655Z AUTO 02007KT 1 1/2SM -SN BR BKN007 OVC013 A2985 RMK WND 34V05 CIG 5V9  MADISHF
AFN,2017-04-01 17:05,-72.0030,42.8051,M,M,M,10.00,8.00,M,29.85,M,1.00,M,BKN,OVC,M,M,800.00,1500.00,M,M,-SN BR,KAFN 011705Z AUTO 01008KT 1SM -SN BR BKN008 OVC015 A2985 RMK WND 31V06 CIG 5V12  MADISHF
AFN,2017-04-01 17:07,-72.0030,42.8051,33.10,30.00,88.23,20.00,7.00,0.00,29.85,M,1.00,M,BKN,OVC,M,M,800.00,1500.00,M,M,-SN BR,KAFN 011707Z AUTO 02007KT 330V050 1SM -SN BR BKN008 OVC015 01/M01 A2985 RMK AO2 CIG 005V012 P0000 T00061011
AFN,2017-04-01 17:10,-72.0030,42.8051,M,M,M,20.00,8.00,M,29.85,M,0.75,M,BKN,OVC,M,M,800.00,1500.00,M,M,-SN BR,KAFN 011710Z AUTO 02008KT 1SM -SN BR BKN008 OVC015 A2985 RMK WND 35V06 CIG 5V12  MADISHF
AFN,2017-04-01 17:15,-72.0030,42.8051,M,M,M,10.00,7.00,M,29.85,M,0.75,M,BKN,OVC,M,M,800.00,1400.00,M,M,-SN BR,KAFN 011715Z AUTO 01007KT 1SM -SN BR BKN008 OVC014 A2985 RMK WND 29V04  MADISHF
AFN,2017-04-01 17:20,-72.0030,42.8051,M,M,M,360.00,7.00,M,29.85,M,1.00,M,BKN,OVC,M,M,800.00,1400.00,M,M,-SN BR,KAFN 011720Z AUTO 36007KT 1SM -SN BR BKN008 OVC014 A2985 RMK WND 33V05  MADISHF
AFN,2017-04-01 17:25,-72.0030,42.8051,M,M,M,30.00,8.00,M,29.85,M,1.00,M,BKN,OVC,M,M,800.00,1400.00,M,M,-SN BR,KAFN 011725Z AUTO 03008KT 1SM -SN BR BKN008 OVC014 A2985 RMK WND 35V07  MADISHF
AFN,2017-04-01 17:30,-72.0030,42.8051,M,M,M,10.00,6.00,M,29.85,M,1.00,M,SCT,OVC,M,M,800.00,1300.00,M,M,-SN BR,KAFN 011730Z AUTO 01006KT 1SM -SN BR SCT008 OVC013 A2985 RMK VRB06G19KT  MADISHF
AFN,2017-04-01 17:35,-72.0030,42.8051,33.10,30.00,88.23,M,6.00,0.00,29.85,M,1.00,18.00,BKN,OVC,M,M,1000.00,1700.00,M,M,-SN BR,KAFN 011735Z AUTO VRB06G18KT 1SM -SN BR BKN010 OVC017 01/M01 A2985 RMK AO2 P0000 T00061011
AFN,2017-04-01 17:40,-72.0030,42.8051,M,M,M,360.00,5.00,0.01,29.85,M,1.00,M,BKN,OVC,M,M,999.00,1699.00,M,M,-SN BR,KAFN 011740Z AUTO 36005KT 1SM -SN BR BKN009 OVC016 A2985 RMK P0001 VRB05G18KT  MADISHF
AFN,2017-04-01 17:45,-72.0030,42.8051,M,M,M,10.00,8.00,0.01,29.85,M,1.00,M,BKN,OVC,M,M,999.00,1500.00,M,M,-SN BR,KAFN 011745Z AUTO 01008KT 1SM -SN BR BKN009 OVC015 A2985 RMK P0001 WND 33V07  MADISHF
AFN,2017-04-01 17:50,-72.0030,42.8051,M,M,M,20.00,5.00,0.01,29.85,M,1.00,M,BKN,OVC,M,M,999.00,1500.00,M,M,-SN BR,KAFN 011750Z AUTO 02005KT 1SM -SN BR BKN009 OVC015 A2985 RMK P0001 VRB05KT  MADISHF
AFN,2017-04-01 17:52,-72.0030,42.8051,33.10,30.00,88.23,M,4.00,0.01,29.85,1012.40,1.00,M,BKN,OVC,M,M,800.00,1500.00,M,M,-SN BR,KAFN 011752Z AUTO VRB04KT 1SM -SN BR BKN008 OVC015 01/M01 A2985 RMK AO2 SLP124 P0001 60018 T00061011 10006 21006 56003
AFN,2017-04-01 17:55,-72.0030,42.8051,M,M,M,360.00,5.00,M,29.85,M,1.00,M,BKN,OVC,M,M,999.00,1500.00,M,M,-SN BR,KAFN 011755Z AUTO 36005KT 1SM -SN BR BKN009 OVC015 A2985 RMK MADISHF
AFN,2017-04-01 18:00,-72.0030,42.8051,M,M,M,10.00,6.00,M,29.85,M,1.00,M,BKN,OVC,M,M,800.00,1500.00,M,M,-SN BR,KAFN 011800Z AUTO 01006KT 1SM -SN BR BKN008 OVC015 A2985 RMK VRB06KT  MADISHF
AFN,2017-04-01 18:05,-72.0030,42.8051,M,M,M,360.00,5.00,M,29.85,M,1.00,M,BKN,OVC,M,M,800.00,1500.00,M,M,-SN BR,KAFN 011805Z AUTO 36005KT 1SM -SN BR BKN008 OVC015 A2985 RMK VRB05KT  MADISHF
AFN,2017-04-01 18:12,-72.0030,42.8051,34.00,30.00,85.11,M,M,0.00,29.85,M,1.25,M,BKN,BKN,OVC,M,1000.00,1300.00,1900.00,M,-SN BR,KAFN 011812Z AUTO 1 1/4SM -SN BR BKN010 BKN013 OVC019 01/M01 A2985 RMK AO2 P0000 T00111011
AFN,2017-04-01 18:15,-72.0030,42.8051,M,M,M,30.00,5.00,M,29.85,M,1.25,M,BKN,BKN,OVC,M,800.00,1300.00,1900.00,M,-SN BR,KAFN 011815Z AUTO 03005KT 1 1/2SM -SN BR BKN008 BKN013 OVC019 A2985 RMK VRB05KT  MADISHF
AFN,2017-04-01 18:18,-72.0030,42.8051,34.00,30.90,88.27,M,5.00,0.00,29.85,M,1.00,M,BKN,OVC,M,M,800.00,1300.00,M,M,-SN BR,KAFN 011818Z AUTO VRB05KT 1SM -SN BR BKN008 OVC013 01/M01 A2985 RMK AO2 P0000 T00111006
AFN,2017-04-01 18:20,-72.0030,42.8051,M,M,M,30.00,4.00,M,29.85,M,1.00,M,BKN,OVC,M,M,800.00,1699.00,M,M,-SN BR,KAFN 011820Z AUTO 03004KT 1SM -SN BR BKN008 OVC016 A2985 RMK VRB04KT  MADISHF
AFN,2017-04-01 18:30,-72.0030,42.8051,M,M,M,360.00,5.00,M,29.85,M,1.25,M,BKN,BKN,OVC,M,800.00,1300.00,1900.00,M,-SN BR,KAFN 011830Z AUTO 36005KT 1 1/2SM -SN BR BKN008 BKN013 OVC019 A2985 RMK VRB05G17KT  MADISHF
AFN,2017-04-01 18:35,-72.0030,42.8051,M,M,M,10.00,4.00,0.01,29.85,M,1.25,M,BKN,OVC,M,M,800.00,1300.00,M,M,-SN BR,KAFN 011835Z AUTO 01004KT 1 1/2SM -SN BR BKN008 OVC013 A2985 RMK P0001 VRB04KT  MADISHF
AFN,2017-04-01 18:36,-72.0030,42.8051,34.00,30.90,88.27,M,4.00,0.01,29.85,M,1.25,M,BKN,OVC,M,M,800.00,1300.00,M,M,-SN BR,KAFN 011836Z AUTO VRB04KT 1 1/4SM -SN BR BKN008 OVC013 01/M01 A2985 RMK AO2 P0001 T00111006
AFN,2017-04-01 18:45,-72.0030,42.8051,M,M,M,360.00,8.00,0.01,29.85,M,1.25,M,BKN,OVC,M,M,800.00,1300.00,M,M,-SN BR,KAFN 011845Z AUTO 36008KT 1 1/2SM -SN BR BKN008 OVC013 A2985 RMK P0001 MADISHF
AFN,2017-04-01 18:50,-72.0030,42.8051,M,M,M,350.00,4.00,0.01,29.85,M,1.25,M,BKN,OVC,M,M,800.00,1200.00,M,M,-SN BR,KAFN 011850Z AUTO 35004KT 1 1/2SM -SN BR BKN008 OVC012 A2985 RMK P0001 VRB04KT  MADISHF
AFN,2017-04-01 18:52,-72.0030,42.8051,34.00,30.90,88.27,10.00,7.00,0.01,29.85,1012.30,1.25,M,BKN,OVC,M,M,800.00,1700.00,M,M,-SN BR,KAFN 011852Z AUTO 01007KT 330V050 1 1/4SM -SN BR BKN008 OVC017 01/M01 A2985 RMK AO2 SLP123 P0001 T00111006
AFN,2017-04-01 18:55,-72.0030,42.8051,34.00,30.90,88.27,10.00,8.00,0.00,29.85,M,1.50,M,OVC,M,M,M,1000.00,M,M,M,-SN BR,KAFN 011855Z AUTO 01008KT 320V050 1 1/2SM -SN BR OVC010 01/M01 A2985 RMK AO2 P0000 T00111006
AFN,2017-04-01 19:05,-72.0030,42.8051,M,M,M,340.00,5.00,M,29.86,M,1.50,M,BKN,OVC,M,M,999.00,1699.00,M,M,-SN BR,KAFN 011905Z AUTO 34005KT 1 1/2SM -SN BR BKN009 OVC016 A2986 RMK VRB05G14KT  MADISHF
AFN,2017-04-01 19:10,-72.0030,42.8051,M,M,M,350.00,8.00,M,29.86,M,1.75,M,BKN,BKN,OVC,M,800.00,1300.00,1699.00,M,-SN BR,KAFN 011910Z AUTO 35008KT 2SM -SN BR BKN008 BKN013 OVC016 A2986 RMK MADISHF
AFN,2017-04-01 19:15,-72.0030,42.8051,M,M,M,360.00,5.00,M,29.86,M,1.75,M,BKN,BKN,OVC,M,800.00,1200.00,1800.00,M,-SN BR,KAFN 011915Z AUTO 36005KT 2SM -SN BR BKN008 BKN012 OVC018 A2986 RMK VRB05KT  MADISHF
AFN,2017-04-01 19:19,-72.0030,42.8051,34.00,30.90,88.27,M,5.00,0.00,29.86,M,1.50,M,BKN,BKN,OVC,M,800.00,1200.00,1800.00,M,-SN BR,KAFN 011919Z AUTO VRB05KT 1 1/2SM -SN BR BKN008 BKN012 OVC018 01/M01 A2986 RMK AO2 P0000 T00111006
AFN,2017-04-01 19:20,-72.0030,42.8051,M,M,M,10.00,5.00,M,29.86,M,1.50,M,BKN,BKN,OVC,M,800.00,1200.00,1800.00,M,-SN BR,KAFN 011920Z AUTO 01005KT 1 1/2SM -SN BR BKN008 BKN012 OVC018 A2986 RMK VRB05KT  MADISHF
AFN,2017-04-01 19:25,-72.0030,42.8051,M,M,M,360.00,6.00,M,29.85,M,1.50,M,BKN,OVC,M,M,800.00,1300.00,M,M,-SN BR,KAFN 011925Z AUTO 36006KT 1 1/2SM -SN BR BKN008 OVC013 A2985 RMK MADISHF
AFN,2017-04-01 19:30,-72.0030,42.8051,M,M,M,10.00,5.00,M,29.85,M,1.50,M,BKN,OVC,M,M,800.00,1500.00,M,M,-SN BR,KAFN 011930Z AUTO 01005KT 1 1/2SM -SN BR BKN008 OVC015 A2985 RMK VRB05KT  MADISHF
AFN,2017-04-01 19:35,-72.0030,42.8051,M,M,M,20.00,6.00,M,29.86,M,1.75,M,BKN,BKN,OVC,M,800.00,1200.00,1900.00,M,-SN BR,KAFN 011935Z AUTO 02006KT 2SM -SN BR BKN008 BKN012 OVC019 A2986 RMK VRB06KT  MADISHF
AFN,2017-04-01 19:40,-72.0030,42.8051,M,M,M,360.00,5.00,M,29.86,M,2.00,M,BKN,BKN,OVC,M,800.00,1200.00,1900.00,M,-SN BR,KAFN 011940Z AUTO 36005KT 2SM -SN BR BKN008 BKN012 OVC019 A2986 RMK VRB05KT  MADISHF
AFN,2017-04-01 19:43,-72.0030,42.8051,34.00,30.90,88.27,M,4.00,0.00,29.86,M,2.00,M,BKN,BKN,OVC,M,800.00,1200.00,1900.00,M,-SN BR,KAFN 011943Z AUTO VRB04KT 2SM -SN BR BKN008 BKN012 OVC019 01/M01 A2986 RMK AO2 P0000 T00111006
AFN,2017-04-01 19:45,-72.0030,42.8051,M,M,M,360.00,4.00,M,29.86,M,2.00,M,BKN,OVC,M,M,900.00,1900.00,M,M,-SN BR,KAFN 011945Z AUTO 36004KT 2SM -SN BR BKN009 OVC019 A2986 RMK VRB04KT  MADISHF
AFN,2017-04-01 19:52,-72.0030,42.8051,34.00,30.90,88.27,M,5.00,0.00,29.86,1012.70,1.75,M,BKN,OVC,M,M,700.00,1900.00,M,M,-SN BR,KAFN 011952Z AUTO VRB05KT 1 3/4SM -SN BR BKN007 OVC019 01/M01 A2986 RMK AO2 SLP127 P0000 T00111006
AFN,2017-04-01 19:55,-72.0030,42.8051,M,M,M,20.00,5.00,M,29.86,M,2.00,M,OVC,M,M,M,700.00,M,M,M,-SN BR,KAFN 011955Z AUTO 02005KT 2SM -SN BR OVC007 A2986 RMK VRB05KT  MADISHF
AFN,2017-04-01 20:00,-72.0030,42.8051,M,M,M,360.00,4.00,M,29.86,M,2.00,M,BKN,OVC,M,M,700.00,1100.00,M,M,-SN BR,KAFN 012000Z AUTO 36004KT 2SM -SN BR BKN007 OVC011 A2986 RMK VRB04KT  MADISHF
AFN,2017-04-01 20:01,-72.0030,42.8051,34.00,30.90,88.27,M,4.00,0.00,29.86,M,2.00,M,BKN,M,M,M,700.00,M,M,M,-SN BR,KAFN 012001Z AUTO VRB04KT 2SM -SN BR BKN007 01/M01 A2986 RMK AO2 P0000 T00111006
AFN,2017-04-01 20:05,-72.0030,42.8051,M,M,M,10.00,6.00,M,29.87,M,2.00,M,BKN,OVC,M,M,700.00,1100.00,M,M,-SN BR,KAFN 012005Z AUTO 01006KT 2SM -SN BR BKN007 OVC011 A2987 RMK MADISHF
AFN,2017-04-01 20:10,-72.0030,42.8051,M,M,M,360.00,5.00,M,29.87,M,2.50,M,BKN,OVC,M,M,700.00,1300.00,M,M,-SN BR,KAFN 012010Z AUTO 36005KT 2 1/2SM -SN BR BKN007 OVC013 A2987 RMK VRB05KT CIG 5V10  MADISHF
AFN,2017-04-01 20:15,-72.0030,42.8051,M,M,M,350.00,4.00,M,29.88,M,2.50,M,BKN,OVC,M,M,700.00,1100.00,M,M,-SN BR,KAFN 012015Z AUTO 35004KT 2 1/2SM -SN BR BKN007 OVC011 A2988 RMK VRB04KT  MADISHF
AFN,2017-04-01 20:25,-72.0030,42.8051,M,M,M,350.00,6.00,M,29.89,M,2.50,M,BKN,OVC,M,M,700.00,1300.00,M,M,-SN BR,KAFN 012025Z AUTO 35006KT 2 1/2SM -SN BR BKN007 OVC013 A2989 RMK VRB06KT  MADISHF
AFN,2017-04-01 20:30,-72.0030,42.8051,M,M,M,350.00,5.00,M,29.89,M,1.50,M,BKN,OVC,M,M,700.00,1300.00,M,M,-SN BR,KAFN 012030Z AUTO 35005KT 1 1/2SM -SN BR BKN007 OVC013 A2989 RMK VRB05KT  MADISHF
AFN,2017-04-01 20:33,-72.0030,42.8051,33.10,30.90,91.51,360.00,6.00,0.00,29.89,M,1.25,M,BKN,BKN,OVC,M,700.00,1300.00,1700.00,M,-SN BR,KAFN 012033Z AUTO 36006KT 1 1/4SM -SN BR BKN007 BKN013 OVC017 01/M01 A2989 RMK AO2 CIG 006V011 P0000 T00061006
AFN,2017-04-01 20:35,-72.0030,42.8051,M,M,M,350.00,4.00,M,29.90,M,1.25,M,BKN,BKN,OVC,M,700.00,1300.00,1699.00,M,-SN BR,KAFN 012035Z AUTO 35004KT 1 1/2SM -SN BR BKN007 BKN013 OVC016 A2990 RMK VRB04KT  MADISHF
AFN,2017-04-01 20:45,-72.0030,42.8051,M,M,M,340.00,6.00,M,29.91,M,1.25,M,BKN,OVC,M,M,800.00,1300.00,M,M,-SN BR,KAFN 012045Z AUTO 34006KT 1 1/2SM -SN BR BKN008 OVC013 A2991 RMK MADISHF
AFN,2017-04-01 20:50,-72.0030,42.8051,M,M,M,350.00,5.00,M,29.91,M,1.00,M,BKN,OVC,M,M,800.00,1300.00,M,M,-SN BR,KAFN 012050Z AUTO 35005KT 1SM -SN BR BKN008 OVC013 A2991 RMK MADISHF
AFN,2017-04-01 20:52,-72.0030,42.8051,33.10,30.90,91.51,M,6.00,0.00,29.91,1014.70,1.00,M,BKN,OVC,M,M,800.00,1300.00,M,M,-SN BR,KAFN 012052Z AUTO VRB06KT 1SM -SN BR BKN008 OVC013 01/M01 A2991 RMK AO2 SLP147 P0000 60001 T00061006 53022
AFN,2017-04-01 20:55,-72.0030,42.8051,M,M,M,360.00,4.00,M,29.92,M,1.00,M,BKN,OVC,M,M,800.00,1300.00,M,M,-SN BR,KAFN 012055Z AUTO 36004KT 1SM -SN BR BKN008 OVC013 A2992 RMK VRB04KT  MADISHF
AFN,2017-04-01 21:00,-72.0030,42.8051,M,M,M,0.00,0.00,M,29.92,M,1.00,M,BKN,OVC,M,M,800.00,1300.00,M,M,-SN BR,KAFN 012100Z AUTO 00000KT 1SM -SN BR BKN008 OVC013 A2992 RMK MADISHF
AFN,2017-04-01 21:05,-72.0030,42.8051,M,M,M,M,M,M,29.92,M,1.00,M,BKN,OVC,M,M,700.00,1200.00,M,M,-SN BR,KAFN 012105Z AUTO /////KT 1SM -SN BR BKN007 OVC012 A2992 RMK MADISHF
AFN,2017-04-01 21:10,-72.0030,42.8051,M,M,M,360.00,5.00,M,29.92,M,1.00,M,BKN,OVC,M,M,700.00,1200.00,M,M,-SN BR,KAFN 012110Z AUTO 36005KT 1SM -SN BR BKN007 OVC012 A2992 RMK MADISHF
AFN,2017-04-01 21:20,-72.0030,42.8051,M,M,M,10.00,4.00,0.01,29.92,M,1.00,M,BKN,OVC,M,M,700.00,1200.00,M,M,-SN BR,KAFN 012120Z AUTO 01004KT 1SM -SN BR BKN007 OVC012 A2992 RMK P0001 VRB04KT  MADISHF
AFN,2017-04-01 21:25,-72.0030,42.8051,M,M,M,M,M,0.01,29.92,M,1.25,M,BKN,OVC,M,M,700.00,1200.00,M,M,-SN BR,KAFN 012125Z AUTO /////KT 1 1/2SM -SN BR BKN007 OVC012 A2992 RMK P0001 MADISHF
AFN,2017-04-01 21:30,-72.0030,42.8051,33.10,30.90,91.51,M,6.00,0.01,29.92,M,1.25,M,BKN,OVC,M,M,900.00,1400.00,M,M,-SN BR,KAFN 012130Z AUTO VRB06KT 1 1/4SM -SN BR BKN009 OVC014 01/M01 A2992 RMK AO2 P0001 T00061006
AFN,2017-04-01 21:35,-72.0030,42.8051,M,M,M,360.00,7.00,0.01,29.93,M,1.50,M,BKN,OVC,M,M,900.00,1699.00,M,M,-SN BR,KAFN 012135Z AUTO 36007KT 1 1/2SM -SN BR BKN009 OVC016 A2993 RMK P0001 WND 32V05  MADISHF
AFN,2017-04-01 21:37,-72.0030,42.8051,33.10,30.90,91.51,M,6.00,0.01,29.93,M,1.50,M,BKN,BKN,OVC,M,700.00,1100.00,1700.00,M,-SN BR,KAFN 012137Z AUTO VRB06KT 1 1/2SM -SN BR BKN007 BKN011 OVC017 01/M01 A2993 RMK AO2 P0001 T00061006
AFN,2017-04-01 21:45,-72.0030,42.8051,M,M,M,360.00,3.00,0.01,29.93,M,1.75,M,BKN,OVC,M,M,700.00,1100.00,M,M,-SN BR,KAFN 012145Z AUTO 36003KT 2SM -SN BR BKN007 OVC011 A2993 RMK P0001 VRB03KT  MADISHF
AFN,2017-04-01 21:50,-72.0030,42.8051,M,M,M,360.00,4.00,0.01,29.93,M,2.00,M,BKN,OVC,M,M,700.00,1100.00,M,M,-SN BR,KAFN 012150Z AUTO 36004KT 2SM -SN BR BKN007 OVC011 A2993 RMK P0001 VRB04KT  MADISHF
AFN,2017-04-01 21:52,-72.0030,42.8051,33.10,30.90,91.51,M,3.00,0.01,29.93,1015.30,2.00,M,BKN,OVC,M,M,700.00,1000.00,M,M,-SN BR,KAFN 012152Z AUTO VRB03KT 2SM -SN BR BKN007 OVC010 01/M01 A2993 RMK AO2 SLP153 P0001 T00061006
AFN,2017-04-01 21:55,-72.0030,42.8051,M,M,M,360.00,3.00,M,29.93,M,2.00,M,BKN,OVC,M,M,700.00,999.00,M,M,-SN BR,KAFN 012155Z AUTO 36003KT 2SM -SN BR BKN007 OVC009 A2993 RMK VRB03KT  MADISHF
AFN,2017-04-01 22:00,-72.0030,42.8051,M,M,M,10.00,3.00,M,29.93,M,1.75,M,BKN,OVC,M,M,700.00,999.00,M,M,-SN BR,KAFN 012200Z AUTO 01003KT 2SM -SN BR BKN007 OVC009 A2993 RMK VRB03KT  MADISHF
AFN,2017-04-01 22:05,-72.0030,42.8051,M,M,M,360.00,3.00,M,29.93,M,2.00,M,BKN,OVC,M,M,600.00,999.00,M,M,-SN BR,KAFN 012205Z AUTO 36003KT 2SM -SN BR BKN006 OVC009 A2993 RMK VRB03KT  MADISHF
AFN,2017-04-01 22:10,-72.0030,42.8051,M,M,M,340.00,5.00,M,29.94,M,2.50,M,OVC,M,M,M,800.00,M,M,M,-SN BR,KAFN 012210Z AUTO 34005KT 2 1/2SM -SN BR OVC008 A2994 RMK VRB05KT  MADISHF
AFN,2017-04-01 22:15,-72.0030,42.8051,M,M,M,360.00,5.00,M,29.94,M,2.50,M,SCT,OVC,M,M,600.00,999.00,M,M,-SN BR,KAFN 012215Z AUTO 36005KT 2 1/2SM -SN BR SCT006 OVC009 A2994 RMK VRB05KT  MADISHF
AFN,2017-04-01 22:20,-72.0030,42.8051,M,M,M,360.00,4.00,M,29.94,M,2.50,M,BKN,OVC,M,M,600.00,4500.00,M,M,-SN BR,KAFN 012220Z AUTO 36004KT 2 1/2SM -SN BR BKN006 OVC045 A2994 RMK VRB04KT  MADISHF
AFN,2017-04-01 22:25,-72.0030,42.8051,M,M,M,350.00,4.00,M,29.95,M,3.00,M,BKN,BKN,OVC,M,800.00,1500.00,4900.00,M,-SN BR,KAFN 012225Z AUTO 35004KT 3SM -SN BR BKN008 BKN015 OVC049 A2995 RMK VRB04KT  MADISHF
AFN,2017-04-01 22:28,-72.0030,42.8051,33.10,30.90,91.51,M,4.00,0.00,29.95,M,3.00,M,BKN,OVC,M,M,800.00,1500.00,M,M,-SN BR,KAFN 012228Z AUTO VRB04KT 3SM -SN BR BKN008 OVC015 01/M01 A2995 RMK AO2 P0000 T00061006
AFN,2017-04-01 22:35,-72.0030,42.8051,M,M,M,350.00,4.00,M,29.95,M,3.00,M,SCT,BKN,OVC,M,800.00,1100.00,4600.00,M,-SN BR,KAFN 012235Z AUTO 35004KT 3SM -SN BR SCT008 BKN011 OVC046 A2995 RMK VRB04KT  MADISHF
AFN,2017-04-01 22:40,-72.0030,42.8051,M,M,M,350.00,5.00,M,29.95,M,4.00,M,BKN,BKN,OVC,M,900.00,1400.00,6000.00,M,-SN BR,KAFN 012240Z AUTO 35005KT 4SM -SN BR BKN009 BKN014 OVC060 A2995 RMK VRB05KT  MADISHF
AFN,2017-04-01 22:45,-72.0030,42.8051,M,M,M,340.00,5.00,M,29.95,M,8.00,M,SCT,BKN,OVC,M,900.00,1400.00,6000.00,M,M,KAFN 012245Z AUTO 34005KT 8SM SCT009 BKN014 OVC060 A2995 RMK VRB05KT  MADISHF
AFN,2017-04-01 22:50,-72.0030,42.8051,33.80,30.20,86.49,360.00,5.00,0.00,29.95,M,10.00,M,FEW,BKN,OVC,M,700.00,1300.00,6000.00,M,M,KAFN 012250Z AUTO 36005KT 10SM FEW007 BKN013 OVC060 01/M01 A2995 RMK AO2 SNE43 P0000
AFN,2017-04-01 22:52,-72.0030,42.8051,33.10,30.90,91.51,350.00,5.00,0.00,29.95,1015.90,10.00,M,SCT,BKN,OVC,M,700.00,1300.00,6000.00,M,M,KAFN 012252Z AUTO 35005KT 10SM SCT007 BKN013 OVC060 01/M01 A2995 RMK AO2 SNE43 SLP159 P0000 T00061006
AFN,2017-04-01 22:55,-72.0030,42.8051,M,M,M,360.00,4.00,M,29.95,M,10.00,M,SCT,BKN,OVC,M,700.00,1300.00,6000.00,M,M,KAFN 012255Z AUTO 36004KT 10SM SCT007 BKN013 OVC060 A2995 RMK VRB04KT  MADISHF
AFN,2017-04-01 23:00,-72.0030,42.8051,M,M,M,350.00,4.00,M,29.95,M,10.00,M,BKN,OVC,M,M,1100.00,6000.00,M,M,M,KAFN 012300Z AUTO 35004KT 10SM BKN011 OVC060 A2995 RMK VRB04KT  MADISHF
AFN,2017-04-01 23:05,-72.0030,42.8051,M,M,M,20.00,3.00,M,29.95,M,10.00,M,SCT,BKN,OVC,M,900.00,1300.00,6000.00,M,M,KAFN 012305Z AUTO 02003KT 10SM SCT009 BKN013 OVC060 A2995 RMK VRB03KT  MADISHF
AFN,2017-04-01 23:10,-72.0030,42.8051,M,M,M,0.00,0.00,M,29.95,M,10.00,M,BKN,OVC,M,M,1100.00,6000.00,M,M,M,KAFN 012310Z AUTO 00000KT 10SM BKN011 OVC060 A2995 RMK MADISHF
AFN,2017-04-01 23:15,-72.0030,42.8051,M,M,M,10.00,4.00,M,29.95,M,10.00,M,SCT,BKN,OVC,M,800.00,1100.00,6500.00,M,M,KAFN 012315Z AUTO 01004KT 10SM SCT008 BKN011 OVC065 A2995 RMK VRB04KT  MADISHF
AFN,2017-04-01 23:20,-72.0030,42.8051,M,M,M,10.00,4.00,M,29.95,M,10.00,M,BKN,BKN,OVC,M,800.00,1200.00,6000.00,M,M,KAFN 012320Z AUTO 01004KT 10SM BKN008 BKN012 OVC060 A2995 RMK VRB04KT  MADISHF
AFN,2017-04-01 23:26,-72.0030,42.8051,33.10,30.90,91.51,360.00,4.00,0.00,29.95,M,10.00,M,BKN,BKN,OVC,M,800.00,1200.00,6500.00,M,M,KAFN 012326Z AUTO 36004KT 10SM BKN008 BKN012 OVC065 01/M01 A2995 RMK AO2 T00061006
AFN,2017-04-01 23:30,-72.0030,42.8051,M,M,M,0.00,0.00,M,29.94,M,10.00,M,SCT,BKN,OVC,M,800.00,1200.00,6000.00,M,M,KAFN 012330Z AUTO 00000KT 10SM SCT008 BKN012 OVC060 A2994 RMK MADISHF
AFN,2017-04-01 23:35,-72.0030,42.8051,M,M,M,0.00,0.00,M,29.94,M,10.00,M,SCT,OVC,M,M,800.00,6500.00,M,M,M,KAFN 012335Z AUTO 00000KT 10SM SCT008 OVC065 A2994 RMK MADISHF
AFN,2017-04-01 23:39,-72.0030,42.8051,33.10,30.90,91.51,M,3.00,0.00,29.94,M,10.00,M,SCT,OVC,M,M,800.00,6500.00,M,M,M,KAFN 012339Z AUTO VRB03KT 10SM SCT008 OVC065 01/M01 A2994 RMK AO2 T00061006
AFN,2017-04-01 23:40,-72.0030,42.8051,M,M,M,0.00,0.00,M,29.94,M,10.00,M,SCT,OVC,M,M,800.00,6000.00,M,M,M,KAFN 012340Z AUTO 00000KT 10SM SCT008 OVC060 A2994 RMK MADISHF
AFN,2017-04-01 23:45,-72.0030,42.8051,M,M,M,10.00,3.00,M,29.95,M,10.00,M,SCT,OVC,M,M,600.00,6000.00,M,M,M,KAFN 012345Z AUTO 01003KT 10SM SCT006 OVC060 A2995 RMK VRB03KT  MADISHF
AFN,2017-04-01 23:50,-72.0030,42.8051,M,M,M,0.00,0.00,M,29.95,M,10.00,M,BKN,OVC,M,M,600.00,6500.00,M,M,M,KAFN 012350Z AUTO 00000KT 10SM BKN006 OVC065 A2995 RMK MADISHF
AFN,2017-04-01 23:52,-72.0030,42.8051,33.10,30.90,91.51,M,3.00,0.00,29.95,1015.90,10.00,M,BKN,OVC,M,M,600.00,6500.00,M,M,M,KAFN 012352Z AUTO VRB03KT 10SM BKN006 OVC065 01/M01 A2995 RMK AO2 SLP159 60002 T00061006 10011 20006 51007
AFN,2017-04-01 23:55,-72.0030,42.8051,M,M,M,0.00,0.00,M,29.96,M,10.00,M,BKN,OVC,M,M,600.00,6000.00,M,M,M,KAFN 012355Z AUTO 00000KT 10SM BKN006 OVC060 A2996 RMK MADISHF
