#DEBUG: Format Typ    -> comma
#DEBUG: Time Period   -> 2017-04-01 00:00:00+00:00 2017-04-02 00:00:00+00:00
#DEBUG: Time Zone     -> Etc/UTC
#DEBUG: Data Contact   -> daryl herzmann akrherz@iastate.edu 515-294-5978
#DEBUG: Entries Found -> -1
station,valid,lon,lat,tmpf, dwpf, relh, drct, sknt, p01i, alti, mslp, vsby, gust, skyc1, skyc2, skyc3, skyc4, skyl1, skyl2, skyl3, skyl4, presentwx, metar
AGS,2017-04-01 00:00,-81.9645,33.3699,M,M,M,290.00,7.00,M,29.77,M,10.00,M,CLR,M,M,M,M,M,M,M,M,KAGS 010000Z AUTO 29007KT 10SM CLR A2977 RMK MADISHF
AGS,2017-04-01 00:05,-81.9645,33.3699,M,M,M,290.00,8.00,M,29.77,M,10.00,M,CLR,M,M,M,M,M,M,M,M,KAGS 010005Z AUTO 29008KT 10SM CLR A2977 RMK MADISHF
AGS,2017-04-01 00:10,-81.9645,33.3699,M,M,M,300.00,9.00,M,29.77,M,10.00,M,CLR,M,M,M,M,M,M,M,M,KAGS 010010Z AUTO 30009KT 10SM CLR A2977 RMK MADISHF
AGS,2017-04-01 00:15,-81.9645,33.3699,M,M,M,290.00,7.00,M,29.78,M,10.00,M,CLR,M,M,M,M,M,M,M,M,KAGS 010015Z AUTO 29007KT 10SM CLR A2978 RMK MADISHF
AGS,2017-04-01 00:20,-81.9645,33.3699,M,M,M,290.00,8.00,M,29.78,M,10.00,M,CLR,M,M,M,M,M,M,M,M,KAGS 010020Z AUTO 29008KT 10SM CLR A2978 RMK MADISHF
AGS,2017-04-01 00:25,-81.9645,33.3699,M,M,M,300.00,8.00,M,29.78,M,10.00,M,CLR,M,M,M,M,M,M,M,M,KAGS 010025Z AUTO 30008KT 10SM CLR A2978 RMK MADISHF
AGS,2017-04-01 00:30,-81.9645,33.3699,M,M,M,290.00,8.00,M,29.78,M,10.00,M,CLR,M,M,M,M,M,M,M,M,KAGS 010030Z AUTO 29008KT 10SM CLR A2978 RMK MADISHF
AGS,2017-04-01 00:35,-81.9645,33.3699,M,M,M,290.00,7.00,M,29.79,M,10.00,M,CLR,M,M,M,M,M,M,M,M,KAGS 010035Z AUTO 29007KT 10SM CLR A2979 RMK MADISHF
AGS,2017-04-01 00:40,-81.9645,33.3699,M,M,M,290.00,7.00,M,29.79,M,10.00,M,CLR,M,M,M,M,M,M,M,M,KAGS 010040Z AUTO 29007KT 10SM CLR A2979 RMK MADISHF
AGS,2017-04-01 00:45,-81.9645,33.3699,M,M,M,290.00,7.00,M,29.79,M,10.00,M,CLR,M,M,M,M,M,M,M,M,KAGS 010045Z AUTO 29007KT 10SM CLR A2979 RMK MADISHF
AGS,2017-04-01 00:50,-81.9645,33.3699,M,M,M,300.00,8.00,M,29.79,M,10.00,M,CLR,M,M,M,M,M,M,M,M,KAGS 010050Z AUTO 30008KT 10SM CLR A2979 RMK MADISHF
AGS,2017-04-01 00:53,-81.9645,33.3699,72.00,46.90,40.79,300.00,9.00,0.00,29.79,1008.60,10.00,M,CLR,M,M,M,M,M,M,M,M,KAGS 010053Z 30009KT 10SM CLR 22/08 A2979 RMK AO2 SLP086 T02220083
AGS,2017-04-01 00:55,-81.9645,33.3699,M,M,M,300.00,8.00,M,29.79,M,10.00,M,CLR,M,M,M,M,M,M,M,M,KAGS 010055Z AUTO 30008KT 10SM CLR A2979 RMK MADISHF
AGS,2017-04-01 01:00,-81.9645,33.3699,M,M,M,300.00,7.00,M,29.80,M,10.00,M,CLR,M,M,M,M,M,M,M,M,KAGS 010100Z AUTO 30007KT 10SM CLR A2980 RMK MADISHF
AGS,2017-04-01 01:05,-81.9645,33.3699,M,M,M,300.00,8.00,M,29.80,M,10.00,M,CLR,M,M,M,M,M,M,M,M,KAGS 010105Z AUTO 30008KT 10SM CLR A2980 RMK MADISHF
AGS,2017-04-01 01:10,-81.9645,33.3699,M,M,M,310.00,8.00,M,29.80,M,10.00,M,CLR,M,M,M,M,M,M,M,M,KAGS 010110Z AUTO 31008KT 10SM CLR A2980 RMK MADISHF
AGS,2017-04-01 01:15,-81.9645,33.3699,M,M,M,310.00,7.00,M,29.81,M,10.00,M,CLR,M,M,M,M,M,M,M,M,KAGS 010115Z AUTO 31007KT 10SM CLR A2981 RMK MADISHF
AGS,2017-04-01 01:20,-81.9645,33.3699,M,M,M,300.00,8.00,M,29.81,M,10.00,M,CLR,M,M,M,M,M,M,M,M,KAGS 010120Z AUTO 30008KT 10SM CLR A2981 RMK MADISHF
AGS,2017-04-01 01:25,-81.9645,33.3699,M,M,M,300.00,9.00,M,29.81,M,10.00,M,CLR,M,M,M,M,M,M,M,M,KAGS 010125Z AUTO 30009KT 10SM CLR A2981 RMK MADISHF
AGS,2017-04-01 01:30,-81.9645,33.3699,M,M,M,290.00,8.00,M,29.81,M,10.00,M,CLR,M,M,M,M,M,M,M,M,KAGS 010130Z AUTO 29008KT 10SM CLR A2981 RMK MADISHF
AGS,2017-04-01 01:35,-81.9645,33.3699,M,M,M,300.00,7.00,M,29.82,M,10.00,M,CLR,M,M,M,M,M,M,M,M,KAGS 010135Z AUTO 30007KT 10SM CLR A2982 RMK MADISHF
AGS,2017-04-01 01:40,-81.9645,33.3699,M,M,M,300.00,6.00,M,29.82,M,10.00,M,CLR,M,M,M,M,M,M,M,M,KAGS 010140Z AUTO 30006KT 10SM CLR A2982 RMK MADISHF
AGS,2017-04-01 01:45,-81.9645,33.3699,M,M,M,310.00,8.00,M,29.82,M,10.00,M,CLR,M,M,M,M,M,M,M,M,KAGS 010145Z AUTO 31008KT 10SM CLR A2982 RMK MADISHF
AGS,2017-04-01 01:50,-81.9645,33.3699,M,M,M,310.00,8.00,M,29.82,M,10.00,M,CLR,M,M,M,M,M,M,M,M,KAGS 010150Z AUTO 31008KT 10SM CLR A2982 RMK MADISHF
AGS,2017-04-01 01:53,-81.9645,33.3699,70.00,46.90,43.66,310.00,9.00,0.00,29.82,1009.70,10.00,M,CLR,M,M,M,M,M,M,M,M,KAGS 010153Z 31009KT 10SM CLR 21/08 A2982 RMK AO2 SLP097 T02110083
AGS,2017-04-01 01:55,-81.9645,33.3699,M,M,M,310.00,9.00,M,29.82,M,10.00,M,CLR,M,M,M,M,M,M,M,M,KAGS 010155Z AUTO 31009KT 10SM CLR A2982 RMK MADISHF
AGS,2017-04-01 02:00,-81.9645,33.3699,M,M,M,310.00,9.00,M,29.83,M,10.00,M,CLR,M,M,M,M,M,M,M,M,KAGS 010200Z AUTO 31009KT 10SM CLR A2983 RMK MADISHF
AGS,2017-04-01 02:05,-81.9645,33.3699,M,M,M,310.00,9.00,M,29.83,M,10.00,M,CLR,M,M,M,M,M,M,M,M,KAGS 010205Z AUTO 31009KT 10SM CLR A2983 RMK MADISHF
AGS,2017-04-01 02:10,-81.9645,33.3699,M,M,M,310.00,8.00,M,29.83,M,10.00,M,CLR,M,M,M,M,M,M,M,M,KAGS 010210Z AUTO 31008KT 10SM CLR A2983 RMK MADISHF
AGS,2017-04-01 02:15,-81.9645,33.3699,M,M,M,320.00,8.00,M,29.84,M,10.00,M,CLR,M,M,M,M,M,M,M,M,KAGS 010215Z AUTO 32008KT 10SM CLR A2984 RMK MADISHF
AGS,2017-04-01 02:20,-81.9645,33.3699,M,M,M,310.00,8.00,M,29.84,M,10.00,M,CLR,M,M,M,M,M,M,M,M,KAGS 010220Z AUTO 31008KT 10SM CLR A2984 RMK MADISHF
AGS,2017-04-01 02:25,-81.9645,33.3699,M,M,M,310.00,7.00,M,29.84,M,10.00,M,CLR,M,M,M,M,M,M,M,M,KAGS 010225Z AUTO 31007KT 10SM CLR A2984 RMK MADISHF
AGS,2017-04-01 02:30,-81.9645,33.3699,M,M,M,310.00,8.00,M,29.84,M,10.00,M,CLR,M,M,M,M,M,M,M,M,KAGS 010230Z AUTO 31008KT 10SM CLR A2984 RMK MADISHF
AGS,2017-04-01 02:35,-81.9645,33.3699,M,M,M,310.00,8.00,M,29.85,M,10.00,M,CLR,M,M,M,M,M,M,M,M,KAGS 010235Z AUTO 31008KT 10SM CLR A2985 RMK MADISHF
AGS,2017-04-01 02:40,-81.9645,33.3699,M,M,M,310.00,9.00,M,29.85,M,10.00,M,CLR,M,M,M,M,M,M,M,M,KAGS 010240Z AUTO 31009KT 10SM CLR A2985 RMK MADISHF
AGS,2017-04-01 02:45,-81.9645,33.3699,M,M,M,310.00,8.00,M,29.85,M,10.00,M,CLR,M,M,M,M,M,M,M,M,KAGS 010245Z AUTO 31008KT 10SM CLR A2985 RMK MADISHF
AGS,2017-04-01 02:50,-81.9645,33.3699,M,M,M,320.00,7.00,M,29.85,M,10.00,M,CLR,M,M,M,M,M,M,M,M,KAGS 010250Z AUTO 32007KT 10SM CLR A2985 RMK MADISHF
AGS,2017-04-01 02:53,-81.9645,33.3699,66.00,46.90,50.10,320.00,7.00,0.00,29.85,1010.70,10.00,M,CLR,M,M,M,M,M,M,M,M,KAGS 010253Z 32007KT 10SM CLR 19/08 A2985 RMK AO2 SLP107 T01890083 53030
AGS,2017-04-01 02:55,-81.9645,33.3699,M,M,M,320.00,7.00,M,29.85,M,10.00,M,CLR,M,M,M,M,M,M,M,M,KAGS 010255Z AUTO 32007KT 10SM CLR A2985 RMK MADISHF
AGS,2017-04-01 03:00,-81.9645,33.3699,M,M,M,320.00,7.00,M,29.86,M,10.00,M,CLR,M,M,M,M,M,M,M,M,KAGS 010300Z AUTO 32007KT 10SM CLR A2986 RMK MADISHF
AGS,2017-04-01 03:05,-81.9645,33.3699,M,M,M,320.00,8.00,M,29.86,M,10.00,M,CLR,M,M,M,M,M,M,M,M,KAGS 010305Z AUTO 32008KT 10SM CLR A2986 RMK MADISHF
AGS,2017-04-01 03:10,-81.9645,33.3699,M,M,M,310.00,7.00,M,29.86,M,10.00,M,CLR,M,M,M,M,M,M,M,M,KAGS 010310Z AUTO 31007KT 10SM CLR A2986 RMK MADISHF
AGS,2017-04-01 03:15,-81.9645,33.3699,M,M,M,300.00,7.00,M,29.86,M,10.00,M,CLR,M,M,M,M,M,M,M,M,KAGS 010315Z AUTO 30007KT 10SM CLR A2986 RMK MADISHF
AGS,2017-04-01 03:20,-81.9645,33.3699,M,M,M,300.00,6.00,M,29.86,M,10.00,M,CLR,M,M,M,M,M,M,M,M,KAGS 010320Z AUTO 30006KT 10SM CLR A2986 RMK MADISHF
AGS,2017-04-01 03:25,-81.9645,33.3699,M,M,M,300.00,5.00,M,29.86,M,10.00,M,CLR,M,M,M,M,M,M,M,M,KAGS 010325Z AUTO 30005KT 10SM CLR A2986 RMK MADISHF
AGS,2017-04-01 03:30,-81.9645,33.3699,M,M,M,320.00,5.00,M,29.87,M,10.00,M,CLR,M,M,M,M,M,M,M,M,KAGS 010330Z AUTO 32005KT 10SM CLR A2987 RMK MADISHF
AGS,2017-04-01 03:35,-81.9645,33.3699,M,M,M,320.00,5.00,M,29.87,M,10.00,M,CLR,M,M,M,M,M,M,M,M,KAGS 010335Z AUTO 32005KT 10SM CLR A2987 RMK MADISHF
AGS,2017-04-01 03:40,-81.9645,33.3699,M,M,M,310.00,6.00,M,29.87,M,10.00,M,CLR,M,M,M,M,M,M,M,M,KAGS 010340Z AUTO 31006KT 10SM CLR A2987 RMK MADISHF
AGS,2017-04-01 03:45,-81.9645,33.3699,M,M,M,300.00,7.00,M,29.87,M,10.00,M,CLR,M,M,M,M,M,M,M,M,KAGS 010345Z AUTO 30007KT 10SM CLR A2987 RMK MADISHF
AGS,2017-04-01 03:50,-81.9645,33.3699,M,M,M,290.00,6.00,M,29.87,M,10.00,M,CLR,M,M,M,M,M,M,M,M,KAGS 010350Z AUTO 29006KT 10SM CLR A2987 RMK MADISHF
AGS,2017-04-01 03:53,-81.9645,33.3699,64.90,48.00,54.26,290.00,6.00,0.00,29.87,1011.20,10.00,M,CLR,M,M,M,M,M,M,M,M,KAGS 010353Z 29006KT 10SM CLR 18/09 A2987 RMK AO2 SLP112 T01830089
AGS,2017-04-01 03:55,-81.9645,33.3699,M,M,M,290.00,6.00,M,29.87,M,10.00,M,CLR,M,M,M,M,M,M,M,M,KAGS 010355Z AUTO 29006KT 10SM CLR A2987 RMK MADISHF
AGS,2017-04-01 04:00,-81.9645,33.3699,M,M,M,300.00,5.00,M,29.88,M,10.00,M,CLR,M,M,M,M,M,M,M,M,KAGS 010400Z AUTO 30005KT 10SM CLR A2988 RMK MADISHF
AGS,2017-04-01 04:05,-81.9645,33.3699,M,M,M,300.00,7.00,M,29.88,M,10.00,M,CLR,M,M,M,M,M,M,M,M,KAGS 010405Z AUTO 30007KT 10SM CLR A2988 RMK MADISHF
AGS,2017-04-01 04:10,-81.9645,33.3699,M,M,M,290.00,8.00,M,29.88,M,10.00,M,CLR,M,M,M,M,M,M,M,M,KAGS 010410Z AUTO 29008KT 10SM CLR A2988 RMK MADISHF
AGS,2017-04-01 04:15,-81.9645,33.3699,M,M,M,290.00,8.00,M,29.88,M,10.00,M,CLR,M,M,M,M,M,M,M,M,KAGS 010415Z AUTO 29008KT 10SM CLR A2988 RMK MADISHF
AGS,2017-04-01 04:20,-81.9645,33.3699,M,M,M,290.00,8.00,M,29.88,M,10.00,M,CLR,M,M,M,M,M,M,M,M,KAGS 010420Z AUTO 29008KT 10SM CLR A2988 RMK MADISHF
AGS,2017-04-01 04:25,-81.9645,33.3699,M,M,M,290.00,7.00,M,29.88,M,10.00,M,CLR,M,M,M,M,M,M,M,M,KAGS 010425Z AUTO 29007KT 10SM CLR A2988 RMK MADISHF
AGS,2017-04-01 04:30,-81.9645,33.3699,M,M,M,290.00,7.00,M,29.88,M,10.00,M,CLR,M,M,M,M,M,M,M,M,KAGS 010430Z AUTO 29007KT 10SM CLR A2988 RMK MADISHF
AGS,2017-04-01 04:35,-81.9645,33.3699,M,M,M,290.00,8.00,M,29.88,M,10.00,M,CLR,M,M,M,M,M,M,M,M,KAGS 010435Z AUTO 29008KT 10SM CLR A2988 RMK MADISHF
AGS,2017-04-01 04:40,-81.9645,33.3699,M,M,M,290.00,7.00,M,29.88,M,10.00,M,CLR,M,M,M,M,M,M,M,M,KAGS 010440Z AUTO 29007KT 10SM CLR A2988 RMK MADISHF
AGS,2017-04-01 04:45,-81.9645,33.3699,M,M,M,300.00,6.00,M,29.88,M,10.00,M,CLR,M,M,M,M,M,M,M,M,KAGS 010445Z AUTO 30006KT 10SM CLR A2988 RMK MADISHF
AGS,2017-04-01 04:50,-81.9645,33.3699,M,M,M,300.00,5.00,M,29.88,M,10.00,M,CLR,M,M,M,M,M,M,M,M,KAGS 010450Z AUTO 30005KT 10SM CLR A2988 RMK MADISHF
AGS,2017-04-01 04:53,-81.9645,33.3699,64.00,46.90,53.72,300.00,5.00,0.00,29.88,1011.80,10.00,M,CLR,M,M,M,M,M,M,M,M,KAGS 010453Z 30005KT 10SM CLR 18/08 A2988 RMK AO2 SLP118 T01780083 402890178
AGS,2017-04-01 04:55,-81.9645,33.3699,M,M,M,300.00,4.00,M,29.89,M,10.00,M,CLR,M,M,M,M,M,M,M,M,KAGS 010455Z AUTO 30004KT 10SM CLR A2989 RMK MADISHF
AGS,2017-04-01 05:00,-81.9645,33.3699,M,M,M,300.00,4.00,M,29.89,M,10.00,M,CLR,M,M,M,M,M,M,M,M,KAGS 010500Z AUTO 30004KT 10SM CLR A2989 RMK MADISHF
AGS,2017-04-01 05:05,-81.9645,33.3699,M,M,M,290.00,5.00,M,29.89,M,10.00,M,CLR,M,M,M,M,M,M,M,M,KAGS 010505Z AUTO 29005KT 10SM CLR A2989 RMK MADISHF
AGS,2017-04-01 05:10,-81.9645,33.3699,M,M,M,300.00,5.00,M,29.89,M,10.00,M,CLR,M,M,M,M,M,M,M,M,KAGS 010510Z AUTO 30005KT 10SM CLR A2989 RMK MADISHF
AGS,2017-04-01 05:15,-81.9645,33.3699,M,M,M,300.00,5.00,M,29.89,M,10.00,M,CLR,M,M,M,M,M,M,M,M,KAGS 010515Z AUTO 30005KT 10SM CLR A2989 RMK MADISHF
AGS,2017-04-01 05:20,-81.9645,33.3699,M,M,M,310.00,3.00,M,29.89,M,10.00,M,CLR,M,M,M,M,M,M,M,M,KAGS 010520Z AUTO 31003KT 10SM CLR A2989 RMK MADISHF
AGS,2017-04-01 05:25,-81.9645,33.3699,M,M,M,320.00,4.00,M,29.89,M,10.00,M,CLR,M,M,M,M,M,M,M,M,KAGS 010525Z AUTO 32004KT 10SM CLR A2989 RMK MADISHF
AGS,2017-04-01 05:30,-81.9645,33.3699,M,M,M,300.00,5.00,M,29.89,M,10.00,M,CLR,M,M,M,M,M,M,M,M,KAGS 010530Z AUTO 30005KT 10SM CLR A2989 RMK MADISHF
AGS,2017-04-01 05:35,-81.9645,33.3699,M,M,M,280.00,6.00,M,29.89,M,10.00,M,CLR,M,M,M,M,M,M,M,M,KAGS 010535Z AUTO 28006KT 10SM CLR A2989 RMK MADISHF
AGS,2017-04-01 05:40,-81.9645,33.3699,M,M,M,280.00,7.00,M,29.89,M,10.00,M,CLR,M,M,M,M,M,M,M,M,KAGS 010540Z AUTO 28007KT 10SM CLR A2989 RMK MADISHF
AGS,2017-04-01 05:45,-81.9645,33.3699,M,M,M,290.00,6.00,M,29.89,M,10.00,M,CLR,M,M,M,M,M,M,M,M,KAGS 010545Z AUTO 29006KT 10SM CLR A2989 RMK MADISHF
AGS,2017-04-01 05:50,-81.9645,33.3699,M,M,M,290.00,6.00,M,29.89,M,10.00,M,CLR,M,M,M,M,M,M,M,M,KAGS 010550Z AUTO 29006KT 10SM CLR A2989 RMK MADISHF
AGS,2017-04-01 05:53,-81.9645,33.3699,61.00,48.00,62.23,290.00,6.00,0.00,29.89,1011.90,10.00,M,CLR,M,M,M,M,M,M,M,M,KAGS 010553Z AUTO 29006KT 10SM CLR 16/09 A2989 RMK AO2 SLP119 T01610089 10239 20156 51012
AGS,2017-04-01 05:55,-81.9645,33.3699,M,M,M,290.00,6.00,M,29.89,M,10.00,M,CLR,M,M,M,M,M,M,M,M,KAGS 010555Z AUTO 29006KT 10SM CLR A2989 RMK MADISHF
AGS,2017-04-01 06:00,-81.9645,33.3699,M,M,M,290.00,6.00,M,29.89,M,10.00,M,CLR,M,M,M,M,M,M,M,M,KAGS 010600Z AUTO 29006KT 10SM CLR A2989 RMK MADISHF
AGS,2017-04-01 06:05,-81.9645,33.3699,M,M,M,280.00,6.00,M,29.89,M,10.00,M,CLR,M,M,M,M,M,M,M,M,KAGS 010605Z AUTO 28006KT 10SM CLR A2989 RMK MADISHF
AGS,2017-04-01 06:10,-81.9645,33.3699,M,M,M,280.00,5.00,M,29.89,M,10.00,M,CLR,M,M,M,M,M,M,M,M,KAGS 010610Z AUTO 28005KT 10SM CLR A2989 RMK MADISHF
AGS,2017-04-01 06:15,-81.9645,33.3699,M,M,M,280.00,5.00,M,29.89,M,10.00,M,CLR,M,M,M,M,M,M,M,M,KAGS 010615Z AUTO 28005KT 10SM CLR A2989 RMK MADISHF
AGS,2017-04-01 06:20,-81.9645,33.3699,M,M,M,280.00,5.00,M,29.89,M,10.00,M,CLR,M,M,M,M,M,M,M,M,KAGS 010620Z AUTO 28005KT 10SM CLR A2989 RMK MADISHF
AGS,2017-04-01 06:25,-81.9645,33.3699,M,M,M,270.00,6.00,M,29.89,M,10.00,M,CLR,M,M,M,M,M,M,M,M,KAGS 010625Z AUTO 27006KT 10SM CLR A2989 RMK MADISHF
AGS,2017-04-01 06:30,-81.9645,33.3699,M,M,M,270.00,5.00,M,29.89,M,10.00,M,CLR,M,M,M,M,M,M,M,M,KAGS 010630Z AUTO 27005KT 10SM CLR A2989 RMK MADISHF
AGS,2017-04-01 06:35,-81.9645,33.3699,M,M,M,270.00,4.00,M,29.89,M,10.00,M,CLR,M,M,M,M,M,M,M,M,KAGS 010635Z AUTO 27004KT 10SM CLR A2989 RMK MADISHF
AGS,2017-04-01 06:40,-81.9645,33.3699,M,M,M,280.00,4.00,M,29.89,M,10.00,M,CLR,M,M,M,M,M,M,M,M,KAGS 010640Z AUTO 28004KT 10SM CLR A2989 RMK MADISHF
AGS,2017-04-01 06:45,-81.9645,33.3699,M,M,M,280.00,4.00,M,29.89,M,10.00,M,CLR,M,M,M,M,M,M,M,M,KAGS 010645Z AUTO 28004KT 10SM CLR A2989 RMK MADISHF
AGS,2017-04-01 06:50,-81.9645,33.3699,M,M,M,290.00,3.00,M,29.89,M,10.00,M,CLR,M,M,M,M,M,M,M,M,KAGS 010650Z AUTO 29003KT 10SM CLR A2989 RMK MADISHF
AGS,2017-04-01 06:53,-81.9645,33.3699,55.90,46.90,71.69,0.00,0.00,0.00,29.89,1012.00,10.00,M,CLR,M,M,M,M,M,M,M,M,KAGS 010653Z AUTO 00000KT 10SM CLR 13/08 A2989 RMK AO2 SLP120 T01330083
AGS,2017-04-01 06:55,-81.9645,33.3699,M,M,M,60.00,3.00,M,29.89,M,10.00,M,CLR,M,M,M,M,M,M,M,M,KAGS 010655Z AUTO 06003KT 10SM CLR A2989 RMK MADISHF
AGS,2017-04-01 07:00,-81.9645,33.3699,M,M,M,70.00,4.00,M,29.90,M,10.00,M,CLR,M,M,M,M,M,M,M,M,KAGS 010700Z AUTO 07004KT 10SM CLR A2990 RMK MADISHF
AGS,2017-04-01 07:05,-81.9645,33.3699,M,M,M,0.00,0.00,M,29.90,M,10.00,M,CLR,M,M,M,M,M,M,M,M,KAGS 010705Z AUTO 00000KT 10SM CLR A2990 RMK MADISHF
AGS,2017-04-01 07:10,-81.9645,33.3699,M,M,M,0.00,0.00,M,29.89,M,10.00,M,CLR,M,M,M,M,M,M,M,M,KAGS 010710Z AUTO 00000KT 10SM CLR A2989 RMK MADISHF
AGS,2017-04-01 07:15,-81.9645,33.3699,M,M,M,0.00,0.00,M,29.89,M,10.00,M,CLR,M,M,M,M,M,M,M,M,KAGS 010715Z AUTO 00000KT 10SM CLR A2989 RMK MADISHF
AGS,2017-04-01 07:20,-81.9645,33.3699,M,M,M,300.00,3.00,M,29.89,M,10.00,M,CLR,M,M,M,M,M,M,M,M,KAGS 010720Z AUTO 30003KT 10SM CLR A2989 RMK MADISHF
AGS,2017-04-01 07:25,-81.9645,33.3699,M,M,M,300.00,4.00,M,29.90,M,10.00,M,CLR,M,M,M,M,M,M,M,M,KAGS 010725Z AUTO 30004KT 10SM CLR A2990 RMK MADISHF
AGS,2017-04-01 07:30,-81.9645,33.3699,M,M,M,0.00,0.00,M,29.90,M,10.00,M,CLR,M,M,M,M,M,M,M,M,KAGS 010730Z AUTO 00000KT 10SM CLR A2990 RMK MADISHF
AGS,2017-04-01 07:35,-81.9645,33.3699,M,M,M,0.00,0.00,M,29.90,M,10.00,M,CLR,M,M,M,M,M,M,M,M,KAGS 010735Z AUTO 00000KT 10SM CLR A2990 RMK MADISHF
AGS,2017-04-01 07:40,-81.9645,33.3699,M,M,M,0.00,0.00,M,29.90,M,10.00,M,CLR,M,M,M,M,M,M,M,M,KAGS 010740Z AUTO 00000KT 10SM CLR A2990 RMK MADISHF
AGS,2017-04-01 07:45,-81.9645,33.3699,M,M,M,0.00,0.00,M,29.90,M,10.00,M,CLR,M,M,M,M,M,M,M,M,KAGS 010745Z AUTO 00000KT 10SM CLR A2990 RMK MADISHF
AGS,2017-04-01 07:50,-81.9645,33.3699,M,M,M,290.00,4.00,M,29.90,M,10.00,M,CLR,M,M,M,M,M,M,M,M,KAGS 010750Z AUTO 29004KT 10SM CLR A2990 RMK MADISHF
AGS,2017-04-01 07:53,-81.9645,33.3699,55.90,46.90,71.69,290.00,4.00,0.00,29.90,1012.30,10.00,M,CLR,M,M,M,M,M,M,M,M,KAGS 010753Z AUTO 29004KT 10SM CLR 13/08 A2990 RMK AO2 SLP123 T01330083
AGS,2017-04-01 07:55,-81.9645,33.3699,M,M,M,290.00,5.00,M,29.90,M,10.00,M,CLR,M,M,M,M,M,M,M,M,KAGS 010755Z AUTO 29005KT 10SM CLR A2990 RMK MADISHF
AGS,2017-04-01 08:00,-81.9645,33.3699,M,M,M,290.00,3.00,M,29.90,M,10.00,M,CLR,M,M,M,M,M,M,M,M,KAGS 010800Z AUTO 29003KT 10SM CLR A2990 RMK MADISHF
AGS,2017-04-01 08:05,-81.9645,33.3699,M,M,M,300.00,3.00,M,29.91,M,10.00,M,CLR,M,M,M,M,M,M,M,M,KAGS 010805Z AUTO 30003KT 10SM CLR A2991 RMK MADISHF
AGS,2017-04-01 08:10,-81.9645,33.3699,M,M,M,310.00,3.00,M,29.91,M,10.00,M,CLR,M,M,M,M,M,M,M,M,KAGS 010810Z AUTO 31003KT 10SM CLR A2991 RMK MADISHF
AGS,2017-04-01 08:15,-81.9645,33.3699,M,M,M,310.00,5.00,M,29.91,M,10.00,M,CLR,M,M,M,M,M,M,M,M,KAGS 010815Z AUTO 31005KT 10SM CLR A2991 RMK MADISHF
AGS,2017-04-01 08:20,-81.9645,33.3699,M,M,M,0.00,0.00,M,29.91,M,10.00,M,CLR,M,M,M,M,M,M,M,M,KAGS 010820Z AUTO 00000KT 10SM CLR A2991 RMK MADISHF
AGS,2017-04-01 08:25,-81.9645,33.3699,M,M,M,310.00,3.00,M,29.91,M,10.00,M,CLR,M,M,M,M,M,M,M,M,KAGS 010825Z AUTO 31003KT 10SM CLR A2991 RMK MADISHF
AGS,2017-04-01 08:30,-81.9645,33.3699,M,M,M,320.00,6.00,M,29.91,M,10.00,M,CLR,M,M,M,M,M,M,M,M,KAGS 010830Z AUTO 32006KT 10SM CLR A2991 RMK MADISHF
AGS,2017-04-01 08:35,-81.9645,33.3699,M,M,M,310.00,7.00,M,29.91,M,10.00,M,CLR,M,M,M,M,M,M,M,M,KAGS 010835Z AUTO 31007KT 10SM CLR A2991 RMK MADISHF
AGS,2017-04-01 08:40,-81.9645,33.3699,M,M,M,300.00,6.00,M,29.91,M,10.00,M,CLR,M,M,M,M,M,M,M,M,KAGS 010840Z AUTO 30006KT 10SM CLR A2991 RMK MADISHF
AGS,2017-04-01 08:45,-81.9645,33.3699,M,M,M,300.00,6.00,M,29.91,M,10.00,M,CLR,M,M,M,M,M,M,M,M,KAGS 010845Z AUTO 30006KT 10SM CLR A2991 RMK MADISHF
AGS,2017-04-01 08:50,-81.9645,33.3699,M,M,M,300.00,6.00,M,29.91,M,10.00,M,CLR,M,M,M,M,M,M,M,M,KAGS 010850Z AUTO 30006KT 10SM CLR A2991 RMK MADISHF
AGS,2017-04-01 08:53,-81.9645,33.3699,59.00,48.00,66.83,310.00,6.00,0.00,29.91,1012.70,10.00,M,CLR,M,M,M,M,M,M,M,M,KAGS 010853Z AUTO 31006KT 10SM CLR 15/09 A2991 RMK AO2 SLP127 T01500089 53008
AGS,2017-04-01 08:55,-81.9645,33.3699,M,M,M,310.00,5.00,M,29.91,M,10.00,M,CLR,M,M,M,M,M,M,M,M,KAGS 010855Z AUTO 31005KT 10SM CLR A2991 RMK MADISHF
AGS,2017-04-01 09:00,-81.9645,33.3699,M,M,M,310.00,6.00,M,29.92,M,10.00,M,CLR,M,M,M,M,M,M,M,M,KAGS 010900Z AUTO 31006KT 10SM CLR A2992 RMK MADISHF
AGS,2017-04-01 09:05,-81.9645,33.3699,M,M,M,310.00,6.00,M,29.92,M,10.00,M,CLR,M,M,M,M,M,M,M,M,KAGS 010905Z AUTO 31006KT 10SM CLR A2992 RMK MADISHF
AGS,2017-04-01 09:10,-81.9645,33.3699,M,M,M,300.00,5.00,M,29.92,M,10.00,M,CLR,M,M,M,M,M,M,M,M,KAGS 010910Z AUTO 30005KT 10SM CLR A2992 RMK MADISHF
AGS,2017-04-01 09:15,-81.9645,33.3699,M,M,M,300.00,4.00,M,29.92,M,10.00,M,CLR,M,M,M,M,M,M,M,M,KAGS 010915Z AUTO 30004KT 10SM CLR A2992 RMK MADISHF
AGS,2017-04-01 09:20,-81.9645,33.3699,M,M,M,310.00,6.00,M,29.92,M,10.00,M,CLR,M,M,M,M,M,M,M,M,KAGS 010920Z AUTO 31006KT 10SM CLR A2992 RMK MADISHF
AGS,2017-04-01 09:25,-81.9645,33.3699,M,M,M,310.00,6.00,M,29.92,M,10.00,M,CLR,M,M,M,M,M,M,M,M,KAGS 010925Z AUTO 31006KT 10SM CLR A2992 RMK MADISHF
AGS,2017-04-01 09:30,-81.9645,33.3699,M,M,M,300.00,5.00,M,29.92,M,10.00,M,CLR,M,M,M,M,M,M,M,M,KAGS 010930Z AUTO 30005KT 10SM CLR A2992 RMK MADISHF
AGS,2017-04-01 09:35,-81.9645,33.3699,M,M,M,310.00,6.00,M,29.92,M,10.00,M,CLR,M,M,M,M,M,M,M,M,KAGS 010935Z AUTO 31006KT 10SM CLR A2992 RMK MADISHF
AGS,2017-04-01 09:40,-81.9645,33.3699,M,M,M,310.00,6.00,M,29.92,M,10.00,M,CLR,M,M,M,M,M,M,M,M,KAGS 010940Z AUTO 31006KT 10SM CLR A2992 RMK MADISHF
AGS,2017-04-01 09:45,-81.9645,33.3699,M,M,M,300.00,6.00,M,29.92,M,10.00,M,CLR,M,M,M,M,M,M,M,M,KAGS 010945Z AUTO 30006KT 10SM CLR A2992 RMK MADISHF
AGS,2017-04-01 09:50,-81.9645,33.3699,M,M,M,300.00,6.00,M,29.92,M,10.00,M,CLR,M,M,M,M,M,M,M,M,KAGS 010950Z AUTO 30006KT 10SM CLR A2992 RMK MADISHF
AGS,2017-04-01 09:53,-81.9645,33.3699,57.00,48.00,71.81,300.00,5.00,0.00,29.92,1013.10,10.00,M,CLR,M,M,M,M,M,M,M,M,KAGS 010953Z AUTO 30005KT 10SM CLR 14/09 A2992 RMK AO2 SLP131 T01390089
AGS,2017-04-01 09:55,-81.9645,33.3699,M,M,M,290.00,4.00,M,29.93,M,10.00,M,CLR,M,M,M,M,M,M,M,M,KAGS 010955Z AUTO 29004KT 10SM CLR A2993 RMK MADISHF
AGS,2017-04-01 10:00,-81.9645,33.3699,M,M,M,290.00,4.00,M,29.93,M,10.00,M,CLR,M,M,M,M,M,M,M,M,KAGS 011000Z AUTO 29004KT 10SM CLR A2993 RMK MADISHF
AGS,2017-04-01 10:05,-81.9645,33.3699,M,M,M,300.00,4.00,M,29.93,M,10.00,M,CLR,M,M,M,M,M,M,M,M,KAGS 011005Z AUTO 30004KT 10SM CLR A2993 RMK MADISHF
AGS,2017-04-01 10:10,-81.9645,33.3699,M,M,M,290.00,4.00,M,29.93,M,10.00,M,CLR,M,M,M,M,M,M,M,M,KAGS 011010Z AUTO 29004KT 10SM CLR A2993 RMK MADISHF
AGS,2017-04-01 10:15,-81.9645,33.3699,M,M,M,290.00,4.00,M,29.93,M,10.00,M,CLR,M,M,M,M,M,M,M,M,KAGS 011015Z AUTO 29004KT 10SM CLR A2993 RMK MADISHF
AGS,2017-04-01 10:20,-81.9645,33.3699,M,M,M,290.00,5.00,M,29.93,M,10.00,M,CLR,M,M,M,M,M,M,M,M,KAGS 011020Z AUTO 29005KT 10SM CLR A2993 RMK MADISHF
AGS,2017-04-01 10:25,-81.9645,33.3699,M,M,M,280.00,4.00,M,29.93,M,10.00,M,CLR,M,M,M,M,M,M,M,M,KAGS 011025Z AUTO 28004KT 10SM CLR A2993 RMK MADISHF
AGS,2017-04-01 10:30,-81.9645,33.3699,M,M,M,290.00,4.00,M,29.93,M,10.00,M,CLR,M,M,M,M,M,M,M,M,KAGS 011030Z AUTO 29004KT 10SM CLR A2993 RMK MADISHF
AGS,2017-04-01 10:35,-81.9645,33.3699,M,M,M,290.00,3.00,M,29.93,M,10.00,M,CLR,M,M,M,M,M,M,M,M,KAGS 011035Z AUTO 29003KT 10SM CLR A2993 RMK MADISHF
AGS,2017-04-01 10:40,-81.9645,33.3699,M,M,M,0.00,0.00,M,29.94,M,10.00,M,CLR,M,M,M,M,M,M,M,M,KAGS 011040Z AUTO 00000KT 10SM CLR A2994 RMK MADISHF
AGS,2017-04-01 10:45,-81.9645,33.3699,M,M,M,0.00,0.00,M,29.94,M,10.00,M,CLR,M,M,M,M,M,M,M,M,KAGS 011045Z AUTO 00000KT 10SM CLR A2994 RMK MADISHF
AGS,2017-04-01 10:50,-81.9645,33.3699,M,M,M,0.00,0.00,M,29.94,M,10.00,M,CLR,M,M,M,M,M,M,M,M,KAGS 011050Z AUTO 00000KT 10SM CLR A2994 RMK MADISHF
AGS,2017-04-01 10:53,-81.9645,33.3699,51.10,46.90,85.48,0.00,0.00,0.00,29.95,1013.90,10.00,M,CLR,M,M,M,M,M,M,M,M,KAGS 011053Z 00000KT 10SM CLR 11/08 A2995 RMK AO2 SLP139 T01060083
AGS,2017-04-01 10:55,-81.9645,33.3699,M,M,M,0.00,0.00,M,29.95,M,10.00,M,CLR,M,M,M,M,M,M,M,M,KAGS 011055Z AUTO 00000KT 10SM CLR A2995 RMK MADISHF
AGS,2017-04-01 11:00,-81.9645,33.3699,M,M,M,0.00,0.00,M,29.95,M,10.00,M,CLR,M,M,M,M,M,M,M,M,KAGS 011100Z AUTO 00000KT 10SM CLR A2995 RMK MADISHF
AGS,2017-04-01 11:05,-81.9645,33.3699,M,M,M,0.00,0.00,M,29.95,M,10.00,M,CLR,M,M,M,M,M,M,M,M,KAGS 011105Z AUTO 00000KT 10SM CLR A2995 RMK MADISHF
AGS,2017-04-01 11:10,-81.9645,33.3699,M,M,M,0.00,0.00,M,29.95,M,10.00,M,CLR,M,M,M,M,M,M,M,M,KAGS 011110Z AUTO 00000KT 10SM CLR A2995 RMK MADISHF
AGS,2017-04-01 11:15,-81.9645,33.3699,M,M,M,0.00,0.00,M,29.95,M,10.00,M,CLR,M,M,M,M,M,M,M,M,KAGS 011115Z AUTO 00000KT 10SM CLR A2995 RMK MADISHF
AGS,2017-04-01 11:20,-81.9645,33.3699,M,M,M,0.00,0.00,M,29.96,M,10.00,M,CLR,M,M,M,M,M,M,M,M,KAGS 011120Z AUTO 00000KT 10SM CLR A2996 RMK MADISHF
AGS,2017-04-01 11:25,-81.9645,33.3699,M,M,M,0.00,0.00,M,29.96,M,10.00,M,CLR,M,M,M,M,M,M,M,M,KAGS 011125Z AUTO 00000KT 10SM CLR A2996 RMK MADISHF
AGS,2017-04-01 11:30,-81.9645,33.3699,M,M,M,0.00,0.00,M,29.96,M,10.00,M,CLR,M,M,M,M,M,M,M,M,KAGS 011130Z AUTO 00000KT 10SM CLR A2996 RMK MADISHF
AGS,2017-04-01 11:35,-81.9645,33.3699,M,M,M,0.00,0.00,M,29.96,M,10.00,M,CLR,M,M,M,M,M,M,M,M,KAGS 011135Z AUTO 00000KT 10SM CLR A2996 RMK MADISHF
AGS,2017-04-01 11:40,-81.9645,33.3699,M,M,M,30.00,3.00,M,29.97,M,10.00,M,CLR,M,M,M,M,M,M,M,M,KAGS 011140Z AUTO 03003KT 10SM CLR A2997 RMK MADISHF
AGS,2017-04-01 11:45,-81.9645,33.3699,M,M,M,30.00,3.00,M,29.97,M,10.00,M,CLR,M,M,M,M,M,M,M,M,KAGS 011145Z AUTO 03003KT 10SM CLR A2997 RMK MADISHF
AGS,2017-04-01 11:50,-81.9645,33.3699,M,M,M,360.00,3.00,M,29.97,M,10.00,M,CLR,M,M,M,M,M,M,M,M,KAGS 011150Z AUTO 36003KT 10SM CLR A2997 RMK MADISHF
AGS,2017-04-01 11:53,-81.9645,33.3699,57.00,48.00,71.81,10.00,3.00,0.00,29.97,1014.80,10.00,M,CLR,M,M,M,M,M,M,M,M,KAGS 011153Z 01003KT 10SM CLR 14/09 A2997 RMK AO2 SLP148 T01390089 10161 20100 53020
AGS,2017-04-01 11:55,-81.9645,33.3699,M,M,M,10.00,3.00,M,29.97,M,10.00,M,CLR,M,M,M,M,M,M,M,M,KAGS 011155Z AUTO 01003KT 10SM CLR A2997 RMK MADISHF
AGS,2017-04-01 12:00,-81.9645,33.3699,M,M,M,340.00,3.00,M,29.98,M,10.00,M,CLR,M,M,M,M,M,M,M,M,KAGS 011200Z AUTO 34003KT 10SM CLR A2998 RMK MADISHF
AGS,2017-04-01 12:05,-81.9645,33.3699,M,M,M,0.00,0.00,M,29.98,M,10.00,M,CLR,M,M,M,M,M,M,M,M,KAGS 011205Z AUTO 00000KT 10SM CLR A2998 RMK MADISHF
AGS,2017-04-01 12:10,-81.9645,33.3699,M,M,M,0.00,0.00,M,29.98,M,10.00,M,CLR,M,M,M,M,M,M,M,M,KAGS 011210Z AUTO 00000KT 10SM CLR A2998 RMK MADISHF
AGS,2017-04-01 12:15,-81.9645,33.3699,M,M,M,0.00,0.00,M,29.99,M,10.00,M,CLR,M,M,M,M,M,M,M,M,KAGS 011215Z AUTO 00000KT 10SM CLR A2999 RMK MADISHF
AGS,2017-04-01 12:20,-81.9645,33.3699,M,M,M,0.00,0.00,M,29.99,M,10.00,M,CLR,M,M,M,M,M,M,M,M,KAGS 011220Z AUTO 00000KT 10SM CLR A2999 RMK MADISHF
AGS,2017-04-01 12:25,-81.9645,33.3699,M,M,M,0.00,0.00,M,29.99,M,10.00,M,CLR,M,M,M,M,M,M,M,M,KAGS 011225Z AUTO 00000KT 10SM CLR A2999 RMK MADISHF
AGS,2017-04-01 12:30,-81.9645,33.3699,M,M,M,0.00,0.00,M,29.99,M,10.00,M,CLR,M,M,M,M,M,M,M,M,KAGS 011230Z AUTO 00000KT 10SM CLR A2999 RMK MADISHF
AGS,2017-04-01 12:35,-81.9645,33.3699,M,M,M,0.00,0.00,M,29.99,M,10.00,M,CLR,M,M,M,M,M,M,M,M,KAGS 011235Z AUTO 00000KT 10SM CLR A2999 RMK MADISHF
AGS,2017-04-01 12:40,-81.9645,33.3699,M,M,M,0.00,0.00,M,29.99,M,10.00,M,CLR,M,M,M,M,M,M,M,M,KAGS 011240Z AUTO 00000KT 10SM CLR A2999 RMK MADISHF
AGS,2017-04-01 12:45,-81.9645,33.3699,M,M,M,330.00,3.00,M,29.99,M,10.00,M,CLR,M,M,M,M,M,M,M,M,KAGS 011245Z AUTO 33003KT 10SM CLR A2999 RMK MADISHF
AGS,2017-04-01 12:50,-81.9645,33.3699,M,M,M,340.00,4.00,M,29.99,M,10.00,M,CLR,M,M,M,M,M,M,M,M,KAGS 011250Z AUTO 34004KT 10SM CLR A2999 RMK MADISHF
AGS,2017-04-01 12:53,-81.9645,33.3699,63.00,48.90,59.98,330.00,3.00,0.00,29.99,1015.50,10.00,M,CLR,M,M,M,M,M,M,M,M,KAGS 011253Z 33003KT 10SM CLR 17/09 A2999 RMK AO2 SLP155 T01720094
AGS,2017-04-01 12:55,-81.9645,33.3699,M,M,M,330.00,4.00,M,29.99,M,10.00,M,CLR,M,M,M,M,M,M,M,M,KAGS 011255Z AUTO 33004KT 10SM CLR A2999 RMK MADISHF
AGS,2017-04-01 13:00,-81.9645,33.3699,M,M,M,330.00,4.00,M,29.99,M,10.00,M,CLR,M,M,M,M,M,M,M,M,KAGS 011300Z AUTO 33004KT 10SM CLR A2999 RMK MADISHF
AGS,2017-04-01 13:05,-81.9645,33.3699,M,M,M,350.00,6.00,M,29.99,M,10.00,M,CLR,M,M,M,M,M,M,M,M,KAGS 011305Z AUTO 35006KT 10SM CLR A2999 RMK MADISHF
AGS,2017-04-01 13:10,-81.9645,33.3699,M,M,M,350.00,6.00,M,29.99,M,10.00,M,CLR,M,M,M,M,M,M,M,M,KAGS 011310Z AUTO 35006KT 10SM CLR A2999 RMK MADISHF
AGS,2017-04-01 13:15,-81.9645,33.3699,M,M,M,350.00,6.00,M,29.99,M,10.00,M,CLR,M,M,M,M,M,M,M,M,KAGS 011315Z AUTO 35006KT 10SM CLR A2999 RMK MADISHF
AGS,2017-04-01 13:20,-81.9645,33.3699,M,M,M,330.00,7.00,M,29.99,M,10.00,M,CLR,M,M,M,M,M,M,M,M,KAGS 011320Z AUTO 33007KT 10SM CLR A2999 RMK MADISHF
AGS,2017-04-01 13:25,-81.9645,33.3699,M,M,M,340.00,8.00,M,29.99,M,10.00,M,CLR,M,M,M,M,M,M,M,M,KAGS 011325Z AUTO 34008KT 10SM CLR A2999 RMK MADISHF
AGS,2017-04-01 13:30,-81.9645,33.3699,M,M,M,320.00,12.00,M,29.99,M,10.00,M,CLR,M,M,M,M,M,M,M,M,KAGS 011330Z AUTO 32012KT 10SM CLR A2999 RMK MADISHF
AGS,2017-04-01 13:35,-81.9645,33.3699,M,M,M,320.00,12.00,M,29.99,M,10.00,M,CLR,M,M,M,M,M,M,M,M,KAGS 011335Z AUTO 32012KT 10SM CLR A2999 RMK MADISHF
AGS,2017-04-01 13:40,-81.9645,33.3699,M,M,M,310.00,11.00,M,29.99,M,10.00,M,CLR,M,M,M,M,M,M,M,M,KAGS 011340Z AUTO 31011KT 10SM CLR A2999 RMK MADISHF
AGS,2017-04-01 13:45,-81.9645,33.3699,M,M,M,320.00,12.00,M,29.99,M,10.00,M,CLR,M,M,M,M,M,M,M,M,KAGS 011345Z AUTO 32012KT 10SM CLR A2999 RMK MADISHF
AGS,2017-04-01 13:50,-81.9645,33.3699,M,M,M,320.00,9.00,M,29.99,M,10.00,M,CLR,M,M,M,M,M,M,M,M,KAGS 011350Z AUTO 32009KT 10SM CLR A2999 RMK MADISHF
AGS,2017-04-01 13:53,-81.9645,33.3699,68.00,48.90,50.40,320.00,12.00,0.00,29.99,1015.20,10.00,M,CLR,M,M,M,M,M,M,M,M,KAGS 011353Z 32012KT 10SM CLR 20/09 A2999 RMK AO2 SLP152 T02000094
AGS,2017-04-01 13:55,-81.9645,33.3699,M,M,M,330.00,11.00,M,29.99,M,10.00,M,CLR,M,M,M,M,M,M,M,M,KAGS 011355Z AUTO 33011KT 10SM CLR A2999 RMK MADISHF
AGS,2017-04-01 14:00,-81.9645,33.3699,M,M,M,340.00,12.00,M,29.99,M,10.00,M,CLR,M,M,M,M,M,M,M,M,KAGS 011400Z AUTO 34012KT 10SM CLR A2999 RMK MADISHF
AGS,2017-04-01 14:05,-81.9645,33.3699,M,M,M,330.00,10.00,M,29.99,M,10.00,M,CLR,M,M,M,M,M,M,M,M,KAGS 011405Z AUTO 33010KT 10SM CLR A2999 RMK MADISHF
AGS,2017-04-01 14:10,-81.9645,33.3699,M,M,M,330.00,11.00,M,29.99,M,10.00,M,CLR,M,M,M,M,M,M,M,M,KAGS 011410Z AUTO 33011KT 10SM CLR A2999 RMK MADISHF
AGS,2017-04-01 14:15,-81.9645,33.3699,M,M,M,340.00,13.00,M,29.99,M,10.00,M,CLR,M,M,M,M,M,M,M,M,KAGS 011415Z AUTO 34013KT 10SM CLR A2999 RMK MADISHF
AGS,2017-04-01 14:20,-81.9645,33.3699,M,M,M,310.00,10.00,M,30.00,M,10.00,M,CLR,M,M,M,M,M,M,M,M,KAGS 011420Z AUTO 31010KT 10SM CLR A3000 RMK MADISHF
AGS,2017-04-01 14:25,-81.9645,33.3699,M,M,M,320.00,9.00,M,30.00,M,10.00,M,CLR,M,M,M,M,M,M,M,M,KAGS 011425Z AUTO 32009KT 10SM CLR A3000 RMK MADISHF
AGS,2017-04-01 14:30,-81.9645,33.3699,M,M,M,330.00,11.00,M,30.00,M,10.00,M,CLR,M,M,M,M,M,M,M,M,KAGS 011430Z AUTO 33011KT 10SM CLR A3000 RMK MADISHF
AGS,2017-04-01 14:35,-81.9645,33.3699,M,M,M,340.00,10.00,M,30.00,M,10.00,M,CLR,M,M,M,M,M,M,M,M,KAGS 011435Z AUTO 34010KT 10SM CLR A3000 RMK MADISHF
AGS,2017-04-01 14:40,-81.9645,33.3699,M,M,M,340.00,11.00,M,30.00,M,10.00,M,CLR,M,M,M,M,M,M,M,M,KAGS 011440Z AUTO 34011KT 10SM CLR A3000 RMK MADISHF
AGS,2017-04-01 14:45,-81.9645,33.3699,M,M,M,340.00,11.00,M,30.00,M,10.00,M,CLR,M,M,M,M,M,M,M,M,KAGS 011445Z AUTO 34011KT 10SM CLR A3000 RMK MADISHF
AGS,2017-04-01 14:50,-81.9645,33.3699,M,M,M,330.00,8.00,M,30.00,M,10.00,M,CLR,M,M,M,M,M,M,M,M,KAGS 011450Z AUTO 33008KT 10SM CLR A3000 RMK WND 30V36  MADISHF
AGS,2017-04-01 14:53,-81.9645,33.3699,71.10,48.90,45.33,330.00,9.00,0.00,30.00,1015.70,10.00,M,CLR,M,M,M,M,M,M,M,M,KAGS 011453Z 33009KT 10SM CLR 22/09 A3000 RMK AO2 SLP157 T02170094 51010
AGS,2017-04-01 14:55,-81.9645,33.3699,M,M,M,330.00,9.00,M,30.00,M,10.00,M,CLR,M,M,M,M,M,M,M,M,KAGS 011455Z AUTO 33009KT 10SM CLR A3000 RMK MADISHF
AGS,2017-04-01 15:00,-81.9645,33.3699,M,M,M,310.00,9.00,M,30.00,M,10.00,M,CLR,M,M,M,M,M,M,M,M,KAGS 011500Z AUTO 31009KT 10SM CLR A3000 RMK MADISHF
AGS,2017-04-01 15:05,-81.9645,33.3699,M,M,M,360.00,10.00,M,30.00,M,10.00,M,CLR,M,M,M,M,M,M,M,M,KAGS 011505Z AUTO 36010KT 10SM CLR A3000 RMK MADISHF
AGS,2017-04-01 15:10,-81.9645,33.3699,M,M,M,350.00,8.00,M,30.00,M,10.00,M,CLR,M,M,M,M,M,M,M,M,KAGS 011510Z AUTO 35008KT 10SM CLR A3000 RMK MADISHF
AGS,2017-04-01 15:15,-81.9645,33.3699,M,M,M,350.00,7.00,M,30.00,M,10.00,M,CLR,M,M,M,M,M,M,M,M,KAGS 011515Z AUTO 35007KT 10SM CLR A3000 RMK MADISHF
AGS,2017-04-01 15:20,-81.9645,33.3699,M,M,M,10.00,6.00,M,30.00,M,10.00,M,CLR,M,M,M,M,M,M,M,M,KAGS 011520Z AUTO 01006KT 10SM CLR A3000 RMK MADISHF
AGS,2017-04-01 15:25,-81.9645,33.3699,M,M,M,350.00,8.00,M,30.00,M,10.00,M,CLR,M,M,M,M,M,M,M,M,KAGS 011525Z AUTO 35008KT 10SM CLR A3000 RMK MADISHF
AGS,2017-04-01 15:30,-81.9645,33.3699,M,M,M,360.00,6.00,M,30.00,M,10.00,M,CLR,M,M,M,M,M,M,M,M,KAGS 011530Z AUTO 36006KT 10SM CLR A3000 RMK MADISHF
AGS,2017-04-01 15:35,-81.9645,33.3699,M,M,M,340.00,8.00,M,30.01,M,10.00,M,CLR,M,M,M,M,M,M,M,M,KAGS 011535Z AUTO 34008KT 10SM CLR A3001 RMK MADISHF
AGS,2017-04-01 15:40,-81.9645,33.3699,M,M,M,330.00,5.00,M,30.01,M,10.00,M,CLR,M,M,M,M,M,M,M,M,KAGS 011540Z AUTO 33005KT 10SM CLR A3001 RMK MADISHF
AGS,2017-04-01 15:45,-81.9645,33.3699,M,M,M,350.00,6.00,M,30.01,M,10.00,M,CLR,M,M,M,M,M,M,M,M,KAGS 011545Z AUTO 35006KT 10SM CLR A3001 RMK MADISHF
AGS,2017-04-01 15:50,-81.9645,33.3699,M,M,M,300.00,4.00,M,30.01,M,10.00,M,CLR,M,M,M,M,M,M,M,M,KAGS 011550Z AUTO 30004KT 10SM CLR A3001 RMK MADISHF
AGS,2017-04-01 15:53,-81.9645,33.3699,73.90,50.00,42.97,290.00,5.00,0.00,30.00,1015.80,10.00,M,CLR,M,M,M,M,M,M,M,M,KAGS 011553Z 29005KT 10SM CLR 23/10 A3000 RMK AO2 SLP158 T02330100
AGS,2017-04-01 15:55,-81.9645,33.3699,M,M,M,320.00,7.00,M,30.00,M,10.00,M,CLR,M,M,M,M,M,M,M,M,KAGS 011555Z AUTO 32007KT 10SM CLR A3000 RMK MADISHF
AGS,2017-04-01 16:00,-81.9645,33.3699,M,M,M,300.00,3.00,M,30.00,M,10.00,M,CLR,M,M,M,M,M,M,M,M,KAGS 011600Z AUTO 30003KT 10SM CLR A3000 RMK VRB03KT  MADISHF
AGS,2017-04-01 16:05,-81.9645,33.3699,M,M,M,30.00,3.00,M,30.00,M,10.00,M,CLR,M,M,M,M,M,M,M,M,KAGS 011605Z AUTO 03003KT 10SM CLR A3000 RMK VRB03KT  MADISHF
AGS,2017-04-01 16:10,-81.9645,33.3699,M,M,M,350.00,5.00,M,30.00,M,10.00,M,CLR,M,M,M,M,M,M,M,M,KAGS 011610Z AUTO 35005KT 10SM CLR A3000 RMK MADISHF
AGS,2017-04-01 16:15,-81.9645,33.3699,M,M,M,330.00,6.00,M,30.00,M,10.00,M,CLR,M,M,M,M,M,M,M,M,KAGS 011615Z AUTO 33006KT 10SM CLR A3000 RMK MADISHF
AGS,2017-04-01 16:20,-81.9645,33.3699,M,M,M,310.00,5.00,M,30.00,M,10.00,M,CLR,M,M,M,M,M,M,M,M,KAGS 011620Z AUTO 31005KT 10SM CLR A3000 RMK MADISHF
AGS,2017-04-01 16:25,-81.9645,33.3699,M,M,M,330.00,7.00,M,30.00,M,10.00,M,CLR,M,M,M,M,M,M,M,M,KAGS 011625Z AUTO 33007KT 10SM CLR A3000 RMK MADISHF
AGS,2017-04-01 16:30,-81.9645,33.3699,M,M,M,330.00,5.00,M,30.00,M,10.00,M,CLR,M,M,M,M,M,M,M,M,KAGS 011630Z AUTO 33005KT 10SM CLR A3000 RMK MADISHF
AGS,2017-04-01 16:35,-81.9645,33.3699,M,M,M,10.00,3.00,M,30.00,M,10.00,M,CLR,M,M,M,M,M,M,M,M,KAGS 011635Z AUTO 01003KT 10SM CLR A3000 RMK VRB03KT  MADISHF
AGS,2017-04-01 16:40,-81.9645,33.3699,M,M,M,360.00,5.00,M,29.99,M,10.00,M,CLR,M,M,M,M,M,M,M,M,KAGS 011640Z AUTO 36005KT 10SM CLR A2999 RMK VRB05KT  MADISHF
AGS,2017-04-01 16:45,-81.9645,33.3699,M,M,M,350.00,4.00,M,29.99,M,10.00,M,CLR,M,M,M,M,M,M,M,M,KAGS 011645Z AUTO 35004KT 10SM CLR A2999 RMK VRB04KT  MADISHF
AGS,2017-04-01 16:50,-81.9645,33.3699,M,M,M,360.00,5.00,M,29.99,M,10.00,M,CLR,M,M,M,M,M,M,M,M,KAGS 011650Z AUTO 36005KT 10SM CLR A2999 RMK MADISHF
AGS,2017-04-01 16:53,-81.9645,33.3699,77.00,50.00,38.74,320.00,8.00,0.00,29.99,1015.30,10.00,M,CLR,M,M,M,M,M,M,M,M,KAGS 011653Z 32008KT 300V010 10SM CLR 25/10 A2999 RMK AO2 SLP153 T02500100
AGS,2017-04-01 16:55,-81.9645,33.3699,M,M,M,300.00,7.00,M,29.99,M,10.00,M,CLR,M,M,M,M,M,M,M,M,KAGS 011655Z AUTO 30007KT 10SM CLR A2999 RMK MADISHF
AGS,2017-04-01 17:00,-81.9645,33.3699,M,M,M,310.00,5.00,M,29.99,M,10.00,M,CLR,M,M,M,M,M,M,M,M,KAGS 011700Z AUTO 31005KT 10SM CLR A2999 RMK MADISHF
AGS,2017-04-01 17:05,-81.9645,33.3699,M,M,M,360.00,5.00,M,29.99,M,10.00,M,CLR,M,M,M,M,M,M,M,M,KAGS 011705Z AUTO 36005KT 10SM CLR A2999 RMK VRB05KT  MADISHF
AGS,2017-04-01 17:10,-81.9645,33.3699,M,M,M,10.00,3.00,M,29.99,M,10.00,M,CLR,M,M,M,M,M,M,M,M,KAGS 011710Z AUTO 01003KT 10SM CLR A2999 RMK VRB03KT  MADISHF
AGS,2017-04-01 17:15,-81.9645,33.3699,M,M,M,350.00,7.00,M,29.99,M,10.00,M,CLR,M,M,M,M,M,M,M,M,KAGS 011715Z AUTO 35007KT 10SM CLR A2999 RMK MADISHF
AGS,2017-04-01 17:20,-81.9645,33.3699,M,M,M,340.00,11.00,M,29.98,M,10.00,M,CLR,M,M,M,M,M,M,M,M,KAGS 011720Z AUTO 34011KT 10SM CLR A2998 RMK MADISHF
AGS,2017-04-01 17:25,-81.9645,33.3699,M,M,M,340.00,7.00,M,29.98,M,10.00,M,CLR,M,M,M,M,M,M,M,M,KAGS 011725Z AUTO 34007KT 10SM CLR A2998 RMK MADISHF
AGS,2017-04-01 17:30,-81.9645,33.3699,M,M,M,330.00,9.00,M,29.99,M,10.00,M,CLR,M,M,M,M,M,M,M,M,KAGS 011730Z AUTO 33009KT 10SM CLR A2999 RMK MADISHF
AGS,2017-04-01 17:35,-81.9645,33.3699,M,M,M,310.00,6.00,M,29.98,M,10.00,M,CLR,M,M,M,M,M,M,M,M,KAGS 011735Z AUTO 31006KT 10SM CLR A2998 RMK VRB06KT  MADISHF
AGS,2017-04-01 17:40,-81.9645,33.3699,M,M,M,0.00,0.00,M,29.98,M,10.00,M,CLR,M,M,M,M,M,M,M,M,KAGS 011740Z AUTO 00000KT 10SM CLR A2998 RMK MADISHF
AGS,2017-04-01 17:45,-81.9645,33.3699,M,M,M,M,M,M,29.98,M,10.00,M,CLR,M,M,M,M,M,M,M,M,KAGS 011745Z AUTO /////KT 10SM CLR A2998 RMK MADISHF
AGS,2017-04-01 17:50,-81.9645,33.3699,M,M,M,300.00,5.00,M,29.98,M,10.00,19.00,CLR,M,M,M,M,M,M,M,M,KAGS 011750Z AUTO 30005G19KT 10SM CLR A2998 RMK MADISHF
AGS,2017-04-01 17:53,-81.9645,33.3699,79.00,50.00,36.27,300.00,5.00,0.00,29.98,1015.00,10.00,M,CLR,M,M,M,M,M,M,M,M,KAGS 011753Z 30005KT 10SM CLR 26/10 A2998 RMK AO2 SLP150 T02610100 10261 20144 58007
AGS,2017-04-01 17:55,-81.9645,33.3699,M,M,M,290.00,7.00,M,29.98,M,10.00,M,CLR,M,M,M,M,M,M,M,M,KAGS 011755Z AUTO 29007KT 10SM CLR A2998 RMK MADISHF
AGS,2017-04-01 18:00,-81.9645,33.3699,M,M,M,340.00,7.00,M,29.98,M,10.00,M,CLR,M,M,M,M,M,M,M,M,KAGS 011800Z AUTO 34007KT 10SM CLR A2998 RMK MADISHF
AGS,2017-04-01 18:05,-81.9645,33.3699,M,M,M,350.00,4.00,M,29.98,M,10.00,M,CLR,M,M,M,M,M,M,M,M,KAGS 011805Z AUTO 35004KT 10SM CLR A2998 RMK MADISHF
AGS,2017-04-01 18:10,-81.9645,33.3699,M,M,M,340.00,8.00,M,29.98,M,10.00,M,CLR,M,M,M,M,M,M,M,M,KAGS 011810Z AUTO 34008KT 10SM CLR A2998 RMK MADISHF
AGS,2017-04-01 18:15,-81.9645,33.3699,M,M,M,360.00,6.00,M,29.97,M,10.00,M,CLR,M,M,M,M,M,M,M,M,KAGS 011815Z AUTO 36006KT 10SM CLR A2997 RMK MADISHF
AGS,2017-04-01 18:20,-81.9645,33.3699,M,M,M,10.00,6.00,M,29.97,M,10.00,M,CLR,M,M,M,M,M,M,M,M,KAGS 011820Z AUTO 01006KT 10SM CLR A2997 RMK MADISHF
AGS,2017-04-01 18:25,-81.9645,33.3699,M,M,M,340.00,7.00,M,29.97,M,10.00,M,CLR,M,M,M,M,M,M,M,M,KAGS 011825Z AUTO 34007KT 10SM CLR A2997 RMK MADISHF
AGS,2017-04-01 18:30,-81.9645,33.3699,M,M,M,310.00,8.00,M,29.97,M,10.00,M,CLR,M,M,M,M,M,M,M,M,KAGS 011830Z AUTO 31008KT 10SM CLR A2997 RMK MADISHF
AGS,2017-04-01 18:35,-81.9645,33.3699,M,M,M,20.00,7.00,M,29.97,M,10.00,M,CLR,M,M,M,M,M,M,M,M,KAGS 011835Z AUTO 02007KT 10SM CLR A2997 RMK MADISHF
AGS,2017-04-01 18:40,-81.9645,33.3699,M,M,M,30.00,7.00,M,29.97,M,10.00,M,CLR,M,M,M,M,M,M,M,M,KAGS 011840Z AUTO 03007KT 10SM CLR A2997 RMK WND 36V06  MADISHF
AGS,2017-04-01 18:45,-81.9645,33.3699,M,M,M,350.00,7.00,M,29.96,M,10.00,M,CLR,M,M,M,M,M,M,M,M,KAGS 011845Z AUTO 35007KT 10SM CLR A2996 RMK WND 32V04  MADISHF
AGS,2017-04-01 18:50,-81.9645,33.3699,M,M,M,350.00,5.00,M,29.96,M,10.00,M,CLR,M,M,M,M,M,M,M,M,KAGS 011850Z AUTO 35005KT 10SM CLR A2996 RMK VRB05KT  MADISHF
AGS,2017-04-01 18:53,-81.9645,33.3699,82.00,48.90,31.56,360.00,7.00,0.00,29.96,1014.20,10.00,M,CLR,M,M,M,M,M,M,M,M,KAGS 011853Z 36007KT 320V020 10SM CLR 28/09 A2996 RMK AO2 SLP142 T02780094
AGS,2017-04-01 18:55,-81.9645,33.3699,M,M,M,350.00,9.00,M,29.96,M,10.00,M,CLR,M,M,M,M,M,M,M,M,KAGS 011855Z AUTO 35009KT 10SM CLR A2996 RMK MADISHF
AGS,2017-04-01 19:00,-81.9645,33.3699,M,M,M,310.00,5.00,M,29.95,M,10.00,M,CLR,M,M,M,M,M,M,M,M,KAGS 011900Z AUTO 31005KT 10SM CLR A2995 RMK MADISHF
AGS,2017-04-01 19:05,-81.9645,33.3699,M,M,M,350.00,7.00,M,29.95,M,10.00,M,CLR,M,M,M,M,M,M,M,M,KAGS 011905Z AUTO 35007KT 10SM CLR A2995 RMK WND 32V02  MADISHF
AGS,2017-04-01 19:10,-81.9645,33.3699,M,M,M,360.00,6.00,M,29.95,M,10.00,M,CLR,M,M,M,M,M,M,M,M,KAGS 011910Z AUTO 36006KT 10SM CLR A2995 RMK MADISHF
AGS,2017-04-01 19:15,-81.9645,33.3699,M,M,M,350.00,5.00,M,29.95,M,10.00,M,CLR,M,M,M,M,M,M,M,M,KAGS 011915Z AUTO 35005KT 10SM CLR A2995 RMK MADISHF
AGS,2017-04-01 19:20,-81.9645,33.3699,M,M,M,340.00,6.00,M,29.95,M,10.00,M,CLR,M,M,M,M,M,M,M,M,KAGS 011920Z AUTO 34006KT 10SM CLR A2995 RMK MADISHF
AGS,2017-04-01 19:25,-81.9645,33.3699,M,M,M,20.00,7.00,M,29.95,M,10.00,M,CLR,M,M,M,M,M,M,M,M,KAGS 011925Z AUTO 02007KT 10SM CLR A2995 RMK MADISHF
AGS,2017-04-01 19:30,-81.9645,33.3699,M,M,M,320.00,4.00,M,29.94,M,10.00,M,CLR,M,M,M,M,M,M,M,M,KAGS 011930Z AUTO 32004KT 10SM CLR A2994 RMK VRB04KT  MADISHF
AGS,2017-04-01 19:35,-81.9645,33.3699,M,M,M,340.00,8.00,M,29.94,M,10.00,M,CLR,M,M,M,M,M,M,M,M,KAGS 011935Z AUTO 34008KT 10SM CLR A2994 RMK MADISHF
AGS,2017-04-01 19:40,-81.9645,33.3699,M,M,M,350.00,5.00,M,29.94,M,10.00,M,CLR,M,M,M,M,M,M,M,M,KAGS 011940Z AUTO 35005KT 10SM CLR A2994 RMK VRB05KT  MADISHF
AGS,2017-04-01 19:45,-81.9645,33.3699,M,M,M,30.00,8.00,M,29.94,M,10.00,M,CLR,M,M,M,M,M,M,M,M,KAGS 011945Z AUTO 03008KT 10SM CLR A2994 RMK MADISHF
AGS,2017-04-01 19:50,-81.9645,33.3699,M,M,M,360.00,5.00,M,29.94,M,10.00,M,CLR,M,M,M,M,M,M,M,M,KAGS 011950Z AUTO 36005KT 10SM CLR A2994 RMK VRB05KT  MADISHF
AGS,2017-04-01 19:53,-81.9645,33.3699,82.90,50.00,31.93,M,M,0.00,29.94,1013.70,10.00,M,CLR,M,M,M,M,M,M,M,M,KAGS 011953Z 10SM CLR 28/10 A2994 RMK AO2 SLP137 T02830100
AGS,2017-04-01 19:55,-81.9645,33.3699,M,M,M,M,M,M,29.94,M,10.00,M,CLR,M,M,M,M,M,M,M,M,KAGS 011955Z AUTO /////KT 10SM CLR A2994 RMK MADISHF
AGS,2017-04-01 20:00,-81.9645,33.3699,M,M,M,350.00,3.00,M,29.94,M,10.00,M,CLR,M,M,M,M,M,M,M,M,KAGS 012000Z AUTO 35003KT 10SM CLR A2994 RMK MADISHF
AGS,2017-04-01 20:05,-81.9645,33.3699,M,M,M,300.00,5.00,M,29.94,M,10.00,M,CLR,M,M,M,M,M,M,M,M,KAGS 012005Z AUTO 30005KT 10SM CLR A2994 RMK VRB05KT  MADISHF
AGS,2017-04-01 20:10,-81.9645,33.3699,M,M,M,360.00,8.00,M,29.94,M,10.00,M,CLR,M,M,M,M,M,M,M,M,KAGS 012010Z AUTO 36008KT 10SM CLR A2994 RMK MADISHF
AGS,2017-04-01 20:15,-81.9645,33.3699,M,M,M,330.00,8.00,M,29.94,M,10.00,M,CLR,M,M,M,M,M,M,M,M,KAGS 012015Z AUTO 33008KT 10SM CLR A2994 RMK MADISHF
AGS,2017-04-01 20:20,-81.9645,33.3699,M,M,M,360.00,4.00,M,29.94,M,10.00,M,CLR,M,M,M,M,M,M,M,M,KAGS 012020Z AUTO 36004KT 10SM CLR A2994 RMK VRB04KT  MADISHF
AGS,2017-04-01 20:25,-81.9645,33.3699,M,M,M,360.00,7.00,M,29.94,M,10.00,M,CLR,M,M,M,M,M,M,M,M,KAGS 012025Z AUTO 36007KT 10SM CLR A2994 RMK MADISHF
AGS,2017-04-01 20:30,-81.9645,33.3699,M,M,M,330.00,11.00,M,29.94,M,10.00,M,CLR,M,M,M,M,M,M,M,M,KAGS 012030Z AUTO 33011KT 10SM CLR A2994 RMK MADISHF
AGS,2017-04-01 20:35,-81.9645,33.3699,M,M,M,330.00,7.00,M,29.94,M,10.00,M,CLR,M,M,M,M,M,M,M,M,KAGS 012035Z AUTO 33007KT 10SM CLR A2994 RMK MADISHF
AGS,2017-04-01 20:40,-81.9645,33.3699,M,M,M,350.00,3.00,M,29.93,M,10.00,M,CLR,M,M,M,M,M,M,M,M,KAGS 012040Z AUTO 35003KT 10SM CLR A2993 RMK MADISHF
AGS,2017-04-01 20:45,-81.9645,33.3699,M,M,M,360.00,8.00,M,29.93,M,10.00,M,CLR,M,M,M,M,M,M,M,M,KAGS 012045Z AUTO 36008KT 10SM CLR A2993 RMK MADISHF
AGS,2017-04-01 20:50,-81.9645,33.3699,M,M,M,50.00,7.00,M,29.93,M,10.00,M,CLR,M,M,M,M,M,M,M,M,KAGS 012050Z AUTO 05007KT 10SM CLR A2993 RMK MADISHF
AGS,2017-04-01 20:53,-81.9645,33.3699,82.90,51.10,33.27,70.00,8.00,0.00,29.93,1013.40,10.00,M,CLR,M,M,M,M,M,M,M,M,KAGS 012053Z 07008KT 10SM CLR 28/11 A2993 RMK AO2 SLP134 T02830106 56017
AGS,2017-04-01 20:55,-81.9645,33.3699,M,M,M,50.00,7.00,M,29.93,M,10.00,M,CLR,M,M,M,M,M,M,M,M,KAGS 012055Z AUTO 05007KT 10SM CLR A2993 RMK MADISHF
AGS,2017-04-01 21:00,-81.9645,33.3699,M,M,M,60.00,9.00,M,29.93,M,10.00,M,CLR,M,M,M,M,M,M,M,M,KAGS 012100Z AUTO 06009KT 10SM CLR A2993 RMK MADISHF
AGS,2017-04-01 21:05,-81.9645,33.3699,M,M,M,50.00,8.00,M,29.93,M,10.00,M,CLR,M,M,M,M,M,M,M,M,KAGS 012105Z AUTO 05008KT 10SM CLR A2993 RMK MADISHF
AGS,2017-04-01 21:10,-81.9645,33.3699,M,M,M,30.00,7.00,M,29.93,M,10.00,M,CLR,M,M,M,M,M,M,M,M,KAGS 012110Z AUTO 03007KT 10SM CLR A2993 RMK MADISHF
AGS,2017-04-01 21:15,-81.9645,33.3699,M,M,M,40.00,7.00,M,29.93,M,10.00,M,CLR,M,M,M,M,M,M,M,M,KAGS 012115Z AUTO 04007KT 10SM CLR A2993 RMK MADISHF
AGS,2017-04-01 21:20,-81.9645,33.3699,M,M,M,40.00,7.00,M,29.93,M,10.00,M,CLR,M,M,M,M,M,M,M,M,KAGS 012120Z AUTO 04007KT 10SM CLR A2993 RMK MADISHF
AGS,2017-04-01 21:25,-81.9645,33.3699,M,M,M,40.00,6.00,M,29.93,M,10.00,M,CLR,M,M,M,M,M,M,M,M,KAGS 012125Z AUTO 04006KT 10SM CLR A2993 RMK MADISHF
AGS,2017-04-01 21:30,-81.9645,33.3699,M,M,M,60.00,7.00,M,29.93,M,10.00,M,CLR,M,M,M,M,M,M,M,M,KAGS 012130Z AUTO 06007KT 10SM CLR A2993 RMK MADISHF
AGS,2017-04-01 21:35,-81.9645,33.3699,M,M,M,20.00,6.00,M,29.93,M,10.00,M,CLR,M,M,M,M,M,M,M,M,KAGS 012135Z AUTO 02006KT 10SM CLR A2993 RMK MADISHF
AGS,2017-04-01 21:40,-81.9645,33.3699,M,M,M,40.00,6.00,M,29.93,M,10.00,M,CLR,M,M,M,M,M,M,M,M,KAGS 012140Z AUTO 04006KT 10SM CLR A2993 RMK MADISHF
AGS,2017-04-01 21:45,-81.9645,33.3699,M,M,M,10.00,4.00,M,29.93,M,10.00,M,CLR,M,M,M,M,M,M,M,M,KAGS 012145Z AUTO 01004KT 10SM CLR A2993 RMK MADISHF
AGS,2017-04-01 21:50,-81.9645,33.3699,M,M,M,330.00,5.00,M,29.93,M,10.00,M,CLR,M,M,M,M,M,M,M,M,KAGS 012150Z AUTO 33005KT 10SM CLR A2993 RMK MADISHF
AGS,2017-04-01 21:53,-81.9645,33.3699,84.90,48.90,28.74,320.00,7.00,0.00,29.93,1013.40,10.00,M,CLR,M,M,M,M,M,M,M,M,KAGS 012153Z 32007KT 10SM CLR 29/09 A2993 RMK AO2 SLP134 T02940094
AGS,2017-04-01 21:55,-81.9645,33.3699,M,M,M,320.00,6.00,M,29.93,M,10.00,M,CLR,M,M,M,M,M,M,M,M,KAGS 012155Z AUTO 32006KT 10SM CLR A2993 RMK MADISHF
AGS,2017-04-01 22:00,-81.9645,33.3699,M,M,M,320.00,4.00,M,29.93,M,10.00,M,CLR,M,M,M,M,M,M,M,M,KAGS 012200Z AUTO 32004KT 10SM CLR A2993 RMK VRB04KT  MADISHF
AGS,2017-04-01 22:05,-81.9645,33.3699,M,M,M,340.00,9.00,M,29.94,M,10.00,M,CLR,M,M,M,M,M,M,M,M,KAGS 012205Z AUTO 34009KT 10SM CLR A2994 RMK MADISHF
AGS,2017-04-01 22:10,-81.9645,33.3699,M,M,M,300.00,8.00,M,29.94,M,10.00,M,CLR,M,M,M,M,M,M,M,M,KAGS 012210Z AUTO 30008KT 10SM CLR A2994 RMK MADISHF
AGS,2017-04-01 22:15,-81.9645,33.3699,M,M,M,310.00,6.00,M,29.94,M,10.00,M,CLR,M,M,M,M,M,M,M,M,KAGS 012215Z AUTO 31006KT 10SM CLR A2994 RMK MADISHF
AGS,2017-04-01 22:20,-81.9645,33.3699,M,M,M,330.00,6.00,M,29.94,M,10.00,M,CLR,M,M,M,M,M,M,M,M,KAGS 012220Z AUTO 33006KT 10SM CLR A2994 RMK MADISHF
AGS,2017-04-01 22:25,-81.9645,33.3699,M,M,M,340.00,6.00,M,29.94,M,10.00,M,CLR,M,M,M,M,M,M,M,M,KAGS 012225Z AUTO 34006KT 10SM CLR A2994 RMK MADISHF
AGS,2017-04-01 22:30,-81.9645,33.3699,M,M,M,320.00,3.00,M,29.94,M,10.00,M,CLR,M,M,M,M,M,M,M,M,KAGS 012230Z AUTO 32003KT 10SM CLR A2994 RMK MADISHF
AGS,2017-04-01 22:35,-81.9645,33.3699,M,M,M,50.00,6.00,M,29.94,M,10.00,M,CLR,M,M,M,M,M,M,M,M,KAGS 012235Z AUTO 05006KT 10SM CLR A2994 RMK MADISHF
AGS,2017-04-01 22:40,-81.9645,33.3699,M,M,M,350.00,4.00,M,29.94,M,10.00,M,CLR,M,M,M,M,M,M,M,M,KAGS 012240Z AUTO 35004KT 10SM CLR A2994 RMK VRB04KT  MADISHF
AGS,2017-04-01 22:45,-81.9645,33.3699,M,M,M,20.00,3.00,M,29.95,M,10.00,M,CLR,M,M,M,M,M,M,M,M,KAGS 012245Z AUTO 02003KT 10SM CLR A2995 RMK MADISHF
AGS,2017-04-01 22:50,-81.9645,33.3699,M,M,M,330.00,4.00,M,29.94,M,10.00,M,CLR,M,M,M,M,M,M,M,M,KAGS 012250Z AUTO 33004KT 10SM CLR A2994 RMK VRB04KT  MADISHF
AGS,2017-04-01 22:53,-81.9645,33.3699,82.90,50.00,31.93,M,3.00,0.00,29.95,1013.90,10.00,M,CLR,M,M,M,M,M,M,M,M,KAGS 012253Z VRB03KT 10SM CLR 28/10 A2995 RMK AO2 SLP139 T02830100
AGS,2017-04-01 22:55,-81.9645,33.3699,M,M,M,330.00,6.00,M,29.95,M,10.00,M,CLR,M,M,M,M,M,M,M,M,KAGS 012255Z AUTO 33006KT 10SM CLR A2995 RMK MADISHF
AGS,2017-04-01 23:00,-81.9645,33.3699,M,M,M,50.00,4.00,M,29.94,M,10.00,M,CLR,M,M,M,M,M,M,M,M,KAGS 012300Z AUTO 05004KT 10SM CLR A2994 RMK MADISHF
AGS,2017-04-01 23:05,-81.9645,33.3699,M,M,M,40.00,5.00,M,29.95,M,10.00,M,CLR,M,M,M,M,M,M,M,M,KAGS 012305Z AUTO 04005KT 10SM CLR A2995 RMK MADISHF
AGS,2017-04-01 23:10,-81.9645,33.3699,M,M,M,20.00,5.00,M,29.95,M,10.00,M,CLR,M,M,M,M,M,M,M,M,KAGS 012310Z AUTO 02005KT 10SM CLR A2995 RMK MADISHF
AGS,2017-04-01 23:15,-81.9645,33.3699,M,M,M,10.00,5.00,M,29.95,M,10.00,M,CLR,M,M,M,M,M,M,M,M,KAGS 012315Z AUTO 01005KT 10SM CLR A2995 RMK MADISHF
AGS,2017-04-01 23:20,-81.9645,33.3699,M,M,M,10.00,6.00,M,29.95,M,10.00,M,CLR,M,M,M,M,M,M,M,M,KAGS 012320Z AUTO 01006KT 10SM CLR A2995 RMK MADISHF
AGS,2017-04-01 23:25,-81.9645,33.3699,M,M,M,10.00,5.00,M,29.96,M,10.00,M,CLR,M,M,M,M,M,M,M,M,KAGS 012325Z AUTO 01005KT 10SM CLR A2996 RMK MADISHF
AGS,2017-04-01 23:30,-81.9645,33.3699,M,M,M,10.00,5.00,M,29.96,M,10.00,M,CLR,M,M,M,M,M,M,M,M,KAGS 012330Z AUTO 01005KT 10SM CLR A2996 RMK MADISHF
AGS,2017-04-01 23:35,-81.9645,33.3699,M,M,M,10.00,4.00,M,29.96,M,10.00,M,CLR,M,M,M,M,M,M,M,M,KAGS 012335Z AUTO 01004KT 10SM CLR A2996 RMK MADISHF
AGS,2017-04-01 23:40,-81.9645,33.3699,M,M,M,10.00,4.00,M,29.96,M,10.00,M,CLR,M,M,M,M,M,M,M,M,KAGS 012340Z AUTO 01004KT 10SM CLR A2996 RMK MADISHF
AGS,2017-04-01 23:45,-81.9645,33.3699,M,M,M,10.00,5.00,M,29.96,M,10.00,M,CLR,M,M,M,M,M,M,M,M,KAGS 012345Z AUTO 01005KT 10SM CLR A2996 RMK MADISHF
AGS,2017-04-01 23:50,-81.9645,33.3699,M,M,M,10.00,5.00,M,29.96,M,10.00,M,CLR,M,M,M,M,M,M,M,M,KAGS 012350Z AUTO 01005KT 10SM CLR A2996 RMK MADISHF
AGS,2017-04-01 23:53,-81.9645,33.3699,73.90,52.00,46.27,10.00,5.00,0.00,29.97,1014.60,10.00,M,CLR,M,M,M,M,M,M,M,M,KAGS 012353Z 01005KT 10SM CLR 23/11 A2997 RMK AO2 SLP146 T02330111 10294 20233 53011
AGS,2017-04-01 23:55,-81.9645,33.3699,M,M,M,10.00,5.00,M,29.97,M,10.00,M,CLR,M,M,M,M,M,M,M,M,KAGS 012355Z AUTO 01005KT 10SM CLR A2997 RMK MADISHF
