#DEBUG: Format Typ    -> comma
#DEBUG: Time Period   -> 2017-04-01 00:00:00+00:00 2017-04-02 00:00:00+00:00
#DEBUG: Time Zone     -> Etc/UTC
#DEBUG: Data Contact   -> daryl herzmann akrherz@iastate.edu 515-294-5978
#DEBUG: Entries Found -> -1
station,valid,lon,lat,tmpf, dwpf, relh, drct, sknt, p01i, alti, mslp, vsby, gust, skyc1, skyc2, skyc3, skyc4, skyl1, skyl2, skyl3, skyl4, presentwx, metar
AHN,2017-04-01 00:00,-83.3264,33.9486,M,M,M,280.00,6.00,M,29.83,M,10.00,M,CLR,M,M,M,M,M,M,M,M,KAHN 010000Z AUTO 28006KT 10SM CLR A2983 RMK MADISHF
AHN,2017-04-01 00:05,-83.3264,33.9486,M,M,M,280.00,6.00,M,29.83,M,10.00,M,CLR,M,M,M,M,M,M,M,M,KAHN 010005Z AUTO 28006KT 10SM CLR A2983 RMK MADISHF
AHN,2017-04-01 00:10,-83.3264,33.9486,M,M,M,280.00,5.00,M,29.83,M,10.00,M,CLR,M,M,M,M,M,M,M,M,KAHN 010010Z AUTO 28005KT 10SM CLR A2983 RMK MADISHF
AHN,2017-04-01 00:15,-83.3264,33.9486,M,M,M,280.00,4.00,M,29.83,M,10.00,M,CLR,M,M,M,M,M,M,M,M,KAHN 010015Z AUTO 28004KT 10SM CLR A2983 RMK MADISHF
AHN,2017-04-01 00:20,-83.3264,33.9486,M,M,M,290.00,5.00,M,29.83,M,10.00,M,CLR,M,M,M,M,M,M,M,M,KAHN 010020Z AUTO 29005KT 10SM CLR A2983 RMK MADISHF
AHN,2017-04-01 00:25,-83.3264,33.9486,M,M,M,290.00,5.00,M,29.83,M,10.00,M,CLR,M,M,M,M,M,M,M,M,KAHN 010025Z AUTO 29005KT 10SM CLR A2983 RMK MADISHF
AHN,2017-04-01 00:30,-83.3264,33.9486,M,M,M,280.00,5.00,M,29.84,M,10.00,M,CLR,M,M,M,M,M,M,M,M,KAHN 010030Z AUTO 28005KT 10SM CLR A2984 RMK MADISHF
AHN,2017-04-01 00:35,-83.3264,33.9486,M,M,M,290.00,4.00,M,29.84,M,10.00,M,CLR,M,M,M,M,M,M,M,M,KAHN 010035Z AUTO 29004KT 10SM CLR A2984 RMK MADISHF
AHN,2017-04-01 00:40,-83.3264,33.9486,M,M,M,290.00,4.00,M,29.84,M,10.00,M,CLR,M,M,M,M,M,M,M,M,KAHN 010040Z AUTO 29004KT 10SM CLR A2984 RMK MADISHF
AHN,2017-04-01 00:45,-83.3264,33.9486,M,M,M,280.00,4.00,M,29.84,M,10.00,M,CLR,M,M,M,M,M,M,M,M,KAHN 010045Z AUTO 28004KT 10SM CLR A2984 RMK MADISHF
AHN,2017-04-01 00:50,-83.3264,33.9486,M,M,M,280.00,3.00,M,29.85,M,10.00,M,CLR,M,M,M,M,M,M,M,M,KAHN 010050Z AUTO 28003KT 10SM CLR A2985 RMK MADISHF
AHN,2017-04-01 00:51,-83.3264,33.9486,63.00,45.00,51.78,280.00,4.00,0.00,29.85,1010.30,10.00,M,CLR,M,M,M,M,M,M,M,M,KAHN 010051Z AUTO 28004KT 10SM CLR 17/07 A2985 RMK AO2 SLP103 T01720072
AHN,2017-04-01 00:55,-83.3264,33.9486,M,M,M,290.00,6.00,M,29.85,M,10.00,M,CLR,M,M,M,M,M,M,M,M,KAHN 010055Z AUTO 29006KT 10SM CLR A2985 RMK MADISHF
AHN,2017-04-01 01:00,-83.3264,33.9486,M,M,M,290.00,5.00,M,29.85,M,10.00,M,CLR,M,M,M,M,M,M,M,M,KAHN 010100Z AUTO 29005KT 10SM CLR A2985 RMK MADISHF
AHN,2017-04-01 01:05,-83.3264,33.9486,M,M,M,290.00,5.00,M,29.86,M,10.00,M,CLR,M,M,M,M,M,M,M,M,KAHN 010105Z AUTO 29005KT 10SM CLR A2986 RMK MADISHF
AHN,2017-04-01 01:10,-83.3264,33.9486,M,M,M,290.00,5.00,M,29.86,M,10.00,M,CLR,M,M,M,M,M,M,M,M,KAHN 010110Z AUTO 29005KT 10SM CLR A2986 RMK MADISHF
AHN,2017-04-01 01:15,-83.3264,33.9486,M,M,M,300.00,6.00,M,29.86,M,10.00,M,CLR,M,M,M,M,M,M,M,M,KAHN 010115Z AUTO 30006KT 10SM CLR A2986 RMK MADISHF
AHN,2017-04-01 01:20,-83.3264,33.9486,M,M,M,300.00,7.00,M,29.86,M,10.00,M,CLR,M,M,M,M,M,M,M,M,KAHN 010120Z AUTO 30007KT 10SM CLR A2986 RMK MADISHF
AHN,2017-04-01 01:25,-83.3264,33.9486,M,M,M,300.00,6.00,M,29.87,M,10.00,M,CLR,M,M,M,M,M,M,M,M,KAHN 010125Z AUTO 30006KT 10SM CLR A2987 RMK MADISHF
AHN,2017-04-01 01:30,-83.3264,33.9486,M,M,M,290.00,6.00,M,29.87,M,10.00,M,CLR,M,M,M,M,M,M,M,M,KAHN 010130Z AUTO 29006KT 10SM CLR A2987 RMK MADISHF
AHN,2017-04-01 01:35,-83.3264,33.9486,M,M,M,300.00,7.00,M,29.87,M,10.00,M,CLR,M,M,M,M,M,M,M,M,KAHN 010135Z AUTO 30007KT 10SM CLR A2987 RMK MADISHF
AHN,2017-04-01 01:40,-83.3264,33.9486,M,M,M,300.00,7.00,M,29.88,M,10.00,M,CLR,M,M,M,M,M,M,M,M,KAHN 010140Z AUTO 30007KT 10SM CLR A2988 RMK MADISHF
AHN,2017-04-01 01:45,-83.3264,33.9486,M,M,M,290.00,6.00,M,29.88,M,10.00,M,CLR,M,M,M,M,M,M,M,M,KAHN 010145Z AUTO 29006KT 10SM CLR A2988 RMK MADISHF
AHN,2017-04-01 01:50,-83.3264,33.9486,M,M,M,290.00,5.00,M,29.88,M,10.00,M,CLR,M,M,M,M,M,M,M,M,KAHN 010150Z AUTO 29005KT 10SM CLR A2988 RMK VRB05KT  MADISHF
AHN,2017-04-01 01:51,-83.3264,33.9486,62.10,45.00,53.45,M,5.00,0.00,29.88,1011.50,10.00,M,CLR,M,M,M,M,M,M,M,M,KAHN 010151Z AUTO VRB05KT 10SM CLR 17/07 A2988 RMK AO2 SLP115 T01670072 $
AHN,2017-04-01 01:55,-83.3264,33.9486,M,M,M,290.00,6.00,M,29.88,M,10.00,M,CLR,M,M,M,M,M,M,M,M,KAHN 010155Z AUTO 29006KT 10SM CLR A2988 RMK MADISHF
AHN,2017-04-01 02:00,-83.3264,33.9486,M,M,M,290.00,6.00,M,29.88,M,10.00,M,CLR,M,M,M,M,M,M,M,M,KAHN 010200Z AUTO 29006KT 10SM CLR A2988 RMK VRB06KT  MADISHF
AHN,2017-04-01 02:05,-83.3264,33.9486,M,M,M,290.00,7.00,M,29.89,M,10.00,M,CLR,M,M,M,M,M,M,M,M,KAHN 010205Z AUTO 29007KT 10SM CLR A2989 RMK MADISHF
AHN,2017-04-01 02:10,-83.3264,33.9486,M,M,M,300.00,8.00,M,29.89,M,10.00,M,CLR,M,M,M,M,M,M,M,M,KAHN 010210Z AUTO 30008KT 10SM CLR A2989 RMK MADISHF
AHN,2017-04-01 02:15,-83.3264,33.9486,M,M,M,290.00,7.00,M,29.89,M,10.00,M,CLR,M,M,M,M,M,M,M,M,KAHN 010215Z AUTO 29007KT 10SM CLR A2989 RMK MADISHF
AHN,2017-04-01 02:20,-83.3264,33.9486,M,M,M,280.00,5.00,M,29.89,M,10.00,M,CLR,M,M,M,M,M,M,M,M,KAHN 010220Z AUTO 28005KT 10SM CLR A2989 RMK MADISHF
AHN,2017-04-01 02:25,-83.3264,33.9486,M,M,M,280.00,5.00,M,29.90,M,10.00,M,CLR,M,M,M,M,M,M,M,M,KAHN 010225Z AUTO 28005KT 10SM CLR A2990 RMK MADISHF
AHN,2017-04-01 02:30,-83.3264,33.9486,M,M,M,280.00,3.00,M,29.90,M,10.00,M,CLR,M,M,M,M,M,M,M,M,KAHN 010230Z AUTO 28003KT 10SM CLR A2990 RMK MADISHF
AHN,2017-04-01 02:35,-83.3264,33.9486,M,M,M,280.00,4.00,M,29.90,M,10.00,M,CLR,M,M,M,M,M,M,M,M,KAHN 010235Z AUTO 28004KT 10SM CLR A2990 RMK MADISHF
AHN,2017-04-01 02:40,-83.3264,33.9486,M,M,M,280.00,4.00,M,29.90,M,10.00,M,CLR,M,M,M,M,M,M,M,M,KAHN 010240Z AUTO 28004KT 10SM CLR A2990 RMK MADISHF
AHN,2017-04-01 02:45,-83.3264,33.9486,M,M,M,280.00,4.00,M,29.90,M,10.00,M,CLR,M,M,M,M,M,M,M,M,KAHN 010245Z AUTO 28004KT 10SM CLR A2990 RMK MADISHF
AHN,2017-04-01 02:50,-83.3264,33.9486,M,M,M,270.00,4.00,M,29.90,M,10.00,M,CLR,M,M,M,M,M,M,M,M,KAHN 010250Z AUTO 27004KT 10SM CLR A2990 RMK MADISHF
AHN,2017-04-01 02:51,-83.3264,33.9486,60.10,46.00,59.59,280.00,4.00,0.00,29.90,1012.20,10.00,M,CLR,M,M,M,M,M,M,M,M,KAHN 010251Z AUTO 28004KT 10SM CLR 16/08 A2990 RMK AO2 SLP122 T01560078 51026 $
AHN,2017-04-01 02:55,-83.3264,33.9486,M,M,M,280.00,4.00,M,29.90,M,10.00,M,CLR,M,M,M,M,M,M,M,M,KAHN 010255Z AUTO 28004KT 10SM CLR A2990 RMK MADISHF
AHN,2017-04-01 03:00,-83.3264,33.9486,M,M,M,270.00,5.00,M,29.90,M,10.00,M,CLR,M,M,M,M,M,M,M,M,KAHN 010300Z AUTO 27005KT 10SM CLR A2990 RMK MADISHF
AHN,2017-04-01 03:05,-83.3264,33.9486,M,M,M,280.00,5.00,M,29.90,M,10.00,M,CLR,M,M,M,M,M,M,M,M,KAHN 010305Z AUTO 28005KT 10SM CLR A2990 RMK MADISHF
AHN,2017-04-01 03:10,-83.3264,33.9486,M,M,M,270.00,4.00,M,29.90,M,10.00,M,CLR,M,M,M,M,M,M,M,M,KAHN 010310Z AUTO 27004KT 10SM CLR A2990 RMK MADISHF
AHN,2017-04-01 03:15,-83.3264,33.9486,M,M,M,280.00,4.00,M,29.90,M,10.00,M,CLR,M,M,M,M,M,M,M,M,KAHN 010315Z AUTO 28004KT 10SM CLR A2990 RMK MADISHF
AHN,2017-04-01 03:20,-83.3264,33.9486,M,M,M,270.00,3.00,M,29.90,M,10.00,M,CLR,M,M,M,M,M,M,M,M,KAHN 010320Z AUTO 27003KT 10SM CLR A2990 RMK MADISHF
AHN,2017-04-01 03:25,-83.3264,33.9486,M,M,M,270.00,3.00,M,29.90,M,10.00,M,CLR,M,M,M,M,M,M,M,M,KAHN 010325Z AUTO 27003KT 10SM CLR A2990 RMK MADISHF
AHN,2017-04-01 03:30,-83.3264,33.9486,M,M,M,260.00,4.00,M,29.90,M,10.00,M,CLR,M,M,M,M,M,M,M,M,KAHN 010330Z AUTO 26004KT 10SM CLR A2990 RMK MADISHF
AHN,2017-04-01 03:35,-83.3264,33.9486,M,M,M,270.00,3.00,M,29.90,M,10.00,M,CLR,M,M,M,M,M,M,M,M,KAHN 010335Z AUTO 27003KT 10SM CLR A2990 RMK MADISHF
AHN,2017-04-01 03:40,-83.3264,33.9486,M,M,M,270.00,4.00,M,29.91,M,10.00,M,CLR,M,M,M,M,M,M,M,M,KAHN 010340Z AUTO 27004KT 10SM CLR A2991 RMK MADISHF
AHN,2017-04-01 03:45,-83.3264,33.9486,M,M,M,270.00,4.00,M,29.91,M,10.00,M,CLR,M,M,M,M,M,M,M,M,KAHN 010345Z AUTO 27004KT 10SM CLR A2991 RMK MADISHF
AHN,2017-04-01 03:50,-83.3264,33.9486,M,M,M,270.00,3.00,M,29.91,M,10.00,M,CLR,M,M,M,M,M,M,M,M,KAHN 010350Z AUTO 27003KT 10SM CLR A2991 RMK MADISHF
AHN,2017-04-01 03:51,-83.3264,33.9486,59.00,46.00,61.98,270.00,4.00,0.00,29.91,1012.40,10.00,M,CLR,M,M,M,M,M,M,M,M,KAHN 010351Z AUTO 27004KT 10SM CLR 15/08 A2991 RMK AO2 SLP124 T01500078 $
AHN,2017-04-01 03:55,-83.3264,33.9486,M,M,M,270.00,4.00,M,29.91,M,10.00,M,CLR,M,M,M,M,M,M,M,M,KAHN 010355Z AUTO 27004KT 10SM CLR A2991 RMK VRB04KT  MADISHF
AHN,2017-04-01 04:00,-83.3264,33.9486,M,M,M,270.00,4.00,M,29.91,M,10.00,M,CLR,M,M,M,M,M,M,M,M,KAHN 010400Z AUTO 27004KT 10SM CLR A2991 RMK MADISHF
AHN,2017-04-01 04:05,-83.3264,33.9486,M,M,M,270.00,4.00,M,29.91,M,10.00,M,CLR,M,M,M,M,M,M,M,M,KAHN 010405Z AUTO 27004KT 10SM CLR A2991 RMK MADISHF
AHN,2017-04-01 04:10,-83.3264,33.9486,M,M,M,270.00,5.00,M,29.91,M,10.00,M,CLR,M,M,M,M,M,M,M,M,KAHN 010410Z AUTO 27005KT 10SM CLR A2991 RMK MADISHF
AHN,2017-04-01 04:15,-83.3264,33.9486,M,M,M,270.00,5.00,M,29.91,M,10.00,M,CLR,M,M,M,M,M,M,M,M,KAHN 010415Z AUTO 27005KT 10SM CLR A2991 RMK MADISHF
AHN,2017-04-01 04:20,-83.3264,33.9486,M,M,M,270.00,4.00,M,29.91,M,10.00,M,CLR,M,M,M,M,M,M,M,M,KAHN 010420Z AUTO 27004KT 10SM CLR A2991 RMK MADISHF
AHN,2017-04-01 04:25,-83.3264,33.9486,M,M,M,280.00,5.00,M,29.91,M,10.00,M,CLR,M,M,M,M,M,M,M,M,KAHN 010425Z AUTO 28005KT 10SM CLR A2991 RMK MADISHF
AHN,2017-04-01 04:30,-83.3264,33.9486,M,M,M,270.00,4.00,M,29.91,M,10.00,M,CLR,M,M,M,M,M,M,M,M,KAHN 010430Z AUTO 27004KT 10SM CLR A2991 RMK MADISHF
AHN,2017-04-01 04:35,-83.3264,33.9486,M,M,M,280.00,4.00,M,29.91,M,10.00,M,CLR,M,M,M,M,M,M,M,M,KAHN 010435Z AUTO 28004KT 10SM CLR A2991 RMK MADISHF
AHN,2017-04-01 04:40,-83.3264,33.9486,M,M,M,280.00,4.00,M,29.91,M,10.00,M,CLR,M,M,M,M,M,M,M,M,KAHN 010440Z AUTO 28004KT 10SM CLR A2991 RMK MADISHF
AHN,2017-04-01 04:45,-83.3264,33.9486,M,M,M,270.00,4.00,M,29.92,M,10.00,M,CLR,M,M,M,M,M,M,M,M,KAHN 010445Z AUTO 27004KT 10SM CLR A2992 RMK MADISHF
AHN,2017-04-01 04:50,-83.3264,33.9486,M,M,M,270.00,4.00,M,29.92,M,10.00,M,CLR,M,M,M,M,M,M,M,M,KAHN 010450Z AUTO 27004KT 10SM CLR A2992 RMK MADISHF
AHN,2017-04-01 04:51,-83.3264,33.9486,57.90,46.00,64.47,280.00,4.00,0.00,29.92,1012.80,10.00,M,CLR,M,M,M,M,M,M,M,M,KAHN 010451Z AUTO 28004KT 10SM CLR 14/08 A2992 RMK AO2 SLP128 T01440078 402390144 $
AHN,2017-04-01 04:55,-83.3264,33.9486,M,M,M,260.00,3.00,M,29.92,M,10.00,M,CLR,M,M,M,M,M,M,M,M,KAHN 010455Z AUTO 26003KT 10SM CLR A2992 RMK MADISHF
AHN,2017-04-01 05:00,-83.3264,33.9486,M,M,M,260.00,3.00,M,29.92,M,10.00,M,CLR,M,M,M,M,M,M,M,M,KAHN 010500Z AUTO 26003KT 10SM CLR A2992 RMK MADISHF
AHN,2017-04-01 05:05,-83.3264,33.9486,M,M,M,0.00,0.00,M,29.92,M,10.00,M,CLR,M,M,M,M,M,M,M,M,KAHN 010505Z AUTO 00000KT 10SM CLR A2992 RMK MADISHF
AHN,2017-04-01 05:10,-83.3264,33.9486,M,M,M,0.00,0.00,M,29.92,M,10.00,M,CLR,M,M,M,M,M,M,M,M,KAHN 010510Z AUTO 00000KT 10SM CLR A2992 RMK MADISHF
AHN,2017-04-01 05:15,-83.3264,33.9486,M,M,M,0.00,0.00,M,29.92,M,10.00,M,CLR,M,M,M,M,M,M,M,M,KAHN 010515Z AUTO 00000KT 10SM CLR A2992 RMK MADISHF
AHN,2017-04-01 05:20,-83.3264,33.9486,M,M,M,0.00,0.00,M,29.93,M,10.00,M,CLR,M,M,M,M,M,M,M,M,KAHN 010520Z AUTO 00000KT 10SM CLR A2993 RMK MADISHF
AHN,2017-04-01 05:25,-83.3264,33.9486,M,M,M,0.00,0.00,M,29.93,M,10.00,M,CLR,M,M,M,M,M,M,M,M,KAHN 010525Z AUTO 00000KT 10SM CLR A2993 RMK MADISHF
AHN,2017-04-01 05:30,-83.3264,33.9486,M,M,M,0.00,0.00,M,29.93,M,10.00,M,CLR,M,M,M,M,M,M,M,M,KAHN 010530Z AUTO 00000KT 10SM CLR A2993 RMK MADISHF
AHN,2017-04-01 05:35,-83.3264,33.9486,M,M,M,0.00,0.00,M,29.93,M,10.00,M,CLR,M,M,M,M,M,M,M,M,KAHN 010535Z AUTO 00000KT 10SM CLR A2993 RMK MADISHF
AHN,2017-04-01 05:40,-83.3264,33.9486,M,M,M,0.00,0.00,M,29.93,M,10.00,M,CLR,M,M,M,M,M,M,M,M,KAHN 010540Z AUTO 00000KT 10SM CLR A2993 RMK MADISHF
AHN,2017-04-01 05:45,-83.3264,33.9486,M,M,M,260.00,3.00,M,29.93,M,10.00,M,CLR,M,M,M,M,M,M,M,M,KAHN 010545Z AUTO 26003KT 10SM CLR A2993 RMK MADISHF
AHN,2017-04-01 05:50,-83.3264,33.9486,M,M,M,280.00,3.00,M,29.93,M,10.00,M,CLR,M,M,M,M,M,M,M,M,KAHN 010550Z AUTO 28003KT 10SM CLR A2993 RMK MADISHF
AHN,2017-04-01 05:51,-83.3264,33.9486,55.90,46.00,69.30,280.00,3.00,0.00,29.93,1013.10,10.00,M,CLR,M,M,M,M,M,M,M,M,KAHN 010551Z AUTO 28003KT 10SM CLR 13/08 A2993 RMK AO2 SLP131 T01330078 10194 20133 53009 $
AHN,2017-04-01 05:55,-83.3264,33.9486,M,M,M,280.00,3.00,M,29.93,M,10.00,M,CLR,M,M,M,M,M,M,M,M,KAHN 010555Z AUTO 28003KT 10SM CLR A2993 RMK MADISHF
AHN,2017-04-01 06:00,-83.3264,33.9486,M,M,M,270.00,3.00,M,29.93,M,10.00,M,CLR,M,M,M,M,M,M,M,M,KAHN 010600Z AUTO 27003KT 10SM CLR A2993 RMK MADISHF
AHN,2017-04-01 06:05,-83.3264,33.9486,M,M,M,260.00,4.00,M,29.93,M,10.00,M,CLR,M,M,M,M,M,M,M,M,KAHN 010605Z AUTO 26004KT 10SM CLR A2993 RMK MADISHF
AHN,2017-04-01 06:10,-83.3264,33.9486,M,M,M,260.00,4.00,M,29.93,M,10.00,M,CLR,M,M,M,M,M,M,M,M,KAHN 010610Z AUTO 26004KT 10SM CLR A2993 RMK MADISHF
AHN,2017-04-01 06:15,-83.3264,33.9486,M,M,M,260.00,4.00,M,29.92,M,10.00,M,CLR,M,M,M,M,M,M,M,M,KAHN 010615Z AUTO 26004KT 10SM CLR A2992 RMK MADISHF
AHN,2017-04-01 06:20,-83.3264,33.9486,M,M,M,260.00,3.00,M,29.93,M,10.00,M,CLR,M,M,M,M,M,M,M,M,KAHN 010620Z AUTO 26003KT 10SM CLR A2993 RMK MADISHF
AHN,2017-04-01 06:25,-83.3264,33.9486,M,M,M,260.00,3.00,M,29.93,M,10.00,M,CLR,M,M,M,M,M,M,M,M,KAHN 010625Z AUTO 26003KT 10SM CLR A2993 RMK MADISHF
AHN,2017-04-01 06:30,-83.3264,33.9486,M,M,M,250.00,4.00,M,29.93,M,10.00,M,CLR,M,M,M,M,M,M,M,M,KAHN 010630Z AUTO 25004KT 10SM CLR A2993 RMK MADISHF
AHN,2017-04-01 06:35,-83.3264,33.9486,M,M,M,260.00,4.00,M,29.93,M,10.00,M,CLR,M,M,M,M,M,M,M,M,KAHN 010635Z AUTO 26004KT 10SM CLR A2993 RMK VRB04KT  MADISHF
AHN,2017-04-01 06:40,-83.3264,33.9486,M,M,M,270.00,4.00,M,29.93,M,10.00,M,CLR,M,M,M,M,M,M,M,M,KAHN 010640Z AUTO 27004KT 10SM CLR A2993 RMK MADISHF
AHN,2017-04-01 06:45,-83.3264,33.9486,M,M,M,270.00,3.00,M,29.93,M,10.00,M,CLR,M,M,M,M,M,M,M,M,KAHN 010645Z AUTO 27003KT 10SM CLR A2993 RMK MADISHF
AHN,2017-04-01 06:50,-83.3264,33.9486,M,M,M,270.00,4.00,M,29.93,M,10.00,M,CLR,M,M,M,M,M,M,M,M,KAHN 010650Z AUTO 27004KT 10SM CLR A2993 RMK MADISHF
AHN,2017-04-01 06:51,-83.3264,33.9486,55.00,46.90,74.08,280.00,4.00,0.00,29.93,1013.20,10.00,M,CLR,M,M,M,M,M,M,M,M,KAHN 010651Z AUTO 28004KT 10SM CLR 13/08 A2993 RMK AO2 SLP132 T01280083 $
AHN,2017-04-01 06:55,-83.3264,33.9486,M,M,M,280.00,4.00,M,29.93,M,10.00,M,CLR,M,M,M,M,M,M,M,M,KAHN 010655Z AUTO 28004KT 10SM CLR A2993 RMK MADISHF
AHN,2017-04-01 07:00,-83.3264,33.9486,M,M,M,270.00,3.00,M,29.93,M,10.00,M,CLR,M,M,M,M,M,M,M,M,KAHN 010700Z AUTO 27003KT 10SM CLR A2993 RMK MADISHF
AHN,2017-04-01 07:05,-83.3264,33.9486,M,M,M,270.00,3.00,M,29.93,M,10.00,M,CLR,M,M,M,M,M,M,M,M,KAHN 010705Z AUTO 27003KT 10SM CLR A2993 RMK MADISHF
AHN,2017-04-01 07:10,-83.3264,33.9486,M,M,M,280.00,4.00,M,29.93,M,10.00,M,CLR,M,M,M,M,M,M,M,M,KAHN 010710Z AUTO 28004KT 10SM CLR A2993 RMK MADISHF
AHN,2017-04-01 07:15,-83.3264,33.9486,M,M,M,280.00,4.00,M,29.93,M,10.00,M,CLR,M,M,M,M,M,M,M,M,KAHN 010715Z AUTO 28004KT 10SM CLR A2993 RMK MADISHF
AHN,2017-04-01 07:20,-83.3264,33.9486,M,M,M,280.00,4.00,M,29.93,M,10.00,M,CLR,M,M,M,M,M,M,M,M,KAHN 010720Z AUTO 28004KT 10SM CLR A2993 RMK MADISHF
AHN,2017-04-01 07:25,-83.3264,33.9486,M,M,M,280.00,3.00,M,29.93,M,10.00,M,CLR,M,M,M,M,M,M,M,M,KAHN 010725Z AUTO 28003KT 10SM CLR A2993 RMK MADISHF
AHN,2017-04-01 07:30,-83.3264,33.9486,M,M,M,280.00,4.00,M,29.93,M,10.00,M,CLR,M,M,M,M,M,M,M,M,KAHN 010730Z AUTO 28004KT 10SM CLR A2993 RMK MADISHF
AHN,2017-04-01 07:35,-83.3264,33.9486,M,M,M,280.00,3.00,M,29.93,M,10.00,M,CLR,M,M,M,M,M,M,M,M,KAHN 010735Z AUTO 28003KT 10SM CLR A2993 RMK MADISHF
AHN,2017-04-01 07:40,-83.3264,33.9486,M,M,M,280.00,4.00,M,29.93,M,10.00,M,CLR,M,M,M,M,M,M,M,M,KAHN 010740Z AUTO 28004KT 10SM CLR A2993 RMK MADISHF
AHN,2017-04-01 07:45,-83.3264,33.9486,M,M,M,280.00,3.00,M,29.93,M,10.00,M,CLR,M,M,M,M,M,M,M,M,KAHN 010745Z AUTO 28003KT 10SM CLR A2993 RMK MADISHF
AHN,2017-04-01 07:50,-83.3264,33.9486,M,M,M,280.00,3.00,M,29.93,M,10.00,M,CLR,M,M,M,M,M,M,M,M,KAHN 010750Z AUTO 28003KT 10SM CLR A2993 RMK MADISHF
AHN,2017-04-01 07:51,-83.3264,33.9486,54.00,46.00,74.26,280.00,3.00,0.00,29.93,1013.30,10.00,M,CLR,M,M,M,M,M,M,M,M,KAHN 010751Z AUTO 28003KT 10SM CLR 12/08 A2993 RMK AO2 SLP133 T01220078 $
AHN,2017-04-01 07:55,-83.3264,33.9486,M,M,M,280.00,3.00,M,29.93,M,10.00,M,CLR,M,M,M,M,M,M,M,M,KAHN 010755Z AUTO 28003KT 10SM CLR A2993 RMK MADISHF
AHN,2017-04-01 08:00,-83.3264,33.9486,M,M,M,280.00,3.00,M,29.94,M,10.00,M,CLR,M,M,M,M,M,M,M,M,KAHN 010800Z AUTO 28003KT 10SM CLR A2994 RMK VRB03KT  MADISHF
AHN,2017-04-01 08:05,-83.3264,33.9486,M,M,M,280.00,4.00,M,29.94,M,10.00,M,CLR,M,M,M,M,M,M,M,M,KAHN 010805Z AUTO 28004KT 10SM CLR A2994 RMK MADISHF
AHN,2017-04-01 08:10,-83.3264,33.9486,M,M,M,290.00,4.00,M,29.94,M,10.00,M,CLR,M,M,M,M,M,M,M,M,KAHN 010810Z AUTO 29004KT 10SM CLR A2994 RMK MADISHF
AHN,2017-04-01 08:15,-83.3264,33.9486,M,M,M,0.00,0.00,M,29.94,M,10.00,M,CLR,M,M,M,M,M,M,M,M,KAHN 010815Z AUTO 00000KT 10SM CLR A2994 RMK MADISHF
AHN,2017-04-01 08:20,-83.3264,33.9486,M,M,M,300.00,3.00,M,29.94,M,10.00,M,CLR,M,M,M,M,M,M,M,M,KAHN 010820Z AUTO 30003KT 10SM CLR A2994 RMK MADISHF
AHN,2017-04-01 08:25,-83.3264,33.9486,M,M,M,300.00,3.00,M,29.94,M,10.00,M,CLR,M,M,M,M,M,M,M,M,KAHN 010825Z AUTO 30003KT 10SM CLR A2994 RMK MADISHF
AHN,2017-04-01 08:30,-83.3264,33.9486,M,M,M,300.00,3.00,M,29.94,M,10.00,M,CLR,M,M,M,M,M,M,M,M,KAHN 010830Z AUTO 30003KT 10SM CLR A2994 RMK VRB03KT  MADISHF
AHN,2017-04-01 08:35,-83.3264,33.9486,M,M,M,0.00,0.00,M,29.94,M,10.00,M,CLR,M,M,M,M,M,M,M,M,KAHN 010835Z AUTO 00000KT 10SM CLR A2994 RMK MADISHF
AHN,2017-04-01 08:40,-83.3264,33.9486,M,M,M,0.00,0.00,M,29.94,M,10.00,M,CLR,M,M,M,M,M,M,M,M,KAHN 010840Z AUTO 00000KT 10SM CLR A2994 RMK MADISHF
AHN,2017-04-01 08:45,-83.3264,33.9486,M,M,M,0.00,0.00,M,29.94,M,10.00,M,CLR,M,M,M,M,M,M,M,M,KAHN 010845Z AUTO 00000KT 10SM CLR A2994 RMK MADISHF
AHN,2017-04-01 08:50,-83.3264,33.9486,M,M,M,0.00,0.00,M,29.95,M,10.00,M,CLR,M,M,M,M,M,M,M,M,KAHN 010850Z AUTO 00000KT 10SM CLR A2995 RMK MADISHF
AHN,2017-04-01 08:51,-83.3264,33.9486,52.00,46.00,79.92,0.00,0.00,0.00,29.95,1013.70,10.00,M,CLR,M,M,M,M,M,M,M,M,KAHN 010851Z AUTO 00000KT 10SM CLR 11/08 A2995 RMK AO2 SLP137 T01110078 53006 $
AHN,2017-04-01 08:55,-83.3264,33.9486,M,M,M,0.00,0.00,M,29.95,M,10.00,M,CLR,M,M,M,M,M,M,M,M,KAHN 010855Z AUTO 00000KT 10SM CLR A2995 RMK MADISHF
AHN,2017-04-01 09:00,-83.3264,33.9486,M,M,M,0.00,0.00,M,29.95,M,10.00,M,CLR,M,M,M,M,M,M,M,M,KAHN 010900Z AUTO 00000KT 10SM CLR A2995 RMK MADISHF
AHN,2017-04-01 09:05,-83.3264,33.9486,M,M,M,0.00,0.00,M,29.95,M,10.00,M,CLR,M,M,M,M,M,M,M,M,KAHN 010905Z AUTO 00000KT 10SM CLR A2995 RMK MADISHF
AHN,2017-04-01 09:10,-83.3264,33.9486,M,M,M,0.00,0.00,M,29.95,M,10.00,M,CLR,M,M,M,M,M,M,M,M,KAHN 010910Z AUTO 00000KT 10SM CLR A2995 RMK MADISHF
AHN,2017-04-01 09:15,-83.3264,33.9486,M,M,M,0.00,0.00,M,29.95,M,10.00,M,CLR,M,M,M,M,M,M,M,M,KAHN 010915Z AUTO 00000KT 10SM CLR A2995 RMK MADISHF
AHN,2017-04-01 09:20,-83.3264,33.9486,M,M,M,0.00,0.00,M,29.95,M,10.00,M,CLR,M,M,M,M,M,M,M,M,KAHN 010920Z AUTO 00000KT 10SM CLR A2995 RMK MADISHF
AHN,2017-04-01 09:25,-83.3264,33.9486,M,M,M,0.00,0.00,M,29.95,M,10.00,M,CLR,M,M,M,M,M,M,M,M,KAHN 010925Z AUTO 00000KT 10SM CLR A2995 RMK MADISHF
AHN,2017-04-01 09:30,-83.3264,33.9486,M,M,M,0.00,0.00,M,29.96,M,10.00,M,CLR,M,M,M,M,M,M,M,M,KAHN 010930Z AUTO 00000KT 10SM CLR A2996 RMK MADISHF
AHN,2017-04-01 09:35,-83.3264,33.9486,M,M,M,0.00,0.00,M,29.96,M,10.00,M,CLR,M,M,M,M,M,M,M,M,KAHN 010935Z AUTO 00000KT 10SM CLR A2996 RMK MADISHF
AHN,2017-04-01 09:40,-83.3264,33.9486,M,M,M,0.00,0.00,M,29.96,M,10.00,M,CLR,M,M,M,M,M,M,M,M,KAHN 010940Z AUTO 00000KT 10SM CLR A2996 RMK MADISHF
AHN,2017-04-01 09:45,-83.3264,33.9486,M,M,M,0.00,0.00,M,29.96,M,10.00,M,CLR,M,M,M,M,M,M,M,M,KAHN 010945Z AUTO 00000KT 10SM CLR A2996 RMK MADISHF
AHN,2017-04-01 09:50,-83.3264,33.9486,M,M,M,0.00,0.00,M,29.96,M,10.00,M,CLR,M,M,M,M,M,M,M,M,KAHN 010950Z AUTO 00000KT 10SM CLR A2996 RMK MADISHF
AHN,2017-04-01 09:51,-83.3264,33.9486,51.10,46.00,82.62,0.00,0.00,0.00,29.96,1014.30,10.00,M,CLR,M,M,M,M,M,M,M,M,KAHN 010951Z AUTO 00000KT 10SM CLR 11/08 A2996 RMK AO2 SLP143 T01060078 $
AHN,2017-04-01 09:55,-83.3264,33.9486,M,M,M,0.00,0.00,M,29.96,M,10.00,M,CLR,M,M,M,M,M,M,M,M,KAHN 010955Z AUTO 00000KT 10SM CLR A2996 RMK MADISHF
AHN,2017-04-01 10:00,-83.3264,33.9486,M,M,M,250.00,3.00,M,29.96,M,10.00,M,CLR,M,M,M,M,M,M,M,M,KAHN 011000Z AUTO 25003KT 10SM CLR A2996 RMK MADISHF
AHN,2017-04-01 10:05,-83.3264,33.9486,M,M,M,260.00,3.00,M,29.96,M,10.00,M,CLR,M,M,M,M,M,M,M,M,KAHN 011005Z AUTO 26003KT 10SM CLR A2996 RMK MADISHF
AHN,2017-04-01 10:10,-83.3264,33.9486,M,M,M,0.00,0.00,M,29.96,M,10.00,M,CLR,M,M,M,M,M,M,M,M,KAHN 011010Z AUTO 00000KT 10SM CLR A2996 RMK MADISHF
AHN,2017-04-01 10:15,-83.3264,33.9486,M,M,M,280.00,3.00,M,29.96,M,10.00,M,CLR,M,M,M,M,M,M,M,M,KAHN 011015Z AUTO 28003KT 10SM CLR A2996 RMK MADISHF
AHN,2017-04-01 10:20,-83.3264,33.9486,M,M,M,0.00,0.00,M,29.96,M,10.00,M,CLR,M,M,M,M,M,M,M,M,KAHN 011020Z AUTO 00000KT 10SM CLR A2996 RMK MADISHF
AHN,2017-04-01 10:25,-83.3264,33.9486,M,M,M,0.00,0.00,M,29.96,M,10.00,M,CLR,M,M,M,M,M,M,M,M,KAHN 011025Z AUTO 00000KT 10SM CLR A2996 RMK MADISHF
AHN,2017-04-01 10:30,-83.3264,33.9486,M,M,M,0.00,0.00,M,29.97,M,10.00,M,CLR,M,M,M,M,M,M,M,M,KAHN 011030Z AUTO 00000KT 10SM CLR A2997 RMK MADISHF
AHN,2017-04-01 10:35,-83.3264,33.9486,M,M,M,270.00,3.00,M,29.97,M,10.00,M,CLR,M,M,M,M,M,M,M,M,KAHN 011035Z AUTO 27003KT 10SM CLR A2997 RMK MADISHF
AHN,2017-04-01 10:40,-83.3264,33.9486,M,M,M,260.00,3.00,M,29.97,M,10.00,M,CLR,M,M,M,M,M,M,M,M,KAHN 011040Z AUTO 26003KT 10SM CLR A2997 RMK MADISHF
AHN,2017-04-01 10:45,-83.3264,33.9486,M,M,M,250.00,3.00,M,29.97,M,10.00,M,CLR,M,M,M,M,M,M,M,M,KAHN 011045Z AUTO 25003KT 10SM CLR A2997 RMK MADISHF
AHN,2017-04-01 10:50,-83.3264,33.9486,M,M,M,260.00,3.00,M,29.97,M,10.00,M,CLR,M,M,M,M,M,M,M,M,KAHN 011050Z AUTO 26003KT 10SM CLR A2997 RMK MADISHF
AHN,2017-04-01 10:51,-83.3264,33.9486,50.00,46.90,89.04,260.00,3.00,0.00,29.97,1014.70,10.00,M,CLR,M,M,M,M,M,M,M,M,KAHN 011051Z AUTO 26003KT 10SM CLR 10/08 A2997 RMK AO2 SLP147 T01000083 $
AHN,2017-04-01 10:55,-83.3264,33.9486,M,M,M,260.00,3.00,M,29.98,M,10.00,M,CLR,M,M,M,M,M,M,M,M,KAHN 011055Z AUTO 26003KT 10SM CLR A2998 RMK MADISHF
AHN,2017-04-01 11:00,-83.3264,33.9486,M,M,M,260.00,4.00,M,29.98,M,10.00,M,CLR,M,M,M,M,M,M,M,M,KAHN 011100Z AUTO 26004KT 10SM CLR A2998 RMK MADISHF
AHN,2017-04-01 11:05,-83.3264,33.9486,M,M,M,260.00,3.00,M,29.98,M,10.00,M,CLR,M,M,M,M,M,M,M,M,KAHN 011105Z AUTO 26003KT 10SM CLR A2998 RMK MADISHF
AHN,2017-04-01 11:10,-83.3264,33.9486,M,M,M,250.00,3.00,M,29.99,M,10.00,M,CLR,M,M,M,M,M,M,M,M,KAHN 011110Z AUTO 25003KT 10SM CLR A2999 RMK MADISHF
AHN,2017-04-01 11:15,-83.3264,33.9486,M,M,M,240.00,3.00,M,29.99,M,10.00,M,CLR,M,M,M,M,M,M,M,M,KAHN 011115Z AUTO 24003KT 10SM CLR A2999 RMK MADISHF
AHN,2017-04-01 11:20,-83.3264,33.9486,M,M,M,250.00,3.00,M,29.99,M,10.00,M,CLR,M,M,M,M,M,M,M,M,KAHN 011120Z AUTO 25003KT 10SM CLR A2999 RMK MADISHF
AHN,2017-04-01 11:25,-83.3264,33.9486,M,M,M,250.00,3.00,M,29.99,M,10.00,M,CLR,M,M,M,M,M,M,M,M,KAHN 011125Z AUTO 25003KT 10SM CLR A2999 RMK MADISHF
AHN,2017-04-01 11:30,-83.3264,33.9486,M,M,M,250.00,3.00,M,30.00,M,10.00,M,CLR,M,M,M,M,M,M,M,M,KAHN 011130Z AUTO 25003KT 10SM CLR A3000 RMK MADISHF
AHN,2017-04-01 11:35,-83.3264,33.9486,M,M,M,260.00,4.00,M,30.00,M,10.00,M,CLR,M,M,M,M,M,M,M,M,KAHN 011135Z AUTO 26004KT 10SM CLR A3000 RMK MADISHF
AHN,2017-04-01 11:40,-83.3264,33.9486,M,M,M,260.00,3.00,M,30.00,M,10.00,M,CLR,M,M,M,M,M,M,M,M,KAHN 011140Z AUTO 26003KT 10SM CLR A3000 RMK MADISHF
AHN,2017-04-01 11:45,-83.3264,33.9486,M,M,M,270.00,4.00,M,30.00,M,10.00,M,CLR,M,M,M,M,M,M,M,M,KAHN 011145Z AUTO 27004KT 10SM CLR A3000 RMK MADISHF
AHN,2017-04-01 11:50,-83.3264,33.9486,M,M,M,270.00,4.00,M,30.00,M,10.00,M,CLR,M,M,M,M,M,M,M,M,KAHN 011150Z AUTO 27004KT 10SM CLR A3000 RMK MADISHF
AHN,2017-04-01 11:51,-83.3264,33.9486,50.00,46.90,89.04,270.00,4.00,0.00,30.00,1015.90,10.00,M,CLR,M,M,M,M,M,M,M,M,KAHN 011151Z 27004KT 10SM CLR 10/08 A3000 RMK AO2 SLP159 T01000083 10133 20100 53019 $
AHN,2017-04-01 11:55,-83.3264,33.9486,M,M,M,270.00,4.00,M,30.01,M,10.00,M,CLR,M,M,M,M,M,M,M,M,KAHN 011155Z AUTO 27004KT 10SM CLR A3001 RMK MADISHF
AHN,2017-04-01 12:00,-83.3264,33.9486,M,M,M,270.00,4.00,M,30.01,M,10.00,M,CLR,M,M,M,M,M,M,M,M,KAHN 011200Z AUTO 27004KT 10SM CLR A3001 RMK MADISHF
AHN,2017-04-01 12:05,-83.3264,33.9486,M,M,M,270.00,5.00,M,30.01,M,10.00,M,CLR,M,M,M,M,M,M,M,M,KAHN 011205Z AUTO 27005KT 10SM CLR A3001 RMK MADISHF
AHN,2017-04-01 12:10,-83.3264,33.9486,M,M,M,270.00,5.00,M,30.01,M,10.00,M,CLR,M,M,M,M,M,M,M,M,KAHN 011210Z AUTO 27005KT 10SM CLR A3001 RMK MADISHF
AHN,2017-04-01 12:15,-83.3264,33.9486,M,M,M,280.00,5.00,M,30.01,M,10.00,M,CLR,M,M,M,M,M,M,M,M,KAHN 011215Z AUTO 28005KT 10SM CLR A3001 RMK MADISHF
AHN,2017-04-01 12:20,-83.3264,33.9486,M,M,M,270.00,5.00,M,30.01,M,10.00,M,CLR,M,M,M,M,M,M,M,M,KAHN 011220Z AUTO 27005KT 10SM CLR A3001 RMK MADISHF
AHN,2017-04-01 12:25,-83.3264,33.9486,M,M,M,290.00,5.00,M,30.01,M,10.00,M,CLR,M,M,M,M,M,M,M,M,KAHN 011225Z AUTO 29005KT 10SM CLR A3001 RMK MADISHF
AHN,2017-04-01 12:30,-83.3264,33.9486,M,M,M,290.00,5.00,M,30.01,M,10.00,M,CLR,M,M,M,M,M,M,M,M,KAHN 011230Z AUTO 29005KT 10SM CLR A3001 RMK MADISHF
AHN,2017-04-01 12:35,-83.3264,33.9486,M,M,M,300.00,7.00,M,30.01,M,10.00,M,CLR,M,M,M,M,M,M,M,M,KAHN 011235Z AUTO 30007KT 10SM CLR A3001 RMK MADISHF
AHN,2017-04-01 12:40,-83.3264,33.9486,M,M,M,300.00,6.00,M,30.01,M,10.00,M,CLR,M,M,M,M,M,M,M,M,KAHN 011240Z AUTO 30006KT 10SM CLR A3001 RMK MADISHF
AHN,2017-04-01 12:45,-83.3264,33.9486,M,M,M,300.00,7.00,M,30.02,M,10.00,M,CLR,M,M,M,M,M,M,M,M,KAHN 011245Z AUTO 30007KT 10SM CLR A3002 RMK MADISHF
AHN,2017-04-01 12:50,-83.3264,33.9486,M,M,M,310.00,9.00,M,30.02,M,10.00,M,CLR,M,M,M,M,M,M,M,M,KAHN 011250Z AUTO 31009KT 10SM CLR A3002 RMK MADISHF
AHN,2017-04-01 12:51,-83.3264,33.9486,57.00,48.00,71.81,300.00,8.00,0.00,30.02,1016.30,10.00,M,CLR,M,M,M,M,M,M,M,M,KAHN 011251Z 30008KT 10SM CLR 14/09 A3002 RMK AO2 SLP163 T01390089 $
AHN,2017-04-01 12:55,-83.3264,33.9486,M,M,M,300.00,8.00,M,30.02,M,10.00,M,CLR,M,M,M,M,M,M,M,M,KAHN 011255Z AUTO 30008KT 10SM CLR A3002 RMK MADISHF
AHN,2017-04-01 13:00,-83.3264,33.9486,M,M,M,300.00,8.00,M,30.02,M,10.00,M,CLR,M,M,M,M,M,M,M,M,KAHN 011300Z AUTO 30008KT 10SM CLR A3002 RMK MADISHF
AHN,2017-04-01 13:05,-83.3264,33.9486,M,M,M,300.00,8.00,M,30.02,M,10.00,M,CLR,M,M,M,M,M,M,M,M,KAHN 011305Z AUTO 30008KT 10SM CLR A3002 RMK MADISHF
AHN,2017-04-01 13:10,-83.3264,33.9486,M,M,M,290.00,9.00,M,30.02,M,10.00,M,CLR,M,M,M,M,M,M,M,M,KAHN 011310Z AUTO 29009KT 10SM CLR A3002 RMK MADISHF
AHN,2017-04-01 13:15,-83.3264,33.9486,M,M,M,290.00,9.00,M,30.02,M,10.00,M,CLR,M,M,M,M,M,M,M,M,KAHN 011315Z AUTO 29009KT 10SM CLR A3002 RMK MADISHF
AHN,2017-04-01 13:20,-83.3264,33.9486,M,M,M,290.00,7.00,M,30.02,M,10.00,M,CLR,M,M,M,M,M,M,M,M,KAHN 011320Z AUTO 29007KT 10SM CLR A3002 RMK WND 26V32  MADISHF
AHN,2017-04-01 13:25,-83.3264,33.9486,M,M,M,290.00,8.00,M,30.02,M,10.00,M,CLR,M,M,M,M,M,M,M,M,KAHN 011325Z AUTO 29008KT 10SM CLR A3002 RMK MADISHF
AHN,2017-04-01 13:30,-83.3264,33.9486,M,M,M,290.00,7.00,M,30.02,M,10.00,M,CLR,M,M,M,M,M,M,M,M,KAHN 011330Z AUTO 29007KT 10SM CLR A3002 RMK MADISHF
AHN,2017-04-01 13:35,-83.3264,33.9486,M,M,M,290.00,7.00,M,30.02,M,10.00,M,CLR,M,M,M,M,M,M,M,M,KAHN 011335Z AUTO 29007KT 10SM CLR A3002 RMK MADISHF
AHN,2017-04-01 13:40,-83.3264,33.9486,M,M,M,290.00,8.00,M,30.03,M,10.00,M,CLR,M,M,M,M,M,M,M,M,KAHN 011340Z AUTO 29008KT 10SM CLR A3003 RMK MADISHF
AHN,2017-04-01 13:45,-83.3264,33.9486,M,M,M,280.00,6.00,M,30.03,M,10.00,M,CLR,M,M,M,M,M,M,M,M,KAHN 011345Z AUTO 28006KT 10SM CLR A3003 RMK MADISHF
AHN,2017-04-01 13:50,-83.3264,33.9486,M,M,M,310.00,6.00,M,30.03,M,10.00,M,CLR,M,M,M,M,M,M,M,M,KAHN 011350Z AUTO 31006KT 10SM CLR A3003 RMK MADISHF
AHN,2017-04-01 13:51,-83.3264,33.9486,61.00,48.00,62.23,320.00,7.00,0.00,30.03,1016.60,10.00,M,CLR,M,M,M,M,M,M,M,M,KAHN 011351Z 32007KT 10SM CLR 16/09 A3003 RMK AO2 SLP166 T01610089 $
AHN,2017-04-01 13:55,-83.3264,33.9486,M,M,M,310.00,7.00,M,30.03,M,10.00,M,CLR,M,M,M,M,M,M,M,M,KAHN 011355Z AUTO 31007KT 10SM CLR A3003 RMK WND 29V35  MADISHF
AHN,2017-04-01 14:00,-83.3264,33.9486,M,M,M,310.00,7.00,M,30.03,M,10.00,M,CLR,M,M,M,M,M,M,M,M,KAHN 011400Z AUTO 31007KT 10SM CLR A3003 RMK MADISHF
AHN,2017-04-01 14:05,-83.3264,33.9486,M,M,M,310.00,8.00,M,30.03,M,10.00,M,CLR,M,M,M,M,M,M,M,M,KAHN 011405Z AUTO 31008KT 10SM CLR A3003 RMK MADISHF
AHN,2017-04-01 14:10,-83.3264,33.9486,M,M,M,310.00,7.00,M,30.03,M,10.00,M,CLR,M,M,M,M,M,M,M,M,KAHN 011410Z AUTO 31007KT 10SM CLR A3003 RMK MADISHF
AHN,2017-04-01 14:15,-83.3264,33.9486,M,M,M,310.00,7.00,M,30.03,M,10.00,M,CLR,M,M,M,M,M,M,M,M,KAHN 011415Z AUTO 31007KT 10SM CLR A3003 RMK WND 27V33  MADISHF
AHN,2017-04-01 14:20,-83.3264,33.9486,M,M,M,290.00,9.00,M,30.03,M,10.00,M,CLR,M,M,M,M,M,M,M,M,KAHN 011420Z AUTO 29009KT 10SM CLR A3003 RMK MADISHF
AHN,2017-04-01 14:25,-83.3264,33.9486,M,M,M,290.00,7.00,M,30.03,M,10.00,M,CLR,M,M,M,M,M,M,M,M,KAHN 011425Z AUTO 29007KT 10SM CLR A3003 RMK WND 26V32  MADISHF
AHN,2017-04-01 14:30,-83.3264,33.9486,M,M,M,320.00,7.00,M,30.03,M,10.00,M,CLR,M,M,M,M,M,M,M,M,KAHN 011430Z AUTO 32007KT 10SM CLR A3003 RMK MADISHF
AHN,2017-04-01 14:35,-83.3264,33.9486,M,M,M,310.00,8.00,M,30.03,M,10.00,M,CLR,M,M,M,M,M,M,M,M,KAHN 011435Z AUTO 31008KT 10SM CLR A3003 RMK WND 28V36  MADISHF
AHN,2017-04-01 14:40,-83.3264,33.9486,M,M,M,310.00,7.00,M,30.03,M,10.00,M,CLR,M,M,M,M,M,M,M,M,KAHN 011440Z AUTO 31007KT 10SM CLR A3003 RMK MADISHF
AHN,2017-04-01 14:45,-83.3264,33.9486,M,M,M,300.00,9.00,M,30.03,M,10.00,M,CLR,M,M,M,M,M,M,M,M,KAHN 011445Z AUTO 30009KT 10SM CLR A3003 RMK MADISHF
AHN,2017-04-01 14:50,-83.3264,33.9486,M,M,M,320.00,8.00,M,30.03,M,10.00,M,CLR,M,M,M,M,M,M,M,M,KAHN 011450Z AUTO 32008KT 10SM CLR A3003 RMK MADISHF
AHN,2017-04-01 14:51,-83.3264,33.9486,64.90,48.00,54.26,330.00,8.00,0.00,30.03,1016.70,10.00,M,CLR,M,M,M,M,M,M,M,M,KAHN 011451Z 33008KT 10SM CLR 18/09 A3003 RMK AO2 SLP167 T01830089 51009 $
AHN,2017-04-01 14:55,-83.3264,33.9486,M,M,M,310.00,8.00,M,30.03,M,10.00,M,CLR,M,M,M,M,M,M,M,M,KAHN 011455Z AUTO 31008KT 10SM CLR A3003 RMK MADISHF
AHN,2017-04-01 15:00,-83.3264,33.9486,M,M,M,300.00,9.00,M,30.03,M,10.00,M,CLR,M,M,M,M,M,M,M,M,KAHN 011500Z AUTO 30009KT 10SM CLR A3003 RMK MADISHF
AHN,2017-04-01 15:05,-83.3264,33.9486,M,M,M,320.00,5.00,M,30.03,M,10.00,M,CLR,M,M,M,M,M,M,M,M,KAHN 011505Z AUTO 32005KT 10SM CLR A3003 RMK MADISHF
AHN,2017-04-01 15:10,-83.3264,33.9486,M,M,M,310.00,7.00,M,30.03,M,10.00,M,CLR,M,M,M,M,M,M,M,M,KAHN 011510Z AUTO 31007KT 10SM CLR A3003 RMK MADISHF
AHN,2017-04-01 15:15,-83.3264,33.9486,M,M,M,320.00,8.00,M,30.03,M,10.00,M,CLR,M,M,M,M,M,M,M,M,KAHN 011515Z AUTO 32008KT 10SM CLR A3003 RMK MADISHF
AHN,2017-04-01 15:20,-83.3264,33.9486,M,M,M,320.00,8.00,M,30.04,M,10.00,M,CLR,M,M,M,M,M,M,M,M,KAHN 011520Z AUTO 32008KT 10SM CLR A3004 RMK MADISHF
AHN,2017-04-01 15:25,-83.3264,33.9486,M,M,M,330.00,9.00,M,30.04,M,10.00,M,CLR,M,M,M,M,M,M,M,M,KAHN 011525Z AUTO 33009KT 10SM CLR A3004 RMK MADISHF
AHN,2017-04-01 15:30,-83.3264,33.9486,M,M,M,320.00,6.00,M,30.04,M,10.00,M,CLR,M,M,M,M,M,M,M,M,KAHN 011530Z AUTO 32006KT 10SM CLR A3004 RMK MADISHF
AHN,2017-04-01 15:35,-83.3264,33.9486,M,M,M,330.00,7.00,M,30.04,M,10.00,M,CLR,M,M,M,M,M,M,M,M,KAHN 011535Z AUTO 33007KT 10SM CLR A3004 RMK MADISHF
AHN,2017-04-01 15:40,-83.3264,33.9486,M,M,M,320.00,7.00,M,30.03,M,10.00,M,CLR,M,M,M,M,M,M,M,M,KAHN 011540Z AUTO 32007KT 10SM CLR A3003 RMK WND 29V36  MADISHF
AHN,2017-04-01 15:45,-83.3264,33.9486,M,M,M,280.00,5.00,M,30.03,M,10.00,M,CLR,M,M,M,M,M,M,M,M,KAHN 011545Z AUTO 28005KT 10SM CLR A3003 RMK VRB05KT  MADISHF
AHN,2017-04-01 15:50,-83.3264,33.9486,M,M,M,340.00,7.00,M,30.03,M,10.00,M,CLR,M,M,M,M,M,M,M,M,KAHN 011550Z AUTO 34007KT 10SM CLR A3003 RMK WND 31V01  MADISHF
AHN,2017-04-01 15:51,-83.3264,33.9486,70.00,48.00,45.50,340.00,7.00,0.00,30.03,1016.70,10.00,M,CLR,M,M,M,M,M,M,M,M,KAHN 011551Z 34007KT 310V010 10SM CLR 21/09 A3003 RMK AO2 SLP167 T02110089 $
AHN,2017-04-01 15:55,-83.3264,33.9486,M,M,M,340.00,6.00,M,30.03,M,10.00,M,CLR,M,M,M,M,M,M,M,M,KAHN 011555Z AUTO 34006KT 10SM CLR A3003 RMK MADISHF
AHN,2017-04-01 16:00,-83.3264,33.9486,M,M,M,330.00,5.00,M,30.03,M,10.00,M,CLR,M,M,M,M,M,M,M,M,KAHN 011600Z AUTO 33005KT 10SM CLR A3003 RMK VRB05KT  MADISHF
AHN,2017-04-01 16:05,-83.3264,33.9486,M,M,M,320.00,6.00,M,30.03,M,10.00,M,CLR,M,M,M,M,M,M,M,M,KAHN 011605Z AUTO 32006KT 10SM CLR A3003 RMK VRB06KT  MADISHF
AHN,2017-04-01 16:10,-83.3264,33.9486,M,M,M,330.00,6.00,M,30.03,M,10.00,M,CLR,M,M,M,M,M,M,M,M,KAHN 011610Z AUTO 33006KT 10SM CLR A3003 RMK MADISHF
AHN,2017-04-01 16:15,-83.3264,33.9486,M,M,M,320.00,4.00,M,30.03,M,10.00,M,CLR,M,M,M,M,M,M,M,M,KAHN 011615Z AUTO 32004KT 10SM CLR A3003 RMK MADISHF
AHN,2017-04-01 16:20,-83.3264,33.9486,M,M,M,300.00,6.00,M,30.03,M,10.00,M,CLR,M,M,M,M,M,M,M,M,KAHN 011620Z AUTO 30006KT 10SM CLR A3003 RMK MADISHF
AHN,2017-04-01 16:25,-83.3264,33.9486,M,M,M,340.00,6.00,M,30.03,M,10.00,M,CLR,M,M,M,M,M,M,M,M,KAHN 011625Z AUTO 34006KT 10SM CLR A3003 RMK MADISHF
AHN,2017-04-01 16:30,-83.3264,33.9486,M,M,M,320.00,8.00,M,30.03,M,10.00,M,CLR,M,M,M,M,M,M,M,M,KAHN 011630Z AUTO 32008KT 10SM CLR A3003 RMK MADISHF
AHN,2017-04-01 16:35,-83.3264,33.9486,M,M,M,M,M,M,30.03,M,10.00,M,CLR,M,M,M,M,M,M,M,M,KAHN 011635Z AUTO /////KT 10SM CLR A3003 RMK MADISHF
AHN,2017-04-01 16:40,-83.3264,33.9486,M,M,M,310.00,7.00,M,30.03,M,10.00,M,CLR,M,M,M,M,M,M,M,M,KAHN 011640Z AUTO 31007KT 10SM CLR A3003 RMK MADISHF
AHN,2017-04-01 16:45,-83.3264,33.9486,M,M,M,300.00,9.00,M,30.03,M,10.00,M,CLR,M,M,M,M,M,M,M,M,KAHN 011645Z AUTO 30009KT 10SM CLR A3003 RMK MADISHF
AHN,2017-04-01 16:50,-83.3264,33.9486,M,M,M,310.00,7.00,M,30.03,M,10.00,M,CLR,M,M,M,M,M,M,M,M,KAHN 011650Z AUTO 31007KT 10SM CLR A3003 RMK MADISHF
AHN,2017-04-01 16:51,-83.3264,33.9486,72.00,48.00,42.51,310.00,6.00,0.00,30.03,1016.60,10.00,M,CLR,M,M,M,M,M,M,M,M,KAHN 011651Z 31006KT 10SM CLR 22/09 A3003 RMK AO2 SLP166 T02220089 $
AHN,2017-04-01 16:55,-83.3264,33.9486,M,M,M,340.00,5.00,M,30.03,M,10.00,M,CLR,M,M,M,M,M,M,M,M,KAHN 011655Z AUTO 34005KT 10SM CLR A3003 RMK MADISHF
AHN,2017-04-01 17:00,-83.3264,33.9486,M,M,M,260.00,7.00,M,30.03,M,10.00,M,CLR,M,M,M,M,M,M,M,M,KAHN 011700Z AUTO 26007KT 10SM CLR A3003 RMK MADISHF
AHN,2017-04-01 17:05,-83.3264,33.9486,M,M,M,280.00,5.00,M,30.03,M,10.00,M,CLR,M,M,M,M,M,M,M,M,KAHN 011705Z AUTO 28005KT 10SM CLR A3003 RMK VRB05KT  MADISHF
AHN,2017-04-01 17:10,-83.3264,33.9486,M,M,M,300.00,5.00,M,30.03,M,10.00,M,CLR,M,M,M,M,M,M,M,M,KAHN 011710Z AUTO 30005KT 10SM CLR A3003 RMK MADISHF
AHN,2017-04-01 17:15,-83.3264,33.9486,M,M,M,250.00,5.00,M,30.03,M,10.00,M,CLR,M,M,M,M,M,M,M,M,KAHN 011715Z AUTO 25005KT 10SM CLR A3003 RMK MADISHF
AHN,2017-04-01 17:20,-83.3264,33.9486,M,M,M,270.00,6.00,M,30.03,M,10.00,M,CLR,M,M,M,M,M,M,M,M,KAHN 011720Z AUTO 27006KT 10SM CLR A3003 RMK MADISHF
AHN,2017-04-01 17:25,-83.3264,33.9486,M,M,M,290.00,7.00,M,30.03,M,10.00,M,CLR,M,M,M,M,M,M,M,M,KAHN 011725Z AUTO 29007KT 10SM CLR A3003 RMK WND 26V32  MADISHF
AHN,2017-04-01 17:30,-83.3264,33.9486,M,M,M,270.00,7.00,M,30.03,M,10.00,M,CLR,M,M,M,M,M,M,M,M,KAHN 011730Z AUTO 27007KT 10SM CLR A3003 RMK WND 22V31  MADISHF
AHN,2017-04-01 17:35,-83.3264,33.9486,M,M,M,270.00,3.00,M,30.03,M,10.00,M,CLR,M,M,M,M,M,M,M,M,KAHN 011735Z AUTO 27003KT 10SM CLR A3003 RMK VRB03KT  MADISHF
AHN,2017-04-01 17:40,-83.3264,33.9486,M,M,M,280.00,4.00,M,30.02,M,10.00,M,CLR,M,M,M,M,M,M,M,M,KAHN 011740Z AUTO 28004KT 10SM CLR A3002 RMK VRB04KT  MADISHF
AHN,2017-04-01 17:45,-83.3264,33.9486,M,M,M,300.00,6.00,M,30.02,M,10.00,M,CLR,M,M,M,M,M,M,M,M,KAHN 011745Z AUTO 30006KT 10SM CLR A3002 RMK VRB06KT  MADISHF
AHN,2017-04-01 17:50,-83.3264,33.9486,M,M,M,270.00,4.00,M,30.02,M,10.00,M,CLR,M,M,M,M,M,M,M,M,KAHN 011750Z AUTO 27004KT 10SM CLR A3002 RMK VRB04KT  MADISHF
AHN,2017-04-01 17:51,-83.3264,33.9486,75.90,48.90,38.57,M,6.00,0.00,30.02,1016.10,10.00,M,CLR,M,M,M,M,M,M,M,M,KAHN 011751Z VRB06KT 10SM CLR 24/09 A3002 RMK AO2 SLP161 T02440094 10244 20100 58004 $
AHN,2017-04-01 17:55,-83.3264,33.9486,M,M,M,270.00,7.00,M,30.02,M,10.00,M,CLR,M,M,M,M,M,M,M,M,KAHN 011755Z AUTO 27007KT 10SM CLR A3002 RMK MADISHF
AHN,2017-04-01 18:00,-83.3264,33.9486,M,M,M,0.00,0.00,M,30.02,M,10.00,M,CLR,M,M,M,M,M,M,M,M,KAHN 011800Z AUTO 00000KT 10SM CLR A3002 RMK MADISHF
AHN,2017-04-01 18:05,-83.3264,33.9486,M,M,M,270.00,5.00,M,30.02,M,10.00,M,CLR,M,M,M,M,M,M,M,M,KAHN 011805Z AUTO 27005KT 10SM CLR A3002 RMK VRB05KT  MADISHF
AHN,2017-04-01 18:10,-83.3264,33.9486,M,M,M,260.00,6.00,M,30.02,M,10.00,M,CLR,M,M,M,M,M,M,M,M,KAHN 011810Z AUTO 26006KT 10SM CLR A3002 RMK VRB06KT  MADISHF
AHN,2017-04-01 18:15,-83.3264,33.9486,M,M,M,280.00,6.00,M,30.02,M,10.00,M,CLR,M,M,M,M,M,M,M,M,KAHN 011815Z AUTO 28006KT 10SM CLR A3002 RMK MADISHF
AHN,2017-04-01 18:20,-83.3264,33.9486,M,M,M,330.00,5.00,M,30.01,M,10.00,M,CLR,M,M,M,M,M,M,M,M,KAHN 011820Z AUTO 33005KT 10SM CLR A3001 RMK VRB05KT  MADISHF
AHN,2017-04-01 18:25,-83.3264,33.9486,M,M,M,300.00,4.00,M,30.01,M,10.00,M,CLR,M,M,M,M,M,M,M,M,KAHN 011825Z AUTO 30004KT 10SM CLR A3001 RMK VRB04KT  MADISHF
AHN,2017-04-01 18:30,-83.3264,33.9486,M,M,M,310.00,6.00,M,30.01,M,10.00,M,CLR,M,M,M,M,M,M,M,M,KAHN 011830Z AUTO 31006KT 10SM CLR A3001 RMK VRB06KT  MADISHF
AHN,2017-04-01 18:35,-83.3264,33.9486,M,M,M,310.00,5.00,M,30.01,M,10.00,M,CLR,M,M,M,M,M,M,M,M,KAHN 011835Z AUTO 31005KT 10SM CLR A3001 RMK VRB05KT  MADISHF
AHN,2017-04-01 18:40,-83.3264,33.9486,M,M,M,330.00,5.00,M,30.01,M,10.00,M,CLR,M,M,M,M,M,M,M,M,KAHN 011840Z AUTO 33005KT 10SM CLR A3001 RMK VRB05KT  MADISHF
AHN,2017-04-01 18:45,-83.3264,33.9486,M,M,M,310.00,6.00,M,30.01,M,10.00,M,CLR,M,M,M,M,M,M,M,M,KAHN 011845Z AUTO 31006KT 10SM CLR A3001 RMK MADISHF
AHN,2017-04-01 18:50,-83.3264,33.9486,M,M,M,300.00,3.00,M,30.00,M,10.00,M,CLR,M,M,M,M,M,M,M,M,KAHN 011850Z AUTO 30003KT 10SM CLR A3000 RMK VRB03KT  MADISHF
AHN,2017-04-01 18:51,-83.3264,33.9486,77.00,48.00,35.95,310.00,4.00,0.00,30.00,1015.60,10.00,M,CLR,M,M,M,M,M,M,M,M,KAHN 011851Z 31004KT 10SM CLR 25/09 A3000 RMK AO2 SLP156 T02500089 $
AHN,2017-04-01 18:55,-83.3264,33.9486,M,M,M,260.00,5.00,M,30.00,M,10.00,M,CLR,M,M,M,M,M,M,M,M,KAHN 011855Z AUTO 26005KT 10SM CLR A3000 RMK VRB05KT  MADISHF
AHN,2017-04-01 19:00,-83.3264,33.9486,M,M,M,310.00,5.00,M,30.00,M,10.00,M,CLR,M,M,M,M,M,M,M,M,KAHN 011900Z AUTO 31005KT 10SM CLR A3000 RMK MADISHF
AHN,2017-04-01 19:05,-83.3264,33.9486,M,M,M,340.00,6.00,M,30.00,M,10.00,M,CLR,M,M,M,M,M,M,M,M,KAHN 011905Z AUTO 34006KT 10SM CLR A3000 RMK MADISHF
AHN,2017-04-01 19:10,-83.3264,33.9486,M,M,M,320.00,5.00,M,30.00,M,10.00,M,CLR,M,M,M,M,M,M,M,M,KAHN 011910Z AUTO 32005KT 10SM CLR A3000 RMK MADISHF
AHN,2017-04-01 19:15,-83.3264,33.9486,M,M,M,300.00,7.00,M,30.00,M,10.00,M,CLR,M,M,M,M,M,M,M,M,KAHN 011915Z AUTO 30007KT 10SM CLR A3000 RMK MADISHF
AHN,2017-04-01 19:20,-83.3264,33.9486,M,M,M,240.00,3.00,M,29.99,M,10.00,M,CLR,M,M,M,M,M,M,M,M,KAHN 011920Z AUTO 24003KT 10SM CLR A2999 RMK VRB03KT  MADISHF
AHN,2017-04-01 19:25,-83.3264,33.9486,M,M,M,310.00,5.00,M,29.99,M,10.00,M,CLR,M,M,M,M,M,M,M,M,KAHN 011925Z AUTO 31005KT 10SM CLR A2999 RMK MADISHF
AHN,2017-04-01 19:30,-83.3264,33.9486,M,M,M,340.00,4.00,M,29.99,M,10.00,M,CLR,M,M,M,M,M,M,M,M,KAHN 011930Z AUTO 34004KT 10SM CLR A2999 RMK MADISHF
AHN,2017-04-01 19:35,-83.3264,33.9486,M,M,M,320.00,4.00,M,29.99,M,10.00,M,CLR,M,M,M,M,M,M,M,M,KAHN 011935Z AUTO 32004KT 10SM CLR A2999 RMK VRB04KT  MADISHF
AHN,2017-04-01 19:40,-83.3264,33.9486,M,M,M,280.00,5.00,M,29.99,M,10.00,M,CLR,M,M,M,M,M,M,M,M,KAHN 011940Z AUTO 28005KT 10SM CLR A2999 RMK VRB05KT  MADISHF
AHN,2017-04-01 19:45,-83.3264,33.9486,M,M,M,300.00,5.00,M,29.99,M,10.00,M,CLR,M,M,M,M,M,M,M,M,KAHN 011945Z AUTO 30005KT 10SM CLR A2999 RMK MADISHF
AHN,2017-04-01 19:50,-83.3264,33.9486,M,M,M,300.00,6.00,M,29.99,M,10.00,M,CLR,M,M,M,M,M,M,M,M,KAHN 011950Z AUTO 30006KT 10SM CLR A2999 RMK MADISHF
AHN,2017-04-01 19:51,-83.3264,33.9486,80.10,48.00,32.46,290.00,6.00,0.00,29.99,1015.10,10.00,M,CLR,M,M,M,M,M,M,M,M,KAHN 011951Z 29006KT 10SM CLR 27/09 A2999 RMK AO2 SLP151 T02670089 $
AHN,2017-04-01 19:55,-83.3264,33.9486,M,M,M,300.00,3.00,M,29.99,M,10.00,M,CLR,M,M,M,M,M,M,M,M,KAHN 011955Z AUTO 30003KT 10SM CLR A2999 RMK VRB03KT  MADISHF
AHN,2017-04-01 20:00,-83.3264,33.9486,M,M,M,350.00,3.00,M,29.99,M,10.00,M,CLR,M,M,M,M,M,M,M,M,KAHN 012000Z AUTO 35003KT 10SM CLR A2999 RMK VRB03KT  MADISHF
AHN,2017-04-01 20:05,-83.3264,33.9486,M,M,M,260.00,6.00,M,29.99,M,10.00,M,CLR,M,M,M,M,M,M,M,M,KAHN 012005Z AUTO 26006KT 10SM CLR A2999 RMK VRB06KT  MADISHF
AHN,2017-04-01 20:10,-83.3264,33.9486,M,M,M,240.00,6.00,M,29.99,M,10.00,M,CLR,M,M,M,M,M,M,M,M,KAHN 012010Z AUTO 24006KT 10SM CLR A2999 RMK VRB06KT  MADISHF
AHN,2017-04-01 20:15,-83.3264,33.9486,M,M,M,270.00,8.00,M,29.98,M,10.00,M,CLR,M,M,M,M,M,M,M,M,KAHN 012015Z AUTO 27008KT 10SM CLR A2998 RMK MADISHF
AHN,2017-04-01 20:20,-83.3264,33.9486,M,M,M,230.00,4.00,M,29.98,M,10.00,M,CLR,M,M,M,M,M,M,M,M,KAHN 012020Z AUTO 23004KT 10SM CLR A2998 RMK VRB04KT  MADISHF
AHN,2017-04-01 20:25,-83.3264,33.9486,M,M,M,290.00,7.00,M,29.98,M,10.00,M,CLR,M,M,M,M,M,M,M,M,KAHN 012025Z AUTO 29007KT 10SM CLR A2998 RMK MADISHF
AHN,2017-04-01 20:30,-83.3264,33.9486,M,M,M,290.00,5.00,M,29.98,M,10.00,M,CLR,M,M,M,M,M,M,M,M,KAHN 012030Z AUTO 29005KT 10SM CLR A2998 RMK MADISHF
AHN,2017-04-01 20:35,-83.3264,33.9486,M,M,M,290.00,8.00,M,29.98,M,10.00,M,CLR,M,M,M,M,M,M,M,M,KAHN 012035Z AUTO 29008KT 10SM CLR A2998 RMK MADISHF
AHN,2017-04-01 20:40,-83.3264,33.9486,M,M,M,270.00,4.00,M,29.98,M,10.00,M,CLR,M,M,M,M,M,M,M,M,KAHN 012040Z AUTO 27004KT 10SM CLR A2998 RMK VRB04KT  MADISHF
AHN,2017-04-01 20:45,-83.3264,33.9486,M,M,M,290.00,4.00,M,29.98,M,10.00,M,CLR,M,M,M,M,M,M,M,M,KAHN 012045Z AUTO 29004KT 10SM CLR A2998 RMK MADISHF
AHN,2017-04-01 20:50,-83.3264,33.9486,M,M,M,310.00,7.00,M,29.98,M,10.00,M,CLR,M,M,M,M,M,M,M,M,KAHN 012050Z AUTO 31007KT 10SM CLR A2998 RMK MADISHF
AHN,2017-04-01 20:51,-83.3264,33.9486,81.00,46.90,30.24,320.00,9.00,0.00,29.98,1014.70,10.00,M,CLR,M,M,M,M,M,M,M,M,KAHN 012051Z 32009KT 10SM CLR 27/08 A2998 RMK AO2 SLP147 T02720083 56014 $
AHN,2017-04-01 20:55,-83.3264,33.9486,M,M,M,320.00,7.00,M,29.98,M,10.00,M,CLR,M,M,M,M,M,M,M,M,KAHN 012055Z AUTO 32007KT 10SM CLR A2998 RMK MADISHF
AHN,2017-04-01 21:00,-83.3264,33.9486,M,M,M,0.00,0.00,M,29.98,M,10.00,M,CLR,M,M,M,M,M,M,M,M,KAHN 012100Z AUTO 00000KT 10SM CLR A2998 RMK MADISHF
AHN,2017-04-01 21:05,-83.3264,33.9486,M,M,M,280.00,4.00,M,29.98,M,10.00,M,CLR,M,M,M,M,M,M,M,M,KAHN 012105Z AUTO 28004KT 10SM CLR A2998 RMK MADISHF
AHN,2017-04-01 21:10,-83.3264,33.9486,M,M,M,230.00,5.00,M,29.98,M,10.00,M,CLR,M,M,M,M,M,M,M,M,KAHN 012110Z AUTO 23005KT 10SM CLR A2998 RMK VRB05KT  MADISHF
AHN,2017-04-01 21:15,-83.3264,33.9486,M,M,M,280.00,8.00,M,29.98,M,10.00,M,CLR,M,M,M,M,M,M,M,M,KAHN 012115Z AUTO 28008KT 10SM CLR A2998 RMK MADISHF
AHN,2017-04-01 21:20,-83.3264,33.9486,M,M,M,300.00,7.00,M,29.98,M,10.00,M,CLR,M,M,M,M,M,M,M,M,KAHN 012120Z AUTO 30007KT 10SM CLR A2998 RMK MADISHF
AHN,2017-04-01 21:25,-83.3264,33.9486,M,M,M,280.00,4.00,M,29.98,M,10.00,M,CLR,M,M,M,M,M,M,M,M,KAHN 012125Z AUTO 28004KT 10SM CLR A2998 RMK VRB04KT  MADISHF
AHN,2017-04-01 21:30,-83.3264,33.9486,M,M,M,320.00,7.00,M,29.98,M,10.00,M,CLR,M,M,M,M,M,M,M,M,KAHN 012130Z AUTO 32007KT 10SM CLR A2998 RMK MADISHF
AHN,2017-04-01 21:35,-83.3264,33.9486,M,M,M,0.00,0.00,M,29.98,M,10.00,M,CLR,M,M,M,M,M,M,M,M,KAHN 012135Z AUTO 00000KT 10SM CLR A2998 RMK MADISHF
AHN,2017-04-01 21:40,-83.3264,33.9486,M,M,M,270.00,6.00,M,29.98,M,10.00,M,CLR,M,M,M,M,M,M,M,M,KAHN 012140Z AUTO 27006KT 10SM CLR A2998 RMK VRB06KT  MADISHF
AHN,2017-04-01 21:45,-83.3264,33.9486,M,M,M,250.00,4.00,M,29.98,M,10.00,M,CLR,M,M,M,M,M,M,M,M,KAHN 012145Z AUTO 25004KT 10SM CLR A2998 RMK MADISHF
AHN,2017-04-01 21:50,-83.3264,33.9486,M,M,M,240.00,3.00,M,29.98,M,10.00,M,CLR,M,M,M,M,M,M,M,M,KAHN 012150Z AUTO 24003KT 10SM CLR A2998 RMK VRB03KT  MADISHF
AHN,2017-04-01 21:51,-83.3264,33.9486,80.10,46.90,31.15,M,4.00,0.00,29.98,1014.80,10.00,M,CLR,M,M,M,M,M,M,M,M,KAHN 012151Z VRB04KT 10SM CLR 27/08 A2998 RMK AO2 SLP148 T02670083 $
AHN,2017-04-01 21:55,-83.3264,33.9486,M,M,M,280.00,6.00,M,29.98,M,10.00,M,CLR,M,M,M,M,M,M,M,M,KAHN 012155Z AUTO 28006KT 10SM CLR A2998 RMK MADISHF
AHN,2017-04-01 22:00,-83.3264,33.9486,M,M,M,260.00,4.00,M,29.98,M,10.00,M,CLR,M,M,M,M,M,M,M,M,KAHN 012200Z AUTO 26004KT 10SM CLR A2998 RMK VRB04KT  MADISHF
AHN,2017-04-01 22:05,-83.3264,33.9486,M,M,M,280.00,5.00,M,29.98,M,10.00,M,CLR,M,M,M,M,M,M,M,M,KAHN 012205Z AUTO 28005KT 10SM CLR A2998 RMK VRB05KT  MADISHF
AHN,2017-04-01 22:10,-83.3264,33.9486,M,M,M,300.00,7.00,M,29.99,M,10.00,M,CLR,M,M,M,M,M,M,M,M,KAHN 012210Z AUTO 30007KT 10SM CLR A2999 RMK MADISHF
AHN,2017-04-01 22:15,-83.3264,33.9486,M,M,M,310.00,7.00,M,29.98,M,10.00,M,CLR,M,M,M,M,M,M,M,M,KAHN 012215Z AUTO 31007KT 10SM CLR A2998 RMK MADISHF
AHN,2017-04-01 22:20,-83.3264,33.9486,M,M,M,290.00,7.00,M,29.99,M,10.00,M,CLR,M,M,M,M,M,M,M,M,KAHN 012220Z AUTO 29007KT 10SM CLR A2999 RMK MADISHF
AHN,2017-04-01 22:25,-83.3264,33.9486,M,M,M,290.00,7.00,M,29.99,M,10.00,M,CLR,M,M,M,M,M,M,M,M,KAHN 012225Z AUTO 29007KT 10SM CLR A2999 RMK MADISHF
AHN,2017-04-01 22:30,-83.3264,33.9486,M,M,M,290.00,6.00,M,29.99,M,10.00,M,CLR,M,M,M,M,M,M,M,M,KAHN 012230Z AUTO 29006KT 10SM CLR A2999 RMK MADISHF
AHN,2017-04-01 22:35,-83.3264,33.9486,M,M,M,280.00,6.00,M,29.99,M,10.00,M,CLR,M,M,M,M,M,M,M,M,KAHN 012235Z AUTO 28006KT 10SM CLR A2999 RMK VRB06KT  MADISHF
AHN,2017-04-01 22:40,-83.3264,33.9486,M,M,M,270.00,5.00,M,29.99,M,10.00,M,CLR,M,M,M,M,M,M,M,M,KAHN 012240Z AUTO 27005KT 10SM CLR A2999 RMK MADISHF
AHN,2017-04-01 22:45,-83.3264,33.9486,M,M,M,270.00,6.00,M,29.99,M,10.00,M,CLR,M,M,M,M,M,M,M,M,KAHN 012245Z AUTO 27006KT 10SM CLR A2999 RMK MADISHF
AHN,2017-04-01 22:50,-83.3264,33.9486,M,M,M,280.00,5.00,M,29.99,M,10.00,M,CLR,M,M,M,M,M,M,M,M,KAHN 012250Z AUTO 28005KT 10SM CLR A2999 RMK MADISHF
AHN,2017-04-01 22:51,-83.3264,33.9486,78.10,46.00,32.15,290.00,5.00,0.00,29.99,1015.30,10.00,M,CLR,M,M,M,M,M,M,M,M,KAHN 012251Z 29005KT 10SM CLR 26/08 A2999 RMK AO2 SLP153 T02560078 $
AHN,2017-04-01 22:55,-83.3264,33.9486,M,M,M,290.00,4.00,M,29.99,M,10.00,M,CLR,M,M,M,M,M,M,M,M,KAHN 012255Z AUTO 29004KT 10SM CLR A2999 RMK MADISHF
AHN,2017-04-01 23:00,-83.3264,33.9486,M,M,M,270.00,4.00,M,29.99,M,10.00,M,CLR,M,M,M,M,M,M,M,M,KAHN 012300Z AUTO 27004KT 10SM CLR A2999 RMK MADISHF
AHN,2017-04-01 23:05,-83.3264,33.9486,M,M,M,270.00,7.00,M,30.00,M,10.00,M,CLR,M,M,M,M,M,M,M,M,KAHN 012305Z AUTO 27007KT 10SM CLR A3000 RMK MADISHF
AHN,2017-04-01 23:10,-83.3264,33.9486,M,M,M,280.00,6.00,M,29.99,M,10.00,M,CLR,M,M,M,M,M,M,M,M,KAHN 012310Z AUTO 28006KT 10SM CLR A2999 RMK MADISHF
AHN,2017-04-01 23:15,-83.3264,33.9486,M,M,M,260.00,5.00,M,29.99,M,10.00,M,CLR,M,M,M,M,M,M,M,M,KAHN 012315Z AUTO 26005KT 10SM CLR A2999 RMK MADISHF
AHN,2017-04-01 23:20,-83.3264,33.9486,M,M,M,250.00,4.00,M,30.00,M,10.00,M,CLR,M,M,M,M,M,M,M,M,KAHN 012320Z AUTO 25004KT 10SM CLR A3000 RMK VRB04KT  MADISHF
AHN,2017-04-01 23:25,-83.3264,33.9486,M,M,M,260.00,4.00,M,30.00,M,10.00,M,CLR,M,M,M,M,M,M,M,M,KAHN 012325Z AUTO 26004KT 10SM CLR A3000 RMK MADISHF
AHN,2017-04-01 23:30,-83.3264,33.9486,M,M,M,250.00,4.00,M,30.00,M,10.00,M,CLR,M,M,M,M,M,M,M,M,KAHN 012330Z AUTO 25004KT 10SM CLR A3000 RMK MADISHF
AHN,2017-04-01 23:35,-83.3264,33.9486,M,M,M,250.00,5.00,M,30.00,M,10.00,M,CLR,M,M,M,M,M,M,M,M,KAHN 012335Z AUTO 25005KT 10SM CLR A3000 RMK MADISHF
AHN,2017-04-01 23:40,-83.3264,33.9486,M,M,M,250.00,5.00,M,30.00,M,10.00,M,CLR,M,M,M,M,M,M,M,M,KAHN 012340Z AUTO 25005KT 10SM CLR A3000 RMK MADISHF
AHN,2017-04-01 23:45,-83.3264,33.9486,M,M,M,260.00,4.00,M,30.00,M,10.00,M,CLR,M,M,M,M,M,M,M,M,KAHN 012345Z AUTO 26004KT 10SM CLR A3000 RMK MADISHF
AHN,2017-04-01 23:50,-83.3264,33.9486,M,M,M,250.00,3.00,M,30.00,M,10.00,M,CLR,M,M,M,M,M,M,M,M,KAHN 012350Z AUTO 25003KT 10SM CLR A3000 RMK MADISHF
AHN,2017-04-01 23:51,-83.3264,33.9486,73.00,46.90,39.43,M,4.00,0.00,30.00,1015.60,10.00,M,CLR,M,M,M,M,M,M,M,M,KAHN 012351Z VRB04KT 10SM CLR 23/08 A3000 RMK AO2 SLP156 T02280083 10272 20228 53007 $
AHN,2017-04-01 23:55,-83.3264,33.9486,M,M,M,270.00,5.00,M,30.00,M,10.00,M,CLR,M,M,M,M,M,M,M,M,KAHN 012355Z AUTO 27005KT 10SM CLR A3000 RMK MADISHF
