#DEBUG: Format Typ    -> comma
#DEBUG: Time Period   -> 2017-04-01 00:00:00+00:00 2017-04-02 00:00:00+00:00
#DEBUG: Time Zone     -> Etc/UTC
#DEBUG: Data Contact   -> daryl herzmann akrherz@iastate.edu 515-294-5978
#DEBUG: Entries Found -> -1
station,valid,lon,lat,tmpf, dwpf, relh, drct, sknt, p01i, alti, mslp, vsby, gust, skyc1, skyc2, skyc3, skyc4, skyl1, skyl2, skyl3, skyl4, presentwx, metar
AID,2017-04-01 12:51,-85.6130,40.1086,39.20,35.60,86.79,340.00,10.00,0.00,30.16,M,10.00,M,OVC,M,M,M,1300.00,M,M,M,M,KAID 011251Z 34010KT 10SM OVC013 04/02 A3016
AID,2017-04-01 13:51,-85.6130,40.1086,39.20,35.60,86.79,10.00,10.00,0.00,30.17,M,10.00,M,BKN,M,M,M,1500.00,M,M,M,M,KAID 011351Z 01010KT 10SM BKN015 04/02 A3017
AID,2017-04-01 14:54,-85.6130,40.1086,41.00,35.60,80.93,20.00,10.00,0.00,30.19,M,10.00,M,OVC,M,M,M,1500.00,M,M,M,M,KAID 011454Z 02010KT 10SM OVC015 05/02 A3019
AID,2017-04-01 15:47,-85.6130,40.1086,41.00,35.60,80.93,330.00,7.00,0.00,30.21,M,10.00,M,OVC,M,M,M,1500.00,M,M,M,M,KAID 011547Z 33007KT 10SM OVC015 05/02 A3021
AID,2017-04-01 17:48,-85.6130,40.1086,44.60,37.40,75.68,330.00,5.00,0.00,30.21,M,10.00,M,BKN,M,M,M,1700.00,M,M,M,M,KAID 011748Z 33005KT 10SM BKN017 07/03 A3021
AID,2017-04-01 19:57,-85.6130,40.1086,50.00,39.20,66.27,360.00,7.00,0.00,30.18,M,10.00,M,SCT,M,M,M,2500.00,M,M,M,M,KAID 011957Z 36007KT 10SM SCT025 10/04 A3018
