#DEBUG: Format Typ    -> comma
#DEBUG: Time Period   -> 2017-04-01 00:00:00+00:00 2017-04-02 00:00:00+00:00
#DEBUG: Time Zone     -> Etc/UTC
#DEBUG: Data Contact   -> daryl herzmann akrherz@iastate.edu 515-294-5978
#DEBUG: Entries Found -> -1
station,valid,lon,lat,tmpf, dwpf, relh, drct, sknt, p01i, alti, mslp, vsby, gust, skyc1, skyc2, skyc3, skyc4, skyl1, skyl2, skyl3, skyl4, presentwx, metar
AIO,2017-04-01 00:00,-95.0465,41.4059,48.20,41.00,76.01,60.00,7.00,0.00,30.03,M,10.00,M,OVC,M,M,M,3600.00,M,M,M,M,KAIO 010000Z AUTO 06007KT 10SM OVC036 09/05 A3003 RMK AO2
AIO,2017-04-01 00:10,-95.0465,41.4059,48.20,41.00,76.01,60.00,7.00,0.00,30.03,M,10.00,M,OVC,M,M,M,3600.00,M,M,M,M,KAIO 010010Z AUTO 06007KT 10SM OVC036 09/05 A3003 RMK AO2
AIO,2017-04-01 00:15,-95.0465,41.4059,48.20,41.00,76.01,60.00,8.00,0.00,30.03,M,10.00,M,OVC,M,M,M,3600.00,M,M,M,M,KAIO 010015Z AUTO 06008KT 10SM OVC036 09/05 A3003 RMK AO2
AIO,2017-04-01 00:20,-95.0465,41.4059,48.20,41.00,76.01,70.00,9.00,0.00,30.03,M,10.00,M,OVC,M,M,M,3800.00,M,M,M,M,KAIO 010020Z AUTO 07009KT 10SM OVC038 09/05 A3003 RMK AO2
AIO,2017-04-01 00:30,-95.0465,41.4059,48.20,41.00,76.01,70.00,6.00,0.00,30.03,M,10.00,M,OVC,M,M,M,3700.00,M,M,M,M,KAIO 010030Z AUTO 07006KT 10SM OVC037 09/05 A3003 RMK AO2
AIO,2017-04-01 00:35,-95.0465,41.4059,48.20,41.00,76.01,70.00,5.00,0.00,30.03,M,10.00,M,OVC,M,M,M,3700.00,M,M,M,M,KAIO 010035Z AUTO 07005KT 10SM OVC037 09/05 A3003 RMK AO2
AIO,2017-04-01 00:40,-95.0465,41.4059,48.20,41.00,76.01,60.00,5.00,0.00,30.03,M,10.00,M,OVC,M,M,M,3700.00,M,M,M,M,KAIO 010040Z AUTO 06005KT 10SM OVC037 09/05 A3003 RMK AO2
AIO,2017-04-01 00:50,-95.0465,41.4059,48.20,41.00,76.01,70.00,6.00,0.00,30.03,M,10.00,M,OVC,M,M,M,3600.00,M,M,M,M,KAIO 010050Z AUTO 07006KT 10SM OVC036 09/05 A3003 RMK AO2
AIO,2017-04-01 00:55,-95.0465,41.4059,48.20,41.00,76.01,60.00,5.00,0.00,30.03,M,10.00,M,OVC,M,M,M,3600.00,M,M,M,M,KAIO 010055Z AUTO 06005KT 10SM OVC036 09/05 A3003 RMK AO2
AIO,2017-04-01 01:00,-95.0465,41.4059,46.40,41.00,81.34,70.00,6.00,0.00,30.03,M,10.00,M,OVC,M,M,M,3600.00,M,M,M,M,KAIO 010100Z AUTO 07006KT 10SM OVC036 08/05 A3003 RMK AO2
AIO,2017-04-01 01:10,-95.0465,41.4059,46.40,41.00,81.34,60.00,6.00,0.00,30.04,M,10.00,M,OVC,M,M,M,3400.00,M,M,M,M,KAIO 010110Z AUTO 06006KT 10SM OVC034 08/05 A3004 RMK AO2
AIO,2017-04-01 01:15,-95.0465,41.4059,46.40,41.00,81.34,80.00,5.00,0.00,30.05,M,10.00,M,OVC,M,M,M,3300.00,M,M,M,M,KAIO 010115Z AUTO 08005KT 10SM OVC033 08/05 A3005 RMK AO2
AIO,2017-04-01 01:20,-95.0465,41.4059,46.40,41.00,81.34,80.00,4.00,0.00,30.05,M,10.00,M,OVC,M,M,M,3300.00,M,M,M,M,KAIO 010120Z AUTO 08004KT 10SM OVC033 08/05 A3005 RMK AO2
AIO,2017-04-01 01:30,-95.0465,41.4059,46.40,41.00,81.34,70.00,3.00,0.00,30.06,M,10.00,M,OVC,M,M,M,3200.00,M,M,M,M,KAIO 010130Z AUTO 07003KT 10SM OVC032 08/05 A3006 RMK AO2
AIO,2017-04-01 01:35,-95.0465,41.4059,46.40,41.00,81.34,70.00,4.00,0.00,30.07,M,10.00,M,OVC,M,M,M,3000.00,M,M,M,M,KAIO 010135Z AUTO 07004KT 10SM OVC030 08/05 A3007 RMK AO2
AIO,2017-04-01 01:40,-95.0465,41.4059,46.40,41.00,81.34,60.00,4.00,0.00,30.07,M,10.00,M,OVC,M,M,M,2900.00,M,M,M,M,KAIO 010140Z AUTO 06004KT 10SM OVC029 08/05 A3007 RMK AO2
AIO,2017-04-01 01:50,-95.0465,41.4059,46.40,41.00,81.34,70.00,6.00,0.00,30.07,M,10.00,M,OVC,M,M,M,2900.00,M,M,M,M,KAIO 010150Z AUTO 07006KT 10SM OVC029 08/05 A3007 RMK AO2
AIO,2017-04-01 01:55,-95.0465,41.4059,46.40,41.00,81.34,70.00,5.00,0.00,30.07,M,10.00,M,OVC,M,M,M,3000.00,M,M,M,M,KAIO 010155Z AUTO 07005KT 10SM OVC030 08/05 A3007 RMK AO2
AIO,2017-04-01 02:00,-95.0465,41.4059,46.40,41.00,81.34,60.00,6.00,0.00,30.07,M,10.00,M,OVC,M,M,M,2900.00,M,M,M,M,KAIO 010200Z AUTO 06006KT 10SM OVC029 08/05 A3007 RMK AO2
AIO,2017-04-01 02:10,-95.0465,41.4059,46.40,41.00,81.34,70.00,6.00,0.00,30.07,M,10.00,12.00,FEW,OVC,M,M,2400.00,3100.00,M,M,M,KAIO 010210Z AUTO 07006G12KT 10SM FEW024 OVC031 08/05 A3007 RMK AO2
AIO,2017-04-01 02:15,-95.0465,41.4059,46.40,41.00,81.34,70.00,7.00,0.00,30.07,M,10.00,12.00,SCT,OVC,M,M,2400.00,3100.00,M,M,M,KAIO 010215Z AUTO 07007G12KT 10SM SCT024 OVC031 08/05 A3007 RMK AO2
AIO,2017-04-01 02:20,-95.0465,41.4059,46.40,41.00,81.34,60.00,6.00,0.00,30.07,M,10.00,M,SCT,OVC,M,M,2400.00,3000.00,M,M,M,KAIO 010220Z AUTO 06006KT 10SM SCT024 OVC030 08/05 A3007 RMK AO2
AIO,2017-04-01 02:30,-95.0465,41.4059,44.60,41.00,87.09,60.00,8.00,0.00,30.08,M,10.00,M,SCT,BKN,OVC,M,2300.00,2800.00,3200.00,M,M,KAIO 010230Z AUTO 06008KT 10SM SCT023 BKN028 OVC032 07/05 A3008 RMK AO2
AIO,2017-04-01 02:35,-95.0465,41.4059,44.60,39.20,81.20,60.00,8.00,0.00,30.08,M,10.00,M,BKN,OVC,M,M,2500.00,3100.00,M,M,M,KAIO 010235Z AUTO 06008KT 10SM BKN025 OVC031 07/04 A3008 RMK AO2
AIO,2017-04-01 02:40,-95.0465,41.4059,44.60,39.20,81.20,60.00,7.00,0.00,30.08,M,10.00,M,OVC,M,M,M,2500.00,M,M,M,M,KAIO 010240Z AUTO 06007KT 10SM OVC025 07/04 A3008 RMK AO2
AIO,2017-04-01 02:50,-95.0465,41.4059,44.60,39.20,81.20,50.00,7.00,0.00,30.08,M,10.00,M,OVC,M,M,M,2400.00,M,M,M,M,KAIO 010250Z AUTO 05007KT 10SM OVC024 07/04 A3008 RMK AO2
AIO,2017-04-01 02:55,-95.0465,41.4059,44.60,41.00,87.09,60.00,6.00,0.00,30.09,M,10.00,M,OVC,M,M,M,2300.00,M,M,M,M,KAIO 010255Z AUTO 06006KT 10SM OVC023 07/05 A3009 RMK AO2
AIO,2017-04-01 03:00,-95.0465,41.4059,44.60,39.20,81.20,60.00,6.00,0.00,30.09,M,10.00,M,FEW,OVC,M,M,1800.00,2300.00,M,M,M,KAIO 010300Z AUTO 06006KT 10SM FEW018 OVC023 07/04 A3009 RMK AO2
AIO,2017-04-01 03:10,-95.0465,41.4059,44.60,39.20,81.20,60.00,6.00,0.00,30.10,M,10.00,M,OVC,M,M,M,2300.00,M,M,M,M,KAIO 010310Z AUTO 06006KT 10SM OVC023 07/04 A3010 RMK AO2
AIO,2017-04-01 03:15,-95.0465,41.4059,44.60,41.00,87.09,60.00,6.00,0.00,30.10,M,10.00,M,SCT,OVC,M,M,1700.00,2300.00,M,M,M,KAIO 010315Z AUTO 06006KT 10SM SCT017 OVC023 07/05 A3010 RMK AO2
AIO,2017-04-01 03:20,-95.0465,41.4059,44.60,41.00,87.09,50.00,7.00,0.00,30.09,M,10.00,M,BKN,OVC,M,M,1700.00,2300.00,M,M,M,KAIO 010320Z AUTO 05007KT 10SM BKN017 OVC023 07/05 A3009 RMK AO2
AIO,2017-04-01 03:30,-95.0465,41.4059,44.60,41.00,87.09,60.00,6.00,0.00,30.10,M,10.00,M,BKN,OVC,M,M,1500.00,2300.00,M,M,M,KAIO 010330Z AUTO 06006KT 10SM BKN015 OVC023 07/05 A3010 RMK AO2
AIO,2017-04-01 03:35,-95.0465,41.4059,44.60,39.20,81.20,60.00,7.00,0.00,30.10,M,10.00,M,BKN,OVC,M,M,1500.00,2300.00,M,M,M,KAIO 010335Z AUTO 06007KT 10SM BKN015 OVC023 07/04 A3010 RMK AO2
AIO,2017-04-01 03:40,-95.0465,41.4059,44.60,39.20,81.20,50.00,9.00,0.00,30.10,M,10.00,M,OVC,M,M,M,1500.00,M,M,M,M,KAIO 010340Z AUTO 05009KT 10SM OVC015 07/04 A3010 RMK AO2
AIO,2017-04-01 03:50,-95.0465,41.4059,44.60,39.20,81.20,60.00,6.00,0.00,30.11,M,10.00,M,OVC,M,M,M,1400.00,M,M,M,M,KAIO 010350Z AUTO 06006KT 10SM OVC014 07/04 A3011 RMK AO2
AIO,2017-04-01 03:55,-95.0465,41.4059,44.60,39.20,81.20,60.00,5.00,0.00,30.12,M,10.00,M,OVC,M,M,M,1400.00,M,M,M,M,KAIO 010355Z AUTO 06005KT 10SM OVC014 07/04 A3012 RMK AO2
AIO,2017-04-01 04:00,-95.0465,41.4059,44.60,39.20,81.20,60.00,5.00,0.00,30.12,M,10.00,M,OVC,M,M,M,1300.00,M,M,M,M,KAIO 010400Z AUTO 06005KT 10SM OVC013 07/04 A3012 RMK AO2
AIO,2017-04-01 04:10,-95.0465,41.4059,42.80,39.20,86.99,80.00,8.00,0.00,30.11,M,10.00,M,OVC,M,M,M,1300.00,M,M,M,M,KAIO 010410Z AUTO 08008KT 10SM OVC013 06/04 A3011 RMK AO2
AIO,2017-04-01 04:15,-95.0465,41.4059,42.80,39.20,86.99,70.00,7.00,0.00,30.12,M,10.00,12.00,OVC,M,M,M,1300.00,M,M,M,M,KAIO 010415Z AUTO 07007G12KT 10SM OVC013 06/04 A3012 RMK AO2
AIO,2017-04-01 04:20,-95.0465,41.4059,42.80,39.20,86.99,90.00,6.00,0.00,30.12,M,10.00,M,OVC,M,M,M,1300.00,M,M,M,M,KAIO 010420Z AUTO 09006KT 10SM OVC013 06/04 A3012 RMK AO2
AIO,2017-04-01 04:30,-95.0465,41.4059,42.80,39.20,86.99,80.00,7.00,0.00,30.12,M,10.00,M,OVC,M,M,M,1300.00,M,M,M,M,KAIO 010430Z AUTO 08007KT 10SM OVC013 06/04 A3012 RMK AO2
AIO,2017-04-01 04:35,-95.0465,41.4059,42.80,39.20,86.99,70.00,6.00,0.00,30.12,M,10.00,M,OVC,M,M,M,1400.00,M,M,M,M,KAIO 010435Z AUTO 07006KT 10SM OVC014 06/04 A3012 RMK AO2
AIO,2017-04-01 04:40,-95.0465,41.4059,42.80,39.20,86.99,70.00,6.00,0.00,30.12,M,10.00,M,OVC,M,M,M,1400.00,M,M,M,M,KAIO 010440Z AUTO 07006KT 10SM OVC014 06/04 A3012 RMK AO2
AIO,2017-04-01 04:50,-95.0465,41.4059,42.80,39.20,86.99,70.00,8.00,0.00,30.12,M,10.00,M,OVC,M,M,M,1400.00,M,M,M,M,KAIO 010450Z AUTO 07008KT 10SM OVC014 06/04 A3012 RMK AO2
AIO,2017-04-01 04:55,-95.0465,41.4059,42.80,39.20,86.99,60.00,8.00,0.00,30.12,M,10.00,M,OVC,M,M,M,1500.00,M,M,M,M,KAIO 010455Z AUTO 06008KT 10SM OVC015 06/04 A3012 RMK AO2
AIO,2017-04-01 05:00,-95.0465,41.4059,42.80,39.20,86.99,60.00,8.00,0.00,30.12,M,10.00,M,OVC,M,M,M,1500.00,M,M,M,M,KAIO 010500Z AUTO 06008KT 10SM OVC015 06/04 A3012 RMK AO2
AIO,2017-04-01 05:10,-95.0465,41.4059,42.80,37.40,81.07,60.00,7.00,0.00,30.12,M,10.00,M,BKN,OVC,M,M,1500.00,2000.00,M,M,M,KAIO 010510Z AUTO 06007KT 10SM BKN015 OVC020 06/03 A3012 RMK AO2
AIO,2017-04-01 05:15,-95.0465,41.4059,42.80,37.40,81.07,70.00,7.00,0.00,30.13,M,10.00,M,SCT,OVC,M,M,1500.00,2000.00,M,M,M,KAIO 010515Z AUTO 07007KT 10SM SCT015 OVC020 06/03 A3013 RMK AO2
AIO,2017-04-01 05:20,-95.0465,41.4059,42.80,37.40,81.07,70.00,5.00,0.00,30.13,M,10.00,M,OVC,M,M,M,1900.00,M,M,M,M,KAIO 010520Z AUTO 07005KT 10SM OVC019 06/03 A3013 RMK AO2
AIO,2017-04-01 05:30,-95.0465,41.4059,41.00,39.20,93.24,0.00,0.00,0.00,30.14,M,10.00,M,OVC,M,M,M,2000.00,M,M,M,M,KAIO 010530Z AUTO 00000KT 10SM OVC020 05/04 A3014 RMK AO2
AIO,2017-04-01 05:35,-95.0465,41.4059,41.00,39.20,93.24,M,4.00,0.00,30.14,M,10.00,M,OVC,M,M,M,2100.00,M,M,M,M,KAIO 010535Z AUTO VRB04KT 10SM OVC021 05/04 A3014 RMK AO2
AIO,2017-04-01 05:40,-95.0465,41.4059,41.00,39.20,93.24,80.00,3.00,0.00,30.14,M,10.00,M,OVC,M,M,M,2100.00,M,M,M,M,KAIO 010540Z AUTO 08003KT 10SM OVC021 05/04 A3014 RMK AO2
AIO,2017-04-01 05:50,-95.0465,41.4059,41.00,37.40,86.89,70.00,4.00,0.00,30.15,M,10.00,M,OVC,M,M,M,2100.00,M,M,M,M,KAIO 010550Z AUTO 07004KT 10SM OVC021 05/03 A3015 RMK AO2
AIO,2017-04-01 05:55,-95.0465,41.4059,41.00,37.40,86.89,70.00,5.00,0.00,30.15,M,10.00,M,OVC,M,M,M,2100.00,M,M,M,M,KAIO 010555Z AUTO 07005KT 10SM OVC021 05/03 A3015 RMK AO2
AIO,2017-04-01 06:00,-95.0465,41.4059,41.00,37.40,86.89,70.00,4.00,0.00,30.15,M,10.00,M,OVC,M,M,M,2100.00,M,M,M,M,KAIO 010600Z AUTO 07004KT 10SM OVC021 05/03 A3015 RMK AO2
AIO,2017-04-01 06:10,-95.0465,41.4059,41.00,39.20,93.24,70.00,3.00,0.00,30.16,M,10.00,M,OVC,M,M,M,2000.00,M,M,M,M,KAIO 010610Z AUTO 07003KT 10SM OVC020 05/04 A3016 RMK AO2
AIO,2017-04-01 06:15,-95.0465,41.4059,41.00,39.20,93.24,70.00,4.00,0.00,30.16,M,10.00,M,OVC,M,M,M,2000.00,M,M,M,M,KAIO 010615Z AUTO 07004KT 10SM OVC020 05/04 A3016 RMK AO2
AIO,2017-04-01 06:20,-95.0465,41.4059,41.00,39.20,93.24,60.00,4.00,0.00,30.16,M,10.00,M,OVC,M,M,M,2000.00,M,M,M,M,KAIO 010620Z AUTO 06004KT 10SM OVC020 05/04 A3016 RMK AO2
AIO,2017-04-01 06:30,-95.0465,41.4059,41.00,39.20,93.24,70.00,3.00,0.00,30.16,M,10.00,M,OVC,M,M,M,2000.00,M,M,M,M,KAIO 010630Z AUTO 07003KT 10SM OVC020 05/04 A3016 RMK AO2
AIO,2017-04-01 06:35,-95.0465,41.4059,41.00,39.20,93.24,0.00,0.00,0.00,30.16,M,10.00,M,OVC,M,M,M,1900.00,M,M,M,M,KAIO 010635Z AUTO 00000KT 10SM OVC019 05/04 A3016 RMK AO2
AIO,2017-04-01 06:40,-95.0465,41.4059,41.00,39.20,93.24,0.00,0.00,0.00,30.17,M,10.00,M,OVC,M,M,M,1900.00,M,M,M,M,KAIO 010640Z AUTO 00000KT 10SM OVC019 05/04 A3017 RMK AO2
AIO,2017-04-01 06:50,-95.0465,41.4059,41.00,39.20,93.24,0.00,0.00,0.00,30.17,M,10.00,M,OVC,M,M,M,1700.00,M,M,M,M,KAIO 010650Z AUTO 00000KT 10SM OVC017 05/04 A3017 RMK AO2
AIO,2017-04-01 06:55,-95.0465,41.4059,41.00,39.20,93.24,0.00,0.00,0.00,30.17,M,10.00,M,OVC,M,M,M,1700.00,M,M,M,M,KAIO 010655Z AUTO 00000KT 10SM OVC017 05/04 A3017 RMK AO2
AIO,2017-04-01 07:00,-95.0465,41.4059,41.00,37.40,86.89,90.00,4.00,0.00,30.17,M,10.00,M,OVC,M,M,M,1700.00,M,M,M,M,KAIO 010700Z AUTO 09004KT 10SM OVC017 05/03 A3017 RMK AO2
AIO,2017-04-01 07:10,-95.0465,41.4059,41.00,37.40,86.89,80.00,4.00,0.00,30.17,M,10.00,M,OVC,M,M,M,1600.00,M,M,M,M,KAIO 010710Z AUTO 08004KT 10SM OVC016 05/03 A3017 RMK AO2
AIO,2017-04-01 07:15,-95.0465,41.4059,41.00,37.40,86.89,70.00,4.00,0.00,30.17,M,10.00,M,OVC,M,M,M,1600.00,M,M,M,M,KAIO 010715Z AUTO 07004KT 10SM OVC016 05/03 A3017 RMK AO2
AIO,2017-04-01 07:20,-95.0465,41.4059,41.00,37.40,86.89,60.00,5.00,0.00,30.17,M,10.00,M,OVC,M,M,M,1500.00,M,M,M,M,KAIO 010720Z AUTO 06005KT 10SM OVC015 05/03 A3017 RMK AO2
AIO,2017-04-01 07:30,-95.0465,41.4059,41.00,37.40,86.89,80.00,6.00,0.00,30.16,M,10.00,M,OVC,M,M,M,1500.00,M,M,M,M,KAIO 010730Z AUTO 08006KT 10SM OVC015 05/03 A3016 RMK AO2
AIO,2017-04-01 07:35,-95.0465,41.4059,41.00,37.40,86.89,90.00,6.00,0.00,30.16,M,10.00,M,OVC,M,M,M,1500.00,M,M,M,M,KAIO 010735Z AUTO 09006KT 10SM OVC015 05/03 A3016 RMK AO2
AIO,2017-04-01 07:40,-95.0465,41.4059,41.00,37.40,86.89,80.00,6.00,0.00,30.15,M,10.00,M,OVC,M,M,M,1500.00,M,M,M,M,KAIO 010740Z AUTO 08006KT 10SM OVC015 05/03 A3015 RMK AO2
AIO,2017-04-01 07:50,-95.0465,41.4059,41.00,37.40,86.89,90.00,4.00,0.00,30.15,M,10.00,M,OVC,M,M,M,1500.00,M,M,M,M,KAIO 010750Z AUTO 09004KT 10SM OVC015 05/03 A3015 RMK AO2
AIO,2017-04-01 07:55,-95.0465,41.4059,41.00,37.40,86.89,90.00,8.00,0.00,30.15,M,10.00,M,OVC,M,M,M,1500.00,M,M,M,M,KAIO 010755Z AUTO 09008KT 10SM OVC015 05/03 A3015 RMK AO2
AIO,2017-04-01 08:00,-95.0465,41.4059,41.00,37.40,86.89,90.00,7.00,0.00,30.15,M,10.00,M,OVC,M,M,M,1400.00,M,M,M,M,KAIO 010800Z AUTO 09007KT 10SM OVC014 05/03 A3015 RMK AO2
AIO,2017-04-01 08:10,-95.0465,41.4059,41.00,37.40,86.89,110.00,6.00,0.00,30.16,M,10.00,M,OVC,M,M,M,1400.00,M,M,M,M,KAIO 010810Z AUTO 11006KT 10SM OVC014 05/03 A3016 RMK AO2
AIO,2017-04-01 08:15,-95.0465,41.4059,41.00,37.40,86.89,100.00,8.00,0.00,30.15,M,10.00,M,OVC,M,M,M,1400.00,M,M,M,M,KAIO 010815Z AUTO 10008KT 10SM OVC014 05/03 A3015 RMK AO2
AIO,2017-04-01 08:20,-95.0465,41.4059,41.00,37.40,86.89,80.00,5.00,0.00,30.15,M,10.00,10.00,OVC,M,M,M,1400.00,M,M,M,M,KAIO 010820Z AUTO 08005G10KT 10SM OVC014 05/03 A3015 RMK AO2
AIO,2017-04-01 08:30,-95.0465,41.4059,41.00,37.40,86.89,110.00,7.00,0.00,30.15,M,10.00,M,OVC,M,M,M,1400.00,M,M,M,M,KAIO 010830Z AUTO 11007KT 10SM OVC014 05/03 A3015 RMK AO2
AIO,2017-04-01 08:35,-95.0465,41.4059,41.00,37.40,86.89,100.00,6.00,0.00,30.16,M,10.00,M,OVC,M,M,M,1400.00,M,M,M,M,KAIO 010835Z AUTO 10006KT 10SM OVC014 05/03 A3016 RMK AO2
AIO,2017-04-01 08:40,-95.0465,41.4059,41.00,37.40,86.89,100.00,4.00,0.00,30.16,M,10.00,M,OVC,M,M,M,1400.00,M,M,M,M,KAIO 010840Z AUTO 10004KT 10SM OVC014 05/03 A3016 RMK AO2
AIO,2017-04-01 08:50,-95.0465,41.4059,41.00,37.40,86.89,80.00,4.00,0.00,30.16,M,10.00,M,OVC,M,M,M,1400.00,M,M,M,M,KAIO 010850Z AUTO 08004KT 10SM OVC014 05/03 A3016 RMK AO2
AIO,2017-04-01 08:55,-95.0465,41.4059,41.00,37.40,86.89,100.00,4.00,0.00,30.16,M,10.00,M,OVC,M,M,M,1400.00,M,M,M,M,KAIO 010855Z AUTO 10004KT 10SM OVC014 05/03 A3016 RMK AO2
AIO,2017-04-01 09:00,-95.0465,41.4059,41.00,37.40,86.89,0.00,0.00,0.00,30.17,M,10.00,M,OVC,M,M,M,1400.00,M,M,M,M,KAIO 010900Z AUTO 00000KT 10SM OVC014 05/03 A3017 RMK AO2
AIO,2017-04-01 09:10,-95.0465,41.4059,41.00,37.40,86.89,80.00,4.00,0.00,30.17,M,10.00,M,OVC,M,M,M,1400.00,M,M,M,M,KAIO 010910Z AUTO 08004KT 10SM OVC014 05/03 A3017 RMK AO2
AIO,2017-04-01 09:15,-95.0465,41.4059,41.00,37.40,86.89,80.00,4.00,0.00,30.17,M,10.00,M,OVC,M,M,M,1400.00,M,M,M,M,KAIO 010915Z AUTO 08004KT 10SM OVC014 05/03 A3017 RMK AO2
AIO,2017-04-01 09:20,-95.0465,41.4059,41.00,37.40,86.89,70.00,4.00,0.00,30.17,M,10.00,M,OVC,M,M,M,1400.00,M,M,M,M,KAIO 010920Z AUTO 07004KT 10SM OVC014 05/03 A3017 RMK AO2
AIO,2017-04-01 09:30,-95.0465,41.4059,41.00,37.40,86.89,60.00,4.00,0.00,30.17,M,10.00,M,OVC,M,M,M,1400.00,M,M,M,M,KAIO 010930Z AUTO 06004KT 10SM OVC014 05/03 A3017 RMK AO2
AIO,2017-04-01 09:35,-95.0465,41.4059,41.00,37.40,86.89,0.00,0.00,0.00,30.18,M,10.00,M,OVC,M,M,M,1400.00,M,M,M,M,KAIO 010935Z AUTO 00000KT 10SM OVC014 05/03 A3018 RMK AO2
AIO,2017-04-01 09:40,-95.0465,41.4059,41.00,37.40,86.89,0.00,0.00,0.00,30.18,M,10.00,M,OVC,M,M,M,1400.00,M,M,M,M,KAIO 010940Z AUTO 00000KT 10SM OVC014 05/03 A3018 RMK AO2
AIO,2017-04-01 09:50,-95.0465,41.4059,41.00,37.40,86.89,0.00,0.00,0.00,30.19,M,10.00,M,OVC,M,M,M,1400.00,M,M,M,M,KAIO 010950Z AUTO 00000KT 10SM OVC014 05/03 A3019 RMK AO2
AIO,2017-04-01 09:55,-95.0465,41.4059,41.00,37.40,86.89,0.00,0.00,0.00,30.19,M,10.00,M,OVC,M,M,M,1400.00,M,M,M,M,KAIO 010955Z AUTO 00000KT 10SM OVC014 05/03 A3019 RMK AO2
AIO,2017-04-01 10:00,-95.0465,41.4059,41.00,37.40,86.89,0.00,0.00,0.00,30.20,M,10.00,M,OVC,M,M,M,1500.00,M,M,M,M,KAIO 011000Z AUTO 00000KT 10SM OVC015 05/03 A3020 RMK AO2
AIO,2017-04-01 10:10,-95.0465,41.4059,41.00,37.40,86.89,10.00,3.00,0.00,30.19,M,10.00,M,OVC,M,M,M,1500.00,M,M,M,M,KAIO 011010Z AUTO 01003KT 10SM OVC015 05/03 A3019 RMK AO2
AIO,2017-04-01 10:15,-95.0465,41.4059,41.00,37.40,86.89,20.00,3.00,0.00,30.19,M,10.00,M,OVC,M,M,M,1500.00,M,M,M,M,KAIO 011015Z AUTO 02003KT 10SM OVC015 05/03 A3019 RMK AO2
AIO,2017-04-01 10:20,-95.0465,41.4059,41.00,37.40,86.89,30.00,4.00,0.00,30.19,M,10.00,M,OVC,M,M,M,1500.00,M,M,M,M,KAIO 011020Z AUTO 03004KT 10SM OVC015 05/03 A3019 RMK AO2
AIO,2017-04-01 10:30,-95.0465,41.4059,41.00,37.40,86.89,40.00,3.00,0.00,30.19,M,10.00,M,OVC,M,M,M,1500.00,M,M,M,M,KAIO 011030Z AUTO 04003KT 10SM OVC015 05/03 A3019 RMK AO2
AIO,2017-04-01 10:35,-95.0465,41.4059,41.00,37.40,86.89,40.00,3.00,0.00,30.19,M,10.00,M,OVC,M,M,M,1500.00,M,M,M,M,KAIO 011035Z AUTO 04003KT 10SM OVC015 05/03 A3019 RMK AO2
AIO,2017-04-01 10:40,-95.0465,41.4059,41.00,37.40,86.89,0.00,0.00,0.00,30.20,M,10.00,M,OVC,M,M,M,1500.00,M,M,M,M,KAIO 011040Z AUTO 00000KT 10SM OVC015 05/03 A3020 RMK AO2
AIO,2017-04-01 10:50,-95.0465,41.4059,41.00,37.40,86.89,50.00,4.00,0.00,30.19,M,10.00,M,OVC,M,M,M,1500.00,M,M,M,M,KAIO 011050Z AUTO 05004KT 10SM OVC015 05/03 A3019 RMK AO2
AIO,2017-04-01 10:55,-95.0465,41.4059,41.00,37.40,86.89,40.00,4.00,0.00,30.20,M,10.00,M,OVC,M,M,M,1500.00,M,M,M,M,KAIO 011055Z AUTO 04004KT 10SM OVC015 05/03 A3020 RMK AO2
AIO,2017-04-01 11:00,-95.0465,41.4059,41.00,37.40,86.89,40.00,3.00,0.00,30.20,M,10.00,M,OVC,M,M,M,1600.00,M,M,M,M,KAIO 011100Z AUTO 04003KT 10SM OVC016 05/03 A3020 RMK AO2
AIO,2017-04-01 11:10,-95.0465,41.4059,41.00,37.40,86.89,60.00,3.00,0.00,30.20,M,10.00,M,OVC,M,M,M,1600.00,M,M,M,M,KAIO 011110Z AUTO 06003KT 10SM OVC016 05/03 A3020 RMK AO2
AIO,2017-04-01 11:15,-95.0465,41.4059,41.00,37.40,86.89,60.00,3.00,0.00,30.21,M,10.00,M,OVC,M,M,M,1600.00,M,M,M,M,KAIO 011115Z AUTO 06003KT 10SM OVC016 05/03 A3021 RMK AO2
AIO,2017-04-01 11:20,-95.0465,41.4059,41.00,37.40,86.89,60.00,4.00,0.00,30.20,M,10.00,M,OVC,M,M,M,1700.00,M,M,M,M,KAIO 011120Z AUTO 06004KT 10SM OVC017 05/03 A3020 RMK AO2
AIO,2017-04-01 11:30,-95.0465,41.4059,41.00,37.40,86.89,60.00,3.00,0.00,30.20,M,10.00,M,OVC,M,M,M,1600.00,M,M,M,M,KAIO 011130Z AUTO 06003KT 10SM OVC016 05/03 A3020 RMK AO2
AIO,2017-04-01 11:35,-95.0465,41.4059,41.00,37.40,86.89,60.00,3.00,0.00,30.20,M,10.00,M,OVC,M,M,M,1700.00,M,M,M,M,KAIO 011135Z AUTO 06003KT 10SM OVC017 05/03 A3020 RMK AO2
AIO,2017-04-01 11:40,-95.0465,41.4059,41.00,37.40,86.89,60.00,4.00,0.00,30.20,M,10.00,M,OVC,M,M,M,1700.00,M,M,M,M,KAIO 011140Z AUTO 06004KT 10SM OVC017 05/03 A3020 RMK AO2
AIO,2017-04-01 11:50,-95.0465,41.4059,41.00,37.40,86.89,60.00,3.00,0.00,30.21,M,10.00,M,OVC,M,M,M,1700.00,M,M,M,M,KAIO 011150Z AUTO 06003KT 10SM OVC017 05/03 A3021 RMK AO2
AIO,2017-04-01 11:55,-95.0465,41.4059,41.00,37.40,86.89,50.00,4.00,0.00,30.21,M,10.00,M,OVC,M,M,M,1700.00,M,M,M,M,KAIO 011155Z AUTO 05004KT 10SM OVC017 05/03 A3021 RMK AO2
AIO,2017-04-01 12:00,-95.0465,41.4059,41.00,37.40,86.89,60.00,4.00,0.00,30.21,M,10.00,M,OVC,M,M,M,1700.00,M,M,M,M,KAIO 011200Z AUTO 06004KT 10SM OVC017 05/03 A3021 RMK AO2
AIO,2017-04-01 12:10,-95.0465,41.4059,39.20,37.40,93.19,60.00,3.00,0.00,30.22,M,10.00,M,OVC,M,M,M,1700.00,M,M,M,M,KAIO 011210Z AUTO 06003KT 10SM OVC017 04/03 A3022 RMK AO2
AIO,2017-04-01 12:15,-95.0465,41.4059,39.20,37.40,93.19,50.00,3.00,0.00,30.22,M,10.00,M,OVC,M,M,M,1700.00,M,M,M,M,KAIO 011215Z AUTO 05003KT 10SM OVC017 04/03 A3022 RMK AO2
AIO,2017-04-01 12:20,-95.0465,41.4059,39.20,37.40,93.19,40.00,4.00,0.00,30.22,M,10.00,M,BKN,M,M,M,1600.00,M,M,M,M,KAIO 011220Z AUTO 04004KT 10SM BKN016 04/03 A3022 RMK AO2
AIO,2017-04-01 12:30,-95.0465,41.4059,39.20,37.40,93.19,40.00,3.00,0.00,30.22,M,10.00,M,SCT,M,M,M,1600.00,M,M,M,M,KAIO 011230Z AUTO 04003KT 10SM SCT016 04/03 A3022 RMK AO2
AIO,2017-04-01 12:35,-95.0465,41.4059,39.20,37.40,93.19,40.00,4.00,0.00,30.22,M,10.00,M,SCT,M,M,M,1600.00,M,M,M,M,KAIO 011235Z AUTO 04004KT 10SM SCT016 04/03 A3022 RMK AO2
AIO,2017-04-01 12:40,-95.0465,41.4059,39.20,37.40,93.19,30.00,3.00,0.00,30.23,M,10.00,M,FEW,M,M,M,1600.00,M,M,M,M,KAIO 011240Z AUTO 03003KT 10SM FEW016 04/03 A3023 RMK AO2
AIO,2017-04-01 12:50,-95.0465,41.4059,39.20,37.40,93.19,30.00,3.00,0.00,30.23,M,10.00,M,CLR,M,M,M,M,M,M,M,M,KAIO 011250Z AUTO 03003KT 10SM CLR 04/03 A3023 RMK AO2
AIO,2017-04-01 12:55,-95.0465,41.4059,39.20,37.40,93.19,0.00,0.00,0.00,30.24,M,10.00,M,CLR,M,M,M,M,M,M,M,M,KAIO 011255Z AUTO 00000KT 10SM CLR 04/03 A3024 RMK AO2
AIO,2017-04-01 13:00,-95.0465,41.4059,39.20,37.40,93.19,0.00,0.00,0.00,30.24,M,10.00,M,CLR,M,M,M,M,M,M,M,M,KAIO 011300Z AUTO 00000KT 10SM CLR 04/03 A3024 RMK AO2
AIO,2017-04-01 13:10,-95.0465,41.4059,39.20,37.40,93.19,60.00,3.00,0.00,30.24,M,10.00,M,CLR,M,M,M,M,M,M,M,M,KAIO 011310Z AUTO 06003KT 10SM CLR 04/03 A3024 RMK AO2
AIO,2017-04-01 13:15,-95.0465,41.4059,39.20,37.40,93.19,60.00,4.00,0.00,30.23,M,10.00,M,CLR,M,M,M,M,M,M,M,M,KAIO 011315Z AUTO 06004KT 10SM CLR 04/03 A3023 RMK AO2
AIO,2017-04-01 13:20,-95.0465,41.4059,39.20,37.40,93.19,50.00,3.00,0.00,30.23,M,10.00,M,CLR,M,M,M,M,M,M,M,M,KAIO 011320Z AUTO 05003KT 10SM CLR 04/03 A3023 RMK AO2
AIO,2017-04-01 13:30,-95.0465,41.4059,41.00,37.40,86.89,50.00,5.00,0.00,30.23,M,10.00,M,CLR,M,M,M,M,M,M,M,M,KAIO 011330Z AUTO 05005KT 10SM CLR 05/03 A3023 RMK AO2
AIO,2017-04-01 13:35,-95.0465,41.4059,41.00,37.40,86.89,40.00,6.00,0.00,30.22,M,10.00,M,CLR,M,M,M,M,M,M,M,M,KAIO 011335Z AUTO 04006KT 10SM CLR 05/03 A3022 RMK AO2
AIO,2017-04-01 13:40,-95.0465,41.4059,41.00,37.40,86.89,50.00,6.00,0.00,30.22,M,10.00,M,CLR,M,M,M,M,M,M,M,M,KAIO 011340Z AUTO 05006KT 10SM CLR 05/03 A3022 RMK AO2
AIO,2017-04-01 13:50,-95.0465,41.4059,41.00,37.40,86.89,50.00,6.00,0.00,30.22,M,10.00,M,CLR,M,M,M,M,M,M,M,M,KAIO 011350Z AUTO 05006KT 10SM CLR 05/03 A3022 RMK AO2
AIO,2017-04-01 13:55,-95.0465,41.4059,41.00,37.40,86.89,70.00,5.00,0.00,30.22,M,10.00,M,CLR,M,M,M,M,M,M,M,M,KAIO 011355Z AUTO 07005KT 10SM CLR 05/03 A3022 RMK AO2
AIO,2017-04-01 14:00,-95.0465,41.4059,41.00,37.40,86.89,70.00,6.00,0.00,30.22,M,10.00,M,CLR,M,M,M,M,M,M,M,M,KAIO 011400Z AUTO 07006KT 10SM CLR 05/03 A3022 RMK AO2
AIO,2017-04-01 14:10,-95.0465,41.4059,41.00,37.40,86.89,80.00,5.00,0.00,30.22,M,10.00,M,CLR,M,M,M,M,M,M,M,M,KAIO 011410Z AUTO 08005KT 10SM CLR 05/03 A3022 RMK AO2
AIO,2017-04-01 14:15,-95.0465,41.4059,41.00,37.40,86.89,70.00,6.00,0.00,30.22,M,10.00,M,CLR,M,M,M,M,M,M,M,M,KAIO 011415Z AUTO 07006KT 10SM CLR 05/03 A3022 RMK AO2
AIO,2017-04-01 14:20,-95.0465,41.4059,41.00,37.40,86.89,80.00,7.00,0.00,30.23,M,10.00,M,CLR,M,M,M,M,M,M,M,M,KAIO 011420Z AUTO 08007KT 10SM CLR 05/03 A3023 RMK AO2
AIO,2017-04-01 14:30,-95.0465,41.4059,41.00,37.40,86.89,80.00,4.00,0.00,30.23,M,10.00,10.00,CLR,M,M,M,M,M,M,M,M,KAIO 011430Z AUTO 08004G10KT 10SM CLR 05/03 A3023 RMK AO2
AIO,2017-04-01 14:35,-95.0465,41.4059,41.00,37.40,86.89,70.00,5.00,0.00,30.23,M,10.00,M,CLR,M,M,M,M,M,M,M,M,KAIO 011435Z AUTO 07005KT 10SM CLR 05/03 A3023 RMK AO2
AIO,2017-04-01 14:40,-95.0465,41.4059,42.80,37.40,81.07,90.00,5.00,0.00,30.24,M,10.00,M,CLR,M,M,M,M,M,M,M,M,KAIO 011440Z AUTO 09005KT 10SM CLR 06/03 A3024 RMK AO2
AIO,2017-04-01 14:50,-95.0465,41.4059,42.80,37.40,81.07,90.00,6.00,0.00,30.24,M,10.00,M,CLR,M,M,M,M,M,M,M,M,KAIO 011450Z AUTO 09006KT 10SM CLR 06/03 A3024 RMK AO2
AIO,2017-04-01 14:55,-95.0465,41.4059,42.80,37.40,81.07,100.00,6.00,0.00,30.24,M,10.00,M,CLR,M,M,M,M,M,M,M,M,KAIO 011455Z AUTO 10006KT 10SM CLR 06/03 A3024 RMK AO2
AIO,2017-04-01 15:00,-95.0465,41.4059,42.80,37.40,81.07,120.00,4.00,0.00,30.25,M,10.00,10.00,CLR,M,M,M,M,M,M,M,M,KAIO 011500Z AUTO 12004G10KT 10SM CLR 06/03 A3025 RMK AO2
AIO,2017-04-01 15:10,-95.0465,41.4059,42.80,37.40,81.07,90.00,5.00,0.00,30.25,M,10.00,M,CLR,M,M,M,M,M,M,M,M,KAIO 011510Z AUTO 09005KT 10SM CLR 06/03 A3025 RMK AO2
AIO,2017-04-01 15:15,-95.0465,41.4059,42.80,37.40,81.07,90.00,6.00,0.00,30.24,M,10.00,M,CLR,M,M,M,M,M,M,M,M,KAIO 011515Z AUTO 09006KT 10SM CLR 06/03 A3024 RMK AO2
AIO,2017-04-01 15:20,-95.0465,41.4059,42.80,37.40,81.07,80.00,5.00,0.00,30.24,M,10.00,10.00,CLR,M,M,M,M,M,M,M,M,KAIO 011520Z AUTO 08005G10KT 10SM CLR 06/03 A3024 RMK AO2
AIO,2017-04-01 15:30,-95.0465,41.4059,42.80,37.40,81.07,60.00,6.00,0.00,30.24,M,10.00,M,CLR,M,M,M,M,M,M,M,M,KAIO 011530Z AUTO 06006KT 10SM CLR 06/03 A3024 RMK AO2
AIO,2017-04-01 15:35,-95.0465,41.4059,42.80,37.40,81.07,70.00,7.00,0.00,30.24,M,10.00,M,CLR,M,M,M,M,M,M,M,M,KAIO 011535Z AUTO 07007KT 10SM CLR 06/03 A3024 RMK AO2
AIO,2017-04-01 15:40,-95.0465,41.4059,42.80,37.40,81.07,60.00,7.00,0.00,30.24,M,10.00,M,CLR,M,M,M,M,M,M,M,M,KAIO 011540Z AUTO 06007KT 10SM CLR 06/03 A3024 RMK AO2
AIO,2017-04-01 15:50,-95.0465,41.4059,44.60,39.20,81.20,60.00,7.00,0.00,30.23,M,10.00,M,FEW,M,M,M,10000.00,M,M,M,M,KAIO 011550Z AUTO 06007KT 10SM FEW100 07/04 A3023 RMK AO2
AIO,2017-04-01 15:55,-95.0465,41.4059,44.60,37.40,75.68,80.00,8.00,0.00,30.23,M,10.00,M,CLR,M,M,M,M,M,M,M,M,KAIO 011555Z AUTO 08008KT 10SM CLR 07/03 A3023 RMK AO2
AIO,2017-04-01 16:00,-95.0465,41.4059,44.60,37.40,75.68,70.00,8.00,0.00,30.23,M,10.00,M,CLR,M,M,M,M,M,M,M,M,KAIO 011600Z AUTO 07008KT 10SM CLR 07/03 A3023 RMK AO2
AIO,2017-04-01 16:10,-95.0465,41.4059,44.60,37.40,75.68,60.00,7.00,0.00,30.23,M,10.00,M,CLR,M,M,M,M,M,M,M,M,KAIO 011610Z AUTO 06007KT 10SM CLR 07/03 A3023 RMK AO2
AIO,2017-04-01 16:15,-95.0465,41.4059,44.60,37.40,75.68,80.00,8.00,0.00,30.23,M,10.00,M,CLR,M,M,M,M,M,M,M,M,KAIO 011615Z AUTO 08008KT 10SM CLR 07/03 A3023 RMK AO2
AIO,2017-04-01 16:20,-95.0465,41.4059,44.60,37.40,75.68,80.00,8.00,0.00,30.24,M,10.00,M,CLR,M,M,M,M,M,M,M,M,KAIO 011620Z AUTO 08008KT 10SM CLR 07/03 A3024 RMK AO2
AIO,2017-04-01 16:30,-95.0465,41.4059,44.60,37.40,75.68,80.00,6.00,0.00,30.24,M,10.00,M,CLR,M,M,M,M,M,M,M,M,KAIO 011630Z AUTO 08006KT 10SM CLR 07/03 A3024 RMK AO2
AIO,2017-04-01 16:35,-95.0465,41.4059,44.60,37.40,75.68,90.00,7.00,0.00,30.24,M,10.00,M,CLR,M,M,M,M,M,M,M,M,KAIO 011635Z AUTO 09007KT 10SM CLR 07/03 A3024 RMK AO2
AIO,2017-04-01 16:40,-95.0465,41.4059,46.40,37.40,70.68,120.00,7.00,0.00,30.24,M,10.00,M,CLR,M,M,M,M,M,M,M,M,KAIO 011640Z AUTO 12007KT 090V150 10SM CLR 08/03 A3024 RMK AO2
AIO,2017-04-01 16:50,-95.0465,41.4059,46.40,37.40,70.68,120.00,6.00,0.00,30.24,M,10.00,M,CLR,M,M,M,M,M,M,M,M,KAIO 011650Z AUTO 12006KT 10SM CLR 08/03 A3024 RMK AO2
AIO,2017-04-01 16:55,-95.0465,41.4059,46.40,37.40,70.68,110.00,7.00,0.00,30.24,M,10.00,M,CLR,M,M,M,M,M,M,M,M,KAIO 011655Z AUTO 11007KT 10SM CLR 08/03 A3024 RMK AO2
AIO,2017-04-01 17:00,-95.0465,41.4059,46.40,37.40,70.68,120.00,6.00,0.00,30.24,M,10.00,M,CLR,M,M,M,M,M,M,M,M,KAIO 011700Z AUTO 12006KT 10SM CLR 08/03 A3024 RMK AO2
AIO,2017-04-01 17:10,-95.0465,41.4059,44.60,37.40,75.68,140.00,8.00,0.00,30.24,M,10.00,M,CLR,M,M,M,M,M,M,M,M,KAIO 011710Z AUTO 14008KT 10SM CLR 07/03 A3024 RMK AO2
AIO,2017-04-01 17:15,-95.0465,41.4059,44.60,37.40,75.68,140.00,8.00,0.00,30.24,M,10.00,M,CLR,M,M,M,M,M,M,M,M,KAIO 011715Z AUTO 14008KT 10SM CLR 07/03 A3024 RMK AO2
AIO,2017-04-01 17:20,-95.0465,41.4059,44.60,37.40,75.68,130.00,6.00,0.00,30.24,M,10.00,M,CLR,M,M,M,M,M,M,M,M,KAIO 011720Z AUTO 13006KT 10SM CLR 07/03 A3024 RMK AO2
AIO,2017-04-01 17:30,-95.0465,41.4059,44.60,37.40,75.68,120.00,5.00,0.00,30.23,M,10.00,M,CLR,M,M,M,M,M,M,M,M,KAIO 011730Z AUTO 12005KT 10SM CLR 07/03 A3023 RMK AO2
AIO,2017-04-01 17:35,-95.0465,41.4059,44.60,37.40,75.68,140.00,6.00,0.00,30.23,M,10.00,M,CLR,M,M,M,M,M,M,M,M,KAIO 011735Z AUTO 14006KT 10SM CLR 07/03 A3023 RMK AO2
AIO,2017-04-01 17:40,-95.0465,41.4059,44.60,37.40,75.68,150.00,6.00,0.00,30.24,M,10.00,M,CLR,M,M,M,M,M,M,M,M,KAIO 011740Z AUTO 15006KT 10SM CLR 07/03 A3024 RMK AO2
AIO,2017-04-01 17:50,-95.0465,41.4059,44.60,37.40,75.68,140.00,7.00,0.00,30.23,M,10.00,M,CLR,M,M,M,M,M,M,M,M,KAIO 011750Z AUTO 14007KT 10SM CLR 07/03 A3023 RMK AO2
AIO,2017-04-01 17:55,-95.0465,41.4059,44.60,37.40,75.68,140.00,8.00,0.00,30.22,M,10.00,M,CLR,M,M,M,M,M,M,M,M,KAIO 011755Z AUTO 14008KT 10SM CLR 07/03 A3022 RMK AO2
AIO,2017-04-01 18:00,-95.0465,41.4059,44.60,37.40,75.68,140.00,7.00,0.00,30.22,M,10.00,M,CLR,M,M,M,M,M,M,M,M,KAIO 011800Z AUTO 14007KT 10SM CLR 07/03 A3022 RMK AO2
AIO,2017-04-01 18:10,-95.0465,41.4059,46.40,39.20,75.84,120.00,6.00,0.00,30.21,M,10.00,M,CLR,M,M,M,M,M,M,M,M,KAIO 011810Z AUTO 12006KT 10SM CLR 08/04 A3021 RMK AO2
AIO,2017-04-01 18:15,-95.0465,41.4059,46.40,39.20,75.84,M,6.00,0.00,30.21,M,10.00,M,CLR,M,M,M,M,M,M,M,M,KAIO 011815Z AUTO VRB06KT 10SM CLR 08/04 A3021 RMK AO2
AIO,2017-04-01 18:20,-95.0465,41.4059,46.40,37.40,70.68,100.00,6.00,0.00,30.21,M,10.00,M,FEW,M,M,M,8000.00,M,M,M,M,KAIO 011820Z AUTO 10006KT 10SM FEW080 08/03 A3021 RMK AO2
AIO,2017-04-01 18:30,-95.0465,41.4059,46.40,39.20,75.84,60.00,6.00,0.00,30.21,M,10.00,M,SCT,M,M,M,7500.00,M,M,M,M,KAIO 011830Z AUTO 06006KT 10SM SCT075 08/04 A3021 RMK AO2
AIO,2017-04-01 18:35,-95.0465,41.4059,46.40,37.40,70.68,90.00,6.00,0.00,30.21,M,10.00,M,BKN,M,M,M,7500.00,M,M,M,M,KAIO 011835Z AUTO 09006KT 10SM BKN075 08/03 A3021 RMK AO2
AIO,2017-04-01 18:40,-95.0465,41.4059,46.40,37.40,70.68,M,4.00,0.00,30.21,M,10.00,M,BKN,M,M,M,7500.00,M,M,M,M,KAIO 011840Z AUTO VRB04KT 10SM BKN075 08/03 A3021 RMK AO2
AIO,2017-04-01 18:50,-95.0465,41.4059,46.40,37.40,70.68,120.00,5.00,0.00,30.21,M,10.00,M,OVC,M,M,M,7500.00,M,M,M,M,KAIO 011850Z AUTO 12005KT 10SM OVC075 08/03 A3021 RMK AO2
AIO,2017-04-01 18:55,-95.0465,41.4059,48.20,37.40,66.05,90.00,7.00,0.00,30.21,M,10.00,M,OVC,M,M,M,7500.00,M,M,M,M,KAIO 011855Z AUTO 09007KT 10SM OVC075 09/03 A3021 RMK AO2
AIO,2017-04-01 19:00,-95.0465,41.4059,48.20,37.40,66.05,60.00,7.00,0.00,30.21,M,10.00,M,BKN,M,M,M,7500.00,M,M,M,M,KAIO 011900Z AUTO 06007KT 10SM BKN075 09/03 A3021 RMK AO2
AIO,2017-04-01 19:10,-95.0465,41.4059,48.20,37.40,66.05,M,5.00,0.00,30.21,M,10.00,M,BKN,M,M,M,7500.00,M,M,M,M,KAIO 011910Z AUTO VRB05KT 10SM BKN075 09/03 A3021 RMK AO2
AIO,2017-04-01 19:15,-95.0465,41.4059,48.20,37.40,66.05,80.00,9.00,0.00,30.20,M,10.00,M,BKN,M,M,M,7500.00,M,M,M,M,KAIO 011915Z AUTO 08009KT 10SM BKN075 09/03 A3020 RMK AO2
AIO,2017-04-01 19:20,-95.0465,41.4059,48.20,37.40,66.05,80.00,8.00,0.00,30.19,M,10.00,M,BKN,M,M,M,7500.00,M,M,M,M,KAIO 011920Z AUTO 08008KT 10SM BKN075 09/03 A3019 RMK AO2
AIO,2017-04-01 19:30,-95.0465,41.4059,48.20,39.20,70.88,90.00,8.00,0.00,30.18,M,10.00,M,BKN,M,M,M,7500.00,M,M,M,M,KAIO 011930Z AUTO 09008KT 10SM BKN075 09/04 A3018 RMK AO2
AIO,2017-04-01 19:35,-95.0465,41.4059,48.20,37.40,66.05,80.00,9.00,0.00,30.17,M,10.00,M,BKN,M,M,M,7500.00,M,M,M,M,KAIO 011935Z AUTO 08009KT 10SM BKN075 09/03 A3017 RMK AO2
AIO,2017-04-01 19:40,-95.0465,41.4059,48.20,37.40,66.05,100.00,10.00,0.00,30.17,M,10.00,M,SCT,M,M,M,7500.00,M,M,M,M,KAIO 011940Z AUTO 10010KT 10SM SCT075 09/03 A3017 RMK AO2
AIO,2017-04-01 19:50,-95.0465,41.4059,50.00,37.40,61.76,90.00,10.00,0.00,30.16,M,10.00,M,FEW,M,M,M,7500.00,M,M,M,M,KAIO 011950Z AUTO 09010KT 10SM FEW075 10/03 A3016 RMK AO2
AIO,2017-04-01 19:55,-95.0465,41.4059,50.00,37.40,61.76,100.00,6.00,0.00,30.17,M,10.00,12.00,CLR,M,M,M,M,M,M,M,M,KAIO 011955Z AUTO 10006G12KT 10SM CLR 10/03 A3017 RMK AO2
AIO,2017-04-01 20:00,-95.0465,41.4059,50.00,37.40,61.76,100.00,8.00,0.00,30.18,M,10.00,M,FEW,M,M,M,7000.00,M,M,M,M,KAIO 012000Z AUTO 10008KT 10SM FEW070 10/03 A3018 RMK AO2
AIO,2017-04-01 20:10,-95.0465,41.4059,50.00,35.60,57.52,110.00,8.00,0.00,30.20,M,10.00,M,BKN,M,M,M,7000.00,M,M,M,M,KAIO 012010Z AUTO 11008KT 10SM BKN070 10/02 A3020 RMK AO2
AIO,2017-04-01 20:15,-95.0465,41.4059,50.00,37.40,61.76,110.00,7.00,0.00,30.19,M,10.00,12.00,BKN,M,M,M,7000.00,M,M,M,M,KAIO 012015Z AUTO 11007G12KT 10SM BKN070 10/03 A3019 RMK AO2
AIO,2017-04-01 20:20,-95.0465,41.4059,50.00,37.40,61.76,120.00,7.00,0.00,30.19,M,10.00,M,BKN,M,M,M,7000.00,M,M,M,-DZ,KAIO 012020Z AUTO 12007KT 10SM -DZ BKN070 10/03 A3019 RMK AO2
AIO,2017-04-01 20:30,-95.0465,41.4059,50.00,37.40,61.76,80.00,7.00,0.00,30.18,M,10.00,M,SCT,M,M,M,7000.00,M,M,M,M,KAIO 012030Z AUTO 08007KT 10SM SCT070 10/03 A3018 RMK AO2
AIO,2017-04-01 20:35,-95.0465,41.4059,50.00,37.40,61.76,70.00,9.00,0.00,30.18,M,10.00,M,FEW,M,M,M,7000.00,M,M,M,M,KAIO 012035Z AUTO 07009KT 10SM FEW070 10/03 A3018 RMK AO2
AIO,2017-04-01 20:40,-95.0465,41.4059,50.00,37.40,61.76,70.00,9.00,0.00,30.18,M,10.00,M,SCT,M,M,M,7000.00,M,M,M,M,KAIO 012040Z AUTO 07009KT 10SM SCT070 10/03 A3018 RMK AO2
AIO,2017-04-01 20:50,-95.0465,41.4059,50.00,37.40,61.76,110.00,10.00,0.00,30.17,M,10.00,M,SCT,M,M,M,7000.00,M,M,M,M,KAIO 012050Z AUTO 11010KT 10SM SCT070 10/03 A3017 RMK AO2
AIO,2017-04-01 20:55,-95.0465,41.4059,50.00,37.40,61.76,90.00,9.00,0.00,30.17,M,10.00,M,FEW,M,M,M,7000.00,M,M,M,M,KAIO 012055Z AUTO 09009KT 10SM FEW070 10/03 A3017 RMK AO2
AIO,2017-04-01 21:00,-95.0465,41.4059,50.00,37.40,61.76,70.00,9.00,0.00,30.17,M,10.00,M,FEW,FEW,M,M,7000.00,9000.00,M,M,M,KAIO 012100Z AUTO 07009KT 10SM FEW070 FEW090 10/03 A3017 RMK AO2
AIO,2017-04-01 21:10,-95.0465,41.4059,50.00,37.40,61.76,90.00,8.00,0.00,30.16,M,10.00,M,FEW,FEW,M,M,7000.00,9000.00,M,M,M,KAIO 012110Z AUTO 09008KT 10SM FEW070 FEW090 10/03 A3016 RMK AO2
AIO,2017-04-01 21:15,-95.0465,41.4059,50.00,37.40,61.76,80.00,9.00,0.00,30.16,M,10.00,14.00,FEW,FEW,M,M,7500.00,9000.00,M,M,M,KAIO 012115Z AUTO 08009G14KT 10SM FEW075 FEW090 10/03 A3016 RMK AO2
AIO,2017-04-01 21:20,-95.0465,41.4059,50.00,37.40,61.76,90.00,11.00,0.00,30.16,M,10.00,M,SCT,SCT,M,M,7500.00,9000.00,M,M,M,KAIO 012120Z AUTO 09011KT 10SM SCT075 SCT090 10/03 A3016 RMK AO2
AIO,2017-04-01 21:30,-95.0465,41.4059,51.80,37.40,57.77,100.00,7.00,0.00,30.17,M,10.00,12.00,BKN,BKN,M,M,7500.00,9000.00,M,M,M,KAIO 012130Z AUTO 10007G12KT 10SM BKN075 BKN090 11/03 A3017 RMK AO2
AIO,2017-04-01 21:35,-95.0465,41.4059,51.80,37.40,57.77,110.00,8.00,0.00,30.17,M,10.00,M,BKN,M,M,M,7500.00,M,M,M,M,KAIO 012135Z AUTO 11008KT 10SM BKN075 11/03 A3017 RMK AO2
AIO,2017-04-01 21:40,-95.0465,41.4059,50.00,35.60,57.52,140.00,8.00,0.00,30.18,M,10.00,M,OVC,M,M,M,7500.00,M,M,M,M,KAIO 012140Z AUTO 14008KT 10SM OVC075 10/02 A3018 RMK AO2
AIO,2017-04-01 21:50,-95.0465,41.4059,51.80,35.60,53.81,120.00,8.00,0.00,30.17,M,10.00,M,OVC,M,M,M,7500.00,M,M,M,M,KAIO 012150Z AUTO 12008KT 10SM OVC075 11/02 A3017 RMK AO2
AIO,2017-04-01 21:55,-95.0465,41.4059,51.80,35.60,53.81,110.00,7.00,0.00,30.17,M,10.00,M,OVC,M,M,M,8000.00,M,M,M,M,KAIO 012155Z AUTO 11007KT 10SM OVC080 11/02 A3017 RMK AO2
AIO,2017-04-01 22:00,-95.0465,41.4059,51.80,35.60,53.81,100.00,11.00,0.00,30.16,M,10.00,M,OVC,M,M,M,8000.00,M,M,M,M,KAIO 012200Z AUTO 10011KT 10SM OVC080 11/02 A3016 RMK AO2
AIO,2017-04-01 22:10,-95.0465,41.4059,50.00,35.60,57.52,100.00,9.00,0.00,30.16,M,10.00,M,OVC,M,M,M,8000.00,M,M,M,M,KAIO 012210Z AUTO 10009KT 10SM OVC080 10/02 A3016 RMK AO2
AIO,2017-04-01 22:15,-95.0465,41.4059,50.00,35.60,57.52,110.00,9.00,0.00,30.16,M,10.00,M,OVC,M,M,M,8000.00,M,M,M,M,KAIO 012215Z AUTO 11009KT 10SM OVC080 10/02 A3016 RMK AO2
AIO,2017-04-01 22:20,-95.0465,41.4059,50.00,37.40,61.76,80.00,7.00,0.00,30.15,M,10.00,M,OVC,M,M,M,8000.00,M,M,M,M,KAIO 012220Z AUTO 08007KT 10SM OVC080 10/03 A3015 RMK AO2
AIO,2017-04-01 22:30,-95.0465,41.4059,50.00,37.40,61.76,90.00,10.00,0.00,30.14,M,10.00,M,BKN,M,M,M,7500.00,M,M,M,M,KAIO 012230Z AUTO 09010KT 10SM BKN075 10/03 A3014 RMK AO2
AIO,2017-04-01 22:35,-95.0465,41.4059,51.80,37.40,57.77,90.00,8.00,0.00,30.15,M,10.00,14.00,BKN,M,M,M,7500.00,M,M,M,M,KAIO 012235Z AUTO 09008G14KT 10SM BKN075 11/03 A3015 RMK AO2
AIO,2017-04-01 22:40,-95.0465,41.4059,51.80,37.40,57.77,110.00,6.00,0.00,30.16,M,10.00,13.00,SCT,BKN,M,M,7500.00,9000.00,M,M,M,KAIO 012240Z AUTO 11006G13KT 10SM SCT075 BKN090 11/03 A3016 RMK AO2
AIO,2017-04-01 22:50,-95.0465,41.4059,51.80,37.40,57.77,120.00,6.00,0.00,30.16,M,10.00,M,BKN,BKN,M,M,8000.00,9500.00,M,M,M,KAIO 012250Z AUTO 12006KT 10SM BKN080 BKN095 11/03 A3016 RMK AO2
AIO,2017-04-01 22:55,-95.0465,41.4059,51.80,37.40,57.77,120.00,7.00,0.00,30.17,M,10.00,M,BKN,M,M,M,8000.00,M,M,M,M,KAIO 012255Z AUTO 12007KT 10SM BKN080 11/03 A3017 RMK AO2
AIO,2017-04-01 23:00,-95.0465,41.4059,51.80,37.40,57.77,90.00,6.00,0.00,30.16,M,10.00,M,SCT,BKN,M,M,7500.00,8500.00,M,M,M,KAIO 012300Z AUTO 09006KT 10SM SCT075 BKN085 11/03 A3016 RMK AO2
AIO,2017-04-01 23:10,-95.0465,41.4059,50.00,37.40,61.76,100.00,9.00,0.00,30.15,M,10.00,M,BKN,OVC,M,M,7500.00,8500.00,M,M,M,KAIO 012310Z AUTO 10009KT 10SM BKN075 OVC085 10/03 A3015 RMK AO2
AIO,2017-04-01 23:15,-95.0465,41.4059,50.00,37.40,61.76,90.00,8.00,0.00,30.15,M,10.00,M,BKN,OVC,M,M,7500.00,8500.00,M,M,M,KAIO 012315Z AUTO 09008KT 10SM BKN075 OVC085 10/03 A3015 RMK AO2
AIO,2017-04-01 23:20,-95.0465,41.4059,50.00,37.40,61.76,90.00,7.00,0.00,30.16,M,10.00,M,BKN,OVC,M,M,7500.00,8500.00,M,M,M,KAIO 012320Z AUTO 09007KT 10SM BKN075 OVC085 10/03 A3016 RMK AO2
AIO,2017-04-01 23:30,-95.0465,41.4059,50.00,37.40,61.76,80.00,9.00,0.00,30.15,M,10.00,M,SCT,OVC,M,M,7500.00,8500.00,M,M,M,KAIO 012330Z AUTO 08009KT 10SM SCT075 OVC085 10/03 A3015 RMK AO2
AIO,2017-04-01 23:35,-95.0465,41.4059,50.00,37.40,61.76,80.00,8.00,0.00,30.15,M,10.00,M,FEW,OVC,M,M,7500.00,8500.00,M,M,M,KAIO 012335Z AUTO 08008KT 10SM FEW075 OVC085 10/03 A3015 RMK AO2
AIO,2017-04-01 23:40,-95.0465,41.4059,50.00,37.40,61.76,80.00,5.00,0.00,30.15,M,10.00,11.00,OVC,M,M,M,8500.00,M,M,M,M,KAIO 012340Z AUTO 08005G11KT 10SM OVC085 10/03 A3015 RMK AO2
AIO,2017-04-01 23:50,-95.0465,41.4059,50.00,37.40,61.76,70.00,4.00,0.00,30.16,M,10.00,10.00,OVC,M,M,M,8500.00,M,M,M,M,KAIO 012350Z AUTO 07004G10KT 10SM OVC085 10/03 A3016 RMK AO2
AIO,2017-04-01 23:55,-95.0465,41.4059,50.00,37.40,61.76,70.00,5.00,0.00,30.16,M,10.00,M,OVC,M,M,M,8500.00,M,M,M,M,KAIO 012355Z AUTO 07005KT 10SM OVC085 10/03 A3016 RMK AO2
