#DEBUG: Format Typ    -> comma
#DEBUG: Time Period   -> 2017-04-01 00:00:00+00:00 2017-04-02 00:00:00+00:00
#DEBUG: Time Zone     -> Etc/UTC
#DEBUG: Data Contact   -> daryl herzmann akrherz@iastate.edu 515-294-5978
#DEBUG: Entries Found -> -1
station,valid,lon,lat,tmpf, dwpf, relh, drct, sknt, p01i, alti, mslp, vsby, gust, skyc1, skyc2, skyc3, skyc4, skyl1, skyl2, skyl3, skyl4, presentwx, metar
ALB,2017-04-01 00:00,-73.8036,42.7576,M,M,M,20.00,3.00,0.01,29.89,M,3.00,M,FEW,BKN,OVC,M,700.00,1100.00,1500.00,M,-RA BR,KALB 010000Z AUTO 02003KT 3SM -RA BR FEW007 BKN011 OVC015 A2989 RMK P0001 MADISHF
ALB,2017-04-01 00:05,-73.8036,42.7576,M,M,M,30.00,3.00,0.02,29.89,M,3.00,M,FEW,BKN,OVC,M,700.00,1100.00,1500.00,M,-RA BR,KALB 010005Z AUTO 03003KT 3SM -RA BR FEW007 BKN011 OVC015 A2989 RMK P0002 MADISHF
ALB,2017-04-01 00:10,-73.8036,42.7576,M,M,M,20.00,3.00,0.02,29.89,M,3.00,M,FEW,BKN,OVC,M,700.00,1100.00,1500.00,M,-RA BR,KALB 010010Z AUTO 02003KT 3SM -RA BR FEW007 BKN011 OVC015 A2989 RMK P0002 MADISHF
ALB,2017-04-01 00:15,-73.8036,42.7576,M,M,M,20.00,3.00,0.02,29.89,M,3.00,M,FEW,BKN,OVC,M,700.00,1100.00,1500.00,M,-RA BR,KALB 010015Z AUTO 02003KT 3SM -RA BR FEW007 BKN011 OVC015 A2989 RMK P0002 MADISHF
ALB,2017-04-01 00:20,-73.8036,42.7576,M,M,M,20.00,3.00,0.02,29.89,M,3.00,M,FEW,BKN,OVC,M,700.00,1300.00,2500.00,M,-RA BR,KALB 010020Z AUTO 02003KT 3SM -RA BR FEW007 BKN013 OVC025 A2989 RMK P0002 MADISHF
ALB,2017-04-01 00:25,-73.8036,42.7576,M,M,M,30.00,3.00,0.03,29.89,M,3.00,M,FEW,BKN,OVC,M,700.00,1300.00,2500.00,M,-RA BR,KALB 010025Z AUTO 03003KT 3SM -RA BR FEW007 BKN013 OVC025 A2989 RMK P0003 MADISHF
ALB,2017-04-01 00:35,-73.8036,42.7576,M,M,M,0.00,0.00,0.04,29.89,M,3.00,M,FEW,BKN,OVC,M,700.00,1300.00,2500.00,M,-RA BR,KALB 010035Z AUTO 00000KT 3SM -RA BR FEW007 BKN013 OVC025 A2989 RMK P0004 MADISHF
ALB,2017-04-01 00:36,-73.8036,42.7576,36.00,33.10,89.09,0.00,0.00,0.04,29.89,M,3.00,M,FEW,BKN,OVC,M,700.00,1300.00,2500.00,M,-RAPL BR,KALB 010036Z 00000KT 3SM -RAPL BR FEW007 BKN013 OVC025 02/01 A2989 RMK AO2 TWR VIS 4 PLB36 P0004 T00220006
ALB,2017-04-01 00:40,-73.8036,42.7576,M,M,M,0.00,0.00,0.04,29.89,M,3.00,M,FEW,BKN,OVC,M,700.00,1300.00,2500.00,M,-RA -PL BR,KALB 010040Z AUTO 00000KT 3SM -RA -PL BR FEW007 BKN013 OVC025 A2989 RMK P0004 MADISHF
ALB,2017-04-01 00:45,-73.8036,42.7576,M,M,M,10.00,3.00,0.04,29.89,M,3.00,M,FEW,BKN,OVC,M,700.00,1300.00,2500.00,M,-RA -PL BR,KALB 010045Z AUTO 01003KT 3SM -RA -PL BR FEW007 BKN013 OVC025 A2989 RMK P0004 MADISHF
ALB,2017-04-01 00:51,-73.8036,42.7576,36.00,33.10,89.09,360.00,3.00,0.05,29.89,1012.40,3.00,M,FEW,BKN,OVC,M,700.00,1300.00,2300.00,M,-RAPL BR,KALB 010051Z 36003KT 3SM -RAPL BR FEW007 BKN013 OVC023 02/01 A2989 RMK AO2 TWR VIS 4 PLB36 SLP124 P0005 T00220006
ALB,2017-04-01 00:55,-73.8036,42.7576,M,M,M,350.00,3.00,M,29.89,M,3.00,M,FEW,BKN,OVC,M,700.00,1300.00,2300.00,M,-RA -PL BR,KALB 010055Z AUTO 35003KT 3SM -RA -PL BR FEW007 BKN013 OVC023 A2989 RMK MADISHF
ALB,2017-04-01 01:00,-73.8036,42.7576,M,M,M,350.00,3.00,0.01,29.89,M,3.00,M,FEW,BKN,OVC,M,700.00,1300.00,2300.00,M,-RA -PL BR,KALB 010100Z AUTO 35003KT 3SM -RA -PL BR FEW007 BKN013 OVC023 A2989 RMK P0001 MADISHF
ALB,2017-04-01 01:05,-73.8036,42.7576,M,M,M,360.00,3.00,0.01,29.89,M,3.00,M,FEW,BKN,OVC,M,700.00,1300.00,2300.00,M,-RA -PL BR,KALB 010105Z AUTO 36003KT 3SM -RA -PL BR FEW007 BKN013 OVC023 A2989 RMK P0001 MADISHF
ALB,2017-04-01 01:10,-73.8036,42.7576,M,M,M,350.00,3.00,0.02,29.89,M,3.00,M,FEW,BKN,OVC,M,700.00,1300.00,2300.00,M,-RA -PL BR,KALB 010110Z AUTO 35003KT 3SM -RA -PL BR FEW007 BKN013 OVC023 A2989 RMK P0002 MADISHF
ALB,2017-04-01 01:15,-73.8036,42.7576,M,M,M,340.00,3.00,0.02,29.89,M,3.00,M,FEW,BKN,OVC,M,700.00,1300.00,2100.00,M,-RA -PL BR,KALB 010115Z AUTO 34003KT 3SM -RA -PL BR FEW007 BKN013 OVC021 A2989 RMK P0002 MADISHF
ALB,2017-04-01 01:20,-73.8036,42.7576,M,M,M,0.00,0.00,0.03,29.88,M,3.00,M,FEW,BKN,OVC,M,700.00,1300.00,2100.00,M,-RA -PL BR,KALB 010120Z AUTO 00000KT 3SM -RA -PL BR FEW007 BKN013 OVC021 A2988 RMK P0003 MADISHF
ALB,2017-04-01 01:25,-73.8036,42.7576,M,M,M,20.00,4.00,0.05,29.88,M,3.00,M,FEW,BKN,OVC,M,700.00,1300.00,2100.00,M,-RA -PL BR,KALB 010125Z AUTO 02004KT 3SM -RA -PL BR FEW007 BKN013 OVC021 A2988 RMK P0005 MADISHF
ALB,2017-04-01 01:30,-73.8036,42.7576,M,M,M,20.00,3.00,0.05,29.88,M,3.00,M,FEW,BKN,OVC,M,700.00,1300.00,2100.00,M,-RA -PL BR,KALB 010130Z AUTO 02003KT 3SM -RA -PL BR FEW007 BKN013 OVC021 A2988 RMK P0005 MADISHF
ALB,2017-04-01 01:35,-73.8036,42.7576,M,M,M,350.00,3.00,0.07,29.88,M,3.00,M,FEW,BKN,OVC,M,700.00,1300.00,2100.00,M,-RA -PL BR,KALB 010135Z AUTO 35003KT 3SM -RA -PL BR FEW007 BKN013 OVC021 A2988 RMK P0007 MADISHF
ALB,2017-04-01 01:40,-73.8036,42.7576,M,M,M,360.00,3.00,0.07,29.88,M,3.00,M,FEW,BKN,OVC,M,700.00,1300.00,2100.00,M,-RA -PL BR,KALB 010140Z AUTO 36003KT 3SM -RA -PL BR FEW007 BKN013 OVC021 A2988 RMK P0007 MADISHF
ALB,2017-04-01 01:50,-73.8036,42.7576,M,M,M,330.00,3.00,0.09,29.88,M,3.00,M,FEW,BKN,OVC,M,700.00,1300.00,2100.00,M,-RA -PL BR,KALB 010150Z AUTO 33003KT 3SM -RA -PL BR FEW007 BKN013 OVC021 A2988 RMK P0009 MADISHF
ALB,2017-04-01 01:51,-73.8036,42.7576,36.00,32.00,85.23,340.00,3.00,0.09,29.88,1011.90,3.00,M,FEW,BKN,OVC,M,700.00,1300.00,2100.00,M,-RAPL BR,KALB 010151Z 34003KT 3SM -RAPL BR FEW007 BKN013 OVC021 02/00 A2988 RMK AO2 TWR VIS 4 SLP119 P0009 T00220000
ALB,2017-04-01 01:55,-73.8036,42.7576,M,M,M,340.00,3.00,0.01,29.87,M,3.00,M,FEW,BKN,OVC,M,700.00,1300.00,2100.00,M,-RA -PL BR,KALB 010155Z AUTO 34003KT 3SM -RA -PL BR FEW007 BKN013 OVC021 A2987 RMK P0001 MADISHF
ALB,2017-04-01 02:00,-73.8036,42.7576,M,M,M,320.00,3.00,0.02,29.87,M,3.00,M,FEW,BKN,OVC,M,700.00,1300.00,2100.00,M,-RA -PL BR,KALB 010200Z AUTO 32003KT 3SM -RA -PL BR FEW007 BKN013 OVC021 A2987 RMK P0002 MADISHF
ALB,2017-04-01 02:10,-73.8036,42.7576,M,M,M,350.00,3.00,0.03,29.87,M,3.00,M,FEW,BKN,OVC,M,700.00,1300.00,2100.00,M,-RA -PL BR,KALB 010210Z AUTO 35003KT 3SM -RA -PL BR FEW007 BKN013 OVC021 A2987 RMK P0003 MADISHF
ALB,2017-04-01 02:15,-73.8036,42.7576,M,M,M,350.00,3.00,0.04,29.86,M,3.00,M,FEW,BKN,OVC,M,700.00,1300.00,2100.00,M,-RA -PL BR,KALB 010215Z AUTO 35003KT 3SM -RA -PL BR FEW007 BKN013 OVC021 A2986 RMK P0004 VRB03KT  MADISHF
ALB,2017-04-01 02:20,-73.8036,42.7576,M,M,M,360.00,3.00,0.04,29.86,M,3.00,M,FEW,BKN,OVC,M,700.00,1300.00,2100.00,M,-RA -PL BR,KALB 010220Z AUTO 36003KT 3SM -RA -PL BR FEW007 BKN013 OVC021 A2986 RMK P0004 MADISHF
ALB,2017-04-01 02:25,-73.8036,42.7576,M,M,M,0.00,0.00,0.06,29.86,M,3.00,M,FEW,BKN,OVC,M,700.00,1300.00,2100.00,M,-RA -PL BR,KALB 010225Z AUTO 00000KT 3SM -RA -PL BR FEW007 BKN013 OVC021 A2986 RMK P0006 MADISHF
ALB,2017-04-01 02:30,-73.8036,42.7576,M,M,M,30.00,3.00,0.07,29.86,M,3.00,M,FEW,BKN,OVC,M,700.00,1300.00,2100.00,M,-RA -PL BR,KALB 010230Z AUTO 03003KT 3SM -RA -PL BR FEW007 BKN013 OVC021 A2986 RMK P0007 MADISHF
ALB,2017-04-01 02:35,-73.8036,42.7576,M,M,M,0.00,0.00,0.08,29.86,M,3.00,M,FEW,BKN,OVC,M,700.00,1300.00,2500.00,M,-RA -PL BR,KALB 010235Z AUTO 00000KT 3SM -RA -PL BR FEW007 BKN013 OVC025 A2986 RMK P0008 MADISHF
ALB,2017-04-01 02:40,-73.8036,42.7576,M,M,M,30.00,3.00,0.09,29.86,M,3.00,M,FEW,BKN,OVC,M,700.00,1300.00,2500.00,M,-RA -PL BR,KALB 010240Z AUTO 03003KT 3SM -RA -PL BR FEW007 BKN013 OVC025 A2986 RMK P0009 MADISHF
ALB,2017-04-01 02:45,-73.8036,42.7576,M,M,M,0.00,0.00,0.09,29.86,M,3.00,M,FEW,BKN,OVC,M,700.00,1300.00,2500.00,M,-RA -PL BR,KALB 010245Z AUTO 00000KT 3SM -RA -PL BR FEW007 BKN013 OVC025 A2986 RMK P0009 MADISHF
ALB,2017-04-01 02:50,-73.8036,42.7576,M,M,M,350.00,3.00,0.10,29.85,M,3.00,M,FEW,BKN,OVC,M,700.00,1300.00,2500.00,M,-RA -PL BR,KALB 010250Z AUTO 35003KT 3SM -RA -PL BR FEW007 BKN013 OVC025 A2985 RMK P0010 MADISHF
ALB,2017-04-01 02:51,-73.8036,42.7576,35.10,32.00,88.33,360.00,3.00,0.10,29.85,1011.20,3.00,M,FEW,SCT,OVC,M,700.00,1300.00,2500.00,M,-RAPL BR,KALB 010251Z 36003KT 3SM -RAPL BR FEW007 SCT013 OVC025 02/00 A2985 RMK AO2 TWR VIS 4 SLP112 P0010 60024 T00170000 58014
ALB,2017-04-01 02:55,-73.8036,42.7576,M,M,M,0.00,0.00,M,29.86,M,3.00,M,FEW,SCT,OVC,M,700.00,1300.00,2500.00,M,-RA -PL BR,KALB 010255Z AUTO 00000KT 3SM -RA -PL BR FEW007 SCT013 OVC025 A2986 RMK MADISHF
ALB,2017-04-01 03:00,-73.8036,42.7576,M,M,M,330.00,3.00,0.01,29.86,M,3.00,M,FEW,SCT,OVC,M,700.00,1300.00,2500.00,M,-RA -PL BR,KALB 010300Z AUTO 33003KT 3SM -RA -PL BR FEW007 SCT013 OVC025 A2986 RMK P0001 MADISHF
ALB,2017-04-01 03:05,-73.8036,42.7576,M,M,M,0.00,0.00,0.02,29.86,M,3.00,M,FEW,SCT,OVC,M,700.00,1300.00,2500.00,M,-RA -PL BR,KALB 010305Z AUTO 00000KT 3SM -RA -PL BR FEW007 SCT013 OVC025 A2986 RMK P0002 MADISHF
ALB,2017-04-01 03:10,-73.8036,42.7576,M,M,M,330.00,3.00,0.02,29.86,M,5.00,M,FEW,SCT,OVC,M,700.00,1300.00,2500.00,M,-RA -PL BR,KALB 010310Z AUTO 33003KT 5SM -RA -PL BR FEW007 SCT013 OVC025 A2986 RMK P0002 MADISHF
ALB,2017-04-01 03:15,-73.8036,42.7576,M,M,M,320.00,3.00,0.02,29.86,M,5.00,M,FEW,SCT,OVC,M,700.00,1300.00,2500.00,M,-RA -PL BR,KALB 010315Z AUTO 32003KT 5SM -RA -PL BR FEW007 SCT013 OVC025 A2986 RMK P0002 MADISHF
ALB,2017-04-01 03:20,-73.8036,42.7576,M,M,M,330.00,3.00,0.02,29.85,M,5.00,M,FEW,SCT,OVC,M,700.00,1300.00,2500.00,M,-RA -PL BR,KALB 010320Z AUTO 33003KT 5SM -RA -PL BR FEW007 SCT013 OVC025 A2985 RMK P0002 MADISHF
ALB,2017-04-01 03:25,-73.8036,42.7576,M,M,M,330.00,4.00,0.03,29.86,M,5.00,M,FEW,SCT,OVC,M,700.00,1300.00,2500.00,M,-RA -PL BR,KALB 010325Z AUTO 33004KT 5SM -RA -PL BR FEW007 SCT013 OVC025 A2986 RMK P0003 MADISHF
ALB,2017-04-01 03:30,-73.8036,42.7576,M,M,M,310.00,4.00,0.03,29.86,M,5.00,M,FEW,SCT,OVC,M,700.00,1300.00,2300.00,M,-RA -PL BR,KALB 010330Z AUTO 31004KT 5SM -RA -PL BR FEW007 SCT013 OVC023 A2986 RMK P0003 MADISHF
ALB,2017-04-01 03:35,-73.8036,42.7576,M,M,M,300.00,4.00,0.03,29.86,M,5.00,M,FEW,SCT,OVC,M,700.00,1300.00,2300.00,M,-RA -PL BR,KALB 010335Z AUTO 30004KT 5SM -RA -PL BR FEW007 SCT013 OVC023 A2986 RMK P0003 MADISHF
ALB,2017-04-01 03:45,-73.8036,42.7576,M,M,M,310.00,4.00,0.04,29.86,M,4.00,M,SCT,SCT,OVC,M,700.00,1300.00,2300.00,M,-RA BR,KALB 010345Z AUTO 31004KT 4SM -RA BR SCT007 SCT013 OVC023 A2986 RMK P0004 MADISHF
ALB,2017-04-01 03:50,-73.8036,42.7576,M,M,M,310.00,4.00,0.04,29.85,M,4.00,M,SCT,SCT,OVC,M,700.00,1300.00,2300.00,M,-RA BR,KALB 010350Z AUTO 31004KT 4SM -RA BR SCT007 SCT013 OVC023 A2985 RMK P0004 MADISHF
ALB,2017-04-01 03:51,-73.8036,42.7576,34.00,30.90,88.27,300.00,3.00,0.05,29.85,1011.10,4.00,M,BKN,OVC,M,M,700.00,2300.00,M,M,-PLRA BR,KALB 010351Z 30003KT 4SM -PLRA BR BKN007 OVC023 01/M01 A2985 RMK AO2 SLP111 P0005 T00111006
ALB,2017-04-01 03:55,-73.8036,42.7576,M,M,M,300.00,3.00,M,29.85,M,4.00,M,BKN,OVC,M,M,600.00,2300.00,M,M,-RA BR,KALB 010355Z AUTO 30003KT 4SM -RA BR BKN006 OVC023 A2985 RMK MADISHF
ALB,2017-04-01 04:05,-73.8036,42.7576,M,M,M,300.00,3.00,M,29.86,M,5.00,M,BKN,OVC,M,M,600.00,2300.00,M,M,-RA BR,KALB 010405Z AUTO 30003KT 5SM -RA BR BKN006 OVC023 A2986 RMK MADISHF
ALB,2017-04-01 04:10,-73.8036,42.7576,M,M,M,330.00,4.00,0.01,29.86,M,5.00,M,OVC,M,M,M,600.00,M,M,M,-RA BR,KALB 010410Z AUTO 33004KT 5SM -RA BR OVC006 A2986 RMK P0001 MADISHF
ALB,2017-04-01 04:15,-73.8036,42.7576,M,M,M,330.00,4.00,0.01,29.86,M,4.00,M,OVC,M,M,M,499.00,M,M,M,-RA BR,KALB 010415Z AUTO 33004KT 4SM -RA BR OVC004 A2986 RMK P0001 MADISHF
ALB,2017-04-01 04:18,-73.8036,42.7576,34.00,30.90,88.27,330.00,5.00,0.01,29.86,M,3.00,M,BKN,OVC,M,M,500.00,1900.00,M,M,-RAPL BR,KALB 010418Z 33005KT 3SM -RAPL BR BKN005 OVC019 01/M01 A2986 RMK AO2 P0001 T00111006
ALB,2017-04-01 04:25,-73.8036,42.7576,M,M,M,330.00,4.00,0.01,29.85,M,3.00,M,BKN,OVC,M,M,499.00,1500.00,M,M,-RA BR,KALB 010425Z AUTO 33004KT 3SM -RA BR BKN004 OVC015 A2985 RMK P0001 MADISHF
ALB,2017-04-01 04:30,-73.8036,42.7576,M,M,M,340.00,4.00,0.02,29.85,M,3.00,M,BKN,BKN,OVC,M,499.00,1500.00,2300.00,M,-RA BR,KALB 010430Z AUTO 34004KT 3SM -RA BR BKN004 BKN015 OVC023 A2985 RMK P0002 MADISHF
ALB,2017-04-01 04:35,-73.8036,42.7576,M,M,M,340.00,3.00,0.03,29.85,M,3.00,M,BKN,OVC,M,M,499.00,1500.00,M,M,-RA BR,KALB 010435Z AUTO 34003KT 3SM -RA BR BKN004 OVC015 A2985 RMK P0003 MADISHF
ALB,2017-04-01 04:39,-73.8036,42.7576,33.10,30.90,91.51,340.00,3.00,0.03,29.85,M,2.50,M,BKN,OVC,M,M,500.00,1500.00,M,M,-PLRA BR,KALB 010439Z 34003KT 2 1/2SM -PLRA BR BKN005 OVC015 01/M01 A2985 RMK AO2 P0003 T00061006
ALB,2017-04-01 04:45,-73.8036,42.7576,M,M,M,350.00,3.00,0.04,29.85,M,2.50,M,BKN,OVC,M,M,499.00,1400.00,M,M,-RA BR,KALB 010445Z AUTO 35003KT 2 1/2SM -RA BR BKN004 OVC014 A2985 RMK P0004 MADISHF
ALB,2017-04-01 04:48,-73.8036,42.7576,33.80,30.20,86.49,340.00,4.00,0.04,29.85,M,2.50,M,BKN,OVC,M,M,500.00,1400.00,M,M,PLRA BR,KALB 010448Z 34004KT 2 1/2SM PLRA BR BKN005 OVC014 01/M01 A2985 RMK AO2 P0004
ALB,2017-04-01 04:50,-73.8036,42.7576,M,M,M,340.00,3.00,0.05,29.85,M,2.50,M,BKN,OVC,M,M,499.00,1400.00,M,M,RA PL BR,KALB 010450Z AUTO 34003KT 2 1/2SM RA PL BR BKN004 OVC014 A2985 RMK P0005 MADISHF
ALB,2017-04-01 04:51,-73.8036,42.7576,33.10,30.90,91.51,340.00,3.00,0.05,29.85,1011.10,2.50,M,BKN,OVC,M,M,500.00,1400.00,M,M,PLRA BR,KALB 010451Z 34003KT 2 1/2SM PLRA BR BKN005 OVC014 01/M01 A2985 RMK AO2 SLP111 P0005 T00061006 400330006
ALB,2017-04-01 04:55,-73.8036,42.7576,M,M,M,350.00,3.00,M,29.85,M,2.50,M,BKN,OVC,M,M,499.00,1600.00,M,M,RA PL BR,KALB 010455Z AUTO 35003KT 2 1/2SM RA PL BR BKN004 OVC016 A2985 RMK MADISHF
ALB,2017-04-01 05:05,-73.8036,42.7576,33.10,30.90,91.51,350.00,3.00,0.02,29.85,M,3.00,M,BKN,OVC,M,M,500.00,1700.00,M,M,PL BR,KALB 010505Z 35003KT 3SM PL BR BKN005 OVC017 01/M01 A2985 RMK AO2 RAE01 P0002 I1000 T00061006
ALB,2017-04-01 05:07,-73.8036,42.7576,33.10,30.90,91.51,360.00,3.00,0.02,29.85,M,3.00,M,OVC,M,M,M,500.00,M,M,M,-PL BR,KALB 010507Z 36003KT 3SM -PL BR OVC005 01/M01 A2985 RMK AO2 RAE01 P0002 I1000 T00061006
ALB,2017-04-01 05:10,-73.8036,42.7576,M,M,M,10.00,3.00,0.02,29.85,M,3.00,M,BKN,OVC,M,M,499.00,1600.00,M,M,-PL BR,KALB 010510Z AUTO 01003KT 3SM -PL BR BKN004 OVC016 A2985 RMK P0002 MADISHF
ALB,2017-04-01 05:15,-73.8036,42.7576,M,M,M,360.00,3.00,0.02,29.85,M,3.00,M,BKN,OVC,M,M,499.00,1600.00,M,M,-PL BR,KALB 010515Z AUTO 36003KT 3SM -PL BR BKN004 OVC016 A2985 RMK P0002 MADISHF
ALB,2017-04-01 05:25,-73.8036,42.7576,M,M,M,350.00,3.00,0.03,29.84,M,4.00,M,BKN,OVC,M,M,499.00,1600.00,M,M,-DZ BR,KALB 010525Z AUTO 35003KT 4SM -DZ BR BKN004 OVC016 A2984 RMK P0003 MADISHF
ALB,2017-04-01 05:30,-73.8036,42.7576,M,M,M,350.00,3.00,0.03,29.84,M,4.00,M,BKN,OVC,M,M,499.00,1600.00,M,M,-DZ BR,KALB 010530Z AUTO 35003KT 4SM -DZ BR BKN004 OVC016 A2984 RMK P0003 MADISHF
ALB,2017-04-01 05:35,-73.8036,42.7576,M,M,M,10.00,3.00,0.03,29.84,M,4.00,M,BKN,OVC,M,M,499.00,1600.00,M,M,-DZ BR,KALB 010535Z AUTO 01003KT 4SM -DZ BR BKN004 OVC016 A2984 RMK P0003 MADISHF
ALB,2017-04-01 05:40,-73.8036,42.7576,M,M,M,360.00,4.00,0.03,29.84,M,4.00,M,BKN,BKN,OVC,M,499.00,1600.00,2300.00,M,-DZ BR,KALB 010540Z AUTO 36004KT 4SM -DZ BR BKN004 BKN016 OVC023 A2984 RMK P0003 MADISHF
ALB,2017-04-01 05:45,-73.8036,42.7576,33.80,30.20,86.49,20.00,4.00,0.03,29.84,M,3.00,M,BKN,BKN,OVC,M,500.00,1600.00,2300.00,M,-DZ BR,KALB 010545Z 02004KT 3SM -DZ BR BKN005 BKN016 OVC023 01/M01 A2984 RMK AO2 RAE01DZB18PLE45 BKN005 V SCT P0003 I1001
ALB,2017-04-01 05:50,-73.8036,42.7576,M,M,M,10.00,3.00,0.03,29.84,M,3.00,M,BKN,BKN,OVC,M,499.00,1600.00,2300.00,M,-DZ BR,KALB 010550Z AUTO 01003KT 3SM -DZ BR BKN004 BKN016 OVC023 A2984 RMK P0003  BKN005 V SCT MADISHF
ALB,2017-04-01 05:51,-73.8036,42.7576,33.10,30.90,91.51,10.00,4.00,0.03,29.84,1010.90,3.00,M,BKN,BKN,OVC,M,500.00,1600.00,2300.00,M,-DZ BR,KALB 010551Z 01004KT 3SM -DZ BR BKN005 BKN016 OVC023 01/M01 A2984 RMK AO2 RAE01DZB18PLE45 SLP109 BKN005 V SCT P0003 60037 I1001 I6001 T00061006 10028 20006 58004
ALB,2017-04-01 06:00,-73.8036,42.7576,M,M,M,20.00,5.00,M,29.84,M,4.00,M,BKN,OVC,M,M,499.00,2500.00,M,M,-DZ BR,KALB 010600Z AUTO 02005KT 4SM -DZ BR BKN004 OVC025 A2984 RMK MADISHF
ALB,2017-04-01 06:05,-73.8036,42.7576,M,M,M,10.00,5.00,0.01,29.84,M,4.00,M,BKN,BKN,OVC,M,499.00,2700.00,3500.00,M,-DZ BR,KALB 010605Z AUTO 01005KT 4SM -DZ BR BKN004 BKN027 OVC035 A2984 RMK P0001 MADISHF
ALB,2017-04-01 06:10,-73.8036,42.7576,M,M,M,10.00,5.00,0.01,29.84,M,4.00,M,BKN,BKN,OVC,M,499.00,2700.00,3500.00,M,-DZ BR,KALB 010610Z AUTO 01005KT 4SM -DZ BR BKN004 BKN027 OVC035 A2984 RMK P0001 MADISHF
ALB,2017-04-01 06:15,-73.8036,42.7576,M,M,M,10.00,6.00,0.01,29.84,M,4.00,M,BKN,BKN,OVC,M,499.00,2700.00,3500.00,M,-DZ BR,KALB 010615Z AUTO 01006KT 4SM -DZ BR BKN004 BKN027 OVC035 A2984 RMK P0001 MADISHF
ALB,2017-04-01 06:20,-73.8036,42.7576,M,M,M,20.00,5.00,0.01,29.84,M,4.00,M,BKN,BKN,OVC,M,499.00,2700.00,3500.00,M,-DZ BR,KALB 010620Z AUTO 02005KT 4SM -DZ BR BKN004 BKN027 OVC035 A2984 RMK P0001 MADISHF
ALB,2017-04-01 06:25,-73.8036,42.7576,M,M,M,20.00,7.00,0.01,29.84,M,3.00,M,BKN,OVC,M,M,499.00,3300.00,M,M,-DZ BR,KALB 010625Z AUTO 02007KT 3SM -DZ BR BKN004 OVC033 A2984 RMK P0001 MADISHF
ALB,2017-04-01 06:30,-73.8036,42.7576,M,M,M,10.00,6.00,0.01,29.83,M,3.00,M,BKN,OVC,M,M,499.00,3300.00,M,M,-DZ BR,KALB 010630Z AUTO 01006KT 3SM -DZ BR BKN004 OVC033 A2983 RMK P0001 MADISHF
ALB,2017-04-01 06:35,-73.8036,42.7576,M,M,M,20.00,6.00,0.01,29.83,M,3.00,M,BKN,OVC,M,M,499.00,3300.00,M,M,-DZ BR,KALB 010635Z AUTO 02006KT 3SM -DZ BR BKN004 OVC033 A2983 RMK P0001 MADISHF
ALB,2017-04-01 06:40,-73.8036,42.7576,M,M,M,10.00,7.00,0.01,29.83,M,3.00,M,BKN,OVC,M,M,499.00,3300.00,M,M,-DZ BR,KALB 010640Z AUTO 01007KT 3SM -DZ BR BKN004 OVC033 A2983 RMK P0001 MADISHF
ALB,2017-04-01 06:45,-73.8036,42.7576,M,M,M,10.00,8.00,0.01,29.83,M,3.00,M,BKN,OVC,M,M,499.00,3300.00,M,M,-DZ BR,KALB 010645Z AUTO 01008KT 3SM -DZ BR BKN004 OVC033 A2983 RMK P0001 MADISHF
ALB,2017-04-01 06:50,-73.8036,42.7576,M,M,M,10.00,7.00,0.01,29.83,M,3.00,M,BKN,OVC,M,M,499.00,3300.00,M,M,-DZ BR,KALB 010650Z AUTO 01007KT 3SM -DZ BR BKN004 OVC033 A2983 RMK P0001  BKN V SCT MADISHF
ALB,2017-04-01 06:51,-73.8036,42.7576,34.00,30.90,88.27,10.00,7.00,0.01,29.83,1010.30,3.00,M,BKN,OVC,M,M,500.00,3300.00,M,M,-DZ BR,KALB 010651Z 01007KT 3SM -DZ BR BKN005 OVC033 01/M01 A2983 RMK AO2 SLP103 BKN V SCT P0001 I1000 T00111006
ALB,2017-04-01 07:00,-73.8036,42.7576,M,M,M,10.00,6.00,0.01,29.83,M,3.00,M,BKN,OVC,M,M,499.00,3300.00,M,M,-DZ BR,KALB 010700Z AUTO 01006KT 3SM -DZ BR BKN004 OVC033 A2983 RMK P0001 MADISHF
ALB,2017-04-01 07:05,-73.8036,42.7576,M,M,M,10.00,7.00,0.01,29.83,M,3.00,M,BKN,OVC,M,M,499.00,3300.00,M,M,-DZ BR,KALB 010705Z AUTO 01007KT 3SM -DZ BR BKN004 OVC033 A2983 RMK P0001 MADISHF
ALB,2017-04-01 07:10,-73.8036,42.7576,M,M,M,10.00,7.00,0.01,29.83,M,3.00,M,BKN,OVC,M,M,499.00,3300.00,M,M,-DZ BR,KALB 010710Z AUTO 01007KT 3SM -DZ BR BKN004 OVC033 A2983 RMK P0001 MADISHF
ALB,2017-04-01 07:20,-73.8036,42.7576,M,M,M,360.00,7.00,0.01,29.83,M,3.00,M,BKN,OVC,M,M,499.00,3300.00,M,M,-DZ BR,KALB 010720Z AUTO 36007KT 3SM -DZ BR BKN004 OVC033 A2983 RMK P0001 MADISHF
ALB,2017-04-01 07:25,-73.8036,42.7576,M,M,M,350.00,6.00,0.01,29.82,M,3.00,M,BKN,OVC,M,M,499.00,3300.00,M,M,-DZ BR,KALB 010725Z AUTO 35006KT 3SM -DZ BR BKN004 OVC033 A2982 RMK P0001 MADISHF
ALB,2017-04-01 07:30,-73.8036,42.7576,M,M,M,360.00,7.00,0.01,29.82,M,3.00,M,BKN,OVC,M,M,499.00,3300.00,M,M,-DZ BR,KALB 010730Z AUTO 36007KT 3SM -DZ BR BKN004 OVC033 A2982 RMK P0001 MADISHF
ALB,2017-04-01 07:35,-73.8036,42.7576,M,M,M,360.00,6.00,0.01,29.83,M,3.00,M,BKN,OVC,M,M,499.00,3300.00,M,M,-DZ BR,KALB 010735Z AUTO 36006KT 3SM -DZ BR BKN004 OVC033 A2983 RMK P0001 MADISHF
ALB,2017-04-01 07:40,-73.8036,42.7576,M,M,M,350.00,6.00,0.01,29.83,M,3.00,M,BKN,OVC,M,M,499.00,3300.00,M,M,-DZ BR,KALB 010740Z AUTO 35006KT 3SM -DZ BR BKN004 OVC033 A2983 RMK P0001 MADISHF
ALB,2017-04-01 07:45,-73.8036,42.7576,M,M,M,350.00,7.00,0.01,29.82,M,3.00,M,BKN,OVC,M,M,499.00,3100.00,M,M,-DZ BR,KALB 010745Z AUTO 35007KT 3SM -DZ BR BKN004 OVC031 A2982 RMK P0001 MADISHF
ALB,2017-04-01 07:50,-73.8036,42.7576,M,M,M,350.00,7.00,0.01,29.83,M,4.00,M,BKN,OVC,M,M,499.00,3100.00,M,M,-DZ BR,KALB 010750Z AUTO 35007KT 4SM -DZ BR BKN004 OVC031 A2983 RMK P0001  BKN V SCT MADISHF
ALB,2017-04-01 07:51,-73.8036,42.7576,34.00,30.90,88.27,360.00,6.00,0.01,29.83,1010.30,4.00,M,BKN,OVC,M,M,500.00,3100.00,M,M,-DZ BR,KALB 010751Z 36006KT 4SM -DZ BR BKN005 OVC031 01/M01 A2983 RMK AO2 SLP103 BKN V SCT P0001 T00111006
ALB,2017-04-01 07:55,-73.8036,42.7576,M,M,M,350.00,7.00,M,29.83,M,4.00,M,BKN,OVC,M,M,499.00,3100.00,M,M,-DZ BR,KALB 010755Z AUTO 35007KT 4SM -DZ BR BKN004 OVC031 A2983 RMK  BKN V SCT MADISHF
ALB,2017-04-01 08:00,-73.8036,42.7576,M,M,M,360.00,7.00,M,29.83,M,4.00,M,BKN,OVC,M,M,499.00,3100.00,M,M,-DZ BR,KALB 010800Z AUTO 36007KT 4SM -DZ BR BKN004 OVC031 A2983 RMK  BKN V SCT MADISHF
ALB,2017-04-01 08:10,-73.8036,42.7576,M,M,M,350.00,7.00,M,29.83,M,4.00,M,BKN,OVC,M,M,499.00,3100.00,M,M,-DZ BR,KALB 010810Z AUTO 35007KT 4SM -DZ BR BKN004 OVC031 A2983 RMK  BKN V SCT MADISHF
ALB,2017-04-01 08:15,-73.8036,42.7576,M,M,M,360.00,7.00,M,29.82,M,4.00,M,BKN,OVC,M,M,499.00,3100.00,M,M,-DZ BR,KALB 010815Z AUTO 36007KT 4SM -DZ BR BKN004 OVC031 A2982 RMK  BKN V SCT MADISHF
ALB,2017-04-01 08:20,-73.8036,42.7576,M,M,M,350.00,8.00,M,29.83,M,3.00,M,BKN,OVC,M,M,499.00,2900.00,M,M,-DZ BR,KALB 010820Z AUTO 35008KT 3SM -DZ BR BKN004 OVC029 A2983 RMK  BKN V SCT MADISHF
ALB,2017-04-01 08:25,-73.8036,42.7576,M,M,M,340.00,7.00,M,29.83,M,3.00,M,BKN,OVC,M,M,499.00,2900.00,M,M,-DZ BR,KALB 010825Z AUTO 34007KT 3SM -DZ BR BKN004 OVC029 A2983 RMK  BKN V SCT MADISHF
ALB,2017-04-01 08:30,-73.8036,42.7576,M,M,M,350.00,7.00,M,29.83,M,3.00,M,BKN,OVC,M,M,499.00,2900.00,M,M,-DZ BR,KALB 010830Z AUTO 35007KT 3SM -DZ BR BKN004 OVC029 A2983 RMK  BKN V SCT MADISHF
ALB,2017-04-01 08:35,-73.8036,42.7576,M,M,M,350.00,7.00,M,29.83,M,3.00,M,BKN,OVC,M,M,499.00,2900.00,M,M,-DZ BR,KALB 010835Z AUTO 35007KT 3SM -DZ BR BKN004 OVC029 A2983 RMK  BKN V SCT MADISHF
ALB,2017-04-01 08:40,-73.8036,42.7576,M,M,M,350.00,8.00,M,29.83,M,3.00,M,BKN,OVC,M,M,499.00,2900.00,M,M,-DZ BR,KALB 010840Z AUTO 35008KT 3SM -DZ BR BKN004 OVC029 A2983 RMK  BKN V SCT MADISHF
ALB,2017-04-01 08:45,-73.8036,42.7576,M,M,M,350.00,8.00,M,29.83,M,4.00,M,BKN,OVC,M,M,499.00,2900.00,M,M,-DZ BR,KALB 010845Z AUTO 35008KT 4SM -DZ BR BKN004 OVC029 A2983 RMK  BKN V SCT MADISHF
ALB,2017-04-01 08:50,-73.8036,42.7576,M,M,M,350.00,8.00,M,29.83,M,4.00,M,BKN,OVC,M,M,499.00,3200.00,M,M,-DZ BR,KALB 010850Z AUTO 35008KT 4SM -DZ BR BKN004 OVC032 A2983 RMK  BKN V SCT MADISHF
ALB,2017-04-01 08:51,-73.8036,42.7576,34.00,30.90,88.27,350.00,8.00,0.00,29.83,1010.20,4.00,M,BKN,OVC,M,M,500.00,3200.00,M,M,-DZ BR,KALB 010851Z 35008KT 4SM -DZ BR BKN005 OVC032 01/M01 A2983 RMK AO2 SLP102 BKN V SCT P0000 60002 I3000 T00111006 56005
ALB,2017-04-01 08:55,-73.8036,42.7576,M,M,M,360.00,7.00,M,29.83,M,4.00,M,BKN,OVC,M,M,499.00,3200.00,M,M,-DZ BR,KALB 010855Z AUTO 36007KT 4SM -DZ BR BKN004 OVC032 A2983 RMK MADISHF
ALB,2017-04-01 09:00,-73.8036,42.7576,M,M,M,350.00,7.00,M,29.83,M,4.00,M,BKN,OVC,M,M,499.00,3200.00,M,M,-DZ BR,KALB 010900Z AUTO 35007KT 4SM -DZ BR BKN004 OVC032 A2983 RMK MADISHF
ALB,2017-04-01 09:05,-73.8036,42.7576,M,M,M,360.00,9.00,M,29.83,M,4.00,M,BKN,OVC,M,M,499.00,3200.00,M,M,-DZ BR,KALB 010905Z AUTO 36009KT 4SM -DZ BR BKN004 OVC032 A2983 RMK MADISHF
ALB,2017-04-01 09:10,-73.8036,42.7576,M,M,M,350.00,7.00,M,29.83,M,4.00,M,BKN,OVC,M,M,499.00,3200.00,M,M,-DZ BR,KALB 010910Z AUTO 35007KT 4SM -DZ BR BKN004 OVC032 A2983 RMK MADISHF
ALB,2017-04-01 09:15,-73.8036,42.7576,M,M,M,350.00,9.00,M,29.83,M,4.00,M,BKN,OVC,M,M,499.00,3200.00,M,M,-DZ BR,KALB 010915Z AUTO 35009KT 4SM -DZ BR BKN004 OVC032 A2983 RMK MADISHF
ALB,2017-04-01 09:20,-73.8036,42.7576,M,M,M,360.00,9.00,M,29.83,M,4.00,M,BKN,OVC,M,M,499.00,3200.00,M,M,-DZ BR,KALB 010920Z AUTO 36009KT 4SM -DZ BR BKN004 OVC032 A2983 RMK MADISHF
ALB,2017-04-01 09:25,-73.8036,42.7576,M,M,M,360.00,9.00,M,29.83,M,4.00,M,BKN,OVC,M,M,499.00,3200.00,M,M,-DZ BR,KALB 010925Z AUTO 36009KT 4SM -DZ BR BKN004 OVC032 A2983 RMK MADISHF
ALB,2017-04-01 09:30,-73.8036,42.7576,M,M,M,360.00,8.00,M,29.83,M,4.00,M,BKN,OVC,M,M,499.00,3200.00,M,M,-DZ BR,KALB 010930Z AUTO 36008KT 4SM -DZ BR BKN004 OVC032 A2983 RMK MADISHF
ALB,2017-04-01 09:35,-73.8036,42.7576,M,M,M,360.00,9.00,M,29.83,M,4.00,M,BKN,OVC,M,M,499.00,3200.00,M,M,-DZ BR,KALB 010935Z AUTO 36009KT 4SM -DZ BR BKN004 OVC032 A2983 RMK MADISHF
ALB,2017-04-01 09:40,-73.8036,42.7576,M,M,M,360.00,9.00,M,29.83,M,4.00,M,BKN,OVC,M,M,499.00,3200.00,M,M,-DZ BR,KALB 010940Z AUTO 36009KT 4SM -DZ BR BKN004 OVC032 A2983 RMK MADISHF
ALB,2017-04-01 09:45,-73.8036,42.7576,M,M,M,360.00,7.00,M,29.84,M,4.00,M,BKN,OVC,M,M,499.00,3200.00,M,M,-DZ BR,KALB 010945Z AUTO 36007KT 4SM -DZ BR BKN004 OVC032 A2984 RMK MADISHF
ALB,2017-04-01 09:50,-73.8036,42.7576,M,M,M,360.00,7.00,M,29.84,M,5.00,M,BKN,OVC,M,M,499.00,3200.00,M,M,-DZ BR,KALB 010950Z AUTO 36007KT 5SM -DZ BR BKN004 OVC032 A2984 RMK  BKN V SCT MADISHF
ALB,2017-04-01 09:51,-73.8036,42.7576,34.00,30.90,88.27,360.00,7.00,0.00,29.84,1010.60,5.00,M,BKN,OVC,M,M,500.00,3200.00,M,M,-DZ BR,KALB 010951Z 36007KT 5SM -DZ BR BKN005 OVC032 01/M01 A2984 RMK AO2 SLP106 BKN V SCT P0000 T00111006
ALB,2017-04-01 09:55,-73.8036,42.7576,M,M,M,360.00,9.00,M,29.84,M,5.00,M,BKN,OVC,M,M,499.00,3200.00,M,M,-DZ BR,KALB 010955Z AUTO 36009KT 5SM -DZ BR BKN004 OVC032 A2984 RMK MADISHF
ALB,2017-04-01 10:00,-73.8036,42.7576,M,M,M,360.00,6.00,M,29.84,M,5.00,M,BKN,OVC,M,M,499.00,3200.00,M,M,-DZ BR,KALB 011000Z AUTO 36006KT 5SM -DZ BR BKN004 OVC032 A2984 RMK MADISHF
ALB,2017-04-01 10:05,-73.8036,42.7576,M,M,M,360.00,7.00,M,29.85,M,5.00,M,BKN,OVC,M,M,499.00,3200.00,M,M,-DZ BR,KALB 011005Z AUTO 36007KT 5SM -DZ BR BKN004 OVC032 A2985 RMK MADISHF
ALB,2017-04-01 10:10,-73.8036,42.7576,M,M,M,10.00,7.00,M,29.85,M,5.00,M,BKN,OVC,M,M,499.00,3200.00,M,M,-DZ BR,KALB 011010Z AUTO 01007KT 5SM -DZ BR BKN004 OVC032 A2985 RMK MADISHF
ALB,2017-04-01 10:15,-73.8036,42.7576,M,M,M,360.00,7.00,M,29.85,M,5.00,M,BKN,BKN,OVC,M,499.00,1200.00,3399.00,M,-DZ BR,KALB 011015Z AUTO 36007KT 5SM -DZ BR BKN004 BKN012 OVC033 A2985 RMK MADISHF
ALB,2017-04-01 10:20,-73.8036,42.7576,M,M,M,10.00,8.00,M,29.85,M,5.00,M,BKN,BKN,OVC,M,499.00,1200.00,3399.00,M,-DZ BR,KALB 011020Z AUTO 01008KT 5SM -DZ BR BKN004 BKN012 OVC033 A2985 RMK MADISHF
ALB,2017-04-01 10:25,-73.8036,42.7576,M,M,M,360.00,8.00,M,29.85,M,5.00,M,BKN,BKN,OVC,M,499.00,1200.00,3399.00,M,-DZ BR,KALB 011025Z AUTO 36008KT 5SM -DZ BR BKN004 BKN012 OVC033 A2985 RMK MADISHF
ALB,2017-04-01 10:30,-73.8036,42.7576,M,M,M,360.00,9.00,M,29.85,M,5.00,M,BKN,BKN,OVC,M,499.00,1200.00,3399.00,M,-DZ BR,KALB 011030Z AUTO 36009KT 5SM -DZ BR BKN004 BKN012 OVC033 A2985 RMK MADISHF
ALB,2017-04-01 10:35,-73.8036,42.7576,M,M,M,360.00,7.00,M,29.86,M,3.00,M,BKN,OVC,M,M,499.00,3399.00,M,M,-DZ BR,KALB 011035Z AUTO 36007KT 3SM -DZ BR BKN004 OVC033 A2986 RMK MADISHF
ALB,2017-04-01 10:40,-73.8036,42.7576,M,M,M,360.00,7.00,M,29.86,M,3.00,M,BKN,OVC,M,M,499.00,3399.00,M,M,-DZ BR,KALB 011040Z AUTO 36007KT 3SM -DZ BR BKN004 OVC033 A2986 RMK MADISHF
ALB,2017-04-01 10:45,-73.8036,42.7576,33.80,30.20,86.49,360.00,7.00,0.00,29.86,M,3.00,M,BKN,OVC,M,M,500.00,3400.00,M,M,-DZPL BR,KALB 011045Z 36007KT 3SM -DZPL BR BKN005 OVC034 01/M01 A2986 RMK AO2 PLB45 P0000
ALB,2017-04-01 10:50,-73.8036,42.7576,M,M,M,350.00,9.00,0.01,29.86,M,2.00,M,BKN,OVC,M,M,499.00,3399.00,M,M,-DZ BR,KALB 011050Z AUTO 35009KT 2SM -DZ BR BKN004 OVC033 A2986 RMK P0001 MADISHF
ALB,2017-04-01 10:51,-73.8036,42.7576,34.00,30.90,88.27,360.00,8.00,0.01,29.86,1011.40,2.00,M,BKN,OVC,M,M,500.00,3400.00,M,M,-DZPL BR,KALB 011051Z 36008KT 2SM -DZPL BR BKN005 OVC034 01/M01 A2986 RMK AO2 PLB45 SLP114 P0001 T00111006
ALB,2017-04-01 10:55,-73.8036,42.7576,M,M,M,350.00,6.00,M,29.86,M,2.00,M,BKN,OVC,M,M,600.00,3399.00,M,M,-DZ BR,KALB 011055Z AUTO 35006KT 2SM -DZ BR BKN006 OVC033 A2986 RMK MADISHF
ALB,2017-04-01 11:00,-73.8036,42.7576,M,M,M,350.00,7.00,M,29.86,M,2.00,M,BKN,OVC,M,M,600.00,3399.00,M,M,-DZ BR,KALB 011100Z AUTO 35007KT 2SM -DZ BR BKN006 OVC033 A2986 RMK MADISHF
ALB,2017-04-01 11:05,-73.8036,42.7576,M,M,M,360.00,8.00,M,29.87,M,2.00,M,BKN,OVC,M,M,600.00,3399.00,M,M,-DZ -SN BR,KALB 011105Z AUTO 36008KT 2SM -DZ -SN BR BKN006 OVC033 A2987 RMK MADISHF
ALB,2017-04-01 11:10,-73.8036,42.7576,M,M,M,350.00,7.00,M,29.87,M,2.00,M,BKN,OVC,M,M,600.00,3399.00,M,M,-DZ -SN BR,KALB 011110Z AUTO 35007KT 2SM -DZ -SN BR BKN006 OVC033 A2987 RMK MADISHF
ALB,2017-04-01 11:15,-73.8036,42.7576,M,M,M,350.00,6.00,M,29.87,M,2.00,M,BKN,OVC,M,M,600.00,3399.00,M,M,-DZ -SN BR,KALB 011115Z AUTO 35006KT 2SM -DZ -SN BR BKN006 OVC033 A2987 RMK MADISHF
ALB,2017-04-01 11:16,-73.8036,42.7576,33.80,30.20,86.49,350.00,6.00,0.00,29.87,M,2.00,M,BKN,OVC,M,M,600.00,2900.00,M,M,-SN BR,KALB 011116Z 35006KT 2SM -SN BR BKN006 OVC029 01/M01 A2987
ALB,2017-04-01 11:20,-73.8036,42.7576,M,M,M,350.00,7.00,M,29.87,M,2.00,M,BKN,OVC,M,M,600.00,2900.00,M,M,-SN BR,KALB 011120Z AUTO 35007KT 2SM -SN BR BKN006 OVC029 A2987 RMK  VIS 1 1/2V2 1/2 MADISHF
ALB,2017-04-01 11:25,-73.8036,42.7576,M,M,M,350.00,7.00,M,29.87,M,2.00,M,BKN,OVC,M,M,600.00,2900.00,M,M,-SN BR,KALB 011125Z AUTO 35007KT 2SM -SN BR BKN006 OVC029 A2987 RMK  VIS 1 1/2V2 1/2 MADISHF
ALB,2017-04-01 11:30,-73.8036,42.7576,M,M,M,350.00,8.00,0.01,29.87,M,2.00,M,BKN,OVC,M,M,600.00,2900.00,M,M,-SN BR,KALB 011130Z AUTO 35008KT 2SM -SN BR BKN006 OVC029 A2987 RMK P0001  VIS 1 1/2V2 1/2 MADISHF
ALB,2017-04-01 11:35,-73.8036,42.7576,M,M,M,350.00,6.00,0.01,29.88,M,2.00,M,BKN,OVC,M,M,600.00,2900.00,M,M,-SN BR,KALB 011135Z AUTO 35006KT 2SM -SN BR BKN006 OVC029 A2988 RMK P0001  VIS 1 1/2V2 1/2 MADISHF
ALB,2017-04-01 11:40,-73.8036,42.7576,M,M,M,360.00,6.00,0.01,29.88,M,2.00,M,BKN,OVC,M,M,600.00,2900.00,M,M,-SN BR,KALB 011140Z AUTO 36006KT 2SM -SN BR BKN006 OVC029 A2988 RMK P0001  VIS 1 1/2V2 1/2 MADISHF
ALB,2017-04-01 11:45,-73.8036,42.7576,M,M,M,360.00,7.00,0.01,29.88,M,2.00,M,BKN,OVC,M,M,600.00,2900.00,M,M,-SN BR,KALB 011145Z AUTO 36007KT 2SM -SN BR BKN006 OVC029 A2988 RMK P0001  VIS 1 1/2V2 1/2 MADISHF
ALB,2017-04-01 11:50,-73.8036,42.7576,M,M,M,360.00,7.00,0.01,29.88,M,2.50,M,BKN,OVC,M,M,600.00,2900.00,M,M,-SN BR,KALB 011150Z AUTO 36007KT 2 1/2SM -SN BR BKN006 OVC029 A2988 RMK P0001  VIS 2V3 MADISHF
ALB,2017-04-01 11:51,-73.8036,42.7576,34.00,30.90,88.27,360.00,7.00,0.01,29.88,1012.00,2.00,M,BKN,OVC,M,M,600.00,2900.00,M,M,-SN BR,KALB 011151Z 36007KT 2SM -SN BR BKN006 OVC029 01/M01 A2988 RMK AO2 SFC VIS 2 1/2 DZE16SNB01PLE16 SLP120 VIS 2V3 P0001 60004 70105 I6000 T00111006 10011 20006 53018
ALB,2017-04-01 11:55,-73.8036,42.7576,M,M,M,360.00,7.00,M,29.88,M,2.50,M,BKN,OVC,M,M,600.00,2900.00,M,M,-SN BR,KALB 011155Z AUTO 36007KT 2 1/2SM -SN BR BKN006 OVC029 A2988 RMK  VIS 2V3 MADISHF
ALB,2017-04-01 12:00,-73.8036,42.7576,M,M,M,10.00,6.00,M,29.88,M,2.50,M,BKN,OVC,M,M,600.00,2900.00,M,M,-SN BR,KALB 011200Z AUTO 01006KT 2 1/2SM -SN BR BKN006 OVC029 A2988 RMK  VIS 2V3 MADISHF
ALB,2017-04-01 12:10,-73.8036,42.7576,M,M,M,360.00,7.00,M,29.89,M,2.50,M,BKN,OVC,M,M,600.00,2900.00,M,M,-SN BR,KALB 011210Z AUTO 36007KT 2 1/2SM -SN BR BKN006 OVC029 A2989 RMK  VIS 2V3 MADISHF
ALB,2017-04-01 12:15,-73.8036,42.7576,M,M,M,360.00,8.00,M,29.89,M,2.50,M,BKN,OVC,M,M,600.00,2900.00,M,M,-SN BR,KALB 011215Z AUTO 36008KT 2 1/2SM -SN BR BKN006 OVC029 A2989 RMK  VIS 2V3 MADISHF
ALB,2017-04-01 12:20,-73.8036,42.7576,M,M,M,10.00,9.00,M,29.89,M,2.50,M,BKN,OVC,M,M,600.00,2900.00,M,M,-SN BR,KALB 011220Z AUTO 01009KT 2 1/2SM -SN BR BKN006 OVC029 A2989 RMK  VIS 2V3 MADISHF
ALB,2017-04-01 12:30,-73.8036,42.7576,M,M,M,360.00,7.00,M,29.90,M,2.50,M,BKN,OVC,M,M,600.00,2900.00,M,M,-SN BR,KALB 011230Z AUTO 36007KT 2 1/2SM -SN BR BKN006 OVC029 A2990 RMK  VIS 2V3 MADISHF
ALB,2017-04-01 12:35,-73.8036,42.7576,M,M,M,350.00,8.00,M,29.90,M,2.50,M,BKN,OVC,M,M,600.00,3000.00,M,M,-DZ -SN BR,KALB 011235Z AUTO 35008KT 2 1/2SM -DZ -SN BR BKN006 OVC030 A2990 RMK  VIS 2V3 MADISHF
ALB,2017-04-01 12:40,-73.8036,42.7576,M,M,M,360.00,7.00,M,29.90,M,3.00,M,OVC,M,M,M,600.00,M,M,M,-DZ -SN BR,KALB 011240Z AUTO 36007KT 3SM -DZ -SN BR OVC006 A2990 RMK CIG 5V9  MADISHF
ALB,2017-04-01 12:41,-73.8036,42.7576,35.10,30.90,84.49,360.00,7.00,0.00,29.90,M,3.00,M,OVC,M,M,M,600.00,M,M,M,-DZSN BR,KALB 011241Z 36007KT 3SM -DZSN BR OVC006 02/M01 A2990 RMK AO2 DZB33 CIG 005V009 P0000 T00171006
ALB,2017-04-01 12:50,-73.8036,42.7576,M,M,M,360.00,8.00,M,29.90,M,3.00,M,OVC,M,M,M,600.00,M,M,M,-DZ -SN BR,KALB 011250Z AUTO 36008KT 3SM -DZ -SN BR OVC006 A2990 RMK CIG 5V9  MADISHF
ALB,2017-04-01 12:51,-73.8036,42.7576,35.10,30.90,84.49,10.00,7.00,0.00,29.90,1012.70,3.00,M,OVC,M,M,M,600.00,M,M,M,-DZSN BR,KALB 011251Z 01007KT 3SM -DZSN BR OVC006 02/M01 A2990 RMK AO2 DZB33 SLP127 P0000 T00171006
ALB,2017-04-01 12:55,-73.8036,42.7576,M,M,M,10.00,8.00,M,29.90,M,3.00,M,OVC,M,M,M,600.00,M,M,M,-DZ -SN BR,KALB 011255Z AUTO 01008KT 3SM -DZ -SN BR OVC006 A2990 RMK MADISHF
ALB,2017-04-01 13:00,-73.8036,42.7576,M,M,M,10.00,8.00,M,29.90,M,3.00,M,OVC,M,M,M,600.00,M,M,M,-DZ -SN BR,KALB 011300Z AUTO 01008KT 3SM -DZ -SN BR OVC006 A2990 RMK MADISHF
ALB,2017-04-01 13:05,-73.8036,42.7576,M,M,M,10.00,8.00,M,29.90,M,3.00,M,OVC,M,M,M,600.00,M,M,M,-DZ -SN BR,KALB 011305Z AUTO 01008KT 3SM -DZ -SN BR OVC006 A2990 RMK MADISHF
ALB,2017-04-01 13:09,-73.8036,42.7576,35.60,32.00,86.59,10.00,7.00,0.00,29.90,M,2.50,M,OVC,M,M,M,600.00,M,M,M,-DZ BR,KALB 011309Z 01007KT 2 1/2SM -DZ BR OVC006 02/00 A2990
ALB,2017-04-01 13:10,-73.8036,42.7576,M,M,M,360.00,8.00,0.01,29.90,M,2.50,M,OVC,M,M,M,600.00,M,M,M,-DZ BR,KALB 011310Z AUTO 36008KT 2 1/2SM -DZ BR OVC006 A2990 RMK P0001  VIS 2V3 MADISHF
ALB,2017-04-01 13:15,-73.8036,42.7576,M,M,M,360.00,8.00,0.01,29.90,M,2.50,M,OVC,M,M,M,600.00,M,M,M,-DZ BR,KALB 011315Z AUTO 36008KT 2 1/2SM -DZ BR OVC006 A2990 RMK P0001  VIS 2V3 MADISHF
ALB,2017-04-01 13:20,-73.8036,42.7576,M,M,M,360.00,10.00,0.01,29.90,M,2.50,M,OVC,M,M,M,700.00,M,M,M,-DZ BR,KALB 011320Z AUTO 36010KT 2 1/2SM -DZ BR OVC007 A2990 RMK P0001  VIS 2V3 MADISHF
ALB,2017-04-01 13:25,-73.8036,42.7576,M,M,M,360.00,9.00,0.01,29.91,M,2.50,M,OVC,M,M,M,700.00,M,M,M,-DZ BR,KALB 011325Z AUTO 36009KT 2 1/2SM -DZ BR OVC007 A2991 RMK P0001 CIG 5V11 VIS 2V3 MADISHF
ALB,2017-04-01 13:30,-73.8036,42.7576,M,M,M,360.00,8.00,0.01,29.91,M,2.50,M,OVC,M,M,M,700.00,M,M,M,-DZ BR,KALB 011330Z AUTO 36008KT 2 1/2SM -DZ BR OVC007 A2991 RMK P0001 CIG 5V11 VIS 2V3 MADISHF
ALB,2017-04-01 13:32,-73.8036,42.7576,35.60,32.00,86.59,360.00,8.00,0.00,29.91,M,4.00,M,OVC,M,M,M,700.00,M,M,M,-DZ BR,KALB 011332Z 36008KT 4SM -DZ BR OVC007 02/00 A2991
ALB,2017-04-01 13:35,-73.8036,42.7576,M,M,M,360.00,8.00,0.01,29.91,M,4.00,M,OVC,M,M,M,700.00,M,M,M,-DZ BR,KALB 011335Z AUTO 36008KT 4SM -DZ BR OVC007 A2991 RMK P0001 MADISHF
ALB,2017-04-01 13:40,-73.8036,42.7576,M,M,M,360.00,10.00,0.01,29.91,M,4.00,M,OVC,M,M,M,800.00,M,M,M,-DZ BR,KALB 011340Z AUTO 36010KT 4SM -DZ BR OVC008 A2991 RMK P0001 MADISHF
ALB,2017-04-01 13:45,-73.8036,42.7576,M,M,M,360.00,7.00,0.01,29.92,M,10.00,M,OVC,M,M,M,800.00,M,M,M,-RA,KALB 011345Z AUTO 36007KT 10SM -RA OVC008 A2992 RMK P0001 MADISHF
ALB,2017-04-01 13:50,-73.8036,42.7576,M,M,M,350.00,9.00,0.01,29.92,M,8.00,M,BKN,OVC,M,M,800.00,1100.00,M,M,-RA,KALB 011350Z AUTO 35009KT 8SM -RA BKN008 OVC011 A2992 RMK P0001  PCPN VRY LGT MADISHF
ALB,2017-04-01 13:51,-73.8036,42.7576,36.00,32.00,85.23,360.00,8.00,0.01,29.92,1013.30,8.00,M,OVC,M,M,M,800.00,M,M,M,-RA,KALB 011351Z 36008KT 8SM -RA OVC008 02/00 A2992 RMK AO2 DZE41RAB41SNE07 SLP133 PCPN VRY LGT P0001 T00220000
ALB,2017-04-01 14:00,-73.8036,42.7576,M,M,M,360.00,9.00,M,29.92,M,10.00,M,BKN,OVC,M,M,800.00,1200.00,M,M,-RA,KALB 011400Z AUTO 36009KT 10SM -RA BKN008 OVC012 A2992 RMK MADISHF
ALB,2017-04-01 14:05,-73.8036,42.7576,M,M,M,10.00,9.00,M,29.92,M,10.00,M,BKN,OVC,M,M,800.00,1200.00,M,M,-RA,KALB 011405Z AUTO 01009KT 10SM -RA BKN008 OVC012 A2992 RMK MADISHF
ALB,2017-04-01 14:10,-73.8036,42.7576,M,M,M,10.00,9.00,M,29.92,M,10.00,M,OVC,M,M,M,999.00,M,M,M,-RA,KALB 011410Z AUTO 01009KT 10SM -RA OVC009 A2992 RMK MADISHF
ALB,2017-04-01 14:13,-73.8036,42.7576,37.00,33.10,85.64,360.00,8.00,0.00,29.92,M,9.00,M,SCT,BKN,OVC,M,700.00,1000.00,4500.00,M,-RASN,KALB 011413Z 36008KT 9SM -RASN SCT007 BKN010 OVC045 03/01 A2992 RMK AO2 SNB13 P0000 T00280006
ALB,2017-04-01 14:15,-73.8036,42.7576,M,M,M,350.00,9.00,M,29.92,M,10.00,M,SCT,BKN,OVC,M,700.00,999.00,4500.00,M,-RA -SN,KALB 011415Z AUTO 35009KT 10SM -RA -SN SCT007 BKN009 OVC045 A2992 RMK MADISHF
ALB,2017-04-01 14:20,-73.8036,42.7576,M,M,M,350.00,8.00,M,29.92,M,10.00,M,SCT,BKN,OVC,M,700.00,999.00,4500.00,M,-RA -SN,KALB 011420Z AUTO 35008KT 10SM -RA -SN SCT007 BKN009 OVC045 A2992 RMK MADISHF
ALB,2017-04-01 14:25,-73.8036,42.7576,M,M,M,360.00,7.00,M,29.92,M,10.00,M,SCT,BKN,OVC,M,700.00,999.00,4500.00,M,-RA -SN,KALB 011425Z AUTO 36007KT 10SM -RA -SN SCT007 BKN009 OVC045 A2992 RMK MADISHF
ALB,2017-04-01 14:30,-73.8036,42.7576,M,M,M,350.00,8.00,M,29.92,M,10.00,M,SCT,BKN,OVC,M,700.00,999.00,4500.00,M,-RA -SN,KALB 011430Z AUTO 35008KT 10SM -RA -SN SCT007 BKN009 OVC045 A2992 RMK MADISHF
ALB,2017-04-01 14:35,-73.8036,42.7576,M,M,M,360.00,8.00,M,29.92,M,10.00,M,SCT,BKN,OVC,M,700.00,999.00,4500.00,M,-RA -SN,KALB 011435Z AUTO 36008KT 10SM -RA -SN SCT007 BKN009 OVC045 A2992 RMK MADISHF
ALB,2017-04-01 14:40,-73.8036,42.7576,M,M,M,350.00,7.00,M,29.93,M,10.00,M,SCT,BKN,OVC,M,700.00,999.00,4500.00,M,-RA -SN,KALB 011440Z AUTO 35007KT 10SM -RA -SN SCT007 BKN009 OVC045 A2993 RMK MADISHF
ALB,2017-04-01 14:45,-73.8036,42.7576,M,M,M,350.00,8.00,M,29.93,M,10.00,M,SCT,BKN,OVC,M,700.00,999.00,4500.00,M,-RA -SN,KALB 011445Z AUTO 35008KT 10SM -RA -SN SCT007 BKN009 OVC045 A2993 RMK MADISHF
ALB,2017-04-01 14:50,-73.8036,42.7576,M,M,M,340.00,9.00,M,29.93,M,10.00,M,SCT,BKN,OVC,M,700.00,999.00,4500.00,M,-DZ,KALB 011450Z AUTO 34009KT 10SM -DZ SCT007 BKN009 OVC045 A2993 RMK  PCPN VRY LGT AND INTMT MADISHF
ALB,2017-04-01 14:51,-73.8036,42.7576,37.00,33.10,85.64,340.00,9.00,0.00,29.93,1013.60,10.00,M,SCT,BKN,OVC,M,700.00,1000.00,4500.00,M,-DZ,KALB 011451Z 34009KT 10SM -DZ SCT007 BKN010 OVC045 03/01 A2993 RMK AO2 RAE50DZB50SNB13E50 SLP136 PCPN VRY LGT AND INTMT P0000 60001 T00280006 51016
ALB,2017-04-01 15:00,-73.8036,42.7576,M,M,M,360.00,7.00,M,29.93,M,10.00,M,SCT,BKN,OVC,M,700.00,1100.00,1600.00,M,-DZ,KALB 011500Z AUTO 36007KT 10SM -DZ SCT007 BKN011 OVC016 A2993 RMK MADISHF
ALB,2017-04-01 15:05,-73.8036,42.7576,M,M,M,360.00,8.00,M,29.93,M,10.00,M,SCT,BKN,OVC,M,700.00,1100.00,1600.00,M,-DZ,KALB 011505Z AUTO 36008KT 10SM -DZ SCT007 BKN011 OVC016 A2993 RMK MADISHF
ALB,2017-04-01 15:10,-73.8036,42.7576,M,M,M,10.00,9.00,M,29.93,M,10.00,M,SCT,BKN,OVC,M,700.00,1100.00,1600.00,M,-DZ,KALB 011510Z AUTO 01009KT 10SM -DZ SCT007 BKN011 OVC016 A2993 RMK MADISHF
ALB,2017-04-01 15:15,-73.8036,42.7576,M,M,M,350.00,10.00,M,29.93,M,10.00,M,SCT,BKN,OVC,M,700.00,1100.00,1600.00,M,-DZ,KALB 011515Z AUTO 35010KT 10SM -DZ SCT007 BKN011 OVC016 A2993 RMK MADISHF
ALB,2017-04-01 15:20,-73.8036,42.7576,M,M,M,360.00,10.00,M,29.93,M,10.00,M,SCT,BKN,OVC,M,700.00,1100.00,1600.00,M,-DZ,KALB 011520Z AUTO 36010KT 10SM -DZ SCT007 BKN011 OVC016 A2993 RMK MADISHF
ALB,2017-04-01 15:25,-73.8036,42.7576,M,M,M,360.00,7.00,M,29.92,M,10.00,M,SCT,BKN,OVC,M,700.00,1100.00,1600.00,M,-DZ,KALB 011525Z AUTO 36007KT 10SM -DZ SCT007 BKN011 OVC016 A2992 RMK MADISHF
ALB,2017-04-01 15:30,-73.8036,42.7576,M,M,M,350.00,8.00,M,29.93,M,10.00,M,SCT,BKN,OVC,M,700.00,1100.00,1600.00,M,-DZ,KALB 011530Z AUTO 35008KT 10SM -DZ SCT007 BKN011 OVC016 A2993 RMK MADISHF
ALB,2017-04-01 15:35,-73.8036,42.7576,M,M,M,350.00,11.00,M,29.93,M,10.00,M,SCT,BKN,OVC,M,700.00,1100.00,1600.00,M,M,KALB 011535Z AUTO 35011KT 10SM SCT007 BKN011 OVC016 A2993 RMK  PRESENT WX VCSH MADISHF
ALB,2017-04-01 15:40,-73.8036,42.7576,M,M,M,360.00,10.00,M,29.93,M,10.00,M,SCT,BKN,OVC,M,700.00,1100.00,1600.00,M,M,KALB 011540Z AUTO 36010KT 10SM SCT007 BKN011 OVC016 A2993 RMK  PRESENT WX VCSH MADISHF
ALB,2017-04-01 15:45,-73.8036,42.7576,M,M,M,360.00,10.00,M,29.93,M,10.00,M,SCT,BKN,OVC,M,700.00,1100.00,1600.00,M,M,KALB 011545Z AUTO 36010KT 10SM SCT007 BKN011 OVC016 A2993 RMK  PRESENT WX VCSH MADISHF
ALB,2017-04-01 15:51,-73.8036,42.7576,39.00,33.10,79.17,350.00,12.00,0.00,29.93,1013.70,10.00,M,SCT,BKN,OVC,M,1100.00,1400.00,4500.00,M,M,KALB 011551Z 35012KT 10SM SCT011 BKN014 OVC045 04/01 A2993 RMK AO2 DZE35 SLP137 PRESENT WX VCSH P0000 T00390006
ALB,2017-04-01 15:55,-73.8036,42.7576,M,M,M,360.00,11.00,M,29.93,M,10.00,M,SCT,BKN,OVC,M,1100.00,1400.00,4500.00,M,M,KALB 011555Z AUTO 36011KT 10SM SCT011 BKN014 OVC045 A2993 RMK MADISHF
ALB,2017-04-01 16:00,-73.8036,42.7576,M,M,M,350.00,9.00,M,29.93,M,10.00,M,SCT,BKN,OVC,M,1100.00,1400.00,4500.00,M,M,KALB 011600Z AUTO 35009KT 10SM SCT011 BKN014 OVC045 A2993 RMK MADISHF
ALB,2017-04-01 16:05,-73.8036,42.7576,M,M,M,350.00,9.00,M,29.93,M,10.00,M,SCT,BKN,OVC,M,1100.00,1400.00,4500.00,M,M,KALB 011605Z AUTO 35009KT 10SM SCT011 BKN014 OVC045 A2993 RMK MADISHF
ALB,2017-04-01 16:15,-73.8036,42.7576,M,M,M,350.00,10.00,M,29.94,M,10.00,M,SCT,BKN,OVC,M,1100.00,1400.00,4500.00,M,M,KALB 011615Z AUTO 35010KT 10SM SCT011 BKN014 OVC045 A2994 RMK MADISHF
ALB,2017-04-01 16:20,-73.8036,42.7576,M,M,M,360.00,8.00,M,29.94,M,10.00,M,SCT,BKN,OVC,M,1100.00,1400.00,4500.00,M,M,KALB 011620Z AUTO 36008KT 10SM SCT011 BKN014 OVC045 A2994 RMK MADISHF
ALB,2017-04-01 16:25,-73.8036,42.7576,M,M,M,360.00,10.00,M,29.94,M,10.00,M,SCT,BKN,OVC,M,1100.00,1400.00,4500.00,M,M,KALB 011625Z AUTO 36010KT 10SM SCT011 BKN014 OVC045 A2994 RMK MADISHF
ALB,2017-04-01 16:35,-73.8036,42.7576,M,M,M,360.00,11.00,M,29.93,M,10.00,M,SCT,BKN,OVC,M,1100.00,1400.00,4500.00,M,M,KALB 011635Z AUTO 36011KT 10SM SCT011 BKN014 OVC045 A2993 RMK MADISHF
ALB,2017-04-01 16:40,-73.8036,42.7576,M,M,M,360.00,11.00,M,29.93,M,10.00,M,SCT,BKN,OVC,M,1100.00,1400.00,4500.00,M,M,KALB 011640Z AUTO 36011KT 10SM SCT011 BKN014 OVC045 A2993 RMK MADISHF
ALB,2017-04-01 16:45,-73.8036,42.7576,M,M,M,360.00,11.00,M,29.93,M,10.00,M,SCT,BKN,OVC,M,1100.00,1400.00,4500.00,M,M,KALB 011645Z AUTO 36011KT 10SM SCT011 BKN014 OVC045 A2993 RMK MADISHF
ALB,2017-04-01 16:51,-73.8036,42.7576,39.90,33.10,76.44,360.00,11.00,0.00,29.93,1013.80,10.00,M,SCT,BKN,OVC,M,1300.00,1800.00,4500.00,M,M,KALB 011651Z 36011KT 10SM SCT013 BKN018 OVC045 04/01 A2993 RMK AO2 SLP138 PRESENT WX VCSH T00440006
ALB,2017-04-01 16:55,-73.8036,42.7576,M,M,M,360.00,11.00,M,29.93,M,10.00,M,SCT,BKN,OVC,M,1500.00,2100.00,2600.00,M,M,KALB 011655Z AUTO 36011KT 10SM SCT015 BKN021 OVC026 A2993 RMK MADISHF
ALB,2017-04-01 17:00,-73.8036,42.7576,M,M,M,340.00,10.00,M,29.93,M,10.00,M,SCT,BKN,OVC,M,1500.00,1999.00,2600.00,M,M,KALB 011700Z AUTO 34010KT 10SM SCT015 BKN019 OVC026 A2993 RMK MADISHF
ALB,2017-04-01 17:05,-73.8036,42.7576,M,M,M,340.00,10.00,M,29.93,M,10.00,M,BKN,BKN,OVC,M,1300.00,2200.00,2600.00,M,M,KALB 011705Z AUTO 34010KT 10SM BKN013 BKN022 OVC026 A2993 RMK MADISHF
ALB,2017-04-01 17:10,-73.8036,42.7576,M,M,M,340.00,9.00,M,29.93,M,10.00,M,SCT,BKN,OVC,M,1200.00,1500.00,2600.00,M,-DZ,KALB 011710Z AUTO 34009KT 10SM -DZ SCT012 BKN015 OVC026 A2993 RMK MADISHF
ALB,2017-04-01 17:15,-73.8036,42.7576,M,M,M,340.00,11.00,M,29.93,M,10.00,M,SCT,BKN,OVC,M,1200.00,1500.00,2600.00,M,-DZ,KALB 011715Z AUTO 34011KT 10SM -DZ SCT012 BKN015 OVC026 A2993 RMK MADISHF
ALB,2017-04-01 17:20,-73.8036,42.7576,M,M,M,360.00,8.00,M,29.93,M,10.00,M,SCT,BKN,OVC,M,1200.00,1500.00,2600.00,M,-DZ,KALB 011720Z AUTO 36008KT 10SM -DZ SCT012 BKN015 OVC026 A2993 RMK  SCT V BKN MADISHF
ALB,2017-04-01 17:25,-73.8036,42.7576,M,M,M,360.00,9.00,M,29.93,M,10.00,M,SCT,BKN,OVC,M,1200.00,1500.00,2600.00,M,-DZ,KALB 011725Z AUTO 36009KT 10SM -DZ SCT012 BKN015 OVC026 A2993 RMK  SCT V BKN MADISHF
ALB,2017-04-01 17:35,-73.8036,42.7576,M,M,M,360.00,11.00,M,29.93,M,10.00,M,SCT,BKN,OVC,M,1200.00,1500.00,2600.00,M,-DZ,KALB 011735Z AUTO 36011KT 10SM -DZ SCT012 BKN015 OVC026 A2993 RMK  SCT V BKN MADISHF
ALB,2017-04-01 17:40,-73.8036,42.7576,M,M,M,340.00,12.00,M,29.93,M,10.00,M,SCT,BKN,OVC,M,1200.00,1500.00,2600.00,M,-DZ,KALB 011740Z AUTO 34012KT 10SM -DZ SCT012 BKN015 OVC026 A2993 RMK  SCT V BKN MADISHF
ALB,2017-04-01 17:45,-73.8036,42.7576,M,M,M,350.00,11.00,M,29.93,M,10.00,M,SCT,BKN,OVC,M,1200.00,1500.00,2600.00,M,M,KALB 011745Z AUTO 35011KT 10SM SCT012 BKN015 OVC026 A2993 RMK MADISHF
ALB,2017-04-01 17:51,-73.8036,42.7576,41.00,33.10,73.25,10.00,8.00,0.00,29.93,1013.70,10.00,M,SCT,BKN,OVC,M,1200.00,1500.00,2600.00,M,M,KALB 011751Z 01008KT 10SM SCT012 BKN015 OVC026 05/01 A2993 RMK AO2 DZB07E45 SLP137 P0000 60001 T00500006 10050 20011 50001
ALB,2017-04-01 17:55,-73.8036,42.7576,M,M,M,10.00,9.00,M,29.93,M,10.00,M,SCT,BKN,OVC,M,1200.00,1500.00,2600.00,M,M,KALB 011755Z AUTO 01009KT 10SM SCT012 BKN015 OVC026 A2993 RMK MADISHF
ALB,2017-04-01 18:00,-73.8036,42.7576,M,M,M,360.00,9.00,M,29.93,M,10.00,M,SCT,BKN,OVC,M,1200.00,1500.00,2600.00,M,M,KALB 011800Z AUTO 36009KT 10SM SCT012 BKN015 OVC026 A2993 RMK MADISHF
ALB,2017-04-01 18:05,-73.8036,42.7576,M,M,M,360.00,8.00,M,29.93,M,10.00,M,SCT,BKN,OVC,M,1200.00,1500.00,2600.00,M,M,KALB 011805Z AUTO 36008KT 10SM SCT012 BKN015 OVC026 A2993 RMK MADISHF
ALB,2017-04-01 18:10,-73.8036,42.7576,M,M,M,10.00,10.00,M,29.93,M,10.00,M,SCT,BKN,OVC,M,1200.00,1500.00,2600.00,M,M,KALB 011810Z AUTO 01010KT 10SM SCT012 BKN015 OVC026 A2993 RMK MADISHF
ALB,2017-04-01 18:15,-73.8036,42.7576,M,M,M,350.00,10.00,M,29.93,M,10.00,M,SCT,BKN,OVC,M,1200.00,1500.00,2600.00,M,M,KALB 011815Z AUTO 35010KT 10SM SCT012 BKN015 OVC026 A2993 RMK MADISHF
ALB,2017-04-01 18:20,-73.8036,42.7576,M,M,M,350.00,11.00,M,29.93,M,10.00,M,SCT,BKN,OVC,M,1200.00,1500.00,2600.00,M,M,KALB 011820Z AUTO 35011KT 10SM SCT012 BKN015 OVC026 A2993 RMK MADISHF
ALB,2017-04-01 18:25,-73.8036,42.7576,M,M,M,350.00,9.00,M,29.93,M,10.00,M,SCT,BKN,OVC,M,1200.00,1500.00,2600.00,M,M,KALB 011825Z AUTO 35009KT 10SM SCT012 BKN015 OVC026 A2993 RMK MADISHF
ALB,2017-04-01 18:30,-73.8036,42.7576,M,M,M,340.00,12.00,M,29.94,M,10.00,M,SCT,BKN,OVC,M,1200.00,2600.00,4500.00,M,M,KALB 011830Z AUTO 34012KT 10SM SCT012 BKN026 OVC045 A2994 RMK MADISHF
ALB,2017-04-01 18:35,-73.8036,42.7576,M,M,M,350.00,10.00,M,29.94,M,10.00,M,SCT,BKN,OVC,M,1200.00,2600.00,4500.00,M,M,KALB 011835Z AUTO 35010KT 10SM SCT012 BKN026 OVC045 A2994 RMK MADISHF
ALB,2017-04-01 18:40,-73.8036,42.7576,M,M,M,340.00,9.00,M,29.94,M,10.00,M,SCT,BKN,OVC,M,1200.00,2600.00,4500.00,M,M,KALB 011840Z AUTO 34009KT 10SM SCT012 BKN026 OVC045 A2994 RMK MADISHF
ALB,2017-04-01 18:45,-73.8036,42.7576,M,M,M,10.00,10.00,M,29.94,M,10.00,M,SCT,BKN,OVC,M,1200.00,2600.00,4500.00,M,M,KALB 011845Z AUTO 01010KT 10SM SCT012 BKN026 OVC045 A2994 RMK MADISHF
ALB,2017-04-01 18:50,-73.8036,42.7576,M,M,M,360.00,10.00,M,29.94,M,10.00,M,FEW,SCT,OVC,M,1300.00,2600.00,5500.00,M,M,KALB 011850Z AUTO 36010KT 10SM FEW013 SCT026 OVC055 A2994 RMK MADISHF
ALB,2017-04-01 18:51,-73.8036,42.7576,42.10,32.00,67.17,360.00,9.00,0.00,29.94,1014.10,10.00,M,FEW,SCT,OVC,M,1300.00,2600.00,5500.00,M,M,KALB 011851Z 36009KT 10SM FEW013 SCT026 OVC055 06/00 A2994 RMK AO2 SLP141 T00560000
ALB,2017-04-01 18:55,-73.8036,42.7576,M,M,M,350.00,7.00,M,29.94,M,10.00,M,FEW,SCT,OVC,M,1300.00,2600.00,5500.00,M,M,KALB 011855Z AUTO 35007KT 10SM FEW013 SCT026 OVC055 A2994 RMK MADISHF
ALB,2017-04-01 19:00,-73.8036,42.7576,M,M,M,350.00,7.00,M,29.94,M,10.00,M,FEW,SCT,OVC,M,1300.00,2600.00,5500.00,M,M,KALB 011900Z AUTO 35007KT 10SM FEW013 SCT026 OVC055 A2994 RMK MADISHF
ALB,2017-04-01 19:05,-73.8036,42.7576,M,M,M,340.00,10.00,M,29.94,M,10.00,M,FEW,SCT,OVC,M,1300.00,2600.00,5500.00,M,M,KALB 011905Z AUTO 34010KT 10SM FEW013 SCT026 OVC055 A2994 RMK MADISHF
ALB,2017-04-01 19:10,-73.8036,42.7576,M,M,M,340.00,9.00,M,29.94,M,10.00,M,FEW,SCT,OVC,M,1300.00,2600.00,5500.00,M,M,KALB 011910Z AUTO 34009KT 10SM FEW013 SCT026 OVC055 A2994 RMK MADISHF
ALB,2017-04-01 19:15,-73.8036,42.7576,M,M,M,340.00,9.00,M,29.94,M,10.00,M,FEW,SCT,OVC,M,1300.00,2600.00,5500.00,M,M,KALB 011915Z AUTO 34009KT 10SM FEW013 SCT026 OVC055 A2994 RMK MADISHF
ALB,2017-04-01 19:25,-73.8036,42.7576,M,M,M,340.00,9.00,M,29.94,M,10.00,M,FEW,SCT,OVC,M,1300.00,1999.00,5000.00,M,M,KALB 011925Z AUTO 34009KT 10SM FEW013 SCT019 OVC050 A2994 RMK MADISHF
ALB,2017-04-01 19:30,-73.8036,42.7576,M,M,M,360.00,9.00,M,29.94,M,10.00,M,FEW,SCT,OVC,M,1300.00,1999.00,5000.00,M,M,KALB 011930Z AUTO 36009KT 10SM FEW013 SCT019 OVC050 A2994 RMK MADISHF
ALB,2017-04-01 19:35,-73.8036,42.7576,M,M,M,350.00,8.00,M,29.94,M,10.00,M,FEW,SCT,OVC,M,1300.00,1999.00,5000.00,M,M,KALB 011935Z AUTO 35008KT 10SM FEW013 SCT019 OVC050 A2994 RMK MADISHF
ALB,2017-04-01 19:40,-73.8036,42.7576,M,M,M,10.00,9.00,M,29.94,M,10.00,M,FEW,SCT,OVC,M,1300.00,1999.00,5000.00,M,M,KALB 011940Z AUTO 01009KT 10SM FEW013 SCT019 OVC050 A2994 RMK MADISHF
ALB,2017-04-01 19:45,-73.8036,42.7576,M,M,M,340.00,8.00,M,29.94,M,10.00,M,FEW,SCT,OVC,M,1300.00,1999.00,5000.00,M,M,KALB 011945Z AUTO 34008KT 10SM FEW013 SCT019 OVC050 A2994 RMK MADISHF
ALB,2017-04-01 19:50,-73.8036,42.7576,M,M,M,20.00,10.00,M,29.94,M,10.00,M,FEW,BKN,OVC,M,1300.00,1999.00,5000.00,M,M,KALB 011950Z AUTO 02010KT 10SM FEW013 BKN019 OVC050 A2994 RMK MADISHF
ALB,2017-04-01 19:51,-73.8036,42.7576,43.00,32.00,64.88,10.00,9.00,0.00,29.94,1014.20,10.00,M,FEW,BKN,OVC,M,1300.00,2000.00,5000.00,M,M,KALB 011951Z 01009KT 10SM FEW013 BKN020 OVC050 06/00 A2994 RMK AO2 SLP142 T00610000
ALB,2017-04-01 19:55,-73.8036,42.7576,M,M,M,10.00,8.00,M,29.95,M,10.00,M,FEW,BKN,OVC,M,1300.00,2200.00,4700.00,M,M,KALB 011955Z AUTO 01008KT 10SM FEW013 BKN022 OVC047 A2995 RMK MADISHF
ALB,2017-04-01 20:05,-73.8036,42.7576,M,M,M,350.00,8.00,M,29.95,M,10.00,M,FEW,BKN,OVC,M,1300.00,2200.00,4700.00,M,M,KALB 012005Z AUTO 35008KT 10SM FEW013 BKN022 OVC047 A2995 RMK MADISHF
ALB,2017-04-01 20:10,-73.8036,42.7576,M,M,M,360.00,7.00,M,29.96,M,10.00,M,FEW,BKN,OVC,M,1300.00,2200.00,4700.00,M,M,KALB 012010Z AUTO 36007KT 10SM FEW013 BKN022 OVC047 A2996 RMK WND 33V04  MADISHF
ALB,2017-04-01 20:15,-73.8036,42.7576,M,M,M,360.00,9.00,M,29.96,M,10.00,M,FEW,BKN,OVC,M,1300.00,2200.00,4700.00,M,M,KALB 012015Z AUTO 36009KT 10SM FEW013 BKN022 OVC047 A2996 RMK MADISHF
ALB,2017-04-01 20:20,-73.8036,42.7576,M,M,M,360.00,8.00,M,29.96,M,10.00,M,FEW,BKN,OVC,M,1300.00,2200.00,4700.00,M,M,KALB 012020Z AUTO 36008KT 10SM FEW013 BKN022 OVC047 A2996 RMK MADISHF
ALB,2017-04-01 20:25,-73.8036,42.7576,M,M,M,360.00,8.00,M,29.96,M,10.00,M,FEW,BKN,OVC,M,1300.00,2200.00,4700.00,M,M,KALB 012025Z AUTO 36008KT 10SM FEW013 BKN022 OVC047 A2996 RMK MADISHF
ALB,2017-04-01 20:30,-73.8036,42.7576,M,M,M,350.00,6.00,M,29.97,M,10.00,M,FEW,BKN,OVC,M,1300.00,2200.00,4700.00,M,M,KALB 012030Z AUTO 35006KT 10SM FEW013 BKN022 OVC047 A2997 RMK MADISHF
ALB,2017-04-01 20:40,-73.8036,42.7576,M,M,M,360.00,6.00,M,29.97,M,10.00,M,FEW,BKN,OVC,M,1300.00,2200.00,4700.00,M,M,KALB 012040Z AUTO 36006KT 10SM FEW013 BKN022 OVC047 A2997 RMK MADISHF
ALB,2017-04-01 20:45,-73.8036,42.7576,M,M,M,360.00,8.00,M,29.97,M,10.00,M,FEW,BKN,OVC,M,1300.00,2200.00,4700.00,M,M,KALB 012045Z AUTO 36008KT 10SM FEW013 BKN022 OVC047 A2997 RMK MADISHF
ALB,2017-04-01 20:50,-73.8036,42.7576,M,M,M,20.00,7.00,M,29.97,M,10.00,M,FEW,BKN,OVC,M,1300.00,2200.00,4900.00,M,M,KALB 012050Z AUTO 02007KT 10SM FEW013 BKN022 OVC049 A2997 RMK MADISHF
ALB,2017-04-01 20:51,-73.8036,42.7576,43.00,30.90,62.06,20.00,7.00,0.00,29.97,1015.20,10.00,M,BKN,BKN,OVC,M,2200.00,3000.00,4900.00,M,M,KALB 012051Z 02007KT 10SM BKN022 BKN030 OVC049 06/M01 A2997 RMK AO2 SLP152 BKN022 V SCT T00611006 53014
ALB,2017-04-01 21:00,-73.8036,42.7576,M,M,M,10.00,8.00,M,29.97,M,10.00,M,BKN,BKN,OVC,M,2200.00,3000.00,4900.00,M,M,KALB 012100Z AUTO 01008KT 10SM BKN022 BKN030 OVC049 A2997 RMK  BKN022 V SCT MADISHF
ALB,2017-04-01 21:05,-73.8036,42.7576,M,M,M,360.00,8.00,M,29.97,M,10.00,M,BKN,BKN,OVC,M,2400.00,3000.00,4900.00,M,M,KALB 012105Z AUTO 36008KT 10SM BKN024 BKN030 OVC049 A2997 RMK  BKN022 V SCT MADISHF
ALB,2017-04-01 21:10,-73.8036,42.7576,M,M,M,350.00,6.00,M,29.97,M,10.00,M,BKN,BKN,OVC,M,2400.00,3000.00,4900.00,M,M,KALB 012110Z AUTO 35006KT 10SM BKN024 BKN030 OVC049 A2997 RMK  BKN022 V SCT MADISHF
ALB,2017-04-01 21:15,-73.8036,42.7576,M,M,M,360.00,5.00,M,29.97,M,10.00,M,SCT,SCT,OVC,M,2400.00,3000.00,4900.00,M,M,KALB 012115Z AUTO 36005KT 10SM SCT024 SCT030 OVC049 A2997 RMK  OCNL BINOVC MADISHF
ALB,2017-04-01 21:20,-73.8036,42.7576,M,M,M,360.00,7.00,M,29.97,M,10.00,M,SCT,SCT,OVC,M,2400.00,3000.00,4900.00,M,M,KALB 012120Z AUTO 36007KT 10SM SCT024 SCT030 OVC049 A2997 RMK  OCNL BINOVC MADISHF
ALB,2017-04-01 21:21,-73.8036,42.7576,43.00,32.00,64.88,360.00,6.00,0.00,29.97,M,10.00,M,SCT,SCT,OVC,M,2400.00,3000.00,4900.00,M,M,KALB 012121Z 36006KT 10SM SCT024 SCT030 OVC049 06/00 A2997 RMK AO2 OCNL BINOVC T00610000
ALB,2017-04-01 21:25,-73.8036,42.7576,M,M,M,360.00,8.00,M,29.97,M,10.00,M,SCT,SCT,OVC,M,2400.00,3000.00,4900.00,M,M,KALB 012125Z AUTO 36008KT 10SM SCT024 SCT030 OVC049 A2997 RMK  OCNL BINOVC MADISHF
ALB,2017-04-01 21:30,-73.8036,42.7576,M,M,M,20.00,5.00,M,29.97,M,10.00,M,SCT,SCT,OVC,M,2400.00,3000.00,4900.00,M,M,KALB 012130Z AUTO 02005KT 10SM SCT024 SCT030 OVC049 A2997 RMK  OCNL BINOVC MADISHF
ALB,2017-04-01 21:35,-73.8036,42.7576,M,M,M,350.00,5.00,M,29.97,M,10.00,M,SCT,SCT,OVC,M,2400.00,3000.00,4900.00,M,M,KALB 012135Z AUTO 35005KT 10SM SCT024 SCT030 OVC049 A2997 RMK  OCNL BINOVC MADISHF
ALB,2017-04-01 21:40,-73.8036,42.7576,M,M,M,40.00,7.00,M,29.97,M,10.00,M,SCT,SCT,OVC,M,2400.00,3000.00,4900.00,M,M,KALB 012140Z AUTO 04007KT 10SM SCT024 SCT030 OVC049 A2997 RMK  OCNL BINOVC MADISHF
ALB,2017-04-01 21:45,-73.8036,42.7576,M,M,M,20.00,6.00,M,29.98,M,10.00,M,SCT,SCT,OVC,M,2400.00,3000.00,4900.00,M,M,KALB 012145Z AUTO 02006KT 10SM SCT024 SCT030 OVC049 A2998 RMK VRB06KT OCNL BINOVC MADISHF
ALB,2017-04-01 21:50,-73.8036,42.7576,M,M,M,10.00,6.00,M,29.98,M,10.00,M,SCT,BKN,OVC,M,2600.00,5500.00,7999.00,M,M,KALB 012150Z AUTO 01006KT 10SM SCT026 BKN055 OVC079 A2998 RMK VRB06KT OCNL BINOVC MADISHF
ALB,2017-04-01 21:51,-73.8036,42.7576,44.10,32.00,62.21,360.00,8.00,0.00,29.98,1015.30,10.00,M,SCT,BKN,OVC,M,2600.00,5500.00,8000.00,M,M,KALB 012151Z 36008KT 10SM SCT026 BKN055 OVC080 07/00 A2998 RMK AO2 SLP153 OCNL BINOVC T00670000
ALB,2017-04-01 21:55,-73.8036,42.7576,M,M,M,360.00,7.00,M,29.98,M,10.00,M,SCT,BKN,OVC,M,2600.00,4300.00,7999.00,M,M,KALB 012155Z AUTO 36007KT 10SM SCT026 BKN043 OVC079 A2998 RMK MADISHF
ALB,2017-04-01 22:00,-73.8036,42.7576,M,M,M,10.00,5.00,M,29.98,M,10.00,M,SCT,BKN,OVC,M,2600.00,4300.00,7999.00,M,M,KALB 012200Z AUTO 01005KT 10SM SCT026 BKN043 OVC079 A2998 RMK MADISHF
ALB,2017-04-01 22:05,-73.8036,42.7576,M,M,M,10.00,5.00,M,29.98,M,10.00,M,SCT,BKN,OVC,M,2600.00,4300.00,7999.00,M,M,KALB 012205Z AUTO 01005KT 10SM SCT026 BKN043 OVC079 A2998 RMK MADISHF
ALB,2017-04-01 22:10,-73.8036,42.7576,M,M,M,360.00,6.00,M,29.99,M,10.00,M,SCT,BKN,OVC,M,2600.00,4300.00,7999.00,M,M,KALB 012210Z AUTO 36006KT 10SM SCT026 BKN043 OVC079 A2999 RMK MADISHF
ALB,2017-04-01 22:15,-73.8036,42.7576,M,M,M,360.00,4.00,M,29.99,M,10.00,M,SCT,BKN,OVC,M,2600.00,4300.00,7999.00,M,M,KALB 012215Z AUTO 36004KT 10SM SCT026 BKN043 OVC079 A2999 RMK MADISHF
ALB,2017-04-01 22:20,-73.8036,42.7576,M,M,M,340.00,7.00,M,29.99,M,10.00,M,SCT,BKN,OVC,M,2600.00,4300.00,7999.00,M,M,KALB 012220Z AUTO 34007KT 10SM SCT026 BKN043 OVC079 A2999 RMK MADISHF
ALB,2017-04-01 22:25,-73.8036,42.7576,M,M,M,10.00,6.00,M,29.99,M,10.00,M,SCT,BKN,OVC,M,2600.00,4300.00,7999.00,M,M,KALB 012225Z AUTO 01006KT 10SM SCT026 BKN043 OVC079 A2999 RMK MADISHF
ALB,2017-04-01 22:30,-73.8036,42.7576,M,M,M,10.00,6.00,M,29.99,M,10.00,M,SCT,BKN,OVC,M,2600.00,4300.00,7999.00,M,M,KALB 012230Z AUTO 01006KT 10SM SCT026 BKN043 OVC079 A2999 RMK MADISHF
ALB,2017-04-01 22:35,-73.8036,42.7576,M,M,M,10.00,6.00,M,29.99,M,10.00,M,SCT,BKN,OVC,M,2600.00,4300.00,7999.00,M,M,KALB 012235Z AUTO 01006KT 10SM SCT026 BKN043 OVC079 A2999 RMK MADISHF
ALB,2017-04-01 22:40,-73.8036,42.7576,M,M,M,360.00,6.00,M,29.99,M,10.00,M,SCT,BKN,OVC,M,2600.00,4300.00,7999.00,M,M,KALB 012240Z AUTO 36006KT 10SM SCT026 BKN043 OVC079 A2999 RMK MADISHF
ALB,2017-04-01 22:45,-73.8036,42.7576,M,M,M,360.00,5.00,M,30.00,M,10.00,M,SCT,BKN,OVC,M,2600.00,4300.00,7999.00,M,M,KALB 012245Z AUTO 36005KT 10SM SCT026 BKN043 OVC079 A3000 RMK MADISHF
ALB,2017-04-01 22:50,-73.8036,42.7576,M,M,M,10.00,5.00,M,30.00,M,10.00,M,SCT,BKN,OVC,M,2600.00,3999.00,7999.00,M,M,KALB 012250Z AUTO 01005KT 10SM SCT026 BKN039 OVC079 A3000 RMK MADISHF
ALB,2017-04-01 22:51,-73.8036,42.7576,43.00,30.90,62.06,10.00,4.00,0.00,30.00,1016.20,10.00,M,SCT,BKN,OVC,M,2600.00,4000.00,8000.00,M,M,KALB 012251Z 01004KT 10SM SCT026 BKN040 OVC080 06/M01 A3000 RMK AO2 SLP162 T00611006
ALB,2017-04-01 22:55,-73.8036,42.7576,M,M,M,20.00,5.00,M,30.00,M,10.00,M,SCT,BKN,OVC,M,2600.00,3999.00,7999.00,M,M,KALB 012255Z AUTO 02005KT 10SM SCT026 BKN039 OVC079 A3000 RMK MADISHF
ALB,2017-04-01 23:00,-73.8036,42.7576,M,M,M,20.00,4.00,M,30.00,M,10.00,M,SCT,BKN,OVC,M,2600.00,3999.00,7999.00,M,M,KALB 012300Z AUTO 02004KT 10SM SCT026 BKN039 OVC079 A3000 RMK MADISHF
ALB,2017-04-01 23:05,-73.8036,42.7576,M,M,M,20.00,4.00,M,30.00,M,10.00,M,SCT,BKN,OVC,M,2600.00,3999.00,7999.00,M,M,KALB 012305Z AUTO 02004KT 10SM SCT026 BKN039 OVC079 A3000 RMK MADISHF
ALB,2017-04-01 23:10,-73.8036,42.7576,M,M,M,30.00,3.00,M,30.00,M,10.00,M,SCT,BKN,OVC,M,2600.00,3999.00,7999.00,M,M,KALB 012310Z AUTO 03003KT 10SM SCT026 BKN039 OVC079 A3000 RMK MADISHF
ALB,2017-04-01 23:15,-73.8036,42.7576,M,M,M,50.00,3.00,M,30.00,M,10.00,M,SCT,BKN,OVC,M,2600.00,3999.00,7999.00,M,M,KALB 012315Z AUTO 05003KT 10SM SCT026 BKN039 OVC079 A3000 RMK MADISHF
ALB,2017-04-01 23:20,-73.8036,42.7576,M,M,M,50.00,4.00,M,30.00,M,10.00,M,SCT,BKN,OVC,M,2600.00,3999.00,7999.00,M,M,KALB 012320Z AUTO 05004KT 10SM SCT026 BKN039 OVC079 A3000 RMK MADISHF
ALB,2017-04-01 23:25,-73.8036,42.7576,M,M,M,40.00,4.00,M,30.01,M,10.00,M,SCT,BKN,OVC,M,2600.00,3999.00,7999.00,M,M,KALB 012325Z AUTO 04004KT 10SM SCT026 BKN039 OVC079 A3001 RMK MADISHF
ALB,2017-04-01 23:30,-73.8036,42.7576,M,M,M,50.00,4.00,M,30.01,M,10.00,M,SCT,BKN,OVC,M,2600.00,3999.00,7999.00,M,M,KALB 012330Z AUTO 05004KT 10SM SCT026 BKN039 OVC079 A3001 RMK MADISHF
ALB,2017-04-01 23:40,-73.8036,42.7576,M,M,M,50.00,4.00,M,30.00,M,10.00,M,SCT,BKN,OVC,M,2600.00,3600.00,7999.00,M,-RA,KALB 012340Z AUTO 05004KT 10SM -RA SCT026 BKN036 OVC079 A3000 RMK MADISHF
ALB,2017-04-01 23:45,-73.8036,42.7576,M,M,M,60.00,3.00,M,30.00,M,10.00,M,SCT,BKN,OVC,M,2600.00,3600.00,7999.00,M,-RA,KALB 012345Z AUTO 06003KT 10SM -RA SCT026 BKN036 OVC079 A3000 RMK MADISHF
ALB,2017-04-01 23:50,-73.8036,42.7576,M,M,M,50.00,3.00,M,30.00,M,10.00,M,FEW,BKN,OVC,M,2600.00,3600.00,4500.00,M,M,KALB 012350Z AUTO 05003KT 10SM FEW026 BKN036 OVC045 A3000 RMK MADISHF
ALB,2017-04-01 23:51,-73.8036,42.7576,42.10,32.00,67.17,50.00,3.00,0.00,30.00,1016.20,10.00,M,FEW,BKN,OVC,M,2600.00,3600.00,4500.00,M,M,KALB 012351Z 05003KT 10SM FEW026 BKN036 OVC045 06/00 A3000 RMK AO2 RAB31E46 SLP162 P0000 60000 T00560000 10067 20050 51011
