#DEBUG: Format Typ    -> comma
#DEBUG: Time Period   -> 2017-04-01 00:00:00+00:00 2017-04-02 00:00:00+00:00
#DEBUG: Time Zone     -> Etc/UTC
#DEBUG: Data Contact   -> daryl herzmann akrherz@iastate.edu 515-294-5978
#DEBUG: Entries Found -> -1
station,valid,lon,lat,tmpf, dwpf, relh, drct, sknt, p01i, alti, mslp, vsby, gust, skyc1, skyc2, skyc3, skyc4, skyl1, skyl2, skyl3, skyl4, presentwx, metar
ALN,2017-04-01 03:15,-90.0460,38.8899,43.00,37.60,81.08,320.00,4.00,0.00,30.09,M,10.00,M,OVC,M,M,M,1500.00,M,M,M,M,KALN 010315Z AUTO 32004KT 10SM OVC015 06/03 A3009 RMK AO2 T00610031
ALN,2017-04-01 03:35,-90.0460,38.8899,42.80,37.40,81.07,330.00,4.00,0.00,30.10,M,10.00,M,OVC,M,M,M,1500.00,M,M,M,M,KALN 010335Z AUTO 33004KT 10SM OVC015 06/03 A3010 RMK AO2 T00600030
ALN,2017-04-01 03:55,-90.0460,38.8899,42.80,37.40,81.07,10.00,5.00,0.00,30.10,M,10.00,M,OVC,M,M,M,1500.00,M,M,M,M,KALN 010355Z AUTO 01005KT 10SM OVC015 06/03 A3010 RMK AO2 T00600030
ALN,2017-04-01 04:15,-90.0460,38.8899,42.40,37.00,81.04,340.00,5.00,0.00,30.09,M,10.00,M,OVC,M,M,M,1500.00,M,M,M,M,KALN 010415Z AUTO 34005KT 10SM OVC015 06/03 A3009 RMK AO2 T00580028
ALN,2017-04-01 04:35,-90.0460,38.8899,42.40,37.60,82.97,350.00,5.00,0.00,30.10,M,10.00,M,OVC,M,M,M,1500.00,M,M,M,M,KALN 010435Z AUTO 35005KT 10SM OVC015 06/03 A3010 RMK AO2 T00580031
ALN,2017-04-01 04:55,-90.0460,38.8899,42.10,37.40,83.28,10.00,6.00,0.00,30.10,M,10.00,M,OVC,M,M,M,1500.00,M,M,M,M,KALN 010455Z AUTO 01006KT 10SM OVC015 06/03 A3010 RMK AO2 T00560030
ALN,2017-04-01 05:15,-90.0460,38.8899,42.10,37.40,83.28,10.00,6.00,0.00,30.11,M,10.00,M,OVC,M,M,M,1500.00,M,M,M,M,KALN 010515Z AUTO 01006KT 10SM OVC015 06/03 A3011 RMK AO2 T00560030
ALN,2017-04-01 05:35,-90.0460,38.8899,41.90,37.40,83.92,340.00,4.00,0.00,30.11,M,10.00,M,OVC,M,M,M,1500.00,M,M,M,M,KALN 010535Z AUTO 34004KT 10SM OVC015 06/03 A3011 RMK AO2 T00550030
ALN,2017-04-01 05:55,-90.0460,38.8899,41.50,36.30,81.61,10.00,3.00,0.00,30.12,M,10.00,M,OVC,M,M,M,1500.00,M,M,M,M,KALN 010555Z AUTO 01003KT 10SM OVC015 05/02 A3012 RMK AO2 T00530024 10072 20053 400950053
ALN,2017-04-01 06:15,-90.0460,38.8899,41.50,36.50,82.26,20.00,3.00,0.00,30.13,M,10.00,M,OVC,M,M,M,1500.00,M,M,M,M,KALN 010615Z AUTO 02003KT 10SM OVC015 05/03 A3013 RMK AO2 T00530025
ALN,2017-04-01 06:35,-90.0460,38.8899,41.50,36.50,82.26,350.00,3.00,0.00,30.14,M,10.00,M,OVC,M,M,M,1500.00,M,M,M,M,KALN 010635Z AUTO 35003KT 10SM OVC015 05/03 A3014 RMK AO2 T00530025
ALN,2017-04-01 06:55,-90.0460,38.8899,41.50,36.70,82.91,340.00,3.00,0.00,30.14,M,10.00,M,OVC,M,M,M,1500.00,M,M,M,M,KALN 010655Z AUTO 34003KT 10SM OVC015 05/03 A3014 RMK AO2 T00530026
ALN,2017-04-01 07:15,-90.0460,38.8899,41.50,37.00,83.90,0.00,0.00,0.00,30.14,M,10.00,M,OVC,M,M,M,1500.00,M,M,M,M,KALN 010715Z AUTO 00000KT 10SM OVC015 05/03 A3014 RMK AO2 T00530028
ALN,2017-04-01 07:35,-90.0460,38.8899,41.50,36.90,83.57,330.00,3.00,0.00,30.15,M,10.00,M,OVC,M,M,M,1500.00,M,M,M,M,KALN 010735Z AUTO 33003KT 10SM OVC015 05/03 A3015 RMK AO2 T00530027
ALN,2017-04-01 07:55,-90.0460,38.8899,41.50,36.70,82.91,330.00,3.00,0.00,30.14,M,10.00,M,OVC,M,M,M,1500.00,M,M,M,M,KALN 010755Z AUTO 33003KT 10SM OVC015 05/03 A3014 RMK AO2 T00530026
ALN,2017-04-01 08:15,-90.0460,38.8899,41.40,36.50,82.58,350.00,3.00,0.00,30.14,M,10.00,M,OVC,M,M,M,1500.00,M,M,M,M,KALN 010815Z AUTO 35003KT 10SM OVC015 05/03 A3014 RMK AO2 T00520025
ALN,2017-04-01 08:35,-90.0460,38.8899,41.40,37.40,85.56,350.00,3.00,0.00,30.14,M,10.00,M,OVC,M,M,M,1300.00,M,M,M,M,KALN 010835Z AUTO 35003KT 10SM OVC013 05/03 A3014 RMK AO2 LTG DSNT W T00520030
ALN,2017-04-01 08:55,-90.0460,38.8899,41.00,37.40,86.89,0.00,0.00,0.00,30.15,M,10.00,M,BKN,BKN,M,M,1300.00,2000.00,M,M,M,KALN 010855Z AUTO 00000KT 10SM BKN013 BKN020 05/03 A3015 RMK AO2 T00500030
ALN,2017-04-01 09:15,-90.0460,38.8899,40.10,36.90,88.23,0.00,0.00,0.00,30.14,M,10.00,M,SCT,M,M,M,1900.00,M,M,M,M,KALN 010915Z AUTO 00000KT 10SM SCT019 05/03 A3014 RMK AO2 T00450027
ALN,2017-04-01 09:35,-90.0460,38.8899,39.70,36.90,89.61,0.00,0.00,0.00,30.16,M,10.00,M,CLR,M,M,M,M,M,M,M,M,KALN 010935Z AUTO 00000KT 10SM CLR 04/03 A3016 RMK AO2 T00430027
ALN,2017-04-01 09:55,-90.0460,38.8899,39.40,36.50,89.24,0.00,0.00,0.00,30.16,M,10.00,M,CLR,M,M,M,M,M,M,M,M,KALN 010955Z AUTO 00000KT 10SM CLR 04/03 A3016 RMK AO2 T00410025
ALN,2017-04-01 10:15,-90.0460,38.8899,37.60,36.10,94.26,290.00,4.00,0.00,30.18,M,10.00,M,CLR,M,M,M,M,M,M,M,M,KALN 011015Z AUTO 29004KT 10SM CLR 03/02 A3018 RMK AO2 T00310023
ALN,2017-04-01 10:35,-90.0460,38.8899,36.50,35.20,94.98,290.00,4.00,0.00,30.19,M,10.00,M,CLR,M,M,M,M,M,M,M,M,KALN 011035Z AUTO 29004KT 10SM CLR 03/02 A3019 RMK AO2 T00250018
ALN,2017-04-01 10:55,-90.0460,38.8899,37.40,36.30,95.75,0.00,0.00,0.00,30.19,M,10.00,M,CLR,M,M,M,M,M,M,M,M,KALN 011055Z AUTO 00000KT 10SM CLR 03/02 A3019 RMK AO2 T00300024
ALN,2017-04-01 11:15,-90.0460,38.8899,38.10,36.00,92.06,330.00,3.00,0.00,30.19,M,10.00,M,CLR,M,M,M,M,M,M,M,M,KALN 011115Z AUTO 33003KT 10SM CLR 03/02 A3019 RMK AO2 T00340022
ALN,2017-04-01 11:35,-90.0460,38.8899,38.30,35.60,89.90,330.00,3.00,0.00,30.20,M,10.00,M,CLR,M,M,M,M,M,M,M,M,KALN 011135Z AUTO 33003KT 10SM CLR 04/02 A3020 RMK AO2 T00350020
ALN,2017-04-01 11:53,-90.0460,38.8899,37.40,35.60,93.14,340.00,4.00,0.00,30.21,M,10.00,M,BKN,M,M,M,25000.00,M,M,M,M,KALN 011153Z 34004KT 10SM BKN250 03/02 A3021
ALN,2017-04-01 12:50,-90.0460,38.8899,39.20,35.60,86.79,350.00,4.00,0.00,30.23,M,10.00,M,BKN,M,M,M,25000.00,M,M,M,M,KALN 011250Z 35004KT 10SM BKN250 04/02 A3023
ALN,2017-04-01 13:47,-90.0460,38.8899,42.80,37.40,81.07,10.00,7.00,0.00,30.24,M,10.00,M,BKN,M,M,M,25000.00,M,M,M,M,KALN 011347Z 01007KT 10SM BKN250 06/03 A3024
ALN,2017-04-01 14:47,-90.0460,38.8899,44.60,35.60,70.48,20.00,8.00,0.00,30.24,M,10.00,M,FEW,BKN,M,M,3500.00,25000.00,M,M,M,KALN 011447Z 02008KT 10SM FEW035 BKN250 07/02 A3024
ALN,2017-04-01 15:49,-90.0460,38.8899,48.20,37.40,66.05,20.00,10.00,0.00,30.25,M,10.00,M,SCT,BKN,M,M,2400.00,25000.00,M,M,M,KALN 011549Z 02010KT 10SM SCT024 BKN250 09/03 A3025
ALN,2017-04-01 16:45,-90.0460,38.8899,50.00,39.20,66.27,360.00,9.00,0.00,30.24,M,10.00,M,SCT,M,M,M,2500.00,M,M,M,M,KALN 011645Z 36009KT 10SM SCT025 10/04 A3024
ALN,2017-04-01 17:45,-90.0460,38.8899,50.00,39.20,66.27,360.00,9.00,0.00,30.24,M,10.00,M,SCT,M,M,M,2700.00,M,M,M,M,KALN 011745Z 36009KT 10SM SCT027 10/04 A3024
ALN,2017-04-01 18:45,-90.0460,38.8899,53.60,39.20,58.02,330.00,7.00,0.00,30.23,M,10.00,M,SCT,M,M,M,2900.00,M,M,M,M,KALN 011845Z 33007KT 10SM SCT029 12/04 A3023
ALN,2017-04-01 19:50,-90.0460,38.8899,55.40,42.80,62.46,20.00,6.00,0.00,30.20,M,10.00,M,SCT,M,M,M,3100.00,M,M,M,M,KALN 011950Z 02006KT 10SM SCT031 13/06 A3020
ALN,2017-04-01 20:50,-90.0460,38.8899,57.20,42.80,58.52,70.00,6.00,0.00,30.18,M,10.00,M,SCT,M,M,M,3300.00,M,M,M,M,KALN 012050Z 07006KT 10SM SCT033 14/06 A3018
ALN,2017-04-01 21:45,-90.0460,38.8899,53.60,41.00,62.23,70.00,5.00,0.00,30.18,M,10.00,M,SCT,M,M,M,3300.00,M,M,M,M,KALN 012145Z 07005KT 10SM SCT033 12/05 A3018
ALN,2017-04-01 22:45,-90.0460,38.8899,53.60,42.80,66.70,90.00,10.00,0.00,30.18,M,10.00,M,SCT,M,M,M,3300.00,M,M,M,M,KALN 012245Z 09010KT 10SM SCT033 12/06 A3018
ALN,2017-04-01 23:50,-90.0460,38.8899,53.60,41.00,62.23,100.00,8.00,0.00,30.17,M,10.00,M,SCT,M,M,M,20000.00,M,M,M,M,KALN 012350Z 10008KT 10SM SCT200 12/05 A3017
