#DEBUG: Format Typ    -> comma
#DEBUG: Time Period   -> 2017-04-01 00:00:00+00:00 2017-04-02 00:00:00+00:00
#DEBUG: Time Zone     -> Etc/UTC
#DEBUG: Data Contact   -> daryl herzmann akrherz@iastate.edu 515-294-5978
#DEBUG: Entries Found -> -1
station,valid,lon,lat,tmpf, dwpf, relh, drct, sknt, p01i, alti, mslp, vsby, gust, skyc1, skyc2, skyc3, skyc4, skyl1, skyl2, skyl3, skyl4, presentwx, metar
AMG,2017-04-01 00:00,-82.5066,31.5361,M,M,M,260.00,5.00,M,29.81,M,10.00,M,CLR,M,M,M,M,M,M,M,M,KAMG 010000Z AUTO 26005KT 10SM CLR A2981 RMK MADISHF
AMG,2017-04-01 00:05,-82.5066,31.5361,M,M,M,270.00,6.00,M,29.81,M,10.00,M,FEW,M,M,M,6500.00,M,M,M,M,KAMG 010005Z AUTO 27006KT 10SM FEW065 A2981 RMK MADISHF
AMG,2017-04-01 00:10,-82.5066,31.5361,M,M,M,270.00,5.00,M,29.82,M,10.00,M,SCT,M,M,M,6500.00,M,M,M,M,KAMG 010010Z AUTO 27005KT 10SM SCT065 A2982 RMK MADISHF
AMG,2017-04-01 00:15,-82.5066,31.5361,M,M,M,260.00,5.00,M,29.82,M,10.00,M,SCT,M,M,M,6500.00,M,M,M,M,KAMG 010015Z AUTO 26005KT 10SM SCT065 A2982 RMK MADISHF
AMG,2017-04-01 00:20,-82.5066,31.5361,M,M,M,260.00,5.00,M,29.82,M,10.00,M,SCT,M,M,M,6500.00,M,M,M,M,KAMG 010020Z AUTO 26005KT 10SM SCT065 A2982 RMK MADISHF
AMG,2017-04-01 00:25,-82.5066,31.5361,M,M,M,250.00,4.00,M,29.82,M,10.00,M,FEW,M,M,M,6500.00,M,M,M,M,KAMG 010025Z AUTO 25004KT 10SM FEW065 A2982 RMK MADISHF
AMG,2017-04-01 00:30,-82.5066,31.5361,M,M,M,260.00,3.00,M,29.82,M,10.00,M,FEW,M,M,M,6500.00,M,M,M,M,KAMG 010030Z AUTO 26003KT 10SM FEW065 A2982 RMK MADISHF
AMG,2017-04-01 00:35,-82.5066,31.5361,M,M,M,250.00,4.00,M,29.83,M,10.00,M,SCT,M,M,M,6500.00,M,M,M,M,KAMG 010035Z AUTO 25004KT 10SM SCT065 A2983 RMK MADISHF
AMG,2017-04-01 00:40,-82.5066,31.5361,M,M,M,260.00,3.00,M,29.83,M,10.00,M,FEW,M,M,M,6500.00,M,M,M,M,KAMG 010040Z AUTO 26003KT 10SM FEW065 A2983 RMK MADISHF
AMG,2017-04-01 00:45,-82.5066,31.5361,M,M,M,260.00,3.00,M,29.83,M,10.00,M,FEW,M,M,M,6500.00,M,M,M,M,KAMG 010045Z AUTO 26003KT 10SM FEW065 A2983 RMK MADISHF
AMG,2017-04-01 00:50,-82.5066,31.5361,M,M,M,260.00,3.00,M,29.83,M,10.00,M,FEW,M,M,M,6500.00,M,M,M,M,KAMG 010050Z AUTO 26003KT 10SM FEW065 A2983 RMK MADISHF
AMG,2017-04-01 00:53,-82.5066,31.5361,72.00,54.00,53.09,0.00,0.00,0.00,29.83,1009.90,10.00,M,FEW,M,M,M,6500.00,M,M,M,M,KAMG 010053Z AUTO 00000KT 10SM FEW065 22/12 A2983 RMK AO2 SLP099 T02220122
AMG,2017-04-01 00:55,-82.5066,31.5361,M,M,M,0.00,0.00,M,29.83,M,10.00,M,FEW,M,M,M,6500.00,M,M,M,M,KAMG 010055Z AUTO 00000KT 10SM FEW065 A2983 RMK MADISHF
AMG,2017-04-01 01:00,-82.5066,31.5361,M,M,M,0.00,0.00,M,29.84,M,10.00,M,FEW,M,M,M,6500.00,M,M,M,M,KAMG 010100Z AUTO 00000KT 10SM FEW065 A2984 RMK MADISHF
AMG,2017-04-01 01:05,-82.5066,31.5361,M,M,M,0.00,0.00,M,29.84,M,10.00,M,CLR,M,M,M,M,M,M,M,M,KAMG 010105Z AUTO 00000KT 10SM CLR A2984 RMK MADISHF
AMG,2017-04-01 01:10,-82.5066,31.5361,M,M,M,260.00,3.00,M,29.84,M,10.00,M,CLR,M,M,M,M,M,M,M,M,KAMG 010110Z AUTO 26003KT 10SM CLR A2984 RMK MADISHF
AMG,2017-04-01 01:15,-82.5066,31.5361,M,M,M,250.00,3.00,M,29.84,M,10.00,M,CLR,M,M,M,M,M,M,M,M,KAMG 010115Z AUTO 25003KT 10SM CLR A2984 RMK MADISHF
AMG,2017-04-01 01:20,-82.5066,31.5361,M,M,M,250.00,3.00,M,29.84,M,10.00,M,CLR,M,M,M,M,M,M,M,M,KAMG 010120Z AUTO 25003KT 10SM CLR A2984 RMK MADISHF
AMG,2017-04-01 01:25,-82.5066,31.5361,M,M,M,270.00,3.00,M,29.84,M,10.00,M,CLR,M,M,M,M,M,M,M,M,KAMG 010125Z AUTO 27003KT 10SM CLR A2984 RMK MADISHF
AMG,2017-04-01 01:30,-82.5066,31.5361,M,M,M,260.00,3.00,M,29.85,M,10.00,M,CLR,M,M,M,M,M,M,M,M,KAMG 010130Z AUTO 26003KT 10SM CLR A2985 RMK MADISHF
AMG,2017-04-01 01:35,-82.5066,31.5361,M,M,M,270.00,3.00,M,29.85,M,10.00,M,CLR,M,M,M,M,M,M,M,M,KAMG 010135Z AUTO 27003KT 10SM CLR A2985 RMK MADISHF
AMG,2017-04-01 01:40,-82.5066,31.5361,M,M,M,260.00,3.00,M,29.85,M,10.00,M,CLR,M,M,M,M,M,M,M,M,KAMG 010140Z AUTO 26003KT 10SM CLR A2985 RMK MADISHF
AMG,2017-04-01 01:45,-82.5066,31.5361,M,M,M,0.00,0.00,M,29.85,M,10.00,M,CLR,M,M,M,M,M,M,M,M,KAMG 010145Z AUTO 00000KT 10SM CLR A2985 RMK MADISHF
AMG,2017-04-01 01:50,-82.5066,31.5361,M,M,M,250.00,3.00,M,29.85,M,10.00,M,CLR,M,M,M,M,M,M,M,M,KAMG 010150Z AUTO 25003KT 10SM CLR A2985 RMK MADISHF
AMG,2017-04-01 01:53,-82.5066,31.5361,66.90,55.90,67.74,240.00,3.00,0.00,29.85,1010.70,10.00,M,CLR,M,M,M,M,M,M,M,M,KAMG 010153Z AUTO 24003KT 10SM CLR 19/13 A2985 RMK AO2 SLP107 T01940133
AMG,2017-04-01 01:55,-82.5066,31.5361,M,M,M,0.00,0.00,M,29.85,M,10.00,M,CLR,M,M,M,M,M,M,M,M,KAMG 010155Z AUTO 00000KT 10SM CLR A2985 RMK MADISHF
AMG,2017-04-01 02:00,-82.5066,31.5361,M,M,M,0.00,0.00,M,29.86,M,10.00,M,CLR,M,M,M,M,M,M,M,M,KAMG 010200Z AUTO 00000KT 10SM CLR A2986 RMK MADISHF
AMG,2017-04-01 02:05,-82.5066,31.5361,M,M,M,0.00,0.00,M,29.86,M,10.00,M,CLR,M,M,M,M,M,M,M,M,KAMG 010205Z AUTO 00000KT 10SM CLR A2986 RMK MADISHF
AMG,2017-04-01 02:10,-82.5066,31.5361,M,M,M,0.00,0.00,M,29.86,M,10.00,M,CLR,M,M,M,M,M,M,M,M,KAMG 010210Z AUTO 00000KT 10SM CLR A2986 RMK MADISHF
AMG,2017-04-01 02:15,-82.5066,31.5361,M,M,M,0.00,0.00,M,29.86,M,10.00,M,CLR,M,M,M,M,M,M,M,M,KAMG 010215Z AUTO 00000KT 10SM CLR A2986 RMK MADISHF
AMG,2017-04-01 02:20,-82.5066,31.5361,M,M,M,0.00,0.00,M,29.87,M,10.00,M,CLR,M,M,M,M,M,M,M,M,KAMG 010220Z AUTO 00000KT 10SM CLR A2987 RMK MADISHF
AMG,2017-04-01 02:25,-82.5066,31.5361,M,M,M,0.00,0.00,M,29.87,M,10.00,M,CLR,M,M,M,M,M,M,M,M,KAMG 010225Z AUTO 00000KT 10SM CLR A2987 RMK MADISHF
AMG,2017-04-01 02:30,-82.5066,31.5361,M,M,M,230.00,3.00,M,29.87,M,10.00,M,CLR,M,M,M,M,M,M,M,M,KAMG 010230Z AUTO 23003KT 10SM CLR A2987 RMK MADISHF
AMG,2017-04-01 02:35,-82.5066,31.5361,M,M,M,230.00,3.00,M,29.87,M,10.00,M,CLR,M,M,M,M,M,M,M,M,KAMG 010235Z AUTO 23003KT 10SM CLR A2987 RMK MADISHF
AMG,2017-04-01 02:40,-82.5066,31.5361,M,M,M,0.00,0.00,M,29.87,M,10.00,M,CLR,M,M,M,M,M,M,M,M,KAMG 010240Z AUTO 00000KT 10SM CLR A2987 RMK MADISHF
AMG,2017-04-01 02:45,-82.5066,31.5361,M,M,M,0.00,0.00,M,29.87,M,10.00,M,CLR,M,M,M,M,M,M,M,M,KAMG 010245Z AUTO 00000KT 10SM CLR A2987 RMK MADISHF
AMG,2017-04-01 02:50,-82.5066,31.5361,M,M,M,0.00,0.00,M,29.88,M,10.00,M,CLR,M,M,M,M,M,M,M,M,KAMG 010250Z AUTO 00000KT 10SM CLR A2988 RMK MADISHF
AMG,2017-04-01 02:53,-82.5066,31.5361,61.00,55.90,83.29,0.00,0.00,0.00,29.88,1011.50,10.00,M,CLR,M,M,M,M,M,M,M,M,KAMG 010253Z AUTO 00000KT 10SM CLR 16/13 A2988 RMK AO2 SLP115 T01610133 53023
AMG,2017-04-01 02:55,-82.5066,31.5361,M,M,M,0.00,0.00,M,29.88,M,10.00,M,CLR,M,M,M,M,M,M,M,M,KAMG 010255Z AUTO 00000KT 10SM CLR A2988 RMK MADISHF
AMG,2017-04-01 03:00,-82.5066,31.5361,M,M,M,0.00,0.00,M,29.88,M,10.00,M,CLR,M,M,M,M,M,M,M,M,KAMG 010300Z AUTO 00000KT 10SM CLR A2988 RMK MADISHF
AMG,2017-04-01 03:05,-82.5066,31.5361,M,M,M,0.00,0.00,M,29.88,M,10.00,M,CLR,M,M,M,M,M,M,M,M,KAMG 010305Z AUTO 00000KT 10SM CLR A2988 RMK MADISHF
AMG,2017-04-01 03:10,-82.5066,31.5361,M,M,M,0.00,0.00,M,29.89,M,10.00,M,CLR,M,M,M,M,M,M,M,M,KAMG 010310Z AUTO 00000KT 10SM CLR A2989 RMK MADISHF
AMG,2017-04-01 03:15,-82.5066,31.5361,M,M,M,0.00,0.00,M,29.89,M,10.00,M,CLR,M,M,M,M,M,M,M,M,KAMG 010315Z AUTO 00000KT 10SM CLR A2989 RMK MADISHF
AMG,2017-04-01 03:20,-82.5066,31.5361,M,M,M,250.00,3.00,M,29.89,M,10.00,M,CLR,M,M,M,M,M,M,M,M,KAMG 010320Z AUTO 25003KT 10SM CLR A2989 RMK MADISHF
AMG,2017-04-01 03:25,-82.5066,31.5361,M,M,M,260.00,3.00,M,29.89,M,10.00,M,CLR,M,M,M,M,M,M,M,M,KAMG 010325Z AUTO 26003KT 10SM CLR A2989 RMK MADISHF
AMG,2017-04-01 03:30,-82.5066,31.5361,M,M,M,0.00,0.00,M,29.89,M,10.00,M,CLR,M,M,M,M,M,M,M,M,KAMG 010330Z AUTO 00000KT 10SM CLR A2989 RMK MADISHF
AMG,2017-04-01 03:35,-82.5066,31.5361,M,M,M,250.00,3.00,M,29.89,M,10.00,M,CLR,M,M,M,M,M,M,M,M,KAMG 010335Z AUTO 25003KT 10SM CLR A2989 RMK MADISHF
AMG,2017-04-01 03:40,-82.5066,31.5361,M,M,M,250.00,3.00,M,29.90,M,10.00,M,CLR,M,M,M,M,M,M,M,M,KAMG 010340Z AUTO 25003KT 10SM CLR A2990 RMK MADISHF
AMG,2017-04-01 03:45,-82.5066,31.5361,M,M,M,0.00,0.00,M,29.90,M,10.00,M,CLR,M,M,M,M,M,M,M,M,KAMG 010345Z AUTO 00000KT 10SM CLR A2990 RMK MADISHF
AMG,2017-04-01 03:50,-82.5066,31.5361,M,M,M,0.00,0.00,M,29.90,M,10.00,M,CLR,M,M,M,M,M,M,M,M,KAMG 010350Z AUTO 00000KT 10SM CLR A2990 RMK MADISHF
AMG,2017-04-01 03:53,-82.5066,31.5361,57.90,55.90,93.04,0.00,0.00,0.00,29.90,1012.20,10.00,M,CLR,M,M,M,M,M,M,M,M,KAMG 010353Z AUTO 00000KT 10SM CLR 14/13 A2990 RMK AO2 SLP122 T01440133
AMG,2017-04-01 03:55,-82.5066,31.5361,M,M,M,0.00,0.00,M,29.90,M,10.00,M,CLR,M,M,M,M,M,M,M,M,KAMG 010355Z AUTO 00000KT 10SM CLR A2990 RMK MADISHF
AMG,2017-04-01 04:00,-82.5066,31.5361,M,M,M,0.00,0.00,M,29.90,M,10.00,M,CLR,M,M,M,M,M,M,M,M,KAMG 010400Z AUTO 00000KT 10SM CLR A2990 RMK MADISHF
AMG,2017-04-01 04:05,-82.5066,31.5361,M,M,M,0.00,0.00,M,29.90,M,10.00,M,CLR,M,M,M,M,M,M,M,M,KAMG 010405Z AUTO 00000KT 10SM CLR A2990 RMK MADISHF
AMG,2017-04-01 04:10,-82.5066,31.5361,M,M,M,0.00,0.00,M,29.90,M,10.00,M,CLR,M,M,M,M,M,M,M,M,KAMG 010410Z AUTO 00000KT 10SM CLR A2990 RMK MADISHF
AMG,2017-04-01 04:15,-82.5066,31.5361,M,M,M,0.00,0.00,M,29.90,M,10.00,M,CLR,M,M,M,M,M,M,M,M,KAMG 010415Z AUTO 00000KT 10SM CLR A2990 RMK MADISHF
AMG,2017-04-01 04:20,-82.5066,31.5361,M,M,M,0.00,0.00,M,29.90,M,10.00,M,CLR,M,M,M,M,M,M,M,M,KAMG 010420Z AUTO 00000KT 10SM CLR A2990 RMK MADISHF
AMG,2017-04-01 04:25,-82.5066,31.5361,M,M,M,0.00,0.00,M,29.90,M,10.00,M,CLR,M,M,M,M,M,M,M,M,KAMG 010425Z AUTO 00000KT 10SM CLR A2990 RMK MADISHF
AMG,2017-04-01 04:30,-82.5066,31.5361,M,M,M,0.00,0.00,M,29.90,M,10.00,M,CLR,M,M,M,M,M,M,M,M,KAMG 010430Z AUTO 00000KT 10SM CLR A2990 RMK MADISHF
AMG,2017-04-01 04:35,-82.5066,31.5361,M,M,M,0.00,0.00,M,29.91,M,10.00,M,CLR,M,M,M,M,M,M,M,M,KAMG 010435Z AUTO 00000KT 10SM CLR A2991 RMK MADISHF
AMG,2017-04-01 04:40,-82.5066,31.5361,M,M,M,0.00,0.00,M,29.91,M,10.00,M,CLR,M,M,M,M,M,M,M,M,KAMG 010440Z AUTO 00000KT 10SM CLR A2991 RMK MADISHF
AMG,2017-04-01 04:45,-82.5066,31.5361,M,M,M,0.00,0.00,M,29.91,M,10.00,M,CLR,M,M,M,M,M,M,M,M,KAMG 010445Z AUTO 00000KT 10SM CLR A2991 RMK MADISHF
AMG,2017-04-01 04:50,-82.5066,31.5361,M,M,M,0.00,0.00,M,29.91,M,10.00,M,CLR,M,M,M,M,M,M,M,M,KAMG 010450Z AUTO 00000KT 10SM CLR A2991 RMK MADISHF
AMG,2017-04-01 04:53,-82.5066,31.5361,57.00,54.00,89.68,0.00,0.00,0.00,29.91,1012.50,10.00,M,CLR,M,M,M,M,M,M,M,M,KAMG 010453Z AUTO 00000KT 10SM CLR 14/12 A2991 RMK AO2 SLP125 T01390122 402890139
AMG,2017-04-01 04:55,-82.5066,31.5361,M,M,M,0.00,0.00,M,29.91,M,10.00,M,CLR,M,M,M,M,M,M,M,M,KAMG 010455Z AUTO 00000KT 10SM CLR A2991 RMK MADISHF
AMG,2017-04-01 05:00,-82.5066,31.5361,M,M,M,0.00,0.00,M,29.91,M,10.00,M,CLR,M,M,M,M,M,M,M,M,KAMG 010500Z AUTO 00000KT 10SM CLR A2991 RMK MADISHF
AMG,2017-04-01 05:05,-82.5066,31.5361,M,M,M,0.00,0.00,M,29.91,M,10.00,M,CLR,M,M,M,M,M,M,M,M,KAMG 010505Z AUTO 00000KT 10SM CLR A2991 RMK MADISHF
AMG,2017-04-01 05:10,-82.5066,31.5361,M,M,M,0.00,0.00,M,29.92,M,10.00,M,CLR,M,M,M,M,M,M,M,M,KAMG 010510Z AUTO 00000KT 10SM CLR A2992 RMK MADISHF
AMG,2017-04-01 05:15,-82.5066,31.5361,M,M,M,0.00,0.00,M,29.92,M,10.00,M,CLR,M,M,M,M,M,M,M,M,KAMG 010515Z AUTO 00000KT 10SM CLR A2992 RMK MADISHF
AMG,2017-04-01 05:20,-82.5066,31.5361,M,M,M,0.00,0.00,M,29.92,M,10.00,M,CLR,M,M,M,M,M,M,M,M,KAMG 010520Z AUTO 00000KT 10SM CLR A2992 RMK MADISHF
AMG,2017-04-01 05:25,-82.5066,31.5361,M,M,M,0.00,0.00,M,29.92,M,10.00,M,CLR,M,M,M,M,M,M,M,M,KAMG 010525Z AUTO 00000KT 10SM CLR A2992 RMK MADISHF
AMG,2017-04-01 05:30,-82.5066,31.5361,M,M,M,0.00,0.00,M,29.92,M,10.00,M,CLR,M,M,M,M,M,M,M,M,KAMG 010530Z AUTO 00000KT 10SM CLR A2992 RMK MADISHF
AMG,2017-04-01 05:35,-82.5066,31.5361,M,M,M,0.00,0.00,M,29.92,M,10.00,M,CLR,M,M,M,M,M,M,M,M,KAMG 010535Z AUTO 00000KT 10SM CLR A2992 RMK MADISHF
AMG,2017-04-01 05:40,-82.5066,31.5361,M,M,M,0.00,0.00,M,29.92,M,10.00,M,CLR,M,M,M,M,M,M,M,M,KAMG 010540Z AUTO 00000KT 10SM CLR A2992 RMK MADISHF
AMG,2017-04-01 05:45,-82.5066,31.5361,M,M,M,0.00,0.00,M,29.92,M,10.00,M,CLR,M,M,M,M,M,M,M,M,KAMG 010545Z AUTO 00000KT 10SM CLR A2992 RMK MADISHF
AMG,2017-04-01 05:50,-82.5066,31.5361,M,M,M,0.00,0.00,M,29.92,M,10.00,M,CLR,M,M,M,M,M,M,M,M,KAMG 010550Z AUTO 00000KT 10SM CLR A2992 RMK MADISHF
AMG,2017-04-01 05:53,-82.5066,31.5361,55.90,54.00,93.32,0.00,0.00,0.00,29.92,1013.00,10.00,M,CLR,M,M,M,M,M,M,M,M,KAMG 010553Z AUTO 00000KT 10SM CLR 13/12 A2992 RMK AO2 SLP130 T01330122 10250 20133 51014
AMG,2017-04-01 05:55,-82.5066,31.5361,M,M,M,0.00,0.00,M,29.92,M,10.00,M,CLR,M,M,M,M,M,M,M,M,KAMG 010555Z AUTO 00000KT 10SM CLR A2992 RMK MADISHF
AMG,2017-04-01 06:00,-82.5066,31.5361,M,M,M,0.00,0.00,M,29.92,M,10.00,M,CLR,M,M,M,M,M,M,M,M,KAMG 010600Z AUTO 00000KT 10SM CLR A2992 RMK MADISHF
AMG,2017-04-01 06:05,-82.5066,31.5361,M,M,M,0.00,0.00,M,29.92,M,10.00,M,CLR,M,M,M,M,M,M,M,M,KAMG 010605Z AUTO 00000KT 10SM CLR A2992 RMK MADISHF
AMG,2017-04-01 06:10,-82.5066,31.5361,M,M,M,0.00,0.00,M,29.92,M,10.00,M,CLR,M,M,M,M,M,M,M,M,KAMG 010610Z AUTO 00000KT 10SM CLR A2992 RMK MADISHF
AMG,2017-04-01 06:15,-82.5066,31.5361,M,M,M,0.00,0.00,M,29.92,M,10.00,M,CLR,M,M,M,M,M,M,M,M,KAMG 010615Z AUTO 00000KT 10SM CLR A2992 RMK MADISHF
AMG,2017-04-01 06:20,-82.5066,31.5361,M,M,M,0.00,0.00,M,29.92,M,10.00,M,CLR,M,M,M,M,M,M,M,M,KAMG 010620Z AUTO 00000KT 10SM CLR A2992 RMK MADISHF
AMG,2017-04-01 06:25,-82.5066,31.5361,M,M,M,0.00,0.00,M,29.92,M,10.00,M,CLR,M,M,M,M,M,M,M,M,KAMG 010625Z AUTO 00000KT 10SM CLR A2992 RMK MADISHF
AMG,2017-04-01 06:30,-82.5066,31.5361,M,M,M,0.00,0.00,M,29.92,M,10.00,M,CLR,M,M,M,M,M,M,M,M,KAMG 010630Z AUTO 00000KT 10SM CLR A2992 RMK MADISHF
AMG,2017-04-01 06:35,-82.5066,31.5361,M,M,M,0.00,0.00,M,29.92,M,10.00,M,CLR,M,M,M,M,M,M,M,M,KAMG 010635Z AUTO 00000KT 10SM CLR A2992 RMK MADISHF
AMG,2017-04-01 06:40,-82.5066,31.5361,M,M,M,0.00,0.00,M,29.93,M,10.00,M,CLR,M,M,M,M,M,M,M,M,KAMG 010640Z AUTO 00000KT 10SM CLR A2993 RMK MADISHF
AMG,2017-04-01 06:45,-82.5066,31.5361,M,M,M,0.00,0.00,M,29.93,M,10.00,M,CLR,M,M,M,M,M,M,M,M,KAMG 010645Z AUTO 00000KT 10SM CLR A2993 RMK MADISHF
AMG,2017-04-01 06:50,-82.5066,31.5361,M,M,M,0.00,0.00,M,29.93,M,10.00,M,CLR,M,M,M,M,M,M,M,M,KAMG 010650Z AUTO 00000KT 10SM CLR A2993 RMK MADISHF
AMG,2017-04-01 06:53,-82.5066,31.5361,55.00,53.10,93.29,0.00,0.00,0.00,29.93,1013.20,10.00,M,CLR,M,M,M,M,M,M,M,M,KAMG 010653Z AUTO 00000KT 10SM CLR 13/12 A2993 RMK AO2 SLP132 T01280117
AMG,2017-04-01 06:55,-82.5066,31.5361,M,M,M,340.00,3.00,M,29.93,M,10.00,M,CLR,M,M,M,M,M,M,M,M,KAMG 010655Z AUTO 34003KT 10SM CLR A2993 RMK MADISHF
AMG,2017-04-01 07:00,-82.5066,31.5361,M,M,M,340.00,3.00,M,29.93,M,10.00,M,CLR,M,M,M,M,M,M,M,M,KAMG 010700Z AUTO 34003KT 10SM CLR A2993 RMK MADISHF
AMG,2017-04-01 07:05,-82.5066,31.5361,M,M,M,340.00,3.00,M,29.93,M,10.00,M,CLR,M,M,M,M,M,M,M,M,KAMG 010705Z AUTO 34003KT 10SM CLR A2993 RMK MADISHF
AMG,2017-04-01 07:10,-82.5066,31.5361,M,M,M,340.00,3.00,M,29.93,M,10.00,M,CLR,M,M,M,M,M,M,M,M,KAMG 010710Z AUTO 34003KT 10SM CLR A2993 RMK MADISHF
AMG,2017-04-01 07:15,-82.5066,31.5361,M,M,M,330.00,3.00,M,29.93,M,10.00,M,CLR,M,M,M,M,M,M,M,M,KAMG 010715Z AUTO 33003KT 10SM CLR A2993 RMK MADISHF
AMG,2017-04-01 07:20,-82.5066,31.5361,M,M,M,330.00,3.00,M,29.93,M,10.00,M,CLR,M,M,M,M,M,M,M,M,KAMG 010720Z AUTO 33003KT 10SM CLR A2993 RMK MADISHF
AMG,2017-04-01 07:25,-82.5066,31.5361,M,M,M,320.00,3.00,M,29.93,M,10.00,M,CLR,M,M,M,M,M,M,M,M,KAMG 010725Z AUTO 32003KT 10SM CLR A2993 RMK MADISHF
AMG,2017-04-01 07:30,-82.5066,31.5361,M,M,M,0.00,0.00,M,29.93,M,10.00,M,CLR,M,M,M,M,M,M,M,M,KAMG 010730Z AUTO 00000KT 10SM CLR A2993 RMK MADISHF
AMG,2017-04-01 07:35,-82.5066,31.5361,M,M,M,0.00,0.00,M,29.93,M,10.00,M,CLR,M,M,M,M,M,M,M,M,KAMG 010735Z AUTO 00000KT 10SM CLR A2993 RMK MADISHF
AMG,2017-04-01 07:40,-82.5066,31.5361,M,M,M,0.00,0.00,M,29.94,M,10.00,M,CLR,M,M,M,M,M,M,M,M,KAMG 010740Z AUTO 00000KT 10SM CLR A2994 RMK MADISHF
AMG,2017-04-01 07:45,-82.5066,31.5361,M,M,M,0.00,0.00,M,29.94,M,10.00,M,CLR,M,M,M,M,M,M,M,M,KAMG 010745Z AUTO 00000KT 10SM CLR A2994 RMK MADISHF
AMG,2017-04-01 07:50,-82.5066,31.5361,M,M,M,0.00,0.00,M,29.94,M,10.00,M,CLR,M,M,M,M,M,M,M,M,KAMG 010750Z AUTO 00000KT 10SM CLR A2994 RMK MADISHF
AMG,2017-04-01 07:53,-82.5066,31.5361,54.00,52.00,92.92,0.00,0.00,0.00,29.94,1013.60,10.00,M,CLR,M,M,M,M,M,M,M,M,KAMG 010753Z AUTO 00000KT 10SM CLR 12/11 A2994 RMK AO2 SLP136 T01220111
AMG,2017-04-01 07:55,-82.5066,31.5361,M,M,M,0.00,0.00,M,29.94,M,10.00,M,CLR,M,M,M,M,M,M,M,M,KAMG 010755Z AUTO 00000KT 10SM CLR A2994 RMK MADISHF
AMG,2017-04-01 08:00,-82.5066,31.5361,M,M,M,0.00,0.00,M,29.94,M,10.00,M,CLR,M,M,M,M,M,M,M,M,KAMG 010800Z AUTO 00000KT 10SM CLR A2994 RMK MADISHF
AMG,2017-04-01 08:05,-82.5066,31.5361,M,M,M,0.00,0.00,M,29.94,M,10.00,M,CLR,M,M,M,M,M,M,M,M,KAMG 010805Z AUTO 00000KT 10SM CLR A2994 RMK MADISHF
AMG,2017-04-01 08:10,-82.5066,31.5361,M,M,M,0.00,0.00,M,29.95,M,10.00,M,CLR,M,M,M,M,M,M,M,M,KAMG 010810Z AUTO 00000KT 10SM CLR A2995 RMK MADISHF
AMG,2017-04-01 08:15,-82.5066,31.5361,M,M,M,0.00,0.00,M,29.95,M,10.00,M,CLR,M,M,M,M,M,M,M,M,KAMG 010815Z AUTO 00000KT 10SM CLR A2995 RMK MADISHF
AMG,2017-04-01 08:20,-82.5066,31.5361,M,M,M,0.00,0.00,M,29.95,M,10.00,M,CLR,M,M,M,M,M,M,M,M,KAMG 010820Z AUTO 00000KT 10SM CLR A2995 RMK MADISHF
AMG,2017-04-01 08:25,-82.5066,31.5361,M,M,M,0.00,0.00,M,29.95,M,10.00,M,CLR,M,M,M,M,M,M,M,M,KAMG 010825Z AUTO 00000KT 10SM CLR A2995 RMK MADISHF
AMG,2017-04-01 08:30,-82.5066,31.5361,M,M,M,0.00,0.00,M,29.95,M,10.00,M,CLR,M,M,M,M,M,M,M,M,KAMG 010830Z AUTO 00000KT 10SM CLR A2995 RMK MADISHF
AMG,2017-04-01 08:35,-82.5066,31.5361,M,M,M,0.00,0.00,M,29.95,M,10.00,M,CLR,M,M,M,M,M,M,M,M,KAMG 010835Z AUTO 00000KT 10SM CLR A2995 RMK MADISHF
AMG,2017-04-01 08:40,-82.5066,31.5361,M,M,M,0.00,0.00,M,29.95,M,10.00,M,CLR,M,M,M,M,M,M,M,M,KAMG 010840Z AUTO 00000KT 10SM CLR A2995 RMK MADISHF
AMG,2017-04-01 08:45,-82.5066,31.5361,M,M,M,0.00,0.00,M,29.95,M,10.00,M,CLR,M,M,M,M,M,M,M,M,KAMG 010845Z AUTO 00000KT 10SM CLR A2995 RMK MADISHF
AMG,2017-04-01 08:50,-82.5066,31.5361,M,M,M,0.00,0.00,M,29.95,M,10.00,M,CLR,M,M,M,M,M,M,M,M,KAMG 010850Z AUTO 00000KT 10SM CLR A2995 RMK MADISHF
AMG,2017-04-01 08:53,-82.5066,31.5361,52.00,51.10,96.73,0.00,0.00,0.00,29.95,1014.00,10.00,M,CLR,M,M,M,M,M,M,M,M,KAMG 010853Z AUTO 00000KT 10SM CLR 11/11 A2995 RMK AO2 SLP140 T01110106 53010
AMG,2017-04-01 08:55,-82.5066,31.5361,M,M,M,0.00,0.00,M,29.95,M,10.00,M,CLR,M,M,M,M,M,M,M,M,KAMG 010855Z AUTO 00000KT 10SM CLR A2995 RMK MADISHF
AMG,2017-04-01 09:00,-82.5066,31.5361,M,M,M,0.00,0.00,M,29.95,M,10.00,M,CLR,M,M,M,M,M,M,M,M,KAMG 010900Z AUTO 00000KT 10SM CLR A2995 RMK MADISHF
AMG,2017-04-01 09:05,-82.5066,31.5361,M,M,M,0.00,0.00,M,29.95,M,10.00,M,CLR,M,M,M,M,M,M,M,M,KAMG 010905Z AUTO 00000KT 10SM CLR A2995 RMK MADISHF
AMG,2017-04-01 09:10,-82.5066,31.5361,M,M,M,0.00,0.00,M,29.95,M,10.00,M,CLR,M,M,M,M,M,M,M,M,KAMG 010910Z AUTO 00000KT 10SM CLR A2995 RMK MADISHF
AMG,2017-04-01 09:15,-82.5066,31.5361,M,M,M,0.00,0.00,M,29.95,M,10.00,M,CLR,M,M,M,M,M,M,M,M,KAMG 010915Z AUTO 00000KT 10SM CLR A2995 RMK MADISHF
AMG,2017-04-01 09:20,-82.5066,31.5361,M,M,M,0.00,0.00,M,29.95,M,10.00,M,CLR,M,M,M,M,M,M,M,M,KAMG 010920Z AUTO 00000KT 10SM CLR A2995 RMK MADISHF
AMG,2017-04-01 09:25,-82.5066,31.5361,M,M,M,0.00,0.00,M,29.96,M,10.00,M,CLR,M,M,M,M,M,M,M,M,KAMG 010925Z AUTO 00000KT 10SM CLR A2996 RMK MADISHF
AMG,2017-04-01 09:30,-82.5066,31.5361,M,M,M,0.00,0.00,M,29.96,M,10.00,M,CLR,M,M,M,M,M,M,M,M,KAMG 010930Z AUTO 00000KT 10SM CLR A2996 RMK MADISHF
AMG,2017-04-01 09:35,-82.5066,31.5361,M,M,M,0.00,0.00,M,29.96,M,10.00,M,CLR,M,M,M,M,M,M,M,M,KAMG 010935Z AUTO 00000KT 10SM CLR A2996 RMK MADISHF
AMG,2017-04-01 09:40,-82.5066,31.5361,M,M,M,0.00,0.00,M,29.96,M,10.00,M,CLR,M,M,M,M,M,M,M,M,KAMG 010940Z AUTO 00000KT 10SM CLR A2996 RMK MADISHF
AMG,2017-04-01 09:45,-82.5066,31.5361,M,M,M,0.00,0.00,M,29.96,M,10.00,M,CLR,M,M,M,M,M,M,M,M,KAMG 010945Z AUTO 00000KT 10SM CLR A2996 RMK MADISHF
AMG,2017-04-01 09:50,-82.5066,31.5361,M,M,M,0.00,0.00,M,29.96,M,10.00,M,CLR,M,M,M,M,M,M,M,M,KAMG 010950Z AUTO 00000KT 10SM CLR A2996 RMK MADISHF
AMG,2017-04-01 09:53,-82.5066,31.5361,51.10,50.00,96.00,0.00,0.00,0.00,29.96,1014.40,10.00,M,CLR,M,M,M,M,M,M,M,M,KAMG 010953Z AUTO 00000KT 10SM CLR 11/10 A2996 RMK AO2 SLP144 T01060100
AMG,2017-04-01 09:55,-82.5066,31.5361,M,M,M,0.00,0.00,M,29.97,M,10.00,M,CLR,M,M,M,M,M,M,M,M,KAMG 010955Z AUTO 00000KT 10SM CLR A2997 RMK MADISHF
AMG,2017-04-01 10:00,-82.5066,31.5361,M,M,M,0.00,0.00,M,29.97,M,9.00,M,CLR,M,M,M,M,M,M,M,M,KAMG 011000Z AUTO 00000KT 9SM CLR A2997 RMK MADISHF
AMG,2017-04-01 10:05,-82.5066,31.5361,M,M,M,0.00,0.00,M,29.97,M,7.00,M,CLR,M,M,M,M,M,M,M,M,KAMG 011005Z AUTO 00000KT 7SM CLR A2997 RMK MADISHF
AMG,2017-04-01 10:10,-82.5066,31.5361,M,M,M,0.00,0.00,M,29.97,M,6.00,M,CLR,M,M,M,M,M,M,M,BR,KAMG 011010Z AUTO 00000KT 6SM BR CLR A2997 RMK MADISHF
AMG,2017-04-01 10:15,-82.5066,31.5361,M,M,M,0.00,0.00,M,29.97,M,7.00,M,CLR,M,M,M,M,M,M,M,M,KAMG 011015Z AUTO 00000KT 7SM CLR A2997 RMK MADISHF
AMG,2017-04-01 10:20,-82.5066,31.5361,M,M,M,0.00,0.00,M,29.98,M,8.00,M,CLR,M,M,M,M,M,M,M,M,KAMG 011020Z AUTO 00000KT 8SM CLR A2998 RMK MADISHF
AMG,2017-04-01 10:25,-82.5066,31.5361,M,M,M,0.00,0.00,M,29.98,M,9.00,M,CLR,M,M,M,M,M,M,M,M,KAMG 011025Z AUTO 00000KT 9SM CLR A2998 RMK MADISHF
AMG,2017-04-01 10:30,-82.5066,31.5361,M,M,M,0.00,0.00,M,29.98,M,8.00,M,CLR,M,M,M,M,M,M,M,M,KAMG 011030Z AUTO 00000KT 8SM CLR A2998 RMK MADISHF
AMG,2017-04-01 10:35,-82.5066,31.5361,M,M,M,0.00,0.00,M,29.98,M,8.00,M,CLR,M,M,M,M,M,M,M,M,KAMG 011035Z AUTO 00000KT 8SM CLR A2998 RMK MADISHF
AMG,2017-04-01 10:40,-82.5066,31.5361,M,M,M,0.00,0.00,M,29.98,M,9.00,M,CLR,M,M,M,M,M,M,M,M,KAMG 011040Z AUTO 00000KT 9SM CLR A2998 RMK MADISHF
AMG,2017-04-01 10:45,-82.5066,31.5361,M,M,M,0.00,0.00,M,29.98,M,10.00,M,CLR,M,M,M,M,M,M,M,M,KAMG 011045Z AUTO 00000KT 10SM CLR A2998 RMK MADISHF
AMG,2017-04-01 10:50,-82.5066,31.5361,M,M,M,0.00,0.00,M,29.99,M,9.00,M,CLR,M,M,M,M,M,M,M,M,KAMG 011050Z AUTO 00000KT 9SM CLR A2999 RMK MADISHF
AMG,2017-04-01 10:53,-82.5066,31.5361,48.90,48.90,100.00,0.00,0.00,0.00,29.99,1015.20,8.00,M,CLR,M,M,M,M,M,M,M,M,KAMG 011053Z AUTO 00000KT 8SM CLR 09/09 A2999 RMK AO2 SLP152 T00940094
AMG,2017-04-01 10:55,-82.5066,31.5361,M,M,M,0.00,0.00,M,29.99,M,8.00,M,CLR,M,M,M,M,M,M,M,M,KAMG 011055Z AUTO 00000KT 8SM CLR A2999 RMK MADISHF
AMG,2017-04-01 11:00,-82.5066,31.5361,M,M,M,0.00,0.00,M,29.99,M,8.00,M,CLR,M,M,M,M,M,M,M,M,KAMG 011100Z AUTO 00000KT 8SM CLR A2999 RMK MADISHF
AMG,2017-04-01 11:05,-82.5066,31.5361,M,M,M,0.00,0.00,M,29.99,M,7.00,M,CLR,M,M,M,M,M,M,M,M,KAMG 011105Z AUTO 00000KT 7SM CLR A2999 RMK MADISHF
AMG,2017-04-01 11:10,-82.5066,31.5361,M,M,M,0.00,0.00,M,29.99,M,8.00,M,CLR,M,M,M,M,M,M,M,M,KAMG 011110Z AUTO 00000KT 8SM CLR A2999 RMK MADISHF
AMG,2017-04-01 11:15,-82.5066,31.5361,M,M,M,0.00,0.00,M,30.00,M,9.00,M,CLR,M,M,M,M,M,M,M,M,KAMG 011115Z AUTO 00000KT 9SM CLR A3000 RMK MADISHF
AMG,2017-04-01 11:20,-82.5066,31.5361,M,M,M,0.00,0.00,M,30.00,M,8.00,M,CLR,M,M,M,M,M,M,M,M,KAMG 011120Z AUTO 00000KT 8SM CLR A3000 RMK MADISHF
AMG,2017-04-01 11:25,-82.5066,31.5361,M,M,M,0.00,0.00,M,30.00,M,9.00,M,CLR,M,M,M,M,M,M,M,M,KAMG 011125Z AUTO 00000KT 9SM CLR A3000 RMK MADISHF
AMG,2017-04-01 11:30,-82.5066,31.5361,M,M,M,0.00,0.00,M,30.00,M,10.00,M,CLR,M,M,M,M,M,M,M,M,KAMG 011130Z AUTO 00000KT 10SM CLR A3000 RMK MADISHF
AMG,2017-04-01 11:35,-82.5066,31.5361,M,M,M,0.00,0.00,M,30.00,M,9.00,M,CLR,M,M,M,M,M,M,M,M,KAMG 011135Z AUTO 00000KT 9SM CLR A3000 RMK MADISHF
AMG,2017-04-01 11:40,-82.5066,31.5361,M,M,M,0.00,0.00,M,30.00,M,9.00,M,CLR,M,M,M,M,M,M,M,M,KAMG 011140Z AUTO 00000KT 9SM CLR A3000 RMK MADISHF
AMG,2017-04-01 11:45,-82.5066,31.5361,M,M,M,0.00,0.00,M,30.01,M,10.00,M,CLR,M,M,M,M,M,M,M,M,KAMG 011145Z AUTO 00000KT 10SM CLR A3001 RMK MADISHF
AMG,2017-04-01 11:50,-82.5066,31.5361,M,M,M,0.00,0.00,M,30.01,M,10.00,M,CLR,M,M,M,M,M,M,M,M,KAMG 011150Z AUTO 00000KT 10SM CLR A3001 RMK MADISHF
AMG,2017-04-01 11:53,-82.5066,31.5361,51.10,50.00,96.00,0.00,0.00,0.00,30.01,1015.90,10.00,M,CLR,M,M,M,M,M,M,M,M,KAMG 011153Z AUTO 00000KT 10SM CLR 11/10 A3001 RMK AO2 SLP159 T01060100 10139 20094 53019
AMG,2017-04-01 11:55,-82.5066,31.5361,M,M,M,0.00,0.00,M,30.01,M,10.00,M,CLR,M,M,M,M,M,M,M,M,KAMG 011155Z AUTO 00000KT 10SM CLR A3001 RMK MADISHF
AMG,2017-04-01 12:00,-82.5066,31.5361,M,M,M,0.00,0.00,M,30.01,M,10.00,M,CLR,M,M,M,M,M,M,M,M,KAMG 011200Z AUTO 00000KT 10SM CLR A3001 RMK MADISHF
AMG,2017-04-01 12:05,-82.5066,31.5361,M,M,M,0.00,0.00,M,30.01,M,10.00,M,CLR,M,M,M,M,M,M,M,M,KAMG 011205Z AUTO 00000KT 10SM CLR A3001 RMK MADISHF
AMG,2017-04-01 12:10,-82.5066,31.5361,M,M,M,0.00,0.00,M,30.01,M,10.00,M,CLR,M,M,M,M,M,M,M,M,KAMG 011210Z AUTO 00000KT 10SM CLR A3001 RMK MADISHF
AMG,2017-04-01 12:15,-82.5066,31.5361,M,M,M,0.00,0.00,M,30.01,M,10.00,M,CLR,M,M,M,M,M,M,M,M,KAMG 011215Z AUTO 00000KT 10SM CLR A3001 RMK MADISHF
AMG,2017-04-01 12:20,-82.5066,31.5361,M,M,M,0.00,0.00,M,30.02,M,10.00,M,CLR,M,M,M,M,M,M,M,M,KAMG 011220Z AUTO 00000KT 10SM CLR A3002 RMK MADISHF
AMG,2017-04-01 12:25,-82.5066,31.5361,M,M,M,0.00,0.00,M,30.02,M,10.00,M,CLR,M,M,M,M,M,M,M,M,KAMG 011225Z AUTO 00000KT 10SM CLR A3002 RMK MADISHF
AMG,2017-04-01 12:30,-82.5066,31.5361,M,M,M,0.00,0.00,M,30.02,M,10.00,M,CLR,M,M,M,M,M,M,M,M,KAMG 011230Z AUTO 00000KT 10SM CLR A3002 RMK MADISHF
AMG,2017-04-01 12:35,-82.5066,31.5361,M,M,M,0.00,0.00,M,30.02,M,10.00,M,CLR,M,M,M,M,M,M,M,M,KAMG 011235Z AUTO 00000KT 10SM CLR A3002 RMK MADISHF
AMG,2017-04-01 12:40,-82.5066,31.5361,M,M,M,0.00,0.00,M,30.03,M,8.00,M,CLR,M,M,M,M,M,M,M,M,KAMG 011240Z AUTO 00000KT 8SM CLR A3003 RMK MADISHF
AMG,2017-04-01 12:45,-82.5066,31.5361,M,M,M,240.00,3.00,M,30.03,M,6.00,M,CLR,M,M,M,M,M,M,M,HZ,KAMG 011245Z AUTO 24003KT 6SM HZ CLR A3003 RMK MADISHF
AMG,2017-04-01 12:50,-82.5066,31.5361,M,M,M,240.00,3.00,M,30.03,M,5.00,M,CLR,M,M,M,M,M,M,M,HZ,KAMG 011250Z AUTO 24003KT 5SM HZ CLR A3003 RMK MADISHF
AMG,2017-04-01 12:53,-82.5066,31.5361,60.10,53.10,77.65,240.00,3.00,0.00,30.03,1016.70,5.00,M,CLR,M,M,M,M,M,M,M,HZ,KAMG 011253Z AUTO 24003KT 5SM HZ CLR 16/12 A3003 RMK AO2 SLP167 T01560117
AMG,2017-04-01 12:55,-82.5066,31.5361,M,M,M,270.00,3.00,M,30.03,M,5.00,M,CLR,M,M,M,M,M,M,M,HZ,KAMG 011255Z AUTO 27003KT 5SM HZ CLR A3003 RMK VRB03KT  MADISHF
AMG,2017-04-01 13:00,-82.5066,31.5361,M,M,M,0.00,0.00,M,30.03,M,5.00,M,CLR,M,M,M,M,M,M,M,HZ,KAMG 011300Z AUTO 00000KT 5SM HZ CLR A3003 RMK MADISHF
AMG,2017-04-01 13:05,-82.5066,31.5361,M,M,M,270.00,4.00,M,30.03,M,5.00,M,CLR,M,M,M,M,M,M,M,HZ,KAMG 011305Z AUTO 27004KT 5SM HZ CLR A3003 RMK MADISHF
AMG,2017-04-01 13:10,-82.5066,31.5361,M,M,M,270.00,4.00,M,30.04,M,4.00,M,CLR,M,M,M,M,M,M,M,HZ,KAMG 011310Z AUTO 27004KT 4SM HZ CLR A3004 RMK MADISHF
AMG,2017-04-01 13:15,-82.5066,31.5361,M,M,M,280.00,3.00,M,30.04,M,5.00,M,CLR,M,M,M,M,M,M,M,HZ,KAMG 011315Z AUTO 28003KT 5SM HZ CLR A3004 RMK MADISHF
AMG,2017-04-01 13:20,-82.5066,31.5361,M,M,M,300.00,3.00,M,30.04,M,5.00,M,CLR,M,M,M,M,M,M,M,HZ,KAMG 011320Z AUTO 30003KT 5SM HZ CLR A3004 RMK VRB03KT  MADISHF
AMG,2017-04-01 13:25,-82.5066,31.5361,M,M,M,310.00,3.00,M,30.04,M,4.00,M,CLR,M,M,M,M,M,M,M,HZ,KAMG 011325Z AUTO 31003KT 4SM HZ CLR A3004 RMK MADISHF
AMG,2017-04-01 13:30,-82.5066,31.5361,M,M,M,300.00,5.00,M,30.04,M,5.00,M,CLR,M,M,M,M,M,M,M,HZ,KAMG 011330Z AUTO 30005KT 5SM HZ CLR A3004 RMK MADISHF
AMG,2017-04-01 13:35,-82.5066,31.5361,M,M,M,330.00,6.00,M,30.04,M,7.00,M,CLR,M,M,M,M,M,M,M,M,KAMG 011335Z AUTO 33006KT 7SM CLR A3004 RMK VRB06KT  MADISHF
AMG,2017-04-01 13:40,-82.5066,31.5361,M,M,M,330.00,5.00,M,30.04,M,5.00,M,CLR,M,M,M,M,M,M,M,HZ,KAMG 011340Z AUTO 33005KT 5SM HZ CLR A3004 RMK MADISHF
AMG,2017-04-01 13:45,-82.5066,31.5361,M,M,M,320.00,6.00,M,30.05,M,4.00,M,CLR,M,M,M,M,M,M,M,HZ,KAMG 011345Z AUTO 32006KT 4SM HZ CLR A3005 RMK MADISHF
AMG,2017-04-01 13:50,-82.5066,31.5361,M,M,M,340.00,5.00,M,30.05,M,5.00,M,CLR,M,M,M,M,M,M,M,HZ,KAMG 011350Z AUTO 34005KT 5SM HZ CLR A3005 RMK MADISHF
AMG,2017-04-01 13:53,-82.5066,31.5361,66.90,52.00,58.74,350.00,6.00,0.00,30.05,1017.20,6.00,M,CLR,M,M,M,M,M,M,M,HZ,KAMG 011353Z AUTO 35006KT 6SM HZ CLR 19/11 A3005 RMK AO2 SLP172 T01940111
AMG,2017-04-01 13:55,-82.5066,31.5361,M,M,M,320.00,5.00,M,30.05,M,7.00,M,CLR,M,M,M,M,M,M,M,M,KAMG 011355Z AUTO 32005KT 7SM CLR A3005 RMK MADISHF
AMG,2017-04-01 14:00,-82.5066,31.5361,M,M,M,340.00,5.00,M,30.05,M,8.00,M,CLR,M,M,M,M,M,M,M,M,KAMG 011400Z AUTO 34005KT 8SM CLR A3005 RMK MADISHF
AMG,2017-04-01 14:05,-82.5066,31.5361,M,M,M,320.00,6.00,M,30.05,M,9.00,M,CLR,M,M,M,M,M,M,M,M,KAMG 011405Z AUTO 32006KT 9SM CLR A3005 RMK MADISHF
AMG,2017-04-01 14:10,-82.5066,31.5361,M,M,M,330.00,5.00,M,30.05,M,8.00,M,CLR,M,M,M,M,M,M,M,M,KAMG 011410Z AUTO 33005KT 8SM CLR A3005 RMK MADISHF
AMG,2017-04-01 14:15,-82.5066,31.5361,M,M,M,290.00,5.00,M,30.05,M,8.00,M,CLR,M,M,M,M,M,M,M,M,KAMG 011415Z AUTO 29005KT 8SM CLR A3005 RMK MADISHF
AMG,2017-04-01 14:20,-82.5066,31.5361,M,M,M,300.00,3.00,M,30.05,M,8.00,M,CLR,M,M,M,M,M,M,M,M,KAMG 011420Z AUTO 30003KT 8SM CLR A3005 RMK VRB03KT  MADISHF
AMG,2017-04-01 14:25,-82.5066,31.5361,M,M,M,290.00,6.00,M,30.05,M,8.00,M,CLR,M,M,M,M,M,M,M,M,KAMG 011425Z AUTO 29006KT 8SM CLR A3005 RMK MADISHF
AMG,2017-04-01 14:30,-82.5066,31.5361,M,M,M,320.00,5.00,M,30.05,M,8.00,M,CLR,M,M,M,M,M,M,M,M,KAMG 011430Z AUTO 32005KT 8SM CLR A3005 RMK MADISHF
AMG,2017-04-01 14:35,-82.5066,31.5361,M,M,M,330.00,3.00,M,30.05,M,9.00,M,CLR,M,M,M,M,M,M,M,M,KAMG 011435Z AUTO 33003KT 9SM CLR A3005 RMK VRB03KT  MADISHF
AMG,2017-04-01 14:40,-82.5066,31.5361,M,M,M,300.00,6.00,M,30.05,M,9.00,M,CLR,M,M,M,M,M,M,M,M,KAMG 011440Z AUTO 30006KT 9SM CLR A3005 RMK MADISHF
AMG,2017-04-01 14:45,-82.5066,31.5361,M,M,M,320.00,7.00,M,30.05,M,8.00,M,CLR,M,M,M,M,M,M,M,M,KAMG 011445Z AUTO 32007KT 8SM CLR A3005 RMK MADISHF
AMG,2017-04-01 14:50,-82.5066,31.5361,M,M,M,320.00,9.00,M,30.05,M,8.00,M,CLR,M,M,M,M,M,M,M,M,KAMG 011450Z AUTO 32009KT 8SM CLR A3005 RMK MADISHF
AMG,2017-04-01 14:53,-82.5066,31.5361,73.00,50.00,44.29,310.00,10.00,0.00,30.05,1017.30,8.00,M,CLR,M,M,M,M,M,M,M,M,KAMG 011453Z AUTO 31010KT 8SM CLR 23/10 A3005 RMK AO2 SLP173 T02280100 51014
AMG,2017-04-01 14:55,-82.5066,31.5361,M,M,M,310.00,10.00,M,30.05,M,7.00,M,CLR,M,M,M,M,M,M,M,M,KAMG 011455Z AUTO 31010KT 7SM CLR A3005 RMK MADISHF
AMG,2017-04-01 15:00,-82.5066,31.5361,M,M,M,330.00,10.00,M,30.05,M,8.00,M,CLR,M,M,M,M,M,M,M,M,KAMG 011500Z AUTO 33010KT 8SM CLR A3005 RMK MADISHF
AMG,2017-04-01 15:05,-82.5066,31.5361,M,M,M,350.00,8.00,M,30.05,M,10.00,M,CLR,M,M,M,M,M,M,M,M,KAMG 011505Z AUTO 35008KT 10SM CLR A3005 RMK MADISHF
AMG,2017-04-01 15:10,-82.5066,31.5361,M,M,M,340.00,9.00,M,30.05,M,10.00,M,CLR,M,M,M,M,M,M,M,M,KAMG 011510Z AUTO 34009KT 10SM CLR A3005 RMK MADISHF
AMG,2017-04-01 15:15,-82.5066,31.5361,M,M,M,340.00,10.00,M,30.05,M,10.00,M,CLR,M,M,M,M,M,M,M,M,KAMG 011515Z AUTO 34010KT 10SM CLR A3005 RMK MADISHF
AMG,2017-04-01 15:20,-82.5066,31.5361,M,M,M,340.00,9.00,M,30.05,M,10.00,M,CLR,M,M,M,M,M,M,M,M,KAMG 011520Z AUTO 34009KT 10SM CLR A3005 RMK MADISHF
AMG,2017-04-01 15:25,-82.5066,31.5361,M,M,M,320.00,8.00,M,30.05,M,10.00,M,CLR,M,M,M,M,M,M,M,M,KAMG 011525Z AUTO 32008KT 10SM CLR A3005 RMK MADISHF
AMG,2017-04-01 15:30,-82.5066,31.5361,M,M,M,350.00,6.00,M,30.05,M,10.00,M,CLR,M,M,M,M,M,M,M,M,KAMG 011530Z AUTO 35006KT 10SM CLR A3005 RMK VRB06KT  MADISHF
AMG,2017-04-01 15:35,-82.5066,31.5361,M,M,M,340.00,7.00,M,30.05,M,10.00,M,CLR,M,M,M,M,M,M,M,M,KAMG 011535Z AUTO 34007KT 10SM CLR A3005 RMK WND 30V03  MADISHF
AMG,2017-04-01 15:40,-82.5066,31.5361,M,M,M,320.00,7.00,M,30.05,M,10.00,M,CLR,M,M,M,M,M,M,M,M,KAMG 011540Z AUTO 32007KT 10SM CLR A3005 RMK MADISHF
AMG,2017-04-01 15:45,-82.5066,31.5361,M,M,M,330.00,6.00,M,30.05,M,10.00,M,CLR,M,M,M,M,M,M,M,M,KAMG 011545Z AUTO 33006KT 10SM CLR A3005 RMK VRB06KT  MADISHF
AMG,2017-04-01 15:50,-82.5066,31.5361,M,M,M,300.00,5.00,M,30.05,M,10.00,M,CLR,M,M,M,M,M,M,M,M,KAMG 011550Z AUTO 30005KT 10SM CLR A3005 RMK MADISHF
AMG,2017-04-01 15:53,-82.5066,31.5361,75.90,48.90,38.57,M,6.00,0.00,30.05,1017.20,10.00,M,CLR,M,M,M,M,M,M,M,M,KAMG 011553Z AUTO VRB06KT 10SM CLR 24/09 A3005 RMK AO2 SLP172 T02440094
AMG,2017-04-01 15:55,-82.5066,31.5361,M,M,M,330.00,6.00,M,30.05,M,10.00,M,CLR,M,M,M,M,M,M,M,M,KAMG 011555Z AUTO 33006KT 10SM CLR A3005 RMK VRB06KT  MADISHF
AMG,2017-04-01 16:00,-82.5066,31.5361,M,M,M,310.00,8.00,M,30.05,M,10.00,M,CLR,M,M,M,M,M,M,M,M,KAMG 011600Z AUTO 31008KT 10SM CLR A3005 RMK MADISHF
AMG,2017-04-01 16:05,-82.5066,31.5361,M,M,M,340.00,9.00,M,30.04,M,10.00,M,CLR,M,M,M,M,M,M,M,M,KAMG 011605Z AUTO 34009KT 10SM CLR A3004 RMK MADISHF
AMG,2017-04-01 16:10,-82.5066,31.5361,M,M,M,320.00,7.00,M,30.04,M,10.00,M,CLR,M,M,M,M,M,M,M,M,KAMG 011610Z AUTO 32007KT 10SM CLR A3004 RMK MADISHF
AMG,2017-04-01 16:15,-82.5066,31.5361,M,M,M,310.00,7.00,M,30.04,M,10.00,M,CLR,M,M,M,M,M,M,M,M,KAMG 011615Z AUTO 31007KT 10SM CLR A3004 RMK MADISHF
AMG,2017-04-01 16:20,-82.5066,31.5361,M,M,M,320.00,6.00,M,30.04,M,10.00,M,CLR,M,M,M,M,M,M,M,M,KAMG 011620Z AUTO 32006KT 10SM CLR A3004 RMK VRB06KT  MADISHF
AMG,2017-04-01 16:25,-82.5066,31.5361,M,M,M,310.00,5.00,M,30.04,M,10.00,M,CLR,M,M,M,M,M,M,M,M,KAMG 011625Z AUTO 31005KT 10SM CLR A3004 RMK VRB05KT  MADISHF
AMG,2017-04-01 16:30,-82.5066,31.5361,M,M,M,290.00,9.00,M,30.04,M,10.00,M,CLR,M,M,M,M,M,M,M,M,KAMG 011630Z AUTO 29009KT 10SM CLR A3004 RMK MADISHF
AMG,2017-04-01 16:35,-82.5066,31.5361,M,M,M,300.00,7.00,M,30.04,M,10.00,M,CLR,M,M,M,M,M,M,M,M,KAMG 011635Z AUTO 30007KT 10SM CLR A3004 RMK WND 27V34  MADISHF
AMG,2017-04-01 16:40,-82.5066,31.5361,M,M,M,310.00,7.00,M,30.04,M,10.00,M,CLR,M,M,M,M,M,M,M,M,KAMG 011640Z AUTO 31007KT 10SM CLR A3004 RMK WND 28V35  MADISHF
AMG,2017-04-01 16:45,-82.5066,31.5361,M,M,M,290.00,4.00,M,30.04,M,10.00,M,CLR,M,M,M,M,M,M,M,M,KAMG 011645Z AUTO 29004KT 10SM CLR A3004 RMK MADISHF
AMG,2017-04-01 16:50,-82.5066,31.5361,M,M,M,300.00,9.00,M,30.03,M,10.00,M,CLR,M,M,M,M,M,M,M,M,KAMG 011650Z AUTO 30009KT 10SM CLR A3003 RMK MADISHF
AMG,2017-04-01 16:53,-82.5066,31.5361,78.10,48.00,34.67,M,5.00,0.00,30.03,1016.80,10.00,M,CLR,M,M,M,M,M,M,M,M,KAMG 011653Z AUTO VRB05KT 10SM CLR 26/09 A3003 RMK AO2 SLP168 T02560089
AMG,2017-04-01 16:55,-82.5066,31.5361,M,M,M,290.00,6.00,M,30.03,M,10.00,M,CLR,M,M,M,M,M,M,M,M,KAMG 011655Z AUTO 29006KT 10SM CLR A3003 RMK MADISHF
AMG,2017-04-01 17:00,-82.5066,31.5361,M,M,M,280.00,7.00,M,30.03,M,10.00,M,CLR,M,M,M,M,M,M,M,M,KAMG 011700Z AUTO 28007KT 10SM CLR A3003 RMK MADISHF
AMG,2017-04-01 17:05,-82.5066,31.5361,M,M,M,260.00,6.00,M,30.03,M,10.00,M,CLR,M,M,M,M,M,M,M,M,KAMG 011705Z AUTO 26006KT 10SM CLR A3003 RMK VRB06KT  MADISHF
AMG,2017-04-01 17:10,-82.5066,31.5361,M,M,M,250.00,7.00,M,30.03,M,10.00,M,CLR,M,M,M,M,M,M,M,M,KAMG 011710Z AUTO 25007KT 10SM CLR A3003 RMK MADISHF
AMG,2017-04-01 17:15,-82.5066,31.5361,M,M,M,280.00,8.00,M,30.02,M,10.00,M,CLR,M,M,M,M,M,M,M,M,KAMG 011715Z AUTO 28008KT 10SM CLR A3002 RMK MADISHF
AMG,2017-04-01 17:20,-82.5066,31.5361,M,M,M,290.00,8.00,M,30.02,M,10.00,M,CLR,M,M,M,M,M,M,M,M,KAMG 011720Z AUTO 29008KT 10SM CLR A3002 RMK WND 27V33  MADISHF
AMG,2017-04-01 17:25,-82.5066,31.5361,M,M,M,290.00,6.00,M,30.02,M,10.00,M,CLR,M,M,M,M,M,M,M,M,KAMG 011725Z AUTO 29006KT 10SM CLR A3002 RMK VRB06G14KT  MADISHF
AMG,2017-04-01 17:30,-82.5066,31.5361,M,M,M,290.00,6.00,M,30.02,M,10.00,M,CLR,M,M,M,M,M,M,M,M,KAMG 011730Z AUTO 29006KT 10SM CLR A3002 RMK MADISHF
AMG,2017-04-01 17:35,-82.5066,31.5361,M,M,M,260.00,9.00,M,30.02,M,10.00,M,CLR,M,M,M,M,M,M,M,M,KAMG 011735Z AUTO 26009KT 10SM CLR A3002 RMK MADISHF
AMG,2017-04-01 17:40,-82.5066,31.5361,M,M,M,250.00,6.00,M,30.01,M,10.00,M,CLR,M,M,M,M,M,M,M,M,KAMG 011740Z AUTO 25006KT 10SM CLR A3001 RMK MADISHF
AMG,2017-04-01 17:45,-82.5066,31.5361,M,M,M,280.00,10.00,M,30.01,M,10.00,M,CLR,M,M,M,M,M,M,M,M,KAMG 011745Z AUTO 28010KT 10SM CLR A3001 RMK MADISHF
AMG,2017-04-01 17:50,-82.5066,31.5361,M,M,M,270.00,9.00,M,30.01,M,10.00,M,CLR,M,M,M,M,M,M,M,M,KAMG 011750Z AUTO 27009KT 10SM CLR A3001 RMK WND 25V31  MADISHF
AMG,2017-04-01 17:53,-82.5066,31.5361,81.00,45.00,28.15,280.00,10.00,0.00,30.01,1016.10,10.00,M,CLR,M,M,M,M,M,M,M,M,KAMG 011753Z AUTO 28010KT 10SM CLR 27/07 A3001 RMK AO2 SLP161 T02720072 10272 20106 58013
AMG,2017-04-01 17:55,-82.5066,31.5361,M,M,M,260.00,8.00,M,30.01,M,10.00,M,CLR,M,M,M,M,M,M,M,M,KAMG 011755Z AUTO 26008KT 10SM CLR A3001 RMK MADISHF
AMG,2017-04-01 18:00,-82.5066,31.5361,M,M,M,300.00,10.00,M,30.01,M,10.00,M,CLR,M,M,M,M,M,M,M,M,KAMG 011800Z AUTO 30010KT 10SM CLR A3001 RMK MADISHF
AMG,2017-04-01 18:05,-82.5066,31.5361,M,M,M,320.00,4.00,M,30.01,M,10.00,M,CLR,M,M,M,M,M,M,M,M,KAMG 011805Z AUTO 32004KT 10SM CLR A3001 RMK VRB04KT  MADISHF
AMG,2017-04-01 18:10,-82.5066,31.5361,M,M,M,300.00,8.00,M,30.01,M,10.00,M,CLR,M,M,M,M,M,M,M,M,KAMG 011810Z AUTO 30008KT 10SM CLR A3001 RMK WND 28V35  MADISHF
AMG,2017-04-01 18:15,-82.5066,31.5361,M,M,M,310.00,9.00,M,30.01,M,10.00,M,CLR,M,M,M,M,M,M,M,M,KAMG 011815Z AUTO 31009KT 10SM CLR A3001 RMK MADISHF
AMG,2017-04-01 18:20,-82.5066,31.5361,M,M,M,310.00,11.00,M,30.01,M,10.00,M,CLR,M,M,M,M,M,M,M,M,KAMG 011820Z AUTO 31011KT 10SM CLR A3001 RMK MADISHF
AMG,2017-04-01 18:25,-82.5066,31.5361,M,M,M,310.00,9.00,M,30.00,M,10.00,M,CLR,M,M,M,M,M,M,M,M,KAMG 011825Z AUTO 31009KT 10SM CLR A3000 RMK MADISHF
AMG,2017-04-01 18:30,-82.5066,31.5361,M,M,M,290.00,4.00,M,30.00,M,10.00,M,CLR,M,M,M,M,M,M,M,M,KAMG 011830Z AUTO 29004KT 10SM CLR A3000 RMK VRB04KT  MADISHF
AMG,2017-04-01 18:35,-82.5066,31.5361,M,M,M,320.00,9.00,M,30.00,M,10.00,M,CLR,M,M,M,M,M,M,M,M,KAMG 011835Z AUTO 32009KT 10SM CLR A3000 RMK MADISHF
AMG,2017-04-01 18:40,-82.5066,31.5361,M,M,M,310.00,5.00,M,30.00,M,10.00,M,CLR,M,M,M,M,M,M,M,M,KAMG 011840Z AUTO 31005KT 10SM CLR A3000 RMK MADISHF
AMG,2017-04-01 18:45,-82.5066,31.5361,M,M,M,300.00,10.00,M,30.00,M,10.00,M,CLR,M,M,M,M,M,M,M,M,KAMG 011845Z AUTO 30010KT 10SM CLR A3000 RMK MADISHF
AMG,2017-04-01 18:50,-82.5066,31.5361,M,M,M,300.00,9.00,M,29.99,M,10.00,M,CLR,M,M,M,M,M,M,M,M,KAMG 011850Z AUTO 30009KT 10SM CLR A2999 RMK MADISHF
AMG,2017-04-01 18:53,-82.5066,31.5361,82.90,43.00,24.51,300.00,7.00,0.00,29.99,1015.50,10.00,M,CLR,M,M,M,M,M,M,M,M,KAMG 011853Z AUTO 30007KT 270V340 10SM CLR 28/06 A2999 RMK AO2 SLP155 T02830061
AMG,2017-04-01 18:55,-82.5066,31.5361,M,M,M,280.00,7.00,M,29.99,M,10.00,M,CLR,M,M,M,M,M,M,M,M,KAMG 011855Z AUTO 28007KT 10SM CLR A2999 RMK MADISHF
AMG,2017-04-01 19:00,-82.5066,31.5361,M,M,M,310.00,9.00,M,29.99,M,10.00,M,CLR,M,M,M,M,M,M,M,M,KAMG 011900Z AUTO 31009KT 10SM CLR A2999 RMK MADISHF
AMG,2017-04-01 19:05,-82.5066,31.5361,M,M,M,300.00,7.00,M,29.99,M,10.00,M,CLR,M,M,M,M,M,M,M,M,KAMG 011905Z AUTO 30007KT 10SM CLR A2999 RMK MADISHF
AMG,2017-04-01 19:10,-82.5066,31.5361,M,M,M,290.00,11.00,M,29.99,M,10.00,M,CLR,M,M,M,M,M,M,M,M,KAMG 011910Z AUTO 29011KT 10SM CLR A2999 RMK MADISHF
AMG,2017-04-01 19:15,-82.5066,31.5361,M,M,M,300.00,8.00,M,29.99,M,10.00,M,CLR,M,M,M,M,M,M,M,M,KAMG 011915Z AUTO 30008KT 10SM CLR A2999 RMK MADISHF
AMG,2017-04-01 19:20,-82.5066,31.5361,M,M,M,300.00,9.00,M,29.99,M,10.00,M,CLR,M,M,M,M,M,M,M,M,KAMG 011920Z AUTO 30009KT 10SM CLR A2999 RMK MADISHF
AMG,2017-04-01 19:25,-82.5066,31.5361,M,M,M,280.00,8.00,M,29.98,M,10.00,M,CLR,M,M,M,M,M,M,M,M,KAMG 011925Z AUTO 28008KT 10SM CLR A2998 RMK MADISHF
AMG,2017-04-01 19:30,-82.5066,31.5361,M,M,M,330.00,4.00,M,29.98,M,10.00,M,CLR,M,M,M,M,M,M,M,M,KAMG 011930Z AUTO 33004KT 10SM CLR A2998 RMK VRB04KT  MADISHF
AMG,2017-04-01 19:35,-82.5066,31.5361,M,M,M,280.00,9.00,M,29.98,M,10.00,M,CLR,M,M,M,M,M,M,M,M,KAMG 011935Z AUTO 28009KT 10SM CLR A2998 RMK MADISHF
AMG,2017-04-01 19:40,-82.5066,31.5361,M,M,M,290.00,7.00,M,29.98,M,10.00,M,CLR,M,M,M,M,M,M,M,M,KAMG 011940Z AUTO 29007KT 10SM CLR A2998 RMK MADISHF
AMG,2017-04-01 19:45,-82.5066,31.5361,M,M,M,280.00,8.00,M,29.98,M,10.00,M,CLR,M,M,M,M,M,M,M,M,KAMG 011945Z AUTO 28008KT 10SM CLR A2998 RMK MADISHF
AMG,2017-04-01 19:50,-82.5066,31.5361,M,M,M,280.00,10.00,M,29.98,M,10.00,M,CLR,M,M,M,M,M,M,M,M,KAMG 011950Z AUTO 28010KT 10SM CLR A2998 RMK MADISHF
AMG,2017-04-01 19:53,-82.5066,31.5361,84.00,44.10,24.68,260.00,7.00,0.00,29.98,1014.90,10.00,M,CLR,M,M,M,M,M,M,M,M,KAMG 011953Z AUTO 26007KT 10SM CLR 29/07 A2998 RMK AO2 SLP149 T02890067
AMG,2017-04-01 19:55,-82.5066,31.5361,M,M,M,260.00,7.00,M,29.97,M,10.00,M,CLR,M,M,M,M,M,M,M,M,KAMG 011955Z AUTO 26007KT 10SM CLR A2997 RMK MADISHF
AMG,2017-04-01 20:00,-82.5066,31.5361,M,M,M,290.00,7.00,M,29.97,M,10.00,M,CLR,M,M,M,M,M,M,M,M,KAMG 012000Z AUTO 29007KT 10SM CLR A2997 RMK MADISHF
AMG,2017-04-01 20:05,-82.5066,31.5361,M,M,M,290.00,6.00,M,29.97,M,10.00,M,CLR,M,M,M,M,M,M,M,M,KAMG 012005Z AUTO 29006KT 10SM CLR A2997 RMK MADISHF
AMG,2017-04-01 20:10,-82.5066,31.5361,M,M,M,310.00,6.00,M,29.97,M,10.00,M,CLR,M,M,M,M,M,M,M,M,KAMG 012010Z AUTO 31006KT 10SM CLR A2997 RMK MADISHF
AMG,2017-04-01 20:15,-82.5066,31.5361,M,M,M,320.00,6.00,M,29.97,M,10.00,M,CLR,M,M,M,M,M,M,M,M,KAMG 012015Z AUTO 32006KT 10SM CLR A2997 RMK MADISHF
AMG,2017-04-01 20:20,-82.5066,31.5361,M,M,M,280.00,6.00,M,29.97,M,10.00,M,CLR,M,M,M,M,M,M,M,M,KAMG 012020Z AUTO 28006KT 10SM CLR A2997 RMK MADISHF
AMG,2017-04-01 20:25,-82.5066,31.5361,M,M,M,290.00,7.00,M,29.97,M,10.00,M,CLR,M,M,M,M,M,M,M,M,KAMG 012025Z AUTO 29007KT 10SM CLR A2997 RMK MADISHF
AMG,2017-04-01 20:30,-82.5066,31.5361,M,M,M,270.00,7.00,M,29.97,M,10.00,M,CLR,M,M,M,M,M,M,M,M,KAMG 012030Z AUTO 27007KT 10SM CLR A2997 RMK MADISHF
AMG,2017-04-01 20:35,-82.5066,31.5361,M,M,M,270.00,8.00,M,29.97,M,10.00,M,CLR,M,M,M,M,M,M,M,M,KAMG 012035Z AUTO 27008KT 10SM CLR A2997 RMK WND 25V32  MADISHF
AMG,2017-04-01 20:40,-82.5066,31.5361,M,M,M,280.00,9.00,M,29.97,M,10.00,M,CLR,M,M,M,M,M,M,M,M,KAMG 012040Z AUTO 28009KT 10SM CLR A2997 RMK MADISHF
AMG,2017-04-01 20:45,-82.5066,31.5361,M,M,M,270.00,6.00,M,29.97,M,10.00,M,CLR,M,M,M,M,M,M,M,M,KAMG 012045Z AUTO 27006KT 10SM CLR A2997 RMK MADISHF
AMG,2017-04-01 20:50,-82.5066,31.5361,M,M,M,270.00,6.00,M,29.97,M,10.00,M,CLR,M,M,M,M,M,M,M,M,KAMG 012050Z AUTO 27006KT 10SM CLR A2997 RMK VRB06KT  MADISHF
AMG,2017-04-01 20:53,-82.5066,31.5361,84.90,44.10,23.97,290.00,7.00,0.00,29.97,1014.50,10.00,M,CLR,M,M,M,M,M,M,M,M,KAMG 012053Z AUTO 29007KT 10SM CLR 29/07 A2997 RMK AO2 SLP145 T02940067 56016
AMG,2017-04-01 20:55,-82.5066,31.5361,M,M,M,290.00,7.00,M,29.97,M,10.00,M,CLR,M,M,M,M,M,M,M,M,KAMG 012055Z AUTO 29007KT 10SM CLR A2997 RMK MADISHF
AMG,2017-04-01 21:00,-82.5066,31.5361,M,M,M,260.00,9.00,M,29.97,M,10.00,M,CLR,M,M,M,M,M,M,M,M,KAMG 012100Z AUTO 26009KT 10SM CLR A2997 RMK MADISHF
AMG,2017-04-01 21:05,-82.5066,31.5361,M,M,M,290.00,7.00,M,29.97,M,10.00,M,CLR,M,M,M,M,M,M,M,M,KAMG 012105Z AUTO 29007KT 10SM CLR A2997 RMK MADISHF
AMG,2017-04-01 21:10,-82.5066,31.5361,M,M,M,290.00,8.00,M,29.97,M,10.00,M,CLR,M,M,M,M,M,M,M,M,KAMG 012110Z AUTO 29008KT 10SM CLR A2997 RMK MADISHF
AMG,2017-04-01 21:15,-82.5066,31.5361,M,M,M,300.00,8.00,M,29.97,M,10.00,M,CLR,M,M,M,M,M,M,M,M,KAMG 012115Z AUTO 30008KT 10SM CLR A2997 RMK MADISHF
AMG,2017-04-01 21:20,-82.5066,31.5361,M,M,M,270.00,9.00,M,29.97,M,10.00,M,CLR,M,M,M,M,M,M,M,M,KAMG 012120Z AUTO 27009KT 10SM CLR A2997 RMK MADISHF
AMG,2017-04-01 21:25,-82.5066,31.5361,M,M,M,290.00,7.00,M,29.97,M,10.00,M,CLR,M,M,M,M,M,M,M,M,KAMG 012125Z AUTO 29007KT 10SM CLR A2997 RMK MADISHF
AMG,2017-04-01 21:30,-82.5066,31.5361,M,M,M,280.00,9.00,M,29.97,M,10.00,M,CLR,M,M,M,M,M,M,M,M,KAMG 012130Z AUTO 28009KT 10SM CLR A2997 RMK MADISHF
AMG,2017-04-01 21:35,-82.5066,31.5361,M,M,M,280.00,7.00,M,29.97,M,10.00,M,CLR,M,M,M,M,M,M,M,M,KAMG 012135Z AUTO 28007KT 10SM CLR A2997 RMK MADISHF
AMG,2017-04-01 21:40,-82.5066,31.5361,M,M,M,300.00,8.00,M,29.97,M,10.00,M,CLR,M,M,M,M,M,M,M,M,KAMG 012140Z AUTO 30008KT 10SM CLR A2997 RMK MADISHF
AMG,2017-04-01 21:45,-82.5066,31.5361,M,M,M,290.00,7.00,M,29.97,M,10.00,M,CLR,M,M,M,M,M,M,M,M,KAMG 012145Z AUTO 29007KT 10SM CLR A2997 RMK MADISHF
AMG,2017-04-01 21:50,-82.5066,31.5361,M,M,M,310.00,9.00,M,29.97,M,10.00,M,CLR,M,M,M,M,M,M,M,M,KAMG 012150Z AUTO 31009KT 10SM CLR A2997 RMK MADISHF
AMG,2017-04-01 21:53,-82.5066,31.5361,84.90,43.00,22.98,320.00,11.00,0.00,29.97,1014.50,10.00,M,CLR,M,M,M,M,M,M,M,M,KAMG 012153Z AUTO 32011KT 10SM CLR 29/06 A2997 RMK AO2 SLP145 T02940061
AMG,2017-04-01 21:55,-82.5066,31.5361,M,M,M,300.00,9.00,M,29.97,M,10.00,M,CLR,M,M,M,M,M,M,M,M,KAMG 012155Z AUTO 30009KT 10SM CLR A2997 RMK MADISHF
AMG,2017-04-01 22:00,-82.5066,31.5361,M,M,M,270.00,6.00,M,29.97,M,10.00,M,CLR,M,M,M,M,M,M,M,M,KAMG 012200Z AUTO 27006KT 10SM CLR A2997 RMK MADISHF
AMG,2017-04-01 22:05,-82.5066,31.5361,M,M,M,280.00,8.00,M,29.97,M,10.00,M,CLR,M,M,M,M,M,M,M,M,KAMG 012205Z AUTO 28008KT 10SM CLR A2997 RMK MADISHF
AMG,2017-04-01 22:10,-82.5066,31.5361,M,M,M,310.00,6.00,M,29.97,M,10.00,M,CLR,M,M,M,M,M,M,M,M,KAMG 012210Z AUTO 31006KT 10SM CLR A2997 RMK MADISHF
AMG,2017-04-01 22:15,-82.5066,31.5361,M,M,M,300.00,6.00,M,29.97,M,10.00,M,CLR,M,M,M,M,M,M,M,M,KAMG 012215Z AUTO 30006KT 10SM CLR A2997 RMK MADISHF
AMG,2017-04-01 22:20,-82.5066,31.5361,M,M,M,290.00,8.00,M,29.97,M,10.00,M,CLR,M,M,M,M,M,M,M,M,KAMG 012220Z AUTO 29008KT 10SM CLR A2997 RMK MADISHF
AMG,2017-04-01 22:25,-82.5066,31.5361,M,M,M,310.00,7.00,M,29.97,M,10.00,M,CLR,M,M,M,M,M,M,M,M,KAMG 012225Z AUTO 31007KT 10SM CLR A2997 RMK MADISHF
AMG,2017-04-01 22:30,-82.5066,31.5361,M,M,M,300.00,6.00,M,29.97,M,10.00,M,CLR,M,M,M,M,M,M,M,M,KAMG 012230Z AUTO 30006KT 10SM CLR A2997 RMK MADISHF
AMG,2017-04-01 22:35,-82.5066,31.5361,M,M,M,290.00,7.00,M,29.97,M,10.00,M,CLR,M,M,M,M,M,M,M,M,KAMG 012235Z AUTO 29007KT 10SM CLR A2997 RMK MADISHF
AMG,2017-04-01 22:40,-82.5066,31.5361,M,M,M,290.00,5.00,M,29.97,M,10.00,M,CLR,M,M,M,M,M,M,M,M,KAMG 012240Z AUTO 29005KT 10SM CLR A2997 RMK MADISHF
AMG,2017-04-01 22:45,-82.5066,31.5361,M,M,M,270.00,5.00,M,29.98,M,10.00,M,CLR,M,M,M,M,M,M,M,M,KAMG 012245Z AUTO 27005KT 10SM CLR A2998 RMK MADISHF
AMG,2017-04-01 22:50,-82.5066,31.5361,M,M,M,290.00,6.00,M,29.98,M,10.00,M,CLR,M,M,M,M,M,M,M,M,KAMG 012250Z AUTO 29006KT 10SM CLR A2998 RMK MADISHF
AMG,2017-04-01 22:53,-82.5066,31.5361,82.90,44.10,25.57,280.00,6.00,0.00,29.98,1014.80,10.00,M,CLR,M,M,M,M,M,M,M,M,KAMG 012253Z AUTO 28006KT 10SM CLR 28/07 A2998 RMK AO2 SLP148 T02830067
AMG,2017-04-01 22:55,-82.5066,31.5361,M,M,M,290.00,5.00,M,29.98,M,10.00,M,CLR,M,M,M,M,M,M,M,M,KAMG 012255Z AUTO 29005KT 10SM CLR A2998 RMK MADISHF
AMG,2017-04-01 23:00,-82.5066,31.5361,M,M,M,280.00,4.00,M,29.98,M,10.00,M,CLR,M,M,M,M,M,M,M,M,KAMG 012300Z AUTO 28004KT 10SM CLR A2998 RMK MADISHF
AMG,2017-04-01 23:05,-82.5066,31.5361,M,M,M,270.00,4.00,M,29.98,M,10.00,M,CLR,M,M,M,M,M,M,M,M,KAMG 012305Z AUTO 27004KT 10SM CLR A2998 RMK MADISHF
AMG,2017-04-01 23:10,-82.5066,31.5361,M,M,M,270.00,4.00,M,29.98,M,10.00,M,CLR,M,M,M,M,M,M,M,M,KAMG 012310Z AUTO 27004KT 10SM CLR A2998 RMK MADISHF
AMG,2017-04-01 23:15,-82.5066,31.5361,M,M,M,280.00,4.00,M,29.98,M,10.00,M,CLR,M,M,M,M,M,M,M,M,KAMG 012315Z AUTO 28004KT 10SM CLR A2998 RMK MADISHF
AMG,2017-04-01 23:20,-82.5066,31.5361,M,M,M,270.00,3.00,M,29.98,M,10.00,M,CLR,M,M,M,M,M,M,M,M,KAMG 012320Z AUTO 27003KT 10SM CLR A2998 RMK MADISHF
AMG,2017-04-01 23:25,-82.5066,31.5361,M,M,M,270.00,4.00,M,29.98,M,10.00,M,CLR,M,M,M,M,M,M,M,M,KAMG 012325Z AUTO 27004KT 10SM CLR A2998 RMK MADISHF
AMG,2017-04-01 23:30,-82.5066,31.5361,M,M,M,270.00,3.00,M,29.98,M,10.00,M,CLR,M,M,M,M,M,M,M,M,KAMG 012330Z AUTO 27003KT 10SM CLR A2998 RMK MADISHF
AMG,2017-04-01 23:35,-82.5066,31.5361,M,M,M,270.00,3.00,M,29.98,M,10.00,M,CLR,M,M,M,M,M,M,M,M,KAMG 012335Z AUTO 27003KT 10SM CLR A2998 RMK MADISHF
AMG,2017-04-01 23:40,-82.5066,31.5361,M,M,M,280.00,4.00,M,29.99,M,10.00,M,CLR,M,M,M,M,M,M,M,M,KAMG 012340Z AUTO 28004KT 10SM CLR A2999 RMK MADISHF
AMG,2017-04-01 23:45,-82.5066,31.5361,M,M,M,290.00,3.00,M,29.99,M,10.00,M,CLR,M,M,M,M,M,M,M,M,KAMG 012345Z AUTO 29003KT 10SM CLR A2999 RMK MADISHF
AMG,2017-04-01 23:50,-82.5066,31.5361,M,M,M,0.00,0.00,M,29.99,M,10.00,M,CLR,M,M,M,M,M,M,M,M,KAMG 012350Z AUTO 00000KT 10SM CLR A2999 RMK MADISHF
AMG,2017-04-01 23:53,-82.5066,31.5361,72.00,51.10,47.72,0.00,0.00,0.00,29.99,1015.30,10.00,M,CLR,M,M,M,M,M,M,M,M,KAMG 012353Z AUTO 00000KT 10SM CLR 22/11 A2999 RMK AO2 SLP153 T02220106 10294 20222 53008
AMG,2017-04-01 23:55,-82.5066,31.5361,M,M,M,0.00,0.00,M,29.99,M,10.00,M,CLR,M,M,M,M,M,M,M,M,KAMG 012355Z AUTO 00000KT 10SM CLR A2999 RMK MADISHF
