#DEBUG: Format Typ    -> comma
#DEBUG: Time Period   -> 2017-04-01 00:00:00+00:00 2017-04-02 00:00:00+00:00
#DEBUG: Time Zone     -> Etc/UTC
#DEBUG: Data Contact   -> daryl herzmann akrherz@iastate.edu 515-294-5978
#DEBUG: Entries Found -> -1
station,valid,lon,lat,tmpf, dwpf, relh, drct, sknt, p01i, alti, mslp, vsby, gust, skyc1, skyc2, skyc3, skyc4, skyl1, skyl2, skyl3, skyl4, presentwx, metar
AMN,2017-04-01 00:11,-84.6879,43.3221,35.60,34.90,97.26,10.00,7.00,0.00,29.92,M,10.00,M,SCT,OVC,M,M,900.00,1700.00,M,M,M,KAMN 010011Z AUTO 01007KT 10SM SCT009 OVC017 02/02 A2992 RMK AO2 T00200016
AMN,2017-04-01 00:31,-84.6879,43.3221,35.60,34.90,97.26,360.00,6.00,0.00,29.93,M,10.00,M,SCT,BKN,OVC,M,700.00,1300.00,1700.00,M,M,KAMN 010031Z AUTO 36006KT 10SM SCT007 BKN013 OVC017 02/02 A2993 RMK AO2 T00200016
AMN,2017-04-01 00:51,-84.6879,43.3221,35.60,34.90,97.26,360.00,8.00,0.00,29.94,M,10.00,M,OVC,M,M,M,1000.00,M,M,M,M,KAMN 010051Z AUTO 36008KT 10SM OVC010 02/02 A2994 RMK AO2 T00200016
AMN,2017-04-01 01:11,-84.6879,43.3221,35.80,34.70,95.72,350.00,7.00,0.00,29.95,M,10.00,M,OVC,M,M,M,1000.00,M,M,M,M,KAMN 010111Z AUTO 35007KT 300V010 10SM OVC010 02/02 A2995 RMK AO2 T00210015
AMN,2017-04-01 01:31,-84.6879,43.3221,35.20,34.70,98.03,10.00,6.00,0.00,29.96,M,7.00,M,OVC,M,M,M,1000.00,M,M,M,M,KAMN 010131Z AUTO 01006KT 7SM OVC010 02/02 A2996 RMK AO2 T00180015
AMN,2017-04-01 01:51,-84.6879,43.3221,35.60,34.20,94.58,20.00,8.00,0.00,29.97,M,10.00,M,OVC,M,M,M,1200.00,M,M,M,M,KAMN 010151Z AUTO 02008KT 10SM OVC012 02/01 A2997 RMK AO2 T00200012
AMN,2017-04-01 02:12,-84.6879,43.3221,35.60,34.00,93.83,10.00,5.00,0.00,29.97,M,10.00,M,OVC,M,M,M,1200.00,M,M,M,M,KAMN 010212Z AUTO 01005KT 10SM OVC012 02/01 A2997 RMK AO2 T00200011
AMN,2017-04-01 02:32,-84.6879,43.3221,35.60,34.20,94.58,10.00,6.00,0.00,29.97,M,10.00,M,OVC,M,M,M,1200.00,M,M,M,M,KAMN 010232Z AUTO 01006KT 10SM OVC012 02/01 A2997 RMK AO2 T00200012
AMN,2017-04-01 02:52,-84.6879,43.3221,35.60,34.20,94.58,360.00,5.00,0.00,29.97,M,10.00,M,OVC,M,M,M,1200.00,M,M,M,M,KAMN 010252Z AUTO 36005KT 10SM OVC012 02/01 A2997 RMK AO2 T00200012
AMN,2017-04-01 03:12,-84.6879,43.3221,35.60,34.20,94.58,320.00,4.00,0.00,29.98,M,10.00,M,OVC,M,M,M,1200.00,M,M,M,M,KAMN 010312Z AUTO 32004KT 10SM OVC012 02/01 A2998 RMK AO2 T00200012
AMN,2017-04-01 03:32,-84.6879,43.3221,35.60,34.20,94.58,360.00,5.00,0.00,29.99,M,10.00,M,OVC,M,M,M,1200.00,M,M,M,M,KAMN 010332Z AUTO 36005KT 10SM OVC012 02/01 A2999 RMK AO2 T00200012
AMN,2017-04-01 03:52,-84.6879,43.3221,35.60,34.20,94.58,350.00,6.00,0.00,29.99,M,10.00,M,OVC,M,M,M,1400.00,M,M,M,M,KAMN 010352Z AUTO 35006KT 10SM OVC014 02/01 A2999 RMK AO2 T00200012
AMN,2017-04-01 04:12,-84.6879,43.3221,35.80,34.30,94.21,340.00,6.00,0.00,29.99,M,10.00,M,OVC,M,M,M,1400.00,M,M,M,M,KAMN 010412Z AUTO 34006KT 10SM OVC014 02/01 A2999 RMK AO2 T00210013
AMN,2017-04-01 04:32,-84.6879,43.3221,35.80,34.30,94.21,350.00,6.00,0.00,30.01,M,10.00,M,BKN,OVC,M,M,1200.00,1900.00,M,M,M,KAMN 010432Z AUTO 35006KT 10SM BKN012 OVC019 02/01 A3001 RMK AO2 T00210013
AMN,2017-04-01 04:52,-84.6879,43.3221,35.80,34.30,94.21,340.00,8.00,0.00,30.01,M,10.00,M,BKN,BKN,OVC,M,1200.00,1900.00,5000.00,M,M,KAMN 010452Z AUTO 34008KT 10SM BKN012 BKN019 OVC050 02/01 A3001 RMK AO2 T00210013
AMN,2017-04-01 05:12,-84.6879,43.3221,35.80,34.20,93.84,320.00,5.00,0.00,30.01,M,10.00,M,OVC,M,M,M,5000.00,M,M,M,M,KAMN 010512Z AUTO 32005KT 10SM OVC050 02/01 A3001 RMK AO2 T00210012
AMN,2017-04-01 05:32,-84.6879,43.3221,34.90,33.30,93.81,320.00,6.00,0.00,30.02,M,10.00,M,BKN,M,M,M,5000.00,M,M,M,M,KAMN 010532Z AUTO 32006KT 10SM BKN050 02/01 A3002 RMK AO2 T00160007
AMN,2017-04-01 05:52,-84.6879,43.3221,34.30,33.30,96.08,320.00,5.00,0.00,30.02,M,10.00,M,SCT,M,M,M,5000.00,M,M,M,M,KAMN 010552Z AUTO 32005KT 10SM SCT050 01/01 A3002 RMK AO2 T00130007
AMN,2017-04-01 06:12,-84.6879,43.3221,33.80,32.90,96.46,0.00,0.00,0.00,30.03,M,10.00,M,CLR,M,M,M,M,M,M,M,M,KAMN 010612Z AUTO 00000KT 10SM CLR 01/01 A3003 RMK AO2 T00100005
AMN,2017-04-01 06:32,-84.6879,43.3221,33.30,32.40,96.45,330.00,4.00,0.00,30.03,M,10.00,M,CLR,M,M,M,M,M,M,M,M,KAMN 010632Z AUTO 33004KT 10SM CLR 01/00 A3003 RMK AO2 T00070002
AMN,2017-04-01 06:52,-84.6879,43.3221,32.40,32.00,98.40,320.00,4.00,0.00,30.03,M,10.00,M,CLR,M,M,M,M,M,M,M,M,KAMN 010652Z AUTO 32004KT 10SM CLR 00/00 A3003 RMK AO2 T00020000
AMN,2017-04-01 07:12,-84.6879,43.3221,32.20,32.00,99.20,320.00,3.00,0.00,30.04,M,10.00,M,CLR,M,M,M,M,M,M,M,M,KAMN 010712Z AUTO 32003KT 10SM CLR 00/00 A3004 RMK AO2 T00010000
AMN,2017-04-01 07:32,-84.6879,43.3221,32.00,31.80,99.20,310.00,4.00,0.00,30.05,M,10.00,M,CLR,M,M,M,M,M,M,M,M,KAMN 010732Z AUTO 31004KT 10SM CLR 00/00 A3005 RMK AO2 T00001001
AMN,2017-04-01 07:52,-84.6879,43.3221,32.00,31.80,99.20,310.00,4.00,0.00,30.06,M,10.00,M,CLR,M,M,M,M,M,M,M,M,KAMN 010752Z AUTO 31004KT 10SM CLR 00/00 A3006 RMK AO2 T00001001
AMN,2017-04-01 08:13,-84.6879,43.3221,31.80,31.50,98.80,310.00,4.00,0.00,30.07,M,10.00,M,CLR,M,M,M,M,M,M,M,M,KAMN 010813Z AUTO 31004KT 10SM CLR 00/00 A3007 RMK AO2 T10011003
AMN,2017-04-01 08:33,-84.6879,43.3221,31.80,31.50,98.80,310.00,4.00,0.00,30.07,M,10.00,M,CLR,M,M,M,M,M,M,M,M,KAMN 010833Z AUTO 31004KT 10SM CLR 00/00 A3007 RMK AO2 T10011003
AMN,2017-04-01 08:53,-84.6879,43.3221,31.80,31.50,98.80,320.00,3.00,0.00,30.07,M,10.00,M,CLR,M,M,M,M,M,M,M,M,KAMN 010853Z AUTO 32003KT 10SM CLR 00/00 A3007 RMK AO2 T10011003
AMN,2017-04-01 09:13,-84.6879,43.3221,31.10,30.90,99.19,300.00,3.00,0.00,30.08,M,10.00,M,CLR,M,M,M,M,M,M,M,M,KAMN 010913Z AUTO 30003KT 10SM CLR 00/M01 A3008 RMK AO2 T10051006
AMN,2017-04-01 09:33,-84.6879,43.3221,30.40,30.20,99.19,0.00,0.00,0.00,30.08,M,10.00,M,CLR,M,M,M,M,M,M,M,M,KAMN 010933Z AUTO 00000KT 10SM CLR M01/M01 A3008 RMK AO2 T10091010
AMN,2017-04-01 09:53,-84.6879,43.3221,29.30,29.30,100.00,300.00,3.00,0.00,30.09,M,10.00,M,CLR,M,M,M,M,M,M,M,M,KAMN 010953Z AUTO 30003KT 10SM CLR M01/M01 A3009 RMK AO2 T10151015
AMN,2017-04-01 10:13,-84.6879,43.3221,29.10,29.10,100.00,290.00,3.00,0.00,30.09,M,10.00,M,CLR,M,M,M,M,M,M,M,M,KAMN 011013Z AUTO 29003KT 10SM CLR M02/M02 A3009 RMK AO2 T10161016
AMN,2017-04-01 10:33,-84.6879,43.3221,28.60,28.60,100.00,0.00,0.00,0.00,30.10,M,10.00,M,CLR,M,M,M,M,M,M,M,M,KAMN 011033Z AUTO 00000KT 10SM CLR M02/M02 A3010 RMK AO2 T10191019
AMN,2017-04-01 10:53,-84.6879,43.3221,28.40,28.40,100.00,270.00,3.00,0.00,30.11,M,7.00,M,CLR,M,M,M,M,M,M,M,M,KAMN 011053Z AUTO 27003KT 7SM CLR M02/M02 A3011 RMK AO2 T10201020
AMN,2017-04-01 11:13,-84.6879,43.3221,29.30,29.30,100.00,260.00,4.00,0.00,30.12,M,7.00,M,CLR,M,M,M,M,M,M,M,M,KAMN 011113Z AUTO 26004KT 7SM CLR M01/M01 A3012 RMK AO2 T10151015
AMN,2017-04-01 11:33,-84.6879,43.3221,28.40,28.40,100.00,0.00,0.00,0.00,30.12,M,3.00,M,CLR,M,M,M,M,M,M,M,BR,KAMN 011133Z AUTO 00000KT 3SM BR CLR M02/M02 A3012 RMK AO2 T10201020
AMN,2017-04-01 11:54,-84.6879,43.3221,28.60,28.60,100.00,270.00,3.00,0.00,30.14,M,2.50,M,CLR,M,M,M,M,M,M,M,BR,KAMN 011154Z AUTO 27003KT 2 1/2SM BR CLR M02/M02 A3014 RMK AO2 T10191019
AMN,2017-04-01 12:14,-84.6879,43.3221,28.90,28.90,100.00,0.00,0.00,0.00,30.14,M,4.00,M,CLR,M,M,M,M,M,M,M,BR,KAMN 011214Z AUTO 00000KT 4SM BR CLR M02/M02 A3014 RMK AO2 T10171017
AMN,2017-04-01 12:34,-84.6879,43.3221,32.00,32.00,100.00,0.00,0.00,0.00,30.13,M,4.00,M,CLR,M,M,M,M,M,M,M,BR,KAMN 011234Z AUTO 00000KT 4SM BR CLR 00/00 A3013 RMK AO2 T00000000
AMN,2017-04-01 12:54,-84.6879,43.3221,33.60,33.60,100.00,360.00,4.00,0.00,30.13,M,10.00,M,CLR,M,M,M,M,M,M,M,M,KAMN 011254Z AUTO 36004KT 10SM CLR 01/01 A3013 RMK AO2 T00090009
AMN,2017-04-01 13:14,-84.6879,43.3221,35.10,34.50,97.64,0.00,0.00,0.00,30.14,M,10.00,M,CLR,M,M,M,M,M,M,M,M,KAMN 011314Z AUTO 00000KT 10SM CLR 02/01 A3014 RMK AO2 T00170014
AMN,2017-04-01 13:34,-84.6879,43.3221,37.60,35.10,90.59,0.00,0.00,0.00,30.14,M,10.00,M,CLR,M,M,M,M,M,M,M,M,KAMN 011334Z AUTO 00000KT 10SM CLR 03/02 A3014 RMK AO2 T00310017
AMN,2017-04-01 13:54,-84.6879,43.3221,39.40,35.60,86.12,0.00,0.00,0.00,30.15,M,10.00,M,CLR,M,M,M,M,M,M,M,M,KAMN 011354Z AUTO 00000KT 10SM CLR 04/02 A3015 RMK AO2 T00410020
AMN,2017-04-01 14:14,-84.6879,43.3221,41.00,35.20,79.66,0.00,0.00,0.00,30.16,M,10.00,M,CLR,M,M,M,M,M,M,M,M,KAMN 011414Z AUTO 00000KT 10SM CLR 05/02 A3016 RMK AO2 T00500018
AMN,2017-04-01 14:34,-84.6879,43.3221,41.90,35.20,76.93,80.00,3.00,0.00,30.15,M,10.00,M,CLR,M,M,M,M,M,M,M,M,KAMN 011434Z AUTO 08003KT 10SM CLR 06/02 A3015 RMK AO2 T00550018
AMN,2017-04-01 14:54,-84.6879,43.3221,43.50,36.50,76.17,0.00,0.00,0.00,30.16,M,10.00,M,CLR,M,M,M,M,M,M,M,M,KAMN 011454Z AUTO 00000KT 10SM CLR 06/03 A3016 RMK AO2 T00640025
AMN,2017-04-01 15:14,-84.6879,43.3221,44.80,36.10,71.35,0.00,0.00,0.00,30.17,M,10.00,M,CLR,M,M,M,M,M,M,M,M,KAMN 011514Z AUTO 00000KT 10SM CLR 07/02 A3017 RMK AO2 T00710023
AMN,2017-04-01 15:35,-84.6879,43.3221,45.10,33.80,64.37,0.00,0.00,0.00,30.18,M,10.00,M,CLR,M,M,M,M,M,M,M,M,KAMN 011535Z AUTO 00000KT 10SM CLR 07/01 A3018 RMK AO2 T00730010
AMN,2017-04-01 15:55,-84.6879,43.3221,46.40,36.00,66.88,140.00,3.00,0.00,30.17,M,10.00,M,CLR,M,M,M,M,M,M,M,M,KAMN 011555Z AUTO 14003KT 10SM CLR 08/02 A3017 RMK AO2 T00800022
AMN,2017-04-01 16:15,-84.6879,43.3221,47.30,36.30,65.42,0.00,0.00,0.00,30.17,M,10.00,M,CLR,M,M,M,M,M,M,M,M,KAMN 011615Z AUTO 00000KT 10SM CLR 09/02 A3017 RMK AO2 T00850024
AMN,2017-04-01 16:35,-84.6879,43.3221,49.50,35.60,58.60,250.00,3.00,0.00,30.17,M,10.00,M,CLR,M,M,M,M,M,M,M,M,KAMN 011635Z AUTO 25003KT 10SM CLR 10/02 A3017 RMK AO2 T00970020
AMN,2017-04-01 16:55,-84.6879,43.3221,49.50,33.60,54.11,240.00,4.00,0.00,30.16,M,10.00,M,CLR,M,M,M,M,M,M,M,M,KAMN 011655Z AUTO 24004KT 10SM CLR 10/01 A3016 RMK AO2 T00970009
AMN,2017-04-01 17:15,-84.6879,43.3221,50.70,34.20,53.00,220.00,4.00,0.00,30.16,M,10.00,M,CLR,M,M,M,M,M,M,M,M,KAMN 011715Z AUTO 22004KT 10SM CLR 10/01 A3016 RMK AO2 T01040012
AMN,2017-04-01 17:35,-84.6879,43.3221,52.20,35.10,51.98,210.00,3.00,0.00,30.16,M,10.00,M,CLR,M,M,M,M,M,M,M,M,KAMN 011735Z AUTO 21003KT 10SM CLR 11/02 A3016 RMK AO2 T01120017
AMN,2017-04-01 17:55,-84.6879,43.3221,53.20,36.50,52.96,230.00,7.00,0.00,30.16,M,10.00,M,CLR,M,M,M,M,M,M,M,M,KAMN 011755Z AUTO 23007KT 10SM CLR 12/03 A3016 RMK AO2 T01180025 10118 21023
AMN,2017-04-01 18:15,-84.6879,43.3221,54.50,34.30,46.28,250.00,6.00,0.00,30.16,M,10.00,M,CLR,M,M,M,M,M,M,M,M,KAMN 011815Z AUTO 25006KT 10SM CLR 13/01 A3016 RMK AO2 T01250013
AMN,2017-04-01 18:35,-84.6879,43.3221,54.70,30.20,38.95,290.00,7.00,0.00,30.16,M,10.00,M,CLR,M,M,M,M,M,M,M,M,KAMN 011835Z AUTO 29007KT 10SM CLR 13/M01 A3016 RMK AO2 T01261010
AMN,2017-04-01 18:56,-84.6879,43.3221,55.80,26.80,32.56,300.00,9.00,0.00,30.16,M,10.00,M,CLR,M,M,M,M,M,M,M,M,KAMN 011856Z AUTO 30009KT 270V330 10SM CLR 13/M03 A3016 RMK AO2 T01321029
AMN,2017-04-01 19:16,-84.6879,43.3221,57.20,25.50,29.33,330.00,8.00,0.00,30.15,M,10.00,M,CLR,M,M,M,M,M,M,M,M,KAMN 011916Z AUTO 33008KT 10SM CLR 14/M04 A3015 RMK AO2 T01401036
AMN,2017-04-01 19:36,-84.6879,43.3221,56.80,22.50,26.24,310.00,3.00,0.00,30.14,M,10.00,M,CLR,M,M,M,M,M,M,M,M,KAMN 011936Z AUTO 31003KT 10SM CLR 14/M05 A3014 RMK AO2 T01381053
AMN,2017-04-01 19:56,-84.6879,43.3221,57.00,21.90,25.40,10.00,6.00,0.00,30.14,M,10.00,M,CLR,M,M,M,M,M,M,M,M,KAMN 011956Z AUTO 01006KT 340V040 10SM CLR 14/M06 A3014 RMK AO2 T01391056
AMN,2017-04-01 20:11,-84.6879,43.3221,57.20,21.20,24.49,340.00,9.00,0.00,30.14,M,10.00,M,CLR,M,M,M,M,M,M,M,M,KAMN 012011Z AUTO 34009KT 10SM CLR 14/M06 A3014 RMK AO2 T01401060
AMN,2017-04-01 20:31,-84.6879,43.3221,58.10,21.90,24.42,320.00,5.00,0.00,30.14,M,10.00,M,CLR,M,M,M,M,M,M,M,M,KAMN 012031Z AUTO 32005KT 10SM CLR 15/M06 A3014 RMK AO2 T01451056
AMN,2017-04-01 20:51,-84.6879,43.3221,58.30,21.60,23.94,320.00,5.00,0.00,30.14,M,10.00,M,CLR,M,M,M,M,M,M,M,M,KAMN 012051Z AUTO 32005KT 10SM CLR 15/M06 A3014 RMK AO2 T01461058
AMN,2017-04-01 21:11,-84.6879,43.3221,58.60,21.60,23.68,290.00,5.00,0.00,30.13,M,10.00,M,CLR,M,M,M,M,M,M,M,M,KAMN 012111Z AUTO 29005KT 10SM CLR 15/M06 A3013 RMK AO2 T01481058
AMN,2017-04-01 21:31,-84.6879,43.3221,58.30,21.90,24.24,0.00,0.00,0.00,30.13,M,10.00,M,CLR,M,M,M,M,M,M,M,M,KAMN 012131Z AUTO 00000KT 10SM CLR 15/M06 A3013 RMK AO2 T01461056
AMN,2017-04-01 21:51,-84.6879,43.3221,59.00,22.50,24.25,280.00,5.00,0.00,30.13,M,10.00,M,CLR,M,M,M,M,M,M,M,M,KAMN 012151Z AUTO 28005KT 10SM CLR 15/M05 A3013 RMK AO2 T01501053
AMN,2017-04-01 22:11,-84.6879,43.3221,59.00,23.00,24.76,310.00,4.00,0.00,30.13,M,10.00,M,CLR,M,M,M,M,M,M,M,M,KAMN 012211Z AUTO 31004KT 10SM CLR 15/M05 A3013 RMK AO2 T01501050
AMN,2017-04-01 22:31,-84.6879,43.3221,58.50,22.50,24.69,0.00,0.00,0.00,30.13,M,10.00,M,CLR,M,M,M,M,M,M,M,M,KAMN 012231Z AUTO 00000KT 10SM CLR 15/M05 A3013 RMK AO2 T01471053
AMN,2017-04-01 22:52,-84.6879,43.3221,58.60,22.80,24.91,0.00,0.00,0.00,30.13,M,10.00,M,CLR,M,M,M,M,M,M,M,M,KAMN 012252Z AUTO 00000KT 10SM CLR 15/M05 A3013 RMK AO2 T01481051
AMN,2017-04-01 23:12,-84.6879,43.3221,57.90,23.00,25.76,0.00,0.00,0.00,30.14,M,10.00,M,CLR,M,M,M,M,M,M,M,M,KAMN 012312Z AUTO 00000KT 10SM CLR 14/M05 A3014 RMK AO2 T01441050
AMN,2017-04-01 23:32,-84.6879,43.3221,57.40,24.10,27.47,0.00,0.00,0.00,30.14,M,10.00,M,CLR,M,M,M,M,M,M,M,M,KAMN 012332Z AUTO 00000KT 10SM CLR 14/M04 A3014 RMK AO2 T01411044
AMN,2017-04-01 23:52,-84.6879,43.3221,56.10,25.90,31.03,0.00,0.00,0.00,30.14,M,10.00,M,CLR,M,M,M,M,M,M,M,M,KAMN 012352Z AUTO 00000KT 10SM CLR 13/M03 A3014 RMK AO2 T01341034
