#DEBUG: Format Typ    -> comma
#DEBUG: Time Period   -> 2017-04-01 00:00:00+00:00 2017-04-02 00:00:00+00:00
#DEBUG: Time Zone     -> Etc/UTC
#DEBUG: Data Contact   -> daryl herzmann akrherz@iastate.edu 515-294-5978
#DEBUG: Entries Found -> -1
station,valid,lon,lat,tmpf, dwpf, relh, drct, sknt, p01i, alti, mslp, vsby, gust, skyc1, skyc2, skyc3, skyc4, skyl1, skyl2, skyl3, skyl4, presentwx, metar
AND,2017-04-01 00:00,-82.7094,34.4946,M,M,M,310.00,7.00,M,29.80,M,10.00,M,CLR,M,M,M,M,M,M,M,M,KAND 010000Z AUTO 31007KT 10SM CLR A2980 RMK MADISHF
AND,2017-04-01 00:05,-82.7094,34.4946,M,M,M,330.00,5.00,M,29.80,M,10.00,M,CLR,M,M,M,M,M,M,M,M,KAND 010005Z AUTO 33005KT 10SM CLR A2980 RMK MADISHF
AND,2017-04-01 00:10,-82.7094,34.4946,M,M,M,320.00,8.00,M,29.81,M,10.00,M,CLR,M,M,M,M,M,M,M,M,KAND 010010Z AUTO 32008KT 10SM CLR A2981 RMK MADISHF
AND,2017-04-01 00:15,-82.7094,34.4946,M,M,M,320.00,8.00,M,29.81,M,10.00,M,CLR,M,M,M,M,M,M,M,M,KAND 010015Z AUTO 32008KT 10SM CLR A2981 RMK MADISHF
AND,2017-04-01 00:20,-82.7094,34.4946,M,M,M,310.00,10.00,M,29.81,M,10.00,M,CLR,M,M,M,M,M,M,M,M,KAND 010020Z AUTO 31010KT 10SM CLR A2981 RMK MADISHF
AND,2017-04-01 00:25,-82.7094,34.4946,M,M,M,310.00,11.00,M,29.81,M,10.00,M,CLR,M,M,M,M,M,M,M,M,KAND 010025Z AUTO 31011KT 10SM CLR A2981 RMK MADISHF
AND,2017-04-01 00:30,-82.7094,34.4946,M,M,M,310.00,11.00,M,29.81,M,10.00,M,CLR,M,M,M,M,M,M,M,M,KAND 010030Z AUTO 31011KT 10SM CLR A2981 RMK MADISHF
AND,2017-04-01 00:35,-82.7094,34.4946,M,M,M,M,M,M,29.81,M,10.00,M,CLR,M,M,M,M,M,M,M,M,KAND 010035Z AUTO /////KT 10SM CLR A2981 RMK MADISHF
AND,2017-04-01 00:40,-82.7094,34.4946,M,M,M,M,M,M,29.81,M,10.00,M,CLR,M,M,M,M,M,M,M,M,KAND 010040Z AUTO /////KT 10SM CLR A2981 RMK MADISHF
AND,2017-04-01 00:45,-82.7094,34.4946,M,M,M,M,M,M,29.82,M,10.00,M,CLR,M,M,M,M,M,M,M,M,KAND 010045Z AUTO /////KT 10SM CLR A2982 RMK MADISHF
AND,2017-04-01 00:50,-82.7094,34.4946,M,M,M,300.00,13.00,M,29.82,M,10.00,M,CLR,M,M,M,M,M,M,M,M,KAND 010050Z AUTO 30013KT 10SM CLR A2982 RMK MADISHF
AND,2017-04-01 00:55,-82.7094,34.4946,M,M,M,300.00,13.00,M,29.82,M,10.00,M,CLR,M,M,M,M,M,M,M,M,KAND 010055Z AUTO 30013KT 10SM CLR A2982 RMK MADISHF
AND,2017-04-01 00:56,-82.7094,34.4946,64.90,43.00,44.88,300.00,12.00,0.00,29.82,1009.20,10.00,M,CLR,M,M,M,M,M,M,M,M,KAND 010056Z AUTO 30012KT 10SM CLR 18/06 A2982 RMK AO2 SLP092 T01830061
AND,2017-04-01 01:00,-82.7094,34.4946,M,M,M,300.00,12.00,M,29.83,M,10.00,M,CLR,M,M,M,M,M,M,M,M,KAND 010100Z AUTO 30012KT 10SM CLR A2983 RMK MADISHF
AND,2017-04-01 01:05,-82.7094,34.4946,M,M,M,300.00,11.00,M,29.83,M,10.00,M,CLR,M,M,M,M,M,M,M,M,KAND 010105Z AUTO 30011KT 10SM CLR A2983 RMK MADISHF
AND,2017-04-01 01:10,-82.7094,34.4946,M,M,M,300.00,12.00,M,29.84,M,10.00,M,CLR,M,M,M,M,M,M,M,M,KAND 010110Z AUTO 30012KT 10SM CLR A2984 RMK MADISHF
AND,2017-04-01 01:15,-82.7094,34.4946,M,M,M,290.00,13.00,M,29.84,M,10.00,M,CLR,M,M,M,M,M,M,M,M,KAND 010115Z AUTO 29013KT 10SM CLR A2984 RMK MADISHF
AND,2017-04-01 01:20,-82.7094,34.4946,M,M,M,300.00,12.00,M,29.84,M,10.00,M,CLR,M,M,M,M,M,M,M,M,KAND 010120Z AUTO 30012KT 10SM CLR A2984 RMK MADISHF
AND,2017-04-01 01:25,-82.7094,34.4946,M,M,M,M,M,M,29.84,M,10.00,M,CLR,M,M,M,M,M,M,M,M,KAND 010125Z AUTO /////KT 10SM CLR A2984 RMK MADISHF
AND,2017-04-01 01:30,-82.7094,34.4946,M,M,M,300.00,13.00,M,29.84,M,10.00,M,CLR,M,M,M,M,M,M,M,M,KAND 010130Z AUTO 30013KT 10SM CLR A2984 RMK MADISHF
AND,2017-04-01 01:35,-82.7094,34.4946,M,M,M,300.00,12.00,M,29.85,M,10.00,M,CLR,M,M,M,M,M,M,M,M,KAND 010135Z AUTO 30012KT 10SM CLR A2985 RMK MADISHF
AND,2017-04-01 01:40,-82.7094,34.4946,M,M,M,300.00,10.00,M,29.85,M,10.00,M,CLR,M,M,M,M,M,M,M,M,KAND 010140Z AUTO 30010KT 10SM CLR A2985 RMK MADISHF
AND,2017-04-01 01:45,-82.7094,34.4946,M,M,M,310.00,11.00,M,29.86,M,10.00,M,CLR,M,M,M,M,M,M,M,M,KAND 010145Z AUTO 31011KT 10SM CLR A2986 RMK MADISHF
AND,2017-04-01 01:50,-82.7094,34.4946,M,M,M,300.00,13.00,M,29.86,M,10.00,M,CLR,M,M,M,M,M,M,M,M,KAND 010150Z AUTO 30013KT 10SM CLR A2986 RMK MADISHF
AND,2017-04-01 01:55,-82.7094,34.4946,M,M,M,300.00,13.00,M,29.87,M,10.00,M,CLR,M,M,M,M,M,M,M,M,KAND 010155Z AUTO 30013KT 10SM CLR A2987 RMK MADISHF
AND,2017-04-01 01:56,-82.7094,34.4946,64.00,43.00,46.32,300.00,12.00,0.00,29.87,1010.70,10.00,M,CLR,M,M,M,M,M,M,M,M,KAND 010156Z AUTO 30012KT 10SM CLR 18/06 A2987 RMK AO2 SLP107 T01780061
AND,2017-04-01 02:00,-82.7094,34.4946,M,M,M,290.00,13.00,M,29.87,M,10.00,20.00,CLR,M,M,M,M,M,M,M,M,KAND 010200Z AUTO 29013G20KT 10SM CLR A2987 RMK MADISHF
AND,2017-04-01 02:05,-82.7094,34.4946,M,M,M,300.00,14.00,M,29.86,M,10.00,19.00,CLR,M,M,M,M,M,M,M,M,KAND 010205Z AUTO 30014G19KT 10SM CLR A2986 RMK MADISHF
AND,2017-04-01 02:10,-82.7094,34.4946,M,M,M,M,M,M,29.86,M,10.00,M,CLR,M,M,M,M,M,M,M,M,KAND 010210Z AUTO /////KT 10SM CLR A2986 RMK MADISHF
AND,2017-04-01 02:15,-82.7094,34.4946,M,M,M,300.00,11.00,M,29.86,M,10.00,M,CLR,M,M,M,M,M,M,M,M,KAND 010215Z AUTO 30011KT 10SM CLR A2986 RMK MADISHF
AND,2017-04-01 02:20,-82.7094,34.4946,M,M,M,310.00,9.00,M,29.86,M,10.00,M,CLR,M,M,M,M,M,M,M,M,KAND 010220Z AUTO 31009KT 10SM CLR A2986 RMK MADISHF
AND,2017-04-01 02:25,-82.7094,34.4946,M,M,M,310.00,10.00,M,29.87,M,10.00,M,CLR,M,M,M,M,M,M,M,M,KAND 010225Z AUTO 31010KT 10SM CLR A2987 RMK MADISHF
AND,2017-04-01 02:30,-82.7094,34.4946,M,M,M,320.00,8.00,M,29.87,M,10.00,M,CLR,M,M,M,M,M,M,M,M,KAND 010230Z AUTO 32008KT 10SM CLR A2987 RMK MADISHF
AND,2017-04-01 02:35,-82.7094,34.4946,M,M,M,330.00,6.00,M,29.88,M,10.00,M,CLR,M,M,M,M,M,M,M,M,KAND 010235Z AUTO 33006KT 10SM CLR A2988 RMK MADISHF
AND,2017-04-01 02:40,-82.7094,34.4946,M,M,M,340.00,5.00,M,29.88,M,10.00,M,CLR,M,M,M,M,M,M,M,M,KAND 010240Z AUTO 34005KT 10SM CLR A2988 RMK MADISHF
AND,2017-04-01 02:45,-82.7094,34.4946,M,M,M,330.00,5.00,M,29.88,M,10.00,M,CLR,M,M,M,M,M,M,M,M,KAND 010245Z AUTO 33005KT 10SM CLR A2988 RMK MADISHF
AND,2017-04-01 02:50,-82.7094,34.4946,M,M,M,310.00,7.00,M,29.88,M,10.00,M,CLR,M,M,M,M,M,M,M,M,KAND 010250Z AUTO 31007KT 10SM CLR A2988 RMK MADISHF
AND,2017-04-01 02:55,-82.7094,34.4946,M,M,M,310.00,7.00,M,29.88,M,10.00,M,CLR,M,M,M,M,M,M,M,M,KAND 010255Z AUTO 31007KT 10SM CLR A2988 RMK MADISHF
AND,2017-04-01 02:56,-82.7094,34.4946,61.00,44.10,53.69,310.00,7.00,0.00,29.88,1011.00,10.00,M,CLR,M,M,M,M,M,M,M,M,KAND 010256Z AUTO 31007KT 10SM CLR 16/07 A2988 RMK AO2 SLP110 T01610067 51027
AND,2017-04-01 03:00,-82.7094,34.4946,M,M,M,310.00,7.00,M,29.88,M,10.00,M,CLR,M,M,M,M,M,M,M,M,KAND 010300Z AUTO 31007KT 10SM CLR A2988 RMK MADISHF
AND,2017-04-01 03:05,-82.7094,34.4946,M,M,M,320.00,6.00,M,29.88,M,10.00,M,CLR,M,M,M,M,M,M,M,M,KAND 010305Z AUTO 32006KT 10SM CLR A2988 RMK MADISHF
AND,2017-04-01 03:10,-82.7094,34.4946,M,M,M,320.00,5.00,M,29.88,M,10.00,M,CLR,M,M,M,M,M,M,M,M,KAND 010310Z AUTO 32005KT 10SM CLR A2988 RMK MADISHF
AND,2017-04-01 03:15,-82.7094,34.4946,M,M,M,340.00,4.00,M,29.88,M,10.00,M,CLR,M,M,M,M,M,M,M,M,KAND 010315Z AUTO 34004KT 10SM CLR A2988 RMK MADISHF
AND,2017-04-01 03:20,-82.7094,34.4946,M,M,M,0.00,0.00,M,29.88,M,10.00,M,CLR,M,M,M,M,M,M,M,M,KAND 010320Z AUTO 00000KT 10SM CLR A2988 RMK MADISHF
AND,2017-04-01 03:25,-82.7094,34.4946,M,M,M,0.00,0.00,M,29.88,M,10.00,M,CLR,M,M,M,M,M,M,M,M,KAND 010325Z AUTO 00000KT 10SM CLR A2988 RMK MADISHF
AND,2017-04-01 03:30,-82.7094,34.4946,M,M,M,0.00,0.00,M,29.88,M,10.00,M,CLR,M,M,M,M,M,M,M,M,KAND 010330Z AUTO 00000KT 10SM CLR A2988 RMK MADISHF
AND,2017-04-01 03:35,-82.7094,34.4946,M,M,M,0.00,0.00,M,29.88,M,10.00,M,CLR,M,M,M,M,M,M,M,M,KAND 010335Z AUTO 00000KT 10SM CLR A2988 RMK MADISHF
AND,2017-04-01 03:40,-82.7094,34.4946,M,M,M,0.00,0.00,M,29.88,M,10.00,M,CLR,M,M,M,M,M,M,M,M,KAND 010340Z AUTO 00000KT 10SM CLR A2988 RMK MADISHF
AND,2017-04-01 03:45,-82.7094,34.4946,M,M,M,0.00,0.00,M,29.88,M,10.00,M,CLR,M,M,M,M,M,M,M,M,KAND 010345Z AUTO 00000KT 10SM CLR A2988 RMK MADISHF
AND,2017-04-01 03:50,-82.7094,34.4946,M,M,M,310.00,4.00,M,29.89,M,10.00,M,CLR,M,M,M,M,M,M,M,M,KAND 010350Z AUTO 31004KT 10SM CLR A2989 RMK MADISHF
AND,2017-04-01 03:55,-82.7094,34.4946,M,M,M,300.00,5.00,M,29.88,M,10.00,M,CLR,M,M,M,M,M,M,M,M,KAND 010355Z AUTO 30005KT 10SM CLR A2988 RMK MADISHF
AND,2017-04-01 03:56,-82.7094,34.4946,57.90,45.00,62.07,300.00,5.00,0.00,29.89,1011.40,10.00,M,CLR,M,M,M,M,M,M,M,M,KAND 010356Z AUTO 30005KT 10SM CLR 14/07 A2989 RMK AO2 SLP114 T01440072
AND,2017-04-01 04:00,-82.7094,34.4946,M,M,M,310.00,6.00,M,29.88,M,10.00,M,CLR,M,M,M,M,M,M,M,M,KAND 010400Z AUTO 31006KT 10SM CLR A2988 RMK MADISHF
AND,2017-04-01 04:05,-82.7094,34.4946,M,M,M,290.00,4.00,M,29.89,M,10.00,M,CLR,M,M,M,M,M,M,M,M,KAND 010405Z AUTO 29004KT 10SM CLR A2989 RMK MADISHF
AND,2017-04-01 04:10,-82.7094,34.4946,M,M,M,290.00,3.00,M,29.89,M,10.00,M,CLR,M,M,M,M,M,M,M,M,KAND 010410Z AUTO 29003KT 10SM CLR A2989 RMK MADISHF
AND,2017-04-01 04:15,-82.7094,34.4946,M,M,M,310.00,3.00,M,29.89,M,10.00,M,CLR,M,M,M,M,M,M,M,M,KAND 010415Z AUTO 31003KT 10SM CLR A2989 RMK MADISHF
AND,2017-04-01 04:20,-82.7094,34.4946,M,M,M,310.00,3.00,M,29.89,M,10.00,M,CLR,M,M,M,M,M,M,M,M,KAND 010420Z AUTO 31003KT 10SM CLR A2989 RMK MADISHF
AND,2017-04-01 04:25,-82.7094,34.4946,M,M,M,290.00,3.00,M,29.89,M,10.00,M,CLR,M,M,M,M,M,M,M,M,KAND 010425Z AUTO 29003KT 10SM CLR A2989 RMK MADISHF
AND,2017-04-01 04:30,-82.7094,34.4946,M,M,M,260.00,3.00,M,29.89,M,10.00,M,CLR,M,M,M,M,M,M,M,M,KAND 010430Z AUTO 26003KT 10SM CLR A2989 RMK VRB03KT  MADISHF
AND,2017-04-01 04:35,-82.7094,34.4946,M,M,M,260.00,3.00,M,29.89,M,10.00,M,CLR,M,M,M,M,M,M,M,M,KAND 010435Z AUTO 26003KT 10SM CLR A2989 RMK MADISHF
AND,2017-04-01 04:40,-82.7094,34.4946,M,M,M,260.00,3.00,M,29.90,M,10.00,M,CLR,M,M,M,M,M,M,M,M,KAND 010440Z AUTO 26003KT 10SM CLR A2990 RMK MADISHF
AND,2017-04-01 04:45,-82.7094,34.4946,M,M,M,270.00,3.00,M,29.90,M,10.00,M,CLR,M,M,M,M,M,M,M,M,KAND 010445Z AUTO 27003KT 10SM CLR A2990 RMK MADISHF
AND,2017-04-01 04:50,-82.7094,34.4946,M,M,M,280.00,4.00,M,29.90,M,10.00,M,CLR,M,M,M,M,M,M,M,M,KAND 010450Z AUTO 28004KT 10SM CLR A2990 RMK MADISHF
AND,2017-04-01 04:55,-82.7094,34.4946,M,M,M,280.00,5.00,M,29.90,M,10.00,M,CLR,M,M,M,M,M,M,M,M,KAND 010455Z AUTO 28005KT 10SM CLR A2990 RMK MADISHF
AND,2017-04-01 04:56,-82.7094,34.4946,55.00,45.00,68.93,280.00,6.00,0.00,29.90,1011.80,10.00,M,CLR,M,M,M,M,M,M,M,M,KAND 010456Z AUTO 28006KT 10SM CLR 13/07 A2990 RMK AO2 SLP118 T01280072 402220128
AND,2017-04-01 05:00,-82.7094,34.4946,M,M,M,270.00,6.00,M,29.89,M,10.00,M,CLR,M,M,M,M,M,M,M,M,KAND 010500Z AUTO 27006KT 10SM CLR A2989 RMK MADISHF
AND,2017-04-01 05:05,-82.7094,34.4946,M,M,M,270.00,5.00,M,29.90,M,10.00,M,CLR,M,M,M,M,M,M,M,M,KAND 010505Z AUTO 27005KT 10SM CLR A2990 RMK MADISHF
AND,2017-04-01 05:10,-82.7094,34.4946,M,M,M,270.00,4.00,M,29.90,M,10.00,M,CLR,M,M,M,M,M,M,M,M,KAND 010510Z AUTO 27004KT 10SM CLR A2990 RMK MADISHF
AND,2017-04-01 05:15,-82.7094,34.4946,M,M,M,0.00,0.00,M,29.90,M,10.00,M,CLR,M,M,M,M,M,M,M,M,KAND 010515Z AUTO 00000KT 10SM CLR A2990 RMK MADISHF
AND,2017-04-01 05:20,-82.7094,34.4946,M,M,M,0.00,0.00,M,29.90,M,10.00,M,CLR,M,M,M,M,M,M,M,M,KAND 010520Z AUTO 00000KT 10SM CLR A2990 RMK MADISHF
AND,2017-04-01 05:25,-82.7094,34.4946,M,M,M,0.00,0.00,M,29.90,M,10.00,M,CLR,M,M,M,M,M,M,M,M,KAND 010525Z AUTO 00000KT 10SM CLR A2990 RMK MADISHF
AND,2017-04-01 05:30,-82.7094,34.4946,M,M,M,260.00,4.00,M,29.90,M,10.00,M,CLR,M,M,M,M,M,M,M,M,KAND 010530Z AUTO 26004KT 10SM CLR A2990 RMK MADISHF
AND,2017-04-01 05:35,-82.7094,34.4946,M,M,M,270.00,5.00,M,29.90,M,10.00,M,CLR,M,M,M,M,M,M,M,M,KAND 010535Z AUTO 27005KT 10SM CLR A2990 RMK MADISHF
AND,2017-04-01 05:40,-82.7094,34.4946,M,M,M,280.00,5.00,M,29.90,M,10.00,M,CLR,M,M,M,M,M,M,M,M,KAND 010540Z AUTO 28005KT 10SM CLR A2990 RMK MADISHF
AND,2017-04-01 05:45,-82.7094,34.4946,M,M,M,280.00,5.00,M,29.90,M,10.00,M,CLR,M,M,M,M,M,M,M,M,KAND 010545Z AUTO 28005KT 10SM CLR A2990 RMK MADISHF
AND,2017-04-01 05:50,-82.7094,34.4946,M,M,M,270.00,4.00,M,29.90,M,10.00,M,CLR,M,M,M,M,M,M,M,M,KAND 010550Z AUTO 27004KT 10SM CLR A2990 RMK MADISHF
AND,2017-04-01 05:55,-82.7094,34.4946,M,M,M,270.00,3.00,M,29.90,M,10.00,M,CLR,M,M,M,M,M,M,M,M,KAND 010555Z AUTO 27003KT 10SM CLR A2990 RMK MADISHF
AND,2017-04-01 05:56,-82.7094,34.4946,55.90,45.00,66.72,270.00,4.00,0.00,29.90,1012.00,10.00,M,CLR,M,M,M,M,M,M,M,M,KAND 010556Z AUTO 27004KT 10SM CLR 13/07 A2990 RMK AO2 SLP120 T01330072 10194 20117 51009
AND,2017-04-01 06:00,-82.7094,34.4946,M,M,M,280.00,4.00,M,29.90,M,10.00,M,CLR,M,M,M,M,M,M,M,M,KAND 010600Z AUTO 28004KT 10SM CLR A2990 RMK MADISHF
AND,2017-04-01 06:05,-82.7094,34.4946,M,M,M,290.00,4.00,M,29.90,M,10.00,M,CLR,M,M,M,M,M,M,M,M,KAND 010605Z AUTO 29004KT 10SM CLR A2990 RMK MADISHF
AND,2017-04-01 06:10,-82.7094,34.4946,M,M,M,280.00,5.00,M,29.90,M,10.00,M,CLR,M,M,M,M,M,M,M,M,KAND 010610Z AUTO 28005KT 10SM CLR A2990 RMK MADISHF
AND,2017-04-01 06:15,-82.7094,34.4946,M,M,M,280.00,5.00,M,29.90,M,10.00,M,CLR,M,M,M,M,M,M,M,M,KAND 010615Z AUTO 28005KT 10SM CLR A2990 RMK MADISHF
AND,2017-04-01 06:20,-82.7094,34.4946,M,M,M,280.00,4.00,M,29.90,M,10.00,M,CLR,M,M,M,M,M,M,M,M,KAND 010620Z AUTO 28004KT 10SM CLR A2990 RMK MADISHF
AND,2017-04-01 06:25,-82.7094,34.4946,M,M,M,280.00,3.00,M,29.90,M,10.00,M,CLR,M,M,M,M,M,M,M,M,KAND 010625Z AUTO 28003KT 10SM CLR A2990 RMK MADISHF
AND,2017-04-01 06:30,-82.7094,34.4946,M,M,M,280.00,3.00,M,29.90,M,10.00,M,CLR,M,M,M,M,M,M,M,M,KAND 010630Z AUTO 28003KT 10SM CLR A2990 RMK MADISHF
AND,2017-04-01 06:35,-82.7094,34.4946,M,M,M,300.00,4.00,M,29.90,M,10.00,M,CLR,M,M,M,M,M,M,M,M,KAND 010635Z AUTO 30004KT 10SM CLR A2990 RMK MADISHF
AND,2017-04-01 06:40,-82.7094,34.4946,M,M,M,290.00,3.00,M,29.90,M,10.00,M,CLR,M,M,M,M,M,M,M,M,KAND 010640Z AUTO 29003KT 10SM CLR A2990 RMK MADISHF
AND,2017-04-01 06:45,-82.7094,34.4946,M,M,M,290.00,4.00,M,29.90,M,10.00,M,CLR,M,M,M,M,M,M,M,M,KAND 010645Z AUTO 29004KT 10SM CLR A2990 RMK MADISHF
AND,2017-04-01 06:50,-82.7094,34.4946,M,M,M,300.00,3.00,M,29.90,M,10.00,M,CLR,M,M,M,M,M,M,M,M,KAND 010650Z AUTO 30003KT 10SM CLR A2990 RMK MADISHF
AND,2017-04-01 06:55,-82.7094,34.4946,M,M,M,310.00,3.00,M,29.90,M,10.00,M,CLR,M,M,M,M,M,M,M,M,KAND 010655Z AUTO 31003KT 10SM CLR A2990 RMK MADISHF
AND,2017-04-01 06:56,-82.7094,34.4946,55.90,45.00,66.72,310.00,3.00,0.00,29.90,1011.90,10.00,M,CLR,M,M,M,M,M,M,M,M,KAND 010656Z AUTO 31003KT 10SM CLR 13/07 A2990 RMK AO2 SLP119 T01330072
AND,2017-04-01 07:00,-82.7094,34.4946,M,M,M,300.00,3.00,M,29.90,M,10.00,M,CLR,M,M,M,M,M,M,M,M,KAND 010700Z AUTO 30003KT 10SM CLR A2990 RMK MADISHF
AND,2017-04-01 07:05,-82.7094,34.4946,M,M,M,290.00,3.00,M,29.90,M,10.00,M,CLR,M,M,M,M,M,M,M,M,KAND 010705Z AUTO 29003KT 10SM CLR A2990 RMK MADISHF
AND,2017-04-01 07:10,-82.7094,34.4946,M,M,M,290.00,3.00,M,29.90,M,10.00,M,CLR,M,M,M,M,M,M,M,M,KAND 010710Z AUTO 29003KT 10SM CLR A2990 RMK MADISHF
AND,2017-04-01 07:15,-82.7094,34.4946,M,M,M,290.00,4.00,M,29.90,M,10.00,M,CLR,M,M,M,M,M,M,M,M,KAND 010715Z AUTO 29004KT 10SM CLR A2990 RMK MADISHF
AND,2017-04-01 07:20,-82.7094,34.4946,M,M,M,290.00,3.00,M,29.90,M,10.00,M,CLR,M,M,M,M,M,M,M,M,KAND 010720Z AUTO 29003KT 10SM CLR A2990 RMK MADISHF
AND,2017-04-01 07:25,-82.7094,34.4946,M,M,M,300.00,3.00,M,29.90,M,10.00,M,CLR,M,M,M,M,M,M,M,M,KAND 010725Z AUTO 30003KT 10SM CLR A2990 RMK MADISHF
AND,2017-04-01 07:30,-82.7094,34.4946,M,M,M,300.00,3.00,M,29.90,M,10.00,M,CLR,M,M,M,M,M,M,M,M,KAND 010730Z AUTO 30003KT 10SM CLR A2990 RMK MADISHF
AND,2017-04-01 07:35,-82.7094,34.4946,M,M,M,310.00,3.00,M,29.91,M,10.00,M,CLR,M,M,M,M,M,M,M,M,KAND 010735Z AUTO 31003KT 10SM CLR A2991 RMK MADISHF
AND,2017-04-01 07:40,-82.7094,34.4946,M,M,M,310.00,3.00,M,29.91,M,10.00,M,CLR,M,M,M,M,M,M,M,M,KAND 010740Z AUTO 31003KT 10SM CLR A2991 RMK MADISHF
AND,2017-04-01 07:45,-82.7094,34.4946,M,M,M,310.00,3.00,M,29.91,M,10.00,M,CLR,M,M,M,M,M,M,M,M,KAND 010745Z AUTO 31003KT 10SM CLR A2991 RMK MADISHF
AND,2017-04-01 07:50,-82.7094,34.4946,M,M,M,310.00,3.00,M,29.91,M,10.00,M,CLR,M,M,M,M,M,M,M,M,KAND 010750Z AUTO 31003KT 10SM CLR A2991 RMK MADISHF
AND,2017-04-01 07:55,-82.7094,34.4946,M,M,M,310.00,3.00,M,29.91,M,10.00,M,CLR,M,M,M,M,M,M,M,M,KAND 010755Z AUTO 31003KT 10SM CLR A2991 RMK MADISHF
AND,2017-04-01 07:56,-82.7094,34.4946,55.90,45.00,66.72,310.00,3.00,0.00,29.91,1012.20,10.00,M,CLR,M,M,M,M,M,M,M,M,KAND 010756Z AUTO 31003KT 10SM CLR 13/07 A2991 RMK AO2 SLP122 T01330072
AND,2017-04-01 08:00,-82.7094,34.4946,M,M,M,0.00,0.00,M,29.91,M,10.00,M,CLR,M,M,M,M,M,M,M,M,KAND 010800Z AUTO 00000KT 10SM CLR A2991 RMK MADISHF
AND,2017-04-01 08:05,-82.7094,34.4946,M,M,M,0.00,0.00,M,29.91,M,10.00,M,CLR,M,M,M,M,M,M,M,M,KAND 010805Z AUTO 00000KT 10SM CLR A2991 RMK MADISHF
AND,2017-04-01 08:10,-82.7094,34.4946,M,M,M,0.00,0.00,M,29.91,M,10.00,M,CLR,M,M,M,M,M,M,M,M,KAND 010810Z AUTO 00000KT 10SM CLR A2991 RMK MADISHF
AND,2017-04-01 08:15,-82.7094,34.4946,M,M,M,0.00,0.00,M,29.91,M,10.00,M,CLR,M,M,M,M,M,M,M,M,KAND 010815Z AUTO 00000KT 10SM CLR A2991 RMK MADISHF
AND,2017-04-01 08:20,-82.7094,34.4946,M,M,M,280.00,3.00,M,29.91,M,10.00,M,CLR,M,M,M,M,M,M,M,M,KAND 010820Z AUTO 28003KT 10SM CLR A2991 RMK MADISHF
AND,2017-04-01 08:25,-82.7094,34.4946,M,M,M,290.00,3.00,M,29.91,M,10.00,M,CLR,M,M,M,M,M,M,M,M,KAND 010825Z AUTO 29003KT 10SM CLR A2991 RMK MADISHF
AND,2017-04-01 08:30,-82.7094,34.4946,M,M,M,290.00,4.00,M,29.91,M,10.00,M,CLR,M,M,M,M,M,M,M,M,KAND 010830Z AUTO 29004KT 10SM CLR A2991 RMK MADISHF
AND,2017-04-01 08:35,-82.7094,34.4946,M,M,M,290.00,3.00,M,29.91,M,10.00,M,CLR,M,M,M,M,M,M,M,M,KAND 010835Z AUTO 29003KT 10SM CLR A2991 RMK MADISHF
AND,2017-04-01 08:40,-82.7094,34.4946,M,M,M,280.00,3.00,M,29.91,M,10.00,M,CLR,M,M,M,M,M,M,M,M,KAND 010840Z AUTO 28003KT 10SM CLR A2991 RMK MADISHF
AND,2017-04-01 08:45,-82.7094,34.4946,M,M,M,290.00,4.00,M,29.91,M,10.00,M,CLR,M,M,M,M,M,M,M,M,KAND 010845Z AUTO 29004KT 10SM CLR A2991 RMK MADISHF
AND,2017-04-01 08:50,-82.7094,34.4946,M,M,M,290.00,4.00,M,29.92,M,10.00,M,CLR,M,M,M,M,M,M,M,M,KAND 010850Z AUTO 29004KT 10SM CLR A2992 RMK MADISHF
AND,2017-04-01 08:55,-82.7094,34.4946,M,M,M,0.00,0.00,M,29.92,M,10.00,M,CLR,M,M,M,M,M,M,M,M,KAND 010855Z AUTO 00000KT 10SM CLR A2992 RMK MADISHF
AND,2017-04-01 08:56,-82.7094,34.4946,54.00,45.00,71.50,0.00,0.00,0.00,29.92,1012.50,10.00,M,CLR,M,M,M,M,M,M,M,M,KAND 010856Z AUTO 00000KT 10SM CLR 12/07 A2992 RMK AO2 SLP125 T01220072 53004
AND,2017-04-01 09:00,-82.7094,34.4946,M,M,M,0.00,0.00,M,29.92,M,10.00,M,CLR,M,M,M,M,M,M,M,M,KAND 010900Z AUTO 00000KT 10SM CLR A2992 RMK MADISHF
AND,2017-04-01 09:05,-82.7094,34.4946,M,M,M,0.00,0.00,M,29.92,M,10.00,M,CLR,M,M,M,M,M,M,M,M,KAND 010905Z AUTO 00000KT 10SM CLR A2992 RMK MADISHF
AND,2017-04-01 09:10,-82.7094,34.4946,M,M,M,0.00,0.00,M,29.92,M,10.00,M,CLR,M,M,M,M,M,M,M,M,KAND 010910Z AUTO 00000KT 10SM CLR A2992 RMK MADISHF
AND,2017-04-01 09:15,-82.7094,34.4946,M,M,M,0.00,0.00,M,29.92,M,10.00,M,CLR,M,M,M,M,M,M,M,M,KAND 010915Z AUTO 00000KT 10SM CLR A2992 RMK MADISHF
AND,2017-04-01 09:20,-82.7094,34.4946,M,M,M,0.00,0.00,M,29.92,M,10.00,M,CLR,M,M,M,M,M,M,M,M,KAND 010920Z AUTO 00000KT 10SM CLR A2992 RMK MADISHF
AND,2017-04-01 09:25,-82.7094,34.4946,M,M,M,0.00,0.00,M,29.92,M,10.00,M,CLR,M,M,M,M,M,M,M,M,KAND 010925Z AUTO 00000KT 10SM CLR A2992 RMK MADISHF
AND,2017-04-01 09:30,-82.7094,34.4946,M,M,M,250.00,3.00,M,29.92,M,10.00,M,CLR,M,M,M,M,M,M,M,M,KAND 010930Z AUTO 25003KT 10SM CLR A2992 RMK MADISHF
AND,2017-04-01 09:35,-82.7094,34.4946,M,M,M,260.00,5.00,M,29.92,M,10.00,M,CLR,M,M,M,M,M,M,M,M,KAND 010935Z AUTO 26005KT 10SM CLR A2992 RMK MADISHF
AND,2017-04-01 09:40,-82.7094,34.4946,M,M,M,260.00,4.00,M,29.93,M,10.00,M,CLR,M,M,M,M,M,M,M,M,KAND 010940Z AUTO 26004KT 10SM CLR A2993 RMK MADISHF
AND,2017-04-01 09:45,-82.7094,34.4946,M,M,M,270.00,4.00,M,29.93,M,10.00,M,CLR,M,M,M,M,M,M,M,M,KAND 010945Z AUTO 27004KT 10SM CLR A2993 RMK MADISHF
AND,2017-04-01 09:50,-82.7094,34.4946,M,M,M,270.00,4.00,M,29.93,M,10.00,M,CLR,M,M,M,M,M,M,M,M,KAND 010950Z AUTO 27004KT 10SM CLR A2993 RMK MADISHF
AND,2017-04-01 09:55,-82.7094,34.4946,M,M,M,280.00,4.00,M,29.93,M,10.00,M,CLR,M,M,M,M,M,M,M,M,KAND 010955Z AUTO 28004KT 10SM CLR A2993 RMK MADISHF
AND,2017-04-01 09:56,-82.7094,34.4946,55.00,45.00,68.93,280.00,4.00,0.00,29.93,1012.90,10.00,M,CLR,M,M,M,M,M,M,M,M,KAND 010956Z AUTO 28004KT 10SM CLR 13/07 A2993 RMK AO2 SLP129 T01280072
AND,2017-04-01 10:00,-82.7094,34.4946,M,M,M,270.00,5.00,M,29.93,M,10.00,M,CLR,M,M,M,M,M,M,M,M,KAND 011000Z AUTO 27005KT 10SM CLR A2993 RMK MADISHF
AND,2017-04-01 10:05,-82.7094,34.4946,M,M,M,280.00,5.00,M,29.93,M,10.00,M,CLR,M,M,M,M,M,M,M,M,KAND 011005Z AUTO 28005KT 10SM CLR A2993 RMK MADISHF
AND,2017-04-01 10:10,-82.7094,34.4946,M,M,M,290.00,5.00,M,29.93,M,10.00,M,CLR,M,M,M,M,M,M,M,M,KAND 011010Z AUTO 29005KT 10SM CLR A2993 RMK MADISHF
AND,2017-04-01 10:15,-82.7094,34.4946,M,M,M,290.00,5.00,M,29.93,M,10.00,M,CLR,M,M,M,M,M,M,M,M,KAND 011015Z AUTO 29005KT 10SM CLR A2993 RMK MADISHF
AND,2017-04-01 10:20,-82.7094,34.4946,M,M,M,290.00,5.00,M,29.94,M,10.00,M,CLR,M,M,M,M,M,M,M,M,KAND 011020Z AUTO 29005KT 10SM CLR A2994 RMK MADISHF
AND,2017-04-01 10:25,-82.7094,34.4946,M,M,M,290.00,5.00,M,29.94,M,10.00,M,CLR,M,M,M,M,M,M,M,M,KAND 011025Z AUTO 29005KT 10SM CLR A2994 RMK MADISHF
AND,2017-04-01 10:30,-82.7094,34.4946,M,M,M,300.00,5.00,M,29.94,M,10.00,M,CLR,M,M,M,M,M,M,M,M,KAND 011030Z AUTO 30005KT 10SM CLR A2994 RMK MADISHF
AND,2017-04-01 10:35,-82.7094,34.4946,M,M,M,310.00,4.00,M,29.94,M,10.00,M,CLR,M,M,M,M,M,M,M,M,KAND 011035Z AUTO 31004KT 10SM CLR A2994 RMK MADISHF
AND,2017-04-01 10:40,-82.7094,34.4946,M,M,M,310.00,4.00,M,29.94,M,10.00,M,CLR,M,M,M,M,M,M,M,M,KAND 011040Z AUTO 31004KT 10SM CLR A2994 RMK MADISHF
AND,2017-04-01 10:45,-82.7094,34.4946,M,M,M,290.00,5.00,M,29.94,M,10.00,M,CLR,M,M,M,M,M,M,M,M,KAND 011045Z AUTO 29005KT 10SM CLR A2994 RMK MADISHF
AND,2017-04-01 10:50,-82.7094,34.4946,M,M,M,280.00,6.00,M,29.95,M,10.00,M,CLR,M,M,M,M,M,M,M,M,KAND 011050Z AUTO 28006KT 10SM CLR A2995 RMK MADISHF
AND,2017-04-01 10:55,-82.7094,34.4946,M,M,M,280.00,6.00,M,29.95,M,10.00,M,CLR,M,M,M,M,M,M,M,M,KAND 011055Z AUTO 28006KT 10SM CLR A2995 RMK MADISHF
AND,2017-04-01 10:56,-82.7094,34.4946,53.10,45.00,73.89,280.00,6.00,0.00,29.95,1013.50,10.00,M,CLR,M,M,M,M,M,M,M,M,KAND 011056Z AUTO 28006KT 10SM CLR 12/07 A2995 RMK AO2 SLP135 T01170072
AND,2017-04-01 11:00,-82.7094,34.4946,M,M,M,280.00,6.00,M,29.95,M,10.00,M,CLR,M,M,M,M,M,M,M,M,KAND 011100Z AUTO 28006KT 10SM CLR A2995 RMK MADISHF
AND,2017-04-01 11:05,-82.7094,34.4946,M,M,M,280.00,5.00,M,29.95,M,10.00,M,CLR,M,M,M,M,M,M,M,M,KAND 011105Z AUTO 28005KT 10SM CLR A2995 RMK MADISHF
AND,2017-04-01 11:10,-82.7094,34.4946,M,M,M,280.00,5.00,M,29.95,M,10.00,M,CLR,M,M,M,M,M,M,M,M,KAND 011110Z AUTO 28005KT 10SM CLR A2995 RMK MADISHF
AND,2017-04-01 11:15,-82.7094,34.4946,M,M,M,280.00,5.00,M,29.95,M,10.00,M,CLR,M,M,M,M,M,M,M,M,KAND 011115Z AUTO 28005KT 10SM CLR A2995 RMK MADISHF
AND,2017-04-01 11:20,-82.7094,34.4946,M,M,M,290.00,6.00,M,29.96,M,10.00,M,CLR,M,M,M,M,M,M,M,M,KAND 011120Z AUTO 29006KT 10SM CLR A2996 RMK MADISHF
AND,2017-04-01 11:25,-82.7094,34.4946,M,M,M,280.00,6.00,M,29.96,M,10.00,M,CLR,M,M,M,M,M,M,M,M,KAND 011125Z AUTO 28006KT 10SM CLR A2996 RMK MADISHF
AND,2017-04-01 11:30,-82.7094,34.4946,M,M,M,270.00,7.00,M,29.96,M,10.00,M,CLR,M,M,M,M,M,M,M,M,KAND 011130Z AUTO 27007KT 10SM CLR A2996 RMK MADISHF
AND,2017-04-01 11:35,-82.7094,34.4946,M,M,M,270.00,6.00,M,29.96,M,10.00,M,CLR,M,M,M,M,M,M,M,M,KAND 011135Z AUTO 27006KT 10SM CLR A2996 RMK MADISHF
AND,2017-04-01 11:40,-82.7094,34.4946,M,M,M,280.00,5.00,M,29.97,M,10.00,M,CLR,M,M,M,M,M,M,M,M,KAND 011140Z AUTO 28005KT 10SM CLR A2997 RMK MADISHF
AND,2017-04-01 11:45,-82.7094,34.4946,M,M,M,280.00,4.00,M,29.97,M,10.00,M,CLR,M,M,M,M,M,M,M,M,KAND 011145Z AUTO 28004KT 10SM CLR A2997 RMK MADISHF
AND,2017-04-01 11:50,-82.7094,34.4946,M,M,M,280.00,4.00,M,29.97,M,10.00,M,CLR,M,M,M,M,M,M,M,M,KAND 011150Z AUTO 28004KT 10SM CLR A2997 RMK MADISHF
AND,2017-04-01 11:55,-82.7094,34.4946,M,M,M,280.00,4.00,M,29.97,M,10.00,M,CLR,M,M,M,M,M,M,M,M,KAND 011155Z AUTO 28004KT 10SM CLR A2997 RMK MADISHF
AND,2017-04-01 11:56,-82.7094,34.4946,53.10,46.00,76.75,280.00,4.00,0.00,29.98,1014.60,10.00,M,CLR,M,M,M,M,M,M,M,M,KAND 011156Z AUTO 28004KT 10SM CLR 12/08 A2998 RMK AO2 SLP146 T01170078 10139 20100 53020
AND,2017-04-01 12:00,-82.7094,34.4946,M,M,M,280.00,6.00,M,29.98,M,10.00,M,CLR,M,M,M,M,M,M,M,M,KAND 011200Z AUTO 28006KT 10SM CLR A2998 RMK MADISHF
AND,2017-04-01 12:05,-82.7094,34.4946,M,M,M,260.00,5.00,M,29.98,M,10.00,M,CLR,M,M,M,M,M,M,M,M,KAND 011205Z AUTO 26005KT 10SM CLR A2998 RMK MADISHF
AND,2017-04-01 12:10,-82.7094,34.4946,M,M,M,260.00,5.00,M,29.98,M,10.00,M,CLR,M,M,M,M,M,M,M,M,KAND 011210Z AUTO 26005KT 10SM CLR A2998 RMK MADISHF
AND,2017-04-01 12:15,-82.7094,34.4946,M,M,M,260.00,5.00,M,29.99,M,10.00,M,CLR,M,M,M,M,M,M,M,M,KAND 011215Z AUTO 26005KT 10SM CLR A2999 RMK MADISHF
AND,2017-04-01 12:20,-82.7094,34.4946,M,M,M,270.00,4.00,M,29.99,M,10.00,M,CLR,M,M,M,M,M,M,M,M,KAND 011220Z AUTO 27004KT 10SM CLR A2999 RMK MADISHF
AND,2017-04-01 12:25,-82.7094,34.4946,M,M,M,270.00,5.00,M,29.99,M,10.00,M,CLR,M,M,M,M,M,M,M,M,KAND 011225Z AUTO 27005KT 10SM CLR A2999 RMK MADISHF
AND,2017-04-01 12:30,-82.7094,34.4946,M,M,M,280.00,5.00,M,29.99,M,10.00,M,CLR,M,M,M,M,M,M,M,M,KAND 011230Z AUTO 28005KT 10SM CLR A2999 RMK MADISHF
AND,2017-04-01 12:35,-82.7094,34.4946,M,M,M,290.00,5.00,M,30.00,M,10.00,M,CLR,M,M,M,M,M,M,M,M,KAND 011235Z AUTO 29005KT 10SM CLR A3000 RMK MADISHF
AND,2017-04-01 12:40,-82.7094,34.4946,M,M,M,280.00,5.00,M,30.00,M,10.00,M,CLR,M,M,M,M,M,M,M,M,KAND 011240Z AUTO 28005KT 10SM CLR A3000 RMK MADISHF
AND,2017-04-01 12:45,-82.7094,34.4946,M,M,M,280.00,5.00,M,30.00,M,10.00,M,CLR,M,M,M,M,M,M,M,M,KAND 011245Z AUTO 28005KT 10SM CLR A3000 RMK MADISHF
AND,2017-04-01 12:50,-82.7094,34.4946,M,M,M,290.00,5.00,M,30.00,M,10.00,M,CLR,M,M,M,M,M,M,M,M,KAND 011250Z AUTO 29005KT 10SM CLR A3000 RMK MADISHF
AND,2017-04-01 12:55,-82.7094,34.4946,M,M,M,280.00,6.00,M,30.00,M,10.00,M,CLR,M,M,M,M,M,M,M,M,KAND 011255Z AUTO 28006KT 10SM CLR A3000 RMK MADISHF
AND,2017-04-01 12:56,-82.7094,34.4946,57.90,46.90,66.70,290.00,7.00,0.00,30.00,1015.50,10.00,M,CLR,M,M,M,M,M,M,M,M,KAND 011256Z AUTO 29007KT 10SM CLR 14/08 A3000 RMK AO2 SLP155 T01440083
AND,2017-04-01 13:00,-82.7094,34.4946,M,M,M,280.00,7.00,M,30.00,M,10.00,M,CLR,M,M,M,M,M,M,M,M,KAND 011300Z AUTO 28007KT 10SM CLR A3000 RMK MADISHF
AND,2017-04-01 13:05,-82.7094,34.4946,M,M,M,280.00,9.00,M,30.00,M,10.00,M,CLR,M,M,M,M,M,M,M,M,KAND 011305Z AUTO 28009KT 10SM CLR A3000 RMK MADISHF
AND,2017-04-01 13:10,-82.7094,34.4946,M,M,M,280.00,7.00,M,30.00,M,10.00,M,CLR,M,M,M,M,M,M,M,M,KAND 011310Z AUTO 28007KT 10SM CLR A3000 RMK MADISHF
AND,2017-04-01 13:15,-82.7094,34.4946,M,M,M,280.00,9.00,M,30.01,M,10.00,M,CLR,M,M,M,M,M,M,M,M,KAND 011315Z AUTO 28009KT 10SM CLR A3001 RMK MADISHF
AND,2017-04-01 13:20,-82.7094,34.4946,M,M,M,280.00,8.00,M,30.01,M,10.00,M,CLR,M,M,M,M,M,M,M,M,KAND 011320Z AUTO 28008KT 10SM CLR A3001 RMK MADISHF
AND,2017-04-01 13:25,-82.7094,34.4946,M,M,M,290.00,8.00,M,30.01,M,10.00,M,CLR,M,M,M,M,M,M,M,M,KAND 011325Z AUTO 29008KT 10SM CLR A3001 RMK MADISHF
AND,2017-04-01 13:30,-82.7094,34.4946,M,M,M,290.00,7.00,M,30.01,M,10.00,M,CLR,M,M,M,M,M,M,M,M,KAND 011330Z AUTO 29007KT 10SM CLR A3001 RMK MADISHF
AND,2017-04-01 13:35,-82.7094,34.4946,M,M,M,290.00,9.00,M,30.01,M,10.00,M,CLR,M,M,M,M,M,M,M,M,KAND 011335Z AUTO 29009KT 10SM CLR A3001 RMK MADISHF
AND,2017-04-01 13:40,-82.7094,34.4946,M,M,M,290.00,7.00,M,30.01,M,10.00,M,CLR,M,M,M,M,M,M,M,M,KAND 011340Z AUTO 29007KT 10SM CLR A3001 RMK MADISHF
AND,2017-04-01 13:45,-82.7094,34.4946,M,M,M,290.00,9.00,M,30.01,M,10.00,M,CLR,M,M,M,M,M,M,M,M,KAND 011345Z AUTO 29009KT 10SM CLR A3001 RMK MADISHF
AND,2017-04-01 13:50,-82.7094,34.4946,M,M,M,280.00,8.00,M,30.02,M,10.00,M,CLR,M,M,M,M,M,M,M,M,KAND 011350Z AUTO 28008KT 10SM CLR A3002 RMK MADISHF
AND,2017-04-01 13:55,-82.7094,34.4946,M,M,M,280.00,7.00,M,30.02,M,10.00,M,CLR,M,M,M,M,M,M,M,M,KAND 011355Z AUTO 28007KT 10SM CLR A3002 RMK MADISHF
AND,2017-04-01 13:56,-82.7094,34.4946,61.00,46.00,57.72,280.00,7.00,0.00,30.02,1015.90,10.00,M,CLR,M,M,M,M,M,M,M,M,KAND 011356Z AUTO 28007KT 10SM CLR 16/08 A3002 RMK AO2 SLP159 T01610078
AND,2017-04-01 14:00,-82.7094,34.4946,M,M,M,320.00,7.00,M,30.02,M,10.00,M,CLR,M,M,M,M,M,M,M,M,KAND 011400Z AUTO 32007KT 10SM CLR A3002 RMK MADISHF
AND,2017-04-01 14:05,-82.7094,34.4946,M,M,M,320.00,5.00,M,30.02,M,10.00,M,CLR,M,M,M,M,M,M,M,M,KAND 011405Z AUTO 32005KT 10SM CLR A3002 RMK MADISHF
AND,2017-04-01 14:10,-82.7094,34.4946,M,M,M,290.00,6.00,M,30.02,M,10.00,M,CLR,M,M,M,M,M,M,M,M,KAND 011410Z AUTO 29006KT 10SM CLR A3002 RMK MADISHF
AND,2017-04-01 14:15,-82.7094,34.4946,M,M,M,280.00,5.00,M,30.02,M,10.00,M,CLR,M,M,M,M,M,M,M,M,KAND 011415Z AUTO 28005KT 10SM CLR A3002 RMK MADISHF
AND,2017-04-01 14:20,-82.7094,34.4946,M,M,M,350.00,5.00,M,30.02,M,10.00,M,CLR,M,M,M,M,M,M,M,M,KAND 011420Z AUTO 35005KT 10SM CLR A3002 RMK MADISHF
AND,2017-04-01 14:25,-82.7094,34.4946,M,M,M,330.00,6.00,M,30.02,M,10.00,M,CLR,M,M,M,M,M,M,M,M,KAND 011425Z AUTO 33006KT 10SM CLR A3002 RMK MADISHF
AND,2017-04-01 14:30,-82.7094,34.4946,M,M,M,350.00,6.00,M,30.02,M,10.00,M,CLR,M,M,M,M,M,M,M,M,KAND 011430Z AUTO 35006KT 10SM CLR A3002 RMK MADISHF
AND,2017-04-01 14:35,-82.7094,34.4946,M,M,M,320.00,7.00,M,30.02,M,10.00,M,CLR,M,M,M,M,M,M,M,M,KAND 011435Z AUTO 32007KT 10SM CLR A3002 RMK MADISHF
AND,2017-04-01 14:40,-82.7094,34.4946,M,M,M,330.00,5.00,M,30.02,M,10.00,M,CLR,M,M,M,M,M,M,M,M,KAND 011440Z AUTO 33005KT 10SM CLR A3002 RMK MADISHF
AND,2017-04-01 14:45,-82.7094,34.4946,M,M,M,320.00,4.00,M,30.02,M,10.00,M,CLR,M,M,M,M,M,M,M,M,KAND 011445Z AUTO 32004KT 10SM CLR A3002 RMK VRB04KT  MADISHF
AND,2017-04-01 14:50,-82.7094,34.4946,M,M,M,350.00,5.00,M,30.02,M,10.00,M,CLR,M,M,M,M,M,M,M,M,KAND 011450Z AUTO 35005KT 10SM CLR A3002 RMK MADISHF
AND,2017-04-01 14:55,-82.7094,34.4946,M,M,M,360.00,4.00,M,30.02,M,10.00,M,CLR,M,M,M,M,M,M,M,M,KAND 011455Z AUTO 36004KT 10SM CLR A3002 RMK MADISHF
AND,2017-04-01 14:56,-82.7094,34.4946,64.90,46.00,50.32,340.00,5.00,0.00,30.02,1016.10,10.00,M,CLR,M,M,M,M,M,M,M,M,KAND 011456Z AUTO 34005KT 10SM CLR 18/08 A3002 RMK AO2 SLP161 T01830078 51015
AND,2017-04-01 15:00,-82.7094,34.4946,M,M,M,310.00,3.00,M,30.02,M,10.00,M,CLR,M,M,M,M,M,M,M,M,KAND 011500Z AUTO 31003KT 10SM CLR A3002 RMK MADISHF
AND,2017-04-01 15:05,-82.7094,34.4946,M,M,M,M,M,M,30.02,M,10.00,M,CLR,M,M,M,M,M,M,M,M,KAND 011505Z AUTO /////KT 10SM CLR A3002 RMK MADISHF
AND,2017-04-01 15:10,-82.7094,34.4946,M,M,M,0.00,0.00,M,30.02,M,10.00,M,CLR,M,M,M,M,M,M,M,M,KAND 011510Z AUTO 00000KT 10SM CLR A3002 RMK MADISHF
AND,2017-04-01 15:15,-82.7094,34.4946,M,M,M,290.00,6.00,M,30.02,M,10.00,M,CLR,M,M,M,M,M,M,M,M,KAND 011515Z AUTO 29006KT 10SM CLR A3002 RMK MADISHF
AND,2017-04-01 15:20,-82.7094,34.4946,M,M,M,310.00,5.00,M,30.02,M,10.00,M,CLR,M,M,M,M,M,M,M,M,KAND 011520Z AUTO 31005KT 10SM CLR A3002 RMK MADISHF
AND,2017-04-01 15:25,-82.7094,34.4946,M,M,M,330.00,4.00,M,30.02,M,10.00,M,CLR,M,M,M,M,M,M,M,M,KAND 011525Z AUTO 33004KT 10SM CLR A3002 RMK MADISHF
AND,2017-04-01 15:30,-82.7094,34.4946,M,M,M,320.00,7.00,M,30.02,M,10.00,M,CLR,M,M,M,M,M,M,M,M,KAND 011530Z AUTO 32007KT 10SM CLR A3002 RMK MADISHF
AND,2017-04-01 15:35,-82.7094,34.4946,M,M,M,290.00,5.00,M,30.02,M,10.00,M,CLR,M,M,M,M,M,M,M,M,KAND 011535Z AUTO 29005KT 10SM CLR A3002 RMK MADISHF
AND,2017-04-01 15:40,-82.7094,34.4946,M,M,M,280.00,5.00,M,30.02,M,10.00,M,CLR,M,M,M,M,M,M,M,M,KAND 011540Z AUTO 28005KT 10SM CLR A3002 RMK MADISHF
AND,2017-04-01 15:45,-82.7094,34.4946,M,M,M,0.00,0.00,M,30.02,M,10.00,M,CLR,M,M,M,M,M,M,M,M,KAND 011545Z AUTO 00000KT 10SM CLR A3002 RMK MADISHF
AND,2017-04-01 15:50,-82.7094,34.4946,M,M,M,300.00,5.00,M,30.02,M,10.00,M,CLR,M,M,M,M,M,M,M,M,KAND 011550Z AUTO 30005KT 10SM CLR A3002 RMK MADISHF
AND,2017-04-01 15:55,-82.7094,34.4946,M,M,M,330.00,7.00,M,30.02,M,10.00,M,CLR,M,M,M,M,M,M,M,M,KAND 011555Z AUTO 33007KT 10SM CLR A3002 RMK WND 29V36  MADISHF
AND,2017-04-01 15:56,-82.7094,34.4946,68.00,46.90,46.76,330.00,7.00,0.00,30.02,1016.10,10.00,M,CLR,M,M,M,M,M,M,M,M,KAND 011556Z AUTO 33007KT 10SM CLR 20/08 A3002 RMK AO2 SLP161 T02000083
AND,2017-04-01 16:00,-82.7094,34.4946,M,M,M,360.00,3.00,M,30.02,M,10.00,M,CLR,M,M,M,M,M,M,M,M,KAND 011600Z AUTO 36003KT 10SM CLR A3002 RMK VRB03KT  MADISHF
AND,2017-04-01 16:05,-82.7094,34.4946,M,M,M,290.00,6.00,M,30.02,M,10.00,M,CLR,M,M,M,M,M,M,M,M,KAND 011605Z AUTO 29006KT 10SM CLR A3002 RMK VRB06KT  MADISHF
AND,2017-04-01 16:10,-82.7094,34.4946,M,M,M,330.00,6.00,M,30.02,M,10.00,M,CLR,M,M,M,M,M,M,M,M,KAND 011610Z AUTO 33006KT 10SM CLR A3002 RMK VRB06KT  MADISHF
AND,2017-04-01 16:15,-82.7094,34.4946,M,M,M,280.00,7.00,M,30.02,M,10.00,M,CLR,M,M,M,M,M,M,M,M,KAND 011615Z AUTO 28007KT 10SM CLR A3002 RMK MADISHF
AND,2017-04-01 16:20,-82.7094,34.4946,M,M,M,260.00,5.00,M,30.02,M,10.00,M,CLR,M,M,M,M,M,M,M,M,KAND 011620Z AUTO 26005KT 10SM CLR A3002 RMK MADISHF
AND,2017-04-01 16:25,-82.7094,34.4946,M,M,M,290.00,7.00,M,30.02,M,10.00,M,CLR,M,M,M,M,M,M,M,M,KAND 011625Z AUTO 29007KT 10SM CLR A3002 RMK MADISHF
AND,2017-04-01 16:30,-82.7094,34.4946,M,M,M,290.00,3.00,M,30.02,M,10.00,M,CLR,M,M,M,M,M,M,M,M,KAND 011630Z AUTO 29003KT 10SM CLR A3002 RMK VRB03KT  MADISHF
AND,2017-04-01 16:35,-82.7094,34.4946,M,M,M,310.00,3.00,M,30.02,M,10.00,M,CLR,M,M,M,M,M,M,M,M,KAND 011635Z AUTO 31003KT 10SM CLR A3002 RMK MADISHF
AND,2017-04-01 16:40,-82.7094,34.4946,M,M,M,210.00,4.00,M,30.02,M,10.00,M,CLR,M,M,M,M,M,M,M,M,KAND 011640Z AUTO 21004KT 10SM CLR A3002 RMK MADISHF
AND,2017-04-01 16:45,-82.7094,34.4946,M,M,M,210.00,4.00,M,30.02,M,10.00,M,CLR,M,M,M,M,M,M,M,M,KAND 011645Z AUTO 21004KT 10SM CLR A3002 RMK VRB04KT  MADISHF
AND,2017-04-01 16:50,-82.7094,34.4946,M,M,M,260.00,5.00,M,30.02,M,10.00,M,CLR,M,M,M,M,M,M,M,M,KAND 011650Z AUTO 26005KT 10SM CLR A3002 RMK MADISHF
AND,2017-04-01 16:55,-82.7094,34.4946,M,M,M,290.00,5.00,M,30.02,M,10.00,M,CLR,M,M,M,M,M,M,M,M,KAND 011655Z AUTO 29005KT 10SM CLR A3002 RMK MADISHF
AND,2017-04-01 16:56,-82.7094,34.4946,70.00,46.90,43.66,M,4.00,0.00,30.02,1015.90,10.00,M,CLR,M,M,M,M,M,M,M,M,KAND 011656Z AUTO VRB04KT 10SM CLR 21/08 A3002 RMK AO2 SLP159 T02110083
AND,2017-04-01 17:00,-82.7094,34.4946,M,M,M,0.00,0.00,M,30.02,M,10.00,M,CLR,M,M,M,M,M,M,M,M,KAND 011700Z AUTO 00000KT 10SM CLR A3002 RMK MADISHF
AND,2017-04-01 17:05,-82.7094,34.4946,M,M,M,M,M,M,30.01,M,10.00,M,CLR,M,M,M,M,M,M,M,M,KAND 011705Z AUTO /////KT 10SM CLR A3001 RMK MADISHF
AND,2017-04-01 17:10,-82.7094,34.4946,M,M,M,210.00,4.00,M,30.01,M,10.00,M,CLR,M,M,M,M,M,M,M,M,KAND 011710Z AUTO 21004KT 10SM CLR A3001 RMK VRB04KT  MADISHF
AND,2017-04-01 17:15,-82.7094,34.4946,M,M,M,200.00,4.00,M,30.01,M,10.00,M,CLR,M,M,M,M,M,M,M,M,KAND 011715Z AUTO 20004KT 10SM CLR A3001 RMK MADISHF
AND,2017-04-01 17:20,-82.7094,34.4946,M,M,M,0.00,0.00,M,30.01,M,10.00,M,CLR,M,M,M,M,M,M,M,M,KAND 011720Z AUTO 00000KT 10SM CLR A3001 RMK MADISHF
AND,2017-04-01 17:25,-82.7094,34.4946,M,M,M,220.00,4.00,M,30.01,M,10.00,M,CLR,M,M,M,M,M,M,M,M,KAND 011725Z AUTO 22004KT 10SM CLR A3001 RMK MADISHF
AND,2017-04-01 17:30,-82.7094,34.4946,M,M,M,300.00,7.00,M,30.01,M,10.00,M,CLR,M,M,M,M,M,M,M,M,KAND 011730Z AUTO 30007KT 10SM CLR A3001 RMK WND 24V32  MADISHF
AND,2017-04-01 17:35,-82.7094,34.4946,M,M,M,260.00,3.00,M,30.01,M,10.00,M,CLR,M,M,M,M,M,M,M,M,KAND 011735Z AUTO 26003KT 10SM CLR A3001 RMK VRB03KT  MADISHF
AND,2017-04-01 17:40,-82.7094,34.4946,M,M,M,240.00,4.00,M,30.01,M,10.00,M,CLR,M,M,M,M,M,M,M,M,KAND 011740Z AUTO 24004KT 10SM CLR A3001 RMK VRB04KT  MADISHF
AND,2017-04-01 17:45,-82.7094,34.4946,M,M,M,310.00,5.00,M,30.01,M,10.00,M,CLR,M,M,M,M,M,M,M,M,KAND 011745Z AUTO 31005KT 10SM CLR A3001 RMK MADISHF
AND,2017-04-01 17:50,-82.7094,34.4946,M,M,M,210.00,5.00,M,30.01,M,10.00,M,CLR,M,M,M,M,M,M,M,M,KAND 011750Z AUTO 21005KT 10SM CLR A3001 RMK VRB05KT  MADISHF
AND,2017-04-01 17:55,-82.7094,34.4946,M,M,M,0.00,0.00,M,30.01,M,10.00,M,CLR,M,M,M,M,M,M,M,M,KAND 011755Z AUTO 00000KT 10SM CLR A3001 RMK MADISHF
AND,2017-04-01 17:56,-82.7094,34.4946,71.10,46.00,40.65,0.00,0.00,0.00,30.01,1015.40,10.00,M,CLR,M,M,M,M,M,M,M,M,KAND 011756Z AUTO 00000KT 10SM CLR 22/08 A3001 RMK AO2 SLP154 T02170078 10222 20122 58005
AND,2017-04-01 18:00,-82.7094,34.4946,M,M,M,180.00,4.00,M,30.00,M,10.00,M,CLR,M,M,M,M,M,M,M,M,KAND 011800Z AUTO 18004KT 10SM CLR A3000 RMK MADISHF
AND,2017-04-01 18:05,-82.7094,34.4946,M,M,M,0.00,0.00,M,30.00,M,10.00,M,CLR,M,M,M,M,M,M,M,M,KAND 011805Z AUTO 00000KT 10SM CLR A3000 RMK MADISHF
AND,2017-04-01 18:10,-82.7094,34.4946,M,M,M,190.00,3.00,M,30.00,M,10.00,M,CLR,M,M,M,M,M,M,M,M,KAND 011810Z AUTO 19003KT 10SM CLR A3000 RMK VRB03KT  MADISHF
AND,2017-04-01 18:15,-82.7094,34.4946,M,M,M,270.00,3.00,M,30.00,M,10.00,M,CLR,M,M,M,M,M,M,M,M,KAND 011815Z AUTO 27003KT 10SM CLR A3000 RMK VRB03KT  MADISHF
AND,2017-04-01 18:20,-82.7094,34.4946,M,M,M,200.00,6.00,M,30.00,M,10.00,M,CLR,M,M,M,M,M,M,M,M,KAND 011820Z AUTO 20006KT 10SM CLR A3000 RMK MADISHF
AND,2017-04-01 18:25,-82.7094,34.4946,M,M,M,180.00,3.00,M,30.00,M,10.00,M,CLR,M,M,M,M,M,M,M,M,KAND 011825Z AUTO 18003KT 10SM CLR A3000 RMK MADISHF
AND,2017-04-01 18:30,-82.7094,34.4946,M,M,M,170.00,3.00,M,30.00,M,10.00,M,CLR,M,M,M,M,M,M,M,M,KAND 011830Z AUTO 17003KT 10SM CLR A3000 RMK VRB03KT  MADISHF
AND,2017-04-01 18:35,-82.7094,34.4946,M,M,M,100.00,3.00,M,30.00,M,10.00,M,CLR,M,M,M,M,M,M,M,M,KAND 011835Z AUTO 10003KT 10SM CLR A3000 RMK MADISHF
AND,2017-04-01 18:40,-82.7094,34.4946,M,M,M,0.00,0.00,M,30.00,M,10.00,M,CLR,M,M,M,M,M,M,M,M,KAND 011840Z AUTO 00000KT 10SM CLR A3000 RMK MADISHF
AND,2017-04-01 18:45,-82.7094,34.4946,M,M,M,140.00,3.00,M,30.00,M,10.00,M,CLR,M,M,M,M,M,M,M,M,KAND 011845Z AUTO 14003KT 10SM CLR A3000 RMK VRB03KT  MADISHF
AND,2017-04-01 18:50,-82.7094,34.4946,M,M,M,240.00,6.00,M,29.99,M,10.00,M,CLR,M,M,M,M,M,M,M,M,KAND 011850Z AUTO 24006KT 10SM CLR A2999 RMK VRB06KT  MADISHF
AND,2017-04-01 18:55,-82.7094,34.4946,M,M,M,230.00,7.00,M,29.99,M,10.00,M,CLR,M,M,M,M,M,M,M,M,KAND 011855Z AUTO 23007KT 10SM CLR A2999 RMK MADISHF
AND,2017-04-01 18:56,-82.7094,34.4946,73.90,48.00,39.87,220.00,7.00,0.00,29.99,1015.00,10.00,M,CLR,M,M,M,M,M,M,M,M,KAND 011856Z AUTO 22007KT 10SM CLR 23/09 A2999 RMK AO2 SLP150 T02330089
AND,2017-04-01 19:00,-82.7094,34.4946,M,M,M,270.00,7.00,M,29.99,M,10.00,M,CLR,M,M,M,M,M,M,M,M,KAND 011900Z AUTO 27007KT 10SM CLR A2999 RMK MADISHF
AND,2017-04-01 19:05,-82.7094,34.4946,M,M,M,240.00,8.00,M,29.99,M,10.00,M,CLR,M,M,M,M,M,M,M,M,KAND 011905Z AUTO 24008KT 10SM CLR A2999 RMK MADISHF
AND,2017-04-01 19:10,-82.7094,34.4946,M,M,M,230.00,5.00,M,29.99,M,10.00,M,CLR,M,M,M,M,M,M,M,M,KAND 011910Z AUTO 23005KT 10SM CLR A2999 RMK MADISHF
AND,2017-04-01 19:15,-82.7094,34.4946,M,M,M,240.00,6.00,M,29.99,M,10.00,M,CLR,M,M,M,M,M,M,M,M,KAND 011915Z AUTO 24006KT 10SM CLR A2999 RMK MADISHF
AND,2017-04-01 19:20,-82.7094,34.4946,M,M,M,240.00,6.00,M,29.99,M,10.00,M,CLR,M,M,M,M,M,M,M,M,KAND 011920Z AUTO 24006KT 10SM CLR A2999 RMK MADISHF
AND,2017-04-01 19:25,-82.7094,34.4946,M,M,M,220.00,5.00,M,29.99,M,10.00,M,CLR,M,M,M,M,M,M,M,M,KAND 011925Z AUTO 22005KT 10SM CLR A2999 RMK MADISHF
AND,2017-04-01 19:30,-82.7094,34.4946,M,M,M,240.00,8.00,M,29.98,M,10.00,M,CLR,M,M,M,M,M,M,M,M,KAND 011930Z AUTO 24008KT 10SM CLR A2998 RMK MADISHF
AND,2017-04-01 19:35,-82.7094,34.4946,M,M,M,250.00,3.00,M,29.98,M,10.00,M,CLR,M,M,M,M,M,M,M,M,KAND 011935Z AUTO 25003KT 10SM CLR A2998 RMK VRB03KT  MADISHF
AND,2017-04-01 19:40,-82.7094,34.4946,M,M,M,M,M,M,29.98,M,10.00,M,CLR,M,M,M,M,M,M,M,M,KAND 011940Z AUTO /////KT 10SM CLR A2998 RMK MADISHF
AND,2017-04-01 19:45,-82.7094,34.4946,M,M,M,270.00,4.00,M,29.98,M,10.00,M,CLR,M,M,M,M,M,M,M,M,KAND 011945Z AUTO 27004KT 10SM CLR A2998 RMK VRB04KT  MADISHF
AND,2017-04-01 19:50,-82.7094,34.4946,M,M,M,250.00,6.00,M,29.98,M,10.00,M,CLR,M,M,M,M,M,M,M,M,KAND 011950Z AUTO 25006KT 10SM CLR A2998 RMK MADISHF
AND,2017-04-01 19:55,-82.7094,34.4946,M,M,M,210.00,4.00,M,29.98,M,10.00,M,CLR,M,M,M,M,M,M,M,M,KAND 011955Z AUTO 21004KT 10SM CLR A2998 RMK VRB04KT  MADISHF
AND,2017-04-01 19:56,-82.7094,34.4946,75.00,45.00,34.31,230.00,4.00,0.00,29.98,1014.50,10.00,M,CLR,M,M,M,M,M,M,M,M,KAND 011956Z AUTO 23004KT 10SM CLR 24/07 A2998 RMK AO2 SLP145 T02390072
AND,2017-04-01 20:00,-82.7094,34.4946,M,M,M,270.00,5.00,M,29.98,M,10.00,M,CLR,M,M,M,M,M,M,M,M,KAND 012000Z AUTO 27005KT 10SM CLR A2998 RMK VRB05KT  MADISHF
AND,2017-04-01 20:05,-82.7094,34.4946,M,M,M,260.00,4.00,M,29.98,M,10.00,M,CLR,M,M,M,M,M,M,M,M,KAND 012005Z AUTO 26004KT 10SM CLR A2998 RMK VRB04KT  MADISHF
AND,2017-04-01 20:10,-82.7094,34.4946,M,M,M,210.00,4.00,M,29.98,M,10.00,M,CLR,M,M,M,M,M,M,M,M,KAND 012010Z AUTO 21004KT 10SM CLR A2998 RMK VRB04KT  MADISHF
AND,2017-04-01 20:15,-82.7094,34.4946,M,M,M,310.00,7.00,M,29.98,M,10.00,M,CLR,M,M,M,M,M,M,M,M,KAND 012015Z AUTO 31007KT 10SM CLR A2998 RMK MADISHF
AND,2017-04-01 20:20,-82.7094,34.4946,M,M,M,260.00,8.00,M,29.98,M,10.00,M,CLR,M,M,M,M,M,M,M,M,KAND 012020Z AUTO 26008KT 10SM CLR A2998 RMK MADISHF
AND,2017-04-01 20:25,-82.7094,34.4946,M,M,M,200.00,8.00,M,29.98,M,10.00,M,CLR,M,M,M,M,M,M,M,M,KAND 012025Z AUTO 20008KT 10SM CLR A2998 RMK MADISHF
AND,2017-04-01 20:30,-82.7094,34.4946,M,M,M,160.00,4.00,M,29.98,M,10.00,M,CLR,M,M,M,M,M,M,M,M,KAND 012030Z AUTO 16004KT 10SM CLR A2998 RMK MADISHF
AND,2017-04-01 20:35,-82.7094,34.4946,M,M,M,250.00,4.00,M,29.98,M,10.00,M,CLR,M,M,M,M,M,M,M,M,KAND 012035Z AUTO 25004KT 10SM CLR A2998 RMK MADISHF
AND,2017-04-01 20:40,-82.7094,34.4946,M,M,M,290.00,3.00,M,29.97,M,10.00,M,CLR,M,M,M,M,M,M,M,M,KAND 012040Z AUTO 29003KT 10SM CLR A2997 RMK VRB03KT  MADISHF
AND,2017-04-01 20:45,-82.7094,34.4946,M,M,M,240.00,7.00,M,29.97,M,10.00,M,CLR,M,M,M,M,M,M,M,M,KAND 012045Z AUTO 24007KT 10SM CLR A2997 RMK MADISHF
AND,2017-04-01 20:50,-82.7094,34.4946,M,M,M,220.00,10.00,M,29.97,M,10.00,M,CLR,M,M,M,M,M,M,M,M,KAND 012050Z AUTO 22010KT 10SM CLR A2997 RMK MADISHF
AND,2017-04-01 20:55,-82.7094,34.4946,M,M,M,200.00,7.00,M,29.97,M,10.00,M,CLR,M,M,M,M,M,M,M,M,KAND 012055Z AUTO 20007KT 10SM CLR A2997 RMK MADISHF
AND,2017-04-01 20:56,-82.7094,34.4946,75.90,46.00,34.58,220.00,8.00,0.00,29.97,1014.20,10.00,M,CLR,M,M,M,M,M,M,M,M,KAND 012056Z AUTO 22008KT 10SM CLR 24/08 A2997 RMK AO2 SLP142 T02440078 56012
AND,2017-04-01 21:00,-82.7094,34.4946,M,M,M,200.00,6.00,M,29.97,M,10.00,M,CLR,M,M,M,M,M,M,M,M,KAND 012100Z AUTO 20006KT 10SM CLR A2997 RMK VRB06KT  MADISHF
AND,2017-04-01 21:05,-82.7094,34.4946,M,M,M,210.00,5.00,M,29.97,M,10.00,M,CLR,M,M,M,M,M,M,M,M,KAND 012105Z AUTO 21005KT 10SM CLR A2997 RMK MADISHF
AND,2017-04-01 21:10,-82.7094,34.4946,M,M,M,230.00,8.00,M,29.97,M,10.00,M,CLR,M,M,M,M,M,M,M,M,KAND 012110Z AUTO 23008KT 10SM CLR A2997 RMK MADISHF
AND,2017-04-01 21:15,-82.7094,34.4946,M,M,M,190.00,8.00,M,29.97,M,10.00,M,CLR,M,M,M,M,M,M,M,M,KAND 012115Z AUTO 19008KT 10SM CLR A2997 RMK MADISHF
AND,2017-04-01 21:20,-82.7094,34.4946,M,M,M,240.00,7.00,M,29.97,M,10.00,M,CLR,M,M,M,M,M,M,M,M,KAND 012120Z AUTO 24007KT 10SM CLR A2997 RMK MADISHF
AND,2017-04-01 21:25,-82.7094,34.4946,M,M,M,220.00,8.00,M,29.97,M,10.00,M,CLR,M,M,M,M,M,M,M,M,KAND 012125Z AUTO 22008KT 10SM CLR A2997 RMK MADISHF
AND,2017-04-01 21:30,-82.7094,34.4946,M,M,M,220.00,7.00,M,29.97,M,10.00,M,CLR,M,M,M,M,M,M,M,M,KAND 012130Z AUTO 22007KT 10SM CLR A2997 RMK MADISHF
AND,2017-04-01 21:35,-82.7094,34.4946,M,M,M,210.00,4.00,M,29.97,M,10.00,M,CLR,M,M,M,M,M,M,M,M,KAND 012135Z AUTO 21004KT 10SM CLR A2997 RMK MADISHF
AND,2017-04-01 21:40,-82.7094,34.4946,M,M,M,210.00,4.00,M,29.97,M,10.00,M,CLR,M,M,M,M,M,M,M,M,KAND 012140Z AUTO 21004KT 10SM CLR A2997 RMK MADISHF
AND,2017-04-01 21:45,-82.7094,34.4946,M,M,M,200.00,9.00,M,29.97,M,10.00,M,CLR,M,M,M,M,M,M,M,M,KAND 012145Z AUTO 20009KT 10SM CLR A2997 RMK MADISHF
AND,2017-04-01 21:50,-82.7094,34.4946,M,M,M,200.00,10.00,M,29.97,M,10.00,M,CLR,M,M,M,M,M,M,M,M,KAND 012150Z AUTO 20010KT 10SM CLR A2997 RMK MADISHF
AND,2017-04-01 21:55,-82.7094,34.4946,M,M,M,200.00,9.00,M,29.97,M,10.00,M,CLR,M,M,M,M,M,M,M,M,KAND 012155Z AUTO 20009KT 10SM CLR A2997 RMK MADISHF
AND,2017-04-01 21:56,-82.7094,34.4946,78.10,46.00,32.15,200.00,7.00,0.00,29.97,1014.10,10.00,M,CLR,M,M,M,M,M,M,M,M,KAND 012156Z AUTO 20007KT 10SM CLR 26/08 A2997 RMK AO2 SLP141 T02560078
AND,2017-04-01 22:00,-82.7094,34.4946,M,M,M,230.00,7.00,M,29.97,M,10.00,M,CLR,M,M,M,M,M,M,M,M,KAND 012200Z AUTO 23007KT 10SM CLR A2997 RMK MADISHF
AND,2017-04-01 22:05,-82.7094,34.4946,M,M,M,210.00,9.00,M,29.97,M,10.00,M,CLR,M,M,M,M,M,M,M,M,KAND 012205Z AUTO 21009KT 10SM CLR A2997 RMK MADISHF
AND,2017-04-01 22:10,-82.7094,34.4946,M,M,M,220.00,7.00,M,29.97,M,10.00,M,CLR,M,M,M,M,M,M,M,M,KAND 012210Z AUTO 22007KT 10SM CLR A2997 RMK MADISHF
AND,2017-04-01 22:15,-82.7094,34.4946,M,M,M,210.00,7.00,M,29.97,M,10.00,M,CLR,M,M,M,M,M,M,M,M,KAND 012215Z AUTO 21007KT 10SM CLR A2997 RMK MADISHF
AND,2017-04-01 22:20,-82.7094,34.4946,M,M,M,210.00,7.00,M,29.97,M,10.00,M,CLR,M,M,M,M,M,M,M,M,KAND 012220Z AUTO 21007KT 10SM CLR A2997 RMK MADISHF
AND,2017-04-01 22:25,-82.7094,34.4946,M,M,M,200.00,8.00,M,29.97,M,10.00,M,CLR,M,M,M,M,M,M,M,M,KAND 012225Z AUTO 20008KT 10SM CLR A2997 RMK MADISHF
AND,2017-04-01 22:30,-82.7094,34.4946,M,M,M,200.00,7.00,M,29.97,M,10.00,M,CLR,M,M,M,M,M,M,M,M,KAND 012230Z AUTO 20007KT 10SM CLR A2997 RMK MADISHF
AND,2017-04-01 22:35,-82.7094,34.4946,M,M,M,200.00,8.00,M,29.97,M,10.00,M,CLR,M,M,M,M,M,M,M,M,KAND 012235Z AUTO 20008KT 10SM CLR A2997 RMK MADISHF
AND,2017-04-01 22:40,-82.7094,34.4946,M,M,M,200.00,7.00,M,29.97,M,10.00,M,CLR,M,M,M,M,M,M,M,M,KAND 012240Z AUTO 20007KT 10SM CLR A2997 RMK MADISHF
AND,2017-04-01 22:45,-82.7094,34.4946,M,M,M,200.00,6.00,M,29.97,M,10.00,M,CLR,M,M,M,M,M,M,M,M,KAND 012245Z AUTO 20006KT 10SM CLR A2997 RMK MADISHF
AND,2017-04-01 22:50,-82.7094,34.4946,M,M,M,210.00,7.00,M,29.97,M,10.00,M,CLR,M,M,M,M,M,M,M,M,KAND 012250Z AUTO 21007KT 10SM CLR A2997 RMK MADISHF
AND,2017-04-01 22:55,-82.7094,34.4946,M,M,M,210.00,7.00,M,29.97,M,10.00,M,CLR,M,M,M,M,M,M,M,M,KAND 012255Z AUTO 21007KT 10SM CLR A2997 RMK MADISHF
AND,2017-04-01 22:56,-82.7094,34.4946,77.00,46.90,34.50,210.00,7.00,0.00,29.97,1014.30,10.00,M,CLR,M,M,M,M,M,M,M,M,KAND 012256Z AUTO 21007KT 10SM CLR 25/08 A2997 RMK AO2 SLP143 T02500083
AND,2017-04-01 23:00,-82.7094,34.4946,M,M,M,200.00,7.00,M,29.97,M,10.00,M,CLR,M,M,M,M,M,M,M,M,KAND 012300Z AUTO 20007KT 10SM CLR A2997 RMK MADISHF
AND,2017-04-01 23:05,-82.7094,34.4946,M,M,M,210.00,8.00,M,29.97,M,10.00,M,CLR,M,M,M,M,M,M,M,M,KAND 012305Z AUTO 21008KT 10SM CLR A2997 RMK MADISHF
AND,2017-04-01 23:10,-82.7094,34.4946,M,M,M,210.00,6.00,M,29.98,M,10.00,M,CLR,M,M,M,M,M,M,M,M,KAND 012310Z AUTO 21006KT 10SM CLR A2998 RMK MADISHF
AND,2017-04-01 23:15,-82.7094,34.4946,M,M,M,210.00,7.00,M,29.98,M,10.00,M,CLR,M,M,M,M,M,M,M,M,KAND 012315Z AUTO 21007KT 10SM CLR A2998 RMK MADISHF
AND,2017-04-01 23:20,-82.7094,34.4946,M,M,M,200.00,5.00,M,29.98,M,10.00,M,CLR,M,M,M,M,M,M,M,M,KAND 012320Z AUTO 20005KT 10SM CLR A2998 RMK MADISHF
AND,2017-04-01 23:25,-82.7094,34.4946,M,M,M,190.00,5.00,M,29.98,M,10.00,M,CLR,M,M,M,M,M,M,M,M,KAND 012325Z AUTO 19005KT 10SM CLR A2998 RMK MADISHF
AND,2017-04-01 23:30,-82.7094,34.4946,M,M,M,200.00,5.00,M,29.98,M,10.00,M,CLR,M,M,M,M,M,M,M,M,KAND 012330Z AUTO 20005KT 10SM CLR A2998 RMK MADISHF
AND,2017-04-01 23:35,-82.7094,34.4946,M,M,M,180.00,4.00,M,29.98,M,10.00,M,CLR,M,M,M,M,M,M,M,M,KAND 012335Z AUTO 18004KT 10SM CLR A2998 RMK MADISHF
AND,2017-04-01 23:40,-82.7094,34.4946,M,M,M,170.00,4.00,M,29.98,M,10.00,M,CLR,M,M,M,M,M,M,M,M,KAND 012340Z AUTO 17004KT 10SM CLR A2998 RMK MADISHF
AND,2017-04-01 23:45,-82.7094,34.4946,M,M,M,160.00,3.00,M,29.98,M,10.00,M,CLR,M,M,M,M,M,M,M,M,KAND 012345Z AUTO 16003KT 10SM CLR A2998 RMK MADISHF
AND,2017-04-01 23:50,-82.7094,34.4946,M,M,M,170.00,4.00,M,29.98,M,10.00,M,CLR,M,M,M,M,M,M,M,M,KAND 012350Z AUTO 17004KT 10SM CLR A2998 RMK MADISHF
AND,2017-04-01 23:55,-82.7094,34.4946,M,M,M,170.00,3.00,M,29.98,M,10.00,M,CLR,M,M,M,M,M,M,M,M,KAND 012355Z AUTO 17003KT 10SM CLR A2998 RMK MADISHF
AND,2017-04-01 23:56,-82.7094,34.4946,73.00,46.90,39.43,170.00,3.00,0.00,29.98,1014.80,10.00,M,CLR,M,M,M,M,M,M,M,M,KAND 012356Z AUTO 17003KT 10SM CLR 23/08 A2998 RMK AO2 SLP148 T02280083 10256 20217 53004
