#DEBUG: Format Typ    -> comma
#DEBUG: Time Period   -> 2017-04-01 00:00:00+00:00 2017-04-02 00:00:00+00:00
#DEBUG: Time Zone     -> Etc/UTC
#DEBUG: Data Contact   -> daryl herzmann akrherz@iastate.edu 515-294-5978
#DEBUG: Entries Found -> -1
station,valid,lon,lat,tmpf, dwpf, relh, drct, sknt, p01i, alti, mslp, vsby, gust, skyc1, skyc2, skyc3, skyc4, skyl1, skyl2, skyl3, skyl4, presentwx, metar
ANW,2017-04-01 00:15,-99.9930,42.5792,46.40,35.60,65.83,0.00,0.00,0.00,30.06,M,10.00,M,SCT,OVC,M,M,3900.00,9500.00,M,M,M,KANW 010015Z AUTO 00000KT 10SM SCT039 OVC095 08/02 A3006 RMK AO2 T00800020
ANW,2017-04-01 00:35,-99.9930,42.5792,46.00,35.40,66.30,0.00,0.00,0.00,30.07,M,10.00,M,SCT,OVC,M,M,4300.00,9500.00,M,M,M,KANW 010035Z AUTO 00000KT 10SM SCT043 OVC095 08/02 A3007 RMK AO2 T00780019
ANW,2017-04-01 00:55,-99.9930,42.5792,45.00,36.00,70.53,280.00,3.00,0.00,30.08,M,10.00,M,SCT,OVC,M,M,4300.00,9500.00,M,M,M,KANW 010055Z AUTO 28003KT 10SM SCT043 OVC095 07/02 A3008 RMK AO2 T00720022
ANW,2017-04-01 01:15,-99.9930,42.5792,44.10,36.50,74.44,290.00,3.00,0.00,30.08,M,10.00,M,SCT,OVC,M,M,4500.00,9500.00,M,M,M,KANW 010115Z AUTO 29003KT 10SM SCT045 OVC095 07/03 A3008 RMK AO2 T00670025
ANW,2017-04-01 01:35,-99.9930,42.5792,43.90,36.90,76.21,290.00,3.00,0.00,30.08,M,10.00,M,OVC,M,M,M,9500.00,M,M,M,M,KANW 010135Z AUTO 29003KT 10SM OVC095 07/03 A3008 RMK AO2 T00660027
ANW,2017-04-01 01:55,-99.9930,42.5792,43.50,36.70,76.77,280.00,4.00,0.00,30.09,M,10.00,M,OVC,M,M,M,9500.00,M,M,M,M,KANW 010155Z AUTO 28004KT 10SM OVC095 06/03 A3009 RMK AO2 T00640026
ANW,2017-04-01 02:15,-99.9930,42.5792,43.20,36.90,78.28,310.00,4.00,0.00,30.10,M,10.00,M,OVC,M,M,M,9500.00,M,M,M,M,KANW 010215Z AUTO 31004KT 10SM OVC095 06/03 A3010 RMK AO2 T00620027
ANW,2017-04-01 02:35,-99.9930,42.5792,43.20,36.70,77.66,300.00,4.00,0.00,30.11,M,10.00,M,OVC,M,M,M,9500.00,M,M,M,M,KANW 010235Z AUTO 30004KT 10SM OVC095 06/03 A3011 RMK AO2 T00620026
ANW,2017-04-01 02:55,-99.9930,42.5792,43.30,36.70,77.36,310.00,7.00,0.00,30.11,M,10.00,M,BKN,OVC,M,M,9500.00,11000.00,M,M,M,KANW 010255Z AUTO 31007KT 10SM BKN095 OVC110 06/03 A3011 RMK AO2 T00630026
ANW,2017-04-01 03:15,-99.9930,42.5792,43.20,36.70,77.66,320.00,7.00,0.00,30.12,M,10.00,M,BKN,OVC,M,M,9500.00,11000.00,M,M,M,KANW 010315Z AUTO 32007KT 10SM BKN095 OVC110 06/03 A3012 RMK AO2 T00620026
ANW,2017-04-01 03:35,-99.9930,42.5792,43.20,36.90,78.28,330.00,7.00,0.00,30.12,M,10.00,M,OVC,M,M,M,8500.00,M,M,M,M,KANW 010335Z AUTO 33007KT 10SM OVC085 06/03 A3012 RMK AO2 T00620027
ANW,2017-04-01 03:55,-99.9930,42.5792,43.20,37.00,78.59,320.00,8.00,0.00,30.13,M,10.00,M,OVC,M,M,M,8500.00,M,M,M,M,KANW 010355Z AUTO 32008KT 10SM OVC085 06/03 A3013 RMK AO2 T00620028
ANW,2017-04-01 04:15,-99.9930,42.5792,43.00,37.00,79.19,320.00,7.00,0.00,30.14,M,10.00,M,OVC,M,M,M,8500.00,M,M,M,M,KANW 010415Z AUTO 32007KT 10SM OVC085 06/03 A3014 RMK AO2 T00610028
ANW,2017-04-01 04:35,-99.9930,42.5792,42.80,37.00,79.80,330.00,5.00,0.00,30.15,M,10.00,M,OVC,M,M,M,8500.00,M,M,M,M,KANW 010435Z AUTO 33005KT 10SM OVC085 06/03 A3015 RMK AO2 T00600028
ANW,2017-04-01 04:55,-99.9930,42.5792,42.30,36.70,80.39,330.00,5.00,0.00,30.15,M,10.00,M,OVC,M,M,M,8500.00,M,M,M,M,KANW 010455Z AUTO 33005KT 10SM OVC085 06/03 A3015 RMK AO2 T00570026
ANW,2017-04-01 05:15,-99.9930,42.5792,41.90,36.70,81.64,330.00,5.00,0.00,30.15,M,10.00,M,BKN,M,M,M,8500.00,M,M,M,M,KANW 010515Z AUTO 33005KT 10SM BKN085 06/03 A3015 RMK AO2 T00550026
ANW,2017-04-01 05:35,-99.9930,42.5792,41.90,36.90,82.29,330.00,5.00,0.00,30.15,M,10.00,M,SCT,SCT,M,M,8500.00,12000.00,M,M,M,KANW 010535Z AUTO 33005KT 10SM SCT085 SCT120 06/03 A3015 RMK AO2 T00550027
ANW,2017-04-01 05:55,-99.9930,42.5792,41.90,36.70,81.64,320.00,4.00,0.00,30.15,M,10.00,M,BKN,BKN,M,M,8500.00,11000.00,M,M,M,KANW 010555Z AUTO 32004KT 10SM BKN085 BKN110 06/03 A3015 RMK AO2 T00550026 10080 20055 400800033
ANW,2017-04-01 06:15,-99.9930,42.5792,41.90,36.90,82.29,330.00,3.00,0.00,30.16,M,10.00,M,OVC,M,M,M,8500.00,M,M,M,M,KANW 010615Z AUTO 33003KT 10SM OVC085 06/03 A3016 RMK AO2 T00550027
ANW,2017-04-01 06:35,-99.9930,42.5792,41.90,36.90,82.29,350.00,5.00,0.00,30.17,M,10.00,M,OVC,M,M,M,8500.00,M,M,M,M,KANW 010635Z AUTO 35005KT 10SM OVC085 06/03 A3017 RMK AO2 LTG DSNT S T00550027
ANW,2017-04-01 06:55,-99.9930,42.5792,42.80,36.90,79.49,10.00,7.00,0.00,30.17,M,10.00,M,OVC,M,M,M,8500.00,M,M,M,M,KANW 010655Z AUTO 01007KT 10SM OVC085 06/03 A3017 RMK AO2 T00600027
ANW,2017-04-01 07:15,-99.9930,42.5792,43.00,36.90,78.88,360.00,9.00,0.00,30.17,M,10.00,M,OVC,M,M,M,8500.00,M,M,M,M,KANW 010715Z AUTO 36009KT 10SM OVC085 06/03 A3017 RMK AO2 T00610027
ANW,2017-04-01 07:35,-99.9930,42.5792,42.80,36.90,79.49,10.00,9.00,0.00,30.17,M,10.00,M,OVC,M,M,M,8500.00,M,M,M,M,KANW 010735Z AUTO 01009KT 10SM OVC085 06/03 A3017 RMK AO2 T00600027
ANW,2017-04-01 07:55,-99.9930,42.5792,42.40,36.70,80.08,10.00,9.00,0.00,30.16,M,10.00,M,OVC,M,M,M,7500.00,M,M,M,M,KANW 010755Z AUTO 01009KT 10SM OVC075 06/03 A3016 RMK AO2 T00580026
ANW,2017-04-01 08:15,-99.9930,42.5792,42.30,36.70,80.39,10.00,7.00,0.00,30.17,M,10.00,M,OVC,M,M,M,7500.00,M,M,M,M,KANW 010815Z AUTO 01007KT 10SM OVC075 06/03 A3017 RMK AO2 T00570026
ANW,2017-04-01 08:35,-99.9930,42.5792,41.90,37.00,82.61,360.00,4.00,0.00,30.17,M,10.00,M,OVC,M,M,M,7500.00,M,M,M,M,KANW 010835Z AUTO 36004KT 10SM OVC075 06/03 A3017 RMK AO2 LTG DSNT S T00550028
ANW,2017-04-01 08:55,-99.9930,42.5792,41.00,36.90,85.20,350.00,5.00,0.00,30.17,M,10.00,M,BKN,BKN,OVC,M,7500.00,9000.00,11000.00,M,M,KANW 010855Z AUTO 35005KT 10SM BKN075 BKN090 OVC110 05/03 A3017 RMK AO2 T00500027
ANW,2017-04-01 09:15,-99.9930,42.5792,40.60,36.90,86.53,360.00,6.00,0.00,30.17,M,10.00,M,BKN,OVC,M,M,7500.00,11000.00,M,M,M,KANW 010915Z AUTO 36006KT 10SM BKN075 OVC110 05/03 A3017 RMK AO2 T00480027
ANW,2017-04-01 09:35,-99.9930,42.5792,41.00,36.90,85.20,360.00,5.00,0.00,30.18,M,10.00,M,OVC,M,M,M,7500.00,M,M,M,M,KANW 010935Z AUTO 36005KT 10SM OVC075 05/03 A3018 RMK AO2 T00500027
ANW,2017-04-01 09:55,-99.9930,42.5792,40.50,36.90,86.87,0.00,0.00,0.00,30.17,M,10.00,M,OVC,M,M,M,7500.00,M,M,M,M,KANW 010955Z AUTO 00000KT 10SM OVC075 05/03 A3017 RMK AO2 T00470027
ANW,2017-04-01 10:15,-99.9930,42.5792,40.60,36.90,86.53,0.00,0.00,0.00,30.18,M,10.00,M,OVC,M,M,M,7500.00,M,M,M,M,KANW 011015Z AUTO 00000KT 10SM OVC075 05/03 A3018 RMK AO2 T00480027
ANW,2017-04-01 10:35,-99.9930,42.5792,40.10,37.20,89.28,10.00,3.00,0.00,30.16,M,10.00,M,OVC,M,M,M,7500.00,M,M,M,M,KANW 011035Z AUTO 01003KT 10SM OVC075 05/03 A3016 RMK AO2 T00450029
ANW,2017-04-01 10:55,-99.9930,42.5792,40.30,37.40,89.28,0.00,0.00,0.00,30.18,M,10.00,M,OVC,M,M,M,7500.00,M,M,M,M,KANW 011055Z AUTO 00000KT 10SM OVC075 05/03 A3018 RMK AO2 T00460030
ANW,2017-04-01 11:15,-99.9930,42.5792,40.50,36.90,86.87,0.00,0.00,0.00,30.18,M,10.00,M,OVC,M,M,M,7500.00,M,M,M,M,KANW 011115Z AUTO 00000KT 10SM OVC075 05/03 A3018 RMK AO2 T00470027
ANW,2017-04-01 11:35,-99.9930,42.5792,40.30,37.20,88.58,0.00,0.00,0.00,30.18,M,10.00,M,OVC,M,M,M,7500.00,M,M,M,M,KANW 011135Z AUTO 00000KT 10SM OVC075 05/03 A3018 RMK AO2 T00460029
ANW,2017-04-01 11:55,-99.9930,42.5792,39.60,37.40,91.75,30.00,3.00,0.00,30.19,M,10.00,M,OVC,M,M,M,7500.00,M,M,M,M,KANW 011155Z AUTO 03003KT 10SM OVC075 04/03 A3019 RMK AO2 T00420030 10062 20042
ANW,2017-04-01 12:15,-99.9930,42.5792,40.30,37.40,89.28,350.00,3.00,0.00,30.20,M,10.00,M,BKN,OVC,M,M,7500.00,8500.00,M,M,M,KANW 011215Z AUTO 35003KT 10SM BKN075 OVC085 05/03 A3020 RMK AO2 T00460030
ANW,2017-04-01 12:35,-99.9930,42.5792,40.30,37.00,87.89,0.00,0.00,0.00,30.21,M,10.00,M,BKN,OVC,M,M,7500.00,8500.00,M,M,M,KANW 011235Z AUTO 00000KT 10SM BKN075 OVC085 05/03 A3021 RMK AO2 T00460028
ANW,2017-04-01 12:55,-99.9930,42.5792,40.10,37.40,89.98,350.00,3.00,0.00,30.22,M,10.00,M,SCT,BKN,OVC,M,7500.00,8500.00,12000.00,M,M,KANW 011255Z AUTO 35003KT 10SM SCT075 BKN085 OVC120 05/03 A3022 RMK AO2 LTG DSNT S T00450030
ANW,2017-04-01 13:15,-99.9930,42.5792,39.70,37.80,92.84,0.00,0.00,0.00,30.21,M,10.00,M,SCT,OVC,M,M,8500.00,12000.00,M,M,M,KANW 011315Z AUTO 00000KT 10SM SCT085 OVC120 04/03 A3021 RMK AO2 T00430032
ANW,2017-04-01 13:35,-99.9930,42.5792,40.80,38.30,90.72,0.00,0.00,0.00,30.20,M,10.00,M,BKN,M,M,M,12000.00,M,M,M,M,KANW 011335Z AUTO 00000KT 10SM BKN120 05/04 A3020 RMK AO2 T00490035
ANW,2017-04-01 13:55,-99.9930,42.5792,41.90,38.50,87.63,10.00,3.00,0.00,30.21,M,10.00,M,BKN,BKN,M,M,8000.00,12000.00,M,M,M,KANW 011355Z AUTO 01003KT 10SM BKN080 BKN120 06/04 A3021 RMK AO2 T00550036
ANW,2017-04-01 14:15,-99.9930,42.5792,42.40,37.90,83.96,0.00,0.00,0.00,30.22,M,10.00,M,OVC,M,M,M,8000.00,M,M,M,M,KANW 011415Z AUTO 00000KT 10SM OVC080 06/03 A3022 RMK AO2 T00580033
ANW,2017-04-01 14:35,-99.9930,42.5792,43.20,37.40,79.83,0.00,0.00,0.00,30.22,M,10.00,M,OVC,M,M,M,8000.00,M,M,M,M,KANW 011435Z AUTO 00000KT 10SM OVC080 06/03 A3022 RMK AO2 T00620030
ANW,2017-04-01 14:55,-99.9930,42.5792,43.70,37.90,79.87,360.00,3.00,0.00,30.23,M,10.00,M,OVC,M,M,M,8000.00,M,M,M,M,KANW 011455Z AUTO 36003KT 10SM OVC080 07/03 A3023 RMK AO2 T00650033
ANW,2017-04-01 15:15,-99.9930,42.5792,44.10,37.60,77.74,30.00,3.00,0.00,30.22,M,10.00,M,OVC,M,M,M,8000.00,M,M,M,M,KANW 011515Z AUTO 03003KT 10SM OVC080 07/03 A3022 RMK AO2 T00670031
ANW,2017-04-01 15:35,-99.9930,42.5792,44.60,37.80,76.87,30.00,3.00,0.00,30.21,M,10.00,M,OVC,M,M,M,8000.00,M,M,M,M,KANW 011535Z AUTO 03003KT 10SM OVC080 07/03 A3021 RMK AO2 T00700032
ANW,2017-04-01 15:55,-99.9930,42.5792,45.30,37.40,73.69,50.00,3.00,0.00,30.21,M,10.00,M,OVC,M,M,M,8000.00,M,M,M,M,KANW 011555Z AUTO 05003KT 10SM OVC080 07/03 A3021 RMK AO2 T00740030
ANW,2017-04-01 16:15,-99.9930,42.5792,45.70,36.90,71.16,30.00,3.00,0.00,30.22,M,10.00,M,OVC,M,M,M,8000.00,M,M,M,M,KANW 011615Z AUTO 03003KT 10SM OVC080 08/03 A3022 RMK AO2 T00760027
ANW,2017-04-01 16:35,-99.9930,42.5792,46.40,37.40,70.68,30.00,4.00,0.00,30.22,M,10.00,M,OVC,M,M,M,8000.00,M,M,M,M,KANW 011635Z AUTO 03004KT 10SM OVC080 08/03 A3022 RMK AO2 T00800030
ANW,2017-04-01 16:55,-99.9930,42.5792,47.30,36.70,66.46,90.00,3.00,0.00,30.21,M,10.00,M,OVC,M,M,M,9000.00,M,M,M,M,KANW 011655Z AUTO 09003KT 10SM OVC090 09/03 A3021 RMK AO2 T00850026
ANW,2017-04-01 17:15,-99.9930,42.5792,47.70,35.60,62.68,40.00,3.00,0.00,30.20,M,10.00,M,BKN,OVC,M,M,9000.00,11000.00,M,M,M,KANW 011715Z AUTO 04003KT 10SM BKN090 OVC110 09/02 A3020 RMK AO2 T00870020
ANW,2017-04-01 17:35,-99.9930,42.5792,48.00,35.20,61.00,60.00,6.00,0.00,30.18,M,10.00,M,SCT,SCT,M,M,9000.00,11000.00,M,M,M,KANW 011735Z AUTO 06006KT 10SM SCT090 SCT110 09/02 A3018 RMK AO2 T00890018
ANW,2017-04-01 17:55,-99.9930,42.5792,48.90,35.40,59.45,30.00,7.00,0.00,30.15,M,10.00,M,CLR,M,M,M,M,M,M,M,M,KANW 011755Z AUTO 03007KT 10SM CLR 09/02 A3015 RMK AO2 T00940019 10094 20042
ANW,2017-04-01 18:15,-99.9930,42.5792,50.00,33.80,53.54,70.00,7.00,0.00,30.16,M,10.00,M,CLR,M,M,M,M,M,M,M,M,KANW 011815Z AUTO 07007KT 10SM CLR 10/01 A3016 RMK AO2 T01000010
ANW,2017-04-01 18:35,-99.9930,42.5792,51.80,35.10,52.75,60.00,8.00,0.00,30.16,M,10.00,14.00,CLR,M,M,M,M,M,M,M,M,KANW 011835Z AUTO 06008G14KT 10SM CLR 11/02 A3016 RMK AO2 T01100017
ANW,2017-04-01 18:55,-99.9930,42.5792,52.20,33.10,47.99,60.00,9.00,0.00,30.16,M,10.00,15.00,CLR,M,M,M,M,M,M,M,M,KANW 011855Z AUTO 06009G15KT 10SM CLR 11/01 A3016 RMK AO2 T01120006
ANW,2017-04-01 19:15,-99.9930,42.5792,53.20,32.40,44.97,120.00,7.00,0.00,30.16,M,10.00,M,SCT,M,M,M,7500.00,M,M,M,M,KANW 011915Z AUTO 12007KT 10SM SCT075 12/00 A3016 RMK AO2 T01180002
ANW,2017-04-01 19:35,-99.9930,42.5792,54.10,32.20,43.17,110.00,11.00,0.00,30.15,M,10.00,14.00,SCT,M,M,M,7500.00,M,M,M,M,KANW 011935Z AUTO 11011G14KT 10SM SCT075 12/00 A3015 RMK AO2 T01230001
ANW,2017-04-01 19:55,-99.9930,42.5792,54.90,33.40,43.99,100.00,6.00,0.00,30.15,M,10.00,M,SCT,M,M,M,7500.00,M,M,M,M,KANW 011955Z AUTO 10006KT 10SM SCT075 13/01 A3015 RMK AO2 LTG DSNT S T01270008
ANW,2017-04-01 20:15,-99.9930,42.5792,54.70,33.10,43.79,80.00,5.00,0.00,30.14,M,10.00,M,SCT,M,M,M,7500.00,M,M,M,M,KANW 012015Z AUTO 08005KT 10SM SCT075 13/01 A3014 RMK AO2 T01260006
ANW,2017-04-01 20:35,-99.9930,42.5792,55.00,32.50,42.28,80.00,5.00,0.00,30.13,M,10.00,14.00,CLR,M,M,M,M,M,M,M,M,KANW 012035Z AUTO 08005G14KT 10SM CLR 13/00 A3013 RMK AO2 T01280003
ANW,2017-04-01 20:55,-99.9930,42.5792,55.00,32.00,41.44,110.00,4.00,0.00,30.13,M,10.00,M,SCT,M,M,M,8000.00,M,M,M,M,KANW 012055Z AUTO 11004KT 10SM SCT080 13/00 A3013 RMK AO2 T01280000
ANW,2017-04-01 21:15,-99.9930,42.5792,55.00,32.40,42.11,80.00,5.00,0.00,30.12,M,10.00,M,OVC,M,M,M,8000.00,M,M,M,M,KANW 012115Z AUTO 08005KT 10SM OVC080 13/00 A3012 RMK AO2 T01280002
ANW,2017-04-01 21:35,-99.9930,42.5792,55.00,32.70,42.62,80.00,7.00,0.00,30.10,M,10.00,M,SCT,M,M,M,8000.00,M,M,M,M,KANW 012135Z AUTO 08007KT 10SM SCT080 13/00 A3010 RMK AO2 T01280004
ANW,2017-04-01 21:55,-99.9930,42.5792,54.70,32.40,42.57,100.00,6.00,0.00,30.10,M,10.00,M,CLR,M,M,M,M,M,M,M,M,KANW 012155Z AUTO 10006KT 10SM CLR 13/00 A3010 RMK AO2 T01260002
ANW,2017-04-01 22:15,-99.9930,42.5792,53.80,32.50,44.17,90.00,6.00,0.00,30.09,M,10.00,M,CLR,M,M,M,M,M,M,M,M,KANW 012215Z AUTO 09006KT 10SM CLR 12/00 A3009 RMK AO2 T01210003
ANW,2017-04-01 22:35,-99.9930,42.5792,53.80,33.30,45.61,80.00,6.00,0.00,30.09,M,10.00,M,CLR,M,M,M,M,M,M,M,M,KANW 012235Z AUTO 08006KT 10SM CLR 12/01 A3009 RMK AO2 T01210007
ANW,2017-04-01 22:55,-99.9930,42.5792,54.30,34.30,46.61,100.00,9.00,0.00,30.09,M,10.00,M,CLR,M,M,M,M,M,M,M,M,KANW 012255Z AUTO 10009KT 10SM CLR 12/01 A3009 RMK AO2 T01240013
ANW,2017-04-01 23:15,-99.9930,42.5792,53.60,34.90,48.98,100.00,7.00,0.00,30.08,M,10.00,M,CLR,M,M,M,M,M,M,M,M,KANW 012315Z AUTO 10007KT 10SM CLR 12/02 A3008 RMK AO2 T01200016
ANW,2017-04-01 23:35,-99.9930,42.5792,52.70,35.10,51.03,110.00,9.00,0.00,30.07,M,10.00,M,CLR,M,M,M,M,M,M,M,M,KANW 012335Z AUTO 11009KT 10SM CLR 12/02 A3007 RMK AO2 T01150017
ANW,2017-04-01 23:55,-99.9930,42.5792,51.80,36.50,55.76,100.00,12.00,0.00,30.06,M,10.00,M,CLR,M,M,M,M,M,M,M,M,KANW 012355Z AUTO 10012KT 10SM CLR 11/03 A3006 RMK AO2 T01100025 10134 20093
