#DEBUG: Format Typ    -> comma
#DEBUG: Time Period   -> 2017-04-01 00:00:00+00:00 2017-04-02 00:00:00+00:00
#DEBUG: Time Zone     -> Etc/UTC
#DEBUG: Data Contact   -> daryl herzmann akrherz@iastate.edu 515-294-5978
#DEBUG: Entries Found -> -1
station,valid,lon,lat,tmpf, dwpf, relh, drct, sknt, p01i, alti, mslp, vsby, gust, skyc1, skyc2, skyc3, skyc4, skyl1, skyl2, skyl3, skyl4, presentwx, metar
ARB,2017-04-01 00:00,-83.7397,42.2240,M,M,M,M,M,M,29.83,M,7.00,17.00,OVC,M,M,M,800.00,M,M,M,M,KARB 010000Z AUTO /////G17KT 7SM OVC008 A2983 RMK MADISHF
ARB,2017-04-01 00:05,-83.7397,42.2240,M,M,M,320.00,10.00,M,29.83,M,5.00,M,OVC,M,M,M,800.00,M,M,M,BR,KARB 010005Z AUTO 32010KT 5SM BR OVC008 A2983 RMK MADISHF
ARB,2017-04-01 00:10,-83.7397,42.2240,M,M,M,320.00,11.00,M,29.83,M,5.00,M,OVC,M,M,M,800.00,M,M,M,BR,KARB 010010Z AUTO 32011KT 5SM BR OVC008 A2983 RMK MADISHF
ARB,2017-04-01 00:15,-83.7397,42.2240,M,M,M,320.00,11.00,M,29.83,M,5.00,M,OVC,M,M,M,800.00,M,M,M,BR,KARB 010015Z AUTO 32011KT 5SM BR OVC008 A2983 RMK MADISHF
ARB,2017-04-01 00:20,-83.7397,42.2240,M,M,M,320.00,9.00,M,29.83,M,5.00,M,OVC,M,M,M,800.00,M,M,M,BR,KARB 010020Z AUTO 32009KT 5SM BR OVC008 A2983 RMK MADISHF
ARB,2017-04-01 00:25,-83.7397,42.2240,M,M,M,330.00,9.00,M,29.84,M,5.00,M,OVC,M,M,M,800.00,M,M,M,BR,KARB 010025Z AUTO 33009KT 5SM BR OVC008 A2984 RMK MADISHF
ARB,2017-04-01 00:30,-83.7397,42.2240,M,M,M,320.00,11.00,M,29.84,M,4.00,M,OVC,M,M,M,800.00,M,M,M,BR,KARB 010030Z AUTO 32011KT 4SM BR OVC008 A2984 RMK CIG 7V11  MADISHF
ARB,2017-04-01 00:35,-83.7397,42.2240,M,M,M,320.00,8.00,M,29.85,M,4.00,M,OVC,M,M,M,800.00,M,M,M,BR,KARB 010035Z AUTO 32008KT 4SM BR OVC008 A2985 RMK CIG 6V13  MADISHF
ARB,2017-04-01 00:40,-83.7397,42.2240,M,M,M,300.00,9.00,M,29.85,M,4.00,M,BKN,OVC,M,M,700.00,1100.00,M,M,BR,KARB 010040Z AUTO 30009KT 4SM BR BKN007 OVC011 A2985 RMK CIG 6V10  MADISHF
ARB,2017-04-01 00:45,-83.7397,42.2240,M,M,M,310.00,9.00,M,29.85,M,5.00,M,BKN,OVC,M,M,700.00,1100.00,M,M,BR,KARB 010045Z AUTO 31009KT 5SM BR BKN007 OVC011 A2985 RMK CIG 6V9  MADISHF
ARB,2017-04-01 00:50,-83.7397,42.2240,M,M,M,320.00,11.00,M,29.85,M,6.00,M,OVC,M,M,M,900.00,M,M,M,BR,KARB 010050Z AUTO 32011KT 6SM BR OVC009 A2985 RMK CIG 6V13  MADISHF
ARB,2017-04-01 00:53,-83.7397,42.2240,37.00,36.00,96.13,320.00,9.00,0.00,29.86,1011.70,7.00,M,OVC,M,M,M,900.00,M,M,M,M,KARB 010053Z AUTO 32009KT 7SM OVC009 03/02 A2986 RMK AO2 CIG 006V013 SLP117 T00280022 $
ARB,2017-04-01 00:55,-83.7397,42.2240,M,M,M,320.00,9.00,M,29.86,M,7.00,M,OVC,M,M,M,900.00,M,M,M,M,KARB 010055Z AUTO 32009KT 7SM OVC009 A2986 RMK CIG 6V13  MADISHF
ARB,2017-04-01 01:00,-83.7397,42.2240,M,M,M,320.00,10.00,M,29.86,M,7.00,M,OVC,M,M,M,900.00,M,M,M,M,KARB 010100Z AUTO 32010KT 7SM OVC009 A2986 RMK CIG 6V13  MADISHF
ARB,2017-04-01 01:05,-83.7397,42.2240,M,M,M,320.00,9.00,M,29.86,M,6.00,M,OVC,M,M,M,800.00,M,M,M,BR,KARB 010105Z AUTO 32009KT 6SM BR OVC008 A2986 RMK CIG 6V11  MADISHF
ARB,2017-04-01 01:10,-83.7397,42.2240,M,M,M,330.00,12.00,M,29.86,M,6.00,M,OVC,M,M,M,800.00,M,M,M,BR,KARB 010110Z AUTO 33012KT 6SM BR OVC008 A2986 RMK MADISHF
ARB,2017-04-01 01:15,-83.7397,42.2240,M,M,M,320.00,9.00,M,29.87,M,5.00,M,OVC,M,M,M,800.00,M,M,M,BR,KARB 010115Z AUTO 32009KT 5SM BR OVC008 A2987 RMK CIG 7V12  MADISHF
ARB,2017-04-01 01:20,-83.7397,42.2240,M,M,M,310.00,9.00,M,29.87,M,5.00,M,OVC,M,M,M,800.00,M,M,M,BR,KARB 010120Z AUTO 31009KT 5SM BR OVC008 A2987 RMK CIG 6V12  MADISHF
ARB,2017-04-01 01:25,-83.7397,42.2240,M,M,M,330.00,11.00,M,29.87,M,5.00,M,OVC,M,M,M,800.00,M,M,M,BR,KARB 010125Z AUTO 33011KT 5SM BR OVC008 A2987 RMK CIG 6V12  MADISHF
ARB,2017-04-01 01:30,-83.7397,42.2240,M,M,M,330.00,10.00,M,29.87,M,5.00,M,OVC,M,M,M,800.00,M,M,M,BR,KARB 010130Z AUTO 33010KT 5SM BR OVC008 A2987 RMK CIG 6V12  MADISHF
ARB,2017-04-01 01:35,-83.7397,42.2240,M,M,M,330.00,10.00,M,29.87,M,5.00,M,OVC,M,M,M,800.00,M,M,M,BR,KARB 010135Z AUTO 33010KT 5SM BR OVC008 A2987 RMK CIG 6V12  MADISHF
ARB,2017-04-01 01:40,-83.7397,42.2240,M,M,M,330.00,10.00,M,29.88,M,5.00,M,OVC,M,M,M,800.00,M,M,M,BR,KARB 010140Z AUTO 33010KT 5SM BR OVC008 A2988 RMK CIG 6V12  MADISHF
ARB,2017-04-01 01:45,-83.7397,42.2240,M,M,M,330.00,11.00,M,29.88,M,6.00,M,OVC,M,M,M,800.00,M,M,M,BR,KARB 010145Z AUTO 33011KT 6SM BR OVC008 A2988 RMK CIG 6V11  MADISHF
ARB,2017-04-01 01:50,-83.7397,42.2240,M,M,M,320.00,9.00,M,29.88,M,9.00,M,OVC,M,M,M,700.00,M,M,M,M,KARB 010150Z AUTO 32009KT 9SM OVC007 A2988 RMK MADISHF
ARB,2017-04-01 01:53,-83.7397,42.2240,37.00,35.10,92.76,320.00,11.00,0.00,29.88,1012.50,10.00,M,OVC,M,M,M,700.00,M,M,M,M,KARB 010153Z AUTO 32011KT 10SM OVC007 03/02 A2988 RMK AO2 SLP125 T00280017 $
ARB,2017-04-01 01:55,-83.7397,42.2240,M,M,M,320.00,10.00,M,29.88,M,10.00,M,OVC,M,M,M,700.00,M,M,M,M,KARB 010155Z AUTO 32010KT 10SM OVC007 A2988 RMK MADISHF
ARB,2017-04-01 02:00,-83.7397,42.2240,M,M,M,310.00,9.00,M,29.89,M,10.00,M,OVC,M,M,M,700.00,M,M,M,M,KARB 010200Z AUTO 31009KT 10SM OVC007 A2989 RMK MADISHF
ARB,2017-04-01 02:05,-83.7397,42.2240,M,M,M,310.00,10.00,M,29.89,M,8.00,M,OVC,M,M,M,700.00,M,M,M,M,KARB 010205Z AUTO 31010KT 8SM OVC007 A2989 RMK MADISHF
ARB,2017-04-01 02:10,-83.7397,42.2240,M,M,M,310.00,10.00,M,29.89,M,9.00,15.00,OVC,M,M,M,700.00,M,M,M,M,KARB 010210Z AUTO 31010G15KT 9SM OVC007 A2989 RMK MADISHF
ARB,2017-04-01 02:15,-83.7397,42.2240,M,M,M,310.00,10.00,M,29.89,M,10.00,M,OVC,M,M,M,700.00,M,M,M,M,KARB 010215Z AUTO 31010KT 10SM OVC007 A2989 RMK MADISHF
ARB,2017-04-01 02:20,-83.7397,42.2240,M,M,M,320.00,12.00,M,29.90,M,10.00,M,OVC,M,M,M,600.00,M,M,M,M,KARB 010220Z AUTO 32012KT 10SM OVC006 A2990 RMK MADISHF
ARB,2017-04-01 02:25,-83.7397,42.2240,M,M,M,320.00,10.00,M,29.90,M,10.00,M,OVC,M,M,M,600.00,M,M,M,M,KARB 010225Z AUTO 32010KT 10SM OVC006 A2990 RMK MADISHF
ARB,2017-04-01 02:30,-83.7397,42.2240,M,M,M,330.00,9.00,M,29.90,M,10.00,M,OVC,M,M,M,600.00,M,M,M,M,KARB 010230Z AUTO 33009KT 10SM OVC006 A2990 RMK MADISHF
ARB,2017-04-01 02:35,-83.7397,42.2240,M,M,M,320.00,10.00,M,29.90,M,10.00,M,OVC,M,M,M,600.00,M,M,M,M,KARB 010235Z AUTO 32010KT 10SM OVC006 A2990 RMK MADISHF
ARB,2017-04-01 02:40,-83.7397,42.2240,M,M,M,320.00,10.00,M,29.90,M,10.00,M,OVC,M,M,M,600.00,M,M,M,M,KARB 010240Z AUTO 32010KT 10SM OVC006 A2990 RMK MADISHF
ARB,2017-04-01 02:45,-83.7397,42.2240,M,M,M,330.00,9.00,M,29.90,M,10.00,M,OVC,M,M,M,700.00,M,M,M,M,KARB 010245Z AUTO 33009KT 10SM OVC007 A2990 RMK MADISHF
ARB,2017-04-01 02:50,-83.7397,42.2240,M,M,M,320.00,8.00,M,29.90,M,10.00,M,OVC,M,M,M,700.00,M,M,M,M,KARB 010250Z AUTO 32008KT 10SM OVC007 A2990 RMK MADISHF
ARB,2017-04-01 02:53,-83.7397,42.2240,36.00,35.10,96.49,330.00,11.00,0.00,29.90,1013.10,10.00,M,OVC,M,M,M,700.00,M,M,M,M,KARB 010253Z AUTO 33011KT 10SM OVC007 02/02 A2990 RMK AO2 SLP131 T00220017 51025 $
ARB,2017-04-01 02:55,-83.7397,42.2240,M,M,M,330.00,12.00,M,29.90,M,10.00,M,OVC,M,M,M,700.00,M,M,M,M,KARB 010255Z AUTO 33012KT 10SM OVC007 A2990 RMK MADISHF
ARB,2017-04-01 03:00,-83.7397,42.2240,M,M,M,330.00,11.00,M,29.90,M,10.00,M,OVC,M,M,M,700.00,M,M,M,M,KARB 010300Z AUTO 33011KT 10SM OVC007 A2990 RMK MADISHF
ARB,2017-04-01 03:05,-83.7397,42.2240,M,M,M,330.00,9.00,M,29.90,M,10.00,14.00,OVC,M,M,M,700.00,M,M,M,M,KARB 010305Z AUTO 33009G14KT 10SM OVC007 A2990 RMK MADISHF
ARB,2017-04-01 03:10,-83.7397,42.2240,M,M,M,330.00,10.00,M,29.90,M,10.00,M,OVC,M,M,M,800.00,M,M,M,M,KARB 010310Z AUTO 33010KT 10SM OVC008 A2990 RMK MADISHF
ARB,2017-04-01 03:15,-83.7397,42.2240,M,M,M,320.00,12.00,M,29.90,M,10.00,M,OVC,M,M,M,800.00,M,M,M,M,KARB 010315Z AUTO 32012KT 10SM OVC008 A2990 RMK MADISHF
ARB,2017-04-01 03:20,-83.7397,42.2240,M,M,M,320.00,9.00,M,29.91,M,10.00,M,OVC,M,M,M,900.00,M,M,M,M,KARB 010320Z AUTO 32009KT 10SM OVC009 A2991 RMK MADISHF
ARB,2017-04-01 03:25,-83.7397,42.2240,M,M,M,330.00,9.00,M,29.91,M,10.00,M,OVC,M,M,M,900.00,M,M,M,M,KARB 010325Z AUTO 33009KT 10SM OVC009 A2991 RMK MADISHF
ARB,2017-04-01 03:30,-83.7397,42.2240,M,M,M,340.00,9.00,0.00,29.91,M,10.00,M,OVC,M,M,M,900.00,M,M,M,UP,KARB 010330Z AUTO 34009KT 10SM UP OVC009 A2991 RMK P0000 MADISHF
ARB,2017-04-01 03:35,-83.7397,42.2240,M,M,M,320.00,11.00,M,29.91,M,10.00,M,OVC,M,M,M,900.00,M,M,M,-RA,KARB 010335Z AUTO 32011KT 10SM -RA OVC009 A2991 RMK MADISHF
ARB,2017-04-01 03:40,-83.7397,42.2240,M,M,M,320.00,11.00,M,29.91,M,10.00,M,OVC,M,M,M,900.00,M,M,M,-RA,KARB 010340Z AUTO 32011KT 10SM -RA OVC009 A2991 RMK MADISHF
ARB,2017-04-01 03:45,-83.7397,42.2240,M,M,M,330.00,10.00,M,29.91,M,10.00,16.00,OVC,M,M,M,900.00,M,M,M,-RA,KARB 010345Z AUTO 33010G16KT 10SM -RA OVC009 A2991 RMK MADISHF
ARB,2017-04-01 03:50,-83.7397,42.2240,M,M,M,330.00,11.00,M,29.91,M,10.00,M,OVC,M,M,M,800.00,M,M,M,M,KARB 010350Z AUTO 33011KT 10SM OVC008 A2991 RMK MADISHF
ARB,2017-04-01 03:53,-83.7397,42.2240,36.00,34.00,92.35,330.00,9.00,0.00,29.91,1013.50,10.00,17.00,OVC,M,M,M,800.00,M,M,M,M,KARB 010353Z AUTO 33009G17KT 10SM OVC008 02/01 A2991 RMK AO2 UPB30E49RAB34E50 SLP135 P0000 T00220011 $
ARB,2017-04-01 03:55,-83.7397,42.2240,M,M,M,330.00,7.00,M,29.91,M,10.00,M,OVC,M,M,M,800.00,M,M,M,M,KARB 010355Z AUTO 33007KT 10SM OVC008 A2991 RMK MADISHF
ARB,2017-04-01 04:00,-83.7397,42.2240,M,M,M,320.00,10.00,M,29.91,M,10.00,M,OVC,M,M,M,900.00,M,M,M,M,KARB 010400Z AUTO 32010KT 10SM OVC009 A2991 RMK MADISHF
ARB,2017-04-01 04:05,-83.7397,42.2240,M,M,M,330.00,8.00,M,29.91,M,10.00,M,OVC,M,M,M,900.00,M,M,M,M,KARB 010405Z AUTO 33008KT 10SM OVC009 A2991 RMK MADISHF
ARB,2017-04-01 04:10,-83.7397,42.2240,M,M,M,330.00,8.00,M,29.91,M,10.00,M,OVC,M,M,M,900.00,M,M,M,M,KARB 010410Z AUTO 33008KT 10SM OVC009 A2991 RMK MADISHF
ARB,2017-04-01 04:15,-83.7397,42.2240,M,M,M,320.00,9.00,M,29.91,M,10.00,M,OVC,M,M,M,900.00,M,M,M,M,KARB 010415Z AUTO 32009KT 10SM OVC009 A2991 RMK MADISHF
ARB,2017-04-01 04:20,-83.7397,42.2240,M,M,M,330.00,11.00,M,29.91,M,10.00,M,OVC,M,M,M,900.00,M,M,M,M,KARB 010420Z AUTO 33011KT 10SM OVC009 A2991 RMK MADISHF
ARB,2017-04-01 04:25,-83.7397,42.2240,M,M,M,320.00,8.00,M,29.92,M,10.00,M,OVC,M,M,M,900.00,M,M,M,M,KARB 010425Z AUTO 32008KT 10SM OVC009 A2992 RMK MADISHF
ARB,2017-04-01 04:30,-83.7397,42.2240,M,M,M,330.00,8.00,M,29.92,M,10.00,M,OVC,M,M,M,900.00,M,M,M,M,KARB 010430Z AUTO 33008KT 10SM OVC009 A2992 RMK MADISHF
ARB,2017-04-01 04:35,-83.7397,42.2240,M,M,M,320.00,9.00,M,29.92,M,10.00,M,OVC,M,M,M,900.00,M,M,M,M,KARB 010435Z AUTO 32009KT 10SM OVC009 A2992 RMK MADISHF
ARB,2017-04-01 04:40,-83.7397,42.2240,M,M,M,330.00,7.00,M,29.92,M,10.00,M,OVC,M,M,M,999.00,M,M,M,M,KARB 010440Z AUTO 33007KT 10SM OVC009 A2992 RMK MADISHF
ARB,2017-04-01 04:45,-83.7397,42.2240,M,M,M,330.00,8.00,M,29.92,M,10.00,M,OVC,M,M,M,999.00,M,M,M,M,KARB 010445Z AUTO 33008KT 10SM OVC009 A2992 RMK MADISHF
ARB,2017-04-01 04:46,-83.7397,42.2240,36.00,34.00,92.35,330.00,8.00,0.00,29.92,M,10.00,M,OVC,M,M,M,1000.00,M,M,M,M,KARB 010446Z AUTO 33008KT 10SM OVC010 02/01 A2992 RMK AO2 T00220011 $
ARB,2017-04-01 04:50,-83.7397,42.2240,M,M,M,320.00,9.00,M,29.93,M,10.00,M,OVC,M,M,M,999.00,M,M,M,M,KARB 010450Z AUTO 32009KT 10SM OVC009 A2993 RMK MADISHF
ARB,2017-04-01 04:53,-83.7397,42.2240,36.00,34.00,92.35,310.00,8.00,0.00,29.93,1014.10,10.00,M,OVC,M,M,M,1000.00,M,M,M,M,KARB 010453Z AUTO 31008KT 10SM OVC010 02/01 A2993 RMK AO2 SLP141 T00220011 400560022 $
ARB,2017-04-01 04:55,-83.7397,42.2240,M,M,M,320.00,7.00,M,29.93,M,10.00,M,OVC,M,M,M,999.00,M,M,M,M,KARB 010455Z AUTO 32007KT 10SM OVC009 A2993 RMK MADISHF
ARB,2017-04-01 05:00,-83.7397,42.2240,M,M,M,310.00,10.00,M,29.93,M,10.00,M,OVC,M,M,M,999.00,M,M,M,M,KARB 010500Z AUTO 31010KT 10SM OVC009 A2993 RMK MADISHF
ARB,2017-04-01 05:05,-83.7397,42.2240,M,M,M,330.00,8.00,M,29.93,M,10.00,M,OVC,M,M,M,999.00,M,M,M,M,KARB 010505Z AUTO 33008KT 10SM OVC009 A2993 RMK MADISHF
ARB,2017-04-01 05:10,-83.7397,42.2240,M,M,M,310.00,8.00,M,29.94,M,10.00,M,OVC,M,M,M,999.00,M,M,M,M,KARB 010510Z AUTO 31008KT 10SM OVC009 A2994 RMK MADISHF
ARB,2017-04-01 05:15,-83.7397,42.2240,M,M,M,320.00,8.00,M,29.94,M,10.00,M,OVC,M,M,M,1100.00,M,M,M,M,KARB 010515Z AUTO 32008KT 10SM OVC011 A2994 RMK MADISHF
ARB,2017-04-01 05:20,-83.7397,42.2240,M,M,M,320.00,9.00,M,29.94,M,10.00,M,OVC,M,M,M,1100.00,M,M,M,M,KARB 010520Z AUTO 32009KT 10SM OVC011 A2994 RMK MADISHF
ARB,2017-04-01 05:25,-83.7397,42.2240,M,M,M,310.00,8.00,M,29.95,M,10.00,M,OVC,M,M,M,1100.00,M,M,M,M,KARB 010525Z AUTO 31008KT 10SM OVC011 A2995 RMK MADISHF
ARB,2017-04-01 05:30,-83.7397,42.2240,M,M,M,320.00,10.00,M,29.95,M,10.00,M,OVC,M,M,M,1100.00,M,M,M,M,KARB 010530Z AUTO 32010KT 10SM OVC011 A2995 RMK MADISHF
ARB,2017-04-01 05:35,-83.7397,42.2240,M,M,M,320.00,9.00,M,29.95,M,10.00,M,OVC,M,M,M,1100.00,M,M,M,M,KARB 010535Z AUTO 32009KT 10SM OVC011 A2995 RMK MADISHF
ARB,2017-04-01 05:40,-83.7397,42.2240,M,M,M,310.00,11.00,M,29.95,M,10.00,M,OVC,M,M,M,1100.00,M,M,M,M,KARB 010540Z AUTO 31011KT 10SM OVC011 A2995 RMK MADISHF
ARB,2017-04-01 05:45,-83.7397,42.2240,M,M,M,320.00,10.00,M,29.95,M,10.00,M,OVC,M,M,M,1100.00,M,M,M,M,KARB 010545Z AUTO 32010KT 10SM OVC011 A2995 RMK MADISHF
ARB,2017-04-01 05:50,-83.7397,42.2240,M,M,M,320.00,11.00,M,29.96,M,10.00,M,OVC,M,M,M,1100.00,M,M,M,M,KARB 010550Z AUTO 32011KT 10SM OVC011 A2996 RMK MADISHF
ARB,2017-04-01 05:53,-83.7397,42.2240,36.00,33.10,89.09,310.00,11.00,0.00,29.96,1015.10,10.00,M,OVC,M,M,M,1100.00,M,M,M,M,KARB 010553Z AUTO 31011KT 10SM OVC011 02/01 A2996 RMK AO2 SLP151 60000 T00220006 10039 20022 53020 $
ARB,2017-04-01 05:55,-83.7397,42.2240,M,M,M,320.00,10.00,M,29.96,M,10.00,M,OVC,M,M,M,1100.00,M,M,M,M,KARB 010555Z AUTO 32010KT 10SM OVC011 A2996 RMK MADISHF
ARB,2017-04-01 06:00,-83.7397,42.2240,M,M,M,310.00,10.00,M,29.96,M,10.00,M,OVC,M,M,M,1100.00,M,M,M,M,KARB 010600Z AUTO 31010KT 10SM OVC011 A2996 RMK MADISHF
ARB,2017-04-01 06:05,-83.7397,42.2240,M,M,M,320.00,11.00,M,29.96,M,10.00,M,OVC,M,M,M,1100.00,M,M,M,M,KARB 010605Z AUTO 32011KT 10SM OVC011 A2996 RMK MADISHF
ARB,2017-04-01 06:10,-83.7397,42.2240,M,M,M,310.00,9.00,M,29.96,M,10.00,M,OVC,M,M,M,1100.00,M,M,M,M,KARB 010610Z AUTO 31009KT 10SM OVC011 A2996 RMK MADISHF
ARB,2017-04-01 06:15,-83.7397,42.2240,M,M,M,310.00,12.00,M,29.97,M,10.00,M,OVC,M,M,M,1100.00,M,M,M,M,KARB 010615Z AUTO 31012KT 10SM OVC011 A2997 RMK MADISHF
ARB,2017-04-01 06:20,-83.7397,42.2240,M,M,M,320.00,11.00,M,29.97,M,10.00,M,OVC,M,M,M,1100.00,M,M,M,M,KARB 010620Z AUTO 32011KT 10SM OVC011 A2997 RMK MADISHF
ARB,2017-04-01 06:25,-83.7397,42.2240,M,M,M,320.00,11.00,M,29.97,M,10.00,M,OVC,M,M,M,1100.00,M,M,M,M,KARB 010625Z AUTO 32011KT 10SM OVC011 A2997 RMK MADISHF
ARB,2017-04-01 06:30,-83.7397,42.2240,M,M,M,M,M,M,29.97,M,10.00,M,OVC,M,M,M,1200.00,M,M,M,M,KARB 010630Z AUTO /////KT 10SM OVC012 A2997 RMK MADISHF
ARB,2017-04-01 06:35,-83.7397,42.2240,M,M,M,320.00,12.00,M,29.97,M,10.00,M,OVC,M,M,M,1200.00,M,M,M,M,KARB 010635Z AUTO 32012KT 10SM OVC012 A2997 RMK MADISHF
ARB,2017-04-01 06:40,-83.7397,42.2240,M,M,M,320.00,10.00,M,29.97,M,10.00,M,OVC,M,M,M,1200.00,M,M,M,M,KARB 010640Z AUTO 32010KT 10SM OVC012 A2997 RMK MADISHF
ARB,2017-04-01 06:45,-83.7397,42.2240,M,M,M,320.00,7.00,M,29.96,M,10.00,M,OVC,M,M,M,1400.00,M,M,M,M,KARB 010645Z AUTO 32007KT 10SM OVC014 A2996 RMK MADISHF
ARB,2017-04-01 06:50,-83.7397,42.2240,M,M,M,310.00,11.00,M,29.97,M,10.00,M,OVC,M,M,M,1400.00,M,M,M,M,KARB 010650Z AUTO 31011KT 10SM OVC014 A2997 RMK MADISHF
ARB,2017-04-01 06:53,-83.7397,42.2240,36.00,33.10,89.09,320.00,7.00,0.00,29.96,1015.20,10.00,M,OVC,M,M,M,1400.00,M,M,M,M,KARB 010653Z AUTO 32007KT 10SM OVC014 02/01 A2996 RMK AO2 SLP152 T00220006 $
ARB,2017-04-01 06:55,-83.7397,42.2240,M,M,M,310.00,8.00,M,29.96,M,10.00,M,OVC,M,M,M,1400.00,M,M,M,M,KARB 010655Z AUTO 31008KT 10SM OVC014 A2996 RMK MADISHF
ARB,2017-04-01 07:00,-83.7397,42.2240,M,M,M,320.00,8.00,M,29.97,M,10.00,M,OVC,M,M,M,1400.00,M,M,M,M,KARB 010700Z AUTO 32008KT 10SM OVC014 A2997 RMK MADISHF
ARB,2017-04-01 07:05,-83.7397,42.2240,M,M,M,310.00,8.00,M,29.97,M,10.00,M,OVC,M,M,M,1400.00,M,M,M,M,KARB 010705Z AUTO 31008KT 10SM OVC014 A2997 RMK MADISHF
ARB,2017-04-01 07:10,-83.7397,42.2240,M,M,M,320.00,9.00,M,29.97,M,10.00,M,OVC,M,M,M,1400.00,M,M,M,M,KARB 010710Z AUTO 32009KT 10SM OVC014 A2997 RMK MADISHF
ARB,2017-04-01 07:15,-83.7397,42.2240,M,M,M,320.00,9.00,M,29.97,M,10.00,M,OVC,M,M,M,1400.00,M,M,M,M,KARB 010715Z AUTO 32009KT 10SM OVC014 A2997 RMK MADISHF
ARB,2017-04-01 07:20,-83.7397,42.2240,M,M,M,310.00,8.00,M,29.97,M,10.00,M,OVC,M,M,M,1400.00,M,M,M,M,KARB 010720Z AUTO 31008KT 10SM OVC014 A2997 RMK MADISHF
ARB,2017-04-01 07:25,-83.7397,42.2240,M,M,M,320.00,8.00,M,29.98,M,10.00,M,OVC,M,M,M,1400.00,M,M,M,M,KARB 010725Z AUTO 32008KT 10SM OVC014 A2998 RMK MADISHF
ARB,2017-04-01 07:30,-83.7397,42.2240,M,M,M,310.00,9.00,M,29.98,M,10.00,M,OVC,M,M,M,1400.00,M,M,M,M,KARB 010730Z AUTO 31009KT 10SM OVC014 A2998 RMK MADISHF
ARB,2017-04-01 07:35,-83.7397,42.2240,M,M,M,310.00,9.00,M,29.98,M,10.00,M,OVC,M,M,M,1400.00,M,M,M,M,KARB 010735Z AUTO 31009KT 10SM OVC014 A2998 RMK MADISHF
ARB,2017-04-01 07:40,-83.7397,42.2240,M,M,M,310.00,11.00,M,29.99,M,10.00,M,OVC,M,M,M,1300.00,M,M,M,M,KARB 010740Z AUTO 31011KT 10SM OVC013 A2999 RMK MADISHF
ARB,2017-04-01 07:45,-83.7397,42.2240,M,M,M,310.00,9.00,M,29.98,M,10.00,M,OVC,M,M,M,1300.00,M,M,M,M,KARB 010745Z AUTO 31009KT 10SM OVC013 A2998 RMK MADISHF
ARB,2017-04-01 07:50,-83.7397,42.2240,M,M,M,310.00,10.00,M,29.98,M,10.00,M,OVC,M,M,M,1300.00,M,M,M,M,KARB 010750Z AUTO 31010KT 10SM OVC013 A2998 RMK MADISHF
ARB,2017-04-01 07:53,-83.7397,42.2240,36.00,33.10,89.09,310.00,10.00,0.00,29.99,1016.00,10.00,M,OVC,M,M,M,1300.00,M,M,M,M,KARB 010753Z AUTO 31010KT 10SM OVC013 02/01 A2999 RMK AO2 SLP160 T00220006 $
ARB,2017-04-01 07:55,-83.7397,42.2240,M,M,M,310.00,8.00,M,29.99,M,10.00,M,OVC,M,M,M,1300.00,M,M,M,M,KARB 010755Z AUTO 31008KT 10SM OVC013 A2999 RMK MADISHF
ARB,2017-04-01 08:00,-83.7397,42.2240,M,M,M,310.00,10.00,M,29.99,M,10.00,M,OVC,M,M,M,1200.00,M,M,M,M,KARB 010800Z AUTO 31010KT 10SM OVC012 A2999 RMK MADISHF
ARB,2017-04-01 08:05,-83.7397,42.2240,M,M,M,310.00,9.00,M,30.00,M,10.00,M,OVC,M,M,M,1200.00,M,M,M,M,KARB 010805Z AUTO 31009KT 10SM OVC012 A3000 RMK MADISHF
ARB,2017-04-01 08:10,-83.7397,42.2240,M,M,M,310.00,9.00,M,30.00,M,10.00,M,OVC,M,M,M,1200.00,M,M,M,M,KARB 010810Z AUTO 31009KT 10SM OVC012 A3000 RMK MADISHF
ARB,2017-04-01 08:15,-83.7397,42.2240,M,M,M,320.00,9.00,M,30.00,M,10.00,14.00,OVC,M,M,M,1200.00,M,M,M,M,KARB 010815Z AUTO 32009G14KT 10SM OVC012 A3000 RMK MADISHF
ARB,2017-04-01 08:20,-83.7397,42.2240,M,M,M,310.00,11.00,M,30.00,M,10.00,M,OVC,M,M,M,1200.00,M,M,M,M,KARB 010820Z AUTO 31011KT 10SM OVC012 A3000 RMK MADISHF
ARB,2017-04-01 08:25,-83.7397,42.2240,M,M,M,310.00,8.00,M,30.00,M,10.00,M,OVC,M,M,M,1200.00,M,M,M,M,KARB 010825Z AUTO 31008KT 10SM OVC012 A3000 RMK MADISHF
ARB,2017-04-01 08:30,-83.7397,42.2240,M,M,M,320.00,9.00,M,30.00,M,10.00,M,OVC,M,M,M,1200.00,M,M,M,M,KARB 010830Z AUTO 32009KT 10SM OVC012 A3000 RMK MADISHF
ARB,2017-04-01 08:35,-83.7397,42.2240,M,M,M,320.00,8.00,M,30.00,M,10.00,M,OVC,M,M,M,1200.00,M,M,M,M,KARB 010835Z AUTO 32008KT 10SM OVC012 A3000 RMK MADISHF
ARB,2017-04-01 08:40,-83.7397,42.2240,M,M,M,320.00,9.00,M,30.00,M,10.00,M,OVC,M,M,M,1200.00,M,M,M,M,KARB 010840Z AUTO 32009KT 10SM OVC012 A3000 RMK MADISHF
ARB,2017-04-01 08:45,-83.7397,42.2240,M,M,M,320.00,11.00,M,30.01,M,10.00,M,OVC,M,M,M,1200.00,M,M,M,M,KARB 010845Z AUTO 32011KT 10SM OVC012 A3001 RMK MADISHF
ARB,2017-04-01 08:50,-83.7397,42.2240,M,M,M,310.00,9.00,M,30.01,M,10.00,M,OVC,M,M,M,1300.00,M,M,M,M,KARB 010850Z AUTO 31009KT 10SM OVC013 A3001 RMK MADISHF
ARB,2017-04-01 08:53,-83.7397,42.2240,36.00,33.10,89.09,320.00,9.00,0.00,30.01,1016.90,10.00,M,OVC,M,M,M,1300.00,M,M,M,M,KARB 010853Z AUTO 32009KT 10SM OVC013 02/01 A3001 RMK AO2 SLP169 T00220006 53018 $
ARB,2017-04-01 08:55,-83.7397,42.2240,M,M,M,320.00,9.00,M,30.01,M,10.00,M,OVC,M,M,M,1300.00,M,M,M,M,KARB 010855Z AUTO 32009KT 10SM OVC013 A3001 RMK MADISHF
ARB,2017-04-01 09:00,-83.7397,42.2240,M,M,M,310.00,8.00,M,30.01,M,10.00,M,OVC,M,M,M,1300.00,M,M,M,M,KARB 010900Z AUTO 31008KT 10SM OVC013 A3001 RMK MADISHF
ARB,2017-04-01 09:05,-83.7397,42.2240,M,M,M,310.00,8.00,M,30.01,M,10.00,M,OVC,M,M,M,1300.00,M,M,M,M,KARB 010905Z AUTO 31008KT 10SM OVC013 A3001 RMK MADISHF
ARB,2017-04-01 09:10,-83.7397,42.2240,M,M,M,320.00,9.00,M,30.02,M,10.00,M,OVC,M,M,M,1300.00,M,M,M,M,KARB 010910Z AUTO 32009KT 10SM OVC013 A3002 RMK MADISHF
ARB,2017-04-01 09:15,-83.7397,42.2240,M,M,M,310.00,9.00,M,30.02,M,10.00,M,OVC,M,M,M,1300.00,M,M,M,M,KARB 010915Z AUTO 31009KT 10SM OVC013 A3002 RMK MADISHF
ARB,2017-04-01 09:20,-83.7397,42.2240,M,M,M,320.00,8.00,M,30.02,M,10.00,M,OVC,M,M,M,1300.00,M,M,M,M,KARB 010920Z AUTO 32008KT 10SM OVC013 A3002 RMK MADISHF
ARB,2017-04-01 09:25,-83.7397,42.2240,M,M,M,320.00,9.00,M,30.02,M,10.00,M,OVC,M,M,M,1300.00,M,M,M,M,KARB 010925Z AUTO 32009KT 10SM OVC013 A3002 RMK MADISHF
ARB,2017-04-01 09:30,-83.7397,42.2240,M,M,M,330.00,9.00,M,30.02,M,10.00,M,OVC,M,M,M,1300.00,M,M,M,M,KARB 010930Z AUTO 33009KT 10SM OVC013 A3002 RMK MADISHF
ARB,2017-04-01 09:35,-83.7397,42.2240,M,M,M,320.00,7.00,M,30.02,M,10.00,M,OVC,M,M,M,1300.00,M,M,M,M,KARB 010935Z AUTO 32007KT 10SM OVC013 A3002 RMK MADISHF
ARB,2017-04-01 09:40,-83.7397,42.2240,M,M,M,320.00,9.00,M,30.03,M,10.00,M,OVC,M,M,M,1300.00,M,M,M,M,KARB 010940Z AUTO 32009KT 10SM OVC013 A3003 RMK MADISHF
ARB,2017-04-01 09:45,-83.7397,42.2240,M,M,M,320.00,8.00,M,30.03,M,10.00,M,OVC,M,M,M,1300.00,M,M,M,M,KARB 010945Z AUTO 32008KT 10SM OVC013 A3003 RMK MADISHF
ARB,2017-04-01 09:50,-83.7397,42.2240,M,M,M,310.00,12.00,M,30.04,M,10.00,M,OVC,M,M,M,1300.00,M,M,M,M,KARB 010950Z AUTO 31012KT 10SM OVC013 A3004 RMK MADISHF
ARB,2017-04-01 09:53,-83.7397,42.2240,36.00,33.10,89.09,310.00,12.00,0.00,30.04,1017.80,10.00,18.00,OVC,M,M,M,1300.00,M,M,M,M,KARB 010953Z AUTO 31012G18KT 10SM OVC013 02/01 A3004 RMK AO2 SLP178 T00220006 $
ARB,2017-04-01 09:55,-83.7397,42.2240,M,M,M,M,M,M,30.04,M,10.00,M,OVC,M,M,M,1300.00,M,M,M,M,KARB 010955Z AUTO /////KT 10SM OVC013 A3004 RMK MADISHF
ARB,2017-04-01 10:00,-83.7397,42.2240,M,M,M,340.00,10.00,M,30.04,M,10.00,M,OVC,M,M,M,1400.00,M,M,M,M,KARB 011000Z AUTO 34010KT 10SM OVC014 A3004 RMK MADISHF
ARB,2017-04-01 10:05,-83.7397,42.2240,M,M,M,330.00,11.00,M,30.04,M,10.00,M,OVC,M,M,M,1400.00,M,M,M,M,KARB 011005Z AUTO 33011KT 10SM OVC014 A3004 RMK MADISHF
ARB,2017-04-01 10:10,-83.7397,42.2240,M,M,M,320.00,8.00,M,30.04,M,10.00,M,OVC,M,M,M,1400.00,M,M,M,M,KARB 011010Z AUTO 32008KT 10SM OVC014 A3004 RMK MADISHF
ARB,2017-04-01 10:15,-83.7397,42.2240,M,M,M,320.00,11.00,M,30.04,M,10.00,M,OVC,M,M,M,1400.00,M,M,M,M,KARB 011015Z AUTO 32011KT 10SM OVC014 A3004 RMK MADISHF
ARB,2017-04-01 10:20,-83.7397,42.2240,M,M,M,320.00,10.00,M,30.04,M,10.00,M,OVC,M,M,M,1400.00,M,M,M,M,KARB 011020Z AUTO 32010KT 10SM OVC014 A3004 RMK MADISHF
ARB,2017-04-01 10:25,-83.7397,42.2240,M,M,M,330.00,8.00,M,30.05,M,10.00,M,OVC,M,M,M,1400.00,M,M,M,M,KARB 011025Z AUTO 33008KT 10SM OVC014 A3005 RMK MADISHF
ARB,2017-04-01 10:30,-83.7397,42.2240,M,M,M,320.00,14.00,M,30.05,M,10.00,M,OVC,M,M,M,1400.00,M,M,M,M,KARB 011030Z AUTO 32014KT 10SM OVC014 A3005 RMK MADISHF
ARB,2017-04-01 10:35,-83.7397,42.2240,M,M,M,320.00,11.00,M,30.05,M,10.00,M,OVC,M,M,M,1400.00,M,M,M,M,KARB 011035Z AUTO 32011KT 10SM OVC014 A3005 RMK MADISHF
ARB,2017-04-01 10:40,-83.7397,42.2240,M,M,M,320.00,11.00,M,30.05,M,10.00,M,OVC,M,M,M,1400.00,M,M,M,M,KARB 011040Z AUTO 32011KT 10SM OVC014 A3005 RMK MADISHF
ARB,2017-04-01 10:45,-83.7397,42.2240,M,M,M,330.00,10.00,M,30.06,M,10.00,M,OVC,M,M,M,1400.00,M,M,M,M,KARB 011045Z AUTO 33010KT 10SM OVC014 A3006 RMK MADISHF
ARB,2017-04-01 10:50,-83.7397,42.2240,M,M,M,330.00,9.00,M,30.06,M,10.00,M,OVC,M,M,M,1400.00,M,M,M,M,KARB 011050Z AUTO 33009KT 10SM OVC014 A3006 RMK MADISHF
ARB,2017-04-01 10:53,-83.7397,42.2240,36.00,32.00,85.23,330.00,8.00,0.00,30.06,1018.70,10.00,M,OVC,M,M,M,1400.00,M,M,M,M,KARB 011053Z AUTO 33008KT 10SM OVC014 02/00 A3006 RMK AO2 SLP187 T00220000 $
ARB,2017-04-01 10:55,-83.7397,42.2240,M,M,M,320.00,7.00,M,30.07,M,10.00,M,OVC,M,M,M,1400.00,M,M,M,M,KARB 011055Z AUTO 32007KT 10SM OVC014 A3007 RMK MADISHF
ARB,2017-04-01 11:00,-83.7397,42.2240,M,M,M,320.00,10.00,M,30.07,M,10.00,M,OVC,M,M,M,1400.00,M,M,M,M,KARB 011100Z AUTO 32010KT 10SM OVC014 A3007 RMK MADISHF
ARB,2017-04-01 11:05,-83.7397,42.2240,M,M,M,320.00,8.00,M,30.07,M,10.00,M,OVC,M,M,M,1500.00,M,M,M,M,KARB 011105Z AUTO 32008KT 10SM OVC015 A3007 RMK MADISHF
ARB,2017-04-01 11:07,-83.7397,42.2240,36.00,30.90,81.53,320.00,10.00,0.00,30.08,M,10.00,M,OVC,M,M,M,1500.00,M,M,M,M,KARB 011107Z AUTO 32010KT 10SM OVC015 02/M01 A3008 RMK AO2 T00221006 $
ARB,2017-04-01 11:10,-83.7397,42.2240,M,M,M,320.00,11.00,M,30.08,M,10.00,M,OVC,M,M,M,1500.00,M,M,M,M,KARB 011110Z AUTO 32011KT 10SM OVC015 A3008 RMK MADISHF
ARB,2017-04-01 11:15,-83.7397,42.2240,M,M,M,330.00,9.00,M,30.08,M,10.00,M,OVC,M,M,M,1600.00,M,M,M,M,KARB 011115Z AUTO 33009KT 10SM OVC016 A3008 RMK MADISHF
ARB,2017-04-01 11:20,-83.7397,42.2240,M,M,M,320.00,9.00,M,30.09,M,10.00,M,OVC,M,M,M,1600.00,M,M,M,M,KARB 011120Z AUTO 32009KT 10SM OVC016 A3009 RMK MADISHF
ARB,2017-04-01 11:25,-83.7397,42.2240,M,M,M,M,M,M,30.09,M,10.00,M,OVC,M,M,M,1600.00,M,M,M,M,KARB 011125Z AUTO /////KT 10SM OVC016 A3009 RMK MADISHF
ARB,2017-04-01 11:30,-83.7397,42.2240,M,M,M,320.00,8.00,M,30.09,M,10.00,M,OVC,M,M,M,1600.00,M,M,M,M,KARB 011130Z AUTO 32008KT 10SM OVC016 A3009 RMK MADISHF
ARB,2017-04-01 11:35,-83.7397,42.2240,M,M,M,330.00,12.00,M,30.10,M,10.00,17.00,OVC,M,M,M,1699.00,M,M,M,M,KARB 011135Z AUTO 33012G17KT 10SM OVC016 A3010 RMK MADISHF
ARB,2017-04-01 11:40,-83.7397,42.2240,M,M,M,330.00,8.00,M,30.10,M,10.00,M,OVC,M,M,M,1699.00,M,M,M,M,KARB 011140Z AUTO 33008KT 10SM OVC016 A3010 RMK MADISHF
ARB,2017-04-01 11:45,-83.7397,42.2240,M,M,M,320.00,8.00,M,30.11,M,10.00,M,OVC,M,M,M,1699.00,M,M,M,M,KARB 011145Z AUTO 32008KT 10SM OVC016 A3011 RMK MADISHF
ARB,2017-04-01 11:50,-83.7397,42.2240,M,M,M,320.00,7.00,M,30.11,M,10.00,M,OVC,M,M,M,1699.00,M,M,M,M,KARB 011150Z AUTO 32007KT 10SM OVC016 A3011 RMK MADISHF
ARB,2017-04-01 11:53,-83.7397,42.2240,36.00,30.90,81.53,320.00,10.00,0.00,30.11,1020.20,10.00,M,OVC,M,M,M,1700.00,M,M,M,M,KARB 011153Z AUTO 32010KT 10SM OVC017 02/M01 A3011 RMK AO2 SLP202 T00221006 10022 20022 53030 $
ARB,2017-04-01 11:55,-83.7397,42.2240,M,M,M,310.00,9.00,M,30.11,M,10.00,M,OVC,M,M,M,1699.00,M,M,M,M,KARB 011155Z AUTO 31009KT 10SM OVC016 A3011 RMK MADISHF
ARB,2017-04-01 12:00,-83.7397,42.2240,M,M,M,320.00,8.00,M,30.11,M,10.00,M,OVC,M,M,M,1699.00,M,M,M,M,KARB 011200Z AUTO 32008KT 10SM OVC016 A3011 RMK MADISHF
ARB,2017-04-01 12:05,-83.7397,42.2240,M,M,M,320.00,9.00,M,30.11,M,10.00,M,OVC,M,M,M,1699.00,M,M,M,M,KARB 011205Z AUTO 32009KT 10SM OVC016 A3011 RMK MADISHF
ARB,2017-04-01 12:10,-83.7397,42.2240,M,M,M,320.00,8.00,M,30.11,M,10.00,M,OVC,M,M,M,1699.00,M,M,M,M,KARB 011210Z AUTO 32008KT 10SM OVC016 A3011 RMK MADISHF
ARB,2017-04-01 12:15,-83.7397,42.2240,M,M,M,310.00,8.00,M,30.11,M,10.00,M,OVC,M,M,M,1699.00,M,M,M,M,KARB 011215Z AUTO 31008KT 10SM OVC016 A3011 RMK MADISHF
ARB,2017-04-01 12:20,-83.7397,42.2240,M,M,M,340.00,9.00,M,30.12,M,10.00,M,OVC,M,M,M,1600.00,M,M,M,M,KARB 011220Z AUTO 34009KT 10SM OVC016 A3012 RMK MADISHF
ARB,2017-04-01 12:25,-83.7397,42.2240,M,M,M,320.00,7.00,M,30.12,M,10.00,M,OVC,M,M,M,1600.00,M,M,M,M,KARB 011225Z AUTO 32007KT 10SM OVC016 A3012 RMK MADISHF
ARB,2017-04-01 12:30,-83.7397,42.2240,M,M,M,320.00,10.00,M,30.13,M,10.00,M,OVC,M,M,M,1600.00,M,M,M,M,KARB 011230Z AUTO 32010KT 10SM OVC016 A3013 RMK MADISHF
ARB,2017-04-01 12:35,-83.7397,42.2240,M,M,M,320.00,11.00,M,30.13,M,10.00,M,OVC,M,M,M,1600.00,M,M,M,M,KARB 011235Z AUTO 32011KT 10SM OVC016 A3013 RMK MADISHF
ARB,2017-04-01 12:40,-83.7397,42.2240,M,M,M,330.00,9.00,M,30.12,M,10.00,M,OVC,M,M,M,1699.00,M,M,M,M,KARB 011240Z AUTO 33009KT 10SM OVC016 A3012 RMK MADISHF
ARB,2017-04-01 12:45,-83.7397,42.2240,M,M,M,330.00,10.00,M,30.12,M,10.00,M,BKN,M,M,M,1699.00,M,M,M,M,KARB 011245Z AUTO 33010KT 10SM BKN016 A3012 RMK MADISHF
ARB,2017-04-01 12:50,-83.7397,42.2240,M,M,M,330.00,8.00,M,30.12,M,10.00,M,BKN,M,M,M,1699.00,M,M,M,M,KARB 011250Z AUTO 33008KT 10SM BKN016 A3012 RMK MADISHF
ARB,2017-04-01 12:53,-83.7397,42.2240,37.00,30.90,78.37,320.00,8.00,0.00,30.12,1020.80,10.00,M,BKN,M,M,M,1700.00,M,M,M,M,KARB 011253Z 32008KT 10SM BKN017 03/M01 A3012 RMK AO2 SLP208 T00281006 $
ARB,2017-04-01 12:55,-83.7397,42.2240,M,M,M,330.00,8.00,M,30.12,M,10.00,M,BKN,M,M,M,1699.00,M,M,M,M,KARB 011255Z AUTO 33008KT 10SM BKN016 A3012 RMK MADISHF
ARB,2017-04-01 13:00,-83.7397,42.2240,M,M,M,320.00,9.00,M,30.12,M,10.00,M,SCT,M,M,M,1699.00,M,M,M,M,KARB 011300Z AUTO 32009KT 10SM SCT016 A3012 RMK MADISHF
ARB,2017-04-01 13:03,-83.7397,42.2240,37.00,30.90,78.37,330.00,8.00,0.00,30.12,M,10.00,M,SCT,M,M,M,1700.00,M,M,M,M,KARB 011303Z 33008KT 10SM SCT017 03/M01 A3012 RMK AO2 T00281006 $
ARB,2017-04-01 13:05,-83.7397,42.2240,M,M,M,330.00,8.00,M,30.12,M,10.00,M,SCT,M,M,M,1699.00,M,M,M,M,KARB 011305Z AUTO 33008KT 10SM SCT016 A3012 RMK MADISHF
ARB,2017-04-01 13:10,-83.7397,42.2240,M,M,M,320.00,9.00,M,30.12,M,10.00,M,SCT,M,M,M,1699.00,M,M,M,M,KARB 011310Z AUTO 32009KT 10SM SCT016 A3012 RMK MADISHF
ARB,2017-04-01 13:15,-83.7397,42.2240,M,M,M,340.00,9.00,M,30.12,M,10.00,M,FEW,M,M,M,1699.00,M,M,M,M,KARB 011315Z AUTO 34009KT 10SM FEW016 A3012 RMK MADISHF
ARB,2017-04-01 13:20,-83.7397,42.2240,M,M,M,330.00,8.00,M,30.11,M,10.00,M,FEW,M,M,M,1699.00,M,M,M,M,KARB 011320Z AUTO 33008KT 10SM FEW016 A3011 RMK MADISHF
ARB,2017-04-01 13:25,-83.7397,42.2240,M,M,M,330.00,10.00,M,30.11,M,10.00,M,FEW,M,M,M,1699.00,M,M,M,M,KARB 011325Z AUTO 33010KT 10SM FEW016 A3011 RMK MADISHF
ARB,2017-04-01 13:30,-83.7397,42.2240,M,M,M,340.00,9.00,M,30.11,M,10.00,M,FEW,M,M,M,1699.00,M,M,M,M,KARB 011330Z AUTO 34009KT 10SM FEW016 A3011 RMK MADISHF
ARB,2017-04-01 13:35,-83.7397,42.2240,M,M,M,330.00,9.00,M,30.11,M,10.00,M,FEW,M,M,M,1699.00,M,M,M,M,KARB 011335Z AUTO 33009KT 10SM FEW016 A3011 RMK MADISHF
ARB,2017-04-01 13:40,-83.7397,42.2240,M,M,M,320.00,11.00,M,30.11,M,10.00,M,CLR,M,M,M,M,M,M,M,M,KARB 011340Z AUTO 32011KT 10SM CLR A3011 RMK MADISHF
ARB,2017-04-01 13:45,-83.7397,42.2240,M,M,M,330.00,9.00,M,30.12,M,10.00,M,FEW,M,M,M,1900.00,M,M,M,M,KARB 011345Z AUTO 33009KT 10SM FEW019 A3012 RMK MADISHF
ARB,2017-04-01 13:50,-83.7397,42.2240,M,M,M,340.00,8.00,M,30.12,M,10.00,M,FEW,M,M,M,1900.00,M,M,M,M,KARB 011350Z AUTO 34008KT 10SM FEW019 A3012 RMK MADISHF
ARB,2017-04-01 13:53,-83.7397,42.2240,39.90,32.00,73.14,320.00,6.00,0.00,30.12,1020.60,10.00,M,FEW,M,M,M,1900.00,M,M,M,M,KARB 011353Z 32006KT 10SM FEW019 04/00 A3012 RMK AO2 SLP206 T00440000 $
ARB,2017-04-01 13:55,-83.7397,42.2240,M,M,M,330.00,7.00,M,30.12,M,10.00,M,FEW,M,M,M,1900.00,M,M,M,M,KARB 011355Z AUTO 33007KT 10SM FEW019 A3012 RMK MADISHF
ARB,2017-04-01 14:00,-83.7397,42.2240,M,M,M,320.00,8.00,M,30.13,M,10.00,M,FEW,M,M,M,1900.00,M,M,M,M,KARB 011400Z AUTO 32008KT 10SM FEW019 A3013 RMK MADISHF
ARB,2017-04-01 14:05,-83.7397,42.2240,M,M,M,350.00,8.00,M,30.14,M,10.00,M,SCT,M,M,M,1900.00,M,M,M,M,KARB 011405Z AUTO 35008KT 10SM SCT019 A3014 RMK MADISHF
ARB,2017-04-01 14:10,-83.7397,42.2240,M,M,M,10.00,9.00,M,30.14,M,10.00,M,FEW,M,M,M,1900.00,M,M,M,M,KARB 011410Z AUTO 01009KT 10SM FEW019 A3014 RMK MADISHF
ARB,2017-04-01 14:15,-83.7397,42.2240,M,M,M,330.00,7.00,M,30.14,M,10.00,M,FEW,M,M,M,1900.00,M,M,M,M,KARB 011415Z AUTO 33007KT 10SM FEW019 A3014 RMK MADISHF
ARB,2017-04-01 14:20,-83.7397,42.2240,M,M,M,320.00,8.00,M,30.15,M,10.00,M,FEW,M,M,M,1900.00,M,M,M,M,KARB 011420Z AUTO 32008KT 10SM FEW019 A3015 RMK MADISHF
ARB,2017-04-01 14:25,-83.7397,42.2240,M,M,M,340.00,6.00,M,30.15,M,10.00,M,FEW,M,M,M,1900.00,M,M,M,M,KARB 011425Z AUTO 34006KT 10SM FEW019 A3015 RMK MADISHF
ARB,2017-04-01 14:30,-83.7397,42.2240,M,M,M,340.00,7.00,M,30.14,M,10.00,M,FEW,M,M,M,1999.00,M,M,M,M,KARB 011430Z AUTO 34007KT 10SM FEW019 A3014 RMK MADISHF
ARB,2017-04-01 14:35,-83.7397,42.2240,M,M,M,330.00,8.00,M,30.14,M,10.00,M,CLR,M,M,M,M,M,M,M,M,KARB 011435Z AUTO 33008KT 10SM CLR A3014 RMK MADISHF
ARB,2017-04-01 14:40,-83.7397,42.2240,M,M,M,330.00,9.00,M,30.14,M,10.00,M,CLR,M,M,M,M,M,M,M,M,KARB 011440Z AUTO 33009KT 10SM CLR A3014 RMK MADISHF
ARB,2017-04-01 14:45,-83.7397,42.2240,M,M,M,330.00,9.00,M,30.14,M,10.00,M,CLR,M,M,M,M,M,M,M,M,KARB 011445Z AUTO 33009KT 10SM CLR A3014 RMK MADISHF
ARB,2017-04-01 14:50,-83.7397,42.2240,M,M,M,300.00,6.00,M,30.14,M,10.00,M,CLR,M,M,M,M,M,M,M,M,KARB 011450Z AUTO 30006KT 10SM CLR A3014 RMK MADISHF
ARB,2017-04-01 14:53,-83.7397,42.2240,43.00,33.10,67.82,320.00,9.00,0.00,30.14,1021.40,10.00,M,CLR,M,M,M,M,M,M,M,M,KARB 011453Z 32009KT 10SM CLR 06/01 A3014 RMK AO2 SLP214 T00610006 53013 $
ARB,2017-04-01 14:55,-83.7397,42.2240,M,M,M,320.00,8.00,M,30.15,M,10.00,M,CLR,M,M,M,M,M,M,M,M,KARB 011455Z AUTO 32008KT 10SM CLR A3015 RMK MADISHF
ARB,2017-04-01 15:00,-83.7397,42.2240,M,M,M,350.00,6.00,M,30.15,M,10.00,M,FEW,M,M,M,3000.00,M,M,M,M,KARB 011500Z AUTO 35006KT 10SM FEW030 A3015 RMK MADISHF
ARB,2017-04-01 15:05,-83.7397,42.2240,M,M,M,320.00,7.00,M,30.15,M,10.00,M,FEW,M,M,M,3000.00,M,M,M,M,KARB 011505Z AUTO 32007KT 10SM FEW030 A3015 RMK WND 29V35  MADISHF
ARB,2017-04-01 15:10,-83.7397,42.2240,M,M,M,320.00,7.00,M,30.15,M,10.00,M,FEW,M,M,M,3000.00,M,M,M,M,KARB 011510Z AUTO 32007KT 10SM FEW030 A3015 RMK MADISHF
ARB,2017-04-01 15:15,-83.7397,42.2240,M,M,M,350.00,5.00,M,30.15,M,10.00,M,FEW,M,M,M,3000.00,M,M,M,M,KARB 011515Z AUTO 35005KT 10SM FEW030 A3015 RMK MADISHF
ARB,2017-04-01 15:20,-83.7397,42.2240,M,M,M,350.00,5.00,M,30.14,M,10.00,M,FEW,M,M,M,3000.00,M,M,M,M,KARB 011520Z AUTO 35005KT 10SM FEW030 A3014 RMK MADISHF
ARB,2017-04-01 15:25,-83.7397,42.2240,M,M,M,340.00,3.00,M,30.14,M,10.00,M,FEW,M,M,M,3000.00,M,M,M,M,KARB 011525Z AUTO 34003KT 10SM FEW030 A3014 RMK VRB03KT  MADISHF
ARB,2017-04-01 15:30,-83.7397,42.2240,M,M,M,M,M,M,30.15,M,10.00,M,FEW,M,M,M,3000.00,M,M,M,M,KARB 011530Z AUTO /////KT 10SM FEW030 A3015 RMK MADISHF
ARB,2017-04-01 15:35,-83.7397,42.2240,M,M,M,320.00,8.00,M,30.15,M,10.00,M,FEW,M,M,M,3000.00,M,M,M,M,KARB 011535Z AUTO 32008KT 10SM FEW030 A3015 RMK MADISHF
ARB,2017-04-01 15:40,-83.7397,42.2240,M,M,M,340.00,6.00,M,30.15,M,10.00,M,FEW,M,M,M,3000.00,M,M,M,M,KARB 011540Z AUTO 34006KT 10SM FEW030 A3015 RMK MADISHF
ARB,2017-04-01 15:45,-83.7397,42.2240,M,M,M,330.00,4.00,M,30.15,M,10.00,M,FEW,M,M,M,3000.00,M,M,M,M,KARB 011545Z AUTO 33004KT 10SM FEW030 A3015 RMK VRB04KT  MADISHF
ARB,2017-04-01 15:50,-83.7397,42.2240,M,M,M,340.00,4.00,M,30.15,M,10.00,M,FEW,M,M,M,3000.00,M,M,M,M,KARB 011550Z AUTO 34004KT 10SM FEW030 A3015 RMK VRB04KT  MADISHF
ARB,2017-04-01 15:53,-83.7397,42.2240,46.90,34.00,60.61,280.00,6.00,0.00,30.16,1021.70,10.00,M,FEW,M,M,M,3000.00,M,M,M,M,KARB 011553Z 28006KT 10SM FEW030 08/01 A3016 RMK AO2 SLP217 T00830011 $
ARB,2017-04-01 15:55,-83.7397,42.2240,M,M,M,290.00,7.00,M,30.16,M,10.00,M,CLR,M,M,M,M,M,M,M,M,KARB 011555Z AUTO 29007KT 10SM CLR A3016 RMK MADISHF
ARB,2017-04-01 16:00,-83.7397,42.2240,M,M,M,330.00,6.00,M,30.15,M,10.00,M,CLR,M,M,M,M,M,M,M,M,KARB 011600Z AUTO 33006KT 10SM CLR A3015 RMK VRB06KT  MADISHF
ARB,2017-04-01 16:05,-83.7397,42.2240,M,M,M,10.00,5.00,M,30.15,M,10.00,M,CLR,M,M,M,M,M,M,M,M,KARB 011605Z AUTO 01005KT 10SM CLR A3015 RMK MADISHF
ARB,2017-04-01 16:10,-83.7397,42.2240,M,M,M,0.00,0.00,M,30.15,M,10.00,M,CLR,M,M,M,M,M,M,M,M,KARB 011610Z AUTO 00000KT 10SM CLR A3015 RMK MADISHF
ARB,2017-04-01 16:15,-83.7397,42.2240,M,M,M,340.00,6.00,M,30.15,M,10.00,M,CLR,M,M,M,M,M,M,M,M,KARB 011615Z AUTO 34006KT 10SM CLR A3015 RMK MADISHF
ARB,2017-04-01 16:20,-83.7397,42.2240,M,M,M,10.00,5.00,M,30.15,M,10.00,M,CLR,M,M,M,M,M,M,M,M,KARB 011620Z AUTO 01005KT 10SM CLR A3015 RMK MADISHF
ARB,2017-04-01 16:25,-83.7397,42.2240,M,M,M,350.00,5.00,M,30.15,M,10.00,M,CLR,M,M,M,M,M,M,M,M,KARB 011625Z AUTO 35005KT 10SM CLR A3015 RMK MADISHF
ARB,2017-04-01 16:30,-83.7397,42.2240,M,M,M,310.00,8.00,M,30.15,M,10.00,M,CLR,M,M,M,M,M,M,M,M,KARB 011630Z AUTO 31008KT 10SM CLR A3015 RMK MADISHF
ARB,2017-04-01 16:35,-83.7397,42.2240,M,M,M,280.00,5.00,M,30.15,M,10.00,M,CLR,M,M,M,M,M,M,M,M,KARB 011635Z AUTO 28005KT 10SM CLR A3015 RMK VRB05KT  MADISHF
ARB,2017-04-01 16:40,-83.7397,42.2240,M,M,M,340.00,6.00,M,30.15,M,10.00,M,CLR,M,M,M,M,M,M,M,M,KARB 011640Z AUTO 34006KT 10SM CLR A3015 RMK MADISHF
ARB,2017-04-01 16:45,-83.7397,42.2240,M,M,M,320.00,9.00,M,30.15,M,10.00,M,CLR,M,M,M,M,M,M,M,M,KARB 011645Z AUTO 32009KT 10SM CLR A3015 RMK MADISHF
ARB,2017-04-01 16:50,-83.7397,42.2240,M,M,M,360.00,4.00,M,30.15,M,10.00,M,CLR,M,M,M,M,M,M,M,M,KARB 011650Z AUTO 36004KT 10SM CLR A3015 RMK MADISHF
ARB,2017-04-01 16:53,-83.7397,42.2240,48.90,33.10,54.24,M,4.00,0.00,30.15,1021.40,10.00,M,CLR,M,M,M,M,M,M,M,M,KARB 011653Z VRB04KT 10SM CLR 09/01 A3015 RMK AO2 SLP214 T00940006 $
ARB,2017-04-01 16:55,-83.7397,42.2240,M,M,M,280.00,4.00,M,30.15,M,10.00,M,CLR,M,M,M,M,M,M,M,M,KARB 011655Z AUTO 28004KT 10SM CLR A3015 RMK MADISHF
ARB,2017-04-01 17:00,-83.7397,42.2240,M,M,M,300.00,8.00,M,30.14,M,10.00,M,CLR,M,M,M,M,M,M,M,M,KARB 011700Z AUTO 30008KT 10SM CLR A3014 RMK MADISHF
ARB,2017-04-01 17:05,-83.7397,42.2240,M,M,M,310.00,6.00,M,30.14,M,10.00,M,CLR,M,M,M,M,M,M,M,M,KARB 011705Z AUTO 31006KT 10SM CLR A3014 RMK VRB06KT  MADISHF
ARB,2017-04-01 17:10,-83.7397,42.2240,M,M,M,0.00,0.00,M,30.14,M,10.00,M,CLR,M,M,M,M,M,M,M,M,KARB 011710Z AUTO 00000KT 10SM CLR A3014 RMK MADISHF
ARB,2017-04-01 17:15,-83.7397,42.2240,M,M,M,M,M,M,30.14,M,10.00,M,CLR,M,M,M,M,M,M,M,M,KARB 011715Z AUTO /////KT 10SM CLR A3014 RMK MADISHF
ARB,2017-04-01 17:20,-83.7397,42.2240,M,M,M,350.00,5.00,M,30.14,M,10.00,M,CLR,M,M,M,M,M,M,M,M,KARB 011720Z AUTO 35005KT 10SM CLR A3014 RMK MADISHF
ARB,2017-04-01 17:25,-83.7397,42.2240,M,M,M,360.00,4.00,M,30.14,M,10.00,M,CLR,M,M,M,M,M,M,M,M,KARB 011725Z AUTO 36004KT 10SM CLR A3014 RMK VRB04KT  MADISHF
ARB,2017-04-01 17:30,-83.7397,42.2240,M,M,M,330.00,8.00,M,30.14,M,10.00,M,CLR,M,M,M,M,M,M,M,M,KARB 011730Z AUTO 33008KT 10SM CLR A3014 RMK MADISHF
ARB,2017-04-01 17:35,-83.7397,42.2240,M,M,M,330.00,6.00,M,30.14,M,10.00,M,CLR,M,M,M,M,M,M,M,M,KARB 011735Z AUTO 33006KT 10SM CLR A3014 RMK VRB06KT  MADISHF
ARB,2017-04-01 17:40,-83.7397,42.2240,M,M,M,330.00,5.00,M,30.14,M,10.00,M,CLR,M,M,M,M,M,M,M,M,KARB 011740Z AUTO 33005KT 10SM CLR A3014 RMK MADISHF
ARB,2017-04-01 17:45,-83.7397,42.2240,M,M,M,330.00,6.00,M,30.14,M,10.00,M,CLR,M,M,M,M,M,M,M,M,KARB 011745Z AUTO 33006KT 10SM CLR A3014 RMK MADISHF
ARB,2017-04-01 17:50,-83.7397,42.2240,M,M,M,330.00,6.00,M,30.14,M,10.00,M,CLR,M,M,M,M,M,M,M,M,KARB 011750Z AUTO 33006KT 10SM CLR A3014 RMK MADISHF
ARB,2017-04-01 17:53,-83.7397,42.2240,52.00,33.10,48.34,330.00,7.00,0.00,30.14,1021.10,10.00,M,CLR,M,M,M,M,M,M,M,M,KARB 011753Z 33007KT 280V030 10SM CLR 11/01 A3014 RMK AO2 SLP211 T01110006 10111 20022 58002 $
ARB,2017-04-01 17:55,-83.7397,42.2240,M,M,M,320.00,10.00,M,30.14,M,10.00,M,CLR,M,M,M,M,M,M,M,M,KARB 011755Z AUTO 32010KT 10SM CLR A3014 RMK MADISHF
ARB,2017-04-01 18:00,-83.7397,42.2240,M,M,M,330.00,7.00,M,30.14,M,10.00,M,CLR,M,M,M,M,M,M,M,M,KARB 011800Z AUTO 33007KT 10SM CLR A3014 RMK MADISHF
ARB,2017-04-01 18:05,-83.7397,42.2240,M,M,M,340.00,9.00,M,30.14,M,10.00,M,CLR,M,M,M,M,M,M,M,M,KARB 011805Z AUTO 34009KT 10SM CLR A3014 RMK MADISHF
ARB,2017-04-01 18:10,-83.7397,42.2240,M,M,M,330.00,10.00,M,30.14,M,10.00,M,CLR,M,M,M,M,M,M,M,M,KARB 011810Z AUTO 33010KT 10SM CLR A3014 RMK MADISHF
ARB,2017-04-01 18:15,-83.7397,42.2240,M,M,M,350.00,10.00,M,30.14,M,10.00,M,CLR,M,M,M,M,M,M,M,M,KARB 011815Z AUTO 35010KT 10SM CLR A3014 RMK MADISHF
ARB,2017-04-01 18:20,-83.7397,42.2240,M,M,M,10.00,8.00,M,30.14,M,10.00,M,CLR,M,M,M,M,M,M,M,M,KARB 011820Z AUTO 01008KT 10SM CLR A3014 RMK WND 32V05  MADISHF
ARB,2017-04-01 18:25,-83.7397,42.2240,M,M,M,280.00,8.00,M,30.13,M,10.00,M,CLR,M,M,M,M,M,M,M,M,KARB 011825Z AUTO 28008KT 10SM CLR A3013 RMK MADISHF
ARB,2017-04-01 18:30,-83.7397,42.2240,M,M,M,340.00,6.00,M,30.14,M,10.00,M,CLR,M,M,M,M,M,M,M,M,KARB 011830Z AUTO 34006KT 10SM CLR A3014 RMK VRB06KT  MADISHF
ARB,2017-04-01 18:35,-83.7397,42.2240,M,M,M,340.00,7.00,M,30.13,M,10.00,M,CLR,M,M,M,M,M,M,M,M,KARB 011835Z AUTO 34007KT 10SM CLR A3013 RMK MADISHF
ARB,2017-04-01 18:40,-83.7397,42.2240,M,M,M,270.00,8.00,M,30.13,M,10.00,M,CLR,M,M,M,M,M,M,M,M,KARB 011840Z AUTO 27008KT 10SM CLR A3013 RMK MADISHF
ARB,2017-04-01 18:45,-83.7397,42.2240,M,M,M,300.00,9.00,M,30.13,M,10.00,M,CLR,M,M,M,M,M,M,M,M,KARB 011845Z AUTO 30009KT 10SM CLR A3013 RMK MADISHF
ARB,2017-04-01 18:50,-83.7397,42.2240,M,M,M,300.00,9.00,M,30.14,M,10.00,M,CLR,M,M,M,M,M,M,M,M,KARB 011850Z AUTO 30009KT 10SM CLR A3014 RMK MADISHF
ARB,2017-04-01 18:53,-83.7397,42.2240,54.00,32.00,42.98,280.00,7.00,0.00,30.14,1020.90,10.00,M,CLR,M,M,M,M,M,M,M,M,KARB 011853Z 28007KT 10SM CLR 12/00 A3014 RMK AO2 SLP209 T01220000 $
ARB,2017-04-01 18:55,-83.7397,42.2240,M,M,M,280.00,6.00,M,30.14,M,10.00,M,CLR,M,M,M,M,M,M,M,M,KARB 011855Z AUTO 28006KT 10SM CLR A3014 RMK VRB06KT  MADISHF
ARB,2017-04-01 19:00,-83.7397,42.2240,M,M,M,280.00,7.00,M,30.13,M,10.00,M,CLR,M,M,M,M,M,M,M,M,KARB 011900Z AUTO 28007KT 10SM CLR A3013 RMK MADISHF
ARB,2017-04-01 19:05,-83.7397,42.2240,M,M,M,290.00,6.00,M,30.13,M,10.00,M,CLR,M,M,M,M,M,M,M,M,KARB 011905Z AUTO 29006KT 10SM CLR A3013 RMK MADISHF
ARB,2017-04-01 19:10,-83.7397,42.2240,M,M,M,280.00,6.00,M,30.14,M,10.00,M,CLR,M,M,M,M,M,M,M,M,KARB 011910Z AUTO 28006KT 10SM CLR A3014 RMK MADISHF
ARB,2017-04-01 19:15,-83.7397,42.2240,M,M,M,330.00,5.00,M,30.14,M,10.00,M,CLR,M,M,M,M,M,M,M,M,KARB 011915Z AUTO 33005KT 10SM CLR A3014 RMK MADISHF
ARB,2017-04-01 19:20,-83.7397,42.2240,M,M,M,330.00,14.00,M,30.14,M,10.00,M,CLR,M,M,M,M,M,M,M,M,KARB 011920Z AUTO 33014KT 10SM CLR A3014 RMK MADISHF
ARB,2017-04-01 19:25,-83.7397,42.2240,M,M,M,330.00,10.00,M,30.14,M,10.00,M,CLR,M,M,M,M,M,M,M,M,KARB 011925Z AUTO 33010KT 10SM CLR A3014 RMK MADISHF
ARB,2017-04-01 19:30,-83.7397,42.2240,M,M,M,320.00,10.00,M,30.14,M,10.00,16.00,CLR,M,M,M,M,M,M,M,M,KARB 011930Z AUTO 32010G16KT 10SM CLR A3014 RMK WND 27V35  MADISHF
ARB,2017-04-01 19:35,-83.7397,42.2240,M,M,M,290.00,11.00,M,30.14,M,10.00,17.00,CLR,M,M,M,M,M,M,M,M,KARB 011935Z AUTO 29011G17KT 10SM CLR A3014 RMK MADISHF
ARB,2017-04-01 19:40,-83.7397,42.2240,M,M,M,290.00,8.00,M,30.14,M,10.00,M,CLR,M,M,M,M,M,M,M,M,KARB 011940Z AUTO 29008KT 10SM CLR A3014 RMK MADISHF
ARB,2017-04-01 19:45,-83.7397,42.2240,M,M,M,320.00,8.00,M,30.14,M,10.00,M,CLR,M,M,M,M,M,M,M,M,KARB 011945Z AUTO 32008KT 10SM CLR A3014 RMK MADISHF
ARB,2017-04-01 19:50,-83.7397,42.2240,M,M,M,310.00,10.00,M,30.14,M,10.00,M,CLR,M,M,M,M,M,M,M,M,KARB 011950Z AUTO 31010KT 10SM CLR A3014 RMK WND 27V35  MADISHF
ARB,2017-04-01 19:53,-83.7397,42.2240,57.00,30.90,36.86,340.00,10.00,0.00,30.14,1021.00,10.00,17.00,CLR,M,M,M,M,M,M,M,M,KARB 011953Z 34010G17KT 10SM CLR 14/M01 A3014 RMK AO2 SLP210 T01391006 $
ARB,2017-04-01 19:55,-83.7397,42.2240,M,M,M,330.00,11.00,M,30.14,M,10.00,M,CLR,M,M,M,M,M,M,M,M,KARB 011955Z AUTO 33011KT 10SM CLR A3014 RMK MADISHF
ARB,2017-04-01 20:00,-83.7397,42.2240,M,M,M,340.00,11.00,M,30.14,M,10.00,M,CLR,M,M,M,M,M,M,M,M,KARB 012000Z AUTO 34011KT 10SM CLR A3014 RMK MADISHF
ARB,2017-04-01 20:05,-83.7397,42.2240,M,M,M,310.00,10.00,M,30.14,M,10.00,M,CLR,M,M,M,M,M,M,M,M,KARB 012005Z AUTO 31010KT 10SM CLR A3014 RMK MADISHF
ARB,2017-04-01 20:10,-83.7397,42.2240,M,M,M,320.00,9.00,M,30.14,M,10.00,M,CLR,M,M,M,M,M,M,M,M,KARB 012010Z AUTO 32009KT 10SM CLR A3014 RMK MADISHF
ARB,2017-04-01 20:15,-83.7397,42.2240,M,M,M,270.00,9.00,M,30.14,M,10.00,M,CLR,M,M,M,M,M,M,M,M,KARB 012015Z AUTO 27009KT 10SM CLR A3014 RMK WND 25V31  MADISHF
ARB,2017-04-01 20:20,-83.7397,42.2240,M,M,M,280.00,8.00,M,30.14,M,10.00,M,CLR,M,M,M,M,M,M,M,M,KARB 012020Z AUTO 28008KT 10SM CLR A3014 RMK MADISHF
ARB,2017-04-01 20:25,-83.7397,42.2240,M,M,M,330.00,10.00,M,30.14,M,10.00,M,CLR,M,M,M,M,M,M,M,M,KARB 012025Z AUTO 33010KT 10SM CLR A3014 RMK MADISHF
ARB,2017-04-01 20:30,-83.7397,42.2240,M,M,M,290.00,10.00,M,30.14,M,10.00,M,CLR,M,M,M,M,M,M,M,M,KARB 012030Z AUTO 29010KT 10SM CLR A3014 RMK MADISHF
ARB,2017-04-01 20:35,-83.7397,42.2240,M,M,M,300.00,7.00,M,30.14,M,10.00,M,CLR,M,M,M,M,M,M,M,M,KARB 012035Z AUTO 30007KT 10SM CLR A3014 RMK MADISHF
ARB,2017-04-01 20:40,-83.7397,42.2240,M,M,M,320.00,6.00,M,30.14,M,10.00,M,CLR,M,M,M,M,M,M,M,M,KARB 012040Z AUTO 32006KT 10SM CLR A3014 RMK VRB06G14KT  MADISHF
ARB,2017-04-01 20:45,-83.7397,42.2240,M,M,M,330.00,10.00,M,30.14,M,10.00,M,CLR,M,M,M,M,M,M,M,M,KARB 012045Z AUTO 33010KT 10SM CLR A3014 RMK MADISHF
ARB,2017-04-01 20:50,-83.7397,42.2240,M,M,M,290.00,9.00,M,30.14,M,10.00,M,CLR,M,M,M,M,M,M,M,M,KARB 012050Z AUTO 29009KT 10SM CLR A3014 RMK MADISHF
ARB,2017-04-01 20:53,-83.7397,42.2240,55.90,28.00,34.08,310.00,4.00,0.00,30.14,1020.90,10.00,14.00,CLR,M,M,M,M,M,M,M,M,KARB 012053Z 31004G14KT 10SM CLR 13/M02 A3014 RMK AO2 SLP209 T01331022 58001 $
ARB,2017-04-01 20:55,-83.7397,42.2240,M,M,M,330.00,6.00,M,30.13,M,10.00,M,CLR,M,M,M,M,M,M,M,M,KARB 012055Z AUTO 33006KT 10SM CLR A3013 RMK MADISHF
ARB,2017-04-01 21:00,-83.7397,42.2240,M,M,M,M,M,M,30.13,M,10.00,M,CLR,M,M,M,M,M,M,M,M,KARB 012100Z AUTO /////KT 10SM CLR A3013 RMK MADISHF
ARB,2017-04-01 21:05,-83.7397,42.2240,M,M,M,300.00,10.00,M,30.13,M,10.00,M,CLR,M,M,M,M,M,M,M,M,KARB 012105Z AUTO 30010KT 10SM CLR A3013 RMK MADISHF
ARB,2017-04-01 21:10,-83.7397,42.2240,M,M,M,290.00,10.00,M,30.13,M,10.00,M,CLR,M,M,M,M,M,M,M,M,KARB 012110Z AUTO 29010KT 10SM CLR A3013 RMK MADISHF
ARB,2017-04-01 21:15,-83.7397,42.2240,M,M,M,290.00,7.00,M,30.13,M,10.00,M,CLR,M,M,M,M,M,M,M,M,KARB 012115Z AUTO 29007KT 10SM CLR A3013 RMK MADISHF
ARB,2017-04-01 21:20,-83.7397,42.2240,M,M,M,320.00,8.00,M,30.13,M,10.00,M,CLR,M,M,M,M,M,M,M,M,KARB 012120Z AUTO 32008KT 10SM CLR A3013 RMK MADISHF
ARB,2017-04-01 21:25,-83.7397,42.2240,M,M,M,310.00,9.00,M,30.13,M,10.00,M,CLR,M,M,M,M,M,M,M,M,KARB 012125Z AUTO 31009KT 10SM CLR A3013 RMK MADISHF
ARB,2017-04-01 21:30,-83.7397,42.2240,M,M,M,320.00,6.00,M,30.13,M,10.00,M,CLR,M,M,M,M,M,M,M,M,KARB 012130Z AUTO 32006KT 10SM CLR A3013 RMK VRB06KT  MADISHF
ARB,2017-04-01 21:35,-83.7397,42.2240,M,M,M,330.00,10.00,M,30.13,M,10.00,M,CLR,M,M,M,M,M,M,M,M,KARB 012135Z AUTO 33010KT 10SM CLR A3013 RMK MADISHF
ARB,2017-04-01 21:40,-83.7397,42.2240,M,M,M,350.00,6.00,M,30.13,M,10.00,M,CLR,M,M,M,M,M,M,M,M,KARB 012140Z AUTO 35006KT 10SM CLR A3013 RMK MADISHF
ARB,2017-04-01 21:45,-83.7397,42.2240,M,M,M,320.00,9.00,M,30.13,M,10.00,M,CLR,M,M,M,M,M,M,M,M,KARB 012145Z AUTO 32009KT 10SM CLR A3013 RMK MADISHF
ARB,2017-04-01 21:50,-83.7397,42.2240,M,M,M,270.00,6.00,M,30.13,M,10.00,M,CLR,M,M,M,M,M,M,M,M,KARB 012150Z AUTO 27006KT 10SM CLR A3013 RMK MADISHF
ARB,2017-04-01 21:53,-83.7397,42.2240,55.90,27.00,32.71,270.00,8.00,0.00,30.13,1020.80,10.00,M,CLR,M,M,M,M,M,M,M,M,KARB 012153Z 27008KT 10SM CLR 13/M03 A3013 RMK AO2 SLP208 T01331028 $
ARB,2017-04-01 21:55,-83.7397,42.2240,M,M,M,M,M,M,30.13,M,10.00,M,CLR,M,M,M,M,M,M,M,M,KARB 012155Z AUTO /////KT 10SM CLR A3013 RMK MADISHF
ARB,2017-04-01 22:00,-83.7397,42.2240,M,M,M,320.00,8.00,M,30.13,M,10.00,M,CLR,M,M,M,M,M,M,M,M,KARB 012200Z AUTO 32008KT 10SM CLR A3013 RMK MADISHF
ARB,2017-04-01 22:05,-83.7397,42.2240,M,M,M,360.00,7.00,M,30.13,M,10.00,M,CLR,M,M,M,M,M,M,M,M,KARB 012205Z AUTO 36007KT 10SM CLR A3013 RMK MADISHF
ARB,2017-04-01 22:10,-83.7397,42.2240,M,M,M,360.00,7.00,M,30.13,M,10.00,M,CLR,M,M,M,M,M,M,M,M,KARB 012210Z AUTO 36007KT 10SM CLR A3013 RMK MADISHF
ARB,2017-04-01 22:15,-83.7397,42.2240,M,M,M,310.00,9.00,M,30.13,M,10.00,M,CLR,M,M,M,M,M,M,M,M,KARB 012215Z AUTO 31009KT 10SM CLR A3013 RMK MADISHF
ARB,2017-04-01 22:20,-83.7397,42.2240,M,M,M,300.00,9.00,M,30.14,M,10.00,M,CLR,M,M,M,M,M,M,M,M,KARB 012220Z AUTO 30009KT 10SM CLR A3014 RMK MADISHF
ARB,2017-04-01 22:25,-83.7397,42.2240,M,M,M,320.00,8.00,M,30.14,M,10.00,M,CLR,M,M,M,M,M,M,M,M,KARB 012225Z AUTO 32008KT 10SM CLR A3014 RMK MADISHF
ARB,2017-04-01 22:30,-83.7397,42.2240,M,M,M,350.00,6.00,M,30.14,M,10.00,M,CLR,M,M,M,M,M,M,M,M,KARB 012230Z AUTO 35006KT 10SM CLR A3014 RMK MADISHF
ARB,2017-04-01 22:35,-83.7397,42.2240,M,M,M,350.00,5.00,M,30.14,M,10.00,M,CLR,M,M,M,M,M,M,M,M,KARB 012235Z AUTO 35005KT 10SM CLR A3014 RMK MADISHF
ARB,2017-04-01 22:40,-83.7397,42.2240,M,M,M,340.00,3.00,M,30.14,M,10.00,M,CLR,M,M,M,M,M,M,M,M,KARB 012240Z AUTO 34003KT 10SM CLR A3014 RMK MADISHF
ARB,2017-04-01 22:45,-83.7397,42.2240,M,M,M,320.00,9.00,M,30.14,M,10.00,M,CLR,M,M,M,M,M,M,M,M,KARB 012245Z AUTO 32009KT 10SM CLR A3014 RMK MADISHF
ARB,2017-04-01 22:50,-83.7397,42.2240,M,M,M,320.00,6.00,M,30.14,M,10.00,M,CLR,M,M,M,M,M,M,M,M,KARB 012250Z AUTO 32006KT 10SM CLR A3014 RMK MADISHF
ARB,2017-04-01 22:53,-83.7397,42.2240,55.00,27.00,33.79,330.00,6.00,0.00,30.14,1021.20,10.00,M,CLR,M,M,M,M,M,M,M,M,KARB 012253Z 33006KT 10SM CLR 13/M03 A3014 RMK AO2 SLP212 T01281028 $
ARB,2017-04-01 22:55,-83.7397,42.2240,M,M,M,330.00,5.00,M,30.14,M,10.00,M,CLR,M,M,M,M,M,M,M,M,KARB 012255Z AUTO 33005KT 10SM CLR A3014 RMK MADISHF
ARB,2017-04-01 23:00,-83.7397,42.2240,M,M,M,340.00,7.00,M,30.14,M,10.00,M,CLR,M,M,M,M,M,M,M,M,KARB 012300Z AUTO 34007KT 10SM CLR A3014 RMK MADISHF
ARB,2017-04-01 23:05,-83.7397,42.2240,M,M,M,330.00,7.00,M,30.15,M,10.00,M,CLR,M,M,M,M,M,M,M,M,KARB 012305Z AUTO 33007KT 10SM CLR A3015 RMK MADISHF
ARB,2017-04-01 23:10,-83.7397,42.2240,M,M,M,310.00,7.00,M,30.15,M,10.00,M,CLR,M,M,M,M,M,M,M,M,KARB 012310Z AUTO 31007KT 10SM CLR A3015 RMK MADISHF
ARB,2017-04-01 23:15,-83.7397,42.2240,M,M,M,320.00,6.00,M,30.15,M,10.00,M,CLR,M,M,M,M,M,M,M,M,KARB 012315Z AUTO 32006KT 10SM CLR A3015 RMK MADISHF
ARB,2017-04-01 23:20,-83.7397,42.2240,M,M,M,320.00,5.00,M,30.15,M,10.00,M,CLR,M,M,M,M,M,M,M,M,KARB 012320Z AUTO 32005KT 10SM CLR A3015 RMK MADISHF
ARB,2017-04-01 23:25,-83.7397,42.2240,M,M,M,340.00,5.00,M,30.15,M,10.00,M,CLR,M,M,M,M,M,M,M,M,KARB 012325Z AUTO 34005KT 10SM CLR A3015 RMK MADISHF
ARB,2017-04-01 23:30,-83.7397,42.2240,M,M,M,330.00,5.00,M,30.15,M,10.00,M,CLR,M,M,M,M,M,M,M,M,KARB 012330Z AUTO 33005KT 10SM CLR A3015 RMK MADISHF
ARB,2017-04-01 23:35,-83.7397,42.2240,M,M,M,330.00,5.00,M,30.15,M,10.00,M,CLR,M,M,M,M,M,M,M,M,KARB 012335Z AUTO 33005KT 10SM CLR A3015 RMK MADISHF
ARB,2017-04-01 23:40,-83.7397,42.2240,M,M,M,320.00,6.00,M,30.16,M,10.00,M,CLR,M,M,M,M,M,M,M,M,KARB 012340Z AUTO 32006KT 10SM CLR A3016 RMK MADISHF
ARB,2017-04-01 23:45,-83.7397,42.2240,M,M,M,320.00,5.00,M,30.16,M,10.00,M,CLR,M,M,M,M,M,M,M,M,KARB 012345Z AUTO 32005KT 10SM CLR A3016 RMK MADISHF
ARB,2017-04-01 23:50,-83.7397,42.2240,M,M,M,310.00,4.00,M,30.16,M,10.00,M,CLR,M,M,M,M,M,M,M,M,KARB 012350Z AUTO 31004KT 10SM CLR A3016 RMK MADISHF
ARB,2017-04-01 23:53,-83.7397,42.2240,51.10,27.00,38.99,320.00,4.00,0.00,30.16,1021.80,10.00,M,CLR,M,M,M,M,M,M,M,M,KARB 012353Z AUTO 32004KT 10SM CLR 11/M03 A3016 RMK AO2 SLP218 T01061028 10139 20106 53008 $
ARB,2017-04-01 23:55,-83.7397,42.2240,M,M,M,320.00,4.00,M,30.16,M,10.00,M,CLR,M,M,M,M,M,M,M,M,KARB 012355Z AUTO 32004KT 10SM CLR A3016 RMK MADISHF
