#DEBUG: Format Typ    -> comma
#DEBUG: Time Period   -> 2017-04-01 00:00:00+00:00 2017-04-02 00:00:00+00:00
#DEBUG: Time Zone     -> Etc/UTC
#DEBUG: Data Contact   -> daryl herzmann akrherz@iastate.edu 515-294-5978
#DEBUG: Entries Found -> -1
station,valid,lon,lat,tmpf, dwpf, relh, drct, sknt, p01i, alti, mslp, vsby, gust, skyc1, skyc2, skyc3, skyc4, skyl1, skyl2, skyl3, skyl4, presentwx, metar
ARR,2017-04-01 00:00,-88.4800,41.7700,M,M,M,320.00,8.00,M,29.99,M,10.00,M,FEW,OVC,M,M,2800.00,3900.00,M,M,M,KARR 010000Z AUTO 32008KT 10SM FEW028 OVC039 A2999 RMK MADISHF
ARR,2017-04-01 00:05,-88.4800,41.7700,M,M,M,320.00,8.00,M,29.99,M,10.00,M,FEW,OVC,M,M,3200.00,3900.00,M,M,M,KARR 010005Z AUTO 32008KT 10SM FEW032 OVC039 A2999 RMK MADISHF
ARR,2017-04-01 00:10,-88.4800,41.7700,M,M,M,320.00,8.00,M,29.99,M,10.00,M,OVC,M,M,M,3900.00,M,M,M,M,KARR 010010Z AUTO 32008KT 10SM OVC039 A2999 RMK MADISHF
ARR,2017-04-01 00:15,-88.4800,41.7700,M,M,M,310.00,8.00,M,29.99,M,10.00,M,OVC,M,M,M,4100.00,M,M,M,M,KARR 010015Z AUTO 31008KT 10SM OVC041 A2999 RMK MADISHF
ARR,2017-04-01 00:20,-88.4800,41.7700,M,M,M,310.00,7.00,M,29.99,M,10.00,M,OVC,M,M,M,4100.00,M,M,M,M,KARR 010020Z AUTO 31007KT 10SM OVC041 A2999 RMK MADISHF
ARR,2017-04-01 00:25,-88.4800,41.7700,M,M,M,310.00,7.00,M,29.99,M,10.00,M,OVC,M,M,M,4100.00,M,M,M,M,KARR 010025Z AUTO 31007KT 10SM OVC041 A2999 RMK MADISHF
ARR,2017-04-01 00:30,-88.4800,41.7700,M,M,M,310.00,7.00,M,29.99,M,10.00,M,OVC,M,M,M,4200.00,M,M,M,M,KARR 010030Z AUTO 31007KT 10SM OVC042 A2999 RMK MADISHF
ARR,2017-04-01 00:35,-88.4800,41.7700,M,M,M,310.00,7.00,M,29.99,M,10.00,M,OVC,M,M,M,4200.00,M,M,M,M,KARR 010035Z AUTO 31007KT 10SM OVC042 A2999 RMK MADISHF
ARR,2017-04-01 00:40,-88.4800,41.7700,M,M,M,310.00,7.00,M,29.99,M,10.00,M,OVC,M,M,M,4200.00,M,M,M,M,KARR 010040Z AUTO 31007KT 10SM OVC042 A2999 RMK MADISHF
ARR,2017-04-01 00:45,-88.4800,41.7700,M,M,M,290.00,6.00,M,29.99,M,10.00,M,OVC,M,M,M,4200.00,M,M,M,M,KARR 010045Z AUTO 29006KT 10SM OVC042 A2999 RMK MADISHF
ARR,2017-04-01 00:50,-88.4800,41.7700,M,M,M,300.00,7.00,M,30.00,M,10.00,M,OVC,M,M,M,4400.00,M,M,M,M,KARR 010050Z AUTO 30007KT 10SM OVC044 A3000 RMK MADISHF
ARR,2017-04-01 00:52,-88.4800,41.7700,41.00,37.00,85.54,300.00,7.00,0.00,30.00,1016.30,10.00,M,OVC,M,M,M,4400.00,M,M,M,M,KARR 010052Z 30007KT 10SM OVC044 05/03 A3000 RMK AO2 SLP163 T00500028
ARR,2017-04-01 00:55,-88.4800,41.7700,M,M,M,300.00,7.00,M,30.00,M,10.00,M,OVC,M,M,M,4400.00,M,M,M,M,KARR 010055Z AUTO 30007KT 10SM OVC044 A3000 RMK MADISHF
ARR,2017-04-01 01:00,-88.4800,41.7700,M,M,M,300.00,7.00,M,30.00,M,10.00,M,OVC,M,M,M,4400.00,M,M,M,M,KARR 010100Z AUTO 30007KT 10SM OVC044 A3000 RMK MADISHF
ARR,2017-04-01 01:05,-88.4800,41.7700,M,M,M,310.00,6.00,M,30.00,M,10.00,M,OVC,M,M,M,4400.00,M,M,M,M,KARR 010105Z AUTO 31006KT 10SM OVC044 A3000 RMK MADISHF
ARR,2017-04-01 01:10,-88.4800,41.7700,M,M,M,310.00,7.00,M,30.00,M,10.00,M,OVC,M,M,M,4600.00,M,M,M,M,KARR 010110Z AUTO 31007KT 10SM OVC046 A3000 RMK MADISHF
ARR,2017-04-01 01:15,-88.4800,41.7700,M,M,M,310.00,6.00,M,30.00,M,10.00,M,OVC,M,M,M,4600.00,M,M,M,M,KARR 010115Z AUTO 31006KT 10SM OVC046 A3000 RMK MADISHF
ARR,2017-04-01 01:20,-88.4800,41.7700,M,M,M,310.00,6.00,M,30.00,M,10.00,M,OVC,M,M,M,4600.00,M,M,M,M,KARR 010120Z AUTO 31006KT 10SM OVC046 A3000 RMK MADISHF
ARR,2017-04-01 01:25,-88.4800,41.7700,M,M,M,320.00,6.00,M,30.00,M,10.00,M,OVC,M,M,M,4600.00,M,M,M,M,KARR 010125Z AUTO 32006KT 10SM OVC046 A3000 RMK MADISHF
ARR,2017-04-01 01:30,-88.4800,41.7700,M,M,M,320.00,5.00,M,30.00,M,10.00,M,OVC,M,M,M,4700.00,M,M,M,M,KARR 010130Z AUTO 32005KT 10SM OVC047 A3000 RMK MADISHF
ARR,2017-04-01 01:35,-88.4800,41.7700,M,M,M,320.00,6.00,M,30.01,M,10.00,M,OVC,M,M,M,4700.00,M,M,M,M,KARR 010135Z AUTO 32006KT 10SM OVC047 A3001 RMK MADISHF
ARR,2017-04-01 01:40,-88.4800,41.7700,M,M,M,310.00,5.00,M,30.01,M,10.00,M,OVC,M,M,M,4700.00,M,M,M,M,KARR 010140Z AUTO 31005KT 10SM OVC047 A3001 RMK MADISHF
ARR,2017-04-01 01:45,-88.4800,41.7700,M,M,M,310.00,5.00,M,30.01,M,10.00,M,OVC,M,M,M,4700.00,M,M,M,M,KARR 010145Z AUTO 31005KT 10SM OVC047 A3001 RMK MADISHF
ARR,2017-04-01 01:50,-88.4800,41.7700,M,M,M,320.00,5.00,M,30.01,M,10.00,M,OVC,M,M,M,4700.00,M,M,M,M,KARR 010150Z AUTO 32005KT 10SM OVC047 A3001 RMK MADISHF
ARR,2017-04-01 01:52,-88.4800,41.7700,39.00,35.10,85.76,320.00,5.00,0.00,30.01,1016.80,10.00,M,OVC,M,M,M,4800.00,M,M,M,M,KARR 010152Z 32005KT 10SM OVC048 04/02 A3001 RMK AO2 SLP168 T00390017
ARR,2017-04-01 01:55,-88.4800,41.7700,M,M,M,320.00,5.00,M,30.01,M,10.00,M,OVC,M,M,M,4800.00,M,M,M,M,KARR 010155Z AUTO 32005KT 10SM OVC048 A3001 RMK MADISHF
ARR,2017-04-01 02:00,-88.4800,41.7700,M,M,M,320.00,6.00,M,30.01,M,10.00,M,OVC,M,M,M,4800.00,M,M,M,M,KARR 010200Z AUTO 32006KT 10SM OVC048 A3001 RMK MADISHF
ARR,2017-04-01 02:05,-88.4800,41.7700,M,M,M,320.00,6.00,M,30.02,M,10.00,M,OVC,M,M,M,4800.00,M,M,M,M,KARR 010205Z AUTO 32006KT 10SM OVC048 A3002 RMK MADISHF
ARR,2017-04-01 02:10,-88.4800,41.7700,M,M,M,320.00,6.00,M,30.02,M,10.00,M,BKN,M,M,M,4800.00,M,M,M,M,KARR 010210Z AUTO 32006KT 10SM BKN048 A3002 RMK MADISHF
ARR,2017-04-01 02:15,-88.4800,41.7700,M,M,M,320.00,7.00,M,30.02,M,10.00,M,BKN,M,M,M,4800.00,M,M,M,M,KARR 010215Z AUTO 32007KT 10SM BKN048 A3002 RMK MADISHF
ARR,2017-04-01 02:20,-88.4800,41.7700,M,M,M,320.00,6.00,M,30.03,M,10.00,M,SCT,M,M,M,4800.00,M,M,M,M,KARR 010220Z AUTO 32006KT 10SM SCT048 A3003 RMK MADISHF
ARR,2017-04-01 02:25,-88.4800,41.7700,M,M,M,320.00,6.00,M,30.03,M,10.00,M,SCT,M,M,M,4800.00,M,M,M,M,KARR 010225Z AUTO 32006KT 10SM SCT048 A3003 RMK MADISHF
ARR,2017-04-01 02:30,-88.4800,41.7700,M,M,M,320.00,6.00,M,30.03,M,10.00,M,BKN,M,M,M,4800.00,M,M,M,M,KARR 010230Z AUTO 32006KT 10SM BKN048 A3003 RMK MADISHF
ARR,2017-04-01 02:35,-88.4800,41.7700,M,M,M,320.00,6.00,M,30.04,M,10.00,M,BKN,M,M,M,4800.00,M,M,M,M,KARR 010235Z AUTO 32006KT 10SM BKN048 A3004 RMK MADISHF
ARR,2017-04-01 02:40,-88.4800,41.7700,M,M,M,310.00,7.00,M,30.04,M,10.00,M,BKN,M,M,M,4800.00,M,M,M,M,KARR 010240Z AUTO 31007KT 10SM BKN048 A3004 RMK MADISHF
ARR,2017-04-01 02:45,-88.4800,41.7700,M,M,M,310.00,6.00,M,30.04,M,10.00,M,BKN,M,M,M,4800.00,M,M,M,M,KARR 010245Z AUTO 31006KT 10SM BKN048 A3004 RMK MADISHF
ARR,2017-04-01 02:50,-88.4800,41.7700,M,M,M,320.00,6.00,M,30.05,M,10.00,M,OVC,M,M,M,4900.00,M,M,M,M,KARR 010250Z AUTO 32006KT 10SM OVC049 A3005 RMK MADISHF
ARR,2017-04-01 02:52,-88.4800,41.7700,37.90,34.00,85.69,320.00,6.00,0.00,30.05,1018.00,10.00,M,OVC,M,M,M,4900.00,M,M,M,M,KARR 010252Z AUTO 32006KT 10SM OVC049 03/01 A3005 RMK AO2 SLP180 T00330011 53021
ARR,2017-04-01 02:55,-88.4800,41.7700,M,M,M,320.00,5.00,M,30.05,M,10.00,M,BKN,M,M,M,4900.00,M,M,M,M,KARR 010255Z AUTO 32005KT 10SM BKN049 A3005 RMK MADISHF
ARR,2017-04-01 03:00,-88.4800,41.7700,M,M,M,330.00,5.00,M,30.05,M,9.00,M,BKN,M,M,M,4900.00,M,M,M,M,KARR 010300Z AUTO 33005KT 9SM BKN049 A3005 RMK MADISHF
ARR,2017-04-01 03:05,-88.4800,41.7700,M,M,M,350.00,4.00,M,30.05,M,9.00,M,SCT,M,M,M,4900.00,M,M,M,M,KARR 010305Z AUTO 35004KT 9SM SCT049 A3005 RMK MADISHF
ARR,2017-04-01 03:10,-88.4800,41.7700,M,M,M,10.00,3.00,M,30.05,M,9.00,M,FEW,M,M,M,4900.00,M,M,M,M,KARR 010310Z AUTO 01003KT 9SM FEW049 A3005 RMK MADISHF
ARR,2017-04-01 03:15,-88.4800,41.7700,M,M,M,360.00,4.00,M,30.05,M,9.00,M,FEW,M,M,M,4900.00,M,M,M,M,KARR 010315Z AUTO 36004KT 9SM FEW049 A3005 RMK MADISHF
ARR,2017-04-01 03:20,-88.4800,41.7700,M,M,M,330.00,5.00,M,30.06,M,9.00,M,CLR,M,M,M,M,M,M,M,M,KARR 010320Z AUTO 33005KT 9SM CLR A3006 RMK MADISHF
ARR,2017-04-01 03:25,-88.4800,41.7700,M,M,M,320.00,5.00,M,30.06,M,10.00,M,FEW,M,M,M,5000.00,M,M,M,M,KARR 010325Z AUTO 32005KT 10SM FEW050 A3006 RMK MADISHF
ARR,2017-04-01 03:30,-88.4800,41.7700,M,M,M,320.00,6.00,M,30.06,M,10.00,M,SCT,M,M,M,5000.00,M,M,M,M,KARR 010330Z AUTO 32006KT 10SM SCT050 A3006 RMK MADISHF
ARR,2017-04-01 03:35,-88.4800,41.7700,M,M,M,310.00,7.00,M,30.06,M,10.00,M,SCT,M,M,M,5000.00,M,M,M,M,KARR 010335Z AUTO 31007KT 10SM SCT050 A3006 RMK MADISHF
ARR,2017-04-01 03:40,-88.4800,41.7700,M,M,M,310.00,7.00,M,30.07,M,10.00,M,SCT,M,M,M,5000.00,M,M,M,M,KARR 010340Z AUTO 31007KT 10SM SCT050 A3007 RMK MADISHF
ARR,2017-04-01 03:45,-88.4800,41.7700,M,M,M,310.00,7.00,M,30.07,M,10.00,M,FEW,M,M,M,5000.00,M,M,M,M,KARR 010345Z AUTO 31007KT 10SM FEW050 A3007 RMK MADISHF
ARR,2017-04-01 03:50,-88.4800,41.7700,M,M,M,320.00,6.00,M,30.06,M,10.00,M,FEW,M,M,M,5000.00,M,M,M,M,KARR 010350Z AUTO 32006KT 10SM FEW050 A3006 RMK MADISHF
ARR,2017-04-01 03:52,-88.4800,41.7700,36.00,33.10,89.09,330.00,6.00,0.00,30.06,1018.40,9.00,M,FEW,M,M,M,5000.00,M,M,M,M,KARR 010352Z AUTO 33006KT 9SM FEW050 02/01 A3006 RMK AO2 SLP184 T00220006
ARR,2017-04-01 03:55,-88.4800,41.7700,M,M,M,320.00,7.00,M,30.06,M,9.00,M,FEW,M,M,M,5000.00,M,M,M,M,KARR 010355Z AUTO 32007KT 9SM FEW050 A3006 RMK MADISHF
ARR,2017-04-01 04:00,-88.4800,41.7700,M,M,M,330.00,6.00,M,30.06,M,9.00,M,FEW,M,M,M,5000.00,M,M,M,M,KARR 010400Z AUTO 33006KT 9SM FEW050 A3006 RMK MADISHF
ARR,2017-04-01 04:05,-88.4800,41.7700,M,M,M,350.00,6.00,M,30.04,M,9.00,M,CLR,M,M,M,M,M,M,M,M,KARR 010405Z AUTO 35006KT 9SM CLR A3004 RMK MADISHF
ARR,2017-04-01 04:10,-88.4800,41.7700,M,M,M,350.00,4.00,M,30.04,M,9.00,M,CLR,M,M,M,M,M,M,M,M,KARR 010410Z AUTO 35004KT 9SM CLR A3004 RMK MADISHF
ARR,2017-04-01 04:15,-88.4800,41.7700,M,M,M,320.00,5.00,M,30.05,M,9.00,M,CLR,M,M,M,M,M,M,M,M,KARR 010415Z AUTO 32005KT 9SM CLR A3005 RMK MADISHF
ARR,2017-04-01 04:20,-88.4800,41.7700,M,M,M,310.00,6.00,M,30.05,M,9.00,M,CLR,M,M,M,M,M,M,M,M,KARR 010420Z AUTO 31006KT 9SM CLR A3005 RMK MADISHF
ARR,2017-04-01 04:25,-88.4800,41.7700,M,M,M,320.00,6.00,M,30.05,M,9.00,M,CLR,M,M,M,M,M,M,M,M,KARR 010425Z AUTO 32006KT 9SM CLR A3005 RMK MADISHF
ARR,2017-04-01 04:30,-88.4800,41.7700,M,M,M,320.00,6.00,M,30.05,M,9.00,M,CLR,M,M,M,M,M,M,M,M,KARR 010430Z AUTO 32006KT 9SM CLR A3005 RMK MADISHF
ARR,2017-04-01 04:35,-88.4800,41.7700,M,M,M,320.00,7.00,M,30.05,M,9.00,M,CLR,M,M,M,M,M,M,M,M,KARR 010435Z AUTO 32007KT 9SM CLR A3005 RMK MADISHF
ARR,2017-04-01 04:40,-88.4800,41.7700,M,M,M,310.00,7.00,M,30.05,M,9.00,M,CLR,M,M,M,M,M,M,M,M,KARR 010440Z AUTO 31007KT 9SM CLR A3005 RMK MADISHF
ARR,2017-04-01 04:45,-88.4800,41.7700,M,M,M,300.00,7.00,M,30.06,M,9.00,M,CLR,M,M,M,M,M,M,M,M,KARR 010445Z AUTO 30007KT 9SM CLR A3006 RMK MADISHF
ARR,2017-04-01 04:50,-88.4800,41.7700,M,M,M,310.00,6.00,M,30.06,M,9.00,M,CLR,M,M,M,M,M,M,M,M,KARR 010450Z AUTO 31006KT 9SM CLR A3006 RMK MADISHF
ARR,2017-04-01 04:52,-88.4800,41.7700,35.10,32.00,88.33,310.00,7.00,0.00,30.06,1018.50,9.00,M,CLR,M,M,M,M,M,M,M,M,KARR 010452Z AUTO 31007KT 9SM CLR 02/00 A3006 RMK AO2 SLP185 T00170000
ARR,2017-04-01 04:55,-88.4800,41.7700,M,M,M,320.00,7.00,M,30.06,M,9.00,M,CLR,M,M,M,M,M,M,M,M,KARR 010455Z AUTO 32007KT 9SM CLR A3006 RMK MADISHF
ARR,2017-04-01 05:00,-88.4800,41.7700,M,M,M,310.00,8.00,M,30.06,M,9.00,M,CLR,M,M,M,M,M,M,M,M,KARR 010500Z AUTO 31008KT 9SM CLR A3006 RMK MADISHF
ARR,2017-04-01 05:05,-88.4800,41.7700,M,M,M,310.00,8.00,M,30.07,M,9.00,M,CLR,M,M,M,M,M,M,M,M,KARR 010505Z AUTO 31008KT 9SM CLR A3007 RMK MADISHF
ARR,2017-04-01 05:10,-88.4800,41.7700,M,M,M,290.00,8.00,M,30.08,M,9.00,M,CLR,M,M,M,M,M,M,M,M,KARR 010510Z AUTO 29008KT 9SM CLR A3008 RMK MADISHF
ARR,2017-04-01 05:15,-88.4800,41.7700,M,M,M,300.00,8.00,M,30.09,M,9.00,M,CLR,M,M,M,M,M,M,M,M,KARR 010515Z AUTO 30008KT 9SM CLR A3009 RMK MADISHF
ARR,2017-04-01 05:20,-88.4800,41.7700,M,M,M,300.00,8.00,M,30.09,M,9.00,M,CLR,M,M,M,M,M,M,M,M,KARR 010520Z AUTO 30008KT 9SM CLR A3009 RMK MADISHF
ARR,2017-04-01 05:25,-88.4800,41.7700,M,M,M,310.00,8.00,M,30.09,M,10.00,M,CLR,M,M,M,M,M,M,M,M,KARR 010525Z AUTO 31008KT 10SM CLR A3009 RMK MADISHF
ARR,2017-04-01 05:30,-88.4800,41.7700,M,M,M,310.00,8.00,M,30.09,M,10.00,M,CLR,M,M,M,M,M,M,M,M,KARR 010530Z AUTO 31008KT 10SM CLR A3009 RMK MADISHF
ARR,2017-04-01 05:35,-88.4800,41.7700,M,M,M,330.00,8.00,M,30.09,M,10.00,M,CLR,M,M,M,M,M,M,M,M,KARR 010535Z AUTO 33008KT 10SM CLR A3009 RMK MADISHF
ARR,2017-04-01 05:40,-88.4800,41.7700,M,M,M,320.00,8.00,M,30.09,M,10.00,M,CLR,M,M,M,M,M,M,M,M,KARR 010540Z AUTO 32008KT 10SM CLR A3009 RMK MADISHF
ARR,2017-04-01 05:45,-88.4800,41.7700,M,M,M,320.00,7.00,M,30.09,M,10.00,M,CLR,M,M,M,M,M,M,M,M,KARR 010545Z AUTO 32007KT 10SM CLR A3009 RMK MADISHF
ARR,2017-04-01 05:50,-88.4800,41.7700,M,M,M,320.00,7.00,M,30.09,M,10.00,M,CLR,M,M,M,M,M,M,M,M,KARR 010550Z AUTO 32007KT 10SM CLR A3009 RMK MADISHF
ARR,2017-04-01 05:52,-88.4800,41.7700,35.10,32.00,88.33,330.00,7.00,0.00,30.09,1019.60,10.00,M,CLR,M,M,M,M,M,M,M,M,KARR 010552Z AUTO 33007KT 10SM CLR 02/00 A3009 RMK AO2 SLP196 T00170000 10056 20017 400670017 53016
ARR,2017-04-01 05:55,-88.4800,41.7700,M,M,M,330.00,6.00,M,30.10,M,10.00,M,CLR,M,M,M,M,M,M,M,M,KARR 010555Z AUTO 33006KT 10SM CLR A3010 RMK MADISHF
ARR,2017-04-01 06:00,-88.4800,41.7700,M,M,M,320.00,6.00,M,30.10,M,10.00,M,CLR,M,M,M,M,M,M,M,M,KARR 010600Z AUTO 32006KT 10SM CLR A3010 RMK MADISHF
ARR,2017-04-01 06:05,-88.4800,41.7700,M,M,M,330.00,7.00,M,30.10,M,10.00,M,CLR,M,M,M,M,M,M,M,M,KARR 010605Z AUTO 33007KT 10SM CLR A3010 RMK MADISHF
ARR,2017-04-01 06:10,-88.4800,41.7700,M,M,M,330.00,6.00,M,30.10,M,10.00,M,CLR,M,M,M,M,M,M,M,M,KARR 010610Z AUTO 33006KT 10SM CLR A3010 RMK MADISHF
ARR,2017-04-01 06:15,-88.4800,41.7700,M,M,M,330.00,6.00,M,30.09,M,10.00,M,CLR,M,M,M,M,M,M,M,M,KARR 010615Z AUTO 33006KT 10SM CLR A3009 RMK MADISHF
ARR,2017-04-01 06:20,-88.4800,41.7700,M,M,M,330.00,6.00,M,30.10,M,10.00,M,CLR,M,M,M,M,M,M,M,M,KARR 010620Z AUTO 33006KT 10SM CLR A3010 RMK MADISHF
ARR,2017-04-01 06:25,-88.4800,41.7700,M,M,M,330.00,7.00,M,30.10,M,10.00,M,CLR,M,M,M,M,M,M,M,M,KARR 010625Z AUTO 33007KT 10SM CLR A3010 RMK MADISHF
ARR,2017-04-01 06:30,-88.4800,41.7700,M,M,M,340.00,7.00,M,30.09,M,10.00,M,CLR,M,M,M,M,M,M,M,M,KARR 010630Z AUTO 34007KT 10SM CLR A3009 RMK MADISHF
ARR,2017-04-01 06:35,-88.4800,41.7700,M,M,M,340.00,7.00,M,30.10,M,10.00,M,CLR,M,M,M,M,M,M,M,M,KARR 010635Z AUTO 34007KT 10SM CLR A3010 RMK MADISHF
ARR,2017-04-01 06:40,-88.4800,41.7700,M,M,M,330.00,7.00,M,30.10,M,10.00,M,CLR,M,M,M,M,M,M,M,M,KARR 010640Z AUTO 33007KT 10SM CLR A3010 RMK MADISHF
ARR,2017-04-01 06:45,-88.4800,41.7700,M,M,M,330.00,8.00,M,30.10,M,10.00,M,CLR,M,M,M,M,M,M,M,M,KARR 010645Z AUTO 33008KT 10SM CLR A3010 RMK MADISHF
ARR,2017-04-01 06:50,-88.4800,41.7700,M,M,M,330.00,7.00,M,30.10,M,10.00,M,CLR,M,M,M,M,M,M,M,M,KARR 010650Z AUTO 33007KT 10SM CLR A3010 RMK MADISHF
ARR,2017-04-01 06:52,-88.4800,41.7700,35.10,30.90,84.49,320.00,7.00,0.00,30.10,1019.90,10.00,M,CLR,M,M,M,M,M,M,M,M,KARR 010652Z AUTO 32007KT 10SM CLR 02/M01 A3010 RMK AO2 SLP199 T00171006
ARR,2017-04-01 06:55,-88.4800,41.7700,M,M,M,330.00,7.00,M,30.10,M,10.00,M,CLR,M,M,M,M,M,M,M,M,KARR 010655Z AUTO 33007KT 10SM CLR A3010 RMK MADISHF
ARR,2017-04-01 07:00,-88.4800,41.7700,M,M,M,340.00,7.00,M,30.10,M,10.00,M,CLR,M,M,M,M,M,M,M,M,KARR 010700Z AUTO 34007KT 10SM CLR A3010 RMK MADISHF
ARR,2017-04-01 07:05,-88.4800,41.7700,M,M,M,340.00,8.00,M,30.10,M,10.00,M,CLR,M,M,M,M,M,M,M,M,KARR 010705Z AUTO 34008KT 10SM CLR A3010 RMK MADISHF
ARR,2017-04-01 07:10,-88.4800,41.7700,M,M,M,340.00,7.00,M,30.10,M,10.00,M,CLR,M,M,M,M,M,M,M,M,KARR 010710Z AUTO 34007KT 10SM CLR A3010 RMK MADISHF
ARR,2017-04-01 07:15,-88.4800,41.7700,M,M,M,340.00,6.00,M,30.10,M,10.00,M,CLR,M,M,M,M,M,M,M,M,KARR 010715Z AUTO 34006KT 10SM CLR A3010 RMK MADISHF
ARR,2017-04-01 07:20,-88.4800,41.7700,M,M,M,340.00,8.00,M,30.11,M,10.00,M,CLR,M,M,M,M,M,M,M,M,KARR 010720Z AUTO 34008KT 10SM CLR A3011 RMK MADISHF
ARR,2017-04-01 07:25,-88.4800,41.7700,M,M,M,330.00,7.00,M,30.11,M,10.00,M,CLR,M,M,M,M,M,M,M,M,KARR 010725Z AUTO 33007KT 10SM CLR A3011 RMK MADISHF
ARR,2017-04-01 07:30,-88.4800,41.7700,M,M,M,330.00,6.00,M,30.11,M,10.00,M,CLR,M,M,M,M,M,M,M,M,KARR 010730Z AUTO 33006KT 10SM CLR A3011 RMK MADISHF
ARR,2017-04-01 07:35,-88.4800,41.7700,M,M,M,330.00,6.00,M,30.11,M,10.00,M,CLR,M,M,M,M,M,M,M,M,KARR 010735Z AUTO 33006KT 10SM CLR A3011 RMK MADISHF
ARR,2017-04-01 07:40,-88.4800,41.7700,M,M,M,330.00,6.00,M,30.11,M,10.00,M,CLR,M,M,M,M,M,M,M,M,KARR 010740Z AUTO 33006KT 10SM CLR A3011 RMK MADISHF
ARR,2017-04-01 07:45,-88.4800,41.7700,M,M,M,320.00,6.00,M,30.12,M,10.00,M,CLR,M,M,M,M,M,M,M,M,KARR 010745Z AUTO 32006KT 10SM CLR A3012 RMK MADISHF
ARR,2017-04-01 07:50,-88.4800,41.7700,M,M,M,330.00,6.00,M,30.12,M,10.00,M,CLR,M,M,M,M,M,M,M,M,KARR 010750Z AUTO 33006KT 10SM CLR A3012 RMK MADISHF
ARR,2017-04-01 07:52,-88.4800,41.7700,35.10,30.90,84.49,330.00,7.00,0.00,30.12,1020.50,10.00,M,CLR,M,M,M,M,M,M,M,M,KARR 010752Z AUTO 33007KT 10SM CLR 02/M01 A3012 RMK AO2 SLP205 T00171006
ARR,2017-04-01 07:55,-88.4800,41.7700,M,M,M,320.00,6.00,M,30.12,M,10.00,M,CLR,M,M,M,M,M,M,M,M,KARR 010755Z AUTO 32006KT 10SM CLR A3012 RMK MADISHF
ARR,2017-04-01 08:00,-88.4800,41.7700,M,M,M,320.00,7.00,M,30.12,M,10.00,M,CLR,M,M,M,M,M,M,M,M,KARR 010800Z AUTO 32007KT 10SM CLR A3012 RMK MADISHF
ARR,2017-04-01 08:05,-88.4800,41.7700,M,M,M,320.00,5.00,M,30.13,M,10.00,M,CLR,M,M,M,M,M,M,M,M,KARR 010805Z AUTO 32005KT 10SM CLR A3013 RMK MADISHF
ARR,2017-04-01 08:10,-88.4800,41.7700,M,M,M,320.00,6.00,M,30.13,M,10.00,M,CLR,M,M,M,M,M,M,M,M,KARR 010810Z AUTO 32006KT 10SM CLR A3013 RMK MADISHF
ARR,2017-04-01 08:15,-88.4800,41.7700,M,M,M,320.00,5.00,M,30.13,M,10.00,M,CLR,M,M,M,M,M,M,M,M,KARR 010815Z AUTO 32005KT 10SM CLR A3013 RMK MADISHF
ARR,2017-04-01 08:20,-88.4800,41.7700,M,M,M,320.00,6.00,M,30.13,M,10.00,M,CLR,M,M,M,M,M,M,M,M,KARR 010820Z AUTO 32006KT 10SM CLR A3013 RMK MADISHF
ARR,2017-04-01 08:25,-88.4800,41.7700,M,M,M,320.00,5.00,M,30.13,M,10.00,M,CLR,M,M,M,M,M,M,M,M,KARR 010825Z AUTO 32005KT 10SM CLR A3013 RMK MADISHF
ARR,2017-04-01 08:30,-88.4800,41.7700,M,M,M,300.00,5.00,M,30.14,M,10.00,M,CLR,M,M,M,M,M,M,M,M,KARR 010830Z AUTO 30005KT 10SM CLR A3014 RMK MADISHF
ARR,2017-04-01 08:35,-88.4800,41.7700,M,M,M,300.00,4.00,M,30.14,M,10.00,M,CLR,M,M,M,M,M,M,M,M,KARR 010835Z AUTO 30004KT 10SM CLR A3014 RMK MADISHF
ARR,2017-04-01 08:40,-88.4800,41.7700,M,M,M,290.00,3.00,M,30.14,M,9.00,M,CLR,M,M,M,M,M,M,M,M,KARR 010840Z AUTO 29003KT 9SM CLR A3014 RMK MADISHF
ARR,2017-04-01 08:45,-88.4800,41.7700,M,M,M,290.00,3.00,M,30.14,M,9.00,M,CLR,M,M,M,M,M,M,M,M,KARR 010845Z AUTO 29003KT 9SM CLR A3014 RMK MADISHF
ARR,2017-04-01 08:50,-88.4800,41.7700,M,M,M,300.00,4.00,M,30.14,M,9.00,M,CLR,M,M,M,M,M,M,M,M,KARR 010850Z AUTO 30004KT 9SM CLR A3014 RMK MADISHF
ARR,2017-04-01 08:52,-88.4800,41.7700,33.10,30.00,88.23,300.00,4.00,0.00,30.14,1021.10,8.00,M,CLR,M,M,M,M,M,M,M,M,KARR 010852Z AUTO 30004KT 8SM CLR 01/M01 A3014 RMK AO2 SLP211 T00061011 53014
ARR,2017-04-01 08:55,-88.4800,41.7700,M,M,M,310.00,4.00,M,30.14,M,8.00,M,CLR,M,M,M,M,M,M,M,M,KARR 010855Z AUTO 31004KT 8SM CLR A3014 RMK MADISHF
ARR,2017-04-01 09:00,-88.4800,41.7700,M,M,M,320.00,4.00,M,30.14,M,9.00,M,CLR,M,M,M,M,M,M,M,M,KARR 010900Z AUTO 32004KT 9SM CLR A3014 RMK MADISHF
ARR,2017-04-01 09:05,-88.4800,41.7700,M,M,M,320.00,5.00,M,30.14,M,9.00,M,CLR,M,M,M,M,M,M,M,M,KARR 010905Z AUTO 32005KT 9SM CLR A3014 RMK MADISHF
ARR,2017-04-01 09:10,-88.4800,41.7700,M,M,M,320.00,4.00,M,30.14,M,8.00,M,CLR,M,M,M,M,M,M,M,M,KARR 010910Z AUTO 32004KT 8SM CLR A3014 RMK MADISHF
ARR,2017-04-01 09:15,-88.4800,41.7700,M,M,M,330.00,4.00,M,30.14,M,8.00,M,CLR,M,M,M,M,M,M,M,M,KARR 010915Z AUTO 33004KT 8SM CLR A3014 RMK MADISHF
ARR,2017-04-01 09:20,-88.4800,41.7700,M,M,M,330.00,3.00,M,30.14,M,8.00,M,CLR,M,M,M,M,M,M,M,M,KARR 010920Z AUTO 33003KT 8SM CLR A3014 RMK MADISHF
ARR,2017-04-01 09:25,-88.4800,41.7700,M,M,M,340.00,4.00,M,30.13,M,8.00,M,CLR,M,M,M,M,M,M,M,M,KARR 010925Z AUTO 34004KT 8SM CLR A3013 RMK MADISHF
ARR,2017-04-01 09:30,-88.4800,41.7700,M,M,M,320.00,4.00,M,30.14,M,8.00,M,CLR,M,M,M,M,M,M,M,M,KARR 010930Z AUTO 32004KT 8SM CLR A3014 RMK MADISHF
ARR,2017-04-01 09:35,-88.4800,41.7700,M,M,M,310.00,4.00,M,30.14,M,7.00,M,CLR,M,M,M,M,M,M,M,M,KARR 010935Z AUTO 31004KT 7SM CLR A3014 RMK MADISHF
ARR,2017-04-01 09:40,-88.4800,41.7700,M,M,M,300.00,4.00,M,30.14,M,7.00,M,CLR,M,M,M,M,M,M,M,M,KARR 010940Z AUTO 30004KT 7SM CLR A3014 RMK MADISHF
ARR,2017-04-01 09:45,-88.4800,41.7700,M,M,M,300.00,4.00,M,30.14,M,7.00,M,CLR,M,M,M,M,M,M,M,M,KARR 010945Z AUTO 30004KT 7SM CLR A3014 RMK MADISHF
ARR,2017-04-01 09:50,-88.4800,41.7700,M,M,M,300.00,3.00,M,30.14,M,7.00,M,CLR,M,M,M,M,M,M,M,M,KARR 010950Z AUTO 30003KT 7SM CLR A3014 RMK MADISHF
ARR,2017-04-01 09:52,-88.4800,41.7700,33.10,30.90,91.51,290.00,3.00,0.00,30.14,1021.20,6.00,M,CLR,M,M,M,M,M,M,M,BR,KARR 010952Z AUTO 29003KT 6SM BR CLR 01/M01 A3014 RMK AO2 SLP212 T00061006
ARR,2017-04-01 09:55,-88.4800,41.7700,M,M,M,0.00,0.00,M,30.14,M,6.00,M,CLR,M,M,M,M,M,M,M,BR,KARR 010955Z AUTO 00000KT 6SM BR CLR A3014 RMK MADISHF
ARR,2017-04-01 10:00,-88.4800,41.7700,M,M,M,0.00,0.00,M,30.14,M,6.00,M,CLR,M,M,M,M,M,M,M,BR,KARR 011000Z AUTO 00000KT 6SM BR CLR A3014 RMK MADISHF
ARR,2017-04-01 10:05,-88.4800,41.7700,M,M,M,0.00,0.00,M,30.14,M,6.00,M,CLR,M,M,M,M,M,M,M,BR,KARR 011005Z AUTO 00000KT 6SM BR CLR A3014 RMK MADISHF
ARR,2017-04-01 10:10,-88.4800,41.7700,M,M,M,0.00,0.00,M,30.14,M,6.00,M,CLR,M,M,M,M,M,M,M,BR,KARR 011010Z AUTO 00000KT 6SM BR CLR A3014 RMK MADISHF
ARR,2017-04-01 10:15,-88.4800,41.7700,M,M,M,0.00,0.00,M,30.14,M,6.00,M,CLR,M,M,M,M,M,M,M,BR,KARR 011015Z AUTO 00000KT 6SM BR CLR A3014 RMK MADISHF
ARR,2017-04-01 10:20,-88.4800,41.7700,M,M,M,0.00,0.00,M,30.14,M,6.00,M,CLR,M,M,M,M,M,M,M,BR,KARR 011020Z AUTO 00000KT 6SM BR CLR A3014 RMK MADISHF
ARR,2017-04-01 10:25,-88.4800,41.7700,M,M,M,350.00,3.00,M,30.14,M,6.00,M,CLR,M,M,M,M,M,M,M,BR,KARR 011025Z AUTO 35003KT 6SM BR CLR A3014 RMK MADISHF
ARR,2017-04-01 10:30,-88.4800,41.7700,M,M,M,340.00,3.00,M,30.14,M,6.00,M,CLR,M,M,M,M,M,M,M,BR,KARR 011030Z AUTO 34003KT 6SM BR CLR A3014 RMK MADISHF
ARR,2017-04-01 10:35,-88.4800,41.7700,M,M,M,320.00,3.00,M,30.14,M,6.00,M,CLR,M,M,M,M,M,M,M,BR,KARR 011035Z AUTO 32003KT 6SM BR CLR A3014 RMK MADISHF
ARR,2017-04-01 10:40,-88.4800,41.7700,M,M,M,0.00,0.00,M,30.14,M,6.00,M,CLR,M,M,M,M,M,M,M,BR,KARR 011040Z AUTO 00000KT 6SM BR CLR A3014 RMK MADISHF
ARR,2017-04-01 10:45,-88.4800,41.7700,M,M,M,260.00,3.00,M,30.15,M,6.00,M,CLR,M,M,M,M,M,M,M,BR,KARR 011045Z AUTO 26003KT 6SM BR CLR A3015 RMK MADISHF
ARR,2017-04-01 10:50,-88.4800,41.7700,M,M,M,280.00,5.00,M,30.15,M,6.00,M,CLR,M,M,M,M,M,M,M,BR,KARR 011050Z AUTO 28005KT 6SM BR CLR A3015 RMK MADISHF
ARR,2017-04-01 10:52,-88.4800,41.7700,30.90,28.90,92.18,280.00,5.00,0.00,30.15,1021.60,5.00,M,CLR,M,M,M,M,M,M,M,BR,KARR 011052Z AUTO 28005KT 5SM BR CLR M01/M02 A3015 RMK AO2 SLP216 T10061017
ARR,2017-04-01 10:55,-88.4800,41.7700,M,M,M,280.00,5.00,M,30.15,M,5.00,M,CLR,M,M,M,M,M,M,M,BR,KARR 011055Z AUTO 28005KT 5SM BR CLR A3015 RMK MADISHF
ARR,2017-04-01 11:00,-88.4800,41.7700,M,M,M,280.00,5.00,M,30.16,M,5.00,M,CLR,M,M,M,M,M,M,M,BR,KARR 011100Z AUTO 28005KT 5SM BR CLR A3016 RMK MADISHF
ARR,2017-04-01 11:05,-88.4800,41.7700,M,M,M,280.00,5.00,M,30.16,M,5.00,M,CLR,M,M,M,M,M,M,M,BR,KARR 011105Z AUTO 28005KT 5SM BR CLR A3016 RMK MADISHF
ARR,2017-04-01 11:10,-88.4800,41.7700,M,M,M,280.00,4.00,M,30.16,M,4.00,M,CLR,M,M,M,M,M,M,M,BR,KARR 011110Z AUTO 28004KT 4SM BR CLR A3016 RMK MADISHF
ARR,2017-04-01 11:15,-88.4800,41.7700,M,M,M,280.00,4.00,M,30.17,M,4.00,M,CLR,M,M,M,M,M,M,M,BR,KARR 011115Z AUTO 28004KT 4SM BR CLR A3017 RMK MADISHF
ARR,2017-04-01 11:20,-88.4800,41.7700,M,M,M,270.00,4.00,M,30.17,M,5.00,M,CLR,M,M,M,M,M,M,M,BR,KARR 011120Z AUTO 27004KT 5SM BR CLR A3017 RMK MADISHF
ARR,2017-04-01 11:25,-88.4800,41.7700,M,M,M,260.00,4.00,M,30.18,M,5.00,M,CLR,M,M,M,M,M,M,M,BR,KARR 011125Z AUTO 26004KT 5SM BR CLR A3018 RMK MADISHF
ARR,2017-04-01 11:30,-88.4800,41.7700,M,M,M,270.00,4.00,M,30.18,M,5.00,M,CLR,M,M,M,M,M,M,M,BR,KARR 011130Z AUTO 27004KT 5SM BR CLR A3018 RMK MADISHF
ARR,2017-04-01 11:35,-88.4800,41.7700,M,M,M,290.00,3.00,M,30.18,M,5.00,M,CLR,M,M,M,M,M,M,M,BR,KARR 011135Z AUTO 29003KT 5SM BR CLR A3018 RMK MADISHF
ARR,2017-04-01 11:40,-88.4800,41.7700,M,M,M,290.00,3.00,M,30.18,M,4.00,M,CLR,M,M,M,M,M,M,M,BR,KARR 011140Z AUTO 29003KT 4SM BR CLR A3018 RMK MADISHF
ARR,2017-04-01 11:45,-88.4800,41.7700,M,M,M,0.00,0.00,M,30.18,M,3.50,M,CLR,M,M,M,M,M,M,M,BR,KARR 011145Z AUTO 00000KT 3SM BR CLR A3018 RMK MADISHF
ARR,2017-04-01 11:50,-88.4800,41.7700,M,M,M,0.00,0.00,M,30.18,M,2.50,M,CLR,M,M,M,M,M,M,M,BR,KARR 011150Z AUTO 00000KT 2 1/2SM BR CLR A3018 RMK MADISHF
ARR,2017-04-01 11:52,-88.4800,41.7700,32.00,30.00,92.22,0.00,0.00,0.00,30.19,1022.70,10.00,M,CLR,M,M,M,M,M,M,M,M,KARR 011152Z 00000KT 10SM CLR 00/M01 A3019 RMK AO2 SLP227 70004 T00001011 10017 21006 53016
ARR,2017-04-01 11:55,-88.4800,41.7700,M,M,M,0.00,0.00,M,30.19,M,3.00,M,CLR,M,M,M,M,M,M,M,BR,KARR 011155Z AUTO 00000KT 3SM BR CLR A3019 RMK MADISHF
ARR,2017-04-01 12:00,-88.4800,41.7700,M,M,M,0.00,0.00,M,30.19,M,3.00,M,CLR,M,M,M,M,M,M,M,BR,KARR 011200Z AUTO 00000KT 3SM BR CLR A3019 RMK MADISHF
ARR,2017-04-01 12:05,-88.4800,41.7700,M,M,M,0.00,0.00,M,30.19,M,3.00,M,CLR,M,M,M,M,M,M,M,BR,KARR 011205Z AUTO 00000KT 3SM BR CLR A3019 RMK MADISHF
ARR,2017-04-01 12:10,-88.4800,41.7700,M,M,M,0.00,0.00,M,30.19,M,3.00,M,CLR,M,M,M,M,M,M,M,BR,KARR 011210Z AUTO 00000KT 3SM BR CLR A3019 RMK MADISHF
ARR,2017-04-01 12:15,-88.4800,41.7700,M,M,M,340.00,3.00,M,30.20,M,3.00,M,CLR,M,M,M,M,M,M,M,BR,KARR 011215Z AUTO 34003KT 3SM BR CLR A3020 RMK MADISHF
ARR,2017-04-01 12:20,-88.4800,41.7700,M,M,M,360.00,3.00,M,30.20,M,3.00,M,CLR,M,M,M,M,M,M,M,BR,KARR 011220Z AUTO 36003KT 3SM BR CLR A3020 RMK MADISHF
ARR,2017-04-01 12:25,-88.4800,41.7700,M,M,M,360.00,4.00,M,30.20,M,3.00,M,CLR,M,M,M,M,M,M,M,BR,KARR 011225Z AUTO 36004KT 3SM BR CLR A3020 RMK MADISHF
ARR,2017-04-01 12:30,-88.4800,41.7700,M,M,M,360.00,4.00,M,30.20,M,3.00,M,CLR,M,M,M,M,M,M,M,BR,KARR 011230Z AUTO 36004KT 3SM BR CLR A3020 RMK MADISHF
ARR,2017-04-01 12:35,-88.4800,41.7700,M,M,M,10.00,4.00,M,30.20,M,3.00,M,CLR,M,M,M,M,M,M,M,BR,KARR 011235Z AUTO 01004KT 3SM BR CLR A3020 RMK MADISHF
ARR,2017-04-01 12:40,-88.4800,41.7700,M,M,M,0.00,0.00,M,30.20,M,3.00,M,CLR,M,M,M,M,M,M,M,BR,KARR 011240Z AUTO 00000KT 3SM BR CLR A3020 RMK MADISHF
ARR,2017-04-01 12:45,-88.4800,41.7700,M,M,M,0.00,0.00,M,30.20,M,3.00,M,CLR,M,M,M,M,M,M,M,BR,KARR 011245Z AUTO 00000KT 3SM BR CLR A3020 RMK MADISHF
ARR,2017-04-01 12:50,-88.4800,41.7700,M,M,M,0.00,0.00,M,30.20,M,5.00,M,CLR,M,M,M,M,M,M,M,BR,KARR 011250Z AUTO 00000KT 5SM BR CLR A3020 RMK MADISHF
ARR,2017-04-01 12:52,-88.4800,41.7700,36.00,34.00,92.35,0.00,0.00,0.00,30.20,1023.20,5.00,M,CLR,M,M,M,M,M,M,M,BR,KARR 011252Z 00000KT 5SM BR CLR 02/01 A3020 RMK AO2 SLP232 T00220011
ARR,2017-04-01 12:55,-88.4800,41.7700,M,M,M,0.00,0.00,M,30.20,M,5.00,M,CLR,M,M,M,M,M,M,M,BR,KARR 011255Z AUTO 00000KT 5SM BR CLR A3020 RMK MADISHF
ARR,2017-04-01 13:00,-88.4800,41.7700,M,M,M,0.00,0.00,M,30.20,M,5.00,M,CLR,M,M,M,M,M,M,M,BR,KARR 011300Z AUTO 00000KT 5SM BR CLR A3020 RMK MADISHF
ARR,2017-04-01 13:05,-88.4800,41.7700,M,M,M,0.00,0.00,M,30.20,M,6.00,M,CLR,M,M,M,M,M,M,M,BR,KARR 011305Z AUTO 00000KT 6SM BR CLR A3020 RMK MADISHF
ARR,2017-04-01 13:10,-88.4800,41.7700,M,M,M,0.00,0.00,M,30.21,M,6.00,M,CLR,M,M,M,M,M,M,M,HZ,KARR 011310Z AUTO 00000KT 6SM HZ CLR A3021 RMK MADISHF
ARR,2017-04-01 13:15,-88.4800,41.7700,M,M,M,0.00,0.00,M,30.21,M,6.00,M,CLR,M,M,M,M,M,M,M,BR,KARR 011315Z AUTO 00000KT 6SM BR CLR A3021 RMK MADISHF
ARR,2017-04-01 13:20,-88.4800,41.7700,M,M,M,330.00,3.00,M,30.21,M,7.00,M,CLR,M,M,M,M,M,M,M,M,KARR 011320Z AUTO 33003KT 7SM CLR A3021 RMK MADISHF
ARR,2017-04-01 13:25,-88.4800,41.7700,M,M,M,310.00,4.00,M,30.22,M,8.00,M,CLR,M,M,M,M,M,M,M,M,KARR 011325Z AUTO 31004KT 8SM CLR A3022 RMK MADISHF
ARR,2017-04-01 13:30,-88.4800,41.7700,M,M,M,300.00,4.00,M,30.22,M,8.00,M,CLR,M,M,M,M,M,M,M,M,KARR 011330Z AUTO 30004KT 8SM CLR A3022 RMK MADISHF
ARR,2017-04-01 13:35,-88.4800,41.7700,M,M,M,290.00,4.00,M,30.22,M,7.00,M,CLR,M,M,M,M,M,M,M,M,KARR 011335Z AUTO 29004KT 7SM CLR A3022 RMK MADISHF
ARR,2017-04-01 13:40,-88.4800,41.7700,M,M,M,280.00,4.00,M,30.23,M,7.00,M,CLR,M,M,M,M,M,M,M,M,KARR 011340Z AUTO 28004KT 7SM CLR A3023 RMK MADISHF
ARR,2017-04-01 13:45,-88.4800,41.7700,M,M,M,270.00,4.00,M,30.23,M,7.00,M,CLR,M,M,M,M,M,M,M,M,KARR 011345Z AUTO 27004KT 7SM CLR A3023 RMK MADISHF
ARR,2017-04-01 13:50,-88.4800,41.7700,M,M,M,280.00,4.00,M,30.23,M,7.00,M,CLR,M,M,M,M,M,M,M,M,KARR 011350Z AUTO 28004KT 7SM CLR A3023 RMK MADISHF
ARR,2017-04-01 13:52,-88.4800,41.7700,41.00,35.10,79.34,270.00,4.00,0.00,30.22,1024.10,7.00,M,CLR,M,M,M,M,M,M,M,M,KARR 011352Z 27004KT 7SM CLR 05/02 A3022 RMK AO2 SLP241 T00500017
ARR,2017-04-01 13:55,-88.4800,41.7700,M,M,M,290.00,4.00,M,30.23,M,8.00,M,CLR,M,M,M,M,M,M,M,M,KARR 011355Z AUTO 29004KT 8SM CLR A3023 RMK MADISHF
ARR,2017-04-01 14:00,-88.4800,41.7700,M,M,M,290.00,5.00,M,30.23,M,9.00,M,CLR,M,M,M,M,M,M,M,M,KARR 011400Z AUTO 29005KT 9SM CLR A3023 RMK MADISHF
ARR,2017-04-01 14:05,-88.4800,41.7700,M,M,M,290.00,5.00,M,30.23,M,9.00,M,CLR,M,M,M,M,M,M,M,M,KARR 011405Z AUTO 29005KT 9SM CLR A3023 RMK MADISHF
ARR,2017-04-01 14:10,-88.4800,41.7700,M,M,M,280.00,6.00,M,30.23,M,10.00,M,CLR,M,M,M,M,M,M,M,M,KARR 011410Z AUTO 28006KT 10SM CLR A3023 RMK MADISHF
ARR,2017-04-01 14:15,-88.4800,41.7700,M,M,M,290.00,6.00,M,30.23,M,9.00,M,CLR,M,M,M,M,M,M,M,M,KARR 011415Z AUTO 29006KT 9SM CLR A3023 RMK MADISHF
ARR,2017-04-01 14:20,-88.4800,41.7700,M,M,M,280.00,6.00,M,30.24,M,9.00,M,CLR,M,M,M,M,M,M,M,M,KARR 011420Z AUTO 28006KT 9SM CLR A3024 RMK MADISHF
ARR,2017-04-01 14:25,-88.4800,41.7700,M,M,M,290.00,6.00,M,30.24,M,10.00,M,CLR,M,M,M,M,M,M,M,M,KARR 011425Z AUTO 29006KT 10SM CLR A3024 RMK MADISHF
ARR,2017-04-01 14:30,-88.4800,41.7700,M,M,M,310.00,5.00,M,30.24,M,10.00,M,CLR,M,M,M,M,M,M,M,M,KARR 011430Z AUTO 31005KT 10SM CLR A3024 RMK MADISHF
ARR,2017-04-01 14:35,-88.4800,41.7700,M,M,M,290.00,5.00,M,30.24,M,10.00,M,CLR,M,M,M,M,M,M,M,M,KARR 011435Z AUTO 29005KT 10SM CLR A3024 RMK MADISHF
ARR,2017-04-01 14:40,-88.4800,41.7700,M,M,M,290.00,4.00,M,30.24,M,10.00,M,CLR,M,M,M,M,M,M,M,M,KARR 011440Z AUTO 29004KT 10SM CLR A3024 RMK MADISHF
ARR,2017-04-01 14:45,-88.4800,41.7700,M,M,M,320.00,5.00,M,30.24,M,10.00,M,CLR,M,M,M,M,M,M,M,M,KARR 011445Z AUTO 32005KT 10SM CLR A3024 RMK MADISHF
ARR,2017-04-01 14:50,-88.4800,41.7700,M,M,M,280.00,4.00,M,30.24,M,10.00,M,CLR,M,M,M,M,M,M,M,M,KARR 011450Z AUTO 28004KT 10SM CLR A3024 RMK MADISHF
ARR,2017-04-01 14:52,-88.4800,41.7700,46.00,35.10,65.52,290.00,4.00,0.00,30.24,1024.50,10.00,M,CLR,M,M,M,M,M,M,M,M,KARR 011452Z 29004KT 10SM CLR 08/02 A3024 RMK AO2 SLP245 T00780017 53018
ARR,2017-04-01 14:55,-88.4800,41.7700,M,M,M,280.00,5.00,M,30.24,M,10.00,M,CLR,M,M,M,M,M,M,M,M,KARR 011455Z AUTO 28005KT 10SM CLR A3024 RMK MADISHF
ARR,2017-04-01 15:00,-88.4800,41.7700,M,M,M,280.00,4.00,M,30.24,M,10.00,M,CLR,M,M,M,M,M,M,M,M,KARR 011500Z AUTO 28004KT 10SM CLR A3024 RMK MADISHF
ARR,2017-04-01 15:05,-88.4800,41.7700,M,M,M,270.00,3.00,M,30.24,M,10.00,M,CLR,M,M,M,M,M,M,M,M,KARR 011505Z AUTO 27003KT 10SM CLR A3024 RMK MADISHF
ARR,2017-04-01 15:10,-88.4800,41.7700,M,M,M,290.00,4.00,M,30.24,M,10.00,M,CLR,M,M,M,M,M,M,M,M,KARR 011510Z AUTO 29004KT 10SM CLR A3024 RMK MADISHF
ARR,2017-04-01 15:15,-88.4800,41.7700,M,M,M,310.00,4.00,M,30.24,M,10.00,M,CLR,M,M,M,M,M,M,M,M,KARR 011515Z AUTO 31004KT 10SM CLR A3024 RMK VRB04KT  MADISHF
ARR,2017-04-01 15:20,-88.4800,41.7700,M,M,M,310.00,4.00,M,30.24,M,10.00,M,CLR,M,M,M,M,M,M,M,M,KARR 011520Z AUTO 31004KT 10SM CLR A3024 RMK MADISHF
ARR,2017-04-01 15:25,-88.4800,41.7700,M,M,M,300.00,4.00,M,30.24,M,10.00,M,CLR,M,M,M,M,M,M,M,M,KARR 011525Z AUTO 30004KT 10SM CLR A3024 RMK MADISHF
ARR,2017-04-01 15:30,-88.4800,41.7700,M,M,M,310.00,4.00,M,30.24,M,10.00,M,CLR,M,M,M,M,M,M,M,M,KARR 011530Z AUTO 31004KT 10SM CLR A3024 RMK MADISHF
ARR,2017-04-01 15:35,-88.4800,41.7700,M,M,M,310.00,6.00,M,30.24,M,10.00,M,CLR,M,M,M,M,M,M,M,M,KARR 011535Z AUTO 31006KT 10SM CLR A3024 RMK MADISHF
ARR,2017-04-01 15:40,-88.4800,41.7700,M,M,M,330.00,4.00,M,30.24,M,10.00,M,CLR,M,M,M,M,M,M,M,M,KARR 011540Z AUTO 33004KT 10SM CLR A3024 RMK MADISHF
ARR,2017-04-01 15:45,-88.4800,41.7700,M,M,M,320.00,6.00,M,30.25,M,10.00,M,CLR,M,M,M,M,M,M,M,M,KARR 011545Z AUTO 32006KT 10SM CLR A3025 RMK MADISHF
ARR,2017-04-01 15:50,-88.4800,41.7700,M,M,M,320.00,6.00,M,30.24,M,10.00,M,CLR,M,M,M,M,M,M,M,M,KARR 011550Z AUTO 32006KT 10SM CLR A3024 RMK MADISHF
ARR,2017-04-01 15:52,-88.4800,41.7700,50.00,30.90,47.64,340.00,5.00,0.00,30.24,1024.50,10.00,M,CLR,M,M,M,M,M,M,M,M,KARR 011552Z 34005KT 10SM CLR 10/M01 A3024 RMK AO2 SLP245 T01001006
ARR,2017-04-01 15:55,-88.4800,41.7700,M,M,M,350.00,5.00,M,30.24,M,10.00,M,CLR,M,M,M,M,M,M,M,M,KARR 011555Z AUTO 35005KT 10SM CLR A3024 RMK MADISHF
ARR,2017-04-01 16:00,-88.4800,41.7700,M,M,M,310.00,6.00,M,30.24,M,10.00,M,CLR,M,M,M,M,M,M,M,M,KARR 011600Z AUTO 31006KT 10SM CLR A3024 RMK MADISHF
ARR,2017-04-01 16:05,-88.4800,41.7700,M,M,M,340.00,7.00,M,30.25,M,10.00,M,CLR,M,M,M,M,M,M,M,M,KARR 011605Z AUTO 34007KT 10SM CLR A3025 RMK MADISHF
ARR,2017-04-01 16:10,-88.4800,41.7700,M,M,M,330.00,6.00,M,30.24,M,10.00,M,CLR,M,M,M,M,M,M,M,M,KARR 011610Z AUTO 33006KT 10SM CLR A3024 RMK MADISHF
ARR,2017-04-01 16:15,-88.4800,41.7700,M,M,M,340.00,8.00,M,30.25,M,10.00,M,CLR,M,M,M,M,M,M,M,M,KARR 011615Z AUTO 34008KT 10SM CLR A3025 RMK MADISHF
ARR,2017-04-01 16:20,-88.4800,41.7700,M,M,M,330.00,7.00,M,30.25,M,10.00,M,CLR,M,M,M,M,M,M,M,M,KARR 011620Z AUTO 33007KT 10SM CLR A3025 RMK MADISHF
ARR,2017-04-01 16:25,-88.4800,41.7700,M,M,M,320.00,7.00,M,30.25,M,10.00,M,CLR,M,M,M,M,M,M,M,M,KARR 011625Z AUTO 32007KT 10SM CLR A3025 RMK MADISHF
ARR,2017-04-01 16:30,-88.4800,41.7700,M,M,M,340.00,6.00,M,30.25,M,10.00,M,CLR,M,M,M,M,M,M,M,M,KARR 011630Z AUTO 34006KT 10SM CLR A3025 RMK MADISHF
ARR,2017-04-01 16:35,-88.4800,41.7700,M,M,M,330.00,8.00,M,30.25,M,10.00,M,CLR,M,M,M,M,M,M,M,M,KARR 011635Z AUTO 33008KT 10SM CLR A3025 RMK MADISHF
ARR,2017-04-01 16:40,-88.4800,41.7700,M,M,M,330.00,9.00,M,30.24,M,10.00,M,CLR,M,M,M,M,M,M,M,M,KARR 011640Z AUTO 33009KT 10SM CLR A3024 RMK MADISHF
ARR,2017-04-01 16:45,-88.4800,41.7700,M,M,M,330.00,9.00,M,30.24,M,10.00,M,CLR,M,M,M,M,M,M,M,M,KARR 011645Z AUTO 33009KT 10SM CLR A3024 RMK MADISHF
ARR,2017-04-01 16:50,-88.4800,41.7700,M,M,M,340.00,9.00,M,30.24,M,10.00,M,CLR,M,M,M,M,M,M,M,M,KARR 011650Z AUTO 34009KT 10SM CLR A3024 RMK MADISHF
ARR,2017-04-01 16:52,-88.4800,41.7700,52.00,28.00,39.30,330.00,8.00,0.00,30.24,1024.40,10.00,M,BKN,M,M,M,25000.00,M,M,M,M,KARR 011652Z 33008KT 10SM BKN250 11/M02 A3024 RMK AO2 SLP244 T01111022
ARR,2017-04-01 16:55,-88.4800,41.7700,M,M,M,320.00,10.00,M,30.24,M,10.00,M,CLR,M,M,M,M,M,M,M,M,KARR 011655Z AUTO 32010KT 10SM CLR A3024 RMK MADISHF
ARR,2017-04-01 17:00,-88.4800,41.7700,M,M,M,330.00,6.00,M,30.24,M,10.00,M,CLR,M,M,M,M,M,M,M,M,KARR 011700Z AUTO 33006KT 10SM CLR A3024 RMK MADISHF
ARR,2017-04-01 17:05,-88.4800,41.7700,M,M,M,350.00,9.00,M,30.24,M,10.00,M,CLR,M,M,M,M,M,M,M,M,KARR 011705Z AUTO 35009KT 10SM CLR A3024 RMK MADISHF
ARR,2017-04-01 17:10,-88.4800,41.7700,M,M,M,340.00,9.00,M,30.24,M,10.00,M,CLR,M,M,M,M,M,M,M,M,KARR 011710Z AUTO 34009KT 10SM CLR A3024 RMK MADISHF
ARR,2017-04-01 17:15,-88.4800,41.7700,M,M,M,330.00,9.00,M,30.23,M,10.00,M,CLR,M,M,M,M,M,M,M,M,KARR 011715Z AUTO 33009KT 10SM CLR A3023 RMK MADISHF
ARR,2017-04-01 17:20,-88.4800,41.7700,M,M,M,330.00,8.00,M,30.23,M,10.00,M,CLR,M,M,M,M,M,M,M,M,KARR 011720Z AUTO 33008KT 10SM CLR A3023 RMK MADISHF
ARR,2017-04-01 17:25,-88.4800,41.7700,M,M,M,320.00,7.00,M,30.23,M,10.00,M,CLR,M,M,M,M,M,M,M,M,KARR 011725Z AUTO 32007KT 10SM CLR A3023 RMK MADISHF
ARR,2017-04-01 17:30,-88.4800,41.7700,M,M,M,330.00,7.00,M,30.23,M,10.00,M,CLR,M,M,M,M,M,M,M,M,KARR 011730Z AUTO 33007KT 10SM CLR A3023 RMK MADISHF
ARR,2017-04-01 17:35,-88.4800,41.7700,M,M,M,340.00,8.00,M,30.23,M,10.00,M,CLR,M,M,M,M,M,M,M,M,KARR 011735Z AUTO 34008KT 10SM CLR A3023 RMK WND 31V02  MADISHF
ARR,2017-04-01 17:40,-88.4800,41.7700,M,M,M,350.00,7.00,M,30.23,M,10.00,M,CLR,M,M,M,M,M,M,M,M,KARR 011740Z AUTO 35007KT 10SM CLR A3023 RMK MADISHF
ARR,2017-04-01 17:45,-88.4800,41.7700,M,M,M,320.00,8.00,M,30.22,M,10.00,M,CLR,M,M,M,M,M,M,M,M,KARR 011745Z AUTO 32008KT 10SM CLR A3022 RMK MADISHF
ARR,2017-04-01 17:50,-88.4800,41.7700,M,M,M,310.00,8.00,M,30.22,M,10.00,M,M,M,M,M,M,M,M,M,M,KARR 011750Z AUTO 31008KT 10SM A3022 RMK MADISHF
ARR,2017-04-01 17:52,-88.4800,41.7700,53.10,28.90,39.16,320.00,6.00,0.00,30.23,1023.90,10.00,M,BKN,M,M,M,25000.00,M,M,M,M,KARR 011752Z 32006KT 10SM BKN250 12/M02 A3023 RMK AO2 SLP239 T01171017 10122 20000 58005
ARR,2017-04-01 17:55,-88.4800,41.7700,M,M,M,330.00,6.00,M,30.22,M,10.00,M,CLR,M,M,M,M,M,M,M,M,KARR 011755Z AUTO 33006KT 10SM CLR A3022 RMK MADISHF
ARR,2017-04-01 18:00,-88.4800,41.7700,M,M,M,350.00,8.00,M,30.22,M,10.00,M,CLR,M,M,M,M,M,M,M,M,KARR 011800Z AUTO 35008KT 10SM CLR A3022 RMK MADISHF
ARR,2017-04-01 18:05,-88.4800,41.7700,M,M,M,330.00,9.00,M,30.22,M,10.00,M,CLR,M,M,M,M,M,M,M,M,KARR 011805Z AUTO 33009KT 10SM CLR A3022 RMK MADISHF
ARR,2017-04-01 18:10,-88.4800,41.7700,M,M,M,350.00,7.00,M,30.22,M,10.00,M,CLR,M,M,M,M,M,M,M,M,KARR 011810Z AUTO 35007KT 10SM CLR A3022 RMK MADISHF
ARR,2017-04-01 18:15,-88.4800,41.7700,M,M,M,320.00,6.00,M,30.22,M,10.00,M,CLR,M,M,M,M,M,M,M,M,KARR 011815Z AUTO 32006KT 10SM CLR A3022 RMK MADISHF
ARR,2017-04-01 18:20,-88.4800,41.7700,M,M,M,290.00,7.00,M,30.22,M,10.00,M,CLR,M,M,M,M,M,M,M,M,KARR 011820Z AUTO 29007KT 10SM CLR A3022 RMK MADISHF
ARR,2017-04-01 18:25,-88.4800,41.7700,M,M,M,330.00,8.00,M,30.22,M,10.00,M,CLR,M,M,M,M,M,M,M,M,KARR 011825Z AUTO 33008KT 10SM CLR A3022 RMK MADISHF
ARR,2017-04-01 18:30,-88.4800,41.7700,M,M,M,330.00,5.00,M,30.22,M,10.00,M,CLR,M,M,M,M,M,M,M,M,KARR 011830Z AUTO 33005KT 10SM CLR A3022 RMK MADISHF
ARR,2017-04-01 18:35,-88.4800,41.7700,M,M,M,340.00,8.00,M,30.21,M,10.00,M,CLR,M,M,M,M,M,M,M,M,KARR 011835Z AUTO 34008KT 10SM CLR A3021 RMK MADISHF
ARR,2017-04-01 18:40,-88.4800,41.7700,M,M,M,360.00,6.00,M,30.22,M,10.00,M,CLR,M,M,M,M,M,M,M,M,KARR 011840Z AUTO 36006KT 10SM CLR A3022 RMK MADISHF
ARR,2017-04-01 18:45,-88.4800,41.7700,M,M,M,330.00,6.00,M,30.21,M,10.00,M,CLR,M,M,M,M,M,M,M,M,KARR 011845Z AUTO 33006KT 10SM CLR A3021 RMK MADISHF
ARR,2017-04-01 18:50,-88.4800,41.7700,M,M,M,340.00,6.00,M,30.21,M,10.00,M,CLR,M,M,M,M,M,M,M,M,KARR 011850Z AUTO 34006KT 10SM CLR A3021 RMK MADISHF
ARR,2017-04-01 18:52,-88.4800,41.7700,55.00,25.00,31.11,330.00,5.00,0.00,30.21,1023.40,10.00,M,CLR,M,M,M,M,M,M,M,M,KARR 011852Z 33005KT 10SM CLR 13/M04 A3021 RMK AO2 SLP234 T01281039
ARR,2017-04-01 18:55,-88.4800,41.7700,M,M,M,350.00,5.00,M,30.21,M,10.00,M,CLR,M,M,M,M,M,M,M,M,KARR 011855Z AUTO 35005KT 10SM CLR A3021 RMK VRB05KT  MADISHF
ARR,2017-04-01 19:00,-88.4800,41.7700,M,M,M,310.00,7.00,M,30.21,M,10.00,M,CLR,M,M,M,M,M,M,M,M,KARR 011900Z AUTO 31007KT 10SM CLR A3021 RMK MADISHF
ARR,2017-04-01 19:05,-88.4800,41.7700,M,M,M,340.00,7.00,M,30.21,M,10.00,M,CLR,M,M,M,M,M,M,M,M,KARR 011905Z AUTO 34007KT 10SM CLR A3021 RMK MADISHF
ARR,2017-04-01 19:10,-88.4800,41.7700,M,M,M,300.00,7.00,M,30.21,M,10.00,M,CLR,M,M,M,M,M,M,M,M,KARR 011910Z AUTO 30007KT 10SM CLR A3021 RMK MADISHF
ARR,2017-04-01 19:15,-88.4800,41.7700,M,M,M,330.00,7.00,M,30.21,M,10.00,M,CLR,M,M,M,M,M,M,M,M,KARR 011915Z AUTO 33007KT 10SM CLR A3021 RMK MADISHF
ARR,2017-04-01 19:20,-88.4800,41.7700,M,M,M,340.00,6.00,M,30.21,M,10.00,M,CLR,M,M,M,M,M,M,M,M,KARR 011920Z AUTO 34006KT 10SM CLR A3021 RMK MADISHF
ARR,2017-04-01 19:25,-88.4800,41.7700,M,M,M,360.00,6.00,M,30.20,M,10.00,M,CLR,M,M,M,M,M,M,M,M,KARR 011925Z AUTO 36006KT 10SM CLR A3020 RMK MADISHF
ARR,2017-04-01 19:30,-88.4800,41.7700,M,M,M,340.00,7.00,M,30.21,M,10.00,M,CLR,M,M,M,M,M,M,M,M,KARR 011930Z AUTO 34007KT 10SM CLR A3021 RMK MADISHF
ARR,2017-04-01 19:35,-88.4800,41.7700,M,M,M,300.00,4.00,M,30.20,M,10.00,M,CLR,M,M,M,M,M,M,M,M,KARR 011935Z AUTO 30004KT 10SM CLR A3020 RMK VRB04KT  MADISHF
ARR,2017-04-01 19:40,-88.4800,41.7700,M,M,M,M,M,M,30.20,M,10.00,M,CLR,M,M,M,M,M,M,M,M,KARR 011940Z AUTO /////KT 10SM CLR A3020 RMK MADISHF
ARR,2017-04-01 19:45,-88.4800,41.7700,M,M,M,300.00,6.00,M,30.21,M,10.00,M,CLR,M,M,M,M,M,M,M,M,KARR 011945Z AUTO 30006KT 10SM CLR A3021 RMK MADISHF
ARR,2017-04-01 19:50,-88.4800,41.7700,M,M,M,330.00,4.00,M,30.20,M,10.00,M,CLR,M,M,M,M,M,M,M,M,KARR 011950Z AUTO 33004KT 10SM CLR A3020 RMK MADISHF
ARR,2017-04-01 19:52,-88.4800,41.7700,55.90,26.10,31.51,320.00,5.00,0.00,30.20,1022.90,10.00,M,CLR,M,M,M,M,M,M,M,M,KARR 011952Z 32005KT 10SM CLR 13/M03 A3020 RMK AO2 SLP229 T01331033
ARR,2017-04-01 19:55,-88.4800,41.7700,M,M,M,360.00,7.00,M,30.20,M,10.00,M,CLR,M,M,M,M,M,M,M,M,KARR 011955Z AUTO 36007KT 10SM CLR A3020 RMK MADISHF
ARR,2017-04-01 20:00,-88.4800,41.7700,M,M,M,330.00,6.00,M,30.20,M,10.00,M,CLR,M,M,M,M,M,M,M,M,KARR 012000Z AUTO 33006KT 10SM CLR A3020 RMK MADISHF
ARR,2017-04-01 20:05,-88.4800,41.7700,M,M,M,310.00,6.00,M,30.19,M,10.00,M,CLR,M,M,M,M,M,M,M,M,KARR 012005Z AUTO 31006KT 10SM CLR A3019 RMK MADISHF
ARR,2017-04-01 20:10,-88.4800,41.7700,M,M,M,0.00,0.00,M,30.20,M,10.00,M,CLR,M,M,M,M,M,M,M,M,KARR 012010Z AUTO 00000KT 10SM CLR A3020 RMK MADISHF
ARR,2017-04-01 20:15,-88.4800,41.7700,M,M,M,M,M,M,30.20,M,10.00,M,CLR,M,M,M,M,M,M,M,M,KARR 012015Z AUTO /////KT 10SM CLR A3020 RMK MADISHF
ARR,2017-04-01 20:20,-88.4800,41.7700,M,M,M,280.00,5.00,M,30.19,M,10.00,M,CLR,M,M,M,M,M,M,M,M,KARR 012020Z AUTO 28005KT 10SM CLR A3019 RMK MADISHF
ARR,2017-04-01 20:25,-88.4800,41.7700,M,M,M,200.00,3.00,M,30.19,M,10.00,M,CLR,M,M,M,M,M,M,M,M,KARR 012025Z AUTO 20003KT 10SM CLR A3019 RMK MADISHF
ARR,2017-04-01 20:30,-88.4800,41.7700,M,M,M,260.00,6.00,M,30.19,M,10.00,M,CLR,M,M,M,M,M,M,M,M,KARR 012030Z AUTO 26006KT 10SM CLR A3019 RMK MADISHF
ARR,2017-04-01 20:35,-88.4800,41.7700,M,M,M,280.00,4.00,M,30.19,M,10.00,M,CLR,M,M,M,M,M,M,M,M,KARR 012035Z AUTO 28004KT 10SM CLR A3019 RMK VRB04KT  MADISHF
ARR,2017-04-01 20:40,-88.4800,41.7700,M,M,M,300.00,4.00,M,30.19,M,10.00,M,CLR,M,M,M,M,M,M,M,M,KARR 012040Z AUTO 30004KT 10SM CLR A3019 RMK VRB04KT  MADISHF
ARR,2017-04-01 20:45,-88.4800,41.7700,M,M,M,240.00,3.00,M,30.19,M,10.00,M,CLR,M,M,M,M,M,M,M,M,KARR 012045Z AUTO 24003KT 10SM CLR A3019 RMK VRB03KT  MADISHF
ARR,2017-04-01 20:50,-88.4800,41.7700,M,M,M,310.00,3.00,M,30.18,M,10.00,M,CLR,M,M,M,M,M,M,M,M,KARR 012050Z AUTO 31003KT 10SM CLR A3018 RMK VRB03KT  MADISHF
ARR,2017-04-01 20:52,-88.4800,41.7700,57.00,26.10,30.28,M,3.00,0.00,30.18,1022.40,10.00,M,CLR,M,M,M,M,M,M,M,M,KARR 012052Z VRB03KT 10SM CLR 14/M03 A3018 RMK AO2 SLP224 T01391033 56015
ARR,2017-04-01 20:55,-88.4800,41.7700,M,M,M,260.00,3.00,M,30.19,M,10.00,M,CLR,M,M,M,M,M,M,M,M,KARR 012055Z AUTO 26003KT 10SM CLR A3019 RMK MADISHF
ARR,2017-04-01 21:00,-88.4800,41.7700,M,M,M,0.00,0.00,M,30.19,M,10.00,M,CLR,M,M,M,M,M,M,M,M,KARR 012100Z AUTO 00000KT 10SM CLR A3019 RMK MADISHF
ARR,2017-04-01 21:05,-88.4800,41.7700,M,M,M,230.00,4.00,M,30.19,M,10.00,M,CLR,M,M,M,M,M,M,M,M,KARR 012105Z AUTO 23004KT 10SM CLR A3019 RMK MADISHF
ARR,2017-04-01 21:10,-88.4800,41.7700,M,M,M,250.00,5.00,M,30.19,M,10.00,M,CLR,M,M,M,M,M,M,M,M,KARR 012110Z AUTO 25005KT 10SM CLR A3019 RMK MADISHF
ARR,2017-04-01 21:15,-88.4800,41.7700,M,M,M,290.00,5.00,M,30.19,M,10.00,M,CLR,M,M,M,M,M,M,M,M,KARR 012115Z AUTO 29005KT 10SM CLR A3019 RMK VRB05KT  MADISHF
ARR,2017-04-01 21:20,-88.4800,41.7700,M,M,M,300.00,4.00,M,30.19,M,10.00,M,CLR,M,M,M,M,M,M,M,M,KARR 012120Z AUTO 30004KT 10SM CLR A3019 RMK MADISHF
ARR,2017-04-01 21:25,-88.4800,41.7700,M,M,M,280.00,5.00,M,30.19,M,10.00,M,CLR,M,M,M,M,M,M,M,M,KARR 012125Z AUTO 28005KT 10SM CLR A3019 RMK MADISHF
ARR,2017-04-01 21:30,-88.4800,41.7700,M,M,M,290.00,3.00,M,30.18,M,10.00,M,CLR,M,M,M,M,M,M,M,M,KARR 012130Z AUTO 29003KT 10SM CLR A3018 RMK MADISHF
ARR,2017-04-01 21:35,-88.4800,41.7700,M,M,M,290.00,4.00,M,30.19,M,10.00,M,CLR,M,M,M,M,M,M,M,M,KARR 012135Z AUTO 29004KT 10SM CLR A3019 RMK MADISHF
ARR,2017-04-01 21:40,-88.4800,41.7700,M,M,M,270.00,6.00,M,30.19,M,10.00,M,CLR,M,M,M,M,M,M,M,M,KARR 012140Z AUTO 27006KT 10SM CLR A3019 RMK MADISHF
ARR,2017-04-01 21:45,-88.4800,41.7700,M,M,M,260.00,4.00,M,30.18,M,10.00,M,CLR,M,M,M,M,M,M,M,M,KARR 012145Z AUTO 26004KT 10SM CLR A3018 RMK MADISHF
ARR,2017-04-01 21:50,-88.4800,41.7700,M,M,M,250.00,4.00,M,30.19,M,10.00,M,CLR,M,M,M,M,M,M,M,M,KARR 012150Z AUTO 25004KT 10SM CLR A3019 RMK MADISHF
ARR,2017-04-01 21:52,-88.4800,41.7700,57.00,28.90,33.98,250.00,5.00,0.00,30.19,1022.70,10.00,M,CLR,M,M,M,M,M,M,M,M,KARR 012152Z 25005KT 10SM CLR 14/M02 A3019 RMK AO2 SLP227 T01391017
ARR,2017-04-01 21:55,-88.4800,41.7700,M,M,M,250.00,4.00,M,30.19,M,10.00,M,CLR,M,M,M,M,M,M,M,M,KARR 012155Z AUTO 25004KT 10SM CLR A3019 RMK MADISHF
ARR,2017-04-01 22:00,-88.4800,41.7700,M,M,M,290.00,4.00,M,30.19,M,10.00,M,CLR,M,M,M,M,M,M,M,M,KARR 012200Z AUTO 29004KT 10SM CLR A3019 RMK MADISHF
ARR,2017-04-01 22:05,-88.4800,41.7700,M,M,M,0.00,0.00,M,30.19,M,10.00,M,CLR,M,M,M,M,M,M,M,M,KARR 012205Z AUTO 00000KT 10SM CLR A3019 RMK MADISHF
ARR,2017-04-01 22:10,-88.4800,41.7700,M,M,M,270.00,3.00,M,30.19,M,10.00,M,CLR,M,M,M,M,M,M,M,M,KARR 012210Z AUTO 27003KT 10SM CLR A3019 RMK MADISHF
ARR,2017-04-01 22:15,-88.4800,41.7700,M,M,M,230.00,3.00,M,30.19,M,10.00,M,CLR,M,M,M,M,M,M,M,M,KARR 012215Z AUTO 23003KT 10SM CLR A3019 RMK MADISHF
ARR,2017-04-01 22:20,-88.4800,41.7700,M,M,M,280.00,4.00,M,30.18,M,10.00,M,CLR,M,M,M,M,M,M,M,M,KARR 012220Z AUTO 28004KT 10SM CLR A3018 RMK MADISHF
ARR,2017-04-01 22:25,-88.4800,41.7700,M,M,M,270.00,4.00,M,30.19,M,10.00,M,CLR,M,M,M,M,M,M,M,M,KARR 012225Z AUTO 27004KT 10SM CLR A3019 RMK MADISHF
ARR,2017-04-01 22:30,-88.4800,41.7700,M,M,M,0.00,0.00,M,30.18,M,10.00,M,CLR,M,M,M,M,M,M,M,M,KARR 012230Z AUTO 00000KT 10SM CLR A3018 RMK MADISHF
ARR,2017-04-01 22:35,-88.4800,41.7700,M,M,M,0.00,0.00,M,30.18,M,10.00,M,CLR,M,M,M,M,M,M,M,M,KARR 012235Z AUTO 00000KT 10SM CLR A3018 RMK MADISHF
ARR,2017-04-01 22:40,-88.4800,41.7700,M,M,M,310.00,3.00,M,30.18,M,10.00,M,CLR,M,M,M,M,M,M,M,M,KARR 012240Z AUTO 31003KT 10SM CLR A3018 RMK MADISHF
ARR,2017-04-01 22:45,-88.4800,41.7700,M,M,M,0.00,0.00,M,30.18,M,10.00,M,CLR,M,M,M,M,M,M,M,M,KARR 012245Z AUTO 00000KT 10SM CLR A3018 RMK MADISHF
ARR,2017-04-01 22:50,-88.4800,41.7700,M,M,M,340.00,3.00,M,30.18,M,10.00,M,CLR,M,M,M,M,M,M,M,M,KARR 012250Z AUTO 34003KT 10SM CLR A3018 RMK MADISHF
ARR,2017-04-01 22:52,-88.4800,41.7700,55.90,27.00,32.71,0.00,0.00,0.00,30.18,1022.40,10.00,M,CLR,M,M,M,M,M,M,M,M,KARR 012252Z 00000KT 10SM CLR 13/M03 A3018 RMK AO2 SLP224 T01331028
ARR,2017-04-01 22:55,-88.4800,41.7700,M,M,M,310.00,3.00,M,30.18,M,10.00,M,CLR,M,M,M,M,M,M,M,M,KARR 012255Z AUTO 31003KT 10SM CLR A3018 RMK MADISHF
ARR,2017-04-01 23:00,-88.4800,41.7700,M,M,M,320.00,3.00,M,30.19,M,10.00,M,CLR,M,M,M,M,M,M,M,M,KARR 012300Z AUTO 32003KT 10SM CLR A3019 RMK MADISHF
ARR,2017-04-01 23:05,-88.4800,41.7700,M,M,M,320.00,3.00,M,30.18,M,10.00,M,CLR,M,M,M,M,M,M,M,M,KARR 012305Z AUTO 32003KT 10SM CLR A3018 RMK MADISHF
ARR,2017-04-01 23:10,-88.4800,41.7700,M,M,M,320.00,4.00,M,30.19,M,10.00,M,CLR,M,M,M,M,M,M,M,M,KARR 012310Z AUTO 32004KT 10SM CLR A3019 RMK MADISHF
ARR,2017-04-01 23:15,-88.4800,41.7700,M,M,M,320.00,4.00,M,30.19,M,10.00,M,CLR,M,M,M,M,M,M,M,M,KARR 012315Z AUTO 32004KT 10SM CLR A3019 RMK MADISHF
ARR,2017-04-01 23:20,-88.4800,41.7700,M,M,M,320.00,5.00,M,30.19,M,10.00,M,CLR,M,M,M,M,M,M,M,M,KARR 012320Z AUTO 32005KT 10SM CLR A3019 RMK MADISHF
ARR,2017-04-01 23:25,-88.4800,41.7700,M,M,M,310.00,4.00,M,30.19,M,10.00,M,CLR,M,M,M,M,M,M,M,M,KARR 012325Z AUTO 31004KT 10SM CLR A3019 RMK MADISHF
ARR,2017-04-01 23:30,-88.4800,41.7700,M,M,M,310.00,4.00,M,30.19,M,10.00,M,CLR,M,M,M,M,M,M,M,M,KARR 012330Z AUTO 31004KT 10SM CLR A3019 RMK MADISHF
ARR,2017-04-01 23:35,-88.4800,41.7700,M,M,M,310.00,4.00,M,30.19,M,10.00,M,CLR,M,M,M,M,M,M,M,M,KARR 012335Z AUTO 31004KT 10SM CLR A3019 RMK MADISHF
ARR,2017-04-01 23:40,-88.4800,41.7700,M,M,M,300.00,4.00,M,30.20,M,10.00,M,CLR,M,M,M,M,M,M,M,M,KARR 012340Z AUTO 30004KT 10SM CLR A3020 RMK MADISHF
ARR,2017-04-01 23:45,-88.4800,41.7700,M,M,M,300.00,4.00,M,30.20,M,10.00,M,CLR,M,M,M,M,M,M,M,M,KARR 012345Z AUTO 30004KT 10SM CLR A3020 RMK MADISHF
ARR,2017-04-01 23:50,-88.4800,41.7700,M,M,M,300.00,3.00,M,30.20,M,10.00,M,CLR,M,M,M,M,M,M,M,M,KARR 012350Z AUTO 30003KT 10SM CLR A3020 RMK MADISHF
ARR,2017-04-01 23:52,-88.4800,41.7700,53.10,39.00,58.64,300.00,3.00,0.00,30.20,1023.00,10.00,M,CLR,M,M,M,M,M,M,M,M,KARR 012352Z 30003KT 10SM CLR 12/04 A3020 RMK AO2 SLP230 T01170039 10144 20117 53004
ARR,2017-04-01 23:55,-88.4800,41.7700,M,M,M,300.00,4.00,M,30.20,M,10.00,M,CLR,M,M,M,M,M,M,M,M,KARR 012355Z AUTO 30004KT 10SM CLR A3020 RMK MADISHF
