#DEBUG: Format Typ    -> comma
#DEBUG: Time Period   -> 2017-04-01 00:00:00+00:00 2017-04-02 00:00:00+00:00
#DEBUG: Time Zone     -> Etc/UTC
#DEBUG: Data Contact   -> daryl herzmann akrherz@iastate.edu 515-294-5978
#DEBUG: Entries Found -> -1
station,valid,lon,lat,tmpf, dwpf, relh, drct, sknt, p01i, alti, mslp, vsby, gust, skyc1, skyc2, skyc3, skyc4, skyl1, skyl2, skyl3, skyl4, presentwx, metar
ASH,2017-04-01 00:00,-71.5148,42.7818,M,M,M,60.00,5.00,M,30.07,M,2.00,M,OVC,M,M,M,800.00,M,M,M,-SN BR,KASH 010000Z AUTO 06005KT 2SM -SN BR OVC008 A3007 RMK CIG 5V12  MADISHF
ASH,2017-04-01 00:03,-71.5148,42.7818,30.20,30.20,100.00,70.00,4.00,0.00,30.07,M,2.00,M,OVC,M,M,M,800.00,M,M,M,-SN BR,KASH 010003Z 07004KT 2SM -SN BR OVC008 M01/M01 A3007 RMK AO2 CIG 005V012 P0000
ASH,2017-04-01 00:05,-71.5148,42.7818,M,M,M,60.00,4.00,M,30.07,M,2.00,M,OVC,M,M,M,800.00,M,M,M,-SN BR,KASH 010005Z AUTO 06004KT 2SM -SN BR OVC008 A3007 RMK CIG 5V12  MADISHF
ASH,2017-04-01 00:10,-71.5148,42.7818,M,M,M,70.00,3.00,M,30.07,M,2.00,M,OVC,M,M,M,800.00,M,M,M,-SN BR,KASH 010010Z AUTO 07003KT 2SM -SN BR OVC008 A3007 RMK CIG 5V12  MADISHF
ASH,2017-04-01 00:15,-71.5148,42.7818,M,M,M,60.00,4.00,M,30.07,M,2.00,M,OVC,M,M,M,800.00,M,M,M,-SN BR,KASH 010015Z AUTO 06004KT 2SM -SN BR OVC008 A3007 RMK CIG 5V12  MADISHF
ASH,2017-04-01 00:25,-71.5148,42.7818,M,M,M,40.00,4.00,M,30.07,M,2.00,M,OVC,M,M,M,800.00,M,M,M,-SN BR,KASH 010025Z AUTO 04004KT 2SM -SN BR OVC008 A3007 RMK MADISHF
ASH,2017-04-01 00:30,-71.5148,42.7818,M,M,M,40.00,3.00,M,30.07,M,2.00,M,OVC,M,M,M,800.00,M,M,M,-SN BR,KASH 010030Z AUTO 04003KT 2SM -SN BR OVC008 A3007 RMK MADISHF
ASH,2017-04-01 00:35,-71.5148,42.7818,M,M,M,30.00,3.00,M,30.07,M,2.00,M,OVC,M,M,M,800.00,M,M,M,-SN BR,KASH 010035Z AUTO 03003KT 2SM -SN BR OVC008 A3007 RMK VRB03KT  MADISHF
ASH,2017-04-01 00:40,-71.5148,42.7818,M,M,M,40.00,3.00,M,30.07,M,2.00,M,OVC,M,M,M,800.00,M,M,M,-SN BR,KASH 010040Z AUTO 04003KT 2SM -SN BR OVC008 A3007 RMK MADISHF
ASH,2017-04-01 00:45,-71.5148,42.7818,M,M,M,30.00,3.00,M,30.07,M,2.00,M,OVC,M,M,M,800.00,M,M,M,-SN BR,KASH 010045Z AUTO 03003KT 2SM -SN BR OVC008 A3007 RMK VRB03KT  MADISHF
ASH,2017-04-01 00:50,-71.5148,42.7818,M,M,M,40.00,4.00,M,30.06,M,2.00,M,OVC,M,M,M,800.00,M,M,M,-SN BR,KASH 010050Z AUTO 04004KT 2SM -SN BR OVC008 A3006 RMK MADISHF
ASH,2017-04-01 00:55,-71.5148,42.7818,M,M,M,30.00,4.00,M,30.06,M,3.00,M,SCT,BKN,OVC,M,400.00,800.00,3900.00,M,-SN BR,KASH 010055Z AUTO 03004KT 3SM -SN BR SCT004 BKN008 OVC039 A3006 RMK MADISHF
ASH,2017-04-01 00:56,-71.5148,42.7818,30.90,30.00,96.41,30.00,4.00,0.00,30.06,1019.20,3.00,M,SCT,BKN,OVC,M,400.00,800.00,3900.00,M,-SN BR,KASH 010056Z 03004KT 3SM -SN BR SCT004 BKN008 OVC039 M01/M01 A3006 RMK AO2 SLP192 P0000 T10061011
ASH,2017-04-01 01:05,-71.5148,42.7818,M,M,M,30.00,4.00,M,30.06,M,5.00,M,FEW,OVC,M,M,400.00,800.00,M,M,-SN BR,KASH 010105Z AUTO 03004KT 5SM -SN BR FEW004 OVC008 A3006 RMK CIG 7V11  MADISHF
ASH,2017-04-01 01:10,-71.5148,42.7818,M,M,M,20.00,4.00,M,30.06,M,5.00,M,OVC,M,M,M,800.00,M,M,M,-SN BR,KASH 010110Z AUTO 02004KT 5SM -SN BR OVC008 A3006 RMK CIG 4V11  MADISHF
ASH,2017-04-01 01:15,-71.5148,42.7818,M,M,M,50.00,3.00,M,30.06,M,5.00,M,OVC,M,M,M,800.00,M,M,M,-SN BR,KASH 010115Z AUTO 05003KT 5SM -SN BR OVC008 A3006 RMK CIG 4V11  MADISHF
ASH,2017-04-01 01:20,-71.5148,42.7818,M,M,M,10.00,3.00,M,30.06,M,5.00,M,OVC,M,M,M,800.00,M,M,M,-SN BR,KASH 010120Z AUTO 01003KT 5SM -SN BR OVC008 A3006 RMK CIG 4V12  MADISHF
ASH,2017-04-01 01:25,-71.5148,42.7818,M,M,M,30.00,3.00,M,30.06,M,6.00,M,BKN,OVC,M,M,800.00,1100.00,M,M,-SN BR,KASH 010125Z AUTO 03003KT 6SM -SN BR BKN008 OVC011 A3006 RMK CIG 4V9  MADISHF
ASH,2017-04-01 01:30,-71.5148,42.7818,M,M,M,30.00,4.00,M,30.06,M,6.00,M,OVC,M,M,M,800.00,M,M,M,-SN BR,KASH 010130Z AUTO 03004KT 6SM -SN BR OVC008 A3006 RMK CIG 5V12  MADISHF
ASH,2017-04-01 01:35,-71.5148,42.7818,M,M,M,40.00,4.00,M,30.05,M,5.00,M,OVC,M,M,M,800.00,M,M,M,-SN BR,KASH 010135Z AUTO 04004KT 5SM -SN BR OVC008 A3005 RMK CIG 5V9  MADISHF
ASH,2017-04-01 01:40,-71.5148,42.7818,M,M,M,30.00,5.00,M,30.05,M,5.00,M,BKN,OVC,M,M,800.00,1100.00,M,M,-SN BR,KASH 010140Z AUTO 03005KT 5SM -SN BR BKN008 OVC011 A3005 RMK CIG 5V9  MADISHF
ASH,2017-04-01 01:45,-71.5148,42.7818,M,M,M,40.00,3.00,M,30.05,M,4.00,M,OVC,M,M,M,800.00,M,M,M,-SN BR,KASH 010145Z AUTO 04003KT 4SM -SN BR OVC008 A3005 RMK VRB03KT CIG 5V12  MADISHF
ASH,2017-04-01 01:55,-71.5148,42.7818,M,M,M,60.00,4.00,M,30.04,M,3.50,M,OVC,M,M,M,800.00,M,M,M,-SN BR,KASH 010155Z AUTO 06004KT 3SM -SN BR OVC008 A3004 RMK CIG 4V10  MADISHF
ASH,2017-04-01 01:56,-71.5148,42.7818,30.90,30.90,100.00,50.00,4.00,0.00,30.04,1018.50,3.00,M,OVC,M,M,M,800.00,M,M,M,-SN BR,KASH 010156Z AUTO 05004KT 3SM -SN BR OVC008 M01/M01 A3004 RMK AO2 CIG 004V010 SLP185 P0000 T10061006
ASH,2017-04-01 02:00,-71.5148,42.7818,M,M,M,50.00,5.00,M,30.04,M,3.50,M,OVC,M,M,M,800.00,M,M,M,-SN BR,KASH 010200Z AUTO 05005KT 3SM -SN BR OVC008 A3004 RMK CIG 4V10  MADISHF
ASH,2017-04-01 02:05,-71.5148,42.7818,M,M,M,60.00,4.00,M,30.04,M,4.00,M,OVC,M,M,M,800.00,M,M,M,-SN BR,KASH 010205Z AUTO 06004KT 4SM -SN BR OVC008 A3004 RMK CIG 4V10  MADISHF
ASH,2017-04-01 02:10,-71.5148,42.7818,M,M,M,60.00,4.00,M,30.04,M,4.00,M,OVC,M,M,M,600.00,M,M,M,-SN BR,KASH 010210Z AUTO 06004KT 4SM -SN BR OVC006 A3004 RMK CIG 4V10  MADISHF
ASH,2017-04-01 02:15,-71.5148,42.7818,M,M,M,60.00,5.00,M,30.03,M,4.00,M,OVC,M,M,M,600.00,M,M,M,-SN BR,KASH 010215Z AUTO 06005KT 4SM -SN BR OVC006 A3003 RMK CIG 4V10  MADISHF
ASH,2017-04-01 02:20,-71.5148,42.7818,M,M,M,60.00,5.00,M,30.02,M,3.00,M,OVC,M,M,M,600.00,M,M,M,-SN BR,KASH 010220Z AUTO 06005KT 3SM -SN BR OVC006 A3002 RMK CIG 4V10  MADISHF
ASH,2017-04-01 02:25,-71.5148,42.7818,M,M,M,60.00,5.00,M,30.02,M,2.00,M,OVC,M,M,M,600.00,M,M,M,-SN BR,KASH 010225Z AUTO 06005KT 2SM -SN BR OVC006 A3002 RMK CIG 4V8  MADISHF
ASH,2017-04-01 02:27,-71.5148,42.7818,32.00,30.20,92.97,60.00,4.00,0.00,30.02,M,2.00,M,OVC,M,M,M,600.00,M,M,M,-SN BR,KASH 010227Z AUTO 06004KT 2SM -SN BR OVC006 00/M01 A3002 RMK AO2 CIG 004V008 P0000
ASH,2017-04-01 02:30,-71.5148,42.7818,M,M,M,60.00,5.00,M,30.02,M,1.75,M,OVC,M,M,M,600.00,M,M,M,-SN BR,KASH 010230Z AUTO 06005KT 2SM -SN BR OVC006 A3002 RMK CIG 4V8  MADISHF
ASH,2017-04-01 02:34,-71.5148,42.7818,32.00,30.20,92.97,50.00,3.00,0.00,30.02,M,1.75,M,OVC,M,M,M,600.00,M,M,M,-SN BR,KASH 010234Z AUTO 05003KT 1 3/4SM -SN BR OVC006 00/M01 A3002 RMK AO2 CIG 004V011 P0000
ASH,2017-04-01 02:35,-71.5148,42.7818,M,M,M,50.00,5.00,M,30.02,M,2.00,M,OVC,M,M,M,600.00,M,M,M,-SN BR,KASH 010235Z AUTO 05005KT 2SM -SN BR OVC006 A3002 RMK CIG 4V11  MADISHF
ASH,2017-04-01 02:39,-71.5148,42.7818,32.00,30.20,92.97,70.00,7.00,0.00,30.02,M,3.00,M,OVC,M,M,M,600.00,M,M,M,-SN BR,KASH 010239Z AUTO 07007KT 3SM -SN BR OVC006 00/M01 A3002 RMK AO2 CIG 004V011 P0000
ASH,2017-04-01 02:40,-71.5148,42.7818,M,M,M,80.00,5.00,M,30.02,M,3.00,M,OVC,M,M,M,600.00,M,M,M,-SN BR,KASH 010240Z AUTO 08005KT 3SM -SN BR OVC006 A3002 RMK CIG 4V11  MADISHF
ASH,2017-04-01 02:45,-71.5148,42.7818,M,M,M,70.00,5.00,M,30.02,M,4.00,M,OVC,M,M,M,600.00,M,M,M,-SN BR,KASH 010245Z AUTO 07005KT 4SM -SN BR OVC006 A3002 RMK CIG 4V11  MADISHF
ASH,2017-04-01 02:50,-71.5148,42.7818,M,M,M,70.00,5.00,M,30.01,M,4.00,M,OVC,M,M,M,600.00,M,M,M,-SN BR,KASH 010250Z AUTO 07005KT 4SM -SN BR OVC006 A3001 RMK CIG 4V11  MADISHF
ASH,2017-04-01 02:55,-71.5148,42.7818,M,M,M,80.00,7.00,M,30.01,M,3.00,M,OVC,M,M,M,600.00,M,M,M,-SN BR,KASH 010255Z AUTO 08007KT 3SM -SN BR OVC006 A3001 RMK CIG 4V11  MADISHF
ASH,2017-04-01 02:56,-71.5148,42.7818,32.00,30.90,95.65,80.00,7.00,0.00,30.01,1017.40,3.00,M,OVC,M,M,M,600.00,M,M,M,-SN BR,KASH 010256Z AUTO 08007KT 3SM -SN BR OVC006 00/M01 A3001 RMK AO2 CIG 004V011 SLP174 P0000 60000 T00001006 58021
ASH,2017-04-01 03:00,-71.5148,42.7818,M,M,M,70.00,7.00,M,30.01,M,3.00,M,OVC,M,M,M,600.00,M,M,M,-SN BR,KASH 010300Z AUTO 07007KT 3SM -SN BR OVC006 A3001 RMK CIG 5V9  MADISHF
ASH,2017-04-01 03:05,-71.5148,42.7818,M,M,M,80.00,8.00,M,30.00,M,2.50,M,OVC,M,M,M,600.00,M,M,M,-SN BR,KASH 010305Z AUTO 08008KT 2 1/2SM -SN BR OVC006 A3000 RMK CIG 4V9  MADISHF
ASH,2017-04-01 03:07,-71.5148,42.7818,32.00,30.20,92.97,80.00,6.00,0.00,30.01,M,2.50,M,OVC,M,M,M,600.00,M,M,M,-SN BR,KASH 010307Z AUTO 08006KT 2 1/2SM -SN BR OVC006 00/M01 A3001 RMK AO2 CIG 004V009 P0000
ASH,2017-04-01 03:10,-71.5148,42.7818,M,M,M,80.00,4.00,M,30.01,M,2.00,M,OVC,M,M,M,600.00,M,M,M,-SN BR,KASH 010310Z AUTO 08004KT 2SM -SN BR OVC006 A3001 RMK CIG 4V9  MADISHF
ASH,2017-04-01 03:15,-71.5148,42.7818,M,M,M,60.00,3.00,M,30.00,M,2.00,M,OVC,M,M,M,600.00,M,M,M,-SN BR,KASH 010315Z AUTO 06003KT 2SM -SN BR OVC006 A3000 RMK CIG 4V11  MADISHF
ASH,2017-04-01 03:20,-71.5148,42.7818,M,M,M,80.00,6.00,M,30.00,M,2.50,M,OVC,M,M,M,600.00,M,M,M,-SN BR,KASH 010320Z AUTO 08006KT 2 1/2SM -SN BR OVC006 A3000 RMK CIG 4V10  MADISHF
ASH,2017-04-01 03:25,-71.5148,42.7818,M,M,M,70.00,5.00,M,30.00,M,3.00,M,OVC,M,M,M,600.00,M,M,M,-SN BR,KASH 010325Z AUTO 07005KT 3SM -SN BR OVC006 A3000 RMK CIG 4V12  MADISHF
ASH,2017-04-01 03:30,-71.5148,42.7818,M,M,M,70.00,6.00,M,30.00,M,2.50,M,OVC,M,M,M,600.00,M,M,M,-SN BR,KASH 010330Z AUTO 07006KT 2 1/2SM -SN BR OVC006 A3000 RMK CIG 4V10  MADISHF
ASH,2017-04-01 03:35,-71.5148,42.7818,M,M,M,80.00,5.00,M,29.99,M,1.75,M,OVC,M,M,M,600.00,M,M,M,-SN BR,KASH 010335Z AUTO 08005KT 2SM -SN BR OVC006 A2999 RMK CIG 4V10  MADISHF
ASH,2017-04-01 03:40,-71.5148,42.7818,M,M,M,70.00,5.00,M,29.99,M,1.50,M,OVC,M,M,M,600.00,M,M,M,-SN BR,KASH 010340Z AUTO 07005KT 1 1/2SM -SN BR OVC006 A2999 RMK CIG 4V10  MADISHF
ASH,2017-04-01 03:41,-71.5148,42.7818,32.00,30.20,92.97,70.00,4.00,0.00,29.99,M,1.50,M,OVC,M,M,M,600.00,M,M,M,-SN BR,KASH 010341Z AUTO 07004KT 1 1/2SM -SN BR OVC006 00/M01 A2999 RMK AO2 CIG 004V010 P0000 TSNO
ASH,2017-04-01 03:45,-71.5148,42.7818,M,M,M,70.00,5.00,M,29.99,M,1.50,M,OVC,M,M,M,600.00,M,M,M,-SN BR,KASH 010345Z AUTO 07005KT 1 1/2SM -SN BR OVC006 A2999 RMK CIG 3V10  MADISHF
ASH,2017-04-01 03:50,-71.5148,42.7818,M,M,M,80.00,7.00,M,29.99,M,1.75,M,OVC,M,M,M,600.00,M,M,M,-SN BR,KASH 010350Z AUTO 08007KT 2SM -SN BR OVC006 A2999 RMK CIG 3V9  MADISHF
ASH,2017-04-01 03:55,-71.5148,42.7818,M,M,M,60.00,5.00,M,29.99,M,1.75,M,OVC,M,M,M,600.00,M,M,M,-SN BR,KASH 010355Z AUTO 06005KT 2SM -SN BR OVC006 A2999 RMK CIG 3V10  MADISHF
ASH,2017-04-01 03:56,-71.5148,42.7818,32.00,30.90,95.65,70.00,5.00,0.00,29.99,1016.60,1.75,M,OVC,M,M,M,600.00,M,M,M,-SN BR,KASH 010356Z AUTO 07005KT 1 3/4SM -SN BR OVC006 00/M01 A2999 RMK AO2 CIG 003V009 SLP166 P0000 T00001006 400391006
ASH,2017-04-01 04:00,-71.5148,42.7818,M,M,M,60.00,6.00,M,29.98,M,1.75,M,OVC,M,M,M,600.00,M,M,M,-SN BR,KASH 010400Z AUTO 06006KT 2SM -SN BR OVC006 A2998 RMK CIG 3V9  MADISHF
ASH,2017-04-01 04:05,-71.5148,42.7818,M,M,M,70.00,6.00,M,29.98,M,2.00,M,OVC,M,M,M,600.00,M,M,M,-SN BR,KASH 010405Z AUTO 07006KT 2SM -SN BR OVC006 A2998 RMK CIG 3V9  MADISHF
ASH,2017-04-01 04:10,-71.5148,42.7818,32.00,30.20,92.97,70.00,6.00,0.00,29.98,M,2.00,M,BKN,OVC,M,M,600.00,1000.00,M,M,-SN BR,KASH 010410Z AUTO 07006KT 2SM -SN BR BKN006 OVC010 00/M01 A2998 RMK AO2 CIG 003V008 P0000 TSNO
ASH,2017-04-01 04:15,-71.5148,42.7818,M,M,M,70.00,8.00,M,29.98,M,2.50,M,OVC,M,M,M,800.00,M,M,M,-SN BR,KASH 010415Z AUTO 07008KT 2 1/2SM -SN BR OVC008 A2998 RMK CIG 4V12  MADISHF
ASH,2017-04-01 04:20,-71.5148,42.7818,M,M,M,70.00,6.00,M,29.98,M,3.00,M,OVC,M,M,M,800.00,M,M,M,-SN BR,KASH 010420Z AUTO 07006KT 3SM -SN BR OVC008 A2998 RMK CIG 4V12  MADISHF
ASH,2017-04-01 04:25,-71.5148,42.7818,32.00,32.00,100.00,70.00,7.00,0.00,29.97,M,3.00,M,OVC,M,M,M,800.00,M,M,M,-SN BR,KASH 010425Z AUTO 07007KT 3SM -SN BR OVC008 00/00 A2997 RMK AO2 CIG 004V012 P0000
ASH,2017-04-01 04:30,-71.5148,42.7818,M,M,M,70.00,8.00,M,29.97,M,3.50,M,OVC,M,M,M,800.00,M,M,M,-SN BR,KASH 010430Z AUTO 07008KT 3SM -SN BR OVC008 A2997 RMK CIG 4V11  MADISHF
ASH,2017-04-01 04:35,-71.5148,42.7818,M,M,M,80.00,8.00,M,29.97,M,5.00,M,OVC,M,M,M,999.00,M,M,M,-SN BR,KASH 010435Z AUTO 08008KT 5SM -SN BR OVC009 A2997 RMK CIG 6V14  MADISHF
ASH,2017-04-01 04:40,-71.5148,42.7818,M,M,M,80.00,5.00,M,29.96,M,5.00,M,OVC,M,M,M,999.00,M,M,M,-SN BR,KASH 010440Z AUTO 08005KT 5SM -SN BR OVC009 A2996 RMK CIG 5V14  MADISHF
ASH,2017-04-01 04:41,-71.5148,42.7818,32.00,32.00,100.00,70.00,6.00,0.00,29.96,M,5.00,M,OVC,M,M,M,1000.00,M,M,M,-SN BR,KASH 010441Z AUTO 07006KT 5SM -SN BR OVC010 00/00 A2996 RMK AO2 CIG 005V014 P0000
ASH,2017-04-01 04:45,-71.5148,42.7818,M,M,M,70.00,3.00,M,29.96,M,4.00,M,BKN,OVC,M,M,800.00,1200.00,M,M,-SN BR,KASH 010445Z AUTO 07003KT 4SM -SN BR BKN008 OVC012 A2996 RMK CIG 6V10  MADISHF
ASH,2017-04-01 04:50,-71.5148,42.7818,M,M,M,60.00,5.00,M,29.96,M,2.50,M,BKN,OVC,M,M,800.00,1200.00,M,M,-SN BR,KASH 010450Z AUTO 06005KT 2 1/2SM -SN BR BKN008 OVC012 A2996 RMK CIG 6V10  MADISHF
ASH,2017-04-01 04:55,-71.5148,42.7818,M,M,M,50.00,5.00,M,29.96,M,2.50,M,BKN,OVC,M,M,800.00,1200.00,M,M,-SN BR,KASH 010455Z AUTO 05005KT 2 1/2SM -SN BR BKN008 OVC012 A2996 RMK CIG 5V10  MADISHF
ASH,2017-04-01 04:56,-71.5148,42.7818,32.00,32.00,100.00,60.00,4.00,0.00,29.96,1015.70,2.50,M,BKN,OVC,M,M,800.00,1200.00,M,M,-SN BR,KASH 010456Z AUTO 06004KT 2 1/2SM -SN BR BKN008 OVC012 00/00 A2996 RMK AO2 CIG 005V010 SLP157 P0000 T00000000
ASH,2017-04-01 05:00,-71.5148,42.7818,M,M,M,50.00,4.00,M,29.96,M,2.50,M,OVC,M,M,M,800.00,M,M,M,-SN BR,KASH 010500Z AUTO 05004KT 2 1/2SM -SN BR OVC008 A2996 RMK CIG 5V10  MADISHF
ASH,2017-04-01 05:05,-71.5148,42.7818,M,M,M,60.00,5.00,M,29.96,M,2.50,M,OVC,M,M,M,800.00,M,M,M,-SN BR,KASH 010505Z AUTO 06005KT 2 1/2SM -SN BR OVC008 A2996 RMK CIG 4V10  MADISHF
ASH,2017-04-01 05:10,-71.5148,42.7818,M,M,M,60.00,4.00,M,29.95,M,2.50,M,OVC,M,M,M,600.00,M,M,M,-SN BR,KASH 010510Z AUTO 06004KT 2 1/2SM -SN BR OVC006 A2995 RMK CIG 4V10  MADISHF
ASH,2017-04-01 05:15,-71.5148,42.7818,M,M,M,50.00,5.00,M,29.95,M,2.50,M,OVC,M,M,M,600.00,M,M,M,-SN BR,KASH 010515Z AUTO 05005KT 2 1/2SM -SN BR OVC006 A2995 RMK CIG 4V9  MADISHF
ASH,2017-04-01 05:20,-71.5148,42.7818,M,M,M,60.00,6.00,M,29.95,M,3.00,M,OVC,M,M,M,600.00,M,M,M,-SN BR,KASH 010520Z AUTO 06006KT 3SM -SN BR OVC006 A2995 RMK CIG 4V12  MADISHF
ASH,2017-04-01 05:25,-71.5148,42.7818,32.00,32.00,100.00,70.00,6.00,0.00,29.95,M,3.00,M,OVC,M,M,M,800.00,M,M,M,-SN BR,KASH 010525Z AUTO 07006KT 3SM -SN BR OVC008 00/00 A2995 RMK AO2 CIG 004V012 P0000
ASH,2017-04-01 05:30,-71.5148,42.7818,M,M,M,70.00,5.00,M,29.95,M,4.00,M,OVC,M,M,M,800.00,M,M,M,-SN BR,KASH 010530Z AUTO 07005KT 4SM -SN BR OVC008 A2995 RMK CIG 4V10  MADISHF
ASH,2017-04-01 05:35,-71.5148,42.7818,M,M,M,70.00,9.00,M,29.95,M,5.00,M,OVC,M,M,M,800.00,M,M,M,-SN BR,KASH 010535Z AUTO 07009KT 5SM -SN BR OVC008 A2995 RMK CIG 5V11  MADISHF
ASH,2017-04-01 05:40,-71.5148,42.7818,M,M,M,80.00,7.00,M,29.95,M,5.00,M,OVC,M,M,M,800.00,M,M,M,-SN BR,KASH 010540Z AUTO 08007KT 5SM -SN BR OVC008 A2995 RMK CIG 6V13  MADISHF
ASH,2017-04-01 05:45,-71.5148,42.7818,M,M,M,80.00,7.00,M,29.94,M,5.00,M,OVC,M,M,M,800.00,M,M,M,-SN BR,KASH 010545Z AUTO 08007KT 5SM -SN BR OVC008 A2994 RMK CIG 6V13  MADISHF
ASH,2017-04-01 05:50,-71.5148,42.7818,M,M,M,70.00,6.00,M,29.94,M,5.00,M,OVC,M,M,M,800.00,M,M,M,-SN BR,KASH 010550Z AUTO 07006KT 5SM -SN BR OVC008 A2994 RMK CIG 6V13  MADISHF
ASH,2017-04-01 05:55,-71.5148,42.7818,M,M,M,60.00,6.00,M,29.94,M,4.00,M,OVC,M,M,M,800.00,M,M,M,-SN BR,KASH 010555Z AUTO 06006KT 4SM -SN BR OVC008 A2994 RMK CIG 6V11  MADISHF
ASH,2017-04-01 05:56,-71.5148,42.7818,32.00,32.00,100.00,80.00,7.00,0.00,29.94,1014.90,4.00,M,OVC,M,M,M,800.00,M,M,M,-SN BR,KASH 010556Z AUTO 08007KT 4SM -SN BR OVC008 00/00 A2994 RMK AO2 CIG 006V011 SLP149 P0000 60000 T00000000 10000 21006 56025
ASH,2017-04-01 06:00,-71.5148,42.7818,M,M,M,70.00,5.00,M,29.94,M,3.00,M,OVC,M,M,M,800.00,M,M,M,-SN BR,KASH 010600Z AUTO 07005KT 3SM -SN BR OVC008 A2994 RMK CIG 6V11  MADISHF
ASH,2017-04-01 06:05,-71.5148,42.7818,M,M,M,70.00,5.00,M,29.93,M,3.00,M,OVC,M,M,M,800.00,M,M,M,-SN BR,KASH 010605Z AUTO 07005KT 3SM -SN BR OVC008 A2993 RMK CIG 6V11  MADISHF
ASH,2017-04-01 06:10,-71.5148,42.7818,M,M,M,70.00,4.00,M,29.93,M,3.00,M,OVC,M,M,M,800.00,M,M,M,-SN BR,KASH 010610Z AUTO 07004KT 3SM -SN BR OVC008 A2993 RMK CIG 6V11  MADISHF
ASH,2017-04-01 06:15,-71.5148,42.7818,M,M,M,60.00,6.00,M,29.93,M,4.00,M,OVC,M,M,M,800.00,M,M,M,-SN BR,KASH 010615Z AUTO 06006KT 4SM -SN BR OVC008 A2993 RMK CIG 6V11  MADISHF
ASH,2017-04-01 06:20,-71.5148,42.7818,M,M,M,70.00,7.00,M,29.92,M,4.00,M,OVC,M,M,M,800.00,M,M,M,-SN BR,KASH 010620Z AUTO 07007KT 4SM -SN BR OVC008 A2992 RMK CIG 6V11  MADISHF
ASH,2017-04-01 06:25,-71.5148,42.7818,M,M,M,70.00,7.00,M,29.92,M,5.00,M,OVC,M,M,M,800.00,M,M,M,-SN BR,KASH 010625Z AUTO 07007KT 5SM -SN BR OVC008 A2992 RMK CIG 6V13  MADISHF
ASH,2017-04-01 06:30,-71.5148,42.7818,M,M,M,70.00,7.00,M,29.92,M,5.00,M,OVC,M,M,M,800.00,M,M,M,-SN BR,KASH 010630Z AUTO 07007KT 5SM -SN BR OVC008 A2992 RMK CIG 6V13  MADISHF
ASH,2017-04-01 06:35,-71.5148,42.7818,M,M,M,60.00,6.00,M,29.91,M,5.00,M,OVC,M,M,M,999.00,M,M,M,-SN BR,KASH 010635Z AUTO 06006KT 5SM -SN BR OVC009 A2991 RMK CIG 6V12  MADISHF
ASH,2017-04-01 06:40,-71.5148,42.7818,M,M,M,70.00,9.00,M,29.91,M,5.00,M,OVC,M,M,M,999.00,M,M,M,-SN BR,KASH 010640Z AUTO 07009KT 5SM -SN BR OVC009 A2991 RMK CIG 7V14  MADISHF
ASH,2017-04-01 06:41,-71.5148,42.7818,32.00,32.00,100.00,70.00,8.00,0.00,29.91,M,5.00,M,OVC,M,M,M,1000.00,M,M,M,-SN BR,KASH 010641Z AUTO 07008KT 5SM -SN BR OVC010 00/00 A2991 RMK AO2 CIG 007V014 P0000
ASH,2017-04-01 06:45,-71.5148,42.7818,M,M,M,70.00,10.00,M,29.90,M,5.00,M,OVC,M,M,M,999.00,M,M,M,-SN BR,KASH 010645Z AUTO 07010KT 5SM -SN BR OVC009 A2990 RMK CIG 7V14  MADISHF
ASH,2017-04-01 06:50,-71.5148,42.7818,M,M,M,60.00,9.00,M,29.91,M,5.00,M,OVC,M,M,M,999.00,M,M,M,-SN BR,KASH 010650Z AUTO 06009KT 5SM -SN BR OVC009 A2991 RMK CIG 7V14  MADISHF
ASH,2017-04-01 06:55,-71.5148,42.7818,M,M,M,60.00,10.00,M,29.90,M,4.00,M,OVC,M,M,M,999.00,M,M,M,-SN BR,KASH 010655Z AUTO 06010KT 4SM -SN BR OVC009 A2990 RMK CIG 7V14  MADISHF
ASH,2017-04-01 06:56,-71.5148,42.7818,32.00,32.00,100.00,60.00,9.00,0.00,29.90,1013.60,4.00,M,OVC,M,M,M,1000.00,M,M,M,-SN BR,KASH 010656Z AUTO 06009KT 4SM -SN BR OVC010 00/00 A2990 RMK AO2 CIG 007V014 SLP136 P0000 T00000000
ASH,2017-04-01 07:00,-71.5148,42.7818,M,M,M,60.00,10.00,M,29.90,M,4.00,M,OVC,M,M,M,999.00,M,M,M,-SN BR,KASH 010700Z AUTO 06010KT 4SM -SN BR OVC009 A2990 RMK CIG 7V14  MADISHF
ASH,2017-04-01 07:05,-71.5148,42.7818,M,M,M,60.00,8.00,M,29.90,M,3.00,M,OVC,M,M,M,800.00,M,M,M,-SN BR,KASH 010705Z AUTO 06008KT 3SM -SN BR OVC008 A2990 RMK CIG 7V13  MADISHF
ASH,2017-04-01 07:09,-71.5148,42.7818,32.00,32.00,100.00,60.00,8.00,0.00,29.90,M,3.00,M,OVC,M,M,M,800.00,M,M,M,-SN BR,KASH 010709Z AUTO 06008KT 3SM -SN BR OVC008 00/00 A2990 RMK AO2 CIG 007V012 P0000
ASH,2017-04-01 07:10,-71.5148,42.7818,M,M,M,60.00,8.00,M,29.90,M,3.50,M,OVC,M,M,M,800.00,M,M,M,-SN BR,KASH 010710Z AUTO 06008KT 3SM -SN BR OVC008 A2990 RMK CIG 7V12  MADISHF
ASH,2017-04-01 07:15,-71.5148,42.7818,M,M,M,60.00,9.00,M,29.90,M,4.00,M,OVC,M,M,M,800.00,M,M,M,-SN BR,KASH 010715Z AUTO 06009KT 4SM -SN BR OVC008 A2990 RMK CIG 7V12  MADISHF
ASH,2017-04-01 07:20,-71.5148,42.7818,M,M,M,70.00,6.00,M,29.90,M,4.00,M,OVC,M,M,M,800.00,M,M,M,-SN BR,KASH 010720Z AUTO 07006KT 4SM -SN BR OVC008 A2990 RMK CIG 7V12  MADISHF
ASH,2017-04-01 07:25,-71.5148,42.7818,M,M,M,60.00,8.00,M,29.89,M,4.00,M,OVC,M,M,M,800.00,M,M,M,-SN BR,KASH 010725Z AUTO 06008KT 4SM -SN BR OVC008 A2989 RMK CIG 7V12  MADISHF
ASH,2017-04-01 07:30,-71.5148,42.7818,M,M,M,60.00,10.00,M,29.89,M,5.00,M,OVC,M,M,M,999.00,M,M,M,-SN BR,KASH 010730Z AUTO 06010KT 5SM -SN BR OVC009 A2989 RMK CIG 7V12  MADISHF
ASH,2017-04-01 07:32,-71.5148,42.7818,32.00,32.00,100.00,70.00,10.00,0.00,29.89,M,5.00,M,OVC,M,M,M,1000.00,M,M,M,-SN BR,KASH 010732Z AUTO 07010KT 5SM -SN BR OVC010 00/00 A2989 RMK AO2 CIG 007V012 P0000
ASH,2017-04-01 07:35,-71.5148,42.7818,M,M,M,60.00,7.00,M,29.89,M,5.00,M,OVC,M,M,M,999.00,M,M,M,-SN BR,KASH 010735Z AUTO 06007KT 5SM -SN BR OVC009 A2989 RMK CIG 7V12  MADISHF
ASH,2017-04-01 07:40,-71.5148,42.7818,M,M,M,60.00,6.00,M,29.88,M,5.00,M,OVC,M,M,M,999.00,M,M,M,-SN BR,KASH 010740Z AUTO 06006KT 5SM -SN BR OVC009 A2988 RMK CIG 7V12  MADISHF
ASH,2017-04-01 07:45,-71.5148,42.7818,M,M,M,60.00,9.00,M,29.88,M,4.00,M,OVC,M,M,M,999.00,M,M,M,-SN BR,KASH 010745Z AUTO 06009KT 4SM -SN BR OVC009 A2988 RMK CIG 7V12  MADISHF
ASH,2017-04-01 07:50,-71.5148,42.7818,M,M,M,70.00,7.00,M,29.88,M,3.00,M,OVC,M,M,M,999.00,M,M,M,-SN BR,KASH 010750Z AUTO 07007KT 3SM -SN BR OVC009 A2988 RMK CIG 7V12  MADISHF
ASH,2017-04-01 07:55,-71.5148,42.7818,M,M,M,50.00,9.00,M,29.88,M,3.00,M,OVC,M,M,M,999.00,M,M,M,-SN BR,KASH 010755Z AUTO 05009KT 3SM -SN BR OVC009 A2988 RMK CIG 7V12  MADISHF
ASH,2017-04-01 07:56,-71.5148,42.7818,32.00,32.00,100.00,50.00,10.00,0.00,29.88,1012.90,3.00,M,OVC,M,M,M,1000.00,M,M,M,-SN BR,KASH 010756Z AUTO 05010KT 3SM -SN BR OVC010 00/00 A2988 RMK AO2 CIG 007V012 SLP129 P0000 T00000000
ASH,2017-04-01 08:00,-71.5148,42.7818,M,M,M,60.00,5.00,M,29.88,M,3.00,M,OVC,M,M,M,999.00,M,M,M,-SN BR,KASH 010800Z AUTO 06005KT 3SM -SN BR OVC009 A2988 RMK VRB05KT CIG 7V12  MADISHF
ASH,2017-04-01 08:05,-71.5148,42.7818,M,M,M,50.00,6.00,M,29.88,M,4.00,M,OVC,M,M,M,999.00,M,M,M,-SN BR,KASH 010805Z AUTO 05006KT 4SM -SN BR OVC009 A2988 RMK CIG 7V12  MADISHF
ASH,2017-04-01 08:10,-71.5148,42.7818,M,M,M,50.00,7.00,M,29.88,M,4.00,M,OVC,M,M,M,800.00,M,M,M,-SN BR,KASH 010810Z AUTO 05007KT 4SM -SN BR OVC008 A2988 RMK WND 02V08 CIG 7V12  MADISHF
ASH,2017-04-01 08:15,-71.5148,42.7818,M,M,M,60.00,10.00,M,29.87,M,4.00,M,OVC,M,M,M,800.00,M,M,M,-SN BR,KASH 010815Z AUTO 06010KT 4SM -SN BR OVC008 A2987 RMK CIG 7V12  MADISHF
ASH,2017-04-01 08:16,-71.5148,42.7818,32.00,32.00,100.00,60.00,10.00,0.00,29.87,M,4.00,14.00,OVC,M,M,M,800.00,M,M,M,-SN BR,KASH 010816Z AUTO 06010G14KT 4SM -SN BR OVC008 00/00 A2987 RMK AO2 CIG 007V012 P0000
ASH,2017-04-01 08:20,-71.5148,42.7818,M,M,M,60.00,7.00,M,29.87,M,4.00,M,OVC,M,M,M,800.00,M,M,M,-SN BR,KASH 010820Z AUTO 06007KT 4SM -SN BR OVC008 A2987 RMK CIG 7V12  MADISHF
ASH,2017-04-01 08:25,-71.5148,42.7818,M,M,M,60.00,8.00,M,29.87,M,3.50,M,OVC,M,M,M,800.00,M,M,M,-SN BR,KASH 010825Z AUTO 06008KT 3SM -SN BR OVC008 A2987 RMK CIG 7V12  MADISHF
ASH,2017-04-01 08:30,-71.5148,42.7818,M,M,M,60.00,7.00,M,29.87,M,3.00,M,OVC,M,M,M,800.00,M,M,M,-SN BR,KASH 010830Z AUTO 06007KT 3SM -SN BR OVC008 A2987 RMK CIG 8V12  MADISHF
ASH,2017-04-01 08:35,-71.5148,42.7818,M,M,M,50.00,7.00,M,29.87,M,3.00,M,OVC,M,M,M,800.00,M,M,M,-SN BR,KASH 010835Z AUTO 05007KT 3SM -SN BR OVC008 A2987 RMK CIG 7V12  MADISHF
ASH,2017-04-01 08:40,-71.5148,42.7818,M,M,M,40.00,8.00,M,29.87,M,3.00,M,OVC,M,M,M,800.00,M,M,M,-SN BR,KASH 010840Z AUTO 04008KT 3SM -SN BR OVC008 A2987 RMK CIG 7V12  MADISHF
ASH,2017-04-01 08:45,-71.5148,42.7818,M,M,M,50.00,6.00,M,29.87,M,2.50,M,OVC,M,M,M,800.00,M,M,M,-SN BR,KASH 010845Z AUTO 05006KT 2 1/2SM -SN BR OVC008 A2987 RMK CIG 7V12  MADISHF
ASH,2017-04-01 08:50,-71.5148,42.7818,M,M,M,50.00,8.00,M,29.87,M,2.50,M,OVC,M,M,M,800.00,M,M,M,-SN BR,KASH 010850Z AUTO 05008KT 2 1/2SM -SN BR OVC008 A2987 RMK CIG 6V12  MADISHF
ASH,2017-04-01 08:51,-71.5148,42.7818,32.00,32.00,100.00,50.00,7.00,0.00,29.86,M,2.50,M,OVC,M,M,M,800.00,M,M,M,-SN BR,KASH 010851Z AUTO 05007KT 2 1/2SM -SN BR OVC008 00/00 A2986 RMK AO2 CIG 006V014 P0000
ASH,2017-04-01 08:55,-71.5148,42.7818,M,M,M,60.00,6.00,M,29.86,M,2.50,M,OVC,M,M,M,800.00,M,M,M,-SN BR,KASH 010855Z AUTO 06006KT 2 1/2SM -SN BR OVC008 A2986 RMK VRB06KT CIG 6V11  MADISHF
ASH,2017-04-01 08:56,-71.5148,42.7818,32.00,32.00,100.00,60.00,8.00,0.00,29.86,1012.30,2.50,M,OVC,M,M,M,800.00,M,M,M,-SN BR,KASH 010856Z AUTO 06008KT 2 1/2SM -SN BR OVC008 00/00 A2986 RMK AO2 CIG 006V011 SLP123 P0000 60000 T00000000 56013
ASH,2017-04-01 09:00,-71.5148,42.7818,M,M,M,60.00,5.00,M,29.86,M,2.50,M,BKN,OVC,M,M,800.00,1200.00,M,M,-SN BR,KASH 010900Z AUTO 06005KT 2 1/2SM -SN BR BKN008 OVC012 A2986 RMK MADISHF
ASH,2017-04-01 09:05,-71.5148,42.7818,M,M,M,50.00,5.00,M,29.86,M,2.50,M,BKN,OVC,M,M,800.00,1100.00,M,M,-SN BR,KASH 010905Z AUTO 05005KT 2 1/2SM -SN BR BKN008 OVC011 A2986 RMK VRB05KT  MADISHF
ASH,2017-04-01 09:10,-71.5148,42.7818,M,M,M,50.00,5.00,M,29.86,M,2.50,M,OVC,M,M,M,800.00,M,M,M,-SN BR,KASH 010910Z AUTO 05005KT 2 1/2SM -SN BR OVC008 A2986 RMK CIG 6V13  MADISHF
ASH,2017-04-01 09:15,-71.5148,42.7818,M,M,M,40.00,8.00,M,29.86,M,3.00,M,OVC,M,M,M,800.00,M,M,M,-SN BR,KASH 010915Z AUTO 04008KT 3SM -SN BR OVC008 A2986 RMK CIG 6V11  MADISHF
ASH,2017-04-01 09:20,-71.5148,42.7818,M,M,M,30.00,5.00,M,29.86,M,3.50,M,OVC,M,M,M,800.00,M,M,M,-SN BR,KASH 010920Z AUTO 03005KT 3SM -SN BR OVC008 A2986 RMK VRB05KT CIG 6V11  MADISHF
ASH,2017-04-01 09:21,-71.5148,42.7818,32.00,32.00,100.00,M,6.00,0.00,29.86,M,3.00,M,OVC,M,M,M,800.00,M,M,M,-SN BR,KASH 010921Z AUTO VRB06KT 3SM -SN BR OVC008 00/00 A2986 RMK AO2 CIG 006V013 P0000
ASH,2017-04-01 09:25,-71.5148,42.7818,M,M,M,40.00,6.00,M,29.86,M,4.00,M,OVC,M,M,M,800.00,M,M,M,-SN BR,KASH 010925Z AUTO 04006KT 4SM -SN BR OVC008 A2986 RMK CIG 6V13  MADISHF
ASH,2017-04-01 09:30,-71.5148,42.7818,M,M,M,20.00,4.00,M,29.86,M,4.00,M,OVC,M,M,M,800.00,M,M,M,-SN BR,KASH 010930Z AUTO 02004KT 4SM -SN BR OVC008 A2986 RMK VRB04KT CIG 6V13  MADISHF
ASH,2017-04-01 09:35,-71.5148,42.7818,M,M,M,30.00,6.00,M,29.86,M,5.00,M,OVC,M,M,M,800.00,M,M,M,-SN BR,KASH 010935Z AUTO 03006KT 5SM -SN BR OVC008 A2986 RMK CIG 6V13  MADISHF
ASH,2017-04-01 09:40,-71.5148,42.7818,M,M,M,30.00,5.00,M,29.86,M,4.00,M,OVC,M,M,M,800.00,M,M,M,-SN BR,KASH 010940Z AUTO 03005KT 4SM -SN BR OVC008 A2986 RMK CIG 6V13  MADISHF
ASH,2017-04-01 09:45,-71.5148,42.7818,M,M,M,20.00,6.00,M,29.86,M,3.00,M,BKN,OVC,M,M,800.00,1100.00,M,M,-SN BR,KASH 010945Z AUTO 02006KT 3SM -SN BR BKN008 OVC011 A2986 RMK MADISHF
ASH,2017-04-01 09:50,-71.5148,42.7818,M,M,M,50.00,6.00,M,29.86,M,3.00,M,OVC,M,M,M,800.00,M,M,M,-SN BR,KASH 010950Z AUTO 05006KT 3SM -SN BR OVC008 A2986 RMK CIG 5V10  MADISHF
ASH,2017-04-01 09:55,-71.5148,42.7818,M,M,M,40.00,5.00,M,29.86,M,2.50,M,OVC,M,M,M,800.00,M,M,M,-SN BR,KASH 010955Z AUTO 04005KT 2 1/2SM -SN BR OVC008 A2986 RMK CIG 5V10  MADISHF
ASH,2017-04-01 09:56,-71.5148,42.7818,32.00,32.00,100.00,40.00,5.00,0.00,29.86,1012.10,2.50,M,OVC,M,M,M,800.00,M,M,M,-SN BR,KASH 010956Z AUTO 04005KT 2 1/2SM -SN BR OVC008 00/00 A2986 RMK AO2 CIG 005V010 SLP121 P0000 T00000000
ASH,2017-04-01 10:00,-71.5148,42.7818,M,M,M,40.00,6.00,M,29.85,M,2.50,M,OVC,M,M,M,800.00,M,M,M,-SN BR,KASH 011000Z AUTO 04006KT 2 1/2SM -SN BR OVC008 A2985 RMK CIG 5V12  MADISHF
ASH,2017-04-01 10:05,-71.5148,42.7818,M,M,M,40.00,5.00,M,29.86,M,3.00,M,OVC,M,M,M,800.00,M,M,M,-SN BR,KASH 011005Z AUTO 04005KT 3SM -SN BR OVC008 A2986 RMK CIG 5V12  MADISHF
ASH,2017-04-01 10:09,-71.5148,42.7818,32.00,32.00,100.00,M,4.00,0.00,29.86,M,3.00,M,OVC,M,M,M,800.00,M,M,M,-SN BR,KASH 011009Z AUTO VRB04KT 3SM -SN BR OVC008 00/00 A2986 RMK AO2 CIG 005V012 P0000
ASH,2017-04-01 10:10,-71.5148,42.7818,M,M,M,20.00,5.00,M,29.86,M,4.00,M,OVC,M,M,M,800.00,M,M,M,-SN BR,KASH 011010Z AUTO 02005KT 4SM -SN BR OVC008 A2986 RMK CIG 5V12  MADISHF
ASH,2017-04-01 10:15,-71.5148,42.7818,M,M,M,30.00,5.00,M,29.86,M,4.00,M,OVC,M,M,M,800.00,M,M,M,-SN BR,KASH 011015Z AUTO 03005KT 4SM -SN BR OVC008 A2986 RMK CIG 5V12  MADISHF
ASH,2017-04-01 10:20,-71.5148,42.7818,M,M,M,30.00,6.00,M,29.86,M,4.00,M,OVC,M,M,M,800.00,M,M,M,-SN BR,KASH 011020Z AUTO 03006KT 4SM -SN BR OVC008 A2986 RMK VRB06KT CIG 5V12  MADISHF
ASH,2017-04-01 10:25,-71.5148,42.7818,M,M,M,30.00,8.00,M,29.86,M,4.00,M,OVC,M,M,M,800.00,M,M,M,-SN BR,KASH 011025Z AUTO 03008KT 4SM -SN BR OVC008 A2986 RMK CIG 5V11  MADISHF
ASH,2017-04-01 10:30,-71.5148,42.7818,M,M,M,40.00,8.00,M,29.86,M,3.00,M,OVC,M,M,M,800.00,M,M,M,-SN BR,KASH 011030Z AUTO 04008KT 3SM -SN BR OVC008 A2986 RMK CIG 5V11  MADISHF
ASH,2017-04-01 10:35,-71.5148,42.7818,M,M,M,40.00,6.00,M,29.86,M,2.00,M,OVC,M,M,M,800.00,M,M,M,-SN BR,KASH 011035Z AUTO 04006KT 2SM -SN BR OVC008 A2986 RMK VRB06KT CIG 5V11  MADISHF
ASH,2017-04-01 10:38,-71.5148,42.7818,32.00,32.00,100.00,30.00,6.00,0.00,29.86,M,1.75,M,OVC,M,M,M,800.00,M,M,M,-SN BR,KASH 011038Z AUTO 03006KT 1 3/4SM -SN BR OVC008 00/00 A2986 RMK AO2 CIG 005V011 P0000
ASH,2017-04-01 10:40,-71.5148,42.7818,M,M,M,40.00,5.00,M,29.86,M,1.75,M,OVC,M,M,M,800.00,M,M,M,-SN BR,KASH 011040Z AUTO 04005KT 2SM -SN BR OVC008 A2986 RMK CIG 5V11  MADISHF
ASH,2017-04-01 10:45,-71.5148,42.7818,M,M,M,30.00,5.00,M,29.86,M,1.50,M,OVC,M,M,M,800.00,M,M,M,-SN BR,KASH 011045Z AUTO 03005KT 1 1/2SM -SN BR OVC008 A2986 RMK CIG 5V10  MADISHF
ASH,2017-04-01 10:50,-71.5148,42.7818,M,M,M,30.00,5.00,M,29.86,M,1.25,M,OVC,M,M,M,600.00,M,M,M,-SN BR,KASH 011050Z AUTO 03005KT 1 1/2SM -SN BR OVC006 A2986 RMK CIG 5V10  MADISHF
ASH,2017-04-01 10:55,-71.5148,42.7818,M,M,M,30.00,6.00,M,29.86,M,1.25,M,OVC,M,M,M,600.00,M,M,M,-SN BR,KASH 011055Z AUTO 03006KT 1 1/2SM -SN BR OVC006 A2986 RMK MADISHF
ASH,2017-04-01 10:56,-71.5148,42.7818,32.00,32.00,100.00,30.00,6.00,0.00,29.86,1012.20,1.25,M,OVC,M,M,M,600.00,M,M,M,-SN BR,KASH 011056Z AUTO 03006KT 1 1/4SM -SN BR OVC006 00/00 A2986 RMK AO2 SLP122 P0000 T00000000
ASH,2017-04-01 11:00,-71.5148,42.7818,M,M,M,30.00,7.00,M,29.86,M,1.25,M,OVC,M,M,M,600.00,M,M,M,-SN BR,KASH 011100Z AUTO 03007KT 1 1/2SM -SN BR OVC006 A2986 RMK MADISHF
ASH,2017-04-01 11:05,-71.5148,42.7818,M,M,M,30.00,4.00,M,29.86,M,1.25,M,OVC,M,M,M,600.00,M,M,M,-SN BR,KASH 011105Z AUTO 03004KT 1 1/2SM -SN BR OVC006 A2986 RMK VRB04KT  MADISHF
ASH,2017-04-01 11:10,-71.5148,42.7818,M,M,M,20.00,6.00,M,29.86,M,1.25,M,OVC,M,M,M,600.00,M,M,M,-SN BR,KASH 011110Z AUTO 02006KT 1 1/2SM -SN BR OVC006 A2986 RMK MADISHF
ASH,2017-04-01 11:15,-71.5148,42.7818,M,M,M,30.00,5.00,M,29.86,M,1.25,M,OVC,M,M,M,600.00,M,M,M,-SN BR,KASH 011115Z AUTO 03005KT 1 1/2SM -SN BR OVC006 A2986 RMK MADISHF
ASH,2017-04-01 11:20,-71.5148,42.7818,M,M,M,30.00,6.00,M,29.86,M,1.25,M,OVC,M,M,M,600.00,M,M,M,-SN BR,KASH 011120Z AUTO 03006KT 1 1/2SM -SN BR OVC006 A2986 RMK MADISHF
ASH,2017-04-01 11:25,-71.5148,42.7818,M,M,M,30.00,8.00,M,29.85,M,1.25,M,OVC,M,M,M,600.00,M,M,M,-SN BR,KASH 011125Z AUTO 03008KT 1 1/2SM -SN BR OVC006 A2985 RMK CIG 4V9  MADISHF
ASH,2017-04-01 11:30,-71.5148,42.7818,M,M,M,20.00,8.00,M,29.85,M,1.25,M,OVC,M,M,M,600.00,M,M,M,-SN BR,KASH 011130Z AUTO 02008KT 1 1/2SM -SN BR OVC006 A2985 RMK CIG 4V9  MADISHF
ASH,2017-04-01 11:35,-71.5148,42.7818,M,M,M,20.00,6.00,M,29.86,M,1.25,M,OVC,M,M,M,600.00,M,M,M,-SN BR,KASH 011135Z AUTO 02006KT 1 1/2SM -SN BR OVC006 A2986 RMK VRB06KT CIG 4V9  MADISHF
ASH,2017-04-01 11:40,-71.5148,42.7818,M,M,M,20.00,8.00,M,29.86,M,1.25,M,OVC,M,M,M,600.00,M,M,M,-SN BR,KASH 011140Z AUTO 02008KT 1 1/2SM -SN BR OVC006 A2986 RMK CIG 4V9  MADISHF
ASH,2017-04-01 11:45,-71.5148,42.7818,M,M,M,20.00,7.00,M,29.86,M,1.25,M,OVC,M,M,M,600.00,M,M,M,-SN BR,KASH 011145Z AUTO 02007KT 1 1/2SM -SN BR OVC006 A2986 RMK MADISHF
ASH,2017-04-01 11:50,-71.5148,42.7818,M,M,M,30.00,6.00,M,29.86,M,1.25,M,OVC,M,M,M,600.00,M,M,M,-SN BR,KASH 011150Z AUTO 03006KT 1 1/2SM -SN BR OVC006 A2986 RMK VRB06KT  MADISHF
ASH,2017-04-01 11:55,-71.5148,42.7818,M,M,M,40.00,7.00,M,29.86,M,1.50,M,OVC,M,M,M,600.00,M,M,M,-SN BR,KASH 011155Z AUTO 04007KT 1 1/2SM -SN BR OVC006 A2986 RMK MADISHF
ASH,2017-04-01 12:00,-71.5148,42.7818,M,M,M,30.00,7.00,M,29.86,M,1.50,M,OVC,M,M,M,600.00,M,M,M,-SN BR,KASH 011200Z AUTO 03007KT 1 1/2SM -SN BR OVC006 A2986 RMK MADISHF
ASH,2017-04-01 12:05,-71.5148,42.7818,M,M,M,10.00,6.00,M,29.86,M,1.50,M,OVC,M,M,M,600.00,M,M,M,-SN BR,KASH 011205Z AUTO 01006KT 1 1/2SM -SN BR OVC006 A2986 RMK MADISHF
ASH,2017-04-01 12:10,-71.5148,42.7818,M,M,M,20.00,7.00,M,29.86,M,1.50,M,OVC,M,M,M,600.00,M,M,M,-SN BR,KASH 011210Z AUTO 02007KT 1 1/2SM -SN BR OVC006 A2986 RMK MADISHF
ASH,2017-04-01 12:15,-71.5148,42.7818,M,M,M,20.00,7.00,M,29.86,M,1.50,M,OVC,M,M,M,600.00,M,M,M,-SN BR,KASH 011215Z AUTO 02007KT 1 1/2SM -SN BR OVC006 A2986 RMK MADISHF
ASH,2017-04-01 12:20,-71.5148,42.7818,M,M,M,10.00,8.00,M,29.86,M,1.50,M,OVC,M,M,M,600.00,M,M,M,-SN BR,KASH 011220Z AUTO 01008KT 1 1/2SM -SN BR OVC006 A2986 RMK MADISHF
ASH,2017-04-01 12:25,-71.5148,42.7818,M,M,M,20.00,6.00,M,29.86,M,1.50,M,BKN,OVC,M,M,600.00,999.00,M,M,-SN BR,KASH 011225Z AUTO 02006KT 1 1/2SM -SN BR BKN006 OVC009 A2986 RMK VRB06KT  MADISHF
ASH,2017-04-01 12:30,-71.5148,42.7818,M,M,M,20.00,6.00,M,29.86,M,1.75,M,OVC,M,M,M,600.00,M,M,M,-SN BR,KASH 011230Z AUTO 02006KT 2SM -SN BR OVC006 A2986 RMK CIG 5V11  MADISHF
ASH,2017-04-01 12:35,-71.5148,42.7818,M,M,M,10.00,6.00,M,29.86,M,1.75,M,OVC,M,M,M,600.00,M,M,M,-SN BR,KASH 011235Z AUTO 01006KT 2SM -SN BR OVC006 A2986 RMK VRB06KT CIG 5V10  MADISHF
ASH,2017-04-01 12:40,-71.5148,42.7818,M,M,M,20.00,10.00,M,29.86,M,1.75,M,OVC,M,M,M,600.00,M,M,M,-SN BR,KASH 011240Z AUTO 02010KT 2SM -SN BR OVC006 A2986 RMK CIG 5V10  MADISHF
ASH,2017-04-01 12:45,-71.5148,42.7818,M,M,M,20.00,8.00,0.01,29.86,M,1.50,M,OVC,M,M,M,600.00,M,M,M,-SN BR,KASH 011245Z AUTO 02008KT 1 1/2SM -SN BR OVC006 A2986 RMK P0001 CIG 5V10  MADISHF
ASH,2017-04-01 12:50,-71.5148,42.7818,M,M,M,20.00,6.00,0.01,29.87,M,1.75,M,OVC,M,M,M,600.00,M,M,M,-SN BR,KASH 011250Z AUTO 02006KT 2SM -SN BR OVC006 A2987 RMK P0001 CIG 5V10  MADISHF
ASH,2017-04-01 12:55,-71.5148,42.7818,M,M,M,10.00,7.00,0.01,29.87,M,2.00,M,OVC,M,M,M,600.00,M,M,M,-SN BR,KASH 011255Z AUTO 01007KT 2SM -SN BR OVC006 A2987 RMK P0001 WND 34V06 CIG 5V10  MADISHF
ASH,2017-04-01 12:56,-71.5148,42.7818,33.10,33.10,100.00,M,6.00,0.01,29.87,1012.50,1.75,M,OVC,M,M,M,600.00,M,M,M,-SN BR,KASH 011256Z VRB06KT 1 3/4SM -SN BR OVC006 01/01 A2987 RMK AO2 CIG 005V010 SLP125 P0001 T00060006
ASH,2017-04-01 13:00,-71.5148,42.7818,M,M,M,30.00,8.00,M,29.87,M,2.00,M,OVC,M,M,M,600.00,M,M,M,-SN BR,KASH 011300Z AUTO 03008KT 2SM -SN BR OVC006 A2987 RMK CIG 6V11  MADISHF
ASH,2017-04-01 13:05,-71.5148,42.7818,M,M,M,30.00,5.00,M,29.87,M,1.75,M,OVC,M,M,M,800.00,M,M,M,-SN BR,KASH 011305Z AUTO 03005KT 2SM -SN BR OVC008 A2987 RMK CIG 6V12  MADISHF
ASH,2017-04-01 13:10,-71.5148,42.7818,M,M,M,20.00,10.00,M,29.87,M,1.50,M,OVC,M,M,M,800.00,M,M,M,-SN BR,KASH 011310Z AUTO 02010KT 1 1/2SM -SN BR OVC008 A2987 RMK CIG 6V10  MADISHF
ASH,2017-04-01 13:15,-71.5148,42.7818,M,M,M,10.00,7.00,M,29.87,M,1.00,M,OVC,M,M,M,800.00,M,M,M,-SN BR,KASH 011315Z AUTO 01007KT 1SM -SN BR OVC008 A2987 RMK CIG 5V10  MADISHF
ASH,2017-04-01 13:20,-71.5148,42.7818,33.80,32.00,93.03,20.00,7.00,0.00,29.88,M,1.00,15.00,OVC,M,M,M,800.00,M,M,M,-SN BR,KASH 011320Z 02007G15KT 1SM -SN BR OVC008 01/00 A2988 RMK AO2 CIG 005V011 P0000
ASH,2017-04-01 13:25,-71.5148,42.7818,M,M,M,20.00,8.00,M,29.88,M,1.00,M,OVC,M,M,M,800.00,M,M,M,-SN BR,KASH 011325Z AUTO 02008KT 1SM -SN BR OVC008 A2988 RMK CIG 5V11  MADISHF
ASH,2017-04-01 13:30,-71.5148,42.7818,M,M,M,20.00,6.00,M,29.88,M,1.00,M,OVC,M,M,M,800.00,M,M,M,-SN BR,KASH 011330Z AUTO 02006KT 1SM -SN BR OVC008 A2988 RMK CIG 5V10  MADISHF
ASH,2017-04-01 13:35,-71.5148,42.7818,M,M,M,20.00,8.00,0.02,29.88,M,1.00,M,OVC,M,M,M,800.00,M,M,M,-SN BR,KASH 011335Z AUTO 02008KT 1SM -SN BR OVC008 A2988 RMK P0002 CIG 5V10  MADISHF
ASH,2017-04-01 13:40,-71.5148,42.7818,M,M,M,10.00,6.00,0.02,29.88,M,1.00,M,BKN,OVC,M,M,600.00,1200.00,M,M,-SN BR,KASH 011340Z AUTO 01006KT 1SM -SN BR BKN006 OVC012 A2988 RMK P0002 CIG 5V10  MADISHF
ASH,2017-04-01 13:45,-71.5148,42.7818,M,M,M,10.00,8.00,0.03,29.88,M,1.00,M,BKN,OVC,M,M,800.00,1200.00,M,M,-SN BR,KASH 011345Z AUTO 01008KT 1SM -SN BR BKN008 OVC012 A2988 RMK P0003 CIG 5V11  MADISHF
ASH,2017-04-01 13:50,-71.5148,42.7818,M,M,M,20.00,8.00,0.03,29.89,M,1.00,M,BKN,OVC,M,M,600.00,1200.00,M,M,-SN BR,KASH 011350Z AUTO 02008KT 1SM -SN BR BKN006 OVC012 A2989 RMK P0003 MADISHF
ASH,2017-04-01 13:55,-71.5148,42.7818,M,M,M,10.00,4.00,0.03,29.89,M,1.00,M,BKN,OVC,M,M,600.00,1100.00,M,M,-SN BR,KASH 011355Z AUTO 01004KT 1SM -SN BR BKN006 OVC011 A2989 RMK P0003 MADISHF
ASH,2017-04-01 13:56,-71.5148,42.7818,33.10,32.00,95.67,10.00,4.00,0.03,29.89,1013.10,1.00,15.00,BKN,OVC,M,M,600.00,1100.00,M,M,-SN BR,KASH 011356Z 01004G15KT 1SM -SN BR BKN006 OVC011 01/00 A2989 RMK AO2 SLP131 P0003 T00060000
ASH,2017-04-01 14:00,-71.5148,42.7818,M,M,M,20.00,7.00,M,29.88,M,0.75,M,BKN,OVC,M,M,600.00,1200.00,M,M,-SN BR,KASH 011400Z AUTO 02007KT 1SM -SN BR BKN006 OVC012 A2988 RMK CIG 4V10  MADISHF
ASH,2017-04-01 14:05,-71.5148,42.7818,M,M,M,10.00,7.00,M,29.88,M,1.00,M,OVC,M,M,M,800.00,M,M,M,-SN BR,KASH 011405Z AUTO 01007KT 1SM -SN BR OVC008 A2988 RMK WND 34V04 CIG 4V11  MADISHF
ASH,2017-04-01 14:10,-71.5148,42.7818,M,M,M,360.00,8.00,M,29.88,M,1.00,M,OVC,M,M,M,600.00,M,M,M,-SN BR,KASH 011410Z AUTO 36008KT 1SM -SN BR OVC006 A2988 RMK CIG 4V12  MADISHF
ASH,2017-04-01 14:15,-71.5148,42.7818,M,M,M,360.00,6.00,M,29.89,M,0.75,M,OVC,M,M,M,600.00,M,M,M,-SN BR,KASH 011415Z AUTO 36006KT 1SM -SN BR OVC006 A2989 RMK CIG 4V11  MADISHF
ASH,2017-04-01 14:17,-71.5148,42.7818,33.80,32.00,93.03,360.00,8.00,0.00,29.89,M,0.75,M,OVC,M,M,M,600.00,M,M,M,-SN BR,KASH 011417Z 36008KT 3/4SM -SN BR OVC006 01/00 A2989 RMK AO2 CIG 004V009 P0000
ASH,2017-04-01 14:20,-71.5148,42.7818,M,M,M,10.00,8.00,M,29.89,M,0.75,M,OVC,M,M,M,600.00,M,M,M,-SN BR,KASH 011420Z AUTO 01008KT 1SM -SN BR OVC006 A2989 RMK CIG 4V9  MADISHF
ASH,2017-04-01 14:25,-71.5148,42.7818,M,M,M,20.00,8.00,M,29.89,M,1.00,M,OVC,M,M,M,600.00,M,M,M,-SN BR,KASH 011425Z AUTO 02008KT 1SM -SN BR OVC006 A2989 RMK CIG 4V9  MADISHF
ASH,2017-04-01 14:30,-71.5148,42.7818,M,M,M,10.00,6.00,M,29.89,M,1.00,M,OVC,M,M,M,600.00,M,M,M,-SN BR,KASH 011430Z AUTO 01006KT 1SM -SN BR OVC006 A2989 RMK CIG 5V11  MADISHF
ASH,2017-04-01 14:31,-71.5148,42.7818,33.80,32.00,93.03,10.00,7.00,0.00,29.89,M,1.00,M,OVC,M,M,M,600.00,M,M,M,-SN BR,KASH 011431Z 01007KT 1SM -SN BR OVC006 01/00 A2989 RMK AO2 CIG 005V011 P0000
ASH,2017-04-01 14:35,-71.5148,42.7818,M,M,M,10.00,8.00,M,29.89,M,1.00,M,OVC,M,M,M,800.00,M,M,M,-SN BR,KASH 011435Z AUTO 01008KT 1SM -SN BR OVC008 A2989 RMK CIG 5V10  MADISHF
ASH,2017-04-01 14:40,-71.5148,42.7818,M,M,M,20.00,10.00,M,29.89,M,1.25,M,OVC,M,M,M,800.00,M,M,M,-SN BR,KASH 011440Z AUTO 02010KT 1 1/2SM -SN BR OVC008 A2989 RMK CIG 5V12  MADISHF
ASH,2017-04-01 14:45,-71.5148,42.7818,33.80,32.00,93.03,360.00,6.00,0.00,29.89,M,1.25,16.00,BKN,OVC,M,M,600.00,1000.00,M,M,-SN BR,KASH 011445Z 36006G16KT 1 1/4SM -SN BR BKN006 OVC010 01/00 A2989 RMK AO2 VIS 3/4V2 P0000
ASH,2017-04-01 14:50,-71.5148,42.7818,M,M,M,10.00,8.00,M,29.89,M,1.25,M,OVC,M,M,M,600.00,M,M,M,-SN BR,KASH 011450Z AUTO 01008KT 1 1/2SM -SN BR OVC006 A2989 RMK CIG 5V12  MADISHF
ASH,2017-04-01 14:55,-71.5148,42.7818,M,M,M,360.00,9.00,M,29.89,M,1.25,M,OVC,M,M,M,600.00,M,M,M,-SN BR,KASH 011455Z AUTO 36009KT 1 1/2SM -SN BR OVC006 A2989 RMK CIG 5V9  MADISHF
ASH,2017-04-01 14:56,-71.5148,42.7818,33.10,33.10,100.00,360.00,7.00,0.00,29.89,1013.50,1.00,14.00,OVC,M,M,M,600.00,M,M,M,-SN BR,KASH 011456Z 36007G14KT 1SM -SN BR OVC006 01/01 A2989 RMK AO2 SLP135 P0000 60004 T00060006 53011
ASH,2017-04-01 15:00,-71.5148,42.7818,M,M,M,350.00,6.00,M,29.89,M,1.00,M,OVC,M,M,M,600.00,M,M,M,-SN BR,KASH 011500Z AUTO 35006KT 1SM -SN BR OVC006 A2989 RMK MADISHF
ASH,2017-04-01 15:05,-71.5148,42.7818,M,M,M,360.00,8.00,M,29.89,M,1.00,M,OVC,M,M,M,600.00,M,M,M,-SN BR,KASH 011505Z AUTO 36008KT 1SM -SN BR OVC006 A2989 RMK MADISHF
ASH,2017-04-01 15:10,-71.5148,42.7818,M,M,M,350.00,9.00,M,29.89,M,1.00,M,OVC,M,M,M,600.00,M,M,M,-SN BR,KASH 011510Z AUTO 35009KT 1SM -SN BR OVC006 A2989 RMK MADISHF
ASH,2017-04-01 15:15,-71.5148,42.7818,M,M,M,350.00,7.00,M,29.89,M,0.75,M,OVC,M,M,M,600.00,M,M,M,-SN BR,KASH 011515Z AUTO 35007KT 1SM -SN BR OVC006 A2989 RMK CIG 4V11  MADISHF
ASH,2017-04-01 15:20,-71.5148,42.7818,M,M,M,350.00,8.00,M,29.90,M,0.75,M,OVC,M,M,M,600.00,M,M,M,-SN BR,KASH 011520Z AUTO 35008KT 1SM -SN BR OVC006 A2990 RMK CIG 4V11  MADISHF
ASH,2017-04-01 15:21,-71.5148,42.7818,33.80,33.80,100.00,360.00,8.00,0.00,29.90,M,0.75,14.00,OVC,M,M,M,600.00,M,M,M,-SN BR,KASH 011521Z 36008G14KT 3/4SM -SN BR OVC006 01/01 A2990 RMK AO2 CIG 004V011 P0000
ASH,2017-04-01 15:25,-71.5148,42.7818,M,M,M,350.00,7.00,M,29.89,M,0.75,M,OVC,M,M,M,600.00,M,M,M,-SN BR,KASH 011525Z AUTO 35007KT 1SM -SN BR OVC006 A2989 RMK CIG 4V11  MADISHF
ASH,2017-04-01 15:35,-71.5148,42.7818,M,M,M,360.00,9.00,0.01,29.89,M,0.75,M,OVC,M,M,M,600.00,M,M,M,-SN BR,KASH 011535Z AUTO 36009KT 1SM -SN BR OVC006 A2989 RMK P0001 CIG 4V10  MADISHF
ASH,2017-04-01 15:40,-71.5148,42.7818,M,M,M,350.00,7.00,0.01,29.89,M,0.50,M,OVC,M,M,M,600.00,M,M,M,-SN FG,KASH 011540Z AUTO 35007KT 1/2SM -SN FG OVC006 A2989 RMK P0001 CIG 4V10  MADISHF
ASH,2017-04-01 15:45,-71.5148,42.7818,M,M,M,360.00,8.00,0.02,29.89,M,0.50,M,OVC,M,M,M,600.00,M,M,M,SN FG,KASH 011545Z AUTO 36008KT 1/2SM SN FG OVC006 A2989 RMK P0002 CIG 5V10  MADISHF
ASH,2017-04-01 15:46,-71.5148,42.7818,33.80,33.80,100.00,350.00,8.00,0.02,29.89,M,0.50,M,OVC,M,M,M,600.00,M,M,M,SN FG,KASH 011546Z 35008KT 1/2SM SN FG OVC006 01/01 A2989 RMK AO2 P0002
ASH,2017-04-01 15:50,-71.5148,42.7818,M,M,M,360.00,8.00,0.02,29.89,M,0.50,M,OVC,M,M,M,600.00,M,M,M,-SN FG,KASH 011550Z AUTO 36008KT 1/2SM -SN FG OVC006 A2989 RMK P0002 MADISHF
ASH,2017-04-01 15:55,-71.5148,42.7818,M,M,M,360.00,9.00,0.03,29.89,M,0.75,14.00,OVC,M,M,M,600.00,M,M,M,-SN BR,KASH 011555Z AUTO 36009G14KT 1SM -SN BR OVC006 A2989 RMK P0003 MADISHF
ASH,2017-04-01 15:56,-71.5148,42.7818,34.00,33.10,96.46,360.00,10.00,0.03,29.89,1013.30,0.75,14.00,OVC,M,M,M,600.00,M,M,M,-SN BR,KASH 011556Z 36010G14KT 3/4SM -SN BR OVC006 01/01 A2989 RMK AO2 SLP133 P0003 T00110006
ASH,2017-04-01 16:00,-71.5148,42.7818,M,M,M,360.00,11.00,0.01,29.89,M,0.50,M,OVC,M,M,M,600.00,M,M,M,SN FG,KASH 011600Z AUTO 36011KT 1/2SM SN FG OVC006 A2989 RMK P0001 MADISHF
ASH,2017-04-01 16:05,-71.5148,42.7818,M,M,M,360.00,9.00,0.02,29.89,M,0.75,M,OVC,M,M,M,600.00,M,M,M,-SN BR,KASH 011605Z AUTO 36009KT 1SM -SN BR OVC006 A2989 RMK P0002 MADISHF
ASH,2017-04-01 16:10,-71.5148,42.7818,M,M,M,360.00,10.00,0.02,29.89,M,0.75,15.00,OVC,M,M,M,600.00,M,M,M,-SN BR,KASH 011610Z AUTO 36010G15KT 1SM -SN BR OVC006 A2989 RMK P0002 MADISHF
ASH,2017-04-01 16:15,-71.5148,42.7818,M,M,M,360.00,10.00,0.02,29.89,M,0.75,M,OVC,M,M,M,600.00,M,M,M,-SN BR,KASH 011615Z AUTO 36010KT 1SM -SN BR OVC006 A2989 RMK P0002 MADISHF
ASH,2017-04-01 16:20,-71.5148,42.7818,M,M,M,360.00,10.00,0.02,29.89,M,0.75,M,OVC,M,M,M,600.00,M,M,M,-SN BR,KASH 011620Z AUTO 36010KT 1SM -SN BR OVC006 A2989 RMK P0002 CIG 4V10  MADISHF
ASH,2017-04-01 16:25,-71.5148,42.7818,M,M,M,350.00,7.00,0.02,29.89,M,0.75,M,OVC,M,M,M,600.00,M,M,M,-SN BR,KASH 011625Z AUTO 35007KT 1SM -SN BR OVC006 A2989 RMK P0002 CIG 4V10  MADISHF
ASH,2017-04-01 16:30,-71.5148,42.7818,M,M,M,360.00,9.00,0.02,29.89,M,0.75,M,OVC,M,M,M,600.00,M,M,M,-SN BR,KASH 011630Z AUTO 36009KT 1SM -SN BR OVC006 A2989 RMK P0002 CIG 4V10  MADISHF
ASH,2017-04-01 16:35,-71.5148,42.7818,M,M,M,360.00,8.00,0.02,29.89,M,0.75,M,OVC,M,M,M,600.00,M,M,M,-SN BR,KASH 011635Z AUTO 36008KT 1SM -SN BR OVC006 A2989 RMK P0002 CIG 4V10  MADISHF
ASH,2017-04-01 16:40,-71.5148,42.7818,M,M,M,360.00,9.00,0.02,29.89,M,0.75,M,OVC,M,M,M,600.00,M,M,M,-SN BR,KASH 011640Z AUTO 36009KT 1SM -SN BR OVC006 A2989 RMK P0002 CIG 4V10  MADISHF
ASH,2017-04-01 16:45,-71.5148,42.7818,M,M,M,360.00,7.00,0.02,29.89,M,0.75,M,OVC,M,M,M,600.00,M,M,M,-SN BR,KASH 011645Z AUTO 36007KT 1SM -SN BR OVC006 A2989 RMK P0002 CIG 4V9  MADISHF
ASH,2017-04-01 16:50,-71.5148,42.7818,M,M,M,360.00,9.00,0.02,29.89,M,0.75,14.00,OVC,M,M,M,600.00,M,M,M,-SN BR,KASH 011650Z AUTO 36009G14KT 1SM -SN BR OVC006 A2989 RMK P0002 CIG 4V9  MADISHF
ASH,2017-04-01 16:55,-71.5148,42.7818,M,M,M,360.00,9.00,0.02,29.89,M,1.00,17.00,OVC,M,M,M,600.00,M,M,M,-SN BR,KASH 011655Z AUTO 36009G17KT 1SM -SN BR OVC006 A2989 RMK P0002 CIG 5V10  MADISHF
ASH,2017-04-01 17:05,-71.5148,42.7818,M,M,M,350.00,10.00,M,29.89,M,1.00,M,OVC,M,M,M,800.00,M,M,M,-SN BR,KASH 011705Z AUTO 35010KT 1SM -SN BR OVC008 A2989 RMK CIG 5V11  MADISHF
ASH,2017-04-01 17:10,-71.5148,42.7818,M,M,M,360.00,9.00,M,29.89,M,1.00,M,OVC,M,M,M,800.00,M,M,M,-SN BR,KASH 011710Z AUTO 36009KT 1SM -SN BR OVC008 A2989 RMK CIG 5V11  MADISHF
ASH,2017-04-01 17:15,-71.5148,42.7818,M,M,M,10.00,9.00,M,29.89,M,1.00,M,OVC,M,M,M,800.00,M,M,M,-SN BR,KASH 011715Z AUTO 01009KT 1SM -SN BR OVC008 A2989 RMK CIG 6V11  MADISHF
ASH,2017-04-01 17:20,-71.5148,42.7818,M,M,M,360.00,9.00,M,29.89,M,1.00,M,OVC,M,M,M,800.00,M,M,M,-SN BR,KASH 011720Z AUTO 36009KT 1SM -SN BR OVC008 A2989 RMK CIG 6V11  MADISHF
ASH,2017-04-01 17:25,-71.5148,42.7818,M,M,M,360.00,9.00,0.01,29.89,M,1.00,M,BKN,OVC,M,M,800.00,1200.00,M,M,-SN BR,KASH 011725Z AUTO 36009KT 1SM -SN BR BKN008 OVC012 A2989 RMK P0001 CIG 6V10  MADISHF
ASH,2017-04-01 17:30,-71.5148,42.7818,M,M,M,360.00,9.00,0.01,29.89,M,1.00,M,BKN,OVC,M,M,800.00,1200.00,M,M,-SN BR,KASH 011730Z AUTO 36009KT 1SM -SN BR BKN008 OVC012 A2989 RMK P0001 CIG 6V10  MADISHF
ASH,2017-04-01 17:35,-71.5148,42.7818,M,M,M,360.00,10.00,0.02,29.89,M,1.00,M,BKN,OVC,M,M,800.00,1200.00,M,M,-SN BR,KASH 011735Z AUTO 36010KT 1SM -SN BR BKN008 OVC012 A2989 RMK P0002 CIG 6V11  MADISHF
ASH,2017-04-01 17:40,-71.5148,42.7818,M,M,M,360.00,8.00,0.03,29.89,M,1.00,M,BKN,OVC,M,M,800.00,1400.00,M,M,-SN BR,KASH 011740Z AUTO 36008KT 1SM -SN BR BKN008 OVC014 A2989 RMK P0003 CIG 6V11  MADISHF
ASH,2017-04-01 17:45,-71.5148,42.7818,M,M,M,20.00,11.00,0.03,29.89,M,1.00,M,OVC,M,M,M,800.00,M,M,M,-SN BR,KASH 011745Z AUTO 02011KT 1SM -SN BR OVC008 A2989 RMK P0003 CIG 7V12  MADISHF
ASH,2017-04-01 17:50,-71.5148,42.7818,M,M,M,20.00,7.00,0.04,29.89,M,1.00,M,BKN,OVC,M,M,800.00,1200.00,M,M,-SN BR,KASH 011750Z AUTO 02007KT 1SM -SN BR BKN008 OVC012 A2989 RMK P0004 MADISHF
ASH,2017-04-01 17:55,-71.5148,42.7818,M,M,M,20.00,10.00,0.05,29.89,M,1.25,M,BKN,OVC,M,M,800.00,1400.00,M,M,-SN BR,KASH 011755Z AUTO 02010KT 1 1/2SM -SN BR BKN008 OVC014 A2989 RMK P0005 CIG 6V11  MADISHF
ASH,2017-04-01 17:56,-71.5148,42.7818,34.00,33.10,96.46,20.00,11.00,0.05,29.89,1013.20,1.25,16.00,BKN,OVC,M,M,800.00,1400.00,M,M,-SN BR,KASH 011756Z 02011G16KT 1 1/4SM -SN BR BKN008 OVC014 01/01 A2989 RMK AO2 CIG 006V011 SLP132 P0005 60014 T00110006 10011 20006 56002
ASH,2017-04-01 18:00,-71.5148,42.7818,M,M,M,10.00,7.00,M,29.89,M,1.00,M,OVC,M,M,M,800.00,M,M,M,-SN BR,KASH 011800Z AUTO 01007KT 1SM -SN BR OVC008 A2989 RMK WND 33V03  MADISHF
ASH,2017-04-01 18:03,-71.5148,42.7818,33.80,33.80,100.00,10.00,8.00,0.01,29.89,M,1.00,16.00,OVC,M,M,M,800.00,M,M,M,-SN BR,KASH 011803Z 01008G16KT 1SM -SN BR OVC008 01/01 A2989 RMK AO2 P0001
ASH,2017-04-01 18:05,-71.5148,42.7818,M,M,M,350.00,9.00,0.01,29.89,M,1.00,M,OVC,M,M,M,800.00,M,M,M,-SN BR,KASH 011805Z AUTO 35009KT 1SM -SN BR OVC008 A2989 RMK P0001 MADISHF
ASH,2017-04-01 18:10,-71.5148,42.7818,M,M,M,10.00,8.00,0.02,29.89,M,1.00,M,OVC,M,M,M,800.00,M,M,M,-SN BR,KASH 011810Z AUTO 01008KT 1SM -SN BR OVC008 A2989 RMK P0002 MADISHF
ASH,2017-04-01 18:15,-71.5148,42.7818,M,M,M,10.00,6.00,0.03,29.88,M,1.00,M,OVC,M,M,M,800.00,M,M,M,-SN BR,KASH 011815Z AUTO 01006KT 1SM -SN BR OVC008 A2988 RMK P0003 MADISHF
ASH,2017-04-01 18:20,-71.5148,42.7818,M,M,M,360.00,6.00,0.04,29.88,M,1.00,M,OVC,M,M,M,800.00,M,M,M,-SN BR,KASH 011820Z AUTO 36006KT 1SM -SN BR OVC008 A2988 RMK P0004 MADISHF
ASH,2017-04-01 18:25,-71.5148,42.7818,M,M,M,360.00,5.00,0.04,29.88,M,1.00,M,OVC,M,M,M,800.00,M,M,M,-SN BR,KASH 011825Z AUTO 36005KT 1SM -SN BR OVC008 A2988 RMK P0004 VRB05KT  MADISHF
ASH,2017-04-01 18:30,-71.5148,42.7818,M,M,M,360.00,7.00,0.05,29.88,M,1.00,M,OVC,M,M,M,800.00,M,M,M,-SN BR,KASH 011830Z AUTO 36007KT 1SM -SN BR OVC008 A2988 RMK P0005 MADISHF
ASH,2017-04-01 18:35,-71.5148,42.7818,M,M,M,360.00,7.00,0.06,29.88,M,1.00,M,OVC,M,M,M,800.00,M,M,M,-SN BR,KASH 011835Z AUTO 36007KT 1SM -SN BR OVC008 A2988 RMK P0006 MADISHF
ASH,2017-04-01 18:40,-71.5148,42.7818,M,M,M,10.00,8.00,0.06,29.88,M,1.00,M,OVC,M,M,M,800.00,M,M,M,-SN BR,KASH 011840Z AUTO 01008KT 1SM -SN BR OVC008 A2988 RMK P0006 MADISHF
ASH,2017-04-01 18:45,-71.5148,42.7818,M,M,M,10.00,11.00,0.07,29.88,M,1.00,M,OVC,M,M,M,800.00,M,M,M,-SN BR,KASH 011845Z AUTO 01011KT 1SM -SN BR OVC008 A2988 RMK P0007 MADISHF
ASH,2017-04-01 18:50,-71.5148,42.7818,M,M,M,10.00,10.00,0.08,29.88,M,1.00,M,OVC,M,M,M,800.00,M,M,M,-SN BR,KASH 011850Z AUTO 01010KT 1SM -SN BR OVC008 A2988 RMK P0008 WND 34V04  MADISHF
ASH,2017-04-01 18:55,-71.5148,42.7818,M,M,M,10.00,8.00,0.09,29.88,M,2.00,M,BKN,OVC,M,M,800.00,1300.00,M,M,-SN BR,KASH 011855Z AUTO 01008KT 2SM -SN BR BKN008 OVC013 A2988 RMK P0009 MADISHF
ASH,2017-04-01 18:56,-71.5148,42.7818,34.00,33.10,96.46,10.00,9.00,0.09,29.88,1013.10,2.00,15.00,BKN,OVC,M,M,800.00,1300.00,M,M,-SN BR,KASH 011856Z 01009G15KT 2SM -SN BR BKN008 OVC013 01/01 A2988 RMK AO2 SLP131 P0009 T00110006
ASH,2017-04-01 19:00,-71.5148,42.7818,M,M,M,360.00,8.00,0.01,29.89,M,2.00,M,BKN,OVC,M,M,800.00,1300.00,M,M,-SN BR,KASH 011900Z AUTO 36008KT 2SM -SN BR BKN008 OVC013 A2989 RMK P0001 MADISHF
ASH,2017-04-01 19:05,-71.5148,42.7818,M,M,M,360.00,7.00,0.01,29.89,M,2.00,M,BKN,OVC,M,M,800.00,1300.00,M,M,-SN BR,KASH 011905Z AUTO 36007KT 2SM -SN BR BKN008 OVC013 A2989 RMK P0001 MADISHF
ASH,2017-04-01 19:10,-71.5148,42.7818,M,M,M,10.00,7.00,0.03,29.89,M,2.00,M,BKN,OVC,M,M,800.00,1300.00,M,M,-SN BR,KASH 011910Z AUTO 01007KT 2SM -SN BR BKN008 OVC013 A2989 RMK P0003 MADISHF
ASH,2017-04-01 19:15,-71.5148,42.7818,M,M,M,360.00,7.00,0.03,29.89,M,2.00,M,BKN,OVC,M,M,800.00,1300.00,M,M,-SN BR,KASH 011915Z AUTO 36007KT 2SM -SN BR BKN008 OVC013 A2989 RMK P0003 MADISHF
ASH,2017-04-01 19:20,-71.5148,42.7818,M,M,M,10.00,5.00,0.04,29.89,M,2.00,M,BKN,OVC,M,M,800.00,1300.00,M,M,-SN BR,KASH 011920Z AUTO 01005KT 2SM -SN BR BKN008 OVC013 A2989 RMK P0004 VRB05KT  MADISHF
ASH,2017-04-01 19:25,-71.5148,42.7818,M,M,M,20.00,7.00,0.05,29.89,M,2.00,M,BKN,OVC,M,M,800.00,1300.00,M,M,-SN BR,KASH 011925Z AUTO 02007KT 2SM -SN BR BKN008 OVC013 A2989 RMK P0005 MADISHF
ASH,2017-04-01 19:30,-71.5148,42.7818,M,M,M,10.00,10.00,0.06,29.89,M,2.00,M,BKN,OVC,M,M,800.00,1300.00,M,M,-SN BR,KASH 011930Z AUTO 01010KT 2SM -SN BR BKN008 OVC013 A2989 RMK P0006 MADISHF
ASH,2017-04-01 19:35,-71.5148,42.7818,M,M,M,10.00,9.00,0.07,29.89,M,2.00,M,BKN,OVC,M,M,800.00,1300.00,M,M,-SN BR,KASH 011935Z AUTO 01009KT 2SM -SN BR BKN008 OVC013 A2989 RMK P0007 MADISHF
ASH,2017-04-01 19:40,-71.5148,42.7818,M,M,M,350.00,10.00,0.07,29.90,M,2.00,M,BKN,OVC,M,M,800.00,1300.00,M,M,-SN BR,KASH 011940Z AUTO 35010KT 2SM -SN BR BKN008 OVC013 A2990 RMK P0007 MADISHF
ASH,2017-04-01 19:45,-71.5148,42.7818,M,M,M,340.00,11.00,0.08,29.91,M,2.00,M,BKN,OVC,M,M,800.00,1300.00,M,M,-SN BR,KASH 011945Z AUTO 34011KT 2SM -SN BR BKN008 OVC013 A2991 RMK P0008 MADISHF
ASH,2017-04-01 19:50,-71.5148,42.7818,M,M,M,20.00,10.00,0.09,29.91,M,2.00,M,BKN,OVC,M,M,800.00,1300.00,M,M,-SN BR,KASH 011950Z AUTO 02010KT 2SM -SN BR BKN008 OVC013 A2991 RMK P0009 MADISHF
ASH,2017-04-01 19:55,-71.5148,42.7818,M,M,M,360.00,6.00,0.10,29.92,M,2.00,M,BKN,OVC,M,M,800.00,1300.00,M,M,-SN BR,KASH 011955Z AUTO 36006KT 2SM -SN BR BKN008 OVC013 A2992 RMK P0010 CIG 6V10  MADISHF
ASH,2017-04-01 19:56,-71.5148,42.7818,34.00,33.10,96.46,10.00,7.00,0.10,29.92,1014.20,2.00,M,BKN,OVC,M,M,800.00,1300.00,M,M,-SN BR,KASH 011956Z 01007KT 2SM -SN BR BKN008 OVC013 01/01 A2992 RMK AO2 RAB32E34 CIG 006V010 SLP142 P0010 T00110006
ASH,2017-04-01 20:00,-71.5148,42.7818,M,M,M,10.00,7.00,M,29.92,M,2.00,M,BKN,OVC,M,M,800.00,1300.00,M,M,-SN BR,KASH 012000Z AUTO 01007KT 2SM -SN BR BKN008 OVC013 A2992 RMK CIG 6V10  MADISHF
ASH,2017-04-01 20:03,-71.5148,42.7818,33.80,33.80,100.00,10.00,8.00,0.01,29.92,M,2.00,16.00,BKN,OVC,M,M,800.00,1300.00,M,M,-SN BR,KASH 012003Z 01008G16KT 2SM -SN BR BKN008 OVC013 01/01 A2992 RMK AO2 CIG 006V010 P0001
ASH,2017-04-01 20:05,-71.5148,42.7818,M,M,M,10.00,8.00,0.01,29.92,M,2.00,16.00,BKN,BKN,OVC,M,800.00,1300.00,1699.00,M,-SN BR,KASH 012005Z AUTO 01008G16KT 2SM -SN BR BKN008 BKN013 OVC016 A2992 RMK P0001 CIG 6V11  MADISHF
ASH,2017-04-01 20:10,-71.5148,42.7818,M,M,M,10.00,8.00,0.01,29.91,M,2.00,16.00,BKN,OVC,M,M,800.00,999.00,M,M,-SN BR,KASH 012010Z AUTO 01008G16KT 2SM -SN BR BKN008 OVC009 A2991 RMK P0001 MADISHF
ASH,2017-04-01 20:15,-71.5148,42.7818,M,M,M,10.00,8.00,0.02,29.91,M,2.00,16.00,BKN,OVC,M,M,800.00,999.00,M,M,-RA BR,KASH 012015Z AUTO 01008G16KT 2SM -RA BR BKN008 OVC009 A2991 RMK P0002 MADISHF
ASH,2017-04-01 20:20,-71.5148,42.7818,M,M,M,10.00,8.00,0.03,29.91,M,2.00,16.00,BKN,OVC,M,M,800.00,999.00,M,M,-RA BR,KASH 012020Z AUTO 01008G16KT 2SM -RA BR BKN008 OVC009 A2991 RMK P0003 MADISHF
ASH,2017-04-01 20:25,-71.5148,42.7818,M,M,M,10.00,8.00,0.04,29.91,M,2.00,16.00,BKN,OVC,M,M,800.00,999.00,M,M,-RA BR,KASH 012025Z AUTO 01008G16KT 2SM -RA BR BKN008 OVC009 A2991 RMK P0004 MADISHF
ASH,2017-04-01 20:30,-71.5148,42.7818,M,M,M,10.00,8.00,0.04,29.91,M,2.00,16.00,BKN,OVC,M,M,800.00,999.00,M,M,-RA BR,KASH 012030Z AUTO 01008G16KT 2SM -RA BR BKN008 OVC009 A2991 RMK P0004 WND 32V04  MADISHF
ASH,2017-04-01 20:35,-71.5148,42.7818,M,M,M,360.00,8.00,0.05,29.92,M,3.00,M,BKN,BKN,OVC,M,800.00,1300.00,4100.00,M,-RA BR,KASH 012035Z AUTO 36008KT 3SM -RA BR BKN008 BKN013 OVC041 A2992 RMK P0005 CIG 6V11  MADISHF
ASH,2017-04-01 20:38,-71.5148,42.7818,35.60,33.80,93.08,350.00,8.00,0.06,29.92,M,3.00,M,BKN,BKN,OVC,M,800.00,1300.00,4100.00,M,-RA BR,KASH 012038Z 35008KT 3SM -RA BR BKN008 BKN013 OVC041 02/01 A2992 RMK AO2 RAB13SNE13 CIG 006V011 P0006
ASH,2017-04-01 20:40,-71.5148,42.7818,M,M,M,360.00,6.00,0.06,29.92,M,3.00,M,BKN,BKN,OVC,M,800.00,1300.00,4300.00,M,-RA BR,KASH 012040Z AUTO 36006KT 3SM -RA BR BKN008 BKN013 OVC043 A2992 RMK P0006 CIG 6V10  MADISHF
ASH,2017-04-01 20:45,-71.5148,42.7818,M,M,M,360.00,7.00,0.07,29.93,M,3.00,M,BKN,OVC,M,M,800.00,1300.00,M,M,-SN BR,KASH 012045Z AUTO 36007KT 3SM -SN BR BKN008 OVC013 A2993 RMK P0007 CIG 6V10  MADISHF
ASH,2017-04-01 20:50,-71.5148,42.7818,M,M,M,360.00,9.00,0.07,29.93,M,3.00,M,OVC,M,M,M,999.00,M,M,M,-SN BR,KASH 012050Z AUTO 36009KT 3SM -SN BR OVC009 A2993 RMK P0007 CIG 6V13  MADISHF
ASH,2017-04-01 20:51,-71.5148,42.7818,33.80,33.80,100.00,350.00,8.00,0.08,29.94,M,3.00,M,BKN,BKN,OVC,M,800.00,1300.00,4100.00,M,-SN BR,KASH 012051Z 35008KT 3SM -SN BR BKN008 BKN013 OVC041 01/01 A2994 RMK AO2 RAB13E44SNE13B44 P0008
ASH,2017-04-01 20:55,-71.5148,42.7818,M,M,M,350.00,8.00,0.08,29.94,M,3.00,M,BKN,BKN,OVC,M,800.00,1300.00,4100.00,M,-SN BR,KASH 012055Z AUTO 35008KT 3SM -SN BR BKN008 BKN013 OVC041 A2994 RMK P0008 MADISHF
ASH,2017-04-01 20:56,-71.5148,42.7818,34.00,33.10,96.46,350.00,8.00,0.08,29.94,1015.00,3.00,M,BKN,BKN,OVC,M,800.00,1300.00,4100.00,M,-SN BR,KASH 012056Z 35008KT 3SM -SN BR BKN008 BKN013 OVC041 01/01 A2994 RMK AO2 RAB13E44SNE13B44 SLP150 P0008 60027 T00110006 51018
ASH,2017-04-01 21:00,-71.5148,42.7818,M,M,M,340.00,7.00,0.01,29.94,M,3.00,M,BKN,BKN,OVC,M,800.00,1300.00,4100.00,M,-SN BR,KASH 012100Z AUTO 34007KT 3SM -SN BR BKN008 BKN013 OVC041 A2994 RMK P0001 MADISHF
ASH,2017-04-01 21:05,-71.5148,42.7818,M,M,M,320.00,8.00,0.01,29.94,M,3.00,M,BKN,BKN,OVC,M,800.00,1300.00,4100.00,M,-SN BR,KASH 012105Z AUTO 32008KT 3SM -SN BR BKN008 BKN013 OVC041 A2994 RMK P0001 MADISHF
ASH,2017-04-01 21:10,-71.5148,42.7818,M,M,M,330.00,6.00,0.02,29.95,M,3.00,M,BKN,BKN,OVC,M,800.00,1300.00,4100.00,M,-SN BR,KASH 012110Z AUTO 33006KT 3SM -SN BR BKN008 BKN013 OVC041 A2995 RMK P0002 MADISHF
ASH,2017-04-01 21:15,-71.5148,42.7818,M,M,M,310.00,8.00,0.02,29.95,M,3.00,M,BKN,BKN,OVC,M,800.00,1300.00,4100.00,M,-SN BR,KASH 012115Z AUTO 31008KT 3SM -SN BR BKN008 BKN013 OVC041 A2995 RMK P0002 MADISHF
ASH,2017-04-01 21:20,-71.5148,42.7818,M,M,M,320.00,9.00,0.03,29.95,M,3.00,M,BKN,BKN,OVC,M,800.00,1300.00,4100.00,M,-SN BR,KASH 012120Z AUTO 32009KT 3SM -SN BR BKN008 BKN013 OVC041 A2995 RMK P0003 MADISHF
ASH,2017-04-01 21:25,-71.5148,42.7818,M,M,M,330.00,7.00,0.04,29.95,M,3.00,M,BKN,BKN,OVC,M,800.00,1300.00,4100.00,M,-SN BR,KASH 012125Z AUTO 33007KT 3SM -SN BR BKN008 BKN013 OVC041 A2995 RMK P0004 MADISHF
ASH,2017-04-01 21:35,-71.5148,42.7818,M,M,M,330.00,6.00,0.05,29.96,M,2.00,M,BKN,OVC,M,M,800.00,1400.00,M,M,-SN BR,KASH 012135Z AUTO 33006KT 2SM -SN BR BKN008 OVC014 A2996 RMK P0005 CIG 5V9  MADISHF
ASH,2017-04-01 21:39,-71.5148,42.7818,33.80,33.80,100.00,340.00,6.00,0.05,29.96,M,2.00,M,BKN,OVC,M,M,600.00,1400.00,M,M,-SN BR,KASH 012139Z 34006KT 2SM -SN BR BKN006 OVC014 01/01 A2996 RMK AO2 CIG 004V009 P0005
ASH,2017-04-01 21:40,-71.5148,42.7818,M,M,M,330.00,6.00,0.05,29.96,M,2.00,M,BKN,OVC,M,M,600.00,1699.00,M,M,-SN BR,KASH 012140Z AUTO 33006KT 2SM -SN BR BKN006 OVC016 A2996 RMK P0005 CIG 4V9  MADISHF
ASH,2017-04-01 21:45,-71.5148,42.7818,M,M,M,330.00,6.00,0.06,29.96,M,2.00,M,BKN,OVC,M,M,600.00,1699.00,M,M,-SN BR,KASH 012145Z AUTO 33006KT 2SM -SN BR BKN006 OVC016 A2996 RMK P0006 CIG 4V11  MADISHF
ASH,2017-04-01 21:50,-71.5148,42.7818,M,M,M,330.00,6.00,0.07,29.96,M,2.00,M,BKN,OVC,M,M,600.00,1200.00,M,M,-SN BR,KASH 012150Z AUTO 33006KT 2SM -SN BR BKN006 OVC012 A2996 RMK P0007 CIG 4V9  MADISHF
ASH,2017-04-01 21:55,-71.5148,42.7818,M,M,M,320.00,6.00,0.07,29.97,M,2.50,M,OVC,M,M,M,600.00,M,M,M,-SN BR,KASH 012155Z AUTO 32006KT 2 1/2SM -SN BR OVC006 A2997 RMK P0007 CIG 4V9  MADISHF
ASH,2017-04-01 21:56,-71.5148,42.7818,34.00,33.10,96.46,330.00,6.00,0.07,29.97,1016.00,2.50,M,OVC,M,M,M,600.00,M,M,M,-SN BR,KASH 012156Z 33006KT 2 1/2SM -SN BR OVC006 01/01 A2997 RMK AO2 RAB54E55 CIG 004V009 SLP160 P0007 T00110006
ASH,2017-04-01 22:00,-71.5148,42.7818,M,M,M,340.00,5.00,0.01,29.97,M,2.50,M,OVC,M,M,M,600.00,M,M,M,-SN BR,KASH 012200Z AUTO 34005KT 2 1/2SM -SN BR OVC006 A2997 RMK P0001 CIG 4V11  MADISHF
ASH,2017-04-01 22:10,-71.5148,42.7818,M,M,M,340.00,6.00,0.02,29.97,M,2.50,M,OVC,M,M,M,600.00,M,M,M,-SN BR,KASH 012210Z AUTO 34006KT 2 1/2SM -SN BR OVC006 A2997 RMK P0002 CIG 5V11  MADISHF
ASH,2017-04-01 22:15,-71.5148,42.7818,M,M,M,330.00,6.00,0.02,29.97,M,2.50,M,OVC,M,M,M,600.00,M,M,M,-SN BR,KASH 012215Z AUTO 33006KT 2 1/2SM -SN BR OVC006 A2997 RMK P0002 CIG 5V9  MADISHF
ASH,2017-04-01 22:20,-71.5148,42.7818,M,M,M,330.00,6.00,0.03,29.98,M,2.50,M,OVC,M,M,M,600.00,M,M,M,-SN BR,KASH 012220Z AUTO 33006KT 2 1/2SM -SN BR OVC006 A2998 RMK P0003 CIG 5V9  MADISHF
ASH,2017-04-01 22:25,-71.5148,42.7818,M,M,M,330.00,6.00,0.03,29.98,M,2.50,M,OVC,M,M,M,600.00,M,M,M,-SN BR,KASH 012225Z AUTO 33006KT 2 1/2SM -SN BR OVC006 A2998 RMK P0003 CIG 5V9  MADISHF
ASH,2017-04-01 22:30,-71.5148,42.7818,M,M,M,340.00,5.00,0.04,29.98,M,2.50,M,OVC,M,M,M,600.00,M,M,M,-SN BR,KASH 012230Z AUTO 34005KT 2 1/2SM -SN BR OVC006 A2998 RMK P0004 CIG 5V12  MADISHF
ASH,2017-04-01 22:35,-71.5148,42.7818,M,M,M,340.00,5.00,0.04,29.98,M,2.50,M,OVC,M,M,M,600.00,M,M,M,-SN BR,KASH 012235Z AUTO 34005KT 2 1/2SM -SN BR OVC006 A2998 RMK P0004 CIG 5V12  MADISHF
ASH,2017-04-01 22:40,-71.5148,42.7818,M,M,M,340.00,7.00,0.05,29.98,M,2.50,M,OVC,M,M,M,600.00,M,M,M,-SN BR,KASH 012240Z AUTO 34007KT 2 1/2SM -SN BR OVC006 A2998 RMK P0005 MADISHF
ASH,2017-04-01 22:45,-71.5148,42.7818,M,M,M,350.00,6.00,0.05,29.98,M,2.50,M,OVC,M,M,M,600.00,M,M,M,-SN BR,KASH 012245Z AUTO 35006KT 2 1/2SM -SN BR OVC006 A2998 RMK P0005 MADISHF
ASH,2017-04-01 22:50,-71.5148,42.7818,M,M,M,340.00,5.00,0.06,29.99,M,2.50,M,OVC,M,M,M,600.00,M,M,M,-SN BR,KASH 012250Z AUTO 34005KT 2 1/2SM -SN BR OVC006 A2999 RMK P0006 MADISHF
ASH,2017-04-01 22:55,-71.5148,42.7818,M,M,M,330.00,5.00,0.06,29.99,M,4.00,M,OVC,M,M,M,600.00,M,M,M,-SN BR,KASH 012255Z AUTO 33005KT 4SM -SN BR OVC006 A2999 RMK P0006 MADISHF
ASH,2017-04-01 22:56,-71.5148,42.7818,34.00,33.10,96.46,330.00,4.00,0.06,29.99,1016.60,4.00,M,OVC,M,M,M,600.00,M,M,M,-SN BR,KASH 012256Z 33004KT 4SM -SN BR OVC006 01/01 A2999 RMK AO2 SLP166 P0006 T00110006
ASH,2017-04-01 23:00,-71.5148,42.7818,M,M,M,340.00,5.00,0.01,29.99,M,4.00,M,OVC,M,M,M,600.00,M,M,M,-SN BR,KASH 012300Z AUTO 34005KT 4SM -SN BR OVC006 A2999 RMK P0001 MADISHF
ASH,2017-04-01 23:05,-71.5148,42.7818,M,M,M,330.00,4.00,0.01,29.99,M,4.00,M,OVC,M,M,M,600.00,M,M,M,-RA BR,KASH 012305Z AUTO 33004KT 4SM -RA BR OVC006 A2999 RMK P0001 CIG 6V10  MADISHF
ASH,2017-04-01 23:10,-71.5148,42.7818,M,M,M,330.00,5.00,0.01,29.99,M,4.00,M,BKN,OVC,M,M,600.00,6000.00,M,M,-RA BR,KASH 012310Z AUTO 33005KT 4SM -RA BR BKN006 OVC060 A2999 RMK P0001 CIG 6V12  MADISHF
ASH,2017-04-01 23:15,-71.5148,42.7818,M,M,M,340.00,5.00,0.02,29.99,M,4.00,M,BKN,BKN,OVC,M,800.00,3800.00,6000.00,M,-RA BR,KASH 012315Z AUTO 34005KT 4SM -RA BR BKN008 BKN038 OVC060 A2999 RMK P0002 CIG 6V12  MADISHF
ASH,2017-04-01 23:20,-71.5148,42.7818,M,M,M,330.00,5.00,0.02,29.99,M,4.00,M,BKN,BKN,OVC,M,800.00,3200.00,6000.00,M,-RA BR,KASH 012320Z AUTO 33005KT 4SM -RA BR BKN008 BKN032 OVC060 A2999 RMK P0002 CIG 6V12  MADISHF
ASH,2017-04-01 23:25,-71.5148,42.7818,M,M,M,330.00,4.00,0.02,29.99,M,4.00,M,BKN,BKN,OVC,M,800.00,2800.00,7500.00,M,UP BR,KASH 012325Z AUTO 33004KT 4SM UP BR BKN008 BKN028 OVC075 A2999 RMK P0002 CIG 6V18  MADISHF
ASH,2017-04-01 23:30,-71.5148,42.7818,M,M,M,320.00,4.00,0.02,29.99,M,4.00,M,BKN,BKN,OVC,M,800.00,3000.00,6000.00,M,BR,KASH 012330Z AUTO 32004KT 4SM BR BKN008 BKN030 OVC060 A2999 RMK P0002 CIG 7V18  MADISHF
ASH,2017-04-01 23:35,-71.5148,42.7818,M,M,M,330.00,5.00,0.03,29.99,M,4.00,M,BKN,BKN,OVC,M,800.00,3000.00,7500.00,M,BR,KASH 012335Z AUTO 33005KT 4SM BR BKN008 BKN030 OVC075 A2999 RMK P0003 CIG 6V18  MADISHF
ASH,2017-04-01 23:38,-71.5148,42.7818,33.80,33.80,100.00,330.00,5.00,0.03,29.99,M,4.00,M,SCT,BKN,OVC,M,1000.00,6000.00,7500.00,M,BR,KASH 012338Z 33005KT 4SM BR SCT010 BKN060 OVC075 01/01 A2999 RMK AO2 RAB03E24UPB24E28SNE03 P0003
ASH,2017-04-01 23:40,-71.5148,42.7818,M,M,M,330.00,5.00,0.03,29.99,M,5.00,M,SCT,SCT,OVC,M,999.00,2800.00,7500.00,M,BR,KASH 012340Z AUTO 33005KT 5SM BR SCT009 SCT028 OVC075 A2999 RMK P0003 MADISHF
ASH,2017-04-01 23:45,-71.5148,42.7818,M,M,M,330.00,4.00,0.04,29.99,M,5.00,M,SCT,BKN,OVC,M,999.00,2800.00,7500.00,M,BR,KASH 012345Z AUTO 33004KT 5SM BR SCT009 BKN028 OVC075 A2999 RMK P0004 MADISHF
ASH,2017-04-01 23:49,-71.5148,42.7818,33.80,33.80,100.00,330.00,5.00,0.04,29.99,M,5.00,M,SCT,BKN,OVC,M,1000.00,2800.00,7500.00,M,BR,KASH 012349Z 33005KT 5SM BR SCT010 BKN028 OVC075 01/01 A2999 RMK AO2 RAB03E24UPB24E28SNE03 P0004
ASH,2017-04-01 23:50,-71.5148,42.7818,M,M,M,330.00,5.00,0.04,29.99,M,5.00,M,SCT,BKN,OVC,M,999.00,2800.00,7500.00,M,BR,KASH 012350Z AUTO 33005KT 5SM BR SCT009 BKN028 OVC075 A2999 RMK P0004 MADISHF
ASH,2017-04-01 23:55,-71.5148,42.7818,M,M,M,330.00,5.00,0.04,29.99,M,5.00,M,SCT,BKN,OVC,M,999.00,2800.00,7500.00,M,BR,KASH 012355Z AUTO 33005KT 5SM BR SCT009 BKN028 OVC075 A2999 RMK P0004 MADISHF
ASH,2017-04-01 23:56,-71.5148,42.7818,34.00,33.10,96.46,330.00,4.00,0.04,29.99,1016.60,5.00,M,SCT,OVC,M,M,1000.00,7500.00,M,M,BR,KASH 012356Z 33004KT 5SM BR SCT010 OVC075 01/01 A2999 RMK AO2 RAB03E24UPB24E28SNE03 SLP166 P0004 60044 T00110006 10017 20011 51017
