#DEBUG: Format Typ    -> comma
#DEBUG: Time Period   -> 2017-04-01 00:00:00+00:00 2017-04-02 00:00:00+00:00
#DEBUG: Time Zone     -> Etc/UTC
#DEBUG: Data Contact   -> daryl herzmann akrherz@iastate.edu 515-294-5978
#DEBUG: Entries Found -> -1
station,valid,lon,lat,tmpf, dwpf, relh, drct, sknt, p01i, alti, mslp, vsby, gust, skyc1, skyc2, skyc3, skyc4, skyl1, skyl2, skyl3, skyl4, presentwx, metar
ATL,2017-04-01 00:00,-84.4418,33.6301,M,M,M,290.00,11.00,M,29.86,M,10.00,M,CLR,M,M,M,M,M,M,M,M,KATL 010000Z AUTO 29011KT 10SM CLR A2986 RMK MADISHF
ATL,2017-04-01 00:05,-84.4418,33.6301,M,M,M,320.00,12.00,M,29.86,M,10.00,M,CLR,M,M,M,M,M,M,M,M,KATL 010005Z AUTO 32012KT 10SM CLR A2986 RMK MADISHF
ATL,2017-04-01 00:10,-84.4418,33.6301,M,M,M,300.00,10.00,M,29.86,M,10.00,M,CLR,M,M,M,M,M,M,M,M,KATL 010010Z AUTO 30010KT 10SM CLR A2986 RMK MADISHF
ATL,2017-04-01 00:15,-84.4418,33.6301,M,M,M,300.00,8.00,M,29.86,M,10.00,M,CLR,M,M,M,M,M,M,M,M,KATL 010015Z AUTO 30008KT 10SM CLR A2986 RMK MADISHF
ATL,2017-04-01 00:20,-84.4418,33.6301,M,M,M,310.00,10.00,M,29.86,M,10.00,M,CLR,M,M,M,M,M,M,M,M,KATL 010020Z AUTO 31010KT 10SM CLR A2986 RMK MADISHF
ATL,2017-04-01 00:25,-84.4418,33.6301,M,M,M,300.00,10.00,M,29.86,M,10.00,M,CLR,M,M,M,M,M,M,M,M,KATL 010025Z AUTO 30010KT 10SM CLR A2986 RMK MADISHF
ATL,2017-04-01 00:30,-84.4418,33.6301,M,M,M,300.00,7.00,M,29.86,M,10.00,M,CLR,M,M,M,M,M,M,M,M,KATL 010030Z AUTO 30007KT 10SM CLR A2986 RMK MADISHF
ATL,2017-04-01 00:35,-84.4418,33.6301,M,M,M,310.00,8.00,M,29.87,M,10.00,M,CLR,M,M,M,M,M,M,M,M,KATL 010035Z AUTO 31008KT 10SM CLR A2987 RMK MADISHF
ATL,2017-04-01 00:40,-84.4418,33.6301,M,M,M,300.00,10.00,M,29.87,M,10.00,M,CLR,M,M,M,M,M,M,M,M,KATL 010040Z AUTO 30010KT 10SM CLR A2987 RMK MADISHF
ATL,2017-04-01 00:45,-84.4418,33.6301,M,M,M,310.00,8.00,M,29.87,M,10.00,M,CLR,M,M,M,M,M,M,M,M,KATL 010045Z AUTO 31008KT 10SM CLR A2987 RMK MADISHF
ATL,2017-04-01 00:50,-84.4418,33.6301,M,M,M,310.00,9.00,M,29.87,M,10.00,M,CLR,M,M,M,M,M,M,M,M,KATL 010050Z AUTO 31009KT 10SM CLR A2987 RMK MADISHF
ATL,2017-04-01 00:52,-84.4418,33.6301,64.90,45.00,48.44,310.00,10.00,0.00,29.87,1011.20,10.00,M,CLR,M,M,M,M,M,M,M,M,KATL 010052Z 31010KT 10SM CLR 18/07 A2987 RMK AO2 SLP112 T01830072
ATL,2017-04-01 00:55,-84.4418,33.6301,M,M,M,310.00,9.00,M,29.88,M,10.00,M,CLR,M,M,M,M,M,M,M,M,KATL 010055Z AUTO 31009KT 10SM CLR A2988 RMK MADISHF
ATL,2017-04-01 01:00,-84.4418,33.6301,M,M,M,310.00,9.00,M,29.88,M,10.00,M,CLR,M,M,M,M,M,M,M,M,KATL 010100Z AUTO 31009KT 10SM CLR A2988 RMK MADISHF
ATL,2017-04-01 01:05,-84.4418,33.6301,M,M,M,310.00,8.00,M,29.88,M,10.00,M,CLR,M,M,M,M,M,M,M,M,KATL 010105Z AUTO 31008KT 10SM CLR A2988 RMK MADISHF
ATL,2017-04-01 01:10,-84.4418,33.6301,M,M,M,310.00,8.00,M,29.88,M,10.00,M,CLR,M,M,M,M,M,M,M,M,KATL 010110Z AUTO 31008KT 10SM CLR A2988 RMK MADISHF
ATL,2017-04-01 01:15,-84.4418,33.6301,M,M,M,310.00,7.00,M,29.89,M,10.00,M,CLR,M,M,M,M,M,M,M,M,KATL 010115Z AUTO 31007KT 10SM CLR A2989 RMK MADISHF
ATL,2017-04-01 01:20,-84.4418,33.6301,M,M,M,320.00,7.00,M,29.89,M,10.00,M,CLR,M,M,M,M,M,M,M,M,KATL 010120Z AUTO 32007KT 10SM CLR A2989 RMK MADISHF
ATL,2017-04-01 01:25,-84.4418,33.6301,M,M,M,320.00,7.00,M,29.89,M,10.00,M,CLR,M,M,M,M,M,M,M,M,KATL 010125Z AUTO 32007KT 10SM CLR A2989 RMK MADISHF
ATL,2017-04-01 01:30,-84.4418,33.6301,M,M,M,320.00,8.00,M,29.90,M,10.00,M,CLR,M,M,M,M,M,M,M,M,KATL 010130Z AUTO 32008KT 10SM CLR A2990 RMK MADISHF
ATL,2017-04-01 01:35,-84.4418,33.6301,M,M,M,320.00,8.00,M,29.90,M,10.00,M,CLR,M,M,M,M,M,M,M,M,KATL 010135Z AUTO 32008KT 10SM CLR A2990 RMK MADISHF
ATL,2017-04-01 01:40,-84.4418,33.6301,M,M,M,320.00,8.00,M,29.90,M,10.00,M,CLR,M,M,M,M,M,M,M,M,KATL 010140Z AUTO 32008KT 10SM CLR A2990 RMK MADISHF
ATL,2017-04-01 01:45,-84.4418,33.6301,M,M,M,330.00,8.00,M,29.90,M,10.00,M,CLR,M,M,M,M,M,M,M,M,KATL 010145Z AUTO 33008KT 10SM CLR A2990 RMK MADISHF
ATL,2017-04-01 01:50,-84.4418,33.6301,M,M,M,330.00,7.00,M,29.90,M,10.00,M,CLR,M,M,M,M,M,M,M,M,KATL 010150Z AUTO 33007KT 10SM CLR A2990 RMK MADISHF
ATL,2017-04-01 01:52,-84.4418,33.6301,63.00,46.00,53.78,320.00,8.00,0.00,29.90,1012.20,10.00,M,CLR,M,M,M,M,M,M,M,M,KATL 010152Z 32008KT 10SM CLR 17/08 A2990 RMK AO2 SLP122 T01720078
ATL,2017-04-01 01:55,-84.4418,33.6301,M,M,M,320.00,7.00,M,29.91,M,10.00,M,CLR,M,M,M,M,M,M,M,M,KATL 010155Z AUTO 32007KT 10SM CLR A2991 RMK MADISHF
ATL,2017-04-01 02:00,-84.4418,33.6301,M,M,M,320.00,7.00,M,29.91,M,10.00,M,CLR,M,M,M,M,M,M,M,M,KATL 010200Z AUTO 32007KT 10SM CLR A2991 RMK MADISHF
ATL,2017-04-01 02:05,-84.4418,33.6301,M,M,M,320.00,8.00,M,29.91,M,10.00,M,CLR,M,M,M,M,M,M,M,M,KATL 010205Z AUTO 32008KT 10SM CLR A2991 RMK MADISHF
ATL,2017-04-01 02:10,-84.4418,33.6301,M,M,M,310.00,8.00,M,29.91,M,10.00,M,CLR,M,M,M,M,M,M,M,M,KATL 010210Z AUTO 31008KT 10SM CLR A2991 RMK MADISHF
ATL,2017-04-01 02:15,-84.4418,33.6301,M,M,M,320.00,10.00,M,29.91,M,10.00,M,CLR,M,M,M,M,M,M,M,M,KATL 010215Z AUTO 32010KT 10SM CLR A2991 RMK MADISHF
ATL,2017-04-01 02:20,-84.4418,33.6301,M,M,M,320.00,8.00,M,29.91,M,10.00,M,CLR,M,M,M,M,M,M,M,M,KATL 010220Z AUTO 32008KT 10SM CLR A2991 RMK MADISHF
ATL,2017-04-01 02:25,-84.4418,33.6301,M,M,M,320.00,8.00,M,29.91,M,10.00,M,CLR,M,M,M,M,M,M,M,M,KATL 010225Z AUTO 32008KT 10SM CLR A2991 RMK MADISHF
ATL,2017-04-01 02:30,-84.4418,33.6301,M,M,M,310.00,7.00,M,29.91,M,10.00,M,CLR,M,M,M,M,M,M,M,M,KATL 010230Z AUTO 31007KT 10SM CLR A2991 RMK MADISHF
ATL,2017-04-01 02:35,-84.4418,33.6301,M,M,M,320.00,7.00,M,29.92,M,10.00,M,CLR,M,M,M,M,M,M,M,M,KATL 010235Z AUTO 32007KT 10SM CLR A2992 RMK MADISHF
ATL,2017-04-01 02:40,-84.4418,33.6301,M,M,M,310.00,8.00,M,29.92,M,10.00,M,CLR,M,M,M,M,M,M,M,M,KATL 010240Z AUTO 31008KT 10SM CLR A2992 RMK MADISHF
ATL,2017-04-01 02:45,-84.4418,33.6301,M,M,M,320.00,8.00,M,29.92,M,10.00,M,CLR,M,M,M,M,M,M,M,M,KATL 010245Z AUTO 32008KT 10SM CLR A2992 RMK MADISHF
ATL,2017-04-01 02:50,-84.4418,33.6301,M,M,M,310.00,8.00,M,29.92,M,10.00,M,CLR,M,M,M,M,M,M,M,M,KATL 010250Z AUTO 31008KT 10SM CLR A2992 RMK MADISHF
ATL,2017-04-01 02:52,-84.4418,33.6301,62.10,46.00,55.51,310.00,7.00,0.00,29.92,1012.70,10.00,M,CLR,M,M,M,M,M,M,M,M,KATL 010252Z 31007KT 10SM CLR 17/08 A2992 RMK AO2 SLP127 T01670078 51022
ATL,2017-04-01 02:55,-84.4418,33.6301,M,M,M,310.00,7.00,M,29.92,M,10.00,M,CLR,M,M,M,M,M,M,M,M,KATL 010255Z AUTO 31007KT 10SM CLR A2992 RMK MADISHF
ATL,2017-04-01 03:00,-84.4418,33.6301,M,M,M,310.00,7.00,M,29.92,M,10.00,M,CLR,M,M,M,M,M,M,M,M,KATL 010300Z AUTO 31007KT 10SM CLR A2992 RMK MADISHF
ATL,2017-04-01 03:05,-84.4418,33.6301,M,M,M,310.00,6.00,M,29.92,M,10.00,M,CLR,M,M,M,M,M,M,M,M,KATL 010305Z AUTO 31006KT 10SM CLR A2992 RMK MADISHF
ATL,2017-04-01 03:10,-84.4418,33.6301,M,M,M,300.00,5.00,M,29.92,M,10.00,M,CLR,M,M,M,M,M,M,M,M,KATL 010310Z AUTO 30005KT 10SM CLR A2992 RMK MADISHF
ATL,2017-04-01 03:15,-84.4418,33.6301,M,M,M,290.00,5.00,M,29.93,M,10.00,M,CLR,M,M,M,M,M,M,M,M,KATL 010315Z AUTO 29005KT 10SM CLR A2993 RMK MADISHF
ATL,2017-04-01 03:20,-84.4418,33.6301,M,M,M,300.00,4.00,M,29.93,M,10.00,M,CLR,M,M,M,M,M,M,M,M,KATL 010320Z AUTO 30004KT 10SM CLR A2993 RMK MADISHF
ATL,2017-04-01 03:25,-84.4418,33.6301,M,M,M,300.00,4.00,M,29.93,M,10.00,M,CLR,M,M,M,M,M,M,M,M,KATL 010325Z AUTO 30004KT 10SM CLR A2993 RMK MADISHF
ATL,2017-04-01 03:30,-84.4418,33.6301,M,M,M,300.00,6.00,M,29.93,M,10.00,M,CLR,M,M,M,M,M,M,M,M,KATL 010330Z AUTO 30006KT 10SM CLR A2993 RMK MADISHF
ATL,2017-04-01 03:35,-84.4418,33.6301,M,M,M,310.00,6.00,M,29.93,M,10.00,M,CLR,M,M,M,M,M,M,M,M,KATL 010335Z AUTO 31006KT 10SM CLR A2993 RMK MADISHF
ATL,2017-04-01 03:40,-84.4418,33.6301,M,M,M,310.00,5.00,M,29.93,M,10.00,M,CLR,M,M,M,M,M,M,M,M,KATL 010340Z AUTO 31005KT 10SM CLR A2993 RMK MADISHF
ATL,2017-04-01 03:45,-84.4418,33.6301,M,M,M,310.00,5.00,M,29.93,M,10.00,M,CLR,M,M,M,M,M,M,M,M,KATL 010345Z AUTO 31005KT 10SM CLR A2993 RMK MADISHF
ATL,2017-04-01 03:50,-84.4418,33.6301,M,M,M,300.00,6.00,M,29.93,M,10.00,M,CLR,M,M,M,M,M,M,M,M,KATL 010350Z AUTO 30006KT 10SM CLR A2993 RMK MADISHF
ATL,2017-04-01 03:52,-84.4418,33.6301,60.10,46.00,59.59,290.00,5.00,0.00,29.94,1013.20,10.00,M,CLR,M,M,M,M,M,M,M,M,KATL 010352Z 29005KT 10SM CLR 16/08 A2994 RMK AO2 SLP132 T01560078
ATL,2017-04-01 03:55,-84.4418,33.6301,M,M,M,280.00,4.00,M,29.94,M,10.00,M,CLR,M,M,M,M,M,M,M,M,KATL 010355Z AUTO 28004KT 10SM CLR A2994 RMK MADISHF
ATL,2017-04-01 04:00,-84.4418,33.6301,M,M,M,270.00,4.00,M,29.94,M,10.00,M,CLR,M,M,M,M,M,M,M,M,KATL 010400Z AUTO 27004KT 10SM CLR A2994 RMK MADISHF
ATL,2017-04-01 04:05,-84.4418,33.6301,M,M,M,0.00,0.00,M,29.94,M,10.00,M,CLR,M,M,M,M,M,M,M,M,KATL 010405Z AUTO 00000KT 10SM CLR A2994 RMK MADISHF
ATL,2017-04-01 04:10,-84.4418,33.6301,M,M,M,270.00,3.00,M,29.94,M,10.00,M,CLR,M,M,M,M,M,M,M,M,KATL 010410Z AUTO 27003KT 10SM CLR A2994 RMK MADISHF
ATL,2017-04-01 04:15,-84.4418,33.6301,M,M,M,260.00,3.00,M,29.94,M,10.00,M,CLR,M,M,M,M,M,M,M,M,KATL 010415Z AUTO 26003KT 10SM CLR A2994 RMK MADISHF
ATL,2017-04-01 04:20,-84.4418,33.6301,M,M,M,270.00,4.00,M,29.94,M,10.00,M,CLR,M,M,M,M,M,M,M,M,KATL 010420Z AUTO 27004KT 10SM CLR A2994 RMK MADISHF
ATL,2017-04-01 04:25,-84.4418,33.6301,M,M,M,270.00,5.00,M,29.94,M,10.00,M,CLR,M,M,M,M,M,M,M,M,KATL 010425Z AUTO 27005KT 10SM CLR A2994 RMK MADISHF
ATL,2017-04-01 04:30,-84.4418,33.6301,M,M,M,280.00,5.00,M,29.95,M,10.00,M,CLR,M,M,M,M,M,M,M,M,KATL 010430Z AUTO 28005KT 10SM CLR A2995 RMK MADISHF
ATL,2017-04-01 04:35,-84.4418,33.6301,M,M,M,280.00,5.00,M,29.95,M,10.00,M,CLR,M,M,M,M,M,M,M,M,KATL 010435Z AUTO 28005KT 10SM CLR A2995 RMK MADISHF
ATL,2017-04-01 04:40,-84.4418,33.6301,M,M,M,280.00,4.00,M,29.95,M,10.00,M,CLR,M,M,M,M,M,M,M,M,KATL 010440Z AUTO 28004KT 10SM CLR A2995 RMK MADISHF
ATL,2017-04-01 04:45,-84.4418,33.6301,M,M,M,280.00,4.00,M,29.95,M,10.00,M,CLR,M,M,M,M,M,M,M,M,KATL 010445Z AUTO 28004KT 10SM CLR A2995 RMK MADISHF
ATL,2017-04-01 04:50,-84.4418,33.6301,M,M,M,280.00,4.00,M,29.95,M,10.00,M,CLR,M,M,M,M,M,M,M,M,KATL 010450Z AUTO 28004KT 10SM CLR A2995 RMK MADISHF
ATL,2017-04-01 04:52,-84.4418,33.6301,59.00,46.00,61.98,280.00,4.00,0.00,29.95,1013.70,10.00,M,CLR,M,M,M,M,M,M,M,M,KATL 010452Z 28004KT 10SM CLR 15/08 A2995 RMK AO2 SLP137 T01500078 402280144
ATL,2017-04-01 04:55,-84.4418,33.6301,M,M,M,270.00,4.00,M,29.95,M,10.00,M,CLR,M,M,M,M,M,M,M,M,KATL 010455Z AUTO 27004KT 10SM CLR A2995 RMK MADISHF
ATL,2017-04-01 05:00,-84.4418,33.6301,M,M,M,270.00,4.00,M,29.95,M,10.00,M,CLR,M,M,M,M,M,M,M,M,KATL 010500Z AUTO 27004KT 10SM CLR A2995 RMK MADISHF
ATL,2017-04-01 05:05,-84.4418,33.6301,M,M,M,280.00,4.00,M,29.95,M,10.00,M,CLR,M,M,M,M,M,M,M,M,KATL 010505Z AUTO 28004KT 10SM CLR A2995 RMK MADISHF
ATL,2017-04-01 05:10,-84.4418,33.6301,M,M,M,290.00,4.00,M,29.95,M,10.00,M,CLR,M,M,M,M,M,M,M,M,KATL 010510Z AUTO 29004KT 10SM CLR A2995 RMK MADISHF
ATL,2017-04-01 05:15,-84.4418,33.6301,M,M,M,280.00,4.00,M,29.95,M,10.00,M,CLR,M,M,M,M,M,M,M,M,KATL 010515Z AUTO 28004KT 10SM CLR A2995 RMK MADISHF
ATL,2017-04-01 05:20,-84.4418,33.6301,M,M,M,290.00,5.00,M,29.95,M,10.00,M,CLR,M,M,M,M,M,M,M,M,KATL 010520Z AUTO 29005KT 10SM CLR A2995 RMK MADISHF
ATL,2017-04-01 05:25,-84.4418,33.6301,M,M,M,290.00,5.00,M,29.95,M,10.00,M,CLR,M,M,M,M,M,M,M,M,KATL 010525Z AUTO 29005KT 10SM CLR A2995 RMK MADISHF
ATL,2017-04-01 05:30,-84.4418,33.6301,M,M,M,290.00,6.00,M,29.95,M,10.00,M,CLR,M,M,M,M,M,M,M,M,KATL 010530Z AUTO 29006KT 10SM CLR A2995 RMK MADISHF
ATL,2017-04-01 05:35,-84.4418,33.6301,M,M,M,290.00,6.00,M,29.95,M,10.00,M,CLR,M,M,M,M,M,M,M,M,KATL 010535Z AUTO 29006KT 10SM CLR A2995 RMK MADISHF
ATL,2017-04-01 05:40,-84.4418,33.6301,M,M,M,290.00,5.00,M,29.95,M,10.00,M,CLR,M,M,M,M,M,M,M,M,KATL 010540Z AUTO 29005KT 10SM CLR A2995 RMK MADISHF
ATL,2017-04-01 05:45,-84.4418,33.6301,M,M,M,290.00,5.00,M,29.95,M,10.00,M,CLR,M,M,M,M,M,M,M,M,KATL 010545Z AUTO 29005KT 10SM CLR A2995 RMK MADISHF
ATL,2017-04-01 05:50,-84.4418,33.6301,M,M,M,300.00,5.00,M,29.95,M,10.00,M,CLR,M,M,M,M,M,M,M,M,KATL 010550Z AUTO 30005KT 10SM CLR A2995 RMK MADISHF
ATL,2017-04-01 05:52,-84.4418,33.6301,55.90,46.00,69.30,290.00,5.00,0.00,29.95,1013.70,10.00,M,CLR,M,M,M,M,M,M,M,M,KATL 010552Z 29005KT 10SM CLR 13/08 A2995 RMK AO2 SLP137 T01330078 10200 20133 50010
ATL,2017-04-01 05:55,-84.4418,33.6301,M,M,M,300.00,5.00,M,29.95,M,10.00,M,CLR,M,M,M,M,M,M,M,M,KATL 010555Z AUTO 30005KT 10SM CLR A2995 RMK MADISHF
ATL,2017-04-01 06:00,-84.4418,33.6301,M,M,M,300.00,5.00,M,29.95,M,10.00,M,CLR,M,M,M,M,M,M,M,M,KATL 010600Z AUTO 30005KT 10SM CLR A2995 RMK MADISHF
ATL,2017-04-01 06:05,-84.4418,33.6301,M,M,M,300.00,5.00,M,29.95,M,10.00,M,CLR,M,M,M,M,M,M,M,M,KATL 010605Z AUTO 30005KT 10SM CLR A2995 RMK MADISHF
ATL,2017-04-01 06:10,-84.4418,33.6301,M,M,M,290.00,5.00,M,29.95,M,10.00,M,CLR,M,M,M,M,M,M,M,M,KATL 010610Z AUTO 29005KT 10SM CLR A2995 RMK MADISHF
ATL,2017-04-01 06:15,-84.4418,33.6301,M,M,M,290.00,4.00,M,29.95,M,10.00,M,CLR,M,M,M,M,M,M,M,M,KATL 010615Z AUTO 29004KT 10SM CLR A2995 RMK MADISHF
ATL,2017-04-01 06:20,-84.4418,33.6301,M,M,M,290.00,5.00,M,29.95,M,10.00,M,CLR,M,M,M,M,M,M,M,M,KATL 010620Z AUTO 29005KT 10SM CLR A2995 RMK MADISHF
ATL,2017-04-01 06:25,-84.4418,33.6301,M,M,M,290.00,5.00,M,29.95,M,10.00,M,CLR,M,M,M,M,M,M,M,M,KATL 010625Z AUTO 29005KT 10SM CLR A2995 RMK MADISHF
ATL,2017-04-01 06:30,-84.4418,33.6301,M,M,M,290.00,4.00,M,29.95,M,10.00,M,CLR,M,M,M,M,M,M,M,M,KATL 010630Z AUTO 29004KT 10SM CLR A2995 RMK MADISHF
ATL,2017-04-01 06:35,-84.4418,33.6301,M,M,M,290.00,3.00,M,29.95,M,10.00,M,CLR,M,M,M,M,M,M,M,M,KATL 010635Z AUTO 29003KT 10SM CLR A2995 RMK MADISHF
ATL,2017-04-01 06:40,-84.4418,33.6301,M,M,M,290.00,4.00,M,29.95,M,10.00,M,CLR,M,M,M,M,M,M,M,M,KATL 010640Z AUTO 29004KT 10SM CLR A2995 RMK MADISHF
ATL,2017-04-01 06:45,-84.4418,33.6301,M,M,M,290.00,4.00,M,29.95,M,10.00,M,CLR,M,M,M,M,M,M,M,M,KATL 010645Z AUTO 29004KT 10SM CLR A2995 RMK MADISHF
ATL,2017-04-01 06:50,-84.4418,33.6301,M,M,M,280.00,4.00,M,29.96,M,10.00,M,CLR,M,M,M,M,M,M,M,M,KATL 010650Z AUTO 28004KT 10SM CLR A2996 RMK MADISHF
ATL,2017-04-01 06:52,-84.4418,33.6301,55.90,46.00,69.30,280.00,4.00,0.00,29.96,1014.00,10.00,M,CLR,M,M,M,M,M,M,M,M,KATL 010652Z 28004KT 10SM CLR 13/08 A2996 RMK AO2 SLP140 T01330078
ATL,2017-04-01 06:55,-84.4418,33.6301,M,M,M,280.00,4.00,M,29.96,M,10.00,M,CLR,M,M,M,M,M,M,M,M,KATL 010655Z AUTO 28004KT 10SM CLR A2996 RMK MADISHF
ATL,2017-04-01 07:00,-84.4418,33.6301,M,M,M,290.00,4.00,M,29.96,M,10.00,M,CLR,M,M,M,M,M,M,M,M,KATL 010700Z AUTO 29004KT 10SM CLR A2996 RMK MADISHF
ATL,2017-04-01 07:05,-84.4418,33.6301,M,M,M,300.00,4.00,M,29.96,M,10.00,M,CLR,M,M,M,M,M,M,M,M,KATL 010705Z AUTO 30004KT 10SM CLR A2996 RMK MADISHF
ATL,2017-04-01 07:10,-84.4418,33.6301,M,M,M,300.00,5.00,M,29.96,M,10.00,M,CLR,M,M,M,M,M,M,M,M,KATL 010710Z AUTO 30005KT 10SM CLR A2996 RMK MADISHF
ATL,2017-04-01 07:15,-84.4418,33.6301,M,M,M,310.00,4.00,M,29.96,M,10.00,M,CLR,M,M,M,M,M,M,M,M,KATL 010715Z AUTO 31004KT 10SM CLR A2996 RMK MADISHF
ATL,2017-04-01 07:20,-84.4418,33.6301,M,M,M,310.00,5.00,M,29.96,M,10.00,M,CLR,M,M,M,M,M,M,M,M,KATL 010720Z AUTO 31005KT 10SM CLR A2996 RMK MADISHF
ATL,2017-04-01 07:25,-84.4418,33.6301,M,M,M,320.00,6.00,M,29.96,M,10.00,M,CLR,M,M,M,M,M,M,M,M,KATL 010725Z AUTO 32006KT 10SM CLR A2996 RMK MADISHF
ATL,2017-04-01 07:30,-84.4418,33.6301,M,M,M,320.00,6.00,M,29.96,M,10.00,M,CLR,M,M,M,M,M,M,M,M,KATL 010730Z AUTO 32006KT 10SM CLR A2996 RMK MADISHF
ATL,2017-04-01 07:35,-84.4418,33.6301,M,M,M,320.00,7.00,M,29.96,M,10.00,M,CLR,M,M,M,M,M,M,M,M,KATL 010735Z AUTO 32007KT 10SM CLR A2996 RMK MADISHF
ATL,2017-04-01 07:40,-84.4418,33.6301,M,M,M,320.00,7.00,M,29.96,M,10.00,M,CLR,M,M,M,M,M,M,M,M,KATL 010740Z AUTO 32007KT 10SM CLR A2996 RMK MADISHF
ATL,2017-04-01 07:45,-84.4418,33.6301,M,M,M,310.00,7.00,M,29.96,M,10.00,M,CLR,M,M,M,M,M,M,M,M,KATL 010745Z AUTO 31007KT 10SM CLR A2996 RMK MADISHF
ATL,2017-04-01 07:50,-84.4418,33.6301,M,M,M,310.00,7.00,M,29.96,M,10.00,M,CLR,M,M,M,M,M,M,M,M,KATL 010750Z AUTO 31007KT 10SM CLR A2996 RMK MADISHF
ATL,2017-04-01 07:52,-84.4418,33.6301,54.00,46.90,76.83,310.00,7.00,0.00,29.96,1014.10,10.00,M,CLR,M,M,M,M,M,M,M,M,KATL 010752Z 31007KT 10SM CLR 12/08 A2996 RMK AO2 SLP141 T01220083
ATL,2017-04-01 07:55,-84.4418,33.6301,M,M,M,310.00,7.00,M,29.96,M,10.00,M,CLR,M,M,M,M,M,M,M,M,KATL 010755Z AUTO 31007KT 10SM CLR A2996 RMK MADISHF
ATL,2017-04-01 08:00,-84.4418,33.6301,M,M,M,310.00,7.00,M,29.97,M,10.00,M,CLR,M,M,M,M,M,M,M,M,KATL 010800Z AUTO 31007KT 10SM CLR A2997 RMK MADISHF
ATL,2017-04-01 08:05,-84.4418,33.6301,M,M,M,310.00,7.00,M,29.97,M,10.00,M,CLR,M,M,M,M,M,M,M,M,KATL 010805Z AUTO 31007KT 10SM CLR A2997 RMK MADISHF
ATL,2017-04-01 08:10,-84.4418,33.6301,M,M,M,320.00,7.00,M,29.97,M,10.00,M,CLR,M,M,M,M,M,M,M,M,KATL 010810Z AUTO 32007KT 10SM CLR A2997 RMK MADISHF
ATL,2017-04-01 08:15,-84.4418,33.6301,M,M,M,310.00,7.00,M,29.97,M,10.00,M,CLR,M,M,M,M,M,M,M,M,KATL 010815Z AUTO 31007KT 10SM CLR A2997 RMK MADISHF
ATL,2017-04-01 08:20,-84.4418,33.6301,M,M,M,320.00,8.00,M,29.97,M,10.00,M,CLR,M,M,M,M,M,M,M,M,KATL 010820Z AUTO 32008KT 10SM CLR A2997 RMK MADISHF
ATL,2017-04-01 08:25,-84.4418,33.6301,M,M,M,320.00,8.00,M,29.97,M,10.00,M,CLR,M,M,M,M,M,M,M,M,KATL 010825Z AUTO 32008KT 10SM CLR A2997 RMK MADISHF
ATL,2017-04-01 08:30,-84.4418,33.6301,M,M,M,320.00,8.00,M,29.97,M,10.00,M,CLR,M,M,M,M,M,M,M,M,KATL 010830Z AUTO 32008KT 10SM CLR A2997 RMK MADISHF
ATL,2017-04-01 08:35,-84.4418,33.6301,M,M,M,320.00,8.00,M,29.97,M,10.00,M,CLR,M,M,M,M,M,M,M,M,KATL 010835Z AUTO 32008KT 10SM CLR A2997 RMK MADISHF
ATL,2017-04-01 08:40,-84.4418,33.6301,M,M,M,320.00,8.00,M,29.97,M,10.00,M,CLR,M,M,M,M,M,M,M,M,KATL 010840Z AUTO 32008KT 10SM CLR A2997 RMK MADISHF
ATL,2017-04-01 08:45,-84.4418,33.6301,M,M,M,320.00,8.00,M,29.97,M,10.00,M,CLR,M,M,M,M,M,M,M,M,KATL 010845Z AUTO 32008KT 10SM CLR A2997 RMK MADISHF
ATL,2017-04-01 08:50,-84.4418,33.6301,M,M,M,320.00,7.00,M,29.97,M,10.00,M,CLR,M,M,M,M,M,M,M,M,KATL 010850Z AUTO 32007KT 10SM CLR A2997 RMK MADISHF
ATL,2017-04-01 08:52,-84.4418,33.6301,54.00,46.90,76.83,320.00,7.00,0.00,29.97,1014.50,10.00,M,CLR,M,M,M,M,M,M,M,M,KATL 010852Z 32007KT 10SM CLR 12/08 A2997 RMK AO2 SLP145 T01220083 53008
ATL,2017-04-01 08:55,-84.4418,33.6301,M,M,M,310.00,7.00,M,29.97,M,10.00,M,CLR,M,M,M,M,M,M,M,M,KATL 010855Z AUTO 31007KT 10SM CLR A2997 RMK MADISHF
ATL,2017-04-01 09:00,-84.4418,33.6301,M,M,M,310.00,7.00,M,29.98,M,10.00,M,CLR,M,M,M,M,M,M,M,M,KATL 010900Z AUTO 31007KT 10SM CLR A2998 RMK MADISHF
ATL,2017-04-01 09:05,-84.4418,33.6301,M,M,M,310.00,7.00,M,29.98,M,10.00,M,CLR,M,M,M,M,M,M,M,M,KATL 010905Z AUTO 31007KT 10SM CLR A2998 RMK MADISHF
ATL,2017-04-01 09:10,-84.4418,33.6301,M,M,M,320.00,7.00,M,29.98,M,10.00,M,CLR,M,M,M,M,M,M,M,M,KATL 010910Z AUTO 32007KT 10SM CLR A2998 RMK MADISHF
ATL,2017-04-01 09:15,-84.4418,33.6301,M,M,M,320.00,7.00,M,29.98,M,10.00,M,CLR,M,M,M,M,M,M,M,M,KATL 010915Z AUTO 32007KT 10SM CLR A2998 RMK MADISHF
ATL,2017-04-01 09:20,-84.4418,33.6301,M,M,M,320.00,7.00,M,29.98,M,10.00,M,CLR,M,M,M,M,M,M,M,M,KATL 010920Z AUTO 32007KT 10SM CLR A2998 RMK MADISHF
ATL,2017-04-01 09:25,-84.4418,33.6301,M,M,M,320.00,7.00,M,29.98,M,10.00,M,CLR,M,M,M,M,M,M,M,M,KATL 010925Z AUTO 32007KT 10SM CLR A2998 RMK MADISHF
ATL,2017-04-01 09:30,-84.4418,33.6301,M,M,M,330.00,7.00,M,29.98,M,10.00,M,CLR,M,M,M,M,M,M,M,M,KATL 010930Z AUTO 33007KT 10SM CLR A2998 RMK MADISHF
ATL,2017-04-01 09:35,-84.4418,33.6301,M,M,M,320.00,8.00,M,29.98,M,10.00,M,CLR,M,M,M,M,M,M,M,M,KATL 010935Z AUTO 32008KT 10SM CLR A2998 RMK MADISHF
ATL,2017-04-01 09:40,-84.4418,33.6301,M,M,M,330.00,7.00,M,29.98,M,10.00,M,CLR,M,M,M,M,M,M,M,M,KATL 010940Z AUTO 33007KT 10SM CLR A2998 RMK MADISHF
ATL,2017-04-01 09:45,-84.4418,33.6301,M,M,M,330.00,8.00,M,29.98,M,10.00,M,CLR,M,M,M,M,M,M,M,M,KATL 010945Z AUTO 33008KT 10SM CLR A2998 RMK MADISHF
ATL,2017-04-01 09:50,-84.4418,33.6301,M,M,M,330.00,8.00,M,29.98,M,10.00,M,CLR,M,M,M,M,M,M,M,M,KATL 010950Z AUTO 33008KT 10SM CLR A2998 RMK MADISHF
ATL,2017-04-01 09:52,-84.4418,33.6301,54.00,46.90,76.83,330.00,8.00,0.00,29.98,1014.70,10.00,M,CLR,M,M,M,M,M,M,M,M,KATL 010952Z 33008KT 10SM CLR 12/08 A2998 RMK AO2 SLP147 T01220083
ATL,2017-04-01 09:55,-84.4418,33.6301,M,M,M,330.00,8.00,M,29.98,M,10.00,M,CLR,M,M,M,M,M,M,M,M,KATL 010955Z AUTO 33008KT 10SM CLR A2998 RMK MADISHF
ATL,2017-04-01 10:00,-84.4418,33.6301,M,M,M,330.00,10.00,M,29.98,M,10.00,M,CLR,M,M,M,M,M,M,M,M,KATL 011000Z AUTO 33010KT 10SM CLR A2998 RMK MADISHF
ATL,2017-04-01 10:05,-84.4418,33.6301,M,M,M,320.00,8.00,M,29.99,M,10.00,M,CLR,M,M,M,M,M,M,M,M,KATL 011005Z AUTO 32008KT 10SM CLR A2999 RMK MADISHF
ATL,2017-04-01 10:10,-84.4418,33.6301,M,M,M,330.00,8.00,M,29.99,M,10.00,M,CLR,M,M,M,M,M,M,M,M,KATL 011010Z AUTO 33008KT 10SM CLR A2999 RMK MADISHF
ATL,2017-04-01 10:15,-84.4418,33.6301,M,M,M,320.00,7.00,M,29.99,M,10.00,M,CLR,M,M,M,M,M,M,M,M,KATL 011015Z AUTO 32007KT 10SM CLR A2999 RMK MADISHF
ATL,2017-04-01 10:20,-84.4418,33.6301,M,M,M,320.00,7.00,M,29.99,M,10.00,M,CLR,M,M,M,M,M,M,M,M,KATL 011020Z AUTO 32007KT 10SM CLR A2999 RMK MADISHF
ATL,2017-04-01 10:25,-84.4418,33.6301,M,M,M,310.00,7.00,M,30.00,M,10.00,M,CLR,M,M,M,M,M,M,M,M,KATL 011025Z AUTO 31007KT 10SM CLR A3000 RMK MADISHF
ATL,2017-04-01 10:30,-84.4418,33.6301,M,M,M,310.00,8.00,M,30.00,M,10.00,M,CLR,M,M,M,M,M,M,M,M,KATL 011030Z AUTO 31008KT 10SM CLR A3000 RMK MADISHF
ATL,2017-04-01 10:35,-84.4418,33.6301,M,M,M,310.00,7.00,M,30.01,M,10.00,M,CLR,M,M,M,M,M,M,M,M,KATL 011035Z AUTO 31007KT 10SM CLR A3001 RMK MADISHF
ATL,2017-04-01 10:40,-84.4418,33.6301,M,M,M,320.00,7.00,M,30.01,M,10.00,M,CLR,M,M,M,M,M,M,M,M,KATL 011040Z AUTO 32007KT 10SM CLR A3001 RMK MADISHF
ATL,2017-04-01 10:45,-84.4418,33.6301,M,M,M,310.00,7.00,M,30.01,M,10.00,M,CLR,M,M,M,M,M,M,M,M,KATL 011045Z AUTO 31007KT 10SM CLR A3001 RMK MADISHF
ATL,2017-04-01 10:50,-84.4418,33.6301,M,M,M,320.00,7.00,M,30.01,M,10.00,M,CLR,M,M,M,M,M,M,M,M,KATL 011050Z AUTO 32007KT 10SM CLR A3001 RMK MADISHF
ATL,2017-04-01 10:52,-84.4418,33.6301,52.00,46.90,82.68,320.00,7.00,0.00,30.01,1015.90,10.00,M,CLR,M,M,M,M,M,M,M,M,KATL 011052Z 32007KT 10SM CLR 11/08 A3001 RMK AO2 SLP159 T01110083
ATL,2017-04-01 10:55,-84.4418,33.6301,M,M,M,320.00,7.00,M,30.01,M,10.00,M,CLR,M,M,M,M,M,M,M,M,KATL 011055Z AUTO 32007KT 10SM CLR A3001 RMK MADISHF
ATL,2017-04-01 11:00,-84.4418,33.6301,M,M,M,310.00,7.00,M,30.01,M,10.00,M,CLR,M,M,M,M,M,M,M,M,KATL 011100Z AUTO 31007KT 10SM CLR A3001 RMK MADISHF
ATL,2017-04-01 11:05,-84.4418,33.6301,M,M,M,300.00,7.00,M,30.02,M,10.00,M,CLR,M,M,M,M,M,M,M,M,KATL 011105Z AUTO 30007KT 10SM CLR A3002 RMK MADISHF
ATL,2017-04-01 11:10,-84.4418,33.6301,M,M,M,300.00,7.00,M,30.02,M,10.00,M,CLR,M,M,M,M,M,M,M,M,KATL 011110Z AUTO 30007KT 10SM CLR A3002 RMK MADISHF
ATL,2017-04-01 11:15,-84.4418,33.6301,M,M,M,270.00,5.00,M,30.02,M,10.00,M,CLR,M,M,M,M,M,M,M,M,KATL 011115Z AUTO 27005KT 10SM CLR A3002 RMK MADISHF
ATL,2017-04-01 11:20,-84.4418,33.6301,M,M,M,270.00,5.00,M,30.03,M,10.00,M,CLR,M,M,M,M,M,M,M,M,KATL 011120Z AUTO 27005KT 10SM CLR A3003 RMK MADISHF
ATL,2017-04-01 11:25,-84.4418,33.6301,M,M,M,280.00,5.00,M,30.03,M,10.00,M,CLR,M,M,M,M,M,M,M,M,KATL 011125Z AUTO 28005KT 10SM CLR A3003 RMK MADISHF
ATL,2017-04-01 11:30,-84.4418,33.6301,M,M,M,290.00,6.00,M,30.03,M,10.00,M,CLR,M,M,M,M,M,M,M,M,KATL 011130Z AUTO 29006KT 10SM CLR A3003 RMK MADISHF
ATL,2017-04-01 11:35,-84.4418,33.6301,M,M,M,290.00,7.00,M,30.04,M,10.00,M,CLR,M,M,M,M,M,M,M,M,KATL 011135Z AUTO 29007KT 10SM CLR A3004 RMK MADISHF
ATL,2017-04-01 11:40,-84.4418,33.6301,M,M,M,290.00,7.00,M,30.04,M,10.00,M,CLR,M,M,M,M,M,M,M,M,KATL 011140Z AUTO 29007KT 10SM CLR A3004 RMK MADISHF
ATL,2017-04-01 11:45,-84.4418,33.6301,M,M,M,300.00,7.00,M,30.04,M,10.00,M,CLR,M,M,M,M,M,M,M,M,KATL 011145Z AUTO 30007KT 10SM CLR A3004 RMK MADISHF
ATL,2017-04-01 11:50,-84.4418,33.6301,M,M,M,310.00,8.00,M,30.04,M,10.00,M,CLR,M,M,M,M,M,M,M,M,KATL 011150Z AUTO 31008KT 10SM CLR A3004 RMK MADISHF
ATL,2017-04-01 11:52,-84.4418,33.6301,52.00,46.90,82.68,300.00,8.00,0.00,30.04,1017.00,10.00,M,CLR,M,M,M,M,M,M,M,M,KATL 011152Z 30008KT 10SM CLR 11/08 A3004 RMK AO2 SLP170 T01110083 10139 20106 53021 $
ATL,2017-04-01 11:55,-84.4418,33.6301,M,M,M,300.00,7.00,M,30.04,M,10.00,M,CLR,M,M,M,M,M,M,M,M,KATL 011155Z AUTO 30007KT 10SM CLR A3004 RMK MADISHF
ATL,2017-04-01 12:00,-84.4418,33.6301,M,M,M,290.00,8.00,M,30.04,M,10.00,M,CLR,M,M,M,M,M,M,M,M,KATL 011200Z AUTO 29008KT 10SM CLR A3004 RMK MADISHF
ATL,2017-04-01 12:05,-84.4418,33.6301,M,M,M,290.00,9.00,M,30.05,M,10.00,M,CLR,M,M,M,M,M,M,M,M,KATL 011205Z AUTO 29009KT 10SM CLR A3005 RMK MADISHF
ATL,2017-04-01 12:10,-84.4418,33.6301,M,M,M,290.00,9.00,M,30.05,M,10.00,M,CLR,M,M,M,M,M,M,M,M,KATL 011210Z AUTO 29009KT 10SM CLR A3005 RMK MADISHF
ATL,2017-04-01 12:15,-84.4418,33.6301,M,M,M,300.00,9.00,M,30.05,M,10.00,M,CLR,M,M,M,M,M,M,M,M,KATL 011215Z AUTO 30009KT 10SM CLR A3005 RMK MADISHF
ATL,2017-04-01 12:20,-84.4418,33.6301,M,M,M,310.00,9.00,M,30.05,M,10.00,M,CLR,M,M,M,M,M,M,M,M,KATL 011220Z AUTO 31009KT 10SM CLR A3005 RMK MADISHF
ATL,2017-04-01 12:25,-84.4418,33.6301,M,M,M,310.00,10.00,M,30.05,M,10.00,M,CLR,M,M,M,M,M,M,M,M,KATL 011225Z AUTO 31010KT 10SM CLR A3005 RMK MADISHF
ATL,2017-04-01 12:30,-84.4418,33.6301,M,M,M,310.00,10.00,M,30.05,M,10.00,M,CLR,M,M,M,M,M,M,M,M,KATL 011230Z AUTO 31010KT 10SM CLR A3005 RMK MADISHF
ATL,2017-04-01 12:35,-84.4418,33.6301,M,M,M,300.00,10.00,M,30.05,M,10.00,M,CLR,M,M,M,M,M,M,M,M,KATL 011235Z AUTO 30010KT 10SM CLR A3005 RMK MADISHF
ATL,2017-04-01 12:40,-84.4418,33.6301,M,M,M,300.00,9.00,M,30.05,M,10.00,M,CLR,M,M,M,M,M,M,M,M,KATL 011240Z AUTO 30009KT 10SM CLR A3005 RMK MADISHF
ATL,2017-04-01 12:45,-84.4418,33.6301,M,M,M,300.00,8.00,M,30.05,M,10.00,M,CLR,M,M,M,M,M,M,M,M,KATL 011245Z AUTO 30008KT 10SM CLR A3005 RMK MADISHF
ATL,2017-04-01 12:50,-84.4418,33.6301,M,M,M,310.00,9.00,M,30.06,M,10.00,M,CLR,M,M,M,M,M,M,M,M,KATL 011250Z AUTO 31009KT 10SM CLR A3006 RMK MADISHF
ATL,2017-04-01 12:52,-84.4418,33.6301,55.00,48.00,77.21,310.00,9.00,0.00,30.06,1017.60,10.00,M,CLR,M,M,M,M,M,M,M,M,KATL 011252Z 31009KT 10SM CLR 13/09 A3006 RMK AO2 SLP176 T01280089 $
ATL,2017-04-01 12:55,-84.4418,33.6301,M,M,M,310.00,11.00,M,30.06,M,10.00,M,CLR,M,M,M,M,M,M,M,M,KATL 011255Z AUTO 31011KT 10SM CLR A3006 RMK MADISHF
ATL,2017-04-01 13:00,-84.4418,33.6301,M,M,M,310.00,8.00,M,30.06,M,10.00,M,CLR,M,M,M,M,M,M,M,M,KATL 011300Z AUTO 31008KT 10SM CLR A3006 RMK MADISHF
ATL,2017-04-01 13:05,-84.4418,33.6301,M,M,M,320.00,11.00,M,30.06,M,10.00,M,CLR,M,M,M,M,M,M,M,M,KATL 011305Z AUTO 32011KT 10SM CLR A3006 RMK MADISHF
ATL,2017-04-01 13:10,-84.4418,33.6301,M,M,M,320.00,11.00,M,30.06,M,10.00,M,CLR,M,M,M,M,M,M,M,M,KATL 011310Z AUTO 32011KT 10SM CLR A3006 RMK MADISHF
ATL,2017-04-01 13:15,-84.4418,33.6301,M,M,M,330.00,12.00,M,30.06,M,10.00,M,CLR,M,M,M,M,M,M,M,M,KATL 011315Z AUTO 33012KT 10SM CLR A3006 RMK MADISHF
ATL,2017-04-01 13:20,-84.4418,33.6301,M,M,M,330.00,12.00,M,30.05,M,10.00,17.00,CLR,M,M,M,M,M,M,M,M,KATL 011320Z AUTO 33012G17KT 10SM CLR A3005 RMK MADISHF
ATL,2017-04-01 13:25,-84.4418,33.6301,M,M,M,330.00,11.00,M,30.06,M,10.00,M,CLR,M,M,M,M,M,M,M,M,KATL 011325Z AUTO 33011KT 10SM CLR A3006 RMK MADISHF
ATL,2017-04-01 13:30,-84.4418,33.6301,M,M,M,340.00,12.00,M,30.06,M,10.00,M,CLR,M,M,M,M,M,M,M,M,KATL 011330Z AUTO 34012KT 10SM CLR A3006 RMK MADISHF
ATL,2017-04-01 13:35,-84.4418,33.6301,M,M,M,330.00,11.00,M,30.06,M,10.00,M,CLR,M,M,M,M,M,M,M,M,KATL 011335Z AUTO 33011KT 10SM CLR A3006 RMK MADISHF
ATL,2017-04-01 13:40,-84.4418,33.6301,M,M,M,330.00,10.00,M,30.06,M,10.00,M,CLR,M,M,M,M,M,M,M,M,KATL 011340Z AUTO 33010KT 10SM CLR A3006 RMK MADISHF
ATL,2017-04-01 13:45,-84.4418,33.6301,M,M,M,320.00,10.00,M,30.06,M,10.00,M,CLR,M,M,M,M,M,M,M,M,KATL 011345Z AUTO 32010KT 10SM CLR A3006 RMK MADISHF
ATL,2017-04-01 13:50,-84.4418,33.6301,M,M,M,310.00,11.00,M,30.06,M,10.00,M,CLR,M,M,M,M,M,M,M,M,KATL 011350Z AUTO 31011KT 10SM CLR A3006 RMK MADISHF
ATL,2017-04-01 13:52,-84.4418,33.6301,59.00,48.00,66.83,310.00,10.00,0.00,30.06,1017.50,10.00,M,CLR,M,M,M,M,M,M,M,M,KATL 011352Z 31010KT 10SM CLR 15/09 A3006 RMK AO2 SLP175 T01500089 $
ATL,2017-04-01 13:55,-84.4418,33.6301,M,M,M,320.00,12.00,M,30.06,M,10.00,M,CLR,M,M,M,M,M,M,M,M,KATL 011355Z AUTO 32012KT 10SM CLR A3006 RMK MADISHF
ATL,2017-04-01 14:00,-84.4418,33.6301,M,M,M,310.00,11.00,M,30.06,M,10.00,16.00,CLR,M,M,M,M,M,M,M,M,KATL 011400Z AUTO 31011G16KT 10SM CLR A3006 RMK MADISHF
ATL,2017-04-01 14:05,-84.4418,33.6301,M,M,M,330.00,8.00,M,30.06,M,10.00,M,CLR,M,M,M,M,M,M,M,M,KATL 011405Z AUTO 33008KT 10SM CLR A3006 RMK MADISHF
ATL,2017-04-01 14:10,-84.4418,33.6301,M,M,M,330.00,8.00,M,30.06,M,10.00,M,CLR,M,M,M,M,M,M,M,M,KATL 011410Z AUTO 33008KT 10SM CLR A3006 RMK MADISHF
ATL,2017-04-01 14:15,-84.4418,33.6301,M,M,M,340.00,12.00,M,30.06,M,10.00,M,CLR,M,M,M,M,M,M,M,M,KATL 011415Z AUTO 34012KT 10SM CLR A3006 RMK MADISHF
ATL,2017-04-01 14:20,-84.4418,33.6301,M,M,M,340.00,11.00,M,30.06,M,10.00,M,CLR,M,M,M,M,M,M,M,M,KATL 011420Z AUTO 34011KT 10SM CLR A3006 RMK MADISHF
ATL,2017-04-01 14:25,-84.4418,33.6301,M,M,M,330.00,11.00,M,30.06,M,10.00,M,CLR,M,M,M,M,M,M,M,M,KATL 011425Z AUTO 33011KT 10SM CLR A3006 RMK MADISHF
ATL,2017-04-01 14:30,-84.4418,33.6301,M,M,M,330.00,11.00,M,30.06,M,10.00,M,CLR,M,M,M,M,M,M,M,M,KATL 011430Z AUTO 33011KT 10SM CLR A3006 RMK MADISHF
ATL,2017-04-01 14:35,-84.4418,33.6301,M,M,M,320.00,14.00,M,30.06,M,10.00,M,CLR,M,M,M,M,M,M,M,M,KATL 011435Z AUTO 32014KT 10SM CLR A3006 RMK MADISHF
ATL,2017-04-01 14:40,-84.4418,33.6301,M,M,M,330.00,14.00,M,30.06,M,10.00,M,CLR,M,M,M,M,M,M,M,M,KATL 011440Z AUTO 33014KT 10SM CLR A3006 RMK MADISHF
ATL,2017-04-01 14:45,-84.4418,33.6301,M,M,M,320.00,13.00,M,30.06,M,10.00,M,CLR,M,M,M,M,M,M,M,M,KATL 011445Z AUTO 32013KT 10SM CLR A3006 RMK MADISHF
ATL,2017-04-01 14:50,-84.4418,33.6301,M,M,M,320.00,12.00,M,30.06,M,10.00,M,CLR,M,M,M,M,M,M,M,M,KATL 011450Z AUTO 32012KT 10SM CLR A3006 RMK MADISHF
ATL,2017-04-01 14:52,-84.4418,33.6301,63.00,48.00,57.99,310.00,12.00,0.00,30.06,1017.50,10.00,M,CLR,M,M,M,M,M,M,M,M,KATL 011452Z 31012KT 10SM CLR 17/09 A3006 RMK AO2 SLP175 T01720089 51007 $
ATL,2017-04-01 14:55,-84.4418,33.6301,M,M,M,310.00,14.00,M,30.06,M,10.00,M,CLR,M,M,M,M,M,M,M,M,KATL 011455Z AUTO 31014KT 10SM CLR A3006 RMK MADISHF
ATL,2017-04-01 15:00,-84.4418,33.6301,M,M,M,330.00,10.00,M,30.06,M,10.00,M,CLR,M,M,M,M,M,M,M,M,KATL 011500Z AUTO 33010KT 10SM CLR A3006 RMK MADISHF
ATL,2017-04-01 15:05,-84.4418,33.6301,M,M,M,330.00,10.00,M,30.06,M,10.00,M,CLR,M,M,M,M,M,M,M,M,KATL 011505Z AUTO 33010KT 10SM CLR A3006 RMK MADISHF
ATL,2017-04-01 15:10,-84.4418,33.6301,M,M,M,330.00,14.00,M,30.06,M,10.00,M,CLR,M,M,M,M,M,M,M,M,KATL 011510Z AUTO 33014KT 10SM CLR A3006 RMK MADISHF
ATL,2017-04-01 15:15,-84.4418,33.6301,M,M,M,330.00,13.00,M,30.06,M,10.00,M,CLR,M,M,M,M,M,M,M,M,KATL 011515Z AUTO 33013KT 10SM CLR A3006 RMK MADISHF
ATL,2017-04-01 15:20,-84.4418,33.6301,M,M,M,320.00,13.00,M,30.06,M,10.00,M,CLR,M,M,M,M,M,M,M,M,KATL 011520Z AUTO 32013KT 10SM CLR A3006 RMK MADISHF
ATL,2017-04-01 15:25,-84.4418,33.6301,M,M,M,320.00,10.00,M,30.06,M,10.00,M,CLR,M,M,M,M,M,M,M,M,KATL 011525Z AUTO 32010KT 10SM CLR A3006 RMK MADISHF
ATL,2017-04-01 15:30,-84.4418,33.6301,M,M,M,330.00,11.00,M,30.06,M,10.00,M,CLR,M,M,M,M,M,M,M,M,KATL 011530Z AUTO 33011KT 10SM CLR A3006 RMK MADISHF
ATL,2017-04-01 15:35,-84.4418,33.6301,M,M,M,330.00,11.00,M,30.06,M,10.00,M,CLR,M,M,M,M,M,M,M,M,KATL 011535Z AUTO 33011KT 10SM CLR A3006 RMK MADISHF
ATL,2017-04-01 15:40,-84.4418,33.6301,M,M,M,330.00,13.00,M,30.07,M,10.00,M,CLR,M,M,M,M,M,M,M,M,KATL 011540Z AUTO 33013KT 10SM CLR A3007 RMK MADISHF
ATL,2017-04-01 15:45,-84.4418,33.6301,M,M,M,340.00,9.00,M,30.07,M,10.00,M,CLR,M,M,M,M,M,M,M,M,KATL 011545Z AUTO 34009KT 10SM CLR A3007 RMK MADISHF
ATL,2017-04-01 15:50,-84.4418,33.6301,M,M,M,340.00,13.00,M,30.07,M,10.00,M,CLR,M,M,M,M,M,M,M,M,KATL 011550Z AUTO 34013KT 10SM CLR A3007 RMK MADISHF
ATL,2017-04-01 15:52,-84.4418,33.6301,66.90,46.90,48.56,340.00,12.00,0.00,30.07,1017.70,10.00,17.00,CLR,M,M,M,M,M,M,M,M,KATL 011552Z 34012G17KT 10SM CLR 19/08 A3007 RMK AO2 SLP177 T01940083 $
ATL,2017-04-01 15:55,-84.4418,33.6301,M,M,M,350.00,11.00,M,30.07,M,10.00,M,CLR,M,M,M,M,M,M,M,M,KATL 011555Z AUTO 35011KT 10SM CLR A3007 RMK MADISHF
ATL,2017-04-01 16:00,-84.4418,33.6301,M,M,M,300.00,10.00,M,30.07,M,10.00,M,CLR,M,M,M,M,M,M,M,M,KATL 011600Z AUTO 30010KT 10SM CLR A3007 RMK MADISHF
ATL,2017-04-01 16:05,-84.4418,33.6301,M,M,M,320.00,12.00,M,30.07,M,10.00,M,CLR,M,M,M,M,M,M,M,M,KATL 011605Z AUTO 32012KT 10SM CLR A3007 RMK MADISHF
ATL,2017-04-01 16:10,-84.4418,33.6301,M,M,M,330.00,12.00,M,30.07,M,10.00,M,CLR,M,M,M,M,M,M,M,M,KATL 011610Z AUTO 33012KT 10SM CLR A3007 RMK MADISHF
ATL,2017-04-01 16:15,-84.4418,33.6301,M,M,M,320.00,13.00,M,30.07,M,10.00,M,CLR,M,M,M,M,M,M,M,M,KATL 011615Z AUTO 32013KT 10SM CLR A3007 RMK MADISHF
ATL,2017-04-01 16:20,-84.4418,33.6301,M,M,M,320.00,13.00,M,30.07,M,10.00,M,CLR,M,M,M,M,M,M,M,M,KATL 011620Z AUTO 32013KT 10SM CLR A3007 RMK MADISHF
ATL,2017-04-01 16:25,-84.4418,33.6301,M,M,M,330.00,11.00,M,30.07,M,10.00,M,CLR,M,M,M,M,M,M,M,M,KATL 011625Z AUTO 33011KT 10SM CLR A3007 RMK MADISHF
ATL,2017-04-01 16:30,-84.4418,33.6301,M,M,M,320.00,11.00,M,30.07,M,10.00,M,CLR,M,M,M,M,M,M,M,M,KATL 011630Z AUTO 32011KT 10SM CLR A3007 RMK MADISHF
ATL,2017-04-01 16:35,-84.4418,33.6301,M,M,M,330.00,10.00,M,30.06,M,10.00,M,CLR,M,M,M,M,M,M,M,M,KATL 011635Z AUTO 33010KT 10SM CLR A3006 RMK MADISHF
ATL,2017-04-01 16:40,-84.4418,33.6301,M,M,M,300.00,14.00,M,30.06,M,10.00,M,CLR,M,M,M,M,M,M,M,M,KATL 011640Z AUTO 30014KT 10SM CLR A3006 RMK MADISHF
ATL,2017-04-01 16:45,-84.4418,33.6301,M,M,M,300.00,11.00,M,30.06,M,10.00,M,CLR,M,M,M,M,M,M,M,M,KATL 011645Z AUTO 30011KT 10SM CLR A3006 RMK MADISHF
ATL,2017-04-01 16:50,-84.4418,33.6301,M,M,M,330.00,11.00,M,30.06,M,10.00,M,CLR,M,M,M,M,M,M,M,M,KATL 011650Z AUTO 33011KT 10SM CLR A3006 RMK MADISHF
ATL,2017-04-01 16:52,-84.4418,33.6301,70.00,46.90,43.66,320.00,10.00,0.00,30.06,1017.40,10.00,M,CLR,M,M,M,M,M,M,M,M,KATL 011652Z 32010KT 10SM CLR 21/08 A3006 RMK AO2 SLP174 T02110083 $
ATL,2017-04-01 16:55,-84.4418,33.6301,M,M,M,300.00,11.00,M,30.06,M,10.00,M,CLR,M,M,M,M,M,M,M,M,KATL 011655Z AUTO 30011KT 10SM CLR A3006 RMK MADISHF
ATL,2017-04-01 17:00,-84.4418,33.6301,M,M,M,290.00,13.00,M,30.06,M,10.00,18.00,CLR,M,M,M,M,M,M,M,M,KATL 011700Z AUTO 29013G18KT 10SM CLR A3006 RMK MADISHF
ATL,2017-04-01 17:05,-84.4418,33.6301,M,M,M,330.00,13.00,M,30.06,M,10.00,M,CLR,M,M,M,M,M,M,M,M,KATL 011705Z AUTO 33013KT 10SM CLR A3006 RMK MADISHF
ATL,2017-04-01 17:10,-84.4418,33.6301,M,M,M,310.00,12.00,M,30.06,M,10.00,M,CLR,M,M,M,M,M,M,M,M,KATL 011710Z AUTO 31012KT 10SM CLR A3006 RMK MADISHF
ATL,2017-04-01 17:15,-84.4418,33.6301,M,M,M,310.00,10.00,M,30.06,M,10.00,M,CLR,M,M,M,M,M,M,M,M,KATL 011715Z AUTO 31010KT 10SM CLR A3006 RMK MADISHF
ATL,2017-04-01 17:20,-84.4418,33.6301,M,M,M,320.00,12.00,M,30.06,M,10.00,M,CLR,M,M,M,M,M,M,M,M,KATL 011720Z AUTO 32012KT 10SM CLR A3006 RMK MADISHF
ATL,2017-04-01 17:25,-84.4418,33.6301,M,M,M,330.00,11.00,M,30.06,M,10.00,M,CLR,M,M,M,M,M,M,M,M,KATL 011725Z AUTO 33011KT 10SM CLR A3006 RMK MADISHF
ATL,2017-04-01 17:30,-84.4418,33.6301,M,M,M,320.00,14.00,M,30.06,M,10.00,M,CLR,M,M,M,M,M,M,M,M,KATL 011730Z AUTO 32014KT 10SM CLR A3006 RMK MADISHF
ATL,2017-04-01 17:35,-84.4418,33.6301,M,M,M,320.00,11.00,M,30.06,M,10.00,M,CLR,M,M,M,M,M,M,M,M,KATL 011735Z AUTO 32011KT 10SM CLR A3006 RMK MADISHF
ATL,2017-04-01 17:40,-84.4418,33.6301,M,M,M,290.00,11.00,M,30.06,M,10.00,M,CLR,M,M,M,M,M,M,M,M,KATL 011740Z AUTO 29011KT 10SM CLR A3006 RMK MADISHF
ATL,2017-04-01 17:45,-84.4418,33.6301,M,M,M,M,M,M,30.06,M,10.00,M,CLR,M,M,M,M,M,M,M,M,KATL 011745Z AUTO /////KT 10SM CLR A3006 RMK MADISHF
ATL,2017-04-01 17:50,-84.4418,33.6301,M,M,M,310.00,11.00,M,30.06,M,10.00,M,CLR,M,M,M,M,M,M,M,M,KATL 011750Z AUTO 31011KT 10SM CLR A3006 RMK MADISHF
ATL,2017-04-01 17:52,-84.4418,33.6301,72.00,46.00,39.42,310.00,11.00,0.00,30.05,1017.30,10.00,M,CLR,M,M,M,M,M,M,M,M,KATL 011752Z 31011KT 10SM CLR 22/08 A3005 RMK AO2 SLP173 T02220078 10222 20111 58002 $
ATL,2017-04-01 17:55,-84.4418,33.6301,M,M,M,310.00,10.00,M,30.05,M,10.00,M,CLR,M,M,M,M,M,M,M,M,KATL 011755Z AUTO 31010KT 10SM CLR A3005 RMK MADISHF
ATL,2017-04-01 18:00,-84.4418,33.6301,M,M,M,M,M,M,30.05,M,10.00,M,CLR,M,M,M,M,M,M,M,M,KATL 011800Z AUTO /////KT 10SM CLR A3005 RMK MADISHF
ATL,2017-04-01 18:05,-84.4418,33.6301,M,M,M,310.00,8.00,M,30.05,M,10.00,M,CLR,M,M,M,M,M,M,M,M,KATL 011805Z AUTO 31008KT 10SM CLR A3005 RMK MADISHF
ATL,2017-04-01 18:10,-84.4418,33.6301,M,M,M,300.00,10.00,M,30.05,M,10.00,M,CLR,M,M,M,M,M,M,M,M,KATL 011810Z AUTO 30010KT 10SM CLR A3005 RMK MADISHF
ATL,2017-04-01 18:15,-84.4418,33.6301,M,M,M,300.00,13.00,M,30.05,M,10.00,M,CLR,M,M,M,M,M,M,M,M,KATL 011815Z AUTO 30013KT 10SM CLR A3005 RMK MADISHF
ATL,2017-04-01 18:20,-84.4418,33.6301,M,M,M,280.00,10.00,M,30.05,M,10.00,M,CLR,M,M,M,M,M,M,M,M,KATL 011820Z AUTO 28010KT 10SM CLR A3005 RMK MADISHF
ATL,2017-04-01 18:25,-84.4418,33.6301,M,M,M,M,M,M,30.05,M,10.00,M,CLR,M,M,M,M,M,M,M,M,KATL 011825Z AUTO /////KT 10SM CLR A3005 RMK MADISHF
ATL,2017-04-01 18:30,-84.4418,33.6301,M,M,M,310.00,11.00,M,30.05,M,10.00,M,CLR,M,M,M,M,M,M,M,M,KATL 011830Z AUTO 31011KT 10SM CLR A3005 RMK MADISHF
ATL,2017-04-01 18:35,-84.4418,33.6301,M,M,M,280.00,9.00,M,30.05,M,10.00,M,CLR,M,M,M,M,M,M,M,M,KATL 011835Z AUTO 28009KT 10SM CLR A3005 RMK MADISHF
ATL,2017-04-01 18:40,-84.4418,33.6301,M,M,M,300.00,11.00,M,30.05,M,10.00,M,CLR,M,M,M,M,M,M,M,M,KATL 011840Z AUTO 30011KT 10SM CLR A3005 RMK MADISHF
ATL,2017-04-01 18:45,-84.4418,33.6301,M,M,M,320.00,7.00,M,30.05,M,10.00,M,CLR,M,M,M,M,M,M,M,M,KATL 011845Z AUTO 32007KT 10SM CLR A3005 RMK MADISHF
ATL,2017-04-01 18:50,-84.4418,33.6301,M,M,M,300.00,9.00,M,30.05,M,10.00,M,CLR,M,M,M,M,M,M,M,M,KATL 011850Z AUTO 30009KT 10SM CLR A3005 RMK MADISHF
ATL,2017-04-01 18:52,-84.4418,33.6301,75.00,48.00,38.43,300.00,10.00,0.00,30.04,1016.90,10.00,M,CLR,M,M,M,M,M,M,M,M,KATL 011852Z 30010KT 10SM CLR 24/09 A3004 RMK AO2 SLP169 T02390089 $
ATL,2017-04-01 18:55,-84.4418,33.6301,M,M,M,310.00,11.00,M,30.04,M,10.00,M,CLR,M,M,M,M,M,M,M,M,KATL 011855Z AUTO 31011KT 10SM CLR A3004 RMK MADISHF
ATL,2017-04-01 19:00,-84.4418,33.6301,M,M,M,290.00,8.00,M,30.04,M,10.00,M,CLR,M,M,M,M,M,M,M,M,KATL 011900Z AUTO 29008KT 10SM CLR A3004 RMK MADISHF
ATL,2017-04-01 19:05,-84.4418,33.6301,M,M,M,290.00,11.00,M,30.04,M,10.00,M,CLR,M,M,M,M,M,M,M,M,KATL 011905Z AUTO 29011KT 10SM CLR A3004 RMK MADISHF
ATL,2017-04-01 19:10,-84.4418,33.6301,M,M,M,300.00,8.00,M,30.04,M,10.00,M,CLR,M,M,M,M,M,M,M,M,KATL 011910Z AUTO 30008KT 10SM CLR A3004 RMK MADISHF
ATL,2017-04-01 19:15,-84.4418,33.6301,M,M,M,320.00,10.00,M,30.04,M,10.00,M,CLR,M,M,M,M,M,M,M,M,KATL 011915Z AUTO 32010KT 10SM CLR A3004 RMK MADISHF
ATL,2017-04-01 19:20,-84.4418,33.6301,M,M,M,M,M,M,30.04,M,10.00,M,CLR,M,M,M,M,M,M,M,M,KATL 011920Z AUTO /////KT 10SM CLR A3004 RMK MADISHF
ATL,2017-04-01 19:25,-84.4418,33.6301,M,M,M,300.00,13.00,M,30.03,M,10.00,M,CLR,M,M,M,M,M,M,M,M,KATL 011925Z AUTO 30013KT 10SM CLR A3003 RMK MADISHF
ATL,2017-04-01 19:30,-84.4418,33.6301,M,M,M,300.00,7.00,M,30.03,M,10.00,M,CLR,M,M,M,M,M,M,M,M,KATL 011930Z AUTO 30007KT 10SM CLR A3003 RMK MADISHF
ATL,2017-04-01 19:35,-84.4418,33.6301,M,M,M,330.00,12.00,M,30.03,M,10.00,M,CLR,M,M,M,M,M,M,M,M,KATL 011935Z AUTO 33012KT 10SM CLR A3003 RMK MADISHF
ATL,2017-04-01 19:40,-84.4418,33.6301,M,M,M,320.00,6.00,M,30.03,M,10.00,M,CLR,M,M,M,M,M,M,M,M,KATL 011940Z AUTO 32006KT 10SM CLR A3003 RMK VRB06G16KT  MADISHF
ATL,2017-04-01 19:45,-84.4418,33.6301,M,M,M,M,M,M,30.03,M,10.00,M,CLR,M,M,M,M,M,M,M,M,KATL 011945Z AUTO /////KT 10SM CLR A3003 RMK MADISHF
ATL,2017-04-01 19:50,-84.4418,33.6301,M,M,M,310.00,12.00,M,30.03,M,10.00,M,CLR,M,M,M,M,M,M,M,M,KATL 011950Z AUTO 31012KT 10SM CLR A3003 RMK MADISHF
ATL,2017-04-01 19:52,-84.4418,33.6301,75.00,45.00,34.31,330.00,11.00,0.00,30.03,1016.40,10.00,M,CLR,M,M,M,M,M,M,M,M,KATL 011952Z 33011KT 10SM CLR 24/07 A3003 RMK AO2 SLP164 T02390072 $
ATL,2017-04-01 19:55,-84.4418,33.6301,M,M,M,320.00,13.00,M,30.03,M,10.00,M,CLR,M,M,M,M,M,M,M,M,KATL 011955Z AUTO 32013KT 10SM CLR A3003 RMK MADISHF
ATL,2017-04-01 20:00,-84.4418,33.6301,M,M,M,320.00,9.00,M,30.03,M,10.00,14.00,CLR,M,M,M,M,M,M,M,M,KATL 012000Z AUTO 32009G14KT 10SM CLR A3003 RMK MADISHF
ATL,2017-04-01 20:05,-84.4418,33.6301,M,M,M,320.00,13.00,M,30.03,M,10.00,M,CLR,M,M,M,M,M,M,M,M,KATL 012005Z AUTO 32013KT 10SM CLR A3003 RMK MADISHF
ATL,2017-04-01 20:10,-84.4418,33.6301,M,M,M,330.00,13.00,M,30.03,M,10.00,M,CLR,M,M,M,M,M,M,M,M,KATL 012010Z AUTO 33013KT 10SM CLR A3003 RMK MADISHF
ATL,2017-04-01 20:15,-84.4418,33.6301,M,M,M,320.00,14.00,M,30.02,M,10.00,M,CLR,M,M,M,M,M,M,M,M,KATL 012015Z AUTO 32014KT 10SM CLR A3002 RMK MADISHF
ATL,2017-04-01 20:20,-84.4418,33.6301,M,M,M,340.00,12.00,M,30.02,M,10.00,M,CLR,M,M,M,M,M,M,M,M,KATL 012020Z AUTO 34012KT 10SM CLR A3002 RMK MADISHF
ATL,2017-04-01 20:25,-84.4418,33.6301,M,M,M,320.00,10.00,M,30.02,M,10.00,M,CLR,M,M,M,M,M,M,M,M,KATL 012025Z AUTO 32010KT 10SM CLR A3002 RMK MADISHF
ATL,2017-04-01 20:30,-84.4418,33.6301,M,M,M,300.00,7.00,M,30.02,M,10.00,M,CLR,M,M,M,M,M,M,M,M,KATL 012030Z AUTO 30007KT 10SM CLR A3002 RMK MADISHF
ATL,2017-04-01 20:35,-84.4418,33.6301,M,M,M,340.00,10.00,M,30.02,M,10.00,M,CLR,M,M,M,M,M,M,M,M,KATL 012035Z AUTO 34010KT 10SM CLR A3002 RMK MADISHF
ATL,2017-04-01 20:40,-84.4418,33.6301,M,M,M,320.00,9.00,M,30.02,M,10.00,M,CLR,M,M,M,M,M,M,M,M,KATL 012040Z AUTO 32009KT 10SM CLR A3002 RMK MADISHF
ATL,2017-04-01 20:45,-84.4418,33.6301,M,M,M,310.00,10.00,M,30.02,M,10.00,M,CLR,M,M,M,M,M,M,M,M,KATL 012045Z AUTO 31010KT 10SM CLR A3002 RMK MADISHF
ATL,2017-04-01 20:50,-84.4418,33.6301,M,M,M,310.00,8.00,M,30.02,M,10.00,M,M,M,M,M,M,M,M,M,M,KATL 012050Z AUTO 31008KT 10SM A3002 RMK WND 28V36  MADISHF
ATL,2017-04-01 20:52,-84.4418,33.6301,75.90,46.00,34.58,M,5.00,0.00,30.02,1016.10,10.00,14.00,FEW,M,M,M,25000.00,M,M,M,M,KATL 012052Z VRB05G14KT 10SM FEW250 24/08 A3002 RMK AO2 SLP161 T02440078 56011 $
ATL,2017-04-01 20:55,-84.4418,33.6301,M,M,M,330.00,8.00,M,30.02,M,10.00,M,CLR,M,M,M,M,M,M,M,M,KATL 012055Z AUTO 33008KT 10SM CLR A3002 RMK MADISHF
ATL,2017-04-01 21:00,-84.4418,33.6301,M,M,M,350.00,13.00,M,30.02,M,10.00,M,CLR,M,M,M,M,M,M,M,M,KATL 012100Z AUTO 35013KT 10SM CLR A3002 RMK MADISHF
ATL,2017-04-01 21:05,-84.4418,33.6301,M,M,M,330.00,11.00,M,30.02,M,10.00,M,CLR,M,M,M,M,M,M,M,M,KATL 012105Z AUTO 33011KT 10SM CLR A3002 RMK MADISHF
ATL,2017-04-01 21:10,-84.4418,33.6301,M,M,M,340.00,9.00,M,30.02,M,10.00,M,CLR,M,M,M,M,M,M,M,M,KATL 012110Z AUTO 34009KT 10SM CLR A3002 RMK MADISHF
ATL,2017-04-01 21:15,-84.4418,33.6301,M,M,M,310.00,9.00,M,30.02,M,10.00,M,CLR,M,M,M,M,M,M,M,M,KATL 012115Z AUTO 31009KT 10SM CLR A3002 RMK MADISHF
ATL,2017-04-01 21:20,-84.4418,33.6301,M,M,M,300.00,7.00,M,30.02,M,10.00,M,CLR,M,M,M,M,M,M,M,M,KATL 012120Z AUTO 30007KT 10SM CLR A3002 RMK WND 27V34  MADISHF
ATL,2017-04-01 21:25,-84.4418,33.6301,M,M,M,310.00,6.00,M,30.02,M,10.00,M,CLR,M,M,M,M,M,M,M,M,KATL 012125Z AUTO 31006KT 10SM CLR A3002 RMK MADISHF
ATL,2017-04-01 21:30,-84.4418,33.6301,M,M,M,310.00,9.00,M,30.02,M,10.00,M,CLR,M,M,M,M,M,M,M,M,KATL 012130Z AUTO 31009KT 10SM CLR A3002 RMK WND 30V02  MADISHF
ATL,2017-04-01 21:35,-84.4418,33.6301,M,M,M,340.00,10.00,M,30.02,M,10.00,M,CLR,M,M,M,M,M,M,M,M,KATL 012135Z AUTO 34010KT 10SM CLR A3002 RMK MADISHF
ATL,2017-04-01 21:40,-84.4418,33.6301,M,M,M,300.00,12.00,M,30.02,M,10.00,M,CLR,M,M,M,M,M,M,M,M,KATL 012140Z AUTO 30012KT 10SM CLR A3002 RMK MADISHF
ATL,2017-04-01 21:45,-84.4418,33.6301,M,M,M,310.00,10.00,M,30.02,M,10.00,M,CLR,M,M,M,M,M,M,M,M,KATL 012145Z AUTO 31010KT 10SM CLR A3002 RMK MADISHF
ATL,2017-04-01 21:50,-84.4418,33.6301,M,M,M,290.00,9.00,M,30.02,M,10.00,M,M,M,M,M,M,M,M,M,M,KATL 012150Z AUTO 29009KT 10SM A3002 RMK MADISHF
ATL,2017-04-01 21:52,-84.4418,33.6301,75.90,48.00,37.29,330.00,10.00,0.00,30.03,1016.20,10.00,16.00,FEW,M,M,M,25000.00,M,M,M,M,KATL 012152Z 33010G16KT 10SM FEW250 24/09 A3003 RMK AO2 SLP162 T02440089 $
ATL,2017-04-01 21:55,-84.4418,33.6301,M,M,M,360.00,12.00,M,30.03,M,10.00,M,CLR,M,M,M,M,M,M,M,M,KATL 012155Z AUTO 36012KT 10SM CLR A3003 RMK MADISHF
ATL,2017-04-01 22:00,-84.4418,33.6301,M,M,M,320.00,8.00,M,30.03,M,10.00,M,CLR,M,M,M,M,M,M,M,M,KATL 012200Z AUTO 32008KT 10SM CLR A3003 RMK MADISHF
ATL,2017-04-01 22:05,-84.4418,33.6301,M,M,M,290.00,12.00,M,30.03,M,10.00,M,CLR,M,M,M,M,M,M,M,M,KATL 012205Z AUTO 29012KT 10SM CLR A3003 RMK MADISHF
ATL,2017-04-01 22:10,-84.4418,33.6301,M,M,M,300.00,10.00,M,30.03,M,10.00,M,CLR,M,M,M,M,M,M,M,M,KATL 012210Z AUTO 30010KT 10SM CLR A3003 RMK MADISHF
ATL,2017-04-01 22:15,-84.4418,33.6301,M,M,M,310.00,9.00,M,30.03,M,10.00,M,CLR,M,M,M,M,M,M,M,M,KATL 012215Z AUTO 31009KT 10SM CLR A3003 RMK MADISHF
ATL,2017-04-01 22:20,-84.4418,33.6301,M,M,M,310.00,10.00,M,30.03,M,10.00,M,CLR,M,M,M,M,M,M,M,M,KATL 012220Z AUTO 31010KT 10SM CLR A3003 RMK MADISHF
ATL,2017-04-01 22:25,-84.4418,33.6301,M,M,M,M,M,M,30.03,M,10.00,M,CLR,M,M,M,M,M,M,M,M,KATL 012225Z AUTO /////KT 10SM CLR A3003 RMK MADISHF
ATL,2017-04-01 22:30,-84.4418,33.6301,M,M,M,310.00,11.00,M,30.03,M,10.00,M,CLR,M,M,M,M,M,M,M,M,KATL 012230Z AUTO 31011KT 10SM CLR A3003 RMK MADISHF
ATL,2017-04-01 22:35,-84.4418,33.6301,M,M,M,320.00,8.00,M,30.03,M,10.00,M,CLR,M,M,M,M,M,M,M,M,KATL 012235Z AUTO 32008KT 10SM CLR A3003 RMK MADISHF
ATL,2017-04-01 22:40,-84.4418,33.6301,M,M,M,300.00,11.00,M,30.03,M,10.00,M,CLR,M,M,M,M,M,M,M,M,KATL 012240Z AUTO 30011KT 10SM CLR A3003 RMK MADISHF
ATL,2017-04-01 22:45,-84.4418,33.6301,M,M,M,320.00,9.00,M,30.03,M,10.00,M,CLR,M,M,M,M,M,M,M,M,KATL 012245Z AUTO 32009KT 10SM CLR A3003 RMK MADISHF
ATL,2017-04-01 22:50,-84.4418,33.6301,M,M,M,M,M,M,30.04,M,10.00,M,M,M,M,M,M,M,M,M,M,KATL 012250Z AUTO /////KT 10SM A3004 RMK MADISHF
ATL,2017-04-01 22:52,-84.4418,33.6301,73.90,46.00,36.98,310.00,13.00,0.00,30.04,1016.70,10.00,M,FEW,SCT,M,M,20000.00,25000.00,M,M,M,KATL 012252Z 31013KT 10SM FEW200 SCT250 23/08 A3004 RMK AO2 SLP167 T02330078 $
ATL,2017-04-01 22:55,-84.4418,33.6301,M,M,M,M,M,M,30.04,M,10.00,M,CLR,M,M,M,M,M,M,M,M,KATL 012255Z AUTO /////KT 10SM CLR A3004 RMK MADISHF
ATL,2017-04-01 23:00,-84.4418,33.6301,M,M,M,310.00,10.00,M,30.04,M,10.00,M,CLR,M,M,M,M,M,M,M,M,KATL 012300Z AUTO 31010KT 10SM CLR A3004 RMK MADISHF
ATL,2017-04-01 23:05,-84.4418,33.6301,M,M,M,320.00,11.00,M,30.04,M,10.00,M,CLR,M,M,M,M,M,M,M,M,KATL 012305Z AUTO 32011KT 10SM CLR A3004 RMK MADISHF
ATL,2017-04-01 23:10,-84.4418,33.6301,M,M,M,310.00,10.00,M,30.04,M,10.00,M,CLR,M,M,M,M,M,M,M,M,KATL 012310Z AUTO 31010KT 10SM CLR A3004 RMK MADISHF
ATL,2017-04-01 23:15,-84.4418,33.6301,M,M,M,320.00,10.00,M,30.04,M,10.00,M,CLR,M,M,M,M,M,M,M,M,KATL 012315Z AUTO 32010KT 10SM CLR A3004 RMK MADISHF
ATL,2017-04-01 23:20,-84.4418,33.6301,M,M,M,310.00,10.00,M,30.04,M,10.00,M,CLR,M,M,M,M,M,M,M,M,KATL 012320Z AUTO 31010KT 10SM CLR A3004 RMK MADISHF
ATL,2017-04-01 23:25,-84.4418,33.6301,M,M,M,310.00,9.00,M,30.04,M,10.00,M,CLR,M,M,M,M,M,M,M,M,KATL 012325Z AUTO 31009KT 10SM CLR A3004 RMK MADISHF
ATL,2017-04-01 23:30,-84.4418,33.6301,M,M,M,300.00,9.00,M,30.04,M,10.00,M,CLR,M,M,M,M,M,M,M,M,KATL 012330Z AUTO 30009KT 10SM CLR A3004 RMK MADISHF
ATL,2017-04-01 23:35,-84.4418,33.6301,M,M,M,310.00,9.00,M,30.04,M,10.00,M,CLR,M,M,M,M,M,M,M,M,KATL 012335Z AUTO 31009KT 10SM CLR A3004 RMK MADISHF
ATL,2017-04-01 23:40,-84.4418,33.6301,M,M,M,310.00,9.00,M,30.04,M,10.00,M,CLR,M,M,M,M,M,M,M,M,KATL 012340Z AUTO 31009KT 10SM CLR A3004 RMK MADISHF
ATL,2017-04-01 23:45,-84.4418,33.6301,M,M,M,310.00,11.00,M,30.04,M,10.00,M,CLR,M,M,M,M,M,M,M,M,KATL 012345Z AUTO 31011KT 10SM CLR A3004 RMK MADISHF
ATL,2017-04-01 23:50,-84.4418,33.6301,M,M,M,310.00,9.00,M,30.05,M,10.00,M,M,M,M,M,M,M,M,M,M,KATL 012350Z AUTO 31009KT 10SM A3005 RMK MADISHF
ATL,2017-04-01 23:52,-84.4418,33.6301,71.10,46.00,40.65,310.00,8.00,0.00,30.05,1017.10,10.00,M,FEW,SCT,M,M,20000.00,25000.00,M,M,M,KATL 012352Z 31008KT 10SM FEW200 SCT250 22/08 A3005 RMK AO2 SLP171 T02170078 10250 20217 53008 $
ATL,2017-04-01 23:55,-84.4418,33.6301,M,M,M,310.00,9.00,M,30.05,M,10.00,M,CLR,M,M,M,M,M,M,M,M,KATL 012355Z AUTO 31009KT 10SM CLR A3005 RMK MADISHF
