#DEBUG: Format Typ    -> comma
#DEBUG: Time Period   -> 2017-04-01 00:00:00+00:00 2017-04-02 00:00:00+00:00
#DEBUG: Time Zone     -> Etc/UTC
#DEBUG: Data Contact   -> daryl herzmann akrherz@iastate.edu 515-294-5978
#DEBUG: Entries Found -> -1
station,valid,lon,lat,tmpf, dwpf, relh, drct, sknt, p01i, alti, mslp, vsby, gust, skyc1, skyc2, skyc3, skyc4, skyl1, skyl2, skyl3, skyl4, presentwx, metar
ATP,2017-04-01 00:15,-90.0269,27.1956,73.40,62.60,68.94,90.00,10.00,0.00,29.89,M,10.00,M,CLR,M,M,M,M,M,M,M,M,KATP 010015Z AUTO 09010KT 10SM CLR 23/17 A2989 RMK A01
ATP,2017-04-01 00:35,-90.0269,27.1956,73.40,62.60,68.94,100.00,11.00,0.00,29.89,M,10.00,M,FEW,M,M,M,2300.00,M,M,M,M,KATP 010035Z AUTO 10011KT 10SM FEW023 23/17 A2989 RMK A01
ATP,2017-04-01 00:55,-90.0269,27.1956,73.40,62.60,68.94,90.00,11.00,0.00,29.90,M,10.00,M,BKN,M,M,M,2300.00,M,M,M,M,KATP 010055Z AUTO 09011KT 10SM BKN023 23/17 A2990 RMK A01
ATP,2017-04-01 01:15,-90.0269,27.1956,73.40,62.60,68.94,90.00,12.00,0.00,29.91,M,10.00,M,BKN,M,M,M,2200.00,M,M,M,M,KATP 010115Z AUTO 09012KT 10SM BKN022 23/17 A2991 RMK A01
ATP,2017-04-01 01:35,-90.0269,27.1956,73.40,62.60,68.94,80.00,11.00,0.00,29.91,M,10.00,M,OVC,M,M,M,2300.00,M,M,M,M,KATP 010135Z AUTO 08011KT 10SM OVC023 23/17 A2991 RMK A01
ATP,2017-04-01 01:55,-90.0269,27.1956,73.40,62.60,68.94,90.00,12.00,0.00,29.91,M,10.00,M,BKN,M,M,M,2200.00,M,M,M,M,KATP 010155Z AUTO 09012KT 10SM BKN022 23/17 A2991 RMK A01
ATP,2017-04-01 02:15,-90.0269,27.1956,73.40,64.40,73.44,90.00,11.00,0.00,29.92,M,10.00,M,FEW,M,M,M,2100.00,M,M,M,M,KATP 010215Z AUTO 09011KT 10SM FEW021 23/18 A2992 RMK A01
ATP,2017-04-01 02:35,-90.0269,27.1956,71.60,64.40,78.04,100.00,12.00,0.00,29.93,M,10.00,M,CLR,M,M,M,M,M,M,M,M,KATP 010235Z AUTO 10012KT 10SM CLR 22/18 A2993 RMK A01
ATP,2017-04-01 02:40,-90.0269,27.1956,71.60,64.40,78.04,100.00,12.00,0.00,29.93,M,10.00,M,CLR,M,M,M,M,M,M,M,M,KATP 010240Z AUTO 10012KT 10SM CLR 22/18 A2993 RMK A01
ATP,2017-04-01 06:15,-90.0269,27.1956,71.60,64.40,78.04,120.00,13.00,0.00,29.93,M,10.00,M,BKN,OVC,M,M,2100.00,2600.00,M,M,M,KATP 010615Z AUTO 12013KT 10SM BKN021 OVC026 22/18 A2993 RMK A01
ATP,2017-04-01 06:35,-90.0269,27.1956,71.60,64.40,78.04,130.00,15.00,0.00,29.92,M,10.00,M,BKN,M,M,M,2000.00,M,M,M,M,KATP 010635Z AUTO 13015KT 10SM BKN020 22/18 A2992 RMK A01
ATP,2017-04-01 06:55,-90.0269,27.1956,71.60,64.40,78.04,120.00,15.00,0.00,29.92,M,10.00,M,BKN,M,M,M,2000.00,M,M,M,M,KATP 010655Z AUTO 12015KT 10SM BKN020 22/18 A2992 RMK A01
ATP,2017-04-01 07:15,-90.0269,27.1956,71.60,64.40,78.04,130.00,17.00,0.00,29.92,M,10.00,M,BKN,M,M,M,2000.00,M,M,M,M,KATP 010715Z AUTO 13017KT 10SM BKN020 22/18 A2992 RMK A01
ATP,2017-04-01 07:35,-90.0269,27.1956,71.60,64.40,78.04,120.00,14.00,0.00,29.92,M,10.00,M,BKN,M,M,M,1900.00,M,M,M,M,KATP 010735Z AUTO 12014KT 10SM BKN019 22/18 A2992 RMK A01
ATP,2017-04-01 07:55,-90.0269,27.1956,71.60,64.40,78.04,120.00,13.00,0.00,29.91,M,10.00,M,SCT,M,M,M,1900.00,M,M,M,M,KATP 010755Z AUTO 12013KT 10SM SCT019 22/18 A2991 RMK A01
ATP,2017-04-01 08:15,-90.0269,27.1956,71.60,64.40,78.04,130.00,13.00,0.00,29.91,M,10.00,M,SCT,M,M,M,1900.00,M,M,M,M,KATP 010815Z AUTO 13013KT 10SM SCT019 22/18 A2991 RMK A01
ATP,2017-04-01 08:35,-90.0269,27.1956,73.40,64.40,73.44,130.00,12.00,0.00,29.91,M,10.00,M,BKN,M,M,M,2000.00,M,M,M,M,KATP 010835Z AUTO 13012KT 10SM BKN020 23/18 A2991 RMK A01
ATP,2017-04-01 08:55,-90.0269,27.1956,73.40,64.40,73.44,120.00,12.00,0.00,29.91,M,10.00,M,OVC,M,M,M,2000.00,M,M,M,M,KATP 010855Z AUTO 12012KT 10SM OVC020 23/18 A2991 RMK A01
ATP,2017-04-01 09:15,-90.0269,27.1956,73.40,64.40,73.44,120.00,13.00,0.00,29.91,M,10.00,M,OVC,M,M,M,2100.00,M,M,M,M,KATP 010915Z AUTO 12013KT 10SM OVC021 23/18 A2991 RMK A01
ATP,2017-04-01 09:35,-90.0269,27.1956,73.40,64.40,73.44,120.00,10.00,0.00,29.91,M,10.00,M,BKN,M,M,M,2100.00,M,M,M,M,KATP 010935Z AUTO 12010KT 10SM BKN021 23/18 A2991 RMK A01
ATP,2017-04-01 09:55,-90.0269,27.1956,73.40,64.40,73.44,110.00,13.00,0.00,29.91,M,10.00,M,BKN,M,M,M,1900.00,M,M,M,M,KATP 010955Z AUTO 11013KT 10SM BKN019 23/18 A2991 RMK A01
ATP,2017-04-01 10:15,-90.0269,27.1956,73.40,66.20,78.19,120.00,13.00,0.00,29.91,M,10.00,M,BKN,M,M,M,1800.00,M,M,M,M,KATP 011015Z AUTO 12013KT 10SM BKN018 23/19 A2991 RMK A01
ATP,2017-04-01 10:35,-90.0269,27.1956,71.60,64.40,78.04,120.00,13.00,0.00,29.91,M,10.00,M,SCT,M,M,M,1800.00,M,M,M,M,KATP 011035Z AUTO 12013KT 10SM SCT018 22/18 A2991 RMK A01
ATP,2017-04-01 10:55,-90.0269,27.1956,71.60,64.40,78.04,120.00,14.00,0.00,29.92,M,10.00,M,FEW,M,M,M,1700.00,M,M,M,M,KATP 011055Z AUTO 12014KT 10SM FEW017 22/18 A2992 RMK A01
ATP,2017-04-01 11:15,-90.0269,27.1956,71.60,64.40,78.04,120.00,13.00,0.00,29.92,M,10.00,M,CLR,M,M,M,M,M,M,M,M,KATP 011115Z AUTO 12013KT 10SM CLR 22/18 A2992 RMK A01
ATP,2017-04-01 11:35,-90.0269,27.1956,71.60,66.20,83.09,120.00,13.00,0.00,29.93,M,10.00,M,FEW,M,M,M,1900.00,M,M,M,M,KATP 011135Z AUTO 12013KT 10SM FEW019 22/19 A2993 RMK A01
ATP,2017-04-01 11:55,-90.0269,27.1956,73.40,64.40,73.44,110.00,13.00,0.00,29.94,M,10.00,M,FEW,M,M,M,1900.00,M,M,M,M,KATP 011155Z AUTO 11013KT 10SM FEW019 23/18 A2994 RMK A01
ATP,2017-04-01 12:15,-90.0269,27.1956,73.40,66.20,78.19,110.00,15.00,0.00,29.94,M,10.00,M,SCT,M,M,M,2000.00,M,M,M,M,KATP 011215Z AUTO 11015KT 10SM SCT020 23/19 A2994 RMK A01
ATP,2017-04-01 12:35,-90.0269,27.1956,73.40,64.40,73.44,110.00,16.00,0.00,29.95,M,10.00,M,CLR,M,M,M,M,M,M,M,M,KATP 011235Z AUTO 11016KT 10SM CLR 23/18 A2995 RMK A01
ATP,2017-04-01 12:55,-90.0269,27.1956,73.40,66.20,78.19,110.00,16.00,0.00,29.95,M,10.00,M,CLR,M,M,M,M,M,M,M,M,KATP 011255Z AUTO 11016KT 10SM CLR 23/19 A2995 RMK A01
ATP,2017-04-01 13:15,-90.0269,27.1956,73.40,66.20,78.19,110.00,16.00,0.00,29.96,M,10.00,M,CLR,M,M,M,M,M,M,M,M,KATP 011315Z AUTO 11016KT 10SM CLR 23/19 A2996 RMK A01
ATP,2017-04-01 13:35,-90.0269,27.1956,73.40,66.20,78.19,110.00,17.00,0.00,29.96,M,10.00,M,CLR,M,M,M,M,M,M,M,M,KATP 011335Z AUTO 11017KT 10SM CLR 23/19 A2996 RMK A01
ATP,2017-04-01 13:55,-90.0269,27.1956,73.40,66.20,78.19,110.00,17.00,0.00,29.97,M,10.00,M,FEW,M,M,M,1800.00,M,M,M,M,KATP 011355Z AUTO 11017KT 10SM FEW018 23/19 A2997 RMK A01
ATP,2017-04-01 14:15,-90.0269,27.1956,73.40,66.20,78.19,110.00,18.00,0.00,29.97,M,10.00,M,FEW,M,M,M,1800.00,M,M,M,M,KATP 011415Z AUTO 11018KT 10SM FEW018 23/19 A2997 RMK A01
ATP,2017-04-01 14:35,-90.0269,27.1956,73.40,66.20,78.19,100.00,18.00,0.00,29.98,M,10.00,M,CLR,M,M,M,M,M,M,M,M,KATP 011435Z AUTO 10018KT 10SM CLR 23/19 A2998 RMK A01
ATP,2017-04-01 14:55,-90.0269,27.1956,73.40,66.20,78.19,110.00,18.00,0.00,29.98,M,10.00,M,CLR,M,M,M,M,M,M,M,M,KATP 011455Z AUTO 11018KT 10SM CLR 23/19 A2998 RMK A01
ATP,2017-04-01 15:15,-90.0269,27.1956,73.40,68.00,83.21,110.00,18.00,0.00,29.99,M,10.00,M,CLR,M,M,M,M,M,M,M,M,KATP 011515Z AUTO 11018KT 10SM CLR 23/20 A2999 RMK A01
ATP,2017-04-01 15:35,-90.0269,27.1956,73.40,68.00,83.21,100.00,19.00,0.00,29.99,M,10.00,M,CLR,M,M,M,M,M,M,M,M,KATP 011535Z AUTO 10019KT 10SM CLR 23/20 A2999 RMK A01
ATP,2017-04-01 15:55,-90.0269,27.1956,75.20,68.00,78.34,100.00,19.00,0.00,29.99,M,10.00,M,CLR,M,M,M,M,M,M,M,M,KATP 011555Z AUTO 10019KT 10SM CLR 24/20 A2999 RMK A01
ATP,2017-04-01 16:15,-90.0269,27.1956,75.20,68.00,78.34,110.00,20.00,0.00,29.99,M,10.00,M,CLR,M,M,M,M,M,M,M,M,KATP 011615Z AUTO 11020KT 10SM CLR 24/20 A2999 RMK A01
ATP,2017-04-01 16:35,-90.0269,27.1956,75.20,68.00,78.34,100.00,21.00,0.00,29.98,M,10.00,M,CLR,M,M,M,M,M,M,M,M,KATP 011635Z AUTO 10021KT 10SM CLR 24/20 A2998 RMK A01
ATP,2017-04-01 16:55,-90.0269,27.1956,75.20,68.00,78.34,110.00,21.00,0.00,29.98,M,10.00,M,CLR,M,M,M,M,M,M,M,M,KATP 011655Z AUTO 11021KT 10SM CLR 24/20 A2998 RMK A01
ATP,2017-04-01 17:15,-90.0269,27.1956,75.20,68.00,78.34,110.00,22.00,0.00,29.97,M,10.00,M,CLR,M,M,M,M,M,M,M,M,KATP 011715Z AUTO 11022KT 10SM CLR 24/20 A2997 RMK A01
ATP,2017-04-01 17:35,-90.0269,27.1956,75.20,68.00,78.34,110.00,22.00,0.00,29.97,M,10.00,M,CLR,M,M,M,M,M,M,M,M,KATP 011735Z AUTO 11022KT 10SM CLR 24/20 A2997 RMK A01
ATP,2017-04-01 17:55,-90.0269,27.1956,75.20,68.00,78.34,110.00,20.00,0.00,29.97,M,10.00,M,FEW,M,M,M,1500.00,M,M,M,M,KATP 011755Z AUTO 11020KT 10SM FEW015 24/20 A2997 RMK A01
ATP,2017-04-01 18:15,-90.0269,27.1956,75.20,69.80,83.32,120.00,20.00,0.00,29.97,M,10.00,M,BKN,M,M,M,1800.00,M,M,M,M,KATP 011815Z AUTO 12020KT 10SM BKN018 24/21 A2997 RMK A01
ATP,2017-04-01 18:35,-90.0269,27.1956,75.20,69.80,83.32,110.00,20.00,0.00,29.97,M,10.00,M,OVC,M,M,M,1700.00,M,M,M,M,KATP 011835Z AUTO 11020KT 10SM OVC017 24/21 A2997 RMK A01
ATP,2017-04-01 18:55,-90.0269,27.1956,75.20,69.80,83.32,110.00,22.00,0.00,29.95,M,10.00,M,OVC,M,M,M,1600.00,M,M,M,M,KATP 011855Z AUTO 11022KT 10SM OVC016 24/21 A2995 RMK A01
ATP,2017-04-01 19:15,-90.0269,27.1956,75.20,69.80,83.32,110.00,22.00,0.00,29.95,M,10.00,M,BKN,OVC,M,M,1600.00,2300.00,M,M,M,KATP 011915Z AUTO 11022KT 10SM BKN016 OVC023 24/21 A2995 RMK A01
ATP,2017-04-01 19:35,-90.0269,27.1956,75.20,69.80,83.32,110.00,20.00,0.00,29.95,M,10.00,M,FEW,BKN,M,M,1500.00,2100.00,M,M,M,KATP 011935Z AUTO 11020KT 10SM FEW015 BKN021 24/21 A2995 RMK A01
ATP,2017-04-01 19:55,-90.0269,27.1956,75.20,69.80,83.32,110.00,19.00,0.00,29.95,M,10.00,M,BKN,OVC,M,M,1600.00,2100.00,M,M,M,KATP 011955Z AUTO 11019KT 10SM BKN016 OVC021 24/21 A2995 RMK A01
ATP,2017-04-01 20:15,-90.0269,27.1956,75.20,69.80,83.32,110.00,19.00,0.00,29.94,M,10.00,M,OVC,M,M,M,1500.00,M,M,M,M,KATP 012015Z AUTO 11019KT 10SM OVC015 24/21 A2994 RMK A01
ATP,2017-04-01 20:35,-90.0269,27.1956,75.20,71.60,88.59,110.00,19.00,0.00,29.94,M,10.00,M,OVC,M,M,M,1500.00,M,M,M,M,KATP 012035Z AUTO 11019KT 10SM OVC015 24/22 A2994 RMK A01
ATP,2017-04-01 20:55,-90.0269,27.1956,75.20,71.60,88.59,110.00,21.00,0.00,29.94,M,10.00,M,OVC,M,M,M,1500.00,M,M,M,M,KATP 012055Z AUTO 11021KT 10SM OVC015 24/22 A2994 RMK A01
ATP,2017-04-01 21:15,-90.0269,27.1956,75.20,71.60,88.59,110.00,20.00,0.00,29.93,M,9.00,M,OVC,M,M,M,1500.00,M,M,M,M,KATP 012115Z AUTO 11020KT 9SM OVC015 24/22 A2993 RMK A01
ATP,2017-04-01 21:35,-90.0269,27.1956,75.20,71.60,88.59,110.00,19.00,0.00,29.93,M,9.00,M,OVC,M,M,M,1500.00,M,M,M,M,KATP 012135Z AUTO 11019KT 9SM OVC015 24/22 A2993 RMK A01
ATP,2017-04-01 21:55,-90.0269,27.1956,75.20,71.60,88.59,110.00,20.00,0.00,29.94,M,9.00,M,BKN,OVC,M,M,1700.00,2400.00,M,M,M,KATP 012155Z AUTO 11020KT 9SM BKN017 OVC024 24/22 A2994 RMK A01
ATP,2017-04-01 22:15,-90.0269,27.1956,75.20,71.60,88.59,110.00,22.00,0.00,29.93,M,8.00,M,SCT,BKN,OVC,M,1600.00,2300.00,3000.00,M,M,KATP 012215Z AUTO 11022KT 8SM SCT016 BKN023 OVC030 24/22 A2993 RMK A01
ATP,2017-04-01 22:35,-90.0269,27.1956,75.20,71.60,88.59,110.00,20.00,0.00,29.94,M,9.00,M,BKN,BKN,OVC,M,2200.00,3200.00,4000.00,M,M,KATP 012235Z AUTO 11020KT 9SM BKN022 BKN032 OVC040 24/22 A2994 RMK A01
ATP,2017-04-01 22:55,-90.0269,27.1956,75.20,71.60,88.59,110.00,20.00,0.00,29.93,M,7.00,M,FEW,SCT,BKN,M,1100.00,2300.00,3200.00,M,M,KATP 012255Z AUTO 11020KT 7SM FEW011 SCT023 BKN032 24/22 A2993 RMK A01
ATP,2017-04-01 23:15,-90.0269,27.1956,75.20,71.60,88.59,110.00,21.00,0.00,29.93,M,10.00,M,FEW,SCT,BKN,M,1200.00,1900.00,2500.00,M,M,KATP 012315Z AUTO 11021KT 10SM FEW012 SCT019 BKN025 24/22 A2993 RMK A01
ATP,2017-04-01 23:35,-90.0269,27.1956,75.20,71.60,88.59,110.00,19.00,0.00,29.94,M,10.00,M,FEW,BKN,BKN,M,1100.00,1900.00,2600.00,M,M,KATP 012335Z AUTO 11019KT 10SM FEW011 BKN019 BKN026 24/22 A2994 RMK A01
ATP,2017-04-01 23:55,-90.0269,27.1956,75.20,73.40,94.14,110.00,19.00,0.00,29.94,M,10.00,M,FEW,SCT,BKN,M,1100.00,1800.00,2400.00,M,M,KATP 012355Z AUTO 11019KT 10SM FEW011 SCT018 BKN024 24/23 A2994 RMK A01
