#DEBUG: Format Typ    -> comma
#DEBUG: Time Period   -> 2017-04-01 00:00:00+00:00 2017-04-02 00:00:00+00:00
#DEBUG: Time Zone     -> Etc/UTC
#DEBUG: Data Contact   -> daryl herzmann akrherz@iastate.edu 515-294-5978
#DEBUG: Entries Found -> -1
station,valid,lon,lat,tmpf, dwpf, relh, drct, sknt, p01i, alti, mslp, vsby, gust, skyc1, skyc2, skyc3, skyc4, skyl1, skyl2, skyl3, skyl4, presentwx, metar
ATW,2017-04-01 00:45,-88.5191,44.2581,46.40,17.60,31.28,40.00,4.00,0.00,29.97,M,10.00,M,BKN,M,M,M,12000.00,M,M,M,M,KATW 010045Z 04004KT 10SM BKN120 08/M08 A2997
ATW,2017-04-01 01:45,-88.5191,44.2581,44.60,15.80,30.98,30.00,5.00,0.00,30.01,M,10.00,M,BKN,M,M,M,12000.00,M,M,M,M,KATW 010145Z 03005KT 10SM BKN120 07/M09 A3001
ATW,2017-04-01 02:45,-88.5191,44.2581,42.80,15.80,33.18,60.00,3.00,0.00,30.02,M,10.00,M,SCT,M,M,M,12000.00,M,M,M,M,KATW 010245Z 06003KT 10SM SCT120 06/M09 A3002
ATW,2017-04-01 03:45,-88.5191,44.2581,37.40,17.60,44.25,0.00,0.00,0.00,30.04,M,10.00,M,SCT,M,M,M,12000.00,M,M,M,M,KATW 010345Z 00000KT 10SM SCT120 03/M08 A3004 RMK LAST
ATW,2017-04-01 04:15,-88.5191,44.2581,35.60,19.40,51.33,360.00,3.00,0.00,30.05,M,10.00,M,CLR,M,M,M,M,M,M,M,M,KATW 010415Z AUTO 36003KT 10SM CLR 02/M07 A3005 RMK AO2
ATW,2017-04-01 04:35,-88.5191,44.2581,33.80,19.40,55.14,0.00,0.00,0.00,30.05,M,10.00,M,CLR,M,M,M,M,M,M,M,M,KATW 010435Z AUTO 00000KT 10SM CLR 01/M07 A3005 RMK AO2
ATW,2017-04-01 04:55,-88.5191,44.2581,35.60,17.60,47.51,0.00,0.00,0.00,30.07,M,10.00,M,CLR,M,M,M,M,M,M,M,M,KATW 010455Z AUTO 00000KT 10SM CLR 02/M08 A3007 RMK AO2
ATW,2017-04-01 05:15,-88.5191,44.2581,32.00,19.40,59.27,0.00,0.00,0.00,30.08,M,10.00,M,CLR,M,M,M,M,M,M,M,M,KATW 010515Z AUTO 00000KT 10SM CLR 00/M07 A3008 RMK AO2
ATW,2017-04-01 05:35,-88.5191,44.2581,32.00,19.40,59.27,0.00,0.00,0.00,30.09,M,10.00,M,CLR,M,M,M,M,M,M,M,M,KATW 010535Z AUTO 00000KT 10SM CLR 00/M07 A3009 RMK AO2
ATW,2017-04-01 05:55,-88.5191,44.2581,32.00,19.40,59.27,290.00,3.00,0.00,30.09,M,10.00,M,CLR,M,M,M,M,M,M,M,M,KATW 010555Z AUTO 29003KT 10SM CLR 00/M07 A3009 RMK AO2
ATW,2017-04-01 06:15,-88.5191,44.2581,32.00,19.40,59.27,0.00,0.00,0.00,30.09,M,10.00,M,CLR,M,M,M,M,M,M,M,M,KATW 010615Z AUTO 00000KT 10SM CLR 00/M07 A3009 RMK AO2
ATW,2017-04-01 06:35,-88.5191,44.2581,32.00,19.40,59.27,0.00,0.00,0.00,30.08,M,10.00,M,CLR,M,M,M,M,M,M,M,M,KATW 010635Z AUTO 00000KT 10SM CLR 00/M07 A3008 RMK AO2
ATW,2017-04-01 06:55,-88.5191,44.2581,32.00,19.40,59.27,290.00,3.00,0.00,30.09,M,10.00,M,CLR,M,M,M,M,M,M,M,M,KATW 010655Z AUTO 29003KT 10SM CLR 00/M07 A3009 RMK AO2
ATW,2017-04-01 07:15,-88.5191,44.2581,33.80,19.40,55.14,260.00,4.00,0.00,30.10,M,10.00,M,CLR,M,M,M,M,M,M,M,M,KATW 010715Z AUTO 26004KT 10SM CLR 01/M07 A3010 RMK AO2
ATW,2017-04-01 07:35,-88.5191,44.2581,32.00,19.40,59.27,270.00,4.00,0.00,30.11,M,10.00,M,CLR,M,M,M,M,M,M,M,M,KATW 010735Z AUTO 27004KT 10SM CLR 00/M07 A3011 RMK AO2
ATW,2017-04-01 07:55,-88.5191,44.2581,32.00,19.40,59.27,270.00,6.00,0.00,30.12,M,10.00,M,CLR,M,M,M,M,M,M,M,M,KATW 010755Z AUTO 27006KT 10SM CLR 00/M07 A3012 RMK AO2
ATW,2017-04-01 08:15,-88.5191,44.2581,32.00,19.40,59.27,270.00,6.00,0.00,30.12,M,10.00,M,CLR,M,M,M,M,M,M,M,M,KATW 010815Z AUTO 27006KT 10SM CLR 00/M07 A3012 RMK AO2
ATW,2017-04-01 08:35,-88.5191,44.2581,32.00,19.40,59.27,270.00,5.00,0.00,30.12,M,10.00,M,CLR,M,M,M,M,M,M,M,M,KATW 010835Z AUTO 27005KT 10SM CLR 00/M07 A3012 RMK AO2
ATW,2017-04-01 08:55,-88.5191,44.2581,33.80,19.40,55.14,270.00,6.00,0.00,30.13,M,10.00,M,CLR,M,M,M,M,M,M,M,M,KATW 010855Z AUTO 27006KT 10SM CLR 01/M07 A3013 RMK AO2
ATW,2017-04-01 09:15,-88.5191,44.2581,32.00,19.40,59.27,300.00,5.00,0.00,30.12,M,10.00,M,CLR,M,M,M,M,M,M,M,M,KATW 010915Z AUTO 30005KT 10SM CLR 00/M07 A3012 RMK AO2
ATW,2017-04-01 09:35,-88.5191,44.2581,28.40,19.40,68.61,310.00,4.00,0.00,30.12,M,10.00,M,CLR,M,M,M,M,M,M,M,M,KATW 010935Z AUTO 31004KT 10SM CLR M02/M07 A3012 RMK AO2
ATW,2017-04-01 09:55,-88.5191,44.2581,30.20,19.40,63.75,310.00,4.00,0.00,30.12,M,10.00,M,CLR,M,M,M,M,M,M,M,M,KATW 010955Z AUTO 31004KT 10SM CLR M01/M07 A3012 RMK AO2
ATW,2017-04-01 10:15,-88.5191,44.2581,32.00,19.40,59.27,310.00,5.00,0.00,30.13,M,10.00,M,CLR,M,M,M,M,M,M,M,M,KATW 011015Z AUTO 31005KT 10SM CLR 00/M07 A3013 RMK AO2
ATW,2017-04-01 10:20,-88.5191,44.2581,32.00,19.40,59.27,310.00,5.00,0.00,30.13,M,10.00,M,SCT,M,M,M,12000.00,M,M,M,M,KATW 011020Z 31005KT 10SM SCT120 00/M07 A3013 RMK FIRST
ATW,2017-04-01 10:45,-88.5191,44.2581,33.80,19.40,55.14,310.00,7.00,0.00,30.13,M,10.00,M,SCT,M,M,M,12000.00,M,M,M,M,KATW 011045Z 31007KT 10SM SCT120 01/M07 A3013
ATW,2017-04-01 11:45,-88.5191,44.2581,30.20,17.60,59.01,330.00,6.00,0.00,30.14,M,10.00,M,SCT,SCT,M,M,7000.00,12000.00,M,M,M,KATW 011145Z 33006KT 10SM SCT070 SCT120 M01/M08 A3014
ATW,2017-04-01 12:45,-88.5191,44.2581,33.80,23.00,64.23,280.00,5.00,0.00,30.17,M,10.00,M,SCT,M,M,M,12000.00,M,M,M,M,KATW 011245Z 28005KT 10SM SCT120 01/M05 A3017
ATW,2017-04-01 13:45,-88.5191,44.2581,39.20,26.60,60.29,M,4.00,0.00,30.16,M,10.00,M,SCT,M,M,M,12000.00,M,M,M,M,KATW 011345Z VRB04KT 10SM SCT120 04/M03 A3016
ATW,2017-04-01 14:45,-88.5191,44.2581,42.80,26.60,52.45,260.00,6.00,0.00,30.19,M,10.00,M,SCT,M,M,M,12000.00,M,M,M,M,KATW 011445Z 26006KT 10SM SCT120 06/M03 A3019
ATW,2017-04-01 15:45,-88.5191,44.2581,48.20,23.00,36.78,260.00,5.00,0.00,30.20,M,10.00,M,SCT,M,M,M,12000.00,M,M,M,M,KATW 011545Z 26005KT 10SM SCT120 09/M05 A3020
ATW,2017-04-01 16:45,-88.5191,44.2581,51.80,17.60,25.56,280.00,8.00,0.00,30.20,M,10.00,M,SCT,M,M,M,12000.00,M,M,M,M,KATW 011645Z 28008KT 10SM SCT120 11/M08 A3020
ATW,2017-04-01 17:45,-88.5191,44.2581,55.40,17.60,22.41,270.00,4.00,0.00,30.18,M,10.00,M,SCT,M,M,M,12000.00,M,M,M,M,KATW 011745Z 27004KT 10SM SCT120 13/M08 A3018
ATW,2017-04-01 18:45,-88.5191,44.2581,59.00,21.20,22.95,M,3.00,0.00,30.16,M,10.00,M,SCT,M,M,M,12000.00,M,M,M,M,KATW 011845Z VRB03KT 10SM SCT120 15/M06 A3016
ATW,2017-04-01 19:45,-88.5191,44.2581,59.00,21.20,22.95,M,3.00,0.00,30.15,M,10.00,M,SCT,M,M,M,12000.00,M,M,M,M,KATW 011945Z VRB03KT 10SM SCT120 15/M06 A3015
ATW,2017-04-01 20:45,-88.5191,44.2581,60.80,21.20,21.53,M,3.00,0.00,30.13,M,10.00,M,SCT,M,M,M,6000.00,M,M,M,M,KATW 012045Z VRB03KT 10SM SCT060 16/M06 A3013
ATW,2017-04-01 21:45,-88.5191,44.2581,59.00,24.80,26.70,160.00,6.00,0.00,30.12,M,10.00,M,SCT,M,M,M,12000.00,M,M,M,M,KATW 012145Z 16006KT 10SM SCT120 15/M04 A3012
ATW,2017-04-01 22:45,-88.5191,44.2581,59.00,24.80,26.70,150.00,8.00,0.00,30.12,M,10.00,M,SCT,M,M,M,6000.00,M,M,M,M,KATW 012245Z 15008KT 10SM SCT060 15/M04 A3012
ATW,2017-04-01 23:45,-88.5191,44.2581,55.40,24.80,30.40,150.00,8.00,0.00,30.13,M,10.00,M,SCT,M,M,M,6000.00,M,M,M,M,KATW 012345Z 15008KT 10SM SCT060 13/M04 A3013
