#DEBUG: Format Typ    -> comma
#DEBUG: Time Period   -> 2017-04-01 00:00:00+00:00 2017-04-02 00:00:00+00:00
#DEBUG: Time Zone     -> Etc/UTC
#DEBUG: Data Contact   -> daryl herzmann akrherz@iastate.edu 515-294-5978
#DEBUG: Entries Found -> -1
station,valid,lon,lat,tmpf, dwpf, relh, drct, sknt, p01i, alti, mslp, vsby, gust, skyc1, skyc2, skyc3, skyc4, skyl1, skyl2, skyl3, skyl4, presentwx, metar
AUH,2017-04-01 00:15,-97.9946,40.8941,48.70,40.30,72.60,40.00,8.00,0.00,30.03,M,10.00,M,OVC,M,M,M,3500.00,M,M,M,M,KAUH 010015Z AUTO 04008KT 10SM OVC035 09/05 A3003 RMK AO2 T00930046
AUH,2017-04-01 00:35,-97.9946,40.8941,48.20,40.80,75.42,50.00,7.00,0.00,30.03,M,10.00,M,OVC,M,M,M,3500.00,M,M,M,M,KAUH 010035Z AUTO 05007KT 10SM OVC035 09/05 A3003 RMK AO2 T00900049
AUH,2017-04-01 00:55,-97.9946,40.8941,47.50,41.20,78.64,50.00,5.00,0.00,30.03,M,10.00,M,OVC,M,M,M,3500.00,M,M,M,M,KAUH 010055Z AUTO 05005KT 10SM OVC035 09/05 A3003 RMK AO2 T00860051
AUH,2017-04-01 01:15,-97.9946,40.8941,47.10,41.20,79.83,50.00,4.00,0.00,30.04,M,10.00,M,OVC,M,M,M,3500.00,M,M,M,M,KAUH 010115Z AUTO 05004KT 10SM OVC035 08/05 A3004 RMK AO2 T00840051
AUH,2017-04-01 01:35,-97.9946,40.8941,46.40,42.10,84.87,40.00,4.00,0.00,30.05,M,10.00,M,OVC,M,M,M,3500.00,M,M,M,M,KAUH 010135Z AUTO 04004KT 10SM OVC035 08/06 A3005 RMK AO2 T00800056
AUH,2017-04-01 01:55,-97.9946,40.8941,46.40,42.30,85.53,40.00,4.00,0.00,30.05,M,10.00,M,OVC,M,M,M,3500.00,M,M,M,M,KAUH 010155Z AUTO 04004KT 10SM OVC035 08/06 A3005 RMK AO2 T00800057
AUH,2017-04-01 02:15,-97.9946,40.8941,45.90,42.30,87.16,20.00,3.00,0.00,30.06,M,10.00,M,OVC,M,M,M,3300.00,M,M,M,M,KAUH 010215Z AUTO 02003KT 10SM OVC033 08/06 A3006 RMK AO2 T00770057
AUH,2017-04-01 02:35,-97.9946,40.8941,45.70,42.30,87.82,50.00,4.00,0.00,30.07,M,10.00,M,OVC,M,M,M,3500.00,M,M,M,M,KAUH 010235Z AUTO 05004KT 10SM OVC035 08/06 A3007 RMK AO2 T00760057
AUH,2017-04-01 02:55,-97.9946,40.8941,45.50,42.30,88.49,20.00,4.00,0.00,30.07,M,10.00,M,OVC,M,M,M,3700.00,M,M,M,M,KAUH 010255Z AUTO 02004KT 10SM OVC037 08/06 A3007 RMK AO2 T00750057
AUH,2017-04-01 03:15,-97.9946,40.8941,45.00,42.40,90.53,20.00,5.00,0.00,30.08,M,10.00,M,OVC,M,M,M,3700.00,M,M,M,M,KAUH 010315Z AUTO 02005KT 10SM OVC037 07/06 A3008 RMK AO2 T00720058
AUH,2017-04-01 03:35,-97.9946,40.8941,45.00,42.10,89.49,10.00,4.00,0.00,30.09,M,10.00,M,OVC,M,M,M,3700.00,M,M,M,M,KAUH 010335Z AUTO 01004KT 10SM OVC037 07/06 A3009 RMK AO2 T00720056
AUH,2017-04-01 03:55,-97.9946,40.8941,44.80,42.10,90.18,10.00,3.00,0.00,30.10,M,10.00,M,OVC,M,M,M,3700.00,M,M,M,M,KAUH 010355Z AUTO 01003KT 10SM OVC037 07/06 A3010 RMK AO2 T00710056
AUH,2017-04-01 04:15,-97.9946,40.8941,44.60,41.90,90.17,0.00,0.00,0.00,30.11,M,10.00,M,SCT,M,M,M,3700.00,M,M,M,M,KAUH 010415Z AUTO 00000KT 10SM SCT037 07/06 A3011 RMK AO2 T00700055
AUH,2017-04-01 04:35,-97.9946,40.8941,43.30,41.40,92.95,0.00,0.00,0.00,30.11,M,10.00,M,CLR,M,M,M,M,M,M,M,M,KAUH 010435Z AUTO 00000KT 10SM CLR 06/05 A3011 RMK AO2 T00630052
AUH,2017-04-01 04:55,-97.9946,40.8941,42.40,41.00,94.74,310.00,3.00,0.00,30.13,M,10.00,M,BKN,M,M,M,4100.00,M,M,M,M,KAUH 010455Z AUTO 31003KT 10SM BKN041 06/05 A3013 RMK AO2 T00580050
AUH,2017-04-01 05:15,-97.9946,40.8941,42.40,40.60,93.28,340.00,4.00,0.00,30.12,M,10.00,M,OVC,M,M,M,4100.00,M,M,M,M,KAUH 010515Z AUTO 34004KT 10SM OVC041 06/05 A3012 RMK AO2 T00580048
AUH,2017-04-01 05:35,-97.9946,40.8941,42.10,40.30,93.28,360.00,3.00,0.00,30.12,M,10.00,M,OVC,M,M,M,3900.00,M,M,M,M,KAUH 010535Z AUTO 36003KT 10SM OVC039 06/05 A3012 RMK AO2 T00560046
AUH,2017-04-01 05:55,-97.9946,40.8941,41.50,40.10,94.72,350.00,3.00,0.00,30.13,M,10.00,M,OVC,M,M,M,4100.00,M,M,M,M,KAUH 010555Z AUTO 35003KT 10SM OVC041 05/05 A3013 RMK AO2 T00530045 10096 20051 401150038
AUH,2017-04-01 06:15,-97.9946,40.8941,41.00,40.10,96.57,330.00,6.00,0.00,30.13,M,10.00,M,OVC,M,M,M,4100.00,M,M,M,M,KAUH 010615Z AUTO 33006KT 10SM OVC041 05/05 A3013 RMK AO2 T00500045
AUH,2017-04-01 06:35,-97.9946,40.8941,42.30,41.00,95.11,340.00,6.00,0.00,30.12,M,10.00,M,OVC,M,M,M,4100.00,M,M,M,M,KAUH 010635Z AUTO 34006KT 10SM OVC041 06/05 A3012 RMK AO2 T00570050
AUH,2017-04-01 06:55,-97.9946,40.8941,42.30,41.00,95.11,320.00,4.00,0.00,30.14,M,10.00,M,OVC,M,M,M,4100.00,M,M,M,M,KAUH 010655Z AUTO 32004KT 10SM OVC041 06/05 A3014 RMK AO2 T00570050
AUH,2017-04-01 07:15,-97.9946,40.8941,42.60,41.00,94.02,350.00,4.00,0.00,30.13,M,10.00,M,OVC,M,M,M,3900.00,M,M,M,M,KAUH 010715Z AUTO 35004KT 10SM OVC039 06/05 A3013 RMK AO2 T00590050
AUH,2017-04-01 07:35,-97.9946,40.8941,42.40,40.50,92.92,350.00,5.00,0.00,30.13,M,10.00,M,OVC,M,M,M,4100.00,M,M,M,M,KAUH 010735Z AUTO 35005KT 10SM OVC041 06/05 A3013 RMK AO2 T00580047
AUH,2017-04-01 07:55,-97.9946,40.8941,41.40,39.40,92.53,350.00,6.00,0.00,30.13,M,10.00,M,SCT,M,M,M,4100.00,M,M,M,M,KAUH 010755Z AUTO 35006KT 10SM SCT041 05/04 A3013 RMK AO2 T00520041
AUH,2017-04-01 08:15,-97.9946,40.8941,39.90,38.10,93.21,350.00,7.00,0.00,30.13,M,10.00,M,SCT,M,M,M,3500.00,M,M,M,M,KAUH 010815Z AUTO 35007KT 10SM SCT035 04/03 A3013 RMK AO2 T00440034
AUH,2017-04-01 08:35,-97.9946,40.8941,40.10,38.30,93.22,360.00,6.00,0.00,30.12,M,10.00,M,SCT,M,M,M,3500.00,M,M,M,M,KAUH 010835Z AUTO 36006KT 10SM SCT035 05/04 A3012 RMK AO2 LTG DSNT S T00450035
AUH,2017-04-01 08:55,-97.9946,40.8941,39.20,37.80,94.67,10.00,5.00,0.00,30.13,M,10.00,M,CLR,M,M,M,M,M,M,M,M,KAUH 010855Z AUTO 01005KT 10SM CLR 04/03 A3013 RMK AO2 T00400032
AUH,2017-04-01 09:15,-97.9946,40.8941,38.80,37.60,95.41,0.00,0.00,0.00,30.14,M,10.00,M,CLR,M,M,M,M,M,M,M,M,KAUH 010915Z AUTO 00000KT 10SM CLR 04/03 A3014 RMK AO2 T00380031
AUH,2017-04-01 09:35,-97.9946,40.8941,39.00,37.90,95.78,0.00,0.00,0.00,30.14,M,10.00,M,CLR,M,M,M,M,M,M,M,M,KAUH 010935Z AUTO 00000KT 10SM CLR 04/03 A3014 RMK AO2 T00390033
AUH,2017-04-01 09:55,-97.9946,40.8941,37.80,37.20,97.67,0.00,0.00,0.00,30.15,M,10.00,M,CLR,M,M,M,M,M,M,M,M,KAUH 010955Z AUTO 00000KT 10SM CLR 03/03 A3015 RMK AO2 T00320029
AUH,2017-04-01 10:15,-97.9946,40.8941,36.90,36.50,98.43,350.00,3.00,0.00,30.15,M,10.00,M,CLR,M,M,M,M,M,M,M,M,KAUH 011015Z AUTO 35003KT 10SM CLR 03/03 A3015 RMK AO2 T00270025
AUH,2017-04-01 10:35,-97.9946,40.8941,36.10,36.00,99.60,330.00,4.00,0.00,30.16,M,10.00,M,CLR,M,M,M,M,M,M,M,M,KAUH 011035Z AUTO 33004KT 10SM CLR 02/02 A3016 RMK AO2 T00230022
AUH,2017-04-01 10:55,-97.9946,40.8941,37.00,37.00,100.00,350.00,6.00,0.00,30.17,M,10.00,M,CLR,M,M,M,M,M,M,M,M,KAUH 011055Z AUTO 35006KT 10SM CLR 03/03 A3017 RMK AO2 LTG DSNT S T00280028
AUH,2017-04-01 11:15,-97.9946,40.8941,37.20,37.00,99.22,10.00,3.00,0.00,30.17,M,10.00,M,CLR,M,M,M,M,M,M,M,M,KAUH 011115Z AUTO 01003KT 10SM CLR 03/03 A3017 RMK AO2 LTG DSNT S T00290028
AUH,2017-04-01 11:35,-97.9946,40.8941,37.20,37.20,100.00,30.00,4.00,0.00,30.17,M,5.00,M,CLR,M,M,M,M,M,M,M,BR,KAUH 011135Z AUTO 03004KT 5SM BR CLR 03/03 A3017 RMK AO2 T00290029
AUH,2017-04-01 11:55,-97.9946,40.8941,37.40,37.40,100.00,30.00,7.00,0.00,30.16,M,3.00,M,BKN,M,M,M,200.00,M,M,M,BR,KAUH 011155Z AUTO 03007KT 3SM BR BKN002 03/03 A3016 RMK AO2 T00300030 10060 20023
AUH,2017-04-01 12:15,-97.9946,40.8941,37.60,37.60,100.00,30.00,9.00,0.00,30.16,M,1.00,M,OVC,M,M,M,200.00,M,M,M,BR,KAUH 011215Z AUTO 03009KT 1SM BR OVC002 03/03 A3016 RMK AO2 T00310031
AUH,2017-04-01 12:35,-97.9946,40.8941,37.60,37.60,100.00,40.00,8.00,0.00,30.17,M,0.50,M,OVC,M,M,M,200.00,M,M,M,FG,KAUH 011235Z AUTO 04008KT 1/2SM FG OVC002 03/03 A3017 RMK AO2 T00310031
AUH,2017-04-01 12:55,-97.9946,40.8941,37.90,37.90,100.00,40.00,8.00,0.00,30.17,M,0.25,M,OVC,M,M,M,200.00,M,M,M,FG,KAUH 011255Z AUTO 04008KT 1/4SM FG OVC002 03/03 A3017 RMK AO2 LTG DSNT S T00330033
AUH,2017-04-01 13:15,-97.9946,40.8941,38.30,38.30,100.00,50.00,8.00,0.00,30.16,M,0.25,M,OVC,M,M,M,200.00,M,M,M,FG,KAUH 011315Z AUTO 05008KT 1/4SM FG OVC002 04/04 A3016 RMK AO2 T00350035
AUH,2017-04-01 13:35,-97.9946,40.8941,38.50,38.50,100.00,70.00,8.00,0.00,30.17,M,0.25,M,OVC,M,M,M,200.00,M,M,M,FG,KAUH 011335Z AUTO 07008KT 1/4SM FG OVC002 04/04 A3017 RMK AO2 T00360036
AUH,2017-04-01 13:55,-97.9946,40.8941,38.70,38.70,100.00,90.00,9.00,0.00,30.18,M,0.50,M,OVC,M,M,M,200.00,M,M,M,FG,KAUH 011355Z AUTO 09009KT 1/2SM FG OVC002 04/04 A3018 RMK AO2 T00370037
AUH,2017-04-01 14:15,-97.9946,40.8941,38.80,38.80,100.00,90.00,7.00,0.00,30.20,M,1.00,M,OVC,M,M,M,200.00,M,M,M,BR,KAUH 011415Z AUTO 09007KT 1SM BR OVC002 04/04 A3020 RMK AO2 T00380038
AUH,2017-04-01 14:35,-97.9946,40.8941,39.20,39.20,100.00,110.00,6.00,0.00,30.21,M,2.00,M,OVC,M,M,M,200.00,M,M,M,BR,KAUH 011435Z AUTO 11006KT 2SM BR OVC002 04/04 A3021 RMK AO2 T00400040
AUH,2017-04-01 14:55,-97.9946,40.8941,39.40,39.40,100.00,110.00,7.00,0.00,30.21,M,2.50,M,OVC,M,M,M,200.00,M,M,M,BR,KAUH 011455Z AUTO 11007KT 2 1/2SM BR OVC002 04/04 A3021 RMK AO2 T00410041
AUH,2017-04-01 15:15,-97.9946,40.8941,40.10,40.10,100.00,100.00,5.00,0.00,30.21,M,4.00,M,OVC,M,M,M,200.00,M,M,M,BR,KAUH 011515Z AUTO 10005KT 4SM BR OVC002 05/05 A3021 RMK AO2 T00450045
AUH,2017-04-01 15:35,-97.9946,40.8941,40.80,40.80,100.00,90.00,8.00,0.00,30.20,M,4.00,M,OVC,M,M,M,400.00,M,M,M,BR,KAUH 011535Z AUTO 09008KT 4SM BR OVC004 05/05 A3020 RMK AO2 T00490049
AUH,2017-04-01 15:55,-97.9946,40.8941,41.20,41.20,100.00,80.00,6.00,0.00,30.20,M,4.00,M,OVC,M,M,M,400.00,M,M,M,BR,KAUH 011555Z AUTO 08006KT 4SM BR OVC004 05/05 A3020 RMK AO2 T00510051
AUH,2017-04-01 16:15,-97.9946,40.8941,41.70,41.70,100.00,110.00,7.00,0.00,30.20,M,5.00,M,OVC,M,M,M,400.00,M,M,M,BR,KAUH 011615Z AUTO 11007KT 5SM BR OVC004 05/05 A3020 RMK AO2 T00540054
AUH,2017-04-01 16:35,-97.9946,40.8941,42.40,42.10,98.85,90.00,8.00,0.00,30.19,M,7.00,M,OVC,M,M,M,400.00,M,M,M,M,KAUH 011635Z AUTO 09008KT 7SM OVC004 06/06 A3019 RMK AO2 T00580056
AUH,2017-04-01 16:55,-97.9946,40.8941,42.80,42.10,97.34,110.00,5.00,0.00,30.19,M,7.00,M,OVC,M,M,M,600.00,M,M,M,M,KAUH 011655Z AUTO 11005KT 7SM OVC006 06/06 A3019 RMK AO2 T00600056
AUH,2017-04-01 17:15,-97.9946,40.8941,43.20,42.10,95.86,100.00,7.00,0.00,30.18,M,7.00,M,OVC,M,M,M,600.00,M,M,M,M,KAUH 011715Z AUTO 10007KT 7SM OVC006 06/06 A3018 RMK AO2 T00620056
AUH,2017-04-01 17:35,-97.9946,40.8941,44.10,42.30,93.33,120.00,7.00,0.00,30.18,M,10.00,M,OVC,M,M,M,800.00,M,M,M,M,KAUH 011735Z AUTO 12007KT 10SM OVC008 07/06 A3018 RMK AO2 T00670057
AUH,2017-04-01 17:55,-97.9946,40.8941,45.00,42.30,90.19,50.00,8.00,0.00,30.16,M,10.00,M,BKN,OVC,M,M,800.00,1200.00,M,M,M,KAUH 011755Z AUTO 05008KT 10SM BKN008 OVC012 07/06 A3016 RMK AO2 T00720057 10072 20030
AUH,2017-04-01 18:15,-97.9946,40.8941,45.70,42.10,87.15,60.00,7.00,0.00,30.16,M,10.00,M,BKN,OVC,M,M,1000.00,1400.00,M,M,M,KAUH 011815Z AUTO 06007KT 10SM BKN010 OVC014 08/06 A3016 RMK AO2 T00760056
AUH,2017-04-01 18:35,-97.9946,40.8941,45.70,41.90,86.48,90.00,6.00,0.00,30.17,M,10.00,M,OVC,M,M,M,1000.00,M,M,M,M,KAUH 011835Z AUTO 09006KT 10SM OVC010 08/06 A3017 RMK AO2 LTG DSNT SW T00760055
AUH,2017-04-01 18:55,-97.9946,40.8941,45.90,41.70,85.17,120.00,8.00,0.00,30.18,M,10.00,M,OVC,M,M,M,1200.00,M,M,M,M,KAUH 011855Z AUTO 12008KT 10SM OVC012 08/05 A3018 RMK AO2 T00770054
AUH,2017-04-01 19:15,-97.9946,40.8941,45.10,41.20,86.11,120.00,7.00,0.00,30.18,M,10.00,M,OVC,M,M,M,1200.00,M,M,M,M,KAUH 011915Z AUTO 12007KT 10SM OVC012 07/05 A3018 RMK AO2 T00730051
AUH,2017-04-01 19:35,-97.9946,40.8941,44.60,41.00,87.09,160.00,5.00,0.00,30.18,M,10.00,M,OVC,M,M,M,1200.00,M,M,M,M,KAUH 011935Z AUTO 16005KT 10SM OVC012 07/05 A3018 RMK AO2 T00700050
AUH,2017-04-01 19:55,-97.9946,40.8941,44.10,41.00,88.77,120.00,7.00,0.00,30.17,M,10.00,M,OVC,M,M,M,1200.00,M,M,M,M,KAUH 011955Z AUTO 12007KT 10SM OVC012 07/05 A3017 RMK AO2 T00670050
AUH,2017-04-01 20:15,-97.9946,40.8941,43.90,41.40,90.84,90.00,8.00,0.00,30.15,M,7.00,M,OVC,M,M,M,1000.00,M,M,M,-RA,KAUH 012015Z AUTO 09008KT 7SM -RA OVC010 07/05 A3015 RMK AO2 T00660052
AUH,2017-04-01 20:35,-97.9946,40.8941,43.90,41.40,90.84,90.00,5.00,0.00,30.15,M,7.00,M,OVC,M,M,M,1000.00,M,M,M,M,KAUH 012035Z AUTO 09005KT 7SM OVC010 07/05 A3015 RMK AO2 T00660052
AUH,2017-04-01 20:55,-97.9946,40.8941,44.10,41.20,89.46,60.00,3.00,0.00,30.16,M,7.00,M,OVC,M,M,M,1200.00,M,M,M,M,KAUH 012055Z AUTO 06003KT 7SM OVC012 07/05 A3016 RMK AO2 LTG DSNT S T00670051
AUH,2017-04-01 21:15,-97.9946,40.8941,44.60,41.50,88.79,40.00,4.00,0.00,30.15,M,7.00,M,OVC,M,M,M,1400.00,M,M,M,-RA,KAUH 012115Z AUTO 04004KT 7SM -RA OVC014 07/05 A3015 RMK AO2 T00700053
AUH,2017-04-01 21:35,-97.9946,40.8941,44.60,41.90,90.17,40.00,6.00,0.00,30.14,M,7.00,M,OVC,M,M,M,1400.00,M,M,M,M,KAUH 012135Z AUTO 04006KT 7SM OVC014 07/06 A3014 RMK AO2 T00700055
AUH,2017-04-01 21:55,-97.9946,40.8941,44.60,41.90,90.17,60.00,7.00,0.00,30.13,M,7.00,M,OVC,M,M,M,1400.00,M,M,M,M,KAUH 012155Z AUTO 06007KT 7SM OVC014 07/06 A3013 RMK AO2 T00700055
AUH,2017-04-01 22:15,-97.9946,40.8941,44.60,41.70,89.48,100.00,6.00,0.00,30.14,M,7.00,M,OVC,M,M,M,1400.00,M,M,M,-DZ,KAUH 012215Z AUTO 10006KT 7SM -DZ OVC014 07/05 A3014 RMK AO2 T00700054
AUH,2017-04-01 22:35,-97.9946,40.8941,44.10,42.10,92.62,90.00,7.00,0.00,30.12,M,7.00,M,OVC,M,M,M,1400.00,M,M,M,-DZ,KAUH 012235Z AUTO 09007KT 7SM -DZ OVC014 07/06 A3012 RMK AO2 LTG DSNT SW T00670056
AUH,2017-04-01 22:55,-97.9946,40.8941,43.70,42.10,94.04,80.00,9.00,0.01,30.09,M,5.00,M,SCT,SCT,OVC,M,1600.00,3700.00,8500.00,M,-RA,KAUH 012255Z AUTO 08009KT 5SM -RA SCT016 SCT037 OVC085 07/06 A3009 RMK AO2 P0001 T00650056
AUH,2017-04-01 23:15,-97.9946,40.8941,43.30,41.90,94.76,110.00,7.00,0.00,30.12,M,5.00,M,SCT,OVC,M,M,1600.00,8500.00,M,M,-DZ,KAUH 012315Z AUTO 11007KT 5SM -DZ SCT016 OVC085 06/06 A3012 RMK AO2 T00630055
AUH,2017-04-01 23:35,-97.9946,40.8941,43.20,41.90,95.13,110.00,7.00,0.00,30.14,M,7.00,M,BKN,OVC,M,M,7000.00,8500.00,M,M,-DZ,KAUH 012335Z AUTO 11007KT 7SM -DZ BKN070 OVC085 06/06 A3014 RMK AO2 T00620055
AUH,2017-04-01 23:55,-97.9946,40.8941,42.80,41.90,96.60,120.00,8.00,0.01,30.15,M,5.00,M,SCT,OVC,M,M,1900.00,7000.00,M,M,-RA,KAUH 012355Z AUTO 12008KT 5SM -RA SCT019 OVC070 06/06 A3015 RMK AO2 P0001 60002 T00600055 10079 20060
