#DEBUG: Format Typ    -> comma
#DEBUG: Time Period   -> 2017-04-01 00:00:00+00:00 2017-04-02 00:00:00+00:00
#DEBUG: Time Zone     -> Etc/UTC
#DEBUG: Data Contact   -> daryl herzmann akrherz@iastate.edu 515-294-5978
#DEBUG: Entries Found -> -1
station,valid,lon,lat,tmpf, dwpf, relh, drct, sknt, p01i, alti, mslp, vsby, gust, skyc1, skyc2, skyc3, skyc4, skyl1, skyl2, skyl3, skyl4, presentwx, metar
AUN,2017-04-01 00:15,-121.0817,38.9548,66.20,33.80,29.92,300.00,10.00,0.00,29.93,M,10.00,14.00,CLR,M,M,M,M,M,M,M,M,KAUN 010015Z AUTO 30010G14KT 10SM CLR 19/01 A2993 RMK AO1
AUN,2017-04-01 00:35,-121.0817,38.9548,66.20,35.60,32.14,310.00,7.00,0.00,29.93,M,10.00,15.00,CLR,M,M,M,M,M,M,M,M,KAUN 010035Z AUTO 31007G15KT 040V050 10SM CLR 19/02 A2993 RMK AO1
AUN,2017-04-01 00:55,-121.0817,38.9548,66.20,35.60,32.14,320.00,4.00,0.00,29.93,M,10.00,M,CLR,M,M,M,M,M,M,M,M,KAUN 010055Z AUTO 32004KT 10SM CLR 19/02 A2993 RMK AO1
AUN,2017-04-01 01:15,-121.0817,38.9548,66.20,35.60,32.14,310.00,4.00,0.00,29.93,M,10.00,M,CLR,M,M,M,M,M,M,M,M,KAUN 010115Z AUTO 31004KT 10SM CLR 19/02 A2993 RMK AO1
AUN,2017-04-01 01:35,-121.0817,38.9548,68.00,32.00,26.15,10.00,7.00,0.00,29.93,M,10.00,M,CLR,M,M,M,M,M,M,M,M,KAUN 010135Z AUTO 01007KT 10SM CLR 20/00 A2993 RMK AO1
AUN,2017-04-01 01:55,-121.0817,38.9548,68.00,32.00,26.15,20.00,3.00,0.00,29.94,M,10.00,M,CLR,M,M,M,M,M,M,M,M,KAUN 010155Z AUTO 02003KT 10SM CLR 20/00 A2994 RMK AO1
AUN,2017-04-01 02:15,-121.0817,38.9548,66.20,32.00,27.83,30.00,4.00,0.00,29.95,M,10.00,M,CLR,M,M,M,M,M,M,M,M,KAUN 010215Z AUTO 03004KT 10SM CLR 19/00 A2995 RMK AO1
AUN,2017-04-01 02:35,-121.0817,38.9548,64.40,32.00,29.63,10.00,4.00,0.00,29.95,M,10.00,M,CLR,M,M,M,M,M,M,M,M,KAUN 010235Z AUTO 01004KT 10SM CLR 18/00 A2995 RMK AO1
AUN,2017-04-01 02:55,-121.0817,38.9548,64.40,32.00,29.63,20.00,3.00,0.00,29.96,M,10.00,M,CLR,M,M,M,M,M,M,M,M,KAUN 010255Z AUTO 02003KT 10SM CLR 18/00 A2996 RMK AO1
AUN,2017-04-01 03:15,-121.0817,38.9548,62.60,32.00,31.56,30.00,3.00,0.00,29.97,M,10.00,M,CLR,M,M,M,M,M,M,M,M,KAUN 010315Z AUTO 03003KT 10SM CLR 17/00 A2997 RMK AO1
AUN,2017-04-01 03:35,-121.0817,38.9548,62.60,32.00,31.56,50.00,3.00,0.00,29.98,M,10.00,M,CLR,M,M,M,M,M,M,M,M,KAUN 010335Z AUTO 05003KT 10SM CLR 17/00 A2998 RMK AO1
AUN,2017-04-01 03:55,-121.0817,38.9548,62.60,32.00,31.56,40.00,6.00,0.00,29.99,M,10.00,M,CLR,M,M,M,M,M,M,M,M,KAUN 010355Z AUTO 04006KT 10SM CLR 17/00 A2999 RMK AO1
AUN,2017-04-01 04:15,-121.0817,38.9548,60.80,32.00,33.64,50.00,5.00,0.00,29.99,M,10.00,M,CLR,M,M,M,M,M,M,M,M,KAUN 010415Z AUTO 05005KT 10SM CLR 16/00 A2999 RMK AO1
AUN,2017-04-01 04:35,-121.0817,38.9548,60.80,32.00,33.64,60.00,3.00,0.00,30.00,M,10.00,M,CLR,M,M,M,M,M,M,M,M,KAUN 010435Z AUTO 06003KT 10SM CLR 16/00 A3000 RMK AO1
AUN,2017-04-01 04:55,-121.0817,38.9548,60.80,32.00,33.64,50.00,3.00,0.00,30.00,M,10.00,M,CLR,M,M,M,M,M,M,M,M,KAUN 010455Z AUTO 05003KT 10SM CLR 16/00 A3000 RMK AO1
AUN,2017-04-01 05:15,-121.0817,38.9548,59.00,32.00,35.87,30.00,5.00,0.00,30.01,M,10.00,M,CLR,M,M,M,M,M,M,M,M,KAUN 010515Z AUTO 03005KT 10SM CLR 15/00 A3001 RMK AO1
AUN,2017-04-01 05:35,-121.0817,38.9548,59.00,32.00,35.87,40.00,4.00,0.00,30.00,M,10.00,M,CLR,M,M,M,M,M,M,M,M,KAUN 010535Z AUTO 04004KT 10SM CLR 15/00 A3000 RMK AO1
AUN,2017-04-01 05:55,-121.0817,38.9548,60.80,32.00,33.64,40.00,5.00,0.00,30.00,M,10.00,M,CLR,M,M,M,M,M,M,M,M,KAUN 010555Z AUTO 04005KT 10SM CLR 16/00 A3000 RMK AO1
AUN,2017-04-01 06:15,-121.0817,38.9548,59.00,32.00,35.87,40.00,5.00,0.00,30.00,M,10.00,M,CLR,M,M,M,M,M,M,M,M,KAUN 010615Z AUTO 04005KT 10SM CLR 15/00 A3000 RMK AO1
AUN,2017-04-01 06:35,-121.0817,38.9548,59.00,32.00,35.87,10.00,5.00,0.00,30.00,M,10.00,M,CLR,M,M,M,M,M,M,M,M,KAUN 010635Z AUTO 01005KT 10SM CLR 15/00 A3000 RMK AO1
AUN,2017-04-01 06:55,-121.0817,38.9548,57.20,32.00,38.26,30.00,6.00,0.00,30.00,M,10.00,M,CLR,M,M,M,M,M,M,M,M,KAUN 010655Z AUTO 03006KT 10SM CLR 14/00 A3000 RMK AO1
AUN,2017-04-01 07:15,-121.0817,38.9548,57.20,32.00,38.26,40.00,7.00,0.00,30.00,M,10.00,M,CLR,M,M,M,M,M,M,M,M,KAUN 010715Z AUTO 04007KT 10SM CLR 14/00 A3000 RMK AO1
AUN,2017-04-01 07:35,-121.0817,38.9548,59.00,32.00,35.87,30.00,4.00,0.00,30.00,M,10.00,M,CLR,M,M,M,M,M,M,M,M,KAUN 010735Z AUTO 03004KT 10SM CLR 15/00 A3000 RMK AO1
AUN,2017-04-01 07:55,-121.0817,38.9548,57.20,32.00,38.26,40.00,4.00,0.00,30.01,M,10.00,M,CLR,M,M,M,M,M,M,M,M,KAUN 010755Z AUTO 04004KT 10SM CLR 14/00 A3001 RMK AO1
AUN,2017-04-01 08:15,-121.0817,38.9548,57.20,33.80,41.13,30.00,4.00,0.00,30.02,M,10.00,M,CLR,M,M,M,M,M,M,M,M,KAUN 010815Z AUTO 03004KT 10SM CLR 14/01 A3002 RMK AO1
AUN,2017-04-01 08:35,-121.0817,38.9548,59.00,32.00,35.87,50.00,5.00,0.00,30.01,M,10.00,M,CLR,M,M,M,M,M,M,M,M,KAUN 010835Z AUTO 05005KT 10SM CLR 15/00 A3001 RMK AO1
AUN,2017-04-01 08:55,-121.0817,38.9548,59.00,32.00,35.87,40.00,5.00,0.00,29.99,M,10.00,M,CLR,M,M,M,M,M,M,M,M,KAUN 010855Z AUTO 04005KT 10SM CLR 15/00 A2999 RMK AO1
AUN,2017-04-01 09:15,-121.0817,38.9548,57.20,32.00,38.26,10.00,5.00,0.00,30.00,M,10.00,M,CLR,M,M,M,M,M,M,M,M,KAUN 010915Z AUTO 01005KT 10SM CLR 14/00 A3000 RMK AO1
AUN,2017-04-01 09:35,-121.0817,38.9548,53.60,33.80,46.88,100.00,3.00,0.00,30.00,M,10.00,M,CLR,M,M,M,M,M,M,M,M,KAUN 010935Z AUTO 10003KT 10SM CLR 12/01 A3000 RMK AO1
AUN,2017-04-01 09:55,-121.0817,38.9548,53.60,33.80,46.88,100.00,5.00,0.00,29.99,M,10.00,M,CLR,M,M,M,M,M,M,M,M,KAUN 010955Z AUTO 10005KT 10SM CLR 12/01 A2999 RMK AO1
AUN,2017-04-01 10:15,-121.0817,38.9548,53.60,33.80,46.88,80.00,3.00,0.00,29.99,M,10.00,M,CLR,M,M,M,M,M,M,M,M,KAUN 011015Z AUTO 08003KT 10SM CLR 12/01 A2999 RMK AO1
AUN,2017-04-01 10:35,-121.0817,38.9548,53.60,33.80,46.88,100.00,6.00,0.00,29.98,M,10.00,M,CLR,M,M,M,M,M,M,M,M,KAUN 011035Z AUTO 10006KT 10SM CLR 12/01 A2998 RMK AO1
AUN,2017-04-01 10:55,-121.0817,38.9548,51.80,33.80,50.08,90.00,5.00,0.00,29.99,M,10.00,M,CLR,M,M,M,M,M,M,M,M,KAUN 011055Z AUTO 09005KT 10SM CLR 11/01 A2999 RMK AO1
AUN,2017-04-01 11:15,-121.0817,38.9548,51.80,33.80,50.08,100.00,4.00,0.00,29.99,M,10.00,M,CLR,M,M,M,M,M,M,M,M,KAUN 011115Z AUTO 10004KT 10SM CLR 11/01 A2999 RMK AO1
AUN,2017-04-01 11:35,-121.0817,38.9548,51.80,33.80,50.08,70.00,5.00,0.00,29.99,M,10.00,M,CLR,M,M,M,M,M,M,M,M,KAUN 011135Z AUTO 07005KT 10SM CLR 11/01 A2999 RMK AO1
AUN,2017-04-01 11:55,-121.0817,38.9548,51.80,33.80,50.08,110.00,6.00,0.00,30.00,M,10.00,M,CLR,M,M,M,M,M,M,M,M,KAUN 011155Z AUTO 11006KT 10SM CLR 11/01 A3000 RMK AO1
AUN,2017-04-01 12:15,-121.0817,38.9548,53.60,32.00,43.61,80.00,6.00,0.00,30.00,M,10.00,M,CLR,M,M,M,M,M,M,M,M,KAUN 011215Z AUTO 08006KT 10SM CLR 12/00 A3000 RMK AO1
AUN,2017-04-01 12:35,-121.0817,38.9548,55.40,32.00,40.84,100.00,4.00,0.00,30.00,M,10.00,M,CLR,M,M,M,M,M,M,M,M,KAUN 011235Z AUTO 10004KT 10SM CLR 13/00 A3000 RMK AO1
AUN,2017-04-01 12:55,-121.0817,38.9548,55.40,32.00,40.84,80.00,6.00,0.00,30.00,M,10.00,M,CLR,M,M,M,M,M,M,M,M,KAUN 011255Z AUTO 08006KT 10SM CLR 13/00 A3000 RMK AO1
AUN,2017-04-01 13:15,-121.0817,38.9548,51.80,33.80,50.08,0.00,0.00,0.00,30.00,M,10.00,M,CLR,M,M,M,M,M,M,M,M,KAUN 011315Z AUTO 00000KT 10SM CLR 11/01 A3000 RMK AO1
AUN,2017-04-01 13:35,-121.0817,38.9548,44.60,35.60,70.48,0.00,0.00,0.00,30.01,M,10.00,M,CLR,M,M,M,M,M,M,M,M,KAUN 011335Z AUTO 00000KT 10SM CLR 07/02 A3001 RMK AO1
AUN,2017-04-01 13:55,-121.0817,38.9548,48.20,35.60,61.52,160.00,5.00,0.00,30.01,M,10.00,M,CLR,M,M,M,M,M,M,M,M,KAUN 011355Z AUTO 16005KT 10SM CLR 09/02 A3001 RMK AO1
AUN,2017-04-01 14:15,-121.0817,38.9548,46.40,37.40,70.68,150.00,3.00,0.00,30.02,M,10.00,M,CLR,M,M,M,M,M,M,M,M,KAUN 011415Z AUTO 15003KT 10SM CLR 08/03 A3002 RMK AO1
AUN,2017-04-01 14:35,-121.0817,38.9548,50.00,35.60,57.52,0.00,0.00,0.00,30.03,M,10.00,M,CLR,M,M,M,M,M,M,M,M,KAUN 011435Z AUTO 00000KT 10SM CLR 10/02 A3003 RMK AO1
AUN,2017-04-01 14:55,-121.0817,38.9548,51.80,39.20,61.99,0.00,0.00,0.00,30.04,M,10.00,M,CLR,M,M,M,M,M,M,M,M,KAUN 011455Z AUTO 00000KT 10SM CLR 11/04 A3004 RMK AO1
AUN,2017-04-01 15:15,-121.0817,38.9548,53.60,39.20,58.02,0.00,0.00,0.00,30.04,M,10.00,M,CLR,M,M,M,M,M,M,M,M,KAUN 011515Z AUTO 00000KT 10SM CLR 12/04 A3004 RMK AO1
AUN,2017-04-01 15:35,-121.0817,38.9548,55.40,37.40,50.64,0.00,0.00,0.00,30.04,M,10.00,M,CLR,M,M,M,M,M,M,M,M,KAUN 011535Z AUTO 00000KT 10SM CLR 13/03 A3004 RMK AO1
AUN,2017-04-01 15:55,-121.0817,38.9548,55.40,37.40,50.64,0.00,0.00,0.00,30.05,M,10.00,M,CLR,M,M,M,M,M,M,M,M,KAUN 011555Z AUTO 00000KT 10SM CLR 13/03 A3005 RMK AO1
AUN,2017-04-01 16:15,-121.0817,38.9548,57.20,39.20,50.91,0.00,0.00,0.00,30.06,M,10.00,M,CLR,M,M,M,M,M,M,M,M,KAUN 011615Z AUTO 00000KT 10SM CLR 14/04 A3006 RMK AO1
AUN,2017-04-01 16:35,-121.0817,38.9548,57.20,37.40,47.44,190.00,4.00,0.00,30.06,M,10.00,M,CLR,M,M,M,M,M,M,M,M,KAUN 011635Z AUTO 19004KT 10SM CLR 14/03 A3006 RMK AO1
AUN,2017-04-01 16:55,-121.0817,38.9548,59.00,37.40,44.47,180.00,4.00,0.00,30.06,M,10.00,M,CLR,M,M,M,M,M,M,M,M,KAUN 011655Z AUTO 18004KT 10SM CLR 15/03 A3006 RMK AO1
AUN,2017-04-01 17:15,-121.0817,38.9548,60.80,39.20,44.76,220.00,5.00,0.00,30.06,M,10.00,M,CLR,M,M,M,M,M,M,M,M,KAUN 011715Z AUTO 22005KT 10SM CLR 16/04 A3006 RMK AO1
AUN,2017-04-01 17:35,-121.0817,38.9548,60.80,39.20,44.76,230.00,4.00,0.00,30.06,M,10.00,M,CLR,M,M,M,M,M,M,M,M,KAUN 011735Z AUTO 23004KT 10SM CLR 16/04 A3006 RMK AO1
AUN,2017-04-01 17:55,-121.0817,38.9548,60.80,39.20,44.76,180.00,3.00,0.00,30.06,M,10.00,M,CLR,M,M,M,M,M,M,M,M,KAUN 011755Z AUTO 18003KT 10SM CLR 16/04 A3006 RMK AO1
AUN,2017-04-01 18:15,-121.0817,38.9548,62.60,39.20,42.00,0.00,0.00,0.00,30.06,M,10.00,M,CLR,M,M,M,M,M,M,M,M,KAUN 011815Z AUTO 00000KT 10SM CLR 17/04 A3006 RMK AO1
AUN,2017-04-01 18:35,-121.0817,38.9548,62.60,39.20,42.00,0.00,0.00,0.00,30.05,M,10.00,M,CLR,M,M,M,M,M,M,M,M,KAUN 011835Z AUTO 00000KT 10SM CLR 17/04 A3005 RMK AO1
AUN,2017-04-01 18:55,-121.0817,38.9548,64.40,39.20,39.43,0.00,0.00,0.00,30.05,M,10.00,M,CLR,M,M,M,M,M,M,M,M,KAUN 011855Z AUTO 00000KT 10SM CLR 18/04 A3005 RMK AO1
AUN,2017-04-01 19:15,-121.0817,38.9548,64.40,39.20,39.43,220.00,5.00,0.00,30.05,M,10.00,M,CLR,M,M,M,M,M,M,M,M,KAUN 011915Z AUTO 22005KT 10SM CLR 18/04 A3005 RMK AO1
AUN,2017-04-01 19:35,-121.0817,38.9548,66.20,42.80,42.57,270.00,7.00,0.00,30.05,M,10.00,M,CLR,M,M,M,M,M,M,M,M,KAUN 011935Z AUTO 27007KT 040V040 10SM CLR 19/06 A3005 RMK AO1
AUN,2017-04-01 19:55,-121.0817,38.9548,66.20,44.60,45.60,270.00,5.00,0.00,30.05,M,10.00,M,CLR,M,M,M,M,M,M,M,M,KAUN 011955Z AUTO 27005KT 10SM CLR 19/07 A3005 RMK AO1
AUN,2017-04-01 20:15,-121.0817,38.9548,66.20,44.60,45.60,270.00,4.00,0.00,30.05,M,10.00,M,CLR,M,M,M,M,M,M,M,M,KAUN 012015Z AUTO 27004KT 10SM CLR 19/07 A3005 RMK AO1
AUN,2017-04-01 20:35,-121.0817,38.9548,66.20,46.40,48.83,270.00,9.00,0.00,30.05,M,10.00,M,CLR,M,M,M,M,M,M,M,M,KAUN 012035Z AUTO 27009KT 040V050 10SM CLR 19/08 A3005 RMK AO1
AUN,2017-04-01 20:55,-121.0817,38.9548,66.20,46.40,48.83,250.00,7.00,0.00,30.05,M,10.00,M,CLR,M,M,M,M,M,M,M,M,KAUN 012055Z AUTO 25007KT 10SM CLR 19/08 A3005 RMK AO1
AUN,2017-04-01 21:15,-121.0817,38.9548,66.20,44.60,45.60,340.00,6.00,0.00,30.05,M,10.00,M,CLR,M,M,M,M,M,M,M,M,KAUN 012115Z AUTO 34006KT 10SM CLR 19/07 A3005 RMK AO1
AUN,2017-04-01 21:35,-121.0817,38.9548,68.00,44.60,42.85,320.00,5.00,0.00,30.04,M,10.00,M,CLR,M,M,M,M,M,M,M,M,KAUN 012135Z AUTO 32005KT 10SM CLR 20/07 A3004 RMK AO1
AUN,2017-04-01 21:55,-121.0817,38.9548,69.80,44.60,40.29,280.00,4.00,0.00,30.03,M,10.00,M,CLR,M,M,M,M,M,M,M,M,KAUN 012155Z AUTO 28004KT 10SM CLR 21/07 A3003 RMK AO1
AUN,2017-04-01 22:15,-121.0817,38.9548,69.80,44.60,40.29,330.00,4.00,0.00,30.02,M,10.00,M,CLR,M,M,M,M,M,M,M,M,KAUN 012215Z AUTO 33004KT 10SM CLR 21/07 A3002 RMK AO1
AUN,2017-04-01 22:35,-121.0817,38.9548,71.60,46.40,40.57,300.00,6.00,0.00,30.02,M,10.00,M,CLR,M,M,M,M,M,M,M,M,KAUN 012235Z AUTO 30006KT 10SM CLR 22/08 A3002 RMK AO1
AUN,2017-04-01 22:55,-121.0817,38.9548,71.60,44.60,37.89,280.00,5.00,0.00,30.01,M,10.00,M,CLR,M,M,M,M,M,M,M,M,KAUN 012255Z AUTO 28005KT 10SM CLR 22/07 A3001 RMK AO1
AUN,2017-04-01 23:15,-121.0817,38.9548,71.60,44.60,37.89,280.00,5.00,0.00,30.01,M,10.00,M,CLR,M,M,M,M,M,M,M,M,KAUN 012315Z AUTO 28005KT 10SM CLR 22/07 A3001 RMK AO1
AUN,2017-04-01 23:35,-121.0817,38.9548,71.60,44.60,37.89,300.00,3.00,0.00,30.00,M,10.00,M,CLR,M,M,M,M,M,M,M,M,KAUN 012335Z AUTO 30003KT 10SM CLR 22/07 A3000 RMK AO1
AUN,2017-04-01 23:55,-121.0817,38.9548,71.60,44.60,37.89,190.00,3.00,0.00,30.00,M,10.00,M,CLR,M,M,M,M,M,M,M,M,KAUN 012355Z AUTO 19003KT 10SM CLR 22/07 A3000 RMK AO1
