#DEBUG: Format Typ    -> comma
#DEBUG: Time Period   -> 2017-04-01 00:00:00+00:00 2017-04-02 00:00:00+00:00
#DEBUG: Time Zone     -> Etc/UTC
#DEBUG: Data Contact   -> daryl herzmann akrherz@iastate.edu 515-294-5978
#DEBUG: Entries Found -> -1
station,valid,lon,lat,tmpf, dwpf, relh, drct, sknt, p01i, alti, mslp, vsby, gust, skyc1, skyc2, skyc3, skyc4, skyl1, skyl2, skyl3, skyl4, presentwx, metar
AUS,2017-04-01 00:00,-97.6699,30.1945,M,M,M,150.00,12.00,M,29.72,M,10.00,M,CLR,M,M,M,M,M,M,M,M,KAUS 010000Z AUTO 15012KT 10SM CLR A2972 RMK MADISHF
AUS,2017-04-01 00:05,-97.6699,30.1945,M,M,M,140.00,12.00,M,29.72,M,10.00,M,CLR,M,M,M,M,M,M,M,M,KAUS 010005Z AUTO 14012KT 10SM CLR A2972 RMK MADISHF
AUS,2017-04-01 00:10,-97.6699,30.1945,M,M,M,140.00,11.00,M,29.72,M,10.00,M,CLR,M,M,M,M,M,M,M,M,KAUS 010010Z AUTO 14011KT 10SM CLR A2972 RMK MADISHF
AUS,2017-04-01 00:15,-97.6699,30.1945,M,M,M,140.00,14.00,M,29.72,M,10.00,M,CLR,M,M,M,M,M,M,M,M,KAUS 010015Z AUTO 14014KT 10SM CLR A2972 RMK MADISHF
AUS,2017-04-01 00:20,-97.6699,30.1945,M,M,M,130.00,13.00,M,29.72,M,10.00,M,CLR,M,M,M,M,M,M,M,M,KAUS 010020Z AUTO 13013KT 10SM CLR A2972 RMK MADISHF
AUS,2017-04-01 00:25,-97.6699,30.1945,M,M,M,M,M,M,29.72,M,10.00,M,CLR,M,M,M,M,M,M,M,M,KAUS 010025Z AUTO /////KT 10SM CLR A2972 RMK MADISHF
AUS,2017-04-01 00:30,-97.6699,30.1945,M,M,M,140.00,13.00,M,29.72,M,10.00,M,CLR,M,M,M,M,M,M,M,M,KAUS 010030Z AUTO 14013KT 10SM CLR A2972 RMK MADISHF
AUS,2017-04-01 00:35,-97.6699,30.1945,M,M,M,140.00,13.00,M,29.72,M,10.00,M,CLR,M,M,M,M,M,M,M,M,KAUS 010035Z AUTO 14013KT 10SM CLR A2972 RMK MADISHF
AUS,2017-04-01 00:40,-97.6699,30.1945,M,M,M,150.00,12.00,M,29.72,M,10.00,M,CLR,M,M,M,M,M,M,M,M,KAUS 010040Z AUTO 15012KT 10SM CLR A2972 RMK MADISHF
AUS,2017-04-01 00:45,-97.6699,30.1945,M,M,M,150.00,10.00,M,29.73,M,10.00,M,CLR,M,M,M,M,M,M,M,M,KAUS 010045Z AUTO 15010KT 10SM CLR A2973 RMK MADISHF
AUS,2017-04-01 00:50,-97.6699,30.1945,M,M,M,130.00,10.00,M,29.73,M,10.00,M,M,M,M,M,M,M,M,M,M,KAUS 010050Z AUTO 13010KT 10SM A2973 RMK MADISHF
AUS,2017-04-01 00:53,-97.6699,30.1945,77.00,52.00,41.72,140.00,9.00,0.00,29.73,1006.20,10.00,M,FEW,M,M,M,20000.00,M,M,M,M,KAUS 010053Z 14009KT 10SM FEW200 25/11 A2973 RMK AO2 SLP062 T02500111
AUS,2017-04-01 00:55,-97.6699,30.1945,M,M,M,130.00,9.00,M,29.73,M,10.00,M,CLR,M,M,M,M,M,M,M,M,KAUS 010055Z AUTO 13009KT 10SM CLR A2973 RMK MADISHF
AUS,2017-04-01 01:00,-97.6699,30.1945,M,M,M,130.00,9.00,M,29.73,M,10.00,M,CLR,M,M,M,M,M,M,M,M,KAUS 010100Z AUTO 13009KT 10SM CLR A2973 RMK MADISHF
AUS,2017-04-01 01:05,-97.6699,30.1945,M,M,M,130.00,10.00,M,29.74,M,10.00,M,CLR,M,M,M,M,M,M,M,M,KAUS 010105Z AUTO 13010KT 10SM CLR A2974 RMK MADISHF
AUS,2017-04-01 01:10,-97.6699,30.1945,M,M,M,140.00,9.00,M,29.74,M,10.00,M,CLR,M,M,M,M,M,M,M,M,KAUS 010110Z AUTO 14009KT 10SM CLR A2974 RMK MADISHF
AUS,2017-04-01 01:15,-97.6699,30.1945,M,M,M,140.00,11.00,M,29.74,M,10.00,M,CLR,M,M,M,M,M,M,M,M,KAUS 010115Z AUTO 14011KT 10SM CLR A2974 RMK MADISHF
AUS,2017-04-01 01:20,-97.6699,30.1945,M,M,M,150.00,12.00,M,29.74,M,10.00,M,CLR,M,M,M,M,M,M,M,M,KAUS 010120Z AUTO 15012KT 10SM CLR A2974 RMK MADISHF
AUS,2017-04-01 01:25,-97.6699,30.1945,M,M,M,150.00,11.00,M,29.75,M,10.00,M,CLR,M,M,M,M,M,M,M,M,KAUS 010125Z AUTO 15011KT 10SM CLR A2975 RMK MADISHF
AUS,2017-04-01 01:30,-97.6699,30.1945,M,M,M,140.00,10.00,M,29.75,M,10.00,M,CLR,M,M,M,M,M,M,M,M,KAUS 010130Z AUTO 14010KT 10SM CLR A2975 RMK MADISHF
AUS,2017-04-01 01:35,-97.6699,30.1945,M,M,M,140.00,9.00,M,29.75,M,10.00,M,CLR,M,M,M,M,M,M,M,M,KAUS 010135Z AUTO 14009KT 10SM CLR A2975 RMK MADISHF
AUS,2017-04-01 01:40,-97.6699,30.1945,M,M,M,140.00,10.00,M,29.75,M,10.00,M,CLR,M,M,M,M,M,M,M,M,KAUS 010140Z AUTO 14010KT 10SM CLR A2975 RMK MADISHF
AUS,2017-04-01 01:45,-97.6699,30.1945,M,M,M,140.00,10.00,M,29.75,M,10.00,M,CLR,M,M,M,M,M,M,M,M,KAUS 010145Z AUTO 14010KT 10SM CLR A2975 RMK MADISHF
AUS,2017-04-01 01:50,-97.6699,30.1945,M,M,M,140.00,11.00,M,29.75,M,10.00,M,CLR,M,M,M,M,M,M,M,M,KAUS 010150Z AUTO 14011KT 10SM CLR A2975 RMK MADISHF
AUS,2017-04-01 01:53,-97.6699,30.1945,73.90,51.10,44.76,140.00,11.00,0.00,29.75,1006.90,10.00,M,CLR,M,M,M,M,M,M,M,M,KAUS 010153Z 14011KT 10SM CLR 23/11 A2975 RMK AO2 SLP069 T02330106
AUS,2017-04-01 01:55,-97.6699,30.1945,M,M,M,140.00,10.00,M,29.75,M,10.00,M,CLR,M,M,M,M,M,M,M,M,KAUS 010155Z AUTO 14010KT 10SM CLR A2975 RMK MADISHF
AUS,2017-04-01 02:00,-97.6699,30.1945,M,M,M,140.00,8.00,M,29.76,M,10.00,M,CLR,M,M,M,M,M,M,M,M,KAUS 010200Z AUTO 14008KT 10SM CLR A2976 RMK MADISHF
AUS,2017-04-01 02:05,-97.6699,30.1945,M,M,M,140.00,8.00,M,29.76,M,10.00,M,CLR,M,M,M,M,M,M,M,M,KAUS 010205Z AUTO 14008KT 10SM CLR A2976 RMK MADISHF
AUS,2017-04-01 02:10,-97.6699,30.1945,M,M,M,140.00,7.00,M,29.76,M,10.00,M,CLR,M,M,M,M,M,M,M,M,KAUS 010210Z AUTO 14007KT 10SM CLR A2976 RMK MADISHF
AUS,2017-04-01 02:15,-97.6699,30.1945,M,M,M,140.00,8.00,M,29.76,M,10.00,M,CLR,M,M,M,M,M,M,M,M,KAUS 010215Z AUTO 14008KT 10SM CLR A2976 RMK MADISHF
AUS,2017-04-01 02:20,-97.6699,30.1945,M,M,M,150.00,7.00,M,29.77,M,10.00,M,CLR,M,M,M,M,M,M,M,M,KAUS 010220Z AUTO 15007KT 10SM CLR A2977 RMK MADISHF
AUS,2017-04-01 02:25,-97.6699,30.1945,M,M,M,150.00,9.00,M,29.77,M,10.00,M,CLR,M,M,M,M,M,M,M,M,KAUS 010225Z AUTO 15009KT 10SM CLR A2977 RMK MADISHF
AUS,2017-04-01 02:30,-97.6699,30.1945,M,M,M,140.00,10.00,M,29.77,M,10.00,M,CLR,M,M,M,M,M,M,M,M,KAUS 010230Z AUTO 14010KT 10SM CLR A2977 RMK MADISHF
AUS,2017-04-01 02:35,-97.6699,30.1945,M,M,M,140.00,10.00,M,29.77,M,10.00,M,CLR,M,M,M,M,M,M,M,M,KAUS 010235Z AUTO 14010KT 10SM CLR A2977 RMK MADISHF
AUS,2017-04-01 02:40,-97.6699,30.1945,M,M,M,140.00,9.00,M,29.77,M,10.00,M,CLR,M,M,M,M,M,M,M,M,KAUS 010240Z AUTO 14009KT 10SM CLR A2977 RMK MADISHF
AUS,2017-04-01 02:45,-97.6699,30.1945,M,M,M,150.00,9.00,M,29.77,M,10.00,M,CLR,M,M,M,M,M,M,M,M,KAUS 010245Z AUTO 15009KT 10SM CLR A2977 RMK MADISHF
AUS,2017-04-01 02:50,-97.6699,30.1945,M,M,M,150.00,9.00,M,29.77,M,10.00,M,CLR,M,M,M,M,M,M,M,M,KAUS 010250Z AUTO 15009KT 10SM CLR A2977 RMK MADISHF
AUS,2017-04-01 02:53,-97.6699,30.1945,70.00,48.90,47.06,150.00,9.00,0.00,29.78,1007.60,10.00,M,CLR,M,M,M,M,M,M,M,M,KAUS 010253Z 15009KT 10SM CLR 21/09 A2978 RMK AO2 SLP076 T02110094 53019
AUS,2017-04-01 02:55,-97.6699,30.1945,M,M,M,150.00,8.00,M,29.78,M,10.00,M,CLR,M,M,M,M,M,M,M,M,KAUS 010255Z AUTO 15008KT 10SM CLR A2978 RMK MADISHF
AUS,2017-04-01 03:00,-97.6699,30.1945,M,M,M,150.00,8.00,M,29.78,M,10.00,M,CLR,M,M,M,M,M,M,M,M,KAUS 010300Z AUTO 15008KT 10SM CLR A2978 RMK MADISHF
AUS,2017-04-01 03:05,-97.6699,30.1945,M,M,M,140.00,9.00,M,29.78,M,10.00,M,CLR,M,M,M,M,M,M,M,M,KAUS 010305Z AUTO 14009KT 10SM CLR A2978 RMK MADISHF
AUS,2017-04-01 03:10,-97.6699,30.1945,M,M,M,150.00,9.00,M,29.78,M,10.00,M,CLR,M,M,M,M,M,M,M,M,KAUS 010310Z AUTO 15009KT 10SM CLR A2978 RMK MADISHF
AUS,2017-04-01 03:15,-97.6699,30.1945,M,M,M,150.00,9.00,M,29.78,M,10.00,M,CLR,M,M,M,M,M,M,M,M,KAUS 010315Z AUTO 15009KT 10SM CLR A2978 RMK MADISHF
AUS,2017-04-01 03:20,-97.6699,30.1945,M,M,M,140.00,8.00,M,29.78,M,10.00,M,CLR,M,M,M,M,M,M,M,M,KAUS 010320Z AUTO 14008KT 10SM CLR A2978 RMK MADISHF
AUS,2017-04-01 03:25,-97.6699,30.1945,M,M,M,150.00,8.00,M,29.78,M,10.00,M,CLR,M,M,M,M,M,M,M,M,KAUS 010325Z AUTO 15008KT 10SM CLR A2978 RMK MADISHF
AUS,2017-04-01 03:30,-97.6699,30.1945,M,M,M,150.00,8.00,M,29.79,M,10.00,M,CLR,M,M,M,M,M,M,M,M,KAUS 010330Z AUTO 15008KT 10SM CLR A2979 RMK MADISHF
AUS,2017-04-01 03:35,-97.6699,30.1945,M,M,M,150.00,8.00,M,29.79,M,10.00,M,CLR,M,M,M,M,M,M,M,M,KAUS 010335Z AUTO 15008KT 10SM CLR A2979 RMK MADISHF
AUS,2017-04-01 03:40,-97.6699,30.1945,M,M,M,150.00,9.00,M,29.79,M,10.00,M,CLR,M,M,M,M,M,M,M,M,KAUS 010340Z AUTO 15009KT 10SM CLR A2979 RMK MADISHF
AUS,2017-04-01 03:45,-97.6699,30.1945,M,M,M,150.00,9.00,M,29.79,M,10.00,M,CLR,M,M,M,M,M,M,M,M,KAUS 010345Z AUTO 15009KT 10SM CLR A2979 RMK MADISHF
AUS,2017-04-01 03:50,-97.6699,30.1945,M,M,M,150.00,11.00,M,29.79,M,10.00,M,CLR,M,M,M,M,M,M,M,M,KAUS 010350Z AUTO 15011KT 10SM CLR A2979 RMK MADISHF
AUS,2017-04-01 03:53,-97.6699,30.1945,66.90,53.10,61.16,160.00,11.00,0.00,29.79,1007.90,10.00,M,CLR,M,M,M,M,M,M,M,M,KAUS 010353Z 16011KT 10SM CLR 19/12 A2979 RMK AO2 SLP079 T01940117
AUS,2017-04-01 03:55,-97.6699,30.1945,M,M,M,160.00,11.00,M,29.79,M,10.00,M,CLR,M,M,M,M,M,M,M,M,KAUS 010355Z AUTO 16011KT 10SM CLR A2979 RMK MADISHF
AUS,2017-04-01 04:00,-97.6699,30.1945,M,M,M,160.00,9.00,M,29.79,M,10.00,M,CLR,M,M,M,M,M,M,M,M,KAUS 010400Z AUTO 16009KT 10SM CLR A2979 RMK MADISHF
AUS,2017-04-01 04:05,-97.6699,30.1945,M,M,M,160.00,10.00,M,29.79,M,10.00,M,CLR,M,M,M,M,M,M,M,M,KAUS 010405Z AUTO 16010KT 10SM CLR A2979 RMK MADISHF
AUS,2017-04-01 04:10,-97.6699,30.1945,M,M,M,160.00,8.00,M,29.79,M,10.00,M,CLR,M,M,M,M,M,M,M,M,KAUS 010410Z AUTO 16008KT 10SM CLR A2979 RMK MADISHF
AUS,2017-04-01 04:15,-97.6699,30.1945,M,M,M,160.00,10.00,M,29.79,M,10.00,M,CLR,M,M,M,M,M,M,M,M,KAUS 010415Z AUTO 16010KT 10SM CLR A2979 RMK MADISHF
AUS,2017-04-01 04:20,-97.6699,30.1945,M,M,M,150.00,10.00,M,29.79,M,10.00,M,CLR,M,M,M,M,M,M,M,M,KAUS 010420Z AUTO 15010KT 10SM CLR A2979 RMK MADISHF
AUS,2017-04-01 04:25,-97.6699,30.1945,M,M,M,150.00,11.00,M,29.79,M,10.00,M,CLR,M,M,M,M,M,M,M,M,KAUS 010425Z AUTO 15011KT 10SM CLR A2979 RMK MADISHF
AUS,2017-04-01 04:30,-97.6699,30.1945,M,M,M,150.00,9.00,M,29.79,M,10.00,M,CLR,M,M,M,M,M,M,M,M,KAUS 010430Z AUTO 15009KT 10SM CLR A2979 RMK MADISHF
AUS,2017-04-01 04:35,-97.6699,30.1945,M,M,M,150.00,9.00,M,29.79,M,10.00,M,CLR,M,M,M,M,M,M,M,M,KAUS 010435Z AUTO 15009KT 10SM CLR A2979 RMK MADISHF
AUS,2017-04-01 04:40,-97.6699,30.1945,M,M,M,140.00,8.00,M,29.79,M,10.00,M,CLR,M,M,M,M,M,M,M,M,KAUS 010440Z AUTO 14008KT 10SM CLR A2979 RMK MADISHF
AUS,2017-04-01 04:45,-97.6699,30.1945,M,M,M,150.00,7.00,M,29.79,M,10.00,M,CLR,M,M,M,M,M,M,M,M,KAUS 010445Z AUTO 15007KT 10SM CLR A2979 RMK MADISHF
AUS,2017-04-01 04:50,-97.6699,30.1945,M,M,M,140.00,6.00,M,29.79,M,10.00,M,CLR,M,M,M,M,M,M,M,M,KAUS 010450Z AUTO 14006KT 10SM CLR A2979 RMK MADISHF
AUS,2017-04-01 04:53,-97.6699,30.1945,64.90,57.90,78.05,130.00,6.00,0.00,29.79,1008.20,10.00,M,CLR,M,M,M,M,M,M,M,M,KAUS 010453Z 13006KT 10SM CLR 18/14 A2979 RMK AO2 SLP082 T01830144
AUS,2017-04-01 04:55,-97.6699,30.1945,M,M,M,130.00,7.00,M,29.79,M,10.00,M,CLR,M,M,M,M,M,M,M,M,KAUS 010455Z AUTO 13007KT 10SM CLR A2979 RMK MADISHF
AUS,2017-04-01 05:00,-97.6699,30.1945,M,M,M,140.00,7.00,M,29.79,M,10.00,M,CLR,M,M,M,M,M,M,M,M,KAUS 010500Z AUTO 14007KT 10SM CLR A2979 RMK MADISHF
AUS,2017-04-01 05:05,-97.6699,30.1945,M,M,M,150.00,8.00,M,29.79,M,10.00,M,CLR,M,M,M,M,M,M,M,M,KAUS 010505Z AUTO 15008KT 10SM CLR A2979 RMK MADISHF
AUS,2017-04-01 05:10,-97.6699,30.1945,M,M,M,150.00,6.00,M,29.80,M,10.00,M,CLR,M,M,M,M,M,M,M,M,KAUS 010510Z AUTO 15006KT 10SM CLR A2980 RMK MADISHF
AUS,2017-04-01 05:15,-97.6699,30.1945,M,M,M,140.00,6.00,M,29.80,M,10.00,M,CLR,M,M,M,M,M,M,M,M,KAUS 010515Z AUTO 14006KT 10SM CLR A2980 RMK MADISHF
AUS,2017-04-01 05:20,-97.6699,30.1945,M,M,M,140.00,4.00,M,29.80,M,10.00,M,CLR,M,M,M,M,M,M,M,M,KAUS 010520Z AUTO 14004KT 10SM CLR A2980 RMK MADISHF
AUS,2017-04-01 05:25,-97.6699,30.1945,M,M,M,140.00,4.00,M,29.80,M,10.00,M,CLR,M,M,M,M,M,M,M,-RA,KAUS 010525Z AUTO 14004KT 10SM -RA CLR A2980 RMK MADISHF
AUS,2017-04-01 05:30,-97.6699,30.1945,M,M,M,130.00,5.00,M,29.80,M,10.00,M,CLR,M,M,M,M,M,M,M,M,KAUS 010530Z AUTO 13005KT 10SM CLR A2980 RMK MADISHF
AUS,2017-04-01 05:35,-97.6699,30.1945,M,M,M,130.00,6.00,M,29.80,M,10.00,M,FEW,M,M,M,1200.00,M,M,M,M,KAUS 010535Z AUTO 13006KT 10SM FEW012 A2980 RMK MADISHF
AUS,2017-04-01 05:40,-97.6699,30.1945,M,M,M,130.00,6.00,M,29.80,M,10.00,M,SCT,M,M,M,1200.00,M,M,M,M,KAUS 010540Z AUTO 13006KT 10SM SCT012 A2980 RMK MADISHF
AUS,2017-04-01 05:45,-97.6699,30.1945,M,M,M,120.00,4.00,M,29.80,M,10.00,M,SCT,M,M,M,1200.00,M,M,M,M,KAUS 010545Z AUTO 12004KT 10SM SCT012 A2980 RMK MADISHF
AUS,2017-04-01 05:50,-97.6699,30.1945,M,M,M,140.00,3.00,M,29.80,M,10.00,M,BKN,M,M,M,1200.00,M,M,M,M,KAUS 010550Z AUTO 14003KT 10SM BKN012 A2980 RMK MADISHF
AUS,2017-04-01 05:53,-97.6699,30.1945,64.00,60.10,87.14,130.00,3.00,0.00,29.80,1008.40,10.00,M,BKN,M,M,M,1200.00,M,M,M,M,KAUS 010553Z 13003KT 10SM BKN012 18/16 A2980 RMK AO2 RAB21E30 SLP084 P0000 60000 T01780156 10278 20178 403000089 51009
AUS,2017-04-01 05:55,-97.6699,30.1945,M,M,M,130.00,4.00,M,29.80,M,10.00,M,BKN,M,M,M,1200.00,M,M,M,M,KAUS 010555Z AUTO 13004KT 10SM BKN012 A2980 RMK MADISHF
AUS,2017-04-01 06:00,-97.6699,30.1945,M,M,M,120.00,4.00,M,29.80,M,10.00,M,BKN,M,M,M,1200.00,M,M,M,M,KAUS 010600Z AUTO 12004KT 10SM BKN012 A2980 RMK MADISHF
AUS,2017-04-01 06:05,-97.6699,30.1945,M,M,M,140.00,5.00,M,29.80,M,10.00,M,BKN,M,M,M,1200.00,M,M,M,M,KAUS 010605Z AUTO 14005KT 10SM BKN012 A2980 RMK MADISHF
AUS,2017-04-01 06:10,-97.6699,30.1945,M,M,M,150.00,8.00,M,29.80,M,10.00,M,OVC,M,M,M,1200.00,M,M,M,M,KAUS 010610Z AUTO 15008KT 10SM OVC012 A2980 RMK MADISHF
AUS,2017-04-01 06:15,-97.6699,30.1945,M,M,M,150.00,9.00,M,29.81,M,10.00,15.00,OVC,M,M,M,1400.00,M,M,M,M,KAUS 010615Z AUTO 15009G15KT 10SM OVC014 A2981 RMK MADISHF
AUS,2017-04-01 06:20,-97.6699,30.1945,M,M,M,150.00,8.00,M,29.81,M,10.00,M,OVC,M,M,M,1400.00,M,M,M,M,KAUS 010620Z AUTO 15008KT 10SM OVC014 A2981 RMK MADISHF
AUS,2017-04-01 06:25,-97.6699,30.1945,M,M,M,150.00,9.00,M,29.81,M,10.00,M,BKN,M,M,M,1400.00,M,M,M,M,KAUS 010625Z AUTO 15009KT 10SM BKN014 A2981 RMK MADISHF
AUS,2017-04-01 06:30,-97.6699,30.1945,M,M,M,150.00,9.00,M,29.81,M,10.00,M,BKN,M,M,M,1400.00,M,M,M,M,KAUS 010630Z AUTO 15009KT 10SM BKN014 A2981 RMK MADISHF
AUS,2017-04-01 06:35,-97.6699,30.1945,M,M,M,150.00,8.00,M,29.81,M,10.00,M,BKN,M,M,M,1400.00,M,M,M,M,KAUS 010635Z AUTO 15008KT 10SM BKN014 A2981 RMK MADISHF
AUS,2017-04-01 06:40,-97.6699,30.1945,M,M,M,160.00,10.00,M,29.81,M,10.00,M,BKN,M,M,M,1400.00,M,M,M,M,KAUS 010640Z AUTO 16010KT 10SM BKN014 A2981 RMK MADISHF
AUS,2017-04-01 06:45,-97.6699,30.1945,M,M,M,150.00,9.00,M,29.81,M,10.00,M,BKN,M,M,M,1400.00,M,M,M,M,KAUS 010645Z AUTO 15009KT 10SM BKN014 A2981 RMK MADISHF
AUS,2017-04-01 06:50,-97.6699,30.1945,M,M,M,160.00,9.00,M,29.81,M,10.00,M,BKN,M,M,M,1400.00,M,M,M,M,KAUS 010650Z AUTO 16009KT 10SM BKN014 A2981 RMK MADISHF
AUS,2017-04-01 06:53,-97.6699,30.1945,66.90,63.00,87.28,160.00,10.00,0.00,29.81,1008.70,10.00,M,BKN,M,M,M,1400.00,M,M,M,M,KAUS 010653Z 16010KT 10SM BKN014 19/17 A2981 RMK AO2 SLP087 T01940172
AUS,2017-04-01 06:55,-97.6699,30.1945,M,M,M,160.00,8.00,M,29.81,M,10.00,M,BKN,M,M,M,1400.00,M,M,M,M,KAUS 010655Z AUTO 16008KT 10SM BKN014 A2981 RMK MADISHF
AUS,2017-04-01 07:00,-97.6699,30.1945,M,M,M,150.00,8.00,M,29.82,M,10.00,M,BKN,M,M,M,1400.00,M,M,M,M,KAUS 010700Z AUTO 15008KT 10SM BKN014 A2982 RMK MADISHF
AUS,2017-04-01 07:05,-97.6699,30.1945,M,M,M,150.00,7.00,M,29.82,M,10.00,M,BKN,M,M,M,1600.00,M,M,M,M,KAUS 010705Z AUTO 15007KT 10SM BKN016 A2982 RMK MADISHF
AUS,2017-04-01 07:10,-97.6699,30.1945,M,M,M,150.00,8.00,M,29.81,M,10.00,M,BKN,M,M,M,1400.00,M,M,M,M,KAUS 010710Z AUTO 15008KT 10SM BKN014 A2981 RMK MADISHF
AUS,2017-04-01 07:15,-97.6699,30.1945,M,M,M,150.00,8.00,M,29.81,M,10.00,M,BKN,M,M,M,1400.00,M,M,M,M,KAUS 010715Z AUTO 15008KT 10SM BKN014 A2981 RMK MADISHF
AUS,2017-04-01 07:20,-97.6699,30.1945,M,M,M,150.00,8.00,M,29.81,M,10.00,M,BKN,M,M,M,1400.00,M,M,M,M,KAUS 010720Z AUTO 15008KT 10SM BKN014 A2981 RMK MADISHF
AUS,2017-04-01 07:25,-97.6699,30.1945,M,M,M,150.00,8.00,M,29.81,M,10.00,M,BKN,M,M,M,1400.00,M,M,M,M,KAUS 010725Z AUTO 15008KT 10SM BKN014 A2981 RMK MADISHF
AUS,2017-04-01 07:30,-97.6699,30.1945,M,M,M,150.00,7.00,M,29.81,M,10.00,M,BKN,M,M,M,1400.00,M,M,M,M,KAUS 010730Z AUTO 15007KT 10SM BKN014 A2981 RMK MADISHF
AUS,2017-04-01 07:35,-97.6699,30.1945,M,M,M,150.00,7.00,M,29.81,M,10.00,M,BKN,M,M,M,1400.00,M,M,M,M,KAUS 010735Z AUTO 15007KT 10SM BKN014 A2981 RMK MADISHF
AUS,2017-04-01 07:40,-97.6699,30.1945,M,M,M,150.00,7.00,M,29.81,M,10.00,M,BKN,M,M,M,1400.00,M,M,M,M,KAUS 010740Z AUTO 15007KT 10SM BKN014 A2981 RMK MADISHF
AUS,2017-04-01 07:45,-97.6699,30.1945,M,M,M,140.00,9.00,M,29.81,M,10.00,M,BKN,M,M,M,1400.00,M,M,M,M,KAUS 010745Z AUTO 14009KT 10SM BKN014 A2981 RMK MADISHF
AUS,2017-04-01 07:50,-97.6699,30.1945,M,M,M,150.00,6.00,M,29.81,M,10.00,M,BKN,M,M,M,1600.00,M,M,M,M,KAUS 010750Z AUTO 15006KT 10SM BKN016 A2981 RMK MADISHF
AUS,2017-04-01 07:53,-97.6699,30.1945,66.90,63.00,87.28,150.00,6.00,0.00,29.81,1008.50,10.00,M,BKN,M,M,M,1600.00,M,M,M,M,KAUS 010753Z 15006KT 10SM BKN016 19/17 A2981 RMK AO2 SLP085 T01940172
AUS,2017-04-01 07:55,-97.6699,30.1945,M,M,M,150.00,8.00,M,29.81,M,10.00,M,BKN,M,M,M,1600.00,M,M,M,M,KAUS 010755Z AUTO 15008KT 10SM BKN016 A2981 RMK MADISHF
AUS,2017-04-01 08:00,-97.6699,30.1945,M,M,M,150.00,8.00,M,29.81,M,10.00,M,BKN,M,M,M,1600.00,M,M,M,M,KAUS 010800Z AUTO 15008KT 10SM BKN016 A2981 RMK MADISHF
AUS,2017-04-01 08:05,-97.6699,30.1945,M,M,M,140.00,10.00,M,29.81,M,10.00,M,BKN,M,M,M,1600.00,M,M,M,M,KAUS 010805Z AUTO 14010KT 10SM BKN016 A2981 RMK MADISHF
AUS,2017-04-01 08:10,-97.6699,30.1945,M,M,M,150.00,8.00,M,29.80,M,10.00,M,BKN,M,M,M,1600.00,M,M,M,M,KAUS 010810Z AUTO 15008KT 10SM BKN016 A2980 RMK MADISHF
AUS,2017-04-01 08:15,-97.6699,30.1945,M,M,M,150.00,8.00,M,29.80,M,10.00,M,BKN,M,M,M,1600.00,M,M,M,M,KAUS 010815Z AUTO 15008KT 10SM BKN016 A2980 RMK MADISHF
AUS,2017-04-01 08:20,-97.6699,30.1945,M,M,M,150.00,11.00,M,29.80,M,10.00,M,BKN,M,M,M,1600.00,M,M,M,M,KAUS 010820Z AUTO 15011KT 10SM BKN016 A2980 RMK MADISHF
AUS,2017-04-01 08:25,-97.6699,30.1945,M,M,M,150.00,10.00,M,29.80,M,10.00,M,OVC,M,M,M,1600.00,M,M,M,M,KAUS 010825Z AUTO 15010KT 10SM OVC016 A2980 RMK MADISHF
AUS,2017-04-01 08:30,-97.6699,30.1945,M,M,M,150.00,10.00,M,29.79,M,10.00,M,OVC,M,M,M,1600.00,M,M,M,M,KAUS 010830Z AUTO 15010KT 10SM OVC016 A2979 RMK MADISHF
AUS,2017-04-01 08:35,-97.6699,30.1945,M,M,M,140.00,10.00,M,29.79,M,10.00,M,BKN,M,M,M,1600.00,M,M,M,M,KAUS 010835Z AUTO 14010KT 10SM BKN016 A2979 RMK MADISHF
AUS,2017-04-01 08:40,-97.6699,30.1945,M,M,M,140.00,11.00,M,29.79,M,10.00,M,BKN,M,M,M,1400.00,M,M,M,M,KAUS 010840Z AUTO 14011KT 10SM BKN014 A2979 RMK MADISHF
AUS,2017-04-01 08:45,-97.6699,30.1945,66.90,63.00,87.28,140.00,11.00,0.00,29.79,M,10.00,M,BKN,BKN,M,M,1400.00,1900.00,M,M,M,KAUS 010845Z 14011KT 10SM BKN014 BKN019 19/17 A2979 RMK AO2 T01940172
AUS,2017-04-01 08:50,-97.6699,30.1945,M,M,M,140.00,9.00,M,29.79,M,10.00,M,BKN,M,M,M,1400.00,M,M,M,M,KAUS 010850Z AUTO 14009KT 10SM BKN014 A2979 RMK MADISHF
AUS,2017-04-01 08:53,-97.6699,30.1945,68.00,63.00,84.03,140.00,10.00,0.00,29.79,1007.80,10.00,M,BKN,M,M,M,1400.00,M,M,M,M,KAUS 010853Z 14010KT 10SM BKN014 20/17 A2979 RMK AO2 SLP078 T02000172 58005
AUS,2017-04-01 08:55,-97.6699,30.1945,M,M,M,140.00,10.00,M,29.79,M,10.00,M,BKN,M,M,M,1400.00,M,M,M,M,KAUS 010855Z AUTO 14010KT 10SM BKN014 A2979 RMK MADISHF
AUS,2017-04-01 09:00,-97.6699,30.1945,M,M,M,130.00,11.00,M,29.79,M,10.00,M,BKN,M,M,M,1400.00,M,M,M,M,KAUS 010900Z AUTO 13011KT 10SM BKN014 A2979 RMK MADISHF
AUS,2017-04-01 09:05,-97.6699,30.1945,M,M,M,130.00,11.00,M,29.78,M,10.00,M,BKN,M,M,M,1200.00,M,M,M,M,KAUS 010905Z AUTO 13011KT 10SM BKN012 A2978 RMK MADISHF
AUS,2017-04-01 09:10,-97.6699,30.1945,M,M,M,130.00,11.00,M,29.78,M,10.00,M,BKN,M,M,M,1200.00,M,M,M,M,KAUS 010910Z AUTO 13011KT 10SM BKN012 A2978 RMK MADISHF
AUS,2017-04-01 09:15,-97.6699,30.1945,M,M,M,140.00,11.00,M,29.78,M,10.00,M,OVC,M,M,M,1400.00,M,M,M,M,KAUS 010915Z AUTO 14011KT 10SM OVC014 A2978 RMK MADISHF
AUS,2017-04-01 09:20,-97.6699,30.1945,M,M,M,130.00,10.00,M,29.78,M,10.00,M,BKN,M,M,M,1400.00,M,M,M,M,KAUS 010920Z AUTO 13010KT 10SM BKN014 A2978 RMK MADISHF
AUS,2017-04-01 09:25,-97.6699,30.1945,M,M,M,130.00,10.00,M,29.78,M,10.00,M,OVC,M,M,M,1300.00,M,M,M,M,KAUS 010925Z AUTO 13010KT 10SM OVC013 A2978 RMK MADISHF
AUS,2017-04-01 09:30,-97.6699,30.1945,M,M,M,130.00,9.00,M,29.79,M,10.00,M,OVC,M,M,M,1300.00,M,M,M,M,KAUS 010930Z AUTO 13009KT 10SM OVC013 A2979 RMK MADISHF
AUS,2017-04-01 09:35,-97.6699,30.1945,M,M,M,140.00,9.00,M,29.79,M,10.00,M,OVC,M,M,M,1300.00,M,M,M,M,KAUS 010935Z AUTO 14009KT 10SM OVC013 A2979 RMK MADISHF
AUS,2017-04-01 09:40,-97.6699,30.1945,M,M,M,130.00,9.00,M,29.79,M,10.00,M,BKN,OVC,M,M,1300.00,1699.00,M,M,M,KAUS 010940Z AUTO 13009KT 10SM BKN013 OVC016 A2979 RMK MADISHF
AUS,2017-04-01 09:45,-97.6699,30.1945,M,M,M,140.00,8.00,M,29.79,M,10.00,M,BKN,OVC,M,M,1300.00,1699.00,M,M,M,KAUS 010945Z AUTO 14008KT 10SM BKN013 OVC016 A2979 RMK MADISHF
AUS,2017-04-01 09:50,-97.6699,30.1945,M,M,M,130.00,9.00,M,29.79,M,10.00,M,OVC,M,M,M,1300.00,M,M,M,M,KAUS 010950Z AUTO 13009KT 10SM OVC013 A2979 RMK MADISHF
AUS,2017-04-01 09:53,-97.6699,30.1945,66.00,63.00,90.05,130.00,8.00,0.00,29.79,1007.90,10.00,M,BKN,OVC,M,M,1100.00,1600.00,M,M,M,KAUS 010953Z 13008KT 10SM BKN011 OVC016 19/17 A2979 RMK AO2 SLP079 T01890172
AUS,2017-04-01 09:55,-97.6699,30.1945,M,M,M,130.00,9.00,M,29.79,M,10.00,M,BKN,OVC,M,M,1100.00,1699.00,M,M,M,KAUS 010955Z AUTO 13009KT 10SM BKN011 OVC016 A2979 RMK MADISHF
AUS,2017-04-01 10:00,-97.6699,30.1945,M,M,M,130.00,8.00,M,29.79,M,10.00,M,BKN,OVC,M,M,1100.00,1699.00,M,M,M,KAUS 011000Z AUTO 13008KT 10SM BKN011 OVC016 A2979 RMK MADISHF
AUS,2017-04-01 10:05,-97.6699,30.1945,M,M,M,130.00,8.00,M,29.79,M,10.00,M,BKN,OVC,M,M,1100.00,1800.00,M,M,M,KAUS 011005Z AUTO 13008KT 10SM BKN011 OVC018 A2979 RMK MADISHF
AUS,2017-04-01 10:10,-97.6699,30.1945,M,M,M,130.00,6.00,M,29.79,M,10.00,M,BKN,OVC,M,M,1100.00,1800.00,M,M,M,KAUS 011010Z AUTO 13006KT 10SM BKN011 OVC018 A2979 RMK MADISHF
AUS,2017-04-01 10:15,-97.6699,30.1945,M,M,M,120.00,8.00,M,29.79,M,10.00,M,OVC,M,M,M,1100.00,M,M,M,M,KAUS 011015Z AUTO 12008KT 10SM OVC011 A2979 RMK MADISHF
AUS,2017-04-01 10:20,-97.6699,30.1945,M,M,M,130.00,7.00,M,29.79,M,10.00,M,OVC,M,M,M,1100.00,M,M,M,M,KAUS 011020Z AUTO 13007KT 10SM OVC011 A2979 RMK MADISHF
AUS,2017-04-01 10:25,-97.6699,30.1945,M,M,M,120.00,7.00,M,29.79,M,10.00,M,BKN,OVC,M,M,900.00,1300.00,M,M,M,KAUS 011025Z AUTO 12007KT 10SM BKN009 OVC013 A2979 RMK MADISHF
AUS,2017-04-01 10:28,-97.6699,30.1945,64.90,63.00,93.56,130.00,6.00,0.00,29.80,M,10.00,M,OVC,M,M,M,900.00,M,M,M,M,KAUS 011028Z 13006KT 10SM OVC009 18/17 A2980 RMK AO2 T01830172
AUS,2017-04-01 10:30,-97.6699,30.1945,M,M,M,130.00,6.00,M,29.80,M,10.00,M,OVC,M,M,M,900.00,M,M,M,M,KAUS 011030Z AUTO 13006KT 10SM OVC009 A2980 RMK MADISHF
AUS,2017-04-01 10:35,-97.6699,30.1945,M,M,M,130.00,6.00,M,29.80,M,10.00,M,OVC,M,M,M,900.00,M,M,M,M,KAUS 011035Z AUTO 13006KT 10SM OVC009 A2980 RMK MADISHF
AUS,2017-04-01 10:40,-97.6699,30.1945,M,M,M,120.00,5.00,M,29.80,M,10.00,M,OVC,M,M,M,900.00,M,M,M,M,KAUS 011040Z AUTO 12005KT 10SM OVC009 A2980 RMK MADISHF
AUS,2017-04-01 10:45,-97.6699,30.1945,M,M,M,110.00,4.00,M,29.81,M,10.00,M,OVC,M,M,M,900.00,M,M,M,M,KAUS 011045Z AUTO 11004KT 10SM OVC009 A2981 RMK MADISHF
AUS,2017-04-01 10:50,-97.6699,30.1945,M,M,M,120.00,4.00,M,29.81,M,10.00,M,OVC,M,M,M,900.00,M,M,M,M,KAUS 011050Z AUTO 12004KT 10SM OVC009 A2981 RMK MADISHF
AUS,2017-04-01 10:53,-97.6699,30.1945,64.90,63.00,93.56,130.00,5.00,0.00,29.81,1008.70,10.00,M,BKN,OVC,M,M,900.00,1800.00,M,M,M,KAUS 011053Z 13005KT 10SM BKN009 OVC018 18/17 A2981 RMK AO2 SLP087 T01830172
AUS,2017-04-01 10:55,-97.6699,30.1945,M,M,M,120.00,5.00,M,29.81,M,10.00,M,OVC,M,M,M,900.00,M,M,M,M,KAUS 011055Z AUTO 12005KT 10SM OVC009 A2981 RMK MADISHF
AUS,2017-04-01 11:00,-97.6699,30.1945,M,M,M,130.00,6.00,M,29.81,M,10.00,M,OVC,M,M,M,900.00,M,M,M,M,KAUS 011100Z AUTO 13006KT 10SM OVC009 A2981 RMK MADISHF
AUS,2017-04-01 11:05,-97.6699,30.1945,M,M,M,140.00,7.00,M,29.81,M,10.00,M,BKN,OVC,M,M,900.00,1200.00,M,M,M,KAUS 011105Z AUTO 14007KT 10SM BKN009 OVC012 A2981 RMK MADISHF
AUS,2017-04-01 11:10,-97.6699,30.1945,M,M,M,130.00,6.00,M,29.82,M,10.00,M,OVC,M,M,M,900.00,M,M,M,M,KAUS 011110Z AUTO 13006KT 10SM OVC009 A2982 RMK MADISHF
AUS,2017-04-01 11:15,-97.6699,30.1945,M,M,M,130.00,6.00,M,29.82,M,10.00,M,BKN,OVC,M,M,900.00,1300.00,M,M,M,KAUS 011115Z AUTO 13006KT 10SM BKN009 OVC013 A2982 RMK MADISHF
AUS,2017-04-01 11:20,-97.6699,30.1945,M,M,M,120.00,5.00,M,29.82,M,10.00,M,OVC,M,M,M,900.00,M,M,M,M,KAUS 011120Z AUTO 12005KT 10SM OVC009 A2982 RMK MADISHF
AUS,2017-04-01 11:25,-97.6699,30.1945,M,M,M,140.00,6.00,M,29.82,M,10.00,M,BKN,OVC,M,M,900.00,1300.00,M,M,M,KAUS 011125Z AUTO 14006KT 10SM BKN009 OVC013 A2982 RMK VRB06KT  MADISHF
AUS,2017-04-01 11:30,-97.6699,30.1945,M,M,M,120.00,5.00,M,29.82,M,10.00,M,BKN,OVC,M,M,900.00,1300.00,M,M,M,KAUS 011130Z AUTO 12005KT 10SM BKN009 OVC013 A2982 RMK MADISHF
AUS,2017-04-01 11:35,-97.6699,30.1945,M,M,M,110.00,5.00,M,29.82,M,10.00,M,OVC,M,M,M,900.00,M,M,M,M,KAUS 011135Z AUTO 11005KT 10SM OVC009 A2982 RMK MADISHF
AUS,2017-04-01 11:40,-97.6699,30.1945,M,M,M,120.00,6.00,M,29.82,M,10.00,M,BKN,OVC,M,M,900.00,2500.00,M,M,M,KAUS 011140Z AUTO 12006KT 10SM BKN009 OVC025 A2982 RMK MADISHF
AUS,2017-04-01 11:45,-97.6699,30.1945,M,M,M,120.00,6.00,M,29.81,M,10.00,M,BKN,BKN,OVC,M,900.00,1400.00,2400.00,M,M,KAUS 011145Z AUTO 12006KT 10SM BKN009 BKN014 OVC024 A2981 RMK MADISHF
AUS,2017-04-01 11:50,-97.6699,30.1945,M,M,M,120.00,5.00,M,29.81,M,10.00,M,BKN,BKN,OVC,M,900.00,1400.00,2400.00,M,M,KAUS 011150Z AUTO 12005KT 10SM BKN009 BKN014 OVC024 A2981 RMK MADISHF
AUS,2017-04-01 11:53,-97.6699,30.1945,66.00,63.00,90.05,120.00,6.00,0.00,29.81,1008.70,10.00,M,BKN,BKN,OVC,M,900.00,1400.00,2400.00,M,M,KAUS 011153Z 12006KT 10SM BKN009 BKN014 OVC024 19/17 A2981 RMK AO2 SLP087 T01890172 10200 20178 50007
AUS,2017-04-01 11:55,-97.6699,30.1945,M,M,M,130.00,7.00,M,29.81,M,10.00,M,OVC,M,M,M,900.00,M,M,M,M,KAUS 011155Z AUTO 13007KT 10SM OVC009 A2981 RMK MADISHF
AUS,2017-04-01 12:00,-97.6699,30.1945,M,M,M,120.00,9.00,M,29.81,M,10.00,M,OVC,M,M,M,900.00,M,M,M,M,KAUS 011200Z AUTO 12009KT 10SM OVC009 A2981 RMK MADISHF
AUS,2017-04-01 12:05,-97.6699,30.1945,M,M,M,120.00,7.00,M,29.81,M,10.00,M,OVC,M,M,M,900.00,M,M,M,M,KAUS 011205Z AUTO 12007KT 10SM OVC009 A2981 RMK MADISHF
AUS,2017-04-01 12:10,-97.6699,30.1945,M,M,M,120.00,7.00,M,29.81,M,10.00,M,OVC,M,M,M,900.00,M,M,M,M,KAUS 011210Z AUTO 12007KT 10SM OVC009 A2981 RMK MADISHF
AUS,2017-04-01 12:15,-97.6699,30.1945,M,M,M,120.00,6.00,M,29.81,M,10.00,M,OVC,M,M,M,900.00,M,M,M,M,KAUS 011215Z AUTO 12006KT 10SM OVC009 A2981 RMK MADISHF
AUS,2017-04-01 12:20,-97.6699,30.1945,M,M,M,130.00,6.00,M,29.82,M,10.00,M,OVC,M,M,M,900.00,M,M,M,M,KAUS 011220Z AUTO 13006KT 10SM OVC009 A2982 RMK MADISHF
AUS,2017-04-01 12:25,-97.6699,30.1945,M,M,M,130.00,7.00,M,29.81,M,10.00,M,OVC,M,M,M,700.00,M,M,M,M,KAUS 011225Z AUTO 13007KT 10SM OVC007 A2981 RMK MADISHF
AUS,2017-04-01 12:30,-97.6699,30.1945,M,M,M,110.00,9.00,M,29.81,M,10.00,M,BKN,OVC,M,M,700.00,1300.00,M,M,M,KAUS 011230Z AUTO 11009KT 10SM BKN007 OVC013 A2981 RMK MADISHF
AUS,2017-04-01 12:35,-97.6699,30.1945,M,M,M,110.00,7.00,M,29.81,M,10.00,M,BKN,OVC,M,M,700.00,1200.00,M,M,M,KAUS 011235Z AUTO 11007KT 10SM BKN007 OVC012 A2981 RMK MADISHF
AUS,2017-04-01 12:40,-97.6699,30.1945,M,M,M,120.00,7.00,M,29.81,M,10.00,M,BKN,OVC,M,M,800.00,1200.00,M,M,M,KAUS 011240Z AUTO 12007KT 10SM BKN008 OVC012 A2981 RMK MADISHF
AUS,2017-04-01 12:45,-97.6699,30.1945,M,M,M,120.00,6.00,M,29.81,M,10.00,M,BKN,OVC,M,M,700.00,1300.00,M,M,M,KAUS 011245Z AUTO 12006KT 10SM BKN007 OVC013 A2981 RMK MADISHF
AUS,2017-04-01 12:50,-97.6699,30.1945,M,M,M,130.00,8.00,M,29.82,M,8.00,M,BKN,OVC,M,M,700.00,1300.00,M,M,M,KAUS 011250Z AUTO 13008KT 8SM BKN007 OVC013 A2982 RMK MADISHF
AUS,2017-04-01 12:53,-97.6699,30.1945,66.90,64.00,90.40,140.00,9.00,0.00,29.82,1009.00,8.00,M,BKN,OVC,M,M,700.00,1300.00,M,M,M,KAUS 011253Z 14009KT 8SM BKN007 OVC013 19/18 A2982 RMK AO2 SLP090 T01940178
AUS,2017-04-01 12:55,-97.6699,30.1945,M,M,M,140.00,9.00,M,29.82,M,10.00,M,SCT,OVC,M,M,700.00,1100.00,M,M,M,KAUS 011255Z AUTO 14009KT 10SM SCT007 OVC011 A2982 RMK CIG 006 RWY17R  MADISHF
AUS,2017-04-01 13:00,-97.6699,30.1945,M,M,M,140.00,10.00,M,29.82,M,10.00,M,BKN,OVC,M,M,700.00,1100.00,M,M,M,KAUS 011300Z AUTO 14010KT 10SM BKN007 OVC011 A2982 RMK MADISHF
AUS,2017-04-01 13:05,-97.6699,30.1945,M,M,M,150.00,8.00,M,29.83,M,10.00,M,BKN,OVC,M,M,700.00,1100.00,M,M,M,KAUS 011305Z AUTO 15008KT 10SM BKN007 OVC011 A2983 RMK MADISHF
AUS,2017-04-01 13:10,-97.6699,30.1945,M,M,M,140.00,9.00,M,29.83,M,10.00,M,BKN,OVC,M,M,700.00,1100.00,M,M,M,KAUS 011310Z AUTO 14009KT 10SM BKN007 OVC011 A2983 RMK MADISHF
AUS,2017-04-01 13:15,-97.6699,30.1945,M,M,M,120.00,9.00,M,29.82,M,10.00,M,BKN,OVC,M,M,700.00,1100.00,M,M,M,KAUS 011315Z AUTO 12009KT 10SM BKN007 OVC011 A2982 RMK MADISHF
AUS,2017-04-01 13:20,-97.6699,30.1945,M,M,M,130.00,9.00,M,29.82,M,10.00,M,BKN,OVC,M,M,700.00,1100.00,M,M,M,KAUS 011320Z AUTO 13009KT 10SM BKN007 OVC011 A2982 RMK MADISHF
AUS,2017-04-01 13:25,-97.6699,30.1945,M,M,M,130.00,10.00,M,29.82,M,10.00,M,BKN,OVC,M,M,700.00,1100.00,M,M,M,KAUS 011325Z AUTO 13010KT 10SM BKN007 OVC011 A2982 RMK MADISHF
AUS,2017-04-01 13:30,-97.6699,30.1945,M,M,M,140.00,9.00,M,29.83,M,10.00,M,BKN,OVC,M,M,700.00,1100.00,M,M,M,KAUS 011330Z AUTO 14009KT 10SM BKN007 OVC011 A2983 RMK MADISHF
AUS,2017-04-01 13:35,-97.6699,30.1945,M,M,M,150.00,8.00,M,29.83,M,10.00,M,BKN,OVC,M,M,700.00,1100.00,M,M,M,KAUS 011335Z AUTO 15008KT 10SM BKN007 OVC011 A2983 RMK MADISHF
AUS,2017-04-01 13:40,-97.6699,30.1945,M,M,M,140.00,9.00,M,29.84,M,10.00,M,BKN,OVC,M,M,800.00,1500.00,M,M,M,KAUS 011340Z AUTO 14009KT 10SM BKN008 OVC015 A2984 RMK MADISHF
AUS,2017-04-01 13:45,-97.6699,30.1945,M,M,M,140.00,9.00,M,29.84,M,10.00,M,BKN,OVC,M,M,800.00,1500.00,M,M,M,KAUS 011345Z AUTO 14009KT 10SM BKN008 OVC015 A2984 RMK MADISHF
AUS,2017-04-01 13:50,-97.6699,30.1945,M,M,M,140.00,10.00,M,29.84,M,10.00,M,BKN,OVC,M,M,800.00,1500.00,M,M,M,KAUS 011350Z AUTO 14010KT 10SM BKN008 OVC015 A2984 RMK MADISHF
AUS,2017-04-01 13:53,-97.6699,30.1945,68.00,64.00,87.03,150.00,10.00,0.00,29.84,1009.80,10.00,M,BKN,OVC,M,M,900.00,1500.00,M,M,M,KAUS 011353Z 15010KT 10SM BKN009 OVC015 20/18 A2984 RMK AO2 SLP098 T02000178
AUS,2017-04-01 13:55,-97.6699,30.1945,M,M,M,150.00,10.00,M,29.84,M,10.00,M,OVC,M,M,M,900.00,M,M,M,M,KAUS 011355Z AUTO 15010KT 10SM OVC009 A2984 RMK MADISHF
AUS,2017-04-01 14:00,-97.6699,30.1945,M,M,M,150.00,12.00,M,29.84,M,10.00,M,OVC,M,M,M,900.00,M,M,M,M,KAUS 011400Z AUTO 15012KT 10SM OVC009 A2984 RMK MADISHF
AUS,2017-04-01 14:05,-97.6699,30.1945,M,M,M,150.00,10.00,M,29.85,M,10.00,M,OVC,M,M,M,800.00,M,M,M,M,KAUS 011405Z AUTO 15010KT 10SM OVC008 A2985 RMK MADISHF
AUS,2017-04-01 14:10,-97.6699,30.1945,M,M,M,160.00,12.00,M,29.85,M,10.00,M,OVC,M,M,M,800.00,M,M,M,M,KAUS 011410Z AUTO 16012KT 10SM OVC008 A2985 RMK MADISHF
AUS,2017-04-01 14:15,-97.6699,30.1945,M,M,M,160.00,12.00,M,29.85,M,10.00,M,OVC,M,M,M,800.00,M,M,M,M,KAUS 011415Z AUTO 16012KT 10SM OVC008 A2985 RMK MADISHF
AUS,2017-04-01 14:20,-97.6699,30.1945,M,M,M,160.00,13.00,M,29.86,M,10.00,M,OVC,M,M,M,800.00,M,M,M,M,KAUS 011420Z AUTO 16013KT 10SM OVC008 A2986 RMK MADISHF
AUS,2017-04-01 14:25,-97.6699,30.1945,M,M,M,160.00,13.00,M,29.86,M,10.00,M,OVC,M,M,M,800.00,M,M,M,M,KAUS 011425Z AUTO 16013KT 10SM OVC008 A2986 RMK MADISHF
AUS,2017-04-01 14:30,-97.6699,30.1945,M,M,M,160.00,12.00,M,29.86,M,10.00,17.00,BKN,OVC,M,M,1100.00,1800.00,M,M,M,KAUS 011430Z AUTO 16012G17KT 10SM BKN011 OVC018 A2986 RMK MADISHF
AUS,2017-04-01 14:32,-97.6699,30.1945,70.00,64.90,83.86,160.00,10.00,0.00,29.86,M,10.00,M,BKN,OVC,M,M,1100.00,1800.00,M,M,M,KAUS 011432Z 16010KT 10SM BKN011 OVC018 21/18 A2986 RMK AO2 T02110183
AUS,2017-04-01 14:35,-97.6699,30.1945,M,M,M,160.00,10.00,M,29.86,M,10.00,15.00,BKN,OVC,M,M,1100.00,1800.00,M,M,M,KAUS 011435Z AUTO 16010G15KT 10SM BKN011 OVC018 A2986 RMK MADISHF
AUS,2017-04-01 14:40,-97.6699,30.1945,M,M,M,M,M,M,29.86,M,10.00,M,BKN,OVC,M,M,1100.00,1800.00,M,M,M,KAUS 011440Z AUTO /////KT 10SM BKN011 OVC018 A2986 RMK MADISHF
AUS,2017-04-01 14:45,-97.6699,30.1945,M,M,M,160.00,12.00,M,29.86,M,10.00,M,BKN,BKN,OVC,M,1400.00,1999.00,3300.00,M,M,KAUS 011445Z AUTO 16012KT 10SM BKN014 BKN019 OVC033 A2986 RMK MADISHF
AUS,2017-04-01 14:50,-97.6699,30.1945,M,M,M,160.00,11.00,M,29.86,M,10.00,16.00,BKN,BKN,OVC,M,1400.00,1999.00,3300.00,M,M,KAUS 011450Z AUTO 16011G16KT 10SM BKN014 BKN019 OVC033 A2986 RMK MADISHF
AUS,2017-04-01 14:53,-97.6699,30.1945,71.10,64.90,80.78,160.00,12.00,0.00,29.86,1010.60,10.00,M,BKN,BKN,OVC,M,1400.00,2000.00,3300.00,M,M,KAUS 011453Z 16012KT 10SM BKN014 BKN020 OVC033 22/18 A2986 RMK AO2 SLP106 T02170183 53018
AUS,2017-04-01 14:55,-97.6699,30.1945,M,M,M,160.00,10.00,M,29.86,M,10.00,M,BKN,BKN,OVC,M,1400.00,1900.00,3300.00,M,M,KAUS 011455Z AUTO 16010KT 10SM BKN014 BKN019 OVC033 A2986 RMK MADISHF
AUS,2017-04-01 15:00,-97.6699,30.1945,M,M,M,M,M,M,29.86,M,10.00,M,BKN,BKN,OVC,M,1600.00,2300.00,3300.00,M,M,KAUS 011500Z AUTO /////KT 10SM BKN016 BKN023 OVC033 A2986 RMK MADISHF
AUS,2017-04-01 15:05,-97.6699,30.1945,72.00,64.90,78.35,140.00,12.00,0.00,29.87,M,10.00,M,FEW,BKN,OVC,M,1300.00,1600.00,3400.00,M,M,KAUS 011505Z 14012KT 10SM FEW013 BKN016 OVC034 22/18 A2987 RMK AO2 T02220183
AUS,2017-04-01 15:10,-97.6699,30.1945,M,M,M,160.00,13.00,M,29.87,M,10.00,M,FEW,BKN,OVC,M,1300.00,1600.00,3399.00,M,M,KAUS 011510Z AUTO 16013KT 10SM FEW013 BKN016 OVC033 A2987 RMK MADISHF
AUS,2017-04-01 15:15,-97.6699,30.1945,M,M,M,160.00,13.00,M,29.87,M,10.00,M,FEW,BKN,OVC,M,1300.00,1600.00,3399.00,M,M,KAUS 011515Z AUTO 16013KT 10SM FEW013 BKN016 OVC033 A2987 RMK MADISHF
AUS,2017-04-01 15:20,-97.6699,30.1945,M,M,M,M,M,M,29.87,M,10.00,M,FEW,BKN,OVC,M,1300.00,1600.00,3399.00,M,M,KAUS 011520Z AUTO /////KT 10SM FEW013 BKN016 OVC033 A2987 RMK MADISHF
AUS,2017-04-01 15:25,-97.6699,30.1945,M,M,M,160.00,11.00,M,29.87,M,10.00,M,FEW,BKN,OVC,M,1300.00,1600.00,3399.00,M,M,KAUS 011525Z AUTO 16011KT 10SM FEW013 BKN016 OVC033 A2987 RMK MADISHF
AUS,2017-04-01 15:30,-97.6699,30.1945,M,M,M,160.00,13.00,M,29.87,M,10.00,M,SCT,BKN,OVC,M,1600.00,2300.00,7000.00,M,M,KAUS 011530Z AUTO 16013KT 10SM SCT016 BKN023 OVC070 A2987 RMK CIG 018 RWY17R  MADISHF
AUS,2017-04-01 15:35,-97.6699,30.1945,M,M,M,150.00,11.00,M,29.87,M,10.00,M,BKN,BKN,OVC,M,1699.00,2400.00,7000.00,M,M,KAUS 011535Z AUTO 15011KT 10SM BKN016 BKN024 OVC070 A2987 RMK MADISHF
AUS,2017-04-01 15:40,-97.6699,30.1945,M,M,M,M,M,M,29.87,M,10.00,M,SCT,BKN,OVC,M,1699.00,2200.00,7000.00,M,M,KAUS 011540Z AUTO /////KT 10SM SCT016 BKN022 OVC070 A2987 RMK MADISHF
AUS,2017-04-01 15:45,-97.6699,30.1945,M,M,M,M,M,M,29.87,M,10.00,M,SCT,BKN,OVC,M,1699.00,2200.00,7000.00,M,M,KAUS 011545Z AUTO /////KT 10SM SCT016 BKN022 OVC070 A2987 RMK MADISHF
AUS,2017-04-01 15:50,-97.6699,30.1945,M,M,M,150.00,15.00,M,29.87,M,10.00,M,SCT,BKN,OVC,M,1699.00,2200.00,7000.00,M,M,KAUS 011550Z AUTO 15015KT 10SM SCT016 BKN022 OVC070 A2987 RMK MADISHF
AUS,2017-04-01 15:53,-97.6699,30.1945,72.00,64.00,75.92,150.00,16.00,0.00,29.87,1010.80,10.00,23.00,SCT,BKN,OVC,M,1700.00,2200.00,7000.00,M,M,KAUS 011553Z 15016G23KT 10SM SCT017 BKN022 OVC070 22/18 A2987 RMK AO2 SLP108 T02220178
AUS,2017-04-01 15:55,-97.6699,30.1945,M,M,M,150.00,13.00,M,29.87,M,10.00,M,BKN,OVC,M,M,1699.00,7000.00,M,M,M,KAUS 011555Z AUTO 15013KT 10SM BKN016 OVC070 A2987 RMK MADISHF
AUS,2017-04-01 16:00,-97.6699,30.1945,M,M,M,150.00,15.00,M,29.87,M,10.00,M,BKN,OVC,M,M,1699.00,7000.00,M,M,M,KAUS 011600Z AUTO 15015KT 10SM BKN016 OVC070 A2987 RMK MADISHF
AUS,2017-04-01 16:05,-97.6699,30.1945,M,M,M,M,M,M,29.87,M,10.00,M,BKN,OVC,M,M,1699.00,7000.00,M,M,M,KAUS 011605Z AUTO /////KT 10SM BKN016 OVC070 A2987 RMK MADISHF
AUS,2017-04-01 16:10,-97.6699,30.1945,M,M,M,150.00,14.00,M,29.87,M,10.00,20.00,BKN,OVC,M,M,2200.00,7000.00,M,M,M,KAUS 011610Z AUTO 15014G20KT 10SM BKN022 OVC070 A2987 RMK MADISHF
AUS,2017-04-01 16:15,-97.6699,30.1945,M,M,M,150.00,14.00,M,29.87,M,10.00,M,BKN,OVC,M,M,2200.00,7000.00,M,M,M,KAUS 011615Z AUTO 15014KT 10SM BKN022 OVC070 A2987 RMK MADISHF
AUS,2017-04-01 16:20,-97.6699,30.1945,M,M,M,140.00,12.00,M,29.87,M,10.00,M,BKN,OVC,M,M,2200.00,7000.00,M,M,M,KAUS 011620Z AUTO 14012KT 10SM BKN022 OVC070 A2987 RMK MADISHF
AUS,2017-04-01 16:25,-97.6699,30.1945,M,M,M,140.00,13.00,M,29.87,M,10.00,M,BKN,OVC,M,M,2200.00,7000.00,M,M,M,KAUS 011625Z AUTO 14013KT 10SM BKN022 OVC070 A2987 RMK MADISHF
AUS,2017-04-01 16:30,-97.6699,30.1945,M,M,M,M,M,M,29.87,M,10.00,M,SCT,BKN,OVC,M,2300.00,5000.00,7000.00,M,M,KAUS 011630Z AUTO /////KT 10SM SCT023 BKN050 OVC070 A2987 RMK MADISHF
AUS,2017-04-01 16:31,-97.6699,30.1945,73.00,64.00,73.40,130.00,15.00,0.00,29.87,M,10.00,M,SCT,BKN,OVC,M,2300.00,5000.00,7000.00,M,M,KAUS 011631Z 13015KT 10SM SCT023 BKN050 OVC070 23/18 A2987 RMK AO2 T02280178
AUS,2017-04-01 16:35,-97.6699,30.1945,M,M,M,140.00,12.00,M,29.87,M,10.00,M,SCT,BKN,OVC,M,2300.00,5000.00,7000.00,M,M,KAUS 011635Z AUTO 14012KT 10SM SCT023 BKN050 OVC070 A2987 RMK MADISHF
AUS,2017-04-01 16:40,-97.6699,30.1945,M,M,M,M,M,M,29.87,M,10.00,M,SCT,OVC,M,M,2300.00,5000.00,M,M,M,KAUS 011640Z AUTO /////KT 10SM SCT023 OVC050 A2987 RMK MADISHF
AUS,2017-04-01 16:45,-97.6699,30.1945,M,M,M,130.00,12.00,M,29.87,M,10.00,M,SCT,OVC,M,M,2300.00,5000.00,M,M,M,KAUS 011645Z AUTO 13012KT 10SM SCT023 OVC050 A2987 RMK MADISHF
AUS,2017-04-01 16:50,-97.6699,30.1945,M,M,M,130.00,13.00,M,29.87,M,10.00,M,SCT,OVC,M,M,2300.00,4500.00,M,M,M,KAUS 011650Z AUTO 13013KT 10SM SCT023 OVC045 A2987 RMK MADISHF
AUS,2017-04-01 16:53,-97.6699,30.1945,73.00,64.90,75.75,140.00,13.00,0.00,29.87,1010.70,10.00,M,SCT,BKN,OVC,M,2300.00,4500.00,7000.00,M,M,KAUS 011653Z 14013KT 10SM SCT023 BKN045 OVC070 23/18 A2987 RMK AO2 SLP107 T02280183
AUS,2017-04-01 16:55,-97.6699,30.1945,M,M,M,140.00,16.00,M,29.87,M,10.00,M,FEW,SCT,OVC,M,2300.00,3900.00,4700.00,M,M,KAUS 011655Z AUTO 14016KT 10SM FEW023 SCT039 OVC047 A2987 RMK MADISHF
AUS,2017-04-01 17:00,-97.6699,30.1945,M,M,M,140.00,14.00,M,29.87,M,10.00,M,FEW,FEW,OVC,M,2300.00,3900.00,4700.00,M,M,KAUS 011700Z AUTO 14014KT 10SM FEW023 FEW039 OVC047 A2987 RMK MADISHF
AUS,2017-04-01 17:05,-97.6699,30.1945,M,M,M,130.00,13.00,M,29.87,M,10.00,M,OVC,M,M,M,4500.00,M,M,M,M,KAUS 011705Z AUTO 13013KT 10SM OVC045 A2987 RMK MADISHF
AUS,2017-04-01 17:10,-97.6699,30.1945,M,M,M,140.00,11.00,M,29.86,M,10.00,M,FEW,BKN,OVC,M,2700.00,4700.00,6000.00,M,M,KAUS 011710Z AUTO 14011KT 10SM FEW027 BKN047 OVC060 A2986 RMK MADISHF
AUS,2017-04-01 17:15,-97.6699,30.1945,M,M,M,140.00,10.00,M,29.86,M,10.00,M,OVC,M,M,M,4700.00,M,M,M,M,KAUS 011715Z AUTO 14010KT 10SM OVC047 A2986 RMK MADISHF
AUS,2017-04-01 17:20,-97.6699,30.1945,M,M,M,140.00,13.00,M,29.86,M,10.00,M,OVC,M,M,M,4700.00,M,M,M,M,KAUS 011720Z AUTO 14013KT 10SM OVC047 A2986 RMK MADISHF
AUS,2017-04-01 17:25,-97.6699,30.1945,M,M,M,130.00,12.00,M,29.86,M,10.00,17.00,FEW,OVC,M,M,3900.00,4800.00,M,M,M,KAUS 011725Z AUTO 13012G17KT 10SM FEW039 OVC048 A2986 RMK MADISHF
AUS,2017-04-01 17:30,-97.6699,30.1945,M,M,M,M,M,M,29.86,M,10.00,M,OVC,M,M,M,4700.00,M,M,M,M,KAUS 011730Z AUTO /////KT 10SM OVC047 A2986 RMK MADISHF
AUS,2017-04-01 17:35,-97.6699,30.1945,M,M,M,M,M,M,29.85,M,10.00,19.00,OVC,M,M,M,4700.00,M,M,M,M,KAUS 011735Z AUTO /////G19KT 10SM OVC047 A2985 RMK MADISHF
AUS,2017-04-01 17:40,-97.6699,30.1945,M,M,M,M,M,M,29.85,M,10.00,M,FEW,OVC,M,M,3600.00,4800.00,M,M,M,KAUS 011740Z AUTO /////KT 10SM FEW036 OVC048 A2985 RMK MADISHF
AUS,2017-04-01 17:45,-97.6699,30.1945,M,M,M,M,M,M,29.85,M,10.00,M,BKN,OVC,M,M,4700.00,6000.00,M,M,M,KAUS 011745Z AUTO /////KT 10SM BKN047 OVC060 A2985 RMK MADISHF
AUS,2017-04-01 17:50,-97.6699,30.1945,M,M,M,130.00,12.00,M,29.85,M,10.00,M,FEW,OVC,M,M,3800.00,4800.00,M,M,M,KAUS 011750Z AUTO 13012KT 10SM FEW038 OVC048 A2985 RMK MADISHF
AUS,2017-04-01 17:53,-97.6699,30.1945,75.00,64.90,70.83,130.00,13.00,0.00,29.85,1010.10,10.00,M,FEW,SCT,OVC,M,2500.00,4000.00,4800.00,M,M,KAUS 011753Z 13013KT 10SM FEW025 SCT040 OVC048 24/18 A2985 RMK AO2 SLP101 T02390183 10239 20189 58005
AUS,2017-04-01 17:55,-97.6699,30.1945,M,M,M,130.00,12.00,M,29.85,M,10.00,17.00,BKN,OVC,M,M,4500.00,5500.00,M,M,M,KAUS 011755Z AUTO 13012G17KT 10SM BKN045 OVC055 A2985 RMK MADISHF
AUS,2017-04-01 18:00,-97.6699,30.1945,M,M,M,M,M,M,29.84,M,10.00,M,BKN,OVC,M,M,4500.00,5500.00,M,M,M,KAUS 011800Z AUTO /////KT 10SM BKN045 OVC055 A2984 RMK MADISHF
AUS,2017-04-01 18:05,-97.6699,30.1945,M,M,M,M,M,M,29.84,M,10.00,M,BKN,OVC,M,M,4500.00,5500.00,M,M,M,KAUS 011805Z AUTO /////KT 10SM BKN045 OVC055 A2984 RMK MADISHF
AUS,2017-04-01 18:10,-97.6699,30.1945,M,M,M,130.00,13.00,M,29.84,M,10.00,M,BKN,OVC,M,M,4500.00,5500.00,M,M,M,KAUS 011810Z AUTO 13013KT 10SM BKN045 OVC055 A2984 RMK MADISHF
AUS,2017-04-01 18:15,-97.6699,30.1945,M,M,M,140.00,14.00,M,29.84,M,10.00,M,BKN,OVC,M,M,4500.00,6000.00,M,M,M,KAUS 011815Z AUTO 14014KT 10SM BKN045 OVC060 A2984 RMK MADISHF
AUS,2017-04-01 18:20,-97.6699,30.1945,M,M,M,M,M,M,29.84,M,10.00,20.00,BKN,OVC,M,M,4300.00,6000.00,M,M,M,KAUS 011820Z AUTO /////G20KT 10SM BKN043 OVC060 A2984 RMK MADISHF
AUS,2017-04-01 18:25,-97.6699,30.1945,M,M,M,130.00,12.00,M,29.84,M,10.00,M,OVC,M,M,M,4100.00,M,M,M,M,KAUS 011825Z AUTO 13012KT 10SM OVC041 A2984 RMK MADISHF
AUS,2017-04-01 18:30,-97.6699,30.1945,M,M,M,130.00,13.00,M,29.84,M,10.00,M,BKN,OVC,M,M,4100.00,5500.00,M,M,M,KAUS 011830Z AUTO 13013KT 10SM BKN041 OVC055 A2984 RMK MADISHF
AUS,2017-04-01 18:35,-97.6699,30.1945,M,M,M,130.00,13.00,M,29.84,M,10.00,M,OVC,M,M,M,4100.00,M,M,M,M,KAUS 011835Z AUTO 13013KT 10SM OVC041 A2984 RMK MADISHF
AUS,2017-04-01 18:40,-97.6699,30.1945,M,M,M,130.00,13.00,M,29.84,M,10.00,M,OVC,M,M,M,4100.00,M,M,M,M,KAUS 011840Z AUTO 13013KT 10SM OVC041 A2984 RMK MADISHF
AUS,2017-04-01 18:45,-97.6699,30.1945,M,M,M,M,M,M,29.84,M,9.00,M,OVC,M,M,M,4100.00,M,M,M,-RA,KAUS 011845Z AUTO /////KT 9SM -RA OVC041 A2984 RMK MADISHF
AUS,2017-04-01 18:50,-97.6699,30.1945,M,M,M,140.00,13.00,M,29.84,M,9.00,M,FEW,BKN,OVC,M,1999.00,3999.00,6000.00,M,-RA,KAUS 011850Z AUTO 14013KT 9SM -RA FEW019 BKN039 OVC060 A2984 RMK MADISHF
AUS,2017-04-01 18:53,-97.6699,30.1945,75.00,64.90,70.83,130.00,10.00,0.00,29.84,1009.60,10.00,22.00,FEW,BKN,OVC,M,2500.00,4000.00,6000.00,M,-RA,KAUS 011853Z 13010G22KT 10SM -RA FEW025 BKN040 OVC060 24/18 A2984 RMK AO2 RAB45 SLP096 P0000 T02390183
AUS,2017-04-01 18:55,-97.6699,30.1945,M,M,M,M,M,M,29.83,M,10.00,M,OVC,M,M,M,3999.00,M,M,M,M,KAUS 011855Z AUTO /////KT 10SM OVC039 A2983 RMK MADISHF
AUS,2017-04-01 19:00,-97.6699,30.1945,M,M,M,120.00,10.00,M,29.83,M,10.00,M,OVC,M,M,M,3999.00,M,M,M,M,KAUS 011900Z AUTO 12010KT 10SM OVC039 A2983 RMK MADISHF
AUS,2017-04-01 19:05,-97.6699,30.1945,M,M,M,130.00,9.00,M,29.83,M,10.00,M,OVC,M,M,M,3999.00,M,M,M,M,KAUS 011905Z AUTO 13009KT 10SM OVC039 A2983 RMK MADISHF
AUS,2017-04-01 19:10,-97.6699,30.1945,M,M,M,130.00,12.00,M,29.83,M,10.00,M,OVC,M,M,M,3999.00,M,M,M,M,KAUS 011910Z AUTO 13012KT 10SM OVC039 A2983 RMK MADISHF
AUS,2017-04-01 19:15,-97.6699,30.1945,M,M,M,130.00,12.00,M,29.84,M,10.00,M,OVC,M,M,M,3800.00,M,M,M,M,KAUS 011915Z AUTO 13012KT 10SM OVC038 A2984 RMK MADISHF
AUS,2017-04-01 19:20,-97.6699,30.1945,M,M,M,130.00,9.00,M,29.84,M,10.00,M,OVC,M,M,M,3800.00,M,M,M,M,KAUS 011920Z AUTO 13009KT 10SM OVC038 A2984 RMK MADISHF
AUS,2017-04-01 19:25,-97.6699,30.1945,M,M,M,130.00,12.00,M,29.83,M,10.00,M,OVC,M,M,M,3800.00,M,M,M,M,KAUS 011925Z AUTO 13012KT 10SM OVC038 A2983 RMK MADISHF
AUS,2017-04-01 19:30,-97.6699,30.1945,M,M,M,M,M,M,29.83,M,10.00,M,OVC,M,M,M,3600.00,M,M,M,M,KAUS 011930Z AUTO /////KT 10SM OVC036 A2983 RMK MADISHF
AUS,2017-04-01 19:35,-97.6699,30.1945,M,M,M,140.00,14.00,M,29.83,M,10.00,M,OVC,M,M,M,3399.00,M,M,M,M,KAUS 011935Z AUTO 14014KT 10SM OVC033 A2983 RMK MADISHF
AUS,2017-04-01 19:40,-97.6699,30.1945,M,M,M,140.00,14.00,M,29.83,M,10.00,M,BKN,OVC,M,M,3300.00,3999.00,M,M,M,KAUS 011940Z AUTO 14014KT 10SM BKN033 OVC039 A2983 RMK MADISHF
AUS,2017-04-01 19:45,-97.6699,30.1945,M,M,M,M,M,M,29.83,M,10.00,M,BKN,OVC,M,M,3200.00,3800.00,M,M,M,KAUS 011945Z AUTO /////KT 10SM BKN032 OVC038 A2983 RMK MADISHF
AUS,2017-04-01 19:50,-97.6699,30.1945,M,M,M,M,M,M,29.82,M,10.00,M,BKN,OVC,M,M,3200.00,3800.00,M,M,M,KAUS 011950Z AUTO /////KT 10SM BKN032 OVC038 A2982 RMK MADISHF
AUS,2017-04-01 19:53,-97.6699,30.1945,77.00,64.90,66.27,140.00,16.00,0.00,29.82,1009.10,10.00,20.00,FEW,BKN,OVC,M,2700.00,3200.00,3800.00,M,M,KAUS 011953Z 14016G20KT 10SM FEW027 BKN032 OVC038 25/18 A2982 RMK AO2 RAE1854 SLP091 P0000 T02500183
AUS,2017-04-01 19:55,-97.6699,30.1945,M,M,M,130.00,13.00,M,29.82,M,10.00,M,OVC,M,M,M,3500.00,M,M,M,M,KAUS 011955Z AUTO 13013KT 10SM OVC035 A2982 RMK MADISHF
AUS,2017-04-01 20:00,-97.6699,30.1945,M,M,M,140.00,16.00,M,29.82,M,10.00,M,OVC,M,M,M,3500.00,M,M,M,M,KAUS 012000Z AUTO 14016KT 10SM OVC035 A2982 RMK MADISHF
AUS,2017-04-01 20:05,-97.6699,30.1945,M,M,M,130.00,13.00,M,29.82,M,10.00,M,BKN,BKN,OVC,M,3500.00,4300.00,7999.00,M,M,KAUS 012005Z AUTO 13013KT 10SM BKN035 BKN043 OVC079 A2982 RMK MADISHF
AUS,2017-04-01 20:10,-97.6699,30.1945,M,M,M,130.00,14.00,M,29.82,M,10.00,M,BKN,BKN,BKN,M,3500.00,4300.00,7999.00,M,M,KAUS 012010Z AUTO 13014KT 10SM BKN035 BKN043 BKN079 A2982 RMK MADISHF
AUS,2017-04-01 20:15,-97.6699,30.1945,M,M,M,M,M,M,29.81,M,10.00,M,FEW,BKN,BKN,M,3000.00,3600.00,4300.00,M,M,KAUS 012015Z AUTO /////KT 10SM FEW030 BKN036 BKN043 A2981 RMK MADISHF
AUS,2017-04-01 20:20,-97.6699,30.1945,M,M,M,M,M,M,29.81,M,10.00,M,BKN,BKN,BKN,M,3600.00,4300.00,7999.00,M,M,KAUS 012020Z AUTO /////KT 10SM BKN036 BKN043 BKN079 A2981 RMK MADISHF
AUS,2017-04-01 20:25,-97.6699,30.1945,M,M,M,M,M,M,29.81,M,10.00,M,BKN,BKN,BKN,M,3600.00,4400.00,7999.00,M,M,KAUS 012025Z AUTO /////KT 10SM BKN036 BKN044 BKN079 A2981 RMK MADISHF
AUS,2017-04-01 20:30,-97.6699,30.1945,M,M,M,M,M,M,29.81,M,10.00,M,BKN,BKN,BKN,M,3600.00,4300.00,7999.00,M,M,KAUS 012030Z AUTO /////KT 10SM BKN036 BKN043 BKN079 A2981 RMK MADISHF
AUS,2017-04-01 20:35,-97.6699,30.1945,M,M,M,M,M,M,29.81,M,10.00,M,BKN,BKN,M,M,3600.00,7999.00,M,M,M,KAUS 012035Z AUTO /////KT 10SM BKN036 BKN079 A2981 RMK MADISHF
AUS,2017-04-01 20:40,-97.6699,30.1945,M,M,M,M,M,M,29.81,M,10.00,M,OVC,M,M,M,3600.00,M,M,M,M,KAUS 012040Z AUTO /////KT 10SM OVC036 A2981 RMK MADISHF
AUS,2017-04-01 20:45,-97.6699,30.1945,M,M,M,M,M,M,29.80,M,10.00,M,OVC,M,M,M,3800.00,M,M,M,M,KAUS 012045Z AUTO /////KT 10SM OVC038 A2980 RMK MADISHF
AUS,2017-04-01 20:50,-97.6699,30.1945,M,M,M,M,M,M,29.80,M,10.00,M,BKN,OVC,M,M,3800.00,7999.00,M,M,M,KAUS 012050Z AUTO /////KT 10SM BKN038 OVC079 A2980 RMK MADISHF
AUS,2017-04-01 20:53,-97.6699,30.1945,79.00,64.90,62.03,140.00,16.00,0.00,29.80,1008.40,10.00,25.00,FEW,BKN,OVC,M,2900.00,4000.00,8000.00,M,M,KAUS 012053Z 14016G25KT 10SM FEW029 BKN040 OVC080 26/18 A2980 RMK AO2 SLP084 60000 T02610183 58016
AUS,2017-04-01 20:55,-97.6699,30.1945,M,M,M,M,M,M,29.80,M,10.00,M,BKN,M,M,M,3800.00,M,M,M,M,KAUS 012055Z AUTO /////KT 10SM BKN038 A2980 RMK MADISHF
AUS,2017-04-01 21:00,-97.6699,30.1945,M,M,M,M,M,M,29.80,M,10.00,M,BKN,BKN,M,M,3800.00,8500.00,M,M,M,KAUS 012100Z AUTO /////KT 10SM BKN038 BKN085 A2980 RMK MADISHF
AUS,2017-04-01 21:05,-97.6699,30.1945,M,M,M,M,M,M,29.80,M,10.00,M,SCT,BKN,M,M,3800.00,7999.00,M,M,M,KAUS 012105Z AUTO /////KT 10SM SCT038 BKN079 A2980 RMK CIG 038 RWY17R  MADISHF
AUS,2017-04-01 21:10,-97.6699,30.1945,M,M,M,M,M,M,29.80,M,10.00,M,SCT,BKN,M,M,3800.00,7999.00,M,M,M,KAUS 012110Z AUTO /////KT 10SM SCT038 BKN079 A2980 RMK CIG 040 RWY17R  MADISHF
AUS,2017-04-01 21:15,-97.6699,30.1945,M,M,M,140.00,16.00,M,29.79,M,10.00,M,SCT,SCT,BKN,M,3300.00,4200.00,7999.00,M,M,KAUS 012115Z AUTO 14016KT 10SM SCT033 SCT042 BKN079 A2979 RMK CIG 043 RWY17R  MADISHF
AUS,2017-04-01 21:20,-97.6699,30.1945,M,M,M,140.00,16.00,M,29.80,M,10.00,M,BKN,BKN,M,M,3300.00,7999.00,M,M,M,KAUS 012120Z AUTO 14016KT 10SM BKN033 BKN079 A2980 RMK MADISHF
AUS,2017-04-01 21:25,-97.6699,30.1945,M,M,M,M,M,M,29.80,M,10.00,M,SCT,BKN,BKN,M,3300.00,4200.00,7999.00,M,M,KAUS 012125Z AUTO /////KT 10SM SCT033 BKN042 BKN079 A2980 RMK CIG 034 RWY17R  MADISHF
AUS,2017-04-01 21:30,-97.6699,30.1945,M,M,M,M,M,M,29.80,M,10.00,M,SCT,BKN,BKN,M,3500.00,4100.00,4800.00,M,M,KAUS 012130Z AUTO /////KT 10SM SCT035 BKN041 BKN048 A2980 RMK CIG 034 RWY17R  MADISHF
AUS,2017-04-01 21:35,-97.6699,30.1945,M,M,M,M,M,M,29.80,M,10.00,M,BKN,OVC,M,M,3500.00,4400.00,M,M,M,KAUS 012135Z AUTO /////KT 10SM BKN035 OVC044 A2980 RMK MADISHF
AUS,2017-04-01 21:40,-97.6699,30.1945,M,M,M,M,M,M,29.79,M,10.00,M,BKN,OVC,M,M,3500.00,4400.00,M,M,M,KAUS 012140Z AUTO /////KT 10SM BKN035 OVC044 A2979 RMK MADISHF
AUS,2017-04-01 21:45,-97.6699,30.1945,M,M,M,M,M,M,29.80,M,10.00,M,BKN,OVC,M,M,3100.00,3800.00,M,M,M,KAUS 012145Z AUTO /////KT 10SM BKN031 OVC038 A2980 RMK MADISHF
AUS,2017-04-01 21:50,-97.6699,30.1945,M,M,M,130.00,13.00,M,29.80,M,10.00,M,BKN,OVC,M,M,3100.00,3800.00,M,M,M,KAUS 012150Z AUTO 13013KT 10SM BKN031 OVC038 A2980 RMK MADISHF
AUS,2017-04-01 21:53,-97.6699,30.1945,78.10,64.90,63.90,140.00,14.00,0.00,29.80,1008.20,10.00,24.00,BKN,OVC,M,M,3100.00,3800.00,M,M,M,KAUS 012153Z 14014G24KT 10SM BKN031 OVC038 26/18 A2980 RMK AO2 PK WND 15026/2121 SLP082 T02560183
AUS,2017-04-01 21:55,-97.6699,30.1945,M,M,M,M,M,M,29.80,M,10.00,M,SCT,BKN,OVC,M,3000.00,3500.00,4300.00,M,M,KAUS 012155Z AUTO /////KT 10SM SCT030 BKN035 OVC043 A2980 RMK MADISHF
AUS,2017-04-01 22:00,-97.6699,30.1945,M,M,M,140.00,14.00,M,29.80,M,10.00,M,BKN,BKN,OVC,M,3399.00,5000.00,7999.00,M,M,KAUS 012200Z AUTO 14014KT 10SM BKN033 BKN050 OVC079 A2980 RMK MADISHF
AUS,2017-04-01 22:05,-97.6699,30.1945,M,M,M,M,M,M,29.80,M,10.00,M,BKN,BKN,OVC,M,3200.00,3900.00,7999.00,M,M,KAUS 012205Z AUTO /////KT 10SM BKN032 BKN039 OVC079 A2980 RMK MADISHF
AUS,2017-04-01 22:10,-97.6699,30.1945,M,M,M,M,M,M,29.79,M,10.00,M,FEW,SCT,BKN,M,3000.00,3700.00,5000.00,M,M,KAUS 012210Z AUTO /////KT 10SM FEW030 SCT037 BKN050 A2979 RMK CIG 037 RWY17R  MADISHF
AUS,2017-04-01 22:15,-97.6699,30.1945,M,M,M,M,M,M,29.79,M,10.00,M,SCT,BKN,BKN,M,3399.00,5000.00,6000.00,M,M,KAUS 012215Z AUTO /////KT 10SM SCT033 BKN050 BKN060 A2979 RMK CIG 037 RWY17R  MADISHF
AUS,2017-04-01 22:20,-97.6699,30.1945,M,M,M,M,M,M,29.79,M,10.00,M,FEW,SCT,BKN,M,3399.00,5000.00,7999.00,M,M,KAUS 012220Z AUTO /////KT 10SM FEW033 SCT050 BKN079 A2979 RMK CIG 037 RWY17R  MADISHF
AUS,2017-04-01 22:25,-97.6699,30.1945,M,M,M,M,M,M,29.80,M,10.00,M,SCT,SCT,BKN,M,3600.00,5000.00,6000.00,M,M,KAUS 012225Z AUTO /////KT 10SM SCT036 SCT050 BKN060 A2980 RMK CIG 039 RWY17R  MADISHF
AUS,2017-04-01 22:30,-97.6699,30.1945,M,M,M,M,M,M,29.79,M,10.00,M,SCT,BKN,BKN,M,3600.00,4700.00,5500.00,M,M,KAUS 012230Z AUTO /////KT 10SM SCT036 BKN047 BKN055 A2979 RMK CIG 037 RWY17R  MADISHF
AUS,2017-04-01 22:35,-97.6699,30.1945,M,M,M,M,M,M,29.80,M,10.00,M,BKN,BKN,OVC,M,3200.00,3900.00,4700.00,M,M,KAUS 012235Z AUTO /////KT 10SM BKN032 BKN039 OVC047 A2980 RMK MADISHF
AUS,2017-04-01 22:40,-97.6699,30.1945,M,M,M,M,M,M,29.80,M,10.00,M,SCT,BKN,OVC,M,3000.00,3999.00,5500.00,M,M,KAUS 012240Z AUTO /////KT 10SM SCT030 BKN039 OVC055 A2980 RMK MADISHF
AUS,2017-04-01 22:45,-97.6699,30.1945,M,M,M,130.00,14.00,M,29.79,M,10.00,M,SCT,BKN,BKN,M,3000.00,3999.00,5000.00,M,M,KAUS 012245Z AUTO 13014KT 10SM SCT030 BKN039 BKN050 A2979 RMK MADISHF
AUS,2017-04-01 22:50,-97.6699,30.1945,M,M,M,140.00,13.00,M,29.80,M,10.00,M,SCT,BKN,BKN,M,3600.00,4700.00,7999.00,M,M,KAUS 012250Z AUTO 14013KT 10SM SCT036 BKN047 BKN079 A2980 RMK MADISHF
AUS,2017-04-01 22:53,-97.6699,30.1945,79.00,66.00,64.45,130.00,12.00,0.00,29.79,1008.10,10.00,M,SCT,BKN,BKN,M,3600.00,4700.00,8000.00,M,M,KAUS 012253Z 13012KT 10SM SCT036 BKN047 BKN080 26/19 A2979 RMK AO2 PK WND 14027/2213 SLP081 T02610189
AUS,2017-04-01 22:55,-97.6699,30.1945,M,M,M,140.00,14.00,M,29.80,M,10.00,M,FEW,SCT,BKN,M,3000.00,3600.00,7999.00,M,M,KAUS 012255Z AUTO 14014KT 10SM FEW030 SCT036 BKN079 A2980 RMK MADISHF
AUS,2017-04-01 23:00,-97.6699,30.1945,M,M,M,140.00,15.00,M,29.80,M,10.00,20.00,FEW,BKN,M,M,3399.00,7999.00,M,M,M,KAUS 012300Z AUTO 14015G20KT 10SM FEW033 BKN079 A2980 RMK MADISHF
AUS,2017-04-01 23:05,-97.6699,30.1945,M,M,M,M,M,M,29.80,M,10.00,M,FEW,BKN,M,M,3399.00,7999.00,M,M,M,KAUS 012305Z AUTO /////KT 10SM FEW033 BKN079 A2980 RMK MADISHF
AUS,2017-04-01 23:10,-97.6699,30.1945,M,M,M,M,M,M,29.80,M,10.00,M,FEW,BKN,M,M,3399.00,7500.00,M,M,M,KAUS 012310Z AUTO /////KT 10SM FEW033 BKN075 A2980 RMK MADISHF
AUS,2017-04-01 23:15,-97.6699,30.1945,M,M,M,M,M,M,29.80,M,10.00,M,SCT,BKN,M,M,3600.00,7500.00,M,M,M,KAUS 012315Z AUTO /////KT 10SM SCT036 BKN075 A2980 RMK MADISHF
AUS,2017-04-01 23:20,-97.6699,30.1945,M,M,M,M,M,M,29.80,M,10.00,M,SCT,BKN,M,M,3600.00,7500.00,M,M,M,KAUS 012320Z AUTO /////KT 10SM SCT036 BKN075 A2980 RMK MADISHF
AUS,2017-04-01 23:25,-97.6699,30.1945,M,M,M,M,M,M,29.81,M,10.00,M,SCT,SCT,BKN,M,3800.00,4400.00,7500.00,M,M,KAUS 012325Z AUTO /////KT 10SM SCT038 SCT044 BKN075 A2981 RMK MADISHF
AUS,2017-04-01 23:30,-97.6699,30.1945,M,M,M,M,M,M,29.80,M,10.00,M,BKN,BKN,M,M,3800.00,7500.00,M,M,M,KAUS 012330Z AUTO /////KT 10SM BKN038 BKN075 A2980 RMK MADISHF
AUS,2017-04-01 23:35,-97.6699,30.1945,M,M,M,M,M,M,29.80,M,10.00,M,BKN,BKN,M,M,3999.00,7999.00,M,M,M,KAUS 012335Z AUTO /////KT 10SM BKN039 BKN079 A2980 RMK MADISHF
AUS,2017-04-01 23:40,-97.6699,30.1945,M,M,M,M,M,M,29.80,M,10.00,M,BKN,M,M,M,3999.00,M,M,M,M,KAUS 012340Z AUTO /////KT 10SM BKN039 A2980 RMK MADISHF
AUS,2017-04-01 23:45,-97.6699,30.1945,M,M,M,M,M,M,29.80,M,10.00,M,FEW,SCT,M,M,3800.00,4500.00,M,M,M,KAUS 012345Z AUTO /////KT 10SM FEW038 SCT045 A2980 RMK MADISHF
AUS,2017-04-01 23:50,-97.6699,30.1945,M,M,M,M,M,M,29.81,M,10.00,M,SCT,BKN,BKN,M,3999.00,7999.00,12000.00,M,M,KAUS 012350Z AUTO /////KT 10SM SCT039 BKN079 BKN120 A2981 RMK MADISHF
AUS,2017-04-01 23:53,-97.6699,30.1945,77.00,64.00,64.21,130.00,14.00,0.00,29.80,1008.40,10.00,22.00,SCT,BKN,BKN,M,4000.00,8000.00,12000.00,M,M,KAUS 012353Z 13014G22KT 10SM SCT040 BKN080 BKN120 25/18 A2980 RMK AO2 SLP084 60000 T02500178 10261 20239 53001
AUS,2017-04-01 23:55,-97.6699,30.1945,M,M,M,M,M,M,29.80,M,10.00,M,FEW,M,M,M,4200.00,M,M,M,M,KAUS 012355Z AUTO /////KT 10SM FEW042 A2980 RMK MADISHF
