#DEBUG: Format Typ    -> comma
#DEBUG: Time Period   -> 2017-04-01 00:00:00+00:00 2017-04-02 00:00:00+00:00
#DEBUG: Time Zone     -> Etc/UTC
#DEBUG: Data Contact   -> daryl herzmann akrherz@iastate.edu 515-294-5978
#DEBUG: Entries Found -> -1
station,valid,lon,lat,tmpf, dwpf, relh, drct, sknt, p01i, alti, mslp, vsby, gust, skyc1, skyc2, skyc3, skyc4, skyl1, skyl2, skyl3, skyl4, presentwx, metar
AVK,2017-04-01 00:15,-98.6700,36.7732,53.60,46.40,76.50,60.00,9.00,0.00,29.89,M,10.00,M,OVC,M,M,M,2700.00,M,M,M,M,KAVK 010015Z AUTO 06009KT 10SM OVC027 12/08 A2989 RMK AO2
AVK,2017-04-01 00:35,-98.6700,36.7732,53.60,46.40,76.50,50.00,6.00,0.00,29.91,M,10.00,M,OVC,M,M,M,2900.00,M,M,M,M,KAVK 010035Z AUTO 05006KT 10SM OVC029 12/08 A2991 RMK AO2
AVK,2017-04-01 00:55,-98.6700,36.7732,53.60,46.40,76.50,40.00,7.00,0.00,29.91,M,10.00,M,OVC,M,M,M,2900.00,M,M,M,M,KAVK 010055Z AUTO 04007KT 10SM OVC029 12/08 A2991 RMK AO2
AVK,2017-04-01 01:15,-98.6700,36.7732,53.60,46.40,76.50,40.00,6.00,0.00,29.93,M,10.00,M,OVC,M,M,M,3100.00,M,M,M,M,KAVK 010115Z AUTO 04006KT 10SM OVC031 12/08 A2993 RMK AO2
AVK,2017-04-01 01:35,-98.6700,36.7732,53.60,46.40,76.50,10.00,9.00,0.00,29.94,M,10.00,M,OVC,M,M,M,3300.00,M,M,M,M,KAVK 010135Z AUTO 01009KT 10SM OVC033 12/08 A2994 RMK AO2
AVK,2017-04-01 01:55,-98.6700,36.7732,51.80,46.40,81.74,20.00,11.00,0.00,29.95,M,10.00,M,OVC,M,M,M,3500.00,M,M,M,M,KAVK 010155Z AUTO 02011KT 10SM OVC035 11/08 A2995 RMK AO2 LTG DSNT N AND E
AVK,2017-04-01 02:15,-98.6700,36.7732,50.00,44.60,81.61,20.00,15.00,0.00,29.96,M,10.00,19.00,OVC,M,M,M,3500.00,M,M,M,-RA,KAVK 010215Z AUTO 02015G19KT 10SM -RA OVC035 10/07 A2996 RMK AO2
AVK,2017-04-01 02:35,-98.6700,36.7732,50.00,44.60,81.61,20.00,12.00,0.00,29.97,M,10.00,M,OVC,M,M,M,3500.00,M,M,M,M,KAVK 010235Z AUTO 02012KT 10SM OVC035 10/07 A2997 RMK AO2
AVK,2017-04-01 02:55,-98.6700,36.7732,50.00,44.60,81.61,20.00,15.00,0.00,29.97,M,10.00,20.00,OVC,M,M,M,3500.00,M,M,M,M,KAVK 010255Z AUTO 02015G20KT 10SM OVC035 10/07 A2997 RMK AO2
AVK,2017-04-01 03:15,-98.6700,36.7732,48.20,44.60,87.28,50.00,12.00,0.00,29.96,M,10.00,M,OVC,M,M,M,3500.00,M,M,M,M,KAVK 010315Z AUTO 05012KT 10SM OVC035 09/07 A2996 RMK AO2
AVK,2017-04-01 03:35,-98.6700,36.7732,48.20,44.60,87.28,50.00,16.00,0.00,29.95,M,10.00,20.00,BKN,OVC,M,M,2700.00,3300.00,M,M,M,KAVK 010335Z AUTO 05016G20KT 10SM BKN027 OVC033 09/07 A2995 RMK AO2
AVK,2017-04-01 03:55,-98.6700,36.7732,48.20,44.60,87.28,50.00,16.00,0.00,29.94,M,10.00,21.00,OVC,M,M,M,2400.00,M,M,M,M,KAVK 010355Z AUTO 05016G21KT 10SM OVC024 09/07 A2994 RMK AO2
AVK,2017-04-01 04:15,-98.6700,36.7732,46.40,44.60,93.40,50.00,15.00,0.00,29.95,M,9.00,M,OVC,M,M,M,2400.00,M,M,M,M,KAVK 010415Z AUTO 05015KT 9SM OVC024 08/07 A2995 RMK AO2
AVK,2017-04-01 04:35,-98.6700,36.7732,46.40,44.60,93.40,50.00,10.00,0.00,29.97,M,7.00,18.00,FEW,OVC,M,M,2000.00,2600.00,M,M,M,KAVK 010435Z AUTO 05010G18KT 7SM FEW020 OVC026 08/07 A2997 RMK AO2
AVK,2017-04-01 04:55,-98.6700,36.7732,46.40,44.60,93.40,50.00,10.00,0.00,29.99,M,6.00,M,BKN,OVC,M,M,2600.00,6000.00,M,M,BR,KAVK 010455Z AUTO 05010KT 6SM BR BKN026 OVC060 08/07 A2999 RMK AO2
AVK,2017-04-01 05:15,-98.6700,36.7732,46.40,44.60,93.40,50.00,9.00,0.00,29.99,M,5.00,M,OVC,M,M,M,2600.00,M,M,M,BR,KAVK 010515Z AUTO 05009KT 5SM BR OVC026 08/07 A2999 RMK AO2
AVK,2017-04-01 05:35,-98.6700,36.7732,46.40,44.60,93.40,50.00,10.00,0.00,29.99,M,5.00,M,BKN,BKN,OVC,M,2600.00,5000.00,6000.00,M,BR,KAVK 010535Z AUTO 05010KT 5SM BR BKN026 BKN050 OVC060 08/07 A2999 RMK AO2
AVK,2017-04-01 05:55,-98.6700,36.7732,46.40,44.60,93.40,40.00,11.00,0.00,29.99,M,5.00,M,FEW,BKN,OVC,M,2200.00,5000.00,6000.00,M,BR,KAVK 010555Z AUTO 04011KT 5SM BR FEW022 BKN050 OVC060 08/07 A2999 RMK AO2
AVK,2017-04-01 06:15,-98.6700,36.7732,46.40,44.60,93.40,50.00,11.00,0.00,29.99,M,5.00,M,BKN,OVC,M,M,5000.00,6000.00,M,M,BR,KAVK 010615Z AUTO 05011KT 5SM BR BKN050 OVC060 08/07 A2999 RMK AO2
AVK,2017-04-01 06:35,-98.6700,36.7732,48.20,44.60,87.28,40.00,12.00,0.00,29.99,M,5.00,16.00,FEW,OVC,M,M,5000.00,6000.00,M,M,BR,KAVK 010635Z AUTO 04012G16KT 5SM BR FEW050 OVC060 09/07 A2999 RMK AO2 LTG DSNT W
AVK,2017-04-01 06:55,-98.6700,36.7732,46.40,44.60,93.40,50.00,12.00,0.00,29.98,M,5.00,18.00,OVC,M,M,M,6000.00,M,M,M,BR,KAVK 010655Z AUTO 05012G18KT 5SM BR OVC060 08/07 A2998 RMK AO2 LTG DSNT N
AVK,2017-04-01 07:15,-98.6700,36.7732,46.40,44.60,93.40,40.00,11.00,0.00,29.98,M,5.00,M,SCT,BKN,OVC,M,1500.00,4400.00,6000.00,M,BR,KAVK 010715Z AUTO 04011KT 5SM BR SCT015 BKN044 OVC060 08/07 A2998 RMK AO2
AVK,2017-04-01 07:35,-98.6700,36.7732,46.40,44.60,93.40,40.00,14.00,0.00,29.98,M,7.00,17.00,BKN,M,M,M,1500.00,M,M,M,M,KAVK 010735Z AUTO 04014G17KT 7SM BKN015 08/07 A2998 RMK AO2 LTG DSNT NW
AVK,2017-04-01 07:55,-98.6700,36.7732,46.40,44.60,93.40,40.00,14.00,0.00,30.00,M,7.00,18.00,OVC,M,M,M,1500.00,M,M,M,M,KAVK 010755Z AUTO 04014G18KT 7SM OVC015 08/07 A3000 RMK AO2 LTG DSNT N AND NW
AVK,2017-04-01 08:15,-98.6700,36.7732,46.40,44.60,93.40,30.00,11.00,0.00,30.01,M,7.00,M,OVC,M,M,M,1500.00,M,M,M,M,KAVK 010815Z AUTO 03011KT 7SM OVC015 08/07 A3001 RMK AO2
AVK,2017-04-01 08:35,-98.6700,36.7732,46.40,44.60,93.40,40.00,14.00,0.00,30.00,M,7.00,18.00,OVC,M,M,M,1500.00,M,M,M,M,KAVK 010835Z AUTO 04014G18KT 7SM OVC015 08/07 A3000 RMK AO2
AVK,2017-04-01 08:55,-98.6700,36.7732,46.40,44.60,93.40,40.00,13.00,0.00,30.01,M,9.00,M,OVC,M,M,M,1300.00,M,M,M,M,KAVK 010855Z AUTO 04013KT 9SM OVC013 08/07 A3001 RMK AO2
AVK,2017-04-01 09:15,-98.6700,36.7732,46.40,44.60,93.40,40.00,15.00,0.00,30.01,M,9.00,24.00,OVC,M,M,M,1300.00,M,M,M,M,KAVK 010915Z AUTO 04015G24KT 9SM OVC013 08/07 A3001 RMK AO2
AVK,2017-04-01 09:35,-98.6700,36.7732,46.40,44.60,93.40,50.00,15.00,0.00,30.01,M,8.00,20.00,OVC,M,M,M,1300.00,M,M,M,M,KAVK 010935Z AUTO 05015G20KT 8SM OVC013 08/07 A3001 RMK AO2
AVK,2017-04-01 09:55,-98.6700,36.7732,46.40,44.60,93.40,50.00,16.00,0.00,30.01,M,7.00,21.00,OVC,M,M,M,1300.00,M,M,M,M,KAVK 010955Z AUTO 05016G21KT 7SM OVC013 08/07 A3001 RMK AO2
AVK,2017-04-01 10:15,-98.6700,36.7732,46.40,44.60,93.40,50.00,15.00,0.00,30.01,M,7.00,21.00,OVC,M,M,M,1300.00,M,M,M,M,KAVK 011015Z AUTO 05015G21KT 7SM OVC013 08/07 A3001 RMK AO2
AVK,2017-04-01 10:35,-98.6700,36.7732,46.40,42.80,87.19,60.00,16.00,0.00,30.02,M,9.00,23.00,OVC,M,M,M,1100.00,M,M,M,M,KAVK 011035Z AUTO 06016G23KT 9SM OVC011 08/06 A3002 RMK AO2
AVK,2017-04-01 10:55,-98.6700,36.7732,46.40,44.60,93.40,60.00,15.00,0.00,30.02,M,10.00,20.00,OVC,M,M,M,1100.00,M,M,M,M,KAVK 011055Z AUTO 06015G20KT 10SM OVC011 08/07 A3002 RMK AO2 LTG DSNT N AND NW
AVK,2017-04-01 11:15,-98.6700,36.7732,44.60,44.60,100.00,60.00,15.00,0.00,30.02,M,9.00,20.00,OVC,M,M,M,1100.00,M,M,M,M,KAVK 011115Z AUTO 06015G20KT 9SM OVC011 07/07 A3002 RMK AO2
AVK,2017-04-01 11:35,-98.6700,36.7732,44.60,44.60,100.00,60.00,14.00,0.00,30.02,M,9.00,19.00,OVC,M,M,M,1100.00,M,M,M,M,KAVK 011135Z AUTO 06014G19KT 9SM OVC011 07/07 A3002 RMK AO2
AVK,2017-04-01 11:55,-98.6700,36.7732,44.60,44.60,100.00,40.00,14.00,0.00,30.04,M,8.00,18.00,OVC,M,M,M,1100.00,M,M,M,M,KAVK 011155Z AUTO 04014G18KT 8SM OVC011 07/07 A3004 RMK AO2
AVK,2017-04-01 12:10,-98.6700,36.7732,44.60,44.60,100.00,40.00,13.00,0.00,30.05,M,7.00,16.00,OVC,M,M,M,1100.00,M,M,M,M,KAVK 011210Z AUTO 04013G16KT 7SM OVC011 07/07 A3005 RMK AO2
AVK,2017-04-01 12:35,-98.6700,36.7732,44.60,44.60,100.00,40.00,14.00,0.00,30.05,M,5.00,M,OVC,M,M,M,900.00,M,M,M,BR,KAVK 011235Z AUTO 04014KT 5SM BR OVC009 07/07 A3005 RMK AO2 LTG DSNT NW-E
AVK,2017-04-01 12:55,-98.6700,36.7732,44.60,44.60,100.00,50.00,13.00,0.00,30.05,M,3.00,M,OVC,M,M,M,900.00,M,M,M,BR,KAVK 011255Z AUTO 05013KT 3SM BR OVC009 07/07 A3005 RMK AO2
AVK,2017-04-01 13:15,-98.6700,36.7732,44.60,44.60,100.00,50.00,15.00,0.00,30.05,M,2.50,18.00,OVC,M,M,M,700.00,M,M,M,-RA,KAVK 011315Z AUTO 05015G18KT 2 1/2SM -RA OVC007 07/07 A3005 RMK AO2
AVK,2017-04-01 13:35,-98.6700,36.7732,44.60,44.60,100.00,50.00,16.00,0.00,30.05,M,2.50,20.00,OVC,M,M,M,700.00,M,M,M,-RA,KAVK 011335Z AUTO 05016G20KT 2 1/2SM -RA OVC007 07/07 A3005 RMK AO2
AVK,2017-04-01 13:55,-98.6700,36.7732,44.60,44.60,100.00,50.00,14.00,0.00,30.06,M,2.50,20.00,OVC,M,M,M,600.00,M,M,M,-RA,KAVK 011355Z AUTO 05014G20KT 2 1/2SM -RA OVC006 07/07 A3006 RMK AO2 LTG DSNT NW
AVK,2017-04-01 14:15,-98.6700,36.7732,44.60,44.60,100.00,50.00,13.00,0.00,30.07,M,3.00,M,OVC,M,M,M,600.00,M,M,M,BR,KAVK 011415Z AUTO 05013KT 3SM BR OVC006 07/07 A3007 RMK AO2
AVK,2017-04-01 14:35,-98.6700,36.7732,44.60,44.60,100.00,50.00,16.00,0.00,30.05,M,2.50,20.00,BKN,OVC,M,M,500.00,1000.00,M,M,-RA,KAVK 011435Z AUTO 05016G20KT 2 1/2SM -RA BKN005 OVC010 07/07 A3005 RMK AO2
AVK,2017-04-01 14:55,-98.6700,36.7732,44.60,44.60,100.00,50.00,15.00,0.00,30.05,M,2.50,23.00,OVC,M,M,M,500.00,M,M,M,-RA,KAVK 011455Z AUTO 05015G23KT 2 1/2SM -RA OVC005 07/07 A3005 RMK AO2 LTG DSNT W AND NW
AVK,2017-04-01 15:10,-98.6700,36.7732,44.60,44.60,100.00,60.00,14.00,0.00,30.05,M,3.00,18.00,OVC,M,M,M,500.00,M,M,M,BR,KAVK 011510Z AUTO 06014G18KT 3SM BR OVC005 07/07 A3005 RMK AO2 LTG DSNT E AND W
AVK,2017-04-01 15:35,-98.6700,36.7732,44.60,44.60,100.00,60.00,16.00,0.00,30.06,M,2.50,M,OVC,M,M,M,400.00,M,M,M,-RA,KAVK 011535Z AUTO 06016KT 2 1/2SM -RA OVC004 07/07 A3006 RMK AO2 LTG DSNT W AND NW
AVK,2017-04-01 15:55,-98.6700,36.7732,44.60,44.60,100.00,50.00,17.00,0.00,30.06,M,3.00,20.00,OVC,M,M,M,500.00,M,M,M,BR,KAVK 011555Z AUTO 05017G20KT 3SM BR OVC005 07/07 A3006 RMK AO2
AVK,2017-04-01 16:00,-98.6700,36.7732,44.60,44.60,100.00,60.00,16.00,0.00,30.06,M,3.00,20.00,OVC,M,M,M,500.00,M,M,M,BR,KAVK 011600Z AUTO 06016G20KT 3SM BR OVC005 07/07 A3006 RMK AO2 LTG DSNT W
