#DEBUG: Format Typ    -> comma
#DEBUG: Time Period   -> 2017-04-01 00:00:00+00:00 2017-04-02 00:00:00+00:00
#DEBUG: Time Zone     -> Etc/UTC
#DEBUG: Data Contact   -> daryl herzmann akrherz@iastate.edu 515-294-5978
#DEBUG: Entries Found -> -1
station,valid,lon,lat,tmpf, dwpf, relh, drct, sknt, p01i, alti, mslp, vsby, gust, skyc1, skyc2, skyc3, skyc4, skyl1, skyl2, skyl3, skyl4, presentwx, metar
AVL,2017-04-01 00:00,-82.5375,35.4319,M,M,M,350.00,7.00,M,29.83,M,10.00,M,OVC,M,M,M,5500.00,M,M,M,M,KAVL 010000Z AUTO 35007KT 10SM OVC055 A2983 RMK MADISHF
AVL,2017-04-01 00:05,-82.5375,35.4319,M,M,M,350.00,8.00,M,29.83,M,10.00,M,FEW,OVC,M,M,4500.00,6000.00,M,M,M,KAVL 010005Z AUTO 35008KT 10SM FEW045 OVC060 A2983 RMK MADISHF
AVL,2017-04-01 00:10,-82.5375,35.4319,M,M,M,350.00,9.00,M,29.83,M,10.00,M,BKN,OVC,M,M,5000.00,6000.00,M,M,M,KAVL 010010Z AUTO 35009KT 10SM BKN050 OVC060 A2983 RMK MADISHF
AVL,2017-04-01 00:15,-82.5375,35.4319,M,M,M,340.00,9.00,M,29.83,M,10.00,M,BKN,OVC,M,M,5000.00,6000.00,M,M,M,KAVL 010015Z AUTO 34009KT 10SM BKN050 OVC060 A2983 RMK MADISHF
AVL,2017-04-01 00:20,-82.5375,35.4319,M,M,M,320.00,9.00,M,29.83,M,10.00,M,BKN,OVC,M,M,5000.00,6000.00,M,M,M,KAVL 010020Z AUTO 32009KT 10SM BKN050 OVC060 A2983 RMK MADISHF
AVL,2017-04-01 00:25,-82.5375,35.4319,M,M,M,320.00,9.00,M,29.83,M,10.00,M,BKN,OVC,M,M,5000.00,6000.00,M,M,M,KAVL 010025Z AUTO 32009KT 10SM BKN050 OVC060 A2983 RMK MADISHF
AVL,2017-04-01 00:30,-82.5375,35.4319,M,M,M,300.00,4.00,M,29.83,M,10.00,M,BKN,OVC,M,M,5000.00,6000.00,M,M,M,KAVL 010030Z AUTO 30004KT 10SM BKN050 OVC060 A2983 RMK MADISHF
AVL,2017-04-01 00:35,-82.5375,35.4319,M,M,M,290.00,11.00,M,29.84,M,10.00,M,BKN,OVC,M,M,5000.00,6000.00,M,M,M,KAVL 010035Z AUTO 29011KT 10SM BKN050 OVC060 A2984 RMK MADISHF
AVL,2017-04-01 00:40,-82.5375,35.4319,M,M,M,300.00,9.00,M,29.84,M,10.00,M,OVC,M,M,M,4900.00,M,M,M,M,KAVL 010040Z AUTO 30009KT 10SM OVC049 A2984 RMK MADISHF
AVL,2017-04-01 00:45,-82.5375,35.4319,M,M,M,290.00,6.00,M,29.84,M,10.00,M,BKN,OVC,M,M,4900.00,6000.00,M,M,M,KAVL 010045Z AUTO 29006KT 10SM BKN049 OVC060 A2984 RMK MADISHF
AVL,2017-04-01 00:50,-82.5375,35.4319,M,M,M,280.00,11.00,M,29.84,M,10.00,M,OVC,M,M,M,4900.00,M,M,M,M,KAVL 010050Z AUTO 28011KT 10SM OVC049 A2984 RMK MADISHF
AVL,2017-04-01 00:54,-82.5375,35.4319,57.00,39.00,50.88,290.00,9.00,0.00,29.85,1009.30,10.00,15.00,OVC,M,M,M,4900.00,M,M,M,M,KAVL 010054Z 29009G15KT 10SM OVC049 14/04 A2985 RMK AO2 SLP093 T01390039
AVL,2017-04-01 00:55,-82.5375,35.4319,M,M,M,M,M,M,29.85,M,10.00,M,OVC,M,M,M,4900.00,M,M,M,M,KAVL 010055Z AUTO /////KT 10SM OVC049 A2985 RMK MADISHF
AVL,2017-04-01 01:00,-82.5375,35.4319,M,M,M,290.00,8.00,M,29.85,M,10.00,M,OVC,M,M,M,5000.00,M,M,M,M,KAVL 010100Z AUTO 29008KT 10SM OVC050 A2985 RMK MADISHF
AVL,2017-04-01 01:05,-82.5375,35.4319,M,M,M,310.00,8.00,M,29.85,M,10.00,M,BKN,OVC,M,M,4700.00,5500.00,M,M,M,KAVL 010105Z AUTO 31008KT 10SM BKN047 OVC055 A2985 RMK MADISHF
AVL,2017-04-01 01:10,-82.5375,35.4319,M,M,M,320.00,5.00,M,29.86,M,10.00,M,OVC,M,M,M,4500.00,M,M,M,M,KAVL 010110Z AUTO 32005KT 10SM OVC045 A2986 RMK MADISHF
AVL,2017-04-01 01:15,-82.5375,35.4319,M,M,M,330.00,4.00,M,29.86,M,10.00,M,OVC,M,M,M,4500.00,M,M,M,M,KAVL 010115Z AUTO 33004KT 10SM OVC045 A2986 RMK MADISHF
AVL,2017-04-01 01:20,-82.5375,35.4319,M,M,M,330.00,5.00,M,29.86,M,10.00,M,OVC,M,M,M,4500.00,M,M,M,M,KAVL 010120Z AUTO 33005KT 10SM OVC045 A2986 RMK MADISHF
AVL,2017-04-01 01:25,-82.5375,35.4319,M,M,M,350.00,7.00,M,29.86,M,10.00,M,OVC,M,M,M,4300.00,M,M,M,M,KAVL 010125Z AUTO 35007KT 10SM OVC043 A2986 RMK MADISHF
AVL,2017-04-01 01:30,-82.5375,35.4319,M,M,M,360.00,4.00,M,29.87,M,10.00,M,OVC,M,M,M,4100.00,M,M,M,M,KAVL 010130Z AUTO 36004KT 10SM OVC041 A2987 RMK MADISHF
AVL,2017-04-01 01:35,-82.5375,35.4319,M,M,M,350.00,6.00,M,29.87,M,10.00,M,OVC,M,M,M,4100.00,M,M,M,M,KAVL 010135Z AUTO 35006KT 10SM OVC041 A2987 RMK MADISHF
AVL,2017-04-01 01:40,-82.5375,35.4319,M,M,M,360.00,5.00,M,29.87,M,10.00,M,OVC,M,M,M,4100.00,M,M,M,M,KAVL 010140Z AUTO 36005KT 10SM OVC041 A2987 RMK MADISHF
AVL,2017-04-01 01:45,-82.5375,35.4319,M,M,M,10.00,5.00,M,29.87,M,10.00,M,OVC,M,M,M,4100.00,M,M,M,M,KAVL 010145Z AUTO 01005KT 10SM OVC041 A2987 RMK MADISHF
AVL,2017-04-01 01:50,-82.5375,35.4319,M,M,M,350.00,5.00,M,29.87,M,10.00,M,OVC,M,M,M,4100.00,M,M,M,M,KAVL 010150Z AUTO 35005KT 10SM OVC041 A2987 RMK MADISHF
AVL,2017-04-01 01:54,-82.5375,35.4319,55.90,39.00,52.94,350.00,5.00,0.00,29.88,1010.20,10.00,M,OVC,M,M,M,4100.00,M,M,M,M,KAVL 010154Z 35005KT 10SM OVC041 13/04 A2988 RMK AO2 SLP102 T01330039
AVL,2017-04-01 01:55,-82.5375,35.4319,M,M,M,340.00,4.00,M,29.88,M,10.00,M,OVC,M,M,M,4100.00,M,M,M,M,KAVL 010155Z AUTO 34004KT 10SM OVC041 A2988 RMK MADISHF
AVL,2017-04-01 02:00,-82.5375,35.4319,M,M,M,350.00,5.00,M,29.88,M,10.00,M,OVC,M,M,M,4100.00,M,M,M,M,KAVL 010200Z AUTO 35005KT 10SM OVC041 A2988 RMK VRB05KT  MADISHF
AVL,2017-04-01 02:05,-82.5375,35.4319,M,M,M,360.00,5.00,M,29.88,M,10.00,M,OVC,M,M,M,4100.00,M,M,M,M,KAVL 010205Z AUTO 36005KT 10SM OVC041 A2988 RMK MADISHF
AVL,2017-04-01 02:10,-82.5375,35.4319,M,M,M,360.00,7.00,M,29.88,M,10.00,M,OVC,M,M,M,4100.00,M,M,M,M,KAVL 010210Z AUTO 36007KT 10SM OVC041 A2988 RMK MADISHF
AVL,2017-04-01 02:15,-82.5375,35.4319,M,M,M,350.00,6.00,M,29.88,M,10.00,M,OVC,M,M,M,4300.00,M,M,M,M,KAVL 010215Z AUTO 35006KT 10SM OVC043 A2988 RMK MADISHF
AVL,2017-04-01 02:20,-82.5375,35.4319,M,M,M,350.00,7.00,M,29.88,M,10.00,M,OVC,M,M,M,4300.00,M,M,M,M,KAVL 010220Z AUTO 35007KT 10SM OVC043 A2988 RMK MADISHF
AVL,2017-04-01 02:25,-82.5375,35.4319,M,M,M,350.00,7.00,M,29.88,M,10.00,M,OVC,M,M,M,4300.00,M,M,M,M,KAVL 010225Z AUTO 35007KT 10SM OVC043 A2988 RMK MADISHF
AVL,2017-04-01 02:30,-82.5375,35.4319,M,M,M,350.00,9.00,M,29.88,M,10.00,M,OVC,M,M,M,4300.00,M,M,M,M,KAVL 010230Z AUTO 35009KT 10SM OVC043 A2988 RMK MADISHF
AVL,2017-04-01 02:35,-82.5375,35.4319,M,M,M,340.00,12.00,M,29.88,M,10.00,M,OVC,M,M,M,4300.00,M,M,M,M,KAVL 010235Z AUTO 34012KT 10SM OVC043 A2988 RMK MADISHF
AVL,2017-04-01 02:40,-82.5375,35.4319,M,M,M,340.00,9.00,M,29.88,M,10.00,M,OVC,M,M,M,4300.00,M,M,M,M,KAVL 010240Z AUTO 34009KT 10SM OVC043 A2988 RMK MADISHF
AVL,2017-04-01 02:45,-82.5375,35.4319,M,M,M,350.00,9.00,M,29.88,M,10.00,M,OVC,M,M,M,4300.00,M,M,M,M,KAVL 010245Z AUTO 35009KT 10SM OVC043 A2988 RMK MADISHF
AVL,2017-04-01 02:50,-82.5375,35.4319,M,M,M,340.00,10.00,M,29.88,M,10.00,M,OVC,M,M,M,4300.00,M,M,M,M,KAVL 010250Z AUTO 34010KT 10SM OVC043 A2988 RMK MADISHF
AVL,2017-04-01 02:54,-82.5375,35.4319,55.00,39.90,56.66,340.00,11.00,0.00,29.88,1010.50,10.00,M,OVC,M,M,M,4300.00,M,M,M,M,KAVL 010254Z AUTO 34011KT 10SM OVC043 13/04 A2988 RMK AO2 SLP105 T01280044 51019
AVL,2017-04-01 02:55,-82.5375,35.4319,M,M,M,340.00,12.00,M,29.88,M,10.00,M,OVC,M,M,M,4300.00,M,M,M,M,KAVL 010255Z AUTO 34012KT 10SM OVC043 A2988 RMK MADISHF
AVL,2017-04-01 03:00,-82.5375,35.4319,M,M,M,330.00,8.00,M,29.88,M,10.00,M,OVC,M,M,M,4300.00,M,M,M,M,KAVL 010300Z AUTO 33008KT 10SM OVC043 A2988 RMK MADISHF
AVL,2017-04-01 03:05,-82.5375,35.4319,M,M,M,330.00,12.00,M,29.88,M,10.00,M,OVC,M,M,M,4300.00,M,M,M,M,KAVL 010305Z AUTO 33012KT 10SM OVC043 A2988 RMK MADISHF
AVL,2017-04-01 03:10,-82.5375,35.4319,M,M,M,340.00,12.00,M,29.88,M,10.00,M,OVC,M,M,M,4500.00,M,M,M,M,KAVL 010310Z AUTO 34012KT 10SM OVC045 A2988 RMK MADISHF
AVL,2017-04-01 03:15,-82.5375,35.4319,M,M,M,340.00,11.00,M,29.88,M,10.00,M,OVC,M,M,M,4500.00,M,M,M,M,KAVL 010315Z AUTO 34011KT 10SM OVC045 A2988 RMK MADISHF
AVL,2017-04-01 03:20,-82.5375,35.4319,M,M,M,340.00,11.00,M,29.88,M,10.00,M,OVC,M,M,M,4300.00,M,M,M,M,KAVL 010320Z AUTO 34011KT 10SM OVC043 A2988 RMK MADISHF
AVL,2017-04-01 03:25,-82.5375,35.4319,M,M,M,340.00,10.00,M,29.88,M,10.00,M,OVC,M,M,M,4300.00,M,M,M,M,KAVL 010325Z AUTO 34010KT 10SM OVC043 A2988 RMK MADISHF
AVL,2017-04-01 03:30,-82.5375,35.4319,M,M,M,350.00,6.00,M,29.88,M,10.00,M,OVC,M,M,M,4300.00,M,M,M,M,KAVL 010330Z AUTO 35006KT 10SM OVC043 A2988 RMK MADISHF
AVL,2017-04-01 03:35,-82.5375,35.4319,M,M,M,360.00,7.00,M,29.89,M,10.00,M,OVC,M,M,M,4300.00,M,M,M,M,KAVL 010335Z AUTO 36007KT 10SM OVC043 A2989 RMK MADISHF
AVL,2017-04-01 03:40,-82.5375,35.4319,M,M,M,10.00,8.00,M,29.88,M,10.00,M,OVC,M,M,M,4300.00,M,M,M,M,KAVL 010340Z AUTO 01008KT 10SM OVC043 A2988 RMK MADISHF
AVL,2017-04-01 03:45,-82.5375,35.4319,M,M,M,360.00,10.00,M,29.88,M,10.00,M,OVC,M,M,M,4500.00,M,M,M,M,KAVL 010345Z AUTO 36010KT 10SM OVC045 A2988 RMK MADISHF
AVL,2017-04-01 03:50,-82.5375,35.4319,M,M,M,350.00,8.00,M,29.88,M,10.00,M,OVC,M,M,M,4500.00,M,M,M,M,KAVL 010350Z AUTO 35008KT 10SM OVC045 A2988 RMK MADISHF
AVL,2017-04-01 03:54,-82.5375,35.4319,54.00,41.00,61.32,360.00,7.00,0.00,29.89,1010.60,10.00,M,OVC,M,M,M,4400.00,M,M,M,M,KAVL 010354Z AUTO 36007KT 10SM OVC044 12/05 A2989 RMK AO2 SLP106 T01220050
AVL,2017-04-01 03:55,-82.5375,35.4319,M,M,M,360.00,7.00,M,29.89,M,10.00,M,OVC,M,M,M,4400.00,M,M,M,M,KAVL 010355Z AUTO 36007KT 10SM OVC044 A2989 RMK MADISHF
AVL,2017-04-01 04:00,-82.5375,35.4319,M,M,M,10.00,8.00,M,29.89,M,10.00,M,OVC,M,M,M,4400.00,M,M,M,M,KAVL 010400Z AUTO 01008KT 10SM OVC044 A2989 RMK MADISHF
AVL,2017-04-01 04:05,-82.5375,35.4319,M,M,M,10.00,8.00,M,29.89,M,10.00,M,OVC,M,M,M,4400.00,M,M,M,M,KAVL 010405Z AUTO 01008KT 10SM OVC044 A2989 RMK MADISHF
AVL,2017-04-01 04:10,-82.5375,35.4319,M,M,M,360.00,10.00,M,29.89,M,10.00,15.00,OVC,M,M,M,4400.00,M,M,M,M,KAVL 010410Z AUTO 36010G15KT 10SM OVC044 A2989 RMK MADISHF
AVL,2017-04-01 04:15,-82.5375,35.4319,M,M,M,360.00,7.00,M,29.89,M,10.00,M,OVC,M,M,M,4200.00,M,M,M,M,KAVL 010415Z AUTO 36007KT 10SM OVC042 A2989 RMK MADISHF
AVL,2017-04-01 04:20,-82.5375,35.4319,M,M,M,360.00,6.00,M,29.89,M,10.00,M,OVC,M,M,M,4200.00,M,M,M,M,KAVL 010420Z AUTO 36006KT 10SM OVC042 A2989 RMK MADISHF
AVL,2017-04-01 04:25,-82.5375,35.4319,M,M,M,360.00,6.00,M,29.90,M,10.00,M,OVC,M,M,M,4300.00,M,M,M,M,KAVL 010425Z AUTO 36006KT 10SM OVC043 A2990 RMK MADISHF
AVL,2017-04-01 04:30,-82.5375,35.4319,M,M,M,360.00,7.00,M,29.90,M,10.00,M,OVC,M,M,M,4300.00,M,M,M,M,KAVL 010430Z AUTO 36007KT 10SM OVC043 A2990 RMK MADISHF
AVL,2017-04-01 04:35,-82.5375,35.4319,M,M,M,360.00,6.00,M,29.90,M,10.00,M,OVC,M,M,M,4300.00,M,M,M,M,KAVL 010435Z AUTO 36006KT 10SM OVC043 A2990 RMK MADISHF
AVL,2017-04-01 04:40,-82.5375,35.4319,M,M,M,360.00,6.00,M,29.90,M,10.00,M,OVC,M,M,M,4300.00,M,M,M,M,KAVL 010440Z AUTO 36006KT 10SM OVC043 A2990 RMK MADISHF
AVL,2017-04-01 04:45,-82.5375,35.4319,M,M,M,340.00,7.00,M,29.90,M,10.00,M,OVC,M,M,M,4300.00,M,M,M,M,KAVL 010445Z AUTO 34007KT 10SM OVC043 A2990 RMK MADISHF
AVL,2017-04-01 04:50,-82.5375,35.4319,M,M,M,360.00,6.00,M,29.90,M,10.00,M,OVC,M,M,M,4300.00,M,M,M,M,KAVL 010450Z AUTO 36006KT 10SM OVC043 A2990 RMK MADISHF
AVL,2017-04-01 04:54,-82.5375,35.4319,54.00,42.10,63.98,350.00,8.00,0.00,29.90,1010.80,10.00,M,OVC,M,M,M,4300.00,M,M,M,M,KAVL 010454Z AUTO 35008KT 320V020 10SM OVC043 12/06 A2990 RMK AO2 SLP108 T01220056 402060122
AVL,2017-04-01 04:55,-82.5375,35.4319,M,M,M,350.00,9.00,M,29.90,M,10.00,M,OVC,M,M,M,4300.00,M,M,M,M,KAVL 010455Z AUTO 35009KT 10SM OVC043 A2990 RMK WND 32V02  MADISHF
AVL,2017-04-01 05:00,-82.5375,35.4319,M,M,M,340.00,8.00,M,29.90,M,10.00,M,OVC,M,M,M,4300.00,M,M,M,M,KAVL 010500Z AUTO 34008KT 10SM OVC043 A2990 RMK MADISHF
AVL,2017-04-01 05:05,-82.5375,35.4319,M,M,M,350.00,9.00,M,29.90,M,10.00,M,OVC,M,M,M,4300.00,M,M,M,M,KAVL 010505Z AUTO 35009KT 10SM OVC043 A2990 RMK MADISHF
AVL,2017-04-01 05:10,-82.5375,35.4319,M,M,M,340.00,8.00,M,29.90,M,10.00,M,OVC,M,M,M,4300.00,M,M,M,M,KAVL 010510Z AUTO 34008KT 10SM OVC043 A2990 RMK MADISHF
AVL,2017-04-01 05:15,-82.5375,35.4319,M,M,M,350.00,8.00,M,29.90,M,10.00,M,OVC,M,M,M,4300.00,M,M,M,M,KAVL 010515Z AUTO 35008KT 10SM OVC043 A2990 RMK MADISHF
AVL,2017-04-01 05:20,-82.5375,35.4319,M,M,M,360.00,7.00,M,29.90,M,10.00,M,OVC,M,M,M,4300.00,M,M,M,M,KAVL 010520Z AUTO 36007KT 10SM OVC043 A2990 RMK MADISHF
AVL,2017-04-01 05:25,-82.5375,35.4319,M,M,M,340.00,8.00,M,29.91,M,10.00,M,OVC,M,M,M,4300.00,M,M,M,M,KAVL 010525Z AUTO 34008KT 10SM OVC043 A2991 RMK MADISHF
AVL,2017-04-01 05:30,-82.5375,35.4319,M,M,M,350.00,7.00,M,29.91,M,10.00,M,OVC,M,M,M,4200.00,M,M,M,M,KAVL 010530Z AUTO 35007KT 10SM OVC042 A2991 RMK MADISHF
AVL,2017-04-01 05:35,-82.5375,35.4319,M,M,M,350.00,9.00,M,29.91,M,10.00,M,OVC,M,M,M,4200.00,M,M,M,M,KAVL 010535Z AUTO 35009KT 10SM OVC042 A2991 RMK MADISHF
AVL,2017-04-01 05:40,-82.5375,35.4319,M,M,M,350.00,8.00,M,29.91,M,10.00,M,OVC,M,M,M,4200.00,M,M,M,M,KAVL 010540Z AUTO 35008KT 10SM OVC042 A2991 RMK MADISHF
AVL,2017-04-01 05:45,-82.5375,35.4319,M,M,M,350.00,8.00,M,29.91,M,10.00,M,OVC,M,M,M,4200.00,M,M,M,M,KAVL 010545Z AUTO 35008KT 10SM OVC042 A2991 RMK MADISHF
AVL,2017-04-01 05:50,-82.5375,35.4319,M,M,M,350.00,8.00,M,29.91,M,10.00,M,OVC,M,M,M,4200.00,M,M,M,M,KAVL 010550Z AUTO 35008KT 10SM OVC042 A2991 RMK MADISHF
AVL,2017-04-01 05:54,-82.5375,35.4319,53.10,42.10,66.13,360.00,7.00,0.00,29.91,1011.60,10.00,M,OVC,M,M,M,4200.00,M,M,M,M,KAVL 010554Z AUTO 36007KT 10SM OVC042 12/06 A2991 RMK AO2 SLP116 T01170056 10139 20117 53010
AVL,2017-04-01 05:55,-82.5375,35.4319,M,M,M,350.00,8.00,M,29.91,M,10.00,M,OVC,M,M,M,4200.00,M,M,M,M,KAVL 010555Z AUTO 35008KT 10SM OVC042 A2991 RMK MADISHF
AVL,2017-04-01 06:00,-82.5375,35.4319,M,M,M,350.00,7.00,M,29.91,M,10.00,M,OVC,M,M,M,4200.00,M,M,M,M,KAVL 010600Z AUTO 35007KT 10SM OVC042 A2991 RMK MADISHF
AVL,2017-04-01 06:05,-82.5375,35.4319,M,M,M,360.00,6.00,M,29.91,M,10.00,M,OVC,M,M,M,4200.00,M,M,M,M,KAVL 010605Z AUTO 36006KT 10SM OVC042 A2991 RMK MADISHF
AVL,2017-04-01 06:10,-82.5375,35.4319,M,M,M,360.00,6.00,M,29.91,M,10.00,M,OVC,M,M,M,4200.00,M,M,M,M,KAVL 010610Z AUTO 36006KT 10SM OVC042 A2991 RMK MADISHF
AVL,2017-04-01 06:15,-82.5375,35.4319,M,M,M,360.00,6.00,M,29.91,M,10.00,M,OVC,M,M,M,4200.00,M,M,M,M,KAVL 010615Z AUTO 36006KT 10SM OVC042 A2991 RMK MADISHF
AVL,2017-04-01 06:20,-82.5375,35.4319,M,M,M,350.00,5.00,M,29.91,M,10.00,M,OVC,M,M,M,4200.00,M,M,M,M,KAVL 010620Z AUTO 35005KT 10SM OVC042 A2991 RMK MADISHF
AVL,2017-04-01 06:25,-82.5375,35.4319,M,M,M,340.00,6.00,M,29.91,M,10.00,M,OVC,M,M,M,4200.00,M,M,M,M,KAVL 010625Z AUTO 34006KT 10SM OVC042 A2991 RMK MADISHF
AVL,2017-04-01 06:30,-82.5375,35.4319,M,M,M,350.00,5.00,M,29.92,M,10.00,M,OVC,M,M,M,4200.00,M,M,M,M,KAVL 010630Z AUTO 35005KT 10SM OVC042 A2992 RMK MADISHF
AVL,2017-04-01 06:35,-82.5375,35.4319,M,M,M,350.00,6.00,M,29.92,M,10.00,M,OVC,M,M,M,4200.00,M,M,M,M,KAVL 010635Z AUTO 35006KT 10SM OVC042 A2992 RMK MADISHF
AVL,2017-04-01 06:40,-82.5375,35.4319,M,M,M,350.00,8.00,M,29.92,M,10.00,M,OVC,M,M,M,4200.00,M,M,M,M,KAVL 010640Z AUTO 35008KT 10SM OVC042 A2992 RMK MADISHF
AVL,2017-04-01 06:45,-82.5375,35.4319,M,M,M,350.00,7.00,M,29.92,M,10.00,M,OVC,M,M,M,4200.00,M,M,M,M,KAVL 010645Z AUTO 35007KT 10SM OVC042 A2992 RMK MADISHF
AVL,2017-04-01 06:50,-82.5375,35.4319,M,M,M,360.00,7.00,M,29.92,M,10.00,M,OVC,M,M,M,4200.00,M,M,M,M,KAVL 010650Z AUTO 36007KT 10SM OVC042 A2992 RMK MADISHF
AVL,2017-04-01 06:54,-82.5375,35.4319,53.10,42.10,66.13,360.00,9.00,0.00,29.92,1011.60,10.00,M,OVC,M,M,M,4200.00,M,M,M,M,KAVL 010654Z AUTO 36009KT 10SM OVC042 12/06 A2992 RMK AO2 SLP116 T01170056
AVL,2017-04-01 06:55,-82.5375,35.4319,M,M,M,350.00,9.00,M,29.92,M,10.00,M,OVC,M,M,M,4200.00,M,M,M,M,KAVL 010655Z AUTO 35009KT 10SM OVC042 A2992 RMK MADISHF
AVL,2017-04-01 07:00,-82.5375,35.4319,M,M,M,350.00,9.00,M,29.92,M,10.00,M,BKN,M,M,M,4200.00,M,M,M,M,KAVL 010700Z AUTO 35009KT 10SM BKN042 A2992 RMK MADISHF
AVL,2017-04-01 07:05,-82.5375,35.4319,M,M,M,350.00,9.00,M,29.92,M,10.00,M,BKN,M,M,M,4200.00,M,M,M,M,KAVL 010705Z AUTO 35009KT 10SM BKN042 A2992 RMK MADISHF
AVL,2017-04-01 07:10,-82.5375,35.4319,M,M,M,340.00,9.00,M,29.92,M,10.00,M,BKN,M,M,M,4200.00,M,M,M,M,KAVL 010710Z AUTO 34009KT 10SM BKN042 A2992 RMK MADISHF
AVL,2017-04-01 07:15,-82.5375,35.4319,M,M,M,350.00,10.00,M,29.92,M,10.00,M,BKN,M,M,M,4100.00,M,M,M,M,KAVL 010715Z AUTO 35010KT 10SM BKN041 A2992 RMK MADISHF
AVL,2017-04-01 07:20,-82.5375,35.4319,M,M,M,350.00,8.00,M,29.92,M,10.00,M,SCT,M,M,M,4100.00,M,M,M,M,KAVL 010720Z AUTO 35008KT 10SM SCT041 A2992 RMK MADISHF
AVL,2017-04-01 07:25,-82.5375,35.4319,M,M,M,350.00,10.00,M,29.91,M,10.00,M,FEW,M,M,M,4100.00,M,M,M,M,KAVL 010725Z AUTO 35010KT 10SM FEW041 A2991 RMK MADISHF
AVL,2017-04-01 07:30,-82.5375,35.4319,M,M,M,340.00,9.00,M,29.92,M,10.00,M,FEW,M,M,M,3900.00,M,M,M,M,KAVL 010730Z AUTO 34009KT 10SM FEW039 A2992 RMK MADISHF
AVL,2017-04-01 07:35,-82.5375,35.4319,M,M,M,350.00,11.00,M,29.92,M,10.00,M,FEW,M,M,M,3900.00,M,M,M,M,KAVL 010735Z AUTO 35011KT 10SM FEW039 A2992 RMK MADISHF
AVL,2017-04-01 07:40,-82.5375,35.4319,M,M,M,340.00,12.00,M,29.92,M,10.00,M,CLR,M,M,M,M,M,M,M,M,KAVL 010740Z AUTO 34012KT 10SM CLR A2992 RMK MADISHF
AVL,2017-04-01 07:45,-82.5375,35.4319,M,M,M,340.00,11.00,M,29.92,M,10.00,M,CLR,M,M,M,M,M,M,M,M,KAVL 010745Z AUTO 34011KT 10SM CLR A2992 RMK MADISHF
AVL,2017-04-01 07:50,-82.5375,35.4319,M,M,M,340.00,11.00,M,29.92,M,10.00,M,CLR,M,M,M,M,M,M,M,M,KAVL 010750Z AUTO 34011KT 10SM CLR A2992 RMK MADISHF
AVL,2017-04-01 07:54,-82.5375,35.4319,50.00,42.10,74.15,340.00,11.00,0.00,29.92,1011.80,10.00,M,CLR,M,M,M,M,M,M,M,M,KAVL 010754Z AUTO 34011KT 10SM CLR 10/06 A2992 RMK AO2 SLP118 T01000056
AVL,2017-04-01 07:55,-82.5375,35.4319,M,M,M,340.00,11.00,M,29.92,M,10.00,M,CLR,M,M,M,M,M,M,M,M,KAVL 010755Z AUTO 34011KT 10SM CLR A2992 RMK MADISHF
AVL,2017-04-01 08:00,-82.5375,35.4319,M,M,M,340.00,11.00,M,29.92,M,10.00,M,CLR,M,M,M,M,M,M,M,M,KAVL 010800Z AUTO 34011KT 10SM CLR A2992 RMK MADISHF
AVL,2017-04-01 08:05,-82.5375,35.4319,M,M,M,340.00,11.00,M,29.92,M,10.00,M,CLR,M,M,M,M,M,M,M,M,KAVL 010805Z AUTO 34011KT 10SM CLR A2992 RMK MADISHF
AVL,2017-04-01 08:10,-82.5375,35.4319,M,M,M,340.00,12.00,M,29.93,M,10.00,M,CLR,M,M,M,M,M,M,M,M,KAVL 010810Z AUTO 34012KT 10SM CLR A2993 RMK MADISHF
AVL,2017-04-01 08:15,-82.5375,35.4319,M,M,M,340.00,10.00,M,29.93,M,10.00,M,CLR,M,M,M,M,M,M,M,M,KAVL 010815Z AUTO 34010KT 10SM CLR A2993 RMK MADISHF
AVL,2017-04-01 08:20,-82.5375,35.4319,M,M,M,340.00,12.00,M,29.93,M,10.00,M,CLR,M,M,M,M,M,M,M,M,KAVL 010820Z AUTO 34012KT 10SM CLR A2993 RMK MADISHF
AVL,2017-04-01 08:25,-82.5375,35.4319,M,M,M,340.00,11.00,M,29.93,M,10.00,M,CLR,M,M,M,M,M,M,M,M,KAVL 010825Z AUTO 34011KT 10SM CLR A2993 RMK MADISHF
AVL,2017-04-01 08:30,-82.5375,35.4319,M,M,M,350.00,11.00,M,29.93,M,10.00,M,CLR,M,M,M,M,M,M,M,M,KAVL 010830Z AUTO 35011KT 10SM CLR A2993 RMK MADISHF
AVL,2017-04-01 08:35,-82.5375,35.4319,M,M,M,350.00,8.00,M,29.93,M,10.00,M,CLR,M,M,M,M,M,M,M,M,KAVL 010835Z AUTO 35008KT 10SM CLR A2993 RMK MADISHF
AVL,2017-04-01 08:40,-82.5375,35.4319,M,M,M,340.00,10.00,M,29.93,M,10.00,15.00,CLR,M,M,M,M,M,M,M,M,KAVL 010840Z AUTO 34010G15KT 10SM CLR A2993 RMK MADISHF
AVL,2017-04-01 08:45,-82.5375,35.4319,M,M,M,340.00,8.00,M,29.93,M,10.00,M,CLR,M,M,M,M,M,M,M,M,KAVL 010845Z AUTO 34008KT 10SM CLR A2993 RMK MADISHF
AVL,2017-04-01 08:50,-82.5375,35.4319,M,M,M,340.00,11.00,M,29.94,M,10.00,17.00,CLR,M,M,M,M,M,M,M,M,KAVL 010850Z AUTO 34011G17KT 10SM CLR A2994 RMK MADISHF
AVL,2017-04-01 08:54,-82.5375,35.4319,50.00,43.00,76.76,340.00,11.00,0.00,29.94,1012.40,10.00,17.00,CLR,M,M,M,M,M,M,M,M,KAVL 010854Z AUTO 34011G17KT 10SM CLR 10/06 A2994 RMK AO2 SLP124 T01000061 53007
AVL,2017-04-01 08:55,-82.5375,35.4319,M,M,M,340.00,13.00,M,29.94,M,10.00,M,CLR,M,M,M,M,M,M,M,M,KAVL 010855Z AUTO 34013KT 10SM CLR A2994 RMK MADISHF
AVL,2017-04-01 09:00,-82.5375,35.4319,M,M,M,340.00,8.00,M,29.94,M,10.00,M,CLR,M,M,M,M,M,M,M,M,KAVL 010900Z AUTO 34008KT 10SM CLR A2994 RMK MADISHF
AVL,2017-04-01 09:05,-82.5375,35.4319,M,M,M,330.00,10.00,M,29.94,M,10.00,M,CLR,M,M,M,M,M,M,M,M,KAVL 010905Z AUTO 33010KT 10SM CLR A2994 RMK MADISHF
AVL,2017-04-01 09:10,-82.5375,35.4319,M,M,M,340.00,9.00,M,29.94,M,10.00,M,CLR,M,M,M,M,M,M,M,M,KAVL 010910Z AUTO 34009KT 10SM CLR A2994 RMK MADISHF
AVL,2017-04-01 09:15,-82.5375,35.4319,M,M,M,340.00,6.00,M,29.94,M,10.00,M,CLR,M,M,M,M,M,M,M,M,KAVL 010915Z AUTO 34006KT 10SM CLR A2994 RMK MADISHF
AVL,2017-04-01 09:20,-82.5375,35.4319,M,M,M,350.00,10.00,M,29.94,M,10.00,15.00,CLR,M,M,M,M,M,M,M,M,KAVL 010920Z AUTO 35010G15KT 10SM CLR A2994 RMK MADISHF
AVL,2017-04-01 09:25,-82.5375,35.4319,M,M,M,340.00,9.00,M,29.94,M,10.00,M,CLR,M,M,M,M,M,M,M,M,KAVL 010925Z AUTO 34009KT 10SM CLR A2994 RMK MADISHF
AVL,2017-04-01 09:30,-82.5375,35.4319,M,M,M,350.00,7.00,M,29.94,M,10.00,M,CLR,M,M,M,M,M,M,M,M,KAVL 010930Z AUTO 35007KT 10SM CLR A2994 RMK MADISHF
AVL,2017-04-01 09:35,-82.5375,35.4319,M,M,M,340.00,12.00,M,29.94,M,10.00,M,CLR,M,M,M,M,M,M,M,M,KAVL 010935Z AUTO 34012KT 10SM CLR A2994 RMK MADISHF
AVL,2017-04-01 09:40,-82.5375,35.4319,M,M,M,350.00,9.00,M,29.94,M,10.00,M,CLR,M,M,M,M,M,M,M,M,KAVL 010940Z AUTO 35009KT 10SM CLR A2994 RMK MADISHF
AVL,2017-04-01 09:45,-82.5375,35.4319,M,M,M,350.00,11.00,M,29.95,M,10.00,M,CLR,M,M,M,M,M,M,M,M,KAVL 010945Z AUTO 35011KT 10SM CLR A2995 RMK MADISHF
AVL,2017-04-01 09:50,-82.5375,35.4319,M,M,M,350.00,8.00,M,29.95,M,10.00,M,FEW,M,M,M,1300.00,M,M,M,M,KAVL 010950Z AUTO 35008KT 10SM FEW013 A2995 RMK MADISHF
AVL,2017-04-01 09:54,-82.5375,35.4319,48.90,43.00,79.98,340.00,10.00,0.00,29.95,1012.90,10.00,17.00,FEW,M,M,M,1300.00,M,M,M,M,KAVL 010954Z AUTO 34010G17KT 10SM FEW013 09/06 A2995 RMK AO2 SLP129 T00940061
AVL,2017-04-01 09:55,-82.5375,35.4319,M,M,M,340.00,11.00,M,29.95,M,10.00,M,FEW,M,M,M,1300.00,M,M,M,M,KAVL 010955Z AUTO 34011KT 10SM FEW013 A2995 RMK MADISHF
AVL,2017-04-01 10:00,-82.5375,35.4319,M,M,M,340.00,10.00,M,29.95,M,10.00,M,FEW,M,M,M,1300.00,M,M,M,M,KAVL 011000Z AUTO 34010KT 10SM FEW013 A2995 RMK MADISHF
AVL,2017-04-01 10:05,-82.5375,35.4319,M,M,M,340.00,11.00,M,29.95,M,10.00,M,FEW,M,M,M,1300.00,M,M,M,M,KAVL 011005Z AUTO 34011KT 10SM FEW013 A2995 RMK MADISHF
AVL,2017-04-01 10:10,-82.5375,35.4319,M,M,M,340.00,11.00,M,29.96,M,10.00,M,FEW,SCT,M,M,1300.00,2800.00,M,M,M,KAVL 011010Z AUTO 34011KT 10SM FEW013 SCT028 A2996 RMK MADISHF
AVL,2017-04-01 10:15,-82.5375,35.4319,M,M,M,350.00,10.00,M,29.96,M,10.00,15.00,SCT,SCT,M,M,1300.00,3000.00,M,M,M,KAVL 011015Z AUTO 35010G15KT 10SM SCT013 SCT030 A2996 RMK MADISHF
AVL,2017-04-01 10:20,-82.5375,35.4319,M,M,M,340.00,15.00,M,29.96,M,10.00,M,SCT,BKN,M,M,1300.00,3000.00,M,M,M,KAVL 011020Z AUTO 34015KT 10SM SCT013 BKN030 A2996 RMK MADISHF
AVL,2017-04-01 10:25,-82.5375,35.4319,M,M,M,340.00,12.00,M,29.96,M,10.00,M,SCT,BKN,M,M,1300.00,2600.00,M,M,M,KAVL 011025Z AUTO 34012KT 10SM SCT013 BKN026 A2996 RMK MADISHF
AVL,2017-04-01 10:28,-82.5375,35.4319,48.90,43.00,79.98,350.00,9.00,0.00,29.97,M,10.00,20.00,SCT,BKN,M,M,1300.00,2600.00,M,M,M,KAVL 011028Z 35009G20KT 10SM SCT013 BKN026 09/06 A2997 RMK AO2 T00940061
AVL,2017-04-01 10:30,-82.5375,35.4319,M,M,M,350.00,11.00,M,29.97,M,10.00,M,FEW,BKN,BKN,M,1300.00,2400.00,3000.00,M,M,KAVL 011030Z AUTO 35011KT 10SM FEW013 BKN024 BKN030 A2997 RMK MADISHF
AVL,2017-04-01 10:35,-82.5375,35.4319,M,M,M,350.00,12.00,M,29.97,M,10.00,M,SCT,BKN,OVC,M,1300.00,2400.00,3000.00,M,M,KAVL 011035Z AUTO 35012KT 10SM SCT013 BKN024 OVC030 A2997 RMK MADISHF
AVL,2017-04-01 10:40,-82.5375,35.4319,M,M,M,350.00,9.00,M,29.97,M,10.00,M,FEW,OVC,M,M,1300.00,2400.00,M,M,M,KAVL 011040Z AUTO 35009KT 10SM FEW013 OVC024 A2997 RMK MADISHF
AVL,2017-04-01 10:45,-82.5375,35.4319,M,M,M,350.00,14.00,M,29.97,M,10.00,M,FEW,OVC,M,M,1300.00,2400.00,M,M,M,KAVL 011045Z AUTO 35014KT 10SM FEW013 OVC024 A2997 RMK MADISHF
AVL,2017-04-01 10:50,-82.5375,35.4319,M,M,M,350.00,11.00,M,29.97,M,10.00,17.00,FEW,OVC,M,M,1200.00,2400.00,M,M,M,KAVL 011050Z AUTO 35011G17KT 10SM FEW012 OVC024 A2997 RMK MADISHF
AVL,2017-04-01 10:54,-82.5375,35.4319,48.90,42.10,77.26,350.00,12.00,0.00,29.98,1014.00,10.00,19.00,FEW,OVC,M,M,1200.00,2400.00,M,M,M,KAVL 011054Z 35012G19KT 10SM FEW012 OVC024 09/06 A2998 RMK AO2 SLP140 T00940056
AVL,2017-04-01 10:55,-82.5375,35.4319,M,M,M,350.00,13.00,M,29.98,M,10.00,M,FEW,OVC,M,M,1200.00,2400.00,M,M,M,KAVL 011055Z AUTO 35013KT 10SM FEW012 OVC024 A2998 RMK MADISHF
AVL,2017-04-01 11:00,-82.5375,35.4319,M,M,M,340.00,14.00,M,29.98,M,10.00,M,FEW,OVC,M,M,1200.00,2400.00,M,M,M,KAVL 011100Z AUTO 34014KT 10SM FEW012 OVC024 A2998 RMK MADISHF
AVL,2017-04-01 11:05,-82.5375,35.4319,M,M,M,340.00,13.00,M,29.98,M,10.00,M,FEW,OVC,M,M,1200.00,2400.00,M,M,M,KAVL 011105Z AUTO 34013KT 10SM FEW012 OVC024 A2998 RMK MADISHF
AVL,2017-04-01 11:10,-82.5375,35.4319,M,M,M,350.00,12.00,M,29.98,M,10.00,M,FEW,OVC,M,M,1200.00,2400.00,M,M,M,KAVL 011110Z AUTO 35012KT 10SM FEW012 OVC024 A2998 RMK MADISHF
AVL,2017-04-01 11:15,-82.5375,35.4319,M,M,M,340.00,14.00,M,29.98,M,10.00,M,OVC,M,M,M,2400.00,M,M,M,M,KAVL 011115Z AUTO 34014KT 10SM OVC024 A2998 RMK MADISHF
AVL,2017-04-01 11:20,-82.5375,35.4319,M,M,M,350.00,14.00,M,29.99,M,10.00,M,FEW,OVC,M,M,1200.00,2400.00,M,M,M,KAVL 011120Z AUTO 35014KT 10SM FEW012 OVC024 A2999 RMK MADISHF
AVL,2017-04-01 11:25,-82.5375,35.4319,M,M,M,350.00,10.00,M,29.99,M,10.00,M,FEW,BKN,M,M,1200.00,2400.00,M,M,M,KAVL 011125Z AUTO 35010KT 10SM FEW012 BKN024 A2999 RMK MADISHF
AVL,2017-04-01 11:30,-82.5375,35.4319,M,M,M,350.00,12.00,M,29.99,M,10.00,18.00,FEW,BKN,M,M,1300.00,2300.00,M,M,M,KAVL 011130Z AUTO 35012G18KT 10SM FEW013 BKN023 A2999 RMK MADISHF
AVL,2017-04-01 11:35,-82.5375,35.4319,M,M,M,340.00,15.00,M,29.99,M,10.00,M,FEW,BKN,M,M,1300.00,2300.00,M,M,M,KAVL 011135Z AUTO 34015KT 10SM FEW013 BKN023 A2999 RMK MADISHF
AVL,2017-04-01 11:40,-82.5375,35.4319,M,M,M,350.00,13.00,M,30.00,M,10.00,M,SCT,OVC,M,M,1300.00,2300.00,M,M,M,KAVL 011140Z AUTO 35013KT 10SM SCT013 OVC023 A3000 RMK MADISHF
AVL,2017-04-01 11:45,-82.5375,35.4319,M,M,M,340.00,14.00,M,30.00,M,10.00,M,SCT,OVC,M,M,1300.00,2300.00,M,M,M,KAVL 011145Z AUTO 34014KT 10SM SCT013 OVC023 A3000 RMK MADISHF
AVL,2017-04-01 11:50,-82.5375,35.4319,M,M,M,350.00,10.00,M,30.00,M,10.00,M,SCT,OVC,M,M,1300.00,2400.00,M,M,M,KAVL 011150Z AUTO 35010KT 10SM SCT013 OVC024 A3000 RMK MADISHF
AVL,2017-04-01 11:54,-82.5375,35.4319,48.00,41.00,76.58,350.00,11.00,0.00,30.00,1015.00,10.00,18.00,SCT,OVC,M,M,1400.00,2400.00,M,M,M,KAVL 011154Z 35011G18KT 10SM SCT014 OVC024 09/05 A3000 RMK AO2 SLP150 70001 T00890050 10117 20089 53021
AVL,2017-04-01 11:55,-82.5375,35.4319,M,M,M,350.00,11.00,M,30.00,M,10.00,M,SCT,OVC,M,M,1400.00,2400.00,M,M,M,KAVL 011155Z AUTO 35011KT 10SM SCT014 OVC024 A3000 RMK MADISHF
AVL,2017-04-01 12:00,-82.5375,35.4319,M,M,M,350.00,9.00,M,30.01,M,10.00,M,SCT,OVC,M,M,1400.00,2400.00,M,M,M,KAVL 011200Z AUTO 35009KT 10SM SCT014 OVC024 A3001 RMK MADISHF
AVL,2017-04-01 12:05,-82.5375,35.4319,M,M,M,340.00,9.00,M,30.01,M,10.00,M,SCT,OVC,M,M,1400.00,2400.00,M,M,M,KAVL 011205Z AUTO 34009KT 10SM SCT014 OVC024 A3001 RMK MADISHF
AVL,2017-04-01 12:10,-82.5375,35.4319,M,M,M,350.00,8.00,M,30.01,M,10.00,M,FEW,SCT,OVC,M,1400.00,1900.00,2400.00,M,M,KAVL 011210Z AUTO 35008KT 10SM FEW014 SCT019 OVC024 A3001 RMK WND 33V03  MADISHF
AVL,2017-04-01 12:15,-82.5375,35.4319,M,M,M,360.00,9.00,M,30.01,M,10.00,M,FEW,FEW,OVC,M,1400.00,1900.00,2400.00,M,M,KAVL 011215Z AUTO 36009KT 10SM FEW014 FEW019 OVC024 A3001 RMK WND 32V03  MADISHF
AVL,2017-04-01 12:20,-82.5375,35.4319,M,M,M,360.00,10.00,M,30.01,M,10.00,15.00,FEW,OVC,M,M,1699.00,2400.00,M,M,M,KAVL 011220Z AUTO 36010G15KT 10SM FEW016 OVC024 A3001 RMK MADISHF
AVL,2017-04-01 12:25,-82.5375,35.4319,M,M,M,350.00,11.00,M,30.02,M,10.00,M,FEW,OVC,M,M,1699.00,2400.00,M,M,M,KAVL 011225Z AUTO 35011KT 10SM FEW016 OVC024 A3002 RMK MADISHF
AVL,2017-04-01 12:30,-82.5375,35.4319,M,M,M,340.00,11.00,M,30.02,M,10.00,M,FEW,OVC,M,M,1600.00,2400.00,M,M,M,KAVL 011230Z AUTO 34011KT 10SM FEW016 OVC024 A3002 RMK MADISHF
AVL,2017-04-01 12:35,-82.5375,35.4319,M,M,M,350.00,11.00,M,30.03,M,10.00,M,SCT,OVC,M,M,1800.00,2400.00,M,M,M,KAVL 011235Z AUTO 35011KT 10SM SCT018 OVC024 A3003 RMK MADISHF
AVL,2017-04-01 12:40,-82.5375,35.4319,M,M,M,350.00,13.00,M,30.03,M,10.00,M,SCT,OVC,M,M,1600.00,2400.00,M,M,M,KAVL 011240Z AUTO 35013KT 10SM SCT016 OVC024 A3003 RMK MADISHF
AVL,2017-04-01 12:45,-82.5375,35.4319,M,M,M,350.00,10.00,M,30.03,M,10.00,M,SCT,OVC,M,M,1600.00,2400.00,M,M,M,KAVL 011245Z AUTO 35010KT 10SM SCT016 OVC024 A3003 RMK MADISHF
AVL,2017-04-01 12:50,-82.5375,35.4319,M,M,M,350.00,12.00,M,30.03,M,10.00,17.00,BKN,OVC,M,M,1699.00,2300.00,M,M,M,KAVL 011250Z AUTO 35012G17KT 10SM BKN016 OVC023 A3003 RMK MADISHF
AVL,2017-04-01 12:54,-82.5375,35.4319,48.00,39.90,73.38,350.00,14.00,0.00,30.03,1016.10,10.00,18.00,BKN,OVC,M,M,1700.00,2300.00,M,M,M,KAVL 011254Z 35014G18KT 10SM BKN017 OVC023 09/04 A3003 RMK AO2 SLP161 T00890044
AVL,2017-04-01 12:55,-82.5375,35.4319,M,M,M,350.00,12.00,M,30.03,M,10.00,M,BKN,OVC,M,M,1699.00,2300.00,M,M,M,KAVL 011255Z AUTO 35012KT 10SM BKN016 OVC023 A3003 RMK MADISHF
AVL,2017-04-01 13:00,-82.5375,35.4319,M,M,M,350.00,12.00,M,30.04,M,10.00,M,OVC,M,M,M,1900.00,M,M,M,M,KAVL 011300Z AUTO 35012KT 10SM OVC019 A3004 RMK MADISHF
AVL,2017-04-01 13:05,-82.5375,35.4319,M,M,M,350.00,8.00,M,30.04,M,10.00,M,BKN,OVC,M,M,1600.00,2200.00,M,M,M,KAVL 011305Z AUTO 35008KT 10SM BKN016 OVC022 A3004 RMK MADISHF
AVL,2017-04-01 13:10,-82.5375,35.4319,M,M,M,340.00,13.00,M,30.04,M,10.00,19.00,OVC,M,M,M,1600.00,M,M,M,M,KAVL 011310Z AUTO 34013G19KT 10SM OVC016 A3004 RMK MADISHF
AVL,2017-04-01 13:15,-82.5375,35.4319,M,M,M,350.00,13.00,M,30.04,M,10.00,M,BKN,OVC,M,M,1600.00,2100.00,M,M,M,KAVL 011315Z AUTO 35013KT 10SM BKN016 OVC021 A3004 RMK MADISHF
AVL,2017-04-01 13:20,-82.5375,35.4319,M,M,M,350.00,11.00,M,30.04,M,10.00,18.00,OVC,M,M,M,1600.00,M,M,M,M,KAVL 011320Z AUTO 35011G18KT 10SM OVC016 A3004 RMK WND 30V36  MADISHF
AVL,2017-04-01 13:25,-82.5375,35.4319,M,M,M,350.00,13.00,M,30.05,M,10.00,M,OVC,M,M,M,1600.00,M,M,M,M,KAVL 011325Z AUTO 35013KT 10SM OVC016 A3005 RMK MADISHF
AVL,2017-04-01 13:30,-82.5375,35.4319,M,M,M,350.00,12.00,M,30.05,M,10.00,M,OVC,M,M,M,1600.00,M,M,M,M,KAVL 011330Z AUTO 35012KT 10SM OVC016 A3005 RMK MADISHF
AVL,2017-04-01 13:35,-82.5375,35.4319,M,M,M,350.00,10.00,M,30.05,M,10.00,M,OVC,M,M,M,1600.00,M,M,M,M,KAVL 011335Z AUTO 35010KT 10SM OVC016 A3005 RMK MADISHF
AVL,2017-04-01 13:40,-82.5375,35.4319,M,M,M,350.00,12.00,M,30.05,M,10.00,M,BKN,OVC,M,M,1600.00,2300.00,M,M,M,KAVL 011340Z AUTO 35012KT 10SM BKN016 OVC023 A3005 RMK MADISHF
AVL,2017-04-01 13:45,-82.5375,35.4319,M,M,M,360.00,10.00,M,30.05,M,10.00,M,BKN,OVC,M,M,1800.00,2300.00,M,M,M,KAVL 011345Z AUTO 36010KT 10SM BKN018 OVC023 A3005 RMK MADISHF
AVL,2017-04-01 13:50,-82.5375,35.4319,M,M,M,360.00,9.00,M,30.06,M,10.00,M,OVC,M,M,M,1999.00,M,M,M,M,KAVL 011350Z AUTO 36009KT 10SM OVC019 A3006 RMK MADISHF
AVL,2017-04-01 13:54,-82.5375,35.4319,50.00,39.90,68.10,360.00,8.00,0.00,30.06,1016.90,10.00,16.00,BKN,OVC,M,M,1700.00,2300.00,M,M,M,KAVL 011354Z 36008G16KT 10SM BKN017 OVC023 10/04 A3006 RMK AO2 SLP169 T01000044
AVL,2017-04-01 13:55,-82.5375,35.4319,M,M,M,350.00,10.00,M,30.06,M,10.00,16.00,OVC,M,M,M,1999.00,M,M,M,M,KAVL 011355Z AUTO 35010G16KT 10SM OVC019 A3006 RMK MADISHF
AVL,2017-04-01 14:00,-82.5375,35.4319,M,M,M,360.00,13.00,M,30.06,M,10.00,M,BKN,OVC,M,M,1800.00,2300.00,M,M,M,KAVL 011400Z AUTO 36013KT 10SM BKN018 OVC023 A3006 RMK MADISHF
AVL,2017-04-01 14:05,-82.5375,35.4319,M,M,M,350.00,12.00,M,30.06,M,10.00,M,OVC,M,M,M,1800.00,M,M,M,M,KAVL 011405Z AUTO 35012KT 10SM OVC018 A3006 RMK MADISHF
AVL,2017-04-01 14:10,-82.5375,35.4319,M,M,M,340.00,12.00,M,30.06,M,10.00,17.00,OVC,M,M,M,1800.00,M,M,M,M,KAVL 011410Z AUTO 34012G17KT 10SM OVC018 A3006 RMK MADISHF
AVL,2017-04-01 14:15,-82.5375,35.4319,M,M,M,340.00,10.00,M,30.06,M,10.00,16.00,OVC,M,M,M,1900.00,M,M,M,M,KAVL 011415Z AUTO 34010G16KT 10SM OVC019 A3006 RMK MADISHF
AVL,2017-04-01 14:20,-82.5375,35.4319,M,M,M,360.00,11.00,M,30.06,M,10.00,M,OVC,M,M,M,1900.00,M,M,M,M,KAVL 011420Z AUTO 36011KT 10SM OVC019 A3006 RMK MADISHF
AVL,2017-04-01 14:25,-82.5375,35.4319,M,M,M,360.00,11.00,M,30.06,M,10.00,M,OVC,M,M,M,2100.00,M,M,M,M,KAVL 011425Z AUTO 36011KT 10SM OVC021 A3006 RMK MADISHF
AVL,2017-04-01 14:30,-82.5375,35.4319,M,M,M,360.00,10.00,M,30.06,M,10.00,M,OVC,M,M,M,2100.00,M,M,M,M,KAVL 011430Z AUTO 36010KT 10SM OVC021 A3006 RMK MADISHF
AVL,2017-04-01 14:35,-82.5375,35.4319,M,M,M,360.00,11.00,M,30.06,M,10.00,M,OVC,M,M,M,2100.00,M,M,M,M,KAVL 011435Z AUTO 36011KT 10SM OVC021 A3006 RMK MADISHF
AVL,2017-04-01 14:40,-82.5375,35.4319,M,M,M,10.00,9.00,M,30.06,M,10.00,M,OVC,M,M,M,2100.00,M,M,M,M,KAVL 011440Z AUTO 01009KT 10SM OVC021 A3006 RMK MADISHF
AVL,2017-04-01 14:45,-82.5375,35.4319,M,M,M,340.00,11.00,M,30.07,M,10.00,M,OVC,M,M,M,2100.00,M,M,M,M,KAVL 011445Z AUTO 34011KT 10SM OVC021 A3007 RMK MADISHF
AVL,2017-04-01 14:50,-82.5375,35.4319,M,M,M,350.00,10.00,M,30.07,M,10.00,M,OVC,M,M,M,2100.00,M,M,M,M,KAVL 011450Z AUTO 35010KT 10SM OVC021 A3007 RMK MADISHF
AVL,2017-04-01 14:54,-82.5375,35.4319,52.00,41.00,66.00,350.00,12.00,0.00,30.07,1017.30,10.00,M,OVC,M,M,M,2100.00,M,M,M,M,KAVL 011454Z 35012KT 10SM OVC021 11/05 A3007 RMK AO2 SLP173 T01110050 51021
AVL,2017-04-01 14:55,-82.5375,35.4319,M,M,M,350.00,12.00,M,30.07,M,10.00,M,OVC,M,M,M,2100.00,M,M,M,M,KAVL 011455Z AUTO 35012KT 10SM OVC021 A3007 RMK MADISHF
AVL,2017-04-01 15:00,-82.5375,35.4319,M,M,M,350.00,12.00,M,30.07,M,10.00,M,OVC,M,M,M,2100.00,M,M,M,M,KAVL 011500Z AUTO 35012KT 10SM OVC021 A3007 RMK MADISHF
AVL,2017-04-01 15:05,-82.5375,35.4319,M,M,M,M,M,M,30.08,M,10.00,M,OVC,M,M,M,2100.00,M,M,M,M,KAVL 011505Z AUTO /////KT 10SM OVC021 A3008 RMK MADISHF
AVL,2017-04-01 15:10,-82.5375,35.4319,M,M,M,360.00,11.00,M,30.08,M,10.00,M,OVC,M,M,M,2100.00,M,M,M,M,KAVL 011510Z AUTO 36011KT 10SM OVC021 A3008 RMK MADISHF
AVL,2017-04-01 15:15,-82.5375,35.4319,M,M,M,360.00,10.00,M,30.08,M,10.00,M,OVC,M,M,M,2100.00,M,M,M,M,KAVL 011515Z AUTO 36010KT 10SM OVC021 A3008 RMK MADISHF
AVL,2017-04-01 15:20,-82.5375,35.4319,M,M,M,20.00,9.00,M,30.08,M,10.00,M,OVC,M,M,M,2100.00,M,M,M,M,KAVL 011520Z AUTO 02009KT 10SM OVC021 A3008 RMK MADISHF
AVL,2017-04-01 15:25,-82.5375,35.4319,M,M,M,360.00,10.00,M,30.08,M,10.00,M,OVC,M,M,M,2100.00,M,M,M,M,KAVL 011525Z AUTO 36010KT 10SM OVC021 A3008 RMK MADISHF
AVL,2017-04-01 15:30,-82.5375,35.4319,M,M,M,360.00,11.00,M,30.08,M,10.00,M,OVC,M,M,M,2100.00,M,M,M,M,KAVL 011530Z AUTO 36011KT 10SM OVC021 A3008 RMK MADISHF
AVL,2017-04-01 15:35,-82.5375,35.4319,M,M,M,350.00,14.00,M,30.08,M,10.00,M,OVC,M,M,M,2100.00,M,M,M,M,KAVL 011535Z AUTO 35014KT 10SM OVC021 A3008 RMK MADISHF
AVL,2017-04-01 15:40,-82.5375,35.4319,M,M,M,360.00,12.00,M,30.08,M,10.00,M,OVC,M,M,M,2100.00,M,M,M,M,KAVL 011540Z AUTO 36012KT 10SM OVC021 A3008 RMK MADISHF
AVL,2017-04-01 15:45,-82.5375,35.4319,M,M,M,350.00,13.00,M,30.08,M,10.00,M,OVC,M,M,M,2100.00,M,M,M,M,KAVL 011545Z AUTO 35013KT 10SM OVC021 A3008 RMK MADISHF
AVL,2017-04-01 15:50,-82.5375,35.4319,M,M,M,340.00,14.00,M,30.08,M,10.00,M,OVC,M,M,M,2100.00,M,M,M,M,KAVL 011550Z AUTO 34014KT 10SM OVC021 A3008 RMK MADISHF
AVL,2017-04-01 15:54,-82.5375,35.4319,55.00,41.00,59.13,350.00,12.00,0.00,30.08,1017.60,10.00,19.00,OVC,M,M,M,2200.00,M,M,M,M,KAVL 011554Z 35012G19KT 10SM OVC022 13/05 A3008 RMK AO2 SLP176 T01280050
AVL,2017-04-01 15:55,-82.5375,35.4319,M,M,M,350.00,11.00,M,30.08,M,10.00,M,OVC,M,M,M,2200.00,M,M,M,M,KAVL 011555Z AUTO 35011KT 10SM OVC022 A3008 RMK MADISHF
AVL,2017-04-01 16:00,-82.5375,35.4319,M,M,M,350.00,9.00,M,30.09,M,10.00,14.00,OVC,M,M,M,2200.00,M,M,M,M,KAVL 011600Z AUTO 35009G14KT 10SM OVC022 A3009 RMK MADISHF
AVL,2017-04-01 16:05,-82.5375,35.4319,M,M,M,350.00,11.00,M,30.09,M,10.00,M,OVC,M,M,M,2200.00,M,M,M,M,KAVL 011605Z AUTO 35011KT 10SM OVC022 A3009 RMK MADISHF
AVL,2017-04-01 16:10,-82.5375,35.4319,M,M,M,350.00,13.00,M,30.09,M,10.00,M,BKN,M,M,M,2200.00,M,M,M,M,KAVL 011610Z AUTO 35013KT 10SM BKN022 A3009 RMK MADISHF
AVL,2017-04-01 16:15,-82.5375,35.4319,M,M,M,350.00,12.00,M,30.09,M,10.00,17.00,BKN,M,M,M,2200.00,M,M,M,M,KAVL 011615Z AUTO 35012G17KT 10SM BKN022 A3009 RMK MADISHF
AVL,2017-04-01 16:20,-82.5375,35.4319,M,M,M,340.00,14.00,M,30.09,M,10.00,M,BKN,M,M,M,2200.00,M,M,M,M,KAVL 011620Z AUTO 34014KT 10SM BKN022 A3009 RMK MADISHF
AVL,2017-04-01 16:25,-82.5375,35.4319,M,M,M,M,M,M,30.09,M,10.00,M,BKN,M,M,M,2200.00,M,M,M,M,KAVL 011625Z AUTO /////KT 10SM BKN022 A3009 RMK MADISHF
AVL,2017-04-01 16:30,-82.5375,35.4319,M,M,M,350.00,10.00,M,30.09,M,10.00,M,SCT,M,M,M,2300.00,M,M,M,M,KAVL 011630Z AUTO 35010KT 10SM SCT023 A3009 RMK MADISHF
AVL,2017-04-01 16:35,-82.5375,35.4319,M,M,M,340.00,15.00,M,30.09,M,10.00,M,SCT,M,M,M,2300.00,M,M,M,M,KAVL 011635Z AUTO 34015KT 10SM SCT023 A3009 RMK MADISHF
AVL,2017-04-01 16:36,-82.5375,35.4319,55.90,41.00,57.23,340.00,15.00,0.00,30.09,M,10.00,19.00,SCT,M,M,M,2300.00,M,M,M,M,KAVL 011636Z 34015G19KT 10SM SCT023 13/05 A3009 RMK AO2 T01330050
AVL,2017-04-01 16:40,-82.5375,35.4319,M,M,M,360.00,13.00,M,30.09,M,10.00,18.00,FEW,M,M,M,2300.00,M,M,M,M,KAVL 011640Z AUTO 36013G18KT 10SM FEW023 A3009 RMK MADISHF
AVL,2017-04-01 16:45,-82.5375,35.4319,M,M,M,350.00,14.00,M,30.09,M,10.00,20.00,FEW,M,M,M,2300.00,M,M,M,M,KAVL 011645Z AUTO 35014G20KT 10SM FEW023 A3009 RMK MADISHF
AVL,2017-04-01 16:50,-82.5375,35.4319,M,M,M,350.00,12.00,M,30.09,M,10.00,M,FEW,M,M,M,2300.00,M,M,M,M,KAVL 011650Z AUTO 35012KT 10SM FEW023 A3009 RMK MADISHF
AVL,2017-04-01 16:54,-82.5375,35.4319,57.00,41.00,54.99,360.00,10.00,0.00,30.09,1017.60,10.00,20.00,FEW,M,M,M,2400.00,M,M,M,M,KAVL 011654Z 36010G20KT 10SM FEW024 14/05 A3009 RMK AO2 SLP176 T01390050
AVL,2017-04-01 16:55,-82.5375,35.4319,M,M,M,350.00,12.00,M,30.09,M,10.00,M,CLR,M,M,M,M,M,M,M,M,KAVL 011655Z AUTO 35012KT 10SM CLR A3009 RMK MADISHF
AVL,2017-04-01 17:00,-82.5375,35.4319,M,M,M,360.00,12.00,M,30.09,M,10.00,M,CLR,M,M,M,M,M,M,M,M,KAVL 011700Z AUTO 36012KT 10SM CLR A3009 RMK MADISHF
AVL,2017-04-01 17:05,-82.5375,35.4319,M,M,M,350.00,12.00,M,30.08,M,10.00,M,CLR,M,M,M,M,M,M,M,M,KAVL 011705Z AUTO 35012KT 10SM CLR A3008 RMK MADISHF
AVL,2017-04-01 17:10,-82.5375,35.4319,M,M,M,360.00,13.00,M,30.08,M,10.00,M,CLR,M,M,M,M,M,M,M,M,KAVL 011710Z AUTO 36013KT 10SM CLR A3008 RMK MADISHF
AVL,2017-04-01 17:15,-82.5375,35.4319,M,M,M,10.00,10.00,M,30.08,M,10.00,15.00,CLR,M,M,M,M,M,M,M,M,KAVL 011715Z AUTO 01010G15KT 10SM CLR A3008 RMK MADISHF
AVL,2017-04-01 17:20,-82.5375,35.4319,M,M,M,350.00,10.00,M,30.08,M,10.00,M,CLR,M,M,M,M,M,M,M,M,KAVL 011720Z AUTO 35010KT 10SM CLR A3008 RMK MADISHF
AVL,2017-04-01 17:25,-82.5375,35.4319,M,M,M,10.00,12.00,M,30.07,M,10.00,M,CLR,M,M,M,M,M,M,M,M,KAVL 011725Z AUTO 01012KT 10SM CLR A3007 RMK MADISHF
AVL,2017-04-01 17:30,-82.5375,35.4319,M,M,M,350.00,12.00,M,30.07,M,10.00,M,CLR,M,M,M,M,M,M,M,M,KAVL 011730Z AUTO 35012KT 10SM CLR A3007 RMK MADISHF
AVL,2017-04-01 17:35,-82.5375,35.4319,M,M,M,20.00,11.00,M,30.07,M,10.00,M,CLR,M,M,M,M,M,M,M,M,KAVL 011735Z AUTO 02011KT 10SM CLR A3007 RMK MADISHF
AVL,2017-04-01 17:40,-82.5375,35.4319,M,M,M,20.00,10.00,M,30.07,M,10.00,M,CLR,M,M,M,M,M,M,M,M,KAVL 011740Z AUTO 02010KT 10SM CLR A3007 RMK MADISHF
AVL,2017-04-01 17:45,-82.5375,35.4319,M,M,M,10.00,9.00,M,30.07,M,10.00,15.00,CLR,M,M,M,M,M,M,M,M,KAVL 011745Z AUTO 01009G15KT 10SM CLR A3007 RMK MADISHF
AVL,2017-04-01 17:50,-82.5375,35.4319,M,M,M,350.00,11.00,M,30.07,M,10.00,M,CLR,M,M,M,M,M,M,M,M,KAVL 011750Z AUTO 35011KT 10SM CLR A3007 RMK MADISHF
AVL,2017-04-01 17:54,-82.5375,35.4319,60.10,41.00,49.21,10.00,8.00,0.00,30.06,1016.80,10.00,19.00,CLR,M,M,M,M,M,M,M,M,KAVL 011754Z 01008G19KT 10SM CLR 16/05 A3006 RMK AO2 SLP168 T01560050 10156 20089 58002
AVL,2017-04-01 17:55,-82.5375,35.4319,M,M,M,360.00,10.00,M,30.06,M,10.00,16.00,CLR,M,M,M,M,M,M,M,M,KAVL 011755Z AUTO 36010G16KT 10SM CLR A3006 RMK MADISHF
AVL,2017-04-01 18:00,-82.5375,35.4319,M,M,M,350.00,10.00,M,30.07,M,10.00,15.00,CLR,M,M,M,M,M,M,M,M,KAVL 011800Z AUTO 35010G15KT 10SM CLR A3007 RMK MADISHF
AVL,2017-04-01 18:05,-82.5375,35.4319,M,M,M,M,M,M,30.06,M,10.00,18.00,CLR,M,M,M,M,M,M,M,M,KAVL 011805Z AUTO /////G18KT 10SM CLR A3006 RMK MADISHF
AVL,2017-04-01 18:10,-82.5375,35.4319,M,M,M,M,M,M,30.06,M,10.00,M,CLR,M,M,M,M,M,M,M,M,KAVL 011810Z AUTO /////KT 10SM CLR A3006 RMK MADISHF
AVL,2017-04-01 18:15,-82.5375,35.4319,M,M,M,M,M,M,30.06,M,10.00,20.00,CLR,M,M,M,M,M,M,M,M,KAVL 011815Z AUTO /////G20KT 10SM CLR A3006 RMK MADISHF
AVL,2017-04-01 18:20,-82.5375,35.4319,M,M,M,360.00,11.00,M,30.06,M,10.00,M,CLR,M,M,M,M,M,M,M,M,KAVL 011820Z AUTO 36011KT 10SM CLR A3006 RMK MADISHF
AVL,2017-04-01 18:25,-82.5375,35.4319,M,M,M,340.00,14.00,M,30.07,M,10.00,19.00,CLR,M,M,M,M,M,M,M,M,KAVL 011825Z AUTO 34014G19KT 10SM CLR A3007 RMK MADISHF
AVL,2017-04-01 18:30,-82.5375,35.4319,M,M,M,M,M,M,30.06,M,10.00,M,CLR,M,M,M,M,M,M,M,M,KAVL 011830Z AUTO /////KT 10SM CLR A3006 RMK MADISHF
AVL,2017-04-01 18:35,-82.5375,35.4319,M,M,M,M,M,M,30.07,M,10.00,M,CLR,M,M,M,M,M,M,M,M,KAVL 011835Z AUTO /////KT 10SM CLR A3007 RMK MADISHF
AVL,2017-04-01 18:40,-82.5375,35.4319,M,M,M,10.00,9.00,M,30.07,M,10.00,M,CLR,M,M,M,M,M,M,M,M,KAVL 011840Z AUTO 01009KT 10SM CLR A3007 RMK WND 34V04  MADISHF
AVL,2017-04-01 18:45,-82.5375,35.4319,M,M,M,350.00,13.00,M,30.07,M,10.00,M,CLR,M,M,M,M,M,M,M,M,KAVL 011845Z AUTO 35013KT 10SM CLR A3007 RMK MADISHF
AVL,2017-04-01 18:50,-82.5375,35.4319,M,M,M,350.00,13.00,M,30.07,M,10.00,M,CLR,M,M,M,M,M,M,M,M,KAVL 011850Z AUTO 35013KT 10SM CLR A3007 RMK MADISHF
AVL,2017-04-01 18:54,-82.5375,35.4319,61.00,41.00,47.66,10.00,10.00,0.00,30.06,1016.80,10.00,20.00,CLR,M,M,M,M,M,M,M,M,KAVL 011854Z 01010G20KT 10SM CLR 16/05 A3006 RMK AO2 SLP168 T01610050
AVL,2017-04-01 18:55,-82.5375,35.4319,M,M,M,360.00,12.00,M,30.06,M,10.00,17.00,CLR,M,M,M,M,M,M,M,M,KAVL 011855Z AUTO 36012G17KT 10SM CLR A3006 RMK MADISHF
AVL,2017-04-01 19:00,-82.5375,35.4319,M,M,M,M,M,M,30.06,M,10.00,M,CLR,M,M,M,M,M,M,M,M,KAVL 011900Z AUTO /////KT 10SM CLR A3006 RMK MADISHF
AVL,2017-04-01 19:05,-82.5375,35.4319,M,M,M,M,M,M,30.05,M,10.00,M,CLR,M,M,M,M,M,M,M,M,KAVL 011905Z AUTO /////KT 10SM CLR A3005 RMK MADISHF
AVL,2017-04-01 19:10,-82.5375,35.4319,M,M,M,M,M,M,30.05,M,10.00,M,CLR,M,M,M,M,M,M,M,M,KAVL 011910Z AUTO /////KT 10SM CLR A3005 RMK MADISHF
AVL,2017-04-01 19:15,-82.5375,35.4319,M,M,M,M,M,M,30.05,M,10.00,20.00,CLR,M,M,M,M,M,M,M,M,KAVL 011915Z AUTO /////G20KT 10SM CLR A3005 RMK MADISHF
AVL,2017-04-01 19:20,-82.5375,35.4319,M,M,M,M,M,M,30.04,M,10.00,M,CLR,M,M,M,M,M,M,M,M,KAVL 011920Z AUTO /////KT 10SM CLR A3004 RMK MADISHF
AVL,2017-04-01 19:25,-82.5375,35.4319,M,M,M,M,M,M,30.04,M,10.00,M,CLR,M,M,M,M,M,M,M,M,KAVL 011925Z AUTO /////KT 10SM CLR A3004 RMK MADISHF
AVL,2017-04-01 19:30,-82.5375,35.4319,M,M,M,M,M,M,30.04,M,10.00,M,CLR,M,M,M,M,M,M,M,M,KAVL 011930Z AUTO /////KT 10SM CLR A3004 RMK MADISHF
AVL,2017-04-01 19:35,-82.5375,35.4319,M,M,M,340.00,15.00,M,30.04,M,10.00,M,CLR,M,M,M,M,M,M,M,M,KAVL 011935Z AUTO 34015KT 10SM CLR A3004 RMK MADISHF
AVL,2017-04-01 19:40,-82.5375,35.4319,M,M,M,20.00,7.00,M,30.04,M,10.00,M,CLR,M,M,M,M,M,M,M,M,KAVL 011940Z AUTO 02007KT 10SM CLR A3004 RMK MADISHF
AVL,2017-04-01 19:45,-82.5375,35.4319,M,M,M,340.00,10.00,M,30.04,M,10.00,M,CLR,M,M,M,M,M,M,M,M,KAVL 011945Z AUTO 34010KT 10SM CLR A3004 RMK MADISHF
AVL,2017-04-01 19:50,-82.5375,35.4319,M,M,M,350.00,8.00,M,30.05,M,10.00,M,CLR,M,M,M,M,M,M,M,M,KAVL 011950Z AUTO 35008KT 10SM CLR A3005 RMK MADISHF
AVL,2017-04-01 19:54,-82.5375,35.4319,64.00,41.00,42.88,10.00,9.00,0.00,30.05,1016.20,10.00,M,CLR,M,M,M,M,M,M,M,M,KAVL 011954Z AUTO 01009KT 330V040 10SM CLR 18/05 A3005 RMK AO2 SLP162 T01780050
AVL,2017-04-01 19:55,-82.5375,35.4319,M,M,M,330.00,11.00,M,30.05,M,10.00,M,CLR,M,M,M,M,M,M,M,M,KAVL 011955Z AUTO 33011KT 10SM CLR A3005 RMK MADISHF
AVL,2017-04-01 20:00,-82.5375,35.4319,M,M,M,340.00,10.00,M,30.05,M,10.00,M,CLR,M,M,M,M,M,M,M,M,KAVL 012000Z AUTO 34010KT 10SM CLR A3005 RMK MADISHF
AVL,2017-04-01 20:05,-82.5375,35.4319,M,M,M,M,M,M,30.05,M,10.00,M,CLR,M,M,M,M,M,M,M,M,KAVL 012005Z AUTO /////KT 10SM CLR A3005 RMK MADISHF
AVL,2017-04-01 20:10,-82.5375,35.4319,M,M,M,M,M,M,30.05,M,10.00,M,CLR,M,M,M,M,M,M,M,M,KAVL 012010Z AUTO /////KT 10SM CLR A3005 RMK MADISHF
AVL,2017-04-01 20:15,-82.5375,35.4319,M,M,M,M,M,M,30.04,M,10.00,M,CLR,M,M,M,M,M,M,M,M,KAVL 012015Z AUTO /////KT 10SM CLR A3004 RMK MADISHF
AVL,2017-04-01 20:20,-82.5375,35.4319,M,M,M,360.00,12.00,M,30.04,M,10.00,17.00,CLR,M,M,M,M,M,M,M,M,KAVL 012020Z AUTO 36012G17KT 10SM CLR A3004 RMK MADISHF
AVL,2017-04-01 20:25,-82.5375,35.4319,M,M,M,M,M,M,30.04,M,10.00,M,CLR,M,M,M,M,M,M,M,M,KAVL 012025Z AUTO /////KT 10SM CLR A3004 RMK MADISHF
AVL,2017-04-01 20:30,-82.5375,35.4319,M,M,M,350.00,12.00,M,30.04,M,10.00,M,CLR,M,M,M,M,M,M,M,M,KAVL 012030Z AUTO 35012KT 10SM CLR A3004 RMK MADISHF
AVL,2017-04-01 20:35,-82.5375,35.4319,M,M,M,350.00,12.00,M,30.04,M,10.00,M,CLR,M,M,M,M,M,M,M,M,KAVL 012035Z AUTO 35012KT 10SM CLR A3004 RMK MADISHF
AVL,2017-04-01 20:40,-82.5375,35.4319,M,M,M,M,M,M,30.04,M,10.00,M,CLR,M,M,M,M,M,M,M,M,KAVL 012040Z AUTO /////KT 10SM CLR A3004 RMK MADISHF
AVL,2017-04-01 20:45,-82.5375,35.4319,M,M,M,M,M,M,30.04,M,10.00,19.00,CLR,M,M,M,M,M,M,M,M,KAVL 012045Z AUTO /////G19KT 10SM CLR A3004 RMK MADISHF
AVL,2017-04-01 20:50,-82.5375,35.4319,M,M,M,330.00,16.00,M,30.04,M,10.00,M,CLR,M,M,M,M,M,M,M,M,KAVL 012050Z AUTO 33016KT 10SM CLR A3004 RMK MADISHF
AVL,2017-04-01 20:54,-82.5375,35.4319,64.90,41.00,41.55,340.00,18.00,0.00,30.04,1015.90,10.00,21.00,CLR,M,M,M,M,M,M,M,M,KAVL 012054Z 34018G21KT 10SM CLR 18/05 A3004 RMK AO2 SLP159 T01830050 58008
AVL,2017-04-01 20:55,-82.5375,35.4319,M,M,M,M,M,M,30.04,M,10.00,M,CLR,M,M,M,M,M,M,M,M,KAVL 012055Z AUTO /////KT 10SM CLR A3004 RMK MADISHF
AVL,2017-04-01 21:00,-82.5375,35.4319,M,M,M,M,M,M,30.04,M,10.00,M,CLR,M,M,M,M,M,M,M,M,KAVL 012100Z AUTO /////KT 10SM CLR A3004 RMK MADISHF
AVL,2017-04-01 21:05,-82.5375,35.4319,M,M,M,M,M,M,30.04,M,10.00,M,CLR,M,M,M,M,M,M,M,M,KAVL 012105Z AUTO /////KT 10SM CLR A3004 RMK MADISHF
AVL,2017-04-01 21:10,-82.5375,35.4319,M,M,M,M,M,M,30.04,M,10.00,M,CLR,M,M,M,M,M,M,M,M,KAVL 012110Z AUTO /////KT 10SM CLR A3004 RMK MADISHF
AVL,2017-04-01 21:15,-82.5375,35.4319,M,M,M,350.00,14.00,M,30.04,M,10.00,19.00,CLR,M,M,M,M,M,M,M,M,KAVL 012115Z AUTO 35014G19KT 10SM CLR A3004 RMK MADISHF
AVL,2017-04-01 21:20,-82.5375,35.4319,M,M,M,M,M,M,30.04,M,10.00,22.00,CLR,M,M,M,M,M,M,M,M,KAVL 012120Z AUTO /////G22KT 10SM CLR A3004 RMK MADISHF
AVL,2017-04-01 21:25,-82.5375,35.4319,M,M,M,M,M,M,30.04,M,10.00,M,CLR,M,M,M,M,M,M,M,M,KAVL 012125Z AUTO /////KT 10SM CLR A3004 RMK MADISHF
AVL,2017-04-01 21:30,-82.5375,35.4319,M,M,M,M,M,M,30.04,M,10.00,M,CLR,M,M,M,M,M,M,M,M,KAVL 012130Z AUTO /////KT 10SM CLR A3004 RMK MADISHF
AVL,2017-04-01 21:35,-82.5375,35.4319,M,M,M,M,M,M,30.04,M,10.00,M,CLR,M,M,M,M,M,M,M,M,KAVL 012135Z AUTO /////KT 10SM CLR A3004 RMK MADISHF
AVL,2017-04-01 21:40,-82.5375,35.4319,M,M,M,M,M,M,30.04,M,10.00,20.00,CLR,M,M,M,M,M,M,M,M,KAVL 012140Z AUTO /////G20KT 10SM CLR A3004 RMK MADISHF
AVL,2017-04-01 21:45,-82.5375,35.4319,M,M,M,M,M,M,30.05,M,10.00,M,CLR,M,M,M,M,M,M,M,M,KAVL 012145Z AUTO /////KT 10SM CLR A3005 RMK MADISHF
AVL,2017-04-01 21:50,-82.5375,35.4319,M,M,M,M,M,M,30.05,M,10.00,M,CLR,M,M,M,M,M,M,M,M,KAVL 012150Z AUTO /////KT 10SM CLR A3005 RMK MADISHF
AVL,2017-04-01 21:54,-82.5375,35.4319,64.90,39.90,39.82,340.00,13.00,0.00,30.05,1016.20,10.00,21.00,CLR,M,M,M,M,M,M,M,M,KAVL 012154Z 34013G21KT 10SM CLR 18/04 A3005 RMK AO2 SLP162 T01830044
AVL,2017-04-01 21:55,-82.5375,35.4319,M,M,M,340.00,12.00,M,30.05,M,10.00,M,CLR,M,M,M,M,M,M,M,M,KAVL 012155Z AUTO 34012KT 10SM CLR A3005 RMK MADISHF
AVL,2017-04-01 22:00,-82.5375,35.4319,M,M,M,M,M,M,30.05,M,10.00,M,CLR,M,M,M,M,M,M,M,M,KAVL 012200Z AUTO /////KT 10SM CLR A3005 RMK MADISHF
AVL,2017-04-01 22:05,-82.5375,35.4319,M,M,M,M,M,M,30.05,M,10.00,M,CLR,M,M,M,M,M,M,M,M,KAVL 012205Z AUTO /////KT 10SM CLR A3005 RMK MADISHF
AVL,2017-04-01 22:10,-82.5375,35.4319,M,M,M,M,M,M,30.05,M,10.00,M,CLR,M,M,M,M,M,M,M,M,KAVL 012210Z AUTO /////KT 10SM CLR A3005 RMK MADISHF
AVL,2017-04-01 22:15,-82.5375,35.4319,M,M,M,M,M,M,30.05,M,10.00,M,CLR,M,M,M,M,M,M,M,M,KAVL 012215Z AUTO /////KT 10SM CLR A3005 RMK MADISHF
AVL,2017-04-01 22:20,-82.5375,35.4319,M,M,M,M,M,M,30.05,M,10.00,M,CLR,M,M,M,M,M,M,M,M,KAVL 012220Z AUTO /////KT 10SM CLR A3005 RMK MADISHF
AVL,2017-04-01 22:25,-82.5375,35.4319,M,M,M,330.00,15.00,M,30.05,M,10.00,20.00,CLR,M,M,M,M,M,M,M,M,KAVL 012225Z AUTO 33015G20KT 10SM CLR A3005 RMK MADISHF
AVL,2017-04-01 22:30,-82.5375,35.4319,M,M,M,330.00,17.00,M,30.05,M,10.00,M,CLR,M,M,M,M,M,M,M,M,KAVL 012230Z AUTO 33017KT 10SM CLR A3005 RMK MADISHF
AVL,2017-04-01 22:35,-82.5375,35.4319,M,M,M,M,M,M,30.05,M,10.00,M,CLR,M,M,M,M,M,M,M,M,KAVL 012235Z AUTO /////KT 10SM CLR A3005 RMK MADISHF
AVL,2017-04-01 22:40,-82.5375,35.4319,M,M,M,M,M,M,30.06,M,10.00,M,CLR,M,M,M,M,M,M,M,M,KAVL 012240Z AUTO /////KT 10SM CLR A3006 RMK MADISHF
AVL,2017-04-01 22:45,-82.5375,35.4319,M,M,M,M,M,M,30.06,M,10.00,M,CLR,M,M,M,M,M,M,M,M,KAVL 012245Z AUTO /////KT 10SM CLR A3006 RMK MADISHF
AVL,2017-04-01 22:50,-82.5375,35.4319,M,M,M,340.00,15.00,M,30.06,M,10.00,20.00,CLR,M,M,M,M,M,M,M,M,KAVL 012250Z AUTO 34015G20KT 10SM CLR A3006 RMK MADISHF
AVL,2017-04-01 22:54,-82.5375,35.4319,64.00,39.00,39.67,340.00,17.00,0.00,30.06,1016.60,10.00,20.00,CLR,M,M,M,M,M,M,M,M,KAVL 012254Z 34017G20KT 10SM CLR 18/04 A3006 RMK AO2 SLP166 T01780039
AVL,2017-04-01 22:55,-82.5375,35.4319,M,M,M,M,M,M,30.06,M,10.00,M,CLR,M,M,M,M,M,M,M,M,KAVL 012255Z AUTO /////KT 10SM CLR A3006 RMK MADISHF
AVL,2017-04-01 23:00,-82.5375,35.4319,M,M,M,M,M,M,30.06,M,10.00,M,CLR,M,M,M,M,M,M,M,M,KAVL 012300Z AUTO /////KT 10SM CLR A3006 RMK MADISHF
AVL,2017-04-01 23:05,-82.5375,35.4319,M,M,M,M,M,M,30.06,M,10.00,M,CLR,M,M,M,M,M,M,M,M,KAVL 012305Z AUTO /////KT 10SM CLR A3006 RMK MADISHF
AVL,2017-04-01 23:10,-82.5375,35.4319,M,M,M,M,M,M,30.07,M,10.00,M,CLR,M,M,M,M,M,M,M,M,KAVL 012310Z AUTO /////KT 10SM CLR A3007 RMK MADISHF
AVL,2017-04-01 23:15,-82.5375,35.4319,M,M,M,350.00,13.00,M,30.07,M,10.00,18.00,CLR,M,M,M,M,M,M,M,M,KAVL 012315Z AUTO 35013G18KT 10SM CLR A3007 RMK MADISHF
AVL,2017-04-01 23:20,-82.5375,35.4319,M,M,M,M,M,M,30.07,M,10.00,M,CLR,M,M,M,M,M,M,M,M,KAVL 012320Z AUTO /////KT 10SM CLR A3007 RMK MADISHF
AVL,2017-04-01 23:25,-82.5375,35.4319,M,M,M,350.00,11.00,M,30.07,M,10.00,M,CLR,M,M,M,M,M,M,M,M,KAVL 012325Z AUTO 35011KT 10SM CLR A3007 RMK MADISHF
AVL,2017-04-01 23:30,-82.5375,35.4319,M,M,M,340.00,14.00,M,30.07,M,10.00,M,CLR,M,M,M,M,M,M,M,M,KAVL 012330Z AUTO 34014KT 10SM CLR A3007 RMK MADISHF
AVL,2017-04-01 23:35,-82.5375,35.4319,M,M,M,340.00,13.00,M,30.07,M,10.00,M,CLR,M,M,M,M,M,M,M,M,KAVL 012335Z AUTO 34013KT 10SM CLR A3007 RMK MADISHF
AVL,2017-04-01 23:40,-82.5375,35.4319,M,M,M,340.00,13.00,M,30.07,M,10.00,M,CLR,M,M,M,M,M,M,M,M,KAVL 012340Z AUTO 34013KT 10SM CLR A3007 RMK MADISHF
AVL,2017-04-01 23:45,-82.5375,35.4319,M,M,M,340.00,15.00,M,30.08,M,10.00,M,CLR,M,M,M,M,M,M,M,M,KAVL 012345Z AUTO 34015KT 10SM CLR A3008 RMK MADISHF
AVL,2017-04-01 23:50,-82.5375,35.4319,M,M,M,340.00,12.00,M,30.08,M,10.00,M,CLR,M,M,M,M,M,M,M,M,KAVL 012350Z AUTO 34012KT 10SM CLR A3008 RMK MADISHF
AVL,2017-04-01 23:54,-82.5375,35.4319,60.10,39.00,45.53,350.00,12.00,0.00,30.08,1017.60,10.00,M,CLR,M,M,M,M,M,M,M,M,KAVL 012354Z 35012KT 10SM CLR 16/04 A3008 RMK AO2 SLP176 T01560039 10189 20150 53013
AVL,2017-04-01 23:55,-82.5375,35.4319,M,M,M,M,M,M,30.08,M,10.00,M,CLR,M,M,M,M,M,M,M,M,KAVL 012355Z AUTO /////KT 10SM CLR A3008 RMK MADISHF
