#DEBUG: Format Typ    -> comma
#DEBUG: Time Period   -> 2017-04-01 00:00:00+00:00 2017-04-02 00:00:00+00:00
#DEBUG: Time Zone     -> Etc/UTC
#DEBUG: Data Contact   -> daryl herzmann akrherz@iastate.edu 515-294-5978
#DEBUG: Entries Found -> -1
station,valid,lon,lat,tmpf, dwpf, relh, drct, sknt, p01i, alti, mslp, vsby, gust, skyc1, skyc2, skyc3, skyc4, skyl1, skyl2, skyl3, skyl4, presentwx, metar
AVX,2017-04-01 00:00,-118.4158,33.4050,M,M,M,260.00,9.00,M,29.82,M,10.00,M,CLR,M,M,M,M,M,M,M,M,KAVX 010000Z AUTO 26009KT 10SM CLR A2982 RMK MADISHF
AVX,2017-04-01 00:05,-118.4158,33.4050,M,M,M,240.00,7.00,M,29.83,M,10.00,M,CLR,M,M,M,M,M,M,M,M,KAVX 010005Z AUTO 24007KT 10SM CLR A2983 RMK MADISHF
AVX,2017-04-01 00:10,-118.4158,33.4050,M,M,M,250.00,8.00,M,29.83,M,10.00,M,CLR,M,M,M,M,M,M,M,M,KAVX 010010Z AUTO 25008KT 10SM CLR A2983 RMK MADISHF
AVX,2017-04-01 00:15,-118.4158,33.4050,M,M,M,250.00,7.00,M,29.83,M,10.00,M,CLR,M,M,M,M,M,M,M,M,KAVX 010015Z AUTO 25007KT 10SM CLR A2983 RMK MADISHF
AVX,2017-04-01 00:20,-118.4158,33.4050,M,M,M,260.00,8.00,M,29.83,M,10.00,M,CLR,M,M,M,M,M,M,M,M,KAVX 010020Z AUTO 26008KT 10SM CLR A2983 RMK MADISHF
AVX,2017-04-01 00:25,-118.4158,33.4050,M,M,M,260.00,7.00,M,29.83,M,10.00,M,CLR,M,M,M,M,M,M,M,M,KAVX 010025Z AUTO 26007KT 10SM CLR A2983 RMK MADISHF
AVX,2017-04-01 00:30,-118.4158,33.4050,M,M,M,240.00,6.00,M,29.83,M,10.00,M,CLR,M,M,M,M,M,M,M,M,KAVX 010030Z AUTO 24006KT 10SM CLR A2983 RMK MADISHF
AVX,2017-04-01 00:35,-118.4158,33.4050,M,M,M,240.00,7.00,M,29.82,M,10.00,M,CLR,M,M,M,M,M,M,M,M,KAVX 010035Z AUTO 24007KT 10SM CLR A2982 RMK MADISHF
AVX,2017-04-01 00:40,-118.4158,33.4050,M,M,M,250.00,6.00,M,29.83,M,10.00,M,CLR,M,M,M,M,M,M,M,M,KAVX 010040Z AUTO 25006KT 10SM CLR A2983 RMK MADISHF
AVX,2017-04-01 00:45,-118.4158,33.4050,M,M,M,250.00,6.00,M,29.83,M,10.00,M,CLR,M,M,M,M,M,M,M,M,KAVX 010045Z AUTO 25006KT 10SM CLR A2983 RMK MADISHF
AVX,2017-04-01 00:50,-118.4158,33.4050,M,M,M,250.00,5.00,M,29.83,M,10.00,M,CLR,M,M,M,M,M,M,M,M,KAVX 010050Z AUTO 25005KT 10SM CLR A2983 RMK MADISHF
AVX,2017-04-01 00:51,-118.4158,33.4050,57.00,30.00,35.54,260.00,5.00,0.00,29.83,1009.70,10.00,M,CLR,M,M,M,M,M,M,M,M,KAVX 010051Z AUTO 26005KT 10SM CLR 14/M01 A2983 RMK AO2 SLP097 T01391011 TSNO
AVX,2017-04-01 00:55,-118.4158,33.4050,M,M,M,240.00,6.00,M,29.83,M,10.00,M,CLR,M,M,M,M,M,M,M,M,KAVX 010055Z AUTO 24006KT 10SM CLR A2983 RMK MADISHF
AVX,2017-04-01 01:00,-118.4158,33.4050,M,M,M,260.00,6.00,M,29.84,M,10.00,M,CLR,M,M,M,M,M,M,M,M,KAVX 010100Z AUTO 26006KT 10SM CLR A2984 RMK MADISHF
AVX,2017-04-01 01:05,-118.4158,33.4050,M,M,M,240.00,6.00,M,29.83,M,10.00,M,CLR,M,M,M,M,M,M,M,M,KAVX 010105Z AUTO 24006KT 10SM CLR A2983 RMK MADISHF
AVX,2017-04-01 01:10,-118.4158,33.4050,M,M,M,260.00,6.00,M,29.84,M,10.00,M,CLR,M,M,M,M,M,M,M,M,KAVX 010110Z AUTO 26006KT 10SM CLR A2984 RMK MADISHF
AVX,2017-04-01 01:15,-118.4158,33.4050,M,M,M,260.00,7.00,M,29.84,M,10.00,M,CLR,M,M,M,M,M,M,M,M,KAVX 010115Z AUTO 26007KT 10SM CLR A2984 RMK MADISHF
AVX,2017-04-01 01:20,-118.4158,33.4050,M,M,M,240.00,7.00,M,29.84,M,10.00,M,CLR,M,M,M,M,M,M,M,M,KAVX 010120Z AUTO 24007KT 10SM CLR A2984 RMK MADISHF
AVX,2017-04-01 01:25,-118.4158,33.4050,M,M,M,230.00,5.00,M,29.84,M,10.00,M,CLR,M,M,M,M,M,M,M,M,KAVX 010125Z AUTO 23005KT 10SM CLR A2984 RMK MADISHF
AVX,2017-04-01 01:30,-118.4158,33.4050,M,M,M,240.00,4.00,M,29.84,M,10.00,M,CLR,M,M,M,M,M,M,M,M,KAVX 010130Z AUTO 24004KT 10SM CLR A2984 RMK MADISHF
AVX,2017-04-01 01:35,-118.4158,33.4050,M,M,M,250.00,5.00,M,29.84,M,10.00,M,CLR,M,M,M,M,M,M,M,M,KAVX 010135Z AUTO 25005KT 10SM CLR A2984 RMK MADISHF
AVX,2017-04-01 01:40,-118.4158,33.4050,M,M,M,250.00,5.00,M,29.84,M,10.00,M,CLR,M,M,M,M,M,M,M,M,KAVX 010140Z AUTO 25005KT 10SM CLR A2984 RMK MADISHF
AVX,2017-04-01 01:45,-118.4158,33.4050,M,M,M,240.00,6.00,M,29.84,M,10.00,M,CLR,M,M,M,M,M,M,M,M,KAVX 010145Z AUTO 24006KT 10SM CLR A2984 RMK MADISHF
AVX,2017-04-01 01:50,-118.4158,33.4050,M,M,M,250.00,5.00,M,29.85,M,10.00,M,CLR,M,M,M,M,M,M,M,M,KAVX 010150Z AUTO 25005KT 10SM CLR A2985 RMK MADISHF
AVX,2017-04-01 01:51,-118.4158,33.4050,55.90,32.00,40.10,250.00,5.00,0.00,29.85,1010.10,10.00,M,CLR,M,M,M,M,M,M,M,M,KAVX 010151Z AUTO 25005KT 10SM CLR 13/00 A2985 RMK AO2 SLP101 T01330000 TSNO
AVX,2017-04-01 01:55,-118.4158,33.4050,M,M,M,240.00,5.00,M,29.85,M,10.00,M,CLR,M,M,M,M,M,M,M,M,KAVX 010155Z AUTO 24005KT 10SM CLR A2985 RMK MADISHF
AVX,2017-04-01 02:00,-118.4158,33.4050,M,M,M,220.00,5.00,M,29.85,M,10.00,M,CLR,M,M,M,M,M,M,M,M,KAVX 010200Z AUTO 22005KT 10SM CLR A2985 RMK MADISHF
AVX,2017-04-01 02:05,-118.4158,33.4050,M,M,M,230.00,4.00,M,29.85,M,10.00,M,CLR,M,M,M,M,M,M,M,M,KAVX 010205Z AUTO 23004KT 10SM CLR A2985 RMK MADISHF
AVX,2017-04-01 02:10,-118.4158,33.4050,M,M,M,240.00,5.00,M,29.85,M,10.00,M,CLR,M,M,M,M,M,M,M,M,KAVX 010210Z AUTO 24005KT 10SM CLR A2985 RMK MADISHF
AVX,2017-04-01 02:15,-118.4158,33.4050,M,M,M,250.00,6.00,M,29.85,M,10.00,M,CLR,M,M,M,M,M,M,M,M,KAVX 010215Z AUTO 25006KT 10SM CLR A2985 RMK MADISHF
AVX,2017-04-01 02:20,-118.4158,33.4050,M,M,M,240.00,5.00,M,29.86,M,10.00,M,CLR,M,M,M,M,M,M,M,M,KAVX 010220Z AUTO 24005KT 10SM CLR A2986 RMK MADISHF
AVX,2017-04-01 02:25,-118.4158,33.4050,M,M,M,240.00,6.00,M,29.85,M,10.00,M,CLR,M,M,M,M,M,M,M,M,KAVX 010225Z AUTO 24006KT 10SM CLR A2985 RMK MADISHF
AVX,2017-04-01 02:30,-118.4158,33.4050,M,M,M,250.00,6.00,M,29.86,M,10.00,M,CLR,M,M,M,M,M,M,M,M,KAVX 010230Z AUTO 25006KT 10SM CLR A2986 RMK MADISHF
AVX,2017-04-01 02:35,-118.4158,33.4050,M,M,M,250.00,6.00,M,29.86,M,10.00,M,CLR,M,M,M,M,M,M,M,M,KAVX 010235Z AUTO 25006KT 10SM CLR A2986 RMK MADISHF
AVX,2017-04-01 02:40,-118.4158,33.4050,M,M,M,250.00,6.00,M,29.86,M,10.00,M,CLR,M,M,M,M,M,M,M,M,KAVX 010240Z AUTO 25006KT 10SM CLR A2986 RMK MADISHF
AVX,2017-04-01 02:45,-118.4158,33.4050,M,M,M,250.00,6.00,M,29.86,M,10.00,M,CLR,M,M,M,M,M,M,M,M,KAVX 010245Z AUTO 25006KT 10SM CLR A2986 RMK MADISHF
AVX,2017-04-01 02:50,-118.4158,33.4050,M,M,M,260.00,6.00,M,29.86,M,10.00,M,CLR,M,M,M,M,M,M,M,M,KAVX 010250Z AUTO 26006KT 10SM CLR A2986 RMK MADISHF
AVX,2017-04-01 02:51,-118.4158,33.4050,55.00,28.00,35.21,260.00,6.00,0.00,29.86,1010.90,10.00,M,CLR,M,M,M,M,M,M,M,M,KAVX 010251Z AUTO 26006KT 10SM CLR 13/M02 A2986 RMK AO2 SLP109 T01281022 53010 TSNO
AVX,2017-04-01 02:55,-118.4158,33.4050,M,M,M,280.00,7.00,M,29.86,M,10.00,M,CLR,M,M,M,M,M,M,M,M,KAVX 010255Z AUTO 28007KT 10SM CLR A2986 RMK MADISHF
AVX,2017-04-01 03:00,-118.4158,33.4050,M,M,M,270.00,5.00,M,29.87,M,10.00,M,CLR,M,M,M,M,M,M,M,M,KAVX 010300Z AUTO 27005KT 10SM CLR A2987 RMK MADISHF
AVX,2017-04-01 03:05,-118.4158,33.4050,M,M,M,270.00,5.00,M,29.87,M,10.00,M,CLR,M,M,M,M,M,M,M,M,KAVX 010305Z AUTO 27005KT 10SM CLR A2987 RMK MADISHF
AVX,2017-04-01 03:10,-118.4158,33.4050,M,M,M,280.00,5.00,M,29.87,M,10.00,M,CLR,M,M,M,M,M,M,M,M,KAVX 010310Z AUTO 28005KT 10SM CLR A2987 RMK MADISHF
AVX,2017-04-01 03:15,-118.4158,33.4050,M,M,M,310.00,3.00,M,29.87,M,10.00,M,CLR,M,M,M,M,M,M,M,M,KAVX 010315Z AUTO 31003KT 10SM CLR A2987 RMK MADISHF
AVX,2017-04-01 03:20,-118.4158,33.4050,M,M,M,340.00,3.00,M,29.88,M,10.00,M,CLR,M,M,M,M,M,M,M,M,KAVX 010320Z AUTO 34003KT 10SM CLR A2988 RMK MADISHF
AVX,2017-04-01 03:25,-118.4158,33.4050,M,M,M,10.00,3.00,M,29.88,M,10.00,M,CLR,M,M,M,M,M,M,M,M,KAVX 010325Z AUTO 01003KT 10SM CLR A2988 RMK MADISHF
AVX,2017-04-01 03:30,-118.4158,33.4050,M,M,M,30.00,4.00,M,29.88,M,10.00,M,CLR,M,M,M,M,M,M,M,M,KAVX 010330Z AUTO 03004KT 10SM CLR A2988 RMK MADISHF
AVX,2017-04-01 03:35,-118.4158,33.4050,M,M,M,70.00,4.00,M,29.89,M,10.00,M,CLR,M,M,M,M,M,M,M,M,KAVX 010335Z AUTO 07004KT 10SM CLR A2989 RMK MADISHF
AVX,2017-04-01 03:40,-118.4158,33.4050,M,M,M,90.00,3.00,M,29.89,M,10.00,M,CLR,M,M,M,M,M,M,M,M,KAVX 010340Z AUTO 09003KT 10SM CLR A2989 RMK MADISHF
AVX,2017-04-01 03:45,-118.4158,33.4050,M,M,M,0.00,0.00,M,29.89,M,10.00,M,CLR,M,M,M,M,M,M,M,M,KAVX 010345Z AUTO 00000KT 10SM CLR A2989 RMK MADISHF
AVX,2017-04-01 03:50,-118.4158,33.4050,M,M,M,0.00,0.00,M,29.89,M,10.00,M,CLR,M,M,M,M,M,M,M,M,KAVX 010350Z AUTO 00000KT 10SM CLR A2989 RMK MADISHF
AVX,2017-04-01 03:51,-118.4158,33.4050,54.00,30.00,39.63,0.00,0.00,0.00,29.89,1011.80,10.00,M,CLR,M,M,M,M,M,M,M,M,KAVX 010351Z AUTO 00000KT 10SM CLR 12/M01 A2989 RMK AO2 SLP118 T01221011 TSNO
AVX,2017-04-01 03:55,-118.4158,33.4050,M,M,M,0.00,0.00,M,29.90,M,10.00,M,CLR,M,M,M,M,M,M,M,M,KAVX 010355Z AUTO 00000KT 10SM CLR A2990 RMK MADISHF
AVX,2017-04-01 04:00,-118.4158,33.4050,M,M,M,0.00,0.00,M,29.90,M,10.00,M,CLR,M,M,M,M,M,M,M,M,KAVX 010400Z AUTO 00000KT 10SM CLR A2990 RMK MADISHF
AVX,2017-04-01 04:05,-118.4158,33.4050,M,M,M,0.00,0.00,M,29.90,M,10.00,M,CLR,M,M,M,M,M,M,M,M,KAVX 010405Z AUTO 00000KT 10SM CLR A2990 RMK MADISHF
AVX,2017-04-01 04:10,-118.4158,33.4050,M,M,M,0.00,0.00,M,29.90,M,10.00,M,CLR,M,M,M,M,M,M,M,M,KAVX 010410Z AUTO 00000KT 10SM CLR A2990 RMK MADISHF
AVX,2017-04-01 04:15,-118.4158,33.4050,M,M,M,0.00,0.00,M,29.91,M,10.00,M,CLR,M,M,M,M,M,M,M,M,KAVX 010415Z AUTO 00000KT 10SM CLR A2991 RMK MADISHF
AVX,2017-04-01 04:20,-118.4158,33.4050,M,M,M,0.00,0.00,M,29.91,M,10.00,M,CLR,M,M,M,M,M,M,M,M,KAVX 010420Z AUTO 00000KT 10SM CLR A2991 RMK MADISHF
AVX,2017-04-01 04:25,-118.4158,33.4050,M,M,M,0.00,0.00,M,29.91,M,10.00,M,CLR,M,M,M,M,M,M,M,M,KAVX 010425Z AUTO 00000KT 10SM CLR A2991 RMK MADISHF
AVX,2017-04-01 04:30,-118.4158,33.4050,M,M,M,0.00,0.00,M,29.91,M,10.00,M,CLR,M,M,M,M,M,M,M,M,KAVX 010430Z AUTO 00000KT 10SM CLR A2991 RMK MADISHF
AVX,2017-04-01 04:35,-118.4158,33.4050,M,M,M,0.00,0.00,M,29.92,M,10.00,M,CLR,M,M,M,M,M,M,M,M,KAVX 010435Z AUTO 00000KT 10SM CLR A2992 RMK MADISHF
AVX,2017-04-01 04:40,-118.4158,33.4050,M,M,M,130.00,4.00,M,29.92,M,10.00,M,CLR,M,M,M,M,M,M,M,M,KAVX 010440Z AUTO 13004KT 10SM CLR A2992 RMK MADISHF
AVX,2017-04-01 04:45,-118.4158,33.4050,M,M,M,120.00,4.00,M,29.92,M,10.00,M,CLR,M,M,M,M,M,M,M,M,KAVX 010445Z AUTO 12004KT 10SM CLR A2992 RMK MADISHF
AVX,2017-04-01 04:50,-118.4158,33.4050,M,M,M,120.00,3.00,M,29.92,M,10.00,M,CLR,M,M,M,M,M,M,M,M,KAVX 010450Z AUTO 12003KT 10SM CLR A2992 RMK MADISHF
AVX,2017-04-01 04:51,-118.4158,33.4050,54.00,30.90,41.11,120.00,3.00,0.00,29.92,1012.60,10.00,M,CLR,M,M,M,M,M,M,M,M,KAVX 010451Z AUTO 12003KT 10SM CLR 12/M01 A2992 RMK AO2 SLP126 T01221006 TSNO
AVX,2017-04-01 04:55,-118.4158,33.4050,M,M,M,0.00,0.00,M,29.92,M,10.00,M,CLR,M,M,M,M,M,M,M,M,KAVX 010455Z AUTO 00000KT 10SM CLR A2992 RMK MADISHF
AVX,2017-04-01 05:00,-118.4158,33.4050,M,M,M,0.00,0.00,M,29.92,M,10.00,M,CLR,M,M,M,M,M,M,M,M,KAVX 010500Z AUTO 00000KT 10SM CLR A2992 RMK MADISHF
AVX,2017-04-01 05:05,-118.4158,33.4050,M,M,M,0.00,0.00,M,29.92,M,10.00,M,CLR,M,M,M,M,M,M,M,M,KAVX 010505Z AUTO 00000KT 10SM CLR A2992 RMK MADISHF
AVX,2017-04-01 05:10,-118.4158,33.4050,M,M,M,130.00,4.00,M,29.93,M,10.00,M,CLR,M,M,M,M,M,M,M,M,KAVX 010510Z AUTO 13004KT 10SM CLR A2993 RMK MADISHF
AVX,2017-04-01 05:15,-118.4158,33.4050,M,M,M,120.00,4.00,M,29.93,M,10.00,M,CLR,M,M,M,M,M,M,M,M,KAVX 010515Z AUTO 12004KT 10SM CLR A2993 RMK MADISHF
AVX,2017-04-01 05:20,-118.4158,33.4050,M,M,M,140.00,4.00,M,29.93,M,10.00,M,CLR,M,M,M,M,M,M,M,M,KAVX 010520Z AUTO 14004KT 10SM CLR A2993 RMK MADISHF
AVX,2017-04-01 05:25,-118.4158,33.4050,M,M,M,150.00,4.00,M,29.93,M,10.00,M,CLR,M,M,M,M,M,M,M,M,KAVX 010525Z AUTO 15004KT 10SM CLR A2993 RMK MADISHF
AVX,2017-04-01 05:35,-118.4158,33.4050,M,M,M,150.00,3.00,M,29.93,M,10.00,M,CLR,M,M,M,M,M,M,M,M,KAVX 010535Z AUTO 15003KT 10SM CLR A2993 RMK MADISHF
AVX,2017-04-01 05:40,-118.4158,33.4050,M,M,M,150.00,3.00,M,29.93,M,10.00,M,CLR,M,M,M,M,M,M,M,M,KAVX 010540Z AUTO 15003KT 10SM CLR A2993 RMK MADISHF
AVX,2017-04-01 05:45,-118.4158,33.4050,M,M,M,140.00,3.00,M,29.93,M,10.00,M,CLR,M,M,M,M,M,M,M,M,KAVX 010545Z AUTO 14003KT 10SM CLR A2993 RMK MADISHF
AVX,2017-04-01 05:50,-118.4158,33.4050,M,M,M,170.00,3.00,M,29.93,M,10.00,M,CLR,M,M,M,M,M,M,M,M,KAVX 010550Z AUTO 17003KT 10SM CLR A2993 RMK MADISHF
AVX,2017-04-01 05:51,-118.4158,33.4050,55.00,32.00,41.44,160.00,3.00,0.00,29.93,1012.80,10.00,M,CLR,M,M,M,M,M,M,M,M,KAVX 010551Z AUTO 16003KT 10SM CLR 13/00 A2993 RMK AO2 SLP128 T01280000 10156 20117 51024 TSNO
AVX,2017-04-01 05:55,-118.4158,33.4050,M,M,M,160.00,3.00,M,29.93,M,10.00,M,CLR,M,M,M,M,M,M,M,M,KAVX 010555Z AUTO 16003KT 10SM CLR A2993 RMK MADISHF
AVX,2017-04-01 06:00,-118.4158,33.4050,M,M,M,0.00,0.00,M,29.93,M,10.00,M,CLR,M,M,M,M,M,M,M,M,KAVX 010600Z AUTO 00000KT 10SM CLR A2993 RMK MADISHF
AVX,2017-04-01 06:05,-118.4158,33.4050,M,M,M,0.00,0.00,M,29.93,M,10.00,M,CLR,M,M,M,M,M,M,M,M,KAVX 010605Z AUTO 00000KT 10SM CLR A2993 RMK MADISHF
AVX,2017-04-01 06:10,-118.4158,33.4050,M,M,M,0.00,0.00,M,29.93,M,10.00,M,CLR,M,M,M,M,M,M,M,M,KAVX 010610Z AUTO 00000KT 10SM CLR A2993 RMK MADISHF
AVX,2017-04-01 06:15,-118.4158,33.4050,M,M,M,0.00,0.00,M,29.93,M,10.00,M,CLR,M,M,M,M,M,M,M,M,KAVX 010615Z AUTO 00000KT 10SM CLR A2993 RMK MADISHF
AVX,2017-04-01 06:20,-118.4158,33.4050,M,M,M,160.00,3.00,M,29.93,M,10.00,M,CLR,M,M,M,M,M,M,M,M,KAVX 010620Z AUTO 16003KT 10SM CLR A2993 RMK MADISHF
AVX,2017-04-01 06:25,-118.4158,33.4050,M,M,M,150.00,3.00,M,29.93,M,10.00,M,CLR,M,M,M,M,M,M,M,M,KAVX 010625Z AUTO 15003KT 10SM CLR A2993 RMK MADISHF
AVX,2017-04-01 06:30,-118.4158,33.4050,M,M,M,160.00,3.00,M,29.93,M,10.00,M,CLR,M,M,M,M,M,M,M,M,KAVX 010630Z AUTO 16003KT 10SM CLR A2993 RMK MADISHF
AVX,2017-04-01 06:35,-118.4158,33.4050,M,M,M,150.00,3.00,M,29.93,M,10.00,M,CLR,M,M,M,M,M,M,M,M,KAVX 010635Z AUTO 15003KT 10SM CLR A2993 RMK MADISHF
AVX,2017-04-01 06:40,-118.4158,33.4050,M,M,M,160.00,3.00,M,29.93,M,10.00,M,CLR,M,M,M,M,M,M,M,M,KAVX 010640Z AUTO 16003KT 10SM CLR A2993 RMK MADISHF
AVX,2017-04-01 06:45,-118.4158,33.4050,M,M,M,0.00,0.00,M,29.93,M,10.00,M,CLR,M,M,M,M,M,M,M,M,KAVX 010645Z AUTO 00000KT 10SM CLR A2993 RMK MADISHF
AVX,2017-04-01 06:50,-118.4158,33.4050,M,M,M,0.00,0.00,M,29.92,M,10.00,M,CLR,M,M,M,M,M,M,M,M,KAVX 010650Z AUTO 00000KT 10SM CLR A2992 RMK MADISHF
AVX,2017-04-01 06:51,-118.4158,33.4050,55.90,24.10,29.00,0.00,0.00,0.00,29.92,1012.30,10.00,M,CLR,M,M,M,M,M,M,M,M,KAVX 010651Z AUTO 00000KT 10SM CLR 13/M04 A2992 RMK AO2 SLP123 T01331044 TSNO
AVX,2017-04-01 06:55,-118.4158,33.4050,M,M,M,0.00,0.00,M,29.92,M,10.00,M,CLR,M,M,M,M,M,M,M,M,KAVX 010655Z AUTO 00000KT 10SM CLR A2992 RMK MADISHF
AVX,2017-04-01 07:00,-118.4158,33.4050,M,M,M,220.00,3.00,M,29.92,M,10.00,M,CLR,M,M,M,M,M,M,M,M,KAVX 010700Z AUTO 22003KT 10SM CLR A2992 RMK MADISHF
AVX,2017-04-01 07:05,-118.4158,33.4050,M,M,M,210.00,3.00,M,29.92,M,10.00,M,CLR,M,M,M,M,M,M,M,M,KAVX 010705Z AUTO 21003KT 10SM CLR A2992 RMK MADISHF
AVX,2017-04-01 07:10,-118.4158,33.4050,M,M,M,0.00,0.00,M,29.93,M,10.00,M,CLR,M,M,M,M,M,M,M,M,KAVX 010710Z AUTO 00000KT 10SM CLR A2993 RMK MADISHF
AVX,2017-04-01 07:15,-118.4158,33.4050,M,M,M,0.00,0.00,M,29.92,M,10.00,M,CLR,M,M,M,M,M,M,M,M,KAVX 010715Z AUTO 00000KT 10SM CLR A2992 RMK MADISHF
AVX,2017-04-01 07:20,-118.4158,33.4050,M,M,M,260.00,3.00,M,29.92,M,10.00,M,CLR,M,M,M,M,M,M,M,M,KAVX 010720Z AUTO 26003KT 10SM CLR A2992 RMK MADISHF
AVX,2017-04-01 07:25,-118.4158,33.4050,M,M,M,260.00,4.00,M,29.92,M,10.00,M,CLR,M,M,M,M,M,M,M,M,KAVX 010725Z AUTO 26004KT 10SM CLR A2992 RMK MADISHF
AVX,2017-04-01 07:30,-118.4158,33.4050,M,M,M,260.00,5.00,M,29.93,M,10.00,M,CLR,M,M,M,M,M,M,M,M,KAVX 010730Z AUTO 26005KT 10SM CLR A2993 RMK MADISHF
AVX,2017-04-01 07:35,-118.4158,33.4050,M,M,M,260.00,6.00,M,29.93,M,10.00,M,CLR,M,M,M,M,M,M,M,M,KAVX 010735Z AUTO 26006KT 10SM CLR A2993 RMK MADISHF
AVX,2017-04-01 07:40,-118.4158,33.4050,M,M,M,260.00,5.00,M,29.93,M,10.00,M,CLR,M,M,M,M,M,M,M,M,KAVX 010740Z AUTO 26005KT 10SM CLR A2993 RMK MADISHF
AVX,2017-04-01 07:45,-118.4158,33.4050,M,M,M,260.00,4.00,M,29.93,M,10.00,M,CLR,M,M,M,M,M,M,M,M,KAVX 010745Z AUTO 26004KT 10SM CLR A2993 RMK MADISHF
AVX,2017-04-01 07:50,-118.4158,33.4050,M,M,M,270.00,3.00,M,29.93,M,10.00,M,CLR,M,M,M,M,M,M,M,M,KAVX 010750Z AUTO 27003KT 10SM CLR A2993 RMK MADISHF
AVX,2017-04-01 07:51,-118.4158,33.4050,57.90,17.10,20.03,270.00,3.00,0.00,29.93,1012.60,10.00,M,CLR,M,M,M,M,M,M,M,M,KAVX 010751Z AUTO 27003KT 10SM CLR 14/M08 A2993 RMK AO2 SLP126 T01441083 401610100 TSNO
AVX,2017-04-01 07:55,-118.4158,33.4050,M,M,M,280.00,4.00,M,29.94,M,10.00,M,CLR,M,M,M,M,M,M,M,M,KAVX 010755Z AUTO 28004KT 10SM CLR A2994 RMK MADISHF
AVX,2017-04-01 08:00,-118.4158,33.4050,M,M,M,280.00,5.00,M,29.94,M,10.00,M,CLR,M,M,M,M,M,M,M,M,KAVX 010800Z AUTO 28005KT 10SM CLR A2994 RMK MADISHF
AVX,2017-04-01 08:05,-118.4158,33.4050,M,M,M,280.00,5.00,M,29.94,M,10.00,M,CLR,M,M,M,M,M,M,M,M,KAVX 010805Z AUTO 28005KT 10SM CLR A2994 RMK MADISHF
AVX,2017-04-01 08:10,-118.4158,33.4050,M,M,M,280.00,5.00,M,29.94,M,10.00,M,CLR,M,M,M,M,M,M,M,M,KAVX 010810Z AUTO 28005KT 10SM CLR A2994 RMK MADISHF
AVX,2017-04-01 08:15,-118.4158,33.4050,M,M,M,280.00,5.00,M,29.94,M,10.00,M,CLR,M,M,M,M,M,M,M,M,KAVX 010815Z AUTO 28005KT 10SM CLR A2994 RMK MADISHF
AVX,2017-04-01 08:20,-118.4158,33.4050,M,M,M,290.00,5.00,M,29.94,M,10.00,M,CLR,M,M,M,M,M,M,M,M,KAVX 010820Z AUTO 29005KT 10SM CLR A2994 RMK MADISHF
AVX,2017-04-01 08:25,-118.4158,33.4050,M,M,M,290.00,6.00,M,29.94,M,10.00,M,CLR,M,M,M,M,M,M,M,M,KAVX 010825Z AUTO 29006KT 10SM CLR A2994 RMK MADISHF
AVX,2017-04-01 08:30,-118.4158,33.4050,M,M,M,290.00,5.00,M,29.94,M,10.00,M,CLR,M,M,M,M,M,M,M,M,KAVX 010830Z AUTO 29005KT 10SM CLR A2994 RMK MADISHF
AVX,2017-04-01 08:35,-118.4158,33.4050,M,M,M,290.00,4.00,M,29.94,M,10.00,M,CLR,M,M,M,M,M,M,M,M,KAVX 010835Z AUTO 29004KT 10SM CLR A2994 RMK MADISHF
AVX,2017-04-01 08:40,-118.4158,33.4050,M,M,M,280.00,5.00,M,29.94,M,10.00,M,CLR,M,M,M,M,M,M,M,M,KAVX 010840Z AUTO 28005KT 10SM CLR A2994 RMK MADISHF
AVX,2017-04-01 08:45,-118.4158,33.4050,M,M,M,290.00,4.00,M,29.94,M,10.00,M,CLR,M,M,M,M,M,M,M,M,KAVX 010845Z AUTO 29004KT 10SM CLR A2994 RMK MADISHF
AVX,2017-04-01 08:50,-118.4158,33.4050,M,M,M,280.00,5.00,M,29.94,M,10.00,M,CLR,M,M,M,M,M,M,M,M,KAVX 010850Z AUTO 28005KT 10SM CLR A2994 RMK MADISHF
AVX,2017-04-01 08:51,-118.4158,33.4050,57.00,17.10,20.69,280.00,5.00,0.00,29.94,1012.80,10.00,M,CLR,M,M,M,M,M,M,M,M,KAVX 010851Z AUTO 28005KT 10SM CLR 14/M08 A2994 RMK AO2 SLP128 T01391083 53001 TSNO
AVX,2017-04-01 08:55,-118.4158,33.4050,M,M,M,280.00,4.00,M,29.94,M,10.00,M,CLR,M,M,M,M,M,M,M,M,KAVX 010855Z AUTO 28004KT 10SM CLR A2994 RMK MADISHF
AVX,2017-04-01 09:00,-118.4158,33.4050,M,M,M,300.00,3.00,M,29.94,M,10.00,M,CLR,M,M,M,M,M,M,M,M,KAVX 010900Z AUTO 30003KT 10SM CLR A2994 RMK MADISHF
AVX,2017-04-01 09:05,-118.4158,33.4050,M,M,M,310.00,4.00,M,29.94,M,10.00,M,CLR,M,M,M,M,M,M,M,M,KAVX 010905Z AUTO 31004KT 10SM CLR A2994 RMK MADISHF
AVX,2017-04-01 09:10,-118.4158,33.4050,M,M,M,310.00,3.00,M,29.94,M,10.00,M,CLR,M,M,M,M,M,M,M,M,KAVX 010910Z AUTO 31003KT 10SM CLR A2994 RMK MADISHF
AVX,2017-04-01 09:15,-118.4158,33.4050,M,M,M,320.00,3.00,M,29.94,M,10.00,M,CLR,M,M,M,M,M,M,M,M,KAVX 010915Z AUTO 32003KT 10SM CLR A2994 RMK MADISHF
AVX,2017-04-01 09:20,-118.4158,33.4050,M,M,M,310.00,3.00,M,29.93,M,10.00,M,CLR,M,M,M,M,M,M,M,M,KAVX 010920Z AUTO 31003KT 10SM CLR A2993 RMK MADISHF
AVX,2017-04-01 09:25,-118.4158,33.4050,M,M,M,310.00,4.00,M,29.93,M,10.00,M,CLR,M,M,M,M,M,M,M,M,KAVX 010925Z AUTO 31004KT 10SM CLR A2993 RMK MADISHF
AVX,2017-04-01 09:30,-118.4158,33.4050,M,M,M,320.00,4.00,M,29.94,M,10.00,M,CLR,M,M,M,M,M,M,M,M,KAVX 010930Z AUTO 32004KT 10SM CLR A2994 RMK MADISHF
AVX,2017-04-01 09:35,-118.4158,33.4050,M,M,M,320.00,4.00,M,29.93,M,10.00,M,CLR,M,M,M,M,M,M,M,M,KAVX 010935Z AUTO 32004KT 10SM CLR A2993 RMK MADISHF
AVX,2017-04-01 09:40,-118.4158,33.4050,M,M,M,320.00,3.00,M,29.93,M,10.00,M,CLR,M,M,M,M,M,M,M,M,KAVX 010940Z AUTO 32003KT 10SM CLR A2993 RMK MADISHF
AVX,2017-04-01 09:45,-118.4158,33.4050,M,M,M,310.00,3.00,M,29.93,M,10.00,M,CLR,M,M,M,M,M,M,M,M,KAVX 010945Z AUTO 31003KT 10SM CLR A2993 RMK MADISHF
AVX,2017-04-01 09:50,-118.4158,33.4050,M,M,M,310.00,3.00,M,29.93,M,10.00,M,CLR,M,M,M,M,M,M,M,M,KAVX 010950Z AUTO 31003KT 10SM CLR A2993 RMK MADISHF
AVX,2017-04-01 09:51,-118.4158,33.4050,57.90,16.00,19.10,310.00,3.00,0.00,29.93,1012.60,10.00,M,CLR,M,M,M,M,M,M,M,M,KAVX 010951Z AUTO 31003KT 10SM CLR 14/M09 A2993 RMK AO2 SLP126 T01441089 TSNO
AVX,2017-04-01 09:55,-118.4158,33.4050,M,M,M,320.00,3.00,M,29.93,M,10.00,M,CLR,M,M,M,M,M,M,M,M,KAVX 010955Z AUTO 32003KT 10SM CLR A2993 RMK MADISHF
AVX,2017-04-01 10:00,-118.4158,33.4050,M,M,M,320.00,3.00,M,29.93,M,10.00,M,CLR,M,M,M,M,M,M,M,M,KAVX 011000Z AUTO 32003KT 10SM CLR A2993 RMK MADISHF
AVX,2017-04-01 10:05,-118.4158,33.4050,M,M,M,300.00,3.00,M,29.94,M,10.00,M,CLR,M,M,M,M,M,M,M,M,KAVX 011005Z AUTO 30003KT 10SM CLR A2994 RMK MADISHF
AVX,2017-04-01 10:10,-118.4158,33.4050,M,M,M,310.00,3.00,M,29.94,M,10.00,M,CLR,M,M,M,M,M,M,M,M,KAVX 011010Z AUTO 31003KT 10SM CLR A2994 RMK MADISHF
AVX,2017-04-01 10:15,-118.4158,33.4050,M,M,M,290.00,4.00,M,29.93,M,10.00,M,CLR,M,M,M,M,M,M,M,M,KAVX 011015Z AUTO 29004KT 10SM CLR A2993 RMK MADISHF
AVX,2017-04-01 10:20,-118.4158,33.4050,M,M,M,260.00,6.00,M,29.93,M,10.00,M,CLR,M,M,M,M,M,M,M,M,KAVX 011020Z AUTO 26006KT 10SM CLR A2993 RMK MADISHF
AVX,2017-04-01 10:25,-118.4158,33.4050,M,M,M,270.00,4.00,M,29.93,M,10.00,M,CLR,M,M,M,M,M,M,M,M,KAVX 011025Z AUTO 27004KT 10SM CLR A2993 RMK MADISHF
AVX,2017-04-01 10:30,-118.4158,33.4050,M,M,M,270.00,6.00,M,29.93,M,10.00,M,CLR,M,M,M,M,M,M,M,M,KAVX 011030Z AUTO 27006KT 10SM CLR A2993 RMK MADISHF
AVX,2017-04-01 10:35,-118.4158,33.4050,M,M,M,250.00,6.00,M,29.93,M,10.00,M,CLR,M,M,M,M,M,M,M,M,KAVX 011035Z AUTO 25006KT 10SM CLR A2993 RMK MADISHF
AVX,2017-04-01 10:40,-118.4158,33.4050,M,M,M,290.00,4.00,M,29.93,M,10.00,M,CLR,M,M,M,M,M,M,M,M,KAVX 011040Z AUTO 29004KT 10SM CLR A2993 RMK MADISHF
AVX,2017-04-01 10:45,-118.4158,33.4050,M,M,M,310.00,4.00,M,29.93,M,10.00,M,CLR,M,M,M,M,M,M,M,M,KAVX 011045Z AUTO 31004KT 10SM CLR A2993 RMK MADISHF
AVX,2017-04-01 10:50,-118.4158,33.4050,M,M,M,300.00,4.00,M,29.93,M,10.00,M,CLR,M,M,M,M,M,M,M,M,KAVX 011050Z AUTO 30004KT 10SM CLR A2993 RMK MADISHF
AVX,2017-04-01 10:51,-118.4158,33.4050,57.90,16.00,19.10,300.00,4.00,0.00,29.93,1012.50,10.00,M,CLR,M,M,M,M,M,M,M,M,KAVX 011051Z AUTO 30004KT 10SM CLR 14/M09 A2993 RMK AO2 SLP125 T01441089 TSNO
AVX,2017-04-01 10:55,-118.4158,33.4050,M,M,M,300.00,4.00,M,29.93,M,10.00,M,CLR,M,M,M,M,M,M,M,M,KAVX 011055Z AUTO 30004KT 10SM CLR A2993 RMK MADISHF
AVX,2017-04-01 11:00,-118.4158,33.4050,M,M,M,280.00,5.00,M,29.93,M,10.00,M,CLR,M,M,M,M,M,M,M,M,KAVX 011100Z AUTO 28005KT 10SM CLR A2993 RMK MADISHF
AVX,2017-04-01 11:05,-118.4158,33.4050,M,M,M,270.00,5.00,M,29.93,M,10.00,M,CLR,M,M,M,M,M,M,M,M,KAVX 011105Z AUTO 27005KT 10SM CLR A2993 RMK MADISHF
AVX,2017-04-01 11:10,-118.4158,33.4050,M,M,M,280.00,5.00,M,29.93,M,10.00,M,CLR,M,M,M,M,M,M,M,M,KAVX 011110Z AUTO 28005KT 10SM CLR A2993 RMK MADISHF
AVX,2017-04-01 11:15,-118.4158,33.4050,M,M,M,280.00,4.00,M,29.93,M,10.00,M,CLR,M,M,M,M,M,M,M,M,KAVX 011115Z AUTO 28004KT 10SM CLR A2993 RMK MADISHF
AVX,2017-04-01 11:20,-118.4158,33.4050,M,M,M,280.00,4.00,M,29.94,M,10.00,M,CLR,M,M,M,M,M,M,M,M,KAVX 011120Z AUTO 28004KT 10SM CLR A2994 RMK MADISHF
AVX,2017-04-01 11:25,-118.4158,33.4050,M,M,M,260.00,6.00,M,29.94,M,10.00,M,CLR,M,M,M,M,M,M,M,M,KAVX 011125Z AUTO 26006KT 10SM CLR A2994 RMK MADISHF
AVX,2017-04-01 11:30,-118.4158,33.4050,M,M,M,260.00,8.00,M,29.94,M,10.00,M,CLR,M,M,M,M,M,M,M,M,KAVX 011130Z AUTO 26008KT 10SM CLR A2994 RMK MADISHF
AVX,2017-04-01 11:35,-118.4158,33.4050,M,M,M,260.00,6.00,M,29.94,M,10.00,M,CLR,M,M,M,M,M,M,M,M,KAVX 011135Z AUTO 26006KT 10SM CLR A2994 RMK MADISHF
AVX,2017-04-01 11:40,-118.4158,33.4050,M,M,M,260.00,5.00,M,29.94,M,10.00,M,CLR,M,M,M,M,M,M,M,M,KAVX 011140Z AUTO 26005KT 10SM CLR A2994 RMK MADISHF
AVX,2017-04-01 11:45,-118.4158,33.4050,M,M,M,270.00,6.00,M,29.94,M,10.00,M,CLR,M,M,M,M,M,M,M,M,KAVX 011145Z AUTO 27006KT 10SM CLR A2994 RMK MADISHF
AVX,2017-04-01 11:50,-118.4158,33.4050,M,M,M,260.00,6.00,M,29.94,M,10.00,M,CLR,M,M,M,M,M,M,M,M,KAVX 011150Z AUTO 26006KT 10SM CLR A2994 RMK MADISHF
AVX,2017-04-01 11:51,-118.4158,33.4050,55.90,18.00,22.39,260.00,6.00,0.00,29.94,1013.00,10.00,M,CLR,M,M,M,M,M,M,M,M,KAVX 011151Z AUTO 26006KT 10SM CLR 13/M08 A2994 RMK AO2 SLP130 T01331078 10150 20117 53000 TSNO
AVX,2017-04-01 11:55,-118.4158,33.4050,M,M,M,250.00,6.00,M,29.94,M,10.00,M,CLR,M,M,M,M,M,M,M,M,KAVX 011155Z AUTO 25006KT 10SM CLR A2994 RMK MADISHF
AVX,2017-04-01 12:00,-118.4158,33.4050,M,M,M,250.00,6.00,M,29.94,M,10.00,M,CLR,M,M,M,M,M,M,M,M,KAVX 011200Z AUTO 25006KT 10SM CLR A2994 RMK MADISHF
AVX,2017-04-01 12:05,-118.4158,33.4050,M,M,M,250.00,7.00,M,29.94,M,10.00,M,CLR,M,M,M,M,M,M,M,M,KAVX 011205Z AUTO 25007KT 10SM CLR A2994 RMK MADISHF
AVX,2017-04-01 12:10,-118.4158,33.4050,M,M,M,250.00,7.00,M,29.94,M,10.00,M,CLR,M,M,M,M,M,M,M,M,KAVX 011210Z AUTO 25007KT 10SM CLR A2994 RMK MADISHF
AVX,2017-04-01 12:15,-118.4158,33.4050,M,M,M,240.00,7.00,M,29.94,M,10.00,M,CLR,M,M,M,M,M,M,M,M,KAVX 011215Z AUTO 24007KT 10SM CLR A2994 RMK MADISHF
AVX,2017-04-01 12:20,-118.4158,33.4050,M,M,M,240.00,7.00,M,29.94,M,10.00,M,CLR,M,M,M,M,M,M,M,M,KAVX 011220Z AUTO 24007KT 10SM CLR A2994 RMK MADISHF
AVX,2017-04-01 12:25,-118.4158,33.4050,M,M,M,250.00,7.00,M,29.94,M,10.00,M,CLR,M,M,M,M,M,M,M,M,KAVX 011225Z AUTO 25007KT 10SM CLR A2994 RMK MADISHF
AVX,2017-04-01 12:30,-118.4158,33.4050,M,M,M,250.00,7.00,M,29.94,M,10.00,M,CLR,M,M,M,M,M,M,M,M,KAVX 011230Z AUTO 25007KT 10SM CLR A2994 RMK MADISHF
AVX,2017-04-01 12:35,-118.4158,33.4050,M,M,M,240.00,7.00,M,29.94,M,10.00,M,CLR,M,M,M,M,M,M,M,M,KAVX 011235Z AUTO 24007KT 10SM CLR A2994 RMK MADISHF
AVX,2017-04-01 12:40,-118.4158,33.4050,M,M,M,240.00,8.00,M,29.94,M,10.00,M,CLR,M,M,M,M,M,M,M,M,KAVX 011240Z AUTO 24008KT 10SM CLR A2994 RMK MADISHF
AVX,2017-04-01 12:45,-118.4158,33.4050,M,M,M,240.00,6.00,M,29.94,M,10.00,M,CLR,M,M,M,M,M,M,M,M,KAVX 011245Z AUTO 24006KT 10SM CLR A2994 RMK MADISHF
AVX,2017-04-01 12:50,-118.4158,33.4050,M,M,M,260.00,6.00,M,29.94,M,10.00,M,CLR,M,M,M,M,M,M,M,M,KAVX 011250Z AUTO 26006KT 10SM CLR A2994 RMK MADISHF
AVX,2017-04-01 12:51,-118.4158,33.4050,57.00,21.00,24.45,260.00,6.00,0.00,29.94,1013.00,10.00,M,CLR,M,M,M,M,M,M,M,M,KAVX 011251Z AUTO 26006KT 10SM CLR 14/M06 A2994 RMK AO2 SLP130 T01391061 TSNO
AVX,2017-04-01 12:55,-118.4158,33.4050,M,M,M,250.00,6.00,M,29.94,M,10.00,M,CLR,M,M,M,M,M,M,M,M,KAVX 011255Z AUTO 25006KT 10SM CLR A2994 RMK MADISHF
AVX,2017-04-01 13:00,-118.4158,33.4050,M,M,M,260.00,4.00,M,29.94,M,10.00,M,CLR,M,M,M,M,M,M,M,M,KAVX 011300Z AUTO 26004KT 10SM CLR A2994 RMK MADISHF
AVX,2017-04-01 13:05,-118.4158,33.4050,M,M,M,270.00,5.00,M,29.95,M,10.00,M,CLR,M,M,M,M,M,M,M,M,KAVX 011305Z AUTO 27005KT 10SM CLR A2995 RMK MADISHF
AVX,2017-04-01 13:10,-118.4158,33.4050,M,M,M,270.00,5.00,M,29.95,M,10.00,M,CLR,M,M,M,M,M,M,M,M,KAVX 011310Z AUTO 27005KT 10SM CLR A2995 RMK MADISHF
AVX,2017-04-01 13:15,-118.4158,33.4050,M,M,M,250.00,4.00,M,29.95,M,10.00,M,CLR,M,M,M,M,M,M,M,M,KAVX 011315Z AUTO 25004KT 10SM CLR A2995 RMK MADISHF
AVX,2017-04-01 13:20,-118.4158,33.4050,M,M,M,250.00,3.00,M,29.95,M,10.00,M,CLR,M,M,M,M,M,M,M,M,KAVX 011320Z AUTO 25003KT 10SM CLR A2995 RMK MADISHF
AVX,2017-04-01 13:25,-118.4158,33.4050,M,M,M,260.00,3.00,M,29.96,M,10.00,M,CLR,M,M,M,M,M,M,M,M,KAVX 011325Z AUTO 26003KT 10SM CLR A2996 RMK MADISHF
AVX,2017-04-01 13:30,-118.4158,33.4050,M,M,M,260.00,4.00,M,29.96,M,10.00,M,CLR,M,M,M,M,M,M,M,M,KAVX 011330Z AUTO 26004KT 10SM CLR A2996 RMK MADISHF
AVX,2017-04-01 13:35,-118.4158,33.4050,M,M,M,260.00,4.00,M,29.96,M,10.00,M,CLR,M,M,M,M,M,M,M,M,KAVX 011335Z AUTO 26004KT 10SM CLR A2996 RMK MADISHF
AVX,2017-04-01 13:40,-118.4158,33.4050,M,M,M,260.00,6.00,M,29.96,M,10.00,M,CLR,M,M,M,M,M,M,M,M,KAVX 011340Z AUTO 26006KT 10SM CLR A2996 RMK MADISHF
AVX,2017-04-01 13:45,-118.4158,33.4050,M,M,M,260.00,7.00,M,29.96,M,10.00,M,CLR,M,M,M,M,M,M,M,M,KAVX 011345Z AUTO 26007KT 10SM CLR A2996 RMK MADISHF
AVX,2017-04-01 13:50,-118.4158,33.4050,M,M,M,250.00,7.00,M,29.96,M,10.00,M,CLR,M,M,M,M,M,M,M,M,KAVX 011350Z AUTO 25007KT 10SM CLR A2996 RMK MADISHF
AVX,2017-04-01 13:51,-118.4158,33.4050,55.90,23.00,27.69,250.00,7.00,0.00,29.96,1013.80,10.00,M,CLR,M,M,M,M,M,M,M,M,KAVX 011351Z AUTO 25007KT 10SM CLR 13/M05 A2996 RMK AO2 SLP138 T01331050 TSNO
AVX,2017-04-01 13:55,-118.4158,33.4050,M,M,M,260.00,6.00,M,29.96,M,10.00,M,CLR,M,M,M,M,M,M,M,M,KAVX 011355Z AUTO 26006KT 10SM CLR A2996 RMK MADISHF
AVX,2017-04-01 14:00,-118.4158,33.4050,M,M,M,260.00,6.00,M,29.96,M,9.00,M,CLR,M,M,M,M,M,M,M,M,KAVX 011400Z AUTO 26006KT 9SM CLR A2996 RMK MADISHF
AVX,2017-04-01 14:05,-118.4158,33.4050,M,M,M,260.00,5.00,M,29.96,M,9.00,M,CLR,M,M,M,M,M,M,M,M,KAVX 011405Z AUTO 26005KT 9SM CLR A2996 RMK MADISHF
AVX,2017-04-01 14:10,-118.4158,33.4050,M,M,M,0.00,0.00,M,29.97,M,10.00,M,CLR,M,M,M,M,M,M,M,M,KAVX 011410Z AUTO 00000KT 10SM CLR A2997 RMK MADISHF
AVX,2017-04-01 14:15,-118.4158,33.4050,M,M,M,0.00,0.00,M,29.97,M,10.00,M,CLR,M,M,M,M,M,M,M,M,KAVX 011415Z AUTO 00000KT 10SM CLR A2997 RMK MADISHF
AVX,2017-04-01 14:20,-118.4158,33.4050,M,M,M,250.00,3.00,M,29.97,M,10.00,M,CLR,M,M,M,M,M,M,M,M,KAVX 011420Z AUTO 25003KT 10SM CLR A2997 RMK MADISHF
AVX,2017-04-01 14:25,-118.4158,33.4050,M,M,M,250.00,5.00,M,29.97,M,10.00,M,CLR,M,M,M,M,M,M,M,M,KAVX 011425Z AUTO 25005KT 10SM CLR A2997 RMK MADISHF
AVX,2017-04-01 14:30,-118.4158,33.4050,M,M,M,240.00,4.00,M,29.98,M,10.00,M,CLR,M,M,M,M,M,M,M,M,KAVX 011430Z AUTO 24004KT 10SM CLR A2998 RMK MADISHF
AVX,2017-04-01 14:35,-118.4158,33.4050,M,M,M,240.00,5.00,M,29.98,M,10.00,M,CLR,M,M,M,M,M,M,M,M,KAVX 011435Z AUTO 24005KT 10SM CLR A2998 RMK MADISHF
AVX,2017-04-01 14:40,-118.4158,33.4050,M,M,M,240.00,6.00,M,29.98,M,10.00,M,CLR,M,M,M,M,M,M,M,M,KAVX 011440Z AUTO 24006KT 10SM CLR A2998 RMK MADISHF
AVX,2017-04-01 14:45,-118.4158,33.4050,M,M,M,230.00,5.00,M,29.98,M,10.00,M,CLR,M,M,M,M,M,M,M,M,KAVX 011445Z AUTO 23005KT 10SM CLR A2998 RMK MADISHF
AVX,2017-04-01 14:50,-118.4158,33.4050,M,M,M,240.00,5.00,M,29.99,M,10.00,M,CLR,M,M,M,M,M,M,M,M,KAVX 011450Z AUTO 24005KT 10SM CLR A2999 RMK MADISHF
AVX,2017-04-01 14:51,-118.4158,33.4050,57.90,23.00,25.76,250.00,5.00,0.00,29.99,1014.60,10.00,M,CLR,M,M,M,M,M,M,M,M,KAVX 011451Z AUTO 25005KT 10SM CLR 14/M05 A2999 RMK AO2 SLP146 T01441050 53015 TSNO
AVX,2017-04-01 14:55,-118.4158,33.4050,M,M,M,250.00,3.00,M,29.99,M,10.00,M,CLR,M,M,M,M,M,M,M,M,KAVX 011455Z AUTO 25003KT 10SM CLR A2999 RMK MADISHF
AVX,2017-04-01 15:00,-118.4158,33.4050,M,M,M,220.00,3.00,M,29.99,M,10.00,M,CLR,M,M,M,M,M,M,M,M,KAVX 011500Z AUTO 22003KT 10SM CLR A2999 RMK MADISHF
AVX,2017-04-01 15:05,-118.4158,33.4050,M,M,M,0.00,0.00,M,29.99,M,10.00,M,CLR,M,M,M,M,M,M,M,M,KAVX 011505Z AUTO 00000KT 10SM CLR A2999 RMK MADISHF
AVX,2017-04-01 15:10,-118.4158,33.4050,M,M,M,270.00,3.00,M,29.99,M,10.00,M,CLR,M,M,M,M,M,M,M,M,KAVX 011510Z AUTO 27003KT 10SM CLR A2999 RMK MADISHF
AVX,2017-04-01 15:15,-118.4158,33.4050,M,M,M,270.00,4.00,M,29.99,M,10.00,M,CLR,M,M,M,M,M,M,M,M,KAVX 011515Z AUTO 27004KT 10SM CLR A2999 RMK MADISHF
AVX,2017-04-01 15:20,-118.4158,33.4050,M,M,M,260.00,3.00,M,29.99,M,10.00,M,CLR,M,M,M,M,M,M,M,M,KAVX 011520Z AUTO 26003KT 10SM CLR A2999 RMK MADISHF
AVX,2017-04-01 15:25,-118.4158,33.4050,M,M,M,240.00,4.00,M,30.00,M,10.00,M,CLR,M,M,M,M,M,M,M,M,KAVX 011525Z AUTO 24004KT 10SM CLR A3000 RMK MADISHF
AVX,2017-04-01 15:30,-118.4158,33.4050,M,M,M,250.00,4.00,M,30.00,M,10.00,M,CLR,M,M,M,M,M,M,M,M,KAVX 011530Z AUTO 25004KT 10SM CLR A3000 RMK MADISHF
AVX,2017-04-01 15:35,-118.4158,33.4050,M,M,M,250.00,3.00,M,30.00,M,10.00,M,CLR,M,M,M,M,M,M,M,M,KAVX 011535Z AUTO 25003KT 10SM CLR A3000 RMK MADISHF
AVX,2017-04-01 15:40,-118.4158,33.4050,M,M,M,270.00,4.00,M,30.00,M,10.00,M,CLR,M,M,M,M,M,M,M,M,KAVX 011540Z AUTO 27004KT 10SM CLR A3000 RMK MADISHF
AVX,2017-04-01 15:45,-118.4158,33.4050,M,M,M,290.00,5.00,M,30.00,M,10.00,M,CLR,M,M,M,M,M,M,M,M,KAVX 011545Z AUTO 29005KT 10SM CLR A3000 RMK MADISHF
AVX,2017-04-01 15:50,-118.4158,33.4050,M,M,M,260.00,5.00,M,30.00,M,10.00,M,CLR,M,M,M,M,M,M,M,M,KAVX 011550Z AUTO 26005KT 10SM CLR A3000 RMK MADISHF
AVX,2017-04-01 15:51,-118.4158,33.4050,60.10,24.10,24.93,260.00,4.00,0.00,30.00,1015.10,10.00,M,CLR,M,M,M,M,M,M,M,M,KAVX 011551Z AUTO 26004KT 10SM CLR 16/M04 A3000 RMK AO2 SLP151 T01561044 TSNO
AVX,2017-04-01 15:55,-118.4158,33.4050,M,M,M,250.00,4.00,M,30.00,M,10.00,M,CLR,M,M,M,M,M,M,M,M,KAVX 011555Z AUTO 25004KT 10SM CLR A3000 RMK MADISHF
AVX,2017-04-01 16:00,-118.4158,33.4050,M,M,M,M,M,M,M,M,M,M,M,M,M,M,M,M,M,M,M,KAVX 011600Z AUTO /////KT RMK MADISHF
AVX,2017-04-01 16:05,-118.4158,33.4050,M,M,M,260.00,5.00,M,30.00,M,M,M,M,M,M,M,M,M,M,M,M,KAVX 011605Z AUTO 26005KT A3000 RMK MADISHF
AVX,2017-04-01 16:10,-118.4158,33.4050,M,M,M,260.00,5.00,M,30.01,M,10.00,M,M,M,M,M,M,M,M,M,M,KAVX 011610Z AUTO 26005KT 10SM A3001 RMK MADISHF
AVX,2017-04-01 16:15,-118.4158,33.4050,M,M,M,250.00,4.00,M,30.01,M,10.00,M,M,M,M,M,M,M,M,M,M,KAVX 011615Z AUTO 25004KT 10SM A3001 RMK MADISHF
AVX,2017-04-01 16:20,-118.4158,33.4050,M,M,M,230.00,5.00,M,30.01,M,10.00,M,M,M,M,M,M,M,M,M,M,KAVX 011620Z AUTO 23005KT 10SM A3001 RMK MADISHF
AVX,2017-04-01 16:25,-118.4158,33.4050,M,M,M,240.00,5.00,M,30.01,M,10.00,M,M,M,M,M,M,M,M,M,M,KAVX 011625Z AUTO 24005KT 10SM A3001 RMK MADISHF
AVX,2017-04-01 16:30,-118.4158,33.4050,M,M,M,240.00,5.00,M,30.01,M,10.00,M,CLR,M,M,M,M,M,M,M,M,KAVX 011630Z AUTO 24005KT 10SM CLR A3001 RMK MADISHF
AVX,2017-04-01 16:35,-118.4158,33.4050,M,M,M,230.00,6.00,M,30.01,M,10.00,M,CLR,M,M,M,M,M,M,M,M,KAVX 011635Z AUTO 23006KT 10SM CLR A3001 RMK MADISHF
AVX,2017-04-01 16:40,-118.4158,33.4050,M,M,M,250.00,7.00,M,30.01,M,10.00,M,CLR,M,M,M,M,M,M,M,M,KAVX 011640Z AUTO 25007KT 10SM CLR A3001 RMK MADISHF
AVX,2017-04-01 16:45,-118.4158,33.4050,M,M,M,240.00,7.00,M,30.01,M,10.00,M,CLR,M,M,M,M,M,M,M,M,KAVX 011645Z AUTO 24007KT 10SM CLR A3001 RMK MADISHF
AVX,2017-04-01 16:50,-118.4158,33.4050,M,M,M,240.00,6.00,M,30.01,M,10.00,M,CLR,M,M,M,M,M,M,M,M,KAVX 011650Z AUTO 24006KT 10SM CLR A3001 RMK MADISHF
AVX,2017-04-01 16:51,-118.4158,33.4050,61.00,35.10,37.81,240.00,6.00,0.00,30.01,1015.30,10.00,M,CLR,M,M,M,M,M,M,M,M,KAVX 011651Z AUTO 24006KT 10SM CLR 16/02 A3001 RMK AO2 SLP153 T01610017 TSNO $
AVX,2017-04-01 16:55,-118.4158,33.4050,M,M,M,240.00,7.00,M,30.01,M,10.00,M,CLR,M,M,M,M,M,M,M,M,KAVX 011655Z AUTO 24007KT 10SM CLR A3001 RMK MADISHF
AVX,2017-04-01 17:00,-118.4158,33.4050,M,M,M,240.00,6.00,M,30.01,M,10.00,M,CLR,M,M,M,M,M,M,M,M,KAVX 011700Z AUTO 24006KT 10SM CLR A3001 RMK MADISHF
AVX,2017-04-01 17:05,-118.4158,33.4050,M,M,M,240.00,7.00,M,30.01,M,10.00,M,CLR,M,M,M,M,M,M,M,M,KAVX 011705Z AUTO 24007KT 10SM CLR A3001 RMK MADISHF
AVX,2017-04-01 17:10,-118.4158,33.4050,M,M,M,250.00,7.00,M,30.02,M,10.00,M,CLR,M,M,M,M,M,M,M,M,KAVX 011710Z AUTO 25007KT 10SM CLR A3002 RMK MADISHF
AVX,2017-04-01 17:15,-118.4158,33.4050,M,M,M,260.00,7.00,M,30.02,M,10.00,M,CLR,M,M,M,M,M,M,M,M,KAVX 011715Z AUTO 26007KT 10SM CLR A3002 RMK MADISHF
AVX,2017-04-01 17:20,-118.4158,33.4050,M,M,M,250.00,8.00,M,30.02,M,10.00,M,CLR,M,M,M,M,M,M,M,M,KAVX 011720Z AUTO 25008KT 10SM CLR A3002 RMK MADISHF
AVX,2017-04-01 17:25,-118.4158,33.4050,M,M,M,240.00,6.00,M,30.02,M,10.00,M,CLR,M,M,M,M,M,M,M,M,KAVX 011725Z AUTO 24006KT 10SM CLR A3002 RMK MADISHF
AVX,2017-04-01 17:30,-118.4158,33.4050,M,M,M,260.00,7.00,M,30.02,M,10.00,M,CLR,M,M,M,M,M,M,M,M,KAVX 011730Z AUTO 26007KT 10SM CLR A3002 RMK MADISHF
AVX,2017-04-01 17:35,-118.4158,33.4050,M,M,M,250.00,7.00,M,30.02,M,10.00,M,CLR,M,M,M,M,M,M,M,M,KAVX 011735Z AUTO 25007KT 10SM CLR A3002 RMK MADISHF
AVX,2017-04-01 17:40,-118.4158,33.4050,M,M,M,270.00,6.00,M,30.02,M,10.00,M,CLR,M,M,M,M,M,M,M,M,KAVX 011740Z AUTO 27006KT 10SM CLR A3002 RMK MADISHF
AVX,2017-04-01 17:45,-118.4158,33.4050,M,M,M,270.00,6.00,M,30.02,M,10.00,M,CLR,M,M,M,M,M,M,M,M,KAVX 011745Z AUTO 27006KT 10SM CLR A3002 RMK MADISHF
AVX,2017-04-01 17:50,-118.4158,33.4050,M,M,M,260.00,6.00,M,30.02,M,10.00,M,CLR,M,M,M,M,M,M,M,M,KAVX 011750Z AUTO 26006KT 10SM CLR A3002 RMK MADISHF
AVX,2017-04-01 17:51,-118.4158,33.4050,62.10,32.00,32.13,260.00,7.00,0.00,30.02,1015.60,10.00,M,CLR,M,M,M,M,M,M,M,M,KAVX 011751Z AUTO 26007KT 10SM CLR 17/00 A3002 RMK AO2 SLP156 T01670000 10167 20122 TSNO
AVX,2017-04-01 17:55,-118.4158,33.4050,M,M,M,260.00,7.00,M,30.02,M,10.00,M,CLR,M,M,M,M,M,M,M,M,KAVX 011755Z AUTO 26007KT 10SM CLR A3002 RMK MADISHF
AVX,2017-04-01 18:00,-118.4158,33.4050,M,M,M,260.00,7.00,M,30.02,M,10.00,M,CLR,M,M,M,M,M,M,M,M,KAVX 011800Z AUTO 26007KT 10SM CLR A3002 RMK MADISHF
AVX,2017-04-01 18:05,-118.4158,33.4050,M,M,M,280.00,6.00,M,30.02,M,10.00,M,CLR,M,M,M,M,M,M,M,M,KAVX 011805Z AUTO 28006KT 10SM CLR A3002 RMK MADISHF
AVX,2017-04-01 18:10,-118.4158,33.4050,M,M,M,260.00,7.00,M,30.02,M,10.00,M,CLR,M,M,M,M,M,M,M,M,KAVX 011810Z AUTO 26007KT 10SM CLR A3002 RMK MADISHF
AVX,2017-04-01 18:15,-118.4158,33.4050,M,M,M,240.00,7.00,M,30.02,M,10.00,M,CLR,M,M,M,M,M,M,M,M,KAVX 011815Z AUTO 24007KT 10SM CLR A3002 RMK MADISHF
AVX,2017-04-01 18:20,-118.4158,33.4050,M,M,M,260.00,7.00,M,30.02,M,10.00,M,CLR,M,M,M,M,M,M,M,M,KAVX 011820Z AUTO 26007KT 10SM CLR A3002 RMK MADISHF
AVX,2017-04-01 18:25,-118.4158,33.4050,M,M,M,260.00,9.00,M,30.02,M,10.00,M,CLR,M,M,M,M,M,M,M,M,KAVX 011825Z AUTO 26009KT 10SM CLR A3002 RMK MADISHF
AVX,2017-04-01 18:30,-118.4158,33.4050,M,M,M,250.00,8.00,M,30.02,M,10.00,M,CLR,M,M,M,M,M,M,M,M,KAVX 011830Z AUTO 25008KT 10SM CLR A3002 RMK MADISHF
AVX,2017-04-01 18:35,-118.4158,33.4050,M,M,M,260.00,8.00,M,30.02,M,10.00,M,CLR,M,M,M,M,M,M,M,M,KAVX 011835Z AUTO 26008KT 10SM CLR A3002 RMK MADISHF
AVX,2017-04-01 18:40,-118.4158,33.4050,M,M,M,250.00,8.00,M,30.02,M,10.00,M,CLR,M,M,M,M,M,M,M,M,KAVX 011840Z AUTO 25008KT 10SM CLR A3002 RMK MADISHF
AVX,2017-04-01 18:45,-118.4158,33.4050,M,M,M,260.00,7.00,M,30.02,M,10.00,M,CLR,M,M,M,M,M,M,M,M,KAVX 011845Z AUTO 26007KT 10SM CLR A3002 RMK MADISHF
AVX,2017-04-01 18:50,-118.4158,33.4050,M,M,M,270.00,7.00,M,30.02,M,10.00,M,CLR,M,M,M,M,M,M,M,M,KAVX 011850Z AUTO 27007KT 10SM CLR A3002 RMK MADISHF
AVX,2017-04-01 18:51,-118.4158,33.4050,64.00,30.00,27.71,280.00,6.00,0.00,30.02,1015.40,10.00,M,CLR,M,M,M,M,M,M,M,M,KAVX 011851Z AUTO 28006KT 10SM CLR 18/M01 A3002 RMK AO2 SLP154 T01781011 TSNO
AVX,2017-04-01 18:55,-118.4158,33.4050,M,M,M,280.00,7.00,M,30.02,M,10.00,M,CLR,M,M,M,M,M,M,M,M,KAVX 011855Z AUTO 28007KT 10SM CLR A3002 RMK MADISHF
AVX,2017-04-01 19:00,-118.4158,33.4050,M,M,M,250.00,6.00,M,30.02,M,10.00,M,CLR,M,M,M,M,M,M,M,M,KAVX 011900Z AUTO 25006KT 10SM CLR A3002 RMK MADISHF
AVX,2017-04-01 19:05,-118.4158,33.4050,M,M,M,270.00,6.00,M,30.02,M,10.00,M,CLR,M,M,M,M,M,M,M,M,KAVX 011905Z AUTO 27006KT 10SM CLR A3002 RMK MADISHF
AVX,2017-04-01 19:10,-118.4158,33.4050,M,M,M,260.00,5.00,M,30.02,M,10.00,M,CLR,M,M,M,M,M,M,M,M,KAVX 011910Z AUTO 26005KT 10SM CLR A3002 RMK VRB05KT  MADISHF
AVX,2017-04-01 19:15,-118.4158,33.4050,M,M,M,300.00,4.00,M,30.02,M,10.00,M,CLR,M,M,M,M,M,M,M,M,KAVX 011915Z AUTO 30004KT 10SM CLR A3002 RMK VRB04KT  MADISHF
AVX,2017-04-01 19:20,-118.4158,33.4050,M,M,M,270.00,4.00,M,30.02,M,10.00,M,CLR,M,M,M,M,M,M,M,M,KAVX 011920Z AUTO 27004KT 10SM CLR A3002 RMK MADISHF
AVX,2017-04-01 19:25,-118.4158,33.4050,M,M,M,260.00,7.00,M,30.01,M,10.00,M,CLR,M,M,M,M,M,M,M,M,KAVX 011925Z AUTO 26007KT 10SM CLR A3001 RMK MADISHF
AVX,2017-04-01 19:30,-118.4158,33.4050,M,M,M,280.00,7.00,M,30.01,M,10.00,M,CLR,M,M,M,M,M,M,M,M,KAVX 011930Z AUTO 28007KT 10SM CLR A3001 RMK MADISHF
AVX,2017-04-01 19:35,-118.4158,33.4050,M,M,M,280.00,5.00,M,30.01,M,10.00,M,CLR,M,M,M,M,M,M,M,M,KAVX 011935Z AUTO 28005KT 10SM CLR A3001 RMK MADISHF
AVX,2017-04-01 19:40,-118.4158,33.4050,M,M,M,250.00,5.00,M,30.01,M,10.00,M,CLR,M,M,M,M,M,M,M,M,KAVX 011940Z AUTO 25005KT 10SM CLR A3001 RMK MADISHF
AVX,2017-04-01 19:45,-118.4158,33.4050,M,M,M,240.00,5.00,M,30.01,M,10.00,M,CLR,M,M,M,M,M,M,M,M,KAVX 011945Z AUTO 24005KT 10SM CLR A3001 RMK MADISHF
AVX,2017-04-01 19:50,-118.4158,33.4050,M,M,M,270.00,6.00,M,30.01,M,10.00,M,CLR,M,M,M,M,M,M,M,M,KAVX 011950Z AUTO 27006KT 10SM CLR A3001 RMK MADISHF
AVX,2017-04-01 19:51,-118.4158,33.4050,66.90,35.10,30.75,270.00,6.00,0.00,30.01,1014.60,10.00,M,CLR,M,M,M,M,M,M,M,M,KAVX 011951Z AUTO 27006KT 10SM CLR 19/02 A3001 RMK AO2 SLP146 T01940017 TSNO
AVX,2017-04-01 19:55,-118.4158,33.4050,M,M,M,260.00,7.00,M,30.01,M,10.00,M,CLR,M,M,M,M,M,M,M,M,KAVX 011955Z AUTO 26007KT 10SM CLR A3001 RMK MADISHF
AVX,2017-04-01 20:00,-118.4158,33.4050,M,M,M,260.00,7.00,M,30.00,M,10.00,M,CLR,M,M,M,M,M,M,M,M,KAVX 012000Z AUTO 26007KT 10SM CLR A3000 RMK MADISHF
AVX,2017-04-01 20:05,-118.4158,33.4050,M,M,M,250.00,6.00,M,30.00,M,10.00,M,CLR,M,M,M,M,M,M,M,M,KAVX 012005Z AUTO 25006KT 10SM CLR A3000 RMK MADISHF
AVX,2017-04-01 20:10,-118.4158,33.4050,M,M,M,260.00,7.00,M,30.00,M,10.00,M,CLR,M,M,M,M,M,M,M,M,KAVX 012010Z AUTO 26007KT 10SM CLR A3000 RMK MADISHF
AVX,2017-04-01 20:15,-118.4158,33.4050,M,M,M,260.00,6.00,M,30.00,M,10.00,M,CLR,M,M,M,M,M,M,M,M,KAVX 012015Z AUTO 26006KT 10SM CLR A3000 RMK MADISHF
AVX,2017-04-01 20:20,-118.4158,33.4050,M,M,M,260.00,7.00,M,30.00,M,10.00,M,CLR,M,M,M,M,M,M,M,M,KAVX 012020Z AUTO 26007KT 10SM CLR A3000 RMK MADISHF
AVX,2017-04-01 20:25,-118.4158,33.4050,M,M,M,280.00,5.00,M,30.00,M,10.00,M,CLR,M,M,M,M,M,M,M,M,KAVX 012025Z AUTO 28005KT 10SM CLR A3000 RMK MADISHF
AVX,2017-04-01 20:30,-118.4158,33.4050,M,M,M,280.00,4.00,M,30.00,M,10.00,M,CLR,M,M,M,M,M,M,M,M,KAVX 012030Z AUTO 28004KT 10SM CLR A3000 RMK MADISHF
AVX,2017-04-01 20:35,-118.4158,33.4050,M,M,M,270.00,7.00,M,30.00,M,10.00,M,CLR,M,M,M,M,M,M,M,M,KAVX 012035Z AUTO 27007KT 10SM CLR A3000 RMK MADISHF
AVX,2017-04-01 20:40,-118.4158,33.4050,M,M,M,280.00,6.00,M,30.00,M,10.00,M,CLR,M,M,M,M,M,M,M,M,KAVX 012040Z AUTO 28006KT 10SM CLR A3000 RMK MADISHF
AVX,2017-04-01 20:45,-118.4158,33.4050,M,M,M,250.00,5.00,M,30.00,M,10.00,M,CLR,M,M,M,M,M,M,M,M,KAVX 012045Z AUTO 25005KT 10SM CLR A3000 RMK MADISHF
AVX,2017-04-01 20:50,-118.4158,33.4050,M,M,M,260.00,5.00,M,30.00,M,10.00,M,CLR,M,M,M,M,M,M,M,M,KAVX 012050Z AUTO 26005KT 10SM CLR A3000 RMK MADISHF
AVX,2017-04-01 20:51,-118.4158,33.4050,68.00,41.00,37.32,280.00,4.00,0.00,30.00,1014.20,10.00,M,CLR,M,M,M,M,M,M,M,M,KAVX 012051Z AUTO 28004KT 10SM CLR 20/05 A3000 RMK AO2 SLP142 T02000050 58008 TSNO
AVX,2017-04-01 20:55,-118.4158,33.4050,M,M,M,280.00,5.00,M,29.99,M,10.00,M,CLR,M,M,M,M,M,M,M,M,KAVX 012055Z AUTO 28005KT 10SM CLR A2999 RMK MADISHF
AVX,2017-04-01 21:00,-118.4158,33.4050,M,M,M,250.00,6.00,M,29.99,M,10.00,M,CLR,M,M,M,M,M,M,M,M,KAVX 012100Z AUTO 25006KT 10SM CLR A2999 RMK MADISHF
AVX,2017-04-01 21:05,-118.4158,33.4050,M,M,M,260.00,6.00,M,29.99,M,10.00,M,CLR,M,M,M,M,M,M,M,M,KAVX 012105Z AUTO 26006KT 10SM CLR A2999 RMK MADISHF
AVX,2017-04-01 21:10,-118.4158,33.4050,M,M,M,260.00,7.00,M,29.99,M,10.00,M,CLR,M,M,M,M,M,M,M,M,KAVX 012110Z AUTO 26007KT 10SM CLR A2999 RMK MADISHF
AVX,2017-04-01 21:15,-118.4158,33.4050,M,M,M,250.00,6.00,M,29.99,M,10.00,M,CLR,M,M,M,M,M,M,M,M,KAVX 012115Z AUTO 25006KT 10SM CLR A2999 RMK MADISHF
AVX,2017-04-01 21:20,-118.4158,33.4050,M,M,M,250.00,6.00,M,29.99,M,10.00,M,CLR,M,M,M,M,M,M,M,M,KAVX 012120Z AUTO 25006KT 10SM CLR A2999 RMK MADISHF
AVX,2017-04-01 21:25,-118.4158,33.4050,M,M,M,250.00,7.00,M,29.99,M,10.00,M,CLR,M,M,M,M,M,M,M,M,KAVX 012125Z AUTO 25007KT 10SM CLR A2999 RMK MADISHF
AVX,2017-04-01 21:30,-118.4158,33.4050,M,M,M,250.00,8.00,M,29.98,M,10.00,M,CLR,M,M,M,M,M,M,M,M,KAVX 012130Z AUTO 25008KT 10SM CLR A2998 RMK MADISHF
AVX,2017-04-01 21:35,-118.4158,33.4050,M,M,M,250.00,8.00,M,29.98,M,10.00,M,CLR,M,M,M,M,M,M,M,M,KAVX 012135Z AUTO 25008KT 10SM CLR A2998 RMK MADISHF
AVX,2017-04-01 21:40,-118.4158,33.4050,M,M,M,250.00,7.00,M,29.98,M,10.00,M,CLR,M,M,M,M,M,M,M,M,KAVX 012140Z AUTO 25007KT 10SM CLR A2998 RMK MADISHF
AVX,2017-04-01 21:45,-118.4158,33.4050,M,M,M,240.00,6.00,M,29.98,M,10.00,M,CLR,M,M,M,M,M,M,M,M,KAVX 012145Z AUTO 24006KT 10SM CLR A2998 RMK MADISHF
AVX,2017-04-01 21:50,-118.4158,33.4050,M,M,M,240.00,7.00,M,29.98,M,10.00,M,CLR,M,M,M,M,M,M,M,M,KAVX 012150Z AUTO 24007KT 10SM CLR A2998 RMK MADISHF
AVX,2017-04-01 21:51,-118.4158,33.4050,69.10,39.90,34.43,250.00,6.00,0.00,29.98,1013.50,10.00,M,CLR,M,M,M,M,M,M,M,M,KAVX 012151Z AUTO 25006KT 10SM CLR 21/04 A2998 RMK AO2 SLP135 T02060044 TSNO
AVX,2017-04-01 21:55,-118.4158,33.4050,M,M,M,250.00,7.00,M,29.98,M,10.00,M,CLR,M,M,M,M,M,M,M,M,KAVX 012155Z AUTO 25007KT 10SM CLR A2998 RMK WND 23V29  MADISHF
AVX,2017-04-01 22:00,-118.4158,33.4050,M,M,M,240.00,7.00,M,29.98,M,10.00,M,CLR,M,M,M,M,M,M,M,M,KAVX 012200Z AUTO 24007KT 10SM CLR A2998 RMK MADISHF
AVX,2017-04-01 22:05,-118.4158,33.4050,M,M,M,260.00,7.00,M,29.97,M,10.00,M,CLR,M,M,M,M,M,M,M,M,KAVX 012205Z AUTO 26007KT 10SM CLR A2997 RMK MADISHF
AVX,2017-04-01 22:10,-118.4158,33.4050,M,M,M,240.00,7.00,M,29.97,M,10.00,M,CLR,M,M,M,M,M,M,M,M,KAVX 012210Z AUTO 24007KT 10SM CLR A2997 RMK MADISHF
AVX,2017-04-01 22:15,-118.4158,33.4050,M,M,M,250.00,6.00,M,29.97,M,10.00,M,CLR,M,M,M,M,M,M,M,M,KAVX 012215Z AUTO 25006KT 10SM CLR A2997 RMK MADISHF
AVX,2017-04-01 22:20,-118.4158,33.4050,M,M,M,250.00,8.00,M,29.97,M,10.00,M,CLR,M,M,M,M,M,M,M,M,KAVX 012220Z AUTO 25008KT 10SM CLR A2997 RMK MADISHF
AVX,2017-04-01 22:25,-118.4158,33.4050,M,M,M,250.00,8.00,M,29.97,M,10.00,M,CLR,M,M,M,M,M,M,M,M,KAVX 012225Z AUTO 25008KT 10SM CLR A2997 RMK MADISHF
AVX,2017-04-01 22:30,-118.4158,33.4050,M,M,M,250.00,9.00,M,29.97,M,10.00,M,CLR,M,M,M,M,M,M,M,M,KAVX 012230Z AUTO 25009KT 10SM CLR A2997 RMK MADISHF
AVX,2017-04-01 22:35,-118.4158,33.4050,M,M,M,250.00,8.00,M,29.97,M,10.00,M,CLR,M,M,M,M,M,M,M,M,KAVX 012235Z AUTO 25008KT 10SM CLR A2997 RMK MADISHF
AVX,2017-04-01 22:40,-118.4158,33.4050,M,M,M,250.00,7.00,M,29.97,M,10.00,M,CLR,M,M,M,M,M,M,M,M,KAVX 012240Z AUTO 25007KT 10SM CLR A2997 RMK MADISHF
AVX,2017-04-01 22:45,-118.4158,33.4050,M,M,M,250.00,7.00,M,29.97,M,10.00,M,CLR,M,M,M,M,M,M,M,M,KAVX 012245Z AUTO 25007KT 10SM CLR A2997 RMK MADISHF
AVX,2017-04-01 22:50,-118.4158,33.4050,M,M,M,240.00,8.00,M,29.96,M,10.00,M,CLR,M,M,M,M,M,M,M,M,KAVX 012250Z AUTO 24008KT 10SM CLR A2996 RMK MADISHF
AVX,2017-04-01 22:51,-118.4158,33.4050,69.10,41.00,35.94,240.00,8.00,0.00,29.96,1012.90,10.00,M,CLR,M,M,M,M,M,M,M,M,KAVX 012251Z AUTO 24008KT 10SM CLR 21/05 A2996 RMK AO2 SLP129 T02060050 TSNO
AVX,2017-04-01 22:55,-118.4158,33.4050,M,M,M,240.00,8.00,M,29.96,M,10.00,M,CLR,M,M,M,M,M,M,M,M,KAVX 012255Z AUTO 24008KT 10SM CLR A2996 RMK MADISHF
AVX,2017-04-01 23:00,-118.4158,33.4050,M,M,M,250.00,8.00,M,29.96,M,10.00,M,CLR,M,M,M,M,M,M,M,M,KAVX 012300Z AUTO 25008KT 10SM CLR A2996 RMK MADISHF
AVX,2017-04-01 23:05,-118.4158,33.4050,M,M,M,240.00,9.00,M,29.96,M,10.00,M,CLR,M,M,M,M,M,M,M,M,KAVX 012305Z AUTO 24009KT 10SM CLR A2996 RMK MADISHF
AVX,2017-04-01 23:10,-118.4158,33.4050,M,M,M,250.00,9.00,M,29.96,M,10.00,M,CLR,M,M,M,M,M,M,M,M,KAVX 012310Z AUTO 25009KT 10SM CLR A2996 RMK MADISHF
AVX,2017-04-01 23:15,-118.4158,33.4050,M,M,M,240.00,8.00,M,29.96,M,10.00,M,CLR,M,M,M,M,M,M,M,M,KAVX 012315Z AUTO 24008KT 10SM CLR A2996 RMK MADISHF
AVX,2017-04-01 23:20,-118.4158,33.4050,M,M,M,240.00,9.00,M,29.96,M,10.00,M,CLR,M,M,M,M,M,M,M,M,KAVX 012320Z AUTO 24009KT 10SM CLR A2996 RMK MADISHF
AVX,2017-04-01 23:25,-118.4158,33.4050,M,M,M,250.00,9.00,M,29.96,M,10.00,M,CLR,M,M,M,M,M,M,M,M,KAVX 012325Z AUTO 25009KT 10SM CLR A2996 RMK MADISHF
AVX,2017-04-01 23:30,-118.4158,33.4050,M,M,M,240.00,9.00,M,29.96,M,10.00,M,CLR,M,M,M,M,M,M,M,M,KAVX 012330Z AUTO 24009KT 10SM CLR A2996 RMK MADISHF
AVX,2017-04-01 23:35,-118.4158,33.4050,M,M,M,240.00,9.00,M,29.96,M,10.00,M,CLR,M,M,M,M,M,M,M,M,KAVX 012335Z AUTO 24009KT 10SM CLR A2996 RMK MADISHF
AVX,2017-04-01 23:40,-118.4158,33.4050,M,M,M,250.00,9.00,M,29.96,M,10.00,M,CLR,M,M,M,M,M,M,M,M,KAVX 012340Z AUTO 25009KT 10SM CLR A2996 RMK MADISHF
AVX,2017-04-01 23:45,-118.4158,33.4050,M,M,M,250.00,10.00,M,29.96,M,10.00,M,CLR,M,M,M,M,M,M,M,M,KAVX 012345Z AUTO 25010KT 10SM CLR A2996 RMK MADISHF
AVX,2017-04-01 23:50,-118.4158,33.4050,M,M,M,250.00,10.00,M,29.96,M,10.00,M,CLR,M,M,M,M,M,M,M,M,KAVX 012350Z AUTO 25010KT 10SM CLR A2996 RMK MADISHF
AVX,2017-04-01 23:51,-118.4158,33.4050,64.00,45.00,49.99,250.00,9.00,0.00,29.96,1013.50,10.00,M,CLR,M,M,M,M,M,M,M,M,KAVX 012351Z AUTO 25009KT 10SM CLR 18/07 A2996 RMK AO2 SLP135 T01780072 10211 20167 56010 TSNO
AVX,2017-04-01 23:55,-118.4158,33.4050,M,M,M,250.00,10.00,M,29.96,M,10.00,M,CLR,M,M,M,M,M,M,M,M,KAVX 012355Z AUTO 25010KT 10SM CLR A2996 RMK MADISHF
