#DEBUG: Format Typ    -> comma
#DEBUG: Time Period   -> 2017-04-01 00:00:00+00:00 2017-04-02 00:00:00+00:00
#DEBUG: Time Zone     -> Etc/UTC
#DEBUG: Data Contact   -> daryl herzmann akrherz@iastate.edu 515-294-5978
#DEBUG: Entries Found -> -1
station,valid,lon,lat,tmpf, dwpf, relh, drct, sknt, p01i, alti, mslp, vsby, gust, skyc1, skyc2, skyc3, skyc4, skyl1, skyl2, skyl3, skyl4, presentwx, metar
AXA,2017-04-01 00:00,-94.2724,43.0796,42.80,37.40,81.07,40.00,8.00,0.00,30.05,M,10.00,M,OVC,M,M,M,2400.00,M,M,M,M,KAXA 010000Z AUTO 04008KT 10SM OVC024 06/03 A3005 RMK AO2
AXA,2017-04-01 00:10,-94.2724,43.0796,42.80,37.40,81.07,50.00,8.00,0.00,30.05,M,10.00,M,OVC,M,M,M,2500.00,M,M,M,M,KAXA 010010Z AUTO 05008KT 10SM OVC025 06/03 A3005 RMK AO2
AXA,2017-04-01 00:15,-94.2724,43.0796,42.80,37.40,81.07,50.00,7.00,0.00,30.06,M,10.00,M,OVC,M,M,M,2600.00,M,M,M,M,KAXA 010015Z AUTO 05007KT 10SM OVC026 06/03 A3006 RMK AO2
AXA,2017-04-01 00:20,-94.2724,43.0796,42.80,37.40,81.07,50.00,7.00,0.00,30.06,M,10.00,M,OVC,M,M,M,2700.00,M,M,M,M,KAXA 010020Z AUTO 05007KT 10SM OVC027 06/03 A3006 RMK AO2
AXA,2017-04-01 00:30,-94.2724,43.0796,42.80,37.40,81.07,60.00,6.00,0.00,30.06,M,10.00,M,OVC,M,M,M,2700.00,M,M,M,M,KAXA 010030Z AUTO 06006KT 10SM OVC027 06/03 A3006 RMK AO2
AXA,2017-04-01 00:35,-94.2724,43.0796,42.80,37.40,81.07,60.00,5.00,0.00,30.06,M,10.00,M,OVC,M,M,M,2800.00,M,M,M,M,KAXA 010035Z AUTO 06005KT 10SM OVC028 06/03 A3006 RMK AO2
AXA,2017-04-01 00:40,-94.2724,43.0796,42.80,37.40,81.07,60.00,5.00,0.00,30.06,M,10.00,M,OVC,M,M,M,2800.00,M,M,M,M,KAXA 010040Z AUTO 06005KT 10SM OVC028 06/03 A3006 RMK AO2
AXA,2017-04-01 00:50,-94.2724,43.0796,41.00,37.40,86.89,0.00,0.00,0.00,30.07,M,10.00,M,BKN,M,M,M,2800.00,M,M,M,M,KAXA 010050Z AUTO 00000KT 10SM BKN028 05/03 A3007 RMK AO2
AXA,2017-04-01 00:55,-94.2724,43.0796,41.00,37.40,86.89,0.00,0.00,0.00,30.07,M,10.00,M,BKN,M,M,M,2800.00,M,M,M,M,KAXA 010055Z AUTO 00000KT 10SM BKN028 05/03 A3007 RMK AO2
AXA,2017-04-01 01:00,-94.2724,43.0796,41.00,37.40,86.89,0.00,0.00,0.00,30.07,M,10.00,M,SCT,M,M,M,2800.00,M,M,M,M,KAXA 010100Z AUTO 00000KT 10SM SCT028 05/03 A3007 RMK AO2
AXA,2017-04-01 01:10,-94.2724,43.0796,41.00,37.40,86.89,0.00,0.00,0.00,30.08,M,10.00,M,FEW,M,M,M,2800.00,M,M,M,M,KAXA 010110Z AUTO 00000KT 10SM FEW028 05/03 A3008 RMK AO2
AXA,2017-04-01 01:15,-94.2724,43.0796,41.00,37.40,86.89,0.00,0.00,0.00,30.08,M,10.00,M,CLR,M,M,M,M,M,M,M,M,KAXA 010115Z AUTO 00000KT 10SM CLR 05/03 A3008 RMK AO2
AXA,2017-04-01 01:20,-94.2724,43.0796,41.00,37.40,86.89,0.00,0.00,0.00,30.08,M,10.00,M,CLR,M,M,M,M,M,M,M,M,KAXA 010120Z AUTO 00000KT 10SM CLR 05/03 A3008 RMK AO2
AXA,2017-04-01 01:30,-94.2724,43.0796,39.20,37.40,93.19,220.00,3.00,0.00,30.09,M,10.00,M,CLR,M,M,M,M,M,M,M,M,KAXA 010130Z AUTO 22003KT 10SM CLR 04/03 A3009 RMK AO2
AXA,2017-04-01 01:35,-94.2724,43.0796,39.20,35.60,86.79,230.00,3.00,0.00,30.09,M,10.00,M,CLR,M,M,M,M,M,M,M,M,KAXA 010135Z AUTO 23003KT 10SM CLR 04/02 A3009 RMK AO2
AXA,2017-04-01 01:40,-94.2724,43.0796,37.40,35.60,93.14,230.00,3.00,0.00,30.09,M,10.00,M,CLR,M,M,M,M,M,M,M,M,KAXA 010140Z AUTO 23003KT 10SM CLR 03/02 A3009 RMK AO2
AXA,2017-04-01 01:50,-94.2724,43.0796,37.40,35.60,93.14,230.00,3.00,0.00,30.10,M,10.00,M,CLR,M,M,M,M,M,M,M,M,KAXA 010150Z AUTO 23003KT 10SM CLR 03/02 A3010 RMK AO2
AXA,2017-04-01 01:55,-94.2724,43.0796,37.40,35.60,93.14,220.00,3.00,0.00,30.10,M,10.00,M,CLR,M,M,M,M,M,M,M,M,KAXA 010155Z AUTO 22003KT 10SM CLR 03/02 A3010 RMK AO2
AXA,2017-04-01 02:00,-94.2724,43.0796,37.40,35.60,93.14,230.00,5.00,0.00,30.10,M,10.00,M,CLR,M,M,M,M,M,M,M,M,KAXA 010200Z AUTO 23005KT 10SM CLR 03/02 A3010 RMK AO2
AXA,2017-04-01 02:10,-94.2724,43.0796,37.40,35.60,93.14,240.00,6.00,0.00,30.11,M,10.00,M,CLR,M,M,M,M,M,M,M,M,KAXA 010210Z AUTO 24006KT 10SM CLR 03/02 A3011 RMK AO2
AXA,2017-04-01 02:15,-94.2724,43.0796,37.40,35.60,93.14,250.00,5.00,0.00,30.11,M,10.00,M,CLR,M,M,M,M,M,M,M,M,KAXA 010215Z AUTO 25005KT 10SM CLR 03/02 A3011 RMK AO2
AXA,2017-04-01 02:20,-94.2724,43.0796,37.40,35.60,93.14,260.00,4.00,0.00,30.11,M,10.00,M,CLR,M,M,M,M,M,M,M,M,KAXA 010220Z AUTO 26004KT 10SM CLR 03/02 A3011 RMK AO2
AXA,2017-04-01 02:30,-94.2724,43.0796,37.40,35.60,93.14,260.00,3.00,0.00,30.11,M,10.00,M,CLR,M,M,M,M,M,M,M,M,KAXA 010230Z AUTO 26003KT 10SM CLR 03/02 A3011 RMK AO2
AXA,2017-04-01 02:35,-94.2724,43.0796,37.40,35.60,93.14,280.00,3.00,0.00,30.10,M,10.00,M,CLR,M,M,M,M,M,M,M,M,KAXA 010235Z AUTO 28003KT 10SM CLR 03/02 A3010 RMK AO2
AXA,2017-04-01 02:40,-94.2724,43.0796,37.40,37.40,100.00,280.00,4.00,0.00,30.11,M,10.00,M,CLR,M,M,M,M,M,M,M,M,KAXA 010240Z AUTO 28004KT 10SM CLR 03/03 A3011 RMK AO2
AXA,2017-04-01 02:50,-94.2724,43.0796,37.40,35.60,93.14,0.00,0.00,0.00,30.10,M,10.00,M,CLR,M,M,M,M,M,M,M,M,KAXA 010250Z AUTO 00000KT 10SM CLR 03/02 A3010 RMK AO2
AXA,2017-04-01 02:55,-94.2724,43.0796,37.40,35.60,93.14,260.00,4.00,0.00,30.11,M,10.00,M,CLR,M,M,M,M,M,M,M,M,KAXA 010255Z AUTO 26004KT 10SM CLR 03/02 A3011 RMK AO2
AXA,2017-04-01 03:00,-94.2724,43.0796,35.60,35.60,100.00,250.00,6.00,0.00,30.12,M,10.00,M,CLR,M,M,M,M,M,M,M,M,KAXA 010300Z AUTO 25006KT 10SM CLR 02/02 A3012 RMK AO2
AXA,2017-04-01 03:10,-94.2724,43.0796,35.60,35.60,100.00,250.00,8.00,0.00,30.13,M,10.00,M,CLR,M,M,M,M,M,M,M,M,KAXA 010310Z AUTO 25008KT 10SM CLR 02/02 A3013 RMK AO2
AXA,2017-04-01 03:15,-94.2724,43.0796,35.60,35.60,100.00,250.00,6.00,0.00,30.13,M,10.00,M,CLR,M,M,M,M,M,M,M,M,KAXA 010315Z AUTO 25006KT 10SM CLR 02/02 A3013 RMK AO2
AXA,2017-04-01 03:20,-94.2724,43.0796,35.60,33.80,93.08,250.00,6.00,0.00,30.13,M,10.00,M,CLR,M,M,M,M,M,M,M,M,KAXA 010320Z AUTO 25006KT 10SM CLR 02/01 A3013 RMK AO2
AXA,2017-04-01 03:30,-94.2724,43.0796,35.60,35.60,100.00,260.00,4.00,0.00,30.13,M,10.00,M,CLR,M,M,M,M,M,M,M,M,KAXA 010330Z AUTO 26004KT 10SM CLR 02/02 A3013 RMK AO2
AXA,2017-04-01 03:35,-94.2724,43.0796,35.60,35.60,100.00,260.00,6.00,0.00,30.13,M,10.00,M,CLR,M,M,M,M,M,M,M,M,KAXA 010335Z AUTO 26006KT 10SM CLR 02/02 A3013 RMK AO2
AXA,2017-04-01 03:40,-94.2724,43.0796,35.60,33.80,93.08,250.00,6.00,0.00,30.13,M,10.00,M,CLR,M,M,M,M,M,M,M,M,KAXA 010340Z AUTO 25006KT 10SM CLR 02/01 A3013 RMK AO2
AXA,2017-04-01 03:50,-94.2724,43.0796,35.60,35.60,100.00,270.00,6.00,0.00,30.13,M,10.00,M,CLR,M,M,M,M,M,M,M,M,KAXA 010350Z AUTO 27006KT 10SM CLR 02/02 A3013 RMK AO2
AXA,2017-04-01 03:55,-94.2724,43.0796,35.60,35.60,100.00,280.00,5.00,0.00,30.13,M,10.00,M,CLR,M,M,M,M,M,M,M,M,KAXA 010355Z AUTO 28005KT 10SM CLR 02/02 A3013 RMK AO2
AXA,2017-04-01 04:00,-94.2724,43.0796,35.60,35.60,100.00,280.00,6.00,0.00,30.13,M,10.00,M,CLR,M,M,M,M,M,M,M,M,KAXA 010400Z AUTO 28006KT 10SM CLR 02/02 A3013 RMK AO2
AXA,2017-04-01 04:10,-94.2724,43.0796,35.60,35.60,100.00,290.00,5.00,0.00,30.13,M,10.00,M,CLR,M,M,M,M,M,M,M,M,KAXA 010410Z AUTO 29005KT 10SM CLR 02/02 A3013 RMK AO2
AXA,2017-04-01 04:15,-94.2724,43.0796,35.60,35.60,100.00,290.00,5.00,0.00,30.13,M,10.00,M,CLR,M,M,M,M,M,M,M,M,KAXA 010415Z AUTO 29005KT 10SM CLR 02/02 A3013 RMK AO2
AXA,2017-04-01 04:20,-94.2724,43.0796,35.60,35.60,100.00,290.00,5.00,0.00,30.13,M,10.00,M,CLR,M,M,M,M,M,M,M,M,KAXA 010420Z AUTO 29005KT 10SM CLR 02/02 A3013 RMK AO2
AXA,2017-04-01 04:30,-94.2724,43.0796,35.60,33.80,93.08,290.00,5.00,0.00,30.13,M,10.00,M,CLR,M,M,M,M,M,M,M,M,KAXA 010430Z AUTO 29005KT 10SM CLR 02/01 A3013 RMK AO2
AXA,2017-04-01 04:35,-94.2724,43.0796,35.60,33.80,93.08,280.00,5.00,0.00,30.13,M,10.00,M,CLR,M,M,M,M,M,M,M,M,KAXA 010435Z AUTO 28005KT 10SM CLR 02/01 A3013 RMK AO2
AXA,2017-04-01 04:40,-94.2724,43.0796,35.60,33.80,93.08,250.00,4.00,0.00,30.13,M,10.00,M,CLR,M,M,M,M,M,M,M,M,KAXA 010440Z AUTO 25004KT 10SM CLR 02/01 A3013 RMK AO2
AXA,2017-04-01 04:50,-94.2724,43.0796,35.60,33.80,93.08,280.00,5.00,0.00,30.13,M,10.00,M,CLR,M,M,M,M,M,M,M,M,KAXA 010450Z AUTO 28005KT 10SM CLR 02/01 A3013 RMK AO2
AXA,2017-04-01 04:55,-94.2724,43.0796,33.80,33.80,100.00,280.00,4.00,0.00,30.13,M,10.00,M,CLR,M,M,M,M,M,M,M,M,KAXA 010455Z AUTO 28004KT 10SM CLR 01/01 A3013 RMK AO2
AXA,2017-04-01 05:00,-94.2724,43.0796,33.80,33.80,100.00,290.00,4.00,0.00,30.13,M,10.00,M,CLR,M,M,M,M,M,M,M,M,KAXA 010500Z AUTO 29004KT 10SM CLR 01/01 A3013 RMK AO2
AXA,2017-04-01 05:10,-94.2724,43.0796,35.60,35.60,100.00,300.00,6.00,0.00,30.13,M,10.00,M,CLR,M,M,M,M,M,M,M,M,KAXA 010510Z AUTO 30006KT 10SM CLR 02/02 A3013 RMK AO2
AXA,2017-04-01 05:15,-94.2724,43.0796,35.60,35.60,100.00,320.00,6.00,0.00,30.13,M,10.00,M,CLR,M,M,M,M,M,M,M,M,KAXA 010515Z AUTO 32006KT 10SM CLR 02/02 A3013 RMK AO2
AXA,2017-04-01 05:20,-94.2724,43.0796,37.40,35.60,93.14,330.00,6.00,0.00,30.14,M,10.00,M,CLR,M,M,M,M,M,M,M,M,KAXA 010520Z AUTO 33006KT 10SM CLR 03/02 A3014 RMK AO2
AXA,2017-04-01 05:30,-94.2724,43.0796,35.60,35.60,100.00,320.00,6.00,0.00,30.14,M,10.00,M,CLR,M,M,M,M,M,M,M,M,KAXA 010530Z AUTO 32006KT 10SM CLR 02/02 A3014 RMK AO2
AXA,2017-04-01 05:35,-94.2724,43.0796,35.60,35.60,100.00,310.00,6.00,0.00,30.14,M,10.00,M,CLR,M,M,M,M,M,M,M,M,KAXA 010535Z AUTO 31006KT 10SM CLR 02/02 A3014 RMK AO2
AXA,2017-04-01 05:40,-94.2724,43.0796,35.60,35.60,100.00,310.00,5.00,0.00,30.14,M,10.00,M,CLR,M,M,M,M,M,M,M,M,KAXA 010540Z AUTO 31005KT 10SM CLR 02/02 A3014 RMK AO2
AXA,2017-04-01 05:50,-94.2724,43.0796,35.60,33.80,93.08,300.00,5.00,0.00,30.14,M,10.00,M,CLR,M,M,M,M,M,M,M,M,KAXA 010550Z AUTO 30005KT 10SM CLR 02/01 A3014 RMK AO2
AXA,2017-04-01 05:55,-94.2724,43.0796,35.60,35.60,100.00,310.00,7.00,0.00,30.15,M,10.00,M,CLR,M,M,M,M,M,M,M,M,KAXA 010555Z AUTO 31007KT 10SM CLR 02/02 A3015 RMK AO2
AXA,2017-04-01 06:00,-94.2724,43.0796,35.60,35.60,100.00,310.00,7.00,0.00,30.15,M,10.00,M,CLR,M,M,M,M,M,M,M,M,KAXA 010600Z AUTO 31007KT 10SM CLR 02/02 A3015 RMK AO2
AXA,2017-04-01 06:10,-94.2724,43.0796,35.60,35.60,100.00,310.00,5.00,0.00,30.15,M,10.00,M,CLR,M,M,M,M,M,M,M,M,KAXA 010610Z AUTO 31005KT 10SM CLR 02/02 A3015 RMK AO2
AXA,2017-04-01 06:15,-94.2724,43.0796,35.60,35.60,100.00,310.00,5.00,0.00,30.15,M,10.00,M,CLR,M,M,M,M,M,M,M,M,KAXA 010615Z AUTO 31005KT 10SM CLR 02/02 A3015 RMK AO2
AXA,2017-04-01 06:20,-94.2724,43.0796,35.60,35.60,100.00,300.00,5.00,0.00,30.16,M,10.00,M,CLR,M,M,M,M,M,M,M,M,KAXA 010620Z AUTO 30005KT 10SM CLR 02/02 A3016 RMK AO2
AXA,2017-04-01 06:30,-94.2724,43.0796,35.60,33.80,93.08,280.00,5.00,0.00,30.16,M,9.00,M,CLR,M,M,M,M,M,M,M,M,KAXA 010630Z AUTO 28005KT 9SM CLR 02/01 A3016 RMK AO2
AXA,2017-04-01 06:35,-94.2724,43.0796,35.60,33.80,93.08,290.00,5.00,0.00,30.16,M,8.00,M,CLR,M,M,M,M,M,M,M,M,KAXA 010635Z AUTO 29005KT 8SM CLR 02/01 A3016 RMK AO2
AXA,2017-04-01 06:40,-94.2724,43.0796,35.60,35.60,100.00,270.00,6.00,0.00,30.16,M,8.00,M,CLR,M,M,M,M,M,M,M,M,KAXA 010640Z AUTO 27006KT 8SM CLR 02/02 A3016 RMK AO2
AXA,2017-04-01 06:50,-94.2724,43.0796,35.60,33.80,93.08,270.00,5.00,0.00,30.16,M,8.00,M,CLR,M,M,M,M,M,M,M,M,KAXA 010650Z AUTO 27005KT 8SM CLR 02/01 A3016 RMK AO2
AXA,2017-04-01 06:55,-94.2724,43.0796,35.60,35.60,100.00,280.00,4.00,0.00,30.17,M,8.00,M,CLR,M,M,M,M,M,M,M,M,KAXA 010655Z AUTO 28004KT 8SM CLR 02/02 A3017 RMK AO2
AXA,2017-04-01 07:00,-94.2724,43.0796,35.60,35.60,100.00,260.00,4.00,0.00,30.17,M,8.00,M,CLR,M,M,M,M,M,M,M,M,KAXA 010700Z AUTO 26004KT 8SM CLR 02/02 A3017 RMK AO2
AXA,2017-04-01 07:10,-94.2724,43.0796,33.80,33.80,100.00,240.00,4.00,0.00,30.17,M,7.00,M,CLR,M,M,M,M,M,M,M,M,KAXA 010710Z AUTO 24004KT 7SM CLR 01/01 A3017 RMK AO2
AXA,2017-04-01 07:15,-94.2724,43.0796,35.60,35.60,100.00,250.00,5.00,0.00,30.17,M,8.00,M,CLR,M,M,M,M,M,M,M,M,KAXA 010715Z AUTO 25005KT 8SM CLR 02/02 A3017 RMK AO2
AXA,2017-04-01 07:20,-94.2724,43.0796,35.60,35.60,100.00,260.00,5.00,0.00,30.17,M,8.00,M,CLR,M,M,M,M,M,M,M,M,KAXA 010720Z AUTO 26005KT 8SM CLR 02/02 A3017 RMK AO2
AXA,2017-04-01 07:30,-94.2724,43.0796,35.60,35.60,100.00,280.00,5.00,0.00,30.17,M,8.00,M,CLR,M,M,M,M,M,M,M,M,KAXA 010730Z AUTO 28005KT 8SM CLR 02/02 A3017 RMK AO2
AXA,2017-04-01 07:35,-94.2724,43.0796,35.60,35.60,100.00,290.00,5.00,0.00,30.17,M,8.00,M,CLR,M,M,M,M,M,M,M,M,KAXA 010735Z AUTO 29005KT 8SM CLR 02/02 A3017 RMK AO2
AXA,2017-04-01 07:40,-94.2724,43.0796,35.60,35.60,100.00,290.00,5.00,0.00,30.17,M,8.00,M,CLR,M,M,M,M,M,M,M,M,KAXA 010740Z AUTO 29005KT 8SM CLR 02/02 A3017 RMK AO2
AXA,2017-04-01 07:50,-94.2724,43.0796,35.60,35.60,100.00,280.00,5.00,0.00,30.18,M,9.00,M,CLR,M,M,M,M,M,M,M,M,KAXA 010750Z AUTO 28005KT 9SM CLR 02/02 A3018 RMK AO2
AXA,2017-04-01 07:55,-94.2724,43.0796,35.60,35.60,100.00,290.00,5.00,0.00,30.17,M,8.00,M,CLR,M,M,M,M,M,M,M,M,KAXA 010755Z AUTO 29005KT 8SM CLR 02/02 A3017 RMK AO2
AXA,2017-04-01 08:00,-94.2724,43.0796,35.60,35.60,100.00,290.00,5.00,0.00,30.17,M,8.00,M,CLR,M,M,M,M,M,M,M,M,KAXA 010800Z AUTO 29005KT 8SM CLR 02/02 A3017 RMK AO2
AXA,2017-04-01 08:10,-94.2724,43.0796,35.60,35.60,100.00,270.00,4.00,0.00,30.17,M,7.00,M,CLR,M,M,M,M,M,M,M,M,KAXA 010810Z AUTO 27004KT 7SM CLR 02/02 A3017 RMK AO2
AXA,2017-04-01 08:15,-94.2724,43.0796,35.60,35.60,100.00,260.00,4.00,0.00,30.18,M,7.00,M,CLR,M,M,M,M,M,M,M,M,KAXA 010815Z AUTO 26004KT 7SM CLR 02/02 A3018 RMK AO2
AXA,2017-04-01 08:20,-94.2724,43.0796,35.60,35.60,100.00,240.00,4.00,0.00,30.17,M,8.00,M,CLR,M,M,M,M,M,M,M,M,KAXA 010820Z AUTO 24004KT 8SM CLR 02/02 A3017 RMK AO2
AXA,2017-04-01 08:30,-94.2724,43.0796,35.60,35.60,100.00,250.00,4.00,0.00,30.17,M,8.00,M,CLR,M,M,M,M,M,M,M,M,KAXA 010830Z AUTO 25004KT 8SM CLR 02/02 A3017 RMK AO2
AXA,2017-04-01 08:35,-94.2724,43.0796,35.60,35.60,100.00,250.00,4.00,0.00,30.17,M,8.00,M,CLR,M,M,M,M,M,M,M,M,KAXA 010835Z AUTO 25004KT 8SM CLR 02/02 A3017 RMK AO2
AXA,2017-04-01 08:40,-94.2724,43.0796,35.60,35.60,100.00,260.00,5.00,0.00,30.17,M,8.00,M,CLR,M,M,M,M,M,M,M,M,KAXA 010840Z AUTO 26005KT 8SM CLR 02/02 A3017 RMK AO2
AXA,2017-04-01 08:50,-94.2724,43.0796,35.60,35.60,100.00,260.00,4.00,0.00,30.16,M,7.00,M,CLR,M,M,M,M,M,M,M,M,KAXA 010850Z AUTO 26004KT 7SM CLR 02/02 A3016 RMK AO2
AXA,2017-04-01 08:55,-94.2724,43.0796,35.60,35.60,100.00,260.00,4.00,0.00,30.16,M,7.00,M,CLR,M,M,M,M,M,M,M,M,KAXA 010855Z AUTO 26004KT 7SM CLR 02/02 A3016 RMK AO2
AXA,2017-04-01 09:00,-94.2724,43.0796,35.60,35.60,100.00,270.00,4.00,0.00,30.16,M,7.00,M,FEW,M,M,M,12000.00,M,M,M,M,KAXA 010900Z AUTO 27004KT 7SM FEW120 02/02 A3016 RMK AO2
AXA,2017-04-01 09:10,-94.2724,43.0796,35.60,35.60,100.00,290.00,3.00,0.00,30.16,M,7.00,M,FEW,M,M,M,12000.00,M,M,M,M,KAXA 010910Z AUTO 29003KT 7SM FEW120 02/02 A3016 RMK AO2
AXA,2017-04-01 09:15,-94.2724,43.0796,35.60,35.60,100.00,290.00,4.00,0.00,30.16,M,7.00,M,FEW,M,M,M,12000.00,M,M,M,M,KAXA 010915Z AUTO 29004KT 7SM FEW120 02/02 A3016 RMK AO2
AXA,2017-04-01 09:20,-94.2724,43.0796,35.60,35.60,100.00,290.00,5.00,0.00,30.16,M,7.00,M,FEW,M,M,M,12000.00,M,M,M,M,KAXA 010920Z AUTO 29005KT 7SM FEW120 02/02 A3016 RMK AO2
AXA,2017-04-01 09:30,-94.2724,43.0796,35.60,35.60,100.00,280.00,3.00,0.00,30.16,M,7.00,M,CLR,M,M,M,M,M,M,M,M,KAXA 010930Z AUTO 28003KT 7SM CLR 02/02 A3016 RMK AO2
AXA,2017-04-01 09:35,-94.2724,43.0796,35.60,35.60,100.00,280.00,4.00,0.00,30.17,M,7.00,M,CLR,M,M,M,M,M,M,M,M,KAXA 010935Z AUTO 28004KT 7SM CLR 02/02 A3017 RMK AO2
AXA,2017-04-01 09:40,-94.2724,43.0796,35.60,35.60,100.00,290.00,5.00,0.00,30.17,M,7.00,M,CLR,M,M,M,M,M,M,M,M,KAXA 010940Z AUTO 29005KT 7SM CLR 02/02 A3017 RMK AO2
AXA,2017-04-01 09:50,-94.2724,43.0796,35.60,35.60,100.00,290.00,5.00,0.00,30.18,M,8.00,M,CLR,M,M,M,M,M,M,M,M,KAXA 010950Z AUTO 29005KT 8SM CLR 02/02 A3018 RMK AO2
AXA,2017-04-01 09:55,-94.2724,43.0796,35.60,35.60,100.00,300.00,4.00,0.00,30.18,M,7.00,M,CLR,M,M,M,M,M,M,M,M,KAXA 010955Z AUTO 30004KT 7SM CLR 02/02 A3018 RMK AO2
AXA,2017-04-01 10:00,-94.2724,43.0796,35.60,35.60,100.00,270.00,4.00,0.00,30.19,M,7.00,M,CLR,M,M,M,M,M,M,M,M,KAXA 011000Z AUTO 27004KT 7SM CLR 02/02 A3019 RMK AO2
AXA,2017-04-01 10:10,-94.2724,43.0796,35.60,35.60,100.00,310.00,6.00,0.00,30.19,M,6.00,M,CLR,M,M,M,M,M,M,M,BR,KAXA 011010Z AUTO 31006KT 6SM BR CLR 02/02 A3019 RMK AO2
AXA,2017-04-01 10:15,-94.2724,43.0796,35.60,35.60,100.00,310.00,7.00,0.00,30.19,M,7.00,M,CLR,M,M,M,M,M,M,M,M,KAXA 011015Z AUTO 31007KT 7SM CLR 02/02 A3019 RMK AO2
AXA,2017-04-01 10:20,-94.2724,43.0796,37.40,35.60,93.14,310.00,6.00,0.00,30.19,M,9.00,M,CLR,M,M,M,M,M,M,M,M,KAXA 011020Z AUTO 31006KT 9SM CLR 03/02 A3019 RMK AO2
AXA,2017-04-01 10:30,-94.2724,43.0796,37.40,35.60,93.14,310.00,5.00,0.00,30.19,M,9.00,M,FEW,M,M,M,11000.00,M,M,M,M,KAXA 011030Z AUTO 31005KT 9SM FEW110 03/02 A3019 RMK AO2
AXA,2017-04-01 10:35,-94.2724,43.0796,37.40,35.60,93.14,310.00,6.00,0.00,30.19,M,9.00,M,FEW,M,M,M,12000.00,M,M,M,M,KAXA 011035Z AUTO 31006KT 9SM FEW120 03/02 A3019 RMK AO2
AXA,2017-04-01 10:40,-94.2724,43.0796,37.40,35.60,93.14,300.00,5.00,0.00,30.20,M,10.00,M,SCT,M,M,M,12000.00,M,M,M,M,KAXA 011040Z AUTO 30005KT 10SM SCT120 03/02 A3020 RMK AO2
AXA,2017-04-01 10:50,-94.2724,43.0796,35.60,35.60,100.00,320.00,4.00,0.00,30.19,M,9.00,M,BKN,M,M,M,11000.00,M,M,M,M,KAXA 011050Z AUTO 32004KT 9SM BKN110 02/02 A3019 RMK AO2
AXA,2017-04-01 10:55,-94.2724,43.0796,35.60,35.60,100.00,320.00,4.00,0.00,30.19,M,8.00,M,BKN,M,M,M,11000.00,M,M,M,M,KAXA 011055Z AUTO 32004KT 8SM BKN110 02/02 A3019 RMK AO2
AXA,2017-04-01 11:00,-94.2724,43.0796,35.60,35.60,100.00,320.00,4.00,0.00,30.19,M,8.00,M,SCT,M,M,M,11000.00,M,M,M,M,KAXA 011100Z AUTO 32004KT 8SM SCT110 02/02 A3019 RMK AO2
AXA,2017-04-01 11:10,-94.2724,43.0796,35.60,35.60,100.00,330.00,5.00,0.00,30.19,M,9.00,M,FEW,M,M,M,11000.00,M,M,M,M,KAXA 011110Z AUTO 33005KT 9SM FEW110 02/02 A3019 RMK AO2
AXA,2017-04-01 11:15,-94.2724,43.0796,35.60,35.60,100.00,330.00,4.00,0.00,30.20,M,9.00,M,FEW,M,M,M,11000.00,M,M,M,M,KAXA 011115Z AUTO 33004KT 9SM FEW110 02/02 A3020 RMK AO2
AXA,2017-04-01 11:20,-94.2724,43.0796,35.60,35.60,100.00,320.00,4.00,0.00,30.20,M,9.00,M,CLR,M,M,M,M,M,M,M,M,KAXA 011120Z AUTO 32004KT 9SM CLR 02/02 A3020 RMK AO2
AXA,2017-04-01 11:30,-94.2724,43.0796,35.60,33.80,93.08,0.00,0.00,0.00,30.21,M,7.00,M,FEW,M,M,M,12000.00,M,M,M,M,KAXA 011130Z AUTO 00000KT 7SM FEW120 02/01 A3021 RMK AO2
AXA,2017-04-01 11:35,-94.2724,43.0796,35.60,35.60,100.00,310.00,3.00,0.00,30.21,M,6.00,M,FEW,M,M,M,12000.00,M,M,M,BR,KAXA 011135Z AUTO 31003KT 6SM BR FEW120 02/02 A3021 RMK AO2
AXA,2017-04-01 11:40,-94.2724,43.0796,35.60,35.60,100.00,320.00,4.00,0.00,30.21,M,7.00,M,FEW,M,M,M,12000.00,M,M,M,M,KAXA 011140Z AUTO 32004KT 7SM FEW120 02/02 A3021 RMK AO2
AXA,2017-04-01 11:50,-94.2724,43.0796,35.60,35.60,100.00,0.00,0.00,0.00,30.21,M,8.00,M,SCT,M,M,M,12000.00,M,M,M,M,KAXA 011150Z AUTO 00000KT 8SM SCT120 02/02 A3021 RMK AO2
AXA,2017-04-01 11:55,-94.2724,43.0796,35.60,35.60,100.00,310.00,3.00,0.00,30.21,M,7.00,M,BKN,M,M,M,12000.00,M,M,M,M,KAXA 011155Z AUTO 31003KT 7SM BKN120 02/02 A3021 RMK AO2
AXA,2017-04-01 12:00,-94.2724,43.0796,35.60,35.60,100.00,310.00,4.00,0.00,30.22,M,7.00,M,BKN,M,M,M,11000.00,M,M,M,M,KAXA 011200Z AUTO 31004KT 7SM BKN110 02/02 A3022 RMK AO2
AXA,2017-04-01 12:10,-94.2724,43.0796,35.60,35.60,100.00,0.00,0.00,0.00,30.22,M,6.00,M,OVC,M,M,M,11000.00,M,M,M,BR,KAXA 011210Z AUTO 00000KT 6SM BR OVC110 02/02 A3022 RMK AO2
AXA,2017-04-01 12:15,-94.2724,43.0796,35.60,35.60,100.00,230.00,4.00,0.00,30.22,M,6.00,M,OVC,M,M,M,11000.00,M,M,M,BR,KAXA 011215Z AUTO 23004KT 6SM BR OVC110 02/02 A3022 RMK AO2
AXA,2017-04-01 12:20,-94.2724,43.0796,35.60,35.60,100.00,240.00,3.00,0.00,30.22,M,6.00,M,BKN,M,M,M,11000.00,M,M,M,BR,KAXA 011220Z AUTO 24003KT 6SM BR BKN110 02/02 A3022 RMK AO2
AXA,2017-04-01 12:30,-94.2724,43.0796,35.60,35.60,100.00,0.00,0.00,0.00,30.22,M,5.00,M,SCT,M,M,M,11000.00,M,M,M,BR,KAXA 011230Z AUTO 00000KT 5SM BR SCT110 02/02 A3022 RMK AO2
AXA,2017-04-01 12:35,-94.2724,43.0796,35.60,35.60,100.00,210.00,4.00,0.00,30.22,M,5.00,M,FEW,M,M,M,11000.00,M,M,M,BR,KAXA 011235Z AUTO 21004KT 5SM BR FEW110 02/02 A3022 RMK AO2
AXA,2017-04-01 12:40,-94.2724,43.0796,33.80,33.80,100.00,200.00,5.00,0.00,30.22,M,4.00,M,FEW,M,M,M,11000.00,M,M,M,BR,KAXA 011240Z AUTO 20005KT 4SM BR FEW110 01/01 A3022 RMK AO2
AXA,2017-04-01 12:50,-94.2724,43.0796,33.80,33.80,100.00,220.00,5.00,0.00,30.23,M,4.00,M,CLR,M,M,M,M,M,M,M,BR,KAXA 011250Z AUTO 22005KT 4SM BR CLR 01/01 A3023 RMK AO2
AXA,2017-04-01 12:55,-94.2724,43.0796,35.60,35.60,100.00,230.00,4.00,0.00,30.23,M,4.00,M,CLR,M,M,M,M,M,M,M,BR,KAXA 011255Z AUTO 23004KT 4SM BR CLR 02/02 A3023 RMK AO2
AXA,2017-04-01 13:00,-94.2724,43.0796,35.60,35.60,100.00,210.00,5.00,0.00,30.23,M,4.00,M,CLR,M,M,M,M,M,M,M,BR,KAXA 011300Z AUTO 21005KT 4SM BR CLR 02/02 A3023 RMK AO2
AXA,2017-04-01 13:10,-94.2724,43.0796,35.60,35.60,100.00,210.00,4.00,0.00,30.24,M,4.00,M,CLR,M,M,M,M,M,M,M,BR,KAXA 011310Z AUTO 21004KT 4SM BR CLR 02/02 A3024 RMK AO2
AXA,2017-04-01 13:15,-94.2724,43.0796,37.40,37.40,100.00,230.00,4.00,0.00,30.24,M,4.00,M,CLR,M,M,M,M,M,M,M,BR,KAXA 011315Z AUTO 23004KT 4SM BR CLR 03/03 A3024 RMK AO2
AXA,2017-04-01 13:20,-94.2724,43.0796,37.40,37.40,100.00,230.00,5.00,0.00,30.24,M,4.00,M,CLR,M,M,M,M,M,M,M,BR,KAXA 011320Z AUTO 23005KT 4SM BR CLR 03/03 A3024 RMK AO2
AXA,2017-04-01 13:30,-94.2724,43.0796,37.40,37.40,100.00,230.00,5.00,0.00,30.24,M,5.00,M,CLR,M,M,M,M,M,M,M,BR,KAXA 011330Z AUTO 23005KT 5SM BR CLR 03/03 A3024 RMK AO2
AXA,2017-04-01 13:35,-94.2724,43.0796,37.40,37.40,100.00,240.00,4.00,0.00,30.24,M,5.00,M,CLR,M,M,M,M,M,M,M,BR,KAXA 011335Z AUTO 24004KT 5SM BR CLR 03/03 A3024 RMK AO2
AXA,2017-04-01 13:40,-94.2724,43.0796,39.20,37.40,93.19,250.00,4.00,0.00,30.24,M,5.00,M,FEW,M,M,M,12000.00,M,M,M,BR,KAXA 011340Z AUTO 25004KT 5SM BR FEW120 04/03 A3024 RMK AO2
AXA,2017-04-01 13:50,-94.2724,43.0796,39.20,39.20,100.00,240.00,3.00,0.00,30.24,M,5.00,M,SCT,M,M,M,12000.00,M,M,M,BR,KAXA 011350Z AUTO 24003KT 5SM BR SCT120 04/04 A3024 RMK AO2
AXA,2017-04-01 13:55,-94.2724,43.0796,39.20,39.20,100.00,240.00,4.00,0.00,30.24,M,6.00,M,SCT,M,M,M,11000.00,M,M,M,BR,KAXA 011355Z AUTO 24004KT 6SM BR SCT110 04/04 A3024 RMK AO2
AXA,2017-04-01 14:00,-94.2724,43.0796,39.20,39.20,100.00,240.00,4.00,0.00,30.24,M,6.00,M,BKN,M,M,M,11000.00,M,M,M,BR,KAXA 011400Z AUTO 24004KT 6SM BR BKN110 04/04 A3024 RMK AO2
AXA,2017-04-01 14:10,-94.2724,43.0796,39.20,39.20,100.00,250.00,4.00,0.00,30.24,M,6.00,M,BKN,M,M,M,11000.00,M,M,M,BR,KAXA 011410Z AUTO 25004KT 6SM BR BKN110 04/04 A3024 RMK AO2
AXA,2017-04-01 14:15,-94.2724,43.0796,41.00,39.20,93.24,270.00,4.00,0.00,30.25,M,6.00,M,BKN,M,M,M,11000.00,M,M,M,BR,KAXA 011415Z AUTO 27004KT 6SM BR BKN110 05/04 A3025 RMK AO2
AXA,2017-04-01 14:20,-94.2724,43.0796,41.00,39.20,93.24,0.00,0.00,0.00,30.24,M,7.00,M,BKN,M,M,M,11000.00,M,M,M,M,KAXA 011420Z AUTO 00000KT 7SM BKN110 05/04 A3024 RMK AO2
AXA,2017-04-01 14:30,-94.2724,43.0796,41.00,39.20,93.24,330.00,4.00,0.00,30.25,M,8.00,M,BKN,M,M,M,11000.00,M,M,M,M,KAXA 011430Z AUTO 33004KT 8SM BKN110 05/04 A3025 RMK AO2
AXA,2017-04-01 14:35,-94.2724,43.0796,41.00,39.20,93.24,340.00,3.00,0.00,30.25,M,9.00,M,BKN,M,M,M,12000.00,M,M,M,M,KAXA 011435Z AUTO 34003KT 9SM BKN120 05/04 A3025 RMK AO2
AXA,2017-04-01 14:40,-94.2724,43.0796,41.00,39.20,93.24,340.00,4.00,0.00,30.24,M,10.00,M,SCT,M,M,M,12000.00,M,M,M,M,KAXA 011440Z AUTO 34004KT 10SM SCT120 05/04 A3024 RMK AO2
AXA,2017-04-01 14:50,-94.2724,43.0796,42.80,39.20,86.99,340.00,5.00,0.00,30.24,M,9.00,M,FEW,M,M,M,12000.00,M,M,M,M,KAXA 011450Z AUTO 34005KT 9SM FEW120 06/04 A3024 RMK AO2
AXA,2017-04-01 14:55,-94.2724,43.0796,42.80,41.00,93.30,340.00,5.00,0.00,30.24,M,9.00,M,FEW,M,M,M,11000.00,M,M,M,M,KAXA 011455Z AUTO 34005KT 9SM FEW110 06/05 A3024 RMK AO2
AXA,2017-04-01 15:00,-94.2724,43.0796,44.60,41.00,87.09,350.00,5.00,0.00,30.24,M,9.00,M,FEW,M,M,M,11000.00,M,M,M,M,KAXA 011500Z AUTO 35005KT 9SM FEW110 07/05 A3024 RMK AO2
AXA,2017-04-01 15:10,-94.2724,43.0796,44.60,41.00,87.09,350.00,5.00,0.00,30.24,M,10.00,M,FEW,M,M,M,11000.00,M,M,M,M,KAXA 011510Z AUTO 35005KT 10SM FEW110 07/05 A3024 RMK AO2
AXA,2017-04-01 15:15,-94.2724,43.0796,44.60,41.00,87.09,20.00,4.00,0.00,30.24,M,10.00,M,FEW,M,M,M,11000.00,M,M,M,M,KAXA 011515Z AUTO 02004KT 10SM FEW110 07/05 A3024 RMK AO2
AXA,2017-04-01 15:20,-94.2724,43.0796,46.40,41.00,81.34,20.00,4.00,0.00,30.24,M,10.00,M,FEW,M,M,M,11000.00,M,M,M,M,KAXA 011520Z AUTO 02004KT 10SM FEW110 08/05 A3024 RMK AO2
AXA,2017-04-01 15:30,-94.2724,43.0796,46.40,41.00,81.34,M,3.00,0.00,30.25,M,10.00,M,CLR,M,M,M,M,M,M,M,M,KAXA 011530Z AUTO VRB03KT 10SM CLR 08/05 A3025 RMK AO2
AXA,2017-04-01 15:35,-94.2724,43.0796,48.20,41.00,76.01,0.00,0.00,0.00,30.25,M,10.00,M,CLR,M,M,M,M,M,M,M,M,KAXA 011535Z AUTO 00000KT 10SM CLR 09/05 A3025 RMK AO2
AXA,2017-04-01 15:40,-94.2724,43.0796,48.20,41.00,76.01,30.00,4.00,0.00,30.25,M,10.00,M,CLR,M,M,M,M,M,M,M,M,KAXA 011540Z AUTO 03004KT 10SM CLR 09/05 A3025 RMK AO2
AXA,2017-04-01 15:50,-94.2724,43.0796,48.20,41.00,76.01,70.00,4.00,0.00,30.25,M,10.00,M,FEW,M,M,M,11000.00,M,M,M,M,KAXA 011550Z AUTO 07004KT 10SM FEW110 09/05 A3025 RMK AO2
AXA,2017-04-01 15:55,-94.2724,43.0796,48.20,41.00,76.01,0.00,0.00,0.00,30.25,M,10.00,M,FEW,M,M,M,11000.00,M,M,M,M,KAXA 011555Z AUTO 00000KT 10SM FEW110 09/05 A3025 RMK AO2
AXA,2017-04-01 16:00,-94.2724,43.0796,50.00,41.00,71.07,0.00,0.00,0.00,30.25,M,10.00,M,SCT,M,M,M,11000.00,M,M,M,M,KAXA 011600Z AUTO 00000KT 10SM SCT110 10/05 A3025 RMK AO2
AXA,2017-04-01 16:10,-94.2724,43.0796,50.00,39.20,66.27,0.00,0.00,0.00,30.25,M,10.00,M,SCT,M,M,M,11000.00,M,M,M,M,KAXA 011610Z AUTO 00000KT 10SM SCT110 10/04 A3025 RMK AO2
AXA,2017-04-01 16:15,-94.2724,43.0796,50.00,41.00,71.07,0.00,0.00,0.00,30.25,M,10.00,M,FEW,M,M,M,11000.00,M,M,M,M,KAXA 011615Z AUTO 00000KT 10SM FEW110 10/05 A3025 RMK AO2
AXA,2017-04-01 16:20,-94.2724,43.0796,50.00,41.00,71.07,40.00,3.00,0.00,30.25,M,10.00,M,FEW,M,M,M,11000.00,M,M,M,M,KAXA 011620Z AUTO 04003KT 10SM FEW110 10/05 A3025 RMK AO2
AXA,2017-04-01 16:30,-94.2724,43.0796,50.00,41.00,71.07,0.00,0.00,0.00,30.24,M,10.00,M,FEW,M,M,M,10000.00,M,M,M,M,KAXA 011630Z AUTO 00000KT 10SM FEW100 10/05 A3024 RMK AO2
AXA,2017-04-01 16:35,-94.2724,43.0796,50.00,41.00,71.07,60.00,3.00,0.00,30.24,M,10.00,M,CLR,M,M,M,M,M,M,M,M,KAXA 011635Z AUTO 06003KT 10SM CLR 10/05 A3024 RMK AO2
AXA,2017-04-01 16:40,-94.2724,43.0796,50.00,41.00,71.07,80.00,4.00,0.00,30.24,M,10.00,M,CLR,M,M,M,M,M,M,M,M,KAXA 011640Z AUTO 08004KT 10SM CLR 10/05 A3024 RMK AO2
AXA,2017-04-01 16:50,-94.2724,43.0796,51.80,39.20,61.99,0.00,0.00,0.00,30.25,M,10.00,M,CLR,M,M,M,M,M,M,M,M,KAXA 011650Z AUTO 00000KT 10SM CLR 11/04 A3025 RMK AO2
AXA,2017-04-01 16:55,-94.2724,43.0796,51.80,39.20,61.99,M,4.00,0.00,30.24,M,10.00,M,CLR,M,M,M,M,M,M,M,M,KAXA 011655Z AUTO VRB04KT 10SM CLR 11/04 A3024 RMK AO2
AXA,2017-04-01 17:00,-94.2724,43.0796,51.80,39.20,61.99,0.00,0.00,0.00,30.24,M,10.00,M,CLR,M,M,M,M,M,M,M,M,KAXA 011700Z AUTO 00000KT 10SM CLR 11/04 A3024 RMK AO2
AXA,2017-04-01 17:10,-94.2724,43.0796,51.80,39.20,61.99,0.00,0.00,0.00,30.24,M,10.00,M,CLR,M,M,M,M,M,M,M,M,KAXA 011710Z AUTO 00000KT 10SM CLR 11/04 A3024 RMK AO2
AXA,2017-04-01 17:15,-94.2724,43.0796,53.60,39.20,58.02,30.00,4.00,0.00,30.24,M,10.00,M,CLR,M,M,M,M,M,M,M,M,KAXA 011715Z AUTO 03004KT 10SM CLR 12/04 A3024 RMK AO2
AXA,2017-04-01 17:20,-94.2724,43.0796,53.60,37.40,54.07,0.00,0.00,0.00,30.24,M,10.00,M,CLR,M,M,M,M,M,M,M,M,KAXA 011720Z AUTO 00000KT 10SM CLR 12/03 A3024 RMK AO2
AXA,2017-04-01 17:30,-94.2724,43.0796,53.60,37.40,54.07,0.00,0.00,0.00,30.24,M,10.00,M,CLR,M,M,M,M,M,M,M,M,KAXA 011730Z AUTO 00000KT 10SM CLR 12/03 A3024 RMK AO2
AXA,2017-04-01 17:35,-94.2724,43.0796,53.60,37.40,54.07,0.00,0.00,0.00,30.24,M,10.00,M,CLR,M,M,M,M,M,M,M,M,KAXA 011735Z AUTO 00000KT 10SM CLR 12/03 A3024 RMK AO2
AXA,2017-04-01 17:40,-94.2724,43.0796,53.60,37.40,54.07,80.00,4.00,0.00,30.23,M,10.00,M,CLR,M,M,M,M,M,M,M,M,KAXA 011740Z AUTO 08004KT 10SM CLR 12/03 A3023 RMK AO2
AXA,2017-04-01 17:50,-94.2724,43.0796,53.60,39.20,58.02,0.00,0.00,0.00,30.23,M,10.00,M,CLR,M,M,M,M,M,M,M,M,KAXA 011750Z AUTO 00000KT 10SM CLR 12/04 A3023 RMK AO2
AXA,2017-04-01 17:55,-94.2724,43.0796,55.40,39.20,54.34,0.00,0.00,0.00,30.23,M,10.00,M,CLR,M,M,M,M,M,M,M,M,KAXA 011755Z AUTO 00000KT 10SM CLR 13/04 A3023 RMK AO2
AXA,2017-04-01 18:00,-94.2724,43.0796,55.40,39.20,54.34,0.00,0.00,0.00,30.23,M,10.00,M,CLR,M,M,M,M,M,M,M,M,KAXA 011800Z AUTO 00000KT 10SM CLR 13/04 A3023 RMK AO2
AXA,2017-04-01 18:10,-94.2724,43.0796,55.40,35.60,47.16,0.00,0.00,0.00,30.23,M,10.00,M,CLR,M,M,M,M,M,M,M,M,KAXA 011810Z AUTO 00000KT 10SM CLR 13/02 A3023 RMK AO2
AXA,2017-04-01 18:15,-94.2724,43.0796,55.40,37.40,50.64,0.00,0.00,0.00,30.23,M,10.00,M,CLR,M,M,M,M,M,M,M,M,KAXA 011815Z AUTO 00000KT 10SM CLR 13/03 A3023 RMK AO2
AXA,2017-04-01 18:20,-94.2724,43.0796,55.40,37.40,50.64,0.00,0.00,0.00,30.23,M,10.00,M,CLR,M,M,M,M,M,M,M,M,KAXA 011820Z AUTO 00000KT 10SM CLR 13/03 A3023 RMK AO2
AXA,2017-04-01 18:30,-94.2724,43.0796,55.40,37.40,50.64,0.00,0.00,0.00,30.22,M,10.00,M,CLR,M,M,M,M,M,M,M,M,KAXA 011830Z AUTO 00000KT 10SM CLR 13/03 A3022 RMK AO2
AXA,2017-04-01 18:35,-94.2724,43.0796,57.20,37.40,47.44,0.00,0.00,0.00,30.22,M,10.00,M,CLR,M,M,M,M,M,M,M,M,KAXA 011835Z AUTO 00000KT 10SM CLR 14/03 A3022 RMK AO2
AXA,2017-04-01 18:40,-94.2724,43.0796,57.20,37.40,47.44,20.00,5.00,0.00,30.21,M,10.00,M,CLR,M,M,M,M,M,M,M,M,KAXA 011840Z AUTO 02005KT 10SM CLR 14/03 A3021 RMK AO2
AXA,2017-04-01 18:50,-94.2724,43.0796,55.40,32.00,40.84,M,3.00,0.00,30.21,M,10.00,M,CLR,M,M,M,M,M,M,M,M,KAXA 011850Z AUTO VRB03KT 10SM CLR 13/00 A3021 RMK AO2
AXA,2017-04-01 18:55,-94.2724,43.0796,55.40,30.20,37.97,M,3.00,0.00,30.21,M,10.00,M,CLR,M,M,M,M,M,M,M,M,KAXA 011855Z AUTO VRB03KT 10SM CLR 13/M01 A3021 RMK AO2
AXA,2017-04-01 19:00,-94.2724,43.0796,55.40,32.00,40.84,30.00,6.00,0.00,30.21,M,10.00,M,CLR,M,M,M,M,M,M,M,M,KAXA 011900Z AUTO 03006KT 10SM CLR 13/M00 A3021 RMK AO2
AXA,2017-04-01 19:10,-94.2724,43.0796,55.40,33.80,43.90,M,3.00,0.00,30.20,M,10.00,M,CLR,M,M,M,M,M,M,M,M,KAXA 011910Z AUTO VRB03KT 10SM CLR 13/01 A3020 RMK AO2
AXA,2017-04-01 19:15,-94.2724,43.0796,55.40,33.80,43.90,0.00,0.00,0.00,30.20,M,10.00,M,CLR,M,M,M,M,M,M,M,M,KAXA 011915Z AUTO 00000KT 10SM CLR 13/01 A3020 RMK AO2
AXA,2017-04-01 19:20,-94.2724,43.0796,57.20,32.00,38.26,70.00,5.00,0.00,30.20,M,10.00,M,CLR,M,M,M,M,M,M,M,M,KAXA 011920Z AUTO 07005KT 10SM CLR 14/M00 A3020 RMK AO2
AXA,2017-04-01 19:30,-94.2724,43.0796,55.40,32.00,40.84,90.00,4.00,0.00,30.20,M,10.00,M,FEW,M,M,M,11000.00,M,M,M,M,KAXA 011930Z AUTO 09004KT 10SM FEW110 13/M00 A3020 RMK AO2
AXA,2017-04-01 19:35,-94.2724,43.0796,57.20,32.00,38.26,0.00,0.00,0.00,30.20,M,10.00,M,CLR,M,M,M,M,M,M,M,M,KAXA 011935Z AUTO 00000KT 10SM CLR 14/M00 A3020 RMK AO2
AXA,2017-04-01 19:40,-94.2724,43.0796,57.20,32.00,38.26,0.00,0.00,0.00,30.19,M,10.00,M,CLR,M,M,M,M,M,M,M,M,KAXA 011940Z AUTO 00000KT 10SM CLR 14/00 A3019 RMK AO2
AXA,2017-04-01 19:50,-94.2724,43.0796,55.40,30.20,37.97,0.00,0.00,0.00,30.19,M,10.00,M,CLR,M,M,M,M,M,M,M,M,KAXA 011950Z AUTO 00000KT 10SM CLR 13/M01 A3019 RMK AO2
AXA,2017-04-01 19:55,-94.2724,43.0796,57.20,32.00,38.26,0.00,0.00,0.00,30.19,M,10.00,M,CLR,M,M,M,M,M,M,M,M,KAXA 011955Z AUTO 00000KT 10SM CLR 14/M00 A3019 RMK AO2
AXA,2017-04-01 20:00,-94.2724,43.0796,57.20,30.20,35.57,0.00,0.00,0.00,30.19,M,10.00,M,CLR,M,M,M,M,M,M,M,M,KAXA 012000Z AUTO 00000KT 10SM CLR 14/M01 A3019 RMK AO2
AXA,2017-04-01 20:10,-94.2724,43.0796,57.20,32.00,38.26,0.00,0.00,0.00,30.19,M,10.00,M,CLR,M,M,M,M,M,M,M,M,KAXA 012010Z AUTO 00000KT 10SM CLR 14/00 A3019 RMK AO2
AXA,2017-04-01 20:15,-94.2724,43.0796,57.20,32.00,38.26,0.00,0.00,0.00,30.19,M,10.00,M,CLR,M,M,M,M,M,M,M,M,KAXA 012015Z AUTO 00000KT 10SM CLR 14/00 A3019 RMK AO2
AXA,2017-04-01 20:20,-94.2724,43.0796,57.20,33.80,41.13,0.00,0.00,0.00,30.19,M,10.00,M,CLR,M,M,M,M,M,M,M,M,KAXA 012020Z AUTO 00000KT 10SM CLR 14/01 A3019 RMK AO2
AXA,2017-04-01 20:30,-94.2724,43.0796,57.20,32.00,38.26,220.00,3.00,0.00,30.18,M,10.00,M,CLR,M,M,M,M,M,M,M,M,KAXA 012030Z AUTO 22003KT 10SM CLR 14/00 A3018 RMK AO2
AXA,2017-04-01 20:35,-94.2724,43.0796,57.20,33.80,41.13,180.00,3.00,0.00,30.18,M,10.00,M,CLR,M,M,M,M,M,M,M,M,KAXA 012035Z AUTO 18003KT 10SM CLR 14/01 A3018 RMK AO2
AXA,2017-04-01 20:40,-94.2724,43.0796,57.20,33.80,41.13,140.00,4.00,0.00,30.18,M,10.00,M,CLR,M,M,M,M,M,M,M,M,KAXA 012040Z AUTO 14004KT 10SM CLR 14/01 A3018 RMK AO2
AXA,2017-04-01 20:50,-94.2724,43.0796,57.20,32.00,38.26,0.00,0.00,0.00,30.18,M,10.00,M,CLR,M,M,M,M,M,M,M,M,KAXA 012050Z AUTO 00000KT 10SM CLR 14/00 A3018 RMK AO2
AXA,2017-04-01 20:55,-94.2724,43.0796,57.20,32.00,38.26,0.00,0.00,0.00,30.17,M,10.00,M,CLR,M,M,M,M,M,M,M,M,KAXA 012055Z AUTO 00000KT 10SM CLR 14/M00 A3017 RMK AO2
AXA,2017-04-01 21:00,-94.2724,43.0796,57.20,32.00,38.26,0.00,0.00,0.00,30.17,M,10.00,M,CLR,M,M,M,M,M,M,M,M,KAXA 012100Z AUTO 00000KT 10SM CLR 14/M00 A3017 RMK AO2
AXA,2017-04-01 21:10,-94.2724,43.0796,57.20,32.00,38.26,0.00,0.00,0.00,30.17,M,10.00,M,CLR,M,M,M,M,M,M,M,M,KAXA 012110Z AUTO 00000KT 10SM CLR 14/M00 A3017 RMK AO2
AXA,2017-04-01 21:15,-94.2724,43.0796,57.20,32.00,38.26,0.00,0.00,0.00,30.17,M,10.00,M,CLR,M,M,M,M,M,M,M,M,KAXA 012115Z AUTO 00000KT 10SM CLR 14/M00 A3017 RMK AO2
AXA,2017-04-01 21:20,-94.2724,43.0796,59.00,32.00,35.87,M,3.00,0.00,30.16,M,10.00,M,CLR,M,M,M,M,M,M,M,M,KAXA 012120Z AUTO VRB03KT 10SM CLR 15/00 A3016 RMK AO2
AXA,2017-04-01 21:30,-94.2724,43.0796,57.20,33.80,41.13,M,4.00,0.00,30.16,M,10.00,M,CLR,M,M,M,M,M,M,M,M,KAXA 012130Z AUTO VRB04KT 10SM CLR 14/01 A3016 RMK AO2
AXA,2017-04-01 21:35,-94.2724,43.0796,57.20,33.80,41.13,0.00,0.00,0.00,30.16,M,10.00,M,CLR,M,M,M,M,M,M,M,M,KAXA 012135Z AUTO 00000KT 10SM CLR 14/01 A3016 RMK AO2
AXA,2017-04-01 21:40,-94.2724,43.0796,59.00,33.80,38.56,190.00,4.00,0.00,30.17,M,10.00,M,CLR,M,M,M,M,M,M,M,M,KAXA 012140Z AUTO 19004KT 10SM CLR 15/01 A3017 RMK AO2
AXA,2017-04-01 21:50,-94.2724,43.0796,57.20,32.00,38.26,0.00,0.00,0.00,30.17,M,10.00,M,CLR,M,M,M,M,M,M,M,M,KAXA 012150Z AUTO 00000KT 10SM CLR 14/00 A3017 RMK AO2
AXA,2017-04-01 21:55,-94.2724,43.0796,57.20,32.00,38.26,0.00,0.00,0.00,30.17,M,10.00,M,CLR,M,M,M,M,M,M,M,M,KAXA 012155Z AUTO 00000KT 10SM CLR 14/M00 A3017 RMK AO2
AXA,2017-04-01 22:00,-94.2724,43.0796,57.20,32.00,38.26,0.00,0.00,0.00,30.17,M,10.00,M,CLR,M,M,M,M,M,M,M,M,KAXA 012200Z AUTO 00000KT 10SM CLR 14/M00 A3017 RMK AO2
AXA,2017-04-01 22:10,-94.2724,43.0796,59.00,33.80,38.56,190.00,5.00,0.00,30.17,M,5.00,M,CLR,M,M,M,M,M,M,M,HZ,KAXA 012210Z AUTO 19005KT 5SM HZ CLR 15/01 A3017 RMK AO2
AXA,2017-04-01 22:15,-94.2724,43.0796,57.20,33.80,41.13,180.00,7.00,0.00,30.17,M,5.00,M,CLR,M,M,M,M,M,M,M,HZ,KAXA 012215Z AUTO 18007KT 5SM HZ CLR 14/01 A3017 RMK AO2
AXA,2017-04-01 22:20,-94.2724,43.0796,57.20,33.80,41.13,180.00,5.00,0.00,30.16,M,9.00,M,CLR,M,M,M,M,M,M,M,M,KAXA 012220Z AUTO 18005KT 9SM CLR 14/01 A3016 RMK AO2
AXA,2017-04-01 22:30,-94.2724,43.0796,57.20,33.80,41.13,180.00,4.00,0.00,30.16,M,10.00,M,CLR,M,M,M,M,M,M,M,M,KAXA 012230Z AUTO 18004KT 10SM CLR 14/01 A3016 RMK AO2
AXA,2017-04-01 22:35,-94.2724,43.0796,57.20,32.00,38.26,0.00,0.00,0.00,30.16,M,10.00,M,CLR,M,M,M,M,M,M,M,M,KAXA 012235Z AUTO 00000KT 10SM CLR 14/00 A3016 RMK AO2
AXA,2017-04-01 22:40,-94.2724,43.0796,57.20,33.80,41.13,160.00,5.00,0.00,30.15,M,10.00,M,CLR,M,M,M,M,M,M,M,M,KAXA 012240Z AUTO 16005KT 10SM CLR 14/01 A3015 RMK AO2
AXA,2017-04-01 22:50,-94.2724,43.0796,57.20,32.00,38.26,0.00,0.00,0.00,30.15,M,10.00,M,CLR,M,M,M,M,M,M,M,M,KAXA 012250Z AUTO 00000KT 10SM CLR 14/00 A3015 RMK AO2
AXA,2017-04-01 22:55,-94.2724,43.0796,57.20,32.00,38.26,0.00,0.00,0.00,30.15,M,10.00,M,CLR,M,M,M,M,M,M,M,M,KAXA 012255Z AUTO 00000KT 10SM CLR 14/00 A3015 RMK AO2
AXA,2017-04-01 23:00,-94.2724,43.0796,57.20,33.80,41.13,180.00,4.00,0.00,30.15,M,10.00,M,CLR,M,M,M,M,M,M,M,M,KAXA 012300Z AUTO 18004KT 10SM CLR 14/01 A3015 RMK AO2
AXA,2017-04-01 23:10,-94.2724,43.0796,57.20,33.80,41.13,M,4.00,0.00,30.16,M,10.00,M,CLR,M,M,M,M,M,M,M,M,KAXA 012310Z AUTO VRB04KT 10SM CLR 14/01 A3016 RMK AO2
AXA,2017-04-01 23:15,-94.2724,43.0796,57.20,33.80,41.13,0.00,0.00,0.00,30.16,M,10.00,M,CLR,M,M,M,M,M,M,M,M,KAXA 012315Z AUTO 00000KT 10SM CLR 14/01 A3016 RMK AO2
AXA,2017-04-01 23:20,-94.2724,43.0796,57.20,32.00,38.26,0.00,0.00,0.00,30.16,M,10.00,M,CLR,M,M,M,M,M,M,M,M,KAXA 012320Z AUTO 00000KT 10SM CLR 14/M00 A3016 RMK AO2
AXA,2017-04-01 23:30,-94.2724,43.0796,55.40,35.60,47.16,170.00,5.00,0.00,30.16,M,10.00,M,CLR,M,M,M,M,M,M,M,M,KAXA 012330Z AUTO 17005KT 10SM CLR 13/02 A3016 RMK AO2
AXA,2017-04-01 23:35,-94.2724,43.0796,55.40,35.60,47.16,180.00,3.00,0.00,30.16,M,10.00,M,CLR,M,M,M,M,M,M,M,M,KAXA 012335Z AUTO 18003KT 10SM CLR 13/02 A3016 RMK AO2
AXA,2017-04-01 23:40,-94.2724,43.0796,55.40,35.60,47.16,190.00,4.00,0.00,30.15,M,10.00,M,CLR,M,M,M,M,M,M,M,M,KAXA 012340Z AUTO 19004KT 10SM CLR 13/02 A3015 RMK AO2
AXA,2017-04-01 23:50,-94.2724,43.0796,55.40,37.40,50.64,210.00,4.00,0.00,30.15,M,10.00,M,CLR,M,M,M,M,M,M,M,M,KAXA 012350Z AUTO 21004KT 10SM CLR 13/03 A3015 RMK AO2
AXA,2017-04-01 23:55,-94.2724,43.0796,55.40,37.40,50.64,200.00,4.00,0.00,30.15,M,10.00,M,CLR,M,M,M,M,M,M,M,M,KAXA 012355Z AUTO 20004KT 10SM CLR 13/03 A3015 RMK AO2
