#DEBUG: Format Typ    -> comma
#DEBUG: Time Period   -> 2017-04-01 00:00:00+00:00 2017-04-02 00:00:00+00:00
#DEBUG: Time Zone     -> Etc/UTC
#DEBUG: Data Contact   -> daryl herzmann akrherz@iastate.edu 515-294-5978
#DEBUG: Entries Found -> -1
station,valid,lon,lat,tmpf, dwpf, relh, drct, sknt, p01i, alti, mslp, vsby, gust, skyc1, skyc2, skyc3, skyc4, skyl1, skyl2, skyl3, skyl4, presentwx, metar
BBB,2017-04-01 00:14,-95.6506,45.3319,55.40,19.40,24.21,0.00,0.00,0.00,30.08,M,10.00,M,CLR,M,M,M,M,M,M,M,M,KBBB 010014Z AUTO 00000KT 10SM CLR 13/M07 A3008 RMK AO2
BBB,2017-04-01 00:33,-95.6506,45.3319,53.60,23.00,30.11,0.00,0.00,0.00,30.08,M,10.00,M,CLR,M,M,M,M,M,M,M,M,KBBB 010033Z AUTO 00000KT 10SM CLR 12/M05 A3008 RMK AO2
BBB,2017-04-01 00:54,-95.6506,45.3319,50.00,24.80,37.08,0.00,0.00,0.00,30.09,M,10.00,M,CLR,M,M,M,M,M,M,M,M,KBBB 010054Z AUTO 00000KT 10SM CLR 10/M04 A3009 RMK AO2
BBB,2017-04-01 01:13,-95.6506,45.3319,51.80,24.80,34.69,0.00,0.00,0.00,30.09,M,10.00,M,CLR,M,M,M,M,M,M,M,M,KBBB 010113Z AUTO 00000KT 10SM CLR 11/M04 A3009 RMK AO2
BBB,2017-04-01 01:34,-95.6506,45.3319,48.20,24.80,39.66,0.00,0.00,0.00,30.10,M,10.00,M,CLR,M,M,M,M,M,M,M,M,KBBB 010134Z AUTO 00000KT 10SM CLR 09/M04 A3010 RMK AO2
BBB,2017-04-01 01:53,-95.6506,45.3319,48.20,26.60,42.73,0.00,0.00,0.00,30.11,M,10.00,M,CLR,M,M,M,M,M,M,M,M,KBBB 010153Z AUTO 00000KT 10SM CLR 09/M03 A3011 RMK AO2
BBB,2017-04-01 02:13,-95.6506,45.3319,44.60,28.40,52.72,0.00,0.00,0.00,30.12,M,10.00,M,CLR,M,M,M,M,M,M,M,M,KBBB 010213Z AUTO 00000KT 10SM CLR 07/M02 A3012 RMK AO2
BBB,2017-04-01 02:34,-95.6506,45.3319,44.60,28.40,52.72,0.00,0.00,0.00,30.13,M,10.00,M,CLR,M,M,M,M,M,M,M,M,KBBB 010234Z AUTO 00000KT 10SM CLR 07/M02 A3013 RMK AO2
BBB,2017-04-01 02:53,-95.6506,45.3319,39.20,28.40,64.93,360.00,4.00,0.00,30.14,M,10.00,M,CLR,M,M,M,M,M,M,M,M,KBBB 010253Z AUTO 36004KT 10SM CLR 04/M02 A3014 RMK AO2
BBB,2017-04-01 03:13,-95.6506,45.3319,41.00,30.20,65.16,0.00,0.00,0.00,30.14,M,10.00,M,CLR,M,M,M,M,M,M,M,M,KBBB 010313Z AUTO 00000KT 10SM CLR 05/M01 A3014 RMK AO2
BBB,2017-04-01 03:34,-95.6506,45.3319,39.20,30.20,69.88,0.00,0.00,0.00,30.15,M,10.00,M,CLR,M,M,M,M,M,M,M,M,KBBB 010334Z AUTO 00000KT 10SM CLR 04/M01 A3015 RMK AO2
BBB,2017-04-01 03:54,-95.6506,45.3319,37.40,30.20,74.98,0.00,0.00,0.00,30.15,M,10.00,M,CLR,M,M,M,M,M,M,M,M,KBBB 010354Z AUTO 00000KT 10SM CLR 03/M01 A3015 RMK AO2
BBB,2017-04-01 04:13,-95.6506,45.3319,39.20,28.40,64.93,0.00,0.00,0.00,30.15,M,10.00,M,CLR,M,M,M,M,M,M,M,M,KBBB 010413Z AUTO 00000KT 10SM CLR 04/M02 A3015 RMK AO2
BBB,2017-04-01 04:34,-95.6506,45.3319,39.20,30.20,69.88,0.00,0.00,0.00,30.15,M,10.00,M,CLR,M,M,M,M,M,M,M,M,KBBB 010434Z AUTO 00000KT 10SM CLR 04/M01 A3015 RMK AO2
BBB,2017-04-01 04:53,-95.6506,45.3319,37.40,28.40,69.67,0.00,0.00,0.00,30.16,M,10.00,M,CLR,M,M,M,M,M,M,M,M,KBBB 010453Z AUTO 00000KT 10SM CLR 03/M02 A3016 RMK AO2
BBB,2017-04-01 05:14,-95.6506,45.3319,35.60,28.40,74.80,0.00,0.00,0.00,30.16,M,10.00,M,CLR,M,M,M,M,M,M,M,M,KBBB 010514Z AUTO 00000KT 10SM CLR 02/M02 A3016 RMK AO2
BBB,2017-04-01 05:33,-95.6506,45.3319,37.40,28.40,69.67,0.00,0.00,0.00,30.16,M,10.00,M,CLR,M,M,M,M,M,M,M,M,KBBB 010533Z AUTO 00000KT 10SM CLR 03/M02 A3016 RMK AO2
BBB,2017-04-01 05:53,-95.6506,45.3319,37.40,30.20,74.98,0.00,0.00,0.00,30.16,M,10.00,M,CLR,M,M,M,M,M,M,M,M,KBBB 010553Z AUTO 00000KT 10SM CLR 03/M01 A3016 RMK AO2
BBB,2017-04-01 06:13,-95.6506,45.3319,37.40,30.20,74.98,0.00,0.00,0.00,30.17,M,10.00,M,CLR,M,M,M,M,M,M,M,M,KBBB 010613Z AUTO 00000KT 10SM CLR 03/M01 A3017 RMK AO2
BBB,2017-04-01 06:33,-95.6506,45.3319,37.40,28.40,69.67,0.00,0.00,0.00,30.16,M,10.00,M,CLR,M,M,M,M,M,M,M,M,KBBB 010633Z AUTO 00000KT 10SM CLR 03/M02 A3016 RMK AO2
BBB,2017-04-01 06:54,-95.6506,45.3319,37.40,28.40,69.67,0.00,0.00,0.00,30.17,M,10.00,M,CLR,M,M,M,M,M,M,M,M,KBBB 010654Z AUTO 00000KT 10SM CLR 03/M02 A3017 RMK AO2
BBB,2017-04-01 07:14,-95.6506,45.3319,35.60,28.40,74.80,0.00,0.00,0.00,30.17,M,10.00,M,CLR,M,M,M,M,M,M,M,M,KBBB 010714Z AUTO 00000KT 10SM CLR 02/M02 A3017 RMK AO2
BBB,2017-04-01 07:34,-95.6506,45.3319,35.60,28.40,74.80,0.00,0.00,0.00,30.18,M,10.00,M,CLR,M,M,M,M,M,M,M,M,KBBB 010734Z AUTO 00000KT 10SM CLR 02/M02 A3018 RMK AO2
BBB,2017-04-01 07:53,-95.6506,45.3319,35.60,28.40,74.80,0.00,0.00,0.00,30.18,M,10.00,M,CLR,M,M,M,M,M,M,M,M,KBBB 010753Z AUTO 00000KT 10SM CLR 02/M02 A3018 RMK AO2
BBB,2017-04-01 08:14,-95.6506,45.3319,33.80,28.40,80.36,0.00,0.00,0.00,30.18,M,10.00,M,CLR,M,M,M,M,M,M,M,M,KBBB 010814Z AUTO 00000KT 10SM CLR 01/M02 A3018 RMK AO2
BBB,2017-04-01 08:34,-95.6506,45.3319,33.80,28.40,80.36,0.00,0.00,0.00,30.19,M,10.00,M,CLR,M,M,M,M,M,M,M,M,KBBB 010834Z AUTO 00000KT 10SM CLR 01/M02 A3019 RMK AO2
BBB,2017-04-01 08:53,-95.6506,45.3319,33.80,28.40,80.36,320.00,3.00,0.00,30.19,M,10.00,M,CLR,M,M,M,M,M,M,M,M,KBBB 010853Z AUTO 32003KT 10SM CLR 01/M02 A3019 RMK AO2
BBB,2017-04-01 09:14,-95.6506,45.3319,33.80,28.40,80.36,0.00,0.00,0.00,30.19,M,10.00,M,CLR,M,M,M,M,M,M,M,M,KBBB 010914Z AUTO 00000KT 10SM CLR 01/M02 A3019 RMK AO2
BBB,2017-04-01 09:34,-95.6506,45.3319,33.80,28.40,80.36,0.00,0.00,0.00,30.19,M,10.00,M,CLR,M,M,M,M,M,M,M,M,KBBB 010934Z AUTO 00000KT 10SM CLR 01/M02 A3019 RMK AO2
BBB,2017-04-01 09:54,-95.6506,45.3319,33.80,28.40,80.36,0.00,0.00,0.00,30.20,M,10.00,M,CLR,M,M,M,M,M,M,M,M,KBBB 010954Z AUTO 00000KT 10SM CLR 01/M02 A3020 RMK AO2
BBB,2017-04-01 10:14,-95.6506,45.3319,33.80,28.40,80.36,0.00,0.00,0.00,30.19,M,10.00,M,CLR,M,M,M,M,M,M,M,M,KBBB 011014Z AUTO 00000KT 10SM CLR 01/M02 A3019 RMK AO2
BBB,2017-04-01 10:33,-95.6506,45.3319,33.80,28.40,80.36,0.00,0.00,0.00,30.19,M,10.00,M,CLR,M,M,M,M,M,M,M,M,KBBB 011033Z AUTO 00000KT 10SM CLR 01/M02 A3019 RMK AO2
BBB,2017-04-01 10:54,-95.6506,45.3319,33.80,28.40,80.36,0.00,0.00,0.00,30.19,M,10.00,M,CLR,M,M,M,M,M,M,M,M,KBBB 011054Z AUTO 00000KT 10SM CLR 01/M02 A3019 RMK AO2
BBB,2017-04-01 11:14,-95.6506,45.3319,33.80,28.40,80.36,0.00,0.00,0.00,30.19,M,10.00,M,CLR,M,M,M,M,M,M,M,M,KBBB 011114Z AUTO 00000KT 10SM CLR 01/M02 A3019 RMK AO2
BBB,2017-04-01 11:34,-95.6506,45.3319,30.20,26.60,86.28,350.00,3.00,0.00,30.21,M,10.00,M,CLR,M,M,M,M,M,M,M,M,KBBB 011134Z AUTO 35003KT 10SM CLR M01/M03 A3021 RMK AO2
BBB,2017-04-01 11:54,-95.6506,45.3319,30.20,26.60,86.28,360.00,5.00,0.00,30.21,M,10.00,M,CLR,M,M,M,M,M,M,M,M,KBBB 011154Z AUTO 36005KT 10SM CLR M01/M03 A3021 RMK AO2
BBB,2017-04-01 12:14,-95.6506,45.3319,30.20,26.60,86.28,0.00,0.00,0.00,30.22,M,10.00,M,CLR,M,M,M,M,M,M,M,M,KBBB 011214Z AUTO 00000KT 10SM CLR M01/M03 A3022 RMK AO2
BBB,2017-04-01 12:33,-95.6506,45.3319,33.80,28.40,80.36,10.00,4.00,0.00,30.22,M,10.00,M,CLR,M,M,M,M,M,M,M,M,KBBB 011233Z AUTO 01004KT 10SM CLR 01/M02 A3022 RMK AO2
BBB,2017-04-01 12:54,-95.6506,45.3319,35.60,30.20,80.51,0.00,0.00,0.00,30.22,M,10.00,M,CLR,M,M,M,M,M,M,M,M,KBBB 011254Z AUTO 00000KT 10SM CLR 02/M01 A3022 RMK AO2
BBB,2017-04-01 13:13,-95.6506,45.3319,39.20,33.80,80.79,30.00,3.00,0.00,30.22,M,10.00,M,CLR,M,M,M,M,M,M,M,M,KBBB 011313Z AUTO 03003KT 10SM CLR 04/01 A3022 RMK AO2
BBB,2017-04-01 13:34,-95.6506,45.3319,42.80,33.80,70.28,0.00,0.00,0.00,30.22,M,10.00,M,CLR,M,M,M,M,M,M,M,M,KBBB 011334Z AUTO 00000KT 10SM CLR 06/01 A3022 RMK AO2
BBB,2017-04-01 13:53,-95.6506,45.3319,46.40,33.80,61.28,0.00,0.00,0.00,30.23,M,10.00,M,CLR,M,M,M,M,M,M,M,M,KBBB 011353Z AUTO 00000KT 10SM CLR 08/01 A3023 RMK AO2
BBB,2017-04-01 14:14,-95.6506,45.3319,48.20,33.80,57.26,0.00,0.00,0.00,30.24,M,10.00,M,SCT,BKN,M,M,7500.00,10000.00,M,M,M,KBBB 011414Z AUTO 00000KT 10SM SCT075 BKN100 09/01 A3024 RMK AO2
BBB,2017-04-01 14:34,-95.6506,45.3319,46.40,35.60,65.83,0.00,0.00,0.00,30.24,M,10.00,M,SCT,OVC,M,M,7500.00,10000.00,M,M,M,KBBB 011434Z AUTO 00000KT 10SM SCT075 OVC100 08/02 A3024 RMK AO2
BBB,2017-04-01 14:53,-95.6506,45.3319,48.20,35.60,61.52,320.00,4.00,0.00,30.25,M,10.00,M,SCT,BKN,M,M,7500.00,10000.00,M,M,M,KBBB 011453Z AUTO 32004KT 10SM SCT075 BKN100 09/02 A3025 RMK AO2
BBB,2017-04-01 15:14,-95.6506,45.3319,48.20,35.60,61.52,0.00,0.00,0.00,30.25,M,10.00,M,BKN,M,M,M,8500.00,M,M,M,M,KBBB 011514Z AUTO 00000KT 10SM BKN085 09/02 A3025 RMK AO2
BBB,2017-04-01 15:33,-95.6506,45.3319,48.20,35.60,61.52,20.00,3.00,0.00,30.24,M,10.00,M,OVC,M,M,M,7500.00,M,M,M,M,KBBB 011533Z AUTO 02003KT 10SM OVC075 09/02 A3024 RMK AO2
BBB,2017-04-01 15:54,-95.6506,45.3319,53.60,35.60,50.36,10.00,3.00,0.00,30.24,M,10.00,M,SCT,SCT,M,M,7500.00,9500.00,M,M,M,KBBB 011554Z AUTO 01003KT 10SM SCT075 SCT095 12/02 A3024 RMK AO2
BBB,2017-04-01 16:14,-95.6506,45.3319,55.40,35.60,47.16,40.00,6.00,0.00,30.23,M,10.00,M,SCT,M,M,M,9500.00,M,M,M,M,KBBB 011614Z AUTO 04006KT 10SM SCT095 13/02 A3023 RMK AO2
BBB,2017-04-01 16:34,-95.6506,45.3319,57.20,35.60,44.19,70.00,6.00,0.00,30.23,M,10.00,M,SCT,M,M,M,9500.00,M,M,M,M,KBBB 011634Z AUTO 07006KT 10SM SCT095 14/02 A3023 RMK AO2
BBB,2017-04-01 16:54,-95.6506,45.3319,59.00,33.80,38.56,60.00,7.00,0.00,30.24,M,10.00,M,SCT,M,M,M,9500.00,M,M,M,M,KBBB 011654Z AUTO 06007KT 10SM SCT095 15/01 A3024 RMK AO2
BBB,2017-04-01 17:13,-95.6506,45.3319,60.80,33.80,36.16,30.00,7.00,0.00,30.24,M,10.00,M,CLR,M,M,M,M,M,M,M,M,KBBB 011713Z AUTO 03007KT 355V065 10SM CLR 16/01 A3024 RMK AO2
BBB,2017-04-01 17:34,-95.6506,45.3319,60.80,33.80,36.16,60.00,4.00,0.00,30.23,M,10.00,M,CLR,M,M,M,M,M,M,M,M,KBBB 011734Z AUTO 06004KT 10SM CLR 16/01 A3023 RMK AO2
BBB,2017-04-01 17:54,-95.6506,45.3319,60.80,33.80,36.16,60.00,4.00,0.00,30.22,M,10.00,M,CLR,M,M,M,M,M,M,M,M,KBBB 011754Z AUTO 06004KT 10SM CLR 16/01 A3022 RMK AO2
BBB,2017-04-01 18:14,-95.6506,45.3319,62.60,32.00,31.56,0.00,0.00,0.00,30.21,M,10.00,M,CLR,M,M,M,M,M,M,M,M,KBBB 011814Z AUTO 00000KT 10SM CLR 17/00 A3021 RMK AO2
BBB,2017-04-01 18:33,-95.6506,45.3319,62.60,32.00,31.56,60.00,3.00,0.00,30.21,M,10.00,M,CLR,M,M,M,M,M,M,M,M,KBBB 011833Z AUTO 06003KT 10SM CLR 17/00 A3021 RMK AO2
BBB,2017-04-01 18:54,-95.6506,45.3319,62.60,30.20,29.35,0.00,0.00,0.00,30.20,M,10.00,M,CLR,M,M,M,M,M,M,M,M,KBBB 011854Z AUTO 00000KT 10SM CLR 17/M01 A3020 RMK AO2
BBB,2017-04-01 19:14,-95.6506,45.3319,62.60,30.20,29.35,270.00,4.00,0.00,30.19,M,10.00,M,SCT,M,M,M,4600.00,M,M,M,M,KBBB 011914Z AUTO 27004KT 10SM SCT046 17/M01 A3019 RMK AO2
BBB,2017-04-01 19:34,-95.6506,45.3319,64.40,28.40,25.60,10.00,4.00,0.00,30.18,M,10.00,M,BKN,M,M,M,4800.00,M,M,M,M,KBBB 011934Z AUTO 01004KT 10SM BKN048 18/M02 A3018 RMK AO2
BBB,2017-04-01 19:53,-95.6506,45.3319,64.40,28.40,25.60,40.00,6.00,0.00,30.18,M,10.00,M,BKN,BKN,M,M,5000.00,7000.00,M,M,M,KBBB 011953Z AUTO 04006KT 10SM BKN050 BKN070 18/M02 A3018 RMK AO2
BBB,2017-04-01 20:14,-95.6506,45.3319,64.40,28.40,25.60,300.00,5.00,0.00,30.18,M,10.00,M,SCT,OVC,M,M,5000.00,7000.00,M,M,M,KBBB 012014Z AUTO 30005KT 10SM SCT050 OVC070 18/M02 A3018 RMK AO2
BBB,2017-04-01 20:34,-95.6506,45.3319,62.60,30.20,29.35,0.00,0.00,0.00,30.17,M,10.00,M,SCT,OVC,M,M,5000.00,7000.00,M,M,M,KBBB 012034Z AUTO 00000KT 10SM SCT050 OVC070 17/M01 A3017 RMK AO2
BBB,2017-04-01 20:53,-95.6506,45.3319,64.40,28.40,25.60,30.00,4.00,0.00,30.16,M,10.00,M,SCT,M,M,M,7000.00,M,M,M,M,KBBB 012053Z AUTO 03004KT 10SM SCT070 18/M02 A3016 RMK AO2
BBB,2017-04-01 21:14,-95.6506,45.3319,64.40,28.40,25.60,0.00,0.00,0.00,30.15,M,10.00,M,CLR,M,M,M,M,M,M,M,M,KBBB 012114Z AUTO 00000KT 10SM CLR 18/M02 A3015 RMK AO2
BBB,2017-04-01 21:33,-95.6506,45.3319,62.60,28.40,27.27,0.00,0.00,0.00,30.15,M,10.00,M,CLR,M,M,M,M,M,M,M,M,KBBB 012133Z AUTO 00000KT 10SM CLR 17/M02 A3015 RMK AO2
BBB,2017-04-01 21:54,-95.6506,45.3319,64.40,26.60,23.77,0.00,0.00,0.00,30.14,M,10.00,M,CLR,M,M,M,M,M,M,M,M,KBBB 012154Z AUTO 00000KT 10SM CLR 18/M03 A3014 RMK AO2
BBB,2017-04-01 22:13,-95.6506,45.3319,64.40,26.60,23.77,0.00,0.00,0.00,30.14,M,10.00,M,CLR,M,M,M,M,M,M,M,M,KBBB 012213Z AUTO 00000KT 10SM CLR 18/M03 A3014 RMK AO2
BBB,2017-04-01 22:34,-95.6506,45.3319,64.40,26.60,23.77,300.00,3.00,0.00,30.14,M,10.00,M,SCT,M,M,M,5500.00,M,M,M,M,KBBB 012234Z AUTO 30003KT 10SM SCT055 18/M03 A3014 RMK AO2
BBB,2017-04-01 22:54,-95.6506,45.3319,62.60,28.40,27.27,0.00,0.00,0.00,30.14,M,10.00,M,BKN,M,M,M,5500.00,M,M,M,M,KBBB 012254Z AUTO 00000KT 10SM BKN055 17/M02 A3014 RMK AO2
BBB,2017-04-01 23:14,-95.6506,45.3319,62.60,28.40,27.27,0.00,0.00,0.00,30.14,M,10.00,M,OVC,M,M,M,5500.00,M,M,M,M,KBBB 012314Z AUTO 00000KT 10SM OVC055 17/M02 A3014 RMK AO2
BBB,2017-04-01 23:33,-95.6506,45.3319,62.60,28.40,27.27,320.00,3.00,0.00,30.14,M,10.00,M,OVC,M,M,M,5500.00,M,M,M,M,KBBB 012333Z AUTO 32003KT 10SM OVC055 17/M02 A3014 RMK AO2
BBB,2017-04-01 23:54,-95.6506,45.3319,60.80,28.40,29.06,0.00,0.00,0.00,30.14,M,10.00,M,OVC,M,M,M,5500.00,M,M,M,M,KBBB 012354Z AUTO 00000KT 10SM OVC055 16/M02 A3014 RMK AO2
