#DEBUG: Format Typ    -> comma
#DEBUG: Time Period   -> 2017-04-01 00:00:00+00:00 2017-04-02 00:00:00+00:00
#DEBUG: Time Zone     -> Etc/UTC
#DEBUG: Data Contact   -> daryl herzmann akrherz@iastate.edu 515-294-5978
#DEBUG: Entries Found -> -1
station,valid,lon,lat,tmpf, dwpf, relh, drct, sknt, p01i, alti, mslp, vsby, gust, skyc1, skyc2, skyc3, skyc4, skyl1, skyl2, skyl3, skyl4, presentwx, metar
BBP,2017-04-01 00:15,-79.7344,34.6217,73.40,46.40,38.18,250.00,10.00,0.00,29.71,M,10.00,14.00,CLR,M,M,M,M,M,M,M,M,KBBP 010015Z AUTO 25010G14KT 10SM CLR 23/08 A2971 RMK AO2
BBP,2017-04-01 00:35,-79.7344,34.6217,71.60,46.40,40.57,260.00,9.00,0.00,29.72,M,10.00,16.00,CLR,M,M,M,M,M,M,M,M,KBBP 010035Z AUTO 26009G16KT 10SM CLR 22/08 A2972 RMK AO2
BBP,2017-04-01 00:55,-79.7344,34.6217,71.60,46.40,40.57,250.00,11.00,0.00,29.73,M,10.00,15.00,CLR,M,M,M,M,M,M,M,M,KBBP 010055Z AUTO 25011G15KT 10SM CLR 22/08 A2973 RMK AO2
BBP,2017-04-01 01:15,-79.7344,34.6217,69.80,46.40,43.13,260.00,9.00,0.00,29.74,M,10.00,M,CLR,M,M,M,M,M,M,M,M,KBBP 010115Z AUTO 26009KT 10SM CLR 21/08 A2974 RMK AO2
BBP,2017-04-01 01:35,-79.7344,34.6217,69.80,46.40,43.13,250.00,11.00,0.00,29.76,M,10.00,14.00,SCT,M,M,M,8000.00,M,M,M,M,KBBP 010135Z AUTO 25011G14KT 10SM SCT080 21/08 A2976 RMK AO2
BBP,2017-04-01 01:55,-79.7344,34.6217,69.80,46.40,43.13,280.00,9.00,0.00,29.78,M,10.00,M,SCT,M,M,M,8000.00,M,M,M,M,KBBP 010155Z AUTO 28009KT 10SM SCT080 21/08 A2978 RMK AO2
BBP,2017-04-01 02:15,-79.7344,34.6217,68.00,46.40,45.88,290.00,6.00,0.00,29.80,M,10.00,M,SCT,M,M,M,7000.00,M,M,M,M,KBBP 010215Z AUTO 29006KT 10SM SCT070 20/08 A2980 RMK AO2
BBP,2017-04-01 02:35,-79.7344,34.6217,66.20,46.40,48.83,310.00,6.00,0.00,29.80,M,10.00,M,CLR,M,M,M,M,M,M,M,M,KBBP 010235Z AUTO 31006KT 10SM CLR 19/08 A2980 RMK AO2
BBP,2017-04-01 02:55,-79.7344,34.6217,66.20,46.40,48.83,300.00,11.00,0.00,29.81,M,10.00,14.00,CLR,M,M,M,M,M,M,M,M,KBBP 010255Z AUTO 30011G14KT 10SM CLR 19/08 A2981 RMK AO2
BBP,2017-04-01 03:15,-79.7344,34.6217,64.40,44.60,48.55,310.00,7.00,0.00,29.82,M,10.00,M,CLR,M,M,M,M,M,M,M,M,KBBP 010315Z AUTO 31007KT 10SM CLR 18/07 A2982 RMK AO2
BBP,2017-04-01 03:35,-79.7344,34.6217,62.60,46.40,55.37,280.00,6.00,0.00,29.82,M,10.00,M,CLR,M,M,M,M,M,M,M,M,KBBP 010335Z AUTO 28006KT 10SM CLR 17/08 A2982 RMK AO2
BBP,2017-04-01 03:55,-79.7344,34.6217,64.40,44.60,48.55,300.00,6.00,0.00,29.83,M,10.00,M,CLR,M,M,M,M,M,M,M,M,KBBP 010355Z AUTO 30006KT 10SM CLR 18/07 A2983 RMK AO2
BBP,2017-04-01 04:15,-79.7344,34.6217,60.80,46.40,59.01,300.00,4.00,0.00,29.83,M,10.00,M,CLR,M,M,M,M,M,M,M,M,KBBP 010415Z AUTO 30004KT 10SM CLR 16/08 A2983 RMK AO2
BBP,2017-04-01 04:35,-79.7344,34.6217,62.60,46.40,55.37,280.00,3.00,0.00,29.83,M,10.00,M,CLR,M,M,M,M,M,M,M,M,KBBP 010435Z AUTO 28003KT 10SM CLR 17/08 A2983 RMK AO2
BBP,2017-04-01 04:55,-79.7344,34.6217,60.80,46.40,59.01,290.00,4.00,0.00,29.84,M,10.00,M,CLR,M,M,M,M,M,M,M,M,KBBP 010455Z AUTO 29004KT 10SM CLR 16/08 A2984 RMK AO2
BBP,2017-04-01 05:15,-79.7344,34.6217,59.00,46.40,62.92,300.00,3.00,0.00,29.84,M,10.00,M,CLR,M,M,M,M,M,M,M,M,KBBP 010515Z AUTO 30003KT 10SM CLR 15/08 A2984 RMK AO2
BBP,2017-04-01 05:35,-79.7344,34.6217,60.80,46.40,59.01,280.00,4.00,0.00,29.84,M,10.00,M,CLR,M,M,M,M,M,M,M,M,KBBP 010535Z AUTO 28004KT 10SM CLR 16/08 A2984 RMK AO2
BBP,2017-04-01 05:55,-79.7344,34.6217,59.00,46.40,62.92,290.00,3.00,0.00,29.84,M,10.00,M,CLR,M,M,M,M,M,M,M,M,KBBP 010555Z AUTO 29003KT 10SM CLR 15/08 A2984 RMK AO2
BBP,2017-04-01 06:15,-79.7344,34.6217,57.20,46.40,67.12,0.00,0.00,0.00,29.84,M,10.00,M,CLR,M,M,M,M,M,M,M,M,KBBP 010615Z AUTO 00000KT 10SM CLR 14/08 A2984 RMK AO2
BBP,2017-04-01 06:35,-79.7344,34.6217,59.00,46.40,62.92,0.00,0.00,0.00,29.85,M,10.00,M,CLR,M,M,M,M,M,M,M,M,KBBP 010635Z AUTO 00000KT 10SM CLR 15/08 A2985 RMK AO2
BBP,2017-04-01 06:55,-79.7344,34.6217,53.60,46.40,76.50,290.00,3.00,0.00,29.85,M,10.00,M,CLR,M,M,M,M,M,M,M,M,KBBP 010655Z AUTO 29003KT 10SM CLR 12/08 A2985 RMK AO2
BBP,2017-04-01 07:15,-79.7344,34.6217,55.40,48.20,76.66,0.00,0.00,0.00,29.85,M,10.00,M,CLR,M,M,M,M,M,M,M,M,KBBP 010715Z AUTO 00000KT 10SM CLR 13/09 A2985 RMK AO2
BBP,2017-04-01 07:35,-79.7344,34.6217,51.80,46.40,81.74,290.00,3.00,0.00,29.85,M,10.00,M,CLR,M,M,M,M,M,M,M,M,KBBP 010735Z AUTO 29003KT 10SM CLR 11/08 A2985 RMK AO2
BBP,2017-04-01 07:55,-79.7344,34.6217,53.60,50.00,87.56,0.00,0.00,0.00,29.86,M,10.00,M,CLR,M,M,M,M,M,M,M,M,KBBP 010755Z AUTO 00000KT 10SM CLR 12/10 A2986 RMK AO2
BBP,2017-04-01 08:15,-79.7344,34.6217,53.60,48.20,81.87,0.00,0.00,0.00,29.86,M,10.00,M,CLR,M,M,M,M,M,M,M,M,KBBP 010815Z AUTO 00000KT 10SM CLR 12/09 A2986 RMK AO2
BBP,2017-04-01 08:35,-79.7344,34.6217,51.80,48.20,87.47,0.00,0.00,0.00,29.87,M,10.00,M,CLR,M,M,M,M,M,M,M,M,KBBP 010835Z AUTO 00000KT 10SM CLR 11/09 A2987 RMK AO2
BBP,2017-04-01 08:55,-79.7344,34.6217,51.80,48.20,87.47,0.00,0.00,0.00,29.88,M,10.00,M,CLR,M,M,M,M,M,M,M,M,KBBP 010855Z AUTO 00000KT 10SM CLR 11/09 A2988 RMK AO2
BBP,2017-04-01 09:15,-79.7344,34.6217,50.00,48.20,93.50,0.00,0.00,0.00,29.88,M,10.00,M,CLR,M,M,M,M,M,M,M,M,KBBP 010915Z AUTO 00000KT 10SM CLR 10/09 A2988 RMK AO2
BBP,2017-04-01 09:35,-79.7344,34.6217,51.80,48.20,87.47,0.00,0.00,0.00,29.88,M,10.00,M,CLR,M,M,M,M,M,M,M,M,KBBP 010935Z AUTO 00000KT 10SM CLR 11/09 A2988 RMK AO2
BBP,2017-04-01 09:55,-79.7344,34.6217,50.00,48.20,93.50,0.00,0.00,0.00,29.89,M,10.00,M,CLR,M,M,M,M,M,M,M,M,KBBP 010955Z AUTO 00000KT 10SM CLR 10/09 A2989 RMK AO2
BBP,2017-04-01 10:15,-79.7344,34.6217,50.00,48.20,93.50,290.00,3.00,0.00,29.89,M,10.00,M,CLR,M,M,M,M,M,M,M,M,KBBP 011015Z AUTO 29003KT 10SM CLR 10/09 A2989 RMK AO2
BBP,2017-04-01 10:35,-79.7344,34.6217,50.00,48.20,93.50,300.00,3.00,0.00,29.90,M,10.00,M,CLR,M,M,M,M,M,M,M,M,KBBP 011035Z AUTO 30003KT 10SM CLR 10/09 A2990 RMK AO2
BBP,2017-04-01 10:55,-79.7344,34.6217,46.40,46.40,100.00,0.00,0.00,0.00,29.90,M,10.00,M,CLR,M,M,M,M,M,M,M,M,KBBP 011055Z AUTO 00000KT 10SM CLR 08/08 A2990 RMK AO2
BBP,2017-04-01 11:15,-79.7344,34.6217,46.40,46.40,100.00,0.00,0.00,0.00,29.91,M,7.00,M,CLR,M,M,M,M,M,M,M,M,KBBP 011115Z AUTO 00000KT 7SM CLR 08/08 A2991 RMK AO2
BBP,2017-04-01 11:35,-79.7344,34.6217,48.20,46.40,93.45,300.00,3.00,0.00,29.92,M,10.00,M,CLR,M,M,M,M,M,M,M,M,KBBP 011135Z AUTO 30003KT 10SM CLR 09/08 A2992 RMK AO2
BBP,2017-04-01 11:55,-79.7344,34.6217,51.80,50.00,93.55,280.00,3.00,0.00,29.93,M,10.00,M,CLR,M,M,M,M,M,M,M,M,KBBP 011155Z AUTO 28003KT 10SM CLR 11/10 A2993 RMK AO2
BBP,2017-04-01 12:15,-79.7344,34.6217,53.60,51.80,93.60,290.00,3.00,0.00,29.93,M,10.00,M,CLR,M,M,M,M,M,M,M,M,KBBP 011215Z AUTO 29003KT 10SM CLR 12/11 A2993 RMK AO2
BBP,2017-04-01 12:35,-79.7344,34.6217,57.20,51.80,82.12,290.00,5.00,0.00,29.94,M,10.00,M,CLR,M,M,M,M,M,M,M,M,KBBP 011235Z AUTO 29005KT 10SM CLR 14/11 A2994 RMK AO2
BBP,2017-04-01 12:55,-79.7344,34.6217,59.00,51.80,76.98,300.00,3.00,0.00,29.95,M,10.00,M,CLR,M,M,M,M,M,M,M,M,KBBP 011255Z AUTO 30003KT 10SM CLR 15/11 A2995 RMK AO2
BBP,2017-04-01 13:15,-79.7344,34.6217,60.80,50.00,67.54,330.00,3.00,0.00,29.96,M,10.00,M,CLR,M,M,M,M,M,M,M,M,KBBP 011315Z AUTO 33003KT 10SM CLR 16/10 A2996 RMK AO2
BBP,2017-04-01 13:35,-79.7344,34.6217,62.60,51.80,67.75,280.00,3.00,0.00,29.97,M,10.00,M,CLR,M,M,M,M,M,M,M,M,KBBP 011335Z AUTO 28003KT 10SM CLR 17/11 A2997 RMK AO2
BBP,2017-04-01 13:55,-79.7344,34.6217,64.40,50.00,59.50,310.00,5.00,0.00,29.97,M,10.00,M,CLR,M,M,M,M,M,M,M,M,KBBP 011355Z AUTO 31005KT 10SM CLR 18/10 A2997 RMK AO2
BBP,2017-04-01 14:15,-79.7344,34.6217,64.40,50.00,59.50,330.00,8.00,0.00,29.97,M,10.00,15.00,CLR,M,M,M,M,M,M,M,M,KBBP 011415Z AUTO 33008G15KT 10SM CLR 18/10 A2997 RMK AO2
BBP,2017-04-01 14:35,-79.7344,34.6217,66.20,50.00,55.88,340.00,7.00,0.00,29.97,M,10.00,M,CLR,M,M,M,M,M,M,M,M,KBBP 011435Z AUTO 34007KT 10SM CLR 19/10 A2997 RMK AO2
BBP,2017-04-01 14:55,-79.7344,34.6217,68.00,50.00,52.51,320.00,5.00,0.00,29.98,M,10.00,M,CLR,M,M,M,M,M,M,M,M,KBBP 011455Z AUTO 32005KT 10SM CLR 20/10 A2998 RMK AO2
BBP,2017-04-01 15:15,-79.7344,34.6217,69.80,51.80,52.77,320.00,7.00,0.00,29.98,M,10.00,M,CLR,M,M,M,M,M,M,M,M,KBBP 011515Z AUTO 32007KT 10SM CLR 21/11 A2998 RMK AO2
BBP,2017-04-01 15:35,-79.7344,34.6217,69.80,50.00,49.37,320.00,5.00,0.00,29.98,M,10.00,M,CLR,M,M,M,M,M,M,M,M,KBBP 011535Z AUTO 32005KT 10SM CLR 21/10 A2998 RMK AO2
BBP,2017-04-01 15:55,-79.7344,34.6217,69.80,50.00,49.37,280.00,11.00,0.00,29.97,M,10.00,M,CLR,M,M,M,M,M,M,M,M,KBBP 011555Z AUTO 28011KT 10SM CLR 21/10 A2997 RMK AO2
BBP,2017-04-01 16:15,-79.7344,34.6217,69.80,51.80,52.77,290.00,5.00,0.00,29.97,M,10.00,M,CLR,M,M,M,M,M,M,M,M,KBBP 011615Z AUTO 29005KT 10SM CLR 21/11 A2997 RMK AO2
BBP,2017-04-01 16:35,-79.7344,34.6217,71.60,51.80,49.64,300.00,8.00,0.00,29.97,M,10.00,M,CLR,M,M,M,M,M,M,M,M,KBBP 011635Z AUTO 30008KT 10SM CLR 22/11 A2997 RMK AO2
BBP,2017-04-01 16:55,-79.7344,34.6217,71.60,51.80,49.64,320.00,8.00,0.00,29.96,M,10.00,M,CLR,M,M,M,M,M,M,M,M,KBBP 011655Z AUTO 32008KT 10SM CLR 22/11 A2996 RMK AO2
BBP,2017-04-01 17:15,-79.7344,34.6217,71.60,50.00,46.43,330.00,3.00,0.00,29.96,M,10.00,M,CLR,M,M,M,M,M,M,M,M,KBBP 011715Z AUTO 33003KT 10SM CLR 22/10 A2996 RMK AO2
BBP,2017-04-01 17:35,-79.7344,34.6217,73.40,51.80,46.71,300.00,8.00,0.00,29.96,M,10.00,14.00,CLR,M,M,M,M,M,M,M,M,KBBP 011735Z AUTO 30008G14KT 274V334 10SM CLR 23/11 A2996 RMK AO2
BBP,2017-04-01 17:55,-79.7344,34.6217,73.40,51.80,46.71,290.00,8.00,0.00,29.95,M,10.00,M,CLR,M,M,M,M,M,M,M,M,KBBP 011755Z AUTO 29008KT 10SM CLR 23/11 A2995 RMK AO2
BBP,2017-04-01 18:15,-79.7344,34.6217,75.20,51.80,43.97,290.00,8.00,0.00,29.95,M,10.00,M,CLR,M,M,M,M,M,M,M,M,KBBP 011815Z AUTO 29008KT 10SM CLR 24/11 A2995 RMK AO2
BBP,2017-04-01 18:35,-79.7344,34.6217,77.00,51.80,41.42,310.00,6.00,0.00,29.95,M,10.00,M,CLR,M,M,M,M,M,M,M,M,KBBP 011835Z AUTO 31006KT 10SM CLR 25/11 A2995 RMK AO2
BBP,2017-04-01 18:55,-79.7344,34.6217,77.00,50.00,38.74,280.00,7.00,0.00,29.94,M,10.00,15.00,CLR,M,M,M,M,M,M,M,M,KBBP 011855Z AUTO 28007G15KT 254V314 10SM CLR 25/10 A2994 RMK AO2
BBP,2017-04-01 19:15,-79.7344,34.6217,77.00,50.00,38.74,300.00,7.00,0.00,29.93,M,10.00,15.00,CLR,M,M,M,M,M,M,M,M,KBBP 011915Z AUTO 30007G15KT 10SM CLR 25/10 A2993 RMK AO2
BBP,2017-04-01 19:35,-79.7344,34.6217,77.00,50.00,38.74,310.00,8.00,0.00,29.93,M,10.00,M,CLR,M,M,M,M,M,M,M,M,KBBP 011935Z AUTO 31008KT 10SM CLR 25/10 A2993 RMK AO2
BBP,2017-04-01 19:55,-79.7344,34.6217,77.00,50.00,38.74,280.00,11.00,0.00,29.92,M,10.00,M,CLR,M,M,M,M,M,M,M,M,KBBP 011955Z AUTO 28011KT 10SM CLR 25/10 A2992 RMK AO2
BBP,2017-04-01 20:15,-79.7344,34.6217,78.80,50.00,36.51,330.00,8.00,0.00,29.92,M,10.00,M,CLR,M,M,M,M,M,M,M,M,KBBP 012015Z AUTO 33008KT 10SM CLR 26/10 A2992 RMK AO2
BBP,2017-04-01 20:35,-79.7344,34.6217,77.00,50.00,38.74,270.00,7.00,0.00,29.92,M,10.00,M,CLR,M,M,M,M,M,M,M,M,KBBP 012035Z AUTO 27007KT 10SM CLR 25/10 A2992 RMK AO2
BBP,2017-04-01 21:15,-79.7344,34.6217,77.00,48.20,36.22,280.00,5.00,0.00,29.93,M,10.00,M,CLR,M,M,M,M,M,M,M,M,KBBP 012115Z AUTO 28005KT 10SM CLR 25/09 A2993 RMK AO2
BBP,2017-04-01 21:35,-79.7344,34.6217,77.00,46.40,33.85,300.00,6.00,0.00,29.93,M,10.00,M,CLR,M,M,M,M,M,M,M,M,KBBP 012135Z AUTO 30006KT 10SM CLR 25/08 A2993 RMK AO2
BBP,2017-04-01 21:55,-79.7344,34.6217,77.00,50.00,38.74,310.00,5.00,0.00,29.93,M,10.00,M,CLR,M,M,M,M,M,M,M,M,KBBP 012155Z AUTO 31005KT 10SM CLR 25/10 A2993 RMK AO2
BBP,2017-04-01 22:15,-79.7344,34.6217,77.00,48.20,36.22,300.00,6.00,0.00,29.94,M,10.00,M,CLR,M,M,M,M,M,M,M,M,KBBP 012215Z AUTO 30006KT 10SM CLR 25/09 A2994 RMK AO2
BBP,2017-04-01 22:35,-79.7344,34.6217,75.20,50.00,41.14,320.00,8.00,0.00,29.95,M,10.00,M,CLR,M,M,M,M,M,M,M,M,KBBP 012235Z AUTO 32008KT 10SM CLR 24/10 A2995 RMK AO2
BBP,2017-04-01 22:55,-79.7344,34.6217,73.40,50.00,43.69,310.00,5.00,0.00,29.96,M,10.00,M,CLR,M,M,M,M,M,M,M,M,KBBP 012255Z AUTO 31005KT 10SM CLR 23/10 A2996 RMK AO2
BBP,2017-04-01 23:15,-79.7344,34.6217,71.60,48.20,43.42,320.00,6.00,0.00,29.96,M,10.00,M,CLR,M,M,M,M,M,M,M,M,KBBP 012315Z AUTO 32006KT 10SM CLR 22/09 A2996 RMK AO2
BBP,2017-04-01 23:35,-79.7344,34.6217,69.80,50.00,49.37,320.00,6.00,0.00,29.97,M,10.00,M,CLR,M,M,M,M,M,M,M,M,KBBP 012335Z AUTO 32006KT 10SM CLR 21/10 A2997 RMK AO2
BBP,2017-04-01 23:55,-79.7344,34.6217,68.00,50.00,52.51,320.00,5.00,0.00,29.98,M,10.00,M,CLR,M,M,M,M,M,M,M,M,KBBP 012355Z AUTO 32005KT 10SM CLR 20/10 A2998 RMK AO2
