#DEBUG: Format Typ    -> comma
#DEBUG: Time Period   -> 2017-04-01 00:00:00+00:00 2017-04-02 00:00:00+00:00
#DEBUG: Time Zone     -> Etc/UTC
#DEBUG: Data Contact   -> daryl herzmann akrherz@iastate.edu 515-294-5978
#DEBUG: Entries Found -> -1
station,valid,lon,lat,tmpf, dwpf, relh, drct, sknt, p01i, alti, mslp, vsby, gust, skyc1, skyc2, skyc3, skyc4, skyl1, skyl2, skyl3, skyl4, presentwx, metar
BDL,2017-04-01 00:00,-72.6825,41.9381,M,M,M,20.00,8.00,0.01,29.96,M,5.00,M,FEW,BKN,OVC,M,999.00,1900.00,2500.00,M,RA BR,KBDL 010000Z AUTO 02008KT 5SM RA BR FEW009 BKN019 OVC025 A2996 RMK P0001 MADISHF
BDL,2017-04-01 00:04,-72.6825,41.9381,33.10,32.00,95.67,30.00,9.00,0.02,29.96,M,4.00,M,FEW,BKN,OVC,M,600.00,1900.00,2500.00,M,PLRA BR,KBDL 010004Z 03009KT 4SM PLRA BR FEW006 BKN019 OVC025 01/00 A2996 RMK AO2 PLB03 P0002 T00060000
BDL,2017-04-01 00:05,-72.6825,41.9381,M,M,M,30.00,9.00,0.02,29.96,M,4.00,M,FEW,BKN,OVC,M,600.00,1900.00,2500.00,M,RA PL BR,KBDL 010005Z AUTO 03009KT 4SM RA PL BR FEW006 BKN019 OVC025 A2996 RMK P0002 MADISHF
BDL,2017-04-01 00:10,-72.6825,41.9381,M,M,M,30.00,7.00,0.03,29.96,M,3.00,M,BKN,OVC,M,M,1400.00,2200.00,M,M,RA PL BR,KBDL 010010Z AUTO 03007KT 3SM RA PL BR BKN014 OVC022 A2996 RMK P0003 MADISHF
BDL,2017-04-01 00:15,-72.6825,41.9381,M,M,M,30.00,8.00,0.04,29.96,M,3.00,M,BKN,OVC,M,M,1500.00,2200.00,M,M,RA PL BR,KBDL 010015Z AUTO 03008KT 3SM RA PL BR BKN015 OVC022 A2996 RMK P0004 MADISHF
BDL,2017-04-01 00:20,-72.6825,41.9381,M,M,M,30.00,9.00,0.04,29.96,M,3.00,M,BKN,OVC,M,M,1500.00,2200.00,M,M,RA PL BR,KBDL 010020Z AUTO 03009KT 3SM RA PL BR BKN015 OVC022 A2996 RMK P0004 MADISHF
BDL,2017-04-01 00:25,-72.6825,41.9381,M,M,M,30.00,7.00,0.05,29.96,M,3.00,M,BKN,OVC,M,M,1500.00,2200.00,M,M,RA PL BR,KBDL 010025Z AUTO 03007KT 3SM RA PL BR BKN015 OVC022 A2996 RMK P0005 MADISHF
BDL,2017-04-01 00:30,-72.6825,41.9381,M,M,M,30.00,8.00,0.06,29.96,M,3.00,M,BKN,OVC,M,M,1500.00,2200.00,M,M,RA PL BR,KBDL 010030Z AUTO 03008KT 3SM RA PL BR BKN015 OVC022 A2996 RMK P0006 MADISHF
BDL,2017-04-01 00:35,-72.6825,41.9381,M,M,M,20.00,6.00,0.07,29.96,M,3.00,M,BKN,OVC,M,M,1500.00,2200.00,M,M,RA PL BR,KBDL 010035Z AUTO 02006KT 3SM RA PL BR BKN015 OVC022 A2996 RMK P0007 MADISHF
BDL,2017-04-01 00:40,-72.6825,41.9381,M,M,M,20.00,7.00,0.07,29.96,M,3.50,M,BKN,OVC,M,M,1500.00,2200.00,M,M,RA PL BR,KBDL 010040Z AUTO 02007KT 3SM RA PL BR BKN015 OVC022 A2996 RMK P0007 MADISHF
BDL,2017-04-01 00:45,-72.6825,41.9381,M,M,M,20.00,7.00,0.08,29.95,M,3.50,M,BKN,OVC,M,M,1500.00,2200.00,M,M,RA PL BR,KBDL 010045Z AUTO 02007KT 3SM RA PL BR BKN015 OVC022 A2995 RMK P0008 MADISHF
BDL,2017-04-01 00:50,-72.6825,41.9381,M,M,M,20.00,8.00,0.09,29.95,M,3.50,M,FEW,SCT,OVC,M,400.00,1800.00,2400.00,M,RA PL BR,KBDL 010050Z AUTO 02008KT 3SM RA PL BR FEW004 SCT018 OVC024 A2995 RMK P0009 MADISHF
BDL,2017-04-01 00:51,-72.6825,41.9381,33.10,32.00,95.67,20.00,8.00,0.09,29.95,1014.50,3.00,M,FEW,SCT,OVC,M,400.00,1800.00,2400.00,M,PLRA BR,KBDL 010051Z 02008KT 3SM PLRA BR FEW004 SCT018 OVC024 01/00 A2995 RMK AO2 PLB03 SLP145 P0009 T00060000
BDL,2017-04-01 00:55,-72.6825,41.9381,M,M,M,20.00,7.00,M,29.95,M,3.50,M,SCT,OVC,M,M,1800.00,2400.00,M,M,RA PL BR,KBDL 010055Z AUTO 02007KT 3SM RA PL BR SCT018 OVC024 A2995 RMK MADISHF
BDL,2017-04-01 01:00,-72.6825,41.9381,M,M,M,20.00,8.00,0.01,29.95,M,4.00,M,FEW,BKN,OVC,M,400.00,1699.00,2400.00,M,-RA PL BR,KBDL 010100Z AUTO 02008KT 4SM -RA PL BR FEW004 BKN016 OVC024 A2995 RMK P0001 MADISHF
BDL,2017-04-01 01:05,-72.6825,41.9381,M,M,M,30.00,8.00,0.02,29.95,M,3.50,M,FEW,BKN,OVC,M,400.00,1900.00,2400.00,M,RA PL BR,KBDL 010105Z AUTO 03008KT 3SM RA PL BR FEW004 BKN019 OVC024 A2995 RMK P0002 MADISHF
BDL,2017-04-01 01:10,-72.6825,41.9381,M,M,M,30.00,9.00,0.02,29.94,M,4.00,M,FEW,SCT,OVC,M,400.00,1900.00,2400.00,M,-RA PL BR,KBDL 010110Z AUTO 03009KT 4SM -RA PL BR FEW004 SCT019 OVC024 A2994 RMK P0002 MADISHF
BDL,2017-04-01 01:15,-72.6825,41.9381,M,M,M,20.00,9.00,0.03,29.94,M,3.50,M,FEW,SCT,OVC,M,400.00,1500.00,2200.00,M,RA PL BR,KBDL 010115Z AUTO 02009KT 3SM RA PL BR FEW004 SCT015 OVC022 A2994 RMK P0003 MADISHF
BDL,2017-04-01 01:20,-72.6825,41.9381,M,M,M,20.00,8.00,0.03,29.94,M,3.00,M,FEW,BKN,OVC,M,400.00,1699.00,2400.00,M,RA PL BR,KBDL 010120Z AUTO 02008KT 3SM RA PL BR FEW004 BKN016 OVC024 A2994 RMK P0003 MADISHF
BDL,2017-04-01 01:23,-72.6825,41.9381,33.10,32.00,95.67,20.00,8.00,0.04,29.94,M,2.50,M,FEW,BKN,OVC,M,400.00,1200.00,2400.00,M,PLRA BR,KBDL 010123Z 02008KT 2 1/2SM PLRA BR FEW004 BKN012 OVC024 01/00 A2994 RMK AO2 SFC VIS 3 P0004 T00060000
BDL,2017-04-01 01:25,-72.6825,41.9381,M,M,M,30.00,8.00,0.04,29.94,M,3.00,M,FEW,BKN,OVC,M,600.00,1200.00,2400.00,M,RA PL BR,KBDL 010125Z AUTO 03008KT 3SM RA PL BR FEW006 BKN012 OVC024 A2994 RMK P0004 MADISHF
BDL,2017-04-01 01:30,-72.6825,41.9381,M,M,M,30.00,8.00,0.05,29.93,M,3.00,M,SCT,BKN,OVC,M,400.00,1200.00,2500.00,M,RA PL BR,KBDL 010130Z AUTO 03008KT 3SM RA PL BR SCT004 BKN012 OVC025 A2993 RMK P0005 MADISHF
BDL,2017-04-01 01:35,-72.6825,41.9381,M,M,M,20.00,11.00,0.06,29.93,M,3.00,M,SCT,BKN,OVC,M,400.00,999.00,2300.00,M,RA PL BR,KBDL 010135Z AUTO 02011KT 3SM RA PL BR SCT004 BKN009 OVC023 A2993 RMK P0006 MADISHF
BDL,2017-04-01 01:40,-72.6825,41.9381,M,M,M,20.00,10.00,0.07,29.93,M,3.00,M,SCT,BKN,OVC,M,400.00,999.00,2200.00,M,RA PL BR,KBDL 010140Z AUTO 02010KT 3SM RA PL BR SCT004 BKN009 OVC022 A2993 RMK P0007 MADISHF
BDL,2017-04-01 01:45,-72.6825,41.9381,M,M,M,30.00,10.00,0.08,29.93,M,3.00,M,BKN,BKN,OVC,M,600.00,999.00,1999.00,M,RA PL BR,KBDL 010145Z AUTO 03010KT 3SM RA PL BR BKN006 BKN009 OVC019 A2993 RMK P0008 MADISHF
BDL,2017-04-01 01:47,-72.6825,41.9381,33.80,32.00,93.03,30.00,10.00,0.09,29.93,M,2.50,M,BKN,BKN,OVC,M,600.00,1100.00,2300.00,M,PLRA BR,KBDL 010147Z 03010KT 2 1/2SM PLRA BR BKN006 BKN011 OVC023 01/00 A2993 RMK AO2 SFC VIS 3 P0009
BDL,2017-04-01 01:50,-72.6825,41.9381,M,M,M,20.00,10.00,0.09,29.93,M,3.00,M,BKN,BKN,OVC,M,600.00,1100.00,1999.00,M,RA PL BR,KBDL 010150Z AUTO 02010KT 3SM RA PL BR BKN006 BKN011 OVC019 A2993 RMK P0009 MADISHF
BDL,2017-04-01 01:51,-72.6825,41.9381,33.10,32.00,95.67,20.00,11.00,0.10,29.93,1013.50,2.50,M,BKN,BKN,OVC,M,600.00,1100.00,2300.00,M,PLRA BR,KBDL 010151Z 02011KT 2 1/2SM PLRA BR BKN006 BKN011 OVC023 01/00 A2993 RMK AO2 SFC VIS 3 SLP135 P0010 T00060000
BDL,2017-04-01 01:55,-72.6825,41.9381,M,M,M,20.00,9.00,M,29.92,M,3.00,M,FEW,BKN,OVC,M,400.00,900.00,2300.00,M,RA PL BR,KBDL 010155Z AUTO 02009KT 3SM RA PL BR FEW004 BKN009 OVC023 A2992 RMK MADISHF
BDL,2017-04-01 02:00,-72.6825,41.9381,M,M,M,30.00,8.00,0.01,29.92,M,3.50,M,SCT,BKN,OVC,M,600.00,900.00,2200.00,M,RA PL BR,KBDL 010200Z AUTO 03008KT 3SM RA PL BR SCT006 BKN009 OVC022 A2992 RMK P0001 MADISHF
BDL,2017-04-01 02:05,-72.6825,41.9381,M,M,M,30.00,9.00,0.02,29.92,M,4.00,M,FEW,SCT,OVC,M,600.00,999.00,1999.00,M,RA PL BR,KBDL 010205Z AUTO 03009KT 4SM RA PL BR FEW006 SCT009 OVC019 A2992 RMK P0002 MADISHF
BDL,2017-04-01 02:07,-72.6825,41.9381,33.10,32.00,95.67,30.00,8.00,0.02,29.92,M,2.50,M,FEW,BKN,OVC,M,600.00,1600.00,2400.00,M,PLRA BR,KBDL 010207Z 03008KT 2 1/2SM PLRA BR FEW006 BKN016 OVC024 01/00 A2992 RMK AO2 SFC VIS 4 P0002 T00060000
BDL,2017-04-01 02:10,-72.6825,41.9381,M,M,M,20.00,9.00,0.03,29.92,M,4.00,M,FEW,BKN,OVC,M,600.00,1600.00,2200.00,M,RA PL BR,KBDL 010210Z AUTO 02009KT 4SM RA PL BR FEW006 BKN016 OVC022 A2992 RMK P0003 MADISHF
BDL,2017-04-01 02:15,-72.6825,41.9381,M,M,M,20.00,8.00,0.04,29.92,M,4.00,M,FEW,BKN,OVC,M,600.00,1600.00,2200.00,M,RA PL BR,KBDL 010215Z AUTO 02008KT 4SM RA PL BR FEW006 BKN016 OVC022 A2992 RMK P0004 MADISHF
BDL,2017-04-01 02:20,-72.6825,41.9381,M,M,M,30.00,8.00,0.04,29.91,M,4.00,M,SCT,BKN,OVC,M,600.00,1600.00,2200.00,M,RA PL BR,KBDL 010220Z AUTO 03008KT 4SM RA PL BR SCT006 BKN016 OVC022 A2991 RMK P0004 MADISHF
BDL,2017-04-01 02:25,-72.6825,41.9381,M,M,M,20.00,7.00,0.05,29.91,M,3.50,M,SCT,BKN,OVC,M,600.00,1600.00,2200.00,M,-RA PL BR,KBDL 010225Z AUTO 02007KT 3SM -RA PL BR SCT006 BKN016 OVC022 A2991 RMK P0005 MADISHF
BDL,2017-04-01 02:30,-72.6825,41.9381,M,M,M,20.00,8.00,0.05,29.91,M,3.50,M,SCT,BKN,OVC,M,600.00,1600.00,2200.00,M,-RA PL BR,KBDL 010230Z AUTO 02008KT 3SM -RA PL BR SCT006 BKN016 OVC022 A2991 RMK P0005 MADISHF
BDL,2017-04-01 02:35,-72.6825,41.9381,M,M,M,20.00,9.00,0.06,29.91,M,3.00,M,SCT,BKN,OVC,M,600.00,1600.00,2200.00,M,-RA PL BR,KBDL 010235Z AUTO 02009KT 3SM -RA PL BR SCT006 BKN016 OVC022 A2991 RMK P0006 MADISHF
BDL,2017-04-01 02:40,-72.6825,41.9381,M,M,M,20.00,7.00,0.06,29.91,M,3.00,M,SCT,BKN,OVC,M,600.00,1600.00,2200.00,M,-RA PL BR,KBDL 010240Z AUTO 02007KT 3SM -RA PL BR SCT006 BKN016 OVC022 A2991 RMK P0006 MADISHF
BDL,2017-04-01 02:45,-72.6825,41.9381,M,M,M,20.00,9.00,0.06,29.90,M,2.50,M,SCT,BKN,OVC,M,600.00,1600.00,2200.00,M,RA PL BR,KBDL 010245Z AUTO 02009KT 2 1/2SM RA PL BR SCT006 BKN016 OVC022 A2990 RMK P0006 MADISHF
BDL,2017-04-01 02:50,-72.6825,41.9381,M,M,M,20.00,7.00,0.07,29.90,M,2.50,M,SCT,BKN,OVC,M,600.00,1200.00,1800.00,M,RA PL BR,KBDL 010250Z AUTO 02007KT 2 1/2SM RA PL BR SCT006 BKN012 OVC018 A2990 RMK P0007 MADISHF
BDL,2017-04-01 02:51,-72.6825,41.9381,33.10,32.00,95.67,20.00,6.00,0.07,29.90,1012.60,2.50,M,BKN,BKN,OVC,M,600.00,1200.00,1800.00,M,PLRA BR,KBDL 010251Z 02006KT 2 1/2SM PLRA BR BKN006 BKN012 OVC018 01/00 A2990 RMK AO2 SLP126 P0007 60026 T00060000 56018
BDL,2017-04-01 02:55,-72.6825,41.9381,M,M,M,20.00,8.00,0.01,29.90,M,2.00,M,BKN,BKN,OVC,M,499.00,1200.00,1800.00,M,RA PL BR,KBDL 010255Z AUTO 02008KT 2SM RA PL BR BKN004 BKN012 OVC018 A2990 RMK P0001 MADISHF
BDL,2017-04-01 03:00,-72.6825,41.9381,M,M,M,30.00,8.00,0.02,29.89,M,2.00,M,BKN,OVC,M,M,499.00,1600.00,M,M,RA PL BR,KBDL 010300Z AUTO 03008KT 2SM RA PL BR BKN004 OVC016 A2989 RMK P0002 MADISHF
BDL,2017-04-01 03:05,-72.6825,41.9381,M,M,M,30.00,8.00,0.03,29.89,M,2.00,M,SCT,BKN,OVC,M,499.00,1300.00,1800.00,M,RA PL BR,KBDL 010305Z AUTO 03008KT 2SM RA PL BR SCT004 BKN013 OVC018 A2989 RMK P0003 MADISHF
BDL,2017-04-01 03:10,-72.6825,41.9381,M,M,M,30.00,8.00,0.03,29.88,M,2.50,M,SCT,BKN,OVC,M,499.00,1100.00,1800.00,M,-RA PL BR,KBDL 010310Z AUTO 03008KT 2 1/2SM -RA PL BR SCT004 BKN011 OVC018 A2988 RMK P0003 MADISHF
BDL,2017-04-01 03:11,-72.6825,41.9381,33.10,32.00,95.67,30.00,8.00,0.03,29.88,M,2.50,M,SCT,BKN,OVC,M,500.00,1100.00,1800.00,M,PLRA BR,KBDL 010311Z 03008KT 2 1/2SM PLRA BR SCT005 BKN011 OVC018 01/00 A2988 RMK AO2 P0003 T00060000
BDL,2017-04-01 03:15,-72.6825,41.9381,M,M,M,30.00,8.00,0.04,29.88,M,2.50,M,SCT,BKN,OVC,M,499.00,1100.00,1800.00,M,-RA PL BR,KBDL 010315Z AUTO 03008KT 2 1/2SM -RA PL BR SCT004 BKN011 OVC018 A2988 RMK P0004 MADISHF
BDL,2017-04-01 03:20,-72.6825,41.9381,M,M,M,20.00,8.00,0.04,29.88,M,2.50,M,BKN,BKN,OVC,M,499.00,1100.00,1800.00,M,-RA PL BR,KBDL 010320Z AUTO 02008KT 2 1/2SM -RA PL BR BKN004 BKN011 OVC018 A2988 RMK P0004 MADISHF
BDL,2017-04-01 03:25,-72.6825,41.9381,33.10,32.00,95.67,20.00,9.00,0.05,29.88,M,2.50,M,BKN,BKN,OVC,M,500.00,1100.00,1800.00,M,BR,KBDL 010325Z 02009KT 2 1/2SM BR BKN005 BKN011 OVC018 01/00 A2988 RMK AO2 RAE24UPB24E25PLE25 P0005 T00060000
BDL,2017-04-01 03:30,-72.6825,41.9381,M,M,M,20.00,8.00,0.05,29.87,M,2.50,M,BKN,BKN,OVC,M,499.00,900.00,1999.00,M,BR,KBDL 010330Z AUTO 02008KT 2 1/2SM BR BKN004 BKN009 OVC019 A2987 RMK P0005 MADISHF
BDL,2017-04-01 03:35,-72.6825,41.9381,M,M,M,20.00,9.00,0.05,29.87,M,2.50,M,BKN,BKN,OVC,M,400.00,900.00,1600.00,M,-RA BR,KBDL 010335Z AUTO 02009KT 2 1/2SM -RA BR BKN004 BKN009 OVC016 A2987 RMK P0005 MADISHF
BDL,2017-04-01 03:40,-72.6825,41.9381,33.10,32.00,95.67,20.00,8.00,0.06,29.87,M,2.50,M,BKN,OVC,M,M,500.00,1600.00,M,M,-RA BR,KBDL 010340Z 02008KT 2 1/2SM -RA BR BKN005 OVC016 01/00 A2987 RMK AO2 SFC VIS 3 RAE24B32UPB24E25PLE25 P0006 T00060000
BDL,2017-04-01 03:45,-72.6825,41.9381,M,M,M,20.00,8.00,0.06,29.87,M,4.00,M,BKN,BKN,OVC,M,499.00,999.00,1999.00,M,-RA BR,KBDL 010345Z AUTO 02008KT 4SM -RA BR BKN004 BKN009 OVC019 A2987 RMK P0006 MADISHF
BDL,2017-04-01 03:50,-72.6825,41.9381,M,M,M,20.00,9.00,0.06,29.86,M,4.00,M,BKN,OVC,M,M,400.00,1999.00,M,M,-RA BR,KBDL 010350Z AUTO 02009KT 4SM -RA BR BKN004 OVC019 A2986 RMK P0006 MADISHF
BDL,2017-04-01 03:51,-72.6825,41.9381,33.10,32.00,95.67,20.00,8.00,0.06,29.86,1011.30,2.50,M,BKN,OVC,M,M,400.00,2000.00,M,M,-RA BR,KBDL 010351Z 02008KT 2 1/2SM -RA BR BKN004 OVC020 01/00 A2986 RMK AO2 SFC VIS 4 RAE24B32UPB24E25PLE25 SLP113 P0006 T00060000
BDL,2017-04-01 03:55,-72.6825,41.9381,M,M,M,10.00,9.00,M,29.86,M,3.00,M,BKN,OVC,M,M,400.00,1999.00,M,M,-RA BR,KBDL 010355Z AUTO 01009KT 3SM -RA BR BKN004 OVC019 A2986 RMK MADISHF
BDL,2017-04-01 04:00,-72.6825,41.9381,M,M,M,20.00,9.00,0.01,29.86,M,2.50,M,SCT,OVC,M,M,400.00,1800.00,M,M,BR,KBDL 010400Z AUTO 02009KT 2 1/2SM BR SCT004 OVC018 A2986 RMK P0001 MADISHF
BDL,2017-04-01 04:03,-72.6825,41.9381,33.10,32.00,95.67,20.00,8.00,0.01,29.86,M,2.00,M,SCT,OVC,M,M,400.00,1800.00,M,M,-RA BR,KBDL 010403Z 02008KT 2SM -RA BR SCT004 OVC018 01/00 A2986 RMK AO2 TWR VIS 2 1/2 UPB0358E00 P0001 T00060000
BDL,2017-04-01 04:05,-72.6825,41.9381,M,M,M,10.00,7.00,0.01,29.86,M,2.00,M,BKN,OVC,M,M,400.00,1800.00,M,M,-RA BR,KBDL 010405Z AUTO 01007KT 2SM -RA BR BKN004 OVC018 A2986 RMK P0001 MADISHF
BDL,2017-04-01 04:08,-72.6825,41.9381,33.10,32.00,95.67,10.00,7.00,0.01,29.86,M,1.75,M,BKN,BKN,OVC,M,400.00,1300.00,2000.00,M,-SN BR,KBDL 010408Z 01007KT 1 3/4SM -SN BR BKN004 BKN013 OVC020 01/00 A2986 RMK AO2 TWR VIS 2 1/2 RAE08UPB0358E00SNB08 P0001 I1000 T00060000
BDL,2017-04-01 04:10,-72.6825,41.9381,M,M,M,10.00,6.00,0.02,29.86,M,1.50,M,BKN,OVC,M,M,400.00,1800.00,M,M,-SN BR,KBDL 010410Z AUTO 01006KT 1 1/2SM -SN BR BKN004 OVC018 A2986 RMK P0002 MADISHF
BDL,2017-04-01 04:15,-72.6825,41.9381,M,M,M,10.00,8.00,0.02,29.86,M,1.50,M,BKN,BKN,OVC,M,400.00,1400.00,1999.00,M,-SN BR,KBDL 010415Z AUTO 01008KT 1 1/2SM -SN BR BKN004 BKN014 OVC019 A2986 RMK P0002 MADISHF
BDL,2017-04-01 04:20,-72.6825,41.9381,M,M,M,10.00,7.00,0.02,29.86,M,1.25,M,BKN,BKN,OVC,M,400.00,999.00,1999.00,M,-SN BR,KBDL 010420Z AUTO 01007KT 1 1/2SM -SN BR BKN004 BKN009 OVC019 A2986 RMK P0002 MADISHF
BDL,2017-04-01 04:25,-72.6825,41.9381,M,M,M,20.00,9.00,0.04,29.86,M,1.25,M,BKN,OVC,M,M,400.00,999.00,M,M,-SN BR,KBDL 010425Z AUTO 02009KT 1 1/2SM -SN BR BKN004 OVC009 A2986 RMK P0004 MADISHF
BDL,2017-04-01 04:30,-72.6825,41.9381,33.10,32.00,95.67,20.00,8.00,0.05,29.86,M,1.00,M,BKN,OVC,M,M,400.00,1000.00,M,M,PL BR,KBDL 010430Z 02008KT 1SM R06/P6000FT PL BR BKN004 OVC010 01/00 A2986 RMK AO2 TWR VIS 2 1/2 RAE08B28E29UPB0358E00SNB08E28PLB29 P0005 I1000 T00060000
BDL,2017-04-01 04:35,-72.6825,41.9381,M,M,M,20.00,8.00,0.06,29.85,M,1.25,M,BKN,BKN,OVC,M,499.00,999.00,1600.00,M,BR,KBDL 010435Z AUTO 02008KT 1 1/2SM BR BKN004 BKN009 OVC016 A2985 RMK P0006 MADISHF
BDL,2017-04-01 04:40,-72.6825,41.9381,M,M,M,20.00,8.00,0.06,29.85,M,1.75,M,BKN,OVC,M,M,400.00,999.00,M,M,BR,KBDL 010440Z AUTO 02008KT 2SM BR BKN004 OVC009 A2985 RMK P0006 MADISHF
BDL,2017-04-01 04:43,-72.6825,41.9381,33.10,32.00,95.67,10.00,7.00,0.07,29.85,M,2.00,M,BKN,BKN,OVC,M,400.00,1000.00,1500.00,M,PL BR,KBDL 010443Z 01007KT 2SM PL BR BKN004 BKN010 OVC015 01/00 A2985 RMK AO2 TWR VIS 2 1/2 RAE08B28E29UPB0358E00SNB08E28PLB29 P0007 I1000 T00060000
BDL,2017-04-01 04:45,-72.6825,41.9381,M,M,M,10.00,8.00,0.07,29.85,M,2.00,M,BKN,BKN,OVC,M,400.00,999.00,1699.00,M,BR,KBDL 010445Z AUTO 01008KT 2SM BR BKN004 BKN009 OVC016 A2985 RMK P0007 MADISHF
BDL,2017-04-01 04:50,-72.6825,41.9381,M,M,M,10.00,8.00,0.08,29.85,M,2.50,M,BKN,BKN,OVC,M,400.00,800.00,2200.00,M,BR,KBDL 010450Z AUTO 01008KT 2 1/2SM BR BKN004 BKN008 OVC022 A2985 RMK P0008 MADISHF
BDL,2017-04-01 04:51,-72.6825,41.9381,33.10,32.00,95.67,10.00,7.00,0.08,29.85,1010.80,2.50,M,BKN,BKN,OVC,M,400.00,1100.00,2000.00,M,PL BR,KBDL 010451Z 01007KT 2 1/2SM PL BR BKN004 BKN011 OVC020 01/00 A2985 RMK AO2 RAE08B28E29UPB0358E00SNB08E28PLB29 SLP108 P0008 I1000 T00060000 400440006
BDL,2017-04-01 04:55,-72.6825,41.9381,M,M,M,10.00,8.00,M,29.85,M,2.00,M,BKN,OVC,M,M,400.00,1999.00,M,M,BR,KBDL 010455Z AUTO 01008KT 2SM BR BKN004 OVC019 A2985 RMK MADISHF
BDL,2017-04-01 05:00,-72.6825,41.9381,33.10,32.00,95.67,20.00,8.00,0.01,29.84,M,2.50,M,BKN,OVC,M,M,500.00,2000.00,M,M,PL BR,KBDL 010500Z 02008KT 2 1/2SM PL BR BKN005 OVC020 01/00 A2984 RMK AO2 P0001 T00060000
BDL,2017-04-01 05:05,-72.6825,41.9381,M,M,M,10.00,8.00,0.01,29.84,M,2.50,M,BKN,BKN,OVC,M,499.00,800.00,1999.00,M,BR,KBDL 010505Z AUTO 01008KT 2 1/2SM BR BKN004 BKN008 OVC019 A2984 RMK P0001 MADISHF
BDL,2017-04-01 05:10,-72.6825,41.9381,M,M,M,10.00,8.00,0.02,29.84,M,1.50,M,BKN,BKN,OVC,M,400.00,800.00,2100.00,M,BR,KBDL 010510Z AUTO 01008KT 1 1/2SM BR BKN004 BKN008 OVC021 A2984 RMK P0002 MADISHF
BDL,2017-04-01 05:13,-72.6825,41.9381,33.10,32.00,95.67,20.00,7.00,0.02,29.84,M,1.50,M,BKN,OVC,M,M,400.00,800.00,M,M,PL BR,KBDL 010513Z 02007KT 1 1/2SM PL BR BKN004 OVC008 01/00 A2984 RMK AO2 TWR VIS 2 1/2 P0002 I1001 T00060000
BDL,2017-04-01 05:15,-72.6825,41.9381,M,M,M,20.00,8.00,0.02,29.84,M,1.50,M,BKN,OVC,M,M,400.00,800.00,M,M,BR,KBDL 010515Z AUTO 02008KT 1 1/2SM BR BKN004 OVC008 A2984 RMK P0002 MADISHF
BDL,2017-04-01 05:20,-72.6825,41.9381,M,M,M,10.00,9.00,0.03,29.84,M,1.50,M,OVC,M,M,M,400.00,M,M,M,BR,KBDL 010520Z AUTO 01009KT 1 1/2SM BR OVC004 A2984 RMK P0003 MADISHF
BDL,2017-04-01 05:25,-72.6825,41.9381,M,M,M,10.00,10.00,0.03,29.84,M,1.50,M,BKN,OVC,M,M,400.00,900.00,M,M,BR,KBDL 010525Z AUTO 01010KT 1 1/2SM BR BKN004 OVC009 A2984 RMK P0003 MADISHF
BDL,2017-04-01 05:30,-72.6825,41.9381,33.10,32.00,95.67,360.00,9.00,0.04,29.83,M,1.50,M,BKN,OVC,M,M,400.00,1100.00,M,M,+PL BR,KBDL 010530Z 36009KT 1 1/2SM +PL BR BKN004 OVC011 01/00 A2983 RMK AO2 TWR VIS 2 1/2 P0004 I1003 T00060000
BDL,2017-04-01 05:35,-72.6825,41.9381,M,M,M,360.00,10.00,0.04,29.83,M,1.50,M,BKN,OVC,M,M,400.00,1100.00,M,M,+PL BR,KBDL 010535Z AUTO 36010KT 1 1/2SM +PL BR BKN004 OVC011 A2983 RMK P0004 MADISHF
BDL,2017-04-01 05:40,-72.6825,41.9381,M,M,M,10.00,9.00,0.04,29.83,M,1.50,M,BKN,OVC,M,M,400.00,1100.00,M,M,+PL BR,KBDL 010540Z AUTO 01009KT 1 1/2SM +PL BR BKN004 OVC011 A2983 RMK P0004 MADISHF
BDL,2017-04-01 05:45,-72.6825,41.9381,M,M,M,10.00,11.00,0.05,29.83,M,1.75,M,BKN,OVC,M,M,400.00,1100.00,M,M,+PL BR,KBDL 010545Z AUTO 01011KT 2SM +PL BR BKN004 OVC011 A2983 RMK P0005 MADISHF
BDL,2017-04-01 05:50,-72.6825,41.9381,M,M,M,10.00,11.00,0.05,29.83,M,1.75,M,BKN,OVC,M,M,400.00,1100.00,M,M,+PL BR,KBDL 010550Z AUTO 01011KT 2SM +PL BR BKN004 OVC011 A2983 RMK P0005  4/001 MADISHF
BDL,2017-04-01 05:51,-72.6825,41.9381,33.10,32.00,95.67,360.00,11.00,0.05,29.83,1010.20,1.75,M,BKN,OVC,M,M,400.00,1100.00,M,M,+PL BR,KBDL 010551Z 36011KT 1 3/4SM +PL BR BKN004 OVC011 01/00 A2983 RMK AO2 TWR VIS 2 1/2 SLP102 4/001 P0005 60045 I1004 I6004 T00060000 10006 20006 56025
BDL,2017-04-01 05:55,-72.6825,41.9381,M,M,M,10.00,11.00,M,29.82,M,1.75,M,BKN,OVC,M,M,400.00,1100.00,M,M,+PL BR,KBDL 010555Z AUTO 01011KT 2SM +PL BR BKN004 OVC011 A2982 RMK MADISHF
BDL,2017-04-01 06:00,-72.6825,41.9381,M,M,M,360.00,11.00,M,29.82,M,2.00,M,BKN,OVC,M,M,400.00,1300.00,M,M,+PL BR,KBDL 010600Z AUTO 36011KT 2SM +PL BR BKN004 OVC013 A2982 RMK MADISHF
BDL,2017-04-01 06:05,-72.6825,41.9381,M,M,M,10.00,11.00,0.01,29.82,M,2.00,M,BKN,OVC,M,M,499.00,1300.00,M,M,+PL BR,KBDL 010605Z AUTO 01011KT 2SM +PL BR BKN004 OVC013 A2982 RMK P0001 MADISHF
BDL,2017-04-01 06:10,-72.6825,41.9381,M,M,M,10.00,10.00,0.01,29.82,M,2.00,M,BKN,OVC,M,M,400.00,1300.00,M,M,+PL BR,KBDL 010610Z AUTO 01010KT 2SM +PL BR BKN004 OVC013 A2982 RMK P0001 MADISHF
BDL,2017-04-01 06:15,-72.6825,41.9381,M,M,M,10.00,12.00,0.01,29.81,M,1.75,M,BKN,OVC,M,M,400.00,1300.00,M,M,+PL BR,KBDL 010615Z AUTO 01012KT 2SM +PL BR BKN004 OVC013 A2981 RMK P0001 MADISHF
BDL,2017-04-01 06:20,-72.6825,41.9381,M,M,M,10.00,10.00,0.02,29.81,M,1.75,M,BKN,BKN,OVC,M,400.00,900.00,1300.00,M,+PL BR,KBDL 010620Z AUTO 01010KT 2SM +PL BR BKN004 BKN009 OVC013 A2981 RMK P0002 MADISHF
BDL,2017-04-01 06:25,-72.6825,41.9381,M,M,M,20.00,10.00,0.02,29.81,M,2.00,M,BKN,BKN,OVC,M,400.00,900.00,1300.00,M,+PL BR,KBDL 010625Z AUTO 02010KT 2SM +PL BR BKN004 BKN009 OVC013 A2981 RMK P0002 MADISHF
BDL,2017-04-01 06:27,-72.6825,41.9381,33.10,32.00,95.67,20.00,10.00,0.02,29.81,M,2.00,M,BKN,BKN,OVC,M,500.00,900.00,1400.00,M,+PL BR,KBDL 010627Z 02010KT 2SM +PL BR BKN005 BKN009 OVC014 01/00 A2981 RMK AO2 TWR VIS 2 1/2 P0002 T00060000
BDL,2017-04-01 06:30,-72.6825,41.9381,M,M,M,10.00,11.00,0.03,29.81,M,2.00,M,BKN,OVC,M,M,499.00,1200.00,M,M,+PL BR,KBDL 010630Z AUTO 01011KT 2SM +PL BR BKN004 OVC012 A2981 RMK P0003 MADISHF
BDL,2017-04-01 06:35,-72.6825,41.9381,M,M,M,10.00,11.00,0.03,29.81,M,2.00,M,BKN,OVC,M,M,499.00,1200.00,M,M,+PL BR,KBDL 010635Z AUTO 01011KT 2SM +PL BR BKN004 OVC012 A2981 RMK P0003 MADISHF
BDL,2017-04-01 06:40,-72.6825,41.9381,M,M,M,20.00,11.00,0.03,29.80,M,2.00,M,BKN,OVC,M,M,499.00,1200.00,M,M,+PL BR,KBDL 010640Z AUTO 02011KT 2SM +PL BR BKN004 OVC012 A2980 RMK P0003 MADISHF
BDL,2017-04-01 06:45,-72.6825,41.9381,33.80,32.00,93.03,20.00,10.00,0.03,29.80,M,1.75,M,BKN,OVC,M,M,500.00,1100.00,M,M,+PL BR,KBDL 010645Z 02010KT 1 3/4SM +PL BR BKN005 OVC011 01/00 A2980 RMK AO2 TWR VIS 2 P0003 I1000
BDL,2017-04-01 06:50,-72.6825,41.9381,M,M,M,10.00,12.00,0.04,29.80,M,1.50,M,BKN,OVC,M,M,400.00,900.00,M,M,+PL BR,KBDL 010650Z AUTO 01012KT 1 1/2SM +PL BR BKN004 OVC009 A2980 RMK P0004 MADISHF
BDL,2017-04-01 06:51,-72.6825,41.9381,33.10,32.00,95.67,10.00,11.00,0.04,29.80,1009.30,1.50,M,BKN,OVC,M,M,400.00,900.00,M,M,RA BR,KBDL 010651Z 01011KT 1 1/2SM RA BR BKN004 OVC009 01/00 A2980 RMK AO2 TWR VIS 2 RAB51PLE51 SLP093 P0004 I1000 T00060000
BDL,2017-04-01 06:55,-72.6825,41.9381,M,M,M,10.00,11.00,M,29.80,M,1.75,M,OVC,M,M,M,400.00,M,M,M,RA BR,KBDL 010655Z AUTO 01011KT 2SM RA BR OVC004 A2980 RMK MADISHF
BDL,2017-04-01 07:00,-72.6825,41.9381,M,M,M,20.00,11.00,M,29.80,M,1.50,M,OVC,M,M,M,400.00,M,M,M,RA BR,KBDL 010700Z AUTO 02011KT 1 1/2SM RA BR OVC004 A2980 RMK MADISHF
BDL,2017-04-01 07:05,-72.6825,41.9381,33.10,32.00,95.67,20.00,11.00,0.00,29.80,M,2.00,M,OVC,M,M,M,400.00,M,M,M,-RA BR,KBDL 010705Z 02011KT 2SM -RA BR OVC004 01/00 A2980 RMK AO2 SFC VIS 2 1/2 P0000 T00060000
BDL,2017-04-01 07:10,-72.6825,41.9381,M,M,M,10.00,11.00,M,29.80,M,2.50,M,BKN,OVC,M,M,400.00,1200.00,M,M,-RA BR,KBDL 010710Z AUTO 01011KT 2 1/2SM -RA BR BKN004 OVC012 A2980 RMK MADISHF
BDL,2017-04-01 07:15,-72.6825,41.9381,M,M,M,10.00,10.00,M,29.80,M,2.50,M,OVC,M,M,M,400.00,M,M,M,-RA BR,KBDL 010715Z AUTO 01010KT 2 1/2SM -RA BR OVC004 A2980 RMK MADISHF
BDL,2017-04-01 07:20,-72.6825,41.9381,M,M,M,10.00,10.00,M,29.79,M,3.00,M,OVC,M,M,M,400.00,M,M,M,-RA BR,KBDL 010720Z AUTO 01010KT 3SM -RA BR OVC004 A2979 RMK MADISHF
BDL,2017-04-01 07:25,-72.6825,41.9381,M,M,M,10.00,11.00,M,29.79,M,4.00,M,OVC,M,M,M,400.00,M,M,M,-RA BR,KBDL 010725Z AUTO 01011KT 4SM -RA BR OVC004 A2979 RMK MADISHF
BDL,2017-04-01 07:30,-72.6825,41.9381,33.10,32.00,95.67,360.00,11.00,0.00,29.79,M,2.00,M,BKN,OVC,M,M,600.00,900.00,M,M,-RA BR,KBDL 010730Z 36011KT 2SM -RA BR BKN006 OVC009 01/00 A2979 RMK AO2 SFC VIS 4 P0000 T00060000
BDL,2017-04-01 07:35,-72.6825,41.9381,M,M,M,10.00,12.00,M,29.79,M,4.00,M,OVC,M,M,M,600.00,M,M,M,-RA BR,KBDL 010735Z AUTO 01012KT 4SM -RA BR OVC006 A2979 RMK MADISHF
BDL,2017-04-01 07:40,-72.6825,41.9381,M,M,M,10.00,12.00,M,29.78,M,4.00,M,OVC,M,M,M,700.00,M,M,M,-RA BR,KBDL 010740Z AUTO 01012KT 4SM -RA BR OVC007 A2978 RMK MADISHF
BDL,2017-04-01 07:45,-72.6825,41.9381,M,M,M,360.00,12.00,0.01,29.78,M,4.00,M,BKN,OVC,M,M,700.00,2300.00,M,M,-RA BR,KBDL 010745Z AUTO 36012KT 4SM -RA BR BKN007 OVC023 A2978 RMK P0001 MADISHF
BDL,2017-04-01 07:50,-72.6825,41.9381,M,M,M,M,M,0.01,29.78,M,2.50,M,BKN,OVC,M,M,700.00,2300.00,M,M,-RA BR,KBDL 010750Z AUTO /////KT 2 1/2SM -RA BR BKN007 OVC023 A2978 RMK P0001 MADISHF
BDL,2017-04-01 07:51,-72.6825,41.9381,33.10,32.00,95.67,10.00,14.00,0.01,29.78,1008.60,2.00,M,BKN,OVC,M,M,700.00,2300.00,M,M,-RA BR,KBDL 010751Z 01014KT 2SM -RA BR BKN007 OVC023 01/00 A2978 RMK AO2 SFC VIS 2 1/2 SLP086 P0001 T00060000
BDL,2017-04-01 07:55,-72.6825,41.9381,M,M,M,M,M,0.01,29.78,M,2.50,M,BKN,OVC,M,M,700.00,2300.00,M,M,-RA BR,KBDL 010755Z AUTO /////KT 2 1/2SM -RA BR BKN007 OVC023 A2978 RMK P0001 MADISHF
BDL,2017-04-01 08:00,-72.6825,41.9381,M,M,M,M,M,0.01,29.77,M,2.50,M,BKN,BKN,OVC,M,499.00,900.00,2300.00,M,-RA BR,KBDL 010800Z AUTO /////KT 2 1/2SM -RA BR BKN004 BKN009 OVC023 A2977 RMK P0001 MADISHF
BDL,2017-04-01 08:05,-72.6825,41.9381,M,M,M,10.00,12.00,0.01,29.77,M,2.50,M,BKN,OVC,M,M,499.00,2300.00,M,M,-RA BR,KBDL 010805Z AUTO 01012KT 2 1/2SM -RA BR BKN004 OVC023 A2977 RMK P0001 MADISHF
BDL,2017-04-01 08:09,-72.6825,41.9381,33.10,32.00,95.67,10.00,12.00,0.02,29.77,M,2.00,M,SCT,BKN,OVC,M,500.00,1100.00,2300.00,M,-RA BR,KBDL 010809Z 01012KT 2SM -RA BR SCT005 BKN011 OVC023 01/00 A2977 RMK AO2 SFC VIS 2 1/2 P0002 T00060000
BDL,2017-04-01 08:10,-72.6825,41.9381,M,M,M,M,M,0.02,29.77,M,2.50,M,SCT,BKN,OVC,M,499.00,1100.00,2300.00,M,-RA BR,KBDL 010810Z AUTO /////KT 2 1/2SM -RA BR SCT004 BKN011 OVC023 A2977 RMK P0002 MADISHF
BDL,2017-04-01 08:15,-72.6825,41.9381,M,M,M,10.00,13.00,0.02,29.77,M,2.00,M,SCT,BKN,OVC,M,499.00,1100.00,2100.00,M,-RA BR,KBDL 010815Z AUTO 01013KT 2SM -RA BR SCT004 BKN011 OVC021 A2977 RMK P0002 MADISHF
BDL,2017-04-01 08:20,-72.6825,41.9381,M,M,M,M,M,0.02,29.76,M,2.00,M,SCT,BKN,OVC,M,499.00,1100.00,2100.00,M,-RA BR,KBDL 010820Z AUTO /////KT 2SM -RA BR SCT004 BKN011 OVC021 A2976 RMK P0002 MADISHF
BDL,2017-04-01 08:25,-72.6825,41.9381,M,M,M,10.00,14.00,0.03,29.76,M,2.50,M,SCT,BKN,OVC,M,499.00,1100.00,2100.00,M,-RA BR,KBDL 010825Z AUTO 01014KT 2 1/2SM -RA BR SCT004 BKN011 OVC021 A2976 RMK P0003 MADISHF
BDL,2017-04-01 08:30,-72.6825,41.9381,M,M,M,10.00,13.00,0.03,29.76,M,2.50,M,SCT,BKN,OVC,M,499.00,1100.00,2300.00,M,-RA BR,KBDL 010830Z AUTO 01013KT 2 1/2SM -RA BR SCT004 BKN011 OVC023 A2976 RMK P0003 MADISHF
BDL,2017-04-01 08:35,-72.6825,41.9381,33.10,32.00,95.67,10.00,14.00,0.04,29.76,M,2.00,M,BKN,BKN,OVC,M,500.00,1200.00,2300.00,M,-RA BR,KBDL 010835Z 01014KT 2SM -RA BR BKN005 BKN012 OVC023 01/00 A2976 RMK AO2 SFC VIS 3 P0004 T00060000
BDL,2017-04-01 08:40,-72.6825,41.9381,M,M,M,10.00,12.00,0.04,29.75,M,3.00,M,SCT,BKN,OVC,M,499.00,1200.00,2300.00,M,-RA BR,KBDL 010840Z AUTO 01012KT 3SM -RA BR SCT004 BKN012 OVC023 A2975 RMK P0004 MADISHF
BDL,2017-04-01 08:45,-72.6825,41.9381,M,M,M,M,M,0.04,29.76,M,3.50,M,BKN,BKN,OVC,M,499.00,1200.00,2300.00,M,-RA BR,KBDL 010845Z AUTO /////KT 3SM -RA BR BKN004 BKN012 OVC023 A2976 RMK P0004 MADISHF
BDL,2017-04-01 08:50,-72.6825,41.9381,M,M,M,10.00,12.00,0.04,29.76,M,3.50,M,BKN,BKN,OVC,M,499.00,1200.00,2300.00,M,-RA BR,KBDL 010850Z AUTO 01012KT 3SM -RA BR BKN004 BKN012 OVC023 A2976 RMK P0004 MADISHF
BDL,2017-04-01 08:51,-72.6825,41.9381,33.10,32.00,95.67,20.00,14.00,0.04,29.76,1007.80,2.00,M,BKN,BKN,OVC,M,500.00,1200.00,2300.00,M,-RA BR,KBDL 010851Z 02014KT 2SM -RA BR BKN005 BKN012 OVC023 01/00 A2976 RMK AO2 SFC VIS 3 SLP078 P0004 60009 I3000 T00060000 58016
BDL,2017-04-01 08:55,-72.6825,41.9381,M,M,M,10.00,13.00,M,29.76,M,3.50,19.00,BKN,OVC,M,M,800.00,2300.00,M,M,-RA BR,KBDL 010855Z AUTO 01013G19KT 3SM -RA BR BKN008 OVC023 A2976 RMK MADISHF
BDL,2017-04-01 09:00,-72.6825,41.9381,M,M,M,M,M,M,29.76,M,3.50,M,BKN,BKN,OVC,M,600.00,1100.00,2100.00,M,-RA BR,KBDL 010900Z AUTO /////KT 3SM -RA BR BKN006 BKN011 OVC021 A2976 RMK MADISHF
BDL,2017-04-01 09:05,-72.6825,41.9381,M,M,M,10.00,12.00,M,29.76,M,3.50,M,BKN,OVC,M,M,600.00,1100.00,M,M,-RA BR,KBDL 010905Z AUTO 01012KT 3SM -RA BR BKN006 OVC011 A2976 RMK MADISHF
BDL,2017-04-01 09:10,-72.6825,41.9381,M,M,M,360.00,13.00,M,29.76,M,4.00,M,OVC,M,M,M,800.00,M,M,M,-RA BR,KBDL 010910Z AUTO 36013KT 4SM -RA BR OVC008 A2976 RMK MADISHF
BDL,2017-04-01 09:15,-72.6825,41.9381,M,M,M,10.00,10.00,M,29.76,M,4.00,M,OVC,M,M,M,600.00,M,M,M,-RA BR,KBDL 010915Z AUTO 01010KT 4SM -RA BR OVC006 A2976 RMK MADISHF
BDL,2017-04-01 09:20,-72.6825,41.9381,M,M,M,M,M,M,29.76,M,4.00,M,BKN,OVC,M,M,600.00,1100.00,M,M,-RA BR,KBDL 010920Z AUTO /////KT 4SM -RA BR BKN006 OVC011 A2976 RMK MADISHF
BDL,2017-04-01 09:25,-72.6825,41.9381,M,M,M,M,M,M,29.75,M,3.00,M,BKN,OVC,M,M,600.00,1100.00,M,M,-RA BR,KBDL 010925Z AUTO /////KT 3SM -RA BR BKN006 OVC011 A2975 RMK MADISHF
BDL,2017-04-01 09:30,-72.6825,41.9381,M,M,M,10.00,15.00,M,29.76,M,2.00,M,BKN,OVC,M,M,600.00,1100.00,M,M,-RA BR,KBDL 010930Z AUTO 01015KT 2SM -RA BR BKN006 OVC011 A2976 RMK MADISHF
BDL,2017-04-01 09:35,-72.6825,41.9381,M,M,M,360.00,14.00,0.01,29.76,M,1.75,M,BKN,OVC,M,M,600.00,1300.00,M,M,-RA BR,KBDL 010935Z AUTO 36014KT 2SM -RA BR BKN006 OVC013 A2976 RMK P0001 MADISHF
BDL,2017-04-01 09:36,-72.6825,41.9381,33.10,32.00,95.67,360.00,14.00,0.01,29.75,M,1.75,M,BKN,OVC,M,M,700.00,1300.00,M,M,-RA BR,KBDL 010936Z 36014KT 1 3/4SM -RA BR BKN007 OVC013 01/00 A2975 RMK AO2 TWR VIS 2 P0001 T00060000
BDL,2017-04-01 09:40,-72.6825,41.9381,M,M,M,360.00,14.00,0.01,29.75,M,1.75,M,BKN,OVC,M,M,700.00,1300.00,M,M,-RA BR,KBDL 010940Z AUTO 36014KT 2SM -RA BR BKN007 OVC013 A2975 RMK P0001 MADISHF
BDL,2017-04-01 09:45,-72.6825,41.9381,M,M,M,360.00,13.00,0.01,29.76,M,2.00,M,BKN,OVC,M,M,700.00,1300.00,M,M,RA BR,KBDL 010945Z AUTO 36013KT 2SM RA BR BKN007 OVC013 A2976 RMK P0001 MADISHF
BDL,2017-04-01 09:49,-72.6825,41.9381,33.80,32.00,93.03,360.00,15.00,0.02,29.76,M,2.00,M,SCT,OVC,M,M,600.00,1300.00,M,M,RA BR,KBDL 010949Z 36015KT 2SM RA BR SCT006 OVC013 01/00 A2976 RMK AO2 P0002
BDL,2017-04-01 09:50,-72.6825,41.9381,M,M,M,10.00,15.00,0.02,29.76,M,2.00,M,SCT,OVC,M,M,600.00,1300.00,M,M,RA BR,KBDL 010950Z AUTO 01015KT 2SM RA BR SCT006 OVC013 A2976 RMK P0002 MADISHF
BDL,2017-04-01 09:51,-72.6825,41.9381,33.10,32.00,95.67,10.00,14.00,0.02,29.76,1007.90,2.00,M,SCT,OVC,M,M,600.00,1300.00,M,M,RA BR,KBDL 010951Z 01014KT 2SM RA BR SCT006 OVC013 01/00 A2976 RMK AO2 SLP079 P0002 T00060000
BDL,2017-04-01 09:55,-72.6825,41.9381,M,M,M,M,M,M,29.76,M,2.50,M,SCT,OVC,M,M,600.00,1300.00,M,M,-RA BR,KBDL 010955Z AUTO /////KT 2 1/2SM -RA BR SCT006 OVC013 A2976 RMK MADISHF
BDL,2017-04-01 10:00,-72.6825,41.9381,M,M,M,M,M,M,29.76,M,3.00,M,SCT,OVC,M,M,600.00,1300.00,M,M,-RA BR,KBDL 011000Z AUTO /////KT 3SM -RA BR SCT006 OVC013 A2976 RMK MADISHF
BDL,2017-04-01 10:05,-72.6825,41.9381,33.10,32.00,95.67,360.00,15.00,0.00,29.76,M,2.00,M,SCT,OVC,M,M,600.00,1700.00,M,M,-RA BR,KBDL 011005Z 36015KT 2SM -RA BR SCT006 OVC017 01/00 A2976 RMK AO2 SFC VIS 3 P0000 T00060000
BDL,2017-04-01 10:10,-72.6825,41.9381,M,M,M,M,M,M,29.76,M,4.00,M,SCT,OVC,M,M,800.00,1699.00,M,M,-RA BR,KBDL 011010Z AUTO /////KT 4SM -RA BR SCT008 OVC016 A2976 RMK MADISHF
BDL,2017-04-01 10:15,-72.6825,41.9381,M,M,M,10.00,13.00,M,29.76,M,4.00,18.00,BKN,OVC,M,M,800.00,1699.00,M,M,-RA BR,KBDL 011015Z AUTO 01013G18KT 4SM -RA BR BKN008 OVC016 A2976 RMK MADISHF
BDL,2017-04-01 10:17,-72.6825,41.9381,33.10,32.00,95.67,10.00,15.00,0.00,29.76,M,2.00,M,BKN,OVC,M,M,800.00,1700.00,M,M,-RA BR,KBDL 011017Z 01015KT 2SM -RA BR BKN008 OVC017 01/00 A2976 RMK AO2 SFC VIS 3 P0000 T00060000
BDL,2017-04-01 10:20,-72.6825,41.9381,M,M,M,10.00,13.00,0.01,29.76,M,3.00,M,BKN,OVC,M,M,800.00,1699.00,M,M,-RA BR,KBDL 011020Z AUTO 01013KT 3SM -RA BR BKN008 OVC016 A2976 RMK P0001 MADISHF
BDL,2017-04-01 10:25,-72.6825,41.9381,M,M,M,360.00,14.00,0.01,29.76,M,3.00,19.00,BKN,OVC,M,M,600.00,2100.00,M,M,-RA BR,KBDL 011025Z AUTO 36014G19KT 3SM -RA BR BKN006 OVC021 A2976 RMK P0001 MADISHF
BDL,2017-04-01 10:30,-72.6825,41.9381,M,M,M,M,M,0.01,29.76,M,3.00,M,BKN,OVC,M,M,600.00,2100.00,M,M,-RA BR,KBDL 011030Z AUTO /////KT 3SM -RA BR BKN006 OVC021 A2976 RMK P0001 MADISHF
BDL,2017-04-01 10:35,-72.6825,41.9381,M,M,M,360.00,13.00,0.01,29.76,M,3.50,M,BKN,OVC,M,M,700.00,2300.00,M,M,-RA BR,KBDL 011035Z AUTO 36013KT 3SM -RA BR BKN007 OVC023 A2976 RMK P0001 MADISHF
BDL,2017-04-01 10:40,-72.6825,41.9381,M,M,M,10.00,14.00,0.01,29.77,M,4.00,M,BKN,OVC,M,M,700.00,2500.00,M,M,-RA BR,KBDL 011040Z AUTO 01014KT 4SM -RA BR BKN007 OVC025 A2977 RMK P0001 MADISHF
BDL,2017-04-01 10:45,-72.6825,41.9381,M,M,M,360.00,12.00,0.01,29.77,M,4.00,M,BKN,OVC,M,M,700.00,2700.00,M,M,-RA BR,KBDL 011045Z AUTO 36012KT 4SM -RA BR BKN007 OVC027 A2977 RMK P0001 MADISHF
BDL,2017-04-01 10:50,-72.6825,41.9381,M,M,M,360.00,15.00,0.01,29.76,M,3.50,M,BKN,BKN,OVC,M,700.00,1100.00,2700.00,M,-RA BR,KBDL 011050Z AUTO 36015KT 3SM -RA BR BKN007 BKN011 OVC027 A2976 RMK P0001 MADISHF
BDL,2017-04-01 10:51,-72.6825,41.9381,33.10,32.00,95.67,360.00,16.00,0.01,29.76,1008.10,2.00,M,BKN,BKN,OVC,M,700.00,1100.00,2700.00,M,-RA BR,KBDL 011051Z 36016KT 2SM -RA BR BKN007 BKN011 OVC027 01/00 A2976 RMK AO2 SFC VIS 3 SLP081 P0001 T00060000
BDL,2017-04-01 10:55,-72.6825,41.9381,M,M,M,M,M,M,29.77,M,3.50,M,BKN,OVC,M,M,900.00,2700.00,M,M,-RA BR,KBDL 011055Z AUTO /////KT 3SM -RA BR BKN009 OVC027 A2977 RMK MADISHF
BDL,2017-04-01 11:00,-72.6825,41.9381,M,M,M,M,M,M,29.77,M,2.50,M,BKN,BKN,OVC,M,700.00,1200.00,2500.00,M,-DZ BR,KBDL 011100Z AUTO /////KT 2 1/2SM -DZ BR BKN007 BKN012 OVC025 A2977 RMK MADISHF
BDL,2017-04-01 11:05,-72.6825,41.9381,M,M,M,M,M,M,29.77,M,2.00,M,BKN,OVC,M,M,900.00,2500.00,M,M,-DZ BR,KBDL 011105Z AUTO /////KT 2SM -DZ BR BKN009 OVC025 A2977 RMK MADISHF
BDL,2017-04-01 11:10,-72.6825,41.9381,M,M,M,360.00,14.00,M,29.77,M,2.00,M,SCT,BKN,OVC,M,600.00,900.00,2300.00,M,-DZ BR,KBDL 011110Z AUTO 36014KT 2SM -DZ BR SCT006 BKN009 OVC023 A2977 RMK MADISHF
BDL,2017-04-01 11:15,-72.6825,41.9381,M,M,M,10.00,14.00,M,29.77,M,2.00,M,SCT,BKN,OVC,M,600.00,900.00,2300.00,M,-DZ BR,KBDL 011115Z AUTO 01014KT 2SM -DZ BR SCT006 BKN009 OVC023 A2977 RMK MADISHF
BDL,2017-04-01 11:20,-72.6825,41.9381,M,M,M,360.00,13.00,M,29.77,M,2.00,M,BKN,OVC,M,M,600.00,2100.00,M,M,-DZ BR,KBDL 011120Z AUTO 36013KT 2SM -DZ BR BKN006 OVC021 A2977 RMK MADISHF
BDL,2017-04-01 11:25,-72.6825,41.9381,M,M,M,360.00,13.00,M,29.78,M,2.00,M,BKN,OVC,M,M,600.00,2100.00,M,M,-DZ BR,KBDL 011125Z AUTO 36013KT 2SM -DZ BR BKN006 OVC021 A2978 RMK MADISHF
BDL,2017-04-01 11:30,-72.6825,41.9381,M,M,M,M,M,M,29.78,M,2.50,M,BKN,OVC,M,M,600.00,2100.00,M,M,-DZ BR,KBDL 011130Z AUTO /////KT 2 1/2SM -DZ BR BKN006 OVC021 A2978 RMK MADISHF
BDL,2017-04-01 11:35,-72.6825,41.9381,M,M,M,M,M,M,29.78,M,2.50,M,BKN,OVC,M,M,800.00,1200.00,M,M,-DZ BR,KBDL 011135Z AUTO /////KT 2 1/2SM -DZ BR BKN008 OVC012 A2978 RMK MADISHF
BDL,2017-04-01 11:40,-72.6825,41.9381,M,M,M,M,M,M,29.78,M,2.50,M,FEW,BKN,OVC,M,499.00,800.00,1200.00,M,-DZ BR,KBDL 011140Z AUTO /////KT 2 1/2SM -DZ BR FEW004 BKN008 OVC012 A2978 RMK MADISHF
BDL,2017-04-01 11:45,-72.6825,41.9381,M,M,M,360.00,14.00,M,29.78,M,2.50,M,FEW,BKN,OVC,M,499.00,800.00,1500.00,M,-DZ BR,KBDL 011145Z AUTO 36014KT 2 1/2SM -DZ BR FEW004 BKN008 OVC015 A2978 RMK MADISHF
BDL,2017-04-01 11:50,-72.6825,41.9381,M,M,M,M,M,M,29.78,M,2.50,M,FEW,BKN,OVC,M,499.00,800.00,1500.00,M,-DZ BR,KBDL 011150Z AUTO /////KT 2 1/2SM -DZ BR FEW004 BKN008 OVC015 A2978 RMK  4/002 MADISHF
BDL,2017-04-01 11:51,-72.6825,41.9381,33.10,32.00,95.67,10.00,15.00,0.00,29.78,1008.60,2.00,22.00,FEW,BKN,OVC,M,500.00,800.00,1500.00,M,-DZ BR,KBDL 011151Z 01015G22KT 2SM -DZ BR FEW005 BKN008 OVC015 01/00 A2978 RMK AO2 SFC VIS 2 1/2 RAE1058DZB1058 SLP086 4/002 P0000 60012 70112 I6000 T00060000 10006 20006 53008
BDL,2017-04-01 11:55,-72.6825,41.9381,M,M,M,360.00,14.00,M,29.78,M,2.50,M,BKN,OVC,M,M,800.00,1500.00,M,M,-DZ BR,KBDL 011155Z AUTO 36014KT 2 1/2SM -DZ BR BKN008 OVC015 A2978 RMK MADISHF
BDL,2017-04-01 11:59,-72.6825,41.9381,33.10,32.00,95.67,10.00,17.00,0.01,29.78,M,3.00,22.00,BKN,BKN,OVC,M,800.00,1300.00,1800.00,M,-PL BR,KBDL 011159Z 01017G22KT 3SM -PL BR BKN008 BKN013 OVC018 01/00 A2978 RMK AO2 DZE59PLB59 P0001 T00060000
BDL,2017-04-01 12:00,-72.6825,41.9381,M,M,M,M,M,0.01,29.78,M,3.00,M,BKN,BKN,OVC,M,800.00,1300.00,1800.00,M,-PL BR,KBDL 011200Z AUTO /////KT 3SM -PL BR BKN008 BKN013 OVC018 A2978 RMK P0001 MADISHF
BDL,2017-04-01 12:05,-72.6825,41.9381,M,M,M,M,M,0.01,29.78,M,3.00,M,FEW,BKN,OVC,M,499.00,800.00,1800.00,M,-PL BR,KBDL 011205Z AUTO /////KT 3SM -PL BR FEW004 BKN008 OVC018 A2978 RMK P0001 MADISHF
BDL,2017-04-01 12:10,-72.6825,41.9381,M,M,M,360.00,15.00,0.01,29.79,M,3.00,M,FEW,BKN,OVC,M,499.00,800.00,1800.00,M,-PL BR,KBDL 011210Z AUTO 36015KT 3SM -PL BR FEW004 BKN008 OVC018 A2979 RMK P0001 MADISHF
BDL,2017-04-01 12:15,-72.6825,41.9381,M,M,M,M,M,0.01,29.79,M,3.00,M,BKN,OVC,M,M,999.00,2500.00,M,M,-RA BR,KBDL 011215Z AUTO /////KT 3SM -RA BR BKN009 OVC025 A2979 RMK P0001 MADISHF
BDL,2017-04-01 12:16,-72.6825,41.9381,34.00,32.00,92.29,360.00,16.00,0.01,29.79,M,3.00,24.00,SCT,BKN,OVC,M,800.00,1300.00,2500.00,M,-PLRA BR,KBDL 011216Z 36016G24KT 3SM -PLRA BR SCT008 BKN013 OVC025 01/00 A2979 RMK AO2 DZE1159RAB14PLB1159 P0001 T00110000
BDL,2017-04-01 12:20,-72.6825,41.9381,M,M,M,M,M,0.01,29.79,M,4.00,M,SCT,BKN,OVC,M,800.00,1300.00,2500.00,M,-RA BR,KBDL 011220Z AUTO /////KT 4SM -RA BR SCT008 BKN013 OVC025 A2979 RMK P0001 MADISHF
BDL,2017-04-01 12:25,-72.6825,41.9381,M,M,M,360.00,15.00,0.01,29.79,M,4.00,M,SCT,BKN,OVC,M,800.00,1300.00,2500.00,M,-RA BR,KBDL 011225Z AUTO 36015KT 4SM -RA BR SCT008 BKN013 OVC025 A2979 RMK P0001 MADISHF
BDL,2017-04-01 12:30,-72.6825,41.9381,M,M,M,360.00,15.00,0.01,29.79,M,4.00,M,SCT,BKN,OVC,M,800.00,1300.00,2500.00,M,-RA -SN BR,KBDL 011230Z AUTO 36015KT 4SM -RA -SN BR SCT008 BKN013 OVC025 A2979 RMK P0001 MADISHF
BDL,2017-04-01 12:35,-72.6825,41.9381,M,M,M,M,M,0.01,29.79,M,5.00,M,SCT,BKN,OVC,M,800.00,1300.00,2500.00,M,-RA -SN BR,KBDL 011235Z AUTO /////KT 5SM -RA -SN BR SCT008 BKN013 OVC025 A2979 RMK P0001 MADISHF
BDL,2017-04-01 12:40,-72.6825,41.9381,M,M,M,M,M,0.01,29.79,M,5.00,M,SCT,BKN,OVC,M,800.00,1300.00,2500.00,M,-RA -SN BR,KBDL 011240Z AUTO /////KT 5SM -RA -SN BR SCT008 BKN013 OVC025 A2979 RMK P0001 MADISHF
BDL,2017-04-01 12:45,-72.6825,41.9381,M,M,M,360.00,14.00,0.01,29.79,M,5.00,M,SCT,BKN,OVC,M,800.00,1100.00,2900.00,M,-RA -SN BR,KBDL 011245Z AUTO 36014KT 5SM -RA -SN BR SCT008 BKN011 OVC029 A2979 RMK P0001 MADISHF
BDL,2017-04-01 12:50,-72.6825,41.9381,M,M,M,360.00,15.00,0.01,29.79,M,4.00,M,SCT,BKN,OVC,M,800.00,1100.00,2900.00,M,-SN BR,KBDL 011250Z AUTO 36015KT 4SM -SN BR SCT008 BKN011 OVC029 A2979 RMK P0001  PCPN VRY LGT MADISHF
BDL,2017-04-01 12:51,-72.6825,41.9381,34.00,32.00,92.29,360.00,14.00,0.01,29.79,1008.90,3.00,M,SCT,BKN,OVC,M,800.00,1100.00,2900.00,M,-PLSN BR,KBDL 011251Z 36014KT 3SM -PLSN BR SCT008 BKN011 OVC029 01/00 A2979 RMK AO2 SFC VIS 4 DZE1159RAB14E48PLB1159SNB26 SLP089 PCPN VRY LGT P0001 T00110000
BDL,2017-04-01 12:55,-72.6825,41.9381,M,M,M,M,M,M,29.79,M,4.00,M,SCT,BKN,OVC,M,800.00,1100.00,3399.00,M,-SN BR,KBDL 011255Z AUTO /////KT 4SM -SN BR SCT008 BKN011 OVC033 A2979 RMK MADISHF
BDL,2017-04-01 13:00,-72.6825,41.9381,M,M,M,360.00,15.00,M,29.79,M,4.00,M,SCT,BKN,OVC,M,800.00,1100.00,3399.00,M,-SN BR,KBDL 011300Z AUTO 36015KT 4SM -SN BR SCT008 BKN011 OVC033 A2979 RMK MADISHF
BDL,2017-04-01 13:05,-72.6825,41.9381,M,M,M,M,M,M,29.79,M,3.50,M,SCT,BKN,OVC,M,800.00,1100.00,3399.00,M,-SN BR,KBDL 011305Z AUTO /////KT 3SM -SN BR SCT008 BKN011 OVC033 A2979 RMK MADISHF
BDL,2017-04-01 13:10,-72.6825,41.9381,M,M,M,360.00,15.00,M,29.79,M,3.50,20.00,SCT,BKN,OVC,M,800.00,1100.00,3399.00,M,-SN BR,KBDL 011310Z AUTO 36015G20KT 3SM -SN BR SCT008 BKN011 OVC033 A2979 RMK MADISHF
BDL,2017-04-01 13:15,-72.6825,41.9381,M,M,M,M,M,M,29.79,M,3.50,M,SCT,BKN,OVC,M,800.00,1100.00,3399.00,M,-SN BR,KBDL 011315Z AUTO /////KT 3SM -SN BR SCT008 BKN011 OVC033 A2979 RMK MADISHF
BDL,2017-04-01 13:20,-72.6825,41.9381,M,M,M,M,M,M,29.79,M,4.00,M,SCT,BKN,OVC,M,800.00,1100.00,3399.00,M,-SN BR,KBDL 011320Z AUTO /////KT 4SM -SN BR SCT008 BKN011 OVC033 A2979 RMK MADISHF
BDL,2017-04-01 13:25,-72.6825,41.9381,M,M,M,M,M,M,29.79,M,4.00,M,SCT,BKN,OVC,M,800.00,1100.00,3700.00,M,-SN BR,KBDL 011325Z AUTO /////KT 4SM -SN BR SCT008 BKN011 OVC037 A2979 RMK MADISHF
BDL,2017-04-01 13:30,-72.6825,41.9381,M,M,M,360.00,15.00,M,29.79,M,4.00,M,SCT,BKN,OVC,M,800.00,1100.00,3700.00,M,-SN BR,KBDL 011330Z AUTO 36015KT 4SM -SN BR SCT008 BKN011 OVC037 A2979 RMK MADISHF
BDL,2017-04-01 13:32,-72.6825,41.9381,34.00,32.00,92.29,360.00,15.00,0.00,29.79,M,3.00,23.00,SCT,BKN,OVC,M,800.00,1100.00,3700.00,M,-SN BR,KBDL 011332Z 36015G23KT 3SM -SN BR SCT008 BKN011 OVC037 01/00 A2979 RMK AO2 SFC VIS 4 PLE32 P0000 T00110000
BDL,2017-04-01 13:35,-72.6825,41.9381,M,M,M,360.00,15.00,M,29.80,M,4.00,M,SCT,BKN,OVC,M,800.00,1100.00,3700.00,M,-SN BR,KBDL 011335Z AUTO 36015KT 4SM -SN BR SCT008 BKN011 OVC037 A2980 RMK MADISHF
BDL,2017-04-01 13:40,-72.6825,41.9381,M,M,M,M,M,M,29.80,M,4.00,M,SCT,BKN,OVC,M,800.00,1100.00,3700.00,M,-SN BR,KBDL 011340Z AUTO /////KT 4SM -SN BR SCT008 BKN011 OVC037 A2980 RMK MADISHF
BDL,2017-04-01 13:45,-72.6825,41.9381,M,M,M,M,M,M,29.80,M,4.00,M,SCT,BKN,OVC,M,800.00,1100.00,3700.00,M,-SN BR,KBDL 011345Z AUTO /////KT 4SM -SN BR SCT008 BKN011 OVC037 A2980 RMK MADISHF
BDL,2017-04-01 13:50,-72.6825,41.9381,M,M,M,360.00,15.00,M,29.80,M,4.00,M,SCT,BKN,OVC,M,800.00,1200.00,3700.00,M,-SN BR,KBDL 011350Z AUTO 36015KT 4SM -SN BR SCT008 BKN012 OVC037 A2980 RMK MADISHF
BDL,2017-04-01 13:51,-72.6825,41.9381,34.00,32.00,92.29,360.00,15.00,0.00,29.80,1009.20,3.00,23.00,SCT,BKN,OVC,M,800.00,1200.00,3700.00,M,-SN BR,KBDL 011351Z 36015G23KT 3SM -SN BR SCT008 BKN012 OVC037 01/00 A2980 RMK AO2 SFC VIS 4 PLE32 SLP092 P0000 T00110000
BDL,2017-04-01 13:55,-72.6825,41.9381,M,M,M,M,M,M,29.80,M,4.00,M,BKN,OVC,M,M,1200.00,3000.00,M,M,-SN BR,KBDL 011355Z AUTO /////KT 4SM -SN BR BKN012 OVC030 A2980 RMK MADISHF
BDL,2017-04-01 14:00,-72.6825,41.9381,M,M,M,M,M,M,29.80,M,4.00,M,BKN,BKN,OVC,M,1200.00,2600.00,3000.00,M,-SN BR,KBDL 011400Z AUTO /////KT 4SM -SN BR BKN012 BKN026 OVC030 A2980 RMK MADISHF
BDL,2017-04-01 14:05,-72.6825,41.9381,M,M,M,M,M,M,29.80,M,3.00,M,SCT,BKN,OVC,M,800.00,1300.00,3500.00,M,-SN BR,KBDL 011405Z AUTO /////KT 3SM -SN BR SCT008 BKN013 OVC035 A2980 RMK MADISHF
BDL,2017-04-01 14:10,-72.6825,41.9381,M,M,M,360.00,16.00,M,29.80,M,3.00,23.00,SCT,BKN,OVC,M,800.00,1300.00,3500.00,M,-SN BR,KBDL 011410Z AUTO 36016G23KT 3SM -SN BR SCT008 BKN013 OVC035 A2980 RMK MADISHF
BDL,2017-04-01 14:15,-72.6825,41.9381,M,M,M,M,M,M,29.81,M,4.00,M,SCT,BKN,OVC,M,800.00,1300.00,3500.00,M,-SN BR,KBDL 011415Z AUTO /////KT 4SM -SN BR SCT008 BKN013 OVC035 A2981 RMK MADISHF
BDL,2017-04-01 14:20,-72.6825,41.9381,M,M,M,M,M,M,29.81,M,5.00,M,FEW,BKN,OVC,M,800.00,1300.00,3100.00,M,-SN BR,KBDL 011420Z AUTO /////KT 5SM -SN BR FEW008 BKN013 OVC031 A2981 RMK MADISHF
BDL,2017-04-01 14:25,-72.6825,41.9381,M,M,M,M,M,M,29.81,M,6.00,M,FEW,BKN,OVC,M,800.00,1300.00,3100.00,M,-SN BR,KBDL 011425Z AUTO /////KT 6SM -SN BR FEW008 BKN013 OVC031 A2981 RMK MADISHF
BDL,2017-04-01 14:30,-72.6825,41.9381,M,M,M,350.00,16.00,M,29.81,M,8.00,M,SCT,BKN,OVC,M,900.00,1200.00,4300.00,M,-SN,KBDL 011430Z AUTO 35016KT 8SM -SN SCT009 BKN012 OVC043 A2981 RMK MADISHF
BDL,2017-04-01 14:35,-72.6825,41.9381,M,M,M,M,M,M,29.81,M,8.00,M,SCT,BKN,OVC,M,900.00,1200.00,4300.00,M,-SN,KBDL 011435Z AUTO /////KT 8SM -SN SCT009 BKN012 OVC043 A2981 RMK MADISHF
BDL,2017-04-01 14:40,-72.6825,41.9381,M,M,M,M,M,M,29.81,M,9.00,M,SCT,BKN,OVC,M,900.00,1300.00,4300.00,M,-SN,KBDL 011440Z AUTO /////KT 9SM -SN SCT009 BKN013 OVC043 A2981 RMK MADISHF
BDL,2017-04-01 14:45,-72.6825,41.9381,M,M,M,M,M,M,29.81,M,9.00,M,FEW,BKN,OVC,M,900.00,1300.00,4300.00,M,-SN,KBDL 011445Z AUTO /////KT 9SM -SN FEW009 BKN013 OVC043 A2981 RMK MADISHF
BDL,2017-04-01 14:50,-72.6825,41.9381,M,M,M,360.00,16.00,M,29.81,M,9.00,M,FEW,BKN,OVC,M,900.00,1300.00,4300.00,M,-SN,KBDL 011450Z AUTO 36016KT 9SM -SN FEW009 BKN013 OVC043 A2981 RMK  BKN V SCT PCPN VRY LGT MADISHF
BDL,2017-04-01 14:51,-72.6825,41.9381,35.10,32.00,88.33,10.00,17.00,0.00,29.81,1009.80,9.00,25.00,FEW,BKN,OVC,M,900.00,1300.00,4300.00,M,-SN,KBDL 011451Z 01017G25KT 9SM -SN FEW009 BKN013 OVC043 02/00 A2981 RMK AO2 PK WND 01027/1434 SLP098 BKN V SCT PCPN VRY LGT P0000 60001 T00170000 53012
BDL,2017-04-01 14:55,-72.6825,41.9381,M,M,M,M,M,M,29.82,M,9.00,M,FEW,BKN,OVC,M,900.00,1300.00,4300.00,M,-SN,KBDL 011455Z AUTO /////KT 9SM -SN FEW009 BKN013 OVC043 A2982 RMK MADISHF
BDL,2017-04-01 15:00,-72.6825,41.9381,M,M,M,M,M,M,29.82,M,9.00,M,FEW,BKN,OVC,M,900.00,1300.00,4300.00,M,-SN,KBDL 011500Z AUTO /////KT 9SM -SN FEW009 BKN013 OVC043 A2982 RMK MADISHF
BDL,2017-04-01 15:05,-72.6825,41.9381,M,M,M,M,M,M,29.82,M,8.00,M,FEW,BKN,OVC,M,900.00,1300.00,4300.00,M,-SN,KBDL 011505Z AUTO /////KT 8SM -SN FEW009 BKN013 OVC043 A2982 RMK MADISHF
BDL,2017-04-01 15:10,-72.6825,41.9381,M,M,M,M,M,M,29.82,M,7.00,25.00,FEW,BKN,OVC,M,900.00,1300.00,4300.00,M,-SN,KBDL 011510Z AUTO /////G25KT 7SM -SN FEW009 BKN013 OVC043 A2982 RMK MADISHF
BDL,2017-04-01 15:15,-72.6825,41.9381,M,M,M,M,M,M,29.82,M,6.00,M,FEW,BKN,OVC,M,900.00,1300.00,4300.00,M,-SN BR,KBDL 011515Z AUTO /////KT 6SM -SN BR FEW009 BKN013 OVC043 A2982 RMK MADISHF
BDL,2017-04-01 15:20,-72.6825,41.9381,M,M,M,M,M,M,29.82,M,5.00,M,FEW,BKN,OVC,M,900.00,1300.00,4300.00,M,-SN BR,KBDL 011520Z AUTO /////KT 5SM -SN BR FEW009 BKN013 OVC043 A2982 RMK MADISHF
BDL,2017-04-01 15:25,-72.6825,41.9381,M,M,M,M,M,M,29.82,M,6.00,M,FEW,BKN,OVC,M,900.00,1300.00,4300.00,M,-SN BR,KBDL 011525Z AUTO /////KT 6SM -SN BR FEW009 BKN013 OVC043 A2982 RMK MADISHF
BDL,2017-04-01 15:30,-72.6825,41.9381,M,M,M,360.00,16.00,M,29.82,M,6.00,M,FEW,BKN,OVC,M,900.00,1200.00,4100.00,M,-SN BR,KBDL 011530Z AUTO 36016KT 6SM -SN BR FEW009 BKN012 OVC041 A2982 RMK MADISHF
BDL,2017-04-01 15:35,-72.6825,41.9381,M,M,M,M,M,M,29.82,M,6.00,M,FEW,BKN,OVC,M,900.00,1200.00,4100.00,M,-RA -SN BR,KBDL 011535Z AUTO /////KT 6SM -RA -SN BR FEW009 BKN012 OVC041 A2982 RMK MADISHF
BDL,2017-04-01 15:40,-72.6825,41.9381,M,M,M,360.00,15.00,M,29.82,M,7.00,M,FEW,BKN,OVC,M,900.00,1200.00,4100.00,M,-RA -SN,KBDL 011540Z AUTO 36015KT 7SM -RA -SN FEW009 BKN012 OVC041 A2982 RMK MADISHF
BDL,2017-04-01 15:45,-72.6825,41.9381,M,M,M,M,M,M,29.82,M,8.00,M,FEW,BKN,OVC,M,900.00,1200.00,4100.00,M,-RA -SN,KBDL 011545Z AUTO /////KT 8SM -RA -SN FEW009 BKN012 OVC041 A2982 RMK MADISHF
BDL,2017-04-01 15:50,-72.6825,41.9381,M,M,M,360.00,13.00,M,29.82,M,7.00,M,SCT,BKN,OVC,M,999.00,1400.00,4100.00,M,-RA -SN,KBDL 011550Z AUTO 36013KT 7SM -RA -SN SCT009 BKN014 OVC041 A2982 RMK MADISHF
BDL,2017-04-01 15:51,-72.6825,41.9381,35.10,33.10,92.32,360.00,14.00,0.00,29.83,1010.10,7.00,M,SCT,BKN,OVC,M,1000.00,1400.00,4100.00,M,-RASN,KBDL 011551Z 36014KT 7SM -RASN SCT010 BKN014 OVC041 02/01 A2983 RMK AO2 PK WND 01026/1527 RAB35 SLP101 P0000 T00170006
BDL,2017-04-01 15:55,-72.6825,41.9381,M,M,M,M,M,M,29.83,M,8.00,M,SCT,BKN,OVC,M,999.00,1400.00,3500.00,M,-RA -SN,KBDL 011555Z AUTO /////KT 8SM -RA -SN SCT009 BKN014 OVC035 A2983 RMK MADISHF
BDL,2017-04-01 16:00,-72.6825,41.9381,M,M,M,M,M,M,29.82,M,8.00,M,SCT,BKN,OVC,M,999.00,1400.00,3500.00,M,-RA -SN,KBDL 011600Z AUTO /////KT 8SM -RA -SN SCT009 BKN014 OVC035 A2982 RMK MADISHF
BDL,2017-04-01 16:05,-72.6825,41.9381,M,M,M,M,M,M,29.82,M,8.00,M,FEW,BKN,OVC,M,999.00,1400.00,2600.00,M,-RA -SN,KBDL 011605Z AUTO /////KT 8SM -RA -SN FEW009 BKN014 OVC026 A2982 RMK MADISHF
BDL,2017-04-01 16:10,-72.6825,41.9381,M,M,M,M,M,M,29.83,M,7.00,24.00,SCT,BKN,OVC,M,1200.00,1600.00,2600.00,M,-RA -SN,KBDL 011610Z AUTO /////G24KT 7SM -RA -SN SCT012 BKN016 OVC026 A2983 RMK MADISHF
BDL,2017-04-01 16:13,-72.6825,41.9381,36.00,33.10,89.09,10.00,15.00,0.00,29.83,M,7.00,25.00,SCT,BKN,OVC,M,1100.00,1600.00,2800.00,M,-RASN,KBDL 011613Z 01015G25KT 7SM -RASN SCT011 BKN016 OVC028 02/01 A2983 RMK AO2 P0000 T00220006
BDL,2017-04-01 16:15,-72.6825,41.9381,M,M,M,360.00,14.00,M,29.82,M,8.00,20.00,SCT,BKN,OVC,M,1100.00,1800.00,3000.00,M,-RA -SN,KBDL 011615Z AUTO 36014G20KT 8SM -RA -SN SCT011 BKN018 OVC030 A2982 RMK MADISHF
BDL,2017-04-01 16:20,-72.6825,41.9381,M,M,M,M,M,M,29.83,M,8.00,M,SCT,BKN,OVC,M,1100.00,1500.00,3000.00,M,-RA -SN,KBDL 011620Z AUTO /////KT 8SM -RA -SN SCT011 BKN015 OVC030 A2983 RMK  SCT V BKN MADISHF
BDL,2017-04-01 16:25,-72.6825,41.9381,M,M,M,M,M,M,29.83,M,8.00,M,SCT,BKN,OVC,M,1100.00,1500.00,3000.00,M,-RA -SN,KBDL 011625Z AUTO /////KT 8SM -RA -SN SCT011 BKN015 OVC030 A2983 RMK  SCT V BKN MADISHF
BDL,2017-04-01 16:30,-72.6825,41.9381,M,M,M,360.00,16.00,M,29.82,M,9.00,M,SCT,BKN,OVC,M,1100.00,1500.00,3000.00,M,-RA -SN,KBDL 011630Z AUTO 36016KT 9SM -RA -SN SCT011 BKN015 OVC030 A2982 RMK  SCT V BKN MADISHF
BDL,2017-04-01 16:35,-72.6825,41.9381,M,M,M,M,M,M,29.83,M,9.00,M,SCT,BKN,OVC,M,1100.00,1500.00,3000.00,M,-RA -SN,KBDL 011635Z AUTO /////KT 9SM -RA -SN SCT011 BKN015 OVC030 A2983 RMK  SCT V BKN MADISHF
BDL,2017-04-01 16:40,-72.6825,41.9381,M,M,M,M,M,M,29.83,M,10.00,M,SCT,BKN,OVC,M,1100.00,1500.00,3000.00,M,-RA,KBDL 011640Z AUTO /////KT 10SM -RA SCT011 BKN015 OVC030 A2983 RMK MADISHF
BDL,2017-04-01 16:45,-72.6825,41.9381,M,M,M,M,M,M,29.83,M,10.00,M,SCT,BKN,OVC,M,1100.00,1500.00,3000.00,M,-RA,KBDL 011645Z AUTO /////KT 10SM -RA SCT011 BKN015 OVC030 A2983 RMK MADISHF
BDL,2017-04-01 16:50,-72.6825,41.9381,M,M,M,M,M,M,29.83,M,10.00,M,SCT,BKN,OVC,M,1200.00,1600.00,2600.00,M,-RA,KBDL 011650Z AUTO /////KT 10SM -RA SCT012 BKN016 OVC026 A2983 RMK MADISHF
BDL,2017-04-01 16:51,-72.6825,41.9381,36.00,33.10,89.09,10.00,17.00,0.00,29.83,1010.20,10.00,27.00,SCT,BKN,OVC,M,1200.00,1600.00,2800.00,M,-RA,KBDL 011651Z 01017G27KT 10SM -RA SCT012 BKN016 OVC028 02/01 A2983 RMK AO2 PK WND 02027/1642 SNE37 SLP102 P0000 T00220006
BDL,2017-04-01 16:55,-72.6825,41.9381,M,M,M,360.00,14.00,M,29.83,M,10.00,20.00,SCT,BKN,OVC,M,1200.00,1600.00,2800.00,M,-RA,KBDL 011655Z AUTO 36014G20KT 10SM -RA SCT012 BKN016 OVC028 A2983 RMK MADISHF
BDL,2017-04-01 17:00,-72.6825,41.9381,M,M,M,M,M,M,29.83,M,10.00,M,SCT,BKN,OVC,M,1200.00,1600.00,2800.00,M,-RA,KBDL 011700Z AUTO /////KT 10SM -RA SCT012 BKN016 OVC028 A2983 RMK MADISHF
BDL,2017-04-01 17:05,-72.6825,41.9381,M,M,M,M,M,M,29.83,M,10.00,M,SCT,BKN,OVC,M,1200.00,1600.00,2500.00,M,-RA,KBDL 011705Z AUTO /////KT 10SM -RA SCT012 BKN016 OVC025 A2983 RMK MADISHF
BDL,2017-04-01 17:10,-72.6825,41.9381,M,M,M,M,M,M,29.83,M,10.00,24.00,SCT,BKN,OVC,M,1200.00,1600.00,2500.00,M,-RA,KBDL 011710Z AUTO /////G24KT 10SM -RA SCT012 BKN016 OVC025 A2983 RMK MADISHF
BDL,2017-04-01 17:15,-72.6825,41.9381,M,M,M,M,M,M,29.83,M,10.00,M,SCT,BKN,OVC,M,1200.00,1600.00,2500.00,M,-RA,KBDL 011715Z AUTO /////KT 10SM -RA SCT012 BKN016 OVC025 A2983 RMK MADISHF
BDL,2017-04-01 17:20,-72.6825,41.9381,M,M,M,M,M,M,29.83,M,10.00,M,SCT,BKN,OVC,M,1200.00,1600.00,2500.00,M,-RA,KBDL 011720Z AUTO /////KT 10SM -RA SCT012 BKN016 OVC025 A2983 RMK MADISHF
BDL,2017-04-01 17:25,-72.6825,41.9381,M,M,M,M,M,M,29.83,M,10.00,M,SCT,BKN,OVC,M,1200.00,1600.00,2500.00,M,-RA,KBDL 011725Z AUTO /////KT 10SM -RA SCT012 BKN016 OVC025 A2983 RMK MADISHF
BDL,2017-04-01 17:30,-72.6825,41.9381,M,M,M,M,M,M,29.84,M,10.00,M,SCT,BKN,OVC,M,1200.00,1600.00,2500.00,M,-RA,KBDL 011730Z AUTO /////KT 10SM -RA SCT012 BKN016 OVC025 A2984 RMK MADISHF
BDL,2017-04-01 17:35,-72.6825,41.9381,M,M,M,M,M,M,29.84,M,10.00,M,FEW,BKN,OVC,M,1200.00,1600.00,2500.00,M,-RA,KBDL 011735Z AUTO /////KT 10SM -RA FEW012 BKN016 OVC025 A2984 RMK MADISHF
BDL,2017-04-01 17:40,-72.6825,41.9381,M,M,M,360.00,14.00,M,29.85,M,10.00,M,FEW,BKN,OVC,M,1200.00,1600.00,2500.00,M,-RA,KBDL 011740Z AUTO 36014KT 10SM -RA FEW012 BKN016 OVC025 A2985 RMK MADISHF
BDL,2017-04-01 17:45,-72.6825,41.9381,M,M,M,M,M,M,29.85,M,10.00,M,BKN,OVC,M,M,1800.00,2700.00,M,M,-RA,KBDL 011745Z AUTO /////KT 10SM -RA BKN018 OVC027 A2985 RMK MADISHF
BDL,2017-04-01 17:50,-72.6825,41.9381,M,M,M,M,M,M,29.85,M,10.00,M,BKN,OVC,M,M,1500.00,2700.00,M,M,-RA,KBDL 011750Z AUTO /////KT 10SM -RA BKN015 OVC027 A2985 RMK  PCPN VRY LGT 4/001 MADISHF
BDL,2017-04-01 17:51,-72.6825,41.9381,37.00,32.00,81.93,10.00,19.00,0.00,29.85,1010.80,10.00,25.00,BKN,OVC,M,M,1500.00,2700.00,M,M,-RA,KBDL 011751Z 01019G25KT 10SM -RA BKN015 OVC027 03/00 A2985 RMK AO2 PK WND 36026/1732 SLP108 PCPN VRY LGT 4/001 P0000 60001 T00280000 10028 20006 53011
BDL,2017-04-01 17:55,-72.6825,41.9381,M,M,M,M,M,M,29.85,M,10.00,M,BKN,OVC,M,M,1800.00,2500.00,M,M,-RA,KBDL 011755Z AUTO /////KT 10SM -RA BKN018 OVC025 A2985 RMK MADISHF
BDL,2017-04-01 18:00,-72.6825,41.9381,M,M,M,M,M,M,29.85,M,10.00,M,BKN,OVC,M,M,1800.00,2700.00,M,M,-RA,KBDL 011800Z AUTO /////KT 10SM -RA BKN018 OVC027 A2985 RMK MADISHF
BDL,2017-04-01 18:05,-72.6825,41.9381,M,M,M,M,M,M,29.85,M,10.00,M,BKN,OVC,M,M,1999.00,2900.00,M,M,-RA,KBDL 011805Z AUTO /////KT 10SM -RA BKN019 OVC029 A2985 RMK MADISHF
BDL,2017-04-01 18:10,-72.6825,41.9381,M,M,M,360.00,12.00,M,29.86,M,10.00,M,BKN,OVC,M,M,1999.00,2800.00,M,M,-RA,KBDL 011810Z AUTO 36012KT 10SM -RA BKN019 OVC028 A2986 RMK MADISHF
BDL,2017-04-01 18:15,-72.6825,41.9381,M,M,M,M,M,M,29.86,M,10.00,M,BKN,BKN,OVC,M,1800.00,2300.00,3000.00,M,-RA,KBDL 011815Z AUTO /////KT 10SM -RA BKN018 BKN023 OVC030 A2986 RMK MADISHF
BDL,2017-04-01 18:20,-72.6825,41.9381,M,M,M,360.00,14.00,M,29.86,M,10.00,M,SCT,BKN,OVC,M,1800.00,2300.00,3000.00,M,-RA,KBDL 011820Z AUTO 36014KT 10SM -RA SCT018 BKN023 OVC030 A2986 RMK MADISHF
BDL,2017-04-01 18:25,-72.6825,41.9381,M,M,M,10.00,15.00,M,29.86,M,10.00,M,BKN,BKN,OVC,M,1999.00,2400.00,2800.00,M,-RA,KBDL 011825Z AUTO 01015KT 10SM -RA BKN019 BKN024 OVC028 A2986 RMK MADISHF
BDL,2017-04-01 18:30,-72.6825,41.9381,M,M,M,M,M,M,29.86,M,10.00,M,BKN,OVC,M,M,1999.00,3000.00,M,M,-RA,KBDL 011830Z AUTO /////KT 10SM -RA BKN019 OVC030 A2986 RMK MADISHF
BDL,2017-04-01 18:35,-72.6825,41.9381,M,M,M,360.00,14.00,M,29.86,M,10.00,M,BKN,BKN,OVC,M,1800.00,2400.00,3000.00,M,-RA,KBDL 011835Z AUTO 36014KT 10SM -RA BKN018 BKN024 OVC030 A2986 RMK MADISHF
BDL,2017-04-01 18:40,-72.6825,41.9381,M,M,M,M,M,M,29.86,M,10.00,M,BKN,OVC,M,M,1999.00,3000.00,M,M,-RA,KBDL 011840Z AUTO /////KT 10SM -RA BKN019 OVC030 A2986 RMK MADISHF
BDL,2017-04-01 18:45,-72.6825,41.9381,M,M,M,360.00,15.00,M,29.85,M,10.00,20.00,BKN,OVC,M,M,1999.00,3200.00,M,M,-RA,KBDL 011845Z AUTO 36015G20KT 10SM -RA BKN019 OVC032 A2985 RMK MADISHF
BDL,2017-04-01 18:50,-72.6825,41.9381,M,M,M,M,M,M,29.85,M,10.00,M,SCT,BKN,OVC,M,1600.00,1999.00,3200.00,M,-RA,KBDL 011850Z AUTO /////KT 10SM -RA SCT016 BKN019 OVC032 A2985 RMK MADISHF
BDL,2017-04-01 18:51,-72.6825,41.9381,37.90,32.00,79.08,10.00,16.00,0.00,29.85,1010.90,10.00,23.00,SCT,BKN,OVC,M,1600.00,2000.00,3200.00,M,-RA,KBDL 011851Z 01016G23KT 10SM -RA SCT016 BKN020 OVC032 03/00 A2985 RMK AO2 SLP109 P0000 T00330000
BDL,2017-04-01 18:55,-72.6825,41.9381,M,M,M,M,M,M,29.85,M,10.00,M,BKN,BKN,OVC,M,1999.00,2900.00,4400.00,M,-RA,KBDL 011855Z AUTO /////KT 10SM -RA BKN019 BKN029 OVC044 A2985 RMK MADISHF
BDL,2017-04-01 19:00,-72.6825,41.9381,M,M,M,M,M,M,29.85,M,10.00,M,BKN,BKN,OVC,M,1999.00,2900.00,5000.00,M,-RA,KBDL 011900Z AUTO /////KT 10SM -RA BKN019 BKN029 OVC050 A2985 RMK MADISHF
BDL,2017-04-01 19:05,-72.6825,41.9381,M,M,M,M,M,M,29.85,M,10.00,M,BKN,BKN,OVC,M,1900.00,2900.00,5000.00,M,-RA,KBDL 011905Z AUTO /////KT 10SM -RA BKN019 BKN029 OVC050 A2985 RMK MADISHF
BDL,2017-04-01 19:10,-72.6825,41.9381,M,M,M,360.00,17.00,M,29.85,M,10.00,M,BKN,OVC,M,M,1900.00,5000.00,M,M,-RA,KBDL 011910Z AUTO 36017KT 10SM -RA BKN019 OVC050 A2985 RMK MADISHF
BDL,2017-04-01 19:15,-72.6825,41.9381,M,M,M,M,M,M,29.85,M,10.00,M,BKN,BKN,OVC,M,1900.00,5000.00,6000.00,M,-RA,KBDL 011915Z AUTO /////KT 10SM -RA BKN019 BKN050 OVC060 A2985 RMK MADISHF
BDL,2017-04-01 19:20,-72.6825,41.9381,M,M,M,M,M,M,29.85,M,10.00,M,BKN,BKN,OVC,M,1900.00,5000.00,7999.00,M,-RA,KBDL 011920Z AUTO /////KT 10SM -RA BKN019 BKN050 OVC079 A2985 RMK MADISHF
BDL,2017-04-01 19:25,-72.6825,41.9381,M,M,M,M,M,M,29.85,M,10.00,M,BKN,BKN,OVC,M,1900.00,5000.00,7999.00,M,-RA,KBDL 011925Z AUTO /////KT 10SM -RA BKN019 BKN050 OVC079 A2985 RMK MADISHF
BDL,2017-04-01 19:30,-72.6825,41.9381,M,M,M,360.00,16.00,M,29.86,M,10.00,M,BKN,BKN,OVC,M,1999.00,5000.00,7000.00,M,-RA,KBDL 011930Z AUTO 36016KT 10SM -RA BKN019 BKN050 OVC070 A2986 RMK MADISHF
BDL,2017-04-01 19:35,-72.6825,41.9381,M,M,M,M,M,M,29.86,M,10.00,M,SCT,BKN,OVC,M,1999.00,2400.00,7999.00,M,-RA,KBDL 011935Z AUTO /////KT 10SM -RA SCT019 BKN024 OVC079 A2986 RMK MADISHF
BDL,2017-04-01 19:40,-72.6825,41.9381,M,M,M,M,M,M,29.87,M,10.00,M,SCT,BKN,OVC,M,1999.00,2600.00,7999.00,M,-RA,KBDL 011940Z AUTO /////KT 10SM -RA SCT019 BKN026 OVC079 A2987 RMK MADISHF
BDL,2017-04-01 19:45,-72.6825,41.9381,M,M,M,10.00,13.00,M,29.87,M,10.00,18.00,SCT,BKN,OVC,M,1999.00,2600.00,6500.00,M,M,KBDL 011945Z AUTO 01013G18KT 10SM SCT019 BKN026 OVC065 A2987 RMK MADISHF
BDL,2017-04-01 19:50,-72.6825,41.9381,M,M,M,10.00,15.00,M,29.88,M,10.00,M,SCT,BKN,OVC,M,2100.00,2600.00,7000.00,M,M,KBDL 011950Z AUTO 01015KT 10SM SCT021 BKN026 OVC070 A2988 RMK MADISHF
BDL,2017-04-01 19:51,-72.6825,41.9381,39.00,32.00,75.75,360.00,16.00,0.00,29.88,1011.90,10.00,21.00,FEW,BKN,OVC,M,2100.00,2600.00,7000.00,M,M,KBDL 011951Z 36016G21KT 10SM FEW021 BKN026 OVC070 04/00 A2988 RMK AO2 PK WND 02026/1937 RAE43 SLP119 P0000 T00390000
BDL,2017-04-01 19:55,-72.6825,41.9381,M,M,M,M,M,M,29.88,M,10.00,M,BKN,OVC,M,M,2600.00,3700.00,M,M,M,KBDL 011955Z AUTO /////KT 10SM BKN026 OVC037 A2988 RMK MADISHF
BDL,2017-04-01 20:00,-72.6825,41.9381,M,M,M,360.00,11.00,M,29.89,M,10.00,M,BKN,OVC,M,M,2200.00,2600.00,M,M,M,KBDL 012000Z AUTO 36011KT 10SM BKN022 OVC026 A2989 RMK MADISHF
BDL,2017-04-01 20:05,-72.6825,41.9381,M,M,M,M,M,M,29.89,M,10.00,M,BKN,OVC,M,M,2400.00,3700.00,M,M,M,KBDL 012005Z AUTO /////KT 10SM BKN024 OVC037 A2989 RMK MADISHF
BDL,2017-04-01 20:10,-72.6825,41.9381,M,M,M,350.00,11.00,M,29.90,M,10.00,16.00,BKN,OVC,M,M,2400.00,3500.00,M,M,M,KBDL 012010Z AUTO 35011G16KT 10SM BKN024 OVC035 A2990 RMK MADISHF
BDL,2017-04-01 20:15,-72.6825,41.9381,M,M,M,350.00,13.00,M,29.90,M,10.00,M,BKN,OVC,M,M,2500.00,3300.00,M,M,M,KBDL 012015Z AUTO 35013KT 10SM BKN025 OVC033 A2990 RMK MADISHF
BDL,2017-04-01 20:20,-72.6825,41.9381,M,M,M,M,M,M,29.90,M,10.00,M,BKN,OVC,M,M,2500.00,3300.00,M,M,M,KBDL 012020Z AUTO /////KT 10SM BKN025 OVC033 A2990 RMK MADISHF
BDL,2017-04-01 20:25,-72.6825,41.9381,M,M,M,360.00,13.00,M,29.91,M,10.00,M,BKN,OVC,M,M,2500.00,3300.00,M,M,M,KBDL 012025Z AUTO 36013KT 10SM BKN025 OVC033 A2991 RMK MADISHF
BDL,2017-04-01 20:30,-72.6825,41.9381,M,M,M,350.00,16.00,M,29.91,M,10.00,M,BKN,BKN,OVC,M,2500.00,3000.00,3500.00,M,M,KBDL 012030Z AUTO 35016KT 10SM BKN025 BKN030 OVC035 A2991 RMK MADISHF
BDL,2017-04-01 20:35,-72.6825,41.9381,M,M,M,360.00,14.00,M,29.91,M,10.00,M,BKN,BKN,OVC,M,2500.00,3000.00,3500.00,M,M,KBDL 012035Z AUTO 36014KT 10SM BKN025 BKN030 OVC035 A2991 RMK MADISHF
BDL,2017-04-01 20:40,-72.6825,41.9381,M,M,M,360.00,12.00,M,29.91,M,10.00,M,SCT,OVC,M,M,2500.00,3700.00,M,M,M,KBDL 012040Z AUTO 36012KT 10SM SCT025 OVC037 A2991 RMK MADISHF
BDL,2017-04-01 20:42,-72.6825,41.9381,39.00,32.00,75.75,360.00,10.00,0.00,29.91,M,10.00,23.00,SCT,OVC,M,M,2500.00,4000.00,M,M,M,KBDL 012042Z 36010G23KT 10SM SCT025 OVC040 04/00 A2991 RMK AO2 T00390000
BDL,2017-04-01 20:45,-72.6825,41.9381,M,M,M,360.00,11.00,M,29.92,M,10.00,M,SCT,BKN,OVC,M,2500.00,3500.00,4300.00,M,M,KBDL 012045Z AUTO 36011KT 10SM SCT025 BKN035 OVC043 A2992 RMK MADISHF
BDL,2017-04-01 20:50,-72.6825,41.9381,M,M,M,M,M,M,29.92,M,10.00,22.00,SCT,BKN,OVC,M,2500.00,3399.00,4300.00,M,M,KBDL 012050Z AUTO /////G22KT 10SM SCT025 BKN033 OVC043 A2992 RMK MADISHF
BDL,2017-04-01 20:51,-72.6825,41.9381,39.00,32.00,75.75,360.00,17.00,0.00,29.92,1013.20,9.00,22.00,FEW,BKN,OVC,M,2500.00,3800.00,4500.00,M,M,KBDL 012051Z 36017G22KT 9SM FEW025 BKN038 OVC045 04/00 A2992 RMK AO2 SLP132 60000 T00390000 53024
BDL,2017-04-01 20:55,-72.6825,41.9381,M,M,M,M,M,M,29.92,M,6.00,M,FEW,BKN,OVC,M,2300.00,3800.00,4500.00,M,-RA,KBDL 012055Z AUTO /////KT 6SM -RA FEW023 BKN038 OVC045 A2992 RMK MADISHF
BDL,2017-04-01 21:00,-72.6825,41.9381,M,M,M,360.00,13.00,M,29.93,M,6.00,M,SCT,BKN,OVC,M,2400.00,4100.00,4900.00,M,-RA,KBDL 012100Z AUTO 36013KT 6SM -RA SCT024 BKN041 OVC049 A2993 RMK MADISHF
BDL,2017-04-01 21:05,-72.6825,41.9381,M,M,M,M,M,M,29.93,M,9.00,M,FEW,BKN,OVC,M,1999.00,3999.00,4700.00,M,-RA,KBDL 012105Z AUTO /////KT 9SM -RA FEW019 BKN039 OVC047 A2993 RMK MADISHF
BDL,2017-04-01 21:10,-72.6825,41.9381,M,M,M,10.00,13.00,M,29.93,M,8.00,M,SCT,BKN,OVC,M,2100.00,4400.00,5000.00,M,M,KBDL 012110Z AUTO 01013KT 8SM SCT021 BKN044 OVC050 A2993 RMK MADISHF
BDL,2017-04-01 21:15,-72.6825,41.9381,M,M,M,350.00,11.00,M,29.93,M,9.00,17.00,SCT,BKN,OVC,M,1900.00,3200.00,5500.00,M,M,KBDL 012115Z AUTO 35011G17KT 9SM SCT019 BKN032 OVC055 A2993 RMK MADISHF
BDL,2017-04-01 21:20,-72.6825,41.9381,M,M,M,350.00,13.00,M,29.93,M,9.00,M,BKN,BKN,OVC,M,1900.00,3100.00,5000.00,M,M,KBDL 012120Z AUTO 35013KT 9SM BKN019 BKN031 OVC050 A2993 RMK MADISHF
BDL,2017-04-01 21:22,-72.6825,41.9381,39.00,34.00,82.08,360.00,11.00,0.00,29.94,M,8.00,18.00,SCT,BKN,OVC,M,1700.00,2600.00,4500.00,M,M,KBDL 012122Z 36011G18KT 8SM SCT017 BKN026 OVC045 04/01 A2994 RMK AO2 RAB2053E06 P0000 T00390011
BDL,2017-04-01 21:25,-72.6825,41.9381,M,M,M,360.00,13.00,M,29.94,M,8.00,M,SCT,BKN,OVC,M,1699.00,2600.00,4500.00,M,M,KBDL 012125Z AUTO 36013KT 8SM SCT016 BKN026 OVC045 A2994 RMK MADISHF
BDL,2017-04-01 21:30,-72.6825,41.9381,M,M,M,360.00,10.00,M,29.94,M,8.00,M,FEW,BKN,OVC,M,1400.00,2900.00,4500.00,M,M,KBDL 012130Z AUTO 36010KT 8SM FEW014 BKN029 OVC045 A2994 RMK MADISHF
BDL,2017-04-01 21:35,-72.6825,41.9381,M,M,M,10.00,12.00,M,29.94,M,6.00,M,FEW,BKN,OVC,M,1400.00,2900.00,4500.00,M,BR,KBDL 012135Z AUTO 01012KT 6SM BR FEW014 BKN029 OVC045 A2994 RMK MADISHF
BDL,2017-04-01 21:40,-72.6825,41.9381,M,M,M,10.00,12.00,M,29.94,M,6.00,M,FEW,BKN,OVC,M,1400.00,2900.00,4500.00,M,-RA BR,KBDL 012140Z AUTO 01012KT 6SM -RA BR FEW014 BKN029 OVC045 A2994 RMK MADISHF
BDL,2017-04-01 21:45,-72.6825,41.9381,M,M,M,10.00,11.00,M,29.94,M,7.00,M,FEW,BKN,OVC,M,1400.00,2900.00,4500.00,M,M,KBDL 012145Z AUTO 01011KT 7SM FEW014 BKN029 OVC045 A2994 RMK MADISHF
BDL,2017-04-01 21:50,-72.6825,41.9381,M,M,M,360.00,12.00,M,29.95,M,10.00,M,SCT,SCT,BKN,M,1400.00,2900.00,6000.00,M,M,KBDL 012150Z AUTO 36012KT 10SM SCT014 SCT029 BKN060 A2995 RMK MADISHF
BDL,2017-04-01 21:51,-72.6825,41.9381,37.90,34.00,85.69,10.00,12.00,0.00,29.95,1014.30,10.00,M,SCT,SCT,BKN,OVC,1400.00,2900.00,6000.00,13000.00,M,KBDL 012151Z 01012KT 10SM SCT014 SCT029 BKN060 OVC130 03/01 A2995 RMK AO2 RAB2053E06B37E42 SLP143 P0000 T00330011
BDL,2017-04-01 21:55,-72.6825,41.9381,37.90,35.10,89.53,360.00,10.00,0.00,29.95,M,10.00,M,BKN,BKN,OVC,M,1400.00,3100.00,8000.00,M,M,KBDL 012155Z 36010KT 10SM BKN014 BKN031 OVC080 03/02 A2995 RMK AO2 T00330017
BDL,2017-04-01 22:00,-72.6825,41.9381,M,M,M,360.00,11.00,M,29.96,M,10.00,M,BKN,BKN,OVC,M,1200.00,1800.00,7999.00,M,M,KBDL 012200Z AUTO 36011KT 10SM BKN012 BKN018 OVC079 A2996 RMK MADISHF
BDL,2017-04-01 22:05,-72.6825,41.9381,M,M,M,10.00,13.00,M,29.96,M,10.00,M,BKN,BKN,OVC,M,1200.00,1800.00,7999.00,M,M,KBDL 012205Z AUTO 01013KT 10SM BKN012 BKN018 OVC079 A2996 RMK MADISHF
BDL,2017-04-01 22:10,-72.6825,41.9381,M,M,M,10.00,12.00,M,29.96,M,10.00,M,BKN,BKN,OVC,M,1200.00,1800.00,7999.00,M,M,KBDL 012210Z AUTO 01012KT 10SM BKN012 BKN018 OVC079 A2996 RMK MADISHF
BDL,2017-04-01 22:15,-72.6825,41.9381,M,M,M,360.00,11.00,M,29.96,M,10.00,M,BKN,BKN,OVC,M,1200.00,1800.00,7999.00,M,M,KBDL 012215Z AUTO 36011KT 10SM BKN012 BKN018 OVC079 A2996 RMK MADISHF
BDL,2017-04-01 22:20,-72.6825,41.9381,M,M,M,360.00,14.00,M,29.96,M,10.00,M,BKN,BKN,OVC,M,1200.00,1800.00,7999.00,M,M,KBDL 012220Z AUTO 36014KT 10SM BKN012 BKN018 OVC079 A2996 RMK MADISHF
BDL,2017-04-01 22:25,-72.6825,41.9381,M,M,M,360.00,11.00,M,29.97,M,10.00,M,SCT,SCT,OVC,M,1200.00,5500.00,7000.00,M,M,KBDL 012225Z AUTO 36011KT 10SM SCT012 SCT055 OVC070 A2997 RMK MADISHF
BDL,2017-04-01 22:29,-72.6825,41.9381,37.90,33.10,82.66,360.00,12.00,0.00,29.97,M,10.00,M,SCT,BKN,OVC,M,1200.00,6000.00,7500.00,M,M,KBDL 012229Z 36012KT 10SM SCT012 BKN060 OVC075 03/01 A2997 RMK AO2 T00330006
BDL,2017-04-01 22:30,-72.6825,41.9381,M,M,M,360.00,12.00,M,29.97,M,10.00,17.00,SCT,BKN,OVC,M,1200.00,6000.00,7500.00,M,M,KBDL 012230Z AUTO 36012G17KT 10SM SCT012 BKN060 OVC075 A2997 RMK MADISHF
BDL,2017-04-01 22:35,-72.6825,41.9381,M,M,M,360.00,12.00,M,29.97,M,10.00,17.00,SCT,BKN,OVC,M,1200.00,6000.00,7500.00,M,M,KBDL 012235Z AUTO 36012G17KT 10SM SCT012 BKN060 OVC075 A2997 RMK MADISHF
BDL,2017-04-01 22:40,-72.6825,41.9381,M,M,M,360.00,11.00,M,29.97,M,10.00,M,FEW,OVC,M,M,1900.00,6000.00,M,M,M,KBDL 012240Z AUTO 36011KT 10SM FEW019 OVC060 A2997 RMK MADISHF
BDL,2017-04-01 22:45,-72.6825,41.9381,M,M,M,360.00,12.00,M,29.97,M,8.00,M,FEW,BKN,OVC,M,1699.00,5500.00,7000.00,M,M,KBDL 012245Z AUTO 36012KT 8SM FEW016 BKN055 OVC070 A2997 RMK MADISHF
BDL,2017-04-01 22:50,-72.6825,41.9381,M,M,M,360.00,13.00,M,29.98,M,9.00,M,FEW,BKN,M,M,1699.00,5500.00,M,M,M,KBDL 012250Z AUTO 36013KT 9SM FEW016 BKN055 A2998 RMK MADISHF
BDL,2017-04-01 22:51,-72.6825,41.9381,37.00,33.10,85.64,10.00,14.00,0.00,29.98,1015.20,9.00,M,FEW,BKN,BKN,M,1700.00,5500.00,15000.00,M,M,KBDL 012251Z 01014KT 9SM FEW017 BKN055 BKN150 03/01 A2998 RMK AO2 SLP152 T00280006
BDL,2017-04-01 22:55,-72.6825,41.9381,M,M,M,10.00,11.00,M,29.97,M,9.00,M,FEW,OVC,M,M,1500.00,6000.00,M,M,M,KBDL 012255Z AUTO 01011KT 9SM FEW015 OVC060 A2997 RMK MADISHF
BDL,2017-04-01 23:00,-72.6825,41.9381,M,M,M,10.00,11.00,M,29.98,M,10.00,M,FEW,OVC,M,M,1300.00,6000.00,M,M,M,KBDL 012300Z AUTO 01011KT 10SM FEW013 OVC060 A2998 RMK MADISHF
BDL,2017-04-01 23:05,-72.6825,41.9381,M,M,M,360.00,10.00,M,29.98,M,10.00,M,FEW,OVC,M,M,1500.00,6000.00,M,M,M,KBDL 012305Z AUTO 36010KT 10SM FEW015 OVC060 A2998 RMK MADISHF
BDL,2017-04-01 23:10,-72.6825,41.9381,M,M,M,10.00,9.00,M,29.98,M,10.00,M,FEW,OVC,M,M,1500.00,6000.00,M,M,M,KBDL 012310Z AUTO 01009KT 10SM FEW015 OVC060 A2998 RMK MADISHF
BDL,2017-04-01 23:15,-72.6825,41.9381,M,M,M,360.00,8.00,M,29.98,M,10.00,M,FEW,BKN,OVC,M,1500.00,6000.00,10000.00,M,M,KBDL 012315Z AUTO 36008KT 10SM FEW015 BKN060 OVC100 A2998 RMK MADISHF
BDL,2017-04-01 23:20,-72.6825,41.9381,M,M,M,10.00,9.00,M,29.98,M,10.00,M,FEW,BKN,OVC,M,3700.00,6500.00,10000.00,M,M,KBDL 012320Z AUTO 01009KT 10SM FEW037 BKN065 OVC100 A2998 RMK MADISHF
BDL,2017-04-01 23:25,-72.6825,41.9381,M,M,M,360.00,8.00,M,29.98,M,10.00,M,FEW,BKN,OVC,M,3700.00,6500.00,10000.00,M,M,KBDL 012325Z AUTO 36008KT 10SM FEW037 BKN065 OVC100 A2998 RMK MADISHF
BDL,2017-04-01 23:30,-72.6825,41.9381,M,M,M,10.00,7.00,M,29.98,M,10.00,M,FEW,BKN,OVC,M,3700.00,6000.00,10000.00,M,M,KBDL 012330Z AUTO 01007KT 10SM FEW037 BKN060 OVC100 A2998 RMK MADISHF
BDL,2017-04-01 23:35,-72.6825,41.9381,M,M,M,10.00,8.00,M,29.98,M,10.00,M,FEW,BKN,OVC,M,3800.00,6500.00,10000.00,M,M,KBDL 012335Z AUTO 01008KT 10SM FEW038 BKN065 OVC100 A2998 RMK MADISHF
BDL,2017-04-01 23:40,-72.6825,41.9381,M,M,M,10.00,10.00,M,29.98,M,10.00,M,FEW,BKN,OVC,M,3800.00,5000.00,10000.00,M,M,KBDL 012340Z AUTO 01010KT 10SM FEW038 BKN050 OVC100 A2998 RMK MADISHF
BDL,2017-04-01 23:45,-72.6825,41.9381,M,M,M,10.00,7.00,M,29.99,M,10.00,M,FEW,BKN,OVC,M,3800.00,5000.00,9500.00,M,M,KBDL 012345Z AUTO 01007KT 10SM FEW038 BKN050 OVC095 A2999 RMK MADISHF
BDL,2017-04-01 23:50,-72.6825,41.9381,M,M,M,10.00,7.00,M,29.99,M,10.00,M,SCT,BKN,M,M,5000.00,9500.00,M,M,M,KBDL 012350Z AUTO 01007KT 10SM SCT050 BKN095 A2999 RMK MADISHF
BDL,2017-04-01 23:51,-72.6825,41.9381,37.00,33.10,85.64,360.00,8.00,0.00,29.99,1015.70,10.00,M,SCT,BKN,BKN,M,5000.00,9500.00,17000.00,M,M,KBDL 012351Z 36008KT 10SM SCT050 BKN095 BKN170 03/01 A2999 RMK AO2 SLP157 60000 T00280006 10039 20028 51024
BDL,2017-04-01 23:55,-72.6825,41.9381,M,M,M,360.00,8.00,M,29.99,M,10.00,M,SCT,OVC,M,M,5000.00,9000.00,M,M,M,KBDL 012355Z AUTO 36008KT 10SM SCT050 OVC090 A2999 RMK MADISHF
