#DEBUG: Format Typ    -> comma
#DEBUG: Time Period   -> 2017-04-01 00:00:00+00:00 2017-04-02 00:00:00+00:00
#DEBUG: Time Zone     -> Etc/UTC
#DEBUG: Data Contact   -> daryl herzmann akrherz@iastate.edu 515-294-5978
#DEBUG: Entries Found -> -1
station,valid,lon,lat,tmpf, dwpf, relh, drct, sknt, p01i, alti, mslp, vsby, gust, skyc1, skyc2, skyc3, skyc4, skyl1, skyl2, skyl3, skyl4, presentwx, metar
BDN,2017-04-01 00:15,-121.2002,44.0946,53.60,21.20,27.91,340.00,8.00,0.00,30.20,M,10.00,13.00,CLR,M,M,M,M,M,M,M,M,KBDN 010015Z AUTO 34008G13KT 10SM CLR 12/M06 A3020 RMK AO2
BDN,2017-04-01 00:35,-121.2002,44.0946,53.60,21.20,27.91,330.00,9.00,0.00,30.20,M,10.00,M,CLR,M,M,M,M,M,M,M,M,KBDN 010035Z AUTO 33009KT 10SM CLR 12/M06 A3020 RMK AO2
BDN,2017-04-01 00:55,-121.2002,44.0946,53.60,19.40,25.85,360.00,9.00,0.00,30.20,M,10.00,M,CLR,M,M,M,M,M,M,M,M,KBDN 010055Z AUTO 36009KT 10SM CLR 12/M07 A3020 RMK AO2
BDN,2017-04-01 01:15,-121.2002,44.0946,51.80,19.40,27.62,360.00,9.00,0.00,30.20,M,10.00,M,CLR,M,M,M,M,M,M,M,M,KBDN 010115Z AUTO 36009KT 10SM CLR 11/M07 A3020 RMK AO2
BDN,2017-04-01 01:35,-121.2002,44.0946,51.80,19.40,27.62,10.00,6.00,0.00,30.20,M,10.00,11.00,CLR,M,M,M,M,M,M,M,M,KBDN 010135Z AUTO 01006G11KT 10SM CLR 11/M07 A3020 RMK AO2
BDN,2017-04-01 01:55,-121.2002,44.0946,51.80,21.20,29.82,20.00,6.00,0.00,30.20,M,10.00,M,CLR,M,M,M,M,M,M,M,M,KBDN 010155Z AUTO 02006KT 10SM CLR 11/M06 A3020 RMK AO2
BDN,2017-04-01 02:15,-121.2002,44.0946,50.00,23.00,34.39,0.00,0.00,0.00,30.20,M,10.00,M,CLR,M,M,M,M,M,M,M,M,KBDN 010215Z AUTO 00000KT 10SM CLR 10/M05 A3020 RMK AO2
BDN,2017-04-01 02:35,-121.2002,44.0946,48.20,23.00,36.78,0.00,0.00,0.00,30.20,M,10.00,M,CLR,M,M,M,M,M,M,M,M,KBDN 010235Z AUTO 00000KT 10SM CLR 09/M05 A3020 RMK AO2
BDN,2017-04-01 02:55,-121.2002,44.0946,46.40,24.80,42.44,0.00,0.00,0.00,30.20,M,10.00,M,CLR,M,M,M,M,M,M,M,M,KBDN 010255Z AUTO 00000KT 10SM CLR 08/M04 A3020 RMK AO2
BDN,2017-04-01 03:15,-121.2002,44.0946,44.60,24.80,45.44,0.00,0.00,0.00,30.22,M,10.00,M,CLR,M,M,M,M,M,M,M,M,KBDN 010315Z AUTO 00000KT 10SM CLR 07/M04 A3022 RMK AO2
BDN,2017-04-01 03:35,-121.2002,44.0946,42.80,26.60,52.45,0.00,0.00,0.00,30.23,M,10.00,M,CLR,M,M,M,M,M,M,M,M,KBDN 010335Z AUTO 00000KT 10SM CLR 06/M03 A3023 RMK AO2
BDN,2017-04-01 03:55,-121.2002,44.0946,42.80,24.80,48.67,0.00,0.00,0.00,30.23,M,M,M,CLR,M,M,M,M,M,M,M,M,KBDN 010355Z AUTO 00000KT CLR 06/M04 A3023 RMK AO2
BDN,2017-04-01 04:15,-121.2002,44.0946,41.00,24.80,52.17,0.00,0.00,0.00,30.22,M,10.00,M,CLR,M,M,M,M,M,M,M,M,KBDN 010415Z AUTO 00000KT 10SM CLR 05/M04 A3022 RMK AO2
BDN,2017-04-01 04:35,-121.2002,44.0946,39.20,24.80,55.95,0.00,0.00,0.00,30.22,M,10.00,M,CLR,M,M,M,M,M,M,M,M,KBDN 010435Z AUTO 00000KT 10SM CLR 04/M04 A3022 RMK AO2
BDN,2017-04-01 04:55,-121.2002,44.0946,39.20,24.80,55.95,220.00,3.00,0.00,30.23,M,10.00,M,CLR,M,M,M,M,M,M,M,M,KBDN 010455Z AUTO 22003KT 10SM CLR 04/M04 A3023 RMK AO2
BDN,2017-04-01 05:15,-121.2002,44.0946,39.20,24.80,55.95,0.00,0.00,0.00,30.23,M,10.00,M,CLR,M,M,M,M,M,M,M,M,KBDN 010515Z AUTO 00000KT 10SM CLR 04/M04 A3023 RMK AO2
BDN,2017-04-01 05:35,-121.2002,44.0946,39.20,24.80,55.95,210.00,5.00,0.00,30.23,M,10.00,M,CLR,M,M,M,M,M,M,M,M,KBDN 010535Z AUTO 21005KT 10SM CLR 04/M04 A3023 RMK AO2
BDN,2017-04-01 05:55,-121.2002,44.0946,39.20,23.00,51.89,210.00,8.00,0.00,30.23,M,10.00,M,CLR,M,M,M,M,M,M,M,M,KBDN 010555Z AUTO 21008KT 10SM CLR 04/M05 A3023 RMK AO2
BDN,2017-04-01 06:15,-121.2002,44.0946,37.40,23.00,55.68,220.00,7.00,0.00,30.23,M,10.00,M,CLR,M,M,M,M,M,M,M,M,KBDN 010615Z AUTO 22007KT 10SM CLR 03/M05 A3023 RMK AO2
BDN,2017-04-01 06:35,-121.2002,44.0946,37.40,23.00,55.68,210.00,5.00,0.00,30.23,M,10.00,M,CLR,M,M,M,M,M,M,M,M,KBDN 010635Z AUTO 21005KT 10SM CLR 03/M05 A3023 RMK AO2
BDN,2017-04-01 06:55,-121.2002,44.0946,37.40,24.80,60.04,220.00,5.00,0.00,30.23,M,10.00,M,CLR,M,M,M,M,M,M,M,M,KBDN 010655Z AUTO 22005KT 10SM CLR 03/M04 A3023 RMK AO2
BDN,2017-04-01 07:15,-121.2002,44.0946,37.40,23.00,55.68,210.00,7.00,0.00,30.23,M,10.00,M,CLR,M,M,M,M,M,M,M,M,KBDN 010715Z AUTO 21007KT 10SM CLR 03/M05 A3023 RMK AO2
BDN,2017-04-01 07:35,-121.2002,44.0946,37.40,23.00,55.68,200.00,7.00,0.00,30.22,M,10.00,M,CLR,M,M,M,M,M,M,M,M,KBDN 010735Z AUTO 20007KT 10SM CLR 03/M05 A3022 RMK AO2
BDN,2017-04-01 07:55,-121.2002,44.0946,37.40,24.80,60.04,210.00,6.00,0.00,30.22,M,10.00,M,CLR,M,M,M,M,M,M,M,M,KBDN 010755Z AUTO 21006KT 10SM CLR 03/M04 A3022 RMK AO2
BDN,2017-04-01 08:15,-121.2002,44.0946,37.40,24.80,60.04,0.00,0.00,0.00,30.22,M,10.00,M,CLR,M,M,M,M,M,M,M,M,KBDN 010815Z AUTO 00000KT 10SM CLR 03/M04 A3022 RMK AO2
BDN,2017-04-01 08:35,-121.2002,44.0946,37.40,24.80,60.04,0.00,0.00,0.00,30.22,M,10.00,M,CLR,M,M,M,M,M,M,M,M,KBDN 010835Z AUTO 00000KT 10SM CLR 03/M04 A3022 RMK AO2
BDN,2017-04-01 08:55,-121.2002,44.0946,35.60,24.80,64.46,220.00,6.00,0.00,30.22,M,10.00,M,CLR,M,M,M,M,M,M,M,M,KBDN 010855Z AUTO 22006KT 10SM CLR 02/M04 A3022 RMK AO2
BDN,2017-04-01 09:15,-121.2002,44.0946,35.60,24.80,64.46,210.00,8.00,0.00,30.21,M,10.00,M,CLR,M,M,M,M,M,M,M,M,KBDN 010915Z AUTO 21008KT 10SM CLR 02/M04 A3021 RMK AO2
BDN,2017-04-01 09:35,-121.2002,44.0946,37.40,23.00,55.68,210.00,9.00,0.00,30.20,M,10.00,M,CLR,M,M,M,M,M,M,M,M,KBDN 010935Z AUTO 21009KT 10SM CLR 03/M05 A3020 RMK AO2
BDN,2017-04-01 09:55,-121.2002,44.0946,37.40,23.00,55.68,210.00,8.00,0.00,30.19,M,10.00,M,CLR,M,M,M,M,M,M,M,M,KBDN 010955Z AUTO 21008KT 10SM CLR 03/M05 A3019 RMK AO2
BDN,2017-04-01 10:15,-121.2002,44.0946,39.20,24.80,55.95,230.00,7.00,0.00,30.19,M,10.00,M,CLR,M,M,M,M,M,M,M,M,KBDN 011015Z AUTO 23007KT 10SM CLR 04/M04 A3019 RMK AO2
BDN,2017-04-01 10:35,-121.2002,44.0946,37.40,24.80,60.04,0.00,0.00,0.00,30.19,M,10.00,M,CLR,M,M,M,M,M,M,M,M,KBDN 011035Z AUTO 00000KT 10SM CLR 03/M04 A3019 RMK AO2
BDN,2017-04-01 10:55,-121.2002,44.0946,37.40,24.80,60.04,200.00,5.00,0.00,30.19,M,10.00,M,CLR,M,M,M,M,M,M,M,M,KBDN 011055Z AUTO 20005KT 10SM CLR 03/M04 A3019 RMK AO2
BDN,2017-04-01 11:15,-121.2002,44.0946,37.40,26.60,64.70,220.00,4.00,0.00,30.19,M,10.00,M,CLR,M,M,M,M,M,M,M,M,KBDN 011115Z AUTO 22004KT 10SM CLR 03/M03 A3019 RMK AO2
BDN,2017-04-01 11:35,-121.2002,44.0946,35.60,26.60,69.46,200.00,6.00,0.00,30.19,M,10.00,M,CLR,M,M,M,M,M,M,M,M,KBDN 011135Z AUTO 20006KT 10SM CLR 02/M03 A3019 RMK AO2
BDN,2017-04-01 11:55,-121.2002,44.0946,39.20,28.40,64.93,220.00,8.00,0.00,30.19,M,10.00,M,CLR,M,M,M,M,M,M,M,M,KBDN 011155Z AUTO 22008KT 10SM CLR 04/M02 A3019 RMK AO2
BDN,2017-04-01 12:15,-121.2002,44.0946,39.20,28.40,64.93,160.00,4.00,0.00,30.18,M,10.00,M,CLR,M,M,M,M,M,M,M,M,KBDN 011215Z AUTO 16004KT 10SM CLR 04/M02 A3018 RMK AO2
BDN,2017-04-01 12:35,-121.2002,44.0946,33.80,24.80,69.25,150.00,6.00,0.00,30.19,M,10.00,M,CLR,M,M,M,M,M,M,M,M,KBDN 011235Z AUTO 15006KT 10SM CLR 01/M04 A3019 RMK AO2
BDN,2017-04-01 12:55,-121.2002,44.0946,33.80,24.80,69.25,0.00,0.00,0.00,30.20,M,10.00,M,CLR,M,M,M,M,M,M,M,M,KBDN 011255Z AUTO 00000KT 10SM CLR 01/M04 A3020 RMK AO2
BDN,2017-04-01 13:15,-121.2002,44.0946,33.80,24.80,69.25,0.00,0.00,0.00,30.20,M,M,M,CLR,M,M,M,M,M,M,M,M,KBDN 011315Z AUTO 00000KT CLR 01/M04 A3020 RMK AO2
BDN,2017-04-01 13:35,-121.2002,44.0946,33.80,23.00,64.23,0.00,0.00,0.00,30.20,M,10.00,M,CLR,M,M,M,M,M,M,M,M,KBDN 011335Z AUTO 00000KT 10SM CLR 01/M05 A3020 RMK AO2
BDN,2017-04-01 13:55,-121.2002,44.0946,33.80,24.80,69.25,0.00,0.00,0.00,30.20,M,10.00,M,CLR,M,M,M,M,M,M,M,M,KBDN 011355Z AUTO 00000KT 10SM CLR 01/M04 A3020 RMK AO2
BDN,2017-04-01 14:15,-121.2002,44.0946,33.80,24.80,69.25,160.00,4.00,0.00,30.20,M,10.00,M,CLR,M,M,M,M,M,M,M,M,KBDN 011415Z AUTO 16004KT 10SM CLR 01/M04 A3020 RMK AO2
BDN,2017-04-01 14:35,-121.2002,44.0946,35.60,28.40,74.80,180.00,4.00,0.00,30.19,M,10.00,M,CLR,M,M,M,M,M,M,M,M,KBDN 011435Z AUTO 18004KT 10SM CLR 02/M02 A3019 RMK AO2
BDN,2017-04-01 14:55,-121.2002,44.0946,41.00,30.20,65.16,190.00,6.00,0.00,30.19,M,10.00,M,CLR,M,M,M,M,M,M,M,M,KBDN 011455Z AUTO 19006KT 10SM CLR 05/M01 A3019 RMK AO2
BDN,2017-04-01 15:15,-121.2002,44.0946,44.60,30.20,56.74,190.00,6.00,0.00,30.20,M,10.00,M,CLR,M,M,M,M,M,M,M,M,KBDN 011515Z AUTO 19006KT 10SM CLR 07/M01 A3020 RMK AO2
BDN,2017-04-01 15:35,-121.2002,44.0946,44.60,30.20,56.74,0.00,0.00,0.00,30.20,M,10.00,M,SCT,M,M,M,7000.00,M,M,M,M,KBDN 011535Z AUTO 00000KT 10SM SCT070 07/M01 A3020 RMK AO2
BDN,2017-04-01 15:55,-121.2002,44.0946,46.40,30.20,53.00,200.00,5.00,0.00,30.19,M,10.00,M,SCT,M,M,M,6500.00,M,M,M,M,KBDN 011555Z AUTO 20005KT 10SM SCT065 08/M01 A3019 RMK AO2
BDN,2017-04-01 16:15,-121.2002,44.0946,48.20,30.20,49.53,180.00,6.00,0.00,30.19,M,10.00,M,CLR,M,M,M,M,M,M,M,M,KBDN 011615Z AUTO 18006KT 10SM CLR 09/M01 A3019 RMK AO2
BDN,2017-04-01 16:35,-121.2002,44.0946,51.80,30.20,43.32,180.00,4.00,0.00,30.18,M,10.00,M,CLR,M,M,M,M,M,M,M,M,KBDN 011635Z AUTO 18004KT 10SM CLR 11/M01 A3018 RMK AO2
BDN,2017-04-01 16:55,-121.2002,44.0946,51.80,32.00,46.59,0.00,0.00,0.00,30.17,M,10.00,M,CLR,M,M,M,M,M,M,M,M,KBDN 011655Z AUTO 00000KT 10SM CLR 11/00 A3017 RMK AO2
BDN,2017-04-01 17:15,-121.2002,44.0946,53.60,32.00,43.61,0.00,0.00,0.00,30.17,M,10.00,M,CLR,M,M,M,M,M,M,M,M,KBDN 011715Z AUTO 00000KT 10SM CLR 12/00 A3017 RMK AO2
BDN,2017-04-01 17:35,-121.2002,44.0946,55.40,33.80,43.90,0.00,0.00,0.00,30.17,M,10.00,M,CLR,M,M,M,M,M,M,M,M,KBDN 011735Z AUTO 00000KT 10SM CLR 13/01 A3017 RMK AO2
BDN,2017-04-01 17:55,-121.2002,44.0946,57.20,33.80,41.13,0.00,0.00,0.00,30.17,M,10.00,M,CLR,M,M,M,M,M,M,M,M,KBDN 011755Z AUTO 00000KT 10SM CLR 14/01 A3017 RMK AO2
BDN,2017-04-01 18:15,-121.2002,44.0946,59.00,39.20,47.72,M,3.00,0.00,30.17,M,10.00,M,CLR,M,M,M,M,M,M,M,M,KBDN 011815Z AUTO VRB03KT 10SM CLR 15/04 A3017 RMK AO2
BDN,2017-04-01 18:35,-121.2002,44.0946,59.00,39.20,47.72,M,5.00,0.00,30.16,M,10.00,M,CLR,M,M,M,M,M,M,M,M,KBDN 011835Z AUTO VRB05KT 10SM CLR 15/04 A3016 RMK AO2
BDN,2017-04-01 18:55,-121.2002,44.0946,60.80,39.20,44.76,260.00,5.00,0.00,30.16,M,10.00,10.00,CLR,M,M,M,M,M,M,M,M,KBDN 011855Z AUTO 26005G10KT 10SM CLR 16/04 A3016 RMK AO2
BDN,2017-04-01 19:15,-121.2002,44.0946,60.80,39.20,44.76,0.00,0.00,0.00,30.15,M,10.00,M,CLR,M,M,M,M,M,M,M,M,KBDN 011915Z AUTO 00000KT 10SM CLR 16/04 A3015 RMK AO2
BDN,2017-04-01 19:35,-121.2002,44.0946,62.60,41.00,45.04,350.00,6.00,0.00,30.14,M,10.00,11.00,SCT,SCT,M,M,6000.00,7000.00,M,M,M,KBDN 011935Z AUTO 35006G11KT 10SM SCT060 SCT070 17/05 A3014 RMK AO2
BDN,2017-04-01 19:55,-121.2002,44.0946,62.60,41.00,45.04,330.00,8.00,0.00,30.13,M,10.00,M,SCT,BKN,M,M,4800.00,5500.00,M,M,M,KBDN 011955Z AUTO 33008KT 10SM SCT048 BKN055 17/05 A3013 RMK AO2
BDN,2017-04-01 20:15,-121.2002,44.0946,64.40,42.80,45.32,330.00,10.00,0.00,30.13,M,10.00,M,FEW,SCT,SCT,M,4700.00,6000.00,7000.00,M,M,KBDN 012015Z AUTO 33010KT 10SM FEW047 SCT060 SCT070 18/06 A3013 RMK AO2
BDN,2017-04-01 20:35,-121.2002,44.0946,62.60,42.80,48.28,320.00,9.00,0.00,30.13,M,10.00,M,SCT,SCT,M,M,6000.00,7500.00,M,M,M,KBDN 012035Z AUTO 32009KT 10SM SCT060 SCT075 17/06 A3013 RMK AO2
BDN,2017-04-01 20:55,-121.2002,44.0946,62.60,42.80,48.28,350.00,11.00,0.00,30.13,M,10.00,M,FEW,SCT,SCT,M,5000.00,6500.00,7500.00,M,M,KBDN 012055Z AUTO 35011KT 10SM FEW050 SCT065 SCT075 17/06 A3013 RMK AO2
BDN,2017-04-01 21:15,-121.2002,44.0946,62.60,44.60,51.72,320.00,11.00,0.00,30.13,M,10.00,M,SCT,SCT,SCT,M,5000.00,6000.00,7500.00,M,-DZ,KBDN 012115Z AUTO 32011KT 10SM -DZ SCT050 SCT060 SCT075 17/07 A3013 RMK AO2
BDN,2017-04-01 21:35,-121.2002,44.0946,62.60,42.80,48.28,320.00,13.00,0.00,30.12,M,10.00,M,FEW,FEW,M,M,5000.00,6000.00,M,M,M,KBDN 012135Z AUTO 32013KT 10SM FEW050 FEW060 17/06 A3012 RMK AO2
BDN,2017-04-01 21:55,-121.2002,44.0946,64.40,42.80,45.32,320.00,16.00,0.00,30.12,M,10.00,22.00,CLR,M,M,M,M,M,M,M,M,KBDN 012155Z AUTO 32016G22KT 10SM CLR 18/06 A3012 RMK AO2
BDN,2017-04-01 22:15,-121.2002,44.0946,60.80,42.80,51.45,320.00,10.00,0.00,30.12,M,10.00,22.00,FEW,FEW,M,M,3300.00,4900.00,M,M,M,KBDN 012215Z AUTO 32010G22KT 10SM FEW033 FEW049 16/06 A3012 RMK AO2
BDN,2017-04-01 22:35,-121.2002,44.0946,60.80,42.80,51.45,330.00,15.00,0.00,30.13,M,10.00,20.00,FEW,FEW,FEW,M,3300.00,4800.00,5500.00,M,M,KBDN 012235Z AUTO 33015G20KT 10SM FEW033 FEW048 FEW055 16/06 A3013 RMK AO2
BDN,2017-04-01 22:55,-121.2002,44.0946,60.80,42.80,51.45,330.00,15.00,0.00,30.13,M,10.00,20.00,FEW,FEW,FEW,M,4500.00,6000.00,7000.00,M,M,KBDN 012255Z AUTO 33015G20KT 10SM FEW045 FEW060 FEW070 16/06 A3013 RMK AO2
BDN,2017-04-01 23:15,-121.2002,44.0946,59.00,42.80,54.86,320.00,13.00,0.00,30.14,M,10.00,19.00,CLR,M,M,M,M,M,M,M,M,KBDN 012315Z AUTO 32013G19KT 10SM CLR 15/06 A3014 RMK AO2
BDN,2017-04-01 23:35,-121.2002,44.0946,59.00,41.00,51.18,340.00,10.00,0.00,30.15,M,10.00,19.00,BKN,BKN,BKN,M,3600.00,7000.00,8500.00,M,M,KBDN 012335Z AUTO 34010G19KT 10SM BKN036 BKN070 BKN085 15/05 A3015 RMK AO2
BDN,2017-04-01 23:55,-121.2002,44.0946,57.20,44.60,62.69,360.00,10.00,0.00,30.15,M,10.00,15.00,OVC,M,M,M,3500.00,M,M,M,M,KBDN 012355Z AUTO 36010G15KT 10SM OVC035 14/07 A3015 RMK AO2
