#DEBUG: Format Typ    -> comma
#DEBUG: Time Period   -> 2017-04-01 00:00:00+00:00 2017-04-02 00:00:00+00:00
#DEBUG: Time Zone     -> Etc/UTC
#DEBUG: Data Contact   -> daryl herzmann akrherz@iastate.edu 515-294-5978
#DEBUG: Entries Found -> -1
station,valid,lon,lat,tmpf, dwpf, relh, drct, sknt, p01i, alti, mslp, vsby, gust, skyc1, skyc2, skyc3, skyc4, skyl1, skyl2, skyl3, skyl4, presentwx, metar
BDR,2017-04-01 00:00,-73.1289,41.1583,M,M,M,M,M,M,29.87,M,5.00,M,OVC,M,M,M,1300.00,M,M,M,-RA BR,KBDR 010000Z AUTO /////KT 5SM -RA BR OVC013 A2987 RMK MADISHF
BDR,2017-04-01 00:05,-73.1289,41.1583,M,M,M,M,M,M,29.86,M,5.00,M,OVC,M,M,M,1100.00,M,M,M,-RA BR,KBDR 010005Z AUTO /////KT 5SM -RA BR OVC011 A2986 RMK MADISHF
BDR,2017-04-01 00:10,-73.1289,41.1583,M,M,M,M,M,0.01,29.86,M,5.00,M,OVC,M,M,M,1100.00,M,M,M,-RA BR,KBDR 010010Z AUTO /////KT 5SM -RA BR OVC011 A2986 RMK P0001 MADISHF
BDR,2017-04-01 00:15,-73.1289,41.1583,M,M,M,M,M,0.01,29.86,M,5.00,M,OVC,M,M,M,1100.00,M,M,M,-RA BR,KBDR 010015Z AUTO /////KT 5SM -RA BR OVC011 A2986 RMK P0001 CIG 8V16  MADISHF
BDR,2017-04-01 00:20,-73.1289,41.1583,M,M,M,M,M,0.01,29.86,M,4.00,M,OVC,M,M,M,1100.00,M,M,M,RA BR,KBDR 010020Z AUTO /////KT 4SM RA BR OVC011 A2986 RMK P0001 MADISHF
BDR,2017-04-01 00:25,-73.1289,41.1583,M,M,M,M,M,0.02,29.85,M,4.00,M,BKN,OVC,M,M,1100.00,1400.00,M,M,RA BR,KBDR 010025Z AUTO /////KT 4SM RA BR BKN011 OVC014 A2985 RMK P0002 MADISHF
BDR,2017-04-01 00:30,-73.1289,41.1583,M,M,M,M,M,0.03,29.85,M,4.00,M,OVC,M,M,M,1400.00,M,M,M,-RA BR,KBDR 010030Z AUTO /////KT 4SM -RA BR OVC014 A2985 RMK P0003 MADISHF
BDR,2017-04-01 00:35,-73.1289,41.1583,M,M,M,M,M,0.03,29.85,M,4.00,M,OVC,M,M,M,1400.00,M,M,M,-RA BR,KBDR 010035Z AUTO /////KT 4SM -RA BR OVC014 A2985 RMK P0003 MADISHF
BDR,2017-04-01 00:40,-73.1289,41.1583,M,M,M,M,M,0.03,29.85,M,4.00,M,OVC,M,M,M,1400.00,M,M,M,RA BR,KBDR 010040Z AUTO /////KT 4SM RA BR OVC014 A2985 RMK P0003 MADISHF
BDR,2017-04-01 00:45,-73.1289,41.1583,M,M,M,M,M,0.04,29.85,M,4.00,M,OVC,M,M,M,1400.00,M,M,M,-RA BR,KBDR 010045Z AUTO /////KT 4SM -RA BR OVC014 A2985 RMK P0004 MADISHF
BDR,2017-04-01 00:50,-73.1289,41.1583,M,M,M,80.00,25.00,0.04,29.85,M,5.00,M,OVC,M,M,M,1400.00,M,M,M,-RA BR,KBDR 010050Z AUTO 08025KT 5SM -RA BR OVC014 A2985 RMK P0004 MADISHF
BDR,2017-04-01 00:52,-73.1289,41.1583,39.00,35.10,85.76,80.00,27.00,0.04,29.85,1010.70,5.00,36.00,OVC,M,M,M,1100.00,M,M,M,-RA BR,KBDR 010052Z 08027G36KT 5SM -RA BR OVC011 04/02 A2985 RMK AO2 PK WND 07036/0011 SLP107 P0004 T00390017
BDR,2017-04-01 00:55,-73.1289,41.1583,M,M,M,M,M,M,29.85,M,4.00,M,OVC,M,M,M,1100.00,M,M,M,-RA BR,KBDR 010055Z AUTO /////KT 4SM -RA BR OVC011 A2985 RMK MADISHF
BDR,2017-04-01 01:00,-73.1289,41.1583,M,M,M,M,M,M,29.84,M,4.00,M,OVC,M,M,M,1100.00,M,M,M,-RA BR,KBDR 010100Z AUTO /////KT 4SM -RA BR OVC011 A2984 RMK MADISHF
BDR,2017-04-01 01:05,-73.1289,41.1583,M,M,M,M,M,M,29.84,M,4.00,M,OVC,M,M,M,1200.00,M,M,M,-RA,KBDR 010105Z AUTO /////KT 4SM -RA OVC012 A2984 RMK MADISHF
BDR,2017-04-01 01:10,-73.1289,41.1583,M,M,M,M,M,M,29.84,M,4.00,M,OVC,M,M,M,1200.00,M,M,M,-RA,KBDR 010110Z AUTO /////KT 4SM -RA OVC012 A2984 RMK MADISHF
BDR,2017-04-01 01:15,-73.1289,41.1583,M,M,M,M,M,0.01,29.85,M,4.00,M,OVC,M,M,M,1200.00,M,M,M,-RA,KBDR 010115Z AUTO /////KT 4SM -RA OVC012 A2985 RMK P0001 MADISHF
BDR,2017-04-01 01:20,-73.1289,41.1583,M,M,M,M,M,0.01,29.84,M,3.50,M,OVC,M,M,M,1200.00,M,M,M,-RA BR,KBDR 010120Z AUTO /////KT 3SM -RA BR OVC012 A2984 RMK P0001 MADISHF
BDR,2017-04-01 01:25,-73.1289,41.1583,M,M,M,M,M,0.02,29.84,M,3.50,M,OVC,M,M,M,1100.00,M,M,M,-RA BR,KBDR 010125Z AUTO /////KT 3SM -RA BR OVC011 A2984 RMK P0002 MADISHF
BDR,2017-04-01 01:30,-73.1289,41.1583,M,M,M,M,M,0.02,29.84,M,4.00,M,OVC,M,M,M,1100.00,M,M,M,-RA BR,KBDR 010130Z AUTO /////KT 4SM -RA BR OVC011 A2984 RMK P0002 MADISHF
BDR,2017-04-01 01:35,-73.1289,41.1583,M,M,M,M,M,0.02,29.84,M,4.00,M,OVC,M,M,M,1100.00,M,M,M,-RA BR,KBDR 010135Z AUTO /////KT 4SM -RA BR OVC011 A2984 RMK P0002 MADISHF
BDR,2017-04-01 01:40,-73.1289,41.1583,M,M,M,M,M,0.02,29.84,M,5.00,M,OVC,M,M,M,1100.00,M,M,M,-RA BR,KBDR 010140Z AUTO /////KT 5SM -RA BR OVC011 A2984 RMK P0002 MADISHF
BDR,2017-04-01 01:45,-73.1289,41.1583,M,M,M,M,M,0.02,29.84,M,5.00,M,OVC,M,M,M,1100.00,M,M,M,-RA BR,KBDR 010145Z AUTO /////KT 5SM -RA BR OVC011 A2984 RMK P0002 MADISHF
BDR,2017-04-01 01:50,-73.1289,41.1583,M,M,M,70.00,27.00,0.03,29.84,M,5.00,M,OVC,M,M,M,1100.00,M,M,M,-RA BR,KBDR 010150Z AUTO 07027KT 5SM -RA BR OVC011 A2984 RMK P0003 MADISHF
BDR,2017-04-01 01:52,-73.1289,41.1583,39.00,35.10,85.76,70.00,25.00,0.03,29.83,1010.20,5.00,32.00,OVC,M,M,M,1100.00,M,M,M,-RA BR,KBDR 010152Z 07025G32KT 5SM -RA BR OVC011 04/02 A2983 RMK AO2 PK WND 08037/0110 SLP102 P0003 T00390017
BDR,2017-04-01 01:55,-73.1289,41.1583,M,M,M,M,M,M,29.83,M,5.00,M,BKN,OVC,M,M,900.00,1300.00,M,M,-RA BR,KBDR 010155Z AUTO /////KT 5SM -RA BR BKN009 OVC013 A2983 RMK CIG 8V12  MADISHF
BDR,2017-04-01 02:00,-73.1289,41.1583,M,M,M,M,M,0.01,29.83,M,5.00,M,BKN,OVC,M,M,900.00,1300.00,M,M,RA BR,KBDR 010200Z AUTO /////KT 5SM RA BR BKN009 OVC013 A2983 RMK P0001 CIG 8V12  MADISHF
BDR,2017-04-01 02:05,-73.1289,41.1583,M,M,M,M,M,0.01,29.82,M,5.00,M,OVC,M,M,M,900.00,M,M,M,-RA BR,KBDR 010205Z AUTO /////KT 5SM -RA BR OVC009 A2982 RMK P0001 CIG 8V13  MADISHF
BDR,2017-04-01 02:06,-73.1289,41.1583,39.00,35.10,85.76,70.00,28.00,0.01,29.82,M,5.00,37.00,OVC,M,M,M,900.00,M,M,M,-RA BR,KBDR 010206Z AUTO 07028G37KT 5SM -RA BR OVC009 04/02 A2982 RMK AO2 PK WND 07037/0201 CIG 008V013 P0001 T00390017
BDR,2017-04-01 02:10,-73.1289,41.1583,M,M,M,M,M,0.01,29.82,M,5.00,M,OVC,M,M,M,1100.00,M,M,M,-RA BR,KBDR 010210Z AUTO /////KT 5SM -RA BR OVC011 A2982 RMK P0001 MADISHF
BDR,2017-04-01 02:14,-73.1289,41.1583,39.00,35.10,85.76,70.00,27.00,0.01,29.82,M,5.00,37.00,OVC,M,M,M,1100.00,M,M,M,-RA BR,KBDR 010214Z AUTO 07027G37KT 5SM -RA BR OVC011 04/02 A2982 RMK AO2 PK WND 08037/0212 P0001 T00390017
BDR,2017-04-01 02:15,-73.1289,41.1583,M,M,M,M,M,0.01,29.82,M,5.00,M,OVC,M,M,M,1100.00,M,M,M,-RA BR,KBDR 010215Z AUTO /////KT 5SM -RA BR OVC011 A2982 RMK P0001 MADISHF
BDR,2017-04-01 02:20,-73.1289,41.1583,M,M,M,M,M,0.01,29.81,M,5.00,M,OVC,M,M,M,1100.00,M,M,M,-RA BR,KBDR 010220Z AUTO /////KT 5SM -RA BR OVC011 A2981 RMK P0001 CIG 8V13  MADISHF
BDR,2017-04-01 02:25,-73.1289,41.1583,M,M,M,M,M,0.01,29.80,M,3.00,M,OVC,M,M,M,1100.00,M,M,M,-RA BR,KBDR 010225Z AUTO /////KT 3SM -RA BR OVC011 A2980 RMK P0001 CIG 8V13  MADISHF
BDR,2017-04-01 02:30,-73.1289,41.1583,M,M,M,M,M,0.02,29.80,M,2.50,M,OVC,M,M,M,999.00,M,M,M,RA BR,KBDR 010230Z AUTO /////KT 2 1/2SM RA BR OVC009 A2980 RMK P0002 MADISHF
BDR,2017-04-01 02:33,-73.1289,41.1583,39.00,35.10,85.76,80.00,28.00,0.02,29.80,M,2.50,35.00,OVC,M,M,M,1000.00,M,M,M,-RA BR,KBDR 010233Z AUTO 08028G35KT 2 1/2SM -RA BR OVC010 04/02 A2980 RMK AO2 PK WND 08037/0212 P0002 T00390017
BDR,2017-04-01 02:35,-73.1289,41.1583,M,M,M,M,M,0.02,29.80,M,2.50,M,OVC,M,M,M,999.00,M,M,M,-RA BR,KBDR 010235Z AUTO /////KT 2 1/2SM -RA BR OVC009 A2980 RMK P0002 MADISHF
BDR,2017-04-01 02:40,-73.1289,41.1583,M,M,M,M,M,0.02,29.80,M,2.50,M,OVC,M,M,M,1100.00,M,M,M,-RA BR,KBDR 010240Z AUTO /////KT 2 1/2SM -RA BR OVC011 A2980 RMK P0002 MADISHF
BDR,2017-04-01 02:45,-73.1289,41.1583,M,M,M,M,M,0.03,29.79,M,3.00,M,OVC,M,M,M,1100.00,M,M,M,-RA BR,KBDR 010245Z AUTO /////KT 3SM -RA BR OVC011 A2979 RMK P0003 MADISHF
BDR,2017-04-01 02:50,-73.1289,41.1583,39.20,33.80,80.79,70.00,28.00,0.03,29.79,M,3.00,37.00,BKN,OVC,M,M,1100.00,1500.00,M,M,-RA,KBDR 010250Z AUTO 07028G37KT 3SM -RA BKN011 OVC015 04/01 A2979 RMK AO2 PK WND 08037/0212 P0003
BDR,2017-04-01 02:52,-73.1289,41.1583,39.00,34.00,82.08,70.00,28.00,0.03,29.79,1008.70,3.00,36.00,BKN,OVC,M,M,1100.00,1500.00,M,M,-RA,KBDR 010252Z AUTO 07028G36KT 3SM -RA BKN011 OVC015 04/01 A2979 RMK AO2 PK WND 08037/0212 SLP087 P0003 60010 T00390011 56021
BDR,2017-04-01 02:55,-73.1289,41.1583,M,M,M,M,M,M,29.79,M,3.00,M,BKN,OVC,M,M,1100.00,1500.00,M,M,-RA,KBDR 010255Z AUTO /////KT 3SM -RA BKN011 OVC015 A2979 RMK MADISHF
BDR,2017-04-01 03:00,-73.1289,41.1583,M,M,M,M,M,M,29.78,M,2.50,33.00,BKN,OVC,M,M,999.00,1500.00,M,M,RA BR,KBDR 010300Z AUTO /////G33KT 2 1/2SM RA BR BKN009 OVC015 A2978 RMK MADISHF
BDR,2017-04-01 03:03,-73.1289,41.1583,37.90,34.00,85.69,70.00,26.00,0.00,29.78,M,2.50,33.00,OVC,M,M,M,1000.00,M,M,M,RA BR,KBDR 010303Z AUTO 07026G33KT 2 1/2SM RA BR OVC010 03/01 A2978 RMK AO2 PK WND 07033/0300 P0000 T00330011
BDR,2017-04-01 03:05,-73.1289,41.1583,M,M,M,M,M,M,29.78,M,2.50,M,OVC,M,M,M,999.00,M,M,M,-RA BR,KBDR 010305Z AUTO /////KT 2 1/2SM -RA BR OVC009 A2978 RMK MADISHF
BDR,2017-04-01 03:10,-73.1289,41.1583,M,M,M,M,M,0.02,29.78,M,2.50,32.00,OVC,M,M,M,999.00,M,M,M,RA BR,KBDR 010310Z AUTO /////G32KT 2 1/2SM RA BR OVC009 A2978 RMK P0002 MADISHF
BDR,2017-04-01 03:15,-73.1289,41.1583,M,M,M,M,M,0.03,29.78,M,2.00,M,BKN,OVC,M,M,999.00,1400.00,M,M,+RA BR,KBDR 010315Z AUTO /////KT 2SM +RA BR BKN009 OVC014 A2978 RMK P0003 MADISHF
BDR,2017-04-01 03:20,-73.1289,41.1583,M,M,M,M,M,0.04,29.78,M,2.50,M,BKN,OVC,M,M,999.00,1400.00,M,M,RA BR,KBDR 010320Z AUTO /////KT 2 1/2SM RA BR BKN009 OVC014 A2978 RMK P0004 MADISHF
BDR,2017-04-01 03:25,-73.1289,41.1583,M,M,M,M,M,0.05,29.78,M,3.00,M,OVC,M,M,M,999.00,M,M,M,-RA BR,KBDR 010325Z AUTO /////KT 3SM -RA BR OVC009 A2978 RMK P0005 MADISHF
BDR,2017-04-01 03:30,-73.1289,41.1583,M,M,M,M,M,0.05,29.78,M,3.00,M,BKN,OVC,M,M,999.00,1400.00,M,M,RA BR,KBDR 010330Z AUTO /////KT 3SM RA BR BKN009 OVC014 A2978 RMK P0005 MADISHF
BDR,2017-04-01 03:35,-73.1289,41.1583,37.90,35.10,89.53,70.00,22.00,0.06,29.78,M,3.00,33.00,BKN,OVC,M,M,1000.00,1400.00,M,M,-RA BR,KBDR 010335Z AUTO 07022G33KT 3SM -RA BR BKN010 OVC014 03/02 A2978 RMK AO2 PK WND 07036/0311 P0006 T00330017
BDR,2017-04-01 03:40,-73.1289,41.1583,M,M,M,70.00,21.00,0.06,29.78,M,3.00,M,OVC,M,M,M,1200.00,M,M,M,-RA BR,KBDR 010340Z AUTO 07021KT 3SM -RA BR OVC012 A2978 RMK P0006 MADISHF
BDR,2017-04-01 03:45,-73.1289,41.1583,M,M,M,M,M,0.07,29.78,M,3.50,M,BKN,OVC,M,M,900.00,1400.00,M,M,-RA BR,KBDR 010345Z AUTO /////KT 3SM -RA BR BKN009 OVC014 A2978 RMK P0007 MADISHF
BDR,2017-04-01 03:50,-73.1289,41.1583,M,M,M,M,M,0.07,29.78,M,3.00,M,BKN,OVC,M,M,900.00,1500.00,M,M,RA BR,KBDR 010350Z AUTO /////KT 3SM RA BR BKN009 OVC015 A2978 RMK P0007 MADISHF
BDR,2017-04-01 03:52,-73.1289,41.1583,37.90,34.00,85.69,70.00,19.00,0.08,29.78,1008.30,3.00,27.00,SCT,OVC,M,M,900.00,1500.00,M,M,-RA BR,KBDR 010352Z AUTO 07019G27KT 3SM -RA BR SCT009 OVC015 03/01 A2978 RMK AO2 PK WND 07036/0311 SLP083 P0008 T00330011
BDR,2017-04-01 03:55,-73.1289,41.1583,M,M,M,M,M,M,29.78,M,3.00,M,SCT,OVC,M,M,900.00,1500.00,M,M,-RA BR,KBDR 010355Z AUTO /////KT 3SM -RA BR SCT009 OVC015 A2978 RMK MADISHF
BDR,2017-04-01 04:00,-73.1289,41.1583,M,M,M,M,M,M,29.78,M,3.00,M,BKN,OVC,M,M,1100.00,1500.00,M,M,-RA BR,KBDR 010400Z AUTO /////KT 3SM -RA BR BKN011 OVC015 A2978 RMK MADISHF
BDR,2017-04-01 04:02,-73.1289,41.1583,37.90,35.10,89.53,60.00,16.00,0.00,29.78,M,3.00,25.00,BKN,OVC,M,M,1100.00,1500.00,M,M,-RA BR,KBDR 010402Z AUTO 06016G25KT 3SM -RA BR BKN011 OVC015 03/02 A2978 RMK AO2 P0000 T00330017
BDR,2017-04-01 04:05,-73.1289,41.1583,M,M,M,M,M,M,29.78,M,3.50,M,OVC,M,M,M,1100.00,M,M,M,-RA BR,KBDR 010405Z AUTO /////KT 3SM -RA BR OVC011 A2978 RMK MADISHF
BDR,2017-04-01 04:10,-73.1289,41.1583,M,M,M,M,M,0.01,29.78,M,4.00,23.00,OVC,M,M,M,1100.00,M,M,M,-RA BR,KBDR 010410Z AUTO /////G23KT 4SM -RA BR OVC011 A2978 RMK P0001 MADISHF
BDR,2017-04-01 04:15,-73.1289,41.1583,M,M,M,M,M,0.01,29.78,M,4.00,25.00,OVC,M,M,M,1100.00,M,M,M,-RA BR,KBDR 010415Z AUTO /////G25KT 4SM -RA BR OVC011 A2978 RMK P0001 MADISHF
BDR,2017-04-01 04:20,-73.1289,41.1583,M,M,M,M,M,0.01,29.77,M,4.00,M,OVC,M,M,M,1100.00,M,M,M,-RA BR,KBDR 010420Z AUTO /////KT 4SM -RA BR OVC011 A2977 RMK P0001 MADISHF
BDR,2017-04-01 04:25,-73.1289,41.1583,M,M,M,M,M,0.02,29.77,M,4.00,M,OVC,M,M,M,1100.00,M,M,M,-RA BR,KBDR 010425Z AUTO /////KT 4SM -RA BR OVC011 A2977 RMK P0002 MADISHF
BDR,2017-04-01 04:30,-73.1289,41.1583,M,M,M,60.00,15.00,0.02,29.77,M,4.00,M,OVC,M,M,M,1100.00,M,M,M,-RA BR,KBDR 010430Z AUTO 06015KT 4SM -RA BR OVC011 A2977 RMK P0002 MADISHF
BDR,2017-04-01 04:35,-73.1289,41.1583,M,M,M,M,M,0.02,29.77,M,4.00,M,BKN,OVC,M,M,1100.00,1500.00,M,M,-RA BR,KBDR 010435Z AUTO /////KT 4SM -RA BR BKN011 OVC015 A2977 RMK P0002 MADISHF
BDR,2017-04-01 04:40,-73.1289,41.1583,M,M,M,50.00,16.00,0.03,29.76,M,3.50,M,BKN,OVC,M,M,1100.00,1699.00,M,M,-RA BR,KBDR 010440Z AUTO 05016KT 3SM -RA BR BKN011 OVC016 A2976 RMK P0003 MADISHF
BDR,2017-04-01 04:45,-73.1289,41.1583,M,M,M,50.00,15.00,0.03,29.76,M,3.00,M,BKN,OVC,M,M,1100.00,1400.00,M,M,-RA BR,KBDR 010445Z AUTO 05015KT 3SM -RA BR BKN011 OVC014 A2976 RMK P0003 MADISHF
BDR,2017-04-01 04:50,-73.1289,41.1583,M,M,M,50.00,15.00,0.03,29.76,M,2.50,20.00,BKN,OVC,M,M,900.00,1400.00,M,M,-RA BR,KBDR 010450Z AUTO 05015G20KT 2 1/2SM -RA BR BKN009 OVC014 A2976 RMK P0003 MADISHF
BDR,2017-04-01 04:52,-73.1289,41.1583,37.90,35.10,89.53,50.00,14.00,0.03,29.76,1007.70,2.50,22.00,SCT,OVC,M,M,900.00,1400.00,M,M,-RA BR,KBDR 010452Z AUTO 05014G22KT 2 1/2SM -RA BR SCT009 OVC014 03/02 A2976 RMK AO2 PK WND 06027/0414 SLP077 P0003 T00330017 400610033
BDR,2017-04-01 04:55,-73.1289,41.1583,M,M,M,M,M,0.01,29.76,M,2.50,M,BKN,OVC,M,M,900.00,1400.00,M,M,-RA BR,KBDR 010455Z AUTO /////KT 2 1/2SM -RA BR BKN009 OVC014 A2976 RMK P0001 MADISHF
BDR,2017-04-01 05:00,-73.1289,41.1583,M,M,M,M,M,0.01,29.75,M,3.00,M,SCT,OVC,M,M,900.00,1400.00,M,M,-RA BR,KBDR 010500Z AUTO /////KT 3SM -RA BR SCT009 OVC014 A2975 RMK P0001 MADISHF
BDR,2017-04-01 05:01,-73.1289,41.1583,37.90,35.10,89.53,50.00,15.00,0.01,29.75,M,3.00,22.00,BKN,OVC,M,M,900.00,1600.00,M,M,-RA BR,KBDR 010501Z AUTO 05015G22KT 3SM -RA BR BKN009 OVC016 03/02 A2975 RMK AO2 P0001 T00330017
BDR,2017-04-01 05:05,-73.1289,41.1583,M,M,M,M,M,0.01,29.75,M,4.00,M,BKN,OVC,M,M,900.00,1400.00,M,M,-RA BR,KBDR 010505Z AUTO /////KT 4SM -RA BR BKN009 OVC014 A2975 RMK P0001 MADISHF
BDR,2017-04-01 05:10,-73.1289,41.1583,M,M,M,M,M,0.01,29.75,M,4.00,M,BKN,OVC,M,M,900.00,1600.00,M,M,-RA BR,KBDR 010510Z AUTO /////KT 4SM -RA BR BKN009 OVC016 A2975 RMK P0001 MADISHF
BDR,2017-04-01 05:15,-73.1289,41.1583,M,M,M,50.00,16.00,0.02,29.74,M,4.00,M,OVC,M,M,M,999.00,M,M,M,-RA BR,KBDR 010515Z AUTO 05016KT 4SM -RA BR OVC009 A2974 RMK P0002 MADISHF
BDR,2017-04-01 05:20,-73.1289,41.1583,37.90,35.10,89.53,50.00,16.00,0.02,29.74,M,4.00,M,BKN,OVC,M,M,1000.00,1500.00,M,M,-RA BR,KBDR 010520Z AUTO 05016KT 4SM -RA BR BKN010 OVC015 03/02 A2974 RMK AO2 P0002 T00330017
BDR,2017-04-01 05:25,-73.1289,41.1583,M,M,M,50.00,16.00,0.02,29.74,M,5.00,M,BKN,OVC,M,M,999.00,1500.00,M,M,-RA BR,KBDR 010525Z AUTO 05016KT 5SM -RA BR BKN009 OVC015 A2974 RMK P0002 MADISHF
BDR,2017-04-01 05:30,-73.1289,41.1583,M,M,M,M,M,0.02,29.73,M,5.00,M,BKN,OVC,M,M,999.00,1500.00,M,M,-RA BR,KBDR 010530Z AUTO /////KT 5SM -RA BR BKN009 OVC015 A2973 RMK P0002 MADISHF
BDR,2017-04-01 05:35,-73.1289,41.1583,M,M,M,M,M,0.02,29.73,M,5.00,M,BKN,OVC,M,M,999.00,1500.00,M,M,-RA BR,KBDR 010535Z AUTO /////KT 5SM -RA BR BKN009 OVC015 A2973 RMK P0002 MADISHF
BDR,2017-04-01 05:40,-73.1289,41.1583,M,M,M,50.00,16.00,0.02,29.73,M,5.00,M,BKN,OVC,M,M,999.00,1500.00,M,M,BR,KBDR 010540Z AUTO 05016KT 5SM BR BKN009 OVC015 A2973 RMK P0002 MADISHF
BDR,2017-04-01 05:45,-73.1289,41.1583,M,M,M,40.00,17.00,0.02,29.73,M,5.00,M,BKN,OVC,M,M,999.00,1600.00,M,M,BR,KBDR 010545Z AUTO 04017KT 5SM BR BKN009 OVC016 A2973 RMK P0002 MADISHF
BDR,2017-04-01 05:50,-73.1289,41.1583,M,M,M,40.00,15.00,0.02,29.73,M,6.00,M,BKN,OVC,M,M,999.00,1600.00,M,M,BR,KBDR 010550Z AUTO 04015KT 6SM BR BKN009 OVC016 A2973 RMK P0002 MADISHF
BDR,2017-04-01 05:52,-73.1289,41.1583,37.90,35.10,89.53,50.00,15.00,0.02,29.72,1006.50,6.00,M,BKN,OVC,M,M,1000.00,1600.00,M,M,BR,KBDR 010552Z AUTO 05015KT 6SM BR BKN010 OVC016 03/02 A2972 RMK AO2 RAE37 SLP065 P0002 60023 T00330017 10044 20033 58021
BDR,2017-04-01 05:55,-73.1289,41.1583,M,M,M,50.00,16.00,M,29.72,M,6.00,M,BKN,OVC,M,M,999.00,1600.00,M,M,BR,KBDR 010555Z AUTO 05016KT 6SM BR BKN009 OVC016 A2972 RMK MADISHF
BDR,2017-04-01 06:00,-73.1289,41.1583,M,M,M,M,M,M,29.72,M,5.00,M,OVC,M,M,M,1300.00,M,M,M,-RA BR,KBDR 010600Z AUTO /////KT 5SM -RA BR OVC013 A2972 RMK MADISHF
BDR,2017-04-01 06:05,-73.1289,41.1583,M,M,M,M,M,M,29.71,M,5.00,M,BKN,OVC,M,M,999.00,1500.00,M,M,-RA BR,KBDR 010605Z AUTO /////KT 5SM -RA BR BKN009 OVC015 A2971 RMK MADISHF
BDR,2017-04-01 06:10,-73.1289,41.1583,M,M,M,50.00,17.00,M,29.71,M,6.00,M,BKN,OVC,M,M,999.00,1500.00,M,M,BR,KBDR 010610Z AUTO 05017KT 6SM BR BKN009 OVC015 A2971 RMK MADISHF
BDR,2017-04-01 06:15,-73.1289,41.1583,M,M,M,50.00,17.00,M,29.71,M,6.00,M,BKN,OVC,M,M,1200.00,1900.00,M,M,BR,KBDR 010615Z AUTO 05017KT 6SM BR BKN012 OVC019 A2971 RMK MADISHF
BDR,2017-04-01 06:20,-73.1289,41.1583,M,M,M,50.00,15.00,M,29.71,M,6.00,20.00,BKN,OVC,M,M,999.00,1600.00,M,M,BR,KBDR 010620Z AUTO 05015G20KT 6SM BR BKN009 OVC016 A2971 RMK MADISHF
BDR,2017-04-01 06:25,-73.1289,41.1583,M,M,M,50.00,15.00,M,29.70,M,6.00,M,BKN,OVC,M,M,999.00,1400.00,M,M,BR,KBDR 010625Z AUTO 05015KT 6SM BR BKN009 OVC014 A2970 RMK MADISHF
BDR,2017-04-01 06:30,-73.1289,41.1583,M,M,M,50.00,17.00,M,29.70,M,8.00,M,BKN,OVC,M,M,999.00,1600.00,M,M,M,KBDR 010630Z AUTO 05017KT 8SM BKN009 OVC016 A2970 RMK MADISHF
BDR,2017-04-01 06:35,-73.1289,41.1583,M,M,M,50.00,16.00,M,29.70,M,9.00,M,SCT,BKN,OVC,M,999.00,1600.00,2200.00,M,M,KBDR 010635Z AUTO 05016KT 9SM SCT009 BKN016 OVC022 A2970 RMK MADISHF
BDR,2017-04-01 06:40,-73.1289,41.1583,M,M,M,50.00,17.00,M,29.70,M,10.00,M,SCT,BKN,OVC,M,999.00,1600.00,2200.00,M,M,KBDR 010640Z AUTO 05017KT 10SM SCT009 BKN016 OVC022 A2970 RMK MADISHF
BDR,2017-04-01 06:43,-73.1289,41.1583,37.90,34.00,85.69,40.00,16.00,0.00,29.70,M,9.00,M,SCT,BKN,OVC,M,1000.00,1600.00,2100.00,M,M,KBDR 010643Z AUTO 04016KT 9SM SCT010 BKN016 OVC021 03/01 A2970 RMK AO2 RAB0558E09 P0000 T00330011
BDR,2017-04-01 06:45,-73.1289,41.1583,M,M,M,50.00,18.00,M,29.69,M,8.00,M,FEW,BKN,OVC,M,999.00,1600.00,2100.00,M,M,KBDR 010645Z AUTO 05018KT 8SM FEW009 BKN016 OVC021 A2969 RMK MADISHF
BDR,2017-04-01 06:50,-73.1289,41.1583,M,M,M,50.00,17.00,M,29.69,M,6.00,M,FEW,BKN,OVC,M,999.00,1500.00,2300.00,M,-RA BR,KBDR 010650Z AUTO 05017KT 6SM -RA BR FEW009 BKN015 OVC023 A2969 RMK MADISHF
BDR,2017-04-01 06:52,-73.1289,41.1583,37.90,34.00,85.69,50.00,17.00,0.00,29.69,1005.20,6.00,M,FEW,BKN,OVC,M,1000.00,1500.00,2300.00,M,-RA BR,KBDR 010652Z AUTO 05017KT 6SM -RA BR FEW010 BKN015 OVC023 03/01 A2969 RMK AO2 RAB0558E09B49 SLP052 P0000 T00330011
BDR,2017-04-01 06:55,-73.1289,41.1583,M,M,M,40.00,15.00,M,29.68,M,7.00,M,FEW,BKN,OVC,M,999.00,1500.00,2300.00,M,-RA,KBDR 010655Z AUTO 04015KT 7SM -RA FEW009 BKN015 OVC023 A2968 RMK MADISHF
BDR,2017-04-01 07:00,-73.1289,41.1583,M,M,M,M,M,M,29.68,M,7.00,M,FEW,BKN,OVC,M,999.00,1500.00,2300.00,M,M,KBDR 010700Z AUTO /////KT 7SM FEW009 BKN015 OVC023 A2968 RMK MADISHF
BDR,2017-04-01 07:05,-73.1289,41.1583,M,M,M,M,M,M,29.68,M,8.00,M,FEW,BKN,OVC,M,999.00,1500.00,2700.00,M,M,KBDR 010705Z AUTO /////KT 8SM FEW009 BKN015 OVC027 A2968 RMK MADISHF
BDR,2017-04-01 07:10,-73.1289,41.1583,M,M,M,40.00,17.00,M,29.68,M,8.00,M,FEW,BKN,OVC,M,999.00,1500.00,2700.00,M,M,KBDR 010710Z AUTO 04017KT 8SM FEW009 BKN015 OVC027 A2968 RMK MADISHF
BDR,2017-04-01 07:15,-73.1289,41.1583,M,M,M,M,M,M,29.68,M,9.00,M,BKN,BKN,OVC,M,1500.00,1900.00,2500.00,M,M,KBDR 010715Z AUTO /////KT 9SM BKN015 BKN019 OVC025 A2968 RMK MADISHF
BDR,2017-04-01 07:20,-73.1289,41.1583,M,M,M,M,M,M,29.67,M,9.00,M,SCT,BKN,OVC,M,1200.00,1800.00,2500.00,M,M,KBDR 010720Z AUTO /////KT 9SM SCT012 BKN018 OVC025 A2967 RMK MADISHF
BDR,2017-04-01 07:25,-73.1289,41.1583,M,M,M,M,M,M,29.67,M,9.00,M,SCT,BKN,OVC,M,1200.00,1800.00,2500.00,M,M,KBDR 010725Z AUTO /////KT 9SM SCT012 BKN018 OVC025 A2967 RMK MADISHF
BDR,2017-04-01 07:30,-73.1289,41.1583,M,M,M,40.00,17.00,M,29.67,M,8.00,M,SCT,BKN,OVC,M,1200.00,1800.00,2500.00,M,M,KBDR 010730Z AUTO 04017KT 8SM SCT012 BKN018 OVC025 A2967 RMK MADISHF
BDR,2017-04-01 07:35,-73.1289,41.1583,M,M,M,M,M,M,29.67,M,8.00,M,SCT,BKN,OVC,M,1200.00,1800.00,2300.00,M,M,KBDR 010735Z AUTO /////KT 8SM SCT012 BKN018 OVC023 A2967 RMK MADISHF
BDR,2017-04-01 07:40,-73.1289,41.1583,M,M,M,40.00,17.00,M,29.67,M,7.00,M,SCT,BKN,OVC,M,999.00,1500.00,2300.00,M,M,KBDR 010740Z AUTO 04017KT 7SM SCT009 BKN015 OVC023 A2967 RMK MADISHF
BDR,2017-04-01 07:45,-73.1289,41.1583,M,M,M,M,M,M,29.66,M,6.00,M,BKN,OVC,M,M,1200.00,1999.00,M,M,BR,KBDR 010745Z AUTO /////KT 6SM BR BKN012 OVC019 A2966 RMK MADISHF
BDR,2017-04-01 07:47,-73.1289,41.1583,37.40,33.80,86.69,50.00,20.00,0.00,29.65,M,6.00,27.00,BKN,OVC,M,M,1200.00,2000.00,M,M,BR,KBDR 010747Z AUTO 05020G27KT 6SM BR BKN012 OVC020 03/01 A2965 RMK AO2 PK WND 03027/0744 RAE0659 P0000
BDR,2017-04-01 07:50,-73.1289,41.1583,M,M,M,M,M,M,29.65,M,6.00,M,BKN,OVC,M,M,1200.00,1999.00,M,M,BR,KBDR 010750Z AUTO /////KT 6SM BR BKN012 OVC019 A2965 RMK MADISHF
BDR,2017-04-01 07:52,-73.1289,41.1583,37.90,34.00,85.69,40.00,21.00,0.00,29.65,1003.90,5.00,28.00,BKN,OVC,M,M,1200.00,2000.00,M,M,BR,KBDR 010752Z AUTO 04021G28KT 5SM BR BKN012 OVC020 03/01 A2965 RMK AO2 PK WND 05028/0748 RAE0659 PRESFR SLP039 P0000 T00330011
BDR,2017-04-01 07:55,-73.1289,41.1583,M,M,M,M,M,M,29.64,M,5.00,M,BKN,OVC,M,M,1200.00,1999.00,M,M,BR,KBDR 010755Z AUTO /////KT 5SM BR BKN012 OVC019 A2964 RMK MADISHF
BDR,2017-04-01 08:00,-73.1289,41.1583,M,M,M,M,M,M,29.64,M,4.00,M,BKN,OVC,M,M,1200.00,1800.00,M,M,BR,KBDR 010800Z AUTO /////KT 4SM BR BKN012 OVC018 A2964 RMK MADISHF
BDR,2017-04-01 08:05,-73.1289,41.1583,M,M,M,M,M,M,29.64,M,4.00,M,BKN,BKN,OVC,M,1200.00,1999.00,2700.00,M,-RA BR,KBDR 010805Z AUTO /////KT 4SM -RA BR BKN012 BKN019 OVC027 A2964 RMK MADISHF
BDR,2017-04-01 08:10,-73.1289,41.1583,M,M,M,30.00,18.00,M,29.64,M,5.00,M,BKN,OVC,M,M,1200.00,1999.00,M,M,BR,KBDR 010810Z AUTO 03018KT 5SM BR BKN012 OVC019 A2964 RMK MADISHF
BDR,2017-04-01 08:15,-73.1289,41.1583,M,M,M,M,M,M,29.65,M,5.00,M,SCT,BKN,OVC,M,999.00,1500.00,1999.00,M,BR,KBDR 010815Z AUTO /////KT 5SM BR SCT009 BKN015 OVC019 A2965 RMK MADISHF
BDR,2017-04-01 08:20,-73.1289,41.1583,M,M,M,20.00,17.00,M,29.66,M,5.00,M,BKN,OVC,M,M,999.00,1699.00,M,M,BR,KBDR 010820Z AUTO 02017KT 5SM BR BKN009 OVC016 A2966 RMK MADISHF
BDR,2017-04-01 08:25,-73.1289,41.1583,M,M,M,30.00,15.00,M,29.66,M,5.00,20.00,BKN,OVC,M,M,1200.00,1999.00,M,M,BR,KBDR 010825Z AUTO 03015G20KT 5SM BR BKN012 OVC019 A2966 RMK MADISHF
BDR,2017-04-01 08:30,-73.1289,41.1583,M,M,M,M,M,M,29.66,M,5.00,M,OVC,M,M,M,1200.00,M,M,M,BR,KBDR 010830Z AUTO /////KT 5SM BR OVC012 A2966 RMK MADISHF
BDR,2017-04-01 08:35,-73.1289,41.1583,M,M,M,30.00,15.00,M,29.66,M,6.00,M,OVC,M,M,M,1200.00,M,M,M,BR,KBDR 010835Z AUTO 03015KT 6SM BR OVC012 A2966 RMK MADISHF
BDR,2017-04-01 08:40,-73.1289,41.1583,M,M,M,20.00,16.00,M,29.66,M,6.00,M,OVC,M,M,M,1200.00,M,M,M,BR,KBDR 010840Z AUTO 02016KT 6SM BR OVC012 A2966 RMK MADISHF
BDR,2017-04-01 08:45,-73.1289,41.1583,M,M,M,20.00,15.00,M,29.66,M,7.00,M,BKN,OVC,M,M,1200.00,1699.00,M,M,M,KBDR 010845Z AUTO 02015KT 7SM BKN012 OVC016 A2966 RMK MADISHF
BDR,2017-04-01 08:50,-73.1289,41.1583,M,M,M,30.00,18.00,M,29.66,M,7.00,M,OVC,M,M,M,1200.00,M,M,M,M,KBDR 010850Z AUTO 03018KT 7SM OVC012 A2966 RMK MADISHF
BDR,2017-04-01 08:52,-73.1289,41.1583,37.90,34.00,85.69,30.00,19.00,0.00,29.66,1004.40,7.00,24.00,BKN,OVC,M,M,1200.00,1800.00,M,M,M,KBDR 010852Z AUTO 03019G24KT 7SM BKN012 OVC018 03/01 A2966 RMK AO2 PK WND 03029/0806 RAB02E10 SLP044 P0000 60000 T00330011 55009
BDR,2017-04-01 08:55,-73.1289,41.1583,M,M,M,M,M,M,29.66,M,7.00,M,BKN,OVC,M,M,1200.00,1800.00,M,M,-RA,KBDR 010855Z AUTO /////KT 7SM -RA BKN012 OVC018 A2966 RMK MADISHF
BDR,2017-04-01 09:00,-73.1289,41.1583,M,M,M,20.00,16.00,M,29.67,M,8.00,M,BKN,OVC,M,M,1300.00,1800.00,M,M,-RA,KBDR 010900Z AUTO 02016KT 8SM -RA BKN013 OVC018 A2967 RMK MADISHF
BDR,2017-04-01 09:05,-73.1289,41.1583,M,M,M,M,M,M,29.67,M,8.00,M,OVC,M,M,M,1500.00,M,M,M,M,KBDR 010905Z AUTO /////KT 8SM OVC015 A2967 RMK MADISHF
BDR,2017-04-01 09:10,-73.1289,41.1583,M,M,M,30.00,15.00,M,29.67,M,8.00,M,BKN,OVC,M,M,1300.00,1900.00,M,M,M,KBDR 010910Z AUTO 03015KT 8SM BKN013 OVC019 A2967 RMK MADISHF
BDR,2017-04-01 09:15,-73.1289,41.1583,M,M,M,20.00,14.00,M,29.67,M,9.00,M,BKN,OVC,M,M,1300.00,1900.00,M,M,M,KBDR 010915Z AUTO 02014KT 9SM BKN013 OVC019 A2967 RMK MADISHF
BDR,2017-04-01 09:20,-73.1289,41.1583,M,M,M,20.00,17.00,M,29.67,M,9.00,M,SCT,OVC,M,M,1300.00,2100.00,M,M,M,KBDR 010920Z AUTO 02017KT 9SM SCT013 OVC021 A2967 RMK MADISHF
BDR,2017-04-01 09:25,-73.1289,41.1583,M,M,M,20.00,14.00,M,29.67,M,9.00,M,SCT,OVC,M,M,1300.00,2100.00,M,M,M,KBDR 010925Z AUTO 02014KT 9SM SCT013 OVC021 A2967 RMK MADISHF
BDR,2017-04-01 09:26,-73.1289,41.1583,37.90,34.00,85.69,20.00,15.00,0.00,29.67,M,9.00,22.00,SCT,OVC,M,M,1300.00,2100.00,M,M,M,KBDR 010926Z AUTO 02015G22KT 9SM SCT013 OVC021 03/01 A2967 RMK AO2 RAB0853E02 P0000 T00330011
BDR,2017-04-01 09:30,-73.1289,41.1583,M,M,M,20.00,15.00,M,29.67,M,9.00,M,FEW,OVC,M,M,1300.00,2100.00,M,M,M,KBDR 010930Z AUTO 02015KT 9SM FEW013 OVC021 A2967 RMK MADISHF
BDR,2017-04-01 09:35,-73.1289,41.1583,M,M,M,20.00,17.00,M,29.68,M,9.00,M,OVC,M,M,M,1800.00,M,M,M,M,KBDR 010935Z AUTO 02017KT 9SM OVC018 A2968 RMK MADISHF
BDR,2017-04-01 09:40,-73.1289,41.1583,M,M,M,M,M,M,29.67,M,9.00,M,SCT,OVC,M,M,1300.00,1999.00,M,M,M,KBDR 010940Z AUTO /////KT 9SM SCT013 OVC019 A2967 RMK MADISHF
BDR,2017-04-01 09:45,-73.1289,41.1583,M,M,M,20.00,16.00,M,29.67,M,9.00,M,SCT,OVC,M,M,1300.00,1999.00,M,M,M,KBDR 010945Z AUTO 02016KT 9SM SCT013 OVC019 A2967 RMK MADISHF
BDR,2017-04-01 09:50,-73.1289,41.1583,M,M,M,30.00,15.00,M,29.67,M,10.00,20.00,FEW,OVC,M,M,1500.00,1999.00,M,M,M,KBDR 010950Z AUTO 03015G20KT 10SM FEW015 OVC019 A2967 RMK MADISHF
BDR,2017-04-01 09:52,-73.1289,41.1583,37.90,34.00,85.69,30.00,16.00,0.00,29.67,1004.60,10.00,24.00,OVC,M,M,M,2000.00,M,M,M,M,KBDR 010952Z AUTO 03016G24KT 10SM OVC020 03/01 A2967 RMK AO2 RAB0853E02 SLP046 P0000 T00330011
BDR,2017-04-01 09:55,-73.1289,41.1583,M,M,M,M,M,M,29.67,M,9.00,M,BKN,OVC,M,M,1800.00,2300.00,M,M,M,KBDR 010955Z AUTO /////KT 9SM BKN018 OVC023 A2967 RMK MADISHF
BDR,2017-04-01 10:00,-73.1289,41.1583,M,M,M,20.00,16.00,M,29.67,M,9.00,M,FEW,OVC,M,M,1300.00,2100.00,M,M,M,KBDR 011000Z AUTO 02016KT 9SM FEW013 OVC021 A2967 RMK MADISHF
BDR,2017-04-01 10:05,-73.1289,41.1583,M,M,M,20.00,17.00,M,29.67,M,9.00,M,FEW,OVC,M,M,1500.00,2300.00,M,M,M,KBDR 011005Z AUTO 02017KT 9SM FEW015 OVC023 A2967 RMK MADISHF
BDR,2017-04-01 10:10,-73.1289,41.1583,M,M,M,20.00,15.00,M,29.67,M,9.00,20.00,OVC,M,M,M,2300.00,M,M,M,M,KBDR 011010Z AUTO 02015G20KT 9SM OVC023 A2967 RMK MADISHF
BDR,2017-04-01 10:15,-73.1289,41.1583,M,M,M,10.00,16.00,M,29.67,M,9.00,M,OVC,M,M,M,2300.00,M,M,M,M,KBDR 011015Z AUTO 01016KT 9SM OVC023 A2967 RMK MADISHF
BDR,2017-04-01 10:20,-73.1289,41.1583,M,M,M,10.00,15.00,M,29.67,M,10.00,M,FEW,OVC,M,M,1800.00,2300.00,M,M,M,KBDR 011020Z AUTO 01015KT 10SM FEW018 OVC023 A2967 RMK MADISHF
BDR,2017-04-01 10:25,-73.1289,41.1583,M,M,M,10.00,15.00,M,29.68,M,10.00,M,FEW,OVC,M,M,1500.00,2400.00,M,M,M,KBDR 011025Z AUTO 01015KT 10SM FEW015 OVC024 A2968 RMK MADISHF
BDR,2017-04-01 10:30,-73.1289,41.1583,M,M,M,10.00,15.00,M,29.68,M,10.00,20.00,FEW,OVC,M,M,1300.00,2400.00,M,M,M,KBDR 011030Z AUTO 01015G20KT 10SM FEW013 OVC024 A2968 RMK MADISHF
BDR,2017-04-01 10:35,-73.1289,41.1583,M,M,M,10.00,16.00,M,29.68,M,10.00,M,FEW,SCT,OVC,M,1300.00,1800.00,2400.00,M,M,KBDR 011035Z AUTO 01016KT 10SM FEW013 SCT018 OVC024 A2968 RMK MADISHF
BDR,2017-04-01 10:40,-73.1289,41.1583,M,M,M,10.00,16.00,M,29.68,M,10.00,M,FEW,OVC,M,M,1300.00,2400.00,M,M,M,KBDR 011040Z AUTO 01016KT 10SM FEW013 OVC024 A2968 RMK MADISHF
BDR,2017-04-01 10:45,-73.1289,41.1583,M,M,M,10.00,15.00,M,29.69,M,10.00,20.00,FEW,OVC,M,M,1300.00,2200.00,M,M,M,KBDR 011045Z AUTO 01015G20KT 10SM FEW013 OVC022 A2969 RMK MADISHF
BDR,2017-04-01 10:50,-73.1289,41.1583,M,M,M,10.00,16.00,M,29.69,M,10.00,21.00,SCT,OVC,M,M,1400.00,2200.00,M,M,M,KBDR 011050Z AUTO 01016G21KT 10SM SCT014 OVC022 A2969 RMK MADISHF
BDR,2017-04-01 10:52,-73.1289,41.1583,39.00,34.00,82.08,30.00,13.00,0.00,29.69,1005.40,10.00,22.00,SCT,OVC,M,M,1400.00,2200.00,M,M,M,KBDR 011052Z 03013G22KT 10SM SCT014 OVC022 04/01 A2969 RMK AO2 SLP054 T00390011
BDR,2017-04-01 10:55,-73.1289,41.1583,M,M,M,10.00,14.00,M,29.69,M,10.00,M,BKN,OVC,M,M,1400.00,2200.00,M,M,M,KBDR 011055Z AUTO 01014KT 10SM BKN014 OVC022 A2969 RMK MADISHF
BDR,2017-04-01 10:59,-73.1289,41.1583,39.00,34.00,82.08,10.00,17.00,0.00,29.69,M,9.00,22.00,BKN,OVC,M,M,1400.00,2200.00,M,M,M,KBDR 011059Z 01017G22KT 9SM BKN014 OVC022 04/01 A2969 RMK AO2 T00390011
BDR,2017-04-01 11:00,-73.1289,41.1583,M,M,M,10.00,16.00,M,29.69,M,8.00,M,SCT,OVC,M,M,1400.00,1999.00,M,M,M,KBDR 011100Z AUTO 01016KT 8SM SCT014 OVC019 A2969 RMK MADISHF
BDR,2017-04-01 11:05,-73.1289,41.1583,M,M,M,10.00,15.00,M,29.69,M,7.00,M,BKN,OVC,M,M,1400.00,1999.00,M,M,M,KBDR 011105Z AUTO 01015KT 7SM BKN014 OVC019 A2969 RMK MADISHF
BDR,2017-04-01 11:10,-73.1289,41.1583,M,M,M,10.00,16.00,M,29.69,M,6.00,21.00,BKN,OVC,M,M,1699.00,2200.00,M,M,HZ,KBDR 011110Z AUTO 01016G21KT 6SM HZ BKN016 OVC022 A2969 RMK MADISHF
BDR,2017-04-01 11:15,-73.1289,41.1583,M,M,M,360.00,16.00,M,29.69,M,6.00,M,BKN,OVC,M,M,1500.00,2400.00,M,M,HZ,KBDR 011115Z AUTO 36016KT 6SM HZ BKN015 OVC024 A2969 RMK MADISHF
BDR,2017-04-01 11:16,-73.1289,41.1583,39.20,33.80,80.79,10.00,18.00,0.00,29.69,M,6.00,22.00,BKN,OVC,M,M,1500.00,2400.00,M,M,HZ,KBDR 011116Z 01018G22KT 6SM HZ BKN015 OVC024 04/01 A2969
BDR,2017-04-01 11:20,-73.1289,41.1583,M,M,M,10.00,15.00,M,29.69,M,6.00,M,BKN,OVC,M,M,1500.00,2400.00,M,M,HZ,KBDR 011120Z AUTO 01015KT 6SM HZ BKN015 OVC024 A2969 RMK MADISHF
BDR,2017-04-01 11:25,-73.1289,41.1583,M,M,M,360.00,15.00,M,29.70,M,5.00,M,SCT,OVC,M,M,1600.00,2400.00,M,M,HZ,KBDR 011125Z AUTO 36015KT 5SM HZ SCT016 OVC024 A2970 RMK MADISHF
BDR,2017-04-01 11:30,-73.1289,41.1583,M,M,M,M,M,M,29.70,M,6.00,24.00,SCT,OVC,M,M,1600.00,2600.00,M,M,HZ,KBDR 011130Z AUTO /////G24KT 6SM HZ SCT016 OVC026 A2970 RMK MADISHF
BDR,2017-04-01 11:35,-73.1289,41.1583,M,M,M,10.00,17.00,M,29.70,M,7.00,22.00,SCT,OVC,M,M,1600.00,2600.00,M,M,M,KBDR 011135Z AUTO 01017G22KT 7SM SCT016 OVC026 A2970 RMK MADISHF
BDR,2017-04-01 11:40,-73.1289,41.1583,M,M,M,360.00,19.00,M,29.70,M,9.00,M,FEW,OVC,M,M,1600.00,2600.00,M,M,M,KBDR 011140Z AUTO 36019KT 9SM FEW016 OVC026 A2970 RMK MADISHF
BDR,2017-04-01 11:45,-73.1289,41.1583,M,M,M,10.00,17.00,M,29.70,M,10.00,22.00,FEW,FEW,OVC,M,1400.00,1900.00,2800.00,M,M,KBDR 011145Z AUTO 01017G22KT 10SM FEW014 FEW019 OVC028 A2970 RMK MADISHF
BDR,2017-04-01 11:50,-73.1289,41.1583,M,M,M,10.00,16.00,M,29.71,M,9.00,M,FEW,OVC,M,M,1600.00,2800.00,M,M,M,KBDR 011150Z AUTO 01016KT 9SM FEW016 OVC028 A2971 RMK MADISHF
BDR,2017-04-01 11:52,-73.1289,41.1583,39.00,34.00,82.08,360.00,19.00,0.00,29.71,1005.90,8.00,26.00,FEW,SCT,OVC,M,1300.00,1800.00,2800.00,M,M,KBDR 011152Z 36019G26KT 8SM FEW013 SCT018 OVC028 04/01 A2971 RMK AO2 PK WND 36026/1151 SLP059 60000 70086 T00390011 10039 20033 53015
BDR,2017-04-01 11:55,-73.1289,41.1583,M,M,M,360.00,18.00,M,29.71,M,6.00,M,SCT,OVC,M,M,1500.00,3000.00,M,M,HZ,KBDR 011155Z AUTO 36018KT 6SM HZ SCT015 OVC030 A2971 RMK MADISHF
BDR,2017-04-01 12:00,-73.1289,41.1583,M,M,M,360.00,17.00,M,29.71,M,5.00,M,SCT,OVC,M,M,1300.00,3000.00,M,M,HZ,KBDR 011200Z AUTO 36017KT 5SM HZ SCT013 OVC030 A2971 RMK MADISHF
BDR,2017-04-01 12:01,-73.1289,41.1583,39.00,34.00,82.08,360.00,18.00,0.00,29.71,M,5.00,25.00,SCT,OVC,M,M,1300.00,3000.00,M,M,HZ,KBDR 011201Z 36018G25KT 5SM HZ SCT013 OVC030 04/01 A2971 RMK AO2 T00390011
BDR,2017-04-01 12:05,-73.1289,41.1583,M,M,M,360.00,14.00,M,29.71,M,5.00,M,SCT,OVC,M,M,1300.00,3000.00,M,M,-RA,KBDR 011205Z AUTO 36014KT 5SM -RA SCT013 OVC030 A2971 RMK MADISHF
BDR,2017-04-01 12:10,-73.1289,41.1583,M,M,M,360.00,17.00,M,29.71,M,5.00,M,SCT,SCT,OVC,M,1400.00,1999.00,3000.00,M,HZ,KBDR 011210Z AUTO 36017KT 5SM HZ SCT014 SCT019 OVC030 A2971 RMK MADISHF
BDR,2017-04-01 12:15,-73.1289,41.1583,M,M,M,360.00,15.00,M,29.71,M,6.00,M,SCT,SCT,OVC,M,1400.00,1999.00,3100.00,M,-RA,KBDR 011215Z AUTO 36015KT 6SM -RA SCT014 SCT019 OVC031 A2971 RMK MADISHF
BDR,2017-04-01 12:20,-73.1289,41.1583,M,M,M,350.00,16.00,M,29.71,M,7.00,M,FEW,SCT,OVC,M,1400.00,1999.00,3100.00,M,-RA,KBDR 011220Z AUTO 35016KT 7SM -RA FEW014 SCT019 OVC031 A2971 RMK MADISHF
BDR,2017-04-01 12:25,-73.1289,41.1583,M,M,M,360.00,18.00,M,29.72,M,9.00,M,SCT,SCT,OVC,M,1400.00,2100.00,3300.00,M,-RA,KBDR 011225Z AUTO 36018KT 9SM -RA SCT014 SCT021 OVC033 A2972 RMK MADISHF
BDR,2017-04-01 12:30,-73.1289,41.1583,M,M,M,360.00,18.00,M,29.72,M,10.00,M,FEW,SCT,OVC,M,1400.00,1900.00,3300.00,M,M,KBDR 011230Z AUTO 36018KT 10SM FEW014 SCT019 OVC033 A2972 RMK MADISHF
BDR,2017-04-01 12:35,-73.1289,41.1583,M,M,M,M,M,M,29.72,M,10.00,24.00,SCT,SCT,OVC,M,1600.00,2700.00,3300.00,M,M,KBDR 011235Z AUTO /////G24KT 10SM SCT016 SCT027 OVC033 A2972 RMK MADISHF
BDR,2017-04-01 12:40,-73.1289,41.1583,M,M,M,350.00,17.00,M,29.71,M,10.00,M,SCT,SCT,OVC,M,1600.00,2100.00,3300.00,M,M,KBDR 011240Z AUTO 35017KT 10SM SCT016 SCT021 OVC033 A2971 RMK MADISHF
BDR,2017-04-01 12:45,-73.1289,41.1583,M,M,M,360.00,17.00,M,29.71,M,10.00,22.00,SCT,SCT,OVC,M,1600.00,2100.00,3300.00,M,M,KBDR 011245Z AUTO 36017G22KT 10SM SCT016 SCT021 OVC033 A2971 RMK MADISHF
BDR,2017-04-01 12:50,-73.1289,41.1583,M,M,M,360.00,20.00,M,29.71,M,10.00,M,SCT,SCT,OVC,M,1600.00,2100.00,3300.00,M,M,KBDR 011250Z AUTO 36020KT 10SM SCT016 SCT021 OVC033 A2971 RMK MADISHF
BDR,2017-04-01 12:52,-73.1289,41.1583,39.00,34.00,82.08,10.00,18.00,0.00,29.71,1006.10,10.00,27.00,SCT,SCT,OVC,M,1600.00,2100.00,3300.00,M,M,KBDR 011252Z 01018G27KT 10SM SCT016 SCT021 OVC033 04/01 A2971 RMK AO2 PK WND 02027/1226 RAB03E28 SLP061 P0000 T00390011
BDR,2017-04-01 12:55,-73.1289,41.1583,M,M,M,360.00,20.00,M,29.71,M,10.00,M,SCT,SCT,OVC,M,1600.00,2400.00,3300.00,M,M,KBDR 011255Z AUTO 36020KT 10SM SCT016 SCT024 OVC033 A2971 RMK MADISHF
BDR,2017-04-01 13:00,-73.1289,41.1583,M,M,M,360.00,19.00,M,29.71,M,10.00,M,FEW,SCT,OVC,M,1600.00,2800.00,3500.00,M,M,KBDR 011300Z AUTO 36019KT 10SM FEW016 SCT028 OVC035 A2971 RMK MADISHF
BDR,2017-04-01 13:05,-73.1289,41.1583,M,M,M,360.00,18.00,M,29.71,M,10.00,M,FEW,OVC,M,M,1600.00,3500.00,M,M,M,KBDR 011305Z AUTO 36018KT 10SM FEW016 OVC035 A2971 RMK MADISHF
BDR,2017-04-01 13:10,-73.1289,41.1583,M,M,M,10.00,17.00,M,29.71,M,10.00,M,FEW,OVC,M,M,1800.00,3500.00,M,M,M,KBDR 011310Z AUTO 01017KT 10SM FEW018 OVC035 A2971 RMK MADISHF
BDR,2017-04-01 13:15,-73.1289,41.1583,M,M,M,360.00,20.00,M,29.72,M,10.00,M,FEW,OVC,M,M,1600.00,3700.00,M,M,M,KBDR 011315Z AUTO 36020KT 10SM FEW016 OVC037 A2972 RMK MADISHF
BDR,2017-04-01 13:20,-73.1289,41.1583,M,M,M,10.00,19.00,M,29.72,M,10.00,M,FEW,OVC,M,M,1600.00,3700.00,M,M,M,KBDR 011320Z AUTO 01019KT 10SM FEW016 OVC037 A2972 RMK MADISHF
BDR,2017-04-01 13:25,-73.1289,41.1583,M,M,M,360.00,18.00,M,29.72,M,10.00,M,FEW,OVC,M,M,1600.00,3700.00,M,M,M,KBDR 011325Z AUTO 36018KT 10SM FEW016 OVC037 A2972 RMK MADISHF
BDR,2017-04-01 13:30,-73.1289,41.1583,M,M,M,360.00,19.00,M,29.73,M,10.00,M,OVC,M,M,M,3700.00,M,M,M,M,KBDR 011330Z AUTO 36019KT 10SM OVC037 A2973 RMK MADISHF
BDR,2017-04-01 13:35,-73.1289,41.1583,M,M,M,360.00,16.00,M,29.73,M,10.00,21.00,FEW,OVC,M,M,1600.00,3500.00,M,M,M,KBDR 011335Z AUTO 36016G21KT 10SM FEW016 OVC035 A2973 RMK MADISHF
BDR,2017-04-01 13:40,-73.1289,41.1583,M,M,M,M,M,M,29.73,M,10.00,M,FEW,OVC,M,M,1800.00,3500.00,M,M,M,KBDR 011340Z AUTO /////KT 10SM FEW018 OVC035 A2973 RMK MADISHF
BDR,2017-04-01 13:45,-73.1289,41.1583,M,M,M,10.00,18.00,M,29.73,M,10.00,M,FEW,OVC,M,M,1800.00,3500.00,M,M,M,KBDR 011345Z AUTO 01018KT 10SM FEW018 OVC035 A2973 RMK MADISHF
BDR,2017-04-01 13:50,-73.1289,41.1583,M,M,M,360.00,18.00,M,29.73,M,10.00,M,FEW,OVC,M,M,1800.00,3500.00,M,M,M,KBDR 011350Z AUTO 36018KT 10SM FEW018 OVC035 A2973 RMK MADISHF
BDR,2017-04-01 13:52,-73.1289,41.1583,41.00,34.00,75.94,360.00,17.00,0.00,29.74,1007.00,10.00,25.00,FEW,OVC,M,M,2000.00,3500.00,M,M,M,KBDR 011352Z 36017G25KT 10SM FEW020 OVC035 05/01 A2974 RMK AO2 PK WND 36029/1323 SLP070 T00500011
BDR,2017-04-01 13:55,-73.1289,41.1583,M,M,M,360.00,18.00,M,29.74,M,10.00,M,FEW,OVC,M,M,1999.00,3500.00,M,M,M,KBDR 011355Z AUTO 36018KT 10SM FEW019 OVC035 A2974 RMK MADISHF
BDR,2017-04-01 14:00,-73.1289,41.1583,M,M,M,360.00,14.00,M,29.74,M,10.00,19.00,FEW,OVC,M,M,1999.00,3500.00,M,M,M,KBDR 011400Z AUTO 36014G19KT 10SM FEW019 OVC035 A2974 RMK MADISHF
BDR,2017-04-01 14:05,-73.1289,41.1583,M,M,M,360.00,20.00,M,29.75,M,10.00,M,FEW,OVC,M,M,1999.00,3500.00,M,M,M,KBDR 011405Z AUTO 36020KT 10SM FEW019 OVC035 A2975 RMK MADISHF
BDR,2017-04-01 14:10,-73.1289,41.1583,M,M,M,360.00,21.00,M,29.75,M,10.00,M,FEW,OVC,M,M,1900.00,3500.00,M,M,M,KBDR 011410Z AUTO 36021KT 10SM FEW019 OVC035 A2975 RMK MADISHF
BDR,2017-04-01 14:15,-73.1289,41.1583,M,M,M,10.00,20.00,M,29.75,M,10.00,M,FEW,OVC,M,M,1900.00,3500.00,M,M,M,KBDR 011415Z AUTO 01020KT 10SM FEW019 OVC035 A2975 RMK MADISHF
BDR,2017-04-01 14:20,-73.1289,41.1583,M,M,M,350.00,19.00,M,29.75,M,10.00,M,FEW,OVC,M,M,1900.00,3500.00,M,M,M,KBDR 011420Z AUTO 35019KT 10SM FEW019 OVC035 A2975 RMK MADISHF
BDR,2017-04-01 14:25,-73.1289,41.1583,M,M,M,10.00,15.00,M,29.75,M,10.00,M,FEW,OVC,M,M,1999.00,3500.00,M,M,M,KBDR 011425Z AUTO 01015KT 10SM FEW019 OVC035 A2975 RMK MADISHF
BDR,2017-04-01 14:30,-73.1289,41.1583,M,M,M,M,M,M,29.75,M,10.00,M,FEW,OVC,M,M,1999.00,3800.00,M,M,M,KBDR 011430Z AUTO /////KT 10SM FEW019 OVC038 A2975 RMK MADISHF
BDR,2017-04-01 14:35,-73.1289,41.1583,M,M,M,360.00,16.00,M,29.76,M,10.00,M,FEW,OVC,M,M,1999.00,3800.00,M,M,M,KBDR 011435Z AUTO 36016KT 10SM FEW019 OVC038 A2976 RMK MADISHF
BDR,2017-04-01 14:40,-73.1289,41.1583,M,M,M,360.00,20.00,M,29.76,M,10.00,M,FEW,OVC,M,M,1999.00,3600.00,M,M,M,KBDR 011440Z AUTO 36020KT 10SM FEW019 OVC036 A2976 RMK MADISHF
BDR,2017-04-01 14:45,-73.1289,41.1583,M,M,M,10.00,17.00,M,29.76,M,10.00,M,OVC,M,M,M,3600.00,M,M,M,M,KBDR 011445Z AUTO 01017KT 10SM OVC036 A2976 RMK MADISHF
BDR,2017-04-01 14:50,-73.1289,41.1583,M,M,M,360.00,18.00,M,29.76,M,10.00,M,FEW,OVC,M,M,1999.00,3800.00,M,M,M,KBDR 011450Z AUTO 36018KT 10SM FEW019 OVC038 A2976 RMK MADISHF
BDR,2017-04-01 14:52,-73.1289,41.1583,43.00,33.10,67.82,360.00,19.00,0.00,29.76,1007.90,10.00,30.00,FEW,OVC,M,M,2000.00,3800.00,M,M,M,KBDR 011452Z 36019G30KT 10SM FEW020 OVC038 06/01 A2976 RMK AO2 PK WND 36030/1447 SLP079 60000 T00610006 53020
BDR,2017-04-01 14:55,-73.1289,41.1583,M,M,M,M,M,M,29.76,M,10.00,M,FEW,OVC,M,M,2400.00,3800.00,M,M,M,KBDR 011455Z AUTO /////KT 10SM FEW024 OVC038 A2976 RMK MADISHF
BDR,2017-04-01 15:00,-73.1289,41.1583,M,M,M,360.00,17.00,M,29.76,M,10.00,22.00,FEW,OVC,M,M,2400.00,3800.00,M,M,M,KBDR 011500Z AUTO 36017G22KT 10SM FEW024 OVC038 A2976 RMK MADISHF
BDR,2017-04-01 15:05,-73.1289,41.1583,M,M,M,M,M,M,29.76,M,10.00,M,FEW,OVC,M,M,2400.00,3800.00,M,M,M,KBDR 011505Z AUTO /////KT 10SM FEW024 OVC038 A2976 RMK MADISHF
BDR,2017-04-01 15:10,-73.1289,41.1583,M,M,M,360.00,18.00,M,29.77,M,10.00,M,FEW,OVC,M,M,2300.00,3800.00,M,M,M,KBDR 011510Z AUTO 36018KT 10SM FEW023 OVC038 A2977 RMK MADISHF
BDR,2017-04-01 15:15,-73.1289,41.1583,M,M,M,360.00,20.00,M,29.77,M,10.00,M,FEW,OVC,M,M,2500.00,3900.00,M,M,M,KBDR 011515Z AUTO 36020KT 10SM FEW025 OVC039 A2977 RMK MADISHF
BDR,2017-04-01 15:20,-73.1289,41.1583,M,M,M,360.00,18.00,M,29.77,M,10.00,M,FEW,OVC,M,M,2500.00,3900.00,M,M,M,KBDR 011520Z AUTO 36018KT 10SM FEW025 OVC039 A2977 RMK MADISHF
BDR,2017-04-01 15:25,-73.1289,41.1583,M,M,M,10.00,18.00,M,29.77,M,10.00,M,SCT,OVC,M,M,2600.00,4100.00,M,M,M,KBDR 011525Z AUTO 01018KT 10SM SCT026 OVC041 A2977 RMK MADISHF
BDR,2017-04-01 15:30,-73.1289,41.1583,M,M,M,M,M,M,29.77,M,10.00,M,FEW,FEW,OVC,M,2400.00,2900.00,4100.00,M,M,KBDR 011530Z AUTO /////KT 10SM FEW024 FEW029 OVC041 A2977 RMK MADISHF
BDR,2017-04-01 15:35,-73.1289,41.1583,M,M,M,M,M,M,29.77,M,10.00,M,FEW,FEW,OVC,M,2400.00,2900.00,4200.00,M,M,KBDR 011535Z AUTO /////KT 10SM FEW024 FEW029 OVC042 A2977 RMK MADISHF
BDR,2017-04-01 15:40,-73.1289,41.1583,M,M,M,360.00,18.00,M,29.77,M,10.00,23.00,FEW,SCT,OVC,M,2400.00,2900.00,4200.00,M,M,KBDR 011540Z AUTO 36018G23KT 10SM FEW024 SCT029 OVC042 A2977 RMK MADISHF
BDR,2017-04-01 15:45,-73.1289,41.1583,M,M,M,360.00,19.00,M,29.77,M,10.00,M,FEW,SCT,OVC,M,2300.00,3100.00,4200.00,M,M,KBDR 011545Z AUTO 36019KT 10SM FEW023 SCT031 OVC042 A2977 RMK MADISHF
BDR,2017-04-01 15:50,-73.1289,41.1583,M,M,M,10.00,19.00,M,29.78,M,10.00,M,FEW,SCT,OVC,M,2500.00,3100.00,4200.00,M,M,KBDR 011550Z AUTO 01019KT 10SM FEW025 SCT031 OVC042 A2978 RMK MADISHF
BDR,2017-04-01 15:52,-73.1289,41.1583,43.00,32.00,64.88,360.00,16.00,0.00,29.77,1008.00,10.00,30.00,FEW,SCT,OVC,M,2500.00,3100.00,4200.00,M,M,KBDR 011552Z 36016G30KT 10SM FEW025 SCT031 OVC042 06/00 A2977 RMK AO2 PK WND 36032/1534 SLP080 T00610000
BDR,2017-04-01 15:55,-73.1289,41.1583,M,M,M,360.00,22.00,M,29.78,M,10.00,M,FEW,SCT,OVC,M,2500.00,3200.00,4200.00,M,M,KBDR 011555Z AUTO 36022KT 10SM FEW025 SCT032 OVC042 A2978 RMK MADISHF
BDR,2017-04-01 16:00,-73.1289,41.1583,M,M,M,360.00,21.00,M,29.78,M,10.00,M,FEW,SCT,OVC,M,2400.00,3000.00,4200.00,M,M,KBDR 011600Z AUTO 36021KT 10SM FEW024 SCT030 OVC042 A2978 RMK MADISHF
BDR,2017-04-01 16:05,-73.1289,41.1583,M,M,M,360.00,17.00,M,29.77,M,10.00,25.00,FEW,SCT,OVC,M,2400.00,3000.00,3999.00,M,M,KBDR 011605Z AUTO 36017G25KT 10SM FEW024 SCT030 OVC039 A2977 RMK MADISHF
BDR,2017-04-01 16:10,-73.1289,41.1583,M,M,M,360.00,16.00,M,29.78,M,10.00,M,FEW,SCT,OVC,M,2400.00,3000.00,3999.00,M,M,KBDR 011610Z AUTO 36016KT 10SM FEW024 SCT030 OVC039 A2978 RMK MADISHF
BDR,2017-04-01 16:15,-73.1289,41.1583,M,M,M,10.00,18.00,M,29.78,M,10.00,M,FEW,SCT,OVC,M,2500.00,3000.00,3999.00,M,M,KBDR 011615Z AUTO 01018KT 10SM FEW025 SCT030 OVC039 A2978 RMK MADISHF
BDR,2017-04-01 16:20,-73.1289,41.1583,M,M,M,360.00,18.00,M,29.78,M,10.00,M,FEW,OVC,M,M,2500.00,3999.00,M,M,M,KBDR 011620Z AUTO 36018KT 10SM FEW025 OVC039 A2978 RMK MADISHF
BDR,2017-04-01 16:25,-73.1289,41.1583,M,M,M,360.00,19.00,M,29.78,M,10.00,M,FEW,OVC,M,M,2700.00,4200.00,M,M,M,KBDR 011625Z AUTO 36019KT 10SM FEW027 OVC042 A2978 RMK MADISHF
BDR,2017-04-01 16:30,-73.1289,41.1583,M,M,M,M,M,M,29.78,M,10.00,M,FEW,OVC,M,M,2900.00,4200.00,M,M,M,KBDR 011630Z AUTO /////KT 10SM FEW029 OVC042 A2978 RMK MADISHF
BDR,2017-04-01 16:35,-73.1289,41.1583,M,M,M,10.00,17.00,M,29.78,M,10.00,M,FEW,OVC,M,M,2900.00,4400.00,M,M,M,KBDR 011635Z AUTO 01017KT 10SM FEW029 OVC044 A2978 RMK MADISHF
BDR,2017-04-01 16:40,-73.1289,41.1583,M,M,M,10.00,18.00,M,29.79,M,10.00,M,FEW,BKN,OVC,M,2800.00,4100.00,4800.00,M,M,KBDR 011640Z AUTO 01018KT 10SM FEW028 BKN041 OVC048 A2979 RMK MADISHF
BDR,2017-04-01 16:45,-73.1289,41.1583,M,M,M,10.00,18.00,M,29.79,M,10.00,M,SCT,OVC,M,M,3000.00,4500.00,M,M,M,KBDR 011645Z AUTO 01018KT 10SM SCT030 OVC045 A2979 RMK MADISHF
BDR,2017-04-01 16:50,-73.1289,41.1583,M,M,M,360.00,23.00,M,29.79,M,10.00,28.00,SCT,OVC,M,M,3000.00,4900.00,M,M,M,KBDR 011650Z AUTO 36023G28KT 10SM SCT030 OVC049 A2979 RMK MADISHF
BDR,2017-04-01 16:52,-73.1289,41.1583,45.00,32.00,60.11,10.00,21.00,0.00,29.79,1008.70,10.00,29.00,SCT,BKN,OVC,M,3000.00,4100.00,4900.00,M,M,KBDR 011652Z 01021G29KT 10SM SCT030 BKN041 OVC049 07/00 A2979 RMK AO2 PK WND 02030/1556 SLP087 T00720000
BDR,2017-04-01 16:55,-73.1289,41.1583,M,M,M,M,M,M,29.79,M,10.00,30.00,SCT,OVC,M,M,3000.00,4900.00,M,M,M,KBDR 011655Z AUTO /////G30KT 10SM SCT030 OVC049 A2979 RMK MADISHF
BDR,2017-04-01 17:00,-73.1289,41.1583,M,M,M,M,M,M,29.80,M,10.00,27.00,BKN,OVC,M,M,3200.00,4900.00,M,M,M,KBDR 011700Z AUTO /////G27KT 10SM BKN032 OVC049 A2980 RMK MADISHF
BDR,2017-04-01 17:05,-73.1289,41.1583,M,M,M,360.00,19.00,M,29.80,M,10.00,24.00,BKN,BKN,OVC,M,3000.00,3700.00,4900.00,M,M,KBDR 011705Z AUTO 36019G24KT 10SM BKN030 BKN037 OVC049 A2980 RMK MADISHF
BDR,2017-04-01 17:10,-73.1289,41.1583,M,M,M,350.00,19.00,M,29.80,M,10.00,M,BKN,BKN,OVC,M,3000.00,3700.00,4900.00,M,M,KBDR 011710Z AUTO 35019KT 10SM BKN030 BKN037 OVC049 A2980 RMK MADISHF
BDR,2017-04-01 17:15,-73.1289,41.1583,M,M,M,360.00,22.00,M,29.80,M,10.00,M,BKN,OVC,M,M,3200.00,4900.00,M,M,M,KBDR 011715Z AUTO 36022KT 10SM BKN032 OVC049 A2980 RMK MADISHF
BDR,2017-04-01 17:20,-73.1289,41.1583,M,M,M,10.00,19.00,M,29.80,M,10.00,M,OVC,M,M,M,3200.00,M,M,M,M,KBDR 011720Z AUTO 01019KT 10SM OVC032 A2980 RMK MADISHF
BDR,2017-04-01 17:25,-73.1289,41.1583,M,M,M,10.00,17.00,M,29.80,M,10.00,M,SCT,OVC,M,M,3000.00,3600.00,M,M,M,KBDR 011725Z AUTO 01017KT 10SM SCT030 OVC036 A2980 RMK MADISHF
BDR,2017-04-01 17:30,-73.1289,41.1583,M,M,M,M,M,M,29.80,M,10.00,M,OVC,M,M,M,3300.00,M,M,M,M,KBDR 011730Z AUTO /////KT 10SM OVC033 A2980 RMK MADISHF
BDR,2017-04-01 17:35,-73.1289,41.1583,M,M,M,20.00,17.00,M,29.80,M,10.00,M,OVC,M,M,M,3300.00,M,M,M,M,KBDR 011735Z AUTO 02017KT 10SM OVC033 A2980 RMK MADISHF
BDR,2017-04-01 17:40,-73.1289,41.1583,M,M,M,360.00,18.00,M,29.81,M,10.00,M,OVC,M,M,M,3300.00,M,M,M,M,KBDR 011740Z AUTO 36018KT 10SM OVC033 A2981 RMK MADISHF
BDR,2017-04-01 17:45,-73.1289,41.1583,M,M,M,360.00,15.00,M,29.81,M,10.00,M,OVC,M,M,M,3300.00,M,M,M,M,KBDR 011745Z AUTO 36015KT 10SM OVC033 A2981 RMK MADISHF
BDR,2017-04-01 17:50,-73.1289,41.1583,M,M,M,10.00,17.00,M,29.81,M,10.00,M,OVC,M,M,M,3300.00,M,M,M,M,KBDR 011750Z AUTO 01017KT 10SM OVC033 A2981 RMK MADISHF
BDR,2017-04-01 17:52,-73.1289,41.1583,45.00,30.90,57.50,10.00,17.00,0.00,29.81,1009.40,10.00,29.00,OVC,M,M,M,3300.00,M,M,M,M,KBDR 011752Z 01017G29KT 10SM OVC033 07/M01 A2981 RMK AO2 PK WND 36032/1715 SLP094 60000 T00721006 10078 20039 53015
BDR,2017-04-01 17:55,-73.1289,41.1583,M,M,M,350.00,19.00,M,29.81,M,10.00,M,OVC,M,M,M,3300.00,M,M,M,M,KBDR 011755Z AUTO 35019KT 10SM OVC033 A2981 RMK MADISHF
BDR,2017-04-01 18:00,-73.1289,41.1583,M,M,M,360.00,17.00,M,29.81,M,10.00,M,BKN,OVC,M,M,3300.00,4200.00,M,M,M,KBDR 011800Z AUTO 36017KT 10SM BKN033 OVC042 A2981 RMK MADISHF
BDR,2017-04-01 18:05,-73.1289,41.1583,M,M,M,360.00,18.00,M,29.80,M,10.00,25.00,BKN,OVC,M,M,3500.00,4200.00,M,M,M,KBDR 011805Z AUTO 36018G25KT 10SM BKN035 OVC042 A2980 RMK MADISHF
BDR,2017-04-01 18:10,-73.1289,41.1583,M,M,M,10.00,14.00,M,29.81,M,10.00,M,BKN,OVC,M,M,3300.00,4400.00,M,M,M,KBDR 011810Z AUTO 01014KT 10SM BKN033 OVC044 A2981 RMK MADISHF
BDR,2017-04-01 18:15,-73.1289,41.1583,M,M,M,20.00,16.00,M,29.81,M,10.00,M,BKN,OVC,M,M,3300.00,4400.00,M,M,M,KBDR 011815Z AUTO 02016KT 10SM BKN033 OVC044 A2981 RMK MADISHF
BDR,2017-04-01 18:20,-73.1289,41.1583,M,M,M,360.00,18.00,M,29.80,M,10.00,M,BKN,OVC,M,M,3300.00,4400.00,M,M,M,KBDR 011820Z AUTO 36018KT 10SM BKN033 OVC044 A2980 RMK MADISHF
BDR,2017-04-01 18:25,-73.1289,41.1583,M,M,M,360.00,15.00,M,29.80,M,10.00,M,BKN,OVC,M,M,3300.00,4400.00,M,M,M,KBDR 011825Z AUTO 36015KT 10SM BKN033 OVC044 A2980 RMK MADISHF
BDR,2017-04-01 18:30,-73.1289,41.1583,M,M,M,M,M,M,29.80,M,10.00,M,BKN,OVC,M,M,3300.00,4400.00,M,M,M,KBDR 011830Z AUTO /////KT 10SM BKN033 OVC044 A2980 RMK MADISHF
BDR,2017-04-01 18:35,-73.1289,41.1583,M,M,M,M,M,M,29.80,M,10.00,M,BKN,OVC,M,M,3300.00,4600.00,M,M,M,KBDR 011835Z AUTO /////KT 10SM BKN033 OVC046 A2980 RMK MADISHF
BDR,2017-04-01 18:40,-73.1289,41.1583,M,M,M,M,M,M,29.81,M,10.00,M,SCT,SCT,OVC,M,3100.00,3800.00,4600.00,M,M,KBDR 011840Z AUTO /////KT 10SM SCT031 SCT038 OVC046 A2981 RMK MADISHF
BDR,2017-04-01 18:45,-73.1289,41.1583,M,M,M,10.00,17.00,M,29.81,M,10.00,M,BKN,OVC,M,M,3100.00,4600.00,M,M,M,KBDR 011845Z AUTO 01017KT 10SM BKN031 OVC046 A2981 RMK MADISHF
BDR,2017-04-01 18:50,-73.1289,41.1583,M,M,M,360.00,19.00,M,29.81,M,10.00,M,BKN,OVC,M,M,3100.00,4600.00,M,M,M,KBDR 011850Z AUTO 36019KT 10SM BKN031 OVC046 A2981 RMK MADISHF
BDR,2017-04-01 18:52,-73.1289,41.1583,46.00,32.00,57.87,360.00,19.00,0.00,29.81,1009.50,10.00,27.00,BKN,OVC,M,M,3100.00,4600.00,M,M,M,KBDR 011852Z 36019G27KT 10SM BKN031 OVC046 08/00 A2981 RMK AO2 PK WND 01028/1841 SLP095 T00780000
BDR,2017-04-01 18:55,-73.1289,41.1583,M,M,M,360.00,20.00,M,29.81,M,10.00,M,BKN,OVC,M,M,3100.00,4600.00,M,M,M,KBDR 011855Z AUTO 36020KT 10SM BKN031 OVC046 A2981 RMK MADISHF
BDR,2017-04-01 19:00,-73.1289,41.1583,M,M,M,360.00,19.00,M,29.82,M,10.00,M,BKN,OVC,M,M,3100.00,4600.00,M,M,M,KBDR 011900Z AUTO 36019KT 10SM BKN031 OVC046 A2982 RMK MADISHF
BDR,2017-04-01 19:05,-73.1289,41.1583,M,M,M,350.00,15.00,M,29.82,M,10.00,M,BKN,OVC,M,M,3100.00,4600.00,M,M,M,KBDR 011905Z AUTO 35015KT 10SM BKN031 OVC046 A2982 RMK MADISHF
BDR,2017-04-01 19:10,-73.1289,41.1583,M,M,M,350.00,16.00,M,29.82,M,10.00,M,OVC,M,M,M,3100.00,M,M,M,M,KBDR 011910Z AUTO 35016KT 10SM OVC031 A2982 RMK MADISHF
BDR,2017-04-01 19:15,-73.1289,41.1583,M,M,M,20.00,16.00,M,29.83,M,10.00,M,OVC,M,M,M,3100.00,M,M,M,M,KBDR 011915Z AUTO 02016KT 10SM OVC031 A2983 RMK MADISHF
BDR,2017-04-01 19:20,-73.1289,41.1583,M,M,M,360.00,19.00,M,29.83,M,10.00,M,OVC,M,M,M,3100.00,M,M,M,M,KBDR 011920Z AUTO 36019KT 10SM OVC031 A2983 RMK MADISHF
BDR,2017-04-01 19:25,-73.1289,41.1583,M,M,M,M,M,M,29.84,M,10.00,M,OVC,M,M,M,3200.00,M,M,M,M,KBDR 011925Z AUTO /////KT 10SM OVC032 A2984 RMK MADISHF
BDR,2017-04-01 19:30,-73.1289,41.1583,M,M,M,360.00,12.00,M,29.84,M,10.00,M,OVC,M,M,M,3200.00,M,M,M,M,KBDR 011930Z AUTO 36012KT 10SM OVC032 A2984 RMK MADISHF
BDR,2017-04-01 19:35,-73.1289,41.1583,M,M,M,340.00,16.00,M,29.84,M,10.00,M,OVC,M,M,M,3200.00,M,M,M,M,KBDR 011935Z AUTO 34016KT 10SM OVC032 A2984 RMK MADISHF
BDR,2017-04-01 19:40,-73.1289,41.1583,M,M,M,350.00,14.00,M,29.85,M,10.00,M,OVC,M,M,M,3200.00,M,M,M,M,KBDR 011940Z AUTO 35014KT 10SM OVC032 A2985 RMK MADISHF
BDR,2017-04-01 19:45,-73.1289,41.1583,M,M,M,340.00,16.00,M,29.85,M,10.00,M,OVC,M,M,M,3200.00,M,M,M,M,KBDR 011945Z AUTO 34016KT 10SM OVC032 A2985 RMK MADISHF
BDR,2017-04-01 19:50,-73.1289,41.1583,M,M,M,340.00,16.00,M,29.85,M,10.00,M,OVC,M,M,M,3200.00,M,M,M,M,KBDR 011950Z AUTO 34016KT 10SM OVC032 A2985 RMK MADISHF
BDR,2017-04-01 19:52,-73.1289,41.1583,44.10,30.90,59.50,340.00,18.00,0.00,29.85,1010.80,10.00,24.00,OVC,M,M,M,3200.00,M,M,M,M,KBDR 011952Z 34018G24KT 10SM OVC032 07/M01 A2985 RMK AO2 PK WND 01029/1857 SLP108 T00671006
BDR,2017-04-01 19:55,-73.1289,41.1583,M,M,M,340.00,13.00,M,29.85,M,10.00,19.00,OVC,M,M,M,3200.00,M,M,M,M,KBDR 011955Z AUTO 34013G19KT 10SM OVC032 A2985 RMK MADISHF
BDR,2017-04-01 20:00,-73.1289,41.1583,M,M,M,340.00,15.00,M,29.85,M,10.00,M,OVC,M,M,M,3200.00,M,M,M,M,KBDR 012000Z AUTO 34015KT 10SM OVC032 A2985 RMK MADISHF
BDR,2017-04-01 20:05,-73.1289,41.1583,M,M,M,360.00,17.00,M,29.86,M,10.00,M,OVC,M,M,M,3399.00,M,M,M,M,KBDR 012005Z AUTO 36017KT 10SM OVC033 A2986 RMK MADISHF
BDR,2017-04-01 20:10,-73.1289,41.1583,M,M,M,360.00,12.00,M,29.85,M,10.00,M,SCT,OVC,M,M,3100.00,3900.00,M,M,M,KBDR 012010Z AUTO 36012KT 10SM SCT031 OVC039 A2985 RMK MADISHF
BDR,2017-04-01 20:15,-73.1289,41.1583,M,M,M,340.00,12.00,M,29.86,M,10.00,M,SCT,OVC,M,M,3100.00,4100.00,M,M,M,KBDR 012015Z AUTO 34012KT 10SM SCT031 OVC041 A2986 RMK MADISHF
BDR,2017-04-01 20:20,-73.1289,41.1583,M,M,M,350.00,16.00,M,29.86,M,10.00,M,FEW,BKN,OVC,M,3000.00,3900.00,4500.00,M,M,KBDR 012020Z AUTO 35016KT 10SM FEW030 BKN039 OVC045 A2986 RMK MADISHF
BDR,2017-04-01 20:25,-73.1289,41.1583,M,M,M,350.00,15.00,M,29.87,M,10.00,M,FEW,OVC,M,M,3100.00,4100.00,M,M,M,KBDR 012025Z AUTO 35015KT 10SM FEW031 OVC041 A2987 RMK MADISHF
BDR,2017-04-01 20:30,-73.1289,41.1583,M,M,M,350.00,14.00,M,29.88,M,10.00,M,SCT,OVC,M,M,3000.00,4300.00,M,M,M,KBDR 012030Z AUTO 35014KT 10SM SCT030 OVC043 A2988 RMK MADISHF
BDR,2017-04-01 20:35,-73.1289,41.1583,M,M,M,M,M,M,29.88,M,10.00,M,SCT,OVC,M,M,3000.00,4300.00,M,M,M,KBDR 012035Z AUTO /////KT 10SM SCT030 OVC043 A2988 RMK MADISHF
BDR,2017-04-01 20:40,-73.1289,41.1583,M,M,M,360.00,15.00,M,29.88,M,10.00,M,SCT,BKN,OVC,M,3000.00,4300.00,5000.00,M,M,KBDR 012040Z AUTO 36015KT 10SM SCT030 BKN043 OVC050 A2988 RMK MADISHF
BDR,2017-04-01 20:45,-73.1289,41.1583,M,M,M,M,M,M,29.89,M,10.00,M,SCT,BKN,OVC,M,2900.00,4300.00,5000.00,M,M,KBDR 012045Z AUTO /////KT 10SM SCT029 BKN043 OVC050 A2989 RMK MADISHF
BDR,2017-04-01 20:50,-73.1289,41.1583,M,M,M,350.00,18.00,M,29.89,M,10.00,M,SCT,BKN,OVC,M,2900.00,4400.00,5000.00,M,M,KBDR 012050Z AUTO 35018KT 10SM SCT029 BKN044 OVC050 A2989 RMK MADISHF
BDR,2017-04-01 20:52,-73.1289,41.1583,44.10,32.00,62.21,350.00,18.00,0.00,29.88,1011.90,10.00,23.00,SCT,BKN,OVC,M,2900.00,4200.00,5500.00,M,M,KBDR 012052Z 35018G23KT 10SM SCT029 BKN042 OVC055 07/00 A2988 RMK AO2 PK WND 34026/2035 SLP119 T00670000 53025
BDR,2017-04-01 20:55,-73.1289,41.1583,M,M,M,350.00,14.00,M,29.89,M,10.00,M,SCT,SCT,OVC,M,2900.00,3900.00,5500.00,M,M,KBDR 012055Z AUTO 35014KT 10SM SCT029 SCT039 OVC055 A2989 RMK MADISHF
BDR,2017-04-01 21:00,-73.1289,41.1583,M,M,M,M,M,M,29.89,M,10.00,M,FEW,SCT,OVC,M,2700.00,4200.00,5000.00,M,M,KBDR 012100Z AUTO /////KT 10SM FEW027 SCT042 OVC050 A2989 RMK MADISHF
BDR,2017-04-01 21:05,-73.1289,41.1583,M,M,M,350.00,15.00,M,29.89,M,10.00,M,FEW,SCT,OVC,M,2700.00,4400.00,5000.00,M,M,KBDR 012105Z AUTO 35015KT 10SM FEW027 SCT044 OVC050 A2989 RMK MADISHF
BDR,2017-04-01 21:10,-73.1289,41.1583,M,M,M,350.00,18.00,M,29.89,M,10.00,M,FEW,FEW,OVC,M,2700.00,4400.00,5500.00,M,M,KBDR 012110Z AUTO 35018KT 10SM FEW027 FEW044 OVC055 A2989 RMK MADISHF
BDR,2017-04-01 21:15,-73.1289,41.1583,M,M,M,360.00,14.00,M,29.89,M,10.00,M,FEW,FEW,OVC,M,2700.00,4400.00,5500.00,M,M,KBDR 012115Z AUTO 36014KT 10SM FEW027 FEW044 OVC055 A2989 RMK MADISHF
BDR,2017-04-01 21:20,-73.1289,41.1583,M,M,M,360.00,13.00,M,29.89,M,10.00,M,FEW,OVC,M,M,2700.00,5500.00,M,M,M,KBDR 012120Z AUTO 36013KT 10SM FEW027 OVC055 A2989 RMK MADISHF
BDR,2017-04-01 21:25,-73.1289,41.1583,M,M,M,M,M,M,29.89,M,10.00,M,FEW,BKN,OVC,M,2600.00,5500.00,7000.00,M,M,KBDR 012125Z AUTO /////KT 10SM FEW026 BKN055 OVC070 A2989 RMK MADISHF
BDR,2017-04-01 21:30,-73.1289,41.1583,M,M,M,M,M,M,29.89,M,10.00,M,FEW,BKN,OVC,M,2400.00,5500.00,7000.00,M,M,KBDR 012130Z AUTO /////KT 10SM FEW024 BKN055 OVC070 A2989 RMK MADISHF
BDR,2017-04-01 21:35,-73.1289,41.1583,M,M,M,M,M,M,29.90,M,10.00,M,FEW,BKN,OVC,M,2500.00,6000.00,7000.00,M,M,KBDR 012135Z AUTO /////KT 10SM FEW025 BKN060 OVC070 A2990 RMK MADISHF
BDR,2017-04-01 21:40,-73.1289,41.1583,M,M,M,360.00,14.00,M,29.90,M,10.00,M,FEW,BKN,OVC,M,2500.00,5500.00,7000.00,M,M,KBDR 012140Z AUTO 36014KT 10SM FEW025 BKN055 OVC070 A2990 RMK MADISHF
BDR,2017-04-01 21:45,-73.1289,41.1583,M,M,M,360.00,16.00,M,29.91,M,10.00,M,FEW,BKN,OVC,M,2500.00,5500.00,7000.00,M,M,KBDR 012145Z AUTO 36016KT 10SM FEW025 BKN055 OVC070 A2991 RMK MADISHF
BDR,2017-04-01 21:50,-73.1289,41.1583,M,M,M,360.00,14.00,M,29.92,M,10.00,M,SCT,OVC,M,M,2600.00,5500.00,M,M,M,KBDR 012150Z AUTO 36014KT 10SM SCT026 OVC055 A2992 RMK MADISHF
BDR,2017-04-01 21:52,-73.1289,41.1583,45.00,33.10,62.83,350.00,12.00,0.00,29.92,1013.00,10.00,27.00,SCT,OVC,M,M,2600.00,5500.00,M,M,M,KBDR 012152Z 35012G27KT 10SM SCT026 OVC055 07/01 A2992 RMK AO2 PK WND 36029/2123 SLP130 T00720006
BDR,2017-04-01 21:55,-73.1289,41.1583,M,M,M,M,M,M,29.92,M,10.00,M,SCT,OVC,M,M,2600.00,5500.00,M,M,M,KBDR 012155Z AUTO /////KT 10SM SCT026 OVC055 A2992 RMK MADISHF
BDR,2017-04-01 22:00,-73.1289,41.1583,M,M,M,350.00,14.00,M,29.92,M,10.00,M,FEW,OVC,M,M,2600.00,6000.00,M,M,M,KBDR 012200Z AUTO 35014KT 10SM FEW026 OVC060 A2992 RMK MADISHF
BDR,2017-04-01 22:05,-73.1289,41.1583,M,M,M,350.00,12.00,M,29.92,M,10.00,M,FEW,BKN,OVC,M,2600.00,5500.00,7000.00,M,M,KBDR 012205Z AUTO 35012KT 10SM FEW026 BKN055 OVC070 A2992 RMK MADISHF
BDR,2017-04-01 22:10,-73.1289,41.1583,M,M,M,360.00,12.00,M,29.92,M,10.00,M,FEW,OVC,M,M,2600.00,5000.00,M,M,M,KBDR 012210Z AUTO 36012KT 10SM FEW026 OVC050 A2992 RMK MADISHF
BDR,2017-04-01 22:15,-73.1289,41.1583,M,M,M,350.00,11.00,M,29.93,M,10.00,M,FEW,OVC,M,M,2600.00,5000.00,M,M,M,KBDR 012215Z AUTO 35011KT 10SM FEW026 OVC050 A2993 RMK MADISHF
BDR,2017-04-01 22:20,-73.1289,41.1583,M,M,M,350.00,10.00,M,29.93,M,10.00,M,BKN,OVC,M,M,5000.00,7000.00,M,M,M,KBDR 012220Z AUTO 35010KT 10SM BKN050 OVC070 A2993 RMK MADISHF
BDR,2017-04-01 22:25,-73.1289,41.1583,M,M,M,350.00,14.00,M,29.93,M,10.00,M,OVC,M,M,M,5000.00,M,M,M,M,KBDR 012225Z AUTO 35014KT 10SM OVC050 A2993 RMK MADISHF
BDR,2017-04-01 22:30,-73.1289,41.1583,M,M,M,350.00,13.00,M,29.94,M,10.00,M,OVC,M,M,M,4800.00,M,M,M,M,KBDR 012230Z AUTO 35013KT 10SM OVC048 A2994 RMK MADISHF
BDR,2017-04-01 22:35,-73.1289,41.1583,M,M,M,350.00,9.00,M,29.94,M,10.00,M,OVC,M,M,M,4800.00,M,M,M,M,KBDR 012235Z AUTO 35009KT 10SM OVC048 A2994 RMK MADISHF
BDR,2017-04-01 22:40,-73.1289,41.1583,M,M,M,360.00,9.00,M,29.94,M,10.00,M,OVC,M,M,M,4700.00,M,M,M,M,KBDR 012240Z AUTO 36009KT 10SM OVC047 A2994 RMK MADISHF
BDR,2017-04-01 22:45,-73.1289,41.1583,M,M,M,350.00,12.00,M,29.95,M,10.00,M,OVC,M,M,M,4700.00,M,M,M,M,KBDR 012245Z AUTO 35012KT 10SM OVC047 A2995 RMK MADISHF
BDR,2017-04-01 22:50,-73.1289,41.1583,M,M,M,360.00,11.00,M,29.95,M,10.00,M,OVC,M,M,M,4600.00,M,M,M,M,KBDR 012250Z AUTO 36011KT 10SM OVC046 A2995 RMK MADISHF
BDR,2017-04-01 22:52,-73.1289,41.1583,45.00,33.10,62.83,10.00,13.00,0.00,29.95,1014.00,10.00,18.00,OVC,M,M,M,4600.00,M,M,M,M,KBDR 012252Z 01013G18KT 10SM OVC046 07/01 A2995 RMK AO2 SLP140 T00720006
BDR,2017-04-01 22:55,-73.1289,41.1583,M,M,M,350.00,13.00,M,29.95,M,10.00,18.00,OVC,M,M,M,4600.00,M,M,M,M,KBDR 012255Z AUTO 35013G18KT 10SM OVC046 A2995 RMK MADISHF
BDR,2017-04-01 23:00,-73.1289,41.1583,M,M,M,10.00,12.00,M,29.95,M,10.00,M,OVC,M,M,M,4800.00,M,M,M,M,KBDR 012300Z AUTO 01012KT 10SM OVC048 A2995 RMK MADISHF
BDR,2017-04-01 23:05,-73.1289,41.1583,M,M,M,360.00,13.00,M,29.95,M,10.00,M,OVC,M,M,M,4800.00,M,M,M,M,KBDR 012305Z AUTO 36013KT 10SM OVC048 A2995 RMK MADISHF
BDR,2017-04-01 23:10,-73.1289,41.1583,M,M,M,350.00,12.00,M,29.95,M,10.00,M,OVC,M,M,M,4800.00,M,M,M,M,KBDR 012310Z AUTO 35012KT 10SM OVC048 A2995 RMK MADISHF
BDR,2017-04-01 23:15,-73.1289,41.1583,M,M,M,350.00,12.00,M,29.95,M,10.00,M,OVC,M,M,M,4900.00,M,M,M,M,KBDR 012315Z AUTO 35012KT 10SM OVC049 A2995 RMK MADISHF
BDR,2017-04-01 23:20,-73.1289,41.1583,M,M,M,350.00,12.00,M,29.96,M,10.00,M,FEW,OVC,M,M,2600.00,4900.00,M,M,M,KBDR 012320Z AUTO 35012KT 10SM FEW026 OVC049 A2996 RMK MADISHF
BDR,2017-04-01 23:25,-73.1289,41.1583,M,M,M,350.00,11.00,M,29.96,M,10.00,17.00,FEW,OVC,M,M,2400.00,4900.00,M,M,M,KBDR 012325Z AUTO 35011G17KT 10SM FEW024 OVC049 A2996 RMK MADISHF
BDR,2017-04-01 23:30,-73.1289,41.1583,M,M,M,360.00,13.00,M,29.96,M,10.00,M,OVC,M,M,M,4900.00,M,M,M,M,KBDR 012330Z AUTO 36013KT 10SM OVC049 A2996 RMK MADISHF
BDR,2017-04-01 23:35,-73.1289,41.1583,M,M,M,350.00,9.00,M,29.97,M,10.00,M,OVC,M,M,M,4900.00,M,M,M,M,KBDR 012335Z AUTO 35009KT 10SM OVC049 A2997 RMK MADISHF
BDR,2017-04-01 23:40,-73.1289,41.1583,M,M,M,350.00,14.00,M,29.97,M,10.00,M,OVC,M,M,M,4900.00,M,M,M,M,KBDR 012340Z AUTO 35014KT 10SM OVC049 A2997 RMK MADISHF
BDR,2017-04-01 23:45,-73.1289,41.1583,M,M,M,10.00,10.00,M,29.97,M,10.00,M,FEW,OVC,M,M,2400.00,5000.00,M,M,M,KBDR 012345Z AUTO 01010KT 10SM FEW024 OVC050 A2997 RMK MADISHF
BDR,2017-04-01 23:50,-73.1289,41.1583,M,M,M,360.00,8.00,M,29.98,M,10.00,M,FEW,OVC,M,M,2400.00,5000.00,M,M,M,KBDR 012350Z AUTO 36008KT 10SM FEW024 OVC050 A2998 RMK MADISHF
BDR,2017-04-01 23:52,-73.1289,41.1583,44.10,33.10,65.02,340.00,8.00,0.00,29.98,1015.10,10.00,M,OVC,M,M,M,5000.00,M,M,M,M,KBDR 012352Z 34008KT 10SM OVC050 07/01 A2998 RMK AO2 SLP151 T00670006 10078 20067 51032
BDR,2017-04-01 23:55,-73.1289,41.1583,M,M,M,340.00,10.00,M,29.98,M,10.00,M,OVC,M,M,M,5000.00,M,M,M,M,KBDR 012355Z AUTO 34010KT 10SM OVC050 A2998 RMK MADISHF
