#DEBUG: Format Typ    -> comma
#DEBUG: Time Period   -> 2017-04-01 00:00:00+00:00 2017-04-02 00:00:00+00:00
#DEBUG: Time Zone     -> Etc/UTC
#DEBUG: Data Contact   -> daryl herzmann akrherz@iastate.edu 515-294-5978
#DEBUG: Entries Found -> -1
station,valid,lon,lat,tmpf, dwpf, relh, drct, sknt, p01i, alti, mslp, vsby, gust, skyc1, skyc2, skyc3, skyc4, skyl1, skyl2, skyl3, skyl4, presentwx, metar
BED,2017-04-01 00:00,-71.2890,42.4699,M,M,M,70.00,7.00,M,30.05,M,1.50,M,BKN,OVC,M,M,700.00,1100.00,M,M,-SN BR,KBED 010000Z AUTO 07007KT 1 1/2SM -SN BR BKN007 OVC011 A3005 RMK MADISHF
BED,2017-04-01 00:05,-71.2890,42.4699,M,M,M,70.00,7.00,M,30.05,M,1.00,M,BKN,OVC,M,M,499.00,1100.00,M,M,-SN BR,KBED 010005Z AUTO 07007KT 1SM -SN BR BKN004 OVC011 A3005 RMK MADISHF
BED,2017-04-01 00:10,-71.2890,42.4699,M,M,M,70.00,7.00,M,30.05,M,1.25,M,BKN,OVC,M,M,700.00,1300.00,M,M,-RA BR,KBED 010010Z AUTO 07007KT 1 1/2SM -RA BR BKN007 OVC013 A3005 RMK MADISHF
BED,2017-04-01 00:15,-71.2890,42.4699,M,M,M,70.00,7.00,M,30.05,M,1.75,M,OVC,M,M,M,700.00,M,M,M,-RA BR,KBED 010015Z AUTO 07007KT 2SM -RA BR OVC007 A3005 RMK MADISHF
BED,2017-04-01 00:20,-71.2890,42.4699,M,M,M,70.00,6.00,M,30.05,M,1.75,M,BKN,OVC,M,M,700.00,1100.00,M,M,-FZRA BR,KBED 010020Z AUTO 07006KT 2SM -FZRA BR BKN007 OVC011 A3005 RMK MADISHF
BED,2017-04-01 00:23,-71.2890,42.4699,33.10,30.00,88.23,70.00,7.00,0.00,30.04,M,1.75,M,VV ,M,M,M,700.00,M,M,M,-FZRA BR,KBED 010023Z 07007KT 1 3/4SM -FZRA BR VV007 01/M01 A3004 RMK AO2 RAE17FZRAB17SNB2359E10 P0000 I1000 T00061011
BED,2017-04-01 00:25,-71.2890,42.4699,M,M,M,60.00,7.00,M,30.04,M,1.75,M,VV ,M,M,M,700.00,M,M,M,-FZRA BR,KBED 010025Z AUTO 06007KT 2SM -FZRA BR VV007 A3004 RMK MADISHF
BED,2017-04-01 00:30,-71.2890,42.4699,M,M,M,60.00,6.00,0.01,30.04,M,1.00,M,VV ,M,M,M,700.00,M,M,M,-FZRA BR,KBED 010030Z AUTO 06006KT 1SM -FZRA BR VV007 A3004 RMK P0001 MADISHF
BED,2017-04-01 00:35,-71.2890,42.4699,M,M,M,50.00,6.00,0.01,30.04,M,1.00,M,VV ,M,M,M,700.00,M,M,M,-FZRA BR,KBED 010035Z AUTO 05006KT 1SM -FZRA BR VV007 A3004 RMK P0001 MADISHF
BED,2017-04-01 00:40,-71.2890,42.4699,M,M,M,50.00,6.00,0.01,30.04,M,1.00,M,VV ,M,M,M,700.00,M,M,M,-RA BR,KBED 010040Z AUTO 05006KT 1SM -RA BR VV007 A3004 RMK P0001 MADISHF
BED,2017-04-01 00:44,-71.2890,42.4699,33.10,30.00,88.23,60.00,7.00,0.01,30.04,M,1.00,M,VV ,M,M,M,700.00,M,M,M,-RA BR,KBED 010044Z 06007KT 1SM R11/P6000FT -RA BR VV007 01/M01 A3004 RMK AO2 RAE17B38FZRAB17E38SNB2359E10 P0001 I1000 T00061011
BED,2017-04-01 00:45,-71.2890,42.4699,M,M,M,60.00,7.00,0.01,30.04,M,1.00,M,VV ,M,M,M,700.00,M,M,M,-FZRA BR,KBED 010045Z AUTO 06007KT 1SM -FZRA BR VV007 A3004 RMK P0001 MADISHF
BED,2017-04-01 00:50,-71.2890,42.4699,M,M,M,60.00,7.00,0.01,30.04,M,1.00,M,VV ,M,M,M,700.00,M,M,M,-FZRA BR,KBED 010050Z AUTO 06007KT 1SM -FZRA BR VV007 A3004 RMK P0001 MADISHF
BED,2017-04-01 00:51,-71.2890,42.4699,33.80,30.20,86.49,60.00,6.00,0.01,30.04,M,1.00,M,VV ,M,M,M,700.00,M,M,M,-FZRA BR,KBED 010051Z 06006KT 1SM R11/P6000FT -FZRA BR VV007 01/M01 A3004 RMK AO2 RAE17B38E45FZRAB17E38B45SNB2359E10 P0001 I1001
BED,2017-04-01 00:55,-71.2890,42.4699,M,M,M,70.00,8.00,0.01,30.04,M,1.00,M,VV ,M,M,M,700.00,M,M,M,-FZRA BR,KBED 010055Z AUTO 07008KT 1SM -FZRA BR VV007 A3004 RMK P0001 MADISHF
BED,2017-04-01 00:56,-71.2890,42.4699,33.10,30.00,88.23,70.00,8.00,0.01,30.04,1018.60,1.00,M,VV ,M,M,M,700.00,M,M,M,-FZRA BR,KBED 010056Z 07008KT 1SM R11/P6000FT -FZRA BR VV007 01/M01 A3004 RMK AO2 RAE17B38E45FZRAB17E38B45SNB2359E10 SLP186 P0001 I1001 T00061011
BED,2017-04-01 01:00,-71.2890,42.4699,M,M,M,60.00,7.00,M,30.03,M,2.00,M,VV ,M,M,M,700.00,M,M,M,-FZRA BR,KBED 010100Z AUTO 06007KT 2SM -FZRA BR VV007 A3003 RMK MADISHF
BED,2017-04-01 01:05,-71.2890,42.4699,M,M,M,60.00,9.00,M,30.03,M,1.50,M,VV ,M,M,M,700.00,M,M,M,-FZRA BR,KBED 010105Z AUTO 06009KT 1 1/2SM -FZRA BR VV007 A3003 RMK MADISHF
BED,2017-04-01 01:10,-71.2890,42.4699,M,M,M,60.00,10.00,M,30.03,M,1.50,M,VV ,M,M,M,700.00,M,M,M,-FZRA BR,KBED 010110Z AUTO 06010KT 1 1/2SM -FZRA BR VV007 A3003 RMK MADISHF
BED,2017-04-01 01:15,-71.2890,42.4699,M,M,M,70.00,9.00,0.01,30.03,M,1.50,M,VV ,M,M,M,700.00,M,M,M,RA BR,KBED 010115Z AUTO 07009KT 1 1/2SM RA BR VV007 A3003 RMK P0001 MADISHF
BED,2017-04-01 01:19,-71.2890,42.4699,33.10,30.00,88.23,70.00,10.00,0.01,30.03,M,1.50,M,VV ,M,M,M,700.00,M,M,M,RA BR,KBED 010119Z 07010KT 1 1/2SM RA BR VV007 01/M01 A3003 RMK AO2 RAB13FZRAE13 P0001 I1000 T00061011
BED,2017-04-01 01:20,-71.2890,42.4699,M,M,M,70.00,9.00,0.01,30.03,M,1.50,M,VV ,M,M,M,700.00,M,M,M,RA BR,KBED 010120Z AUTO 07009KT 1 1/2SM RA BR VV007 A3003 RMK P0001 MADISHF
BED,2017-04-01 01:25,-71.2890,42.4699,M,M,M,70.00,8.00,0.01,30.03,M,1.50,M,VV ,M,M,M,700.00,M,M,M,RA BR,KBED 010125Z AUTO 07008KT 1 1/2SM RA BR VV007 A3003 RMK P0001 MADISHF
BED,2017-04-01 01:30,-71.2890,42.4699,M,M,M,70.00,9.00,0.01,30.03,M,1.50,M,VV ,M,M,M,700.00,M,M,M,RA BR,KBED 010130Z AUTO 07009KT 1 1/2SM RA BR VV007 A3003 RMK P0001 MADISHF
BED,2017-04-01 01:35,-71.2890,42.4699,M,M,M,70.00,10.00,0.01,30.02,M,1.50,M,VV ,M,M,M,700.00,M,M,M,RA BR,KBED 010135Z AUTO 07010KT 1 1/2SM RA BR VV007 A3002 RMK P0001 MADISHF
BED,2017-04-01 01:40,-71.2890,42.4699,M,M,M,60.00,11.00,0.01,30.02,M,1.50,M,VV ,M,M,M,700.00,M,M,M,RA BR,KBED 010140Z AUTO 06011KT 1 1/2SM RA BR VV007 A3002 RMK P0001 MADISHF
BED,2017-04-01 01:45,-71.2890,42.4699,M,M,M,70.00,10.00,0.01,30.02,M,1.50,M,VV ,M,M,M,700.00,M,M,M,-FZRA BR,KBED 010145Z AUTO 07010KT 1 1/2SM -FZRA BR VV007 A3002 RMK P0001 MADISHF
BED,2017-04-01 01:50,-71.2890,42.4699,M,M,M,70.00,11.00,0.02,30.02,M,1.50,M,VV ,M,M,M,700.00,M,M,M,-FZRA BR,KBED 010150Z AUTO 07011KT 1 1/2SM -FZRA BR VV007 A3002 RMK P0002 MADISHF
BED,2017-04-01 01:55,-71.2890,42.4699,M,M,M,70.00,10.00,0.02,30.01,M,1.50,M,VV ,M,M,M,700.00,M,M,M,-FZRA BR,KBED 010155Z AUTO 07010KT 1 1/2SM -FZRA BR VV007 A3001 RMK P0002 MADISHF
BED,2017-04-01 01:56,-71.2890,42.4699,33.10,30.00,88.23,70.00,9.00,0.02,30.01,1017.90,1.50,M,VV ,M,M,M,700.00,M,M,M,-FZRA BR,KBED 010156Z 07009KT 1 1/2SM -FZRA BR VV007 01/M01 A3001 RMK AO2 RAB13E44FZRAE13B44 SLP179 P0002 I1000 T00061011
BED,2017-04-01 02:00,-71.2890,42.4699,M,M,M,70.00,10.00,M,30.01,M,1.50,M,VV ,M,M,M,800.00,M,M,M,-FZRA BR,KBED 010200Z AUTO 07010KT 1 1/2SM -FZRA BR VV008 A3001 RMK MADISHF
BED,2017-04-01 02:05,-71.2890,42.4699,M,M,M,70.00,9.00,M,30.01,M,1.50,M,VV ,M,M,M,800.00,M,M,M,-FZRA BR,KBED 010205Z AUTO 07009KT 1 1/2SM -FZRA BR VV008 A3001 RMK MADISHF
BED,2017-04-01 02:10,-71.2890,42.4699,M,M,M,70.00,10.00,M,30.01,M,1.50,M,VV ,M,M,M,800.00,M,M,M,-FZRA BR,KBED 010210Z AUTO 07010KT 1 1/2SM -FZRA BR VV008 A3001 RMK MADISHF
BED,2017-04-01 02:15,-71.2890,42.4699,M,M,M,80.00,9.00,M,30.00,M,1.50,M,VV ,M,M,M,800.00,M,M,M,-FZRA BR,KBED 010215Z AUTO 08009KT 1 1/2SM -FZRA BR VV008 A3000 RMK MADISHF
BED,2017-04-01 02:20,-71.2890,42.4699,M,M,M,70.00,9.00,M,30.00,M,1.50,M,VV ,M,M,M,800.00,M,M,M,-FZRA BR,KBED 010220Z AUTO 07009KT 1 1/2SM -FZRA BR VV008 A3000 RMK MADISHF
BED,2017-04-01 02:25,-71.2890,42.4699,M,M,M,70.00,11.00,M,30.00,M,1.50,M,VV ,M,M,M,800.00,M,M,M,-FZRA BR,KBED 010225Z AUTO 07011KT 1 1/2SM -FZRA BR VV008 A3000 RMK MADISHF
BED,2017-04-01 02:30,-71.2890,42.4699,M,M,M,70.00,9.00,M,29.99,M,1.50,M,VV ,M,M,M,800.00,M,M,M,-FZRA BR,KBED 010230Z AUTO 07009KT 1 1/2SM -FZRA BR VV008 A2999 RMK MADISHF
BED,2017-04-01 02:35,-71.2890,42.4699,M,M,M,70.00,11.00,M,29.99,M,1.50,M,VV ,M,M,M,800.00,M,M,M,-FZRA BR,KBED 010235Z AUTO 07011KT 1 1/2SM -FZRA BR VV008 A2999 RMK MADISHF
BED,2017-04-01 02:40,-71.2890,42.4699,M,M,M,70.00,12.00,M,29.98,M,1.50,M,VV ,M,M,M,800.00,M,M,M,-FZRA BR,KBED 010240Z AUTO 07012KT 1 1/2SM -FZRA BR VV008 A2998 RMK MADISHF
BED,2017-04-01 02:45,-71.2890,42.4699,M,M,M,70.00,10.00,M,29.98,M,1.50,M,VV ,M,M,M,800.00,M,M,M,-FZRA BR,KBED 010245Z AUTO 07010KT 1 1/2SM -FZRA BR VV008 A2998 RMK MADISHF
BED,2017-04-01 02:50,-71.2890,42.4699,M,M,M,70.00,10.00,M,29.98,M,1.50,M,VV ,M,M,M,800.00,M,M,M,-FZRA BR,KBED 010250Z AUTO 07010KT 1 1/2SM -FZRA BR VV008 A2998 RMK MADISHF
BED,2017-04-01 02:55,-71.2890,42.4699,M,M,M,80.00,11.00,M,29.98,M,1.50,M,VV ,M,M,M,800.00,M,M,M,-FZRA BR,KBED 010255Z AUTO 08011KT 1 1/2SM -FZRA BR VV008 A2998 RMK MADISHF
BED,2017-04-01 02:56,-71.2890,42.4699,33.10,30.00,88.23,80.00,10.00,0.00,29.98,1016.60,1.50,M,VV ,M,M,M,800.00,M,M,M,-FZRA BR,KBED 010256Z AUTO 08010KT 1 1/2SM -FZRA BR VV008 01/M01 A2998 RMK AO2 SLP166 6//// I1000 I3001 T00061011 58021 PNO $
BED,2017-04-01 03:00,-71.2890,42.4699,M,M,M,70.00,10.00,M,29.97,M,2.00,M,OVC,M,M,M,700.00,M,M,M,-FZRA BR,KBED 010300Z AUTO 07010KT 2SM -FZRA BR OVC007 A2997 RMK MADISHF
BED,2017-04-01 03:03,-71.2890,42.4699,33.10,30.00,88.23,70.00,12.00,0.00,29.97,M,2.00,M,OVC,M,M,M,700.00,M,M,M,-FZRA BR,KBED 010303Z AUTO 07012KT 2SM -FZRA BR OVC007 01/M01 A2997 RMK AO2 P0000 I1000 T00061011 $
BED,2017-04-01 03:05,-71.2890,42.4699,M,M,M,70.00,10.00,M,29.97,M,2.00,M,OVC,M,M,M,700.00,M,M,M,-FZRA BR,KBED 010305Z AUTO 07010KT 2SM -FZRA BR OVC007 A2997 RMK MADISHF
BED,2017-04-01 03:10,-71.2890,42.4699,M,M,M,70.00,10.00,0.01,29.97,M,2.00,M,OVC,M,M,M,700.00,M,M,M,-FZRA BR,KBED 010310Z AUTO 07010KT 2SM -FZRA BR OVC007 A2997 RMK P0001 MADISHF
BED,2017-04-01 03:15,-71.2890,42.4699,M,M,M,70.00,9.00,0.01,29.97,M,3.00,M,OVC,M,M,M,700.00,M,M,M,-FZRA BR,KBED 010315Z AUTO 07009KT 3SM -FZRA BR OVC007 A2997 RMK P0001 MADISHF
BED,2017-04-01 03:20,-71.2890,42.4699,M,M,M,70.00,11.00,0.01,29.97,M,4.00,M,BKN,OVC,M,M,700.00,1100.00,M,M,-FZRA BR,KBED 010320Z AUTO 07011KT 4SM -FZRA BR BKN007 OVC011 A2997 RMK P0001 MADISHF
BED,2017-04-01 03:21,-71.2890,42.4699,33.10,30.00,88.23,70.00,11.00,0.01,29.96,M,4.00,M,OVC,M,M,M,700.00,M,M,M,-FZRA BR,KBED 010321Z AUTO 07011KT 4SM -FZRA BR OVC007 01/M01 A2996 RMK AO2 P0001 I1000 T00061011 $
BED,2017-04-01 03:25,-71.2890,42.4699,M,M,M,70.00,11.00,0.01,29.96,M,4.00,M,OVC,M,M,M,900.00,M,M,M,-FZRA BR,KBED 010325Z AUTO 07011KT 4SM -FZRA BR OVC009 A2996 RMK P0001 MADISHF
BED,2017-04-01 03:30,-71.2890,42.4699,M,M,M,70.00,13.00,0.01,29.96,M,4.00,M,OVC,M,M,M,900.00,M,M,M,-FZRA BR,KBED 010330Z AUTO 07013KT 4SM -FZRA BR OVC009 A2996 RMK P0001 CIG 5V12  MADISHF
BED,2017-04-01 03:35,-71.2890,42.4699,M,M,M,70.00,11.00,0.01,29.96,M,5.00,M,OVC,M,M,M,900.00,M,M,M,-FZRA BR,KBED 010335Z AUTO 07011KT 5SM -FZRA BR OVC009 A2996 RMK P0001 CIG 6V12  MADISHF
BED,2017-04-01 03:40,-71.2890,42.4699,M,M,M,70.00,12.00,0.01,29.96,M,5.00,M,BKN,OVC,M,M,800.00,1200.00,M,M,-FZRA BR,KBED 010340Z AUTO 07012KT 5SM -FZRA BR BKN008 OVC012 A2996 RMK P0001 CIG 6V11  MADISHF
BED,2017-04-01 03:45,-71.2890,42.4699,M,M,M,60.00,12.00,0.02,29.95,M,5.00,M,OVC,M,M,M,999.00,M,M,M,-FZRA BR,KBED 010345Z AUTO 06012KT 5SM -FZRA BR OVC009 A2995 RMK P0002 CIG 6V13  MADISHF
BED,2017-04-01 03:50,-71.2890,42.4699,M,M,M,70.00,12.00,0.02,29.95,M,5.00,M,OVC,M,M,M,999.00,M,M,M,-FZRA BR,KBED 010350Z AUTO 07012KT 5SM -FZRA BR OVC009 A2995 RMK P0002 CIG 6V13  MADISHF
BED,2017-04-01 03:55,-71.2890,42.4699,M,M,M,70.00,11.00,0.02,29.95,M,4.00,16.00,OVC,M,M,M,999.00,M,M,M,-FZRA BR,KBED 010355Z AUTO 07011G16KT 4SM -FZRA BR OVC009 A2995 RMK P0002 CIG 7V13  MADISHF
BED,2017-04-01 03:56,-71.2890,42.4699,33.10,30.00,88.23,80.00,12.00,0.02,29.95,1015.70,4.00,M,OVC,M,M,M,1000.00,M,M,M,-FZRA BR,KBED 010356Z AUTO 08012KT 4SM -FZRA BR OVC010 01/M01 A2995 RMK AO2 CIG 008V013 SLP157 P0002 I1000 T00061011 $
BED,2017-04-01 04:00,-71.2890,42.4699,M,M,M,70.00,11.00,M,29.95,M,4.00,M,OVC,M,M,M,999.00,M,M,M,-FZRA BR,KBED 010400Z AUTO 07011KT 4SM -FZRA BR OVC009 A2995 RMK CIG 8V13  MADISHF
BED,2017-04-01 04:05,-71.2890,42.4699,M,M,M,80.00,11.00,M,29.95,M,5.00,M,BKN,OVC,M,M,999.00,1600.00,M,M,-FZRA BR,KBED 010405Z AUTO 08011KT 5SM -FZRA BR BKN009 OVC016 A2995 RMK CIG 8V14  MADISHF
BED,2017-04-01 04:10,-71.2890,42.4699,M,M,M,70.00,11.00,M,29.94,M,5.00,M,OVC,M,M,M,999.00,M,M,M,-FZRA BR,KBED 010410Z AUTO 07011KT 5SM -FZRA BR OVC009 A2994 RMK MADISHF
BED,2017-04-01 04:15,-71.2890,42.4699,M,M,M,70.00,12.00,M,29.94,M,6.00,M,BKN,OVC,M,M,999.00,1600.00,M,M,-FZRA BR,KBED 010415Z AUTO 07012KT 6SM -FZRA BR BKN009 OVC016 A2994 RMK MADISHF
BED,2017-04-01 04:20,-71.2890,42.4699,M,M,M,70.00,11.00,M,29.94,M,6.00,M,OVC,M,M,M,1100.00,M,M,M,-FZRA BR,KBED 010420Z AUTO 07011KT 6SM -FZRA BR OVC011 A2994 RMK MADISHF
BED,2017-04-01 04:25,-71.2890,42.4699,M,M,M,70.00,15.00,M,29.94,M,6.00,M,OVC,M,M,M,1100.00,M,M,M,-FZRA BR,KBED 010425Z AUTO 07015KT 6SM -FZRA BR OVC011 A2994 RMK MADISHF
BED,2017-04-01 04:30,-71.2890,42.4699,M,M,M,80.00,10.00,M,29.94,M,6.00,M,FEW,BKN,OVC,M,800.00,1100.00,1699.00,M,-FZRA BR,KBED 010430Z AUTO 08010KT 6SM -FZRA BR FEW008 BKN011 OVC016 A2994 RMK MADISHF
BED,2017-04-01 04:35,-71.2890,42.4699,M,M,M,70.00,9.00,M,29.93,M,6.00,M,OVC,M,M,M,1100.00,M,M,M,-FZRA BR,KBED 010435Z AUTO 07009KT 6SM -FZRA BR OVC011 A2993 RMK MADISHF
BED,2017-04-01 04:40,-71.2890,42.4699,M,M,M,70.00,9.00,M,29.93,M,6.00,M,OVC,M,M,M,1100.00,M,M,M,-FZRA BR,KBED 010440Z AUTO 07009KT 6SM -FZRA BR OVC011 A2993 RMK MADISHF
BED,2017-04-01 04:45,-71.2890,42.4699,M,M,M,60.00,10.00,M,29.93,M,5.00,M,OVC,M,M,M,900.00,M,M,M,-FZRA BR,KBED 010445Z AUTO 06010KT 5SM -FZRA BR OVC009 A2993 RMK MADISHF
BED,2017-04-01 04:48,-71.2890,42.4699,34.00,30.00,85.11,70.00,9.00,0.00,29.93,M,5.00,M,BKN,OVC,M,M,900.00,1200.00,M,M,-FZRA BR,KBED 010448Z AUTO 07009KT 5SM -FZRA BR BKN009 OVC012 01/M01 A2993 RMK AO2 I1000 T00111011 PNO $
BED,2017-04-01 04:50,-71.2890,42.4699,M,M,M,70.00,9.00,M,29.93,M,6.00,M,BKN,OVC,M,M,900.00,1400.00,M,M,-FZRA BR,KBED 010450Z AUTO 07009KT 6SM -FZRA BR BKN009 OVC014 A2993 RMK MADISHF
BED,2017-04-01 04:55,-71.2890,42.4699,M,M,M,70.00,11.00,M,29.93,M,7.00,M,BKN,OVC,M,M,900.00,1200.00,M,M,-FZRA,KBED 010455Z AUTO 07011KT 7SM -FZRA BKN009 OVC012 A2993 RMK MADISHF
BED,2017-04-01 04:56,-71.2890,42.4699,34.00,30.00,85.11,70.00,9.00,0.00,29.93,1015.00,6.00,M,BKN,OVC,M,M,900.00,1200.00,M,M,-FZRA BR,KBED 010456Z AUTO 07009KT 6SM -FZRA BR BKN009 OVC012 01/M01 A2993 RMK AO2 SLP150 I1000 T00111011 400440006 PNO $
BED,2017-04-01 05:00,-71.2890,42.4699,M,M,M,70.00,9.00,0.01,29.93,M,6.00,M,BKN,OVC,M,M,900.00,1200.00,M,M,-FZRA BR,KBED 010500Z AUTO 07009KT 6SM -FZRA BR BKN009 OVC012 A2993 RMK P0001 MADISHF
BED,2017-04-01 05:05,-71.2890,42.4699,M,M,M,70.00,11.00,0.01,29.92,M,5.00,M,OVC,M,M,M,800.00,M,M,M,-FZRA BR,KBED 010505Z AUTO 07011KT 5SM -FZRA BR OVC008 A2992 RMK P0001 MADISHF
BED,2017-04-01 05:10,-71.2890,42.4699,M,M,M,70.00,12.00,0.02,29.92,M,6.00,M,OVC,M,M,M,800.00,M,M,M,-FZRA BR,KBED 010510Z AUTO 07012KT 6SM -FZRA BR OVC008 A2992 RMK P0002 CIG 6V12  MADISHF
BED,2017-04-01 05:15,-71.2890,42.4699,M,M,M,70.00,13.00,0.03,29.91,M,5.00,M,OVC,M,M,M,800.00,M,M,M,-FZRA BR,KBED 010515Z AUTO 07013KT 5SM -FZRA BR OVC008 A2991 RMK P0003 CIG 6V10  MADISHF
BED,2017-04-01 05:20,-71.2890,42.4699,M,M,M,70.00,13.00,0.03,29.91,M,5.00,M,BKN,OVC,M,M,800.00,1200.00,M,M,-FZRA BR,KBED 010520Z AUTO 07013KT 5SM -FZRA BR BKN008 OVC012 A2991 RMK P0003 CIG 6V11  MADISHF
BED,2017-04-01 05:25,-71.2890,42.4699,M,M,M,70.00,14.00,0.04,29.91,M,5.00,M,BKN,OVC,M,M,800.00,1200.00,M,M,-FZRA BR,KBED 010525Z AUTO 07014KT 5SM -FZRA BR BKN008 OVC012 A2991 RMK P0004 CIG 6V10  MADISHF
BED,2017-04-01 05:30,-71.2890,42.4699,M,M,M,70.00,12.00,0.05,29.91,M,6.00,M,OVC,M,M,M,999.00,M,M,M,-FZRA BR,KBED 010530Z AUTO 07012KT 6SM -FZRA BR OVC009 A2991 RMK P0005 CIG 6V13  MADISHF
BED,2017-04-01 05:33,-71.2890,42.4699,34.00,30.90,88.27,70.00,12.00,0.06,29.91,M,6.00,M,OVC,M,M,M,1000.00,M,M,M,-FZRA BR,KBED 010533Z AUTO 07012KT 6SM -FZRA BR OVC010 01/M01 A2991 RMK AO2 CIG 006V013 P0006 I1000 T00111006 $
BED,2017-04-01 05:35,-71.2890,42.4699,M,M,M,70.00,13.00,0.06,29.91,M,6.00,M,OVC,M,M,M,999.00,M,M,M,-FZRA BR,KBED 010535Z AUTO 07013KT 6SM -FZRA BR OVC009 A2991 RMK P0006 CIG 7V13  MADISHF
BED,2017-04-01 05:40,-71.2890,42.4699,M,M,M,70.00,13.00,0.07,29.90,M,6.00,M,OVC,M,M,M,999.00,M,M,M,-FZRA BR,KBED 010540Z AUTO 07013KT 6SM -FZRA BR OVC009 A2990 RMK P0007 CIG 7V13  MADISHF
BED,2017-04-01 05:45,-71.2890,42.4699,M,M,M,70.00,11.00,0.08,29.90,M,6.00,M,OVC,M,M,M,999.00,M,M,M,-FZRA BR,KBED 010545Z AUTO 07011KT 6SM -FZRA BR OVC009 A2990 RMK P0008 CIG 7V13  MADISHF
BED,2017-04-01 05:50,-71.2890,42.4699,M,M,M,70.00,10.00,0.09,29.90,M,6.00,M,OVC,M,M,M,999.00,M,M,M,-FZRA BR,KBED 010550Z AUTO 07010KT 6SM -FZRA BR OVC009 A2990 RMK P0009 MADISHF
BED,2017-04-01 05:55,-71.2890,42.4699,M,M,M,70.00,10.00,0.10,29.90,M,6.00,M,OVC,M,M,M,999.00,M,M,M,-FZRA BR,KBED 010555Z AUTO 07010KT 6SM -FZRA BR OVC009 A2990 RMK P0010 CIG 8V13  MADISHF
BED,2017-04-01 05:56,-71.2890,42.4699,34.00,30.90,88.27,70.00,11.00,0.10,29.90,1013.90,6.00,M,OVC,M,M,M,1000.00,M,M,M,-FZRA BR,KBED 010556Z AUTO 07011KT 6SM -FZRA BR OVC010 01/M01 A2990 RMK AO2 CIG 008V013 SLP139 P0010 6//// I1000 I6001 T00111006 10011 20006 58027 $
BED,2017-04-01 06:00,-71.2890,42.4699,M,M,M,70.00,12.00,0.01,29.89,M,6.00,17.00,OVC,M,M,M,999.00,M,M,M,-FZRA BR,KBED 010600Z AUTO 07012G17KT 6SM -FZRA BR OVC009 A2989 RMK P0001 CIG 8V13  MADISHF
BED,2017-04-01 06:05,-71.2890,42.4699,M,M,M,70.00,12.00,0.02,29.89,M,6.00,M,OVC,M,M,M,999.00,M,M,M,-FZRA BR,KBED 010605Z AUTO 07012KT 6SM -FZRA BR OVC009 A2989 RMK P0002 CIG 8V13  MADISHF
BED,2017-04-01 06:10,-71.2890,42.4699,M,M,M,60.00,11.00,0.03,29.88,M,6.00,M,OVC,M,M,M,900.00,M,M,M,-FZRA BR,KBED 010610Z AUTO 06011KT 6SM -FZRA BR OVC009 A2988 RMK P0003 CIG 8V13  MADISHF
BED,2017-04-01 06:14,-71.2890,42.4699,35.10,30.90,84.49,70.00,12.00,0.04,29.88,M,6.00,M,OVC,M,M,M,900.00,M,M,M,-FZRA BR,KBED 010614Z AUTO 07012KT 6SM -FZRA BR OVC009 02/M01 A2988 RMK AO2 CIG 008V013 P0004 I1000 T00171006 $
BED,2017-04-01 06:15,-71.2890,42.4699,M,M,M,70.00,13.00,0.04,29.88,M,6.00,M,OVC,M,M,M,900.00,M,M,M,-FZRA BR,KBED 010615Z AUTO 07013KT 6SM -FZRA BR OVC009 A2988 RMK P0004 CIG 8V13  MADISHF
BED,2017-04-01 06:20,-71.2890,42.4699,M,M,M,70.00,13.00,0.05,29.88,M,6.00,M,OVC,M,M,M,900.00,M,M,M,-FZRA BR,KBED 010620Z AUTO 07013KT 6SM -FZRA BR OVC009 A2988 RMK P0005 CIG 8V12  MADISHF
BED,2017-04-01 06:25,-71.2890,42.4699,M,M,M,60.00,12.00,0.06,29.87,M,6.00,M,OVC,M,M,M,900.00,M,M,M,-FZRA BR,KBED 010625Z AUTO 06012KT 6SM -FZRA BR OVC009 A2987 RMK P0006 CIG 8V13  MADISHF
BED,2017-04-01 06:30,-71.2890,42.4699,M,M,M,60.00,12.00,0.07,29.87,M,5.00,M,OVC,M,M,M,900.00,M,M,M,-FZRA BR,KBED 010630Z AUTO 06012KT 5SM -FZRA BR OVC009 A2987 RMK P0007 MADISHF
BED,2017-04-01 06:35,-71.2890,42.4699,M,M,M,60.00,14.00,0.09,29.87,M,5.00,M,OVC,M,M,M,1100.00,M,M,M,-FZRA BR,KBED 010635Z AUTO 06014KT 5SM -FZRA BR OVC011 A2987 RMK P0009 MADISHF
BED,2017-04-01 06:40,-71.2890,42.4699,M,M,M,70.00,13.00,0.10,29.87,M,5.00,M,OVC,M,M,M,1100.00,M,M,M,-FZRA BR,KBED 010640Z AUTO 07013KT 5SM -FZRA BR OVC011 A2987 RMK P0010 MADISHF
BED,2017-04-01 06:41,-71.2890,42.4699,35.10,30.90,84.49,70.00,12.00,0.11,29.87,M,5.00,M,BKN,OVC,M,M,1100.00,1400.00,M,M,-FZRA BR,KBED 010641Z AUTO 07012KT 5SM -FZRA BR BKN011 OVC014 02/M01 A2987 RMK AO2 P0011 I1000 T00171006 $
BED,2017-04-01 06:45,-71.2890,42.4699,M,M,M,60.00,11.00,0.12,29.87,M,4.00,16.00,BKN,OVC,M,M,999.00,1400.00,M,M,-FZRA BR,KBED 010645Z AUTO 06011G16KT 4SM -FZRA BR BKN009 OVC014 A2987 RMK P0012 MADISHF
BED,2017-04-01 06:50,-71.2890,42.4699,M,M,M,60.00,14.00,0.14,29.87,M,4.00,M,OVC,M,M,M,999.00,M,M,M,-FZRA BR,KBED 010650Z AUTO 06014KT 4SM -FZRA BR OVC009 A2987 RMK P0014 MADISHF
BED,2017-04-01 06:55,-71.2890,42.4699,M,M,M,70.00,16.00,0.16,29.86,M,3.50,M,OVC,M,M,M,999.00,M,M,M,-FZRA BR,KBED 010655Z AUTO 07016KT 3SM -FZRA BR OVC009 A2986 RMK P0016 MADISHF
BED,2017-04-01 06:56,-71.2890,42.4699,35.10,30.90,84.49,70.00,14.00,0.17,29.86,1012.80,3.00,21.00,OVC,M,M,M,1000.00,M,M,M,-FZRA BR,KBED 010656Z AUTO 07014G21KT 3SM -FZRA BR OVC010 02/M01 A2986 RMK AO2 SLP128 P0017 I1000 T00171006 $
BED,2017-04-01 07:00,-71.2890,42.4699,M,M,M,70.00,12.00,0.01,29.86,M,3.50,M,OVC,M,M,M,999.00,M,M,M,-FZRA BR,KBED 010700Z AUTO 07012KT 3SM -FZRA BR OVC009 A2986 RMK P0001 MADISHF
BED,2017-04-01 07:05,-71.2890,42.4699,M,M,M,70.00,13.00,0.03,29.85,M,4.00,M,OVC,M,M,M,999.00,M,M,M,-FZRA BR,KBED 010705Z AUTO 07013KT 4SM -FZRA BR OVC009 A2985 RMK P0003 MADISHF
BED,2017-04-01 07:10,-71.2890,42.4699,M,M,M,70.00,13.00,0.05,29.85,M,4.00,M,OVC,M,M,M,999.00,M,M,M,-FZRA BR,KBED 010710Z AUTO 07013KT 4SM -FZRA BR OVC009 A2985 RMK P0005 MADISHF
BED,2017-04-01 07:15,-71.2890,42.4699,M,M,M,50.00,10.00,0.06,29.85,M,4.00,M,OVC,M,M,M,999.00,M,M,M,-FZRA BR,KBED 010715Z AUTO 05010KT 4SM -FZRA BR OVC009 A2985 RMK P0006 MADISHF
BED,2017-04-01 07:20,-71.2890,42.4699,M,M,M,40.00,9.00,0.08,29.85,M,4.00,M,BKN,OVC,M,M,800.00,1300.00,M,M,-FZRA BR,KBED 010720Z AUTO 04009KT 4SM -FZRA BR BKN008 OVC013 A2985 RMK P0008 MADISHF
BED,2017-04-01 07:24,-71.2890,42.4699,34.00,30.90,88.27,50.00,10.00,0.08,29.85,M,4.00,M,BKN,OVC,M,M,800.00,1300.00,M,M,-FZRA BR,KBED 010724Z AUTO 05010KT 4SM -FZRA BR BKN008 OVC013 01/M01 A2985 RMK AO2 P0008 I1000 T00111006 $
BED,2017-04-01 07:25,-71.2890,42.4699,M,M,M,50.00,10.00,0.09,29.85,M,4.00,M,BKN,OVC,M,M,800.00,1300.00,M,M,-FZRA BR,KBED 010725Z AUTO 05010KT 4SM -FZRA BR BKN008 OVC013 A2985 RMK P0009 MADISHF
BED,2017-04-01 07:30,-71.2890,42.4699,M,M,M,50.00,10.00,0.10,29.85,M,3.50,M,BKN,OVC,M,M,800.00,1100.00,M,M,-FZRA BR,KBED 010730Z AUTO 05010KT 3SM -FZRA BR BKN008 OVC011 A2985 RMK P0010 MADISHF
BED,2017-04-01 07:35,-71.2890,42.4699,M,M,M,60.00,10.00,0.11,29.84,M,3.50,M,OVC,M,M,M,800.00,M,M,M,-FZRA BR,KBED 010735Z AUTO 06010KT 3SM -FZRA BR OVC008 A2984 RMK P0011 MADISHF
BED,2017-04-01 07:40,-71.2890,42.4699,M,M,M,50.00,11.00,0.12,29.84,M,3.50,M,OVC,M,M,M,800.00,M,M,M,-FZRA BR,KBED 010740Z AUTO 05011KT 3SM -FZRA BR OVC008 A2984 RMK P0012 MADISHF
BED,2017-04-01 07:45,-71.2890,42.4699,M,M,M,50.00,11.00,0.14,29.84,M,3.00,M,OVC,M,M,M,600.00,M,M,M,-FZRA BR,KBED 010745Z AUTO 05011KT 3SM -FZRA BR OVC006 A2984 RMK P0014 MADISHF
BED,2017-04-01 07:50,-71.2890,42.4699,M,M,M,50.00,10.00,0.16,29.84,M,3.00,M,OVC,M,M,M,600.00,M,M,M,-FZRA BR,KBED 010750Z AUTO 05010KT 3SM -FZRA BR OVC006 A2984 RMK P0016 MADISHF
BED,2017-04-01 07:55,-71.2890,42.4699,M,M,M,40.00,8.00,0.17,29.84,M,3.00,M,OVC,M,M,M,700.00,M,M,M,-FZRA BR,KBED 010755Z AUTO 04008KT 3SM -FZRA BR OVC007 A2984 RMK P0017 MADISHF
BED,2017-04-01 07:56,-71.2890,42.4699,34.00,30.90,88.27,40.00,8.00,0.18,29.84,1012.00,3.00,M,OVC,M,M,M,700.00,M,M,M,-FZRA BR,KBED 010756Z AUTO 04008KT 3SM -FZRA BR OVC007 01/M01 A2984 RMK AO2 SLP120 P0018 I1000 T00111006 $
BED,2017-04-01 08:00,-71.2890,42.4699,M,M,M,50.00,8.00,0.01,29.84,M,3.00,M,BKN,OVC,M,M,700.00,999.00,M,M,-FZRA BR,KBED 010800Z AUTO 05008KT 3SM -FZRA BR BKN007 OVC009 A2984 RMK P0001 MADISHF
BED,2017-04-01 08:05,-71.2890,42.4699,M,M,M,50.00,9.00,0.02,29.83,M,3.00,M,OVC,M,M,M,600.00,M,M,M,-FZRA BR,KBED 010805Z AUTO 05009KT 3SM -FZRA BR OVC006 A2983 RMK P0002 CIG 5V10  MADISHF
BED,2017-04-01 08:10,-71.2890,42.4699,M,M,M,50.00,9.00,0.03,29.83,M,3.50,M,OVC,M,M,M,600.00,M,M,M,-FZRA BR,KBED 010810Z AUTO 05009KT 3SM -FZRA BR OVC006 A2983 RMK P0003 CIG 5V10  MADISHF
BED,2017-04-01 08:15,-71.2890,42.4699,M,M,M,40.00,10.00,0.04,29.82,M,4.00,M,BKN,OVC,M,M,600.00,1100.00,M,M,-FZRA BR,KBED 010815Z AUTO 04010KT 4SM -FZRA BR BKN006 OVC011 A2982 RMK P0004 MADISHF
BED,2017-04-01 08:20,-71.2890,42.4699,M,M,M,50.00,10.00,0.05,29.82,M,4.00,M,BKN,OVC,M,M,600.00,999.00,M,M,-FZRA BR,KBED 010820Z AUTO 05010KT 4SM -FZRA BR BKN006 OVC009 A2982 RMK P0005 CIG 5V9  MADISHF
BED,2017-04-01 08:25,-71.2890,42.4699,M,M,M,50.00,10.00,0.06,29.82,M,4.00,M,OVC,M,M,M,600.00,M,M,M,-FZRA BR,KBED 010825Z AUTO 05010KT 4SM -FZRA BR OVC006 A2982 RMK P0006 CIG 5V9  MADISHF
BED,2017-04-01 08:30,-71.2890,42.4699,M,M,M,40.00,10.00,0.08,29.82,M,4.00,M,OVC,M,M,M,700.00,M,M,M,-FZRA BR,KBED 010830Z AUTO 04010KT 4SM -FZRA BR OVC007 A2982 RMK P0008 MADISHF
BED,2017-04-01 08:35,-71.2890,42.4699,M,M,M,40.00,12.00,0.09,29.81,M,3.50,M,OVC,M,M,M,700.00,M,M,M,-FZRA BR,KBED 010835Z AUTO 04012KT 3SM -FZRA BR OVC007 A2981 RMK P0009 MADISHF
BED,2017-04-01 08:40,-71.2890,42.4699,M,M,M,40.00,13.00,0.10,29.81,M,3.50,M,BKN,OVC,M,M,700.00,1100.00,M,M,-FZRA BR,KBED 010840Z AUTO 04013KT 3SM -FZRA BR BKN007 OVC011 A2981 RMK P0010 MADISHF
BED,2017-04-01 08:45,-71.2890,42.4699,M,M,M,40.00,12.00,0.12,29.82,M,3.50,17.00,BKN,OVC,M,M,700.00,1100.00,M,M,-FZRA BR,KBED 010845Z AUTO 04012G17KT 3SM -FZRA BR BKN007 OVC011 A2982 RMK P0012 MADISHF
BED,2017-04-01 08:50,-71.2890,42.4699,M,M,M,40.00,11.00,0.13,29.81,M,4.00,M,BKN,OVC,M,M,700.00,1100.00,M,M,-FZRA BR,KBED 010850Z AUTO 04011KT 4SM -FZRA BR BKN007 OVC011 A2981 RMK P0013 MADISHF
BED,2017-04-01 08:55,-71.2890,42.4699,M,M,M,50.00,12.00,0.15,29.81,M,5.00,M,OVC,M,M,M,900.00,M,M,M,-FZRA BR,KBED 010855Z AUTO 05012KT 5SM -FZRA BR OVC009 A2981 RMK P0015 MADISHF
BED,2017-04-01 08:56,-71.2890,42.4699,35.10,30.90,84.49,50.00,11.00,0.15,29.81,1011.00,5.00,M,OVC,M,M,M,900.00,M,M,M,-FZRA BR,KBED 010856Z AUTO 05011KT 5SM -FZRA BR OVC009 02/M01 A2981 RMK AO2 SLP110 P0015 60050 I1000 I3000 T00171006 56029 $
BED,2017-04-01 09:00,-71.2890,42.4699,M,M,M,50.00,13.00,0.01,29.81,M,5.00,M,OVC,M,M,M,900.00,M,M,M,-FZRA BR,KBED 010900Z AUTO 05013KT 5SM -FZRA BR OVC009 A2981 RMK P0001 MADISHF
BED,2017-04-01 09:05,-71.2890,42.4699,M,M,M,50.00,10.00,0.03,29.81,M,4.00,M,OVC,M,M,M,900.00,M,M,M,-FZRA BR,KBED 010905Z AUTO 05010KT 4SM -FZRA BR OVC009 A2981 RMK P0003 MADISHF
BED,2017-04-01 09:10,-71.2890,42.4699,M,M,M,60.00,12.00,0.05,29.81,M,5.00,M,OVC,M,M,M,900.00,M,M,M,-FZRA BR,KBED 010910Z AUTO 06012KT 5SM -FZRA BR OVC009 A2981 RMK P0005 MADISHF
BED,2017-04-01 09:15,-71.2890,42.4699,M,M,M,50.00,11.00,0.06,29.81,M,5.00,M,OVC,M,M,M,900.00,M,M,M,-FZRA BR,KBED 010915Z AUTO 05011KT 5SM -FZRA BR OVC009 A2981 RMK P0006 MADISHF
BED,2017-04-01 09:20,-71.2890,42.4699,M,M,M,60.00,11.00,0.08,29.81,M,5.00,M,OVC,M,M,M,900.00,M,M,M,-FZRA BR,KBED 010920Z AUTO 06011KT 5SM -FZRA BR OVC009 A2981 RMK P0008 MADISHF
BED,2017-04-01 09:25,-71.2890,42.4699,M,M,M,50.00,12.00,0.09,29.81,M,5.00,17.00,OVC,M,M,M,900.00,M,M,M,-FZRA BR,KBED 010925Z AUTO 05012G17KT 5SM -FZRA BR OVC009 A2981 RMK P0009 CIG 7V13  MADISHF
BED,2017-04-01 09:30,-71.2890,42.4699,M,M,M,50.00,11.00,0.10,29.81,M,5.00,M,OVC,M,M,M,999.00,M,M,M,-FZRA BR,KBED 010930Z AUTO 05011KT 5SM -FZRA BR OVC009 A2981 RMK P0010 CIG 7V13  MADISHF
BED,2017-04-01 09:32,-71.2890,42.4699,35.10,30.90,84.49,50.00,10.00,0.11,29.81,M,5.00,M,OVC,M,M,M,1000.00,M,M,M,-FZRA BR,KBED 010932Z AUTO 05010KT 5SM -FZRA BR OVC010 02/M01 A2981 RMK AO2 CIG 007V013 P0011 I1000 T00171006 $
BED,2017-04-01 09:35,-71.2890,42.4699,M,M,M,50.00,11.00,0.12,29.81,M,5.00,M,OVC,M,M,M,999.00,M,M,M,-FZRA BR,KBED 010935Z AUTO 05011KT 5SM -FZRA BR OVC009 A2981 RMK P0012 CIG 7V13  MADISHF
BED,2017-04-01 09:40,-71.2890,42.4699,M,M,M,50.00,11.00,0.13,29.81,M,4.00,M,OVC,M,M,M,999.00,M,M,M,-FZRA BR,KBED 010940Z AUTO 05011KT 4SM -FZRA BR OVC009 A2981 RMK P0013 CIG 7V13  MADISHF
BED,2017-04-01 09:45,-71.2890,42.4699,M,M,M,40.00,11.00,0.15,29.81,M,5.00,M,OVC,M,M,M,999.00,M,M,M,-FZRA BR,KBED 010945Z AUTO 04011KT 5SM -FZRA BR OVC009 A2981 RMK P0015 CIG 7V13  MADISHF
BED,2017-04-01 09:50,-71.2890,42.4699,M,M,M,50.00,12.00,0.16,29.81,M,5.00,M,OVC,M,M,M,999.00,M,M,M,-FZRA BR,KBED 010950Z AUTO 05012KT 5SM -FZRA BR OVC009 A2981 RMK P0016 CIG 7V13  MADISHF
BED,2017-04-01 09:55,-71.2890,42.4699,M,M,M,50.00,10.00,0.17,29.81,M,5.00,17.00,OVC,M,M,M,999.00,M,M,M,-FZRA BR,KBED 010955Z AUTO 05010G17KT 5SM -FZRA BR OVC009 A2981 RMK P0017 CIG 7V13  MADISHF
BED,2017-04-01 09:56,-71.2890,42.4699,35.10,32.00,88.33,50.00,13.00,0.17,29.81,1010.90,5.00,M,OVC,M,M,M,1000.00,M,M,M,-FZRA BR,KBED 010956Z AUTO 05013KT 5SM -FZRA BR OVC010 02/00 A2981 RMK AO2 CIG 007V013 SLP109 P0017 I1000 T00170000 $
BED,2017-04-01 10:00,-71.2890,42.4699,M,M,M,50.00,12.00,0.01,29.80,M,5.00,M,OVC,M,M,M,999.00,M,M,M,-FZRA BR,KBED 011000Z AUTO 05012KT 5SM -FZRA BR OVC009 A2980 RMK P0001 CIG 8V13  MADISHF
BED,2017-04-01 10:05,-71.2890,42.4699,M,M,M,40.00,11.00,0.02,29.80,M,5.00,M,BKN,OVC,M,M,999.00,1500.00,M,M,-FZRA BR,KBED 011005Z AUTO 04011KT 5SM -FZRA BR BKN009 OVC015 A2980 RMK P0002 MADISHF
BED,2017-04-01 10:10,-71.2890,42.4699,M,M,M,50.00,14.00,0.03,29.80,M,5.00,M,OVC,M,M,M,999.00,M,M,M,-FZRA BR,KBED 011010Z AUTO 05014KT 5SM -FZRA BR OVC009 A2980 RMK P0003 MADISHF
BED,2017-04-01 10:15,-71.2890,42.4699,M,M,M,50.00,13.00,0.04,29.80,M,6.00,M,OVC,M,M,M,999.00,M,M,M,-FZRA BR,KBED 011015Z AUTO 05013KT 6SM -FZRA BR OVC009 A2980 RMK P0004 MADISHF
BED,2017-04-01 10:20,-71.2890,42.4699,M,M,M,50.00,14.00,0.05,29.80,M,6.00,M,BKN,OVC,M,M,999.00,1600.00,M,M,-FZRA BR,KBED 011020Z AUTO 05014KT 6SM -FZRA BR BKN009 OVC016 A2980 RMK P0005 MADISHF
BED,2017-04-01 10:25,-71.2890,42.4699,M,M,M,50.00,14.00,0.06,29.80,M,6.00,M,BKN,OVC,M,M,999.00,1600.00,M,M,-FZRA BR,KBED 011025Z AUTO 05014KT 6SM -FZRA BR BKN009 OVC016 A2980 RMK P0006 MADISHF
BED,2017-04-01 10:30,-71.2890,42.4699,M,M,M,40.00,15.00,0.08,29.80,M,5.00,M,BKN,OVC,M,M,999.00,1500.00,M,M,-FZRA BR,KBED 011030Z AUTO 04015KT 5SM -FZRA BR BKN009 OVC015 A2980 RMK P0008 MADISHF
BED,2017-04-01 10:35,-71.2890,42.4699,M,M,M,40.00,13.00,0.09,29.80,M,5.00,M,OVC,M,M,M,1200.00,M,M,M,-FZRA BR,KBED 011035Z AUTO 04013KT 5SM -FZRA BR OVC012 A2980 RMK P0009 MADISHF
BED,2017-04-01 10:40,-71.2890,42.4699,M,M,M,50.00,13.00,0.10,29.80,M,5.00,M,BKN,OVC,M,M,999.00,1500.00,M,M,-RA BR,KBED 011040Z AUTO 05013KT 5SM -RA BR BKN009 OVC015 A2980 RMK P0010 MADISHF
BED,2017-04-01 10:45,-71.2890,42.4699,M,M,M,50.00,15.00,0.11,29.80,M,5.00,20.00,OVC,M,M,M,999.00,M,M,M,-RA BR,KBED 011045Z AUTO 05015G20KT 5SM -RA BR OVC009 A2980 RMK P0011 MADISHF
BED,2017-04-01 10:46,-71.2890,42.4699,36.00,32.00,85.23,50.00,15.00,0.11,29.80,M,5.00,21.00,BKN,OVC,M,M,1000.00,1400.00,M,M,-RA BR,KBED 011046Z 05015G21KT 5SM -RA BR BKN010 OVC014 02/00 A2980 RMK AO2 RAB40FZRAE40 P0011 I1000 T00220000 $
BED,2017-04-01 10:50,-71.2890,42.4699,M,M,M,50.00,13.00,0.12,29.80,M,5.00,19.00,OVC,M,M,M,1200.00,M,M,M,-RA BR,KBED 011050Z AUTO 05013G19KT 5SM -RA BR OVC012 A2980 RMK P0012 MADISHF
BED,2017-04-01 10:55,-71.2890,42.4699,M,M,M,40.00,15.00,0.13,29.79,M,3.00,M,OVC,M,M,M,1200.00,M,M,M,-RA BR,KBED 011055Z AUTO 04015KT 3SM -RA BR OVC012 A2979 RMK P0013 MADISHF
BED,2017-04-01 10:56,-71.2890,42.4699,36.00,32.00,85.23,40.00,15.00,0.13,29.79,1010.50,3.00,M,BKN,OVC,M,M,1200.00,1600.00,M,M,-RA BR,KBED 011056Z 04015KT 3SM -RA BR BKN012 OVC016 02/00 A2979 RMK AO2 RAB40FZRAE40 SLP105 P0013 I1000 T00220000 $
BED,2017-04-01 11:00,-71.2890,42.4699,M,M,M,40.00,15.00,0.01,29.79,M,5.00,M,OVC,M,M,M,999.00,M,M,M,-RA BR,KBED 011100Z AUTO 04015KT 5SM -RA BR OVC009 A2979 RMK P0001 MADISHF
BED,2017-04-01 11:05,-71.2890,42.4699,M,M,M,40.00,11.00,0.02,29.80,M,5.00,M,OVC,M,M,M,999.00,M,M,M,-RA BR,KBED 011105Z AUTO 04011KT 5SM -RA BR OVC009 A2980 RMK P0002 MADISHF
BED,2017-04-01 11:10,-71.2890,42.4699,M,M,M,40.00,11.00,0.03,29.80,M,4.00,M,OVC,M,M,M,999.00,M,M,M,-RA BR,KBED 011110Z AUTO 04011KT 4SM -RA BR OVC009 A2980 RMK P0003 MADISHF
BED,2017-04-01 11:15,-71.2890,42.4699,M,M,M,40.00,12.00,0.04,29.80,M,4.00,M,OVC,M,M,M,999.00,M,M,M,-RA BR,KBED 011115Z AUTO 04012KT 4SM -RA BR OVC009 A2980 RMK P0004 MADISHF
BED,2017-04-01 11:20,-71.2890,42.4699,M,M,M,40.00,11.00,0.05,29.80,M,4.00,M,OVC,M,M,M,999.00,M,M,M,-RA BR,KBED 011120Z AUTO 04011KT 4SM -RA BR OVC009 A2980 RMK P0005 MADISHF
BED,2017-04-01 11:25,-71.2890,42.4699,M,M,M,40.00,14.00,0.07,29.79,M,4.00,M,OVC,M,M,M,999.00,M,M,M,-RA BR,KBED 011125Z AUTO 04014KT 4SM -RA BR OVC009 A2979 RMK P0007 MADISHF
BED,2017-04-01 11:30,-71.2890,42.4699,M,M,M,40.00,13.00,0.08,29.79,M,4.00,M,OVC,M,M,M,999.00,M,M,M,-RA BR,KBED 011130Z AUTO 04013KT 4SM -RA BR OVC009 A2979 RMK P0008 MADISHF
BED,2017-04-01 11:35,-71.2890,42.4699,M,M,M,30.00,15.00,0.09,29.79,M,4.00,M,OVC,M,M,M,999.00,M,M,M,RA BR,KBED 011135Z AUTO 03015KT 4SM RA BR OVC009 A2979 RMK P0009 MADISHF
BED,2017-04-01 11:40,-71.2890,42.4699,M,M,M,40.00,15.00,0.11,29.79,M,4.00,M,OVC,M,M,M,999.00,M,M,M,-RA BR,KBED 011140Z AUTO 04015KT 4SM -RA BR OVC009 A2979 RMK P0011 MADISHF
BED,2017-04-01 11:45,-71.2890,42.4699,M,M,M,40.00,13.00,0.12,29.79,M,5.00,18.00,OVC,M,M,M,999.00,M,M,M,-RA BR,KBED 011145Z AUTO 04013G18KT 5SM -RA BR OVC009 A2979 RMK P0012 MADISHF
BED,2017-04-01 11:50,-71.2890,42.4699,M,M,M,40.00,16.00,0.13,29.79,M,5.00,M,OVC,M,M,M,999.00,M,M,M,-RA BR,KBED 011150Z AUTO 04016KT 5SM -RA BR OVC009 A2979 RMK P0013 MADISHF
BED,2017-04-01 11:55,-71.2890,42.4699,M,M,M,40.00,15.00,0.14,29.79,M,4.00,20.00,OVC,M,M,M,999.00,M,M,M,-RA BR,KBED 011155Z AUTO 04015G20KT 4SM -RA BR OVC009 A2979 RMK P0014 MADISHF
BED,2017-04-01 11:56,-71.2890,42.4699,36.00,32.00,85.23,40.00,13.00,0.14,29.79,1010.40,4.00,M,OVC,M,M,M,1000.00,M,M,M,-RA BR,KBED 011156Z 04013KT 4SM -RA BR OVC010 02/00 A2979 RMK AO2 SLP104 P0014 60094 7//// I6000 T00220000 10022 20011 56005 $
BED,2017-04-01 12:00,-71.2890,42.4699,M,M,M,40.00,13.00,0.01,29.79,M,5.00,M,OVC,M,M,M,1100.00,M,M,M,-RA BR,KBED 011200Z AUTO 04013KT 5SM -RA BR OVC011 A2979 RMK P0001 MADISHF
BED,2017-04-01 12:05,-71.2890,42.4699,M,M,M,40.00,13.00,0.02,29.80,M,5.00,M,OVC,M,M,M,1100.00,M,M,M,-RA BR,KBED 011205Z AUTO 04013KT 5SM -RA BR OVC011 A2980 RMK P0002 MADISHF
BED,2017-04-01 12:10,-71.2890,42.4699,M,M,M,50.00,12.00,0.04,29.80,M,4.00,M,OVC,M,M,M,999.00,M,M,M,-RA BR,KBED 011210Z AUTO 05012KT 4SM -RA BR OVC009 A2980 RMK P0004 MADISHF
BED,2017-04-01 12:15,-71.2890,42.4699,M,M,M,40.00,14.00,0.05,29.80,M,4.00,M,OVC,M,M,M,999.00,M,M,M,RA BR,KBED 011215Z AUTO 04014KT 4SM RA BR OVC009 A2980 RMK P0005 MADISHF
BED,2017-04-01 12:20,-71.2890,42.4699,M,M,M,40.00,13.00,0.06,29.80,M,4.00,M,OVC,M,M,M,999.00,M,M,M,RA BR,KBED 011220Z AUTO 04013KT 4SM RA BR OVC009 A2980 RMK P0006 MADISHF
BED,2017-04-01 12:25,-71.2890,42.4699,M,M,M,40.00,13.00,0.08,29.80,M,4.00,18.00,OVC,M,M,M,999.00,M,M,M,RA BR,KBED 011225Z AUTO 04013G18KT 4SM RA BR OVC009 A2980 RMK P0008 MADISHF
BED,2017-04-01 12:30,-71.2890,42.4699,M,M,M,50.00,13.00,0.09,29.81,M,5.00,M,OVC,M,M,M,999.00,M,M,M,RA BR,KBED 011230Z AUTO 05013KT 5SM RA BR OVC009 A2981 RMK P0009 MADISHF
BED,2017-04-01 12:35,-71.2890,42.4699,M,M,M,40.00,14.00,0.10,29.81,M,5.00,M,OVC,M,M,M,999.00,M,M,M,RA BR,KBED 011235Z AUTO 04014KT 5SM RA BR OVC009 A2981 RMK P0010 MADISHF
BED,2017-04-01 12:40,-71.2890,42.4699,M,M,M,50.00,13.00,0.11,29.81,M,5.00,M,OVC,M,M,M,999.00,M,M,M,RA BR,KBED 011240Z AUTO 05013KT 5SM RA BR OVC009 A2981 RMK P0011 MADISHF
BED,2017-04-01 12:45,-71.2890,42.4699,M,M,M,40.00,11.00,0.12,29.81,M,5.00,M,OVC,M,M,M,999.00,M,M,M,RA BR,KBED 011245Z AUTO 04011KT 5SM RA BR OVC009 A2981 RMK P0012 MADISHF
BED,2017-04-01 12:50,-71.2890,42.4699,M,M,M,40.00,12.00,0.13,29.81,M,2.00,M,OVC,M,M,M,800.00,M,M,M,RA BR,KBED 011250Z AUTO 04012KT 2SM RA BR OVC008 A2981 RMK P0013 MADISHF
BED,2017-04-01 12:52,-71.2890,42.4699,35.60,32.00,86.59,40.00,12.00,0.00,29.81,M,2.00,21.00,OVC,M,M,M,800.00,M,M,M,RA BR,KBED 011252Z 04012G21KT 2SM RA BR OVC008 02/00 A2981
BED,2017-04-01 12:55,-71.2890,42.4699,M,M,M,40.00,11.00,0.14,29.81,M,2.00,M,OVC,M,M,M,800.00,M,M,M,RA BR,KBED 011255Z AUTO 04011KT 2SM RA BR OVC008 A2981 RMK P0014 MADISHF
BED,2017-04-01 12:56,-71.2890,42.4699,35.10,32.00,88.33,40.00,12.00,0.14,29.81,1010.90,2.00,21.00,OVC,M,M,M,800.00,M,M,M,RA BR,KBED 011256Z 04012G21KT 2SM RA BR OVC008 02/00 A2981 RMK AO2 SLP109 P0014 T00170000 $
BED,2017-04-01 13:00,-71.2890,42.4699,M,M,M,40.00,13.00,0.01,29.81,M,2.00,M,OVC,M,M,M,800.00,M,M,M,RA BR,KBED 011300Z AUTO 04013KT 2SM RA BR OVC008 A2981 RMK P0001 MADISHF
BED,2017-04-01 13:05,-71.2890,42.4699,M,M,M,40.00,13.00,0.02,29.81,M,2.00,M,OVC,M,M,M,800.00,M,M,M,RA BR,KBED 011305Z AUTO 04013KT 2SM RA BR OVC008 A2981 RMK P0002 MADISHF
BED,2017-04-01 13:10,-71.2890,42.4699,M,M,M,40.00,12.00,0.02,29.81,M,2.00,M,OVC,M,M,M,800.00,M,M,M,-RA BR,KBED 011310Z AUTO 04012KT 2SM -RA BR OVC008 A2981 RMK P0002 MADISHF
BED,2017-04-01 13:15,-71.2890,42.4699,M,M,M,40.00,11.00,0.03,29.82,M,2.00,M,OVC,M,M,M,800.00,M,M,M,-RA BR,KBED 011315Z AUTO 04011KT 2SM -RA BR OVC008 A2982 RMK P0003 MADISHF
BED,2017-04-01 13:20,-71.2890,42.4699,M,M,M,40.00,11.00,0.04,29.82,M,2.00,M,OVC,M,M,M,800.00,M,M,M,-SN BR,KBED 011320Z AUTO 04011KT 2SM -SN BR OVC008 A2982 RMK P0004 MADISHF
BED,2017-04-01 13:25,-71.2890,42.4699,M,M,M,40.00,11.00,0.05,29.82,M,2.00,M,OVC,M,M,M,800.00,M,M,M,-SN BR,KBED 011325Z AUTO 04011KT 2SM -SN BR OVC008 A2982 RMK P0005 MADISHF
BED,2017-04-01 13:30,-71.2890,42.4699,M,M,M,30.00,13.00,0.06,29.82,M,2.00,M,OVC,M,M,M,800.00,M,M,M,-SN BR,KBED 011330Z AUTO 03013KT 2SM -SN BR OVC008 A2982 RMK P0006 MADISHF
BED,2017-04-01 13:35,-71.2890,42.4699,M,M,M,30.00,13.00,0.08,29.82,M,2.00,M,OVC,M,M,M,800.00,M,M,M,-SN BR,KBED 011335Z AUTO 03013KT 2SM -SN BR OVC008 A2982 RMK P0008 MADISHF
BED,2017-04-01 13:40,-71.2890,42.4699,M,M,M,30.00,16.00,0.09,29.82,M,2.00,M,OVC,M,M,M,800.00,M,M,M,-SN BR,KBED 011340Z AUTO 03016KT 2SM -SN BR OVC008 A2982 RMK P0009 MADISHF
BED,2017-04-01 13:45,-71.2890,42.4699,M,M,M,30.00,9.00,0.10,29.82,M,2.00,M,OVC,M,M,M,800.00,M,M,M,-SN BR,KBED 011345Z AUTO 03009KT 2SM -SN BR OVC008 A2982 RMK P0010 MADISHF
BED,2017-04-01 13:50,-71.2890,42.4699,M,M,M,30.00,9.00,0.11,29.83,M,2.00,M,OVC,M,M,M,800.00,M,M,M,-SN BR,KBED 011350Z AUTO 03009KT 2SM -SN BR OVC008 A2983 RMK P0011 MADISHF
BED,2017-04-01 13:55,-71.2890,42.4699,M,M,M,20.00,9.00,0.11,29.83,M,1.75,M,OVC,M,M,M,800.00,M,M,M,-SN BR,KBED 011355Z AUTO 02009KT 2SM -SN BR OVC008 A2983 RMK P0011 MADISHF
BED,2017-04-01 13:56,-71.2890,42.4699,34.00,30.90,88.27,20.00,9.00,0.11,29.83,1011.60,1.75,M,OVC,M,M,M,800.00,M,M,M,-SN BR,KBED 011356Z 02009KT 1 3/4SM -SN BR OVC008 01/M01 A2983 RMK AO2 RAE16SNB16 SLP116 P0011 T00111006 $
BED,2017-04-01 14:00,-71.2890,42.4699,M,M,M,20.00,9.00,0.01,29.83,M,1.50,M,OVC,M,M,M,800.00,M,M,M,-SN BR,KBED 011400Z AUTO 02009KT 1 1/2SM -SN BR OVC008 A2983 RMK P0001 MADISHF
BED,2017-04-01 14:05,-71.2890,42.4699,M,M,M,10.00,10.00,0.01,29.83,M,1.25,M,OVC,M,M,M,800.00,M,M,M,-SN BR,KBED 011405Z AUTO 01010KT 1 1/2SM -SN BR OVC008 A2983 RMK P0001 MADISHF
BED,2017-04-01 14:10,-71.2890,42.4699,M,M,M,10.00,12.00,0.02,29.83,M,1.00,M,OVC,M,M,M,800.00,M,M,M,-SN BR,KBED 011410Z AUTO 01012KT 1SM -SN BR OVC008 A2983 RMK P0002 MADISHF
BED,2017-04-01 14:15,-71.2890,42.4699,M,M,M,20.00,11.00,0.02,29.83,M,0.75,M,OVC,M,M,M,800.00,M,M,M,-SN BR,KBED 011415Z AUTO 02011KT 1SM -SN BR OVC008 A2983 RMK P0002 MADISHF
BED,2017-04-01 14:18,-71.2890,42.4699,33.10,30.00,88.23,20.00,10.00,0.02,29.83,M,0.75,M,OVC,M,M,M,800.00,M,M,M,-SN BR,KBED 011418Z 02010KT 3/4SM R11/3500V5000FT -SN BR OVC008 01/M01 A2983 RMK AO2 P0002 T00061011 $
BED,2017-04-01 14:20,-71.2890,42.4699,M,M,M,20.00,12.00,0.03,29.83,M,0.75,M,OVC,M,M,M,800.00,M,M,M,-SN BR,KBED 011420Z AUTO 02012KT 1SM -SN BR OVC008 A2983 RMK P0003 MADISHF
BED,2017-04-01 14:25,-71.2890,42.4699,M,M,M,20.00,10.00,0.03,29.83,M,0.75,M,OVC,M,M,M,800.00,M,M,M,-SN BR,KBED 011425Z AUTO 02010KT 1SM -SN BR OVC008 A2983 RMK P0003 MADISHF
BED,2017-04-01 14:30,-71.2890,42.4699,M,M,M,20.00,10.00,0.03,29.83,M,0.75,M,OVC,M,M,M,800.00,M,M,M,-SN BR,KBED 011430Z AUTO 02010KT 1SM -SN BR OVC008 A2983 RMK P0003 MADISHF
BED,2017-04-01 14:35,-71.2890,42.4699,M,M,M,20.00,12.00,0.04,29.83,M,0.75,M,OVC,M,M,M,800.00,M,M,M,-SN BR,KBED 011435Z AUTO 02012KT 1SM -SN BR OVC008 A2983 RMK P0004 MADISHF
BED,2017-04-01 14:40,-71.2890,42.4699,M,M,M,20.00,10.00,0.04,29.84,M,0.75,M,OVC,M,M,M,800.00,M,M,M,-SN BR,KBED 011440Z AUTO 02010KT 1SM -SN BR OVC008 A2984 RMK P0004 MADISHF
BED,2017-04-01 14:45,-71.2890,42.4699,M,M,M,20.00,13.00,0.05,29.84,M,0.75,M,OVC,M,M,M,800.00,M,M,M,-SN BR,KBED 011445Z AUTO 02013KT 1SM -SN BR OVC008 A2984 RMK P0005 MADISHF
BED,2017-04-01 14:50,-71.2890,42.4699,M,M,M,20.00,13.00,0.05,29.84,M,0.75,M,OVC,M,M,M,800.00,M,M,M,-SN BR,KBED 011450Z AUTO 02013KT 1SM -SN BR OVC008 A2984 RMK P0005 MADISHF
BED,2017-04-01 14:55,-71.2890,42.4699,M,M,M,30.00,13.00,0.06,29.84,M,1.00,19.00,OVC,M,M,M,800.00,M,M,M,-SN BR,KBED 011455Z AUTO 03013G19KT 1SM -SN BR OVC008 A2984 RMK P0006 MADISHF
BED,2017-04-01 14:56,-71.2890,42.4699,33.10,30.00,88.23,30.00,15.00,0.06,29.84,1011.90,1.00,20.00,OVC,M,M,M,800.00,M,M,M,-SN BR,KBED 011456Z 03015G20KT 1SM R11/4000V5500FT -SN BR OVC008 01/M01 A2984 RMK AO2 SLP119 P0006 60031 T00061011 53010 $
BED,2017-04-01 15:00,-71.2890,42.4699,M,M,M,20.00,12.00,0.01,29.84,M,1.00,M,BKN,OVC,M,M,800.00,1400.00,M,M,-SN BR,KBED 011500Z AUTO 02012KT 1SM -SN BR BKN008 OVC014 A2984 RMK P0001 MADISHF
BED,2017-04-01 15:05,-71.2890,42.4699,M,M,M,30.00,13.00,0.01,29.84,M,1.00,M,BKN,OVC,M,M,800.00,1400.00,M,M,-SN BR,KBED 011505Z AUTO 03013KT 1SM -SN BR BKN008 OVC014 A2984 RMK P0001 MADISHF
BED,2017-04-01 15:10,-71.2890,42.4699,M,M,M,20.00,13.00,0.02,29.84,M,1.00,M,BKN,OVC,M,M,800.00,1400.00,M,M,-SN BR,KBED 011510Z AUTO 02013KT 1SM -SN BR BKN008 OVC014 A2984 RMK P0002 MADISHF
BED,2017-04-01 15:15,-71.2890,42.4699,M,M,M,20.00,13.00,0.02,29.84,M,1.25,M,BKN,OVC,M,M,800.00,1400.00,M,M,-SN BR,KBED 011515Z AUTO 02013KT 1 1/2SM -SN BR BKN008 OVC014 A2984 RMK P0002 MADISHF
BED,2017-04-01 15:20,-71.2890,42.4699,M,M,M,20.00,12.00,0.03,29.84,M,1.25,M,BKN,OVC,M,M,800.00,1400.00,M,M,-SN BR,KBED 011520Z AUTO 02012KT 1 1/2SM -SN BR BKN008 OVC014 A2984 RMK P0003 MADISHF
BED,2017-04-01 15:25,-71.2890,42.4699,M,M,M,20.00,12.00,0.03,29.84,M,1.00,M,OVC,M,M,M,600.00,M,M,M,-SN BR,KBED 011525Z AUTO 02012KT 1SM -SN BR OVC006 A2984 RMK P0003 MADISHF
BED,2017-04-01 15:30,-71.2890,42.4699,M,M,M,20.00,13.00,0.04,29.83,M,1.00,M,OVC,M,M,M,600.00,M,M,M,-SN BR,KBED 011530Z AUTO 02013KT 1SM -SN BR OVC006 A2983 RMK P0004 MADISHF
BED,2017-04-01 15:35,-71.2890,42.4699,M,M,M,20.00,14.00,0.05,29.83,M,1.00,M,OVC,M,M,M,600.00,M,M,M,-SN BR,KBED 011535Z AUTO 02014KT 1SM -SN BR OVC006 A2983 RMK P0005 MADISHF
BED,2017-04-01 15:40,-71.2890,42.4699,M,M,M,20.00,12.00,0.05,29.83,M,1.00,17.00,OVC,M,M,M,600.00,M,M,M,-SN BR,KBED 011540Z AUTO 02012G17KT 1SM -SN BR OVC006 A2983 RMK P0005 MADISHF
BED,2017-04-01 15:45,-71.2890,42.4699,M,M,M,20.00,15.00,0.06,29.83,M,1.00,M,OVC,M,M,M,600.00,M,M,M,-SN BR,KBED 011545Z AUTO 02015KT 1SM -SN BR OVC006 A2983 RMK P0006 MADISHF
BED,2017-04-01 15:50,-71.2890,42.4699,M,M,M,20.00,15.00,0.06,29.83,M,1.00,M,VV ,M,M,M,999.00,M,M,M,-SN BR,KBED 011550Z AUTO 02015KT 1SM -SN BR VV009 A2983 RMK P0006 MADISHF
BED,2017-04-01 15:52,-71.2890,42.4699,33.80,30.20,86.49,20.00,16.00,0.06,29.84,M,1.00,22.00,VV ,M,M,M,1000.00,M,M,M,-SN BR,KBED 011552Z 02016G22KT 1SM R11/4500VP6000FT -SN BR VV010 01/M01 A2984 RMK AO2 P0006 $
BED,2017-04-01 15:55,-71.2890,42.4699,M,M,M,20.00,11.00,0.07,29.83,M,1.00,M,VV ,M,M,M,999.00,M,M,M,-SN BR,KBED 011555Z AUTO 02011KT 1SM -SN BR VV009 A2983 RMK P0007 MADISHF
BED,2017-04-01 15:56,-71.2890,42.4699,34.00,30.00,85.11,20.00,12.00,0.07,29.83,1011.80,1.00,22.00,VV ,M,M,M,1000.00,M,M,M,-SN BR,KBED 011556Z 02012G22KT 1SM R11/4000V6000FT -SN BR VV010 01/M01 A2983 RMK AO2 SLP118 P0007 T00111011 $
BED,2017-04-01 16:00,-71.2890,42.4699,M,M,M,20.00,15.00,M,29.83,M,1.00,M,VV ,M,M,M,999.00,M,M,M,-SN BR,KBED 011600Z AUTO 02015KT 1SM -SN BR VV009 A2983 RMK MADISHF
BED,2017-04-01 16:05,-71.2890,42.4699,M,M,M,20.00,14.00,0.01,29.83,M,1.00,M,VV ,M,M,M,999.00,M,M,M,-SN BR,KBED 011605Z AUTO 02014KT 1SM -SN BR VV009 A2983 RMK P0001 MADISHF
BED,2017-04-01 16:10,-71.2890,42.4699,M,M,M,30.00,14.00,0.01,29.83,M,1.00,M,VV ,M,M,M,999.00,M,M,M,-SN BR,KBED 011610Z AUTO 03014KT 1SM -SN BR VV009 A2983 RMK P0001 MADISHF
BED,2017-04-01 16:15,-71.2890,42.4699,M,M,M,20.00,13.00,0.01,29.84,M,1.00,M,VV ,M,M,M,999.00,M,M,M,-SN BR,KBED 011615Z AUTO 02013KT 1SM -SN BR VV009 A2984 RMK P0001 MADISHF
BED,2017-04-01 16:20,-71.2890,42.4699,M,M,M,30.00,14.00,0.02,29.84,M,1.00,M,VV ,M,M,M,999.00,M,M,M,-SN BR,KBED 011620Z AUTO 03014KT 1SM -SN BR VV009 A2984 RMK P0002 MADISHF
BED,2017-04-01 16:25,-71.2890,42.4699,M,M,M,20.00,13.00,0.02,29.84,M,1.00,M,VV ,M,M,M,999.00,M,M,M,-SN BR,KBED 011625Z AUTO 02013KT 1SM -SN BR VV009 A2984 RMK P0002 MADISHF
BED,2017-04-01 16:30,-71.2890,42.4699,M,M,M,20.00,13.00,0.02,29.84,M,1.00,M,VV ,M,M,M,999.00,M,M,M,-SN BR,KBED 011630Z AUTO 02013KT 1SM -SN BR VV009 A2984 RMK P0002 MADISHF
BED,2017-04-01 16:35,-71.2890,42.4699,M,M,M,30.00,12.00,0.03,29.84,M,1.00,M,VV ,M,M,M,300.00,M,M,M,-SN BR,KBED 011635Z AUTO 03012KT 1SM -SN BR VV003 A2984 RMK P0003 MADISHF
BED,2017-04-01 16:39,-71.2890,42.4699,33.10,30.00,88.23,10.00,13.00,0.03,29.84,M,1.00,M,VV ,M,M,M,300.00,M,M,M,-SN BR,KBED 011639Z 01013KT 1SM R11/3000V4500FT -SN BR VV003 01/M01 A2984 RMK AO2 P0003 T00061011
BED,2017-04-01 16:40,-71.2890,42.4699,M,M,M,10.00,12.00,0.03,29.84,M,1.00,M,VV ,M,M,M,300.00,M,M,M,-SN BR,KBED 011640Z AUTO 01012KT 1SM -SN BR VV003 A2984 RMK P0003 MADISHF
BED,2017-04-01 16:45,-71.2890,42.4699,M,M,M,10.00,15.00,0.04,29.84,M,1.00,M,VV ,M,M,M,300.00,M,M,M,-SN BR,KBED 011645Z AUTO 01015KT 1SM -SN BR VV003 A2984 RMK P0004 MADISHF
BED,2017-04-01 16:50,-71.2890,42.4699,M,M,M,20.00,14.00,0.05,29.84,M,1.00,M,VV ,M,M,M,300.00,M,M,M,-SN BR,KBED 011650Z AUTO 02014KT 1SM -SN BR VV003 A2984 RMK P0005 MADISHF
BED,2017-04-01 16:55,-71.2890,42.4699,M,M,M,10.00,12.00,0.05,29.84,M,1.00,M,VV ,M,M,M,499.00,M,M,M,-SN BR,KBED 011655Z AUTO 01012KT 1SM -SN BR VV004 A2984 RMK P0005 MADISHF
BED,2017-04-01 16:56,-71.2890,42.4699,34.00,30.00,85.11,10.00,12.00,0.05,29.84,1011.80,1.00,M,VV ,M,M,M,500.00,M,M,M,-SN BR,KBED 011656Z 01012KT 1SM R11/3000V4000FT -SN BR VV005 01/M01 A2984 RMK AO2 SLP118 P0005 T00111011
BED,2017-04-01 17:00,-71.2890,42.4699,M,M,M,20.00,13.00,0.01,29.83,M,0.50,M,SCT,OVC,M,M,800.00,1200.00,M,M,SN FG,KBED 011700Z AUTO 02013KT 1/2SM SN FG SCT008 OVC012 A2983 RMK P0001 MADISHF
BED,2017-04-01 17:05,-71.2890,42.4699,M,M,M,10.00,10.00,0.01,29.83,M,1.00,M,VV ,M,M,M,499.00,M,M,M,-SN BR,KBED 011705Z AUTO 01010KT 1SM -SN BR VV004 A2983 RMK P0001 MADISHF
BED,2017-04-01 17:10,-71.2890,42.4699,M,M,M,10.00,11.00,0.02,29.84,M,1.00,M,VV ,M,M,M,499.00,M,M,M,-SN BR,KBED 011710Z AUTO 01011KT 1SM -SN BR VV004 A2984 RMK P0002 MADISHF
BED,2017-04-01 17:15,-71.2890,42.4699,M,M,M,20.00,13.00,0.03,29.84,M,1.00,M,VV ,M,M,M,499.00,M,M,M,-SN BR,KBED 011715Z AUTO 02013KT 1SM -SN BR VV004 A2984 RMK P0003 MADISHF
BED,2017-04-01 17:20,-71.2890,42.4699,M,M,M,10.00,12.00,0.03,29.84,M,1.00,M,VV ,M,M,M,499.00,M,M,M,-SN BR,KBED 011720Z AUTO 01012KT 1SM -SN BR VV004 A2984 RMK P0003 MADISHF
BED,2017-04-01 17:25,-71.2890,42.4699,M,M,M,10.00,13.00,0.04,29.84,M,1.00,M,VV ,M,M,M,499.00,M,M,M,-SN BR,KBED 011725Z AUTO 01013KT 1SM -SN BR VV004 A2984 RMK P0004 MADISHF
BED,2017-04-01 17:30,-71.2890,42.4699,M,M,M,20.00,15.00,0.05,29.84,M,1.00,M,VV ,M,M,M,499.00,M,M,M,-SN BR,KBED 011730Z AUTO 02015KT 1SM -SN BR VV004 A2984 RMK P0005 MADISHF
BED,2017-04-01 17:35,-71.2890,42.4699,M,M,M,20.00,15.00,0.05,29.84,M,1.00,M,VV ,M,M,M,499.00,M,M,M,-SN BR,KBED 011735Z AUTO 02015KT 1SM -SN BR VV004 A2984 RMK P0005 MADISHF
BED,2017-04-01 17:40,-71.2890,42.4699,M,M,M,20.00,12.00,0.06,29.84,M,1.00,M,VV ,M,M,M,499.00,M,M,M,-SN BR,KBED 011740Z AUTO 02012KT 1SM -SN BR VV004 A2984 RMK P0006 MADISHF
BED,2017-04-01 17:45,-71.2890,42.4699,M,M,M,30.00,16.00,0.07,29.84,M,1.00,M,VV ,M,M,M,499.00,M,M,M,-SN BR,KBED 011745Z AUTO 03016KT 1SM -SN BR VV004 A2984 RMK P0007 MADISHF
BED,2017-04-01 17:50,-71.2890,42.4699,M,M,M,20.00,14.00,0.08,29.84,M,0.75,M,VV ,M,M,M,499.00,M,M,M,-SN BR,KBED 011750Z AUTO 02014KT 1SM -SN BR VV004 A2984 RMK P0008 MADISHF
BED,2017-04-01 17:55,-71.2890,42.4699,M,M,M,20.00,15.00,0.08,29.83,M,0.75,M,VV ,M,M,M,499.00,M,M,M,-SN BR,KBED 011755Z AUTO 02015KT 1SM -SN BR VV004 A2983 RMK P0008 MADISHF
BED,2017-04-01 17:56,-71.2890,42.4699,34.00,30.00,85.11,20.00,13.00,0.09,29.83,1011.80,0.75,23.00,VV ,M,M,M,500.00,M,M,M,-SN BR,KBED 011756Z 02013G23KT 3/4SM R11/3500V5500FT -SN BR VV005 01/M01 A2983 RMK AO2 SLP118 P0009 60052 T00111011 10022 20006 54000
BED,2017-04-01 18:00,-71.2890,42.4699,M,M,M,20.00,15.00,M,29.83,M,0.75,20.00,OVC,M,M,M,1200.00,M,M,M,-SN BR,KBED 011800Z AUTO 02015G20KT 1SM -SN BR OVC012 A2983 RMK MADISHF
BED,2017-04-01 18:02,-71.2890,42.4699,34.00,30.00,85.11,20.00,14.00,0.00,29.83,M,1.00,23.00,BKN,OVC,M,M,900.00,1400.00,M,M,-SN BR,KBED 011802Z 02014G23KT 1SM R11/3500V6000FT -SN BR BKN009 OVC014 01/M01 A2983 RMK AO2 P0000 T00111011
BED,2017-04-01 18:05,-71.2890,42.4699,M,M,M,10.00,14.00,0.01,29.83,M,1.00,M,BKN,OVC,M,M,900.00,1400.00,M,M,-SN BR,KBED 011805Z AUTO 01014KT 1SM -SN BR BKN009 OVC014 A2983 RMK P0001 MADISHF
BED,2017-04-01 18:10,-71.2890,42.4699,M,M,M,10.00,15.00,0.01,29.83,M,1.00,M,OVC,M,M,M,1200.00,M,M,M,-SN BR,KBED 011810Z AUTO 01015KT 1SM -SN BR OVC012 A2983 RMK P0001 MADISHF
BED,2017-04-01 18:14,-71.2890,42.4699,34.00,30.00,85.11,10.00,14.00,0.02,29.83,M,1.00,22.00,BKN,OVC,M,M,1000.00,1500.00,M,M,-SN BR,KBED 011814Z 01014G22KT 1SM R11/4000VP6000FT -SN BR BKN010 OVC015 01/M01 A2983 RMK AO2 P0002 T00111011
BED,2017-04-01 18:15,-71.2890,42.4699,M,M,M,20.00,12.00,0.02,29.83,M,1.00,M,BKN,OVC,M,M,999.00,1500.00,M,M,-SN BR,KBED 011815Z AUTO 02012KT 1SM -SN BR BKN009 OVC015 A2983 RMK P0002 MADISHF
BED,2017-04-01 18:20,-71.2890,42.4699,M,M,M,20.00,14.00,0.02,29.84,M,1.00,M,BKN,OVC,M,M,999.00,1500.00,M,M,-SN BR,KBED 011820Z AUTO 02014KT 1SM -SN BR BKN009 OVC015 A2984 RMK P0002 MADISHF
BED,2017-04-01 18:25,-71.2890,42.4699,M,M,M,20.00,15.00,0.03,29.83,M,1.00,20.00,BKN,OVC,M,M,999.00,1500.00,M,M,-SN BR,KBED 011825Z AUTO 02015G20KT 1SM -SN BR BKN009 OVC015 A2983 RMK P0003 MADISHF
BED,2017-04-01 18:30,-71.2890,42.4699,M,M,M,20.00,12.00,0.03,29.84,M,1.25,M,BKN,OVC,M,M,999.00,1500.00,M,M,-SN BR,KBED 011830Z AUTO 02012KT 1 1/2SM -SN BR BKN009 OVC015 A2984 RMK P0003 MADISHF
BED,2017-04-01 18:35,-71.2890,42.4699,M,M,M,20.00,14.00,0.04,29.84,M,1.25,M,BKN,OVC,M,M,999.00,1400.00,M,M,-SN BR,KBED 011835Z AUTO 02014KT 1 1/2SM -SN BR BKN009 OVC014 A2984 RMK P0004 MADISHF
BED,2017-04-01 18:40,-71.2890,42.4699,M,M,M,30.00,13.00,0.04,29.84,M,1.25,M,BKN,OVC,M,M,999.00,1600.00,M,M,-SN BR,KBED 011840Z AUTO 03013KT 1 1/2SM -SN BR BKN009 OVC016 A2984 RMK P0004 MADISHF
BED,2017-04-01 18:45,-71.2890,42.4699,M,M,M,20.00,11.00,0.05,29.83,M,1.50,M,BKN,OVC,M,M,800.00,1400.00,M,M,-SN BR,KBED 011845Z AUTO 02011KT 1 1/2SM -SN BR BKN008 OVC014 A2983 RMK P0005 MADISHF
BED,2017-04-01 18:50,-71.2890,42.4699,M,M,M,30.00,12.00,0.05,29.83,M,1.75,M,BKN,OVC,M,M,999.00,1500.00,M,M,-SN BR,KBED 011850Z AUTO 03012KT 2SM -SN BR BKN009 OVC015 A2983 RMK P0005 MADISHF
BED,2017-04-01 18:53,-71.2890,42.4699,33.80,30.20,86.49,20.00,16.00,0.05,29.83,M,2.00,22.00,OVC,M,M,M,800.00,M,M,M,-SN BR,KBED 011853Z 02016G22KT 2SM -SN BR OVC008 01/M01 A2983 RMK AO2 P0005
BED,2017-04-01 18:55,-71.2890,42.4699,M,M,M,10.00,14.00,0.05,29.83,M,2.00,M,OVC,M,M,M,800.00,M,M,M,-SN BR,KBED 011855Z AUTO 01014KT 2SM -SN BR OVC008 A2983 RMK P0005 MADISHF
BED,2017-04-01 18:56,-71.2890,42.4699,34.00,30.00,85.11,20.00,16.00,0.05,29.83,1011.80,2.00,22.00,OVC,M,M,M,800.00,M,M,M,-SN BR,KBED 011856Z 02016G22KT 2SM -SN BR OVC008 01/M01 A2983 RMK AO2 SLP118 P0005 T00111011
BED,2017-04-01 19:00,-71.2890,42.4699,M,M,M,10.00,12.00,M,29.83,M,2.50,M,OVC,M,M,M,800.00,M,M,M,-SN BR,KBED 011900Z AUTO 01012KT 2 1/2SM -SN BR OVC008 A2983 RMK MADISHF
BED,2017-04-01 19:05,-71.2890,42.4699,M,M,M,20.00,14.00,0.01,29.84,M,2.00,M,OVC,M,M,M,800.00,M,M,M,-SN BR,KBED 011905Z AUTO 02014KT 2SM -SN BR OVC008 A2984 RMK P0001 MADISHF
BED,2017-04-01 19:10,-71.2890,42.4699,M,M,M,10.00,12.00,0.01,29.84,M,2.00,M,OVC,M,M,M,800.00,M,M,M,-SN BR,KBED 011910Z AUTO 01012KT 2SM -SN BR OVC008 A2984 RMK P0001 MADISHF
BED,2017-04-01 19:15,-71.2890,42.4699,M,M,M,20.00,13.00,0.01,29.84,M,2.00,M,OVC,M,M,M,800.00,M,M,M,-SN BR,KBED 011915Z AUTO 02013KT 2SM -SN BR OVC008 A2984 RMK P0001 MADISHF
BED,2017-04-01 19:20,-71.2890,42.4699,M,M,M,20.00,13.00,0.02,29.84,M,2.50,M,OVC,M,M,M,800.00,M,M,M,-SN BR,KBED 011920Z AUTO 02013KT 2 1/2SM -SN BR OVC008 A2984 RMK P0002 MADISHF
BED,2017-04-01 19:25,-71.2890,42.4699,M,M,M,10.00,14.00,0.02,29.84,M,2.50,M,OVC,M,M,M,800.00,M,M,M,-SN BR,KBED 011925Z AUTO 01014KT 2 1/2SM -SN BR OVC008 A2984 RMK P0002 MADISHF
BED,2017-04-01 19:30,-71.2890,42.4699,M,M,M,20.00,16.00,0.02,29.84,M,3.00,M,OVC,M,M,M,800.00,M,M,M,-SN BR,KBED 011930Z AUTO 02016KT 3SM -SN BR OVC008 A2984 RMK P0002 MADISHF
BED,2017-04-01 19:33,-71.2890,42.4699,34.00,30.00,85.11,10.00,11.00,0.02,29.84,M,3.00,23.00,OVC,M,M,M,800.00,M,M,M,-SN BR,KBED 011933Z 01011G23KT 3SM -SN BR OVC008 01/M01 A2984 RMK AO2 P0002 T00111011
BED,2017-04-01 19:35,-71.2890,42.4699,M,M,M,10.00,14.00,0.02,29.84,M,3.00,19.00,OVC,M,M,M,800.00,M,M,M,-SN BR,KBED 011935Z AUTO 01014G19KT 3SM -SN BR OVC008 A2984 RMK P0002 MADISHF
BED,2017-04-01 19:40,-71.2890,42.4699,M,M,M,10.00,13.00,0.03,29.84,M,3.50,18.00,OVC,M,M,M,800.00,M,M,M,-SN BR,KBED 011940Z AUTO 01013G18KT 3SM -SN BR OVC008 A2984 RMK P0003 MADISHF
BED,2017-04-01 19:45,-71.2890,42.4699,M,M,M,20.00,15.00,0.03,29.85,M,4.00,20.00,OVC,M,M,M,800.00,M,M,M,UP,KBED 011945Z AUTO 02015G20KT 4SM UP OVC008 A2985 RMK P0003 MADISHF
BED,2017-04-01 19:50,-71.2890,42.4699,M,M,M,20.00,10.00,0.03,29.85,M,2.50,M,OVC,M,M,M,800.00,M,M,M,-SN BR,KBED 011950Z AUTO 02010KT 2 1/2SM -SN BR OVC008 A2985 RMK P0003 MADISHF
BED,2017-04-01 19:55,-71.2890,42.4699,M,M,M,10.00,15.00,0.03,29.86,M,2.50,M,OVC,M,M,M,800.00,M,M,M,-SN BR,KBED 011955Z AUTO 01015KT 2 1/2SM -SN BR OVC008 A2986 RMK P0003 MADISHF
BED,2017-04-01 19:56,-71.2890,42.4699,34.00,28.90,81.37,10.00,14.00,0.03,29.86,1012.60,2.50,21.00,OVC,M,M,M,800.00,M,M,M,-SN,KBED 011956Z 01014G21KT 2 1/2SM -SN OVC008 01/M02 A2986 RMK AO2 UPB43E48SNE41B50 SLP126 P0003 T00111017
BED,2017-04-01 20:00,-71.2890,42.4699,M,M,M,20.00,12.00,0.01,29.86,M,5.00,M,BKN,OVC,M,M,1300.00,1999.00,M,M,-SN,KBED 012000Z AUTO 02012KT 5SM -SN BKN013 OVC019 A2986 RMK P0001 MADISHF
BED,2017-04-01 20:03,-71.2890,42.4699,34.00,30.00,85.11,10.00,11.00,0.01,29.87,M,4.00,22.00,BKN,OVC,M,M,1300.00,1800.00,M,M,-SN BR,KBED 012003Z 01011G22KT 4SM -SN BR BKN013 OVC018 01/M01 A2987 RMK AO2 PRESRR P0001 T00111011
BED,2017-04-01 20:05,-71.2890,42.4699,M,M,M,360.00,10.00,0.01,29.87,M,5.00,M,OVC,M,M,M,1300.00,M,M,M,-SN BR,KBED 012005Z AUTO 36010KT 5SM -SN BR OVC013 A2987 RMK P0001 MADISHF
BED,2017-04-01 20:10,-71.2890,42.4699,M,M,M,360.00,10.00,0.01,29.87,M,4.00,M,BKN,OVC,M,M,1100.00,1800.00,M,M,-SN BR,KBED 012010Z AUTO 36010KT 4SM -SN BR BKN011 OVC018 A2987 RMK P0001 MADISHF
BED,2017-04-01 20:15,-71.2890,42.4699,M,M,M,360.00,12.00,0.01,29.88,M,3.50,18.00,BKN,OVC,M,M,1100.00,1800.00,M,M,-SN BR,KBED 012015Z AUTO 36012G18KT 3SM -SN BR BKN011 OVC018 A2988 RMK P0001 MADISHF
BED,2017-04-01 20:20,-71.2890,42.4699,M,M,M,360.00,15.00,0.01,29.88,M,3.50,M,OVC,M,M,M,1100.00,M,M,M,-SN BR,KBED 012020Z AUTO 36015KT 3SM -SN BR OVC011 A2988 RMK P0001 MADISHF
BED,2017-04-01 20:25,-71.2890,42.4699,M,M,M,360.00,14.00,0.02,29.88,M,2.50,M,FEW,BKN,OVC,M,800.00,1300.00,1800.00,M,-SN,KBED 012025Z AUTO 36014KT 2 1/2SM -SN FEW008 BKN013 OVC018 A2988 RMK P0002 MADISHF
BED,2017-04-01 20:28,-71.2890,42.4699,34.00,30.00,85.11,360.00,10.00,0.02,29.88,M,2.50,21.00,FEW,OVC,M,M,800.00,1500.00,M,M,-SN BR,KBED 012028Z 36010G21KT 2 1/2SM -SN BR FEW008 OVC015 01/M01 A2988 RMK AO2 P0002 T00111011
BED,2017-04-01 20:30,-71.2890,42.4699,M,M,M,360.00,14.00,0.02,29.88,M,2.50,M,OVC,M,M,M,1200.00,M,M,M,-SN BR,KBED 012030Z AUTO 36014KT 2 1/2SM -SN BR OVC012 A2988 RMK P0002 MADISHF
BED,2017-04-01 20:35,-71.2890,42.4699,M,M,M,360.00,10.00,0.02,29.88,M,2.50,M,BKN,OVC,M,M,999.00,1500.00,M,M,-SN BR,KBED 012035Z AUTO 36010KT 2 1/2SM -SN BR BKN009 OVC015 A2988 RMK P0002 MADISHF
BED,2017-04-01 20:36,-71.2890,42.4699,34.00,30.00,85.11,360.00,10.00,0.02,29.88,M,2.50,20.00,OVC,M,M,M,700.00,M,M,M,-SN BR,KBED 012036Z 36010G20KT 2 1/2SM -SN BR OVC007 01/M01 A2988 RMK AO2 P0002 T00111011
BED,2017-04-01 20:40,-71.2890,42.4699,M,M,M,350.00,8.00,0.02,29.88,M,3.50,M,OVC,M,M,M,700.00,M,M,M,-SN BR,KBED 012040Z AUTO 35008KT 3SM -SN BR OVC007 A2988 RMK P0002 MADISHF
BED,2017-04-01 20:43,-71.2890,42.4699,34.00,30.00,85.11,360.00,10.00,0.02,29.88,M,4.00,15.00,OVC,M,M,M,700.00,M,M,M,-SN BR,KBED 012043Z 36010G15KT 4SM -SN BR OVC007 01/M01 A2988 RMK AO2 P0002 T00111011
BED,2017-04-01 20:45,-71.2890,42.4699,M,M,M,20.00,11.00,0.02,29.88,M,3.50,M,OVC,M,M,M,700.00,M,M,M,-SN BR,KBED 012045Z AUTO 02011KT 3SM -SN BR OVC007 A2988 RMK P0002 MADISHF
BED,2017-04-01 20:50,-71.2890,42.4699,M,M,M,20.00,11.00,0.03,29.88,M,2.00,M,OVC,M,M,M,700.00,M,M,M,-SN BR,KBED 012050Z AUTO 02011KT 2SM -SN BR OVC007 A2988 RMK P0003 MADISHF
BED,2017-04-01 20:52,-71.2890,42.4699,33.80,30.20,86.49,30.00,11.00,0.03,29.88,M,2.00,M,OVC,M,M,M,700.00,M,M,M,-SN BR,KBED 012052Z 03011KT 2SM -SN BR OVC007 01/M01 A2988 RMK AO2 P0003
BED,2017-04-01 20:55,-71.2890,42.4699,M,M,M,10.00,11.00,0.03,29.88,M,2.00,M,OVC,M,M,M,700.00,M,M,M,-SN BR,KBED 012055Z AUTO 01011KT 2SM -SN BR OVC007 A2988 RMK P0003 MADISHF
BED,2017-04-01 20:56,-71.2890,42.4699,34.00,30.00,85.11,10.00,12.00,0.03,29.88,1013.30,2.00,M,OVC,M,M,M,700.00,M,M,M,-SN BR,KBED 012056Z 01012KT 2SM -SN BR OVC007 01/M01 A2988 RMK AO2 SLP133 P0003 60011 T00111011 51015
BED,2017-04-01 20:59,-71.2890,42.4699,34.00,30.00,85.11,10.00,9.00,0.00,29.88,M,3.00,M,BKN,OVC,M,M,1000.00,1700.00,M,M,-SN BR,KBED 012059Z 01009KT 3SM -SN BR BKN010 OVC017 01/M01 A2988 RMK AO2 P0000 T00111011
BED,2017-04-01 21:00,-71.2890,42.4699,M,M,M,10.00,10.00,M,29.88,M,2.00,M,OVC,M,M,M,700.00,M,M,M,-SN BR,KBED 012100Z AUTO 01010KT 2SM -SN BR OVC007 A2988 RMK MADISHF
BED,2017-04-01 21:05,-71.2890,42.4699,M,M,M,360.00,9.00,M,29.89,M,2.00,M,OVC,M,M,M,700.00,M,M,M,-SN BR,KBED 012105Z AUTO 36009KT 2SM -SN BR OVC007 A2989 RMK MADISHF
BED,2017-04-01 21:06,-71.2890,42.4699,34.00,30.00,85.11,350.00,7.00,0.00,29.89,M,2.00,M,OVC,M,M,M,700.00,M,M,M,-SN BR,KBED 012106Z 35007KT 2SM -SN BR OVC007 01/M01 A2989 RMK AO2 P0000 T00111011
BED,2017-04-01 21:10,-71.2890,42.4699,M,M,M,350.00,10.00,M,29.90,M,2.00,M,OVC,M,M,M,700.00,M,M,M,-SN BR,KBED 012110Z AUTO 35010KT 2SM -SN BR OVC007 A2990 RMK MADISHF
BED,2017-04-01 21:15,-71.2890,42.4699,M,M,M,350.00,9.00,M,29.91,M,2.00,M,OVC,M,M,M,700.00,M,M,M,-SN BR,KBED 012115Z AUTO 35009KT 2SM -SN BR OVC007 A2991 RMK MADISHF
BED,2017-04-01 21:20,-71.2890,42.4699,M,M,M,340.00,10.00,0.01,29.91,M,2.00,M,OVC,M,M,M,700.00,M,M,M,-SN BR,KBED 012120Z AUTO 34010KT 2SM -SN BR OVC007 A2991 RMK P0001 MADISHF
BED,2017-04-01 21:25,-71.2890,42.4699,M,M,M,350.00,10.00,0.01,29.91,M,2.00,M,OVC,M,M,M,700.00,M,M,M,-SN BR,KBED 012125Z AUTO 35010KT 2SM -SN BR OVC007 A2991 RMK P0001 MADISHF
BED,2017-04-01 21:30,-71.2890,42.4699,M,M,M,340.00,9.00,0.01,29.91,M,2.00,M,OVC,M,M,M,700.00,M,M,M,-SN BR,KBED 012130Z AUTO 34009KT 2SM -SN BR OVC007 A2991 RMK P0001 MADISHF
BED,2017-04-01 21:35,-71.2890,42.4699,M,M,M,350.00,7.00,0.01,29.92,M,2.00,M,OVC,M,M,M,700.00,M,M,M,-SN BR,KBED 012135Z AUTO 35007KT 2SM -SN BR OVC007 A2992 RMK P0001 MADISHF
BED,2017-04-01 21:40,-71.2890,42.4699,M,M,M,340.00,9.00,0.01,29.92,M,2.00,M,OVC,M,M,M,700.00,M,M,M,-SN BR,KBED 012140Z AUTO 34009KT 2SM -SN BR OVC007 A2992 RMK P0001 MADISHF
BED,2017-04-01 21:45,-71.2890,42.4699,M,M,M,350.00,10.00,0.01,29.93,M,2.00,M,OVC,M,M,M,700.00,M,M,M,-SN,KBED 012145Z AUTO 35010KT 2SM -SN OVC007 A2993 RMK P0001 MADISHF
BED,2017-04-01 21:50,-71.2890,42.4699,M,M,M,350.00,10.00,0.01,29.93,M,2.00,15.00,OVC,M,M,M,700.00,M,M,M,-SN BR,KBED 012150Z AUTO 35010G15KT 2SM -SN BR OVC007 A2993 RMK P0001 MADISHF
BED,2017-04-01 21:55,-71.2890,42.4699,M,M,M,350.00,9.00,0.01,29.93,M,2.00,M,OVC,M,M,M,700.00,M,M,M,-SN BR,KBED 012155Z AUTO 35009KT 2SM -SN BR OVC007 A2993 RMK P0001 MADISHF
BED,2017-04-01 21:56,-71.2890,42.4699,33.10,28.90,84.36,350.00,9.00,0.01,29.93,1015.10,2.00,M,OVC,M,M,M,700.00,M,M,M,-SN BR,KBED 012156Z 35009KT 2SM -SN BR OVC007 01/M02 A2993 RMK AO2 SLP151 P0001 T00061017
BED,2017-04-01 22:00,-71.2890,42.4699,M,M,M,350.00,9.00,M,29.93,M,2.50,M,FEW,OVC,M,M,900.00,1400.00,M,M,-SN BR,KBED 012200Z AUTO 35009KT 2 1/2SM -SN BR FEW009 OVC014 A2993 RMK MADISHF
BED,2017-04-01 22:05,-71.2890,42.4699,M,M,M,360.00,7.00,M,29.94,M,2.00,M,BKN,OVC,M,M,900.00,1600.00,M,M,-SN BR,KBED 012205Z AUTO 36007KT 2SM -SN BR BKN009 OVC016 A2994 RMK MADISHF
BED,2017-04-01 22:10,-71.2890,42.4699,M,M,M,350.00,8.00,M,29.94,M,2.00,M,SCT,BKN,OVC,M,900.00,1300.00,1800.00,M,-SN BR,KBED 012210Z AUTO 35008KT 2SM -SN BR SCT009 BKN013 OVC018 A2994 RMK MADISHF
BED,2017-04-01 22:15,-71.2890,42.4699,33.10,30.00,88.23,350.00,8.00,0.01,29.94,M,2.00,M,SCT,OVC,M,M,900.00,1600.00,M,M,-SN BR,KBED 012215Z 35008KT 2SM -SN BR SCT009 OVC016 01/M01 A2994 RMK AO2 P0001 T00061011
BED,2017-04-01 22:20,-71.2890,42.4699,M,M,M,360.00,8.00,0.01,29.94,M,2.50,M,BKN,BKN,OVC,M,900.00,1400.00,1900.00,M,-SN BR,KBED 012220Z AUTO 36008KT 2 1/2SM -SN BR BKN009 BKN014 OVC019 A2994 RMK P0001 MADISHF
BED,2017-04-01 22:22,-71.2890,42.4699,33.10,30.00,88.23,350.00,8.00,0.01,29.94,M,2.50,M,SCT,BKN,OVC,M,900.00,1400.00,1900.00,M,-SN BR,KBED 012222Z 35008KT 2 1/2SM -SN BR SCT009 BKN014 OVC019 01/M01 A2994 RMK AO2 P0001 T00061011
BED,2017-04-01 22:25,-71.2890,42.4699,M,M,M,360.00,7.00,0.01,29.94,M,2.50,M,SCT,BKN,OVC,M,800.00,1400.00,2100.00,M,-SN BR,KBED 012225Z AUTO 36007KT 2 1/2SM -SN BR SCT008 BKN014 OVC021 A2994 RMK P0001 MADISHF
BED,2017-04-01 22:29,-71.2890,42.4699,33.10,30.00,88.23,350.00,7.00,0.01,29.94,M,3.00,M,BKN,BKN,OVC,M,800.00,1600.00,2100.00,M,-SN BR,KBED 012229Z 35007KT 3SM -SN BR BKN008 BKN016 OVC021 01/M01 A2994 RMK AO2 P0001 T00061011
BED,2017-04-01 22:30,-71.2890,42.4699,M,M,M,350.00,7.00,0.01,29.95,M,3.50,M,BKN,BKN,OVC,M,800.00,1400.00,2100.00,M,-SN BR,KBED 012230Z AUTO 35007KT 3SM -SN BR BKN008 BKN014 OVC021 A2995 RMK P0001 MADISHF
BED,2017-04-01 22:35,-71.2890,42.4699,M,M,M,340.00,8.00,0.01,29.95,M,4.00,M,SCT,BKN,OVC,M,800.00,1100.00,2300.00,M,-SN BR,KBED 012235Z AUTO 34008KT 4SM -SN BR SCT008 BKN011 OVC023 A2995 RMK P0001 MADISHF
BED,2017-04-01 22:40,-71.2890,42.4699,M,M,M,340.00,9.00,0.01,29.95,M,4.00,M,BKN,BKN,OVC,M,900.00,1600.00,2600.00,M,-SN BR,KBED 012240Z AUTO 34009KT 4SM -SN BR BKN009 BKN016 OVC026 A2995 RMK P0001 MADISHF
BED,2017-04-01 22:45,-71.2890,42.4699,M,M,M,350.00,8.00,0.01,29.95,M,5.00,M,BKN,OVC,M,M,900.00,1600.00,M,M,-SN BR,KBED 012245Z AUTO 35008KT 5SM -SN BR BKN009 OVC016 A2995 RMK P0001 MADISHF
BED,2017-04-01 22:50,-71.2890,42.4699,M,M,M,350.00,11.00,0.01,29.95,M,5.00,M,BKN,OVC,M,M,900.00,1600.00,M,M,-SN BR,KBED 012250Z AUTO 35011KT 5SM -SN BR BKN009 OVC016 A2995 RMK P0001 MADISHF
BED,2017-04-01 22:55,-71.2890,42.4699,M,M,M,350.00,13.00,0.01,29.95,M,5.00,M,BKN,OVC,M,M,900.00,1699.00,M,M,-SN BR,KBED 012255Z AUTO 35013KT 5SM -SN BR BKN009 OVC016 A2995 RMK P0001 MADISHF
BED,2017-04-01 22:56,-71.2890,42.4699,33.10,28.90,84.36,350.00,11.00,0.01,29.95,1015.80,5.00,M,BKN,OVC,M,M,900.00,3900.00,M,M,-SN BR,KBED 012256Z 35011KT 5SM -SN BR BKN009 OVC039 01/M02 A2995 RMK AO2 SLP158 P0001 T00061017
BED,2017-04-01 23:00,-71.2890,42.4699,M,M,M,360.00,9.00,M,29.95,M,4.00,M,BKN,OVC,M,M,900.00,1699.00,M,M,-SN BR,KBED 012300Z AUTO 36009KT 4SM -SN BR BKN009 OVC016 A2995 RMK MADISHF
BED,2017-04-01 23:05,-71.2890,42.4699,M,M,M,350.00,10.00,M,29.96,M,4.00,M,BKN,OVC,M,M,1100.00,1699.00,M,M,-SN BR,KBED 012305Z AUTO 35010KT 4SM -SN BR BKN011 OVC016 A2996 RMK MADISHF
BED,2017-04-01 23:10,-71.2890,42.4699,33.10,28.90,84.36,340.00,8.00,0.00,29.96,M,4.00,M,BKN,BKN,OVC,M,1100.00,1400.00,4000.00,M,-SN BR,KBED 012310Z 34008KT 4SM -SN BR BKN011 BKN014 OVC040 01/M02 A2996 RMK AO2 P0000 T00061017
BED,2017-04-01 23:15,-71.2890,42.4699,M,M,M,350.00,8.00,M,29.96,M,5.00,M,BKN,BKN,OVC,M,900.00,1600.00,3999.00,M,-SN BR,KBED 012315Z AUTO 35008KT 5SM -SN BR BKN009 BKN016 OVC039 A2996 RMK MADISHF
BED,2017-04-01 23:20,-71.2890,42.4699,M,M,M,350.00,6.00,M,29.96,M,5.00,M,FEW,BKN,OVC,M,700.00,1200.00,4200.00,M,-SN BR,KBED 012320Z AUTO 35006KT 5SM -SN BR FEW007 BKN012 OVC042 A2996 RMK MADISHF
BED,2017-04-01 23:25,-71.2890,42.4699,M,M,M,340.00,8.00,0.01,29.96,M,5.00,M,FEW,BKN,OVC,M,700.00,1200.00,1600.00,M,-SN BR,KBED 012325Z AUTO 34008KT 5SM -SN BR FEW007 BKN012 OVC016 A2996 RMK P0001 MADISHF
BED,2017-04-01 23:30,-71.2890,42.4699,M,M,M,340.00,6.00,0.01,29.96,M,6.00,M,SCT,BKN,OVC,M,900.00,1300.00,3999.00,M,-SN BR,KBED 012330Z AUTO 34006KT 6SM -SN BR SCT009 BKN013 OVC039 A2996 RMK P0001 MADISHF
BED,2017-04-01 23:31,-71.2890,42.4699,33.10,30.00,88.23,350.00,6.00,0.01,29.96,M,5.00,M,SCT,BKN,OVC,M,900.00,1300.00,3600.00,M,-SN BR,KBED 012331Z 35006KT 5SM -SN BR SCT009 BKN013 OVC036 01/M01 A2996 RMK AO2 P0001 T00061011
BED,2017-04-01 23:35,-71.2890,42.4699,M,M,M,350.00,9.00,0.01,29.96,M,5.00,M,SCT,BKN,OVC,M,900.00,1300.00,3600.00,M,-SN BR,KBED 012335Z AUTO 35009KT 5SM -SN BR SCT009 BKN013 OVC036 A2996 RMK P0001 MADISHF
BED,2017-04-01 23:40,-71.2890,42.4699,M,M,M,350.00,8.00,0.01,29.96,M,5.00,M,SCT,BKN,OVC,M,900.00,1400.00,2700.00,M,-SN BR,KBED 012340Z AUTO 35008KT 5SM -SN BR SCT009 BKN014 OVC027 A2996 RMK P0001 MADISHF
BED,2017-04-01 23:45,-71.2890,42.4699,M,M,M,350.00,7.00,0.01,29.96,M,7.00,M,SCT,BKN,OVC,M,900.00,1200.00,2700.00,M,-SN BR,KBED 012345Z AUTO 35007KT 7SM -SN BR SCT009 BKN012 OVC027 A2996 RMK P0001 MADISHF
BED,2017-04-01 23:50,-71.2890,42.4699,M,M,M,350.00,6.00,0.01,29.96,M,9.00,M,BKN,BKN,OVC,M,900.00,1600.00,2600.00,M,-SN BR,KBED 012350Z AUTO 35006KT 9SM -SN BR BKN009 BKN016 OVC026 A2996 RMK P0001 MADISHF
BED,2017-04-01 23:53,-71.2890,42.4699,33.80,30.20,86.49,350.00,6.00,0.01,29.96,M,9.00,M,BKN,BKN,OVC,M,900.00,1300.00,2600.00,M,-SN BR,KBED 012353Z 35006KT 9SM -SN BR BKN009 BKN013 OVC026 01/M01 A2996 RMK AO2 P0001
BED,2017-04-01 23:55,-71.2890,42.4699,M,M,M,350.00,7.00,0.01,29.96,M,9.00,M,BKN,BKN,OVC,M,900.00,1500.00,2600.00,M,-SN BR,KBED 012355Z AUTO 35007KT 9SM -SN BR BKN009 BKN015 OVC026 A2996 RMK P0001 MADISHF
BED,2017-04-01 23:56,-71.2890,42.4699,33.10,30.00,88.23,350.00,7.00,0.01,29.96,1016.10,9.00,M,BKN,BKN,OVC,M,900.00,1700.00,2600.00,M,-SN BR,KBED 012356Z 35007KT 9SM -SN BR BKN009 BKN017 OVC026 01/M01 A2996 RMK AO2 SLP161 P0001 60014 T00061011 10011 20006 51009
