#DEBUG: Format Typ    -> comma
#DEBUG: Time Period   -> 2017-04-01 00:00:00+00:00 2017-04-02 00:00:00+00:00
#DEBUG: Time Zone     -> Etc/UTC
#DEBUG: Data Contact   -> daryl herzmann akrherz@iastate.edu 515-294-5978
#DEBUG: Entries Found -> -1
station,valid,lon,lat,tmpf, dwpf, relh, drct, sknt, p01i, alti, mslp, vsby, gust, skyc1, skyc2, skyc3, skyc4, skyl1, skyl2, skyl3, skyl4, presentwx, metar
BEH,2017-04-01 00:00,-86.4285,42.1286,M,M,M,M,M,M,29.92,M,10.00,M,BKN,BKN,OVC,M,600.00,1100.00,1800.00,M,M,KBEH 010000Z AUTO /////KT 10SM BKN006 BKN011 OVC018 A2992 RMK CIG 5V10  MADISHF
BEH,2017-04-01 00:05,-86.4285,42.1286,M,M,M,10.00,4.00,M,29.92,M,10.00,M,BKN,OVC,M,M,800.00,1800.00,M,M,M,KBEH 010005Z AUTO 01004KT 10SM BKN008 OVC018 A2992 RMK CIG 6V12  MADISHF
BEH,2017-04-01 00:10,-86.4285,42.1286,M,M,M,10.00,5.00,M,29.92,M,10.00,M,BKN,OVC,M,M,800.00,1300.00,M,M,M,KBEH 010010Z AUTO 01005KT 10SM BKN008 OVC013 A2992 RMK VRB05KT CIG 6V11  MADISHF
BEH,2017-04-01 00:15,-86.4285,42.1286,M,M,M,360.00,4.00,M,29.92,M,10.00,M,BKN,BKN,OVC,M,800.00,1300.00,1900.00,M,M,KBEH 010015Z AUTO 36004KT 10SM BKN008 BKN013 OVC019 A2992 RMK VRB04KT CIG 6V10  MADISHF
BEH,2017-04-01 00:20,-86.4285,42.1286,M,M,M,10.00,4.00,M,29.93,M,10.00,M,BKN,BKN,OVC,M,600.00,1100.00,1900.00,M,M,KBEH 010020Z AUTO 01004KT 10SM BKN006 BKN011 OVC019 A2993 RMK CIG 6V10  MADISHF
BEH,2017-04-01 00:25,-86.4285,42.1286,M,M,M,10.00,6.00,M,29.93,M,10.00,M,BKN,OVC,M,M,600.00,1100.00,M,M,M,KBEH 010025Z AUTO 01006KT 10SM BKN006 OVC011 A2993 RMK VRB06KT CIG 6V9  MADISHF
BEH,2017-04-01 00:30,-86.4285,42.1286,M,M,M,360.00,6.00,M,29.93,M,10.00,M,BKN,OVC,M,M,800.00,1100.00,M,M,M,KBEH 010030Z AUTO 36006KT 10SM BKN008 OVC011 A2993 RMK CIG 6V10  MADISHF
BEH,2017-04-01 00:35,-86.4285,42.1286,M,M,M,10.00,6.00,M,29.93,M,10.00,M,BKN,OVC,M,M,800.00,1100.00,M,M,M,KBEH 010035Z AUTO 01006KT 10SM BKN008 OVC011 A2993 RMK CIG 6V10  MADISHF
BEH,2017-04-01 00:40,-86.4285,42.1286,M,M,M,20.00,5.00,M,29.93,M,10.00,M,BKN,BKN,OVC,M,700.00,1100.00,1999.00,M,M,KBEH 010040Z AUTO 02005KT 10SM BKN007 BKN011 OVC019 A2993 RMK VRB05KT  MADISHF
BEH,2017-04-01 00:45,-86.4285,42.1286,M,M,M,350.00,6.00,M,29.93,M,10.00,M,BKN,OVC,M,M,700.00,1999.00,M,M,M,KBEH 010045Z AUTO 35006KT 10SM BKN007 OVC019 A2993 RMK CIG 6V11  MADISHF
BEH,2017-04-01 00:50,-86.4285,42.1286,M,M,M,20.00,4.00,M,29.94,M,10.00,M,BKN,BKN,OVC,M,700.00,999.00,2200.00,M,M,KBEH 010050Z AUTO 02004KT 10SM BKN007 BKN009 OVC022 A2994 RMK VRB04KT  MADISHF
BEH,2017-04-01 00:53,-86.4285,42.1286,39.00,36.00,88.87,10.00,4.00,0.00,29.94,1014.30,10.00,M,BKN,BKN,OVC,M,700.00,1500.00,2200.00,M,M,KBEH 010053Z AUTO 01004KT 10SM BKN007 BKN015 OVC022 04/02 A2994 RMK AO2 CIG 006V009 SLP143 T00390022 $
BEH,2017-04-01 00:55,-86.4285,42.1286,M,M,M,0.00,0.00,M,29.94,M,10.00,M,BKN,BKN,OVC,M,700.00,1200.00,1900.00,M,M,KBEH 010055Z AUTO 00000KT 10SM BKN007 BKN012 OVC019 A2994 RMK CIG 6V9  MADISHF
BEH,2017-04-01 01:00,-86.4285,42.1286,M,M,M,360.00,4.00,M,29.94,M,10.00,M,SCT,BKN,OVC,M,700.00,1200.00,1699.00,M,M,KBEH 010100Z AUTO 36004KT 10SM SCT007 BKN012 OVC016 A2994 RMK VRB04KT  MADISHF
BEH,2017-04-01 01:05,-86.4285,42.1286,M,M,M,360.00,3.00,M,29.95,M,10.00,M,BKN,BKN,OVC,M,700.00,1200.00,1900.00,M,M,KBEH 010105Z AUTO 36003KT 10SM BKN007 BKN012 OVC019 A2995 RMK VRB03KT CIG 6V10  MADISHF
BEH,2017-04-01 01:10,-86.4285,42.1286,M,M,M,20.00,3.00,M,29.95,M,10.00,M,BKN,OVC,M,M,700.00,1200.00,M,M,M,KBEH 010110Z AUTO 02003KT 10SM BKN007 OVC012 A2995 RMK VRB03KT CIG 6V10  MADISHF
BEH,2017-04-01 01:15,-86.4285,42.1286,M,M,M,10.00,4.00,M,29.95,M,10.00,M,SCT,OVC,M,M,700.00,1200.00,M,M,M,KBEH 010115Z AUTO 01004KT 10SM SCT007 OVC012 A2995 RMK VRB04KT  MADISHF
BEH,2017-04-01 01:20,-86.4285,42.1286,M,M,M,30.00,3.00,M,29.95,M,10.00,M,SCT,OVC,M,M,700.00,1200.00,M,M,M,KBEH 010120Z AUTO 03003KT 10SM SCT007 OVC012 A2995 RMK VRB03KT  MADISHF
BEH,2017-04-01 01:21,-86.4285,42.1286,39.00,35.10,85.76,M,3.00,0.00,29.95,M,10.00,M,SCT,OVC,M,M,700.00,1200.00,M,M,M,KBEH 010121Z AUTO VRB03KT 10SM SCT007 OVC012 04/02 A2995 RMK AO2 T00390017 $
BEH,2017-04-01 01:25,-86.4285,42.1286,M,M,M,20.00,4.00,M,29.96,M,10.00,M,SCT,OVC,M,M,700.00,1200.00,M,M,M,KBEH 010125Z AUTO 02004KT 10SM SCT007 OVC012 A2996 RMK VRB04KT  MADISHF
BEH,2017-04-01 01:30,-86.4285,42.1286,M,M,M,10.00,3.00,M,29.96,M,10.00,M,SCT,OVC,M,M,700.00,1200.00,M,M,M,KBEH 010130Z AUTO 01003KT 10SM SCT007 OVC012 A2996 RMK VRB03KT  MADISHF
BEH,2017-04-01 01:35,-86.4285,42.1286,M,M,M,20.00,3.00,M,29.96,M,10.00,M,FEW,OVC,M,M,700.00,1200.00,M,M,M,KBEH 010135Z AUTO 02003KT 10SM FEW007 OVC012 A2996 RMK MADISHF
BEH,2017-04-01 01:40,-86.4285,42.1286,M,M,M,0.00,0.00,M,29.96,M,10.00,M,FEW,OVC,M,M,700.00,1200.00,M,M,M,KBEH 010140Z AUTO 00000KT 10SM FEW007 OVC012 A2996 RMK MADISHF
BEH,2017-04-01 01:45,-86.4285,42.1286,M,M,M,0.00,0.00,M,29.97,M,10.00,M,BKN,BKN,OVC,M,1200.00,1900.00,2400.00,M,M,KBEH 010145Z AUTO 00000KT 10SM BKN012 BKN019 OVC024 A2997 RMK MADISHF
BEH,2017-04-01 01:50,-86.4285,42.1286,M,M,M,360.00,3.00,M,29.97,M,10.00,M,BKN,BKN,OVC,M,1200.00,1900.00,2600.00,M,M,KBEH 010150Z AUTO 36003KT 10SM BKN012 BKN019 OVC026 A2997 RMK VRB03KT  MADISHF
BEH,2017-04-01 01:53,-86.4285,42.1286,39.00,36.00,88.87,0.00,0.00,0.00,29.97,1015.40,10.00,M,SCT,BKN,OVC,M,1300.00,1900.00,2600.00,M,M,KBEH 010153Z AUTO 00000KT 10SM SCT013 BKN019 OVC026 04/02 A2997 RMK AO2 SLP154 T00390022 $
BEH,2017-04-01 01:55,-86.4285,42.1286,M,M,M,0.00,0.00,M,29.97,M,10.00,M,SCT,BKN,OVC,M,1300.00,2600.00,3399.00,M,M,KBEH 010155Z AUTO 00000KT 10SM SCT013 BKN026 OVC033 A2997 RMK MADISHF
BEH,2017-04-01 02:00,-86.4285,42.1286,M,M,M,0.00,0.00,M,29.97,M,10.00,M,FEW,BKN,OVC,M,1300.00,2600.00,3399.00,M,M,KBEH 010200Z AUTO 00000KT 10SM FEW013 BKN026 OVC033 A2997 RMK MADISHF
BEH,2017-04-01 02:05,-86.4285,42.1286,M,M,M,0.00,0.00,M,29.98,M,10.00,M,FEW,BKN,OVC,M,1300.00,2700.00,3399.00,M,M,KBEH 010205Z AUTO 00000KT 10SM FEW013 BKN027 OVC033 A2998 RMK MADISHF
BEH,2017-04-01 02:10,-86.4285,42.1286,M,M,M,0.00,0.00,M,29.98,M,10.00,M,FEW,BKN,OVC,M,1500.00,2700.00,3399.00,M,M,KBEH 010210Z AUTO 00000KT 10SM FEW015 BKN027 OVC033 A2998 RMK MADISHF
BEH,2017-04-01 02:15,-86.4285,42.1286,M,M,M,0.00,0.00,M,29.98,M,10.00,M,SCT,OVC,M,M,2300.00,3100.00,M,M,M,KBEH 010215Z AUTO 00000KT 10SM SCT023 OVC031 A2998 RMK MADISHF
BEH,2017-04-01 02:20,-86.4285,42.1286,M,M,M,0.00,0.00,M,29.98,M,10.00,M,BKN,OVC,M,M,2600.00,3399.00,M,M,M,KBEH 010220Z AUTO 00000KT 10SM BKN026 OVC033 A2998 RMK MADISHF
BEH,2017-04-01 02:25,-86.4285,42.1286,M,M,M,0.00,0.00,M,29.98,M,10.00,M,BKN,OVC,M,M,2600.00,3399.00,M,M,M,KBEH 010225Z AUTO 00000KT 10SM BKN026 OVC033 A2998 RMK MADISHF
BEH,2017-04-01 02:30,-86.4285,42.1286,M,M,M,330.00,5.00,M,29.99,M,10.00,M,SCT,OVC,M,M,2100.00,2800.00,M,M,M,KBEH 010230Z AUTO 33005KT 10SM SCT021 OVC028 A2999 RMK VRB05KT  MADISHF
BEH,2017-04-01 02:35,-86.4285,42.1286,M,M,M,350.00,3.00,M,29.99,M,10.00,M,FEW,BKN,OVC,M,1699.00,2500.00,2900.00,M,M,KBEH 010235Z AUTO 35003KT 10SM FEW016 BKN025 OVC029 A2999 RMK VRB03KT  MADISHF
BEH,2017-04-01 02:40,-86.4285,42.1286,M,M,M,360.00,4.00,M,29.98,M,10.00,M,FEW,BKN,OVC,M,1699.00,2500.00,3300.00,M,M,KBEH 010240Z AUTO 36004KT 10SM FEW016 BKN025 OVC033 A2998 RMK VRB04KT  MADISHF
BEH,2017-04-01 02:45,-86.4285,42.1286,M,M,M,0.00,0.00,M,29.99,M,10.00,M,FEW,BKN,OVC,M,1500.00,2700.00,3300.00,M,M,KBEH 010245Z AUTO 00000KT 10SM FEW015 BKN027 OVC033 A2999 RMK MADISHF
BEH,2017-04-01 02:50,-86.4285,42.1286,M,M,M,0.00,0.00,M,29.99,M,10.00,M,SCT,OVC,M,M,1699.00,2700.00,M,M,M,KBEH 010250Z AUTO 00000KT 10SM SCT016 OVC027 A2999 RMK MADISHF
BEH,2017-04-01 02:53,-86.4285,42.1286,39.00,36.00,88.87,0.00,0.00,0.00,29.99,1016.00,10.00,M,FEW,SCT,OVC,M,1700.00,2100.00,2600.00,M,M,KBEH 010253Z AUTO 00000KT 10SM FEW017 SCT021 OVC026 04/02 A2999 RMK AO2 SLP160 T00390022 51026 $
BEH,2017-04-01 02:55,-86.4285,42.1286,M,M,M,0.00,0.00,M,29.99,M,10.00,M,FEW,BKN,OVC,M,1699.00,2600.00,3200.00,M,M,KBEH 010255Z AUTO 00000KT 10SM FEW016 BKN026 OVC032 A2999 RMK MADISHF
BEH,2017-04-01 03:00,-86.4285,42.1286,M,M,M,20.00,3.00,M,29.99,M,10.00,M,FEW,BKN,OVC,M,1500.00,2600.00,3200.00,M,M,KBEH 010300Z AUTO 02003KT 10SM FEW015 BKN026 OVC032 A2999 RMK VRB03KT  MADISHF
BEH,2017-04-01 03:05,-86.4285,42.1286,M,M,M,10.00,3.00,M,29.99,M,10.00,M,FEW,BKN,OVC,M,1999.00,2600.00,3200.00,M,M,KBEH 010305Z AUTO 01003KT 10SM FEW019 BKN026 OVC032 A2999 RMK VRB03KT  MADISHF
BEH,2017-04-01 03:10,-86.4285,42.1286,M,M,M,0.00,0.00,M,29.99,M,10.00,M,FEW,BKN,OVC,M,1999.00,2600.00,3300.00,M,M,KBEH 010310Z AUTO 00000KT 10SM FEW019 BKN026 OVC033 A2999 RMK MADISHF
BEH,2017-04-01 03:15,-86.4285,42.1286,M,M,M,350.00,3.00,M,29.99,M,10.00,M,BKN,OVC,M,M,2700.00,3300.00,M,M,M,KBEH 010315Z AUTO 35003KT 10SM BKN027 OVC033 A2999 RMK VRB03KT  MADISHF
BEH,2017-04-01 03:20,-86.4285,42.1286,M,M,M,0.00,0.00,M,30.00,M,10.00,M,BKN,OVC,M,M,2700.00,3300.00,M,M,M,KBEH 010320Z AUTO 00000KT 10SM BKN027 OVC033 A3000 RMK MADISHF
BEH,2017-04-01 03:25,-86.4285,42.1286,M,M,M,330.00,3.00,M,30.00,M,10.00,M,BKN,OVC,M,M,2700.00,3300.00,M,M,M,KBEH 010325Z AUTO 33003KT 10SM BKN027 OVC033 A3000 RMK VRB03KT  MADISHF
BEH,2017-04-01 03:30,-86.4285,42.1286,M,M,M,320.00,4.00,M,30.00,M,10.00,M,OVC,M,M,M,3200.00,M,M,M,M,KBEH 010330Z AUTO 32004KT 10SM OVC032 A3000 RMK MADISHF
BEH,2017-04-01 03:35,-86.4285,42.1286,39.00,35.10,85.76,340.00,3.00,0.00,30.01,M,10.00,M,SCT,OVC,M,M,2700.00,3200.00,M,M,M,KBEH 010335Z AUTO 34003KT 10SM SCT027 OVC032 04/02 A3001 RMK AO2 T00390017 $
BEH,2017-04-01 03:40,-86.4285,42.1286,M,M,M,330.00,4.00,M,30.01,M,10.00,M,SCT,OVC,M,M,2700.00,3200.00,M,M,M,KBEH 010340Z AUTO 33004KT 10SM SCT027 OVC032 A3001 RMK MADISHF
BEH,2017-04-01 03:45,-86.4285,42.1286,M,M,M,340.00,3.00,M,30.01,M,10.00,M,OVC,M,M,M,3200.00,M,M,M,M,KBEH 010345Z AUTO 34003KT 10SM OVC032 A3001 RMK MADISHF
BEH,2017-04-01 03:50,-86.4285,42.1286,M,M,M,330.00,3.00,M,30.01,M,10.00,M,OVC,M,M,M,3200.00,M,M,M,M,KBEH 010350Z AUTO 33003KT 10SM OVC032 A3001 RMK VRB03KT  MADISHF
BEH,2017-04-01 03:53,-86.4285,42.1286,39.00,35.10,85.76,M,3.00,0.00,30.01,1016.80,10.00,M,OVC,M,M,M,3300.00,M,M,M,M,KBEH 010353Z AUTO VRB03KT 10SM OVC033 04/02 A3001 RMK AO2 SLP168 T00390017 $
BEH,2017-04-01 03:55,-86.4285,42.1286,M,M,M,0.00,0.00,M,30.01,M,10.00,M,OVC,M,M,M,3300.00,M,M,M,M,KBEH 010355Z AUTO 00000KT 10SM OVC033 A3001 RMK MADISHF
BEH,2017-04-01 04:00,-86.4285,42.1286,M,M,M,0.00,0.00,M,30.01,M,10.00,M,OVC,M,M,M,3300.00,M,M,M,M,KBEH 010400Z AUTO 00000KT 10SM OVC033 A3001 RMK MADISHF
BEH,2017-04-01 04:05,-86.4285,42.1286,M,M,M,350.00,3.00,M,30.02,M,10.00,M,OVC,M,M,M,3300.00,M,M,M,M,KBEH 010405Z AUTO 35003KT 10SM OVC033 A3002 RMK VRB03KT  MADISHF
BEH,2017-04-01 04:10,-86.4285,42.1286,M,M,M,330.00,3.00,M,30.02,M,10.00,M,OVC,M,M,M,3300.00,M,M,M,M,KBEH 010410Z AUTO 33003KT 10SM OVC033 A3002 RMK VRB03KT  MADISHF
BEH,2017-04-01 04:15,-86.4285,42.1286,M,M,M,0.00,0.00,M,30.02,M,10.00,M,OVC,M,M,M,3300.00,M,M,M,M,KBEH 010415Z AUTO 00000KT 10SM OVC033 A3002 RMK MADISHF
BEH,2017-04-01 04:20,-86.4285,42.1286,M,M,M,0.00,0.00,M,30.02,M,10.00,M,OVC,M,M,M,3300.00,M,M,M,M,KBEH 010420Z AUTO 00000KT 10SM OVC033 A3002 RMK MADISHF
BEH,2017-04-01 04:25,-86.4285,42.1286,M,M,M,340.00,4.00,M,30.03,M,10.00,M,OVC,M,M,M,3300.00,M,M,M,M,KBEH 010425Z AUTO 34004KT 10SM OVC033 A3003 RMK MADISHF
BEH,2017-04-01 04:30,-86.4285,42.1286,M,M,M,330.00,3.00,M,30.03,M,10.00,M,OVC,M,M,M,3300.00,M,M,M,M,KBEH 010430Z AUTO 33003KT 10SM OVC033 A3003 RMK VRB03KT  MADISHF
BEH,2017-04-01 04:35,-86.4285,42.1286,M,M,M,340.00,3.00,M,30.03,M,10.00,M,OVC,M,M,M,3300.00,M,M,M,M,KBEH 010435Z AUTO 34003KT 10SM OVC033 A3003 RMK VRB03KT  MADISHF
BEH,2017-04-01 04:40,-86.4285,42.1286,M,M,M,340.00,4.00,M,30.03,M,10.00,M,OVC,M,M,M,3200.00,M,M,M,M,KBEH 010440Z AUTO 34004KT 10SM OVC032 A3003 RMK MADISHF
BEH,2017-04-01 04:45,-86.4285,42.1286,M,M,M,0.00,0.00,M,30.04,M,10.00,M,OVC,M,M,M,3200.00,M,M,M,M,KBEH 010445Z AUTO 00000KT 10SM OVC032 A3004 RMK MADISHF
BEH,2017-04-01 04:50,-86.4285,42.1286,M,M,M,320.00,3.00,M,30.04,M,10.00,M,OVC,M,M,M,3200.00,M,M,M,M,KBEH 010450Z AUTO 32003KT 10SM OVC032 A3004 RMK MADISHF
BEH,2017-04-01 04:53,-86.4285,42.1286,39.00,35.10,85.76,0.00,0.00,0.00,30.04,1017.80,10.00,M,OVC,M,M,M,3200.00,M,M,M,M,KBEH 010453Z AUTO 00000KT 10SM OVC032 04/02 A3004 RMK AO2 SLP178 T00390017 400610033 $
BEH,2017-04-01 04:55,-86.4285,42.1286,M,M,M,310.00,3.00,M,30.04,M,10.00,M,OVC,M,M,M,3200.00,M,M,M,M,KBEH 010455Z AUTO 31003KT 10SM OVC032 A3004 RMK MADISHF
BEH,2017-04-01 05:00,-86.4285,42.1286,M,M,M,330.00,3.00,M,30.04,M,10.00,M,OVC,M,M,M,3200.00,M,M,M,M,KBEH 010500Z AUTO 33003KT 10SM OVC032 A3004 RMK VRB03KT  MADISHF
BEH,2017-04-01 05:05,-86.4285,42.1286,M,M,M,0.00,0.00,M,30.03,M,10.00,M,BKN,OVC,M,M,3399.00,4700.00,M,M,M,KBEH 010505Z AUTO 00000KT 10SM BKN033 OVC047 A3003 RMK MADISHF
BEH,2017-04-01 05:10,-86.4285,42.1286,M,M,M,0.00,0.00,M,30.03,M,10.00,M,BKN,OVC,M,M,3399.00,4700.00,M,M,M,KBEH 010510Z AUTO 00000KT 10SM BKN033 OVC047 A3003 RMK MADISHF
BEH,2017-04-01 05:15,-86.4285,42.1286,M,M,M,0.00,0.00,M,30.03,M,10.00,M,SCT,OVC,M,M,3399.00,4900.00,M,M,M,KBEH 010515Z AUTO 00000KT 10SM SCT033 OVC049 A3003 RMK MADISHF
BEH,2017-04-01 05:20,-86.4285,42.1286,M,M,M,0.00,0.00,M,30.03,M,10.00,M,SCT,OVC,M,M,3399.00,4900.00,M,M,M,KBEH 010520Z AUTO 00000KT 10SM SCT033 OVC049 A3003 RMK MADISHF
BEH,2017-04-01 05:25,-86.4285,42.1286,M,M,M,0.00,0.00,M,30.03,M,10.00,M,FEW,OVC,M,M,3500.00,4900.00,M,M,M,KBEH 010525Z AUTO 00000KT 10SM FEW035 OVC049 A3003 RMK MADISHF
BEH,2017-04-01 05:30,-86.4285,42.1286,M,M,M,0.00,0.00,M,30.04,M,10.00,M,FEW,OVC,M,M,3900.00,4900.00,M,M,M,KBEH 010530Z AUTO 00000KT 10SM FEW039 OVC049 A3004 RMK MADISHF
BEH,2017-04-01 05:35,-86.4285,42.1286,M,M,M,330.00,3.00,M,30.04,M,10.00,M,FEW,OVC,M,M,3900.00,4800.00,M,M,M,KBEH 010535Z AUTO 33003KT 10SM FEW039 OVC048 A3004 RMK VRB03KT  MADISHF
BEH,2017-04-01 05:40,-86.4285,42.1286,M,M,M,0.00,0.00,M,30.04,M,10.00,M,FEW,OVC,M,M,3900.00,4800.00,M,M,M,KBEH 010540Z AUTO 00000KT 10SM FEW039 OVC048 A3004 RMK MADISHF
BEH,2017-04-01 05:45,-86.4285,42.1286,M,M,M,0.00,0.00,M,30.04,M,10.00,M,FEW,OVC,M,M,3900.00,4800.00,M,M,M,KBEH 010545Z AUTO 00000KT 10SM FEW039 OVC048 A3004 RMK MADISHF
BEH,2017-04-01 05:50,-86.4285,42.1286,M,M,M,320.00,3.00,M,30.04,M,10.00,M,FEW,OVC,M,M,3900.00,4800.00,M,M,M,KBEH 010550Z AUTO 32003KT 10SM FEW039 OVC048 A3004 RMK VRB03KT  MADISHF
BEH,2017-04-01 05:53,-86.4285,42.1286,39.00,35.10,85.76,0.00,0.00,0.00,30.04,1017.90,10.00,M,FEW,OVC,M,M,3900.00,4800.00,M,M,M,KBEH 010553Z AUTO 00000KT 10SM FEW039 OVC048 04/02 A3004 RMK AO2 SLP179 T00390017 10044 20039 51018 $
BEH,2017-04-01 05:55,-86.4285,42.1286,M,M,M,0.00,0.00,M,30.04,M,10.00,M,FEW,OVC,M,M,3900.00,4800.00,M,M,M,KBEH 010555Z AUTO 00000KT 10SM FEW039 OVC048 A3004 RMK MADISHF
BEH,2017-04-01 06:00,-86.4285,42.1286,M,M,M,330.00,3.00,M,30.05,M,10.00,M,OVC,M,M,M,4800.00,M,M,M,M,KBEH 010600Z AUTO 33003KT 10SM OVC048 A3005 RMK MADISHF
BEH,2017-04-01 06:05,-86.4285,42.1286,M,M,M,350.00,3.00,M,30.05,M,10.00,M,OVC,M,M,M,4800.00,M,M,M,M,KBEH 010605Z AUTO 35003KT 10SM OVC048 A3005 RMK MADISHF
BEH,2017-04-01 06:10,-86.4285,42.1286,M,M,M,0.00,0.00,M,30.04,M,10.00,M,OVC,M,M,M,4700.00,M,M,M,M,KBEH 010610Z AUTO 00000KT 10SM OVC047 A3004 RMK MADISHF
BEH,2017-04-01 06:15,-86.4285,42.1286,M,M,M,350.00,3.00,M,30.05,M,10.00,M,OVC,M,M,M,4700.00,M,M,M,M,KBEH 010615Z AUTO 35003KT 10SM OVC047 A3005 RMK VRB03KT  MADISHF
BEH,2017-04-01 06:20,-86.4285,42.1286,M,M,M,0.00,0.00,M,30.05,M,10.00,M,OVC,M,M,M,4700.00,M,M,M,M,KBEH 010620Z AUTO 00000KT 10SM OVC047 A3005 RMK MADISHF
BEH,2017-04-01 06:25,-86.4285,42.1286,M,M,M,340.00,4.00,M,30.05,M,10.00,M,OVC,M,M,M,4700.00,M,M,M,M,KBEH 010625Z AUTO 34004KT 10SM OVC047 A3005 RMK MADISHF
BEH,2017-04-01 06:30,-86.4285,42.1286,M,M,M,0.00,0.00,M,30.05,M,10.00,M,OVC,M,M,M,4700.00,M,M,M,M,KBEH 010630Z AUTO 00000KT 10SM OVC047 A3005 RMK MADISHF
BEH,2017-04-01 06:35,-86.4285,42.1286,M,M,M,10.00,3.00,M,30.05,M,10.00,M,OVC,M,M,M,4700.00,M,M,M,M,KBEH 010635Z AUTO 01003KT 10SM OVC047 A3005 RMK VRB03KT  MADISHF
BEH,2017-04-01 06:40,-86.4285,42.1286,M,M,M,20.00,3.00,M,30.05,M,10.00,M,BKN,M,M,M,4700.00,M,M,M,M,KBEH 010640Z AUTO 02003KT 10SM BKN047 A3005 RMK VRB03KT  MADISHF
BEH,2017-04-01 06:45,-86.4285,42.1286,M,M,M,10.00,3.00,M,30.06,M,10.00,M,BKN,M,M,M,4700.00,M,M,M,M,KBEH 010645Z AUTO 01003KT 10SM BKN047 A3006 RMK VRB03KT  MADISHF
BEH,2017-04-01 06:50,-86.4285,42.1286,M,M,M,360.00,4.00,M,30.06,M,10.00,M,SCT,M,M,M,4700.00,M,M,M,M,KBEH 010650Z AUTO 36004KT 10SM SCT047 A3006 RMK MADISHF
BEH,2017-04-01 06:53,-86.4285,42.1286,37.90,34.00,85.69,0.00,0.00,0.00,30.06,1018.40,10.00,M,SCT,M,M,M,4700.00,M,M,M,M,KBEH 010653Z AUTO 00000KT 10SM SCT047 03/01 A3006 RMK AO2 SLP184 T00330011 $
BEH,2017-04-01 06:55,-86.4285,42.1286,M,M,M,20.00,3.00,M,30.06,M,10.00,M,SCT,M,M,M,4700.00,M,M,M,M,KBEH 010655Z AUTO 02003KT 10SM SCT047 A3006 RMK VRB03KT  MADISHF
BEH,2017-04-01 07:00,-86.4285,42.1286,M,M,M,0.00,0.00,M,30.06,M,10.00,M,FEW,M,M,M,4700.00,M,M,M,M,KBEH 010700Z AUTO 00000KT 10SM FEW047 A3006 RMK MADISHF
BEH,2017-04-01 07:05,-86.4285,42.1286,M,M,M,0.00,0.00,M,30.06,M,10.00,M,CLR,M,M,M,M,M,M,M,M,KBEH 010705Z AUTO 00000KT 10SM CLR A3006 RMK MADISHF
BEH,2017-04-01 07:10,-86.4285,42.1286,M,M,M,10.00,3.00,M,30.07,M,10.00,M,CLR,M,M,M,M,M,M,M,M,KBEH 010710Z AUTO 01003KT 10SM CLR A3007 RMK VRB03KT  MADISHF
BEH,2017-04-01 07:15,-86.4285,42.1286,M,M,M,0.00,0.00,M,30.07,M,10.00,M,CLR,M,M,M,M,M,M,M,M,KBEH 010715Z AUTO 00000KT 10SM CLR A3007 RMK MADISHF
BEH,2017-04-01 07:20,-86.4285,42.1286,M,M,M,0.00,0.00,M,30.08,M,10.00,M,CLR,M,M,M,M,M,M,M,M,KBEH 010720Z AUTO 00000KT 10SM CLR A3008 RMK MADISHF
BEH,2017-04-01 07:25,-86.4285,42.1286,M,M,M,350.00,3.00,M,30.08,M,10.00,M,CLR,M,M,M,M,M,M,M,M,KBEH 010725Z AUTO 35003KT 10SM CLR A3008 RMK VRB03KT  MADISHF
BEH,2017-04-01 07:30,-86.4285,42.1286,M,M,M,20.00,3.00,M,30.08,M,10.00,M,CLR,M,M,M,M,M,M,M,M,KBEH 010730Z AUTO 02003KT 10SM CLR A3008 RMK MADISHF
BEH,2017-04-01 07:35,-86.4285,42.1286,M,M,M,10.00,3.00,M,30.08,M,10.00,M,CLR,M,M,M,M,M,M,M,M,KBEH 010735Z AUTO 01003KT 10SM CLR A3008 RMK VRB03KT  MADISHF
BEH,2017-04-01 07:40,-86.4285,42.1286,M,M,M,10.00,3.00,M,30.08,M,10.00,M,CLR,M,M,M,M,M,M,M,M,KBEH 010740Z AUTO 01003KT 10SM CLR A3008 RMK VRB03KT  MADISHF
BEH,2017-04-01 07:45,-86.4285,42.1286,M,M,M,20.00,3.00,M,30.08,M,10.00,M,CLR,M,M,M,M,M,M,M,M,KBEH 010745Z AUTO 02003KT 10SM CLR A3008 RMK VRB03KT  MADISHF
BEH,2017-04-01 07:50,-86.4285,42.1286,M,M,M,10.00,4.00,M,30.08,M,10.00,M,CLR,M,M,M,M,M,M,M,M,KBEH 010750Z AUTO 01004KT 10SM CLR A3008 RMK MADISHF
BEH,2017-04-01 07:53,-86.4285,42.1286,37.00,33.10,85.64,0.00,0.00,0.00,30.08,1019.30,10.00,M,CLR,M,M,M,M,M,M,M,M,KBEH 010753Z AUTO 00000KT 10SM CLR 03/01 A3008 RMK AO2 SLP193 T00280006 $
BEH,2017-04-01 07:55,-86.4285,42.1286,M,M,M,360.00,3.00,M,30.09,M,10.00,M,CLR,M,M,M,M,M,M,M,M,KBEH 010755Z AUTO 36003KT 10SM CLR A3009 RMK MADISHF
BEH,2017-04-01 08:00,-86.4285,42.1286,M,M,M,0.00,0.00,M,30.08,M,10.00,M,CLR,M,M,M,M,M,M,M,M,KBEH 010800Z AUTO 00000KT 10SM CLR A3008 RMK MADISHF
BEH,2017-04-01 08:05,-86.4285,42.1286,M,M,M,10.00,4.00,M,30.08,M,10.00,M,CLR,M,M,M,M,M,M,M,M,KBEH 010805Z AUTO 01004KT 10SM CLR A3008 RMK MADISHF
BEH,2017-04-01 08:10,-86.4285,42.1286,M,M,M,20.00,3.00,M,30.08,M,10.00,M,CLR,M,M,M,M,M,M,M,M,KBEH 010810Z AUTO 02003KT 10SM CLR A3008 RMK VRB03KT  MADISHF
BEH,2017-04-01 08:15,-86.4285,42.1286,M,M,M,0.00,0.00,M,30.08,M,10.00,M,CLR,M,M,M,M,M,M,M,M,KBEH 010815Z AUTO 00000KT 10SM CLR A3008 RMK MADISHF
BEH,2017-04-01 08:20,-86.4285,42.1286,M,M,M,0.00,0.00,M,30.08,M,10.00,M,CLR,M,M,M,M,M,M,M,M,KBEH 010820Z AUTO 00000KT 10SM CLR A3008 RMK MADISHF
BEH,2017-04-01 08:25,-86.4285,42.1286,M,M,M,10.00,3.00,M,30.08,M,10.00,M,CLR,M,M,M,M,M,M,M,M,KBEH 010825Z AUTO 01003KT 10SM CLR A3008 RMK VRB03KT  MADISHF
BEH,2017-04-01 08:30,-86.4285,42.1286,M,M,M,30.00,4.00,M,30.08,M,10.00,M,CLR,M,M,M,M,M,M,M,M,KBEH 010830Z AUTO 03004KT 10SM CLR A3008 RMK MADISHF
BEH,2017-04-01 08:35,-86.4285,42.1286,M,M,M,0.00,0.00,M,30.08,M,10.00,M,CLR,M,M,M,M,M,M,M,M,KBEH 010835Z AUTO 00000KT 10SM CLR A3008 RMK MADISHF
BEH,2017-04-01 08:40,-86.4285,42.1286,M,M,M,0.00,0.00,M,30.08,M,10.00,M,CLR,M,M,M,M,M,M,M,M,KBEH 010840Z AUTO 00000KT 10SM CLR A3008 RMK MADISHF
BEH,2017-04-01 08:45,-86.4285,42.1286,M,M,M,0.00,0.00,M,30.08,M,10.00,M,CLR,M,M,M,M,M,M,M,M,KBEH 010845Z AUTO 00000KT 10SM CLR A3008 RMK MADISHF
BEH,2017-04-01 08:50,-86.4285,42.1286,M,M,M,0.00,0.00,M,30.09,M,10.00,M,CLR,M,M,M,M,M,M,M,M,KBEH 010850Z AUTO 00000KT 10SM CLR A3009 RMK MADISHF
BEH,2017-04-01 08:53,-86.4285,42.1286,36.00,33.10,89.09,0.00,0.00,0.00,30.09,1019.50,10.00,M,CLR,M,M,M,M,M,M,M,M,KBEH 010853Z AUTO 00000KT 10SM CLR 02/01 A3009 RMK AO2 SLP195 T00220006 51016 $
BEH,2017-04-01 08:55,-86.4285,42.1286,M,M,M,0.00,0.00,M,30.09,M,10.00,M,CLR,M,M,M,M,M,M,M,M,KBEH 010855Z AUTO 00000KT 10SM CLR A3009 RMK MADISHF
BEH,2017-04-01 09:00,-86.4285,42.1286,M,M,M,0.00,0.00,M,30.10,M,10.00,M,CLR,M,M,M,M,M,M,M,M,KBEH 010900Z AUTO 00000KT 10SM CLR A3010 RMK MADISHF
BEH,2017-04-01 09:05,-86.4285,42.1286,M,M,M,0.00,0.00,M,30.10,M,10.00,M,CLR,M,M,M,M,M,M,M,M,KBEH 010905Z AUTO 00000KT 10SM CLR A3010 RMK MADISHF
BEH,2017-04-01 09:10,-86.4285,42.1286,M,M,M,0.00,0.00,M,30.11,M,10.00,M,CLR,M,M,M,M,M,M,M,M,KBEH 010910Z AUTO 00000KT 10SM CLR A3011 RMK MADISHF
BEH,2017-04-01 09:15,-86.4285,42.1286,M,M,M,0.00,0.00,M,30.11,M,10.00,M,CLR,M,M,M,M,M,M,M,M,KBEH 010915Z AUTO 00000KT 10SM CLR A3011 RMK MADISHF
BEH,2017-04-01 09:20,-86.4285,42.1286,M,M,M,0.00,0.00,M,30.11,M,10.00,M,CLR,M,M,M,M,M,M,M,M,KBEH 010920Z AUTO 00000KT 10SM CLR A3011 RMK MADISHF
BEH,2017-04-01 09:25,-86.4285,42.1286,M,M,M,0.00,0.00,M,30.11,M,10.00,M,CLR,M,M,M,M,M,M,M,M,KBEH 010925Z AUTO 00000KT 10SM CLR A3011 RMK MADISHF
BEH,2017-04-01 09:30,-86.4285,42.1286,M,M,M,0.00,0.00,M,30.11,M,10.00,M,CLR,M,M,M,M,M,M,M,M,KBEH 010930Z AUTO 00000KT 10SM CLR A3011 RMK MADISHF
BEH,2017-04-01 09:35,-86.4285,42.1286,M,M,M,0.00,0.00,M,30.11,M,10.00,M,CLR,M,M,M,M,M,M,M,M,KBEH 010935Z AUTO 00000KT 10SM CLR A3011 RMK MADISHF
BEH,2017-04-01 09:40,-86.4285,42.1286,M,M,M,0.00,0.00,M,30.11,M,9.00,M,CLR,M,M,M,M,M,M,M,M,KBEH 010940Z AUTO 00000KT 9SM CLR A3011 RMK MADISHF
BEH,2017-04-01 09:45,-86.4285,42.1286,M,M,M,0.00,0.00,M,30.11,M,8.00,M,CLR,M,M,M,M,M,M,M,M,KBEH 010945Z AUTO 00000KT 8SM CLR A3011 RMK MADISHF
BEH,2017-04-01 09:50,-86.4285,42.1286,M,M,M,0.00,0.00,M,30.12,M,8.00,M,CLR,M,M,M,M,M,M,M,M,KBEH 010950Z AUTO 00000KT 8SM CLR A3012 RMK MADISHF
BEH,2017-04-01 09:53,-86.4285,42.1286,32.00,30.90,95.65,0.00,0.00,0.00,30.12,1020.50,7.00,M,CLR,M,M,M,M,M,M,M,M,KBEH 010953Z AUTO 00000KT 7SM CLR 00/M01 A3012 RMK AO2 SLP205 T00001006 $
BEH,2017-04-01 09:55,-86.4285,42.1286,M,M,M,0.00,0.00,M,30.12,M,7.00,M,CLR,M,M,M,M,M,M,M,M,KBEH 010955Z AUTO 00000KT 7SM CLR A3012 RMK MADISHF
BEH,2017-04-01 10:00,-86.4285,42.1286,M,M,M,0.00,0.00,M,30.12,M,7.00,M,CLR,M,M,M,M,M,M,M,M,KBEH 011000Z AUTO 00000KT 7SM CLR A3012 RMK MADISHF
BEH,2017-04-01 10:05,-86.4285,42.1286,32.00,30.00,92.22,0.00,0.00,0.00,30.12,M,1.75,M,CLR,M,M,M,M,M,M,M,BR,KBEH 011005Z AUTO 00000KT 1 3/4SM BR CLR 00/M01 A3012 RMK AO2 T00001011 $
BEH,2017-04-01 10:10,-86.4285,42.1286,32.00,30.00,92.22,0.00,0.00,0.00,30.12,M,0.75,M,CLR,M,M,M,M,M,M,M,BR,KBEH 011010Z AUTO 00000KT 3/4SM BR CLR 00/M01 A3012 RMK AO2 T00001011 $
BEH,2017-04-01 10:15,-86.4285,42.1286,M,M,M,0.00,0.00,M,30.13,M,0.75,M,CLR,M,M,M,M,M,M,M,BR,KBEH 011015Z AUTO 00000KT 1SM BR CLR A3013 RMK MADISHF
BEH,2017-04-01 10:20,-86.4285,42.1286,M,M,M,0.00,0.00,M,30.13,M,0.75,M,CLR,M,M,M,M,M,M,M,BR,KBEH 011020Z AUTO 00000KT 1SM BR CLR A3013 RMK MADISHF
BEH,2017-04-01 10:25,-86.4285,42.1286,M,M,M,0.00,0.00,M,30.13,M,1.00,M,CLR,M,M,M,M,M,M,M,BR,KBEH 011025Z AUTO 00000KT 1SM BR CLR A3013 RMK MADISHF
BEH,2017-04-01 10:30,-86.4285,42.1286,32.00,30.00,92.22,0.00,0.00,0.00,30.12,M,1.00,M,CLR,M,M,M,M,M,M,M,BR,KBEH 011030Z AUTO 00000KT 1SM BR CLR 00/M01 A3012 RMK AO2 T00001011 $
BEH,2017-04-01 10:35,-86.4285,42.1286,32.00,30.00,92.22,0.00,0.00,0.00,30.12,M,0.50,M,CLR,M,M,M,M,M,M,M,FG,KBEH 011035Z AUTO 00000KT 1/2SM FG CLR 00/M01 A3012 RMK AO2 T00001011 $
BEH,2017-04-01 10:40,-86.4285,42.1286,M,M,M,0.00,0.00,M,30.12,M,0.50,M,VV ,M,M,M,300.00,M,M,M,FZFG,KBEH 011040Z AUTO 00000KT 1/2SM FZFG VV003 A3012 RMK MADISHF
BEH,2017-04-01 10:43,-86.4285,42.1286,30.90,28.90,92.18,0.00,0.00,0.00,30.13,M,0.75,M,VV ,M,M,M,300.00,M,M,M,BR,KBEH 011043Z AUTO 00000KT 3/4SM BR VV003 M01/M02 A3013 RMK AO2 T10061017 $
BEH,2017-04-01 10:45,-86.4285,42.1286,M,M,M,0.00,0.00,M,30.13,M,0.75,M,VV ,M,M,M,300.00,M,M,M,BR,KBEH 011045Z AUTO 00000KT 1SM BR VV003 A3013 RMK MADISHF
BEH,2017-04-01 10:47,-86.4285,42.1286,30.20,28.40,92.92,0.00,0.00,0.00,30.13,M,1.25,M,SCT,M,M,M,300.00,M,M,M,BR,KBEH 011047Z AUTO 00000KT 1 1/4SM BR SCT003 M01/M02 A3013 RMK AO2 $
BEH,2017-04-01 10:49,-86.4285,42.1286,30.20,28.40,92.92,0.00,0.00,0.00,30.13,M,3.00,M,SCT,M,M,M,300.00,M,M,M,BR,KBEH 011049Z AUTO 00000KT 3SM BR SCT003 M01/M02 A3013 RMK AO2 $
BEH,2017-04-01 10:50,-86.4285,42.1286,M,M,M,0.00,0.00,M,30.13,M,4.00,M,SCT,M,M,M,300.00,M,M,M,BR,KBEH 011050Z AUTO 00000KT 4SM BR SCT003 A3013 RMK MADISHF
BEH,2017-04-01 10:53,-86.4285,42.1286,30.90,28.90,92.18,0.00,0.00,0.00,30.13,1020.80,2.50,M,FEW,M,M,M,300.00,M,M,M,BR,KBEH 011053Z AUTO 00000KT 2 1/2SM BR FEW003 M01/M02 A3013 RMK AO2 SLP208 T10061017 $
BEH,2017-04-01 10:55,-86.4285,42.1286,M,M,M,0.00,0.00,M,30.13,M,2.50,M,FEW,M,M,M,300.00,M,M,M,BR,KBEH 011055Z AUTO 00000KT 2 1/2SM BR FEW003 A3013 RMK MADISHF
BEH,2017-04-01 11:00,-86.4285,42.1286,M,M,M,0.00,0.00,M,30.13,M,2.00,M,FEW,M,M,M,300.00,M,M,M,BR,KBEH 011100Z AUTO 00000KT 2SM BR FEW003 A3013 RMK MADISHF
BEH,2017-04-01 11:05,-86.4285,42.1286,M,M,M,0.00,0.00,M,30.14,M,3.50,M,SCT,M,M,M,300.00,M,M,M,BR,KBEH 011105Z AUTO 00000KT 3SM BR SCT003 A3014 RMK MADISHF
BEH,2017-04-01 11:10,-86.4285,42.1286,M,M,M,0.00,0.00,M,30.14,M,1.50,M,FEW,M,M,M,300.00,M,M,M,BR,KBEH 011110Z AUTO 00000KT 1 1/2SM BR FEW003 A3014 RMK MADISHF
BEH,2017-04-01 11:12,-86.4285,42.1286,30.90,28.90,92.18,0.00,0.00,0.00,30.14,M,1.25,M,FEW,M,M,M,300.00,M,M,M,BR,KBEH 011112Z AUTO 00000KT 1 1/4SM BR FEW003 M01/M02 A3014 RMK AO2 VIS 1/2V5 I1000 T10061017 $
BEH,2017-04-01 11:15,-86.4285,42.1286,M,M,M,0.00,0.00,M,30.14,M,1.00,M,VV ,M,M,M,300.00,M,M,M,BR,KBEH 011115Z AUTO 00000KT 1SM BR VV003 A3014 RMK MADISHF
BEH,2017-04-01 11:16,-86.4285,42.1286,30.90,28.90,92.18,0.00,0.00,0.00,30.14,M,0.75,M,VV ,M,M,M,300.00,M,M,M,BR,KBEH 011116Z AUTO 00000KT 3/4SM BR VV003 M01/M02 A3014 RMK AO2 VIS 1/2V2 I1000 T10061017 $
BEH,2017-04-01 11:20,-86.4285,42.1286,M,M,M,0.00,0.00,M,30.14,M,0.50,M,VV ,M,M,M,300.00,M,M,M,FZFG,KBEH 011120Z AUTO 00000KT 1/2SM FZFG VV003 A3014 RMK MADISHF
BEH,2017-04-01 11:24,-86.4285,42.1286,30.90,28.90,92.18,0.00,0.00,0.00,30.14,M,0.25,M,VV ,M,M,M,200.00,M,M,M,FZFG,KBEH 011124Z AUTO 00000KT 1/4SM FZFG VV002 M01/M02 A3014 RMK AO2 I1000 T10061017 $
BEH,2017-04-01 11:25,-86.4285,42.1286,M,M,M,0.00,0.00,M,30.14,M,0.24,M,VV ,M,M,M,200.00,M,M,M,FZFG,KBEH 011125Z AUTO 00000KT 1/4SM FZFG VV002 A3014 RMK MADISHF
BEH,2017-04-01 11:30,-86.4285,42.1286,M,M,M,0.00,0.00,M,30.14,M,0.24,M,VV ,M,M,M,200.00,M,M,M,FZFG,KBEH 011130Z AUTO 00000KT 1/4SM FZFG VV002 A3014 RMK MADISHF
BEH,2017-04-01 11:35,-86.4285,42.1286,M,M,M,0.00,0.00,M,30.13,M,0.50,M,VV ,M,M,M,200.00,M,M,M,FZFG,KBEH 011135Z AUTO 00000KT 1/2SM FZFG VV002 A3013 RMK MADISHF
BEH,2017-04-01 11:38,-86.4285,42.1286,30.00,28.00,92.15,0.00,0.00,0.00,30.13,M,1.00,M,VV ,M,M,M,200.00,M,M,M,BR,KBEH 011138Z AUTO 00000KT 1SM BR VV002 M01/M02 A3013 RMK AO2 I1000 T10111022 $
BEH,2017-04-01 11:40,-86.4285,42.1286,30.00,28.00,92.15,0.00,0.00,0.00,30.13,M,0.50,M,VV ,M,M,M,200.00,M,M,M,FZFG,KBEH 011140Z AUTO 00000KT 1/2SM FZFG VV002 M01/M02 A3013 RMK AO2 I1000 T10111022 $
BEH,2017-04-01 11:45,-86.4285,42.1286,M,M,M,0.00,0.00,M,30.13,M,0.24,M,VV ,M,M,M,200.00,M,M,M,FZFG,KBEH 011145Z AUTO 00000KT 1/4SM FZFG VV002 A3013 RMK MADISHF
BEH,2017-04-01 11:50,-86.4285,42.1286,M,M,M,0.00,0.00,M,30.14,M,0.24,M,VV ,M,M,M,200.00,M,M,M,FZFG,KBEH 011150Z AUTO 00000KT 1/4SM FZFG VV002 A3014 RMK MADISHF
BEH,2017-04-01 11:53,-86.4285,42.1286,30.00,28.90,95.61,0.00,0.00,0.00,30.14,1021.20,0.25,M,VV ,M,M,M,200.00,M,M,M,FZFG,KBEH 011153Z AUTO 00000KT 1/4SM FZFG VV002 M01/M02 A3014 RMK AO2 SLP212 I1000 I6000 T10111017 10039 21011 51016 $
BEH,2017-04-01 11:55,-86.4285,42.1286,M,M,M,0.00,0.00,M,30.14,M,0.13,M,VV ,M,M,M,200.00,M,M,M,FZFG,KBEH 011155Z AUTO 00000KT 1/4SM FZFG VV002 A3014 RMK MADISHF
BEH,2017-04-01 12:00,-86.4285,42.1286,M,M,M,0.00,0.00,M,30.14,M,0.13,M,VV ,M,M,M,200.00,M,M,M,FZFG,KBEH 011200Z AUTO 00000KT 1/4SM FZFG VV002 A3014 RMK MADISHF
BEH,2017-04-01 12:05,-86.4285,42.1286,M,M,M,0.00,0.00,M,30.14,M,0.24,M,VV ,M,M,M,200.00,M,M,M,FZFG,KBEH 011205Z AUTO 00000KT 1/4SM FZFG VV002 A3014 RMK MADISHF
BEH,2017-04-01 12:10,-86.4285,42.1286,M,M,M,0.00,0.00,M,30.14,M,0.24,M,VV ,M,M,M,200.00,M,M,M,FZFG,KBEH 011210Z AUTO 00000KT 1/4SM FZFG VV002 A3014 RMK MADISHF
BEH,2017-04-01 12:15,-86.4285,42.1286,M,M,M,0.00,0.00,M,30.15,M,0.25,M,VV ,M,M,M,200.00,M,M,M,FG,KBEH 011215Z AUTO 00000KT 1/4SM FG VV002 A3015 RMK MADISHF
BEH,2017-04-01 12:20,-86.4285,42.1286,M,M,M,0.00,0.00,M,30.15,M,0.25,M,VV ,M,M,M,200.00,M,M,M,FG,KBEH 011220Z AUTO 00000KT 1/4SM FG VV002 A3015 RMK MADISHF
BEH,2017-04-01 12:25,-86.4285,42.1286,M,M,M,0.00,0.00,M,30.15,M,0.50,M,VV ,M,M,M,200.00,M,M,M,FG,KBEH 011225Z AUTO 00000KT 1/2SM FG VV002 A3015 RMK MADISHF
BEH,2017-04-01 12:29,-86.4285,42.1286,32.00,30.90,95.65,0.00,0.00,0.00,30.16,M,1.00,M,VV ,M,M,M,200.00,M,M,M,BR,KBEH 011229Z AUTO 00000KT 1SM BR VV002 00/M01 A3016 RMK AO2 T00001006 $
BEH,2017-04-01 12:30,-86.4285,42.1286,M,M,M,0.00,0.00,M,30.16,M,1.00,M,VV ,M,M,M,200.00,M,M,M,BR,KBEH 011230Z AUTO 00000KT 1SM BR VV002 A3016 RMK MADISHF
BEH,2017-04-01 12:34,-86.4285,42.1286,32.00,30.90,95.65,0.00,0.00,0.00,30.16,M,0.50,M,VV ,M,M,M,200.00,M,M,M,FG,KBEH 011234Z AUTO 00000KT 1/2SM FG VV002 00/M01 A3016 RMK AO2 T00001006 $
BEH,2017-04-01 12:35,-86.4285,42.1286,M,M,M,0.00,0.00,M,30.16,M,0.50,M,VV ,M,M,M,200.00,M,M,M,FG,KBEH 011235Z AUTO 00000KT 1/2SM FG VV002 A3016 RMK MADISHF
BEH,2017-04-01 12:40,-86.4285,42.1286,M,M,M,0.00,0.00,M,30.17,M,0.25,M,VV ,M,M,M,200.00,M,M,M,FG,KBEH 011240Z AUTO 00000KT 1/4SM FG VV002 A3017 RMK MADISHF
BEH,2017-04-01 12:45,-86.4285,42.1286,M,M,M,0.00,0.00,M,30.17,M,0.50,M,VV ,M,M,M,200.00,M,M,M,FG,KBEH 011245Z AUTO 00000KT 1/2SM FG VV002 A3017 RMK MADISHF
BEH,2017-04-01 12:47,-86.4285,42.1286,32.00,30.20,92.97,0.00,0.00,0.00,30.17,M,1.25,M,BKN,M,M,M,200.00,M,M,M,BR,KBEH 011247Z AUTO 00000KT 1 1/4SM BR BKN002 00/M01 A3017 RMK AO2 I1000 $
BEH,2017-04-01 12:49,-86.4285,42.1286,32.00,30.20,92.97,0.00,0.00,0.00,30.17,M,2.50,M,SCT,M,M,M,200.00,M,M,M,BR,KBEH 011249Z AUTO 00000KT 2 1/2SM BR SCT002 00/M01 A3017 RMK AO2 I1000 $
BEH,2017-04-01 12:50,-86.4285,42.1286,M,M,M,240.00,3.00,M,30.17,M,3.00,M,SCT,M,M,M,200.00,M,M,M,BR,KBEH 011250Z AUTO 24003KT 3SM BR SCT002 A3017 RMK MADISHF
BEH,2017-04-01 12:53,-86.4285,42.1286,33.10,32.00,95.67,0.00,0.00,0.00,30.17,1022.30,3.00,M,SCT,M,M,M,200.00,M,M,M,BR,KBEH 011253Z AUTO 00000KT 3SM BR SCT002 01/00 A3017 RMK AO2 SLP223 I1000 T00060000 $
BEH,2017-04-01 12:55,-86.4285,42.1286,M,M,M,0.00,0.00,M,30.17,M,3.00,M,BKN,M,M,M,200.00,M,M,M,BR,KBEH 011255Z AUTO 00000KT 3SM BR BKN002 A3017 RMK MADISHF
BEH,2017-04-01 13:00,-86.4285,42.1286,M,M,M,240.00,3.00,M,30.18,M,3.00,M,SCT,M,M,M,200.00,M,M,M,BR,KBEH 011300Z AUTO 24003KT 3SM BR SCT002 A3018 RMK MADISHF
BEH,2017-04-01 13:05,-86.4285,42.1286,M,M,M,0.00,0.00,M,30.18,M,3.00,M,FEW,M,M,M,200.00,M,M,M,BR,KBEH 011305Z AUTO 00000KT 3SM BR FEW002 A3018 RMK MADISHF
BEH,2017-04-01 13:10,-86.4285,42.1286,M,M,M,250.00,3.00,M,30.18,M,4.00,M,FEW,M,M,M,200.00,M,M,M,BR,KBEH 011310Z AUTO 25003KT 4SM BR FEW002 A3018 RMK MADISHF
BEH,2017-04-01 13:15,-86.4285,42.1286,M,M,M,0.00,0.00,M,30.19,M,6.00,M,FEW,M,M,M,200.00,M,M,M,BR,KBEH 011315Z AUTO 00000KT 6SM BR FEW002 A3019 RMK MADISHF
BEH,2017-04-01 13:20,-86.4285,42.1286,M,M,M,0.00,0.00,M,30.18,M,8.00,M,FEW,M,M,M,200.00,M,M,M,M,KBEH 011320Z AUTO 00000KT 8SM FEW002 A3018 RMK MADISHF
BEH,2017-04-01 13:25,-86.4285,42.1286,M,M,M,300.00,4.00,M,30.19,M,10.00,M,CLR,M,M,M,M,M,M,M,M,KBEH 011325Z AUTO 30004KT 10SM CLR A3019 RMK MADISHF
BEH,2017-04-01 13:30,-86.4285,42.1286,M,M,M,310.00,4.00,M,30.19,M,10.00,M,CLR,M,M,M,M,M,M,M,M,KBEH 011330Z AUTO 31004KT 10SM CLR A3019 RMK MADISHF
BEH,2017-04-01 13:35,-86.4285,42.1286,M,M,M,0.00,0.00,M,30.19,M,10.00,M,CLR,M,M,M,M,M,M,M,M,KBEH 011335Z AUTO 00000KT 10SM CLR A3019 RMK MADISHF
BEH,2017-04-01 13:40,-86.4285,42.1286,M,M,M,310.00,3.00,M,30.19,M,10.00,M,CLR,M,M,M,M,M,M,M,M,KBEH 011340Z AUTO 31003KT 10SM CLR A3019 RMK VRB03KT  MADISHF
BEH,2017-04-01 13:45,-86.4285,42.1286,M,M,M,300.00,4.00,M,30.19,M,10.00,M,CLR,M,M,M,M,M,M,M,M,KBEH 011345Z AUTO 30004KT 10SM CLR A3019 RMK MADISHF
BEH,2017-04-01 13:50,-86.4285,42.1286,M,M,M,310.00,5.00,M,30.19,M,10.00,M,CLR,M,M,M,M,M,M,M,M,KBEH 011350Z AUTO 31005KT 10SM CLR A3019 RMK MADISHF
BEH,2017-04-01 13:53,-86.4285,42.1286,39.90,36.00,85.81,310.00,4.00,0.00,30.19,1022.90,10.00,M,CLR,M,M,M,M,M,M,M,M,KBEH 011353Z AUTO 31004KT 10SM CLR 04/02 A3019 RMK AO2 SLP229 T00440022 $
BEH,2017-04-01 13:55,-86.4285,42.1286,M,M,M,330.00,4.00,M,30.19,M,10.00,M,CLR,M,M,M,M,M,M,M,M,KBEH 011355Z AUTO 33004KT 10SM CLR A3019 RMK MADISHF
BEH,2017-04-01 14:00,-86.4285,42.1286,M,M,M,340.00,3.00,M,30.19,M,10.00,M,CLR,M,M,M,M,M,M,M,M,KBEH 011400Z AUTO 34003KT 10SM CLR A3019 RMK VRB03KT  MADISHF
BEH,2017-04-01 14:05,-86.4285,42.1286,M,M,M,320.00,3.00,M,30.19,M,10.00,M,CLR,M,M,M,M,M,M,M,M,KBEH 011405Z AUTO 32003KT 10SM CLR A3019 RMK VRB03KT  MADISHF
BEH,2017-04-01 14:10,-86.4285,42.1286,M,M,M,0.00,0.00,M,30.19,M,10.00,M,CLR,M,M,M,M,M,M,M,M,KBEH 011410Z AUTO 00000KT 10SM CLR A3019 RMK MADISHF
BEH,2017-04-01 14:15,-86.4285,42.1286,M,M,M,0.00,0.00,M,30.19,M,10.00,M,CLR,M,M,M,M,M,M,M,M,KBEH 011415Z AUTO 00000KT 10SM CLR A3019 RMK MADISHF
BEH,2017-04-01 14:20,-86.4285,42.1286,M,M,M,0.00,0.00,M,30.19,M,10.00,M,CLR,M,M,M,M,M,M,M,M,KBEH 011420Z AUTO 00000KT 10SM CLR A3019 RMK MADISHF
BEH,2017-04-01 14:25,-86.4285,42.1286,M,M,M,310.00,4.00,M,30.20,M,10.00,M,CLR,M,M,M,M,M,M,M,M,KBEH 011425Z AUTO 31004KT 10SM CLR A3020 RMK VRB04KT  MADISHF
BEH,2017-04-01 14:30,-86.4285,42.1286,M,M,M,270.00,5.00,M,30.20,M,10.00,M,CLR,M,M,M,M,M,M,M,M,KBEH 011430Z AUTO 27005KT 10SM CLR A3020 RMK MADISHF
BEH,2017-04-01 14:35,-86.4285,42.1286,M,M,M,310.00,4.00,M,30.20,M,10.00,M,CLR,M,M,M,M,M,M,M,M,KBEH 011435Z AUTO 31004KT 10SM CLR A3020 RMK MADISHF
BEH,2017-04-01 14:40,-86.4285,42.1286,M,M,M,300.00,4.00,M,30.20,M,10.00,M,CLR,M,M,M,M,M,M,M,M,KBEH 011440Z AUTO 30004KT 10SM CLR A3020 RMK MADISHF
BEH,2017-04-01 14:45,-86.4285,42.1286,M,M,M,310.00,5.00,M,30.20,M,10.00,M,CLR,M,M,M,M,M,M,M,M,KBEH 011445Z AUTO 31005KT 10SM CLR A3020 RMK VRB05KT  MADISHF
BEH,2017-04-01 14:50,-86.4285,42.1286,M,M,M,310.00,4.00,M,30.20,M,10.00,M,CLR,M,M,M,M,M,M,M,M,KBEH 011450Z AUTO 31004KT 10SM CLR A3020 RMK VRB04KT  MADISHF
BEH,2017-04-01 14:53,-86.4285,42.1286,44.10,36.00,72.99,280.00,5.00,0.00,30.20,1023.20,10.00,M,CLR,M,M,M,M,M,M,M,M,KBEH 011453Z AUTO 28005KT 10SM CLR 07/02 A3020 RMK AO2 SLP232 I3000 T00670022 51021 $
BEH,2017-04-01 14:55,-86.4285,42.1286,M,M,M,330.00,5.00,M,30.20,M,10.00,M,CLR,M,M,M,M,M,M,M,M,KBEH 011455Z AUTO 33005KT 10SM CLR A3020 RMK VRB05KT  MADISHF
BEH,2017-04-01 15:00,-86.4285,42.1286,M,M,M,300.00,5.00,M,30.20,M,10.00,M,CLR,M,M,M,M,M,M,M,M,KBEH 011500Z AUTO 30005KT 10SM CLR A3020 RMK MADISHF
BEH,2017-04-01 15:05,-86.4285,42.1286,M,M,M,330.00,4.00,M,30.20,M,10.00,M,CLR,M,M,M,M,M,M,M,M,KBEH 011505Z AUTO 33004KT 10SM CLR A3020 RMK VRB04KT  MADISHF
BEH,2017-04-01 15:10,-86.4285,42.1286,M,M,M,290.00,5.00,M,30.20,M,10.00,M,CLR,M,M,M,M,M,M,M,M,KBEH 011510Z AUTO 29005KT 10SM CLR A3020 RMK MADISHF
BEH,2017-04-01 15:15,-86.4285,42.1286,M,M,M,280.00,5.00,M,30.20,M,10.00,M,CLR,M,M,M,M,M,M,M,M,KBEH 011515Z AUTO 28005KT 10SM CLR A3020 RMK MADISHF
BEH,2017-04-01 15:20,-86.4285,42.1286,M,M,M,300.00,6.00,M,30.21,M,10.00,M,CLR,M,M,M,M,M,M,M,M,KBEH 011520Z AUTO 30006KT 10SM CLR A3021 RMK MADISHF
BEH,2017-04-01 15:25,-86.4285,42.1286,M,M,M,290.00,6.00,M,30.21,M,10.00,M,CLR,M,M,M,M,M,M,M,M,KBEH 011525Z AUTO 29006KT 10SM CLR A3021 RMK MADISHF
BEH,2017-04-01 15:30,-86.4285,42.1286,M,M,M,310.00,6.00,M,30.21,M,10.00,M,CLR,M,M,M,M,M,M,M,M,KBEH 011530Z AUTO 31006KT 10SM CLR A3021 RMK MADISHF
BEH,2017-04-01 15:35,-86.4285,42.1286,M,M,M,310.00,5.00,M,30.21,M,10.00,M,CLR,M,M,M,M,M,M,M,M,KBEH 011535Z AUTO 31005KT 10SM CLR A3021 RMK MADISHF
BEH,2017-04-01 15:40,-86.4285,42.1286,M,M,M,310.00,6.00,M,30.21,M,10.00,M,CLR,M,M,M,M,M,M,M,M,KBEH 011540Z AUTO 31006KT 10SM CLR A3021 RMK MADISHF
BEH,2017-04-01 15:45,-86.4285,42.1286,M,M,M,320.00,6.00,M,30.21,M,10.00,M,CLR,M,M,M,M,M,M,M,M,KBEH 011545Z AUTO 32006KT 10SM CLR A3021 RMK MADISHF
BEH,2017-04-01 15:50,-86.4285,42.1286,M,M,M,330.00,6.00,M,30.22,M,10.00,M,CLR,M,M,M,M,M,M,M,M,KBEH 011550Z AUTO 33006KT 10SM CLR A3022 RMK VRB06KT  MADISHF
BEH,2017-04-01 15:53,-86.4285,42.1286,46.00,33.10,60.49,320.00,7.00,0.00,30.22,1023.60,10.00,M,CLR,M,M,M,M,M,M,M,M,KBEH 011553Z AUTO 32007KT 10SM CLR 08/01 A3022 RMK AO2 SLP236 T00780006 $
BEH,2017-04-01 15:55,-86.4285,42.1286,M,M,M,300.00,6.00,M,30.22,M,10.00,M,CLR,M,M,M,M,M,M,M,M,KBEH 011555Z AUTO 30006KT 10SM CLR A3022 RMK VRB06KT  MADISHF
BEH,2017-04-01 16:00,-86.4285,42.1286,M,M,M,330.00,8.00,M,30.22,M,10.00,M,CLR,M,M,M,M,M,M,M,M,KBEH 011600Z AUTO 33008KT 10SM CLR A3022 RMK MADISHF
BEH,2017-04-01 16:05,-86.4285,42.1286,M,M,M,320.00,6.00,M,30.22,M,10.00,M,CLR,M,M,M,M,M,M,M,M,KBEH 011605Z AUTO 32006KT 10SM CLR A3022 RMK MADISHF
BEH,2017-04-01 16:10,-86.4285,42.1286,M,M,M,310.00,5.00,M,30.22,M,10.00,M,CLR,M,M,M,M,M,M,M,M,KBEH 011610Z AUTO 31005KT 10SM CLR A3022 RMK VRB05KT  MADISHF
BEH,2017-04-01 16:15,-86.4285,42.1286,M,M,M,280.00,9.00,M,30.23,M,10.00,M,CLR,M,M,M,M,M,M,M,M,KBEH 011615Z AUTO 28009KT 10SM CLR A3023 RMK MADISHF
BEH,2017-04-01 16:20,-86.4285,42.1286,M,M,M,290.00,8.00,M,30.23,M,10.00,M,CLR,M,M,M,M,M,M,M,M,KBEH 011620Z AUTO 29008KT 10SM CLR A3023 RMK MADISHF
BEH,2017-04-01 16:25,-86.4285,42.1286,M,M,M,280.00,7.00,M,30.23,M,10.00,M,CLR,M,M,M,M,M,M,M,M,KBEH 011625Z AUTO 28007KT 10SM CLR A3023 RMK MADISHF
BEH,2017-04-01 16:30,-86.4285,42.1286,M,M,M,280.00,9.00,M,30.23,M,10.00,M,CLR,M,M,M,M,M,M,M,M,KBEH 011630Z AUTO 28009KT 10SM CLR A3023 RMK MADISHF
BEH,2017-04-01 16:35,-86.4285,42.1286,M,M,M,290.00,5.00,M,30.23,M,10.00,M,CLR,M,M,M,M,M,M,M,M,KBEH 011635Z AUTO 29005KT 10SM CLR A3023 RMK VRB05KT  MADISHF
BEH,2017-04-01 16:40,-86.4285,42.1286,M,M,M,290.00,7.00,M,30.23,M,10.00,M,CLR,M,M,M,M,M,M,M,M,KBEH 011640Z AUTO 29007KT 10SM CLR A3023 RMK MADISHF
BEH,2017-04-01 16:45,-86.4285,42.1286,M,M,M,280.00,8.00,M,30.23,M,10.00,M,CLR,M,M,M,M,M,M,M,M,KBEH 011645Z AUTO 28008KT 10SM CLR A3023 RMK MADISHF
BEH,2017-04-01 16:50,-86.4285,42.1286,M,M,M,280.00,8.00,M,30.23,M,10.00,M,CLR,M,M,M,M,M,M,M,M,KBEH 011650Z AUTO 28008KT 10SM CLR A3023 RMK MADISHF
BEH,2017-04-01 16:53,-86.4285,42.1286,45.00,34.00,65.13,270.00,8.00,0.00,30.22,1023.90,10.00,M,CLR,M,M,M,M,M,M,M,M,KBEH 011653Z AUTO 27008KT 10SM CLR 07/01 A3022 RMK AO2 SLP239 T00720011 $
BEH,2017-04-01 16:55,-86.4285,42.1286,M,M,M,320.00,6.00,M,30.22,M,10.00,M,CLR,M,M,M,M,M,M,M,M,KBEH 011655Z AUTO 32006KT 10SM CLR A3022 RMK VRB06KT  MADISHF
BEH,2017-04-01 17:00,-86.4285,42.1286,M,M,M,300.00,6.00,M,30.22,M,10.00,M,CLR,M,M,M,M,M,M,M,M,KBEH 011700Z AUTO 30006KT 10SM CLR A3022 RMK MADISHF
BEH,2017-04-01 17:05,-86.4285,42.1286,M,M,M,280.00,7.00,M,30.22,M,10.00,M,CLR,M,M,M,M,M,M,M,M,KBEH 011705Z AUTO 28007KT 10SM CLR A3022 RMK MADISHF
BEH,2017-04-01 17:10,-86.4285,42.1286,M,M,M,300.00,7.00,M,30.22,M,10.00,M,CLR,M,M,M,M,M,M,M,M,KBEH 011710Z AUTO 30007KT 10SM CLR A3022 RMK MADISHF
BEH,2017-04-01 17:15,-86.4285,42.1286,M,M,M,270.00,8.00,M,30.22,M,10.00,M,CLR,M,M,M,M,M,M,M,M,KBEH 011715Z AUTO 27008KT 10SM CLR A3022 RMK MADISHF
BEH,2017-04-01 17:20,-86.4285,42.1286,M,M,M,290.00,5.00,M,30.22,M,10.00,M,CLR,M,M,M,M,M,M,M,M,KBEH 011720Z AUTO 29005KT 10SM CLR A3022 RMK VRB05KT  MADISHF
BEH,2017-04-01 17:25,-86.4285,42.1286,M,M,M,280.00,8.00,M,30.23,M,10.00,M,CLR,M,M,M,M,M,M,M,M,KBEH 011725Z AUTO 28008KT 10SM CLR A3023 RMK MADISHF
BEH,2017-04-01 17:30,-86.4285,42.1286,M,M,M,270.00,8.00,M,30.22,M,10.00,M,CLR,M,M,M,M,M,M,M,M,KBEH 011730Z AUTO 27008KT 10SM CLR A3022 RMK MADISHF
BEH,2017-04-01 17:35,-86.4285,42.1286,M,M,M,280.00,8.00,M,30.22,M,10.00,M,CLR,M,M,M,M,M,M,M,M,KBEH 011735Z AUTO 28008KT 10SM CLR A3022 RMK MADISHF
BEH,2017-04-01 17:40,-86.4285,42.1286,M,M,M,280.00,8.00,M,30.22,M,10.00,M,CLR,M,M,M,M,M,M,M,M,KBEH 011740Z AUTO 28008KT 10SM CLR A3022 RMK MADISHF
BEH,2017-04-01 17:45,-86.4285,42.1286,M,M,M,310.00,7.00,M,30.22,M,10.00,M,CLR,M,M,M,M,M,M,M,M,KBEH 011745Z AUTO 31007KT 10SM CLR A3022 RMK MADISHF
BEH,2017-04-01 17:50,-86.4285,42.1286,M,M,M,280.00,6.00,M,30.23,M,10.00,M,CLR,M,M,M,M,M,M,M,M,KBEH 011750Z AUTO 28006KT 10SM CLR A3023 RMK MADISHF
BEH,2017-04-01 17:53,-86.4285,42.1286,46.00,32.00,57.87,300.00,9.00,0.00,30.23,1024.10,10.00,M,CLR,M,M,M,M,M,M,M,M,KBEH 011753Z AUTO 30009KT 10SM CLR 08/00 A3023 RMK AO2 SLP241 I6000 T00780000 10078 21011 51009 $
BEH,2017-04-01 17:55,-86.4285,42.1286,M,M,M,300.00,8.00,M,30.23,M,10.00,M,CLR,M,M,M,M,M,M,M,M,KBEH 011755Z AUTO 30008KT 10SM CLR A3023 RMK MADISHF
BEH,2017-04-01 18:00,-86.4285,42.1286,M,M,M,300.00,7.00,M,30.23,M,10.00,M,CLR,M,M,M,M,M,M,M,M,KBEH 011800Z AUTO 30007KT 10SM CLR A3023 RMK WND 26V36  MADISHF
BEH,2017-04-01 18:05,-86.4285,42.1286,M,M,M,300.00,8.00,M,30.23,M,10.00,M,CLR,M,M,M,M,M,M,M,M,KBEH 011805Z AUTO 30008KT 10SM CLR A3023 RMK WND 28V34  MADISHF
BEH,2017-04-01 18:10,-86.4285,42.1286,M,M,M,290.00,6.00,M,30.23,M,10.00,M,CLR,M,M,M,M,M,M,M,M,KBEH 011810Z AUTO 29006KT 10SM CLR A3023 RMK MADISHF
BEH,2017-04-01 18:15,-86.4285,42.1286,M,M,M,290.00,8.00,M,30.23,M,10.00,M,CLR,M,M,M,M,M,M,M,M,KBEH 011815Z AUTO 29008KT 10SM CLR A3023 RMK MADISHF
BEH,2017-04-01 18:20,-86.4285,42.1286,M,M,M,310.00,8.00,M,30.23,M,10.00,M,CLR,M,M,M,M,M,M,M,M,KBEH 011820Z AUTO 31008KT 10SM CLR A3023 RMK MADISHF
BEH,2017-04-01 18:25,-86.4285,42.1286,M,M,M,300.00,7.00,M,30.23,M,10.00,M,CLR,M,M,M,M,M,M,M,M,KBEH 011825Z AUTO 30007KT 10SM CLR A3023 RMK WND 27V36  MADISHF
BEH,2017-04-01 18:30,-86.4285,42.1286,M,M,M,290.00,7.00,M,30.23,M,10.00,M,CLR,M,M,M,M,M,M,M,M,KBEH 011830Z AUTO 29007KT 10SM CLR A3023 RMK MADISHF
BEH,2017-04-01 18:35,-86.4285,42.1286,M,M,M,290.00,6.00,M,30.23,M,10.00,M,CLR,M,M,M,M,M,M,M,M,KBEH 011835Z AUTO 29006KT 10SM CLR A3023 RMK VRB06KT  MADISHF
BEH,2017-04-01 18:40,-86.4285,42.1286,M,M,M,310.00,7.00,M,30.23,M,10.00,M,CLR,M,M,M,M,M,M,M,M,KBEH 011840Z AUTO 31007KT 10SM CLR A3023 RMK MADISHF
BEH,2017-04-01 18:45,-86.4285,42.1286,M,M,M,310.00,7.00,M,30.23,M,10.00,M,CLR,M,M,M,M,M,M,M,M,KBEH 011845Z AUTO 31007KT 10SM CLR A3023 RMK MADISHF
BEH,2017-04-01 18:50,-86.4285,42.1286,M,M,M,310.00,6.00,M,30.23,M,10.00,M,CLR,M,M,M,M,M,M,M,M,KBEH 011850Z AUTO 31006KT 10SM CLR A3023 RMK VRB06KT  MADISHF
BEH,2017-04-01 18:53,-86.4285,42.1286,46.00,30.00,53.37,300.00,6.00,0.00,30.23,1024.20,10.00,M,CLR,M,M,M,M,M,M,M,M,KBEH 011853Z AUTO 30006KT 10SM CLR 08/M01 A3023 RMK AO2 SLP242 T00781011 $
BEH,2017-04-01 18:55,-86.4285,42.1286,M,M,M,310.00,7.00,M,30.23,M,10.00,M,CLR,M,M,M,M,M,M,M,M,KBEH 011855Z AUTO 31007KT 10SM CLR A3023 RMK MADISHF
BEH,2017-04-01 19:00,-86.4285,42.1286,M,M,M,310.00,7.00,M,30.23,M,10.00,M,CLR,M,M,M,M,M,M,M,M,KBEH 011900Z AUTO 31007KT 10SM CLR A3023 RMK WND 29V01  MADISHF
BEH,2017-04-01 19:05,-86.4285,42.1286,M,M,M,300.00,8.00,M,30.23,M,10.00,M,CLR,M,M,M,M,M,M,M,M,KBEH 011905Z AUTO 30008KT 10SM CLR A3023 RMK MADISHF
BEH,2017-04-01 19:10,-86.4285,42.1286,M,M,M,300.00,8.00,M,30.23,M,10.00,M,CLR,M,M,M,M,M,M,M,M,KBEH 011910Z AUTO 30008KT 10SM CLR A3023 RMK MADISHF
BEH,2017-04-01 19:15,-86.4285,42.1286,M,M,M,310.00,6.00,M,30.23,M,10.00,M,CLR,M,M,M,M,M,M,M,M,KBEH 011915Z AUTO 31006KT 10SM CLR A3023 RMK MADISHF
BEH,2017-04-01 19:20,-86.4285,42.1286,M,M,M,300.00,8.00,M,30.22,M,10.00,M,CLR,M,M,M,M,M,M,M,M,KBEH 011920Z AUTO 30008KT 10SM CLR A3022 RMK MADISHF
BEH,2017-04-01 19:25,-86.4285,42.1286,M,M,M,320.00,5.00,M,30.22,M,10.00,M,CLR,M,M,M,M,M,M,M,M,KBEH 011925Z AUTO 32005KT 10SM CLR A3022 RMK VRB05KT  MADISHF
BEH,2017-04-01 19:30,-86.4285,42.1286,M,M,M,320.00,7.00,M,30.22,M,10.00,M,CLR,M,M,M,M,M,M,M,M,KBEH 011930Z AUTO 32007KT 10SM CLR A3022 RMK MADISHF
BEH,2017-04-01 19:35,-86.4285,42.1286,M,M,M,310.00,6.00,M,30.22,M,10.00,M,CLR,M,M,M,M,M,M,M,M,KBEH 011935Z AUTO 31006KT 10SM CLR A3022 RMK VRB06KT  MADISHF
BEH,2017-04-01 19:40,-86.4285,42.1286,M,M,M,310.00,6.00,M,30.22,M,10.00,M,CLR,M,M,M,M,M,M,M,M,KBEH 011940Z AUTO 31006KT 10SM CLR A3022 RMK MADISHF
BEH,2017-04-01 19:45,-86.4285,42.1286,M,M,M,340.00,7.00,M,30.22,M,10.00,M,CLR,M,M,M,M,M,M,M,M,KBEH 011945Z AUTO 34007KT 10SM CLR A3022 RMK WND 31V02  MADISHF
BEH,2017-04-01 19:50,-86.4285,42.1286,M,M,M,10.00,5.00,M,30.21,M,10.00,M,CLR,M,M,M,M,M,M,M,M,KBEH 011950Z AUTO 01005KT 10SM CLR A3021 RMK VRB05KT  MADISHF
BEH,2017-04-01 19:53,-86.4285,42.1286,48.00,24.10,38.80,M,5.00,0.00,30.21,1023.40,10.00,M,CLR,M,M,M,M,M,M,M,M,KBEH 011953Z AUTO VRB05KT 10SM CLR 09/M04 A3021 RMK AO2 SLP234 T00891044 $
BEH,2017-04-01 19:55,-86.4285,42.1286,M,M,M,350.00,8.00,M,30.21,M,10.00,M,CLR,M,M,M,M,M,M,M,M,KBEH 011955Z AUTO 35008KT 10SM CLR A3021 RMK MADISHF
BEH,2017-04-01 20:00,-86.4285,42.1286,M,M,M,330.00,5.00,M,30.21,M,10.00,M,CLR,M,M,M,M,M,M,M,M,KBEH 012000Z AUTO 33005KT 10SM CLR A3021 RMK VRB05KT  MADISHF
BEH,2017-04-01 20:05,-86.4285,42.1286,M,M,M,340.00,4.00,M,30.20,M,10.00,M,CLR,M,M,M,M,M,M,M,M,KBEH 012005Z AUTO 34004KT 10SM CLR A3020 RMK VRB04KT  MADISHF
BEH,2017-04-01 20:10,-86.4285,42.1286,M,M,M,10.00,6.00,M,30.20,M,10.00,M,CLR,M,M,M,M,M,M,M,M,KBEH 012010Z AUTO 01006KT 10SM CLR A3020 RMK MADISHF
BEH,2017-04-01 20:15,-86.4285,42.1286,M,M,M,360.00,5.00,M,30.20,M,10.00,M,CLR,M,M,M,M,M,M,M,M,KBEH 012015Z AUTO 36005KT 10SM CLR A3020 RMK MADISHF
BEH,2017-04-01 20:20,-86.4285,42.1286,M,M,M,10.00,7.00,M,30.19,M,10.00,M,CLR,M,M,M,M,M,M,M,M,KBEH 012020Z AUTO 01007KT 10SM CLR A3019 RMK MADISHF
BEH,2017-04-01 20:25,-86.4285,42.1286,M,M,M,360.00,6.00,M,30.19,M,10.00,M,CLR,M,M,M,M,M,M,M,M,KBEH 012025Z AUTO 36006KT 10SM CLR A3019 RMK MADISHF
BEH,2017-04-01 20:30,-86.4285,42.1286,M,M,M,340.00,5.00,M,30.20,M,10.00,M,CLR,M,M,M,M,M,M,M,M,KBEH 012030Z AUTO 34005KT 10SM CLR A3020 RMK MADISHF
BEH,2017-04-01 20:35,-86.4285,42.1286,M,M,M,30.00,6.00,M,30.19,M,10.00,M,CLR,M,M,M,M,M,M,M,M,KBEH 012035Z AUTO 03006KT 10SM CLR A3019 RMK MADISHF
BEH,2017-04-01 20:40,-86.4285,42.1286,M,M,M,20.00,5.00,M,30.19,M,10.00,M,CLR,M,M,M,M,M,M,M,M,KBEH 012040Z AUTO 02005KT 10SM CLR A3019 RMK MADISHF
BEH,2017-04-01 20:45,-86.4285,42.1286,M,M,M,10.00,5.00,M,30.19,M,10.00,M,CLR,M,M,M,M,M,M,M,M,KBEH 012045Z AUTO 01005KT 10SM CLR A3019 RMK MADISHF
BEH,2017-04-01 20:50,-86.4285,42.1286,M,M,M,350.00,4.00,M,30.19,M,10.00,M,CLR,M,M,M,M,M,M,M,M,KBEH 012050Z AUTO 35004KT 10SM CLR A3019 RMK VRB04KT  MADISHF
BEH,2017-04-01 20:53,-86.4285,42.1286,48.90,19.90,31.42,M,5.00,0.00,30.19,1022.70,10.00,M,CLR,M,M,M,M,M,M,M,M,KBEH 012053Z AUTO VRB05KT 10SM CLR 09/M07 A3019 RMK AO2 SLP227 T00941067 58014 $
BEH,2017-04-01 20:55,-86.4285,42.1286,M,M,M,10.00,5.00,M,30.19,M,10.00,M,CLR,M,M,M,M,M,M,M,M,KBEH 012055Z AUTO 01005KT 10SM CLR A3019 RMK MADISHF
BEH,2017-04-01 21:00,-86.4285,42.1286,M,M,M,340.00,4.00,M,30.19,M,10.00,M,CLR,M,M,M,M,M,M,M,M,KBEH 012100Z AUTO 34004KT 10SM CLR A3019 RMK VRB04KT  MADISHF
BEH,2017-04-01 21:05,-86.4285,42.1286,M,M,M,340.00,6.00,M,30.19,M,10.00,M,CLR,M,M,M,M,M,M,M,M,KBEH 012105Z AUTO 34006KT 10SM CLR A3019 RMK MADISHF
BEH,2017-04-01 21:10,-86.4285,42.1286,M,M,M,360.00,6.00,M,30.19,M,10.00,M,CLR,M,M,M,M,M,M,M,M,KBEH 012110Z AUTO 36006KT 10SM CLR A3019 RMK VRB06KT  MADISHF
BEH,2017-04-01 21:15,-86.4285,42.1286,M,M,M,340.00,5.00,M,30.19,M,10.00,M,CLR,M,M,M,M,M,M,M,M,KBEH 012115Z AUTO 34005KT 10SM CLR A3019 RMK MADISHF
BEH,2017-04-01 21:20,-86.4285,42.1286,M,M,M,350.00,5.00,M,30.19,M,10.00,M,CLR,M,M,M,M,M,M,M,M,KBEH 012120Z AUTO 35005KT 10SM CLR A3019 RMK MADISHF
BEH,2017-04-01 21:25,-86.4285,42.1286,M,M,M,340.00,3.00,M,30.19,M,10.00,M,CLR,M,M,M,M,M,M,M,M,KBEH 012125Z AUTO 34003KT 10SM CLR A3019 RMK VRB03KT  MADISHF
BEH,2017-04-01 21:30,-86.4285,42.1286,M,M,M,360.00,5.00,M,30.19,M,10.00,M,CLR,M,M,M,M,M,M,M,M,KBEH 012130Z AUTO 36005KT 10SM CLR A3019 RMK VRB05KT  MADISHF
BEH,2017-04-01 21:35,-86.4285,42.1286,M,M,M,320.00,4.00,M,30.19,M,10.00,M,CLR,M,M,M,M,M,M,M,M,KBEH 012135Z AUTO 32004KT 10SM CLR A3019 RMK VRB04KT  MADISHF
BEH,2017-04-01 21:40,-86.4285,42.1286,M,M,M,300.00,4.00,M,30.19,M,10.00,M,CLR,M,M,M,M,M,M,M,M,KBEH 012140Z AUTO 30004KT 10SM CLR A3019 RMK VRB04KT  MADISHF
BEH,2017-04-01 21:45,-86.4285,42.1286,M,M,M,300.00,5.00,M,30.19,M,10.00,M,CLR,M,M,M,M,M,M,M,M,KBEH 012145Z AUTO 30005KT 10SM CLR A3019 RMK MADISHF
BEH,2017-04-01 21:50,-86.4285,42.1286,M,M,M,300.00,5.00,M,30.20,M,10.00,M,CLR,M,M,M,M,M,M,M,M,KBEH 012150Z AUTO 30005KT 10SM CLR A3020 RMK VRB05KT  MADISHF
BEH,2017-04-01 21:53,-86.4285,42.1286,48.00,21.00,34.05,M,4.00,0.00,30.20,1023.10,10.00,M,CLR,M,M,M,M,M,M,M,M,KBEH 012153Z AUTO VRB04KT 10SM CLR 09/M06 A3020 RMK AO2 SLP231 T00891061 $
BEH,2017-04-01 21:55,-86.4285,42.1286,M,M,M,290.00,5.00,M,30.20,M,10.00,M,CLR,M,M,M,M,M,M,M,M,KBEH 012155Z AUTO 29005KT 10SM CLR A3020 RMK MADISHF
BEH,2017-04-01 22:00,-86.4285,42.1286,M,M,M,290.00,6.00,M,30.20,M,10.00,M,CLR,M,M,M,M,M,M,M,M,KBEH 012200Z AUTO 29006KT 10SM CLR A3020 RMK MADISHF
BEH,2017-04-01 22:05,-86.4285,42.1286,M,M,M,300.00,5.00,M,30.20,M,10.00,M,CLR,M,M,M,M,M,M,M,M,KBEH 012205Z AUTO 30005KT 10SM CLR A3020 RMK MADISHF
BEH,2017-04-01 22:10,-86.4285,42.1286,M,M,M,340.00,3.00,M,30.20,M,10.00,M,CLR,M,M,M,M,M,M,M,M,KBEH 012210Z AUTO 34003KT 10SM CLR A3020 RMK VRB03KT  MADISHF
BEH,2017-04-01 22:15,-86.4285,42.1286,M,M,M,360.00,4.00,M,30.20,M,10.00,M,CLR,M,M,M,M,M,M,M,M,KBEH 012215Z AUTO 36004KT 10SM CLR A3020 RMK MADISHF
BEH,2017-04-01 22:20,-86.4285,42.1286,M,M,M,300.00,4.00,M,30.20,M,10.00,M,CLR,M,M,M,M,M,M,M,M,KBEH 012220Z AUTO 30004KT 10SM CLR A3020 RMK MADISHF
BEH,2017-04-01 22:25,-86.4285,42.1286,M,M,M,300.00,5.00,M,30.20,M,10.00,M,CLR,M,M,M,M,M,M,M,M,KBEH 012225Z AUTO 30005KT 10SM CLR A3020 RMK MADISHF
BEH,2017-04-01 22:30,-86.4285,42.1286,M,M,M,310.00,4.00,M,30.20,M,10.00,M,CLR,M,M,M,M,M,M,M,M,KBEH 012230Z AUTO 31004KT 10SM CLR A3020 RMK MADISHF
BEH,2017-04-01 22:35,-86.4285,42.1286,M,M,M,340.00,3.00,M,30.20,M,10.00,M,CLR,M,M,M,M,M,M,M,M,KBEH 012235Z AUTO 34003KT 10SM CLR A3020 RMK VRB03KT  MADISHF
BEH,2017-04-01 22:40,-86.4285,42.1286,M,M,M,310.00,4.00,M,30.21,M,10.00,M,CLR,M,M,M,M,M,M,M,M,KBEH 012240Z AUTO 31004KT 10SM CLR A3021 RMK VRB04KT  MADISHF
BEH,2017-04-01 22:45,-86.4285,42.1286,M,M,M,340.00,4.00,M,30.21,M,10.00,M,CLR,M,M,M,M,M,M,M,M,KBEH 012245Z AUTO 34004KT 10SM CLR A3021 RMK MADISHF
BEH,2017-04-01 22:50,-86.4285,42.1286,M,M,M,300.00,4.00,M,30.21,M,10.00,M,CLR,M,M,M,M,M,M,M,M,KBEH 012250Z AUTO 30004KT 10SM CLR A3021 RMK MADISHF
BEH,2017-04-01 22:53,-86.4285,42.1286,46.00,19.90,35.04,300.00,4.00,0.00,30.21,1023.40,10.00,M,CLR,M,M,M,M,M,M,M,M,KBEH 012253Z AUTO 30004KT 10SM CLR 08/M07 A3021 RMK AO2 SLP234 T00781067 $
BEH,2017-04-01 22:55,-86.4285,42.1286,M,M,M,300.00,5.00,M,30.21,M,10.00,M,CLR,M,M,M,M,M,M,M,M,KBEH 012255Z AUTO 30005KT 10SM CLR A3021 RMK MADISHF
BEH,2017-04-01 23:00,-86.4285,42.1286,M,M,M,290.00,5.00,M,30.20,M,10.00,M,CLR,M,M,M,M,M,M,M,M,KBEH 012300Z AUTO 29005KT 10SM CLR A3020 RMK MADISHF
BEH,2017-04-01 23:05,-86.4285,42.1286,M,M,M,290.00,4.00,M,30.21,M,10.00,M,CLR,M,M,M,M,M,M,M,M,KBEH 012305Z AUTO 29004KT 10SM CLR A3021 RMK MADISHF
BEH,2017-04-01 23:10,-86.4285,42.1286,M,M,M,310.00,3.00,M,30.21,M,10.00,M,CLR,M,M,M,M,M,M,M,M,KBEH 012310Z AUTO 31003KT 10SM CLR A3021 RMK MADISHF
BEH,2017-04-01 23:15,-86.4285,42.1286,M,M,M,0.00,0.00,M,30.21,M,10.00,M,CLR,M,M,M,M,M,M,M,M,KBEH 012315Z AUTO 00000KT 10SM CLR A3021 RMK MADISHF
BEH,2017-04-01 23:20,-86.4285,42.1286,M,M,M,0.00,0.00,M,30.21,M,10.00,M,CLR,M,M,M,M,M,M,M,M,KBEH 012320Z AUTO 00000KT 10SM CLR A3021 RMK MADISHF
BEH,2017-04-01 23:25,-86.4285,42.1286,M,M,M,260.00,4.00,M,30.21,M,10.00,M,CLR,M,M,M,M,M,M,M,M,KBEH 012325Z AUTO 26004KT 10SM CLR A3021 RMK MADISHF
BEH,2017-04-01 23:30,-86.4285,42.1286,M,M,M,260.00,4.00,M,30.21,M,10.00,M,CLR,M,M,M,M,M,M,M,M,KBEH 012330Z AUTO 26004KT 10SM CLR A3021 RMK MADISHF
BEH,2017-04-01 23:35,-86.4285,42.1286,M,M,M,260.00,5.00,M,30.21,M,10.00,M,CLR,M,M,M,M,M,M,M,M,KBEH 012335Z AUTO 26005KT 10SM CLR A3021 RMK MADISHF
BEH,2017-04-01 23:40,-86.4285,42.1286,M,M,M,270.00,5.00,M,30.21,M,10.00,M,CLR,M,M,M,M,M,M,M,M,KBEH 012340Z AUTO 27005KT 10SM CLR A3021 RMK MADISHF
BEH,2017-04-01 23:45,-86.4285,42.1286,M,M,M,280.00,5.00,M,30.21,M,10.00,M,CLR,M,M,M,M,M,M,M,M,KBEH 012345Z AUTO 28005KT 10SM CLR A3021 RMK MADISHF
BEH,2017-04-01 23:50,-86.4285,42.1286,M,M,M,270.00,5.00,M,30.21,M,10.00,M,CLR,M,M,M,M,M,M,M,M,KBEH 012350Z AUTO 27005KT 10SM CLR A3021 RMK MADISHF
BEH,2017-04-01 23:53,-86.4285,42.1286,42.10,24.10,48.56,270.00,5.00,0.00,30.21,1023.70,10.00,M,CLR,M,M,M,M,M,M,M,M,KBEH 012353Z AUTO 27005KT 10SM CLR 06/M04 A3021 RMK AO2 SLP237 T00561044 10100 20056 51008 $
BEH,2017-04-01 23:55,-86.4285,42.1286,M,M,M,270.00,6.00,M,30.21,M,10.00,M,CLR,M,M,M,M,M,M,M,M,KBEH 012355Z AUTO 27006KT 10SM CLR A3021 RMK MADISHF
