#DEBUG: Format Typ    -> comma
#DEBUG: Time Period   -> 2017-04-01 00:00:00+00:00 2017-04-02 00:00:00+00:00
#DEBUG: Time Zone     -> Etc/UTC
#DEBUG: Data Contact   -> daryl herzmann akrherz@iastate.edu 515-294-5978
#DEBUG: Entries Found -> -1
station,valid,lon,lat,tmpf, dwpf, relh, drct, sknt, p01i, alti, mslp, vsby, gust, skyc1, skyc2, skyc3, skyc4, skyl1, skyl2, skyl3, skyl4, presentwx, metar
BFD,2017-04-01 00:00,-78.6401,41.8031,M,M,M,90.00,3.00,M,29.64,M,9.00,M,OVC,M,M,M,800.00,M,M,M,-RA,KBFD 010000Z AUTO 09003KT 9SM -RA OVC008 A2964 RMK MADISHF
BFD,2017-04-01 00:05,-78.6401,41.8031,M,M,M,0.00,0.00,M,29.64,M,10.00,M,OVC,M,M,M,800.00,M,M,M,-RA,KBFD 010005Z AUTO 00000KT 10SM -RA OVC008 A2964 RMK MADISHF
BFD,2017-04-01 00:10,-78.6401,41.8031,M,M,M,0.00,0.00,0.01,29.64,M,10.00,M,SCT,OVC,M,M,800.00,1200.00,M,M,-RA,KBFD 010010Z AUTO 00000KT 10SM -RA SCT008 OVC012 A2964 RMK P0001 MADISHF
BFD,2017-04-01 00:15,-78.6401,41.8031,M,M,M,0.00,0.00,0.01,29.64,M,9.00,M,FEW,OVC,M,M,700.00,1200.00,M,M,-RA,KBFD 010015Z AUTO 00000KT 9SM -RA FEW007 OVC012 A2964 RMK P0001 MADISHF
BFD,2017-04-01 00:16,-78.6401,41.8031,39.00,37.90,95.78,100.00,3.00,0.01,29.64,M,9.00,M,FEW,OVC,M,M,700.00,1400.00,M,M,-RA,KBFD 010016Z AUTO 10003KT 9SM -RA FEW007 OVC014 04/03 A2964 RMK AO2 P0001 T00390033
BFD,2017-04-01 00:20,-78.6401,41.8031,M,M,M,0.00,0.00,0.02,29.64,M,8.00,M,FEW,OVC,M,M,700.00,1600.00,M,M,-RA,KBFD 010020Z AUTO 00000KT 8SM -RA FEW007 OVC016 A2964 RMK P0002 MADISHF
BFD,2017-04-01 00:25,-78.6401,41.8031,M,M,M,100.00,3.00,0.03,29.64,M,7.00,M,FEW,OVC,M,M,700.00,1600.00,M,M,-RA,KBFD 010025Z AUTO 10003KT 7SM -RA FEW007 OVC016 A2964 RMK P0003 MADISHF
BFD,2017-04-01 00:26,-78.6401,41.8031,39.00,37.90,95.78,0.00,0.00,0.03,29.65,M,7.00,M,FEW,OVC,M,M,700.00,1600.00,M,M,-RA,KBFD 010026Z AUTO 00000KT 7SM -RA FEW007 OVC016 04/03 A2965 RMK AO2 P0003 T00390033
BFD,2017-04-01 00:30,-78.6401,41.8031,M,M,M,0.00,0.00,0.03,29.65,M,7.00,M,OVC,M,M,M,1600.00,M,M,M,-RA,KBFD 010030Z AUTO 00000KT 7SM -RA OVC016 A2965 RMK P0003 MADISHF
BFD,2017-04-01 00:35,-78.6401,41.8031,M,M,M,0.00,0.00,0.04,29.65,M,8.00,M,OVC,M,M,M,1800.00,M,M,M,-RA,KBFD 010035Z AUTO 00000KT 8SM -RA OVC018 A2965 RMK P0004 MADISHF
BFD,2017-04-01 00:40,-78.6401,41.8031,M,M,M,0.00,0.00,0.04,29.65,M,7.00,M,OVC,M,M,M,1800.00,M,M,M,-RA,KBFD 010040Z AUTO 00000KT 7SM -RA OVC018 A2965 RMK P0004 MADISHF
BFD,2017-04-01 00:45,-78.6401,41.8031,M,M,M,0.00,0.00,0.05,29.65,M,7.00,M,OVC,M,M,M,1800.00,M,M,M,-RA,KBFD 010045Z AUTO 00000KT 7SM -RA OVC018 A2965 RMK P0005 MADISHF
BFD,2017-04-01 00:50,-78.6401,41.8031,M,M,M,0.00,0.00,0.06,29.65,M,7.00,M,OVC,M,M,M,1800.00,M,M,M,-RA,KBFD 010050Z AUTO 00000KT 7SM -RA OVC018 A2965 RMK P0006 MADISHF
BFD,2017-04-01 00:53,-78.6401,41.8031,37.90,37.90,100.00,0.00,0.00,0.06,29.65,1005.20,7.00,M,OVC,M,M,M,1800.00,M,M,M,-RA,KBFD 010053Z AUTO 00000KT 7SM -RA OVC018 03/03 A2965 RMK AO2 SLP052 P0006 T00330033
BFD,2017-04-01 00:55,-78.6401,41.8031,M,M,M,0.00,0.00,M,29.65,M,7.00,M,OVC,M,M,M,1800.00,M,M,M,-RA,KBFD 010055Z AUTO 00000KT 7SM -RA OVC018 A2965 RMK MADISHF
BFD,2017-04-01 01:00,-78.6401,41.8031,M,M,M,0.00,0.00,0.01,29.65,M,8.00,M,OVC,M,M,M,1900.00,M,M,M,-RA,KBFD 010100Z AUTO 00000KT 8SM -RA OVC019 A2965 RMK P0001 MADISHF
BFD,2017-04-01 01:05,-78.6401,41.8031,M,M,M,0.00,0.00,0.01,29.66,M,9.00,M,OVC,M,M,M,1900.00,M,M,M,-RA,KBFD 010105Z AUTO 00000KT 9SM -RA OVC019 A2966 RMK P0001 MADISHF
BFD,2017-04-01 01:10,-78.6401,41.8031,M,M,M,0.00,0.00,0.01,29.66,M,9.00,M,OVC,M,M,M,1900.00,M,M,M,-RA,KBFD 010110Z AUTO 00000KT 9SM -RA OVC019 A2966 RMK P0001 MADISHF
BFD,2017-04-01 01:15,-78.6401,41.8031,M,M,M,0.00,0.00,0.02,29.66,M,9.00,M,FEW,OVC,M,M,400.00,1800.00,M,M,-RA,KBFD 010115Z AUTO 00000KT 9SM -RA FEW004 OVC018 A2966 RMK P0002 MADISHF
BFD,2017-04-01 01:19,-78.6401,41.8031,37.90,37.90,100.00,0.00,0.00,0.02,29.66,M,9.00,M,FEW,OVC,M,M,400.00,1800.00,M,M,-RA,KBFD 010119Z AUTO 00000KT 9SM -RA FEW004 OVC018 03/03 A2966 RMK AO2 P0002 T00330033
BFD,2017-04-01 01:20,-78.6401,41.8031,M,M,M,0.00,0.00,0.02,29.66,M,9.00,M,FEW,OVC,M,M,400.00,1800.00,M,M,-RA,KBFD 010120Z AUTO 00000KT 9SM -RA FEW004 OVC018 A2966 RMK P0002 MADISHF
BFD,2017-04-01 01:25,-78.6401,41.8031,M,M,M,0.00,0.00,0.03,29.66,M,8.00,M,FEW,OVC,M,M,400.00,1600.00,M,M,-RA,KBFD 010125Z AUTO 00000KT 8SM -RA FEW004 OVC016 A2966 RMK P0003 MADISHF
BFD,2017-04-01 01:30,-78.6401,41.8031,M,M,M,0.00,0.00,0.03,29.66,M,8.00,M,SCT,OVC,M,M,400.00,1400.00,M,M,-RA,KBFD 010130Z AUTO 00000KT 8SM -RA SCT004 OVC014 A2966 RMK P0003 MADISHF
BFD,2017-04-01 01:32,-78.6401,41.8031,37.90,37.90,100.00,0.00,0.00,0.03,29.66,M,9.00,M,SCT,OVC,M,M,400.00,1400.00,M,M,-RA,KBFD 010132Z AUTO 00000KT 9SM -RA SCT004 OVC014 03/03 A2966 RMK AO2 P0003 T00330033
BFD,2017-04-01 01:35,-78.6401,41.8031,M,M,M,0.00,0.00,0.03,29.67,M,9.00,M,FEW,OVC,M,M,400.00,1400.00,M,M,-RA,KBFD 010135Z AUTO 00000KT 9SM -RA FEW004 OVC014 A2967 RMK P0003 MADISHF
BFD,2017-04-01 01:40,-78.6401,41.8031,M,M,M,0.00,0.00,0.04,29.67,M,9.00,M,FEW,OVC,M,M,400.00,1400.00,M,M,-RA,KBFD 010140Z AUTO 00000KT 9SM -RA FEW004 OVC014 A2967 RMK P0004 MADISHF
BFD,2017-04-01 01:45,-78.6401,41.8031,M,M,M,0.00,0.00,0.04,29.67,M,9.00,M,FEW,OVC,M,M,400.00,1400.00,M,M,-RA,KBFD 010145Z AUTO 00000KT 9SM -RA FEW004 OVC014 A2967 RMK P0004 MADISHF
BFD,2017-04-01 01:50,-78.6401,41.8031,M,M,M,0.00,0.00,0.05,29.67,M,8.00,M,FEW,OVC,M,M,400.00,1400.00,M,M,-RA,KBFD 010150Z AUTO 00000KT 8SM -RA FEW004 OVC014 A2967 RMK P0005 MADISHF
BFD,2017-04-01 01:53,-78.6401,41.8031,37.90,37.90,100.00,0.00,0.00,0.05,29.67,1005.70,8.00,M,FEW,OVC,M,M,400.00,1400.00,M,M,-RA,KBFD 010153Z AUTO 00000KT 8SM -RA FEW004 OVC014 03/03 A2967 RMK AO2 SLP057 P0005 T00330033
BFD,2017-04-01 01:55,-78.6401,41.8031,M,M,M,0.00,0.00,M,29.67,M,8.00,M,OVC,M,M,M,1600.00,M,M,M,-RA,KBFD 010155Z AUTO 00000KT 8SM -RA OVC016 A2967 RMK MADISHF
BFD,2017-04-01 02:00,-78.6401,41.8031,M,M,M,0.00,0.00,M,29.67,M,9.00,M,OVC,M,M,M,1600.00,M,M,M,-RA,KBFD 010200Z AUTO 00000KT 9SM -RA OVC016 A2967 RMK MADISHF
BFD,2017-04-01 02:01,-78.6401,41.8031,37.90,37.90,100.00,0.00,0.00,0.00,29.67,M,10.00,M,OVC,M,M,M,1600.00,M,M,M,-RA,KBFD 010201Z AUTO 00000KT 10SM -RA OVC016 03/03 A2967 RMK AO2 P0000 T00330033
BFD,2017-04-01 02:05,-78.6401,41.8031,M,M,M,0.00,0.00,M,29.67,M,10.00,M,OVC,M,M,M,1800.00,M,M,M,-RA,KBFD 010205Z AUTO 00000KT 10SM -RA OVC018 A2967 RMK MADISHF
BFD,2017-04-01 02:10,-78.6401,41.8031,M,M,M,0.00,0.00,0.01,29.67,M,10.00,M,OVC,M,M,M,1800.00,M,M,M,-RA,KBFD 010210Z AUTO 00000KT 10SM -RA OVC018 A2967 RMK P0001 MADISHF
BFD,2017-04-01 02:15,-78.6401,41.8031,M,M,M,0.00,0.00,0.01,29.67,M,10.00,M,OVC,M,M,M,1800.00,M,M,M,-RA,KBFD 010215Z AUTO 00000KT 10SM -RA OVC018 A2967 RMK P0001 MADISHF
BFD,2017-04-01 02:20,-78.6401,41.8031,M,M,M,0.00,0.00,0.01,29.67,M,10.00,M,OVC,M,M,M,1800.00,M,M,M,-RA,KBFD 010220Z AUTO 00000KT 10SM -RA OVC018 A2967 RMK P0001 MADISHF
BFD,2017-04-01 02:25,-78.6401,41.8031,M,M,M,0.00,0.00,0.01,29.67,M,10.00,M,OVC,M,M,M,1999.00,M,M,M,-RA,KBFD 010225Z AUTO 00000KT 10SM -RA OVC019 A2967 RMK P0001 MADISHF
BFD,2017-04-01 02:30,-78.6401,41.8031,M,M,M,0.00,0.00,0.01,29.67,M,10.00,M,OVC,M,M,M,1999.00,M,M,M,-RA,KBFD 010230Z AUTO 00000KT 10SM -RA OVC019 A2967 RMK P0001 MADISHF
BFD,2017-04-01 02:35,-78.6401,41.8031,M,M,M,0.00,0.00,0.01,29.67,M,10.00,M,OVC,M,M,M,1999.00,M,M,M,-RA,KBFD 010235Z AUTO 00000KT 10SM -RA OVC019 A2967 RMK P0001 MADISHF
BFD,2017-04-01 02:40,-78.6401,41.8031,M,M,M,0.00,0.00,0.02,29.67,M,9.00,M,OVC,M,M,M,1999.00,M,M,M,-RA,KBFD 010240Z AUTO 00000KT 9SM -RA OVC019 A2967 RMK P0002 MADISHF
BFD,2017-04-01 02:45,-78.6401,41.8031,M,M,M,0.00,0.00,0.02,29.67,M,8.00,M,OVC,M,M,M,1999.00,M,M,M,-RA,KBFD 010245Z AUTO 00000KT 8SM -RA OVC019 A2967 RMK P0002 MADISHF
BFD,2017-04-01 02:50,-78.6401,41.8031,M,M,M,0.00,0.00,0.02,29.67,M,8.00,M,OVC,M,M,M,1999.00,M,M,M,-RA,KBFD 010250Z AUTO 00000KT 8SM -RA OVC019 A2967 RMK P0002 MADISHF
BFD,2017-04-01 02:53,-78.6401,41.8031,37.90,37.90,100.00,0.00,0.00,0.02,29.67,1005.70,8.00,M,OVC,M,M,M,1800.00,M,M,M,-RA,KBFD 010253Z AUTO 00000KT 8SM -RA OVC018 03/03 A2967 RMK AO2 SLP057 P0002 60013 T00330033 50009
BFD,2017-04-01 02:55,-78.6401,41.8031,M,M,M,0.00,0.00,0.01,29.67,M,8.00,M,OVC,M,M,M,1800.00,M,M,M,-RA,KBFD 010255Z AUTO 00000KT 8SM -RA OVC018 A2967 RMK P0001 MADISHF
BFD,2017-04-01 03:00,-78.6401,41.8031,M,M,M,0.00,0.00,0.01,29.67,M,9.00,M,OVC,M,M,M,1800.00,M,M,M,-RA,KBFD 010300Z AUTO 00000KT 9SM -RA OVC018 A2967 RMK P0001 MADISHF
BFD,2017-04-01 03:05,-78.6401,41.8031,M,M,M,0.00,0.00,0.01,29.67,M,10.00,M,OVC,M,M,M,1800.00,M,M,M,-RA,KBFD 010305Z AUTO 00000KT 10SM -RA OVC018 A2967 RMK P0001 MADISHF
BFD,2017-04-01 03:10,-78.6401,41.8031,M,M,M,0.00,0.00,0.01,29.67,M,10.00,M,OVC,M,M,M,1699.00,M,M,M,-RA,KBFD 010310Z AUTO 00000KT 10SM -RA OVC016 A2967 RMK P0001 MADISHF
BFD,2017-04-01 03:15,-78.6401,41.8031,M,M,M,0.00,0.00,0.02,29.67,M,10.00,M,OVC,M,M,M,1699.00,M,M,M,-RA,KBFD 010315Z AUTO 00000KT 10SM -RA OVC016 A2967 RMK P0002 MADISHF
BFD,2017-04-01 03:20,-78.6401,41.8031,M,M,M,0.00,0.00,0.02,29.67,M,10.00,M,OVC,M,M,M,1699.00,M,M,M,-RA,KBFD 010320Z AUTO 00000KT 10SM -RA OVC016 A2967 RMK P0002 MADISHF
BFD,2017-04-01 03:25,-78.6401,41.8031,M,M,M,0.00,0.00,0.02,29.67,M,10.00,M,OVC,M,M,M,1699.00,M,M,M,-RA,KBFD 010325Z AUTO 00000KT 10SM -RA OVC016 A2967 RMK P0002 MADISHF
BFD,2017-04-01 03:30,-78.6401,41.8031,M,M,M,0.00,0.00,0.02,29.67,M,9.00,M,OVC,M,M,M,1699.00,M,M,M,-RA,KBFD 010330Z AUTO 00000KT 9SM -RA OVC016 A2967 RMK P0002 MADISHF
BFD,2017-04-01 03:35,-78.6401,41.8031,M,M,M,0.00,0.00,0.03,29.67,M,9.00,M,OVC,M,M,M,1600.00,M,M,M,-RA,KBFD 010335Z AUTO 00000KT 9SM -RA OVC016 A2967 RMK P0003 MADISHF
BFD,2017-04-01 03:40,-78.6401,41.8031,M,M,M,0.00,0.00,0.03,29.67,M,10.00,M,OVC,M,M,M,1600.00,M,M,M,-RA,KBFD 010340Z AUTO 00000KT 10SM -RA OVC016 A2967 RMK P0003 MADISHF
BFD,2017-04-01 03:45,-78.6401,41.8031,M,M,M,0.00,0.00,0.03,29.67,M,10.00,M,OVC,M,M,M,1600.00,M,M,M,-RA,KBFD 010345Z AUTO 00000KT 10SM -RA OVC016 A2967 RMK P0003 MADISHF
BFD,2017-04-01 03:50,-78.6401,41.8031,M,M,M,0.00,0.00,0.03,29.67,M,10.00,M,OVC,M,M,M,1500.00,M,M,M,-RA,KBFD 010350Z AUTO 00000KT 10SM -RA OVC015 A2967 RMK P0003 MADISHF
BFD,2017-04-01 03:53,-78.6401,41.8031,37.90,37.90,100.00,0.00,0.00,0.03,29.68,1005.90,10.00,M,OVC,M,M,M,1500.00,M,M,M,-RA,KBFD 010353Z AUTO 00000KT 10SM -RA OVC015 03/03 A2968 RMK AO2 SLP059 P0003 T00330033
BFD,2017-04-01 03:55,-78.6401,41.8031,M,M,M,0.00,0.00,M,29.68,M,10.00,M,OVC,M,M,M,1500.00,M,M,M,-RA,KBFD 010355Z AUTO 00000KT 10SM -RA OVC015 A2968 RMK MADISHF
BFD,2017-04-01 04:00,-78.6401,41.8031,M,M,M,0.00,0.00,M,29.68,M,10.00,M,OVC,M,M,M,1500.00,M,M,M,-RA,KBFD 010400Z AUTO 00000KT 10SM -RA OVC015 A2968 RMK MADISHF
BFD,2017-04-01 04:05,-78.6401,41.8031,M,M,M,0.00,0.00,M,29.68,M,10.00,M,OVC,M,M,M,1500.00,M,M,M,-RA,KBFD 010405Z AUTO 00000KT 10SM -RA OVC015 A2968 RMK MADISHF
BFD,2017-04-01 04:10,-78.6401,41.8031,M,M,M,0.00,0.00,0.01,29.68,M,9.00,M,OVC,M,M,M,1400.00,M,M,M,-RA,KBFD 010410Z AUTO 00000KT 9SM -RA OVC014 A2968 RMK P0001 MADISHF
BFD,2017-04-01 04:15,-78.6401,41.8031,M,M,M,0.00,0.00,0.01,29.68,M,9.00,M,OVC,M,M,M,1400.00,M,M,M,-RA,KBFD 010415Z AUTO 00000KT 9SM -RA OVC014 A2968 RMK P0001 MADISHF
BFD,2017-04-01 04:16,-78.6401,41.8031,37.90,37.90,100.00,0.00,0.00,0.01,29.68,M,9.00,M,OVC,M,M,M,1400.00,M,M,M,-RA,KBFD 010416Z AUTO 00000KT 9SM -RA OVC014 03/03 A2968 RMK AO2 P0001 T00330033
BFD,2017-04-01 04:20,-78.6401,41.8031,M,M,M,0.00,0.00,0.01,29.68,M,10.00,M,OVC,M,M,M,1200.00,M,M,M,-RA,KBFD 010420Z AUTO 00000KT 10SM -RA OVC012 A2968 RMK P0001 MADISHF
BFD,2017-04-01 04:25,-78.6401,41.8031,M,M,M,0.00,0.00,0.01,29.68,M,10.00,M,OVC,M,M,M,1200.00,M,M,M,-RA,KBFD 010425Z AUTO 00000KT 10SM -RA OVC012 A2968 RMK P0001 MADISHF
BFD,2017-04-01 04:30,-78.6401,41.8031,M,M,M,0.00,0.00,0.01,29.68,M,10.00,M,FEW,OVC,M,M,499.00,1200.00,M,M,-RA,KBFD 010430Z AUTO 00000KT 10SM -RA FEW004 OVC012 A2968 RMK P0001 MADISHF
BFD,2017-04-01 04:32,-78.6401,41.8031,37.90,37.90,100.00,0.00,0.00,0.01,29.68,M,10.00,M,FEW,OVC,M,M,500.00,1200.00,M,M,-RA,KBFD 010432Z AUTO 00000KT 10SM -RA FEW005 OVC012 03/03 A2968 RMK AO2 P0001 T00330033
BFD,2017-04-01 04:35,-78.6401,41.8031,M,M,M,0.00,0.00,0.01,29.68,M,10.00,M,OVC,M,M,M,1200.00,M,M,M,-RA,KBFD 010435Z AUTO 00000KT 10SM -RA OVC012 A2968 RMK P0001 MADISHF
BFD,2017-04-01 04:40,-78.6401,41.8031,M,M,M,0.00,0.00,0.01,29.68,M,9.00,M,FEW,OVC,M,M,600.00,1100.00,M,M,-RA,KBFD 010440Z AUTO 00000KT 9SM -RA FEW006 OVC011 A2968 RMK P0001 MADISHF
BFD,2017-04-01 04:45,-78.6401,41.8031,M,M,M,0.00,0.00,0.01,29.69,M,8.00,M,SCT,OVC,M,M,400.00,1100.00,M,M,-RA,KBFD 010445Z AUTO 00000KT 8SM -RA SCT004 OVC011 A2969 RMK P0001 MADISHF
BFD,2017-04-01 04:50,-78.6401,41.8031,M,M,M,0.00,0.00,0.02,29.69,M,6.00,M,SCT,OVC,M,M,400.00,900.00,M,M,-RA BR,KBFD 010450Z AUTO 00000KT 6SM -RA BR SCT004 OVC009 A2969 RMK P0002 MADISHF
BFD,2017-04-01 04:53,-78.6401,41.8031,37.90,37.90,100.00,0.00,0.00,0.02,29.69,1006.30,6.00,M,BKN,OVC,M,M,400.00,900.00,M,M,-RA BR,KBFD 010453Z AUTO 00000KT 6SM -RA BR BKN004 OVC009 03/03 A2969 RMK AO2 SLP063 P0002 T00330033 400500022
BFD,2017-04-01 04:55,-78.6401,41.8031,M,M,M,290.00,3.00,M,29.69,M,6.00,M,SCT,OVC,M,M,400.00,900.00,M,M,-RA BR,KBFD 010455Z AUTO 29003KT 6SM -RA BR SCT004 OVC009 A2969 RMK MADISHF
BFD,2017-04-01 05:00,-78.6401,41.8031,M,M,M,290.00,3.00,M,29.69,M,7.00,M,SCT,OVC,M,M,400.00,900.00,M,M,-RA,KBFD 010500Z AUTO 29003KT 7SM -RA SCT004 OVC009 A2969 RMK MADISHF
BFD,2017-04-01 05:01,-78.6401,41.8031,37.90,37.90,100.00,290.00,3.00,0.00,29.69,M,6.00,M,SCT,OVC,M,M,400.00,900.00,M,M,-RA BR,KBFD 010501Z AUTO 29003KT 6SM -RA BR SCT004 OVC009 03/03 A2969 RMK AO2 P0000 T00330033
BFD,2017-04-01 05:05,-78.6401,41.8031,M,M,M,280.00,3.00,M,29.69,M,4.00,M,SCT,OVC,M,M,400.00,900.00,M,M,-RA BR,KBFD 010505Z AUTO 28003KT 4SM -RA BR SCT004 OVC009 A2969 RMK MADISHF
BFD,2017-04-01 05:10,-78.6401,41.8031,M,M,M,0.00,0.00,M,29.69,M,2.50,M,SCT,OVC,M,M,300.00,600.00,M,M,-RA BR,KBFD 010510Z AUTO 00000KT 2 1/2SM -RA BR SCT003 OVC006 A2969 RMK MADISHF
BFD,2017-04-01 05:15,-78.6401,41.8031,37.90,37.90,100.00,280.00,3.00,0.00,29.69,M,2.00,M,OVC,M,M,M,600.00,M,M,M,-RA BR,KBFD 010515Z AUTO 28003KT 2SM -RA BR OVC006 03/03 A2969 RMK AO2 P0000 T00330033
BFD,2017-04-01 05:20,-78.6401,41.8031,M,M,M,0.00,0.00,M,29.70,M,2.00,M,OVC,M,M,M,600.00,M,M,M,-RA BR,KBFD 010520Z AUTO 00000KT 2SM -RA BR OVC006 A2970 RMK MADISHF
BFD,2017-04-01 05:25,-78.6401,41.8031,M,M,M,280.00,3.00,0.01,29.70,M,2.00,M,FEW,OVC,M,M,300.00,800.00,M,M,-RA BR,KBFD 010525Z AUTO 28003KT 2SM -RA BR FEW003 OVC008 A2970 RMK P0001 MADISHF
BFD,2017-04-01 05:30,-78.6401,41.8031,M,M,M,280.00,3.00,0.01,29.70,M,2.00,M,FEW,OVC,M,M,300.00,800.00,M,M,-RA BR,KBFD 010530Z AUTO 28003KT 2SM -RA BR FEW003 OVC008 A2970 RMK P0001 MADISHF
BFD,2017-04-01 05:35,-78.6401,41.8031,M,M,M,280.00,3.00,0.01,29.70,M,2.00,M,OVC,M,M,M,800.00,M,M,M,-RA BR,KBFD 010535Z AUTO 28003KT 2SM -RA BR OVC008 A2970 RMK P0001 MADISHF
BFD,2017-04-01 05:40,-78.6401,41.8031,M,M,M,290.00,3.00,0.01,29.70,M,2.00,M,OVC,M,M,M,800.00,M,M,M,-RA BR,KBFD 010540Z AUTO 29003KT 2SM -RA BR OVC008 A2970 RMK P0001 MADISHF
BFD,2017-04-01 05:45,-78.6401,41.8031,M,M,M,280.00,3.00,0.01,29.70,M,2.50,M,BKN,OVC,M,M,1200.00,3200.00,M,M,-RA BR,KBFD 010545Z AUTO 28003KT 2 1/2SM -RA BR BKN012 OVC032 A2970 RMK P0001 MADISHF
BFD,2017-04-01 05:48,-78.6401,41.8031,37.40,37.40,100.00,280.00,3.00,0.01,29.70,M,2.50,M,BKN,OVC,M,M,1400.00,3200.00,M,M,-RA BR,KBFD 010548Z AUTO 28003KT 2 1/2SM -RA BR BKN014 OVC032 03/03 A2970 RMK AO2 P0001
BFD,2017-04-01 05:50,-78.6401,41.8031,M,M,M,270.00,3.00,0.01,29.70,M,3.00,M,BKN,OVC,M,M,1600.00,2700.00,M,M,-RA BR,KBFD 010550Z AUTO 27003KT 3SM -RA BR BKN016 OVC027 A2970 RMK P0001 MADISHF
BFD,2017-04-01 05:53,-78.6401,41.8031,37.90,37.90,100.00,280.00,3.00,0.01,29.70,1006.70,3.00,M,BKN,OVC,M,M,1600.00,2700.00,M,M,-RA BR,KBFD 010553Z AUTO 28003KT 3SM -RA BR BKN016 OVC027 03/03 A2970 RMK AO2 SLP067 P0001 60019 T00330033 10039 20033 51008
BFD,2017-04-01 05:55,-78.6401,41.8031,M,M,M,280.00,3.00,M,29.70,M,3.00,M,BKN,OVC,M,M,1600.00,2500.00,M,M,-RA BR,KBFD 010555Z AUTO 28003KT 3SM -RA BR BKN016 OVC025 A2970 RMK MADISHF
BFD,2017-04-01 06:00,-78.6401,41.8031,M,M,M,280.00,3.00,M,29.70,M,4.00,M,BKN,OVC,M,M,1600.00,2500.00,M,M,-RA BR,KBFD 010600Z AUTO 28003KT 4SM -RA BR BKN016 OVC025 A2970 RMK MADISHF
BFD,2017-04-01 06:05,-78.6401,41.8031,M,M,M,280.00,3.00,M,29.70,M,4.00,M,BKN,OVC,M,M,1600.00,2500.00,M,M,-RA BR,KBFD 010605Z AUTO 28003KT 4SM -RA BR BKN016 OVC025 A2970 RMK MADISHF
BFD,2017-04-01 06:10,-78.6401,41.8031,M,M,M,280.00,4.00,M,29.70,M,5.00,M,BKN,OVC,M,M,1600.00,2500.00,M,M,-RA BR,KBFD 010610Z AUTO 28004KT 5SM -RA BR BKN016 OVC025 A2970 RMK MADISHF
BFD,2017-04-01 06:15,-78.6401,41.8031,M,M,M,270.00,4.00,M,29.70,M,6.00,M,BKN,OVC,M,M,1400.00,1900.00,M,M,-RA BR,KBFD 010615Z AUTO 27004KT 6SM -RA BR BKN014 OVC019 A2970 RMK MADISHF
BFD,2017-04-01 06:17,-78.6401,41.8031,37.90,37.90,100.00,270.00,5.00,0.00,29.70,M,6.00,M,BKN,BKN,OVC,M,1200.00,1900.00,2600.00,M,-RA BR,KBFD 010617Z AUTO 27005KT 6SM -RA BR BKN012 BKN019 OVC026 03/03 A2970 RMK AO2 P0000 T00330033
BFD,2017-04-01 06:20,-78.6401,41.8031,M,M,M,270.00,5.00,M,29.70,M,7.00,M,BKN,OVC,M,M,1200.00,1900.00,M,M,-RA,KBFD 010620Z AUTO 27005KT 7SM -RA BKN012 OVC019 A2970 RMK MADISHF
BFD,2017-04-01 06:25,-78.6401,41.8031,M,M,M,270.00,5.00,M,29.70,M,8.00,M,FEW,BKN,OVC,M,300.00,1200.00,1900.00,M,M,KBFD 010625Z AUTO 27005KT 8SM FEW003 BKN012 OVC019 A2970 RMK MADISHF
BFD,2017-04-01 06:27,-78.6401,41.8031,39.00,37.90,95.78,280.00,4.00,0.00,29.71,M,7.00,M,FEW,BKN,OVC,M,300.00,1200.00,1900.00,M,M,KBFD 010627Z AUTO 28004KT 7SM FEW003 BKN012 OVC019 04/03 A2971 RMK AO2 RAE23 P0000 T00390033
BFD,2017-04-01 06:30,-78.6401,41.8031,M,M,M,270.00,5.00,M,29.71,M,7.00,M,FEW,OVC,M,M,300.00,1200.00,M,M,M,KBFD 010630Z AUTO 27005KT 7SM FEW003 OVC012 A2971 RMK MADISHF
BFD,2017-04-01 06:35,-78.6401,41.8031,M,M,M,280.00,4.00,M,29.71,M,5.00,M,FEW,BKN,OVC,M,300.00,999.00,1500.00,M,BR,KBFD 010635Z AUTO 28004KT 5SM BR FEW003 BKN009 OVC015 A2971 RMK MADISHF
BFD,2017-04-01 06:40,-78.6401,41.8031,M,M,M,280.00,4.00,M,29.71,M,4.00,M,SCT,BKN,OVC,M,300.00,800.00,1500.00,M,BR,KBFD 010640Z AUTO 28004KT 4SM BR SCT003 BKN008 OVC015 A2971 RMK MADISHF
BFD,2017-04-01 06:45,-78.6401,41.8031,39.00,39.00,100.00,290.00,5.00,0.00,29.71,M,5.00,M,BKN,BKN,OVC,M,300.00,800.00,1500.00,M,BR,KBFD 010645Z AUTO 29005KT 5SM BR BKN003 BKN008 OVC015 04/04 A2971 RMK AO2 RAE23 P0000 T00390039
BFD,2017-04-01 06:50,-78.6401,41.8031,M,M,M,290.00,5.00,M,29.71,M,5.00,M,BKN,OVC,M,M,300.00,800.00,M,M,BR,KBFD 010650Z AUTO 29005KT 5SM BR BKN003 OVC008 A2971 RMK MADISHF
BFD,2017-04-01 06:53,-78.6401,41.8031,39.00,39.00,100.00,290.00,4.00,0.00,29.71,1007.10,5.00,M,BKN,OVC,M,M,300.00,800.00,M,M,BR,KBFD 010653Z AUTO 29004KT 5SM BR BKN003 OVC008 04/04 A2971 RMK AO2 RAE23 SLP071 P0000 T00390039
BFD,2017-04-01 06:55,-78.6401,41.8031,M,M,M,290.00,6.00,M,29.71,M,4.00,M,OVC,M,M,M,300.00,M,M,M,BR,KBFD 010655Z AUTO 29006KT 4SM BR OVC003 A2971 RMK MADISHF
BFD,2017-04-01 07:00,-78.6401,41.8031,M,M,M,280.00,5.00,M,29.71,M,4.00,M,OVC,M,M,M,300.00,M,M,M,BR,KBFD 010700Z AUTO 28005KT 4SM BR OVC003 A2971 RMK MADISHF
BFD,2017-04-01 07:05,-78.6401,41.8031,M,M,M,290.00,6.00,M,29.71,M,3.50,M,OVC,M,M,M,300.00,M,M,M,BR,KBFD 010705Z AUTO 29006KT 3SM BR OVC003 A2971 RMK MADISHF
BFD,2017-04-01 07:10,-78.6401,41.8031,M,M,M,290.00,6.00,M,29.72,M,3.50,M,OVC,M,M,M,300.00,M,M,M,BR,KBFD 010710Z AUTO 29006KT 3SM BR OVC003 A2972 RMK MADISHF
BFD,2017-04-01 07:15,-78.6401,41.8031,M,M,M,300.00,8.00,M,29.72,M,4.00,M,OVC,M,M,M,300.00,M,M,M,BR,KBFD 010715Z AUTO 30008KT 4SM BR OVC003 A2972 RMK MADISHF
BFD,2017-04-01 07:20,-78.6401,41.8031,M,M,M,290.00,8.00,M,29.72,M,4.00,M,OVC,M,M,M,300.00,M,M,M,BR,KBFD 010720Z AUTO 29008KT 4SM BR OVC003 A2972 RMK MADISHF
BFD,2017-04-01 07:25,-78.6401,41.8031,M,M,M,290.00,8.00,M,29.72,M,5.00,M,OVC,M,M,M,300.00,M,M,M,BR,KBFD 010725Z AUTO 29008KT 5SM BR OVC003 A2972 RMK MADISHF
BFD,2017-04-01 07:30,-78.6401,41.8031,M,M,M,290.00,6.00,M,29.72,M,5.00,M,OVC,M,M,M,300.00,M,M,M,BR,KBFD 010730Z AUTO 29006KT 5SM BR OVC003 A2972 RMK MADISHF
BFD,2017-04-01 07:35,-78.6401,41.8031,M,M,M,290.00,8.00,M,29.73,M,5.00,M,OVC,M,M,M,400.00,M,M,M,BR,KBFD 010735Z AUTO 29008KT 5SM BR OVC004 A2973 RMK MADISHF
BFD,2017-04-01 07:40,-78.6401,41.8031,M,M,M,290.00,7.00,M,29.73,M,5.00,M,OVC,M,M,M,400.00,M,M,M,-RA BR,KBFD 010740Z AUTO 29007KT 5SM -RA BR OVC004 A2973 RMK MADISHF
BFD,2017-04-01 07:45,-78.6401,41.8031,M,M,M,300.00,7.00,M,29.73,M,4.00,M,OVC,M,M,M,400.00,M,M,M,-RA BR,KBFD 010745Z AUTO 30007KT 4SM -RA BR OVC004 A2973 RMK MADISHF
BFD,2017-04-01 07:50,-78.6401,41.8031,M,M,M,280.00,7.00,M,29.73,M,4.00,M,OVC,M,M,M,400.00,M,M,M,-RA BR,KBFD 010750Z AUTO 28007KT 4SM -RA BR OVC004 A2973 RMK MADISHF
BFD,2017-04-01 07:53,-78.6401,41.8031,37.90,37.90,100.00,280.00,6.00,0.00,29.73,1007.90,4.00,M,OVC,M,M,M,400.00,M,M,M,-RA BR,KBFD 010753Z AUTO 28006KT 4SM -RA BR OVC004 03/03 A2973 RMK AO2 RAB39 SLP079 P0000 T00330033
BFD,2017-04-01 07:55,-78.6401,41.8031,M,M,M,270.00,7.00,M,29.73,M,5.00,M,OVC,M,M,M,400.00,M,M,M,-RA BR,KBFD 010755Z AUTO 27007KT 5SM -RA BR OVC004 A2973 RMK MADISHF
BFD,2017-04-01 08:00,-78.6401,41.8031,M,M,M,280.00,6.00,M,29.74,M,6.00,M,OVC,M,M,M,400.00,M,M,M,BR,KBFD 010800Z AUTO 28006KT 6SM BR OVC004 A2974 RMK MADISHF
BFD,2017-04-01 08:05,-78.6401,41.8031,M,M,M,280.00,9.00,M,29.74,M,6.00,14.00,OVC,M,M,M,400.00,M,M,M,BR,KBFD 010805Z AUTO 28009G14KT 6SM BR OVC004 A2974 RMK MADISHF
BFD,2017-04-01 08:10,-78.6401,41.8031,M,M,M,290.00,7.00,M,29.74,M,6.00,M,OVC,M,M,M,400.00,M,M,M,BR,KBFD 010810Z AUTO 29007KT 6SM BR OVC004 A2974 RMK MADISHF
BFD,2017-04-01 08:15,-78.6401,41.8031,M,M,M,290.00,6.00,M,29.75,M,6.00,M,OVC,M,M,M,300.00,M,M,M,BR,KBFD 010815Z AUTO 29006KT 6SM BR OVC003 A2975 RMK MADISHF
BFD,2017-04-01 08:20,-78.6401,41.8031,M,M,M,300.00,6.00,M,29.75,M,7.00,M,OVC,M,M,M,300.00,M,M,M,M,KBFD 010820Z AUTO 30006KT 7SM OVC003 A2975 RMK MADISHF
BFD,2017-04-01 08:25,-78.6401,41.8031,M,M,M,300.00,7.00,M,29.75,M,8.00,M,OVC,M,M,M,300.00,M,M,M,M,KBFD 010825Z AUTO 30007KT 8SM OVC003 A2975 RMK MADISHF
BFD,2017-04-01 08:30,-78.6401,41.8031,M,M,M,300.00,6.00,M,29.75,M,10.00,M,OVC,M,M,M,300.00,M,M,M,M,KBFD 010830Z AUTO 30006KT 10SM OVC003 A2975 RMK MADISHF
BFD,2017-04-01 08:35,-78.6401,41.8031,M,M,M,290.00,6.00,M,29.76,M,10.00,M,OVC,M,M,M,300.00,M,M,M,M,KBFD 010835Z AUTO 29006KT 10SM OVC003 A2976 RMK MADISHF
BFD,2017-04-01 08:40,-78.6401,41.8031,M,M,M,300.00,8.00,M,29.76,M,10.00,M,OVC,M,M,M,400.00,M,M,M,M,KBFD 010840Z AUTO 30008KT 10SM OVC004 A2976 RMK MADISHF
BFD,2017-04-01 08:45,-78.6401,41.8031,M,M,M,300.00,6.00,M,29.76,M,10.00,M,OVC,M,M,M,400.00,M,M,M,M,KBFD 010845Z AUTO 30006KT 10SM OVC004 A2976 RMK MADISHF
BFD,2017-04-01 08:50,-78.6401,41.8031,M,M,M,290.00,7.00,M,29.76,M,10.00,M,OVC,M,M,M,400.00,M,M,M,M,KBFD 010850Z AUTO 29007KT 10SM OVC004 A2976 RMK MADISHF
BFD,2017-04-01 08:53,-78.6401,41.8031,36.00,36.00,100.00,300.00,7.00,0.00,29.77,1009.10,10.00,M,OVC,M,M,M,400.00,M,M,M,M,KBFD 010853Z AUTO 30007KT 10SM OVC004 02/02 A2977 RMK AO2 RAE0756 SLP091 P0000 60000 T00220022 53021
BFD,2017-04-01 08:55,-78.6401,41.8031,M,M,M,300.00,7.00,M,29.77,M,10.00,M,OVC,M,M,M,400.00,M,M,M,M,KBFD 010855Z AUTO 30007KT 10SM OVC004 A2977 RMK MADISHF
BFD,2017-04-01 09:00,-78.6401,41.8031,M,M,M,290.00,7.00,M,29.77,M,9.00,M,OVC,M,M,M,400.00,M,M,M,M,KBFD 010900Z AUTO 29007KT 9SM OVC004 A2977 RMK MADISHF
BFD,2017-04-01 09:05,-78.6401,41.8031,M,M,M,280.00,8.00,M,29.77,M,9.00,M,OVC,M,M,M,400.00,M,M,M,M,KBFD 010905Z AUTO 28008KT 9SM OVC004 A2977 RMK MADISHF
BFD,2017-04-01 09:10,-78.6401,41.8031,M,M,M,280.00,8.00,M,29.77,M,10.00,M,OVC,M,M,M,300.00,M,M,M,M,KBFD 010910Z AUTO 28008KT 10SM OVC003 A2977 RMK MADISHF
BFD,2017-04-01 09:15,-78.6401,41.8031,M,M,M,310.00,8.00,M,29.78,M,10.00,M,OVC,M,M,M,300.00,M,M,M,M,KBFD 010915Z AUTO 31008KT 10SM OVC003 A2978 RMK MADISHF
BFD,2017-04-01 09:20,-78.6401,41.8031,M,M,M,310.00,11.00,M,29.78,M,7.00,M,OVC,M,M,M,300.00,M,M,M,M,KBFD 010920Z AUTO 31011KT 7SM OVC003 A2978 RMK MADISHF
BFD,2017-04-01 09:25,-78.6401,41.8031,M,M,M,300.00,10.00,M,29.78,M,5.00,M,OVC,M,M,M,300.00,M,M,M,BR,KBFD 010925Z AUTO 30010KT 5SM BR OVC003 A2978 RMK MADISHF
BFD,2017-04-01 09:30,-78.6401,41.8031,M,M,M,320.00,11.00,M,29.79,M,3.00,M,OVC,M,M,M,300.00,M,M,M,BR,KBFD 010930Z AUTO 32011KT 3SM BR OVC003 A2979 RMK MADISHF
BFD,2017-04-01 09:35,-78.6401,41.8031,M,M,M,310.00,9.00,M,29.79,M,2.00,M,OVC,M,M,M,300.00,M,M,M,BR,KBFD 010935Z AUTO 31009KT 2SM BR OVC003 A2979 RMK MADISHF
BFD,2017-04-01 09:38,-78.6401,41.8031,34.00,34.00,100.00,310.00,10.00,0.00,29.79,M,2.00,M,OVC,M,M,M,300.00,M,M,M,BR,KBFD 010938Z AUTO 31010KT 2SM BR OVC003 01/01 A2979 RMK AO2 T00110011
BFD,2017-04-01 09:40,-78.6401,41.8031,34.00,34.00,100.00,310.00,9.00,0.00,29.80,M,1.75,M,OVC,M,M,M,200.00,M,M,M,BR,KBFD 010940Z AUTO 31009KT 1 3/4SM BR OVC002 01/01 A2980 RMK AO2 T00110011
BFD,2017-04-01 09:45,-78.6401,41.8031,M,M,M,330.00,9.00,M,29.80,M,2.00,M,OVC,M,M,M,200.00,M,M,M,BR,KBFD 010945Z AUTO 33009KT 2SM BR OVC002 A2980 RMK MADISHF
BFD,2017-04-01 09:50,-78.6401,41.8031,M,M,M,310.00,10.00,M,29.80,M,2.50,M,OVC,M,M,M,200.00,M,M,M,BR,KBFD 010950Z AUTO 31010KT 2 1/2SM BR OVC002 A2980 RMK MADISHF
BFD,2017-04-01 09:53,-78.6401,41.8031,34.00,34.00,100.00,300.00,9.00,0.00,29.80,1010.50,2.50,M,OVC,M,M,M,200.00,M,M,M,BR,KBFD 010953Z AUTO 30009KT 2 1/2SM BR OVC002 01/01 A2980 RMK AO2 VIS 2 1/2V4 SLP105 T00110011
BFD,2017-04-01 09:55,-78.6401,41.8031,M,M,M,310.00,9.00,M,29.80,M,3.00,14.00,OVC,M,M,M,200.00,M,M,M,BR,KBFD 010955Z AUTO 31009G14KT 3SM BR OVC002 A2980 RMK MADISHF
BFD,2017-04-01 10:00,-78.6401,41.8031,34.00,34.00,100.00,310.00,10.00,0.00,29.81,M,3.00,M,OVC,M,M,M,200.00,M,M,M,BR,KBFD 011000Z AUTO 31010KT 3SM BR OVC002 01/01 A2981 RMK AO2 T00110011
BFD,2017-04-01 10:05,-78.6401,41.8031,M,M,M,310.00,8.00,M,29.81,M,4.00,M,OVC,M,M,M,200.00,M,M,M,BR,KBFD 011005Z AUTO 31008KT 4SM BR OVC002 A2981 RMK MADISHF
BFD,2017-04-01 10:10,-78.6401,41.8031,M,M,M,310.00,9.00,M,29.82,M,5.00,M,OVC,M,M,M,200.00,M,M,M,BR,KBFD 011010Z AUTO 31009KT 5SM BR OVC002 A2982 RMK MADISHF
BFD,2017-04-01 10:15,-78.6401,41.8031,M,M,M,310.00,7.00,M,29.82,M,6.00,M,OVC,M,M,M,200.00,M,M,M,BR,KBFD 011015Z AUTO 31007KT 6SM BR OVC002 A2982 RMK MADISHF
BFD,2017-04-01 10:20,-78.6401,41.8031,M,M,M,310.00,10.00,M,29.82,M,6.00,M,OVC,M,M,M,200.00,M,M,M,BR,KBFD 011020Z AUTO 31010KT 6SM BR OVC002 A2982 RMK MADISHF
BFD,2017-04-01 10:25,-78.6401,41.8031,M,M,M,310.00,8.00,M,29.82,M,5.00,M,OVC,M,M,M,200.00,M,M,M,BR,KBFD 011025Z AUTO 31008KT 5SM BR OVC002 A2982 RMK MADISHF
BFD,2017-04-01 10:30,-78.6401,41.8031,M,M,M,300.00,8.00,M,29.82,M,5.00,M,OVC,M,M,M,300.00,M,M,M,BR,KBFD 011030Z AUTO 30008KT 5SM BR OVC003 A2982 RMK MADISHF
BFD,2017-04-01 10:35,-78.6401,41.8031,34.00,34.00,100.00,300.00,10.00,0.00,29.83,M,5.00,M,OVC,M,M,M,300.00,M,M,M,BR,KBFD 011035Z AUTO 30010KT 5SM BR OVC003 01/01 A2983 RMK AO2 T00110011
BFD,2017-04-01 10:40,-78.6401,41.8031,M,M,M,330.00,11.00,M,29.83,M,5.00,M,OVC,M,M,M,300.00,M,M,M,BR,KBFD 011040Z AUTO 33011KT 5SM BR OVC003 A2983 RMK MADISHF
BFD,2017-04-01 10:45,-78.6401,41.8031,M,M,M,310.00,11.00,M,29.83,M,7.00,17.00,OVC,M,M,M,300.00,M,M,M,M,KBFD 011045Z AUTO 31011G17KT 7SM OVC003 A2983 RMK MADISHF
BFD,2017-04-01 10:50,-78.6401,41.8031,M,M,M,330.00,11.00,M,29.84,M,7.00,M,OVC,M,M,M,300.00,M,M,M,M,KBFD 011050Z AUTO 33011KT 7SM OVC003 A2984 RMK MADISHF
BFD,2017-04-01 10:53,-78.6401,41.8031,34.00,34.00,100.00,330.00,11.00,0.00,29.84,1011.70,7.00,M,OVC,M,M,M,300.00,M,M,M,M,KBFD 011053Z AUTO 33011KT 7SM OVC003 01/01 A2984 RMK AO2 SLP117 T00110011
BFD,2017-04-01 10:55,-78.6401,41.8031,M,M,M,330.00,8.00,M,29.84,M,6.00,M,OVC,M,M,M,400.00,M,M,M,BR,KBFD 011055Z AUTO 33008KT 6SM BR OVC004 A2984 RMK MADISHF
BFD,2017-04-01 11:00,-78.6401,41.8031,M,M,M,320.00,9.00,M,29.85,M,7.00,M,OVC,M,M,M,400.00,M,M,M,M,KBFD 011100Z AUTO 32009KT 7SM OVC004 A2985 RMK MADISHF
BFD,2017-04-01 11:05,-78.6401,41.8031,M,M,M,320.00,11.00,M,29.85,M,8.00,M,OVC,M,M,M,400.00,M,M,M,M,KBFD 011105Z AUTO 32011KT 8SM OVC004 A2985 RMK MADISHF
BFD,2017-04-01 11:10,-78.6401,41.8031,M,M,M,330.00,7.00,M,29.85,M,8.00,M,OVC,M,M,M,400.00,M,M,M,M,KBFD 011110Z AUTO 33007KT 8SM OVC004 A2985 RMK MADISHF
BFD,2017-04-01 11:15,-78.6401,41.8031,M,M,M,340.00,8.00,M,29.85,M,7.00,M,OVC,M,M,M,400.00,M,M,M,M,KBFD 011115Z AUTO 34008KT 7SM OVC004 A2985 RMK MADISHF
BFD,2017-04-01 11:20,-78.6401,41.8031,M,M,M,320.00,7.00,M,29.85,M,7.00,M,OVC,M,M,M,400.00,M,M,M,M,KBFD 011120Z AUTO 32007KT 7SM OVC004 A2985 RMK MADISHF
BFD,2017-04-01 11:25,-78.6401,41.8031,M,M,M,320.00,9.00,M,29.86,M,5.00,M,OVC,M,M,M,400.00,M,M,M,BR,KBFD 011125Z AUTO 32009KT 5SM BR OVC004 A2986 RMK MADISHF
BFD,2017-04-01 11:30,-78.6401,41.8031,M,M,M,330.00,7.00,M,29.86,M,4.00,M,OVC,M,M,M,400.00,M,M,M,BR,KBFD 011130Z AUTO 33007KT 4SM BR OVC004 A2986 RMK MADISHF
BFD,2017-04-01 11:35,-78.6401,41.8031,M,M,M,330.00,6.00,M,29.86,M,4.00,M,OVC,M,M,M,400.00,M,M,M,BR,KBFD 011135Z AUTO 33006KT 4SM BR OVC004 A2986 RMK MADISHF
BFD,2017-04-01 11:40,-78.6401,41.8031,M,M,M,320.00,7.00,M,29.86,M,5.00,M,OVC,M,M,M,400.00,M,M,M,BR,KBFD 011140Z AUTO 32007KT 5SM BR OVC004 A2986 RMK MADISHF
BFD,2017-04-01 11:45,-78.6401,41.8031,M,M,M,330.00,7.00,M,29.87,M,7.00,M,OVC,M,M,M,400.00,M,M,M,M,KBFD 011145Z AUTO 33007KT 7SM OVC004 A2987 RMK MADISHF
BFD,2017-04-01 11:50,-78.6401,41.8031,M,M,M,350.00,6.00,M,29.87,M,8.00,M,OVC,M,M,M,400.00,M,M,M,M,KBFD 011150Z AUTO 35006KT 8SM OVC004 A2987 RMK MADISHF
BFD,2017-04-01 11:53,-78.6401,41.8031,34.00,34.00,100.00,340.00,7.00,0.00,29.87,1012.70,10.00,M,OVC,M,M,M,400.00,M,M,M,M,KBFD 011153Z AUTO 34007KT 10SM OVC004 01/01 A2987 RMK AO2 SLP127 60000 70078 T00110011 10039 20011 51033
BFD,2017-04-01 11:55,-78.6401,41.8031,M,M,M,330.00,8.00,M,29.87,M,10.00,M,OVC,M,M,M,400.00,M,M,M,M,KBFD 011155Z AUTO 33008KT 10SM OVC004 A2987 RMK MADISHF
BFD,2017-04-01 12:00,-78.6401,41.8031,M,M,M,340.00,12.00,M,29.88,M,8.00,M,OVC,M,M,M,400.00,M,M,M,M,KBFD 011200Z AUTO 34012KT 8SM OVC004 A2988 RMK CIG 3V7  MADISHF
BFD,2017-04-01 12:05,-78.6401,41.8031,M,M,M,320.00,10.00,M,29.88,M,8.00,M,OVC,M,M,M,400.00,M,M,M,M,KBFD 011205Z AUTO 32010KT 8SM OVC004 A2988 RMK MADISHF
BFD,2017-04-01 12:10,-78.6401,41.8031,M,M,M,330.00,7.00,M,29.89,M,9.00,M,OVC,M,M,M,400.00,M,M,M,M,KBFD 011210Z AUTO 33007KT 9SM OVC004 A2989 RMK MADISHF
BFD,2017-04-01 12:15,-78.6401,41.8031,M,M,M,300.00,6.00,M,29.89,M,8.00,M,OVC,M,M,M,400.00,M,M,M,M,KBFD 011215Z AUTO 30006KT 8SM OVC004 A2989 RMK MADISHF
BFD,2017-04-01 12:20,-78.6401,41.8031,M,M,M,300.00,10.00,M,29.89,M,7.00,M,OVC,M,M,M,400.00,M,M,M,M,KBFD 011220Z AUTO 30010KT 7SM OVC004 A2989 RMK MADISHF
BFD,2017-04-01 12:25,-78.6401,41.8031,M,M,M,320.00,11.00,M,29.89,M,8.00,M,OVC,M,M,M,400.00,M,M,M,M,KBFD 011225Z AUTO 32011KT 8SM OVC004 A2989 RMK MADISHF
BFD,2017-04-01 12:30,-78.6401,41.8031,M,M,M,320.00,10.00,M,29.89,M,10.00,M,OVC,M,M,M,400.00,M,M,M,M,KBFD 011230Z AUTO 32010KT 10SM OVC004 A2989 RMK MADISHF
BFD,2017-04-01 12:35,-78.6401,41.8031,M,M,M,330.00,10.00,M,29.89,M,10.00,M,OVC,M,M,M,499.00,M,M,M,M,KBFD 011235Z AUTO 33010KT 10SM OVC004 A2989 RMK MADISHF
BFD,2017-04-01 12:37,-78.6401,41.8031,34.00,33.10,96.46,330.00,10.00,0.00,29.90,M,10.00,M,OVC,M,M,M,500.00,M,M,M,M,KBFD 011237Z AUTO 33010KT 10SM OVC005 01/01 A2990 RMK AO2 T00110006
BFD,2017-04-01 12:40,-78.6401,41.8031,M,M,M,320.00,11.00,M,29.90,M,10.00,M,OVC,M,M,M,499.00,M,M,M,M,KBFD 011240Z AUTO 32011KT 10SM OVC004 A2990 RMK MADISHF
BFD,2017-04-01 12:45,-78.6401,41.8031,M,M,M,330.00,11.00,M,29.90,M,10.00,M,OVC,M,M,M,499.00,M,M,M,M,KBFD 011245Z AUTO 33011KT 10SM OVC004 A2990 RMK MADISHF
BFD,2017-04-01 12:50,-78.6401,41.8031,M,M,M,320.00,8.00,M,29.90,M,9.00,M,OVC,M,M,M,499.00,M,M,M,M,KBFD 011250Z AUTO 32008KT 9SM OVC004 A2990 RMK MADISHF
BFD,2017-04-01 12:53,-78.6401,41.8031,34.00,34.00,100.00,330.00,11.00,0.00,29.90,1014.00,8.00,M,OVC,M,M,M,500.00,M,M,M,M,KBFD 011253Z AUTO 33011KT 8SM OVC005 01/01 A2990 RMK AO2 SLP140 T00110011
BFD,2017-04-01 12:55,-78.6401,41.8031,M,M,M,340.00,11.00,M,29.90,M,8.00,M,OVC,M,M,M,499.00,M,M,M,M,KBFD 011255Z AUTO 34011KT 8SM OVC004 A2990 RMK MADISHF
BFD,2017-04-01 13:00,-78.6401,41.8031,M,M,M,320.00,10.00,M,29.91,M,8.00,M,OVC,M,M,M,499.00,M,M,M,M,KBFD 011300Z AUTO 32010KT 8SM OVC004 A2991 RMK MADISHF
BFD,2017-04-01 13:05,-78.6401,41.8031,M,M,M,310.00,12.00,M,29.91,M,7.00,M,OVC,M,M,M,499.00,M,M,M,M,KBFD 011305Z AUTO 31012KT 7SM OVC004 A2991 RMK MADISHF
BFD,2017-04-01 13:10,-78.6401,41.8031,M,M,M,310.00,10.00,M,29.91,M,5.00,M,OVC,M,M,M,499.00,M,M,M,BR,KBFD 011310Z AUTO 31010KT 5SM BR OVC004 A2991 RMK MADISHF
BFD,2017-04-01 13:15,-78.6401,41.8031,M,M,M,320.00,11.00,M,29.91,M,4.00,M,OVC,M,M,M,400.00,M,M,M,BR,KBFD 011315Z AUTO 32011KT 4SM BR OVC004 A2991 RMK MADISHF
BFD,2017-04-01 13:18,-78.6401,41.8031,34.00,33.10,96.46,320.00,12.00,0.00,29.91,M,4.00,M,OVC,M,M,M,400.00,M,M,M,BR,KBFD 011318Z AUTO 32012KT 4SM BR OVC004 01/01 A2991 RMK AO2 T00110006
BFD,2017-04-01 13:20,-78.6401,41.8031,M,M,M,320.00,11.00,M,29.91,M,3.50,M,OVC,M,M,M,400.00,M,M,M,BR,KBFD 011320Z AUTO 32011KT 3SM BR OVC004 A2991 RMK MADISHF
BFD,2017-04-01 13:25,-78.6401,41.8031,M,M,M,320.00,12.00,M,29.91,M,4.00,M,OVC,M,M,M,400.00,M,M,M,BR,KBFD 011325Z AUTO 32012KT 4SM BR OVC004 A2991 RMK MADISHF
BFD,2017-04-01 13:30,-78.6401,41.8031,M,M,M,310.00,10.00,M,29.91,M,5.00,M,OVC,M,M,M,400.00,M,M,M,BR,KBFD 011330Z AUTO 31010KT 5SM BR OVC004 A2991 RMK MADISHF
BFD,2017-04-01 13:35,-78.6401,41.8031,M,M,M,320.00,12.00,M,29.91,M,6.00,M,OVC,M,M,M,400.00,M,M,M,BR,KBFD 011335Z AUTO 32012KT 6SM BR OVC004 A2991 RMK MADISHF
BFD,2017-04-01 13:40,-78.6401,41.8031,M,M,M,330.00,13.00,M,29.91,M,8.00,M,OVC,M,M,M,400.00,M,M,M,M,KBFD 011340Z AUTO 33013KT 8SM OVC004 A2991 RMK MADISHF
BFD,2017-04-01 13:45,-78.6401,41.8031,M,M,M,330.00,13.00,M,29.92,M,10.00,M,OVC,M,M,M,400.00,M,M,M,M,KBFD 011345Z AUTO 33013KT 10SM OVC004 A2992 RMK MADISHF
BFD,2017-04-01 13:50,-78.6401,41.8031,M,M,M,330.00,10.00,M,29.92,M,9.00,M,OVC,M,M,M,400.00,M,M,M,M,KBFD 011350Z AUTO 33010KT 9SM OVC004 A2992 RMK MADISHF
BFD,2017-04-01 13:53,-78.6401,41.8031,34.00,34.00,100.00,320.00,12.00,0.00,29.92,1014.70,9.00,17.00,OVC,M,M,M,400.00,M,M,M,M,KBFD 011353Z AUTO 32012G17KT 9SM OVC004 01/01 A2992 RMK AO2 SLP147 T00110011
BFD,2017-04-01 13:55,-78.6401,41.8031,M,M,M,320.00,12.00,M,29.92,M,9.00,M,OVC,M,M,M,400.00,M,M,M,M,KBFD 011355Z AUTO 32012KT 9SM OVC004 A2992 RMK MADISHF
BFD,2017-04-01 14:00,-78.6401,41.8031,M,M,M,330.00,12.00,M,29.93,M,10.00,M,OVC,M,M,M,400.00,M,M,M,M,KBFD 011400Z AUTO 33012KT 10SM OVC004 A2993 RMK MADISHF
BFD,2017-04-01 14:05,-78.6401,41.8031,M,M,M,320.00,12.00,M,29.93,M,10.00,M,OVC,M,M,M,400.00,M,M,M,M,KBFD 011405Z AUTO 32012KT 10SM OVC004 A2993 RMK MADISHF
BFD,2017-04-01 14:10,-78.6401,41.8031,M,M,M,M,M,M,29.94,M,10.00,M,OVC,M,M,M,400.00,M,M,M,M,KBFD 011410Z AUTO /////KT 10SM OVC004 A2994 RMK MADISHF
BFD,2017-04-01 14:15,-78.6401,41.8031,M,M,M,M,M,M,29.94,M,10.00,M,OVC,M,M,M,400.00,M,M,M,M,KBFD 011415Z AUTO /////KT 10SM OVC004 A2994 RMK MADISHF
BFD,2017-04-01 14:20,-78.6401,41.8031,M,M,M,320.00,13.00,M,29.94,M,10.00,M,OVC,M,M,M,499.00,M,M,M,M,KBFD 011420Z AUTO 32013KT 10SM OVC004 A2994 RMK CIG 4V8  MADISHF
BFD,2017-04-01 14:22,-78.6401,41.8031,34.00,34.00,100.00,330.00,14.00,0.00,29.94,M,10.00,M,OVC,M,M,M,500.00,M,M,M,M,KBFD 011422Z AUTO 33014KT 10SM OVC005 01/01 A2994 RMK AO2 CIG 004V008 T00110011
BFD,2017-04-01 14:25,-78.6401,41.8031,M,M,M,M,M,M,29.94,M,10.00,M,OVC,M,M,M,499.00,M,M,M,M,KBFD 011425Z AUTO /////KT 10SM OVC004 A2994 RMK CIG 4V8  MADISHF
BFD,2017-04-01 14:30,-78.6401,41.8031,M,M,M,330.00,12.00,M,29.94,M,10.00,M,OVC,M,M,M,499.00,M,M,M,M,KBFD 011430Z AUTO 33012KT 10SM OVC004 A2994 RMK CIG 4V10  MADISHF
BFD,2017-04-01 14:35,-78.6401,41.8031,M,M,M,320.00,11.00,M,29.95,M,10.00,M,OVC,M,M,M,499.00,M,M,M,M,KBFD 011435Z AUTO 32011KT 10SM OVC004 A2995 RMK CIG 5V10  MADISHF
BFD,2017-04-01 14:40,-78.6401,41.8031,M,M,M,320.00,13.00,M,29.95,M,8.00,M,OVC,M,M,M,499.00,M,M,M,M,KBFD 011440Z AUTO 32013KT 8SM OVC004 A2995 RMK CIG 4V10  MADISHF
BFD,2017-04-01 14:45,-78.6401,41.8031,M,M,M,M,M,M,29.95,M,6.00,M,OVC,M,M,M,499.00,M,M,M,BR,KBFD 011445Z AUTO /////KT 6SM BR OVC004 A2995 RMK CIG 4V10  MADISHF
BFD,2017-04-01 14:50,-78.6401,41.8031,M,M,M,310.00,12.00,M,29.96,M,7.00,M,OVC,M,M,M,499.00,M,M,M,M,KBFD 011450Z AUTO 31012KT 7SM OVC004 A2996 RMK CIG 4V10  MADISHF
BFD,2017-04-01 14:53,-78.6401,41.8031,34.00,34.00,100.00,310.00,12.00,0.00,29.96,1015.90,7.00,M,OVC,M,M,M,500.00,M,M,M,M,KBFD 011453Z AUTO 31012KT 7SM OVC005 01/01 A2996 RMK AO2 SLP159 T00110011 53028
BFD,2017-04-01 14:55,-78.6401,41.8031,M,M,M,310.00,12.00,M,29.96,M,6.00,M,OVC,M,M,M,600.00,M,M,M,BR,KBFD 011455Z AUTO 31012KT 6SM BR OVC006 A2996 RMK CIG 4V9  MADISHF
BFD,2017-04-01 15:00,-78.6401,41.8031,M,M,M,310.00,14.00,M,29.96,M,5.00,M,OVC,M,M,M,600.00,M,M,M,BR,KBFD 011500Z AUTO 31014KT 5SM BR OVC006 A2996 RMK CIG 4V9  MADISHF
BFD,2017-04-01 15:05,-78.6401,41.8031,M,M,M,320.00,10.00,M,29.96,M,6.00,M,OVC,M,M,M,600.00,M,M,M,BR,KBFD 011505Z AUTO 32010KT 6SM BR OVC006 A2996 RMK CIG 4V9  MADISHF
BFD,2017-04-01 15:10,-78.6401,41.8031,M,M,M,310.00,11.00,M,29.96,M,9.00,M,OVC,M,M,M,600.00,M,M,M,M,KBFD 011510Z AUTO 31011KT 9SM OVC006 A2996 RMK MADISHF
BFD,2017-04-01 15:15,-78.6401,41.8031,M,M,M,320.00,10.00,M,29.96,M,10.00,M,OVC,M,M,M,700.00,M,M,M,M,KBFD 011515Z AUTO 32010KT 10SM OVC007 A2996 RMK MADISHF
BFD,2017-04-01 15:20,-78.6401,41.8031,M,M,M,310.00,13.00,M,29.96,M,9.00,M,OVC,M,M,M,700.00,M,M,M,M,KBFD 011520Z AUTO 31013KT 9SM OVC007 A2996 RMK MADISHF
BFD,2017-04-01 15:25,-78.6401,41.8031,M,M,M,320.00,9.00,M,29.96,M,8.00,M,BKN,OVC,M,M,700.00,1300.00,M,M,M,KBFD 011525Z AUTO 32009KT 8SM BKN007 OVC013 A2996 RMK MADISHF
BFD,2017-04-01 15:30,-78.6401,41.8031,M,M,M,320.00,9.00,M,29.96,M,9.00,M,BKN,OVC,M,M,700.00,1300.00,M,M,M,KBFD 011530Z AUTO 32009KT 9SM BKN007 OVC013 A2996 RMK MADISHF
BFD,2017-04-01 15:35,-78.6401,41.8031,M,M,M,310.00,12.00,M,29.95,M,10.00,M,BKN,OVC,M,M,700.00,1300.00,M,M,M,KBFD 011535Z AUTO 31012KT 10SM BKN007 OVC013 A2995 RMK CIG 6V11  MADISHF
BFD,2017-04-01 15:40,-78.6401,41.8031,M,M,M,330.00,12.00,M,29.95,M,10.00,M,BKN,OVC,M,M,900.00,1300.00,M,M,M,KBFD 011540Z AUTO 33012KT 10SM BKN009 OVC013 A2995 RMK CIG 6V12  MADISHF
BFD,2017-04-01 15:45,-78.6401,41.8031,M,M,M,320.00,12.00,M,29.95,M,10.00,M,FEW,OVC,M,M,900.00,1300.00,M,M,M,KBFD 011545Z AUTO 32012KT 10SM FEW009 OVC013 A2995 RMK MADISHF
BFD,2017-04-01 15:50,-78.6401,41.8031,M,M,M,340.00,10.00,M,29.95,M,10.00,M,OVC,M,M,M,1300.00,M,M,M,M,KBFD 011550Z AUTO 34010KT 10SM OVC013 A2995 RMK MADISHF
BFD,2017-04-01 15:53,-78.6401,41.8031,37.00,34.00,88.78,320.00,11.00,0.00,29.96,1015.60,10.00,M,OVC,M,M,M,1300.00,M,M,M,M,KBFD 011553Z AUTO 32011KT 10SM OVC013 03/01 A2996 RMK AO2 SLP156 T00280011
BFD,2017-04-01 15:55,-78.6401,41.8031,M,M,M,320.00,12.00,M,29.96,M,10.00,M,OVC,M,M,M,1300.00,M,M,M,M,KBFD 011555Z AUTO 32012KT 10SM OVC013 A2996 RMK MADISHF
BFD,2017-04-01 16:00,-78.6401,41.8031,M,M,M,300.00,11.00,M,29.95,M,10.00,M,OVC,M,M,M,1300.00,M,M,M,M,KBFD 011600Z AUTO 30011KT 10SM OVC013 A2995 RMK MADISHF
BFD,2017-04-01 16:05,-78.6401,41.8031,M,M,M,330.00,10.00,M,29.95,M,10.00,M,OVC,M,M,M,1300.00,M,M,M,M,KBFD 011605Z AUTO 33010KT 10SM OVC013 A2995 RMK MADISHF
BFD,2017-04-01 16:10,-78.6401,41.8031,M,M,M,330.00,13.00,M,29.96,M,10.00,M,OVC,M,M,M,1300.00,M,M,M,M,KBFD 011610Z AUTO 33013KT 10SM OVC013 A2996 RMK MADISHF
BFD,2017-04-01 16:15,-78.6401,41.8031,M,M,M,330.00,11.00,M,29.96,M,10.00,M,OVC,M,M,M,1300.00,M,M,M,M,KBFD 011615Z AUTO 33011KT 10SM OVC013 A2996 RMK MADISHF
BFD,2017-04-01 16:20,-78.6401,41.8031,M,M,M,330.00,11.00,M,29.96,M,10.00,M,OVC,M,M,M,1300.00,M,M,M,M,KBFD 011620Z AUTO 33011KT 10SM OVC013 A2996 RMK MADISHF
BFD,2017-04-01 16:25,-78.6401,41.8031,M,M,M,330.00,14.00,M,29.96,M,10.00,M,OVC,M,M,M,1300.00,M,M,M,M,KBFD 011625Z AUTO 33014KT 10SM OVC013 A2996 RMK MADISHF
BFD,2017-04-01 16:30,-78.6401,41.8031,M,M,M,330.00,13.00,M,29.96,M,10.00,M,OVC,M,M,M,1500.00,M,M,M,M,KBFD 011630Z AUTO 33013KT 10SM OVC015 A2996 RMK MADISHF
BFD,2017-04-01 16:35,-78.6401,41.8031,M,M,M,320.00,13.00,M,29.96,M,10.00,M,OVC,M,M,M,1500.00,M,M,M,M,KBFD 011635Z AUTO 32013KT 10SM OVC015 A2996 RMK MADISHF
BFD,2017-04-01 16:36,-78.6401,41.8031,37.90,34.00,85.69,320.00,12.00,0.00,29.96,M,10.00,M,OVC,M,M,M,1500.00,M,M,M,M,KBFD 011636Z AUTO 32012KT 10SM OVC015 03/01 A2996 RMK AO2 T00330011
BFD,2017-04-01 16:40,-78.6401,41.8031,M,M,M,310.00,12.00,M,29.96,M,10.00,M,OVC,M,M,M,1500.00,M,M,M,M,KBFD 011640Z AUTO 31012KT 10SM OVC015 A2996 RMK MADISHF
BFD,2017-04-01 16:45,-78.6401,41.8031,M,M,M,310.00,12.00,M,29.96,M,10.00,M,OVC,M,M,M,1500.00,M,M,M,M,KBFD 011645Z AUTO 31012KT 10SM OVC015 A2996 RMK MADISHF
BFD,2017-04-01 16:50,-78.6401,41.8031,M,M,M,320.00,11.00,M,29.96,M,10.00,M,OVC,M,M,M,1500.00,M,M,M,M,KBFD 011650Z AUTO 32011KT 10SM OVC015 A2996 RMK MADISHF
BFD,2017-04-01 16:53,-78.6401,41.8031,37.90,34.00,85.69,320.00,11.00,0.00,29.96,1015.60,10.00,M,OVC,M,M,M,1500.00,M,M,M,M,KBFD 011653Z AUTO 32011KT 10SM OVC015 03/01 A2996 RMK AO2 SLP156 T00330011
BFD,2017-04-01 16:55,-78.6401,41.8031,M,M,M,330.00,10.00,M,29.96,M,10.00,M,OVC,M,M,M,1500.00,M,M,M,M,KBFD 011655Z AUTO 33010KT 10SM OVC015 A2996 RMK MADISHF
BFD,2017-04-01 17:00,-78.6401,41.8031,M,M,M,330.00,13.00,M,29.95,M,10.00,M,OVC,M,M,M,1400.00,M,M,M,M,KBFD 011700Z AUTO 33013KT 10SM OVC014 A2995 RMK MADISHF
BFD,2017-04-01 17:05,-78.6401,41.8031,M,M,M,320.00,11.00,M,29.96,M,10.00,M,OVC,M,M,M,1400.00,M,M,M,M,KBFD 011705Z AUTO 32011KT 10SM OVC014 A2996 RMK MADISHF
BFD,2017-04-01 17:06,-78.6401,41.8031,37.90,34.00,85.69,310.00,12.00,0.00,29.96,M,10.00,M,OVC,M,M,M,1400.00,M,M,M,M,KBFD 011706Z AUTO 31012KT 10SM OVC014 03/01 A2996 RMK AO2 T00330011
BFD,2017-04-01 17:10,-78.6401,41.8031,M,M,M,310.00,11.00,M,29.96,M,10.00,M,OVC,M,M,M,1400.00,M,M,M,M,KBFD 011710Z AUTO 31011KT 10SM OVC014 A2996 RMK MADISHF
BFD,2017-04-01 17:15,-78.6401,41.8031,M,M,M,320.00,10.00,M,29.96,M,10.00,M,OVC,M,M,M,1300.00,M,M,M,M,KBFD 011715Z AUTO 32010KT 10SM OVC013 A2996 RMK MADISHF
BFD,2017-04-01 17:20,-78.6401,41.8031,M,M,M,330.00,10.00,M,29.96,M,10.00,M,OVC,M,M,M,1300.00,M,M,M,M,KBFD 011720Z AUTO 33010KT 10SM OVC013 A2996 RMK MADISHF
BFD,2017-04-01 17:25,-78.6401,41.8031,M,M,M,290.00,9.00,M,29.96,M,10.00,M,OVC,M,M,M,1400.00,M,M,M,M,KBFD 011725Z AUTO 29009KT 10SM OVC014 A2996 RMK MADISHF
BFD,2017-04-01 17:30,-78.6401,41.8031,M,M,M,290.00,12.00,M,29.96,M,10.00,M,OVC,M,M,M,1400.00,M,M,M,M,KBFD 011730Z AUTO 29012KT 10SM OVC014 A2996 RMK MADISHF
BFD,2017-04-01 17:35,-78.6401,41.8031,M,M,M,310.00,12.00,M,29.96,M,10.00,M,OVC,M,M,M,1400.00,M,M,M,M,KBFD 011735Z AUTO 31012KT 10SM OVC014 A2996 RMK MADISHF
BFD,2017-04-01 17:40,-78.6401,41.8031,M,M,M,300.00,11.00,M,29.97,M,10.00,M,OVC,M,M,M,1400.00,M,M,M,M,KBFD 011740Z AUTO 30011KT 10SM OVC014 A2997 RMK MADISHF
BFD,2017-04-01 17:45,-78.6401,41.8031,M,M,M,300.00,11.00,M,29.98,M,10.00,M,OVC,M,M,M,1300.00,M,M,M,M,KBFD 011745Z AUTO 30011KT 10SM OVC013 A2998 RMK MADISHF
BFD,2017-04-01 17:50,-78.6401,41.8031,M,M,M,300.00,10.00,M,29.98,M,10.00,M,OVC,M,M,M,1300.00,M,M,M,M,KBFD 011750Z AUTO 30010KT 10SM OVC013 A2998 RMK MADISHF
BFD,2017-04-01 17:53,-78.6401,41.8031,37.90,34.00,85.69,300.00,12.00,0.00,29.98,1016.50,10.00,M,OVC,M,M,M,1300.00,M,M,M,M,KBFD 011753Z AUTO 30012KT 10SM OVC013 03/01 A2998 RMK AO2 SLP165 T00330011 10039 20006 53008
BFD,2017-04-01 17:55,-78.6401,41.8031,M,M,M,290.00,10.00,M,29.98,M,10.00,M,OVC,M,M,M,1300.00,M,M,M,M,KBFD 011755Z AUTO 29010KT 10SM OVC013 A2998 RMK MADISHF
BFD,2017-04-01 18:00,-78.6401,41.8031,M,M,M,310.00,11.00,M,29.98,M,10.00,M,OVC,M,M,M,1100.00,M,M,M,M,KBFD 011800Z AUTO 31011KT 10SM OVC011 A2998 RMK MADISHF
BFD,2017-04-01 18:05,-78.6401,41.8031,M,M,M,320.00,13.00,M,29.98,M,10.00,M,OVC,M,M,M,1100.00,M,M,M,M,KBFD 011805Z AUTO 32013KT 10SM OVC011 A2998 RMK MADISHF
BFD,2017-04-01 18:10,-78.6401,41.8031,M,M,M,310.00,9.00,M,29.98,M,10.00,M,OVC,M,M,M,1100.00,M,M,M,M,KBFD 011810Z AUTO 31009KT 10SM OVC011 A2998 RMK MADISHF
BFD,2017-04-01 18:15,-78.6401,41.8031,M,M,M,320.00,12.00,M,29.98,M,10.00,M,OVC,M,M,M,1100.00,M,M,M,M,KBFD 011815Z AUTO 32012KT 10SM OVC011 A2998 RMK MADISHF
BFD,2017-04-01 18:20,-78.6401,41.8031,M,M,M,320.00,11.00,M,29.98,M,10.00,M,OVC,M,M,M,1100.00,M,M,M,M,KBFD 011820Z AUTO 32011KT 10SM OVC011 A2998 RMK MADISHF
BFD,2017-04-01 18:25,-78.6401,41.8031,M,M,M,310.00,9.00,M,29.98,M,10.00,M,OVC,M,M,M,1100.00,M,M,M,M,KBFD 011825Z AUTO 31009KT 10SM OVC011 A2998 RMK MADISHF
BFD,2017-04-01 18:30,-78.6401,41.8031,M,M,M,310.00,10.00,M,29.98,M,10.00,M,OVC,M,M,M,1100.00,M,M,M,M,KBFD 011830Z AUTO 31010KT 10SM OVC011 A2998 RMK MADISHF
BFD,2017-04-01 18:35,-78.6401,41.8031,M,M,M,280.00,11.00,M,29.98,M,10.00,M,OVC,M,M,M,999.00,M,M,M,M,KBFD 011835Z AUTO 28011KT 10SM OVC009 A2998 RMK CIG 9V15  MADISHF
BFD,2017-04-01 18:40,-78.6401,41.8031,M,M,M,290.00,11.00,M,29.98,M,10.00,M,OVC,M,M,M,999.00,M,M,M,M,KBFD 011840Z AUTO 29011KT 10SM OVC009 A2998 RMK MADISHF
BFD,2017-04-01 18:45,-78.6401,41.8031,M,M,M,310.00,11.00,M,29.98,M,10.00,M,OVC,M,M,M,999.00,M,M,M,M,KBFD 011845Z AUTO 31011KT 10SM OVC009 A2998 RMK MADISHF
BFD,2017-04-01 18:50,-78.6401,41.8031,M,M,M,320.00,11.00,M,29.99,M,10.00,M,OVC,M,M,M,900.00,M,M,M,M,KBFD 011850Z AUTO 32011KT 10SM OVC009 A2999 RMK MADISHF
BFD,2017-04-01 18:53,-78.6401,41.8031,36.00,33.10,89.09,320.00,13.00,0.00,29.99,1016.70,10.00,M,OVC,M,M,M,900.00,M,M,M,M,KBFD 011853Z AUTO 32013KT 10SM OVC009 02/01 A2999 RMK AO2 SLP167 T00220006
BFD,2017-04-01 18:55,-78.6401,41.8031,M,M,M,320.00,11.00,M,29.99,M,10.00,M,OVC,M,M,M,900.00,M,M,M,M,KBFD 011855Z AUTO 32011KT 10SM OVC009 A2999 RMK MADISHF
BFD,2017-04-01 19:00,-78.6401,41.8031,M,M,M,310.00,10.00,M,29.99,M,10.00,M,OVC,M,M,M,900.00,M,M,M,M,KBFD 011900Z AUTO 31010KT 10SM OVC009 A2999 RMK MADISHF
BFD,2017-04-01 19:05,-78.6401,41.8031,M,M,M,310.00,10.00,M,29.99,M,10.00,M,OVC,M,M,M,900.00,M,M,M,M,KBFD 011905Z AUTO 31010KT 10SM OVC009 A2999 RMK MADISHF
BFD,2017-04-01 19:10,-78.6401,41.8031,M,M,M,320.00,12.00,M,29.99,M,10.00,M,OVC,M,M,M,800.00,M,M,M,M,KBFD 011910Z AUTO 32012KT 10SM OVC008 A2999 RMK MADISHF
BFD,2017-04-01 19:15,-78.6401,41.8031,M,M,M,330.00,10.00,M,29.99,M,10.00,M,OVC,M,M,M,800.00,M,M,M,M,KBFD 011915Z AUTO 33010KT 10SM OVC008 A2999 RMK MADISHF
BFD,2017-04-01 19:20,-78.6401,41.8031,M,M,M,320.00,10.00,M,29.98,M,10.00,M,OVC,M,M,M,800.00,M,M,M,M,KBFD 011920Z AUTO 32010KT 10SM OVC008 A2998 RMK MADISHF
BFD,2017-04-01 19:25,-78.6401,41.8031,M,M,M,320.00,10.00,M,29.98,M,10.00,M,OVC,M,M,M,800.00,M,M,M,M,KBFD 011925Z AUTO 32010KT 10SM OVC008 A2998 RMK MADISHF
BFD,2017-04-01 19:30,-78.6401,41.8031,M,M,M,320.00,12.00,M,29.98,M,10.00,M,OVC,M,M,M,800.00,M,M,M,M,KBFD 011930Z AUTO 32012KT 10SM OVC008 A2998 RMK CIG 8V12  MADISHF
BFD,2017-04-01 19:35,-78.6401,41.8031,M,M,M,310.00,12.00,M,29.98,M,10.00,M,OVC,M,M,M,800.00,M,M,M,M,KBFD 011935Z AUTO 31012KT 10SM OVC008 A2998 RMK CIG 7V12  MADISHF
BFD,2017-04-01 19:40,-78.6401,41.8031,M,M,M,310.00,11.00,M,29.99,M,10.00,M,OVC,M,M,M,800.00,M,M,M,M,KBFD 011940Z AUTO 31011KT 10SM OVC008 A2999 RMK CIG 7V12  MADISHF
BFD,2017-04-01 19:45,-78.6401,41.8031,M,M,M,300.00,11.00,M,29.99,M,10.00,M,OVC,M,M,M,800.00,M,M,M,M,KBFD 011945Z AUTO 30011KT 10SM OVC008 A2999 RMK CIG 6V12  MADISHF
BFD,2017-04-01 19:50,-78.6401,41.8031,M,M,M,300.00,14.00,M,30.00,M,10.00,M,OVC,M,M,M,800.00,M,M,M,M,KBFD 011950Z AUTO 30014KT 10SM OVC008 A3000 RMK CIG 6V12  MADISHF
BFD,2017-04-01 19:53,-78.6401,41.8031,35.10,33.10,92.32,300.00,11.00,0.00,30.00,1017.20,10.00,M,OVC,M,M,M,800.00,M,M,M,M,KBFD 011953Z AUTO 30011KT 10SM OVC008 02/01 A3000 RMK AO2 CIG 006V012 SLP172 T00170006
BFD,2017-04-01 19:55,-78.6401,41.8031,M,M,M,300.00,12.00,M,30.00,M,10.00,M,OVC,M,M,M,800.00,M,M,M,M,KBFD 011955Z AUTO 30012KT 10SM OVC008 A3000 RMK CIG 6V12  MADISHF
BFD,2017-04-01 20:00,-78.6401,41.8031,M,M,M,300.00,13.00,M,30.00,M,10.00,M,OVC,M,M,M,700.00,M,M,M,M,KBFD 012000Z AUTO 30013KT 10SM OVC007 A3000 RMK MADISHF
BFD,2017-04-01 20:05,-78.6401,41.8031,M,M,M,310.00,11.00,M,30.00,M,10.00,M,OVC,M,M,M,700.00,M,M,M,M,KBFD 012005Z AUTO 31011KT 10SM OVC007 A3000 RMK MADISHF
BFD,2017-04-01 20:10,-78.6401,41.8031,M,M,M,310.00,13.00,M,30.00,M,10.00,M,OVC,M,M,M,600.00,M,M,M,M,KBFD 012010Z AUTO 31013KT 10SM OVC006 A3000 RMK MADISHF
BFD,2017-04-01 20:15,-78.6401,41.8031,M,M,M,310.00,10.00,M,30.00,M,9.00,M,OVC,M,M,M,600.00,M,M,M,M,KBFD 012015Z AUTO 31010KT 9SM OVC006 A3000 RMK MADISHF
BFD,2017-04-01 20:20,-78.6401,41.8031,M,M,M,320.00,13.00,M,30.00,M,9.00,M,OVC,M,M,M,600.00,M,M,M,M,KBFD 012020Z AUTO 32013KT 9SM OVC006 A3000 RMK MADISHF
BFD,2017-04-01 20:25,-78.6401,41.8031,M,M,M,310.00,11.00,M,30.00,M,10.00,M,OVC,M,M,M,600.00,M,M,M,M,KBFD 012025Z AUTO 31011KT 10SM OVC006 A3000 RMK MADISHF
BFD,2017-04-01 20:30,-78.6401,41.8031,M,M,M,310.00,11.00,M,30.01,M,10.00,M,OVC,M,M,M,600.00,M,M,M,M,KBFD 012030Z AUTO 31011KT 10SM OVC006 A3001 RMK MADISHF
BFD,2017-04-01 20:35,-78.6401,41.8031,M,M,M,310.00,10.00,M,30.00,M,10.00,M,OVC,M,M,M,600.00,M,M,M,M,KBFD 012035Z AUTO 31010KT 10SM OVC006 A3000 RMK MADISHF
BFD,2017-04-01 20:40,-78.6401,41.8031,M,M,M,310.00,10.00,M,30.01,M,10.00,M,OVC,M,M,M,600.00,M,M,M,M,KBFD 012040Z AUTO 31010KT 10SM OVC006 A3001 RMK MADISHF
BFD,2017-04-01 20:45,-78.6401,41.8031,M,M,M,320.00,11.00,M,30.01,M,10.00,M,OVC,M,M,M,600.00,M,M,M,M,KBFD 012045Z AUTO 32011KT 10SM OVC006 A3001 RMK MADISHF
BFD,2017-04-01 20:50,-78.6401,41.8031,M,M,M,320.00,10.00,M,30.02,M,10.00,M,OVC,M,M,M,600.00,M,M,M,M,KBFD 012050Z AUTO 32010KT 10SM OVC006 A3002 RMK MADISHF
BFD,2017-04-01 20:53,-78.6401,41.8031,35.10,33.10,92.32,320.00,11.00,0.00,30.02,1018.20,10.00,M,OVC,M,M,M,600.00,M,M,M,M,KBFD 012053Z AUTO 32011KT 10SM OVC006 02/01 A3002 RMK AO2 SLP182 T00170006 53013
BFD,2017-04-01 20:55,-78.6401,41.8031,M,M,M,320.00,11.00,M,30.03,M,10.00,M,OVC,M,M,M,600.00,M,M,M,M,KBFD 012055Z AUTO 32011KT 10SM OVC006 A3003 RMK MADISHF
BFD,2017-04-01 21:00,-78.6401,41.8031,M,M,M,310.00,9.00,M,30.03,M,9.00,M,OVC,M,M,M,600.00,M,M,M,M,KBFD 012100Z AUTO 31009KT 9SM OVC006 A3003 RMK MADISHF
BFD,2017-04-01 21:05,-78.6401,41.8031,M,M,M,310.00,11.00,M,30.03,M,10.00,M,OVC,M,M,M,600.00,M,M,M,M,KBFD 012105Z AUTO 31011KT 10SM OVC006 A3003 RMK MADISHF
BFD,2017-04-01 21:10,-78.6401,41.8031,M,M,M,310.00,11.00,M,30.04,M,10.00,M,OVC,M,M,M,600.00,M,M,M,M,KBFD 012110Z AUTO 31011KT 10SM OVC006 A3004 RMK MADISHF
BFD,2017-04-01 21:15,-78.6401,41.8031,M,M,M,310.00,10.00,M,30.05,M,10.00,M,OVC,M,M,M,600.00,M,M,M,M,KBFD 012115Z AUTO 31010KT 10SM OVC006 A3005 RMK MADISHF
BFD,2017-04-01 21:20,-78.6401,41.8031,M,M,M,320.00,10.00,M,30.05,M,10.00,M,OVC,M,M,M,600.00,M,M,M,M,KBFD 012120Z AUTO 32010KT 10SM OVC006 A3005 RMK MADISHF
BFD,2017-04-01 21:25,-78.6401,41.8031,M,M,M,300.00,11.00,M,30.05,M,10.00,M,OVC,M,M,M,600.00,M,M,M,M,KBFD 012125Z AUTO 30011KT 10SM OVC006 A3005 RMK MADISHF
BFD,2017-04-01 21:30,-78.6401,41.8031,M,M,M,310.00,9.00,M,30.06,M,10.00,M,OVC,M,M,M,600.00,M,M,M,M,KBFD 012130Z AUTO 31009KT 10SM OVC006 A3006 RMK MADISHF
BFD,2017-04-01 21:35,-78.6401,41.8031,M,M,M,310.00,11.00,M,30.06,M,10.00,M,OVC,M,M,M,600.00,M,M,M,M,KBFD 012135Z AUTO 31011KT 10SM OVC006 A3006 RMK MADISHF
BFD,2017-04-01 21:40,-78.6401,41.8031,M,M,M,320.00,9.00,M,30.06,M,10.00,M,OVC,M,M,M,600.00,M,M,M,M,KBFD 012140Z AUTO 32009KT 10SM OVC006 A3006 RMK MADISHF
BFD,2017-04-01 21:45,-78.6401,41.8031,M,M,M,320.00,11.00,M,30.06,M,10.00,M,OVC,M,M,M,600.00,M,M,M,M,KBFD 012145Z AUTO 32011KT 10SM OVC006 A3006 RMK MADISHF
BFD,2017-04-01 21:50,-78.6401,41.8031,M,M,M,310.00,12.00,M,30.06,M,10.00,M,OVC,M,M,M,600.00,M,M,M,M,KBFD 012150Z AUTO 31012KT 10SM OVC006 A3006 RMK MADISHF
BFD,2017-04-01 21:53,-78.6401,41.8031,34.00,32.00,92.29,310.00,14.00,0.00,30.07,1019.80,10.00,M,OVC,M,M,M,600.00,M,M,M,M,KBFD 012153Z AUTO 31014KT 10SM OVC006 01/00 A3007 RMK AO2 SLP198 T00110000
BFD,2017-04-01 21:55,-78.6401,41.8031,M,M,M,310.00,14.00,M,30.07,M,10.00,M,OVC,M,M,M,600.00,M,M,M,M,KBFD 012155Z AUTO 31014KT 10SM OVC006 A3007 RMK MADISHF
BFD,2017-04-01 22:00,-78.6401,41.8031,M,M,M,310.00,12.00,M,30.07,M,10.00,M,OVC,M,M,M,600.00,M,M,M,M,KBFD 012200Z AUTO 31012KT 10SM OVC006 A3007 RMK MADISHF
BFD,2017-04-01 22:05,-78.6401,41.8031,M,M,M,320.00,12.00,M,30.07,M,10.00,M,OVC,M,M,M,600.00,M,M,M,M,KBFD 012205Z AUTO 32012KT 10SM OVC006 A3007 RMK MADISHF
BFD,2017-04-01 22:10,-78.6401,41.8031,M,M,M,310.00,10.00,M,30.07,M,10.00,M,OVC,M,M,M,600.00,M,M,M,M,KBFD 012210Z AUTO 31010KT 10SM OVC006 A3007 RMK MADISHF
BFD,2017-04-01 22:15,-78.6401,41.8031,M,M,M,310.00,11.00,M,30.07,M,10.00,M,OVC,M,M,M,600.00,M,M,M,M,KBFD 012215Z AUTO 31011KT 10SM OVC006 A3007 RMK MADISHF
BFD,2017-04-01 22:20,-78.6401,41.8031,M,M,M,310.00,9.00,M,30.07,M,10.00,M,OVC,M,M,M,600.00,M,M,M,M,KBFD 012220Z AUTO 31009KT 10SM OVC006 A3007 RMK MADISHF
BFD,2017-04-01 22:25,-78.6401,41.8031,M,M,M,310.00,9.00,M,30.08,M,10.00,M,OVC,M,M,M,600.00,M,M,M,M,KBFD 012225Z AUTO 31009KT 10SM OVC006 A3008 RMK MADISHF
BFD,2017-04-01 22:30,-78.6401,41.8031,M,M,M,320.00,11.00,M,30.08,M,10.00,M,OVC,M,M,M,600.00,M,M,M,M,KBFD 012230Z AUTO 32011KT 10SM OVC006 A3008 RMK MADISHF
BFD,2017-04-01 22:35,-78.6401,41.8031,M,M,M,310.00,10.00,M,30.08,M,10.00,M,OVC,M,M,M,600.00,M,M,M,M,KBFD 012235Z AUTO 31010KT 10SM OVC006 A3008 RMK MADISHF
BFD,2017-04-01 22:40,-78.6401,41.8031,M,M,M,310.00,9.00,M,30.08,M,10.00,M,OVC,M,M,M,600.00,M,M,M,M,KBFD 012240Z AUTO 31009KT 10SM OVC006 A3008 RMK MADISHF
BFD,2017-04-01 22:45,-78.6401,41.8031,M,M,M,300.00,10.00,M,30.08,M,10.00,M,OVC,M,M,M,700.00,M,M,M,M,KBFD 012245Z AUTO 30010KT 10SM OVC007 A3008 RMK MADISHF
BFD,2017-04-01 22:50,-78.6401,41.8031,M,M,M,310.00,10.00,M,30.08,M,10.00,M,OVC,M,M,M,700.00,M,M,M,M,KBFD 012250Z AUTO 31010KT 10SM OVC007 A3008 RMK MADISHF
BFD,2017-04-01 22:53,-78.6401,41.8031,34.00,32.00,92.29,310.00,11.00,0.00,30.08,1020.10,10.00,M,OVC,M,M,M,600.00,M,M,M,M,KBFD 012253Z AUTO 31011KT 10SM OVC006 01/00 A3008 RMK AO2 SLP201 T00110000
BFD,2017-04-01 22:55,-78.6401,41.8031,M,M,M,310.00,11.00,M,30.07,M,10.00,M,OVC,M,M,M,600.00,M,M,M,M,KBFD 012255Z AUTO 31011KT 10SM OVC006 A3007 RMK MADISHF
BFD,2017-04-01 23:00,-78.6401,41.8031,M,M,M,310.00,10.00,M,30.08,M,10.00,M,OVC,M,M,M,600.00,M,M,M,M,KBFD 012300Z AUTO 31010KT 10SM OVC006 A3008 RMK MADISHF
BFD,2017-04-01 23:05,-78.6401,41.8031,M,M,M,300.00,8.00,M,30.07,M,10.00,M,OVC,M,M,M,600.00,M,M,M,M,KBFD 012305Z AUTO 30008KT 10SM OVC006 A3007 RMK MADISHF
BFD,2017-04-01 23:10,-78.6401,41.8031,M,M,M,310.00,9.00,M,30.07,M,10.00,M,OVC,M,M,M,600.00,M,M,M,M,KBFD 012310Z AUTO 31009KT 10SM OVC006 A3007 RMK MADISHF
BFD,2017-04-01 23:15,-78.6401,41.8031,M,M,M,300.00,9.00,M,30.08,M,10.00,M,OVC,M,M,M,700.00,M,M,M,M,KBFD 012315Z AUTO 30009KT 10SM OVC007 A3008 RMK MADISHF
BFD,2017-04-01 23:20,-78.6401,41.8031,M,M,M,300.00,8.00,M,30.07,M,10.00,M,OVC,M,M,M,700.00,M,M,M,M,KBFD 012320Z AUTO 30008KT 10SM OVC007 A3007 RMK MADISHF
BFD,2017-04-01 23:25,-78.6401,41.8031,M,M,M,310.00,7.00,M,30.07,M,10.00,M,OVC,M,M,M,700.00,M,M,M,M,KBFD 012325Z AUTO 31007KT 10SM OVC007 A3007 RMK MADISHF
BFD,2017-04-01 23:30,-78.6401,41.8031,M,M,M,300.00,8.00,M,30.07,M,10.00,M,OVC,M,M,M,800.00,M,M,M,M,KBFD 012330Z AUTO 30008KT 10SM OVC008 A3007 RMK MADISHF
BFD,2017-04-01 23:35,-78.6401,41.8031,M,M,M,310.00,7.00,M,30.07,M,10.00,M,OVC,M,M,M,800.00,M,M,M,M,KBFD 012335Z AUTO 31007KT 10SM OVC008 A3007 RMK MADISHF
BFD,2017-04-01 23:40,-78.6401,41.8031,M,M,M,310.00,5.00,M,30.07,M,10.00,M,OVC,M,M,M,800.00,M,M,M,M,KBFD 012340Z AUTO 31005KT 10SM OVC008 A3007 RMK MADISHF
BFD,2017-04-01 23:45,-78.6401,41.8031,M,M,M,300.00,7.00,M,30.07,M,10.00,M,OVC,M,M,M,800.00,M,M,M,M,KBFD 012345Z AUTO 30007KT 10SM OVC008 A3007 RMK MADISHF
BFD,2017-04-01 23:50,-78.6401,41.8031,M,M,M,310.00,6.00,M,30.07,M,10.00,M,OVC,M,M,M,800.00,M,M,M,M,KBFD 012350Z AUTO 31006KT 10SM OVC008 A3007 RMK MADISHF
BFD,2017-04-01 23:53,-78.6401,41.8031,34.00,32.00,92.29,320.00,7.00,0.00,30.07,1020.00,10.00,M,OVC,M,M,M,800.00,M,M,M,M,KBFD 012353Z AUTO 32007KT 10SM OVC008 01/00 A3007 RMK AO2 SLP200 T00110000 10033 20011 50016
BFD,2017-04-01 23:55,-78.6401,41.8031,M,M,M,310.00,6.00,M,30.07,M,10.00,M,OVC,M,M,M,800.00,M,M,M,M,KBFD 012355Z AUTO 31006KT 10SM OVC008 A3007 RMK CIG 7V12  MADISHF
