#DEBUG: Format Typ    -> comma
#DEBUG: Time Period   -> 2017-04-01 00:00:00+00:00 2017-04-02 00:00:00+00:00
#DEBUG: Time Zone     -> Etc/UTC
#DEBUG: Data Contact   -> daryl herzmann akrherz@iastate.edu 515-294-5978
#DEBUG: Entries Found -> -1
station,valid,lon,lat,tmpf, dwpf, relh, drct, sknt, p01i, alti, mslp, vsby, gust, skyc1, skyc2, skyc3, skyc4, skyl1, skyl2, skyl3, skyl4, presentwx, metar
BGE,2017-04-01 00:15,-84.6369,30.9716,71.60,55.40,56.63,240.00,3.00,0.00,29.86,M,10.00,M,CLR,M,M,M,M,M,M,M,M,KBGE 010015Z AUTO 24003KT 10SM CLR 22/13 A2986 RMK AO2 PWINO
BGE,2017-04-01 00:35,-84.6369,30.9716,71.60,59.00,64.48,0.00,0.00,0.00,29.87,M,10.00,M,CLR,M,M,M,M,M,M,M,M,KBGE 010035Z AUTO 00000KT 10SM CLR 22/15 A2987 RMK AO2 PWINO
BGE,2017-04-01 00:55,-84.6369,30.9716,71.60,59.00,64.48,250.00,4.00,0.00,29.87,M,10.00,M,CLR,M,M,M,M,M,M,M,M,KBGE 010055Z AUTO 25004KT 10SM CLR 22/15 A2987 RMK AO2 PWINO
BGE,2017-04-01 01:15,-84.6369,30.9716,69.80,59.00,68.55,290.00,3.00,0.00,29.87,M,10.00,M,CLR,M,M,M,M,M,M,M,M,KBGE 010115Z AUTO 29003KT 10SM CLR 21/15 A2987 RMK AO2 PWINO
BGE,2017-04-01 01:35,-84.6369,30.9716,68.00,59.00,72.92,270.00,3.00,0.00,29.89,M,10.00,M,CLR,M,M,M,M,M,M,M,M,KBGE 010135Z AUTO 27003KT 10SM CLR 20/15 A2989 RMK AO2 PWINO
BGE,2017-04-01 01:55,-84.6369,30.9716,68.00,59.00,72.92,300.00,4.00,0.00,29.90,M,10.00,M,CLR,M,M,M,M,M,M,M,M,KBGE 010155Z AUTO 30004KT 10SM CLR 20/15 A2990 RMK AO2 PWINO
BGE,2017-04-01 02:15,-84.6369,30.9716,66.20,55.40,68.15,0.00,0.00,0.00,29.90,M,10.00,M,CLR,M,M,M,M,M,M,M,M,KBGE 010215Z AUTO 00000KT 10SM CLR 19/13 A2990 RMK AO2 PWINO
BGE,2017-04-01 02:35,-84.6369,30.9716,66.20,55.40,68.15,0.00,0.00,0.00,29.91,M,10.00,M,CLR,M,M,M,M,M,M,M,M,KBGE 010235Z AUTO 00000KT 10SM CLR 19/13 A2991 RMK AO2 PWINO
BGE,2017-04-01 02:55,-84.6369,30.9716,64.40,55.40,72.56,280.00,4.00,0.00,29.92,M,10.00,M,CLR,M,M,M,M,M,M,M,M,KBGE 010255Z AUTO 28004KT 10SM CLR 18/13 A2992 RMK AO2 PWINO
BGE,2017-04-01 03:15,-84.6369,30.9716,64.40,55.40,72.56,0.00,0.00,0.00,29.93,M,10.00,M,CLR,M,M,M,M,M,M,M,M,KBGE 010315Z AUTO 00000KT 10SM CLR 18/13 A2993 RMK AO2 PWINO
BGE,2017-04-01 03:35,-84.6369,30.9716,64.40,55.40,72.56,280.00,3.00,0.00,29.93,M,10.00,M,CLR,M,M,M,M,M,M,M,M,KBGE 010335Z AUTO 28003KT 10SM CLR 18/13 A2993 RMK AO2 PWINO
BGE,2017-04-01 03:55,-84.6369,30.9716,62.60,55.40,77.29,0.00,0.00,0.00,29.93,M,7.00,M,CLR,M,M,M,M,M,M,M,M,KBGE 010355Z AUTO 00000KT 7SM CLR 17/13 A2993 RMK AO2 PWINO
BGE,2017-04-01 04:15,-84.6369,30.9716,60.80,55.40,82.37,0.00,0.00,0.00,29.94,M,10.00,M,CLR,M,M,M,M,M,M,M,M,KBGE 010415Z AUTO 00000KT 10SM CLR 16/13 A2994 RMK AO2 PWINO
BGE,2017-04-01 04:35,-84.6369,30.9716,60.80,55.40,82.37,0.00,0.00,0.00,29.94,M,10.00,M,CLR,M,M,M,M,M,M,M,M,KBGE 010435Z AUTO 00000KT 10SM CLR 16/13 A2994 RMK AO2 PWINO
BGE,2017-04-01 04:55,-84.6369,30.9716,59.00,55.40,87.83,0.00,0.00,0.00,29.95,M,10.00,M,CLR,M,M,M,M,M,M,M,M,KBGE 010455Z AUTO 00000KT 10SM CLR 15/13 A2995 RMK AO2 PWINO
BGE,2017-04-01 05:15,-84.6369,30.9716,59.00,53.60,82.25,0.00,0.00,0.00,29.95,M,10.00,M,CLR,M,M,M,M,M,M,M,M,KBGE 010515Z AUTO 00000KT 10SM CLR 15/12 A2995 RMK AO2 PWINO
BGE,2017-04-01 05:35,-84.6369,30.9716,59.00,53.60,82.25,230.00,3.00,0.00,29.95,M,10.00,M,CLR,M,M,M,M,M,M,M,M,KBGE 010535Z AUTO 23003KT 10SM CLR 15/12 A2995 RMK AO2 PWINO
BGE,2017-04-01 05:55,-84.6369,30.9716,59.00,55.40,87.83,0.00,0.00,0.00,29.95,M,10.00,M,CLR,M,M,M,M,M,M,M,M,KBGE 010555Z AUTO 00000KT 10SM CLR 15/13 A2995 RMK AO2 PWINO
BGE,2017-04-01 06:15,-84.6369,30.9716,59.00,53.60,82.25,0.00,0.00,0.00,29.95,M,10.00,M,CLR,M,M,M,M,M,M,M,M,KBGE 010615Z AUTO 00000KT 10SM CLR 15/12 A2995 RMK AO2 PWINO
BGE,2017-04-01 06:35,-84.6369,30.9716,59.00,53.60,82.25,0.00,0.00,0.00,29.95,M,10.00,M,CLR,M,M,M,M,M,M,M,M,KBGE 010635Z AUTO 00000KT 10SM CLR 15/12 A2995 RMK AO2 PWINO
BGE,2017-04-01 06:55,-84.6369,30.9716,59.00,55.40,87.83,0.00,0.00,0.00,29.95,M,10.00,M,CLR,M,M,M,M,M,M,M,M,KBGE 010655Z AUTO 00000KT 10SM CLR 15/13 A2995 RMK AO2 PWINO
BGE,2017-04-01 07:15,-84.6369,30.9716,59.00,55.40,87.83,0.00,0.00,0.00,29.95,M,10.00,M,CLR,M,M,M,M,M,M,M,M,KBGE 010715Z AUTO 00000KT 10SM CLR 15/13 A2995 RMK AO2 PWINO
BGE,2017-04-01 07:35,-84.6369,30.9716,59.00,53.60,82.25,0.00,0.00,0.00,29.95,M,10.00,M,CLR,M,M,M,M,M,M,M,M,KBGE 010735Z AUTO 00000KT 10SM CLR 15/12 A2995 RMK AO2 PWINO
BGE,2017-04-01 07:55,-84.6369,30.9716,57.20,53.60,87.74,0.00,0.00,0.00,29.96,M,10.00,M,CLR,M,M,M,M,M,M,M,M,KBGE 010755Z AUTO 00000KT 10SM CLR 14/12 A2996 RMK AO2 PWINO
BGE,2017-04-01 08:15,-84.6369,30.9716,55.40,53.60,93.65,0.00,0.00,0.00,29.96,M,10.00,M,CLR,M,M,M,M,M,M,M,M,KBGE 010815Z AUTO 00000KT 10SM CLR 13/12 A2996 RMK AO2 PWINO
BGE,2017-04-01 08:35,-84.6369,30.9716,59.00,53.60,82.25,0.00,0.00,0.00,29.97,M,10.00,M,CLR,M,M,M,M,M,M,M,M,KBGE 010835Z AUTO 00000KT 10SM CLR 15/12 A2997 RMK AO2 PWINO
BGE,2017-04-01 08:55,-84.6369,30.9716,55.40,53.60,93.65,0.00,0.00,0.00,29.97,M,10.00,M,CLR,M,M,M,M,M,M,M,M,KBGE 010855Z AUTO 00000KT 10SM CLR 13/12 A2997 RMK AO2 PWINO
BGE,2017-04-01 09:15,-84.6369,30.9716,55.40,53.60,93.65,0.00,0.00,0.00,29.98,M,10.00,M,CLR,M,M,M,M,M,M,M,M,KBGE 010915Z AUTO 00000KT 10SM CLR 13/12 A2998 RMK AO2 PWINO
BGE,2017-04-01 09:35,-84.6369,30.9716,55.40,53.60,93.65,0.00,0.00,0.00,29.98,M,10.00,M,CLR,M,M,M,M,M,M,M,M,KBGE 010935Z AUTO 00000KT 10SM CLR 13/12 A2998 RMK AO2 PWINO
BGE,2017-04-01 09:55,-84.6369,30.9716,55.40,53.60,93.65,0.00,0.00,0.00,29.98,M,10.00,M,CLR,M,M,M,M,M,M,M,M,KBGE 010955Z AUTO 00000KT 10SM CLR 13/12 A2998 RMK AO2 PWINO
BGE,2017-04-01 10:15,-84.6369,30.9716,55.40,53.60,93.65,0.00,0.00,0.00,29.99,M,10.00,M,CLR,M,M,M,M,M,M,M,M,KBGE 011015Z AUTO 00000KT 10SM CLR 13/12 A2999 RMK AO2 PWINO
BGE,2017-04-01 10:35,-84.6369,30.9716,55.40,53.60,93.65,0.00,0.00,0.00,30.00,M,10.00,M,CLR,M,M,M,M,M,M,M,M,KBGE 011035Z AUTO 00000KT 10SM CLR 13/12 A3000 RMK AO2 PWINO
BGE,2017-04-01 10:55,-84.6369,30.9716,55.40,53.60,93.65,0.00,0.00,0.00,30.01,M,10.00,M,CLR,M,M,M,M,M,M,M,M,KBGE 011055Z AUTO 00000KT 10SM CLR 13/12 A3001 RMK AO2 PWINO
BGE,2017-04-01 11:15,-84.6369,30.9716,55.40,53.60,93.65,0.00,0.00,0.00,30.01,M,7.00,M,CLR,M,M,M,M,M,M,M,M,KBGE 011115Z AUTO 00000KT 7SM CLR 13/12 A3001 RMK AO2 PWINO
BGE,2017-04-01 11:35,-84.6369,30.9716,53.60,51.80,93.60,0.00,0.00,0.00,30.02,M,10.00,M,CLR,M,M,M,M,M,M,M,M,KBGE 011135Z AUTO 00000KT 10SM CLR 12/11 A3002 RMK AO2 PWINO
BGE,2017-04-01 11:55,-84.6369,30.9716,53.60,51.80,93.60,0.00,0.00,0.00,30.03,M,10.00,M,CLR,M,M,M,M,M,M,M,M,KBGE 011155Z AUTO 00000KT 10SM CLR 12/11 A3003 RMK AO2 PWINO
BGE,2017-04-01 12:15,-84.6369,30.9716,55.40,53.60,93.65,0.00,0.00,0.00,30.04,M,10.00,M,CLR,M,M,M,M,M,M,M,M,KBGE 011215Z AUTO 00000KT 10SM CLR 13/12 A3004 RMK AO2 PWINO
BGE,2017-04-01 12:35,-84.6369,30.9716,57.20,55.40,93.69,0.00,0.00,0.00,30.05,M,10.00,M,CLR,M,M,M,M,M,M,M,M,KBGE 011235Z AUTO 00000KT 10SM CLR 14/13 A3005 RMK AO2 PWINO
BGE,2017-04-01 12:55,-84.6369,30.9716,59.00,55.40,87.83,0.00,0.00,0.00,30.05,M,10.00,M,CLR,M,M,M,M,M,M,M,M,KBGE 011255Z AUTO 00000KT 10SM CLR 15/13 A3005 RMK AO2 PWINO
BGE,2017-04-01 13:15,-84.6369,30.9716,62.60,55.40,77.29,40.00,3.00,0.00,30.05,M,10.00,M,CLR,M,M,M,M,M,M,M,M,KBGE 011315Z AUTO 04003KT 10SM CLR 17/13 A3005 RMK AO2 PWINO
BGE,2017-04-01 13:35,-84.6369,30.9716,64.40,55.40,72.56,50.00,3.00,0.00,30.06,M,10.00,M,CLR,M,M,M,M,M,M,M,M,KBGE 011335Z AUTO 05003KT 10SM CLR 18/13 A3006 RMK AO2 PWINO
BGE,2017-04-01 13:55,-84.6369,30.9716,66.20,53.60,63.82,70.00,4.00,0.00,30.06,M,10.00,M,CLR,M,M,M,M,M,M,M,M,KBGE 011355Z AUTO 07004KT 10SM CLR 19/12 A3006 RMK AO2 PWINO
BGE,2017-04-01 14:15,-84.6369,30.9716,69.80,51.80,52.77,60.00,7.00,0.00,30.07,M,10.00,M,CLR,M,M,M,M,M,M,M,M,KBGE 011415Z AUTO 06007KT 10SM CLR 21/11 A3007 RMK AO2 PWINO
BGE,2017-04-01 14:35,-84.6369,30.9716,71.60,53.60,53.03,60.00,5.00,0.00,30.07,M,10.00,M,CLR,M,M,M,M,M,M,M,M,KBGE 011435Z AUTO 06005KT 10SM CLR 22/12 A3007 RMK AO2 PWINO
BGE,2017-04-01 14:55,-84.6369,30.9716,71.60,53.60,53.03,90.00,3.00,0.00,30.08,M,10.00,M,CLR,M,M,M,M,M,M,M,M,KBGE 011455Z AUTO 09003KT 10SM CLR 22/12 A3008 RMK AO2 PWINO
BGE,2017-04-01 15:15,-84.6369,30.9716,71.60,53.60,53.03,0.00,0.00,0.00,30.08,M,10.00,M,CLR,M,M,M,M,M,M,M,M,KBGE 011515Z AUTO 00000KT 10SM CLR 22/12 A3008 RMK AO2 PWINO
BGE,2017-04-01 15:35,-84.6369,30.9716,73.40,51.80,46.71,70.00,4.00,0.00,30.08,M,10.00,M,CLR,M,M,M,M,M,M,M,M,KBGE 011535Z AUTO 07004KT 10SM CLR 23/11 A3008 RMK AO2 PWINO
BGE,2017-04-01 15:55,-84.6369,30.9716,77.00,53.60,44.25,60.00,3.00,0.00,30.08,M,10.00,M,CLR,M,M,M,M,M,M,M,M,KBGE 011555Z AUTO 06003KT 10SM CLR 25/12 A3008 RMK AO2 PWINO
BGE,2017-04-01 16:15,-84.6369,30.9716,77.00,53.60,44.25,0.00,0.00,0.00,30.07,M,10.00,M,CLR,M,M,M,M,M,M,M,M,KBGE 011615Z AUTO 00000KT 10SM CLR 25/12 A3007 RMK AO2 PWINO
BGE,2017-04-01 16:35,-84.6369,30.9716,77.00,51.80,41.42,20.00,6.00,0.00,30.07,M,10.00,M,CLR,M,M,M,M,M,M,M,M,KBGE 011635Z AUTO 02006KT 10SM CLR 25/11 A3007 RMK AO2 PWINO
BGE,2017-04-01 16:55,-84.6369,30.9716,77.00,50.00,38.74,10.00,5.00,0.00,30.06,M,10.00,M,CLR,M,M,M,M,M,M,M,M,KBGE 011655Z AUTO 01005KT 10SM CLR 25/10 A3006 RMK AO2 PWINO
BGE,2017-04-01 17:15,-84.6369,30.9716,78.80,50.00,36.51,360.00,5.00,0.00,30.05,M,10.00,M,CLR,M,M,M,M,M,M,M,M,KBGE 011715Z AUTO 36005KT 10SM CLR 26/10 A3005 RMK AO2 PWINO
BGE,2017-04-01 17:35,-84.6369,30.9716,78.80,50.00,36.51,330.00,6.00,0.00,30.05,M,10.00,M,CLR,M,M,M,M,M,M,M,M,KBGE 011735Z AUTO 33006KT 10SM CLR 26/10 A3005 RMK AO2 PWINO
BGE,2017-04-01 17:55,-84.6369,30.9716,78.80,50.00,36.51,270.00,5.00,0.00,30.05,M,10.00,M,CLR,M,M,M,M,M,M,M,M,KBGE 011755Z AUTO 27005KT 10SM CLR 26/10 A3005 RMK AO2 PWINO
BGE,2017-04-01 18:15,-84.6369,30.9716,80.60,51.80,36.79,270.00,7.00,0.00,30.04,M,10.00,M,CLR,M,M,M,M,M,M,M,M,KBGE 011815Z AUTO 27007KT 10SM CLR 27/11 A3004 RMK AO2 PWINO
BGE,2017-04-01 18:35,-84.6369,30.9716,80.60,50.00,34.41,320.00,5.00,0.00,30.04,M,10.00,M,CLR,M,M,M,M,M,M,M,M,KBGE 011835Z AUTO 32005KT 10SM CLR 27/10 A3004 RMK AO2 PWINO
BGE,2017-04-01 18:55,-84.6369,30.9716,80.60,50.00,34.41,310.00,5.00,0.00,30.03,M,10.00,M,CLR,M,M,M,M,M,M,M,M,KBGE 011855Z AUTO 31005KT 10SM CLR 27/10 A3003 RMK AO2 PWINO
BGE,2017-04-01 19:15,-84.6369,30.9716,80.60,50.00,34.41,290.00,7.00,0.00,30.02,M,10.00,M,CLR,M,M,M,M,M,M,M,M,KBGE 011915Z AUTO 29007KT 10SM CLR 27/10 A3002 RMK AO2 PWINO
BGE,2017-04-01 19:35,-84.6369,30.9716,80.60,50.00,34.41,260.00,7.00,0.00,30.02,M,10.00,M,CLR,M,M,M,M,M,M,M,M,KBGE 011935Z AUTO 26007KT 10SM CLR 27/10 A3002 RMK AO2 PWINO
BGE,2017-04-01 19:55,-84.6369,30.9716,82.40,50.00,32.46,260.00,6.00,0.00,30.01,M,10.00,M,CLR,M,M,M,M,M,M,M,M,KBGE 011955Z AUTO 26006KT 10SM CLR 28/10 A3001 RMK AO2 PWINO
BGE,2017-04-01 20:15,-84.6369,30.9716,82.40,46.40,28.36,0.00,0.00,0.00,30.00,M,10.00,M,CLR,M,M,M,M,M,M,M,M,KBGE 012015Z AUTO 00000KT 10SM CLR 28/08 A3000 RMK AO2 PWINO
BGE,2017-04-01 20:35,-84.6369,30.9716,82.40,46.40,28.36,0.00,0.00,0.00,30.00,M,10.00,M,CLR,M,M,M,M,M,M,M,M,KBGE 012035Z AUTO 00000KT 10SM CLR 28/08 A3000 RMK AO2 PWINO
BGE,2017-04-01 20:55,-84.6369,30.9716,82.40,50.00,32.46,290.00,5.00,0.00,30.00,M,10.00,M,CLR,M,M,M,M,M,M,M,M,KBGE 012055Z AUTO 29005KT 10SM CLR 28/10 A3000 RMK AO2 PWINO
BGE,2017-04-01 21:15,-84.6369,30.9716,82.40,50.00,32.46,280.00,5.00,0.00,30.00,M,10.00,M,CLR,M,M,M,M,M,M,M,M,KBGE 012115Z AUTO 28005KT 10SM CLR 28/10 A3000 RMK AO2 PWINO
BGE,2017-04-01 21:35,-84.6369,30.9716,82.40,48.20,30.35,0.00,0.00,0.00,30.00,M,10.00,M,CLR,M,M,M,M,M,M,M,M,KBGE 012135Z AUTO 00000KT 10SM CLR 28/09 A3000 RMK AO2 PWINO
BGE,2017-04-01 21:55,-84.6369,30.9716,82.40,50.00,32.46,0.00,0.00,0.00,30.00,M,10.00,M,CLR,M,M,M,M,M,M,M,M,KBGE 012155Z AUTO 00000KT 10SM CLR 28/10 A3000 RMK AO2 PWINO
BGE,2017-04-01 22:15,-84.6369,30.9716,82.40,50.00,32.46,250.00,4.00,0.00,30.00,M,10.00,M,CLR,M,M,M,M,M,M,M,M,KBGE 012215Z AUTO 25004KT 10SM CLR 28/10 A3000 RMK AO2 PWINO
BGE,2017-04-01 22:35,-84.6369,30.9716,82.40,50.00,32.46,260.00,4.00,0.00,30.00,M,10.00,M,CLR,M,M,M,M,M,M,M,M,KBGE 012235Z AUTO 26004KT 10SM CLR 28/10 A3000 RMK AO2 PWINO
BGE,2017-04-01 22:55,-84.6369,30.9716,80.60,50.00,34.41,240.00,4.00,0.00,30.00,M,10.00,M,CLR,M,M,M,M,M,M,M,M,KBGE 012255Z AUTO 24004KT 10SM CLR 27/10 A3000 RMK AO2 PWINO
BGE,2017-04-01 23:15,-84.6369,30.9716,80.60,50.00,34.41,250.00,4.00,0.00,30.00,M,10.00,M,CLR,M,M,M,M,M,M,M,M,KBGE 012315Z AUTO 25004KT 10SM CLR 27/10 A3000 RMK AO2 PWINO
BGE,2017-04-01 23:35,-84.6369,30.9716,78.80,51.80,39.02,270.00,3.00,0.00,30.00,M,10.00,M,CLR,M,M,M,M,M,M,M,M,KBGE 012335Z AUTO 27003KT 10SM CLR 26/11 A3000 RMK AO2 PWINO
BGE,2017-04-01 23:55,-84.6369,30.9716,78.80,53.60,41.69,0.00,0.00,0.00,30.01,M,10.00,M,CLR,M,M,M,M,M,M,M,M,KBGE 012355Z AUTO 00000KT 10SM CLR 26/12 A3001 RMK AO2 PWINO
