#DEBUG: Format Typ    -> comma
#DEBUG: Time Period   -> 2017-04-01 00:00:00+00:00 2017-04-02 00:00:00+00:00
#DEBUG: Time Zone     -> Etc/UTC
#DEBUG: Data Contact   -> daryl herzmann akrherz@iastate.edu 515-294-5978
#DEBUG: Entries Found -> -1
station,valid,lon,lat,tmpf, dwpf, relh, drct, sknt, p01i, alti, mslp, vsby, gust, skyc1, skyc2, skyc3, skyc4, skyl1, skyl2, skyl3, skyl4, presentwx, metar
BGM,2017-04-01 00:00,-75.9797,42.2086,M,M,M,110.00,11.00,M,29.70,M,4.00,M,SCT,OVC,M,M,700.00,1200.00,M,M,-RA BR,KBGM 010000Z AUTO 11011KT 4SM -RA BR SCT007 OVC012 A2970 RMK MADISHF
BGM,2017-04-01 00:05,-75.9797,42.2086,M,M,M,110.00,10.00,M,29.70,M,4.00,M,FEW,BKN,OVC,M,400.00,999.00,1600.00,M,-RA BR,KBGM 010005Z AUTO 11010KT 4SM -RA BR FEW004 BKN009 OVC016 A2970 RMK CIG 6V13  MADISHF
BGM,2017-04-01 00:10,-75.9797,42.2086,M,M,M,110.00,8.00,M,29.70,M,4.00,M,BKN,OVC,M,M,700.00,1400.00,M,M,-RA BR,KBGM 010010Z AUTO 11008KT 4SM -RA BR BKN007 OVC014 A2970 RMK CIG 4V9  MADISHF
BGM,2017-04-01 00:15,-75.9797,42.2086,M,M,M,110.00,9.00,M,29.70,M,5.00,M,BKN,OVC,M,M,600.00,1100.00,M,M,-RA BR,KBGM 010015Z AUTO 11009KT 5SM -RA BR BKN006 OVC011 A2970 RMK CIG 4V9  MADISHF
BGM,2017-04-01 00:20,-75.9797,42.2086,M,M,M,110.00,10.00,M,29.70,M,4.00,M,BKN,BKN,OVC,M,600.00,1100.00,1400.00,M,-RA BR,KBGM 010020Z AUTO 11010KT 4SM -RA BR BKN006 BKN011 OVC014 A2970 RMK CIG 4V9  MADISHF
BGM,2017-04-01 00:25,-75.9797,42.2086,M,M,M,110.00,10.00,0.01,29.70,M,4.00,M,SCT,OVC,M,M,600.00,1100.00,M,M,-RA BR,KBGM 010025Z AUTO 11010KT 4SM -RA BR SCT006 OVC011 A2970 RMK P0001 CIG 7V12  MADISHF
BGM,2017-04-01 00:30,-75.9797,42.2086,M,M,M,110.00,10.00,0.01,29.70,M,4.00,M,BKN,OVC,M,M,600.00,1200.00,M,M,-RA BR,KBGM 010030Z AUTO 11010KT 4SM -RA BR BKN006 OVC012 A2970 RMK P0001 MADISHF
BGM,2017-04-01 00:35,-75.9797,42.2086,M,M,M,100.00,8.00,0.01,29.70,M,3.50,M,BKN,OVC,M,M,600.00,1200.00,M,M,-RA BR,KBGM 010035Z AUTO 10008KT 3SM -RA BR BKN006 OVC012 A2970 RMK P0001 MADISHF
BGM,2017-04-01 00:40,-75.9797,42.2086,33.10,33.10,100.00,110.00,9.00,0.01,29.70,M,3.00,M,BKN,BKN,OVC,M,600.00,1000.00,1400.00,M,-RA BR,KBGM 010040Z 11009KT 3SM -RA BR BKN006 BKN010 OVC014 01/01 A2970 RMK AO2 P0001 T00060006
BGM,2017-04-01 00:45,-75.9797,42.2086,M,M,M,110.00,9.00,0.02,29.70,M,4.00,M,BKN,BKN,OVC,M,499.00,999.00,1400.00,M,-RA BR,KBGM 010045Z AUTO 11009KT 4SM -RA BR BKN004 BKN009 OVC014 A2970 RMK P0002 MADISHF
BGM,2017-04-01 00:50,-75.9797,42.2086,M,M,M,110.00,8.00,0.02,29.70,M,4.00,M,SCT,OVC,M,M,499.00,999.00,M,M,-RA BR,KBGM 010050Z AUTO 11008KT 4SM -RA BR SCT004 OVC009 A2970 RMK P0002 MADISHF
BGM,2017-04-01 00:53,-75.9797,42.2086,33.10,33.10,100.00,100.00,7.00,0.02,29.70,1007.20,5.00,M,BKN,OVC,M,M,500.00,1000.00,M,M,-RA BR,KBGM 010053Z 10007KT 5SM -RA BR BKN005 OVC010 01/01 A2970 RMK AO2 SLP072 P0002 T00060006
BGM,2017-04-01 00:55,-75.9797,42.2086,M,M,M,100.00,7.00,0.01,29.70,M,5.00,M,BKN,OVC,M,M,499.00,999.00,M,M,-RA BR,KBGM 010055Z AUTO 10007KT 5SM -RA BR BKN004 OVC009 A2970 RMK P0001 MADISHF
BGM,2017-04-01 01:00,-75.9797,42.2086,M,M,M,90.00,8.00,0.01,29.71,M,5.00,M,BKN,OVC,M,M,499.00,1100.00,M,M,-RA BR,KBGM 010100Z AUTO 09008KT 5SM -RA BR BKN004 OVC011 A2971 RMK P0001 MADISHF
BGM,2017-04-01 01:05,-75.9797,42.2086,M,M,M,90.00,8.00,0.01,29.71,M,5.00,M,BKN,OVC,M,M,499.00,1100.00,M,M,-RA BR,KBGM 010105Z AUTO 09008KT 5SM -RA BR BKN004 OVC011 A2971 RMK P0001 MADISHF
BGM,2017-04-01 01:10,-75.9797,42.2086,M,M,M,100.00,8.00,0.01,29.71,M,5.00,M,BKN,OVC,M,M,499.00,900.00,M,M,-RA BR,KBGM 010110Z AUTO 10008KT 5SM -RA BR BKN004 OVC009 A2971 RMK P0001 MADISHF
BGM,2017-04-01 01:15,-75.9797,42.2086,M,M,M,100.00,8.00,0.01,29.71,M,6.00,M,BKN,OVC,M,M,499.00,1200.00,M,M,-RA BR,KBGM 010115Z AUTO 10008KT 6SM -RA BR BKN004 OVC012 A2971 RMK P0001 CIG 3V7  MADISHF
BGM,2017-04-01 01:20,-75.9797,42.2086,M,M,M,110.00,8.00,0.02,29.71,M,6.00,M,BKN,BKN,OVC,M,499.00,900.00,1200.00,M,-RA BR,KBGM 010120Z AUTO 11008KT 6SM -RA BR BKN004 BKN009 OVC012 A2971 RMK P0002 CIG 3V8  MADISHF
BGM,2017-04-01 01:25,-75.9797,42.2086,M,M,M,100.00,7.00,0.02,29.71,M,6.00,M,SCT,BKN,OVC,M,499.00,999.00,1400.00,M,-RA BR,KBGM 010125Z AUTO 10007KT 6SM -RA BR SCT004 BKN009 OVC014 A2971 RMK P0002 CIG 9V12  MADISHF
BGM,2017-04-01 01:30,-75.9797,42.2086,M,M,M,100.00,8.00,0.02,29.71,M,6.00,M,FEW,BKN,OVC,M,499.00,999.00,1400.00,M,-RA BR,KBGM 010130Z AUTO 10008KT 6SM -RA BR FEW004 BKN009 OVC014 A2971 RMK P0002 CIG 8V12  MADISHF
BGM,2017-04-01 01:31,-75.9797,42.2086,33.10,32.00,95.67,110.00,7.00,0.02,29.71,M,6.00,M,SCT,OVC,M,M,700.00,1400.00,M,M,-RA BR,KBGM 010131Z 11007KT 6SM -RA BR SCT007 OVC014 01/00 A2971 RMK AO2 P0002 T00060000
BGM,2017-04-01 01:35,-75.9797,42.2086,M,M,M,110.00,10.00,0.03,29.71,M,6.00,M,FEW,OVC,M,M,499.00,1200.00,M,M,-RA BR,KBGM 010135Z AUTO 11010KT 6SM -RA BR FEW004 OVC012 A2971 RMK P0003 MADISHF
BGM,2017-04-01 01:40,-75.9797,42.2086,M,M,M,110.00,10.00,0.03,29.71,M,7.00,M,SCT,OVC,M,M,700.00,1200.00,M,M,-RA,KBGM 010140Z AUTO 11010KT 7SM -RA SCT007 OVC012 A2971 RMK P0003 MADISHF
BGM,2017-04-01 01:45,-75.9797,42.2086,M,M,M,110.00,10.00,0.03,29.71,M,7.00,M,BKN,OVC,M,M,900.00,1400.00,M,M,-RA,KBGM 010145Z AUTO 11010KT 7SM -RA BKN009 OVC014 A2971 RMK P0003 CIG 4V11  MADISHF
BGM,2017-04-01 01:50,-75.9797,42.2086,M,M,M,110.00,11.00,0.04,29.71,M,7.00,M,BKN,OVC,M,M,900.00,1400.00,M,M,-RA,KBGM 010150Z AUTO 11011KT 7SM -RA BKN009 OVC014 A2971 RMK P0004 CIG 5V12  MADISHF
BGM,2017-04-01 01:53,-75.9797,42.2086,33.10,32.00,95.67,100.00,9.00,0.04,29.71,1007.50,7.00,M,SCT,OVC,M,M,700.00,1400.00,M,M,-RA,KBGM 010153Z 10009KT 7SM -RA SCT007 OVC014 01/00 A2971 RMK AO2 SLP075 P0004 T00060000
BGM,2017-04-01 01:55,-75.9797,42.2086,M,M,M,110.00,10.00,M,29.71,M,7.00,M,SCT,OVC,M,M,700.00,1400.00,M,M,-RA,KBGM 010155Z AUTO 11010KT 7SM -RA SCT007 OVC014 A2971 RMK MADISHF
BGM,2017-04-01 02:00,-75.9797,42.2086,M,M,M,110.00,10.00,M,29.71,M,7.00,M,BKN,OVC,M,M,900.00,1400.00,M,M,-RA,KBGM 010200Z AUTO 11010KT 7SM -RA BKN009 OVC014 A2971 RMK CIG 5V11  MADISHF
BGM,2017-04-01 02:05,-75.9797,42.2086,M,M,M,110.00,9.00,0.01,29.71,M,8.00,M,FEW,OVC,M,M,700.00,1300.00,M,M,-RA,KBGM 010205Z AUTO 11009KT 8SM -RA FEW007 OVC013 A2971 RMK P0001 MADISHF
BGM,2017-04-01 02:10,-75.9797,42.2086,M,M,M,100.00,8.00,0.01,29.71,M,7.00,M,BKN,OVC,M,M,999.00,1500.00,M,M,-RA,KBGM 010210Z AUTO 10008KT 7SM -RA BKN009 OVC015 A2971 RMK P0001 CIG 5V13  MADISHF
BGM,2017-04-01 02:15,-75.9797,42.2086,M,M,M,110.00,9.00,0.01,29.71,M,7.00,M,SCT,OVC,M,M,999.00,1300.00,M,M,-RA,KBGM 010215Z AUTO 11009KT 7SM -RA SCT009 OVC013 A2971 RMK P0001 MADISHF
BGM,2017-04-01 02:20,-75.9797,42.2086,M,M,M,100.00,9.00,0.01,29.71,M,6.00,M,BKN,OVC,M,M,1200.00,1600.00,M,M,-RA BR,KBGM 010220Z AUTO 10009KT 6SM -RA BR BKN012 OVC016 A2971 RMK P0001 MADISHF
BGM,2017-04-01 02:25,-75.9797,42.2086,M,M,M,110.00,8.00,0.01,29.71,M,5.00,M,BKN,OVC,M,M,999.00,1500.00,M,M,-RA BR,KBGM 010225Z AUTO 11008KT 5SM -RA BR BKN009 OVC015 A2971 RMK P0001 CIG 7V12  MADISHF
BGM,2017-04-01 02:30,-75.9797,42.2086,M,M,M,110.00,9.00,0.01,29.70,M,6.00,M,OVC,M,M,M,1300.00,M,M,M,-RA BR,KBGM 010230Z AUTO 11009KT 6SM -RA BR OVC013 A2970 RMK P0001 MADISHF
BGM,2017-04-01 02:35,-75.9797,42.2086,M,M,M,110.00,9.00,0.02,29.70,M,6.00,M,BKN,OVC,M,M,999.00,1300.00,M,M,-RA BR,KBGM 010235Z AUTO 11009KT 6SM -RA BR BKN009 OVC013 A2970 RMK P0002 CIG 7V12  MADISHF
BGM,2017-04-01 02:40,-75.9797,42.2086,M,M,M,110.00,10.00,0.02,29.70,M,7.00,M,OVC,M,M,M,1300.00,M,M,M,-RA,KBGM 010240Z AUTO 11010KT 7SM -RA OVC013 A2970 RMK P0002 MADISHF
BGM,2017-04-01 02:45,-75.9797,42.2086,M,M,M,M,M,0.02,29.70,M,8.00,M,OVC,M,M,M,1200.00,M,M,M,-RA,KBGM 010245Z AUTO /////KT 8SM -RA OVC012 A2970 RMK P0002 MADISHF
BGM,2017-04-01 02:50,-75.9797,42.2086,M,M,M,110.00,10.00,0.02,29.70,M,8.00,M,OVC,M,M,M,1300.00,M,M,M,-RA,KBGM 010250Z AUTO 11010KT 8SM -RA OVC013 A2970 RMK P0002 MADISHF
BGM,2017-04-01 02:53,-75.9797,42.2086,33.10,30.90,91.51,110.00,9.00,0.02,29.70,1007.10,8.00,M,OVC,M,M,M,1300.00,M,M,M,-RA,KBGM 010253Z 11009KT 8SM -RA OVC013 01/M01 A2970 RMK AO2 SLP071 P0002 60008 T00061006 58001
BGM,2017-04-01 02:55,-75.9797,42.2086,M,M,M,M,M,M,29.70,M,8.00,M,OVC,M,M,M,1300.00,M,M,M,-RA,KBGM 010255Z AUTO /////KT 8SM -RA OVC013 A2970 RMK MADISHF
BGM,2017-04-01 03:00,-75.9797,42.2086,M,M,M,110.00,9.00,M,29.70,M,8.00,M,OVC,M,M,M,1300.00,M,M,M,-RA,KBGM 010300Z AUTO 11009KT 8SM -RA OVC013 A2970 RMK MADISHF
BGM,2017-04-01 03:05,-75.9797,42.2086,M,M,M,110.00,11.00,M,29.70,M,8.00,M,OVC,M,M,M,1300.00,M,M,M,-RA,KBGM 010305Z AUTO 11011KT 8SM -RA OVC013 A2970 RMK MADISHF
BGM,2017-04-01 03:10,-75.9797,42.2086,M,M,M,110.00,9.00,M,29.70,M,8.00,M,OVC,M,M,M,1300.00,M,M,M,-RA,KBGM 010310Z AUTO 11009KT 8SM -RA OVC013 A2970 RMK MADISHF
BGM,2017-04-01 03:15,-75.9797,42.2086,M,M,M,110.00,10.00,M,29.70,M,8.00,M,OVC,M,M,M,1300.00,M,M,M,-RA,KBGM 010315Z AUTO 11010KT 8SM -RA OVC013 A2970 RMK MADISHF
BGM,2017-04-01 03:20,-75.9797,42.2086,M,M,M,100.00,10.00,M,29.70,M,8.00,M,BKN,OVC,M,M,999.00,1500.00,M,M,-RA,KBGM 010320Z AUTO 10010KT 8SM -RA BKN009 OVC015 A2970 RMK CIG 6V14  MADISHF
BGM,2017-04-01 03:25,-75.9797,42.2086,M,M,M,100.00,9.00,M,29.69,M,9.00,M,BKN,OVC,M,M,999.00,1500.00,M,M,-RA,KBGM 010325Z AUTO 10009KT 9SM -RA BKN009 OVC015 A2969 RMK CIG 6V13  MADISHF
BGM,2017-04-01 03:30,-75.9797,42.2086,M,M,M,110.00,10.00,0.00,29.70,M,9.00,M,OVC,M,M,M,999.00,M,M,M,UP,KBGM 010330Z AUTO 11010KT 9SM UP OVC009 A2970 RMK P0000 MADISHF
BGM,2017-04-01 03:35,-75.9797,42.2086,M,M,M,110.00,9.00,0.00,29.69,M,10.00,M,OVC,M,M,M,999.00,M,M,M,UP,KBGM 010335Z AUTO 11009KT 10SM UP OVC009 A2969 RMK P0000 MADISHF
BGM,2017-04-01 03:40,-75.9797,42.2086,M,M,M,100.00,10.00,0.00,29.69,M,10.00,M,OVC,M,M,M,1200.00,M,M,M,UP,KBGM 010340Z AUTO 10010KT 10SM UP OVC012 A2969 RMK P0000 MADISHF
BGM,2017-04-01 03:45,-75.9797,42.2086,M,M,M,110.00,8.00,0.00,29.70,M,10.00,M,OVC,M,M,M,999.00,M,M,M,UP,KBGM 010345Z AUTO 11008KT 10SM UP OVC009 A2970 RMK P0000 MADISHF
BGM,2017-04-01 03:50,-75.9797,42.2086,M,M,M,100.00,9.00,0.00,29.70,M,9.00,M,OVC,M,M,M,999.00,M,M,M,UP,KBGM 010350Z AUTO 10009KT 9SM UP OVC009 A2970 RMK P0000 MADISHF
BGM,2017-04-01 03:53,-75.9797,42.2086,32.00,30.90,95.65,110.00,9.00,0.00,29.70,1007.10,8.00,M,OVC,M,M,M,1000.00,M,M,M,UP,KBGM 010353Z AUTO 11009KT 8SM UP OVC010 00/M01 A2970 RMK AO2 RAE26UPB26 SLP071 P0000 T00001006
BGM,2017-04-01 03:55,-75.9797,42.2086,M,M,M,100.00,8.00,0.00,29.70,M,8.00,M,OVC,M,M,M,999.00,M,M,M,UP,KBGM 010355Z AUTO 10008KT 8SM UP OVC009 A2970 RMK P0000 MADISHF
BGM,2017-04-01 04:00,-75.9797,42.2086,M,M,M,100.00,8.00,0.00,29.70,M,7.00,M,OVC,M,M,M,1100.00,M,M,M,UP,KBGM 010400Z AUTO 10008KT 7SM UP OVC011 A2970 RMK P0000 MADISHF
BGM,2017-04-01 04:05,-75.9797,42.2086,M,M,M,100.00,9.00,0.00,29.70,M,7.00,M,BKN,OVC,M,M,900.00,1300.00,M,M,UP,KBGM 010405Z AUTO 10009KT 7SM UP BKN009 OVC013 A2970 RMK P0000 CIG 4V11  MADISHF
BGM,2017-04-01 04:07,-75.9797,42.2086,32.00,30.90,95.65,100.00,9.00,0.00,29.70,M,6.00,M,SCT,OVC,M,M,600.00,1100.00,M,M,UP BR,KBGM 010407Z AUTO 10009KT 6SM UP BR SCT006 OVC011 00/M01 A2970 RMK AO2 P0000 T00001006
BGM,2017-04-01 04:10,-75.9797,42.2086,M,M,M,110.00,8.00,M,29.70,M,6.00,M,BKN,OVC,M,M,600.00,1100.00,M,M,BR,KBGM 010410Z AUTO 11008KT 6SM BR BKN006 OVC011 A2970 RMK CIG 3V8  MADISHF
BGM,2017-04-01 04:15,-75.9797,42.2086,M,M,M,110.00,9.00,M,29.70,M,6.00,M,SCT,OVC,M,M,400.00,900.00,M,M,BR,KBGM 010415Z AUTO 11009KT 6SM BR SCT004 OVC009 A2970 RMK CIG 7V11  MADISHF
BGM,2017-04-01 04:18,-75.9797,42.2086,32.00,30.20,92.97,110.00,9.00,0.00,29.70,M,6.00,M,BKN,OVC,M,M,600.00,1100.00,M,M,UP BR,KBGM 010418Z AUTO 11009KT 6SM UP BR BKN006 OVC011 00/M01 A2970
BGM,2017-04-01 04:20,-75.9797,42.2086,M,M,M,100.00,7.00,0.00,29.70,M,6.00,M,BKN,OVC,M,M,600.00,1100.00,M,M,UP BR,KBGM 010420Z AUTO 10007KT 6SM UP BR BKN006 OVC011 A2970 RMK P0000 CIG 3V9  MADISHF
BGM,2017-04-01 04:25,-75.9797,42.2086,M,M,M,100.00,8.00,0.00,29.70,M,5.00,M,SCT,OVC,M,M,400.00,900.00,M,M,UP BR,KBGM 010425Z AUTO 10008KT 5SM UP BR SCT004 OVC009 A2970 RMK P0000 CIG 7V14  MADISHF
BGM,2017-04-01 04:30,-75.9797,42.2086,M,M,M,110.00,6.00,0.00,29.70,M,5.00,M,BKN,OVC,M,M,600.00,900.00,M,M,UP BR,KBGM 010430Z AUTO 11006KT 5SM UP BR BKN006 OVC009 A2970 RMK P0000 CIG 3V9  MADISHF
BGM,2017-04-01 04:35,-75.9797,42.2086,M,M,M,110.00,8.00,0.00,29.70,M,5.00,M,BKN,OVC,M,M,600.00,1100.00,M,M,UP BR,KBGM 010435Z AUTO 11008KT 5SM UP BR BKN006 OVC011 A2970 RMK P0000 MADISHF
BGM,2017-04-01 04:40,-75.9797,42.2086,M,M,M,110.00,7.00,M,29.70,M,5.00,M,SCT,OVC,M,M,400.00,900.00,M,M,BR,KBGM 010440Z AUTO 11007KT 5SM BR SCT004 OVC009 A2970 RMK MADISHF
BGM,2017-04-01 04:45,-75.9797,42.2086,M,M,M,110.00,7.00,M,29.70,M,5.00,M,SCT,OVC,M,M,400.00,900.00,M,M,BR,KBGM 010445Z AUTO 11007KT 5SM BR SCT004 OVC009 A2970 RMK MADISHF
BGM,2017-04-01 04:50,-75.9797,42.2086,M,M,M,110.00,8.00,M,29.71,M,6.00,M,SCT,OVC,M,M,400.00,1100.00,M,M,BR,KBGM 010450Z AUTO 11008KT 6SM BR SCT004 OVC011 A2971 RMK MADISHF
BGM,2017-04-01 04:53,-75.9797,42.2086,32.00,30.90,95.65,120.00,6.00,0.00,29.71,1007.30,6.00,M,FEW,BKN,OVC,M,400.00,900.00,1300.00,M,BR,KBGM 010453Z AUTO 12006KT 6SM BR FEW004 BKN009 OVC013 00/M01 A2971 RMK AO2 UPE39 SLP073 P0000 T00001006 400220000
BGM,2017-04-01 04:55,-75.9797,42.2086,M,M,M,110.00,6.00,M,29.71,M,6.00,M,SCT,OVC,M,M,600.00,1300.00,M,M,BR,KBGM 010455Z AUTO 11006KT 6SM BR SCT006 OVC013 A2971 RMK MADISHF
BGM,2017-04-01 05:00,-75.9797,42.2086,32.00,30.90,95.65,120.00,7.00,0.00,29.71,M,6.00,M,FEW,OVC,M,M,600.00,1300.00,M,M,BR,KBGM 010500Z AUTO 12007KT 6SM BR FEW006 OVC013 00/M01 A2971 RMK AO2 T00001006
BGM,2017-04-01 05:05,-75.9797,42.2086,M,M,M,110.00,7.00,M,29.71,M,5.00,M,FEW,OVC,M,M,600.00,1300.00,M,M,BR,KBGM 010505Z AUTO 11007KT 5SM BR FEW006 OVC013 A2971 RMK MADISHF
BGM,2017-04-01 05:10,-75.9797,42.2086,M,M,M,110.00,6.00,M,29.71,M,4.00,M,FEW,OVC,M,M,600.00,1300.00,M,M,BR,KBGM 010510Z AUTO 11006KT 4SM BR FEW006 OVC013 A2971 RMK MADISHF
BGM,2017-04-01 05:15,-75.9797,42.2086,M,M,M,100.00,6.00,M,29.71,M,4.00,M,OVC,M,M,M,1400.00,M,M,M,BR,KBGM 010515Z AUTO 10006KT 4SM BR OVC014 A2971 RMK MADISHF
BGM,2017-04-01 05:20,-75.9797,42.2086,M,M,M,110.00,5.00,M,29.71,M,3.50,M,FEW,OVC,M,M,499.00,1600.00,M,M,BR,KBGM 010520Z AUTO 11005KT 3SM BR FEW004 OVC016 A2971 RMK MADISHF
BGM,2017-04-01 05:25,-75.9797,42.2086,M,M,M,110.00,6.00,0.01,29.71,M,3.00,M,FEW,OVC,M,M,600.00,1600.00,M,M,BR,KBGM 010525Z AUTO 11006KT 3SM BR FEW006 OVC016 A2971 RMK P0001 MADISHF
BGM,2017-04-01 05:26,-75.9797,42.2086,32.00,32.00,100.00,100.00,7.00,0.01,29.71,M,3.00,M,FEW,OVC,M,M,600.00,1600.00,M,M,BR,KBGM 010526Z AUTO 10007KT 3SM BR FEW006 OVC016 00/00 A2971 RMK AO2 P0001 T00000000
BGM,2017-04-01 05:30,-75.9797,42.2086,M,M,M,100.00,6.00,0.01,29.71,M,3.00,M,OVC,M,M,M,1600.00,M,M,M,BR,KBGM 010530Z AUTO 10006KT 3SM BR OVC016 A2971 RMK P0001 MADISHF
BGM,2017-04-01 05:35,-75.9797,42.2086,M,M,M,100.00,6.00,0.01,29.71,M,3.00,M,OVC,M,M,M,1600.00,M,M,M,BR,KBGM 010535Z AUTO 10006KT 3SM BR OVC016 A2971 RMK P0001 MADISHF
BGM,2017-04-01 05:40,-75.9797,42.2086,M,M,M,110.00,5.00,0.01,29.71,M,2.50,M,OVC,M,M,M,1600.00,M,M,M,BR,KBGM 010540Z AUTO 11005KT 2 1/2SM BR OVC016 A2971 RMK P0001 MADISHF
BGM,2017-04-01 05:45,-75.9797,42.2086,32.00,32.00,100.00,110.00,5.00,0.01,29.71,M,2.50,M,OVC,M,M,M,1600.00,M,M,M,BR,KBGM 010545Z AUTO 11005KT 2 1/2SM BR OVC016 00/00 A2971 RMK AO2 P0001 T00000000
BGM,2017-04-01 05:50,-75.9797,42.2086,M,M,M,110.00,6.00,0.01,29.71,M,2.50,M,BKN,OVC,M,M,1699.00,2200.00,M,M,BR,KBGM 010550Z AUTO 11006KT 2 1/2SM BR BKN016 OVC022 A2971 RMK P0001 MADISHF
BGM,2017-04-01 05:53,-75.9797,42.2086,32.00,32.00,100.00,110.00,5.00,0.01,29.71,1007.40,2.50,M,BKN,OVC,M,M,1700.00,2200.00,M,M,BR,KBGM 010553Z AUTO 11005KT 2 1/2SM BR BKN017 OVC022 00/00 A2971 RMK AO2 SLP074 P0001 60009 T00000000 10006 20000 51003
BGM,2017-04-01 05:55,-75.9797,42.2086,M,M,M,110.00,5.00,M,29.71,M,2.50,M,BKN,OVC,M,M,1699.00,2200.00,M,M,BR,KBGM 010555Z AUTO 11005KT 2 1/2SM BR BKN016 OVC022 A2971 RMK MADISHF
BGM,2017-04-01 06:00,-75.9797,42.2086,M,M,M,110.00,4.00,M,29.71,M,2.50,M,OVC,M,M,M,1900.00,M,M,M,BR,KBGM 010600Z AUTO 11004KT 2 1/2SM BR OVC019 A2971 RMK MADISHF
BGM,2017-04-01 06:05,-75.9797,42.2086,M,M,M,110.00,3.00,M,29.71,M,2.50,M,OVC,M,M,M,1900.00,M,M,M,BR,KBGM 010605Z AUTO 11003KT 2 1/2SM BR OVC019 A2971 RMK MADISHF
BGM,2017-04-01 06:10,-75.9797,42.2086,M,M,M,120.00,3.00,M,29.71,M,2.50,M,BKN,OVC,M,M,1699.00,2200.00,M,M,BR,KBGM 010610Z AUTO 12003KT 2 1/2SM BR BKN016 OVC022 A2971 RMK MADISHF
BGM,2017-04-01 06:15,-75.9797,42.2086,M,M,M,0.00,0.00,M,29.71,M,2.50,M,FEW,BKN,OVC,M,400.00,1699.00,2200.00,M,BR,KBGM 010615Z AUTO 00000KT 2 1/2SM BR FEW004 BKN016 OVC022 A2971 RMK MADISHF
BGM,2017-04-01 06:18,-75.9797,42.2086,32.00,32.00,100.00,0.00,0.00,0.00,29.71,M,2.50,M,FEW,BKN,OVC,M,400.00,1700.00,2200.00,M,BR,KBGM 010618Z AUTO 00000KT 2 1/2SM BR FEW004 BKN017 OVC022 00/00 A2971 RMK AO2 T00000000
BGM,2017-04-01 06:20,-75.9797,42.2086,M,M,M,0.00,0.00,M,29.71,M,2.50,M,SCT,BKN,OVC,M,400.00,1500.00,2200.00,M,BR,KBGM 010620Z AUTO 00000KT 2 1/2SM BR SCT004 BKN015 OVC022 A2971 RMK MADISHF
BGM,2017-04-01 06:25,-75.9797,42.2086,M,M,M,0.00,0.00,M,29.71,M,2.50,M,SCT,SCT,OVC,M,300.00,800.00,1300.00,M,BR,KBGM 010625Z AUTO 00000KT 2 1/2SM BR SCT003 SCT008 OVC013 A2971 RMK MADISHF
BGM,2017-04-01 06:30,-75.9797,42.2086,32.00,32.00,100.00,0.00,0.00,0.00,29.71,M,2.50,M,SCT,BKN,OVC,M,300.00,900.00,1300.00,M,BR,KBGM 010630Z AUTO 00000KT 2 1/2SM BR SCT003 BKN009 OVC013 00/00 A2971 RMK AO2 T00000000
BGM,2017-04-01 06:35,-75.9797,42.2086,M,M,M,0.00,0.00,M,29.71,M,2.50,M,SCT,OVC,M,M,300.00,900.00,M,M,BR,KBGM 010635Z AUTO 00000KT 2 1/2SM BR SCT003 OVC009 A2971 RMK MADISHF
BGM,2017-04-01 06:40,-75.9797,42.2086,M,M,M,0.00,0.00,M,29.71,M,2.50,M,SCT,OVC,M,M,300.00,900.00,M,M,BR,KBGM 010640Z AUTO 00000KT 2 1/2SM BR SCT003 OVC009 A2971 RMK MADISHF
BGM,2017-04-01 06:45,-75.9797,42.2086,M,M,M,0.00,0.00,M,29.71,M,3.00,M,SCT,OVC,M,M,300.00,900.00,M,M,BR,KBGM 010645Z AUTO 00000KT 3SM BR SCT003 OVC009 A2971 RMK MADISHF
BGM,2017-04-01 06:50,-75.9797,42.2086,32.00,32.00,100.00,0.00,0.00,0.00,29.71,M,3.00,M,SCT,OVC,M,M,300.00,900.00,M,M,BR,KBGM 010650Z AUTO 00000KT 3SM BR SCT003 OVC009 00/00 A2971 RMK AO2
BGM,2017-04-01 06:53,-75.9797,42.2086,32.00,32.00,100.00,0.00,0.00,0.00,29.71,1007.60,3.00,M,SCT,OVC,M,M,300.00,1100.00,M,M,-SN BR,KBGM 010653Z AUTO 00000KT 3SM -SN BR SCT003 OVC011 00/00 A2971 RMK AO2 SNB52 SLP076 P0000 T00000000
BGM,2017-04-01 06:55,-75.9797,42.2086,M,M,M,0.00,0.00,M,29.71,M,3.00,M,SCT,OVC,M,M,300.00,1100.00,M,M,-SN BR,KBGM 010655Z AUTO 00000KT 3SM -SN BR SCT003 OVC011 A2971 RMK MADISHF
BGM,2017-04-01 07:00,-75.9797,42.2086,M,M,M,0.00,0.00,M,29.72,M,3.00,M,BKN,OVC,M,M,300.00,1100.00,M,M,-SN BR,KBGM 010700Z AUTO 00000KT 3SM -SN BR BKN003 OVC011 A2972 RMK MADISHF
BGM,2017-04-01 07:04,-75.9797,42.2086,32.00,30.90,95.65,0.00,0.00,0.00,29.72,M,3.00,M,BKN,OVC,M,M,300.00,1100.00,M,M,BR,KBGM 010704Z AUTO 00000KT 3SM BR BKN003 OVC011 00/M01 A2972 RMK AO2 SNE02 P0000 T00001006
BGM,2017-04-01 07:05,-75.9797,42.2086,M,M,M,0.00,0.00,M,29.72,M,3.50,M,BKN,OVC,M,M,300.00,1200.00,M,M,BR,KBGM 010705Z AUTO 00000KT 3SM BR BKN003 OVC012 A2972 RMK MADISHF
BGM,2017-04-01 07:10,-75.9797,42.2086,M,M,M,0.00,0.00,M,29.72,M,3.50,M,BKN,OVC,M,M,300.00,1200.00,M,M,BR,KBGM 010710Z AUTO 00000KT 3SM BR BKN003 OVC012 A2972 RMK MADISHF
BGM,2017-04-01 07:15,-75.9797,42.2086,M,M,M,0.00,0.00,M,29.72,M,3.50,M,BKN,OVC,M,M,300.00,1699.00,M,M,BR,KBGM 010715Z AUTO 00000KT 3SM BR BKN003 OVC016 A2972 RMK MADISHF
BGM,2017-04-01 07:20,-75.9797,42.2086,M,M,M,0.00,0.00,M,29.72,M,4.00,M,BKN,OVC,M,M,300.00,2100.00,M,M,BR,KBGM 010720Z AUTO 00000KT 4SM BR BKN003 OVC021 A2972 RMK MADISHF
BGM,2017-04-01 07:25,-75.9797,42.2086,M,M,M,0.00,0.00,M,29.72,M,4.00,M,BKN,OVC,M,M,300.00,1900.00,M,M,BR,KBGM 010725Z AUTO 00000KT 4SM BR BKN003 OVC019 A2972 RMK MADISHF
BGM,2017-04-01 07:30,-75.9797,42.2086,M,M,M,0.00,0.00,0.01,29.72,M,4.00,M,BKN,OVC,M,M,300.00,1900.00,M,M,-SN BR,KBGM 010730Z AUTO 00000KT 4SM -SN BR BKN003 OVC019 A2972 RMK P0001 MADISHF
BGM,2017-04-01 07:35,-75.9797,42.2086,M,M,M,0.00,0.00,0.01,29.72,M,3.00,M,BKN,OVC,M,M,400.00,1900.00,M,M,-SN BR,KBGM 010735Z AUTO 00000KT 3SM -SN BR BKN004 OVC019 A2972 RMK P0001 MADISHF
BGM,2017-04-01 07:40,-75.9797,42.2086,32.00,32.00,100.00,0.00,0.00,0.01,29.72,M,2.50,M,SCT,OVC,M,M,400.00,2000.00,M,M,-SN BR,KBGM 010740Z AUTO 00000KT 2 1/2SM -SN BR SCT004 OVC020 00/00 A2972 RMK AO2 SNE02B27 P0001 T00000000
BGM,2017-04-01 07:45,-75.9797,42.2086,M,M,M,0.00,0.00,0.01,29.72,M,2.00,M,SCT,OVC,M,M,400.00,1999.00,M,M,-SN BR,KBGM 010745Z AUTO 00000KT 2SM -SN BR SCT004 OVC019 A2972 RMK P0001 MADISHF
BGM,2017-04-01 07:50,-75.9797,42.2086,M,M,M,0.00,0.00,0.02,29.72,M,2.00,M,FEW,OVC,M,M,400.00,1800.00,M,M,-SN BR,KBGM 010750Z AUTO 00000KT 2SM -SN BR FEW004 OVC018 A2972 RMK P0002 MADISHF
BGM,2017-04-01 07:53,-75.9797,42.2086,32.00,32.00,100.00,0.00,0.00,0.02,29.72,1007.90,1.75,M,FEW,OVC,M,M,400.00,1800.00,M,M,-SN BR,KBGM 010753Z AUTO 00000KT 1 3/4SM -SN BR FEW004 OVC018 00/00 A2972 RMK AO2 SNE02B27 SLP079 P0002 T00000000
BGM,2017-04-01 07:55,-75.9797,42.2086,M,M,M,0.00,0.00,M,29.72,M,1.50,M,FEW,OVC,M,M,400.00,1600.00,M,M,-SN BR,KBGM 010755Z AUTO 00000KT 1 1/2SM -SN BR FEW004 OVC016 A2972 RMK MADISHF
BGM,2017-04-01 08:00,-75.9797,42.2086,M,M,M,0.00,0.00,0.01,29.72,M,1.25,M,FEW,OVC,M,M,400.00,1600.00,M,M,-SN BR,KBGM 010800Z AUTO 00000KT 1 1/2SM -SN BR FEW004 OVC016 A2972 RMK P0001 MADISHF
BGM,2017-04-01 08:05,-75.9797,42.2086,M,M,M,0.00,0.00,0.01,29.72,M,1.25,M,OVC,M,M,M,1600.00,M,M,M,-SN BR,KBGM 010805Z AUTO 00000KT 1 1/2SM -SN BR OVC016 A2972 RMK P0001 MADISHF
BGM,2017-04-01 08:10,-75.9797,42.2086,M,M,M,0.00,0.00,0.02,29.72,M,1.25,M,OVC,M,M,M,1800.00,M,M,M,-SN BR,KBGM 010810Z AUTO 00000KT 1 1/2SM -SN BR OVC018 A2972 RMK P0002 MADISHF
BGM,2017-04-01 08:15,-75.9797,42.2086,M,M,M,0.00,0.00,0.02,29.72,M,1.75,M,OVC,M,M,M,2200.00,M,M,M,-SN BR,KBGM 010815Z AUTO 00000KT 2SM -SN BR OVC022 A2972 RMK P0002 MADISHF
BGM,2017-04-01 08:20,-75.9797,42.2086,M,M,M,0.00,0.00,0.02,29.73,M,2.00,M,OVC,M,M,M,2400.00,M,M,M,-SN BR,KBGM 010820Z AUTO 00000KT 2SM -SN BR OVC024 A2973 RMK P0002 MADISHF
BGM,2017-04-01 08:24,-75.9797,42.2086,32.00,30.90,95.65,0.00,0.00,0.02,29.73,M,2.00,M,BKN,OVC,M,M,2400.00,3100.00,M,M,-SN BR,KBGM 010824Z AUTO 00000KT 2SM -SN BR BKN024 OVC031 00/M01 A2973 RMK AO2 P0002 T00001006
BGM,2017-04-01 08:25,-75.9797,42.2086,M,M,M,0.00,0.00,0.02,29.73,M,2.00,M,OVC,M,M,M,2600.00,M,M,M,-SN BR,KBGM 010825Z AUTO 00000KT 2SM -SN BR OVC026 A2973 RMK P0002 MADISHF
BGM,2017-04-01 08:30,-75.9797,42.2086,M,M,M,0.00,0.00,0.02,29.73,M,2.00,M,OVC,M,M,M,2800.00,M,M,M,-SN BR,KBGM 010830Z AUTO 00000KT 2SM -SN BR OVC028 A2973 RMK P0002 MADISHF
BGM,2017-04-01 08:35,-75.9797,42.2086,M,M,M,0.00,0.00,0.03,29.73,M,2.00,M,FEW,OVC,M,M,1400.00,2800.00,M,M,-SN BR,KBGM 010835Z AUTO 00000KT 2SM -SN BR FEW014 OVC028 A2973 RMK P0003 MADISHF
BGM,2017-04-01 08:40,-75.9797,42.2086,M,M,M,350.00,3.00,0.03,29.73,M,2.00,M,SCT,OVC,M,M,1400.00,2800.00,M,M,-SN BR,KBGM 010840Z AUTO 35003KT 2SM -SN BR SCT014 OVC028 A2973 RMK P0003 MADISHF
BGM,2017-04-01 08:44,-75.9797,42.2086,32.00,30.90,95.65,360.00,4.00,0.03,29.73,M,2.00,M,FEW,BKN,OVC,M,300.00,1200.00,2900.00,M,-SN BR,KBGM 010844Z AUTO 36004KT 2SM -SN BR FEW003 BKN012 OVC029 00/M01 A2973 RMK AO2 P0003 T00001006
BGM,2017-04-01 08:45,-75.9797,42.2086,M,M,M,10.00,4.00,0.03,29.73,M,2.00,M,FEW,BKN,OVC,M,300.00,1200.00,2900.00,M,-SN BR,KBGM 010845Z AUTO 01004KT 2SM -SN BR FEW003 BKN012 OVC029 A2973 RMK P0003 MADISHF
BGM,2017-04-01 08:50,-75.9797,42.2086,M,M,M,10.00,4.00,0.03,29.73,M,1.75,M,SCT,BKN,OVC,M,300.00,1200.00,2200.00,M,-SN BR,KBGM 010850Z AUTO 01004KT 2SM -SN BR SCT003 BKN012 OVC022 A2973 RMK P0003 MADISHF
BGM,2017-04-01 08:53,-75.9797,42.2086,32.00,30.90,95.65,20.00,4.00,0.03,29.73,1008.30,1.50,M,SCT,OVC,M,M,300.00,1500.00,M,M,-SN BR,KBGM 010853Z AUTO 02004KT 1 1/2SM -SN BR SCT003 OVC015 00/M01 A2973 RMK AO2 SLP083 P0003 60005 T00001006 53007
BGM,2017-04-01 08:55,-75.9797,42.2086,M,M,M,20.00,4.00,M,29.74,M,1.00,M,FEW,OVC,M,M,300.00,1300.00,M,M,-SN BR,KBGM 010855Z AUTO 02004KT 1SM -SN BR FEW003 OVC013 A2974 RMK MADISHF
BGM,2017-04-01 08:58,-75.9797,42.2086,32.00,30.90,95.65,10.00,4.00,0.01,29.74,M,1.00,M,FEW,BKN,OVC,M,300.00,900.00,1300.00,M,-SN BR,KBGM 010858Z AUTO 01004KT 1SM -SN BR FEW003 BKN009 OVC013 00/M01 A2974 RMK AO2 P0001 T00001006
BGM,2017-04-01 09:00,-75.9797,42.2086,M,M,M,10.00,3.00,0.01,29.74,M,1.00,M,FEW,BKN,OVC,M,300.00,900.00,1300.00,M,-SN BR,KBGM 010900Z AUTO 01003KT 1SM -SN BR FEW003 BKN009 OVC013 A2974 RMK P0001 MADISHF
BGM,2017-04-01 09:05,-75.9797,42.2086,M,M,M,10.00,3.00,0.01,29.74,M,1.25,M,BKN,BKN,OVC,M,499.00,900.00,1300.00,M,-SN BR,KBGM 010905Z AUTO 01003KT 1 1/2SM -SN BR BKN004 BKN009 OVC013 A2974 RMK P0001 MADISHF
BGM,2017-04-01 09:10,-75.9797,42.2086,M,M,M,10.00,4.00,0.01,29.74,M,2.00,M,BKN,OVC,M,M,499.00,1100.00,M,M,-SN BR,KBGM 010910Z AUTO 01004KT 2SM -SN BR BKN004 OVC011 A2974 RMK P0001 MADISHF
BGM,2017-04-01 09:14,-75.9797,42.2086,32.00,30.90,95.65,10.00,4.00,0.01,29.74,M,2.50,M,OVC,M,M,M,400.00,M,M,M,-SN BR,KBGM 010914Z AUTO 01004KT 2 1/2SM -SN BR OVC004 00/M01 A2974 RMK AO2 P0001 T00001006
BGM,2017-04-01 09:15,-75.9797,42.2086,M,M,M,10.00,5.00,0.01,29.74,M,2.50,M,OVC,M,M,M,400.00,M,M,M,-SN BR,KBGM 010915Z AUTO 01005KT 2 1/2SM -SN BR OVC004 A2974 RMK P0001 MADISHF
BGM,2017-04-01 09:20,-75.9797,42.2086,M,M,M,20.00,5.00,0.01,29.74,M,3.00,M,OVC,M,M,M,400.00,M,M,M,-SN BR,KBGM 010920Z AUTO 02005KT 3SM -SN BR OVC004 A2974 RMK P0001 MADISHF
BGM,2017-04-01 09:25,-75.9797,42.2086,M,M,M,20.00,6.00,0.02,29.74,M,2.50,M,BKN,OVC,M,M,400.00,800.00,M,M,-SN BR,KBGM 010925Z AUTO 02006KT 2 1/2SM -SN BR BKN004 OVC008 A2974 RMK P0002 MADISHF
BGM,2017-04-01 09:30,-75.9797,42.2086,M,M,M,20.00,5.00,0.02,29.75,M,2.00,M,BKN,OVC,M,M,400.00,1500.00,M,M,-SN BR,KBGM 010930Z AUTO 02005KT 2SM -SN BR BKN004 OVC015 A2975 RMK P0002 MADISHF
BGM,2017-04-01 09:35,-75.9797,42.2086,M,M,M,20.00,5.00,0.02,29.75,M,1.75,M,BKN,BKN,OVC,M,200.00,700.00,1699.00,M,-SN BR,KBGM 010935Z AUTO 02005KT 2SM -SN BR BKN002 BKN007 OVC016 A2975 RMK P0002 MADISHF
BGM,2017-04-01 09:40,-75.9797,42.2086,M,M,M,10.00,5.00,0.02,29.75,M,2.00,M,BKN,OVC,M,M,200.00,1699.00,M,M,-SN BR,KBGM 010940Z AUTO 01005KT 2SM -SN BR BKN002 OVC016 A2975 RMK P0002 MADISHF
BGM,2017-04-01 09:45,-75.9797,42.2086,M,M,M,10.00,5.00,0.02,29.75,M,2.50,M,BKN,OVC,M,M,200.00,1900.00,M,M,-SN BR,KBGM 010945Z AUTO 01005KT 2 1/2SM -SN BR BKN002 OVC019 A2975 RMK P0002 MADISHF
BGM,2017-04-01 09:50,-75.9797,42.2086,M,M,M,10.00,5.00,0.03,29.75,M,2.50,M,BKN,OVC,M,M,300.00,1900.00,M,M,-SN BR,KBGM 010950Z AUTO 01005KT 2 1/2SM -SN BR BKN003 OVC019 A2975 RMK P0003 MADISHF
BGM,2017-04-01 09:53,-75.9797,42.2086,32.00,30.90,95.65,10.00,6.00,0.03,29.76,1009.10,2.50,M,BKN,OVC,M,M,300.00,1900.00,M,M,-SN BR,KBGM 010953Z 01006KT 2 1/2SM -SN BR BKN003 OVC019 00/M01 A2976 RMK AO2 VIS 2V4 SLP091 P0003 T00001006
BGM,2017-04-01 09:55,-75.9797,42.2086,M,M,M,360.00,5.00,M,29.76,M,2.50,M,BKN,BKN,OVC,M,300.00,800.00,1900.00,M,-SN BR,KBGM 010955Z AUTO 36005KT 2 1/2SM -SN BR BKN003 BKN008 OVC019 A2976 RMK MADISHF
BGM,2017-04-01 10:00,-75.9797,42.2086,M,M,M,360.00,5.00,M,29.76,M,3.50,M,BKN,BKN,OVC,M,300.00,800.00,1900.00,M,-SN BR,KBGM 011000Z AUTO 36005KT 3SM -SN BR BKN003 BKN008 OVC019 A2976 RMK MADISHF
BGM,2017-04-01 10:03,-75.9797,42.2086,32.00,30.90,95.65,360.00,5.00,0.00,29.76,M,3.00,M,BKN,BKN,OVC,M,300.00,800.00,1900.00,M,-SN BR,KBGM 011003Z 36005KT 3SM -SN BR BKN003 BKN008 OVC019 00/M01 A2976 RMK AO2 P0000 T00001006
BGM,2017-04-01 10:05,-75.9797,42.2086,M,M,M,350.00,5.00,M,29.76,M,3.00,M,BKN,BKN,OVC,M,300.00,800.00,1900.00,M,-SN BR,KBGM 011005Z AUTO 35005KT 3SM -SN BR BKN003 BKN008 OVC019 A2976 RMK MADISHF
BGM,2017-04-01 10:10,-75.9797,42.2086,M,M,M,350.00,5.00,M,29.76,M,3.00,M,BKN,OVC,M,M,300.00,800.00,M,M,-SN BR,KBGM 011010Z AUTO 35005KT 3SM -SN BR BKN003 OVC008 A2976 RMK MADISHF
BGM,2017-04-01 10:15,-75.9797,42.2086,M,M,M,360.00,5.00,M,29.76,M,3.00,M,BKN,OVC,M,M,499.00,800.00,M,M,-SN BR,KBGM 011015Z AUTO 36005KT 3SM -SN BR BKN004 OVC008 A2976 RMK MADISHF
BGM,2017-04-01 10:17,-75.9797,42.2086,30.90,30.90,100.00,350.00,5.00,0.00,29.76,M,3.00,M,BKN,OVC,M,M,500.00,1000.00,M,M,-SN BR,KBGM 011017Z 35005KT 3SM -SN BR BKN005 OVC010 M01/M01 A2976 RMK AO2 P0000 T10061006
BGM,2017-04-01 10:20,-75.9797,42.2086,M,M,M,360.00,6.00,M,29.77,M,4.00,M,BKN,OVC,M,M,300.00,800.00,M,M,-SN BR,KBGM 011020Z AUTO 36006KT 4SM -SN BR BKN003 OVC008 A2977 RMK MADISHF
BGM,2017-04-01 10:25,-75.9797,42.2086,30.90,30.90,100.00,360.00,5.00,0.00,29.77,M,5.00,M,BKN,OVC,M,M,300.00,800.00,M,M,-SN BR,KBGM 011025Z 36005KT 5SM -SN BR BKN003 OVC008 M01/M01 A2977 RMK AO2 P0000 T10061006
BGM,2017-04-01 10:30,-75.9797,42.2086,M,M,M,360.00,6.00,0.01,29.77,M,6.00,M,BKN,OVC,M,M,300.00,800.00,M,M,-SN BR,KBGM 011030Z AUTO 36006KT 6SM -SN BR BKN003 OVC008 A2977 RMK P0001 MADISHF
BGM,2017-04-01 10:35,-75.9797,42.2086,M,M,M,350.00,6.00,0.01,29.77,M,5.00,M,OVC,M,M,M,499.00,M,M,M,-SN BR,KBGM 011035Z AUTO 35006KT 5SM -SN BR OVC004 A2977 RMK P0001 CIG 1V10  MADISHF
BGM,2017-04-01 10:40,-75.9797,42.2086,M,M,M,350.00,6.00,0.01,29.78,M,3.00,M,OVC,M,M,M,499.00,M,M,M,-SN BR,KBGM 011040Z AUTO 35006KT 3SM -SN BR OVC004 A2978 RMK P0001 MADISHF
BGM,2017-04-01 10:41,-75.9797,42.2086,30.90,30.90,100.00,350.00,6.00,0.01,29.78,M,2.50,M,OVC,M,M,M,500.00,M,M,M,-SN BR,KBGM 011041Z 35006KT 2 1/2SM -SN BR OVC005 M01/M01 A2978 RMK AO2 P0001 T10061006
BGM,2017-04-01 10:45,-75.9797,42.2086,M,M,M,360.00,6.00,0.01,29.78,M,2.00,M,BKN,OVC,M,M,300.00,900.00,M,M,-SN BR,KBGM 011045Z AUTO 36006KT 2SM -SN BR BKN003 OVC009 A2978 RMK P0001 MADISHF
BGM,2017-04-01 10:48,-75.9797,42.2086,30.20,30.20,100.00,350.00,6.00,0.01,29.78,M,2.50,M,BKN,BKN,OVC,M,300.00,700.00,1200.00,M,-SN BR,KBGM 011048Z 35006KT 2 1/2SM -SN BR BKN003 BKN007 OVC012 M01/M01 A2978 RMK AO2 P0001
BGM,2017-04-01 10:50,-75.9797,42.2086,M,M,M,350.00,6.00,0.01,29.78,M,2.50,M,BKN,BKN,OVC,M,300.00,700.00,1200.00,M,-SN BR,KBGM 011050Z AUTO 35006KT 2 1/2SM -SN BR BKN003 BKN007 OVC012 A2978 RMK P0001 MADISHF
BGM,2017-04-01 10:53,-75.9797,42.2086,30.90,30.90,100.00,350.00,5.00,0.01,29.79,1010.10,3.00,M,BKN,OVC,M,M,300.00,1200.00,M,M,-SN BR,KBGM 011053Z 35005KT 3SM -SN BR BKN003 OVC012 M01/M01 A2979 RMK AO2 SLP101 P0001 T10061006
BGM,2017-04-01 10:55,-75.9797,42.2086,M,M,M,350.00,6.00,M,29.79,M,3.00,M,BKN,OVC,M,M,300.00,900.00,M,M,-SN BR,KBGM 011055Z AUTO 35006KT 3SM -SN BR BKN003 OVC009 A2979 RMK MADISHF
BGM,2017-04-01 11:00,-75.9797,42.2086,M,M,M,350.00,6.00,M,29.79,M,3.50,M,OVC,M,M,M,300.00,M,M,M,-SN BR,KBGM 011100Z AUTO 35006KT 3SM -SN BR OVC003 A2979 RMK MADISHF
BGM,2017-04-01 11:05,-75.9797,42.2086,M,M,M,350.00,6.00,M,29.79,M,3.00,M,OVC,M,M,M,300.00,M,M,M,-SN BR,KBGM 011105Z AUTO 35006KT 3SM -SN BR OVC003 A2979 RMK MADISHF
BGM,2017-04-01 11:10,-75.9797,42.2086,M,M,M,350.00,6.00,M,29.80,M,3.00,M,BKN,OVC,M,M,300.00,1800.00,M,M,-SN BR,KBGM 011110Z AUTO 35006KT 3SM -SN BR BKN003 OVC018 A2980 RMK MADISHF
BGM,2017-04-01 11:15,-75.9797,42.2086,M,M,M,350.00,6.00,M,29.80,M,3.00,M,BKN,OVC,M,M,300.00,1800.00,M,M,-SN BR,KBGM 011115Z AUTO 35006KT 3SM -SN BR BKN003 OVC018 A2980 RMK MADISHF
BGM,2017-04-01 11:20,-75.9797,42.2086,M,M,M,360.00,6.00,0.01,29.80,M,2.50,M,BKN,OVC,M,M,300.00,1999.00,M,M,-SN BR,KBGM 011120Z AUTO 36006KT 2 1/2SM -SN BR BKN003 OVC019 A2980 RMK P0001 MADISHF
BGM,2017-04-01 11:23,-75.9797,42.2086,30.90,30.90,100.00,10.00,6.00,0.01,29.80,M,1.75,M,BKN,OVC,M,M,300.00,2000.00,M,M,-SN BR,KBGM 011123Z 01006KT 1 3/4SM -SN BR BKN003 OVC020 M01/M01 A2980 RMK AO2 P0001 T10061006
BGM,2017-04-01 11:25,-75.9797,42.2086,M,M,M,10.00,5.00,0.01,29.80,M,1.75,M,BKN,OVC,M,M,300.00,1999.00,M,M,-SN BR,KBGM 011125Z AUTO 01005KT 2SM -SN BR BKN003 OVC019 A2980 RMK P0001 MADISHF
BGM,2017-04-01 11:30,-75.9797,42.2086,M,M,M,10.00,6.00,0.01,29.80,M,1.50,M,BKN,OVC,M,M,300.00,1999.00,M,M,-SN BR,KBGM 011130Z AUTO 01006KT 1 1/2SM -SN BR BKN003 OVC019 A2980 RMK P0001 MADISHF
BGM,2017-04-01 11:35,-75.9797,42.2086,M,M,M,10.00,6.00,0.01,29.80,M,1.50,M,BKN,OVC,M,M,300.00,1999.00,M,M,-SN BR,KBGM 011135Z AUTO 01006KT 1 1/2SM -SN BR BKN003 OVC019 A2980 RMK P0001 MADISHF
BGM,2017-04-01 11:40,-75.9797,42.2086,M,M,M,10.00,5.00,0.01,29.80,M,2.00,M,BKN,OVC,M,M,300.00,2500.00,M,M,-SN BR,KBGM 011140Z AUTO 01005KT 2SM -SN BR BKN003 OVC025 A2980 RMK P0001 MADISHF
BGM,2017-04-01 11:44,-75.9797,42.2086,32.00,30.90,95.65,10.00,6.00,0.01,29.81,M,3.00,M,BKN,OVC,M,M,400.00,2500.00,M,M,-SN BR,KBGM 011144Z 01006KT 3SM -SN BR BKN004 OVC025 00/M01 A2981 RMK AO2 P0001 T00001006
BGM,2017-04-01 11:45,-75.9797,42.2086,M,M,M,360.00,6.00,0.01,29.81,M,3.00,M,BKN,OVC,M,M,400.00,2700.00,M,M,-SN BR,KBGM 011145Z AUTO 36006KT 3SM -SN BR BKN004 OVC027 A2981 RMK P0001 MADISHF
BGM,2017-04-01 11:50,-75.9797,42.2086,M,M,M,360.00,6.00,0.01,29.81,M,4.00,M,BKN,OVC,M,M,400.00,2400.00,M,M,-SN BR,KBGM 011150Z AUTO 36006KT 4SM -SN BR BKN004 OVC024 A2981 RMK P0001 MADISHF
BGM,2017-04-01 11:53,-75.9797,42.2086,32.00,30.90,95.65,10.00,5.00,0.01,29.81,1011.10,4.00,M,BKN,OVC,M,M,400.00,3200.00,M,M,-SN BR,KBGM 011153Z 01005KT 4SM -SN BR BKN004 OVC032 00/M01 A2981 RMK AO2 SLP111 P0001 60010 70063 T00001006 10000 21006 51019
BGM,2017-04-01 11:55,-75.9797,42.2086,M,M,M,10.00,5.00,M,29.82,M,4.00,M,BKN,BKN,OVC,M,400.00,900.00,3200.00,M,-SN BR,KBGM 011155Z AUTO 01005KT 4SM -SN BR BKN004 BKN009 OVC032 A2982 RMK MADISHF
BGM,2017-04-01 12:00,-75.9797,42.2086,M,M,M,10.00,5.00,M,29.81,M,4.00,M,BKN,BKN,OVC,M,499.00,800.00,6000.00,M,-SN BR,KBGM 011200Z AUTO 01005KT 4SM -SN BR BKN004 BKN008 OVC060 A2981 RMK MADISHF
BGM,2017-04-01 12:02,-75.9797,42.2086,32.00,30.90,95.65,10.00,6.00,0.00,29.81,M,4.00,M,BKN,BKN,OVC,M,500.00,800.00,6000.00,M,-SN BR,KBGM 011202Z 01006KT 4SM -SN BR BKN005 BKN008 OVC060 00/M01 A2981 RMK AO2 P0000 T00001006
BGM,2017-04-01 12:05,-75.9797,42.2086,M,M,M,10.00,6.00,M,29.82,M,5.00,M,BKN,BKN,OVC,M,499.00,4400.00,6000.00,M,-SN BR,KBGM 011205Z AUTO 01006KT 5SM -SN BR BKN004 BKN044 OVC060 A2982 RMK MADISHF
BGM,2017-04-01 12:10,-75.9797,42.2086,M,M,M,10.00,6.00,M,29.82,M,6.00,M,BKN,BKN,OVC,M,499.00,4400.00,6000.00,M,-SN BR,KBGM 011210Z AUTO 01006KT 6SM -SN BR BKN004 BKN044 OVC060 A2982 RMK MADISHF
BGM,2017-04-01 12:15,-75.9797,42.2086,M,M,M,360.00,6.00,M,29.82,M,7.00,M,BKN,BKN,OVC,M,499.00,4600.00,6000.00,M,-SN,KBGM 011215Z AUTO 36006KT 7SM -SN BKN004 BKN046 OVC060 A2982 RMK MADISHF
BGM,2017-04-01 12:20,-75.9797,42.2086,M,M,M,10.00,6.00,M,29.82,M,8.00,M,BKN,BKN,OVC,M,499.00,2400.00,6000.00,M,-SN,KBGM 011220Z AUTO 01006KT 8SM -SN BKN004 BKN024 OVC060 A2982 RMK MADISHF
BGM,2017-04-01 12:25,-75.9797,42.2086,M,M,M,360.00,5.00,M,29.82,M,9.00,M,SCT,BKN,OVC,M,499.00,2400.00,5500.00,M,M,KBGM 011225Z AUTO 36005KT 9SM SCT004 BKN024 OVC055 A2982 RMK MADISHF
BGM,2017-04-01 12:29,-75.9797,42.2086,32.00,30.90,95.65,360.00,6.00,0.00,29.82,M,10.00,M,SCT,BKN,OVC,M,500.00,2400.00,5500.00,M,M,KBGM 011229Z 36006KT 10SM SCT005 BKN024 OVC055 00/M01 A2982 RMK AO2 SNE23 P0000 T00001006
BGM,2017-04-01 12:30,-75.9797,42.2086,M,M,M,360.00,6.00,M,29.82,M,10.00,M,SCT,BKN,OVC,M,499.00,2400.00,5500.00,M,M,KBGM 011230Z AUTO 36006KT 10SM SCT004 BKN024 OVC055 A2982 RMK MADISHF
BGM,2017-04-01 12:35,-75.9797,42.2086,M,M,M,360.00,6.00,M,29.82,M,10.00,M,BKN,OVC,M,M,499.00,2400.00,M,M,M,KBGM 011235Z AUTO 36006KT 10SM BKN004 OVC024 A2982 RMK CIG 3V7  MADISHF
BGM,2017-04-01 12:40,-75.9797,42.2086,32.00,30.90,95.65,360.00,7.00,0.00,29.82,M,10.00,M,BKN,OVC,M,M,500.00,2400.00,M,M,M,KBGM 011240Z 36007KT 10SM BKN005 OVC024 00/M01 A2982 RMK AO2 SNE23 P0000 T00001006
BGM,2017-04-01 12:45,-75.9797,42.2086,M,M,M,360.00,7.00,M,29.82,M,10.00,M,BKN,OVC,M,M,499.00,2400.00,M,M,M,KBGM 011245Z AUTO 36007KT 10SM BKN004 OVC024 A2982 RMK CIG 2V6  MADISHF
BGM,2017-04-01 12:50,-75.9797,42.2086,M,M,M,350.00,6.00,M,29.83,M,10.00,M,BKN,OVC,M,M,400.00,2400.00,M,M,M,KBGM 011250Z AUTO 35006KT 10SM BKN004 OVC024 A2983 RMK CIG 2V6  MADISHF
BGM,2017-04-01 12:53,-75.9797,42.2086,32.00,32.00,100.00,360.00,6.00,0.00,29.83,1011.50,10.00,M,BKN,OVC,M,M,400.00,2400.00,M,M,M,KBGM 011253Z 36006KT 10SM BKN004 OVC024 00/00 A2983 RMK AO2 SNE23 CIG 002V006 SLP115 P0000 T00000000
BGM,2017-04-01 12:55,-75.9797,42.2086,M,M,M,350.00,6.00,M,29.83,M,10.00,M,OVC,M,M,M,400.00,M,M,M,M,KBGM 011255Z AUTO 35006KT 10SM OVC004 A2983 RMK CIG 2V6  MADISHF
BGM,2017-04-01 13:00,-75.9797,42.2086,M,M,M,350.00,7.00,M,29.83,M,10.00,M,OVC,M,M,M,400.00,M,M,M,M,KBGM 011300Z AUTO 35007KT 10SM OVC004 A2983 RMK CIG 2V6  MADISHF
BGM,2017-04-01 13:05,-75.9797,42.2086,M,M,M,350.00,8.00,M,29.83,M,10.00,M,OVC,M,M,M,300.00,M,M,M,M,KBGM 011305Z AUTO 35008KT 10SM OVC003 A2983 RMK MADISHF
BGM,2017-04-01 13:10,-75.9797,42.2086,M,M,M,350.00,8.00,M,29.83,M,10.00,M,BKN,OVC,M,M,300.00,1600.00,M,M,M,KBGM 011310Z AUTO 35008KT 10SM BKN003 OVC016 A2983 RMK MADISHF
BGM,2017-04-01 13:15,-75.9797,42.2086,M,M,M,350.00,7.00,M,29.84,M,10.00,M,BKN,OVC,M,M,300.00,1600.00,M,M,M,KBGM 011315Z AUTO 35007KT 10SM BKN003 OVC016 A2984 RMK MADISHF
BGM,2017-04-01 13:20,-75.9797,42.2086,M,M,M,350.00,7.00,M,29.84,M,10.00,M,BKN,OVC,M,M,300.00,1600.00,M,M,M,KBGM 011320Z AUTO 35007KT 10SM BKN003 OVC016 A2984 RMK MADISHF
BGM,2017-04-01 13:25,-75.9797,42.2086,M,M,M,360.00,8.00,M,29.84,M,10.00,M,BKN,OVC,M,M,300.00,1500.00,M,M,M,KBGM 011325Z AUTO 36008KT 10SM BKN003 OVC015 A2984 RMK CIG 2V7  MADISHF
BGM,2017-04-01 13:30,-75.9797,42.2086,M,M,M,350.00,8.00,M,29.84,M,10.00,M,BKN,OVC,M,M,300.00,1300.00,M,M,M,KBGM 011330Z AUTO 35008KT 10SM BKN003 OVC013 A2984 RMK CIG 2V7  MADISHF
BGM,2017-04-01 13:35,-75.9797,42.2086,M,M,M,350.00,7.00,M,29.84,M,6.00,M,BKN,OVC,M,M,300.00,1300.00,M,M,BR,KBGM 011335Z AUTO 35007KT 6SM BR BKN003 OVC013 A2984 RMK CIG 2V7  MADISHF
BGM,2017-04-01 13:40,-75.9797,42.2086,M,M,M,10.00,7.00,M,29.84,M,3.00,M,BKN,OVC,M,M,400.00,1300.00,M,M,BR,KBGM 011340Z AUTO 01007KT 3SM BR BKN004 OVC013 A2984 RMK CIG 2V7  MADISHF
BGM,2017-04-01 13:45,-75.9797,42.2086,32.00,30.90,95.65,10.00,9.00,0.00,29.84,M,1.75,M,OVC,M,M,M,400.00,M,M,M,BR,KBGM 011345Z 01009KT 1 3/4SM BR OVC004 00/M01 A2984 RMK AO2 CIG 002V007 T00001006
BGM,2017-04-01 13:50,-75.9797,42.2086,M,M,M,360.00,9.00,M,29.85,M,1.75,M,OVC,M,M,M,400.00,M,M,M,BR,KBGM 011350Z AUTO 36009KT 2SM BR OVC004 A2985 RMK MADISHF
BGM,2017-04-01 13:53,-75.9797,42.2086,32.00,30.90,95.65,10.00,9.00,0.00,29.85,1012.40,1.75,M,OVC,M,M,M,400.00,M,M,M,BR,KBGM 011353Z 01009KT 1 3/4SM BR OVC004 00/M01 A2985 RMK AO2 SLP124 T00001006
BGM,2017-04-01 13:55,-75.9797,42.2086,M,M,M,360.00,8.00,M,29.85,M,1.75,M,OVC,M,M,M,400.00,M,M,M,BR,KBGM 011355Z AUTO 36008KT 2SM BR OVC004 A2985 RMK MADISHF
BGM,2017-04-01 14:00,-75.9797,42.2086,M,M,M,360.00,7.00,M,29.85,M,1.50,M,OVC,M,M,M,400.00,M,M,M,BR,KBGM 011400Z AUTO 36007KT 1 1/2SM BR OVC004 A2985 RMK MADISHF
BGM,2017-04-01 14:05,-75.9797,42.2086,M,M,M,360.00,8.00,M,29.86,M,1.25,M,OVC,M,M,M,400.00,M,M,M,BR,KBGM 011405Z AUTO 36008KT 1 1/2SM BR OVC004 A2986 RMK MADISHF
BGM,2017-04-01 14:10,-75.9797,42.2086,M,M,M,360.00,9.00,M,29.86,M,1.00,M,OVC,M,M,M,400.00,M,M,M,BR,KBGM 011410Z AUTO 36009KT 1SM BR OVC004 A2986 RMK MADISHF
BGM,2017-04-01 14:15,-75.9797,42.2086,M,M,M,360.00,9.00,M,29.86,M,1.00,M,OVC,M,M,M,400.00,M,M,M,BR,KBGM 011415Z AUTO 36009KT 1SM BR OVC004 A2986 RMK MADISHF
BGM,2017-04-01 14:20,-75.9797,42.2086,M,M,M,10.00,6.00,M,29.86,M,1.00,M,OVC,M,M,M,400.00,M,M,M,BR,KBGM 011420Z AUTO 01006KT 1SM BR OVC004 A2986 RMK MADISHF
BGM,2017-04-01 14:25,-75.9797,42.2086,M,M,M,10.00,7.00,M,29.86,M,1.25,M,OVC,M,M,M,300.00,M,M,M,BR,KBGM 011425Z AUTO 01007KT 1 1/2SM BR OVC003 A2986 RMK MADISHF
BGM,2017-04-01 14:30,-75.9797,42.2086,M,M,M,10.00,8.00,M,29.86,M,1.25,M,OVC,M,M,M,300.00,M,M,M,BR,KBGM 011430Z AUTO 01008KT 1 1/2SM BR OVC003 A2986 RMK MADISHF
BGM,2017-04-01 14:35,-75.9797,42.2086,M,M,M,20.00,6.00,M,29.87,M,1.25,M,OVC,M,M,M,300.00,M,M,M,BR,KBGM 011435Z AUTO 02006KT 1 1/2SM BR OVC003 A2987 RMK MADISHF
BGM,2017-04-01 14:40,-75.9797,42.2086,M,M,M,20.00,7.00,M,29.87,M,1.50,M,OVC,M,M,M,300.00,M,M,M,BR,KBGM 011440Z AUTO 02007KT 1 1/2SM BR OVC003 A2987 RMK MADISHF
BGM,2017-04-01 14:45,-75.9797,42.2086,M,M,M,20.00,7.00,M,29.87,M,1.50,M,OVC,M,M,M,300.00,M,M,M,BR,KBGM 011445Z AUTO 02007KT 1 1/2SM BR OVC003 A2987 RMK MADISHF
BGM,2017-04-01 14:50,-75.9797,42.2086,M,M,M,10.00,8.00,M,29.87,M,1.50,M,OVC,M,M,M,300.00,M,M,M,BR,KBGM 011450Z AUTO 01008KT 1 1/2SM BR OVC003 A2987 RMK MADISHF
BGM,2017-04-01 14:53,-75.9797,42.2086,34.00,33.10,96.46,20.00,7.00,0.00,29.87,1013.10,1.50,M,OVC,M,M,M,300.00,M,M,M,BR,KBGM 011453Z 02007KT 1 1/2SM BR OVC003 01/01 A2987 RMK AO2 TWR VIS 2 SLP131 60000 T00110006 53019
BGM,2017-04-01 14:55,-75.9797,42.2086,M,M,M,10.00,7.00,M,29.87,M,1.25,M,OVC,M,M,M,300.00,M,M,M,BR,KBGM 011455Z AUTO 01007KT 1 1/2SM BR OVC003 A2987 RMK MADISHF
BGM,2017-04-01 15:00,-75.9797,42.2086,M,M,M,10.00,7.00,M,29.87,M,1.25,M,OVC,M,M,M,300.00,M,M,M,BR,KBGM 011500Z AUTO 01007KT 1 1/2SM BR OVC003 A2987 RMK MADISHF
BGM,2017-04-01 15:05,-75.9797,42.2086,M,M,M,10.00,6.00,M,29.88,M,1.25,M,OVC,M,M,M,300.00,M,M,M,BR,KBGM 011505Z AUTO 01006KT 1 1/2SM BR OVC003 A2988 RMK MADISHF
BGM,2017-04-01 15:10,-75.9797,42.2086,M,M,M,10.00,6.00,M,29.87,M,1.25,M,OVC,M,M,M,300.00,M,M,M,BR,KBGM 011510Z AUTO 01006KT 1 1/2SM BR OVC003 A2987 RMK MADISHF
BGM,2017-04-01 15:15,-75.9797,42.2086,M,M,M,20.00,7.00,M,29.87,M,1.25,M,OVC,M,M,M,300.00,M,M,M,BR,KBGM 011515Z AUTO 02007KT 1 1/2SM BR OVC003 A2987 RMK MADISHF
BGM,2017-04-01 15:20,-75.9797,42.2086,M,M,M,10.00,7.00,M,29.87,M,1.50,M,OVC,M,M,M,300.00,M,M,M,BR,KBGM 011520Z AUTO 01007KT 1 1/2SM BR OVC003 A2987 RMK MADISHF
BGM,2017-04-01 15:25,-75.9797,42.2086,M,M,M,10.00,8.00,M,29.87,M,1.75,M,OVC,M,M,M,300.00,M,M,M,BR,KBGM 011525Z AUTO 01008KT 2SM BR OVC003 A2987 RMK MADISHF
BGM,2017-04-01 15:30,-75.9797,42.2086,M,M,M,360.00,8.00,M,29.87,M,2.00,M,OVC,M,M,M,300.00,M,M,M,BR,KBGM 011530Z AUTO 36008KT 2SM BR OVC003 A2987 RMK MADISHF
BGM,2017-04-01 15:35,-75.9797,42.2086,35.10,34.00,95.71,10.00,6.00,0.00,29.87,M,2.00,M,OVC,M,M,M,300.00,M,M,M,BR,KBGM 011535Z 01006KT 2SM BR OVC003 02/01 A2987 RMK AO2 SFC VIS 2 1/2 T00170011
BGM,2017-04-01 15:40,-75.9797,42.2086,M,M,M,360.00,9.00,M,29.88,M,2.50,M,OVC,M,M,M,300.00,M,M,M,BR,KBGM 011540Z AUTO 36009KT 2 1/2SM BR OVC003 A2988 RMK MADISHF
BGM,2017-04-01 15:45,-75.9797,42.2086,M,M,M,350.00,9.00,M,29.88,M,3.00,M,OVC,M,M,M,300.00,M,M,M,BR,KBGM 011545Z AUTO 35009KT 3SM BR OVC003 A2988 RMK MADISHF
BGM,2017-04-01 15:50,-75.9797,42.2086,M,M,M,360.00,7.00,M,29.88,M,3.50,M,OVC,M,M,M,300.00,M,M,M,BR,KBGM 011550Z AUTO 36007KT 3SM BR OVC003 A2988 RMK MADISHF
BGM,2017-04-01 15:53,-75.9797,42.2086,35.10,34.00,95.71,10.00,7.00,0.00,29.88,1013.40,2.00,M,OVC,M,M,M,300.00,M,M,M,BR,KBGM 011553Z 01007KT 2SM BR OVC003 02/01 A2988 RMK AO2 SFC VIS 4 SLP134 T00170011
BGM,2017-04-01 15:55,-75.9797,42.2086,M,M,M,10.00,7.00,M,29.88,M,4.00,M,OVC,M,M,M,400.00,M,M,M,BR,KBGM 011555Z AUTO 01007KT 4SM BR OVC004 A2988 RMK MADISHF
BGM,2017-04-01 16:00,-75.9797,42.2086,M,M,M,10.00,8.00,M,29.88,M,5.00,M,OVC,M,M,M,400.00,M,M,M,BR,KBGM 011600Z AUTO 01008KT 5SM BR OVC004 A2988 RMK MADISHF
BGM,2017-04-01 16:05,-75.9797,42.2086,M,M,M,360.00,9.00,M,29.89,M,6.00,M,OVC,M,M,M,400.00,M,M,M,BR,KBGM 011605Z AUTO 36009KT 6SM BR OVC004 A2989 RMK MADISHF
BGM,2017-04-01 16:10,-75.9797,42.2086,M,M,M,350.00,7.00,M,29.89,M,8.00,M,OVC,M,M,M,400.00,M,M,M,M,KBGM 011610Z AUTO 35007KT 8SM OVC004 A2989 RMK MADISHF
BGM,2017-04-01 16:15,-75.9797,42.2086,M,M,M,350.00,10.00,M,29.89,M,9.00,M,OVC,M,M,M,400.00,M,M,M,-RA,KBGM 011615Z AUTO 35010KT 9SM -RA OVC004 A2989 RMK MADISHF
BGM,2017-04-01 16:20,-75.9797,42.2086,M,M,M,350.00,10.00,M,29.89,M,8.00,M,OVC,M,M,M,400.00,M,M,M,-RA,KBGM 011620Z AUTO 35010KT 8SM -RA OVC004 A2989 RMK CIG 3V7  MADISHF
BGM,2017-04-01 16:25,-75.9797,42.2086,M,M,M,340.00,9.00,M,29.89,M,9.00,M,OVC,M,M,M,400.00,M,M,M,-RA,KBGM 011625Z AUTO 34009KT 9SM -RA OVC004 A2989 RMK MADISHF
BGM,2017-04-01 16:30,-75.9797,42.2086,M,M,M,350.00,9.00,M,29.89,M,10.00,M,OVC,M,M,M,400.00,M,M,M,M,KBGM 011630Z AUTO 35009KT 10SM OVC004 A2989 RMK MADISHF
BGM,2017-04-01 16:35,-75.9797,42.2086,M,M,M,340.00,10.00,M,29.89,M,10.00,M,OVC,M,M,M,400.00,M,M,M,M,KBGM 011635Z AUTO 34010KT 10SM OVC004 A2989 RMK CIG 3V7  MADISHF
BGM,2017-04-01 16:39,-75.9797,42.2086,35.10,34.00,95.71,320.00,7.00,0.00,29.89,M,10.00,M,OVC,M,M,M,400.00,M,M,M,M,KBGM 011639Z 32007KT 10SM OVC004 02/01 A2989 RMK AO2 RAB13E28 CIG 003V008 P0000 T00170011
BGM,2017-04-01 16:40,-75.9797,42.2086,M,M,M,330.00,8.00,M,29.89,M,10.00,M,OVC,M,M,M,499.00,M,M,M,M,KBGM 011640Z AUTO 33008KT 10SM OVC004 A2989 RMK CIG 3V9  MADISHF
BGM,2017-04-01 16:45,-75.9797,42.2086,M,M,M,330.00,8.00,M,29.88,M,10.00,M,OVC,M,M,M,499.00,M,M,M,M,KBGM 011645Z AUTO 33008KT 10SM OVC004 A2988 RMK CIG 3V9  MADISHF
BGM,2017-04-01 16:46,-75.9797,42.2086,35.10,34.00,95.71,330.00,8.00,0.00,29.88,M,10.00,M,OVC,M,M,M,500.00,M,M,M,M,KBGM 011646Z 33008KT 10SM OVC005 02/01 A2988 RMK AO2 RAB13E28 CIG 003V009 P0000 T00170011
BGM,2017-04-01 16:50,-75.9797,42.2086,M,M,M,330.00,6.00,M,29.88,M,10.00,M,OVC,M,M,M,499.00,M,M,M,M,KBGM 011650Z AUTO 33006KT 10SM OVC004 A2988 RMK CIG 4V9  MADISHF
BGM,2017-04-01 16:53,-75.9797,42.2086,35.10,34.00,95.71,320.00,9.00,0.00,29.89,1013.50,10.00,M,OVC,M,M,M,500.00,M,M,M,M,KBGM 011653Z 32009KT 10SM OVC005 02/01 A2989 RMK AO2 RAB13E28 CIG 004V009 SLP135 P0000 T00170011
BGM,2017-04-01 16:55,-75.9797,42.2086,M,M,M,330.00,9.00,M,29.89,M,10.00,M,OVC,M,M,M,499.00,M,M,M,M,KBGM 011655Z AUTO 33009KT 10SM OVC004 A2989 RMK CIG 4V9  MADISHF
BGM,2017-04-01 17:00,-75.9797,42.2086,M,M,M,320.00,8.00,M,29.89,M,10.00,M,OVC,M,M,M,499.00,M,M,M,M,KBGM 011700Z AUTO 32008KT 10SM OVC004 A2989 RMK CIG 4V9  MADISHF
BGM,2017-04-01 17:05,-75.9797,42.2086,M,M,M,320.00,7.00,M,29.89,M,10.00,M,OVC,M,M,M,499.00,M,M,M,M,KBGM 011705Z AUTO 32007KT 10SM OVC004 A2989 RMK CIG 4V9  MADISHF
BGM,2017-04-01 17:10,-75.9797,42.2086,M,M,M,330.00,9.00,M,29.89,M,10.00,M,OVC,M,M,M,499.00,M,M,M,M,KBGM 011710Z AUTO 33009KT 10SM OVC004 A2989 RMK CIG 4V8  MADISHF
BGM,2017-04-01 17:15,-75.9797,42.2086,M,M,M,330.00,8.00,M,29.89,M,10.00,M,OVC,M,M,M,499.00,M,M,M,M,KBGM 011715Z AUTO 33008KT 10SM OVC004 A2989 RMK CIG 4V8  MADISHF
BGM,2017-04-01 17:20,-75.9797,42.2086,M,M,M,320.00,10.00,M,29.89,M,10.00,M,OVC,M,M,M,499.00,M,M,M,M,KBGM 011720Z AUTO 32010KT 10SM OVC004 A2989 RMK CIG 3V8  MADISHF
BGM,2017-04-01 17:25,-75.9797,42.2086,M,M,M,320.00,11.00,M,29.90,M,10.00,M,OVC,M,M,M,499.00,M,M,M,M,KBGM 011725Z AUTO 32011KT 10SM OVC004 A2990 RMK MADISHF
BGM,2017-04-01 17:30,-75.9797,42.2086,M,M,M,320.00,11.00,M,29.90,M,10.00,M,OVC,M,M,M,499.00,M,M,M,M,KBGM 011730Z AUTO 32011KT 10SM OVC004 A2990 RMK MADISHF
BGM,2017-04-01 17:35,-75.9797,42.2086,M,M,M,320.00,10.00,M,29.90,M,10.00,M,OVC,M,M,M,499.00,M,M,M,M,KBGM 011735Z AUTO 32010KT 10SM OVC004 A2990 RMK MADISHF
BGM,2017-04-01 17:40,-75.9797,42.2086,M,M,M,320.00,10.00,M,29.90,M,10.00,M,OVC,M,M,M,499.00,M,M,M,M,KBGM 011740Z AUTO 32010KT 10SM OVC004 A2990 RMK MADISHF
BGM,2017-04-01 17:45,-75.9797,42.2086,M,M,M,330.00,10.00,M,29.90,M,10.00,M,OVC,M,M,M,499.00,M,M,M,M,KBGM 011745Z AUTO 33010KT 10SM OVC004 A2990 RMK MADISHF
BGM,2017-04-01 17:50,-75.9797,42.2086,M,M,M,330.00,9.00,M,29.90,M,10.00,M,OVC,M,M,M,499.00,M,M,M,M,KBGM 011750Z AUTO 33009KT 10SM OVC004 A2990 RMK MADISHF
BGM,2017-04-01 17:53,-75.9797,42.2086,35.10,33.10,92.32,330.00,8.00,0.00,29.90,1014.10,10.00,M,OVC,M,M,M,500.00,M,M,M,M,KBGM 011753Z 33008KT 10SM OVC005 02/01 A2990 RMK AO2 SLP141 60000 T00170006 10022 20000 53010
BGM,2017-04-01 17:55,-75.9797,42.2086,M,M,M,330.00,9.00,M,29.90,M,10.00,M,BKN,OVC,M,M,499.00,900.00,M,M,M,KBGM 011755Z AUTO 33009KT 10SM BKN004 OVC009 A2990 RMK MADISHF
BGM,2017-04-01 18:00,-75.9797,42.2086,M,M,M,330.00,9.00,M,29.90,M,10.00,M,OVC,M,M,M,700.00,M,M,M,M,KBGM 011800Z AUTO 33009KT 10SM OVC007 A2990 RMK CIG 5V10  MADISHF
BGM,2017-04-01 18:05,-75.9797,42.2086,M,M,M,330.00,6.00,M,29.90,M,10.00,M,BKN,OVC,M,M,700.00,999.00,M,M,M,KBGM 011805Z AUTO 33006KT 10SM BKN007 OVC009 A2990 RMK MADISHF
BGM,2017-04-01 18:10,-75.9797,42.2086,M,M,M,330.00,8.00,M,29.90,M,10.00,M,OVC,M,M,M,700.00,M,M,M,M,KBGM 011810Z AUTO 33008KT 10SM OVC007 A2990 RMK CIG 5V10  MADISHF
BGM,2017-04-01 18:15,-75.9797,42.2086,M,M,M,330.00,10.00,M,29.90,M,10.00,M,OVC,M,M,M,700.00,M,M,M,M,KBGM 011815Z AUTO 33010KT 10SM OVC007 A2990 RMK CIG 5V10  MADISHF
BGM,2017-04-01 18:20,-75.9797,42.2086,M,M,M,320.00,9.00,M,29.90,M,10.00,M,BKN,OVC,M,M,700.00,1200.00,M,M,M,KBGM 011820Z AUTO 32009KT 10SM BKN007 OVC012 A2990 RMK CIG 5V10  MADISHF
BGM,2017-04-01 18:25,-75.9797,42.2086,M,M,M,330.00,8.00,M,29.90,M,10.00,M,BKN,OVC,M,M,800.00,1200.00,M,M,M,KBGM 011825Z AUTO 33008KT 10SM BKN008 OVC012 A2990 RMK CIG 5V11  MADISHF
BGM,2017-04-01 18:30,-75.9797,42.2086,M,M,M,330.00,9.00,M,29.91,M,10.00,M,OVC,M,M,M,800.00,M,M,M,M,KBGM 011830Z AUTO 33009KT 10SM OVC008 A2991 RMK CIG 5V12  MADISHF
BGM,2017-04-01 18:35,-75.9797,42.2086,M,M,M,330.00,8.00,M,29.91,M,10.00,M,OVC,M,M,M,999.00,M,M,M,M,KBGM 011835Z AUTO 33008KT 10SM OVC009 A2991 RMK CIG 6V14  MADISHF
BGM,2017-04-01 18:37,-75.9797,42.2086,36.00,34.00,92.35,330.00,9.00,0.00,29.91,M,10.00,M,OVC,M,M,M,1000.00,M,M,M,M,KBGM 011837Z 33009KT 10SM OVC010 02/01 A2991 RMK AO2 CIG 007V014 T00220011
BGM,2017-04-01 18:40,-75.9797,42.2086,M,M,M,330.00,8.00,M,29.91,M,10.00,M,OVC,M,M,M,999.00,M,M,M,M,KBGM 011840Z AUTO 33008KT 10SM OVC009 A2991 RMK MADISHF
BGM,2017-04-01 18:45,-75.9797,42.2086,M,M,M,330.00,10.00,M,29.91,M,10.00,M,OVC,M,M,M,1200.00,M,M,M,M,KBGM 011845Z AUTO 33010KT 10SM OVC012 A2991 RMK MADISHF
BGM,2017-04-01 18:50,-75.9797,42.2086,M,M,M,330.00,9.00,M,29.92,M,10.00,M,BKN,OVC,M,M,1200.00,1800.00,M,M,M,KBGM 011850Z AUTO 33009KT 10SM BKN012 OVC018 A2992 RMK MADISHF
BGM,2017-04-01 18:53,-75.9797,42.2086,36.00,33.10,89.09,330.00,10.00,0.00,29.92,1014.60,10.00,M,OVC,M,M,M,1400.00,M,M,M,M,KBGM 011853Z 33010KT 10SM OVC014 02/01 A2992 RMK AO2 SLP146 T00220006
BGM,2017-04-01 18:55,-75.9797,42.2086,M,M,M,340.00,10.00,M,29.92,M,10.00,M,OVC,M,M,M,1400.00,M,M,M,M,KBGM 011855Z AUTO 34010KT 10SM OVC014 A2992 RMK MADISHF
BGM,2017-04-01 19:00,-75.9797,42.2086,M,M,M,330.00,9.00,M,29.92,M,10.00,M,BKN,OVC,M,M,1200.00,1999.00,M,M,M,KBGM 011900Z AUTO 33009KT 10SM BKN012 OVC019 A2992 RMK MADISHF
BGM,2017-04-01 19:05,-75.9797,42.2086,M,M,M,330.00,9.00,M,29.92,M,10.00,M,BKN,OVC,M,M,1200.00,1999.00,M,M,M,KBGM 011905Z AUTO 33009KT 10SM BKN012 OVC019 A2992 RMK MADISHF
BGM,2017-04-01 19:10,-75.9797,42.2086,M,M,M,340.00,8.00,M,29.92,M,10.00,M,BKN,OVC,M,M,999.00,1600.00,M,M,M,KBGM 011910Z AUTO 34008KT 10SM BKN009 OVC016 A2992 RMK CIG 9V12  MADISHF
BGM,2017-04-01 19:15,-75.9797,42.2086,M,M,M,330.00,8.00,M,29.92,M,10.00,M,BKN,OVC,M,M,999.00,1600.00,M,M,M,KBGM 011915Z AUTO 33008KT 10SM BKN009 OVC016 A2992 RMK CIG 9V13  MADISHF
BGM,2017-04-01 19:20,-75.9797,42.2086,M,M,M,330.00,9.00,M,29.92,M,10.00,M,BKN,OVC,M,M,999.00,1400.00,M,M,M,KBGM 011920Z AUTO 33009KT 10SM BKN009 OVC014 A2992 RMK MADISHF
BGM,2017-04-01 19:25,-75.9797,42.2086,M,M,M,340.00,10.00,M,29.92,M,10.00,M,OVC,M,M,M,999.00,M,M,M,M,KBGM 011925Z AUTO 34010KT 10SM OVC009 A2992 RMK CIG 9V15  MADISHF
BGM,2017-04-01 19:30,-75.9797,42.2086,M,M,M,340.00,11.00,M,29.92,M,10.00,M,OVC,M,M,M,999.00,M,M,M,-RA,KBGM 011930Z AUTO 34011KT 10SM -RA OVC009 A2992 RMK MADISHF
BGM,2017-04-01 19:35,-75.9797,42.2086,M,M,M,330.00,9.00,M,29.92,M,10.00,M,BKN,OVC,M,M,999.00,1500.00,M,M,-RA,KBGM 011935Z AUTO 33009KT 10SM -RA BKN009 OVC015 A2992 RMK MADISHF
BGM,2017-04-01 19:40,-75.9797,42.2086,M,M,M,330.00,9.00,M,29.93,M,10.00,M,BKN,OVC,M,M,999.00,1500.00,M,M,M,KBGM 011940Z AUTO 33009KT 10SM BKN009 OVC015 A2993 RMK CIG 8V14  MADISHF
BGM,2017-04-01 19:45,-75.9797,42.2086,M,M,M,330.00,8.00,M,29.93,M,10.00,M,BKN,OVC,M,M,999.00,1699.00,M,M,M,KBGM 011945Z AUTO 33008KT 10SM BKN009 OVC016 A2993 RMK MADISHF
BGM,2017-04-01 19:50,-75.9797,42.2086,M,M,M,340.00,8.00,M,29.93,M,10.00,M,BKN,OVC,M,M,999.00,1699.00,M,M,M,KBGM 011950Z AUTO 34008KT 10SM BKN009 OVC016 A2993 RMK MADISHF
BGM,2017-04-01 19:53,-75.9797,42.2086,37.00,34.00,88.78,340.00,10.00,0.00,29.93,1014.90,10.00,M,BKN,OVC,M,M,1200.00,1700.00,M,M,M,KBGM 011953Z 34010KT 10SM BKN012 OVC017 03/01 A2993 RMK AO2 RAB29E40 SLP149 P0000 T00280011
BGM,2017-04-01 19:55,-75.9797,42.2086,M,M,M,350.00,13.00,M,29.93,M,10.00,M,SCT,OVC,M,M,999.00,1500.00,M,M,M,KBGM 011955Z AUTO 35013KT 10SM SCT009 OVC015 A2993 RMK MADISHF
BGM,2017-04-01 20:00,-75.9797,42.2086,M,M,M,340.00,9.00,M,29.93,M,10.00,M,BKN,OVC,M,M,1300.00,1900.00,M,M,M,KBGM 012000Z AUTO 34009KT 10SM BKN013 OVC019 A2993 RMK MADISHF
BGM,2017-04-01 20:05,-75.9797,42.2086,M,M,M,350.00,12.00,M,29.93,M,10.00,M,SCT,BKN,OVC,M,1300.00,1900.00,2600.00,M,M,KBGM 012005Z AUTO 35012KT 10SM SCT013 BKN019 OVC026 A2993 RMK MADISHF
BGM,2017-04-01 20:09,-75.9797,42.2086,37.90,34.00,85.69,340.00,9.00,0.00,29.93,M,10.00,M,SCT,BKN,OVC,M,1200.00,2100.00,2600.00,M,M,KBGM 012009Z 34009KT 10SM SCT012 BKN021 OVC026 03/01 A2993 RMK AO2 T00330011
BGM,2017-04-01 20:10,-75.9797,42.2086,M,M,M,340.00,9.00,M,29.93,M,10.00,M,SCT,BKN,OVC,M,1200.00,2100.00,2600.00,M,M,KBGM 012010Z AUTO 34009KT 10SM SCT012 BKN021 OVC026 A2993 RMK MADISHF
BGM,2017-04-01 20:15,-75.9797,42.2086,M,M,M,320.00,10.00,M,29.93,M,10.00,M,SCT,BKN,OVC,M,999.00,1400.00,2600.00,M,M,KBGM 012015Z AUTO 32010KT 10SM SCT009 BKN014 OVC026 A2993 RMK MADISHF
BGM,2017-04-01 20:20,-75.9797,42.2086,M,M,M,320.00,11.00,M,29.93,M,10.00,M,BKN,BKN,OVC,M,999.00,1400.00,2100.00,M,M,KBGM 012020Z AUTO 32011KT 10SM BKN009 BKN014 OVC021 A2993 RMK CIG 8V11  MADISHF
BGM,2017-04-01 20:25,-75.9797,42.2086,36.00,33.10,89.09,320.00,10.00,0.00,29.94,M,10.00,M,SCT,BKN,OVC,M,800.00,1200.00,2400.00,M,M,KBGM 012025Z 32010KT 10SM SCT008 BKN012 OVC024 02/01 A2994 RMK AO2 T00220006
BGM,2017-04-01 20:30,-75.9797,42.2086,M,M,M,330.00,9.00,M,29.94,M,10.00,M,BKN,BKN,OVC,M,800.00,1600.00,2600.00,M,M,KBGM 012030Z AUTO 33009KT 10SM BKN008 BKN016 OVC026 A2994 RMK CIG 7V13  MADISHF
BGM,2017-04-01 20:32,-75.9797,42.2086,36.00,33.10,89.09,330.00,9.00,0.00,29.94,M,10.00,M,BKN,BKN,OVC,M,800.00,1600.00,2600.00,M,M,KBGM 012032Z 33009KT 10SM BKN008 BKN016 OVC026 02/01 A2994 RMK AO2 CIG 006V013 T00220006
BGM,2017-04-01 20:35,-75.9797,42.2086,M,M,M,330.00,11.00,M,29.95,M,10.00,M,BKN,OVC,M,M,800.00,1600.00,M,M,M,KBGM 012035Z AUTO 33011KT 10SM BKN008 OVC016 A2995 RMK CIG 6V13  MADISHF
BGM,2017-04-01 20:40,-75.9797,42.2086,M,M,M,330.00,11.00,M,29.95,M,10.00,M,BKN,OVC,M,M,800.00,1500.00,M,M,M,KBGM 012040Z AUTO 33011KT 10SM BKN008 OVC015 A2995 RMK CIG 6V12  MADISHF
BGM,2017-04-01 20:45,-75.9797,42.2086,M,M,M,330.00,11.00,M,29.95,M,10.00,M,BKN,OVC,M,M,800.00,1500.00,M,M,M,KBGM 012045Z AUTO 33011KT 10SM BKN008 OVC015 A2995 RMK CIG 6V12  MADISHF
BGM,2017-04-01 20:50,-75.9797,42.2086,M,M,M,330.00,7.00,M,29.95,M,10.00,M,BKN,OVC,M,M,800.00,1500.00,M,M,M,KBGM 012050Z AUTO 33007KT 10SM BKN008 OVC015 A2995 RMK CIG 6V12  MADISHF
BGM,2017-04-01 20:53,-75.9797,42.2086,36.00,33.10,89.09,330.00,11.00,0.00,29.95,1015.90,10.00,M,BKN,OVC,M,M,800.00,1300.00,M,M,M,KBGM 012053Z 33011KT 10SM BKN008 OVC013 02/01 A2995 RMK AO2 CIG 006V011 SLP159 60000 T00220006 53017
BGM,2017-04-01 20:55,-75.9797,42.2086,M,M,M,310.00,10.00,M,29.96,M,10.00,M,BKN,OVC,M,M,800.00,1300.00,M,M,M,KBGM 012055Z AUTO 31010KT 10SM BKN008 OVC013 A2996 RMK CIG 6V11  MADISHF
BGM,2017-04-01 21:00,-75.9797,42.2086,M,M,M,330.00,9.00,M,29.96,M,10.00,M,OVC,M,M,M,999.00,M,M,M,M,KBGM 012100Z AUTO 33009KT 10SM OVC009 A2996 RMK CIG 6V16  MADISHF
BGM,2017-04-01 21:03,-75.9797,42.2086,36.00,33.10,89.09,330.00,10.00,0.00,29.96,M,10.00,M,OVC,M,M,M,1000.00,M,M,M,M,KBGM 012103Z 33010KT 10SM OVC010 02/01 A2996 RMK AO2 CIG 006V016 T00220006
BGM,2017-04-01 21:05,-75.9797,42.2086,M,M,M,330.00,10.00,M,29.96,M,10.00,15.00,OVC,M,M,M,900.00,M,M,M,M,KBGM 012105Z AUTO 33010G15KT 10SM OVC009 A2996 RMK MADISHF
BGM,2017-04-01 21:10,-75.9797,42.2086,36.00,33.10,89.09,330.00,11.00,0.00,29.96,M,10.00,M,OVC,M,M,M,900.00,M,M,M,M,KBGM 012110Z 33011KT 10SM OVC009 02/01 A2996 RMK AO2 T00220006
BGM,2017-04-01 21:15,-75.9797,42.2086,M,M,M,320.00,10.00,M,29.96,M,10.00,M,OVC,M,M,M,900.00,M,M,M,M,KBGM 012115Z AUTO 32010KT 10SM OVC009 A2996 RMK MADISHF
BGM,2017-04-01 21:20,-75.9797,42.2086,M,M,M,330.00,11.00,M,29.96,M,10.00,M,OVC,M,M,M,900.00,M,M,M,M,KBGM 012120Z AUTO 33011KT 10SM OVC009 A2996 RMK MADISHF
BGM,2017-04-01 21:25,-75.9797,42.2086,M,M,M,330.00,11.00,M,29.96,M,10.00,M,OVC,M,M,M,900.00,M,M,M,M,KBGM 012125Z AUTO 33011KT 10SM OVC009 A2996 RMK MADISHF
BGM,2017-04-01 21:30,-75.9797,42.2086,M,M,M,330.00,11.00,M,29.96,M,10.00,M,OVC,M,M,M,900.00,M,M,M,M,KBGM 012130Z AUTO 33011KT 10SM OVC009 A2996 RMK MADISHF
BGM,2017-04-01 21:35,-75.9797,42.2086,M,M,M,340.00,12.00,M,29.97,M,7.00,M,BKN,OVC,M,M,400.00,900.00,M,M,M,KBGM 012135Z AUTO 34012KT 7SM BKN004 OVC009 A2997 RMK CIG 2V6  MADISHF
BGM,2017-04-01 21:40,-75.9797,42.2086,M,M,M,330.00,11.00,M,29.97,M,4.00,M,OVC,M,M,M,400.00,M,M,M,BR,KBGM 012140Z AUTO 33011KT 4SM BR OVC004 A2997 RMK CIG 2V8  MADISHF
BGM,2017-04-01 21:41,-75.9797,42.2086,34.00,33.10,96.46,320.00,10.00,0.00,29.97,M,3.00,19.00,OVC,M,M,M,400.00,M,M,M,BR,KBGM 012141Z 32010G19KT 3SM BR OVC004 01/01 A2997 RMK AO2 CIG 002V007 T00110006
BGM,2017-04-01 21:45,-75.9797,42.2086,M,M,M,330.00,9.00,M,29.98,M,2.50,M,OVC,M,M,M,400.00,M,M,M,BR,KBGM 012145Z AUTO 33009KT 2 1/2SM BR OVC004 A2998 RMK CIG 2V7  MADISHF
BGM,2017-04-01 21:49,-75.9797,42.2086,33.80,33.80,100.00,320.00,11.00,0.00,29.98,M,2.50,M,OVC,M,M,M,200.00,M,M,M,BR,KBGM 012149Z 32011KT 2 1/2SM BR OVC002 01/01 A2998 RMK AO2 VIS 2V3 CIG 001V005
BGM,2017-04-01 21:50,-75.9797,42.2086,M,M,M,310.00,10.00,M,29.98,M,2.50,M,OVC,M,M,M,200.00,M,M,M,BR,KBGM 012150Z AUTO 31010KT 2 1/2SM BR OVC002 A2998 RMK CIG 1V5  MADISHF
BGM,2017-04-01 21:53,-75.9797,42.2086,34.00,33.10,96.46,320.00,11.00,0.00,29.98,1016.90,2.50,M,OVC,M,M,M,200.00,M,M,M,BR,KBGM 012153Z 32011KT 2 1/2SM BR OVC002 01/01 A2998 RMK AO2 CIG 001V006 SLP169 T00110006
BGM,2017-04-01 21:55,-75.9797,42.2086,M,M,M,320.00,11.00,M,29.99,M,2.50,M,OVC,M,M,M,200.00,M,M,M,BR,KBGM 012155Z AUTO 32011KT 2 1/2SM BR OVC002 A2999 RMK MADISHF
BGM,2017-04-01 22:00,-75.9797,42.2086,M,M,M,320.00,11.00,M,29.99,M,2.50,M,OVC,M,M,M,200.00,M,M,M,BR,KBGM 012200Z AUTO 32011KT 2 1/2SM BR OVC002 A2999 RMK MADISHF
BGM,2017-04-01 22:05,-75.9797,42.2086,M,M,M,330.00,9.00,M,30.00,M,4.00,M,OVC,M,M,M,200.00,M,M,M,BR,KBGM 012205Z AUTO 33009KT 4SM BR OVC002 A3000 RMK MADISHF
BGM,2017-04-01 22:07,-75.9797,42.2086,34.00,33.10,96.46,330.00,8.00,0.00,30.00,M,4.00,M,OVC,M,M,M,200.00,M,M,M,BR,KBGM 012207Z 33008KT 4SM BR OVC002 01/01 A3000 RMK AO2 T00110006
BGM,2017-04-01 22:10,-75.9797,42.2086,M,M,M,310.00,6.00,M,30.00,M,5.00,M,OVC,M,M,M,200.00,M,M,M,BR,KBGM 012210Z AUTO 31006KT 5SM BR OVC002 A3000 RMK MADISHF
BGM,2017-04-01 22:15,-75.9797,42.2086,M,M,M,310.00,10.00,M,30.00,M,5.00,M,OVC,M,M,M,200.00,M,M,M,BR,KBGM 012215Z AUTO 31010KT 5SM BR OVC002 A3000 RMK MADISHF
BGM,2017-04-01 22:20,-75.9797,42.2086,M,M,M,320.00,11.00,M,30.00,M,5.00,M,OVC,M,M,M,200.00,M,M,M,BR,KBGM 012220Z AUTO 32011KT 5SM BR OVC002 A3000 RMK MADISHF
BGM,2017-04-01 22:25,-75.9797,42.2086,M,M,M,330.00,10.00,M,30.01,M,5.00,M,OVC,M,M,M,200.00,M,M,M,BR,KBGM 012225Z AUTO 33010KT 5SM BR OVC002 A3001 RMK MADISHF
BGM,2017-04-01 22:30,-75.9797,42.2086,M,M,M,330.00,11.00,M,30.01,M,8.00,M,OVC,M,M,M,200.00,M,M,M,M,KBGM 012230Z AUTO 33011KT 8SM OVC002 A3001 RMK CIG 2V6  MADISHF
BGM,2017-04-01 22:35,-75.9797,42.2086,M,M,M,320.00,10.00,M,30.01,M,9.00,M,OVC,M,M,M,300.00,M,M,M,M,KBGM 012235Z AUTO 32010KT 9SM OVC003 A3001 RMK CIG 2V6  MADISHF
BGM,2017-04-01 22:40,-75.9797,42.2086,M,M,M,330.00,10.00,M,30.01,M,10.00,M,OVC,M,M,M,300.00,M,M,M,M,KBGM 012240Z AUTO 33010KT 10SM OVC003 A3001 RMK CIG 2V7  MADISHF
BGM,2017-04-01 22:45,-75.9797,42.2086,M,M,M,330.00,9.00,M,30.01,M,10.00,M,OVC,M,M,M,300.00,M,M,M,M,KBGM 012245Z AUTO 33009KT 10SM OVC003 A3001 RMK MADISHF
BGM,2017-04-01 22:50,-75.9797,42.2086,M,M,M,330.00,8.00,M,30.01,M,10.00,M,OVC,M,M,M,400.00,M,M,M,M,KBGM 012250Z AUTO 33008KT 10SM OVC004 A3001 RMK MADISHF
BGM,2017-04-01 22:53,-75.9797,42.2086,33.10,32.00,95.67,330.00,8.00,0.00,30.01,1018.00,10.00,M,OVC,M,M,M,400.00,M,M,M,M,KBGM 012253Z 33008KT 10SM OVC004 01/00 A3001 RMK AO2 SLP180 T00060000
BGM,2017-04-01 22:55,-75.9797,42.2086,M,M,M,330.00,10.00,M,30.01,M,10.00,M,OVC,M,M,M,400.00,M,M,M,M,KBGM 012255Z AUTO 33010KT 10SM OVC004 A3001 RMK MADISHF
BGM,2017-04-01 23:00,-75.9797,42.2086,M,M,M,330.00,10.00,M,30.02,M,10.00,M,OVC,M,M,M,400.00,M,M,M,M,KBGM 012300Z AUTO 33010KT 10SM OVC004 A3002 RMK MADISHF
BGM,2017-04-01 23:05,-75.9797,42.2086,M,M,M,330.00,8.00,M,30.02,M,10.00,M,OVC,M,M,M,400.00,M,M,M,M,KBGM 012305Z AUTO 33008KT 10SM OVC004 A3002 RMK MADISHF
BGM,2017-04-01 23:10,-75.9797,42.2086,M,M,M,320.00,7.00,M,30.02,M,10.00,M,OVC,M,M,M,400.00,M,M,M,M,KBGM 012310Z AUTO 32007KT 10SM OVC004 A3002 RMK MADISHF
BGM,2017-04-01 23:15,-75.9797,42.2086,M,M,M,320.00,10.00,M,30.02,M,9.00,M,OVC,M,M,M,400.00,M,M,M,M,KBGM 012315Z AUTO 32010KT 9SM OVC004 A3002 RMK MADISHF
BGM,2017-04-01 23:20,-75.9797,42.2086,M,M,M,330.00,10.00,M,30.02,M,6.00,M,OVC,M,M,M,400.00,M,M,M,BR,KBGM 012320Z AUTO 33010KT 6SM BR OVC004 A3002 RMK MADISHF
BGM,2017-04-01 23:25,-75.9797,42.2086,M,M,M,330.00,7.00,M,30.01,M,5.00,M,OVC,M,M,M,400.00,M,M,M,BR,KBGM 012325Z AUTO 33007KT 5SM BR OVC004 A3001 RMK MADISHF
BGM,2017-04-01 23:30,-75.9797,42.2086,M,M,M,310.00,7.00,M,30.01,M,6.00,M,OVC,M,M,M,400.00,M,M,M,BR,KBGM 012330Z AUTO 31007KT 6SM BR OVC004 A3001 RMK CIG 3V9  MADISHF
BGM,2017-04-01 23:35,-75.9797,42.2086,M,M,M,320.00,8.00,M,30.01,M,8.00,M,OVC,M,M,M,400.00,M,M,M,M,KBGM 012335Z AUTO 32008KT 8SM OVC004 A3001 RMK CIG 3V9  MADISHF
BGM,2017-04-01 23:40,-75.9797,42.2086,M,M,M,320.00,7.00,M,30.01,M,10.00,M,BKN,OVC,M,M,400.00,800.00,M,M,M,KBGM 012340Z AUTO 32007KT 10SM BKN004 OVC008 A3001 RMK CIG 3V6  MADISHF
BGM,2017-04-01 23:45,-75.9797,42.2086,M,M,M,330.00,7.00,M,30.01,M,10.00,M,BKN,BKN,OVC,M,400.00,800.00,1999.00,M,M,KBGM 012345Z AUTO 33007KT 10SM BKN004 BKN008 OVC019 A3001 RMK CIG 3V6  MADISHF
BGM,2017-04-01 23:50,-75.9797,42.2086,M,M,M,330.00,8.00,M,30.01,M,10.00,M,BKN,BKN,OVC,M,400.00,1100.00,1999.00,M,M,KBGM 012350Z AUTO 33008KT 10SM BKN004 BKN011 OVC019 A3001 RMK CIG 3V9  MADISHF
BGM,2017-04-01 23:53,-75.9797,42.2086,33.10,32.00,95.67,320.00,8.00,0.00,30.01,1017.80,10.00,M,BKN,OVC,M,M,600.00,1100.00,M,M,M,KBGM 012353Z 32008KT 10SM BKN006 OVC011 01/00 A3001 RMK AO2 CIG 003V009 SLP178 60000 T00060000 10039 20006 50009
BGM,2017-04-01 23:55,-75.9797,42.2086,M,M,M,340.00,11.00,M,30.01,M,10.00,M,BKN,OVC,M,M,600.00,1100.00,M,M,M,KBGM 012355Z AUTO 34011KT 10SM BKN006 OVC011 A3001 RMK CIG 3V9  MADISHF
