#DEBUG: Format Typ    -> comma
#DEBUG: Time Period   -> 2017-04-01 00:00:00+00:00 2017-04-02 00:00:00+00:00
#DEBUG: Time Zone     -> Etc/UTC
#DEBUG: Data Contact   -> daryl herzmann akrherz@iastate.edu 515-294-5978
#DEBUG: Entries Found -> -1
station,valid,lon,lat,tmpf, dwpf, relh, drct, sknt, p01i, alti, mslp, vsby, gust, skyc1, skyc2, skyc3, skyc4, skyl1, skyl2, skyl3, skyl4, presentwx, metar
BGR,2017-04-01 00:00,-68.8281,44.8074,M,M,M,260.00,4.00,M,30.09,M,10.00,M,CLR,M,M,M,M,M,M,M,M,KBGR 010000Z AUTO 26004KT 10SM CLR A3009 RMK MADISHF
BGR,2017-04-01 00:05,-68.8281,44.8074,M,M,M,0.00,0.00,M,30.09,M,10.00,M,CLR,M,M,M,M,M,M,M,M,KBGR 010005Z AUTO 00000KT 10SM CLR A3009 RMK MADISHF
BGR,2017-04-01 00:10,-68.8281,44.8074,M,M,M,0.00,0.00,M,30.09,M,10.00,M,CLR,M,M,M,M,M,M,M,M,KBGR 010010Z AUTO 00000KT 10SM CLR A3009 RMK MADISHF
BGR,2017-04-01 00:15,-68.8281,44.8074,M,M,M,0.00,0.00,M,30.09,M,10.00,M,CLR,M,M,M,M,M,M,M,M,KBGR 010015Z AUTO 00000KT 10SM CLR A3009 RMK MADISHF
BGR,2017-04-01 00:20,-68.8281,44.8074,M,M,M,0.00,0.00,M,30.09,M,10.00,M,CLR,M,M,M,M,M,M,M,M,KBGR 010020Z AUTO 00000KT 10SM CLR A3009 RMK MADISHF
BGR,2017-04-01 00:25,-68.8281,44.8074,M,M,M,0.00,0.00,M,30.09,M,10.00,M,CLR,M,M,M,M,M,M,M,M,KBGR 010025Z AUTO 00000KT 10SM CLR A3009 RMK MADISHF
BGR,2017-04-01 00:30,-68.8281,44.8074,M,M,M,0.00,0.00,M,30.09,M,10.00,M,CLR,M,M,M,M,M,M,M,M,KBGR 010030Z AUTO 00000KT 10SM CLR A3009 RMK MADISHF
BGR,2017-04-01 00:35,-68.8281,44.8074,M,M,M,150.00,6.00,M,30.09,M,10.00,M,M,M,M,M,M,M,M,M,M,KBGR 010035Z AUTO 15006KT 10SM A3009 RMK MADISHF
BGR,2017-04-01 00:40,-68.8281,44.8074,M,M,M,160.00,4.00,M,30.09,M,10.00,M,M,M,M,M,M,M,M,M,M,KBGR 010040Z AUTO 16004KT 10SM A3009 RMK MADISHF
BGR,2017-04-01 00:45,-68.8281,44.8074,M,M,M,0.00,0.00,M,30.10,M,10.00,M,M,M,M,M,M,M,M,M,M,KBGR 010045Z AUTO 00000KT 10SM A3010 RMK MADISHF
BGR,2017-04-01 00:50,-68.8281,44.8074,M,M,M,0.00,0.00,M,30.09,M,10.00,M,M,M,M,M,M,M,M,M,M,KBGR 010050Z AUTO 00000KT 10SM A3009 RMK MADISHF
BGR,2017-04-01 00:53,-68.8281,44.8074,37.90,21.90,52.13,0.00,0.00,0.00,30.10,1019.30,10.00,M,OVC,M,M,M,15000.00,M,M,M,M,KBGR 010053Z 00000KT 10SM OVC150 03/M06 A3010 RMK AO2 SLP193 T00331056
BGR,2017-04-01 00:55,-68.8281,44.8074,M,M,M,0.00,0.00,M,30.10,M,10.00,M,CLR,M,M,M,M,M,M,M,M,KBGR 010055Z AUTO 00000KT 10SM CLR A3010 RMK MADISHF
BGR,2017-04-01 01:00,-68.8281,44.8074,M,M,M,0.00,0.00,M,30.09,M,10.00,M,CLR,M,M,M,M,M,M,M,M,KBGR 010100Z AUTO 00000KT 10SM CLR A3009 RMK MADISHF
BGR,2017-04-01 01:05,-68.8281,44.8074,M,M,M,0.00,0.00,M,30.09,M,10.00,M,CLR,M,M,M,M,M,M,M,M,KBGR 010105Z AUTO 00000KT 10SM CLR A3009 RMK MADISHF
BGR,2017-04-01 01:10,-68.8281,44.8074,M,M,M,0.00,0.00,M,30.09,M,10.00,M,CLR,M,M,M,M,M,M,M,M,KBGR 010110Z AUTO 00000KT 10SM CLR A3009 RMK MADISHF
BGR,2017-04-01 01:15,-68.8281,44.8074,M,M,M,0.00,0.00,M,30.09,M,10.00,M,CLR,M,M,M,M,M,M,M,M,KBGR 010115Z AUTO 00000KT 10SM CLR A3009 RMK MADISHF
BGR,2017-04-01 01:20,-68.8281,44.8074,M,M,M,0.00,0.00,M,30.09,M,10.00,M,CLR,M,M,M,M,M,M,M,M,KBGR 010120Z AUTO 00000KT 10SM CLR A3009 RMK MADISHF
BGR,2017-04-01 01:25,-68.8281,44.8074,M,M,M,140.00,4.00,M,30.09,M,10.00,M,CLR,M,M,M,M,M,M,M,M,KBGR 010125Z AUTO 14004KT 10SM CLR A3009 RMK MADISHF
BGR,2017-04-01 01:30,-68.8281,44.8074,M,M,M,150.00,4.00,M,30.09,M,10.00,M,CLR,M,M,M,M,M,M,M,M,KBGR 010130Z AUTO 15004KT 10SM CLR A3009 RMK MADISHF
BGR,2017-04-01 01:35,-68.8281,44.8074,M,M,M,160.00,4.00,M,30.09,M,10.00,M,CLR,M,M,M,M,M,M,M,M,KBGR 010135Z AUTO 16004KT 10SM CLR A3009 RMK MADISHF
BGR,2017-04-01 01:40,-68.8281,44.8074,M,M,M,150.00,4.00,M,30.10,M,10.00,M,CLR,M,M,M,M,M,M,M,M,KBGR 010140Z AUTO 15004KT 10SM CLR A3010 RMK MADISHF
BGR,2017-04-01 01:45,-68.8281,44.8074,M,M,M,150.00,4.00,M,30.10,M,10.00,M,CLR,M,M,M,M,M,M,M,M,KBGR 010145Z AUTO 15004KT 10SM CLR A3010 RMK MADISHF
BGR,2017-04-01 01:50,-68.8281,44.8074,M,M,M,150.00,5.00,M,30.10,M,10.00,M,M,M,M,M,M,M,M,M,M,KBGR 010150Z AUTO 15005KT 10SM A3010 RMK MADISHF
BGR,2017-04-01 01:53,-68.8281,44.8074,36.00,25.00,63.98,160.00,5.00,0.00,30.10,1019.40,10.00,M,OVC,M,M,M,15000.00,M,M,M,M,KBGR 010153Z 16005KT 10SM OVC150 02/M04 A3010 RMK AO2 SLP194 T00221039
BGR,2017-04-01 01:55,-68.8281,44.8074,M,M,M,160.00,5.00,M,30.10,M,10.00,M,CLR,M,M,M,M,M,M,M,M,KBGR 010155Z AUTO 16005KT 10SM CLR A3010 RMK MADISHF
BGR,2017-04-01 02:00,-68.8281,44.8074,M,M,M,160.00,5.00,M,30.10,M,10.00,M,FEW,M,M,M,12000.00,M,M,M,M,KBGR 010200Z AUTO 16005KT 10SM FEW120 A3010 RMK MADISHF
BGR,2017-04-01 02:05,-68.8281,44.8074,M,M,M,170.00,6.00,M,30.10,M,10.00,M,FEW,M,M,M,12000.00,M,M,M,M,KBGR 010205Z AUTO 17006KT 10SM FEW120 A3010 RMK MADISHF
BGR,2017-04-01 02:10,-68.8281,44.8074,M,M,M,160.00,6.00,M,30.10,M,10.00,M,FEW,M,M,M,12000.00,M,M,M,M,KBGR 010210Z AUTO 16006KT 10SM FEW120 A3010 RMK MADISHF
BGR,2017-04-01 02:15,-68.8281,44.8074,M,M,M,170.00,5.00,M,30.10,M,10.00,M,SCT,M,M,M,12000.00,M,M,M,M,KBGR 010215Z AUTO 17005KT 10SM SCT120 A3010 RMK MADISHF
BGR,2017-04-01 02:20,-68.8281,44.8074,M,M,M,170.00,5.00,M,30.10,M,10.00,M,BKN,M,M,M,12000.00,M,M,M,M,KBGR 010220Z AUTO 17005KT 10SM BKN120 A3010 RMK MADISHF
BGR,2017-04-01 02:25,-68.8281,44.8074,M,M,M,160.00,6.00,M,30.10,M,10.00,M,BKN,M,M,M,12000.00,M,M,M,M,KBGR 010225Z AUTO 16006KT 10SM BKN120 A3010 RMK MADISHF
BGR,2017-04-01 02:30,-68.8281,44.8074,M,M,M,160.00,5.00,M,30.10,M,10.00,M,BKN,M,M,M,12000.00,M,M,M,M,KBGR 010230Z AUTO 16005KT 10SM BKN120 A3010 RMK MADISHF
BGR,2017-04-01 02:35,-68.8281,44.8074,M,M,M,170.00,5.00,M,30.10,M,10.00,M,BKN,M,M,M,12000.00,M,M,M,M,KBGR 010235Z AUTO 17005KT 10SM BKN120 A3010 RMK MADISHF
BGR,2017-04-01 02:40,-68.8281,44.8074,M,M,M,170.00,4.00,M,30.10,M,10.00,M,BKN,M,M,M,12000.00,M,M,M,M,KBGR 010240Z AUTO 17004KT 10SM BKN120 A3010 RMK MADISHF
BGR,2017-04-01 02:45,-68.8281,44.8074,M,M,M,170.00,3.00,M,30.10,M,10.00,M,BKN,M,M,M,12000.00,M,M,M,M,KBGR 010245Z AUTO 17003KT 10SM BKN120 A3010 RMK MADISHF
BGR,2017-04-01 02:50,-68.8281,44.8074,M,M,M,190.00,4.00,M,30.10,M,10.00,M,BKN,M,M,M,12000.00,M,M,M,M,KBGR 010250Z AUTO 19004KT 10SM BKN120 A3010 RMK MADISHF
BGR,2017-04-01 02:53,-68.8281,44.8074,36.00,25.00,63.98,190.00,4.00,0.00,30.10,1019.40,10.00,M,BKN,OVC,M,M,12000.00,15000.00,M,M,M,KBGR 010253Z 19004KT 10SM BKN120 OVC150 02/M04 A3010 RMK AO2 SLP194 T00221039 51004
BGR,2017-04-01 02:55,-68.8281,44.8074,M,M,M,180.00,4.00,M,30.10,M,10.00,M,OVC,M,M,M,12000.00,M,M,M,M,KBGR 010255Z AUTO 18004KT 10SM OVC120 A3010 RMK MADISHF
BGR,2017-04-01 03:00,-68.8281,44.8074,M,M,M,170.00,3.00,M,30.10,M,10.00,M,OVC,M,M,M,12000.00,M,M,M,M,KBGR 010300Z AUTO 17003KT 10SM OVC120 A3010 RMK MADISHF
BGR,2017-04-01 03:05,-68.8281,44.8074,M,M,M,170.00,5.00,M,30.10,M,10.00,M,BKN,M,M,M,12000.00,M,M,M,M,KBGR 010305Z AUTO 17005KT 10SM BKN120 A3010 RMK MADISHF
BGR,2017-04-01 03:10,-68.8281,44.8074,M,M,M,170.00,4.00,M,30.10,M,10.00,M,BKN,M,M,M,12000.00,M,M,M,M,KBGR 010310Z AUTO 17004KT 10SM BKN120 A3010 RMK MADISHF
BGR,2017-04-01 03:15,-68.8281,44.8074,M,M,M,160.00,4.00,M,30.10,M,10.00,M,BKN,M,M,M,12000.00,M,M,M,M,KBGR 010315Z AUTO 16004KT 10SM BKN120 A3010 RMK MADISHF
BGR,2017-04-01 03:20,-68.8281,44.8074,M,M,M,160.00,4.00,M,30.10,M,10.00,M,BKN,M,M,M,12000.00,M,M,M,M,KBGR 010320Z AUTO 16004KT 10SM BKN120 A3010 RMK MADISHF
BGR,2017-04-01 03:25,-68.8281,44.8074,M,M,M,150.00,4.00,M,30.10,M,10.00,M,BKN,M,M,M,12000.00,M,M,M,M,KBGR 010325Z AUTO 15004KT 10SM BKN120 A3010 RMK MADISHF
BGR,2017-04-01 03:30,-68.8281,44.8074,M,M,M,150.00,4.00,M,30.10,M,10.00,M,BKN,M,M,M,12000.00,M,M,M,M,KBGR 010330Z AUTO 15004KT 10SM BKN120 A3010 RMK MADISHF
BGR,2017-04-01 03:35,-68.8281,44.8074,M,M,M,160.00,4.00,M,30.09,M,10.00,M,BKN,M,M,M,12000.00,M,M,M,M,KBGR 010335Z AUTO 16004KT 10SM BKN120 A3009 RMK MADISHF
BGR,2017-04-01 03:40,-68.8281,44.8074,M,M,M,150.00,4.00,M,30.09,M,10.00,M,BKN,M,M,M,11000.00,M,M,M,M,KBGR 010340Z AUTO 15004KT 10SM BKN110 A3009 RMK MADISHF
BGR,2017-04-01 03:45,-68.8281,44.8074,M,M,M,150.00,4.00,M,30.09,M,10.00,M,OVC,M,M,M,11000.00,M,M,M,M,KBGR 010345Z AUTO 15004KT 10SM OVC110 A3009 RMK MADISHF
BGR,2017-04-01 03:50,-68.8281,44.8074,M,M,M,140.00,4.00,M,30.09,M,10.00,M,OVC,M,M,M,11000.00,M,M,M,M,KBGR 010350Z AUTO 14004KT 10SM OVC110 A3009 RMK MADISHF
BGR,2017-04-01 03:53,-68.8281,44.8074,35.10,26.10,69.41,140.00,4.00,0.00,30.09,1019.20,10.00,M,OVC,M,M,M,11000.00,M,M,M,M,KBGR 010353Z 14004KT 10SM OVC110 02/M03 A3009 RMK AO2 SLP192 T00171033
BGR,2017-04-01 03:55,-68.8281,44.8074,M,M,M,140.00,5.00,M,30.09,M,10.00,M,OVC,M,M,M,11000.00,M,M,M,M,KBGR 010355Z AUTO 14005KT 10SM OVC110 A3009 RMK MADISHF
BGR,2017-04-01 04:00,-68.8281,44.8074,M,M,M,140.00,4.00,M,30.09,M,10.00,M,OVC,M,M,M,11000.00,M,M,M,M,KBGR 010400Z AUTO 14004KT 10SM OVC110 A3009 RMK MADISHF
BGR,2017-04-01 04:05,-68.8281,44.8074,M,M,M,120.00,4.00,M,30.09,M,10.00,M,OVC,M,M,M,11000.00,M,M,M,M,KBGR 010405Z AUTO 12004KT 10SM OVC110 A3009 RMK MADISHF
BGR,2017-04-01 04:10,-68.8281,44.8074,M,M,M,110.00,6.00,M,30.09,M,10.00,M,OVC,M,M,M,11000.00,M,M,M,M,KBGR 010410Z AUTO 11006KT 10SM OVC110 A3009 RMK MADISHF
BGR,2017-04-01 04:15,-68.8281,44.8074,M,M,M,120.00,6.00,M,30.09,M,10.00,M,OVC,M,M,M,10000.00,M,M,M,M,KBGR 010415Z AUTO 12006KT 10SM OVC100 A3009 RMK MADISHF
BGR,2017-04-01 04:20,-68.8281,44.8074,M,M,M,120.00,5.00,M,30.09,M,10.00,M,OVC,M,M,M,10000.00,M,M,M,M,KBGR 010420Z AUTO 12005KT 10SM OVC100 A3009 RMK MADISHF
BGR,2017-04-01 04:25,-68.8281,44.8074,M,M,M,130.00,4.00,M,30.08,M,10.00,M,OVC,M,M,M,10000.00,M,M,M,M,KBGR 010425Z AUTO 13004KT 10SM OVC100 A3008 RMK MADISHF
BGR,2017-04-01 04:30,-68.8281,44.8074,M,M,M,130.00,4.00,M,30.08,M,10.00,M,OVC,M,M,M,10000.00,M,M,M,M,KBGR 010430Z AUTO 13004KT 10SM OVC100 A3008 RMK MADISHF
BGR,2017-04-01 04:35,-68.8281,44.8074,M,M,M,140.00,4.00,M,30.08,M,10.00,M,OVC,M,M,M,10000.00,M,M,M,M,KBGR 010435Z AUTO 14004KT 10SM OVC100 A3008 RMK MADISHF
BGR,2017-04-01 04:40,-68.8281,44.8074,M,M,M,140.00,4.00,M,30.08,M,10.00,M,OVC,M,M,M,10000.00,M,M,M,M,KBGR 010440Z AUTO 14004KT 10SM OVC100 A3008 RMK MADISHF
BGR,2017-04-01 04:45,-68.8281,44.8074,M,M,M,140.00,4.00,M,30.08,M,10.00,M,OVC,M,M,M,10000.00,M,M,M,M,KBGR 010445Z AUTO 14004KT 10SM OVC100 A3008 RMK MADISHF
BGR,2017-04-01 04:50,-68.8281,44.8074,M,M,M,130.00,3.00,M,30.08,M,10.00,M,OVC,M,M,M,10000.00,M,M,M,M,KBGR 010450Z AUTO 13003KT 10SM OVC100 A3008 RMK MADISHF
BGR,2017-04-01 04:53,-68.8281,44.8074,34.00,26.10,72.52,130.00,3.00,0.00,30.08,1018.70,10.00,M,OVC,M,M,M,10000.00,M,M,M,M,KBGR 010453Z 13003KT 10SM OVC100 01/M03 A3008 RMK AO2 SLP187 T00111033 400781039
BGR,2017-04-01 04:55,-68.8281,44.8074,M,M,M,130.00,3.00,M,30.08,M,10.00,M,OVC,M,M,M,10000.00,M,M,M,M,KBGR 010455Z AUTO 13003KT 10SM OVC100 A3008 RMK MADISHF
BGR,2017-04-01 05:00,-68.8281,44.8074,M,M,M,0.00,0.00,M,30.08,M,10.00,M,OVC,M,M,M,10000.00,M,M,M,M,KBGR 010500Z AUTO 00000KT 10SM OVC100 A3008 RMK MADISHF
BGR,2017-04-01 05:05,-68.8281,44.8074,M,M,M,120.00,3.00,M,30.08,M,10.00,M,OVC,M,M,M,10000.00,M,M,M,M,KBGR 010505Z AUTO 12003KT 10SM OVC100 A3008 RMK MADISHF
BGR,2017-04-01 05:10,-68.8281,44.8074,M,M,M,120.00,3.00,M,30.07,M,10.00,M,OVC,M,M,M,10000.00,M,M,M,M,KBGR 010510Z AUTO 12003KT 10SM OVC100 A3007 RMK MADISHF
BGR,2017-04-01 05:15,-68.8281,44.8074,M,M,M,120.00,3.00,M,30.07,M,10.00,M,OVC,M,M,M,10000.00,M,M,M,M,KBGR 010515Z AUTO 12003KT 10SM OVC100 A3007 RMK MADISHF
BGR,2017-04-01 05:20,-68.8281,44.8074,M,M,M,110.00,3.00,M,30.07,M,10.00,M,OVC,M,M,M,10000.00,M,M,M,M,KBGR 010520Z AUTO 11003KT 10SM OVC100 A3007 RMK MADISHF
BGR,2017-04-01 05:25,-68.8281,44.8074,M,M,M,110.00,3.00,M,30.07,M,10.00,M,OVC,M,M,M,10000.00,M,M,M,M,KBGR 010525Z AUTO 11003KT 10SM OVC100 A3007 RMK MADISHF
BGR,2017-04-01 05:30,-68.8281,44.8074,M,M,M,90.00,4.00,M,30.07,M,10.00,M,OVC,M,M,M,9500.00,M,M,M,M,KBGR 010530Z AUTO 09004KT 10SM OVC095 A3007 RMK MADISHF
BGR,2017-04-01 05:35,-68.8281,44.8074,M,M,M,80.00,5.00,M,30.07,M,10.00,M,OVC,M,M,M,10000.00,M,M,M,M,KBGR 010535Z AUTO 08005KT 10SM OVC100 A3007 RMK MADISHF
BGR,2017-04-01 05:40,-68.8281,44.8074,M,M,M,90.00,5.00,M,30.07,M,10.00,M,OVC,M,M,M,10000.00,M,M,M,M,KBGR 010540Z AUTO 09005KT 10SM OVC100 A3007 RMK MADISHF
BGR,2017-04-01 05:45,-68.8281,44.8074,M,M,M,90.00,4.00,M,30.07,M,10.00,M,OVC,M,M,M,10000.00,M,M,M,M,KBGR 010545Z AUTO 09004KT 10SM OVC100 A3007 RMK MADISHF
BGR,2017-04-01 05:50,-68.8281,44.8074,M,M,M,90.00,5.00,M,30.07,M,10.00,M,OVC,M,M,M,10000.00,M,M,M,M,KBGR 010550Z AUTO 09005KT 10SM OVC100 A3007 RMK MADISHF
BGR,2017-04-01 05:53,-68.8281,44.8074,35.10,25.00,66.31,90.00,5.00,0.00,30.07,1018.30,10.00,M,OVC,M,M,M,10000.00,M,M,M,M,KBGR 010553Z 09005KT 10SM OVC100 02/M04 A3007 RMK AO2 SLP183 T00171039 10050 20011 57010
BGR,2017-04-01 05:55,-68.8281,44.8074,M,M,M,100.00,5.00,M,30.07,M,10.00,M,OVC,M,M,M,10000.00,M,M,M,M,KBGR 010555Z AUTO 10005KT 10SM OVC100 A3007 RMK MADISHF
BGR,2017-04-01 06:00,-68.8281,44.8074,M,M,M,100.00,4.00,M,30.07,M,10.00,M,OVC,M,M,M,10000.00,M,M,M,M,KBGR 010600Z AUTO 10004KT 10SM OVC100 A3007 RMK MADISHF
BGR,2017-04-01 06:05,-68.8281,44.8074,M,M,M,100.00,5.00,M,30.07,M,10.00,M,OVC,M,M,M,10000.00,M,M,M,M,KBGR 010605Z AUTO 10005KT 10SM OVC100 A3007 RMK MADISHF
BGR,2017-04-01 06:10,-68.8281,44.8074,M,M,M,100.00,5.00,M,30.07,M,10.00,M,OVC,M,M,M,11000.00,M,M,M,M,KBGR 010610Z AUTO 10005KT 10SM OVC110 A3007 RMK MADISHF
BGR,2017-04-01 06:15,-68.8281,44.8074,M,M,M,110.00,4.00,M,30.07,M,10.00,M,OVC,M,M,M,11000.00,M,M,M,M,KBGR 010615Z AUTO 11004KT 10SM OVC110 A3007 RMK MADISHF
BGR,2017-04-01 06:20,-68.8281,44.8074,M,M,M,100.00,5.00,M,30.07,M,10.00,M,OVC,M,M,M,11000.00,M,M,M,M,KBGR 010620Z AUTO 10005KT 10SM OVC110 A3007 RMK MADISHF
BGR,2017-04-01 06:25,-68.8281,44.8074,M,M,M,100.00,4.00,M,30.07,M,10.00,M,OVC,M,M,M,11000.00,M,M,M,M,KBGR 010625Z AUTO 10004KT 10SM OVC110 A3007 RMK MADISHF
BGR,2017-04-01 06:30,-68.8281,44.8074,M,M,M,110.00,5.00,M,30.07,M,10.00,M,OVC,M,M,M,10000.00,M,M,M,M,KBGR 010630Z AUTO 11005KT 10SM OVC100 A3007 RMK MADISHF
BGR,2017-04-01 06:35,-68.8281,44.8074,M,M,M,100.00,3.00,M,30.07,M,10.00,M,OVC,M,M,M,10000.00,M,M,M,M,KBGR 010635Z AUTO 10003KT 10SM OVC100 A3007 RMK MADISHF
BGR,2017-04-01 06:40,-68.8281,44.8074,M,M,M,100.00,4.00,M,30.07,M,10.00,M,OVC,M,M,M,10000.00,M,M,M,M,KBGR 010640Z AUTO 10004KT 10SM OVC100 A3007 RMK MADISHF
BGR,2017-04-01 06:45,-68.8281,44.8074,M,M,M,90.00,4.00,M,30.07,M,10.00,M,OVC,M,M,M,10000.00,M,M,M,M,KBGR 010645Z AUTO 09004KT 10SM OVC100 A3007 RMK MADISHF
BGR,2017-04-01 06:50,-68.8281,44.8074,M,M,M,100.00,3.00,M,30.07,M,10.00,M,OVC,M,M,M,10000.00,M,M,M,M,KBGR 010650Z AUTO 10003KT 10SM OVC100 A3007 RMK MADISHF
BGR,2017-04-01 06:53,-68.8281,44.8074,35.10,25.00,66.31,90.00,5.00,0.00,30.07,1018.30,10.00,M,OVC,M,M,M,10000.00,M,M,M,M,KBGR 010653Z 09005KT 10SM OVC100 02/M04 A3007 RMK AO2 SLP183 T00171039
BGR,2017-04-01 06:55,-68.8281,44.8074,M,M,M,80.00,5.00,M,30.07,M,10.00,M,OVC,M,M,M,10000.00,M,M,M,M,KBGR 010655Z AUTO 08005KT 10SM OVC100 A3007 RMK MADISHF
BGR,2017-04-01 07:00,-68.8281,44.8074,M,M,M,80.00,5.00,M,30.07,M,10.00,M,OVC,M,M,M,9500.00,M,M,M,M,KBGR 010700Z AUTO 08005KT 10SM OVC095 A3007 RMK MADISHF
BGR,2017-04-01 07:05,-68.8281,44.8074,M,M,M,90.00,6.00,M,30.07,M,10.00,M,OVC,M,M,M,9500.00,M,M,M,M,KBGR 010705Z AUTO 09006KT 10SM OVC095 A3007 RMK MADISHF
BGR,2017-04-01 07:10,-68.8281,44.8074,M,M,M,80.00,5.00,M,30.07,M,10.00,M,OVC,M,M,M,9500.00,M,M,M,M,KBGR 010710Z AUTO 08005KT 10SM OVC095 A3007 RMK MADISHF
BGR,2017-04-01 07:15,-68.8281,44.8074,M,M,M,80.00,6.00,M,30.07,M,10.00,M,OVC,M,M,M,10000.00,M,M,M,M,KBGR 010715Z AUTO 08006KT 10SM OVC100 A3007 RMK MADISHF
BGR,2017-04-01 07:20,-68.8281,44.8074,M,M,M,80.00,6.00,M,30.07,M,10.00,M,FEW,OVC,M,M,7500.00,10000.00,M,M,M,KBGR 010720Z AUTO 08006KT 10SM FEW075 OVC100 A3007 RMK MADISHF
BGR,2017-04-01 07:25,-68.8281,44.8074,M,M,M,90.00,6.00,M,30.07,M,10.00,M,FEW,OVC,M,M,7999.00,10000.00,M,M,M,KBGR 010725Z AUTO 09006KT 10SM FEW079 OVC100 A3007 RMK MADISHF
BGR,2017-04-01 07:30,-68.8281,44.8074,M,M,M,90.00,7.00,M,30.07,M,10.00,M,OVC,M,M,M,10000.00,M,M,M,M,KBGR 010730Z AUTO 09007KT 10SM OVC100 A3007 RMK MADISHF
BGR,2017-04-01 07:35,-68.8281,44.8074,M,M,M,80.00,6.00,M,30.06,M,10.00,M,OVC,M,M,M,10000.00,M,M,M,M,KBGR 010735Z AUTO 08006KT 10SM OVC100 A3006 RMK MADISHF
BGR,2017-04-01 07:40,-68.8281,44.8074,M,M,M,80.00,5.00,M,30.06,M,10.00,M,OVC,M,M,M,10000.00,M,M,M,M,KBGR 010740Z AUTO 08005KT 10SM OVC100 A3006 RMK MADISHF
BGR,2017-04-01 07:45,-68.8281,44.8074,M,M,M,70.00,5.00,M,30.06,M,10.00,M,OVC,M,M,M,10000.00,M,M,M,M,KBGR 010745Z AUTO 07005KT 10SM OVC100 A3006 RMK MADISHF
BGR,2017-04-01 07:50,-68.8281,44.8074,M,M,M,80.00,6.00,M,30.06,M,10.00,M,OVC,M,M,M,10000.00,M,M,M,M,KBGR 010750Z AUTO 08006KT 10SM OVC100 A3006 RMK MADISHF
BGR,2017-04-01 07:53,-68.8281,44.8074,35.10,26.10,69.41,80.00,7.00,0.00,30.06,1018.10,10.00,M,OVC,M,M,M,10000.00,M,M,M,M,KBGR 010753Z 08007KT 10SM OVC100 02/M03 A3006 RMK AO2 SLP181 T00171033
BGR,2017-04-01 07:55,-68.8281,44.8074,M,M,M,80.00,8.00,M,30.06,M,10.00,M,OVC,M,M,M,10000.00,M,M,M,M,KBGR 010755Z AUTO 08008KT 10SM OVC100 A3006 RMK MADISHF
BGR,2017-04-01 08:00,-68.8281,44.8074,M,M,M,90.00,8.00,M,30.06,M,10.00,M,OVC,M,M,M,9500.00,M,M,M,M,KBGR 010800Z AUTO 09008KT 10SM OVC095 A3006 RMK MADISHF
BGR,2017-04-01 08:05,-68.8281,44.8074,M,M,M,90.00,6.00,M,30.06,M,10.00,M,OVC,M,M,M,9500.00,M,M,M,M,KBGR 010805Z AUTO 09006KT 10SM OVC095 A3006 RMK MADISHF
BGR,2017-04-01 08:10,-68.8281,44.8074,M,M,M,80.00,7.00,M,30.06,M,10.00,M,OVC,M,M,M,9000.00,M,M,M,M,KBGR 010810Z AUTO 08007KT 10SM OVC090 A3006 RMK MADISHF
BGR,2017-04-01 08:15,-68.8281,44.8074,M,M,M,90.00,7.00,M,30.06,M,10.00,M,OVC,M,M,M,9000.00,M,M,M,M,KBGR 010815Z AUTO 09007KT 10SM OVC090 A3006 RMK MADISHF
BGR,2017-04-01 08:20,-68.8281,44.8074,M,M,M,80.00,8.00,M,30.06,M,10.00,M,OVC,M,M,M,9000.00,M,M,M,M,KBGR 010820Z AUTO 08008KT 10SM OVC090 A3006 RMK MADISHF
BGR,2017-04-01 08:25,-68.8281,44.8074,M,M,M,90.00,6.00,M,30.06,M,10.00,M,OVC,M,M,M,9000.00,M,M,M,M,KBGR 010825Z AUTO 09006KT 10SM OVC090 A3006 RMK MADISHF
BGR,2017-04-01 08:30,-68.8281,44.8074,M,M,M,80.00,9.00,M,30.06,M,10.00,M,FEW,OVC,M,M,7500.00,9000.00,M,M,M,KBGR 010830Z AUTO 08009KT 10SM FEW075 OVC090 A3006 RMK MADISHF
BGR,2017-04-01 08:35,-68.8281,44.8074,M,M,M,90.00,6.00,M,30.06,M,10.00,M,OVC,M,M,M,8500.00,M,M,M,M,KBGR 010835Z AUTO 09006KT 10SM OVC085 A3006 RMK MADISHF
BGR,2017-04-01 08:40,-68.8281,44.8074,M,M,M,80.00,6.00,M,30.06,M,10.00,M,BKN,OVC,M,M,8500.00,11000.00,M,M,M,KBGR 010840Z AUTO 08006KT 10SM BKN085 OVC110 A3006 RMK MADISHF
BGR,2017-04-01 08:45,-68.8281,44.8074,M,M,M,80.00,5.00,M,30.05,M,10.00,M,BKN,OVC,M,M,8500.00,11000.00,M,M,M,KBGR 010845Z AUTO 08005KT 10SM BKN085 OVC110 A3005 RMK MADISHF
BGR,2017-04-01 08:50,-68.8281,44.8074,M,M,M,90.00,7.00,M,30.05,M,10.00,M,BKN,OVC,M,M,8500.00,11000.00,M,M,M,KBGR 010850Z AUTO 09007KT 10SM BKN085 OVC110 A3005 RMK MADISHF
BGR,2017-04-01 08:53,-68.8281,44.8074,34.00,28.00,78.43,90.00,8.00,0.00,30.05,1017.80,10.00,M,BKN,OVC,M,M,8500.00,11000.00,M,M,M,KBGR 010853Z 09008KT 10SM BKN085 OVC110 01/M02 A3005 RMK AO2 SLP178 T00111022 58005
BGR,2017-04-01 08:55,-68.8281,44.8074,M,M,M,90.00,8.00,M,30.06,M,10.00,M,BKN,OVC,M,M,8500.00,11000.00,M,M,M,KBGR 010855Z AUTO 09008KT 10SM BKN085 OVC110 A3006 RMK MADISHF
BGR,2017-04-01 09:00,-68.8281,44.8074,M,M,M,90.00,9.00,M,30.06,M,10.00,M,BKN,OVC,M,M,8500.00,11000.00,M,M,M,KBGR 010900Z AUTO 09009KT 10SM BKN085 OVC110 A3006 RMK MADISHF
BGR,2017-04-01 09:05,-68.8281,44.8074,M,M,M,80.00,7.00,M,30.06,M,10.00,M,FEW,BKN,OVC,M,7000.00,8500.00,11000.00,M,M,KBGR 010905Z AUTO 08007KT 10SM FEW070 BKN085 OVC110 A3006 RMK MADISHF
BGR,2017-04-01 09:10,-68.8281,44.8074,M,M,M,90.00,8.00,M,30.06,M,10.00,M,OVC,M,M,M,7999.00,M,M,M,M,KBGR 010910Z AUTO 09008KT 10SM OVC079 A3006 RMK MADISHF
BGR,2017-04-01 09:15,-68.8281,44.8074,M,M,M,90.00,7.00,M,30.06,M,10.00,M,OVC,M,M,M,7999.00,M,M,M,M,KBGR 010915Z AUTO 09007KT 10SM OVC079 A3006 RMK MADISHF
BGR,2017-04-01 09:20,-68.8281,44.8074,M,M,M,90.00,8.00,M,30.06,M,10.00,M,BKN,OVC,M,M,7500.00,8500.00,M,M,M,KBGR 010920Z AUTO 09008KT 10SM BKN075 OVC085 A3006 RMK MADISHF
BGR,2017-04-01 09:25,-68.8281,44.8074,M,M,M,90.00,8.00,M,30.06,M,10.00,M,OVC,M,M,M,7999.00,M,M,M,M,KBGR 010925Z AUTO 09008KT 10SM OVC079 A3006 RMK MADISHF
BGR,2017-04-01 09:30,-68.8281,44.8074,M,M,M,90.00,8.00,M,30.06,M,10.00,M,OVC,M,M,M,7999.00,M,M,M,M,KBGR 010930Z AUTO 09008KT 10SM OVC079 A3006 RMK MADISHF
BGR,2017-04-01 09:35,-68.8281,44.8074,M,M,M,90.00,7.00,M,30.06,M,10.00,M,BKN,OVC,M,M,7500.00,8500.00,M,M,M,KBGR 010935Z AUTO 09007KT 10SM BKN075 OVC085 A3006 RMK MADISHF
BGR,2017-04-01 09:40,-68.8281,44.8074,M,M,M,80.00,5.00,M,30.06,M,10.00,M,BKN,OVC,M,M,7000.00,8500.00,M,M,M,KBGR 010940Z AUTO 08005KT 10SM BKN070 OVC085 A3006 RMK MADISHF
BGR,2017-04-01 09:45,-68.8281,44.8074,M,M,M,80.00,7.00,M,30.06,M,10.00,M,BKN,OVC,M,M,7000.00,8500.00,M,M,M,KBGR 010945Z AUTO 08007KT 10SM BKN070 OVC085 A3006 RMK MADISHF
BGR,2017-04-01 09:50,-68.8281,44.8074,M,M,M,80.00,10.00,M,30.06,M,10.00,M,BKN,OVC,M,M,7000.00,8500.00,M,M,M,KBGR 010950Z AUTO 08010KT 10SM BKN070 OVC085 A3006 RMK MADISHF
BGR,2017-04-01 09:53,-68.8281,44.8074,34.00,25.00,69.28,90.00,11.00,0.00,30.06,1017.80,10.00,M,BKN,OVC,M,M,7000.00,8500.00,M,M,M,KBGR 010953Z 09011KT 10SM BKN070 OVC085 01/M04 A3006 RMK AO2 SLP178 T00111039
BGR,2017-04-01 09:55,-68.8281,44.8074,M,M,M,80.00,9.00,M,30.06,M,10.00,M,OVC,M,M,M,7000.00,M,M,M,M,KBGR 010955Z AUTO 08009KT 10SM OVC070 A3006 RMK MADISHF
BGR,2017-04-01 10:00,-68.8281,44.8074,M,M,M,90.00,10.00,M,30.06,M,10.00,M,OVC,M,M,M,7000.00,M,M,M,M,KBGR 011000Z AUTO 09010KT 10SM OVC070 A3006 RMK MADISHF
BGR,2017-04-01 10:05,-68.8281,44.8074,M,M,M,80.00,9.00,M,30.06,M,10.00,M,OVC,M,M,M,7000.00,M,M,M,M,KBGR 011005Z AUTO 08009KT 10SM OVC070 A3006 RMK MADISHF
BGR,2017-04-01 10:10,-68.8281,44.8074,M,M,M,90.00,11.00,M,30.06,M,10.00,M,OVC,M,M,M,7000.00,M,M,M,M,KBGR 011010Z AUTO 09011KT 10SM OVC070 A3006 RMK MADISHF
BGR,2017-04-01 10:15,-68.8281,44.8074,M,M,M,90.00,14.00,M,30.06,M,10.00,M,OVC,M,M,M,6500.00,M,M,M,M,KBGR 011015Z AUTO 09014KT 10SM OVC065 A3006 RMK MADISHF
BGR,2017-04-01 10:20,-68.8281,44.8074,M,M,M,80.00,12.00,M,30.06,M,10.00,M,OVC,M,M,M,6500.00,M,M,M,M,KBGR 011020Z AUTO 08012KT 10SM OVC065 A3006 RMK MADISHF
BGR,2017-04-01 10:25,-68.8281,44.8074,M,M,M,80.00,9.00,M,30.06,M,10.00,M,OVC,M,M,M,6500.00,M,M,M,M,KBGR 011025Z AUTO 08009KT 10SM OVC065 A3006 RMK MADISHF
BGR,2017-04-01 10:30,-68.8281,44.8074,M,M,M,80.00,10.00,M,30.05,M,10.00,M,OVC,M,M,M,6500.00,M,M,M,M,KBGR 011030Z AUTO 08010KT 10SM OVC065 A3005 RMK MADISHF
BGR,2017-04-01 10:35,-68.8281,44.8074,M,M,M,70.00,8.00,M,30.06,M,10.00,M,FEW,OVC,M,M,3000.00,6500.00,M,M,M,KBGR 011035Z AUTO 07008KT 10SM FEW030 OVC065 A3006 RMK MADISHF
BGR,2017-04-01 10:40,-68.8281,44.8074,M,M,M,70.00,11.00,M,30.06,M,10.00,M,FEW,OVC,M,M,2500.00,6500.00,M,M,M,KBGR 011040Z AUTO 07011KT 10SM FEW025 OVC065 A3006 RMK MADISHF
BGR,2017-04-01 10:45,-68.8281,44.8074,M,M,M,80.00,9.00,M,30.06,M,10.00,M,FEW,OVC,M,M,2500.00,6500.00,M,M,M,KBGR 011045Z AUTO 08009KT 10SM FEW025 OVC065 A3006 RMK MADISHF
BGR,2017-04-01 10:50,-68.8281,44.8074,M,M,M,80.00,11.00,M,30.06,M,10.00,M,FEW,OVC,M,M,2500.00,6500.00,M,M,M,KBGR 011050Z AUTO 08011KT 10SM FEW025 OVC065 A3006 RMK MADISHF
BGR,2017-04-01 10:53,-68.8281,44.8074,33.10,25.00,71.82,80.00,9.00,0.00,30.06,1018.10,10.00,M,FEW,OVC,M,M,2500.00,6500.00,M,M,M,KBGR 011053Z 08009KT 10SM FEW025 OVC065 01/M04 A3006 RMK AO2 SLP181 T00061039
BGR,2017-04-01 10:55,-68.8281,44.8074,M,M,M,70.00,8.00,M,30.06,M,10.00,M,OVC,M,M,M,6500.00,M,M,M,M,KBGR 011055Z AUTO 07008KT 10SM OVC065 A3006 RMK MADISHF
BGR,2017-04-01 11:00,-68.8281,44.8074,M,M,M,80.00,11.00,M,30.06,M,10.00,M,FEW,OVC,M,M,2500.00,6500.00,M,M,M,KBGR 011100Z AUTO 08011KT 10SM FEW025 OVC065 A3006 RMK MADISHF
BGR,2017-04-01 11:05,-68.8281,44.8074,M,M,M,80.00,10.00,M,30.06,M,10.00,M,FEW,OVC,M,M,2500.00,6500.00,M,M,M,KBGR 011105Z AUTO 08010KT 10SM FEW025 OVC065 A3006 RMK MADISHF
BGR,2017-04-01 11:10,-68.8281,44.8074,M,M,M,80.00,10.00,M,30.06,M,10.00,M,FEW,OVC,M,M,2500.00,6500.00,M,M,M,KBGR 011110Z AUTO 08010KT 10SM FEW025 OVC065 A3006 RMK MADISHF
BGR,2017-04-01 11:15,-68.8281,44.8074,M,M,M,80.00,11.00,M,30.06,M,10.00,M,FEW,OVC,M,M,2500.00,6500.00,M,M,M,KBGR 011115Z AUTO 08011KT 10SM FEW025 OVC065 A3006 RMK MADISHF
BGR,2017-04-01 11:20,-68.8281,44.8074,M,M,M,80.00,11.00,M,30.06,M,10.00,M,FEW,OVC,M,M,2500.00,6500.00,M,M,M,KBGR 011120Z AUTO 08011KT 10SM FEW025 OVC065 A3006 RMK MADISHF
BGR,2017-04-01 11:25,-68.8281,44.8074,M,M,M,100.00,10.00,M,30.06,M,10.00,M,FEW,OVC,M,M,2500.00,6500.00,M,M,M,KBGR 011125Z AUTO 10010KT 10SM FEW025 OVC065 A3006 RMK MADISHF
BGR,2017-04-01 11:30,-68.8281,44.8074,M,M,M,80.00,8.00,M,30.07,M,10.00,M,FEW,OVC,M,M,2500.00,6500.00,M,M,M,KBGR 011130Z AUTO 08008KT 10SM FEW025 OVC065 A3007 RMK MADISHF
BGR,2017-04-01 11:35,-68.8281,44.8074,M,M,M,70.00,10.00,M,30.07,M,10.00,15.00,FEW,OVC,M,M,2500.00,6500.00,M,M,M,KBGR 011135Z AUTO 07010G15KT 10SM FEW025 OVC065 A3007 RMK MADISHF
BGR,2017-04-01 11:40,-68.8281,44.8074,M,M,M,80.00,10.00,M,30.07,M,10.00,M,FEW,OVC,M,M,2500.00,6500.00,M,M,M,KBGR 011140Z AUTO 08010KT 10SM FEW025 OVC065 A3007 RMK MADISHF
BGR,2017-04-01 11:45,-68.8281,44.8074,M,M,M,80.00,8.00,M,30.07,M,10.00,M,OVC,M,M,M,7000.00,M,M,M,M,KBGR 011145Z AUTO 08008KT 10SM OVC070 A3007 RMK MADISHF
BGR,2017-04-01 11:50,-68.8281,44.8074,M,M,M,80.00,11.00,M,30.06,M,10.00,M,FEW,OVC,M,M,2500.00,7000.00,M,M,M,KBGR 011150Z AUTO 08011KT 10SM FEW025 OVC070 A3006 RMK MADISHF
BGR,2017-04-01 11:53,-68.8281,44.8074,33.10,26.10,75.18,70.00,10.00,0.00,30.06,1018.30,10.00,17.00,FEW,OVC,M,M,2500.00,7000.00,M,M,M,KBGR 011153Z 07010G17KT 10SM FEW025 OVC070 01/M03 A3006 RMK AO2 SLP183 T00061033 10017 20006 53003
BGR,2017-04-01 11:55,-68.8281,44.8074,M,M,M,80.00,10.00,M,30.06,M,10.00,M,FEW,OVC,M,M,2200.00,7000.00,M,M,M,KBGR 011155Z AUTO 08010KT 10SM FEW022 OVC070 A3006 RMK MADISHF
BGR,2017-04-01 12:00,-68.8281,44.8074,M,M,M,80.00,7.00,M,30.06,M,10.00,M,FEW,OVC,M,M,2500.00,7000.00,M,M,M,KBGR 011200Z AUTO 08007KT 10SM FEW025 OVC070 A3006 RMK MADISHF
BGR,2017-04-01 12:05,-68.8281,44.8074,M,M,M,70.00,9.00,M,30.06,M,10.00,M,FEW,OVC,M,M,2500.00,7000.00,M,M,M,KBGR 011205Z AUTO 07009KT 10SM FEW025 OVC070 A3006 RMK MADISHF
BGR,2017-04-01 12:10,-68.8281,44.8074,M,M,M,70.00,12.00,M,30.05,M,10.00,M,FEW,OVC,M,M,2500.00,7000.00,M,M,M,KBGR 011210Z AUTO 07012KT 10SM FEW025 OVC070 A3005 RMK MADISHF
BGR,2017-04-01 12:15,-68.8281,44.8074,M,M,M,80.00,10.00,M,30.05,M,10.00,16.00,FEW,OVC,M,M,2500.00,7000.00,M,M,M,KBGR 011215Z AUTO 08010G16KT 10SM FEW025 OVC070 A3005 RMK MADISHF
BGR,2017-04-01 12:20,-68.8281,44.8074,M,M,M,70.00,10.00,M,30.05,M,10.00,M,FEW,OVC,M,M,2500.00,7000.00,M,M,M,KBGR 011220Z AUTO 07010KT 10SM FEW025 OVC070 A3005 RMK MADISHF
BGR,2017-04-01 12:25,-68.8281,44.8074,M,M,M,60.00,9.00,M,30.05,M,10.00,M,FEW,OVC,M,M,2500.00,7000.00,M,M,M,KBGR 011225Z AUTO 06009KT 10SM FEW025 OVC070 A3005 RMK MADISHF
BGR,2017-04-01 12:30,-68.8281,44.8074,M,M,M,80.00,9.00,M,30.05,M,10.00,M,FEW,OVC,M,M,2500.00,7000.00,M,M,M,KBGR 011230Z AUTO 08009KT 10SM FEW025 OVC070 A3005 RMK MADISHF
BGR,2017-04-01 12:35,-68.8281,44.8074,M,M,M,70.00,10.00,M,30.05,M,10.00,M,FEW,OVC,M,M,2500.00,7000.00,M,M,M,KBGR 011235Z AUTO 07010KT 10SM FEW025 OVC070 A3005 RMK MADISHF
BGR,2017-04-01 12:40,-68.8281,44.8074,M,M,M,70.00,10.00,M,30.05,M,10.00,M,FEW,OVC,M,M,2500.00,7000.00,M,M,M,KBGR 011240Z AUTO 07010KT 10SM FEW025 OVC070 A3005 RMK MADISHF
BGR,2017-04-01 12:45,-68.8281,44.8074,M,M,M,70.00,11.00,M,30.05,M,10.00,M,FEW,OVC,M,M,2500.00,7000.00,M,M,M,KBGR 011245Z AUTO 07011KT 10SM FEW025 OVC070 A3005 RMK MADISHF
BGR,2017-04-01 12:50,-68.8281,44.8074,M,M,M,90.00,12.00,M,30.05,M,10.00,M,FEW,OVC,M,M,2700.00,7000.00,M,M,M,KBGR 011250Z AUTO 09012KT 10SM FEW027 OVC070 A3005 RMK MADISHF
BGR,2017-04-01 12:53,-68.8281,44.8074,34.00,25.00,69.28,70.00,11.00,0.00,30.05,1017.70,10.00,20.00,SCT,OVC,M,M,2700.00,7000.00,M,M,M,KBGR 011253Z 07011G20KT 10SM SCT027 OVC070 01/M04 A3005 RMK AO2 SLP177 T00111039
BGR,2017-04-01 12:55,-68.8281,44.8074,M,M,M,80.00,10.00,M,30.05,M,10.00,M,BKN,OVC,M,M,6000.00,7500.00,M,M,M,KBGR 011255Z AUTO 08010KT 10SM BKN060 OVC075 A3005 RMK MADISHF
BGR,2017-04-01 13:00,-68.8281,44.8074,M,M,M,70.00,8.00,M,30.05,M,10.00,M,SCT,OVC,M,M,2700.00,7000.00,M,M,M,KBGR 011300Z AUTO 07008KT 10SM SCT027 OVC070 A3005 RMK MADISHF
BGR,2017-04-01 13:05,-68.8281,44.8074,M,M,M,70.00,11.00,M,30.05,M,10.00,M,SCT,OVC,M,M,2700.00,7000.00,M,M,M,KBGR 011305Z AUTO 07011KT 10SM SCT027 OVC070 A3005 RMK MADISHF
BGR,2017-04-01 13:10,-68.8281,44.8074,M,M,M,70.00,14.00,M,30.05,M,10.00,M,SCT,OVC,M,M,2700.00,7000.00,M,M,M,KBGR 011310Z AUTO 07014KT 10SM SCT027 OVC070 A3005 RMK MADISHF
BGR,2017-04-01 13:15,-68.8281,44.8074,M,M,M,70.00,12.00,M,30.05,M,10.00,M,SCT,OVC,M,M,2700.00,7000.00,M,M,M,KBGR 011315Z AUTO 07012KT 10SM SCT027 OVC070 A3005 RMK MADISHF
BGR,2017-04-01 13:20,-68.8281,44.8074,M,M,M,70.00,12.00,M,30.04,M,10.00,M,SCT,OVC,M,M,2700.00,7000.00,M,M,M,KBGR 011320Z AUTO 07012KT 10SM SCT027 OVC070 A3004 RMK MADISHF
BGR,2017-04-01 13:25,-68.8281,44.8074,M,M,M,70.00,10.00,M,30.04,M,10.00,M,SCT,OVC,M,M,2700.00,7000.00,M,M,M,KBGR 011325Z AUTO 07010KT 10SM SCT027 OVC070 A3004 RMK MADISHF
BGR,2017-04-01 13:30,-68.8281,44.8074,M,M,M,M,M,M,30.04,M,10.00,M,SCT,OVC,M,M,2700.00,7000.00,M,M,M,KBGR 011330Z AUTO /////KT 10SM SCT027 OVC070 A3004 RMK MADISHF
BGR,2017-04-01 13:35,-68.8281,44.8074,M,M,M,80.00,13.00,M,30.04,M,10.00,M,SCT,OVC,M,M,2700.00,7000.00,M,M,M,KBGR 011335Z AUTO 08013KT 10SM SCT027 OVC070 A3004 RMK MADISHF
BGR,2017-04-01 13:40,-68.8281,44.8074,M,M,M,60.00,11.00,M,30.04,M,10.00,M,SCT,OVC,M,M,2700.00,7000.00,M,M,M,KBGR 011340Z AUTO 06011KT 10SM SCT027 OVC070 A3004 RMK MADISHF
BGR,2017-04-01 13:45,-68.8281,44.8074,M,M,M,80.00,12.00,M,30.04,M,10.00,M,SCT,BKN,OVC,M,2400.00,7000.00,8500.00,M,M,KBGR 011345Z AUTO 08012KT 10SM SCT024 BKN070 OVC085 A3004 RMK MADISHF
BGR,2017-04-01 13:50,-68.8281,44.8074,M,M,M,M,M,M,30.04,M,10.00,M,SCT,BKN,OVC,M,2400.00,7000.00,8500.00,M,M,KBGR 011350Z AUTO /////KT 10SM SCT024 BKN070 OVC085 A3004 RMK MADISHF
BGR,2017-04-01 13:53,-68.8281,44.8074,34.00,26.10,72.52,70.00,10.00,0.00,30.04,1017.50,10.00,M,SCT,BKN,OVC,M,2400.00,7000.00,8500.00,M,M,KBGR 011353Z 07010KT 10SM SCT024 BKN070 OVC085 01/M03 A3004 RMK AO2 SLP175 T00111033
BGR,2017-04-01 13:55,-68.8281,44.8074,M,M,M,M,M,M,30.04,M,10.00,M,SCT,BKN,OVC,M,2400.00,7000.00,8500.00,M,M,KBGR 011355Z AUTO /////KT 10SM SCT024 BKN070 OVC085 A3004 RMK MADISHF
BGR,2017-04-01 14:00,-68.8281,44.8074,M,M,M,80.00,10.00,M,30.04,M,10.00,M,SCT,BKN,OVC,M,2500.00,7000.00,8500.00,M,M,KBGR 011400Z AUTO 08010KT 10SM SCT025 BKN070 OVC085 A3004 RMK MADISHF
BGR,2017-04-01 14:05,-68.8281,44.8074,M,M,M,80.00,11.00,M,30.04,M,10.00,M,SCT,BKN,OVC,M,2500.00,7000.00,8500.00,M,M,KBGR 011405Z AUTO 08011KT 10SM SCT025 BKN070 OVC085 A3004 RMK MADISHF
BGR,2017-04-01 14:10,-68.8281,44.8074,M,M,M,M,M,M,30.04,M,10.00,M,SCT,BKN,OVC,M,2500.00,7000.00,8500.00,M,M,KBGR 011410Z AUTO /////KT 10SM SCT025 BKN070 OVC085 A3004 RMK MADISHF
BGR,2017-04-01 14:15,-68.8281,44.8074,M,M,M,70.00,10.00,M,30.03,M,10.00,M,SCT,BKN,OVC,M,2500.00,7000.00,8500.00,M,M,KBGR 011415Z AUTO 07010KT 10SM SCT025 BKN070 OVC085 A3003 RMK MADISHF
BGR,2017-04-01 14:20,-68.8281,44.8074,M,M,M,70.00,11.00,M,30.03,M,10.00,M,SCT,BKN,OVC,M,2500.00,7000.00,8500.00,M,M,KBGR 011420Z AUTO 07011KT 10SM SCT025 BKN070 OVC085 A3003 RMK MADISHF
BGR,2017-04-01 14:25,-68.8281,44.8074,M,M,M,M,M,M,30.03,M,10.00,M,SCT,BKN,OVC,M,2500.00,7000.00,8500.00,M,M,KBGR 011425Z AUTO /////KT 10SM SCT025 BKN070 OVC085 A3003 RMK MADISHF
BGR,2017-04-01 14:30,-68.8281,44.8074,M,M,M,60.00,10.00,M,30.03,M,10.00,M,SCT,BKN,OVC,M,2500.00,7000.00,8500.00,M,M,KBGR 011430Z AUTO 06010KT 10SM SCT025 BKN070 OVC085 A3003 RMK MADISHF
BGR,2017-04-01 14:35,-68.8281,44.8074,M,M,M,70.00,10.00,M,30.03,M,10.00,M,SCT,BKN,OVC,M,2500.00,7000.00,8500.00,M,M,KBGR 011435Z AUTO 07010KT 10SM SCT025 BKN070 OVC085 A3003 RMK MADISHF
BGR,2017-04-01 14:40,-68.8281,44.8074,M,M,M,60.00,12.00,M,30.03,M,10.00,M,SCT,BKN,OVC,M,2500.00,7000.00,8500.00,M,M,KBGR 011440Z AUTO 06012KT 10SM SCT025 BKN070 OVC085 A3003 RMK MADISHF
BGR,2017-04-01 14:45,-68.8281,44.8074,M,M,M,60.00,12.00,M,30.03,M,10.00,M,SCT,BKN,OVC,M,2500.00,7000.00,8500.00,M,M,KBGR 011445Z AUTO 06012KT 10SM SCT025 BKN070 OVC085 A3003 RMK MADISHF
BGR,2017-04-01 14:50,-68.8281,44.8074,M,M,M,70.00,10.00,M,30.02,M,10.00,M,SCT,BKN,OVC,M,2500.00,6000.00,7000.00,M,M,KBGR 011450Z AUTO 07010KT 10SM SCT025 BKN060 OVC070 A3002 RMK MADISHF
BGR,2017-04-01 14:53,-68.8281,44.8074,35.10,26.10,69.41,70.00,10.00,0.00,30.02,1016.90,10.00,M,SCT,BKN,OVC,M,2500.00,6000.00,7000.00,M,M,KBGR 011453Z 07010KT 10SM SCT025 BKN060 OVC070 02/M03 A3002 RMK AO2 SLP169 T00171033 58014
BGR,2017-04-01 14:55,-68.8281,44.8074,M,M,M,70.00,10.00,M,30.02,M,10.00,M,FEW,BKN,OVC,M,2500.00,6000.00,7000.00,M,M,KBGR 011455Z AUTO 07010KT 10SM FEW025 BKN060 OVC070 A3002 RMK MADISHF
BGR,2017-04-01 15:00,-68.8281,44.8074,M,M,M,60.00,10.00,M,30.03,M,10.00,M,FEW,BKN,OVC,M,2600.00,6000.00,7000.00,M,M,KBGR 011500Z AUTO 06010KT 10SM FEW026 BKN060 OVC070 A3003 RMK MADISHF
BGR,2017-04-01 15:05,-68.8281,44.8074,M,M,M,80.00,11.00,M,30.03,M,10.00,M,FEW,OVC,M,M,4200.00,6000.00,M,M,M,KBGR 011505Z AUTO 08011KT 10SM FEW042 OVC060 A3003 RMK MADISHF
BGR,2017-04-01 15:10,-68.8281,44.8074,M,M,M,70.00,12.00,M,30.02,M,10.00,M,FEW,OVC,M,M,4400.00,6000.00,M,M,M,KBGR 011510Z AUTO 07012KT 10SM FEW044 OVC060 A3002 RMK MADISHF
BGR,2017-04-01 15:15,-68.8281,44.8074,M,M,M,80.00,10.00,M,30.02,M,10.00,M,FEW,OVC,M,M,4600.00,6000.00,M,M,M,KBGR 011515Z AUTO 08010KT 10SM FEW046 OVC060 A3002 RMK MADISHF
BGR,2017-04-01 15:20,-68.8281,44.8074,M,M,M,70.00,8.00,M,30.02,M,10.00,M,SCT,BKN,OVC,M,2500.00,6000.00,7000.00,M,M,KBGR 011520Z AUTO 07008KT 10SM SCT025 BKN060 OVC070 A3002 RMK MADISHF
BGR,2017-04-01 15:25,-68.8281,44.8074,M,M,M,60.00,9.00,M,30.02,M,10.00,14.00,SCT,BKN,OVC,M,2500.00,6000.00,7000.00,M,M,KBGR 011525Z AUTO 06009G14KT 10SM SCT025 BKN060 OVC070 A3002 RMK MADISHF
BGR,2017-04-01 15:30,-68.8281,44.8074,M,M,M,80.00,11.00,M,30.02,M,10.00,M,SCT,BKN,OVC,M,2500.00,6000.00,7000.00,M,M,KBGR 011530Z AUTO 08011KT 10SM SCT025 BKN060 OVC070 A3002 RMK MADISHF
BGR,2017-04-01 15:35,-68.8281,44.8074,M,M,M,60.00,11.00,M,30.02,M,10.00,M,SCT,BKN,OVC,M,2500.00,6000.00,7000.00,M,M,KBGR 011535Z AUTO 06011KT 10SM SCT025 BKN060 OVC070 A3002 RMK MADISHF
BGR,2017-04-01 15:40,-68.8281,44.8074,M,M,M,80.00,9.00,M,30.02,M,10.00,M,SCT,BKN,OVC,M,2500.00,6000.00,7000.00,M,M,KBGR 011540Z AUTO 08009KT 10SM SCT025 BKN060 OVC070 A3002 RMK MADISHF
BGR,2017-04-01 15:45,-68.8281,44.8074,M,M,M,70.00,10.00,M,30.02,M,10.00,M,BKN,BKN,OVC,M,2900.00,4500.00,7000.00,M,M,KBGR 011545Z AUTO 07010KT 10SM BKN029 BKN045 OVC070 A3002 RMK MADISHF
BGR,2017-04-01 15:49,-68.8281,44.8074,35.60,26.60,69.46,50.00,12.00,0.00,30.02,M,10.00,M,BKN,BKN,OVC,M,2900.00,6000.00,7000.00,M,M,KBGR 011549Z 05012KT 10SM BKN029 BKN060 OVC070 02/M03 A3002 RMK AO2
BGR,2017-04-01 15:50,-68.8281,44.8074,M,M,M,50.00,13.00,M,30.02,M,10.00,M,BKN,BKN,OVC,M,2900.00,6000.00,7000.00,M,M,KBGR 011550Z AUTO 05013KT 10SM BKN029 BKN060 OVC070 A3002 RMK MADISHF
BGR,2017-04-01 15:53,-68.8281,44.8074,36.00,26.10,66.97,40.00,12.00,0.00,30.02,1016.60,10.00,M,BKN,BKN,OVC,M,2900.00,6000.00,7000.00,M,M,KBGR 011553Z 04012KT 10SM BKN029 BKN060 OVC070 02/M03 A3002 RMK AO2 SLP166 T00221033
BGR,2017-04-01 15:55,-68.8281,44.8074,M,M,M,50.00,10.00,M,30.02,M,10.00,M,BKN,OVC,M,M,2900.00,7000.00,M,M,M,KBGR 011555Z AUTO 05010KT 10SM BKN029 OVC070 A3002 RMK MADISHF
BGR,2017-04-01 16:00,-68.8281,44.8074,M,M,M,50.00,8.00,M,30.02,M,10.00,M,BKN,BKN,OVC,M,2900.00,6000.00,7000.00,M,M,KBGR 011600Z AUTO 05008KT 10SM BKN029 BKN060 OVC070 A3002 RMK MADISHF
BGR,2017-04-01 16:05,-68.8281,44.8074,M,M,M,80.00,8.00,M,30.01,M,10.00,M,BKN,BKN,OVC,M,2900.00,6000.00,7000.00,M,M,KBGR 011605Z AUTO 08008KT 10SM BKN029 BKN060 OVC070 A3001 RMK MADISHF
BGR,2017-04-01 16:10,-68.8281,44.8074,M,M,M,80.00,7.00,M,30.01,M,10.00,M,BKN,BKN,OVC,M,2900.00,6000.00,7000.00,M,M,KBGR 011610Z AUTO 08007KT 10SM BKN029 BKN060 OVC070 A3001 RMK MADISHF
BGR,2017-04-01 16:15,-68.8281,44.8074,M,M,M,40.00,10.00,M,30.01,M,10.00,M,BKN,BKN,OVC,M,2900.00,6000.00,7000.00,M,M,KBGR 011615Z AUTO 04010KT 10SM BKN029 BKN060 OVC070 A3001 RMK MADISHF
BGR,2017-04-01 16:20,-68.8281,44.8074,M,M,M,60.00,9.00,M,30.01,M,10.00,M,BKN,BKN,OVC,M,2900.00,6000.00,7000.00,M,M,KBGR 011620Z AUTO 06009KT 10SM BKN029 BKN060 OVC070 A3001 RMK MADISHF
BGR,2017-04-01 16:25,-68.8281,44.8074,M,M,M,50.00,10.00,M,30.01,M,10.00,M,BKN,BKN,OVC,M,2900.00,6000.00,7000.00,M,M,KBGR 011625Z AUTO 05010KT 10SM BKN029 BKN060 OVC070 A3001 RMK MADISHF
BGR,2017-04-01 16:30,-68.8281,44.8074,M,M,M,60.00,10.00,M,30.01,M,10.00,M,BKN,BKN,OVC,M,2900.00,6000.00,7000.00,M,M,KBGR 011630Z AUTO 06010KT 10SM BKN029 BKN060 OVC070 A3001 RMK MADISHF
BGR,2017-04-01 16:35,-68.8281,44.8074,M,M,M,60.00,9.00,M,30.01,M,10.00,M,BKN,BKN,OVC,M,2900.00,6000.00,7000.00,M,M,KBGR 011635Z AUTO 06009KT 10SM BKN029 BKN060 OVC070 A3001 RMK MADISHF
BGR,2017-04-01 16:40,-68.8281,44.8074,M,M,M,80.00,8.00,M,30.01,M,10.00,M,BKN,BKN,OVC,M,2900.00,6000.00,7000.00,M,M,KBGR 011640Z AUTO 08008KT 10SM BKN029 BKN060 OVC070 A3001 RMK MADISHF
BGR,2017-04-01 16:45,-68.8281,44.8074,M,M,M,20.00,11.00,M,30.01,M,10.00,M,BKN,BKN,OVC,M,2900.00,6000.00,7000.00,M,M,KBGR 011645Z AUTO 02011KT 10SM BKN029 BKN060 OVC070 A3001 RMK MADISHF
BGR,2017-04-01 16:50,-68.8281,44.8074,M,M,M,50.00,9.00,M,30.01,M,10.00,M,BKN,BKN,OVC,M,2900.00,6000.00,7000.00,M,M,KBGR 011650Z AUTO 05009KT 10SM BKN029 BKN060 OVC070 A3001 RMK MADISHF
BGR,2017-04-01 16:53,-68.8281,44.8074,37.00,26.10,64.38,50.00,13.00,0.00,30.01,1016.50,10.00,M,BKN,BKN,OVC,M,2900.00,6000.00,7000.00,M,M,KBGR 011653Z 05013KT 10SM BKN029 BKN060 OVC070 03/M03 A3001 RMK AO2 SLP165 T00281033
BGR,2017-04-01 16:55,-68.8281,44.8074,M,M,M,60.00,10.00,M,30.01,M,10.00,M,BKN,BKN,OVC,M,2900.00,6000.00,7000.00,M,M,KBGR 011655Z AUTO 06010KT 10SM BKN029 BKN060 OVC070 A3001 RMK MADISHF
BGR,2017-04-01 17:00,-68.8281,44.8074,M,M,M,60.00,9.00,M,30.01,M,10.00,M,BKN,BKN,OVC,M,2900.00,6000.00,7000.00,M,M,KBGR 011700Z AUTO 06009KT 10SM BKN029 BKN060 OVC070 A3001 RMK MADISHF
BGR,2017-04-01 17:05,-68.8281,44.8074,M,M,M,60.00,12.00,M,30.01,M,10.00,M,BKN,BKN,OVC,M,2900.00,6000.00,7000.00,M,M,KBGR 011705Z AUTO 06012KT 10SM BKN029 BKN060 OVC070 A3001 RMK MADISHF
BGR,2017-04-01 17:10,-68.8281,44.8074,M,M,M,50.00,8.00,M,30.01,M,10.00,M,BKN,BKN,OVC,M,2900.00,6000.00,7000.00,M,M,KBGR 011710Z AUTO 05008KT 10SM BKN029 BKN060 OVC070 A3001 RMK MADISHF
BGR,2017-04-01 17:15,-68.8281,44.8074,M,M,M,50.00,10.00,M,30.01,M,10.00,M,BKN,BKN,OVC,M,2900.00,6000.00,7000.00,M,M,KBGR 011715Z AUTO 05010KT 10SM BKN029 BKN060 OVC070 A3001 RMK MADISHF
BGR,2017-04-01 17:20,-68.8281,44.8074,M,M,M,60.00,9.00,M,30.01,M,10.00,M,BKN,BKN,OVC,M,2900.00,6000.00,7000.00,M,M,KBGR 011720Z AUTO 06009KT 10SM BKN029 BKN060 OVC070 A3001 RMK MADISHF
BGR,2017-04-01 17:25,-68.8281,44.8074,M,M,M,50.00,9.00,M,30.00,M,10.00,M,BKN,BKN,OVC,M,2900.00,6000.00,7000.00,M,M,KBGR 011725Z AUTO 05009KT 10SM BKN029 BKN060 OVC070 A3000 RMK MADISHF
BGR,2017-04-01 17:30,-68.8281,44.8074,M,M,M,40.00,10.00,M,30.00,M,10.00,M,BKN,BKN,OVC,M,2900.00,6000.00,7000.00,M,M,KBGR 011730Z AUTO 04010KT 10SM BKN029 BKN060 OVC070 A3000 RMK MADISHF
BGR,2017-04-01 17:35,-68.8281,44.8074,M,M,M,70.00,11.00,M,30.00,M,10.00,M,BKN,BKN,OVC,M,2900.00,6000.00,7000.00,M,M,KBGR 011735Z AUTO 07011KT 10SM BKN029 BKN060 OVC070 A3000 RMK MADISHF
BGR,2017-04-01 17:40,-68.8281,44.8074,M,M,M,50.00,9.00,M,30.00,M,10.00,M,BKN,BKN,OVC,M,2900.00,6000.00,7000.00,M,M,KBGR 011740Z AUTO 05009KT 10SM BKN029 BKN060 OVC070 A3000 RMK MADISHF
BGR,2017-04-01 17:45,-68.8281,44.8074,M,M,M,40.00,11.00,M,30.00,M,10.00,M,SCT,OVC,M,M,3300.00,4500.00,M,M,M,KBGR 011745Z AUTO 04011KT 10SM SCT033 OVC045 A3000 RMK MADISHF
BGR,2017-04-01 17:50,-68.8281,44.8074,M,M,M,50.00,11.00,M,30.00,M,10.00,M,SCT,OVC,M,M,3300.00,4500.00,M,M,M,KBGR 011750Z AUTO 05011KT 10SM SCT033 OVC045 A3000 RMK MADISHF
BGR,2017-04-01 17:51,-68.8281,44.8074,37.40,26.60,64.70,50.00,9.00,0.00,29.99,M,9.00,M,SCT,OVC,M,M,3300.00,4500.00,M,M,M,KBGR 011751Z 05009KT 9SM SCT033 OVC045 03/M03 A2999 RMK AO2
BGR,2017-04-01 17:53,-68.8281,44.8074,37.00,26.10,64.38,60.00,8.00,0.00,29.99,1015.90,9.00,M,SCT,OVC,M,M,3300.00,4500.00,M,M,M,KBGR 011753Z 06008KT 9SM SCT033 OVC045 03/M03 A2999 RMK AO2 SLP159 T00281033 10028 20006 56007
BGR,2017-04-01 17:55,-68.8281,44.8074,M,M,M,60.00,9.00,M,29.99,M,9.00,M,OVC,M,M,M,3500.00,M,M,M,M,KBGR 011755Z AUTO 06009KT 9SM OVC035 A2999 RMK MADISHF
BGR,2017-04-01 18:00,-68.8281,44.8074,M,M,M,70.00,9.00,M,29.99,M,9.00,M,FEW,BKN,OVC,M,3000.00,3500.00,4300.00,M,M,KBGR 011800Z AUTO 07009KT 9SM FEW030 BKN035 OVC043 A2999 RMK MADISHF
BGR,2017-04-01 18:05,-68.8281,44.8074,M,M,M,60.00,9.00,M,29.99,M,8.00,M,FEW,OVC,M,M,2900.00,3500.00,M,M,M,KBGR 011805Z AUTO 06009KT 8SM FEW029 OVC035 A2999 RMK MADISHF
BGR,2017-04-01 18:10,-68.8281,44.8074,M,M,M,60.00,10.00,M,29.99,M,7.00,M,OVC,M,M,M,3300.00,M,M,M,M,KBGR 011810Z AUTO 06010KT 7SM OVC033 A2999 RMK MADISHF
BGR,2017-04-01 18:15,-68.8281,44.8074,M,M,M,40.00,6.00,M,29.99,M,9.00,M,BKN,OVC,M,M,3300.00,4100.00,M,M,M,KBGR 011815Z AUTO 04006KT 9SM BKN033 OVC041 A2999 RMK MADISHF
BGR,2017-04-01 18:20,-68.8281,44.8074,M,M,M,60.00,7.00,M,29.99,M,10.00,M,BKN,OVC,M,M,3300.00,4500.00,M,M,M,KBGR 011820Z AUTO 06007KT 10SM BKN033 OVC045 A2999 RMK MADISHF
BGR,2017-04-01 18:25,-68.8281,44.8074,M,M,M,60.00,12.00,M,29.98,M,10.00,M,BKN,OVC,M,M,3500.00,4500.00,M,M,M,KBGR 011825Z AUTO 06012KT 10SM BKN035 OVC045 A2998 RMK MADISHF
BGR,2017-04-01 18:30,-68.8281,44.8074,M,M,M,40.00,10.00,M,29.98,M,10.00,M,OVC,M,M,M,3500.00,M,M,M,M,KBGR 011830Z AUTO 04010KT 10SM OVC035 A2998 RMK MADISHF
BGR,2017-04-01 18:35,-68.8281,44.8074,M,M,M,30.00,11.00,M,29.98,M,10.00,M,OVC,M,M,M,3500.00,M,M,M,M,KBGR 011835Z AUTO 03011KT 10SM OVC035 A2998 RMK MADISHF
BGR,2017-04-01 18:40,-68.8281,44.8074,M,M,M,50.00,11.00,M,29.98,M,10.00,M,OVC,M,M,M,3500.00,M,M,M,M,KBGR 011840Z AUTO 05011KT 10SM OVC035 A2998 RMK MADISHF
BGR,2017-04-01 18:45,-68.8281,44.8074,M,M,M,40.00,11.00,M,29.98,M,9.00,M,OVC,M,M,M,3300.00,M,M,M,M,KBGR 011845Z AUTO 04011KT 9SM OVC033 A2998 RMK MADISHF
BGR,2017-04-01 18:50,-68.8281,44.8074,M,M,M,50.00,11.00,M,29.98,M,9.00,M,BKN,OVC,M,M,3100.00,4200.00,M,M,M,KBGR 011850Z AUTO 05011KT 9SM BKN031 OVC042 A2998 RMK MADISHF
BGR,2017-04-01 18:53,-68.8281,44.8074,37.00,25.00,61.50,20.00,11.00,0.00,29.98,1015.30,9.00,M,OVC,M,M,M,3400.00,M,M,M,M,KBGR 011853Z 02011KT 9SM OVC034 03/M04 A2998 RMK AO2 SLP153 T00281039
BGR,2017-04-01 18:55,-68.8281,44.8074,M,M,M,10.00,10.00,M,29.98,M,9.00,M,OVC,M,M,M,3399.00,M,M,M,M,KBGR 011855Z AUTO 01010KT 9SM OVC033 A2998 RMK MADISHF
BGR,2017-04-01 19:00,-68.8281,44.8074,M,M,M,30.00,9.00,M,29.98,M,9.00,M,OVC,M,M,M,3399.00,M,M,M,M,KBGR 011900Z AUTO 03009KT 9SM OVC033 A2998 RMK MADISHF
BGR,2017-04-01 19:05,-68.8281,44.8074,M,M,M,30.00,10.00,M,29.98,M,7.00,M,SCT,OVC,M,M,2800.00,3600.00,M,M,-SN,KBGR 011905Z AUTO 03010KT 7SM -SN SCT028 OVC036 A2998 RMK MADISHF
BGR,2017-04-01 19:10,-68.8281,44.8074,M,M,M,10.00,12.00,M,29.97,M,7.00,M,BKN,OVC,M,M,2800.00,3600.00,M,M,-SN,KBGR 011910Z AUTO 01012KT 7SM -SN BKN028 OVC036 A2997 RMK MADISHF
BGR,2017-04-01 19:15,-68.8281,44.8074,M,M,M,10.00,10.00,M,29.97,M,7.00,M,BKN,OVC,M,M,2800.00,3600.00,M,M,-SN,KBGR 011915Z AUTO 01010KT 7SM -SN BKN028 OVC036 A2997 RMK MADISHF
BGR,2017-04-01 19:16,-68.8281,44.8074,35.60,26.60,69.46,20.00,10.00,0.00,29.97,M,7.00,M,BKN,OVC,M,M,2800.00,3600.00,M,M,-SN,KBGR 011916Z 02010KT 7SM -SN BKN028 OVC036 02/M03 A2997
BGR,2017-04-01 19:20,-68.8281,44.8074,M,M,M,M,M,M,29.97,M,7.00,M,BKN,OVC,M,M,2800.00,3600.00,M,M,-SN,KBGR 011920Z AUTO /////KT 7SM -SN BKN028 OVC036 A2997 RMK MADISHF
BGR,2017-04-01 19:25,-68.8281,44.8074,M,M,M,M,M,M,29.97,M,8.00,M,BKN,OVC,M,M,2800.00,3600.00,M,M,-SN,KBGR 011925Z AUTO /////KT 8SM -SN BKN028 OVC036 A2997 RMK MADISHF
BGR,2017-04-01 19:30,-68.8281,44.8074,M,M,M,M,M,M,29.97,M,7.00,M,BKN,OVC,M,M,2800.00,3600.00,M,M,-SN,KBGR 011930Z AUTO /////KT 7SM -SN BKN028 OVC036 A2997 RMK MADISHF
BGR,2017-04-01 19:35,-68.8281,44.8074,M,M,M,M,M,M,29.97,M,7.00,M,BKN,OVC,M,M,2800.00,3600.00,M,M,-SN,KBGR 011935Z AUTO /////KT 7SM -SN BKN028 OVC036 A2997 RMK MADISHF
BGR,2017-04-01 19:40,-68.8281,44.8074,M,M,M,10.00,9.00,M,29.97,M,8.00,M,BKN,OVC,M,M,2800.00,3600.00,M,M,-SN,KBGR 011940Z AUTO 01009KT 8SM -SN BKN028 OVC036 A2997 RMK MADISHF
BGR,2017-04-01 19:45,-68.8281,44.8074,M,M,M,360.00,12.00,M,29.97,M,9.00,M,BKN,OVC,M,M,2800.00,3600.00,M,M,-SN,KBGR 011945Z AUTO 36012KT 9SM -SN BKN028 OVC036 A2997 RMK MADISHF
BGR,2017-04-01 19:50,-68.8281,44.8074,M,M,M,M,M,M,29.97,M,9.00,M,OVC,M,M,M,3300.00,M,M,M,M,KBGR 011950Z AUTO /////KT 9SM OVC033 A2997 RMK MADISHF
BGR,2017-04-01 19:53,-68.8281,44.8074,36.00,25.00,63.98,10.00,11.00,0.00,29.97,1015.10,9.00,M,OVC,M,M,M,3300.00,M,M,M,M,KBGR 011953Z 01011KT 9SM OVC033 02/M04 A2997 RMK AO2 SNB02E50 SLP151 P0000 T00221039
BGR,2017-04-01 19:55,-68.8281,44.8074,M,M,M,10.00,10.00,M,29.97,M,9.00,M,OVC,M,M,M,3300.00,M,M,M,M,KBGR 011955Z AUTO 01010KT 9SM OVC033 A2997 RMK MADISHF
BGR,2017-04-01 20:00,-68.8281,44.8074,M,M,M,20.00,12.00,M,29.97,M,10.00,17.00,OVC,M,M,M,3300.00,M,M,M,M,KBGR 012000Z AUTO 02012G17KT 10SM OVC033 A2997 RMK MADISHF
BGR,2017-04-01 20:05,-68.8281,44.8074,M,M,M,M,M,M,29.97,M,8.00,M,OVC,M,M,M,3399.00,M,M,M,M,KBGR 012005Z AUTO /////KT 8SM OVC033 A2997 RMK MADISHF
BGR,2017-04-01 20:10,-68.8281,44.8074,M,M,M,360.00,13.00,M,29.97,M,8.00,M,SCT,OVC,M,M,3000.00,3600.00,M,M,M,KBGR 012010Z AUTO 36013KT 8SM SCT030 OVC036 A2997 RMK MADISHF
BGR,2017-04-01 20:15,-68.8281,44.8074,M,M,M,M,M,M,29.97,M,10.00,M,OVC,M,M,M,3300.00,M,M,M,M,KBGR 012015Z AUTO /////KT 10SM OVC033 A2997 RMK MADISHF
BGR,2017-04-01 20:20,-68.8281,44.8074,M,M,M,10.00,11.00,M,29.97,M,10.00,M,OVC,M,M,M,3300.00,M,M,M,M,KBGR 012020Z AUTO 01011KT 10SM OVC033 A2997 RMK MADISHF
BGR,2017-04-01 20:25,-68.8281,44.8074,M,M,M,M,M,M,29.97,M,10.00,M,OVC,M,M,M,3300.00,M,M,M,M,KBGR 012025Z AUTO /////KT 10SM OVC033 A2997 RMK MADISHF
BGR,2017-04-01 20:30,-68.8281,44.8074,M,M,M,M,M,M,29.97,M,10.00,M,BKN,OVC,M,M,3300.00,4100.00,M,M,M,KBGR 012030Z AUTO /////KT 10SM BKN033 OVC041 A2997 RMK MADISHF
BGR,2017-04-01 20:35,-68.8281,44.8074,M,M,M,30.00,10.00,M,29.97,M,10.00,M,BKN,OVC,M,M,3200.00,4100.00,M,M,M,KBGR 012035Z AUTO 03010KT 10SM BKN032 OVC041 A2997 RMK MADISHF
BGR,2017-04-01 20:40,-68.8281,44.8074,M,M,M,30.00,10.00,M,29.97,M,10.00,M,BKN,OVC,M,M,3399.00,4200.00,M,M,M,KBGR 012040Z AUTO 03010KT 10SM BKN033 OVC042 A2997 RMK MADISHF
BGR,2017-04-01 20:45,-68.8281,44.8074,M,M,M,M,M,M,29.97,M,10.00,M,OVC,M,M,M,3700.00,M,M,M,M,KBGR 012045Z AUTO /////KT 10SM OVC037 A2997 RMK MADISHF
BGR,2017-04-01 20:50,-68.8281,44.8074,M,M,M,50.00,10.00,M,29.97,M,10.00,M,FEW,OVC,M,M,3000.00,3900.00,M,M,M,KBGR 012050Z AUTO 05010KT 10SM FEW030 OVC039 A2997 RMK MADISHF
BGR,2017-04-01 20:53,-68.8281,44.8074,36.00,23.00,58.85,30.00,10.00,0.00,29.97,1015.10,10.00,M,FEW,OVC,M,M,3400.00,4100.00,M,M,M,KBGR 012053Z 03010KT 10SM FEW034 OVC041 02/M05 A2997 RMK AO2 SLP151 60000 T00221050 55007
BGR,2017-04-01 20:55,-68.8281,44.8074,M,M,M,M,M,M,29.97,M,10.00,M,FEW,OVC,M,M,3100.00,4100.00,M,M,M,KBGR 012055Z AUTO /////KT 10SM FEW031 OVC041 A2997 RMK MADISHF
BGR,2017-04-01 21:00,-68.8281,44.8074,M,M,M,M,M,M,29.97,M,10.00,M,OVC,M,M,M,4100.00,M,M,M,M,KBGR 012100Z AUTO /////KT 10SM OVC041 A2997 RMK MADISHF
BGR,2017-04-01 21:05,-68.8281,44.8074,M,M,M,M,M,M,29.97,M,10.00,M,OVC,M,M,M,4400.00,M,M,M,M,KBGR 012105Z AUTO /////KT 10SM OVC044 A2997 RMK MADISHF
BGR,2017-04-01 21:10,-68.8281,44.8074,M,M,M,30.00,10.00,M,29.97,M,10.00,M,BKN,OVC,M,M,4400.00,7000.00,M,M,M,KBGR 012110Z AUTO 03010KT 10SM BKN044 OVC070 A2997 RMK MADISHF
BGR,2017-04-01 21:15,-68.8281,44.8074,M,M,M,M,M,M,29.97,M,10.00,M,BKN,OVC,M,M,4400.00,7000.00,M,M,M,KBGR 012115Z AUTO /////KT 10SM BKN044 OVC070 A2997 RMK MADISHF
BGR,2017-04-01 21:20,-68.8281,44.8074,M,M,M,M,M,M,29.97,M,10.00,M,SCT,OVC,M,M,4700.00,7000.00,M,M,M,KBGR 012120Z AUTO /////KT 10SM SCT047 OVC070 A2997 RMK MADISHF
BGR,2017-04-01 21:25,-68.8281,44.8074,M,M,M,M,M,M,29.97,M,10.00,M,FEW,SCT,OVC,M,4500.00,5500.00,7000.00,M,M,KBGR 012125Z AUTO /////KT 10SM FEW045 SCT055 OVC070 A2997 RMK MADISHF
BGR,2017-04-01 21:30,-68.8281,44.8074,M,M,M,M,M,M,29.97,M,10.00,M,BKN,OVC,M,M,6000.00,7500.00,M,M,M,KBGR 012130Z AUTO /////KT 10SM BKN060 OVC075 A2997 RMK MADISHF
BGR,2017-04-01 21:35,-68.8281,44.8074,M,M,M,10.00,10.00,M,29.97,M,10.00,M,OVC,M,M,M,6000.00,M,M,M,M,KBGR 012135Z AUTO 01010KT 10SM OVC060 A2997 RMK MADISHF
BGR,2017-04-01 21:40,-68.8281,44.8074,M,M,M,M,M,M,29.97,M,10.00,M,OVC,M,M,M,6000.00,M,M,M,M,KBGR 012140Z AUTO /////KT 10SM OVC060 A2997 RMK MADISHF
BGR,2017-04-01 21:45,-68.8281,44.8074,M,M,M,10.00,12.00,M,29.98,M,10.00,M,OVC,M,M,M,6000.00,M,M,M,M,KBGR 012145Z AUTO 01012KT 10SM OVC060 A2998 RMK MADISHF
BGR,2017-04-01 21:50,-68.8281,44.8074,M,M,M,20.00,10.00,M,29.98,M,10.00,M,OVC,M,M,M,6000.00,M,M,M,M,KBGR 012150Z AUTO 02010KT 10SM OVC060 A2998 RMK MADISHF
BGR,2017-04-01 21:53,-68.8281,44.8074,36.00,19.00,49.66,360.00,11.00,0.00,29.98,1015.30,10.00,M,OVC,M,M,M,6000.00,M,M,M,M,KBGR 012153Z 36011KT 10SM OVC060 02/M07 A2998 RMK AO2 SLP153 T00221072
BGR,2017-04-01 21:55,-68.8281,44.8074,M,M,M,M,M,M,29.98,M,10.00,M,OVC,M,M,M,6000.00,M,M,M,M,KBGR 012155Z AUTO /////KT 10SM OVC060 A2998 RMK MADISHF
BGR,2017-04-01 22:00,-68.8281,44.8074,M,M,M,10.00,12.00,M,29.98,M,10.00,M,OVC,M,M,M,5500.00,M,M,M,M,KBGR 012200Z AUTO 01012KT 10SM OVC055 A2998 RMK MADISHF
BGR,2017-04-01 22:05,-68.8281,44.8074,M,M,M,M,M,M,29.98,M,10.00,M,OVC,M,M,M,5500.00,M,M,M,M,KBGR 012205Z AUTO /////KT 10SM OVC055 A2998 RMK MADISHF
BGR,2017-04-01 22:10,-68.8281,44.8074,M,M,M,M,M,M,29.98,M,10.00,M,OVC,M,M,M,5500.00,M,M,M,M,KBGR 012210Z AUTO /////KT 10SM OVC055 A2998 RMK MADISHF
BGR,2017-04-01 22:15,-68.8281,44.8074,M,M,M,30.00,11.00,M,29.98,M,10.00,M,OVC,M,M,M,6000.00,M,M,M,M,KBGR 012215Z AUTO 03011KT 10SM OVC060 A2998 RMK MADISHF
BGR,2017-04-01 22:20,-68.8281,44.8074,M,M,M,10.00,9.00,M,29.99,M,10.00,M,BKN,OVC,M,M,6000.00,7500.00,M,M,M,KBGR 012220Z AUTO 01009KT 10SM BKN060 OVC075 A2999 RMK MADISHF
BGR,2017-04-01 22:25,-68.8281,44.8074,M,M,M,10.00,9.00,M,29.99,M,10.00,M,BKN,OVC,M,M,5500.00,7000.00,M,M,M,KBGR 012225Z AUTO 01009KT 10SM BKN055 OVC070 A2999 RMK MADISHF
BGR,2017-04-01 22:30,-68.8281,44.8074,M,M,M,10.00,11.00,M,29.99,M,10.00,M,OVC,M,M,M,6500.00,M,M,M,M,KBGR 012230Z AUTO 01011KT 10SM OVC065 A2999 RMK MADISHF
BGR,2017-04-01 22:35,-68.8281,44.8074,M,M,M,M,M,M,29.99,M,10.00,M,OVC,M,M,M,7000.00,M,M,M,M,KBGR 012235Z AUTO /////KT 10SM OVC070 A2999 RMK MADISHF
BGR,2017-04-01 22:40,-68.8281,44.8074,M,M,M,M,M,M,29.99,M,10.00,M,OVC,M,M,M,7000.00,M,M,M,M,KBGR 012240Z AUTO /////KT 10SM OVC070 A2999 RMK MADISHF
BGR,2017-04-01 22:45,-68.8281,44.8074,M,M,M,10.00,9.00,M,30.00,M,10.00,M,OVC,M,M,M,6500.00,M,M,M,M,KBGR 012245Z AUTO 01009KT 10SM OVC065 A3000 RMK MADISHF
BGR,2017-04-01 22:50,-68.8281,44.8074,M,M,M,30.00,10.00,M,30.00,M,10.00,M,OVC,M,M,M,6500.00,M,M,M,M,KBGR 012250Z AUTO 03010KT 10SM OVC065 A3000 RMK MADISHF
BGR,2017-04-01 22:53,-68.8281,44.8074,36.00,19.90,51.61,360.00,8.00,0.00,30.00,1016.10,10.00,M,OVC,M,M,M,6500.00,M,M,M,M,KBGR 012253Z 36008KT 10SM OVC065 02/M07 A3000 RMK AO2 SLP161 T00221067
BGR,2017-04-01 22:55,-68.8281,44.8074,M,M,M,360.00,9.00,M,30.00,M,10.00,M,BKN,OVC,M,M,6000.00,7000.00,M,M,M,KBGR 012255Z AUTO 36009KT 10SM BKN060 OVC070 A3000 RMK MADISHF
BGR,2017-04-01 23:00,-68.8281,44.8074,M,M,M,20.00,10.00,M,30.00,M,10.00,M,BKN,OVC,M,M,5500.00,7000.00,M,M,M,KBGR 012300Z AUTO 02010KT 10SM BKN055 OVC070 A3000 RMK MADISHF
BGR,2017-04-01 23:05,-68.8281,44.8074,M,M,M,30.00,9.00,M,30.00,M,10.00,M,OVC,M,M,M,5000.00,M,M,M,M,KBGR 012305Z AUTO 03009KT 10SM OVC050 A3000 RMK MADISHF
BGR,2017-04-01 23:10,-68.8281,44.8074,M,M,M,30.00,9.00,M,30.00,M,10.00,M,BKN,OVC,M,M,5000.00,7500.00,M,M,M,KBGR 012310Z AUTO 03009KT 10SM BKN050 OVC075 A3000 RMK MADISHF
BGR,2017-04-01 23:15,-68.8281,44.8074,M,M,M,50.00,9.00,M,30.00,M,10.00,M,BKN,OVC,M,M,5000.00,7500.00,M,M,M,KBGR 012315Z AUTO 05009KT 10SM BKN050 OVC075 A3000 RMK MADISHF
BGR,2017-04-01 23:20,-68.8281,44.8074,M,M,M,M,M,M,30.00,M,10.00,M,BKN,OVC,M,M,4800.00,7999.00,M,M,M,KBGR 012320Z AUTO /////KT 10SM BKN048 OVC079 A3000 RMK MADISHF
BGR,2017-04-01 23:25,-68.8281,44.8074,M,M,M,M,M,M,30.00,M,10.00,M,BKN,BKN,OVC,M,4800.00,7500.00,10000.00,M,M,KBGR 012325Z AUTO /////KT 10SM BKN048 BKN075 OVC100 A3000 RMK MADISHF
BGR,2017-04-01 23:30,-68.8281,44.8074,M,M,M,M,M,M,30.00,M,10.00,16.00,SCT,BKN,OVC,M,4700.00,7500.00,10000.00,M,M,KBGR 012330Z AUTO /////G16KT 10SM SCT047 BKN075 OVC100 A3000 RMK MADISHF
BGR,2017-04-01 23:35,-68.8281,44.8074,M,M,M,M,M,M,30.00,M,10.00,M,SCT,BKN,OVC,M,4700.00,7500.00,10000.00,M,M,KBGR 012335Z AUTO /////KT 10SM SCT047 BKN075 OVC100 A3000 RMK MADISHF
BGR,2017-04-01 23:40,-68.8281,44.8074,M,M,M,40.00,10.00,M,30.00,M,10.00,M,FEW,BKN,OVC,M,4500.00,7500.00,11000.00,M,M,KBGR 012340Z AUTO 04010KT 10SM FEW045 BKN075 OVC110 A3000 RMK MADISHF
BGR,2017-04-01 23:45,-68.8281,44.8074,M,M,M,40.00,8.00,M,30.00,M,10.00,M,FEW,BKN,OVC,M,4500.00,7500.00,11000.00,M,M,KBGR 012345Z AUTO 04008KT 10SM FEW045 BKN075 OVC110 A3000 RMK MADISHF
BGR,2017-04-01 23:50,-68.8281,44.8074,M,M,M,30.00,9.00,M,30.00,M,10.00,M,SCT,BKN,OVC,M,7500.00,9000.00,11000.00,M,M,KBGR 012350Z AUTO 03009KT 10SM SCT075 BKN090 OVC110 A3000 RMK MADISHF
BGR,2017-04-01 23:53,-68.8281,44.8074,35.10,19.00,51.47,40.00,7.00,0.00,30.00,1016.00,10.00,M,SCT,BKN,OVC,M,7500.00,9000.00,11000.00,M,M,KBGR 012353Z 04007KT 10SM SCT075 BKN090 OVC110 02/M07 A3000 RMK AO2 SLP160 60000 T00171072 10028 20017 50009
BGR,2017-04-01 23:55,-68.8281,44.8074,M,M,M,30.00,8.00,M,30.00,M,10.00,M,SCT,BKN,OVC,M,7500.00,9000.00,11000.00,M,M,KBGR 012355Z AUTO 03008KT 10SM SCT075 BKN090 OVC110 A3000 RMK MADISHF
