#DEBUG: Format Typ    -> comma
#DEBUG: Time Period   -> 2017-04-01 00:00:00+00:00 2017-04-02 00:00:00+00:00
#DEBUG: Time Zone     -> Etc/UTC
#DEBUG: Data Contact   -> daryl herzmann akrherz@iastate.edu 515-294-5978
#DEBUG: Entries Found -> -1
station,valid,lon,lat,tmpf, dwpf, relh, drct, sknt, p01i, alti, mslp, vsby, gust, skyc1, skyc2, skyc3, skyc4, skyl1, skyl2, skyl3, skyl4, presentwx, metar
BHC,2017-04-01 00:10,-82.3938,31.7138,77.00,59.00,53.80,270.00,3.00,0.00,29.81,M,10.00,M,CLR,M,M,M,M,M,M,M,M,KBHC 010010Z AUTO 27003KT 10SM CLR 25/15 A2981 RMK AO2 PNO
BHC,2017-04-01 00:35,-82.3938,31.7138,75.20,59.00,57.12,0.00,0.00,0.00,29.82,M,10.00,M,CLR,M,M,M,M,M,M,M,M,KBHC 010035Z AUTO 00000KT 10SM CLR 24/15 A2982 RMK AO2 PNO
BHC,2017-04-01 00:55,-82.3938,31.7138,73.40,59.00,60.67,0.00,0.00,0.00,29.83,M,10.00,M,CLR,M,M,M,M,M,M,M,M,KBHC 010055Z AUTO 00000KT 10SM CLR 23/15 A2983 RMK AO2 PNO
BHC,2017-04-01 01:15,-82.3938,31.7138,69.80,59.00,68.55,0.00,0.00,0.00,29.84,M,10.00,M,CLR,M,M,M,M,M,M,M,M,KBHC 010115Z AUTO 00000KT 10SM CLR 21/15 A2984 RMK AO2 PNO
BHC,2017-04-01 01:35,-82.3938,31.7138,69.80,59.00,68.55,0.00,0.00,0.00,29.85,M,10.00,M,CLR,M,M,M,M,M,M,M,M,KBHC 010135Z AUTO 00000KT 10SM CLR 21/15 A2985 RMK AO2 PNO
BHC,2017-04-01 01:55,-82.3938,31.7138,68.00,59.00,72.92,0.00,0.00,0.00,29.86,M,10.00,M,CLR,M,M,M,M,M,M,M,M,KBHC 010155Z AUTO 00000KT 10SM CLR 20/15 A2986 RMK AO2 PNO
BHC,2017-04-01 02:15,-82.3938,31.7138,66.20,59.00,77.60,0.00,0.00,0.00,29.86,M,10.00,M,CLR,M,M,M,M,M,M,M,M,KBHC 010215Z AUTO 00000KT 10SM CLR 19/15 A2986 RMK AO2 PNO
BHC,2017-04-01 02:35,-82.3938,31.7138,64.40,59.00,82.62,0.00,0.00,0.00,29.87,M,10.00,M,CLR,M,M,M,M,M,M,M,M,KBHC 010235Z AUTO 00000KT 10SM CLR 18/15 A2987 RMK AO2 PNO
BHC,2017-04-01 02:55,-82.3938,31.7138,64.40,59.00,82.62,0.00,0.00,0.00,29.88,M,10.00,M,CLR,M,M,M,M,M,M,M,M,KBHC 010255Z AUTO 00000KT 10SM CLR 18/15 A2988 RMK AO2 PNO
BHC,2017-04-01 03:15,-82.3938,31.7138,68.00,57.20,68.35,0.00,0.00,0.00,29.88,M,10.00,M,CLR,M,M,M,M,M,M,M,M,KBHC 010315Z AUTO 00000KT 10SM CLR 20/14 A2988 RMK AO2 PNO
BHC,2017-04-01 03:35,-82.3938,31.7138,66.20,57.20,72.74,0.00,0.00,0.00,29.89,M,10.00,M,CLR,M,M,M,M,M,M,M,M,KBHC 010335Z AUTO 00000KT 10SM CLR 19/14 A2989 RMK AO2 PNO
BHC,2017-04-01 03:55,-82.3938,31.7138,68.00,55.40,64.04,0.00,0.00,0.00,29.90,M,10.00,M,CLR,M,M,M,M,M,M,M,M,KBHC 010355Z AUTO 00000KT 10SM CLR 20/13 A2990 RMK AO2 PNO
BHC,2017-04-01 04:15,-82.3938,31.7138,64.40,55.40,72.56,0.00,0.00,0.00,29.90,M,10.00,M,CLR,M,M,M,M,M,M,M,M,KBHC 010415Z AUTO 00000KT 10SM CLR 18/13 A2990 RMK AO2 PNO
BHC,2017-04-01 04:35,-82.3938,31.7138,62.60,55.40,77.29,0.00,0.00,0.00,29.91,M,10.00,M,CLR,M,M,M,M,M,M,M,M,KBHC 010435Z AUTO 00000KT 10SM CLR 17/13 A2991 RMK AO2 PNO
BHC,2017-04-01 04:55,-82.3938,31.7138,60.80,57.20,87.92,0.00,0.00,0.00,29.91,M,10.00,M,CLR,M,M,M,M,M,M,M,M,KBHC 010455Z AUTO 00000KT 10SM CLR 16/14 A2991 RMK AO2 PNO
BHC,2017-04-01 05:15,-82.3938,31.7138,60.80,57.20,87.92,0.00,0.00,0.00,29.91,M,10.00,M,CLR,M,M,M,M,M,M,M,M,KBHC 010515Z AUTO 00000KT 10SM CLR 16/14 A2991 RMK AO2 PNO
BHC,2017-04-01 05:35,-82.3938,31.7138,60.80,57.20,87.92,0.00,0.00,0.00,29.92,M,10.00,M,CLR,M,M,M,M,M,M,M,M,KBHC 010535Z AUTO 00000KT 10SM CLR 16/14 A2992 RMK AO2 PNO
BHC,2017-04-01 05:55,-82.3938,31.7138,60.80,55.40,82.37,320.00,3.00,0.00,29.92,M,10.00,M,CLR,M,M,M,M,M,M,M,M,KBHC 010555Z AUTO 32003KT 10SM CLR 16/13 A2992 RMK AO2 PNO
BHC,2017-04-01 06:15,-82.3938,31.7138,60.80,53.60,77.14,0.00,0.00,0.00,29.92,M,10.00,M,CLR,M,M,M,M,M,M,M,M,KBHC 010615Z AUTO 00000KT 10SM CLR 16/12 A2992 RMK AO2 PNO
BHC,2017-04-01 06:35,-82.3938,31.7138,59.00,55.40,87.83,310.00,3.00,0.00,29.92,M,10.00,M,CLR,M,M,M,M,M,M,M,M,KBHC 010635Z AUTO 31003KT 10SM CLR 15/13 A2992 RMK AO2 PNO
BHC,2017-04-01 06:55,-82.3938,31.7138,60.80,53.60,77.14,310.00,3.00,0.00,29.93,M,10.00,M,CLR,M,M,M,M,M,M,M,M,KBHC 010655Z AUTO 31003KT 10SM CLR 16/12 A2993 RMK AO2 PNO
BHC,2017-04-01 07:15,-82.3938,31.7138,60.80,53.60,77.14,330.00,4.00,0.00,29.93,M,10.00,M,CLR,M,M,M,M,M,M,M,M,KBHC 010715Z AUTO 33004KT 10SM CLR 16/12 A2993 RMK AO2 PNO
BHC,2017-04-01 07:35,-82.3938,31.7138,62.60,53.60,72.38,330.00,3.00,0.00,29.93,M,10.00,M,CLR,M,M,M,M,M,M,M,M,KBHC 010735Z AUTO 33003KT 10SM CLR 17/12 A2993 RMK AO2 PNO
BHC,2017-04-01 07:55,-82.3938,31.7138,57.20,55.40,93.69,0.00,0.00,0.00,29.94,M,10.00,M,CLR,M,M,M,M,M,M,M,M,KBHC 010755Z AUTO 00000KT 10SM CLR 14/13 A2994 RMK AO2 PNO
BHC,2017-04-01 08:15,-82.3938,31.7138,55.40,55.40,100.00,0.00,0.00,0.00,29.94,M,10.00,M,CLR,M,M,M,M,M,M,M,M,KBHC 010815Z AUTO 00000KT 10SM CLR 13/13 A2994 RMK AO2 PNO
BHC,2017-04-01 08:35,-82.3938,31.7138,53.60,53.60,100.00,200.00,3.00,0.00,29.95,M,10.00,M,CLR,M,M,M,M,M,M,M,M,KBHC 010835Z AUTO 20003KT 10SM CLR 12/12 A2995 RMK AO2 PNO
BHC,2017-04-01 08:55,-82.3938,31.7138,53.60,53.60,100.00,0.00,0.00,0.00,29.95,M,10.00,M,CLR,M,M,M,M,M,M,M,M,KBHC 010855Z AUTO 00000KT 10SM CLR 12/12 A2995 RMK AO2 PNO
BHC,2017-04-01 09:15,-82.3938,31.7138,53.60,53.60,100.00,0.00,0.00,0.00,29.95,M,10.00,M,CLR,M,M,M,M,M,M,M,M,KBHC 010915Z AUTO 00000KT 10SM CLR 12/12 A2995 RMK AO2 PNO
BHC,2017-04-01 09:35,-82.3938,31.7138,51.80,51.80,100.00,200.00,3.00,0.00,29.96,M,10.00,M,CLR,M,M,M,M,M,M,M,M,KBHC 010935Z AUTO 20003KT 10SM CLR 11/11 A2996 RMK AO2 PNO
BHC,2017-04-01 09:55,-82.3938,31.7138,51.80,51.80,100.00,0.00,0.00,0.00,29.97,M,10.00,M,CLR,M,M,M,M,M,M,M,M,KBHC 010955Z AUTO 00000KT 10SM CLR 11/11 A2997 RMK AO2 PNO
BHC,2017-04-01 10:15,-82.3938,31.7138,51.80,51.80,100.00,0.00,0.00,0.00,29.97,M,10.00,M,CLR,M,M,M,M,M,M,M,M,KBHC 011015Z AUTO 00000KT 10SM CLR 11/11 A2997 RMK AO2 PNO
BHC,2017-04-01 10:35,-82.3938,31.7138,51.80,51.80,100.00,0.00,0.00,0.00,29.98,M,10.00,M,CLR,M,M,M,M,M,M,M,M,KBHC 011035Z AUTO 00000KT 10SM CLR 11/11 A2998 RMK AO2 PNO
BHC,2017-04-01 10:55,-82.3938,31.7138,51.80,51.80,100.00,0.00,0.00,0.00,29.99,M,10.00,M,CLR,M,M,M,M,M,M,M,M,KBHC 011055Z AUTO 00000KT 10SM CLR 11/11 A2999 RMK AO2 PNO
BHC,2017-04-01 11:15,-82.3938,31.7138,51.80,51.80,100.00,0.00,0.00,0.00,30.00,M,10.00,M,CLR,M,M,M,M,M,M,M,M,KBHC 011115Z AUTO 00000KT 10SM CLR 11/11 A3000 RMK AO2 PNO
BHC,2017-04-01 11:35,-82.3938,31.7138,50.00,50.00,100.00,0.00,0.00,0.00,30.00,M,10.00,M,CLR,M,M,M,M,M,M,M,M,KBHC 011135Z AUTO 00000KT 10SM CLR 10/10 A3000 RMK AO2 PNO
BHC,2017-04-01 11:55,-82.3938,31.7138,51.80,51.80,100.00,0.00,0.00,0.00,30.01,M,10.00,M,CLR,M,M,M,M,M,M,M,M,KBHC 011155Z AUTO 00000KT 10SM CLR 11/11 A3001 RMK AO2 PNO
BHC,2017-04-01 12:15,-82.3938,31.7138,53.60,53.60,100.00,0.00,0.00,0.00,30.01,M,10.00,M,CLR,M,M,M,M,M,M,M,M,KBHC 011215Z AUTO 00000KT 10SM CLR 12/12 A3001 RMK AO2 PNO
BHC,2017-04-01 12:35,-82.3938,31.7138,59.00,59.00,100.00,0.00,0.00,0.00,30.02,M,10.00,M,CLR,M,M,M,M,M,M,M,M,KBHC 011235Z AUTO 00000KT 10SM CLR 15/15 A3002 RMK AO2 PNO
BHC,2017-04-01 12:55,-82.3938,31.7138,60.80,57.20,87.92,0.00,0.00,0.00,30.02,M,10.00,M,CLR,M,M,M,M,M,M,M,M,KBHC 011255Z AUTO 00000KT 10SM CLR 16/14 A3002 RMK AO2 PNO
BHC,2017-04-01 13:15,-82.3938,31.7138,62.60,55.40,77.29,330.00,3.00,0.00,30.03,M,10.00,M,CLR,M,M,M,M,M,M,M,M,KBHC 011315Z AUTO 33003KT 10SM CLR 17/13 A3003 RMK AO2 PNO
BHC,2017-04-01 13:35,-82.3938,31.7138,64.40,55.40,72.56,320.00,4.00,0.00,30.04,M,10.00,M,CLR,M,M,M,M,M,M,M,M,KBHC 011335Z AUTO 32004KT 10SM CLR 18/13 A3004 RMK AO2 PNO
BHC,2017-04-01 13:55,-82.3938,31.7138,68.00,55.40,64.04,340.00,6.00,0.00,30.04,M,10.00,M,CLR,M,M,M,M,M,M,M,M,KBHC 011355Z AUTO 34006KT 10SM CLR 20/13 A3004 RMK AO2 PNO
BHC,2017-04-01 14:15,-82.3938,31.7138,69.80,55.40,60.21,360.00,6.00,0.00,30.04,M,10.00,M,CLR,M,M,M,M,M,M,M,M,KBHC 011415Z AUTO 36006KT 10SM CLR 21/13 A3004 RMK AO2 PNO
BHC,2017-04-01 14:35,-82.3938,31.7138,71.60,53.60,53.03,350.00,7.00,0.00,30.05,M,10.00,M,CLR,M,M,M,M,M,M,M,M,KBHC 011435Z AUTO 35007KT 330V030 10SM CLR 22/12 A3005 RMK AO2 PNO
BHC,2017-04-01 14:55,-82.3938,31.7138,71.60,53.60,53.03,340.00,8.00,0.00,30.05,M,10.00,M,CLR,M,M,M,M,M,M,M,M,KBHC 011455Z AUTO 34008KT 10SM CLR 22/12 A3005 RMK AO2 PNO
BHC,2017-04-01 15:15,-82.3938,31.7138,73.40,53.60,49.90,360.00,7.00,0.00,30.04,M,10.00,M,CLR,M,M,M,M,M,M,M,M,KBHC 011515Z AUTO 36007KT 10SM CLR 23/12 A3004 RMK AO2 PNO
BHC,2017-04-01 15:35,-82.3938,31.7138,73.40,53.60,49.90,320.00,6.00,0.00,30.05,M,10.00,M,CLR,M,M,M,M,M,M,M,M,KBHC 011535Z AUTO 32006KT 10SM CLR 23/12 A3005 RMK AO2 PNO
BHC,2017-04-01 15:55,-82.3938,31.7138,75.20,53.60,46.98,300.00,8.00,0.00,30.05,M,10.00,M,CLR,M,M,M,M,M,M,M,M,KBHC 011555Z AUTO 30008KT 280V340 10SM CLR 24/12 A3005 RMK AO2 PNO
BHC,2017-04-01 16:15,-82.3938,31.7138,77.00,53.60,44.25,300.00,9.00,0.00,30.04,M,10.00,M,CLR,M,M,M,M,M,M,M,M,KBHC 011615Z AUTO 30009KT 10SM CLR 25/12 A3004 RMK AO2 PNO
BHC,2017-04-01 16:35,-82.3938,31.7138,77.00,53.60,44.25,290.00,8.00,0.00,30.04,M,10.00,M,CLR,M,M,M,M,M,M,M,M,KBHC 011635Z AUTO 29008KT 10SM CLR 25/12 A3004 RMK AO2 PNO
BHC,2017-04-01 16:55,-82.3938,31.7138,78.80,53.60,41.69,340.00,7.00,0.00,30.03,M,10.00,M,CLR,M,M,M,M,M,M,M,M,KBHC 011655Z AUTO 34007KT 10SM CLR 26/12 A3003 RMK AO2 PNO
BHC,2017-04-01 17:15,-82.3938,31.7138,78.80,53.60,41.69,280.00,5.00,0.00,30.02,M,10.00,M,CLR,M,M,M,M,M,M,M,M,KBHC 011715Z AUTO 28005KT 10SM CLR 26/12 A3002 RMK AO2 PNO
BHC,2017-04-01 17:35,-82.3938,31.7138,78.80,50.00,36.51,290.00,10.00,0.00,30.02,M,10.00,14.00,CLR,M,M,M,M,M,M,M,M,KBHC 011735Z AUTO 29010G14KT 240V300 10SM CLR 26/10 A3002 RMK AO2 PNO
BHC,2017-04-01 17:55,-82.3938,31.7138,82.40,51.80,34.69,290.00,9.00,0.00,30.01,M,10.00,14.00,CLR,M,M,M,M,M,M,M,M,KBHC 011755Z AUTO 29009G14KT 10SM CLR 28/11 A3001 RMK AO2 PNO
BHC,2017-04-01 18:15,-82.3938,31.7138,80.60,51.80,36.79,270.00,8.00,0.00,30.00,M,10.00,M,CLR,M,M,M,M,M,M,M,M,KBHC 011815Z AUTO 27008KT 10SM CLR 27/11 A3000 RMK AO2 PNO
BHC,2017-04-01 18:35,-82.3938,31.7138,82.40,51.80,34.69,330.00,8.00,0.00,29.99,M,10.00,M,CLR,M,M,M,M,M,M,M,M,KBHC 011835Z AUTO 33008KT 280V350 10SM CLR 28/11 A2999 RMK AO2 PNO
BHC,2017-04-01 18:55,-82.3938,31.7138,82.40,51.80,34.69,280.00,9.00,0.00,29.99,M,10.00,M,CLR,M,M,M,M,M,M,M,M,KBHC 011855Z AUTO 28009KT 10SM CLR 28/11 A2999 RMK AO2 PNO
BHC,2017-04-01 19:15,-82.3938,31.7138,82.40,50.00,32.46,260.00,8.00,0.00,29.99,M,10.00,M,CLR,M,M,M,M,M,M,M,M,KBHC 011915Z AUTO 26008KT 220V280 10SM CLR 28/10 A2999 RMK AO2 PNO
BHC,2017-04-01 19:35,-82.3938,31.7138,82.40,51.80,34.69,310.00,7.00,0.00,29.98,M,10.00,14.00,CLR,M,M,M,M,M,M,M,M,KBHC 011935Z AUTO 31007G14KT 10SM CLR 28/11 A2998 RMK AO2 PNO
BHC,2017-04-01 19:55,-82.3938,31.7138,84.20,51.80,32.73,300.00,5.00,0.00,29.97,M,10.00,M,CLR,M,M,M,M,M,M,M,M,KBHC 011955Z AUTO 30005KT 10SM CLR 29/11 A2997 RMK AO2 PNO
BHC,2017-04-01 20:15,-82.3938,31.7138,84.20,51.80,32.73,290.00,7.00,0.00,29.97,M,10.00,14.00,CLR,M,M,M,M,M,M,M,M,KBHC 012015Z AUTO 29007G14KT 260V330 10SM CLR 29/11 A2997 RMK AO2 PNO
BHC,2017-04-01 20:35,-82.3938,31.7138,84.20,51.80,32.73,330.00,7.00,0.00,29.97,M,10.00,M,CLR,M,M,M,M,M,M,M,M,KBHC 012035Z AUTO 33007KT 10SM CLR 29/11 A2997 RMK AO2 PNO
BHC,2017-04-01 20:55,-82.3938,31.7138,86.00,51.80,30.90,260.00,7.00,0.00,29.96,M,10.00,M,CLR,M,M,M,M,M,M,M,M,KBHC 012055Z AUTO 26007KT 230V310 10SM CLR 30/11 A2996 RMK AO2 PNO
BHC,2017-04-01 21:15,-82.3938,31.7138,84.20,51.80,32.73,300.00,3.00,0.00,29.96,M,10.00,M,CLR,M,M,M,M,M,M,M,M,KBHC 012115Z AUTO 30003KT 10SM CLR 29/11 A2996 RMK AO2 PNO
BHC,2017-04-01 21:35,-82.3938,31.7138,84.20,51.80,32.73,260.00,5.00,0.00,29.96,M,10.00,M,CLR,M,M,M,M,M,M,M,M,KBHC 012135Z AUTO 26005KT 10SM CLR 29/11 A2996 RMK AO2 PNO
BHC,2017-04-01 21:55,-82.3938,31.7138,84.20,51.80,32.73,300.00,7.00,0.00,29.97,M,10.00,M,CLR,M,M,M,M,M,M,M,M,KBHC 012155Z AUTO 30007KT 10SM CLR 29/11 A2997 RMK AO2 PNO
BHC,2017-04-01 22:15,-82.3938,31.7138,84.20,51.80,32.73,320.00,5.00,0.00,29.97,M,10.00,M,CLR,M,M,M,M,M,M,M,M,KBHC 012215Z AUTO 32005KT 10SM CLR 29/11 A2997 RMK AO2 PNO
BHC,2017-04-01 22:35,-82.3938,31.7138,84.20,51.80,32.73,310.00,5.00,0.00,29.97,M,10.00,M,CLR,M,M,M,M,M,M,M,M,KBHC 012235Z AUTO 31005KT 10SM CLR 29/11 A2997 RMK AO2 PNO
BHC,2017-04-01 22:55,-82.3938,31.7138,82.40,51.80,34.69,310.00,3.00,0.00,29.97,M,10.00,M,CLR,M,M,M,M,M,M,M,M,KBHC 012255Z AUTO 31003KT 10SM CLR 28/11 A2997 RMK AO2 PNO
BHC,2017-04-01 23:15,-82.3938,31.7138,82.40,51.80,34.69,300.00,3.00,0.00,29.98,M,10.00,M,CLR,M,M,M,M,M,M,M,M,KBHC 012315Z AUTO 30003KT 10SM CLR 28/11 A2998 RMK AO2 PNO
BHC,2017-04-01 23:35,-82.3938,31.7138,78.80,53.60,41.69,0.00,0.00,0.00,29.99,M,10.00,M,CLR,M,M,M,M,M,M,M,M,KBHC 012335Z AUTO 00000KT 10SM CLR 26/12 A2999 RMK AO2 PNO
BHC,2017-04-01 23:55,-82.3938,31.7138,77.00,53.60,44.25,0.00,0.00,0.00,29.99,M,10.00,M,CLR,M,M,M,M,M,M,M,M,KBHC 012355Z AUTO 00000KT 10SM CLR 25/12 A2999 RMK AO2 PNO
