#DEBUG: Format Typ    -> comma
#DEBUG: Time Period   -> 2017-04-01 00:00:00+00:00 2017-04-02 00:00:00+00:00
#DEBUG: Time Zone     -> Etc/UTC
#DEBUG: Data Contact   -> daryl herzmann akrherz@iastate.edu 515-294-5978
#DEBUG: Entries Found -> -1
station,valid,lon,lat,tmpf, dwpf, relh, drct, sknt, p01i, alti, mslp, vsby, gust, skyc1, skyc2, skyc3, skyc4, skyl1, skyl2, skyl3, skyl4, presentwx, metar
BHM,2017-04-01 00:00,-86.7449,33.5655,M,M,M,310.00,6.00,M,29.90,M,10.00,M,CLR,M,M,M,M,M,M,M,M,KBHM 010000Z AUTO 31006KT 10SM CLR A2990 RMK MADISHF
BHM,2017-04-01 00:05,-86.7449,33.5655,M,M,M,300.00,7.00,M,29.91,M,10.00,M,CLR,M,M,M,M,M,M,M,M,KBHM 010005Z AUTO 30007KT 10SM CLR A2991 RMK MADISHF
BHM,2017-04-01 00:10,-86.7449,33.5655,M,M,M,310.00,7.00,M,29.91,M,10.00,M,CLR,M,M,M,M,M,M,M,M,KBHM 010010Z AUTO 31007KT 10SM CLR A2991 RMK MADISHF
BHM,2017-04-01 00:15,-86.7449,33.5655,M,M,M,320.00,6.00,M,29.91,M,10.00,M,CLR,M,M,M,M,M,M,M,M,KBHM 010015Z AUTO 32006KT 10SM CLR A2991 RMK MADISHF
BHM,2017-04-01 00:20,-86.7449,33.5655,M,M,M,310.00,5.00,M,29.91,M,10.00,M,CLR,M,M,M,M,M,M,M,M,KBHM 010020Z AUTO 31005KT 10SM CLR A2991 RMK MADISHF
BHM,2017-04-01 00:25,-86.7449,33.5655,M,M,M,310.00,5.00,M,29.91,M,10.00,M,CLR,M,M,M,M,M,M,M,M,KBHM 010025Z AUTO 31005KT 10SM CLR A2991 RMK MADISHF
BHM,2017-04-01 00:30,-86.7449,33.5655,M,M,M,310.00,5.00,M,29.91,M,10.00,M,CLR,M,M,M,M,M,M,M,M,KBHM 010030Z AUTO 31005KT 10SM CLR A2991 RMK MADISHF
BHM,2017-04-01 00:35,-86.7449,33.5655,M,M,M,300.00,5.00,M,29.91,M,10.00,M,CLR,M,M,M,M,M,M,M,M,KBHM 010035Z AUTO 30005KT 10SM CLR A2991 RMK MADISHF
BHM,2017-04-01 00:40,-86.7449,33.5655,M,M,M,310.00,3.00,M,29.91,M,10.00,M,CLR,M,M,M,M,M,M,M,M,KBHM 010040Z AUTO 31003KT 10SM CLR A2991 RMK MADISHF
BHM,2017-04-01 00:45,-86.7449,33.5655,M,M,M,310.00,3.00,M,29.91,M,10.00,M,CLR,M,M,M,M,M,M,M,M,KBHM 010045Z AUTO 31003KT 10SM CLR A2991 RMK MADISHF
BHM,2017-04-01 00:50,-86.7449,33.5655,M,M,M,320.00,3.00,M,29.92,M,10.00,M,CLR,M,M,M,M,M,M,M,M,KBHM 010050Z AUTO 32003KT 10SM CLR A2992 RMK MADISHF
BHM,2017-04-01 00:53,-86.7449,33.5655,66.00,48.00,52.22,310.00,3.00,0.00,29.92,1012.70,10.00,M,CLR,M,M,M,M,M,M,M,M,KBHM 010053Z 31003KT 10SM CLR 19/09 A2992 RMK AO2 SLP127 T01890089
BHM,2017-04-01 00:55,-86.7449,33.5655,M,M,M,0.00,0.00,M,29.92,M,10.00,M,CLR,M,M,M,M,M,M,M,M,KBHM 010055Z AUTO 00000KT 10SM CLR A2992 RMK MADISHF
BHM,2017-04-01 01:00,-86.7449,33.5655,M,M,M,340.00,3.00,M,29.92,M,10.00,M,CLR,M,M,M,M,M,M,M,M,KBHM 010100Z AUTO 34003KT 10SM CLR A2992 RMK MADISHF
BHM,2017-04-01 01:05,-86.7449,33.5655,M,M,M,0.00,0.00,M,29.92,M,10.00,M,CLR,M,M,M,M,M,M,M,M,KBHM 010105Z AUTO 00000KT 10SM CLR A2992 RMK MADISHF
BHM,2017-04-01 01:10,-86.7449,33.5655,M,M,M,0.00,0.00,M,29.92,M,10.00,M,CLR,M,M,M,M,M,M,M,M,KBHM 010110Z AUTO 00000KT 10SM CLR A2992 RMK MADISHF
BHM,2017-04-01 01:15,-86.7449,33.5655,M,M,M,330.00,3.00,M,29.92,M,10.00,M,CLR,M,M,M,M,M,M,M,M,KBHM 010115Z AUTO 33003KT 10SM CLR A2992 RMK MADISHF
BHM,2017-04-01 01:20,-86.7449,33.5655,M,M,M,0.00,0.00,M,29.93,M,10.00,M,CLR,M,M,M,M,M,M,M,M,KBHM 010120Z AUTO 00000KT 10SM CLR A2993 RMK MADISHF
BHM,2017-04-01 01:25,-86.7449,33.5655,M,M,M,330.00,3.00,M,29.93,M,10.00,M,CLR,M,M,M,M,M,M,M,M,KBHM 010125Z AUTO 33003KT 10SM CLR A2993 RMK MADISHF
BHM,2017-04-01 01:30,-86.7449,33.5655,M,M,M,340.00,3.00,M,29.93,M,10.00,M,CLR,M,M,M,M,M,M,M,M,KBHM 010130Z AUTO 34003KT 10SM CLR A2993 RMK MADISHF
BHM,2017-04-01 01:35,-86.7449,33.5655,M,M,M,340.00,3.00,M,29.93,M,10.00,M,CLR,M,M,M,M,M,M,M,M,KBHM 010135Z AUTO 34003KT 10SM CLR A2993 RMK MADISHF
BHM,2017-04-01 01:40,-86.7449,33.5655,M,M,M,0.00,0.00,M,29.93,M,10.00,M,CLR,M,M,M,M,M,M,M,M,KBHM 010140Z AUTO 00000KT 10SM CLR A2993 RMK MADISHF
BHM,2017-04-01 01:45,-86.7449,33.5655,M,M,M,0.00,0.00,M,29.94,M,10.00,M,CLR,M,M,M,M,M,M,M,M,KBHM 010145Z AUTO 00000KT 10SM CLR A2994 RMK MADISHF
BHM,2017-04-01 01:50,-86.7449,33.5655,M,M,M,0.00,0.00,M,29.94,M,10.00,M,CLR,M,M,M,M,M,M,M,M,KBHM 010150Z AUTO 00000KT 10SM CLR A2994 RMK MADISHF
BHM,2017-04-01 01:53,-86.7449,33.5655,62.10,48.90,61.91,0.00,0.00,0.00,29.94,1013.40,10.00,M,CLR,M,M,M,M,M,M,M,M,KBHM 010153Z 00000KT 10SM CLR 17/09 A2994 RMK AO2 SLP134 T01670094
BHM,2017-04-01 01:55,-86.7449,33.5655,M,M,M,0.00,0.00,M,29.94,M,10.00,M,CLR,M,M,M,M,M,M,M,M,KBHM 010155Z AUTO 00000KT 10SM CLR A2994 RMK MADISHF
BHM,2017-04-01 02:00,-86.7449,33.5655,M,M,M,0.00,0.00,M,29.94,M,10.00,M,CLR,M,M,M,M,M,M,M,M,KBHM 010200Z AUTO 00000KT 10SM CLR A2994 RMK MADISHF
BHM,2017-04-01 02:05,-86.7449,33.5655,M,M,M,0.00,0.00,M,29.94,M,10.00,M,CLR,M,M,M,M,M,M,M,M,KBHM 010205Z AUTO 00000KT 10SM CLR A2994 RMK MADISHF
BHM,2017-04-01 02:10,-86.7449,33.5655,M,M,M,0.00,0.00,M,29.95,M,10.00,M,CLR,M,M,M,M,M,M,M,M,KBHM 010210Z AUTO 00000KT 10SM CLR A2995 RMK MADISHF
BHM,2017-04-01 02:15,-86.7449,33.5655,M,M,M,0.00,0.00,M,29.95,M,10.00,M,CLR,M,M,M,M,M,M,M,M,KBHM 010215Z AUTO 00000KT 10SM CLR A2995 RMK MADISHF
BHM,2017-04-01 02:20,-86.7449,33.5655,M,M,M,0.00,0.00,M,29.95,M,10.00,M,CLR,M,M,M,M,M,M,M,M,KBHM 010220Z AUTO 00000KT 10SM CLR A2995 RMK MADISHF
BHM,2017-04-01 02:25,-86.7449,33.5655,M,M,M,0.00,0.00,M,29.95,M,10.00,M,CLR,M,M,M,M,M,M,M,M,KBHM 010225Z AUTO 00000KT 10SM CLR A2995 RMK MADISHF
BHM,2017-04-01 02:30,-86.7449,33.5655,M,M,M,0.00,0.00,M,29.95,M,10.00,M,CLR,M,M,M,M,M,M,M,M,KBHM 010230Z AUTO 00000KT 10SM CLR A2995 RMK MADISHF
BHM,2017-04-01 02:35,-86.7449,33.5655,M,M,M,0.00,0.00,M,29.96,M,10.00,M,CLR,M,M,M,M,M,M,M,M,KBHM 010235Z AUTO 00000KT 10SM CLR A2996 RMK MADISHF
BHM,2017-04-01 02:40,-86.7449,33.5655,M,M,M,0.00,0.00,M,29.96,M,10.00,M,CLR,M,M,M,M,M,M,M,M,KBHM 010240Z AUTO 00000KT 10SM CLR A2996 RMK MADISHF
BHM,2017-04-01 02:45,-86.7449,33.5655,M,M,M,0.00,0.00,M,29.96,M,10.00,M,CLR,M,M,M,M,M,M,M,M,KBHM 010245Z AUTO 00000KT 10SM CLR A2996 RMK MADISHF
BHM,2017-04-01 02:50,-86.7449,33.5655,M,M,M,0.00,0.00,M,29.96,M,10.00,M,CLR,M,M,M,M,M,M,M,M,KBHM 010250Z AUTO 00000KT 10SM CLR A2996 RMK MADISHF
BHM,2017-04-01 02:53,-86.7449,33.5655,60.10,48.90,66.46,0.00,0.00,0.00,29.97,1014.30,10.00,M,CLR,M,M,M,M,M,M,M,M,KBHM 010253Z 00000KT 10SM CLR 16/09 A2997 RMK AO2 SLP143 T01560094 53021
BHM,2017-04-01 02:55,-86.7449,33.5655,M,M,M,0.00,0.00,M,29.97,M,10.00,M,CLR,M,M,M,M,M,M,M,M,KBHM 010255Z AUTO 00000KT 10SM CLR A2997 RMK MADISHF
BHM,2017-04-01 03:00,-86.7449,33.5655,M,M,M,80.00,3.00,M,29.97,M,10.00,M,CLR,M,M,M,M,M,M,M,M,KBHM 010300Z AUTO 08003KT 10SM CLR A2997 RMK MADISHF
BHM,2017-04-01 03:05,-86.7449,33.5655,M,M,M,80.00,3.00,M,29.97,M,10.00,M,CLR,M,M,M,M,M,M,M,M,KBHM 010305Z AUTO 08003KT 10SM CLR A2997 RMK MADISHF
BHM,2017-04-01 03:10,-86.7449,33.5655,M,M,M,70.00,4.00,M,29.97,M,10.00,M,CLR,M,M,M,M,M,M,M,M,KBHM 010310Z AUTO 07004KT 10SM CLR A2997 RMK MADISHF
BHM,2017-04-01 03:15,-86.7449,33.5655,M,M,M,0.00,0.00,M,29.97,M,10.00,M,CLR,M,M,M,M,M,M,M,M,KBHM 010315Z AUTO 00000KT 10SM CLR A2997 RMK MADISHF
BHM,2017-04-01 03:20,-86.7449,33.5655,M,M,M,0.00,0.00,M,29.97,M,10.00,M,CLR,M,M,M,M,M,M,M,M,KBHM 010320Z AUTO 00000KT 10SM CLR A2997 RMK MADISHF
BHM,2017-04-01 03:25,-86.7449,33.5655,M,M,M,30.00,3.00,M,29.97,M,10.00,M,CLR,M,M,M,M,M,M,M,M,KBHM 010325Z AUTO 03003KT 10SM CLR A2997 RMK MADISHF
BHM,2017-04-01 03:30,-86.7449,33.5655,M,M,M,0.00,0.00,M,29.97,M,10.00,M,CLR,M,M,M,M,M,M,M,M,KBHM 010330Z AUTO 00000KT 10SM CLR A2997 RMK MADISHF
BHM,2017-04-01 03:35,-86.7449,33.5655,M,M,M,0.00,0.00,M,29.98,M,10.00,M,CLR,M,M,M,M,M,M,M,M,KBHM 010335Z AUTO 00000KT 10SM CLR A2998 RMK MADISHF
BHM,2017-04-01 03:40,-86.7449,33.5655,M,M,M,0.00,0.00,M,29.98,M,10.00,M,CLR,M,M,M,M,M,M,M,M,KBHM 010340Z AUTO 00000KT 10SM CLR A2998 RMK MADISHF
BHM,2017-04-01 03:45,-86.7449,33.5655,M,M,M,0.00,0.00,M,29.98,M,10.00,M,CLR,M,M,M,M,M,M,M,M,KBHM 010345Z AUTO 00000KT 10SM CLR A2998 RMK MADISHF
BHM,2017-04-01 03:50,-86.7449,33.5655,M,M,M,0.00,0.00,M,29.98,M,10.00,M,CLR,M,M,M,M,M,M,M,M,KBHM 010350Z AUTO 00000KT 10SM CLR A2998 RMK MADISHF
BHM,2017-04-01 03:53,-86.7449,33.5655,57.90,48.90,71.90,0.00,0.00,0.00,29.98,1014.70,10.00,M,CLR,M,M,M,M,M,M,M,M,KBHM 010353Z 00000KT 10SM CLR 14/09 A2998 RMK AO2 SLP147 T01440094
BHM,2017-04-01 03:55,-86.7449,33.5655,M,M,M,0.00,0.00,M,29.98,M,10.00,M,CLR,M,M,M,M,M,M,M,M,KBHM 010355Z AUTO 00000KT 10SM CLR A2998 RMK MADISHF
BHM,2017-04-01 04:00,-86.7449,33.5655,M,M,M,0.00,0.00,M,29.98,M,10.00,M,CLR,M,M,M,M,M,M,M,M,KBHM 010400Z AUTO 00000KT 10SM CLR A2998 RMK MADISHF
BHM,2017-04-01 04:05,-86.7449,33.5655,M,M,M,0.00,0.00,M,29.98,M,10.00,M,CLR,M,M,M,M,M,M,M,M,KBHM 010405Z AUTO 00000KT 10SM CLR A2998 RMK MADISHF
BHM,2017-04-01 04:10,-86.7449,33.5655,M,M,M,0.00,0.00,M,29.98,M,10.00,M,CLR,M,M,M,M,M,M,M,M,KBHM 010410Z AUTO 00000KT 10SM CLR A2998 RMK MADISHF
BHM,2017-04-01 04:15,-86.7449,33.5655,M,M,M,0.00,0.00,M,29.98,M,10.00,M,CLR,M,M,M,M,M,M,M,M,KBHM 010415Z AUTO 00000KT 10SM CLR A2998 RMK MADISHF
BHM,2017-04-01 04:20,-86.7449,33.5655,M,M,M,0.00,0.00,M,29.98,M,10.00,M,CLR,M,M,M,M,M,M,M,M,KBHM 010420Z AUTO 00000KT 10SM CLR A2998 RMK MADISHF
BHM,2017-04-01 04:25,-86.7449,33.5655,M,M,M,0.00,0.00,M,29.98,M,10.00,M,CLR,M,M,M,M,M,M,M,M,KBHM 010425Z AUTO 00000KT 10SM CLR A2998 RMK MADISHF
BHM,2017-04-01 04:30,-86.7449,33.5655,M,M,M,0.00,0.00,M,29.98,M,10.00,M,CLR,M,M,M,M,M,M,M,M,KBHM 010430Z AUTO 00000KT 10SM CLR A2998 RMK MADISHF
BHM,2017-04-01 04:35,-86.7449,33.5655,M,M,M,0.00,0.00,M,29.98,M,10.00,M,CLR,M,M,M,M,M,M,M,M,KBHM 010435Z AUTO 00000KT 10SM CLR A2998 RMK MADISHF
BHM,2017-04-01 04:40,-86.7449,33.5655,M,M,M,0.00,0.00,M,29.98,M,10.00,M,CLR,M,M,M,M,M,M,M,M,KBHM 010440Z AUTO 00000KT 10SM CLR A2998 RMK MADISHF
BHM,2017-04-01 04:45,-86.7449,33.5655,M,M,M,0.00,0.00,M,29.99,M,10.00,M,CLR,M,M,M,M,M,M,M,M,KBHM 010445Z AUTO 00000KT 10SM CLR A2999 RMK MADISHF
BHM,2017-04-01 04:50,-86.7449,33.5655,M,M,M,0.00,0.00,M,29.99,M,10.00,M,CLR,M,M,M,M,M,M,M,M,KBHM 010450Z AUTO 00000KT 10SM CLR A2999 RMK MADISHF
BHM,2017-04-01 04:53,-86.7449,33.5655,55.90,48.90,77.28,0.00,0.00,0.00,29.99,1015.00,10.00,M,CLR,M,M,M,M,M,M,M,M,KBHM 010453Z 00000KT 10SM CLR 13/09 A2999 RMK AO2 SLP150 T01330094
BHM,2017-04-01 04:55,-86.7449,33.5655,M,M,M,0.00,0.00,M,29.99,M,10.00,M,CLR,M,M,M,M,M,M,M,M,KBHM 010455Z AUTO 00000KT 10SM CLR A2999 RMK MADISHF
BHM,2017-04-01 05:00,-86.7449,33.5655,M,M,M,0.00,0.00,M,29.99,M,10.00,M,CLR,M,M,M,M,M,M,M,M,KBHM 010500Z AUTO 00000KT 10SM CLR A2999 RMK MADISHF
BHM,2017-04-01 05:05,-86.7449,33.5655,M,M,M,0.00,0.00,M,29.99,M,10.00,M,CLR,M,M,M,M,M,M,M,M,KBHM 010505Z AUTO 00000KT 10SM CLR A2999 RMK MADISHF
BHM,2017-04-01 05:10,-86.7449,33.5655,M,M,M,0.00,0.00,M,29.99,M,10.00,M,CLR,M,M,M,M,M,M,M,M,KBHM 010510Z AUTO 00000KT 10SM CLR A2999 RMK MADISHF
BHM,2017-04-01 05:15,-86.7449,33.5655,M,M,M,0.00,0.00,M,29.99,M,10.00,M,CLR,M,M,M,M,M,M,M,M,KBHM 010515Z AUTO 00000KT 10SM CLR A2999 RMK MADISHF
BHM,2017-04-01 05:20,-86.7449,33.5655,M,M,M,0.00,0.00,M,29.99,M,10.00,M,CLR,M,M,M,M,M,M,M,M,KBHM 010520Z AUTO 00000KT 10SM CLR A2999 RMK MADISHF
BHM,2017-04-01 05:25,-86.7449,33.5655,M,M,M,0.00,0.00,M,29.99,M,10.00,M,CLR,M,M,M,M,M,M,M,M,KBHM 010525Z AUTO 00000KT 10SM CLR A2999 RMK MADISHF
BHM,2017-04-01 05:30,-86.7449,33.5655,M,M,M,0.00,0.00,M,30.00,M,10.00,M,CLR,M,M,M,M,M,M,M,M,KBHM 010530Z AUTO 00000KT 10SM CLR A3000 RMK MADISHF
BHM,2017-04-01 05:35,-86.7449,33.5655,M,M,M,0.00,0.00,M,30.00,M,10.00,M,CLR,M,M,M,M,M,M,M,M,KBHM 010535Z AUTO 00000KT 10SM CLR A3000 RMK MADISHF
BHM,2017-04-01 05:40,-86.7449,33.5655,M,M,M,0.00,0.00,M,30.00,M,10.00,M,CLR,M,M,M,M,M,M,M,M,KBHM 010540Z AUTO 00000KT 10SM CLR A3000 RMK MADISHF
BHM,2017-04-01 05:45,-86.7449,33.5655,M,M,M,0.00,0.00,M,30.00,M,10.00,M,CLR,M,M,M,M,M,M,M,M,KBHM 010545Z AUTO 00000KT 10SM CLR A3000 RMK MADISHF
BHM,2017-04-01 05:50,-86.7449,33.5655,M,M,M,0.00,0.00,M,30.00,M,10.00,M,CLR,M,M,M,M,M,M,M,M,KBHM 010550Z AUTO 00000KT 10SM CLR A3000 RMK MADISHF
BHM,2017-04-01 05:53,-86.7449,33.5655,54.00,48.90,82.82,0.00,0.00,0.00,29.99,1015.30,10.00,M,CLR,M,M,M,M,M,M,M,M,KBHM 010553Z 00000KT 10SM CLR 12/09 A2999 RMK AO2 SLP153 T01220094 10217 20122 402330122 51009
BHM,2017-04-01 05:55,-86.7449,33.5655,M,M,M,0.00,0.00,M,29.99,M,10.00,M,CLR,M,M,M,M,M,M,M,M,KBHM 010555Z AUTO 00000KT 10SM CLR A2999 RMK MADISHF
BHM,2017-04-01 06:00,-86.7449,33.5655,M,M,M,0.00,0.00,M,30.00,M,10.00,M,CLR,M,M,M,M,M,M,M,M,KBHM 010600Z AUTO 00000KT 10SM CLR A3000 RMK MADISHF
BHM,2017-04-01 06:05,-86.7449,33.5655,M,M,M,0.00,0.00,M,30.00,M,10.00,M,CLR,M,M,M,M,M,M,M,M,KBHM 010605Z AUTO 00000KT 10SM CLR A3000 RMK MADISHF
BHM,2017-04-01 06:10,-86.7449,33.5655,M,M,M,0.00,0.00,M,30.00,M,10.00,M,CLR,M,M,M,M,M,M,M,M,KBHM 010610Z AUTO 00000KT 10SM CLR A3000 RMK MADISHF
BHM,2017-04-01 06:15,-86.7449,33.5655,M,M,M,0.00,0.00,M,30.00,M,10.00,M,CLR,M,M,M,M,M,M,M,M,KBHM 010615Z AUTO 00000KT 10SM CLR A3000 RMK MADISHF
BHM,2017-04-01 06:20,-86.7449,33.5655,M,M,M,0.00,0.00,M,30.00,M,10.00,M,CLR,M,M,M,M,M,M,M,M,KBHM 010620Z AUTO 00000KT 10SM CLR A3000 RMK MADISHF
BHM,2017-04-01 06:25,-86.7449,33.5655,M,M,M,0.00,0.00,M,30.00,M,10.00,M,CLR,M,M,M,M,M,M,M,M,KBHM 010625Z AUTO 00000KT 10SM CLR A3000 RMK MADISHF
BHM,2017-04-01 06:30,-86.7449,33.5655,M,M,M,0.00,0.00,M,30.00,M,10.00,M,CLR,M,M,M,M,M,M,M,M,KBHM 010630Z AUTO 00000KT 10SM CLR A3000 RMK MADISHF
BHM,2017-04-01 06:35,-86.7449,33.5655,M,M,M,0.00,0.00,M,30.00,M,10.00,M,CLR,M,M,M,M,M,M,M,M,KBHM 010635Z AUTO 00000KT 10SM CLR A3000 RMK MADISHF
BHM,2017-04-01 06:40,-86.7449,33.5655,M,M,M,0.00,0.00,M,30.00,M,10.00,M,CLR,M,M,M,M,M,M,M,M,KBHM 010640Z AUTO 00000KT 10SM CLR A3000 RMK MADISHF
BHM,2017-04-01 06:45,-86.7449,33.5655,M,M,M,0.00,0.00,M,30.00,M,10.00,M,CLR,M,M,M,M,M,M,M,M,KBHM 010645Z AUTO 00000KT 10SM CLR A3000 RMK MADISHF
BHM,2017-04-01 06:50,-86.7449,33.5655,M,M,M,0.00,0.00,M,30.00,M,10.00,M,CLR,M,M,M,M,M,M,M,M,KBHM 010650Z AUTO 00000KT 10SM CLR A3000 RMK MADISHF
BHM,2017-04-01 06:53,-86.7449,33.5655,54.00,48.90,82.82,0.00,0.00,0.00,30.00,1015.60,10.00,M,CLR,M,M,M,M,M,M,M,M,KBHM 010653Z 00000KT 10SM CLR 12/09 A3000 RMK AO2 SLP156 T01220094
BHM,2017-04-01 06:55,-86.7449,33.5655,M,M,M,0.00,0.00,M,30.00,M,10.00,M,CLR,M,M,M,M,M,M,M,M,KBHM 010655Z AUTO 00000KT 10SM CLR A3000 RMK MADISHF
BHM,2017-04-01 07:00,-86.7449,33.5655,M,M,M,0.00,0.00,M,30.01,M,10.00,M,CLR,M,M,M,M,M,M,M,M,KBHM 010700Z AUTO 00000KT 10SM CLR A3001 RMK MADISHF
BHM,2017-04-01 07:05,-86.7449,33.5655,M,M,M,0.00,0.00,M,30.01,M,10.00,M,CLR,M,M,M,M,M,M,M,M,KBHM 010705Z AUTO 00000KT 10SM CLR A3001 RMK MADISHF
BHM,2017-04-01 07:10,-86.7449,33.5655,M,M,M,0.00,0.00,M,30.01,M,10.00,M,CLR,M,M,M,M,M,M,M,M,KBHM 010710Z AUTO 00000KT 10SM CLR A3001 RMK MADISHF
BHM,2017-04-01 07:15,-86.7449,33.5655,M,M,M,0.00,0.00,M,30.01,M,10.00,M,CLR,M,M,M,M,M,M,M,M,KBHM 010715Z AUTO 00000KT 10SM CLR A3001 RMK MADISHF
BHM,2017-04-01 07:20,-86.7449,33.5655,M,M,M,0.00,0.00,M,30.01,M,10.00,M,CLR,M,M,M,M,M,M,M,M,KBHM 010720Z AUTO 00000KT 10SM CLR A3001 RMK MADISHF
BHM,2017-04-01 07:25,-86.7449,33.5655,M,M,M,0.00,0.00,M,30.01,M,10.00,M,CLR,M,M,M,M,M,M,M,M,KBHM 010725Z AUTO 00000KT 10SM CLR A3001 RMK MADISHF
BHM,2017-04-01 07:30,-86.7449,33.5655,M,M,M,0.00,0.00,M,30.01,M,10.00,M,CLR,M,M,M,M,M,M,M,M,KBHM 010730Z AUTO 00000KT 10SM CLR A3001 RMK MADISHF
BHM,2017-04-01 07:35,-86.7449,33.5655,M,M,M,0.00,0.00,M,30.02,M,10.00,M,CLR,M,M,M,M,M,M,M,M,KBHM 010735Z AUTO 00000KT 10SM CLR A3002 RMK MADISHF
BHM,2017-04-01 07:40,-86.7449,33.5655,M,M,M,0.00,0.00,M,30.02,M,10.00,M,CLR,M,M,M,M,M,M,M,M,KBHM 010740Z AUTO 00000KT 10SM CLR A3002 RMK MADISHF
BHM,2017-04-01 07:45,-86.7449,33.5655,M,M,M,0.00,0.00,M,30.02,M,10.00,M,CLR,M,M,M,M,M,M,M,M,KBHM 010745Z AUTO 00000KT 10SM CLR A3002 RMK MADISHF
BHM,2017-04-01 07:50,-86.7449,33.5655,M,M,M,0.00,0.00,M,30.02,M,10.00,M,CLR,M,M,M,M,M,M,M,M,KBHM 010750Z AUTO 00000KT 10SM CLR A3002 RMK MADISHF
BHM,2017-04-01 07:53,-86.7449,33.5655,53.10,48.90,85.59,0.00,0.00,0.00,30.02,1016.20,10.00,M,CLR,M,M,M,M,M,M,M,M,KBHM 010753Z 00000KT 10SM CLR 12/09 A3002 RMK AO2 SLP162 T01170094
BHM,2017-04-01 07:55,-86.7449,33.5655,M,M,M,0.00,0.00,M,30.02,M,10.00,M,CLR,M,M,M,M,M,M,M,M,KBHM 010755Z AUTO 00000KT 10SM CLR A3002 RMK MADISHF
BHM,2017-04-01 08:00,-86.7449,33.5655,M,M,M,40.00,3.00,M,30.02,M,10.00,M,CLR,M,M,M,M,M,M,M,M,KBHM 010800Z AUTO 04003KT 10SM CLR A3002 RMK MADISHF
BHM,2017-04-01 08:05,-86.7449,33.5655,M,M,M,40.00,3.00,M,30.02,M,10.00,M,CLR,M,M,M,M,M,M,M,M,KBHM 010805Z AUTO 04003KT 10SM CLR A3002 RMK MADISHF
BHM,2017-04-01 08:10,-86.7449,33.5655,M,M,M,30.00,3.00,M,30.02,M,10.00,M,CLR,M,M,M,M,M,M,M,M,KBHM 010810Z AUTO 03003KT 10SM CLR A3002 RMK MADISHF
BHM,2017-04-01 08:15,-86.7449,33.5655,M,M,M,30.00,3.00,M,30.02,M,10.00,M,CLR,M,M,M,M,M,M,M,M,KBHM 010815Z AUTO 03003KT 10SM CLR A3002 RMK MADISHF
BHM,2017-04-01 08:20,-86.7449,33.5655,M,M,M,0.00,0.00,M,30.02,M,10.00,M,CLR,M,M,M,M,M,M,M,M,KBHM 010820Z AUTO 00000KT 10SM CLR A3002 RMK MADISHF
BHM,2017-04-01 08:25,-86.7449,33.5655,M,M,M,0.00,0.00,M,30.02,M,10.00,M,CLR,M,M,M,M,M,M,M,M,KBHM 010825Z AUTO 00000KT 10SM CLR A3002 RMK MADISHF
BHM,2017-04-01 08:30,-86.7449,33.5655,M,M,M,0.00,0.00,M,30.02,M,10.00,M,CLR,M,M,M,M,M,M,M,M,KBHM 010830Z AUTO 00000KT 10SM CLR A3002 RMK MADISHF
BHM,2017-04-01 08:35,-86.7449,33.5655,M,M,M,0.00,0.00,M,30.02,M,10.00,M,CLR,M,M,M,M,M,M,M,M,KBHM 010835Z AUTO 00000KT 10SM CLR A3002 RMK MADISHF
BHM,2017-04-01 08:40,-86.7449,33.5655,M,M,M,0.00,0.00,M,30.02,M,10.00,M,CLR,M,M,M,M,M,M,M,M,KBHM 010840Z AUTO 00000KT 10SM CLR A3002 RMK MADISHF
BHM,2017-04-01 08:45,-86.7449,33.5655,M,M,M,0.00,0.00,M,30.02,M,10.00,M,CLR,M,M,M,M,M,M,M,M,KBHM 010845Z AUTO 00000KT 10SM CLR A3002 RMK MADISHF
BHM,2017-04-01 08:50,-86.7449,33.5655,M,M,M,0.00,0.00,M,30.03,M,10.00,M,CLR,M,M,M,M,M,M,M,M,KBHM 010850Z AUTO 00000KT 10SM CLR A3003 RMK MADISHF
BHM,2017-04-01 08:53,-86.7449,33.5655,52.00,48.90,89.13,0.00,0.00,0.00,30.03,1016.40,10.00,M,CLR,M,M,M,M,M,M,M,M,KBHM 010853Z 00000KT 10SM CLR 11/09 A3003 RMK AO2 SLP164 T01110094 51011
BHM,2017-04-01 08:55,-86.7449,33.5655,M,M,M,0.00,0.00,M,30.03,M,10.00,M,CLR,M,M,M,M,M,M,M,M,KBHM 010855Z AUTO 00000KT 10SM CLR A3003 RMK MADISHF
BHM,2017-04-01 09:00,-86.7449,33.5655,M,M,M,0.00,0.00,M,30.03,M,10.00,M,CLR,M,M,M,M,M,M,M,M,KBHM 010900Z AUTO 00000KT 10SM CLR A3003 RMK MADISHF
BHM,2017-04-01 09:05,-86.7449,33.5655,M,M,M,0.00,0.00,M,30.03,M,10.00,M,CLR,M,M,M,M,M,M,M,M,KBHM 010905Z AUTO 00000KT 10SM CLR A3003 RMK MADISHF
BHM,2017-04-01 09:10,-86.7449,33.5655,M,M,M,0.00,0.00,M,30.03,M,10.00,M,CLR,M,M,M,M,M,M,M,M,KBHM 010910Z AUTO 00000KT 10SM CLR A3003 RMK MADISHF
BHM,2017-04-01 09:15,-86.7449,33.5655,M,M,M,0.00,0.00,M,30.04,M,10.00,M,CLR,M,M,M,M,M,M,M,M,KBHM 010915Z AUTO 00000KT 10SM CLR A3004 RMK MADISHF
BHM,2017-04-01 09:20,-86.7449,33.5655,M,M,M,0.00,0.00,M,30.04,M,10.00,M,CLR,M,M,M,M,M,M,M,M,KBHM 010920Z AUTO 00000KT 10SM CLR A3004 RMK MADISHF
BHM,2017-04-01 09:25,-86.7449,33.5655,M,M,M,0.00,0.00,M,30.04,M,10.00,M,CLR,M,M,M,M,M,M,M,M,KBHM 010925Z AUTO 00000KT 10SM CLR A3004 RMK MADISHF
BHM,2017-04-01 09:30,-86.7449,33.5655,M,M,M,0.00,0.00,M,30.04,M,10.00,M,CLR,M,M,M,M,M,M,M,M,KBHM 010930Z AUTO 00000KT 10SM CLR A3004 RMK MADISHF
BHM,2017-04-01 09:35,-86.7449,33.5655,M,M,M,0.00,0.00,M,30.04,M,10.00,M,CLR,M,M,M,M,M,M,M,M,KBHM 010935Z AUTO 00000KT 10SM CLR A3004 RMK MADISHF
BHM,2017-04-01 09:40,-86.7449,33.5655,M,M,M,0.00,0.00,M,30.05,M,10.00,M,CLR,M,M,M,M,M,M,M,M,KBHM 010940Z AUTO 00000KT 10SM CLR A3005 RMK MADISHF
BHM,2017-04-01 09:45,-86.7449,33.5655,M,M,M,0.00,0.00,M,30.05,M,10.00,M,CLR,M,M,M,M,M,M,M,M,KBHM 010945Z AUTO 00000KT 10SM CLR A3005 RMK MADISHF
BHM,2017-04-01 09:50,-86.7449,33.5655,M,M,M,10.00,3.00,M,30.05,M,10.00,M,CLR,M,M,M,M,M,M,M,M,KBHM 010950Z AUTO 01003KT 10SM CLR A3005 RMK MADISHF
BHM,2017-04-01 09:53,-86.7449,33.5655,50.00,46.90,89.04,30.00,3.00,0.00,30.05,1017.20,10.00,M,CLR,M,M,M,M,M,M,M,M,KBHM 010953Z 03003KT 10SM CLR 10/08 A3005 RMK AO2 SLP172 T01000083
BHM,2017-04-01 09:55,-86.7449,33.5655,M,M,M,30.00,3.00,M,30.05,M,10.00,M,CLR,M,M,M,M,M,M,M,M,KBHM 010955Z AUTO 03003KT 10SM CLR A3005 RMK MADISHF
BHM,2017-04-01 10:00,-86.7449,33.5655,M,M,M,20.00,3.00,M,30.06,M,10.00,M,CLR,M,M,M,M,M,M,M,M,KBHM 011000Z AUTO 02003KT 10SM CLR A3006 RMK MADISHF
BHM,2017-04-01 10:05,-86.7449,33.5655,M,M,M,0.00,0.00,M,30.06,M,10.00,M,CLR,M,M,M,M,M,M,M,M,KBHM 011005Z AUTO 00000KT 10SM CLR A3006 RMK MADISHF
BHM,2017-04-01 10:10,-86.7449,33.5655,M,M,M,30.00,3.00,M,30.06,M,10.00,M,CLR,M,M,M,M,M,M,M,M,KBHM 011010Z AUTO 03003KT 10SM CLR A3006 RMK MADISHF
BHM,2017-04-01 10:15,-86.7449,33.5655,M,M,M,30.00,3.00,M,30.06,M,10.00,M,CLR,M,M,M,M,M,M,M,M,KBHM 011015Z AUTO 03003KT 10SM CLR A3006 RMK MADISHF
BHM,2017-04-01 10:20,-86.7449,33.5655,M,M,M,40.00,3.00,M,30.06,M,10.00,M,CLR,M,M,M,M,M,M,M,M,KBHM 011020Z AUTO 04003KT 10SM CLR A3006 RMK MADISHF
BHM,2017-04-01 10:25,-86.7449,33.5655,M,M,M,0.00,0.00,M,30.07,M,10.00,M,CLR,M,M,M,M,M,M,M,M,KBHM 011025Z AUTO 00000KT 10SM CLR A3007 RMK MADISHF
BHM,2017-04-01 10:30,-86.7449,33.5655,M,M,M,0.00,0.00,M,30.07,M,10.00,M,CLR,M,M,M,M,M,M,M,M,KBHM 011030Z AUTO 00000KT 10SM CLR A3007 RMK MADISHF
BHM,2017-04-01 10:35,-86.7449,33.5655,M,M,M,0.00,0.00,M,30.07,M,10.00,M,CLR,M,M,M,M,M,M,M,M,KBHM 011035Z AUTO 00000KT 10SM CLR A3007 RMK MADISHF
BHM,2017-04-01 10:40,-86.7449,33.5655,M,M,M,0.00,0.00,M,30.07,M,10.00,M,CLR,M,M,M,M,M,M,M,M,KBHM 011040Z AUTO 00000KT 10SM CLR A3007 RMK MADISHF
BHM,2017-04-01 10:45,-86.7449,33.5655,M,M,M,0.00,0.00,M,30.07,M,10.00,M,CLR,M,M,M,M,M,M,M,M,KBHM 011045Z AUTO 00000KT 10SM CLR A3007 RMK MADISHF
BHM,2017-04-01 10:50,-86.7449,33.5655,M,M,M,0.00,0.00,M,30.07,M,10.00,M,CLR,M,M,M,M,M,M,M,M,KBHM 011050Z AUTO 00000KT 10SM CLR A3007 RMK MADISHF
BHM,2017-04-01 10:53,-86.7449,33.5655,50.00,46.90,89.04,0.00,0.00,0.00,30.07,1017.80,10.00,M,CLR,M,M,M,M,M,M,M,M,KBHM 011053Z 00000KT 10SM CLR 10/08 A3007 RMK AO2 SLP178 T01000083
BHM,2017-04-01 10:55,-86.7449,33.5655,M,M,M,0.00,0.00,M,30.07,M,10.00,M,CLR,M,M,M,M,M,M,M,M,KBHM 011055Z AUTO 00000KT 10SM CLR A3007 RMK MADISHF
BHM,2017-04-01 11:00,-86.7449,33.5655,M,M,M,0.00,0.00,M,30.07,M,10.00,M,CLR,M,M,M,M,M,M,M,M,KBHM 011100Z AUTO 00000KT 10SM CLR A3007 RMK MADISHF
BHM,2017-04-01 11:05,-86.7449,33.5655,M,M,M,0.00,0.00,M,30.07,M,10.00,M,CLR,M,M,M,M,M,M,M,M,KBHM 011105Z AUTO 00000KT 10SM CLR A3007 RMK MADISHF
BHM,2017-04-01 11:10,-86.7449,33.5655,M,M,M,0.00,0.00,M,30.07,M,10.00,M,CLR,M,M,M,M,M,M,M,M,KBHM 011110Z AUTO 00000KT 10SM CLR A3007 RMK MADISHF
BHM,2017-04-01 11:15,-86.7449,33.5655,M,M,M,0.00,0.00,M,30.07,M,10.00,M,CLR,M,M,M,M,M,M,M,M,KBHM 011115Z AUTO 00000KT 10SM CLR A3007 RMK MADISHF
BHM,2017-04-01 11:20,-86.7449,33.5655,M,M,M,0.00,0.00,M,30.08,M,10.00,M,CLR,M,M,M,M,M,M,M,M,KBHM 011120Z AUTO 00000KT 10SM CLR A3008 RMK MADISHF
BHM,2017-04-01 11:25,-86.7449,33.5655,M,M,M,0.00,0.00,M,30.08,M,10.00,M,CLR,M,M,M,M,M,M,M,M,KBHM 011125Z AUTO 00000KT 10SM CLR A3008 RMK MADISHF
BHM,2017-04-01 11:30,-86.7449,33.5655,M,M,M,0.00,0.00,M,30.08,M,10.00,M,CLR,M,M,M,M,M,M,M,M,KBHM 011130Z AUTO 00000KT 10SM CLR A3008 RMK MADISHF
BHM,2017-04-01 11:35,-86.7449,33.5655,M,M,M,0.00,0.00,M,30.08,M,10.00,M,CLR,M,M,M,M,M,M,M,M,KBHM 011135Z AUTO 00000KT 10SM CLR A3008 RMK MADISHF
BHM,2017-04-01 11:40,-86.7449,33.5655,M,M,M,0.00,0.00,M,30.08,M,10.00,M,CLR,M,M,M,M,M,M,M,M,KBHM 011140Z AUTO 00000KT 10SM CLR A3008 RMK MADISHF
BHM,2017-04-01 11:45,-86.7449,33.5655,M,M,M,0.00,0.00,M,30.08,M,10.00,M,CLR,M,M,M,M,M,M,M,M,KBHM 011145Z AUTO 00000KT 10SM CLR A3008 RMK MADISHF
BHM,2017-04-01 11:50,-86.7449,33.5655,M,M,M,0.00,0.00,M,30.09,M,10.00,M,CLR,M,M,M,M,M,M,M,M,KBHM 011150Z AUTO 00000KT 10SM CLR A3009 RMK MADISHF
BHM,2017-04-01 11:53,-86.7449,33.5655,50.00,46.90,89.04,0.00,0.00,0.00,30.09,1018.40,10.00,M,CLR,M,M,M,M,M,M,M,M,KBHM 011153Z 00000KT 10SM CLR 10/08 A3009 RMK AO2 SLP184 T01000083 10128 20094 51020
BHM,2017-04-01 11:55,-86.7449,33.5655,M,M,M,0.00,0.00,M,30.09,M,10.00,M,CLR,M,M,M,M,M,M,M,M,KBHM 011155Z AUTO 00000KT 10SM CLR A3009 RMK MADISHF
BHM,2017-04-01 12:00,-86.7449,33.5655,M,M,M,0.00,0.00,M,30.09,M,10.00,M,CLR,M,M,M,M,M,M,M,M,KBHM 011200Z AUTO 00000KT 10SM CLR A3009 RMK MADISHF
BHM,2017-04-01 12:05,-86.7449,33.5655,M,M,M,30.00,3.00,M,30.09,M,10.00,M,CLR,M,M,M,M,M,M,M,M,KBHM 011205Z AUTO 03003KT 10SM CLR A3009 RMK MADISHF
BHM,2017-04-01 12:10,-86.7449,33.5655,M,M,M,20.00,3.00,M,30.09,M,10.00,M,CLR,M,M,M,M,M,M,M,M,KBHM 011210Z AUTO 02003KT 10SM CLR A3009 RMK MADISHF
BHM,2017-04-01 12:15,-86.7449,33.5655,M,M,M,30.00,3.00,M,30.09,M,10.00,M,CLR,M,M,M,M,M,M,M,M,KBHM 011215Z AUTO 03003KT 10SM CLR A3009 RMK MADISHF
BHM,2017-04-01 12:20,-86.7449,33.5655,M,M,M,30.00,3.00,M,30.09,M,10.00,M,CLR,M,M,M,M,M,M,M,M,KBHM 011220Z AUTO 03003KT 10SM CLR A3009 RMK MADISHF
BHM,2017-04-01 12:25,-86.7449,33.5655,M,M,M,0.00,0.00,M,30.10,M,10.00,M,CLR,M,M,M,M,M,M,M,M,KBHM 011225Z AUTO 00000KT 10SM CLR A3010 RMK MADISHF
BHM,2017-04-01 12:30,-86.7449,33.5655,M,M,M,0.00,0.00,M,30.10,M,10.00,M,CLR,M,M,M,M,M,M,M,M,KBHM 011230Z AUTO 00000KT 10SM CLR A3010 RMK MADISHF
BHM,2017-04-01 12:35,-86.7449,33.5655,M,M,M,0.00,0.00,M,30.10,M,10.00,M,CLR,M,M,M,M,M,M,M,M,KBHM 011235Z AUTO 00000KT 10SM CLR A3010 RMK MADISHF
BHM,2017-04-01 12:40,-86.7449,33.5655,M,M,M,0.00,0.00,M,30.10,M,10.00,M,CLR,M,M,M,M,M,M,M,M,KBHM 011240Z AUTO 00000KT 10SM CLR A3010 RMK MADISHF
BHM,2017-04-01 12:45,-86.7449,33.5655,M,M,M,0.00,0.00,M,30.10,M,10.00,M,CLR,M,M,M,M,M,M,M,M,KBHM 011245Z AUTO 00000KT 10SM CLR A3010 RMK MADISHF
BHM,2017-04-01 12:50,-86.7449,33.5655,M,M,M,0.00,0.00,M,30.10,M,10.00,M,CLR,M,M,M,M,M,M,M,M,KBHM 011250Z AUTO 00000KT 10SM CLR A3010 RMK MADISHF
BHM,2017-04-01 12:53,-86.7449,33.5655,55.00,50.00,83.20,0.00,0.00,0.00,30.10,1019.00,10.00,M,CLR,M,M,M,M,M,M,M,M,KBHM 011253Z 00000KT 10SM CLR 13/10 A3010 RMK AO2 SLP190 T01280100
BHM,2017-04-01 12:55,-86.7449,33.5655,M,M,M,0.00,0.00,M,30.10,M,10.00,M,CLR,M,M,M,M,M,M,M,M,KBHM 011255Z AUTO 00000KT 10SM CLR A3010 RMK MADISHF
BHM,2017-04-01 13:00,-86.7449,33.5655,M,M,M,0.00,0.00,M,30.11,M,10.00,M,CLR,M,M,M,M,M,M,M,M,KBHM 011300Z AUTO 00000KT 10SM CLR A3011 RMK MADISHF
BHM,2017-04-01 13:05,-86.7449,33.5655,M,M,M,0.00,0.00,M,30.11,M,10.00,M,CLR,M,M,M,M,M,M,M,M,KBHM 011305Z AUTO 00000KT 10SM CLR A3011 RMK MADISHF
BHM,2017-04-01 13:10,-86.7449,33.5655,M,M,M,0.00,0.00,M,30.11,M,10.00,M,CLR,M,M,M,M,M,M,M,M,KBHM 011310Z AUTO 00000KT 10SM CLR A3011 RMK MADISHF
BHM,2017-04-01 13:15,-86.7449,33.5655,M,M,M,0.00,0.00,M,30.11,M,10.00,M,CLR,M,M,M,M,M,M,M,M,KBHM 011315Z AUTO 00000KT 10SM CLR A3011 RMK MADISHF
BHM,2017-04-01 13:20,-86.7449,33.5655,M,M,M,0.00,0.00,M,30.11,M,10.00,M,CLR,M,M,M,M,M,M,M,M,KBHM 011320Z AUTO 00000KT 10SM CLR A3011 RMK MADISHF
BHM,2017-04-01 13:25,-86.7449,33.5655,M,M,M,0.00,0.00,M,30.11,M,10.00,M,CLR,M,M,M,M,M,M,M,M,KBHM 011325Z AUTO 00000KT 10SM CLR A3011 RMK MADISHF
BHM,2017-04-01 13:30,-86.7449,33.5655,M,M,M,20.00,3.00,M,30.11,M,10.00,M,CLR,M,M,M,M,M,M,M,M,KBHM 011330Z AUTO 02003KT 10SM CLR A3011 RMK MADISHF
BHM,2017-04-01 13:35,-86.7449,33.5655,M,M,M,350.00,3.00,M,30.12,M,10.00,M,CLR,M,M,M,M,M,M,M,M,KBHM 011335Z AUTO 35003KT 10SM CLR A3012 RMK MADISHF
BHM,2017-04-01 13:40,-86.7449,33.5655,M,M,M,0.00,0.00,M,30.12,M,10.00,M,CLR,M,M,M,M,M,M,M,M,KBHM 011340Z AUTO 00000KT 10SM CLR A3012 RMK MADISHF
BHM,2017-04-01 13:45,-86.7449,33.5655,M,M,M,0.00,0.00,M,30.12,M,10.00,M,CLR,M,M,M,M,M,M,M,M,KBHM 011345Z AUTO 00000KT 10SM CLR A3012 RMK MADISHF
BHM,2017-04-01 13:50,-86.7449,33.5655,M,M,M,20.00,3.00,M,30.12,M,10.00,M,CLR,M,M,M,M,M,M,M,M,KBHM 011350Z AUTO 02003KT 10SM CLR A3012 RMK MADISHF
BHM,2017-04-01 13:53,-86.7449,33.5655,61.00,48.90,64.37,M,5.00,0.00,30.12,1019.50,10.00,M,CLR,M,M,M,M,M,M,M,M,KBHM 011353Z VRB05KT 10SM CLR 16/09 A3012 RMK AO2 SLP195 T01610094
BHM,2017-04-01 13:55,-86.7449,33.5655,M,M,M,20.00,4.00,M,30.12,M,10.00,M,CLR,M,M,M,M,M,M,M,M,KBHM 011355Z AUTO 02004KT 10SM CLR A3012 RMK MADISHF
BHM,2017-04-01 14:00,-86.7449,33.5655,M,M,M,350.00,4.00,M,30.12,M,10.00,M,CLR,M,M,M,M,M,M,M,M,KBHM 011400Z AUTO 35004KT 10SM CLR A3012 RMK MADISHF
BHM,2017-04-01 14:05,-86.7449,33.5655,M,M,M,10.00,4.00,M,30.12,M,10.00,M,CLR,M,M,M,M,M,M,M,M,KBHM 011405Z AUTO 01004KT 10SM CLR A3012 RMK MADISHF
BHM,2017-04-01 14:10,-86.7449,33.5655,M,M,M,340.00,5.00,M,30.11,M,10.00,M,CLR,M,M,M,M,M,M,M,M,KBHM 011410Z AUTO 34005KT 10SM CLR A3011 RMK VRB05KT  MADISHF
BHM,2017-04-01 14:15,-86.7449,33.5655,M,M,M,360.00,3.00,M,30.12,M,10.00,M,CLR,M,M,M,M,M,M,M,M,KBHM 011415Z AUTO 36003KT 10SM CLR A3012 RMK VRB03KT  MADISHF
BHM,2017-04-01 14:20,-86.7449,33.5655,M,M,M,10.00,4.00,M,30.12,M,10.00,M,CLR,M,M,M,M,M,M,M,M,KBHM 011420Z AUTO 01004KT 10SM CLR A3012 RMK VRB04KT  MADISHF
BHM,2017-04-01 14:25,-86.7449,33.5655,M,M,M,360.00,6.00,M,30.12,M,10.00,M,CLR,M,M,M,M,M,M,M,M,KBHM 011425Z AUTO 36006KT 10SM CLR A3012 RMK VRB06KT  MADISHF
BHM,2017-04-01 14:30,-86.7449,33.5655,M,M,M,360.00,5.00,M,30.12,M,10.00,M,CLR,M,M,M,M,M,M,M,M,KBHM 011430Z AUTO 36005KT 10SM CLR A3012 RMK MADISHF
BHM,2017-04-01 14:35,-86.7449,33.5655,M,M,M,330.00,6.00,M,30.12,M,10.00,M,CLR,M,M,M,M,M,M,M,M,KBHM 011435Z AUTO 33006KT 10SM CLR A3012 RMK MADISHF
BHM,2017-04-01 14:40,-86.7449,33.5655,M,M,M,340.00,7.00,M,30.13,M,10.00,M,CLR,M,M,M,M,M,M,M,M,KBHM 011440Z AUTO 34007KT 10SM CLR A3013 RMK MADISHF
BHM,2017-04-01 14:45,-86.7449,33.5655,M,M,M,340.00,8.00,M,30.13,M,10.00,M,CLR,M,M,M,M,M,M,M,M,KBHM 011445Z AUTO 34008KT 10SM CLR A3013 RMK MADISHF
BHM,2017-04-01 14:50,-86.7449,33.5655,M,M,M,10.00,6.00,M,30.13,M,10.00,M,CLR,M,M,M,M,M,M,M,M,KBHM 011450Z AUTO 01006KT 10SM CLR A3013 RMK MADISHF
BHM,2017-04-01 14:53,-86.7449,33.5655,64.90,48.90,56.12,340.00,8.00,0.00,30.13,1019.90,10.00,M,CLR,M,M,M,M,M,M,M,M,KBHM 011453Z 34008KT 10SM CLR 18/09 A3013 RMK AO2 SLP199 T01830094 51015
BHM,2017-04-01 14:55,-86.7449,33.5655,M,M,M,350.00,9.00,M,30.13,M,10.00,M,CLR,M,M,M,M,M,M,M,M,KBHM 011455Z AUTO 35009KT 10SM CLR A3013 RMK MADISHF
BHM,2017-04-01 15:00,-86.7449,33.5655,M,M,M,340.00,8.00,M,30.13,M,10.00,M,CLR,M,M,M,M,M,M,M,M,KBHM 011500Z AUTO 34008KT 10SM CLR A3013 RMK MADISHF
BHM,2017-04-01 15:05,-86.7449,33.5655,M,M,M,350.00,6.00,M,30.14,M,10.00,M,CLR,M,M,M,M,M,M,M,M,KBHM 011505Z AUTO 35006KT 10SM CLR A3014 RMK MADISHF
BHM,2017-04-01 15:10,-86.7449,33.5655,M,M,M,360.00,7.00,M,30.14,M,10.00,M,CLR,M,M,M,M,M,M,M,M,KBHM 011510Z AUTO 36007KT 10SM CLR A3014 RMK MADISHF
BHM,2017-04-01 15:15,-86.7449,33.5655,M,M,M,20.00,5.00,M,30.14,M,10.00,M,CLR,M,M,M,M,M,M,M,M,KBHM 011515Z AUTO 02005KT 10SM CLR A3014 RMK MADISHF
BHM,2017-04-01 15:20,-86.7449,33.5655,M,M,M,20.00,6.00,M,30.14,M,10.00,M,CLR,M,M,M,M,M,M,M,M,KBHM 011520Z AUTO 02006KT 10SM CLR A3014 RMK MADISHF
BHM,2017-04-01 15:25,-86.7449,33.5655,M,M,M,330.00,7.00,M,30.14,M,10.00,M,CLR,M,M,M,M,M,M,M,M,KBHM 011525Z AUTO 33007KT 10SM CLR A3014 RMK MADISHF
BHM,2017-04-01 15:30,-86.7449,33.5655,M,M,M,330.00,9.00,M,30.14,M,10.00,M,CLR,M,M,M,M,M,M,M,M,KBHM 011530Z AUTO 33009KT 10SM CLR A3014 RMK MADISHF
BHM,2017-04-01 15:35,-86.7449,33.5655,M,M,M,350.00,7.00,M,30.14,M,10.00,M,CLR,M,M,M,M,M,M,M,M,KBHM 011535Z AUTO 35007KT 10SM CLR A3014 RMK MADISHF
BHM,2017-04-01 15:40,-86.7449,33.5655,M,M,M,320.00,5.00,M,30.14,M,10.00,M,CLR,M,M,M,M,M,M,M,M,KBHM 011540Z AUTO 32005KT 10SM CLR A3014 RMK MADISHF
BHM,2017-04-01 15:45,-86.7449,33.5655,M,M,M,330.00,6.00,M,30.14,M,10.00,M,CLR,M,M,M,M,M,M,M,M,KBHM 011545Z AUTO 33006KT 10SM CLR A3014 RMK MADISHF
BHM,2017-04-01 15:50,-86.7449,33.5655,M,M,M,360.00,6.00,M,30.14,M,10.00,M,CLR,M,M,M,M,M,M,M,M,KBHM 011550Z AUTO 36006KT 10SM CLR A3014 RMK MADISHF
BHM,2017-04-01 15:53,-86.7449,33.5655,68.00,48.90,50.40,330.00,8.00,0.00,30.14,1020.20,10.00,M,CLR,M,M,M,M,M,M,M,M,KBHM 011553Z 33008KT 310V010 10SM CLR 20/09 A3014 RMK AO2 SLP202 T02000094
BHM,2017-04-01 15:55,-86.7449,33.5655,M,M,M,310.00,9.00,M,30.14,M,10.00,M,CLR,M,M,M,M,M,M,M,M,KBHM 011555Z AUTO 31009KT 10SM CLR A3014 RMK MADISHF
BHM,2017-04-01 16:00,-86.7449,33.5655,M,M,M,320.00,8.00,M,30.14,M,10.00,M,CLR,M,M,M,M,M,M,M,M,KBHM 011600Z AUTO 32008KT 10SM CLR A3014 RMK MADISHF
BHM,2017-04-01 16:05,-86.7449,33.5655,M,M,M,330.00,8.00,M,30.14,M,10.00,M,CLR,M,M,M,M,M,M,M,M,KBHM 011605Z AUTO 33008KT 10SM CLR A3014 RMK MADISHF
BHM,2017-04-01 16:10,-86.7449,33.5655,M,M,M,320.00,6.00,M,30.14,M,10.00,M,CLR,M,M,M,M,M,M,M,M,KBHM 011610Z AUTO 32006KT 10SM CLR A3014 RMK MADISHF
BHM,2017-04-01 16:15,-86.7449,33.5655,M,M,M,350.00,7.00,M,30.14,M,10.00,M,CLR,M,M,M,M,M,M,M,M,KBHM 011615Z AUTO 35007KT 10SM CLR A3014 RMK MADISHF
BHM,2017-04-01 16:20,-86.7449,33.5655,M,M,M,350.00,7.00,M,30.13,M,10.00,M,CLR,M,M,M,M,M,M,M,M,KBHM 011620Z AUTO 35007KT 10SM CLR A3013 RMK WND 29V01  MADISHF
BHM,2017-04-01 16:25,-86.7449,33.5655,M,M,M,340.00,8.00,M,30.14,M,10.00,M,CLR,M,M,M,M,M,M,M,M,KBHM 011625Z AUTO 34008KT 10SM CLR A3014 RMK MADISHF
BHM,2017-04-01 16:30,-86.7449,33.5655,M,M,M,320.00,6.00,M,30.13,M,10.00,M,CLR,M,M,M,M,M,M,M,M,KBHM 011630Z AUTO 32006KT 10SM CLR A3013 RMK MADISHF
BHM,2017-04-01 16:35,-86.7449,33.5655,M,M,M,310.00,7.00,M,30.13,M,10.00,M,CLR,M,M,M,M,M,M,M,M,KBHM 011635Z AUTO 31007KT 10SM CLR A3013 RMK MADISHF
BHM,2017-04-01 16:40,-86.7449,33.5655,M,M,M,350.00,6.00,M,30.13,M,10.00,M,CLR,M,M,M,M,M,M,M,M,KBHM 011640Z AUTO 35006KT 10SM CLR A3013 RMK MADISHF
BHM,2017-04-01 16:45,-86.7449,33.5655,M,M,M,330.00,9.00,M,30.13,M,10.00,M,CLR,M,M,M,M,M,M,M,M,KBHM 011645Z AUTO 33009KT 10SM CLR A3013 RMK MADISHF
BHM,2017-04-01 16:50,-86.7449,33.5655,M,M,M,10.00,4.00,M,30.13,M,10.00,M,CLR,M,M,M,M,M,M,M,M,KBHM 011650Z AUTO 01004KT 10SM CLR A3013 RMK MADISHF
BHM,2017-04-01 16:53,-86.7449,33.5655,70.00,48.90,47.06,320.00,7.00,0.00,30.13,1019.80,10.00,M,CLR,M,M,M,M,M,M,M,M,KBHM 011653Z 32007KT 300V360 10SM CLR 21/09 A3013 RMK AO2 SLP198 T02110094
BHM,2017-04-01 16:55,-86.7449,33.5655,M,M,M,320.00,8.00,M,30.13,M,10.00,M,CLR,M,M,M,M,M,M,M,M,KBHM 011655Z AUTO 32008KT 10SM CLR A3013 RMK MADISHF
BHM,2017-04-01 17:00,-86.7449,33.5655,M,M,M,300.00,6.00,M,30.13,M,10.00,M,CLR,M,M,M,M,M,M,M,M,KBHM 011700Z AUTO 30006KT 10SM CLR A3013 RMK MADISHF
BHM,2017-04-01 17:05,-86.7449,33.5655,M,M,M,360.00,8.00,M,30.13,M,10.00,M,CLR,M,M,M,M,M,M,M,M,KBHM 011705Z AUTO 36008KT 10SM CLR A3013 RMK MADISHF
BHM,2017-04-01 17:10,-86.7449,33.5655,M,M,M,340.00,11.00,M,30.12,M,10.00,M,CLR,M,M,M,M,M,M,M,M,KBHM 011710Z AUTO 34011KT 10SM CLR A3012 RMK MADISHF
BHM,2017-04-01 17:15,-86.7449,33.5655,M,M,M,340.00,10.00,M,30.12,M,10.00,M,CLR,M,M,M,M,M,M,M,M,KBHM 011715Z AUTO 34010KT 10SM CLR A3012 RMK MADISHF
BHM,2017-04-01 17:20,-86.7449,33.5655,M,M,M,310.00,6.00,M,30.12,M,10.00,M,CLR,M,M,M,M,M,M,M,M,KBHM 011720Z AUTO 31006KT 10SM CLR A3012 RMK MADISHF
BHM,2017-04-01 17:25,-86.7449,33.5655,M,M,M,10.00,9.00,M,30.12,M,10.00,M,CLR,M,M,M,M,M,M,M,M,KBHM 011725Z AUTO 01009KT 10SM CLR A3012 RMK MADISHF
BHM,2017-04-01 17:30,-86.7449,33.5655,M,M,M,340.00,7.00,M,30.11,M,10.00,M,CLR,M,M,M,M,M,M,M,M,KBHM 011730Z AUTO 34007KT 10SM CLR A3011 RMK MADISHF
BHM,2017-04-01 17:35,-86.7449,33.5655,M,M,M,350.00,8.00,M,30.11,M,10.00,M,CLR,M,M,M,M,M,M,M,M,KBHM 011735Z AUTO 35008KT 10SM CLR A3011 RMK MADISHF
BHM,2017-04-01 17:40,-86.7449,33.5655,M,M,M,330.00,9.00,M,30.11,M,10.00,M,CLR,M,M,M,M,M,M,M,M,KBHM 011740Z AUTO 33009KT 10SM CLR A3011 RMK MADISHF
BHM,2017-04-01 17:45,-86.7449,33.5655,M,M,M,350.00,7.00,M,30.11,M,10.00,M,CLR,M,M,M,M,M,M,M,M,KBHM 011745Z AUTO 35007KT 10SM CLR A3011 RMK MADISHF
BHM,2017-04-01 17:50,-86.7449,33.5655,M,M,M,350.00,6.00,M,30.11,M,10.00,M,CLR,M,M,M,M,M,M,M,M,KBHM 011750Z AUTO 35006KT 10SM CLR A3011 RMK MADISHF
BHM,2017-04-01 17:53,-86.7449,33.5655,73.00,48.00,41.10,320.00,4.00,0.00,30.11,1019.00,10.00,M,CLR,M,M,M,M,M,M,M,M,KBHM 011753Z 32004KT 10SM CLR 23/09 A3011 RMK AO2 SLP190 T02280089 10233 20100 58008
BHM,2017-04-01 17:55,-86.7449,33.5655,M,M,M,310.00,4.00,M,30.11,M,10.00,M,CLR,M,M,M,M,M,M,M,M,KBHM 011755Z AUTO 31004KT 10SM CLR A3011 RMK VRB04KT  MADISHF
BHM,2017-04-01 18:00,-86.7449,33.5655,M,M,M,M,M,M,30.10,M,10.00,M,CLR,M,M,M,M,M,M,M,M,KBHM 011800Z AUTO /////KT 10SM CLR A3010 RMK MADISHF
BHM,2017-04-01 18:05,-86.7449,33.5655,M,M,M,340.00,5.00,M,30.11,M,10.00,M,CLR,M,M,M,M,M,M,M,M,KBHM 011805Z AUTO 34005KT 10SM CLR A3011 RMK MADISHF
BHM,2017-04-01 18:10,-86.7449,33.5655,M,M,M,340.00,9.00,M,30.10,M,10.00,M,CLR,M,M,M,M,M,M,M,M,KBHM 011810Z AUTO 34009KT 10SM CLR A3010 RMK MADISHF
BHM,2017-04-01 18:15,-86.7449,33.5655,M,M,M,340.00,10.00,M,30.10,M,10.00,M,CLR,M,M,M,M,M,M,M,M,KBHM 011815Z AUTO 34010KT 10SM CLR A3010 RMK MADISHF
BHM,2017-04-01 18:20,-86.7449,33.5655,M,M,M,340.00,8.00,M,30.10,M,10.00,M,CLR,M,M,M,M,M,M,M,M,KBHM 011820Z AUTO 34008KT 10SM CLR A3010 RMK MADISHF
BHM,2017-04-01 18:25,-86.7449,33.5655,M,M,M,350.00,9.00,M,30.11,M,10.00,M,CLR,M,M,M,M,M,M,M,M,KBHM 011825Z AUTO 35009KT 10SM CLR A3011 RMK WND 31V02  MADISHF
BHM,2017-04-01 18:30,-86.7449,33.5655,M,M,M,350.00,9.00,M,30.10,M,10.00,M,CLR,M,M,M,M,M,M,M,M,KBHM 011830Z AUTO 35009KT 10SM CLR A3010 RMK MADISHF
BHM,2017-04-01 18:35,-86.7449,33.5655,M,M,M,350.00,8.00,M,30.10,M,10.00,M,CLR,M,M,M,M,M,M,M,M,KBHM 011835Z AUTO 35008KT 10SM CLR A3010 RMK MADISHF
BHM,2017-04-01 18:40,-86.7449,33.5655,M,M,M,360.00,5.00,M,30.10,M,10.00,M,M,M,M,M,M,M,M,M,M,KBHM 011840Z AUTO 36005KT 10SM A3010 RMK VRB05KT  MADISHF
BHM,2017-04-01 18:45,-86.7449,33.5655,M,M,M,360.00,9.00,M,30.10,M,10.00,M,M,M,M,M,M,M,M,M,M,KBHM 011845Z AUTO 36009KT 10SM A3010 RMK MADISHF
BHM,2017-04-01 18:50,-86.7449,33.5655,M,M,M,10.00,9.00,M,30.10,M,10.00,M,M,M,M,M,M,M,M,M,M,KBHM 011850Z AUTO 01009KT 10SM A3010 RMK MADISHF
BHM,2017-04-01 18:53,-86.7449,33.5655,75.90,45.00,33.30,340.00,8.00,0.00,30.10,1018.70,10.00,M,FEW,M,M,M,25000.00,M,M,M,M,KBHM 011853Z 34008KT 10SM FEW250 24/07 A3010 RMK AO2 SLP187 T02440072
BHM,2017-04-01 18:55,-86.7449,33.5655,M,M,M,330.00,7.00,M,30.10,M,10.00,M,CLR,M,M,M,M,M,M,M,M,KBHM 011855Z AUTO 33007KT 10SM CLR A3010 RMK WND 32V02  MADISHF
BHM,2017-04-01 19:00,-86.7449,33.5655,M,M,M,350.00,6.00,M,30.10,M,10.00,M,CLR,M,M,M,M,M,M,M,M,KBHM 011900Z AUTO 35006KT 10SM CLR A3010 RMK MADISHF
BHM,2017-04-01 19:05,-86.7449,33.5655,M,M,M,10.00,4.00,M,30.10,M,10.00,M,CLR,M,M,M,M,M,M,M,M,KBHM 011905Z AUTO 01004KT 10SM CLR A3010 RMK MADISHF
BHM,2017-04-01 19:10,-86.7449,33.5655,M,M,M,340.00,8.00,M,30.09,M,10.00,M,CLR,M,M,M,M,M,M,M,M,KBHM 011910Z AUTO 34008KT 10SM CLR A3009 RMK WND 30V09  MADISHF
BHM,2017-04-01 19:15,-86.7449,33.5655,M,M,M,10.00,7.00,M,30.09,M,10.00,M,CLR,M,M,M,M,M,M,M,M,KBHM 011915Z AUTO 01007KT 10SM CLR A3009 RMK WND 34V04  MADISHF
BHM,2017-04-01 19:20,-86.7449,33.5655,M,M,M,20.00,9.00,M,30.09,M,10.00,M,CLR,M,M,M,M,M,M,M,M,KBHM 011920Z AUTO 02009KT 10SM CLR A3009 RMK MADISHF
BHM,2017-04-01 19:25,-86.7449,33.5655,M,M,M,20.00,6.00,M,30.09,M,10.00,M,CLR,M,M,M,M,M,M,M,M,KBHM 011925Z AUTO 02006KT 10SM CLR A3009 RMK MADISHF
BHM,2017-04-01 19:30,-86.7449,33.5655,M,M,M,330.00,4.00,M,30.09,M,10.00,M,CLR,M,M,M,M,M,M,M,M,KBHM 011930Z AUTO 33004KT 10SM CLR A3009 RMK VRB04KT  MADISHF
BHM,2017-04-01 19:35,-86.7449,33.5655,M,M,M,300.00,5.00,M,30.08,M,10.00,M,CLR,M,M,M,M,M,M,M,M,KBHM 011935Z AUTO 30005KT 10SM CLR A3008 RMK MADISHF
BHM,2017-04-01 19:40,-86.7449,33.5655,M,M,M,40.00,8.00,M,30.08,M,10.00,M,CLR,M,M,M,M,M,M,M,M,KBHM 011940Z AUTO 04008KT 10SM CLR A3008 RMK MADISHF
BHM,2017-04-01 19:45,-86.7449,33.5655,M,M,M,40.00,4.00,M,30.08,M,10.00,M,CLR,M,M,M,M,M,M,M,M,KBHM 011945Z AUTO 04004KT 10SM CLR A3008 RMK MADISHF
BHM,2017-04-01 19:50,-86.7449,33.5655,M,M,M,0.00,0.00,M,30.08,M,10.00,M,CLR,M,M,M,M,M,M,M,M,KBHM 011950Z AUTO 00000KT 10SM CLR A3008 RMK MADISHF
BHM,2017-04-01 19:53,-86.7449,33.5655,77.00,44.10,31.02,M,5.00,0.00,30.08,1018.00,10.00,M,FEW,M,M,M,25000.00,M,M,M,M,KBHM 011953Z VRB05KT 10SM FEW250 25/07 A3008 RMK AO2 SLP180 T02500067
BHM,2017-04-01 19:55,-86.7449,33.5655,M,M,M,310.00,8.00,M,30.08,M,10.00,M,CLR,M,M,M,M,M,M,M,M,KBHM 011955Z AUTO 31008KT 10SM CLR A3008 RMK MADISHF
BHM,2017-04-01 20:00,-86.7449,33.5655,M,M,M,320.00,7.00,M,30.08,M,10.00,M,CLR,M,M,M,M,M,M,M,M,KBHM 012000Z AUTO 32007KT 10SM CLR A3008 RMK MADISHF
BHM,2017-04-01 20:05,-86.7449,33.5655,M,M,M,340.00,6.00,M,30.08,M,10.00,M,CLR,M,M,M,M,M,M,M,M,KBHM 012005Z AUTO 34006KT 10SM CLR A3008 RMK MADISHF
BHM,2017-04-01 20:10,-86.7449,33.5655,M,M,M,0.00,0.00,M,30.08,M,10.00,M,CLR,M,M,M,M,M,M,M,M,KBHM 012010Z AUTO 00000KT 10SM CLR A3008 RMK MADISHF
BHM,2017-04-01 20:15,-86.7449,33.5655,M,M,M,0.00,0.00,M,30.07,M,10.00,M,CLR,M,M,M,M,M,M,M,M,KBHM 012015Z AUTO 00000KT 10SM CLR A3007 RMK MADISHF
BHM,2017-04-01 20:20,-86.7449,33.5655,M,M,M,0.00,0.00,M,30.07,M,10.00,M,CLR,M,M,M,M,M,M,M,M,KBHM 012020Z AUTO 00000KT 10SM CLR A3007 RMK MADISHF
BHM,2017-04-01 20:25,-86.7449,33.5655,M,M,M,350.00,5.00,M,30.07,M,10.00,M,CLR,M,M,M,M,M,M,M,M,KBHM 012025Z AUTO 35005KT 10SM CLR A3007 RMK MADISHF
BHM,2017-04-01 20:30,-86.7449,33.5655,M,M,M,350.00,6.00,M,30.07,M,10.00,M,CLR,M,M,M,M,M,M,M,M,KBHM 012030Z AUTO 35006KT 10SM CLR A3007 RMK VRB06KT  MADISHF
BHM,2017-04-01 20:35,-86.7449,33.5655,M,M,M,10.00,9.00,M,30.07,M,10.00,M,CLR,M,M,M,M,M,M,M,M,KBHM 012035Z AUTO 01009KT 10SM CLR A3007 RMK MADISHF
BHM,2017-04-01 20:40,-86.7449,33.5655,M,M,M,20.00,7.00,M,30.07,M,10.00,M,CLR,M,M,M,M,M,M,M,M,KBHM 012040Z AUTO 02007KT 10SM CLR A3007 RMK MADISHF
BHM,2017-04-01 20:45,-86.7449,33.5655,M,M,M,350.00,4.00,M,30.07,M,10.00,M,CLR,M,M,M,M,M,M,M,M,KBHM 012045Z AUTO 35004KT 10SM CLR A3007 RMK MADISHF
BHM,2017-04-01 20:50,-86.7449,33.5655,M,M,M,300.00,6.00,M,30.07,M,10.00,M,CLR,M,M,M,M,M,M,M,M,KBHM 012050Z AUTO 30006KT 10SM CLR A3007 RMK MADISHF
BHM,2017-04-01 20:53,-86.7449,33.5655,79.00,45.00,30.05,290.00,8.00,0.00,30.07,1017.70,10.00,M,FEW,M,M,M,25000.00,M,M,M,M,KBHM 012053Z 29008KT 10SM FEW250 26/07 A3007 RMK AO2 SLP177 T02610072 57013
BHM,2017-04-01 20:55,-86.7449,33.5655,M,M,M,300.00,8.00,M,30.07,M,10.00,M,CLR,M,M,M,M,M,M,M,M,KBHM 012055Z AUTO 30008KT 10SM CLR A3007 RMK MADISHF
BHM,2017-04-01 21:00,-86.7449,33.5655,M,M,M,310.00,6.00,M,30.07,M,10.00,M,CLR,M,M,M,M,M,M,M,M,KBHM 012100Z AUTO 31006KT 10SM CLR A3007 RMK MADISHF
BHM,2017-04-01 21:05,-86.7449,33.5655,M,M,M,290.00,3.00,M,30.07,M,10.00,M,CLR,M,M,M,M,M,M,M,M,KBHM 012105Z AUTO 29003KT 10SM CLR A3007 RMK VRB03KT  MADISHF
BHM,2017-04-01 21:10,-86.7449,33.5655,M,M,M,340.00,5.00,M,30.07,M,10.00,M,CLR,M,M,M,M,M,M,M,M,KBHM 012110Z AUTO 34005KT 10SM CLR A3007 RMK VRB05KT  MADISHF
BHM,2017-04-01 21:15,-86.7449,33.5655,M,M,M,340.00,7.00,M,30.07,M,10.00,M,CLR,M,M,M,M,M,M,M,M,KBHM 012115Z AUTO 34007KT 10SM CLR A3007 RMK MADISHF
BHM,2017-04-01 21:20,-86.7449,33.5655,M,M,M,340.00,6.00,M,30.07,M,10.00,M,CLR,M,M,M,M,M,M,M,M,KBHM 012120Z AUTO 34006KT 10SM CLR A3007 RMK MADISHF
BHM,2017-04-01 21:25,-86.7449,33.5655,M,M,M,330.00,6.00,M,30.07,M,10.00,M,CLR,M,M,M,M,M,M,M,M,KBHM 012125Z AUTO 33006KT 10SM CLR A3007 RMK MADISHF
BHM,2017-04-01 21:30,-86.7449,33.5655,M,M,M,350.00,8.00,M,30.07,M,10.00,M,CLR,M,M,M,M,M,M,M,M,KBHM 012130Z AUTO 35008KT 10SM CLR A3007 RMK WND 33V04  MADISHF
BHM,2017-04-01 21:35,-86.7449,33.5655,M,M,M,360.00,4.00,M,30.07,M,10.00,M,CLR,M,M,M,M,M,M,M,M,KBHM 012135Z AUTO 36004KT 10SM CLR A3007 RMK MADISHF
BHM,2017-04-01 21:40,-86.7449,33.5655,M,M,M,10.00,6.00,M,30.07,M,10.00,M,CLR,M,M,M,M,M,M,M,M,KBHM 012140Z AUTO 01006KT 10SM CLR A3007 RMK MADISHF
BHM,2017-04-01 21:45,-86.7449,33.5655,M,M,M,360.00,9.00,M,30.07,M,10.00,M,CLR,M,M,M,M,M,M,M,M,KBHM 012145Z AUTO 36009KT 10SM CLR A3007 RMK MADISHF
BHM,2017-04-01 21:50,-86.7449,33.5655,M,M,M,340.00,9.00,M,30.07,M,10.00,M,CLR,M,M,M,M,M,M,M,M,KBHM 012150Z AUTO 34009KT 10SM CLR A3007 RMK MADISHF
BHM,2017-04-01 21:53,-86.7449,33.5655,79.00,45.00,30.05,350.00,8.00,0.00,30.07,1017.80,10.00,M,FEW,M,M,M,25000.00,M,M,M,M,KBHM 012153Z 35008KT 10SM FEW250 26/07 A3007 RMK AO2 SLP178 T02610072
BHM,2017-04-01 21:55,-86.7449,33.5655,M,M,M,350.00,6.00,M,30.07,M,10.00,M,CLR,M,M,M,M,M,M,M,M,KBHM 012155Z AUTO 35006KT 10SM CLR A3007 RMK MADISHF
BHM,2017-04-01 22:00,-86.7449,33.5655,M,M,M,340.00,7.00,M,30.07,M,10.00,M,CLR,M,M,M,M,M,M,M,M,KBHM 012200Z AUTO 34007KT 10SM CLR A3007 RMK MADISHF
BHM,2017-04-01 22:05,-86.7449,33.5655,M,M,M,10.00,7.00,M,30.07,M,10.00,M,CLR,M,M,M,M,M,M,M,M,KBHM 012205Z AUTO 01007KT 10SM CLR A3007 RMK MADISHF
BHM,2017-04-01 22:10,-86.7449,33.5655,M,M,M,360.00,9.00,M,30.07,M,10.00,M,CLR,M,M,M,M,M,M,M,M,KBHM 012210Z AUTO 36009KT 10SM CLR A3007 RMK MADISHF
BHM,2017-04-01 22:15,-86.7449,33.5655,M,M,M,340.00,9.00,M,30.07,M,10.00,M,CLR,M,M,M,M,M,M,M,M,KBHM 012215Z AUTO 34009KT 10SM CLR A3007 RMK MADISHF
BHM,2017-04-01 22:20,-86.7449,33.5655,M,M,M,350.00,10.00,M,30.07,M,10.00,M,CLR,M,M,M,M,M,M,M,M,KBHM 012220Z AUTO 35010KT 10SM CLR A3007 RMK MADISHF
BHM,2017-04-01 22:25,-86.7449,33.5655,M,M,M,340.00,10.00,M,30.07,M,10.00,M,M,M,M,M,M,M,M,M,M,KBHM 012225Z AUTO 34010KT 10SM A3007 RMK MADISHF
BHM,2017-04-01 22:30,-86.7449,33.5655,M,M,M,350.00,5.00,M,30.07,M,10.00,M,M,M,M,M,M,M,M,M,M,KBHM 012230Z AUTO 35005KT 10SM A3007 RMK MADISHF
BHM,2017-04-01 22:35,-86.7449,33.5655,M,M,M,340.00,9.00,M,30.07,M,10.00,M,M,M,M,M,M,M,M,M,M,KBHM 012235Z AUTO 34009KT 10SM A3007 RMK MADISHF
BHM,2017-04-01 22:40,-86.7449,33.5655,M,M,M,330.00,8.00,M,30.07,M,10.00,M,M,M,M,M,M,M,M,M,M,KBHM 012240Z AUTO 33008KT 10SM A3007 RMK MADISHF
BHM,2017-04-01 22:45,-86.7449,33.5655,M,M,M,320.00,8.00,M,30.07,M,10.00,M,M,M,M,M,M,M,M,M,M,KBHM 012245Z AUTO 32008KT 10SM A3007 RMK MADISHF
BHM,2017-04-01 22:50,-86.7449,33.5655,M,M,M,350.00,9.00,M,30.07,M,10.00,M,M,M,M,M,M,M,M,M,M,KBHM 012250Z AUTO 35009KT 10SM A3007 RMK MADISHF
BHM,2017-04-01 22:53,-86.7449,33.5655,77.00,45.00,32.10,350.00,8.00,0.00,30.07,1017.80,10.00,M,FEW,M,M,M,25000.00,M,M,M,M,KBHM 012253Z 35008KT 10SM FEW250 25/07 A3007 RMK AO2 SLP178 T02500072
BHM,2017-04-01 22:55,-86.7449,33.5655,M,M,M,320.00,9.00,M,30.07,M,10.00,M,CLR,M,M,M,M,M,M,M,M,KBHM 012255Z AUTO 32009KT 10SM CLR A3007 RMK MADISHF
BHM,2017-04-01 23:00,-86.7449,33.5655,M,M,M,340.00,8.00,M,30.07,M,10.00,M,CLR,M,M,M,M,M,M,M,M,KBHM 012300Z AUTO 34008KT 10SM CLR A3007 RMK MADISHF
BHM,2017-04-01 23:05,-86.7449,33.5655,M,M,M,340.00,9.00,M,30.07,M,10.00,M,CLR,M,M,M,M,M,M,M,M,KBHM 012305Z AUTO 34009KT 10SM CLR A3007 RMK MADISHF
BHM,2017-04-01 23:10,-86.7449,33.5655,M,M,M,330.00,7.00,M,30.07,M,10.00,M,CLR,M,M,M,M,M,M,M,M,KBHM 012310Z AUTO 33007KT 10SM CLR A3007 RMK MADISHF
BHM,2017-04-01 23:15,-86.7449,33.5655,M,M,M,330.00,8.00,M,30.08,M,10.00,M,CLR,M,M,M,M,M,M,M,M,KBHM 012315Z AUTO 33008KT 10SM CLR A3008 RMK MADISHF
BHM,2017-04-01 23:20,-86.7449,33.5655,M,M,M,350.00,6.00,M,30.08,M,10.00,M,CLR,M,M,M,M,M,M,M,M,KBHM 012320Z AUTO 35006KT 10SM CLR A3008 RMK MADISHF
BHM,2017-04-01 23:25,-86.7449,33.5655,M,M,M,350.00,7.00,M,30.08,M,10.00,M,CLR,M,M,M,M,M,M,M,M,KBHM 012325Z AUTO 35007KT 10SM CLR A3008 RMK MADISHF
BHM,2017-04-01 23:30,-86.7449,33.5655,M,M,M,340.00,8.00,M,30.08,M,10.00,M,CLR,M,M,M,M,M,M,M,M,KBHM 012330Z AUTO 34008KT 10SM CLR A3008 RMK MADISHF
BHM,2017-04-01 23:35,-86.7449,33.5655,M,M,M,340.00,9.00,M,30.08,M,10.00,M,CLR,M,M,M,M,M,M,M,M,KBHM 012335Z AUTO 34009KT 10SM CLR A3008 RMK MADISHF
BHM,2017-04-01 23:40,-86.7449,33.5655,M,M,M,340.00,8.00,M,30.08,M,10.00,M,CLR,M,M,M,M,M,M,M,M,KBHM 012340Z AUTO 34008KT 10SM CLR A3008 RMK MADISHF
BHM,2017-04-01 23:45,-86.7449,33.5655,M,M,M,350.00,7.00,M,30.08,M,10.00,M,CLR,M,M,M,M,M,M,M,M,KBHM 012345Z AUTO 35007KT 10SM CLR A3008 RMK MADISHF
BHM,2017-04-01 23:50,-86.7449,33.5655,M,M,M,350.00,7.00,M,30.08,M,10.00,M,CLR,M,M,M,M,M,M,M,M,KBHM 012350Z AUTO 35007KT 10SM CLR A3008 RMK MADISHF
BHM,2017-04-01 23:53,-86.7449,33.5655,73.00,46.90,39.43,350.00,7.00,0.00,30.08,1018.30,10.00,M,SCT,M,M,M,25000.00,M,M,M,M,KBHM 012353Z 35007KT 10SM SCT250 23/08 A3008 RMK AO2 SLP183 T02280083 10267 20228 53005
BHM,2017-04-01 23:55,-86.7449,33.5655,M,M,M,350.00,7.00,M,30.08,M,10.00,M,CLR,M,M,M,M,M,M,M,M,KBHM 012355Z AUTO 35007KT 10SM CLR A3008 RMK MADISHF
