#DEBUG: Format Typ    -> comma
#DEBUG: Time Period   -> 2017-04-01 00:00:00+00:00 2017-04-02 00:00:00+00:00
#DEBUG: Time Zone     -> Etc/UTC
#DEBUG: Data Contact   -> daryl herzmann akrherz@iastate.edu 515-294-5978
#DEBUG: Entries Found -> -1
station,valid,lon,lat,tmpf, dwpf, relh, drct, sknt, p01i, alti, mslp, vsby, gust, skyc1, skyc2, skyc3, skyc4, skyl1, skyl2, skyl3, skyl4, presentwx, metar
BIE,2017-04-01 00:15,-96.7541,40.3013,51.30,42.40,71.48,50.00,3.00,0.00,30.01,M,10.00,M,OVC,M,M,M,3300.00,M,M,M,M,KBIE 010015Z AUTO 05003KT 10SM OVC033 11/06 A3001 RMK AO2 T01070058
BIE,2017-04-01 00:35,-96.7541,40.3013,50.90,42.40,72.55,60.00,5.00,0.00,30.01,M,10.00,M,OVC,M,M,M,3300.00,M,M,M,M,KBIE 010035Z AUTO 06005KT 10SM OVC033 11/06 A3001 RMK AO2 T01050058
BIE,2017-04-01 00:55,-96.7541,40.3013,50.00,42.60,75.59,50.00,3.00,0.00,30.01,M,10.00,M,BKN,M,M,M,3700.00,M,M,M,M,KBIE 010055Z AUTO 05003KT 10SM BKN037 10/06 A3001 RMK AO2 T01000059
BIE,2017-04-01 01:15,-96.7541,40.3013,48.00,42.30,80.52,40.00,4.00,0.00,30.01,M,10.00,M,OVC,M,M,M,3900.00,M,M,M,M,KBIE 010115Z AUTO 04004KT 10SM OVC039 09/06 A3001 RMK AO2 T00890057
BIE,2017-04-01 01:35,-96.7541,40.3013,48.90,43.00,79.98,30.00,3.00,0.00,30.03,M,10.00,M,OVC,M,M,M,3900.00,M,M,M,M,KBIE 010135Z AUTO 03003KT 10SM OVC039 09/06 A3003 RMK AO2 T00940061
BIE,2017-04-01 01:55,-96.7541,40.3013,48.90,43.00,79.98,30.00,3.00,0.00,30.04,M,10.00,M,OVC,M,M,M,3700.00,M,M,M,M,KBIE 010155Z AUTO 03003KT 10SM OVC037 09/06 A3004 RMK AO2 T00940061
BIE,2017-04-01 02:15,-96.7541,40.3013,49.10,43.20,79.99,40.00,4.00,0.00,30.05,M,10.00,M,OVC,M,M,M,3700.00,M,M,M,M,KBIE 010215Z AUTO 04004KT 10SM OVC037 10/06 A3005 RMK AO2 T00950062
BIE,2017-04-01 02:35,-96.7541,40.3013,48.90,43.20,80.59,40.00,4.00,0.00,30.06,M,10.00,M,OVC,M,M,M,3900.00,M,M,M,M,KBIE 010235Z AUTO 04004KT 10SM OVC039 09/06 A3006 RMK AO2 T00940062
BIE,2017-04-01 02:55,-96.7541,40.3013,48.70,43.30,81.51,40.00,4.00,0.00,30.06,M,10.00,M,OVC,M,M,M,3900.00,M,M,M,M,KBIE 010255Z AUTO 04004KT 10SM OVC039 09/06 A3006 RMK AO2 T00930063
BIE,2017-04-01 03:15,-96.7541,40.3013,48.70,43.20,81.20,50.00,5.00,0.00,30.07,M,10.00,M,OVC,M,M,M,3900.00,M,M,M,M,KBIE 010315Z AUTO 05005KT 10SM OVC039 09/06 A3007 RMK AO2 T00930062
BIE,2017-04-01 03:35,-96.7541,40.3013,49.10,43.00,79.38,70.00,4.00,0.00,30.07,M,10.00,M,OVC,M,M,M,3900.00,M,M,M,M,KBIE 010335Z AUTO 07004KT 10SM OVC039 10/06 A3007 RMK AO2 T00950061
BIE,2017-04-01 03:55,-96.7541,40.3013,48.70,43.20,81.20,0.00,0.00,0.00,30.08,M,10.00,M,OVC,M,M,M,3900.00,M,M,M,M,KBIE 010355Z AUTO 00000KT 10SM OVC039 09/06 A3008 RMK AO2 T00930062
BIE,2017-04-01 04:15,-96.7541,40.3013,47.50,43.70,86.58,0.00,0.00,0.00,30.09,M,10.00,M,OVC,M,M,M,3700.00,M,M,M,M,KBIE 010415Z AUTO 00000KT 10SM OVC037 09/07 A3009 RMK AO2 T00860065
BIE,2017-04-01 04:35,-96.7541,40.3013,46.90,43.50,87.88,0.00,0.00,0.00,30.10,M,10.00,M,OVC,M,M,M,3700.00,M,M,M,M,KBIE 010435Z AUTO 00000KT 10SM OVC037 08/06 A3010 RMK AO2 T00830064
BIE,2017-04-01 04:55,-96.7541,40.3013,46.90,43.90,89.24,0.00,0.00,0.00,30.11,M,10.00,M,OVC,M,M,M,3700.00,M,M,M,M,KBIE 010455Z AUTO 00000KT 10SM OVC037 08/07 A3011 RMK AO2 T00830066
BIE,2017-04-01 05:15,-96.7541,40.3013,47.70,43.20,84.30,0.00,0.00,0.00,30.12,M,10.00,M,OVC,M,M,M,3700.00,M,M,M,M,KBIE 010515Z AUTO 00000KT 10SM OVC037 09/06 A3012 RMK AO2 T00870062
BIE,2017-04-01 05:35,-96.7541,40.3013,46.60,43.90,90.25,0.00,0.00,0.00,30.12,M,10.00,M,OVC,M,M,M,3700.00,M,M,M,M,KBIE 010535Z AUTO 00000KT 10SM OVC037 08/07 A3012 RMK AO2 T00810066
BIE,2017-04-01 05:55,-96.7541,40.3013,47.50,43.00,84.29,40.00,3.00,0.00,30.13,M,10.00,M,OVC,M,M,M,3700.00,M,M,M,M,KBIE 010555Z AUTO 04003KT 10SM OVC037 09/06 A3013 RMK AO2 T00860061 10107 20080
BIE,2017-04-01 06:15,-96.7541,40.3013,47.30,43.50,86.57,40.00,5.00,0.00,30.12,M,10.00,M,OVC,M,M,M,3500.00,M,M,M,M,KBIE 010615Z AUTO 04005KT 10SM OVC035 09/06 A3012 RMK AO2 T00850064
BIE,2017-04-01 06:35,-96.7541,40.3013,47.30,43.00,84.92,70.00,3.00,0.00,30.12,M,10.00,M,OVC,M,M,M,3500.00,M,M,M,M,KBIE 010635Z AUTO 07003KT 10SM OVC035 09/06 A3012 RMK AO2 LTG DSNT SW T00850061
BIE,2017-04-01 06:55,-96.7541,40.3013,47.30,42.80,84.28,70.00,3.00,0.00,30.12,M,10.00,M,OVC,M,M,M,3500.00,M,M,M,M,KBIE 010655Z AUTO 07003KT 10SM OVC035 09/06 A3012 RMK AO2 T00850060
BIE,2017-04-01 07:15,-96.7541,40.3013,47.10,42.80,84.91,50.00,4.00,0.00,30.12,M,10.00,M,OVC,M,M,M,3500.00,M,M,M,M,KBIE 010715Z AUTO 05004KT 10SM OVC035 08/06 A3012 RMK AO2 T00840060
BIE,2017-04-01 07:35,-96.7541,40.3013,46.90,42.60,84.90,50.00,3.00,0.00,30.12,M,10.00,M,OVC,M,M,M,3700.00,M,M,M,M,KBIE 010735Z AUTO 05003KT 10SM OVC037 08/06 A3012 RMK AO2 T00830059
BIE,2017-04-01 07:55,-96.7541,40.3013,46.40,42.60,86.52,40.00,3.00,0.00,30.12,M,10.00,M,OVC,M,M,M,3900.00,M,M,M,M,KBIE 010755Z AUTO 04003KT 10SM OVC039 08/06 A3012 RMK AO2 LTG DSNT SW T00800059
BIE,2017-04-01 08:15,-96.7541,40.3013,45.70,42.10,87.15,50.00,4.00,0.00,30.13,M,10.00,M,OVC,M,M,M,4100.00,M,M,M,M,KBIE 010815Z AUTO 05004KT 10SM OVC041 08/06 A3013 RMK AO2 T00760056
BIE,2017-04-01 08:35,-96.7541,40.3013,45.10,41.50,87.12,70.00,3.00,0.00,30.14,M,10.00,M,OVC,M,M,M,4100.00,M,M,M,M,KBIE 010835Z AUTO 07003KT 10SM OVC041 07/05 A3014 RMK AO2 LTG DSNT SW T00730053
BIE,2017-04-01 08:55,-96.7541,40.3013,44.60,41.40,88.45,80.00,4.00,0.00,30.15,M,10.00,M,OVC,M,M,M,4300.00,M,M,M,M,KBIE 010855Z AUTO 08004KT 10SM OVC043 07/05 A3015 RMK AO2 T00700052
BIE,2017-04-01 09:15,-96.7541,40.3013,44.20,41.20,89.11,70.00,4.00,0.00,30.14,M,10.00,M,SCT,M,M,M,4300.00,M,M,M,M,KBIE 010915Z AUTO 07004KT 10SM SCT043 07/05 A3014 RMK AO2 T00680051
BIE,2017-04-01 09:35,-96.7541,40.3013,43.70,41.00,90.13,60.00,3.00,0.00,30.14,M,10.00,M,CLR,M,M,M,M,M,M,M,M,KBIE 010935Z AUTO 06003KT 10SM CLR 07/05 A3014 RMK AO2 T00650050
BIE,2017-04-01 09:55,-96.7541,40.3013,43.00,41.00,92.58,70.00,3.00,0.00,30.14,M,10.00,M,CLR,M,M,M,M,M,M,M,M,KBIE 010955Z AUTO 07003KT 10SM CLR 06/05 A3014 RMK AO2 T00610050
BIE,2017-04-01 10:15,-96.7541,40.3013,43.00,41.00,92.58,0.00,0.00,0.00,30.15,M,10.00,M,CLR,M,M,M,M,M,M,M,M,KBIE 011015Z AUTO 00000KT 10SM CLR 06/05 A3015 RMK AO2 T00610050
BIE,2017-04-01 10:35,-96.7541,40.3013,42.80,41.00,93.30,0.00,0.00,0.00,30.17,M,10.00,M,CLR,M,M,M,M,M,M,M,M,KBIE 011035Z AUTO 00000KT 10SM CLR 06/05 A3017 RMK AO2 LTG DSNT SW T00600050
BIE,2017-04-01 10:55,-96.7541,40.3013,42.80,41.00,93.30,0.00,0.00,0.00,30.16,M,10.00,M,CLR,M,M,M,M,M,M,M,VCTS,KBIE 011055Z AUTO 00000KT 10SM VCTS CLR 06/05 A3016 RMK AO2 T00600050
BIE,2017-04-01 11:15,-96.7541,40.3013,42.60,41.00,94.02,70.00,5.00,0.00,30.16,M,10.00,M,SCT,M,M,M,12000.00,M,M,M,M,KBIE 011115Z AUTO 07005KT 10SM SCT120 06/05 A3016 RMK AO2 LTG DSNT S T00590050
BIE,2017-04-01 11:35,-96.7541,40.3013,42.40,41.00,94.74,0.00,0.00,0.00,30.17,M,10.00,M,BKN,M,M,M,11000.00,M,M,M,M,KBIE 011135Z AUTO 00000KT 10SM BKN110 06/05 A3017 RMK AO2 LTG DSNT S T00580050
BIE,2017-04-01 11:55,-96.7541,40.3013,42.10,41.00,95.84,0.00,0.00,0.00,30.17,M,10.00,M,OVC,M,M,M,10000.00,M,M,M,M,KBIE 011155Z AUTO 00000KT 10SM OVC100 06/05 A3017 RMK AO2 T00560050 10086 20056 401080050
BIE,2017-04-01 12:15,-96.7541,40.3013,41.90,41.00,96.58,60.00,4.00,0.00,30.16,M,10.00,M,BKN,BKN,M,M,8000.00,11000.00,M,M,M,KBIE 011215Z AUTO 06004KT 10SM BKN080 BKN110 06/05 A3016 RMK AO2 T00550050
BIE,2017-04-01 12:35,-96.7541,40.3013,42.10,41.00,95.84,90.00,4.00,0.00,30.17,M,10.00,M,SCT,SCT,M,M,8000.00,12000.00,M,M,M,KBIE 011235Z AUTO 09004KT 10SM SCT080 SCT120 06/05 A3017 RMK AO2 T00560050
BIE,2017-04-01 12:55,-96.7541,40.3013,42.40,41.00,94.74,90.00,6.00,0.00,30.17,M,7.00,M,SCT,BKN,M,M,8500.00,11000.00,M,M,M,KBIE 011255Z AUTO 09006KT 7SM SCT085 BKN110 06/05 A3017 RMK AO2 LTG DSNT SW T00580050
BIE,2017-04-01 13:15,-96.7541,40.3013,42.40,41.00,94.74,70.00,9.00,0.00,30.16,M,7.00,M,SCT,BKN,OVC,M,700.00,8500.00,11000.00,M,M,KBIE 011315Z AUTO 07009KT 7SM SCT007 BKN085 OVC110 06/05 A3016 RMK AO2 T00580050
BIE,2017-04-01 13:35,-96.7541,40.3013,42.60,40.10,90.79,70.00,6.00,0.00,30.17,M,10.00,M,SCT,OVC,M,M,700.00,8000.00,M,M,M,KBIE 011335Z AUTO 07006KT 10SM SCT007 OVC080 06/05 A3017 RMK AO2 T00590045
BIE,2017-04-01 13:55,-96.7541,40.3013,42.80,39.60,88.36,170.00,3.00,0.00,30.22,M,10.00,M,SCT,OVC,M,M,3100.00,8000.00,M,M,-RA,KBIE 011355Z AUTO 17003KT 10SM -RA SCT031 OVC080 06/04 A3022 RMK AO2 T00600042
BIE,2017-04-01 14:15,-96.7541,40.3013,42.40,39.60,89.73,130.00,4.00,0.00,30.23,M,10.00,M,SCT,OVC,M,M,1100.00,2900.00,M,M,DZ,KBIE 011415Z AUTO 13004KT 10SM DZ SCT011 OVC029 06/04 A3023 RMK AO2 T00580042
BIE,2017-04-01 14:35,-96.7541,40.3013,42.30,39.70,90.43,110.00,5.00,0.00,30.22,M,7.00,M,OVC,M,M,M,2900.00,M,M,M,-RA,KBIE 011435Z AUTO 11005KT 7SM -RA OVC029 06/04 A3022 RMK AO2 T00570043
BIE,2017-04-01 14:55,-96.7541,40.3013,42.10,40.10,92.55,90.00,5.00,0.01,30.22,M,5.00,M,SCT,BKN,OVC,M,1200.00,2900.00,8500.00,M,-RA,KBIE 011455Z AUTO 09005KT 5SM -RA SCT012 BKN029 OVC085 06/05 A3022 RMK AO2 P0001 60001 T00560045
BIE,2017-04-01 15:15,-96.7541,40.3013,41.90,40.10,93.27,90.00,6.00,0.01,30.22,M,5.00,M,SCT,BKN,OVC,M,700.00,7000.00,8500.00,M,-RA,KBIE 011515Z AUTO 09006KT 5SM -RA SCT007 BKN070 OVC085 06/05 A3022 RMK AO2 P0001 T00550045
BIE,2017-04-01 15:35,-96.7541,40.3013,41.90,40.50,94.73,150.00,5.00,0.03,30.25,M,4.00,M,BKN,BKN,OVC,M,700.00,1800.00,7000.00,M,-RA,KBIE 011535Z AUTO 15005KT 4SM -RA BKN007 BKN018 OVC070 06/05 A3025 RMK AO2 P0003 T00550047
BIE,2017-04-01 15:55,-96.7541,40.3013,41.90,40.10,93.27,140.00,4.00,0.06,30.24,M,4.00,M,SCT,SCT,OVC,M,900.00,1800.00,6500.00,M,RA,KBIE 011555Z AUTO 14004KT 4SM RA SCT009 SCT018 OVC065 06/05 A3024 RMK AO2 P0006 T00550045
BIE,2017-04-01 16:15,-96.7541,40.3013,41.50,41.00,98.09,80.00,9.00,0.02,30.18,M,5.00,M,SCT,BKN,OVC,M,800.00,6500.00,8000.00,M,-RA,KBIE 011615Z AUTO 08009KT 5SM -RA SCT008 BKN065 OVC080 05/05 A3018 RMK AO2 P0002 T00530050
BIE,2017-04-01 16:35,-96.7541,40.3013,41.90,41.20,97.33,90.00,6.00,0.04,30.19,M,5.00,14.00,SCT,BKN,OVC,M,700.00,5500.00,9000.00,M,-RA,KBIE 011635Z AUTO 09006G14KT 5SM -RA SCT007 BKN055 OVC090 06/05 A3019 RMK AO2 P0004 T00550051
BIE,2017-04-01 16:55,-96.7541,40.3013,41.90,40.80,95.84,100.00,6.00,0.04,30.22,M,10.00,M,BKN,BKN,OVC,M,700.00,3100.00,5500.00,M,-RA,KBIE 011655Z AUTO 10006KT 10SM -RA BKN007 BKN031 OVC055 06/05 A3022 RMK AO2 P0004 T00550049
BIE,2017-04-01 17:15,-96.7541,40.3013,42.40,41.00,94.74,90.00,8.00,0.00,30.19,M,10.00,M,OVC,M,M,M,1000.00,M,M,M,M,KBIE 011715Z AUTO 09008KT 10SM OVC010 06/05 A3019 RMK AO2 T00580050
BIE,2017-04-01 17:35,-96.7541,40.3013,42.40,41.00,94.74,90.00,3.00,0.00,30.19,M,10.00,M,OVC,M,M,M,1000.00,M,M,M,M,KBIE 011735Z AUTO 09003KT 10SM OVC010 06/05 A3019 RMK AO2 T00580050
BIE,2017-04-01 17:55,-96.7541,40.3013,42.80,41.20,94.02,70.00,11.00,0.00,30.16,M,10.00,M,OVC,M,M,M,1000.00,M,M,M,M,KBIE 011755Z AUTO 07011KT 10SM OVC010 06/05 A3016 RMK AO2 60012 T00600051 10061 20053
BIE,2017-04-01 18:15,-96.7541,40.3013,42.60,40.80,93.29,80.00,8.00,0.00,30.17,M,10.00,M,OVC,M,M,M,1000.00,M,M,M,M,KBIE 011815Z AUTO 08008KT 10SM OVC010 06/05 A3017 RMK AO2 T00590049
BIE,2017-04-01 18:35,-96.7541,40.3013,43.00,41.20,93.30,80.00,8.00,0.00,30.17,M,10.00,M,OVC,M,M,M,1000.00,M,M,M,M,KBIE 011835Z AUTO 08008KT 10SM OVC010 06/05 A3017 RMK AO2 T00610051
BIE,2017-04-01 18:55,-96.7541,40.3013,43.30,41.40,92.95,60.00,9.00,0.00,30.18,M,10.00,M,OVC,M,M,M,1000.00,M,M,M,M,KBIE 011855Z AUTO 06009KT 10SM OVC010 06/05 A3018 RMK AO2 T00630052
BIE,2017-04-01 19:15,-96.7541,40.3013,43.20,41.20,92.59,70.00,9.00,0.00,30.17,M,10.00,M,OVC,M,M,M,1000.00,M,M,M,M,KBIE 011915Z AUTO 07009KT 10SM OVC010 06/05 A3017 RMK AO2 T00620051
BIE,2017-04-01 19:35,-96.7541,40.3013,43.20,41.20,92.59,60.00,7.00,0.00,30.17,M,10.00,M,OVC,M,M,M,1000.00,M,M,M,M,KBIE 011935Z AUTO 06007KT 10SM OVC010 06/05 A3017 RMK AO2 T00620051
BIE,2017-04-01 19:55,-96.7541,40.3013,43.70,41.90,93.32,50.00,7.00,0.00,30.17,M,10.00,M,OVC,M,M,M,1000.00,M,M,M,M,KBIE 011955Z AUTO 05007KT 10SM OVC010 07/06 A3017 RMK AO2 LTG DSNT SW T00650055
BIE,2017-04-01 20:15,-96.7541,40.3013,43.50,41.70,93.32,30.00,9.00,0.00,30.17,M,10.00,M,OVC,M,M,M,1000.00,M,M,M,M,KBIE 012015Z AUTO 03009KT 10SM OVC010 06/05 A3017 RMK AO2 T00640054
BIE,2017-04-01 20:35,-96.7541,40.3013,43.30,41.50,93.31,60.00,6.00,0.00,30.17,M,10.00,M,OVC,M,M,M,1000.00,M,M,M,M,KBIE 012035Z AUTO 06006KT 10SM OVC010 06/05 A3017 RMK AO2 T00630053
BIE,2017-04-01 20:55,-96.7541,40.3013,43.00,41.40,94.03,50.00,8.00,0.00,30.16,M,10.00,M,OVC,M,M,M,1000.00,M,M,M,M,KBIE 012055Z AUTO 05008KT 10SM OVC010 06/05 A3016 RMK AO2 T00610052
BIE,2017-04-01 21:15,-96.7541,40.3013,43.00,41.40,94.03,60.00,7.00,0.00,30.15,M,10.00,M,OVC,M,M,M,1000.00,M,M,M,M,KBIE 012115Z AUTO 06007KT 10SM OVC010 06/05 A3015 RMK AO2 T00610052
BIE,2017-04-01 21:35,-96.7541,40.3013,42.80,41.40,94.75,70.00,11.00,0.00,30.13,M,10.00,M,OVC,M,M,M,800.00,M,M,M,M,KBIE 012135Z AUTO 07011KT 10SM OVC008 06/05 A3013 RMK AO2 T00600052
BIE,2017-04-01 21:55,-96.7541,40.3013,43.70,40.50,88.40,70.00,10.00,0.00,30.12,M,10.00,M,OVC,M,M,M,800.00,M,M,M,M,KBIE 012155Z AUTO 07010KT 10SM OVC008 07/05 A3012 RMK AO2 T00650047
BIE,2017-04-01 22:15,-96.7541,40.3013,43.70,40.30,87.72,70.00,8.00,0.00,30.12,M,10.00,M,OVC,M,M,M,1000.00,M,M,M,M,KBIE 012215Z AUTO 07008KT 10SM OVC010 07/05 A3012 RMK AO2 T00650046
BIE,2017-04-01 22:35,-96.7541,40.3013,44.20,40.50,86.73,70.00,5.00,0.00,30.14,M,10.00,M,OVC,M,M,M,1000.00,M,M,M,M,KBIE 012235Z AUTO 07005KT 10SM OVC010 07/05 A3014 RMK AO2 LTG DSNT W T00680047
BIE,2017-04-01 22:55,-96.7541,40.3013,43.90,40.50,87.73,50.00,5.00,0.00,30.17,M,10.00,M,OVC,M,M,M,1200.00,M,M,M,M,KBIE 012255Z AUTO 05005KT 10SM OVC012 07/05 A3017 RMK AO2 T00660047
BIE,2017-04-01 23:15,-96.7541,40.3013,44.10,40.50,87.06,90.00,4.00,0.00,30.18,M,10.00,M,OVC,M,M,M,1200.00,M,M,M,M,KBIE 012315Z AUTO 09004KT 10SM OVC012 07/05 A3018 RMK AO2 T00670047
BIE,2017-04-01 23:35,-96.7541,40.3013,44.10,40.50,87.06,100.00,4.00,0.00,30.18,M,10.00,M,OVC,M,M,M,1200.00,M,M,M,M,KBIE 012335Z AUTO 10004KT 10SM OVC012 07/05 A3018 RMK AO2 T00670047
BIE,2017-04-01 23:55,-96.7541,40.3013,44.10,40.60,87.40,60.00,4.00,0.00,30.17,M,10.00,M,OVC,M,M,M,1200.00,M,M,M,M,KBIE 012355Z AUTO 06004KT 10SM OVC012 07/05 A3017 RMK AO2 T00670048 10068 20058
