#DEBUG: Format Typ    -> comma
#DEBUG: Time Period   -> 2017-04-01 00:00:00+00:00 2017-04-02 00:00:00+00:00
#DEBUG: Time Zone     -> Etc/UTC
#DEBUG: Data Contact   -> daryl herzmann akrherz@iastate.edu 515-294-5978
#DEBUG: Entries Found -> -1
station,valid,lon,lat,tmpf, dwpf, relh, drct, sknt, p01i, alti, mslp, vsby, gust, skyc1, skyc2, skyc3, skyc4, skyl1, skyl2, skyl3, skyl4, presentwx, metar
BIL,2017-04-01 00:00,-108.5422,45.8069,M,M,M,60.00,5.00,M,30.14,M,10.00,M,OVC,M,M,M,1600.00,M,M,M,M,KBIL 010000Z AUTO 06005KT 10SM OVC016 A3014 RMK MADISHF
BIL,2017-04-01 00:05,-108.5422,45.8069,M,M,M,80.00,6.00,M,30.14,M,10.00,M,OVC,M,M,M,1600.00,M,M,M,M,KBIL 010005Z AUTO 08006KT 10SM OVC016 A3014 RMK MADISHF
BIL,2017-04-01 00:10,-108.5422,45.8069,M,M,M,60.00,5.00,M,30.14,M,10.00,M,OVC,M,M,M,1600.00,M,M,M,M,KBIL 010010Z AUTO 06005KT 10SM OVC016 A3014 RMK VRB05KT  MADISHF
BIL,2017-04-01 00:15,-108.5422,45.8069,M,M,M,70.00,6.00,M,30.15,M,10.00,M,OVC,M,M,M,1600.00,M,M,M,M,KBIL 010015Z AUTO 07006KT 10SM OVC016 A3015 RMK MADISHF
BIL,2017-04-01 00:20,-108.5422,45.8069,M,M,M,30.00,6.00,M,30.15,M,10.00,M,OVC,M,M,M,1600.00,M,M,M,M,KBIL 010020Z AUTO 03006KT 10SM OVC016 A3015 RMK MADISHF
BIL,2017-04-01 00:25,-108.5422,45.8069,M,M,M,60.00,7.00,M,30.15,M,10.00,M,OVC,M,M,M,1600.00,M,M,M,M,KBIL 010025Z AUTO 06007KT 10SM OVC016 A3015 RMK MADISHF
BIL,2017-04-01 00:40,-108.5422,45.8069,M,M,M,60.00,7.00,M,30.15,M,10.00,M,OVC,M,M,M,1600.00,M,M,M,M,KBIL 010040Z AUTO 06007KT 10SM OVC016 A3015 RMK MADISHF
BIL,2017-04-01 00:45,-108.5422,45.8069,M,M,M,60.00,8.00,M,30.15,M,10.00,M,OVC,M,M,M,1600.00,M,M,M,M,KBIL 010045Z AUTO 06008KT 10SM OVC016 A3015 RMK MADISHF
BIL,2017-04-01 00:50,-108.5422,45.8069,M,M,M,50.00,8.00,M,30.15,M,10.00,M,OVC,M,M,M,1600.00,M,M,M,M,KBIL 010050Z AUTO 05008KT 10SM OVC016 A3015 RMK MADISHF
BIL,2017-04-01 00:53,-108.5422,45.8069,44.10,37.90,78.66,70.00,5.00,0.00,30.15,1021.90,10.00,M,OVC,M,M,M,1600.00,M,M,M,M,KBIL 010053Z 07005KT 10SM OVC016 07/03 A3015 RMK AO2 SLP219 T00670033 $
BIL,2017-04-01 01:00,-108.5422,45.8069,M,M,M,70.00,4.00,M,30.15,M,10.00,M,OVC,M,M,M,1699.00,M,M,M,M,KBIL 010100Z AUTO 07004KT 10SM OVC016 A3015 RMK MADISHF
BIL,2017-04-01 01:05,-108.5422,45.8069,M,M,M,40.00,4.00,M,30.15,M,10.00,M,OVC,M,M,M,1699.00,M,M,M,M,KBIL 010105Z AUTO 04004KT 10SM OVC016 A3015 RMK MADISHF
BIL,2017-04-01 01:10,-108.5422,45.8069,M,M,M,70.00,4.00,M,30.16,M,10.00,M,OVC,M,M,M,1699.00,M,M,M,M,KBIL 010110Z AUTO 07004KT 10SM OVC016 A3016 RMK MADISHF
BIL,2017-04-01 01:15,-108.5422,45.8069,M,M,M,80.00,4.00,M,30.15,M,10.00,M,OVC,M,M,M,1800.00,M,M,M,M,KBIL 010115Z AUTO 08004KT 10SM OVC018 A3015 RMK MADISHF
BIL,2017-04-01 01:25,-108.5422,45.8069,M,M,M,70.00,4.00,M,30.15,M,10.00,M,OVC,M,M,M,1800.00,M,M,M,M,KBIL 010125Z AUTO 07004KT 10SM OVC018 A3015 RMK MADISHF
BIL,2017-04-01 01:30,-108.5422,45.8069,M,M,M,60.00,4.00,M,30.15,M,10.00,M,OVC,M,M,M,1800.00,M,M,M,M,KBIL 010130Z AUTO 06004KT 10SM OVC018 A3015 RMK MADISHF
BIL,2017-04-01 01:35,-108.5422,45.8069,M,M,M,60.00,4.00,M,30.15,M,10.00,M,OVC,M,M,M,1900.00,M,M,M,M,KBIL 010135Z AUTO 06004KT 10SM OVC019 A3015 RMK MADISHF
BIL,2017-04-01 01:40,-108.5422,45.8069,M,M,M,40.00,3.00,M,30.15,M,10.00,M,OVC,M,M,M,2100.00,M,M,M,M,KBIL 010140Z AUTO 04003KT 10SM OVC021 A3015 RMK MADISHF
BIL,2017-04-01 01:50,-108.5422,45.8069,M,M,M,50.00,3.00,M,30.15,M,10.00,M,OVC,M,M,M,2100.00,M,M,M,M,KBIL 010150Z AUTO 05003KT 10SM OVC021 A3015 RMK MADISHF
BIL,2017-04-01 01:53,-108.5422,45.8069,43.00,37.90,82.04,0.00,0.00,0.00,30.15,1021.70,10.00,M,OVC,M,M,M,2100.00,M,M,M,M,KBIL 010153Z 00000KT 10SM OVC021 06/03 A3015 RMK AO2 SLP217 T00610033 $
BIL,2017-04-01 01:55,-108.5422,45.8069,M,M,M,0.00,0.00,M,30.15,M,10.00,M,OVC,M,M,M,2100.00,M,M,M,M,KBIL 010155Z AUTO 00000KT 10SM OVC021 A3015 RMK MADISHF
BIL,2017-04-01 02:00,-108.5422,45.8069,M,M,M,0.00,0.00,M,30.15,M,10.00,M,OVC,M,M,M,2100.00,M,M,M,M,KBIL 010200Z AUTO 00000KT 10SM OVC021 A3015 RMK MADISHF
BIL,2017-04-01 02:05,-108.5422,45.8069,M,M,M,0.00,0.00,M,30.15,M,10.00,M,OVC,M,M,M,2100.00,M,M,M,M,KBIL 010205Z AUTO 00000KT 10SM OVC021 A3015 RMK MADISHF
BIL,2017-04-01 02:20,-108.5422,45.8069,M,M,M,0.00,0.00,M,30.15,M,10.00,M,OVC,M,M,M,1999.00,M,M,M,M,KBIL 010220Z AUTO 00000KT 10SM OVC019 A3015 RMK MADISHF
BIL,2017-04-01 02:25,-108.5422,45.8069,M,M,M,0.00,0.00,M,30.16,M,10.00,M,OVC,M,M,M,1999.00,M,M,M,M,KBIL 010225Z AUTO 00000KT 10SM OVC019 A3016 RMK MADISHF
BIL,2017-04-01 02:30,-108.5422,45.8069,M,M,M,0.00,0.00,M,30.16,M,10.00,M,OVC,M,M,M,2100.00,M,M,M,M,KBIL 010230Z AUTO 00000KT 10SM OVC021 A3016 RMK MADISHF
BIL,2017-04-01 02:40,-108.5422,45.8069,M,M,M,0.00,0.00,M,30.16,M,10.00,M,BKN,OVC,M,M,2100.00,3000.00,M,M,M,KBIL 010240Z AUTO 00000KT 10SM BKN021 OVC030 A3016 RMK MADISHF
BIL,2017-04-01 02:45,-108.5422,45.8069,M,M,M,0.00,0.00,M,30.17,M,10.00,M,BKN,OVC,M,M,2100.00,3000.00,M,M,M,KBIL 010245Z AUTO 00000KT 10SM BKN021 OVC030 A3017 RMK MADISHF
BIL,2017-04-01 02:50,-108.5422,45.8069,M,M,M,0.00,0.00,M,30.17,M,10.00,M,BKN,OVC,M,M,2300.00,3000.00,M,M,M,KBIL 010250Z AUTO 00000KT 10SM BKN023 OVC030 A3017 RMK MADISHF
BIL,2017-04-01 02:53,-108.5422,45.8069,43.00,39.00,85.66,270.00,3.00,0.00,30.17,1022.50,10.00,M,BKN,OVC,M,M,2300.00,3000.00,M,M,M,KBIL 010253Z 27003KT 10SM BKN023 OVC030 06/04 A3017 RMK AO2 SLP225 T00610039 53009 $
BIL,2017-04-01 02:55,-108.5422,45.8069,M,M,M,270.00,3.00,M,30.17,M,10.00,M,BKN,OVC,M,M,2500.00,3000.00,M,M,M,KBIL 010255Z AUTO 27003KT 10SM BKN025 OVC030 A3017 RMK MADISHF
BIL,2017-04-01 03:00,-108.5422,45.8069,M,M,M,270.00,3.00,M,30.17,M,10.00,M,OVC,M,M,M,2500.00,M,M,M,M,KBIL 010300Z AUTO 27003KT 10SM OVC025 A3017 RMK MADISHF
BIL,2017-04-01 03:05,-108.5422,45.8069,M,M,M,270.00,3.00,M,30.17,M,10.00,M,OVC,M,M,M,2900.00,M,M,M,M,KBIL 010305Z AUTO 27003KT 10SM OVC029 A3017 RMK MADISHF
BIL,2017-04-01 03:10,-108.5422,45.8069,M,M,M,260.00,3.00,M,30.17,M,10.00,M,OVC,M,M,M,2900.00,M,M,M,M,KBIL 010310Z AUTO 26003KT 10SM OVC029 A3017 RMK MADISHF
BIL,2017-04-01 03:15,-108.5422,45.8069,M,M,M,260.00,3.00,M,30.17,M,10.00,M,OVC,M,M,M,2900.00,M,M,M,M,KBIL 010315Z AUTO 26003KT 10SM OVC029 A3017 RMK MADISHF
BIL,2017-04-01 03:20,-108.5422,45.8069,M,M,M,260.00,3.00,M,30.17,M,10.00,M,OVC,M,M,M,2900.00,M,M,M,M,KBIL 010320Z AUTO 26003KT 10SM OVC029 A3017 RMK MADISHF
BIL,2017-04-01 03:25,-108.5422,45.8069,M,M,M,250.00,3.00,M,30.17,M,10.00,M,OVC,M,M,M,2900.00,M,M,M,M,KBIL 010325Z AUTO 25003KT 10SM OVC029 A3017 RMK MADISHF
BIL,2017-04-01 03:30,-108.5422,45.8069,M,M,M,240.00,3.00,M,30.18,M,10.00,M,OVC,M,M,M,2900.00,M,M,M,M,KBIL 010330Z AUTO 24003KT 10SM OVC029 A3018 RMK MADISHF
BIL,2017-04-01 03:35,-108.5422,45.8069,M,M,M,240.00,3.00,M,30.17,M,10.00,M,OVC,M,M,M,2900.00,M,M,M,M,KBIL 010335Z AUTO 24003KT 10SM OVC029 A3017 RMK MADISHF
BIL,2017-04-01 03:40,-108.5422,45.8069,M,M,M,250.00,3.00,M,30.18,M,10.00,M,OVC,M,M,M,2900.00,M,M,M,M,KBIL 010340Z AUTO 25003KT 10SM OVC029 A3018 RMK MADISHF
BIL,2017-04-01 03:45,-108.5422,45.8069,M,M,M,270.00,3.00,M,30.18,M,10.00,M,OVC,M,M,M,2900.00,M,M,M,M,KBIL 010345Z AUTO 27003KT 10SM OVC029 A3018 RMK MADISHF
BIL,2017-04-01 03:50,-108.5422,45.8069,M,M,M,270.00,3.00,M,30.18,M,10.00,M,OVC,M,M,M,2900.00,M,M,M,M,KBIL 010350Z AUTO 27003KT 10SM OVC029 A3018 RMK MADISHF
BIL,2017-04-01 03:53,-108.5422,45.8069,44.10,39.00,82.12,280.00,3.00,0.00,30.18,1022.60,10.00,M,OVC,M,M,M,2900.00,M,M,M,M,KBIL 010353Z 28003KT 10SM OVC029 07/04 A3018 RMK AO2 SLP226 T00670039 $
BIL,2017-04-01 03:55,-108.5422,45.8069,M,M,M,280.00,3.00,M,30.18,M,10.00,M,OVC,M,M,M,2900.00,M,M,M,M,KBIL 010355Z AUTO 28003KT 10SM OVC029 A3018 RMK MADISHF
BIL,2017-04-01 04:00,-108.5422,45.8069,M,M,M,270.00,3.00,M,30.18,M,10.00,M,OVC,M,M,M,2900.00,M,M,M,M,KBIL 010400Z AUTO 27003KT 10SM OVC029 A3018 RMK MADISHF
BIL,2017-04-01 04:05,-108.5422,45.8069,M,M,M,260.00,3.00,M,30.18,M,10.00,M,OVC,M,M,M,2900.00,M,M,M,M,KBIL 010405Z AUTO 26003KT 10SM OVC029 A3018 RMK MADISHF
BIL,2017-04-01 04:10,-108.5422,45.8069,M,M,M,250.00,3.00,M,30.18,M,10.00,M,OVC,M,M,M,2900.00,M,M,M,M,KBIL 010410Z AUTO 25003KT 10SM OVC029 A3018 RMK MADISHF
BIL,2017-04-01 04:20,-108.5422,45.8069,M,M,M,250.00,3.00,M,30.18,M,10.00,M,OVC,M,M,M,2900.00,M,M,M,M,KBIL 010420Z AUTO 25003KT 10SM OVC029 A3018 RMK MADISHF
BIL,2017-04-01 04:25,-108.5422,45.8069,M,M,M,250.00,3.00,M,30.18,M,10.00,M,OVC,M,M,M,2900.00,M,M,M,M,KBIL 010425Z AUTO 25003KT 10SM OVC029 A3018 RMK MADISHF
BIL,2017-04-01 04:30,-108.5422,45.8069,M,M,M,250.00,3.00,M,30.18,M,10.00,M,OVC,M,M,M,2900.00,M,M,M,M,KBIL 010430Z AUTO 25003KT 10SM OVC029 A3018 RMK MADISHF
BIL,2017-04-01 04:35,-108.5422,45.8069,M,M,M,230.00,4.00,M,30.18,M,10.00,M,OVC,M,M,M,2900.00,M,M,M,M,KBIL 010435Z AUTO 23004KT 10SM OVC029 A3018 RMK MADISHF
BIL,2017-04-01 04:45,-108.5422,45.8069,M,M,M,230.00,4.00,M,30.18,M,10.00,M,OVC,M,M,M,2900.00,M,M,M,M,KBIL 010445Z AUTO 23004KT 10SM OVC029 A3018 RMK MADISHF
BIL,2017-04-01 04:50,-108.5422,45.8069,M,M,M,240.00,4.00,M,30.18,M,10.00,M,OVC,M,M,M,2900.00,M,M,M,M,KBIL 010450Z AUTO 24004KT 10SM OVC029 A3018 RMK MADISHF
BIL,2017-04-01 04:53,-108.5422,45.8069,43.00,39.00,85.66,240.00,5.00,0.00,30.18,1022.90,10.00,M,OVC,M,M,M,3300.00,M,M,M,M,KBIL 010453Z 24005KT 10SM OVC033 06/04 A3018 RMK AO2 SLP229 T00610039 $
BIL,2017-04-01 04:55,-108.5422,45.8069,M,M,M,240.00,4.00,M,30.18,M,10.00,M,OVC,M,M,M,3300.00,M,M,M,M,KBIL 010455Z AUTO 24004KT 10SM OVC033 A3018 RMK MADISHF
BIL,2017-04-01 05:00,-108.5422,45.8069,M,M,M,250.00,4.00,M,30.18,M,10.00,M,OVC,M,M,M,3300.00,M,M,M,M,KBIL 010500Z AUTO 25004KT 10SM OVC033 A3018 RMK MADISHF
BIL,2017-04-01 05:05,-108.5422,45.8069,M,M,M,250.00,3.00,M,30.18,M,10.00,M,OVC,M,M,M,3300.00,M,M,M,M,KBIL 010505Z AUTO 25003KT 10SM OVC033 A3018 RMK MADISHF
BIL,2017-04-01 05:15,-108.5422,45.8069,M,M,M,240.00,3.00,M,30.18,M,10.00,M,OVC,M,M,M,3300.00,M,M,M,M,KBIL 010515Z AUTO 24003KT 10SM OVC033 A3018 RMK MADISHF
BIL,2017-04-01 05:20,-108.5422,45.8069,M,M,M,230.00,4.00,M,30.18,M,10.00,M,OVC,M,M,M,3300.00,M,M,M,M,KBIL 010520Z AUTO 23004KT 10SM OVC033 A3018 RMK MADISHF
BIL,2017-04-01 05:25,-108.5422,45.8069,M,M,M,240.00,4.00,M,30.18,M,10.00,M,OVC,M,M,M,3500.00,M,M,M,M,KBIL 010525Z AUTO 24004KT 10SM OVC035 A3018 RMK MADISHF
BIL,2017-04-01 05:30,-108.5422,45.8069,M,M,M,260.00,5.00,M,30.18,M,10.00,M,OVC,M,M,M,3500.00,M,M,M,M,KBIL 010530Z AUTO 26005KT 10SM OVC035 A3018 RMK MADISHF
BIL,2017-04-01 05:40,-108.5422,45.8069,M,M,M,230.00,4.00,M,30.18,M,10.00,M,OVC,M,M,M,3500.00,M,M,M,M,KBIL 010540Z AUTO 23004KT 10SM OVC035 A3018 RMK MADISHF
BIL,2017-04-01 05:45,-108.5422,45.8069,M,M,M,220.00,3.00,M,30.18,M,10.00,M,OVC,M,M,M,3700.00,M,M,M,M,KBIL 010545Z AUTO 22003KT 10SM OVC037 A3018 RMK MADISHF
BIL,2017-04-01 05:50,-108.5422,45.8069,M,M,M,230.00,4.00,M,30.18,M,10.00,M,OVC,M,M,M,3700.00,M,M,M,M,KBIL 010550Z AUTO 23004KT 10SM OVC037 A3018 RMK MADISHF
BIL,2017-04-01 05:53,-108.5422,45.8069,43.00,39.00,85.66,230.00,3.00,0.00,30.18,1022.90,10.00,M,OVC,M,M,M,3700.00,M,M,M,M,KBIL 010553Z 23003KT 10SM OVC037 06/04 A3018 RMK AO2 SLP229 T00610039 10067 20061 51004 $
BIL,2017-04-01 05:55,-108.5422,45.8069,M,M,M,230.00,3.00,M,30.18,M,10.00,M,OVC,M,M,M,3700.00,M,M,M,M,KBIL 010555Z AUTO 23003KT 10SM OVC037 A3018 RMK MADISHF
BIL,2017-04-01 06:00,-108.5422,45.8069,M,M,M,230.00,4.00,M,30.18,M,10.00,M,OVC,M,M,M,3800.00,M,M,M,M,KBIL 010600Z AUTO 23004KT 10SM OVC038 A3018 RMK MADISHF
BIL,2017-04-01 06:10,-108.5422,45.8069,M,M,M,210.00,4.00,M,30.18,M,10.00,M,OVC,M,M,M,3800.00,M,M,M,M,KBIL 010610Z AUTO 21004KT 10SM OVC038 A3018 RMK MADISHF
BIL,2017-04-01 06:15,-108.5422,45.8069,M,M,M,200.00,4.00,M,30.18,M,10.00,M,OVC,M,M,M,3800.00,M,M,M,M,KBIL 010615Z AUTO 20004KT 10SM OVC038 A3018 RMK MADISHF
BIL,2017-04-01 06:20,-108.5422,45.8069,M,M,M,190.00,4.00,M,30.18,M,10.00,M,OVC,M,M,M,3800.00,M,M,M,M,KBIL 010620Z AUTO 19004KT 10SM OVC038 A3018 RMK MADISHF
BIL,2017-04-01 06:25,-108.5422,45.8069,M,M,M,180.00,4.00,M,30.18,M,10.00,M,OVC,M,M,M,3800.00,M,M,M,M,KBIL 010625Z AUTO 18004KT 10SM OVC038 A3018 RMK MADISHF
BIL,2017-04-01 06:30,-108.5422,45.8069,M,M,M,190.00,5.00,M,30.17,M,10.00,M,OVC,M,M,M,3800.00,M,M,M,M,KBIL 010630Z AUTO 19005KT 10SM OVC038 A3017 RMK MADISHF
BIL,2017-04-01 06:35,-108.5422,45.8069,M,M,M,200.00,5.00,M,30.17,M,10.00,M,OVC,M,M,M,3800.00,M,M,M,M,KBIL 010635Z AUTO 20005KT 10SM OVC038 A3017 RMK MADISHF
BIL,2017-04-01 06:40,-108.5422,45.8069,M,M,M,200.00,5.00,M,30.17,M,10.00,M,OVC,M,M,M,3800.00,M,M,M,M,KBIL 010640Z AUTO 20005KT 10SM OVC038 A3017 RMK MADISHF
BIL,2017-04-01 06:50,-108.5422,45.8069,M,M,M,210.00,3.00,M,30.17,M,10.00,M,OVC,M,M,M,3600.00,M,M,M,M,KBIL 010650Z AUTO 21003KT 10SM OVC036 A3017 RMK MADISHF
BIL,2017-04-01 06:53,-108.5422,45.8069,43.00,39.00,85.66,210.00,4.00,0.00,30.17,1022.40,9.00,M,FEW,OVC,M,M,100.00,3600.00,M,M,BCFG,KBIL 010653Z 21004KT 9SM BCFG FEW001 OVC036 06/04 A3017 RMK AO2 SLP224 BCFG E-SE T00610039 400890061 $
BIL,2017-04-01 06:55,-108.5422,45.8069,M,M,M,220.00,4.00,M,30.17,M,9.00,M,FEW,OVC,M,M,100.00,3600.00,M,M,BCFG,KBIL 010655Z AUTO 22004KT 9SM BCFG FEW001 OVC036 A3017 RMK  BCFG E-SE MADISHF
BIL,2017-04-01 07:00,-108.5422,45.8069,M,M,M,210.00,4.00,M,30.16,M,9.00,M,FEW,OVC,M,M,100.00,3600.00,M,M,BCFG,KBIL 010700Z AUTO 21004KT 9SM BCFG FEW001 OVC036 A3016 RMK  BCFG E-SE MADISHF
BIL,2017-04-01 07:10,-108.5422,45.8069,M,M,M,230.00,4.00,M,30.16,M,9.00,M,FEW,OVC,M,M,100.00,3600.00,M,M,BCFG,KBIL 010710Z AUTO 23004KT 9SM BCFG FEW001 OVC036 A3016 RMK  BCFG E-SE MADISHF
BIL,2017-04-01 07:15,-108.5422,45.8069,M,M,M,240.00,4.00,M,30.16,M,9.00,M,FEW,OVC,M,M,100.00,3399.00,M,M,BCFG,KBIL 010715Z AUTO 24004KT 9SM BCFG FEW001 OVC033 A3016 RMK  BCFG E-SE MADISHF
BIL,2017-04-01 07:20,-108.5422,45.8069,M,M,M,240.00,4.00,M,30.16,M,9.00,M,FEW,OVC,M,M,100.00,3399.00,M,M,BCFG,KBIL 010720Z AUTO 24004KT 9SM BCFG FEW001 OVC033 A3016 RMK  BCFG E-SE MADISHF
BIL,2017-04-01 07:25,-108.5422,45.8069,M,M,M,240.00,4.00,M,30.16,M,9.00,M,FEW,OVC,M,M,100.00,3399.00,M,M,BCFG,KBIL 010725Z AUTO 24004KT 9SM BCFG FEW001 OVC033 A3016 RMK  BCFG E-SE MADISHF
BIL,2017-04-01 07:30,-108.5422,45.8069,M,M,M,240.00,5.00,M,30.16,M,9.00,M,FEW,OVC,M,M,100.00,3399.00,M,M,BCFG,KBIL 010730Z AUTO 24005KT 9SM BCFG FEW001 OVC033 A3016 RMK  BCFG E-SE MADISHF
BIL,2017-04-01 07:35,-108.5422,45.8069,M,M,M,240.00,6.00,M,30.16,M,10.00,M,FEW,OVC,M,M,100.00,3399.00,M,M,BCFG,KBIL 010735Z AUTO 24006KT 10SM BCFG FEW001 OVC033 A3016 RMK  BCFG E-SE MADISHF
BIL,2017-04-01 07:40,-108.5422,45.8069,M,M,M,240.00,6.00,M,30.16,M,10.00,M,FEW,OVC,M,M,100.00,3399.00,M,M,BCFG,KBIL 010740Z AUTO 24006KT 10SM BCFG FEW001 OVC033 A3016 RMK  BCFG E-SE MADISHF
BIL,2017-04-01 07:45,-108.5422,45.8069,M,M,M,250.00,6.00,M,30.16,M,9.00,M,FEW,OVC,M,M,100.00,3399.00,M,M,BCFG,KBIL 010745Z AUTO 25006KT 9SM BCFG FEW001 OVC033 A3016 RMK  BCFG E-SE MADISHF
BIL,2017-04-01 07:53,-108.5422,45.8069,43.00,39.00,85.66,240.00,5.00,0.00,30.16,1022.20,9.00,M,FEW,OVC,M,M,100.00,3400.00,M,M,BCFG,KBIL 010753Z 24005KT 9SM BCFG FEW001 OVC034 06/04 A3016 RMK AO2 SLP222 BCFG E-SE T00610039 $
BIL,2017-04-01 07:55,-108.5422,45.8069,M,M,M,230.00,5.00,M,30.16,M,9.00,M,FEW,OVC,M,M,100.00,3399.00,M,M,BCFG,KBIL 010755Z AUTO 23005KT 9SM BCFG FEW001 OVC033 A3016 RMK  BCFG E-SE MADISHF
BIL,2017-04-01 08:00,-108.5422,45.8069,M,M,M,230.00,5.00,M,30.15,M,9.00,M,FEW,OVC,M,M,100.00,3399.00,M,M,BCFG,KBIL 010800Z AUTO 23005KT 9SM BCFG FEW001 OVC033 A3015 RMK  BCFG E-SE MADISHF
BIL,2017-04-01 08:05,-108.5422,45.8069,M,M,M,220.00,5.00,M,30.15,M,9.00,M,FEW,OVC,M,M,100.00,3399.00,M,M,BCFG,KBIL 010805Z AUTO 22005KT 9SM BCFG FEW001 OVC033 A3015 RMK  BCFG E-SE MADISHF
BIL,2017-04-01 08:10,-108.5422,45.8069,M,M,M,220.00,5.00,M,30.15,M,9.00,M,FEW,OVC,M,M,100.00,3399.00,M,M,BCFG,KBIL 010810Z AUTO 22005KT 9SM BCFG FEW001 OVC033 A3015 RMK  BCFG E-SE MADISHF
BIL,2017-04-01 08:15,-108.5422,45.8069,M,M,M,240.00,5.00,M,30.15,M,9.00,M,FEW,OVC,M,M,100.00,3399.00,M,M,BCFG,KBIL 010815Z AUTO 24005KT 9SM BCFG FEW001 OVC033 A3015 RMK  BCFG E-SE MADISHF
BIL,2017-04-01 08:30,-108.5422,45.8069,M,M,M,210.00,5.00,M,30.14,M,9.00,M,FEW,OVC,M,M,100.00,3800.00,M,M,BCFG,KBIL 010830Z AUTO 21005KT 9SM BCFG FEW001 OVC038 A3014 RMK  BCFG E-SE MADISHF
BIL,2017-04-01 08:35,-108.5422,45.8069,M,M,M,210.00,4.00,M,30.14,M,8.00,M,FEW,OVC,M,M,100.00,3800.00,M,M,BCFG,KBIL 010835Z AUTO 21004KT 8SM BCFG FEW001 OVC038 A3014 RMK  BCFG E-SE MADISHF
BIL,2017-04-01 08:40,-108.5422,45.8069,M,M,M,200.00,4.00,M,30.14,M,8.00,M,FEW,OVC,M,M,100.00,3800.00,M,M,BCFG,KBIL 010840Z AUTO 20004KT 8SM BCFG FEW001 OVC038 A3014 RMK  BCFG E-SE MADISHF
BIL,2017-04-01 08:45,-108.5422,45.8069,M,M,M,190.00,4.00,M,30.14,M,8.00,M,FEW,BKN,M,M,100.00,3800.00,M,M,BCFG,KBIL 010845Z AUTO 19004KT 8SM BCFG FEW001 BKN038 A3014 RMK  BCFG E-SE MADISHF
BIL,2017-04-01 08:50,-108.5422,45.8069,M,M,M,180.00,5.00,M,30.14,M,8.00,M,FEW,BKN,M,M,100.00,3800.00,M,M,BCFG,KBIL 010850Z AUTO 18005KT 8SM BCFG FEW001 BKN038 A3014 RMK  BCFG E-SE MADISHF
BIL,2017-04-01 08:53,-108.5422,45.8069,41.00,37.90,88.62,180.00,5.00,0.00,30.14,1021.70,8.00,M,FEW,BKN,M,M,100.00,3800.00,M,M,BCFG,KBIL 010853Z 18005KT 8SM BCFG FEW001 BKN038 05/03 A3014 RMK AO2 SLP217 BCFG E-SE T00500033 58014 $
BIL,2017-04-01 08:55,-108.5422,45.8069,M,M,M,180.00,5.00,M,30.14,M,8.00,M,FEW,BKN,M,M,100.00,3800.00,M,M,BCFG,KBIL 010855Z AUTO 18005KT 8SM BCFG FEW001 BKN038 A3014 RMK  BCFG E-SE MADISHF
BIL,2017-04-01 09:05,-108.5422,45.8069,M,M,M,180.00,4.00,M,30.13,M,8.00,M,FEW,BKN,M,M,100.00,3800.00,M,M,BCFG,KBIL 010905Z AUTO 18004KT 8SM BCFG FEW001 BKN038 A3013 RMK  BCFG E-SE MADISHF
BIL,2017-04-01 09:10,-108.5422,45.8069,M,M,M,180.00,3.00,M,30.14,M,8.00,M,FEW,BKN,M,M,100.00,3800.00,M,M,BCFG,KBIL 010910Z AUTO 18003KT 8SM BCFG FEW001 BKN038 A3014 RMK  BCFG E-SE MADISHF
BIL,2017-04-01 09:20,-108.5422,45.8069,M,M,M,180.00,4.00,M,30.14,M,8.00,M,FEW,SCT,M,M,100.00,3800.00,M,M,BCFG,KBIL 010920Z AUTO 18004KT 8SM BCFG FEW001 SCT038 A3014 RMK  BCFG E-SE MADISHF
BIL,2017-04-01 09:25,-108.5422,45.8069,M,M,M,180.00,4.00,M,30.14,M,8.00,M,FEW,FEW,M,M,100.00,3800.00,M,M,BCFG,KBIL 010925Z AUTO 18004KT 8SM BCFG FEW001 FEW038 A3014 RMK  BCFG E-SE MADISHF
BIL,2017-04-01 09:30,-108.5422,45.8069,M,M,M,190.00,5.00,M,30.14,M,8.00,M,FEW,FEW,M,M,100.00,3800.00,M,M,BCFG,KBIL 010930Z AUTO 19005KT 8SM BCFG FEW001 FEW038 A3014 RMK  BCFG E-SE MADISHF
BIL,2017-04-01 09:35,-108.5422,45.8069,M,M,M,190.00,5.00,M,30.13,M,8.00,M,FEW,SCT,M,M,100.00,1800.00,M,M,BCFG,KBIL 010935Z AUTO 19005KT 8SM BCFG FEW001 SCT018 A3013 RMK  BCFG E-SE MADISHF
BIL,2017-04-01 09:40,-108.5422,45.8069,M,M,M,190.00,5.00,M,30.13,M,8.00,M,FEW,SCT,M,M,100.00,1800.00,M,M,BCFG,KBIL 010940Z AUTO 19005KT 8SM BCFG FEW001 SCT018 A3013 RMK  BCFG E-SE MADISHF
BIL,2017-04-01 09:50,-108.5422,45.8069,M,M,M,190.00,5.00,M,30.13,M,7.00,M,FEW,SCT,M,M,100.00,1800.00,M,M,BCFG,KBIL 010950Z AUTO 19005KT 7SM BCFG FEW001 SCT018 A3013 RMK  BCFG E-SE MADISHF
BIL,2017-04-01 09:53,-108.5422,45.8069,39.90,37.90,92.48,190.00,5.00,0.00,30.13,1021.70,7.00,M,SCT,BKN,M,M,100.00,1800.00,M,M,BCFG,KBIL 010953Z 19005KT 7SM BCFG SCT001 BKN018 04/03 A3013 RMK AO2 SLP217 BCFG ALQDS T00440033 $
BIL,2017-04-01 09:55,-108.5422,45.8069,M,M,M,200.00,5.00,M,30.13,M,7.00,M,SCT,BKN,M,M,100.00,1800.00,M,M,BCFG,KBIL 010955Z AUTO 20005KT 7SM BCFG SCT001 BKN018 A3013 RMK  BCFG ALQDS MADISHF
BIL,2017-04-01 10:00,-108.5422,45.8069,M,M,M,200.00,5.00,M,30.13,M,7.00,M,SCT,BKN,M,M,100.00,1800.00,M,M,BCFG,KBIL 011000Z AUTO 20005KT 7SM BCFG SCT001 BKN018 A3013 RMK  BCFG ALQDS MADISHF
BIL,2017-04-01 10:05,-108.5422,45.8069,M,M,M,210.00,4.00,M,30.13,M,9.00,M,SCT,SCT,M,M,100.00,1800.00,M,M,BCFG,KBIL 011005Z AUTO 21004KT 9SM BCFG SCT001 SCT018 A3013 RMK  BCFG E-SW MADISHF
BIL,2017-04-01 10:10,-108.5422,45.8069,M,M,M,200.00,4.00,M,30.13,M,9.00,M,SCT,SCT,M,M,100.00,1800.00,M,M,BCFG,KBIL 011010Z AUTO 20004KT 9SM BCFG SCT001 SCT018 A3013 RMK  BCFG E-SW MADISHF
BIL,2017-04-01 10:15,-108.5422,45.8069,M,M,M,200.00,4.00,M,30.13,M,9.00,M,SCT,SCT,M,M,100.00,1800.00,M,M,BCFG,KBIL 011015Z AUTO 20004KT 9SM BCFG SCT001 SCT018 A3013 RMK  BCFG E-SW MADISHF
BIL,2017-04-01 10:20,-108.5422,45.8069,M,M,M,210.00,3.00,M,30.13,M,8.00,M,SCT,SCT,M,M,100.00,1800.00,M,M,BCFG,KBIL 011020Z AUTO 21003KT 8SM BCFG SCT001 SCT018 A3013 RMK  BCFG E-SW MADISHF
BIL,2017-04-01 10:25,-108.5422,45.8069,M,M,M,210.00,3.00,M,30.13,M,8.00,M,SCT,SCT,M,M,100.00,1800.00,M,M,BCFG,KBIL 011025Z AUTO 21003KT 8SM BCFG SCT001 SCT018 A3013 RMK  BCFG E-SW MADISHF
BIL,2017-04-01 10:30,-108.5422,45.8069,M,M,M,220.00,3.00,M,30.13,M,8.00,M,SCT,SCT,M,M,100.00,1800.00,M,M,BCFG,KBIL 011030Z AUTO 22003KT 8SM BCFG SCT001 SCT018 A3013 RMK  BCFG E-SW MADISHF
BIL,2017-04-01 10:35,-108.5422,45.8069,M,M,M,220.00,4.00,M,30.13,M,8.00,M,SCT,SCT,M,M,100.00,1999.00,M,M,BCFG,KBIL 011035Z AUTO 22004KT 8SM BCFG SCT001 SCT019 A3013 RMK  BCFG E-SW MADISHF
BIL,2017-04-01 10:40,-108.5422,45.8069,39.90,37.90,92.48,220.00,4.00,0.00,30.13,M,8.00,M,SCT,BKN,M,M,100.00,2000.00,M,M,BCFG,KBIL 011040Z 22004KT 8SM BCFG SCT001 BKN020 04/03 A3013 RMK AO2 BCFG E-SW T00440033 $
BIL,2017-04-01 10:45,-108.5422,45.8069,M,M,M,230.00,5.00,M,30.13,M,8.00,M,SCT,BKN,M,M,100.00,1999.00,M,M,BCFG,KBIL 011045Z AUTO 23005KT 8SM BCFG SCT001 BKN019 A3013 RMK  BCFG E-SW MADISHF
BIL,2017-04-01 10:50,-108.5422,45.8069,M,M,M,250.00,5.00,M,30.13,M,8.00,M,SCT,BKN,M,M,100.00,1699.00,M,M,BCFG,KBIL 011050Z AUTO 25005KT 8SM BCFG SCT001 BKN016 A3013 RMK  BCFG E-SW MADISHF
BIL,2017-04-01 10:53,-108.5422,45.8069,41.00,37.90,88.62,250.00,5.00,0.00,30.13,1021.60,8.00,M,SCT,BKN,M,M,100.00,1700.00,M,M,BCFG,KBIL 011053Z 25005KT 8SM BCFG SCT001 BKN017 05/03 A3013 RMK AO2 SLP216 BCFG E-SW T00500033 $
BIL,2017-04-01 10:55,-108.5422,45.8069,M,M,M,250.00,5.00,M,30.13,M,8.00,M,SCT,BKN,M,M,100.00,1699.00,M,M,BCFG,KBIL 011055Z AUTO 25005KT 8SM BCFG SCT001 BKN016 A3013 RMK  BCFG E-SW MADISHF
BIL,2017-04-01 11:00,-108.5422,45.8069,M,M,M,260.00,5.00,M,30.13,M,8.00,M,SCT,BKN,M,M,100.00,1699.00,M,M,BCFG,KBIL 011100Z AUTO 26005KT 8SM BCFG SCT001 BKN016 A3013 RMK  BCFG E-SW MADISHF
BIL,2017-04-01 11:05,-108.5422,45.8069,M,M,M,260.00,6.00,M,30.13,M,8.00,M,SCT,BKN,M,M,100.00,1699.00,M,M,BCFG,KBIL 011105Z AUTO 26006KT 8SM BCFG SCT001 BKN016 A3013 RMK  BCFG E-SW MADISHF
BIL,2017-04-01 11:15,-108.5422,45.8069,M,M,M,250.00,6.00,M,30.14,M,8.00,M,FEW,BKN,M,M,100.00,1699.00,M,M,BCFG,KBIL 011115Z AUTO 25006KT 8SM BCFG FEW001 BKN016 A3014 RMK  BCFG E-SE MADISHF
BIL,2017-04-01 11:20,-108.5422,45.8069,M,M,M,260.00,5.00,M,30.13,M,8.00,M,FEW,BKN,M,M,100.00,1699.00,M,M,BCFG,KBIL 011120Z AUTO 26005KT 8SM BCFG FEW001 BKN016 A3013 RMK  BCFG E-SE MADISHF
BIL,2017-04-01 11:25,-108.5422,45.8069,M,M,M,250.00,5.00,M,30.13,M,9.00,M,FEW,BKN,M,M,100.00,1699.00,M,M,BCFG,KBIL 011125Z AUTO 25005KT 9SM BCFG FEW001 BKN016 A3013 RMK  BCFG E-SE MADISHF
BIL,2017-04-01 11:30,-108.5422,45.8069,M,M,M,260.00,5.00,M,30.13,M,9.00,M,FEW,BKN,M,M,100.00,1699.00,M,M,BCFG,KBIL 011130Z AUTO 26005KT 9SM BCFG FEW001 BKN016 A3013 RMK  BCFG E-SE MADISHF
BIL,2017-04-01 11:40,-108.5422,45.8069,M,M,M,250.00,6.00,M,30.13,M,9.00,M,FEW,BKN,M,M,100.00,1699.00,M,M,BCFG,KBIL 011140Z AUTO 25006KT 9SM BCFG FEW001 BKN016 A3013 RMK  BCFG E-SE MADISHF
BIL,2017-04-01 11:45,-108.5422,45.8069,M,M,M,240.00,6.00,M,30.13,M,9.00,M,FEW,BKN,M,M,100.00,1699.00,M,M,BCFG,KBIL 011145Z AUTO 24006KT 9SM BCFG FEW001 BKN016 A3013 RMK  BCFG E-SE MADISHF
BIL,2017-04-01 11:50,-108.5422,45.8069,M,M,M,240.00,6.00,M,30.13,M,9.00,M,FEW,BKN,M,M,100.00,1699.00,M,M,BCFG,KBIL 011150Z AUTO 24006KT 9SM BCFG FEW001 BKN016 A3013 RMK  BCFG E-SE MADISHF
BIL,2017-04-01 11:53,-108.5422,45.8069,39.90,37.00,89.27,250.00,6.00,0.00,30.13,1021.60,9.00,M,FEW,SCT,M,M,100.00,1700.00,M,M,BCFG,KBIL 011153Z 25006KT 9SM BCFG FEW001 SCT017 04/03 A3013 RMK AO2 SLP216 BCFG E-SE T00440028 10061 20044 56002 $
BIL,2017-04-01 11:55,-108.5422,45.8069,M,M,M,250.00,6.00,M,30.13,M,9.00,M,FEW,SCT,M,M,100.00,1699.00,M,M,BCFG,KBIL 011155Z AUTO 25006KT 9SM BCFG FEW001 SCT016 A3013 RMK  BCFG E-SE MADISHF
BIL,2017-04-01 12:00,-108.5422,45.8069,M,M,M,240.00,6.00,M,30.13,M,10.00,M,FEW,FEW,M,M,200.00,1699.00,M,M,BCFG,KBIL 011200Z AUTO 24006KT 10SM BCFG FEW002 FEW016 A3013 RMK  BCFG NE-SE-SW FG FEW002 MADISHF
BIL,2017-04-01 12:05,-108.5422,45.8069,M,M,M,250.00,6.00,M,30.13,M,10.00,M,FEW,FEW,M,M,200.00,1699.00,M,M,BCFG,KBIL 011205Z AUTO 25006KT 10SM BCFG FEW002 FEW016 A3013 RMK  BCFG NE-SE-SW FG FEW002 MADISHF
BIL,2017-04-01 12:10,-108.5422,45.8069,M,M,M,240.00,6.00,M,30.13,M,10.00,M,FEW,FEW,M,M,200.00,1699.00,M,M,BCFG,KBIL 011210Z AUTO 24006KT 10SM BCFG FEW002 FEW016 A3013 RMK  BCFG NE-SE-SW FG FEW002 MADISHF
BIL,2017-04-01 12:15,-108.5422,45.8069,M,M,M,220.00,5.00,M,30.12,M,10.00,M,FEW,FEW,M,M,200.00,1699.00,M,M,BCFG,KBIL 011215Z AUTO 22005KT 10SM BCFG FEW002 FEW016 A3012 RMK VRB05KT BCFG NE-SE-SW FG FEW002 MADISHF
BIL,2017-04-01 12:20,-108.5422,45.8069,M,M,M,210.00,5.00,M,30.12,M,10.00,M,FEW,FEW,M,M,200.00,1699.00,M,M,BCFG,KBIL 011220Z AUTO 21005KT 10SM BCFG FEW002 FEW016 A3012 RMK  BCFG NE-SE-SW FG FEW002 MADISHF
BIL,2017-04-01 12:30,-108.5422,45.8069,39.00,37.90,95.78,220.00,5.00,0.00,30.12,M,8.00,M,FEW,BKN,BKN,M,100.00,1900.00,20000.00,M,BCFG,KBIL 011230Z 22005KT 8SM BCFG FEW001 BKN019 BKN200 04/03 A3012 RMK AO2 BCFG NE-SE-SW FG FEW001 T00390033 $
BIL,2017-04-01 12:35,-108.5422,45.8069,M,M,M,210.00,4.00,M,30.12,M,8.00,M,FEW,BKN,M,M,100.00,1900.00,M,M,BCFG,KBIL 011235Z AUTO 21004KT 8SM BCFG FEW001 BKN019 A3012 RMK  BCFG NE-SE-SW FG FEW001 MADISHF
BIL,2017-04-01 12:40,-108.5422,45.8069,M,M,M,220.00,6.00,M,30.11,M,8.00,M,FEW,BKN,M,M,100.00,1900.00,M,M,BCFG,KBIL 011240Z AUTO 22006KT 8SM BCFG FEW001 BKN019 A3011 RMK  BCFG NE-SE-SW FG FEW001 MADISHF
BIL,2017-04-01 12:50,-108.5422,45.8069,M,M,M,230.00,6.00,M,30.11,M,8.00,M,FEW,BKN,M,M,100.00,1900.00,M,M,BCFG,KBIL 011250Z AUTO 23006KT 8SM BCFG FEW001 BKN019 A3011 RMK  BCFG NE-SE-SW FG FEW001 MADISHF
BIL,2017-04-01 12:53,-108.5422,45.8069,39.90,37.90,92.48,230.00,5.00,0.00,30.11,1020.90,8.00,M,FEW,BKN,BKN,M,100.00,1900.00,20000.00,M,BCFG,KBIL 011253Z 23005KT 8SM BCFG FEW001 BKN019 BKN200 04/03 A3011 RMK AO2 SLP209 BCFG ALQDS FG FEW001 T00440033 $
BIL,2017-04-01 12:55,-108.5422,45.8069,M,M,M,200.00,6.00,M,30.11,M,8.00,M,FEW,BKN,M,M,100.00,1900.00,M,M,BCFG,KBIL 011255Z AUTO 20006KT 8SM BCFG FEW001 BKN019 A3011 RMK  BCFG ALQDS FG FEW001 MADISHF
BIL,2017-04-01 13:00,-108.5422,45.8069,M,M,M,180.00,5.00,M,30.10,M,8.00,M,FEW,BKN,M,M,100.00,1900.00,M,M,BCFG,KBIL 011300Z AUTO 18005KT 8SM BCFG FEW001 BKN019 A3010 RMK  BCFG ALQDS FG FEW001 MADISHF
BIL,2017-04-01 13:10,-108.5422,45.8069,M,M,M,180.00,4.00,M,30.09,M,8.00,M,FEW,BKN,M,M,100.00,1900.00,M,M,BCFG,KBIL 011310Z AUTO 18004KT 8SM BCFG FEW001 BKN019 A3009 RMK  BCFG ALQDS FG FEW001 MADISHF
BIL,2017-04-01 13:15,-108.5422,45.8069,M,M,M,200.00,3.00,M,30.09,M,8.00,M,FEW,BKN,M,M,100.00,1900.00,M,M,BCFG,KBIL 011315Z AUTO 20003KT 8SM BCFG FEW001 BKN019 A3009 RMK  BCFG ALQDS FG FEW001 MADISHF
BIL,2017-04-01 13:20,-108.5422,45.8069,M,M,M,190.00,4.00,M,30.09,M,8.00,M,FEW,BKN,M,M,100.00,1900.00,M,M,BCFG,KBIL 011320Z AUTO 19004KT 8SM BCFG FEW001 BKN019 A3009 RMK  BCFG ALQDS FG FEW001 MADISHF
BIL,2017-04-01 13:25,-108.5422,45.8069,M,M,M,200.00,4.00,M,30.09,M,10.00,M,FEW,BKN,M,M,100.00,1900.00,M,M,BCFG,KBIL 011325Z AUTO 20004KT 10SM BCFG FEW001 BKN019 A3009 RMK  BCFG ALQDS FG FEW001 MADISHF
BIL,2017-04-01 13:30,-108.5422,45.8069,M,M,M,210.00,5.00,M,30.09,M,10.00,M,FEW,BKN,M,M,100.00,1900.00,M,M,BCFG,KBIL 011330Z AUTO 21005KT 10SM BCFG FEW001 BKN019 A3009 RMK  BCFG ALQDS FG FEW001 MADISHF
BIL,2017-04-01 13:40,-108.5422,45.8069,M,M,M,220.00,7.00,M,30.08,M,10.00,M,FEW,BKN,M,M,100.00,1900.00,M,M,BCFG,KBIL 011340Z AUTO 22007KT 10SM BCFG FEW001 BKN019 A3008 RMK  BCFG ALQDS FG FEW001 MADISHF
BIL,2017-04-01 13:45,-108.5422,45.8069,M,M,M,230.00,6.00,M,30.08,M,10.00,M,FEW,BKN,M,M,100.00,1900.00,M,M,BCFG,KBIL 011345Z AUTO 23006KT 10SM BCFG FEW001 BKN019 A3008 RMK  BCFG ALQDS FG FEW001 MADISHF
BIL,2017-04-01 13:50,-108.5422,45.8069,M,M,M,230.00,7.00,M,30.08,M,10.00,M,FEW,SCT,M,M,100.00,1900.00,M,M,BCFG,KBIL 011350Z AUTO 23007KT 10SM BCFG FEW001 SCT019 A3008 RMK  BCFG ALQDS FG FEW001 MADISHF
BIL,2017-04-01 13:53,-108.5422,45.8069,41.00,37.90,88.62,220.00,7.00,0.00,30.08,1019.90,10.00,M,FEW,SCT,BKN,M,100.00,1700.00,20000.00,M,BCFG,KBIL 011353Z 22007KT 10SM BCFG FEW001 SCT017 BKN200 05/03 A3008 RMK AO2 SLP199 BCFG ALQDS FG FEW001 T00500033 $
BIL,2017-04-01 13:55,-108.5422,45.8069,M,M,M,220.00,6.00,M,30.08,M,10.00,M,FEW,SCT,M,M,100.00,1699.00,M,M,BCFG,KBIL 011355Z AUTO 22006KT 10SM BCFG FEW001 SCT016 A3008 RMK  BCFG ALQDS FG FEW001 MADISHF
BIL,2017-04-01 14:00,-108.5422,45.8069,M,M,M,230.00,6.00,M,30.08,M,10.00,M,FEW,FEW,M,M,100.00,1699.00,M,M,BCFG,KBIL 011400Z AUTO 23006KT 10SM BCFG FEW001 FEW016 A3008 RMK  BCFG ALQDS FG FEW001 MADISHF
BIL,2017-04-01 14:05,-108.5422,45.8069,M,M,M,230.00,5.00,M,30.08,M,10.00,M,FEW,M,M,M,1699.00,M,M,M,M,KBIL 011405Z AUTO 23005KT 10SM FEW016 A3008 RMK MADISHF
BIL,2017-04-01 14:10,-108.5422,45.8069,M,M,M,220.00,5.00,M,30.08,M,10.00,M,FEW,M,M,M,1699.00,M,M,M,M,KBIL 011410Z AUTO 22005KT 10SM FEW016 A3008 RMK MADISHF
BIL,2017-04-01 14:15,-108.5422,45.8069,M,M,M,220.00,7.00,M,30.08,M,10.00,M,FEW,M,M,M,1699.00,M,M,M,M,KBIL 011415Z AUTO 22007KT 10SM FEW016 A3008 RMK MADISHF
BIL,2017-04-01 14:20,-108.5422,45.8069,M,M,M,210.00,5.00,M,30.07,M,10.00,M,FEW,M,M,M,1699.00,M,M,M,M,KBIL 011420Z AUTO 21005KT 10SM FEW016 A3007 RMK MADISHF
BIL,2017-04-01 14:25,-108.5422,45.8069,M,M,M,210.00,6.00,M,30.07,M,10.00,M,FEW,M,M,M,1699.00,M,M,M,M,KBIL 011425Z AUTO 21006KT 10SM FEW016 A3007 RMK MADISHF
BIL,2017-04-01 14:30,-108.5422,45.8069,M,M,M,200.00,7.00,M,30.07,M,M,M,FEW,M,M,M,1699.00,M,M,M,M,KBIL 011430Z AUTO 20007KT FEW016 A3007 RMK MADISHF
BIL,2017-04-01 14:40,-108.5422,45.8069,M,M,M,210.00,9.00,M,30.07,M,10.00,M,FEW,M,M,M,1699.00,M,M,M,M,KBIL 011440Z AUTO 21009KT 10SM FEW016 A3007 RMK MADISHF
BIL,2017-04-01 14:45,-108.5422,45.8069,M,M,M,210.00,8.00,M,30.06,M,10.00,M,FEW,M,M,M,1699.00,M,M,M,M,KBIL 011445Z AUTO 21008KT 10SM FEW016 A3006 RMK MADISHF
BIL,2017-04-01 14:50,-108.5422,45.8069,M,M,M,220.00,9.00,M,30.06,M,10.00,M,FEW,M,M,M,1699.00,M,M,M,M,KBIL 011450Z AUTO 22009KT 10SM FEW016 A3006 RMK MADISHF
BIL,2017-04-01 14:53,-108.5422,45.8069,44.10,37.90,78.66,230.00,9.00,0.00,30.06,1019.00,10.00,M,FEW,BKN,M,M,1700.00,25000.00,M,M,M,KBIL 011453Z 23009KT 10SM FEW017 BKN250 07/03 A3006 RMK AO2 SLP190 T00670033 56020 $
BIL,2017-04-01 14:55,-108.5422,45.8069,M,M,M,230.00,9.00,M,30.06,M,10.00,M,FEW,M,M,M,1699.00,M,M,M,M,KBIL 011455Z AUTO 23009KT 10SM FEW016 A3006 RMK MADISHF
BIL,2017-04-01 15:00,-108.5422,45.8069,M,M,M,220.00,9.00,M,30.06,M,10.00,M,FEW,M,M,M,1699.00,M,M,M,M,KBIL 011500Z AUTO 22009KT 10SM FEW016 A3006 RMK MADISHF
BIL,2017-04-01 15:05,-108.5422,45.8069,M,M,M,220.00,11.00,M,30.06,M,10.00,M,FEW,M,M,M,1699.00,M,M,M,M,KBIL 011505Z AUTO 22011KT 10SM FEW016 A3006 RMK MADISHF
BIL,2017-04-01 15:10,-108.5422,45.8069,M,M,M,220.00,9.00,M,30.06,M,10.00,M,FEW,M,M,M,1100.00,M,M,M,M,KBIL 011510Z AUTO 22009KT 10SM FEW011 A3006 RMK MADISHF
BIL,2017-04-01 15:25,-108.5422,45.8069,M,M,M,220.00,8.00,M,30.07,M,10.00,M,FEW,M,M,M,1200.00,M,M,M,M,KBIL 011525Z AUTO 22008KT 10SM FEW012 A3007 RMK MADISHF
BIL,2017-04-01 15:30,-108.5422,45.8069,M,M,M,230.00,9.00,M,30.07,M,10.00,M,FEW,M,M,M,1200.00,M,M,M,M,KBIL 011530Z AUTO 23009KT 10SM FEW012 A3007 RMK MADISHF
BIL,2017-04-01 15:35,-108.5422,45.8069,M,M,M,240.00,11.00,M,30.07,M,10.00,M,FEW,M,M,M,1200.00,M,M,M,M,KBIL 011535Z AUTO 24011KT 10SM FEW012 A3007 RMK MADISHF
BIL,2017-04-01 15:40,-108.5422,45.8069,M,M,M,240.00,10.00,M,30.07,M,10.00,M,FEW,M,M,M,1200.00,M,M,M,M,KBIL 011540Z AUTO 24010KT 10SM FEW012 A3007 RMK MADISHF
BIL,2017-04-01 15:53,-108.5422,45.8069,45.00,37.00,73.37,250.00,12.00,0.00,30.06,1018.80,10.00,M,SCT,BKN,M,M,1300.00,25000.00,M,M,M,KBIL 011553Z 25012KT 10SM SCT013 BKN250 07/03 A3006 RMK AO2 SLP188 T00720028 $
BIL,2017-04-01 15:55,-108.5422,45.8069,M,M,M,230.00,13.00,M,30.07,M,10.00,M,SCT,M,M,M,1300.00,M,M,M,M,KBIL 011555Z AUTO 23013KT 10SM SCT013 A3007 RMK MADISHF
BIL,2017-04-01 16:00,-108.5422,45.8069,M,M,M,M,M,M,30.06,M,10.00,M,SCT,M,M,M,1300.00,M,M,M,M,KBIL 011600Z AUTO /////KT 10SM SCT013 A3006 RMK MADISHF
BIL,2017-04-01 16:05,-108.5422,45.8069,M,M,M,240.00,13.00,M,30.06,M,10.00,M,SCT,M,M,M,1300.00,M,M,M,M,KBIL 011605Z AUTO 24013KT 10SM SCT013 A3006 RMK MADISHF
BIL,2017-04-01 16:10,-108.5422,45.8069,M,M,M,250.00,13.00,M,30.06,M,10.00,M,SCT,M,M,M,1300.00,M,M,M,M,KBIL 011610Z AUTO 25013KT 10SM SCT013 A3006 RMK MADISHF
BIL,2017-04-01 16:15,-108.5422,45.8069,M,M,M,230.00,12.00,M,30.07,M,10.00,17.00,SCT,M,M,M,1300.00,M,M,M,M,KBIL 011615Z AUTO 23012G17KT 10SM SCT013 A3007 RMK MADISHF
BIL,2017-04-01 16:25,-108.5422,45.8069,M,M,M,M,M,M,30.06,M,10.00,M,SCT,M,M,M,1500.00,M,M,M,M,KBIL 011625Z AUTO /////KT 10SM SCT015 A3006 RMK MADISHF
BIL,2017-04-01 16:30,-108.5422,45.8069,M,M,M,220.00,12.00,M,30.06,M,10.00,17.00,SCT,M,M,M,1500.00,M,M,M,M,KBIL 011630Z AUTO 22012G17KT 10SM SCT015 A3006 RMK MADISHF
BIL,2017-04-01 16:35,-108.5422,45.8069,M,M,M,220.00,15.00,M,30.06,M,10.00,M,SCT,M,M,M,1500.00,M,M,M,M,KBIL 011635Z AUTO 22015KT 10SM SCT015 A3006 RMK MADISHF
BIL,2017-04-01 16:40,-108.5422,45.8069,M,M,M,220.00,12.00,M,30.06,M,10.00,M,SCT,M,M,M,1500.00,M,M,M,M,KBIL 011640Z AUTO 22012KT 10SM SCT015 A3006 RMK MADISHF
BIL,2017-04-01 16:45,-108.5422,45.8069,M,M,M,230.00,13.00,M,30.06,M,10.00,M,SCT,M,M,M,1699.00,M,M,M,M,KBIL 011645Z AUTO 23013KT 10SM SCT016 A3006 RMK MADISHF
BIL,2017-04-01 16:53,-108.5422,45.8069,48.00,37.90,67.87,230.00,14.00,0.00,30.06,1018.60,10.00,M,SCT,BKN,M,M,1800.00,25000.00,M,M,M,KBIL 011653Z 23014KT 10SM SCT018 BKN250 09/03 A3006 RMK AO2 SLP186 T00890033 $
BIL,2017-04-01 16:55,-108.5422,45.8069,M,M,M,230.00,13.00,M,30.06,M,10.00,M,SCT,M,M,M,1800.00,M,M,M,M,KBIL 011655Z AUTO 23013KT 10SM SCT018 A3006 RMK MADISHF
BIL,2017-04-01 17:00,-108.5422,45.8069,M,M,M,230.00,14.00,M,30.06,M,10.00,M,SCT,M,M,M,1800.00,M,M,M,M,KBIL 011700Z AUTO 23014KT 10SM SCT018 A3006 RMK MADISHF
BIL,2017-04-01 17:05,-108.5422,45.8069,M,M,M,240.00,11.00,M,30.06,M,10.00,M,SCT,M,M,M,1800.00,M,M,M,M,KBIL 011705Z AUTO 24011KT 10SM SCT018 A3006 RMK MADISHF
BIL,2017-04-01 17:10,-108.5422,45.8069,M,M,M,M,M,M,30.05,M,10.00,20.00,SCT,M,M,M,1999.00,M,M,M,M,KBIL 011710Z AUTO /////G20KT 10SM SCT019 A3005 RMK MADISHF
BIL,2017-04-01 17:15,-108.5422,45.8069,M,M,M,230.00,13.00,M,30.05,M,10.00,18.00,SCT,M,M,M,1999.00,M,M,M,M,KBIL 011715Z AUTO 23013G18KT 10SM SCT019 A3005 RMK MADISHF
BIL,2017-04-01 17:20,-108.5422,45.8069,M,M,M,M,M,M,30.05,M,10.00,M,SCT,M,M,M,1999.00,M,M,M,M,KBIL 011720Z AUTO /////KT 10SM SCT019 A3005 RMK MADISHF
BIL,2017-04-01 17:25,-108.5422,45.8069,M,M,M,230.00,15.00,M,30.04,M,10.00,M,SCT,M,M,M,2200.00,M,M,M,M,KBIL 011725Z AUTO 23015KT 10SM SCT022 A3004 RMK  SCT022 V BKN MADISHF
BIL,2017-04-01 17:30,-108.5422,45.8069,M,M,M,230.00,12.00,M,30.04,M,10.00,M,SCT,M,M,M,2200.00,M,M,M,M,KBIL 011730Z AUTO 23012KT 10SM SCT022 A3004 RMK  SCT022 V BKN MADISHF
BIL,2017-04-01 17:35,-108.5422,45.8069,M,M,M,230.00,15.00,M,30.04,M,10.00,M,SCT,M,M,M,2200.00,M,M,M,M,KBIL 011735Z AUTO 23015KT 10SM SCT022 A3004 RMK  SCT022 V BKN MADISHF
BIL,2017-04-01 17:40,-108.5422,45.8069,M,M,M,230.00,14.00,M,30.04,M,10.00,M,SCT,M,M,M,2200.00,M,M,M,M,KBIL 011740Z AUTO 23014KT 10SM SCT022 A3004 RMK  SCT022 V BKN MADISHF
BIL,2017-04-01 17:45,-108.5422,45.8069,M,M,M,M,M,M,30.03,M,10.00,M,SCT,M,M,M,2200.00,M,M,M,M,KBIL 011745Z AUTO /////KT 10SM SCT022 A3003 RMK MADISHF
BIL,2017-04-01 17:50,-108.5422,45.8069,M,M,M,M,M,M,30.03,M,10.00,M,FEW,M,M,M,2200.00,M,M,M,M,KBIL 011750Z AUTO /////KT 10SM FEW022 A3003 RMK MADISHF
BIL,2017-04-01 17:53,-108.5422,45.8069,51.10,37.00,58.36,240.00,20.00,0.00,30.03,1017.20,10.00,25.00,FEW,BKN,M,M,2200.00,25000.00,M,M,M,KBIL 011753Z 24020G25KT 10SM FEW022 BKN250 11/03 A3003 RMK AO2 SLP172 T01060028 10106 20033 58012 $
BIL,2017-04-01 17:55,-108.5422,45.8069,M,M,M,M,M,M,30.03,M,10.00,M,FEW,M,M,M,2200.00,M,M,M,M,KBIL 011755Z AUTO /////KT 10SM FEW022 A3003 RMK MADISHF
BIL,2017-04-01 18:00,-108.5422,45.8069,M,M,M,M,M,M,30.02,M,10.00,M,FEW,M,M,M,2200.00,M,M,M,M,KBIL 011800Z AUTO /////KT 10SM FEW022 A3002 RMK MADISHF
BIL,2017-04-01 18:05,-108.5422,45.8069,M,M,M,M,M,M,30.02,M,10.00,M,FEW,M,M,M,2200.00,M,M,M,M,KBIL 011805Z AUTO /////KT 10SM FEW022 A3002 RMK MADISHF
BIL,2017-04-01 18:10,-108.5422,45.8069,M,M,M,M,M,M,30.01,M,10.00,M,FEW,M,M,M,2200.00,M,M,M,M,KBIL 011810Z AUTO /////KT 10SM FEW022 A3001 RMK MADISHF
BIL,2017-04-01 18:15,-108.5422,45.8069,M,M,M,M,M,M,30.01,M,10.00,M,FEW,M,M,M,2200.00,M,M,M,M,KBIL 011815Z AUTO /////KT 10SM FEW022 A3001 RMK MADISHF
BIL,2017-04-01 18:25,-108.5422,45.8069,M,M,M,M,M,M,30.00,M,10.00,M,FEW,M,M,M,2200.00,M,M,M,M,KBIL 011825Z AUTO /////KT 10SM FEW022 A3000 RMK MADISHF
BIL,2017-04-01 18:30,-108.5422,45.8069,M,M,M,M,M,M,30.00,M,10.00,M,FEW,M,M,M,2200.00,M,M,M,M,KBIL 011830Z AUTO /////KT 10SM FEW022 A3000 RMK MADISHF
BIL,2017-04-01 18:35,-108.5422,45.8069,M,M,M,M,M,M,29.99,M,10.00,M,FEW,M,M,M,2200.00,M,M,M,M,KBIL 011835Z AUTO /////KT 10SM FEW022 A2999 RMK MADISHF
BIL,2017-04-01 18:40,-108.5422,45.8069,M,M,M,M,M,M,29.99,M,10.00,M,FEW,M,M,M,2200.00,M,M,M,M,KBIL 011840Z AUTO /////KT 10SM FEW022 A2999 RMK MADISHF
BIL,2017-04-01 18:45,-108.5422,45.8069,M,M,M,M,M,M,29.98,M,10.00,M,FEW,M,M,M,2500.00,M,M,M,M,KBIL 011845Z AUTO /////KT 10SM FEW025 A2998 RMK MADISHF
BIL,2017-04-01 18:53,-108.5422,45.8069,55.00,37.00,50.58,230.00,15.00,0.00,29.97,1015.00,10.00,24.00,FEW,BKN,M,M,2500.00,25000.00,M,M,M,KBIL 011853Z 23015G24KT 10SM FEW025 BKN250 13/03 A2997 RMK AO2 SLP150 T01280028 $
BIL,2017-04-01 18:55,-108.5422,45.8069,M,M,M,220.00,16.00,M,29.97,M,10.00,M,FEW,M,M,M,2500.00,M,M,M,M,KBIL 011855Z AUTO 22016KT 10SM FEW025 A2997 RMK MADISHF
BIL,2017-04-01 19:00,-108.5422,45.8069,M,M,M,220.00,16.00,M,29.97,M,10.00,M,FEW,M,M,M,2500.00,M,M,M,M,KBIL 011900Z AUTO 22016KT 10SM FEW025 A2997 RMK MADISHF
BIL,2017-04-01 19:05,-108.5422,45.8069,M,M,M,220.00,16.00,M,29.96,M,10.00,M,FEW,M,M,M,2500.00,M,M,M,M,KBIL 011905Z AUTO 22016KT 10SM FEW025 A2996 RMK MADISHF
BIL,2017-04-01 19:10,-108.5422,45.8069,M,M,M,220.00,13.00,M,29.96,M,10.00,18.00,FEW,M,M,M,2500.00,M,M,M,M,KBIL 011910Z AUTO 22013G18KT 10SM FEW025 A2996 RMK MADISHF
BIL,2017-04-01 19:15,-108.5422,45.8069,M,M,M,230.00,16.00,M,29.96,M,10.00,M,FEW,M,M,M,2500.00,M,M,M,M,KBIL 011915Z AUTO 23016KT 10SM FEW025 A2996 RMK MADISHF
BIL,2017-04-01 19:20,-108.5422,45.8069,M,M,M,M,M,M,29.95,M,10.00,M,FEW,M,M,M,2500.00,M,M,M,M,KBIL 011920Z AUTO /////KT 10SM FEW025 A2995 RMK MADISHF
BIL,2017-04-01 19:30,-108.5422,45.8069,M,M,M,240.00,19.00,M,29.95,M,10.00,M,FEW,M,M,M,3000.00,M,M,M,M,KBIL 011930Z AUTO 24019KT 10SM FEW030 A2995 RMK MADISHF
BIL,2017-04-01 19:35,-108.5422,45.8069,M,M,M,M,M,M,29.95,M,10.00,M,FEW,M,M,M,3000.00,M,M,M,M,KBIL 011935Z AUTO /////KT 10SM FEW030 A2995 RMK MADISHF
BIL,2017-04-01 19:40,-108.5422,45.8069,M,M,M,220.00,16.00,M,29.95,M,10.00,M,FEW,M,M,M,3000.00,M,M,M,M,KBIL 011940Z AUTO 22016KT 10SM FEW030 A2995 RMK MADISHF
BIL,2017-04-01 19:45,-108.5422,45.8069,M,M,M,M,M,M,29.94,M,10.00,M,FEW,M,M,M,3000.00,M,M,M,M,KBIL 011945Z AUTO /////KT 10SM FEW030 A2994 RMK MADISHF
BIL,2017-04-01 19:50,-108.5422,45.8069,M,M,M,230.00,18.00,M,29.94,M,10.00,M,FEW,M,M,M,3000.00,M,M,M,M,KBIL 011950Z AUTO 23018KT 10SM FEW030 A2994 RMK MADISHF
BIL,2017-04-01 19:53,-108.5422,45.8069,57.00,36.00,45.22,230.00,15.00,0.00,29.94,1013.70,10.00,24.00,FEW,BKN,M,M,3000.00,24000.00,M,M,M,KBIL 011953Z 23015G24KT 10SM FEW030 BKN240 14/02 A2994 RMK AO2 SLP137 T01390022 $
BIL,2017-04-01 19:55,-108.5422,45.8069,M,M,M,230.00,13.00,M,29.94,M,10.00,M,FEW,M,M,M,3000.00,M,M,M,M,KBIL 011955Z AUTO 23013KT 10SM FEW030 A2994 RMK MADISHF
BIL,2017-04-01 20:05,-108.5422,45.8069,M,M,M,M,M,M,29.94,M,10.00,M,FEW,M,M,M,3000.00,M,M,M,M,KBIL 012005Z AUTO /////KT 10SM FEW030 A2994 RMK MADISHF
BIL,2017-04-01 20:10,-108.5422,45.8069,M,M,M,240.00,15.00,M,29.94,M,10.00,21.00,FEW,M,M,M,3000.00,M,M,M,M,KBIL 012010Z AUTO 24015G21KT 10SM FEW030 A2994 RMK MADISHF
BIL,2017-04-01 20:15,-108.5422,45.8069,M,M,M,M,M,M,29.94,M,10.00,M,FEW,M,M,M,3000.00,M,M,M,M,KBIL 012015Z AUTO /////KT 10SM FEW030 A2994 RMK MADISHF
BIL,2017-04-01 20:20,-108.5422,45.8069,M,M,M,M,M,M,29.94,M,10.00,M,FEW,M,M,M,3000.00,M,M,M,M,KBIL 012020Z AUTO /////KT 10SM FEW030 A2994 RMK MADISHF
BIL,2017-04-01 20:25,-108.5422,45.8069,M,M,M,M,M,M,29.93,M,10.00,M,FEW,M,M,M,3000.00,M,M,M,M,KBIL 012025Z AUTO /////KT 10SM FEW030 A2993 RMK MADISHF
BIL,2017-04-01 20:40,-108.5422,45.8069,M,M,M,M,M,M,29.93,M,10.00,M,FEW,M,M,M,3000.00,M,M,M,M,KBIL 012040Z AUTO /////KT 10SM FEW030 A2993 RMK MADISHF
BIL,2017-04-01 20:45,-108.5422,45.8069,M,M,M,M,M,M,29.92,M,10.00,M,FEW,M,M,M,3000.00,M,M,M,M,KBIL 012045Z AUTO /////KT 10SM FEW030 A2992 RMK MADISHF
BIL,2017-04-01 20:50,-108.5422,45.8069,M,M,M,240.00,13.00,M,29.92,M,10.00,M,FEW,M,M,M,3000.00,M,M,M,M,KBIL 012050Z AUTO 24013KT 10SM FEW030 A2992 RMK MADISHF
BIL,2017-04-01 20:53,-108.5422,45.8069,59.00,36.00,42.08,240.00,16.00,0.00,29.92,1013.00,10.00,21.00,FEW,FEW,BKN,M,3000.00,6000.00,24000.00,M,M,KBIL 012053Z 24016G21KT 10SM FEW030 FEW060 BKN240 15/02 A2992 RMK AO2 SLP130 T01500022 56032 $
BIL,2017-04-01 20:55,-108.5422,45.8069,M,M,M,M,M,M,29.92,M,10.00,M,FEW,FEW,M,M,3000.00,6000.00,M,M,M,KBIL 012055Z AUTO /////KT 10SM FEW030 FEW060 A2992 RMK MADISHF
BIL,2017-04-01 21:00,-108.5422,45.8069,M,M,M,230.00,15.00,M,29.92,M,10.00,M,FEW,FEW,M,M,3000.00,6000.00,M,M,M,KBIL 012100Z AUTO 23015KT 10SM FEW030 FEW060 A2992 RMK MADISHF
BIL,2017-04-01 21:05,-108.5422,45.8069,M,M,M,M,M,M,29.92,M,10.00,M,FEW,FEW,M,M,3000.00,6000.00,M,M,M,KBIL 012105Z AUTO /////KT 10SM FEW030 FEW060 A2992 RMK MADISHF
BIL,2017-04-01 21:10,-108.5422,45.8069,M,M,M,240.00,14.00,M,29.91,M,10.00,M,FEW,FEW,M,M,3000.00,6000.00,M,M,M,KBIL 012110Z AUTO 24014KT 10SM FEW030 FEW060 A2991 RMK MADISHF
BIL,2017-04-01 21:15,-108.5422,45.8069,M,M,M,220.00,16.00,M,29.91,M,10.00,M,FEW,FEW,M,M,3000.00,6000.00,M,M,M,KBIL 012115Z AUTO 22016KT 10SM FEW030 FEW060 A2991 RMK MADISHF
BIL,2017-04-01 21:20,-108.5422,45.8069,M,M,M,250.00,12.00,M,29.91,M,10.00,M,FEW,FEW,M,M,3000.00,6000.00,M,M,M,KBIL 012120Z AUTO 25012KT 10SM FEW030 FEW060 A2991 RMK MADISHF
BIL,2017-04-01 21:25,-108.5422,45.8069,M,M,M,M,M,M,29.91,M,10.00,M,FEW,FEW,M,M,3000.00,6000.00,M,M,M,KBIL 012125Z AUTO /////KT 10SM FEW030 FEW060 A2991 RMK MADISHF
BIL,2017-04-01 21:35,-108.5422,45.8069,M,M,M,230.00,12.00,M,29.90,M,10.00,M,FEW,FEW,M,M,3000.00,6000.00,M,M,M,KBIL 012135Z AUTO 23012KT 10SM FEW030 FEW060 A2990 RMK MADISHF
BIL,2017-04-01 21:40,-108.5422,45.8069,M,M,M,230.00,11.00,M,29.90,M,10.00,M,FEW,FEW,M,M,3000.00,6000.00,M,M,M,KBIL 012140Z AUTO 23011KT 10SM FEW030 FEW060 A2990 RMK MADISHF
BIL,2017-04-01 21:45,-108.5422,45.8069,M,M,M,M,M,M,29.89,M,10.00,M,FEW,FEW,M,M,3000.00,6000.00,M,M,M,KBIL 012145Z AUTO /////KT 10SM FEW030 FEW060 A2989 RMK MADISHF
BIL,2017-04-01 21:50,-108.5422,45.8069,M,M,M,240.00,14.00,M,29.89,M,10.00,M,FEW,FEW,M,M,3000.00,6000.00,M,M,M,KBIL 012150Z AUTO 24014KT 10SM FEW030 FEW060 A2989 RMK MADISHF
BIL,2017-04-01 21:53,-108.5422,45.8069,60.10,35.10,39.04,240.00,14.00,0.00,29.89,1011.70,10.00,M,FEW,FEW,BKN,M,4000.00,6500.00,24000.00,M,M,KBIL 012153Z 24014KT 10SM FEW040 FEW065 BKN240 16/02 A2989 RMK AO2 SLP117 T01560017 $
BIL,2017-04-01 21:55,-108.5422,45.8069,M,M,M,240.00,13.00,M,29.89,M,10.00,M,FEW,FEW,M,M,3999.00,6500.00,M,M,M,KBIL 012155Z AUTO 24013KT 10SM FEW039 FEW065 A2989 RMK MADISHF
BIL,2017-04-01 22:05,-108.5422,45.8069,M,M,M,220.00,12.00,M,29.87,M,10.00,M,FEW,FEW,M,M,3999.00,6500.00,M,M,M,KBIL 012205Z AUTO 22012KT 10SM FEW039 FEW065 A2987 RMK MADISHF
BIL,2017-04-01 22:10,-108.5422,45.8069,M,M,M,210.00,13.00,M,29.87,M,10.00,18.00,FEW,FEW,M,M,3999.00,6500.00,M,M,M,KBIL 012210Z AUTO 21013G18KT 10SM FEW039 FEW065 A2987 RMK MADISHF
BIL,2017-04-01 22:15,-108.5422,45.8069,M,M,M,220.00,13.00,M,29.86,M,10.00,M,FEW,FEW,M,M,3999.00,6500.00,M,M,M,KBIL 012215Z AUTO 22013KT 10SM FEW039 FEW065 A2986 RMK MADISHF
BIL,2017-04-01 22:20,-108.5422,45.8069,M,M,M,220.00,13.00,M,29.86,M,10.00,M,FEW,FEW,M,M,3999.00,6500.00,M,M,M,KBIL 012220Z AUTO 22013KT 10SM FEW039 FEW065 A2986 RMK MADISHF
BIL,2017-04-01 22:25,-108.5422,45.8069,M,M,M,230.00,10.00,M,29.86,M,10.00,M,FEW,FEW,M,M,3999.00,6500.00,M,M,M,KBIL 012225Z AUTO 23010KT 10SM FEW039 FEW065 A2986 RMK MADISHF
BIL,2017-04-01 22:30,-108.5422,45.8069,M,M,M,220.00,14.00,M,29.87,M,10.00,M,FEW,FEW,M,M,3999.00,6500.00,M,M,M,KBIL 012230Z AUTO 22014KT 10SM FEW039 FEW065 A2987 RMK MADISHF
BIL,2017-04-01 22:45,-108.5422,45.8069,M,M,M,210.00,11.00,M,29.86,M,10.00,M,FEW,M,M,M,3999.00,M,M,M,M,KBIL 012245Z AUTO 21011KT 10SM FEW039 A2986 RMK MADISHF
BIL,2017-04-01 22:50,-108.5422,45.8069,M,M,M,220.00,10.00,M,29.86,M,10.00,M,FEW,M,M,M,3999.00,M,M,M,M,KBIL 012250Z AUTO 22010KT 10SM FEW039 A2986 RMK MADISHF
BIL,2017-04-01 22:53,-108.5422,45.8069,62.10,35.10,36.37,220.00,8.00,0.00,29.86,1010.50,10.00,M,FEW,BKN,M,M,4000.00,24000.00,M,M,M,KBIL 012253Z 22008KT 10SM FEW040 BKN240 17/02 A2986 RMK AO2 SLP105 T01670017 $
BIL,2017-04-01 22:55,-108.5422,45.8069,M,M,M,210.00,10.00,M,29.86,M,10.00,M,FEW,M,M,M,3999.00,M,M,M,M,KBIL 012255Z AUTO 21010KT 10SM FEW039 A2986 RMK MADISHF
BIL,2017-04-01 23:00,-108.5422,45.8069,M,M,M,230.00,8.00,M,29.86,M,10.00,M,FEW,M,M,M,3999.00,M,M,M,M,KBIL 012300Z AUTO 23008KT 10SM FEW039 A2986 RMK MADISHF
BIL,2017-04-01 23:05,-108.5422,45.8069,M,M,M,220.00,15.00,M,29.86,M,10.00,M,FEW,M,M,M,3999.00,M,M,M,M,KBIL 012305Z AUTO 22015KT 10SM FEW039 A2986 RMK MADISHF
BIL,2017-04-01 23:15,-108.5422,45.8069,M,M,M,230.00,13.00,M,29.85,M,10.00,M,FEW,M,M,M,3999.00,M,M,M,M,KBIL 012315Z AUTO 23013KT 10SM FEW039 A2985 RMK MADISHF
BIL,2017-04-01 23:20,-108.5422,45.8069,M,M,M,220.00,11.00,M,29.85,M,10.00,M,FEW,M,M,M,3999.00,M,M,M,M,KBIL 012320Z AUTO 22011KT 10SM FEW039 A2985 RMK MADISHF
BIL,2017-04-01 23:25,-108.5422,45.8069,M,M,M,210.00,12.00,M,29.84,M,10.00,M,FEW,M,M,M,3999.00,M,M,M,M,KBIL 012325Z AUTO 21012KT 10SM FEW039 A2984 RMK MADISHF
BIL,2017-04-01 23:30,-108.5422,45.8069,M,M,M,220.00,11.00,M,29.84,M,10.00,M,FEW,M,M,M,3999.00,M,M,M,M,KBIL 012330Z AUTO 22011KT 10SM FEW039 A2984 RMK MADISHF
BIL,2017-04-01 23:35,-108.5422,45.8069,M,M,M,210.00,12.00,M,29.84,M,10.00,M,FEW,M,M,M,3999.00,M,M,M,M,KBIL 012335Z AUTO 21012KT 10SM FEW039 A2984 RMK MADISHF
BIL,2017-04-01 23:40,-108.5422,45.8069,M,M,M,210.00,11.00,M,29.84,M,10.00,M,FEW,M,M,M,3999.00,M,M,M,M,KBIL 012340Z AUTO 21011KT 10SM FEW039 A2984 RMK MADISHF
BIL,2017-04-01 23:45,-108.5422,45.8069,M,M,M,210.00,12.00,M,29.84,M,10.00,M,FEW,M,M,M,3999.00,M,M,M,M,KBIL 012345Z AUTO 21012KT 10SM FEW039 A2984 RMK MADISHF
BIL,2017-04-01 23:53,-108.5422,45.8069,61.00,34.00,36.19,220.00,11.00,0.00,29.83,1009.70,10.00,M,FEW,BKN,BKN,M,9000.00,18000.00,24000.00,M,M,KBIL 012353Z 22011KT 10SM FEW090 BKN180 BKN240 16/01 A2983 RMK AO2 SLP097 ACSL W-NW T01610011 10167 20106 56028 $
BIL,2017-04-01 23:55,-108.5422,45.8069,M,M,M,240.00,13.00,M,29.83,M,10.00,M,FEW,M,M,M,9000.00,M,M,M,M,KBIL 012355Z AUTO 24013KT 10SM FEW090 A2983 RMK  ACSL W-NW MADISHF
