#DEBUG: Format Typ    -> comma
#DEBUG: Time Period   -> 2017-04-01 00:00:00+00:00 2017-04-02 00:00:00+00:00
#DEBUG: Time Zone     -> Etc/UTC
#DEBUG: Data Contact   -> daryl herzmann akrherz@iastate.edu 515-294-5978
#DEBUG: Entries Found -> -1
station,valid,lon,lat,tmpf, dwpf, relh, drct, sknt, p01i, alti, mslp, vsby, gust, skyc1, skyc2, skyc3, skyc4, skyl1, skyl2, skyl3, skyl4, presentwx, metar
BIS,2017-04-01 00:00,-100.7458,46.7727,M,M,M,70.00,3.00,M,30.09,M,10.00,M,OVC,M,M,M,9500.00,M,M,M,M,KBIS 010000Z AUTO 07003KT 10SM OVC095 A3009 RMK MADISHF
BIS,2017-04-01 00:05,-100.7458,46.7727,M,M,M,0.00,0.00,M,30.09,M,10.00,M,BKN,M,M,M,9500.00,M,M,M,M,KBIS 010005Z AUTO 00000KT 10SM BKN095 A3009 RMK MADISHF
BIS,2017-04-01 00:10,-100.7458,46.7727,M,M,M,90.00,3.00,M,30.10,M,10.00,M,BKN,M,M,M,9500.00,M,M,M,M,KBIS 010010Z AUTO 09003KT 10SM BKN095 A3010 RMK MADISHF
BIS,2017-04-01 00:15,-100.7458,46.7727,M,M,M,0.00,0.00,M,30.10,M,10.00,M,SCT,M,M,M,9500.00,M,M,M,M,KBIS 010015Z AUTO 00000KT 10SM SCT095 A3010 RMK MADISHF
BIS,2017-04-01 00:20,-100.7458,46.7727,M,M,M,80.00,3.00,M,30.10,M,10.00,M,FEW,M,M,M,9500.00,M,M,M,M,KBIS 010020Z AUTO 08003KT 10SM FEW095 A3010 RMK MADISHF
BIS,2017-04-01 00:25,-100.7458,46.7727,M,M,M,90.00,3.00,M,30.10,M,10.00,M,FEW,M,M,M,9500.00,M,M,M,M,KBIS 010025Z AUTO 09003KT 10SM FEW095 A3010 RMK MADISHF
BIS,2017-04-01 00:30,-100.7458,46.7727,M,M,M,100.00,3.00,M,30.10,M,10.00,M,FEW,M,M,M,9500.00,M,M,M,M,KBIS 010030Z AUTO 10003KT 10SM FEW095 A3010 RMK MADISHF
BIS,2017-04-01 00:35,-100.7458,46.7727,M,M,M,90.00,3.00,M,30.10,M,10.00,M,SCT,M,M,M,9500.00,M,M,M,M,KBIS 010035Z AUTO 09003KT 10SM SCT095 A3010 RMK MADISHF
BIS,2017-04-01 00:40,-100.7458,46.7727,M,M,M,70.00,3.00,M,30.10,M,10.00,M,SCT,M,M,M,9500.00,M,M,M,M,KBIS 010040Z AUTO 07003KT 10SM SCT095 A3010 RMK MADISHF
BIS,2017-04-01 00:45,-100.7458,46.7727,M,M,M,60.00,3.00,M,30.11,M,10.00,M,SCT,M,M,M,9500.00,M,M,M,M,KBIS 010045Z AUTO 06003KT 10SM SCT095 A3011 RMK MADISHF
BIS,2017-04-01 00:50,-100.7458,46.7727,M,M,M,40.00,11.00,M,30.11,M,10.00,M,FEW,SCT,M,M,6500.00,9500.00,M,M,M,KBIS 010050Z AUTO 04011KT 10SM FEW065 SCT095 A3011 RMK MADISHF
BIS,2017-04-01 00:52,-100.7458,46.7727,55.00,35.10,46.91,60.00,9.00,0.00,30.11,1020.70,10.00,14.00,FEW,SCT,M,M,6500.00,9500.00,M,M,M,KBIS 010052Z 06009G14KT 10SM FEW065 SCT095 13/02 A3011 RMK AO2 SLP207 T01280017
BIS,2017-04-01 00:55,-100.7458,46.7727,M,M,M,60.00,7.00,M,30.11,M,10.00,M,SCT,BKN,M,M,6500.00,9500.00,M,M,M,KBIS 010055Z AUTO 06007KT 10SM SCT065 BKN095 A3011 RMK MADISHF
BIS,2017-04-01 01:00,-100.7458,46.7727,M,M,M,40.00,11.00,M,30.11,M,10.00,17.00,BKN,BKN,M,M,6500.00,9500.00,M,M,M,KBIS 010100Z AUTO 04011G17KT 10SM BKN065 BKN095 A3011 RMK MADISHF
BIS,2017-04-01 01:05,-100.7458,46.7727,M,M,M,40.00,12.00,M,30.12,M,10.00,M,BKN,M,M,M,6500.00,M,M,M,M,KBIS 010105Z AUTO 04012KT 10SM BKN065 A3012 RMK MADISHF
BIS,2017-04-01 01:10,-100.7458,46.7727,M,M,M,30.00,13.00,M,30.12,M,10.00,18.00,BKN,M,M,M,6500.00,M,M,M,M,KBIS 010110Z AUTO 03013G18KT 10SM BKN065 A3012 RMK MADISHF
BIS,2017-04-01 01:15,-100.7458,46.7727,M,M,M,30.00,12.00,M,30.13,M,10.00,M,OVC,M,M,M,6500.00,M,M,M,M,KBIS 010115Z AUTO 03012KT 10SM OVC065 A3013 RMK MADISHF
BIS,2017-04-01 01:20,-100.7458,46.7727,M,M,M,30.00,15.00,M,30.13,M,10.00,20.00,OVC,M,M,M,6500.00,M,M,M,M,KBIS 010120Z AUTO 03015G20KT 10SM OVC065 A3013 RMK MADISHF
BIS,2017-04-01 01:25,-100.7458,46.7727,M,M,M,30.00,13.00,M,30.14,M,10.00,M,OVC,M,M,M,6500.00,M,M,M,M,KBIS 010125Z AUTO 03013KT 10SM OVC065 A3014 RMK MADISHF
BIS,2017-04-01 01:30,-100.7458,46.7727,M,M,M,40.00,13.00,M,30.14,M,10.00,M,OVC,M,M,M,6500.00,M,M,M,M,KBIS 010130Z AUTO 04013KT 10SM OVC065 A3014 RMK MADISHF
BIS,2017-04-01 01:35,-100.7458,46.7727,M,M,M,30.00,12.00,M,30.14,M,10.00,M,OVC,M,M,M,6500.00,M,M,M,M,KBIS 010135Z AUTO 03012KT 10SM OVC065 A3014 RMK MADISHF
BIS,2017-04-01 01:40,-100.7458,46.7727,M,M,M,40.00,12.00,M,30.14,M,10.00,M,BKN,OVC,M,M,6500.00,11000.00,M,M,M,KBIS 010140Z AUTO 04012KT 10SM BKN065 OVC110 A3014 RMK MADISHF
BIS,2017-04-01 01:45,-100.7458,46.7727,M,M,M,40.00,11.00,M,30.15,M,10.00,M,BKN,OVC,M,M,6500.00,11000.00,M,M,M,KBIS 010145Z AUTO 04011KT 10SM BKN065 OVC110 A3015 RMK MADISHF
BIS,2017-04-01 01:50,-100.7458,46.7727,M,M,M,30.00,9.00,M,30.15,M,10.00,M,SCT,OVC,M,M,6500.00,11000.00,M,M,M,KBIS 010150Z AUTO 03009KT 10SM SCT065 OVC110 A3015 RMK MADISHF
BIS,2017-04-01 01:52,-100.7458,46.7727,50.00,39.90,68.10,30.00,11.00,0.00,30.15,1022.10,10.00,M,SCT,OVC,M,M,6500.00,11000.00,M,M,M,KBIS 010152Z 03011KT 10SM SCT065 OVC110 10/04 A3015 RMK AO2 SLP221 T01000044
BIS,2017-04-01 01:55,-100.7458,46.7727,M,M,M,30.00,9.00,M,30.15,M,10.00,M,FEW,OVC,M,M,6500.00,11000.00,M,M,M,KBIS 010155Z AUTO 03009KT 10SM FEW065 OVC110 A3015 RMK MADISHF
BIS,2017-04-01 02:00,-100.7458,46.7727,M,M,M,30.00,9.00,M,30.15,M,10.00,M,FEW,OVC,M,M,7000.00,11000.00,M,M,M,KBIS 010200Z AUTO 03009KT 10SM FEW070 OVC110 A3015 RMK MADISHF
BIS,2017-04-01 02:05,-100.7458,46.7727,M,M,M,30.00,9.00,M,30.15,M,10.00,M,FEW,OVC,M,M,9000.00,11000.00,M,M,M,KBIS 010205Z AUTO 03009KT 10SM FEW090 OVC110 A3015 RMK MADISHF
BIS,2017-04-01 02:10,-100.7458,46.7727,M,M,M,30.00,9.00,M,30.15,M,10.00,M,FEW,OVC,M,M,9000.00,11000.00,M,M,M,KBIS 010210Z AUTO 03009KT 10SM FEW090 OVC110 A3015 RMK MADISHF
BIS,2017-04-01 02:15,-100.7458,46.7727,M,M,M,30.00,9.00,M,30.15,M,10.00,M,OVC,M,M,M,11000.00,M,M,M,M,KBIS 010215Z AUTO 03009KT 10SM OVC110 A3015 RMK MADISHF
BIS,2017-04-01 02:20,-100.7458,46.7727,M,M,M,30.00,8.00,M,30.16,M,10.00,M,OVC,M,M,M,11000.00,M,M,M,M,KBIS 010220Z AUTO 03008KT 10SM OVC110 A3016 RMK MADISHF
BIS,2017-04-01 02:25,-100.7458,46.7727,M,M,M,40.00,9.00,M,30.16,M,10.00,M,OVC,M,M,M,10000.00,M,M,M,M,KBIS 010225Z AUTO 04009KT 10SM OVC100 A3016 RMK MADISHF
BIS,2017-04-01 02:30,-100.7458,46.7727,M,M,M,40.00,7.00,M,30.16,M,10.00,M,OVC,M,M,M,10000.00,M,M,M,M,KBIS 010230Z AUTO 04007KT 10SM OVC100 A3016 RMK MADISHF
BIS,2017-04-01 02:35,-100.7458,46.7727,M,M,M,40.00,5.00,M,30.16,M,10.00,M,OVC,M,M,M,10000.00,M,M,M,M,KBIS 010235Z AUTO 04005KT 10SM OVC100 A3016 RMK MADISHF
BIS,2017-04-01 02:40,-100.7458,46.7727,M,M,M,40.00,5.00,M,30.17,M,10.00,M,OVC,M,M,M,10000.00,M,M,M,M,KBIS 010240Z AUTO 04005KT 10SM OVC100 A3017 RMK MADISHF
BIS,2017-04-01 02:45,-100.7458,46.7727,M,M,M,40.00,4.00,M,30.17,M,10.00,M,OVC,M,M,M,9000.00,M,M,M,M,KBIS 010245Z AUTO 04004KT 10SM OVC090 A3017 RMK MADISHF
BIS,2017-04-01 02:50,-100.7458,46.7727,M,M,M,40.00,3.00,M,30.17,M,10.00,M,OVC,M,M,M,9000.00,M,M,M,M,KBIS 010250Z AUTO 04003KT 10SM OVC090 A3017 RMK MADISHF
BIS,2017-04-01 02:52,-100.7458,46.7727,48.90,39.90,70.95,50.00,3.00,0.00,30.17,1022.50,10.00,M,OVC,M,M,M,9000.00,M,M,M,M,KBIS 010252Z 05003KT 10SM OVC090 09/04 A3017 RMK AO2 SLP225 T00940044 53024
BIS,2017-04-01 02:55,-100.7458,46.7727,M,M,M,30.00,4.00,M,30.17,M,10.00,M,OVC,M,M,M,9000.00,M,M,M,M,KBIS 010255Z AUTO 03004KT 10SM OVC090 A3017 RMK MADISHF
BIS,2017-04-01 03:00,-100.7458,46.7727,M,M,M,40.00,4.00,M,30.17,M,10.00,M,OVC,M,M,M,9000.00,M,M,M,M,KBIS 010300Z AUTO 04004KT 10SM OVC090 A3017 RMK MADISHF
BIS,2017-04-01 03:05,-100.7458,46.7727,M,M,M,40.00,3.00,M,30.18,M,10.00,M,SCT,OVC,M,M,7500.00,9000.00,M,M,M,KBIS 010305Z AUTO 04003KT 10SM SCT075 OVC090 A3018 RMK MADISHF
BIS,2017-04-01 03:10,-100.7458,46.7727,M,M,M,40.00,3.00,M,30.18,M,10.00,M,BKN,OVC,M,M,7000.00,8500.00,M,M,M,KBIS 010310Z AUTO 04003KT 10SM BKN070 OVC085 A3018 RMK MADISHF
BIS,2017-04-01 03:15,-100.7458,46.7727,M,M,M,0.00,0.00,M,30.17,M,10.00,M,BKN,OVC,M,M,6500.00,8500.00,M,M,M,KBIS 010315Z AUTO 00000KT 10SM BKN065 OVC085 A3017 RMK MADISHF
BIS,2017-04-01 03:20,-100.7458,46.7727,M,M,M,40.00,3.00,M,30.18,M,10.00,M,BKN,OVC,M,M,6500.00,8500.00,M,M,M,KBIS 010320Z AUTO 04003KT 10SM BKN065 OVC085 A3018 RMK MADISHF
BIS,2017-04-01 03:25,-100.7458,46.7727,M,M,M,20.00,3.00,M,30.18,M,10.00,M,OVC,M,M,M,6500.00,M,M,M,M,KBIS 010325Z AUTO 02003KT 10SM OVC065 A3018 RMK MADISHF
BIS,2017-04-01 03:30,-100.7458,46.7727,M,M,M,30.00,3.00,M,30.18,M,10.00,M,OVC,M,M,M,6000.00,M,M,M,M,KBIS 010330Z AUTO 03003KT 10SM OVC060 A3018 RMK MADISHF
BIS,2017-04-01 03:35,-100.7458,46.7727,M,M,M,30.00,4.00,M,30.18,M,10.00,M,OVC,M,M,M,6000.00,M,M,M,M,KBIS 010335Z AUTO 03004KT 10SM OVC060 A3018 RMK MADISHF
BIS,2017-04-01 03:40,-100.7458,46.7727,M,M,M,40.00,4.00,M,30.18,M,10.00,M,BKN,OVC,M,M,6000.00,8500.00,M,M,M,KBIS 010340Z AUTO 04004KT 10SM BKN060 OVC085 A3018 RMK MADISHF
BIS,2017-04-01 03:45,-100.7458,46.7727,M,M,M,60.00,3.00,M,30.18,M,10.00,M,BKN,OVC,M,M,6000.00,7999.00,M,M,M,KBIS 010345Z AUTO 06003KT 10SM BKN060 OVC079 A3018 RMK MADISHF
BIS,2017-04-01 03:50,-100.7458,46.7727,M,M,M,0.00,0.00,M,30.18,M,10.00,M,SCT,OVC,M,M,6000.00,7500.00,M,M,M,KBIS 010350Z AUTO 00000KT 10SM SCT060 OVC075 A3018 RMK MADISHF
BIS,2017-04-01 03:52,-100.7458,46.7727,48.00,41.00,76.58,0.00,0.00,0.00,30.18,1022.90,10.00,M,SCT,OVC,M,M,6000.00,8000.00,M,M,M,KBIS 010352Z 00000KT 10SM SCT060 OVC080 09/05 A3018 RMK AO2 SLP229 T00890050
BIS,2017-04-01 03:55,-100.7458,46.7727,M,M,M,0.00,0.00,M,30.18,M,10.00,M,BKN,OVC,M,M,7000.00,8500.00,M,M,M,KBIS 010355Z AUTO 00000KT 10SM BKN070 OVC085 A3018 RMK MADISHF
BIS,2017-04-01 04:00,-100.7458,46.7727,M,M,M,40.00,3.00,M,30.18,M,10.00,M,FEW,OVC,M,M,6000.00,7500.00,M,M,M,KBIS 010400Z AUTO 04003KT 10SM FEW060 OVC075 A3018 RMK MADISHF
BIS,2017-04-01 04:05,-100.7458,46.7727,M,M,M,80.00,3.00,M,30.18,M,10.00,M,OVC,M,M,M,7500.00,M,M,M,M,KBIS 010405Z AUTO 08003KT 10SM OVC075 A3018 RMK MADISHF
BIS,2017-04-01 04:10,-100.7458,46.7727,M,M,M,0.00,0.00,M,30.19,M,10.00,M,OVC,M,M,M,7500.00,M,M,M,M,KBIS 010410Z AUTO 00000KT 10SM OVC075 A3019 RMK MADISHF
BIS,2017-04-01 04:15,-100.7458,46.7727,M,M,M,0.00,0.00,M,30.18,M,10.00,M,OVC,M,M,M,7000.00,M,M,M,M,KBIS 010415Z AUTO 00000KT 10SM OVC070 A3018 RMK MADISHF
BIS,2017-04-01 04:20,-100.7458,46.7727,M,M,M,0.00,0.00,M,30.19,M,10.00,M,OVC,M,M,M,7000.00,M,M,M,M,KBIS 010420Z AUTO 00000KT 10SM OVC070 A3019 RMK MADISHF
BIS,2017-04-01 04:25,-100.7458,46.7727,M,M,M,80.00,3.00,M,30.18,M,10.00,M,OVC,M,M,M,7000.00,M,M,M,M,KBIS 010425Z AUTO 08003KT 10SM OVC070 A3018 RMK MADISHF
BIS,2017-04-01 04:30,-100.7458,46.7727,M,M,M,70.00,3.00,M,30.18,M,10.00,M,OVC,M,M,M,7000.00,M,M,M,M,KBIS 010430Z AUTO 07003KT 10SM OVC070 A3018 RMK MADISHF
BIS,2017-04-01 04:35,-100.7458,46.7727,M,M,M,60.00,3.00,M,30.18,M,10.00,M,OVC,M,M,M,7000.00,M,M,M,M,KBIS 010435Z AUTO 06003KT 10SM OVC070 A3018 RMK MADISHF
BIS,2017-04-01 04:40,-100.7458,46.7727,M,M,M,0.00,0.00,M,30.18,M,10.00,M,OVC,M,M,M,6500.00,M,M,M,M,KBIS 010440Z AUTO 00000KT 10SM OVC065 A3018 RMK MADISHF
BIS,2017-04-01 04:45,-100.7458,46.7727,M,M,M,0.00,0.00,M,30.19,M,10.00,M,OVC,M,M,M,6500.00,M,M,M,M,KBIS 010445Z AUTO 00000KT 10SM OVC065 A3019 RMK MADISHF
BIS,2017-04-01 04:50,-100.7458,46.7727,M,M,M,0.00,0.00,M,30.18,M,10.00,M,OVC,M,M,M,6500.00,M,M,M,M,KBIS 010450Z AUTO 00000KT 10SM OVC065 A3018 RMK MADISHF
BIS,2017-04-01 04:52,-100.7458,46.7727,48.00,41.00,76.58,30.00,3.00,0.00,30.19,1023.00,10.00,M,OVC,M,M,M,6000.00,M,M,M,M,KBIS 010452Z 03003KT 10SM OVC060 09/05 A3019 RMK AO2 SLP230 T00890050
BIS,2017-04-01 04:55,-100.7458,46.7727,M,M,M,20.00,3.00,M,30.19,M,10.00,M,OVC,M,M,M,6000.00,M,M,M,M,KBIS 010455Z AUTO 02003KT 10SM OVC060 A3019 RMK MADISHF
BIS,2017-04-01 05:00,-100.7458,46.7727,M,M,M,0.00,0.00,M,30.19,M,10.00,M,OVC,M,M,M,6000.00,M,M,M,M,KBIS 010500Z AUTO 00000KT 10SM OVC060 A3019 RMK MADISHF
BIS,2017-04-01 05:05,-100.7458,46.7727,M,M,M,30.00,3.00,M,30.19,M,10.00,M,OVC,M,M,M,6000.00,M,M,M,M,KBIS 010505Z AUTO 03003KT 10SM OVC060 A3019 RMK MADISHF
BIS,2017-04-01 05:10,-100.7458,46.7727,M,M,M,60.00,3.00,M,30.19,M,10.00,M,OVC,M,M,M,6000.00,M,M,M,M,KBIS 010510Z AUTO 06003KT 10SM OVC060 A3019 RMK MADISHF
BIS,2017-04-01 05:15,-100.7458,46.7727,M,M,M,0.00,0.00,M,30.19,M,10.00,M,OVC,M,M,M,6000.00,M,M,M,M,KBIS 010515Z AUTO 00000KT 10SM OVC060 A3019 RMK MADISHF
BIS,2017-04-01 05:20,-100.7458,46.7727,M,M,M,0.00,0.00,M,30.19,M,10.00,M,OVC,M,M,M,6000.00,M,M,M,M,KBIS 010520Z AUTO 00000KT 10SM OVC060 A3019 RMK MADISHF
BIS,2017-04-01 05:25,-100.7458,46.7727,M,M,M,0.00,0.00,M,30.19,M,10.00,M,OVC,M,M,M,6000.00,M,M,M,M,KBIS 010525Z AUTO 00000KT 10SM OVC060 A3019 RMK MADISHF
BIS,2017-04-01 05:30,-100.7458,46.7727,M,M,M,40.00,4.00,M,30.19,M,10.00,M,OVC,M,M,M,6000.00,M,M,M,M,KBIS 010530Z AUTO 04004KT 10SM OVC060 A3019 RMK MADISHF
BIS,2017-04-01 05:35,-100.7458,46.7727,M,M,M,40.00,4.00,M,30.19,M,10.00,M,OVC,M,M,M,6000.00,M,M,M,M,KBIS 010535Z AUTO 04004KT 10SM OVC060 A3019 RMK MADISHF
BIS,2017-04-01 05:40,-100.7458,46.7727,M,M,M,30.00,3.00,M,30.19,M,10.00,M,OVC,M,M,M,6000.00,M,M,M,M,KBIS 010540Z AUTO 03003KT 10SM OVC060 A3019 RMK MADISHF
BIS,2017-04-01 05:45,-100.7458,46.7727,M,M,M,50.00,3.00,M,30.19,M,10.00,M,OVC,M,M,M,6000.00,M,M,M,M,KBIS 010545Z AUTO 05003KT 10SM OVC060 A3019 RMK MADISHF
BIS,2017-04-01 05:50,-100.7458,46.7727,M,M,M,50.00,5.00,M,30.19,M,10.00,M,OVC,M,M,M,6000.00,M,M,M,M,KBIS 010550Z AUTO 05005KT 10SM OVC060 A3019 RMK MADISHF
BIS,2017-04-01 05:52,-100.7458,46.7727,46.90,41.00,79.82,40.00,5.00,0.00,30.19,1023.00,10.00,M,OVC,M,M,M,6000.00,M,M,M,M,KBIS 010552Z 04005KT 10SM OVC060 08/05 A3019 RMK AO2 SLP230 T00830050 10144 20078 401560006 51006
BIS,2017-04-01 05:55,-100.7458,46.7727,M,M,M,40.00,5.00,M,30.19,M,10.00,M,OVC,M,M,M,6000.00,M,M,M,M,KBIS 010555Z AUTO 04005KT 10SM OVC060 A3019 RMK MADISHF
BIS,2017-04-01 06:00,-100.7458,46.7727,M,M,M,40.00,6.00,M,30.19,M,10.00,M,OVC,M,M,M,6000.00,M,M,M,M,KBIS 010600Z AUTO 04006KT 10SM OVC060 A3019 RMK MADISHF
BIS,2017-04-01 06:05,-100.7458,46.7727,M,M,M,40.00,6.00,M,30.19,M,10.00,M,OVC,M,M,M,6000.00,M,M,M,M,KBIS 010605Z AUTO 04006KT 10SM OVC060 A3019 RMK MADISHF
BIS,2017-04-01 06:10,-100.7458,46.7727,M,M,M,50.00,5.00,M,30.19,M,10.00,M,OVC,M,M,M,6000.00,M,M,M,M,KBIS 010610Z AUTO 05005KT 10SM OVC060 A3019 RMK MADISHF
BIS,2017-04-01 06:15,-100.7458,46.7727,M,M,M,70.00,5.00,M,30.19,M,10.00,M,OVC,M,M,M,6000.00,M,M,M,M,KBIS 010615Z AUTO 07005KT 10SM OVC060 A3019 RMK MADISHF
BIS,2017-04-01 06:20,-100.7458,46.7727,M,M,M,70.00,5.00,M,30.19,M,10.00,M,OVC,M,M,M,6000.00,M,M,M,M,KBIS 010620Z AUTO 07005KT 10SM OVC060 A3019 RMK MADISHF
BIS,2017-04-01 06:25,-100.7458,46.7727,M,M,M,70.00,5.00,M,30.19,M,10.00,M,OVC,M,M,M,6000.00,M,M,M,M,KBIS 010625Z AUTO 07005KT 10SM OVC060 A3019 RMK MADISHF
BIS,2017-04-01 06:30,-100.7458,46.7727,M,M,M,70.00,5.00,M,30.19,M,10.00,M,OVC,M,M,M,6000.00,M,M,M,M,KBIS 010630Z AUTO 07005KT 10SM OVC060 A3019 RMK MADISHF
BIS,2017-04-01 06:35,-100.7458,46.7727,M,M,M,70.00,6.00,M,30.19,M,10.00,M,OVC,M,M,M,6000.00,M,M,M,M,KBIS 010635Z AUTO 07006KT 10SM OVC060 A3019 RMK MADISHF
BIS,2017-04-01 06:40,-100.7458,46.7727,M,M,M,70.00,6.00,M,30.20,M,10.00,M,OVC,M,M,M,6000.00,M,M,M,M,KBIS 010640Z AUTO 07006KT 10SM OVC060 A3020 RMK MADISHF
BIS,2017-04-01 06:45,-100.7458,46.7727,M,M,M,100.00,5.00,M,30.20,M,10.00,M,OVC,M,M,M,6000.00,M,M,M,M,KBIS 010645Z AUTO 10005KT 10SM OVC060 A3020 RMK MADISHF
BIS,2017-04-01 06:50,-100.7458,46.7727,M,M,M,90.00,5.00,M,30.20,M,10.00,M,OVC,M,M,M,6000.00,M,M,M,M,KBIS 010650Z AUTO 09005KT 10SM OVC060 A3020 RMK MADISHF
BIS,2017-04-01 06:52,-100.7458,46.7727,45.00,41.00,85.77,90.00,5.00,0.00,30.20,1023.20,10.00,M,OVC,M,M,M,6000.00,M,M,M,M,KBIS 010652Z 09005KT 10SM OVC060 07/05 A3020 RMK AO2 SLP232 T00720050
BIS,2017-04-01 06:55,-100.7458,46.7727,M,M,M,90.00,5.00,M,30.20,M,10.00,M,OVC,M,M,M,6000.00,M,M,M,M,KBIS 010655Z AUTO 09005KT 10SM OVC060 A3020 RMK MADISHF
BIS,2017-04-01 07:00,-100.7458,46.7727,M,M,M,80.00,5.00,M,30.20,M,10.00,M,OVC,M,M,M,6000.00,M,M,M,M,KBIS 010700Z AUTO 08005KT 10SM OVC060 A3020 RMK MADISHF
BIS,2017-04-01 07:05,-100.7458,46.7727,M,M,M,70.00,5.00,M,30.20,M,10.00,M,OVC,M,M,M,6000.00,M,M,M,M,KBIS 010705Z AUTO 07005KT 10SM OVC060 A3020 RMK MADISHF
BIS,2017-04-01 07:10,-100.7458,46.7727,M,M,M,50.00,5.00,M,30.21,M,10.00,M,OVC,M,M,M,6500.00,M,M,M,M,KBIS 010710Z AUTO 05005KT 10SM OVC065 A3021 RMK MADISHF
BIS,2017-04-01 07:15,-100.7458,46.7727,M,M,M,40.00,5.00,M,30.21,M,10.00,M,OVC,M,M,M,6500.00,M,M,M,M,KBIS 010715Z AUTO 04005KT 10SM OVC065 A3021 RMK MADISHF
BIS,2017-04-01 07:20,-100.7458,46.7727,M,M,M,40.00,5.00,M,30.21,M,10.00,M,OVC,M,M,M,6500.00,M,M,M,M,KBIS 010720Z AUTO 04005KT 10SM OVC065 A3021 RMK MADISHF
BIS,2017-04-01 07:25,-100.7458,46.7727,M,M,M,30.00,7.00,M,30.21,M,10.00,M,OVC,M,M,M,6500.00,M,M,M,M,KBIS 010725Z AUTO 03007KT 10SM OVC065 A3021 RMK MADISHF
BIS,2017-04-01 07:30,-100.7458,46.7727,M,M,M,30.00,6.00,M,30.21,M,10.00,M,OVC,M,M,M,6500.00,M,M,M,M,KBIS 010730Z AUTO 03006KT 10SM OVC065 A3021 RMK MADISHF
BIS,2017-04-01 07:35,-100.7458,46.7727,M,M,M,40.00,7.00,M,30.21,M,10.00,M,OVC,M,M,M,6500.00,M,M,M,M,KBIS 010735Z AUTO 04007KT 10SM OVC065 A3021 RMK MADISHF
BIS,2017-04-01 07:40,-100.7458,46.7727,M,M,M,40.00,7.00,M,30.21,M,10.00,M,OVC,M,M,M,6500.00,M,M,M,M,KBIS 010740Z AUTO 04007KT 10SM OVC065 A3021 RMK MADISHF
BIS,2017-04-01 07:45,-100.7458,46.7727,M,M,M,40.00,6.00,M,30.21,M,10.00,M,OVC,M,M,M,6500.00,M,M,M,M,KBIS 010745Z AUTO 04006KT 10SM OVC065 A3021 RMK MADISHF
BIS,2017-04-01 07:50,-100.7458,46.7727,M,M,M,50.00,5.00,M,30.21,M,10.00,M,OVC,M,M,M,6500.00,M,M,M,M,KBIS 010750Z AUTO 05005KT 10SM OVC065 A3021 RMK MADISHF
BIS,2017-04-01 07:52,-100.7458,46.7727,45.00,41.00,85.77,50.00,5.00,0.00,30.21,1023.80,10.00,M,OVC,M,M,M,6500.00,M,M,M,M,KBIS 010752Z 05005KT 10SM OVC065 07/05 A3021 RMK AO2 SLP238 T00720050
BIS,2017-04-01 07:55,-100.7458,46.7727,M,M,M,60.00,5.00,M,30.21,M,10.00,M,OVC,M,M,M,6500.00,M,M,M,M,KBIS 010755Z AUTO 06005KT 10SM OVC065 A3021 RMK MADISHF
BIS,2017-04-01 08:00,-100.7458,46.7727,M,M,M,70.00,4.00,M,30.21,M,10.00,M,OVC,M,M,M,6500.00,M,M,M,M,KBIS 010800Z AUTO 07004KT 10SM OVC065 A3021 RMK MADISHF
BIS,2017-04-01 08:05,-100.7458,46.7727,M,M,M,70.00,3.00,M,30.21,M,10.00,M,OVC,M,M,M,7000.00,M,M,M,M,KBIS 010805Z AUTO 07003KT 10SM OVC070 A3021 RMK MADISHF
BIS,2017-04-01 08:10,-100.7458,46.7727,M,M,M,80.00,4.00,M,30.21,M,10.00,M,OVC,M,M,M,7000.00,M,M,M,M,KBIS 010810Z AUTO 08004KT 10SM OVC070 A3021 RMK MADISHF
BIS,2017-04-01 08:15,-100.7458,46.7727,M,M,M,70.00,5.00,M,30.21,M,10.00,M,OVC,M,M,M,7000.00,M,M,M,M,KBIS 010815Z AUTO 07005KT 10SM OVC070 A3021 RMK MADISHF
BIS,2017-04-01 08:20,-100.7458,46.7727,M,M,M,50.00,4.00,M,30.21,M,10.00,M,OVC,M,M,M,7000.00,M,M,M,M,KBIS 010820Z AUTO 05004KT 10SM OVC070 A3021 RMK MADISHF
BIS,2017-04-01 08:25,-100.7458,46.7727,M,M,M,40.00,5.00,M,30.21,M,10.00,M,OVC,M,M,M,7000.00,M,M,M,M,KBIS 010825Z AUTO 04005KT 10SM OVC070 A3021 RMK MADISHF
BIS,2017-04-01 08:30,-100.7458,46.7727,M,M,M,40.00,5.00,M,30.21,M,10.00,M,OVC,M,M,M,7000.00,M,M,M,M,KBIS 010830Z AUTO 04005KT 10SM OVC070 A3021 RMK MADISHF
BIS,2017-04-01 08:35,-100.7458,46.7727,M,M,M,40.00,6.00,M,30.21,M,10.00,M,OVC,M,M,M,7000.00,M,M,M,M,KBIS 010835Z AUTO 04006KT 10SM OVC070 A3021 RMK MADISHF
BIS,2017-04-01 08:40,-100.7458,46.7727,M,M,M,50.00,4.00,M,30.21,M,10.00,M,OVC,M,M,M,7000.00,M,M,M,M,KBIS 010840Z AUTO 05004KT 10SM OVC070 A3021 RMK MADISHF
BIS,2017-04-01 08:45,-100.7458,46.7727,M,M,M,50.00,5.00,M,30.21,M,10.00,M,OVC,M,M,M,7500.00,M,M,M,M,KBIS 010845Z AUTO 05005KT 10SM OVC075 A3021 RMK MADISHF
BIS,2017-04-01 08:50,-100.7458,46.7727,M,M,M,50.00,6.00,M,30.21,M,10.00,M,OVC,M,M,M,7500.00,M,M,M,M,KBIS 010850Z AUTO 05006KT 10SM OVC075 A3021 RMK MADISHF
BIS,2017-04-01 08:52,-100.7458,46.7727,43.00,41.00,92.58,50.00,6.00,0.00,30.21,1023.80,10.00,M,OVC,M,M,M,7500.00,M,M,M,M,KBIS 010852Z 05006KT 10SM OVC075 06/05 A3021 RMK AO2 SLP238 T00610050 50007
BIS,2017-04-01 08:55,-100.7458,46.7727,M,M,M,60.00,4.00,M,30.21,M,10.00,M,OVC,M,M,M,7500.00,M,M,M,M,KBIS 010855Z AUTO 06004KT 10SM OVC075 A3021 RMK MADISHF
BIS,2017-04-01 09:00,-100.7458,46.7727,M,M,M,70.00,3.00,M,30.21,M,10.00,M,OVC,M,M,M,7500.00,M,M,M,M,KBIS 010900Z AUTO 07003KT 10SM OVC075 A3021 RMK MADISHF
BIS,2017-04-01 09:05,-100.7458,46.7727,M,M,M,70.00,3.00,M,30.20,M,10.00,M,FEW,OVC,M,M,499.00,7500.00,M,M,M,KBIS 010905Z AUTO 07003KT 10SM FEW004 OVC075 A3020 RMK MADISHF
BIS,2017-04-01 09:10,-100.7458,46.7727,M,M,M,60.00,5.00,M,30.20,M,10.00,M,FEW,OVC,M,M,499.00,7500.00,M,M,M,KBIS 010910Z AUTO 06005KT 10SM FEW004 OVC075 A3020 RMK MADISHF
BIS,2017-04-01 09:11,-100.7458,46.7727,43.00,41.00,92.58,60.00,4.00,0.00,30.20,M,10.00,M,FEW,OVC,M,M,500.00,7500.00,M,M,M,KBIS 010911Z 06004KT 10SM FEW005 OVC075 06/05 A3020 RMK AO2 T00610050
BIS,2017-04-01 09:15,-100.7458,46.7727,M,M,M,60.00,4.00,M,30.20,M,10.00,M,SCT,OVC,M,M,499.00,7500.00,M,M,M,KBIS 010915Z AUTO 06004KT 10SM SCT004 OVC075 A3020 RMK MADISHF
BIS,2017-04-01 09:20,-100.7458,46.7727,M,M,M,80.00,5.00,M,30.20,M,10.00,M,BKN,OVC,M,M,499.00,7999.00,M,M,M,KBIS 010920Z AUTO 08005KT 10SM BKN004 OVC079 A3020 RMK MADISHF
BIS,2017-04-01 09:24,-100.7458,46.7727,43.00,41.00,92.58,90.00,4.00,0.00,30.20,M,10.00,M,BKN,OVC,M,M,500.00,8000.00,M,M,M,KBIS 010924Z 09004KT 10SM BKN005 OVC080 06/05 A3020 RMK AO2 T00610050
BIS,2017-04-01 09:25,-100.7458,46.7727,M,M,M,90.00,4.00,M,30.20,M,10.00,M,BKN,OVC,M,M,499.00,7999.00,M,M,M,KBIS 010925Z AUTO 09004KT 10SM BKN004 OVC079 A3020 RMK MADISHF
BIS,2017-04-01 09:30,-100.7458,46.7727,M,M,M,90.00,4.00,M,30.20,M,10.00,M,BKN,OVC,M,M,499.00,7999.00,M,M,M,KBIS 010930Z AUTO 09004KT 10SM BKN004 OVC079 A3020 RMK MADISHF
BIS,2017-04-01 09:35,-100.7458,46.7727,M,M,M,70.00,3.00,M,30.20,M,10.00,M,OVC,M,M,M,499.00,M,M,M,M,KBIS 010935Z AUTO 07003KT 10SM OVC004 A3020 RMK MADISHF
BIS,2017-04-01 09:40,-100.7458,46.7727,M,M,M,70.00,3.00,M,30.20,M,9.00,M,OVC,M,M,M,499.00,M,M,M,M,KBIS 010940Z AUTO 07003KT 9SM OVC004 A3020 RMK MADISHF
BIS,2017-04-01 09:45,-100.7458,46.7727,M,M,M,80.00,4.00,M,30.20,M,9.00,M,OVC,M,M,M,499.00,M,M,M,M,KBIS 010945Z AUTO 08004KT 9SM OVC004 A3020 RMK MADISHF
BIS,2017-04-01 09:50,-100.7458,46.7727,M,M,M,80.00,3.00,M,30.19,M,9.00,M,OVC,M,M,M,499.00,M,M,M,M,KBIS 010950Z AUTO 08003KT 9SM OVC004 A3019 RMK MADISHF
BIS,2017-04-01 09:52,-100.7458,46.7727,43.00,41.00,92.58,70.00,3.00,0.00,30.20,1023.20,9.00,M,OVC,M,M,M,400.00,M,M,M,M,KBIS 010952Z 07003KT 9SM OVC004 06/05 A3020 RMK AO2 SLP232 T00610050
BIS,2017-04-01 09:55,-100.7458,46.7727,M,M,M,70.00,4.00,M,30.20,M,9.00,M,OVC,M,M,M,400.00,M,M,M,M,KBIS 010955Z AUTO 07004KT 9SM OVC004 A3020 RMK MADISHF
BIS,2017-04-01 10:00,-100.7458,46.7727,M,M,M,70.00,3.00,M,30.19,M,8.00,M,OVC,M,M,M,400.00,M,M,M,M,KBIS 011000Z AUTO 07003KT 8SM OVC004 A3019 RMK MADISHF
BIS,2017-04-01 10:05,-100.7458,46.7727,M,M,M,50.00,3.00,M,30.20,M,8.00,M,OVC,M,M,M,400.00,M,M,M,M,KBIS 011005Z AUTO 05003KT 8SM OVC004 A3020 RMK MADISHF
BIS,2017-04-01 10:10,-100.7458,46.7727,M,M,M,50.00,4.00,M,30.20,M,8.00,M,OVC,M,M,M,400.00,M,M,M,M,KBIS 011010Z AUTO 05004KT 8SM OVC004 A3020 RMK MADISHF
BIS,2017-04-01 10:15,-100.7458,46.7727,M,M,M,60.00,4.00,M,30.20,M,7.00,M,OVC,M,M,M,400.00,M,M,M,M,KBIS 011015Z AUTO 06004KT 7SM OVC004 A3020 RMK MADISHF
BIS,2017-04-01 10:20,-100.7458,46.7727,M,M,M,60.00,4.00,M,30.20,M,7.00,M,OVC,M,M,M,400.00,M,M,M,M,KBIS 011020Z AUTO 06004KT 7SM OVC004 A3020 RMK MADISHF
BIS,2017-04-01 10:25,-100.7458,46.7727,M,M,M,60.00,4.00,M,30.20,M,7.00,M,OVC,M,M,M,400.00,M,M,M,M,KBIS 011025Z AUTO 06004KT 7SM OVC004 A3020 RMK MADISHF
BIS,2017-04-01 10:30,-100.7458,46.7727,M,M,M,50.00,3.00,M,30.20,M,7.00,M,OVC,M,M,M,400.00,M,M,M,M,KBIS 011030Z AUTO 05003KT 7SM OVC004 A3020 RMK MADISHF
BIS,2017-04-01 10:35,-100.7458,46.7727,M,M,M,60.00,4.00,M,30.20,M,7.00,M,OVC,M,M,M,300.00,M,M,M,M,KBIS 011035Z AUTO 06004KT 7SM OVC003 A3020 RMK MADISHF
BIS,2017-04-01 10:40,-100.7458,46.7727,M,M,M,60.00,4.00,M,30.20,M,6.00,M,OVC,M,M,M,300.00,M,M,M,BR,KBIS 011040Z AUTO 06004KT 6SM BR OVC003 A3020 RMK MADISHF
BIS,2017-04-01 10:45,-100.7458,46.7727,M,M,M,60.00,5.00,M,30.20,M,6.00,M,OVC,M,M,M,300.00,M,M,M,BR,KBIS 011045Z AUTO 06005KT 6SM BR OVC003 A3020 RMK MADISHF
BIS,2017-04-01 10:50,-100.7458,46.7727,M,M,M,50.00,4.00,M,30.20,M,6.00,M,OVC,M,M,M,300.00,M,M,M,BR,KBIS 011050Z AUTO 05004KT 6SM BR OVC003 A3020 RMK MADISHF
BIS,2017-04-01 10:52,-100.7458,46.7727,43.00,41.00,92.58,50.00,4.00,0.00,30.21,1023.60,6.00,M,OVC,M,M,M,300.00,M,M,M,BR,KBIS 011052Z 05004KT 6SM BR OVC003 06/05 A3021 RMK AO2 SLP236 T00610050
BIS,2017-04-01 10:55,-100.7458,46.7727,M,M,M,50.00,4.00,M,30.20,M,6.00,M,OVC,M,M,M,300.00,M,M,M,BR,KBIS 011055Z AUTO 05004KT 6SM BR OVC003 A3020 RMK MADISHF
BIS,2017-04-01 11:00,-100.7458,46.7727,M,M,M,60.00,4.00,M,30.20,M,6.00,M,OVC,M,M,M,300.00,M,M,M,BR,KBIS 011100Z AUTO 06004KT 6SM BR OVC003 A3020 RMK MADISHF
BIS,2017-04-01 11:05,-100.7458,46.7727,M,M,M,80.00,3.00,M,30.20,M,6.00,M,OVC,M,M,M,300.00,M,M,M,BR,KBIS 011105Z AUTO 08003KT 6SM BR OVC003 A3020 RMK MADISHF
BIS,2017-04-01 11:10,-100.7458,46.7727,M,M,M,70.00,3.00,M,30.20,M,6.00,M,OVC,M,M,M,300.00,M,M,M,BR,KBIS 011110Z AUTO 07003KT 6SM BR OVC003 A3020 RMK MADISHF
BIS,2017-04-01 11:15,-100.7458,46.7727,M,M,M,70.00,3.00,M,30.20,M,6.00,M,OVC,M,M,M,300.00,M,M,M,BR,KBIS 011115Z AUTO 07003KT 6SM BR OVC003 A3020 RMK MADISHF
BIS,2017-04-01 11:20,-100.7458,46.7727,M,M,M,80.00,3.00,M,30.20,M,6.00,M,OVC,M,M,M,300.00,M,M,M,BR,KBIS 011120Z AUTO 08003KT 6SM BR OVC003 A3020 RMK MADISHF
BIS,2017-04-01 11:25,-100.7458,46.7727,M,M,M,80.00,4.00,M,30.20,M,6.00,M,OVC,M,M,M,400.00,M,M,M,BR,KBIS 011125Z AUTO 08004KT 6SM BR OVC004 A3020 RMK MADISHF
BIS,2017-04-01 11:30,-100.7458,46.7727,M,M,M,70.00,4.00,M,30.20,M,6.00,M,BKN,OVC,M,M,400.00,7500.00,M,M,BR,KBIS 011130Z AUTO 07004KT 6SM BR BKN004 OVC075 A3020 RMK MADISHF
BIS,2017-04-01 11:35,-100.7458,46.7727,M,M,M,70.00,5.00,M,30.20,M,6.00,M,BKN,OVC,M,M,300.00,7500.00,M,M,BR,KBIS 011135Z AUTO 07005KT 6SM BR BKN003 OVC075 A3020 RMK MADISHF
BIS,2017-04-01 11:40,-100.7458,46.7727,M,M,M,70.00,4.00,M,30.20,M,6.00,M,BKN,OVC,M,M,300.00,7500.00,M,M,BR,KBIS 011140Z AUTO 07004KT 6SM BR BKN003 OVC075 A3020 RMK MADISHF
BIS,2017-04-01 11:45,-100.7458,46.7727,M,M,M,60.00,5.00,M,30.20,M,6.00,M,BKN,OVC,M,M,300.00,7500.00,M,M,BR,KBIS 011145Z AUTO 06005KT 6SM BR BKN003 OVC075 A3020 RMK MADISHF
BIS,2017-04-01 11:50,-100.7458,46.7727,M,M,M,50.00,4.00,M,30.20,M,6.00,M,BKN,OVC,M,M,300.00,7500.00,M,M,BR,KBIS 011150Z AUTO 05004KT 6SM BR BKN003 OVC075 A3020 RMK MADISHF
BIS,2017-04-01 11:52,-100.7458,46.7727,43.00,41.00,92.58,50.00,5.00,0.00,30.20,1023.30,6.00,M,BKN,OVC,M,M,300.00,7500.00,M,M,BR,KBIS 011152Z 05005KT 6SM BR BKN003 OVC075 06/05 A3020 RMK AO2 SLP233 T00610050 10083 20061 56004
BIS,2017-04-01 11:55,-100.7458,46.7727,M,M,M,50.00,4.00,M,30.20,M,6.00,M,BKN,OVC,M,M,300.00,7500.00,M,M,BR,KBIS 011155Z AUTO 05004KT 6SM BR BKN003 OVC075 A3020 RMK MADISHF
BIS,2017-04-01 12:00,-100.7458,46.7727,M,M,M,50.00,4.00,M,30.20,M,6.00,M,BKN,OVC,M,M,300.00,7500.00,M,M,BR,KBIS 011200Z AUTO 05004KT 6SM BR BKN003 OVC075 A3020 RMK MADISHF
BIS,2017-04-01 12:05,-100.7458,46.7727,M,M,M,60.00,5.00,M,30.20,M,7.00,M,OVC,M,M,M,300.00,M,M,M,M,KBIS 011205Z AUTO 06005KT 7SM OVC003 A3020 RMK MADISHF
BIS,2017-04-01 12:10,-100.7458,46.7727,M,M,M,70.00,4.00,M,30.20,M,7.00,M,OVC,M,M,M,300.00,M,M,M,M,KBIS 011210Z AUTO 07004KT 7SM OVC003 A3020 RMK MADISHF
BIS,2017-04-01 12:15,-100.7458,46.7727,M,M,M,70.00,4.00,M,30.20,M,7.00,M,OVC,M,M,M,300.00,M,M,M,M,KBIS 011215Z AUTO 07004KT 7SM OVC003 A3020 RMK MADISHF
BIS,2017-04-01 12:20,-100.7458,46.7727,M,M,M,60.00,4.00,M,30.20,M,7.00,M,OVC,M,M,M,300.00,M,M,M,M,KBIS 011220Z AUTO 06004KT 7SM OVC003 A3020 RMK MADISHF
BIS,2017-04-01 12:25,-100.7458,46.7727,M,M,M,80.00,5.00,M,30.20,M,7.00,M,OVC,M,M,M,300.00,M,M,M,M,KBIS 011225Z AUTO 08005KT 7SM OVC003 A3020 RMK MADISHF
BIS,2017-04-01 12:30,-100.7458,46.7727,M,M,M,80.00,5.00,M,30.20,M,6.00,M,OVC,M,M,M,300.00,M,M,M,BR,KBIS 011230Z AUTO 08005KT 6SM BR OVC003 A3020 RMK MADISHF
BIS,2017-04-01 12:35,-100.7458,46.7727,M,M,M,80.00,4.00,M,30.20,M,6.00,M,OVC,M,M,M,300.00,M,M,M,BR,KBIS 011235Z AUTO 08004KT 6SM BR OVC003 A3020 RMK MADISHF
BIS,2017-04-01 12:40,-100.7458,46.7727,M,M,M,90.00,5.00,M,30.20,M,5.00,M,OVC,M,M,M,300.00,M,M,M,BR,KBIS 011240Z AUTO 09005KT 5SM BR OVC003 A3020 RMK MADISHF
BIS,2017-04-01 12:45,-100.7458,46.7727,M,M,M,90.00,5.00,M,30.20,M,5.00,M,OVC,M,M,M,300.00,M,M,M,BR,KBIS 011245Z AUTO 09005KT 5SM BR OVC003 A3020 RMK MADISHF
BIS,2017-04-01 12:50,-100.7458,46.7727,M,M,M,90.00,6.00,M,30.20,M,4.00,M,OVC,M,M,M,300.00,M,M,M,BR,KBIS 011250Z AUTO 09006KT 4SM BR OVC003 A3020 RMK MADISHF
BIS,2017-04-01 12:52,-100.7458,46.7727,42.10,41.00,95.84,90.00,5.00,0.00,30.20,1023.50,4.00,M,OVC,M,M,M,300.00,M,M,M,BR,KBIS 011252Z 09005KT 4SM BR OVC003 06/05 A3020 RMK AO2 SLP235 T00560050
BIS,2017-04-01 12:55,-100.7458,46.7727,M,M,M,80.00,5.00,M,30.20,M,4.00,M,OVC,M,M,M,300.00,M,M,M,BR,KBIS 011255Z AUTO 08005KT 4SM BR OVC003 A3020 RMK MADISHF
BIS,2017-04-01 13:00,-100.7458,46.7727,M,M,M,70.00,6.00,M,30.20,M,4.00,M,OVC,M,M,M,300.00,M,M,M,BR,KBIS 011300Z AUTO 07006KT 4SM BR OVC003 A3020 RMK MADISHF
BIS,2017-04-01 13:05,-100.7458,46.7727,M,M,M,80.00,6.00,M,30.20,M,4.00,M,OVC,M,M,M,300.00,M,M,M,BR,KBIS 011305Z AUTO 08006KT 4SM BR OVC003 A3020 RMK MADISHF
BIS,2017-04-01 13:10,-100.7458,46.7727,M,M,M,80.00,5.00,M,30.20,M,4.00,M,OVC,M,M,M,300.00,M,M,M,BR,KBIS 011310Z AUTO 08005KT 4SM BR OVC003 A3020 RMK MADISHF
BIS,2017-04-01 13:15,-100.7458,46.7727,M,M,M,80.00,5.00,M,30.20,M,4.00,M,OVC,M,M,M,300.00,M,M,M,BR,KBIS 011315Z AUTO 08005KT 4SM BR OVC003 A3020 RMK MADISHF
BIS,2017-04-01 13:20,-100.7458,46.7727,M,M,M,70.00,5.00,M,30.20,M,4.00,M,OVC,M,M,M,300.00,M,M,M,BR,KBIS 011320Z AUTO 07005KT 4SM BR OVC003 A3020 RMK MADISHF
BIS,2017-04-01 13:25,-100.7458,46.7727,M,M,M,70.00,6.00,M,30.20,M,4.00,M,OVC,M,M,M,300.00,M,M,M,BR,KBIS 011325Z AUTO 07006KT 4SM BR OVC003 A3020 RMK MADISHF
BIS,2017-04-01 13:30,-100.7458,46.7727,M,M,M,70.00,4.00,M,30.20,M,4.00,M,OVC,M,M,M,300.00,M,M,M,BR,KBIS 011330Z AUTO 07004KT 4SM BR OVC003 A3020 RMK MADISHF
BIS,2017-04-01 13:35,-100.7458,46.7727,M,M,M,60.00,5.00,M,30.20,M,4.00,M,OVC,M,M,M,300.00,M,M,M,BR,KBIS 011335Z AUTO 06005KT 4SM BR OVC003 A3020 RMK MADISHF
BIS,2017-04-01 13:40,-100.7458,46.7727,M,M,M,60.00,5.00,M,30.20,M,3.50,M,OVC,M,M,M,200.00,M,M,M,BR,KBIS 011340Z AUTO 06005KT 3SM BR OVC002 A3020 RMK MADISHF
BIS,2017-04-01 13:45,-100.7458,46.7727,M,M,M,50.00,6.00,M,30.20,M,4.00,M,OVC,M,M,M,200.00,M,M,M,BR,KBIS 011345Z AUTO 05006KT 4SM BR OVC002 A3020 RMK MADISHF
BIS,2017-04-01 13:50,-100.7458,46.7727,M,M,M,60.00,5.00,M,30.20,M,4.00,M,OVC,M,M,M,200.00,M,M,M,BR,KBIS 011350Z AUTO 06005KT 4SM BR OVC002 A3020 RMK MADISHF
BIS,2017-04-01 13:52,-100.7458,46.7727,43.00,41.00,92.58,60.00,5.00,0.00,30.20,1023.70,5.00,M,OVC,M,M,M,200.00,M,M,M,BR,KBIS 011352Z 06005KT 5SM BR OVC002 06/05 A3020 RMK AO2 SLP237 T00610050
BIS,2017-04-01 13:55,-100.7458,46.7727,M,M,M,60.00,5.00,M,30.20,M,5.00,M,OVC,M,M,M,200.00,M,M,M,BR,KBIS 011355Z AUTO 06005KT 5SM BR OVC002 A3020 RMK MADISHF
BIS,2017-04-01 14:00,-100.7458,46.7727,M,M,M,60.00,5.00,M,30.20,M,6.00,M,OVC,M,M,M,200.00,M,M,M,BR,KBIS 011400Z AUTO 06005KT 6SM BR OVC002 A3020 RMK MADISHF
BIS,2017-04-01 14:05,-100.7458,46.7727,M,M,M,80.00,4.00,M,30.20,M,6.00,M,BKN,OVC,M,M,300.00,7000.00,M,M,BR,KBIS 011405Z AUTO 08004KT 6SM BR BKN003 OVC070 A3020 RMK MADISHF
BIS,2017-04-01 14:10,-100.7458,46.7727,M,M,M,70.00,4.00,M,30.19,M,6.00,M,OVC,M,M,M,300.00,M,M,M,BR,KBIS 011410Z AUTO 07004KT 6SM BR OVC003 A3019 RMK CIG 2V6  MADISHF
BIS,2017-04-01 14:15,-100.7458,46.7727,M,M,M,80.00,5.00,M,30.19,M,5.00,M,OVC,M,M,M,300.00,M,M,M,BR,KBIS 011415Z AUTO 08005KT 5SM BR OVC003 A3019 RMK CIG 2V6  MADISHF
BIS,2017-04-01 14:20,-100.7458,46.7727,M,M,M,80.00,6.00,M,30.19,M,5.00,M,OVC,M,M,M,300.00,M,M,M,BR,KBIS 011420Z AUTO 08006KT 5SM BR OVC003 A3019 RMK CIG 2V6  MADISHF
BIS,2017-04-01 14:25,-100.7458,46.7727,M,M,M,100.00,5.00,M,30.19,M,6.00,M,OVC,M,M,M,400.00,M,M,M,BR,KBIS 011425Z AUTO 10005KT 6SM BR OVC004 A3019 RMK MADISHF
BIS,2017-04-01 14:30,-100.7458,46.7727,M,M,M,100.00,4.00,M,30.20,M,7.00,M,BKN,OVC,M,M,400.00,7000.00,M,M,M,KBIS 011430Z AUTO 10004KT 7SM BKN004 OVC070 A3020 RMK MADISHF
BIS,2017-04-01 14:35,-100.7458,46.7727,M,M,M,110.00,5.00,M,30.20,M,8.00,M,BKN,OVC,M,M,499.00,7000.00,M,M,M,KBIS 011435Z AUTO 11005KT 8SM BKN004 OVC070 A3020 RMK CIG 3V8  MADISHF
BIS,2017-04-01 14:40,-100.7458,46.7727,45.00,41.00,85.77,110.00,5.00,0.00,30.20,M,10.00,M,OVC,M,M,M,500.00,M,M,M,M,KBIS 011440Z 11005KT 10SM OVC005 07/05 A3020 RMK AO2 CIG 004V009 T00720050
BIS,2017-04-01 14:45,-100.7458,46.7727,M,M,M,130.00,5.00,M,30.19,M,10.00,M,BKN,OVC,M,M,700.00,7000.00,M,M,M,KBIS 011445Z AUTO 13005KT 10SM BKN007 OVC070 A3019 RMK CIG 4V9  MADISHF
BIS,2017-04-01 14:50,-100.7458,46.7727,M,M,M,130.00,7.00,M,30.19,M,10.00,M,BKN,OVC,M,M,700.00,7000.00,M,M,M,KBIS 011450Z AUTO 13007KT 10SM BKN007 OVC070 A3019 RMK CIG 4V9  MADISHF
BIS,2017-04-01 14:52,-100.7458,46.7727,46.00,41.00,82.58,150.00,7.00,0.00,30.19,1023.30,10.00,M,BKN,OVC,M,M,700.00,7000.00,M,M,M,KBIS 011452Z 15007KT 10SM BKN007 OVC070 08/05 A3019 RMK AO2 CIG 005V010 SLP233 T00780050 58002
BIS,2017-04-01 14:55,-100.7458,46.7727,M,M,M,160.00,5.00,M,30.19,M,10.00,M,BKN,OVC,M,M,700.00,7000.00,M,M,M,KBIS 011455Z AUTO 16005KT 10SM BKN007 OVC070 A3019 RMK CIG 5V10  MADISHF
BIS,2017-04-01 15:00,-100.7458,46.7727,M,M,M,160.00,5.00,M,30.19,M,10.00,M,BKN,OVC,M,M,800.00,7000.00,M,M,M,KBIS 011500Z AUTO 16005KT 10SM BKN008 OVC070 A3019 RMK CIG 5V10  MADISHF
BIS,2017-04-01 15:05,-100.7458,46.7727,M,M,M,130.00,4.00,M,30.19,M,10.00,M,BKN,OVC,M,M,800.00,7000.00,M,M,M,KBIS 011505Z AUTO 13004KT 10SM BKN008 OVC070 A3019 RMK CIG 7V10  MADISHF
BIS,2017-04-01 15:10,-100.7458,46.7727,M,M,M,150.00,6.00,M,30.19,M,10.00,M,SCT,OVC,M,M,800.00,7000.00,M,M,M,KBIS 011510Z AUTO 15006KT 10SM SCT008 OVC070 A3019 RMK MADISHF
BIS,2017-04-01 15:15,-100.7458,46.7727,M,M,M,150.00,4.00,M,30.19,M,10.00,M,SCT,OVC,M,M,999.00,7000.00,M,M,M,KBIS 011515Z AUTO 15004KT 10SM SCT009 OVC070 A3019 RMK VRB04KT  MADISHF
BIS,2017-04-01 15:16,-100.7458,46.7727,48.00,41.00,76.58,150.00,4.00,0.00,30.19,M,10.00,M,FEW,OVC,M,M,1000.00,7000.00,M,M,M,KBIS 011516Z 15004KT 10SM FEW010 OVC070 09/05 A3019 RMK AO2 T00890050
BIS,2017-04-01 15:20,-100.7458,46.7727,M,M,M,150.00,3.00,M,30.19,M,10.00,M,FEW,OVC,M,M,999.00,7000.00,M,M,M,KBIS 011520Z AUTO 15003KT 10SM FEW009 OVC070 A3019 RMK MADISHF
BIS,2017-04-01 15:25,-100.7458,46.7727,M,M,M,180.00,3.00,M,30.19,M,10.00,M,FEW,OVC,M,M,999.00,7000.00,M,M,M,KBIS 011525Z AUTO 18003KT 10SM FEW009 OVC070 A3019 RMK VRB03KT  MADISHF
BIS,2017-04-01 15:30,-100.7458,46.7727,M,M,M,150.00,4.00,M,30.19,M,10.00,M,FEW,OVC,M,M,999.00,7000.00,M,M,M,KBIS 011530Z AUTO 15004KT 10SM FEW009 OVC070 A3019 RMK MADISHF
BIS,2017-04-01 15:35,-100.7458,46.7727,M,M,M,150.00,4.00,M,30.19,M,10.00,M,OVC,M,M,M,7000.00,M,M,M,M,KBIS 011535Z AUTO 15004KT 10SM OVC070 A3019 RMK MADISHF
BIS,2017-04-01 15:40,-100.7458,46.7727,M,M,M,170.00,4.00,M,30.19,M,10.00,M,OVC,M,M,M,7000.00,M,M,M,M,KBIS 011540Z AUTO 17004KT 10SM OVC070 A3019 RMK MADISHF
BIS,2017-04-01 15:45,-100.7458,46.7727,M,M,M,180.00,3.00,M,30.19,M,10.00,M,OVC,M,M,M,7000.00,M,M,M,M,KBIS 011545Z AUTO 18003KT 10SM OVC070 A3019 RMK MADISHF
BIS,2017-04-01 15:50,-100.7458,46.7727,M,M,M,140.00,3.00,M,30.19,M,10.00,M,OVC,M,M,M,7000.00,M,M,M,M,KBIS 011550Z AUTO 14003KT 10SM OVC070 A3019 RMK MADISHF
BIS,2017-04-01 15:52,-100.7458,46.7727,52.00,41.00,66.00,M,3.00,0.00,30.19,1023.00,10.00,M,OVC,M,M,M,7000.00,M,M,M,M,KBIS 011552Z VRB03KT 10SM OVC070 11/05 A3019 RMK AO2 SLP230 T01110050
BIS,2017-04-01 15:55,-100.7458,46.7727,M,M,M,0.00,0.00,M,30.19,M,10.00,M,OVC,M,M,M,7000.00,M,M,M,M,KBIS 011555Z AUTO 00000KT 10SM OVC070 A3019 RMK MADISHF
BIS,2017-04-01 16:00,-100.7458,46.7727,M,M,M,210.00,4.00,M,30.19,M,10.00,M,OVC,M,M,M,7000.00,M,M,M,M,KBIS 011600Z AUTO 21004KT 10SM OVC070 A3019 RMK MADISHF
BIS,2017-04-01 16:05,-100.7458,46.7727,M,M,M,0.00,0.00,M,30.19,M,10.00,M,OVC,M,M,M,7000.00,M,M,M,M,KBIS 011605Z AUTO 00000KT 10SM OVC070 A3019 RMK MADISHF
BIS,2017-04-01 16:10,-100.7458,46.7727,M,M,M,200.00,4.00,M,30.18,M,10.00,M,OVC,M,M,M,7000.00,M,M,M,M,KBIS 011610Z AUTO 20004KT 10SM OVC070 A3018 RMK MADISHF
BIS,2017-04-01 16:15,-100.7458,46.7727,M,M,M,230.00,4.00,M,30.18,M,10.00,M,OVC,M,M,M,7000.00,M,M,M,M,KBIS 011615Z AUTO 23004KT 10SM OVC070 A3018 RMK MADISHF
BIS,2017-04-01 16:20,-100.7458,46.7727,M,M,M,200.00,5.00,M,30.18,M,10.00,M,OVC,M,M,M,7000.00,M,M,M,M,KBIS 011620Z AUTO 20005KT 10SM OVC070 A3018 RMK MADISHF
BIS,2017-04-01 16:25,-100.7458,46.7727,M,M,M,0.00,0.00,M,30.18,M,10.00,M,OVC,M,M,M,7000.00,M,M,M,M,KBIS 011625Z AUTO 00000KT 10SM OVC070 A3018 RMK MADISHF
BIS,2017-04-01 16:30,-100.7458,46.7727,M,M,M,210.00,3.00,M,30.18,M,10.00,M,OVC,M,M,M,7000.00,M,M,M,M,KBIS 011630Z AUTO 21003KT 10SM OVC070 A3018 RMK MADISHF
BIS,2017-04-01 16:35,-100.7458,46.7727,M,M,M,190.00,4.00,M,30.18,M,10.00,M,BKN,M,M,M,7000.00,M,M,M,M,KBIS 011635Z AUTO 19004KT 10SM BKN070 A3018 RMK MADISHF
BIS,2017-04-01 16:40,-100.7458,46.7727,M,M,M,220.00,5.00,M,30.18,M,10.00,M,BKN,M,M,M,7000.00,M,M,M,M,KBIS 011640Z AUTO 22005KT 10SM BKN070 A3018 RMK MADISHF
BIS,2017-04-01 16:45,-100.7458,46.7727,M,M,M,180.00,3.00,M,30.17,M,10.00,M,SCT,M,M,M,7000.00,M,M,M,M,KBIS 011645Z AUTO 18003KT 10SM SCT070 A3017 RMK MADISHF
BIS,2017-04-01 16:50,-100.7458,46.7727,M,M,M,240.00,3.00,M,30.17,M,10.00,M,SCT,M,M,M,7000.00,M,M,M,M,KBIS 011650Z AUTO 24003KT 10SM SCT070 A3017 RMK VRB03KT  MADISHF
BIS,2017-04-01 16:52,-100.7458,46.7727,57.00,39.90,52.70,0.00,0.00,0.00,30.17,1022.10,10.00,M,FEW,M,M,M,7000.00,M,M,M,M,KBIS 011652Z 00000KT 10SM FEW070 14/04 A3017 RMK AO2 SLP221 T01390044
BIS,2017-04-01 16:55,-100.7458,46.7727,M,M,M,0.00,0.00,M,30.16,M,10.00,M,FEW,M,M,M,7000.00,M,M,M,M,KBIS 011655Z AUTO 00000KT 10SM FEW070 A3016 RMK MADISHF
BIS,2017-04-01 17:00,-100.7458,46.7727,M,M,M,180.00,4.00,M,30.16,M,10.00,M,CLR,M,M,M,M,M,M,M,M,KBIS 011700Z AUTO 18004KT 10SM CLR A3016 RMK VRB04KT  MADISHF
BIS,2017-04-01 17:05,-100.7458,46.7727,M,M,M,250.00,8.00,M,30.16,M,10.00,M,CLR,M,M,M,M,M,M,M,M,KBIS 011705Z AUTO 25008KT 10SM CLR A3016 RMK MADISHF
BIS,2017-04-01 17:10,-100.7458,46.7727,M,M,M,230.00,10.00,M,30.16,M,10.00,M,CLR,M,M,M,M,M,M,M,M,KBIS 011710Z AUTO 23010KT 10SM CLR A3016 RMK MADISHF
BIS,2017-04-01 17:15,-100.7458,46.7727,M,M,M,230.00,6.00,M,30.16,M,10.00,M,CLR,M,M,M,M,M,M,M,M,KBIS 011715Z AUTO 23006KT 10SM CLR A3016 RMK MADISHF
BIS,2017-04-01 17:20,-100.7458,46.7727,M,M,M,220.00,8.00,M,30.15,M,10.00,M,CLR,M,M,M,M,M,M,M,M,KBIS 011720Z AUTO 22008KT 10SM CLR A3015 RMK MADISHF
BIS,2017-04-01 17:25,-100.7458,46.7727,M,M,M,230.00,11.00,M,30.15,M,10.00,M,CLR,M,M,M,M,M,M,M,M,KBIS 011725Z AUTO 23011KT 10SM CLR A3015 RMK MADISHF
BIS,2017-04-01 17:30,-100.7458,46.7727,M,M,M,210.00,12.00,M,30.15,M,10.00,M,FEW,M,M,M,6000.00,M,M,M,M,KBIS 011730Z AUTO 21012KT 10SM FEW060 A3015 RMK MADISHF
BIS,2017-04-01 17:35,-100.7458,46.7727,M,M,M,200.00,10.00,M,30.14,M,10.00,M,FEW,M,M,M,6000.00,M,M,M,M,KBIS 011735Z AUTO 20010KT 10SM FEW060 A3014 RMK MADISHF
BIS,2017-04-01 17:40,-100.7458,46.7727,M,M,M,210.00,10.00,M,30.14,M,10.00,16.00,FEW,M,M,M,6000.00,M,M,M,M,KBIS 011740Z AUTO 21010G16KT 10SM FEW060 A3014 RMK MADISHF
BIS,2017-04-01 17:45,-100.7458,46.7727,M,M,M,230.00,6.00,M,30.14,M,10.00,M,FEW,M,M,M,6000.00,M,M,M,M,KBIS 011745Z AUTO 23006KT 10SM FEW060 A3014 RMK MADISHF
BIS,2017-04-01 17:50,-100.7458,46.7727,M,M,M,240.00,7.00,M,30.13,M,10.00,M,FEW,M,M,M,5500.00,M,M,M,M,KBIS 011750Z AUTO 24007KT 10SM FEW055 A3013 RMK MADISHF
BIS,2017-04-01 17:52,-100.7458,46.7727,62.10,34.00,34.81,200.00,8.00,0.00,30.13,1020.80,10.00,M,FEW,M,M,M,5500.00,M,M,M,M,KBIS 011752Z 20008KT 10SM FEW055 17/01 A3013 RMK AO2 SLP208 T01670011 10167 20056 58019
BIS,2017-04-01 17:55,-100.7458,46.7727,M,M,M,250.00,9.00,M,30.13,M,10.00,M,SCT,M,M,M,6000.00,M,M,M,M,KBIS 011755Z AUTO 25009KT 10SM SCT060 A3013 RMK MADISHF
BIS,2017-04-01 18:00,-100.7458,46.7727,M,M,M,230.00,11.00,M,30.13,M,10.00,M,FEW,M,M,M,6000.00,M,M,M,M,KBIS 011800Z AUTO 23011KT 10SM FEW060 A3013 RMK MADISHF
BIS,2017-04-01 18:05,-100.7458,46.7727,M,M,M,190.00,8.00,M,30.13,M,10.00,M,SCT,M,M,M,6000.00,M,M,M,M,KBIS 011805Z AUTO 19008KT 10SM SCT060 A3013 RMK MADISHF
BIS,2017-04-01 18:10,-100.7458,46.7727,M,M,M,210.00,6.00,M,30.13,M,10.00,M,SCT,M,M,M,6000.00,M,M,M,M,KBIS 011810Z AUTO 21006KT 10SM SCT060 A3013 RMK MADISHF
BIS,2017-04-01 18:15,-100.7458,46.7727,M,M,M,230.00,10.00,M,30.12,M,10.00,M,FEW,M,M,M,6000.00,M,M,M,M,KBIS 011815Z AUTO 23010KT 10SM FEW060 A3012 RMK MADISHF
BIS,2017-04-01 18:20,-100.7458,46.7727,M,M,M,220.00,9.00,M,30.12,M,10.00,M,FEW,M,M,M,6000.00,M,M,M,M,KBIS 011820Z AUTO 22009KT 10SM FEW060 A3012 RMK MADISHF
BIS,2017-04-01 18:25,-100.7458,46.7727,M,M,M,210.00,8.00,M,30.12,M,10.00,M,SCT,M,M,M,6000.00,M,M,M,M,KBIS 011825Z AUTO 21008KT 10SM SCT060 A3012 RMK MADISHF
BIS,2017-04-01 18:30,-100.7458,46.7727,M,M,M,230.00,10.00,M,30.12,M,10.00,M,SCT,M,M,M,6000.00,M,M,M,M,KBIS 011830Z AUTO 23010KT 10SM SCT060 A3012 RMK MADISHF
BIS,2017-04-01 18:35,-100.7458,46.7727,M,M,M,230.00,11.00,M,30.12,M,10.00,M,SCT,M,M,M,6000.00,M,M,M,M,KBIS 011835Z AUTO 23011KT 10SM SCT060 A3012 RMK MADISHF
BIS,2017-04-01 18:40,-100.7458,46.7727,M,M,M,240.00,9.00,M,30.11,M,10.00,M,BKN,M,M,M,6000.00,M,M,M,M,KBIS 011840Z AUTO 24009KT 10SM BKN060 A3011 RMK MADISHF
BIS,2017-04-01 18:45,-100.7458,46.7727,M,M,M,230.00,9.00,M,30.11,M,10.00,M,BKN,M,M,M,6000.00,M,M,M,M,KBIS 011845Z AUTO 23009KT 10SM BKN060 A3011 RMK MADISHF
BIS,2017-04-01 18:50,-100.7458,46.7727,M,M,M,230.00,9.00,M,30.11,M,10.00,M,BKN,M,M,M,6000.00,M,M,M,M,KBIS 011850Z AUTO 23009KT 10SM BKN060 A3011 RMK MADISHF
BIS,2017-04-01 18:52,-100.7458,46.7727,61.00,34.00,36.19,240.00,7.00,0.00,30.11,1020.10,10.00,M,BKN,M,M,M,6000.00,M,M,M,M,KBIS 011852Z 24007KT 10SM BKN060 16/01 A3011 RMK AO2 SLP201 T01610011
BIS,2017-04-01 18:55,-100.7458,46.7727,M,M,M,220.00,7.00,M,30.11,M,10.00,M,BKN,M,M,M,6000.00,M,M,M,M,KBIS 011855Z AUTO 22007KT 10SM BKN060 A3011 RMK MADISHF
BIS,2017-04-01 19:00,-100.7458,46.7727,M,M,M,210.00,11.00,M,30.10,M,10.00,M,BKN,M,M,M,6000.00,M,M,M,M,KBIS 011900Z AUTO 21011KT 10SM BKN060 A3010 RMK MADISHF
BIS,2017-04-01 19:05,-100.7458,46.7727,M,M,M,220.00,10.00,M,30.10,M,10.00,M,BKN,M,M,M,6000.00,M,M,M,M,KBIS 011905Z AUTO 22010KT 10SM BKN060 A3010 RMK MADISHF
BIS,2017-04-01 19:10,-100.7458,46.7727,M,M,M,250.00,8.00,M,30.10,M,10.00,M,SCT,M,M,M,6000.00,M,M,M,M,KBIS 011910Z AUTO 25008KT 10SM SCT060 A3010 RMK WND 21V28  MADISHF
BIS,2017-04-01 19:15,-100.7458,46.7727,M,M,M,220.00,9.00,M,30.09,M,10.00,M,FEW,M,M,M,6000.00,M,M,M,M,KBIS 011915Z AUTO 22009KT 10SM FEW060 A3009 RMK MADISHF
BIS,2017-04-01 19:20,-100.7458,46.7727,M,M,M,230.00,11.00,M,30.09,M,10.00,M,FEW,M,M,M,6000.00,M,M,M,M,KBIS 011920Z AUTO 23011KT 10SM FEW060 A3009 RMK MADISHF
BIS,2017-04-01 19:25,-100.7458,46.7727,M,M,M,240.00,11.00,M,30.08,M,10.00,M,FEW,M,M,M,6500.00,M,M,M,M,KBIS 011925Z AUTO 24011KT 10SM FEW065 A3008 RMK MADISHF
BIS,2017-04-01 19:30,-100.7458,46.7727,M,M,M,210.00,11.00,M,30.08,M,10.00,M,FEW,M,M,M,6500.00,M,M,M,M,KBIS 011930Z AUTO 21011KT 10SM FEW065 A3008 RMK MADISHF
BIS,2017-04-01 19:35,-100.7458,46.7727,M,M,M,200.00,13.00,M,30.08,M,10.00,M,FEW,M,M,M,6500.00,M,M,M,M,KBIS 011935Z AUTO 20013KT 10SM FEW065 A3008 RMK MADISHF
BIS,2017-04-01 19:40,-100.7458,46.7727,M,M,M,210.00,8.00,M,30.08,M,10.00,M,CLR,M,M,M,M,M,M,M,M,KBIS 011940Z AUTO 21008KT 10SM CLR A3008 RMK MADISHF
BIS,2017-04-01 19:45,-100.7458,46.7727,M,M,M,200.00,12.00,M,30.07,M,10.00,M,CLR,M,M,M,M,M,M,M,M,KBIS 011945Z AUTO 20012KT 10SM CLR A3007 RMK MADISHF
BIS,2017-04-01 19:50,-100.7458,46.7727,M,M,M,200.00,14.00,M,30.07,M,10.00,M,CLR,M,M,M,M,M,M,M,M,KBIS 011950Z AUTO 20014KT 10SM CLR A3007 RMK MADISHF
BIS,2017-04-01 19:52,-100.7458,46.7727,64.90,32.00,29.12,190.00,10.00,0.00,30.07,1018.70,10.00,18.00,CLR,M,M,M,M,M,M,M,M,KBIS 011952Z AUTO 19010G18KT 10SM CLR 18/00 A3007 RMK AO2 SLP187 T01830000
BIS,2017-04-01 19:55,-100.7458,46.7727,M,M,M,190.00,12.00,M,30.07,M,10.00,M,CLR,M,M,M,M,M,M,M,M,KBIS 011955Z AUTO 19012KT 10SM CLR A3007 RMK MADISHF
BIS,2017-04-01 20:00,-100.7458,46.7727,M,M,M,190.00,12.00,M,30.07,M,10.00,M,CLR,M,M,M,M,M,M,M,M,KBIS 012000Z AUTO 19012KT 10SM CLR A3007 RMK WND 16V23  MADISHF
BIS,2017-04-01 20:05,-100.7458,46.7727,M,M,M,220.00,13.00,M,30.06,M,10.00,M,CLR,M,M,M,M,M,M,M,M,KBIS 012005Z AUTO 22013KT 10SM CLR A3006 RMK MADISHF
BIS,2017-04-01 20:10,-100.7458,46.7727,M,M,M,240.00,10.00,M,30.06,M,10.00,M,CLR,M,M,M,M,M,M,M,M,KBIS 012010Z AUTO 24010KT 10SM CLR A3006 RMK MADISHF
BIS,2017-04-01 20:15,-100.7458,46.7727,M,M,M,200.00,13.00,M,30.06,M,10.00,M,FEW,M,M,M,6500.00,M,M,M,M,KBIS 012015Z AUTO 20013KT 10SM FEW065 A3006 RMK MADISHF
BIS,2017-04-01 20:20,-100.7458,46.7727,M,M,M,180.00,10.00,M,30.06,M,10.00,M,FEW,M,M,M,6500.00,M,M,M,M,KBIS 012020Z AUTO 18010KT 10SM FEW065 A3006 RMK MADISHF
BIS,2017-04-01 20:25,-100.7458,46.7727,M,M,M,170.00,8.00,M,30.05,M,10.00,M,FEW,M,M,M,6500.00,M,M,M,M,KBIS 012025Z AUTO 17008KT 10SM FEW065 A3005 RMK MADISHF
BIS,2017-04-01 20:30,-100.7458,46.7727,M,M,M,210.00,12.00,M,30.05,M,10.00,M,FEW,M,M,M,6500.00,M,M,M,M,KBIS 012030Z AUTO 21012KT 10SM FEW065 A3005 RMK MADISHF
BIS,2017-04-01 20:35,-100.7458,46.7727,M,M,M,220.00,11.00,M,30.05,M,10.00,M,FEW,M,M,M,6500.00,M,M,M,M,KBIS 012035Z AUTO 22011KT 10SM FEW065 A3005 RMK MADISHF
BIS,2017-04-01 20:40,-100.7458,46.7727,M,M,M,220.00,10.00,M,30.05,M,10.00,M,FEW,M,M,M,6500.00,M,M,M,M,KBIS 012040Z AUTO 22010KT 10SM FEW065 A3005 RMK MADISHF
BIS,2017-04-01 20:45,-100.7458,46.7727,M,M,M,230.00,14.00,M,30.04,M,10.00,M,CLR,M,M,M,M,M,M,M,M,KBIS 012045Z AUTO 23014KT 10SM CLR A3004 RMK MADISHF
BIS,2017-04-01 20:50,-100.7458,46.7727,M,M,M,200.00,11.00,M,30.04,M,10.00,M,CLR,M,M,M,M,M,M,M,M,KBIS 012050Z AUTO 20011KT 10SM CLR A3004 RMK MADISHF
BIS,2017-04-01 20:52,-100.7458,46.7727,64.90,32.00,29.12,210.00,12.00,0.00,30.04,1017.70,10.00,19.00,CLR,M,M,M,M,M,M,M,M,KBIS 012052Z AUTO 21012G19KT 10SM CLR 18/00 A3004 RMK AO2 SLP177 T01830000 58031
BIS,2017-04-01 20:55,-100.7458,46.7727,M,M,M,200.00,9.00,M,30.04,M,10.00,16.00,CLR,M,M,M,M,M,M,M,M,KBIS 012055Z AUTO 20009G16KT 10SM CLR A3004 RMK WND 17V23  MADISHF
BIS,2017-04-01 21:00,-100.7458,46.7727,M,M,M,200.00,9.00,M,30.03,M,10.00,M,CLR,M,M,M,M,M,M,M,M,KBIS 012100Z AUTO 20009KT 10SM CLR A3003 RMK MADISHF
BIS,2017-04-01 21:05,-100.7458,46.7727,M,M,M,220.00,6.00,M,30.03,M,10.00,M,FEW,M,M,M,6500.00,M,M,M,M,KBIS 012105Z AUTO 22006KT 10SM FEW065 A3003 RMK MADISHF
BIS,2017-04-01 21:10,-100.7458,46.7727,M,M,M,220.00,14.00,M,30.03,M,10.00,M,SCT,M,M,M,6500.00,M,M,M,M,KBIS 012110Z AUTO 22014KT 10SM SCT065 A3003 RMK MADISHF
BIS,2017-04-01 21:15,-100.7458,46.7727,M,M,M,190.00,10.00,M,30.02,M,10.00,M,SCT,M,M,M,6500.00,M,M,M,M,KBIS 012115Z AUTO 19010KT 10SM SCT065 A3002 RMK MADISHF
BIS,2017-04-01 21:20,-100.7458,46.7727,M,M,M,210.00,7.00,M,30.02,M,10.00,M,SCT,M,M,M,6500.00,M,M,M,M,KBIS 012120Z AUTO 21007KT 10SM SCT065 A3002 RMK MADISHF
BIS,2017-04-01 21:25,-100.7458,46.7727,M,M,M,190.00,12.00,M,30.02,M,10.00,M,SCT,M,M,M,7000.00,M,M,M,M,KBIS 012125Z AUTO 19012KT 10SM SCT070 A3002 RMK MADISHF
BIS,2017-04-01 21:30,-100.7458,46.7727,M,M,M,200.00,11.00,M,30.02,M,10.00,M,SCT,M,M,M,6500.00,M,M,M,M,KBIS 012130Z AUTO 20011KT 10SM SCT065 A3002 RMK MADISHF
BIS,2017-04-01 21:35,-100.7458,46.7727,M,M,M,220.00,13.00,M,30.02,M,10.00,M,SCT,M,M,M,6500.00,M,M,M,M,KBIS 012135Z AUTO 22013KT 10SM SCT065 A3002 RMK MADISHF
BIS,2017-04-01 21:40,-100.7458,46.7727,M,M,M,210.00,11.00,M,30.01,M,10.00,M,FEW,M,M,M,7000.00,M,M,M,M,KBIS 012140Z AUTO 21011KT 10SM FEW070 A3001 RMK MADISHF
BIS,2017-04-01 21:45,-100.7458,46.7727,M,M,M,180.00,10.00,M,30.01,M,10.00,M,FEW,M,M,M,7000.00,M,M,M,M,KBIS 012145Z AUTO 18010KT 10SM FEW070 A3001 RMK MADISHF
BIS,2017-04-01 21:50,-100.7458,46.7727,M,M,M,200.00,14.00,M,30.01,M,10.00,M,CLR,M,M,M,M,M,M,M,M,KBIS 012150Z AUTO 20014KT 10SM CLR A3001 RMK MADISHF
BIS,2017-04-01 21:52,-100.7458,46.7727,64.90,32.00,29.12,190.00,13.00,0.00,30.01,1016.70,10.00,M,CLR,M,M,M,M,M,M,M,M,KBIS 012152Z 19013KT 10SM CLR 18/00 A3001 RMK AO2 SLP167 T01830000
BIS,2017-04-01 21:55,-100.7458,46.7727,M,M,M,190.00,12.00,M,30.01,M,10.00,M,CLR,M,M,M,M,M,M,M,M,KBIS 012155Z AUTO 19012KT 10SM CLR A3001 RMK MADISHF
BIS,2017-04-01 22:00,-100.7458,46.7727,M,M,M,180.00,11.00,M,30.01,M,10.00,M,CLR,M,M,M,M,M,M,M,M,KBIS 012200Z AUTO 18011KT 10SM CLR A3001 RMK MADISHF
BIS,2017-04-01 22:05,-100.7458,46.7727,M,M,M,190.00,11.00,M,30.01,M,10.00,17.00,CLR,M,M,M,M,M,M,M,M,KBIS 012205Z AUTO 19011G17KT 10SM CLR A3001 RMK MADISHF
BIS,2017-04-01 22:10,-100.7458,46.7727,M,M,M,210.00,12.00,M,30.01,M,10.00,M,CLR,M,M,M,M,M,M,M,M,KBIS 012210Z AUTO 21012KT 10SM CLR A3001 RMK MADISHF
BIS,2017-04-01 22:15,-100.7458,46.7727,M,M,M,220.00,10.00,M,30.01,M,10.00,M,CLR,M,M,M,M,M,M,M,M,KBIS 012215Z AUTO 22010KT 10SM CLR A3001 RMK MADISHF
BIS,2017-04-01 22:20,-100.7458,46.7727,M,M,M,210.00,14.00,M,30.00,M,10.00,M,CLR,M,M,M,M,M,M,M,M,KBIS 012220Z AUTO 21014KT 10SM CLR A3000 RMK MADISHF
BIS,2017-04-01 22:25,-100.7458,46.7727,M,M,M,200.00,11.00,M,30.00,M,10.00,M,CLR,M,M,M,M,M,M,M,M,KBIS 012225Z AUTO 20011KT 10SM CLR A3000 RMK MADISHF
BIS,2017-04-01 22:30,-100.7458,46.7727,M,M,M,190.00,9.00,M,30.00,M,10.00,M,CLR,M,M,M,M,M,M,M,M,KBIS 012230Z AUTO 19009KT 10SM CLR A3000 RMK MADISHF
BIS,2017-04-01 22:35,-100.7458,46.7727,M,M,M,190.00,10.00,M,30.00,M,10.00,15.00,CLR,M,M,M,M,M,M,M,M,KBIS 012235Z AUTO 19010G15KT 10SM CLR A3000 RMK MADISHF
BIS,2017-04-01 22:40,-100.7458,46.7727,M,M,M,210.00,10.00,M,30.00,M,10.00,M,CLR,M,M,M,M,M,M,M,M,KBIS 012240Z AUTO 21010KT 10SM CLR A3000 RMK MADISHF
BIS,2017-04-01 22:45,-100.7458,46.7727,M,M,M,200.00,13.00,M,30.00,M,10.00,M,CLR,M,M,M,M,M,M,M,M,KBIS 012245Z AUTO 20013KT 10SM CLR A3000 RMK MADISHF
BIS,2017-04-01 22:50,-100.7458,46.7727,M,M,M,200.00,11.00,M,29.99,M,10.00,M,CLR,M,M,M,M,M,M,M,M,KBIS 012250Z AUTO 20011KT 10SM CLR A2999 RMK MADISHF
BIS,2017-04-01 22:52,-100.7458,46.7727,64.00,32.00,30.05,200.00,10.00,0.00,29.99,1016.10,10.00,M,CLR,M,M,M,M,M,M,M,M,KBIS 012252Z 20010KT 10SM CLR 18/00 A2999 RMK AO2 SLP161 T01780000
BIS,2017-04-01 22:55,-100.7458,46.7727,M,M,M,210.00,14.00,M,29.99,M,10.00,M,CLR,M,M,M,M,M,M,M,M,KBIS 012255Z AUTO 21014KT 10SM CLR A2999 RMK MADISHF
BIS,2017-04-01 23:00,-100.7458,46.7727,M,M,M,180.00,12.00,M,29.99,M,10.00,M,CLR,M,M,M,M,M,M,M,M,KBIS 012300Z AUTO 18012KT 10SM CLR A2999 RMK MADISHF
BIS,2017-04-01 23:05,-100.7458,46.7727,M,M,M,190.00,15.00,M,29.99,M,10.00,M,CLR,M,M,M,M,M,M,M,M,KBIS 012305Z AUTO 19015KT 10SM CLR A2999 RMK MADISHF
BIS,2017-04-01 23:10,-100.7458,46.7727,M,M,M,190.00,13.00,M,29.99,M,10.00,M,CLR,M,M,M,M,M,M,M,M,KBIS 012310Z AUTO 19013KT 10SM CLR A2999 RMK MADISHF
BIS,2017-04-01 23:15,-100.7458,46.7727,M,M,M,190.00,14.00,M,29.98,M,10.00,M,CLR,M,M,M,M,M,M,M,M,KBIS 012315Z AUTO 19014KT 10SM CLR A2998 RMK MADISHF
BIS,2017-04-01 23:20,-100.7458,46.7727,M,M,M,190.00,11.00,M,29.98,M,10.00,M,CLR,M,M,M,M,M,M,M,M,KBIS 012320Z AUTO 19011KT 10SM CLR A2998 RMK MADISHF
BIS,2017-04-01 23:25,-100.7458,46.7727,M,M,M,180.00,12.00,M,29.98,M,10.00,M,CLR,M,M,M,M,M,M,M,M,KBIS 012325Z AUTO 18012KT 10SM CLR A2998 RMK MADISHF
BIS,2017-04-01 23:30,-100.7458,46.7727,M,M,M,190.00,14.00,M,29.98,M,10.00,M,CLR,M,M,M,M,M,M,M,M,KBIS 012330Z AUTO 19014KT 10SM CLR A2998 RMK MADISHF
BIS,2017-04-01 23:35,-100.7458,46.7727,M,M,M,190.00,13.00,M,29.98,M,10.00,M,CLR,M,M,M,M,M,M,M,M,KBIS 012335Z AUTO 19013KT 10SM CLR A2998 RMK MADISHF
BIS,2017-04-01 23:40,-100.7458,46.7727,M,M,M,210.00,14.00,M,29.98,M,10.00,M,CLR,M,M,M,M,M,M,M,M,KBIS 012340Z AUTO 21014KT 10SM CLR A2998 RMK MADISHF
BIS,2017-04-01 23:45,-100.7458,46.7727,M,M,M,200.00,14.00,M,29.97,M,10.00,M,CLR,M,M,M,M,M,M,M,M,KBIS 012345Z AUTO 20014KT 10SM CLR A2997 RMK MADISHF
BIS,2017-04-01 23:50,-100.7458,46.7727,M,M,M,190.00,14.00,M,29.97,M,10.00,M,CLR,M,M,M,M,M,M,M,M,KBIS 012350Z AUTO 19014KT 10SM CLR A2997 RMK MADISHF
BIS,2017-04-01 23:52,-100.7458,46.7727,63.00,34.00,33.72,200.00,13.00,0.00,29.97,1015.40,10.00,20.00,CLR,M,M,M,M,M,M,M,M,KBIS 012352Z 20013G20KT 10SM CLR 17/01 A2997 RMK AO2 SLP154 T01720011 10189 20156 56022
BIS,2017-04-01 23:55,-100.7458,46.7727,M,M,M,200.00,11.00,M,29.97,M,10.00,M,CLR,M,M,M,M,M,M,M,M,KBIS 012355Z AUTO 20011KT 10SM CLR A2997 RMK MADISHF
