#DEBUG: Format Typ    -> comma
#DEBUG: Time Period   -> 2017-04-01 00:00:00+00:00 2017-04-02 00:00:00+00:00
#DEBUG: Time Zone     -> Etc/UTC
#DEBUG: Data Contact   -> daryl herzmann akrherz@iastate.edu 515-294-5978
#DEBUG: Entries Found -> -1
station,valid,lon,lat,tmpf, dwpf, relh, drct, sknt, p01i, alti, mslp, vsby, gust, skyc1, skyc2, skyc3, skyc4, skyl1, skyl2, skyl3, skyl4, presentwx, metar
BKV,2017-04-01 00:00,-82.4554,28.4736,M,M,M,240.00,10.00,M,29.91,M,10.00,M,FEW,BKN,M,M,1999.00,3000.00,M,M,M,KBKV 010000Z AUTO 24010KT 10SM FEW019 BKN030 A2991 RMK MADISHF
BKV,2017-04-01 00:05,-82.4554,28.4736,M,M,M,240.00,10.00,M,29.91,M,10.00,M,FEW,BKN,BKN,M,1999.00,2800.00,3300.00,M,M,KBKV 010005Z AUTO 24010KT 10SM FEW019 BKN028 BKN033 A2991 RMK MADISHF
BKV,2017-04-01 00:09,-82.4554,28.4736,73.90,66.90,78.77,250.00,9.00,0.00,29.91,M,10.00,M,FEW,BKN,M,M,2000.00,2800.00,M,M,M,KBKV 010009Z 25009KT 10SM FEW020 BKN028 23/19 A2991 RMK AO2 T02330194
BKV,2017-04-01 00:10,-82.4554,28.4736,M,M,M,250.00,10.00,M,29.91,M,10.00,M,FEW,BKN,M,M,1999.00,2600.00,M,M,M,KBKV 010010Z AUTO 25010KT 10SM FEW019 BKN026 A2991 RMK MADISHF
BKV,2017-04-01 00:15,-82.4554,28.4736,M,M,M,240.00,9.00,M,29.91,M,10.00,M,BKN,BKN,M,M,2400.00,2900.00,M,M,M,KBKV 010015Z AUTO 24009KT 10SM BKN024 BKN029 A2991 RMK MADISHF
BKV,2017-04-01 00:20,-82.4554,28.4736,M,M,M,240.00,7.00,M,29.91,M,10.00,M,BKN,OVC,M,M,2200.00,2900.00,M,M,M,KBKV 010020Z AUTO 24007KT 10SM BKN022 OVC029 A2991 RMK MADISHF
BKV,2017-04-01 00:25,-82.4554,28.4736,M,M,M,240.00,8.00,M,29.91,M,10.00,M,BKN,OVC,M,M,2200.00,2900.00,M,M,M,KBKV 010025Z AUTO 24008KT 10SM BKN022 OVC029 A2991 RMK MADISHF
BKV,2017-04-01 00:30,-82.4554,28.4736,M,M,M,230.00,7.00,M,29.91,M,10.00,M,OVC,M,M,M,2200.00,M,M,M,M,KBKV 010030Z AUTO 23007KT 10SM OVC022 A2991 RMK MADISHF
BKV,2017-04-01 00:35,-82.4554,28.4736,M,M,M,230.00,8.00,M,29.91,M,10.00,M,OVC,M,M,M,2200.00,M,M,M,M,KBKV 010035Z AUTO 23008KT 10SM OVC022 A2991 RMK MADISHF
BKV,2017-04-01 00:40,-82.4554,28.4736,M,M,M,240.00,6.00,M,29.91,M,10.00,M,OVC,M,M,M,2200.00,M,M,M,M,KBKV 010040Z AUTO 24006KT 10SM OVC022 A2991 RMK MADISHF
BKV,2017-04-01 00:45,-82.4554,28.4736,M,M,M,230.00,8.00,M,29.92,M,10.00,M,OVC,M,M,M,2200.00,M,M,M,M,KBKV 010045Z AUTO 23008KT 10SM OVC022 A2992 RMK MADISHF
BKV,2017-04-01 00:50,-82.4554,28.4736,M,M,M,230.00,8.00,M,29.92,M,10.00,M,OVC,M,M,M,2200.00,M,M,M,M,KBKV 010050Z AUTO 23008KT 10SM OVC022 A2992 RMK MADISHF
BKV,2017-04-01 00:53,-82.4554,28.4736,73.90,66.90,78.77,240.00,9.00,0.00,29.92,1012.90,10.00,M,OVC,M,M,M,2200.00,M,M,M,M,KBKV 010053Z 24009KT 10SM OVC022 23/19 A2992 RMK AO2 SLP129 T02330194
BKV,2017-04-01 00:55,-82.4554,28.4736,M,M,M,240.00,8.00,M,29.92,M,10.00,M,OVC,M,M,M,2200.00,M,M,M,M,KBKV 010055Z AUTO 24008KT 10SM OVC022 A2992 RMK MADISHF
BKV,2017-04-01 01:00,-82.4554,28.4736,M,M,M,240.00,7.00,M,29.92,M,10.00,M,OVC,M,M,M,2200.00,M,M,M,M,KBKV 010100Z AUTO 24007KT 10SM OVC022 A2992 RMK MADISHF
BKV,2017-04-01 01:05,-82.4554,28.4736,M,M,M,230.00,10.00,M,29.92,M,10.00,M,OVC,M,M,M,2200.00,M,M,M,M,KBKV 010105Z AUTO 23010KT 10SM OVC022 A2992 RMK MADISHF
BKV,2017-04-01 01:10,-82.4554,28.4736,M,M,M,240.00,6.00,M,29.92,M,10.00,M,SCT,OVC,M,M,1699.00,2400.00,M,M,M,KBKV 010110Z AUTO 24006KT 10SM SCT016 OVC024 A2992 RMK MADISHF
BKV,2017-04-01 01:15,-82.4554,28.4736,M,M,M,240.00,7.00,M,29.92,M,10.00,M,SCT,OVC,M,M,1699.00,2400.00,M,M,M,KBKV 010115Z AUTO 24007KT 10SM SCT016 OVC024 A2992 RMK MADISHF
BKV,2017-04-01 01:20,-82.4554,28.4736,M,M,M,240.00,8.00,M,29.92,M,10.00,M,FEW,OVC,M,M,1699.00,2400.00,M,M,M,KBKV 010120Z AUTO 24008KT 10SM FEW016 OVC024 A2992 RMK MADISHF
BKV,2017-04-01 01:25,-82.4554,28.4736,M,M,M,250.00,7.00,M,29.92,M,10.00,M,FEW,OVC,M,M,1699.00,2400.00,M,M,M,KBKV 010125Z AUTO 25007KT 10SM FEW016 OVC024 A2992 RMK MADISHF
BKV,2017-04-01 01:30,-82.4554,28.4736,M,M,M,250.00,8.00,M,29.93,M,10.00,M,FEW,OVC,M,M,1699.00,2300.00,M,M,M,KBKV 010130Z AUTO 25008KT 10SM FEW016 OVC023 A2993 RMK MADISHF
BKV,2017-04-01 01:35,-82.4554,28.4736,M,M,M,250.00,7.00,M,29.93,M,10.00,M,FEW,OVC,M,M,1699.00,2300.00,M,M,M,KBKV 010135Z AUTO 25007KT 10SM FEW016 OVC023 A2993 RMK MADISHF
BKV,2017-04-01 01:40,-82.4554,28.4736,M,M,M,250.00,9.00,M,29.93,M,10.00,M,OVC,M,M,M,2300.00,M,M,M,M,KBKV 010140Z AUTO 25009KT 10SM OVC023 A2993 RMK MADISHF
BKV,2017-04-01 01:45,-82.4554,28.4736,M,M,M,260.00,9.00,M,29.93,M,10.00,M,OVC,M,M,M,2300.00,M,M,M,M,KBKV 010145Z AUTO 26009KT 10SM OVC023 A2993 RMK MADISHF
BKV,2017-04-01 01:50,-82.4554,28.4736,M,M,M,240.00,8.00,M,29.93,M,10.00,M,OVC,M,M,M,2400.00,M,M,M,M,KBKV 010150Z AUTO 24008KT 10SM OVC024 A2993 RMK MADISHF
BKV,2017-04-01 01:53,-82.4554,28.4736,73.00,68.00,84.34,250.00,7.00,0.00,29.94,1013.60,10.00,M,OVC,M,M,M,2400.00,M,M,M,M,KBKV 010153Z 25007KT 10SM OVC024 23/20 A2994 RMK AO2 SLP136 T02280200
BKV,2017-04-01 01:55,-82.4554,28.4736,M,M,M,240.00,6.00,M,29.94,M,10.00,M,FEW,OVC,M,M,1500.00,2600.00,M,M,M,KBKV 010155Z AUTO 24006KT 10SM FEW015 OVC026 A2994 RMK MADISHF
BKV,2017-04-01 02:00,-82.4554,28.4736,M,M,M,250.00,9.00,M,29.94,M,10.00,M,FEW,OVC,M,M,1500.00,2600.00,M,M,M,KBKV 010200Z AUTO 25009KT 10SM FEW015 OVC026 A2994 RMK MADISHF
BKV,2017-04-01 02:05,-82.4554,28.4736,M,M,M,250.00,10.00,M,29.94,M,10.00,M,OVC,M,M,M,2600.00,M,M,M,M,KBKV 010205Z AUTO 25010KT 10SM OVC026 A2994 RMK MADISHF
BKV,2017-04-01 02:10,-82.4554,28.4736,M,M,M,250.00,8.00,M,29.94,M,10.00,M,OVC,M,M,M,2600.00,M,M,M,M,KBKV 010210Z AUTO 25008KT 10SM OVC026 A2994 RMK MADISHF
BKV,2017-04-01 02:15,-82.4554,28.4736,M,M,M,250.00,8.00,M,29.94,M,10.00,M,OVC,M,M,M,2600.00,M,M,M,M,KBKV 010215Z AUTO 25008KT 10SM OVC026 A2994 RMK MADISHF
BKV,2017-04-01 02:20,-82.4554,28.4736,M,M,M,250.00,9.00,M,29.94,M,10.00,M,BKN,M,M,M,2600.00,M,M,M,M,KBKV 010220Z AUTO 25009KT 10SM BKN026 A2994 RMK MADISHF
BKV,2017-04-01 02:25,-82.4554,28.4736,M,M,M,250.00,8.00,M,29.95,M,10.00,M,BKN,M,M,M,2600.00,M,M,M,M,KBKV 010225Z AUTO 25008KT 10SM BKN026 A2995 RMK MADISHF
BKV,2017-04-01 02:30,-82.4554,28.4736,M,M,M,250.00,9.00,M,29.95,M,10.00,M,BKN,M,M,M,2600.00,M,M,M,M,KBKV 010230Z AUTO 25009KT 10SM BKN026 A2995 RMK MADISHF
BKV,2017-04-01 02:35,-82.4554,28.4736,M,M,M,240.00,8.00,M,29.95,M,10.00,M,BKN,M,M,M,2600.00,M,M,M,M,KBKV 010235Z AUTO 24008KT 10SM BKN026 A2995 RMK MADISHF
BKV,2017-04-01 02:40,-82.4554,28.4736,M,M,M,250.00,8.00,M,29.95,M,10.00,M,FEW,BKN,M,M,1600.00,2600.00,M,M,M,KBKV 010240Z AUTO 25008KT 10SM FEW016 BKN026 A2995 RMK MADISHF
BKV,2017-04-01 02:45,-82.4554,28.4736,M,M,M,250.00,8.00,M,29.95,M,10.00,M,FEW,BKN,M,M,1600.00,2800.00,M,M,M,KBKV 010245Z AUTO 25008KT 10SM FEW016 BKN028 A2995 RMK MADISHF
BKV,2017-04-01 02:50,-82.4554,28.4736,M,M,M,250.00,7.00,M,29.95,M,10.00,M,FEW,BKN,M,M,1600.00,2800.00,M,M,M,KBKV 010250Z AUTO 25007KT 10SM FEW016 BKN028 A2995 RMK MADISHF
BKV,2017-04-01 02:53,-82.4554,28.4736,72.00,66.90,83.99,240.00,8.00,0.00,29.95,1014.00,10.00,M,FEW,BKN,M,M,1600.00,2800.00,M,M,M,KBKV 010253Z AUTO 24008KT 10SM FEW016 BKN028 22/19 A2995 RMK AO2 SLP140 T02220194 53015
BKV,2017-04-01 02:55,-82.4554,28.4736,M,M,M,240.00,6.00,M,29.95,M,10.00,M,FEW,BKN,M,M,1600.00,2800.00,M,M,M,KBKV 010255Z AUTO 24006KT 10SM FEW016 BKN028 A2995 RMK MADISHF
BKV,2017-04-01 03:00,-82.4554,28.4736,M,M,M,240.00,5.00,M,29.95,M,10.00,M,SCT,SCT,M,M,1500.00,2800.00,M,M,M,KBKV 010300Z AUTO 24005KT 10SM SCT015 SCT028 A2995 RMK MADISHF
BKV,2017-04-01 03:05,-82.4554,28.4736,M,M,M,240.00,6.00,M,29.95,M,10.00,M,SCT,BKN,M,M,1500.00,2800.00,M,M,M,KBKV 010305Z AUTO 24006KT 10SM SCT015 BKN028 A2995 RMK MADISHF
BKV,2017-04-01 03:10,-82.4554,28.4736,M,M,M,240.00,6.00,M,29.95,M,10.00,M,SCT,BKN,M,M,1500.00,2900.00,M,M,M,KBKV 010310Z AUTO 24006KT 10SM SCT015 BKN029 A2995 RMK MADISHF
BKV,2017-04-01 03:15,-82.4554,28.4736,M,M,M,240.00,6.00,M,29.95,M,10.00,M,SCT,BKN,M,M,1500.00,2900.00,M,M,M,KBKV 010315Z AUTO 24006KT 10SM SCT015 BKN029 A2995 RMK MADISHF
BKV,2017-04-01 03:20,-82.4554,28.4736,M,M,M,240.00,6.00,M,29.96,M,10.00,M,SCT,BKN,M,M,1500.00,2900.00,M,M,M,KBKV 010320Z AUTO 24006KT 10SM SCT015 BKN029 A2996 RMK MADISHF
BKV,2017-04-01 03:25,-82.4554,28.4736,M,M,M,240.00,7.00,M,29.96,M,10.00,M,SCT,BKN,M,M,1500.00,3000.00,M,M,M,KBKV 010325Z AUTO 24007KT 10SM SCT015 BKN030 A2996 RMK MADISHF
BKV,2017-04-01 03:27,-82.4554,28.4736,71.10,66.90,86.59,240.00,6.00,0.00,29.96,M,10.00,M,SCT,SCT,M,M,1500.00,3000.00,M,M,M,KBKV 010327Z AUTO 24006KT 10SM SCT015 SCT030 22/19 A2996 RMK AO2 T02170194
BKV,2017-04-01 03:30,-82.4554,28.4736,M,M,M,240.00,6.00,M,29.96,M,10.00,M,FEW,SCT,M,M,1500.00,3000.00,M,M,M,KBKV 010330Z AUTO 24006KT 10SM FEW015 SCT030 A2996 RMK MADISHF
BKV,2017-04-01 03:35,-82.4554,28.4736,M,M,M,240.00,7.00,M,29.96,M,10.00,M,FEW,FEW,M,M,1500.00,3000.00,M,M,M,KBKV 010335Z AUTO 24007KT 10SM FEW015 FEW030 A2996 RMK MADISHF
BKV,2017-04-01 03:40,-82.4554,28.4736,M,M,M,240.00,7.00,M,29.96,M,10.00,M,FEW,M,M,M,3000.00,M,M,M,M,KBKV 010340Z AUTO 24007KT 10SM FEW030 A2996 RMK MADISHF
BKV,2017-04-01 03:45,-82.4554,28.4736,M,M,M,240.00,5.00,M,29.96,M,10.00,M,FEW,M,M,M,1400.00,M,M,M,M,KBKV 010345Z AUTO 24005KT 10SM FEW014 A2996 RMK MADISHF
BKV,2017-04-01 03:50,-82.4554,28.4736,M,M,M,250.00,8.00,M,29.96,M,10.00,M,CLR,M,M,M,M,M,M,M,M,KBKV 010350Z AUTO 25008KT 10SM CLR A2996 RMK MADISHF
BKV,2017-04-01 03:53,-82.4554,28.4736,70.00,66.90,89.90,240.00,6.00,0.00,29.96,1014.40,10.00,M,FEW,M,M,M,1800.00,M,M,M,M,KBKV 010353Z AUTO 24006KT 10SM FEW018 21/19 A2996 RMK AO2 SLP144 T02110194
BKV,2017-04-01 03:55,-82.4554,28.4736,M,M,M,250.00,7.00,M,29.96,M,10.00,M,CLR,M,M,M,M,M,M,M,M,KBKV 010355Z AUTO 25007KT 10SM CLR A2996 RMK MADISHF
BKV,2017-04-01 04:00,-82.4554,28.4736,M,M,M,240.00,6.00,M,29.96,M,10.00,M,FEW,M,M,M,2500.00,M,M,M,M,KBKV 010400Z AUTO 24006KT 10SM FEW025 A2996 RMK MADISHF
BKV,2017-04-01 04:05,-82.4554,28.4736,M,M,M,250.00,7.00,M,29.96,M,10.00,M,FEW,FEW,M,M,2500.00,3300.00,M,M,M,KBKV 010405Z AUTO 25007KT 10SM FEW025 FEW033 A2996 RMK MADISHF
BKV,2017-04-01 04:10,-82.4554,28.4736,M,M,M,240.00,6.00,M,29.97,M,10.00,M,FEW,FEW,M,M,2500.00,3300.00,M,M,M,KBKV 010410Z AUTO 24006KT 10SM FEW025 FEW033 A2997 RMK MADISHF
BKV,2017-04-01 04:15,-82.4554,28.4736,M,M,M,240.00,8.00,M,29.97,M,10.00,M,FEW,SCT,SCT,M,1500.00,2500.00,3300.00,M,M,KBKV 010415Z AUTO 24008KT 10SM FEW015 SCT025 SCT033 A2997 RMK MADISHF
BKV,2017-04-01 04:20,-82.4554,28.4736,M,M,M,250.00,8.00,M,29.97,M,10.00,M,FEW,SCT,BKN,M,1699.00,2500.00,3300.00,M,M,KBKV 010420Z AUTO 25008KT 10SM FEW016 SCT025 BKN033 A2997 RMK MADISHF
BKV,2017-04-01 04:25,-82.4554,28.4736,M,M,M,250.00,10.00,M,29.97,M,10.00,M,FEW,SCT,BKN,M,1500.00,2600.00,3300.00,M,M,KBKV 010425Z AUTO 25010KT 10SM FEW015 SCT026 BKN033 A2997 RMK MADISHF
BKV,2017-04-01 04:30,-82.4554,28.4736,M,M,M,250.00,8.00,M,29.97,M,10.00,M,FEW,FEW,SCT,M,1699.00,2600.00,3300.00,M,M,KBKV 010430Z AUTO 25008KT 10SM FEW016 FEW026 SCT033 A2997 RMK MADISHF
BKV,2017-04-01 04:35,-82.4554,28.4736,M,M,M,250.00,6.00,M,29.97,M,10.00,M,FEW,FEW,SCT,M,1699.00,2600.00,3300.00,M,M,KBKV 010435Z AUTO 25006KT 10SM FEW016 FEW026 SCT033 A2997 RMK MADISHF
BKV,2017-04-01 04:40,-82.4554,28.4736,M,M,M,240.00,6.00,M,29.97,M,10.00,M,FEW,FEW,M,M,1699.00,3300.00,M,M,M,KBKV 010440Z AUTO 24006KT 10SM FEW016 FEW033 A2997 RMK MADISHF
BKV,2017-04-01 04:45,-82.4554,28.4736,M,M,M,240.00,6.00,M,29.97,M,10.00,M,FEW,M,M,M,3300.00,M,M,M,M,KBKV 010445Z AUTO 24006KT 10SM FEW033 A2997 RMK MADISHF
BKV,2017-04-01 04:50,-82.4554,28.4736,M,M,M,240.00,6.00,M,29.97,M,10.00,M,CLR,M,M,M,M,M,M,M,M,KBKV 010450Z AUTO 24006KT 10SM CLR A2997 RMK MADISHF
BKV,2017-04-01 04:53,-82.4554,28.4736,70.00,66.90,89.90,240.00,6.00,0.00,29.97,1014.70,10.00,M,CLR,M,M,M,M,M,M,M,M,KBKV 010453Z AUTO 24006KT 10SM CLR 21/19 A2997 RMK AO2 SLP147 T02110194 403000161
BKV,2017-04-01 04:55,-82.4554,28.4736,M,M,M,240.00,6.00,M,29.97,M,10.00,M,CLR,M,M,M,M,M,M,M,M,KBKV 010455Z AUTO 24006KT 10SM CLR A2997 RMK MADISHF
BKV,2017-04-01 05:00,-82.4554,28.4736,M,M,M,250.00,6.00,M,29.97,M,10.00,M,CLR,M,M,M,M,M,M,M,M,KBKV 010500Z AUTO 25006KT 10SM CLR A2997 RMK MADISHF
BKV,2017-04-01 05:05,-82.4554,28.4736,M,M,M,250.00,6.00,M,29.97,M,10.00,M,CLR,M,M,M,M,M,M,M,M,KBKV 010505Z AUTO 25006KT 10SM CLR A2997 RMK MADISHF
BKV,2017-04-01 05:10,-82.4554,28.4736,M,M,M,250.00,7.00,M,29.97,M,10.00,M,CLR,M,M,M,M,M,M,M,M,KBKV 010510Z AUTO 25007KT 10SM CLR A2997 RMK MADISHF
BKV,2017-04-01 05:15,-82.4554,28.4736,M,M,M,240.00,5.00,M,29.97,M,10.00,M,CLR,M,M,M,M,M,M,M,M,KBKV 010515Z AUTO 24005KT 10SM CLR A2997 RMK MADISHF
BKV,2017-04-01 05:20,-82.4554,28.4736,M,M,M,230.00,5.00,M,29.97,M,10.00,M,CLR,M,M,M,M,M,M,M,M,KBKV 010520Z AUTO 23005KT 10SM CLR A2997 RMK MADISHF
BKV,2017-04-01 05:25,-82.4554,28.4736,M,M,M,240.00,4.00,M,29.97,M,10.00,M,FEW,M,M,M,3500.00,M,M,M,M,KBKV 010525Z AUTO 24004KT 10SM FEW035 A2997 RMK MADISHF
BKV,2017-04-01 05:30,-82.4554,28.4736,M,M,M,250.00,3.00,M,29.96,M,10.00,M,FEW,SCT,M,M,1500.00,3500.00,M,M,M,KBKV 010530Z AUTO 25003KT 10SM FEW015 SCT035 A2996 RMK MADISHF
BKV,2017-04-01 05:35,-82.4554,28.4736,M,M,M,250.00,3.00,M,29.96,M,10.00,M,FEW,SCT,M,M,1500.00,2100.00,M,M,M,KBKV 010535Z AUTO 25003KT 10SM FEW015 SCT021 A2996 RMK MADISHF
BKV,2017-04-01 05:40,-82.4554,28.4736,M,M,M,240.00,3.00,M,29.96,M,10.00,M,FEW,SCT,M,M,1300.00,3500.00,M,M,M,KBKV 010540Z AUTO 24003KT 10SM FEW013 SCT035 A2996 RMK MADISHF
BKV,2017-04-01 05:45,-82.4554,28.4736,M,M,M,260.00,3.00,M,29.97,M,10.00,M,SCT,SCT,M,M,1300.00,3500.00,M,M,M,KBKV 010545Z AUTO 26003KT 10SM SCT013 SCT035 A2997 RMK MADISHF
BKV,2017-04-01 05:50,-82.4554,28.4736,M,M,M,260.00,4.00,M,29.97,M,10.00,M,SCT,SCT,M,M,1300.00,3399.00,M,M,M,KBKV 010550Z AUTO 26004KT 10SM SCT013 SCT033 A2997 RMK MADISHF
BKV,2017-04-01 05:53,-82.4554,28.4736,69.10,66.90,92.71,260.00,4.00,0.00,29.97,1014.50,10.00,M,SCT,SCT,M,M,1300.00,3400.00,M,M,M,KBKV 010553Z AUTO 26004KT 10SM SCT013 SCT034 21/19 A2997 RMK AO2 SLP145 T02060194 10233 20200 50005
BKV,2017-04-01 05:55,-82.4554,28.4736,M,M,M,260.00,4.00,M,29.97,M,10.00,M,SCT,M,M,M,1300.00,M,M,M,M,KBKV 010555Z AUTO 26004KT 10SM SCT013 A2997 RMK MADISHF
BKV,2017-04-01 06:00,-82.4554,28.4736,M,M,M,250.00,4.00,M,29.97,M,10.00,M,FEW,M,M,M,1300.00,M,M,M,M,KBKV 010600Z AUTO 25004KT 10SM FEW013 A2997 RMK MADISHF
BKV,2017-04-01 06:05,-82.4554,28.4736,M,M,M,260.00,5.00,M,29.97,M,10.00,M,FEW,M,M,M,1300.00,M,M,M,M,KBKV 010605Z AUTO 26005KT 10SM FEW013 A2997 RMK MADISHF
BKV,2017-04-01 06:10,-82.4554,28.4736,M,M,M,250.00,4.00,M,29.97,M,10.00,M,FEW,M,M,M,1200.00,M,M,M,M,KBKV 010610Z AUTO 25004KT 10SM FEW012 A2997 RMK MADISHF
BKV,2017-04-01 06:15,-82.4554,28.4736,M,M,M,240.00,4.00,M,29.97,M,10.00,M,FEW,M,M,M,1200.00,M,M,M,M,KBKV 010615Z AUTO 24004KT 10SM FEW012 A2997 RMK MADISHF
BKV,2017-04-01 06:20,-82.4554,28.4736,M,M,M,240.00,4.00,M,29.97,M,10.00,M,CLR,M,M,M,M,M,M,M,M,KBKV 010620Z AUTO 24004KT 10SM CLR A2997 RMK MADISHF
BKV,2017-04-01 06:25,-82.4554,28.4736,M,M,M,250.00,4.00,M,29.97,M,10.00,M,CLR,M,M,M,M,M,M,M,M,KBKV 010625Z AUTO 25004KT 10SM CLR A2997 RMK MADISHF
BKV,2017-04-01 06:30,-82.4554,28.4736,M,M,M,270.00,5.00,M,29.97,M,10.00,M,CLR,M,M,M,M,M,M,M,M,KBKV 010630Z AUTO 27005KT 10SM CLR A2997 RMK MADISHF
BKV,2017-04-01 06:35,-82.4554,28.4736,M,M,M,270.00,4.00,M,29.97,M,10.00,M,CLR,M,M,M,M,M,M,M,M,KBKV 010635Z AUTO 27004KT 10SM CLR A2997 RMK MADISHF
BKV,2017-04-01 06:40,-82.4554,28.4736,M,M,M,280.00,4.00,M,29.97,M,10.00,M,FEW,M,M,M,3300.00,M,M,M,M,KBKV 010640Z AUTO 28004KT 10SM FEW033 A2997 RMK MADISHF
BKV,2017-04-01 06:45,-82.4554,28.4736,M,M,M,270.00,4.00,M,29.97,M,10.00,M,CLR,M,M,M,M,M,M,M,M,KBKV 010645Z AUTO 27004KT 10SM CLR A2997 RMK MADISHF
BKV,2017-04-01 06:50,-82.4554,28.4736,M,M,M,270.00,4.00,M,29.98,M,10.00,M,CLR,M,M,M,M,M,M,M,M,KBKV 010650Z AUTO 27004KT 10SM CLR A2998 RMK MADISHF
BKV,2017-04-01 06:53,-82.4554,28.4736,66.00,64.90,96.24,270.00,3.00,0.00,29.98,1014.90,10.00,M,CLR,M,M,M,M,M,M,M,M,KBKV 010653Z AUTO 27003KT 10SM CLR 19/18 A2998 RMK AO2 SLP149 T01890183
BKV,2017-04-01 06:55,-82.4554,28.4736,M,M,M,270.00,3.00,M,29.98,M,10.00,M,CLR,M,M,M,M,M,M,M,M,KBKV 010655Z AUTO 27003KT 10SM CLR A2998 RMK MADISHF
BKV,2017-04-01 07:00,-82.4554,28.4736,M,M,M,270.00,3.00,M,29.98,M,10.00,M,CLR,M,M,M,M,M,M,M,M,KBKV 010700Z AUTO 27003KT 10SM CLR A2998 RMK MADISHF
BKV,2017-04-01 07:05,-82.4554,28.4736,M,M,M,280.00,3.00,M,29.98,M,9.00,M,CLR,M,M,M,M,M,M,M,M,KBKV 010705Z AUTO 28003KT 9SM CLR A2998 RMK MADISHF
BKV,2017-04-01 07:10,-82.4554,28.4736,M,M,M,280.00,3.00,M,29.98,M,5.00,M,CLR,M,M,M,M,M,M,M,BR,KBKV 010710Z AUTO 28003KT 5SM BR CLR A2998 RMK MADISHF
BKV,2017-04-01 07:13,-82.4554,28.4736,64.90,64.00,96.90,0.00,0.00,0.00,29.98,M,1.50,M,CLR,M,M,M,M,M,M,M,BR,KBKV 010713Z AUTO 00000KT 1 1/2SM BR CLR 18/18 A2998 RMK AO2 T01830178
BKV,2017-04-01 07:15,-82.4554,28.4736,64.90,64.00,96.90,0.00,0.00,0.00,29.98,M,0.75,M,VV ,M,M,M,1200.00,M,M,M,BR,KBKV 010715Z AUTO 00000KT 3/4SM BR VV012 18/18 A2998 RMK AO2 T01830178
BKV,2017-04-01 07:20,-82.4554,28.4736,M,M,M,0.00,0.00,M,M,M,0.50,M,VV ,M,M,M,1200.00,M,M,M,FG,KBKV 010720Z AUTO 00000KT 1/2SM FG VV012 RMK MADISHF
BKV,2017-04-01 07:25,-82.4554,28.4736,M,M,M,0.00,0.00,M,29.97,M,0.25,M,VV ,M,M,M,999.00,M,M,M,FG,KBKV 010725Z AUTO 00000KT 1/4SM FG VV009 A2997 RMK MADISHF
BKV,2017-04-01 07:30,-82.4554,28.4736,M,M,M,0.00,0.00,M,29.97,M,0.25,M,VV ,M,M,M,999.00,M,M,M,FG,KBKV 010730Z AUTO 00000KT 1/4SM FG VV009 A2997 RMK MADISHF
BKV,2017-04-01 07:35,-82.4554,28.4736,M,M,M,0.00,0.00,M,29.97,M,0.50,M,VV ,M,M,M,999.00,M,M,M,FG,KBKV 010735Z AUTO 00000KT 1/2SM FG VV009 A2997 RMK MADISHF
BKV,2017-04-01 07:40,-82.4554,28.4736,M,M,M,0.00,0.00,M,29.97,M,0.50,M,VV ,M,M,M,999.00,M,M,M,FG,KBKV 010740Z AUTO 00000KT 1/2SM FG VV009 A2997 RMK MADISHF
BKV,2017-04-01 07:45,-82.4554,28.4736,M,M,M,0.00,0.00,M,29.97,M,0.75,M,VV ,M,M,M,999.00,M,M,M,BR,KBKV 010745Z AUTO 00000KT 1SM BR VV009 A2997 RMK MADISHF
BKV,2017-04-01 07:47,-82.4554,28.4736,64.40,64.40,100.00,0.00,0.00,0.00,29.97,M,1.25,M,SCT,M,M,M,900.00,M,M,M,BR,KBKV 010747Z AUTO 00000KT 1 1/4SM BR SCT009 18/18 A2997 RMK AO2 VIS 1/2V5
BKV,2017-04-01 07:50,-82.4554,28.4736,M,M,M,0.00,0.00,M,29.97,M,2.50,M,SCT,M,M,M,900.00,M,M,M,BR,KBKV 010750Z AUTO 00000KT 2 1/2SM BR SCT009 A2997 RMK MADISHF
BKV,2017-04-01 07:51,-82.4554,28.4736,64.40,64.40,100.00,0.00,0.00,0.00,29.97,M,3.00,M,SCT,M,M,M,900.00,M,M,M,BR,KBKV 010751Z AUTO 00000KT 3SM BR SCT009 18/18 A2997 RMK AO2
BKV,2017-04-01 07:53,-82.4554,28.4736,64.90,64.00,96.90,0.00,0.00,0.00,29.97,1014.50,3.00,M,SCT,M,M,M,900.00,M,M,M,BR,KBKV 010753Z AUTO 00000KT 3SM BR SCT009 18/18 A2997 RMK AO2 SLP145 T01830178
BKV,2017-04-01 07:55,-82.4554,28.4736,64.00,63.00,96.55,0.00,0.00,0.00,29.97,M,1.25,M,SCT,M,M,M,900.00,M,M,M,BR,KBKV 010755Z AUTO 00000KT 1 1/4SM BR SCT009 18/17 A2997 RMK AO2 T01780172
BKV,2017-04-01 07:57,-82.4554,28.4736,64.00,63.00,96.55,0.00,0.00,0.00,29.97,M,0.50,M,VV ,M,M,M,600.00,M,M,M,FG,KBKV 010757Z AUTO 00000KT 1/2SM FG VV006 18/17 A2997 RMK AO2 T01780172
BKV,2017-04-01 08:00,-82.4554,28.4736,M,M,M,0.00,0.00,M,29.97,M,0.25,M,VV ,M,M,M,499.00,M,M,M,FG,KBKV 010800Z AUTO 00000KT 1/4SM FG VV004 A2997 RMK MADISHF
BKV,2017-04-01 08:04,-82.4554,28.4736,63.00,63.00,100.00,0.00,0.00,0.00,29.97,M,0.25,M,VV ,M,M,M,400.00,M,M,M,FG,KBKV 010804Z AUTO 00000KT 1/4SM FG VV004 17/17 A2997 RMK AO2 T01720172
BKV,2017-04-01 08:05,-82.4554,28.4736,M,M,M,0.00,0.00,M,29.97,M,0.24,M,VV ,M,M,M,400.00,M,M,M,FG,KBKV 010805Z AUTO 00000KT 1/4SM FG VV004 A2997 RMK MADISHF
BKV,2017-04-01 08:10,-82.4554,28.4736,M,M,M,0.00,0.00,M,29.97,M,0.25,M,VV ,M,M,M,300.00,M,M,M,FG,KBKV 010810Z AUTO 00000KT 1/4SM FG VV003 A2997 RMK MADISHF
BKV,2017-04-01 08:15,-82.4554,28.4736,M,M,M,0.00,0.00,M,29.97,M,0.24,M,BKN,BKN,M,M,300.00,2300.00,M,M,FG,KBKV 010815Z AUTO 00000KT 1/4SM FG BKN003 BKN023 A2997 RMK MADISHF
BKV,2017-04-01 08:20,-82.4554,28.4736,M,M,M,0.00,0.00,M,29.97,M,0.24,M,BKN,OVC,M,M,300.00,2300.00,M,M,FG,KBKV 010820Z AUTO 00000KT 1/4SM FG BKN003 OVC023 A2997 RMK MADISHF
BKV,2017-04-01 08:25,-82.4554,28.4736,M,M,M,0.00,0.00,M,29.97,M,0.25,M,BKN,OVC,M,M,300.00,2300.00,M,M,FG,KBKV 010825Z AUTO 00000KT 1/4SM FG BKN003 OVC023 A2997 RMK MADISHF
BKV,2017-04-01 08:30,-82.4554,28.4736,M,M,M,0.00,0.00,M,29.97,M,0.75,M,BKN,BKN,M,M,300.00,2300.00,M,M,BR,KBKV 010830Z AUTO 00000KT 1SM BR BKN003 BKN023 A2997 RMK MADISHF
BKV,2017-04-01 08:33,-82.4554,28.4736,61.00,61.00,100.00,0.00,0.00,0.00,29.97,M,1.75,M,SCT,BKN,M,M,300.00,2300.00,M,M,BR,KBKV 010833Z AUTO 00000KT 1 3/4SM BR SCT003 BKN023 16/16 A2997 RMK AO2 T01610161
BKV,2017-04-01 08:35,-82.4554,28.4736,61.00,61.00,100.00,0.00,0.00,0.00,29.97,M,4.00,M,SCT,BKN,M,M,300.00,2300.00,M,M,BR,KBKV 010835Z AUTO 00000KT 4SM BR SCT003 BKN023 16/16 A2997 RMK AO2 T01610161
BKV,2017-04-01 08:40,-82.4554,28.4736,M,M,M,0.00,0.00,M,29.97,M,8.00,M,FEW,BKN,M,M,300.00,2300.00,M,M,M,KBKV 010840Z AUTO 00000KT 8SM FEW003 BKN023 A2997 RMK MADISHF
BKV,2017-04-01 08:45,-82.4554,28.4736,M,M,M,0.00,0.00,M,29.97,M,9.00,M,FEW,SCT,M,M,300.00,2400.00,M,M,M,KBKV 010845Z AUTO 00000KT 9SM FEW003 SCT024 A2997 RMK MADISHF
BKV,2017-04-01 08:49,-82.4554,28.4736,62.60,62.60,100.00,0.00,0.00,0.00,29.97,M,2.00,M,FEW,SCT,M,M,500.00,2400.00,M,M,BR,KBKV 010849Z AUTO 00000KT 2SM BR FEW005 SCT024 17/17 A2997 RMK AO2
BKV,2017-04-01 08:50,-82.4554,28.4736,62.60,62.60,100.00,70.00,3.00,0.00,29.97,M,1.50,M,FEW,SCT,M,M,500.00,2400.00,M,M,BR,KBKV 010850Z AUTO 07003KT 1 1/2SM BR FEW005 SCT024 17/17 A2997 RMK AO2
BKV,2017-04-01 08:53,-82.4554,28.4736,63.00,62.10,96.88,50.00,3.00,0.00,29.97,1014.70,0.75,M,FEW,FEW,M,M,500.00,2600.00,M,M,BR,KBKV 010853Z AUTO 05003KT 3/4SM BR FEW005 FEW026 17/17 A2997 RMK AO2 SLP147 T01720167 56003
BKV,2017-04-01 08:55,-82.4554,28.4736,M,M,M,50.00,3.00,M,29.97,M,0.50,M,FEW,FEW,M,M,499.00,2600.00,M,M,FG,KBKV 010855Z AUTO 05003KT 1/2SM FG FEW004 FEW026 A2997 RMK MADISHF
BKV,2017-04-01 09:00,-82.4554,28.4736,M,M,M,0.00,0.00,M,29.97,M,0.75,M,FEW,FEW,M,M,300.00,2600.00,M,M,BR,KBKV 010900Z AUTO 00000KT 1SM BR FEW003 FEW026 A2997 RMK MADISHF
BKV,2017-04-01 09:04,-82.4554,28.4736,63.00,62.10,96.88,0.00,0.00,0.00,29.98,M,2.00,M,FEW,FEW,M,M,300.00,2600.00,M,M,BR,KBKV 010904Z AUTO 00000KT 2SM BR FEW003 FEW026 17/17 A2998 RMK AO2 T01720167
BKV,2017-04-01 09:05,-82.4554,28.4736,M,M,M,0.00,0.00,M,M,M,4.00,M,FEW,FEW,M,M,300.00,2600.00,M,M,BR,KBKV 010905Z AUTO 00000KT 4SM BR FEW003 FEW026 RMK MADISHF
BKV,2017-04-01 09:10,-82.4554,28.4736,M,M,M,340.00,3.00,M,29.98,M,8.00,M,FEW,M,M,M,300.00,M,M,M,M,KBKV 010910Z AUTO 34003KT 8SM FEW003 A2998 RMK MADISHF
BKV,2017-04-01 09:11,-82.4554,28.4736,63.00,62.10,96.88,350.00,3.00,0.00,29.98,M,8.00,M,FEW,M,M,M,300.00,M,M,M,M,KBKV 010911Z AUTO 35003KT 8SM FEW003 17/17 A2998 RMK AO2 T01720167
BKV,2017-04-01 09:15,-82.4554,28.4736,M,M,M,360.00,3.00,M,M,M,10.00,M,FEW,M,M,M,400.00,M,M,M,M,KBKV 010915Z AUTO 36003KT 10SM FEW004 RMK MADISHF
BKV,2017-04-01 09:20,-82.4554,28.4736,M,M,M,360.00,4.00,M,M,M,10.00,M,CLR,M,M,M,M,M,M,M,M,KBKV 010920Z AUTO 36004KT 10SM CLR RMK MADISHF
BKV,2017-04-01 09:25,-82.4554,28.4736,M,M,M,360.00,4.00,M,29.98,M,10.00,M,CLR,M,M,M,M,M,M,M,M,KBKV 010925Z AUTO 36004KT 10SM CLR A2998 RMK MADISHF
BKV,2017-04-01 09:30,-82.4554,28.4736,M,M,M,360.00,4.00,M,29.98,M,10.00,M,CLR,M,M,M,M,M,M,M,M,KBKV 010930Z AUTO 36004KT 10SM CLR A2998 RMK MADISHF
BKV,2017-04-01 09:35,-82.4554,28.4736,M,M,M,360.00,4.00,M,29.98,M,10.00,M,CLR,M,M,M,M,M,M,M,M,KBKV 010935Z AUTO 36004KT 10SM CLR A2998 RMK MADISHF
BKV,2017-04-01 09:40,-82.4554,28.4736,M,M,M,360.00,5.00,M,29.98,M,10.00,M,CLR,M,M,M,M,M,M,M,M,KBKV 010940Z AUTO 36005KT 10SM CLR A2998 RMK MADISHF
BKV,2017-04-01 09:45,-82.4554,28.4736,M,M,M,10.00,3.00,M,29.98,M,10.00,M,CLR,M,M,M,M,M,M,M,M,KBKV 010945Z AUTO 01003KT 10SM CLR A2998 RMK MADISHF
BKV,2017-04-01 09:50,-82.4554,28.4736,M,M,M,10.00,3.00,M,29.98,M,10.00,M,CLR,M,M,M,M,M,M,M,M,KBKV 010950Z AUTO 01003KT 10SM CLR A2998 RMK MADISHF
BKV,2017-04-01 09:53,-82.4554,28.4736,63.00,62.10,96.88,10.00,3.00,0.00,29.98,1015.00,10.00,M,CLR,M,M,M,M,M,M,M,M,KBKV 010953Z AUTO 01003KT 10SM CLR 17/17 A2998 RMK AO2 SLP150 T01720167
BKV,2017-04-01 09:55,-82.4554,28.4736,M,M,M,10.00,4.00,M,29.98,M,10.00,M,CLR,M,M,M,M,M,M,M,M,KBKV 010955Z AUTO 01004KT 10SM CLR A2998 RMK MADISHF
BKV,2017-04-01 10:00,-82.4554,28.4736,M,M,M,360.00,3.00,M,29.98,M,10.00,M,CLR,M,M,M,M,M,M,M,M,KBKV 011000Z AUTO 36003KT 10SM CLR A2998 RMK MADISHF
BKV,2017-04-01 10:05,-82.4554,28.4736,M,M,M,0.00,0.00,M,29.98,M,7.00,M,CLR,M,M,M,M,M,M,M,M,KBKV 011005Z AUTO 00000KT 7SM CLR A2998 RMK MADISHF
BKV,2017-04-01 10:09,-82.4554,28.4736,57.00,57.00,100.00,0.00,0.00,0.00,29.98,M,1.50,M,CLR,M,M,M,M,M,M,M,BR,KBKV 011009Z AUTO 00000KT 1 1/2SM BR CLR 14/14 A2998 RMK AO2 T01390139
BKV,2017-04-01 10:10,-82.4554,28.4736,M,M,M,0.00,0.00,M,29.98,M,1.00,M,CLR,M,M,M,M,M,M,M,BR,KBKV 011010Z AUTO 00000KT 1SM BR CLR A2998 RMK MADISHF
BKV,2017-04-01 10:15,-82.4554,28.4736,M,M,M,0.00,0.00,M,29.99,M,0.50,M,CLR,M,M,M,M,M,M,M,FG,KBKV 011015Z AUTO 00000KT 1/2SM FG CLR A2999 RMK MADISHF
BKV,2017-04-01 10:17,-82.4554,28.4736,55.90,55.90,100.00,0.00,0.00,0.00,29.99,M,0.50,M,CLR,M,M,M,M,M,M,M,FG,KBKV 011017Z AUTO 00000KT 1/2SM FG CLR 13/13 A2999 RMK AO2 T01330133
BKV,2017-04-01 10:20,-82.4554,28.4736,M,M,M,0.00,0.00,M,29.99,M,0.25,M,CLR,M,M,M,M,M,M,M,FG,KBKV 011020Z AUTO 00000KT 1/4SM FG CLR A2999 RMK MADISHF
BKV,2017-04-01 10:25,-82.4554,28.4736,M,M,M,0.00,0.00,M,29.99,M,0.25,M,VV ,M,M,M,400.00,M,M,M,FG,KBKV 011025Z AUTO 00000KT 1/4SM FG VV004 A2999 RMK MADISHF
BKV,2017-04-01 10:30,-82.4554,28.4736,57.00,55.90,96.10,0.00,0.00,0.00,29.99,M,0.25,M,VV ,M,M,M,400.00,M,M,M,FG,KBKV 011030Z AUTO 00000KT 1/4SM FG VV004 14/13 A2999 RMK AO2 T01390133
BKV,2017-04-01 10:35,-82.4554,28.4736,M,M,M,180.00,3.00,M,29.99,M,0.24,M,VV ,M,M,M,300.00,M,M,M,FG,KBKV 011035Z AUTO 18003KT 1/4SM FG VV003 A2999 RMK MADISHF
BKV,2017-04-01 10:40,-82.4554,28.4736,M,M,M,160.00,3.00,M,30.00,M,0.50,M,VV ,M,M,M,300.00,M,M,M,FG,KBKV 011040Z AUTO 16003KT 1/2SM FG VV003 A3000 RMK MADISHF
BKV,2017-04-01 10:43,-82.4554,28.4736,57.00,55.90,96.10,0.00,0.00,0.00,30.00,M,2.00,M,FEW,M,M,M,300.00,M,M,M,BR,KBKV 011043Z AUTO 00000KT 2SM BR FEW003 14/13 A3000 RMK AO2 T01390133
BKV,2017-04-01 10:45,-82.4554,28.4736,M,M,M,0.00,0.00,M,30.00,M,2.00,M,FEW,M,M,M,300.00,M,M,M,BR,KBKV 011045Z AUTO 00000KT 2SM BR FEW003 A3000 RMK MADISHF
BKV,2017-04-01 10:47,-82.4554,28.4736,55.40,55.40,100.00,0.00,0.00,0.00,30.00,M,1.00,M,VV ,M,M,M,300.00,M,M,M,BR,KBKV 011047Z AUTO 00000KT 1SM BR VV003 13/13 A3000 RMK AO2
BKV,2017-04-01 10:50,-82.4554,28.4736,M,M,M,0.00,0.00,M,30.00,M,0.50,M,VV ,M,M,M,300.00,M,M,M,FG,KBKV 011050Z AUTO 00000KT 1/2SM FG VV003 A3000 RMK MADISHF
BKV,2017-04-01 10:53,-82.4554,28.4736,57.00,55.00,93.01,0.00,0.00,0.00,30.00,1015.80,0.25,M,VV ,M,M,M,300.00,M,M,M,FG,KBKV 011053Z AUTO 00000KT 1/4SM FG VV003 14/13 A3000 RMK AO2 SLP158 T01390128
BKV,2017-04-01 10:55,-82.4554,28.4736,M,M,M,0.00,0.00,M,30.00,M,0.25,M,VV ,M,M,M,300.00,M,M,M,FG,KBKV 011055Z AUTO 00000KT 1/4SM FG VV003 A3000 RMK MADISHF
BKV,2017-04-01 11:00,-82.4554,28.4736,M,M,M,0.00,0.00,M,30.00,M,0.25,M,VV ,M,M,M,300.00,M,M,M,FG,KBKV 011100Z AUTO 00000KT 1/4SM FG VV003 A3000 RMK MADISHF
BKV,2017-04-01 11:05,-82.4554,28.4736,M,M,M,0.00,0.00,M,30.00,M,0.25,M,VV ,M,M,M,200.00,M,M,M,FG,KBKV 011105Z AUTO 00000KT 1/4SM FG VV002 A3000 RMK MADISHF
BKV,2017-04-01 11:10,-82.4554,28.4736,M,M,M,0.00,0.00,M,30.00,M,0.25,M,VV ,M,M,M,200.00,M,M,M,FG,KBKV 011110Z AUTO 00000KT 1/4SM FG VV002 A3000 RMK MADISHF
BKV,2017-04-01 11:15,-82.4554,28.4736,M,M,M,0.00,0.00,M,30.00,M,0.25,M,VV ,M,M,M,200.00,M,M,M,FG,KBKV 011115Z AUTO 00000KT 1/4SM FG VV002 A3000 RMK MADISHF
BKV,2017-04-01 11:20,-82.4554,28.4736,M,M,M,0.00,0.00,M,30.01,M,0.24,M,VV ,M,M,M,200.00,M,M,M,FG,KBKV 011120Z AUTO 00000KT 1/4SM FG VV002 A3001 RMK MADISHF
BKV,2017-04-01 11:25,-82.4554,28.4736,M,M,M,170.00,3.00,M,30.01,M,0.24,M,VV ,M,M,M,200.00,M,M,M,FG,KBKV 011125Z AUTO 17003KT 1/4SM FG VV002 A3001 RMK MADISHF
BKV,2017-04-01 11:30,-82.4554,28.4736,M,M,M,0.00,0.00,M,30.01,M,0.24,M,VV ,M,M,M,200.00,M,M,M,FG,KBKV 011130Z AUTO 00000KT 1/4SM FG VV002 A3001 RMK MADISHF
BKV,2017-04-01 11:35,-82.4554,28.4736,M,M,M,0.00,0.00,M,30.02,M,0.25,M,VV ,M,M,M,200.00,M,M,M,FG,KBKV 011135Z AUTO 00000KT 1/4SM FG VV002 A3002 RMK MADISHF
BKV,2017-04-01 11:40,-82.4554,28.4736,M,M,M,0.00,0.00,M,30.02,M,0.25,M,VV ,M,M,M,200.00,M,M,M,FG,KBKV 011140Z AUTO 00000KT 1/4SM FG VV002 A3002 RMK MADISHF
BKV,2017-04-01 11:45,-82.4554,28.4736,M,M,M,0.00,0.00,M,30.02,M,0.50,M,VV ,M,M,M,300.00,M,M,M,FG,KBKV 011145Z AUTO 00000KT 1/2SM FG VV003 A3002 RMK MADISHF
BKV,2017-04-01 11:50,-82.4554,28.4736,M,M,M,0.00,0.00,M,M,M,0.50,M,VV ,M,M,M,300.00,M,M,M,FG,KBKV 011150Z AUTO 00000KT 1/2SM FG VV003 RMK MADISHF
BKV,2017-04-01 11:53,-82.4554,28.4736,55.90,55.90,100.00,0.00,0.00,0.00,30.03,1016.70,0.50,M,VV ,M,M,M,300.00,M,M,M,FG,KBKV 011153Z 00000KT 1/2SM FG VV003 13/13 A3003 RMK AO2 VIS 1/4V5 SLP167 T01330133 10189 20128 53019
BKV,2017-04-01 11:55,-82.4554,28.4736,M,M,M,0.00,0.00,M,30.03,M,0.75,M,VV ,M,M,M,400.00,M,M,M,BR,KBKV 011155Z AUTO 00000KT 1SM BR VV004 A3003 RMK MADISHF
BKV,2017-04-01 12:00,-82.4554,28.4736,M,M,M,0.00,0.00,M,30.03,M,1.00,M,VV ,M,M,M,400.00,M,M,M,BR,KBKV 011200Z AUTO 00000KT 1SM BR VV004 A3003 RMK MADISHF
BKV,2017-04-01 12:01,-82.4554,28.4736,57.90,57.90,100.00,0.00,0.00,0.00,30.03,M,2.00,M,FEW,M,M,M,400.00,M,M,M,BR,KBKV 011201Z 00000KT 2SM BR FEW004 14/14 A3003 RMK AO2 VIS 1/2V5 T01440144
BKV,2017-04-01 12:05,-82.4554,28.4736,M,M,M,170.00,3.00,M,30.03,M,4.00,M,FEW,M,M,M,400.00,M,M,M,BR,KBKV 011205Z AUTO 17003KT 4SM BR FEW004 A3003 RMK MADISHF
BKV,2017-04-01 12:08,-82.4554,28.4736,60.10,60.10,100.00,170.00,4.00,0.00,30.03,M,4.00,M,FEW,M,M,M,400.00,M,M,M,BR,KBKV 011208Z 17004KT 4SM BR FEW004 16/16 A3003 RMK AO2 T01560156
BKV,2017-04-01 12:10,-82.4554,28.4736,M,M,M,170.00,3.00,M,30.03,M,6.00,M,CLR,M,M,M,M,M,M,M,BR,KBKV 011210Z AUTO 17003KT 6SM BR CLR A3003 RMK MADISHF
BKV,2017-04-01 12:15,-82.4554,28.4736,M,M,M,0.00,0.00,M,30.03,M,10.00,M,CLR,M,M,M,M,M,M,M,M,KBKV 011215Z AUTO 00000KT 10SM CLR A3003 RMK MADISHF
BKV,2017-04-01 12:20,-82.4554,28.4736,M,M,M,0.00,0.00,M,30.03,M,10.00,M,CLR,M,M,M,M,M,M,M,M,KBKV 011220Z AUTO 00000KT 10SM CLR A3003 RMK MADISHF
BKV,2017-04-01 12:25,-82.4554,28.4736,M,M,M,0.00,0.00,M,30.04,M,10.00,M,CLR,M,M,M,M,M,M,M,M,KBKV 011225Z AUTO 00000KT 10SM CLR A3004 RMK MADISHF
BKV,2017-04-01 12:30,-82.4554,28.4736,M,M,M,0.00,0.00,M,30.04,M,10.00,M,CLR,M,M,M,M,M,M,M,M,KBKV 011230Z AUTO 00000KT 10SM CLR A3004 RMK MADISHF
BKV,2017-04-01 12:35,-82.4554,28.4736,M,M,M,0.00,0.00,M,30.04,M,10.00,M,CLR,M,M,M,M,M,M,M,M,KBKV 011235Z AUTO 00000KT 10SM CLR A3004 RMK MADISHF
BKV,2017-04-01 12:40,-82.4554,28.4736,M,M,M,0.00,0.00,M,30.04,M,10.00,M,CLR,M,M,M,M,M,M,M,M,KBKV 011240Z AUTO 00000KT 10SM CLR A3004 RMK MADISHF
BKV,2017-04-01 12:45,-82.4554,28.4736,M,M,M,0.00,0.00,M,30.04,M,10.00,M,CLR,M,M,M,M,M,M,M,M,KBKV 011245Z AUTO 00000KT 10SM CLR A3004 RMK MADISHF
BKV,2017-04-01 12:50,-82.4554,28.4736,M,M,M,0.00,0.00,M,30.04,M,10.00,M,CLR,M,M,M,M,M,M,M,M,KBKV 011250Z AUTO 00000KT 10SM CLR A3004 RMK MADISHF
BKV,2017-04-01 12:53,-82.4554,28.4736,66.00,66.00,100.00,0.00,0.00,0.00,30.04,1017.10,10.00,M,CLR,M,M,M,M,M,M,M,M,KBKV 011253Z 00000KT 10SM CLR 19/19 A3004 RMK AO2 SLP171 T01890189
BKV,2017-04-01 12:55,-82.4554,28.4736,M,M,M,0.00,0.00,M,30.04,M,10.00,M,CLR,M,M,M,M,M,M,M,M,KBKV 011255Z AUTO 00000KT 10SM CLR A3004 RMK MADISHF
BKV,2017-04-01 13:00,-82.4554,28.4736,M,M,M,0.00,0.00,M,30.04,M,10.00,M,CLR,M,M,M,M,M,M,M,M,KBKV 011300Z AUTO 00000KT 10SM CLR A3004 RMK MADISHF
BKV,2017-04-01 13:05,-82.4554,28.4736,M,M,M,0.00,0.00,M,30.04,M,10.00,M,CLR,M,M,M,M,M,M,M,M,KBKV 011305Z AUTO 00000KT 10SM CLR A3004 RMK MADISHF
BKV,2017-04-01 13:10,-82.4554,28.4736,M,M,M,0.00,0.00,M,30.05,M,10.00,M,CLR,M,M,M,M,M,M,M,M,KBKV 011310Z AUTO 00000KT 10SM CLR A3005 RMK MADISHF
BKV,2017-04-01 13:15,-82.4554,28.4736,M,M,M,0.00,0.00,M,30.04,M,10.00,M,CLR,M,M,M,M,M,M,M,M,KBKV 011315Z AUTO 00000KT 10SM CLR A3004 RMK MADISHF
BKV,2017-04-01 13:20,-82.4554,28.4736,M,M,M,0.00,0.00,M,M,M,10.00,M,CLR,M,M,M,M,M,M,M,M,KBKV 011320Z AUTO 00000KT 10SM CLR RMK MADISHF
BKV,2017-04-01 13:25,-82.4554,28.4736,M,M,M,0.00,0.00,M,30.05,M,10.00,M,CLR,M,M,M,M,M,M,M,M,KBKV 011325Z AUTO 00000KT 10SM CLR A3005 RMK MADISHF
BKV,2017-04-01 13:30,-82.4554,28.4736,M,M,M,340.00,3.00,M,30.05,M,10.00,M,CLR,M,M,M,M,M,M,M,M,KBKV 011330Z AUTO 34003KT 10SM CLR A3005 RMK MADISHF
BKV,2017-04-01 13:35,-82.4554,28.4736,M,M,M,320.00,3.00,M,30.05,M,10.00,M,CLR,M,M,M,M,M,M,M,M,KBKV 011335Z AUTO 32003KT 10SM CLR A3005 RMK VRB03KT  MADISHF
BKV,2017-04-01 13:40,-82.4554,28.4736,M,M,M,0.00,0.00,M,30.05,M,10.00,M,CLR,M,M,M,M,M,M,M,M,KBKV 011340Z AUTO 00000KT 10SM CLR A3005 RMK MADISHF
BKV,2017-04-01 13:45,-82.4554,28.4736,M,M,M,340.00,4.00,M,M,M,10.00,M,CLR,M,M,M,M,M,M,M,M,KBKV 011345Z AUTO 34004KT 10SM CLR RMK MADISHF
BKV,2017-04-01 13:50,-82.4554,28.4736,M,M,M,340.00,4.00,M,30.06,M,10.00,M,CLR,M,M,M,M,M,M,M,M,KBKV 011350Z AUTO 34004KT 10SM CLR A3006 RMK MADISHF
BKV,2017-04-01 13:53,-82.4554,28.4736,73.90,64.00,71.21,340.00,4.00,0.00,30.06,1017.70,10.00,M,CLR,M,M,M,M,M,M,M,M,KBKV 011353Z 34004KT 10SM CLR 23/18 A3006 RMK AO2 SLP177 T02330178
BKV,2017-04-01 13:55,-82.4554,28.4736,M,M,M,350.00,6.00,M,30.06,M,10.00,M,CLR,M,M,M,M,M,M,M,M,KBKV 011355Z AUTO 35006KT 10SM CLR A3006 RMK MADISHF
BKV,2017-04-01 14:00,-82.4554,28.4736,M,M,M,340.00,4.00,M,30.06,M,10.00,M,CLR,M,M,M,M,M,M,M,M,KBKV 011400Z AUTO 34004KT 10SM CLR A3006 RMK MADISHF
BKV,2017-04-01 14:05,-82.4554,28.4736,M,M,M,350.00,6.00,M,30.06,M,10.00,M,CLR,M,M,M,M,M,M,M,M,KBKV 011405Z AUTO 35006KT 10SM CLR A3006 RMK MADISHF
BKV,2017-04-01 14:10,-82.4554,28.4736,M,M,M,10.00,6.00,M,30.06,M,10.00,M,CLR,M,M,M,M,M,M,M,M,KBKV 011410Z AUTO 01006KT 10SM CLR A3006 RMK MADISHF
BKV,2017-04-01 14:15,-82.4554,28.4736,M,M,M,20.00,7.00,M,30.06,M,10.00,M,CLR,M,M,M,M,M,M,M,M,KBKV 011415Z AUTO 02007KT 10SM CLR A3006 RMK MADISHF
BKV,2017-04-01 14:20,-82.4554,28.4736,M,M,M,360.00,6.00,M,30.06,M,10.00,M,CLR,M,M,M,M,M,M,M,M,KBKV 011420Z AUTO 36006KT 10SM CLR A3006 RMK VRB06KT  MADISHF
BKV,2017-04-01 14:25,-82.4554,28.4736,M,M,M,360.00,6.00,M,30.06,M,10.00,M,CLR,M,M,M,M,M,M,M,M,KBKV 011425Z AUTO 36006KT 10SM CLR A3006 RMK MADISHF
BKV,2017-04-01 14:30,-82.4554,28.4736,M,M,M,30.00,3.00,M,30.06,M,10.00,M,CLR,M,M,M,M,M,M,M,M,KBKV 011430Z AUTO 03003KT 10SM CLR A3006 RMK VRB03KT  MADISHF
BKV,2017-04-01 14:35,-82.4554,28.4736,M,M,M,M,M,M,30.06,M,10.00,M,CLR,M,M,M,M,M,M,M,M,KBKV 011435Z AUTO /////KT 10SM CLR A3006 RMK MADISHF
BKV,2017-04-01 14:40,-82.4554,28.4736,M,M,M,350.00,8.00,M,30.06,M,10.00,M,CLR,M,M,M,M,M,M,M,M,KBKV 011440Z AUTO 35008KT 10SM CLR A3006 RMK MADISHF
BKV,2017-04-01 14:45,-82.4554,28.4736,M,M,M,350.00,5.00,M,30.06,M,10.00,M,CLR,M,M,M,M,M,M,M,M,KBKV 011445Z AUTO 35005KT 10SM CLR A3006 RMK MADISHF
BKV,2017-04-01 14:50,-82.4554,28.4736,M,M,M,20.00,6.00,M,30.06,M,10.00,M,CLR,M,M,M,M,M,M,M,M,KBKV 011450Z AUTO 02006KT 10SM CLR A3006 RMK MADISHF
BKV,2017-04-01 14:53,-82.4554,28.4736,79.00,57.90,48.41,10.00,6.00,0.00,30.06,1017.70,10.00,M,CLR,M,M,M,M,M,M,M,M,KBKV 011453Z 01006KT 10SM CLR 26/14 A3006 RMK AO2 SLP177 T02610144 51012
BKV,2017-04-01 14:55,-82.4554,28.4736,M,M,M,360.00,7.00,M,30.06,M,10.00,M,CLR,M,M,M,M,M,M,M,M,KBKV 011455Z AUTO 36007KT 10SM CLR A3006 RMK MADISHF
BKV,2017-04-01 15:00,-82.4554,28.4736,M,M,M,330.00,4.00,M,30.06,M,10.00,M,CLR,M,M,M,M,M,M,M,M,KBKV 011500Z AUTO 33004KT 10SM CLR A3006 RMK MADISHF
BKV,2017-04-01 15:05,-82.4554,28.4736,M,M,M,10.00,5.00,M,30.06,M,10.00,M,CLR,M,M,M,M,M,M,M,M,KBKV 011505Z AUTO 01005KT 10SM CLR A3006 RMK MADISHF
BKV,2017-04-01 15:10,-82.4554,28.4736,M,M,M,20.00,8.00,M,30.06,M,10.00,M,CLR,M,M,M,M,M,M,M,M,KBKV 011510Z AUTO 02008KT 10SM CLR A3006 RMK MADISHF
BKV,2017-04-01 15:15,-82.4554,28.4736,M,M,M,40.00,6.00,M,30.06,M,10.00,M,CLR,M,M,M,M,M,M,M,M,KBKV 011515Z AUTO 04006KT 10SM CLR A3006 RMK MADISHF
BKV,2017-04-01 15:20,-82.4554,28.4736,M,M,M,50.00,5.00,M,30.06,M,10.00,M,CLR,M,M,M,M,M,M,M,M,KBKV 011520Z AUTO 05005KT 10SM CLR A3006 RMK MADISHF
BKV,2017-04-01 15:25,-82.4554,28.4736,M,M,M,20.00,7.00,M,30.06,M,10.00,M,CLR,M,M,M,M,M,M,M,M,KBKV 011525Z AUTO 02007KT 10SM CLR A3006 RMK MADISHF
BKV,2017-04-01 15:30,-82.4554,28.4736,M,M,M,20.00,7.00,M,30.06,M,10.00,M,CLR,M,M,M,M,M,M,M,M,KBKV 011530Z AUTO 02007KT 10SM CLR A3006 RMK MADISHF
BKV,2017-04-01 15:35,-82.4554,28.4736,M,M,M,10.00,5.00,M,30.06,M,10.00,M,CLR,M,M,M,M,M,M,M,M,KBKV 011535Z AUTO 01005KT 10SM CLR A3006 RMK MADISHF
BKV,2017-04-01 15:40,-82.4554,28.4736,M,M,M,60.00,6.00,M,30.06,M,10.00,M,CLR,M,M,M,M,M,M,M,M,KBKV 011540Z AUTO 06006KT 10SM CLR A3006 RMK MADISHF
BKV,2017-04-01 15:45,-82.4554,28.4736,M,M,M,40.00,7.00,M,30.06,M,10.00,M,CLR,M,M,M,M,M,M,M,M,KBKV 011545Z AUTO 04007KT 10SM CLR A3006 RMK MADISHF
BKV,2017-04-01 15:50,-82.4554,28.4736,M,M,M,20.00,4.00,M,30.06,M,10.00,M,CLR,M,M,M,M,M,M,M,M,KBKV 011550Z AUTO 02004KT 10SM CLR A3006 RMK VRB04KT  MADISHF
BKV,2017-04-01 15:53,-82.4554,28.4736,82.00,54.00,38.11,0.00,0.00,0.00,30.06,1017.70,10.00,M,CLR,M,M,M,M,M,M,M,M,KBKV 011553Z 00000KT 10SM CLR 28/12 A3006 RMK AO2 SLP177 T02780122
BKV,2017-04-01 15:55,-82.4554,28.4736,M,M,M,40.00,3.00,M,30.06,M,10.00,M,CLR,M,M,M,M,M,M,M,M,KBKV 011555Z AUTO 04003KT 10SM CLR A3006 RMK VRB03KT  MADISHF
BKV,2017-04-01 16:00,-82.4554,28.4736,M,M,M,310.00,3.00,M,30.06,M,10.00,M,CLR,M,M,M,M,M,M,M,M,KBKV 011600Z AUTO 31003KT 10SM CLR A3006 RMK VRB03KT  MADISHF
BKV,2017-04-01 16:05,-82.4554,28.4736,M,M,M,310.00,4.00,M,30.06,M,10.00,M,CLR,M,M,M,M,M,M,M,M,KBKV 011605Z AUTO 31004KT 10SM CLR A3006 RMK MADISHF
BKV,2017-04-01 16:10,-82.4554,28.4736,M,M,M,0.00,0.00,M,30.06,M,10.00,M,CLR,M,M,M,M,M,M,M,M,KBKV 011610Z AUTO 00000KT 10SM CLR A3006 RMK MADISHF
BKV,2017-04-01 16:15,-82.4554,28.4736,M,M,M,40.00,4.00,M,30.06,M,10.00,M,CLR,M,M,M,M,M,M,M,M,KBKV 011615Z AUTO 04004KT 10SM CLR A3006 RMK MADISHF
BKV,2017-04-01 16:20,-82.4554,28.4736,M,M,M,30.00,3.00,M,30.06,M,10.00,M,CLR,M,M,M,M,M,M,M,M,KBKV 011620Z AUTO 03003KT 10SM CLR A3006 RMK VRB03KT  MADISHF
BKV,2017-04-01 16:25,-82.4554,28.4736,M,M,M,210.00,3.00,M,30.06,M,10.00,M,CLR,M,M,M,M,M,M,M,M,KBKV 011625Z AUTO 21003KT 10SM CLR A3006 RMK VRB03KT  MADISHF
BKV,2017-04-01 16:30,-82.4554,28.4736,M,M,M,250.00,4.00,M,30.05,M,10.00,M,CLR,M,M,M,M,M,M,M,M,KBKV 011630Z AUTO 25004KT 10SM CLR A3005 RMK MADISHF
BKV,2017-04-01 16:35,-82.4554,28.4736,M,M,M,50.00,3.00,M,30.05,M,10.00,M,CLR,M,M,M,M,M,M,M,M,KBKV 011635Z AUTO 05003KT 10SM CLR A3005 RMK VRB03KT  MADISHF
BKV,2017-04-01 16:40,-82.4554,28.4736,M,M,M,70.00,3.00,M,30.05,M,10.00,M,CLR,M,M,M,M,M,M,M,M,KBKV 011640Z AUTO 07003KT 10SM CLR A3005 RMK VRB03KT  MADISHF
BKV,2017-04-01 16:45,-82.4554,28.4736,M,M,M,50.00,3.00,M,30.05,M,10.00,M,CLR,M,M,M,M,M,M,M,M,KBKV 011645Z AUTO 05003KT 10SM CLR A3005 RMK VRB03KT  MADISHF
BKV,2017-04-01 16:50,-82.4554,28.4736,M,M,M,30.00,4.00,M,30.05,M,10.00,M,CLR,M,M,M,M,M,M,M,M,KBKV 011650Z AUTO 03004KT 10SM CLR A3005 RMK VRB04KT  MADISHF
BKV,2017-04-01 16:53,-82.4554,28.4736,84.90,53.10,33.57,340.00,5.00,0.00,30.05,1017.20,10.00,M,CLR,M,M,M,M,M,M,M,M,KBKV 011653Z 34005KT 10SM CLR 29/12 A3005 RMK AO2 SLP172 T02940117
BKV,2017-04-01 16:55,-82.4554,28.4736,M,M,M,320.00,4.00,M,M,M,10.00,M,CLR,M,M,M,M,M,M,M,M,KBKV 011655Z AUTO 32004KT 10SM CLR RMK MADISHF
BKV,2017-04-01 17:00,-82.4554,28.4736,M,M,M,340.00,4.00,M,30.04,M,10.00,M,CLR,M,M,M,M,M,M,M,M,KBKV 011700Z AUTO 34004KT 10SM CLR A3004 RMK VRB04KT  MADISHF
BKV,2017-04-01 17:05,-82.4554,28.4736,M,M,M,30.00,3.00,M,30.04,M,10.00,M,CLR,M,M,M,M,M,M,M,M,KBKV 011705Z AUTO 03003KT 10SM CLR A3004 RMK VRB03KT  MADISHF
BKV,2017-04-01 17:10,-82.4554,28.4736,M,M,M,340.00,4.00,M,30.04,M,10.00,M,CLR,M,M,M,M,M,M,M,M,KBKV 011710Z AUTO 34004KT 10SM CLR A3004 RMK MADISHF
BKV,2017-04-01 17:15,-82.4554,28.4736,M,M,M,350.00,4.00,M,30.04,M,10.00,M,CLR,M,M,M,M,M,M,M,M,KBKV 011715Z AUTO 35004KT 10SM CLR A3004 RMK MADISHF
BKV,2017-04-01 17:20,-82.4554,28.4736,M,M,M,90.00,3.00,M,30.04,M,10.00,M,CLR,M,M,M,M,M,M,M,M,KBKV 011720Z AUTO 09003KT 10SM CLR A3004 RMK MADISHF
BKV,2017-04-01 17:25,-82.4554,28.4736,M,M,M,0.00,0.00,M,30.04,M,10.00,M,CLR,M,M,M,M,M,M,M,M,KBKV 011725Z AUTO 00000KT 10SM CLR A3004 RMK MADISHF
BKV,2017-04-01 17:30,-82.4554,28.4736,M,M,M,100.00,4.00,M,30.04,M,10.00,M,CLR,M,M,M,M,M,M,M,M,KBKV 011730Z AUTO 10004KT 10SM CLR A3004 RMK MADISHF
BKV,2017-04-01 17:35,-82.4554,28.4736,M,M,M,280.00,4.00,M,30.04,M,10.00,M,CLR,M,M,M,M,M,M,M,M,KBKV 011735Z AUTO 28004KT 10SM CLR A3004 RMK VRB04KT  MADISHF
BKV,2017-04-01 17:40,-82.4554,28.4736,M,M,M,0.00,0.00,M,30.03,M,10.00,M,CLR,M,M,M,M,M,M,M,M,KBKV 011740Z AUTO 00000KT 10SM CLR A3003 RMK MADISHF
BKV,2017-04-01 17:45,-82.4554,28.4736,M,M,M,260.00,4.00,M,30.03,M,10.00,M,CLR,M,M,M,M,M,M,M,M,KBKV 011745Z AUTO 26004KT 10SM CLR A3003 RMK MADISHF
BKV,2017-04-01 17:50,-82.4554,28.4736,M,M,M,0.00,0.00,M,30.03,M,10.00,M,CLR,M,M,M,M,M,M,M,M,KBKV 011750Z AUTO 00000KT 10SM CLR A3003 RMK MADISHF
BKV,2017-04-01 17:53,-82.4554,28.4736,87.10,48.90,26.79,M,3.00,0.00,30.03,1016.50,10.00,M,CLR,M,M,M,M,M,M,M,M,KBKV 011753Z VRB03KT 10SM CLR 31/09 A3003 RMK AO2 SLP165 T03060094 10306 20133 58012
BKV,2017-04-01 17:55,-82.4554,28.4736,M,M,M,340.00,3.00,M,30.02,M,10.00,M,CLR,M,M,M,M,M,M,M,M,KBKV 011755Z AUTO 34003KT 10SM CLR A3002 RMK VRB03KT  MADISHF
BKV,2017-04-01 18:00,-82.4554,28.4736,M,M,M,310.00,5.00,M,30.02,M,10.00,M,CLR,M,M,M,M,M,M,M,M,KBKV 011800Z AUTO 31005KT 10SM CLR A3002 RMK VRB05KT  MADISHF
BKV,2017-04-01 18:05,-82.4554,28.4736,M,M,M,300.00,5.00,M,30.02,M,10.00,M,CLR,M,M,M,M,M,M,M,M,KBKV 011805Z AUTO 30005KT 10SM CLR A3002 RMK MADISHF
BKV,2017-04-01 18:10,-82.4554,28.4736,M,M,M,0.00,0.00,M,30.02,M,10.00,M,CLR,M,M,M,M,M,M,M,M,KBKV 011810Z AUTO 00000KT 10SM CLR A3002 RMK MADISHF
BKV,2017-04-01 18:15,-82.4554,28.4736,M,M,M,0.00,0.00,M,30.01,M,10.00,M,CLR,M,M,M,M,M,M,M,M,KBKV 011815Z AUTO 00000KT 10SM CLR A3001 RMK MADISHF
BKV,2017-04-01 18:20,-82.4554,28.4736,M,M,M,120.00,3.00,M,30.01,M,10.00,M,CLR,M,M,M,M,M,M,M,M,KBKV 011820Z AUTO 12003KT 10SM CLR A3001 RMK VRB03KT  MADISHF
BKV,2017-04-01 18:25,-82.4554,28.4736,M,M,M,130.00,5.00,M,30.01,M,10.00,M,CLR,M,M,M,M,M,M,M,M,KBKV 011825Z AUTO 13005KT 10SM CLR A3001 RMK MADISHF
BKV,2017-04-01 18:30,-82.4554,28.4736,M,M,M,200.00,8.00,M,30.01,M,10.00,M,CLR,M,M,M,M,M,M,M,M,KBKV 011830Z AUTO 20008KT 10SM CLR A3001 RMK MADISHF
BKV,2017-04-01 18:35,-82.4554,28.4736,M,M,M,240.00,9.00,M,30.01,M,10.00,15.00,CLR,M,M,M,M,M,M,M,M,KBKV 011835Z AUTO 24009G15KT 10SM CLR A3001 RMK MADISHF
BKV,2017-04-01 18:40,-82.4554,28.4736,M,M,M,260.00,8.00,M,30.01,M,10.00,M,CLR,M,M,M,M,M,M,M,M,KBKV 011840Z AUTO 26008KT 10SM CLR A3001 RMK MADISHF
BKV,2017-04-01 18:45,-82.4554,28.4736,M,M,M,160.00,3.00,M,30.00,M,10.00,M,CLR,M,M,M,M,M,M,M,M,KBKV 011845Z AUTO 16003KT 10SM CLR A3000 RMK VRB03KT  MADISHF
BKV,2017-04-01 18:50,-82.4554,28.4736,M,M,M,210.00,9.00,M,30.00,M,10.00,M,CLR,M,M,M,M,M,M,M,M,KBKV 011850Z AUTO 21009KT 10SM CLR A3000 RMK MADISHF
BKV,2017-04-01 18:53,-82.4554,28.4736,90.00,48.90,24.44,240.00,9.00,0.00,30.00,1015.80,10.00,M,CLR,M,M,M,M,M,M,M,M,KBKV 011853Z 24009KT 200V270 10SM CLR 32/09 A3000 RMK AO2 SLP158 T03220094
BKV,2017-04-01 18:55,-82.4554,28.4736,M,M,M,270.00,5.00,M,30.00,M,10.00,M,CLR,M,M,M,M,M,M,M,M,KBKV 011855Z AUTO 27005KT 10SM CLR A3000 RMK MADISHF
BKV,2017-04-01 19:00,-82.4554,28.4736,M,M,M,300.00,7.00,M,30.00,M,10.00,M,CLR,M,M,M,M,M,M,M,M,KBKV 011900Z AUTO 30007KT 10SM CLR A3000 RMK WND 26V33  MADISHF
BKV,2017-04-01 19:05,-82.4554,28.4736,M,M,M,290.00,5.00,M,30.00,M,10.00,M,CLR,M,M,M,M,M,M,M,M,KBKV 011905Z AUTO 29005KT 10SM CLR A3000 RMK VRB05KT  MADISHF
BKV,2017-04-01 19:10,-82.4554,28.4736,M,M,M,280.00,7.00,M,30.00,M,10.00,M,CLR,M,M,M,M,M,M,M,M,KBKV 011910Z AUTO 28007KT 10SM CLR A3000 RMK WND 24V33  MADISHF
BKV,2017-04-01 19:15,-82.4554,28.4736,M,M,M,260.00,7.00,M,29.99,M,10.00,M,CLR,M,M,M,M,M,M,M,M,KBKV 011915Z AUTO 26007KT 10SM CLR A2999 RMK MADISHF
BKV,2017-04-01 19:20,-82.4554,28.4736,M,M,M,290.00,10.00,M,29.99,M,10.00,M,CLR,M,M,M,M,M,M,M,M,KBKV 011920Z AUTO 29010KT 10SM CLR A2999 RMK MADISHF
BKV,2017-04-01 19:25,-82.4554,28.4736,M,M,M,310.00,9.00,M,29.99,M,10.00,M,CLR,M,M,M,M,M,M,M,M,KBKV 011925Z AUTO 31009KT 10SM CLR A2999 RMK MADISHF
BKV,2017-04-01 19:30,-82.4554,28.4736,M,M,M,270.00,12.00,M,29.99,M,10.00,M,CLR,M,M,M,M,M,M,M,M,KBKV 011930Z AUTO 27012KT 10SM CLR A2999 RMK MADISHF
BKV,2017-04-01 19:35,-82.4554,28.4736,M,M,M,280.00,9.00,M,29.99,M,10.00,M,CLR,M,M,M,M,M,M,M,M,KBKV 011935Z AUTO 28009KT 10SM CLR A2999 RMK MADISHF
BKV,2017-04-01 19:40,-82.4554,28.4736,M,M,M,280.00,10.00,M,29.99,M,10.00,M,CLR,M,M,M,M,M,M,M,M,KBKV 011940Z AUTO 28010KT 10SM CLR A2999 RMK MADISHF
BKV,2017-04-01 19:45,-82.4554,28.4736,M,M,M,280.00,10.00,M,29.99,M,10.00,M,CLR,M,M,M,M,M,M,M,M,KBKV 011945Z AUTO 28010KT 10SM CLR A2999 RMK MADISHF
BKV,2017-04-01 19:50,-82.4554,28.4736,M,M,M,280.00,12.00,M,29.99,M,10.00,M,CLR,M,M,M,M,M,M,M,M,KBKV 011950Z AUTO 28012KT 10SM CLR A2999 RMK WND 25V31  MADISHF
BKV,2017-04-01 19:53,-82.4554,28.4736,90.00,46.00,21.91,250.00,10.00,0.00,29.99,1015.40,10.00,15.00,CLR,M,M,M,M,M,M,M,M,KBKV 011953Z 25010G15KT 10SM CLR 32/08 A2999 RMK AO2 SLP154 T03220078
BKV,2017-04-01 19:55,-82.4554,28.4736,M,M,M,M,M,M,29.99,M,10.00,M,CLR,M,M,M,M,M,M,M,M,KBKV 011955Z AUTO /////KT 10SM CLR A2999 RMK MADISHF
BKV,2017-04-01 20:00,-82.4554,28.4736,M,M,M,270.00,12.00,M,29.99,M,10.00,M,CLR,M,M,M,M,M,M,M,M,KBKV 012000Z AUTO 27012KT 10SM CLR A2999 RMK MADISHF
BKV,2017-04-01 20:05,-82.4554,28.4736,M,M,M,280.00,10.00,M,29.99,M,10.00,M,CLR,M,M,M,M,M,M,M,M,KBKV 012005Z AUTO 28010KT 10SM CLR A2999 RMK MADISHF
BKV,2017-04-01 20:10,-82.4554,28.4736,M,M,M,270.00,12.00,M,29.99,M,10.00,M,CLR,M,M,M,M,M,M,M,M,KBKV 012010Z AUTO 27012KT 10SM CLR A2999 RMK MADISHF
BKV,2017-04-01 20:15,-82.4554,28.4736,M,M,M,270.00,11.00,M,29.99,M,10.00,16.00,CLR,M,M,M,M,M,M,M,M,KBKV 012015Z AUTO 27011G16KT 10SM CLR A2999 RMK MADISHF
BKV,2017-04-01 20:20,-82.4554,28.4736,M,M,M,260.00,11.00,M,29.99,M,10.00,M,CLR,M,M,M,M,M,M,M,M,KBKV 012020Z AUTO 26011KT 10SM CLR A2999 RMK MADISHF
BKV,2017-04-01 20:25,-82.4554,28.4736,M,M,M,280.00,11.00,M,29.99,M,10.00,M,CLR,M,M,M,M,M,M,M,M,KBKV 012025Z AUTO 28011KT 10SM CLR A2999 RMK MADISHF
BKV,2017-04-01 20:30,-82.4554,28.4736,M,M,M,260.00,10.00,M,29.99,M,10.00,M,CLR,M,M,M,M,M,M,M,M,KBKV 012030Z AUTO 26010KT 10SM CLR A2999 RMK MADISHF
BKV,2017-04-01 20:35,-82.4554,28.4736,M,M,M,270.00,12.00,M,29.99,M,10.00,M,CLR,M,M,M,M,M,M,M,M,KBKV 012035Z AUTO 27012KT 10SM CLR A2999 RMK MADISHF
BKV,2017-04-01 20:40,-82.4554,28.4736,M,M,M,270.00,11.00,M,29.99,M,10.00,M,CLR,M,M,M,M,M,M,M,M,KBKV 012040Z AUTO 27011KT 10SM CLR A2999 RMK MADISHF
BKV,2017-04-01 20:45,-82.4554,28.4736,M,M,M,M,M,M,29.99,M,10.00,M,CLR,M,M,M,M,M,M,M,M,KBKV 012045Z AUTO /////KT 10SM CLR A2999 RMK MADISHF
BKV,2017-04-01 20:50,-82.4554,28.4736,M,M,M,240.00,11.00,M,29.99,M,10.00,M,CLR,M,M,M,M,M,M,M,M,KBKV 012050Z AUTO 24011KT 10SM CLR A2999 RMK MADISHF
BKV,2017-04-01 20:53,-82.4554,28.4736,88.00,52.00,29.21,270.00,11.00,0.00,29.99,1015.20,10.00,M,CLR,M,M,M,M,M,M,M,M,KBKV 012053Z 27011KT 10SM CLR 31/11 A2999 RMK AO2 SLP152 T03110111 56013
BKV,2017-04-01 20:55,-82.4554,28.4736,M,M,M,260.00,11.00,M,29.99,M,10.00,M,CLR,M,M,M,M,M,M,M,M,KBKV 012055Z AUTO 26011KT 10SM CLR A2999 RMK MADISHF
BKV,2017-04-01 21:00,-82.4554,28.4736,M,M,M,270.00,11.00,M,29.99,M,10.00,M,CLR,M,M,M,M,M,M,M,M,KBKV 012100Z AUTO 27011KT 10SM CLR A2999 RMK MADISHF
BKV,2017-04-01 21:05,-82.4554,28.4736,M,M,M,280.00,10.00,M,29.99,M,10.00,M,CLR,M,M,M,M,M,M,M,M,KBKV 012105Z AUTO 28010KT 10SM CLR A2999 RMK MADISHF
BKV,2017-04-01 21:10,-82.4554,28.4736,M,M,M,M,M,M,29.99,M,10.00,M,CLR,M,M,M,M,M,M,M,M,KBKV 012110Z AUTO /////KT 10SM CLR A2999 RMK MADISHF
BKV,2017-04-01 21:15,-82.4554,28.4736,M,M,M,280.00,11.00,M,29.99,M,10.00,M,CLR,M,M,M,M,M,M,M,M,KBKV 012115Z AUTO 28011KT 10SM CLR A2999 RMK MADISHF
BKV,2017-04-01 21:20,-82.4554,28.4736,M,M,M,280.00,10.00,M,29.99,M,10.00,M,CLR,M,M,M,M,M,M,M,M,KBKV 012120Z AUTO 28010KT 10SM CLR A2999 RMK MADISHF
BKV,2017-04-01 21:25,-82.4554,28.4736,M,M,M,280.00,12.00,M,29.99,M,10.00,M,CLR,M,M,M,M,M,M,M,M,KBKV 012125Z AUTO 28012KT 10SM CLR A2999 RMK MADISHF
BKV,2017-04-01 21:30,-82.4554,28.4736,M,M,M,280.00,11.00,M,29.99,M,10.00,M,CLR,M,M,M,M,M,M,M,M,KBKV 012130Z AUTO 28011KT 10SM CLR A2999 RMK MADISHF
BKV,2017-04-01 21:35,-82.4554,28.4736,M,M,M,280.00,12.00,M,29.99,M,10.00,M,CLR,M,M,M,M,M,M,M,M,KBKV 012135Z AUTO 28012KT 10SM CLR A2999 RMK MADISHF
BKV,2017-04-01 21:40,-82.4554,28.4736,M,M,M,270.00,12.00,M,29.99,M,10.00,M,CLR,M,M,M,M,M,M,M,M,KBKV 012140Z AUTO 27012KT 10SM CLR A2999 RMK MADISHF
BKV,2017-04-01 21:45,-82.4554,28.4736,M,M,M,270.00,12.00,M,30.00,M,10.00,M,CLR,M,M,M,M,M,M,M,M,KBKV 012145Z AUTO 27012KT 10SM CLR A3000 RMK MADISHF
BKV,2017-04-01 21:50,-82.4554,28.4736,M,M,M,280.00,11.00,M,30.00,M,10.00,M,CLR,M,M,M,M,M,M,M,M,KBKV 012150Z AUTO 28011KT 10SM CLR A3000 RMK MADISHF
BKV,2017-04-01 21:53,-82.4554,28.4736,82.90,60.10,46.12,280.00,10.00,0.00,30.00,1015.70,10.00,19.00,CLR,M,M,M,M,M,M,M,M,KBKV 012153Z 28010G19KT 10SM CLR 28/16 A3000 RMK AO2 SLP157 T02830156
BKV,2017-04-01 21:55,-82.4554,28.4736,M,M,M,270.00,11.00,M,30.00,M,10.00,M,CLR,M,M,M,M,M,M,M,M,KBKV 012155Z AUTO 27011KT 10SM CLR A3000 RMK MADISHF
BKV,2017-04-01 22:00,-82.4554,28.4736,M,M,M,270.00,12.00,M,30.00,M,10.00,M,CLR,M,M,M,M,M,M,M,M,KBKV 012200Z AUTO 27012KT 10SM CLR A3000 RMK MADISHF
BKV,2017-04-01 22:05,-82.4554,28.4736,M,M,M,M,M,M,30.00,M,10.00,M,CLR,M,M,M,M,M,M,M,M,KBKV 012205Z AUTO /////KT 10SM CLR A3000 RMK MADISHF
BKV,2017-04-01 22:10,-82.4554,28.4736,M,M,M,270.00,11.00,M,30.00,M,10.00,M,CLR,M,M,M,M,M,M,M,M,KBKV 012210Z AUTO 27011KT 10SM CLR A3000 RMK MADISHF
BKV,2017-04-01 22:20,-82.4554,28.4736,M,M,M,280.00,12.00,M,30.01,M,10.00,M,CLR,M,M,M,M,M,M,M,M,KBKV 012220Z AUTO 28012KT 10SM CLR A3001 RMK MADISHF
BKV,2017-04-01 22:25,-82.4554,28.4736,M,M,M,270.00,11.00,M,30.01,M,10.00,M,CLR,M,M,M,M,M,M,M,M,KBKV 012225Z AUTO 27011KT 10SM CLR A3001 RMK MADISHF
BKV,2017-04-01 22:30,-82.4554,28.4736,M,M,M,270.00,11.00,M,30.01,M,10.00,M,CLR,M,M,M,M,M,M,M,M,KBKV 012230Z AUTO 27011KT 10SM CLR A3001 RMK MADISHF
BKV,2017-04-01 22:35,-82.4554,28.4736,M,M,M,250.00,11.00,M,30.01,M,10.00,M,CLR,M,M,M,M,M,M,M,M,KBKV 012235Z AUTO 25011KT 10SM CLR A3001 RMK MADISHF
BKV,2017-04-01 22:40,-82.4554,28.4736,M,M,M,M,M,M,30.01,M,10.00,M,CLR,M,M,M,M,M,M,M,M,KBKV 012240Z AUTO /////KT 10SM CLR A3001 RMK MADISHF
BKV,2017-04-01 22:45,-82.4554,28.4736,M,M,M,260.00,9.00,M,30.01,M,10.00,M,CLR,M,M,M,M,M,M,M,M,KBKV 012245Z AUTO 26009KT 10SM CLR A3001 RMK MADISHF
BKV,2017-04-01 22:50,-82.4554,28.4736,M,M,M,M,M,M,30.01,M,10.00,M,CLR,M,M,M,M,M,M,M,M,KBKV 012250Z AUTO /////KT 10SM CLR A3001 RMK MADISHF
BKV,2017-04-01 22:53,-82.4554,28.4736,78.10,61.00,55.71,270.00,10.00,0.00,30.01,1016.20,10.00,M,CLR,M,M,M,M,M,M,M,M,KBKV 012253Z 27010KT 10SM CLR 26/16 A3001 RMK AO2 SLP162 T02560161
BKV,2017-04-01 22:55,-82.4554,28.4736,M,M,M,270.00,10.00,M,30.01,M,10.00,M,CLR,M,M,M,M,M,M,M,M,KBKV 012255Z AUTO 27010KT 10SM CLR A3001 RMK MADISHF
BKV,2017-04-01 23:00,-82.4554,28.4736,M,M,M,270.00,10.00,M,30.02,M,10.00,M,CLR,M,M,M,M,M,M,M,M,KBKV 012300Z AUTO 27010KT 10SM CLR A3002 RMK MADISHF
BKV,2017-04-01 23:05,-82.4554,28.4736,M,M,M,280.00,10.00,M,30.02,M,10.00,M,CLR,M,M,M,M,M,M,M,M,KBKV 012305Z AUTO 28010KT 10SM CLR A3002 RMK MADISHF
BKV,2017-04-01 23:10,-82.4554,28.4736,M,M,M,270.00,11.00,M,30.02,M,10.00,M,CLR,M,M,M,M,M,M,M,M,KBKV 012310Z AUTO 27011KT 10SM CLR A3002 RMK MADISHF
BKV,2017-04-01 23:15,-82.4554,28.4736,M,M,M,260.00,11.00,M,30.02,M,10.00,M,CLR,M,M,M,M,M,M,M,M,KBKV 012315Z AUTO 26011KT 10SM CLR A3002 RMK MADISHF
BKV,2017-04-01 23:20,-82.4554,28.4736,M,M,M,270.00,7.00,M,30.02,M,10.00,M,CLR,M,M,M,M,M,M,M,M,KBKV 012320Z AUTO 27007KT 10SM CLR A3002 RMK MADISHF
BKV,2017-04-01 23:25,-82.4554,28.4736,M,M,M,270.00,11.00,M,30.02,M,10.00,M,CLR,M,M,M,M,M,M,M,M,KBKV 012325Z AUTO 27011KT 10SM CLR A3002 RMK MADISHF
BKV,2017-04-01 23:30,-82.4554,28.4736,M,M,M,270.00,10.00,M,30.02,M,10.00,M,CLR,M,M,M,M,M,M,M,M,KBKV 012330Z AUTO 27010KT 10SM CLR A3002 RMK MADISHF
BKV,2017-04-01 23:35,-82.4554,28.4736,M,M,M,270.00,8.00,M,30.02,M,10.00,M,CLR,M,M,M,M,M,M,M,M,KBKV 012335Z AUTO 27008KT 10SM CLR A3002 RMK MADISHF
BKV,2017-04-01 23:40,-82.4554,28.4736,M,M,M,270.00,9.00,M,30.02,M,10.00,M,CLR,M,M,M,M,M,M,M,M,KBKV 012340Z AUTO 27009KT 10SM CLR A3002 RMK MADISHF
BKV,2017-04-01 23:45,-82.4554,28.4736,M,M,M,270.00,9.00,M,30.02,M,10.00,M,CLR,M,M,M,M,M,M,M,M,KBKV 012345Z AUTO 27009KT 10SM CLR A3002 RMK MADISHF
BKV,2017-04-01 23:50,-82.4554,28.4736,M,M,M,260.00,6.00,M,30.02,M,10.00,M,CLR,M,M,M,M,M,M,M,M,KBKV 012350Z AUTO 26006KT 10SM CLR A3002 RMK MADISHF
BKV,2017-04-01 23:53,-82.4554,28.4736,72.00,61.00,68.31,260.00,5.00,0.00,30.02,1016.60,10.00,M,CLR,M,M,M,M,M,M,M,M,KBKV 012353Z 26005KT 10SM CLR 22/16 A3002 RMK AO2 SLP166 T02220161 10322 20222 51013
BKV,2017-04-01 23:55,-82.4554,28.4736,M,M,M,260.00,4.00,M,30.02,M,10.00,M,CLR,M,M,M,M,M,M,M,M,KBKV 012355Z AUTO 26004KT 10SM CLR A3002 RMK MADISHF
