#DEBUG: Format Typ    -> comma
#DEBUG: Time Period   -> 2017-04-01 00:00:00+00:00 2017-04-02 00:00:00+00:00
#DEBUG: Time Zone     -> Etc/UTC
#DEBUG: Data Contact   -> daryl herzmann akrherz@iastate.edu 515-294-5978
#DEBUG: Entries Found -> -1
station,valid,lon,lat,tmpf, dwpf, relh, drct, sknt, p01i, alti, mslp, vsby, gust, skyc1, skyc2, skyc3, skyc4, skyl1, skyl2, skyl3, skyl4, presentwx, metar
BKW,2017-04-01 00:00,-81.1242,37.7873,M,M,M,280.00,10.00,M,29.78,M,10.00,M,FEW,BKN,OVC,M,1300.00,2700.00,3200.00,M,-RA,KBKW 010000Z AUTO 28010KT 10SM -RA FEW013 BKN027 OVC032 A2978 RMK CIG 022 RWY19  MADISHF
BKW,2017-04-01 00:05,-81.1242,37.7873,M,M,M,270.00,8.00,M,29.79,M,10.00,M,FEW,BKN,OVC,M,1500.00,2100.00,2900.00,M,-RA,KBKW 010005Z AUTO 27008KT 10SM -RA FEW015 BKN021 OVC029 A2979 RMK MADISHF
BKW,2017-04-01 00:10,-81.1242,37.7873,M,M,M,290.00,9.00,M,29.79,M,10.00,M,FEW,BKN,OVC,M,1300.00,1999.00,3300.00,M,-RA,KBKW 010010Z AUTO 29009KT 10SM -RA FEW013 BKN019 OVC033 A2979 RMK MADISHF
BKW,2017-04-01 00:15,-81.1242,37.7873,M,M,M,280.00,9.00,M,29.79,M,9.00,M,SCT,BKN,OVC,M,1300.00,1800.00,3100.00,M,-RA,KBKW 010015Z AUTO 28009KT 9SM -RA SCT013 BKN018 OVC031 A2979 RMK MADISHF
BKW,2017-04-01 00:20,-81.1242,37.7873,M,M,M,280.00,11.00,0.01,29.79,M,7.00,16.00,FEW,BKN,OVC,M,1300.00,1800.00,2900.00,M,-RA,KBKW 010020Z AUTO 28011G16KT 7SM -RA FEW013 BKN018 OVC029 A2979 RMK P0001 MADISHF
BKW,2017-04-01 00:25,-81.1242,37.7873,M,M,M,280.00,9.00,0.01,29.79,M,5.00,M,FEW,BKN,OVC,M,1300.00,1800.00,2600.00,M,-RA BR,KBKW 010025Z AUTO 28009KT 5SM -RA BR FEW013 BKN018 OVC026 A2979 RMK P0001 MADISHF
BKW,2017-04-01 00:30,-81.1242,37.7873,M,M,M,290.00,8.00,0.01,29.79,M,4.00,M,FEW,BKN,OVC,M,900.00,1500.00,2500.00,M,-RA BR,KBKW 010030Z AUTO 29008KT 4SM -RA BR FEW009 BKN015 OVC025 A2979 RMK P0001 MADISHF
BKW,2017-04-01 00:35,-81.1242,37.7873,46.90,45.00,93.06,290.00,8.00,0.02,29.80,M,5.00,M,SCT,BKN,OVC,M,900.00,1800.00,2500.00,M,-RA BR,KBKW 010035Z AUTO 29008KT 5SM -RA BR SCT009 BKN018 OVC025 08/07 A2980 RMK AO2 RAB2353 P0002 T00830072
BKW,2017-04-01 00:40,-81.1242,37.7873,M,M,M,280.00,7.00,0.02,29.80,M,6.00,M,SCT,BKN,OVC,M,800.00,1400.00,1900.00,M,-RA BR,KBKW 010040Z AUTO 28007KT 6SM -RA BR SCT008 BKN014 OVC019 A2980 RMK P0002 MADISHF
BKW,2017-04-01 00:45,-81.1242,37.7873,M,M,M,280.00,7.00,0.02,29.80,M,7.00,M,SCT,OVC,M,M,900.00,1699.00,M,M,-RA,KBKW 010045Z AUTO 28007KT 7SM -RA SCT009 OVC016 A2980 RMK P0002 MADISHF
BKW,2017-04-01 00:50,-81.1242,37.7873,M,M,M,280.00,7.00,0.02,29.80,M,7.00,M,SCT,OVC,M,M,800.00,1500.00,M,M,-RA,KBKW 010050Z AUTO 28007KT 7SM -RA SCT008 OVC015 A2980 RMK P0002 MADISHF
BKW,2017-04-01 00:51,-81.1242,37.7873,46.90,45.00,93.06,280.00,6.00,0.02,29.80,1008.80,7.00,M,SCT,SCT,OVC,M,800.00,1200.00,1800.00,M,-RA,KBKW 010051Z AUTO 28006KT 7SM -RA SCT008 SCT012 OVC018 08/07 A2980 RMK AO2 RAB2353 SLP088 P0002 T00830072
BKW,2017-04-01 00:55,-81.1242,37.7873,M,M,M,280.00,7.00,M,29.80,M,9.00,M,SCT,BKN,OVC,M,800.00,1500.00,2100.00,M,-RA,KBKW 010055Z AUTO 28007KT 9SM -RA SCT008 BKN015 OVC021 A2980 RMK MADISHF
BKW,2017-04-01 01:00,-81.1242,37.7873,M,M,M,280.00,6.00,M,29.80,M,6.00,M,SCT,BKN,OVC,M,600.00,999.00,2100.00,M,-RA BR,KBKW 010100Z AUTO 28006KT 6SM -RA BR SCT006 BKN009 OVC021 A2980 RMK MADISHF
BKW,2017-04-01 01:01,-81.1242,37.7873,46.90,45.00,93.06,270.00,6.00,0.00,29.80,M,6.00,M,BKN,BKN,OVC,M,700.00,1500.00,2100.00,M,-RA BR,KBKW 010101Z AUTO 27006KT 6SM -RA BR BKN007 BKN015 OVC021 08/07 A2980 RMK AO2 VIS 2 1/2 RWY19 P0000 T00830072
BKW,2017-04-01 01:05,-81.1242,37.7873,M,M,M,270.00,7.00,M,29.81,M,5.00,M,BKN,OVC,M,M,700.00,1500.00,M,M,-RA BR,KBKW 010105Z AUTO 27007KT 5SM -RA BR BKN007 OVC015 A2981 RMK VIS 2 RWY19  MADISHF
BKW,2017-04-01 01:10,-81.1242,37.7873,M,M,M,270.00,8.00,0.01,29.81,M,4.00,M,BKN,OVC,M,M,600.00,1600.00,M,M,-RA BR,KBKW 010110Z AUTO 27008KT 4SM -RA BR BKN006 OVC016 A2981 RMK P0001 VIS 1 3/4 RWY19  MADISHF
BKW,2017-04-01 01:15,-81.1242,37.7873,M,M,M,270.00,8.00,0.01,29.81,M,3.00,M,BKN,BKN,OVC,M,400.00,800.00,1500.00,M,-RA BR,KBKW 010115Z AUTO 27008KT 3SM -RA BR BKN004 BKN008 OVC015 A2981 RMK P0001 VIS 1 1/2 RWY19  MADISHF
BKW,2017-04-01 01:18,-81.1242,37.7873,46.90,45.00,93.06,280.00,8.00,0.01,29.81,M,3.00,M,BKN,BKN,OVC,M,400.00,800.00,1400.00,M,-RA BR,KBKW 010118Z AUTO 28008KT 3SM -RA BR BKN004 BKN008 OVC014 08/07 A2981 RMK AO2 VIS 1 1/2 RWY19 P0001 T00830072
BKW,2017-04-01 01:20,-81.1242,37.7873,M,M,M,280.00,8.00,0.01,29.81,M,3.50,M,BKN,BKN,OVC,M,400.00,800.00,1400.00,M,-RA BR,KBKW 010120Z AUTO 28008KT 3SM -RA BR BKN004 BKN008 OVC014 A2981 RMK P0001 VIS 1 1/2 RWY19  MADISHF
BKW,2017-04-01 01:25,-81.1242,37.7873,M,M,M,270.00,8.00,0.02,29.82,M,4.00,M,BKN,BKN,OVC,M,499.00,900.00,1300.00,M,-RA BR,KBKW 010125Z AUTO 27008KT 4SM -RA BR BKN004 BKN009 OVC013 A2982 RMK P0002 VIS 2 1/2 RWY19  MADISHF
BKW,2017-04-01 01:30,-81.1242,37.7873,M,M,M,270.00,8.00,0.02,29.82,M,4.00,M,BKN,BKN,OVC,M,400.00,800.00,1400.00,M,-RA BR,KBKW 010130Z AUTO 27008KT 4SM -RA BR BKN004 BKN008 OVC014 A2982 RMK P0002 MADISHF
BKW,2017-04-01 01:35,-81.1242,37.7873,M,M,M,270.00,9.00,0.03,29.82,M,5.00,M,BKN,BKN,OVC,M,400.00,800.00,1400.00,M,-RA BR,KBKW 010135Z AUTO 27009KT 5SM -RA BR BKN004 BKN008 OVC014 A2982 RMK P0003 MADISHF
BKW,2017-04-01 01:39,-81.1242,37.7873,46.90,45.00,93.06,270.00,8.00,0.03,29.82,M,6.00,M,SCT,OVC,M,M,500.00,1400.00,M,M,-RA BR,KBKW 010139Z AUTO 27008KT 6SM -RA BR SCT005 OVC014 08/07 A2982 RMK AO2 CIG 004 RWY19 P0003 T00830072
BKW,2017-04-01 01:40,-81.1242,37.7873,M,M,M,270.00,8.00,0.03,29.82,M,7.00,M,SCT,BKN,OVC,M,400.00,1400.00,2400.00,M,-RA,KBKW 010140Z AUTO 27008KT 7SM -RA SCT004 BKN014 OVC024 A2982 RMK P0003 CIG 004 RWY19  MADISHF
BKW,2017-04-01 01:45,-81.1242,37.7873,M,M,M,270.00,8.00,0.03,29.82,M,10.00,M,SCT,BKN,OVC,M,499.00,1500.00,2300.00,M,-RA,KBKW 010145Z AUTO 27008KT 10SM -RA SCT004 BKN015 OVC023 A2982 RMK P0003 CIG 010 RWY19  MADISHF
BKW,2017-04-01 01:49,-81.1242,37.7873,46.40,44.60,93.40,270.00,7.00,0.03,29.82,M,10.00,M,SCT,BKN,OVC,M,400.00,1500.00,2200.00,M,-RA,KBKW 010149Z AUTO 27007KT 10SM -RA SCT004 BKN015 OVC022 08/07 A2982 RMK AO2 CIG 010 RWY19 P0003
BKW,2017-04-01 01:50,-81.1242,37.7873,M,M,M,280.00,8.00,0.03,29.82,M,10.00,M,SCT,SCT,OVC,M,499.00,900.00,1500.00,M,-RA,KBKW 010150Z AUTO 28008KT 10SM -RA SCT004 SCT009 OVC015 A2982 RMK P0003 CIG 008 RWY19  MADISHF
BKW,2017-04-01 01:51,-81.1242,37.7873,46.90,45.00,93.06,280.00,7.00,0.03,29.82,1009.70,10.00,M,SCT,SCT,OVC,M,500.00,900.00,1500.00,M,-RA,KBKW 010151Z AUTO 28007KT 10SM -RA SCT005 SCT009 OVC015 08/07 A2982 RMK AO2 CIG 010 RWY19 SLP097 P0003 T00830072
BKW,2017-04-01 01:55,-81.1242,37.7873,M,M,M,270.00,9.00,M,29.82,M,10.00,M,BKN,OVC,M,M,600.00,1500.00,M,M,-RA,KBKW 010155Z AUTO 27009KT 10SM -RA BKN006 OVC015 A2982 RMK MADISHF
BKW,2017-04-01 01:59,-81.1242,37.7873,46.90,45.00,93.06,280.00,10.00,0.00,29.83,M,10.00,M,BKN,BKN,OVC,M,600.00,1100.00,1700.00,M,-RA,KBKW 010159Z AUTO 28010KT 10SM -RA BKN006 BKN011 OVC017 08/07 A2983 RMK AO2 P0000 T00830072
BKW,2017-04-01 02:00,-81.1242,37.7873,M,M,M,280.00,10.00,M,29.83,M,10.00,M,BKN,BKN,OVC,M,600.00,1100.00,1699.00,M,-RA,KBKW 010200Z AUTO 28010KT 10SM -RA BKN006 BKN011 OVC016 A2983 RMK MADISHF
BKW,2017-04-01 02:05,-81.1242,37.7873,M,M,M,270.00,10.00,M,29.83,M,10.00,M,BKN,BKN,OVC,M,600.00,999.00,1600.00,M,M,KBKW 010205Z AUTO 27010KT 10SM BKN006 BKN009 OVC016 A2983 RMK MADISHF
BKW,2017-04-01 02:10,-81.1242,37.7873,M,M,M,270.00,11.00,M,29.83,M,7.00,M,BKN,OVC,M,M,600.00,1600.00,M,M,-RA,KBKW 010210Z AUTO 27011KT 7SM -RA BKN006 OVC016 A2983 RMK MADISHF
BKW,2017-04-01 02:15,-81.1242,37.7873,M,M,M,260.00,9.00,M,29.83,M,5.00,M,OVC,M,M,M,700.00,M,M,M,-RA BR,KBKW 010215Z AUTO 26009KT 5SM -RA BR OVC007 A2983 RMK VIS 2 1/2 RWY19  MADISHF
BKW,2017-04-01 02:20,-81.1242,37.7873,M,M,M,270.00,11.00,M,29.83,M,4.00,M,BKN,OVC,M,M,600.00,1100.00,M,M,-RA BR,KBKW 010220Z AUTO 27011KT 4SM -RA BR BKN006 OVC011 A2983 RMK VIS 2 1/2 RWY19  MADISHF
BKW,2017-04-01 02:25,-81.1242,37.7873,M,M,M,270.00,9.00,M,29.83,M,4.00,M,BKN,OVC,M,M,600.00,1100.00,M,M,-RA BR,KBKW 010225Z AUTO 27009KT 4SM -RA BR BKN006 OVC011 A2983 RMK VIS 2 RWY19  MADISHF
BKW,2017-04-01 02:30,-81.1242,37.7873,M,M,M,280.00,9.00,0.01,29.83,M,4.00,M,BKN,OVC,M,M,499.00,999.00,M,M,-RA BR,KBKW 010230Z AUTO 28009KT 4SM -RA BR BKN004 OVC009 A2983 RMK P0001 VIS 2 RWY19  MADISHF
BKW,2017-04-01 02:35,-81.1242,37.7873,M,M,M,270.00,10.00,0.01,29.83,M,5.00,M,BKN,OVC,M,M,499.00,999.00,M,M,-RA BR,KBKW 010235Z AUTO 27010KT 5SM -RA BR BKN004 OVC009 A2983 RMK P0001 VIS 2 1/2 RWY19  MADISHF
BKW,2017-04-01 02:40,-81.1242,37.7873,M,M,M,290.00,7.00,0.01,29.83,M,4.00,M,OVC,M,M,M,499.00,M,M,M,-RA BR,KBKW 010240Z AUTO 29007KT 4SM -RA BR OVC004 A2983 RMK P0001 VIS 2 1/2 RWY19  MADISHF
BKW,2017-04-01 02:45,-81.1242,37.7873,M,M,M,280.00,11.00,0.01,29.83,M,4.00,M,OVC,M,M,M,600.00,M,M,M,-RA BR,KBKW 010245Z AUTO 28011KT 4SM -RA BR OVC006 A2983 RMK P0001 VIS 2 1/2 RWY19  MADISHF
BKW,2017-04-01 02:50,-81.1242,37.7873,M,M,M,290.00,10.00,0.01,29.83,M,6.00,M,BKN,OVC,M,M,499.00,900.00,M,M,-RA BR,KBKW 010250Z AUTO 29010KT 6SM -RA BR BKN004 OVC009 A2983 RMK P0001 MADISHF
BKW,2017-04-01 02:51,-81.1242,37.7873,46.90,45.00,93.06,280.00,10.00,0.01,29.83,1009.70,5.00,M,BKN,OVC,M,M,500.00,900.00,M,M,-RA BR,KBKW 010251Z AUTO 28010KT 5SM -RA BR BKN005 OVC009 08/07 A2983 RMK AO2 SLP097 P0001 60006 T00830072 51010
BKW,2017-04-01 02:55,-81.1242,37.7873,M,M,M,280.00,9.00,M,29.83,M,5.00,M,OVC,M,M,M,600.00,M,M,M,-RA BR,KBKW 010255Z AUTO 28009KT 5SM -RA BR OVC006 A2983 RMK VIS 2 1/2 RWY19  MADISHF
BKW,2017-04-01 03:00,-81.1242,37.7873,M,M,M,280.00,8.00,M,29.83,M,4.00,M,OVC,M,M,M,600.00,M,M,M,-RA BR,KBKW 010300Z AUTO 28008KT 4SM -RA BR OVC006 A2983 RMK VIS 2 1/2 RWY19  MADISHF
BKW,2017-04-01 03:05,-81.1242,37.7873,M,M,M,280.00,9.00,M,29.83,M,5.00,M,BKN,OVC,M,M,499.00,900.00,M,M,-RA BR,KBKW 010305Z AUTO 28009KT 5SM -RA BR BKN004 OVC009 A2983 RMK MADISHF
BKW,2017-04-01 03:10,-81.1242,37.7873,M,M,M,280.00,9.00,M,29.83,M,5.00,M,OVC,M,M,M,700.00,M,M,M,BR,KBKW 010310Z AUTO 28009KT 5SM BR OVC007 A2983 RMK MADISHF
BKW,2017-04-01 03:15,-81.1242,37.7873,M,M,M,280.00,10.00,M,29.83,M,6.00,M,OVC,M,M,M,700.00,M,M,M,BR,KBKW 010315Z AUTO 28010KT 6SM BR OVC007 A2983 RMK MADISHF
BKW,2017-04-01 03:20,-81.1242,37.7873,M,M,M,280.00,10.00,M,29.83,M,6.00,M,BKN,OVC,M,M,499.00,900.00,M,M,BR,KBKW 010320Z AUTO 28010KT 6SM BR BKN004 OVC009 A2983 RMK MADISHF
BKW,2017-04-01 03:25,-81.1242,37.7873,M,M,M,280.00,13.00,M,29.83,M,6.00,M,OVC,M,M,M,700.00,M,M,M,BR,KBKW 010325Z AUTO 28013KT 6SM BR OVC007 A2983 RMK MADISHF
BKW,2017-04-01 03:30,-81.1242,37.7873,M,M,M,280.00,11.00,M,29.83,M,5.00,M,OVC,M,M,M,700.00,M,M,M,-RA BR,KBKW 010330Z AUTO 28011KT 5SM -RA BR OVC007 A2983 RMK MADISHF
BKW,2017-04-01 03:35,-81.1242,37.7873,M,M,M,290.00,9.00,M,29.83,M,5.00,M,OVC,M,M,M,800.00,M,M,M,-RA BR,KBKW 010335Z AUTO 29009KT 5SM -RA BR OVC008 A2983 RMK MADISHF
BKW,2017-04-01 03:40,-81.1242,37.7873,M,M,M,290.00,7.00,M,29.83,M,5.00,M,OVC,M,M,M,600.00,M,M,M,-RA BR,KBKW 010340Z AUTO 29007KT 5SM -RA BR OVC006 A2983 RMK MADISHF
BKW,2017-04-01 03:45,-81.1242,37.7873,M,M,M,290.00,6.00,M,29.83,M,4.00,M,OVC,M,M,M,600.00,M,M,M,-RA BR,KBKW 010345Z AUTO 29006KT 4SM -RA BR OVC006 A2983 RMK MADISHF
BKW,2017-04-01 03:50,-81.1242,37.7873,M,M,M,290.00,8.00,M,29.83,M,4.00,M,BKN,OVC,M,M,400.00,800.00,M,M,-RA BR,KBKW 010350Z AUTO 29008KT 4SM -RA BR BKN004 OVC008 A2983 RMK MADISHF
BKW,2017-04-01 03:51,-81.1242,37.7873,46.90,45.00,93.06,290.00,8.00,0.00,29.83,1009.50,4.00,M,BKN,OVC,M,M,400.00,800.00,M,M,-RA BR,KBKW 010351Z AUTO 29008KT 4SM -RA BR BKN004 OVC008 08/07 A2983 RMK AO2 RAE06B30 SLP095 P0000 T00830072
BKW,2017-04-01 03:55,-81.1242,37.7873,M,M,M,290.00,8.00,M,29.83,M,4.00,M,OVC,M,M,M,400.00,M,M,M,-RA BR,KBKW 010355Z AUTO 29008KT 4SM -RA BR OVC004 A2983 RMK MADISHF
BKW,2017-04-01 04:00,-81.1242,37.7873,M,M,M,290.00,6.00,M,29.83,M,5.00,M,OVC,M,M,M,400.00,M,M,M,BR,KBKW 010400Z AUTO 29006KT 5SM BR OVC004 A2983 RMK MADISHF
BKW,2017-04-01 04:05,-81.1242,37.7873,M,M,M,280.00,8.00,M,29.83,M,4.00,M,OVC,M,M,M,400.00,M,M,M,-RA BR,KBKW 010405Z AUTO 28008KT 4SM -RA BR OVC004 A2983 RMK VIS 2 1/2 RWY19  MADISHF
BKW,2017-04-01 04:10,-81.1242,37.7873,M,M,M,280.00,6.00,0.01,29.83,M,4.00,M,OVC,M,M,M,400.00,M,M,M,-RA BR,KBKW 010410Z AUTO 28006KT 4SM -RA BR OVC004 A2983 RMK P0001 VIS 2 1/2 RWY19  MADISHF
BKW,2017-04-01 04:15,-81.1242,37.7873,M,M,M,290.00,9.00,0.01,29.83,M,6.00,M,OVC,M,M,M,400.00,M,M,M,-RA BR,KBKW 010415Z AUTO 29009KT 6SM -RA BR OVC004 A2983 RMK P0001 MADISHF
BKW,2017-04-01 04:20,-81.1242,37.7873,M,M,M,290.00,10.00,0.01,29.83,M,5.00,M,BKN,OVC,M,M,400.00,800.00,M,M,-RA BR,KBKW 010420Z AUTO 29010KT 5SM -RA BR BKN004 OVC008 A2983 RMK P0001 MADISHF
BKW,2017-04-01 04:25,-81.1242,37.7873,M,M,M,280.00,9.00,0.01,29.83,M,4.00,M,BKN,OVC,M,M,400.00,800.00,M,M,-RA BR,KBKW 010425Z AUTO 28009KT 4SM -RA BR BKN004 OVC008 A2983 RMK P0001 MADISHF
BKW,2017-04-01 04:30,-81.1242,37.7873,M,M,M,290.00,7.00,0.01,29.84,M,6.00,M,OVC,M,M,M,600.00,M,M,M,-RA BR,KBKW 010430Z AUTO 29007KT 6SM -RA BR OVC006 A2984 RMK P0001 MADISHF
BKW,2017-04-01 04:33,-81.1242,37.7873,46.90,46.00,96.66,290.00,7.00,0.01,29.84,M,6.00,M,OVC,M,M,M,600.00,M,M,M,-RA BR,KBKW 010433Z AUTO 29007KT 6SM -RA BR OVC006 08/08 A2984 RMK AO2 P0001 T00830078
BKW,2017-04-01 04:35,-81.1242,37.7873,M,M,M,280.00,8.00,0.01,29.84,M,6.00,M,OVC,M,M,M,600.00,M,M,M,-RA BR,KBKW 010435Z AUTO 28008KT 6SM -RA BR OVC006 A2984 RMK P0001 MADISHF
BKW,2017-04-01 04:40,-81.1242,37.7873,M,M,M,290.00,6.00,0.01,29.84,M,5.00,M,OVC,M,M,M,499.00,M,M,M,-RA BR,KBKW 010440Z AUTO 29006KT 5SM -RA BR OVC004 A2984 RMK P0001 MADISHF
BKW,2017-04-01 04:45,-81.1242,37.7873,M,M,M,300.00,6.00,0.01,29.84,M,5.00,M,OVC,M,M,M,499.00,M,M,M,-RA BR,KBKW 010445Z AUTO 30006KT 5SM -RA BR OVC004 A2984 RMK P0001 MADISHF
BKW,2017-04-01 04:50,-81.1242,37.7873,M,M,M,290.00,5.00,0.01,29.83,M,5.00,M,OVC,M,M,M,499.00,M,M,M,-RA BR,KBKW 010450Z AUTO 29005KT 5SM -RA BR OVC004 A2983 RMK P0001 MADISHF
BKW,2017-04-01 04:51,-81.1242,37.7873,46.90,46.00,96.66,290.00,7.00,0.01,29.84,1009.90,5.00,M,OVC,M,M,M,500.00,M,M,M,-RA BR,KBKW 010451Z AUTO 29007KT 5SM -RA BR OVC005 08/08 A2984 RMK AO2 SLP099 P0001 T00830078 401560083
BKW,2017-04-01 04:55,-81.1242,37.7873,M,M,M,280.00,6.00,M,29.84,M,5.00,M,OVC,M,M,M,499.00,M,M,M,-RA BR,KBKW 010455Z AUTO 28006KT 5SM -RA BR OVC004 A2984 RMK MADISHF
BKW,2017-04-01 05:00,-81.1242,37.7873,M,M,M,290.00,7.00,M,29.84,M,5.00,M,OVC,M,M,M,400.00,M,M,M,-RA BR,KBKW 010500Z AUTO 29007KT 5SM -RA BR OVC004 A2984 RMK MADISHF
BKW,2017-04-01 05:05,-81.1242,37.7873,46.90,46.00,96.66,290.00,7.00,0.00,29.84,M,6.00,M,OVC,M,M,M,400.00,M,M,M,-RA BR,KBKW 010505Z AUTO 29007KT 6SM -RA BR OVC004 08/08 A2984 RMK AO2 P0000 T00830078
BKW,2017-04-01 05:10,-81.1242,37.7873,M,M,M,270.00,8.00,M,29.84,M,7.00,M,OVC,M,M,M,400.00,M,M,M,-RA,KBKW 010510Z AUTO 27008KT 7SM -RA OVC004 A2984 RMK MADISHF
BKW,2017-04-01 05:15,-81.1242,37.7873,M,M,M,270.00,11.00,M,29.83,M,9.00,M,OVC,M,M,M,499.00,M,M,M,-RA,KBKW 010515Z AUTO 27011KT 9SM -RA OVC004 A2983 RMK MADISHF
BKW,2017-04-01 05:17,-81.1242,37.7873,46.90,45.00,93.06,280.00,11.00,0.00,29.83,M,8.00,M,OVC,M,M,M,500.00,M,M,M,-RA,KBKW 010517Z AUTO 28011KT 8SM -RA OVC005 08/07 A2983 RMK AO2 P0000 T00830072
BKW,2017-04-01 05:20,-81.1242,37.7873,M,M,M,280.00,8.00,0.01,29.84,M,9.00,M,BKN,OVC,M,M,499.00,1100.00,M,M,-RA,KBKW 010520Z AUTO 28008KT 9SM -RA BKN004 OVC011 A2984 RMK P0001 MADISHF
BKW,2017-04-01 05:25,-81.1242,37.7873,M,M,M,280.00,11.00,0.01,29.84,M,10.00,M,BKN,OVC,M,M,600.00,1200.00,M,M,-RA,KBKW 010525Z AUTO 28011KT 10SM -RA BKN006 OVC012 A2984 RMK P0001 MADISHF
BKW,2017-04-01 05:30,-81.1242,37.7873,M,M,M,280.00,12.00,0.01,29.84,M,10.00,M,BKN,OVC,M,M,600.00,1300.00,M,M,M,KBKW 010530Z AUTO 28012KT 10SM BKN006 OVC013 A2984 RMK P0001 MADISHF
BKW,2017-04-01 05:35,-81.1242,37.7873,M,M,M,280.00,10.00,0.01,29.84,M,10.00,M,BKN,OVC,M,M,700.00,1300.00,M,M,M,KBKW 010535Z AUTO 28010KT 10SM BKN007 OVC013 A2984 RMK P0001 MADISHF
BKW,2017-04-01 05:40,-81.1242,37.7873,M,M,M,280.00,11.00,0.01,29.84,M,10.00,M,OVC,M,M,M,800.00,M,M,M,M,KBKW 010540Z AUTO 28011KT 10SM OVC008 A2984 RMK P0001 MADISHF
BKW,2017-04-01 05:45,-81.1242,37.7873,M,M,M,290.00,10.00,0.01,29.84,M,9.00,M,OVC,M,M,M,800.00,M,M,M,M,KBKW 010545Z AUTO 29010KT 9SM OVC008 A2984 RMK P0001 MADISHF
BKW,2017-04-01 05:50,-81.1242,37.7873,M,M,M,300.00,11.00,0.01,29.84,M,8.00,M,OVC,M,M,M,700.00,M,M,M,-RA,KBKW 010550Z AUTO 30011KT 8SM -RA OVC007 A2984 RMK P0001 MADISHF
BKW,2017-04-01 05:51,-81.1242,37.7873,46.90,45.00,93.06,290.00,11.00,0.01,29.84,1009.90,9.00,M,OVC,M,M,M,700.00,M,M,M,-RA,KBKW 010551Z AUTO 29011KT 9SM -RA OVC007 08/07 A2984 RMK AO2 RAE26B46 SLP099 P0001 60008 T00830072 10089 20083 53004
BKW,2017-04-01 05:55,-81.1242,37.7873,M,M,M,300.00,11.00,M,29.84,M,10.00,M,OVC,M,M,M,700.00,M,M,M,-RA,KBKW 010555Z AUTO 30011KT 10SM -RA OVC007 A2984 RMK MADISHF
BKW,2017-04-01 06:00,-81.1242,37.7873,M,M,M,290.00,11.00,M,29.85,M,10.00,M,BKN,OVC,M,M,700.00,1300.00,M,M,M,KBKW 010600Z AUTO 29011KT 10SM BKN007 OVC013 A2985 RMK MADISHF
BKW,2017-04-01 06:05,-81.1242,37.7873,M,M,M,290.00,12.00,M,29.85,M,10.00,M,BKN,OVC,M,M,700.00,1300.00,M,M,M,KBKW 010605Z AUTO 29012KT 10SM BKN007 OVC013 A2985 RMK MADISHF
BKW,2017-04-01 06:10,-81.1242,37.7873,M,M,M,290.00,13.00,M,29.85,M,9.00,19.00,BKN,OVC,M,M,800.00,1400.00,M,M,M,KBKW 010610Z AUTO 29013G19KT 9SM BKN008 OVC014 A2985 RMK MADISHF
BKW,2017-04-01 06:15,-81.1242,37.7873,M,M,M,280.00,10.00,M,29.85,M,7.00,M,BKN,OVC,M,M,700.00,1300.00,M,M,M,KBKW 010615Z AUTO 28010KT 7SM BKN007 OVC013 A2985 RMK MADISHF
BKW,2017-04-01 06:20,-81.1242,37.7873,M,M,M,280.00,10.00,M,29.85,M,8.00,M,BKN,OVC,M,M,900.00,1500.00,M,M,-RA,KBKW 010620Z AUTO 28010KT 8SM -RA BKN009 OVC015 A2985 RMK MADISHF
BKW,2017-04-01 06:25,-81.1242,37.7873,M,M,M,280.00,12.00,M,29.85,M,10.00,M,BKN,OVC,M,M,900.00,1500.00,M,M,-RA,KBKW 010625Z AUTO 28012KT 10SM -RA BKN009 OVC015 A2985 RMK MADISHF
BKW,2017-04-01 06:30,-81.1242,37.7873,M,M,M,280.00,11.00,M,29.85,M,10.00,M,BKN,OVC,M,M,900.00,1500.00,M,M,-RA,KBKW 010630Z AUTO 28011KT 10SM -RA BKN009 OVC015 A2985 RMK MADISHF
BKW,2017-04-01 06:35,-81.1242,37.7873,M,M,M,280.00,9.00,M,29.85,M,10.00,M,BKN,OVC,M,M,900.00,1500.00,M,M,M,KBKW 010635Z AUTO 28009KT 10SM BKN009 OVC015 A2985 RMK MADISHF
BKW,2017-04-01 06:40,-81.1242,37.7873,M,M,M,270.00,10.00,M,29.86,M,10.00,M,BKN,OVC,M,M,700.00,1200.00,M,M,M,KBKW 010640Z AUTO 27010KT 10SM BKN007 OVC012 A2986 RMK MADISHF
BKW,2017-04-01 06:45,-81.1242,37.7873,M,M,M,280.00,11.00,M,29.86,M,10.00,M,BKN,OVC,M,M,700.00,1200.00,M,M,M,KBKW 010645Z AUTO 28011KT 10SM BKN007 OVC012 A2986 RMK MADISHF
BKW,2017-04-01 06:50,-81.1242,37.7873,M,M,M,280.00,11.00,M,29.86,M,9.00,M,BKN,OVC,M,M,700.00,1300.00,M,M,M,KBKW 010650Z AUTO 28011KT 9SM BKN007 OVC013 A2986 RMK MADISHF
BKW,2017-04-01 06:51,-81.1242,37.7873,46.90,44.10,89.92,280.00,12.00,0.00,29.86,1011.00,8.00,M,BKN,OVC,M,M,700.00,1300.00,M,M,M,KBKW 010651Z AUTO 28012KT 8SM BKN007 OVC013 08/07 A2986 RMK AO2 RAE0556B18E31 SLP110 P0000 T00830067
BKW,2017-04-01 06:55,-81.1242,37.7873,M,M,M,280.00,13.00,M,29.87,M,7.00,M,OVC,M,M,M,700.00,M,M,M,-RA,KBKW 010655Z AUTO 28013KT 7SM -RA OVC007 A2987 RMK MADISHF
BKW,2017-04-01 07:00,-81.1242,37.7873,M,M,M,280.00,12.00,M,29.87,M,7.00,M,OVC,M,M,M,700.00,M,M,M,-RA,KBKW 010700Z AUTO 28012KT 7SM -RA OVC007 A2987 RMK MADISHF
BKW,2017-04-01 07:05,-81.1242,37.7873,M,M,M,290.00,11.00,M,29.87,M,9.00,M,OVC,M,M,M,600.00,M,M,M,-RA,KBKW 010705Z AUTO 29011KT 9SM -RA OVC006 A2987 RMK MADISHF
BKW,2017-04-01 07:10,-81.1242,37.7873,M,M,M,290.00,10.00,M,29.87,M,7.00,M,OVC,M,M,M,600.00,M,M,M,-RA,KBKW 010710Z AUTO 29010KT 7SM -RA OVC006 A2987 RMK MADISHF
BKW,2017-04-01 07:15,-81.1242,37.7873,M,M,M,290.00,9.00,M,29.87,M,5.00,M,OVC,M,M,M,499.00,M,M,M,-RA BR,KBKW 010715Z AUTO 29009KT 5SM -RA BR OVC004 A2987 RMK MADISHF
BKW,2017-04-01 07:20,-81.1242,37.7873,M,M,M,280.00,9.00,M,29.87,M,5.00,M,OVC,M,M,M,499.00,M,M,M,-RA BR,KBKW 010720Z AUTO 28009KT 5SM -RA BR OVC004 A2987 RMK MADISHF
BKW,2017-04-01 07:25,-81.1242,37.7873,M,M,M,290.00,9.00,M,29.87,M,6.00,M,OVC,M,M,M,499.00,M,M,M,-RA BR,KBKW 010725Z AUTO 29009KT 6SM -RA BR OVC004 A2987 RMK MADISHF
BKW,2017-04-01 07:30,-81.1242,37.7873,M,M,M,290.00,8.00,M,29.87,M,5.00,M,OVC,M,M,M,600.00,M,M,M,-RA BR,KBKW 010730Z AUTO 29008KT 5SM -RA BR OVC006 A2987 RMK MADISHF
BKW,2017-04-01 07:35,-81.1242,37.7873,M,M,M,290.00,8.00,M,29.87,M,5.00,M,OVC,M,M,M,499.00,M,M,M,-RA BR,KBKW 010735Z AUTO 29008KT 5SM -RA BR OVC004 A2987 RMK MADISHF
BKW,2017-04-01 07:40,-81.1242,37.7873,M,M,M,280.00,9.00,M,29.88,M,5.00,M,OVC,M,M,M,600.00,M,M,M,-RA BR,KBKW 010740Z AUTO 28009KT 5SM -RA BR OVC006 A2988 RMK MADISHF
BKW,2017-04-01 07:45,-81.1242,37.7873,M,M,M,280.00,9.00,0.01,29.88,M,6.00,M,OVC,M,M,M,600.00,M,M,M,-RA BR,KBKW 010745Z AUTO 28009KT 6SM -RA BR OVC006 A2988 RMK P0001 MADISHF
BKW,2017-04-01 07:50,-81.1242,37.7873,M,M,M,280.00,9.00,0.01,29.88,M,6.00,M,OVC,M,M,M,499.00,M,M,M,-RA BR,KBKW 010750Z AUTO 28009KT 6SM -RA BR OVC004 A2988 RMK P0001 MADISHF
BKW,2017-04-01 07:51,-81.1242,37.7873,46.00,44.10,93.03,290.00,9.00,0.01,29.88,1011.70,6.00,16.00,OVC,M,M,M,600.00,M,M,M,-RA BR,KBKW 010751Z AUTO 29009G16KT 6SM -RA BR OVC006 08/07 A2988 RMK AO2 RAB0652 SLP117 P0001 T00780067
BKW,2017-04-01 07:55,-81.1242,37.7873,M,M,M,280.00,10.00,M,29.89,M,5.00,M,OVC,M,M,M,499.00,M,M,M,-RA BR,KBKW 010755Z AUTO 28010KT 5SM -RA BR OVC004 A2989 RMK MADISHF
BKW,2017-04-01 08:00,-81.1242,37.7873,M,M,M,290.00,7.00,M,29.89,M,4.00,M,OVC,M,M,M,499.00,M,M,M,-RA BR,KBKW 010800Z AUTO 29007KT 4SM -RA BR OVC004 A2989 RMK VIS 2 1/2 RWY19  MADISHF
BKW,2017-04-01 08:05,-81.1242,37.7873,M,M,M,280.00,8.00,M,29.89,M,4.00,M,OVC,M,M,M,499.00,M,M,M,-RA BR,KBKW 010805Z AUTO 28008KT 4SM -RA BR OVC004 A2989 RMK VIS 2 1/2 RWY19  MADISHF
BKW,2017-04-01 08:10,-81.1242,37.7873,M,M,M,290.00,10.00,0.01,29.89,M,4.00,M,OVC,M,M,M,400.00,M,M,M,-RA BR,KBKW 010810Z AUTO 29010KT 4SM -RA BR OVC004 A2989 RMK P0001 MADISHF
BKW,2017-04-01 08:13,-81.1242,37.7873,46.00,44.10,93.03,290.00,11.00,0.01,29.89,M,4.00,M,OVC,M,M,M,400.00,M,M,M,-RA BR,KBKW 010813Z AUTO 29011KT 4SM -RA BR OVC004 08/07 A2989 RMK AO2 VIS 2 1/2 RWY19 P0001 T00780067
BKW,2017-04-01 08:15,-81.1242,37.7873,M,M,M,290.00,8.00,0.01,29.90,M,4.00,M,OVC,M,M,M,400.00,M,M,M,-RA BR,KBKW 010815Z AUTO 29008KT 4SM -RA BR OVC004 A2990 RMK P0001 VIS 2 RWY19  MADISHF
BKW,2017-04-01 08:20,-81.1242,37.7873,M,M,M,290.00,9.00,0.02,29.90,M,4.00,M,OVC,M,M,M,400.00,M,M,M,-RA BR,KBKW 010820Z AUTO 29009KT 4SM -RA BR OVC004 A2990 RMK P0002 VIS 2 RWY19  MADISHF
BKW,2017-04-01 08:25,-81.1242,37.7873,M,M,M,280.00,8.00,0.02,29.90,M,5.00,M,OVC,M,M,M,400.00,M,M,M,-RA BR,KBKW 010825Z AUTO 28008KT 5SM -RA BR OVC004 A2990 RMK P0002 MADISHF
BKW,2017-04-01 08:30,-81.1242,37.7873,M,M,M,280.00,9.00,0.02,29.90,M,6.00,M,BKN,OVC,M,M,400.00,900.00,M,M,-RA BR,KBKW 010830Z AUTO 28009KT 6SM -RA BR BKN004 OVC009 A2990 RMK P0002 MADISHF
BKW,2017-04-01 08:35,-81.1242,37.7873,M,M,M,290.00,10.00,0.02,29.90,M,6.00,M,BKN,OVC,M,M,499.00,1100.00,M,M,-RA BR,KBKW 010835Z AUTO 29010KT 6SM -RA BR BKN004 OVC011 A2990 RMK P0002 MADISHF
BKW,2017-04-01 08:38,-81.1242,37.7873,45.00,44.10,96.63,280.00,8.00,0.02,29.91,M,6.00,M,BKN,OVC,M,M,500.00,1100.00,M,M,-RA BR,KBKW 010838Z AUTO 28008KT 6SM -RA BR BKN005 OVC011 07/07 A2991 RMK AO2 P0002 T00720067
BKW,2017-04-01 08:40,-81.1242,37.7873,M,M,M,280.00,7.00,0.02,29.91,M,6.00,M,BKN,OVC,M,M,499.00,999.00,M,M,-RA BR,KBKW 010840Z AUTO 28007KT 6SM -RA BR BKN004 OVC009 A2991 RMK P0002 MADISHF
BKW,2017-04-01 08:45,-81.1242,37.7873,M,M,M,280.00,8.00,0.02,29.91,M,6.00,M,BKN,OVC,M,M,499.00,999.00,M,M,-RA BR,KBKW 010845Z AUTO 28008KT 6SM -RA BR BKN004 OVC009 A2991 RMK P0002 VIS 2 1/2 RWY19  MADISHF
BKW,2017-04-01 08:50,-81.1242,37.7873,M,M,M,280.00,10.00,0.02,29.91,M,5.00,M,BKN,OVC,M,M,499.00,999.00,M,M,-RA BR,KBKW 010850Z AUTO 28010KT 5SM -RA BR BKN004 OVC009 A2991 RMK P0002 VIS 2 RWY19  MADISHF
BKW,2017-04-01 08:51,-81.1242,37.7873,45.00,44.10,96.63,280.00,11.00,0.02,29.91,1012.90,5.00,M,BKN,OVC,M,M,500.00,900.00,M,M,-RA BR,KBKW 010851Z AUTO 28011KT 5SM -RA BR BKN005 OVC009 07/07 A2991 RMK AO2 VIS 2 RWY19 SLP129 P0002 60003 T00720067 53020
BKW,2017-04-01 08:55,-81.1242,37.7873,M,M,M,280.00,9.00,M,29.91,M,5.00,M,OVC,M,M,M,600.00,M,M,M,-RA BR,KBKW 010855Z AUTO 28009KT 5SM -RA BR OVC006 A2991 RMK VIS 2 RWY19  MADISHF
BKW,2017-04-01 09:00,-81.1242,37.7873,M,M,M,280.00,11.00,M,29.91,M,5.00,M,OVC,M,M,M,600.00,M,M,M,-RA BR,KBKW 010900Z AUTO 28011KT 5SM -RA BR OVC006 A2991 RMK VIS 2 RWY19  MADISHF
BKW,2017-04-01 09:05,-81.1242,37.7873,M,M,M,280.00,10.00,M,29.91,M,4.00,M,BKN,OVC,M,M,499.00,900.00,M,M,-RA BR,KBKW 010905Z AUTO 28010KT 4SM -RA BR BKN004 OVC009 A2991 RMK VIS 2 RWY19  MADISHF
BKW,2017-04-01 09:10,-81.1242,37.7873,M,M,M,290.00,8.00,M,29.91,M,5.00,M,OVC,M,M,M,600.00,M,M,M,-RA BR,KBKW 010910Z AUTO 29008KT 5SM -RA BR OVC006 A2991 RMK VIS 2 RWY19  MADISHF
BKW,2017-04-01 09:15,-81.1242,37.7873,M,M,M,280.00,9.00,M,29.92,M,5.00,M,OVC,M,M,M,600.00,M,M,M,-RA BR,KBKW 010915Z AUTO 28009KT 5SM -RA BR OVC006 A2992 RMK VIS 2 RWY19  MADISHF
BKW,2017-04-01 09:20,-81.1242,37.7873,M,M,M,290.00,11.00,M,29.92,M,4.00,M,BKN,OVC,M,M,499.00,900.00,M,M,-RA BR,KBKW 010920Z AUTO 29011KT 4SM -RA BR BKN004 OVC009 A2992 RMK VIS 2 1/2 RWY19  MADISHF
BKW,2017-04-01 09:25,-81.1242,37.7873,M,M,M,280.00,10.00,0.01,29.92,M,4.00,M,BKN,OVC,M,M,600.00,1200.00,M,M,-RA BR,KBKW 010925Z AUTO 28010KT 4SM -RA BR BKN006 OVC012 A2992 RMK P0001 VIS 2 1/2 RWY19  MADISHF
BKW,2017-04-01 09:30,-81.1242,37.7873,M,M,M,290.00,9.00,0.01,29.92,M,4.00,M,OVC,M,M,M,600.00,M,M,M,-RA BR,KBKW 010930Z AUTO 29009KT 4SM -RA BR OVC006 A2992 RMK P0001 VIS 2 RWY19  MADISHF
BKW,2017-04-01 09:35,-81.1242,37.7873,M,M,M,290.00,9.00,0.01,29.92,M,4.00,M,BKN,OVC,M,M,600.00,1100.00,M,M,-RA BR,KBKW 010935Z AUTO 29009KT 4SM -RA BR BKN006 OVC011 A2992 RMK P0001 VIS 1 3/4 RWY19  MADISHF
BKW,2017-04-01 09:40,-81.1242,37.7873,M,M,M,280.00,7.00,0.01,29.93,M,4.00,M,BKN,OVC,M,M,600.00,1100.00,M,M,-RA BR,KBKW 010940Z AUTO 28007KT 4SM -RA BR BKN006 OVC011 A2993 RMK P0001 VIS 1 3/4 RWY19  MADISHF
BKW,2017-04-01 09:45,-81.1242,37.7873,M,M,M,280.00,11.00,0.01,29.93,M,3.50,M,OVC,M,M,M,600.00,M,M,M,-RA BR,KBKW 010945Z AUTO 28011KT 3SM -RA BR OVC006 A2993 RMK P0001 VIS 1 3/4 RWY19  MADISHF
BKW,2017-04-01 09:50,-81.1242,37.7873,M,M,M,290.00,9.00,0.02,29.93,M,3.50,M,OVC,M,M,M,499.00,M,M,M,-RA BR,KBKW 010950Z AUTO 29009KT 3SM -RA BR OVC004 A2993 RMK P0002 VIS 2 RWY19  MADISHF
BKW,2017-04-01 09:51,-81.1242,37.7873,45.00,43.00,92.65,280.00,8.00,0.02,29.93,1013.60,3.00,M,BKN,OVC,M,M,500.00,1100.00,M,M,-RA BR,KBKW 010951Z AUTO 28008KT 3SM -RA BR BKN005 OVC011 07/06 A2993 RMK AO2 VIS 2 RWY19 SLP136 P0002 T00720061
BKW,2017-04-01 09:55,-81.1242,37.7873,M,M,M,290.00,9.00,M,29.93,M,4.00,M,OVC,M,M,M,499.00,M,M,M,-RA BR,KBKW 010955Z AUTO 29009KT 4SM -RA BR OVC004 A2993 RMK VIS 2 RWY19  MADISHF
BKW,2017-04-01 10:00,-81.1242,37.7873,M,M,M,300.00,9.00,M,29.94,M,4.00,M,OVC,M,M,M,499.00,M,M,M,-RA BR,KBKW 011000Z AUTO 30009KT 4SM -RA BR OVC004 A2994 RMK VIS 2 1/2 RWY19  MADISHF
BKW,2017-04-01 10:05,-81.1242,37.7873,M,M,M,280.00,8.00,0.01,29.94,M,4.00,M,OVC,M,M,M,400.00,M,M,M,-RA BR,KBKW 011005Z AUTO 28008KT 4SM -RA BR OVC004 A2994 RMK P0001 VIS 2 1/2 RWY19  MADISHF
BKW,2017-04-01 10:07,-81.1242,37.7873,45.00,43.00,92.65,290.00,11.00,0.01,29.94,M,5.00,M,BKN,OVC,M,M,400.00,900.00,M,M,-RA BR,KBKW 011007Z AUTO 29011KT 5SM -RA BR BKN004 OVC009 07/06 A2994 RMK AO2 VIS 2 RWY19 P0001 T00720061
BKW,2017-04-01 10:10,-81.1242,37.7873,M,M,M,300.00,10.00,0.01,29.94,M,5.00,M,BKN,OVC,M,M,400.00,999.00,M,M,-RA BR,KBKW 011010Z AUTO 30010KT 5SM -RA BR BKN004 OVC009 A2994 RMK P0001 VIS 2 RWY19  MADISHF
BKW,2017-04-01 10:15,-81.1242,37.7873,M,M,M,300.00,11.00,0.01,29.95,M,5.00,16.00,BKN,OVC,M,M,400.00,999.00,M,M,-RA BR,KBKW 011015Z AUTO 30011G16KT 5SM -RA BR BKN004 OVC009 A2995 RMK P0001 VIS 1 RWY19  MADISHF
BKW,2017-04-01 10:20,-81.1242,37.7873,M,M,M,310.00,11.00,0.01,29.95,M,5.00,M,BKN,OVC,M,M,600.00,1200.00,M,M,-RA BR,KBKW 011020Z AUTO 31011KT 5SM -RA BR BKN006 OVC012 A2995 RMK P0001 VIS 1 RWY19  MADISHF
BKW,2017-04-01 10:24,-81.1242,37.7873,45.00,43.00,92.65,310.00,13.00,0.01,29.95,M,6.00,M,BKN,OVC,M,M,600.00,1200.00,M,M,-RA BR,KBKW 011024Z AUTO 31013KT 6SM -RA BR BKN006 OVC012 07/06 A2995 RMK AO2 VIS 1 1/2 RWY19 P0001 T00720061
BKW,2017-04-01 10:25,-81.1242,37.7873,M,M,M,310.00,10.00,0.01,29.95,M,6.00,M,BKN,OVC,M,M,600.00,1200.00,M,M,-RA BR,KBKW 011025Z AUTO 31010KT 6SM -RA BR BKN006 OVC012 A2995 RMK P0001 VIS 1 3/4 RWY19  MADISHF
BKW,2017-04-01 10:30,-81.1242,37.7873,M,M,M,310.00,11.00,0.01,29.95,M,7.00,M,BKN,OVC,M,M,600.00,1300.00,M,M,M,KBKW 011030Z AUTO 31011KT 7SM BKN006 OVC013 A2995 RMK P0001 MADISHF
BKW,2017-04-01 10:35,-81.1242,37.7873,M,M,M,310.00,10.00,0.01,29.95,M,7.00,M,BKN,OVC,M,M,900.00,1500.00,M,M,M,KBKW 011035Z AUTO 31010KT 7SM BKN009 OVC015 A2995 RMK P0001 CIG 004 RWY19  MADISHF
BKW,2017-04-01 10:40,-81.1242,37.7873,M,M,M,300.00,11.00,0.01,29.96,M,8.00,M,BKN,OVC,M,M,900.00,1500.00,M,M,M,KBKW 011040Z AUTO 30011KT 8SM BKN009 OVC015 A2996 RMK P0001 MADISHF
BKW,2017-04-01 10:45,-81.1242,37.7873,M,M,M,310.00,10.00,0.01,29.96,M,9.00,M,SCT,OVC,M,M,900.00,1600.00,M,M,M,KBKW 011045Z AUTO 31010KT 9SM SCT009 OVC016 A2996 RMK P0001 CIG 006 RWY19  MADISHF
BKW,2017-04-01 10:49,-81.1242,37.7873,44.60,42.80,93.35,300.00,9.00,0.01,29.96,M,8.00,M,SCT,OVC,M,M,800.00,1800.00,M,M,M,KBKW 011049Z AUTO 30009KT 8SM SCT008 OVC018 07/06 A2996 RMK AO2 RAE28 CIG 006 RWY19 P0001
BKW,2017-04-01 10:50,-81.1242,37.7873,M,M,M,310.00,9.00,0.01,29.96,M,9.00,M,SCT,OVC,M,M,800.00,1699.00,M,M,M,KBKW 011050Z AUTO 31009KT 9SM SCT008 OVC016 A2996 RMK P0001 CIG 006 RWY19  MADISHF
BKW,2017-04-01 10:51,-81.1242,37.7873,44.10,42.10,92.62,310.00,10.00,0.01,29.96,1014.80,9.00,M,SCT,OVC,M,M,700.00,1700.00,M,M,M,KBKW 011051Z AUTO 31010KT 9SM SCT007 OVC017 07/06 A2996 RMK AO2 RAE28 CIG 006 RWY19 SLP148 P0001 T00670056
BKW,2017-04-01 10:55,-81.1242,37.7873,M,M,M,310.00,9.00,M,29.96,M,8.00,M,SCT,BKN,OVC,M,700.00,1600.00,2100.00,M,M,KBKW 011055Z AUTO 31009KT 8SM SCT007 BKN016 OVC021 A2996 RMK CIG 006 RWY19  MADISHF
BKW,2017-04-01 11:00,-81.1242,37.7873,M,M,M,300.00,10.00,M,29.96,M,7.00,M,SCT,OVC,M,M,700.00,1800.00,M,M,M,KBKW 011100Z AUTO 30010KT 7SM SCT007 OVC018 A2996 RMK CIG 006 RWY19  MADISHF
BKW,2017-04-01 11:05,-81.1242,37.7873,M,M,M,310.00,9.00,M,29.96,M,6.00,M,SCT,BKN,OVC,M,600.00,999.00,1600.00,M,BR,KBKW 011105Z AUTO 31009KT 6SM BR SCT006 BKN009 OVC016 A2996 RMK CIG 005 RWY19  MADISHF
BKW,2017-04-01 11:08,-81.1242,37.7873,44.10,42.10,92.62,310.00,10.00,0.00,29.97,M,5.00,M,SCT,BKN,OVC,M,600.00,1000.00,1800.00,M,-RA BR,KBKW 011108Z AUTO 31010KT 5SM -RA BR SCT006 BKN010 OVC018 07/06 A2997 RMK AO2 RAB08 CIG 005 RWY19 P0000 T00670056
BKW,2017-04-01 11:10,-81.1242,37.7873,M,M,M,320.00,10.00,M,29.97,M,5.00,M,SCT,BKN,OVC,M,600.00,999.00,1699.00,M,-RA BR,KBKW 011110Z AUTO 32010KT 5SM -RA BR SCT006 BKN009 OVC016 A2997 RMK CIG 005 RWY19  MADISHF
BKW,2017-04-01 11:15,-81.1242,37.7873,M,M,M,320.00,10.00,M,29.97,M,7.00,M,BKN,OVC,M,M,700.00,1500.00,M,M,-RA,KBKW 011115Z AUTO 32010KT 7SM -RA BKN007 OVC015 A2997 RMK MADISHF
BKW,2017-04-01 11:18,-81.1242,37.7873,44.10,42.10,92.62,330.00,11.00,0.00,29.97,M,9.00,M,BKN,OVC,M,M,800.00,1500.00,M,M,M,KBKW 011118Z AUTO 33011KT 9SM BKN008 OVC015 07/06 A2997 RMK AO2 RAB08E17 P0000 T00670056
BKW,2017-04-01 11:20,-81.1242,37.7873,M,M,M,320.00,11.00,M,29.97,M,9.00,M,BKN,OVC,M,M,800.00,1400.00,M,M,M,KBKW 011120Z AUTO 32011KT 9SM BKN008 OVC014 A2997 RMK MADISHF
BKW,2017-04-01 11:25,-81.1242,37.7873,M,M,M,320.00,12.00,M,29.97,M,8.00,M,BKN,OVC,M,M,900.00,1500.00,M,M,M,KBKW 011125Z AUTO 32012KT 8SM BKN009 OVC015 A2997 RMK CIG 005 RWY19  MADISHF
BKW,2017-04-01 11:30,-81.1242,37.7873,M,M,M,310.00,12.00,M,29.98,M,8.00,M,BKN,OVC,M,M,700.00,1300.00,M,M,M,KBKW 011130Z AUTO 31012KT 8SM BKN007 OVC013 A2998 RMK MADISHF
BKW,2017-04-01 11:35,-81.1242,37.7873,M,M,M,310.00,10.00,M,29.98,M,8.00,M,BKN,OVC,M,M,900.00,1500.00,M,M,M,KBKW 011135Z AUTO 31010KT 8SM BKN009 OVC015 A2998 RMK CIG 005 RWY19  MADISHF
BKW,2017-04-01 11:40,-81.1242,37.7873,M,M,M,310.00,10.00,M,29.98,M,6.00,M,SCT,OVC,M,M,800.00,1600.00,M,M,BR,KBKW 011140Z AUTO 31010KT 6SM BR SCT008 OVC016 A2998 RMK VIS 2 1/2 RWY19 CIG 005 RWY19  MADISHF
BKW,2017-04-01 11:45,-81.1242,37.7873,M,M,M,310.00,11.00,M,29.98,M,6.00,M,SCT,OVC,M,M,900.00,1600.00,M,M,BR,KBKW 011145Z AUTO 31011KT 6SM BR SCT009 OVC016 A2998 RMK VIS 2 1/2 RWY19 CIG 005 RWY19  MADISHF
BKW,2017-04-01 11:46,-81.1242,37.7873,42.80,41.00,93.30,300.00,10.00,0.00,29.98,M,6.00,M,SCT,OVC,M,M,900.00,1600.00,M,M,BR,KBKW 011146Z AUTO 30010KT 6SM BR SCT009 OVC016 06/05 A2998 RMK AO2 VIS 2 1/2 RWY19 RAB08E17 CIG 005 RWY19 P0000
BKW,2017-04-01 11:50,-81.1242,37.7873,M,M,M,300.00,11.00,M,29.98,M,6.00,M,SCT,OVC,M,M,900.00,1600.00,M,M,BR,KBKW 011150Z AUTO 30011KT 6SM BR SCT009 OVC016 A2998 RMK VIS 2 1/2 RWY19 CIG 005 RWY19  MADISHF
BKW,2017-04-01 11:51,-81.1242,37.7873,43.00,41.00,92.58,300.00,12.00,0.00,29.98,1015.80,6.00,M,SCT,OVC,M,M,900.00,1600.00,M,M,BR,KBKW 011151Z AUTO 30012KT 6SM BR SCT009 OVC016 06/05 A2998 RMK AO2 VIS 2 1/2 RWY19 RAB08E17 CIG 005 RWY19 SLP158 P0000 60006 70042 T00610050 10083 20061 53007
BKW,2017-04-01 11:55,-81.1242,37.7873,M,M,M,310.00,9.00,M,29.99,M,7.00,M,SCT,OVC,M,M,900.00,1600.00,M,M,M,KBKW 011155Z AUTO 31009KT 7SM SCT009 OVC016 A2999 RMK VIS 2 1/2 RWY19 CIG 005 RWY19  MADISHF
BKW,2017-04-01 12:00,-81.1242,37.7873,M,M,M,320.00,10.00,M,29.99,M,6.00,M,SCT,OVC,M,M,800.00,1500.00,M,M,BR,KBKW 011200Z AUTO 32010KT 6SM BR SCT008 OVC015 A2999 RMK CIG 005 RWY19  MADISHF
BKW,2017-04-01 12:05,-81.1242,37.7873,M,M,M,300.00,10.00,M,29.99,M,4.00,M,FEW,OVC,M,M,800.00,1500.00,M,M,BR,KBKW 011205Z AUTO 30010KT 4SM BR FEW008 OVC015 A2999 RMK CIG 005 RWY19  MADISHF
BKW,2017-04-01 12:10,-81.1242,37.7873,M,M,M,310.00,8.00,M,29.99,M,4.00,M,FEW,OVC,M,M,700.00,1400.00,M,M,BR,KBKW 011210Z AUTO 31008KT 4SM BR FEW007 OVC014 A2999 RMK VIS 2 1/2 RWY19 CIG 005 RWY19  MADISHF
BKW,2017-04-01 12:12,-81.1242,37.7873,42.80,41.00,93.30,300.00,8.00,0.00,29.99,M,3.00,M,SCT,OVC,M,M,700.00,1300.00,M,M,BR,KBKW 011212Z AUTO 30008KT 3SM BR SCT007 OVC013 06/05 A2999
BKW,2017-04-01 12:15,-81.1242,37.7873,M,M,M,300.00,9.00,M,29.99,M,3.50,M,BKN,OVC,M,M,800.00,1400.00,M,M,BR,KBKW 011215Z AUTO 30009KT 3SM BR BKN008 OVC014 A2999 RMK VIS 2 RWY19  MADISHF
BKW,2017-04-01 12:20,-81.1242,37.7873,M,M,M,300.00,8.00,M,29.99,M,3.00,M,SCT,OVC,M,M,600.00,1100.00,M,M,BR,KBKW 011220Z AUTO 30008KT 3SM BR SCT006 OVC011 A2999 RMK VIS 2 RWY19 CIG 005 RWY19  MADISHF
BKW,2017-04-01 12:25,-81.1242,37.7873,M,M,M,300.00,9.00,M,30.00,M,3.50,M,BKN,OVC,M,M,600.00,1200.00,M,M,BR,KBKW 011225Z AUTO 30009KT 3SM BR BKN006 OVC012 A3000 RMK VIS 1 3/4 RWY19  MADISHF
BKW,2017-04-01 12:27,-81.1242,37.7873,43.00,41.00,92.58,310.00,8.00,0.00,30.00,M,3.00,M,BKN,OVC,M,M,500.00,1100.00,M,M,BR,KBKW 011227Z AUTO 31008KT 3SM BR BKN005 OVC011 06/05 A3000 RMK AO2 VIS 1 3/4 RWY19 T00610050
BKW,2017-04-01 12:30,-81.1242,37.7873,M,M,M,300.00,7.00,M,30.00,M,3.00,M,BKN,OVC,M,M,600.00,1100.00,M,M,BR,KBKW 011230Z AUTO 30007KT 3SM BR BKN006 OVC011 A3000 RMK VIS 1 1/2 RWY19  MADISHF
BKW,2017-04-01 12:35,-81.1242,37.7873,M,M,M,290.00,10.00,M,30.00,M,2.50,M,BKN,OVC,M,M,499.00,1100.00,M,M,BR,KBKW 011235Z AUTO 29010KT 2 1/2SM BR BKN004 OVC011 A3000 RMK VIS 1 1/2 RWY19  MADISHF
BKW,2017-04-01 12:37,-81.1242,37.7873,43.00,41.00,92.58,300.00,8.00,0.00,30.00,M,2.50,M,OVC,M,M,M,500.00,M,M,M,BR,KBKW 011237Z AUTO 30008KT 2 1/2SM BR OVC005 06/05 A3000 RMK AO2 VIS 1 1/2 RWY19 T00610050
BKW,2017-04-01 12:40,-81.1242,37.7873,M,M,M,300.00,9.00,M,30.00,M,2.50,M,OVC,M,M,M,499.00,M,M,M,BR,KBKW 011240Z AUTO 30009KT 2 1/2SM BR OVC004 A3000 RMK VIS 1 1/4 RWY19  MADISHF
BKW,2017-04-01 12:45,-81.1242,37.7873,M,M,M,290.00,9.00,M,30.00,M,3.00,M,OVC,M,M,M,499.00,M,M,M,BR,KBKW 011245Z AUTO 29009KT 3SM BR OVC004 A3000 RMK VIS 1 1/2 RWY19  MADISHF
BKW,2017-04-01 12:50,-81.1242,37.7873,M,M,M,290.00,10.00,M,30.00,M,3.50,M,OVC,M,M,M,499.00,M,M,M,BR,KBKW 011250Z AUTO 29010KT 3SM BR OVC004 A3000 RMK VIS 1 1/4 RWY19  MADISHF
BKW,2017-04-01 12:51,-81.1242,37.7873,43.00,42.10,96.60,300.00,9.00,0.00,30.00,1016.60,3.00,M,OVC,M,M,M,500.00,M,M,M,BR,KBKW 011251Z AUTO 30009KT 3SM BR OVC005 06/06 A3000 RMK AO2 VIS 1 1/4 RWY19 SLP166 T00610056
BKW,2017-04-01 12:55,-81.1242,37.7873,M,M,M,300.00,9.00,M,30.00,M,3.50,M,OVC,M,M,M,499.00,M,M,M,BR,KBKW 011255Z AUTO 30009KT 3SM BR OVC004 A3000 RMK VIS 1 RWY19  MADISHF
BKW,2017-04-01 13:00,-81.1242,37.7873,M,M,M,300.00,7.00,M,30.00,M,3.00,M,OVC,M,M,M,499.00,M,M,M,BR,KBKW 011300Z AUTO 30007KT 3SM BR OVC004 A3000 RMK VIS 1 RWY19  MADISHF
BKW,2017-04-01 13:05,-81.1242,37.7873,M,M,M,290.00,7.00,M,30.00,M,3.00,M,OVC,M,M,M,499.00,M,M,M,BR,KBKW 011305Z AUTO 29007KT 3SM BR OVC004 A3000 RMK VIS 1 1/2 RWY19  MADISHF
BKW,2017-04-01 13:10,-81.1242,37.7873,M,M,M,320.00,7.00,M,30.00,M,3.00,M,OVC,M,M,M,400.00,M,M,M,BR,KBKW 011310Z AUTO 32007KT 3SM BR OVC004 A3000 RMK VIS 1 3/4 RWY19  MADISHF
BKW,2017-04-01 13:15,-81.1242,37.7873,M,M,M,310.00,6.00,M,30.00,M,2.50,M,OVC,M,M,M,400.00,M,M,M,BR,KBKW 011315Z AUTO 31006KT 2 1/2SM BR OVC004 A3000 RMK VIS 1 3/4 RWY19  MADISHF
BKW,2017-04-01 13:18,-81.1242,37.7873,43.00,42.10,96.60,330.00,7.00,0.00,30.00,M,2.50,M,OVC,M,M,M,400.00,M,M,M,BR,KBKW 011318Z AUTO 33007KT 2 1/2SM BR OVC004 06/06 A3000 RMK AO2 T00610056
BKW,2017-04-01 13:20,-81.1242,37.7873,M,M,M,320.00,7.00,M,30.00,M,2.50,M,BKN,OVC,M,M,400.00,800.00,M,M,BR,KBKW 011320Z AUTO 32007KT 2 1/2SM BR BKN004 OVC008 A3000 RMK MADISHF
BKW,2017-04-01 13:24,-81.1242,37.7873,43.00,42.10,96.60,330.00,8.00,0.00,30.00,M,3.00,M,OVC,M,M,M,500.00,M,M,M,BR,KBKW 011324Z AUTO 33008KT 3SM BR OVC005 06/06 A3000 RMK AO2 VIS 2 RWY19 T00610056
BKW,2017-04-01 13:25,-81.1242,37.7873,M,M,M,320.00,8.00,M,30.00,M,3.00,M,BKN,OVC,M,M,400.00,800.00,M,M,BR,KBKW 011325Z AUTO 32008KT 3SM BR BKN004 OVC008 A3000 RMK VIS 2 RWY19  MADISHF
BKW,2017-04-01 13:30,-81.1242,37.7873,M,M,M,320.00,9.00,M,30.00,M,4.00,M,BKN,OVC,M,M,400.00,800.00,M,M,BR,KBKW 011330Z AUTO 32009KT 4SM BR BKN004 OVC008 A3000 RMK VIS 2 1/2 RWY19  MADISHF
BKW,2017-04-01 13:35,-81.1242,37.7873,M,M,M,320.00,8.00,M,30.01,M,5.00,M,BKN,OVC,M,M,499.00,999.00,M,M,BR,KBKW 011335Z AUTO 32008KT 5SM BR BKN004 OVC009 A3001 RMK MADISHF
BKW,2017-04-01 13:40,-81.1242,37.7873,M,M,M,310.00,9.00,M,30.01,M,5.00,M,BKN,OVC,M,M,600.00,999.00,M,M,BR,KBKW 011340Z AUTO 31009KT 5SM BR BKN006 OVC009 A3001 RMK MADISHF
BKW,2017-04-01 13:45,-81.1242,37.7873,M,M,M,320.00,9.00,M,30.01,M,4.00,M,BKN,OVC,M,M,600.00,999.00,M,M,BR,KBKW 011345Z AUTO 32009KT 4SM BR BKN006 OVC009 A3001 RMK MADISHF
BKW,2017-04-01 13:50,-81.1242,37.7873,M,M,M,320.00,9.00,M,30.02,M,3.50,M,OVC,M,M,M,700.00,M,M,M,BR,KBKW 011350Z AUTO 32009KT 3SM BR OVC007 A3002 RMK MADISHF
BKW,2017-04-01 13:51,-81.1242,37.7873,43.00,41.00,92.58,330.00,10.00,0.00,30.02,1017.10,3.00,M,OVC,M,M,M,700.00,M,M,M,BR,KBKW 011351Z AUTO 33010KT 3SM BR OVC007 06/05 A3002 RMK AO2 SLP171 T00610050
BKW,2017-04-01 13:55,-81.1242,37.7873,M,M,M,330.00,10.00,M,30.02,M,3.00,M,OVC,M,M,M,700.00,M,M,M,BR,KBKW 011355Z AUTO 33010KT 3SM BR OVC007 A3002 RMK MADISHF
BKW,2017-04-01 14:00,-81.1242,37.7873,M,M,M,320.00,10.00,M,30.02,M,2.50,M,OVC,M,M,M,600.00,M,M,M,-RA BR,KBKW 011400Z AUTO 32010KT 2 1/2SM -RA BR OVC006 A3002 RMK MADISHF
BKW,2017-04-01 14:02,-81.1242,37.7873,43.00,41.00,92.58,320.00,10.00,0.00,30.03,M,2.50,M,OVC,M,M,M,500.00,M,M,M,-RA BR,KBKW 011402Z AUTO 32010KT 2 1/2SM -RA BR OVC005 06/05 A3003 RMK AO2 RAB1359 P0000 T00610050
BKW,2017-04-01 14:05,-81.1242,37.7873,M,M,M,320.00,9.00,M,30.03,M,2.50,M,OVC,M,M,M,499.00,M,M,M,-RA BR,KBKW 011405Z AUTO 32009KT 2 1/2SM -RA BR OVC004 A3003 RMK MADISHF
BKW,2017-04-01 14:10,-81.1242,37.7873,M,M,M,330.00,10.00,M,30.03,M,2.00,M,OVC,M,M,M,499.00,M,M,M,-RA BR,KBKW 011410Z AUTO 33010KT 2SM -RA BR OVC004 A3003 RMK MADISHF
BKW,2017-04-01 14:15,-81.1242,37.7873,M,M,M,320.00,12.00,M,30.03,M,2.50,M,OVC,M,M,M,499.00,M,M,M,-RA BR,KBKW 011415Z AUTO 32012KT 2 1/2SM -RA BR OVC004 A3003 RMK MADISHF
BKW,2017-04-01 14:20,-81.1242,37.7873,M,M,M,320.00,9.00,M,30.04,M,3.00,M,OVC,M,M,M,499.00,M,M,M,-RA BR,KBKW 011420Z AUTO 32009KT 3SM -RA BR OVC004 A3004 RMK MADISHF
BKW,2017-04-01 14:24,-81.1242,37.7873,43.00,41.00,92.58,320.00,9.00,0.00,30.04,M,3.00,M,BKN,OVC,M,M,500.00,900.00,M,M,BR,KBKW 011424Z AUTO 32009KT 3SM BR BKN005 OVC009 06/05 A3004 RMK AO2 VIS 2 1/2 RWY19 RAB1359E22 P0000 T00610050
BKW,2017-04-01 14:25,-81.1242,37.7873,M,M,M,320.00,11.00,M,30.04,M,4.00,M,BKN,OVC,M,M,499.00,900.00,M,M,BR,KBKW 011425Z AUTO 32011KT 4SM BR BKN004 OVC009 A3004 RMK VIS 2 1/2 RWY19  MADISHF
BKW,2017-04-01 14:30,-81.1242,37.7873,M,M,M,320.00,9.00,M,30.04,M,3.50,M,OVC,M,M,M,499.00,M,M,M,BR,KBKW 011430Z AUTO 32009KT 3SM BR OVC004 A3004 RMK MADISHF
BKW,2017-04-01 14:35,-81.1242,37.7873,M,M,M,310.00,10.00,M,30.05,M,4.00,M,BKN,OVC,M,M,499.00,999.00,M,M,BR,KBKW 011435Z AUTO 31010KT 4SM BR BKN004 OVC009 A3005 RMK MADISHF
BKW,2017-04-01 14:40,-81.1242,37.7873,M,M,M,310.00,10.00,M,30.05,M,5.00,M,BKN,OVC,M,M,499.00,900.00,M,M,BR,KBKW 011440Z AUTO 31010KT 5SM BR BKN004 OVC009 A3005 RMK MADISHF
BKW,2017-04-01 14:45,-81.1242,37.7873,M,M,M,310.00,11.00,M,30.05,M,5.00,M,OVC,M,M,M,700.00,M,M,M,BR,KBKW 011445Z AUTO 31011KT 5SM BR OVC007 A3005 RMK VIS 2 1/2 RWY19  MADISHF
BKW,2017-04-01 14:50,-81.1242,37.7873,M,M,M,320.00,10.00,M,30.05,M,5.00,M,BKN,OVC,M,M,700.00,1400.00,M,M,BR,KBKW 011450Z AUTO 32010KT 5SM BR BKN007 OVC014 A3005 RMK VIS 2 RWY19  MADISHF
BKW,2017-04-01 14:51,-81.1242,37.7873,43.00,41.00,92.58,320.00,11.00,0.00,30.05,1018.30,6.00,M,BKN,OVC,M,M,700.00,1400.00,M,M,BR,KBKW 011451Z AUTO 32011KT 6SM BR BKN007 OVC014 06/05 A3005 RMK AO2 VIS 2 1/2 RWY19 RAB1359E22 SLP183 P0000 60000 T00610050 53022
BKW,2017-04-01 14:55,-81.1242,37.7873,M,M,M,310.00,10.00,M,30.05,M,7.00,M,BKN,OVC,M,M,800.00,1400.00,M,M,M,KBKW 011455Z AUTO 31010KT 7SM BKN008 OVC014 A3005 RMK VIS 2 1/2 RWY19  MADISHF
BKW,2017-04-01 15:00,-81.1242,37.7873,M,M,M,310.00,8.00,M,30.05,M,8.00,M,BKN,OVC,M,M,800.00,1300.00,M,M,M,KBKW 011500Z AUTO 31008KT 8SM BKN008 OVC013 A3005 RMK MADISHF
BKW,2017-04-01 15:05,-81.1242,37.7873,M,M,M,320.00,11.00,M,30.05,M,6.00,M,BKN,OVC,M,M,800.00,1300.00,M,M,BR,KBKW 011505Z AUTO 32011KT 6SM BR BKN008 OVC013 A3005 RMK MADISHF
BKW,2017-04-01 15:10,-81.1242,37.7873,M,M,M,320.00,11.00,M,30.06,M,7.00,M,BKN,OVC,M,M,900.00,1400.00,M,M,M,KBKW 011510Z AUTO 32011KT 7SM BKN009 OVC014 A3006 RMK MADISHF
BKW,2017-04-01 15:15,-81.1242,37.7873,M,M,M,310.00,9.00,M,30.06,M,9.00,M,BKN,BKN,OVC,M,999.00,1500.00,2400.00,M,M,KBKW 011515Z AUTO 31009KT 9SM BKN009 BKN015 OVC024 A3006 RMK MADISHF
BKW,2017-04-01 15:20,-81.1242,37.7873,M,M,M,310.00,12.00,M,30.06,M,10.00,M,SCT,BKN,OVC,M,900.00,1300.00,1800.00,M,M,KBKW 011520Z AUTO 31012KT 10SM SCT009 BKN013 OVC018 A3006 RMK CIG 007 RWY19  MADISHF
BKW,2017-04-01 15:21,-81.1242,37.7873,44.10,41.00,88.77,310.00,12.00,0.00,30.06,M,10.00,M,SCT,OVC,M,M,900.00,1500.00,M,M,M,KBKW 011521Z AUTO 31012KT 10SM SCT009 OVC015 07/05 A3006 RMK AO2 CIG 008 RWY19 T00670050
BKW,2017-04-01 15:25,-81.1242,37.7873,M,M,M,320.00,10.00,M,30.06,M,9.00,M,SCT,OVC,M,M,900.00,1500.00,M,M,M,KBKW 011525Z AUTO 32010KT 9SM SCT009 OVC015 A3006 RMK CIG 008 RWY19  MADISHF
BKW,2017-04-01 15:30,-81.1242,37.7873,M,M,M,320.00,10.00,M,30.06,M,9.00,M,SCT,BKN,OVC,M,900.00,1300.00,1800.00,M,M,KBKW 011530Z AUTO 32010KT 9SM SCT009 BKN013 OVC018 A3006 RMK CIG 008 RWY19  MADISHF
BKW,2017-04-01 15:32,-81.1242,37.7873,44.10,41.00,88.77,310.00,9.00,0.00,30.06,M,9.00,M,BKN,OVC,M,M,900.00,1500.00,M,M,M,KBKW 011532Z AUTO 31009KT 9SM BKN009 OVC015 07/05 A3006 RMK AO2 T00670050
BKW,2017-04-01 15:35,-81.1242,37.7873,M,M,M,320.00,9.00,M,30.06,M,8.00,M,BKN,OVC,M,M,1100.00,1699.00,M,M,M,KBKW 011535Z AUTO 32009KT 8SM BKN011 OVC016 A3006 RMK MADISHF
BKW,2017-04-01 15:40,-81.1242,37.7873,M,M,M,310.00,8.00,M,30.06,M,6.00,M,BKN,BKN,OVC,M,900.00,1300.00,1800.00,M,BR,KBKW 011540Z AUTO 31008KT 6SM BR BKN009 BKN013 OVC018 A3006 RMK MADISHF
BKW,2017-04-01 15:45,-81.1242,37.7873,M,M,M,320.00,9.00,M,30.06,M,6.00,M,BKN,OVC,M,M,900.00,1400.00,M,M,BR,KBKW 011545Z AUTO 32009KT 6SM BR BKN009 OVC014 A3006 RMK MADISHF
BKW,2017-04-01 15:50,-81.1242,37.7873,M,M,M,320.00,11.00,M,30.06,M,5.00,M,BKN,BKN,OVC,M,900.00,1300.00,1900.00,M,-RA BR,KBKW 011550Z AUTO 32011KT 5SM -RA BR BKN009 BKN013 OVC019 A3006 RMK MADISHF
BKW,2017-04-01 15:51,-81.1242,37.7873,44.10,41.00,88.77,320.00,9.00,0.00,30.06,1018.40,5.00,M,BKN,OVC,M,M,900.00,1500.00,M,M,-RA BR,KBKW 011551Z AUTO 32009KT 5SM -RA BR BKN009 OVC015 07/05 A3006 RMK AO2 RAB41 SLP184 P0000 T00670050
BKW,2017-04-01 15:55,-81.1242,37.7873,M,M,M,330.00,11.00,M,30.06,M,6.00,M,BKN,OVC,M,M,900.00,1300.00,M,M,-RA BR,KBKW 011555Z AUTO 33011KT 6SM -RA BR BKN009 OVC013 A3006 RMK MADISHF
BKW,2017-04-01 16:00,-81.1242,37.7873,M,M,M,320.00,9.00,M,30.06,M,9.00,M,BKN,OVC,M,M,800.00,1300.00,M,M,-RA,KBKW 011600Z AUTO 32009KT 9SM -RA BKN008 OVC013 A3006 RMK MADISHF
BKW,2017-04-01 16:05,-81.1242,37.7873,M,M,M,330.00,9.00,M,30.06,M,10.00,M,BKN,OVC,M,M,800.00,1200.00,M,M,M,KBKW 011605Z AUTO 33009KT 10SM BKN008 OVC012 A3006 RMK MADISHF
BKW,2017-04-01 16:10,-81.1242,37.7873,M,M,M,320.00,8.00,M,30.06,M,10.00,M,BKN,OVC,M,M,800.00,1600.00,M,M,M,KBKW 011610Z AUTO 32008KT 10SM BKN008 OVC016 A3006 RMK MADISHF
BKW,2017-04-01 16:15,-81.1242,37.7873,M,M,M,320.00,9.00,M,30.06,M,10.00,M,BKN,BKN,OVC,M,800.00,1400.00,1999.00,M,M,KBKW 011615Z AUTO 32009KT 10SM BKN008 BKN014 OVC019 A3006 RMK MADISHF
BKW,2017-04-01 16:20,-81.1242,37.7873,M,M,M,320.00,8.00,M,30.06,M,10.00,M,SCT,OVC,M,M,800.00,1900.00,M,M,M,KBKW 011620Z AUTO 32008KT 10SM SCT008 OVC019 A3006 RMK CIG 009 RWY19  MADISHF
BKW,2017-04-01 16:25,-81.1242,37.7873,M,M,M,320.00,8.00,M,30.06,M,10.00,M,SCT,OVC,M,M,800.00,1699.00,M,M,M,KBKW 011625Z AUTO 32008KT 10SM SCT008 OVC016 A3006 RMK MADISHF
BKW,2017-04-01 16:26,-81.1242,37.7873,45.00,41.00,85.77,320.00,10.00,0.00,30.06,M,10.00,M,SCT,OVC,M,M,800.00,1700.00,M,M,M,KBKW 011626Z AUTO 32010KT 10SM SCT008 OVC017 07/05 A3006 RMK AO2 RAE01 CIG 011 RWY19 P0000 T00720050
BKW,2017-04-01 16:30,-81.1242,37.7873,M,M,M,300.00,9.00,M,30.06,M,10.00,M,FEW,SCT,OVC,M,700.00,1200.00,1800.00,M,M,KBKW 011630Z AUTO 30009KT 10SM FEW007 SCT012 OVC018 A3006 RMK CIG 011 RWY19  MADISHF
BKW,2017-04-01 16:35,-81.1242,37.7873,M,M,M,310.00,9.00,M,30.06,M,10.00,M,SCT,OVC,M,M,1100.00,1699.00,M,M,M,KBKW 011635Z AUTO 31009KT 10SM SCT011 OVC016 A3006 RMK CIG 011 RWY19  MADISHF
BKW,2017-04-01 16:40,-81.1242,37.7873,M,M,M,310.00,10.00,M,30.06,M,10.00,M,BKN,OVC,M,M,1500.00,1999.00,M,M,M,KBKW 011640Z AUTO 31010KT 10SM BKN015 OVC019 A3006 RMK MADISHF
BKW,2017-04-01 16:45,-81.1242,37.7873,M,M,M,320.00,11.00,M,30.06,M,10.00,M,OVC,M,M,M,1400.00,M,M,M,M,KBKW 011645Z AUTO 32011KT 10SM OVC014 A3006 RMK MADISHF
BKW,2017-04-01 16:50,-81.1242,37.7873,M,M,M,320.00,8.00,M,30.06,M,8.00,M,BKN,OVC,M,M,1200.00,1699.00,M,M,M,KBKW 011650Z AUTO 32008KT 8SM BKN012 OVC016 A3006 RMK MADISHF
BKW,2017-04-01 16:51,-81.1242,37.7873,43.00,39.00,85.66,320.00,7.00,0.00,30.06,1018.70,8.00,M,BKN,OVC,M,M,1200.00,1800.00,M,M,M,KBKW 011651Z AUTO 32007KT 8SM BKN012 OVC018 06/04 A3006 RMK AO2 RAE01 SLP187 P0000 T00610039
BKW,2017-04-01 16:55,-81.1242,37.7873,M,M,M,310.00,7.00,M,30.06,M,6.00,M,BKN,OVC,M,M,1200.00,1699.00,M,M,-RA BR,KBKW 011655Z AUTO 31007KT 6SM -RA BR BKN012 OVC016 A3006 RMK MADISHF
BKW,2017-04-01 17:00,-81.1242,37.7873,M,M,M,290.00,8.00,M,30.07,M,6.00,M,OVC,M,M,M,1200.00,M,M,M,-RA BR,KBKW 011700Z AUTO 29008KT 6SM -RA BR OVC012 A3007 RMK MADISHF
BKW,2017-04-01 17:05,-81.1242,37.7873,M,M,M,310.00,8.00,M,30.07,M,5.00,M,BKN,OVC,M,M,999.00,1500.00,M,M,BR,KBKW 011705Z AUTO 31008KT 5SM BR BKN009 OVC015 A3007 RMK MADISHF
BKW,2017-04-01 17:10,-81.1242,37.7873,M,M,M,310.00,8.00,M,30.07,M,5.00,M,OVC,M,M,M,1100.00,M,M,M,-RA BR,KBKW 011710Z AUTO 31008KT 5SM -RA BR OVC011 A3007 RMK MADISHF
BKW,2017-04-01 17:15,-81.1242,37.7873,M,M,M,320.00,7.00,M,30.07,M,6.00,M,OVC,M,M,M,1100.00,M,M,M,BR,KBKW 011715Z AUTO 32007KT 6SM BR OVC011 A3007 RMK MADISHF
BKW,2017-04-01 17:20,-81.1242,37.7873,M,M,M,310.00,8.00,M,30.07,M,8.00,M,OVC,M,M,M,1100.00,M,M,M,M,KBKW 011720Z AUTO 31008KT 8SM OVC011 A3007 RMK MADISHF
BKW,2017-04-01 17:25,-81.1242,37.7873,M,M,M,310.00,6.00,M,30.07,M,10.00,M,OVC,M,M,M,999.00,M,M,M,M,KBKW 011725Z AUTO 31006KT 10SM OVC009 A3007 RMK MADISHF
BKW,2017-04-01 17:30,-81.1242,37.7873,M,M,M,320.00,7.00,M,30.07,M,10.00,M,BKN,OVC,M,M,1100.00,1900.00,M,M,M,KBKW 011730Z AUTO 32007KT 10SM BKN011 OVC019 A3007 RMK MADISHF
BKW,2017-04-01 17:35,-81.1242,37.7873,M,M,M,320.00,9.00,M,30.07,M,10.00,M,BKN,OVC,M,M,1100.00,1699.00,M,M,M,KBKW 011735Z AUTO 32009KT 10SM BKN011 OVC016 A3007 RMK MADISHF
BKW,2017-04-01 17:40,-81.1242,37.7873,M,M,M,320.00,8.00,M,30.07,M,10.00,M,BKN,OVC,M,M,1200.00,1800.00,M,M,-RA,KBKW 011740Z AUTO 32008KT 10SM -RA BKN012 OVC018 A3007 RMK MADISHF
BKW,2017-04-01 17:45,-81.1242,37.7873,M,M,M,310.00,9.00,M,30.08,M,10.00,M,BKN,OVC,M,M,1100.00,1800.00,M,M,-RA,KBKW 011745Z AUTO 31009KT 10SM -RA BKN011 OVC018 A3008 RMK MADISHF
BKW,2017-04-01 17:50,-81.1242,37.7873,M,M,M,320.00,8.00,M,30.08,M,10.00,M,BKN,OVC,M,M,1200.00,1900.00,M,M,-RA,KBKW 011750Z AUTO 32008KT 10SM -RA BKN012 OVC019 A3008 RMK MADISHF
BKW,2017-04-01 17:51,-81.1242,37.7873,44.10,39.90,85.06,320.00,8.00,0.00,30.08,1019.00,10.00,M,SCT,BKN,OVC,M,1000.00,1600.00,2100.00,M,-RA,KBKW 011751Z AUTO 32008KT 10SM -RA SCT010 BKN016 OVC021 07/04 A3008 RMK AO2 RAB1655E15B39 SLP190 P0000 60000 T00670044 10072 20061 53007
BKW,2017-04-01 17:55,-81.1242,37.7873,M,M,M,300.00,7.00,M,30.08,M,10.00,M,FEW,BKN,OVC,M,999.00,1500.00,2100.00,M,M,KBKW 011755Z AUTO 30007KT 10SM FEW009 BKN015 OVC021 A3008 RMK MADISHF
BKW,2017-04-01 18:00,-81.1242,37.7873,M,M,M,320.00,9.00,M,30.08,M,10.00,M,OVC,M,M,M,1300.00,M,M,M,M,KBKW 011800Z AUTO 32009KT 10SM OVC013 A3008 RMK MADISHF
BKW,2017-04-01 18:02,-81.1242,37.7873,44.10,39.90,85.06,320.00,9.00,0.00,30.08,M,10.00,M,BKN,OVC,M,M,1200.00,1900.00,M,M,-RA,KBKW 011802Z AUTO 32009KT 10SM -RA BKN012 OVC019 07/04 A3008 RMK AO2 P0000 T00670044
BKW,2017-04-01 18:05,-81.1242,37.7873,M,M,M,320.00,10.00,M,30.08,M,9.00,M,BKN,OVC,M,M,1200.00,1699.00,M,M,-RA,KBKW 011805Z AUTO 32010KT 9SM -RA BKN012 OVC016 A3008 RMK MADISHF
BKW,2017-04-01 18:10,-81.1242,37.7873,M,M,M,330.00,9.00,M,30.08,M,9.00,M,BKN,OVC,M,M,1300.00,2100.00,M,M,-RA,KBKW 011810Z AUTO 33009KT 9SM -RA BKN013 OVC021 A3008 RMK MADISHF
BKW,2017-04-01 18:15,-81.1242,37.7873,M,M,M,310.00,6.00,M,30.08,M,10.00,M,BKN,OVC,M,M,1200.00,1900.00,M,M,-RA,KBKW 011815Z AUTO 31006KT 10SM -RA BKN012 OVC019 A3008 RMK MADISHF
BKW,2017-04-01 18:20,-81.1242,37.7873,M,M,M,300.00,9.00,M,30.08,M,10.00,M,BKN,OVC,M,M,1400.00,2300.00,M,M,M,KBKW 011820Z AUTO 30009KT 10SM BKN014 OVC023 A3008 RMK MADISHF
BKW,2017-04-01 18:25,-81.1242,37.7873,M,M,M,280.00,10.00,M,30.08,M,10.00,M,BKN,OVC,M,M,1300.00,1999.00,M,M,M,KBKW 011825Z AUTO 28010KT 10SM BKN013 OVC019 A3008 RMK MADISHF
BKW,2017-04-01 18:30,-81.1242,37.7873,M,M,M,280.00,9.00,M,30.08,M,10.00,M,BKN,OVC,M,M,1300.00,1999.00,M,M,M,KBKW 011830Z AUTO 28009KT 10SM BKN013 OVC019 A3008 RMK MADISHF
BKW,2017-04-01 18:35,-81.1242,37.7873,M,M,M,290.00,9.00,M,30.08,M,10.00,M,BKN,OVC,M,M,1500.00,2200.00,M,M,M,KBKW 011835Z AUTO 29009KT 10SM BKN015 OVC022 A3008 RMK MADISHF
BKW,2017-04-01 18:40,-81.1242,37.7873,M,M,M,300.00,13.00,M,30.08,M,10.00,M,FEW,BKN,OVC,M,999.00,1400.00,1900.00,M,M,KBKW 011840Z AUTO 30013KT 10SM FEW009 BKN014 OVC019 A3008 RMK MADISHF
BKW,2017-04-01 18:45,-81.1242,37.7873,M,M,M,300.00,9.00,M,30.08,M,10.00,M,BKN,OVC,M,M,1300.00,1900.00,M,M,M,KBKW 011845Z AUTO 30009KT 10SM BKN013 OVC019 A3008 RMK MADISHF
BKW,2017-04-01 18:50,-81.1242,37.7873,M,M,M,280.00,7.00,M,30.08,M,10.00,M,OVC,M,M,M,1300.00,M,M,M,M,KBKW 011850Z AUTO 28007KT 10SM OVC013 A3008 RMK MADISHF
BKW,2017-04-01 18:51,-81.1242,37.7873,44.10,39.00,82.12,300.00,6.00,0.00,30.08,1019.10,10.00,M,BKN,OVC,M,M,1300.00,1900.00,M,M,M,KBKW 011851Z AUTO 30006KT 10SM BKN013 OVC019 07/04 A3008 RMK AO2 RAE19 SLP191 P0000 T00670039
BKW,2017-04-01 18:55,-81.1242,37.7873,M,M,M,290.00,11.00,M,30.08,M,10.00,M,BKN,BKN,OVC,M,1400.00,1900.00,2500.00,M,M,KBKW 011855Z AUTO 29011KT 10SM BKN014 BKN019 OVC025 A3008 RMK MADISHF
BKW,2017-04-01 19:00,-81.1242,37.7873,M,M,M,280.00,8.00,M,30.08,M,10.00,M,BKN,BKN,OVC,M,1300.00,1800.00,2500.00,M,M,KBKW 011900Z AUTO 28008KT 10SM BKN013 BKN018 OVC025 A3008 RMK MADISHF
BKW,2017-04-01 19:05,-81.1242,37.7873,M,M,M,290.00,6.00,M,30.08,M,10.00,M,BKN,BKN,OVC,M,1500.00,1999.00,2500.00,M,M,KBKW 011905Z AUTO 29006KT 10SM BKN015 BKN019 OVC025 A3008 RMK MADISHF
BKW,2017-04-01 19:07,-81.1242,37.7873,44.10,39.00,82.12,290.00,10.00,0.00,30.08,M,10.00,M,BKN,OVC,M,M,1500.00,2000.00,M,M,M,KBKW 011907Z AUTO 29010KT 10SM BKN015 OVC020 07/04 A3008 RMK AO2 T00670039
BKW,2017-04-01 19:10,-81.1242,37.7873,M,M,M,280.00,8.00,M,30.08,M,10.00,M,OVC,M,M,M,1699.00,M,M,M,M,KBKW 011910Z AUTO 28008KT 10SM OVC016 A3008 RMK MADISHF
BKW,2017-04-01 19:15,-81.1242,37.7873,M,M,M,290.00,8.00,M,30.08,M,10.00,M,OVC,M,M,M,1699.00,M,M,M,M,KBKW 011915Z AUTO 29008KT 10SM OVC016 A3008 RMK MADISHF
BKW,2017-04-01 19:20,-81.1242,37.7873,M,M,M,310.00,9.00,M,30.08,M,10.00,M,OVC,M,M,M,1699.00,M,M,M,M,KBKW 011920Z AUTO 31009KT 10SM OVC016 A3008 RMK MADISHF
BKW,2017-04-01 19:25,-81.1242,37.7873,M,M,M,300.00,7.00,M,30.07,M,10.00,M,OVC,M,M,M,1699.00,M,M,M,M,KBKW 011925Z AUTO 30007KT 10SM OVC016 A3007 RMK MADISHF
BKW,2017-04-01 19:30,-81.1242,37.7873,M,M,M,280.00,9.00,M,30.07,M,10.00,M,OVC,M,M,M,1699.00,M,M,M,M,KBKW 011930Z AUTO 28009KT 10SM OVC016 A3007 RMK MADISHF
BKW,2017-04-01 19:35,-81.1242,37.7873,M,M,M,290.00,7.00,M,30.08,M,10.00,M,OVC,M,M,M,1699.00,M,M,M,M,KBKW 011935Z AUTO 29007KT 10SM OVC016 A3008 RMK MADISHF
BKW,2017-04-01 19:40,-81.1242,37.7873,M,M,M,280.00,6.00,M,30.07,M,10.00,M,BKN,OVC,M,M,1600.00,2200.00,M,M,M,KBKW 011940Z AUTO 28006KT 10SM BKN016 OVC022 A3007 RMK MADISHF
BKW,2017-04-01 19:45,-81.1242,37.7873,M,M,M,290.00,9.00,M,30.08,M,10.00,M,SCT,OVC,M,M,1500.00,2300.00,M,M,M,KBKW 011945Z AUTO 29009KT 10SM SCT015 OVC023 A3008 RMK MADISHF
BKW,2017-04-01 19:50,-81.1242,37.7873,M,M,M,280.00,7.00,M,30.08,M,10.00,M,FEW,BKN,OVC,M,1500.00,2100.00,2900.00,M,M,KBKW 011950Z AUTO 28007KT 10SM FEW015 BKN021 OVC029 A3008 RMK MADISHF
BKW,2017-04-01 19:51,-81.1242,37.7873,46.00,39.00,76.40,280.00,8.00,0.00,30.08,1019.10,10.00,M,SCT,BKN,OVC,M,1700.00,2300.00,3000.00,M,M,KBKW 011951Z AUTO 28008KT 10SM SCT017 BKN023 OVC030 08/04 A3008 RMK AO2 SLP191 T00780039
BKW,2017-04-01 19:55,-81.1242,37.7873,M,M,M,270.00,8.00,M,30.08,M,10.00,M,FEW,BKN,OVC,M,1400.00,1999.00,3000.00,M,M,KBKW 011955Z AUTO 27008KT 10SM FEW014 BKN019 OVC030 A3008 RMK MADISHF
BKW,2017-04-01 20:00,-81.1242,37.7873,M,M,M,290.00,7.00,M,30.08,M,10.00,M,FEW,BKN,OVC,M,1300.00,1999.00,3000.00,M,M,KBKW 012000Z AUTO 29007KT 10SM FEW013 BKN019 OVC030 A3008 RMK MADISHF
BKW,2017-04-01 20:05,-81.1242,37.7873,M,M,M,300.00,9.00,M,30.08,M,10.00,M,BKN,OVC,M,M,1999.00,3000.00,M,M,M,KBKW 012005Z AUTO 30009KT 10SM BKN019 OVC030 A3008 RMK MADISHF
BKW,2017-04-01 20:10,-81.1242,37.7873,M,M,M,300.00,9.00,M,30.09,M,10.00,M,BKN,OVC,M,M,2100.00,2900.00,M,M,M,KBKW 012010Z AUTO 30009KT 10SM BKN021 OVC029 A3009 RMK CIG 016 RWY19  MADISHF
BKW,2017-04-01 20:15,-81.1242,37.7873,M,M,M,270.00,11.00,M,30.09,M,10.00,M,BKN,OVC,M,M,1999.00,2700.00,M,M,M,KBKW 012015Z AUTO 27011KT 10SM BKN019 OVC027 A3009 RMK MADISHF
BKW,2017-04-01 20:20,-81.1242,37.7873,M,M,M,270.00,11.00,M,30.09,M,10.00,M,BKN,BKN,OVC,M,1600.00,2200.00,2800.00,M,M,KBKW 012020Z AUTO 27011KT 10SM BKN016 BKN022 OVC028 A3009 RMK MADISHF
BKW,2017-04-01 20:25,-81.1242,37.7873,M,M,M,250.00,10.00,M,30.09,M,9.00,M,SCT,OVC,M,M,1400.00,2100.00,M,M,M,KBKW 012025Z AUTO 25010KT 9SM SCT014 OVC021 A3009 RMK CIG 016 RWY19  MADISHF
BKW,2017-04-01 20:35,-81.1242,37.7873,M,M,M,270.00,8.00,M,30.09,M,10.00,M,BKN,OVC,M,M,1500.00,2500.00,M,M,M,KBKW 012035Z AUTO 27008KT 10SM BKN015 OVC025 A3009 RMK MADISHF
BKW,2017-04-01 20:40,-81.1242,37.7873,M,M,M,260.00,10.00,M,30.09,M,10.00,M,BKN,OVC,M,M,1300.00,1999.00,M,M,M,KBKW 012040Z AUTO 26010KT 10SM BKN013 OVC019 A3009 RMK MADISHF
BKW,2017-04-01 20:44,-81.1242,37.7873,45.00,39.00,79.36,290.00,9.00,0.00,30.09,M,10.00,M,BKN,OVC,M,M,1300.00,1900.00,M,M,M,KBKW 012044Z AUTO 29009KT 10SM BKN013 OVC019 07/04 A3009 RMK AO2 T00720039
BKW,2017-04-01 20:45,-81.1242,37.7873,M,M,M,290.00,8.00,M,30.09,M,10.00,M,BKN,OVC,M,M,1300.00,1900.00,M,M,M,KBKW 012045Z AUTO 29008KT 10SM BKN013 OVC019 A3009 RMK MADISHF
BKW,2017-04-01 20:50,-81.1242,37.7873,M,M,M,300.00,7.00,M,30.09,M,10.00,M,BKN,OVC,M,M,1400.00,2700.00,M,M,M,KBKW 012050Z AUTO 30007KT 10SM BKN014 OVC027 A3009 RMK MADISHF
BKW,2017-04-01 20:51,-81.1242,37.7873,45.00,39.00,79.36,310.00,7.00,0.00,30.09,1019.50,10.00,M,BKN,OVC,M,M,1400.00,2700.00,M,M,M,KBKW 012051Z AUTO 31007KT 10SM BKN014 OVC027 07/04 A3009 RMK AO2 SLP195 60000 T00720039 53004
BKW,2017-04-01 20:55,-81.1242,37.7873,M,M,M,280.00,9.00,M,30.09,M,10.00,M,BKN,OVC,M,M,1400.00,2700.00,M,M,M,KBKW 012055Z AUTO 28009KT 10SM BKN014 OVC027 A3009 RMK MADISHF
BKW,2017-04-01 21:00,-81.1242,37.7873,M,M,M,310.00,7.00,M,30.10,M,10.00,M,BKN,OVC,M,M,1400.00,2800.00,M,M,M,KBKW 012100Z AUTO 31007KT 10SM BKN014 OVC028 A3010 RMK MADISHF
BKW,2017-04-01 21:05,-81.1242,37.7873,M,M,M,290.00,9.00,M,30.10,M,10.00,M,BKN,BKN,OVC,M,1400.00,2200.00,2700.00,M,M,KBKW 012105Z AUTO 29009KT 10SM BKN014 BKN022 OVC027 A3010 RMK MADISHF
BKW,2017-04-01 21:10,-81.1242,37.7873,M,M,M,300.00,7.00,M,30.10,M,10.00,M,BKN,OVC,M,M,1500.00,2500.00,M,M,M,KBKW 012110Z AUTO 30007KT 10SM BKN015 OVC025 A3010 RMK MADISHF
BKW,2017-04-01 21:12,-81.1242,37.7873,45.00,39.00,79.36,310.00,8.00,0.00,30.10,M,10.00,M,BKN,BKN,OVC,M,1600.00,2200.00,2700.00,M,M,KBKW 012112Z AUTO 31008KT 10SM BKN016 BKN022 OVC027 07/04 A3010 RMK AO2 T00720039
BKW,2017-04-01 21:15,-81.1242,37.7873,M,M,M,320.00,9.00,M,30.10,M,10.00,M,BKN,BKN,OVC,M,1500.00,2200.00,2800.00,M,M,KBKW 012115Z AUTO 32009KT 10SM BKN015 BKN022 OVC028 A3010 RMK MADISHF
BKW,2017-04-01 21:20,-81.1242,37.7873,M,M,M,320.00,10.00,M,30.10,M,10.00,M,BKN,OVC,M,M,1600.00,2600.00,M,M,M,KBKW 012120Z AUTO 32010KT 10SM BKN016 OVC026 A3010 RMK MADISHF
BKW,2017-04-01 21:25,-81.1242,37.7873,M,M,M,320.00,9.00,M,30.10,M,10.00,M,BKN,OVC,M,M,1500.00,2300.00,M,M,M,KBKW 012125Z AUTO 32009KT 10SM BKN015 OVC023 A3010 RMK MADISHF
BKW,2017-04-01 21:30,-81.1242,37.7873,M,M,M,320.00,7.00,M,30.10,M,10.00,M,OVC,M,M,M,1500.00,M,M,M,M,KBKW 012130Z AUTO 32007KT 10SM OVC015 A3010 RMK MADISHF
BKW,2017-04-01 21:35,-81.1242,37.7873,M,M,M,320.00,8.00,M,30.10,M,10.00,M,OVC,M,M,M,1400.00,M,M,M,M,KBKW 012135Z AUTO 32008KT 10SM OVC014 A3010 RMK MADISHF
BKW,2017-04-01 21:38,-81.1242,37.7873,45.00,39.00,79.36,330.00,9.00,0.00,30.10,M,10.00,M,OVC,M,M,M,1400.00,M,M,M,M,KBKW 012138Z AUTO 33009KT 10SM OVC014 07/04 A3010 RMK AO2 T00720039
BKW,2017-04-01 21:40,-81.1242,37.7873,M,M,M,320.00,9.00,M,30.10,M,10.00,M,OVC,M,M,M,1400.00,M,M,M,M,KBKW 012140Z AUTO 32009KT 10SM OVC014 A3010 RMK MADISHF
BKW,2017-04-01 21:45,-81.1242,37.7873,M,M,M,310.00,8.00,M,30.11,M,10.00,M,OVC,M,M,M,1400.00,M,M,M,M,KBKW 012145Z AUTO 31008KT 10SM OVC014 A3011 RMK MADISHF
BKW,2017-04-01 21:50,-81.1242,37.7873,M,M,M,320.00,9.00,M,30.11,M,10.00,M,BKN,OVC,M,M,1300.00,1900.00,M,M,M,KBKW 012150Z AUTO 32009KT 10SM BKN013 OVC019 A3011 RMK MADISHF
BKW,2017-04-01 21:51,-81.1242,37.7873,44.10,39.90,85.06,320.00,9.00,0.00,30.11,1020.30,10.00,M,BKN,OVC,M,M,1300.00,1900.00,M,M,M,KBKW 012151Z AUTO 32009KT 10SM BKN013 OVC019 07/04 A3011 RMK AO2 SLP203 T00670044
BKW,2017-04-01 21:55,-81.1242,37.7873,M,M,M,310.00,9.00,M,30.11,M,10.00,M,BKN,OVC,M,M,1300.00,1900.00,M,M,M,KBKW 012155Z AUTO 31009KT 10SM BKN013 OVC019 A3011 RMK MADISHF
BKW,2017-04-01 22:00,-81.1242,37.7873,M,M,M,330.00,8.00,M,30.11,M,10.00,M,BKN,BKN,OVC,M,1200.00,1800.00,2800.00,M,M,KBKW 012200Z AUTO 33008KT 10SM BKN012 BKN018 OVC028 A3011 RMK MADISHF
BKW,2017-04-01 22:05,-81.1242,37.7873,M,M,M,320.00,9.00,M,30.12,M,9.00,M,BKN,BKN,OVC,M,1100.00,1699.00,2800.00,M,M,KBKW 012205Z AUTO 32009KT 9SM BKN011 BKN016 OVC028 A3012 RMK MADISHF
BKW,2017-04-01 22:10,-81.1242,37.7873,M,M,M,320.00,8.00,M,30.12,M,8.00,M,SCT,OVC,M,M,999.00,1600.00,M,M,M,KBKW 012210Z AUTO 32008KT 8SM SCT009 OVC016 A3012 RMK CIG 010 RWY19  MADISHF
BKW,2017-04-01 22:15,-81.1242,37.7873,M,M,M,320.00,8.00,M,30.12,M,9.00,M,BKN,OVC,M,M,1100.00,1699.00,M,M,M,KBKW 012215Z AUTO 32008KT 9SM BKN011 OVC016 A3012 RMK MADISHF
BKW,2017-04-01 22:20,-81.1242,37.7873,M,M,M,330.00,8.00,M,30.12,M,10.00,M,OVC,M,M,M,1200.00,M,M,M,M,KBKW 012220Z AUTO 33008KT 10SM OVC012 A3012 RMK CIG 008 RWY19  MADISHF
BKW,2017-04-01 22:25,-81.1242,37.7873,M,M,M,330.00,10.00,M,30.12,M,10.00,M,BKN,OVC,M,M,1100.00,1699.00,M,M,M,KBKW 012225Z AUTO 33010KT 10SM BKN011 OVC016 A3012 RMK MADISHF
BKW,2017-04-01 22:30,-81.1242,37.7873,M,M,M,340.00,7.00,M,30.13,M,10.00,M,OVC,M,M,M,1100.00,M,M,M,M,KBKW 012230Z AUTO 34007KT 10SM OVC011 A3013 RMK CIG 006 RWY19  MADISHF
BKW,2017-04-01 22:35,-81.1242,37.7873,M,M,M,340.00,7.00,M,30.13,M,10.00,M,FEW,OVC,M,M,499.00,999.00,M,M,M,KBKW 012235Z AUTO 34007KT 10SM FEW004 OVC009 A3013 RMK CIG 006 RWY19  MADISHF
BKW,2017-04-01 22:37,-81.1242,37.7873,43.00,39.90,88.71,340.00,7.00,0.00,30.13,M,10.00,M,SCT,OVC,M,M,500.00,1100.00,M,M,M,KBKW 012237Z AUTO 34007KT 10SM SCT005 OVC011 06/04 A3013 RMK AO2 CIG 004 RWY19 T00610044
BKW,2017-04-01 22:40,-81.1242,37.7873,M,M,M,330.00,8.00,M,30.13,M,10.00,M,SCT,BKN,OVC,M,499.00,900.00,1300.00,M,M,KBKW 012240Z AUTO 33008KT 10SM SCT004 BKN009 OVC013 A3013 RMK CIG 004 RWY19  MADISHF
BKW,2017-04-01 22:45,-81.1242,37.7873,M,M,M,340.00,7.00,M,30.13,M,10.00,M,BKN,OVC,M,M,499.00,999.00,M,M,M,KBKW 012245Z AUTO 34007KT 10SM BKN004 OVC009 A3013 RMK MADISHF
BKW,2017-04-01 22:46,-81.1242,37.7873,42.80,39.20,86.99,330.00,8.00,0.00,30.13,M,10.00,M,BKN,OVC,M,M,500.00,1000.00,M,M,M,KBKW 012246Z AUTO 33008KT 10SM BKN005 OVC010 06/04 A3013 RMK AO2
BKW,2017-04-01 22:50,-81.1242,37.7873,M,M,M,330.00,6.00,M,30.13,M,10.00,M,BKN,OVC,M,M,499.00,900.00,M,M,M,KBKW 012250Z AUTO 33006KT 10SM BKN004 OVC009 A3013 RMK MADISHF
BKW,2017-04-01 22:51,-81.1242,37.7873,43.00,39.90,88.71,330.00,6.00,0.00,30.14,1021.30,10.00,M,BKN,OVC,M,M,500.00,1000.00,M,M,M,KBKW 012251Z AUTO 33006KT 10SM BKN005 OVC010 06/04 A3014 RMK AO2 SLP213 T00610044
BKW,2017-04-01 22:55,-81.1242,37.7873,M,M,M,320.00,8.00,M,30.14,M,10.00,M,BKN,OVC,M,M,400.00,999.00,M,M,M,KBKW 012255Z AUTO 32008KT 10SM BKN004 OVC009 A3014 RMK MADISHF
BKW,2017-04-01 23:00,-81.1242,37.7873,M,M,M,330.00,9.00,M,30.14,M,10.00,M,OVC,M,M,M,400.00,M,M,M,M,KBKW 012300Z AUTO 33009KT 10SM OVC004 A3014 RMK MADISHF
BKW,2017-04-01 23:01,-81.1242,37.7873,42.10,39.90,91.84,330.00,8.00,0.00,30.14,M,10.00,M,OVC,M,M,M,400.00,M,M,M,M,KBKW 012301Z AUTO 33008KT 10SM OVC004 06/04 A3014 RMK AO2 T00560044
BKW,2017-04-01 23:05,-81.1242,37.7873,M,M,M,320.00,9.00,M,30.14,M,10.00,M,OVC,M,M,M,400.00,M,M,M,M,KBKW 012305Z AUTO 32009KT 10SM OVC004 A3014 RMK MADISHF
BKW,2017-04-01 23:10,-81.1242,37.7873,M,M,M,320.00,10.00,M,30.15,M,10.00,M,OVC,M,M,M,400.00,M,M,M,M,KBKW 012310Z AUTO 32010KT 10SM OVC004 A3015 RMK MADISHF
BKW,2017-04-01 23:15,-81.1242,37.7873,M,M,M,310.00,10.00,M,30.15,M,10.00,M,OVC,M,M,M,400.00,M,M,M,M,KBKW 012315Z AUTO 31010KT 10SM OVC004 A3015 RMK MADISHF
BKW,2017-04-01 23:20,-81.1242,37.7873,M,M,M,310.00,9.00,M,30.15,M,9.00,M,OVC,M,M,M,400.00,M,M,M,M,KBKW 012320Z AUTO 31009KT 9SM OVC004 A3015 RMK MADISHF
BKW,2017-04-01 23:25,-81.1242,37.7873,M,M,M,320.00,10.00,M,30.15,M,9.00,M,OVC,M,M,M,400.00,M,M,M,M,KBKW 012325Z AUTO 32010KT 9SM OVC004 A3015 RMK MADISHF
BKW,2017-04-01 23:30,-81.1242,37.7873,M,M,M,310.00,8.00,M,30.15,M,10.00,M,BKN,OVC,M,M,400.00,800.00,M,M,M,KBKW 012330Z AUTO 31008KT 10SM BKN004 OVC008 A3015 RMK MADISHF
BKW,2017-04-01 23:35,-81.1242,37.7873,M,M,M,320.00,9.00,M,30.15,M,10.00,M,BKN,OVC,M,M,499.00,999.00,M,M,M,KBKW 012335Z AUTO 32009KT 10SM BKN004 OVC009 A3015 RMK MADISHF
BKW,2017-04-01 23:38,-81.1242,37.7873,42.10,39.00,88.67,320.00,11.00,0.00,30.15,M,10.00,17.00,BKN,OVC,M,M,500.00,1000.00,M,M,M,KBKW 012338Z AUTO 32011G17KT 10SM BKN005 OVC010 06/04 A3015 RMK AO2 T00560039
BKW,2017-04-01 23:40,-81.1242,37.7873,M,M,M,320.00,10.00,M,30.15,M,10.00,M,BKN,OVC,M,M,499.00,900.00,M,M,M,KBKW 012340Z AUTO 32010KT 10SM BKN004 OVC009 A3015 RMK MADISHF
BKW,2017-04-01 23:45,-81.1242,37.7873,M,M,M,320.00,9.00,M,30.15,M,10.00,M,BKN,OVC,M,M,499.00,900.00,M,M,M,KBKW 012345Z AUTO 32009KT 10SM BKN004 OVC009 A3015 RMK MADISHF
BKW,2017-04-01 23:50,-81.1242,37.7873,M,M,M,320.00,8.00,M,30.16,M,10.00,M,OVC,M,M,M,499.00,M,M,M,M,KBKW 012350Z AUTO 32008KT 10SM OVC004 A3016 RMK MADISHF
BKW,2017-04-01 23:51,-81.1242,37.7873,41.00,39.00,92.52,320.00,8.00,0.00,30.16,1022.30,10.00,M,OVC,M,M,M,500.00,M,M,M,M,KBKW 012351Z AUTO 32008KT 10SM OVC005 05/04 A3016 RMK AO2 SLP223 60000 T00500039 10078 20050 51014
BKW,2017-04-01 23:55,-81.1242,37.7873,M,M,M,330.00,10.00,M,30.15,M,9.00,M,OVC,M,M,M,499.00,M,M,M,M,KBKW 012355Z AUTO 33010KT 9SM OVC004 A3015 RMK MADISHF
