#DEBUG: Format Typ    -> comma
#DEBUG: Time Period   -> 2017-04-01 00:00:00+00:00 2017-04-02 00:00:00+00:00
#DEBUG: Time Zone     -> Etc/UTC
#DEBUG: Data Contact   -> daryl herzmann akrherz@iastate.edu 515-294-5978
#DEBUG: Entries Found -> -1
station,valid,lon,lat,tmpf, dwpf, relh, drct, sknt, p01i, alti, mslp, vsby, gust, skyc1, skyc2, skyc3, skyc4, skyl1, skyl2, skyl3, skyl4, presentwx, metar
BLF,2017-04-01 00:00,-81.2077,37.2958,M,M,M,280.00,8.00,M,29.80,M,10.00,M,BKN,BKN,OVC,M,1500.00,2400.00,3200.00,M,M,KBLF 010000Z AUTO 28008KT 10SM BKN015 BKN024 OVC032 A2980 RMK MADISHF
BLF,2017-04-01 00:05,-81.2077,37.2958,M,M,M,280.00,10.00,M,29.80,M,10.00,M,SCT,BKN,OVC,M,1300.00,1800.00,3000.00,M,M,KBLF 010005Z AUTO 28010KT 10SM SCT013 BKN018 OVC030 A2980 RMK MADISHF
BLF,2017-04-01 00:10,-81.2077,37.2958,M,M,M,280.00,8.00,M,29.80,M,10.00,M,BKN,BKN,OVC,M,1300.00,1800.00,3300.00,M,M,KBLF 010010Z AUTO 28008KT 10SM BKN013 BKN018 OVC033 A2980 RMK MADISHF
BLF,2017-04-01 00:15,-81.2077,37.2958,M,M,M,280.00,10.00,M,29.80,M,9.00,M,SCT,BKN,OVC,M,999.00,1800.00,2700.00,M,M,KBLF 010015Z AUTO 28010KT 9SM SCT009 BKN018 OVC027 A2980 RMK MADISHF
BLF,2017-04-01 00:20,-81.2077,37.2958,M,M,M,270.00,13.00,M,29.81,M,7.00,18.00,BKN,OVC,M,M,1300.00,2100.00,M,M,-RA,KBLF 010020Z AUTO 27013G18KT 7SM -RA BKN013 OVC021 A2981 RMK MADISHF
BLF,2017-04-01 00:25,-81.2077,37.2958,M,M,M,290.00,11.00,M,29.81,M,6.00,M,SCT,BKN,OVC,M,999.00,1500.00,1999.00,M,-RA BR,KBLF 010025Z AUTO 29011KT 6SM -RA BR SCT009 BKN015 OVC019 A2981 RMK MADISHF
BLF,2017-04-01 00:30,-81.2077,37.2958,M,M,M,300.00,9.00,M,29.81,M,8.00,M,SCT,BKN,OVC,M,999.00,1300.00,3200.00,M,M,KBLF 010030Z AUTO 30009KT 8SM SCT009 BKN013 OVC032 A2981 RMK MADISHF
BLF,2017-04-01 00:32,-81.2077,37.2958,45.00,42.10,89.49,300.00,9.00,0.00,29.81,M,9.00,M,BKN,BKN,OVC,M,1000.00,1500.00,3200.00,M,M,KBLF 010032Z AUTO 30009KT 9SM BKN010 BKN015 OVC032 07/06 A2981 RMK AO2 RAE2359B16E30 P0000 T00720056 TSNO
BLF,2017-04-01 00:35,-81.2077,37.2958,M,M,M,290.00,10.00,M,29.81,M,10.00,M,SCT,BKN,OVC,M,999.00,1500.00,3200.00,M,M,KBLF 010035Z AUTO 29010KT 10SM SCT009 BKN015 OVC032 A2981 RMK MADISHF
BLF,2017-04-01 00:36,-81.2077,37.2958,45.00,42.10,89.49,290.00,9.00,0.00,29.81,M,9.00,M,FEW,BKN,OVC,M,700.00,1500.00,2700.00,M,M,KBLF 010036Z AUTO 29009KT 9SM FEW007 BKN015 OVC027 07/06 A2981 RMK AO2 RAE2359B16E30 P0000 T00720056 TSNO
BLF,2017-04-01 00:38,-81.2077,37.2958,45.00,42.10,89.49,290.00,9.00,0.00,29.81,M,8.00,M,BKN,BKN,OVC,M,900.00,1700.00,2700.00,M,M,KBLF 010038Z AUTO 29009KT 8SM BKN009 BKN017 OVC027 07/06 A2981 RMK AO2 RAE2359B16E30 P0000 T00720056 TSNO
BLF,2017-04-01 00:40,-81.2077,37.2958,M,M,M,290.00,11.00,M,29.81,M,8.00,M,SCT,BKN,OVC,M,900.00,1300.00,2700.00,M,M,KBLF 010040Z AUTO 29011KT 8SM SCT009 BKN013 OVC027 A2981 RMK MADISHF
BLF,2017-04-01 00:41,-81.2077,37.2958,45.00,42.10,89.49,290.00,10.00,0.00,29.81,M,8.00,19.00,SCT,BKN,OVC,M,900.00,1800.00,2700.00,M,M,KBLF 010041Z AUTO 29010G19KT 8SM SCT009 BKN018 OVC027 07/06 A2981 RMK AO2 RAE2359B16E30 P0000 T00720056 TSNO
BLF,2017-04-01 00:45,-81.2077,37.2958,M,M,M,290.00,9.00,M,29.81,M,7.00,M,BKN,BKN,OVC,M,900.00,1800.00,2700.00,M,M,KBLF 010045Z AUTO 29009KT 7SM BKN009 BKN018 OVC027 A2981 RMK MADISHF
BLF,2017-04-01 00:50,-81.2077,37.2958,M,M,M,290.00,9.00,M,29.82,M,5.00,M,SCT,BKN,OVC,M,700.00,1100.00,2900.00,M,-RA BR,KBLF 010050Z AUTO 29009KT 5SM -RA BR SCT007 BKN011 OVC029 A2982 RMK MADISHF
BLF,2017-04-01 00:52,-81.2077,37.2958,45.00,43.00,92.65,290.00,8.00,0.00,29.82,1008.70,4.00,19.00,SCT,BKN,OVC,M,700.00,1100.00,2900.00,M,-RA BR,KBLF 010052Z AUTO 29008G19KT 4SM -RA BR SCT007 BKN011 OVC029 07/06 A2982 RMK AO2 RAE2359B16E30B50 SLP087 P0000 T00720061 TSNO
BLF,2017-04-01 00:55,-81.2077,37.2958,M,M,M,290.00,8.00,0.01,29.82,M,4.00,M,BKN,BKN,OVC,M,700.00,1100.00,2900.00,M,-RA BR,KBLF 010055Z AUTO 29008KT 4SM -RA BR BKN007 BKN011 OVC029 A2982 RMK P0001 MADISHF
BLF,2017-04-01 01:00,-81.2077,37.2958,M,M,M,290.00,10.00,0.01,29.82,M,5.00,16.00,BKN,BKN,OVC,M,700.00,1100.00,2100.00,M,-RA BR,KBLF 010100Z AUTO 29010G16KT 5SM -RA BR BKN007 BKN011 OVC021 A2982 RMK P0001 MADISHF
BLF,2017-04-01 01:01,-81.2077,37.2958,45.00,43.00,92.65,290.00,11.00,0.01,29.82,M,5.00,16.00,BKN,BKN,OVC,M,700.00,1100.00,2100.00,M,-RA BR,KBLF 010101Z AUTO 29011G16KT 5SM -RA BR BKN007 BKN011 OVC021 07/06 A2982 RMK AO2 P0001 T00720061 TSNO
BLF,2017-04-01 01:05,-81.2077,37.2958,M,M,M,290.00,9.00,0.02,29.82,M,5.00,M,BKN,BKN,OVC,M,499.00,1100.00,2100.00,M,-RA BR,KBLF 010105Z AUTO 29009KT 5SM -RA BR BKN004 BKN011 OVC021 A2982 RMK P0002 MADISHF
BLF,2017-04-01 01:10,-81.2077,37.2958,M,M,M,290.00,12.00,0.02,29.82,M,4.00,18.00,BKN,OVC,M,M,499.00,1100.00,M,M,RA BR,KBLF 010110Z AUTO 29012G18KT 4SM RA BR BKN004 OVC011 A2982 RMK P0002 MADISHF
BLF,2017-04-01 01:15,-81.2077,37.2958,M,M,M,280.00,9.00,0.02,29.83,M,6.00,14.00,OVC,M,M,M,499.00,M,M,M,-RA BR,KBLF 010115Z AUTO 28009G14KT 6SM -RA BR OVC004 A2983 RMK P0002 MADISHF
BLF,2017-04-01 01:20,-81.2077,37.2958,M,M,M,290.00,10.00,0.02,29.83,M,10.00,M,BKN,OVC,M,M,499.00,1100.00,M,M,M,KBLF 010120Z AUTO 29010KT 10SM BKN004 OVC011 A2983 RMK P0002 MADISHF
BLF,2017-04-01 01:25,-81.2077,37.2958,M,M,M,290.00,9.00,0.02,29.83,M,10.00,M,BKN,OVC,M,M,499.00,1100.00,M,M,M,KBLF 010125Z AUTO 29009KT 10SM BKN004 OVC011 A2983 RMK P0002 CIG 4V8  MADISHF
BLF,2017-04-01 01:30,-81.2077,37.2958,M,M,M,290.00,9.00,0.02,29.83,M,10.00,M,OVC,M,M,M,800.00,M,M,M,M,KBLF 010130Z AUTO 29009KT 10SM OVC008 A2983 RMK P0002 WND 26V33 CIG 4V13  MADISHF
BLF,2017-04-01 01:35,-81.2077,37.2958,M,M,M,M,M,0.02,29.84,M,10.00,M,OVC,M,M,M,800.00,M,M,M,M,KBLF 010135Z AUTO /////KT 10SM OVC008 A2984 RMK P0002 CIG 4V11  MADISHF
BLF,2017-04-01 01:40,-81.2077,37.2958,M,M,M,290.00,11.00,0.02,29.84,M,10.00,M,BKN,OVC,M,M,800.00,1300.00,M,M,M,KBLF 010140Z AUTO 29011KT 10SM BKN008 OVC013 A2984 RMK P0002 CIG 5V10  MADISHF
BLF,2017-04-01 01:45,-81.2077,37.2958,M,M,M,290.00,8.00,0.02,29.84,M,10.00,M,OVC,M,M,M,800.00,M,M,M,M,KBLF 010145Z AUTO 29008KT 10SM OVC008 A2984 RMK P0002 WND 26V32 CIG 5V11  MADISHF
BLF,2017-04-01 01:50,-81.2077,37.2958,M,M,M,280.00,11.00,0.02,29.84,M,10.00,M,BKN,OVC,M,M,800.00,1300.00,M,M,M,KBLF 010150Z AUTO 28011KT 10SM BKN008 OVC013 A2984 RMK P0002 CIG 6V11  MADISHF
BLF,2017-04-01 01:52,-81.2077,37.2958,45.00,43.00,92.65,280.00,11.00,0.02,29.84,1009.60,10.00,18.00,BKN,OVC,M,M,800.00,1300.00,M,M,M,KBLF 010152Z AUTO 28011G18KT 10SM BKN008 OVC013 07/06 A2984 RMK AO2 RAE18 CIG 006V011 SLP096 P0002 T00720061 TSNO
BLF,2017-04-01 01:55,-81.2077,37.2958,M,M,M,300.00,10.00,M,29.84,M,10.00,M,BKN,OVC,M,M,800.00,1300.00,M,M,M,KBLF 010155Z AUTO 30010KT 10SM BKN008 OVC013 A2984 RMK MADISHF
BLF,2017-04-01 02:00,-81.2077,37.2958,M,M,M,300.00,8.00,M,29.84,M,10.00,M,OVC,M,M,M,800.00,M,M,M,M,KBLF 010200Z AUTO 30008KT 10SM OVC008 A2984 RMK CIG 7V12  MADISHF
BLF,2017-04-01 02:05,-81.2077,37.2958,M,M,M,280.00,10.00,M,29.84,M,10.00,15.00,OVC,M,M,M,999.00,M,M,M,M,KBLF 010205Z AUTO 28010G15KT 10SM OVC009 A2984 RMK CIG 7V12  MADISHF
BLF,2017-04-01 02:10,-81.2077,37.2958,45.00,42.10,89.49,290.00,9.00,0.00,29.84,M,10.00,21.00,OVC,M,M,M,1000.00,M,M,M,M,KBLF 010210Z AUTO 29009G21KT 10SM OVC010 07/06 A2984 RMK AO2 CIG 007V013 T00720056 TSNO
BLF,2017-04-01 02:15,-81.2077,37.2958,M,M,M,290.00,11.00,M,29.85,M,10.00,16.00,OVC,M,M,M,999.00,M,M,M,M,KBLF 010215Z AUTO 29011G16KT 10SM OVC009 A2985 RMK CIG 7V13  MADISHF
BLF,2017-04-01 02:20,-81.2077,37.2958,M,M,M,290.00,10.00,M,29.85,M,10.00,M,OVC,M,M,M,999.00,M,M,M,M,KBLF 010220Z AUTO 29010KT 10SM OVC009 A2985 RMK CIG 7V14  MADISHF
BLF,2017-04-01 02:25,-81.2077,37.2958,M,M,M,290.00,12.00,M,29.85,M,10.00,M,OVC,M,M,M,999.00,M,M,M,M,KBLF 010225Z AUTO 29012KT 10SM OVC009 A2985 RMK CIG 7V11  MADISHF
BLF,2017-04-01 02:30,-81.2077,37.2958,M,M,M,290.00,13.00,M,29.85,M,10.00,M,OVC,M,M,M,999.00,M,M,M,M,KBLF 010230Z AUTO 29013KT 10SM OVC009 A2985 RMK CIG 7V11  MADISHF
BLF,2017-04-01 02:35,-81.2077,37.2958,M,M,M,300.00,10.00,M,29.85,M,9.00,M,OVC,M,M,M,900.00,M,M,M,M,KBLF 010235Z AUTO 30010KT 9SM OVC009 A2985 RMK CIG 6V14  MADISHF
BLF,2017-04-01 02:37,-81.2077,37.2958,45.00,43.00,92.65,290.00,11.00,0.00,29.85,M,7.00,19.00,BKN,OVC,M,M,700.00,1100.00,M,M,-RA,KBLF 010237Z AUTO 29011G19KT 7SM -RA BKN007 OVC011 07/06 A2985 RMK AO2 RAB37 CIG 005V009 P0000 T00720061 TSNO
BLF,2017-04-01 02:40,-81.2077,37.2958,M,M,M,280.00,12.00,M,29.85,M,6.00,M,BKN,OVC,M,M,700.00,1100.00,M,M,-RA BR,KBLF 010240Z AUTO 28012KT 6SM -RA BR BKN007 OVC011 A2985 RMK CIG 5V9  MADISHF
BLF,2017-04-01 02:45,-81.2077,37.2958,M,M,M,280.00,10.00,0.01,29.85,M,5.00,M,OVC,M,M,M,700.00,M,M,M,-RA BR,KBLF 010245Z AUTO 28010KT 5SM -RA BR OVC007 A2985 RMK P0001 CIG 4V11  MADISHF
BLF,2017-04-01 02:50,-81.2077,37.2958,M,M,M,280.00,11.00,0.01,29.85,M,5.00,18.00,OVC,M,M,M,700.00,M,M,M,-RA BR,KBLF 010250Z AUTO 28011G18KT 5SM -RA BR OVC007 A2985 RMK P0001 CIG 4V10  MADISHF
BLF,2017-04-01 02:52,-81.2077,37.2958,45.00,43.00,92.65,290.00,12.00,0.01,29.85,1009.80,5.00,19.00,OVC,M,M,M,700.00,M,M,M,-RA BR,KBLF 010252Z AUTO 29012G19KT 5SM -RA BR OVC007 07/06 A2985 RMK AO2 RAB37 CIG 004V010 SLP098 P0001 60003 T00720061 53010 TSNO
BLF,2017-04-01 02:55,-81.2077,37.2958,M,M,M,280.00,11.00,M,29.85,M,5.00,18.00,OVC,M,M,M,700.00,M,M,M,-RA BR,KBLF 010255Z AUTO 28011G18KT 5SM -RA BR OVC007 A2985 RMK CIG 4V10  MADISHF
BLF,2017-04-01 03:00,-81.2077,37.2958,M,M,M,290.00,10.00,M,29.85,M,5.00,M,OVC,M,M,M,499.00,M,M,M,-RA BR,KBLF 010300Z AUTO 29010KT 5SM -RA BR OVC004 A2985 RMK CIG 4V9  MADISHF
BLF,2017-04-01 03:05,-81.2077,37.2958,M,M,M,290.00,8.00,M,29.85,M,6.00,M,OVC,M,M,M,499.00,M,M,M,-RA BR,KBLF 010305Z AUTO 29008KT 6SM -RA BR OVC004 A2985 RMK CIG 4V9  MADISHF
BLF,2017-04-01 03:10,-81.2077,37.2958,M,M,M,280.00,10.00,M,29.85,M,6.00,16.00,OVC,M,M,M,499.00,M,M,M,-RA BR,KBLF 010310Z AUTO 28010G16KT 6SM -RA BR OVC004 A2985 RMK CIG 4V9  MADISHF
BLF,2017-04-01 03:15,-81.2077,37.2958,M,M,M,290.00,11.00,M,29.85,M,7.00,M,OVC,M,M,M,499.00,M,M,M,-RA,KBLF 010315Z AUTO 29011KT 7SM -RA OVC004 A2985 RMK CIG 4V9  MADISHF
BLF,2017-04-01 03:20,-81.2077,37.2958,M,M,M,290.00,11.00,M,29.85,M,6.00,M,OVC,M,M,M,499.00,M,M,M,-RA BR,KBLF 010320Z AUTO 29011KT 6SM -RA BR OVC004 A2985 RMK CIG 4V9  MADISHF
BLF,2017-04-01 03:25,-81.2077,37.2958,M,M,M,280.00,12.00,M,29.85,M,6.00,M,OVC,M,M,M,499.00,M,M,M,-RA BR,KBLF 010325Z AUTO 28012KT 6SM -RA BR OVC004 A2985 RMK CIG 4V9  MADISHF
BLF,2017-04-01 03:30,-81.2077,37.2958,M,M,M,290.00,9.00,M,29.85,M,7.00,M,OVC,M,M,M,499.00,M,M,M,-RA,KBLF 010330Z AUTO 29009KT 7SM -RA OVC004 A2985 RMK CIG 4V9  MADISHF
BLF,2017-04-01 03:35,-81.2077,37.2958,M,M,M,280.00,10.00,M,29.85,M,8.00,16.00,OVC,M,M,M,499.00,M,M,M,-RA,KBLF 010335Z AUTO 28010G16KT 8SM -RA OVC004 A2985 RMK WND 26V33  MADISHF
BLF,2017-04-01 03:40,-81.2077,37.2958,M,M,M,280.00,10.00,M,29.85,M,6.00,16.00,OVC,M,M,M,499.00,M,M,M,-RA BR,KBLF 010340Z AUTO 28010G16KT 6SM -RA BR OVC004 A2985 RMK MADISHF
BLF,2017-04-01 03:45,-81.2077,37.2958,M,M,M,280.00,12.00,M,29.85,M,5.00,M,OVC,M,M,M,499.00,M,M,M,-RA BR,KBLF 010345Z AUTO 28012KT 5SM -RA BR OVC004 A2985 RMK MADISHF
BLF,2017-04-01 03:50,-81.2077,37.2958,M,M,M,280.00,12.00,M,29.85,M,5.00,M,OVC,M,M,M,499.00,M,M,M,-RA BR,KBLF 010350Z AUTO 28012KT 5SM -RA BR OVC004 A2985 RMK CIG 4V9  MADISHF
BLF,2017-04-01 03:52,-81.2077,37.2958,45.00,43.00,92.65,280.00,10.00,0.00,29.85,1009.60,5.00,18.00,OVC,M,M,M,500.00,M,M,M,-RA BR,KBLF 010352Z AUTO 28010G18KT 5SM -RA BR OVC005 07/06 A2985 RMK AO2 SLP096 P0000 T00720061 TSNO
BLF,2017-04-01 03:55,-81.2077,37.2958,M,M,M,280.00,15.00,M,29.85,M,4.00,M,OVC,M,M,M,499.00,M,M,M,-RA BR,KBLF 010355Z AUTO 28015KT 4SM -RA BR OVC004 A2985 RMK MADISHF
BLF,2017-04-01 04:00,-81.2077,37.2958,M,M,M,290.00,13.00,M,29.85,M,4.00,18.00,OVC,M,M,M,499.00,M,M,M,-RA BR,KBLF 010400Z AUTO 29013G18KT 4SM -RA BR OVC004 A2985 RMK MADISHF
BLF,2017-04-01 04:05,-81.2077,37.2958,M,M,M,290.00,10.00,M,29.85,M,4.00,15.00,OVC,M,M,M,499.00,M,M,M,-RA BR,KBLF 010405Z AUTO 29010G15KT 4SM -RA BR OVC004 A2985 RMK MADISHF
BLF,2017-04-01 04:10,-81.2077,37.2958,M,M,M,280.00,10.00,M,29.85,M,4.00,M,OVC,M,M,M,499.00,M,M,M,-RA BR,KBLF 010410Z AUTO 28010KT 4SM -RA BR OVC004 A2985 RMK MADISHF
BLF,2017-04-01 04:15,-81.2077,37.2958,M,M,M,290.00,11.00,M,29.85,M,6.00,M,OVC,M,M,M,499.00,M,M,M,-RA BR,KBLF 010415Z AUTO 29011KT 6SM -RA BR OVC004 A2985 RMK MADISHF
BLF,2017-04-01 04:20,-81.2077,37.2958,M,M,M,280.00,12.00,M,29.85,M,10.00,M,OVC,M,M,M,499.00,M,M,M,M,KBLF 010420Z AUTO 28012KT 10SM OVC004 A2985 RMK MADISHF
BLF,2017-04-01 04:25,-81.2077,37.2958,M,M,M,280.00,13.00,M,29.85,M,10.00,M,OVC,M,M,M,499.00,M,M,M,M,KBLF 010425Z AUTO 28013KT 10SM OVC004 A2985 RMK MADISHF
BLF,2017-04-01 04:30,-81.2077,37.2958,M,M,M,280.00,11.00,M,29.85,M,10.00,M,OVC,M,M,M,499.00,M,M,M,M,KBLF 010430Z AUTO 28011KT 10SM OVC004 A2985 RMK CIG 3V8  MADISHF
BLF,2017-04-01 04:35,-81.2077,37.2958,M,M,M,280.00,11.00,M,29.85,M,10.00,M,OVC,M,M,M,499.00,M,M,M,M,KBLF 010435Z AUTO 28011KT 10SM OVC004 A2985 RMK MADISHF
BLF,2017-04-01 04:40,-81.2077,37.2958,M,M,M,280.00,11.00,M,29.85,M,8.00,16.00,OVC,M,M,M,499.00,M,M,M,M,KBLF 010440Z AUTO 28011G16KT 8SM OVC004 A2985 RMK CIG 4V8  MADISHF
BLF,2017-04-01 04:45,-81.2077,37.2958,M,M,M,280.00,11.00,M,29.85,M,5.00,M,OVC,M,M,M,499.00,M,M,M,BR,KBLF 010445Z AUTO 28011KT 5SM BR OVC004 A2985 RMK MADISHF
BLF,2017-04-01 04:50,-81.2077,37.2958,M,M,M,280.00,10.00,M,29.85,M,5.00,18.00,OVC,M,M,M,499.00,M,M,M,BR,KBLF 010450Z AUTO 28010G18KT 5SM BR OVC004 A2985 RMK MADISHF
BLF,2017-04-01 04:52,-81.2077,37.2958,45.00,43.00,92.65,290.00,14.00,0.00,29.85,1009.70,5.00,18.00,OVC,M,M,M,500.00,M,M,M,BR,KBLF 010452Z AUTO 29014G18KT 5SM BR OVC005 07/06 A2985 RMK AO2 RAE18 CIG 004V007 SLP097 P0000 T00720061 401390072 TSNO
BLF,2017-04-01 04:55,-81.2077,37.2958,M,M,M,290.00,14.00,M,29.85,M,7.00,19.00,OVC,M,M,M,499.00,M,M,M,M,KBLF 010455Z AUTO 29014G19KT 7SM OVC004 A2985 RMK CIG 4V7  MADISHF
BLF,2017-04-01 05:00,-81.2077,37.2958,M,M,M,290.00,10.00,M,29.85,M,8.00,17.00,OVC,M,M,M,499.00,M,M,M,M,KBLF 010500Z AUTO 29010G17KT 8SM OVC004 A2985 RMK MADISHF
BLF,2017-04-01 05:05,-81.2077,37.2958,M,M,M,290.00,12.00,M,29.85,M,9.00,M,OVC,M,M,M,499.00,M,M,M,M,KBLF 010505Z AUTO 29012KT 9SM OVC004 A2985 RMK MADISHF
BLF,2017-04-01 05:10,-81.2077,37.2958,M,M,M,280.00,11.00,M,29.85,M,10.00,M,OVC,M,M,M,499.00,M,M,M,M,KBLF 010510Z AUTO 28011KT 10SM OVC004 A2985 RMK MADISHF
BLF,2017-04-01 05:15,-81.2077,37.2958,M,M,M,300.00,9.00,M,29.85,M,8.00,14.00,OVC,M,M,M,499.00,M,M,M,-RA,KBLF 010515Z AUTO 30009G14KT 8SM -RA OVC004 A2985 RMK MADISHF
BLF,2017-04-01 05:20,-81.2077,37.2958,M,M,M,290.00,10.00,M,29.85,M,6.00,17.00,OVC,M,M,M,499.00,M,M,M,-RA BR,KBLF 010520Z AUTO 29010G17KT 6SM -RA BR OVC004 A2985 RMK MADISHF
BLF,2017-04-01 05:25,-81.2077,37.2958,M,M,M,290.00,10.00,M,29.86,M,5.00,M,OVC,M,M,M,499.00,M,M,M,-RA BR,KBLF 010525Z AUTO 29010KT 5SM -RA BR OVC004 A2986 RMK CIG 4V9  MADISHF
BLF,2017-04-01 05:30,-81.2077,37.2958,M,M,M,290.00,10.00,M,29.86,M,5.00,16.00,OVC,M,M,M,499.00,M,M,M,-RA BR,KBLF 010530Z AUTO 29010G16KT 5SM -RA BR OVC004 A2986 RMK WND 26V32 CIG 3V9  MADISHF
BLF,2017-04-01 05:35,-81.2077,37.2958,M,M,M,290.00,13.00,0.01,29.86,M,6.00,M,OVC,M,M,M,499.00,M,M,M,-RA BR,KBLF 010535Z AUTO 29013KT 6SM -RA BR OVC004 A2986 RMK P0001 CIG 3V10  MADISHF
BLF,2017-04-01 05:40,-81.2077,37.2958,M,M,M,290.00,15.00,0.01,29.86,M,9.00,M,SCT,OVC,M,M,499.00,900.00,M,M,-RA,KBLF 010540Z AUTO 29015KT 9SM -RA SCT004 OVC009 A2986 RMK P0001 CIG 6V12  MADISHF
BLF,2017-04-01 05:45,-81.2077,37.2958,M,M,M,280.00,11.00,0.01,29.86,M,10.00,16.00,SCT,BKN,OVC,M,499.00,900.00,1500.00,M,M,KBLF 010545Z AUTO 28011G16KT 10SM SCT004 BKN009 OVC015 A2986 RMK P0001 CIG 6V12  MADISHF
BLF,2017-04-01 05:50,-81.2077,37.2958,M,M,M,280.00,12.00,0.01,29.86,M,10.00,19.00,BKN,OVC,M,M,499.00,900.00,M,M,M,KBLF 010550Z AUTO 28012G19KT 10SM BKN004 OVC009 A2986 RMK P0001 WND 25V32 CIG 3V8  MADISHF
BLF,2017-04-01 05:52,-81.2077,37.2958,45.00,42.10,89.49,290.00,14.00,0.01,29.86,1010.60,10.00,22.00,BKN,OVC,M,M,500.00,900.00,M,M,M,KBLF 010552Z AUTO 29014G22KT 10SM BKN005 OVC009 07/06 A2986 RMK AO2 RAB15E42 CIG 003V008 SLP106 P0001 60004 T00720056 10078 20072 53005 TSNO
BLF,2017-04-01 05:55,-81.2077,37.2958,M,M,M,290.00,12.00,M,29.86,M,10.00,M,OVC,M,M,M,700.00,M,M,M,M,KBLF 010555Z AUTO 29012KT 10SM OVC007 A2986 RMK CIG 3V12  MADISHF
BLF,2017-04-01 06:00,-81.2077,37.2958,M,M,M,280.00,12.00,M,29.87,M,10.00,M,OVC,M,M,M,700.00,M,M,M,M,KBLF 010600Z AUTO 28012KT 10SM OVC007 A2987 RMK CIG 4V12  MADISHF
BLF,2017-04-01 06:05,-81.2077,37.2958,M,M,M,290.00,12.00,M,29.87,M,8.00,M,OVC,M,M,M,700.00,M,M,M,M,KBLF 010605Z AUTO 29012KT 8SM OVC007 A2987 RMK CIG 5V11  MADISHF
BLF,2017-04-01 06:10,-81.2077,37.2958,M,M,M,290.00,10.00,M,29.87,M,6.00,15.00,BKN,OVC,M,M,700.00,999.00,M,M,-RA BR,KBLF 010610Z AUTO 29010G15KT 6SM -RA BR BKN007 OVC009 A2987 RMK CIG 5V8  MADISHF
BLF,2017-04-01 06:15,-81.2077,37.2958,M,M,M,300.00,10.00,M,29.87,M,5.00,16.00,OVC,M,M,M,700.00,M,M,M,-RA BR,KBLF 010615Z AUTO 30010G16KT 5SM -RA BR OVC007 A2987 RMK CIG 5V10  MADISHF
BLF,2017-04-01 06:20,-81.2077,37.2958,M,M,M,280.00,9.00,M,29.87,M,5.00,M,BKN,OVC,M,M,499.00,900.00,M,M,-RA BR,KBLF 010620Z AUTO 28009KT 5SM -RA BR BKN004 OVC009 A2987 RMK CIG 4V8  MADISHF
BLF,2017-04-01 06:25,-81.2077,37.2958,M,M,M,290.00,6.00,M,29.87,M,6.00,M,BKN,OVC,M,M,499.00,900.00,M,M,-RA BR,KBLF 010625Z AUTO 29006KT 6SM -RA BR BKN004 OVC009 A2987 RMK CIG 4V8  MADISHF
BLF,2017-04-01 06:30,-81.2077,37.2958,M,M,M,290.00,12.00,M,29.87,M,5.00,M,OVC,M,M,M,499.00,M,M,M,-RA BR,KBLF 010630Z AUTO 29012KT 5SM -RA BR OVC004 A2987 RMK CIG 3V8  MADISHF
BLF,2017-04-01 06:35,-81.2077,37.2958,M,M,M,290.00,8.00,M,29.87,M,4.00,M,OVC,M,M,M,499.00,M,M,M,-RA BR,KBLF 010635Z AUTO 29008KT 4SM -RA BR OVC004 A2987 RMK WND 25V32 CIG 3V6  MADISHF
BLF,2017-04-01 06:40,-81.2077,37.2958,M,M,M,280.00,10.00,M,29.87,M,5.00,M,OVC,M,M,M,400.00,M,M,M,-RA BR,KBLF 010640Z AUTO 28010KT 5SM -RA BR OVC004 A2987 RMK CIG 3V8  MADISHF
BLF,2017-04-01 06:45,-81.2077,37.2958,M,M,M,290.00,12.00,M,29.87,M,5.00,M,OVC,M,M,M,400.00,M,M,M,-RA BR,KBLF 010645Z AUTO 29012KT 5SM -RA BR OVC004 A2987 RMK MADISHF
BLF,2017-04-01 06:50,-81.2077,37.2958,M,M,M,290.00,12.00,M,29.87,M,6.00,M,OVC,M,M,M,400.00,M,M,M,-RA BR,KBLF 010650Z AUTO 29012KT 6SM -RA BR OVC004 A2987 RMK CIG 3V6  MADISHF
BLF,2017-04-01 06:52,-81.2077,37.2958,44.10,42.10,92.62,290.00,9.00,0.00,29.87,1010.90,6.00,18.00,OVC,M,M,M,400.00,M,M,M,BR,KBLF 010652Z AUTO 29009G18KT 6SM BR OVC004 07/06 A2987 RMK AO2 RAB10E52 SLP109 P0000 T00670056 TSNO
BLF,2017-04-01 06:55,-81.2077,37.2958,M,M,M,290.00,11.00,M,29.88,M,7.00,M,OVC,M,M,M,400.00,M,M,M,M,KBLF 010655Z AUTO 29011KT 7SM OVC004 A2988 RMK CIG 3V6  MADISHF
BLF,2017-04-01 07:00,-81.2077,37.2958,M,M,M,300.00,13.00,M,29.88,M,8.00,M,OVC,M,M,M,400.00,M,M,M,M,KBLF 010700Z AUTO 30013KT 8SM OVC004 A2988 RMK CIG 3V7  MADISHF
BLF,2017-04-01 07:05,-81.2077,37.2958,M,M,M,290.00,10.00,M,29.88,M,10.00,M,OVC,M,M,M,600.00,M,M,M,M,KBLF 010705Z AUTO 29010KT 10SM OVC006 A2988 RMK CIG 3V10  MADISHF
BLF,2017-04-01 07:10,-81.2077,37.2958,44.10,42.10,92.62,300.00,12.00,0.00,29.88,M,10.00,20.00,OVC,M,M,M,600.00,M,M,M,M,KBLF 010710Z AUTO 30012G20KT 10SM OVC006 07/06 A2988 RMK AO2 CIG 003V010 T00670056 TSNO
BLF,2017-04-01 07:15,-81.2077,37.2958,M,M,M,300.00,10.00,M,29.88,M,10.00,M,OVC,M,M,M,600.00,M,M,M,M,KBLF 010715Z AUTO 30010KT 10SM OVC006 A2988 RMK CIG 4V9  MADISHF
BLF,2017-04-01 07:20,-81.2077,37.2958,M,M,M,290.00,9.00,M,29.88,M,10.00,M,OVC,M,M,M,600.00,M,M,M,M,KBLF 010720Z AUTO 29009KT 10SM OVC006 A2988 RMK WND 26V32 CIG 4V9  MADISHF
BLF,2017-04-01 07:25,-81.2077,37.2958,M,M,M,290.00,13.00,M,29.89,M,10.00,M,OVC,M,M,M,600.00,M,M,M,M,KBLF 010725Z AUTO 29013KT 10SM OVC006 A2989 RMK CIG 5V9  MADISHF
BLF,2017-04-01 07:30,-81.2077,37.2958,M,M,M,300.00,10.00,M,29.89,M,10.00,M,OVC,M,M,M,600.00,M,M,M,M,KBLF 010730Z AUTO 30010KT 10SM OVC006 A2989 RMK CIG 4V9  MADISHF
BLF,2017-04-01 07:35,-81.2077,37.2958,M,M,M,280.00,10.00,M,29.89,M,10.00,M,OVC,M,M,M,600.00,M,M,M,M,KBLF 010735Z AUTO 28010KT 10SM OVC006 A2989 RMK CIG 4V9  MADISHF
BLF,2017-04-01 07:40,-81.2077,37.2958,M,M,M,300.00,12.00,M,29.89,M,10.00,M,OVC,M,M,M,499.00,M,M,M,M,KBLF 010740Z AUTO 30012KT 10SM OVC004 A2989 RMK CIG 4V9  MADISHF
BLF,2017-04-01 07:45,-81.2077,37.2958,M,M,M,290.00,12.00,M,29.89,M,10.00,18.00,OVC,M,M,M,499.00,M,M,M,M,KBLF 010745Z AUTO 29012G18KT 10SM OVC004 A2989 RMK CIG 4V8  MADISHF
BLF,2017-04-01 07:50,-81.2077,37.2958,M,M,M,290.00,9.00,M,29.90,M,10.00,M,OVC,M,M,M,499.00,M,M,M,M,KBLF 010750Z AUTO 29009KT 10SM OVC004 A2990 RMK MADISHF
BLF,2017-04-01 07:52,-81.2077,37.2958,44.10,42.10,92.62,290.00,12.00,0.00,29.90,1011.70,10.00,19.00,OVC,M,M,M,500.00,M,M,M,M,KBLF 010752Z AUTO 29012G19KT 10SM OVC005 07/06 A2990 RMK AO2 SLP117 T00670056 TSNO
BLF,2017-04-01 07:55,-81.2077,37.2958,M,M,M,300.00,10.00,M,29.90,M,10.00,M,OVC,M,M,M,499.00,M,M,M,M,KBLF 010755Z AUTO 30010KT 10SM OVC004 A2990 RMK MADISHF
BLF,2017-04-01 08:00,-81.2077,37.2958,M,M,M,300.00,10.00,M,29.90,M,8.00,15.00,OVC,M,M,M,499.00,M,M,M,-RA,KBLF 010800Z AUTO 30010G15KT 8SM -RA OVC004 A2990 RMK CIG 4V8  MADISHF
BLF,2017-04-01 08:05,-81.2077,37.2958,M,M,M,290.00,7.00,M,29.90,M,6.00,M,OVC,M,M,M,499.00,M,M,M,-RA BR,KBLF 010805Z AUTO 29007KT 6SM -RA BR OVC004 A2990 RMK CIG 4V8  MADISHF
BLF,2017-04-01 08:10,-81.2077,37.2958,M,M,M,290.00,7.00,M,29.91,M,5.00,M,OVC,M,M,M,499.00,M,M,M,-RA BR,KBLF 010810Z AUTO 29007KT 5SM -RA BR OVC004 A2991 RMK CIG 3V8  MADISHF
BLF,2017-04-01 08:15,-81.2077,37.2958,M,M,M,290.00,6.00,0.01,29.91,M,5.00,M,OVC,M,M,M,499.00,M,M,M,-RA BR,KBLF 010815Z AUTO 29006KT 5SM -RA BR OVC004 A2991 RMK P0001 VRB06G15KT CIG 3V8  MADISHF
BLF,2017-04-01 08:20,-81.2077,37.2958,M,M,M,290.00,10.00,0.01,29.91,M,5.00,M,OVC,M,M,M,499.00,M,M,M,-RA BR,KBLF 010820Z AUTO 29010KT 5SM -RA BR OVC004 A2991 RMK P0001 CIG 3V8  MADISHF
BLF,2017-04-01 08:25,-81.2077,37.2958,M,M,M,290.00,9.00,0.01,29.91,M,5.00,M,OVC,M,M,M,499.00,M,M,M,-RA BR,KBLF 010825Z AUTO 29009KT 5SM -RA BR OVC004 A2991 RMK P0001 CIG 3V8  MADISHF
BLF,2017-04-01 08:30,-81.2077,37.2958,M,M,M,280.00,7.00,0.01,29.91,M,5.00,M,OVC,M,M,M,400.00,M,M,M,-RA BR,KBLF 010830Z AUTO 28007KT 5SM -RA BR OVC004 A2991 RMK P0001 CIG 3V8  MADISHF
BLF,2017-04-01 08:34,-81.2077,37.2958,43.00,42.10,96.60,300.00,11.00,0.01,29.92,M,5.00,M,OVC,M,M,M,400.00,M,M,M,-RA BR,KBLF 010834Z AUTO 30011KT 5SM -RA BR OVC004 06/06 A2992 RMK AO2 RAB0759 P0001 T00610056 TSNO
BLF,2017-04-01 08:35,-81.2077,37.2958,M,M,M,290.00,10.00,0.01,29.92,M,6.00,M,OVC,M,M,M,400.00,M,M,M,-RA BR,KBLF 010835Z AUTO 29010KT 6SM -RA BR OVC004 A2992 RMK P0001 MADISHF
BLF,2017-04-01 08:40,-81.2077,37.2958,M,M,M,290.00,10.00,0.01,29.92,M,7.00,M,BKN,OVC,M,M,400.00,999.00,M,M,-RA,KBLF 010840Z AUTO 29010KT 7SM -RA BKN004 OVC009 A2992 RMK P0001 MADISHF
BLF,2017-04-01 08:45,-81.2077,37.2958,M,M,M,300.00,8.00,0.01,29.92,M,7.00,M,OVC,M,M,M,600.00,M,M,M,M,KBLF 010845Z AUTO 30008KT 7SM OVC006 A2992 RMK P0001 CIG 3V10  MADISHF
BLF,2017-04-01 08:50,-81.2077,37.2958,M,M,M,300.00,9.00,0.01,29.92,M,6.00,M,OVC,M,M,M,600.00,M,M,M,BR,KBLF 010850Z AUTO 30009KT 6SM BR OVC006 A2992 RMK P0001 CIG 4V10  MADISHF
BLF,2017-04-01 08:52,-81.2077,37.2958,43.00,42.10,96.60,300.00,9.00,0.01,29.92,1012.50,5.00,M,OVC,M,M,M,600.00,M,M,M,BR,KBLF 010852Z AUTO 30009KT 5SM BR OVC006 06/06 A2992 RMK AO2 RAB0759E42 CIG 004V010 SLP125 P0001 60001 T00610056 51015 TSNO
BLF,2017-04-01 08:55,-81.2077,37.2958,M,M,M,300.00,9.00,M,29.92,M,5.00,15.00,OVC,M,M,M,600.00,M,M,M,BR,KBLF 010855Z AUTO 30009G15KT 5SM BR OVC006 A2992 RMK CIG 4V10  MADISHF
BLF,2017-04-01 09:00,-81.2077,37.2958,M,M,M,310.00,11.00,M,29.92,M,5.00,M,BKN,OVC,M,M,600.00,999.00,M,M,-RA BR,KBLF 010900Z AUTO 31011KT 5SM -RA BR BKN006 OVC009 A2992 RMK CIG 3V7  MADISHF
BLF,2017-04-01 09:05,-81.2077,37.2958,M,M,M,280.00,8.00,M,29.92,M,5.00,M,OVC,M,M,M,600.00,M,M,M,-RA BR,KBLF 010905Z AUTO 28008KT 5SM -RA BR OVC006 A2992 RMK CIG 3V9  MADISHF
BLF,2017-04-01 09:10,-81.2077,37.2958,M,M,M,300.00,8.00,M,29.93,M,6.00,M,OVC,M,M,M,600.00,M,M,M,-RA BR,KBLF 010910Z AUTO 30008KT 6SM -RA BR OVC006 A2993 RMK CIG 3V9  MADISHF
BLF,2017-04-01 09:15,-81.2077,37.2958,M,M,M,290.00,9.00,M,29.93,M,6.00,M,OVC,M,M,M,499.00,M,M,M,-RA BR,KBLF 010915Z AUTO 29009KT 6SM -RA BR OVC004 A2993 RMK CIG 3V9  MADISHF
BLF,2017-04-01 09:20,-81.2077,37.2958,M,M,M,290.00,9.00,M,29.93,M,5.00,14.00,OVC,M,M,M,499.00,M,M,M,-RA BR,KBLF 010920Z AUTO 29009G14KT 5SM -RA BR OVC004 A2993 RMK MADISHF
BLF,2017-04-01 09:25,-81.2077,37.2958,M,M,M,290.00,6.00,M,29.93,M,5.00,M,OVC,M,M,M,499.00,M,M,M,-RA BR,KBLF 010925Z AUTO 29006KT 5SM -RA BR OVC004 A2993 RMK MADISHF
BLF,2017-04-01 09:30,-81.2077,37.2958,M,M,M,290.00,6.00,M,29.93,M,6.00,M,OVC,M,M,M,400.00,M,M,M,-RA BR,KBLF 010930Z AUTO 29006KT 6SM -RA BR OVC004 A2993 RMK MADISHF
BLF,2017-04-01 09:33,-81.2077,37.2958,43.00,42.10,96.60,290.00,9.00,0.00,29.94,M,6.00,M,OVC,M,M,M,400.00,M,M,M,-RA BR,KBLF 010933Z AUTO 29009KT 6SM -RA BR OVC004 06/06 A2994 RMK AO2 RAB0856 P0000 T00610056 TSNO
BLF,2017-04-01 09:35,-81.2077,37.2958,M,M,M,300.00,10.00,M,29.94,M,6.00,M,OVC,M,M,M,400.00,M,M,M,-RA BR,KBLF 010935Z AUTO 30010KT 6SM -RA BR OVC004 A2994 RMK MADISHF
BLF,2017-04-01 09:40,-81.2077,37.2958,M,M,M,290.00,8.00,0.01,29.94,M,6.00,M,OVC,M,M,M,400.00,M,M,M,-RA BR,KBLF 010940Z AUTO 29008KT 6SM -RA BR OVC004 A2994 RMK P0001 MADISHF
BLF,2017-04-01 09:45,-81.2077,37.2958,M,M,M,280.00,8.00,0.01,29.94,M,6.00,M,OVC,M,M,M,400.00,M,M,M,-RA BR,KBLF 010945Z AUTO 28008KT 6SM -RA BR OVC004 A2994 RMK P0001 WND 25V31  MADISHF
BLF,2017-04-01 09:50,-81.2077,37.2958,M,M,M,280.00,8.00,0.01,29.94,M,7.00,M,OVC,M,M,M,400.00,M,M,M,-RA,KBLF 010950Z AUTO 28008KT 7SM -RA OVC004 A2994 RMK P0001 MADISHF
BLF,2017-04-01 09:52,-81.2077,37.2958,43.00,42.10,96.60,280.00,10.00,0.01,29.94,1013.60,7.00,M,OVC,M,M,M,400.00,M,M,M,-RA,KBLF 010952Z AUTO 28010KT 7SM -RA OVC004 06/06 A2994 RMK AO2 RAB0856 SLP136 P0001 T00610056 TSNO
BLF,2017-04-01 09:55,-81.2077,37.2958,M,M,M,280.00,10.00,M,29.94,M,8.00,M,OVC,M,M,M,400.00,M,M,M,-RA,KBLF 010955Z AUTO 28010KT 8SM -RA OVC004 A2994 RMK MADISHF
BLF,2017-04-01 10:00,-81.2077,37.2958,M,M,M,280.00,8.00,M,29.95,M,9.00,M,OVC,M,M,M,400.00,M,M,M,-RA,KBLF 011000Z AUTO 28008KT 9SM -RA OVC004 A2995 RMK MADISHF
BLF,2017-04-01 10:05,-81.2077,37.2958,M,M,M,280.00,10.00,M,29.95,M,9.00,M,OVC,M,M,M,400.00,M,M,M,-RA,KBLF 011005Z AUTO 28010KT 9SM -RA OVC004 A2995 RMK MADISHF
BLF,2017-04-01 10:10,-81.2077,37.2958,M,M,M,300.00,8.00,M,29.95,M,7.00,M,OVC,M,M,M,400.00,M,M,M,M,KBLF 011010Z AUTO 30008KT 7SM OVC004 A2995 RMK MADISHF
BLF,2017-04-01 10:15,-81.2077,37.2958,M,M,M,290.00,7.00,M,29.95,M,6.00,M,OVC,M,M,M,400.00,M,M,M,BR,KBLF 011015Z AUTO 29007KT 6SM BR OVC004 A2995 RMK WND 26V32  MADISHF
BLF,2017-04-01 10:20,-81.2077,37.2958,M,M,M,290.00,8.00,M,29.95,M,6.00,M,OVC,M,M,M,400.00,M,M,M,-RA BR,KBLF 011020Z AUTO 29008KT 6SM -RA BR OVC004 A2995 RMK MADISHF
BLF,2017-04-01 10:25,-81.2077,37.2958,M,M,M,290.00,7.00,M,29.96,M,7.00,M,OVC,M,M,M,400.00,M,M,M,-RA,KBLF 011025Z AUTO 29007KT 7SM -RA OVC004 A2996 RMK MADISHF
BLF,2017-04-01 10:30,-81.2077,37.2958,M,M,M,280.00,8.00,M,29.96,M,7.00,M,OVC,M,M,M,400.00,M,M,M,M,KBLF 011030Z AUTO 28008KT 7SM OVC004 A2996 RMK MADISHF
BLF,2017-04-01 10:35,-81.2077,37.2958,M,M,M,290.00,7.00,M,29.96,M,6.00,M,OVC,M,M,M,400.00,M,M,M,BR,KBLF 011035Z AUTO 29007KT 6SM BR OVC004 A2996 RMK MADISHF
BLF,2017-04-01 10:40,-81.2077,37.2958,M,M,M,290.00,11.00,M,29.96,M,5.00,M,OVC,M,M,M,400.00,M,M,M,BR,KBLF 011040Z AUTO 29011KT 5SM BR OVC004 A2996 RMK MADISHF
BLF,2017-04-01 10:45,-81.2077,37.2958,M,M,M,280.00,9.00,M,29.96,M,6.00,M,OVC,M,M,M,400.00,M,M,M,BR,KBLF 011045Z AUTO 28009KT 6SM BR OVC004 A2996 RMK MADISHF
BLF,2017-04-01 10:50,-81.2077,37.2958,M,M,M,300.00,6.00,M,29.96,M,7.00,M,OVC,M,M,M,400.00,M,M,M,M,KBLF 011050Z AUTO 30006KT 7SM OVC004 A2996 RMK MADISHF
BLF,2017-04-01 10:52,-81.2077,37.2958,42.10,41.00,95.84,300.00,6.00,0.00,29.96,1014.40,7.00,M,OVC,M,M,M,400.00,M,M,M,M,KBLF 011052Z AUTO 30006KT 7SM OVC004 06/05 A2996 RMK AO2 RAE35 SLP144 P0000 T00560050 TSNO
BLF,2017-04-01 10:55,-81.2077,37.2958,M,M,M,280.00,8.00,M,29.97,M,7.00,M,OVC,M,M,M,400.00,M,M,M,M,KBLF 011055Z AUTO 28008KT 7SM OVC004 A2997 RMK MADISHF
BLF,2017-04-01 11:00,-81.2077,37.2958,M,M,M,290.00,7.00,M,29.97,M,7.00,M,OVC,M,M,M,400.00,M,M,M,M,KBLF 011100Z AUTO 29007KT 7SM OVC004 A2997 RMK MADISHF
BLF,2017-04-01 11:05,-81.2077,37.2958,M,M,M,290.00,8.00,M,29.97,M,6.00,M,OVC,M,M,M,400.00,M,M,M,BR,KBLF 011105Z AUTO 29008KT 6SM BR OVC004 A2997 RMK MADISHF
BLF,2017-04-01 11:10,-81.2077,37.2958,M,M,M,280.00,7.00,M,29.98,M,6.00,M,OVC,M,M,M,400.00,M,M,M,BR,KBLF 011110Z AUTO 28007KT 6SM BR OVC004 A2998 RMK CIG 4V9  MADISHF
BLF,2017-04-01 11:15,-81.2077,37.2958,M,M,M,290.00,8.00,M,29.98,M,6.00,M,OVC,M,M,M,400.00,M,M,M,BR,KBLF 011115Z AUTO 29008KT 6SM BR OVC004 A2998 RMK MADISHF
BLF,2017-04-01 11:20,-81.2077,37.2958,M,M,M,280.00,8.00,M,29.98,M,6.00,M,OVC,M,M,M,400.00,M,M,M,-RA BR,KBLF 011120Z AUTO 28008KT 6SM -RA BR OVC004 A2998 RMK MADISHF
BLF,2017-04-01 11:25,-81.2077,37.2958,M,M,M,300.00,7.00,M,29.98,M,5.00,M,OVC,M,M,M,400.00,M,M,M,-RA BR,KBLF 011125Z AUTO 30007KT 5SM -RA BR OVC004 A2998 RMK MADISHF
BLF,2017-04-01 11:30,-81.2077,37.2958,M,M,M,280.00,7.00,M,29.98,M,4.00,M,OVC,M,M,M,400.00,M,M,M,-RA BR,KBLF 011130Z AUTO 28007KT 4SM -RA BR OVC004 A2998 RMK CIG 3V8  MADISHF
BLF,2017-04-01 11:35,-81.2077,37.2958,M,M,M,280.00,7.00,M,29.98,M,4.00,M,OVC,M,M,M,400.00,M,M,M,-RA BR,KBLF 011135Z AUTO 28007KT 4SM -RA BR OVC004 A2998 RMK MADISHF
BLF,2017-04-01 11:40,-81.2077,37.2958,M,M,M,280.00,11.00,M,29.98,M,5.00,M,OVC,M,M,M,400.00,M,M,M,-RA BR,KBLF 011140Z AUTO 28011KT 5SM -RA BR OVC004 A2998 RMK CIG 3V8  MADISHF
BLF,2017-04-01 11:45,-81.2077,37.2958,M,M,M,280.00,8.00,M,29.99,M,6.00,M,OVC,M,M,M,400.00,M,M,M,BR,KBLF 011145Z AUTO 28008KT 6SM BR OVC004 A2999 RMK MADISHF
BLF,2017-04-01 11:50,-81.2077,37.2958,M,M,M,280.00,8.00,M,29.99,M,8.00,M,OVC,M,M,M,400.00,M,M,M,M,KBLF 011150Z AUTO 28008KT 8SM OVC004 A2999 RMK MADISHF
BLF,2017-04-01 11:52,-81.2077,37.2958,42.10,41.00,95.84,280.00,7.00,0.00,29.99,1015.30,8.00,M,OVC,M,M,M,400.00,M,M,M,M,KBLF 011152Z AUTO 28007KT 8SM OVC004 06/05 A2999 RMK AO2 RAB17E44 SLP153 P0000 60002 70021 T00560050 10072 20056 52020 TSNO
BLF,2017-04-01 11:55,-81.2077,37.2958,M,M,M,280.00,9.00,M,29.99,M,7.00,M,OVC,M,M,M,400.00,M,M,M,M,KBLF 011155Z AUTO 28009KT 7SM OVC004 A2999 RMK MADISHF
BLF,2017-04-01 12:00,-81.2077,37.2958,M,M,M,280.00,8.00,M,29.99,M,6.00,M,OVC,M,M,M,400.00,M,M,M,BR,KBLF 011200Z AUTO 28008KT 6SM BR OVC004 A2999 RMK MADISHF
BLF,2017-04-01 12:05,-81.2077,37.2958,M,M,M,290.00,9.00,M,29.99,M,5.00,M,OVC,M,M,M,400.00,M,M,M,BR,KBLF 011205Z AUTO 29009KT 5SM BR OVC004 A2999 RMK MADISHF
BLF,2017-04-01 12:10,-81.2077,37.2958,M,M,M,290.00,7.00,M,29.99,M,5.00,M,OVC,M,M,M,400.00,M,M,M,-RA BR,KBLF 011210Z AUTO 29007KT 5SM -RA BR OVC004 A2999 RMK MADISHF
BLF,2017-04-01 12:15,-81.2077,37.2958,M,M,M,290.00,10.00,M,30.00,M,6.00,M,OVC,M,M,M,400.00,M,M,M,BR,KBLF 011215Z AUTO 29010KT 6SM BR OVC004 A3000 RMK MADISHF
BLF,2017-04-01 12:20,-81.2077,37.2958,M,M,M,280.00,9.00,M,30.00,M,5.00,M,OVC,M,M,M,400.00,M,M,M,BR,KBLF 011220Z AUTO 28009KT 5SM BR OVC004 A3000 RMK MADISHF
BLF,2017-04-01 12:25,-81.2077,37.2958,M,M,M,280.00,8.00,M,30.00,M,4.00,M,OVC,M,M,M,400.00,M,M,M,BR,KBLF 011225Z AUTO 28008KT 4SM BR OVC004 A3000 RMK MADISHF
BLF,2017-04-01 12:30,-81.2077,37.2958,M,M,M,290.00,9.00,M,30.00,M,4.00,M,OVC,M,M,M,400.00,M,M,M,BR,KBLF 011230Z AUTO 29009KT 4SM BR OVC004 A3000 RMK MADISHF
BLF,2017-04-01 12:35,-81.2077,37.2958,M,M,M,290.00,5.00,M,30.00,M,5.00,M,OVC,M,M,M,400.00,M,M,M,BR,KBLF 011235Z AUTO 29005KT 5SM BR OVC004 A3000 RMK MADISHF
BLF,2017-04-01 12:40,-81.2077,37.2958,M,M,M,280.00,10.00,M,30.00,M,6.00,M,OVC,M,M,M,400.00,M,M,M,BR,KBLF 011240Z AUTO 28010KT 6SM BR OVC004 A3000 RMK CIG 3V9  MADISHF
BLF,2017-04-01 12:45,-81.2077,37.2958,M,M,M,280.00,8.00,M,30.00,M,5.00,M,OVC,M,M,M,400.00,M,M,M,-RA BR,KBLF 011245Z AUTO 28008KT 5SM -RA BR OVC004 A3000 RMK CIG 3V9  MADISHF
BLF,2017-04-01 12:50,-81.2077,37.2958,M,M,M,290.00,9.00,M,30.00,M,4.00,M,OVC,M,M,M,400.00,M,M,M,-RA BR,KBLF 011250Z AUTO 29009KT 4SM -RA BR OVC004 A3000 RMK CIG 3V8  MADISHF
BLF,2017-04-01 12:52,-81.2077,37.2958,43.00,41.00,92.58,290.00,7.00,0.00,30.01,1015.90,4.00,M,OVC,M,M,M,400.00,M,M,M,-RA BR,KBLF 011252Z AUTO 29007KT 4SM -RA BR OVC004 06/05 A3001 RMK AO2 RAB06E15B41 CIG 003V008 SLP159 P0000 T00610050 TSNO
BLF,2017-04-01 12:55,-81.2077,37.2958,M,M,M,290.00,6.00,M,30.01,M,5.00,M,OVC,M,M,M,400.00,M,M,M,-RA BR,KBLF 011255Z AUTO 29006KT 5SM -RA BR OVC004 A3001 RMK CIG 3V9  MADISHF
BLF,2017-04-01 13:00,-81.2077,37.2958,M,M,M,300.00,7.00,M,30.01,M,7.00,M,OVC,M,M,M,400.00,M,M,M,M,KBLF 011300Z AUTO 30007KT 7SM OVC004 A3001 RMK WND 27V33 CIG 3V8  MADISHF
BLF,2017-04-01 13:05,-81.2077,37.2958,M,M,M,300.00,10.00,M,30.01,M,6.00,M,BKN,OVC,M,M,400.00,900.00,M,M,BR,KBLF 011305Z AUTO 30010KT 6SM BR BKN004 OVC009 A3001 RMK MADISHF
BLF,2017-04-01 13:10,-81.2077,37.2958,M,M,M,300.00,8.00,M,30.01,M,4.00,M,BKN,OVC,M,M,400.00,900.00,M,M,BR,KBLF 011310Z AUTO 30008KT 4SM BR BKN004 OVC009 A3001 RMK MADISHF
BLF,2017-04-01 13:15,-81.2077,37.2958,M,M,M,310.00,8.00,M,30.01,M,4.00,M,BKN,OVC,M,M,400.00,1100.00,M,M,-RA BR,KBLF 011315Z AUTO 31008KT 4SM -RA BR BKN004 OVC011 A3001 RMK MADISHF
BLF,2017-04-01 13:20,-81.2077,37.2958,M,M,M,300.00,10.00,M,30.01,M,5.00,M,BKN,OVC,M,M,499.00,1100.00,M,M,-RA BR,KBLF 011320Z AUTO 30010KT 5SM -RA BR BKN004 OVC011 A3001 RMK MADISHF
BLF,2017-04-01 13:24,-81.2077,37.2958,43.00,41.00,92.58,300.00,8.00,0.00,30.01,M,10.00,M,BKN,OVC,M,M,500.00,1100.00,M,M,M,KBLF 011324Z AUTO 30008KT 10SM BKN005 OVC011 06/05 A3001 RMK AO2 RAE1256B12E22 P0000 T00610050 TSNO
BLF,2017-04-01 13:25,-81.2077,37.2958,M,M,M,300.00,8.00,M,30.01,M,10.00,M,BKN,OVC,M,M,499.00,1100.00,M,M,M,KBLF 011325Z AUTO 30008KT 10SM BKN004 OVC011 A3001 RMK MADISHF
BLF,2017-04-01 13:30,-81.2077,37.2958,M,M,M,310.00,10.00,M,30.01,M,10.00,M,BKN,OVC,M,M,499.00,1100.00,M,M,M,KBLF 011330Z AUTO 31010KT 10SM BKN004 OVC011 A3001 RMK MADISHF
BLF,2017-04-01 13:35,-81.2077,37.2958,M,M,M,290.00,10.00,M,30.01,M,10.00,M,OVC,M,M,M,499.00,M,M,M,M,KBLF 011335Z AUTO 29010KT 10SM OVC004 A3001 RMK MADISHF
BLF,2017-04-01 13:40,-81.2077,37.2958,M,M,M,300.00,10.00,M,30.01,M,10.00,M,OVC,M,M,M,499.00,M,M,M,M,KBLF 011340Z AUTO 30010KT 10SM OVC004 A3001 RMK MADISHF
BLF,2017-04-01 13:45,-81.2077,37.2958,M,M,M,300.00,8.00,M,30.01,M,10.00,M,BKN,OVC,M,M,499.00,900.00,M,M,M,KBLF 011345Z AUTO 30008KT 10SM BKN004 OVC009 A3001 RMK MADISHF
BLF,2017-04-01 13:50,-81.2077,37.2958,M,M,M,310.00,10.00,M,30.01,M,10.00,M,OVC,M,M,M,499.00,M,M,M,M,KBLF 011350Z AUTO 31010KT 10SM OVC004 A3001 RMK CIG 3V8  MADISHF
BLF,2017-04-01 13:52,-81.2077,37.2958,44.10,41.00,88.77,300.00,7.00,0.00,30.01,1015.90,10.00,15.00,OVC,M,M,M,500.00,M,M,M,M,KBLF 011352Z AUTO 30007G15KT 280V360 10SM OVC005 07/05 A3001 RMK AO2 RAE1256B12E22 CIG 003V008 SLP159 P0000 T00670050 TSNO
BLF,2017-04-01 13:55,-81.2077,37.2958,M,M,M,290.00,11.00,M,30.01,M,10.00,M,BKN,OVC,M,M,499.00,900.00,M,M,M,KBLF 011355Z AUTO 29011KT 10SM BKN004 OVC009 A3001 RMK CIG 3V8  MADISHF
BLF,2017-04-01 14:00,-81.2077,37.2958,M,M,M,300.00,10.00,M,30.01,M,10.00,M,BKN,OVC,M,M,499.00,2200.00,M,M,M,KBLF 011400Z AUTO 30010KT 10SM BKN004 OVC022 A3001 RMK CIG 3V9  MADISHF
BLF,2017-04-01 14:05,-81.2077,37.2958,M,M,M,300.00,10.00,M,30.02,M,10.00,M,BKN,OVC,M,M,700.00,2200.00,M,M,M,KBLF 011405Z AUTO 30010KT 10SM BKN007 OVC022 A3002 RMK CIG 3V12  MADISHF
BLF,2017-04-01 14:10,-81.2077,37.2958,M,M,M,290.00,8.00,M,30.02,M,9.00,M,BKN,OVC,M,M,700.00,1200.00,M,M,M,KBLF 011410Z AUTO 29008KT 9SM BKN007 OVC012 A3002 RMK CIG 4V10  MADISHF
BLF,2017-04-01 14:15,-81.2077,37.2958,M,M,M,300.00,10.00,M,30.03,M,9.00,M,BKN,BKN,OVC,M,700.00,1200.00,1800.00,M,M,KBLF 011415Z AUTO 30010KT 9SM BKN007 BKN012 OVC018 A3003 RMK CIG 4V9  MADISHF
BLF,2017-04-01 14:20,-81.2077,37.2958,M,M,M,300.00,10.00,M,30.03,M,9.00,15.00,BKN,BKN,OVC,M,700.00,1200.00,1999.00,M,M,KBLF 011420Z AUTO 30010G15KT 9SM BKN007 BKN012 OVC019 A3003 RMK CIG 4V11  MADISHF
BLF,2017-04-01 14:25,-81.2077,37.2958,M,M,M,300.00,12.00,M,30.03,M,10.00,M,BKN,BKN,OVC,M,700.00,1200.00,2300.00,M,M,KBLF 011425Z AUTO 30012KT 10SM BKN007 BKN012 OVC023 A3003 RMK MADISHF
BLF,2017-04-01 14:30,-81.2077,37.2958,M,M,M,290.00,10.00,M,30.04,M,10.00,15.00,BKN,BKN,OVC,M,700.00,1200.00,2500.00,M,M,KBLF 011430Z AUTO 29010G15KT 10SM BKN007 BKN012 OVC025 A3004 RMK MADISHF
BLF,2017-04-01 14:35,-81.2077,37.2958,M,M,M,290.00,12.00,M,30.04,M,10.00,17.00,BKN,BKN,OVC,M,700.00,1300.00,2300.00,M,M,KBLF 011435Z AUTO 29012G17KT 10SM BKN007 BKN013 OVC023 A3004 RMK MADISHF
BLF,2017-04-01 14:40,-81.2077,37.2958,M,M,M,300.00,11.00,M,30.04,M,10.00,M,BKN,BKN,OVC,M,700.00,1300.00,2500.00,M,M,KBLF 011440Z AUTO 30011KT 10SM BKN007 BKN013 OVC025 A3004 RMK MADISHF
BLF,2017-04-01 14:45,-81.2077,37.2958,M,M,M,290.00,7.00,M,30.04,M,6.00,M,BKN,BKN,OVC,M,800.00,1300.00,1999.00,M,BR,KBLF 011445Z AUTO 29007KT 6SM BR BKN008 BKN013 OVC019 A3004 RMK MADISHF
BLF,2017-04-01 14:50,-81.2077,37.2958,M,M,M,310.00,8.00,M,30.05,M,4.00,M,BKN,BKN,OVC,M,800.00,1300.00,1999.00,M,-RA BR,KBLF 011450Z AUTO 31008KT 4SM -RA BR BKN008 BKN013 OVC019 A3005 RMK MADISHF
BLF,2017-04-01 14:52,-81.2077,37.2958,44.10,42.10,92.62,310.00,9.00,0.00,30.05,1017.20,4.00,M,BKN,BKN,OVC,M,800.00,1700.00,2300.00,M,-RA BR,KBLF 011452Z AUTO 31009KT 4SM -RA BR BKN008 BKN017 OVC023 07/06 A3005 RMK AO2 RAB50 SLP172 P0000 60000 T00670056 53019 TSNO
BLF,2017-04-01 14:55,-81.2077,37.2958,M,M,M,310.00,10.00,M,30.05,M,3.50,M,BKN,OVC,M,M,800.00,1699.00,M,M,-RA BR,KBLF 011455Z AUTO 31010KT 3SM -RA BR BKN008 OVC016 A3005 RMK MADISHF
BLF,2017-04-01 15:00,-81.2077,37.2958,M,M,M,300.00,12.00,M,30.05,M,3.00,18.00,BKN,OVC,M,M,800.00,1699.00,M,M,-RA BR,KBLF 011500Z AUTO 30012G18KT 3SM -RA BR BKN008 OVC016 A3005 RMK MADISHF
BLF,2017-04-01 15:05,-81.2077,37.2958,M,M,M,300.00,12.00,M,30.05,M,2.50,17.00,BKN,BKN,OVC,M,600.00,1300.00,1699.00,M,-RA BR,KBLF 011505Z AUTO 30012G17KT 2 1/2SM -RA BR BKN006 BKN013 OVC016 A3005 RMK MADISHF
BLF,2017-04-01 15:09,-81.2077,37.2958,44.10,42.10,92.62,310.00,11.00,0.00,30.05,M,2.50,19.00,BKN,OVC,M,M,600.00,1300.00,M,M,-RA BR,KBLF 011509Z AUTO 31011G19KT 2 1/2SM -RA BR BKN006 OVC013 07/06 A3005 RMK AO2 P0000 T00670056 TSNO
BLF,2017-04-01 15:10,-81.2077,37.2958,M,M,M,300.00,12.00,M,30.05,M,3.00,M,BKN,OVC,M,M,600.00,1300.00,M,M,-RA BR,KBLF 011510Z AUTO 30012KT 3SM -RA BR BKN006 OVC013 A3005 RMK MADISHF
BLF,2017-04-01 15:15,-81.2077,37.2958,M,M,M,320.00,10.00,M,30.05,M,4.00,17.00,BKN,OVC,M,M,800.00,1300.00,M,M,BR,KBLF 011515Z AUTO 32010G17KT 4SM BR BKN008 OVC013 A3005 RMK WND 29V35  MADISHF
BLF,2017-04-01 15:16,-81.2077,37.2958,44.10,41.00,88.77,310.00,10.00,0.00,30.06,M,4.00,18.00,BKN,OVC,M,M,600.00,1300.00,M,M,BR,KBLF 011516Z AUTO 31010G18KT 4SM BR BKN006 OVC013 07/05 A3006 RMK AO2 RAE13 P0000 T00670050 TSNO
BLF,2017-04-01 15:20,-81.2077,37.2958,M,M,M,300.00,8.00,M,30.06,M,4.00,M,BKN,OVC,M,M,600.00,1300.00,M,M,-RA BR,KBLF 011520Z AUTO 30008KT 4SM -RA BR BKN006 OVC013 A3006 RMK MADISHF
BLF,2017-04-01 15:25,-81.2077,37.2958,M,M,M,310.00,7.00,M,30.06,M,5.00,M,BKN,OVC,M,M,600.00,1200.00,M,M,-RA BR,KBLF 011525Z AUTO 31007KT 5SM -RA BR BKN006 OVC012 A3006 RMK MADISHF
BLF,2017-04-01 15:30,-81.2077,37.2958,M,M,M,310.00,11.00,M,30.06,M,10.00,M,BKN,OVC,M,M,700.00,1200.00,M,M,M,KBLF 011530Z AUTO 31011KT 10SM BKN007 OVC012 A3006 RMK MADISHF
BLF,2017-04-01 15:35,-81.2077,37.2958,M,M,M,320.00,10.00,M,30.06,M,10.00,M,BKN,OVC,M,M,900.00,1200.00,M,M,M,KBLF 011535Z AUTO 32010KT 10SM BKN009 OVC012 A3006 RMK MADISHF
BLF,2017-04-01 15:40,-81.2077,37.2958,M,M,M,310.00,10.00,M,30.06,M,10.00,M,BKN,OVC,M,M,900.00,1200.00,M,M,M,KBLF 011540Z AUTO 31010KT 10SM BKN009 OVC012 A3006 RMK MADISHF
BLF,2017-04-01 15:45,-81.2077,37.2958,M,M,M,310.00,9.00,M,30.06,M,10.00,15.00,SCT,BKN,OVC,M,900.00,1200.00,1999.00,M,M,KBLF 011545Z AUTO 31009G15KT 10SM SCT009 BKN012 OVC019 A3006 RMK MADISHF
BLF,2017-04-01 15:50,-81.2077,37.2958,M,M,M,310.00,11.00,M,30.06,M,10.00,16.00,BKN,BKN,OVC,M,1100.00,1699.00,2300.00,M,M,KBLF 011550Z AUTO 31011G16KT 10SM BKN011 BKN016 OVC023 A3006 RMK MADISHF
BLF,2017-04-01 15:52,-81.2077,37.2958,45.00,39.90,82.19,300.00,10.00,0.00,30.06,1017.70,10.00,16.00,BKN,BKN,OVC,M,1100.00,1700.00,2300.00,M,M,KBLF 011552Z AUTO 30010G16KT 10SM BKN011 BKN017 OVC023 07/04 A3006 RMK AO2 RAE13B19E30 SLP177 P0000 T00720044 TSNO
BLF,2017-04-01 15:55,-81.2077,37.2958,M,M,M,320.00,11.00,M,30.06,M,10.00,16.00,BKN,OVC,M,M,1300.00,2100.00,M,M,M,KBLF 011555Z AUTO 32011G16KT 10SM BKN013 OVC021 A3006 RMK MADISHF
BLF,2017-04-01 16:00,-81.2077,37.2958,M,M,M,300.00,11.00,M,30.06,M,10.00,M,FEW,BKN,OVC,M,900.00,1300.00,2100.00,M,M,KBLF 011600Z AUTO 30011KT 10SM FEW009 BKN013 OVC021 A3006 RMK MADISHF
BLF,2017-04-01 16:01,-81.2077,37.2958,44.10,37.90,78.66,310.00,8.00,0.00,30.06,M,10.00,20.00,SCT,OVC,M,M,1300.00,1800.00,M,M,M,KBLF 011601Z AUTO 31008G20KT 10SM SCT013 OVC018 07/03 A3006 RMK AO2 T00670033 TSNO
BLF,2017-04-01 16:05,-81.2077,37.2958,M,M,M,310.00,10.00,M,30.06,M,10.00,M,BKN,OVC,M,M,1500.00,1999.00,M,M,M,KBLF 011605Z AUTO 31010KT 10SM BKN015 OVC019 A3006 RMK MADISHF
BLF,2017-04-01 16:10,-81.2077,37.2958,M,M,M,310.00,10.00,M,30.06,M,10.00,M,BKN,OVC,M,M,1500.00,1999.00,M,M,M,KBLF 011610Z AUTO 31010KT 10SM BKN015 OVC019 A3006 RMK MADISHF
BLF,2017-04-01 16:15,-81.2077,37.2958,M,M,M,320.00,11.00,M,30.06,M,10.00,17.00,BKN,OVC,M,M,1500.00,1999.00,M,M,M,KBLF 011615Z AUTO 32011G17KT 10SM BKN015 OVC019 A3006 RMK MADISHF
BLF,2017-04-01 16:20,-81.2077,37.2958,M,M,M,300.00,9.00,M,30.06,M,10.00,M,OVC,M,M,M,1500.00,M,M,M,M,KBLF 011620Z AUTO 30009KT 10SM OVC015 A3006 RMK MADISHF
BLF,2017-04-01 16:25,-81.2077,37.2958,M,M,M,310.00,9.00,M,30.06,M,10.00,M,OVC,M,M,M,1500.00,M,M,M,M,KBLF 011625Z AUTO 31009KT 10SM OVC015 A3006 RMK MADISHF
BLF,2017-04-01 16:30,-81.2077,37.2958,M,M,M,310.00,11.00,M,30.06,M,10.00,17.00,BKN,OVC,M,M,1500.00,2200.00,M,M,M,KBLF 011630Z AUTO 31011G17KT 10SM BKN015 OVC022 A3006 RMK WND 29V35  MADISHF
BLF,2017-04-01 16:35,-81.2077,37.2958,M,M,M,300.00,11.00,M,30.06,M,10.00,17.00,BKN,OVC,M,M,1500.00,2200.00,M,M,M,KBLF 011635Z AUTO 30011G17KT 10SM BKN015 OVC022 A3006 RMK MADISHF
BLF,2017-04-01 16:40,-81.2077,37.2958,M,M,M,350.00,9.00,M,30.07,M,10.00,M,BKN,OVC,M,M,1500.00,2200.00,M,M,M,KBLF 011640Z AUTO 35009KT 10SM BKN015 OVC022 A3007 RMK MADISHF
BLF,2017-04-01 16:45,-81.2077,37.2958,M,M,M,300.00,8.00,M,30.07,M,10.00,M,BKN,OVC,M,M,1500.00,2200.00,M,M,M,KBLF 011645Z AUTO 30008KT 10SM BKN015 OVC022 A3007 RMK MADISHF
BLF,2017-04-01 16:50,-81.2077,37.2958,M,M,M,310.00,7.00,M,30.07,M,10.00,M,BKN,OVC,M,M,1300.00,2200.00,M,M,M,KBLF 011650Z AUTO 31007KT 10SM BKN013 OVC022 A3007 RMK MADISHF
BLF,2017-04-01 16:52,-81.2077,37.2958,45.00,39.00,79.36,300.00,8.00,0.00,30.07,1017.90,10.00,M,BKN,OVC,M,M,1300.00,2000.00,M,M,M,KBLF 011652Z AUTO 30008KT 10SM BKN013 OVC020 07/04 A3007 RMK AO2 SLP179 T00720039 TSNO
BLF,2017-04-01 16:55,-81.2077,37.2958,M,M,M,320.00,7.00,M,30.07,M,10.00,M,BKN,OVC,M,M,1300.00,1999.00,M,M,-RA,KBLF 011655Z AUTO 32007KT 10SM -RA BKN013 OVC019 A3007 RMK WND 28V35  MADISHF
BLF,2017-04-01 17:00,-81.2077,37.2958,M,M,M,320.00,8.00,M,30.07,M,10.00,M,OVC,M,M,M,1300.00,M,M,M,-RA,KBLF 011700Z AUTO 32008KT 10SM -RA OVC013 A3007 RMK MADISHF
BLF,2017-04-01 17:05,-81.2077,37.2958,M,M,M,310.00,8.00,M,30.07,M,10.00,M,OVC,M,M,M,1300.00,M,M,M,M,KBLF 011705Z AUTO 31008KT 10SM OVC013 A3007 RMK MADISHF
BLF,2017-04-01 17:10,-81.2077,37.2958,M,M,M,300.00,8.00,M,30.07,M,8.00,M,OVC,M,M,M,1300.00,M,M,M,M,KBLF 011710Z AUTO 30008KT 8SM OVC013 A3007 RMK MADISHF
BLF,2017-04-01 17:15,-81.2077,37.2958,M,M,M,300.00,10.00,M,30.07,M,8.00,M,BKN,OVC,M,M,1100.00,1900.00,M,M,M,KBLF 011715Z AUTO 30010KT 8SM BKN011 OVC019 A3007 RMK MADISHF
BLF,2017-04-01 17:20,-81.2077,37.2958,M,M,M,300.00,9.00,M,30.07,M,10.00,M,BKN,OVC,M,M,1100.00,1900.00,M,M,M,KBLF 011720Z AUTO 30009KT 10SM BKN011 OVC019 A3007 RMK MADISHF
BLF,2017-04-01 17:25,-81.2077,37.2958,M,M,M,290.00,6.00,M,30.07,M,10.00,M,OVC,M,M,M,1100.00,M,M,M,M,KBLF 011725Z AUTO 29006KT 10SM OVC011 A3007 RMK MADISHF
BLF,2017-04-01 17:30,-81.2077,37.2958,M,M,M,290.00,8.00,M,30.07,M,10.00,M,OVC,M,M,M,1100.00,M,M,M,M,KBLF 011730Z AUTO 29008KT 10SM OVC011 A3007 RMK WND 26V33  MADISHF
BLF,2017-04-01 17:35,-81.2077,37.2958,M,M,M,320.00,9.00,M,30.07,M,10.00,M,BKN,OVC,M,M,1100.00,1900.00,M,M,M,KBLF 011735Z AUTO 32009KT 10SM BKN011 OVC019 A3007 RMK MADISHF
BLF,2017-04-01 17:40,-81.2077,37.2958,M,M,M,310.00,9.00,M,30.07,M,10.00,M,BKN,BKN,OVC,M,1200.00,1900.00,2300.00,M,M,KBLF 011740Z AUTO 31009KT 10SM BKN012 BKN019 OVC023 A3007 RMK WND 28V35  MADISHF
BLF,2017-04-01 17:45,-81.2077,37.2958,M,M,M,300.00,7.00,M,30.07,M,10.00,M,BKN,OVC,M,M,1200.00,1699.00,M,M,M,KBLF 011745Z AUTO 30007KT 10SM BKN012 OVC016 A3007 RMK MADISHF
BLF,2017-04-01 17:50,-81.2077,37.2958,M,M,M,330.00,8.00,M,30.07,M,10.00,M,OVC,M,M,M,1400.00,M,M,M,M,KBLF 011750Z AUTO 33008KT 10SM OVC014 A3007 RMK MADISHF
BLF,2017-04-01 17:52,-81.2077,37.2958,44.10,39.00,82.12,320.00,8.00,0.00,30.07,1018.10,10.00,M,OVC,M,M,M,1400.00,M,M,M,M,KBLF 011752Z AUTO 32008KT 10SM OVC014 07/04 A3007 RMK AO2 RAB1654E03 SLP181 P0000 60000 T00670039 10072 20056 51007 TSNO
BLF,2017-04-01 17:55,-81.2077,37.2958,M,M,M,340.00,6.00,M,30.07,M,10.00,M,OVC,M,M,M,1400.00,M,M,M,M,KBLF 011755Z AUTO 34006KT 10SM OVC014 A3007 RMK MADISHF
BLF,2017-04-01 18:00,-81.2077,37.2958,M,M,M,320.00,5.00,M,30.07,M,10.00,M,BKN,OVC,M,M,1200.00,1699.00,M,M,M,KBLF 011800Z AUTO 32005KT 10SM BKN012 OVC016 A3007 RMK VRB05KT  MADISHF
BLF,2017-04-01 18:05,-81.2077,37.2958,M,M,M,300.00,6.00,M,30.07,M,10.00,M,BKN,OVC,M,M,1200.00,1699.00,M,M,M,KBLF 011805Z AUTO 30006KT 10SM BKN012 OVC016 A3007 RMK MADISHF
BLF,2017-04-01 18:10,-81.2077,37.2958,M,M,M,310.00,7.00,M,30.07,M,10.00,M,OVC,M,M,M,1200.00,M,M,M,M,KBLF 011810Z AUTO 31007KT 10SM OVC012 A3007 RMK MADISHF
BLF,2017-04-01 18:15,-81.2077,37.2958,M,M,M,300.00,6.00,M,30.07,M,10.00,M,OVC,M,M,M,1200.00,M,M,M,M,KBLF 011815Z AUTO 30006KT 10SM OVC012 A3007 RMK VRB06KT  MADISHF
BLF,2017-04-01 18:20,-81.2077,37.2958,M,M,M,300.00,7.00,M,30.08,M,10.00,M,OVC,M,M,M,1200.00,M,M,M,M,KBLF 011820Z AUTO 30007KT 10SM OVC012 A3008 RMK MADISHF
BLF,2017-04-01 18:25,-81.2077,37.2958,M,M,M,310.00,9.00,M,30.08,M,10.00,M,OVC,M,M,M,1200.00,M,M,M,M,KBLF 011825Z AUTO 31009KT 10SM OVC012 A3008 RMK MADISHF
BLF,2017-04-01 18:30,-81.2077,37.2958,M,M,M,300.00,9.00,M,30.08,M,10.00,M,OVC,M,M,M,1200.00,M,M,M,M,KBLF 011830Z AUTO 30009KT 10SM OVC012 A3008 RMK MADISHF
BLF,2017-04-01 18:35,-81.2077,37.2958,M,M,M,310.00,9.00,M,30.08,M,10.00,15.00,OVC,M,M,M,1200.00,M,M,M,M,KBLF 011835Z AUTO 31009G15KT 10SM OVC012 A3008 RMK WND 27V36  MADISHF
BLF,2017-04-01 18:40,-81.2077,37.2958,M,M,M,330.00,9.00,M,30.08,M,10.00,M,OVC,M,M,M,1200.00,M,M,M,M,KBLF 011840Z AUTO 33009KT 10SM OVC012 A3008 RMK WND 30V01  MADISHF
BLF,2017-04-01 18:45,-81.2077,37.2958,M,M,M,320.00,6.00,M,30.08,M,10.00,M,OVC,M,M,M,1100.00,M,M,M,M,KBLF 011845Z AUTO 32006KT 10SM OVC011 A3008 RMK CIG 9V13  MADISHF
BLF,2017-04-01 18:50,-81.2077,37.2958,M,M,M,310.00,6.00,M,30.08,M,10.00,M,OVC,M,M,M,1100.00,M,M,M,M,KBLF 011850Z AUTO 31006KT 10SM OVC011 A3008 RMK CIG 9V15  MADISHF
BLF,2017-04-01 18:52,-81.2077,37.2958,43.00,39.00,85.66,300.00,8.00,0.00,30.08,1018.60,10.00,M,OVC,M,M,M,1100.00,M,M,M,M,KBLF 011852Z AUTO 30008KT 10SM OVC011 06/04 A3008 RMK AO2 SLP186 T00610039 TSNO
BLF,2017-04-01 18:55,-81.2077,37.2958,M,M,M,310.00,8.00,M,30.08,M,10.00,M,OVC,M,M,M,999.00,M,M,M,M,KBLF 011855Z AUTO 31008KT 10SM OVC009 A3008 RMK MADISHF
BLF,2017-04-01 19:00,-81.2077,37.2958,M,M,M,300.00,6.00,M,30.08,M,10.00,M,OVC,M,M,M,999.00,M,M,M,M,KBLF 011900Z AUTO 30006KT 10SM OVC009 A3008 RMK MADISHF
BLF,2017-04-01 19:05,-81.2077,37.2958,M,M,M,M,M,M,30.08,M,10.00,M,OVC,M,M,M,999.00,M,M,M,M,KBLF 011905Z AUTO /////KT 10SM OVC009 A3008 RMK MADISHF
BLF,2017-04-01 19:10,-81.2077,37.2958,M,M,M,300.00,9.00,M,30.08,M,10.00,M,OVC,M,M,M,999.00,M,M,M,M,KBLF 011910Z AUTO 30009KT 10SM OVC009 A3008 RMK MADISHF
BLF,2017-04-01 19:15,-81.2077,37.2958,M,M,M,300.00,7.00,M,30.07,M,10.00,M,OVC,M,M,M,999.00,M,M,M,M,KBLF 011915Z AUTO 30007KT 10SM OVC009 A3007 RMK CIG 9V14  MADISHF
BLF,2017-04-01 19:20,-81.2077,37.2958,M,M,M,300.00,6.00,M,30.07,M,10.00,M,OVC,M,M,M,999.00,M,M,M,M,KBLF 011920Z AUTO 30006KT 10SM OVC009 A3007 RMK MADISHF
BLF,2017-04-01 19:25,-81.2077,37.2958,M,M,M,300.00,6.00,M,30.07,M,10.00,M,OVC,M,M,M,1100.00,M,M,M,M,KBLF 011925Z AUTO 30006KT 10SM OVC011 A3007 RMK MADISHF
BLF,2017-04-01 19:30,-81.2077,37.2958,M,M,M,320.00,7.00,M,30.07,M,10.00,M,BKN,OVC,M,M,1100.00,1900.00,M,M,M,KBLF 011930Z AUTO 32007KT 10SM BKN011 OVC019 A3007 RMK MADISHF
BLF,2017-04-01 19:35,-81.2077,37.2958,M,M,M,330.00,7.00,M,30.07,M,10.00,M,BKN,OVC,M,M,1100.00,1900.00,M,M,M,KBLF 011935Z AUTO 33007KT 10SM BKN011 OVC019 A3007 RMK WND 30V36  MADISHF
BLF,2017-04-01 19:40,-81.2077,37.2958,M,M,M,300.00,9.00,M,30.08,M,10.00,M,OVC,M,M,M,1100.00,M,M,M,M,KBLF 011940Z AUTO 30009KT 10SM OVC011 A3008 RMK MADISHF
BLF,2017-04-01 19:45,-81.2077,37.2958,M,M,M,320.00,8.00,M,30.08,M,10.00,M,OVC,M,M,M,1200.00,M,M,M,M,KBLF 011945Z AUTO 32008KT 10SM OVC012 A3008 RMK MADISHF
BLF,2017-04-01 19:50,-81.2077,37.2958,M,M,M,320.00,8.00,M,30.08,M,10.00,M,OVC,M,M,M,1200.00,M,M,M,M,KBLF 011950Z AUTO 32008KT 10SM OVC012 A3008 RMK MADISHF
BLF,2017-04-01 19:52,-81.2077,37.2958,43.00,39.00,85.66,300.00,8.00,0.00,30.08,1018.50,10.00,14.00,BKN,OVC,M,M,1200.00,1800.00,M,M,M,KBLF 011952Z AUTO 30008G14KT 10SM BKN012 OVC018 06/04 A3008 RMK AO2 SLP185 T00610039 TSNO
BLF,2017-04-01 19:55,-81.2077,37.2958,M,M,M,320.00,8.00,M,30.08,M,10.00,M,BKN,OVC,M,M,1200.00,1800.00,M,M,M,KBLF 011955Z AUTO 32008KT 10SM BKN012 OVC018 A3008 RMK MADISHF
BLF,2017-04-01 20:00,-81.2077,37.2958,M,M,M,300.00,8.00,M,30.08,M,10.00,M,BKN,OVC,M,M,1200.00,1800.00,M,M,M,KBLF 012000Z AUTO 30008KT 10SM BKN012 OVC018 A3008 RMK MADISHF
BLF,2017-04-01 20:05,-81.2077,37.2958,M,M,M,310.00,10.00,M,30.08,M,10.00,M,OVC,M,M,M,1500.00,M,M,M,M,KBLF 012005Z AUTO 31010KT 10SM OVC015 A3008 RMK CIG 9V20  MADISHF
BLF,2017-04-01 20:10,-81.2077,37.2958,M,M,M,300.00,8.00,M,30.08,M,10.00,M,OVC,M,M,M,1500.00,M,M,M,M,KBLF 012010Z AUTO 30008KT 10SM OVC015 A3008 RMK MADISHF
BLF,2017-04-01 20:15,-81.2077,37.2958,M,M,M,320.00,10.00,M,30.09,M,10.00,M,OVC,M,M,M,1500.00,M,M,M,M,KBLF 012015Z AUTO 32010KT 10SM OVC015 A3009 RMK MADISHF
BLF,2017-04-01 20:20,-81.2077,37.2958,M,M,M,310.00,7.00,M,30.09,M,10.00,M,BKN,OVC,M,M,1300.00,1800.00,M,M,M,KBLF 012020Z AUTO 31007KT 10SM BKN013 OVC018 A3009 RMK MADISHF
BLF,2017-04-01 20:25,-81.2077,37.2958,M,M,M,310.00,9.00,M,30.09,M,10.00,M,BKN,OVC,M,M,999.00,1800.00,M,M,M,KBLF 012025Z AUTO 31009KT 10SM BKN009 OVC018 A3009 RMK CIG 9V13  MADISHF
BLF,2017-04-01 20:35,-81.2077,37.2958,M,M,M,320.00,9.00,M,30.09,M,10.00,M,BKN,OVC,M,M,999.00,1400.00,M,M,M,KBLF 012035Z AUTO 32009KT 10SM BKN009 OVC014 A3009 RMK CIG 8V11  MADISHF
BLF,2017-04-01 20:40,-81.2077,37.2958,M,M,M,320.00,8.00,M,30.10,M,10.00,M,OVC,M,M,M,999.00,M,M,M,M,KBLF 012040Z AUTO 32008KT 10SM OVC009 A3010 RMK WND 30V36 CIG 7V11  MADISHF
BLF,2017-04-01 20:45,-81.2077,37.2958,M,M,M,320.00,7.00,M,30.10,M,10.00,M,BKN,OVC,M,M,800.00,1200.00,M,M,M,KBLF 012045Z AUTO 32007KT 10SM BKN008 OVC012 A3010 RMK WND 30V36 CIG 6V10  MADISHF
BLF,2017-04-01 20:48,-81.2077,37.2958,42.80,37.40,81.07,300.00,7.00,0.00,30.10,M,10.00,M,OVC,M,M,M,800.00,M,M,M,M,KBLF 012048Z AUTO 30007KT 10SM OVC008 06/03 A3010 RMK AO2 CIG 006V011 TSNO
BLF,2017-04-01 20:50,-81.2077,37.2958,M,M,M,310.00,9.00,M,30.10,M,9.00,M,OVC,M,M,M,800.00,M,M,M,M,KBLF 012050Z AUTO 31009KT 9SM OVC008 A3010 RMK CIG 6V11  MADISHF
BLF,2017-04-01 20:52,-81.2077,37.2958,42.10,37.90,84.93,320.00,8.00,0.00,30.10,1019.20,8.00,M,OVC,M,M,M,700.00,M,M,M,M,KBLF 012052Z AUTO 32008KT 8SM OVC007 06/03 A3010 RMK AO2 CIG 006V011 SLP192 T00560033 53005 TSNO
BLF,2017-04-01 20:55,-81.2077,37.2958,M,M,M,300.00,8.00,M,30.10,M,8.00,M,OVC,M,M,M,700.00,M,M,M,M,KBLF 012055Z AUTO 30008KT 8SM OVC007 A3010 RMK MADISHF
BLF,2017-04-01 21:00,-81.2077,37.2958,M,M,M,300.00,5.00,M,30.10,M,8.00,M,OVC,M,M,M,700.00,M,M,M,M,KBLF 012100Z AUTO 30005KT 8SM OVC007 A3010 RMK MADISHF
BLF,2017-04-01 21:05,-81.2077,37.2958,M,M,M,310.00,6.00,M,30.10,M,10.00,M,OVC,M,M,M,700.00,M,M,M,M,KBLF 012105Z AUTO 31006KT 10SM OVC007 A3010 RMK CIG 6V12  MADISHF
BLF,2017-04-01 21:10,-81.2077,37.2958,M,M,M,330.00,6.00,M,30.10,M,10.00,M,OVC,M,M,M,700.00,M,M,M,M,KBLF 012110Z AUTO 33006KT 10SM OVC007 A3010 RMK CIG 6V12  MADISHF
BLF,2017-04-01 21:15,-81.2077,37.2958,M,M,M,290.00,8.00,M,30.11,M,9.00,M,OVC,M,M,M,800.00,M,M,M,M,KBLF 012115Z AUTO 29008KT 9SM OVC008 A3011 RMK WND 26V32  MADISHF
BLF,2017-04-01 21:20,-81.2077,37.2958,M,M,M,320.00,9.00,M,30.11,M,9.00,M,BKN,OVC,M,M,800.00,1300.00,M,M,M,KBLF 012120Z AUTO 32009KT 9SM BKN008 OVC013 A3011 RMK MADISHF
BLF,2017-04-01 21:25,-81.2077,37.2958,M,M,M,310.00,5.00,M,30.11,M,9.00,M,BKN,OVC,M,M,800.00,1300.00,M,M,M,KBLF 012125Z AUTO 31005KT 9SM BKN008 OVC013 A3011 RMK MADISHF
BLF,2017-04-01 21:30,-81.2077,37.2958,M,M,M,320.00,7.00,M,30.11,M,9.00,M,OVC,M,M,M,999.00,M,M,M,M,KBLF 012130Z AUTO 32007KT 9SM OVC009 A3011 RMK CIG 7V13  MADISHF
BLF,2017-04-01 21:35,-81.2077,37.2958,M,M,M,300.00,6.00,M,30.11,M,10.00,M,BKN,OVC,M,M,999.00,1500.00,M,M,M,KBLF 012135Z AUTO 30006KT 10SM BKN009 OVC015 A3011 RMK CIG 7V13  MADISHF
BLF,2017-04-01 21:39,-81.2077,37.2958,42.10,37.00,81.98,310.00,7.00,0.00,30.11,M,10.00,M,BKN,OVC,M,M,1000.00,1500.00,M,M,M,KBLF 012139Z AUTO 31007KT 10SM BKN010 OVC015 06/03 A3011 RMK AO2 CIG 007V013 T00560028 TSNO
BLF,2017-04-01 21:40,-81.2077,37.2958,M,M,M,310.00,8.00,M,30.11,M,10.00,M,SCT,OVC,M,M,999.00,1500.00,M,M,M,KBLF 012140Z AUTO 31008KT 10SM SCT009 OVC015 A3011 RMK MADISHF
BLF,2017-04-01 21:45,-81.2077,37.2958,M,M,M,320.00,6.00,M,30.12,M,10.00,M,FEW,OVC,M,M,999.00,1500.00,M,M,M,KBLF 012145Z AUTO 32006KT 10SM FEW009 OVC015 A3012 RMK MADISHF
BLF,2017-04-01 21:50,-81.2077,37.2958,M,M,M,310.00,7.00,M,30.12,M,10.00,M,FEW,OVC,M,M,800.00,1600.00,M,M,M,KBLF 012150Z AUTO 31007KT 10SM FEW008 OVC016 A3012 RMK MADISHF
BLF,2017-04-01 21:52,-81.2077,37.2958,42.10,37.00,81.98,M,5.00,0.00,30.12,1020.00,10.00,M,FEW,OVC,M,M,800.00,1600.00,M,M,M,KBLF 012152Z AUTO VRB05KT 10SM FEW008 OVC016 06/03 A3012 RMK AO2 SLP200 T00560028 TSNO
BLF,2017-04-01 21:55,-81.2077,37.2958,M,M,M,320.00,11.00,M,30.12,M,10.00,M,OVC,M,M,M,1600.00,M,M,M,M,KBLF 012155Z AUTO 32011KT 10SM OVC016 A3012 RMK MADISHF
BLF,2017-04-01 22:00,-81.2077,37.2958,M,M,M,310.00,7.00,M,30.12,M,10.00,M,OVC,M,M,M,1400.00,M,M,M,M,KBLF 012200Z AUTO 31007KT 10SM OVC014 A3012 RMK MADISHF
BLF,2017-04-01 22:02,-81.2077,37.2958,42.10,36.00,78.80,320.00,8.00,0.00,30.12,M,10.00,17.00,OVC,M,M,M,1400.00,M,M,M,M,KBLF 012202Z AUTO 32008G17KT 290V360 10SM OVC014 06/02 A3012 RMK AO2 T00560022 TSNO
BLF,2017-04-01 22:05,-81.2077,37.2958,M,M,M,300.00,9.00,M,30.12,M,10.00,M,OVC,M,M,M,1400.00,M,M,M,M,KBLF 012205Z AUTO 30009KT 10SM OVC014 A3012 RMK MADISHF
BLF,2017-04-01 22:10,-81.2077,37.2958,M,M,M,310.00,9.00,M,30.13,M,10.00,M,OVC,M,M,M,1500.00,M,M,M,M,KBLF 012210Z AUTO 31009KT 10SM OVC015 A3013 RMK MADISHF
BLF,2017-04-01 22:15,-81.2077,37.2958,M,M,M,290.00,9.00,M,30.13,M,10.00,M,OVC,M,M,M,1500.00,M,M,M,M,KBLF 012215Z AUTO 29009KT 10SM OVC015 A3013 RMK MADISHF
BLF,2017-04-01 22:16,-81.2077,37.2958,42.10,37.00,81.98,290.00,9.00,0.00,30.13,M,10.00,M,OVC,M,M,M,1500.00,M,M,M,M,KBLF 012216Z AUTO 29009KT 10SM OVC015 06/03 A3013 RMK AO2 T00560028 TSNO
BLF,2017-04-01 22:20,-81.2077,37.2958,M,M,M,300.00,9.00,M,30.13,M,10.00,M,OVC,M,M,M,1500.00,M,M,M,M,KBLF 012220Z AUTO 30009KT 10SM OVC015 A3013 RMK MADISHF
BLF,2017-04-01 22:25,-81.2077,37.2958,M,M,M,300.00,7.00,M,30.13,M,10.00,M,OVC,M,M,M,1699.00,M,M,M,M,KBLF 012225Z AUTO 30007KT 10SM OVC016 A3013 RMK MADISHF
BLF,2017-04-01 22:30,-81.2077,37.2958,M,M,M,290.00,8.00,M,30.13,M,10.00,M,SCT,OVC,M,M,1400.00,1999.00,M,M,M,KBLF 012230Z AUTO 29008KT 10SM SCT014 OVC019 A3013 RMK MADISHF
BLF,2017-04-01 22:35,-81.2077,37.2958,M,M,M,310.00,6.00,M,30.13,M,10.00,M,BKN,OVC,M,M,1600.00,1999.00,M,M,M,KBLF 012235Z AUTO 31006KT 10SM BKN016 OVC019 A3013 RMK MADISHF
BLF,2017-04-01 22:40,-81.2077,37.2958,M,M,M,290.00,9.00,M,30.13,M,10.00,M,OVC,M,M,M,1800.00,M,M,M,M,KBLF 012240Z AUTO 29009KT 10SM OVC018 A3013 RMK MADISHF
BLF,2017-04-01 22:45,-81.2077,37.2958,M,M,M,300.00,7.00,M,30.13,M,10.00,M,OVC,M,M,M,1800.00,M,M,M,M,KBLF 012245Z AUTO 30007KT 10SM OVC018 A3013 RMK MADISHF
BLF,2017-04-01 22:50,-81.2077,37.2958,M,M,M,300.00,6.00,M,30.13,M,10.00,M,OVC,M,M,M,1600.00,M,M,M,M,KBLF 012250Z AUTO 30006KT 10SM OVC016 A3013 RMK MADISHF
BLF,2017-04-01 22:52,-81.2077,37.2958,42.10,36.00,78.80,290.00,7.00,0.00,30.14,1020.70,10.00,M,OVC,M,M,M,1600.00,M,M,M,M,KBLF 012252Z AUTO 29007KT 10SM OVC016 06/02 A3014 RMK AO2 SLP207 T00560022 TSNO
BLF,2017-04-01 22:55,-81.2077,37.2958,M,M,M,310.00,7.00,M,30.14,M,10.00,M,OVC,M,M,M,1600.00,M,M,M,M,KBLF 012255Z AUTO 31007KT 10SM OVC016 A3014 RMK MADISHF
BLF,2017-04-01 23:00,-81.2077,37.2958,M,M,M,290.00,9.00,M,30.14,M,10.00,M,OVC,M,M,M,1600.00,M,M,M,M,KBLF 012300Z AUTO 29009KT 10SM OVC016 A3014 RMK MADISHF
BLF,2017-04-01 23:05,-81.2077,37.2958,M,M,M,300.00,8.00,M,30.14,M,10.00,M,OVC,M,M,M,1600.00,M,M,M,M,KBLF 012305Z AUTO 30008KT 10SM OVC016 A3014 RMK MADISHF
BLF,2017-04-01 23:10,-81.2077,37.2958,M,M,M,290.00,6.00,M,30.15,M,10.00,M,OVC,M,M,M,1800.00,M,M,M,M,KBLF 012310Z AUTO 29006KT 10SM OVC018 A3015 RMK MADISHF
BLF,2017-04-01 23:15,-81.2077,37.2958,M,M,M,310.00,6.00,M,30.15,M,10.00,M,OVC,M,M,M,1800.00,M,M,M,M,KBLF 012315Z AUTO 31006KT 10SM OVC018 A3015 RMK MADISHF
BLF,2017-04-01 23:20,-81.2077,37.2958,M,M,M,300.00,7.00,M,30.15,M,10.00,M,OVC,M,M,M,1800.00,M,M,M,M,KBLF 012320Z AUTO 30007KT 10SM OVC018 A3015 RMK MADISHF
BLF,2017-04-01 23:25,-81.2077,37.2958,M,M,M,290.00,5.00,M,30.15,M,10.00,M,OVC,M,M,M,1800.00,M,M,M,M,KBLF 012325Z AUTO 29005KT 10SM OVC018 A3015 RMK MADISHF
BLF,2017-04-01 23:30,-81.2077,37.2958,M,M,M,280.00,5.00,M,30.15,M,10.00,M,OVC,M,M,M,1999.00,M,M,M,M,KBLF 012330Z AUTO 28005KT 10SM OVC019 A3015 RMK MADISHF
BLF,2017-04-01 23:35,-81.2077,37.2958,M,M,M,280.00,4.00,M,30.15,M,10.00,M,OVC,M,M,M,1999.00,M,M,M,M,KBLF 012335Z AUTO 28004KT 10SM OVC019 A3015 RMK MADISHF
BLF,2017-04-01 23:40,-81.2077,37.2958,M,M,M,280.00,5.00,M,30.15,M,10.00,M,OVC,M,M,M,1900.00,M,M,M,M,KBLF 012340Z AUTO 28005KT 10SM OVC019 A3015 RMK MADISHF
BLF,2017-04-01 23:45,-81.2077,37.2958,M,M,M,300.00,7.00,M,30.15,M,10.00,M,OVC,M,M,M,1900.00,M,M,M,M,KBLF 012345Z AUTO 30007KT 10SM OVC019 A3015 RMK MADISHF
BLF,2017-04-01 23:50,-81.2077,37.2958,M,M,M,290.00,5.00,M,30.16,M,10.00,M,OVC,M,M,M,1900.00,M,M,M,M,KBLF 012350Z AUTO 29005KT 10SM OVC019 A3016 RMK MADISHF
BLF,2017-04-01 23:52,-81.2077,37.2958,42.10,36.00,78.80,300.00,5.00,0.00,30.15,1021.40,10.00,M,OVC,M,M,M,1900.00,M,M,M,M,KBLF 012352Z AUTO 30005KT 10SM OVC019 06/02 A3015 RMK AO2 SLP214 T00560022 10067 20056 51018 TSNO
BLF,2017-04-01 23:55,-81.2077,37.2958,M,M,M,280.00,5.00,M,30.15,M,10.00,M,OVC,M,M,M,1900.00,M,M,M,M,KBLF 012355Z AUTO 28005KT 10SM OVC019 A3015 RMK MADISHF
