#DEBUG: Format Typ    -> comma
#DEBUG: Time Period   -> 2017-04-01 00:00:00+00:00 2017-04-02 00:00:00+00:00
#DEBUG: Time Zone     -> Etc/UTC
#DEBUG: Data Contact   -> daryl herzmann akrherz@iastate.edu 515-294-5978
#DEBUG: Entries Found -> -1
station,valid,lon,lat,tmpf, dwpf, relh, drct, sknt, p01i, alti, mslp, vsby, gust, skyc1, skyc2, skyc3, skyc4, skyl1, skyl2, skyl3, skyl4, presentwx, metar
BLH,2017-04-01 00:00,-114.7169,33.6192,M,M,M,350.00,16.00,M,29.71,M,10.00,M,OVC,M,M,M,11000.00,M,M,M,M,KBLH 010000Z AUTO 35016KT 10SM OVC110 A2971 RMK MADISHF
BLH,2017-04-01 00:05,-114.7169,33.6192,M,M,M,360.00,17.00,M,29.71,M,10.00,M,OVC,M,M,M,10000.00,M,M,M,M,KBLH 010005Z AUTO 36017KT 10SM OVC100 A2971 RMK MADISHF
BLH,2017-04-01 00:10,-114.7169,33.6192,M,M,M,360.00,15.00,M,29.71,M,10.00,M,OVC,M,M,M,10000.00,M,M,M,M,KBLH 010010Z AUTO 36015KT 10SM OVC100 A2971 RMK MADISHF
BLH,2017-04-01 00:15,-114.7169,33.6192,M,M,M,350.00,13.00,M,29.72,M,10.00,M,OVC,M,M,M,10000.00,M,M,M,M,KBLH 010015Z AUTO 35013KT 10SM OVC100 A2972 RMK MADISHF
BLH,2017-04-01 00:20,-114.7169,33.6192,M,M,M,360.00,15.00,M,29.72,M,10.00,M,OVC,M,M,M,10000.00,M,M,M,M,KBLH 010020Z AUTO 36015KT 10SM OVC100 A2972 RMK MADISHF
BLH,2017-04-01 00:25,-114.7169,33.6192,M,M,M,360.00,15.00,M,29.72,M,10.00,M,OVC,M,M,M,10000.00,M,M,M,M,KBLH 010025Z AUTO 36015KT 10SM OVC100 A2972 RMK MADISHF
BLH,2017-04-01 00:30,-114.7169,33.6192,M,M,M,360.00,13.00,M,29.72,M,10.00,M,OVC,M,M,M,10000.00,M,M,M,M,KBLH 010030Z AUTO 36013KT 10SM OVC100 A2972 RMK MADISHF
BLH,2017-04-01 00:35,-114.7169,33.6192,M,M,M,360.00,12.00,M,29.72,M,10.00,M,OVC,M,M,M,11000.00,M,M,M,M,KBLH 010035Z AUTO 36012KT 10SM OVC110 A2972 RMK MADISHF
BLH,2017-04-01 00:40,-114.7169,33.6192,M,M,M,10.00,11.00,M,29.72,M,10.00,M,OVC,M,M,M,11000.00,M,M,M,M,KBLH 010040Z AUTO 01011KT 10SM OVC110 A2972 RMK MADISHF
BLH,2017-04-01 00:45,-114.7169,33.6192,M,M,M,360.00,11.00,M,29.72,M,10.00,M,BKN,M,M,M,11000.00,M,M,M,M,KBLH 010045Z AUTO 36011KT 10SM BKN110 A2972 RMK MADISHF
BLH,2017-04-01 00:50,-114.7169,33.6192,M,M,M,10.00,10.00,M,29.72,M,10.00,M,BKN,M,M,M,11000.00,M,M,M,M,KBLH 010050Z AUTO 01010KT 10SM BKN110 A2972 RMK MADISHF
BLH,2017-04-01 00:52,-114.7169,33.6192,73.00,27.00,17.99,10.00,9.00,0.00,29.72,1006.00,10.00,M,BKN,M,M,M,10000.00,M,M,M,M,KBLH 010052Z AUTO 01009KT 10SM BKN100 23/M03 A2972 RMK AO2 SLP060 T02281028
BLH,2017-04-01 00:55,-114.7169,33.6192,M,M,M,10.00,12.00,M,29.72,M,10.00,M,OVC,M,M,M,10000.00,M,M,M,M,KBLH 010055Z AUTO 01012KT 10SM OVC100 A2972 RMK MADISHF
BLH,2017-04-01 01:00,-114.7169,33.6192,M,M,M,20.00,10.00,M,29.72,M,10.00,M,OVC,M,M,M,10000.00,M,M,M,M,KBLH 010100Z AUTO 02010KT 10SM OVC100 A2972 RMK MADISHF
BLH,2017-04-01 01:05,-114.7169,33.6192,M,M,M,20.00,8.00,M,29.73,M,10.00,M,OVC,M,M,M,10000.00,M,M,M,M,KBLH 010105Z AUTO 02008KT 10SM OVC100 A2973 RMK MADISHF
BLH,2017-04-01 01:10,-114.7169,33.6192,M,M,M,30.00,9.00,M,29.73,M,10.00,M,OVC,M,M,M,10000.00,M,M,M,M,KBLH 010110Z AUTO 03009KT 10SM OVC100 A2973 RMK MADISHF
BLH,2017-04-01 01:15,-114.7169,33.6192,M,M,M,50.00,8.00,M,29.73,M,10.00,M,OVC,M,M,M,10000.00,M,M,M,M,KBLH 010115Z AUTO 05008KT 10SM OVC100 A2973 RMK MADISHF
BLH,2017-04-01 01:20,-114.7169,33.6192,M,M,M,60.00,9.00,M,29.73,M,10.00,M,OVC,M,M,M,10000.00,M,M,M,M,KBLH 010120Z AUTO 06009KT 10SM OVC100 A2973 RMK MADISHF
BLH,2017-04-01 01:25,-114.7169,33.6192,M,M,M,80.00,8.00,M,29.73,M,10.00,M,OVC,M,M,M,11000.00,M,M,M,M,KBLH 010125Z AUTO 08008KT 10SM OVC110 A2973 RMK MADISHF
BLH,2017-04-01 01:30,-114.7169,33.6192,M,M,M,80.00,9.00,M,29.73,M,10.00,M,OVC,M,M,M,11000.00,M,M,M,M,KBLH 010130Z AUTO 08009KT 10SM OVC110 A2973 RMK MADISHF
BLH,2017-04-01 01:35,-114.7169,33.6192,M,M,M,70.00,10.00,M,29.73,M,10.00,M,OVC,M,M,M,11000.00,M,M,M,M,KBLH 010135Z AUTO 07010KT 10SM OVC110 A2973 RMK MADISHF
BLH,2017-04-01 01:40,-114.7169,33.6192,M,M,M,60.00,6.00,M,29.73,M,10.00,M,OVC,M,M,M,10000.00,M,M,M,M,KBLH 010140Z AUTO 06006KT 10SM OVC100 A2973 RMK MADISHF
BLH,2017-04-01 01:45,-114.7169,33.6192,M,M,M,70.00,9.00,M,29.74,M,10.00,M,OVC,M,M,M,10000.00,M,M,M,M,KBLH 010145Z AUTO 07009KT 10SM OVC100 A2974 RMK MADISHF
BLH,2017-04-01 01:50,-114.7169,33.6192,M,M,M,50.00,7.00,M,29.74,M,10.00,M,OVC,M,M,M,10000.00,M,M,M,M,KBLH 010150Z AUTO 05007KT 10SM OVC100 A2974 RMK MADISHF
BLH,2017-04-01 01:52,-114.7169,33.6192,70.00,33.10,25.53,60.00,10.00,0.00,29.74,1006.50,10.00,M,OVC,M,M,M,10000.00,M,M,M,M,KBLH 010152Z AUTO 06010KT 10SM OVC100 21/01 A2974 RMK AO2 SLP065 T02110006
BLH,2017-04-01 01:55,-114.7169,33.6192,M,M,M,70.00,10.00,M,29.74,M,10.00,M,OVC,M,M,M,10000.00,M,M,M,M,KBLH 010155Z AUTO 07010KT 10SM OVC100 A2974 RMK MADISHF
BLH,2017-04-01 02:00,-114.7169,33.6192,M,M,M,60.00,9.00,M,29.74,M,10.00,M,OVC,M,M,M,10000.00,M,M,M,M,KBLH 010200Z AUTO 06009KT 10SM OVC100 A2974 RMK MADISHF
BLH,2017-04-01 02:05,-114.7169,33.6192,M,M,M,60.00,9.00,M,29.74,M,10.00,M,OVC,M,M,M,10000.00,M,M,M,M,KBLH 010205Z AUTO 06009KT 10SM OVC100 A2974 RMK MADISHF
BLH,2017-04-01 02:10,-114.7169,33.6192,M,M,M,70.00,10.00,M,29.75,M,10.00,M,OVC,M,M,M,10000.00,M,M,M,M,KBLH 010210Z AUTO 07010KT 10SM OVC100 A2975 RMK MADISHF
BLH,2017-04-01 02:15,-114.7169,33.6192,M,M,M,70.00,10.00,M,29.75,M,10.00,M,OVC,M,M,M,11000.00,M,M,M,M,KBLH 010215Z AUTO 07010KT 10SM OVC110 A2975 RMK MADISHF
BLH,2017-04-01 02:20,-114.7169,33.6192,M,M,M,40.00,7.00,M,29.75,M,10.00,M,OVC,M,M,M,11000.00,M,M,M,M,KBLH 010220Z AUTO 04007KT 10SM OVC110 A2975 RMK MADISHF
BLH,2017-04-01 02:25,-114.7169,33.6192,M,M,M,80.00,5.00,M,29.75,M,10.00,M,OVC,M,M,M,11000.00,M,M,M,M,KBLH 010225Z AUTO 08005KT 10SM OVC110 A2975 RMK MADISHF
BLH,2017-04-01 02:30,-114.7169,33.6192,M,M,M,70.00,10.00,M,29.75,M,10.00,M,OVC,M,M,M,11000.00,M,M,M,M,KBLH 010230Z AUTO 07010KT 10SM OVC110 A2975 RMK MADISHF
BLH,2017-04-01 02:35,-114.7169,33.6192,M,M,M,70.00,8.00,M,29.75,M,10.00,M,OVC,M,M,M,10000.00,M,M,M,M,KBLH 010235Z AUTO 07008KT 10SM OVC100 A2975 RMK MADISHF
BLH,2017-04-01 02:40,-114.7169,33.6192,M,M,M,80.00,6.00,M,29.76,M,10.00,M,OVC,M,M,M,10000.00,M,M,M,M,KBLH 010240Z AUTO 08006KT 10SM OVC100 A2976 RMK MADISHF
BLH,2017-04-01 02:45,-114.7169,33.6192,M,M,M,80.00,5.00,M,29.76,M,10.00,M,OVC,M,M,M,10000.00,M,M,M,M,KBLH 010245Z AUTO 08005KT 10SM OVC100 A2976 RMK MADISHF
BLH,2017-04-01 02:50,-114.7169,33.6192,M,M,M,60.00,4.00,M,29.76,M,10.00,M,BKN,M,M,M,10000.00,M,M,M,M,KBLH 010250Z AUTO 06004KT 10SM BKN100 A2976 RMK MADISHF
BLH,2017-04-01 02:52,-114.7169,33.6192,68.00,34.00,28.34,70.00,5.00,0.00,29.76,1007.30,10.00,M,BKN,M,M,M,10000.00,M,M,M,M,KBLH 010252Z AUTO 07005KT 10SM BKN100 20/01 A2976 RMK AO2 SLP073 T02000011 53017
BLH,2017-04-01 02:55,-114.7169,33.6192,M,M,M,80.00,7.00,M,29.76,M,10.00,M,BKN,M,M,M,10000.00,M,M,M,M,KBLH 010255Z AUTO 08007KT 10SM BKN100 A2976 RMK MADISHF
BLH,2017-04-01 03:00,-114.7169,33.6192,M,M,M,80.00,7.00,M,29.76,M,10.00,M,SCT,M,M,M,10000.00,M,M,M,M,KBLH 010300Z AUTO 08007KT 10SM SCT100 A2976 RMK MADISHF
BLH,2017-04-01 03:05,-114.7169,33.6192,M,M,M,80.00,7.00,M,29.76,M,10.00,M,SCT,M,M,M,10000.00,M,M,M,M,KBLH 010305Z AUTO 08007KT 10SM SCT100 A2976 RMK MADISHF
BLH,2017-04-01 03:10,-114.7169,33.6192,M,M,M,80.00,7.00,M,29.77,M,10.00,M,FEW,M,M,M,10000.00,M,M,M,M,KBLH 010310Z AUTO 08007KT 10SM FEW100 A2977 RMK MADISHF
BLH,2017-04-01 03:15,-114.7169,33.6192,M,M,M,70.00,6.00,M,29.77,M,10.00,M,CLR,M,M,M,M,M,M,M,M,KBLH 010315Z AUTO 07006KT 10SM CLR A2977 RMK MADISHF
BLH,2017-04-01 03:20,-114.7169,33.6192,M,M,M,80.00,6.00,M,29.77,M,10.00,M,CLR,M,M,M,M,M,M,M,M,KBLH 010320Z AUTO 08006KT 10SM CLR A2977 RMK MADISHF
BLH,2017-04-01 03:25,-114.7169,33.6192,M,M,M,80.00,6.00,M,29.77,M,10.00,M,CLR,M,M,M,M,M,M,M,M,KBLH 010325Z AUTO 08006KT 10SM CLR A2977 RMK MADISHF
BLH,2017-04-01 03:30,-114.7169,33.6192,M,M,M,70.00,6.00,M,29.77,M,10.00,M,CLR,M,M,M,M,M,M,M,M,KBLH 010330Z AUTO 07006KT 10SM CLR A2977 RMK MADISHF
BLH,2017-04-01 03:35,-114.7169,33.6192,M,M,M,70.00,5.00,M,29.78,M,10.00,M,CLR,M,M,M,M,M,M,M,M,KBLH 010335Z AUTO 07005KT 10SM CLR A2978 RMK MADISHF
BLH,2017-04-01 03:40,-114.7169,33.6192,M,M,M,80.00,5.00,M,29.78,M,10.00,M,CLR,M,M,M,M,M,M,M,M,KBLH 010340Z AUTO 08005KT 10SM CLR A2978 RMK MADISHF
BLH,2017-04-01 03:45,-114.7169,33.6192,M,M,M,80.00,6.00,M,29.78,M,10.00,M,CLR,M,M,M,M,M,M,M,M,KBLH 010345Z AUTO 08006KT 10SM CLR A2978 RMK MADISHF
BLH,2017-04-01 03:50,-114.7169,33.6192,M,M,M,70.00,6.00,M,29.78,M,10.00,M,CLR,M,M,M,M,M,M,M,M,KBLH 010350Z AUTO 07006KT 10SM CLR A2978 RMK MADISHF
BLH,2017-04-01 03:52,-114.7169,33.6192,64.00,35.10,34.02,80.00,6.00,0.00,29.78,1008.00,10.00,M,CLR,M,M,M,M,M,M,M,M,KBLH 010352Z AUTO 08006KT 10SM CLR 18/02 A2978 RMK AO2 SLP080 T01780017
BLH,2017-04-01 03:55,-114.7169,33.6192,M,M,M,80.00,6.00,M,29.78,M,10.00,M,CLR,M,M,M,M,M,M,M,M,KBLH 010355Z AUTO 08006KT 10SM CLR A2978 RMK MADISHF
BLH,2017-04-01 04:00,-114.7169,33.6192,M,M,M,70.00,5.00,M,29.78,M,10.00,M,CLR,M,M,M,M,M,M,M,M,KBLH 010400Z AUTO 07005KT 10SM CLR A2978 RMK MADISHF
BLH,2017-04-01 04:05,-114.7169,33.6192,M,M,M,80.00,6.00,M,29.79,M,10.00,M,CLR,M,M,M,M,M,M,M,M,KBLH 010405Z AUTO 08006KT 10SM CLR A2979 RMK MADISHF
BLH,2017-04-01 04:10,-114.7169,33.6192,M,M,M,80.00,6.00,M,29.79,M,10.00,M,CLR,M,M,M,M,M,M,M,M,KBLH 010410Z AUTO 08006KT 10SM CLR A2979 RMK MADISHF
BLH,2017-04-01 04:15,-114.7169,33.6192,M,M,M,80.00,6.00,M,29.79,M,10.00,M,CLR,M,M,M,M,M,M,M,M,KBLH 010415Z AUTO 08006KT 10SM CLR A2979 RMK MADISHF
BLH,2017-04-01 04:20,-114.7169,33.6192,M,M,M,90.00,6.00,M,29.79,M,10.00,M,CLR,M,M,M,M,M,M,M,M,KBLH 010420Z AUTO 09006KT 10SM CLR A2979 RMK MADISHF
BLH,2017-04-01 04:25,-114.7169,33.6192,M,M,M,80.00,6.00,M,29.79,M,10.00,M,CLR,M,M,M,M,M,M,M,M,KBLH 010425Z AUTO 08006KT 10SM CLR A2979 RMK MADISHF
BLH,2017-04-01 04:30,-114.7169,33.6192,M,M,M,80.00,6.00,M,29.79,M,10.00,M,CLR,M,M,M,M,M,M,M,M,KBLH 010430Z AUTO 08006KT 10SM CLR A2979 RMK MADISHF
BLH,2017-04-01 04:35,-114.7169,33.6192,M,M,M,80.00,6.00,M,29.79,M,10.00,M,CLR,M,M,M,M,M,M,M,M,KBLH 010435Z AUTO 08006KT 10SM CLR A2979 RMK MADISHF
BLH,2017-04-01 04:40,-114.7169,33.6192,M,M,M,80.00,6.00,M,29.80,M,10.00,M,CLR,M,M,M,M,M,M,M,M,KBLH 010440Z AUTO 08006KT 10SM CLR A2980 RMK MADISHF
BLH,2017-04-01 04:45,-114.7169,33.6192,M,M,M,80.00,5.00,M,29.80,M,10.00,M,CLR,M,M,M,M,M,M,M,M,KBLH 010445Z AUTO 08005KT 10SM CLR A2980 RMK MADISHF
BLH,2017-04-01 04:50,-114.7169,33.6192,M,M,M,70.00,5.00,M,29.80,M,10.00,M,CLR,M,M,M,M,M,M,M,M,KBLH 010450Z AUTO 07005KT 10SM CLR A2980 RMK MADISHF
BLH,2017-04-01 04:52,-114.7169,33.6192,62.10,35.10,36.37,70.00,5.00,0.00,29.80,1008.60,10.00,M,CLR,M,M,M,M,M,M,M,M,KBLH 010452Z AUTO 07005KT 10SM CLR 17/02 A2980 RMK AO2 SLP086 T01670017
BLH,2017-04-01 04:55,-114.7169,33.6192,M,M,M,70.00,5.00,M,29.80,M,10.00,M,CLR,M,M,M,M,M,M,M,M,KBLH 010455Z AUTO 07005KT 10SM CLR A2980 RMK MADISHF
BLH,2017-04-01 05:00,-114.7169,33.6192,M,M,M,70.00,5.00,M,29.80,M,10.00,M,CLR,M,M,M,M,M,M,M,M,KBLH 010500Z AUTO 07005KT 10SM CLR A2980 RMK MADISHF
BLH,2017-04-01 05:05,-114.7169,33.6192,M,M,M,70.00,4.00,M,29.80,M,10.00,M,CLR,M,M,M,M,M,M,M,M,KBLH 010505Z AUTO 07004KT 10SM CLR A2980 RMK MADISHF
BLH,2017-04-01 05:10,-114.7169,33.6192,M,M,M,70.00,4.00,M,29.80,M,10.00,M,CLR,M,M,M,M,M,M,M,M,KBLH 010510Z AUTO 07004KT 10SM CLR A2980 RMK MADISHF
BLH,2017-04-01 05:15,-114.7169,33.6192,M,M,M,0.00,0.00,M,29.80,M,10.00,M,CLR,M,M,M,M,M,M,M,M,KBLH 010515Z AUTO 00000KT 10SM CLR A2980 RMK MADISHF
BLH,2017-04-01 05:20,-114.7169,33.6192,M,M,M,0.00,0.00,M,29.80,M,10.00,M,CLR,M,M,M,M,M,M,M,M,KBLH 010520Z AUTO 00000KT 10SM CLR A2980 RMK MADISHF
BLH,2017-04-01 05:25,-114.7169,33.6192,M,M,M,0.00,0.00,M,29.80,M,10.00,M,CLR,M,M,M,M,M,M,M,M,KBLH 010525Z AUTO 00000KT 10SM CLR A2980 RMK MADISHF
BLH,2017-04-01 05:30,-114.7169,33.6192,M,M,M,0.00,0.00,M,29.80,M,10.00,M,CLR,M,M,M,M,M,M,M,M,KBLH 010530Z AUTO 00000KT 10SM CLR A2980 RMK MADISHF
BLH,2017-04-01 05:35,-114.7169,33.6192,M,M,M,0.00,0.00,M,29.81,M,10.00,M,CLR,M,M,M,M,M,M,M,M,KBLH 010535Z AUTO 00000KT 10SM CLR A2981 RMK MADISHF
BLH,2017-04-01 05:40,-114.7169,33.6192,M,M,M,250.00,6.00,M,29.81,M,10.00,M,CLR,M,M,M,M,M,M,M,M,KBLH 010540Z AUTO 25006KT 10SM CLR A2981 RMK MADISHF
BLH,2017-04-01 05:45,-114.7169,33.6192,M,M,M,260.00,7.00,M,29.81,M,10.00,M,CLR,M,M,M,M,M,M,M,M,KBLH 010545Z AUTO 26007KT 10SM CLR A2981 RMK MADISHF
BLH,2017-04-01 05:50,-114.7169,33.6192,M,M,M,260.00,6.00,M,29.81,M,10.00,M,CLR,M,M,M,M,M,M,M,M,KBLH 010550Z AUTO 26006KT 10SM CLR A2981 RMK MADISHF
BLH,2017-04-01 05:52,-114.7169,33.6192,62.10,35.10,36.37,270.00,6.00,0.00,29.81,1009.00,10.00,M,CLR,M,M,M,M,M,M,M,M,KBLH 010552Z AUTO 27006KT 10SM CLR 17/02 A2981 RMK AO2 SLP090 T01670017 10233 20156 51017
BLH,2017-04-01 05:55,-114.7169,33.6192,M,M,M,270.00,6.00,M,29.81,M,10.00,M,CLR,M,M,M,M,M,M,M,M,KBLH 010555Z AUTO 27006KT 10SM CLR A2981 RMK MADISHF
BLH,2017-04-01 06:00,-114.7169,33.6192,M,M,M,270.00,4.00,M,29.81,M,10.00,M,CLR,M,M,M,M,M,M,M,M,KBLH 010600Z AUTO 27004KT 10SM CLR A2981 RMK MADISHF
BLH,2017-04-01 06:05,-114.7169,33.6192,M,M,M,260.00,5.00,M,29.81,M,10.00,M,CLR,M,M,M,M,M,M,M,M,KBLH 010605Z AUTO 26005KT 10SM CLR A2981 RMK MADISHF
BLH,2017-04-01 06:10,-114.7169,33.6192,M,M,M,260.00,5.00,M,29.81,M,10.00,M,CLR,M,M,M,M,M,M,M,M,KBLH 010610Z AUTO 26005KT 10SM CLR A2981 RMK MADISHF
BLH,2017-04-01 06:15,-114.7169,33.6192,M,M,M,250.00,5.00,M,29.81,M,10.00,M,CLR,M,M,M,M,M,M,M,M,KBLH 010615Z AUTO 25005KT 10SM CLR A2981 RMK MADISHF
BLH,2017-04-01 06:20,-114.7169,33.6192,M,M,M,240.00,4.00,M,29.81,M,10.00,M,CLR,M,M,M,M,M,M,M,M,KBLH 010620Z AUTO 24004KT 10SM CLR A2981 RMK MADISHF
BLH,2017-04-01 06:25,-114.7169,33.6192,M,M,M,250.00,5.00,M,29.82,M,10.00,M,FEW,M,M,M,10000.00,M,M,M,M,KBLH 010625Z AUTO 25005KT 10SM FEW100 A2982 RMK MADISHF
BLH,2017-04-01 06:30,-114.7169,33.6192,M,M,M,260.00,6.00,M,29.82,M,10.00,M,SCT,M,M,M,10000.00,M,M,M,M,KBLH 010630Z AUTO 26006KT 10SM SCT100 A2982 RMK MADISHF
BLH,2017-04-01 06:35,-114.7169,33.6192,M,M,M,260.00,5.00,M,29.82,M,10.00,M,SCT,M,M,M,10000.00,M,M,M,M,KBLH 010635Z AUTO 26005KT 10SM SCT100 A2982 RMK MADISHF
BLH,2017-04-01 06:40,-114.7169,33.6192,M,M,M,270.00,6.00,M,29.82,M,10.00,M,BKN,M,M,M,10000.00,M,M,M,M,KBLH 010640Z AUTO 27006KT 10SM BKN100 A2982 RMK MADISHF
BLH,2017-04-01 06:45,-114.7169,33.6192,M,M,M,260.00,7.00,M,29.82,M,10.00,M,BKN,M,M,M,10000.00,M,M,M,M,KBLH 010645Z AUTO 26007KT 10SM BKN100 A2982 RMK MADISHF
BLH,2017-04-01 06:50,-114.7169,33.6192,M,M,M,260.00,7.00,M,29.82,M,10.00,M,OVC,M,M,M,10000.00,M,M,M,M,KBLH 010650Z AUTO 26007KT 10SM OVC100 A2982 RMK MADISHF
BLH,2017-04-01 06:52,-114.7169,33.6192,64.00,35.10,34.02,260.00,8.00,0.00,29.82,1009.50,10.00,M,OVC,M,M,M,10000.00,M,M,M,M,KBLH 010652Z AUTO 26008KT 10SM OVC100 18/02 A2982 RMK AO2 SLP095 T01780017
BLH,2017-04-01 06:55,-114.7169,33.6192,M,M,M,260.00,9.00,M,29.82,M,10.00,M,OVC,M,M,M,11000.00,M,M,M,M,KBLH 010655Z AUTO 26009KT 10SM OVC110 A2982 RMK MADISHF
BLH,2017-04-01 07:00,-114.7169,33.6192,M,M,M,260.00,8.00,M,29.83,M,10.00,M,OVC,M,M,M,11000.00,M,M,M,M,KBLH 010700Z AUTO 26008KT 10SM OVC110 A2983 RMK MADISHF
BLH,2017-04-01 07:05,-114.7169,33.6192,M,M,M,260.00,6.00,M,29.83,M,10.00,M,OVC,M,M,M,11000.00,M,M,M,M,KBLH 010705Z AUTO 26006KT 10SM OVC110 A2983 RMK MADISHF
BLH,2017-04-01 07:10,-114.7169,33.6192,M,M,M,260.00,6.00,M,29.83,M,10.00,M,OVC,M,M,M,11000.00,M,M,M,M,KBLH 010710Z AUTO 26006KT 10SM OVC110 A2983 RMK MADISHF
BLH,2017-04-01 07:15,-114.7169,33.6192,M,M,M,260.00,7.00,M,29.83,M,10.00,M,OVC,M,M,M,11000.00,M,M,M,M,KBLH 010715Z AUTO 26007KT 10SM OVC110 A2983 RMK MADISHF
BLH,2017-04-01 07:20,-114.7169,33.6192,M,M,M,260.00,6.00,M,29.83,M,10.00,M,OVC,M,M,M,11000.00,M,M,M,M,KBLH 010720Z AUTO 26006KT 10SM OVC110 A2983 RMK MADISHF
BLH,2017-04-01 07:25,-114.7169,33.6192,M,M,M,260.00,7.00,M,29.83,M,10.00,M,OVC,M,M,M,11000.00,M,M,M,M,KBLH 010725Z AUTO 26007KT 10SM OVC110 A2983 RMK MADISHF
BLH,2017-04-01 07:30,-114.7169,33.6192,M,M,M,270.00,8.00,M,29.83,M,10.00,M,BKN,M,M,M,11000.00,M,M,M,M,KBLH 010730Z AUTO 27008KT 10SM BKN110 A2983 RMK MADISHF
BLH,2017-04-01 07:35,-114.7169,33.6192,M,M,M,270.00,8.00,M,29.83,M,10.00,M,BKN,M,M,M,11000.00,M,M,M,M,KBLH 010735Z AUTO 27008KT 10SM BKN110 A2983 RMK MADISHF
BLH,2017-04-01 07:40,-114.7169,33.6192,M,M,M,290.00,6.00,M,29.83,M,10.00,M,SCT,M,M,M,11000.00,M,M,M,M,KBLH 010740Z AUTO 29006KT 10SM SCT110 A2983 RMK MADISHF
BLH,2017-04-01 07:45,-114.7169,33.6192,M,M,M,320.00,4.00,M,29.83,M,10.00,M,SCT,M,M,M,11000.00,M,M,M,M,KBLH 010745Z AUTO 32004KT 10SM SCT110 A2983 RMK MADISHF
BLH,2017-04-01 07:50,-114.7169,33.6192,M,M,M,330.00,5.00,M,29.83,M,10.00,M,FEW,M,M,M,11000.00,M,M,M,M,KBLH 010750Z AUTO 33005KT 10SM FEW110 A2983 RMK MADISHF
BLH,2017-04-01 07:52,-114.7169,33.6192,63.00,34.00,33.72,340.00,4.00,0.00,29.83,1009.80,10.00,M,SCT,M,M,M,11000.00,M,M,M,M,KBLH 010752Z AUTO 34004KT 10SM SCT110 17/01 A2983 RMK AO2 SLP098 T01720011 402500150
BLH,2017-04-01 07:55,-114.7169,33.6192,M,M,M,350.00,4.00,M,29.83,M,10.00,M,SCT,M,M,M,11000.00,M,M,M,M,KBLH 010755Z AUTO 35004KT 10SM SCT110 A2983 RMK MADISHF
BLH,2017-04-01 08:00,-114.7169,33.6192,M,M,M,350.00,4.00,M,29.83,M,10.00,M,SCT,M,M,M,11000.00,M,M,M,M,KBLH 010800Z AUTO 35004KT 10SM SCT110 A2983 RMK MADISHF
BLH,2017-04-01 08:05,-114.7169,33.6192,M,M,M,350.00,5.00,M,29.83,M,10.00,M,BKN,M,M,M,11000.00,M,M,M,M,KBLH 010805Z AUTO 35005KT 10SM BKN110 A2983 RMK MADISHF
BLH,2017-04-01 08:10,-114.7169,33.6192,M,M,M,350.00,5.00,M,29.83,M,10.00,M,BKN,M,M,M,11000.00,M,M,M,M,KBLH 010810Z AUTO 35005KT 10SM BKN110 A2983 RMK MADISHF
BLH,2017-04-01 08:15,-114.7169,33.6192,M,M,M,360.00,4.00,M,29.83,M,10.00,M,BKN,M,M,M,11000.00,M,M,M,M,KBLH 010815Z AUTO 36004KT 10SM BKN110 A2983 RMK MADISHF
BLH,2017-04-01 08:20,-114.7169,33.6192,M,M,M,340.00,3.00,M,29.83,M,10.00,M,OVC,M,M,M,11000.00,M,M,M,M,KBLH 010820Z AUTO 34003KT 10SM OVC110 A2983 RMK MADISHF
BLH,2017-04-01 08:25,-114.7169,33.6192,M,M,M,360.00,3.00,M,29.83,M,10.00,M,BKN,M,M,M,11000.00,M,M,M,M,KBLH 010825Z AUTO 36003KT 10SM BKN110 A2983 RMK MADISHF
BLH,2017-04-01 08:30,-114.7169,33.6192,M,M,M,0.00,0.00,M,29.83,M,10.00,M,BKN,M,M,M,11000.00,M,M,M,M,KBLH 010830Z AUTO 00000KT 10SM BKN110 A2983 RMK MADISHF
BLH,2017-04-01 08:35,-114.7169,33.6192,M,M,M,260.00,4.00,M,29.83,M,10.00,M,SCT,M,M,M,11000.00,M,M,M,M,KBLH 010835Z AUTO 26004KT 10SM SCT110 A2983 RMK MADISHF
BLH,2017-04-01 08:40,-114.7169,33.6192,M,M,M,0.00,0.00,M,29.83,M,10.00,M,SCT,M,M,M,11000.00,M,M,M,M,KBLH 010840Z AUTO 00000KT 10SM SCT110 A2983 RMK MADISHF
BLH,2017-04-01 08:45,-114.7169,33.6192,M,M,M,0.00,0.00,M,29.83,M,10.00,M,SCT,M,M,M,11000.00,M,M,M,M,KBLH 010845Z AUTO 00000KT 10SM SCT110 A2983 RMK MADISHF
BLH,2017-04-01 08:50,-114.7169,33.6192,M,M,M,50.00,4.00,M,29.83,M,10.00,M,SCT,M,M,M,11000.00,M,M,M,M,KBLH 010850Z AUTO 05004KT 10SM SCT110 A2983 RMK MADISHF
BLH,2017-04-01 08:52,-114.7169,33.6192,57.90,35.10,42.24,40.00,6.00,0.00,29.83,1009.80,10.00,M,BKN,M,M,M,11000.00,M,M,M,M,KBLH 010852Z AUTO 04006KT 10SM BKN110 14/02 A2983 RMK AO2 SLP098 T01440017 51008
BLH,2017-04-01 08:55,-114.7169,33.6192,M,M,M,20.00,6.00,M,29.84,M,10.00,M,BKN,M,M,M,11000.00,M,M,M,M,KBLH 010855Z AUTO 02006KT 10SM BKN110 A2984 RMK MADISHF
BLH,2017-04-01 09:00,-114.7169,33.6192,M,M,M,40.00,6.00,M,29.83,M,10.00,M,BKN,M,M,M,11000.00,M,M,M,M,KBLH 010900Z AUTO 04006KT 10SM BKN110 A2983 RMK MADISHF
BLH,2017-04-01 09:05,-114.7169,33.6192,M,M,M,50.00,5.00,M,29.83,M,10.00,M,SCT,M,M,M,11000.00,M,M,M,M,KBLH 010905Z AUTO 05005KT 10SM SCT110 A2983 RMK MADISHF
BLH,2017-04-01 09:10,-114.7169,33.6192,M,M,M,60.00,4.00,M,29.83,M,10.00,M,SCT,M,M,M,11000.00,M,M,M,M,KBLH 010910Z AUTO 06004KT 10SM SCT110 A2983 RMK MADISHF
BLH,2017-04-01 09:15,-114.7169,33.6192,M,M,M,0.00,0.00,M,29.83,M,10.00,M,SCT,M,M,M,10000.00,M,M,M,M,KBLH 010915Z AUTO 00000KT 10SM SCT100 A2983 RMK MADISHF
BLH,2017-04-01 09:20,-114.7169,33.6192,M,M,M,0.00,0.00,M,29.83,M,10.00,M,SCT,M,M,M,10000.00,M,M,M,M,KBLH 010920Z AUTO 00000KT 10SM SCT100 A2983 RMK MADISHF
BLH,2017-04-01 09:25,-114.7169,33.6192,M,M,M,0.00,0.00,M,29.83,M,10.00,M,FEW,M,M,M,10000.00,M,M,M,M,KBLH 010925Z AUTO 00000KT 10SM FEW100 A2983 RMK MADISHF
BLH,2017-04-01 09:30,-114.7169,33.6192,M,M,M,90.00,3.00,M,29.83,M,10.00,M,FEW,M,M,M,10000.00,M,M,M,M,KBLH 010930Z AUTO 09003KT 10SM FEW100 A2983 RMK MADISHF
BLH,2017-04-01 09:35,-114.7169,33.6192,M,M,M,60.00,3.00,M,29.83,M,10.00,M,FEW,M,M,M,10000.00,M,M,M,M,KBLH 010935Z AUTO 06003KT 10SM FEW100 A2983 RMK MADISHF
BLH,2017-04-01 09:40,-114.7169,33.6192,M,M,M,70.00,4.00,M,29.83,M,10.00,M,FEW,M,M,M,10000.00,M,M,M,M,KBLH 010940Z AUTO 07004KT 10SM FEW100 A2983 RMK MADISHF
BLH,2017-04-01 09:45,-114.7169,33.6192,M,M,M,60.00,4.00,M,29.83,M,10.00,M,CLR,M,M,M,M,M,M,M,M,KBLH 010945Z AUTO 06004KT 10SM CLR A2983 RMK MADISHF
BLH,2017-04-01 09:50,-114.7169,33.6192,M,M,M,40.00,3.00,M,29.83,M,10.00,M,CLR,M,M,M,M,M,M,M,M,KBLH 010950Z AUTO 04003KT 10SM CLR A2983 RMK MADISHF
BLH,2017-04-01 09:52,-114.7169,33.6192,55.00,36.00,48.62,0.00,0.00,0.00,29.83,1009.70,10.00,M,CLR,M,M,M,M,M,M,M,M,KBLH 010952Z AUTO 00000KT 10SM CLR 13/02 A2983 RMK AO2 SLP097 T01280022
BLH,2017-04-01 09:55,-114.7169,33.6192,M,M,M,50.00,3.00,M,29.83,M,10.00,M,CLR,M,M,M,M,M,M,M,M,KBLH 010955Z AUTO 05003KT 10SM CLR A2983 RMK MADISHF
BLH,2017-04-01 10:00,-114.7169,33.6192,M,M,M,0.00,0.00,M,29.83,M,10.00,M,CLR,M,M,M,M,M,M,M,M,KBLH 011000Z AUTO 00000KT 10SM CLR A2983 RMK MADISHF
BLH,2017-04-01 10:05,-114.7169,33.6192,M,M,M,0.00,0.00,M,29.83,M,10.00,M,CLR,M,M,M,M,M,M,M,M,KBLH 011005Z AUTO 00000KT 10SM CLR A2983 RMK MADISHF
BLH,2017-04-01 10:10,-114.7169,33.6192,M,M,M,0.00,0.00,M,29.83,M,10.00,M,CLR,M,M,M,M,M,M,M,M,KBLH 011010Z AUTO 00000KT 10SM CLR A2983 RMK MADISHF
BLH,2017-04-01 10:15,-114.7169,33.6192,M,M,M,0.00,0.00,M,29.83,M,10.00,M,CLR,M,M,M,M,M,M,M,M,KBLH 011015Z AUTO 00000KT 10SM CLR A2983 RMK MADISHF
BLH,2017-04-01 10:20,-114.7169,33.6192,M,M,M,0.00,0.00,M,29.83,M,10.00,M,CLR,M,M,M,M,M,M,M,M,KBLH 011020Z AUTO 00000KT 10SM CLR A2983 RMK MADISHF
BLH,2017-04-01 10:25,-114.7169,33.6192,M,M,M,0.00,0.00,M,29.83,M,10.00,M,CLR,M,M,M,M,M,M,M,M,KBLH 011025Z AUTO 00000KT 10SM CLR A2983 RMK MADISHF
BLH,2017-04-01 10:30,-114.7169,33.6192,M,M,M,320.00,3.00,M,29.83,M,10.00,M,CLR,M,M,M,M,M,M,M,M,KBLH 011030Z AUTO 32003KT 10SM CLR A2983 RMK MADISHF
BLH,2017-04-01 10:35,-114.7169,33.6192,M,M,M,340.00,3.00,M,29.83,M,10.00,M,CLR,M,M,M,M,M,M,M,M,KBLH 011035Z AUTO 34003KT 10SM CLR A2983 RMK MADISHF
BLH,2017-04-01 10:40,-114.7169,33.6192,M,M,M,330.00,4.00,M,29.83,M,10.00,M,CLR,M,M,M,M,M,M,M,M,KBLH 011040Z AUTO 33004KT 10SM CLR A2983 RMK MADISHF
BLH,2017-04-01 10:45,-114.7169,33.6192,M,M,M,320.00,4.00,M,29.83,M,10.00,M,CLR,M,M,M,M,M,M,M,M,KBLH 011045Z AUTO 32004KT 10SM CLR A2983 RMK MADISHF
BLH,2017-04-01 10:50,-114.7169,33.6192,M,M,M,340.00,3.00,M,29.83,M,10.00,M,CLR,M,M,M,M,M,M,M,M,KBLH 011050Z AUTO 34003KT 10SM CLR A2983 RMK MADISHF
BLH,2017-04-01 10:52,-114.7169,33.6192,54.00,37.00,52.45,340.00,3.00,0.00,29.83,1009.80,10.00,M,CLR,M,M,M,M,M,M,M,M,KBLH 011052Z AUTO 34003KT 10SM CLR 12/03 A2983 RMK AO2 SLP098 T01220028
BLH,2017-04-01 10:55,-114.7169,33.6192,M,M,M,350.00,3.00,M,29.83,M,10.00,M,CLR,M,M,M,M,M,M,M,M,KBLH 011055Z AUTO 35003KT 10SM CLR A2983 RMK MADISHF
BLH,2017-04-01 11:00,-114.7169,33.6192,M,M,M,350.00,3.00,M,29.83,M,10.00,M,CLR,M,M,M,M,M,M,M,M,KBLH 011100Z AUTO 35003KT 10SM CLR A2983 RMK MADISHF
BLH,2017-04-01 11:05,-114.7169,33.6192,M,M,M,10.00,6.00,M,29.84,M,10.00,M,CLR,M,M,M,M,M,M,M,M,KBLH 011105Z AUTO 01006KT 10SM CLR A2984 RMK MADISHF
BLH,2017-04-01 11:10,-114.7169,33.6192,M,M,M,360.00,3.00,M,29.84,M,10.00,M,CLR,M,M,M,M,M,M,M,M,KBLH 011110Z AUTO 36003KT 10SM CLR A2984 RMK MADISHF
BLH,2017-04-01 11:15,-114.7169,33.6192,M,M,M,0.00,0.00,M,29.84,M,10.00,M,CLR,M,M,M,M,M,M,M,M,KBLH 011115Z AUTO 00000KT 10SM CLR A2984 RMK MADISHF
BLH,2017-04-01 11:20,-114.7169,33.6192,M,M,M,350.00,7.00,M,29.84,M,10.00,M,CLR,M,M,M,M,M,M,M,M,KBLH 011120Z AUTO 35007KT 10SM CLR A2984 RMK MADISHF
BLH,2017-04-01 11:25,-114.7169,33.6192,M,M,M,330.00,4.00,M,29.84,M,10.00,M,CLR,M,M,M,M,M,M,M,M,KBLH 011125Z AUTO 33004KT 10SM CLR A2984 RMK MADISHF
BLH,2017-04-01 11:30,-114.7169,33.6192,M,M,M,320.00,3.00,M,29.85,M,10.00,M,CLR,M,M,M,M,M,M,M,M,KBLH 011130Z AUTO 32003KT 10SM CLR A2985 RMK MADISHF
BLH,2017-04-01 11:35,-114.7169,33.6192,M,M,M,350.00,5.00,M,29.85,M,10.00,M,CLR,M,M,M,M,M,M,M,M,KBLH 011135Z AUTO 35005KT 10SM CLR A2985 RMK MADISHF
BLH,2017-04-01 11:40,-114.7169,33.6192,M,M,M,350.00,4.00,M,29.85,M,10.00,M,CLR,M,M,M,M,M,M,M,M,KBLH 011140Z AUTO 35004KT 10SM CLR A2985 RMK MADISHF
BLH,2017-04-01 11:45,-114.7169,33.6192,M,M,M,360.00,8.00,M,29.85,M,10.00,M,CLR,M,M,M,M,M,M,M,M,KBLH 011145Z AUTO 36008KT 10SM CLR A2985 RMK MADISHF
BLH,2017-04-01 11:50,-114.7169,33.6192,M,M,M,310.00,5.00,M,29.85,M,10.00,M,FEW,M,M,M,9500.00,M,M,M,M,KBLH 011150Z AUTO 31005KT 10SM FEW095 A2985 RMK MADISHF
BLH,2017-04-01 11:52,-114.7169,33.6192,54.00,36.00,50.42,320.00,7.00,0.00,29.85,1010.50,10.00,M,FEW,M,M,M,9500.00,M,M,M,M,KBLH 011152Z AUTO 32007KT 10SM FEW095 12/02 A2985 RMK AO2 SLP105 T01220022 10183 20117 53006
BLH,2017-04-01 11:55,-114.7169,33.6192,M,M,M,320.00,6.00,M,29.86,M,10.00,M,FEW,M,M,M,9500.00,M,M,M,M,KBLH 011155Z AUTO 32006KT 10SM FEW095 A2986 RMK MADISHF
BLH,2017-04-01 12:00,-114.7169,33.6192,M,M,M,340.00,5.00,M,29.86,M,10.00,M,FEW,M,M,M,9000.00,M,M,M,M,KBLH 011200Z AUTO 34005KT 10SM FEW090 A2986 RMK MADISHF
BLH,2017-04-01 12:05,-114.7169,33.6192,M,M,M,340.00,5.00,M,29.86,M,10.00,M,SCT,M,M,M,9000.00,M,M,M,M,KBLH 011205Z AUTO 34005KT 10SM SCT090 A2986 RMK MADISHF
BLH,2017-04-01 12:10,-114.7169,33.6192,M,M,M,310.00,5.00,M,29.86,M,10.00,M,BKN,M,M,M,9000.00,M,M,M,M,KBLH 011210Z AUTO 31005KT 10SM BKN090 A2986 RMK MADISHF
BLH,2017-04-01 12:15,-114.7169,33.6192,M,M,M,310.00,5.00,M,29.86,M,10.00,M,BKN,M,M,M,9000.00,M,M,M,M,KBLH 011215Z AUTO 31005KT 10SM BKN090 A2986 RMK MADISHF
BLH,2017-04-01 12:20,-114.7169,33.6192,M,M,M,320.00,5.00,M,29.86,M,10.00,M,BKN,M,M,M,9000.00,M,M,M,M,KBLH 011220Z AUTO 32005KT 10SM BKN090 A2986 RMK MADISHF
BLH,2017-04-01 12:25,-114.7169,33.6192,M,M,M,320.00,4.00,M,29.86,M,10.00,M,OVC,M,M,M,9000.00,M,M,M,M,KBLH 011225Z AUTO 32004KT 10SM OVC090 A2986 RMK MADISHF
BLH,2017-04-01 12:30,-114.7169,33.6192,M,M,M,340.00,3.00,M,29.86,M,10.00,M,OVC,M,M,M,9000.00,M,M,M,M,KBLH 011230Z AUTO 34003KT 10SM OVC090 A2986 RMK MADISHF
BLH,2017-04-01 12:35,-114.7169,33.6192,M,M,M,350.00,3.00,M,29.87,M,10.00,M,OVC,M,M,M,9000.00,M,M,M,M,KBLH 011235Z AUTO 35003KT 10SM OVC090 A2987 RMK MADISHF
BLH,2017-04-01 12:40,-114.7169,33.6192,M,M,M,0.00,0.00,M,29.87,M,10.00,M,OVC,M,M,M,9000.00,M,M,M,M,KBLH 011240Z AUTO 00000KT 10SM OVC090 A2987 RMK MADISHF
BLH,2017-04-01 12:45,-114.7169,33.6192,M,M,M,0.00,0.00,M,29.87,M,10.00,M,BKN,M,M,M,9000.00,M,M,M,M,KBLH 011245Z AUTO 00000KT 10SM BKN090 A2987 RMK MADISHF
BLH,2017-04-01 12:50,-114.7169,33.6192,M,M,M,340.00,3.00,M,29.87,M,10.00,M,BKN,M,M,M,9000.00,M,M,M,M,KBLH 011250Z AUTO 34003KT 10SM BKN090 A2987 RMK MADISHF
BLH,2017-04-01 12:52,-114.7169,33.6192,54.00,37.00,52.45,350.00,4.00,0.00,29.87,1010.90,10.00,M,BKN,M,M,M,9000.00,M,M,M,M,KBLH 011252Z AUTO 35004KT 10SM BKN090 12/03 A2987 RMK AO2 SLP109 T01220028
BLH,2017-04-01 12:55,-114.7169,33.6192,M,M,M,10.00,3.00,M,29.87,M,10.00,M,SCT,M,M,M,9000.00,M,M,M,M,KBLH 011255Z AUTO 01003KT 10SM SCT090 A2987 RMK MADISHF
BLH,2017-04-01 13:00,-114.7169,33.6192,M,M,M,0.00,0.00,M,29.87,M,10.00,M,SCT,M,M,M,9000.00,M,M,M,M,KBLH 011300Z AUTO 00000KT 10SM SCT090 A2987 RMK MADISHF
BLH,2017-04-01 13:05,-114.7169,33.6192,M,M,M,140.00,3.00,M,29.87,M,10.00,M,FEW,M,M,M,9000.00,M,M,M,M,KBLH 011305Z AUTO 14003KT 10SM FEW090 A2987 RMK MADISHF
BLH,2017-04-01 13:10,-114.7169,33.6192,M,M,M,0.00,0.00,M,29.87,M,10.00,M,CLR,M,M,M,M,M,M,M,M,KBLH 011310Z AUTO 00000KT 10SM CLR A2987 RMK MADISHF
BLH,2017-04-01 13:15,-114.7169,33.6192,M,M,M,210.00,4.00,M,29.87,M,10.00,M,CLR,M,M,M,M,M,M,M,M,KBLH 011315Z AUTO 21004KT 10SM CLR A2987 RMK MADISHF
BLH,2017-04-01 13:20,-114.7169,33.6192,M,M,M,0.00,0.00,M,29.88,M,10.00,M,CLR,M,M,M,M,M,M,M,M,KBLH 011320Z AUTO 00000KT 10SM CLR A2988 RMK MADISHF
BLH,2017-04-01 13:25,-114.7169,33.6192,M,M,M,0.00,0.00,M,29.88,M,10.00,M,CLR,M,M,M,M,M,M,M,M,KBLH 011325Z AUTO 00000KT 10SM CLR A2988 RMK MADISHF
BLH,2017-04-01 13:30,-114.7169,33.6192,M,M,M,100.00,4.00,M,29.88,M,10.00,M,CLR,M,M,M,M,M,M,M,M,KBLH 011330Z AUTO 10004KT 10SM CLR A2988 RMK MADISHF
BLH,2017-04-01 13:35,-114.7169,33.6192,M,M,M,120.00,3.00,M,29.88,M,10.00,M,CLR,M,M,M,M,M,M,M,M,KBLH 011335Z AUTO 12003KT 10SM CLR A2988 RMK MADISHF
BLH,2017-04-01 13:40,-114.7169,33.6192,M,M,M,130.00,4.00,M,29.88,M,10.00,M,CLR,M,M,M,M,M,M,M,M,KBLH 011340Z AUTO 13004KT 10SM CLR A2988 RMK MADISHF
BLH,2017-04-01 13:45,-114.7169,33.6192,M,M,M,150.00,4.00,M,29.88,M,10.00,M,CLR,M,M,M,M,M,M,M,M,KBLH 011345Z AUTO 15004KT 10SM CLR A2988 RMK MADISHF
BLH,2017-04-01 13:50,-114.7169,33.6192,M,M,M,180.00,4.00,M,29.88,M,10.00,M,CLR,M,M,M,M,M,M,M,M,KBLH 011350Z AUTO 18004KT 10SM CLR A2988 RMK MADISHF
BLH,2017-04-01 13:52,-114.7169,33.6192,54.00,37.90,54.34,190.00,4.00,0.00,29.88,1011.60,10.00,M,CLR,M,M,M,M,M,M,M,M,KBLH 011352Z AUTO 19004KT 10SM CLR 12/03 A2988 RMK AO2 SLP116 T01220033
BLH,2017-04-01 13:55,-114.7169,33.6192,M,M,M,0.00,0.00,M,29.88,M,10.00,M,CLR,M,M,M,M,M,M,M,M,KBLH 011355Z AUTO 00000KT 10SM CLR A2988 RMK MADISHF
BLH,2017-04-01 14:00,-114.7169,33.6192,M,M,M,0.00,0.00,M,29.89,M,10.00,M,CLR,M,M,M,M,M,M,M,M,KBLH 011400Z AUTO 00000KT 10SM CLR A2989 RMK MADISHF
BLH,2017-04-01 14:05,-114.7169,33.6192,M,M,M,0.00,0.00,M,29.89,M,10.00,M,CLR,M,M,M,M,M,M,M,M,KBLH 011405Z AUTO 00000KT 10SM CLR A2989 RMK MADISHF
BLH,2017-04-01 14:10,-114.7169,33.6192,M,M,M,0.00,0.00,M,29.89,M,10.00,M,CLR,M,M,M,M,M,M,M,M,KBLH 011410Z AUTO 00000KT 10SM CLR A2989 RMK MADISHF
BLH,2017-04-01 14:15,-114.7169,33.6192,M,M,M,0.00,0.00,M,29.90,M,10.00,M,CLR,M,M,M,M,M,M,M,M,KBLH 011415Z AUTO 00000KT 10SM CLR A2990 RMK MADISHF
BLH,2017-04-01 14:20,-114.7169,33.6192,M,M,M,0.00,0.00,M,29.90,M,10.00,M,CLR,M,M,M,M,M,M,M,M,KBLH 011420Z AUTO 00000KT 10SM CLR A2990 RMK MADISHF
BLH,2017-04-01 14:25,-114.7169,33.6192,M,M,M,0.00,0.00,M,29.90,M,10.00,M,CLR,M,M,M,M,M,M,M,M,KBLH 011425Z AUTO 00000KT 10SM CLR A2990 RMK MADISHF
BLH,2017-04-01 14:30,-114.7169,33.6192,M,M,M,0.00,0.00,M,29.90,M,10.00,M,CLR,M,M,M,M,M,M,M,M,KBLH 011430Z AUTO 00000KT 10SM CLR A2990 RMK MADISHF
BLH,2017-04-01 14:35,-114.7169,33.6192,M,M,M,0.00,0.00,M,29.90,M,10.00,M,CLR,M,M,M,M,M,M,M,M,KBLH 011435Z AUTO 00000KT 10SM CLR A2990 RMK MADISHF
BLH,2017-04-01 14:40,-114.7169,33.6192,M,M,M,0.00,0.00,M,29.90,M,10.00,M,FEW,M,M,M,8500.00,M,M,M,M,KBLH 011440Z AUTO 00000KT 10SM FEW085 A2990 RMK MADISHF
BLH,2017-04-01 14:45,-114.7169,33.6192,M,M,M,200.00,4.00,M,29.90,M,10.00,M,SCT,M,M,M,8500.00,M,M,M,M,KBLH 011445Z AUTO 20004KT 10SM SCT085 A2990 RMK MADISHF
BLH,2017-04-01 14:50,-114.7169,33.6192,M,M,M,0.00,0.00,M,29.90,M,10.00,M,SCT,M,M,M,8500.00,M,M,M,M,KBLH 011450Z AUTO 00000KT 10SM SCT085 A2990 RMK MADISHF
BLH,2017-04-01 14:52,-114.7169,33.6192,61.00,35.10,37.81,M,3.00,0.00,29.90,1012.20,10.00,M,SCT,M,M,M,8500.00,M,M,M,M,KBLH 011452Z AUTO VRB03KT 10SM SCT085 16/02 A2990 RMK AO2 SLP122 T01610017 53017
BLH,2017-04-01 14:55,-114.7169,33.6192,M,M,M,0.00,0.00,M,29.91,M,10.00,M,BKN,M,M,M,8500.00,M,M,M,M,KBLH 011455Z AUTO 00000KT 10SM BKN085 A2991 RMK MADISHF
BLH,2017-04-01 15:00,-114.7169,33.6192,M,M,M,140.00,3.00,M,29.91,M,10.00,M,BKN,M,M,M,8500.00,M,M,M,M,KBLH 011500Z AUTO 14003KT 10SM BKN085 A2991 RMK MADISHF
BLH,2017-04-01 15:05,-114.7169,33.6192,M,M,M,130.00,3.00,M,29.91,M,10.00,M,SCT,M,M,M,8500.00,M,M,M,M,KBLH 011505Z AUTO 13003KT 10SM SCT085 A2991 RMK VRB03KT  MADISHF
BLH,2017-04-01 15:10,-114.7169,33.6192,M,M,M,110.00,5.00,M,29.91,M,10.00,M,SCT,M,M,M,8500.00,M,M,M,M,KBLH 011510Z AUTO 11005KT 10SM SCT085 A2991 RMK MADISHF
BLH,2017-04-01 15:15,-114.7169,33.6192,M,M,M,100.00,6.00,M,29.92,M,10.00,M,FEW,M,M,M,8500.00,M,M,M,M,KBLH 011515Z AUTO 10006KT 10SM FEW085 A2992 RMK MADISHF
BLH,2017-04-01 15:20,-114.7169,33.6192,M,M,M,110.00,3.00,M,29.92,M,10.00,M,FEW,M,M,M,8500.00,M,M,M,M,KBLH 011520Z AUTO 11003KT 10SM FEW085 A2992 RMK MADISHF
BLH,2017-04-01 15:25,-114.7169,33.6192,M,M,M,150.00,4.00,M,29.92,M,10.00,M,CLR,M,M,M,M,M,M,M,M,KBLH 011525Z AUTO 15004KT 10SM CLR A2992 RMK MADISHF
BLH,2017-04-01 15:30,-114.7169,33.6192,M,M,M,170.00,4.00,M,29.92,M,10.00,M,CLR,M,M,M,M,M,M,M,M,KBLH 011530Z AUTO 17004KT 10SM CLR A2992 RMK MADISHF
BLH,2017-04-01 15:35,-114.7169,33.6192,M,M,M,170.00,4.00,M,29.92,M,10.00,M,CLR,M,M,M,M,M,M,M,M,KBLH 011535Z AUTO 17004KT 10SM CLR A2992 RMK MADISHF
BLH,2017-04-01 15:40,-114.7169,33.6192,M,M,M,150.00,4.00,M,29.92,M,10.00,M,CLR,M,M,M,M,M,M,M,M,KBLH 011540Z AUTO 15004KT 10SM CLR A2992 RMK MADISHF
BLH,2017-04-01 15:45,-114.7169,33.6192,M,M,M,110.00,5.00,M,29.92,M,10.00,M,CLR,M,M,M,M,M,M,M,M,KBLH 011545Z AUTO 11005KT 10SM CLR A2992 RMK MADISHF
BLH,2017-04-01 15:50,-114.7169,33.6192,M,M,M,100.00,4.00,M,29.92,M,10.00,M,CLR,M,M,M,M,M,M,M,M,KBLH 011550Z AUTO 10004KT 10SM CLR A2992 RMK MADISHF
BLH,2017-04-01 15:52,-114.7169,33.6192,63.00,37.90,39.36,M,4.00,0.00,29.92,1012.80,10.00,M,CLR,M,M,M,M,M,M,M,M,KBLH 011552Z AUTO VRB04KT 10SM CLR 17/03 A2992 RMK AO2 SLP128 T01720033
BLH,2017-04-01 15:55,-114.7169,33.6192,M,M,M,120.00,3.00,M,29.92,M,10.00,M,CLR,M,M,M,M,M,M,M,M,KBLH 011555Z AUTO 12003KT 10SM CLR A2992 RMK VRB03KT  MADISHF
BLH,2017-04-01 16:00,-114.7169,33.6192,M,M,M,150.00,4.00,M,29.92,M,10.00,M,CLR,M,M,M,M,M,M,M,M,KBLH 011600Z AUTO 15004KT 10SM CLR A2992 RMK VRB04KT  MADISHF
BLH,2017-04-01 16:05,-114.7169,33.6192,M,M,M,130.00,3.00,M,29.92,M,10.00,M,CLR,M,M,M,M,M,M,M,M,KBLH 011605Z AUTO 13003KT 10SM CLR A2992 RMK MADISHF
BLH,2017-04-01 16:10,-114.7169,33.6192,M,M,M,190.00,3.00,M,29.93,M,10.00,M,CLR,M,M,M,M,M,M,M,M,KBLH 011610Z AUTO 19003KT 10SM CLR A2993 RMK MADISHF
BLH,2017-04-01 16:15,-114.7169,33.6192,M,M,M,140.00,3.00,M,29.93,M,10.00,M,CLR,M,M,M,M,M,M,M,M,KBLH 011615Z AUTO 14003KT 10SM CLR A2993 RMK MADISHF
BLH,2017-04-01 16:20,-114.7169,33.6192,M,M,M,120.00,3.00,M,29.93,M,10.00,M,CLR,M,M,M,M,M,M,M,M,KBLH 011620Z AUTO 12003KT 10SM CLR A2993 RMK MADISHF
BLH,2017-04-01 16:25,-114.7169,33.6192,M,M,M,130.00,3.00,M,29.93,M,10.00,M,CLR,M,M,M,M,M,M,M,M,KBLH 011625Z AUTO 13003KT 10SM CLR A2993 RMK MADISHF
BLH,2017-04-01 16:30,-114.7169,33.6192,M,M,M,160.00,4.00,M,29.93,M,10.00,M,CLR,M,M,M,M,M,M,M,M,KBLH 011630Z AUTO 16004KT 10SM CLR A2993 RMK VRB04KT  MADISHF
BLH,2017-04-01 16:35,-114.7169,33.6192,M,M,M,150.00,3.00,M,29.93,M,10.00,M,CLR,M,M,M,M,M,M,M,M,KBLH 011635Z AUTO 15003KT 10SM CLR A2993 RMK MADISHF
BLH,2017-04-01 16:40,-114.7169,33.6192,M,M,M,150.00,4.00,M,29.93,M,10.00,M,CLR,M,M,M,M,M,M,M,M,KBLH 011640Z AUTO 15004KT 10SM CLR A2993 RMK MADISHF
BLH,2017-04-01 16:45,-114.7169,33.6192,M,M,M,130.00,3.00,M,29.93,M,10.00,M,CLR,M,M,M,M,M,M,M,M,KBLH 011645Z AUTO 13003KT 10SM CLR A2993 RMK VRB03KT  MADISHF
BLH,2017-04-01 16:50,-114.7169,33.6192,M,M,M,130.00,4.00,M,29.93,M,10.00,M,CLR,M,M,M,M,M,M,M,M,KBLH 011650Z AUTO 13004KT 10SM CLR A2993 RMK MADISHF
BLH,2017-04-01 16:52,-114.7169,33.6192,66.90,39.00,35.86,120.00,4.00,0.00,29.93,1013.10,10.00,M,CLR,M,M,M,M,M,M,M,M,KBLH 011652Z AUTO 12004KT 10SM CLR 19/04 A2993 RMK AO2 SLP131 T01940039
BLH,2017-04-01 16:55,-114.7169,33.6192,M,M,M,140.00,4.00,M,29.93,M,10.00,M,CLR,M,M,M,M,M,M,M,M,KBLH 011655Z AUTO 14004KT 10SM CLR A2993 RMK VRB04KT  MADISHF
BLH,2017-04-01 17:00,-114.7169,33.6192,M,M,M,90.00,4.00,M,29.93,M,10.00,M,CLR,M,M,M,M,M,M,M,M,KBLH 011700Z AUTO 09004KT 10SM CLR A2993 RMK MADISHF
BLH,2017-04-01 17:05,-114.7169,33.6192,M,M,M,130.00,3.00,M,29.93,M,10.00,M,CLR,M,M,M,M,M,M,M,M,KBLH 011705Z AUTO 13003KT 10SM CLR A2993 RMK MADISHF
BLH,2017-04-01 17:10,-114.7169,33.6192,M,M,M,110.00,4.00,M,29.93,M,10.00,M,CLR,M,M,M,M,M,M,M,M,KBLH 011710Z AUTO 11004KT 10SM CLR A2993 RMK MADISHF
BLH,2017-04-01 17:15,-114.7169,33.6192,M,M,M,110.00,4.00,M,29.93,M,10.00,M,CLR,M,M,M,M,M,M,M,M,KBLH 011715Z AUTO 11004KT 10SM CLR A2993 RMK MADISHF
BLH,2017-04-01 17:20,-114.7169,33.6192,M,M,M,110.00,3.00,M,29.93,M,10.00,M,CLR,M,M,M,M,M,M,M,M,KBLH 011720Z AUTO 11003KT 10SM CLR A2993 RMK VRB03KT  MADISHF
BLH,2017-04-01 17:25,-114.7169,33.6192,M,M,M,100.00,3.00,M,29.93,M,10.00,M,CLR,M,M,M,M,M,M,M,M,KBLH 011725Z AUTO 10003KT 10SM CLR A2993 RMK MADISHF
BLH,2017-04-01 17:30,-114.7169,33.6192,M,M,M,0.00,0.00,M,29.93,M,10.00,M,CLR,M,M,M,M,M,M,M,M,KBLH 011730Z AUTO 00000KT 10SM CLR A2993 RMK MADISHF
BLH,2017-04-01 17:35,-114.7169,33.6192,M,M,M,110.00,4.00,M,29.93,M,10.00,M,CLR,M,M,M,M,M,M,M,M,KBLH 011735Z AUTO 11004KT 10SM CLR A2993 RMK MADISHF
BLH,2017-04-01 17:40,-114.7169,33.6192,M,M,M,130.00,4.00,M,29.93,M,10.00,M,CLR,M,M,M,M,M,M,M,M,KBLH 011740Z AUTO 13004KT 10SM CLR A2993 RMK MADISHF
BLH,2017-04-01 17:45,-114.7169,33.6192,M,M,M,120.00,6.00,M,29.93,M,10.00,M,CLR,M,M,M,M,M,M,M,M,KBLH 011745Z AUTO 12006KT 10SM CLR A2993 RMK MADISHF
BLH,2017-04-01 17:50,-114.7169,33.6192,M,M,M,90.00,4.00,M,29.93,M,10.00,M,CLR,M,M,M,M,M,M,M,M,KBLH 011750Z AUTO 09004KT 10SM CLR A2993 RMK MADISHF
BLH,2017-04-01 17:52,-114.7169,33.6192,72.00,39.00,30.12,M,4.00,0.00,29.93,1013.00,10.00,M,CLR,M,M,M,M,M,M,M,M,KBLH 011752Z AUTO VRB04KT 10SM CLR 22/04 A2993 RMK AO2 SLP130 T02220039 10222 20106 50008
BLH,2017-04-01 17:55,-114.7169,33.6192,M,M,M,130.00,6.00,M,29.93,M,10.00,M,CLR,M,M,M,M,M,M,M,M,KBLH 011755Z AUTO 13006KT 10SM CLR A2993 RMK MADISHF
BLH,2017-04-01 18:00,-114.7169,33.6192,M,M,M,100.00,5.00,M,29.93,M,10.00,M,CLR,M,M,M,M,M,M,M,M,KBLH 011800Z AUTO 10005KT 10SM CLR A2993 RMK MADISHF
BLH,2017-04-01 18:05,-114.7169,33.6192,M,M,M,90.00,5.00,M,29.93,M,10.00,M,CLR,M,M,M,M,M,M,M,M,KBLH 011805Z AUTO 09005KT 10SM CLR A2993 RMK MADISHF
BLH,2017-04-01 18:10,-114.7169,33.6192,M,M,M,90.00,4.00,M,29.93,M,10.00,M,CLR,M,M,M,M,M,M,M,M,KBLH 011810Z AUTO 09004KT 10SM CLR A2993 RMK VRB04KT  MADISHF
BLH,2017-04-01 18:15,-114.7169,33.6192,M,M,M,100.00,6.00,M,29.93,M,10.00,M,CLR,M,M,M,M,M,M,M,M,KBLH 011815Z AUTO 10006KT 10SM CLR A2993 RMK VRB06KT  MADISHF
BLH,2017-04-01 18:20,-114.7169,33.6192,M,M,M,130.00,4.00,M,29.92,M,10.00,M,CLR,M,M,M,M,M,M,M,M,KBLH 011820Z AUTO 13004KT 10SM CLR A2992 RMK VRB04KT  MADISHF
BLH,2017-04-01 18:25,-114.7169,33.6192,M,M,M,50.00,6.00,M,29.92,M,10.00,M,CLR,M,M,M,M,M,M,M,M,KBLH 011825Z AUTO 05006KT 10SM CLR A2992 RMK MADISHF
BLH,2017-04-01 18:30,-114.7169,33.6192,M,M,M,40.00,5.00,M,29.92,M,10.00,M,CLR,M,M,M,M,M,M,M,M,KBLH 011830Z AUTO 04005KT 10SM CLR A2992 RMK VRB05KT  MADISHF
BLH,2017-04-01 18:35,-114.7169,33.6192,M,M,M,80.00,3.00,M,29.92,M,10.00,M,CLR,M,M,M,M,M,M,M,M,KBLH 011835Z AUTO 08003KT 10SM CLR A2992 RMK MADISHF
BLH,2017-04-01 18:40,-114.7169,33.6192,M,M,M,20.00,4.00,M,29.92,M,10.00,M,CLR,M,M,M,M,M,M,M,M,KBLH 011840Z AUTO 02004KT 10SM CLR A2992 RMK VRB04KT  MADISHF
BLH,2017-04-01 18:45,-114.7169,33.6192,M,M,M,30.00,5.00,M,29.92,M,10.00,M,CLR,M,M,M,M,M,M,M,M,KBLH 011845Z AUTO 03005KT 10SM CLR A2992 RMK VRB05KT  MADISHF
BLH,2017-04-01 18:50,-114.7169,33.6192,M,M,M,10.00,10.00,M,29.92,M,10.00,M,CLR,M,M,M,M,M,M,M,M,KBLH 011850Z AUTO 01010KT 10SM CLR A2992 RMK MADISHF
BLH,2017-04-01 18:52,-114.7169,33.6192,77.00,37.00,23.55,360.00,10.00,0.00,29.92,1012.50,10.00,16.00,CLR,M,M,M,M,M,M,M,M,KBLH 011852Z AUTO 36010G16KT 10SM CLR 25/03 A2992 RMK AO2 SLP125 T02500028
BLH,2017-04-01 18:55,-114.7169,33.6192,M,M,M,350.00,11.00,M,29.91,M,10.00,M,CLR,M,M,M,M,M,M,M,M,KBLH 011855Z AUTO 35011KT 10SM CLR A2991 RMK MADISHF
BLH,2017-04-01 19:00,-114.7169,33.6192,M,M,M,10.00,14.00,M,29.92,M,10.00,M,CLR,M,M,M,M,M,M,M,M,KBLH 011900Z AUTO 01014KT 10SM CLR A2992 RMK MADISHF
BLH,2017-04-01 19:05,-114.7169,33.6192,M,M,M,360.00,10.00,M,29.92,M,10.00,M,CLR,M,M,M,M,M,M,M,M,KBLH 011905Z AUTO 36010KT 10SM CLR A2992 RMK MADISHF
BLH,2017-04-01 19:10,-114.7169,33.6192,M,M,M,30.00,9.00,M,29.91,M,10.00,M,CLR,M,M,M,M,M,M,M,M,KBLH 011910Z AUTO 03009KT 10SM CLR A2991 RMK WND 35V06  MADISHF
BLH,2017-04-01 19:15,-114.7169,33.6192,M,M,M,10.00,9.00,M,29.91,M,10.00,M,CLR,M,M,M,M,M,M,M,M,KBLH 011915Z AUTO 01009KT 10SM CLR A2991 RMK MADISHF
BLH,2017-04-01 19:20,-114.7169,33.6192,M,M,M,360.00,9.00,M,29.91,M,10.00,M,CLR,M,M,M,M,M,M,M,M,KBLH 011920Z AUTO 36009KT 10SM CLR A2991 RMK MADISHF
BLH,2017-04-01 19:25,-114.7169,33.6192,M,M,M,320.00,11.00,M,29.91,M,10.00,M,CLR,M,M,M,M,M,M,M,M,KBLH 011925Z AUTO 32011KT 10SM CLR A2991 RMK MADISHF
BLH,2017-04-01 19:30,-114.7169,33.6192,M,M,M,360.00,9.00,M,29.91,M,10.00,M,CLR,M,M,M,M,M,M,M,M,KBLH 011930Z AUTO 36009KT 10SM CLR A2991 RMK MADISHF
BLH,2017-04-01 19:35,-114.7169,33.6192,M,M,M,360.00,9.00,M,29.91,M,10.00,M,FEW,M,M,M,10000.00,M,M,M,M,KBLH 011935Z AUTO 36009KT 10SM FEW100 A2991 RMK MADISHF
BLH,2017-04-01 19:40,-114.7169,33.6192,M,M,M,360.00,11.00,M,29.91,M,10.00,16.00,FEW,M,M,M,10000.00,M,M,M,M,KBLH 011940Z AUTO 36011G16KT 10SM FEW100 A2991 RMK MADISHF
BLH,2017-04-01 19:45,-114.7169,33.6192,M,M,M,350.00,4.00,M,29.90,M,10.00,M,FEW,M,M,M,10000.00,M,M,M,M,KBLH 011945Z AUTO 35004KT 10SM FEW100 A2990 RMK MADISHF
BLH,2017-04-01 19:50,-114.7169,33.6192,M,M,M,M,M,M,29.90,M,10.00,M,FEW,M,M,M,9500.00,M,M,M,M,KBLH 011950Z AUTO /////KT 10SM FEW095 A2990 RMK MADISHF
BLH,2017-04-01 19:52,-114.7169,33.6192,79.00,37.00,22.05,M,M,0.00,29.90,1011.90,10.00,M,FEW,M,M,M,10000.00,M,M,M,M,KBLH 011952Z AUTO 10SM FEW100 26/03 A2990 RMK AO2 SLP119 T02610028
BLH,2017-04-01 19:55,-114.7169,33.6192,M,M,M,50.00,13.00,M,29.90,M,10.00,18.00,SCT,M,M,M,10000.00,M,M,M,M,KBLH 011955Z AUTO 05013G18KT 10SM SCT100 A2990 RMK MADISHF
BLH,2017-04-01 20:00,-114.7169,33.6192,M,M,M,30.00,8.00,M,29.90,M,10.00,M,BKN,M,M,M,9500.00,M,M,M,M,KBLH 012000Z AUTO 03008KT 10SM BKN095 A2990 RMK MADISHF
BLH,2017-04-01 20:05,-114.7169,33.6192,M,M,M,80.00,8.00,M,29.90,M,10.00,M,BKN,M,M,M,9500.00,M,M,M,M,KBLH 012005Z AUTO 08008KT 10SM BKN095 A2990 RMK MADISHF
BLH,2017-04-01 20:10,-114.7169,33.6192,M,M,M,90.00,12.00,M,29.90,M,10.00,M,BKN,M,M,M,9500.00,M,M,M,M,KBLH 012010Z AUTO 09012KT 10SM BKN095 A2990 RMK MADISHF
BLH,2017-04-01 20:15,-114.7169,33.6192,M,M,M,70.00,12.00,M,29.90,M,10.00,19.00,BKN,M,M,M,9500.00,M,M,M,M,KBLH 012015Z AUTO 07012G19KT 10SM BKN095 A2990 RMK MADISHF
BLH,2017-04-01 20:20,-114.7169,33.6192,M,M,M,70.00,10.00,M,29.90,M,10.00,M,OVC,M,M,M,10000.00,M,M,M,M,KBLH 012020Z AUTO 07010KT 10SM OVC100 A2990 RMK MADISHF
BLH,2017-04-01 20:25,-114.7169,33.6192,M,M,M,60.00,12.00,M,29.89,M,10.00,M,OVC,M,M,M,10000.00,M,M,M,M,KBLH 012025Z AUTO 06012KT 10SM OVC100 A2989 RMK MADISHF
BLH,2017-04-01 20:30,-114.7169,33.6192,M,M,M,90.00,10.00,M,29.89,M,10.00,M,OVC,M,M,M,10000.00,M,M,M,M,KBLH 012030Z AUTO 09010KT 10SM OVC100 A2989 RMK MADISHF
BLH,2017-04-01 20:35,-114.7169,33.6192,M,M,M,M,M,M,29.89,M,10.00,M,OVC,M,M,M,10000.00,M,M,M,M,KBLH 012035Z AUTO /////KT 10SM OVC100 A2989 RMK MADISHF
BLH,2017-04-01 20:40,-114.7169,33.6192,M,M,M,M,M,M,29.89,M,10.00,M,OVC,M,M,M,10000.00,M,M,M,M,KBLH 012040Z AUTO /////KT 10SM OVC100 A2989 RMK MADISHF
BLH,2017-04-01 20:45,-114.7169,33.6192,M,M,M,70.00,9.00,M,29.89,M,10.00,14.00,OVC,M,M,M,10000.00,M,M,M,M,KBLH 012045Z AUTO 07009G14KT 10SM OVC100 A2989 RMK MADISHF
BLH,2017-04-01 20:50,-114.7169,33.6192,M,M,M,70.00,12.00,M,29.89,M,10.00,M,OVC,M,M,M,10000.00,M,M,M,M,KBLH 012050Z AUTO 07012KT 10SM OVC100 A2989 RMK MADISHF
BLH,2017-04-01 20:52,-114.7169,33.6192,78.10,39.90,25.44,70.00,12.00,0.00,29.89,1011.70,10.00,18.00,BKN,M,M,M,10000.00,M,M,M,M,KBLH 012052Z AUTO 07012G18KT 10SM BKN100 26/04 A2989 RMK AO2 SLP117 T02560044 56013
BLH,2017-04-01 20:55,-114.7169,33.6192,M,M,M,M,M,M,29.89,M,10.00,M,BKN,M,M,M,10000.00,M,M,M,M,KBLH 012055Z AUTO /////KT 10SM BKN100 A2989 RMK MADISHF
BLH,2017-04-01 21:00,-114.7169,33.6192,M,M,M,60.00,11.00,M,29.89,M,10.00,M,BKN,M,M,M,10000.00,M,M,M,M,KBLH 012100Z AUTO 06011KT 10SM BKN100 A2989 RMK MADISHF
BLH,2017-04-01 21:05,-114.7169,33.6192,M,M,M,40.00,11.00,M,29.88,M,10.00,M,BKN,M,M,M,10000.00,M,M,M,M,KBLH 012105Z AUTO 04011KT 10SM BKN100 A2988 RMK MADISHF
BLH,2017-04-01 21:10,-114.7169,33.6192,M,M,M,60.00,11.00,M,29.88,M,10.00,M,SCT,M,M,M,10000.00,M,M,M,M,KBLH 012110Z AUTO 06011KT 10SM SCT100 A2988 RMK MADISHF
BLH,2017-04-01 21:15,-114.7169,33.6192,M,M,M,50.00,13.00,M,29.88,M,10.00,M,FEW,M,M,M,10000.00,M,M,M,M,KBLH 012115Z AUTO 05013KT 10SM FEW100 A2988 RMK MADISHF
BLH,2017-04-01 21:20,-114.7169,33.6192,M,M,M,30.00,13.00,M,29.88,M,10.00,M,FEW,M,M,M,10000.00,M,M,M,M,KBLH 012120Z AUTO 03013KT 10SM FEW100 A2988 RMK MADISHF
BLH,2017-04-01 21:25,-114.7169,33.6192,M,M,M,40.00,10.00,M,29.87,M,10.00,M,FEW,M,M,M,10000.00,M,M,M,M,KBLH 012125Z AUTO 04010KT 10SM FEW100 A2987 RMK MADISHF
BLH,2017-04-01 21:30,-114.7169,33.6192,M,M,M,50.00,11.00,M,29.87,M,10.00,17.00,CLR,M,M,M,M,M,M,M,M,KBLH 012130Z AUTO 05011G17KT 10SM CLR A2987 RMK MADISHF
BLH,2017-04-01 21:35,-114.7169,33.6192,M,M,M,40.00,12.00,M,29.87,M,10.00,17.00,CLR,M,M,M,M,M,M,M,M,KBLH 012135Z AUTO 04012G17KT 10SM CLR A2987 RMK MADISHF
BLH,2017-04-01 21:40,-114.7169,33.6192,M,M,M,70.00,11.00,M,29.87,M,10.00,M,CLR,M,M,M,M,M,M,M,M,KBLH 012140Z AUTO 07011KT 10SM CLR A2987 RMK MADISHF
BLH,2017-04-01 21:45,-114.7169,33.6192,M,M,M,30.00,12.00,M,29.87,M,10.00,M,CLR,M,M,M,M,M,M,M,M,KBLH 012145Z AUTO 03012KT 10SM CLR A2987 RMK MADISHF
BLH,2017-04-01 21:50,-114.7169,33.6192,M,M,M,40.00,13.00,M,29.87,M,10.00,M,CLR,M,M,M,M,M,M,M,M,KBLH 012150Z AUTO 04013KT 10SM CLR A2987 RMK MADISHF
BLH,2017-04-01 21:52,-114.7169,33.6192,81.00,39.00,22.33,50.00,12.00,0.00,29.87,1011.00,10.00,M,CLR,M,M,M,M,M,M,M,M,KBLH 012152Z AUTO 05012KT 10SM CLR 27/04 A2987 RMK AO2 SLP110 T02720039
BLH,2017-04-01 21:55,-114.7169,33.6192,M,M,M,60.00,8.00,M,29.87,M,10.00,M,CLR,M,M,M,M,M,M,M,M,KBLH 012155Z AUTO 06008KT 10SM CLR A2987 RMK MADISHF
BLH,2017-04-01 22:00,-114.7169,33.6192,M,M,M,60.00,14.00,M,29.87,M,10.00,M,CLR,M,M,M,M,M,M,M,M,KBLH 012200Z AUTO 06014KT 10SM CLR A2987 RMK MADISHF
BLH,2017-04-01 22:05,-114.7169,33.6192,M,M,M,40.00,10.00,M,29.86,M,10.00,M,CLR,M,M,M,M,M,M,M,M,KBLH 012205Z AUTO 04010KT 10SM CLR A2986 RMK MADISHF
BLH,2017-04-01 22:10,-114.7169,33.6192,M,M,M,30.00,10.00,M,29.86,M,10.00,M,CLR,M,M,M,M,M,M,M,M,KBLH 012210Z AUTO 03010KT 10SM CLR A2986 RMK MADISHF
BLH,2017-04-01 22:15,-114.7169,33.6192,M,M,M,40.00,12.00,M,29.86,M,10.00,M,CLR,M,M,M,M,M,M,M,M,KBLH 012215Z AUTO 04012KT 10SM CLR A2986 RMK MADISHF
BLH,2017-04-01 22:20,-114.7169,33.6192,M,M,M,60.00,5.00,M,29.86,M,10.00,M,CLR,M,M,M,M,M,M,M,M,KBLH 012220Z AUTO 06005KT 10SM CLR A2986 RMK MADISHF
BLH,2017-04-01 22:25,-114.7169,33.6192,M,M,M,60.00,10.00,M,29.86,M,10.00,18.00,CLR,M,M,M,M,M,M,M,M,KBLH 012225Z AUTO 06010G18KT 10SM CLR A2986 RMK MADISHF
BLH,2017-04-01 22:30,-114.7169,33.6192,M,M,M,60.00,11.00,M,29.86,M,10.00,M,CLR,M,M,M,M,M,M,M,M,KBLH 012230Z AUTO 06011KT 10SM CLR A2986 RMK MADISHF
BLH,2017-04-01 22:35,-114.7169,33.6192,M,M,M,100.00,7.00,M,29.86,M,10.00,M,CLR,M,M,M,M,M,M,M,M,KBLH 012235Z AUTO 10007KT 10SM CLR A2986 RMK WND 06V13  MADISHF
BLH,2017-04-01 22:40,-114.7169,33.6192,M,M,M,100.00,10.00,M,29.86,M,10.00,M,CLR,M,M,M,M,M,M,M,M,KBLH 012240Z AUTO 10010KT 10SM CLR A2986 RMK MADISHF
BLH,2017-04-01 22:45,-114.7169,33.6192,M,M,M,80.00,11.00,M,29.85,M,10.00,M,CLR,M,M,M,M,M,M,M,M,KBLH 012245Z AUTO 08011KT 10SM CLR A2985 RMK MADISHF
BLH,2017-04-01 22:50,-114.7169,33.6192,M,M,M,M,M,M,29.85,M,10.00,M,CLR,M,M,M,M,M,M,M,M,KBLH 012250Z AUTO /////KT 10SM CLR A2985 RMK MADISHF
BLH,2017-04-01 22:52,-114.7169,33.6192,80.10,39.90,23.82,100.00,10.00,0.00,29.85,1010.50,10.00,22.00,CLR,M,M,M,M,M,M,M,M,KBLH 012252Z AUTO 10010G22KT 10SM CLR 27/04 A2985 RMK AO2 SLP105 T02670044
BLH,2017-04-01 22:55,-114.7169,33.6192,M,M,M,90.00,11.00,M,29.85,M,10.00,M,CLR,M,M,M,M,M,M,M,M,KBLH 012255Z AUTO 09011KT 10SM CLR A2985 RMK MADISHF
BLH,2017-04-01 23:00,-114.7169,33.6192,M,M,M,70.00,11.00,M,29.85,M,10.00,M,CLR,M,M,M,M,M,M,M,M,KBLH 012300Z AUTO 07011KT 10SM CLR A2985 RMK MADISHF
BLH,2017-04-01 23:05,-114.7169,33.6192,M,M,M,50.00,10.00,M,29.86,M,10.00,15.00,CLR,M,M,M,M,M,M,M,M,KBLH 012305Z AUTO 05010G15KT 10SM CLR A2986 RMK MADISHF
BLH,2017-04-01 23:10,-114.7169,33.6192,M,M,M,50.00,11.00,M,29.86,M,10.00,M,CLR,M,M,M,M,M,M,M,M,KBLH 012310Z AUTO 05011KT 10SM CLR A2986 RMK MADISHF
BLH,2017-04-01 23:15,-114.7169,33.6192,M,M,M,70.00,11.00,M,29.86,M,10.00,16.00,CLR,M,M,M,M,M,M,M,M,KBLH 012315Z AUTO 07011G16KT 10SM CLR A2986 RMK MADISHF
BLH,2017-04-01 23:20,-114.7169,33.6192,M,M,M,50.00,11.00,M,29.86,M,10.00,M,CLR,M,M,M,M,M,M,M,M,KBLH 012320Z AUTO 05011KT 10SM CLR A2986 RMK MADISHF
BLH,2017-04-01 23:25,-114.7169,33.6192,M,M,M,70.00,11.00,M,29.86,M,10.00,M,CLR,M,M,M,M,M,M,M,M,KBLH 012325Z AUTO 07011KT 10SM CLR A2986 RMK MADISHF
BLH,2017-04-01 23:30,-114.7169,33.6192,M,M,M,100.00,13.00,M,29.86,M,10.00,M,CLR,M,M,M,M,M,M,M,M,KBLH 012330Z AUTO 10013KT 10SM CLR A2986 RMK MADISHF
BLH,2017-04-01 23:35,-114.7169,33.6192,M,M,M,90.00,13.00,M,29.86,M,10.00,M,CLR,M,M,M,M,M,M,M,M,KBLH 012335Z AUTO 09013KT 10SM CLR A2986 RMK MADISHF
BLH,2017-04-01 23:40,-114.7169,33.6192,M,M,M,70.00,12.00,M,29.86,M,10.00,M,CLR,M,M,M,M,M,M,M,M,KBLH 012340Z AUTO 07012KT 10SM CLR A2986 RMK MADISHF
BLH,2017-04-01 23:45,-114.7169,33.6192,M,M,M,60.00,13.00,M,29.86,M,10.00,19.00,CLR,M,M,M,M,M,M,M,M,KBLH 012345Z AUTO 06013G19KT 10SM CLR A2986 RMK MADISHF
BLH,2017-04-01 23:50,-114.7169,33.6192,M,M,M,60.00,15.00,M,29.86,M,10.00,M,CLR,M,M,M,M,M,M,M,M,KBLH 012350Z AUTO 06015KT 10SM CLR A2986 RMK MADISHF
BLH,2017-04-01 23:52,-114.7169,33.6192,80.10,39.90,23.82,80.00,15.00,0.00,29.86,1010.70,10.00,19.00,CLR,M,M,M,M,M,M,M,M,KBLH 012352Z AUTO 08015G19KT 10SM CLR 27/04 A2986 RMK AO2 SLP107 T02670044 10278 20222 55009
BLH,2017-04-01 23:55,-114.7169,33.6192,M,M,M,70.00,13.00,M,29.86,M,10.00,M,CLR,M,M,M,M,M,M,M,M,KBLH 012355Z AUTO 07013KT 10SM CLR A2986 RMK MADISHF
