#DEBUG: Format Typ    -> comma
#DEBUG: Time Period   -> 2017-04-01 00:00:00+00:00 2017-04-02 00:00:00+00:00
#DEBUG: Time Zone     -> Etc/UTC
#DEBUG: Data Contact   -> daryl herzmann akrherz@iastate.edu 515-294-5978
#DEBUG: Entries Found -> -1
station,valid,lon,lat,tmpf, dwpf, relh, drct, sknt, p01i, alti, mslp, vsby, gust, skyc1, skyc2, skyc3, skyc4, skyl1, skyl2, skyl3, skyl4, presentwx, metar
BLI,2017-04-01 00:00,-122.5375,48.7927,M,M,M,170.00,4.00,M,30.30,M,10.00,M,OVC,M,M,M,7000.00,M,M,M,M,KBLI 010000Z AUTO 17004KT 10SM OVC070 A3030 RMK MADISHF
BLI,2017-04-01 00:05,-122.5375,48.7927,M,M,M,180.00,4.00,M,30.30,M,10.00,M,OVC,M,M,M,7000.00,M,M,M,M,KBLI 010005Z AUTO 18004KT 10SM OVC070 A3030 RMK MADISHF
BLI,2017-04-01 00:10,-122.5375,48.7927,M,M,M,230.00,3.00,M,30.30,M,10.00,M,OVC,M,M,M,7000.00,M,M,M,M,KBLI 010010Z AUTO 23003KT 10SM OVC070 A3030 RMK MADISHF
BLI,2017-04-01 00:15,-122.5375,48.7927,M,M,M,210.00,3.00,M,30.30,M,10.00,M,OVC,M,M,M,7000.00,M,M,M,M,KBLI 010015Z AUTO 21003KT 10SM OVC070 A3030 RMK MADISHF
BLI,2017-04-01 00:20,-122.5375,48.7927,M,M,M,220.00,3.00,M,30.30,M,10.00,M,OVC,M,M,M,7000.00,M,M,M,M,KBLI 010020Z AUTO 22003KT 10SM OVC070 A3030 RMK MADISHF
BLI,2017-04-01 00:25,-122.5375,48.7927,M,M,M,0.00,0.00,M,30.29,M,10.00,M,OVC,M,M,M,7000.00,M,M,M,M,KBLI 010025Z AUTO 00000KT 10SM OVC070 A3029 RMK MADISHF
BLI,2017-04-01 00:30,-122.5375,48.7927,M,M,M,0.00,0.00,M,30.29,M,10.00,M,OVC,M,M,M,7000.00,M,M,M,M,KBLI 010030Z AUTO 00000KT 10SM OVC070 A3029 RMK MADISHF
BLI,2017-04-01 00:35,-122.5375,48.7927,M,M,M,0.00,0.00,M,30.29,M,10.00,M,OVC,M,M,M,7000.00,M,M,M,M,KBLI 010035Z AUTO 00000KT 10SM OVC070 A3029 RMK MADISHF
BLI,2017-04-01 00:40,-122.5375,48.7927,M,M,M,0.00,0.00,M,30.29,M,10.00,M,OVC,M,M,M,7000.00,M,M,M,M,KBLI 010040Z AUTO 00000KT 10SM OVC070 A3029 RMK MADISHF
BLI,2017-04-01 00:45,-122.5375,48.7927,M,M,M,0.00,0.00,M,30.29,M,10.00,M,OVC,M,M,M,7000.00,M,M,M,M,KBLI 010045Z AUTO 00000KT 10SM OVC070 A3029 RMK MADISHF
BLI,2017-04-01 00:50,-122.5375,48.7927,M,M,M,290.00,4.00,M,30.29,M,10.00,M,OVC,M,M,M,7000.00,M,M,M,M,KBLI 010050Z AUTO 29004KT 10SM OVC070 A3029 RMK MADISHF
BLI,2017-04-01 00:53,-122.5375,48.7927,53.10,39.90,60.73,M,3.00,0.00,30.29,1026.50,10.00,M,OVC,M,M,M,7000.00,M,M,M,M,KBLI 010053Z VRB03KT 10SM OVC070 12/04 A3029 RMK AO2 SLP265 T01170044
BLI,2017-04-01 00:55,-122.5375,48.7927,M,M,M,0.00,0.00,M,30.29,M,10.00,M,OVC,M,M,M,7000.00,M,M,M,M,KBLI 010055Z AUTO 00000KT 10SM OVC070 A3029 RMK MADISHF
BLI,2017-04-01 01:00,-122.5375,48.7927,M,M,M,300.00,3.00,M,30.28,M,10.00,M,OVC,M,M,M,6500.00,M,M,M,M,KBLI 010100Z AUTO 30003KT 10SM OVC065 A3028 RMK VRB03KT  MADISHF
BLI,2017-04-01 01:05,-122.5375,48.7927,M,M,M,0.00,0.00,M,30.28,M,10.00,M,OVC,M,M,M,6500.00,M,M,M,M,KBLI 010105Z AUTO 00000KT 10SM OVC065 A3028 RMK MADISHF
BLI,2017-04-01 01:10,-122.5375,48.7927,M,M,M,0.00,0.00,M,30.27,M,10.00,M,OVC,M,M,M,6500.00,M,M,M,M,KBLI 010110Z AUTO 00000KT 10SM OVC065 A3027 RMK MADISHF
BLI,2017-04-01 01:15,-122.5375,48.7927,M,M,M,0.00,0.00,M,30.27,M,10.00,M,OVC,M,M,M,6500.00,M,M,M,M,KBLI 010115Z AUTO 00000KT 10SM OVC065 A3027 RMK MADISHF
BLI,2017-04-01 01:20,-122.5375,48.7927,M,M,M,0.00,0.00,M,30.27,M,10.00,M,OVC,M,M,M,6500.00,M,M,M,M,KBLI 010120Z AUTO 00000KT 10SM OVC065 A3027 RMK MADISHF
BLI,2017-04-01 01:25,-122.5375,48.7927,M,M,M,0.00,0.00,M,30.27,M,10.00,M,OVC,M,M,M,6500.00,M,M,M,M,KBLI 010125Z AUTO 00000KT 10SM OVC065 A3027 RMK MADISHF
BLI,2017-04-01 01:30,-122.5375,48.7927,M,M,M,140.00,3.00,M,30.26,M,10.00,M,OVC,M,M,M,6500.00,M,M,M,M,KBLI 010130Z AUTO 14003KT 10SM OVC065 A3026 RMK MADISHF
BLI,2017-04-01 01:35,-122.5375,48.7927,M,M,M,160.00,3.00,M,30.26,M,10.00,M,OVC,M,M,M,6500.00,M,M,M,M,KBLI 010135Z AUTO 16003KT 10SM OVC065 A3026 RMK MADISHF
BLI,2017-04-01 01:40,-122.5375,48.7927,M,M,M,170.00,3.00,M,30.26,M,10.00,M,BKN,M,M,M,6500.00,M,M,M,M,KBLI 010140Z AUTO 17003KT 10SM BKN065 A3026 RMK MADISHF
BLI,2017-04-01 01:45,-122.5375,48.7927,M,M,M,170.00,3.00,M,30.27,M,10.00,M,BKN,OVC,M,M,6500.00,12000.00,M,M,M,KBLI 010145Z AUTO 17003KT 10SM BKN065 OVC120 A3027 RMK MADISHF
BLI,2017-04-01 01:50,-122.5375,48.7927,M,M,M,210.00,3.00,M,30.27,M,10.00,M,BKN,OVC,M,M,6500.00,12000.00,M,M,M,KBLI 010150Z AUTO 21003KT 10SM BKN065 OVC120 A3027 RMK MADISHF
BLI,2017-04-01 01:53,-122.5375,48.7927,52.00,42.10,68.86,0.00,0.00,0.00,30.27,1025.70,10.00,M,OVC,M,M,M,6500.00,M,M,M,M,KBLI 010153Z 00000KT 10SM OVC065 11/06 A3027 RMK AO2 SLP257 T01110056
BLI,2017-04-01 01:55,-122.5375,48.7927,M,M,M,0.00,0.00,M,30.27,M,10.00,M,OVC,M,M,M,6500.00,M,M,M,M,KBLI 010155Z AUTO 00000KT 10SM OVC065 A3027 RMK MADISHF
BLI,2017-04-01 02:00,-122.5375,48.7927,M,M,M,0.00,0.00,M,30.27,M,10.00,M,OVC,M,M,M,6500.00,M,M,M,M,KBLI 010200Z AUTO 00000KT 10SM OVC065 A3027 RMK MADISHF
BLI,2017-04-01 02:05,-122.5375,48.7927,M,M,M,210.00,3.00,M,30.26,M,10.00,M,OVC,M,M,M,6500.00,M,M,M,M,KBLI 010205Z AUTO 21003KT 10SM OVC065 A3026 RMK MADISHF
BLI,2017-04-01 02:10,-122.5375,48.7927,M,M,M,0.00,0.00,M,30.26,M,10.00,M,OVC,M,M,M,6500.00,M,M,M,M,KBLI 010210Z AUTO 00000KT 10SM OVC065 A3026 RMK MADISHF
BLI,2017-04-01 02:15,-122.5375,48.7927,M,M,M,0.00,0.00,M,30.26,M,10.00,M,OVC,M,M,M,6500.00,M,M,M,M,KBLI 010215Z AUTO 00000KT 10SM OVC065 A3026 RMK MADISHF
BLI,2017-04-01 02:20,-122.5375,48.7927,M,M,M,0.00,0.00,M,30.26,M,10.00,M,OVC,M,M,M,6500.00,M,M,M,M,KBLI 010220Z AUTO 00000KT 10SM OVC065 A3026 RMK MADISHF
BLI,2017-04-01 02:25,-122.5375,48.7927,M,M,M,0.00,0.00,M,30.26,M,10.00,M,OVC,M,M,M,6500.00,M,M,M,M,KBLI 010225Z AUTO 00000KT 10SM OVC065 A3026 RMK MADISHF
BLI,2017-04-01 02:30,-122.5375,48.7927,M,M,M,0.00,0.00,M,30.25,M,10.00,M,OVC,M,M,M,6500.00,M,M,M,M,KBLI 010230Z AUTO 00000KT 10SM OVC065 A3025 RMK MADISHF
BLI,2017-04-01 02:35,-122.5375,48.7927,M,M,M,0.00,0.00,M,30.25,M,10.00,M,OVC,M,M,M,6500.00,M,M,M,M,KBLI 010235Z AUTO 00000KT 10SM OVC065 A3025 RMK MADISHF
BLI,2017-04-01 02:40,-122.5375,48.7927,M,M,M,0.00,0.00,M,30.25,M,10.00,M,OVC,M,M,M,6500.00,M,M,M,M,KBLI 010240Z AUTO 00000KT 10SM OVC065 A3025 RMK MADISHF
BLI,2017-04-01 02:45,-122.5375,48.7927,M,M,M,0.00,0.00,M,30.25,M,10.00,M,OVC,M,M,M,6500.00,M,M,M,M,KBLI 010245Z AUTO 00000KT 10SM OVC065 A3025 RMK MADISHF
BLI,2017-04-01 02:50,-122.5375,48.7927,M,M,M,0.00,0.00,M,30.24,M,10.00,M,OVC,M,M,M,6500.00,M,M,M,M,KBLI 010250Z AUTO 00000KT 10SM OVC065 A3024 RMK MADISHF
BLI,2017-04-01 02:53,-122.5375,48.7927,51.10,42.10,71.19,0.00,0.00,0.00,30.24,1024.90,10.00,M,OVC,M,M,M,6500.00,M,M,M,M,KBLI 010253Z 00000KT 10SM OVC065 11/06 A3024 RMK AO2 SLP249 T01060056 58018
BLI,2017-04-01 02:55,-122.5375,48.7927,M,M,M,0.00,0.00,M,30.24,M,10.00,M,OVC,M,M,M,6500.00,M,M,M,M,KBLI 010255Z AUTO 00000KT 10SM OVC065 A3024 RMK MADISHF
BLI,2017-04-01 03:00,-122.5375,48.7927,M,M,M,0.00,0.00,M,30.25,M,10.00,M,OVC,M,M,M,6500.00,M,M,M,M,KBLI 010300Z AUTO 00000KT 10SM OVC065 A3025 RMK MADISHF
BLI,2017-04-01 03:05,-122.5375,48.7927,M,M,M,0.00,0.00,M,30.24,M,10.00,M,OVC,M,M,M,6000.00,M,M,M,M,KBLI 010305Z AUTO 00000KT 10SM OVC060 A3024 RMK MADISHF
BLI,2017-04-01 03:10,-122.5375,48.7927,M,M,M,0.00,0.00,M,30.24,M,10.00,M,OVC,M,M,M,6000.00,M,M,M,M,KBLI 010310Z AUTO 00000KT 10SM OVC060 A3024 RMK MADISHF
BLI,2017-04-01 03:15,-122.5375,48.7927,M,M,M,0.00,0.00,M,30.24,M,10.00,M,OVC,M,M,M,6000.00,M,M,M,M,KBLI 010315Z AUTO 00000KT 10SM OVC060 A3024 RMK MADISHF
BLI,2017-04-01 03:20,-122.5375,48.7927,M,M,M,0.00,0.00,M,30.25,M,10.00,M,OVC,M,M,M,6000.00,M,M,M,M,KBLI 010320Z AUTO 00000KT 10SM OVC060 A3025 RMK MADISHF
BLI,2017-04-01 03:25,-122.5375,48.7927,M,M,M,0.00,0.00,M,30.25,M,10.00,M,OVC,M,M,M,6000.00,M,M,M,M,KBLI 010325Z AUTO 00000KT 10SM OVC060 A3025 RMK MADISHF
BLI,2017-04-01 03:30,-122.5375,48.7927,M,M,M,260.00,3.00,M,30.25,M,10.00,M,OVC,M,M,M,6500.00,M,M,M,M,KBLI 010330Z AUTO 26003KT 10SM OVC065 A3025 RMK MADISHF
BLI,2017-04-01 03:35,-122.5375,48.7927,M,M,M,260.00,3.00,M,30.25,M,10.00,M,OVC,M,M,M,6500.00,M,M,M,M,KBLI 010335Z AUTO 26003KT 10SM OVC065 A3025 RMK MADISHF
BLI,2017-04-01 03:40,-122.5375,48.7927,M,M,M,0.00,0.00,M,30.25,M,10.00,M,OVC,M,M,M,6500.00,M,M,M,M,KBLI 010340Z AUTO 00000KT 10SM OVC065 A3025 RMK MADISHF
BLI,2017-04-01 03:45,-122.5375,48.7927,M,M,M,0.00,0.00,M,30.25,M,10.00,M,OVC,M,M,M,6500.00,M,M,M,M,KBLI 010345Z AUTO 00000KT 10SM OVC065 A3025 RMK MADISHF
BLI,2017-04-01 03:50,-122.5375,48.7927,M,M,M,0.00,0.00,M,30.25,M,10.00,M,OVC,M,M,M,6500.00,M,M,M,M,KBLI 010350Z AUTO 00000KT 10SM OVC065 A3025 RMK MADISHF
BLI,2017-04-01 03:53,-122.5375,48.7927,50.00,43.00,76.76,0.00,0.00,0.00,30.25,1025.10,10.00,M,OVC,M,M,M,6500.00,M,M,M,M,KBLI 010353Z 00000KT 10SM OVC065 10/06 A3025 RMK AO2 SLP251 T01000061
BLI,2017-04-01 03:55,-122.5375,48.7927,M,M,M,0.00,0.00,M,30.25,M,10.00,M,OVC,M,M,M,6500.00,M,M,M,M,KBLI 010355Z AUTO 00000KT 10SM OVC065 A3025 RMK MADISHF
BLI,2017-04-01 04:00,-122.5375,48.7927,M,M,M,0.00,0.00,M,30.25,M,10.00,M,OVC,M,M,M,6500.00,M,M,M,M,KBLI 010400Z AUTO 00000KT 10SM OVC065 A3025 RMK MADISHF
BLI,2017-04-01 04:05,-122.5375,48.7927,M,M,M,0.00,0.00,M,30.25,M,10.00,M,OVC,M,M,M,6500.00,M,M,M,M,KBLI 010405Z AUTO 00000KT 10SM OVC065 A3025 RMK MADISHF
BLI,2017-04-01 04:10,-122.5375,48.7927,M,M,M,0.00,0.00,M,30.25,M,10.00,M,OVC,M,M,M,6500.00,M,M,M,M,KBLI 010410Z AUTO 00000KT 10SM OVC065 A3025 RMK MADISHF
BLI,2017-04-01 04:15,-122.5375,48.7927,M,M,M,0.00,0.00,M,30.25,M,10.00,M,OVC,M,M,M,6500.00,M,M,M,M,KBLI 010415Z AUTO 00000KT 10SM OVC065 A3025 RMK MADISHF
BLI,2017-04-01 04:20,-122.5375,48.7927,M,M,M,0.00,0.00,M,30.25,M,10.00,M,OVC,M,M,M,6500.00,M,M,M,M,KBLI 010420Z AUTO 00000KT 10SM OVC065 A3025 RMK MADISHF
BLI,2017-04-01 04:25,-122.5375,48.7927,M,M,M,0.00,0.00,M,30.25,M,10.00,M,OVC,M,M,M,6500.00,M,M,M,M,KBLI 010425Z AUTO 00000KT 10SM OVC065 A3025 RMK MADISHF
BLI,2017-04-01 04:30,-122.5375,48.7927,M,M,M,0.00,0.00,M,30.25,M,10.00,M,OVC,M,M,M,6500.00,M,M,M,M,KBLI 010430Z AUTO 00000KT 10SM OVC065 A3025 RMK MADISHF
BLI,2017-04-01 04:35,-122.5375,48.7927,M,M,M,0.00,0.00,M,30.25,M,10.00,M,OVC,M,M,M,6000.00,M,M,M,M,KBLI 010435Z AUTO 00000KT 10SM OVC060 A3025 RMK MADISHF
BLI,2017-04-01 04:40,-122.5375,48.7927,M,M,M,0.00,0.00,M,30.25,M,10.00,M,OVC,M,M,M,6000.00,M,M,M,M,KBLI 010440Z AUTO 00000KT 10SM OVC060 A3025 RMK MADISHF
BLI,2017-04-01 04:45,-122.5375,48.7927,M,M,M,0.00,0.00,M,30.25,M,10.00,M,OVC,M,M,M,6000.00,M,M,M,M,KBLI 010445Z AUTO 00000KT 10SM OVC060 A3025 RMK MADISHF
BLI,2017-04-01 04:50,-122.5375,48.7927,M,M,M,0.00,0.00,M,30.25,M,10.00,M,OVC,M,M,M,6000.00,M,M,M,M,KBLI 010450Z AUTO 00000KT 10SM OVC060 A3025 RMK MADISHF
BLI,2017-04-01 04:53,-122.5375,48.7927,48.90,43.00,79.98,0.00,0.00,0.00,30.25,1025.30,10.00,M,OVC,M,M,M,6000.00,M,M,M,M,KBLI 010453Z 00000KT 10SM OVC060 09/06 A3025 RMK AO2 SLP253 T00940061
BLI,2017-04-01 04:55,-122.5375,48.7927,M,M,M,0.00,0.00,M,30.25,M,10.00,M,OVC,M,M,M,6000.00,M,M,M,M,KBLI 010455Z AUTO 00000KT 10SM OVC060 A3025 RMK MADISHF
BLI,2017-04-01 05:00,-122.5375,48.7927,M,M,M,0.00,0.00,M,30.25,M,10.00,M,OVC,M,M,M,6000.00,M,M,M,M,KBLI 010500Z AUTO 00000KT 10SM OVC060 A3025 RMK MADISHF
BLI,2017-04-01 05:05,-122.5375,48.7927,M,M,M,80.00,3.00,M,30.24,M,10.00,M,OVC,M,M,M,6000.00,M,M,M,M,KBLI 010505Z AUTO 08003KT 10SM OVC060 A3024 RMK MADISHF
BLI,2017-04-01 05:10,-122.5375,48.7927,M,M,M,0.00,0.00,M,30.24,M,10.00,M,OVC,M,M,M,6000.00,M,M,M,M,KBLI 010510Z AUTO 00000KT 10SM OVC060 A3024 RMK MADISHF
BLI,2017-04-01 05:15,-122.5375,48.7927,M,M,M,310.00,3.00,M,30.25,M,10.00,M,OVC,M,M,M,6000.00,M,M,M,M,KBLI 010515Z AUTO 31003KT 10SM OVC060 A3025 RMK MADISHF
BLI,2017-04-01 05:20,-122.5375,48.7927,M,M,M,310.00,3.00,M,30.26,M,10.00,M,OVC,M,M,M,6000.00,M,M,M,M,KBLI 010520Z AUTO 31003KT 10SM OVC060 A3026 RMK MADISHF
BLI,2017-04-01 05:25,-122.5375,48.7927,M,M,M,0.00,0.00,M,30.25,M,10.00,M,OVC,M,M,M,6000.00,M,M,M,M,KBLI 010525Z AUTO 00000KT 10SM OVC060 A3025 RMK MADISHF
BLI,2017-04-01 05:30,-122.5375,48.7927,M,M,M,0.00,0.00,M,30.25,M,10.00,M,OVC,M,M,M,6000.00,M,M,M,M,KBLI 010530Z AUTO 00000KT 10SM OVC060 A3025 RMK MADISHF
BLI,2017-04-01 05:35,-122.5375,48.7927,M,M,M,0.00,0.00,M,30.25,M,10.00,M,OVC,M,M,M,6000.00,M,M,M,M,KBLI 010535Z AUTO 00000KT 10SM OVC060 A3025 RMK MADISHF
BLI,2017-04-01 05:40,-122.5375,48.7927,M,M,M,0.00,0.00,M,30.25,M,10.00,M,OVC,M,M,M,6000.00,M,M,M,M,KBLI 010540Z AUTO 00000KT 10SM OVC060 A3025 RMK MADISHF
BLI,2017-04-01 05:45,-122.5375,48.7927,M,M,M,0.00,0.00,M,30.25,M,10.00,M,OVC,M,M,M,6000.00,M,M,M,M,KBLI 010545Z AUTO 00000KT 10SM OVC060 A3025 RMK MADISHF
BLI,2017-04-01 05:50,-122.5375,48.7927,M,M,M,0.00,0.00,M,30.25,M,10.00,M,OVC,M,M,M,6000.00,M,M,M,M,KBLI 010550Z AUTO 00000KT 10SM OVC060 A3025 RMK MADISHF
BLI,2017-04-01 05:53,-122.5375,48.7927,48.90,43.00,79.98,0.00,0.00,0.00,30.25,1025.10,10.00,M,OVC,M,M,M,6000.00,M,M,M,M,KBLI 010553Z AUTO 00000KT 10SM OVC060 09/06 A3025 RMK AO2 SLP251 T00940061 10117 20094 50001
BLI,2017-04-01 05:55,-122.5375,48.7927,M,M,M,0.00,0.00,M,30.25,M,10.00,M,OVC,M,M,M,6000.00,M,M,M,M,KBLI 010555Z AUTO 00000KT 10SM OVC060 A3025 RMK MADISHF
BLI,2017-04-01 06:00,-122.5375,48.7927,M,M,M,0.00,0.00,M,30.25,M,10.00,M,OVC,M,M,M,6000.00,M,M,M,M,KBLI 010600Z AUTO 00000KT 10SM OVC060 A3025 RMK MADISHF
BLI,2017-04-01 06:05,-122.5375,48.7927,M,M,M,0.00,0.00,M,30.24,M,10.00,M,OVC,M,M,M,6000.00,M,M,M,M,KBLI 010605Z AUTO 00000KT 10SM OVC060 A3024 RMK MADISHF
BLI,2017-04-01 06:10,-122.5375,48.7927,M,M,M,0.00,0.00,M,30.24,M,10.00,M,OVC,M,M,M,6000.00,M,M,M,M,KBLI 010610Z AUTO 00000KT 10SM OVC060 A3024 RMK MADISHF
BLI,2017-04-01 06:15,-122.5375,48.7927,M,M,M,60.00,3.00,M,30.24,M,10.00,M,OVC,M,M,M,6000.00,M,M,M,M,KBLI 010615Z AUTO 06003KT 10SM OVC060 A3024 RMK MADISHF
BLI,2017-04-01 06:20,-122.5375,48.7927,M,M,M,0.00,0.00,M,30.24,M,10.00,M,OVC,M,M,M,6000.00,M,M,M,M,KBLI 010620Z AUTO 00000KT 10SM OVC060 A3024 RMK MADISHF
BLI,2017-04-01 06:25,-122.5375,48.7927,M,M,M,0.00,0.00,M,30.23,M,10.00,M,OVC,M,M,M,6000.00,M,M,M,M,KBLI 010625Z AUTO 00000KT 10SM OVC060 A3023 RMK MADISHF
BLI,2017-04-01 06:30,-122.5375,48.7927,M,M,M,0.00,0.00,M,30.23,M,10.00,M,OVC,M,M,M,6000.00,M,M,M,M,KBLI 010630Z AUTO 00000KT 10SM OVC060 A3023 RMK MADISHF
BLI,2017-04-01 06:35,-122.5375,48.7927,M,M,M,0.00,0.00,M,30.23,M,10.00,M,OVC,M,M,M,6000.00,M,M,M,M,KBLI 010635Z AUTO 00000KT 10SM OVC060 A3023 RMK MADISHF
BLI,2017-04-01 06:40,-122.5375,48.7927,M,M,M,0.00,0.00,M,30.23,M,10.00,M,OVC,M,M,M,6000.00,M,M,M,M,KBLI 010640Z AUTO 00000KT 10SM OVC060 A3023 RMK MADISHF
BLI,2017-04-01 06:45,-122.5375,48.7927,M,M,M,0.00,0.00,M,30.23,M,10.00,M,OVC,M,M,M,6000.00,M,M,M,M,KBLI 010645Z AUTO 00000KT 10SM OVC060 A3023 RMK MADISHF
BLI,2017-04-01 06:50,-122.5375,48.7927,M,M,M,0.00,0.00,M,30.22,M,10.00,M,OVC,M,M,M,6000.00,M,M,M,M,KBLI 010650Z AUTO 00000KT 10SM OVC060 A3022 RMK MADISHF
BLI,2017-04-01 06:53,-122.5375,48.7927,48.00,42.10,79.91,0.00,0.00,0.00,30.22,1024.10,10.00,M,OVC,M,M,M,6000.00,M,M,M,M,KBLI 010653Z AUTO 00000KT 10SM OVC060 09/06 A3022 RMK AO2 SLP241 T00890056
BLI,2017-04-01 06:55,-122.5375,48.7927,M,M,M,0.00,0.00,M,30.22,M,10.00,M,OVC,M,M,M,6000.00,M,M,M,M,KBLI 010655Z AUTO 00000KT 10SM OVC060 A3022 RMK MADISHF
BLI,2017-04-01 07:00,-122.5375,48.7927,M,M,M,0.00,0.00,M,30.22,M,10.00,M,OVC,M,M,M,6000.00,M,M,M,-RA,KBLI 010700Z AUTO 00000KT 10SM -RA OVC060 A3022 RMK MADISHF
BLI,2017-04-01 07:05,-122.5375,48.7927,M,M,M,0.00,0.00,M,30.22,M,10.00,M,OVC,M,M,M,6000.00,M,M,M,-RA,KBLI 010705Z AUTO 00000KT 10SM -RA OVC060 A3022 RMK MADISHF
BLI,2017-04-01 07:10,-122.5375,48.7927,M,M,M,0.00,0.00,M,30.21,M,10.00,M,OVC,M,M,M,6000.00,M,M,M,-RA,KBLI 010710Z AUTO 00000KT 10SM -RA OVC060 A3021 RMK MADISHF
BLI,2017-04-01 07:15,-122.5375,48.7927,M,M,M,90.00,3.00,M,30.20,M,10.00,M,OVC,M,M,M,6000.00,M,M,M,-RA,KBLI 010715Z AUTO 09003KT 10SM -RA OVC060 A3020 RMK MADISHF
BLI,2017-04-01 07:20,-122.5375,48.7927,M,M,M,90.00,4.00,M,30.20,M,10.00,M,OVC,M,M,M,6000.00,M,M,M,-RA,KBLI 010720Z AUTO 09004KT 10SM -RA OVC060 A3020 RMK MADISHF
BLI,2017-04-01 07:25,-122.5375,48.7927,M,M,M,80.00,4.00,M,30.19,M,10.00,M,OVC,M,M,M,6000.00,M,M,M,-RA,KBLI 010725Z AUTO 08004KT 10SM -RA OVC060 A3019 RMK MADISHF
BLI,2017-04-01 07:30,-122.5375,48.7927,M,M,M,90.00,3.00,M,30.19,M,10.00,M,BKN,OVC,M,M,6000.00,7500.00,M,M,-RA,KBLI 010730Z AUTO 09003KT 10SM -RA BKN060 OVC075 A3019 RMK MADISHF
BLI,2017-04-01 07:35,-122.5375,48.7927,M,M,M,0.00,0.00,0.01,30.19,M,10.00,M,BKN,OVC,M,M,6500.00,8500.00,M,M,-RA,KBLI 010735Z AUTO 00000KT 10SM -RA BKN065 OVC085 A3019 RMK P0001 MADISHF
BLI,2017-04-01 07:40,-122.5375,48.7927,M,M,M,0.00,0.00,0.01,30.20,M,10.00,M,BKN,OVC,M,M,6500.00,7999.00,M,M,-RA,KBLI 010740Z AUTO 00000KT 10SM -RA BKN065 OVC079 A3020 RMK P0001 MADISHF
BLI,2017-04-01 07:45,-122.5375,48.7927,M,M,M,0.00,0.00,0.01,30.20,M,10.00,M,OVC,M,M,M,6500.00,M,M,M,-RA,KBLI 010745Z AUTO 00000KT 10SM -RA OVC065 A3020 RMK P0001 MADISHF
BLI,2017-04-01 07:50,-122.5375,48.7927,M,M,M,0.00,0.00,0.01,30.20,M,10.00,M,OVC,M,M,M,6500.00,M,M,M,M,KBLI 010750Z AUTO 00000KT 10SM OVC065 A3020 RMK P0001 MADISHF
BLI,2017-04-01 07:53,-122.5375,48.7927,46.90,45.00,93.06,0.00,0.00,0.01,30.19,1023.20,10.00,M,OVC,M,M,M,6500.00,M,M,M,M,KBLI 010753Z AUTO 00000KT 10SM OVC065 08/07 A3019 RMK AO2 RAB0658E47 SLP232 P0001 T00830072 401220022
BLI,2017-04-01 07:55,-122.5375,48.7927,M,M,M,0.00,0.00,M,30.19,M,10.00,M,OVC,M,M,M,6500.00,M,M,M,M,KBLI 010755Z AUTO 00000KT 10SM OVC065 A3019 RMK MADISHF
BLI,2017-04-01 08:00,-122.5375,48.7927,M,M,M,0.00,0.00,M,30.19,M,10.00,M,OVC,M,M,M,6000.00,M,M,M,M,KBLI 010800Z AUTO 00000KT 10SM OVC060 A3019 RMK MADISHF
BLI,2017-04-01 08:05,-122.5375,48.7927,M,M,M,0.00,0.00,M,30.19,M,10.00,M,OVC,M,M,M,6000.00,M,M,M,M,KBLI 010805Z AUTO 00000KT 10SM OVC060 A3019 RMK MADISHF
BLI,2017-04-01 08:10,-122.5375,48.7927,M,M,M,0.00,0.00,M,30.18,M,10.00,M,OVC,M,M,M,6000.00,M,M,M,M,KBLI 010810Z AUTO 00000KT 10SM OVC060 A3018 RMK MADISHF
BLI,2017-04-01 08:15,-122.5375,48.7927,M,M,M,0.00,0.00,M,30.18,M,10.00,M,OVC,M,M,M,6000.00,M,M,M,-RA,KBLI 010815Z AUTO 00000KT 10SM -RA OVC060 A3018 RMK MADISHF
BLI,2017-04-01 08:20,-122.5375,48.7927,M,M,M,0.00,0.00,M,30.19,M,10.00,M,OVC,M,M,M,6000.00,M,M,M,-RA,KBLI 010820Z AUTO 00000KT 10SM -RA OVC060 A3019 RMK MADISHF
BLI,2017-04-01 08:25,-122.5375,48.7927,M,M,M,0.00,0.00,M,30.18,M,10.00,M,OVC,M,M,M,6000.00,M,M,M,-RA,KBLI 010825Z AUTO 00000KT 10SM -RA OVC060 A3018 RMK MADISHF
BLI,2017-04-01 08:30,-122.5375,48.7927,M,M,M,0.00,0.00,M,30.18,M,10.00,M,OVC,M,M,M,6000.00,M,M,M,-RA,KBLI 010830Z AUTO 00000KT 10SM -RA OVC060 A3018 RMK MADISHF
BLI,2017-04-01 08:35,-122.5375,48.7927,M,M,M,0.00,0.00,M,30.18,M,10.00,M,OVC,M,M,M,6000.00,M,M,M,-RA,KBLI 010835Z AUTO 00000KT 10SM -RA OVC060 A3018 RMK MADISHF
BLI,2017-04-01 08:40,-122.5375,48.7927,M,M,M,0.00,0.00,M,30.18,M,10.00,M,OVC,M,M,M,5500.00,M,M,M,-RA,KBLI 010840Z AUTO 00000KT 10SM -RA OVC055 A3018 RMK MADISHF
BLI,2017-04-01 08:45,-122.5375,48.7927,M,M,M,0.00,0.00,M,30.18,M,10.00,M,OVC,M,M,M,5500.00,M,M,M,-RA,KBLI 010845Z AUTO 00000KT 10SM -RA OVC055 A3018 RMK MADISHF
BLI,2017-04-01 08:50,-122.5375,48.7927,M,M,M,0.00,0.00,M,30.18,M,10.00,M,OVC,M,M,M,5500.00,M,M,M,-RA,KBLI 010850Z AUTO 00000KT 10SM -RA OVC055 A3018 RMK MADISHF
BLI,2017-04-01 08:53,-122.5375,48.7927,46.90,46.00,96.66,0.00,0.00,0.00,30.18,1022.70,10.00,M,FEW,OVC,M,M,4700.00,5500.00,M,M,-RA,KBLI 010853Z AUTO 00000KT 10SM -RA FEW047 OVC055 08/08 A3018 RMK AO2 RAB15 SLP227 P0000 60001 T00830078 56023
BLI,2017-04-01 08:55,-122.5375,48.7927,M,M,M,0.00,0.00,M,30.18,M,10.00,M,SCT,OVC,M,M,4700.00,5500.00,M,M,-RA,KBLI 010855Z AUTO 00000KT 10SM -RA SCT047 OVC055 A3018 RMK MADISHF
BLI,2017-04-01 09:00,-122.5375,48.7927,M,M,M,0.00,0.00,M,30.17,M,10.00,M,SCT,OVC,M,M,4500.00,5500.00,M,M,-RA,KBLI 010900Z AUTO 00000KT 10SM -RA SCT045 OVC055 A3017 RMK MADISHF
BLI,2017-04-01 09:05,-122.5375,48.7927,M,M,M,0.00,0.00,M,30.18,M,9.00,M,SCT,OVC,M,M,4200.00,5500.00,M,M,-RA,KBLI 010905Z AUTO 00000KT 9SM -RA SCT042 OVC055 A3018 RMK MADISHF
BLI,2017-04-01 09:10,-122.5375,48.7927,M,M,M,0.00,0.00,0.01,30.17,M,8.00,M,SCT,OVC,M,M,4200.00,5500.00,M,M,-RA,KBLI 010910Z AUTO 00000KT 8SM -RA SCT042 OVC055 A3017 RMK P0001 MADISHF
BLI,2017-04-01 09:15,-122.5375,48.7927,M,M,M,300.00,3.00,0.01,30.17,M,7.00,M,BKN,OVC,M,M,4200.00,5500.00,M,M,-RA,KBLI 010915Z AUTO 30003KT 7SM -RA BKN042 OVC055 A3017 RMK P0001 MADISHF
BLI,2017-04-01 09:20,-122.5375,48.7927,M,M,M,0.00,0.00,0.01,30.17,M,8.00,M,BKN,OVC,M,M,4200.00,5500.00,M,M,-RA,KBLI 010920Z AUTO 00000KT 8SM -RA BKN042 OVC055 A3017 RMK P0001 MADISHF
BLI,2017-04-01 09:25,-122.5375,48.7927,M,M,M,0.00,0.00,0.01,30.16,M,8.00,M,BKN,OVC,M,M,4200.00,5500.00,M,M,-RA,KBLI 010925Z AUTO 00000KT 8SM -RA BKN042 OVC055 A3016 RMK P0001 MADISHF
BLI,2017-04-01 09:30,-122.5375,48.7927,M,M,M,0.00,0.00,0.01,30.17,M,8.00,M,BKN,OVC,M,M,3999.00,5500.00,M,M,-RA,KBLI 010930Z AUTO 00000KT 8SM -RA BKN039 OVC055 A3017 RMK P0001 MADISHF
BLI,2017-04-01 09:35,-122.5375,48.7927,M,M,M,300.00,3.00,0.01,30.18,M,9.00,M,BKN,OVC,M,M,3999.00,5500.00,M,M,-RA,KBLI 010935Z AUTO 30003KT 9SM -RA BKN039 OVC055 A3018 RMK P0001 MADISHF
BLI,2017-04-01 09:40,-122.5375,48.7927,M,M,M,300.00,5.00,0.01,30.18,M,10.00,M,BKN,OVC,M,M,4100.00,5500.00,M,M,-RA,KBLI 010940Z AUTO 30005KT 10SM -RA BKN041 OVC055 A3018 RMK P0001 MADISHF
BLI,2017-04-01 09:45,-122.5375,48.7927,M,M,M,310.00,5.00,0.01,30.18,M,9.00,M,BKN,OVC,M,M,4100.00,5500.00,M,M,-RA,KBLI 010945Z AUTO 31005KT 9SM -RA BKN041 OVC055 A3018 RMK P0001 MADISHF
BLI,2017-04-01 09:50,-122.5375,48.7927,M,M,M,320.00,5.00,0.01,30.18,M,7.00,M,BKN,OVC,M,M,3900.00,5500.00,M,M,-RA,KBLI 010950Z AUTO 32005KT 7SM -RA BKN039 OVC055 A3018 RMK P0001 MADISHF
BLI,2017-04-01 09:53,-122.5375,48.7927,46.00,45.00,96.28,330.00,4.00,0.02,30.18,1022.80,6.00,M,BKN,BKN,OVC,M,3900.00,4700.00,5500.00,M,-RA BR,KBLI 010953Z AUTO 33004KT 6SM -RA BR BKN039 BKN047 OVC055 08/07 A3018 RMK AO2 SLP228 P0002 T00780072
BLI,2017-04-01 09:55,-122.5375,48.7927,M,M,M,330.00,4.00,M,30.18,M,5.00,M,OVC,M,M,M,3900.00,M,M,M,-RA BR,KBLI 010955Z AUTO 33004KT 5SM -RA BR OVC039 A3018 RMK MADISHF
BLI,2017-04-01 10:00,-122.5375,48.7927,M,M,M,330.00,3.00,0.01,30.18,M,3.50,M,BKN,OVC,M,M,3900.00,4700.00,M,M,-RA BR,KBLI 011000Z AUTO 33003KT 3SM -RA BR BKN039 OVC047 A3018 RMK P0001 MADISHF
BLI,2017-04-01 10:05,-122.5375,48.7927,M,M,M,10.00,3.00,0.02,30.17,M,2.50,M,BKN,OVC,M,M,3900.00,5000.00,M,M,-RA BR,KBLI 011005Z AUTO 01003KT 2 1/2SM -RA BR BKN039 OVC050 A3017 RMK P0002 MADISHF
BLI,2017-04-01 10:10,-122.5375,48.7927,M,M,M,70.00,5.00,0.03,30.16,M,3.00,M,BKN,BKN,OVC,M,3900.00,4800.00,6000.00,M,-RA BR,KBLI 011010Z AUTO 07005KT 3SM -RA BR BKN039 BKN048 OVC060 A3016 RMK P0003 MADISHF
BLI,2017-04-01 10:15,-122.5375,48.7927,M,M,M,80.00,4.00,0.03,30.17,M,3.50,M,SCT,BKN,OVC,M,3900.00,4800.00,6000.00,M,-RA BR,KBLI 011015Z AUTO 08004KT 3SM -RA BR SCT039 BKN048 OVC060 A3017 RMK P0003 MADISHF
BLI,2017-04-01 10:20,-122.5375,48.7927,M,M,M,80.00,3.00,0.04,30.16,M,4.00,M,FEW,SCT,OVC,M,3900.00,4800.00,5500.00,M,-RA BR,KBLI 011020Z AUTO 08003KT 4SM -RA BR FEW039 SCT048 OVC055 A3016 RMK P0004 MADISHF
BLI,2017-04-01 10:25,-122.5375,48.7927,M,M,M,70.00,3.00,0.04,30.16,M,4.00,M,FEW,SCT,OVC,M,3900.00,4800.00,5500.00,M,-RA BR,KBLI 011025Z AUTO 07003KT 4SM -RA BR FEW039 SCT048 OVC055 A3016 RMK P0004 MADISHF
BLI,2017-04-01 10:30,-122.5375,48.7927,M,M,M,0.00,0.00,0.05,30.16,M,5.00,M,FEW,FEW,OVC,M,3900.00,4800.00,5500.00,M,-RA BR,KBLI 011030Z AUTO 00000KT 5SM -RA BR FEW039 FEW048 OVC055 A3016 RMK P0005 MADISHF
BLI,2017-04-01 10:35,-122.5375,48.7927,M,M,M,20.00,3.00,0.05,30.16,M,5.00,M,FEW,FEW,OVC,M,3700.00,4600.00,5500.00,M,-RA BR,KBLI 011035Z AUTO 02003KT 5SM -RA BR FEW037 FEW046 OVC055 A3016 RMK P0005 MADISHF
BLI,2017-04-01 10:40,-122.5375,48.7927,M,M,M,0.00,0.00,0.05,30.16,M,5.00,M,FEW,FEW,OVC,M,3700.00,4400.00,5500.00,M,-RA BR,KBLI 011040Z AUTO 00000KT 5SM -RA BR FEW037 FEW044 OVC055 A3016 RMK P0005 MADISHF
BLI,2017-04-01 10:45,-122.5375,48.7927,M,M,M,0.00,0.00,0.05,30.16,M,5.00,M,FEW,FEW,OVC,M,3700.00,4600.00,5500.00,M,-RA BR,KBLI 011045Z AUTO 00000KT 5SM -RA BR FEW037 FEW046 OVC055 A3016 RMK P0005 MADISHF
BLI,2017-04-01 10:50,-122.5375,48.7927,M,M,M,360.00,4.00,0.06,30.15,M,5.00,M,FEW,SCT,OVC,M,1800.00,4600.00,5500.00,M,-RA BR,KBLI 011050Z AUTO 36004KT 5SM -RA BR FEW018 SCT046 OVC055 A3015 RMK P0006 MADISHF
BLI,2017-04-01 10:53,-122.5375,48.7927,46.00,45.00,96.28,30.00,3.00,0.06,30.15,1021.70,5.00,M,FEW,SCT,OVC,M,1800.00,4400.00,5500.00,M,-RA BR,KBLI 011053Z AUTO 03003KT 5SM -RA BR FEW018 SCT044 OVC055 08/07 A3015 RMK AO2 SLP217 P0006 T00780072
BLI,2017-04-01 10:55,-122.5375,48.7927,M,M,M,10.00,3.00,M,30.15,M,5.00,M,FEW,SCT,OVC,M,3600.00,4400.00,5000.00,M,-RA BR,KBLI 011055Z AUTO 01003KT 5SM -RA BR FEW036 SCT044 OVC050 A3015 RMK MADISHF
BLI,2017-04-01 11:00,-122.5375,48.7927,M,M,M,30.00,3.00,M,30.15,M,5.00,M,SCT,OVC,M,M,3900.00,5000.00,M,M,-RA BR,KBLI 011100Z AUTO 03003KT 5SM -RA BR SCT039 OVC050 A3015 RMK MADISHF
BLI,2017-04-01 11:05,-122.5375,48.7927,M,M,M,50.00,3.00,M,30.14,M,5.00,M,SCT,OVC,M,M,4200.00,5000.00,M,M,-RA BR,KBLI 011105Z AUTO 05003KT 5SM -RA BR SCT042 OVC050 A3014 RMK MADISHF
BLI,2017-04-01 11:10,-122.5375,48.7927,M,M,M,50.00,3.00,0.01,30.14,M,5.00,M,FEW,OVC,M,M,4100.00,5000.00,M,M,-RA BR,KBLI 011110Z AUTO 05003KT 5SM -RA BR FEW041 OVC050 A3014 RMK P0001 MADISHF
BLI,2017-04-01 11:15,-122.5375,48.7927,M,M,M,20.00,3.00,0.01,30.14,M,5.00,M,FEW,OVC,M,M,4100.00,5000.00,M,M,-RA BR,KBLI 011115Z AUTO 02003KT 5SM -RA BR FEW041 OVC050 A3014 RMK P0001 MADISHF
BLI,2017-04-01 11:20,-122.5375,48.7927,M,M,M,0.00,0.00,0.01,30.13,M,4.00,M,FEW,OVC,M,M,4100.00,5000.00,M,M,-RA BR,KBLI 011120Z AUTO 00000KT 4SM -RA BR FEW041 OVC050 A3013 RMK P0001 MADISHF
BLI,2017-04-01 11:25,-122.5375,48.7927,M,M,M,10.00,3.00,0.01,30.13,M,4.00,M,FEW,OVC,M,M,3900.00,5000.00,M,M,-RA BR,KBLI 011125Z AUTO 01003KT 4SM -RA BR FEW039 OVC050 A3013 RMK P0001 MADISHF
BLI,2017-04-01 11:30,-122.5375,48.7927,M,M,M,10.00,3.00,0.01,30.13,M,5.00,M,OVC,M,M,M,4800.00,M,M,M,-RA BR,KBLI 011130Z AUTO 01003KT 5SM -RA BR OVC048 A3013 RMK P0001 MADISHF
BLI,2017-04-01 11:35,-122.5375,48.7927,M,M,M,350.00,3.00,0.01,30.13,M,5.00,M,OVC,M,M,M,4800.00,M,M,M,-RA BR,KBLI 011135Z AUTO 35003KT 5SM -RA BR OVC048 A3013 RMK P0001 MADISHF
BLI,2017-04-01 11:40,-122.5375,48.7927,M,M,M,0.00,0.00,0.02,30.13,M,5.00,M,OVC,M,M,M,4600.00,M,M,M,-RA BR,KBLI 011140Z AUTO 00000KT 5SM -RA BR OVC046 A3013 RMK P0002 MADISHF
BLI,2017-04-01 11:45,-122.5375,48.7927,M,M,M,0.00,0.00,0.02,30.13,M,4.00,M,OVC,M,M,M,4600.00,M,M,M,-RA BR,KBLI 011145Z AUTO 00000KT 4SM -RA BR OVC046 A3013 RMK P0002 MADISHF
BLI,2017-04-01 11:50,-122.5375,48.7927,M,M,M,330.00,3.00,0.02,30.13,M,5.00,M,OVC,M,M,M,4600.00,M,M,M,-RA BR,KBLI 011150Z AUTO 33003KT 5SM -RA BR OVC046 A3013 RMK P0002 MADISHF
BLI,2017-04-01 11:53,-122.5375,48.7927,46.00,45.00,96.28,320.00,3.00,0.02,30.14,1021.30,5.00,M,OVC,M,M,M,4400.00,M,M,M,-RA BR,KBLI 011153Z AUTO 32003KT 5SM -RA BR OVC044 08/07 A3014 RMK AO2 SLP213 P0002 60011 70011 T00780072 10094 20078 58014
BLI,2017-04-01 11:55,-122.5375,48.7927,M,M,M,320.00,3.00,M,30.14,M,5.00,M,OVC,M,M,M,4400.00,M,M,M,BR,KBLI 011155Z AUTO 32003KT 5SM BR OVC044 A3014 RMK MADISHF
BLI,2017-04-01 12:00,-122.5375,48.7927,M,M,M,330.00,4.00,M,30.14,M,5.00,M,OVC,M,M,M,4400.00,M,M,M,BR,KBLI 011200Z AUTO 33004KT 5SM BR OVC044 A3014 RMK MADISHF
BLI,2017-04-01 12:05,-122.5375,48.7927,M,M,M,330.00,4.00,M,30.14,M,5.00,M,FEW,OVC,M,M,3600.00,4400.00,M,M,-RA BR,KBLI 011205Z AUTO 33004KT 5SM -RA BR FEW036 OVC044 A3014 RMK MADISHF
BLI,2017-04-01 12:10,-122.5375,48.7927,M,M,M,320.00,4.00,0.01,30.15,M,4.00,M,FEW,FEW,OVC,M,2600.00,3300.00,4400.00,M,-RA BR,KBLI 011210Z AUTO 32004KT 4SM -RA BR FEW026 FEW033 OVC044 A3015 RMK P0001 MADISHF
BLI,2017-04-01 12:15,-122.5375,48.7927,M,M,M,330.00,3.00,0.01,30.14,M,4.00,M,FEW,OVC,M,M,3200.00,4400.00,M,M,-RA BR,KBLI 011215Z AUTO 33003KT 4SM -RA BR FEW032 OVC044 A3014 RMK P0001 MADISHF
BLI,2017-04-01 12:20,-122.5375,48.7927,M,M,M,330.00,4.00,0.02,30.14,M,3.50,M,FEW,OVC,M,M,3600.00,4400.00,M,M,-RA BR,KBLI 011220Z AUTO 33004KT 3SM -RA BR FEW036 OVC044 A3014 RMK P0002 MADISHF
BLI,2017-04-01 12:25,-122.5375,48.7927,M,M,M,340.00,4.00,0.03,30.14,M,3.50,M,FEW,OVC,M,M,3300.00,4400.00,M,M,-RA BR,KBLI 011225Z AUTO 34004KT 3SM -RA BR FEW033 OVC044 A3014 RMK P0003 MADISHF
BLI,2017-04-01 12:30,-122.5375,48.7927,M,M,M,350.00,3.00,0.03,30.14,M,4.00,M,FEW,OVC,M,M,3100.00,4200.00,M,M,-RA BR,KBLI 011230Z AUTO 35003KT 4SM -RA BR FEW031 OVC042 A3014 RMK P0003 MADISHF
BLI,2017-04-01 12:35,-122.5375,48.7927,M,M,M,350.00,3.00,0.03,30.14,M,4.00,M,FEW,FEW,OVC,M,300.00,3100.00,4200.00,M,-RA BR,KBLI 011235Z AUTO 35003KT 4SM -RA BR FEW003 FEW031 OVC042 A3014 RMK P0003 MADISHF
BLI,2017-04-01 12:39,-122.5375,48.7927,46.00,45.00,96.28,360.00,4.00,0.04,30.15,M,4.00,M,FEW,BKN,OVC,M,300.00,3500.00,4400.00,M,-RA BR,KBLI 011239Z AUTO 36004KT 4SM -RA BR FEW003 BKN035 OVC044 08/07 A3015 RMK AO2 P0004 T00780072
BLI,2017-04-01 12:40,-122.5375,48.7927,M,M,M,350.00,4.00,0.04,30.15,M,4.00,M,SCT,BKN,OVC,M,300.00,3500.00,4400.00,M,-RA BR,KBLI 011240Z AUTO 35004KT 4SM -RA BR SCT003 BKN035 OVC044 A3015 RMK P0004 MADISHF
BLI,2017-04-01 12:45,-122.5375,48.7927,M,M,M,10.00,3.00,0.04,30.15,M,4.00,M,SCT,BKN,OVC,M,300.00,1900.00,4400.00,M,-RA BR,KBLI 011245Z AUTO 01003KT 4SM -RA BR SCT003 BKN019 OVC044 A3015 RMK P0004 MADISHF
BLI,2017-04-01 12:49,-122.5375,48.7927,46.40,44.60,93.40,360.00,4.00,0.05,30.15,M,4.00,M,SCT,BKN,OVC,M,300.00,1900.00,4400.00,M,-RA BR,KBLI 011249Z AUTO 36004KT 4SM -RA BR SCT003 BKN019 OVC044 08/07 A3015 RMK AO2 P0005
BLI,2017-04-01 12:50,-122.5375,48.7927,M,M,M,360.00,4.00,0.05,30.15,M,4.00,M,BKN,BKN,OVC,M,300.00,1900.00,4400.00,M,-RA BR,KBLI 011250Z AUTO 36004KT 4SM -RA BR BKN003 BKN019 OVC044 A3015 RMK P0005 MADISHF
BLI,2017-04-01 12:53,-122.5375,48.7927,46.00,45.00,96.28,10.00,3.00,0.06,30.15,1021.70,3.00,M,BKN,BKN,OVC,M,300.00,1700.00,4400.00,M,-RA BR,KBLI 011253Z AUTO 01003KT 3SM -RA BR BKN003 BKN017 OVC044 08/07 A3015 RMK AO2 SLP217 P0006 T00780072
BLI,2017-04-01 12:55,-122.5375,48.7927,M,M,M,10.00,3.00,M,30.15,M,3.00,M,BKN,BKN,OVC,M,300.00,1699.00,3399.00,M,-RA BR,KBLI 011255Z AUTO 01003KT 3SM -RA BR BKN003 BKN016 OVC033 A3015 RMK MADISHF
BLI,2017-04-01 13:00,-122.5375,48.7927,M,M,M,40.00,3.00,0.01,30.15,M,3.00,M,BKN,OVC,M,M,300.00,1699.00,M,M,-RA BR,KBLI 011300Z AUTO 04003KT 3SM -RA BR BKN003 OVC016 A3015 RMK P0001 MADISHF
BLI,2017-04-01 13:05,-122.5375,48.7927,M,M,M,20.00,3.00,0.02,30.15,M,3.00,M,BKN,OVC,M,M,300.00,1699.00,M,M,-RA BR,KBLI 011305Z AUTO 02003KT 3SM -RA BR BKN003 OVC016 A3015 RMK P0002 MADISHF
BLI,2017-04-01 13:10,-122.5375,48.7927,M,M,M,10.00,3.00,0.03,30.15,M,3.00,M,OVC,M,M,M,200.00,M,M,M,-RA BR,KBLI 011310Z AUTO 01003KT 3SM -RA BR OVC002 A3015 RMK P0003 MADISHF
BLI,2017-04-01 13:15,-122.5375,48.7927,M,M,M,0.00,0.00,0.04,30.15,M,3.00,M,OVC,M,M,M,200.00,M,M,M,-RA BR,KBLI 011315Z AUTO 00000KT 3SM -RA BR OVC002 A3015 RMK P0004 MADISHF
BLI,2017-04-01 13:20,-122.5375,48.7927,M,M,M,0.00,0.00,0.04,30.15,M,3.50,M,BKN,OVC,M,M,200.00,1200.00,M,M,-RA BR,KBLI 011320Z AUTO 00000KT 3SM -RA BR BKN002 OVC012 A3015 RMK P0004 MADISHF
BLI,2017-04-01 13:25,-122.5375,48.7927,M,M,M,0.00,0.00,0.04,30.15,M,4.00,M,BKN,OVC,M,M,200.00,1400.00,M,M,-RA BR,KBLI 011325Z AUTO 00000KT 4SM -RA BR BKN002 OVC014 A3015 RMK P0004 MADISHF
BLI,2017-04-01 13:30,-122.5375,48.7927,M,M,M,40.00,3.00,0.04,30.15,M,4.00,M,BKN,BKN,OVC,M,200.00,1400.00,2500.00,M,-RA BR,KBLI 011330Z AUTO 04003KT 4SM -RA BR BKN002 BKN014 OVC025 A3015 RMK P0004 MADISHF
BLI,2017-04-01 13:35,-122.5375,48.7927,M,M,M,0.00,0.00,0.05,30.15,M,5.00,M,SCT,BKN,OVC,M,200.00,1400.00,4300.00,M,-RA BR,KBLI 011335Z AUTO 00000KT 5SM -RA BR SCT002 BKN014 OVC043 A3015 RMK P0005 MADISHF
BLI,2017-04-01 13:40,-122.5375,48.7927,M,M,M,0.00,0.00,0.05,30.15,M,4.00,M,SCT,BKN,OVC,M,200.00,1400.00,4500.00,M,-RA BR,KBLI 011340Z AUTO 00000KT 4SM -RA BR SCT002 BKN014 OVC045 A3015 RMK P0005 MADISHF
BLI,2017-04-01 13:41,-122.5375,48.7927,46.00,46.00,100.00,0.00,0.00,0.05,30.15,M,4.00,M,SCT,BKN,OVC,M,200.00,1400.00,4500.00,M,-RA BR,KBLI 011341Z 00000KT 4SM -RA BR SCT002 BKN014 OVC045 08/08 A3015 RMK AO2 P0005 T00780078
BLI,2017-04-01 13:45,-122.5375,48.7927,M,M,M,0.00,0.00,0.05,30.15,M,3.00,M,SCT,BKN,OVC,M,300.00,1400.00,4300.00,M,-RA BR,KBLI 011345Z AUTO 00000KT 3SM -RA BR SCT003 BKN014 OVC043 A3015 RMK P0005 MADISHF
BLI,2017-04-01 13:50,-122.5375,48.7927,M,M,M,0.00,0.00,0.06,30.15,M,3.00,M,FEW,BKN,OVC,M,300.00,3200.00,4300.00,M,-RA BR,KBLI 011350Z AUTO 00000KT 3SM -RA BR FEW003 BKN032 OVC043 A3015 RMK P0006 MADISHF
BLI,2017-04-01 13:53,-122.5375,48.7927,46.00,45.00,96.28,0.00,0.00,0.06,30.15,1021.80,2.00,M,FEW,BKN,OVC,M,300.00,2600.00,4300.00,M,-RA BR,KBLI 011353Z 00000KT 2SM -RA BR FEW003 BKN026 OVC043 08/07 A3015 RMK AO2 SLP218 P0006 T00780072
BLI,2017-04-01 13:55,-122.5375,48.7927,M,M,M,0.00,0.00,M,30.15,M,2.00,M,FEW,BKN,OVC,M,300.00,3100.00,4300.00,M,-RA BR,KBLI 011355Z AUTO 00000KT 2SM -RA BR FEW003 BKN031 OVC043 A3015 RMK MADISHF
BLI,2017-04-01 14:00,-122.5375,48.7927,M,M,M,0.00,0.00,0.01,30.15,M,2.00,M,FEW,BKN,OVC,M,300.00,2600.00,4300.00,M,-RA BR,KBLI 011400Z AUTO 00000KT 2SM -RA BR FEW003 BKN026 OVC043 A3015 RMK P0001 MADISHF
BLI,2017-04-01 14:05,-122.5375,48.7927,M,M,M,0.00,0.00,0.02,30.15,M,2.00,M,FEW,BKN,OVC,M,300.00,2600.00,4300.00,M,-RA BR,KBLI 011405Z AUTO 00000KT 2SM -RA BR FEW003 BKN026 OVC043 A3015 RMK P0002 MADISHF
BLI,2017-04-01 14:10,-122.5375,48.7927,M,M,M,0.00,0.00,0.02,30.16,M,2.00,M,FEW,BKN,OVC,M,300.00,2600.00,4300.00,M,-RA BR,KBLI 011410Z AUTO 00000KT 2SM -RA BR FEW003 BKN026 OVC043 A3016 RMK P0002 MADISHF
BLI,2017-04-01 14:15,-122.5375,48.7927,M,M,M,0.00,0.00,0.03,30.16,M,2.00,M,FEW,BKN,OVC,M,300.00,2600.00,4300.00,M,-RA BR,KBLI 011415Z AUTO 00000KT 2SM -RA BR FEW003 BKN026 OVC043 A3016 RMK P0003 MADISHF
BLI,2017-04-01 14:20,-122.5375,48.7927,M,M,M,0.00,0.00,0.03,30.16,M,2.00,M,FEW,BKN,OVC,M,300.00,2600.00,4300.00,M,-RA BR,KBLI 011420Z AUTO 00000KT 2SM -RA BR FEW003 BKN026 OVC043 A3016 RMK P0003 MADISHF
BLI,2017-04-01 14:25,-122.5375,48.7927,M,M,M,0.00,0.00,0.04,30.16,M,2.00,M,FEW,BKN,OVC,M,300.00,2600.00,4300.00,M,-RA BR,KBLI 011425Z AUTO 00000KT 2SM -RA BR FEW003 BKN026 OVC043 A3016 RMK P0004 MADISHF
BLI,2017-04-01 14:30,-122.5375,48.7927,M,M,M,0.00,0.00,0.05,30.16,M,2.00,M,FEW,BKN,OVC,M,300.00,2600.00,4300.00,M,-RA BR,KBLI 011430Z AUTO 00000KT 2SM -RA BR FEW003 BKN026 OVC043 A3016 RMK P0005 MADISHF
BLI,2017-04-01 14:35,-122.5375,48.7927,M,M,M,340.00,3.00,0.05,30.16,M,2.00,M,FEW,BKN,OVC,M,300.00,2600.00,4300.00,M,-RA BR,KBLI 011435Z AUTO 34003KT 2SM -RA BR FEW003 BKN026 OVC043 A3016 RMK P0005 MADISHF
BLI,2017-04-01 14:40,-122.5375,48.7927,M,M,M,0.00,0.00,0.06,30.16,M,2.00,M,FEW,BKN,OVC,M,300.00,2600.00,4300.00,M,-RA BR,KBLI 011440Z AUTO 00000KT 2SM -RA BR FEW003 BKN026 OVC043 A3016 RMK P0006 MADISHF
BLI,2017-04-01 14:45,-122.5375,48.7927,M,M,M,0.00,0.00,0.06,30.16,M,2.00,M,FEW,BKN,OVC,M,300.00,2600.00,4300.00,M,-RA BR,KBLI 011445Z AUTO 00000KT 2SM -RA BR FEW003 BKN026 OVC043 A3016 RMK P0006 MADISHF
BLI,2017-04-01 14:50,-122.5375,48.7927,M,M,M,0.00,0.00,0.06,30.16,M,2.00,M,FEW,BKN,OVC,M,300.00,2600.00,4300.00,M,-RA BR,KBLI 011450Z AUTO 00000KT 2SM -RA BR FEW003 BKN026 OVC043 A3016 RMK P0006 MADISHF
BLI,2017-04-01 14:53,-122.5375,48.7927,46.00,46.00,100.00,0.00,0.00,0.06,30.16,1022.20,2.00,M,FEW,BKN,OVC,M,300.00,1400.00,4300.00,M,-RA BR,KBLI 011453Z 00000KT 2SM -RA BR FEW003 BKN014 OVC043 08/08 A3016 RMK AO2 SLP222 P0006 60018 T00780078 53004
BLI,2017-04-01 14:55,-122.5375,48.7927,M,M,M,0.00,0.00,M,30.16,M,2.00,M,FEW,BKN,OVC,M,300.00,1400.00,4100.00,M,-RA BR,KBLI 011455Z AUTO 00000KT 2SM -RA BR FEW003 BKN014 OVC041 A3016 RMK MADISHF
BLI,2017-04-01 15:00,-122.5375,48.7927,M,M,M,0.00,0.00,M,30.16,M,2.00,M,FEW,BKN,OVC,M,200.00,1400.00,4100.00,M,-RA BR,KBLI 011500Z AUTO 00000KT 2SM -RA BR FEW002 BKN014 OVC041 A3016 RMK MADISHF
BLI,2017-04-01 15:05,-122.5375,48.7927,M,M,M,0.00,0.00,M,30.16,M,2.00,M,SCT,BKN,OVC,M,400.00,1400.00,4100.00,M,-RA BR,KBLI 011505Z AUTO 00000KT 2SM -RA BR SCT004 BKN014 OVC041 A3016 RMK MADISHF
BLI,2017-04-01 15:10,-122.5375,48.7927,M,M,M,0.00,0.00,M,30.16,M,2.50,M,SCT,BKN,OVC,M,400.00,1400.00,4100.00,M,-RA BR,KBLI 011510Z AUTO 00000KT 2 1/2SM -RA BR SCT004 BKN014 OVC041 A3016 RMK MADISHF
BLI,2017-04-01 15:15,-122.5375,48.7927,M,M,M,160.00,5.00,0.01,30.16,M,2.00,M,SCT,BKN,OVC,M,400.00,1400.00,4100.00,M,-RA BR,KBLI 011515Z AUTO 16005KT 2SM -RA BR SCT004 BKN014 OVC041 A3016 RMK P0001 MADISHF
BLI,2017-04-01 15:20,-122.5375,48.7927,M,M,M,160.00,6.00,0.01,30.16,M,2.00,M,SCT,BKN,OVC,M,400.00,1400.00,4100.00,M,-RA BR,KBLI 011520Z AUTO 16006KT 2SM -RA BR SCT004 BKN014 OVC041 A3016 RMK P0001 MADISHF
BLI,2017-04-01 15:25,-122.5375,48.7927,M,M,M,170.00,4.00,0.01,30.16,M,3.00,M,SCT,OVC,M,M,1100.00,2200.00,M,M,-RA BR,KBLI 011525Z AUTO 17004KT 3SM -RA BR SCT011 OVC022 A3016 RMK P0001 VRB04KT  MADISHF
BLI,2017-04-01 15:27,-122.5375,48.7927,46.90,45.00,93.06,180.00,4.00,0.01,30.16,M,3.00,M,SCT,OVC,M,M,1100.00,2200.00,M,M,-RA BR,KBLI 011527Z 18004KT 3SM -RA BR SCT011 OVC022 08/07 A3016 RMK AO2 P0001 T00830072
BLI,2017-04-01 15:30,-122.5375,48.7927,M,M,M,170.00,5.00,0.01,30.16,M,3.00,M,SCT,OVC,M,M,1100.00,2200.00,M,M,-RA BR,KBLI 011530Z AUTO 17005KT 3SM -RA BR SCT011 OVC022 A3016 RMK P0001 MADISHF
BLI,2017-04-01 15:35,-122.5375,48.7927,M,M,M,160.00,5.00,0.01,30.16,M,3.00,M,SCT,OVC,M,M,1100.00,2200.00,M,M,-RA BR,KBLI 011535Z AUTO 16005KT 3SM -RA BR SCT011 OVC022 A3016 RMK P0001 MADISHF
BLI,2017-04-01 15:40,-122.5375,48.7927,M,M,M,80.00,3.00,0.01,30.16,M,3.00,M,SCT,OVC,M,M,1100.00,2200.00,M,M,-RA BR,KBLI 011540Z AUTO 08003KT 3SM -RA BR SCT011 OVC022 A3016 RMK P0001 MADISHF
BLI,2017-04-01 15:45,-122.5375,48.7927,M,M,M,0.00,0.00,0.01,30.17,M,3.00,M,SCT,OVC,M,M,1100.00,2200.00,M,M,-RA BR,KBLI 011545Z AUTO 00000KT 3SM -RA BR SCT011 OVC022 A3017 RMK P0001 MADISHF
BLI,2017-04-01 15:50,-122.5375,48.7927,M,M,M,80.00,3.00,0.01,30.17,M,3.00,M,SCT,OVC,M,M,1100.00,2200.00,M,M,-RA BR,KBLI 011550Z AUTO 08003KT 3SM -RA BR SCT011 OVC022 A3017 RMK P0001 MADISHF
BLI,2017-04-01 15:53,-122.5375,48.7927,46.90,46.00,96.66,90.00,3.00,0.01,30.17,1022.50,3.00,M,SCT,OVC,M,M,1100.00,2200.00,M,M,-RA BR,KBLI 011553Z 09003KT 3SM -RA BR SCT011 OVC022 08/08 A3017 RMK AO2 SLP225 P0001 T00830078
BLI,2017-04-01 15:55,-122.5375,48.7927,M,M,M,70.00,3.00,M,30.17,M,6.00,M,SCT,OVC,M,M,1100.00,2200.00,M,M,-RA BR,KBLI 011555Z AUTO 07003KT 6SM -RA BR SCT011 OVC022 A3017 RMK MADISHF
BLI,2017-04-01 16:00,-122.5375,48.7927,M,M,M,0.00,0.00,M,30.17,M,6.00,M,SCT,OVC,M,M,1100.00,2200.00,M,M,-RA BR,KBLI 011600Z AUTO 00000KT 6SM -RA BR SCT011 OVC022 A3017 RMK MADISHF
BLI,2017-04-01 16:05,-122.5375,48.7927,M,M,M,0.00,0.00,M,30.17,M,6.00,M,SCT,OVC,M,M,1100.00,2200.00,M,M,-RA BR,KBLI 011605Z AUTO 00000KT 6SM -RA BR SCT011 OVC022 A3017 RMK MADISHF
BLI,2017-04-01 16:10,-122.5375,48.7927,M,M,M,160.00,6.00,0.01,30.17,M,2.00,M,SCT,OVC,M,M,1100.00,2200.00,M,M,-RA BR,KBLI 011610Z AUTO 16006KT 2SM -RA BR SCT011 OVC022 A3017 RMK P0001 MADISHF
BLI,2017-04-01 16:15,-122.5375,48.7927,48.00,45.00,89.29,160.00,7.00,0.01,30.17,M,2.00,M,SCT,OVC,M,M,1100.00,2200.00,M,M,-RA BR,KBLI 011615Z 16007KT 2SM -RA BR SCT011 OVC022 09/07 A3017 RMK AO2 P0001 T00890072
BLI,2017-04-01 16:20,-122.5375,48.7927,M,M,M,170.00,7.00,0.01,30.18,M,2.00,M,SCT,OVC,M,M,1100.00,2200.00,M,M,-RA BR,KBLI 011620Z AUTO 17007KT 2SM -RA BR SCT011 OVC022 A3018 RMK P0001 MADISHF
BLI,2017-04-01 16:25,-122.5375,48.7927,M,M,M,170.00,10.00,0.01,30.18,M,2.00,M,SCT,OVC,M,M,1100.00,2200.00,M,M,-RA BR,KBLI 011625Z AUTO 17010KT 2SM -RA BR SCT011 OVC022 A3018 RMK P0001 MADISHF
BLI,2017-04-01 16:30,-122.5375,48.7927,M,M,M,160.00,8.00,0.01,30.18,M,2.00,M,SCT,OVC,M,M,1100.00,2200.00,M,M,-RA BR,KBLI 011630Z AUTO 16008KT 2SM -RA BR SCT011 OVC022 A3018 RMK P0001 MADISHF
BLI,2017-04-01 16:35,-122.5375,48.7927,M,M,M,160.00,8.00,0.02,30.18,M,2.00,M,SCT,OVC,M,M,1100.00,2200.00,M,M,-RA BR,KBLI 011635Z AUTO 16008KT 2SM -RA BR SCT011 OVC022 A3018 RMK P0002 MADISHF
BLI,2017-04-01 16:40,-122.5375,48.7927,M,M,M,160.00,12.00,0.02,30.18,M,2.00,M,SCT,OVC,M,M,1100.00,2200.00,M,M,-RA BR,KBLI 011640Z AUTO 16012KT 2SM -RA BR SCT011 OVC022 A3018 RMK P0002 MADISHF
BLI,2017-04-01 16:45,-122.5375,48.7927,M,M,M,160.00,7.00,0.02,30.17,M,2.00,M,SCT,OVC,M,M,1100.00,2200.00,M,M,BR,KBLI 011645Z AUTO 16007KT 2SM BR SCT011 OVC022 A3017 RMK P0002 MADISHF
BLI,2017-04-01 16:50,-122.5375,48.7927,M,M,M,160.00,9.00,0.02,30.18,M,6.00,M,FEW,OVC,M,M,1900.00,2500.00,M,M,BR,KBLI 011650Z AUTO 16009KT 6SM BR FEW019 OVC025 A3018 RMK P0002 MADISHF
BLI,2017-04-01 16:53,-122.5375,48.7927,48.00,46.00,92.74,170.00,9.00,0.02,30.18,1022.70,7.00,M,FEW,OVC,M,M,1900.00,2500.00,M,M,M,KBLI 011653Z 17009KT 7SM FEW019 OVC025 09/08 A3018 RMK AO2 RAE42 SLP227 P0002 T00890078
BLI,2017-04-01 16:55,-122.5375,48.7927,M,M,M,160.00,10.00,M,30.18,M,8.00,M,FEW,OVC,M,M,1900.00,2500.00,M,M,M,KBLI 011655Z AUTO 16010KT 8SM FEW019 OVC025 A3018 RMK MADISHF
BLI,2017-04-01 17:00,-122.5375,48.7927,M,M,M,160.00,10.00,M,30.18,M,10.00,M,FEW,BKN,OVC,M,1900.00,2500.00,2900.00,M,M,KBLI 011700Z AUTO 16010KT 10SM FEW019 BKN025 OVC029 A3018 RMK MADISHF
BLI,2017-04-01 17:05,-122.5375,48.7927,M,M,M,160.00,9.00,M,30.18,M,10.00,M,FEW,OVC,M,M,1900.00,2500.00,M,M,M,KBLI 011705Z AUTO 16009KT 10SM FEW019 OVC025 A3018 RMK MADISHF
BLI,2017-04-01 17:10,-122.5375,48.7927,M,M,M,170.00,10.00,M,30.18,M,10.00,M,FEW,BKN,OVC,M,1900.00,2500.00,3200.00,M,M,KBLI 011710Z AUTO 17010KT 10SM FEW019 BKN025 OVC032 A3018 RMK MADISHF
BLI,2017-04-01 17:15,-122.5375,48.7927,M,M,M,170.00,8.00,M,30.19,M,10.00,M,BKN,OVC,M,M,2700.00,3399.00,M,M,M,KBLI 011715Z AUTO 17008KT 10SM BKN027 OVC033 A3019 RMK MADISHF
BLI,2017-04-01 17:20,-122.5375,48.7927,M,M,M,160.00,10.00,M,30.19,M,10.00,15.00,BKN,OVC,M,M,2700.00,3399.00,M,M,M,KBLI 011720Z AUTO 16010G15KT 10SM BKN027 OVC033 A3019 RMK MADISHF
BLI,2017-04-01 17:25,-122.5375,48.7927,M,M,M,170.00,13.00,M,30.19,M,10.00,M,SCT,OVC,M,M,2700.00,3399.00,M,M,M,KBLI 011725Z AUTO 17013KT 10SM SCT027 OVC033 A3019 RMK MADISHF
BLI,2017-04-01 17:30,-122.5375,48.7927,M,M,M,160.00,10.00,M,30.19,M,10.00,M,BKN,OVC,M,M,2700.00,3399.00,M,M,M,KBLI 011730Z AUTO 16010KT 10SM BKN027 OVC033 A3019 RMK MADISHF
BLI,2017-04-01 17:35,-122.5375,48.7927,M,M,M,160.00,11.00,M,30.19,M,10.00,M,BKN,OVC,M,M,2700.00,3399.00,M,M,M,KBLI 011735Z AUTO 16011KT 10SM BKN027 OVC033 A3019 RMK MADISHF
BLI,2017-04-01 17:40,-122.5375,48.7927,M,M,M,M,M,M,30.20,M,10.00,M,BKN,OVC,M,M,2700.00,3399.00,M,M,M,KBLI 011740Z AUTO /////KT 10SM BKN027 OVC033 A3020 RMK MADISHF
BLI,2017-04-01 17:45,-122.5375,48.7927,M,M,M,160.00,11.00,M,30.20,M,10.00,17.00,BKN,OVC,M,M,2700.00,3399.00,M,M,M,KBLI 011745Z AUTO 16011G17KT 10SM BKN027 OVC033 A3020 RMK MADISHF
BLI,2017-04-01 17:50,-122.5375,48.7927,M,M,M,170.00,10.00,M,30.20,M,10.00,M,BKN,OVC,M,M,2700.00,3399.00,M,M,M,KBLI 011750Z AUTO 17010KT 10SM BKN027 OVC033 A3020 RMK MADISHF
BLI,2017-04-01 17:53,-122.5375,48.7927,48.00,45.00,89.29,180.00,8.00,0.00,30.20,1023.30,10.00,17.00,BKN,OVC,M,M,2700.00,3400.00,M,M,M,KBLI 011753Z 18008G17KT 10SM BKN027 OVC034 09/07 A3020 RMK AO2 SLP233 60021 T00890072 10089 20072 53012
BLI,2017-04-01 17:55,-122.5375,48.7927,M,M,M,160.00,10.00,M,30.20,M,10.00,M,OVC,M,M,M,2500.00,M,M,M,M,KBLI 011755Z AUTO 16010KT 10SM OVC025 A3020 RMK MADISHF
BLI,2017-04-01 18:00,-122.5375,48.7927,M,M,M,170.00,7.00,M,30.20,M,10.00,M,OVC,M,M,M,2500.00,M,M,M,M,KBLI 011800Z AUTO 17007KT 10SM OVC025 A3020 RMK MADISHF
BLI,2017-04-01 18:05,-122.5375,48.7927,M,M,M,180.00,9.00,M,30.20,M,10.00,M,OVC,M,M,M,2300.00,M,M,M,M,KBLI 011805Z AUTO 18009KT 10SM OVC023 A3020 RMK MADISHF
BLI,2017-04-01 18:10,-122.5375,48.7927,M,M,M,180.00,8.00,M,30.20,M,10.00,M,OVC,M,M,M,2300.00,M,M,M,M,KBLI 011810Z AUTO 18008KT 10SM OVC023 A3020 RMK MADISHF
BLI,2017-04-01 18:15,-122.5375,48.7927,M,M,M,170.00,8.00,M,30.20,M,10.00,M,OVC,M,M,M,2300.00,M,M,M,M,KBLI 011815Z AUTO 17008KT 10SM OVC023 A3020 RMK MADISHF
BLI,2017-04-01 18:20,-122.5375,48.7927,M,M,M,170.00,9.00,M,30.20,M,10.00,M,OVC,M,M,M,2300.00,M,M,M,M,KBLI 011820Z AUTO 17009KT 10SM OVC023 A3020 RMK MADISHF
BLI,2017-04-01 18:25,-122.5375,48.7927,M,M,M,170.00,8.00,M,30.20,M,10.00,M,OVC,M,M,M,2300.00,M,M,M,M,KBLI 011825Z AUTO 17008KT 10SM OVC023 A3020 RMK MADISHF
BLI,2017-04-01 18:30,-122.5375,48.7927,M,M,M,180.00,6.00,M,30.20,M,10.00,M,OVC,M,M,M,2300.00,M,M,M,M,KBLI 011830Z AUTO 18006KT 10SM OVC023 A3020 RMK MADISHF
BLI,2017-04-01 18:35,-122.5375,48.7927,M,M,M,160.00,8.00,M,30.20,M,10.00,M,OVC,M,M,M,2300.00,M,M,M,M,KBLI 011835Z AUTO 16008KT 10SM OVC023 A3020 RMK MADISHF
BLI,2017-04-01 18:40,-122.5375,48.7927,M,M,M,170.00,5.00,M,30.20,M,10.00,M,OVC,M,M,M,2300.00,M,M,M,M,KBLI 011840Z AUTO 17005KT 10SM OVC023 A3020 RMK MADISHF
BLI,2017-04-01 18:45,-122.5375,48.7927,M,M,M,160.00,10.00,M,30.20,M,10.00,M,OVC,M,M,M,2500.00,M,M,M,M,KBLI 011845Z AUTO 16010KT 10SM OVC025 A3020 RMK MADISHF
BLI,2017-04-01 18:50,-122.5375,48.7927,M,M,M,180.00,8.00,M,30.20,M,10.00,M,BKN,OVC,M,M,2300.00,2900.00,M,M,M,KBLI 011850Z AUTO 18008KT 10SM BKN023 OVC029 A3020 RMK MADISHF
BLI,2017-04-01 18:53,-122.5375,48.7927,48.90,46.00,89.67,180.00,6.00,0.00,30.20,1023.50,10.00,16.00,BKN,OVC,M,M,2500.00,2900.00,M,M,M,KBLI 011853Z 18006G16KT 10SM BKN025 OVC029 09/08 A3020 RMK AO2 SLP235 T00940078
BLI,2017-04-01 18:55,-122.5375,48.7927,M,M,M,170.00,8.00,M,30.20,M,10.00,M,BKN,OVC,M,M,2500.00,2900.00,M,M,M,KBLI 011855Z AUTO 17008KT 10SM BKN025 OVC029 A3020 RMK MADISHF
BLI,2017-04-01 19:00,-122.5375,48.7927,M,M,M,170.00,9.00,M,30.21,M,10.00,M,BKN,OVC,M,M,2500.00,3000.00,M,M,M,KBLI 011900Z AUTO 17009KT 10SM BKN025 OVC030 A3021 RMK MADISHF
BLI,2017-04-01 19:05,-122.5375,48.7927,M,M,M,170.00,12.00,M,30.21,M,10.00,M,OVC,M,M,M,2700.00,M,M,M,M,KBLI 011905Z AUTO 17012KT 10SM OVC027 A3021 RMK MADISHF
BLI,2017-04-01 19:10,-122.5375,48.7927,M,M,M,170.00,10.00,M,30.21,M,10.00,M,OVC,M,M,M,2900.00,M,M,M,M,KBLI 011910Z AUTO 17010KT 10SM OVC029 A3021 RMK MADISHF
BLI,2017-04-01 19:15,-122.5375,48.7927,M,M,M,170.00,8.00,M,30.21,M,10.00,M,OVC,M,M,M,2900.00,M,M,M,M,KBLI 011915Z AUTO 17008KT 10SM OVC029 A3021 RMK MADISHF
BLI,2017-04-01 19:20,-122.5375,48.7927,M,M,M,160.00,9.00,M,30.21,M,10.00,M,FEW,OVC,M,M,2400.00,2900.00,M,M,M,KBLI 011920Z AUTO 16009KT 10SM FEW024 OVC029 A3021 RMK MADISHF
BLI,2017-04-01 19:25,-122.5375,48.7927,M,M,M,170.00,6.00,M,30.21,M,10.00,M,OVC,M,M,M,2900.00,M,M,M,M,KBLI 011925Z AUTO 17006KT 10SM OVC029 A3021 RMK VRB06KT  MADISHF
BLI,2017-04-01 19:30,-122.5375,48.7927,M,M,M,170.00,8.00,M,30.22,M,10.00,M,OVC,M,M,M,3000.00,M,M,M,M,KBLI 011930Z AUTO 17008KT 10SM OVC030 A3022 RMK MADISHF
BLI,2017-04-01 19:34,-122.5375,48.7927,48.90,46.90,92.77,170.00,9.00,0.00,30.22,M,10.00,M,OVC,M,M,M,3000.00,M,M,M,M,KBLI 011934Z 17009KT 10SM OVC030 09/08 A3022 RMK AO2 T00940083
BLI,2017-04-01 19:35,-122.5375,48.7927,M,M,M,170.00,10.00,M,30.22,M,10.00,M,OVC,M,M,M,3000.00,M,M,M,M,KBLI 011935Z AUTO 17010KT 10SM OVC030 A3022 RMK MADISHF
BLI,2017-04-01 19:40,-122.5375,48.7927,M,M,M,180.00,9.00,M,30.22,M,10.00,M,FEW,OVC,M,M,1999.00,3000.00,M,M,M,KBLI 011940Z AUTO 18009KT 10SM FEW019 OVC030 A3022 RMK MADISHF
BLI,2017-04-01 19:45,-122.5375,48.7927,M,M,M,170.00,9.00,M,30.22,M,10.00,M,FEW,OVC,M,M,1999.00,3000.00,M,M,M,KBLI 011945Z AUTO 17009KT 10SM FEW019 OVC030 A3022 RMK MADISHF
BLI,2017-04-01 19:50,-122.5375,48.7927,M,M,M,180.00,7.00,M,30.22,M,10.00,M,FEW,OVC,M,M,1999.00,3000.00,M,M,M,KBLI 011950Z AUTO 18007KT 10SM FEW019 OVC030 A3022 RMK MADISHF
BLI,2017-04-01 19:53,-122.5375,48.7927,48.90,46.00,89.67,170.00,6.00,0.00,30.22,1024.10,10.00,M,FEW,OVC,M,M,2000.00,3000.00,M,M,M,KBLI 011953Z 17006KT 10SM FEW020 OVC030 09/08 A3022 RMK AO2 SLP241 T00940078
BLI,2017-04-01 19:55,-122.5375,48.7927,M,M,M,160.00,9.00,M,30.22,M,10.00,14.00,FEW,OVC,M,M,1999.00,3000.00,M,M,M,KBLI 011955Z AUTO 16009G14KT 10SM FEW019 OVC030 A3022 RMK MADISHF
BLI,2017-04-01 20:00,-122.5375,48.7927,M,M,M,160.00,10.00,M,30.22,M,10.00,M,FEW,BKN,OVC,M,1900.00,3000.00,3600.00,M,M,KBLI 012000Z AUTO 16010KT 10SM FEW019 BKN030 OVC036 A3022 RMK MADISHF
BLI,2017-04-01 20:05,-122.5375,48.7927,M,M,M,160.00,10.00,M,30.21,M,10.00,M,FEW,BKN,OVC,M,1900.00,3000.00,3600.00,M,M,KBLI 012005Z AUTO 16010KT 10SM FEW019 BKN030 OVC036 A3021 RMK MADISHF
BLI,2017-04-01 20:10,-122.5375,48.7927,M,M,M,160.00,10.00,M,30.21,M,10.00,M,FEW,BKN,OVC,M,2100.00,3000.00,3600.00,M,M,KBLI 012010Z AUTO 16010KT 10SM FEW021 BKN030 OVC036 A3021 RMK MADISHF
BLI,2017-04-01 20:15,-122.5375,48.7927,M,M,M,160.00,10.00,M,30.21,M,10.00,M,FEW,BKN,OVC,M,2100.00,3000.00,3600.00,M,M,KBLI 012015Z AUTO 16010KT 10SM FEW021 BKN030 OVC036 A3021 RMK MADISHF
BLI,2017-04-01 20:20,-122.5375,48.7927,M,M,M,170.00,11.00,M,30.22,M,10.00,M,BKN,OVC,M,M,3200.00,6000.00,M,M,M,KBLI 012020Z AUTO 17011KT 10SM BKN032 OVC060 A3022 RMK MADISHF
BLI,2017-04-01 20:25,-122.5375,48.7927,M,M,M,160.00,9.00,M,30.22,M,10.00,M,BKN,OVC,M,M,3200.00,6000.00,M,M,M,KBLI 012025Z AUTO 16009KT 10SM BKN032 OVC060 A3022 RMK MADISHF
BLI,2017-04-01 20:30,-122.5375,48.7927,M,M,M,170.00,8.00,M,30.22,M,10.00,M,BKN,OVC,M,M,3200.00,6000.00,M,M,M,KBLI 012030Z AUTO 17008KT 10SM BKN032 OVC060 A3022 RMK MADISHF
BLI,2017-04-01 20:35,-122.5375,48.7927,M,M,M,160.00,10.00,M,30.22,M,10.00,M,BKN,OVC,M,M,3200.00,6000.00,M,M,M,KBLI 012035Z AUTO 16010KT 10SM BKN032 OVC060 A3022 RMK MADISHF
BLI,2017-04-01 20:40,-122.5375,48.7927,M,M,M,160.00,13.00,M,30.22,M,10.00,M,SCT,OVC,M,M,3100.00,6000.00,M,M,M,KBLI 012040Z AUTO 16013KT 10SM SCT031 OVC060 A3022 RMK MADISHF
BLI,2017-04-01 20:45,-122.5375,48.7927,M,M,M,160.00,12.00,M,30.22,M,10.00,M,FEW,OVC,M,M,3100.00,6000.00,M,M,M,KBLI 012045Z AUTO 16012KT 10SM FEW031 OVC060 A3022 RMK MADISHF
BLI,2017-04-01 20:50,-122.5375,48.7927,M,M,M,170.00,9.00,M,30.22,M,10.00,M,FEW,OVC,M,M,3100.00,5500.00,M,M,M,KBLI 012050Z AUTO 17009KT 10SM FEW031 OVC055 A3022 RMK MADISHF
BLI,2017-04-01 20:53,-122.5375,48.7927,51.10,48.00,89.09,150.00,10.00,0.00,30.22,1024.10,10.00,M,FEW,OVC,M,M,3100.00,5500.00,M,M,M,KBLI 012053Z 15010KT 10SM FEW031 OVC055 11/09 A3022 RMK AO2 SLP241 T01060089 51008
BLI,2017-04-01 20:55,-122.5375,48.7927,M,M,M,160.00,12.00,M,30.22,M,10.00,M,FEW,OVC,M,M,3100.00,5500.00,M,M,M,KBLI 012055Z AUTO 16012KT 10SM FEW031 OVC055 A3022 RMK MADISHF
BLI,2017-04-01 21:00,-122.5375,48.7927,M,M,M,160.00,10.00,M,30.22,M,10.00,M,FEW,FEW,OVC,M,800.00,3100.00,5500.00,M,M,KBLI 012100Z AUTO 16010KT 10SM FEW008 FEW031 OVC055 A3022 RMK MADISHF
BLI,2017-04-01 21:05,-122.5375,48.7927,M,M,M,170.00,11.00,M,30.22,M,10.00,M,FEW,OVC,M,M,800.00,5500.00,M,M,M,KBLI 012105Z AUTO 17011KT 10SM FEW008 OVC055 A3022 RMK MADISHF
BLI,2017-04-01 21:06,-122.5375,48.7927,51.10,46.90,85.48,170.00,10.00,0.00,30.22,M,10.00,M,FEW,OVC,M,M,800.00,5500.00,M,M,M,KBLI 012106Z 17010KT 10SM FEW008 OVC055 11/08 A3022 RMK AO2 T01060083
BLI,2017-04-01 21:10,-122.5375,48.7927,M,M,M,160.00,10.00,M,30.22,M,10.00,M,FEW,OVC,M,M,800.00,5500.00,M,M,M,KBLI 012110Z AUTO 16010KT 10SM FEW008 OVC055 A3022 RMK MADISHF
BLI,2017-04-01 21:15,-122.5375,48.7927,M,M,M,180.00,7.00,M,30.23,M,10.00,M,FEW,OVC,M,M,800.00,5500.00,M,M,M,KBLI 012115Z AUTO 18007KT 10SM FEW008 OVC055 A3023 RMK MADISHF
BLI,2017-04-01 21:20,-122.5375,48.7927,M,M,M,180.00,5.00,M,30.23,M,10.00,M,OVC,M,M,M,5500.00,M,M,M,M,KBLI 012120Z AUTO 18005KT 10SM OVC055 A3023 RMK VRB05KT  MADISHF
BLI,2017-04-01 21:25,-122.5375,48.7927,M,M,M,160.00,9.00,M,30.23,M,10.00,M,OVC,M,M,M,5500.00,M,M,M,M,KBLI 012125Z AUTO 16009KT 10SM OVC055 A3023 RMK MADISHF
BLI,2017-04-01 21:30,-122.5375,48.7927,M,M,M,180.00,7.00,M,30.23,M,10.00,M,FEW,OVC,M,M,2600.00,5500.00,M,M,M,KBLI 012130Z AUTO 18007KT 10SM FEW026 OVC055 A3023 RMK MADISHF
BLI,2017-04-01 21:35,-122.5375,48.7927,M,M,M,170.00,7.00,M,30.22,M,10.00,M,FEW,SCT,OVC,M,1999.00,2600.00,5500.00,M,M,KBLI 012135Z AUTO 17007KT 10SM FEW019 SCT026 OVC055 A3022 RMK MADISHF
BLI,2017-04-01 21:40,-122.5375,48.7927,M,M,M,170.00,8.00,M,30.22,M,10.00,M,SCT,BKN,OVC,M,1999.00,2500.00,5500.00,M,M,KBLI 012140Z AUTO 17008KT 10SM SCT019 BKN025 OVC055 A3022 RMK MADISHF
BLI,2017-04-01 21:42,-122.5375,48.7927,51.10,46.00,82.62,170.00,8.00,0.00,30.22,M,10.00,M,BKN,BKN,OVC,M,2000.00,2500.00,5500.00,M,M,KBLI 012142Z 17008KT 10SM BKN020 BKN025 OVC055 11/08 A3022 RMK AO2 T01060078
BLI,2017-04-01 21:45,-122.5375,48.7927,M,M,M,170.00,7.00,M,30.22,M,10.00,M,BKN,BKN,OVC,M,1999.00,2500.00,5500.00,M,M,KBLI 012145Z AUTO 17007KT 10SM BKN019 BKN025 OVC055 A3022 RMK MADISHF
BLI,2017-04-01 21:50,-122.5375,48.7927,M,M,M,160.00,9.00,M,30.22,M,10.00,M,BKN,BKN,OVC,M,1999.00,2500.00,5500.00,M,M,KBLI 012150Z AUTO 16009KT 10SM BKN019 BKN025 OVC055 A3022 RMK MADISHF
BLI,2017-04-01 21:53,-122.5375,48.7927,51.10,46.00,82.62,160.00,7.00,0.00,30.22,1024.10,10.00,M,SCT,BKN,OVC,M,2000.00,2500.00,5500.00,M,M,KBLI 012153Z 16007KT 10SM SCT020 BKN025 OVC055 11/08 A3022 RMK AO2 SLP241 T01060078
BLI,2017-04-01 21:55,-122.5375,48.7927,M,M,M,180.00,7.00,M,30.22,M,10.00,M,BKN,OVC,M,M,1999.00,2500.00,M,M,M,KBLI 012155Z AUTO 18007KT 10SM BKN019 OVC025 A3022 RMK MADISHF
BLI,2017-04-01 22:00,-122.5375,48.7927,M,M,M,170.00,8.00,M,30.22,M,10.00,M,OVC,M,M,M,1999.00,M,M,M,M,KBLI 012200Z AUTO 17008KT 10SM OVC019 A3022 RMK MADISHF
BLI,2017-04-01 22:05,-122.5375,48.7927,M,M,M,160.00,7.00,M,30.22,M,10.00,M,OVC,M,M,M,1900.00,M,M,M,M,KBLI 012205Z AUTO 16007KT 10SM OVC019 A3022 RMK MADISHF
BLI,2017-04-01 22:10,-122.5375,48.7927,M,M,M,180.00,7.00,M,30.22,M,10.00,M,BKN,OVC,M,M,1600.00,2100.00,M,M,M,KBLI 012210Z AUTO 18007KT 10SM BKN016 OVC021 A3022 RMK MADISHF
BLI,2017-04-01 22:15,-122.5375,48.7927,M,M,M,160.00,9.00,M,30.22,M,10.00,M,BKN,OVC,M,M,1600.00,2100.00,M,M,M,KBLI 012215Z AUTO 16009KT 10SM BKN016 OVC021 A3022 RMK MADISHF
BLI,2017-04-01 22:20,-122.5375,48.7927,M,M,M,160.00,9.00,M,30.22,M,10.00,M,OVC,M,M,M,1800.00,M,M,M,M,KBLI 012220Z AUTO 16009KT 10SM OVC018 A3022 RMK MADISHF
BLI,2017-04-01 22:25,-122.5375,48.7927,M,M,M,170.00,9.00,M,30.22,M,10.00,M,OVC,M,M,M,1600.00,M,M,M,M,KBLI 012225Z AUTO 17009KT 10SM OVC016 A3022 RMK MADISHF
BLI,2017-04-01 22:30,-122.5375,48.7927,M,M,M,150.00,8.00,M,30.22,M,10.00,M,BKN,OVC,M,M,1600.00,5000.00,M,M,M,KBLI 012230Z AUTO 15008KT 10SM BKN016 OVC050 A3022 RMK MADISHF
BLI,2017-04-01 22:35,-122.5375,48.7927,M,M,M,150.00,8.00,M,30.22,M,10.00,M,BKN,OVC,M,M,1600.00,5000.00,M,M,M,KBLI 012235Z AUTO 15008KT 10SM BKN016 OVC050 A3022 RMK MADISHF
BLI,2017-04-01 22:40,-122.5375,48.7927,M,M,M,190.00,7.00,M,30.22,M,10.00,M,BKN,OVC,M,M,1600.00,5000.00,M,M,M,KBLI 012240Z AUTO 19007KT 10SM BKN016 OVC050 A3022 RMK MADISHF
BLI,2017-04-01 22:45,-122.5375,48.7927,M,M,M,180.00,7.00,M,30.22,M,10.00,M,BKN,BKN,M,M,1600.00,5000.00,M,M,M,KBLI 012245Z AUTO 18007KT 10SM BKN016 BKN050 A3022 RMK WND 15V23  MADISHF
BLI,2017-04-01 22:50,-122.5375,48.7927,M,M,M,190.00,9.00,M,30.22,M,10.00,M,BKN,BKN,M,M,1600.00,5000.00,M,M,M,KBLI 012250Z AUTO 19009KT 10SM BKN016 BKN050 A3022 RMK MADISHF
BLI,2017-04-01 22:53,-122.5375,48.7927,52.00,46.00,79.92,160.00,9.00,0.00,30.22,1024.20,10.00,M,BKN,OVC,M,M,1600.00,5000.00,M,M,M,KBLI 012253Z 16009KT 10SM BKN016 OVC050 11/08 A3022 RMK AO2 SLP242 T01110078
BLI,2017-04-01 22:55,-122.5375,48.7927,M,M,M,160.00,8.00,M,30.22,M,10.00,M,BKN,OVC,M,M,1600.00,5000.00,M,M,M,KBLI 012255Z AUTO 16008KT 10SM BKN016 OVC050 A3022 RMK MADISHF
BLI,2017-04-01 23:00,-122.5375,48.7927,M,M,M,170.00,7.00,M,30.23,M,10.00,M,BKN,BKN,M,M,1600.00,5000.00,M,M,M,KBLI 012300Z AUTO 17007KT 10SM BKN016 BKN050 A3023 RMK MADISHF
BLI,2017-04-01 23:05,-122.5375,48.7927,M,M,M,190.00,6.00,M,30.23,M,10.00,M,BKN,BKN,M,M,1600.00,5000.00,M,M,M,KBLI 012305Z AUTO 19006KT 10SM BKN016 BKN050 A3023 RMK MADISHF
BLI,2017-04-01 23:10,-122.5375,48.7927,M,M,M,170.00,7.00,M,30.23,M,10.00,M,BKN,OVC,M,M,1600.00,5000.00,M,M,M,KBLI 012310Z AUTO 17007KT 10SM BKN016 OVC050 A3023 RMK MADISHF
BLI,2017-04-01 23:15,-122.5375,48.7927,M,M,M,160.00,6.00,M,30.23,M,10.00,M,BKN,OVC,M,M,1600.00,5000.00,M,M,M,KBLI 012315Z AUTO 16006KT 10SM BKN016 OVC050 A3023 RMK MADISHF
BLI,2017-04-01 23:20,-122.5375,48.7927,M,M,M,160.00,7.00,M,30.23,M,10.00,M,BKN,OVC,M,M,1600.00,5000.00,M,M,M,KBLI 012320Z AUTO 16007KT 10SM BKN016 OVC050 A3023 RMK MADISHF
BLI,2017-04-01 23:25,-122.5375,48.7927,M,M,M,160.00,7.00,M,30.22,M,10.00,M,BKN,OVC,M,M,1600.00,5000.00,M,M,M,KBLI 012325Z AUTO 16007KT 10SM BKN016 OVC050 A3022 RMK MADISHF
BLI,2017-04-01 23:30,-122.5375,48.7927,M,M,M,170.00,7.00,M,30.23,M,10.00,M,BKN,OVC,M,M,1600.00,5000.00,M,M,M,KBLI 012330Z AUTO 17007KT 10SM BKN016 OVC050 A3023 RMK MADISHF
BLI,2017-04-01 23:35,-122.5375,48.7927,M,M,M,160.00,8.00,M,30.22,M,10.00,M,SCT,BKN,M,M,1600.00,5500.00,M,M,M,KBLI 012335Z AUTO 16008KT 10SM SCT016 BKN055 A3022 RMK MADISHF
BLI,2017-04-01 23:38,-122.5375,48.7927,53.10,46.00,76.75,170.00,7.00,0.00,30.23,M,10.00,M,FEW,BKN,M,M,1600.00,5500.00,M,M,M,KBLI 012338Z 17007KT 10SM FEW016 BKN055 12/08 A3023 RMK AO2 T01170078
BLI,2017-04-01 23:40,-122.5375,48.7927,M,M,M,160.00,7.00,M,30.23,M,10.00,M,FEW,BKN,M,M,1600.00,5500.00,M,M,M,KBLI 012340Z AUTO 16007KT 10SM FEW016 BKN055 A3023 RMK MADISHF
BLI,2017-04-01 23:45,-122.5375,48.7927,M,M,M,160.00,7.00,M,30.23,M,10.00,M,FEW,BKN,M,M,1600.00,5000.00,M,M,M,KBLI 012345Z AUTO 16007KT 10SM FEW016 BKN050 A3023 RMK MADISHF
BLI,2017-04-01 23:50,-122.5375,48.7927,M,M,M,170.00,6.00,M,30.22,M,10.00,M,SCT,M,M,M,5500.00,M,M,M,M,KBLI 012350Z AUTO 17006KT 10SM SCT055 A3022 RMK VRB06KT  MADISHF
BLI,2017-04-01 23:53,-122.5375,48.7927,53.10,46.00,76.75,170.00,6.00,0.00,30.22,1024.20,10.00,M,FEW,SCT,M,M,1500.00,5500.00,M,M,M,KBLI 012353Z 17006KT 10SM FEW015 SCT055 12/08 A3022 RMK AO2 SLP242 T01170078 10117 20089 53002
BLI,2017-04-01 23:55,-122.5375,48.7927,M,M,M,170.00,6.00,M,30.22,M,10.00,M,FEW,BKN,M,M,1500.00,5500.00,M,M,M,KBLI 012355Z AUTO 17006KT 10SM FEW015 BKN055 A3022 RMK MADISHF
