#DEBUG: Format Typ    -> comma
#DEBUG: Time Period   -> 2017-04-01 00:00:00+00:00 2017-04-02 00:00:00+00:00
#DEBUG: Time Zone     -> Etc/UTC
#DEBUG: Data Contact   -> daryl herzmann akrherz@iastate.edu 515-294-5978
#DEBUG: Entries Found -> -1
station,valid,lon,lat,tmpf, dwpf, relh, drct, sknt, p01i, alti, mslp, vsby, gust, skyc1, skyc2, skyc3, skyc4, skyl1, skyl2, skyl3, skyl4, presentwx, metar
BLM,2017-04-01 00:00,-74.1300,40.1800,M,M,M,60.00,10.00,0.02,29.70,M,8.00,M,OVC,M,M,M,499.00,M,M,M,RA,KBLM 010000Z AUTO 06010KT 8SM RA OVC004 A2970 RMK P0002 MADISHF
BLM,2017-04-01 00:05,-74.1300,40.1800,M,M,M,60.00,10.00,0.06,29.70,M,7.00,M,OVC,M,M,M,499.00,M,M,M,+RA,KBLM 010005Z AUTO 06010KT 7SM +RA OVC004 A2970 RMK P0006 MADISHF
BLM,2017-04-01 00:10,-74.1300,40.1800,M,M,M,60.00,11.00,0.08,29.69,M,7.00,M,OVC,M,M,M,499.00,M,M,M,RA,KBLM 010010Z AUTO 06011KT 7SM RA OVC004 A2969 RMK P0008 MADISHF
BLM,2017-04-01 00:15,-74.1300,40.1800,M,M,M,30.00,10.00,0.10,29.69,M,6.00,M,OVC,M,M,M,499.00,M,M,M,RA BR,KBLM 010015Z AUTO 03010KT 6SM RA BR OVC004 A2969 RMK P0010 MADISHF
BLM,2017-04-01 00:20,-74.1300,40.1800,M,M,M,30.00,9.00,0.11,29.70,M,6.00,M,OVC,M,M,M,499.00,M,M,M,RA BR,KBLM 010020Z AUTO 03009KT 6SM RA BR OVC004 A2970 RMK P0011 MADISHF
BLM,2017-04-01 00:25,-74.1300,40.1800,M,M,M,360.00,5.00,0.13,29.71,M,6.00,M,OVC,M,M,M,499.00,M,M,M,RA BR,KBLM 010025Z AUTO 36005KT 6SM RA BR OVC004 A2971 RMK P0013 MADISHF
BLM,2017-04-01 00:30,-74.1300,40.1800,M,M,M,320.00,5.00,0.13,29.72,M,6.00,M,OVC,M,M,M,499.00,M,M,M,RA BR,KBLM 010030Z AUTO 32005KT 6SM RA BR OVC004 A2972 RMK P0013 MADISHF
BLM,2017-04-01 00:35,-74.1300,40.1800,M,M,M,330.00,6.00,0.16,29.72,M,5.00,M,OVC,M,M,M,499.00,M,M,M,RA BR,KBLM 010035Z AUTO 33006KT 5SM RA BR OVC004 A2972 RMK P0016 MADISHF
BLM,2017-04-01 00:40,-74.1300,40.1800,M,M,M,360.00,7.00,0.18,29.72,M,5.00,M,OVC,M,M,M,499.00,M,M,M,RA BR,KBLM 010040Z AUTO 36007KT 5SM RA BR OVC004 A2972 RMK P0018 MADISHF
BLM,2017-04-01 00:45,-74.1300,40.1800,M,M,M,340.00,5.00,0.18,29.72,M,6.00,M,OVC,M,M,M,499.00,M,M,M,-RA BR,KBLM 010045Z AUTO 34005KT 6SM -RA BR OVC004 A2972 RMK P0018 MADISHF
BLM,2017-04-01 00:50,-74.1300,40.1800,M,M,M,10.00,7.00,0.19,29.71,M,5.00,M,OVC,M,M,M,499.00,M,M,M,RA BR,KBLM 010050Z AUTO 01007KT 5SM RA BR OVC004 A2971 RMK P0019 MADISHF
BLM,2017-04-01 00:55,-74.1300,40.1800,M,M,M,10.00,8.00,0.21,29.71,M,4.00,M,OVC,M,M,M,499.00,M,M,M,RA BR,KBLM 010055Z AUTO 01008KT 4SM RA BR OVC004 A2971 RMK P0021 MADISHF
BLM,2017-04-01 00:56,-74.1300,40.1800,44.10,44.10,100.00,20.00,7.00,0.21,29.71,1006.60,4.00,M,OVC,M,M,M,500.00,M,M,M,RA BR,KBLM 010056Z AUTO 02007KT 4SM RA BR OVC005 07/07 A2971 RMK AO2 SLP066 P0021 T00670067
BLM,2017-04-01 01:00,-74.1300,40.1800,M,M,M,20.00,9.00,0.01,29.71,M,4.00,M,OVC,M,M,M,499.00,M,M,M,RA BR,KBLM 010100Z AUTO 02009KT 4SM RA BR OVC004 A2971 RMK P0001 MADISHF
BLM,2017-04-01 01:05,-74.1300,40.1800,M,M,M,30.00,8.00,0.03,29.71,M,5.00,M,OVC,M,M,M,499.00,M,M,M,RA BR,KBLM 010105Z AUTO 03008KT 5SM RA BR OVC004 A2971 RMK P0003 MADISHF
BLM,2017-04-01 01:10,-74.1300,40.1800,M,M,M,30.00,10.00,0.05,29.70,M,4.00,M,OVC,M,M,M,499.00,M,M,M,RA BR,KBLM 010110Z AUTO 03010KT 4SM RA BR OVC004 A2970 RMK P0005 MADISHF
BLM,2017-04-01 01:15,-74.1300,40.1800,M,M,M,30.00,10.00,0.06,29.70,M,2.50,M,OVC,M,M,M,499.00,M,M,M,RA BR,KBLM 010115Z AUTO 03010KT 2 1/2SM RA BR OVC004 A2970 RMK P0006 CIG 4V8  MADISHF
BLM,2017-04-01 01:20,-74.1300,40.1800,M,M,M,40.00,11.00,0.06,29.69,M,2.50,M,OVC,M,M,M,499.00,M,M,M,-RA BR,KBLM 010120Z AUTO 04011KT 2 1/2SM -RA BR OVC004 A2969 RMK P0006 CIG 4V8  MADISHF
BLM,2017-04-01 01:21,-74.1300,40.1800,44.60,42.80,93.35,40.00,12.00,0.06,29.69,M,2.50,M,OVC,M,M,M,500.00,M,M,M,-RA BR,KBLM 010121Z AUTO 04012KT 2 1/2SM -RA BR OVC005 07/06 A2969 RMK AO2 CIG 004V008 P0006
BLM,2017-04-01 01:25,-74.1300,40.1800,M,M,M,M,M,0.07,29.69,M,2.50,M,OVC,M,M,M,499.00,M,M,M,-RA BR,KBLM 010125Z AUTO /////KT 2 1/2SM -RA BR OVC004 A2969 RMK P0007 MADISHF
BLM,2017-04-01 01:30,-74.1300,40.1800,M,M,M,50.00,14.00,0.08,29.68,M,3.00,M,OVC,M,M,M,499.00,M,M,M,-RA BR,KBLM 010130Z AUTO 05014KT 3SM -RA BR OVC004 A2968 RMK P0008 MADISHF
BLM,2017-04-01 01:32,-74.1300,40.1800,44.60,42.80,93.35,40.00,13.00,0.08,29.68,M,3.00,M,OVC,M,M,M,500.00,M,M,M,-RA BR,KBLM 010132Z AUTO 04013KT 3SM -RA BR OVC005 07/06 A2968 RMK AO2 CIG 003V008 P0008
BLM,2017-04-01 01:35,-74.1300,40.1800,M,M,M,50.00,11.00,0.08,29.68,M,3.00,M,OVC,M,M,M,499.00,M,M,M,-RA BR,KBLM 010135Z AUTO 05011KT 3SM -RA BR OVC004 A2968 RMK P0008 CIG 3V8  MADISHF
BLM,2017-04-01 01:40,-74.1300,40.1800,M,M,M,M,M,0.08,29.68,M,2.50,M,OVC,M,M,M,300.00,M,M,M,-RA BR,KBLM 010140Z AUTO /////KT 2 1/2SM -RA BR OVC003 A2968 RMK P0008 CIG 3V6  MADISHF
BLM,2017-04-01 01:42,-74.1300,40.1800,44.60,42.80,93.35,50.00,12.00,0.08,29.68,M,2.50,M,OVC,M,M,M,300.00,M,M,M,-RA BR,KBLM 010142Z AUTO 05012KT 2 1/2SM -RA BR OVC003 07/06 A2968 RMK AO2 P0008
BLM,2017-04-01 01:45,-74.1300,40.1800,M,M,M,M,M,0.08,29.67,M,2.50,M,OVC,M,M,M,300.00,M,M,M,-RA BR,KBLM 010145Z AUTO /////KT 2 1/2SM -RA BR OVC003 A2967 RMK P0008 MADISHF
BLM,2017-04-01 01:50,-74.1300,40.1800,M,M,M,50.00,15.00,0.08,29.67,M,3.00,20.00,OVC,M,M,M,300.00,M,M,M,-RA BR,KBLM 010150Z AUTO 05015G20KT 3SM -RA BR OVC003 A2967 RMK P0008 MADISHF
BLM,2017-04-01 01:55,-74.1300,40.1800,M,M,M,M,M,0.09,29.67,M,3.50,M,OVC,M,M,M,300.00,M,M,M,-RA BR,KBLM 010155Z AUTO /////KT 3SM -RA BR OVC003 A2967 RMK P0009 MADISHF
BLM,2017-04-01 01:56,-74.1300,40.1800,44.10,43.00,95.88,40.00,12.00,0.09,29.67,1005.20,4.00,20.00,OVC,M,M,M,300.00,M,M,M,-RA BR,KBLM 010156Z AUTO 04012G20KT 4SM -RA BR OVC003 07/06 A2967 RMK AO2 SLP052 P0009 T00670061
BLM,2017-04-01 02:00,-74.1300,40.1800,M,M,M,40.00,13.00,M,29.67,M,4.00,M,OVC,M,M,M,300.00,M,M,M,-RA BR,KBLM 010200Z AUTO 04013KT 4SM -RA BR OVC003 A2967 RMK MADISHF
BLM,2017-04-01 02:05,-74.1300,40.1800,M,M,M,M,M,M,29.66,M,6.00,M,OVC,M,M,M,300.00,M,M,M,-RA BR,KBLM 010205Z AUTO /////KT 6SM -RA BR OVC003 A2966 RMK MADISHF
BLM,2017-04-01 02:10,-74.1300,40.1800,M,M,M,40.00,13.00,M,29.67,M,6.00,M,OVC,M,M,M,300.00,M,M,M,-RA BR,KBLM 010210Z AUTO 04013KT 6SM -RA BR OVC003 A2967 RMK MADISHF
BLM,2017-04-01 02:15,-74.1300,40.1800,M,M,M,40.00,12.00,M,29.66,M,7.00,M,OVC,M,M,M,300.00,M,M,M,-RA,KBLM 010215Z AUTO 04012KT 7SM -RA OVC003 A2966 RMK MADISHF
BLM,2017-04-01 02:20,-74.1300,40.1800,M,M,M,40.00,14.00,M,29.65,M,7.00,M,OVC,M,M,M,300.00,M,M,M,-RA,KBLM 010220Z AUTO 04014KT 7SM -RA OVC003 A2965 RMK MADISHF
BLM,2017-04-01 02:25,-74.1300,40.1800,M,M,M,40.00,13.00,M,29.65,M,7.00,18.00,OVC,M,M,M,300.00,M,M,M,-RA,KBLM 010225Z AUTO 04013G18KT 7SM -RA OVC003 A2965 RMK MADISHF
BLM,2017-04-01 02:30,-74.1300,40.1800,M,M,M,30.00,11.00,M,29.65,M,6.00,M,OVC,M,M,M,300.00,M,M,M,-RA BR,KBLM 010230Z AUTO 03011KT 6SM -RA BR OVC003 A2965 RMK MADISHF
BLM,2017-04-01 02:35,-74.1300,40.1800,M,M,M,40.00,13.00,M,29.65,M,6.00,M,OVC,M,M,M,300.00,M,M,M,-RA BR,KBLM 010235Z AUTO 04013KT 6SM -RA BR OVC003 A2965 RMK MADISHF
BLM,2017-04-01 02:40,-74.1300,40.1800,M,M,M,40.00,15.00,M,29.65,M,6.00,M,OVC,M,M,M,300.00,M,M,M,-RA BR,KBLM 010240Z AUTO 04015KT 6SM -RA BR OVC003 A2965 RMK MADISHF
BLM,2017-04-01 02:45,-74.1300,40.1800,M,M,M,30.00,15.00,M,29.65,M,4.00,20.00,OVC,M,M,M,300.00,M,M,M,-RA BR,KBLM 010245Z AUTO 03015G20KT 4SM -RA BR OVC003 A2965 RMK MADISHF
BLM,2017-04-01 02:50,-74.1300,40.1800,M,M,M,40.00,14.00,M,29.65,M,3.00,23.00,OVC,M,M,M,300.00,M,M,M,-RA BR,KBLM 010250Z AUTO 04014G23KT 3SM -RA BR OVC003 A2965 RMK MADISHF
BLM,2017-04-01 02:55,-74.1300,40.1800,M,M,M,40.00,15.00,M,29.64,M,3.00,M,OVC,M,M,M,300.00,M,M,M,-RA BR,KBLM 010255Z AUTO 04015KT 3SM -RA BR OVC003 A2964 RMK MADISHF
BLM,2017-04-01 02:56,-74.1300,40.1800,43.00,42.10,96.60,40.00,17.00,0.00,29.63,1004.00,3.00,23.00,OVC,M,M,M,300.00,M,M,M,-RA BR,KBLM 010256Z AUTO 04017G23KT 3SM -RA BR OVC003 06/06 A2963 RMK AO2 SLP040 P0000 60030 T00610056 58021
BLM,2017-04-01 03:00,-74.1300,40.1800,M,M,M,30.00,13.00,M,29.64,M,3.00,M,OVC,M,M,M,300.00,M,M,M,-RA BR,KBLM 010300Z AUTO 03013KT 3SM -RA BR OVC003 A2964 RMK MADISHF
BLM,2017-04-01 03:05,-74.1300,40.1800,M,M,M,30.00,14.00,M,29.64,M,3.00,M,OVC,M,M,M,300.00,M,M,M,-RA BR,KBLM 010305Z AUTO 03014KT 3SM -RA BR OVC003 A2964 RMK MADISHF
BLM,2017-04-01 03:10,-74.1300,40.1800,M,M,M,40.00,14.00,M,29.64,M,3.00,M,OVC,M,M,M,300.00,M,M,M,-RA BR,KBLM 010310Z AUTO 04014KT 3SM -RA BR OVC003 A2964 RMK MADISHF
BLM,2017-04-01 03:15,-74.1300,40.1800,M,M,M,40.00,15.00,M,29.63,M,3.50,M,OVC,M,M,M,300.00,M,M,M,-RA BR,KBLM 010315Z AUTO 04015KT 3SM -RA BR OVC003 A2963 RMK MADISHF
BLM,2017-04-01 03:20,-74.1300,40.1800,M,M,M,30.00,15.00,M,29.63,M,4.00,M,OVC,M,M,M,300.00,M,M,M,-RA BR,KBLM 010320Z AUTO 03015KT 4SM -RA BR OVC003 A2963 RMK MADISHF
BLM,2017-04-01 03:25,-74.1300,40.1800,M,M,M,40.00,18.00,M,29.63,M,3.50,M,OVC,M,M,M,300.00,M,M,M,BR,KBLM 010325Z AUTO 04018KT 3SM BR OVC003 A2963 RMK MADISHF
BLM,2017-04-01 03:30,-74.1300,40.1800,M,M,M,30.00,15.00,M,29.63,M,3.00,M,OVC,M,M,M,300.00,M,M,M,BR,KBLM 010330Z AUTO 03015KT 3SM BR OVC003 A2963 RMK MADISHF
BLM,2017-04-01 03:35,-74.1300,40.1800,M,M,M,30.00,13.00,M,29.63,M,3.00,M,OVC,M,M,M,300.00,M,M,M,BR,KBLM 010335Z AUTO 03013KT 3SM BR OVC003 A2963 RMK MADISHF
BLM,2017-04-01 03:40,-74.1300,40.1800,M,M,M,30.00,11.00,M,29.64,M,3.00,17.00,OVC,M,M,M,300.00,M,M,M,BR,KBLM 010340Z AUTO 03011G17KT 3SM BR OVC003 A2964 RMK MADISHF
BLM,2017-04-01 03:45,-74.1300,40.1800,M,M,M,30.00,15.00,M,29.63,M,2.50,M,OVC,M,M,M,300.00,M,M,M,-RA BR,KBLM 010345Z AUTO 03015KT 2 1/2SM -RA BR OVC003 A2963 RMK MADISHF
BLM,2017-04-01 03:47,-74.1300,40.1800,42.80,41.00,93.30,30.00,13.00,0.00,29.63,M,2.50,18.00,OVC,M,M,M,300.00,M,M,M,-RA BR,KBLM 010347Z AUTO 03013G18KT 2 1/2SM -RA BR OVC003 06/05 A2963 RMK AO2 RAE22B43 P0000
BLM,2017-04-01 03:50,-74.1300,40.1800,M,M,M,20.00,13.00,M,29.63,M,2.50,18.00,OVC,M,M,M,300.00,M,M,M,-RA BR,KBLM 010350Z AUTO 02013G18KT 2 1/2SM -RA BR OVC003 A2963 RMK MADISHF
BLM,2017-04-01 03:55,-74.1300,40.1800,M,M,M,M,M,0.01,29.63,M,2.50,M,OVC,M,M,M,300.00,M,M,M,-RA BR,KBLM 010355Z AUTO /////KT 2 1/2SM -RA BR OVC003 A2963 RMK P0001 MADISHF
BLM,2017-04-01 03:56,-74.1300,40.1800,42.10,41.00,95.84,30.00,16.00,0.01,29.63,1003.80,2.50,21.00,OVC,M,M,M,300.00,M,M,M,-RA BR,KBLM 010356Z AUTO 03016G21KT 2 1/2SM -RA BR OVC003 06/05 A2963 RMK AO2 RAE22B43 SLP038 P0001 T00560050
BLM,2017-04-01 04:00,-74.1300,40.1800,M,M,M,30.00,14.00,M,29.63,M,2.50,M,OVC,M,M,M,300.00,M,M,M,-RA BR,KBLM 010400Z AUTO 03014KT 2 1/2SM -RA BR OVC003 A2963 RMK MADISHF
BLM,2017-04-01 04:05,-74.1300,40.1800,M,M,M,30.00,15.00,M,29.62,M,2.00,M,OVC,M,M,M,300.00,M,M,M,-RA BR,KBLM 010405Z AUTO 03015KT 2SM -RA BR OVC003 A2962 RMK MADISHF
BLM,2017-04-01 04:10,-74.1300,40.1800,M,M,M,30.00,15.00,M,29.62,M,2.00,M,OVC,M,M,M,300.00,M,M,M,-RA BR,KBLM 010410Z AUTO 03015KT 2SM -RA BR OVC003 A2962 RMK MADISHF
BLM,2017-04-01 04:15,-74.1300,40.1800,M,M,M,40.00,16.00,M,29.62,M,2.00,M,OVC,M,M,M,300.00,M,M,M,-RA BR,KBLM 010415Z AUTO 04016KT 2SM -RA BR OVC003 A2962 RMK MADISHF
BLM,2017-04-01 04:20,-74.1300,40.1800,M,M,M,30.00,15.00,M,29.62,M,2.50,20.00,OVC,M,M,M,300.00,M,M,M,-RA BR,KBLM 010420Z AUTO 03015G20KT 2 1/2SM -RA BR OVC003 A2962 RMK MADISHF
BLM,2017-04-01 04:25,-74.1300,40.1800,M,M,M,30.00,15.00,M,29.62,M,2.50,20.00,OVC,M,M,M,300.00,M,M,M,-RA BR,KBLM 010425Z AUTO 03015G20KT 2 1/2SM -RA BR OVC003 A2962 RMK MADISHF
BLM,2017-04-01 04:30,-74.1300,40.1800,M,M,M,20.00,14.00,M,29.63,M,2.50,M,OVC,M,M,M,300.00,M,M,M,-RA BR,KBLM 010430Z AUTO 02014KT 2 1/2SM -RA BR OVC003 A2963 RMK MADISHF
BLM,2017-04-01 04:35,-74.1300,40.1800,M,M,M,30.00,14.00,M,29.62,M,2.50,M,OVC,M,M,M,300.00,M,M,M,-RA BR,KBLM 010435Z AUTO 03014KT 2 1/2SM -RA BR OVC003 A2962 RMK MADISHF
BLM,2017-04-01 04:40,-74.1300,40.1800,M,M,M,M,M,M,29.62,M,2.50,26.00,OVC,M,M,M,300.00,M,M,M,-RA BR,KBLM 010440Z AUTO /////G26KT 2 1/2SM -RA BR OVC003 A2962 RMK MADISHF
BLM,2017-04-01 04:45,-74.1300,40.1800,M,M,M,30.00,15.00,M,29.62,M,2.50,M,OVC,M,M,M,300.00,M,M,M,-RA BR,KBLM 010445Z AUTO 03015KT 2 1/2SM -RA BR OVC003 A2962 RMK MADISHF
BLM,2017-04-01 04:50,-74.1300,40.1800,M,M,M,30.00,15.00,M,29.62,M,2.50,M,OVC,M,M,M,300.00,M,M,M,-RA BR,KBLM 010450Z AUTO 03015KT 2 1/2SM -RA BR OVC003 A2962 RMK MADISHF
BLM,2017-04-01 04:55,-74.1300,40.1800,M,M,M,30.00,15.00,M,29.62,M,2.50,M,OVC,M,M,M,300.00,M,M,M,-RA BR,KBLM 010455Z AUTO 03015KT 2 1/2SM -RA BR OVC003 A2962 RMK MADISHF
BLM,2017-04-01 04:56,-74.1300,40.1800,41.00,39.90,95.82,40.00,16.00,0.00,29.62,1003.50,2.50,21.00,OVC,M,M,M,300.00,M,M,M,-RA BR,KBLM 010456Z AUTO 04016G21KT 2 1/2SM -RA BR OVC003 05/04 A2962 RMK AO2 PK WND 03026/0440 SLP035 P0000 T00500044 400720028
BLM,2017-04-01 05:00,-74.1300,40.1800,M,M,M,30.00,16.00,M,29.62,M,2.50,M,OVC,M,M,M,300.00,M,M,M,-RA BR,KBLM 010500Z AUTO 03016KT 2 1/2SM -RA BR OVC003 A2962 RMK MADISHF
BLM,2017-04-01 05:05,-74.1300,40.1800,M,M,M,M,M,M,29.61,M,2.50,M,OVC,M,M,M,300.00,M,M,M,-RA BR,KBLM 010505Z AUTO /////KT 2 1/2SM -RA BR OVC003 A2961 RMK MADISHF
BLM,2017-04-01 05:10,-74.1300,40.1800,M,M,M,30.00,17.00,0.01,29.61,M,2.50,M,OVC,M,M,M,300.00,M,M,M,-RA BR,KBLM 010510Z AUTO 03017KT 2 1/2SM -RA BR OVC003 A2961 RMK P0001 MADISHF
BLM,2017-04-01 05:15,-74.1300,40.1800,M,M,M,M,M,0.01,29.60,M,2.50,M,OVC,M,M,M,300.00,M,M,M,-RA BR,KBLM 010515Z AUTO /////KT 2 1/2SM -RA BR OVC003 A2960 RMK P0001 MADISHF
BLM,2017-04-01 05:20,-74.1300,40.1800,M,M,M,M,M,0.01,29.60,M,2.50,M,OVC,M,M,M,300.00,M,M,M,-RA BR,KBLM 010520Z AUTO /////KT 2 1/2SM -RA BR OVC003 A2960 RMK P0001 MADISHF
BLM,2017-04-01 05:25,-74.1300,40.1800,M,M,M,30.00,13.00,0.01,29.61,M,2.50,M,OVC,M,M,M,300.00,M,M,M,-RA BR,KBLM 010525Z AUTO 03013KT 2 1/2SM -RA BR OVC003 A2961 RMK P0001 MADISHF
BLM,2017-04-01 05:30,-74.1300,40.1800,M,M,M,30.00,14.00,0.01,29.61,M,2.50,M,OVC,M,M,M,300.00,M,M,M,-RA BR,KBLM 010530Z AUTO 03014KT 2 1/2SM -RA BR OVC003 A2961 RMK P0001 MADISHF
BLM,2017-04-01 05:35,-74.1300,40.1800,M,M,M,30.00,14.00,0.01,29.62,M,2.50,M,OVC,M,M,M,300.00,M,M,M,-RA BR,KBLM 010535Z AUTO 03014KT 2 1/2SM -RA BR OVC003 A2962 RMK P0001 MADISHF
BLM,2017-04-01 05:40,-74.1300,40.1800,M,M,M,30.00,16.00,0.01,29.61,M,2.50,M,OVC,M,M,M,300.00,M,M,M,-RA BR,KBLM 010540Z AUTO 03016KT 2 1/2SM -RA BR OVC003 A2961 RMK P0001 MADISHF
BLM,2017-04-01 05:45,-74.1300,40.1800,M,M,M,M,M,0.01,29.61,M,2.50,M,OVC,M,M,M,300.00,M,M,M,-RA BR,KBLM 010545Z AUTO /////KT 2 1/2SM -RA BR OVC003 A2961 RMK P0001 MADISHF
BLM,2017-04-01 05:50,-74.1300,40.1800,M,M,M,M,M,0.01,29.61,M,2.50,M,OVC,M,M,M,300.00,M,M,M,-RA BR,KBLM 010550Z AUTO /////KT 2 1/2SM -RA BR OVC003 A2961 RMK P0001 MADISHF
BLM,2017-04-01 05:55,-74.1300,40.1800,M,M,M,20.00,16.00,0.01,29.61,M,2.50,M,OVC,M,M,M,300.00,M,M,M,-RA BR,KBLM 010555Z AUTO 02016KT 2 1/2SM -RA BR OVC003 A2961 RMK P0001 MADISHF
BLM,2017-04-01 05:56,-74.1300,40.1800,39.90,39.00,96.55,20.00,14.00,0.01,29.62,1003.40,2.50,26.00,OVC,M,M,M,300.00,M,M,M,-RA BR,KBLM 010556Z AUTO 02014G26KT 2 1/2SM -RA BR OVC003 04/04 A2962 RMK AO2 PK WND 04029/0514 SLP034 P0001 60032 T00440039 10072 20044 56006
BLM,2017-04-01 06:00,-74.1300,40.1800,M,M,M,20.00,16.00,0.01,29.62,M,2.50,M,OVC,M,M,M,300.00,M,M,M,-RA BR,KBLM 010600Z AUTO 02016KT 2 1/2SM -RA BR OVC003 A2962 RMK P0001 MADISHF
BLM,2017-04-01 06:05,-74.1300,40.1800,M,M,M,20.00,13.00,0.01,29.62,M,2.50,M,OVC,M,M,M,300.00,M,M,M,-RA BR,KBLM 010605Z AUTO 02013KT 2 1/2SM -RA BR OVC003 A2962 RMK P0001 MADISHF
BLM,2017-04-01 06:10,-74.1300,40.1800,M,M,M,20.00,14.00,0.01,29.61,M,2.50,19.00,OVC,M,M,M,300.00,M,M,M,-RA BR,KBLM 010610Z AUTO 02014G19KT 2 1/2SM -RA BR OVC003 A2961 RMK P0001 MADISHF
BLM,2017-04-01 06:15,-74.1300,40.1800,M,M,M,20.00,15.00,0.01,29.61,M,2.50,M,OVC,M,M,M,300.00,M,M,M,-RA BR,KBLM 010615Z AUTO 02015KT 2 1/2SM -RA BR OVC003 A2961 RMK P0001 MADISHF
BLM,2017-04-01 06:20,-74.1300,40.1800,M,M,M,20.00,13.00,0.01,29.61,M,2.50,18.00,OVC,M,M,M,300.00,M,M,M,-RA BR,KBLM 010620Z AUTO 02013G18KT 2 1/2SM -RA BR OVC003 A2961 RMK P0001 WND 35V05  MADISHF
BLM,2017-04-01 06:25,-74.1300,40.1800,M,M,M,20.00,12.00,0.01,29.61,M,2.50,17.00,OVC,M,M,M,300.00,M,M,M,-RA BR,KBLM 010625Z AUTO 02012G17KT 2 1/2SM -RA BR OVC003 A2961 RMK P0001 MADISHF
BLM,2017-04-01 06:30,-74.1300,40.1800,M,M,M,20.00,12.00,0.01,29.61,M,2.50,M,OVC,M,M,M,300.00,M,M,M,-RA BR,KBLM 010630Z AUTO 02012KT 2 1/2SM -RA BR OVC003 A2961 RMK P0001 MADISHF
BLM,2017-04-01 06:35,-74.1300,40.1800,M,M,M,20.00,15.00,0.01,29.60,M,2.50,M,OVC,M,M,M,300.00,M,M,M,-RA BR,KBLM 010635Z AUTO 02015KT 2 1/2SM -RA BR OVC003 A2960 RMK P0001 MADISHF
BLM,2017-04-01 06:40,-74.1300,40.1800,M,M,M,20.00,12.00,0.01,29.61,M,2.50,18.00,OVC,M,M,M,300.00,M,M,M,-RA BR,KBLM 010640Z AUTO 02012G18KT 2 1/2SM -RA BR OVC003 A2961 RMK P0001 MADISHF
BLM,2017-04-01 06:45,-74.1300,40.1800,M,M,M,10.00,11.00,0.01,29.61,M,2.50,M,OVC,M,M,M,300.00,M,M,M,-RA BR,KBLM 010645Z AUTO 01011KT 2 1/2SM -RA BR OVC003 A2961 RMK P0001 MADISHF
BLM,2017-04-01 06:50,-74.1300,40.1800,M,M,M,10.00,13.00,0.01,29.61,M,2.50,M,OVC,M,M,M,300.00,M,M,M,-RA BR,KBLM 010650Z AUTO 01013KT 2 1/2SM -RA BR OVC003 A2961 RMK P0001 MADISHF
BLM,2017-04-01 06:55,-74.1300,40.1800,M,M,M,10.00,11.00,0.01,29.62,M,2.50,M,OVC,M,M,M,300.00,M,M,M,-RA BR,KBLM 010655Z AUTO 01011KT 2 1/2SM -RA BR OVC003 A2962 RMK P0001 MADISHF
BLM,2017-04-01 06:56,-74.1300,40.1800,39.90,37.90,92.48,360.00,10.00,0.01,29.62,1003.70,2.50,19.00,OVC,M,M,M,300.00,M,M,M,-RA BR,KBLM 010656Z AUTO 36010G19KT 2 1/2SM -RA BR OVC003 04/03 A2962 RMK AO2 PRESRR SLP037 P0001 T00440033
BLM,2017-04-01 07:00,-74.1300,40.1800,M,M,M,360.00,12.00,M,29.63,M,2.50,M,OVC,M,M,M,300.00,M,M,M,-RA BR,KBLM 010700Z AUTO 36012KT 2 1/2SM -RA BR OVC003 A2963 RMK MADISHF
BLM,2017-04-01 07:05,-74.1300,40.1800,M,M,M,350.00,12.00,M,29.63,M,2.50,M,OVC,M,M,M,499.00,M,M,M,-RA BR,KBLM 010705Z AUTO 35012KT 2 1/2SM -RA BR OVC004 A2963 RMK MADISHF
BLM,2017-04-01 07:07,-74.1300,40.1800,39.20,39.20,100.00,350.00,12.00,0.00,29.63,M,2.50,M,OVC,M,M,M,500.00,M,M,M,-RA BR,KBLM 010707Z AUTO 35012KT 2 1/2SM -RA BR OVC005 04/04 A2963 RMK AO2 P0000
BLM,2017-04-01 07:10,-74.1300,40.1800,M,M,M,340.00,10.00,M,29.63,M,2.50,M,OVC,M,M,M,499.00,M,M,M,-RA BR,KBLM 010710Z AUTO 34010KT 2 1/2SM -RA BR OVC004 A2963 RMK MADISHF
BLM,2017-04-01 07:15,-74.1300,40.1800,M,M,M,340.00,12.00,M,29.62,M,2.50,M,OVC,M,M,M,499.00,M,M,M,-RA BR,KBLM 010715Z AUTO 34012KT 2 1/2SM -RA BR OVC004 A2962 RMK MADISHF
BLM,2017-04-01 07:20,-74.1300,40.1800,M,M,M,350.00,12.00,M,29.62,M,2.50,M,OVC,M,M,M,499.00,M,M,M,-RA BR,KBLM 010720Z AUTO 35012KT 2 1/2SM -RA BR OVC004 A2962 RMK MADISHF
BLM,2017-04-01 07:25,-74.1300,40.1800,M,M,M,360.00,10.00,M,29.62,M,2.50,M,OVC,M,M,M,499.00,M,M,M,-RA BR,KBLM 010725Z AUTO 36010KT 2 1/2SM -RA BR OVC004 A2962 RMK MADISHF
BLM,2017-04-01 07:30,-74.1300,40.1800,M,M,M,360.00,12.00,M,29.62,M,2.50,M,OVC,M,M,M,499.00,M,M,M,-RA BR,KBLM 010730Z AUTO 36012KT 2 1/2SM -RA BR OVC004 A2962 RMK MADISHF
BLM,2017-04-01 07:35,-74.1300,40.1800,M,M,M,360.00,12.00,0.01,29.61,M,2.50,M,OVC,M,M,M,499.00,M,M,M,-RA BR,KBLM 010735Z AUTO 36012KT 2 1/2SM -RA BR OVC004 A2961 RMK P0001 MADISHF
BLM,2017-04-01 07:40,-74.1300,40.1800,M,M,M,350.00,10.00,0.01,29.62,M,2.50,M,OVC,M,M,M,499.00,M,M,M,-RA BR,KBLM 010740Z AUTO 35010KT 2 1/2SM -RA BR OVC004 A2962 RMK P0001 MADISHF
BLM,2017-04-01 07:45,-74.1300,40.1800,M,M,M,350.00,14.00,0.01,29.62,M,2.50,M,OVC,M,M,M,499.00,M,M,M,-RA BR,KBLM 010745Z AUTO 35014KT 2 1/2SM -RA BR OVC004 A2962 RMK P0001 MADISHF
BLM,2017-04-01 07:50,-74.1300,40.1800,M,M,M,350.00,10.00,0.01,29.62,M,2.50,M,OVC,M,M,M,499.00,M,M,M,-RA BR,KBLM 010750Z AUTO 35010KT 2 1/2SM -RA BR OVC004 A2962 RMK P0001 MADISHF
BLM,2017-04-01 07:55,-74.1300,40.1800,M,M,M,340.00,9.00,0.01,29.63,M,2.50,M,OVC,M,M,M,499.00,M,M,M,-RA BR,KBLM 010755Z AUTO 34009KT 2 1/2SM -RA BR OVC004 A2963 RMK P0001 MADISHF
BLM,2017-04-01 07:56,-74.1300,40.1800,39.00,37.90,95.78,340.00,10.00,0.01,29.62,1003.70,2.50,M,OVC,M,M,M,500.00,M,M,M,-RA BR,KBLM 010756Z AUTO 34010KT 2 1/2SM -RA BR OVC005 04/03 A2962 RMK AO2 SLP037 P0001 T00390033
BLM,2017-04-01 08:05,-74.1300,40.1800,M,M,M,330.00,12.00,M,29.63,M,3.00,M,OVC,M,M,M,499.00,M,M,M,-RA BR,KBLM 010805Z AUTO 33012KT 3SM -RA BR OVC004 A2963 RMK MADISHF
BLM,2017-04-01 08:09,-74.1300,40.1800,39.20,37.40,93.19,350.00,12.00,0.00,29.62,M,3.00,M,OVC,M,M,M,500.00,M,M,M,-RA BR,KBLM 010809Z AUTO 35012KT 3SM -RA BR OVC005 04/03 A2962 RMK AO2 P0000
BLM,2017-04-01 08:10,-74.1300,40.1800,M,M,M,350.00,12.00,M,29.62,M,3.00,M,OVC,M,M,M,499.00,M,M,M,-RA BR,KBLM 010810Z AUTO 35012KT 3SM -RA BR OVC004 A2962 RMK MADISHF
BLM,2017-04-01 08:15,-74.1300,40.1800,M,M,M,350.00,10.00,M,29.62,M,3.00,M,OVC,M,M,M,499.00,M,M,M,-RA BR,KBLM 010815Z AUTO 35010KT 3SM -RA BR OVC004 A2962 RMK MADISHF
BLM,2017-04-01 08:20,-74.1300,40.1800,M,M,M,350.00,11.00,M,29.62,M,3.00,M,OVC,M,M,M,499.00,M,M,M,-RA BR,KBLM 010820Z AUTO 35011KT 3SM -RA BR OVC004 A2962 RMK MADISHF
BLM,2017-04-01 08:25,-74.1300,40.1800,M,M,M,350.00,12.00,M,29.63,M,3.00,M,OVC,M,M,M,499.00,M,M,M,-RA BR,KBLM 010825Z AUTO 35012KT 3SM -RA BR OVC004 A2963 RMK MADISHF
BLM,2017-04-01 08:30,-74.1300,40.1800,M,M,M,340.00,14.00,M,29.63,M,3.50,M,OVC,M,M,M,499.00,M,M,M,-RA BR,KBLM 010830Z AUTO 34014KT 3SM -RA BR OVC004 A2963 RMK MADISHF
BLM,2017-04-01 08:35,-74.1300,40.1800,M,M,M,350.00,12.00,M,29.63,M,4.00,M,OVC,M,M,M,499.00,M,M,M,-RA BR,KBLM 010835Z AUTO 35012KT 4SM -RA BR OVC004 A2963 RMK MADISHF
BLM,2017-04-01 08:40,-74.1300,40.1800,M,M,M,340.00,12.00,M,29.63,M,4.00,M,OVC,M,M,M,499.00,M,M,M,-RA BR,KBLM 010840Z AUTO 34012KT 4SM -RA BR OVC004 A2963 RMK MADISHF
BLM,2017-04-01 08:45,-74.1300,40.1800,M,M,M,340.00,11.00,M,29.63,M,3.50,M,OVC,M,M,M,499.00,M,M,M,-RA BR,KBLM 010845Z AUTO 34011KT 3SM -RA BR OVC004 A2963 RMK MADISHF
BLM,2017-04-01 08:50,-74.1300,40.1800,M,M,M,350.00,12.00,M,29.64,M,3.50,M,OVC,M,M,M,499.00,M,M,M,-RA BR,KBLM 010850Z AUTO 35012KT 3SM -RA BR OVC004 A2964 RMK MADISHF
BLM,2017-04-01 08:55,-74.1300,40.1800,M,M,M,350.00,13.00,M,29.64,M,3.50,M,OVC,M,M,M,499.00,M,M,M,-RA BR,KBLM 010855Z AUTO 35013KT 3SM -RA BR OVC004 A2964 RMK MADISHF
BLM,2017-04-01 08:56,-74.1300,40.1800,37.90,37.00,96.52,340.00,14.00,0.00,29.64,1004.10,3.00,18.00,OVC,M,M,M,500.00,M,M,M,-RA BR,KBLM 010856Z AUTO 34014G18KT 3SM -RA BR OVC005 03/03 A2964 RMK AO2 SLP041 P0000 60002 T00330028 53007
BLM,2017-04-01 09:00,-74.1300,40.1800,M,M,M,350.00,14.00,M,29.64,M,3.50,M,OVC,M,M,M,499.00,M,M,M,-RA BR,KBLM 010900Z AUTO 35014KT 3SM -RA BR OVC004 A2964 RMK MADISHF
BLM,2017-04-01 09:05,-74.1300,40.1800,M,M,M,350.00,15.00,M,29.64,M,4.00,M,OVC,M,M,M,499.00,M,M,M,-RA BR,KBLM 010905Z AUTO 35015KT 4SM -RA BR OVC004 A2964 RMK MADISHF
BLM,2017-04-01 09:10,-74.1300,40.1800,M,M,M,M,M,M,29.64,M,4.00,M,OVC,M,M,M,499.00,M,M,M,-RA BR,KBLM 010910Z AUTO /////KT 4SM -RA BR OVC004 A2964 RMK MADISHF
BLM,2017-04-01 09:15,-74.1300,40.1800,M,M,M,350.00,15.00,M,29.64,M,4.00,M,OVC,M,M,M,499.00,M,M,M,BR,KBLM 010915Z AUTO 35015KT 4SM BR OVC004 A2964 RMK MADISHF
BLM,2017-04-01 09:20,-74.1300,40.1800,M,M,M,350.00,13.00,M,29.65,M,4.00,M,OVC,M,M,M,499.00,M,M,M,BR,KBLM 010920Z AUTO 35013KT 4SM BR OVC004 A2965 RMK MADISHF
BLM,2017-04-01 09:25,-74.1300,40.1800,M,M,M,350.00,17.00,M,29.65,M,4.00,M,OVC,M,M,M,499.00,M,M,M,BR,KBLM 010925Z AUTO 35017KT 4SM BR OVC004 A2965 RMK MADISHF
BLM,2017-04-01 09:30,-74.1300,40.1800,M,M,M,350.00,14.00,M,29.65,M,4.00,M,OVC,M,M,M,499.00,M,M,M,BR,KBLM 010930Z AUTO 35014KT 4SM BR OVC004 A2965 RMK MADISHF
BLM,2017-04-01 09:35,-74.1300,40.1800,M,M,M,350.00,13.00,M,29.65,M,4.00,M,OVC,M,M,M,499.00,M,M,M,BR,KBLM 010935Z AUTO 35013KT 4SM BR OVC004 A2965 RMK MADISHF
BLM,2017-04-01 09:40,-74.1300,40.1800,M,M,M,350.00,11.00,M,29.66,M,4.00,M,OVC,M,M,M,499.00,M,M,M,BR,KBLM 010940Z AUTO 35011KT 4SM BR OVC004 A2966 RMK MADISHF
BLM,2017-04-01 09:45,-74.1300,40.1800,M,M,M,350.00,15.00,M,29.66,M,4.00,M,OVC,M,M,M,499.00,M,M,M,BR,KBLM 010945Z AUTO 35015KT 4SM BR OVC004 A2966 RMK MADISHF
BLM,2017-04-01 09:50,-74.1300,40.1800,M,M,M,340.00,15.00,M,29.67,M,4.00,20.00,OVC,M,M,M,499.00,M,M,M,BR,KBLM 010950Z AUTO 34015G20KT 4SM BR OVC004 A2967 RMK MADISHF
BLM,2017-04-01 09:55,-74.1300,40.1800,M,M,M,340.00,12.00,M,29.67,M,4.00,M,OVC,M,M,M,499.00,M,M,M,-RA BR,KBLM 010955Z AUTO 34012KT 4SM -RA BR OVC004 A2967 RMK MADISHF
BLM,2017-04-01 09:56,-74.1300,40.1800,37.90,36.00,92.78,350.00,13.00,0.00,29.67,1005.20,4.00,20.00,OVC,M,M,M,500.00,M,M,M,-RA BR,KBLM 010956Z AUTO 35013G20KT 4SM -RA BR OVC005 03/02 A2967 RMK AO2 RAE11B51 SLP052 P0000 T00330022
BLM,2017-04-01 10:00,-74.1300,40.1800,M,M,M,M,M,M,29.67,M,4.00,M,OVC,M,M,M,499.00,M,M,M,-RA BR,KBLM 011000Z AUTO /////KT 4SM -RA BR OVC004 A2967 RMK MADISHF
BLM,2017-04-01 10:05,-74.1300,40.1800,M,M,M,340.00,11.00,M,29.68,M,5.00,M,OVC,M,M,M,499.00,M,M,M,-RA BR,KBLM 011005Z AUTO 34011KT 5SM -RA BR OVC004 A2968 RMK CIG 5V9  MADISHF
BLM,2017-04-01 10:10,-74.1300,40.1800,M,M,M,340.00,12.00,M,29.68,M,5.00,M,OVC,M,M,M,499.00,M,M,M,-RA BR,KBLM 011010Z AUTO 34012KT 5SM -RA BR OVC004 A2968 RMK CIG 5V9  MADISHF
BLM,2017-04-01 10:15,-74.1300,40.1800,M,M,M,340.00,12.00,M,29.68,M,5.00,M,OVC,M,M,M,499.00,M,M,M,BR,KBLM 011015Z AUTO 34012KT 5SM BR OVC004 A2968 RMK MADISHF
BLM,2017-04-01 10:20,-74.1300,40.1800,M,M,M,M,M,M,29.68,M,4.00,M,OVC,M,M,M,499.00,M,M,M,BR,KBLM 011020Z AUTO /////KT 4SM BR OVC004 A2968 RMK MADISHF
BLM,2017-04-01 10:25,-74.1300,40.1800,M,M,M,330.00,11.00,M,29.68,M,4.00,M,OVC,M,M,M,499.00,M,M,M,BR,KBLM 011025Z AUTO 33011KT 4SM BR OVC004 A2968 RMK MADISHF
BLM,2017-04-01 10:30,-74.1300,40.1800,M,M,M,330.00,11.00,M,29.69,M,4.00,M,OVC,M,M,M,499.00,M,M,M,BR,KBLM 011030Z AUTO 33011KT 4SM BR OVC004 A2969 RMK MADISHF
BLM,2017-04-01 10:35,-74.1300,40.1800,M,M,M,M,M,M,29.69,M,4.00,M,OVC,M,M,M,499.00,M,M,M,BR,KBLM 011035Z AUTO /////KT 4SM BR OVC004 A2969 RMK MADISHF
BLM,2017-04-01 10:40,-74.1300,40.1800,M,M,M,320.00,13.00,M,29.70,M,4.00,18.00,OVC,M,M,M,499.00,M,M,M,BR,KBLM 011040Z AUTO 32013G18KT 4SM BR OVC004 A2970 RMK MADISHF
BLM,2017-04-01 10:45,-74.1300,40.1800,M,M,M,330.00,12.00,M,29.70,M,4.00,M,OVC,M,M,M,499.00,M,M,M,BR,KBLM 011045Z AUTO 33012KT 4SM BR OVC004 A2970 RMK MADISHF
BLM,2017-04-01 10:50,-74.1300,40.1800,M,M,M,330.00,11.00,M,29.70,M,2.50,M,OVC,M,M,M,499.00,M,M,M,BR,KBLM 011050Z AUTO 33011KT 2 1/2SM BR OVC004 A2970 RMK MADISHF
BLM,2017-04-01 10:55,-74.1300,40.1800,M,M,M,M,M,M,29.70,M,2.50,M,OVC,M,M,M,499.00,M,M,M,BR,KBLM 011055Z AUTO /////KT 2 1/2SM BR OVC004 A2970 RMK MADISHF
BLM,2017-04-01 10:56,-74.1300,40.1800,37.00,36.00,96.13,340.00,12.00,0.00,29.70,1006.40,2.50,19.00,OVC,M,M,M,500.00,M,M,M,BR,KBLM 011056Z AUTO 34012G19KT 2 1/2SM BR OVC005 03/02 A2970 RMK AO2 RAE13 SLP064 P0000 T00280022
BLM,2017-04-01 11:00,-74.1300,40.1800,M,M,M,M,M,M,29.71,M,2.50,M,OVC,M,M,M,499.00,M,M,M,BR,KBLM 011100Z AUTO /////KT 2 1/2SM BR OVC004 A2971 RMK MADISHF
BLM,2017-04-01 11:05,-74.1300,40.1800,M,M,M,320.00,13.00,M,29.71,M,2.50,M,OVC,M,M,M,499.00,M,M,M,BR,KBLM 011105Z AUTO 32013KT 2 1/2SM BR OVC004 A2971 RMK MADISHF
BLM,2017-04-01 11:10,-74.1300,40.1800,M,M,M,M,M,M,29.71,M,2.50,M,OVC,M,M,M,499.00,M,M,M,BR,KBLM 011110Z AUTO /////KT 2 1/2SM BR OVC004 A2971 RMK CIG 5V8  MADISHF
BLM,2017-04-01 11:15,-74.1300,40.1800,M,M,M,320.00,12.00,M,29.72,M,3.00,M,OVC,M,M,M,499.00,M,M,M,BR,KBLM 011115Z AUTO 32012KT 3SM BR OVC004 A2972 RMK MADISHF
BLM,2017-04-01 11:17,-74.1300,40.1800,37.40,35.60,93.14,330.00,13.00,0.00,29.71,M,3.00,M,OVC,M,M,M,500.00,M,M,M,BR,KBLM 011117Z AUTO 33013KT 3SM BR OVC005 03/02 A2971 RMK AO2
BLM,2017-04-01 11:20,-74.1300,40.1800,M,M,M,320.00,12.00,M,29.72,M,3.00,18.00,OVC,M,M,M,499.00,M,M,M,BR,KBLM 011120Z AUTO 32012G18KT 3SM BR OVC004 A2972 RMK MADISHF
BLM,2017-04-01 11:25,-74.1300,40.1800,M,M,M,330.00,12.00,M,29.72,M,3.00,M,OVC,M,M,M,499.00,M,M,M,BR,KBLM 011125Z AUTO 33012KT 3SM BR OVC004 A2972 RMK MADISHF
BLM,2017-04-01 11:30,-74.1300,40.1800,M,M,M,330.00,13.00,M,29.72,M,3.00,M,OVC,M,M,M,499.00,M,M,M,BR,KBLM 011130Z AUTO 33013KT 3SM BR OVC004 A2972 RMK MADISHF
BLM,2017-04-01 11:35,-74.1300,40.1800,M,M,M,330.00,13.00,M,29.72,M,3.50,M,OVC,M,M,M,499.00,M,M,M,BR,KBLM 011135Z AUTO 33013KT 3SM BR OVC004 A2972 RMK MADISHF
BLM,2017-04-01 11:40,-74.1300,40.1800,M,M,M,M,M,M,29.73,M,3.50,M,OVC,M,M,M,499.00,M,M,M,BR,KBLM 011140Z AUTO /////KT 3SM BR OVC004 A2973 RMK MADISHF
BLM,2017-04-01 11:45,-74.1300,40.1800,M,M,M,330.00,11.00,M,29.73,M,3.00,M,OVC,M,M,M,499.00,M,M,M,BR,KBLM 011145Z AUTO 33011KT 3SM BR OVC004 A2973 RMK MADISHF
BLM,2017-04-01 11:50,-74.1300,40.1800,M,M,M,M,M,M,29.73,M,3.00,M,OVC,M,M,M,499.00,M,M,M,BR,KBLM 011150Z AUTO /////KT 3SM BR OVC004 A2973 RMK MADISHF
BLM,2017-04-01 11:55,-74.1300,40.1800,M,M,M,320.00,12.00,M,29.74,M,3.00,M,OVC,M,M,M,499.00,M,M,M,BR,KBLM 011155Z AUTO 32012KT 3SM BR OVC004 A2974 RMK MADISHF
BLM,2017-04-01 11:56,-74.1300,40.1800,37.00,36.00,96.13,320.00,12.00,0.00,29.74,1007.50,3.00,19.00,OVC,M,M,M,500.00,M,M,M,BR,KBLM 011156Z AUTO 32012G19KT 3SM BR OVC005 03/02 A2974 RMK AO2 SLP075 60002 70266 T00280022 10044 20028 51034
BLM,2017-04-01 12:00,-74.1300,40.1800,M,M,M,M,M,M,29.74,M,3.00,M,OVC,M,M,M,499.00,M,M,M,BR,KBLM 011200Z AUTO /////KT 3SM BR OVC004 A2974 RMK MADISHF
BLM,2017-04-01 12:05,-74.1300,40.1800,M,M,M,330.00,12.00,M,29.74,M,3.00,M,OVC,M,M,M,499.00,M,M,M,BR,KBLM 011205Z AUTO 33012KT 3SM BR OVC004 A2974 RMK MADISHF
BLM,2017-04-01 12:10,-74.1300,40.1800,M,M,M,330.00,13.00,M,29.74,M,2.50,M,OVC,M,M,M,499.00,M,M,M,BR,KBLM 011210Z AUTO 33013KT 2 1/2SM BR OVC004 A2974 RMK MADISHF
BLM,2017-04-01 12:12,-74.1300,40.1800,37.40,35.60,93.14,330.00,13.00,0.00,29.74,M,2.50,M,OVC,M,M,M,500.00,M,M,M,BR,KBLM 011212Z AUTO 33013KT 2 1/2SM BR OVC005 03/02 A2974 RMK AO2
BLM,2017-04-01 12:15,-74.1300,40.1800,M,M,M,M,M,M,29.74,M,3.00,20.00,OVC,M,M,M,499.00,M,M,M,BR,KBLM 011215Z AUTO /////G20KT 3SM BR OVC004 A2974 RMK MADISHF
BLM,2017-04-01 12:20,-74.1300,40.1800,37.40,35.60,93.14,330.00,14.00,0.00,29.75,M,3.00,20.00,OVC,M,M,M,700.00,M,M,M,BR,KBLM 011220Z AUTO 33014G20KT 3SM BR OVC007 03/02 A2975 RMK AO2
BLM,2017-04-01 12:25,-74.1300,40.1800,M,M,M,330.00,13.00,M,29.75,M,3.00,M,OVC,M,M,M,700.00,M,M,M,BR,KBLM 011225Z AUTO 33013KT 3SM BR OVC007 A2975 RMK MADISHF
BLM,2017-04-01 12:30,-74.1300,40.1800,M,M,M,320.00,12.00,M,29.75,M,3.00,M,OVC,M,M,M,700.00,M,M,M,BR,KBLM 011230Z AUTO 32012KT 3SM BR OVC007 A2975 RMK MADISHF
BLM,2017-04-01 12:35,-74.1300,40.1800,M,M,M,330.00,12.00,M,29.76,M,3.00,M,OVC,M,M,M,700.00,M,M,M,BR,KBLM 011235Z AUTO 33012KT 3SM BR OVC007 A2976 RMK MADISHF
BLM,2017-04-01 12:40,-74.1300,40.1800,M,M,M,330.00,11.00,M,29.76,M,2.50,17.00,OVC,M,M,M,700.00,M,M,M,BR,KBLM 011240Z AUTO 33011G17KT 2 1/2SM BR OVC007 A2976 RMK MADISHF
BLM,2017-04-01 12:45,-74.1300,40.1800,M,M,M,M,M,M,29.76,M,2.50,M,OVC,M,M,M,700.00,M,M,M,BR,KBLM 011245Z AUTO /////KT 2 1/2SM BR OVC007 A2976 RMK MADISHF
BLM,2017-04-01 12:46,-74.1300,40.1800,37.40,35.60,93.14,320.00,13.00,0.00,29.76,M,2.50,M,OVC,M,M,M,700.00,M,M,M,BR,KBLM 011246Z AUTO 32013KT 2 1/2SM BR OVC007 03/02 A2976 RMK AO2
BLM,2017-04-01 12:50,-74.1300,40.1800,M,M,M,330.00,11.00,M,29.76,M,3.00,M,OVC,M,M,M,700.00,M,M,M,BR,KBLM 011250Z AUTO 33011KT 3SM BR OVC007 A2976 RMK MADISHF
BLM,2017-04-01 12:55,-74.1300,40.1800,M,M,M,330.00,12.00,M,29.76,M,4.00,M,OVC,M,M,M,700.00,M,M,M,BR,KBLM 011255Z AUTO 33012KT 4SM BR OVC007 A2976 RMK CIG 5V9  MADISHF
BLM,2017-04-01 12:56,-74.1300,40.1800,37.90,36.00,92.78,330.00,12.00,0.00,29.76,1008.30,4.00,20.00,OVC,M,M,M,700.00,M,M,M,BR,KBLM 011256Z AUTO 33012G20KT 4SM BR OVC007 03/02 A2976 RMK AO2 CIG 005V009 SLP083 T00330022
BLM,2017-04-01 13:00,-74.1300,40.1800,M,M,M,330.00,13.00,M,29.76,M,5.00,M,OVC,M,M,M,700.00,M,M,M,BR,KBLM 011300Z AUTO 33013KT 5SM BR OVC007 A2976 RMK CIG 5V9  MADISHF
BLM,2017-04-01 13:05,-74.1300,40.1800,M,M,M,M,M,M,29.76,M,7.00,M,OVC,M,M,M,700.00,M,M,M,M,KBLM 011305Z AUTO /////KT 7SM OVC007 A2976 RMK MADISHF
BLM,2017-04-01 13:10,-74.1300,40.1800,M,M,M,340.00,14.00,M,29.77,M,10.00,M,OVC,M,M,M,700.00,M,M,M,M,KBLM 011310Z AUTO 34014KT 10SM OVC007 A2977 RMK MADISHF
BLM,2017-04-01 13:15,-74.1300,40.1800,M,M,M,330.00,11.00,M,29.77,M,9.00,M,OVC,M,M,M,700.00,M,M,M,M,KBLM 011315Z AUTO 33011KT 9SM OVC007 A2977 RMK CIG 5V11  MADISHF
BLM,2017-04-01 13:20,-74.1300,40.1800,M,M,M,320.00,11.00,M,29.77,M,7.00,M,OVC,M,M,M,700.00,M,M,M,M,KBLM 011320Z AUTO 32011KT 7SM OVC007 A2977 RMK CIG 5V10  MADISHF
BLM,2017-04-01 13:25,-74.1300,40.1800,M,M,M,320.00,11.00,M,29.78,M,7.00,M,OVC,M,M,M,700.00,M,M,M,M,KBLM 011325Z AUTO 32011KT 7SM OVC007 A2978 RMK CIG 5V11  MADISHF
BLM,2017-04-01 13:30,-74.1300,40.1800,M,M,M,M,M,M,29.78,M,9.00,M,OVC,M,M,M,700.00,M,M,M,M,KBLM 011330Z AUTO /////KT 9SM OVC007 A2978 RMK CIG 6V10  MADISHF
BLM,2017-04-01 13:35,-74.1300,40.1800,M,M,M,320.00,12.00,M,29.78,M,9.00,M,OVC,M,M,M,700.00,M,M,M,M,KBLM 011335Z AUTO 32012KT 9SM OVC007 A2978 RMK CIG 6V11  MADISHF
BLM,2017-04-01 13:40,-74.1300,40.1800,M,M,M,320.00,11.00,M,29.78,M,10.00,M,OVC,M,M,M,900.00,M,M,M,M,KBLM 011340Z AUTO 32011KT 10SM OVC009 A2978 RMK CIG 6V12  MADISHF
BLM,2017-04-01 13:45,-74.1300,40.1800,M,M,M,320.00,12.00,M,29.78,M,10.00,M,OVC,M,M,M,900.00,M,M,M,M,KBLM 011345Z AUTO 32012KT 10SM OVC009 A2978 RMK CIG 7V12  MADISHF
BLM,2017-04-01 13:50,-74.1300,40.1800,M,M,M,320.00,12.00,M,29.78,M,10.00,M,OVC,M,M,M,900.00,M,M,M,M,KBLM 011350Z AUTO 32012KT 10SM OVC009 A2978 RMK CIG 7V11  MADISHF
BLM,2017-04-01 13:55,-74.1300,40.1800,M,M,M,320.00,12.00,M,29.78,M,10.00,M,OVC,M,M,M,900.00,M,M,M,M,KBLM 011355Z AUTO 32012KT 10SM OVC009 A2978 RMK CIG 7V13  MADISHF
BLM,2017-04-01 13:56,-74.1300,40.1800,39.00,36.00,88.87,320.00,12.00,0.00,29.78,1009.10,10.00,M,OVC,M,M,M,900.00,M,M,M,M,KBLM 011356Z AUTO 32012KT 10SM OVC009 04/02 A2978 RMK AO2 CIG 007V013 SLP091 T00390022
BLM,2017-04-01 14:00,-74.1300,40.1800,M,M,M,M,M,M,29.78,M,10.00,M,OVC,M,M,M,1100.00,M,M,M,M,KBLM 011400Z AUTO /////KT 10SM OVC011 A2978 RMK CIG 8V13  MADISHF
BLM,2017-04-01 14:03,-74.1300,40.1800,39.20,35.60,86.79,330.00,13.00,0.00,29.78,M,10.00,M,OVC,M,M,M,1100.00,M,M,M,M,KBLM 011403Z AUTO 33013KT 10SM OVC011 04/02 A2978 RMK AO2 CIG 008V013
BLM,2017-04-01 14:05,-74.1300,40.1800,M,M,M,330.00,12.00,M,29.78,M,10.00,M,OVC,M,M,M,1100.00,M,M,M,M,KBLM 011405Z AUTO 33012KT 10SM OVC011 A2978 RMK CIG 8V13  MADISHF
BLM,2017-04-01 14:10,-74.1300,40.1800,M,M,M,340.00,14.00,M,29.78,M,10.00,M,OVC,M,M,M,1100.00,M,M,M,M,KBLM 011410Z AUTO 34014KT 10SM OVC011 A2978 RMK MADISHF
BLM,2017-04-01 14:15,-74.1300,40.1800,M,M,M,330.00,10.00,M,29.78,M,10.00,M,OVC,M,M,M,1100.00,M,M,M,M,KBLM 011415Z AUTO 33010KT 10SM OVC011 A2978 RMK MADISHF
BLM,2017-04-01 14:20,-74.1300,40.1800,M,M,M,340.00,12.00,M,29.78,M,10.00,M,OVC,M,M,M,1100.00,M,M,M,M,KBLM 011420Z AUTO 34012KT 10SM OVC011 A2978 RMK MADISHF
BLM,2017-04-01 14:25,-74.1300,40.1800,M,M,M,330.00,11.00,M,29.79,M,10.00,M,OVC,M,M,M,1100.00,M,M,M,M,KBLM 011425Z AUTO 33011KT 10SM OVC011 A2979 RMK MADISHF
BLM,2017-04-01 14:30,-74.1300,40.1800,M,M,M,330.00,12.00,M,29.79,M,10.00,M,OVC,M,M,M,1300.00,M,M,M,M,KBLM 011430Z AUTO 33012KT 10SM OVC013 A2979 RMK MADISHF
BLM,2017-04-01 14:35,-74.1300,40.1800,M,M,M,340.00,10.00,M,29.80,M,10.00,M,OVC,M,M,M,1300.00,M,M,M,M,KBLM 011435Z AUTO 34010KT 10SM OVC013 A2980 RMK MADISHF
BLM,2017-04-01 14:40,-74.1300,40.1800,M,M,M,330.00,11.00,M,29.80,M,10.00,M,OVC,M,M,M,1300.00,M,M,M,M,KBLM 011440Z AUTO 33011KT 10SM OVC013 A2980 RMK MADISHF
BLM,2017-04-01 14:45,-74.1300,40.1800,M,M,M,M,M,M,29.80,M,10.00,M,OVC,M,M,M,1300.00,M,M,M,M,KBLM 011445Z AUTO /////KT 10SM OVC013 A2980 RMK MADISHF
BLM,2017-04-01 14:50,-74.1300,40.1800,M,M,M,M,M,M,29.80,M,10.00,M,OVC,M,M,M,1300.00,M,M,M,M,KBLM 011450Z AUTO /////KT 10SM OVC013 A2980 RMK MADISHF
BLM,2017-04-01 14:55,-74.1300,40.1800,M,M,M,M,M,M,29.80,M,10.00,M,OVC,M,M,M,1300.00,M,M,M,M,KBLM 011455Z AUTO /////KT 10SM OVC013 A2980 RMK MADISHF
BLM,2017-04-01 14:56,-74.1300,40.1800,41.00,35.10,79.34,330.00,16.00,0.00,29.80,1009.70,10.00,21.00,OVC,M,M,M,1300.00,M,M,M,M,KBLM 011456Z AUTO 33016G21KT 10SM OVC013 05/02 A2980 RMK AO2 SLP097 T00500017 53015
BLM,2017-04-01 15:00,-74.1300,40.1800,M,M,M,330.00,10.00,M,29.80,M,10.00,M,OVC,M,M,M,1300.00,M,M,M,M,KBLM 011500Z AUTO 33010KT 10SM OVC013 A2980 RMK MADISHF
BLM,2017-04-01 15:05,-74.1300,40.1800,M,M,M,M,M,M,29.81,M,10.00,M,OVC,M,M,M,1300.00,M,M,M,M,KBLM 011505Z AUTO /////KT 10SM OVC013 A2981 RMK MADISHF
BLM,2017-04-01 15:10,-74.1300,40.1800,M,M,M,330.00,12.00,M,29.81,M,10.00,M,OVC,M,M,M,1500.00,M,M,M,M,KBLM 011510Z AUTO 33012KT 10SM OVC015 A2981 RMK MADISHF
BLM,2017-04-01 15:14,-74.1300,40.1800,41.00,35.60,80.93,320.00,14.00,0.00,29.81,M,10.00,20.00,OVC,M,M,M,1500.00,M,M,M,M,KBLM 011514Z AUTO 32014G20KT 10SM OVC015 05/02 A2981 RMK AO2
BLM,2017-04-01 15:15,-74.1300,40.1800,M,M,M,M,M,M,29.81,M,10.00,M,OVC,M,M,M,1500.00,M,M,M,M,KBLM 011515Z AUTO /////KT 10SM OVC015 A2981 RMK MADISHF
BLM,2017-04-01 15:20,-74.1300,40.1800,M,M,M,M,M,M,29.81,M,10.00,19.00,OVC,M,M,M,1500.00,M,M,M,M,KBLM 011520Z AUTO /////G19KT 10SM OVC015 A2981 RMK MADISHF
BLM,2017-04-01 15:25,-74.1300,40.1800,M,M,M,M,M,M,29.81,M,10.00,M,OVC,M,M,M,1500.00,M,M,M,M,KBLM 011525Z AUTO /////KT 10SM OVC015 A2981 RMK MADISHF
BLM,2017-04-01 15:30,-74.1300,40.1800,M,M,M,M,M,M,29.81,M,10.00,M,OVC,M,M,M,1500.00,M,M,M,M,KBLM 011530Z AUTO /////KT 10SM OVC015 A2981 RMK MADISHF
BLM,2017-04-01 15:35,-74.1300,40.1800,M,M,M,M,M,M,29.81,M,10.00,M,OVC,M,M,M,1500.00,M,M,M,M,KBLM 011535Z AUTO /////KT 10SM OVC015 A2981 RMK MADISHF
BLM,2017-04-01 15:40,-74.1300,40.1800,M,M,M,330.00,14.00,M,29.82,M,10.00,M,OVC,M,M,M,1500.00,M,M,M,M,KBLM 011540Z AUTO 33014KT 10SM OVC015 A2982 RMK MADISHF
BLM,2017-04-01 15:45,-74.1300,40.1800,M,M,M,M,M,M,29.81,M,10.00,M,OVC,M,M,M,1500.00,M,M,M,M,KBLM 011545Z AUTO /////KT 10SM OVC015 A2981 RMK MADISHF
BLM,2017-04-01 15:50,-74.1300,40.1800,M,M,M,320.00,12.00,M,29.82,M,10.00,M,OVC,M,M,M,1500.00,M,M,M,M,KBLM 011550Z AUTO 32012KT 10SM OVC015 A2982 RMK MADISHF
BLM,2017-04-01 15:55,-74.1300,40.1800,M,M,M,M,M,M,29.82,M,10.00,M,OVC,M,M,M,1699.00,M,M,M,M,KBLM 011555Z AUTO /////KT 10SM OVC016 A2982 RMK MADISHF
BLM,2017-04-01 15:56,-74.1300,40.1800,43.00,36.00,76.12,320.00,14.00,0.00,29.82,1010.40,10.00,M,OVC,M,M,M,1700.00,M,M,M,M,KBLM 011556Z AUTO 32014KT 10SM OVC017 06/02 A2982 RMK AO2 SLP104 T00610022
BLM,2017-04-01 16:00,-74.1300,40.1800,M,M,M,M,M,M,29.82,M,10.00,M,OVC,M,M,M,1699.00,M,M,M,M,KBLM 011600Z AUTO /////KT 10SM OVC016 A2982 RMK MADISHF
BLM,2017-04-01 16:05,-74.1300,40.1800,M,M,M,M,M,M,29.82,M,10.00,M,OVC,M,M,M,1699.00,M,M,M,M,KBLM 011605Z AUTO /////KT 10SM OVC016 A2982 RMK MADISHF
BLM,2017-04-01 16:10,-74.1300,40.1800,M,M,M,M,M,M,29.82,M,10.00,M,OVC,M,M,M,1699.00,M,M,M,M,KBLM 011610Z AUTO /////KT 10SM OVC016 A2982 RMK MADISHF
BLM,2017-04-01 16:15,-74.1300,40.1800,M,M,M,M,M,M,29.82,M,10.00,M,OVC,M,M,M,1699.00,M,M,M,M,KBLM 011615Z AUTO /////KT 10SM OVC016 A2982 RMK MADISHF
BLM,2017-04-01 16:20,-74.1300,40.1800,M,M,M,M,M,M,29.82,M,10.00,M,OVC,M,M,M,1699.00,M,M,M,M,KBLM 011620Z AUTO /////KT 10SM OVC016 A2982 RMK MADISHF
BLM,2017-04-01 16:25,-74.1300,40.1800,M,M,M,M,M,M,29.82,M,10.00,M,OVC,M,M,M,1900.00,M,M,M,M,KBLM 011625Z AUTO /////KT 10SM OVC019 A2982 RMK MADISHF
BLM,2017-04-01 16:30,-74.1300,40.1800,M,M,M,M,M,M,29.82,M,10.00,M,OVC,M,M,M,1900.00,M,M,M,M,KBLM 011630Z AUTO /////KT 10SM OVC019 A2982 RMK MADISHF
BLM,2017-04-01 16:35,-74.1300,40.1800,M,M,M,320.00,11.00,M,29.82,M,10.00,M,OVC,M,M,M,1900.00,M,M,M,M,KBLM 011635Z AUTO 32011KT 10SM OVC019 A2982 RMK MADISHF
BLM,2017-04-01 16:40,-74.1300,40.1800,M,M,M,M,M,M,29.82,M,10.00,M,OVC,M,M,M,1900.00,M,M,M,M,KBLM 011640Z AUTO /////KT 10SM OVC019 A2982 RMK MADISHF
BLM,2017-04-01 16:45,-74.1300,40.1800,M,M,M,M,M,M,29.82,M,10.00,M,OVC,M,M,M,1900.00,M,M,M,M,KBLM 011645Z AUTO /////KT 10SM OVC019 A2982 RMK MADISHF
BLM,2017-04-01 16:50,-74.1300,40.1800,M,M,M,M,M,M,29.81,M,10.00,M,OVC,M,M,M,1900.00,M,M,M,M,KBLM 011650Z AUTO /////KT 10SM OVC019 A2981 RMK MADISHF
BLM,2017-04-01 16:55,-74.1300,40.1800,M,M,M,M,M,M,29.81,M,10.00,M,OVC,M,M,M,2100.00,M,M,M,M,KBLM 011655Z AUTO /////KT 10SM OVC021 A2981 RMK MADISHF
BLM,2017-04-01 16:56,-74.1300,40.1800,45.00,36.00,70.53,340.00,15.00,0.00,29.81,1010.00,10.00,21.00,OVC,M,M,M,2100.00,M,M,M,M,KBLM 011656Z AUTO 34015G21KT 10SM OVC021 07/02 A2981 RMK AO2 SLP100 T00720022
BLM,2017-04-01 17:00,-74.1300,40.1800,M,M,M,M,M,M,29.81,M,10.00,M,OVC,M,M,M,2100.00,M,M,M,M,KBLM 011700Z AUTO /////KT 10SM OVC021 A2981 RMK MADISHF
BLM,2017-04-01 17:05,-74.1300,40.1800,M,M,M,M,M,M,29.82,M,10.00,M,OVC,M,M,M,2100.00,M,M,M,M,KBLM 011705Z AUTO /////KT 10SM OVC021 A2982 RMK MADISHF
BLM,2017-04-01 17:10,-74.1300,40.1800,M,M,M,M,M,M,29.82,M,10.00,M,OVC,M,M,M,2100.00,M,M,M,M,KBLM 011710Z AUTO /////KT 10SM OVC021 A2982 RMK MADISHF
BLM,2017-04-01 17:15,-74.1300,40.1800,M,M,M,M,M,M,29.82,M,10.00,M,OVC,M,M,M,2100.00,M,M,M,M,KBLM 011715Z AUTO /////KT 10SM OVC021 A2982 RMK MADISHF
BLM,2017-04-01 17:20,-74.1300,40.1800,M,M,M,M,M,M,29.83,M,10.00,M,OVC,M,M,M,2100.00,M,M,M,M,KBLM 011720Z AUTO /////KT 10SM OVC021 A2983 RMK MADISHF
BLM,2017-04-01 17:25,-74.1300,40.1800,M,M,M,340.00,15.00,M,29.83,M,10.00,M,OVC,M,M,M,2100.00,M,M,M,M,KBLM 011725Z AUTO 34015KT 10SM OVC021 A2983 RMK MADISHF
BLM,2017-04-01 17:30,-74.1300,40.1800,M,M,M,330.00,14.00,M,29.83,M,10.00,M,OVC,M,M,M,2300.00,M,M,M,M,KBLM 011730Z AUTO 33014KT 10SM OVC023 A2983 RMK MADISHF
BLM,2017-04-01 17:35,-74.1300,40.1800,M,M,M,M,M,M,29.83,M,10.00,M,BKN,OVC,M,M,2300.00,3000.00,M,M,M,KBLM 011735Z AUTO /////KT 10SM BKN023 OVC030 A2983 RMK MADISHF
BLM,2017-04-01 17:40,-74.1300,40.1800,M,M,M,M,M,M,29.83,M,10.00,M,BKN,OVC,M,M,2300.00,3000.00,M,M,M,KBLM 011740Z AUTO /////KT 10SM BKN023 OVC030 A2983 RMK MADISHF
BLM,2017-04-01 17:45,-74.1300,40.1800,M,M,M,M,M,M,29.83,M,10.00,M,OVC,M,M,M,2500.00,M,M,M,M,KBLM 011745Z AUTO /////KT 10SM OVC025 A2983 RMK MADISHF
BLM,2017-04-01 17:50,-74.1300,40.1800,M,M,M,350.00,15.00,M,29.83,M,10.00,M,OVC,M,M,M,2500.00,M,M,M,M,KBLM 011750Z AUTO 35015KT 10SM OVC025 A2983 RMK MADISHF
BLM,2017-04-01 17:55,-74.1300,40.1800,M,M,M,350.00,13.00,M,29.83,M,10.00,18.00,OVC,M,M,M,2500.00,M,M,M,M,KBLM 011755Z AUTO 35013G18KT 10SM OVC025 A2983 RMK MADISHF
BLM,2017-04-01 17:56,-74.1300,40.1800,46.00,35.10,65.52,350.00,15.00,0.00,29.83,1010.70,10.00,M,OVC,M,M,M,2500.00,M,M,M,M,KBLM 011756Z AUTO 35015KT 10SM OVC025 08/02 A2983 RMK AO2 SLP107 T00780017 10083 20028 53010
BLM,2017-04-01 18:00,-74.1300,40.1800,M,M,M,340.00,13.00,M,29.83,M,10.00,M,OVC,M,M,M,2700.00,M,M,M,M,KBLM 011800Z AUTO 34013KT 10SM OVC027 A2983 RMK MADISHF
BLM,2017-04-01 18:05,-74.1300,40.1800,M,M,M,350.00,16.00,M,29.83,M,10.00,M,OVC,M,M,M,2700.00,M,M,M,M,KBLM 011805Z AUTO 35016KT 10SM OVC027 A2983 RMK MADISHF
BLM,2017-04-01 18:10,-74.1300,40.1800,M,M,M,M,M,M,29.83,M,10.00,M,OVC,M,M,M,2700.00,M,M,M,M,KBLM 011810Z AUTO /////KT 10SM OVC027 A2983 RMK MADISHF
BLM,2017-04-01 18:15,-74.1300,40.1800,M,M,M,M,M,M,29.84,M,10.00,M,OVC,M,M,M,2700.00,M,M,M,M,KBLM 011815Z AUTO /////KT 10SM OVC027 A2984 RMK MADISHF
BLM,2017-04-01 18:20,-74.1300,40.1800,M,M,M,M,M,M,29.84,M,10.00,M,OVC,M,M,M,2500.00,M,M,M,M,KBLM 011820Z AUTO /////KT 10SM OVC025 A2984 RMK MADISHF
BLM,2017-04-01 18:30,-74.1300,40.1800,M,M,M,340.00,14.00,M,29.85,M,10.00,20.00,OVC,M,M,M,2500.00,M,M,M,M,KBLM 011830Z AUTO 34014G20KT 10SM OVC025 A2985 RMK MADISHF
BLM,2017-04-01 18:35,-74.1300,40.1800,M,M,M,340.00,13.00,M,29.85,M,10.00,M,OVC,M,M,M,2500.00,M,M,M,M,KBLM 011835Z AUTO 34013KT 10SM OVC025 A2985 RMK MADISHF
BLM,2017-04-01 18:40,-74.1300,40.1800,M,M,M,330.00,13.00,M,29.85,M,10.00,M,OVC,M,M,M,2500.00,M,M,M,M,KBLM 011840Z AUTO 33013KT 10SM OVC025 A2985 RMK MADISHF
BLM,2017-04-01 18:45,-74.1300,40.1800,M,M,M,330.00,14.00,M,29.85,M,10.00,M,BKN,OVC,M,M,2700.00,3399.00,M,M,M,KBLM 011845Z AUTO 33014KT 10SM BKN027 OVC033 A2985 RMK MADISHF
BLM,2017-04-01 18:50,-74.1300,40.1800,M,M,M,340.00,16.00,M,29.85,M,10.00,M,BKN,OVC,M,M,2700.00,3399.00,M,M,M,KBLM 011850Z AUTO 34016KT 10SM BKN027 OVC033 A2985 RMK MADISHF
BLM,2017-04-01 18:55,-74.1300,40.1800,M,M,M,M,M,M,29.85,M,10.00,22.00,BKN,OVC,M,M,2700.00,3600.00,M,M,M,KBLM 011855Z AUTO /////G22KT 10SM BKN027 OVC036 A2985 RMK MADISHF
BLM,2017-04-01 18:56,-74.1300,40.1800,48.00,35.10,60.76,330.00,19.00,0.00,29.85,1011.40,10.00,22.00,BKN,OVC,M,M,2700.00,3600.00,M,M,M,KBLM 011856Z AUTO 33019G22KT 10SM BKN027 OVC036 09/02 A2985 RMK AO2 SLP114 T00890017
BLM,2017-04-01 19:00,-74.1300,40.1800,M,M,M,M,M,M,29.85,M,10.00,M,BKN,OVC,M,M,2700.00,3600.00,M,M,M,KBLM 011900Z AUTO /////KT 10SM BKN027 OVC036 A2985 RMK MADISHF
BLM,2017-04-01 19:05,-74.1300,40.1800,M,M,M,M,M,M,29.85,M,10.00,M,BKN,OVC,M,M,2900.00,3399.00,M,M,M,KBLM 011905Z AUTO /////KT 10SM BKN029 OVC033 A2985 RMK MADISHF
BLM,2017-04-01 19:13,-74.1300,40.1800,48.20,35.60,61.52,340.00,16.00,0.00,29.85,M,10.00,M,OVC,M,M,M,3200.00,M,M,M,M,KBLM 011913Z AUTO 34016KT 10SM OVC032 09/02 A2985 RMK AO2
BLM,2017-04-01 19:15,-74.1300,40.1800,M,M,M,M,M,M,29.85,M,10.00,M,OVC,M,M,M,3200.00,M,M,M,M,KBLM 011915Z AUTO /////KT 10SM OVC032 A2985 RMK MADISHF
BLM,2017-04-01 19:20,-74.1300,40.1800,M,M,M,340.00,14.00,M,29.85,M,10.00,M,OVC,M,M,M,3399.00,M,M,M,M,KBLM 011920Z AUTO 34014KT 10SM OVC033 A2985 RMK MADISHF
BLM,2017-04-01 19:25,-74.1300,40.1800,M,M,M,340.00,15.00,M,29.85,M,10.00,M,OVC,M,M,M,3399.00,M,M,M,M,KBLM 011925Z AUTO 34015KT 10SM OVC033 A2985 RMK MADISHF
BLM,2017-04-01 19:30,-74.1300,40.1800,M,M,M,350.00,15.00,M,29.85,M,10.00,M,OVC,M,M,M,3600.00,M,M,M,M,KBLM 011930Z AUTO 35015KT 10SM OVC036 A2985 RMK MADISHF
BLM,2017-04-01 19:35,-74.1300,40.1800,M,M,M,M,M,M,29.85,M,10.00,M,OVC,M,M,M,3600.00,M,M,M,M,KBLM 011935Z AUTO /////KT 10SM OVC036 A2985 RMK MADISHF
BLM,2017-04-01 19:40,-74.1300,40.1800,M,M,M,340.00,12.00,M,29.85,M,10.00,M,OVC,M,M,M,3600.00,M,M,M,M,KBLM 011940Z AUTO 34012KT 10SM OVC036 A2985 RMK MADISHF
BLM,2017-04-01 19:45,-74.1300,40.1800,M,M,M,330.00,13.00,M,29.86,M,10.00,M,OVC,M,M,M,3399.00,M,M,M,M,KBLM 011945Z AUTO 33013KT 10SM OVC033 A2986 RMK MADISHF
BLM,2017-04-01 19:50,-74.1300,40.1800,M,M,M,330.00,12.00,M,29.86,M,10.00,M,OVC,M,M,M,3399.00,M,M,M,M,KBLM 011950Z AUTO 33012KT 10SM OVC033 A2986 RMK MADISHF
BLM,2017-04-01 19:55,-74.1300,40.1800,M,M,M,330.00,12.00,M,29.86,M,10.00,17.00,OVC,M,M,M,3399.00,M,M,M,M,KBLM 011955Z AUTO 33012G17KT 10SM OVC033 A2986 RMK MADISHF
BLM,2017-04-01 19:56,-74.1300,40.1800,50.00,36.00,58.44,320.00,14.00,0.00,29.86,1011.70,10.00,17.00,OVC,M,M,M,3400.00,M,M,M,M,KBLM 011956Z AUTO 32014G17KT 10SM OVC034 10/02 A2986 RMK AO2 SLP117 T01000022
BLM,2017-04-01 20:00,-74.1300,40.1800,M,M,M,330.00,10.00,M,29.87,M,10.00,M,OVC,M,M,M,3399.00,M,M,M,M,KBLM 012000Z AUTO 33010KT 10SM OVC033 A2987 RMK MADISHF
BLM,2017-04-01 20:05,-74.1300,40.1800,M,M,M,340.00,14.00,M,29.87,M,10.00,M,OVC,M,M,M,3399.00,M,M,M,M,KBLM 012005Z AUTO 34014KT 10SM OVC033 A2987 RMK MADISHF
BLM,2017-04-01 20:10,-74.1300,40.1800,M,M,M,330.00,10.00,M,29.87,M,10.00,M,OVC,M,M,M,3399.00,M,M,M,M,KBLM 012010Z AUTO 33010KT 10SM OVC033 A2987 RMK MADISHF
BLM,2017-04-01 20:15,-74.1300,40.1800,M,M,M,350.00,14.00,M,29.87,M,10.00,M,OVC,M,M,M,3600.00,M,M,M,M,KBLM 012015Z AUTO 35014KT 10SM OVC036 A2987 RMK MADISHF
BLM,2017-04-01 20:20,-74.1300,40.1800,M,M,M,340.00,12.00,M,29.87,M,10.00,M,OVC,M,M,M,3399.00,M,M,M,M,KBLM 012020Z AUTO 34012KT 10SM OVC033 A2987 RMK MADISHF
BLM,2017-04-01 20:25,-74.1300,40.1800,M,M,M,330.00,11.00,M,29.88,M,10.00,M,OVC,M,M,M,3399.00,M,M,M,M,KBLM 012025Z AUTO 33011KT 10SM OVC033 A2988 RMK MADISHF
BLM,2017-04-01 20:30,-74.1300,40.1800,M,M,M,M,M,M,29.88,M,10.00,M,OVC,M,M,M,3399.00,M,M,M,M,KBLM 012030Z AUTO /////KT 10SM OVC033 A2988 RMK MADISHF
BLM,2017-04-01 20:35,-74.1300,40.1800,M,M,M,340.00,13.00,M,29.88,M,10.00,M,OVC,M,M,M,3399.00,M,M,M,M,KBLM 012035Z AUTO 34013KT 10SM OVC033 A2988 RMK MADISHF
BLM,2017-04-01 20:40,-74.1300,40.1800,M,M,M,M,M,M,29.88,M,10.00,M,OVC,M,M,M,3399.00,M,M,M,M,KBLM 012040Z AUTO /////KT 10SM OVC033 A2988 RMK MADISHF
BLM,2017-04-01 20:45,-74.1300,40.1800,M,M,M,M,M,M,29.89,M,10.00,M,OVC,M,M,M,3399.00,M,M,M,M,KBLM 012045Z AUTO /////KT 10SM OVC033 A2989 RMK MADISHF
BLM,2017-04-01 20:50,-74.1300,40.1800,M,M,M,M,M,M,29.89,M,10.00,M,OVC,M,M,M,3399.00,M,M,M,M,KBLM 012050Z AUTO /////KT 10SM OVC033 A2989 RMK MADISHF
BLM,2017-04-01 20:55,-74.1300,40.1800,M,M,M,20.00,11.00,M,29.89,M,10.00,M,OVC,M,M,M,3600.00,M,M,M,M,KBLM 012055Z AUTO 02011KT 10SM OVC036 A2989 RMK MADISHF
BLM,2017-04-01 21:00,-74.1300,40.1800,M,M,M,360.00,11.00,M,29.90,M,10.00,M,OVC,M,M,M,3600.00,M,M,M,M,KBLM 012100Z AUTO 36011KT 10SM OVC036 A2990 RMK MADISHF
BLM,2017-04-01 21:05,-74.1300,40.1800,M,M,M,10.00,11.00,M,29.90,M,10.00,M,OVC,M,M,M,3600.00,M,M,M,M,KBLM 012105Z AUTO 01011KT 10SM OVC036 A2990 RMK MADISHF
BLM,2017-04-01 21:10,-74.1300,40.1800,M,M,M,10.00,9.00,M,29.91,M,10.00,M,OVC,M,M,M,3600.00,M,M,M,M,KBLM 012110Z AUTO 01009KT 10SM OVC036 A2991 RMK MADISHF
BLM,2017-04-01 21:15,-74.1300,40.1800,M,M,M,360.00,10.00,M,29.91,M,10.00,M,OVC,M,M,M,3800.00,M,M,M,M,KBLM 012115Z AUTO 36010KT 10SM OVC038 A2991 RMK MADISHF
BLM,2017-04-01 21:20,-74.1300,40.1800,M,M,M,360.00,9.00,M,29.91,M,10.00,M,OVC,M,M,M,3800.00,M,M,M,M,KBLM 012120Z AUTO 36009KT 10SM OVC038 A2991 RMK MADISHF
BLM,2017-04-01 21:25,-74.1300,40.1800,M,M,M,360.00,9.00,M,29.91,M,10.00,M,OVC,M,M,M,3800.00,M,M,M,M,KBLM 012125Z AUTO 36009KT 10SM OVC038 A2991 RMK MADISHF
BLM,2017-04-01 21:30,-74.1300,40.1800,M,M,M,350.00,10.00,M,29.92,M,10.00,M,OVC,M,M,M,3800.00,M,M,M,M,KBLM 012130Z AUTO 35010KT 10SM OVC038 A2992 RMK MADISHF
BLM,2017-04-01 21:35,-74.1300,40.1800,M,M,M,360.00,10.00,M,29.92,M,10.00,M,OVC,M,M,M,3600.00,M,M,M,M,KBLM 012135Z AUTO 36010KT 10SM OVC036 A2992 RMK MADISHF
BLM,2017-04-01 21:40,-74.1300,40.1800,M,M,M,10.00,11.00,M,29.92,M,10.00,M,OVC,M,M,M,3399.00,M,M,M,M,KBLM 012140Z AUTO 01011KT 10SM OVC033 A2992 RMK MADISHF
BLM,2017-04-01 21:45,-74.1300,40.1800,M,M,M,360.00,8.00,M,29.92,M,10.00,M,OVC,M,M,M,3399.00,M,M,M,M,KBLM 012145Z AUTO 36008KT 10SM OVC033 A2992 RMK MADISHF
BLM,2017-04-01 21:50,-74.1300,40.1800,M,M,M,360.00,9.00,M,29.92,M,10.00,M,OVC,M,M,M,3399.00,M,M,M,M,KBLM 012150Z AUTO 36009KT 10SM OVC033 A2992 RMK MADISHF
BLM,2017-04-01 21:55,-74.1300,40.1800,M,M,M,360.00,8.00,M,29.93,M,10.00,M,OVC,M,M,M,3399.00,M,M,M,M,KBLM 012155Z AUTO 36008KT 10SM OVC033 A2993 RMK MADISHF
BLM,2017-04-01 21:56,-74.1300,40.1800,46.00,35.10,65.52,360.00,9.00,0.00,29.93,1013.90,10.00,M,OVC,M,M,M,3400.00,M,M,M,M,KBLM 012156Z AUTO 36009KT 10SM OVC034 08/02 A2993 RMK AO2 SLP139 T00780017
BLM,2017-04-01 22:00,-74.1300,40.1800,M,M,M,360.00,9.00,M,29.93,M,10.00,M,OVC,M,M,M,3600.00,M,M,M,M,KBLM 012200Z AUTO 36009KT 10SM OVC036 A2993 RMK MADISHF
BLM,2017-04-01 22:10,-74.1300,40.1800,M,M,M,360.00,7.00,M,29.93,M,10.00,M,OVC,M,M,M,3800.00,M,M,M,M,KBLM 012210Z AUTO 36007KT 10SM OVC038 A2993 RMK MADISHF
BLM,2017-04-01 22:15,-74.1300,40.1800,M,M,M,360.00,8.00,M,29.93,M,10.00,M,OVC,M,M,M,3800.00,M,M,M,M,KBLM 012215Z AUTO 36008KT 10SM OVC038 A2993 RMK MADISHF
BLM,2017-04-01 22:20,-74.1300,40.1800,M,M,M,360.00,9.00,M,29.93,M,10.00,M,OVC,M,M,M,3800.00,M,M,M,M,KBLM 012220Z AUTO 36009KT 10SM OVC038 A2993 RMK MADISHF
BLM,2017-04-01 22:25,-74.1300,40.1800,M,M,M,350.00,8.00,M,29.94,M,10.00,M,OVC,M,M,M,3800.00,M,M,M,M,KBLM 012225Z AUTO 35008KT 10SM OVC038 A2994 RMK MADISHF
BLM,2017-04-01 22:30,-74.1300,40.1800,M,M,M,360.00,9.00,M,29.94,M,10.00,M,OVC,M,M,M,3800.00,M,M,M,M,KBLM 012230Z AUTO 36009KT 10SM OVC038 A2994 RMK MADISHF
BLM,2017-04-01 22:35,-74.1300,40.1800,M,M,M,360.00,9.00,M,29.94,M,10.00,M,OVC,M,M,M,3800.00,M,M,M,M,KBLM 012235Z AUTO 36009KT 10SM OVC038 A2994 RMK MADISHF
BLM,2017-04-01 22:40,-74.1300,40.1800,M,M,M,350.00,9.00,M,29.94,M,10.00,M,OVC,M,M,M,3800.00,M,M,M,M,KBLM 012240Z AUTO 35009KT 10SM OVC038 A2994 RMK MADISHF
BLM,2017-04-01 22:45,-74.1300,40.1800,M,M,M,350.00,7.00,M,29.95,M,10.00,M,BKN,OVC,M,M,3800.00,4700.00,M,M,M,KBLM 012245Z AUTO 35007KT 10SM BKN038 OVC047 A2995 RMK MADISHF
BLM,2017-04-01 22:50,-74.1300,40.1800,M,M,M,350.00,7.00,M,29.95,M,10.00,M,BKN,OVC,M,M,3800.00,4700.00,M,M,M,KBLM 012250Z AUTO 35007KT 10SM BKN038 OVC047 A2995 RMK MADISHF
BLM,2017-04-01 22:55,-74.1300,40.1800,M,M,M,350.00,6.00,M,29.95,M,10.00,M,OVC,M,M,M,4200.00,M,M,M,M,KBLM 012255Z AUTO 35006KT 10SM OVC042 A2995 RMK MADISHF
BLM,2017-04-01 22:56,-74.1300,40.1800,46.00,36.00,67.90,350.00,6.00,0.00,29.95,1014.70,10.00,M,OVC,M,M,M,4200.00,M,M,M,M,KBLM 012256Z AUTO 35006KT 10SM OVC042 08/02 A2995 RMK AO2 SLP147 T00780022
BLM,2017-04-01 23:00,-74.1300,40.1800,M,M,M,350.00,6.00,M,29.95,M,10.00,M,OVC,M,M,M,4200.00,M,M,M,M,KBLM 012300Z AUTO 35006KT 10SM OVC042 A2995 RMK MADISHF
BLM,2017-04-01 23:05,-74.1300,40.1800,M,M,M,350.00,6.00,M,29.96,M,10.00,M,OVC,M,M,M,4200.00,M,M,M,M,KBLM 012305Z AUTO 35006KT 10SM OVC042 A2996 RMK MADISHF
BLM,2017-04-01 23:10,-74.1300,40.1800,M,M,M,340.00,6.00,M,29.97,M,10.00,M,OVC,M,M,M,4200.00,M,M,M,M,KBLM 012310Z AUTO 34006KT 10SM OVC042 A2997 RMK MADISHF
BLM,2017-04-01 23:15,-74.1300,40.1800,M,M,M,350.00,6.00,M,29.97,M,10.00,M,OVC,M,M,M,4200.00,M,M,M,M,KBLM 012315Z AUTO 35006KT 10SM OVC042 A2997 RMK MADISHF
BLM,2017-04-01 23:20,-74.1300,40.1800,M,M,M,350.00,6.00,M,29.97,M,10.00,M,BKN,M,M,M,4200.00,M,M,M,M,KBLM 012320Z AUTO 35006KT 10SM BKN042 A2997 RMK MADISHF
BLM,2017-04-01 23:25,-74.1300,40.1800,M,M,M,340.00,7.00,M,29.98,M,10.00,M,SCT,M,M,M,4200.00,M,M,M,M,KBLM 012325Z AUTO 34007KT 10SM SCT042 A2998 RMK MADISHF
BLM,2017-04-01 23:30,-74.1300,40.1800,M,M,M,350.00,6.00,M,29.98,M,10.00,M,SCT,M,M,M,3999.00,M,M,M,M,KBLM 012330Z AUTO 35006KT 10SM SCT039 A2998 RMK MADISHF
BLM,2017-04-01 23:35,-74.1300,40.1800,M,M,M,350.00,6.00,M,29.98,M,10.00,M,SCT,M,M,M,3999.00,M,M,M,M,KBLM 012335Z AUTO 35006KT 10SM SCT039 A2998 RMK MADISHF
BLM,2017-04-01 23:40,-74.1300,40.1800,M,M,M,350.00,5.00,M,29.99,M,10.00,M,SCT,M,M,M,3800.00,M,M,M,M,KBLM 012340Z AUTO 35005KT 10SM SCT038 A2999 RMK MADISHF
BLM,2017-04-01 23:45,-74.1300,40.1800,M,M,M,360.00,5.00,M,29.99,M,10.00,M,SCT,BKN,M,M,3800.00,7500.00,M,M,M,KBLM 012345Z AUTO 36005KT 10SM SCT038 BKN075 A2999 RMK MADISHF
BLM,2017-04-01 23:50,-74.1300,40.1800,M,M,M,350.00,4.00,M,29.99,M,10.00,M,SCT,BKN,M,M,3800.00,7500.00,M,M,M,KBLM 012350Z AUTO 35004KT 10SM SCT038 BKN075 A2999 RMK MADISHF
BLM,2017-04-01 23:55,-74.1300,40.1800,M,M,M,360.00,4.00,M,29.99,M,10.00,M,BKN,BKN,M,M,3800.00,7500.00,M,M,M,KBLM 012355Z AUTO 36004KT 10SM BKN038 BKN075 A2999 RMK MADISHF
BLM,2017-04-01 23:56,-74.1300,40.1800,45.00,35.10,68.05,360.00,4.00,0.00,29.99,1016.10,10.00,M,BKN,OVC,M,M,3800.00,7500.00,M,M,M,KBLM 012356Z AUTO 36004KT 10SM BKN038 OVC075 07/02 A2999 RMK AO2 SLP161 T00720017 10100 20072 53033
