#DEBUG: Format Typ    -> comma
#DEBUG: Time Period   -> 2017-04-01 00:00:00+00:00 2017-04-02 00:00:00+00:00
#DEBUG: Time Zone     -> Etc/UTC
#DEBUG: Data Contact   -> daryl herzmann akrherz@iastate.edu 515-294-5978
#DEBUG: Entries Found -> -1
station,valid,lon,lat,tmpf, dwpf, relh, drct, sknt, p01i, alti, mslp, vsby, gust, skyc1, skyc2, skyc3, skyc4, skyl1, skyl2, skyl3, skyl4, presentwx, metar
BLU,2017-04-01 00:00,-120.7097,39.2750,M,M,M,20.00,5.00,M,30.04,M,10.00,M,CLR,M,M,M,M,M,M,M,M,KBLU 010000Z AUTO 02005KT 10SM CLR A3004 RMK VRB05KT  MADISHF
BLU,2017-04-01 00:05,-120.7097,39.2750,M,M,M,40.00,3.00,M,30.03,M,10.00,M,CLR,M,M,M,M,M,M,M,M,KBLU 010005Z AUTO 04003KT 10SM CLR A3003 RMK VRB03KT  MADISHF
BLU,2017-04-01 00:10,-120.7097,39.2750,M,M,M,50.00,5.00,M,30.04,M,10.00,M,CLR,M,M,M,M,M,M,M,M,KBLU 010010Z AUTO 05005KT 10SM CLR A3004 RMK VRB05KT  MADISHF
BLU,2017-04-01 00:15,-120.7097,39.2750,M,M,M,10.00,7.00,M,30.04,M,10.00,M,CLR,M,M,M,M,M,M,M,M,KBLU 010015Z AUTO 01007KT 10SM CLR A3004 RMK MADISHF
BLU,2017-04-01 00:20,-120.7097,39.2750,M,M,M,20.00,7.00,M,30.04,M,10.00,M,CLR,M,M,M,M,M,M,M,M,KBLU 010020Z AUTO 02007KT 10SM CLR A3004 RMK MADISHF
BLU,2017-04-01 00:25,-120.7097,39.2750,M,M,M,40.00,7.00,M,30.03,M,10.00,M,CLR,M,M,M,M,M,M,M,M,KBLU 010025Z AUTO 04007KT 10SM CLR A3003 RMK WND 35V09  MADISHF
BLU,2017-04-01 00:30,-120.7097,39.2750,M,M,M,360.00,9.00,M,30.03,M,10.00,M,CLR,M,M,M,M,M,M,M,M,KBLU 010030Z AUTO 36009KT 10SM CLR A3003 RMK WND 33V04  MADISHF
BLU,2017-04-01 00:35,-120.7097,39.2750,M,M,M,70.00,8.00,M,30.03,M,10.00,M,CLR,M,M,M,M,M,M,M,M,KBLU 010035Z AUTO 07008KT 10SM CLR A3003 RMK WND 02V11  MADISHF
BLU,2017-04-01 00:40,-120.7097,39.2750,M,M,M,40.00,4.00,M,30.04,M,10.00,M,CLR,M,M,M,M,M,M,M,M,KBLU 010040Z AUTO 04004KT 10SM CLR A3004 RMK VRB04G15KT  MADISHF
BLU,2017-04-01 00:45,-120.7097,39.2750,M,M,M,50.00,7.00,M,30.03,M,10.00,M,CLR,M,M,M,M,M,M,M,M,KBLU 010045Z AUTO 05007KT 10SM CLR A3003 RMK WND 31V09  MADISHF
BLU,2017-04-01 00:50,-120.7097,39.2750,M,M,M,20.00,8.00,M,30.03,M,10.00,M,CLR,M,M,M,M,M,M,M,M,KBLU 010050Z AUTO 02008KT 10SM CLR A3003 RMK WND 31V07  MADISHF
BLU,2017-04-01 00:52,-120.7097,39.2750,48.90,27.00,42.32,M,6.00,0.00,30.04,1015.30,10.00,M,CLR,M,M,M,M,M,M,M,M,KBLU 010052Z AUTO VRB06KT 10SM CLR 09/M03 A3004 RMK AO2 SLP153 T00941028 TSNO
BLU,2017-04-01 00:55,-120.7097,39.2750,M,M,M,20.00,3.00,M,30.03,M,10.00,M,CLR,M,M,M,M,M,M,M,M,KBLU 010055Z AUTO 02003KT 10SM CLR A3003 RMK VRB03KT  MADISHF
BLU,2017-04-01 01:00,-120.7097,39.2750,M,M,M,60.00,6.00,M,30.04,M,10.00,M,CLR,M,M,M,M,M,M,M,M,KBLU 010100Z AUTO 06006KT 10SM CLR A3004 RMK VRB06KT  MADISHF
BLU,2017-04-01 01:05,-120.7097,39.2750,M,M,M,20.00,4.00,M,30.03,M,10.00,M,CLR,M,M,M,M,M,M,M,M,KBLU 010105Z AUTO 02004KT 10SM CLR A3003 RMK VRB04KT  MADISHF
BLU,2017-04-01 01:10,-120.7097,39.2750,M,M,M,60.00,3.00,M,30.03,M,10.00,M,CLR,M,M,M,M,M,M,M,M,KBLU 010110Z AUTO 06003KT 10SM CLR A3003 RMK VRB03KT  MADISHF
BLU,2017-04-01 01:15,-120.7097,39.2750,M,M,M,30.00,9.00,M,30.03,M,10.00,14.00,CLR,M,M,M,M,M,M,M,M,KBLU 010115Z AUTO 03009G14KT 10SM CLR A3003 RMK WND 36V08  MADISHF
BLU,2017-04-01 01:20,-120.7097,39.2750,M,M,M,100.00,3.00,M,30.03,M,10.00,M,CLR,M,M,M,M,M,M,M,M,KBLU 010120Z AUTO 10003KT 10SM CLR A3003 RMK VRB03G16KT  MADISHF
BLU,2017-04-01 01:25,-120.7097,39.2750,M,M,M,50.00,5.00,M,30.03,M,10.00,M,CLR,M,M,M,M,M,M,M,M,KBLU 010125Z AUTO 05005KT 10SM CLR A3003 RMK VRB05KT  MADISHF
BLU,2017-04-01 01:30,-120.7097,39.2750,M,M,M,M,M,M,30.03,M,10.00,M,CLR,M,M,M,M,M,M,M,M,KBLU 010130Z AUTO /////KT 10SM CLR A3003 RMK MADISHF
BLU,2017-04-01 01:35,-120.7097,39.2750,M,M,M,30.00,5.00,M,30.03,M,10.00,M,CLR,M,M,M,M,M,M,M,M,KBLU 010135Z AUTO 03005KT 10SM CLR A3003 RMK VRB05KT  MADISHF
BLU,2017-04-01 01:40,-120.7097,39.2750,M,M,M,20.00,4.00,M,30.03,M,10.00,M,CLR,M,M,M,M,M,M,M,M,KBLU 010140Z AUTO 02004KT 10SM CLR A3003 RMK VRB04KT  MADISHF
BLU,2017-04-01 01:45,-120.7097,39.2750,M,M,M,30.00,4.00,M,30.03,M,10.00,M,CLR,M,M,M,M,M,M,M,M,KBLU 010145Z AUTO 03004KT 10SM CLR A3003 RMK VRB04KT  MADISHF
BLU,2017-04-01 01:50,-120.7097,39.2750,M,M,M,360.00,3.00,M,30.03,M,10.00,M,CLR,M,M,M,M,M,M,M,M,KBLU 010150Z AUTO 36003KT 10SM CLR A3003 RMK VRB03KT  MADISHF
BLU,2017-04-01 01:52,-120.7097,39.2750,46.90,28.00,47.54,M,5.00,0.00,30.04,1015.60,10.00,M,CLR,M,M,M,M,M,M,M,M,KBLU 010152Z AUTO VRB05KT 10SM CLR 08/M02 A3004 RMK AO2 SLP156 T00831022 TSNO
BLU,2017-04-01 01:55,-120.7097,39.2750,M,M,M,350.00,6.00,M,30.04,M,10.00,M,CLR,M,M,M,M,M,M,M,M,KBLU 010155Z AUTO 35006KT 10SM CLR A3004 RMK VRB06KT  MADISHF
BLU,2017-04-01 02:00,-120.7097,39.2750,M,M,M,20.00,7.00,M,30.04,M,10.00,M,CLR,M,M,M,M,M,M,M,M,KBLU 010200Z AUTO 02007KT 10SM CLR A3004 RMK WND 33V06  MADISHF
BLU,2017-04-01 02:05,-120.7097,39.2750,M,M,M,360.00,3.00,M,30.04,M,10.00,M,CLR,M,M,M,M,M,M,M,M,KBLU 010205Z AUTO 36003KT 10SM CLR A3004 RMK VRB03KT  MADISHF
BLU,2017-04-01 02:10,-120.7097,39.2750,M,M,M,20.00,5.00,M,30.04,M,10.00,M,CLR,M,M,M,M,M,M,M,M,KBLU 010210Z AUTO 02005KT 10SM CLR A3004 RMK VRB05KT  MADISHF
BLU,2017-04-01 02:15,-120.7097,39.2750,M,M,M,30.00,6.00,M,30.04,M,10.00,M,CLR,M,M,M,M,M,M,M,M,KBLU 010215Z AUTO 03006KT 10SM CLR A3004 RMK VRB06KT  MADISHF
BLU,2017-04-01 02:20,-120.7097,39.2750,M,M,M,30.00,3.00,M,30.04,M,10.00,M,CLR,M,M,M,M,M,M,M,M,KBLU 010220Z AUTO 03003KT 10SM CLR A3004 RMK VRB03KT  MADISHF
BLU,2017-04-01 02:25,-120.7097,39.2750,M,M,M,350.00,4.00,M,30.04,M,10.00,M,CLR,M,M,M,M,M,M,M,M,KBLU 010225Z AUTO 35004KT 10SM CLR A3004 RMK VRB04KT  MADISHF
BLU,2017-04-01 02:30,-120.7097,39.2750,M,M,M,30.00,6.00,M,30.04,M,10.00,M,CLR,M,M,M,M,M,M,M,M,KBLU 010230Z AUTO 03006KT 10SM CLR A3004 RMK VRB06KT  MADISHF
BLU,2017-04-01 02:35,-120.7097,39.2750,M,M,M,20.00,3.00,M,30.04,M,10.00,M,CLR,M,M,M,M,M,M,M,M,KBLU 010235Z AUTO 02003KT 10SM CLR A3004 RMK VRB03KT  MADISHF
BLU,2017-04-01 02:40,-120.7097,39.2750,M,M,M,0.00,0.00,M,30.04,M,10.00,M,CLR,M,M,M,M,M,M,M,M,KBLU 010240Z AUTO 00000KT 10SM CLR A3004 RMK MADISHF
BLU,2017-04-01 02:45,-120.7097,39.2750,M,M,M,10.00,3.00,M,30.05,M,10.00,M,CLR,M,M,M,M,M,M,M,M,KBLU 010245Z AUTO 01003KT 10SM CLR A3005 RMK VRB03KT  MADISHF
BLU,2017-04-01 02:50,-120.7097,39.2750,M,M,M,0.00,0.00,M,30.05,M,10.00,M,CLR,M,M,M,M,M,M,M,M,KBLU 010250Z AUTO 00000KT 10SM CLR A3005 RMK MADISHF
BLU,2017-04-01 02:52,-120.7097,39.2750,44.10,27.00,50.73,M,3.00,0.00,30.05,1016.30,10.00,M,CLR,M,M,M,M,M,M,M,M,KBLU 010252Z AUTO VRB03KT 10SM CLR 07/M03 A3005 RMK AO2 SLP163 T00671028 53004 TSNO
BLU,2017-04-01 02:55,-120.7097,39.2750,M,M,M,0.00,0.00,M,30.05,M,10.00,M,CLR,M,M,M,M,M,M,M,M,KBLU 010255Z AUTO 00000KT 10SM CLR A3005 RMK MADISHF
BLU,2017-04-01 03:00,-120.7097,39.2750,M,M,M,0.00,0.00,M,30.05,M,10.00,M,CLR,M,M,M,M,M,M,M,M,KBLU 010300Z AUTO 00000KT 10SM CLR A3005 RMK MADISHF
BLU,2017-04-01 03:05,-120.7097,39.2750,M,M,M,350.00,4.00,M,30.05,M,10.00,M,CLR,M,M,M,M,M,M,M,M,KBLU 010305Z AUTO 35004KT 10SM CLR A3005 RMK VRB04KT  MADISHF
BLU,2017-04-01 03:10,-120.7097,39.2750,M,M,M,40.00,5.00,M,30.06,M,10.00,M,CLR,M,M,M,M,M,M,M,M,KBLU 010310Z AUTO 04005KT 10SM CLR A3006 RMK MADISHF
BLU,2017-04-01 03:15,-120.7097,39.2750,M,M,M,30.00,5.00,M,30.06,M,10.00,M,CLR,M,M,M,M,M,M,M,M,KBLU 010315Z AUTO 03005KT 10SM CLR A3006 RMK VRB05KT  MADISHF
BLU,2017-04-01 03:20,-120.7097,39.2750,M,M,M,20.00,6.00,M,30.06,M,10.00,M,CLR,M,M,M,M,M,M,M,M,KBLU 010320Z AUTO 02006KT 10SM CLR A3006 RMK MADISHF
BLU,2017-04-01 03:25,-120.7097,39.2750,M,M,M,10.00,8.00,M,30.06,M,10.00,M,CLR,M,M,M,M,M,M,M,M,KBLU 010325Z AUTO 01008KT 10SM CLR A3006 RMK MADISHF
BLU,2017-04-01 03:30,-120.7097,39.2750,M,M,M,20.00,5.00,M,30.06,M,10.00,M,CLR,M,M,M,M,M,M,M,M,KBLU 010330Z AUTO 02005KT 10SM CLR A3006 RMK VRB05KT  MADISHF
BLU,2017-04-01 03:35,-120.7097,39.2750,M,M,M,20.00,7.00,M,30.06,M,10.00,M,CLR,M,M,M,M,M,M,M,M,KBLU 010335Z AUTO 02007KT 10SM CLR A3006 RMK MADISHF
BLU,2017-04-01 03:40,-120.7097,39.2750,M,M,M,30.00,8.00,M,30.06,M,10.00,M,CLR,M,M,M,M,M,M,M,M,KBLU 010340Z AUTO 03008KT 10SM CLR A3006 RMK WND 35V07  MADISHF
BLU,2017-04-01 03:45,-120.7097,39.2750,M,M,M,40.00,6.00,M,30.07,M,10.00,M,CLR,M,M,M,M,M,M,M,M,KBLU 010345Z AUTO 04006KT 10SM CLR A3007 RMK VRB06G17KT  MADISHF
BLU,2017-04-01 03:50,-120.7097,39.2750,M,M,M,40.00,7.00,M,30.07,M,10.00,M,CLR,M,M,M,M,M,M,M,M,KBLU 010350Z AUTO 04007KT 10SM CLR A3007 RMK WND 01V08  MADISHF
BLU,2017-04-01 03:52,-120.7097,39.2750,43.00,27.00,52.91,50.00,8.00,0.00,30.07,1016.90,10.00,17.00,CLR,M,M,M,M,M,M,M,M,KBLU 010352Z AUTO 05008G17KT 010V090 10SM CLR 06/M03 A3007 RMK AO2 SLP169 T00611028 TSNO
BLU,2017-04-01 03:55,-120.7097,39.2750,M,M,M,50.00,8.00,M,30.07,M,10.00,M,CLR,M,M,M,M,M,M,M,M,KBLU 010355Z AUTO 05008KT 10SM CLR A3007 RMK WND 01V07  MADISHF
BLU,2017-04-01 04:00,-120.7097,39.2750,M,M,M,40.00,11.00,M,30.08,M,10.00,M,CLR,M,M,M,M,M,M,M,M,KBLU 010400Z AUTO 04011KT 10SM CLR A3008 RMK MADISHF
BLU,2017-04-01 04:05,-120.7097,39.2750,M,M,M,30.00,10.00,M,30.07,M,10.00,15.00,CLR,M,M,M,M,M,M,M,M,KBLU 010405Z AUTO 03010G15KT 10SM CLR A3007 RMK MADISHF
BLU,2017-04-01 04:10,-120.7097,39.2750,M,M,M,40.00,10.00,M,30.07,M,10.00,16.00,CLR,M,M,M,M,M,M,M,M,KBLU 010410Z AUTO 04010G16KT 10SM CLR A3007 RMK MADISHF
BLU,2017-04-01 04:15,-120.7097,39.2750,M,M,M,40.00,7.00,M,30.07,M,10.00,M,CLR,M,M,M,M,M,M,M,M,KBLU 010415Z AUTO 04007KT 10SM CLR A3007 RMK WND 36V12  MADISHF
BLU,2017-04-01 04:20,-120.7097,39.2750,M,M,M,40.00,10.00,M,30.08,M,10.00,15.00,CLR,M,M,M,M,M,M,M,M,KBLU 010420Z AUTO 04010G15KT 10SM CLR A3008 RMK MADISHF
BLU,2017-04-01 04:25,-120.7097,39.2750,M,M,M,50.00,9.00,M,30.08,M,10.00,15.00,CLR,M,M,M,M,M,M,M,M,KBLU 010425Z AUTO 05009G15KT 10SM CLR A3008 RMK WND 02V08  MADISHF
BLU,2017-04-01 04:30,-120.7097,39.2750,M,M,M,40.00,9.00,M,30.08,M,10.00,M,CLR,M,M,M,M,M,M,M,M,KBLU 010430Z AUTO 04009KT 10SM CLR A3008 RMK WND 35V09  MADISHF
BLU,2017-04-01 04:35,-120.7097,39.2750,M,M,M,40.00,8.00,M,30.08,M,10.00,M,CLR,M,M,M,M,M,M,M,M,KBLU 010435Z AUTO 04008KT 10SM CLR A3008 RMK WND 35V11  MADISHF
BLU,2017-04-01 04:40,-120.7097,39.2750,M,M,M,50.00,8.00,M,30.08,M,10.00,M,CLR,M,M,M,M,M,M,M,M,KBLU 010440Z AUTO 05008KT 10SM CLR A3008 RMK WND 36V09  MADISHF
BLU,2017-04-01 04:45,-120.7097,39.2750,M,M,M,70.00,9.00,M,30.08,M,10.00,16.00,CLR,M,M,M,M,M,M,M,M,KBLU 010445Z AUTO 07009G16KT 10SM CLR A3008 RMK WND 03V14  MADISHF
BLU,2017-04-01 04:50,-120.7097,39.2750,M,M,M,40.00,6.00,M,30.08,M,10.00,M,CLR,M,M,M,M,M,M,M,M,KBLU 010450Z AUTO 04006KT 10SM CLR A3008 RMK VRB06G18KT  MADISHF
BLU,2017-04-01 04:52,-120.7097,39.2750,43.00,26.10,50.98,M,6.00,0.00,30.08,1016.60,10.00,18.00,CLR,M,M,M,M,M,M,M,M,KBLU 010452Z AUTO VRB06G18KT 10SM CLR 06/M03 A3008 RMK AO2 SLP166 T00611033 TSNO
BLU,2017-04-01 04:55,-120.7097,39.2750,M,M,M,M,M,M,M,M,10.00,M,CLR,M,M,M,M,M,M,M,M,KBLU 010455Z AUTO /////KT 10SM CLR RMK MADISHF
BLU,2017-04-01 05:00,-120.7097,39.2750,M,M,M,60.00,7.00,M,30.08,M,10.00,M,CLR,M,M,M,M,M,M,M,M,KBLU 010500Z AUTO 06007KT 10SM CLR A3008 RMK WND 02V12  MADISHF
BLU,2017-04-01 05:05,-120.7097,39.2750,M,M,M,60.00,10.00,M,30.08,M,10.00,16.00,CLR,M,M,M,M,M,M,M,M,KBLU 010505Z AUTO 06010G16KT 10SM CLR A3008 RMK WND 36V10  MADISHF
BLU,2017-04-01 05:10,-120.7097,39.2750,M,M,M,50.00,11.00,M,30.08,M,10.00,17.00,CLR,M,M,M,M,M,M,M,M,KBLU 010510Z AUTO 05011G17KT 10SM CLR A3008 RMK WND 02V10  MADISHF
BLU,2017-04-01 05:15,-120.7097,39.2750,M,M,M,70.00,7.00,M,30.08,M,10.00,M,CLR,M,M,M,M,M,M,M,M,KBLU 010515Z AUTO 07007KT 10SM CLR A3008 RMK WND 03V12  MADISHF
BLU,2017-04-01 05:20,-120.7097,39.2750,M,M,M,60.00,11.00,M,30.08,M,10.00,17.00,CLR,M,M,M,M,M,M,M,M,KBLU 010520Z AUTO 06011G17KT 10SM CLR A3008 RMK WND 02V09  MADISHF
BLU,2017-04-01 05:25,-120.7097,39.2750,M,M,M,60.00,7.00,M,30.07,M,10.00,M,CLR,M,M,M,M,M,M,M,M,KBLU 010525Z AUTO 06007KT 10SM CLR A3007 RMK WND 03V12  MADISHF
BLU,2017-04-01 05:30,-120.7097,39.2750,M,M,M,70.00,7.00,M,30.07,M,10.00,M,CLR,M,M,M,M,M,M,M,M,KBLU 010530Z AUTO 07007KT 10SM CLR A3007 RMK WND 03V11  MADISHF
BLU,2017-04-01 05:35,-120.7097,39.2750,M,M,M,60.00,6.00,M,30.07,M,10.00,M,CLR,M,M,M,M,M,M,M,M,KBLU 010535Z AUTO 06006KT 10SM CLR A3007 RMK VRB06G22KT  MADISHF
BLU,2017-04-01 05:40,-120.7097,39.2750,M,M,M,60.00,11.00,M,30.07,M,10.00,20.00,CLR,M,M,M,M,M,M,M,M,KBLU 010540Z AUTO 06011G20KT 10SM CLR A3007 RMK WND 35V11  MADISHF
BLU,2017-04-01 05:45,-120.7097,39.2750,M,M,M,60.00,8.00,M,30.07,M,10.00,M,CLR,M,M,M,M,M,M,M,M,KBLU 010545Z AUTO 06008KT 10SM CLR A3007 RMK WND 34V12  MADISHF
BLU,2017-04-01 05:50,-120.7097,39.2750,M,M,M,50.00,12.00,M,30.07,M,10.00,M,CLR,M,M,M,M,M,M,M,M,KBLU 010550Z AUTO 05012KT 10SM CLR A3007 RMK MADISHF
BLU,2017-04-01 05:52,-120.7097,39.2750,44.10,27.00,50.73,60.00,12.00,0.00,30.06,1015.80,10.00,25.00,CLR,M,M,M,M,M,M,M,M,KBLU 010552Z AUTO 06012G25KT 040V100 10SM CLR 07/M03 A3006 RMK AO2 SLP158 T00671028 10100 20061 50005 TSNO
BLU,2017-04-01 05:55,-120.7097,39.2750,M,M,M,50.00,9.00,M,M,M,10.00,17.00,CLR,M,M,M,M,M,M,M,M,KBLU 010555Z AUTO 05009G17KT 10SM CLR RMK WND 02V12  MADISHF
BLU,2017-04-01 06:00,-120.7097,39.2750,M,M,M,60.00,11.00,M,30.06,M,10.00,20.00,CLR,M,M,M,M,M,M,M,M,KBLU 010600Z AUTO 06011G20KT 10SM CLR A3006 RMK MADISHF
BLU,2017-04-01 06:05,-120.7097,39.2750,M,M,M,60.00,12.00,M,30.05,M,10.00,22.00,CLR,M,M,M,M,M,M,M,M,KBLU 010605Z AUTO 06012G22KT 10SM CLR A3005 RMK WND 03V10  MADISHF
BLU,2017-04-01 06:10,-120.7097,39.2750,M,M,M,M,M,M,30.04,M,10.00,24.00,CLR,M,M,M,M,M,M,M,M,KBLU 010610Z AUTO /////G24KT 10SM CLR A3004 RMK MADISHF
BLU,2017-04-01 06:15,-120.7097,39.2750,M,M,M,60.00,11.00,M,30.04,M,10.00,M,CLR,M,M,M,M,M,M,M,M,KBLU 010615Z AUTO 06011KT 10SM CLR A3004 RMK WND 02V09  MADISHF
BLU,2017-04-01 06:20,-120.7097,39.2750,M,M,M,70.00,10.00,M,30.04,M,10.00,21.00,CLR,M,M,M,M,M,M,M,M,KBLU 010620Z AUTO 07010G21KT 10SM CLR A3004 RMK WND 04V13  MADISHF
BLU,2017-04-01 06:25,-120.7097,39.2750,M,M,M,50.00,12.00,M,30.04,M,10.00,M,CLR,M,M,M,M,M,M,M,M,KBLU 010625Z AUTO 05012KT 10SM CLR A3004 RMK MADISHF
BLU,2017-04-01 06:30,-120.7097,39.2750,M,M,M,40.00,10.00,M,30.05,M,10.00,16.00,CLR,M,M,M,M,M,M,M,M,KBLU 010630Z AUTO 04010G16KT 10SM CLR A3005 RMK WND 01V07  MADISHF
BLU,2017-04-01 06:35,-120.7097,39.2750,M,M,M,50.00,12.00,M,30.05,M,10.00,17.00,CLR,M,M,M,M,M,M,M,M,KBLU 010635Z AUTO 05012G17KT 10SM CLR A3005 RMK WND 01V08  MADISHF
BLU,2017-04-01 06:40,-120.7097,39.2750,M,M,M,50.00,11.00,M,30.05,M,10.00,17.00,CLR,M,M,M,M,M,M,M,M,KBLU 010640Z AUTO 05011G17KT 10SM CLR A3005 RMK WND 01V09  MADISHF
BLU,2017-04-01 06:45,-120.7097,39.2750,M,M,M,40.00,6.00,M,30.06,M,10.00,M,CLR,M,M,M,M,M,M,M,M,KBLU 010645Z AUTO 04006KT 10SM CLR A3006 RMK VRB06G21KT  MADISHF
BLU,2017-04-01 06:50,-120.7097,39.2750,M,M,M,30.00,5.00,M,30.06,M,10.00,M,CLR,M,M,M,M,M,M,M,M,KBLU 010650Z AUTO 03005KT 10SM CLR A3006 RMK VRB05G16KT  MADISHF
BLU,2017-04-01 06:52,-120.7097,39.2750,45.00,26.10,47.23,M,4.00,0.00,30.06,1015.30,10.00,16.00,CLR,M,M,M,M,M,M,M,M,KBLU 010652Z AUTO VRB04G16KT 10SM CLR 07/M03 A3006 RMK AO2 PK WND 05027/0611 SLP153 T00721033 TSNO
BLU,2017-04-01 06:55,-120.7097,39.2750,M,M,M,60.00,4.00,M,30.06,M,10.00,M,CLR,M,M,M,M,M,M,M,M,KBLU 010655Z AUTO 06004KT 10SM CLR A3006 RMK VRB04G16KT  MADISHF
BLU,2017-04-01 07:00,-120.7097,39.2750,M,M,M,70.00,6.00,M,30.07,M,10.00,M,CLR,M,M,M,M,M,M,M,M,KBLU 010700Z AUTO 07006KT 10SM CLR A3007 RMK VRB06KT  MADISHF
BLU,2017-04-01 07:05,-120.7097,39.2750,M,M,M,30.00,3.00,M,30.07,M,10.00,M,CLR,M,M,M,M,M,M,M,M,KBLU 010705Z AUTO 03003KT 10SM CLR A3007 RMK VRB03KT  MADISHF
BLU,2017-04-01 07:10,-120.7097,39.2750,M,M,M,60.00,3.00,M,30.07,M,10.00,M,CLR,M,M,M,M,M,M,M,M,KBLU 010710Z AUTO 06003KT 10SM CLR A3007 RMK VRB03KT  MADISHF
BLU,2017-04-01 07:15,-120.7097,39.2750,M,M,M,0.00,0.00,M,M,M,10.00,M,CLR,M,M,M,M,M,M,M,M,KBLU 010715Z AUTO 00000KT 10SM CLR RMK MADISHF
BLU,2017-04-01 07:20,-120.7097,39.2750,M,M,M,60.00,5.00,M,M,M,10.00,M,CLR,M,M,M,M,M,M,M,M,KBLU 010720Z AUTO 06005KT 10SM CLR RMK VRB05KT  MADISHF
BLU,2017-04-01 07:25,-120.7097,39.2750,M,M,M,50.00,3.00,M,M,M,10.00,M,CLR,M,M,M,M,M,M,M,M,KBLU 010725Z AUTO 05003KT 10SM CLR RMK VRB03KT  MADISHF
BLU,2017-04-01 07:30,-120.7097,39.2750,M,M,M,50.00,4.00,M,30.07,M,10.00,M,CLR,M,M,M,M,M,M,M,M,KBLU 010730Z AUTO 05004KT 10SM CLR A3007 RMK VRB04KT  MADISHF
BLU,2017-04-01 07:35,-120.7097,39.2750,M,M,M,0.00,0.00,M,M,M,10.00,M,CLR,M,M,M,M,M,M,M,M,KBLU 010735Z AUTO 00000KT 10SM CLR RMK MADISHF
BLU,2017-04-01 07:40,-120.7097,39.2750,M,M,M,0.00,0.00,M,M,M,10.00,M,CLR,M,M,M,M,M,M,M,M,KBLU 010740Z AUTO 00000KT 10SM CLR RMK MADISHF
BLU,2017-04-01 07:45,-120.7097,39.2750,M,M,M,0.00,0.00,M,M,M,10.00,M,CLR,M,M,M,M,M,M,M,M,KBLU 010745Z AUTO 00000KT 10SM CLR RMK MADISHF
BLU,2017-04-01 07:50,-120.7097,39.2750,M,M,M,0.00,0.00,M,30.09,M,10.00,M,CLR,M,M,M,M,M,M,M,M,KBLU 010750Z AUTO 00000KT 10SM CLR A3009 RMK MADISHF
BLU,2017-04-01 07:52,-120.7097,39.2750,43.00,25.00,48.70,0.00,0.00,0.00,30.09,1016.50,10.00,M,CLR,M,M,M,M,M,M,M,M,KBLU 010752Z AUTO 00000KT 10SM CLR 06/M04 A3009 RMK AO2 SLP165 T00611039 401001006 TSNO
BLU,2017-04-01 07:55,-120.7097,39.2750,M,M,M,0.00,0.00,M,M,M,10.00,M,CLR,M,M,M,M,M,M,M,M,KBLU 010755Z AUTO 00000KT 10SM CLR RMK MADISHF
BLU,2017-04-01 08:00,-120.7097,39.2750,M,M,M,0.00,0.00,M,30.09,M,10.00,M,CLR,M,M,M,M,M,M,M,M,KBLU 010800Z AUTO 00000KT 10SM CLR A3009 RMK MADISHF
BLU,2017-04-01 08:05,-120.7097,39.2750,M,M,M,0.00,0.00,M,30.09,M,10.00,M,CLR,M,M,M,M,M,M,M,M,KBLU 010805Z AUTO 00000KT 10SM CLR A3009 RMK MADISHF
BLU,2017-04-01 08:10,-120.7097,39.2750,M,M,M,0.00,0.00,M,30.10,M,10.00,M,CLR,M,M,M,M,M,M,M,M,KBLU 010810Z AUTO 00000KT 10SM CLR A3010 RMK MADISHF
BLU,2017-04-01 08:15,-120.7097,39.2750,M,M,M,0.00,0.00,M,M,M,10.00,M,CLR,M,M,M,M,M,M,M,M,KBLU 010815Z AUTO 00000KT 10SM CLR RMK MADISHF
BLU,2017-04-01 08:20,-120.7097,39.2750,M,M,M,0.00,0.00,M,M,M,10.00,M,CLR,M,M,M,M,M,M,M,M,KBLU 010820Z AUTO 00000KT 10SM CLR RMK MADISHF
BLU,2017-04-01 08:25,-120.7097,39.2750,M,M,M,100.00,5.00,M,M,M,10.00,M,CLR,M,M,M,M,M,M,M,M,KBLU 010825Z AUTO 10005KT 10SM CLR RMK MADISHF
BLU,2017-04-01 08:30,-120.7097,39.2750,M,M,M,70.00,3.00,M,30.09,M,10.00,M,CLR,M,M,M,M,M,M,M,M,KBLU 010830Z AUTO 07003KT 10SM CLR A3009 RMK VRB03KT  MADISHF
BLU,2017-04-01 08:35,-120.7097,39.2750,M,M,M,80.00,6.00,M,M,M,10.00,M,CLR,M,M,M,M,M,M,M,M,KBLU 010835Z AUTO 08006KT 10SM CLR RMK VRB06KT  MADISHF
BLU,2017-04-01 08:40,-120.7097,39.2750,M,M,M,80.00,5.00,M,M,M,10.00,M,CLR,M,M,M,M,M,M,M,M,KBLU 010840Z AUTO 08005KT 10SM CLR RMK VRB05KT  MADISHF
BLU,2017-04-01 08:45,-120.7097,39.2750,M,M,M,60.00,3.00,M,M,M,10.00,M,CLR,M,M,M,M,M,M,M,M,KBLU 010845Z AUTO 06003KT 10SM CLR RMK VRB03KT  MADISHF
BLU,2017-04-01 08:50,-120.7097,39.2750,M,M,M,70.00,3.00,M,30.08,M,10.00,M,CLR,M,M,M,M,M,M,M,M,KBLU 010850Z AUTO 07003KT 10SM CLR A3008 RMK VRB03KT  MADISHF
BLU,2017-04-01 08:52,-120.7097,39.2750,43.00,25.00,48.70,M,4.00,0.00,30.08,1015.70,10.00,M,CLR,M,M,M,M,M,M,M,M,KBLU 010852Z AUTO VRB04KT 10SM CLR 06/M04 A3008 RMK AO2 SLP157 T00611039 50005 TSNO
BLU,2017-04-01 08:55,-120.7097,39.2750,M,M,M,80.00,5.00,M,30.08,M,10.00,M,CLR,M,M,M,M,M,M,M,M,KBLU 010855Z AUTO 08005KT 10SM CLR A3008 RMK VRB05KT  MADISHF
BLU,2017-04-01 09:00,-120.7097,39.2750,M,M,M,90.00,6.00,M,30.08,M,10.00,M,CLR,M,M,M,M,M,M,M,M,KBLU 010900Z AUTO 09006KT 10SM CLR A3008 RMK VRB06KT  MADISHF
BLU,2017-04-01 09:05,-120.7097,39.2750,M,M,M,80.00,6.00,M,30.08,M,10.00,M,CLR,M,M,M,M,M,M,M,M,KBLU 010905Z AUTO 08006KT 10SM CLR A3008 RMK MADISHF
BLU,2017-04-01 09:10,-120.7097,39.2750,M,M,M,90.00,7.00,M,M,M,10.00,M,CLR,M,M,M,M,M,M,M,M,KBLU 010910Z AUTO 09007KT 10SM CLR RMK WND 04V12  MADISHF
BLU,2017-04-01 09:15,-120.7097,39.2750,M,M,M,100.00,5.00,M,M,M,10.00,M,CLR,M,M,M,M,M,M,M,M,KBLU 010915Z AUTO 10005KT 10SM CLR RMK MADISHF
BLU,2017-04-01 09:20,-120.7097,39.2750,M,M,M,90.00,4.00,M,M,M,10.00,M,CLR,M,M,M,M,M,M,M,M,KBLU 010920Z AUTO 09004KT 10SM CLR RMK VRB04KT  MADISHF
BLU,2017-04-01 09:25,-120.7097,39.2750,M,M,M,90.00,3.00,M,M,M,10.00,M,CLR,M,M,M,M,M,M,M,M,KBLU 010925Z AUTO 09003KT 10SM CLR RMK VRB03KT  MADISHF
BLU,2017-04-01 09:30,-120.7097,39.2750,M,M,M,90.00,5.00,M,30.08,M,10.00,M,CLR,M,M,M,M,M,M,M,M,KBLU 010930Z AUTO 09005KT 10SM CLR A3008 RMK VRB05KT  MADISHF
BLU,2017-04-01 09:35,-120.7097,39.2750,M,M,M,0.00,0.00,M,M,M,10.00,M,CLR,M,M,M,M,M,M,M,M,KBLU 010935Z AUTO 00000KT 10SM CLR RMK MADISHF
BLU,2017-04-01 09:40,-120.7097,39.2750,M,M,M,M,M,M,M,M,10.00,M,CLR,M,M,M,M,M,M,M,M,KBLU 010940Z AUTO /////KT 10SM CLR RMK MADISHF
BLU,2017-04-01 09:45,-120.7097,39.2750,M,M,M,110.00,3.00,M,M,M,10.00,M,CLR,M,M,M,M,M,M,M,M,KBLU 010945Z AUTO 11003KT 10SM CLR RMK MADISHF
BLU,2017-04-01 09:50,-120.7097,39.2750,M,M,M,110.00,3.00,M,M,M,10.00,M,CLR,M,M,M,M,M,M,M,M,KBLU 010950Z AUTO 11003KT 10SM CLR RMK MADISHF
BLU,2017-04-01 09:52,-120.7097,39.2750,44.10,24.10,44.98,M,4.00,0.00,30.08,1015.20,10.00,M,CLR,M,M,M,M,M,M,M,M,KBLU 010952Z AUTO VRB04KT 10SM CLR 07/M04 A3008 RMK AO2 SLP152 T00671044 TSNO
BLU,2017-04-01 09:55,-120.7097,39.2750,M,M,M,130.00,5.00,M,30.08,M,10.00,M,CLR,M,M,M,M,M,M,M,M,KBLU 010955Z AUTO 13005KT 10SM CLR A3008 RMK VRB05KT  MADISHF
BLU,2017-04-01 10:00,-120.7097,39.2750,M,M,M,0.00,0.00,M,30.08,M,10.00,M,CLR,M,M,M,M,M,M,M,M,KBLU 011000Z AUTO 00000KT 10SM CLR A3008 RMK MADISHF
BLU,2017-04-01 10:05,-120.7097,39.2750,M,M,M,100.00,3.00,M,30.08,M,10.00,M,CLR,M,M,M,M,M,M,M,M,KBLU 011005Z AUTO 10003KT 10SM CLR A3008 RMK MADISHF
BLU,2017-04-01 10:10,-120.7097,39.2750,M,M,M,70.00,6.00,M,M,M,10.00,M,CLR,M,M,M,M,M,M,M,M,KBLU 011010Z AUTO 07006KT 10SM CLR RMK MADISHF
BLU,2017-04-01 10:15,-120.7097,39.2750,M,M,M,80.00,4.00,M,M,M,10.00,M,CLR,M,M,M,M,M,M,M,M,KBLU 011015Z AUTO 08004KT 10SM CLR RMK VRB04KT  MADISHF
BLU,2017-04-01 10:20,-120.7097,39.2750,M,M,M,100.00,5.00,M,M,M,10.00,M,CLR,M,M,M,M,M,M,M,M,KBLU 011020Z AUTO 10005KT 10SM CLR RMK VRB05KT  MADISHF
BLU,2017-04-01 10:25,-120.7097,39.2750,M,M,M,70.00,6.00,M,M,M,10.00,M,CLR,M,M,M,M,M,M,M,M,KBLU 011025Z AUTO 07006KT 10SM CLR RMK VRB06KT  MADISHF
BLU,2017-04-01 10:30,-120.7097,39.2750,M,M,M,70.00,8.00,M,M,M,10.00,M,CLR,M,M,M,M,M,M,M,M,KBLU 011030Z AUTO 07008KT 10SM CLR RMK WND 03V14  MADISHF
BLU,2017-04-01 10:35,-120.7097,39.2750,M,M,M,70.00,8.00,M,M,M,10.00,M,CLR,M,M,M,M,M,M,M,M,KBLU 011035Z AUTO 07008KT 10SM CLR RMK WND 01V13  MADISHF
BLU,2017-04-01 10:40,-120.7097,39.2750,M,M,M,70.00,10.00,M,30.06,M,10.00,M,CLR,M,M,M,M,M,M,M,M,KBLU 011040Z AUTO 07010KT 10SM CLR A3006 RMK WND 01V10  MADISHF
BLU,2017-04-01 10:45,-120.7097,39.2750,M,M,M,80.00,12.00,M,30.06,M,10.00,M,CLR,M,M,M,M,M,M,M,M,KBLU 011045Z AUTO 08012KT 10SM CLR A3006 RMK WND 05V12  MADISHF
BLU,2017-04-01 10:50,-120.7097,39.2750,M,M,M,70.00,9.00,M,30.06,M,10.00,16.00,CLR,M,M,M,M,M,M,M,M,KBLU 011050Z AUTO 07009G16KT 10SM CLR A3006 RMK MADISHF
BLU,2017-04-01 10:52,-120.7097,39.2750,43.00,26.10,50.98,70.00,10.00,0.00,30.05,1014.40,10.00,22.00,CLR,M,M,M,M,M,M,M,M,KBLU 011052Z AUTO 07010G22KT 030V100 10SM CLR 06/M03 A3005 RMK AO2 SLP144 T00611033 TSNO
BLU,2017-04-01 10:55,-120.7097,39.2750,M,M,M,70.00,9.00,M,M,M,10.00,14.00,CLR,M,M,M,M,M,M,M,M,KBLU 011055Z AUTO 07009G14KT 10SM CLR RMK WND 04V10  MADISHF
BLU,2017-04-01 11:00,-120.7097,39.2750,M,M,M,70.00,8.00,M,30.05,M,10.00,M,CLR,M,M,M,M,M,M,M,M,KBLU 011100Z AUTO 07008KT 10SM CLR A3005 RMK WND 04V11  MADISHF
BLU,2017-04-01 11:05,-120.7097,39.2750,M,M,M,80.00,9.00,M,30.05,M,10.00,14.00,CLR,M,M,M,M,M,M,M,M,KBLU 011105Z AUTO 08009G14KT 10SM CLR A3005 RMK WND 04V11  MADISHF
BLU,2017-04-01 11:10,-120.7097,39.2750,M,M,M,70.00,10.00,M,30.05,M,10.00,18.00,CLR,M,M,M,M,M,M,M,M,KBLU 011110Z AUTO 07010G18KT 10SM CLR A3005 RMK WND 03V12  MADISHF
BLU,2017-04-01 11:15,-120.7097,39.2750,M,M,M,70.00,6.00,M,30.06,M,10.00,M,CLR,M,M,M,M,M,M,M,M,KBLU 011115Z AUTO 07006KT 10SM CLR A3006 RMK VRB06G22KT  MADISHF
BLU,2017-04-01 11:20,-120.7097,39.2750,M,M,M,M,M,M,30.07,M,10.00,M,CLR,M,M,M,M,M,M,M,M,KBLU 011120Z AUTO /////KT 10SM CLR A3007 RMK MADISHF
BLU,2017-04-01 11:25,-120.7097,39.2750,M,M,M,60.00,8.00,M,30.08,M,10.00,M,CLR,M,M,M,M,M,M,M,M,KBLU 011125Z AUTO 06008KT 10SM CLR A3008 RMK WND 36V12  MADISHF
BLU,2017-04-01 11:30,-120.7097,39.2750,M,M,M,60.00,8.00,M,30.08,M,10.00,M,CLR,M,M,M,M,M,M,M,M,KBLU 011130Z AUTO 06008KT 10SM CLR A3008 RMK WND 03V09  MADISHF
BLU,2017-04-01 11:35,-120.7097,39.2750,M,M,M,50.00,10.00,M,30.08,M,10.00,M,CLR,M,M,M,M,M,M,M,M,KBLU 011135Z AUTO 05010KT 10SM CLR A3008 RMK WND 36V09  MADISHF
BLU,2017-04-01 11:40,-120.7097,39.2750,M,M,M,50.00,8.00,M,30.08,M,10.00,M,CLR,M,M,M,M,M,M,M,M,KBLU 011140Z AUTO 05008KT 10SM CLR A3008 RMK WND 02V09  MADISHF
BLU,2017-04-01 11:45,-120.7097,39.2750,M,M,M,60.00,7.00,M,30.08,M,10.00,M,CLR,M,M,M,M,M,M,M,M,KBLU 011145Z AUTO 06007KT 10SM CLR A3008 RMK WND 36V10  MADISHF
BLU,2017-04-01 11:50,-120.7097,39.2750,M,M,M,70.00,6.00,M,30.09,M,10.00,M,CLR,M,M,M,M,M,M,M,M,KBLU 011150Z AUTO 07006KT 10SM CLR A3009 RMK VRB06KT  MADISHF
BLU,2017-04-01 11:52,-120.7097,39.2750,43.00,25.00,48.70,80.00,8.00,0.00,30.09,1015.70,10.00,M,CLR,M,M,M,M,M,M,M,M,KBLU 011152Z AUTO 08008KT 060V130 10SM CLR 06/M04 A3009 RMK AO2 SLP157 T00611039 10072 20050 53002 TSNO
BLU,2017-04-01 11:55,-120.7097,39.2750,M,M,M,70.00,5.00,M,30.09,M,10.00,M,CLR,M,M,M,M,M,M,M,M,KBLU 011155Z AUTO 07005KT 10SM CLR A3009 RMK VRB05KT  MADISHF
BLU,2017-04-01 12:00,-120.7097,39.2750,M,M,M,90.00,7.00,M,30.09,M,10.00,M,CLR,M,M,M,M,M,M,M,M,KBLU 011200Z AUTO 09007KT 10SM CLR A3009 RMK WND 05V12  MADISHF
BLU,2017-04-01 12:05,-120.7097,39.2750,M,M,M,80.00,6.00,M,30.09,M,10.00,M,CLR,M,M,M,M,M,M,M,M,KBLU 011205Z AUTO 08006KT 10SM CLR A3009 RMK MADISHF
BLU,2017-04-01 12:10,-120.7097,39.2750,M,M,M,80.00,6.00,M,30.09,M,10.00,M,CLR,M,M,M,M,M,M,M,M,KBLU 011210Z AUTO 08006KT 10SM CLR A3009 RMK VRB06KT  MADISHF
BLU,2017-04-01 12:15,-120.7097,39.2750,M,M,M,80.00,5.00,M,30.09,M,10.00,M,CLR,M,M,M,M,M,M,M,M,KBLU 011215Z AUTO 08005KT 10SM CLR A3009 RMK MADISHF
BLU,2017-04-01 12:20,-120.7097,39.2750,M,M,M,70.00,4.00,M,30.09,M,10.00,M,CLR,M,M,M,M,M,M,M,M,KBLU 011220Z AUTO 07004KT 10SM CLR A3009 RMK MADISHF
BLU,2017-04-01 12:25,-120.7097,39.2750,M,M,M,60.00,4.00,M,30.09,M,10.00,M,CLR,M,M,M,M,M,M,M,M,KBLU 011225Z AUTO 06004KT 10SM CLR A3009 RMK MADISHF
BLU,2017-04-01 12:30,-120.7097,39.2750,M,M,M,60.00,6.00,M,30.09,M,10.00,M,CLR,M,M,M,M,M,M,M,M,KBLU 011230Z AUTO 06006KT 10SM CLR A3009 RMK VRB06KT  MADISHF
BLU,2017-04-01 12:35,-120.7097,39.2750,M,M,M,60.00,5.00,M,30.09,M,10.00,M,CLR,M,M,M,M,M,M,M,M,KBLU 011235Z AUTO 06005KT 10SM CLR A3009 RMK VRB05KT  MADISHF
BLU,2017-04-01 12:40,-120.7097,39.2750,M,M,M,50.00,6.00,M,30.09,M,10.00,M,CLR,M,M,M,M,M,M,M,M,KBLU 011240Z AUTO 05006KT 10SM CLR A3009 RMK VRB06KT  MADISHF
BLU,2017-04-01 12:45,-120.7097,39.2750,M,M,M,60.00,6.00,M,30.09,M,10.00,M,CLR,M,M,M,M,M,M,M,M,KBLU 011245Z AUTO 06006KT 10SM CLR A3009 RMK VRB06KT  MADISHF
BLU,2017-04-01 12:50,-120.7097,39.2750,M,M,M,60.00,7.00,M,30.10,M,10.00,M,CLR,M,M,M,M,M,M,M,M,KBLU 011250Z AUTO 06007KT 10SM CLR A3010 RMK WND 02V10  MADISHF
BLU,2017-04-01 12:52,-120.7097,39.2750,42.10,26.10,52.78,M,6.00,0.00,30.10,1016.10,10.00,M,CLR,M,M,M,M,M,M,M,M,KBLU 011252Z AUTO VRB06KT 10SM CLR 06/M03 A3010 RMK AO2 SLP161 T00561033 TSNO
BLU,2017-04-01 12:55,-120.7097,39.2750,M,M,M,60.00,6.00,M,M,M,10.00,M,CLR,M,M,M,M,M,M,M,M,KBLU 011255Z AUTO 06006KT 10SM CLR RMK VRB06KT  MADISHF
BLU,2017-04-01 13:00,-120.7097,39.2750,M,M,M,60.00,7.00,M,30.10,M,10.00,M,CLR,M,M,M,M,M,M,M,M,KBLU 011300Z AUTO 06007KT 10SM CLR A3010 RMK WND 03V09  MADISHF
BLU,2017-04-01 13:05,-120.7097,39.2750,M,M,M,70.00,7.00,M,30.09,M,10.00,M,CLR,M,M,M,M,M,M,M,M,KBLU 011305Z AUTO 07007KT 10SM CLR A3009 RMK MADISHF
BLU,2017-04-01 13:10,-120.7097,39.2750,M,M,M,70.00,8.00,M,30.09,M,10.00,M,CLR,M,M,M,M,M,M,M,M,KBLU 011310Z AUTO 07008KT 10SM CLR A3009 RMK WND 03V11  MADISHF
BLU,2017-04-01 13:15,-120.7097,39.2750,M,M,M,60.00,6.00,M,30.09,M,10.00,M,CLR,M,M,M,M,M,M,M,M,KBLU 011315Z AUTO 06006KT 10SM CLR A3009 RMK VRB06KT  MADISHF
BLU,2017-04-01 13:20,-120.7097,39.2750,M,M,M,70.00,7.00,M,30.09,M,10.00,M,CLR,M,M,M,M,M,M,M,M,KBLU 011320Z AUTO 07007KT 10SM CLR A3009 RMK MADISHF
BLU,2017-04-01 13:25,-120.7097,39.2750,M,M,M,70.00,5.00,M,30.09,M,10.00,M,CLR,M,M,M,M,M,M,M,M,KBLU 011325Z AUTO 07005KT 10SM CLR A3009 RMK VRB05KT  MADISHF
BLU,2017-04-01 13:30,-120.7097,39.2750,M,M,M,60.00,5.00,M,30.09,M,10.00,M,CLR,M,M,M,M,M,M,M,M,KBLU 011330Z AUTO 06005KT 10SM CLR A3009 RMK VRB05KT  MADISHF
BLU,2017-04-01 13:35,-120.7097,39.2750,M,M,M,70.00,4.00,M,30.09,M,10.00,M,CLR,M,M,M,M,M,M,M,M,KBLU 011335Z AUTO 07004KT 10SM CLR A3009 RMK VRB04KT  MADISHF
BLU,2017-04-01 13:40,-120.7097,39.2750,M,M,M,70.00,5.00,M,30.09,M,10.00,M,CLR,M,M,M,M,M,M,M,M,KBLU 011340Z AUTO 07005KT 10SM CLR A3009 RMK MADISHF
BLU,2017-04-01 13:45,-120.7097,39.2750,M,M,M,70.00,7.00,M,30.09,M,10.00,M,CLR,M,M,M,M,M,M,M,M,KBLU 011345Z AUTO 07007KT 10SM CLR A3009 RMK WND 04V10  MADISHF
BLU,2017-04-01 13:50,-120.7097,39.2750,M,M,M,70.00,6.00,M,30.09,M,10.00,M,CLR,M,M,M,M,M,M,M,M,KBLU 011350Z AUTO 07006KT 10SM CLR A3009 RMK VRB06KT  MADISHF
BLU,2017-04-01 13:52,-120.7097,39.2750,42.10,25.00,50.42,M,6.00,0.00,30.09,1016.20,10.00,M,CLR,M,M,M,M,M,M,M,M,KBLU 011352Z AUTO VRB06KT 10SM CLR 06/M04 A3009 RMK AO2 SLP162 T00561039 TSNO
BLU,2017-04-01 13:55,-120.7097,39.2750,M,M,M,70.00,7.00,M,30.09,M,10.00,M,CLR,M,M,M,M,M,M,M,M,KBLU 011355Z AUTO 07007KT 10SM CLR A3009 RMK WND 01V11  MADISHF
BLU,2017-04-01 14:00,-120.7097,39.2750,M,M,M,70.00,7.00,M,30.09,M,10.00,M,CLR,M,M,M,M,M,M,M,M,KBLU 011400Z AUTO 07007KT 10SM CLR A3009 RMK WND 02V12  MADISHF
BLU,2017-04-01 14:05,-120.7097,39.2750,M,M,M,60.00,9.00,M,30.08,M,10.00,15.00,CLR,M,M,M,M,M,M,M,M,KBLU 011405Z AUTO 06009G15KT 10SM CLR A3008 RMK WND 03V09  MADISHF
BLU,2017-04-01 14:10,-120.7097,39.2750,M,M,M,60.00,9.00,M,30.08,M,10.00,17.00,CLR,M,M,M,M,M,M,M,M,KBLU 011410Z AUTO 06009G17KT 10SM CLR A3008 RMK WND 04V10  MADISHF
BLU,2017-04-01 14:15,-120.7097,39.2750,M,M,M,70.00,11.00,M,30.08,M,10.00,16.00,CLR,M,M,M,M,M,M,M,M,KBLU 011415Z AUTO 07011G16KT 10SM CLR A3008 RMK WND 03V10  MADISHF
BLU,2017-04-01 14:20,-120.7097,39.2750,M,M,M,60.00,9.00,M,30.08,M,10.00,16.00,CLR,M,M,M,M,M,M,M,M,KBLU 011420Z AUTO 06009G16KT 10SM CLR A3008 RMK MADISHF
BLU,2017-04-01 14:25,-120.7097,39.2750,M,M,M,60.00,8.00,M,30.08,M,10.00,M,CLR,M,M,M,M,M,M,M,M,KBLU 011425Z AUTO 06008KT 10SM CLR A3008 RMK WND 31V11  MADISHF
BLU,2017-04-01 14:30,-120.7097,39.2750,M,M,M,60.00,8.00,M,30.09,M,10.00,M,CLR,M,M,M,M,M,M,M,M,KBLU 011430Z AUTO 06008KT 10SM CLR A3009 RMK WND 01V11  MADISHF
BLU,2017-04-01 14:35,-120.7097,39.2750,M,M,M,70.00,10.00,M,30.09,M,10.00,M,CLR,M,M,M,M,M,M,M,M,KBLU 011435Z AUTO 07010KT 10SM CLR A3009 RMK WND 04V11  MADISHF
BLU,2017-04-01 14:40,-120.7097,39.2750,M,M,M,50.00,7.00,M,M,M,10.00,M,CLR,M,M,M,M,M,M,M,M,KBLU 011440Z AUTO 05007KT 10SM CLR RMK WND 02V10  MADISHF
BLU,2017-04-01 14:45,-120.7097,39.2750,M,M,M,60.00,8.00,M,M,M,10.00,M,CLR,M,M,M,M,M,M,M,M,KBLU 011445Z AUTO 06008KT 10SM CLR RMK WND 01V11  MADISHF
BLU,2017-04-01 14:50,-120.7097,39.2750,M,M,M,50.00,7.00,M,M,M,10.00,M,CLR,M,M,M,M,M,M,M,M,KBLU 011450Z AUTO 05007KT 10SM CLR RMK WND 01V10  MADISHF
BLU,2017-04-01 14:52,-120.7097,39.2750,45.00,25.00,45.12,50.00,7.00,0.00,30.11,1016.70,10.00,M,CLR,M,M,M,M,M,M,M,M,KBLU 011452Z AUTO 05007KT 350V090 10SM CLR 07/M04 A3011 RMK AO2 SLP167 T00721039 53004 TSNO
BLU,2017-04-01 14:55,-120.7097,39.2750,M,M,M,50.00,6.00,M,M,M,10.00,M,CLR,M,M,M,M,M,M,M,M,KBLU 011455Z AUTO 05006KT 10SM CLR RMK VRB06KT  MADISHF
BLU,2017-04-01 15:00,-120.7097,39.2750,M,M,M,60.00,7.00,M,30.11,M,10.00,M,CLR,M,M,M,M,M,M,M,M,KBLU 011500Z AUTO 06007KT 10SM CLR A3011 RMK WND 02V09  MADISHF
BLU,2017-04-01 15:05,-120.7097,39.2750,M,M,M,50.00,6.00,M,30.11,M,10.00,M,CLR,M,M,M,M,M,M,M,M,KBLU 011505Z AUTO 05006KT 10SM CLR A3011 RMK VRB06G16KT  MADISHF
BLU,2017-04-01 15:10,-120.7097,39.2750,M,M,M,50.00,8.00,M,30.11,M,10.00,M,CLR,M,M,M,M,M,M,M,M,KBLU 011510Z AUTO 05008KT 10SM CLR A3011 RMK WND 01V09  MADISHF
BLU,2017-04-01 15:15,-120.7097,39.2750,M,M,M,60.00,8.00,M,30.11,M,10.00,M,CLR,M,M,M,M,M,M,M,M,KBLU 011515Z AUTO 06008KT 10SM CLR A3011 RMK WND 36V09  MADISHF
BLU,2017-04-01 15:20,-120.7097,39.2750,M,M,M,70.00,8.00,M,30.11,M,10.00,M,CLR,M,M,M,M,M,M,M,M,KBLU 011520Z AUTO 07008KT 10SM CLR A3011 RMK MADISHF
BLU,2017-04-01 15:25,-120.7097,39.2750,M,M,M,60.00,10.00,M,30.11,M,10.00,M,CLR,M,M,M,M,M,M,M,M,KBLU 011525Z AUTO 06010KT 10SM CLR A3011 RMK WND 04V10  MADISHF
BLU,2017-04-01 15:30,-120.7097,39.2750,M,M,M,70.00,9.00,M,30.11,M,10.00,17.00,CLR,M,M,M,M,M,M,M,M,KBLU 011530Z AUTO 07009G17KT 10SM CLR A3011 RMK WND 02V12  MADISHF
BLU,2017-04-01 15:35,-120.7097,39.2750,M,M,M,70.00,9.00,M,30.11,M,10.00,19.00,CLR,M,M,M,M,M,M,M,M,KBLU 011535Z AUTO 07009G19KT 10SM CLR A3011 RMK WND 04V11  MADISHF
BLU,2017-04-01 15:40,-120.7097,39.2750,M,M,M,60.00,9.00,M,30.11,M,10.00,M,CLR,M,M,M,M,M,M,M,M,KBLU 011540Z AUTO 06009KT 10SM CLR A3011 RMK MADISHF
BLU,2017-04-01 15:45,-120.7097,39.2750,M,M,M,60.00,8.00,M,M,M,10.00,M,CLR,M,M,M,M,M,M,M,M,KBLU 011545Z AUTO 06008KT 10SM CLR RMK WND 35V09  MADISHF
BLU,2017-04-01 15:50,-120.7097,39.2750,M,M,M,70.00,9.00,M,M,M,10.00,17.00,CLR,M,M,M,M,M,M,M,M,KBLU 011550Z AUTO 07009G17KT 10SM CLR RMK WND 02V10  MADISHF
BLU,2017-04-01 15:52,-120.7097,39.2750,48.00,25.00,40.29,70.00,7.00,0.00,30.12,1016.90,10.00,17.00,CLR,M,M,M,M,M,M,M,M,KBLU 011552Z AUTO 07007G17KT 030V130 10SM CLR 09/M04 A3012 RMK AO2 SLP169 T00891039 TSNO
BLU,2017-04-01 15:55,-120.7097,39.2750,M,M,M,60.00,8.00,M,M,M,10.00,M,CLR,M,M,M,M,M,M,M,M,KBLU 011555Z AUTO 06008KT 10SM CLR RMK WND 02V11  MADISHF
BLU,2017-04-01 16:00,-120.7097,39.2750,M,M,M,50.00,8.00,M,30.12,M,10.00,M,CLR,M,M,M,M,M,M,M,M,KBLU 011600Z AUTO 05008KT 10SM CLR A3012 RMK WND 02V10  MADISHF
BLU,2017-04-01 16:05,-120.7097,39.2750,M,M,M,80.00,7.00,M,30.12,M,10.00,M,CLR,M,M,M,M,M,M,M,M,KBLU 011605Z AUTO 08007KT 10SM CLR A3012 RMK WND 02V11  MADISHF
BLU,2017-04-01 16:10,-120.7097,39.2750,M,M,M,80.00,7.00,M,30.12,M,10.00,M,CLR,M,M,M,M,M,M,M,M,KBLU 011610Z AUTO 08007KT 10SM CLR A3012 RMK WND 03V12  MADISHF
BLU,2017-04-01 16:15,-120.7097,39.2750,M,M,M,90.00,6.00,M,30.12,M,10.00,M,CLR,M,M,M,M,M,M,M,M,KBLU 011615Z AUTO 09006KT 10SM CLR A3012 RMK MADISHF
BLU,2017-04-01 16:20,-120.7097,39.2750,M,M,M,70.00,8.00,M,30.13,M,10.00,M,CLR,M,M,M,M,M,M,M,M,KBLU 011620Z AUTO 07008KT 10SM CLR A3013 RMK WND 03V10  MADISHF
BLU,2017-04-01 16:25,-120.7097,39.2750,M,M,M,80.00,7.00,M,30.13,M,10.00,M,CLR,M,M,M,M,M,M,M,M,KBLU 011625Z AUTO 08007KT 10SM CLR A3013 RMK WND 05V13  MADISHF
BLU,2017-04-01 16:30,-120.7097,39.2750,M,M,M,80.00,7.00,M,30.13,M,10.00,M,CLR,M,M,M,M,M,M,M,M,KBLU 011630Z AUTO 08007KT 10SM CLR A3013 RMK WND 04V12  MADISHF
BLU,2017-04-01 16:35,-120.7097,39.2750,M,M,M,60.00,6.00,M,30.13,M,10.00,M,CLR,M,M,M,M,M,M,M,M,KBLU 011635Z AUTO 06006KT 10SM CLR A3013 RMK VRB06KT  MADISHF
BLU,2017-04-01 16:40,-120.7097,39.2750,M,M,M,80.00,5.00,M,M,M,10.00,M,CLR,M,M,M,M,M,M,M,M,KBLU 011640Z AUTO 08005KT 10SM CLR RMK VRB05KT  MADISHF
BLU,2017-04-01 16:45,-120.7097,39.2750,M,M,M,80.00,5.00,M,M,M,10.00,M,CLR,M,M,M,M,M,M,M,M,KBLU 011645Z AUTO 08005KT 10SM CLR RMK VRB05KT  MADISHF
BLU,2017-04-01 16:50,-120.7097,39.2750,M,M,M,70.00,6.00,M,M,M,10.00,M,CLR,M,M,M,M,M,M,M,M,KBLU 011650Z AUTO 07006KT 10SM CLR RMK VRB06KT  MADISHF
BLU,2017-04-01 16:52,-120.7097,39.2750,52.00,25.00,34.72,M,4.00,0.00,30.13,1016.90,10.00,M,CLR,M,M,M,M,M,M,M,M,KBLU 011652Z AUTO VRB04KT 10SM CLR 11/M04 A3013 RMK AO2 SLP169 T01111039 TSNO
BLU,2017-04-01 16:55,-120.7097,39.2750,M,M,M,M,M,M,30.13,M,10.00,M,CLR,M,M,M,M,M,M,M,M,KBLU 011655Z AUTO /////KT 10SM CLR A3013 RMK MADISHF
BLU,2017-04-01 17:00,-120.7097,39.2750,M,M,M,80.00,9.00,M,30.13,M,10.00,M,CLR,M,M,M,M,M,M,M,M,KBLU 011700Z AUTO 08009KT 10SM CLR A3013 RMK WND 05V12  MADISHF
BLU,2017-04-01 17:05,-120.7097,39.2750,M,M,M,60.00,5.00,M,30.13,M,10.00,M,CLR,M,M,M,M,M,M,M,M,KBLU 011705Z AUTO 06005KT 10SM CLR A3013 RMK VRB05KT  MADISHF
BLU,2017-04-01 17:10,-120.7097,39.2750,M,M,M,70.00,5.00,M,30.13,M,10.00,M,CLR,M,M,M,M,M,M,M,M,KBLU 011710Z AUTO 07005KT 10SM CLR A3013 RMK VRB05KT  MADISHF
BLU,2017-04-01 17:15,-120.7097,39.2750,M,M,M,80.00,3.00,M,30.13,M,10.00,M,CLR,M,M,M,M,M,M,M,M,KBLU 011715Z AUTO 08003KT 10SM CLR A3013 RMK VRB03KT  MADISHF
BLU,2017-04-01 17:20,-120.7097,39.2750,M,M,M,80.00,4.00,M,30.13,M,10.00,M,CLR,M,M,M,M,M,M,M,M,KBLU 011720Z AUTO 08004KT 10SM CLR A3013 RMK VRB04KT  MADISHF
BLU,2017-04-01 17:25,-120.7097,39.2750,M,M,M,70.00,3.00,M,30.13,M,10.00,M,CLR,M,M,M,M,M,M,M,M,KBLU 011725Z AUTO 07003KT 10SM CLR A3013 RMK VRB03KT  MADISHF
BLU,2017-04-01 17:30,-120.7097,39.2750,M,M,M,90.00,5.00,M,30.14,M,10.00,M,CLR,M,M,M,M,M,M,M,M,KBLU 011730Z AUTO 09005KT 10SM CLR A3014 RMK VRB05KT  MADISHF
BLU,2017-04-01 17:35,-120.7097,39.2750,M,M,M,40.00,4.00,M,30.14,M,10.00,M,CLR,M,M,M,M,M,M,M,M,KBLU 011735Z AUTO 04004KT 10SM CLR A3014 RMK VRB04KT  MADISHF
BLU,2017-04-01 17:40,-120.7097,39.2750,M,M,M,70.00,9.00,M,M,M,10.00,14.00,CLR,M,M,M,M,M,M,M,M,KBLU 011740Z AUTO 07009G14KT 10SM CLR RMK MADISHF
BLU,2017-04-01 17:45,-120.7097,39.2750,M,M,M,70.00,7.00,M,M,M,10.00,M,CLR,M,M,M,M,M,M,M,M,KBLU 011745Z AUTO 07007KT 10SM CLR RMK WND 04V14  MADISHF
BLU,2017-04-01 17:50,-120.7097,39.2750,M,M,M,70.00,5.00,M,M,M,10.00,M,CLR,M,M,M,M,M,M,M,M,KBLU 011750Z AUTO 07005KT 10SM CLR RMK VRB05KT  MADISHF
BLU,2017-04-01 17:52,-120.7097,39.2750,55.90,24.10,29.00,M,4.00,0.00,30.14,1016.70,10.00,M,CLR,M,M,M,M,M,M,M,M,KBLU 011752Z AUTO VRB04KT 10SM CLR 13/M04 A3014 RMK AO2 SLP167 T01331044 10133 20050 51010 TSNO
BLU,2017-04-01 17:55,-120.7097,39.2750,M,M,M,60.00,5.00,M,30.14,M,10.00,M,CLR,M,M,M,M,M,M,M,M,KBLU 011755Z AUTO 06005KT 10SM CLR A3014 RMK VRB05KT  MADISHF
BLU,2017-04-01 18:00,-120.7097,39.2750,M,M,M,70.00,4.00,M,30.14,M,10.00,M,CLR,M,M,M,M,M,M,M,M,KBLU 011800Z AUTO 07004KT 10SM CLR A3014 RMK VRB04KT  MADISHF
BLU,2017-04-01 18:05,-120.7097,39.2750,M,M,M,70.00,4.00,M,30.14,M,10.00,M,CLR,M,M,M,M,M,M,M,M,KBLU 011805Z AUTO 07004KT 10SM CLR A3014 RMK VRB04KT  MADISHF
BLU,2017-04-01 18:10,-120.7097,39.2750,M,M,M,70.00,4.00,M,30.14,M,10.00,M,CLR,M,M,M,M,M,M,M,M,KBLU 011810Z AUTO 07004KT 10SM CLR A3014 RMK VRB04KT  MADISHF
BLU,2017-04-01 18:15,-120.7097,39.2750,M,M,M,70.00,4.00,M,30.14,M,10.00,M,CLR,M,M,M,M,M,M,M,M,KBLU 011815Z AUTO 07004KT 10SM CLR A3014 RMK VRB04KT  MADISHF
BLU,2017-04-01 18:20,-120.7097,39.2750,M,M,M,30.00,5.00,M,30.14,M,10.00,M,CLR,M,M,M,M,M,M,M,M,KBLU 011820Z AUTO 03005KT 10SM CLR A3014 RMK VRB05KT  MADISHF
BLU,2017-04-01 18:25,-120.7097,39.2750,M,M,M,0.00,0.00,M,30.14,M,10.00,M,CLR,M,M,M,M,M,M,M,M,KBLU 011825Z AUTO 00000KT 10SM CLR A3014 RMK MADISHF
BLU,2017-04-01 18:30,-120.7097,39.2750,M,M,M,50.00,4.00,M,30.14,M,10.00,M,CLR,M,M,M,M,M,M,M,M,KBLU 011830Z AUTO 05004KT 10SM CLR A3014 RMK VRB04KT  MADISHF
BLU,2017-04-01 18:35,-120.7097,39.2750,M,M,M,70.00,3.00,M,30.14,M,10.00,M,CLR,M,M,M,M,M,M,M,M,KBLU 011835Z AUTO 07003KT 10SM CLR A3014 RMK VRB03KT  MADISHF
BLU,2017-04-01 18:40,-120.7097,39.2750,M,M,M,80.00,7.00,M,30.14,M,10.00,M,CLR,M,M,M,M,M,M,M,M,KBLU 011840Z AUTO 08007KT 10SM CLR A3014 RMK WND 02V10  MADISHF
BLU,2017-04-01 18:45,-120.7097,39.2750,M,M,M,50.00,5.00,M,30.14,M,10.00,M,CLR,M,M,M,M,M,M,M,M,KBLU 011845Z AUTO 05005KT 10SM CLR A3014 RMK VRB05G14KT  MADISHF
BLU,2017-04-01 18:50,-120.7097,39.2750,M,M,M,60.00,7.00,M,30.14,M,10.00,M,CLR,M,M,M,M,M,M,M,M,KBLU 011850Z AUTO 06007KT 10SM CLR A3014 RMK WND 02V10  MADISHF
BLU,2017-04-01 18:52,-120.7097,39.2750,60.10,16.00,17.66,M,6.00,0.00,30.14,1015.70,10.00,M,CLR,M,M,M,M,M,M,M,M,KBLU 011852Z AUTO VRB06KT 10SM CLR 16/M09 A3014 RMK AO2 SLP157 T01561089 TSNO
BLU,2017-04-01 18:55,-120.7097,39.2750,M,M,M,70.00,9.00,M,30.14,M,10.00,M,CLR,M,M,M,M,M,M,M,M,KBLU 011855Z AUTO 07009KT 10SM CLR A3014 RMK WND 36V12  MADISHF
BLU,2017-04-01 19:00,-120.7097,39.2750,M,M,M,60.00,5.00,M,30.13,M,10.00,M,CLR,M,M,M,M,M,M,M,M,KBLU 011900Z AUTO 06005KT 10SM CLR A3013 RMK VRB05KT  MADISHF
BLU,2017-04-01 19:05,-120.7097,39.2750,M,M,M,50.00,4.00,M,30.13,M,10.00,M,CLR,M,M,M,M,M,M,M,M,KBLU 011905Z AUTO 05004KT 10SM CLR A3013 RMK VRB04KT  MADISHF
BLU,2017-04-01 19:10,-120.7097,39.2750,M,M,M,70.00,7.00,M,30.13,M,10.00,M,CLR,M,M,M,M,M,M,M,M,KBLU 011910Z AUTO 07007KT 10SM CLR A3013 RMK MADISHF
BLU,2017-04-01 19:15,-120.7097,39.2750,M,M,M,40.00,8.00,M,30.13,M,10.00,M,CLR,M,M,M,M,M,M,M,M,KBLU 011915Z AUTO 04008KT 10SM CLR A3013 RMK WND 35V09  MADISHF
BLU,2017-04-01 19:20,-120.7097,39.2750,M,M,M,M,M,M,30.13,M,10.00,M,CLR,M,M,M,M,M,M,M,M,KBLU 011920Z AUTO /////KT 10SM CLR A3013 RMK MADISHF
BLU,2017-04-01 19:25,-120.7097,39.2750,M,M,M,60.00,7.00,M,30.14,M,10.00,M,CLR,M,M,M,M,M,M,M,M,KBLU 011925Z AUTO 06007KT 10SM CLR A3014 RMK MADISHF
BLU,2017-04-01 19:30,-120.7097,39.2750,M,M,M,130.00,4.00,M,30.14,M,10.00,M,CLR,M,M,M,M,M,M,M,M,KBLU 011930Z AUTO 13004KT 10SM CLR A3014 RMK VRB04KT  MADISHF
BLU,2017-04-01 19:35,-120.7097,39.2750,M,M,M,350.00,8.00,M,30.14,M,10.00,M,CLR,M,M,M,M,M,M,M,M,KBLU 011935Z AUTO 35008KT 10SM CLR A3014 RMK WND 32V02  MADISHF
BLU,2017-04-01 19:40,-120.7097,39.2750,M,M,M,30.00,3.00,M,30.14,M,10.00,M,CLR,M,M,M,M,M,M,M,M,KBLU 011940Z AUTO 03003KT 10SM CLR A3014 RMK VRB03KT  MADISHF
BLU,2017-04-01 19:45,-120.7097,39.2750,M,M,M,0.00,0.00,M,30.14,M,10.00,M,CLR,M,M,M,M,M,M,M,M,KBLU 011945Z AUTO 00000KT 10SM CLR A3014 RMK MADISHF
BLU,2017-04-01 19:50,-120.7097,39.2750,M,M,M,M,M,M,30.14,M,10.00,M,CLR,M,M,M,M,M,M,M,M,KBLU 011950Z AUTO /////KT 10SM CLR A3014 RMK MADISHF
BLU,2017-04-01 19:52,-120.7097,39.2750,62.10,12.90,14.36,30.00,6.00,0.00,30.15,1016.00,10.00,M,CLR,M,M,M,M,M,M,M,M,KBLU 011952Z AUTO 03006KT 10SM CLR 17/M11 A3015 RMK AO2 SLP160 T01671106 TSNO
BLU,2017-04-01 19:55,-120.7097,39.2750,M,M,M,350.00,3.00,M,M,M,10.00,M,CLR,M,M,M,M,M,M,M,M,KBLU 011955Z AUTO 35003KT 10SM CLR RMK MADISHF
BLU,2017-04-01 20:00,-120.7097,39.2750,M,M,M,M,M,M,30.14,M,10.00,M,CLR,M,M,M,M,M,M,M,M,KBLU 012000Z AUTO /////KT 10SM CLR A3014 RMK MADISHF
BLU,2017-04-01 20:05,-120.7097,39.2750,M,M,M,40.00,4.00,M,30.14,M,10.00,M,CLR,M,M,M,M,M,M,M,M,KBLU 012005Z AUTO 04004KT 10SM CLR A3014 RMK VRB04KT  MADISHF
BLU,2017-04-01 20:10,-120.7097,39.2750,M,M,M,30.00,3.00,M,30.14,M,10.00,M,CLR,M,M,M,M,M,M,M,M,KBLU 012010Z AUTO 03003KT 10SM CLR A3014 RMK VRB03KT  MADISHF
BLU,2017-04-01 20:15,-120.7097,39.2750,M,M,M,90.00,6.00,M,30.14,M,10.00,M,CLR,M,M,M,M,M,M,M,M,KBLU 012015Z AUTO 09006KT 10SM CLR A3014 RMK VRB06KT  MADISHF
BLU,2017-04-01 20:20,-120.7097,39.2750,M,M,M,70.00,4.00,M,30.14,M,10.00,M,CLR,M,M,M,M,M,M,M,M,KBLU 012020Z AUTO 07004KT 10SM CLR A3014 RMK VRB04KT  MADISHF
BLU,2017-04-01 20:25,-120.7097,39.2750,M,M,M,60.00,3.00,M,30.14,M,10.00,M,CLR,M,M,M,M,M,M,M,M,KBLU 012025Z AUTO 06003KT 10SM CLR A3014 RMK VRB03KT  MADISHF
BLU,2017-04-01 20:30,-120.7097,39.2750,M,M,M,M,M,M,30.14,M,10.00,M,CLR,M,M,M,M,M,M,M,M,KBLU 012030Z AUTO /////KT 10SM CLR A3014 RMK MADISHF
BLU,2017-04-01 20:35,-120.7097,39.2750,M,M,M,40.00,6.00,M,30.14,M,10.00,M,CLR,M,M,M,M,M,M,M,M,KBLU 012035Z AUTO 04006KT 10SM CLR A3014 RMK MADISHF
BLU,2017-04-01 20:40,-120.7097,39.2750,M,M,M,120.00,3.00,M,30.14,M,10.00,M,CLR,M,M,M,M,M,M,M,M,KBLU 012040Z AUTO 12003KT 10SM CLR A3014 RMK VRB03KT  MADISHF
BLU,2017-04-01 20:45,-120.7097,39.2750,M,M,M,150.00,3.00,M,30.14,M,10.00,M,CLR,M,M,M,M,M,M,M,M,KBLU 012045Z AUTO 15003KT 10SM CLR A3014 RMK VRB03KT  MADISHF
BLU,2017-04-01 20:50,-120.7097,39.2750,M,M,M,100.00,5.00,M,30.15,M,10.00,M,CLR,M,M,M,M,M,M,M,M,KBLU 012050Z AUTO 10005KT 10SM CLR A3015 RMK MADISHF
BLU,2017-04-01 20:52,-120.7097,39.2750,63.00,14.00,14.60,M,3.00,0.00,30.15,1016.00,10.00,M,CLR,M,M,M,M,M,M,M,M,KBLU 012052Z AUTO VRB03KT 10SM CLR 17/M10 A3015 RMK AO2 SLP160 T01721100 53001 TSNO
BLU,2017-04-01 20:55,-120.7097,39.2750,M,M,M,0.00,0.00,M,M,M,10.00,M,CLR,M,M,M,M,M,M,M,M,KBLU 012055Z AUTO 00000KT 10SM CLR RMK MADISHF
BLU,2017-04-01 21:00,-120.7097,39.2750,M,M,M,80.00,3.00,M,30.14,M,10.00,M,CLR,M,M,M,M,M,M,M,M,KBLU 012100Z AUTO 08003KT 10SM CLR A3014 RMK VRB03KT  MADISHF
BLU,2017-04-01 21:05,-120.7097,39.2750,M,M,M,100.00,3.00,M,30.14,M,10.00,M,CLR,M,M,M,M,M,M,M,M,KBLU 012105Z AUTO 10003KT 10SM CLR A3014 RMK VRB03KT  MADISHF
BLU,2017-04-01 21:10,-120.7097,39.2750,M,M,M,20.00,4.00,M,30.14,M,10.00,M,CLR,M,M,M,M,M,M,M,M,KBLU 012110Z AUTO 02004KT 10SM CLR A3014 RMK VRB04KT  MADISHF
BLU,2017-04-01 21:15,-120.7097,39.2750,M,M,M,0.00,0.00,M,30.14,M,10.00,M,CLR,M,M,M,M,M,M,M,M,KBLU 012115Z AUTO 00000KT 10SM CLR A3014 RMK MADISHF
BLU,2017-04-01 21:20,-120.7097,39.2750,M,M,M,260.00,3.00,M,30.14,M,10.00,M,CLR,M,M,M,M,M,M,M,M,KBLU 012120Z AUTO 26003KT 10SM CLR A3014 RMK VRB03KT  MADISHF
BLU,2017-04-01 21:25,-120.7097,39.2750,M,M,M,150.00,3.00,M,30.14,M,10.00,M,CLR,M,M,M,M,M,M,M,M,KBLU 012125Z AUTO 15003KT 10SM CLR A3014 RMK VRB03KT  MADISHF
BLU,2017-04-01 21:30,-120.7097,39.2750,M,M,M,210.00,3.00,M,30.14,M,10.00,M,CLR,M,M,M,M,M,M,M,M,KBLU 012130Z AUTO 21003KT 10SM CLR A3014 RMK VRB03KT  MADISHF
BLU,2017-04-01 21:35,-120.7097,39.2750,M,M,M,0.00,0.00,M,30.14,M,10.00,M,CLR,M,M,M,M,M,M,M,M,KBLU 012135Z AUTO 00000KT 10SM CLR A3014 RMK MADISHF
BLU,2017-04-01 21:40,-120.7097,39.2750,M,M,M,40.00,3.00,M,M,M,10.00,M,CLR,M,M,M,M,M,M,M,M,KBLU 012140Z AUTO 04003KT 10SM CLR RMK VRB03KT  MADISHF
BLU,2017-04-01 21:45,-120.7097,39.2750,M,M,M,330.00,5.00,M,M,M,10.00,M,CLR,M,M,M,M,M,M,M,M,KBLU 012145Z AUTO 33005KT 10SM CLR RMK VRB05KT  MADISHF
BLU,2017-04-01 21:50,-120.7097,39.2750,M,M,M,0.00,0.00,M,M,M,10.00,M,CLR,M,M,M,M,M,M,M,M,KBLU 012150Z AUTO 00000KT 10SM CLR RMK MADISHF
BLU,2017-04-01 21:52,-120.7097,39.2750,63.00,30.90,29.77,270.00,6.00,0.00,30.14,1015.40,10.00,M,CLR,M,M,M,M,M,M,M,M,KBLU 012152Z AUTO 27006KT 10SM CLR 17/M01 A3014 RMK AO2 SLP154 T01721006 TSNO
BLU,2017-04-01 21:55,-120.7097,39.2750,M,M,M,270.00,5.00,M,M,M,10.00,M,CLR,M,M,M,M,M,M,M,M,KBLU 012155Z AUTO 27005KT 10SM CLR RMK MADISHF
BLU,2017-04-01 22:00,-120.7097,39.2750,M,M,M,220.00,4.00,M,30.13,M,10.00,M,CLR,M,M,M,M,M,M,M,M,KBLU 012200Z AUTO 22004KT 10SM CLR A3013 RMK MADISHF
BLU,2017-04-01 22:05,-120.7097,39.2750,M,M,M,200.00,4.00,M,30.13,M,10.00,M,CLR,M,M,M,M,M,M,M,M,KBLU 012205Z AUTO 20004KT 10SM CLR A3013 RMK VRB04KT  MADISHF
BLU,2017-04-01 22:10,-120.7097,39.2750,M,M,M,230.00,4.00,M,30.13,M,10.00,M,CLR,M,M,M,M,M,M,M,M,KBLU 012210Z AUTO 23004KT 10SM CLR A3013 RMK MADISHF
BLU,2017-04-01 22:15,-120.7097,39.2750,M,M,M,240.00,7.00,M,30.13,M,10.00,M,CLR,M,M,M,M,M,M,M,M,KBLU 012215Z AUTO 24007KT 10SM CLR A3013 RMK MADISHF
BLU,2017-04-01 22:20,-120.7097,39.2750,M,M,M,260.00,5.00,M,30.13,M,10.00,M,CLR,M,M,M,M,M,M,M,M,KBLU 012220Z AUTO 26005KT 10SM CLR A3013 RMK MADISHF
BLU,2017-04-01 22:25,-120.7097,39.2750,M,M,M,270.00,8.00,M,30.13,M,10.00,M,CLR,M,M,M,M,M,M,M,M,KBLU 012225Z AUTO 27008KT 10SM CLR A3013 RMK MADISHF
BLU,2017-04-01 22:30,-120.7097,39.2750,M,M,M,290.00,5.00,M,30.13,M,10.00,M,CLR,M,M,M,M,M,M,M,M,KBLU 012230Z AUTO 29005KT 10SM CLR A3013 RMK MADISHF
BLU,2017-04-01 22:35,-120.7097,39.2750,M,M,M,280.00,4.00,M,30.13,M,10.00,M,CLR,M,M,M,M,M,M,M,M,KBLU 012235Z AUTO 28004KT 10SM CLR A3013 RMK VRB04KT  MADISHF
BLU,2017-04-01 22:40,-120.7097,39.2750,M,M,M,320.00,5.00,M,M,M,10.00,M,CLR,M,M,M,M,M,M,M,M,KBLU 012240Z AUTO 32005KT 10SM CLR RMK VRB05KT  MADISHF
BLU,2017-04-01 22:45,-120.7097,39.2750,M,M,M,320.00,6.00,M,30.12,M,10.00,M,CLR,M,M,M,M,M,M,M,M,KBLU 012245Z AUTO 32006KT 10SM CLR A3012 RMK VRB06KT  MADISHF
BLU,2017-04-01 22:50,-120.7097,39.2750,M,M,M,320.00,4.00,M,M,M,10.00,M,CLR,M,M,M,M,M,M,M,M,KBLU 012250Z AUTO 32004KT 10SM CLR RMK VRB04KT  MADISHF
BLU,2017-04-01 22:52,-120.7097,39.2750,64.90,36.00,34.17,310.00,5.00,0.00,30.13,1015.00,10.00,M,CLR,M,M,M,M,M,M,M,M,KBLU 012252Z AUTO 31005KT 10SM CLR 18/02 A3013 RMK AO2 SLP150 T01830022 TSNO
BLU,2017-04-01 22:55,-120.7097,39.2750,M,M,M,0.00,0.00,M,M,M,10.00,M,CLR,M,M,M,M,M,M,M,M,KBLU 012255Z AUTO 00000KT 10SM CLR RMK MADISHF
BLU,2017-04-01 23:00,-120.7097,39.2750,M,M,M,280.00,5.00,M,30.13,M,10.00,M,CLR,M,M,M,M,M,M,M,M,KBLU 012300Z AUTO 28005KT 10SM CLR A3013 RMK VRB05KT  MADISHF
BLU,2017-04-01 23:05,-120.7097,39.2750,M,M,M,270.00,7.00,M,30.13,M,10.00,M,CLR,M,M,M,M,M,M,M,M,KBLU 012305Z AUTO 27007KT 10SM CLR A3013 RMK MADISHF
BLU,2017-04-01 23:10,-120.7097,39.2750,M,M,M,260.00,7.00,M,30.13,M,10.00,M,CLR,M,M,M,M,M,M,M,M,KBLU 012310Z AUTO 26007KT 10SM CLR A3013 RMK WND 23V30  MADISHF
BLU,2017-04-01 23:15,-120.7097,39.2750,M,M,M,270.00,4.00,M,30.13,M,10.00,M,CLR,M,M,M,M,M,M,M,M,KBLU 012315Z AUTO 27004KT 10SM CLR A3013 RMK MADISHF
BLU,2017-04-01 23:20,-120.7097,39.2750,M,M,M,220.00,3.00,M,30.13,M,10.00,M,CLR,M,M,M,M,M,M,M,M,KBLU 012320Z AUTO 22003KT 10SM CLR A3013 RMK VRB03KT  MADISHF
BLU,2017-04-01 23:25,-120.7097,39.2750,M,M,M,40.00,6.00,M,30.14,M,10.00,M,CLR,M,M,M,M,M,M,M,M,KBLU 012325Z AUTO 04006KT 10SM CLR A3014 RMK VRB06KT  MADISHF
BLU,2017-04-01 23:30,-120.7097,39.2750,M,M,M,50.00,8.00,M,30.14,M,10.00,M,CLR,M,M,M,M,M,M,M,M,KBLU 012330Z AUTO 05008KT 10SM CLR A3014 RMK WND 01V07  MADISHF
BLU,2017-04-01 23:35,-120.7097,39.2750,M,M,M,30.00,4.00,M,30.14,M,10.00,M,CLR,M,M,M,M,M,M,M,M,KBLU 012335Z AUTO 03004KT 10SM CLR A3014 RMK VRB04G14KT  MADISHF
BLU,2017-04-01 23:40,-120.7097,39.2750,M,M,M,40.00,5.00,M,30.14,M,10.00,M,CLR,M,M,M,M,M,M,M,M,KBLU 012340Z AUTO 04005KT 10SM CLR A3014 RMK VRB05KT  MADISHF
BLU,2017-04-01 23:45,-120.7097,39.2750,M,M,M,30.00,7.00,M,30.14,M,10.00,M,CLR,M,M,M,M,M,M,M,M,KBLU 012345Z AUTO 03007KT 10SM CLR A3014 RMK MADISHF
BLU,2017-04-01 23:50,-120.7097,39.2750,M,M,M,60.00,5.00,M,30.14,M,10.00,M,CLR,M,M,M,M,M,M,M,M,KBLU 012350Z AUTO 06005KT 10SM CLR A3014 RMK VRB05KT  MADISHF
BLU,2017-04-01 23:52,-120.7097,39.2750,63.00,26.10,24.46,M,6.00,0.00,30.14,1015.70,10.00,M,CLR,M,M,M,M,M,M,M,M,KBLU 012352Z AUTO VRB06KT 10SM CLR 17/M03 A3014 RMK AO2 SLP157 T01721033 10189 20139 55003 TSNO
BLU,2017-04-01 23:55,-120.7097,39.2750,M,M,M,50.00,7.00,M,30.14,M,10.00,M,CLR,M,M,M,M,M,M,M,M,KBLU 012355Z AUTO 05007KT 10SM CLR A3014 RMK WND 01V09  MADISHF
