#DEBUG: Format Typ    -> comma
#DEBUG: Time Period   -> 2017-04-01 00:00:00+00:00 2017-04-02 00:00:00+00:00
#DEBUG: Time Zone     -> Etc/UTC
#DEBUG: Data Contact   -> daryl herzmann akrherz@iastate.edu 515-294-5978
#DEBUG: Entries Found -> -1
station,valid,lon,lat,tmpf, dwpf, relh, drct, sknt, p01i, alti, mslp, vsby, gust, skyc1, skyc2, skyc3, skyc4, skyl1, skyl2, skyl3, skyl4, presentwx, metar
BMG,2017-04-01 00:00,-86.6167,39.1460,M,M,M,310.00,7.00,M,29.93,M,10.00,M,OVC,M,M,M,700.00,M,M,M,M,KBMG 010000Z AUTO 31007KT 10SM OVC007 A2993 RMK MADISHF
BMG,2017-04-01 00:05,-86.6167,39.1460,M,M,M,310.00,6.00,M,29.93,M,10.00,M,OVC,M,M,M,700.00,M,M,M,M,KBMG 010005Z AUTO 31006KT 10SM OVC007 A2993 RMK MADISHF
BMG,2017-04-01 00:10,-86.6167,39.1460,M,M,M,310.00,5.00,M,29.93,M,10.00,M,OVC,M,M,M,700.00,M,M,M,M,KBMG 010010Z AUTO 31005KT 10SM OVC007 A2993 RMK VRB05KT  MADISHF
BMG,2017-04-01 00:15,-86.6167,39.1460,M,M,M,300.00,6.00,M,29.93,M,10.00,M,OVC,M,M,M,700.00,M,M,M,M,KBMG 010015Z AUTO 30006KT 10SM OVC007 A2993 RMK MADISHF
BMG,2017-04-01 00:20,-86.6167,39.1460,M,M,M,310.00,8.00,M,29.93,M,10.00,M,OVC,M,M,M,800.00,M,M,M,M,KBMG 010020Z AUTO 31008KT 10SM OVC008 A2993 RMK MADISHF
BMG,2017-04-01 00:25,-86.6167,39.1460,M,M,M,310.00,5.00,M,29.93,M,10.00,M,OVC,M,M,M,800.00,M,M,M,M,KBMG 010025Z AUTO 31005KT 10SM OVC008 A2993 RMK MADISHF
BMG,2017-04-01 00:30,-86.6167,39.1460,M,M,M,320.00,5.00,M,29.93,M,9.00,M,OVC,M,M,M,800.00,M,M,M,M,KBMG 010030Z AUTO 32005KT 9SM OVC008 A2993 RMK VRB05KT  MADISHF
BMG,2017-04-01 00:35,-86.6167,39.1460,M,M,M,320.00,6.00,M,29.94,M,8.00,M,OVC,M,M,M,800.00,M,M,M,M,KBMG 010035Z AUTO 32006KT 8SM OVC008 A2994 RMK MADISHF
BMG,2017-04-01 00:40,-86.6167,39.1460,M,M,M,320.00,6.00,M,29.94,M,8.00,M,OVC,M,M,M,800.00,M,M,M,M,KBMG 010040Z AUTO 32006KT 8SM OVC008 A2994 RMK CIG 7V12  MADISHF
BMG,2017-04-01 00:45,-86.6167,39.1460,M,M,M,330.00,6.00,M,29.94,M,7.00,M,OVC,M,M,M,800.00,M,M,M,M,KBMG 010045Z AUTO 33006KT 7SM OVC008 A2994 RMK VRB06KT CIG 7V12  MADISHF
BMG,2017-04-01 00:50,-86.6167,39.1460,M,M,M,310.00,5.00,M,29.95,M,7.00,M,OVC,M,M,M,800.00,M,M,M,M,KBMG 010050Z AUTO 31005KT 7SM OVC008 A2995 RMK CIG 7V12  MADISHF
BMG,2017-04-01 00:53,-86.6167,39.1460,42.10,37.90,84.93,M,5.00,0.00,29.95,1014.30,6.00,M,OVC,M,M,M,800.00,M,M,M,BR,KBMG 010053Z VRB05KT 6SM BR OVC008 06/03 A2995 RMK AO2 CIG 007V012 SLP143 T00560033
BMG,2017-04-01 00:55,-86.6167,39.1460,M,M,M,340.00,5.00,M,29.95,M,6.00,M,OVC,M,M,M,800.00,M,M,M,BR,KBMG 010055Z AUTO 34005KT 6SM BR OVC008 A2995 RMK VRB05KT  MADISHF
BMG,2017-04-01 01:00,-86.6167,39.1460,M,M,M,330.00,6.00,M,29.95,M,6.00,M,OVC,M,M,M,800.00,M,M,M,BR,KBMG 010100Z AUTO 33006KT 6SM BR OVC008 A2995 RMK VRB06KT  MADISHF
BMG,2017-04-01 01:05,-86.6167,39.1460,M,M,M,320.00,6.00,M,29.95,M,6.00,M,OVC,M,M,M,900.00,M,M,M,BR,KBMG 010105Z AUTO 32006KT 6SM BR OVC009 A2995 RMK CIG 7V12  MADISHF
BMG,2017-04-01 01:10,-86.6167,39.1460,M,M,M,320.00,4.00,M,29.95,M,6.00,M,OVC,M,M,M,900.00,M,M,M,BR,KBMG 010110Z AUTO 32004KT 6SM BR OVC009 A2995 RMK VRB04KT CIG 7V12  MADISHF
BMG,2017-04-01 01:15,-86.6167,39.1460,M,M,M,320.00,5.00,M,29.95,M,6.00,M,OVC,M,M,M,900.00,M,M,M,BR,KBMG 010115Z AUTO 32005KT 6SM BR OVC009 A2995 RMK CIG 7V12  MADISHF
BMG,2017-04-01 01:20,-86.6167,39.1460,M,M,M,330.00,6.00,M,29.95,M,5.00,M,OVC,M,M,M,1100.00,M,M,M,BR,KBMG 010120Z AUTO 33006KT 5SM BR OVC011 A2995 RMK MADISHF
BMG,2017-04-01 01:25,-86.6167,39.1460,M,M,M,330.00,5.00,M,29.95,M,5.00,M,BKN,OVC,M,M,900.00,1300.00,M,M,BR,KBMG 010125Z AUTO 33005KT 5SM BR BKN009 OVC013 A2995 RMK VRB05KT CIG 7V12  MADISHF
BMG,2017-04-01 01:30,-86.6167,39.1460,M,M,M,320.00,6.00,M,29.96,M,5.00,M,BKN,OVC,M,M,900.00,1300.00,M,M,BR,KBMG 010130Z AUTO 32006KT 5SM BR BKN009 OVC013 A2996 RMK CIG 7V12  MADISHF
BMG,2017-04-01 01:35,-86.6167,39.1460,M,M,M,320.00,4.00,M,29.96,M,5.00,M,BKN,OVC,M,M,900.00,1300.00,M,M,BR,KBMG 010135Z AUTO 32004KT 5SM BR BKN009 OVC013 A2996 RMK VRB04KT CIG 7V12  MADISHF
BMG,2017-04-01 01:40,-86.6167,39.1460,M,M,M,320.00,5.00,M,29.96,M,5.00,M,BKN,OVC,M,M,900.00,1300.00,M,M,BR,KBMG 010140Z AUTO 32005KT 5SM BR BKN009 OVC013 A2996 RMK CIG 7V12  MADISHF
BMG,2017-04-01 01:45,-86.6167,39.1460,M,M,M,320.00,7.00,M,29.96,M,6.00,M,BKN,OVC,M,M,900.00,1300.00,M,M,BR,KBMG 010145Z AUTO 32007KT 6SM BR BKN009 OVC013 A2996 RMK CIG 6V10  MADISHF
BMG,2017-04-01 01:50,-86.6167,39.1460,M,M,M,310.00,4.00,M,29.96,M,7.00,M,BKN,OVC,M,M,900.00,1400.00,M,M,M,KBMG 010150Z AUTO 31004KT 7SM BKN009 OVC014 A2996 RMK VRB04KT CIG 6V12  MADISHF
BMG,2017-04-01 01:53,-86.6167,39.1460,42.10,37.90,84.93,320.00,5.00,0.00,29.97,1014.90,8.00,M,OVC,M,M,M,900.00,M,M,M,M,KBMG 010153Z AUTO 32005KT 8SM OVC009 06/03 A2997 RMK AO2 CIG 006V013 SLP149 T00560033
BMG,2017-04-01 01:55,-86.6167,39.1460,M,M,M,330.00,4.00,M,29.97,M,9.00,M,BKN,OVC,M,M,900.00,1500.00,M,M,M,KBMG 010155Z AUTO 33004KT 9SM BKN009 OVC015 A2997 RMK VRB04KT CIG 6V12  MADISHF
BMG,2017-04-01 02:00,-86.6167,39.1460,M,M,M,330.00,5.00,M,29.97,M,10.00,M,BKN,OVC,M,M,900.00,1500.00,M,M,M,KBMG 010200Z AUTO 33005KT 10SM BKN009 OVC015 A2997 RMK VRB05KT CIG 6V11  MADISHF
BMG,2017-04-01 02:05,-86.6167,39.1460,M,M,M,340.00,4.00,M,29.97,M,10.00,M,OVC,M,M,M,900.00,M,M,M,M,KBMG 010205Z AUTO 34004KT 10SM OVC009 A2997 RMK VRB04KT CIG 6V13  MADISHF
BMG,2017-04-01 02:10,-86.6167,39.1460,M,M,M,340.00,4.00,M,29.97,M,10.00,M,OVC,M,M,M,900.00,M,M,M,M,KBMG 010210Z AUTO 34004KT 10SM OVC009 A2997 RMK CIG 6V13  MADISHF
BMG,2017-04-01 02:15,-86.6167,39.1460,M,M,M,340.00,4.00,M,29.97,M,10.00,M,OVC,M,M,M,999.00,M,M,M,M,KBMG 010215Z AUTO 34004KT 10SM OVC009 A2997 RMK CIG 7V13  MADISHF
BMG,2017-04-01 02:18,-86.6167,39.1460,42.10,37.90,84.93,330.00,4.00,0.00,29.97,M,10.00,M,OVC,M,M,M,1000.00,M,M,M,M,KBMG 010218Z AUTO 33004KT 10SM OVC010 06/03 A2997 RMK AO2 CIG 007V014 T00560033
BMG,2017-04-01 02:20,-86.6167,39.1460,M,M,M,310.00,5.00,M,29.97,M,10.00,M,OVC,M,M,M,999.00,M,M,M,M,KBMG 010220Z AUTO 31005KT 10SM OVC009 A2997 RMK CIG 7V12  MADISHF
BMG,2017-04-01 02:25,-86.6167,39.1460,M,M,M,310.00,5.00,M,29.98,M,10.00,M,OVC,M,M,M,999.00,M,M,M,M,KBMG 010225Z AUTO 31005KT 10SM OVC009 A2998 RMK CIG 7V14  MADISHF
BMG,2017-04-01 02:30,-86.6167,39.1460,M,M,M,320.00,5.00,M,29.97,M,10.00,M,BKN,OVC,M,M,999.00,1699.00,M,M,M,KBMG 010230Z AUTO 32005KT 10SM BKN009 OVC016 A2997 RMK VRB05KT CIG 8V13  MADISHF
BMG,2017-04-01 02:35,-86.6167,39.1460,M,M,M,320.00,6.00,M,29.98,M,10.00,M,BKN,OVC,M,M,999.00,1699.00,M,M,M,KBMG 010235Z AUTO 32006KT 10SM BKN009 OVC016 A2998 RMK CIG 8V12  MADISHF
BMG,2017-04-01 02:40,-86.6167,39.1460,M,M,M,330.00,4.00,M,29.98,M,10.00,M,SCT,OVC,M,M,999.00,1699.00,M,M,M,KBMG 010240Z AUTO 33004KT 10SM SCT009 OVC016 A2998 RMK VRB04KT  MADISHF
BMG,2017-04-01 02:45,-86.6167,39.1460,M,M,M,310.00,3.00,M,29.98,M,10.00,M,BKN,OVC,M,M,1300.00,1900.00,M,M,M,KBMG 010245Z AUTO 31003KT 10SM BKN013 OVC019 A2998 RMK MADISHF
BMG,2017-04-01 02:50,-86.6167,39.1460,M,M,M,310.00,5.00,M,29.98,M,10.00,M,BKN,BKN,OVC,M,1300.00,1900.00,2800.00,M,M,KBMG 010250Z AUTO 31005KT 10SM BKN013 BKN019 OVC028 A2998 RMK MADISHF
BMG,2017-04-01 02:53,-86.6167,39.1460,42.10,37.00,81.98,320.00,4.00,0.00,29.98,1015.50,10.00,M,BKN,OVC,M,M,1600.00,2800.00,M,M,M,KBMG 010253Z AUTO 32004KT 10SM BKN016 OVC028 06/03 A2998 RMK AO2 SLP155 T00560028 51020
BMG,2017-04-01 02:55,-86.6167,39.1460,M,M,M,320.00,4.00,M,29.98,M,10.00,M,BKN,OVC,M,M,1600.00,2800.00,M,M,M,KBMG 010255Z AUTO 32004KT 10SM BKN016 OVC028 A2998 RMK MADISHF
BMG,2017-04-01 03:00,-86.6167,39.1460,M,M,M,310.00,5.00,M,29.99,M,10.00,M,BKN,OVC,M,M,1600.00,2800.00,M,M,M,KBMG 010300Z AUTO 31005KT 10SM BKN016 OVC028 A2999 RMK VRB05KT  MADISHF
BMG,2017-04-01 03:05,-86.6167,39.1460,M,M,M,0.00,0.00,M,29.99,M,10.00,M,OVC,M,M,M,1600.00,M,M,M,M,KBMG 010305Z AUTO 00000KT 10SM OVC016 A2999 RMK MADISHF
BMG,2017-04-01 03:10,-86.6167,39.1460,M,M,M,320.00,4.00,M,29.99,M,10.00,M,BKN,OVC,M,M,1600.00,1999.00,M,M,M,KBMG 010310Z AUTO 32004KT 10SM BKN016 OVC019 A2999 RMK MADISHF
BMG,2017-04-01 03:15,-86.6167,39.1460,M,M,M,310.00,4.00,M,29.99,M,10.00,M,OVC,M,M,M,1400.00,M,M,M,M,KBMG 010315Z AUTO 31004KT 10SM OVC014 A2999 RMK MADISHF
BMG,2017-04-01 03:17,-86.6167,39.1460,42.10,37.00,81.98,M,3.00,0.00,29.99,M,10.00,M,OVC,M,M,M,1400.00,M,M,M,M,KBMG 010317Z AUTO VRB03KT 10SM OVC014 06/03 A2999 RMK AO2 T00560028
BMG,2017-04-01 03:20,-86.6167,39.1460,M,M,M,330.00,5.00,M,29.99,M,10.00,M,OVC,M,M,M,1400.00,M,M,M,M,KBMG 010320Z AUTO 33005KT 10SM OVC014 A2999 RMK VRB05KT  MADISHF
BMG,2017-04-01 03:25,-86.6167,39.1460,M,M,M,0.00,0.00,M,29.99,M,10.00,M,OVC,M,M,M,1400.00,M,M,M,M,KBMG 010325Z AUTO 00000KT 10SM OVC014 A2999 RMK MADISHF
BMG,2017-04-01 03:30,-86.6167,39.1460,M,M,M,300.00,3.00,M,29.99,M,10.00,M,BKN,OVC,M,M,1100.00,1600.00,M,M,M,KBMG 010330Z AUTO 30003KT 10SM BKN011 OVC016 A2999 RMK MADISHF
BMG,2017-04-01 03:35,-86.6167,39.1460,M,M,M,310.00,5.00,M,30.00,M,10.00,M,BKN,OVC,M,M,1100.00,1600.00,M,M,M,KBMG 010335Z AUTO 31005KT 10SM BKN011 OVC016 A3000 RMK MADISHF
BMG,2017-04-01 03:40,-86.6167,39.1460,M,M,M,300.00,6.00,M,30.00,M,10.00,M,OVC,M,M,M,999.00,M,M,M,M,KBMG 010340Z AUTO 30006KT 10SM OVC009 A3000 RMK MADISHF
BMG,2017-04-01 03:45,-86.6167,39.1460,M,M,M,300.00,5.00,M,30.00,M,10.00,M,OVC,M,M,M,999.00,M,M,M,M,KBMG 010345Z AUTO 30005KT 10SM OVC009 A3000 RMK MADISHF
BMG,2017-04-01 03:50,-86.6167,39.1460,M,M,M,300.00,4.00,M,30.00,M,10.00,M,OVC,M,M,M,999.00,M,M,M,M,KBMG 010350Z AUTO 30004KT 10SM OVC009 A3000 RMK CIG 10V13  MADISHF
BMG,2017-04-01 03:53,-86.6167,39.1460,42.10,37.00,81.98,300.00,6.00,0.00,30.00,1016.00,10.00,M,OVC,M,M,M,1000.00,M,M,M,M,KBMG 010353Z AUTO 30006KT 10SM OVC010 06/03 A3000 RMK AO2 SLP160 T00560028
BMG,2017-04-01 03:55,-86.6167,39.1460,M,M,M,300.00,7.00,M,30.00,M,10.00,M,OVC,M,M,M,999.00,M,M,M,M,KBMG 010355Z AUTO 30007KT 10SM OVC009 A3000 RMK MADISHF
BMG,2017-04-01 04:00,-86.6167,39.1460,M,M,M,310.00,3.00,M,30.00,M,10.00,M,OVC,M,M,M,999.00,M,M,M,M,KBMG 010400Z AUTO 31003KT 10SM OVC009 A3000 RMK MADISHF
BMG,2017-04-01 04:05,-86.6167,39.1460,M,M,M,290.00,5.00,M,30.00,M,10.00,M,OVC,M,M,M,999.00,M,M,M,M,KBMG 010405Z AUTO 29005KT 10SM OVC009 A3000 RMK MADISHF
BMG,2017-04-01 04:10,-86.6167,39.1460,M,M,M,300.00,6.00,M,30.00,M,10.00,M,OVC,M,M,M,1100.00,M,M,M,M,KBMG 010410Z AUTO 30006KT 10SM OVC011 A3000 RMK MADISHF
BMG,2017-04-01 04:15,-86.6167,39.1460,M,M,M,300.00,6.00,M,30.01,M,10.00,M,OVC,M,M,M,1100.00,M,M,M,M,KBMG 010415Z AUTO 30006KT 10SM OVC011 A3001 RMK VRB06KT  MADISHF
BMG,2017-04-01 04:20,-86.6167,39.1460,M,M,M,310.00,4.00,M,30.00,M,10.00,M,OVC,M,M,M,1100.00,M,M,M,M,KBMG 010420Z AUTO 31004KT 10SM OVC011 A3000 RMK MADISHF
BMG,2017-04-01 04:25,-86.6167,39.1460,M,M,M,300.00,5.00,M,30.01,M,9.00,M,OVC,M,M,M,1100.00,M,M,M,M,KBMG 010425Z AUTO 30005KT 9SM OVC011 A3001 RMK MADISHF
BMG,2017-04-01 04:30,-86.6167,39.1460,M,M,M,300.00,4.00,M,30.01,M,9.00,M,OVC,M,M,M,1100.00,M,M,M,M,KBMG 010430Z AUTO 30004KT 9SM OVC011 A3001 RMK MADISHF
BMG,2017-04-01 04:35,-86.6167,39.1460,M,M,M,320.00,5.00,M,30.01,M,8.00,M,OVC,M,M,M,1100.00,M,M,M,M,KBMG 010435Z AUTO 32005KT 8SM OVC011 A3001 RMK VRB05KT  MADISHF
BMG,2017-04-01 04:40,-86.6167,39.1460,M,M,M,300.00,6.00,M,30.01,M,8.00,M,OVC,M,M,M,1100.00,M,M,M,M,KBMG 010440Z AUTO 30006KT 8SM OVC011 A3001 RMK CIG 8V13  MADISHF
BMG,2017-04-01 04:45,-86.6167,39.1460,M,M,M,320.00,6.00,M,30.01,M,9.00,M,OVC,M,M,M,1100.00,M,M,M,M,KBMG 010445Z AUTO 32006KT 9SM OVC011 A3001 RMK VRB06KT  MADISHF
BMG,2017-04-01 04:50,-86.6167,39.1460,M,M,M,330.00,4.00,M,30.01,M,10.00,M,OVC,M,M,M,1100.00,M,M,M,M,KBMG 010450Z AUTO 33004KT 10SM OVC011 A3001 RMK VRB04KT  MADISHF
BMG,2017-04-01 04:53,-86.6167,39.1460,41.00,36.00,82.22,M,5.00,0.00,30.01,1016.50,10.00,M,BKN,OVC,M,M,1100.00,1600.00,M,M,M,KBMG 010453Z AUTO VRB05KT 10SM BKN011 OVC016 05/02 A3001 RMK AO2 SLP165 T00500022 401390050
BMG,2017-04-01 04:55,-86.6167,39.1460,M,M,M,330.00,5.00,M,30.01,M,10.00,M,BKN,OVC,M,M,1100.00,1699.00,M,M,M,KBMG 010455Z AUTO 33005KT 10SM BKN011 OVC016 A3001 RMK VRB05KT  MADISHF
BMG,2017-04-01 05:00,-86.6167,39.1460,M,M,M,340.00,5.00,M,30.02,M,10.00,M,BKN,OVC,M,M,1100.00,1699.00,M,M,M,KBMG 010500Z AUTO 34005KT 10SM BKN011 OVC016 A3002 RMK MADISHF
BMG,2017-04-01 05:05,-86.6167,39.1460,M,M,M,320.00,5.00,M,30.02,M,10.00,M,SCT,BKN,OVC,M,1200.00,1900.00,2500.00,M,M,KBMG 010505Z AUTO 32005KT 10SM SCT012 BKN019 OVC025 A3002 RMK VRB05KT  MADISHF
BMG,2017-04-01 05:07,-86.6167,39.1460,41.00,36.00,82.22,330.00,6.00,0.00,30.02,M,10.00,M,SCT,BKN,OVC,M,1400.00,1900.00,2500.00,M,M,KBMG 010507Z AUTO 33006KT 10SM SCT014 BKN019 OVC025 05/02 A3002 RMK AO2 T00500022
BMG,2017-04-01 05:10,-86.6167,39.1460,M,M,M,340.00,4.00,M,30.02,M,10.00,M,BKN,OVC,M,M,1400.00,2500.00,M,M,M,KBMG 010510Z AUTO 34004KT 10SM BKN014 OVC025 A3002 RMK MADISHF
BMG,2017-04-01 05:15,-86.6167,39.1460,M,M,M,330.00,3.00,M,30.03,M,10.00,M,BKN,BKN,OVC,M,1600.00,1999.00,2500.00,M,M,KBMG 010515Z AUTO 33003KT 10SM BKN016 BKN019 OVC025 A3003 RMK VRB03KT  MADISHF
BMG,2017-04-01 05:20,-86.6167,39.1460,M,M,M,320.00,4.00,M,30.03,M,10.00,M,BKN,OVC,M,M,1600.00,2500.00,M,M,M,KBMG 010520Z AUTO 32004KT 10SM BKN016 OVC025 A3003 RMK MADISHF
BMG,2017-04-01 05:25,-86.6167,39.1460,M,M,M,310.00,5.00,M,30.03,M,10.00,M,BKN,OVC,M,M,1600.00,2500.00,M,M,M,KBMG 010525Z AUTO 31005KT 10SM BKN016 OVC025 A3003 RMK MADISHF
BMG,2017-04-01 05:30,-86.6167,39.1460,M,M,M,320.00,3.00,M,30.03,M,10.00,M,BKN,OVC,M,M,1500.00,2500.00,M,M,M,KBMG 010530Z AUTO 32003KT 10SM BKN015 OVC025 A3003 RMK MADISHF
BMG,2017-04-01 05:35,-86.6167,39.1460,M,M,M,330.00,3.00,M,30.03,M,10.00,M,OVC,M,M,M,1500.00,M,M,M,M,KBMG 010535Z AUTO 33003KT 10SM OVC015 A3003 RMK MADISHF
BMG,2017-04-01 05:40,-86.6167,39.1460,M,M,M,320.00,3.00,M,30.04,M,10.00,M,OVC,M,M,M,1500.00,M,M,M,M,KBMG 010540Z AUTO 32003KT 10SM OVC015 A3004 RMK MADISHF
BMG,2017-04-01 05:45,-86.6167,39.1460,M,M,M,0.00,0.00,M,30.04,M,10.00,M,OVC,M,M,M,1500.00,M,M,M,M,KBMG 010545Z AUTO 00000KT 10SM OVC015 A3004 RMK MADISHF
BMG,2017-04-01 05:50,-86.6167,39.1460,M,M,M,320.00,4.00,M,30.04,M,10.00,M,OVC,M,M,M,1500.00,M,M,M,M,KBMG 010550Z AUTO 32004KT 10SM OVC015 A3004 RMK MADISHF
BMG,2017-04-01 05:53,-86.6167,39.1460,42.10,35.10,76.04,310.00,8.00,0.00,30.04,1017.40,10.00,M,OVC,M,M,M,1500.00,M,M,M,M,KBMG 010553Z AUTO 31008KT 10SM OVC015 06/02 A3004 RMK AO2 SLP174 T00560017 10061 20050 53018
BMG,2017-04-01 05:55,-86.6167,39.1460,M,M,M,300.00,5.00,M,30.04,M,10.00,M,OVC,M,M,M,1500.00,M,M,M,M,KBMG 010555Z AUTO 30005KT 10SM OVC015 A3004 RMK MADISHF
BMG,2017-04-01 06:00,-86.6167,39.1460,M,M,M,310.00,6.00,M,30.04,M,10.00,M,OVC,M,M,M,1500.00,M,M,M,M,KBMG 010600Z AUTO 31006KT 10SM OVC015 A3004 RMK MADISHF
BMG,2017-04-01 06:05,-86.6167,39.1460,M,M,M,310.00,5.00,M,30.04,M,10.00,M,OVC,M,M,M,1500.00,M,M,M,M,KBMG 010605Z AUTO 31005KT 10SM OVC015 A3004 RMK MADISHF
BMG,2017-04-01 06:10,-86.6167,39.1460,M,M,M,300.00,7.00,M,30.04,M,10.00,M,OVC,M,M,M,1500.00,M,M,M,M,KBMG 010610Z AUTO 30007KT 10SM OVC015 A3004 RMK MADISHF
BMG,2017-04-01 06:15,-86.6167,39.1460,M,M,M,300.00,4.00,M,30.04,M,10.00,M,OVC,M,M,M,1500.00,M,M,M,M,KBMG 010615Z AUTO 30004KT 10SM OVC015 A3004 RMK MADISHF
BMG,2017-04-01 06:20,-86.6167,39.1460,M,M,M,310.00,3.00,M,30.04,M,10.00,M,OVC,M,M,M,1500.00,M,M,M,M,KBMG 010620Z AUTO 31003KT 10SM OVC015 A3004 RMK MADISHF
BMG,2017-04-01 06:25,-86.6167,39.1460,M,M,M,330.00,4.00,M,30.04,M,10.00,M,OVC,M,M,M,1600.00,M,M,M,M,KBMG 010625Z AUTO 33004KT 10SM OVC016 A3004 RMK MADISHF
BMG,2017-04-01 06:30,-86.6167,39.1460,M,M,M,320.00,6.00,M,30.04,M,10.00,M,OVC,M,M,M,1600.00,M,M,M,M,KBMG 010630Z AUTO 32006KT 10SM OVC016 A3004 RMK MADISHF
BMG,2017-04-01 06:35,-86.6167,39.1460,M,M,M,310.00,5.00,M,30.04,M,10.00,M,OVC,M,M,M,1600.00,M,M,M,M,KBMG 010635Z AUTO 31005KT 10SM OVC016 A3004 RMK MADISHF
BMG,2017-04-01 06:40,-86.6167,39.1460,M,M,M,310.00,5.00,M,30.04,M,10.00,M,OVC,M,M,M,1500.00,M,M,M,M,KBMG 010640Z AUTO 31005KT 10SM OVC015 A3004 RMK MADISHF
BMG,2017-04-01 06:45,-86.6167,39.1460,M,M,M,320.00,4.00,M,30.04,M,10.00,M,OVC,M,M,M,1300.00,M,M,M,M,KBMG 010645Z AUTO 32004KT 10SM OVC013 A3004 RMK MADISHF
BMG,2017-04-01 06:49,-86.6167,39.1460,41.00,35.60,80.93,320.00,5.00,0.00,30.04,M,10.00,M,OVC,M,M,M,1300.00,M,M,M,M,KBMG 010649Z AUTO 32005KT 10SM OVC013 05/02 A3004 RMK AO2
BMG,2017-04-01 06:50,-86.6167,39.1460,M,M,M,330.00,5.00,M,30.04,M,10.00,M,OVC,M,M,M,1300.00,M,M,M,M,KBMG 010650Z AUTO 33005KT 10SM OVC013 A3004 RMK VRB05KT  MADISHF
BMG,2017-04-01 06:53,-86.6167,39.1460,41.00,35.10,79.34,320.00,5.00,0.00,30.04,1017.50,10.00,M,BKN,OVC,M,M,1300.00,3000.00,M,M,M,KBMG 010653Z AUTO 32005KT 10SM BKN013 OVC030 05/02 A3004 RMK AO2 SLP175 T00500017
BMG,2017-04-01 06:55,-86.6167,39.1460,M,M,M,320.00,3.00,M,30.04,M,10.00,M,BKN,OVC,M,M,1300.00,3000.00,M,M,M,KBMG 010655Z AUTO 32003KT 10SM BKN013 OVC030 A3004 RMK VRB03KT  MADISHF
BMG,2017-04-01 07:00,-86.6167,39.1460,M,M,M,350.00,4.00,M,30.04,M,10.00,M,BKN,OVC,M,M,1300.00,3000.00,M,M,M,KBMG 010700Z AUTO 35004KT 10SM BKN013 OVC030 A3004 RMK VRB04KT  MADISHF
BMG,2017-04-01 07:05,-86.6167,39.1460,M,M,M,320.00,3.00,M,30.04,M,10.00,M,SCT,OVC,M,M,1300.00,3000.00,M,M,M,KBMG 010705Z AUTO 32003KT 10SM SCT013 OVC030 A3004 RMK VRB03KT  MADISHF
BMG,2017-04-01 07:10,-86.6167,39.1460,41.00,35.10,79.34,M,3.00,0.00,30.04,M,10.00,M,SCT,OVC,M,M,1300.00,3000.00,M,M,M,KBMG 010710Z AUTO VRB03KT 10SM SCT013 OVC030 05/02 A3004 RMK AO2 T00500017
BMG,2017-04-01 07:15,-86.6167,39.1460,M,M,M,320.00,3.00,M,30.04,M,10.00,M,SCT,OVC,M,M,1300.00,3000.00,M,M,M,KBMG 010715Z AUTO 32003KT 10SM SCT013 OVC030 A3004 RMK MADISHF
BMG,2017-04-01 07:20,-86.6167,39.1460,M,M,M,310.00,4.00,M,30.04,M,10.00,M,SCT,OVC,M,M,1300.00,3000.00,M,M,M,KBMG 010720Z AUTO 31004KT 10SM SCT013 OVC030 A3004 RMK MADISHF
BMG,2017-04-01 07:25,-86.6167,39.1460,M,M,M,320.00,3.00,M,30.04,M,10.00,M,BKN,OVC,M,M,1400.00,3000.00,M,M,M,KBMG 010725Z AUTO 32003KT 10SM BKN014 OVC030 A3004 RMK MADISHF
BMG,2017-04-01 07:28,-86.6167,39.1460,41.00,35.10,79.34,310.00,4.00,0.00,30.05,M,10.00,M,BKN,OVC,M,M,1600.00,3000.00,M,M,M,KBMG 010728Z AUTO 31004KT 10SM BKN016 OVC030 05/02 A3005 RMK AO2 T00500017
BMG,2017-04-01 07:30,-86.6167,39.1460,M,M,M,300.00,3.00,M,30.05,M,10.00,M,BKN,OVC,M,M,1600.00,3000.00,M,M,M,KBMG 010730Z AUTO 30003KT 10SM BKN016 OVC030 A3005 RMK MADISHF
BMG,2017-04-01 07:35,-86.6167,39.1460,M,M,M,300.00,4.00,M,30.05,M,10.00,M,BKN,BKN,OVC,M,1600.00,1999.00,3000.00,M,M,KBMG 010735Z AUTO 30004KT 10SM BKN016 BKN019 OVC030 A3005 RMK VRB04KT  MADISHF
BMG,2017-04-01 07:40,-86.6167,39.1460,M,M,M,320.00,5.00,M,30.05,M,10.00,M,BKN,BKN,OVC,M,1600.00,1999.00,3000.00,M,M,KBMG 010740Z AUTO 32005KT 10SM BKN016 BKN019 OVC030 A3005 RMK MADISHF
BMG,2017-04-01 07:45,-86.6167,39.1460,M,M,M,310.00,5.00,M,30.05,M,10.00,M,BKN,BKN,OVC,M,1600.00,1999.00,3000.00,M,M,KBMG 010745Z AUTO 31005KT 10SM BKN016 BKN019 OVC030 A3005 RMK VRB05KT  MADISHF
BMG,2017-04-01 07:50,-86.6167,39.1460,M,M,M,320.00,4.00,M,30.05,M,10.00,M,SCT,BKN,OVC,M,1600.00,2100.00,3000.00,M,M,KBMG 010750Z AUTO 32004KT 10SM SCT016 BKN021 OVC030 A3005 RMK MADISHF
BMG,2017-04-01 07:53,-86.6167,39.1460,41.00,34.00,75.94,M,4.00,0.00,30.05,1018.00,10.00,M,BKN,OVC,M,M,1800.00,3000.00,M,M,M,KBMG 010753Z AUTO VRB04KT 10SM BKN018 OVC030 05/01 A3005 RMK AO2 SLP180 T00500011
BMG,2017-04-01 07:55,-86.6167,39.1460,M,M,M,320.00,4.00,M,30.05,M,10.00,M,BKN,OVC,M,M,1800.00,3000.00,M,M,M,KBMG 010755Z AUTO 32004KT 10SM BKN018 OVC030 A3005 RMK VRB04KT  MADISHF
BMG,2017-04-01 08:00,-86.6167,39.1460,M,M,M,320.00,3.00,M,30.05,M,10.00,M,SCT,OVC,M,M,1999.00,3000.00,M,M,M,KBMG 010800Z AUTO 32003KT 10SM SCT019 OVC030 A3005 RMK MADISHF
BMG,2017-04-01 08:05,-86.6167,39.1460,M,M,M,320.00,3.00,M,30.05,M,10.00,M,SCT,OVC,M,M,1999.00,3000.00,M,M,M,KBMG 010805Z AUTO 32003KT 10SM SCT019 OVC030 A3005 RMK MADISHF
BMG,2017-04-01 08:10,-86.6167,39.1460,M,M,M,310.00,3.00,M,30.05,M,10.00,M,BKN,OVC,M,M,1900.00,3100.00,M,M,M,KBMG 010810Z AUTO 31003KT 10SM BKN019 OVC031 A3005 RMK MADISHF
BMG,2017-04-01 08:15,-86.6167,39.1460,M,M,M,310.00,3.00,M,30.05,M,10.00,M,BKN,OVC,M,M,1900.00,3100.00,M,M,M,KBMG 010815Z AUTO 31003KT 10SM BKN019 OVC031 A3005 RMK VRB03KT  MADISHF
BMG,2017-04-01 08:20,-86.6167,39.1460,M,M,M,310.00,5.00,M,30.05,M,10.00,M,BKN,OVC,M,M,1900.00,3100.00,M,M,M,KBMG 010820Z AUTO 31005KT 10SM BKN019 OVC031 A3005 RMK MADISHF
BMG,2017-04-01 08:25,-86.6167,39.1460,M,M,M,310.00,3.00,M,30.05,M,10.00,M,BKN,OVC,M,M,1699.00,3100.00,M,M,M,KBMG 010825Z AUTO 31003KT 10SM BKN016 OVC031 A3005 RMK VRB03KT  MADISHF
BMG,2017-04-01 08:30,-86.6167,39.1460,M,M,M,320.00,5.00,M,30.05,M,10.00,M,OVC,M,M,M,1699.00,M,M,M,M,KBMG 010830Z AUTO 32005KT 10SM OVC016 A3005 RMK MADISHF
BMG,2017-04-01 08:35,-86.6167,39.1460,M,M,M,310.00,3.00,M,30.05,M,10.00,M,OVC,M,M,M,1699.00,M,M,M,M,KBMG 010835Z AUTO 31003KT 10SM OVC016 A3005 RMK VRB03KT  MADISHF
BMG,2017-04-01 08:40,-86.6167,39.1460,M,M,M,310.00,3.00,M,30.06,M,10.00,M,BKN,OVC,M,M,1800.00,3000.00,M,M,M,KBMG 010840Z AUTO 31003KT 10SM BKN018 OVC030 A3006 RMK VRB03KT  MADISHF
BMG,2017-04-01 08:45,-86.6167,39.1460,M,M,M,310.00,5.00,M,30.06,M,10.00,M,BKN,OVC,M,M,1800.00,3000.00,M,M,M,KBMG 010845Z AUTO 31005KT 10SM BKN018 OVC030 A3006 RMK MADISHF
BMG,2017-04-01 08:50,-86.6167,39.1460,M,M,M,290.00,4.00,M,30.06,M,10.00,M,BKN,OVC,M,M,1699.00,3000.00,M,M,M,KBMG 010850Z AUTO 29004KT 10SM BKN016 OVC030 A3006 RMK MADISHF
BMG,2017-04-01 08:53,-86.6167,39.1460,41.00,34.00,75.94,M,3.00,0.00,30.06,1018.30,10.00,M,BKN,OVC,M,M,1700.00,3000.00,M,M,M,KBMG 010853Z AUTO VRB03KT 10SM BKN017 OVC030 05/01 A3006 RMK AO2 SLP183 T00500011 53008
BMG,2017-04-01 08:55,-86.6167,39.1460,M,M,M,300.00,4.00,M,30.07,M,10.00,M,BKN,OVC,M,M,1699.00,3000.00,M,M,M,KBMG 010855Z AUTO 30004KT 10SM BKN016 OVC030 A3007 RMK MADISHF
BMG,2017-04-01 09:00,-86.6167,39.1460,M,M,M,310.00,4.00,M,30.07,M,10.00,M,BKN,OVC,M,M,1699.00,3000.00,M,M,M,KBMG 010900Z AUTO 31004KT 10SM BKN016 OVC030 A3007 RMK MADISHF
BMG,2017-04-01 09:05,-86.6167,39.1460,M,M,M,320.00,5.00,M,30.07,M,10.00,M,OVC,M,M,M,1699.00,M,M,M,M,KBMG 010905Z AUTO 32005KT 10SM OVC016 A3007 RMK MADISHF
BMG,2017-04-01 09:10,-86.6167,39.1460,M,M,M,320.00,3.00,M,30.07,M,10.00,M,OVC,M,M,M,1600.00,M,M,M,M,KBMG 010910Z AUTO 32003KT 10SM OVC016 A3007 RMK VRB03KT  MADISHF
BMG,2017-04-01 09:15,-86.6167,39.1460,M,M,M,310.00,3.00,M,30.07,M,10.00,M,OVC,M,M,M,1600.00,M,M,M,M,KBMG 010915Z AUTO 31003KT 10SM OVC016 A3007 RMK VRB03KT  MADISHF
BMG,2017-04-01 09:20,-86.6167,39.1460,M,M,M,330.00,4.00,M,30.08,M,10.00,M,OVC,M,M,M,1600.00,M,M,M,M,KBMG 010920Z AUTO 33004KT 10SM OVC016 A3008 RMK MADISHF
BMG,2017-04-01 09:25,-86.6167,39.1460,M,M,M,320.00,3.00,M,30.08,M,10.00,M,OVC,M,M,M,1600.00,M,M,M,M,KBMG 010925Z AUTO 32003KT 10SM OVC016 A3008 RMK VRB03KT  MADISHF
BMG,2017-04-01 09:30,-86.6167,39.1460,M,M,M,330.00,5.00,M,30.08,M,10.00,M,OVC,M,M,M,1600.00,M,M,M,M,KBMG 010930Z AUTO 33005KT 10SM OVC016 A3008 RMK VRB05KT  MADISHF
BMG,2017-04-01 09:35,-86.6167,39.1460,M,M,M,320.00,3.00,M,30.08,M,10.00,M,OVC,M,M,M,1600.00,M,M,M,M,KBMG 010935Z AUTO 32003KT 10SM OVC016 A3008 RMK VRB03KT  MADISHF
BMG,2017-04-01 09:40,-86.6167,39.1460,M,M,M,320.00,4.00,M,30.08,M,10.00,M,OVC,M,M,M,1600.00,M,M,M,M,KBMG 010940Z AUTO 32004KT 10SM OVC016 A3008 RMK VRB04KT  MADISHF
BMG,2017-04-01 09:45,-86.6167,39.1460,M,M,M,330.00,4.00,M,30.08,M,10.00,M,OVC,M,M,M,1500.00,M,M,M,M,KBMG 010945Z AUTO 33004KT 10SM OVC015 A3008 RMK VRB04KT  MADISHF
BMG,2017-04-01 09:50,-86.6167,39.1460,M,M,M,320.00,3.00,M,30.08,M,10.00,M,OVC,M,M,M,1500.00,M,M,M,M,KBMG 010950Z AUTO 32003KT 10SM OVC015 A3008 RMK MADISHF
BMG,2017-04-01 09:53,-86.6167,39.1460,41.00,35.10,79.34,M,3.00,0.00,30.08,1018.90,10.00,M,OVC,M,M,M,1500.00,M,M,M,M,KBMG 010953Z AUTO VRB03KT 10SM OVC015 05/02 A3008 RMK AO2 SLP189 T00500017
BMG,2017-04-01 09:55,-86.6167,39.1460,M,M,M,310.00,4.00,M,30.08,M,10.00,M,OVC,M,M,M,1500.00,M,M,M,M,KBMG 010955Z AUTO 31004KT 10SM OVC015 A3008 RMK MADISHF
BMG,2017-04-01 10:00,-86.6167,39.1460,M,M,M,310.00,4.00,M,30.08,M,10.00,M,OVC,M,M,M,1500.00,M,M,M,M,KBMG 011000Z AUTO 31004KT 10SM OVC015 A3008 RMK VRB04KT  MADISHF
BMG,2017-04-01 10:05,-86.6167,39.1460,M,M,M,320.00,3.00,M,30.08,M,10.00,M,OVC,M,M,M,1500.00,M,M,M,M,KBMG 011005Z AUTO 32003KT 10SM OVC015 A3008 RMK VRB03KT  MADISHF
BMG,2017-04-01 10:10,-86.6167,39.1460,M,M,M,340.00,3.00,M,30.09,M,10.00,M,OVC,M,M,M,1500.00,M,M,M,M,KBMG 011010Z AUTO 34003KT 10SM OVC015 A3009 RMK MADISHF
BMG,2017-04-01 10:15,-86.6167,39.1460,M,M,M,320.00,4.00,M,30.09,M,10.00,M,OVC,M,M,M,1500.00,M,M,M,M,KBMG 011015Z AUTO 32004KT 10SM OVC015 A3009 RMK MADISHF
BMG,2017-04-01 10:20,-86.6167,39.1460,M,M,M,330.00,3.00,M,30.09,M,10.00,M,OVC,M,M,M,1500.00,M,M,M,M,KBMG 011020Z AUTO 33003KT 10SM OVC015 A3009 RMK MADISHF
BMG,2017-04-01 10:25,-86.6167,39.1460,M,M,M,320.00,3.00,M,30.09,M,10.00,M,OVC,M,M,M,1400.00,M,M,M,M,KBMG 011025Z AUTO 32003KT 10SM OVC014 A3009 RMK MADISHF
BMG,2017-04-01 10:27,-86.6167,39.1460,41.00,35.10,79.34,M,3.00,0.00,30.09,M,10.00,M,OVC,M,M,M,1400.00,M,M,M,M,KBMG 011027Z VRB03KT 10SM OVC014 05/02 A3009 RMK AO2 T00500017
BMG,2017-04-01 10:30,-86.6167,39.1460,M,M,M,330.00,3.00,M,30.09,M,10.00,M,OVC,M,M,M,1400.00,M,M,M,M,KBMG 011030Z AUTO 33003KT 10SM OVC014 A3009 RMK VRB03KT  MADISHF
BMG,2017-04-01 10:35,-86.6167,39.1460,M,M,M,330.00,3.00,M,30.10,M,10.00,M,OVC,M,M,M,1400.00,M,M,M,M,KBMG 011035Z AUTO 33003KT 10SM OVC014 A3010 RMK MADISHF
BMG,2017-04-01 10:40,-86.6167,39.1460,M,M,M,0.00,0.00,M,30.10,M,10.00,M,OVC,M,M,M,1500.00,M,M,M,M,KBMG 011040Z AUTO 00000KT 10SM OVC015 A3010 RMK MADISHF
BMG,2017-04-01 10:43,-86.6167,39.1460,41.00,35.10,79.34,0.00,0.00,0.00,30.10,M,10.00,M,OVC,M,M,M,1500.00,M,M,M,M,KBMG 011043Z 00000KT 10SM OVC015 05/02 A3010 RMK AO2 T00500017
BMG,2017-04-01 10:45,-86.6167,39.1460,M,M,M,320.00,3.00,M,30.10,M,10.00,M,OVC,M,M,M,1500.00,M,M,M,M,KBMG 011045Z AUTO 32003KT 10SM OVC015 A3010 RMK MADISHF
BMG,2017-04-01 10:50,-86.6167,39.1460,M,M,M,310.00,4.00,M,30.11,M,10.00,M,OVC,M,M,M,1500.00,M,M,M,M,KBMG 011050Z AUTO 31004KT 10SM OVC015 A3011 RMK MADISHF
BMG,2017-04-01 10:53,-86.6167,39.1460,41.00,35.10,79.34,M,3.00,0.00,30.11,1019.80,10.00,M,OVC,M,M,M,1600.00,M,M,M,M,KBMG 011053Z VRB03KT 10SM OVC016 05/02 A3011 RMK AO2 SLP198 T00500017
BMG,2017-04-01 10:55,-86.6167,39.1460,M,M,M,310.00,4.00,M,30.11,M,10.00,M,OVC,M,M,M,1600.00,M,M,M,M,KBMG 011055Z AUTO 31004KT 10SM OVC016 A3011 RMK MADISHF
BMG,2017-04-01 11:00,-86.6167,39.1460,M,M,M,310.00,4.00,M,30.12,M,10.00,M,OVC,M,M,M,1600.00,M,M,M,M,KBMG 011100Z AUTO 31004KT 10SM OVC016 A3012 RMK MADISHF
BMG,2017-04-01 11:05,-86.6167,39.1460,M,M,M,290.00,4.00,M,30.12,M,10.00,M,BKN,OVC,M,M,1600.00,2500.00,M,M,M,KBMG 011105Z AUTO 29004KT 10SM BKN016 OVC025 A3012 RMK MADISHF
BMG,2017-04-01 11:10,-86.6167,39.1460,M,M,M,320.00,4.00,M,30.12,M,10.00,M,BKN,OVC,M,M,1600.00,2500.00,M,M,M,KBMG 011110Z AUTO 32004KT 10SM BKN016 OVC025 A3012 RMK MADISHF
BMG,2017-04-01 11:15,-86.6167,39.1460,M,M,M,330.00,3.00,M,30.12,M,10.00,M,OVC,M,M,M,1400.00,M,M,M,M,KBMG 011115Z AUTO 33003KT 10SM OVC014 A3012 RMK MADISHF
BMG,2017-04-01 11:20,-86.6167,39.1460,M,M,M,0.00,0.00,M,30.12,M,10.00,M,BKN,OVC,M,M,1400.00,2500.00,M,M,M,KBMG 011120Z AUTO 00000KT 10SM BKN014 OVC025 A3012 RMK MADISHF
BMG,2017-04-01 11:21,-86.6167,39.1460,41.00,35.10,79.34,0.00,0.00,0.00,30.12,M,10.00,M,BKN,OVC,M,M,1400.00,2500.00,M,M,M,KBMG 011121Z 00000KT 10SM BKN014 OVC025 05/02 A3012 RMK AO2 T00500017
BMG,2017-04-01 11:25,-86.6167,39.1460,M,M,M,330.00,3.00,M,30.12,M,10.00,M,BKN,OVC,M,M,1400.00,2500.00,M,M,M,KBMG 011125Z AUTO 33003KT 10SM BKN014 OVC025 A3012 RMK MADISHF
BMG,2017-04-01 11:30,-86.6167,39.1460,M,M,M,320.00,4.00,M,30.13,M,10.00,M,BKN,OVC,M,M,1500.00,2500.00,M,M,M,KBMG 011130Z AUTO 32004KT 10SM BKN015 OVC025 A3013 RMK MADISHF
BMG,2017-04-01 11:32,-86.6167,39.1460,41.00,35.10,79.34,330.00,3.00,0.00,30.13,M,10.00,M,BKN,OVC,M,M,1500.00,2500.00,M,M,M,KBMG 011132Z 33003KT 10SM BKN015 OVC025 05/02 A3013 RMK AO2 T00500017
BMG,2017-04-01 11:35,-86.6167,39.1460,M,M,M,0.00,0.00,M,30.13,M,10.00,M,BKN,OVC,M,M,1500.00,2500.00,M,M,M,KBMG 011135Z AUTO 00000KT 10SM BKN015 OVC025 A3013 RMK MADISHF
BMG,2017-04-01 11:40,-86.6167,39.1460,M,M,M,340.00,3.00,M,30.14,M,10.00,M,BKN,OVC,M,M,1300.00,2500.00,M,M,M,KBMG 011140Z AUTO 34003KT 10SM BKN013 OVC025 A3014 RMK VRB03KT  MADISHF
BMG,2017-04-01 11:42,-86.6167,39.1460,41.00,35.10,79.34,M,4.00,0.00,30.14,M,10.00,M,BKN,OVC,M,M,1300.00,2500.00,M,M,M,KBMG 011142Z VRB04KT 10SM BKN013 OVC025 05/02 A3014 RMK AO2 T00500017
BMG,2017-04-01 11:45,-86.6167,39.1460,M,M,M,340.00,3.00,M,30.14,M,9.00,M,BKN,OVC,M,M,1100.00,2600.00,M,M,M,KBMG 011145Z AUTO 34003KT 9SM BKN011 OVC026 A3014 RMK MADISHF
BMG,2017-04-01 11:50,-86.6167,39.1460,M,M,M,350.00,5.00,M,30.14,M,7.00,M,OVC,M,M,M,1100.00,M,M,M,M,KBMG 011150Z AUTO 35005KT 7SM OVC011 A3014 RMK MADISHF
BMG,2017-04-01 11:53,-86.6167,39.1460,41.00,36.00,82.22,360.00,6.00,0.00,30.14,1020.90,6.00,M,OVC,M,M,M,1100.00,M,M,M,HZ,KBMG 011153Z 36006KT 6SM HZ OVC011 05/02 A3014 RMK AO2 CIG 009V014 SLP209 T00500022 10056 20050 53025
BMG,2017-04-01 11:55,-86.6167,39.1460,M,M,M,350.00,6.00,M,30.14,M,5.00,M,OVC,M,M,M,1100.00,M,M,M,HZ,KBMG 011155Z AUTO 35006KT 5SM HZ OVC011 A3014 RMK MADISHF
BMG,2017-04-01 12:00,-86.6167,39.1460,M,M,M,350.00,4.00,M,30.14,M,5.00,M,BKN,OVC,M,M,1100.00,1999.00,M,M,HZ,KBMG 011200Z AUTO 35004KT 5SM HZ BKN011 OVC019 A3014 RMK CIG 8V13  MADISHF
BMG,2017-04-01 12:05,-86.6167,39.1460,M,M,M,360.00,6.00,M,30.14,M,6.00,M,BKN,BKN,OVC,M,999.00,1500.00,1999.00,M,HZ,KBMG 011205Z AUTO 36006KT 6SM HZ BKN009 BKN015 OVC019 A3014 RMK CIG 8V12  MADISHF
BMG,2017-04-01 12:10,-86.6167,39.1460,M,M,M,360.00,9.00,M,30.14,M,8.00,M,BKN,OVC,M,M,999.00,1600.00,M,M,M,KBMG 011210Z AUTO 36009KT 8SM BKN009 OVC016 A3014 RMK CIG 8V13  MADISHF
BMG,2017-04-01 12:15,-86.6167,39.1460,M,M,M,360.00,9.00,M,30.15,M,8.00,M,SCT,OVC,M,M,999.00,1600.00,M,M,M,KBMG 011215Z AUTO 36009KT 8SM SCT009 OVC016 A3015 RMK MADISHF
BMG,2017-04-01 12:19,-86.6167,39.1460,39.90,36.00,85.81,360.00,7.00,0.00,30.15,M,8.00,M,FEW,OVC,M,M,1000.00,1600.00,M,M,M,KBMG 011219Z 36007KT 8SM FEW010 OVC016 04/02 A3015 RMK AO2 T00440022
BMG,2017-04-01 12:20,-86.6167,39.1460,M,M,M,350.00,6.00,M,30.15,M,8.00,M,FEW,OVC,M,M,999.00,1500.00,M,M,M,KBMG 011220Z AUTO 35006KT 8SM FEW009 OVC015 A3015 RMK MADISHF
BMG,2017-04-01 12:25,-86.6167,39.1460,M,M,M,360.00,7.00,M,30.15,M,8.00,M,FEW,OVC,M,M,900.00,1500.00,M,M,M,KBMG 011225Z AUTO 36007KT 8SM FEW009 OVC015 A3015 RMK MADISHF
BMG,2017-04-01 12:28,-86.6167,39.1460,39.90,36.00,85.81,340.00,4.00,0.00,30.15,M,8.00,M,FEW,OVC,M,M,900.00,1500.00,M,M,M,KBMG 011228Z 34004KT 8SM FEW009 OVC015 04/02 A3015 RMK AO2 T00440022
BMG,2017-04-01 12:30,-86.6167,39.1460,M,M,M,350.00,6.00,M,30.16,M,7.00,M,FEW,OVC,M,M,900.00,1500.00,M,M,M,KBMG 011230Z AUTO 35006KT 7SM FEW009 OVC015 A3016 RMK MADISHF
BMG,2017-04-01 12:35,-86.6167,39.1460,M,M,M,350.00,7.00,M,30.16,M,6.00,M,FEW,OVC,M,M,900.00,1500.00,M,M,BR,KBMG 011235Z AUTO 35007KT 6SM BR FEW009 OVC015 A3016 RMK MADISHF
BMG,2017-04-01 12:40,-86.6167,39.1460,M,M,M,360.00,7.00,M,30.16,M,6.00,M,SCT,OVC,M,M,900.00,1500.00,M,M,HZ,KBMG 011240Z AUTO 36007KT 6SM HZ SCT009 OVC015 A3016 RMK MADISHF
BMG,2017-04-01 12:45,-86.6167,39.1460,M,M,M,360.00,6.00,M,30.16,M,7.00,M,SCT,OVC,M,M,800.00,1500.00,M,M,M,KBMG 011245Z AUTO 36006KT 7SM SCT008 OVC015 A3016 RMK MADISHF
BMG,2017-04-01 12:50,-86.6167,39.1460,M,M,M,360.00,6.00,M,30.16,M,7.00,M,BKN,OVC,M,M,800.00,1500.00,M,M,M,KBMG 011250Z AUTO 36006KT 7SM BKN008 OVC015 A3016 RMK CIG 6V11  MADISHF
BMG,2017-04-01 12:53,-86.6167,39.1460,41.00,37.00,85.54,10.00,7.00,0.00,30.16,1021.50,6.00,M,BKN,OVC,M,M,800.00,1500.00,M,M,BR,KBMG 011253Z 01007KT 6SM BR BKN008 OVC015 05/03 A3016 RMK AO2 CIG 006V011 SLP215 T00500028
BMG,2017-04-01 12:55,-86.6167,39.1460,M,M,M,360.00,7.00,M,30.16,M,6.00,M,BKN,OVC,M,M,800.00,1500.00,M,M,HZ,KBMG 011255Z AUTO 36007KT 6SM HZ BKN008 OVC015 A3016 RMK CIG 6V11  MADISHF
BMG,2017-04-01 13:00,-86.6167,39.1460,M,M,M,20.00,7.00,M,30.16,M,7.00,M,BKN,OVC,M,M,800.00,1300.00,M,M,M,KBMG 011300Z AUTO 02007KT 7SM BKN008 OVC013 A3016 RMK CIG 6V11  MADISHF
BMG,2017-04-01 13:05,-86.6167,39.1460,M,M,M,360.00,5.00,M,30.17,M,7.00,M,BKN,OVC,M,M,999.00,1500.00,M,M,M,KBMG 011305Z AUTO 36005KT 7SM BKN009 OVC015 A3017 RMK CIG 6V13  MADISHF
BMG,2017-04-01 13:07,-86.6167,39.1460,41.00,37.00,85.54,360.00,5.00,0.00,30.17,M,7.00,M,SCT,OVC,M,M,1000.00,1300.00,M,M,M,KBMG 011307Z 36005KT 7SM SCT010 OVC013 05/03 A3017 RMK AO2 T00500028
BMG,2017-04-01 13:10,-86.6167,39.1460,M,M,M,360.00,6.00,M,30.17,M,8.00,M,BKN,OVC,M,M,999.00,1300.00,M,M,M,KBMG 011310Z AUTO 36006KT 8SM BKN009 OVC013 A3017 RMK CIG 6V12  MADISHF
BMG,2017-04-01 13:15,-86.6167,39.1460,M,M,M,350.00,5.00,M,30.17,M,9.00,M,BKN,OVC,M,M,999.00,1300.00,M,M,M,KBMG 011315Z AUTO 35005KT 9SM BKN009 OVC013 A3017 RMK VRB05KT CIG 6V11  MADISHF
BMG,2017-04-01 13:20,-86.6167,39.1460,M,M,M,360.00,6.00,M,30.17,M,9.00,M,BKN,OVC,M,M,900.00,1300.00,M,M,M,KBMG 011320Z AUTO 36006KT 9SM BKN009 OVC013 A3017 RMK CIG 7V12  MADISHF
BMG,2017-04-01 13:22,-86.6167,39.1460,41.00,37.00,85.54,360.00,6.00,0.00,30.17,M,9.00,M,BKN,OVC,M,M,900.00,1300.00,M,M,M,KBMG 011322Z 36006KT 9SM BKN009 OVC013 05/03 A3017 RMK AO2 CIG 007V012 T00500028
BMG,2017-04-01 13:25,-86.6167,39.1460,M,M,M,360.00,6.00,M,30.17,M,8.00,M,BKN,OVC,M,M,900.00,1300.00,M,M,M,KBMG 011325Z AUTO 36006KT 8SM BKN009 OVC013 A3017 RMK CIG 7V12  MADISHF
BMG,2017-04-01 13:30,-86.6167,39.1460,M,M,M,360.00,5.00,M,30.17,M,7.00,M,BKN,OVC,M,M,900.00,1400.00,M,M,M,KBMG 011330Z AUTO 36005KT 7SM BKN009 OVC014 A3017 RMK CIG 7V12  MADISHF
BMG,2017-04-01 13:35,-86.6167,39.1460,M,M,M,360.00,6.00,M,30.17,M,8.00,M,OVC,M,M,M,1100.00,M,M,M,M,KBMG 011335Z AUTO 36006KT 8SM OVC011 A3017 RMK MADISHF
BMG,2017-04-01 13:40,-86.6167,39.1460,M,M,M,350.00,5.00,M,30.17,M,10.00,M,OVC,M,M,M,1100.00,M,M,M,M,KBMG 011340Z AUTO 35005KT 10SM OVC011 A3017 RMK MADISHF
BMG,2017-04-01 13:41,-86.6167,39.1460,41.00,36.00,82.22,350.00,4.00,0.00,30.17,M,10.00,M,OVC,M,M,M,1100.00,M,M,M,M,KBMG 011341Z 35004KT 10SM OVC011 05/02 A3017 RMK AO2 T00500022
BMG,2017-04-01 13:45,-86.6167,39.1460,M,M,M,350.00,6.00,M,30.18,M,9.00,M,OVC,M,M,M,1100.00,M,M,M,M,KBMG 011345Z AUTO 35006KT 9SM OVC011 A3018 RMK MADISHF
BMG,2017-04-01 13:50,-86.6167,39.1460,M,M,M,350.00,5.00,M,30.17,M,9.00,M,OVC,M,M,M,1100.00,M,M,M,M,KBMG 011350Z AUTO 35005KT 9SM OVC011 A3017 RMK MADISHF
BMG,2017-04-01 13:53,-86.6167,39.1460,41.00,37.00,85.54,350.00,4.00,0.00,30.17,1022.10,9.00,M,OVC,M,M,M,1100.00,M,M,M,M,KBMG 011353Z 35004KT 9SM OVC011 05/03 A3017 RMK AO2 CIG 008V012 SLP221 T00500028
BMG,2017-04-01 13:55,-86.6167,39.1460,M,M,M,360.00,5.00,M,30.18,M,9.00,M,BKN,OVC,M,M,1100.00,1400.00,M,M,M,KBMG 011355Z AUTO 36005KT 9SM BKN011 OVC014 A3018 RMK CIG 8V12  MADISHF
BMG,2017-04-01 14:00,-86.6167,39.1460,M,M,M,360.00,5.00,M,30.18,M,10.00,M,BKN,OVC,M,M,1100.00,1400.00,M,M,M,KBMG 011400Z AUTO 36005KT 10SM BKN011 OVC014 A3018 RMK CIG 8V12  MADISHF
BMG,2017-04-01 14:05,-86.6167,39.1460,M,M,M,350.00,5.00,M,30.18,M,10.00,M,OVC,M,M,M,1100.00,M,M,M,M,KBMG 011405Z AUTO 35005KT 10SM OVC011 A3018 RMK CIG 8V12  MADISHF
BMG,2017-04-01 14:10,-86.6167,39.1460,M,M,M,360.00,6.00,M,30.18,M,10.00,M,OVC,M,M,M,999.00,M,M,M,M,KBMG 011410Z AUTO 36006KT 10SM OVC009 A3018 RMK MADISHF
BMG,2017-04-01 14:15,-86.6167,39.1460,M,M,M,350.00,6.00,M,30.18,M,10.00,M,OVC,M,M,M,999.00,M,M,M,M,KBMG 011415Z AUTO 35006KT 10SM OVC009 A3018 RMK MADISHF
BMG,2017-04-01 14:20,-86.6167,39.1460,M,M,M,350.00,6.00,M,30.19,M,10.00,M,OVC,M,M,M,1100.00,M,M,M,M,KBMG 011420Z AUTO 35006KT 10SM OVC011 A3019 RMK MADISHF
BMG,2017-04-01 14:25,-86.6167,39.1460,M,M,M,350.00,7.00,M,30.19,M,10.00,M,OVC,M,M,M,1100.00,M,M,M,M,KBMG 011425Z AUTO 35007KT 10SM OVC011 A3019 RMK MADISHF
BMG,2017-04-01 14:30,-86.6167,39.1460,M,M,M,10.00,7.00,M,30.19,M,10.00,M,OVC,M,M,M,1100.00,M,M,M,M,KBMG 011430Z AUTO 01007KT 10SM OVC011 A3019 RMK MADISHF
BMG,2017-04-01 14:35,-86.6167,39.1460,M,M,M,360.00,7.00,M,30.20,M,10.00,M,OVC,M,M,M,1100.00,M,M,M,M,KBMG 011435Z AUTO 36007KT 10SM OVC011 A3020 RMK MADISHF
BMG,2017-04-01 14:40,-86.6167,39.1460,M,M,M,360.00,7.00,M,30.20,M,10.00,M,OVC,M,M,M,1100.00,M,M,M,M,KBMG 011440Z AUTO 36007KT 10SM OVC011 A3020 RMK MADISHF
BMG,2017-04-01 14:45,-86.6167,39.1460,M,M,M,360.00,7.00,M,30.21,M,8.00,M,OVC,M,M,M,1100.00,M,M,M,M,KBMG 011445Z AUTO 36007KT 8SM OVC011 A3021 RMK CIG 8V13  MADISHF
BMG,2017-04-01 14:50,-86.6167,39.1460,M,M,M,350.00,5.00,M,30.21,M,7.00,M,OVC,M,M,M,1100.00,M,M,M,M,KBMG 011450Z AUTO 35005KT 7SM OVC011 A3021 RMK CIG 7V12  MADISHF
BMG,2017-04-01 14:53,-86.6167,39.1460,42.10,37.00,81.98,M,5.00,0.00,30.21,1023.20,7.00,M,OVC,M,M,M,1100.00,M,M,M,M,KBMG 011453Z VRB05KT 7SM OVC011 06/03 A3021 RMK AO2 CIG 007V012 SLP232 T00560028 53022
BMG,2017-04-01 14:55,-86.6167,39.1460,M,M,M,360.00,7.00,M,30.21,M,7.00,M,OVC,M,M,M,900.00,M,M,M,M,KBMG 011455Z AUTO 36007KT 7SM OVC009 A3021 RMK CIG 7V12  MADISHF
BMG,2017-04-01 15:00,-86.6167,39.1460,42.10,37.00,81.98,20.00,6.00,0.00,30.21,M,7.00,M,OVC,M,M,M,900.00,M,M,M,M,KBMG 011500Z 02006KT 7SM OVC009 06/03 A3021 RMK AO2 CIG 007V012 T00560028
BMG,2017-04-01 15:05,-86.6167,39.1460,M,M,M,10.00,7.00,M,30.21,M,6.00,M,OVC,M,M,M,900.00,M,M,M,HZ,KBMG 011505Z AUTO 01007KT 6SM HZ OVC009 A3021 RMK CIG 7V12  MADISHF
BMG,2017-04-01 15:10,-86.6167,39.1460,M,M,M,20.00,7.00,M,30.20,M,5.00,M,OVC,M,M,M,900.00,M,M,M,HZ,KBMG 011510Z AUTO 02007KT 5SM HZ OVC009 A3020 RMK CIG 7V12  MADISHF
BMG,2017-04-01 15:15,-86.6167,39.1460,M,M,M,10.00,7.00,M,30.20,M,5.00,M,OVC,M,M,M,900.00,M,M,M,HZ,KBMG 011515Z AUTO 01007KT 5SM HZ OVC009 A3020 RMK CIG 7V12  MADISHF
BMG,2017-04-01 15:20,-86.6167,39.1460,M,M,M,350.00,6.00,M,30.20,M,6.00,M,OVC,M,M,M,900.00,M,M,M,HZ,KBMG 011520Z AUTO 35006KT 6SM HZ OVC009 A3020 RMK CIG 6V12  MADISHF
BMG,2017-04-01 15:25,-86.6167,39.1460,M,M,M,360.00,7.00,M,30.21,M,7.00,M,OVC,M,M,M,900.00,M,M,M,M,KBMG 011525Z AUTO 36007KT 7SM OVC009 A3021 RMK CIG 6V12  MADISHF
BMG,2017-04-01 15:30,-86.6167,39.1460,M,M,M,350.00,6.00,M,30.21,M,9.00,M,OVC,M,M,M,900.00,M,M,M,M,KBMG 011530Z AUTO 35006KT 9SM OVC009 A3021 RMK CIG 6V12  MADISHF
BMG,2017-04-01 15:35,-86.6167,39.1460,M,M,M,350.00,7.00,M,30.21,M,10.00,M,OVC,M,M,M,900.00,M,M,M,M,KBMG 011535Z AUTO 35007KT 10SM OVC009 A3021 RMK CIG 6V12  MADISHF
BMG,2017-04-01 15:40,-86.6167,39.1460,M,M,M,360.00,7.00,M,30.21,M,9.00,M,OVC,M,M,M,900.00,M,M,M,M,KBMG 011540Z AUTO 36007KT 9SM OVC009 A3021 RMK CIG 6V12  MADISHF
BMG,2017-04-01 15:45,-86.6167,39.1460,M,M,M,360.00,5.00,M,30.21,M,9.00,M,OVC,M,M,M,900.00,M,M,M,M,KBMG 011545Z AUTO 36005KT 9SM OVC009 A3021 RMK CIG 6V12  MADISHF
BMG,2017-04-01 15:50,-86.6167,39.1460,M,M,M,360.00,5.00,M,30.21,M,9.00,M,BKN,OVC,M,M,900.00,1300.00,M,M,M,KBMG 011550Z AUTO 36005KT 9SM BKN009 OVC013 A3021 RMK CIG 7V11  MADISHF
BMG,2017-04-01 15:53,-86.6167,39.1460,42.10,37.00,81.98,350.00,5.00,0.00,30.21,1023.50,10.00,M,BKN,OVC,M,M,900.00,1300.00,M,M,M,KBMG 011553Z 35005KT 10SM BKN009 OVC013 06/03 A3021 RMK AO2 CIG 007V011 SLP235 T00560028
BMG,2017-04-01 15:55,-86.6167,39.1460,M,M,M,350.00,4.00,M,30.21,M,10.00,M,BKN,OVC,M,M,900.00,1500.00,M,M,M,KBMG 011555Z AUTO 35004KT 10SM BKN009 OVC015 A3021 RMK CIG 7V11  MADISHF
BMG,2017-04-01 16:00,-86.6167,39.1460,M,M,M,360.00,5.00,M,30.21,M,10.00,M,BKN,OVC,M,M,900.00,1500.00,M,M,M,KBMG 011600Z AUTO 36005KT 10SM BKN009 OVC015 A3021 RMK MADISHF
BMG,2017-04-01 16:05,-86.6167,39.1460,M,M,M,30.00,6.00,M,30.21,M,10.00,M,BKN,OVC,M,M,900.00,1500.00,M,M,M,KBMG 011605Z AUTO 03006KT 10SM BKN009 OVC015 A3021 RMK MADISHF
BMG,2017-04-01 16:10,-86.6167,39.1460,M,M,M,30.00,6.00,M,30.21,M,10.00,M,BKN,OVC,M,M,900.00,1500.00,M,M,M,KBMG 011610Z AUTO 03006KT 10SM BKN009 OVC015 A3021 RMK MADISHF
BMG,2017-04-01 16:15,-86.6167,39.1460,M,M,M,40.00,6.00,M,30.21,M,10.00,M,BKN,OVC,M,M,900.00,1500.00,M,M,M,KBMG 011615Z AUTO 04006KT 10SM BKN009 OVC015 A3021 RMK MADISHF
BMG,2017-04-01 16:20,-86.6167,39.1460,M,M,M,40.00,5.00,M,30.21,M,9.00,M,BKN,OVC,M,M,900.00,1500.00,M,M,M,KBMG 011620Z AUTO 04005KT 9SM BKN009 OVC015 A3021 RMK MADISHF
BMG,2017-04-01 16:25,-86.6167,39.1460,M,M,M,40.00,4.00,M,30.21,M,10.00,M,BKN,OVC,M,M,900.00,1500.00,M,M,M,KBMG 011625Z AUTO 04004KT 10SM BKN009 OVC015 A3021 RMK MADISHF
BMG,2017-04-01 16:30,-86.6167,39.1460,M,M,M,10.00,5.00,M,30.21,M,10.00,M,BKN,OVC,M,M,900.00,1500.00,M,M,M,KBMG 011630Z AUTO 01005KT 10SM BKN009 OVC015 A3021 RMK MADISHF
BMG,2017-04-01 16:35,-86.6167,39.1460,M,M,M,10.00,5.00,M,30.21,M,10.00,M,OVC,M,M,M,999.00,M,M,M,M,KBMG 011635Z AUTO 01005KT 10SM OVC009 A3021 RMK MADISHF
BMG,2017-04-01 16:40,-86.6167,39.1460,M,M,M,350.00,6.00,M,30.21,M,10.00,M,OVC,M,M,M,999.00,M,M,M,M,KBMG 011640Z AUTO 35006KT 10SM OVC009 A3021 RMK MADISHF
BMG,2017-04-01 16:41,-86.6167,39.1460,43.00,37.00,79.19,350.00,5.00,0.00,30.21,M,10.00,M,OVC,M,M,M,1000.00,M,M,M,M,KBMG 011641Z 35005KT 10SM OVC010 06/03 A3021 RMK AO2 CIG 009V013 T00610028
BMG,2017-04-01 16:45,-86.6167,39.1460,M,M,M,10.00,4.00,M,30.21,M,10.00,M,OVC,M,M,M,999.00,M,M,M,M,KBMG 011645Z AUTO 01004KT 10SM OVC009 A3021 RMK MADISHF
BMG,2017-04-01 16:50,-86.6167,39.1460,M,M,M,320.00,4.00,M,30.21,M,10.00,M,OVC,M,M,M,1200.00,M,M,M,M,KBMG 011650Z AUTO 32004KT 10SM OVC012 A3021 RMK MADISHF
BMG,2017-04-01 16:53,-86.6167,39.1460,43.00,36.00,76.12,M,4.00,0.00,30.20,1023.10,10.00,M,OVC,M,M,M,1200.00,M,M,M,M,KBMG 011653Z VRB04KT 10SM OVC012 06/02 A3020 RMK AO2 SLP231 T00610022
BMG,2017-04-01 16:55,-86.6167,39.1460,M,M,M,300.00,3.00,M,30.20,M,10.00,M,OVC,M,M,M,1200.00,M,M,M,M,KBMG 011655Z AUTO 30003KT 10SM OVC012 A3020 RMK VRB03KT  MADISHF
BMG,2017-04-01 17:00,-86.6167,39.1460,M,M,M,10.00,4.00,M,30.20,M,10.00,M,OVC,M,M,M,1200.00,M,M,M,M,KBMG 011700Z AUTO 01004KT 10SM OVC012 A3020 RMK VRB04KT  MADISHF
BMG,2017-04-01 17:05,-86.6167,39.1460,M,M,M,10.00,7.00,M,30.20,M,10.00,M,OVC,M,M,M,1300.00,M,M,M,M,KBMG 011705Z AUTO 01007KT 10SM OVC013 A3020 RMK MADISHF
BMG,2017-04-01 17:10,-86.6167,39.1460,M,M,M,350.00,4.00,M,30.20,M,10.00,M,OVC,M,M,M,1300.00,M,M,M,M,KBMG 011710Z AUTO 35004KT 10SM OVC013 A3020 RMK MADISHF
BMG,2017-04-01 17:15,-86.6167,39.1460,M,M,M,350.00,5.00,M,30.20,M,10.00,M,OVC,M,M,M,1400.00,M,M,M,M,KBMG 011715Z AUTO 35005KT 10SM OVC014 A3020 RMK MADISHF
BMG,2017-04-01 17:20,-86.6167,39.1460,M,M,M,10.00,3.00,M,30.20,M,10.00,M,OVC,M,M,M,1400.00,M,M,M,M,KBMG 011720Z AUTO 01003KT 10SM OVC014 A3020 RMK MADISHF
BMG,2017-04-01 17:25,-86.6167,39.1460,M,M,M,10.00,6.00,M,30.19,M,10.00,M,OVC,M,M,M,1400.00,M,M,M,M,KBMG 011725Z AUTO 01006KT 10SM OVC014 A3019 RMK MADISHF
BMG,2017-04-01 17:30,-86.6167,39.1460,M,M,M,60.00,5.00,M,30.19,M,10.00,M,OVC,M,M,M,1600.00,M,M,M,M,KBMG 011730Z AUTO 06005KT 10SM OVC016 A3019 RMK VRB05KT  MADISHF
BMG,2017-04-01 17:32,-86.6167,39.1460,45.00,36.00,70.53,90.00,3.00,0.00,30.19,M,10.00,M,OVC,M,M,M,1600.00,M,M,M,M,KBMG 011732Z 09003KT 10SM OVC016 07/02 A3019 RMK AO2 T00720022
BMG,2017-04-01 17:35,-86.6167,39.1460,M,M,M,0.00,0.00,M,30.19,M,10.00,M,OVC,M,M,M,1600.00,M,M,M,M,KBMG 011735Z AUTO 00000KT 10SM OVC016 A3019 RMK MADISHF
BMG,2017-04-01 17:40,-86.6167,39.1460,M,M,M,20.00,4.00,M,30.19,M,10.00,M,OVC,M,M,M,1600.00,M,M,M,M,KBMG 011740Z AUTO 02004KT 10SM OVC016 A3019 RMK MADISHF
BMG,2017-04-01 17:45,-86.6167,39.1460,M,M,M,360.00,4.00,M,30.19,M,10.00,M,OVC,M,M,M,1600.00,M,M,M,M,KBMG 011745Z AUTO 36004KT 10SM OVC016 A3019 RMK MADISHF
BMG,2017-04-01 17:50,-86.6167,39.1460,M,M,M,20.00,5.00,M,30.19,M,10.00,M,OVC,M,M,M,1699.00,M,M,M,M,KBMG 011750Z AUTO 02005KT 10SM OVC016 A3019 RMK MADISHF
BMG,2017-04-01 17:53,-86.6167,39.1460,46.00,36.00,67.90,360.00,5.00,0.00,30.19,1022.70,10.00,M,OVC,M,M,M,1700.00,M,M,M,M,KBMG 011753Z 36005KT 10SM OVC017 08/02 A3019 RMK AO2 SLP227 T00780022 10078 20044 58004
BMG,2017-04-01 17:55,-86.6167,39.1460,M,M,M,360.00,4.00,M,30.19,M,10.00,M,OVC,M,M,M,1699.00,M,M,M,M,KBMG 011755Z AUTO 36004KT 10SM OVC016 A3019 RMK MADISHF
BMG,2017-04-01 18:00,-86.6167,39.1460,M,M,M,350.00,4.00,M,30.19,M,10.00,M,OVC,M,M,M,1699.00,M,M,M,M,KBMG 011800Z AUTO 35004KT 10SM OVC016 A3019 RMK MADISHF
BMG,2017-04-01 18:05,-86.6167,39.1460,M,M,M,0.00,0.00,M,30.20,M,10.00,M,OVC,M,M,M,1699.00,M,M,M,M,KBMG 011805Z AUTO 00000KT 10SM OVC016 A3020 RMK MADISHF
BMG,2017-04-01 18:10,-86.6167,39.1460,M,M,M,40.00,3.00,M,30.19,M,10.00,M,OVC,M,M,M,1800.00,M,M,M,M,KBMG 011810Z AUTO 04003KT 10SM OVC018 A3019 RMK VRB03KT  MADISHF
BMG,2017-04-01 18:15,-86.6167,39.1460,M,M,M,330.00,3.00,M,30.20,M,10.00,M,OVC,M,M,M,1800.00,M,M,M,M,KBMG 011815Z AUTO 33003KT 10SM OVC018 A3020 RMK VRB03KT  MADISHF
BMG,2017-04-01 18:20,-86.6167,39.1460,M,M,M,20.00,5.00,M,30.20,M,10.00,M,OVC,M,M,M,1800.00,M,M,M,M,KBMG 011820Z AUTO 02005KT 10SM OVC018 A3020 RMK MADISHF
BMG,2017-04-01 18:25,-86.6167,39.1460,M,M,M,360.00,4.00,M,30.20,M,10.00,M,OVC,M,M,M,1900.00,M,M,M,M,KBMG 011825Z AUTO 36004KT 10SM OVC019 A3020 RMK MADISHF
BMG,2017-04-01 18:30,-86.6167,39.1460,M,M,M,0.00,0.00,M,30.20,M,10.00,M,OVC,M,M,M,1900.00,M,M,M,M,KBMG 011830Z AUTO 00000KT 10SM OVC019 A3020 RMK MADISHF
BMG,2017-04-01 18:35,-86.6167,39.1460,M,M,M,320.00,3.00,M,30.20,M,10.00,M,OVC,M,M,M,1900.00,M,M,M,M,KBMG 011835Z AUTO 32003KT 10SM OVC019 A3020 RMK VRB03KT  MADISHF
BMG,2017-04-01 18:40,-86.6167,39.1460,M,M,M,60.00,4.00,M,30.19,M,10.00,M,OVC,M,M,M,2100.00,M,M,M,M,KBMG 011840Z AUTO 06004KT 10SM OVC021 A3019 RMK MADISHF
BMG,2017-04-01 18:45,-86.6167,39.1460,M,M,M,40.00,6.00,M,30.19,M,10.00,M,OVC,M,M,M,2100.00,M,M,M,M,KBMG 011845Z AUTO 04006KT 10SM OVC021 A3019 RMK VRB06KT  MADISHF
BMG,2017-04-01 18:50,-86.6167,39.1460,M,M,M,60.00,5.00,M,30.19,M,10.00,M,OVC,M,M,M,2100.00,M,M,M,M,KBMG 011850Z AUTO 06005KT 10SM OVC021 A3019 RMK MADISHF
BMG,2017-04-01 18:53,-86.6167,39.1460,46.90,37.00,68.27,40.00,5.00,0.00,30.19,1022.80,10.00,M,OVC,M,M,M,2300.00,M,M,M,M,KBMG 011853Z 04005KT 10SM OVC023 08/03 A3019 RMK AO2 SLP228 T00830028
BMG,2017-04-01 18:55,-86.6167,39.1460,M,M,M,50.00,3.00,M,30.20,M,10.00,M,OVC,M,M,M,2300.00,M,M,M,M,KBMG 011855Z AUTO 05003KT 10SM OVC023 A3020 RMK MADISHF
BMG,2017-04-01 19:00,-86.6167,39.1460,M,M,M,50.00,4.00,M,30.20,M,10.00,M,OVC,M,M,M,2300.00,M,M,M,M,KBMG 011900Z AUTO 05004KT 10SM OVC023 A3020 RMK MADISHF
BMG,2017-04-01 19:05,-86.6167,39.1460,M,M,M,50.00,3.00,M,30.20,M,10.00,M,OVC,M,M,M,2200.00,M,M,M,M,KBMG 011905Z AUTO 05003KT 10SM OVC022 A3020 RMK MADISHF
BMG,2017-04-01 19:10,-86.6167,39.1460,M,M,M,0.00,0.00,M,30.19,M,10.00,M,OVC,M,M,M,2200.00,M,M,M,M,KBMG 011910Z AUTO 00000KT 10SM OVC022 A3019 RMK MADISHF
BMG,2017-04-01 19:15,-86.6167,39.1460,M,M,M,0.00,0.00,M,30.19,M,10.00,M,OVC,M,M,M,2200.00,M,M,M,M,KBMG 011915Z AUTO 00000KT 10SM OVC022 A3019 RMK MADISHF
BMG,2017-04-01 19:20,-86.6167,39.1460,M,M,M,0.00,0.00,M,30.19,M,10.00,M,OVC,M,M,M,2200.00,M,M,M,M,KBMG 011920Z AUTO 00000KT 10SM OVC022 A3019 RMK MADISHF
BMG,2017-04-01 19:25,-86.6167,39.1460,M,M,M,0.00,0.00,M,30.19,M,10.00,M,OVC,M,M,M,2200.00,M,M,M,M,KBMG 011925Z AUTO 00000KT 10SM OVC022 A3019 RMK MADISHF
BMG,2017-04-01 19:30,-86.6167,39.1460,M,M,M,0.00,0.00,M,30.19,M,10.00,M,OVC,M,M,M,2400.00,M,M,M,M,KBMG 011930Z AUTO 00000KT 10SM OVC024 A3019 RMK MADISHF
BMG,2017-04-01 19:35,-86.6167,39.1460,M,M,M,0.00,0.00,M,30.19,M,10.00,M,OVC,M,M,M,2400.00,M,M,M,M,KBMG 011935Z AUTO 00000KT 10SM OVC024 A3019 RMK MADISHF
BMG,2017-04-01 19:40,-86.6167,39.1460,M,M,M,70.00,5.00,M,30.19,M,10.00,M,OVC,M,M,M,2400.00,M,M,M,M,KBMG 011940Z AUTO 07005KT 10SM OVC024 A3019 RMK MADISHF
BMG,2017-04-01 19:45,-86.6167,39.1460,M,M,M,50.00,4.00,M,30.19,M,10.00,M,OVC,M,M,M,2500.00,M,M,M,M,KBMG 011945Z AUTO 05004KT 10SM OVC025 A3019 RMK MADISHF
BMG,2017-04-01 19:50,-86.6167,39.1460,M,M,M,340.00,4.00,M,30.19,M,10.00,M,OVC,M,M,M,2500.00,M,M,M,M,KBMG 011950Z AUTO 34004KT 10SM OVC025 A3019 RMK MADISHF
BMG,2017-04-01 19:53,-86.6167,39.1460,48.90,37.00,63.34,M,3.00,0.00,30.19,1022.40,10.00,M,OVC,M,M,M,2600.00,M,M,M,M,KBMG 011953Z VRB03KT 10SM OVC026 09/03 A3019 RMK AO2 SLP224 T00940028
BMG,2017-04-01 19:55,-86.6167,39.1460,M,M,M,360.00,3.00,M,30.19,M,10.00,M,OVC,M,M,M,2600.00,M,M,M,M,KBMG 011955Z AUTO 36003KT 10SM OVC026 A3019 RMK MADISHF
BMG,2017-04-01 20:00,-86.6167,39.1460,M,M,M,0.00,0.00,M,30.19,M,10.00,M,OVC,M,M,M,2600.00,M,M,M,M,KBMG 012000Z AUTO 00000KT 10SM OVC026 A3019 RMK MADISHF
BMG,2017-04-01 20:05,-86.6167,39.1460,M,M,M,0.00,0.00,M,30.19,M,10.00,M,OVC,M,M,M,2600.00,M,M,M,M,KBMG 012005Z AUTO 00000KT 10SM OVC026 A3019 RMK MADISHF
BMG,2017-04-01 20:10,-86.6167,39.1460,M,M,M,300.00,4.00,M,30.19,M,10.00,M,OVC,M,M,M,2600.00,M,M,M,M,KBMG 012010Z AUTO 30004KT 10SM OVC026 A3019 RMK MADISHF
BMG,2017-04-01 20:15,-86.6167,39.1460,M,M,M,350.00,3.00,M,30.19,M,10.00,M,OVC,M,M,M,2600.00,M,M,M,M,KBMG 012015Z AUTO 35003KT 10SM OVC026 A3019 RMK VRB03KT  MADISHF
BMG,2017-04-01 20:20,-86.6167,39.1460,M,M,M,0.00,0.00,M,30.19,M,10.00,M,BKN,M,M,M,2600.00,M,M,M,M,KBMG 012020Z AUTO 00000KT 10SM BKN026 A3019 RMK MADISHF
BMG,2017-04-01 20:25,-86.6167,39.1460,M,M,M,10.00,3.00,M,30.19,M,10.00,M,BKN,M,M,M,2600.00,M,M,M,M,KBMG 012025Z AUTO 01003KT 10SM BKN026 A3019 RMK MADISHF
BMG,2017-04-01 20:35,-86.6167,39.1460,M,M,M,0.00,0.00,M,30.19,M,10.00,M,BKN,M,M,M,2600.00,M,M,M,M,KBMG 012035Z AUTO 00000KT 10SM BKN026 A3019 RMK MADISHF
BMG,2017-04-01 20:40,-86.6167,39.1460,M,M,M,0.00,0.00,M,30.19,M,10.00,M,BKN,M,M,M,2600.00,M,M,M,M,KBMG 012040Z AUTO 00000KT 10SM BKN026 A3019 RMK MADISHF
BMG,2017-04-01 20:45,-86.6167,39.1460,M,M,M,350.00,4.00,M,30.19,M,10.00,M,BKN,M,M,M,2600.00,M,M,M,M,KBMG 012045Z AUTO 35004KT 10SM BKN026 A3019 RMK VRB04KT  MADISHF
BMG,2017-04-01 20:50,-86.6167,39.1460,M,M,M,350.00,3.00,M,30.19,M,10.00,M,BKN,M,M,M,2900.00,M,M,M,M,KBMG 012050Z AUTO 35003KT 10SM BKN029 A3019 RMK MADISHF
BMG,2017-04-01 20:53,-86.6167,39.1460,53.10,37.90,56.17,0.00,0.00,0.00,30.19,1022.50,10.00,M,BKN,M,M,M,2900.00,M,M,M,M,KBMG 012053Z 00000KT 10SM BKN029 12/03 A3019 RMK AO2 SLP225 T01170033 55000
BMG,2017-04-01 20:55,-86.6167,39.1460,M,M,M,40.00,4.00,M,30.19,M,10.00,M,BKN,M,M,M,2900.00,M,M,M,M,KBMG 012055Z AUTO 04004KT 10SM BKN029 A3019 RMK VRB04KT  MADISHF
BMG,2017-04-01 21:00,-86.6167,39.1460,M,M,M,50.00,4.00,M,30.19,M,10.00,M,SCT,M,M,M,2900.00,M,M,M,M,KBMG 012100Z AUTO 05004KT 10SM SCT029 A3019 RMK MADISHF
BMG,2017-04-01 21:05,-86.6167,39.1460,M,M,M,20.00,4.00,M,30.19,M,10.00,M,BKN,M,M,M,2900.00,M,M,M,M,KBMG 012105Z AUTO 02004KT 10SM BKN029 A3019 RMK MADISHF
BMG,2017-04-01 21:10,-86.6167,39.1460,M,M,M,340.00,3.00,M,30.19,M,10.00,M,BKN,M,M,M,2900.00,M,M,M,M,KBMG 012110Z AUTO 34003KT 10SM BKN029 A3019 RMK VRB03KT  MADISHF
BMG,2017-04-01 21:15,-86.6167,39.1460,M,M,M,350.00,4.00,M,30.19,M,10.00,M,BKN,M,M,M,2900.00,M,M,M,M,KBMG 012115Z AUTO 35004KT 10SM BKN029 A3019 RMK VRB04KT  MADISHF
BMG,2017-04-01 21:20,-86.6167,39.1460,M,M,M,0.00,0.00,M,30.19,M,10.00,M,SCT,M,M,M,3100.00,M,M,M,M,KBMG 012120Z AUTO 00000KT 10SM SCT031 A3019 RMK MADISHF
BMG,2017-04-01 21:25,-86.6167,39.1460,52.00,37.00,56.45,0.00,0.00,0.00,30.19,M,10.00,M,SCT,M,M,M,3100.00,M,M,M,M,KBMG 012125Z 00000KT 10SM SCT031 11/03 A3019 RMK AO2 T01110028
BMG,2017-04-01 21:30,-86.6167,39.1460,M,M,M,110.00,3.00,M,30.18,M,10.00,M,SCT,M,M,M,3100.00,M,M,M,M,KBMG 012130Z AUTO 11003KT 10SM SCT031 A3018 RMK VRB03KT  MADISHF
BMG,2017-04-01 21:35,-86.6167,39.1460,M,M,M,0.00,0.00,M,30.18,M,10.00,M,FEW,M,M,M,3300.00,M,M,M,M,KBMG 012135Z AUTO 00000KT 10SM FEW033 A3018 RMK MADISHF
BMG,2017-04-01 21:40,-86.6167,39.1460,M,M,M,10.00,4.00,M,30.18,M,10.00,M,SCT,M,M,M,3300.00,M,M,M,M,KBMG 012140Z AUTO 01004KT 10SM SCT033 A3018 RMK VRB04KT  MADISHF
BMG,2017-04-01 21:45,-86.6167,39.1460,M,M,M,360.00,5.00,M,30.18,M,10.00,M,SCT,M,M,M,3200.00,M,M,M,M,KBMG 012145Z AUTO 36005KT 10SM SCT032 A3018 RMK MADISHF
BMG,2017-04-01 21:50,-86.6167,39.1460,M,M,M,10.00,4.00,M,30.18,M,10.00,M,SCT,M,M,M,3200.00,M,M,M,M,KBMG 012150Z AUTO 01004KT 10SM SCT032 A3018 RMK MADISHF
BMG,2017-04-01 21:53,-86.6167,39.1460,55.00,37.90,52.40,40.00,3.00,0.00,30.18,1022.20,10.00,M,SCT,M,M,M,3200.00,M,M,M,M,KBMG 012153Z 04003KT 10SM SCT032 13/03 A3018 RMK AO2 SLP222 T01280033
BMG,2017-04-01 21:55,-86.6167,39.1460,M,M,M,360.00,3.00,M,30.18,M,10.00,M,FEW,M,M,M,3200.00,M,M,M,M,KBMG 012155Z AUTO 36003KT 10SM FEW032 A3018 RMK VRB03KT  MADISHF
BMG,2017-04-01 22:00,-86.6167,39.1460,M,M,M,80.00,4.00,M,30.18,M,10.00,M,CLR,M,M,M,M,M,M,M,M,KBMG 012200Z AUTO 08004KT 10SM CLR A3018 RMK MADISHF
BMG,2017-04-01 22:05,-86.6167,39.1460,M,M,M,20.00,6.00,M,30.18,M,10.00,M,CLR,M,M,M,M,M,M,M,M,KBMG 012205Z AUTO 02006KT 10SM CLR A3018 RMK MADISHF
BMG,2017-04-01 22:10,-86.6167,39.1460,M,M,M,40.00,7.00,M,30.18,M,10.00,M,FEW,M,M,M,3500.00,M,M,M,M,KBMG 012210Z AUTO 04007KT 10SM FEW035 A3018 RMK MADISHF
BMG,2017-04-01 22:15,-86.6167,39.1460,M,M,M,70.00,5.00,M,30.18,M,10.00,M,FEW,M,M,M,3500.00,M,M,M,M,KBMG 012215Z AUTO 07005KT 10SM FEW035 A3018 RMK VRB05KT  MADISHF
BMG,2017-04-01 22:20,-86.6167,39.1460,M,M,M,80.00,6.00,M,30.18,M,10.00,M,FEW,M,M,M,3500.00,M,M,M,M,KBMG 012220Z AUTO 08006KT 10SM FEW035 A3018 RMK MADISHF
BMG,2017-04-01 22:25,-86.6167,39.1460,M,M,M,30.00,5.00,M,30.18,M,10.00,M,FEW,M,M,M,3500.00,M,M,M,M,KBMG 012225Z AUTO 03005KT 10SM FEW035 A3018 RMK MADISHF
BMG,2017-04-01 22:30,-86.6167,39.1460,M,M,M,360.00,3.00,M,30.18,M,10.00,M,FEW,M,M,M,3500.00,M,M,M,M,KBMG 012230Z AUTO 36003KT 10SM FEW035 A3018 RMK MADISHF
BMG,2017-04-01 22:35,-86.6167,39.1460,M,M,M,110.00,4.00,M,30.19,M,10.00,M,FEW,M,M,M,3500.00,M,M,M,M,KBMG 012235Z AUTO 11004KT 10SM FEW035 A3019 RMK MADISHF
BMG,2017-04-01 22:40,-86.6167,39.1460,M,M,M,130.00,4.00,M,30.19,M,10.00,M,FEW,M,M,M,3500.00,M,M,M,M,KBMG 012240Z AUTO 13004KT 10SM FEW035 A3019 RMK MADISHF
BMG,2017-04-01 22:45,-86.6167,39.1460,M,M,M,130.00,3.00,M,30.19,M,10.00,M,FEW,M,M,M,3500.00,M,M,M,M,KBMG 012245Z AUTO 13003KT 10SM FEW035 A3019 RMK VRB03KT  MADISHF
BMG,2017-04-01 22:50,-86.6167,39.1460,M,M,M,100.00,3.00,M,30.18,M,10.00,M,FEW,M,M,M,3500.00,M,M,M,M,KBMG 012250Z AUTO 10003KT 10SM FEW035 A3018 RMK MADISHF
BMG,2017-04-01 22:53,-86.6167,39.1460,53.10,37.00,54.21,110.00,4.00,0.00,30.18,1022.20,10.00,M,FEW,M,M,M,3600.00,M,M,M,M,KBMG 012253Z 11004KT 10SM FEW036 12/03 A3018 RMK AO2 SLP222 T01170028
BMG,2017-04-01 22:55,-86.6167,39.1460,M,M,M,140.00,6.00,M,30.18,M,10.00,M,FEW,M,M,M,3600.00,M,M,M,M,KBMG 012255Z AUTO 14006KT 10SM FEW036 A3018 RMK MADISHF
BMG,2017-04-01 23:00,-86.6167,39.1460,M,M,M,180.00,6.00,M,30.18,M,10.00,M,CLR,M,M,M,M,M,M,M,M,KBMG 012300Z AUTO 18006KT 10SM CLR A3018 RMK MADISHF
BMG,2017-04-01 23:05,-86.6167,39.1460,M,M,M,150.00,8.00,M,30.18,M,10.00,M,CLR,M,M,M,M,M,M,M,M,KBMG 012305Z AUTO 15008KT 10SM CLR A3018 RMK MADISHF
BMG,2017-04-01 23:10,-86.6167,39.1460,M,M,M,160.00,6.00,M,30.18,M,10.00,M,CLR,M,M,M,M,M,M,M,M,KBMG 012310Z AUTO 16006KT 10SM CLR A3018 RMK MADISHF
BMG,2017-04-01 23:15,-86.6167,39.1460,M,M,M,150.00,6.00,M,30.18,M,10.00,M,CLR,M,M,M,M,M,M,M,M,KBMG 012315Z AUTO 15006KT 10SM CLR A3018 RMK MADISHF
BMG,2017-04-01 23:20,-86.6167,39.1460,M,M,M,150.00,7.00,M,30.18,M,10.00,M,CLR,M,M,M,M,M,M,M,M,KBMG 012320Z AUTO 15007KT 10SM CLR A3018 RMK MADISHF
BMG,2017-04-01 23:25,-86.6167,39.1460,M,M,M,160.00,6.00,M,30.18,M,10.00,M,CLR,M,M,M,M,M,M,M,M,KBMG 012325Z AUTO 16006KT 10SM CLR A3018 RMK MADISHF
BMG,2017-04-01 23:30,-86.6167,39.1460,M,M,M,160.00,4.00,M,30.18,M,10.00,M,CLR,M,M,M,M,M,M,M,M,KBMG 012330Z AUTO 16004KT 10SM CLR A3018 RMK MADISHF
BMG,2017-04-01 23:35,-86.6167,39.1460,M,M,M,160.00,5.00,M,30.19,M,10.00,M,CLR,M,M,M,M,M,M,M,M,KBMG 012335Z AUTO 16005KT 10SM CLR A3019 RMK MADISHF
BMG,2017-04-01 23:40,-86.6167,39.1460,M,M,M,160.00,4.00,M,30.19,M,10.00,M,CLR,M,M,M,M,M,M,M,M,KBMG 012340Z AUTO 16004KT 10SM CLR A3019 RMK MADISHF
BMG,2017-04-01 23:45,-86.6167,39.1460,M,M,M,160.00,5.00,M,30.19,M,10.00,M,CLR,M,M,M,M,M,M,M,M,KBMG 012345Z AUTO 16005KT 10SM CLR A3019 RMK MADISHF
BMG,2017-04-01 23:50,-86.6167,39.1460,M,M,M,170.00,3.00,M,30.19,M,10.00,M,CLR,M,M,M,M,M,M,M,M,KBMG 012350Z AUTO 17003KT 10SM CLR A3019 RMK MADISHF
BMG,2017-04-01 23:53,-86.6167,39.1460,48.90,39.00,68.51,180.00,3.00,0.00,30.19,1022.50,10.00,M,CLR,M,M,M,M,M,M,M,M,KBMG 012353Z 18003KT 10SM CLR 09/04 A3019 RMK AO2 SLP225 T00940039 10128 20072 55001
BMG,2017-04-01 23:55,-86.6167,39.1460,M,M,M,180.00,3.00,M,30.19,M,10.00,M,CLR,M,M,M,M,M,M,M,M,KBMG 012355Z AUTO 18003KT 10SM CLR A3019 RMK MADISHF
