#DEBUG: Format Typ    -> comma
#DEBUG: Time Period   -> 2017-04-01 00:00:00+00:00 2017-04-02 00:00:00+00:00
#DEBUG: Time Zone     -> Etc/UTC
#DEBUG: Data Contact   -> daryl herzmann akrherz@iastate.edu 515-294-5978
#DEBUG: Entries Found -> -1
station,valid,lon,lat,tmpf, dwpf, relh, drct, sknt, p01i, alti, mslp, vsby, gust, skyc1, skyc2, skyc3, skyc4, skyl1, skyl2, skyl3, skyl4, presentwx, metar
BML,2017-04-01 00:00,-71.1786,44.5761,M,M,M,0.00,0.00,M,30.04,M,1.00,M,VV ,M,M,M,1300.00,M,M,M,-SN BR,KBML 010000Z AUTO 00000KT 1SM -SN BR VV013 A3004 RMK MADISHF
BML,2017-04-01 00:05,-71.1786,44.5761,M,M,M,160.00,3.00,0.01,30.04,M,1.00,M,VV ,M,M,M,1300.00,M,M,M,-SN BR,KBML 010005Z AUTO 16003KT 1SM -SN BR VV013 A3004 RMK P0001 MADISHF
BML,2017-04-01 00:15,-71.1786,44.5761,M,M,M,160.00,4.00,0.01,30.04,M,1.25,M,OVC,M,M,M,1500.00,M,M,M,-SN,KBML 010015Z AUTO 16004KT 1 1/2SM -SN OVC015 A3004 RMK P0001 MADISHF
BML,2017-04-01 00:16,-71.1786,44.5761,30.90,26.10,82.15,160.00,3.00,0.01,30.03,M,1.50,M,OVC,M,M,M,1500.00,M,M,M,-SN,KBML 010016Z AUTO 16003KT 1 1/2SM -SN OVC015 M01/M03 A3003 RMK AO2 P0001 T10061033
BML,2017-04-01 00:20,-71.1786,44.5761,M,M,M,0.00,0.00,0.01,30.03,M,1.75,M,OVC,M,M,M,1699.00,M,M,M,-SN,KBML 010020Z AUTO 00000KT 2SM -SN OVC016 A3003 RMK P0001 MADISHF
BML,2017-04-01 00:25,-71.1786,44.5761,M,M,M,170.00,3.00,0.01,30.03,M,2.00,M,FEW,OVC,M,M,1300.00,1699.00,M,M,-SN,KBML 010025Z AUTO 17003KT 2SM -SN FEW013 OVC016 A3003 RMK P0001 MADISHF
BML,2017-04-01 00:34,-71.1786,44.5761,30.90,26.10,82.15,0.00,0.00,0.01,30.03,M,2.00,M,FEW,OVC,M,M,1300.00,1900.00,M,M,-SN,KBML 010034Z AUTO 00000KT 2SM -SN FEW013 OVC019 M01/M03 A3003 RMK AO2 P0001 T10061033
BML,2017-04-01 00:35,-71.1786,44.5761,M,M,M,0.00,0.00,0.01,30.03,M,2.00,M,FEW,OVC,M,M,1300.00,1900.00,M,M,-SN,KBML 010035Z AUTO 00000KT 2SM -SN FEW013 OVC019 A3003 RMK P0001 MADISHF
BML,2017-04-01 00:40,-71.1786,44.5761,M,M,M,170.00,3.00,0.01,30.04,M,1.50,M,OVC,M,M,M,1900.00,M,M,M,-SN,KBML 010040Z AUTO 17003KT 1 1/2SM -SN OVC019 A3004 RMK P0001 MADISHF
BML,2017-04-01 00:43,-71.1786,44.5761,30.90,26.10,82.15,0.00,0.00,0.01,30.04,M,1.25,M,OVC,M,M,M,1700.00,M,M,M,-SN,KBML 010043Z AUTO 00000KT 1 1/4SM -SN OVC017 M01/M03 A3004 RMK AO2 P0001 T10061033
BML,2017-04-01 00:45,-71.1786,44.5761,M,M,M,180.00,4.00,0.02,30.04,M,1.25,M,OVC,M,M,M,1699.00,M,M,M,-SN BR,KBML 010045Z AUTO 18004KT 1 1/2SM -SN BR OVC016 A3004 RMK P0002 MADISHF
BML,2017-04-01 00:52,-71.1786,44.5761,30.90,27.00,85.26,0.00,0.00,0.02,30.04,1018.80,0.75,M,VV ,M,M,M,1500.00,M,M,M,-SN BR,KBML 010052Z AUTO 00000KT 3/4SM -SN BR VV015 M01/M03 A3004 RMK AO2 SLP188 P0002 T10061028
BML,2017-04-01 00:55,-71.1786,44.5761,M,M,M,0.00,0.00,M,30.04,M,0.75,M,VV ,M,M,M,1400.00,M,M,M,-SN BR,KBML 010055Z AUTO 00000KT 1SM -SN BR VV014 A3004 RMK MADISHF
BML,2017-04-01 00:59,-71.1786,44.5761,30.90,27.00,85.26,0.00,0.00,0.01,30.04,M,0.75,M,VV ,M,M,M,1300.00,M,M,M,-SN BR,KBML 010059Z AUTO 00000KT 3/4SM -SN BR VV013 M01/M03 A3004 RMK AO2 P0001 T10061028
BML,2017-04-01 01:00,-71.1786,44.5761,M,M,M,150.00,3.00,0.01,30.04,M,0.75,M,VV ,M,M,M,1300.00,M,M,M,-SN BR,KBML 010100Z AUTO 15003KT 1SM -SN BR VV013 A3004 RMK P0001 VRB03KT  MADISHF
BML,2017-04-01 01:05,-71.1786,44.5761,M,M,M,140.00,4.00,0.01,30.04,M,0.75,M,VV ,M,M,M,1300.00,M,M,M,-SN BR,KBML 010105Z AUTO 14004KT 1SM -SN BR VV013 A3004 RMK P0001 MADISHF
BML,2017-04-01 01:12,-71.1786,44.5761,30.90,27.00,85.26,160.00,3.00,0.02,30.04,M,1.00,M,VV ,M,M,M,1300.00,M,M,M,-SN BR,KBML 010112Z AUTO 16003KT 1SM -SN BR VV013 M01/M03 A3004 RMK AO2 P0002 T10061028
BML,2017-04-01 01:15,-71.1786,44.5761,M,M,M,170.00,4.00,0.02,30.05,M,1.00,M,VV ,M,M,M,1300.00,M,M,M,-SN BR,KBML 010115Z AUTO 17004KT 1SM -SN BR VV013 A3005 RMK P0002 MADISHF
BML,2017-04-01 01:20,-71.1786,44.5761,M,M,M,0.00,0.00,0.02,30.05,M,1.00,M,VV ,M,M,M,1300.00,M,M,M,-SN BR,KBML 010120Z AUTO 00000KT 1SM -SN BR VV013 A3005 RMK P0002 MADISHF
BML,2017-04-01 01:25,-71.1786,44.5761,M,M,M,160.00,3.00,0.03,30.05,M,0.75,M,VV ,M,M,M,1200.00,M,M,M,-SN BR,KBML 010125Z AUTO 16003KT 1SM -SN BR VV012 A3005 RMK P0003 MADISHF
BML,2017-04-01 01:27,-71.1786,44.5761,30.90,27.00,85.26,150.00,3.00,0.03,30.05,M,0.75,M,VV ,M,M,M,1200.00,M,M,M,-SN BR,KBML 010127Z AUTO 15003KT 3/4SM -SN BR VV012 M01/M03 A3005 RMK AO2 P0003 T10061028
BML,2017-04-01 01:30,-71.1786,44.5761,M,M,M,150.00,3.00,0.03,30.04,M,0.75,M,VV ,M,M,M,1200.00,M,M,M,-SN BR,KBML 010130Z AUTO 15003KT 1SM -SN BR VV012 A3004 RMK P0003 MADISHF
BML,2017-04-01 01:35,-71.1786,44.5761,M,M,M,140.00,4.00,0.04,30.04,M,0.75,M,VV ,M,M,M,1100.00,M,M,M,-SN BR,KBML 010135Z AUTO 14004KT 1SM -SN BR VV011 A3004 RMK P0004 MADISHF
BML,2017-04-01 01:40,-71.1786,44.5761,M,M,M,130.00,3.00,0.05,30.04,M,0.50,M,VV ,M,M,M,999.00,M,M,M,SN FZFG,KBML 010140Z AUTO 13003KT 1/2SM SN FZFG VV009 A3004 RMK P0005 MADISHF
BML,2017-04-01 01:45,-71.1786,44.5761,M,M,M,140.00,3.00,0.05,30.04,M,0.50,M,VV ,M,M,M,900.00,M,M,M,SN FZFG,KBML 010145Z AUTO 14003KT 1/2SM SN FZFG VV009 A3004 RMK P0005 MADISHF
BML,2017-04-01 01:50,-71.1786,44.5761,30.20,26.60,86.28,140.00,6.00,0.06,30.04,M,0.50,M,VV ,M,M,M,900.00,M,M,M,SN FZFG,KBML 010150Z AUTO 14006KT 1/2SM SN FZFG VV009 M01/M03 A3004 RMK AO2 P0006
BML,2017-04-01 01:52,-71.1786,44.5761,30.90,27.00,85.26,130.00,4.00,0.06,30.04,1018.60,0.50,M,VV ,M,M,M,800.00,M,M,M,SN FZFG,KBML 010152Z AUTO 13004KT 1/2SM SN FZFG VV008 M01/M03 A3004 RMK AO2 SLP186 P0006 T10061028
BML,2017-04-01 01:55,-71.1786,44.5761,M,M,M,120.00,4.00,0.01,30.04,M,0.50,M,VV ,M,M,M,800.00,M,M,M,SN FZFG,KBML 010155Z AUTO 12004KT 1/2SM SN FZFG VV008 A3004 RMK P0001 MADISHF
BML,2017-04-01 02:00,-71.1786,44.5761,M,M,M,150.00,3.00,0.01,30.03,M,0.50,M,VV ,M,M,M,800.00,M,M,M,SN FZFG,KBML 010200Z AUTO 15003KT 1/2SM SN FZFG VV008 A3003 RMK P0001 MADISHF
BML,2017-04-01 02:05,-71.1786,44.5761,M,M,M,130.00,3.00,0.02,30.03,M,0.50,M,VV ,M,M,M,800.00,M,M,M,SN FZFG,KBML 010205Z AUTO 13003KT 1/2SM SN FZFG VV008 A3003 RMK P0002 MADISHF
BML,2017-04-01 02:10,-71.1786,44.5761,M,M,M,0.00,0.00,0.02,30.03,M,0.50,M,VV ,M,M,M,800.00,M,M,M,SN FZFG,KBML 010210Z AUTO 00000KT 1/2SM SN FZFG VV008 A3003 RMK P0002 MADISHF
BML,2017-04-01 02:15,-71.1786,44.5761,M,M,M,0.00,0.00,0.03,30.03,M,0.50,M,VV ,M,M,M,800.00,M,M,M,SN FZFG,KBML 010215Z AUTO 00000KT 1/2SM SN FZFG VV008 A3003 RMK P0003 MADISHF
BML,2017-04-01 02:20,-71.1786,44.5761,M,M,M,130.00,3.00,0.03,30.03,M,0.50,M,VV ,M,M,M,900.00,M,M,M,SN FZFG,KBML 010220Z AUTO 13003KT 1/2SM SN FZFG VV009 A3003 RMK P0003 VRB03KT  MADISHF
BML,2017-04-01 02:25,-71.1786,44.5761,M,M,M,120.00,3.00,0.04,30.03,M,0.50,M,VV ,M,M,M,900.00,M,M,M,SN FZFG,KBML 010225Z AUTO 12003KT 1/2SM SN FZFG VV009 A3003 RMK P0004 MADISHF
BML,2017-04-01 02:30,-71.1786,44.5761,M,M,M,140.00,3.00,0.04,30.02,M,0.75,M,VV ,M,M,M,900.00,M,M,M,-SN BR,KBML 010230Z AUTO 14003KT 1SM -SN BR VV009 A3002 RMK P0004 MADISHF
BML,2017-04-01 02:35,-71.1786,44.5761,M,M,M,130.00,3.00,0.05,30.02,M,0.75,M,VV ,M,M,M,900.00,M,M,M,-SN BR,KBML 010235Z AUTO 13003KT 1SM -SN BR VV009 A3002 RMK P0005 MADISHF
BML,2017-04-01 02:45,-71.1786,44.5761,M,M,M,140.00,5.00,0.06,30.02,M,0.50,M,VV ,M,M,M,900.00,M,M,M,SN FZFG,KBML 010245Z AUTO 14005KT 1/2SM SN FZFG VV009 A3002 RMK P0006 MADISHF
BML,2017-04-01 02:50,-71.1786,44.5761,M,M,M,140.00,5.00,0.07,30.02,M,0.50,M,VV ,M,M,M,900.00,M,M,M,SN FZFG,KBML 010250Z AUTO 14005KT 1/2SM SN FZFG VV009 A3002 RMK P0007 MADISHF
BML,2017-04-01 02:52,-71.1786,44.5761,30.90,27.00,85.26,140.00,4.00,0.07,30.02,1017.90,0.75,M,VV ,M,M,M,900.00,M,M,M,-SN BR,KBML 010252Z AUTO 14004KT 3/4SM -SN BR VV009 M01/M03 A3002 RMK AO2 SLP179 P0007 60015 T10061028 58007
BML,2017-04-01 02:55,-71.1786,44.5761,M,M,M,130.00,4.00,M,30.02,M,0.75,M,VV ,M,M,M,999.00,M,M,M,-SN BR,KBML 010255Z AUTO 13004KT 1SM -SN BR VV009 A3002 RMK MADISHF
BML,2017-04-01 02:59,-71.1786,44.5761,30.90,27.00,85.26,140.00,5.00,0.00,30.02,M,0.75,M,VV ,M,M,M,1000.00,M,M,M,-SN BR,KBML 010259Z AUTO 14005KT 3/4SM -SN BR VV010 M01/M03 A3002 RMK AO2 P0000 T10061028
BML,2017-04-01 03:00,-71.1786,44.5761,M,M,M,140.00,5.00,M,30.01,M,0.75,M,VV ,M,M,M,999.00,M,M,M,-SN BR,KBML 010300Z AUTO 14005KT 1SM -SN BR VV009 A3001 RMK MADISHF
BML,2017-04-01 03:05,-71.1786,44.5761,M,M,M,140.00,4.00,0.01,30.01,M,0.75,M,VV ,M,M,M,999.00,M,M,M,-SN BR,KBML 010305Z AUTO 14004KT 1SM -SN BR VV009 A3001 RMK P0001 MADISHF
BML,2017-04-01 03:10,-71.1786,44.5761,M,M,M,120.00,4.00,0.01,30.01,M,0.75,M,VV ,M,M,M,999.00,M,M,M,-SN BR,KBML 010310Z AUTO 12004KT 1SM -SN BR VV009 A3001 RMK P0001 MADISHF
BML,2017-04-01 03:15,-71.1786,44.5761,M,M,M,140.00,5.00,0.02,30.01,M,0.75,M,VV ,M,M,M,1100.00,M,M,M,-SN BR,KBML 010315Z AUTO 14005KT 1SM -SN BR VV011 A3001 RMK P0002 MADISHF
BML,2017-04-01 03:20,-71.1786,44.5761,M,M,M,120.00,5.00,0.02,30.00,M,0.75,M,VV ,M,M,M,1100.00,M,M,M,-SN BR,KBML 010320Z AUTO 12005KT 1SM -SN BR VV011 A3000 RMK P0002 MADISHF
BML,2017-04-01 03:25,-71.1786,44.5761,M,M,M,0.00,0.00,0.03,30.00,M,0.75,M,VV ,M,M,M,1100.00,M,M,M,-SN BR,KBML 010325Z AUTO 00000KT 1SM -SN BR VV011 A3000 RMK P0003 MADISHF
BML,2017-04-01 03:30,-71.1786,44.5761,M,M,M,120.00,4.00,0.03,30.00,M,0.75,M,VV ,M,M,M,1100.00,M,M,M,-SN BR,KBML 010330Z AUTO 12004KT 1SM -SN BR VV011 A3000 RMK P0003 MADISHF
BML,2017-04-01 03:40,-71.1786,44.5761,M,M,M,130.00,3.00,0.04,29.99,M,0.75,M,VV ,M,M,M,1300.00,M,M,M,-SN BR,KBML 010340Z AUTO 13003KT 1SM -SN BR VV013 A2999 RMK P0004 MADISHF
BML,2017-04-01 03:45,-71.1786,44.5761,M,M,M,0.00,0.00,0.04,29.99,M,1.00,M,VV ,M,M,M,1300.00,M,M,M,-SN BR,KBML 010345Z AUTO 00000KT 1SM -SN BR VV013 A2999 RMK P0004 MADISHF
BML,2017-04-01 03:48,-71.1786,44.5761,30.20,28.40,92.92,M,3.00,0.04,29.99,M,1.00,M,VV ,M,M,M,1300.00,M,M,M,-SN BR,KBML 010348Z AUTO VRB03KT 1SM -SN BR VV013 M01/M02 A2999 RMK AO2 P0004
BML,2017-04-01 03:50,-71.1786,44.5761,M,M,M,0.00,0.00,0.05,29.99,M,1.00,M,VV ,M,M,M,1400.00,M,M,M,-SN BR,KBML 010350Z AUTO 00000KT 1SM -SN BR VV014 A2999 RMK P0005 MADISHF
BML,2017-04-01 03:52,-71.1786,44.5761,30.90,27.00,85.26,0.00,0.00,0.05,29.99,1017.00,1.00,M,BKN,OVC,M,M,1400.00,2000.00,M,M,-SN BR,KBML 010352Z AUTO 00000KT 1SM -SN BR BKN014 OVC020 M01/M03 A2999 RMK AO2 SLP170 P0005 T10061028
BML,2017-04-01 04:00,-71.1786,44.5761,M,M,M,140.00,4.00,M,29.99,M,1.00,M,VV ,M,M,M,1500.00,M,M,M,-SN BR,KBML 010400Z AUTO 14004KT 1SM -SN BR VV015 A2999 RMK MADISHF
BML,2017-04-01 04:05,-71.1786,44.5761,M,M,M,150.00,4.00,0.01,29.99,M,1.00,M,VV ,M,M,M,1400.00,M,M,M,-SN BR,KBML 010405Z AUTO 15004KT 1SM -SN BR VV014 A2999 RMK P0001 MADISHF
BML,2017-04-01 04:10,-71.1786,44.5761,M,M,M,130.00,4.00,0.01,29.99,M,1.00,M,VV ,M,M,M,1400.00,M,M,M,-SN BR,KBML 010410Z AUTO 13004KT 1SM -SN BR VV014 A2999 RMK P0001 MADISHF
BML,2017-04-01 04:15,-71.1786,44.5761,M,M,M,120.00,4.00,0.01,29.99,M,1.00,M,VV ,M,M,M,1400.00,M,M,M,-SN BR,KBML 010415Z AUTO 12004KT 1SM -SN BR VV014 A2999 RMK P0001 MADISHF
BML,2017-04-01 04:20,-71.1786,44.5761,M,M,M,0.00,0.00,0.01,29.99,M,1.00,M,BKN,OVC,M,M,1400.00,1999.00,M,M,-SN BR,KBML 010420Z AUTO 00000KT 1SM -SN BR BKN014 OVC019 A2999 RMK P0001 MADISHF
BML,2017-04-01 04:25,-71.1786,44.5761,M,M,M,130.00,3.00,0.02,29.99,M,1.00,M,BKN,OVC,M,M,1400.00,1999.00,M,M,-SN BR,KBML 010425Z AUTO 13003KT 1SM -SN BR BKN014 OVC019 A2999 RMK P0002 MADISHF
BML,2017-04-01 04:30,-71.1786,44.5761,M,M,M,150.00,4.00,0.02,29.98,M,1.00,M,BKN,OVC,M,M,1400.00,1999.00,M,M,-SN BR,KBML 010430Z AUTO 15004KT 1SM -SN BR BKN014 OVC019 A2998 RMK P0002 VRB04KT  MADISHF
BML,2017-04-01 04:35,-71.1786,44.5761,M,M,M,140.00,4.00,0.02,29.98,M,1.00,M,BKN,OVC,M,M,1400.00,1999.00,M,M,-SN BR,KBML 010435Z AUTO 14004KT 1SM -SN BR BKN014 OVC019 A2998 RMK P0002 MADISHF
BML,2017-04-01 04:40,-71.1786,44.5761,M,M,M,150.00,6.00,0.03,29.98,M,1.00,M,BKN,OVC,M,M,1400.00,1999.00,M,M,-SN BR,KBML 010440Z AUTO 15006KT 1SM -SN BR BKN014 OVC019 A2998 RMK P0003 MADISHF
BML,2017-04-01 04:45,-71.1786,44.5761,M,M,M,130.00,6.00,0.03,29.98,M,1.00,M,BKN,OVC,M,M,1400.00,1999.00,M,M,-SN BR,KBML 010445Z AUTO 13006KT 1SM -SN BR BKN014 OVC019 A2998 RMK P0003 MADISHF
BML,2017-04-01 04:52,-71.1786,44.5761,30.90,27.00,85.26,130.00,4.00,0.04,29.98,1016.50,1.00,M,VV ,M,M,M,1400.00,M,M,M,-SN BR,KBML 010452Z AUTO 13004KT 1SM -SN BR VV014 M01/M03 A2998 RMK AO2 SLP165 P0004 T10061028 400391056
BML,2017-04-01 04:55,-71.1786,44.5761,M,M,M,130.00,5.00,M,29.98,M,1.00,M,VV ,M,M,M,1400.00,M,M,M,-SN BR,KBML 010455Z AUTO 13005KT 1SM -SN BR VV014 A2998 RMK MADISHF
BML,2017-04-01 05:00,-71.1786,44.5761,M,M,M,140.00,6.00,M,29.98,M,1.00,M,VV ,M,M,M,1400.00,M,M,M,-SN BR,KBML 010500Z AUTO 14006KT 1SM -SN BR VV014 A2998 RMK MADISHF
BML,2017-04-01 05:05,-71.1786,44.5761,M,M,M,140.00,5.00,M,29.98,M,1.00,M,VV ,M,M,M,1400.00,M,M,M,-SN BR,KBML 010505Z AUTO 14005KT 1SM -SN BR VV014 A2998 RMK MADISHF
BML,2017-04-01 05:10,-71.1786,44.5761,M,M,M,150.00,6.00,M,29.98,M,1.25,M,OVC,M,M,M,1400.00,M,M,M,-SN BR,KBML 010510Z AUTO 15006KT 1 1/2SM -SN BR OVC014 A2998 RMK MADISHF
BML,2017-04-01 05:15,-71.1786,44.5761,M,M,M,160.00,4.00,0.01,29.97,M,1.00,M,VV ,M,M,M,1400.00,M,M,M,-SN BR,KBML 010515Z AUTO 16004KT 1SM -SN BR VV014 A2997 RMK P0001 MADISHF
BML,2017-04-01 05:20,-71.1786,44.5761,M,M,M,140.00,4.00,0.01,29.97,M,1.00,M,VV ,M,M,M,1400.00,M,M,M,-SN BR,KBML 010520Z AUTO 14004KT 1SM -SN BR VV014 A2997 RMK P0001 MADISHF
BML,2017-04-01 05:25,-71.1786,44.5761,M,M,M,140.00,4.00,0.01,29.97,M,1.00,M,VV ,M,M,M,1400.00,M,M,M,-SN BR,KBML 010525Z AUTO 14004KT 1SM -SN BR VV014 A2997 RMK P0001 MADISHF
BML,2017-04-01 05:30,-71.1786,44.5761,M,M,M,140.00,6.00,0.02,29.97,M,1.00,M,VV ,M,M,M,1400.00,M,M,M,-SN BR,KBML 010530Z AUTO 14006KT 1SM -SN BR VV014 A2997 RMK P0002 MADISHF
BML,2017-04-01 05:35,-71.1786,44.5761,M,M,M,150.00,4.00,0.02,29.97,M,1.00,M,VV ,M,M,M,1500.00,M,M,M,-SN BR,KBML 010535Z AUTO 15004KT 1SM -SN BR VV015 A2997 RMK P0002 MADISHF
BML,2017-04-01 05:40,-71.1786,44.5761,30.90,27.00,85.26,150.00,3.00,0.02,29.97,M,1.25,M,OVC,M,M,M,1500.00,M,M,M,-SN BR,KBML 010540Z AUTO 15003KT 1 1/4SM -SN BR OVC015 M01/M03 A2997 RMK AO2 P0002 T10061028
BML,2017-04-01 05:45,-71.1786,44.5761,M,M,M,150.00,5.00,0.02,29.96,M,1.50,M,OVC,M,M,M,1699.00,M,M,M,-SN BR,KBML 010545Z AUTO 15005KT 1 1/2SM -SN BR OVC016 A2996 RMK P0002 MADISHF
BML,2017-04-01 05:50,-71.1786,44.5761,30.20,26.60,86.28,140.00,5.00,0.02,29.96,M,1.50,M,OVC,M,M,M,1700.00,M,M,M,-SN BR,KBML 010550Z AUTO 14005KT 1 1/2SM -SN BR OVC017 M01/M03 A2996 RMK AO2 P0002
BML,2017-04-01 05:52,-71.1786,44.5761,30.90,27.00,85.26,160.00,3.00,0.02,29.96,1015.90,1.50,M,OVC,M,M,M,1900.00,M,M,M,-SN BR,KBML 010552Z AUTO 16003KT 1 1/2SM -SN BR OVC019 M01/M03 A2996 RMK AO2 SLP159 P0002 60026 T10061028 11006 21006 56010
BML,2017-04-01 05:55,-71.1786,44.5761,M,M,M,160.00,3.00,M,29.96,M,1.75,M,OVC,M,M,M,1900.00,M,M,M,-SN BR,KBML 010555Z AUTO 16003KT 2SM -SN BR OVC019 A2996 RMK MADISHF
BML,2017-04-01 06:05,-71.1786,44.5761,30.90,27.00,85.26,170.00,5.00,0.00,29.96,M,2.50,M,OVC,M,M,M,2500.00,M,M,M,-SN BR,KBML 010605Z AUTO 17005KT 2 1/2SM -SN BR OVC025 M01/M03 A2996 RMK AO2 P0000 T10061028
BML,2017-04-01 06:10,-71.1786,44.5761,M,M,M,180.00,3.00,M,29.96,M,2.50,M,OVC,M,M,M,2500.00,M,M,M,-SN BR,KBML 010610Z AUTO 18003KT 2 1/2SM -SN BR OVC025 A2996 RMK MADISHF
BML,2017-04-01 06:15,-71.1786,44.5761,M,M,M,170.00,3.00,0.01,29.96,M,2.50,M,OVC,M,M,M,2700.00,M,M,M,-SN BR,KBML 010615Z AUTO 17003KT 2 1/2SM -SN BR OVC027 A2996 RMK P0001 MADISHF
BML,2017-04-01 06:20,-71.1786,44.5761,M,M,M,170.00,3.00,0.01,29.96,M,1.75,M,OVC,M,M,M,2500.00,M,M,M,-SN BR,KBML 010620Z AUTO 17003KT 2SM -SN BR OVC025 A2996 RMK P0001 MADISHF
BML,2017-04-01 06:24,-71.1786,44.5761,30.90,27.00,85.26,160.00,4.00,0.01,29.96,M,1.50,M,OVC,M,M,M,2500.00,M,M,M,-SN BR,KBML 010624Z AUTO 16004KT 1 1/2SM -SN BR OVC025 M01/M03 A2996 RMK AO2 P0001 T10061028
BML,2017-04-01 06:25,-71.1786,44.5761,M,M,M,150.00,3.00,0.01,29.96,M,1.50,M,OVC,M,M,M,2500.00,M,M,M,-SN BR,KBML 010625Z AUTO 15003KT 1 1/2SM -SN BR OVC025 A2996 RMK P0001 MADISHF
BML,2017-04-01 06:30,-71.1786,44.5761,M,M,M,140.00,3.00,0.01,29.95,M,1.75,M,SCT,OVC,M,M,2100.00,2500.00,M,M,-SN BR,KBML 010630Z AUTO 14003KT 2SM -SN BR SCT021 OVC025 A2995 RMK P0001 MADISHF
BML,2017-04-01 06:35,-71.1786,44.5761,M,M,M,0.00,0.00,0.01,29.95,M,1.75,M,OVC,M,M,M,2300.00,M,M,M,-SN BR,KBML 010635Z AUTO 00000KT 2SM -SN BR OVC023 A2995 RMK P0001 MADISHF
BML,2017-04-01 06:40,-71.1786,44.5761,M,M,M,0.00,0.00,0.01,29.95,M,1.75,M,OVC,M,M,M,2300.00,M,M,M,-SN BR,KBML 010640Z AUTO 00000KT 2SM -SN BR OVC023 A2995 RMK P0001 MADISHF
BML,2017-04-01 06:45,-71.1786,44.5761,M,M,M,0.00,0.00,0.01,29.95,M,2.00,M,FEW,OVC,M,M,1699.00,2300.00,M,M,-SN BR,KBML 010645Z AUTO 00000KT 2SM -SN BR FEW016 OVC023 A2995 RMK P0001 MADISHF
BML,2017-04-01 06:49,-71.1786,44.5761,30.20,28.40,92.92,0.00,0.00,0.01,29.95,M,2.00,M,FEW,OVC,M,M,1700.00,2300.00,M,M,-SN BR,KBML 010649Z AUTO 00000KT 2SM -SN BR FEW017 OVC023 M01/M02 A2995 RMK AO2 P0001
BML,2017-04-01 06:50,-71.1786,44.5761,M,M,M,0.00,0.00,0.01,29.95,M,2.00,M,FEW,OVC,M,M,1699.00,2300.00,M,M,-SN BR,KBML 010650Z AUTO 00000KT 2SM -SN BR FEW016 OVC023 A2995 RMK P0001 MADISHF
BML,2017-04-01 06:52,-71.1786,44.5761,30.90,27.00,85.26,0.00,0.00,0.01,29.95,1015.50,1.75,M,FEW,OVC,M,M,1700.00,2300.00,M,M,-SN BR,KBML 010652Z AUTO 00000KT 1 3/4SM -SN BR FEW017 OVC023 M01/M03 A2995 RMK AO2 SLP155 P0001 T10061028
BML,2017-04-01 06:55,-71.1786,44.5761,M,M,M,0.00,0.00,M,29.95,M,1.75,M,FEW,OVC,M,M,1400.00,2300.00,M,M,-SN BR,KBML 010655Z AUTO 00000KT 2SM -SN BR FEW014 OVC023 A2995 RMK MADISHF
BML,2017-04-01 07:00,-71.1786,44.5761,M,M,M,0.00,0.00,0.01,29.95,M,1.75,M,FEW,OVC,M,M,1600.00,2300.00,M,M,-SN BR,KBML 010700Z AUTO 00000KT 2SM -SN BR FEW016 OVC023 A2995 RMK P0001 MADISHF
BML,2017-04-01 07:05,-71.1786,44.5761,30.90,28.00,88.84,0.00,0.00,0.01,29.95,M,2.00,M,FEW,FEW,OVC,M,800.00,1600.00,2500.00,M,-SN BR,KBML 010705Z AUTO 00000KT 2SM -SN BR FEW008 FEW016 OVC025 M01/M02 A2995 RMK AO2 P0001 T10061022
BML,2017-04-01 07:10,-71.1786,44.5761,M,M,M,0.00,0.00,0.01,29.95,M,2.00,M,FEW,FEW,OVC,M,800.00,1999.00,2500.00,M,-SN BR,KBML 010710Z AUTO 00000KT 2SM -SN BR FEW008 FEW019 OVC025 A2995 RMK P0001 MADISHF
BML,2017-04-01 07:19,-71.1786,44.5761,30.90,28.00,88.84,0.00,0.00,0.01,29.94,M,1.50,M,FEW,OVC,M,M,1000.00,2300.00,M,M,-SN BR,KBML 010719Z AUTO 00000KT 1 1/2SM -SN BR FEW010 OVC023 M01/M02 A2994 RMK AO2 P0001 T10061022
BML,2017-04-01 07:20,-71.1786,44.5761,M,M,M,0.00,0.00,0.01,29.94,M,1.50,M,FEW,OVC,M,M,999.00,2300.00,M,M,-SN BR,KBML 010720Z AUTO 00000KT 1 1/2SM -SN BR FEW009 OVC023 A2994 RMK P0001 MADISHF
BML,2017-04-01 07:25,-71.1786,44.5761,M,M,M,0.00,0.00,0.01,29.94,M,1.25,M,FEW,OVC,M,M,1300.00,2300.00,M,M,-SN BR,KBML 010725Z AUTO 00000KT 1 1/2SM -SN BR FEW013 OVC023 A2994 RMK P0001 MADISHF
BML,2017-04-01 07:28,-71.1786,44.5761,30.90,28.00,88.84,0.00,0.00,0.01,29.94,M,1.25,M,FEW,OVC,M,M,1000.00,2100.00,M,M,-SN BR,KBML 010728Z AUTO 00000KT 1 1/4SM -SN BR FEW010 OVC021 M01/M02 A2994 RMK AO2 P0001 T10061022
BML,2017-04-01 07:35,-71.1786,44.5761,M,M,M,0.00,0.00,0.02,29.94,M,1.25,M,SCT,OVC,M,M,1200.00,2100.00,M,M,-SN BR,KBML 010735Z AUTO 00000KT 1 1/2SM -SN BR SCT012 OVC021 A2994 RMK P0002 MADISHF
BML,2017-04-01 07:40,-71.1786,44.5761,M,M,M,0.00,0.00,0.02,29.94,M,1.50,M,FEW,BKN,OVC,M,999.00,2100.00,2600.00,M,-SN BR,KBML 010740Z AUTO 00000KT 1 1/2SM -SN BR FEW009 BKN021 OVC026 A2994 RMK P0002 MADISHF
BML,2017-04-01 07:44,-71.1786,44.5761,30.90,28.00,88.84,0.00,0.00,0.02,29.94,M,1.75,M,SCT,BKN,OVC,M,1000.00,2100.00,2700.00,M,-SN BR,KBML 010744Z AUTO 00000KT 1 3/4SM -SN BR SCT010 BKN021 OVC027 M01/M02 A2994 RMK AO2 P0002 T10061022
BML,2017-04-01 07:45,-71.1786,44.5761,M,M,M,0.00,0.00,0.02,29.94,M,1.75,M,SCT,BKN,OVC,M,999.00,2100.00,2700.00,M,-SN BR,KBML 010745Z AUTO 00000KT 2SM -SN BR SCT009 BKN021 OVC027 A2994 RMK P0002 MADISHF
BML,2017-04-01 07:52,-71.1786,44.5761,30.90,28.00,88.84,0.00,0.00,0.02,29.94,1015.10,1.50,M,FEW,OVC,M,M,1000.00,2500.00,M,M,-SN BR,KBML 010752Z AUTO 00000KT 1 1/2SM -SN BR FEW010 OVC025 M01/M02 A2994 RMK AO2 SLP151 P0002 T10061022
BML,2017-04-01 07:55,-71.1786,44.5761,M,M,M,0.00,0.00,M,29.94,M,1.75,M,FEW,OVC,M,M,999.00,2500.00,M,M,-SN BR,KBML 010755Z AUTO 00000KT 2SM -SN BR FEW009 OVC025 A2994 RMK MADISHF
BML,2017-04-01 08:00,-71.1786,44.5761,M,M,M,120.00,3.00,M,29.94,M,1.50,M,FEW,BKN,OVC,M,999.00,2200.00,2700.00,M,-SN BR,KBML 010800Z AUTO 12003KT 1 1/2SM -SN BR FEW009 BKN022 OVC027 A2994 RMK VRB03KT  MADISHF
BML,2017-04-01 08:05,-71.1786,44.5761,M,M,M,130.00,3.00,0.01,29.94,M,1.50,M,FEW,BKN,OVC,M,999.00,2200.00,2700.00,M,-SN BR,KBML 010805Z AUTO 13003KT 1 1/2SM -SN BR FEW009 BKN022 OVC027 A2994 RMK P0001 VRB03KT  MADISHF
BML,2017-04-01 08:10,-71.1786,44.5761,M,M,M,150.00,3.00,0.01,29.94,M,1.25,M,FEW,BKN,OVC,M,999.00,1999.00,2700.00,M,-SN BR,KBML 010810Z AUTO 15003KT 1 1/2SM -SN BR FEW009 BKN019 OVC027 A2994 RMK P0001 MADISHF
BML,2017-04-01 08:12,-71.1786,44.5761,30.90,28.00,88.84,140.00,6.00,0.01,29.94,M,1.25,M,BKN,OVC,M,M,1800.00,2500.00,M,M,-SN BR,KBML 010812Z AUTO 14006KT 1 1/4SM -SN BR BKN018 OVC025 M01/M02 A2994 RMK AO2 P0001 T10061022
BML,2017-04-01 08:15,-71.1786,44.5761,M,M,M,130.00,5.00,0.01,29.93,M,1.00,M,FEW,OVC,M,M,999.00,1800.00,M,M,-SN,KBML 010815Z AUTO 13005KT 1SM -SN FEW009 OVC018 A2993 RMK P0001 MADISHF
BML,2017-04-01 08:20,-71.1786,44.5761,M,M,M,130.00,5.00,0.01,29.93,M,1.00,M,FEW,OVC,M,M,999.00,1400.00,M,M,-SN,KBML 010820Z AUTO 13005KT 1SM -SN FEW009 OVC014 A2993 RMK P0001 MADISHF
BML,2017-04-01 08:23,-71.1786,44.5761,32.00,27.00,81.55,M,4.00,0.02,29.93,M,0.75,M,VV ,M,M,M,1300.00,M,M,M,-SN,KBML 010823Z AUTO VRB04KT 3/4SM -SN VV013 00/M03 A2993 RMK AO2 P0002 T00001028
BML,2017-04-01 08:30,-71.1786,44.5761,M,M,M,0.00,0.00,0.02,29.93,M,0.75,M,VV ,M,M,M,1300.00,M,M,M,-SN BR,KBML 010830Z AUTO 00000KT 1SM -SN BR VV013 A2993 RMK P0002 MADISHF
BML,2017-04-01 08:35,-71.1786,44.5761,M,M,M,0.00,0.00,0.02,29.93,M,1.00,M,VV ,M,M,M,1300.00,M,M,M,-SN BR,KBML 010835Z AUTO 00000KT 1SM -SN BR VV013 A2993 RMK P0002 MADISHF
BML,2017-04-01 08:40,-71.1786,44.5761,30.90,28.00,88.84,M,3.00,0.03,29.94,M,1.00,M,VV ,M,M,M,1200.00,M,M,M,-SN BR,KBML 010840Z AUTO VRB03KT 1SM -SN BR VV012 M01/M02 A2994 RMK AO2 P0003 T10061022
BML,2017-04-01 08:45,-71.1786,44.5761,M,M,M,170.00,3.00,0.03,29.94,M,1.00,M,VV ,M,M,M,1100.00,M,M,M,-SN BR,KBML 010845Z AUTO 17003KT 1SM -SN BR VV011 A2994 RMK P0003 VRB03KT  MADISHF
BML,2017-04-01 08:50,-71.1786,44.5761,M,M,M,0.00,0.00,0.03,29.94,M,0.75,M,VV ,M,M,M,1100.00,M,M,M,-SN BR,KBML 010850Z AUTO 00000KT 1SM -SN BR VV011 A2994 RMK P0003 MADISHF
BML,2017-04-01 08:52,-71.1786,44.5761,30.90,28.00,88.84,0.00,0.00,0.04,29.94,1015.10,0.75,M,VV ,M,M,M,1100.00,M,M,M,-SN BR,KBML 010852Z AUTO 00000KT 3/4SM -SN BR VV011 M01/M02 A2994 RMK AO2 SLP151 P0004 60007 T10061022 56004
BML,2017-04-01 08:55,-71.1786,44.5761,M,M,M,0.00,0.00,M,29.94,M,0.75,M,VV ,M,M,M,1100.00,M,M,M,-SN BR,KBML 010855Z AUTO 00000KT 1SM -SN BR VV011 A2994 RMK MADISHF
BML,2017-04-01 09:00,-71.1786,44.5761,M,M,M,0.00,0.00,M,29.94,M,0.75,M,VV ,M,M,M,1200.00,M,M,M,-SN BR,KBML 010900Z AUTO 00000KT 1SM -SN BR VV012 A2994 RMK MADISHF
BML,2017-04-01 09:05,-71.1786,44.5761,M,M,M,140.00,4.00,M,29.94,M,1.00,M,BKN,OVC,M,M,1300.00,2700.00,M,M,-SN BR,KBML 010905Z AUTO 14004KT 1SM -SN BR BKN013 OVC027 A2994 RMK VRB04KT  MADISHF
BML,2017-04-01 09:07,-71.1786,44.5761,30.90,27.00,85.26,140.00,6.00,0.00,29.94,M,1.25,M,BKN,OVC,M,M,1300.00,2700.00,M,M,-SN BR,KBML 010907Z AUTO 14006KT 1 1/4SM -SN BR BKN013 OVC027 M01/M03 A2994 RMK AO2 P0000 T10061028
BML,2017-04-01 09:10,-71.1786,44.5761,M,M,M,130.00,5.00,M,29.94,M,1.25,M,BKN,OVC,M,M,1500.00,2900.00,M,M,-SN BR,KBML 010910Z AUTO 13005KT 1 1/2SM -SN BR BKN015 OVC029 A2994 RMK MADISHF
BML,2017-04-01 09:14,-71.1786,44.5761,30.90,27.00,85.26,130.00,6.00,0.00,29.94,M,1.25,M,BKN,OVC,M,M,1500.00,2900.00,M,M,-SN BR,KBML 010914Z AUTO 13006KT 1 1/4SM -SN BR BKN015 OVC029 M01/M03 A2994 RMK AO2 P0000 T10061028
BML,2017-04-01 09:15,-71.1786,44.5761,M,M,M,140.00,5.00,M,29.94,M,1.25,M,BKN,OVC,M,M,1500.00,2900.00,M,M,-SN BR,KBML 010915Z AUTO 14005KT 1 1/2SM -SN BR BKN015 OVC029 A2994 RMK MADISHF
BML,2017-04-01 09:20,-71.1786,44.5761,M,M,M,120.00,4.00,0.01,29.94,M,1.25,M,OVC,M,M,M,1600.00,M,M,M,-SN BR,KBML 010920Z AUTO 12004KT 1 1/2SM -SN BR OVC016 A2994 RMK P0001 MADISHF
BML,2017-04-01 09:25,-71.1786,44.5761,M,M,M,120.00,5.00,0.01,29.94,M,1.25,M,BKN,OVC,M,M,1800.00,2900.00,M,M,-SN BR,KBML 010925Z AUTO 12005KT 1 1/2SM -SN BR BKN018 OVC029 A2994 RMK P0001 MADISHF
BML,2017-04-01 09:30,-71.1786,44.5761,M,M,M,120.00,5.00,0.01,29.94,M,1.50,M,BKN,OVC,M,M,1999.00,2900.00,M,M,-SN,KBML 010930Z AUTO 12005KT 1 1/2SM -SN BKN019 OVC029 A2994 RMK P0001 MADISHF
BML,2017-04-01 09:32,-71.1786,44.5761,30.90,26.10,82.15,120.00,6.00,0.01,29.94,M,1.50,M,BKN,OVC,M,M,2000.00,2800.00,M,M,-SN,KBML 010932Z AUTO 12006KT 1 1/2SM -SN BKN020 OVC028 M01/M03 A2994 RMK AO2 P0001 T10061033
BML,2017-04-01 09:35,-71.1786,44.5761,M,M,M,120.00,5.00,0.01,29.94,M,1.25,M,OVC,M,M,M,1999.00,M,M,M,-SN,KBML 010935Z AUTO 12005KT 1 1/2SM -SN OVC019 A2994 RMK P0001 MADISHF
BML,2017-04-01 09:41,-71.1786,44.5761,30.90,26.10,82.15,120.00,5.00,0.01,29.95,M,1.25,M,OVC,M,M,M,1800.00,M,M,M,-SN,KBML 010941Z AUTO 12005KT 1 1/4SM -SN OVC018 M01/M03 A2995 RMK AO2 P0001 T10061033
BML,2017-04-01 09:45,-71.1786,44.5761,M,M,M,120.00,6.00,0.02,29.95,M,1.25,M,OVC,M,M,M,1800.00,M,M,M,-SN,KBML 010945Z AUTO 12006KT 1 1/2SM -SN OVC018 A2995 RMK P0002 MADISHF
BML,2017-04-01 09:50,-71.1786,44.5761,M,M,M,110.00,4.00,0.02,29.95,M,1.25,M,OVC,M,M,M,1800.00,M,M,M,-SN,KBML 010950Z AUTO 11004KT 1 1/2SM -SN OVC018 A2995 RMK P0002 MADISHF
BML,2017-04-01 09:52,-71.1786,44.5761,30.90,26.10,82.15,120.00,5.00,0.02,29.95,1015.40,1.25,M,OVC,M,M,M,1800.00,M,M,M,-SN,KBML 010952Z AUTO 12005KT 1 1/4SM -SN OVC018 M01/M03 A2995 RMK AO2 SLP154 P0002 T10061033
BML,2017-04-01 09:55,-71.1786,44.5761,M,M,M,110.00,5.00,M,29.94,M,1.25,M,OVC,M,M,M,1800.00,M,M,M,-SN BR,KBML 010955Z AUTO 11005KT 1 1/2SM -SN BR OVC018 A2994 RMK MADISHF
BML,2017-04-01 10:05,-71.1786,44.5761,M,M,M,110.00,4.00,M,29.95,M,1.75,M,OVC,M,M,M,1999.00,M,M,M,-SN,KBML 011005Z AUTO 11004KT 2SM -SN OVC019 A2995 RMK MADISHF
BML,2017-04-01 10:10,-71.1786,44.5761,M,M,M,130.00,3.00,M,29.94,M,1.50,M,BKN,OVC,M,M,1999.00,2600.00,M,M,-SN BR,KBML 011010Z AUTO 13003KT 1 1/2SM -SN BR BKN019 OVC026 A2994 RMK MADISHF
BML,2017-04-01 10:15,-71.1786,44.5761,M,M,M,140.00,4.00,M,29.95,M,1.50,M,OVC,M,M,M,1999.00,M,M,M,-SN BR,KBML 011015Z AUTO 14004KT 1 1/2SM -SN BR OVC019 A2995 RMK MADISHF
BML,2017-04-01 10:20,-71.1786,44.5761,M,M,M,130.00,3.00,0.01,29.95,M,1.50,M,OVC,M,M,M,2200.00,M,M,M,-SN BR,KBML 011020Z AUTO 13003KT 1 1/2SM -SN BR OVC022 A2995 RMK P0001 MADISHF
BML,2017-04-01 10:25,-71.1786,44.5761,M,M,M,120.00,5.00,0.01,29.95,M,2.00,M,OVC,M,M,M,2200.00,M,M,M,-SN BR,KBML 011025Z AUTO 12005KT 2SM -SN BR OVC022 A2995 RMK P0001 VRB05KT  MADISHF
BML,2017-04-01 10:30,-71.1786,44.5761,30.90,26.10,82.15,190.00,3.00,0.01,29.95,M,2.50,M,OVC,M,M,M,2400.00,M,M,M,-SN,KBML 011030Z AUTO 19003KT 2 1/2SM -SN OVC024 M01/M03 A2995 RMK AO2 P0001 T10061033
BML,2017-04-01 10:35,-71.1786,44.5761,M,M,M,140.00,3.00,0.01,29.95,M,3.00,M,OVC,M,M,M,2400.00,M,M,M,-SN BR,KBML 011035Z AUTO 14003KT 3SM -SN BR OVC024 A2995 RMK P0001 MADISHF
BML,2017-04-01 10:40,-71.1786,44.5761,M,M,M,0.00,0.00,0.01,29.95,M,2.50,M,OVC,M,M,M,2700.00,M,M,M,-SN BR,KBML 011040Z AUTO 00000KT 2 1/2SM -SN BR OVC027 A2995 RMK P0001 MADISHF
BML,2017-04-01 10:45,-71.1786,44.5761,M,M,M,0.00,0.00,0.01,29.95,M,2.00,M,OVC,M,M,M,2700.00,M,M,M,-SN BR,KBML 011045Z AUTO 00000KT 2SM -SN BR OVC027 A2995 RMK P0001 MADISHF
BML,2017-04-01 10:50,-71.1786,44.5761,M,M,M,0.00,0.00,0.01,29.95,M,2.00,M,OVC,M,M,M,2900.00,M,M,M,-SN BR,KBML 011050Z AUTO 00000KT 2SM -SN BR OVC029 A2995 RMK P0001 MADISHF
BML,2017-04-01 10:52,-71.1786,44.5761,30.90,27.00,85.26,0.00,0.00,0.01,29.95,1015.60,2.00,M,OVC,M,M,M,2900.00,M,M,M,-SN BR,KBML 011052Z AUTO 00000KT 2SM -SN BR OVC029 M01/M03 A2995 RMK AO2 SLP156 P0001 T10061028
BML,2017-04-01 10:55,-71.1786,44.5761,M,M,M,0.00,0.00,M,29.95,M,2.00,M,OVC,M,M,M,2900.00,M,M,M,-SN BR,KBML 011055Z AUTO 00000KT 2SM -SN BR OVC029 A2995 RMK MADISHF
BML,2017-04-01 11:00,-71.1786,44.5761,M,M,M,0.00,0.00,M,29.95,M,2.00,M,OVC,M,M,M,2900.00,M,M,M,-SN BR,KBML 011100Z AUTO 00000KT 2SM -SN BR OVC029 A2995 RMK MADISHF
BML,2017-04-01 11:05,-71.1786,44.5761,M,M,M,0.00,0.00,M,29.95,M,2.00,M,OVC,M,M,M,2900.00,M,M,M,-SN BR,KBML 011105Z AUTO 00000KT 2SM -SN BR OVC029 A2995 RMK MADISHF
BML,2017-04-01 11:10,-71.1786,44.5761,M,M,M,0.00,0.00,M,29.95,M,2.00,M,OVC,M,M,M,2900.00,M,M,M,-SN BR,KBML 011110Z AUTO 00000KT 2SM -SN BR OVC029 A2995 RMK MADISHF
BML,2017-04-01 11:15,-71.1786,44.5761,M,M,M,0.00,0.00,M,29.95,M,1.50,M,OVC,M,M,M,2900.00,M,M,M,-SN,KBML 011115Z AUTO 00000KT 1 1/2SM -SN OVC029 A2995 RMK MADISHF
BML,2017-04-01 11:18,-71.1786,44.5761,30.90,26.10,82.15,0.00,0.00,0.00,29.95,M,1.50,M,OVC,M,M,M,2900.00,M,M,M,-SN,KBML 011118Z AUTO 00000KT 1 1/2SM -SN OVC029 M01/M03 A2995 RMK AO2 P0000 T10061033
BML,2017-04-01 11:20,-71.1786,44.5761,M,M,M,0.00,0.00,M,29.95,M,1.25,M,OVC,M,M,M,2900.00,M,M,M,-SN,KBML 011120Z AUTO 00000KT 1 1/2SM -SN OVC029 A2995 RMK MADISHF
BML,2017-04-01 11:25,-71.1786,44.5761,30.90,27.00,85.26,0.00,0.00,0.00,29.95,M,1.25,M,OVC,M,M,M,2900.00,M,M,M,-SN BR,KBML 011125Z AUTO 00000KT 1 1/4SM -SN BR OVC029 M01/M03 A2995 RMK AO2 P0000 T10061028
BML,2017-04-01 11:30,-71.1786,44.5761,M,M,M,0.00,0.00,M,29.95,M,1.25,M,OVC,M,M,M,2900.00,M,M,M,-SN BR,KBML 011130Z AUTO 00000KT 1 1/2SM -SN BR OVC029 A2995 RMK MADISHF
BML,2017-04-01 11:35,-71.1786,44.5761,M,M,M,0.00,0.00,M,29.95,M,1.50,M,OVC,M,M,M,2900.00,M,M,M,-SN BR,KBML 011135Z AUTO 00000KT 1 1/2SM -SN BR OVC029 A2995 RMK MADISHF
BML,2017-04-01 11:40,-71.1786,44.5761,M,M,M,0.00,0.00,M,29.95,M,1.50,M,OVC,M,M,M,2800.00,M,M,M,-SN,KBML 011140Z AUTO 00000KT 1 1/2SM -SN OVC028 A2995 RMK MADISHF
BML,2017-04-01 11:41,-71.1786,44.5761,32.00,27.00,81.55,0.00,0.00,0.00,29.95,M,1.75,M,OVC,M,M,M,2800.00,M,M,M,-SN,KBML 011141Z AUTO 00000KT 1 3/4SM -SN OVC028 00/M03 A2995 RMK AO2 P0000 T00001028
BML,2017-04-01 11:45,-71.1786,44.5761,M,M,M,0.00,0.00,M,29.95,M,2.00,M,OVC,M,M,M,2800.00,M,M,M,-SN,KBML 011145Z AUTO 00000KT 2SM -SN OVC028 A2995 RMK MADISHF
BML,2017-04-01 11:50,-71.1786,44.5761,32.00,26.60,80.22,0.00,0.00,0.00,29.95,M,2.50,M,OVC,M,M,M,2800.00,M,M,M,-SN,KBML 011150Z AUTO 00000KT 2 1/2SM -SN OVC028 00/M03 A2995 RMK AO2 P0000
BML,2017-04-01 11:52,-71.1786,44.5761,32.00,27.00,81.55,350.00,3.00,0.00,29.95,1015.70,2.00,M,OVC,M,M,M,2800.00,M,M,M,-SN,KBML 011152Z AUTO 35003KT 2SM -SN OVC028 00/M03 A2995 RMK AO2 SLP157 P0000 60010 70038 T00001028 10000 21006 51003
BML,2017-04-01 11:55,-71.1786,44.5761,M,M,M,0.00,0.00,M,29.95,M,1.75,M,OVC,M,M,M,2800.00,M,M,M,-SN,KBML 011155Z AUTO 00000KT 2SM -SN OVC028 A2995 RMK MADISHF
BML,2017-04-01 11:58,-71.1786,44.5761,32.00,28.00,84.98,0.00,0.00,0.00,29.95,M,1.25,M,OVC,M,M,M,2800.00,M,M,M,-SN BR,KBML 011158Z AUTO 00000KT 1 1/4SM -SN BR OVC028 00/M02 A2995 RMK AO2 P0000 T00001022
BML,2017-04-01 12:00,-71.1786,44.5761,M,M,M,0.00,0.00,M,29.96,M,1.00,M,OVC,M,M,M,2800.00,M,M,M,-SN BR,KBML 011200Z AUTO 00000KT 1SM -SN BR OVC028 A2996 RMK MADISHF
BML,2017-04-01 12:05,-71.1786,44.5761,M,M,M,0.00,0.00,0.01,29.96,M,1.00,M,FEW,BKN,OVC,M,1900.00,2600.00,3100.00,M,-SN BR,KBML 011205Z AUTO 00000KT 1SM -SN BR FEW019 BKN026 OVC031 A2996 RMK P0001 MADISHF
BML,2017-04-01 12:15,-71.1786,44.5761,M,M,M,0.00,0.00,0.01,29.96,M,1.00,M,SCT,BKN,OVC,M,1900.00,2300.00,2800.00,M,-SN BR,KBML 011215Z AUTO 00000KT 1SM -SN BR SCT019 BKN023 OVC028 A2996 RMK P0001 MADISHF
BML,2017-04-01 12:20,-71.1786,44.5761,M,M,M,0.00,0.00,0.01,29.96,M,1.00,M,BKN,BKN,OVC,M,1900.00,2300.00,2800.00,M,-SN BR,KBML 011220Z AUTO 00000KT 1SM -SN BR BKN019 BKN023 OVC028 A2996 RMK P0001 MADISHF
BML,2017-04-01 12:25,-71.1786,44.5761,M,M,M,0.00,0.00,0.01,29.96,M,0.75,M,BKN,BKN,OVC,M,1900.00,2300.00,2800.00,M,-SN BR,KBML 011225Z AUTO 00000KT 1SM -SN BR BKN019 BKN023 OVC028 A2996 RMK P0001 MADISHF
BML,2017-04-01 12:28,-71.1786,44.5761,32.00,28.00,84.98,0.00,0.00,0.02,29.96,M,0.75,M,OVC,M,M,M,1900.00,M,M,M,-SN BR,KBML 011228Z AUTO 00000KT 3/4SM -SN BR OVC019 00/M02 A2996 RMK AO2 P0002 T00001022
BML,2017-04-01 12:30,-71.1786,44.5761,M,M,M,0.00,0.00,0.02,29.96,M,0.75,M,OVC,M,M,M,1900.00,M,M,M,-SN BR,KBML 011230Z AUTO 00000KT 1SM -SN BR OVC019 A2996 RMK P0002 MADISHF
BML,2017-04-01 12:35,-71.1786,44.5761,M,M,M,0.00,0.00,0.02,29.96,M,0.75,M,OVC,M,M,M,1900.00,M,M,M,-SN BR,KBML 011235Z AUTO 00000KT 1SM -SN BR OVC019 A2996 RMK P0002 MADISHF
BML,2017-04-01 12:40,-71.1786,44.5761,M,M,M,0.00,0.00,0.02,29.96,M,0.75,M,OVC,M,M,M,1900.00,M,M,M,-SN BR,KBML 011240Z AUTO 00000KT 1SM -SN BR OVC019 A2996 RMK P0002 MADISHF
BML,2017-04-01 12:45,-71.1786,44.5761,M,M,M,220.00,3.00,0.03,29.96,M,0.75,M,BKN,OVC,M,M,1600.00,2200.00,M,M,-SN BR,KBML 011245Z AUTO 22003KT 1SM -SN BR BKN016 OVC022 A2996 RMK P0003 MADISHF
BML,2017-04-01 12:50,-71.1786,44.5761,M,M,M,220.00,3.00,0.03,29.96,M,0.50,M,VV ,M,M,M,1500.00,M,M,M,SN FZFG,KBML 011250Z AUTO 22003KT 1/2SM SN FZFG VV015 A2996 RMK P0003 MADISHF
BML,2017-04-01 12:52,-71.1786,44.5761,30.90,28.00,88.84,0.00,0.00,0.03,29.96,1016.00,0.50,M,BKN,OVC,M,M,1400.00,2100.00,M,M,SN FZFG,KBML 011252Z AUTO 00000KT 1/2SM SN FZFG BKN014 OVC021 M01/M02 A2996 RMK AO2 SLP160 P0003 T10061022
BML,2017-04-01 12:55,-71.1786,44.5761,M,M,M,0.00,0.00,M,29.96,M,0.50,M,BKN,OVC,M,M,1400.00,2100.00,M,M,SN FZFG,KBML 011255Z AUTO 00000KT 1/2SM SN FZFG BKN014 OVC021 A2996 RMK MADISHF
BML,2017-04-01 13:00,-71.1786,44.5761,M,M,M,0.00,0.00,M,29.96,M,0.50,M,VV ,M,M,M,1300.00,M,M,M,SN FG,KBML 011300Z AUTO 00000KT 1/2SM SN FG VV013 A2996 RMK MADISHF
BML,2017-04-01 13:05,-71.1786,44.5761,M,M,M,0.00,0.00,0.01,29.96,M,0.50,M,FEW,OVC,M,M,900.00,1300.00,M,M,SN FZFG,KBML 011305Z AUTO 00000KT 1/2SM SN FZFG FEW009 OVC013 A2996 RMK P0001 MADISHF
BML,2017-04-01 13:10,-71.1786,44.5761,M,M,M,0.00,0.00,0.01,29.96,M,0.50,M,VV ,M,M,M,1100.00,M,M,M,SN FG,KBML 011310Z AUTO 00000KT 1/2SM SN FG VV011 A2996 RMK P0001 MADISHF
BML,2017-04-01 13:14,-71.1786,44.5761,32.00,28.00,84.98,330.00,3.00,0.02,29.96,M,0.25,M,FEW,OVC,M,M,600.00,1100.00,M,M,SN FG,KBML 011314Z AUTO 33003KT 1/4SM SN FG FEW006 OVC011 00/M02 A2996 RMK AO2 P0002 T00001022
BML,2017-04-01 13:15,-71.1786,44.5761,M,M,M,0.00,0.00,0.02,29.96,M,0.25,M,FEW,OVC,M,M,600.00,1100.00,M,M,SN FG,KBML 011315Z AUTO 00000KT 1/4SM SN FG FEW006 OVC011 A2996 RMK P0002 MADISHF
BML,2017-04-01 13:20,-71.1786,44.5761,M,M,M,0.00,0.00,0.02,29.96,M,0.50,M,FEW,OVC,M,M,600.00,1100.00,M,M,SN FG,KBML 011320Z AUTO 00000KT 1/2SM SN FG FEW006 OVC011 A2996 RMK P0002 MADISHF
BML,2017-04-01 13:25,-71.1786,44.5761,30.90,27.00,85.26,M,4.00,0.02,29.96,M,0.50,M,FEW,OVC,M,M,600.00,1100.00,M,M,SN FZFG,KBML 011325Z AUTO VRB04KT 1/2SM SN FZFG FEW006 OVC011 M01/M03 A2996 RMK AO2 P0002 T10061028
BML,2017-04-01 13:30,-71.1786,44.5761,M,M,M,100.00,4.00,0.03,29.96,M,0.50,M,FEW,OVC,M,M,600.00,1300.00,M,M,SN,KBML 011330Z AUTO 10004KT 1/2SM SN FEW006 OVC013 A2996 RMK P0003 MADISHF
BML,2017-04-01 13:35,-71.1786,44.5761,M,M,M,0.00,0.00,0.03,29.96,M,0.50,M,FEW,OVC,M,M,600.00,1300.00,M,M,SN FZFG,KBML 011335Z AUTO 00000KT 1/2SM SN FZFG FEW006 OVC013 A2996 RMK P0003 MADISHF
BML,2017-04-01 13:45,-71.1786,44.5761,M,M,M,0.00,0.00,0.03,29.96,M,0.50,M,VV ,M,M,M,1500.00,M,M,M,SN,KBML 011345Z AUTO 00000KT 1/2SM SN VV015 A2996 RMK P0003 MADISHF
BML,2017-04-01 13:50,-71.1786,44.5761,M,M,M,0.00,0.00,0.03,29.96,M,0.50,M,VV ,M,M,M,1500.00,M,M,M,SN FZFG,KBML 011350Z AUTO 00000KT 1/2SM SN FZFG VV015 A2996 RMK P0003 MADISHF
BML,2017-04-01 13:52,-71.1786,44.5761,30.90,27.00,85.26,0.00,0.00,0.04,29.96,1016.10,0.50,M,VV ,M,M,M,1500.00,M,M,M,SN FZFG,KBML 011352Z AUTO 00000KT 1/2SM SN FZFG VV015 M01/M03 A2996 RMK AO2 SLP161 P0004 T10061028
BML,2017-04-01 13:55,-71.1786,44.5761,M,M,M,0.00,0.00,M,29.96,M,0.50,M,VV ,M,M,M,1500.00,M,M,M,SN FZFG,KBML 011355Z AUTO 00000KT 1/2SM SN FZFG VV015 A2996 RMK MADISHF
BML,2017-04-01 14:00,-71.1786,44.5761,M,M,M,0.00,0.00,M,29.96,M,0.50,M,VV ,M,M,M,1500.00,M,M,M,SN FZFG,KBML 011400Z AUTO 00000KT 1/2SM SN FZFG VV015 A2996 RMK MADISHF
BML,2017-04-01 14:05,-71.1786,44.5761,M,M,M,0.00,0.00,M,29.96,M,0.50,M,VV ,M,M,M,1500.00,M,M,M,SN FZFG,KBML 011405Z AUTO 00000KT 1/2SM SN FZFG VV015 A2996 RMK MADISHF
BML,2017-04-01 14:10,-71.1786,44.5761,M,M,M,0.00,0.00,M,29.96,M,0.50,M,VV ,M,M,M,1500.00,M,M,M,SN FZFG,KBML 011410Z AUTO 00000KT 1/2SM SN FZFG VV015 A2996 RMK MADISHF
BML,2017-04-01 14:15,-71.1786,44.5761,M,M,M,0.00,0.00,0.01,29.96,M,0.50,M,VV ,M,M,M,1400.00,M,M,M,SN,KBML 011415Z AUTO 00000KT 1/2SM SN VV014 A2996 RMK P0001 MADISHF
BML,2017-04-01 14:18,-71.1786,44.5761,30.90,27.00,85.26,0.00,0.00,0.01,29.96,M,0.50,M,VV ,M,M,M,1400.00,M,M,M,SN FZFG,KBML 011418Z AUTO 00000KT 1/2SM SN FZFG VV014 M01/M03 A2996 RMK AO2 P0001 T10061028
BML,2017-04-01 14:20,-71.1786,44.5761,M,M,M,0.00,0.00,0.01,29.96,M,0.50,M,VV ,M,M,M,1300.00,M,M,M,SN FZFG,KBML 011420Z AUTO 00000KT 1/2SM SN FZFG VV013 A2996 RMK P0001 MADISHF
BML,2017-04-01 14:25,-71.1786,44.5761,M,M,M,0.00,0.00,0.01,29.96,M,0.50,M,VV ,M,M,M,1200.00,M,M,M,SN FZFG,KBML 011425Z AUTO 00000KT 1/2SM SN FZFG VV012 A2996 RMK P0001 MADISHF
BML,2017-04-01 14:30,-71.1786,44.5761,M,M,M,320.00,3.00,0.02,29.96,M,0.25,M,VV ,M,M,M,1100.00,M,M,M,SN FZFG,KBML 011430Z AUTO 32003KT 1/4SM SN FZFG VV011 A2996 RMK P0002 MADISHF
BML,2017-04-01 14:34,-71.1786,44.5761,30.90,27.00,85.26,330.00,3.00,0.02,29.96,M,0.25,M,VV ,M,M,M,1000.00,M,M,M,SN FZFG,KBML 011434Z AUTO 33003KT 1/4SM SN FZFG VV010 M01/M03 A2996 RMK AO2 P0002 T10061028
BML,2017-04-01 14:35,-71.1786,44.5761,M,M,M,330.00,3.00,0.03,29.96,M,0.25,M,VV ,M,M,M,999.00,M,M,M,SN FZFG,KBML 011435Z AUTO 33003KT 1/4SM SN FZFG VV009 A2996 RMK P0003 MADISHF
BML,2017-04-01 14:40,-71.1786,44.5761,M,M,M,330.00,3.00,0.03,29.96,M,0.24,M,VV ,M,M,M,900.00,M,M,M,+SN FZFG,KBML 011440Z AUTO 33003KT 1/4SM +SN FZFG VV009 A2996 RMK P0003 MADISHF
BML,2017-04-01 14:43,-71.1786,44.5761,30.90,27.00,85.26,330.00,3.00,0.04,29.97,M,0.25,M,VV ,M,M,M,800.00,M,M,M,+SN FZFG,KBML 011443Z AUTO 33003KT 1/4SM +SN FZFG VV008 M01/M03 A2997 RMK AO2 P0004 T10061028
BML,2017-04-01 14:45,-71.1786,44.5761,M,M,M,340.00,4.00,0.04,29.97,M,0.24,M,VV ,M,M,M,800.00,M,M,M,+SN FZFG,KBML 011445Z AUTO 34004KT 1/4SM +SN FZFG VV008 A2997 RMK P0004 MADISHF
BML,2017-04-01 14:50,-71.1786,44.5761,M,M,M,340.00,4.00,0.05,29.97,M,0.24,M,VV ,M,M,M,800.00,M,M,M,+SN FZFG,KBML 011450Z AUTO 34004KT 1/4SM +SN FZFG VV008 A2997 RMK P0005 MADISHF
BML,2017-04-01 14:52,-71.1786,44.5761,30.90,27.00,85.26,340.00,4.00,0.05,29.96,1016.20,0.25,M,VV ,M,M,M,900.00,M,M,M,SN FZFG,KBML 011452Z AUTO 34004KT 1/4SM SN FZFG VV009 M01/M03 A2996 RMK AO2 SLP162 P0005 60012 T10061028 51001
BML,2017-04-01 14:55,-71.1786,44.5761,M,M,M,350.00,4.00,M,29.96,M,0.25,M,BKN,OVC,M,M,999.00,1600.00,M,M,SN FZFG,KBML 011455Z AUTO 35004KT 1/4SM SN FZFG BKN009 OVC016 A2996 RMK MADISHF
BML,2017-04-01 14:56,-71.1786,44.5761,30.90,27.00,85.26,350.00,4.00,0.00,29.96,M,0.50,M,BKN,OVC,M,M,1000.00,1600.00,M,M,SN FZFG,KBML 011456Z AUTO 35004KT 1/2SM SN FZFG BKN010 OVC016 M01/M03 A2996 RMK AO2 P0000 T10061028
BML,2017-04-01 15:00,-71.1786,44.5761,M,M,M,340.00,4.00,0.01,29.96,M,0.50,M,VV ,M,M,M,1200.00,M,M,M,SN FZFG,KBML 011500Z AUTO 34004KT 1/2SM SN FZFG VV012 A2996 RMK P0001 MADISHF
BML,2017-04-01 15:05,-71.1786,44.5761,M,M,M,360.00,3.00,0.01,29.96,M,0.50,M,FEW,OVC,M,M,499.00,1200.00,M,M,SN FZFG,KBML 011505Z AUTO 36003KT 1/2SM SN FZFG FEW004 OVC012 A2996 RMK P0001 MADISHF
BML,2017-04-01 15:10,-71.1786,44.5761,M,M,M,30.00,4.00,0.01,29.96,M,0.50,M,VV ,M,M,M,1200.00,M,M,M,SN,KBML 011510Z AUTO 03004KT 1/2SM SN VV012 A2996 RMK P0001 MADISHF
BML,2017-04-01 15:15,-71.1786,44.5761,M,M,M,10.00,3.00,0.02,29.96,M,0.50,M,VV ,M,M,M,1200.00,M,M,M,SN,KBML 011515Z AUTO 01003KT 1/2SM SN VV012 A2996 RMK P0002 MADISHF
BML,2017-04-01 15:20,-71.1786,44.5761,M,M,M,360.00,3.00,0.02,29.96,M,0.25,M,VV ,M,M,M,1100.00,M,M,M,+SN,KBML 011520Z AUTO 36003KT 1/4SM +SN VV011 A2996 RMK P0002 MADISHF
BML,2017-04-01 15:23,-71.1786,44.5761,32.00,27.00,81.55,10.00,3.00,0.02,29.96,M,0.25,M,BKN,OVC,M,M,1000.00,1400.00,M,M,+SN,KBML 011523Z AUTO 01003KT 1/4SM +SN BKN010 OVC014 00/M03 A2996 RMK AO2 P0002 T00001028
BML,2017-04-01 15:25,-71.1786,44.5761,M,M,M,10.00,3.00,0.03,29.96,M,0.25,M,VV ,M,M,M,1100.00,M,M,M,+SN,KBML 011525Z AUTO 01003KT 1/4SM +SN VV011 A2996 RMK P0003 MADISHF
BML,2017-04-01 15:30,-71.1786,44.5761,M,M,M,10.00,4.00,0.03,29.96,M,0.50,M,BKN,OVC,M,M,1200.00,2900.00,M,M,SN,KBML 011530Z AUTO 01004KT 1/2SM SN BKN012 OVC029 A2996 RMK P0003 MADISHF
BML,2017-04-01 15:33,-71.1786,44.5761,32.00,27.00,81.55,10.00,4.00,0.03,29.96,M,0.75,M,BKN,OVC,M,M,1400.00,2900.00,M,M,-SN,KBML 011533Z AUTO 01004KT 3/4SM -SN BKN014 OVC029 00/M03 A2996 RMK AO2 P0003 T00001028
BML,2017-04-01 15:35,-71.1786,44.5761,M,M,M,360.00,3.00,0.03,29.96,M,0.75,M,BKN,OVC,M,M,1400.00,2900.00,M,M,-SN,KBML 011535Z AUTO 36003KT 1SM -SN BKN014 OVC029 A2996 RMK P0003 MADISHF
BML,2017-04-01 15:40,-71.1786,44.5761,M,M,M,0.00,0.00,0.03,29.96,M,1.00,M,BKN,OVC,M,M,1400.00,2900.00,M,M,-SN,KBML 011540Z AUTO 00000KT 1SM -SN BKN014 OVC029 A2996 RMK P0003 MADISHF
BML,2017-04-01 15:41,-71.1786,44.5761,33.10,28.00,81.30,0.00,0.00,0.03,29.95,M,1.00,M,BKN,OVC,M,M,1600.00,2900.00,M,M,-SN,KBML 011541Z AUTO 00000KT 1SM -SN BKN016 OVC029 01/M02 A2995 RMK AO2 P0003 T00061022
BML,2017-04-01 15:45,-71.1786,44.5761,M,M,M,0.00,0.00,0.03,29.95,M,1.00,M,FEW,BKN,OVC,M,900.00,1600.00,2900.00,M,-SN,KBML 011545Z AUTO 00000KT 1SM -SN FEW009 BKN016 OVC029 A2995 RMK P0003 MADISHF
BML,2017-04-01 15:46,-71.1786,44.5761,33.80,26.60,74.63,0.00,0.00,0.03,29.95,M,0.75,M,FEW,BKN,OVC,M,900.00,1600.00,2900.00,M,-SN,KBML 011546Z AUTO 00000KT 3/4SM -SN FEW009 BKN016 OVC029 01/M03 A2995 RMK AO2 P0003
BML,2017-04-01 15:50,-71.1786,44.5761,M,M,M,350.00,3.00,0.03,29.95,M,0.75,M,FEW,BKN,OVC,M,900.00,1600.00,2900.00,M,-SN,KBML 011550Z AUTO 35003KT 1SM -SN FEW009 BKN016 OVC029 A2995 RMK P0003 MADISHF
BML,2017-04-01 15:52,-71.1786,44.5761,33.10,27.00,78.03,360.00,3.00,0.04,29.95,1015.70,0.50,M,FEW,BKN,OVC,M,700.00,1600.00,2900.00,M,SN,KBML 011552Z AUTO 36003KT 1/2SM SN FEW007 BKN016 OVC029 01/M03 A2995 RMK AO2 SLP157 P0004 T00061028
BML,2017-04-01 15:55,-71.1786,44.5761,M,M,M,30.00,3.00,M,29.95,M,0.50,M,FEW,BKN,OVC,M,700.00,1600.00,2900.00,M,SN,KBML 011555Z AUTO 03003KT 1/2SM SN FEW007 BKN016 OVC029 A2995 RMK MADISHF
BML,2017-04-01 16:00,-71.1786,44.5761,M,M,M,0.00,0.00,M,29.95,M,0.50,M,FEW,OVC,M,M,900.00,1400.00,M,M,SN,KBML 011600Z AUTO 00000KT 1/2SM SN FEW009 OVC014 A2995 RMK MADISHF
BML,2017-04-01 16:04,-71.1786,44.5761,33.10,28.00,81.30,0.00,0.00,0.00,29.95,M,0.50,M,VV ,M,M,M,1200.00,M,M,M,SN,KBML 011604Z AUTO 00000KT 1/2SM SN VV012 01/M02 A2995 RMK AO2 P0000 T00061022
BML,2017-04-01 16:10,-71.1786,44.5761,M,M,M,0.00,0.00,0.01,29.95,M,0.50,M,FEW,OVC,M,M,600.00,1100.00,M,M,SN,KBML 011610Z AUTO 00000KT 1/2SM SN FEW006 OVC011 A2995 RMK P0001 MADISHF
BML,2017-04-01 16:15,-71.1786,44.5761,M,M,M,0.00,0.00,0.01,29.95,M,0.50,M,FEW,OVC,M,M,600.00,1100.00,M,M,SN,KBML 011615Z AUTO 00000KT 1/2SM SN FEW006 OVC011 A2995 RMK P0001 MADISHF
BML,2017-04-01 16:20,-71.1786,44.5761,M,M,M,0.00,0.00,0.01,29.95,M,0.50,M,FEW,OVC,M,M,600.00,1100.00,M,M,SN FG,KBML 011620Z AUTO 00000KT 1/2SM SN FG FEW006 OVC011 A2995 RMK P0001 MADISHF
BML,2017-04-01 16:21,-71.1786,44.5761,33.10,28.00,81.30,0.00,0.00,0.01,29.95,M,0.50,M,FEW,OVC,M,M,600.00,1100.00,M,M,SN,KBML 011621Z AUTO 00000KT 1/2SM SN FEW006 OVC011 01/M02 A2995 RMK AO2 P0001 T00061022
BML,2017-04-01 16:30,-71.1786,44.5761,M,M,M,20.00,3.00,0.02,29.95,M,0.50,M,FEW,OVC,M,M,600.00,1100.00,M,M,-SN FG,KBML 011630Z AUTO 02003KT 1/2SM -SN FG FEW006 OVC011 A2995 RMK P0002 MADISHF
BML,2017-04-01 16:35,-71.1786,44.5761,M,M,M,0.00,0.00,0.02,29.95,M,0.50,M,SCT,OVC,M,M,800.00,1100.00,M,M,SN,KBML 011635Z AUTO 00000KT 1/2SM SN SCT008 OVC011 A2995 RMK P0002 MADISHF
BML,2017-04-01 16:40,-71.1786,44.5761,M,M,M,20.00,4.00,0.02,29.95,M,0.75,M,BKN,OVC,M,M,800.00,1300.00,M,M,-SN,KBML 011640Z AUTO 02004KT 1SM -SN BKN008 OVC013 A2995 RMK P0002 MADISHF
BML,2017-04-01 16:50,-71.1786,44.5761,M,M,M,20.00,3.00,0.02,29.94,M,1.00,M,FEW,BKN,OVC,M,600.00,999.00,2200.00,M,-SN,KBML 011650Z AUTO 02003KT 1SM -SN FEW006 BKN009 OVC022 A2994 RMK P0002 MADISHF
BML,2017-04-01 16:52,-71.1786,44.5761,34.00,27.00,75.26,20.00,3.00,0.02,29.94,1015.40,1.00,M,FEW,BKN,OVC,M,800.00,1200.00,4800.00,M,-SN,KBML 011652Z AUTO 02003KT 1SM -SN FEW008 BKN012 OVC048 01/M03 A2994 RMK AO2 SLP154 P0002 T00111028
BML,2017-04-01 16:55,-71.1786,44.5761,M,M,M,0.00,0.00,M,29.94,M,1.50,M,FEW,BKN,OVC,M,800.00,1200.00,4400.00,M,-SN,KBML 011655Z AUTO 00000KT 1 1/2SM -SN FEW008 BKN012 OVC044 A2994 RMK MADISHF
BML,2017-04-01 17:00,-71.1786,44.5761,M,M,M,0.00,0.00,M,29.94,M,1.75,M,BKN,BKN,OVC,M,999.00,2900.00,4400.00,M,-SN,KBML 011700Z AUTO 00000KT 2SM -SN BKN009 BKN029 OVC044 A2994 RMK MADISHF
BML,2017-04-01 17:01,-71.1786,44.5761,34.00,28.00,78.43,0.00,0.00,0.00,29.94,M,1.75,M,BKN,BKN,OVC,M,1000.00,2900.00,4400.00,M,-SN,KBML 011701Z AUTO 00000KT 1 3/4SM -SN BKN010 BKN029 OVC044 01/M02 A2994 RMK AO2 P0000 T00111022
BML,2017-04-01 17:05,-71.1786,44.5761,M,M,M,50.00,3.00,0.01,29.94,M,1.25,M,SCT,BKN,OVC,M,999.00,2500.00,3399.00,M,-SN,KBML 011705Z AUTO 05003KT 1 1/2SM -SN SCT009 BKN025 OVC033 A2994 RMK P0001 VRB03KT  MADISHF
BML,2017-04-01 17:10,-71.1786,44.5761,M,M,M,0.00,0.00,0.01,29.94,M,1.00,M,SCT,BKN,OVC,M,999.00,2300.00,3200.00,M,-SN,KBML 011710Z AUTO 00000KT 1SM -SN SCT009 BKN023 OVC032 A2994 RMK P0001 MADISHF
BML,2017-04-01 17:11,-71.1786,44.5761,34.00,28.00,78.43,0.00,0.00,0.01,29.94,M,1.00,M,FEW,BKN,OVC,M,1000.00,2300.00,3200.00,M,-SN,KBML 011711Z AUTO 00000KT 1SM -SN FEW010 BKN023 OVC032 01/M02 A2994 RMK AO2 P0001 T00111022
BML,2017-04-01 17:15,-71.1786,44.5761,M,M,M,0.00,0.00,0.01,29.94,M,1.00,M,FEW,BKN,OVC,M,999.00,2300.00,3000.00,M,-SN,KBML 011715Z AUTO 00000KT 1SM -SN FEW009 BKN023 OVC030 A2994 RMK P0001 MADISHF
BML,2017-04-01 17:20,-71.1786,44.5761,M,M,M,0.00,0.00,0.01,29.94,M,0.75,M,FEW,BKN,OVC,M,999.00,2100.00,2700.00,M,-SN,KBML 011720Z AUTO 00000KT 1SM -SN FEW009 BKN021 OVC027 A2994 RMK P0001 MADISHF
BML,2017-04-01 17:23,-71.1786,44.5761,34.00,28.00,78.43,0.00,0.00,0.01,29.94,M,0.75,M,FEW,BKN,OVC,M,1000.00,1900.00,2700.00,M,-SN,KBML 011723Z AUTO 00000KT 3/4SM -SN FEW010 BKN019 OVC027 01/M02 A2994 RMK AO2 P0001 T00111022
BML,2017-04-01 17:25,-71.1786,44.5761,M,M,M,0.00,0.00,0.01,29.94,M,0.75,M,FEW,BKN,OVC,M,1200.00,1900.00,2700.00,M,-SN,KBML 011725Z AUTO 00000KT 1SM -SN FEW012 BKN019 OVC027 A2994 RMK P0001 MADISHF
BML,2017-04-01 17:30,-71.1786,44.5761,M,M,M,0.00,0.00,0.01,29.94,M,0.75,M,FEW,BKN,OVC,M,1200.00,1699.00,2500.00,M,-SN,KBML 011730Z AUTO 00000KT 1SM -SN FEW012 BKN016 OVC025 A2994 RMK P0001 MADISHF
BML,2017-04-01 17:35,-71.1786,44.5761,M,M,M,0.00,0.00,0.02,29.94,M,0.75,M,FEW,BKN,OVC,M,1200.00,1699.00,2400.00,M,-SN,KBML 011735Z AUTO 00000KT 1SM -SN FEW012 BKN016 OVC024 A2994 RMK P0002 MADISHF
BML,2017-04-01 17:40,-71.1786,44.5761,M,M,M,0.00,0.00,0.02,29.94,M,0.75,M,FEW,BKN,OVC,M,1200.00,1699.00,2400.00,M,-SN,KBML 011740Z AUTO 00000KT 1SM -SN FEW012 BKN016 OVC024 A2994 RMK P0002 MADISHF
BML,2017-04-01 17:45,-71.1786,44.5761,M,M,M,0.00,0.00,0.02,29.93,M,0.75,M,FEW,OVC,M,M,800.00,1500.00,M,M,-SN,KBML 011745Z AUTO 00000KT 1SM -SN FEW008 OVC015 A2993 RMK P0002 MADISHF
BML,2017-04-01 17:49,-71.1786,44.5761,33.80,28.40,80.36,0.00,0.00,0.02,29.94,M,0.50,M,SCT,OVC,M,M,800.00,1500.00,M,M,SN,KBML 011749Z AUTO 00000KT 1/2SM SN SCT008 OVC015 01/M02 A2994 RMK AO2 P0002
BML,2017-04-01 17:50,-71.1786,44.5761,M,M,M,0.00,0.00,0.02,29.94,M,0.50,M,SCT,OVC,M,M,800.00,1500.00,M,M,SN,KBML 011750Z AUTO 00000KT 1/2SM SN SCT008 OVC015 A2994 RMK P0002 MADISHF
BML,2017-04-01 17:52,-71.1786,44.5761,34.00,28.90,81.37,0.00,0.00,0.03,29.93,1015.10,0.50,M,BKN,OVC,M,M,800.00,1500.00,M,M,SN,KBML 011752Z AUTO 00000KT 1/2SM SN BKN008 OVC015 01/M02 A2993 RMK AO2 SLP151 P0003 60021 T00111017 10011 21006 56006
BML,2017-04-01 17:55,-71.1786,44.5761,M,M,M,0.00,0.00,M,29.93,M,0.50,M,BKN,OVC,M,M,800.00,1500.00,M,M,SN,KBML 011755Z AUTO 00000KT 1/2SM SN BKN008 OVC015 A2993 RMK MADISHF
BML,2017-04-01 18:00,-71.1786,44.5761,M,M,M,0.00,0.00,M,29.93,M,0.75,M,BKN,BKN,OVC,M,800.00,1100.00,1500.00,M,-SN,KBML 011800Z AUTO 00000KT 1SM -SN BKN008 BKN011 OVC015 A2993 RMK MADISHF
BML,2017-04-01 18:05,-71.1786,44.5761,M,M,M,340.00,4.00,M,29.93,M,0.75,M,BKN,OVC,M,M,800.00,1600.00,M,M,-SN,KBML 011805Z AUTO 34004KT 1SM -SN BKN008 OVC016 A2993 RMK MADISHF
BML,2017-04-01 18:10,-71.1786,44.5761,M,M,M,330.00,3.00,M,29.93,M,0.75,M,FEW,BKN,OVC,M,400.00,900.00,1600.00,M,-SN,KBML 011810Z AUTO 33003KT 1SM -SN FEW004 BKN009 OVC016 A2993 RMK MADISHF
BML,2017-04-01 18:15,-71.1786,44.5761,M,M,M,330.00,3.00,0.01,29.93,M,0.75,M,BKN,OVC,M,M,900.00,1600.00,M,M,-SN,KBML 011815Z AUTO 33003KT 1SM -SN BKN009 OVC016 A2993 RMK P0001 MADISHF
BML,2017-04-01 18:20,-71.1786,44.5761,M,M,M,350.00,4.00,0.01,29.93,M,0.75,M,FEW,BKN,OVC,M,400.00,1100.00,1600.00,M,-SN,KBML 011820Z AUTO 35004KT 1SM -SN FEW004 BKN011 OVC016 A2993 RMK P0001 MADISHF
BML,2017-04-01 18:25,-71.1786,44.5761,M,M,M,360.00,3.00,0.01,29.93,M,0.75,M,FEW,BKN,OVC,M,400.00,900.00,1600.00,M,-SN BR,KBML 011825Z AUTO 36003KT 1SM -SN BR FEW004 BKN009 OVC016 A2993 RMK P0001 MADISHF
BML,2017-04-01 18:30,-71.1786,44.5761,M,M,M,30.00,5.00,0.01,29.93,M,0.75,M,BKN,OVC,M,M,900.00,1600.00,M,M,-SN,KBML 011830Z AUTO 03005KT 1SM -SN BKN009 OVC016 A2993 RMK P0001 MADISHF
BML,2017-04-01 18:35,-71.1786,44.5761,M,M,M,60.00,3.00,0.01,29.93,M,0.75,M,SCT,BKN,OVC,M,700.00,1200.00,2500.00,M,-SN,KBML 011835Z AUTO 06003KT 1SM -SN SCT007 BKN012 OVC025 A2993 RMK P0001 MADISHF
BML,2017-04-01 18:36,-71.1786,44.5761,34.00,28.00,78.43,0.00,0.00,0.01,29.93,M,1.00,M,SCT,BKN,OVC,M,700.00,1200.00,2500.00,M,-SN,KBML 011836Z AUTO 00000KT 1SM -SN SCT007 BKN012 OVC025 01/M02 A2993 RMK AO2 P0001 T00111022
BML,2017-04-01 18:40,-71.1786,44.5761,M,M,M,10.00,3.00,0.01,29.92,M,1.00,M,SCT,BKN,OVC,M,900.00,1900.00,3399.00,M,-SN,KBML 011840Z AUTO 01003KT 1SM -SN SCT009 BKN019 OVC033 A2992 RMK P0001 MADISHF
BML,2017-04-01 18:43,-71.1786,44.5761,35.10,28.90,77.88,0.00,0.00,0.01,29.92,M,1.25,M,SCT,BKN,OVC,M,900.00,2200.00,3400.00,M,-SN,KBML 011843Z AUTO 00000KT 1 1/4SM -SN SCT009 BKN022 OVC034 02/M02 A2992 RMK AO2 P0001 T00171017
BML,2017-04-01 18:45,-71.1786,44.5761,M,M,M,40.00,5.00,0.01,29.92,M,1.50,M,SCT,BKN,OVC,M,900.00,2200.00,3500.00,M,-SN,KBML 011845Z AUTO 04005KT 1 1/2SM -SN SCT009 BKN022 OVC035 A2992 RMK P0001 MADISHF
BML,2017-04-01 18:49,-71.1786,44.5761,35.60,28.40,74.80,30.00,3.00,0.01,29.92,M,2.00,M,FEW,BKN,OVC,M,900.00,2200.00,4000.00,M,-SN,KBML 011849Z AUTO 03003KT 2SM -SN FEW009 BKN022 OVC040 02/M02 A2992 RMK AO2 P0001
BML,2017-04-01 18:50,-71.1786,44.5761,35.10,28.00,75.06,0.00,0.00,0.01,29.92,1014.50,2.00,M,FEW,BKN,OVC,M,900.00,2400.00,3600.00,M,-SN,KBML 011850Z AUTO 00000KT 2SM -SN FEW009 BKN024 OVC036 02/M02 A2992 RMK AO2 SLP145 P0001 T00171022
BML,2017-04-01 18:55,-71.1786,44.5761,M,M,M,20.00,4.00,M,29.92,M,2.00,M,FEW,BKN,OVC,M,900.00,2600.00,3399.00,M,-SN,KBML 011855Z AUTO 02004KT 2SM -SN FEW009 BKN026 OVC033 A2992 RMK MADISHF
BML,2017-04-01 19:00,-71.1786,44.5761,M,M,M,350.00,3.00,M,29.92,M,2.50,M,FEW,BKN,OVC,M,1400.00,2800.00,3700.00,M,-SN,KBML 011900Z AUTO 35003KT 2 1/2SM -SN FEW014 BKN028 OVC037 A2992 RMK MADISHF
BML,2017-04-01 19:03,-71.1786,44.5761,36.00,28.00,72.43,360.00,4.00,0.00,29.92,M,3.00,M,FEW,BKN,OVC,M,1200.00,3000.00,3700.00,M,-SN,KBML 011903Z AUTO 36004KT 3SM -SN FEW012 BKN030 OVC037 02/M02 A2992 RMK AO2 P0000 T00221022
BML,2017-04-01 19:09,-71.1786,44.5761,35.10,28.90,77.88,60.00,4.00,0.00,29.91,M,2.50,M,FEW,OVC,M,M,1200.00,3300.00,M,M,-SN,KBML 011909Z AUTO 06004KT 2 1/2SM -SN FEW012 OVC033 02/M02 A2991 RMK AO2 P0000 T00171017
BML,2017-04-01 19:10,-71.1786,44.5761,M,M,M,80.00,5.00,M,29.91,M,2.50,M,FEW,BKN,OVC,M,1200.00,3000.00,3700.00,M,-SN,KBML 011910Z AUTO 08005KT 2 1/2SM -SN FEW012 BKN030 OVC037 A2991 RMK MADISHF
BML,2017-04-01 19:15,-71.1786,44.5761,M,M,M,80.00,5.00,M,29.90,M,2.50,M,FEW,BKN,OVC,M,1200.00,3399.00,3999.00,M,-SN,KBML 011915Z AUTO 08005KT 2 1/2SM -SN FEW012 BKN033 OVC039 A2990 RMK MADISHF
BML,2017-04-01 19:20,-71.1786,44.5761,M,M,M,80.00,5.00,M,29.90,M,2.50,M,FEW,BKN,OVC,M,1200.00,3700.00,4800.00,M,-SN,KBML 011920Z AUTO 08005KT 2 1/2SM -SN FEW012 BKN037 OVC048 A2990 RMK MADISHF
BML,2017-04-01 19:27,-71.1786,44.5761,36.00,28.90,75.15,M,3.00,0.00,29.90,M,4.00,M,FEW,BKN,OVC,M,1200.00,4100.00,5000.00,M,-SN,KBML 011927Z AUTO VRB03KT 4SM -SN FEW012 BKN041 OVC050 02/M02 A2990 RMK AO2 P0000 T00221017
BML,2017-04-01 19:30,-71.1786,44.5761,M,M,M,70.00,3.00,M,29.90,M,4.00,M,FEW,BKN,OVC,M,1200.00,4100.00,5000.00,M,-SN,KBML 011930Z AUTO 07003KT 4SM -SN FEW012 BKN041 OVC050 A2990 RMK VRB03KT  MADISHF
BML,2017-04-01 19:35,-71.1786,44.5761,M,M,M,50.00,4.00,M,29.90,M,6.00,M,FEW,BKN,OVC,M,3300.00,4300.00,5000.00,M,-SN,KBML 011935Z AUTO 05004KT 6SM -SN FEW033 BKN043 OVC050 A2990 RMK MADISHF
BML,2017-04-01 19:40,-71.1786,44.5761,M,M,M,40.00,3.00,M,29.90,M,6.00,M,BKN,OVC,M,M,4100.00,5000.00,M,M,-SN,KBML 011940Z AUTO 04003KT 6SM -SN BKN041 OVC050 A2990 RMK MADISHF
BML,2017-04-01 19:45,-71.1786,44.5761,M,M,M,50.00,4.00,M,29.90,M,5.00,M,BKN,OVC,M,M,4100.00,5000.00,M,M,-SN,KBML 011945Z AUTO 05004KT 5SM -SN BKN041 OVC050 A2990 RMK VRB04KT  MADISHF
BML,2017-04-01 19:50,-71.1786,44.5761,M,M,M,0.00,0.00,M,29.91,M,4.00,M,BKN,OVC,M,M,3700.00,4600.00,M,M,-SN,KBML 011950Z AUTO 00000KT 4SM -SN BKN037 OVC046 A2991 RMK MADISHF
BML,2017-04-01 19:52,-71.1786,44.5761,36.00,28.00,72.43,360.00,3.00,0.00,29.91,1014.10,4.00,M,BKN,OVC,M,M,3700.00,4600.00,M,M,-SN,KBML 011952Z AUTO 36003KT 4SM -SN BKN037 OVC046 02/M02 A2991 RMK AO2 SLP141 P0000 T00221022
BML,2017-04-01 19:55,-71.1786,44.5761,M,M,M,10.00,5.00,M,29.91,M,3.50,M,BKN,OVC,M,M,3700.00,4600.00,M,M,-SN,KBML 011955Z AUTO 01005KT 3SM -SN BKN037 OVC046 A2991 RMK MADISHF
BML,2017-04-01 20:00,-71.1786,44.5761,M,M,M,20.00,3.00,M,29.91,M,3.50,M,BKN,BKN,OVC,M,3500.00,4600.00,6000.00,M,-SN,KBML 012000Z AUTO 02003KT 3SM -SN BKN035 BKN046 OVC060 A2991 RMK MADISHF
BML,2017-04-01 20:05,-71.1786,44.5761,M,M,M,350.00,4.00,M,29.92,M,4.00,M,SCT,OVC,M,M,3500.00,6000.00,M,M,-SN,KBML 012005Z AUTO 35004KT 4SM -SN SCT035 OVC060 A2992 RMK MADISHF
BML,2017-04-01 20:10,-71.1786,44.5761,M,M,M,350.00,6.00,M,29.92,M,6.00,M,FEW,BKN,OVC,M,2400.00,3900.00,6500.00,M,-SN,KBML 012010Z AUTO 35006KT 6SM -SN FEW024 BKN039 OVC065 A2992 RMK MADISHF
BML,2017-04-01 20:15,-71.1786,44.5761,M,M,M,350.00,6.00,M,29.93,M,8.00,M,FEW,BKN,OVC,M,2400.00,3200.00,6000.00,M,M,KBML 012015Z AUTO 35006KT 8SM FEW024 BKN032 OVC060 A2993 RMK MADISHF
BML,2017-04-01 20:20,-71.1786,44.5761,M,M,M,350.00,6.00,M,29.93,M,8.00,M,FEW,BKN,OVC,M,1200.00,3000.00,6000.00,M,M,KBML 012020Z AUTO 35006KT 8SM FEW012 BKN030 OVC060 A2993 RMK MADISHF
BML,2017-04-01 20:25,-71.1786,44.5761,M,M,M,350.00,6.00,M,29.93,M,8.00,M,SCT,BKN,OVC,M,1200.00,2500.00,6000.00,M,M,KBML 012025Z AUTO 35006KT 8SM SCT012 BKN025 OVC060 A2993 RMK MADISHF
BML,2017-04-01 20:28,-71.1786,44.5761,35.10,28.90,77.88,360.00,6.00,0.00,29.93,M,8.00,M,SCT,BKN,OVC,M,1200.00,2500.00,6000.00,M,M,KBML 012028Z AUTO 36006KT 8SM SCT012 BKN025 OVC060 02/M02 A2993 RMK AO2 SNE15 P0000 T00171017
BML,2017-04-01 20:30,-71.1786,44.5761,M,M,M,350.00,5.00,M,29.93,M,7.00,M,FEW,BKN,OVC,M,1200.00,2500.00,4100.00,M,M,KBML 012030Z AUTO 35005KT 7SM FEW012 BKN025 OVC041 A2993 RMK MADISHF
BML,2017-04-01 20:35,-71.1786,44.5761,M,M,M,350.00,7.00,M,29.93,M,5.00,M,FEW,BKN,OVC,M,1200.00,2500.00,4100.00,M,-SN,KBML 012035Z AUTO 35007KT 5SM -SN FEW012 BKN025 OVC041 A2993 RMK MADISHF
BML,2017-04-01 20:40,-71.1786,44.5761,M,M,M,350.00,6.00,M,29.93,M,2.50,M,FEW,BKN,OVC,M,1200.00,2500.00,3200.00,M,-SN,KBML 012040Z AUTO 35006KT 2 1/2SM -SN FEW012 BKN025 OVC032 A2993 RMK MADISHF
BML,2017-04-01 20:45,-71.1786,44.5761,M,M,M,350.00,6.00,M,29.93,M,2.00,M,FEW,BKN,OVC,M,1200.00,2600.00,3399.00,M,-SN,KBML 012045Z AUTO 35006KT 2SM -SN FEW012 BKN026 OVC033 A2993 RMK MADISHF
BML,2017-04-01 20:50,-71.1786,44.5761,M,M,M,350.00,6.00,M,29.93,M,1.75,M,FEW,OVC,M,M,999.00,2400.00,M,M,-SN,KBML 012050Z AUTO 35006KT 2SM -SN FEW009 OVC024 A2993 RMK MADISHF
BML,2017-04-01 20:52,-71.1786,44.5761,35.10,30.00,81.46,360.00,5.00,0.00,29.93,1015.00,1.50,M,FEW,BKN,OVC,M,1000.00,2400.00,3400.00,M,-SN,KBML 012052Z AUTO 36005KT 1 1/2SM -SN FEW010 BKN024 OVC034 02/M01 A2993 RMK AO2 SNE15B31 SLP150 P0000 60001 T00171011 55001
BML,2017-04-01 20:55,-71.1786,44.5761,M,M,M,360.00,5.00,M,29.93,M,1.25,M,BKN,OVC,M,M,2400.00,3200.00,M,M,-SN,KBML 012055Z AUTO 36005KT 1 1/2SM -SN BKN024 OVC032 A2993 RMK MADISHF
BML,2017-04-01 21:00,-71.1786,44.5761,35.10,30.00,81.46,350.00,6.00,0.00,29.93,M,1.25,M,FEW,BKN,OVC,M,2100.00,2600.00,3600.00,M,-SN,KBML 012100Z AUTO 35006KT 1 1/4SM -SN FEW021 BKN026 OVC036 02/M01 A2993 RMK AO2 P0000 T00171011
BML,2017-04-01 21:05,-71.1786,44.5761,M,M,M,350.00,5.00,M,29.93,M,1.75,M,FEW,BKN,OVC,M,2100.00,2600.00,3600.00,M,-SN,KBML 012105Z AUTO 35005KT 2SM -SN FEW021 BKN026 OVC036 A2993 RMK MADISHF
BML,2017-04-01 21:07,-71.1786,44.5761,35.10,30.00,81.46,350.00,6.00,0.00,29.94,M,2.00,M,FEW,BKN,OVC,M,2200.00,2600.00,3600.00,M,-SN,KBML 012107Z AUTO 35006KT 2SM -SN FEW022 BKN026 OVC036 02/M01 A2994 RMK AO2 P0000 T00171011
BML,2017-04-01 21:10,-71.1786,44.5761,M,M,M,350.00,6.00,M,29.94,M,2.50,M,BKN,OVC,M,M,2600.00,3600.00,M,M,-SN,KBML 012110Z AUTO 35006KT 2 1/2SM -SN BKN026 OVC036 A2994 RMK MADISHF
BML,2017-04-01 21:15,-71.1786,44.5761,M,M,M,340.00,5.00,M,29.94,M,2.50,M,FEW,BKN,OVC,M,2300.00,2800.00,3600.00,M,-SN,KBML 012115Z AUTO 34005KT 2 1/2SM -SN FEW023 BKN028 OVC036 A2994 RMK MADISHF
BML,2017-04-01 21:20,-71.1786,44.5761,M,M,M,340.00,6.00,M,29.94,M,2.00,M,BKN,OVC,M,M,2800.00,3600.00,M,M,-SN,KBML 012120Z AUTO 34006KT 2SM -SN BKN028 OVC036 A2994 RMK MADISHF
BML,2017-04-01 21:25,-71.1786,44.5761,M,M,M,340.00,6.00,M,29.95,M,1.75,M,BKN,OVC,M,M,2800.00,3600.00,M,M,-SN,KBML 012125Z AUTO 34006KT 2SM -SN BKN028 OVC036 A2995 RMK MADISHF
BML,2017-04-01 21:28,-71.1786,44.5761,34.00,28.90,81.37,350.00,7.00,0.00,29.95,M,1.75,M,BKN,OVC,M,M,2800.00,3600.00,M,M,-SN,KBML 012128Z AUTO 35007KT 1 3/4SM -SN BKN028 OVC036 01/M02 A2995 RMK AO2 P0000 T00111017
BML,2017-04-01 21:30,-71.1786,44.5761,M,M,M,360.00,7.00,M,29.95,M,1.75,M,BKN,OVC,M,M,2800.00,3600.00,M,M,-SN,KBML 012130Z AUTO 36007KT 2SM -SN BKN028 OVC036 A2995 RMK MADISHF
BML,2017-04-01 21:35,-71.1786,44.5761,M,M,M,350.00,5.00,M,29.95,M,2.00,M,BKN,OVC,M,M,3000.00,3600.00,M,M,-SN,KBML 012135Z AUTO 35005KT 2SM -SN BKN030 OVC036 A2995 RMK MADISHF
BML,2017-04-01 21:40,-71.1786,44.5761,M,M,M,350.00,5.00,M,29.95,M,2.50,M,FEW,OVC,M,M,1999.00,3399.00,M,M,-SN,KBML 012140Z AUTO 35005KT 2 1/2SM -SN FEW019 OVC033 A2995 RMK MADISHF
BML,2017-04-01 21:41,-71.1786,44.5761,34.00,28.90,81.37,350.00,5.00,0.00,29.95,M,3.00,M,FEW,OVC,M,M,2000.00,3400.00,M,M,-SN,KBML 012141Z AUTO 35005KT 3SM -SN FEW020 OVC034 01/M02 A2995 RMK AO2 P0000 T00111017
BML,2017-04-01 21:45,-71.1786,44.5761,M,M,M,350.00,5.00,M,29.95,M,4.00,M,FEW,BKN,OVC,M,1999.00,3700.00,5500.00,M,-SN,KBML 012145Z AUTO 35005KT 4SM -SN FEW019 BKN037 OVC055 A2995 RMK MADISHF
BML,2017-04-01 21:50,-71.1786,44.5761,M,M,M,350.00,5.00,M,29.95,M,5.00,M,FEW,BKN,OVC,M,1999.00,3900.00,5500.00,M,HZ,KBML 012150Z AUTO 35005KT 5SM HZ FEW019 BKN039 OVC055 A2995 RMK MADISHF
BML,2017-04-01 21:52,-71.1786,44.5761,34.00,28.90,81.37,360.00,4.00,0.00,29.95,1015.50,5.00,M,FEW,BKN,OVC,M,2000.00,4100.00,5500.00,M,HZ,KBML 012152Z AUTO 36004KT 5SM HZ FEW020 BKN041 OVC055 01/M02 A2995 RMK AO2 SNE48 SLP155 P0000 T00111017
BML,2017-04-01 22:00,-71.1786,44.5761,M,M,M,360.00,4.00,M,29.95,M,6.00,M,FEW,OVC,M,M,1999.00,5500.00,M,M,HZ,KBML 012200Z AUTO 36004KT 6SM HZ FEW019 OVC055 A2995 RMK MADISHF
BML,2017-04-01 22:05,-71.1786,44.5761,M,M,M,350.00,3.00,M,29.95,M,8.00,M,FEW,OVC,M,M,1999.00,5500.00,M,M,M,KBML 012205Z AUTO 35003KT 8SM FEW019 OVC055 A2995 RMK MADISHF
BML,2017-04-01 22:10,-71.1786,44.5761,M,M,M,350.00,3.00,M,29.95,M,9.00,M,OVC,M,M,M,5500.00,M,M,M,M,KBML 012210Z AUTO 35003KT 9SM OVC055 A2995 RMK MADISHF
BML,2017-04-01 22:15,-71.1786,44.5761,M,M,M,330.00,3.00,M,29.95,M,10.00,M,OVC,M,M,M,5500.00,M,M,M,M,KBML 012215Z AUTO 33003KT 10SM OVC055 A2995 RMK MADISHF
BML,2017-04-01 22:20,-71.1786,44.5761,M,M,M,330.00,3.00,M,29.95,M,10.00,M,OVC,M,M,M,5000.00,M,M,M,M,KBML 012220Z AUTO 33003KT 10SM OVC050 A2995 RMK MADISHF
BML,2017-04-01 22:25,-71.1786,44.5761,M,M,M,340.00,3.00,M,29.95,M,10.00,M,OVC,M,M,M,5000.00,M,M,M,M,KBML 012225Z AUTO 34003KT 10SM OVC050 A2995 RMK MADISHF
BML,2017-04-01 22:30,-71.1786,44.5761,M,M,M,340.00,4.00,M,29.96,M,10.00,M,OVC,M,M,M,5000.00,M,M,M,M,KBML 012230Z AUTO 34004KT 10SM OVC050 A2996 RMK MADISHF
BML,2017-04-01 22:40,-71.1786,44.5761,M,M,M,340.00,3.00,M,29.96,M,9.00,M,OVC,M,M,M,5000.00,M,M,M,-SN,KBML 012240Z AUTO 34003KT 9SM -SN OVC050 A2996 RMK MADISHF
BML,2017-04-01 22:45,-71.1786,44.5761,M,M,M,330.00,3.00,M,29.96,M,8.00,M,OVC,M,M,M,5000.00,M,M,M,-SN,KBML 012245Z AUTO 33003KT 8SM -SN OVC050 A2996 RMK MADISHF
BML,2017-04-01 22:50,-71.1786,44.5761,M,M,M,330.00,3.00,M,29.96,M,9.00,M,OVC,M,M,M,5000.00,M,M,M,M,KBML 012250Z AUTO 33003KT 9SM OVC050 A2996 RMK MADISHF
BML,2017-04-01 22:52,-71.1786,44.5761,34.00,28.90,81.37,330.00,3.00,0.00,29.96,1015.90,9.00,M,OVC,M,M,M,5000.00,M,M,M,M,KBML 012252Z AUTO 33003KT 9SM OVC050 01/M02 A2996 RMK AO2 SNB37E49 SLP159 P0000 T00111017
BML,2017-04-01 23:00,-71.1786,44.5761,M,M,M,330.00,3.00,M,29.96,M,5.00,M,OVC,M,M,M,5000.00,M,M,M,-SN,KBML 012300Z AUTO 33003KT 5SM -SN OVC050 A2996 RMK MADISHF
BML,2017-04-01 23:05,-71.1786,44.5761,M,M,M,330.00,4.00,M,29.96,M,3.00,M,OVC,M,M,M,5000.00,M,M,M,-SN,KBML 012305Z AUTO 33004KT 3SM -SN OVC050 A2996 RMK MADISHF
BML,2017-04-01 23:10,-71.1786,44.5761,M,M,M,0.00,0.00,M,29.96,M,2.50,M,OVC,M,M,M,5000.00,M,M,M,-SN,KBML 012310Z AUTO 00000KT 2 1/2SM -SN OVC050 A2996 RMK MADISHF
BML,2017-04-01 23:15,-71.1786,44.5761,M,M,M,0.00,0.00,0.01,29.96,M,4.00,M,OVC,M,M,M,5000.00,M,M,M,-SN,KBML 012315Z AUTO 00000KT 4SM -SN OVC050 A2996 RMK P0001 MADISHF
BML,2017-04-01 23:20,-71.1786,44.5761,M,M,M,340.00,3.00,0.01,29.96,M,7.00,M,OVC,M,M,M,5000.00,M,M,M,-SN,KBML 012320Z AUTO 34003KT 7SM -SN OVC050 A2996 RMK P0001 MADISHF
BML,2017-04-01 23:25,-71.1786,44.5761,M,M,M,350.00,3.00,0.01,29.96,M,8.00,M,OVC,M,M,M,5000.00,M,M,M,-SN,KBML 012325Z AUTO 35003KT 8SM -SN OVC050 A2996 RMK P0001 MADISHF
BML,2017-04-01 23:30,-71.1786,44.5761,M,M,M,0.00,0.00,0.01,29.95,M,8.00,M,BKN,OVC,M,M,5000.00,8500.00,M,M,-SN,KBML 012330Z AUTO 00000KT 8SM -SN BKN050 OVC085 A2995 RMK P0001 MADISHF
BML,2017-04-01 23:35,-71.1786,44.5761,M,M,M,0.00,0.00,0.01,29.95,M,7.00,M,BKN,OVC,M,M,5000.00,8500.00,M,M,-SN,KBML 012335Z AUTO 00000KT 7SM -SN BKN050 OVC085 A2995 RMK P0001 MADISHF
BML,2017-04-01 23:40,-71.1786,44.5761,M,M,M,0.00,0.00,0.01,29.95,M,7.00,M,SCT,OVC,M,M,5000.00,9000.00,M,M,-SN,KBML 012340Z AUTO 00000KT 7SM -SN SCT050 OVC090 A2995 RMK P0001 MADISHF
BML,2017-04-01 23:45,-71.1786,44.5761,M,M,M,0.00,0.00,0.01,29.95,M,7.00,M,FEW,OVC,M,M,5000.00,9000.00,M,M,-SN,KBML 012345Z AUTO 00000KT 7SM -SN FEW050 OVC090 A2995 RMK P0001 MADISHF
BML,2017-04-01 23:50,-71.1786,44.5761,M,M,M,0.00,0.00,0.01,29.95,M,7.00,M,FEW,OVC,M,M,5000.00,9000.00,M,M,-SN,KBML 012350Z AUTO 00000KT 7SM -SN FEW050 OVC090 A2995 RMK P0001 MADISHF
BML,2017-04-01 23:52,-71.1786,44.5761,34.00,28.90,81.37,0.00,0.00,0.01,29.95,1015.80,6.00,M,FEW,OVC,M,M,5000.00,9000.00,M,M,-SN,KBML 012352Z AUTO 00000KT 6SM -SN FEW050 OVC090 01/M02 A2995 RMK AO2 SNB2254 SLP158 P0001 60002 T00111017 10022 20006 50007
BML,2017-04-01 23:55,-71.1786,44.5761,M,M,M,0.00,0.00,M,29.95,M,6.00,M,OVC,M,M,M,9000.00,M,M,M,-SN,KBML 012355Z AUTO 00000KT 6SM -SN OVC090 A2995 RMK MADISHF
