#DEBUG: Format Typ    -> comma
#DEBUG: Time Period   -> 2017-04-01 00:00:00+00:00 2017-04-02 00:00:00+00:00
#DEBUG: Time Zone     -> Etc/UTC
#DEBUG: Data Contact   -> daryl herzmann akrherz@iastate.edu 515-294-5978
#DEBUG: Entries Found -> -1
station,valid,lon,lat,tmpf, dwpf, relh, drct, sknt, p01i, alti, mslp, vsby, gust, skyc1, skyc2, skyc3, skyc4, skyl1, skyl2, skyl3, skyl4, presentwx, metar
BNO,2017-04-01 00:00,-118.9564,43.5950,M,M,M,310.00,13.00,M,30.12,M,10.00,M,CLR,M,M,M,M,M,M,M,M,KBNO 010000Z AUTO 31013KT 10SM CLR A3012 RMK MADISHF
BNO,2017-04-01 00:05,-118.9564,43.5950,M,M,M,310.00,13.00,M,30.12,M,10.00,M,CLR,M,M,M,M,M,M,M,M,KBNO 010005Z AUTO 31013KT 10SM CLR A3012 RMK MADISHF
BNO,2017-04-01 00:10,-118.9564,43.5950,M,M,M,310.00,13.00,M,30.12,M,10.00,M,CLR,M,M,M,M,M,M,M,M,KBNO 010010Z AUTO 31013KT 10SM CLR A3012 RMK MADISHF
BNO,2017-04-01 00:15,-118.9564,43.5950,M,M,M,310.00,12.00,M,30.12,M,10.00,M,CLR,M,M,M,M,M,M,M,M,KBNO 010015Z AUTO 31012KT 10SM CLR A3012 RMK MADISHF
BNO,2017-04-01 00:20,-118.9564,43.5950,M,M,M,310.00,10.00,M,30.12,M,10.00,M,CLR,M,M,M,M,M,M,M,M,KBNO 010020Z AUTO 31010KT 10SM CLR A3012 RMK MADISHF
BNO,2017-04-01 00:25,-118.9564,43.5950,M,M,M,310.00,10.00,M,30.12,M,10.00,M,CLR,M,M,M,M,M,M,M,M,KBNO 010025Z AUTO 31010KT 10SM CLR A3012 RMK MADISHF
BNO,2017-04-01 00:30,-118.9564,43.5950,M,M,M,320.00,12.00,M,30.12,M,10.00,M,CLR,M,M,M,M,M,M,M,M,KBNO 010030Z AUTO 32012KT 10SM CLR A3012 RMK MADISHF
BNO,2017-04-01 00:35,-118.9564,43.5950,M,M,M,320.00,14.00,M,30.11,M,10.00,M,CLR,M,M,M,M,M,M,M,M,KBNO 010035Z AUTO 32014KT 10SM CLR A3011 RMK MADISHF
BNO,2017-04-01 00:40,-118.9564,43.5950,M,M,M,320.00,14.00,M,30.11,M,10.00,M,CLR,M,M,M,M,M,M,M,M,KBNO 010040Z AUTO 32014KT 10SM CLR A3011 RMK MADISHF
BNO,2017-04-01 00:45,-118.9564,43.5950,M,M,M,330.00,13.00,M,30.11,M,10.00,M,CLR,M,M,M,M,M,M,M,M,KBNO 010045Z AUTO 33013KT 10SM CLR A3011 RMK MADISHF
BNO,2017-04-01 00:50,-118.9564,43.5950,M,M,M,320.00,13.00,M,30.11,M,10.00,M,CLR,M,M,M,M,M,M,M,M,KBNO 010050Z AUTO 32013KT 10SM CLR A3011 RMK MADISHF
BNO,2017-04-01 00:53,-118.9564,43.5950,52.00,28.90,40.78,320.00,11.00,0.00,30.11,1019.80,10.00,M,CLR,M,M,M,M,M,M,M,M,KBNO 010053Z AUTO 32011KT 10SM CLR 11/M02 A3011 RMK AO2 SLP198 T01111017 $
BNO,2017-04-01 00:55,-118.9564,43.5950,M,M,M,310.00,14.00,M,30.11,M,10.00,M,CLR,M,M,M,M,M,M,M,M,KBNO 010055Z AUTO 31014KT 10SM CLR A3011 RMK MADISHF
BNO,2017-04-01 01:00,-118.9564,43.5950,M,M,M,310.00,13.00,M,30.11,M,10.00,M,CLR,M,M,M,M,M,M,M,M,KBNO 010100Z AUTO 31013KT 10SM CLR A3011 RMK MADISHF
BNO,2017-04-01 01:05,-118.9564,43.5950,M,M,M,M,M,M,30.11,M,10.00,M,CLR,M,M,M,M,M,M,M,M,KBNO 010105Z AUTO /////KT 10SM CLR A3011 RMK MADISHF
BNO,2017-04-01 01:10,-118.9564,43.5950,M,M,M,310.00,11.00,M,30.12,M,10.00,M,CLR,M,M,M,M,M,M,M,M,KBNO 010110Z AUTO 31011KT 10SM CLR A3012 RMK MADISHF
BNO,2017-04-01 01:15,-118.9564,43.5950,M,M,M,310.00,12.00,M,30.12,M,10.00,M,CLR,M,M,M,M,M,M,M,M,KBNO 010115Z AUTO 31012KT 10SM CLR A3012 RMK MADISHF
BNO,2017-04-01 01:20,-118.9564,43.5950,M,M,M,320.00,14.00,M,30.12,M,10.00,M,CLR,M,M,M,M,M,M,M,M,KBNO 010120Z AUTO 32014KT 10SM CLR A3012 RMK MADISHF
BNO,2017-04-01 01:25,-118.9564,43.5950,M,M,M,320.00,14.00,M,30.12,M,10.00,19.00,CLR,M,M,M,M,M,M,M,M,KBNO 010125Z AUTO 32014G19KT 10SM CLR A3012 RMK MADISHF
BNO,2017-04-01 01:30,-118.9564,43.5950,M,M,M,330.00,17.00,M,30.12,M,10.00,M,CLR,M,M,M,M,M,M,M,M,KBNO 010130Z AUTO 33017KT 10SM CLR A3012 RMK MADISHF
BNO,2017-04-01 01:35,-118.9564,43.5950,M,M,M,320.00,17.00,M,30.12,M,10.00,M,CLR,M,M,M,M,M,M,M,M,KBNO 010135Z AUTO 32017KT 10SM CLR A3012 RMK MADISHF
BNO,2017-04-01 01:40,-118.9564,43.5950,M,M,M,320.00,18.00,M,30.12,M,10.00,M,CLR,M,M,M,M,M,M,M,M,KBNO 010140Z AUTO 32018KT 10SM CLR A3012 RMK MADISHF
BNO,2017-04-01 01:45,-118.9564,43.5950,M,M,M,320.00,16.00,M,30.12,M,10.00,M,CLR,M,M,M,M,M,M,M,M,KBNO 010145Z AUTO 32016KT 10SM CLR A3012 RMK MADISHF
BNO,2017-04-01 01:50,-118.9564,43.5950,M,M,M,320.00,16.00,M,30.12,M,10.00,M,CLR,M,M,M,M,M,M,M,M,KBNO 010150Z AUTO 32016KT 10SM CLR A3012 RMK MADISHF
BNO,2017-04-01 01:53,-118.9564,43.5950,48.00,28.00,45.61,310.00,15.00,0.00,30.12,1020.70,10.00,M,CLR,M,M,M,M,M,M,M,M,KBNO 010153Z AUTO 31015KT 10SM CLR 09/M02 A3012 RMK AO2 SLP207 T00891022 $
BNO,2017-04-01 01:55,-118.9564,43.5950,M,M,M,310.00,15.00,M,30.13,M,10.00,M,CLR,M,M,M,M,M,M,M,M,KBNO 010155Z AUTO 31015KT 10SM CLR A3013 RMK MADISHF
BNO,2017-04-01 02:00,-118.9564,43.5950,M,M,M,320.00,12.00,M,30.13,M,10.00,M,CLR,M,M,M,M,M,M,M,M,KBNO 010200Z AUTO 32012KT 10SM CLR A3013 RMK MADISHF
BNO,2017-04-01 02:05,-118.9564,43.5950,M,M,M,310.00,11.00,M,30.13,M,10.00,M,CLR,M,M,M,M,M,M,M,M,KBNO 010205Z AUTO 31011KT 10SM CLR A3013 RMK MADISHF
BNO,2017-04-01 02:10,-118.9564,43.5950,M,M,M,310.00,13.00,M,30.13,M,10.00,M,CLR,M,M,M,M,M,M,M,M,KBNO 010210Z AUTO 31013KT 10SM CLR A3013 RMK MADISHF
BNO,2017-04-01 02:15,-118.9564,43.5950,M,M,M,310.00,13.00,M,30.14,M,10.00,M,CLR,M,M,M,M,M,M,M,M,KBNO 010215Z AUTO 31013KT 10SM CLR A3014 RMK MADISHF
BNO,2017-04-01 02:20,-118.9564,43.5950,M,M,M,300.00,9.00,M,30.15,M,10.00,M,CLR,M,M,M,M,M,M,M,M,KBNO 010220Z AUTO 30009KT 10SM CLR A3015 RMK MADISHF
BNO,2017-04-01 02:25,-118.9564,43.5950,M,M,M,310.00,11.00,M,30.15,M,10.00,M,CLR,M,M,M,M,M,M,M,M,KBNO 010225Z AUTO 31011KT 10SM CLR A3015 RMK MADISHF
BNO,2017-04-01 02:30,-118.9564,43.5950,M,M,M,310.00,11.00,M,30.15,M,10.00,M,CLR,M,M,M,M,M,M,M,M,KBNO 010230Z AUTO 31011KT 10SM CLR A3015 RMK MADISHF
BNO,2017-04-01 02:35,-118.9564,43.5950,M,M,M,310.00,11.00,M,30.15,M,10.00,M,CLR,M,M,M,M,M,M,M,M,KBNO 010235Z AUTO 31011KT 10SM CLR A3015 RMK MADISHF
BNO,2017-04-01 02:40,-118.9564,43.5950,M,M,M,310.00,10.00,M,30.15,M,10.00,M,CLR,M,M,M,M,M,M,M,M,KBNO 010240Z AUTO 31010KT 10SM CLR A3015 RMK MADISHF
BNO,2017-04-01 02:45,-118.9564,43.5950,M,M,M,300.00,8.00,M,30.15,M,10.00,M,CLR,M,M,M,M,M,M,M,M,KBNO 010245Z AUTO 30008KT 10SM CLR A3015 RMK MADISHF
BNO,2017-04-01 02:50,-118.9564,43.5950,M,M,M,300.00,8.00,M,30.15,M,10.00,M,CLR,M,M,M,M,M,M,M,M,KBNO 010250Z AUTO 30008KT 10SM CLR A3015 RMK MADISHF
BNO,2017-04-01 02:53,-118.9564,43.5950,43.00,27.00,52.91,290.00,9.00,0.00,30.14,1021.60,10.00,M,CLR,M,M,M,M,M,M,M,M,KBNO 010253Z AUTO 29009KT 10SM CLR 06/M03 A3014 RMK AO2 SLP216 T00611028 53006 $
BNO,2017-04-01 02:55,-118.9564,43.5950,M,M,M,300.00,8.00,M,30.14,M,10.00,M,CLR,M,M,M,M,M,M,M,M,KBNO 010255Z AUTO 30008KT 10SM CLR A3014 RMK MADISHF
BNO,2017-04-01 03:00,-118.9564,43.5950,M,M,M,300.00,9.00,M,30.15,M,10.00,M,CLR,M,M,M,M,M,M,M,M,KBNO 010300Z AUTO 30009KT 10SM CLR A3015 RMK MADISHF
BNO,2017-04-01 03:05,-118.9564,43.5950,M,M,M,300.00,11.00,M,30.15,M,10.00,M,CLR,M,M,M,M,M,M,M,M,KBNO 010305Z AUTO 30011KT 10SM CLR A3015 RMK MADISHF
BNO,2017-04-01 03:10,-118.9564,43.5950,M,M,M,300.00,10.00,M,30.15,M,10.00,M,CLR,M,M,M,M,M,M,M,M,KBNO 010310Z AUTO 30010KT 10SM CLR A3015 RMK MADISHF
BNO,2017-04-01 03:15,-118.9564,43.5950,M,M,M,300.00,10.00,M,30.15,M,10.00,M,CLR,M,M,M,M,M,M,M,M,KBNO 010315Z AUTO 30010KT 10SM CLR A3015 RMK MADISHF
BNO,2017-04-01 03:20,-118.9564,43.5950,M,M,M,290.00,9.00,M,30.16,M,10.00,M,CLR,M,M,M,M,M,M,M,M,KBNO 010320Z AUTO 29009KT 10SM CLR A3016 RMK MADISHF
BNO,2017-04-01 03:25,-118.9564,43.5950,M,M,M,270.00,8.00,M,30.16,M,10.00,M,CLR,M,M,M,M,M,M,M,M,KBNO 010325Z AUTO 27008KT 10SM CLR A3016 RMK MADISHF
BNO,2017-04-01 03:30,-118.9564,43.5950,M,M,M,270.00,6.00,M,30.16,M,10.00,M,CLR,M,M,M,M,M,M,M,M,KBNO 010330Z AUTO 27006KT 10SM CLR A3016 RMK MADISHF
BNO,2017-04-01 03:35,-118.9564,43.5950,M,M,M,270.00,9.00,M,30.16,M,10.00,M,CLR,M,M,M,M,M,M,M,M,KBNO 010335Z AUTO 27009KT 10SM CLR A3016 RMK MADISHF
BNO,2017-04-01 03:40,-118.9564,43.5950,M,M,M,280.00,10.00,M,30.16,M,10.00,M,CLR,M,M,M,M,M,M,M,M,KBNO 010340Z AUTO 28010KT 10SM CLR A3016 RMK MADISHF
BNO,2017-04-01 03:45,-118.9564,43.5950,M,M,M,270.00,7.00,M,30.16,M,10.00,M,CLR,M,M,M,M,M,M,M,M,KBNO 010345Z AUTO 27007KT 10SM CLR A3016 RMK MADISHF
BNO,2017-04-01 03:50,-118.9564,43.5950,M,M,M,270.00,9.00,M,30.16,M,10.00,M,CLR,M,M,M,M,M,M,M,M,KBNO 010350Z AUTO 27009KT 10SM CLR A3016 RMK MADISHF
BNO,2017-04-01 03:53,-118.9564,43.5950,41.00,28.90,61.79,280.00,8.00,0.00,30.16,1022.00,10.00,M,CLR,M,M,M,M,M,M,M,M,KBNO 010353Z AUTO 28008KT 10SM CLR 05/M02 A3016 RMK AO2 SLP220 T00501017 $
BNO,2017-04-01 03:55,-118.9564,43.5950,M,M,M,280.00,8.00,M,30.16,M,10.00,M,CLR,M,M,M,M,M,M,M,M,KBNO 010355Z AUTO 28008KT 10SM CLR A3016 RMK MADISHF
BNO,2017-04-01 04:00,-118.9564,43.5950,M,M,M,280.00,7.00,M,30.16,M,10.00,M,CLR,M,M,M,M,M,M,M,M,KBNO 010400Z AUTO 28007KT 10SM CLR A3016 RMK MADISHF
BNO,2017-04-01 04:05,-118.9564,43.5950,M,M,M,280.00,8.00,M,30.16,M,10.00,M,CLR,M,M,M,M,M,M,M,M,KBNO 010405Z AUTO 28008KT 10SM CLR A3016 RMK MADISHF
BNO,2017-04-01 04:10,-118.9564,43.5950,M,M,M,270.00,10.00,M,30.16,M,10.00,M,CLR,M,M,M,M,M,M,M,M,KBNO 010410Z AUTO 27010KT 10SM CLR A3016 RMK MADISHF
BNO,2017-04-01 04:15,-118.9564,43.5950,M,M,M,280.00,10.00,M,30.17,M,10.00,M,CLR,M,M,M,M,M,M,M,M,KBNO 010415Z AUTO 28010KT 10SM CLR A3017 RMK MADISHF
BNO,2017-04-01 04:20,-118.9564,43.5950,M,M,M,280.00,9.00,M,30.17,M,10.00,M,CLR,M,M,M,M,M,M,M,M,KBNO 010420Z AUTO 28009KT 10SM CLR A3017 RMK MADISHF
BNO,2017-04-01 04:25,-118.9564,43.5950,M,M,M,270.00,8.00,M,30.17,M,10.00,M,CLR,M,M,M,M,M,M,M,M,KBNO 010425Z AUTO 27008KT 10SM CLR A3017 RMK MADISHF
BNO,2017-04-01 04:30,-118.9564,43.5950,M,M,M,270.00,9.00,M,30.17,M,10.00,M,CLR,M,M,M,M,M,M,M,M,KBNO 010430Z AUTO 27009KT 10SM CLR A3017 RMK MADISHF
BNO,2017-04-01 04:35,-118.9564,43.5950,M,M,M,270.00,9.00,M,30.17,M,10.00,M,CLR,M,M,M,M,M,M,M,M,KBNO 010435Z AUTO 27009KT 10SM CLR A3017 RMK MADISHF
BNO,2017-04-01 04:40,-118.9564,43.5950,M,M,M,260.00,7.00,M,30.17,M,10.00,M,CLR,M,M,M,M,M,M,M,M,KBNO 010440Z AUTO 26007KT 10SM CLR A3017 RMK MADISHF
BNO,2017-04-01 04:45,-118.9564,43.5950,M,M,M,260.00,9.00,M,30.18,M,10.00,M,CLR,M,M,M,M,M,M,M,M,KBNO 010445Z AUTO 26009KT 10SM CLR A3018 RMK MADISHF
BNO,2017-04-01 04:50,-118.9564,43.5950,M,M,M,260.00,9.00,M,30.18,M,10.00,M,CLR,M,M,M,M,M,M,M,M,KBNO 010450Z AUTO 26009KT 10SM CLR A3018 RMK MADISHF
BNO,2017-04-01 04:53,-118.9564,43.5950,39.00,28.00,64.37,270.00,10.00,0.00,30.18,1022.60,10.00,M,CLR,M,M,M,M,M,M,M,M,KBNO 010453Z AUTO 27010KT 10SM CLR 04/M02 A3018 RMK AO2 SLP226 T00391022 $
BNO,2017-04-01 04:55,-118.9564,43.5950,M,M,M,270.00,9.00,M,30.18,M,10.00,M,CLR,M,M,M,M,M,M,M,M,KBNO 010455Z AUTO 27009KT 10SM CLR A3018 RMK MADISHF
BNO,2017-04-01 05:00,-118.9564,43.5950,M,M,M,270.00,8.00,M,30.18,M,10.00,M,CLR,M,M,M,M,M,M,M,M,KBNO 010500Z AUTO 27008KT 10SM CLR A3018 RMK MADISHF
BNO,2017-04-01 05:05,-118.9564,43.5950,M,M,M,270.00,9.00,M,30.18,M,10.00,M,CLR,M,M,M,M,M,M,M,M,KBNO 010505Z AUTO 27009KT 10SM CLR A3018 RMK MADISHF
BNO,2017-04-01 05:10,-118.9564,43.5950,M,M,M,270.00,9.00,M,30.18,M,10.00,M,CLR,M,M,M,M,M,M,M,M,KBNO 010510Z AUTO 27009KT 10SM CLR A3018 RMK MADISHF
BNO,2017-04-01 05:15,-118.9564,43.5950,M,M,M,270.00,7.00,M,30.18,M,10.00,M,CLR,M,M,M,M,M,M,M,M,KBNO 010515Z AUTO 27007KT 10SM CLR A3018 RMK MADISHF
BNO,2017-04-01 05:20,-118.9564,43.5950,M,M,M,260.00,6.00,M,30.18,M,10.00,M,CLR,M,M,M,M,M,M,M,M,KBNO 010520Z AUTO 26006KT 10SM CLR A3018 RMK MADISHF
BNO,2017-04-01 05:25,-118.9564,43.5950,M,M,M,260.00,7.00,M,30.18,M,10.00,M,CLR,M,M,M,M,M,M,M,M,KBNO 010525Z AUTO 26007KT 10SM CLR A3018 RMK MADISHF
BNO,2017-04-01 05:30,-118.9564,43.5950,M,M,M,260.00,9.00,M,30.18,M,10.00,M,CLR,M,M,M,M,M,M,M,M,KBNO 010530Z AUTO 26009KT 10SM CLR A3018 RMK MADISHF
BNO,2017-04-01 05:35,-118.9564,43.5950,M,M,M,270.00,9.00,M,30.18,M,10.00,M,CLR,M,M,M,M,M,M,M,M,KBNO 010535Z AUTO 27009KT 10SM CLR A3018 RMK MADISHF
BNO,2017-04-01 05:40,-118.9564,43.5950,M,M,M,270.00,9.00,M,30.18,M,10.00,M,CLR,M,M,M,M,M,M,M,M,KBNO 010540Z AUTO 27009KT 10SM CLR A3018 RMK MADISHF
BNO,2017-04-01 05:45,-118.9564,43.5950,M,M,M,270.00,10.00,M,30.18,M,10.00,M,CLR,M,M,M,M,M,M,M,M,KBNO 010545Z AUTO 27010KT 10SM CLR A3018 RMK MADISHF
BNO,2017-04-01 05:50,-118.9564,43.5950,M,M,M,270.00,9.00,M,30.18,M,10.00,M,CLR,M,M,M,M,M,M,M,M,KBNO 010550Z AUTO 27009KT 10SM CLR A3018 RMK MADISHF
BNO,2017-04-01 05:53,-118.9564,43.5950,37.00,28.00,69.63,270.00,8.00,0.00,30.18,1022.60,10.00,M,CLR,M,M,M,M,M,M,M,M,KBNO 010553Z AUTO 27008KT 10SM CLR 03/M02 A3018 RMK AO2 SLP226 T00281022 10117 20028 51010 $
BNO,2017-04-01 05:55,-118.9564,43.5950,M,M,M,270.00,8.00,M,30.18,M,10.00,M,CLR,M,M,M,M,M,M,M,M,KBNO 010555Z AUTO 27008KT 10SM CLR A3018 RMK MADISHF
BNO,2017-04-01 06:00,-118.9564,43.5950,M,M,M,280.00,8.00,M,30.18,M,10.00,M,CLR,M,M,M,M,M,M,M,M,KBNO 010600Z AUTO 28008KT 10SM CLR A3018 RMK MADISHF
BNO,2017-04-01 06:05,-118.9564,43.5950,M,M,M,270.00,7.00,M,30.18,M,10.00,M,CLR,M,M,M,M,M,M,M,M,KBNO 010605Z AUTO 27007KT 10SM CLR A3018 RMK MADISHF
BNO,2017-04-01 06:10,-118.9564,43.5950,M,M,M,270.00,8.00,M,30.18,M,10.00,M,CLR,M,M,M,M,M,M,M,M,KBNO 010610Z AUTO 27008KT 10SM CLR A3018 RMK MADISHF
BNO,2017-04-01 06:15,-118.9564,43.5950,M,M,M,270.00,8.00,M,30.19,M,10.00,M,CLR,M,M,M,M,M,M,M,M,KBNO 010615Z AUTO 27008KT 10SM CLR A3019 RMK MADISHF
BNO,2017-04-01 06:20,-118.9564,43.5950,M,M,M,260.00,5.00,M,30.18,M,10.00,M,CLR,M,M,M,M,M,M,M,M,KBNO 010620Z AUTO 26005KT 10SM CLR A3018 RMK MADISHF
BNO,2017-04-01 06:25,-118.9564,43.5950,M,M,M,260.00,7.00,M,30.18,M,10.00,M,CLR,M,M,M,M,M,M,M,M,KBNO 010625Z AUTO 26007KT 10SM CLR A3018 RMK MADISHF
BNO,2017-04-01 06:30,-118.9564,43.5950,M,M,M,250.00,8.00,M,30.18,M,10.00,M,CLR,M,M,M,M,M,M,M,M,KBNO 010630Z AUTO 25008KT 10SM CLR A3018 RMK MADISHF
BNO,2017-04-01 06:35,-118.9564,43.5950,M,M,M,260.00,8.00,M,30.18,M,10.00,M,CLR,M,M,M,M,M,M,M,M,KBNO 010635Z AUTO 26008KT 10SM CLR A3018 RMK MADISHF
BNO,2017-04-01 06:40,-118.9564,43.5950,M,M,M,260.00,9.00,M,30.18,M,10.00,M,CLR,M,M,M,M,M,M,M,M,KBNO 010640Z AUTO 26009KT 10SM CLR A3018 RMK MADISHF
BNO,2017-04-01 06:45,-118.9564,43.5950,M,M,M,260.00,9.00,M,30.18,M,10.00,M,CLR,M,M,M,M,M,M,M,M,KBNO 010645Z AUTO 26009KT 10SM CLR A3018 RMK MADISHF
BNO,2017-04-01 06:50,-118.9564,43.5950,M,M,M,270.00,8.00,M,30.18,M,10.00,M,CLR,M,M,M,M,M,M,M,M,KBNO 010650Z AUTO 27008KT 10SM CLR A3018 RMK MADISHF
BNO,2017-04-01 06:53,-118.9564,43.5950,36.00,28.00,72.43,270.00,8.00,0.00,30.18,1022.60,10.00,M,CLR,M,M,M,M,M,M,M,M,KBNO 010653Z AUTO 27008KT 10SM CLR 02/M02 A3018 RMK AO2 SLP226 T00221022 $
BNO,2017-04-01 06:55,-118.9564,43.5950,M,M,M,270.00,8.00,M,30.18,M,10.00,M,CLR,M,M,M,M,M,M,M,M,KBNO 010655Z AUTO 27008KT 10SM CLR A3018 RMK MADISHF
BNO,2017-04-01 07:00,-118.9564,43.5950,M,M,M,270.00,7.00,M,30.18,M,10.00,M,CLR,M,M,M,M,M,M,M,M,KBNO 010700Z AUTO 27007KT 10SM CLR A3018 RMK MADISHF
BNO,2017-04-01 07:05,-118.9564,43.5950,M,M,M,260.00,6.00,M,30.18,M,10.00,M,CLR,M,M,M,M,M,M,M,M,KBNO 010705Z AUTO 26006KT 10SM CLR A3018 RMK MADISHF
BNO,2017-04-01 07:10,-118.9564,43.5950,M,M,M,270.00,6.00,M,30.18,M,10.00,M,CLR,M,M,M,M,M,M,M,M,KBNO 010710Z AUTO 27006KT 10SM CLR A3018 RMK MADISHF
BNO,2017-04-01 07:15,-118.9564,43.5950,M,M,M,270.00,7.00,M,30.18,M,10.00,M,CLR,M,M,M,M,M,M,M,M,KBNO 010715Z AUTO 27007KT 10SM CLR A3018 RMK MADISHF
BNO,2017-04-01 07:20,-118.9564,43.5950,M,M,M,270.00,8.00,M,30.18,M,10.00,M,CLR,M,M,M,M,M,M,M,M,KBNO 010720Z AUTO 27008KT 10SM CLR A3018 RMK MADISHF
BNO,2017-04-01 07:25,-118.9564,43.5950,M,M,M,260.00,6.00,M,30.19,M,10.00,M,CLR,M,M,M,M,M,M,M,M,KBNO 010725Z AUTO 26006KT 10SM CLR A3019 RMK MADISHF
BNO,2017-04-01 07:30,-118.9564,43.5950,M,M,M,280.00,8.00,M,30.18,M,10.00,M,CLR,M,M,M,M,M,M,M,M,KBNO 010730Z AUTO 28008KT 10SM CLR A3018 RMK MADISHF
BNO,2017-04-01 07:35,-118.9564,43.5950,M,M,M,300.00,8.00,M,30.18,M,10.00,M,CLR,M,M,M,M,M,M,M,M,KBNO 010735Z AUTO 30008KT 10SM CLR A3018 RMK MADISHF
BNO,2017-04-01 07:40,-118.9564,43.5950,M,M,M,290.00,7.00,M,30.18,M,10.00,M,CLR,M,M,M,M,M,M,M,M,KBNO 010740Z AUTO 29007KT 10SM CLR A3018 RMK MADISHF
BNO,2017-04-01 07:45,-118.9564,43.5950,M,M,M,280.00,7.00,M,30.18,M,10.00,M,CLR,M,M,M,M,M,M,M,M,KBNO 010745Z AUTO 28007KT 10SM CLR A3018 RMK MADISHF
BNO,2017-04-01 07:50,-118.9564,43.5950,M,M,M,270.00,8.00,M,30.18,M,10.00,M,CLR,M,M,M,M,M,M,M,M,KBNO 010750Z AUTO 27008KT 10SM CLR A3018 RMK MADISHF
BNO,2017-04-01 07:53,-118.9564,43.5950,34.00,28.00,78.43,270.00,8.00,0.00,30.18,1022.70,10.00,M,CLR,M,M,M,M,M,M,M,M,KBNO 010753Z AUTO 27008KT 10SM CLR 01/M02 A3018 RMK AO2 SLP227 T00111022 401221006 $
BNO,2017-04-01 07:55,-118.9564,43.5950,M,M,M,270.00,9.00,M,M,M,10.00,M,CLR,M,M,M,M,M,M,M,M,KBNO 010755Z AUTO 27009KT 10SM CLR RMK MADISHF
BNO,2017-04-01 08:00,-118.9564,43.5950,M,M,M,280.00,8.00,M,30.19,M,10.00,M,CLR,M,M,M,M,M,M,M,M,KBNO 010800Z AUTO 28008KT 10SM CLR A3019 RMK MADISHF
BNO,2017-04-01 08:05,-118.9564,43.5950,M,M,M,270.00,8.00,M,30.19,M,10.00,M,CLR,M,M,M,M,M,M,M,M,KBNO 010805Z AUTO 27008KT 10SM CLR A3019 RMK MADISHF
BNO,2017-04-01 08:10,-118.9564,43.5950,M,M,M,270.00,8.00,M,30.19,M,10.00,M,CLR,M,M,M,M,M,M,M,M,KBNO 010810Z AUTO 27008KT 10SM CLR A3019 RMK MADISHF
BNO,2017-04-01 08:15,-118.9564,43.5950,M,M,M,280.00,9.00,M,30.19,M,10.00,M,CLR,M,M,M,M,M,M,M,M,KBNO 010815Z AUTO 28009KT 10SM CLR A3019 RMK MADISHF
BNO,2017-04-01 08:20,-118.9564,43.5950,M,M,M,260.00,8.00,M,30.19,M,10.00,M,CLR,M,M,M,M,M,M,M,M,KBNO 010820Z AUTO 26008KT 10SM CLR A3019 RMK MADISHF
BNO,2017-04-01 08:25,-118.9564,43.5950,M,M,M,270.00,7.00,M,30.19,M,10.00,M,CLR,M,M,M,M,M,M,M,M,KBNO 010825Z AUTO 27007KT 10SM CLR A3019 RMK MADISHF
BNO,2017-04-01 08:30,-118.9564,43.5950,M,M,M,300.00,7.00,M,30.19,M,10.00,M,CLR,M,M,M,M,M,M,M,M,KBNO 010830Z AUTO 30007KT 10SM CLR A3019 RMK MADISHF
BNO,2017-04-01 08:35,-118.9564,43.5950,M,M,M,310.00,6.00,M,30.19,M,10.00,M,CLR,M,M,M,M,M,M,M,M,KBNO 010835Z AUTO 31006KT 10SM CLR A3019 RMK MADISHF
BNO,2017-04-01 08:40,-118.9564,43.5950,M,M,M,330.00,5.00,M,30.19,M,10.00,M,CLR,M,M,M,M,M,M,M,M,KBNO 010840Z AUTO 33005KT 10SM CLR A3019 RMK MADISHF
BNO,2017-04-01 08:45,-118.9564,43.5950,M,M,M,320.00,4.00,M,30.19,M,10.00,M,CLR,M,M,M,M,M,M,M,M,KBNO 010845Z AUTO 32004KT 10SM CLR A3019 RMK MADISHF
BNO,2017-04-01 08:50,-118.9564,43.5950,M,M,M,300.00,4.00,M,30.19,M,10.00,M,CLR,M,M,M,M,M,M,M,M,KBNO 010850Z AUTO 30004KT 10SM CLR A3019 RMK MADISHF
BNO,2017-04-01 08:53,-118.9564,43.5950,32.00,26.10,78.58,300.00,5.00,0.00,30.19,1022.80,10.00,M,CLR,M,M,M,M,M,M,M,M,KBNO 010853Z AUTO 30005KT 10SM CLR 00/M03 A3019 RMK AO2 SLP228 T00001033 51002 $
BNO,2017-04-01 08:55,-118.9564,43.5950,M,M,M,290.00,6.00,M,30.19,M,10.00,M,CLR,M,M,M,M,M,M,M,M,KBNO 010855Z AUTO 29006KT 10SM CLR A3019 RMK MADISHF
BNO,2017-04-01 09:00,-118.9564,43.5950,M,M,M,280.00,7.00,M,30.19,M,10.00,M,CLR,M,M,M,M,M,M,M,M,KBNO 010900Z AUTO 28007KT 10SM CLR A3019 RMK MADISHF
BNO,2017-04-01 09:05,-118.9564,43.5950,M,M,M,270.00,6.00,M,30.19,M,10.00,M,CLR,M,M,M,M,M,M,M,M,KBNO 010905Z AUTO 27006KT 10SM CLR A3019 RMK MADISHF
BNO,2017-04-01 09:10,-118.9564,43.5950,M,M,M,280.00,6.00,M,30.19,M,10.00,M,CLR,M,M,M,M,M,M,M,M,KBNO 010910Z AUTO 28006KT 10SM CLR A3019 RMK MADISHF
BNO,2017-04-01 09:15,-118.9564,43.5950,M,M,M,270.00,6.00,M,30.19,M,10.00,M,CLR,M,M,M,M,M,M,M,M,KBNO 010915Z AUTO 27006KT 10SM CLR A3019 RMK MADISHF
BNO,2017-04-01 09:20,-118.9564,43.5950,M,M,M,250.00,7.00,M,30.19,M,10.00,M,CLR,M,M,M,M,M,M,M,M,KBNO 010920Z AUTO 25007KT 10SM CLR A3019 RMK MADISHF
BNO,2017-04-01 09:25,-118.9564,43.5950,M,M,M,250.00,8.00,M,30.19,M,10.00,M,CLR,M,M,M,M,M,M,M,M,KBNO 010925Z AUTO 25008KT 10SM CLR A3019 RMK MADISHF
BNO,2017-04-01 09:30,-118.9564,43.5950,M,M,M,250.00,7.00,M,30.19,M,10.00,M,CLR,M,M,M,M,M,M,M,M,KBNO 010930Z AUTO 25007KT 10SM CLR A3019 RMK MADISHF
BNO,2017-04-01 09:35,-118.9564,43.5950,M,M,M,250.00,7.00,M,30.19,M,10.00,M,CLR,M,M,M,M,M,M,M,M,KBNO 010935Z AUTO 25007KT 10SM CLR A3019 RMK MADISHF
BNO,2017-04-01 09:40,-118.9564,43.5950,M,M,M,250.00,8.00,M,30.19,M,10.00,M,CLR,M,M,M,M,M,M,M,M,KBNO 010940Z AUTO 25008KT 10SM CLR A3019 RMK MADISHF
BNO,2017-04-01 09:45,-118.9564,43.5950,M,M,M,260.00,8.00,M,30.19,M,10.00,M,CLR,M,M,M,M,M,M,M,M,KBNO 010945Z AUTO 26008KT 10SM CLR A3019 RMK MADISHF
BNO,2017-04-01 09:50,-118.9564,43.5950,M,M,M,250.00,7.00,M,30.19,M,10.00,M,CLR,M,M,M,M,M,M,M,M,KBNO 010950Z AUTO 25007KT 10SM CLR A3019 RMK MADISHF
BNO,2017-04-01 09:53,-118.9564,43.5950,32.00,27.00,81.55,260.00,7.00,0.00,30.19,1022.70,10.00,M,CLR,M,M,M,M,M,M,M,M,KBNO 010953Z AUTO 26007KT 10SM CLR 00/M03 A3019 RMK AO2 SLP227 T00001028 $
BNO,2017-04-01 09:55,-118.9564,43.5950,M,M,M,250.00,7.00,M,30.19,M,10.00,M,CLR,M,M,M,M,M,M,M,M,KBNO 010955Z AUTO 25007KT 10SM CLR A3019 RMK MADISHF
BNO,2017-04-01 10:00,-118.9564,43.5950,M,M,M,240.00,8.00,M,30.19,M,10.00,M,CLR,M,M,M,M,M,M,M,M,KBNO 011000Z AUTO 24008KT 10SM CLR A3019 RMK MADISHF
BNO,2017-04-01 10:05,-118.9564,43.5950,M,M,M,240.00,8.00,M,30.19,M,10.00,M,CLR,M,M,M,M,M,M,M,M,KBNO 011005Z AUTO 24008KT 10SM CLR A3019 RMK MADISHF
BNO,2017-04-01 10:10,-118.9564,43.5950,M,M,M,250.00,7.00,M,30.19,M,10.00,M,CLR,M,M,M,M,M,M,M,M,KBNO 011010Z AUTO 25007KT 10SM CLR A3019 RMK MADISHF
BNO,2017-04-01 10:15,-118.9564,43.5950,M,M,M,250.00,5.00,M,30.19,M,10.00,M,CLR,M,M,M,M,M,M,M,M,KBNO 011015Z AUTO 25005KT 10SM CLR A3019 RMK MADISHF
BNO,2017-04-01 10:20,-118.9564,43.5950,M,M,M,260.00,8.00,M,30.19,M,10.00,M,CLR,M,M,M,M,M,M,M,M,KBNO 011020Z AUTO 26008KT 10SM CLR A3019 RMK MADISHF
BNO,2017-04-01 10:25,-118.9564,43.5950,M,M,M,260.00,7.00,M,30.19,M,10.00,M,CLR,M,M,M,M,M,M,M,M,KBNO 011025Z AUTO 26007KT 10SM CLR A3019 RMK MADISHF
BNO,2017-04-01 10:30,-118.9564,43.5950,M,M,M,260.00,5.00,M,30.19,M,10.00,M,CLR,M,M,M,M,M,M,M,M,KBNO 011030Z AUTO 26005KT 10SM CLR A3019 RMK MADISHF
BNO,2017-04-01 10:35,-118.9564,43.5950,M,M,M,250.00,5.00,M,30.19,M,10.00,M,CLR,M,M,M,M,M,M,M,M,KBNO 011035Z AUTO 25005KT 10SM CLR A3019 RMK MADISHF
BNO,2017-04-01 10:40,-118.9564,43.5950,M,M,M,240.00,5.00,M,30.19,M,10.00,M,CLR,M,M,M,M,M,M,M,M,KBNO 011040Z AUTO 24005KT 10SM CLR A3019 RMK MADISHF
BNO,2017-04-01 10:45,-118.9564,43.5950,M,M,M,260.00,5.00,M,30.19,M,10.00,M,CLR,M,M,M,M,M,M,M,M,KBNO 011045Z AUTO 26005KT 10SM CLR A3019 RMK MADISHF
BNO,2017-04-01 10:50,-118.9564,43.5950,M,M,M,280.00,5.00,M,30.19,M,10.00,M,CLR,M,M,M,M,M,M,M,M,KBNO 011050Z AUTO 28005KT 10SM CLR A3019 RMK MADISHF
BNO,2017-04-01 10:53,-118.9564,43.5950,32.00,26.10,78.58,290.00,5.00,0.00,30.18,1022.50,10.00,M,CLR,M,M,M,M,M,M,M,M,KBNO 011053Z AUTO 29005KT 10SM CLR 00/M03 A3018 RMK AO2 SLP225 T00001033 $
BNO,2017-04-01 10:55,-118.9564,43.5950,M,M,M,300.00,5.00,M,30.18,M,10.00,M,CLR,M,M,M,M,M,M,M,M,KBNO 011055Z AUTO 30005KT 10SM CLR A3018 RMK MADISHF
BNO,2017-04-01 11:00,-118.9564,43.5950,M,M,M,300.00,7.00,M,30.18,M,10.00,M,CLR,M,M,M,M,M,M,M,M,KBNO 011100Z AUTO 30007KT 10SM CLR A3018 RMK MADISHF
BNO,2017-04-01 11:05,-118.9564,43.5950,M,M,M,300.00,6.00,M,30.18,M,10.00,M,CLR,M,M,M,M,M,M,M,M,KBNO 011105Z AUTO 30006KT 10SM CLR A3018 RMK MADISHF
BNO,2017-04-01 11:10,-118.9564,43.5950,M,M,M,330.00,3.00,M,30.18,M,10.00,M,CLR,M,M,M,M,M,M,M,M,KBNO 011110Z AUTO 33003KT 10SM CLR A3018 RMK MADISHF
BNO,2017-04-01 11:15,-118.9564,43.5950,M,M,M,0.00,0.00,M,30.18,M,10.00,M,CLR,M,M,M,M,M,M,M,M,KBNO 011115Z AUTO 00000KT 10SM CLR A3018 RMK MADISHF
BNO,2017-04-01 11:20,-118.9564,43.5950,M,M,M,10.00,3.00,M,30.18,M,10.00,M,CLR,M,M,M,M,M,M,M,M,KBNO 011120Z AUTO 01003KT 10SM CLR A3018 RMK MADISHF
BNO,2017-04-01 11:25,-118.9564,43.5950,M,M,M,0.00,0.00,M,30.19,M,10.00,M,CLR,M,M,M,M,M,M,M,M,KBNO 011125Z AUTO 00000KT 10SM CLR A3019 RMK MADISHF
BNO,2017-04-01 11:30,-118.9564,43.5950,M,M,M,0.00,0.00,M,30.18,M,10.00,M,CLR,M,M,M,M,M,M,M,M,KBNO 011130Z AUTO 00000KT 10SM CLR A3018 RMK MADISHF
BNO,2017-04-01 11:35,-118.9564,43.5950,M,M,M,70.00,3.00,M,30.17,M,10.00,M,CLR,M,M,M,M,M,M,M,M,KBNO 011135Z AUTO 07003KT 10SM CLR A3017 RMK MADISHF
BNO,2017-04-01 11:40,-118.9564,43.5950,M,M,M,0.00,0.00,M,30.17,M,10.00,M,CLR,M,M,M,M,M,M,M,M,KBNO 011140Z AUTO 00000KT 10SM CLR A3017 RMK MADISHF
BNO,2017-04-01 11:45,-118.9564,43.5950,M,M,M,0.00,0.00,M,30.18,M,10.00,M,CLR,M,M,M,M,M,M,M,M,KBNO 011145Z AUTO 00000KT 10SM CLR A3018 RMK MADISHF
BNO,2017-04-01 11:50,-118.9564,43.5950,M,M,M,0.00,0.00,M,30.17,M,10.00,M,CLR,M,M,M,M,M,M,M,M,KBNO 011150Z AUTO 00000KT 10SM CLR A3017 RMK MADISHF
BNO,2017-04-01 11:53,-118.9564,43.5950,30.00,25.00,81.40,0.00,0.00,0.00,30.17,1022.40,10.00,M,CLR,M,M,M,M,M,M,M,M,KBNO 011153Z AUTO 00000KT 10SM CLR M01/M04 A3017 RMK AO2 SLP224 T10111039 10028 21017 58004 $
BNO,2017-04-01 11:55,-118.9564,43.5950,M,M,M,0.00,0.00,M,30.17,M,10.00,M,CLR,M,M,M,M,M,M,M,M,KBNO 011155Z AUTO 00000KT 10SM CLR A3017 RMK MADISHF
BNO,2017-04-01 12:00,-118.9564,43.5950,M,M,M,360.00,3.00,M,30.18,M,10.00,M,CLR,M,M,M,M,M,M,M,M,KBNO 011200Z AUTO 36003KT 10SM CLR A3018 RMK MADISHF
BNO,2017-04-01 12:05,-118.9564,43.5950,M,M,M,340.00,5.00,M,30.18,M,10.00,M,CLR,M,M,M,M,M,M,M,M,KBNO 011205Z AUTO 34005KT 10SM CLR A3018 RMK MADISHF
BNO,2017-04-01 12:10,-118.9564,43.5950,M,M,M,340.00,6.00,M,30.18,M,10.00,M,CLR,M,M,M,M,M,M,M,M,KBNO 011210Z AUTO 34006KT 10SM CLR A3018 RMK MADISHF
BNO,2017-04-01 12:15,-118.9564,43.5950,M,M,M,360.00,5.00,M,30.18,M,10.00,M,CLR,M,M,M,M,M,M,M,M,KBNO 011215Z AUTO 36005KT 10SM CLR A3018 RMK MADISHF
BNO,2017-04-01 12:20,-118.9564,43.5950,M,M,M,20.00,3.00,M,30.19,M,10.00,M,CLR,M,M,M,M,M,M,M,M,KBNO 011220Z AUTO 02003KT 10SM CLR A3019 RMK MADISHF
BNO,2017-04-01 12:25,-118.9564,43.5950,M,M,M,40.00,3.00,M,30.19,M,10.00,M,CLR,M,M,M,M,M,M,M,M,KBNO 011225Z AUTO 04003KT 10SM CLR A3019 RMK MADISHF
BNO,2017-04-01 12:30,-118.9564,43.5950,M,M,M,20.00,3.00,M,30.19,M,10.00,M,CLR,M,M,M,M,M,M,M,M,KBNO 011230Z AUTO 02003KT 10SM CLR A3019 RMK MADISHF
BNO,2017-04-01 12:35,-118.9564,43.5950,M,M,M,360.00,3.00,M,30.19,M,10.00,M,CLR,M,M,M,M,M,M,M,M,KBNO 011235Z AUTO 36003KT 10SM CLR A3019 RMK MADISHF
BNO,2017-04-01 12:40,-118.9564,43.5950,M,M,M,20.00,3.00,M,30.19,M,10.00,M,CLR,M,M,M,M,M,M,M,M,KBNO 011240Z AUTO 02003KT 10SM CLR A3019 RMK MADISHF
BNO,2017-04-01 12:45,-118.9564,43.5950,M,M,M,0.00,0.00,M,30.19,M,10.00,M,CLR,M,M,M,M,M,M,M,M,KBNO 011245Z AUTO 00000KT 10SM CLR A3019 RMK MADISHF
BNO,2017-04-01 12:50,-118.9564,43.5950,M,M,M,20.00,3.00,M,30.19,M,10.00,M,CLR,M,M,M,M,M,M,M,M,KBNO 011250Z AUTO 02003KT 10SM CLR A3019 RMK MADISHF
BNO,2017-04-01 12:53,-118.9564,43.5950,28.90,27.00,92.49,0.00,0.00,0.00,30.19,1023.10,10.00,M,CLR,M,M,M,M,M,M,M,M,KBNO 011253Z AUTO 00000KT 10SM CLR M02/M03 A3019 RMK AO2 SLP231 T10171028 $
BNO,2017-04-01 12:55,-118.9564,43.5950,M,M,M,0.00,0.00,M,30.19,M,10.00,M,CLR,M,M,M,M,M,M,M,M,KBNO 011255Z AUTO 00000KT 10SM CLR A3019 RMK MADISHF
BNO,2017-04-01 13:00,-118.9564,43.5950,M,M,M,0.00,0.00,M,30.20,M,10.00,M,CLR,M,M,M,M,M,M,M,M,KBNO 011300Z AUTO 00000KT 10SM CLR A3020 RMK MADISHF
BNO,2017-04-01 13:05,-118.9564,43.5950,M,M,M,0.00,0.00,M,30.20,M,10.00,M,CLR,M,M,M,M,M,M,M,M,KBNO 011305Z AUTO 00000KT 10SM CLR A3020 RMK MADISHF
BNO,2017-04-01 13:10,-118.9564,43.5950,M,M,M,0.00,0.00,M,30.19,M,10.00,M,CLR,M,M,M,M,M,M,M,M,KBNO 011310Z AUTO 00000KT 10SM CLR A3019 RMK MADISHF
BNO,2017-04-01 13:15,-118.9564,43.5950,M,M,M,70.00,3.00,M,30.19,M,10.00,M,CLR,M,M,M,M,M,M,M,M,KBNO 011315Z AUTO 07003KT 10SM CLR A3019 RMK MADISHF
BNO,2017-04-01 13:20,-118.9564,43.5950,M,M,M,60.00,3.00,M,30.19,M,10.00,M,CLR,M,M,M,M,M,M,M,M,KBNO 011320Z AUTO 06003KT 10SM CLR A3019 RMK MADISHF
BNO,2017-04-01 13:25,-118.9564,43.5950,M,M,M,60.00,4.00,M,30.19,M,10.00,M,CLR,M,M,M,M,M,M,M,M,KBNO 011325Z AUTO 06004KT 10SM CLR A3019 RMK MADISHF
BNO,2017-04-01 13:30,-118.9564,43.5950,M,M,M,50.00,4.00,M,30.19,M,10.00,M,CLR,M,M,M,M,M,M,M,M,KBNO 011330Z AUTO 05004KT 10SM CLR A3019 RMK MADISHF
BNO,2017-04-01 13:35,-118.9564,43.5950,M,M,M,30.00,3.00,M,30.19,M,10.00,M,CLR,M,M,M,M,M,M,M,M,KBNO 011335Z AUTO 03003KT 10SM CLR A3019 RMK MADISHF
BNO,2017-04-01 13:40,-118.9564,43.5950,M,M,M,10.00,3.00,M,30.20,M,10.00,M,CLR,M,M,M,M,M,M,M,M,KBNO 011340Z AUTO 01003KT 10SM CLR A3020 RMK MADISHF
BNO,2017-04-01 13:45,-118.9564,43.5950,M,M,M,350.00,4.00,M,30.20,M,10.00,M,CLR,M,M,M,M,M,M,M,M,KBNO 011345Z AUTO 35004KT 10SM CLR A3020 RMK MADISHF
BNO,2017-04-01 13:50,-118.9564,43.5950,M,M,M,340.00,4.00,M,30.20,M,10.00,M,CLR,M,M,M,M,M,M,M,M,KBNO 011350Z AUTO 34004KT 10SM CLR A3020 RMK MADISHF
BNO,2017-04-01 13:53,-118.9564,43.5950,28.00,26.10,92.46,340.00,5.00,0.00,30.20,1023.80,10.00,M,CLR,M,M,M,M,M,M,M,M,KBNO 011353Z AUTO 34005KT 10SM CLR M02/M03 A3020 RMK AO2 SLP238 T10221033 $
BNO,2017-04-01 13:55,-118.9564,43.5950,M,M,M,320.00,4.00,M,30.20,M,10.00,M,CLR,M,M,M,M,M,M,M,M,KBNO 011355Z AUTO 32004KT 10SM CLR A3020 RMK MADISHF
BNO,2017-04-01 14:00,-118.9564,43.5950,M,M,M,0.00,0.00,M,30.20,M,10.00,M,CLR,M,M,M,M,M,M,M,M,KBNO 011400Z AUTO 00000KT 10SM CLR A3020 RMK MADISHF
BNO,2017-04-01 14:05,-118.9564,43.5950,M,M,M,320.00,4.00,M,30.21,M,10.00,M,CLR,M,M,M,M,M,M,M,M,KBNO 011405Z AUTO 32004KT 10SM CLR A3021 RMK MADISHF
BNO,2017-04-01 14:10,-118.9564,43.5950,M,M,M,330.00,6.00,M,30.21,M,10.00,M,CLR,M,M,M,M,M,M,M,M,KBNO 011410Z AUTO 33006KT 10SM CLR A3021 RMK MADISHF
BNO,2017-04-01 14:15,-118.9564,43.5950,M,M,M,340.00,5.00,M,30.22,M,10.00,M,CLR,M,M,M,M,M,M,M,M,KBNO 011415Z AUTO 34005KT 10SM CLR A3022 RMK MADISHF
BNO,2017-04-01 14:20,-118.9564,43.5950,M,M,M,340.00,3.00,M,30.22,M,10.00,M,CLR,M,M,M,M,M,M,M,M,KBNO 011420Z AUTO 34003KT 10SM CLR A3022 RMK MADISHF
BNO,2017-04-01 14:25,-118.9564,43.5950,M,M,M,0.00,0.00,M,30.21,M,10.00,M,CLR,M,M,M,M,M,M,M,M,KBNO 011425Z AUTO 00000KT 10SM CLR A3021 RMK MADISHF
BNO,2017-04-01 14:30,-118.9564,43.5950,M,M,M,70.00,3.00,M,30.21,M,10.00,M,CLR,M,M,M,M,M,M,M,M,KBNO 011430Z AUTO 07003KT 10SM CLR A3021 RMK MADISHF
BNO,2017-04-01 14:35,-118.9564,43.5950,M,M,M,0.00,0.00,M,30.21,M,10.00,M,CLR,M,M,M,M,M,M,M,M,KBNO 011435Z AUTO 00000KT 10SM CLR A3021 RMK MADISHF
BNO,2017-04-01 14:40,-118.9564,43.5950,M,M,M,0.00,0.00,M,30.21,M,10.00,M,CLR,M,M,M,M,M,M,M,M,KBNO 011440Z AUTO 00000KT 10SM CLR A3021 RMK MADISHF
BNO,2017-04-01 14:45,-118.9564,43.5950,M,M,M,0.00,0.00,M,30.21,M,10.00,M,CLR,M,M,M,M,M,M,M,M,KBNO 011445Z AUTO 00000KT 10SM CLR A3021 RMK MADISHF
BNO,2017-04-01 14:50,-118.9564,43.5950,M,M,M,0.00,0.00,M,30.21,M,10.00,M,CLR,M,M,M,M,M,M,M,M,KBNO 011450Z AUTO 00000KT 10SM CLR A3021 RMK MADISHF
BNO,2017-04-01 14:53,-118.9564,43.5950,33.10,30.00,88.23,0.00,0.00,0.00,30.21,1024.30,10.00,M,CLR,M,M,M,M,M,M,M,M,KBNO 011453Z AUTO 00000KT 10SM CLR 01/M01 A3021 RMK AO2 SLP243 T00061011 51013 $
BNO,2017-04-01 14:55,-118.9564,43.5950,M,M,M,0.00,0.00,M,30.21,M,10.00,M,CLR,M,M,M,M,M,M,M,M,KBNO 011455Z AUTO 00000KT 10SM CLR A3021 RMK MADISHF
BNO,2017-04-01 15:00,-118.9564,43.5950,M,M,M,0.00,0.00,M,30.21,M,10.00,M,CLR,M,M,M,M,M,M,M,M,KBNO 011500Z AUTO 00000KT 10SM CLR A3021 RMK MADISHF
BNO,2017-04-01 15:05,-118.9564,43.5950,M,M,M,0.00,0.00,M,30.21,M,10.00,M,CLR,M,M,M,M,M,M,M,M,KBNO 011505Z AUTO 00000KT 10SM CLR A3021 RMK MADISHF
BNO,2017-04-01 15:10,-118.9564,43.5950,M,M,M,120.00,3.00,M,30.21,M,10.00,M,CLR,M,M,M,M,M,M,M,M,KBNO 011510Z AUTO 12003KT 10SM CLR A3021 RMK MADISHF
BNO,2017-04-01 15:15,-118.9564,43.5950,M,M,M,100.00,3.00,M,30.21,M,10.00,M,CLR,M,M,M,M,M,M,M,M,KBNO 011515Z AUTO 10003KT 10SM CLR A3021 RMK MADISHF
BNO,2017-04-01 15:20,-118.9564,43.5950,M,M,M,80.00,3.00,M,30.22,M,10.00,M,CLR,M,M,M,M,M,M,M,M,KBNO 011520Z AUTO 08003KT 10SM CLR A3022 RMK MADISHF
BNO,2017-04-01 15:25,-118.9564,43.5950,M,M,M,90.00,3.00,M,30.22,M,10.00,M,CLR,M,M,M,M,M,M,M,M,KBNO 011525Z AUTO 09003KT 10SM CLR A3022 RMK MADISHF
BNO,2017-04-01 15:30,-118.9564,43.5950,M,M,M,90.00,5.00,M,30.21,M,10.00,M,CLR,M,M,M,M,M,M,M,M,KBNO 011530Z AUTO 09005KT 10SM CLR A3021 RMK MADISHF
BNO,2017-04-01 15:35,-118.9564,43.5950,M,M,M,80.00,5.00,M,30.21,M,10.00,M,CLR,M,M,M,M,M,M,M,M,KBNO 011535Z AUTO 08005KT 10SM CLR A3021 RMK MADISHF
BNO,2017-04-01 15:40,-118.9564,43.5950,M,M,M,90.00,4.00,M,30.21,M,10.00,M,CLR,M,M,M,M,M,M,M,M,KBNO 011540Z AUTO 09004KT 10SM CLR A3021 RMK MADISHF
BNO,2017-04-01 15:45,-118.9564,43.5950,M,M,M,90.00,4.00,M,30.21,M,10.00,M,CLR,M,M,M,M,M,M,M,M,KBNO 011545Z AUTO 09004KT 10SM CLR A3021 RMK MADISHF
BNO,2017-04-01 15:50,-118.9564,43.5950,M,M,M,80.00,4.00,M,30.21,M,10.00,M,CLR,M,M,M,M,M,M,M,M,KBNO 011550Z AUTO 08004KT 10SM CLR A3021 RMK MADISHF
BNO,2017-04-01 15:53,-118.9564,43.5950,37.00,30.90,78.37,M,5.00,0.00,30.21,1023.90,10.00,M,CLR,M,M,M,M,M,M,M,M,KBNO 011553Z AUTO VRB05KT 10SM CLR 03/M01 A3021 RMK AO2 SLP239 T00281006 $
BNO,2017-04-01 15:55,-118.9564,43.5950,M,M,M,90.00,4.00,M,30.21,M,10.00,M,CLR,M,M,M,M,M,M,M,M,KBNO 011555Z AUTO 09004KT 10SM CLR A3021 RMK MADISHF
BNO,2017-04-01 16:00,-118.9564,43.5950,M,M,M,90.00,3.00,M,30.21,M,10.00,M,CLR,M,M,M,M,M,M,M,M,KBNO 011600Z AUTO 09003KT 10SM CLR A3021 RMK MADISHF
BNO,2017-04-01 16:05,-118.9564,43.5950,M,M,M,60.00,3.00,M,30.21,M,10.00,M,CLR,M,M,M,M,M,M,M,M,KBNO 011605Z AUTO 06003KT 10SM CLR A3021 RMK MADISHF
BNO,2017-04-01 16:10,-118.9564,43.5950,M,M,M,0.00,0.00,M,30.21,M,10.00,M,CLR,M,M,M,M,M,M,M,M,KBNO 011610Z AUTO 00000KT 10SM CLR A3021 RMK MADISHF
BNO,2017-04-01 16:15,-118.9564,43.5950,M,M,M,40.00,3.00,M,30.21,M,10.00,M,CLR,M,M,M,M,M,M,M,M,KBNO 011615Z AUTO 04003KT 10SM CLR A3021 RMK MADISHF
BNO,2017-04-01 16:20,-118.9564,43.5950,M,M,M,80.00,3.00,M,30.21,M,10.00,M,CLR,M,M,M,M,M,M,M,M,KBNO 011620Z AUTO 08003KT 10SM CLR A3021 RMK MADISHF
BNO,2017-04-01 16:25,-118.9564,43.5950,M,M,M,0.00,0.00,M,30.21,M,10.00,M,CLR,M,M,M,M,M,M,M,M,KBNO 011625Z AUTO 00000KT 10SM CLR A3021 RMK MADISHF
BNO,2017-04-01 16:30,-118.9564,43.5950,M,M,M,50.00,3.00,M,30.21,M,10.00,M,CLR,M,M,M,M,M,M,M,M,KBNO 011630Z AUTO 05003KT 10SM CLR A3021 RMK VRB03KT  MADISHF
BNO,2017-04-01 16:35,-118.9564,43.5950,M,M,M,0.00,0.00,M,30.21,M,10.00,M,CLR,M,M,M,M,M,M,M,M,KBNO 011635Z AUTO 00000KT 10SM CLR A3021 RMK MADISHF
BNO,2017-04-01 16:40,-118.9564,43.5950,M,M,M,60.00,3.00,M,30.21,M,10.00,M,CLR,M,M,M,M,M,M,M,M,KBNO 011640Z AUTO 06003KT 10SM CLR A3021 RMK VRB03KT  MADISHF
BNO,2017-04-01 16:45,-118.9564,43.5950,M,M,M,90.00,3.00,M,30.21,M,10.00,M,CLR,M,M,M,M,M,M,M,M,KBNO 011645Z AUTO 09003KT 10SM CLR A3021 RMK MADISHF
BNO,2017-04-01 16:50,-118.9564,43.5950,M,M,M,0.00,0.00,M,30.21,M,10.00,M,CLR,M,M,M,M,M,M,M,M,KBNO 011650Z AUTO 00000KT 10SM CLR A3021 RMK MADISHF
BNO,2017-04-01 16:53,-118.9564,43.5950,42.10,30.90,64.24,0.00,0.00,0.00,30.21,1023.80,10.00,M,CLR,M,M,M,M,M,M,M,M,KBNO 011653Z AUTO 00000KT 10SM CLR 06/M01 A3021 RMK AO2 SLP238 T00561006 $
BNO,2017-04-01 16:55,-118.9564,43.5950,M,M,M,0.00,0.00,M,30.21,M,10.00,M,CLR,M,M,M,M,M,M,M,M,KBNO 011655Z AUTO 00000KT 10SM CLR A3021 RMK MADISHF
BNO,2017-04-01 17:00,-118.9564,43.5950,M,M,M,170.00,3.00,M,30.21,M,10.00,M,CLR,M,M,M,M,M,M,M,M,KBNO 011700Z AUTO 17003KT 10SM CLR A3021 RMK VRB03KT  MADISHF
BNO,2017-04-01 17:05,-118.9564,43.5950,M,M,M,150.00,3.00,M,30.22,M,10.00,M,CLR,M,M,M,M,M,M,M,M,KBNO 011705Z AUTO 15003KT 10SM CLR A3022 RMK MADISHF
BNO,2017-04-01 17:10,-118.9564,43.5950,M,M,M,0.00,0.00,M,30.22,M,10.00,M,CLR,M,M,M,M,M,M,M,M,KBNO 011710Z AUTO 00000KT 10SM CLR A3022 RMK MADISHF
BNO,2017-04-01 17:15,-118.9564,43.5950,M,M,M,90.00,3.00,M,30.21,M,10.00,M,CLR,M,M,M,M,M,M,M,M,KBNO 011715Z AUTO 09003KT 10SM CLR A3021 RMK VRB03KT  MADISHF
BNO,2017-04-01 17:20,-118.9564,43.5950,M,M,M,0.00,0.00,M,30.21,M,10.00,M,CLR,M,M,M,M,M,M,M,M,KBNO 011720Z AUTO 00000KT 10SM CLR A3021 RMK MADISHF
BNO,2017-04-01 17:25,-118.9564,43.5950,M,M,M,100.00,3.00,M,30.21,M,10.00,M,CLR,M,M,M,M,M,M,M,M,KBNO 011725Z AUTO 10003KT 10SM CLR A3021 RMK MADISHF
BNO,2017-04-01 17:30,-118.9564,43.5950,M,M,M,170.00,3.00,M,30.21,M,10.00,M,CLR,M,M,M,M,M,M,M,M,KBNO 011730Z AUTO 17003KT 10SM CLR A3021 RMK VRB03KT  MADISHF
BNO,2017-04-01 17:35,-118.9564,43.5950,M,M,M,0.00,0.00,M,30.21,M,10.00,M,CLR,M,M,M,M,M,M,M,M,KBNO 011735Z AUTO 00000KT 10SM CLR A3021 RMK MADISHF
BNO,2017-04-01 17:40,-118.9564,43.5950,M,M,M,180.00,3.00,M,30.21,M,10.00,M,CLR,M,M,M,M,M,M,M,M,KBNO 011740Z AUTO 18003KT 10SM CLR A3021 RMK MADISHF
BNO,2017-04-01 17:45,-118.9564,43.5950,M,M,M,120.00,3.00,M,30.21,M,10.00,M,CLR,M,M,M,M,M,M,M,M,KBNO 011745Z AUTO 12003KT 10SM CLR A3021 RMK MADISHF
BNO,2017-04-01 17:50,-118.9564,43.5950,M,M,M,0.00,0.00,M,30.21,M,10.00,M,CLR,M,M,M,M,M,M,M,M,KBNO 011750Z AUTO 00000KT 10SM CLR A3021 RMK MADISHF
BNO,2017-04-01 17:53,-118.9564,43.5950,46.90,23.00,38.62,0.00,0.00,0.00,30.21,1023.50,10.00,M,CLR,M,M,M,M,M,M,M,M,KBNO 011753Z AUTO 00000KT 10SM CLR 08/M05 A3021 RMK AO2 SLP235 T00831050 10083 21028 56002 $
BNO,2017-04-01 17:55,-118.9564,43.5950,M,M,M,0.00,0.00,M,30.21,M,10.00,M,CLR,M,M,M,M,M,M,M,M,KBNO 011755Z AUTO 00000KT 10SM CLR A3021 RMK MADISHF
BNO,2017-04-01 18:00,-118.9564,43.5950,M,M,M,160.00,4.00,M,30.20,M,10.00,M,CLR,M,M,M,M,M,M,M,M,KBNO 011800Z AUTO 16004KT 10SM CLR A3020 RMK VRB04KT  MADISHF
BNO,2017-04-01 18:05,-118.9564,43.5950,M,M,M,160.00,3.00,M,30.20,M,10.00,M,CLR,M,M,M,M,M,M,M,M,KBNO 011805Z AUTO 16003KT 10SM CLR A3020 RMK VRB03KT  MADISHF
BNO,2017-04-01 18:10,-118.9564,43.5950,M,M,M,0.00,0.00,M,30.20,M,10.00,M,CLR,M,M,M,M,M,M,M,M,KBNO 011810Z AUTO 00000KT 10SM CLR A3020 RMK MADISHF
BNO,2017-04-01 18:15,-118.9564,43.5950,M,M,M,180.00,3.00,M,30.20,M,10.00,M,CLR,M,M,M,M,M,M,M,M,KBNO 011815Z AUTO 18003KT 10SM CLR A3020 RMK MADISHF
BNO,2017-04-01 18:20,-118.9564,43.5950,M,M,M,200.00,4.00,M,30.19,M,10.00,M,CLR,M,M,M,M,M,M,M,M,KBNO 011820Z AUTO 20004KT 10SM CLR A3019 RMK VRB04KT  MADISHF
BNO,2017-04-01 18:25,-118.9564,43.5950,M,M,M,210.00,4.00,M,30.19,M,10.00,M,CLR,M,M,M,M,M,M,M,M,KBNO 011825Z AUTO 21004KT 10SM CLR A3019 RMK MADISHF
BNO,2017-04-01 18:30,-118.9564,43.5950,M,M,M,190.00,4.00,M,30.19,M,10.00,M,CLR,M,M,M,M,M,M,M,M,KBNO 011830Z AUTO 19004KT 10SM CLR A3019 RMK VRB04KT  MADISHF
BNO,2017-04-01 18:35,-118.9564,43.5950,M,M,M,180.00,4.00,M,30.18,M,10.00,M,CLR,M,M,M,M,M,M,M,M,KBNO 011835Z AUTO 18004KT 10SM CLR A3018 RMK VRB04KT  MADISHF
BNO,2017-04-01 18:40,-118.9564,43.5950,M,M,M,180.00,5.00,M,30.18,M,10.00,M,CLR,M,M,M,M,M,M,M,M,KBNO 011840Z AUTO 18005KT 10SM CLR A3018 RMK MADISHF
BNO,2017-04-01 18:45,-118.9564,43.5950,M,M,M,170.00,6.00,M,30.18,M,10.00,M,CLR,M,M,M,M,M,M,M,M,KBNO 011845Z AUTO 17006KT 10SM CLR A3018 RMK MADISHF
BNO,2017-04-01 18:50,-118.9564,43.5950,M,M,M,190.00,7.00,M,30.19,M,10.00,M,CLR,M,M,M,M,M,M,M,M,KBNO 011850Z AUTO 19007KT 10SM CLR A3019 RMK MADISHF
BNO,2017-04-01 18:53,-118.9564,43.5950,51.10,32.00,47.81,M,6.00,0.00,30.18,1022.40,10.00,M,CLR,M,M,M,M,M,M,M,M,KBNO 011853Z AUTO VRB06KT 10SM CLR 11/00 A3018 RMK AO2 SLP224 T01060000 $
BNO,2017-04-01 18:55,-118.9564,43.5950,M,M,M,170.00,5.00,M,30.18,M,10.00,M,CLR,M,M,M,M,M,M,M,M,KBNO 011855Z AUTO 17005KT 10SM CLR A3018 RMK MADISHF
BNO,2017-04-01 19:00,-118.9564,43.5950,M,M,M,160.00,7.00,M,30.18,M,10.00,M,CLR,M,M,M,M,M,M,M,M,KBNO 011900Z AUTO 16007KT 10SM CLR A3018 RMK MADISHF
BNO,2017-04-01 19:05,-118.9564,43.5950,M,M,M,160.00,6.00,M,30.18,M,10.00,M,CLR,M,M,M,M,M,M,M,M,KBNO 011905Z AUTO 16006KT 10SM CLR A3018 RMK MADISHF
BNO,2017-04-01 19:10,-118.9564,43.5950,M,M,M,160.00,6.00,M,30.18,M,10.00,M,CLR,M,M,M,M,M,M,M,M,KBNO 011910Z AUTO 16006KT 10SM CLR A3018 RMK MADISHF
BNO,2017-04-01 19:15,-118.9564,43.5950,M,M,M,150.00,7.00,M,30.17,M,10.00,M,CLR,M,M,M,M,M,M,M,M,KBNO 011915Z AUTO 15007KT 10SM CLR A3017 RMK MADISHF
BNO,2017-04-01 19:20,-118.9564,43.5950,M,M,M,200.00,5.00,M,30.17,M,10.00,M,CLR,M,M,M,M,M,M,M,M,KBNO 011920Z AUTO 20005KT 10SM CLR A3017 RMK MADISHF
BNO,2017-04-01 19:25,-118.9564,43.5950,M,M,M,150.00,5.00,M,30.17,M,10.00,M,CLR,M,M,M,M,M,M,M,M,KBNO 011925Z AUTO 15005KT 10SM CLR A3017 RMK MADISHF
BNO,2017-04-01 19:30,-118.9564,43.5950,M,M,M,160.00,8.00,M,30.17,M,10.00,M,CLR,M,M,M,M,M,M,M,M,KBNO 011930Z AUTO 16008KT 10SM CLR A3017 RMK MADISHF
BNO,2017-04-01 19:35,-118.9564,43.5950,M,M,M,150.00,6.00,M,30.17,M,10.00,M,CLR,M,M,M,M,M,M,M,M,KBNO 011935Z AUTO 15006KT 10SM CLR A3017 RMK MADISHF
BNO,2017-04-01 19:40,-118.9564,43.5950,M,M,M,160.00,6.00,M,30.17,M,10.00,M,CLR,M,M,M,M,M,M,M,M,KBNO 011940Z AUTO 16006KT 10SM CLR A3017 RMK VRB06KT  MADISHF
BNO,2017-04-01 19:45,-118.9564,43.5950,M,M,M,160.00,8.00,M,30.16,M,10.00,M,CLR,M,M,M,M,M,M,M,M,KBNO 011945Z AUTO 16008KT 10SM CLR A3016 RMK MADISHF
BNO,2017-04-01 19:50,-118.9564,43.5950,M,M,M,160.00,8.00,M,30.16,M,10.00,M,CLR,M,M,M,M,M,M,M,M,KBNO 011950Z AUTO 16008KT 10SM CLR A3016 RMK MADISHF
BNO,2017-04-01 19:53,-118.9564,43.5950,55.90,34.00,43.46,170.00,8.00,0.00,30.16,1021.40,10.00,M,CLR,M,M,M,M,M,M,M,M,KBNO 011953Z AUTO 17008KT 10SM CLR 13/01 A3016 RMK AO2 SLP214 T01330011 $
BNO,2017-04-01 19:55,-118.9564,43.5950,M,M,M,170.00,8.00,M,30.16,M,10.00,M,CLR,M,M,M,M,M,M,M,M,KBNO 011955Z AUTO 17008KT 10SM CLR A3016 RMK MADISHF
BNO,2017-04-01 20:00,-118.9564,43.5950,M,M,M,190.00,8.00,M,30.16,M,10.00,M,CLR,M,M,M,M,M,M,M,M,KBNO 012000Z AUTO 19008KT 10SM CLR A3016 RMK MADISHF
BNO,2017-04-01 20:05,-118.9564,43.5950,M,M,M,190.00,7.00,M,30.16,M,10.00,M,FEW,M,M,M,6500.00,M,M,M,M,KBNO 012005Z AUTO 19007KT 10SM FEW065 A3016 RMK MADISHF
BNO,2017-04-01 20:10,-118.9564,43.5950,M,M,M,180.00,7.00,M,30.16,M,10.00,M,SCT,M,M,M,6500.00,M,M,M,M,KBNO 012010Z AUTO 18007KT 10SM SCT065 A3016 RMK MADISHF
BNO,2017-04-01 20:15,-118.9564,43.5950,M,M,M,170.00,8.00,M,30.15,M,10.00,M,FEW,SCT,M,M,5000.00,6500.00,M,M,M,KBNO 012015Z AUTO 17008KT 10SM FEW050 SCT065 A3015 RMK MADISHF
BNO,2017-04-01 20:20,-118.9564,43.5950,M,M,M,160.00,7.00,M,30.15,M,10.00,M,BKN,BKN,M,M,5000.00,6500.00,M,M,M,KBNO 012020Z AUTO 16007KT 10SM BKN050 BKN065 A3015 RMK MADISHF
BNO,2017-04-01 20:25,-118.9564,43.5950,M,M,M,160.00,8.00,M,30.15,M,10.00,M,BKN,M,M,M,5500.00,M,M,M,M,KBNO 012025Z AUTO 16008KT 10SM BKN055 A3015 RMK MADISHF
BNO,2017-04-01 20:30,-118.9564,43.5950,M,M,M,170.00,9.00,M,30.15,M,10.00,M,SCT,BKN,M,M,5000.00,6500.00,M,M,M,KBNO 012030Z AUTO 17009KT 10SM SCT050 BKN065 A3015 RMK MADISHF
BNO,2017-04-01 20:35,-118.9564,43.5950,M,M,M,170.00,7.00,M,30.14,M,10.00,M,BKN,BKN,M,M,5000.00,6500.00,M,M,M,KBNO 012035Z AUTO 17007KT 10SM BKN050 BKN065 A3014 RMK MADISHF
BNO,2017-04-01 20:40,-118.9564,43.5950,M,M,M,160.00,8.00,M,30.14,M,10.00,M,BKN,M,M,M,5000.00,M,M,M,M,KBNO 012040Z AUTO 16008KT 10SM BKN050 A3014 RMK MADISHF
BNO,2017-04-01 20:45,-118.9564,43.5950,M,M,M,180.00,9.00,M,30.14,M,10.00,M,BKN,M,M,M,5000.00,M,M,M,M,KBNO 012045Z AUTO 18009KT 10SM BKN050 A3014 RMK MADISHF
BNO,2017-04-01 20:50,-118.9564,43.5950,M,M,M,170.00,8.00,M,30.14,M,10.00,M,BKN,M,M,M,5000.00,M,M,M,M,KBNO 012050Z AUTO 17008KT 10SM BKN050 A3014 RMK MADISHF
BNO,2017-04-01 20:53,-118.9564,43.5950,57.90,37.00,45.54,180.00,8.00,0.00,30.14,1020.60,10.00,M,BKN,M,M,M,5000.00,M,M,M,M,KBNO 012053Z AUTO 18008KT 10SM BKN050 14/03 A3014 RMK AO2 SLP206 T01440028 56020 $
BNO,2017-04-01 20:55,-118.9564,43.5950,M,M,M,160.00,7.00,M,30.14,M,10.00,M,BKN,M,M,M,5000.00,M,M,M,M,KBNO 012055Z AUTO 16007KT 10SM BKN050 A3014 RMK MADISHF
BNO,2017-04-01 21:00,-118.9564,43.5950,M,M,M,170.00,9.00,M,30.14,M,10.00,M,OVC,M,M,M,5000.00,M,M,M,M,KBNO 012100Z AUTO 17009KT 10SM OVC050 A3014 RMK MADISHF
BNO,2017-04-01 21:05,-118.9564,43.5950,M,M,M,160.00,10.00,M,30.14,M,10.00,M,OVC,M,M,M,5000.00,M,M,M,M,KBNO 012105Z AUTO 16010KT 10SM OVC050 A3014 RMK MADISHF
BNO,2017-04-01 21:10,-118.9564,43.5950,M,M,M,170.00,8.00,M,30.13,M,10.00,M,OVC,M,M,M,5000.00,M,M,M,M,KBNO 012110Z AUTO 17008KT 10SM OVC050 A3013 RMK MADISHF
BNO,2017-04-01 21:15,-118.9564,43.5950,M,M,M,170.00,11.00,M,30.13,M,10.00,M,OVC,M,M,M,5000.00,M,M,M,M,KBNO 012115Z AUTO 17011KT 10SM OVC050 A3013 RMK MADISHF
BNO,2017-04-01 21:20,-118.9564,43.5950,M,M,M,150.00,11.00,M,30.13,M,10.00,M,OVC,M,M,M,5500.00,M,M,M,M,KBNO 012120Z AUTO 15011KT 10SM OVC055 A3013 RMK MADISHF
BNO,2017-04-01 21:25,-118.9564,43.5950,M,M,M,170.00,9.00,M,30.13,M,10.00,M,OVC,M,M,M,5500.00,M,M,M,M,KBNO 012125Z AUTO 17009KT 10SM OVC055 A3013 RMK MADISHF
BNO,2017-04-01 21:30,-118.9564,43.5950,M,M,M,170.00,10.00,M,30.13,M,10.00,M,OVC,M,M,M,6000.00,M,M,M,M,KBNO 012130Z AUTO 17010KT 10SM OVC060 A3013 RMK MADISHF
BNO,2017-04-01 21:35,-118.9564,43.5950,M,M,M,170.00,8.00,M,30.13,M,10.00,M,OVC,M,M,M,6000.00,M,M,M,M,KBNO 012135Z AUTO 17008KT 10SM OVC060 A3013 RMK MADISHF
BNO,2017-04-01 21:40,-118.9564,43.5950,M,M,M,180.00,9.00,M,30.13,M,10.00,M,OVC,M,M,M,6000.00,M,M,M,M,KBNO 012140Z AUTO 18009KT 10SM OVC060 A3013 RMK MADISHF
BNO,2017-04-01 21:45,-118.9564,43.5950,M,M,M,160.00,8.00,M,30.12,M,10.00,M,OVC,M,M,M,6000.00,M,M,M,M,KBNO 012145Z AUTO 16008KT 10SM OVC060 A3012 RMK MADISHF
BNO,2017-04-01 21:50,-118.9564,43.5950,M,M,M,170.00,10.00,M,30.12,M,10.00,M,OVC,M,M,M,6500.00,M,M,M,M,KBNO 012150Z AUTO 17010KT 10SM OVC065 A3012 RMK MADISHF
BNO,2017-04-01 21:53,-118.9564,43.5950,60.10,39.00,45.53,170.00,9.00,0.00,30.12,1019.70,10.00,16.00,OVC,M,M,M,6500.00,M,M,M,M,KBNO 012153Z AUTO 17009G16KT 10SM OVC065 16/04 A3012 RMK AO2 SLP197 T01560039 $
BNO,2017-04-01 21:55,-118.9564,43.5950,M,M,M,150.00,8.00,M,30.12,M,10.00,M,OVC,M,M,M,6500.00,M,M,M,M,KBNO 012155Z AUTO 15008KT 10SM OVC065 A3012 RMK MADISHF
BNO,2017-04-01 22:00,-118.9564,43.5950,M,M,M,170.00,7.00,M,30.11,M,10.00,M,BKN,M,M,M,6500.00,M,M,M,M,KBNO 012200Z AUTO 17007KT 10SM BKN065 A3011 RMK MADISHF
BNO,2017-04-01 22:05,-118.9564,43.5950,M,M,M,180.00,7.00,M,30.11,M,10.00,M,BKN,M,M,M,7000.00,M,M,M,M,KBNO 012205Z AUTO 18007KT 10SM BKN070 A3011 RMK MADISHF
BNO,2017-04-01 22:10,-118.9564,43.5950,M,M,M,160.00,6.00,M,30.11,M,10.00,M,BKN,M,M,M,7000.00,M,M,M,M,KBNO 012210Z AUTO 16006KT 10SM BKN070 A3011 RMK VRB06KT  MADISHF
BNO,2017-04-01 22:15,-118.9564,43.5950,M,M,M,170.00,7.00,M,30.11,M,10.00,M,BKN,M,M,M,7000.00,M,M,M,M,KBNO 012215Z AUTO 17007KT 10SM BKN070 A3011 RMK MADISHF
BNO,2017-04-01 22:20,-118.9564,43.5950,M,M,M,180.00,8.00,M,30.11,M,10.00,M,BKN,M,M,M,7000.00,M,M,M,M,KBNO 012220Z AUTO 18008KT 10SM BKN070 A3011 RMK MADISHF
BNO,2017-04-01 22:25,-118.9564,43.5950,M,M,M,170.00,7.00,M,30.11,M,10.00,M,BKN,M,M,M,7000.00,M,M,M,M,KBNO 012225Z AUTO 17007KT 10SM BKN070 A3011 RMK MADISHF
BNO,2017-04-01 22:30,-118.9564,43.5950,M,M,M,180.00,6.00,M,30.11,M,10.00,M,FEW,BKN,M,M,4900.00,7000.00,M,M,M,KBNO 012230Z AUTO 18006KT 10SM FEW049 BKN070 A3011 RMK MADISHF
BNO,2017-04-01 22:35,-118.9564,43.5950,M,M,M,190.00,5.00,M,30.11,M,10.00,M,FEW,BKN,M,M,4900.00,7000.00,M,M,M,KBNO 012235Z AUTO 19005KT 10SM FEW049 BKN070 A3011 RMK MADISHF
BNO,2017-04-01 22:40,-118.9564,43.5950,M,M,M,190.00,6.00,M,30.10,M,10.00,M,FEW,BKN,M,M,4900.00,7000.00,M,M,M,KBNO 012240Z AUTO 19006KT 10SM FEW049 BKN070 A3010 RMK MADISHF
BNO,2017-04-01 22:45,-118.9564,43.5950,M,M,M,210.00,7.00,M,30.10,M,10.00,M,FEW,BKN,M,M,4900.00,6500.00,M,M,M,KBNO 012245Z AUTO 21007KT 10SM FEW049 BKN065 A3010 RMK MADISHF
BNO,2017-04-01 22:50,-118.9564,43.5950,M,M,M,230.00,5.00,M,30.10,M,10.00,M,FEW,BKN,M,M,4900.00,6500.00,M,M,M,KBNO 012250Z AUTO 23005KT 10SM FEW049 BKN065 A3010 RMK VRB05KT  MADISHF
BNO,2017-04-01 22:53,-118.9564,43.5950,60.10,39.00,45.53,M,4.00,0.00,30.10,1019.30,10.00,M,FEW,OVC,M,M,4900.00,6500.00,M,M,M,KBNO 012253Z AUTO VRB04KT 10SM FEW049 OVC065 16/04 A3010 RMK AO2 SLP193 T01560039 $
BNO,2017-04-01 22:55,-118.9564,43.5950,M,M,M,0.00,0.00,M,30.10,M,10.00,M,FEW,BKN,M,M,4900.00,6500.00,M,M,M,KBNO 012255Z AUTO 00000KT 10SM FEW049 BKN065 A3010 RMK MADISHF
BNO,2017-04-01 23:00,-118.9564,43.5950,M,M,M,250.00,3.00,M,30.10,M,10.00,M,FEW,BKN,M,M,5000.00,6500.00,M,M,M,KBNO 012300Z AUTO 25003KT 10SM FEW050 BKN065 A3010 RMK VRB03KT  MADISHF
BNO,2017-04-01 23:05,-118.9564,43.5950,M,M,M,290.00,11.00,M,30.10,M,10.00,M,FEW,OVC,M,M,4700.00,6500.00,M,M,M,KBNO 012305Z AUTO 29011KT 10SM FEW047 OVC065 A3010 RMK MADISHF
BNO,2017-04-01 23:10,-118.9564,43.5950,M,M,M,290.00,10.00,M,30.11,M,10.00,M,FEW,OVC,M,M,4700.00,6500.00,M,M,M,KBNO 012310Z AUTO 29010KT 10SM FEW047 OVC065 A3011 RMK MADISHF
BNO,2017-04-01 23:15,-118.9564,43.5950,M,M,M,280.00,10.00,M,30.11,M,10.00,M,FEW,BKN,M,M,4700.00,6500.00,M,M,M,KBNO 012315Z AUTO 28010KT 10SM FEW047 BKN065 A3011 RMK MADISHF
BNO,2017-04-01 23:20,-118.9564,43.5950,M,M,M,280.00,9.00,M,30.11,M,10.00,14.00,FEW,BKN,M,M,4700.00,6500.00,M,M,M,KBNO 012320Z AUTO 28009G14KT 10SM FEW047 BKN065 A3011 RMK MADISHF
BNO,2017-04-01 23:25,-118.9564,43.5950,M,M,M,280.00,13.00,M,30.11,M,10.00,M,FEW,OVC,M,M,4700.00,6500.00,M,M,M,KBNO 012325Z AUTO 28013KT 10SM FEW047 OVC065 A3011 RMK MADISHF
BNO,2017-04-01 23:30,-118.9564,43.5950,M,M,M,280.00,12.00,M,30.11,M,10.00,M,BKN,M,M,M,6500.00,M,M,M,M,KBNO 012330Z AUTO 28012KT 10SM BKN065 A3011 RMK MADISHF
BNO,2017-04-01 23:35,-118.9564,43.5950,M,M,M,280.00,9.00,M,30.11,M,10.00,M,OVC,M,M,M,6500.00,M,M,M,M,KBNO 012335Z AUTO 28009KT 10SM OVC065 A3011 RMK MADISHF
BNO,2017-04-01 23:40,-118.9564,43.5950,M,M,M,300.00,10.00,M,30.11,M,10.00,M,OVC,M,M,M,6500.00,M,M,M,M,KBNO 012340Z AUTO 30010KT 10SM OVC065 A3011 RMK MADISHF
BNO,2017-04-01 23:45,-118.9564,43.5950,M,M,M,290.00,10.00,M,30.11,M,10.00,M,OVC,M,M,M,6500.00,M,M,M,M,KBNO 012345Z AUTO 29010KT 10SM OVC065 A3011 RMK MADISHF
BNO,2017-04-01 23:50,-118.9564,43.5950,M,M,M,280.00,7.00,M,30.10,M,10.00,M,OVC,M,M,M,6500.00,M,M,M,M,KBNO 012350Z AUTO 28007KT 10SM OVC065 A3010 RMK MADISHF
BNO,2017-04-01 23:53,-118.9564,43.5950,61.00,39.90,45.67,300.00,9.00,0.00,30.10,1019.20,10.00,M,BKN,OVC,M,M,6500.00,8500.00,M,M,M,KBNO 012353Z AUTO 30009KT 10SM BKN065 OVC085 16/04 A3010 RMK AO2 SLP192 T01610044 10167 20083 56012 $
BNO,2017-04-01 23:55,-118.9564,43.5950,M,M,M,280.00,8.00,M,M,M,10.00,M,BKN,OVC,M,M,6500.00,7999.00,M,M,M,KBNO 012355Z AUTO 28008KT 10SM BKN065 OVC079 RMK MADISHF
