#DEBUG: Format Typ    -> comma
#DEBUG: Time Period   -> 2017-04-01 00:00:00+00:00 2017-04-02 00:00:00+00:00
#DEBUG: Time Zone     -> Etc/UTC
#DEBUG: Data Contact   -> daryl herzmann akrherz@iastate.edu 515-294-5978
#DEBUG: Entries Found -> -1
station,valid,lon,lat,tmpf, dwpf, relh, drct, sknt, p01i, alti, mslp, vsby, gust, skyc1, skyc2, skyc3, skyc4, skyl1, skyl2, skyl3, skyl4, presentwx, metar
BNW,2017-04-01 00:00,-93.8486,42.0486,42.80,39.20,86.99,40.00,7.00,0.00,30.04,M,10.00,M,OVC,M,M,M,1500.00,M,M,M,M,KBNW 010000Z AUTO 04007KT 10SM OVC015 06/04 A3004 RMK AO2
BNW,2017-04-01 00:10,-93.8486,42.0486,41.00,39.20,93.24,20.00,9.00,0.00,30.04,M,10.00,M,OVC,M,M,M,1400.00,M,M,M,M,KBNW 010010Z AUTO 02009KT 10SM OVC014 05/04 A3004 RMK AO2
BNW,2017-04-01 00:15,-93.8486,42.0486,41.00,37.40,86.89,30.00,10.00,0.00,30.04,M,10.00,M,OVC,M,M,M,1500.00,M,M,M,M,KBNW 010015Z AUTO 03010KT 10SM OVC015 05/03 A3004 RMK AO2
BNW,2017-04-01 00:20,-93.8486,42.0486,41.00,37.40,86.89,30.00,8.00,0.00,30.05,M,10.00,13.00,OVC,M,M,M,1500.00,M,M,M,M,KBNW 010020Z AUTO 03008G13KT 10SM OVC015 05/03 A3005 RMK AO2
BNW,2017-04-01 00:30,-93.8486,42.0486,41.00,37.40,86.89,30.00,7.00,0.00,30.05,M,10.00,M,OVC,M,M,M,1500.00,M,M,M,M,KBNW 010030Z AUTO 03007KT 10SM OVC015 05/03 A3005 RMK AO2
BNW,2017-04-01 00:35,-93.8486,42.0486,41.00,37.40,86.89,40.00,7.00,0.00,30.05,M,10.00,M,OVC,M,M,M,1500.00,M,M,M,M,KBNW 010035Z AUTO 04007KT 10SM OVC015 05/03 A3005 RMK AO2
BNW,2017-04-01 00:40,-93.8486,42.0486,41.00,37.40,86.89,40.00,9.00,0.00,30.06,M,10.00,M,OVC,M,M,M,1600.00,M,M,M,M,KBNW 010040Z AUTO 04009KT 10SM OVC016 05/03 A3006 RMK AO2
BNW,2017-04-01 00:50,-93.8486,42.0486,41.00,37.40,86.89,50.00,10.00,0.00,30.06,M,10.00,M,OVC,M,M,M,1600.00,M,M,M,M,KBNW 010050Z AUTO 05010KT 10SM OVC016 05/03 A3006 RMK AO2
BNW,2017-04-01 00:55,-93.8486,42.0486,41.00,37.40,86.89,60.00,6.00,0.00,30.07,M,10.00,13.00,OVC,M,M,M,1600.00,M,M,M,M,KBNW 010055Z AUTO 06006G13KT 10SM OVC016 05/03 A3007 RMK AO2
BNW,2017-04-01 01:00,-93.8486,42.0486,41.00,37.40,86.89,40.00,4.00,0.00,30.08,M,10.00,13.00,OVC,M,M,M,1600.00,M,M,M,M,KBNW 010100Z AUTO 04004G13KT 10SM OVC016 05/03 A3008 RMK AO2
BNW,2017-04-01 01:10,-93.8486,42.0486,41.00,37.40,86.89,50.00,3.00,0.00,30.08,M,10.00,M,OVC,M,M,M,1600.00,M,M,M,M,KBNW 010110Z AUTO 05003KT 10SM OVC016 05/03 A3008 RMK AO2
BNW,2017-04-01 01:15,-93.8486,42.0486,41.00,37.40,86.89,60.00,5.00,0.00,30.08,M,10.00,M,OVC,M,M,M,1600.00,M,M,M,M,KBNW 010115Z AUTO 06005KT 10SM OVC016 05/03 A3008 RMK AO2
BNW,2017-04-01 01:20,-93.8486,42.0486,41.00,37.40,86.89,60.00,8.00,0.00,30.09,M,10.00,M,OVC,M,M,M,1600.00,M,M,M,M,KBNW 010120Z AUTO 06008KT 10SM OVC016 05/03 A3009 RMK AO2
BNW,2017-04-01 01:30,-93.8486,42.0486,41.00,37.40,86.89,50.00,8.00,0.00,30.09,M,10.00,M,OVC,M,M,M,1600.00,M,M,M,M,KBNW 010130Z AUTO 05008KT 10SM OVC016 05/03 A3009 RMK AO2
BNW,2017-04-01 01:35,-93.8486,42.0486,41.00,37.40,86.89,50.00,7.00,0.00,30.09,M,10.00,M,OVC,M,M,M,1600.00,M,M,M,M,KBNW 010135Z AUTO 05007KT 10SM OVC016 05/03 A3009 RMK AO2
BNW,2017-04-01 01:40,-93.8486,42.0486,41.00,37.40,86.89,60.00,7.00,0.00,30.08,M,10.00,M,OVC,M,M,M,1600.00,M,M,M,M,KBNW 010140Z AUTO 06007KT 10SM OVC016 05/03 A3008 RMK AO2
BNW,2017-04-01 01:50,-93.8486,42.0486,41.00,37.40,86.89,50.00,8.00,0.00,30.08,M,10.00,M,OVC,M,M,M,1600.00,M,M,M,M,KBNW 010150Z AUTO 05008KT 10SM OVC016 05/03 A3008 RMK AO2
BNW,2017-04-01 01:55,-93.8486,42.0486,41.00,37.40,86.89,60.00,7.00,0.00,30.08,M,10.00,M,OVC,M,M,M,1600.00,M,M,M,M,KBNW 010155Z AUTO 06007KT 10SM OVC016 05/03 A3008 RMK AO2
BNW,2017-04-01 02:00,-93.8486,42.0486,41.00,37.40,86.89,60.00,4.00,0.00,30.09,M,10.00,10.00,OVC,M,M,M,1600.00,M,M,M,M,KBNW 010200Z AUTO 06004G10KT 10SM OVC016 05/03 A3009 RMK AO2
BNW,2017-04-01 02:10,-93.8486,42.0486,41.00,39.20,93.24,50.00,5.00,0.00,30.09,M,10.00,M,OVC,M,M,M,1600.00,M,M,M,M,KBNW 010210Z AUTO 05005KT 10SM OVC016 05/04 A3009 RMK AO2
BNW,2017-04-01 02:15,-93.8486,42.0486,41.00,37.40,86.89,60.00,6.00,0.00,30.10,M,10.00,M,OVC,M,M,M,1600.00,M,M,M,M,KBNW 010215Z AUTO 06006KT 10SM OVC016 05/03 A3010 RMK AO2
BNW,2017-04-01 02:20,-93.8486,42.0486,41.00,37.40,86.89,40.00,5.00,0.00,30.10,M,10.00,M,OVC,M,M,M,1600.00,M,M,M,M,KBNW 010220Z AUTO 04005KT 10SM OVC016 05/03 A3010 RMK AO2
BNW,2017-04-01 02:30,-93.8486,42.0486,41.00,37.40,86.89,50.00,8.00,0.00,30.10,M,10.00,M,OVC,M,M,M,1600.00,M,M,M,M,KBNW 010230Z AUTO 05008KT 10SM OVC016 05/03 A3010 RMK AO2
BNW,2017-04-01 02:35,-93.8486,42.0486,41.00,37.40,86.89,70.00,6.00,0.00,30.10,M,10.00,11.00,OVC,M,M,M,1600.00,M,M,M,M,KBNW 010235Z AUTO 07006G11KT 10SM OVC016 05/03 A3010 RMK AO2
BNW,2017-04-01 02:40,-93.8486,42.0486,41.00,39.20,93.24,70.00,4.00,0.00,30.10,M,10.00,M,OVC,M,M,M,1700.00,M,M,M,M,KBNW 010240Z AUTO 07004KT 10SM OVC017 05/04 A3010 RMK AO2
BNW,2017-04-01 02:50,-93.8486,42.0486,41.00,39.20,93.24,0.00,0.00,0.00,30.11,M,10.00,M,BKN,OVC,M,M,1900.00,2300.00,M,M,M,KBNW 010250Z AUTO 00000KT 10SM BKN019 OVC023 05/04 A3011 RMK AO2
BNW,2017-04-01 02:55,-93.8486,42.0486,41.00,39.20,93.24,100.00,4.00,0.00,30.11,M,10.00,M,BKN,OVC,M,M,1800.00,2300.00,M,M,M,KBNW 010255Z AUTO 10004KT 10SM BKN018 OVC023 05/04 A3011 RMK AO2
BNW,2017-04-01 03:00,-93.8486,42.0486,41.00,39.20,93.24,120.00,3.00,0.00,30.11,M,10.00,M,BKN,OVC,M,M,2100.00,2600.00,M,M,M,KBNW 010300Z AUTO 12003KT 10SM BKN021 OVC026 05/04 A3011 RMK AO2
BNW,2017-04-01 03:10,-93.8486,42.0486,41.00,37.40,86.89,70.00,4.00,0.00,30.11,M,10.00,M,OVC,M,M,M,2500.00,M,M,M,M,KBNW 010310Z AUTO 07004KT 10SM OVC025 05/03 A3011 RMK AO2
BNW,2017-04-01 03:15,-93.8486,42.0486,39.20,37.40,93.19,50.00,4.00,0.00,30.11,M,10.00,M,OVC,M,M,M,2500.00,M,M,M,M,KBNW 010315Z AUTO 05004KT 10SM OVC025 04/03 A3011 RMK AO2
BNW,2017-04-01 03:20,-93.8486,42.0486,39.20,39.20,100.00,50.00,4.00,0.00,30.11,M,10.00,M,OVC,M,M,M,2400.00,M,M,M,M,KBNW 010320Z AUTO 05004KT 10SM OVC024 04/04 A3011 RMK AO2
BNW,2017-04-01 03:30,-93.8486,42.0486,39.20,39.20,100.00,60.00,4.00,0.00,30.11,M,10.00,M,OVC,M,M,M,2400.00,M,M,M,M,KBNW 010330Z AUTO 06004KT 10SM OVC024 04/04 A3011 RMK AO2
BNW,2017-04-01 03:35,-93.8486,42.0486,39.20,39.20,100.00,50.00,4.00,0.00,30.11,M,10.00,M,OVC,M,M,M,2500.00,M,M,M,M,KBNW 010335Z AUTO 05004KT 10SM OVC025 04/04 A3011 RMK AO2
BNW,2017-04-01 03:40,-93.8486,42.0486,39.20,39.20,100.00,50.00,4.00,0.00,30.11,M,10.00,M,OVC,M,M,M,2400.00,M,M,M,M,KBNW 010340Z AUTO 05004KT 10SM OVC024 04/04 A3011 RMK AO2
BNW,2017-04-01 03:50,-93.8486,42.0486,39.20,39.20,100.00,30.00,3.00,0.00,30.12,M,10.00,M,OVC,M,M,M,2400.00,M,M,M,M,KBNW 010350Z AUTO 03003KT 10SM OVC024 04/04 A3012 RMK AO2
BNW,2017-04-01 03:55,-93.8486,42.0486,37.40,37.40,100.00,30.00,3.00,0.00,30.12,M,10.00,M,OVC,M,M,M,2300.00,M,M,M,M,KBNW 010355Z AUTO 03003KT 10SM OVC023 03/03 A3012 RMK AO2
BNW,2017-04-01 04:00,-93.8486,42.0486,37.40,37.40,100.00,10.00,4.00,0.00,30.12,M,10.00,M,OVC,M,M,M,2300.00,M,M,M,M,KBNW 010400Z AUTO 01004KT 10SM OVC023 03/03 A3012 RMK AO2
BNW,2017-04-01 04:10,-93.8486,42.0486,37.40,37.40,100.00,20.00,3.00,0.00,30.12,M,10.00,M,BKN,M,M,M,2300.00,M,M,M,M,KBNW 010410Z AUTO 02003KT 10SM BKN023 03/03 A3012 RMK AO2
BNW,2017-04-01 04:15,-93.8486,42.0486,37.40,37.40,100.00,30.00,4.00,0.00,30.12,M,10.00,M,SCT,M,M,M,2300.00,M,M,M,M,KBNW 010415Z AUTO 03004KT 10SM SCT023 03/03 A3012 RMK AO2
BNW,2017-04-01 04:20,-93.8486,42.0486,37.40,37.40,100.00,30.00,4.00,0.00,30.12,M,10.00,M,SCT,M,M,M,2300.00,M,M,M,M,KBNW 010420Z AUTO 03004KT 10SM SCT023 03/03 A3012 RMK AO2
BNW,2017-04-01 04:30,-93.8486,42.0486,37.40,37.40,100.00,40.00,4.00,0.00,30.12,M,10.00,M,CLR,M,M,M,M,M,M,M,M,KBNW 010430Z AUTO 04004KT 10SM CLR 03/03 A3012 RMK AO2
BNW,2017-04-01 04:35,-93.8486,42.0486,37.40,37.40,100.00,40.00,5.00,0.00,30.12,M,10.00,M,CLR,M,M,M,M,M,M,M,M,KBNW 010435Z AUTO 04005KT 10SM CLR 03/03 A3012 RMK AO2
BNW,2017-04-01 04:40,-93.8486,42.0486,37.40,37.40,100.00,40.00,5.00,0.00,30.12,M,10.00,M,CLR,M,M,M,M,M,M,M,M,KBNW 010440Z AUTO 04005KT 10SM CLR 03/03 A3012 RMK AO2
BNW,2017-04-01 04:50,-93.8486,42.0486,35.60,35.60,100.00,40.00,4.00,0.00,30.12,M,10.00,M,CLR,M,M,M,M,M,M,M,M,KBNW 010450Z AUTO 04004KT 10SM CLR 02/02 A3012 RMK AO2
BNW,2017-04-01 04:55,-93.8486,42.0486,35.60,35.60,100.00,20.00,3.00,0.00,30.12,M,10.00,M,CLR,M,M,M,M,M,M,M,M,KBNW 010455Z AUTO 02003KT 10SM CLR 02/02 A3012 RMK AO2
BNW,2017-04-01 05:00,-93.8486,42.0486,35.60,35.60,100.00,20.00,3.00,0.00,30.12,M,10.00,M,CLR,M,M,M,M,M,M,M,M,KBNW 010500Z AUTO 02003KT 10SM CLR 02/02 A3012 RMK AO2
BNW,2017-04-01 05:10,-93.8486,42.0486,35.60,35.60,100.00,20.00,3.00,0.00,30.12,M,10.00,M,CLR,M,M,M,M,M,M,M,M,KBNW 010510Z AUTO 02003KT 10SM CLR 02/02 A3012 RMK AO2
BNW,2017-04-01 05:15,-93.8486,42.0486,35.60,35.60,100.00,10.00,3.00,0.00,30.13,M,10.00,M,CLR,M,M,M,M,M,M,M,M,KBNW 010515Z AUTO 01003KT 10SM CLR 02/02 A3013 RMK AO2
BNW,2017-04-01 05:20,-93.8486,42.0486,37.40,37.40,100.00,0.00,0.00,0.00,30.13,M,10.00,M,CLR,M,M,M,M,M,M,M,M,KBNW 010520Z AUTO 00000KT 10SM CLR 03/03 A3013 RMK AO2
BNW,2017-04-01 05:30,-93.8486,42.0486,37.40,37.40,100.00,0.00,0.00,0.00,30.14,M,10.00,M,CLR,M,M,M,M,M,M,M,M,KBNW 010530Z AUTO 00000KT 10SM CLR 03/03 A3014 RMK AO2
BNW,2017-04-01 05:35,-93.8486,42.0486,37.40,37.40,100.00,0.00,0.00,0.00,30.14,M,10.00,M,CLR,M,M,M,M,M,M,M,M,KBNW 010535Z AUTO 00000KT 10SM CLR 03/03 A3014 RMK AO2
BNW,2017-04-01 05:40,-93.8486,42.0486,37.40,37.40,100.00,0.00,0.00,0.00,30.14,M,10.00,M,CLR,M,M,M,M,M,M,M,M,KBNW 010540Z AUTO 00000KT 10SM CLR 03/03 A3014 RMK AO2
BNW,2017-04-01 05:50,-93.8486,42.0486,37.40,37.40,100.00,0.00,0.00,0.00,30.14,M,10.00,M,CLR,M,M,M,M,M,M,M,M,KBNW 010550Z AUTO 00000KT 10SM CLR 03/03 A3014 RMK AO2
BNW,2017-04-01 05:55,-93.8486,42.0486,37.40,37.40,100.00,0.00,0.00,0.00,30.14,M,10.00,M,CLR,M,M,M,M,M,M,M,M,KBNW 010555Z AUTO 00000KT 10SM CLR 03/03 A3014 RMK AO2
BNW,2017-04-01 06:00,-93.8486,42.0486,37.40,37.40,100.00,0.00,0.00,0.00,30.14,M,10.00,M,CLR,M,M,M,M,M,M,M,M,KBNW 010600Z AUTO 00000KT 10SM CLR 03/03 A3014 RMK AO2
BNW,2017-04-01 06:10,-93.8486,42.0486,37.40,37.40,100.00,330.00,3.00,0.00,30.15,M,10.00,M,CLR,M,M,M,M,M,M,M,M,KBNW 010610Z AUTO 33003KT 10SM CLR 03/03 A3015 RMK AO2
BNW,2017-04-01 06:15,-93.8486,42.0486,37.40,37.40,100.00,340.00,3.00,0.00,30.15,M,10.00,M,CLR,M,M,M,M,M,M,M,M,KBNW 010615Z AUTO 34003KT 10SM CLR 03/03 A3015 RMK AO2
BNW,2017-04-01 06:20,-93.8486,42.0486,35.60,35.60,100.00,330.00,3.00,0.00,30.15,M,10.00,M,CLR,M,M,M,M,M,M,M,M,KBNW 010620Z AUTO 33003KT 10SM CLR 02/02 A3015 RMK AO2
BNW,2017-04-01 06:30,-93.8486,42.0486,37.40,37.40,100.00,330.00,3.00,0.00,30.15,M,10.00,M,CLR,M,M,M,M,M,M,M,M,KBNW 010630Z AUTO 33003KT 10SM CLR 03/03 A3015 RMK AO2
BNW,2017-04-01 06:35,-93.8486,42.0486,37.40,37.40,100.00,320.00,3.00,0.00,30.16,M,10.00,M,CLR,M,M,M,M,M,M,M,M,KBNW 010635Z AUTO 32003KT 10SM CLR 03/03 A3016 RMK AO2
BNW,2017-04-01 06:40,-93.8486,42.0486,37.40,37.40,100.00,0.00,0.00,0.00,30.16,M,10.00,M,CLR,M,M,M,M,M,M,M,M,KBNW 010640Z AUTO 00000KT 10SM CLR 03/03 A3016 RMK AO2
BNW,2017-04-01 06:50,-93.8486,42.0486,37.40,37.40,100.00,320.00,3.00,0.00,30.16,M,10.00,M,FEW,M,M,M,12000.00,M,M,M,M,KBNW 010650Z AUTO 32003KT 10SM FEW120 03/03 A3016 RMK AO2
BNW,2017-04-01 06:55,-93.8486,42.0486,37.40,37.40,100.00,320.00,3.00,0.00,30.16,M,10.00,M,CLR,M,M,M,M,M,M,M,M,KBNW 010655Z AUTO 32003KT 10SM CLR 03/03 A3016 RMK AO2
BNW,2017-04-01 07:00,-93.8486,42.0486,35.60,35.60,100.00,320.00,3.00,0.00,30.16,M,10.00,M,CLR,M,M,M,M,M,M,M,M,KBNW 010700Z AUTO 32003KT 10SM CLR 02/02 A3016 RMK AO2
BNW,2017-04-01 07:10,-93.8486,42.0486,35.60,35.60,100.00,320.00,3.00,0.00,30.17,M,10.00,M,CLR,M,M,M,M,M,M,M,M,KBNW 010710Z AUTO 32003KT 10SM CLR 02/02 A3017 RMK AO2
BNW,2017-04-01 07:15,-93.8486,42.0486,35.60,35.60,100.00,0.00,0.00,0.00,30.17,M,10.00,M,CLR,M,M,M,M,M,M,M,M,KBNW 010715Z AUTO 00000KT 10SM CLR 02/02 A3017 RMK AO2
BNW,2017-04-01 07:20,-93.8486,42.0486,37.40,37.40,100.00,0.00,0.00,0.00,30.16,M,10.00,M,CLR,M,M,M,M,M,M,M,M,KBNW 010720Z AUTO 00000KT 10SM CLR 03/03 A3016 RMK AO2
BNW,2017-04-01 07:30,-93.8486,42.0486,35.60,35.60,100.00,340.00,3.00,0.00,30.16,M,10.00,M,CLR,M,M,M,M,M,M,M,M,KBNW 010730Z AUTO 34003KT 10SM CLR 02/02 A3016 RMK AO2
BNW,2017-04-01 07:35,-93.8486,42.0486,35.60,35.60,100.00,330.00,3.00,0.00,30.17,M,10.00,M,CLR,M,M,M,M,M,M,M,M,KBNW 010735Z AUTO 33003KT 10SM CLR 02/02 A3017 RMK AO2
BNW,2017-04-01 07:40,-93.8486,42.0486,35.60,35.60,100.00,340.00,3.00,0.00,30.17,M,10.00,M,CLR,M,M,M,M,M,M,M,M,KBNW 010740Z AUTO 34003KT 10SM CLR 02/02 A3017 RMK AO2
BNW,2017-04-01 07:50,-93.8486,42.0486,35.60,35.60,100.00,330.00,4.00,0.00,30.17,M,10.00,M,CLR,M,M,M,M,M,M,M,M,KBNW 010750Z AUTO 33004KT 10SM CLR 02/02 A3017 RMK AO2
BNW,2017-04-01 07:55,-93.8486,42.0486,35.60,35.60,100.00,320.00,4.00,0.00,30.17,M,10.00,M,CLR,M,M,M,M,M,M,M,M,KBNW 010755Z AUTO 32004KT 10SM CLR 02/02 A3017 RMK AO2
BNW,2017-04-01 08:00,-93.8486,42.0486,37.40,37.40,100.00,330.00,4.00,0.00,30.17,M,10.00,M,CLR,M,M,M,M,M,M,M,M,KBNW 010800Z AUTO 33004KT 10SM CLR 03/03 A3017 RMK AO2
BNW,2017-04-01 08:10,-93.8486,42.0486,35.60,35.60,100.00,350.00,3.00,0.00,30.17,M,10.00,M,CLR,M,M,M,M,M,M,M,M,KBNW 010810Z AUTO 35003KT 10SM CLR 02/02 A3017 RMK AO2
BNW,2017-04-01 08:15,-93.8486,42.0486,35.60,35.60,100.00,0.00,0.00,0.00,30.16,M,10.00,M,CLR,M,M,M,M,M,M,M,M,KBNW 010815Z AUTO 00000KT 10SM CLR 02/02 A3016 RMK AO2
BNW,2017-04-01 08:20,-93.8486,42.0486,35.60,35.60,100.00,0.00,0.00,0.00,30.16,M,10.00,M,CLR,M,M,M,M,M,M,M,M,KBNW 010820Z AUTO 00000KT 10SM CLR 02/02 A3016 RMK AO2
BNW,2017-04-01 08:30,-93.8486,42.0486,35.60,35.60,100.00,0.00,0.00,0.00,30.16,M,10.00,M,CLR,M,M,M,M,M,M,M,M,KBNW 010830Z AUTO 00000KT 10SM CLR 02/02 A3016 RMK AO2
BNW,2017-04-01 08:35,-93.8486,42.0486,35.60,35.60,100.00,0.00,0.00,0.00,30.15,M,10.00,M,CLR,M,M,M,M,M,M,M,M,KBNW 010835Z AUTO 00000KT 10SM CLR 02/02 A3015 RMK AO2
BNW,2017-04-01 08:40,-93.8486,42.0486,35.60,35.60,100.00,20.00,3.00,0.00,30.15,M,10.00,M,CLR,M,M,M,M,M,M,M,M,KBNW 010840Z AUTO 02003KT 10SM CLR 02/02 A3015 RMK AO2
BNW,2017-04-01 08:50,-93.8486,42.0486,33.80,33.80,100.00,360.00,4.00,0.00,30.15,M,10.00,M,CLR,M,M,M,M,M,M,M,M,KBNW 010850Z AUTO 36004KT 10SM CLR 01/01 A3015 RMK AO2
BNW,2017-04-01 08:55,-93.8486,42.0486,33.80,33.80,100.00,10.00,3.00,0.00,30.15,M,10.00,M,CLR,M,M,M,M,M,M,M,M,KBNW 010855Z AUTO 01003KT 10SM CLR 01/01 A3015 RMK AO2
BNW,2017-04-01 09:00,-93.8486,42.0486,35.60,35.60,100.00,360.00,3.00,0.00,30.15,M,10.00,M,CLR,M,M,M,M,M,M,M,M,KBNW 010900Z AUTO 36003KT 10SM CLR 02/02 A3015 RMK AO2
BNW,2017-04-01 09:10,-93.8486,42.0486,35.60,35.60,100.00,10.00,4.00,0.00,30.15,M,10.00,M,CLR,M,M,M,M,M,M,M,M,KBNW 010910Z AUTO 01004KT 10SM CLR 02/02 A3015 RMK AO2
BNW,2017-04-01 09:15,-93.8486,42.0486,35.60,35.60,100.00,360.00,4.00,0.00,30.15,M,10.00,M,CLR,M,M,M,M,M,M,M,M,KBNW 010915Z AUTO 36004KT 10SM CLR 02/02 A3015 RMK AO2
BNW,2017-04-01 09:20,-93.8486,42.0486,35.60,35.60,100.00,0.00,0.00,0.00,30.16,M,10.00,M,FEW,M,M,M,12000.00,M,M,M,M,KBNW 010920Z AUTO 00000KT 10SM FEW120 02/02 A3016 RMK AO2
BNW,2017-04-01 09:30,-93.8486,42.0486,37.40,37.40,100.00,0.00,0.00,0.00,30.16,M,10.00,M,FEW,M,M,M,12000.00,M,M,M,M,KBNW 010930Z AUTO 00000KT 10SM FEW120 03/03 A3016 RMK AO2
BNW,2017-04-01 09:35,-93.8486,42.0486,37.40,37.40,100.00,0.00,0.00,0.00,30.17,M,10.00,M,FEW,M,M,M,11000.00,M,M,M,M,KBNW 010935Z AUTO 00000KT 10SM FEW110 03/03 A3017 RMK AO2
BNW,2017-04-01 09:40,-93.8486,42.0486,37.40,37.40,100.00,290.00,3.00,0.00,30.17,M,10.00,M,FEW,M,M,M,11000.00,M,M,M,M,KBNW 010940Z AUTO 29003KT 10SM FEW110 03/03 A3017 RMK AO2
BNW,2017-04-01 09:50,-93.8486,42.0486,37.40,37.40,100.00,270.00,4.00,0.00,30.18,M,10.00,M,FEW,M,M,M,11000.00,M,M,M,M,KBNW 010950Z AUTO 27004KT 10SM FEW110 03/03 A3018 RMK AO2
BNW,2017-04-01 09:55,-93.8486,42.0486,37.40,37.40,100.00,270.00,3.00,0.00,30.18,M,10.00,M,CLR,M,M,M,M,M,M,M,M,KBNW 010955Z AUTO 27003KT 10SM CLR 03/03 A3018 RMK AO2
BNW,2017-04-01 10:00,-93.8486,42.0486,37.40,37.40,100.00,270.00,3.00,0.00,30.18,M,10.00,M,CLR,M,M,M,M,M,M,M,M,KBNW 011000Z AUTO 27003KT 10SM CLR 03/03 A3018 RMK AO2
BNW,2017-04-01 10:10,-93.8486,42.0486,35.60,35.60,100.00,270.00,4.00,0.00,30.18,M,10.00,M,CLR,M,M,M,M,M,M,M,M,KBNW 011010Z AUTO 27004KT 10SM CLR 02/02 A3018 RMK AO2
BNW,2017-04-01 10:15,-93.8486,42.0486,35.60,35.60,100.00,280.00,4.00,0.00,30.18,M,10.00,M,CLR,M,M,M,M,M,M,M,M,KBNW 011015Z AUTO 28004KT 10SM CLR 02/02 A3018 RMK AO2
BNW,2017-04-01 10:20,-93.8486,42.0486,35.60,35.60,100.00,290.00,3.00,0.00,30.18,M,10.00,M,CLR,M,M,M,M,M,M,M,M,KBNW 011020Z AUTO 29003KT 10SM CLR 02/02 A3018 RMK AO2
BNW,2017-04-01 10:30,-93.8486,42.0486,35.60,35.60,100.00,320.00,3.00,0.00,30.19,M,10.00,M,CLR,M,M,M,M,M,M,M,M,KBNW 011030Z AUTO 32003KT 10SM CLR 02/02 A3019 RMK AO2
BNW,2017-04-01 10:35,-93.8486,42.0486,35.60,35.60,100.00,310.00,3.00,0.00,30.19,M,10.00,M,CLR,M,M,M,M,M,M,M,M,KBNW 011035Z AUTO 31003KT 10SM CLR 02/02 A3019 RMK AO2
BNW,2017-04-01 10:40,-93.8486,42.0486,35.60,35.60,100.00,310.00,3.00,0.00,30.19,M,10.00,M,CLR,M,M,M,M,M,M,M,M,KBNW 011040Z AUTO 31003KT 10SM CLR 02/02 A3019 RMK AO2
BNW,2017-04-01 10:50,-93.8486,42.0486,37.40,37.40,100.00,300.00,4.00,0.00,30.20,M,10.00,M,CLR,M,M,M,M,M,M,M,M,KBNW 011050Z AUTO 30004KT 10SM CLR 03/03 A3020 RMK AO2
BNW,2017-04-01 10:55,-93.8486,42.0486,37.40,37.40,100.00,300.00,3.00,0.00,30.20,M,10.00,M,CLR,M,M,M,M,M,M,M,M,KBNW 011055Z AUTO 30003KT 10SM CLR 03/03 A3020 RMK AO2
BNW,2017-04-01 11:00,-93.8486,42.0486,37.40,37.40,100.00,310.00,3.00,0.00,30.20,M,10.00,M,CLR,M,M,M,M,M,M,M,M,KBNW 011100Z AUTO 31003KT 10SM CLR 03/03 A3020 RMK AO2
BNW,2017-04-01 11:10,-93.8486,42.0486,35.60,35.60,100.00,320.00,3.00,0.00,30.21,M,10.00,M,CLR,M,M,M,M,M,M,M,M,KBNW 011110Z AUTO 32003KT 10SM CLR 02/02 A3021 RMK AO2
BNW,2017-04-01 11:15,-93.8486,42.0486,35.60,35.60,100.00,330.00,4.00,0.00,30.20,M,10.00,M,CLR,M,M,M,M,M,M,M,M,KBNW 011115Z AUTO 33004KT 10SM CLR 02/02 A3020 RMK AO2
BNW,2017-04-01 11:20,-93.8486,42.0486,35.60,35.60,100.00,330.00,4.00,0.00,30.21,M,10.00,M,CLR,M,M,M,M,M,M,M,M,KBNW 011120Z AUTO 33004KT 10SM CLR 02/02 A3021 RMK AO2
BNW,2017-04-01 11:30,-93.8486,42.0486,35.60,35.60,100.00,330.00,5.00,0.00,30.21,M,10.00,M,CLR,M,M,M,M,M,M,M,M,KBNW 011130Z AUTO 33005KT 10SM CLR 02/02 A3021 RMK AO2
BNW,2017-04-01 11:35,-93.8486,42.0486,35.60,35.60,100.00,330.00,5.00,0.00,30.22,M,10.00,M,CLR,M,M,M,M,M,M,M,M,KBNW 011135Z AUTO 33005KT 10SM CLR 02/02 A3022 RMK AO2
BNW,2017-04-01 11:40,-93.8486,42.0486,33.80,33.80,100.00,340.00,5.00,0.00,30.22,M,10.00,M,CLR,M,M,M,M,M,M,M,M,KBNW 011140Z AUTO 34005KT 10SM CLR 01/01 A3022 RMK AO2
BNW,2017-04-01 11:50,-93.8486,42.0486,33.80,33.80,100.00,330.00,5.00,0.00,30.22,M,10.00,M,CLR,M,M,M,M,M,M,M,M,KBNW 011150Z AUTO 33005KT 10SM CLR 01/01 A3022 RMK AO2
BNW,2017-04-01 11:55,-93.8486,42.0486,35.60,35.60,100.00,330.00,4.00,0.00,30.23,M,10.00,M,CLR,M,M,M,M,M,M,M,M,KBNW 011155Z AUTO 33004KT 10SM CLR 02/02 A3023 RMK AO2
BNW,2017-04-01 12:00,-93.8486,42.0486,35.60,35.60,100.00,330.00,3.00,0.00,30.22,M,10.00,M,CLR,M,M,M,M,M,M,M,M,KBNW 011200Z AUTO 33003KT 10SM CLR 02/02 A3022 RMK AO2
BNW,2017-04-01 12:10,-93.8486,42.0486,35.60,35.60,100.00,0.00,0.00,0.00,30.22,M,10.00,M,CLR,M,M,M,M,M,M,M,M,KBNW 011210Z AUTO 00000KT 10SM CLR 02/02 A3022 RMK AO2
BNW,2017-04-01 12:15,-93.8486,42.0486,35.60,35.60,100.00,340.00,4.00,0.00,30.22,M,10.00,M,CLR,M,M,M,M,M,M,M,M,KBNW 011215Z AUTO 34004KT 10SM CLR 02/02 A3022 RMK AO2
BNW,2017-04-01 12:20,-93.8486,42.0486,35.60,35.60,100.00,350.00,3.00,0.00,30.22,M,10.00,M,CLR,M,M,M,M,M,M,M,M,KBNW 011220Z AUTO 35003KT 10SM CLR 02/02 A3022 RMK AO2
BNW,2017-04-01 12:30,-93.8486,42.0486,35.60,35.60,100.00,350.00,3.00,0.00,30.22,M,10.00,M,CLR,M,M,M,M,M,M,M,M,KBNW 011230Z AUTO 35003KT 10SM CLR 02/02 A3022 RMK AO2
BNW,2017-04-01 12:35,-93.8486,42.0486,35.60,35.60,100.00,0.00,0.00,0.00,30.22,M,10.00,M,CLR,M,M,M,M,M,M,M,M,KBNW 011235Z AUTO 00000KT 10SM CLR 02/02 A3022 RMK AO2
BNW,2017-04-01 12:40,-93.8486,42.0486,35.60,35.60,100.00,0.00,0.00,0.00,30.23,M,10.00,M,CLR,M,M,M,M,M,M,M,M,KBNW 011240Z AUTO 00000KT 10SM CLR 02/02 A3023 RMK AO2
BNW,2017-04-01 12:50,-93.8486,42.0486,35.60,35.60,100.00,350.00,4.00,0.00,30.23,M,10.00,M,CLR,M,M,M,M,M,M,M,M,KBNW 011250Z AUTO 35004KT 10SM CLR 02/02 A3023 RMK AO2
BNW,2017-04-01 12:55,-93.8486,42.0486,35.60,35.60,100.00,350.00,4.00,0.00,30.23,M,10.00,M,CLR,M,M,M,M,M,M,M,M,KBNW 011255Z AUTO 35004KT 10SM CLR 02/02 A3023 RMK AO2
BNW,2017-04-01 13:00,-93.8486,42.0486,37.40,37.40,100.00,360.00,5.00,0.00,30.23,M,10.00,M,CLR,M,M,M,M,M,M,M,M,KBNW 011300Z AUTO 36005KT 10SM CLR 03/03 A3023 RMK AO2
BNW,2017-04-01 13:10,-93.8486,42.0486,37.40,37.40,100.00,360.00,5.00,0.00,30.24,M,10.00,M,CLR,M,M,M,M,M,M,M,M,KBNW 011310Z AUTO 36005KT 10SM CLR 03/03 A3024 RMK AO2
BNW,2017-04-01 13:15,-93.8486,42.0486,39.20,39.20,100.00,360.00,7.00,0.00,30.23,M,10.00,M,CLR,M,M,M,M,M,M,M,M,KBNW 011315Z AUTO 36007KT 10SM CLR 04/04 A3023 RMK AO2
BNW,2017-04-01 13:20,-93.8486,42.0486,39.20,39.20,100.00,10.00,4.00,0.00,30.23,M,10.00,M,CLR,M,M,M,M,M,M,M,M,KBNW 011320Z AUTO 01004KT 10SM CLR 04/04 A3023 RMK AO2
BNW,2017-04-01 13:30,-93.8486,42.0486,39.20,39.20,100.00,10.00,6.00,0.00,30.22,M,10.00,M,CLR,M,M,M,M,M,M,M,M,KBNW 011330Z AUTO 01006KT 10SM CLR 04/04 A3022 RMK AO2
BNW,2017-04-01 13:35,-93.8486,42.0486,39.20,39.20,100.00,10.00,5.00,0.00,30.22,M,10.00,M,CLR,M,M,M,M,M,M,M,M,KBNW 011335Z AUTO 01005KT 10SM CLR 04/04 A3022 RMK AO2
BNW,2017-04-01 13:40,-93.8486,42.0486,39.20,39.20,100.00,20.00,5.00,0.00,30.22,M,10.00,M,CLR,M,M,M,M,M,M,M,M,KBNW 011340Z AUTO 02005KT 10SM CLR 04/04 A3022 RMK AO2
BNW,2017-04-01 13:50,-93.8486,42.0486,41.00,41.00,100.00,360.00,4.00,0.00,30.22,M,10.00,M,CLR,M,M,M,M,M,M,M,M,KBNW 011350Z AUTO 36004KT 10SM CLR 05/05 A3022 RMK AO2
BNW,2017-04-01 13:55,-93.8486,42.0486,41.00,41.00,100.00,350.00,4.00,0.00,30.23,M,10.00,M,CLR,M,M,M,M,M,M,M,M,KBNW 011355Z AUTO 35004KT 10SM CLR 05/05 A3023 RMK AO2
BNW,2017-04-01 14:00,-93.8486,42.0486,41.00,41.00,100.00,340.00,4.00,0.00,30.23,M,10.00,M,CLR,M,M,M,M,M,M,M,M,KBNW 011400Z AUTO 34004KT 10SM CLR 05/05 A3023 RMK AO2
BNW,2017-04-01 14:10,-93.8486,42.0486,42.80,41.00,93.30,340.00,4.00,0.00,30.23,M,10.00,M,CLR,M,M,M,M,M,M,M,M,KBNW 011410Z AUTO 34004KT 10SM CLR 06/05 A3023 RMK AO2
BNW,2017-04-01 14:15,-93.8486,42.0486,42.80,41.00,93.30,340.00,4.00,0.00,30.23,M,10.00,M,CLR,M,M,M,M,M,M,M,M,KBNW 011415Z AUTO 34004KT 10SM CLR 06/05 A3023 RMK AO2
BNW,2017-04-01 14:20,-93.8486,42.0486,42.80,41.00,93.30,350.00,4.00,0.00,30.23,M,10.00,M,CLR,M,M,M,M,M,M,M,M,KBNW 011420Z AUTO 35004KT 10SM CLR 06/05 A3023 RMK AO2
BNW,2017-04-01 14:30,-93.8486,42.0486,44.60,41.00,87.09,360.00,7.00,0.00,30.23,M,10.00,M,FEW,M,M,M,12000.00,M,M,M,M,KBNW 011430Z AUTO 36007KT 10SM FEW120 07/05 A3023 RMK AO2
BNW,2017-04-01 14:35,-93.8486,42.0486,44.60,41.00,87.09,360.00,5.00,0.00,30.23,M,10.00,M,CLR,M,M,M,M,M,M,M,M,KBNW 011435Z AUTO 36005KT 10SM CLR 07/05 A3023 RMK AO2
BNW,2017-04-01 14:40,-93.8486,42.0486,44.60,41.00,87.09,360.00,4.00,0.00,30.23,M,10.00,M,CLR,M,M,M,M,M,M,M,M,KBNW 011440Z AUTO 36004KT 10SM CLR 07/05 A3023 RMK AO2
BNW,2017-04-01 14:50,-93.8486,42.0486,44.60,41.00,87.09,350.00,3.00,0.00,30.24,M,10.00,M,CLR,M,M,M,M,M,M,M,M,KBNW 011450Z AUTO 35003KT 10SM CLR 07/05 A3024 RMK AO2
BNW,2017-04-01 14:55,-93.8486,42.0486,44.60,41.00,87.09,360.00,4.00,0.00,30.24,M,10.00,M,CLR,M,M,M,M,M,M,M,M,KBNW 011455Z AUTO 36004KT 10SM CLR 07/05 A3024 RMK AO2
BNW,2017-04-01 15:00,-93.8486,42.0486,46.40,39.20,75.84,350.00,3.00,0.00,30.24,M,10.00,M,CLR,M,M,M,M,M,M,M,M,KBNW 011500Z AUTO 35003KT 10SM CLR 08/04 A3024 RMK AO2
BNW,2017-04-01 15:10,-93.8486,42.0486,46.40,39.20,75.84,0.00,0.00,0.00,30.23,M,10.00,M,CLR,M,M,M,M,M,M,M,M,KBNW 011510Z AUTO 00000KT 10SM CLR 08/04 A3023 RMK AO2
BNW,2017-04-01 15:15,-93.8486,42.0486,46.40,37.40,70.68,0.00,0.00,0.00,30.24,M,10.00,M,CLR,M,M,M,M,M,M,M,M,KBNW 011515Z AUTO 00000KT 10SM CLR 08/03 A3024 RMK AO2
BNW,2017-04-01 15:20,-93.8486,42.0486,46.40,39.20,75.84,0.00,0.00,0.00,30.24,M,10.00,M,CLR,M,M,M,M,M,M,M,M,KBNW 011520Z AUTO 00000KT 10SM CLR 08/04 A3024 RMK AO2
BNW,2017-04-01 15:30,-93.8486,42.0486,46.40,37.40,70.68,0.00,0.00,0.00,30.24,M,10.00,M,CLR,M,M,M,M,M,M,M,M,KBNW 011530Z AUTO 00000KT 10SM CLR 08/03 A3024 RMK AO2
BNW,2017-04-01 15:35,-93.8486,42.0486,46.40,37.40,70.68,0.00,0.00,0.00,30.24,M,10.00,M,CLR,M,M,M,M,M,M,M,M,KBNW 011535Z AUTO 00000KT 10SM CLR 08/03 A3024 RMK AO2
BNW,2017-04-01 15:40,-93.8486,42.0486,48.20,37.40,66.05,0.00,0.00,0.00,30.24,M,10.00,M,CLR,M,M,M,M,M,M,M,M,KBNW 011540Z AUTO 00000KT 10SM CLR 09/03 A3024 RMK AO2
BNW,2017-04-01 15:50,-93.8486,42.0486,48.20,35.60,61.52,0.00,0.00,0.00,30.24,M,10.00,M,CLR,M,M,M,M,M,M,M,M,KBNW 011550Z AUTO 00000KT 10SM CLR 09/02 A3024 RMK AO2
BNW,2017-04-01 15:55,-93.8486,42.0486,48.20,35.60,61.52,0.00,0.00,0.00,30.25,M,10.00,M,CLR,M,M,M,M,M,M,M,M,KBNW 011555Z AUTO 00000KT 10SM CLR 09/02 A3025 RMK AO2
BNW,2017-04-01 16:00,-93.8486,42.0486,48.20,35.60,61.52,180.00,3.00,0.00,30.25,M,10.00,M,CLR,M,M,M,M,M,M,M,M,KBNW 011600Z AUTO 18003KT 10SM CLR 09/02 A3025 RMK AO2
BNW,2017-04-01 16:10,-93.8486,42.0486,48.20,37.40,66.05,0.00,0.00,0.00,30.25,M,10.00,M,FEW,M,M,M,12000.00,M,M,M,M,KBNW 011610Z AUTO 00000KT 10SM FEW120 09/03 A3025 RMK AO2
BNW,2017-04-01 16:15,-93.8486,42.0486,48.20,37.40,66.05,0.00,0.00,0.00,30.25,M,10.00,M,FEW,M,M,M,12000.00,M,M,M,M,KBNW 011615Z AUTO 00000KT 10SM FEW120 09/03 A3025 RMK AO2
BNW,2017-04-01 16:20,-93.8486,42.0486,50.00,37.40,61.76,0.00,0.00,0.00,30.25,M,10.00,M,CLR,M,M,M,M,M,M,M,M,KBNW 011620Z AUTO 00000KT 10SM CLR 10/03 A3025 RMK AO2
BNW,2017-04-01 16:30,-93.8486,42.0486,50.00,35.60,57.52,0.00,0.00,0.00,30.24,M,10.00,M,CLR,M,M,M,M,M,M,M,M,KBNW 011630Z AUTO 00000KT 10SM CLR 10/02 A3024 RMK AO2
BNW,2017-04-01 16:35,-93.8486,42.0486,50.00,35.60,57.52,0.00,0.00,0.00,30.24,M,10.00,M,CLR,M,M,M,M,M,M,M,M,KBNW 011635Z AUTO 00000KT 10SM CLR 10/02 A3024 RMK AO2
BNW,2017-04-01 16:40,-93.8486,42.0486,50.00,35.60,57.52,0.00,0.00,0.00,30.24,M,10.00,M,CLR,M,M,M,M,M,M,M,M,KBNW 011640Z AUTO 00000KT 10SM CLR 10/02 A3024 RMK AO2
BNW,2017-04-01 16:50,-93.8486,42.0486,50.00,37.40,61.76,0.00,0.00,0.00,30.24,M,10.00,M,CLR,M,M,M,M,M,M,M,M,KBNW 011650Z AUTO 00000KT 10SM CLR 10/03 A3024 RMK AO2
BNW,2017-04-01 16:55,-93.8486,42.0486,50.00,35.60,57.52,0.00,0.00,0.00,30.24,M,10.00,M,CLR,M,M,M,M,M,M,M,M,KBNW 011655Z AUTO 00000KT 10SM CLR 10/02 A3024 RMK AO2
BNW,2017-04-01 17:00,-93.8486,42.0486,50.00,35.60,57.52,0.00,0.00,0.00,30.24,M,10.00,M,CLR,M,M,M,M,M,M,M,M,KBNW 011700Z AUTO 00000KT 10SM CLR 10/02 A3024 RMK AO2
BNW,2017-04-01 17:10,-93.8486,42.0486,50.00,35.60,57.52,0.00,0.00,0.00,30.24,M,10.00,M,CLR,M,M,M,M,M,M,M,M,KBNW 011710Z AUTO 00000KT 10SM CLR 10/02 A3024 RMK AO2
BNW,2017-04-01 17:15,-93.8486,42.0486,50.00,35.60,57.52,0.00,0.00,0.00,30.24,M,10.00,M,CLR,M,M,M,M,M,M,M,M,KBNW 011715Z AUTO 00000KT 10SM CLR 10/02 A3024 RMK AO2
BNW,2017-04-01 17:20,-93.8486,42.0486,50.00,37.40,61.76,0.00,0.00,0.00,30.24,M,10.00,M,CLR,M,M,M,M,M,M,M,M,KBNW 011720Z AUTO 00000KT 10SM CLR 10/03 A3024 RMK AO2
BNW,2017-04-01 17:30,-93.8486,42.0486,50.00,35.60,57.52,120.00,3.00,0.00,30.23,M,10.00,M,FEW,M,M,M,11000.00,M,M,M,M,KBNW 011730Z AUTO 12003KT 10SM FEW110 10/02 A3023 RMK AO2
BNW,2017-04-01 17:35,-93.8486,42.0486,50.00,35.60,57.52,0.00,0.00,0.00,30.23,M,10.00,M,FEW,M,M,M,11000.00,M,M,M,M,KBNW 011735Z AUTO 00000KT 10SM FEW110 10/02 A3023 RMK AO2
BNW,2017-04-01 17:40,-93.8486,42.0486,50.00,35.60,57.52,0.00,0.00,0.00,30.23,M,10.00,M,FEW,M,M,M,11000.00,M,M,M,M,KBNW 011740Z AUTO 00000KT 10SM FEW110 10/02 A3023 RMK AO2
BNW,2017-04-01 17:50,-93.8486,42.0486,51.80,35.60,53.81,0.00,0.00,0.00,30.22,M,10.00,M,SCT,M,M,M,11000.00,M,M,M,M,KBNW 011750Z AUTO 00000KT 10SM SCT110 11/02 A3022 RMK AO2
BNW,2017-04-01 17:55,-93.8486,42.0486,51.80,35.60,53.81,0.00,0.00,0.00,30.22,M,10.00,M,FEW,M,M,M,11000.00,M,M,M,M,KBNW 011755Z AUTO 00000KT 10SM FEW110 11/02 A3022 RMK AO2
BNW,2017-04-01 18:00,-93.8486,42.0486,51.80,35.60,53.81,60.00,4.00,0.00,30.22,M,10.00,M,SCT,M,M,M,11000.00,M,M,M,M,KBNW 011800Z AUTO 06004KT 10SM SCT110 11/02 A3022 RMK AO2
BNW,2017-04-01 18:10,-93.8486,42.0486,51.80,35.60,53.81,M,3.00,0.00,30.21,M,10.00,M,SCT,M,M,M,11000.00,M,M,M,M,KBNW 011810Z AUTO VRB03KT 10SM SCT110 11/02 A3021 RMK AO2
BNW,2017-04-01 18:15,-93.8486,42.0486,51.80,35.60,53.81,140.00,5.00,0.00,30.21,M,10.00,M,SCT,M,M,M,11000.00,M,M,M,M,KBNW 011815Z AUTO 14005KT 10SM SCT110 11/02 A3021 RMK AO2
BNW,2017-04-01 18:20,-93.8486,42.0486,51.80,35.60,53.81,0.00,0.00,0.00,30.21,M,10.00,M,SCT,M,M,M,11000.00,M,M,M,M,KBNW 011820Z AUTO 00000KT 10SM SCT110 11/02 A3021 RMK AO2
BNW,2017-04-01 18:30,-93.8486,42.0486,51.80,35.60,53.81,0.00,0.00,0.00,30.21,M,10.00,M,SCT,M,M,M,11000.00,M,M,M,M,KBNW 011830Z AUTO 00000KT 10SM SCT110 11/02 A3021 RMK AO2
BNW,2017-04-01 18:35,-93.8486,42.0486,51.80,37.40,57.77,130.00,4.00,0.00,30.21,M,10.00,M,SCT,M,M,M,11000.00,M,M,M,M,KBNW 011835Z AUTO 13004KT 10SM SCT110 11/03 A3021 RMK AO2
BNW,2017-04-01 18:40,-93.8486,42.0486,51.80,37.40,57.77,M,3.00,0.00,30.21,M,10.00,M,SCT,M,M,M,11000.00,M,M,M,M,KBNW 011840Z AUTO VRB03KT 10SM SCT110 11/03 A3021 RMK AO2
BNW,2017-04-01 18:50,-93.8486,42.0486,51.80,37.40,57.77,160.00,6.00,0.00,30.21,M,10.00,M,SCT,M,M,M,11000.00,M,M,M,M,KBNW 011850Z AUTO 16006KT 10SM SCT110 11/03 A3021 RMK AO2
BNW,2017-04-01 18:55,-93.8486,42.0486,51.80,37.40,57.77,M,6.00,0.00,30.21,M,10.00,M,SCT,M,M,M,11000.00,M,M,M,M,KBNW 011855Z AUTO VRB06KT 10SM SCT110 11/03 A3021 RMK AO2
BNW,2017-04-01 19:00,-93.8486,42.0486,51.80,35.60,53.81,0.00,0.00,0.00,30.21,M,10.00,M,SCT,M,M,M,11000.00,M,M,M,M,KBNW 011900Z AUTO 00000KT 10SM SCT110 11/02 A3021 RMK AO2
BNW,2017-04-01 19:10,-93.8486,42.0486,53.60,35.60,50.36,M,3.00,0.00,30.21,M,10.00,M,FEW,M,M,M,11000.00,M,M,M,M,KBNW 011910Z AUTO VRB03KT 10SM FEW110 12/02 A3021 RMK AO2
BNW,2017-04-01 19:15,-93.8486,42.0486,53.60,35.60,50.36,0.00,0.00,0.00,30.20,M,10.00,M,FEW,M,M,M,11000.00,M,M,M,M,KBNW 011915Z AUTO 00000KT 10SM FEW110 12/02 A3020 RMK AO2
BNW,2017-04-01 19:20,-93.8486,42.0486,53.60,35.60,50.36,0.00,0.00,0.00,30.20,M,10.00,M,FEW,M,M,M,11000.00,M,M,M,M,KBNW 011920Z AUTO 00000KT 10SM FEW110 12/02 A3020 RMK AO2
BNW,2017-04-01 19:30,-93.8486,42.0486,53.60,35.60,50.36,0.00,0.00,0.00,30.20,M,10.00,M,CLR,M,M,M,M,M,M,M,M,KBNW 011930Z AUTO 00000KT 10SM CLR 12/02 A3020 RMK AO2
BNW,2017-04-01 19:35,-93.8486,42.0486,53.60,37.40,54.07,M,4.00,0.00,30.19,M,10.00,M,CLR,M,M,M,M,M,M,M,M,KBNW 011935Z AUTO VRB04KT 10SM CLR 12/03 A3019 RMK AO2
BNW,2017-04-01 19:40,-93.8486,42.0486,53.60,35.60,50.36,110.00,4.00,0.00,30.19,M,10.00,M,CLR,M,M,M,M,M,M,M,M,KBNW 011940Z AUTO 11004KT 10SM CLR 12/02 A3019 RMK AO2
BNW,2017-04-01 19:50,-93.8486,42.0486,53.60,35.60,50.36,140.00,4.00,0.00,30.20,M,10.00,M,SCT,M,M,M,12000.00,M,M,M,M,KBNW 011950Z AUTO 14004KT 10SM SCT120 12/02 A3020 RMK AO2
BNW,2017-04-01 19:55,-93.8486,42.0486,53.60,35.60,50.36,0.00,0.00,0.00,30.20,M,10.00,M,BKN,M,M,M,12000.00,M,M,M,M,KBNW 011955Z AUTO 00000KT 10SM BKN120 12/02 A3020 RMK AO2
BNW,2017-04-01 20:00,-93.8486,42.0486,53.60,37.40,54.07,200.00,4.00,0.00,30.20,M,10.00,M,BKN,M,M,M,12000.00,M,M,M,M,KBNW 012000Z AUTO 20004KT 10SM BKN120 12/03 A3020 RMK AO2
BNW,2017-04-01 20:10,-93.8486,42.0486,53.60,37.40,54.07,140.00,5.00,0.00,30.19,M,10.00,M,BKN,M,M,M,11000.00,M,M,M,M,KBNW 012010Z AUTO 14005KT 10SM BKN110 12/03 A3019 RMK AO2
BNW,2017-04-01 20:15,-93.8486,42.0486,51.80,37.40,57.77,130.00,5.00,0.00,30.19,M,M,M,OVC,M,M,M,11000.00,M,M,M,M,KBNW 012015Z AUTO 13005KT OVC110 11/03 A3019 RMK AO2
BNW,2017-04-01 20:20,-93.8486,42.0486,51.80,35.60,53.81,0.00,0.00,0.00,30.19,M,10.00,M,OVC,M,M,M,11000.00,M,M,M,M,KBNW 012020Z AUTO 00000KT 10SM OVC110 11/02 A3019 RMK AO2
BNW,2017-04-01 20:30,-93.8486,42.0486,51.80,35.60,53.81,110.00,4.00,0.00,30.18,M,10.00,M,OVC,M,M,M,11000.00,M,M,M,M,KBNW 012030Z AUTO 11004KT 10SM OVC110 11/02 A3018 RMK AO2
BNW,2017-04-01 20:35,-93.8486,42.0486,51.80,37.40,57.77,110.00,4.00,0.00,30.18,M,10.00,M,OVC,M,M,M,11000.00,M,M,M,M,KBNW 012035Z AUTO 11004KT 10SM OVC110 11/03 A3018 RMK AO2
BNW,2017-04-01 20:40,-93.8486,42.0486,51.80,37.40,57.77,120.00,4.00,0.00,30.18,M,10.00,M,OVC,M,M,M,11000.00,M,M,M,M,KBNW 012040Z AUTO 12004KT 10SM OVC110 11/03 A3018 RMK AO2
BNW,2017-04-01 20:50,-93.8486,42.0486,51.80,37.40,57.77,0.00,0.00,0.00,30.17,M,10.00,M,OVC,M,M,M,11000.00,M,M,M,M,KBNW 012050Z AUTO 00000KT 10SM OVC110 11/03 A3017 RMK AO2
BNW,2017-04-01 20:55,-93.8486,42.0486,51.80,37.40,57.77,0.00,0.00,0.00,30.17,M,10.00,M,OVC,M,M,M,11000.00,M,M,M,M,KBNW 012055Z AUTO 00000KT 10SM OVC110 11/03 A3017 RMK AO2
BNW,2017-04-01 21:00,-93.8486,42.0486,51.80,37.40,57.77,0.00,0.00,0.00,30.17,M,10.00,M,OVC,M,M,M,11000.00,M,M,M,M,KBNW 012100Z AUTO 00000KT 10SM OVC110 11/03 A3017 RMK AO2
BNW,2017-04-01 21:10,-93.8486,42.0486,51.80,37.40,57.77,0.00,0.00,0.00,30.17,M,10.00,M,OVC,M,M,M,11000.00,M,M,M,M,KBNW 012110Z AUTO 00000KT 10SM OVC110 11/03 A3017 RMK AO2
BNW,2017-04-01 21:15,-93.8486,42.0486,51.80,37.40,57.77,0.00,0.00,0.00,30.18,M,10.00,M,OVC,M,M,M,11000.00,M,M,M,M,KBNW 012115Z AUTO 00000KT 10SM OVC110 11/03 A3018 RMK AO2
BNW,2017-04-01 21:20,-93.8486,42.0486,51.80,37.40,57.77,0.00,0.00,0.00,30.18,M,10.00,M,OVC,M,M,M,11000.00,M,M,M,M,KBNW 012120Z AUTO 00000KT 10SM OVC110 11/03 A3018 RMK AO2
BNW,2017-04-01 21:30,-93.8486,42.0486,51.80,39.20,61.99,160.00,4.00,0.00,30.18,M,10.00,M,SCT,OVC,M,M,8500.00,11000.00,M,M,M,KBNW 012130Z AUTO 16004KT 10SM SCT085 OVC110 11/04 A3018 RMK AO2
BNW,2017-04-01 21:35,-93.8486,42.0486,51.80,39.20,61.99,160.00,3.00,0.00,30.17,M,10.00,M,SCT,OVC,M,M,8500.00,11000.00,M,M,M,KBNW 012135Z AUTO 16003KT 10SM SCT085 OVC110 11/04 A3017 RMK AO2
BNW,2017-04-01 21:40,-93.8486,42.0486,51.80,39.20,61.99,0.00,0.00,0.00,30.18,M,10.00,M,SCT,OVC,M,M,8500.00,11000.00,M,M,M,KBNW 012140Z AUTO 00000KT 10SM SCT085 OVC110 11/04 A3018 RMK AO2
BNW,2017-04-01 21:50,-93.8486,42.0486,53.60,39.20,58.02,0.00,0.00,0.00,30.17,M,10.00,M,FEW,OVC,M,M,8500.00,11000.00,M,M,M,KBNW 012150Z AUTO 00000KT 10SM FEW085 OVC110 12/04 A3017 RMK AO2
BNW,2017-04-01 21:55,-93.8486,42.0486,53.60,39.20,58.02,140.00,4.00,0.00,30.17,M,10.00,M,FEW,OVC,M,M,8500.00,11000.00,M,M,M,KBNW 012155Z AUTO 14004KT 10SM FEW085 OVC110 12/04 A3017 RMK AO2
BNW,2017-04-01 22:00,-93.8486,42.0486,53.60,39.20,58.02,110.00,4.00,0.00,30.17,M,10.00,M,SCT,OVC,M,M,8000.00,11000.00,M,M,M,KBNW 012200Z AUTO 11004KT 10SM SCT080 OVC110 12/04 A3017 RMK AO2
BNW,2017-04-01 22:10,-93.8486,42.0486,53.60,39.20,58.02,0.00,0.00,0.00,30.17,M,10.00,M,BKN,OVC,M,M,7500.00,11000.00,M,M,M,KBNW 012210Z AUTO 00000KT 10SM BKN075 OVC110 12/04 A3017 RMK AO2
BNW,2017-04-01 22:15,-93.8486,42.0486,53.60,39.20,58.02,140.00,3.00,0.00,30.17,M,10.00,M,BKN,OVC,M,M,7500.00,11000.00,M,M,M,KBNW 012215Z AUTO 14003KT 10SM BKN075 OVC110 12/04 A3017 RMK AO2
BNW,2017-04-01 22:20,-93.8486,42.0486,53.60,39.20,58.02,110.00,5.00,0.00,30.16,M,10.00,M,OVC,M,M,M,7500.00,M,M,M,M,KBNW 012220Z AUTO 11005KT 10SM OVC075 12/04 A3016 RMK AO2
BNW,2017-04-01 22:30,-93.8486,42.0486,51.80,39.20,61.99,150.00,5.00,0.00,30.16,M,10.00,M,OVC,M,M,M,7500.00,M,M,M,M,KBNW 012230Z AUTO 15005KT 10SM OVC075 11/04 A3016 RMK AO2
BNW,2017-04-01 22:35,-93.8486,42.0486,51.80,39.20,61.99,130.00,5.00,0.00,30.16,M,10.00,M,OVC,M,M,M,7500.00,M,M,M,M,KBNW 012235Z AUTO 13005KT 10SM OVC075 11/04 A3016 RMK AO2
BNW,2017-04-01 22:40,-93.8486,42.0486,51.80,39.20,61.99,130.00,5.00,0.00,30.16,M,10.00,M,OVC,M,M,M,7500.00,M,M,M,M,KBNW 012240Z AUTO 13005KT 10SM OVC075 11/04 A3016 RMK AO2
BNW,2017-04-01 22:50,-93.8486,42.0486,51.80,41.00,66.48,170.00,5.00,0.00,30.16,M,10.00,M,OVC,M,M,M,7500.00,M,M,M,M,KBNW 012250Z AUTO 17005KT 10SM OVC075 11/05 A3016 RMK AO2
BNW,2017-04-01 22:55,-93.8486,42.0486,51.80,41.00,66.48,170.00,5.00,0.00,30.16,M,10.00,M,OVC,M,M,M,7500.00,M,M,M,M,KBNW 012255Z AUTO 17005KT 10SM OVC075 11/05 A3016 RMK AO2
BNW,2017-04-01 23:00,-93.8486,42.0486,51.80,41.00,66.48,160.00,3.00,0.00,30.16,M,10.00,M,OVC,M,M,M,7500.00,M,M,M,M,KBNW 012300Z AUTO 16003KT 10SM OVC075 11/05 A3016 RMK AO2
BNW,2017-04-01 23:10,-93.8486,42.0486,51.80,41.00,66.48,M,M,0.00,30.17,M,10.00,M,OVC,M,M,M,7500.00,M,M,M,M,KBNW 012310Z AUTO 10SM OVC075 11/05 A3017 RMK AO2
BNW,2017-04-01 23:15,-93.8486,42.0486,51.80,41.00,66.48,180.00,5.00,0.00,30.16,M,10.00,M,OVC,M,M,M,7500.00,M,M,M,M,KBNW 012315Z AUTO 18005KT 10SM OVC075 11/05 A3016 RMK AO2
BNW,2017-04-01 23:20,-93.8486,42.0486,51.80,41.00,66.48,160.00,6.00,0.00,30.16,M,10.00,M,OVC,M,M,M,7500.00,M,M,M,M,KBNW 012320Z AUTO 16006KT 10SM OVC075 11/05 A3016 RMK AO2
BNW,2017-04-01 23:30,-93.8486,42.0486,51.80,41.00,66.48,190.00,5.00,0.00,30.16,M,10.00,M,OVC,M,M,M,7500.00,M,M,M,M,KBNW 012330Z AUTO 19005KT 10SM OVC075 11/05 A3016 RMK AO2
BNW,2017-04-01 23:35,-93.8486,42.0486,50.00,41.00,71.07,180.00,5.00,0.00,30.17,M,10.00,M,OVC,M,M,M,7500.00,M,M,M,M,KBNW 012335Z AUTO 18005KT 10SM OVC075 10/05 A3017 RMK AO2
BNW,2017-04-01 23:40,-93.8486,42.0486,50.00,41.00,71.07,170.00,4.00,0.00,30.16,M,10.00,M,OVC,M,M,M,7500.00,M,M,M,M,KBNW 012340Z AUTO 17004KT 10SM OVC075 10/05 A3016 RMK AO2
BNW,2017-04-01 23:50,-93.8486,42.0486,50.00,41.00,71.07,170.00,4.00,0.00,30.16,M,10.00,M,OVC,M,M,M,7500.00,M,M,M,M,KBNW 012350Z AUTO 17004KT 10SM OVC075 10/05 A3016 RMK AO2
BNW,2017-04-01 23:55,-93.8486,42.0486,50.00,41.00,71.07,170.00,4.00,0.00,30.16,M,10.00,M,OVC,M,M,M,7500.00,M,M,M,M,KBNW 012355Z AUTO 17004KT 10SM OVC075 10/05 A3016 RMK AO2
