#DEBUG: Format Typ    -> comma
#DEBUG: Time Period   -> 2017-04-01 00:00:00+00:00 2017-04-02 00:00:00+00:00
#DEBUG: Time Zone     -> Etc/UTC
#DEBUG: Data Contact   -> daryl herzmann akrherz@iastate.edu 515-294-5978
#DEBUG: Entries Found -> -1
station,valid,lon,lat,tmpf, dwpf, relh, drct, sknt, p01i, alti, mslp, vsby, gust, skyc1, skyc2, skyc3, skyc4, skyl1, skyl2, skyl3, skyl4, presentwx, metar
BOI,2017-04-01 00:00,-116.2406,43.5667,M,M,M,310.00,18.00,M,29.97,M,10.00,M,CLR,M,M,M,M,M,M,M,M,KBOI 010000Z AUTO 31018KT 10SM CLR A2997 RMK MADISHF
BOI,2017-04-01 00:05,-116.2406,43.5667,M,M,M,M,M,M,29.97,M,10.00,M,CLR,M,M,M,M,M,M,M,M,KBOI 010005Z AUTO /////KT 10SM CLR A2997 RMK MADISHF
BOI,2017-04-01 00:10,-116.2406,43.5667,M,M,M,310.00,18.00,M,29.98,M,10.00,M,CLR,M,M,M,M,M,M,M,M,KBOI 010010Z AUTO 31018KT 10SM CLR A2998 RMK MADISHF
BOI,2017-04-01 00:15,-116.2406,43.5667,M,M,M,310.00,21.00,M,29.98,M,10.00,M,CLR,M,M,M,M,M,M,M,M,KBOI 010015Z AUTO 31021KT 10SM CLR A2998 RMK MADISHF
BOI,2017-04-01 00:20,-116.2406,43.5667,M,M,M,M,M,M,29.98,M,10.00,M,CLR,M,M,M,M,M,M,M,M,KBOI 010020Z AUTO /////KT 10SM CLR A2998 RMK MADISHF
BOI,2017-04-01 00:25,-116.2406,43.5667,M,M,M,M,M,M,29.98,M,10.00,M,CLR,M,M,M,M,M,M,M,M,KBOI 010025Z AUTO /////KT 10SM CLR A2998 RMK MADISHF
BOI,2017-04-01 00:30,-116.2406,43.5667,M,M,M,310.00,20.00,M,29.98,M,10.00,M,CLR,M,M,M,M,M,M,M,M,KBOI 010030Z AUTO 31020KT 10SM CLR A2998 RMK MADISHF
BOI,2017-04-01 00:35,-116.2406,43.5667,M,M,M,310.00,23.00,M,29.98,M,10.00,M,CLR,M,M,M,M,M,M,M,M,KBOI 010035Z AUTO 31023KT 10SM CLR A2998 RMK MADISHF
BOI,2017-04-01 00:40,-116.2406,43.5667,M,M,M,310.00,20.00,M,29.98,M,10.00,M,CLR,M,M,M,M,M,M,M,M,KBOI 010040Z AUTO 31020KT 10SM CLR A2998 RMK MADISHF
BOI,2017-04-01 00:45,-116.2406,43.5667,M,M,M,320.00,21.00,M,29.98,M,10.00,M,CLR,M,M,M,M,M,M,M,M,KBOI 010045Z AUTO 32021KT 10SM CLR A2998 RMK MADISHF
BOI,2017-04-01 00:50,-116.2406,43.5667,M,M,M,M,M,M,29.98,M,10.00,M,CLR,M,M,M,M,M,M,M,M,KBOI 010050Z AUTO /////KT 10SM CLR A2998 RMK MADISHF
BOI,2017-04-01 00:53,-116.2406,43.5667,57.90,36.00,43.78,320.00,23.00,0.00,29.98,1015.00,10.00,28.00,CLR,M,M,M,M,M,M,M,M,KBOI 010053Z 32023G28KT 10SM CLR 14/02 A2998 RMK AO2 PK WND 32029/0020 SLP150 T01440022 $
BOI,2017-04-01 00:55,-116.2406,43.5667,M,M,M,320.00,20.00,M,29.98,M,10.00,M,CLR,M,M,M,M,M,M,M,M,KBOI 010055Z AUTO 32020KT 10SM CLR A2998 RMK MADISHF
BOI,2017-04-01 01:00,-116.2406,43.5667,M,M,M,M,M,M,29.98,M,10.00,M,CLR,M,M,M,M,M,M,M,M,KBOI 010100Z AUTO /////KT 10SM CLR A2998 RMK MADISHF
BOI,2017-04-01 01:05,-116.2406,43.5667,M,M,M,320.00,18.00,M,29.99,M,10.00,M,CLR,M,M,M,M,M,M,M,M,KBOI 010105Z AUTO 32018KT 10SM CLR A2999 RMK MADISHF
BOI,2017-04-01 01:10,-116.2406,43.5667,M,M,M,310.00,19.00,M,29.99,M,10.00,M,CLR,M,M,M,M,M,M,M,M,KBOI 010110Z AUTO 31019KT 10SM CLR A2999 RMK MADISHF
BOI,2017-04-01 01:15,-116.2406,43.5667,M,M,M,320.00,19.00,M,29.99,M,10.00,M,CLR,M,M,M,M,M,M,M,M,KBOI 010115Z AUTO 32019KT 10SM CLR A2999 RMK MADISHF
BOI,2017-04-01 01:20,-116.2406,43.5667,M,M,M,M,M,M,29.99,M,10.00,M,CLR,M,M,M,M,M,M,M,M,KBOI 010120Z AUTO /////KT 10SM CLR A2999 RMK MADISHF
BOI,2017-04-01 01:25,-116.2406,43.5667,M,M,M,320.00,17.00,M,29.99,M,10.00,M,CLR,M,M,M,M,M,M,M,M,KBOI 010125Z AUTO 32017KT 10SM CLR A2999 RMK MADISHF
BOI,2017-04-01 01:30,-116.2406,43.5667,M,M,M,M,M,M,29.99,M,10.00,M,CLR,M,M,M,M,M,M,M,M,KBOI 010130Z AUTO /////KT 10SM CLR A2999 RMK MADISHF
BOI,2017-04-01 01:35,-116.2406,43.5667,M,M,M,M,M,M,30.00,M,10.00,M,CLR,M,M,M,M,M,M,M,M,KBOI 010135Z AUTO /////KT 10SM CLR A3000 RMK MADISHF
BOI,2017-04-01 01:40,-116.2406,43.5667,M,M,M,M,M,M,29.99,M,10.00,M,CLR,M,M,M,M,M,M,M,M,KBOI 010140Z AUTO /////KT 10SM CLR A2999 RMK MADISHF
BOI,2017-04-01 01:45,-116.2406,43.5667,M,M,M,330.00,13.00,M,30.00,M,10.00,M,CLR,M,M,M,M,M,M,M,M,KBOI 010145Z AUTO 33013KT 10SM CLR A3000 RMK MADISHF
BOI,2017-04-01 01:50,-116.2406,43.5667,M,M,M,320.00,15.00,M,30.00,M,10.00,M,CLR,M,M,M,M,M,M,M,M,KBOI 010150Z AUTO 32015KT 10SM CLR A3000 RMK MADISHF
BOI,2017-04-01 01:53,-116.2406,43.5667,55.00,36.00,48.62,320.00,15.00,0.00,30.00,1015.70,10.00,M,CLR,M,M,M,M,M,M,M,M,KBOI 010153Z 32015KT 10SM CLR 13/02 A3000 RMK AO2 PK WND 32030/0057 SLP157 T01280022 $
BOI,2017-04-01 01:55,-116.2406,43.5667,M,M,M,310.00,15.00,M,30.00,M,10.00,M,CLR,M,M,M,M,M,M,M,M,KBOI 010155Z AUTO 31015KT 10SM CLR A3000 RMK MADISHF
BOI,2017-04-01 02:00,-116.2406,43.5667,M,M,M,310.00,11.00,M,30.00,M,10.00,M,CLR,M,M,M,M,M,M,M,M,KBOI 010200Z AUTO 31011KT 10SM CLR A3000 RMK MADISHF
BOI,2017-04-01 02:05,-116.2406,43.5667,M,M,M,310.00,13.00,M,30.00,M,10.00,M,CLR,M,M,M,M,M,M,M,M,KBOI 010205Z AUTO 31013KT 10SM CLR A3000 RMK MADISHF
BOI,2017-04-01 02:10,-116.2406,43.5667,M,M,M,310.00,13.00,M,30.00,M,10.00,M,CLR,M,M,M,M,M,M,M,M,KBOI 010210Z AUTO 31013KT 10SM CLR A3000 RMK MADISHF
BOI,2017-04-01 02:15,-116.2406,43.5667,M,M,M,320.00,15.00,M,30.00,M,10.00,M,CLR,M,M,M,M,M,M,M,M,KBOI 010215Z AUTO 32015KT 10SM CLR A3000 RMK MADISHF
BOI,2017-04-01 02:20,-116.2406,43.5667,M,M,M,320.00,14.00,M,30.00,M,10.00,M,CLR,M,M,M,M,M,M,M,M,KBOI 010220Z AUTO 32014KT 10SM CLR A3000 RMK MADISHF
BOI,2017-04-01 02:25,-116.2406,43.5667,M,M,M,320.00,12.00,M,30.00,M,10.00,M,CLR,M,M,M,M,M,M,M,M,KBOI 010225Z AUTO 32012KT 10SM CLR A3000 RMK MADISHF
BOI,2017-04-01 02:30,-116.2406,43.5667,M,M,M,320.00,12.00,M,30.01,M,10.00,M,CLR,M,M,M,M,M,M,M,M,KBOI 010230Z AUTO 32012KT 10SM CLR A3001 RMK MADISHF
BOI,2017-04-01 02:35,-116.2406,43.5667,M,M,M,320.00,11.00,M,30.01,M,10.00,M,CLR,M,M,M,M,M,M,M,M,KBOI 010235Z AUTO 32011KT 10SM CLR A3001 RMK MADISHF
BOI,2017-04-01 02:40,-116.2406,43.5667,M,M,M,320.00,10.00,M,30.01,M,10.00,M,CLR,M,M,M,M,M,M,M,M,KBOI 010240Z AUTO 32010KT 10SM CLR A3001 RMK MADISHF
BOI,2017-04-01 02:45,-116.2406,43.5667,M,M,M,310.00,9.00,M,30.02,M,10.00,M,CLR,M,M,M,M,M,M,M,M,KBOI 010245Z AUTO 31009KT 10SM CLR A3002 RMK MADISHF
BOI,2017-04-01 02:50,-116.2406,43.5667,M,M,M,290.00,8.00,M,30.02,M,10.00,M,CLR,M,M,M,M,M,M,M,M,KBOI 010250Z AUTO 29008KT 10SM CLR A3002 RMK MADISHF
BOI,2017-04-01 02:53,-116.2406,43.5667,52.00,36.00,54.26,290.00,8.00,0.00,30.02,1016.50,10.00,M,CLR,M,M,M,M,M,M,M,M,KBOI 010253Z 29008KT 10SM CLR 11/02 A3002 RMK AO2 SLP165 T01110022 53015 $
BOI,2017-04-01 02:55,-116.2406,43.5667,M,M,M,M,M,M,30.02,M,10.00,M,CLR,M,M,M,M,M,M,M,M,KBOI 010255Z AUTO /////KT 10SM CLR A3002 RMK MADISHF
BOI,2017-04-01 03:00,-116.2406,43.5667,M,M,M,M,M,M,30.02,M,10.00,M,CLR,M,M,M,M,M,M,M,M,KBOI 010300Z AUTO /////KT 10SM CLR A3002 RMK MADISHF
BOI,2017-04-01 03:05,-116.2406,43.5667,M,M,M,280.00,12.00,M,30.03,M,10.00,M,CLR,M,M,M,M,M,M,M,M,KBOI 010305Z AUTO 28012KT 10SM CLR A3003 RMK MADISHF
BOI,2017-04-01 03:10,-116.2406,43.5667,M,M,M,290.00,10.00,M,30.03,M,10.00,M,CLR,M,M,M,M,M,M,M,M,KBOI 010310Z AUTO 29010KT 10SM CLR A3003 RMK MADISHF
BOI,2017-04-01 03:15,-116.2406,43.5667,M,M,M,290.00,12.00,M,30.03,M,10.00,M,CLR,M,M,M,M,M,M,M,M,KBOI 010315Z AUTO 29012KT 10SM CLR A3003 RMK MADISHF
BOI,2017-04-01 03:20,-116.2406,43.5667,M,M,M,280.00,12.00,M,30.03,M,10.00,M,CLR,M,M,M,M,M,M,M,M,KBOI 010320Z AUTO 28012KT 10SM CLR A3003 RMK MADISHF
BOI,2017-04-01 03:25,-116.2406,43.5667,M,M,M,280.00,12.00,M,30.04,M,10.00,M,CLR,M,M,M,M,M,M,M,M,KBOI 010325Z AUTO 28012KT 10SM CLR A3004 RMK MADISHF
BOI,2017-04-01 03:30,-116.2406,43.5667,M,M,M,300.00,14.00,M,30.04,M,10.00,M,CLR,M,M,M,M,M,M,M,M,KBOI 010330Z AUTO 30014KT 10SM CLR A3004 RMK MADISHF
BOI,2017-04-01 03:35,-116.2406,43.5667,M,M,M,310.00,15.00,M,30.04,M,10.00,M,CLR,M,M,M,M,M,M,M,M,KBOI 010335Z AUTO 31015KT 10SM CLR A3004 RMK MADISHF
BOI,2017-04-01 03:40,-116.2406,43.5667,M,M,M,M,M,M,30.04,M,10.00,M,CLR,M,M,M,M,M,M,M,M,KBOI 010340Z AUTO /////KT 10SM CLR A3004 RMK MADISHF
BOI,2017-04-01 03:45,-116.2406,43.5667,M,M,M,310.00,14.00,M,30.04,M,10.00,M,CLR,M,M,M,M,M,M,M,M,KBOI 010345Z AUTO 31014KT 10SM CLR A3004 RMK MADISHF
BOI,2017-04-01 03:50,-116.2406,43.5667,M,M,M,310.00,13.00,M,30.04,M,10.00,M,CLR,M,M,M,M,M,M,M,M,KBOI 010350Z AUTO 31013KT 10SM CLR A3004 RMK MADISHF
BOI,2017-04-01 03:53,-116.2406,43.5667,48.90,36.00,60.88,310.00,12.00,0.00,30.04,1017.40,10.00,M,CLR,M,M,M,M,M,M,M,M,KBOI 010353Z 31012KT 10SM CLR 09/02 A3004 RMK AO2 SLP174 T00940022 $
BOI,2017-04-01 03:55,-116.2406,43.5667,M,M,M,300.00,12.00,M,30.05,M,10.00,M,CLR,M,M,M,M,M,M,M,M,KBOI 010355Z AUTO 30012KT 10SM CLR A3005 RMK MADISHF
BOI,2017-04-01 04:00,-116.2406,43.5667,M,M,M,300.00,13.00,M,30.05,M,10.00,M,CLR,M,M,M,M,M,M,M,M,KBOI 010400Z AUTO 30013KT 10SM CLR A3005 RMK MADISHF
BOI,2017-04-01 04:05,-116.2406,43.5667,M,M,M,310.00,12.00,M,30.05,M,10.00,M,CLR,M,M,M,M,M,M,M,M,KBOI 010405Z AUTO 31012KT 10SM CLR A3005 RMK MADISHF
BOI,2017-04-01 04:10,-116.2406,43.5667,M,M,M,330.00,13.00,M,30.05,M,10.00,M,CLR,M,M,M,M,M,M,M,M,KBOI 010410Z AUTO 33013KT 10SM CLR A3005 RMK MADISHF
BOI,2017-04-01 04:15,-116.2406,43.5667,M,M,M,330.00,10.00,M,30.05,M,10.00,M,CLR,M,M,M,M,M,M,M,M,KBOI 010415Z AUTO 33010KT 10SM CLR A3005 RMK MADISHF
BOI,2017-04-01 04:20,-116.2406,43.5667,M,M,M,300.00,7.00,M,30.05,M,10.00,M,CLR,M,M,M,M,M,M,M,M,KBOI 010420Z AUTO 30007KT 10SM CLR A3005 RMK MADISHF
BOI,2017-04-01 04:25,-116.2406,43.5667,M,M,M,300.00,10.00,M,30.05,M,10.00,M,CLR,M,M,M,M,M,M,M,M,KBOI 010425Z AUTO 30010KT 10SM CLR A3005 RMK MADISHF
BOI,2017-04-01 04:30,-116.2406,43.5667,M,M,M,270.00,8.00,M,30.05,M,10.00,M,CLR,M,M,M,M,M,M,M,M,KBOI 010430Z AUTO 27008KT 10SM CLR A3005 RMK MADISHF
BOI,2017-04-01 04:35,-116.2406,43.5667,M,M,M,250.00,8.00,M,30.05,M,10.00,M,CLR,M,M,M,M,M,M,M,M,KBOI 010435Z AUTO 25008KT 10SM CLR A3005 RMK MADISHF
BOI,2017-04-01 04:40,-116.2406,43.5667,M,M,M,260.00,8.00,M,30.05,M,10.00,M,CLR,M,M,M,M,M,M,M,M,KBOI 010440Z AUTO 26008KT 10SM CLR A3005 RMK MADISHF
BOI,2017-04-01 04:45,-116.2406,43.5667,M,M,M,280.00,11.00,M,30.05,M,10.00,M,CLR,M,M,M,M,M,M,M,M,KBOI 010445Z AUTO 28011KT 10SM CLR A3005 RMK MADISHF
BOI,2017-04-01 04:50,-116.2406,43.5667,M,M,M,290.00,11.00,M,30.05,M,10.00,M,CLR,M,M,M,M,M,M,M,M,KBOI 010450Z AUTO 29011KT 10SM CLR A3005 RMK MADISHF
BOI,2017-04-01 04:53,-116.2406,43.5667,48.90,34.00,56.23,300.00,13.00,0.00,30.05,1017.40,10.00,M,CLR,M,M,M,M,M,M,M,M,KBOI 010453Z 30013KT 10SM CLR 09/01 A3005 RMK AO2 SLP174 T00940011 $
BOI,2017-04-01 04:55,-116.2406,43.5667,M,M,M,300.00,12.00,M,30.05,M,10.00,M,CLR,M,M,M,M,M,M,M,M,KBOI 010455Z AUTO 30012KT 10SM CLR A3005 RMK MADISHF
BOI,2017-04-01 05:00,-116.2406,43.5667,M,M,M,300.00,11.00,M,30.05,M,10.00,M,CLR,M,M,M,M,M,M,M,M,KBOI 010500Z AUTO 30011KT 10SM CLR A3005 RMK MADISHF
BOI,2017-04-01 05:05,-116.2406,43.5667,M,M,M,300.00,11.00,M,30.05,M,10.00,M,CLR,M,M,M,M,M,M,M,M,KBOI 010505Z AUTO 30011KT 10SM CLR A3005 RMK MADISHF
BOI,2017-04-01 05:10,-116.2406,43.5667,M,M,M,270.00,8.00,M,30.06,M,10.00,M,CLR,M,M,M,M,M,M,M,M,KBOI 010510Z AUTO 27008KT 10SM CLR A3006 RMK MADISHF
BOI,2017-04-01 05:15,-116.2406,43.5667,M,M,M,220.00,7.00,M,30.06,M,10.00,M,CLR,M,M,M,M,M,M,M,M,KBOI 010515Z AUTO 22007KT 10SM CLR A3006 RMK MADISHF
BOI,2017-04-01 05:20,-116.2406,43.5667,M,M,M,200.00,10.00,M,30.06,M,10.00,M,CLR,M,M,M,M,M,M,M,M,KBOI 010520Z AUTO 20010KT 10SM CLR A3006 RMK MADISHF
BOI,2017-04-01 05:25,-116.2406,43.5667,M,M,M,230.00,7.00,M,30.06,M,10.00,M,CLR,M,M,M,M,M,M,M,M,KBOI 010525Z AUTO 23007KT 10SM CLR A3006 RMK MADISHF
BOI,2017-04-01 05:30,-116.2406,43.5667,M,M,M,250.00,10.00,M,30.07,M,10.00,M,CLR,M,M,M,M,M,M,M,M,KBOI 010530Z AUTO 25010KT 10SM CLR A3007 RMK MADISHF
BOI,2017-04-01 05:35,-116.2406,43.5667,M,M,M,290.00,11.00,M,30.07,M,10.00,M,CLR,M,M,M,M,M,M,M,M,KBOI 010535Z AUTO 29011KT 10SM CLR A3007 RMK MADISHF
BOI,2017-04-01 05:40,-116.2406,43.5667,M,M,M,290.00,10.00,M,30.06,M,10.00,M,CLR,M,M,M,M,M,M,M,M,KBOI 010540Z AUTO 29010KT 10SM CLR A3006 RMK MADISHF
BOI,2017-04-01 05:45,-116.2406,43.5667,M,M,M,280.00,8.00,M,30.07,M,10.00,M,CLR,M,M,M,M,M,M,M,M,KBOI 010545Z AUTO 28008KT 10SM CLR A3007 RMK MADISHF
BOI,2017-04-01 05:50,-116.2406,43.5667,M,M,M,270.00,7.00,M,30.07,M,10.00,M,CLR,M,M,M,M,M,M,M,M,KBOI 010550Z AUTO 27007KT 10SM CLR A3007 RMK MADISHF
BOI,2017-04-01 05:53,-116.2406,43.5667,46.00,35.10,65.52,270.00,7.00,0.00,30.07,1018.10,10.00,M,CLR,M,M,M,M,M,M,M,M,KBOI 010553Z 27007KT 10SM CLR 08/02 A3007 RMK AO2 SLP181 T00780017 10156 20072 51017 $
BOI,2017-04-01 05:55,-116.2406,43.5667,M,M,M,280.00,8.00,M,30.08,M,10.00,M,CLR,M,M,M,M,M,M,M,M,KBOI 010555Z AUTO 28008KT 10SM CLR A3008 RMK MADISHF
BOI,2017-04-01 06:00,-116.2406,43.5667,M,M,M,280.00,8.00,M,30.08,M,10.00,M,CLR,M,M,M,M,M,M,M,M,KBOI 010600Z AUTO 28008KT 10SM CLR A3008 RMK MADISHF
BOI,2017-04-01 06:05,-116.2406,43.5667,M,M,M,290.00,8.00,M,30.08,M,10.00,M,CLR,M,M,M,M,M,M,M,M,KBOI 010605Z AUTO 29008KT 10SM CLR A3008 RMK MADISHF
BOI,2017-04-01 06:10,-116.2406,43.5667,M,M,M,300.00,9.00,M,30.08,M,10.00,M,CLR,M,M,M,M,M,M,M,M,KBOI 010610Z AUTO 30009KT 10SM CLR A3008 RMK MADISHF
BOI,2017-04-01 06:15,-116.2406,43.5667,M,M,M,280.00,6.00,M,30.08,M,10.00,M,CLR,M,M,M,M,M,M,M,M,KBOI 010615Z AUTO 28006KT 10SM CLR A3008 RMK MADISHF
BOI,2017-04-01 06:20,-116.2406,43.5667,M,M,M,230.00,4.00,M,30.08,M,10.00,M,CLR,M,M,M,M,M,M,M,M,KBOI 010620Z AUTO 23004KT 10SM CLR A3008 RMK MADISHF
BOI,2017-04-01 06:25,-116.2406,43.5667,M,M,M,290.00,6.00,M,30.08,M,10.00,M,CLR,M,M,M,M,M,M,M,M,KBOI 010625Z AUTO 29006KT 10SM CLR A3008 RMK MADISHF
BOI,2017-04-01 06:30,-116.2406,43.5667,M,M,M,300.00,6.00,M,30.08,M,10.00,M,CLR,M,M,M,M,M,M,M,M,KBOI 010630Z AUTO 30006KT 10SM CLR A3008 RMK MADISHF
BOI,2017-04-01 06:35,-116.2406,43.5667,M,M,M,280.00,4.00,M,30.09,M,10.00,M,CLR,M,M,M,M,M,M,M,M,KBOI 010635Z AUTO 28004KT 10SM CLR A3009 RMK MADISHF
BOI,2017-04-01 06:40,-116.2406,43.5667,M,M,M,290.00,4.00,M,30.09,M,10.00,M,CLR,M,M,M,M,M,M,M,M,KBOI 010640Z AUTO 29004KT 10SM CLR A3009 RMK MADISHF
BOI,2017-04-01 06:45,-116.2406,43.5667,M,M,M,280.00,4.00,M,30.09,M,10.00,M,CLR,M,M,M,M,M,M,M,M,KBOI 010645Z AUTO 28004KT 10SM CLR A3009 RMK MADISHF
BOI,2017-04-01 06:50,-116.2406,43.5667,M,M,M,290.00,5.00,M,30.09,M,10.00,M,CLR,M,M,M,M,M,M,M,M,KBOI 010650Z AUTO 29005KT 10SM CLR A3009 RMK MADISHF
BOI,2017-04-01 06:53,-116.2406,43.5667,45.00,34.00,65.13,300.00,5.00,0.00,30.09,1018.70,10.00,M,CLR,M,M,M,M,M,M,M,M,KBOI 010653Z 30005KT 10SM CLR 07/01 A3009 RMK AO2 SLP187 T00720011 401610044 $
BOI,2017-04-01 06:55,-116.2406,43.5667,M,M,M,290.00,5.00,M,30.09,M,10.00,M,CLR,M,M,M,M,M,M,M,M,KBOI 010655Z AUTO 29005KT 10SM CLR A3009 RMK MADISHF
BOI,2017-04-01 07:00,-116.2406,43.5667,M,M,M,250.00,6.00,M,30.10,M,10.00,M,CLR,M,M,M,M,M,M,M,M,KBOI 010700Z AUTO 25006KT 10SM CLR A3010 RMK MADISHF
BOI,2017-04-01 07:05,-116.2406,43.5667,M,M,M,240.00,5.00,M,30.10,M,10.00,M,CLR,M,M,M,M,M,M,M,M,KBOI 010705Z AUTO 24005KT 10SM CLR A3010 RMK MADISHF
BOI,2017-04-01 07:10,-116.2406,43.5667,M,M,M,240.00,5.00,M,30.10,M,10.00,M,CLR,M,M,M,M,M,M,M,M,KBOI 010710Z AUTO 24005KT 10SM CLR A3010 RMK MADISHF
BOI,2017-04-01 07:15,-116.2406,43.5667,M,M,M,280.00,7.00,M,30.10,M,10.00,M,CLR,M,M,M,M,M,M,M,M,KBOI 010715Z AUTO 28007KT 10SM CLR A3010 RMK MADISHF
BOI,2017-04-01 07:20,-116.2406,43.5667,M,M,M,270.00,8.00,M,30.10,M,10.00,M,CLR,M,M,M,M,M,M,M,M,KBOI 010720Z AUTO 27008KT 10SM CLR A3010 RMK MADISHF
BOI,2017-04-01 07:25,-116.2406,43.5667,M,M,M,280.00,8.00,M,30.10,M,10.00,M,CLR,M,M,M,M,M,M,M,M,KBOI 010725Z AUTO 28008KT 10SM CLR A3010 RMK MADISHF
BOI,2017-04-01 07:30,-116.2406,43.5667,M,M,M,280.00,7.00,M,30.10,M,10.00,M,CLR,M,M,M,M,M,M,M,M,KBOI 010730Z AUTO 28007KT 10SM CLR A3010 RMK MADISHF
BOI,2017-04-01 07:35,-116.2406,43.5667,M,M,M,270.00,6.00,M,30.11,M,10.00,M,CLR,M,M,M,M,M,M,M,M,KBOI 010735Z AUTO 27006KT 10SM CLR A3011 RMK MADISHF
BOI,2017-04-01 07:40,-116.2406,43.5667,M,M,M,270.00,6.00,M,30.11,M,10.00,M,CLR,M,M,M,M,M,M,M,M,KBOI 010740Z AUTO 27006KT 10SM CLR A3011 RMK MADISHF
BOI,2017-04-01 07:45,-116.2406,43.5667,M,M,M,280.00,7.00,M,30.11,M,10.00,M,CLR,M,M,M,M,M,M,M,M,KBOI 010745Z AUTO 28007KT 10SM CLR A3011 RMK MADISHF
BOI,2017-04-01 07:50,-116.2406,43.5667,M,M,M,290.00,5.00,M,30.11,M,10.00,M,CLR,M,M,M,M,M,M,M,M,KBOI 010750Z AUTO 29005KT 10SM CLR A3011 RMK MADISHF
BOI,2017-04-01 07:53,-116.2406,43.5667,43.00,34.00,70.30,280.00,5.00,0.00,30.12,1019.50,10.00,M,CLR,M,M,M,M,M,M,M,M,KBOI 010753Z 28005KT 10SM CLR 06/01 A3012 RMK AO2 SLP195 T00610011 $
BOI,2017-04-01 07:55,-116.2406,43.5667,M,M,M,270.00,4.00,M,30.11,M,10.00,M,CLR,M,M,M,M,M,M,M,M,KBOI 010755Z AUTO 27004KT 10SM CLR A3011 RMK MADISHF
BOI,2017-04-01 08:00,-116.2406,43.5667,M,M,M,240.00,3.00,M,30.11,M,10.00,M,CLR,M,M,M,M,M,M,M,M,KBOI 010800Z AUTO 24003KT 10SM CLR A3011 RMK MADISHF
BOI,2017-04-01 08:05,-116.2406,43.5667,M,M,M,0.00,0.00,M,30.12,M,10.00,M,CLR,M,M,M,M,M,M,M,M,KBOI 010805Z AUTO 00000KT 10SM CLR A3012 RMK MADISHF
BOI,2017-04-01 08:10,-116.2406,43.5667,M,M,M,0.00,0.00,M,30.12,M,10.00,M,CLR,M,M,M,M,M,M,M,M,KBOI 010810Z AUTO 00000KT 10SM CLR A3012 RMK MADISHF
BOI,2017-04-01 08:15,-116.2406,43.5667,M,M,M,0.00,0.00,M,30.12,M,10.00,M,CLR,M,M,M,M,M,M,M,M,KBOI 010815Z AUTO 00000KT 10SM CLR A3012 RMK MADISHF
BOI,2017-04-01 08:20,-116.2406,43.5667,M,M,M,300.00,4.00,M,30.12,M,10.00,M,CLR,M,M,M,M,M,M,M,M,KBOI 010820Z AUTO 30004KT 10SM CLR A3012 RMK MADISHF
BOI,2017-04-01 08:25,-116.2406,43.5667,M,M,M,300.00,3.00,M,30.12,M,10.00,M,CLR,M,M,M,M,M,M,M,M,KBOI 010825Z AUTO 30003KT 10SM CLR A3012 RMK MADISHF
BOI,2017-04-01 08:30,-116.2406,43.5667,M,M,M,0.00,0.00,M,30.12,M,10.00,M,CLR,M,M,M,M,M,M,M,M,KBOI 010830Z AUTO 00000KT 10SM CLR A3012 RMK MADISHF
BOI,2017-04-01 08:35,-116.2406,43.5667,M,M,M,310.00,3.00,M,30.12,M,10.00,M,CLR,M,M,M,M,M,M,M,M,KBOI 010835Z AUTO 31003KT 10SM CLR A3012 RMK MADISHF
BOI,2017-04-01 08:40,-116.2406,43.5667,M,M,M,0.00,0.00,M,30.13,M,10.00,M,CLR,M,M,M,M,M,M,M,M,KBOI 010840Z AUTO 00000KT 10SM CLR A3013 RMK MADISHF
BOI,2017-04-01 08:45,-116.2406,43.5667,M,M,M,0.00,0.00,M,30.13,M,10.00,M,CLR,M,M,M,M,M,M,M,M,KBOI 010845Z AUTO 00000KT 10SM CLR A3013 RMK MADISHF
BOI,2017-04-01 08:50,-116.2406,43.5667,M,M,M,0.00,0.00,M,30.13,M,10.00,M,CLR,M,M,M,M,M,M,M,M,KBOI 010850Z AUTO 00000KT 10SM CLR A3013 RMK MADISHF
BOI,2017-04-01 08:53,-116.2406,43.5667,41.00,34.00,75.94,0.00,0.00,0.00,30.13,1019.90,10.00,M,CLR,M,M,M,M,M,M,M,M,KBOI 010853Z 00000KT 10SM CLR 05/01 A3013 RMK AO2 SLP199 T00500011 51016 $
BOI,2017-04-01 08:55,-116.2406,43.5667,M,M,M,0.00,0.00,M,30.13,M,10.00,M,CLR,M,M,M,M,M,M,M,M,KBOI 010855Z AUTO 00000KT 10SM CLR A3013 RMK MADISHF
BOI,2017-04-01 09:00,-116.2406,43.5667,M,M,M,0.00,0.00,M,30.13,M,10.00,M,CLR,M,M,M,M,M,M,M,M,KBOI 010900Z AUTO 00000KT 10SM CLR A3013 RMK MADISHF
BOI,2017-04-01 09:05,-116.2406,43.5667,M,M,M,0.00,0.00,M,30.13,M,10.00,M,CLR,M,M,M,M,M,M,M,M,KBOI 010905Z AUTO 00000KT 10SM CLR A3013 RMK MADISHF
BOI,2017-04-01 09:10,-116.2406,43.5667,M,M,M,0.00,0.00,M,30.13,M,10.00,M,CLR,M,M,M,M,M,M,M,M,KBOI 010910Z AUTO 00000KT 10SM CLR A3013 RMK MADISHF
BOI,2017-04-01 09:15,-116.2406,43.5667,M,M,M,0.00,0.00,M,30.13,M,10.00,M,CLR,M,M,M,M,M,M,M,M,KBOI 010915Z AUTO 00000KT 10SM CLR A3013 RMK MADISHF
BOI,2017-04-01 09:20,-116.2406,43.5667,M,M,M,0.00,0.00,M,30.13,M,10.00,M,CLR,M,M,M,M,M,M,M,M,KBOI 010920Z AUTO 00000KT 10SM CLR A3013 RMK MADISHF
BOI,2017-04-01 09:25,-116.2406,43.5667,M,M,M,0.00,0.00,M,30.13,M,10.00,M,CLR,M,M,M,M,M,M,M,M,KBOI 010925Z AUTO 00000KT 10SM CLR A3013 RMK MADISHF
BOI,2017-04-01 09:30,-116.2406,43.5667,M,M,M,0.00,0.00,M,30.13,M,10.00,M,CLR,M,M,M,M,M,M,M,M,KBOI 010930Z AUTO 00000KT 10SM CLR A3013 RMK MADISHF
BOI,2017-04-01 09:35,-116.2406,43.5667,M,M,M,300.00,3.00,M,30.13,M,10.00,M,CLR,M,M,M,M,M,M,M,M,KBOI 010935Z AUTO 30003KT 10SM CLR A3013 RMK MADISHF
BOI,2017-04-01 09:40,-116.2406,43.5667,M,M,M,280.00,3.00,M,30.13,M,10.00,M,CLR,M,M,M,M,M,M,M,M,KBOI 010940Z AUTO 28003KT 10SM CLR A3013 RMK MADISHF
BOI,2017-04-01 09:45,-116.2406,43.5667,M,M,M,330.00,3.00,M,30.13,M,10.00,M,CLR,M,M,M,M,M,M,M,M,KBOI 010945Z AUTO 33003KT 10SM CLR A3013 RMK MADISHF
BOI,2017-04-01 09:50,-116.2406,43.5667,M,M,M,320.00,4.00,M,30.13,M,10.00,M,CLR,M,M,M,M,M,M,M,M,KBOI 010950Z AUTO 32004KT 10SM CLR A3013 RMK MADISHF
BOI,2017-04-01 09:53,-116.2406,43.5667,41.00,34.00,75.94,320.00,4.00,0.00,30.13,1020.00,10.00,M,CLR,M,M,M,M,M,M,M,M,KBOI 010953Z 32004KT 10SM CLR 05/01 A3013 RMK AO2 SLP200 T00500011 $
BOI,2017-04-01 09:55,-116.2406,43.5667,M,M,M,310.00,4.00,M,30.13,M,10.00,M,CLR,M,M,M,M,M,M,M,M,KBOI 010955Z AUTO 31004KT 10SM CLR A3013 RMK MADISHF
BOI,2017-04-01 10:00,-116.2406,43.5667,M,M,M,290.00,4.00,M,30.13,M,10.00,M,CLR,M,M,M,M,M,M,M,M,KBOI 011000Z AUTO 29004KT 10SM CLR A3013 RMK MADISHF
BOI,2017-04-01 10:05,-116.2406,43.5667,M,M,M,260.00,3.00,M,30.13,M,10.00,M,CLR,M,M,M,M,M,M,M,M,KBOI 011005Z AUTO 26003KT 10SM CLR A3013 RMK MADISHF
BOI,2017-04-01 10:10,-116.2406,43.5667,M,M,M,270.00,3.00,M,30.13,M,10.00,M,CLR,M,M,M,M,M,M,M,M,KBOI 011010Z AUTO 27003KT 10SM CLR A3013 RMK MADISHF
BOI,2017-04-01 10:15,-116.2406,43.5667,M,M,M,300.00,4.00,M,30.13,M,10.00,M,CLR,M,M,M,M,M,M,M,M,KBOI 011015Z AUTO 30004KT 10SM CLR A3013 RMK MADISHF
BOI,2017-04-01 10:20,-116.2406,43.5667,M,M,M,260.00,5.00,M,30.13,M,10.00,M,CLR,M,M,M,M,M,M,M,M,KBOI 011020Z AUTO 26005KT 10SM CLR A3013 RMK MADISHF
BOI,2017-04-01 10:25,-116.2406,43.5667,M,M,M,270.00,4.00,M,30.13,M,10.00,M,CLR,M,M,M,M,M,M,M,M,KBOI 011025Z AUTO 27004KT 10SM CLR A3013 RMK MADISHF
BOI,2017-04-01 10:30,-116.2406,43.5667,M,M,M,280.00,4.00,M,30.13,M,10.00,M,CLR,M,M,M,M,M,M,M,M,KBOI 011030Z AUTO 28004KT 10SM CLR A3013 RMK MADISHF
BOI,2017-04-01 10:35,-116.2406,43.5667,M,M,M,270.00,5.00,M,30.13,M,10.00,M,CLR,M,M,M,M,M,M,M,M,KBOI 011035Z AUTO 27005KT 10SM CLR A3013 RMK MADISHF
BOI,2017-04-01 10:40,-116.2406,43.5667,M,M,M,250.00,4.00,M,30.14,M,10.00,M,CLR,M,M,M,M,M,M,M,M,KBOI 011040Z AUTO 25004KT 10SM CLR A3014 RMK MADISHF
BOI,2017-04-01 10:45,-116.2406,43.5667,M,M,M,230.00,3.00,M,30.13,M,10.00,M,CLR,M,M,M,M,M,M,M,M,KBOI 011045Z AUTO 23003KT 10SM CLR A3013 RMK MADISHF
BOI,2017-04-01 10:50,-116.2406,43.5667,M,M,M,250.00,5.00,M,30.13,M,10.00,M,CLR,M,M,M,M,M,M,M,M,KBOI 011050Z AUTO 25005KT 10SM CLR A3013 RMK MADISHF
BOI,2017-04-01 10:53,-116.2406,43.5667,37.90,33.10,82.66,230.00,5.00,0.00,30.13,1020.10,10.00,M,CLR,M,M,M,M,M,M,M,M,KBOI 011053Z 23005KT 10SM CLR 03/01 A3013 RMK AO2 SLP201 T00330006 $
BOI,2017-04-01 10:55,-116.2406,43.5667,M,M,M,240.00,5.00,M,30.13,M,10.00,M,CLR,M,M,M,M,M,M,M,M,KBOI 011055Z AUTO 24005KT 10SM CLR A3013 RMK MADISHF
BOI,2017-04-01 11:00,-116.2406,43.5667,M,M,M,280.00,4.00,M,30.13,M,10.00,M,CLR,M,M,M,M,M,M,M,M,KBOI 011100Z AUTO 28004KT 10SM CLR A3013 RMK MADISHF
BOI,2017-04-01 11:05,-116.2406,43.5667,M,M,M,260.00,5.00,M,30.13,M,10.00,M,CLR,M,M,M,M,M,M,M,M,KBOI 011105Z AUTO 26005KT 10SM CLR A3013 RMK MADISHF
BOI,2017-04-01 11:10,-116.2406,43.5667,M,M,M,280.00,4.00,M,30.14,M,10.00,M,CLR,M,M,M,M,M,M,M,M,KBOI 011110Z AUTO 28004KT 10SM CLR A3014 RMK MADISHF
BOI,2017-04-01 11:15,-116.2406,43.5667,M,M,M,310.00,4.00,M,30.13,M,10.00,M,CLR,M,M,M,M,M,M,M,M,KBOI 011115Z AUTO 31004KT 10SM CLR A3013 RMK MADISHF
BOI,2017-04-01 11:20,-116.2406,43.5667,M,M,M,300.00,4.00,M,30.14,M,10.00,M,CLR,M,M,M,M,M,M,M,M,KBOI 011120Z AUTO 30004KT 10SM CLR A3014 RMK MADISHF
BOI,2017-04-01 11:25,-116.2406,43.5667,M,M,M,330.00,5.00,M,30.14,M,10.00,M,CLR,M,M,M,M,M,M,M,M,KBOI 011125Z AUTO 33005KT 10SM CLR A3014 RMK MADISHF
BOI,2017-04-01 11:30,-116.2406,43.5667,M,M,M,340.00,4.00,M,30.14,M,10.00,M,CLR,M,M,M,M,M,M,M,M,KBOI 011130Z AUTO 34004KT 10SM CLR A3014 RMK MADISHF
BOI,2017-04-01 11:35,-116.2406,43.5667,M,M,M,20.00,3.00,M,30.14,M,10.00,M,CLR,M,M,M,M,M,M,M,M,KBOI 011135Z AUTO 02003KT 10SM CLR A3014 RMK MADISHF
BOI,2017-04-01 11:40,-116.2406,43.5667,M,M,M,40.00,5.00,M,30.14,M,10.00,M,CLR,M,M,M,M,M,M,M,M,KBOI 011140Z AUTO 04005KT 10SM CLR A3014 RMK MADISHF
BOI,2017-04-01 11:45,-116.2406,43.5667,M,M,M,30.00,4.00,M,30.14,M,10.00,M,CLR,M,M,M,M,M,M,M,M,KBOI 011145Z AUTO 03004KT 10SM CLR A3014 RMK MADISHF
BOI,2017-04-01 11:50,-116.2406,43.5667,M,M,M,60.00,3.00,M,30.14,M,10.00,M,CLR,M,M,M,M,M,M,M,M,KBOI 011150Z AUTO 06003KT 10SM CLR A3014 RMK MADISHF
BOI,2017-04-01 11:53,-116.2406,43.5667,37.00,33.10,85.64,60.00,3.00,0.00,30.14,1020.70,10.00,M,CLR,M,M,M,M,M,M,M,M,KBOI 011153Z 06003KT 10SM CLR 03/01 A3014 RMK AO2 SLP207 T00280006 10078 20028 53005 $
BOI,2017-04-01 11:55,-116.2406,43.5667,M,M,M,70.00,3.00,M,30.14,M,10.00,M,CLR,M,M,M,M,M,M,M,M,KBOI 011155Z AUTO 07003KT 10SM CLR A3014 RMK MADISHF
BOI,2017-04-01 12:00,-116.2406,43.5667,M,M,M,70.00,3.00,M,30.14,M,10.00,M,CLR,M,M,M,M,M,M,M,M,KBOI 011200Z AUTO 07003KT 10SM CLR A3014 RMK MADISHF
BOI,2017-04-01 12:05,-116.2406,43.5667,M,M,M,0.00,0.00,M,30.14,M,10.00,M,CLR,M,M,M,M,M,M,M,M,KBOI 011205Z AUTO 00000KT 10SM CLR A3014 RMK MADISHF
BOI,2017-04-01 12:10,-116.2406,43.5667,M,M,M,0.00,0.00,M,30.14,M,10.00,M,CLR,M,M,M,M,M,M,M,M,KBOI 011210Z AUTO 00000KT 10SM CLR A3014 RMK MADISHF
BOI,2017-04-01 12:15,-116.2406,43.5667,M,M,M,0.00,0.00,M,30.13,M,10.00,M,CLR,M,M,M,M,M,M,M,M,KBOI 011215Z AUTO 00000KT 10SM CLR A3013 RMK MADISHF
BOI,2017-04-01 12:20,-116.2406,43.5667,M,M,M,0.00,0.00,M,30.13,M,10.00,M,CLR,M,M,M,M,M,M,M,M,KBOI 011220Z AUTO 00000KT 10SM CLR A3013 RMK MADISHF
BOI,2017-04-01 12:25,-116.2406,43.5667,M,M,M,0.00,0.00,M,30.13,M,10.00,M,CLR,M,M,M,M,M,M,M,M,KBOI 011225Z AUTO 00000KT 10SM CLR A3013 RMK MADISHF
BOI,2017-04-01 12:30,-116.2406,43.5667,M,M,M,0.00,0.00,M,30.14,M,10.00,M,CLR,M,M,M,M,M,M,M,M,KBOI 011230Z AUTO 00000KT 10SM CLR A3014 RMK MADISHF
BOI,2017-04-01 12:35,-116.2406,43.5667,M,M,M,0.00,0.00,M,30.14,M,10.00,M,CLR,M,M,M,M,M,M,M,M,KBOI 011235Z AUTO 00000KT 10SM CLR A3014 RMK MADISHF
BOI,2017-04-01 12:40,-116.2406,43.5667,M,M,M,0.00,0.00,M,30.14,M,10.00,M,CLR,M,M,M,M,M,M,M,M,KBOI 011240Z AUTO 00000KT 10SM CLR A3014 RMK MADISHF
BOI,2017-04-01 12:45,-116.2406,43.5667,M,M,M,0.00,0.00,M,30.14,M,10.00,M,CLR,M,M,M,M,M,M,M,M,KBOI 011245Z AUTO 00000KT 10SM CLR A3014 RMK MADISHF
BOI,2017-04-01 12:50,-116.2406,43.5667,M,M,M,0.00,0.00,M,30.14,M,10.00,M,CLR,M,M,M,M,M,M,M,M,KBOI 011250Z AUTO 00000KT 10SM CLR A3014 RMK MADISHF
BOI,2017-04-01 12:53,-116.2406,43.5667,36.00,32.00,85.23,0.00,0.00,0.00,30.14,1020.80,10.00,M,CLR,M,M,M,M,M,M,M,M,KBOI 011253Z 00000KT 10SM CLR 02/00 A3014 RMK AO2 SLP208 T00220000 $
BOI,2017-04-01 12:55,-116.2406,43.5667,M,M,M,150.00,3.00,M,30.14,M,10.00,M,CLR,M,M,M,M,M,M,M,M,KBOI 011255Z AUTO 15003KT 10SM CLR A3014 RMK MADISHF
BOI,2017-04-01 13:00,-116.2406,43.5667,M,M,M,0.00,0.00,M,30.15,M,10.00,M,CLR,M,M,M,M,M,M,M,M,KBOI 011300Z AUTO 00000KT 10SM CLR A3015 RMK MADISHF
BOI,2017-04-01 13:05,-116.2406,43.5667,M,M,M,130.00,4.00,M,30.14,M,10.00,M,CLR,M,M,M,M,M,M,M,M,KBOI 011305Z AUTO 13004KT 10SM CLR A3014 RMK MADISHF
BOI,2017-04-01 13:10,-116.2406,43.5667,M,M,M,120.00,4.00,M,30.15,M,10.00,M,CLR,M,M,M,M,M,M,M,M,KBOI 011310Z AUTO 12004KT 10SM CLR A3015 RMK MADISHF
BOI,2017-04-01 13:15,-116.2406,43.5667,M,M,M,100.00,4.00,M,30.15,M,10.00,M,CLR,M,M,M,M,M,M,M,M,KBOI 011315Z AUTO 10004KT 10SM CLR A3015 RMK MADISHF
BOI,2017-04-01 13:20,-116.2406,43.5667,M,M,M,110.00,4.00,M,30.15,M,10.00,M,CLR,M,M,M,M,M,M,M,M,KBOI 011320Z AUTO 11004KT 10SM CLR A3015 RMK MADISHF
BOI,2017-04-01 13:25,-116.2406,43.5667,M,M,M,120.00,4.00,M,30.15,M,10.00,M,CLR,M,M,M,M,M,M,M,M,KBOI 011325Z AUTO 12004KT 10SM CLR A3015 RMK MADISHF
BOI,2017-04-01 13:30,-116.2406,43.5667,M,M,M,120.00,5.00,M,30.15,M,10.00,M,CLR,M,M,M,M,M,M,M,M,KBOI 011330Z AUTO 12005KT 10SM CLR A3015 RMK MADISHF
BOI,2017-04-01 13:35,-116.2406,43.5667,M,M,M,110.00,5.00,M,30.15,M,10.00,M,CLR,M,M,M,M,M,M,M,M,KBOI 011335Z AUTO 11005KT 10SM CLR A3015 RMK MADISHF
BOI,2017-04-01 13:40,-116.2406,43.5667,M,M,M,110.00,4.00,M,30.15,M,10.00,M,CLR,M,M,M,M,M,M,M,M,KBOI 011340Z AUTO 11004KT 10SM CLR A3015 RMK MADISHF
BOI,2017-04-01 13:45,-116.2406,43.5667,M,M,M,110.00,5.00,M,30.15,M,10.00,M,CLR,M,M,M,M,M,M,M,M,KBOI 011345Z AUTO 11005KT 10SM CLR A3015 RMK MADISHF
BOI,2017-04-01 13:50,-116.2406,43.5667,M,M,M,110.00,5.00,M,30.15,M,10.00,M,CLR,M,M,M,M,M,M,M,M,KBOI 011350Z AUTO 11005KT 10SM CLR A3015 RMK MADISHF
BOI,2017-04-01 13:53,-116.2406,43.5667,36.00,32.00,85.23,100.00,4.00,0.00,30.15,1021.30,10.00,M,CLR,M,M,M,M,M,M,M,M,KBOI 011353Z 10004KT 10SM CLR 02/00 A3015 RMK AO2 SLP213 T00220000 $
BOI,2017-04-01 13:55,-116.2406,43.5667,M,M,M,110.00,4.00,M,30.15,M,10.00,M,CLR,M,M,M,M,M,M,M,M,KBOI 011355Z AUTO 11004KT 10SM CLR A3015 RMK MADISHF
BOI,2017-04-01 14:00,-116.2406,43.5667,M,M,M,0.00,0.00,M,30.16,M,10.00,M,CLR,M,M,M,M,M,M,M,M,KBOI 011400Z AUTO 00000KT 10SM CLR A3016 RMK MADISHF
BOI,2017-04-01 14:05,-116.2406,43.5667,M,M,M,150.00,3.00,M,30.16,M,10.00,M,CLR,M,M,M,M,M,M,M,M,KBOI 011405Z AUTO 15003KT 10SM CLR A3016 RMK MADISHF
BOI,2017-04-01 14:10,-116.2406,43.5667,M,M,M,120.00,3.00,M,30.16,M,10.00,M,CLR,M,M,M,M,M,M,M,M,KBOI 011410Z AUTO 12003KT 10SM CLR A3016 RMK MADISHF
BOI,2017-04-01 14:15,-116.2406,43.5667,M,M,M,0.00,0.00,M,30.16,M,10.00,M,CLR,M,M,M,M,M,M,M,M,KBOI 011415Z AUTO 00000KT 10SM CLR A3016 RMK MADISHF
BOI,2017-04-01 14:20,-116.2406,43.5667,M,M,M,110.00,3.00,M,30.17,M,10.00,M,CLR,M,M,M,M,M,M,M,M,KBOI 011420Z AUTO 11003KT 10SM CLR A3017 RMK MADISHF
BOI,2017-04-01 14:25,-116.2406,43.5667,M,M,M,0.00,0.00,M,30.17,M,10.00,M,CLR,M,M,M,M,M,M,M,M,KBOI 011425Z AUTO 00000KT 10SM CLR A3017 RMK MADISHF
BOI,2017-04-01 14:30,-116.2406,43.5667,M,M,M,0.00,0.00,M,30.17,M,10.00,M,CLR,M,M,M,M,M,M,M,M,KBOI 011430Z AUTO 00000KT 10SM CLR A3017 RMK MADISHF
BOI,2017-04-01 14:35,-116.2406,43.5667,M,M,M,110.00,4.00,M,30.18,M,10.00,M,CLR,M,M,M,M,M,M,M,M,KBOI 011435Z AUTO 11004KT 10SM CLR A3018 RMK MADISHF
BOI,2017-04-01 14:40,-116.2406,43.5667,M,M,M,120.00,5.00,M,30.18,M,10.00,M,CLR,M,M,M,M,M,M,M,M,KBOI 011440Z AUTO 12005KT 10SM CLR A3018 RMK MADISHF
BOI,2017-04-01 14:45,-116.2406,43.5667,M,M,M,110.00,4.00,M,30.18,M,10.00,M,CLR,M,M,M,M,M,M,M,M,KBOI 011445Z AUTO 11004KT 10SM CLR A3018 RMK MADISHF
BOI,2017-04-01 14:50,-116.2406,43.5667,M,M,M,120.00,3.00,M,30.18,M,10.00,M,CLR,M,M,M,M,M,M,M,M,KBOI 011450Z AUTO 12003KT 10SM CLR A3018 RMK MADISHF
BOI,2017-04-01 14:53,-116.2406,43.5667,39.90,34.00,79.25,0.00,0.00,0.00,30.18,1022.30,10.00,M,CLR,M,M,M,M,M,M,M,M,KBOI 011453Z 00000KT 10SM CLR 04/01 A3018 RMK AO2 SLP223 T00440011 53012 $
BOI,2017-04-01 14:55,-116.2406,43.5667,M,M,M,0.00,0.00,M,30.18,M,10.00,M,CLR,M,M,M,M,M,M,M,M,KBOI 011455Z AUTO 00000KT 10SM CLR A3018 RMK MADISHF
BOI,2017-04-01 15:00,-116.2406,43.5667,M,M,M,0.00,0.00,M,30.19,M,10.00,M,CLR,M,M,M,M,M,M,M,M,KBOI 011500Z AUTO 00000KT 10SM CLR A3019 RMK MADISHF
BOI,2017-04-01 15:05,-116.2406,43.5667,M,M,M,0.00,0.00,M,30.19,M,10.00,M,CLR,M,M,M,M,M,M,M,M,KBOI 011505Z AUTO 00000KT 10SM CLR A3019 RMK MADISHF
BOI,2017-04-01 15:10,-116.2406,43.5667,M,M,M,0.00,0.00,M,30.19,M,10.00,M,CLR,M,M,M,M,M,M,M,M,KBOI 011510Z AUTO 00000KT 10SM CLR A3019 RMK MADISHF
BOI,2017-04-01 15:15,-116.2406,43.5667,M,M,M,110.00,4.00,M,30.19,M,10.00,M,CLR,M,M,M,M,M,M,M,M,KBOI 011515Z AUTO 11004KT 10SM CLR A3019 RMK MADISHF
BOI,2017-04-01 15:20,-116.2406,43.5667,M,M,M,100.00,3.00,M,30.18,M,10.00,M,CLR,M,M,M,M,M,M,M,M,KBOI 011520Z AUTO 10003KT 10SM CLR A3018 RMK MADISHF
BOI,2017-04-01 15:25,-116.2406,43.5667,M,M,M,120.00,3.00,M,30.18,M,10.00,M,CLR,M,M,M,M,M,M,M,M,KBOI 011525Z AUTO 12003KT 10SM CLR A3018 RMK MADISHF
BOI,2017-04-01 15:30,-116.2406,43.5667,M,M,M,0.00,0.00,M,30.18,M,10.00,M,CLR,M,M,M,M,M,M,M,M,KBOI 011530Z AUTO 00000KT 10SM CLR A3018 RMK MADISHF
BOI,2017-04-01 15:35,-116.2406,43.5667,M,M,M,130.00,3.00,M,30.18,M,10.00,M,CLR,M,M,M,M,M,M,M,M,KBOI 011535Z AUTO 13003KT 10SM CLR A3018 RMK MADISHF
BOI,2017-04-01 15:40,-116.2406,43.5667,M,M,M,0.00,0.00,M,30.18,M,10.00,M,CLR,M,M,M,M,M,M,M,M,KBOI 011540Z AUTO 00000KT 10SM CLR A3018 RMK MADISHF
BOI,2017-04-01 15:45,-116.2406,43.5667,M,M,M,0.00,0.00,M,30.18,M,10.00,M,CLR,M,M,M,M,M,M,M,M,KBOI 011545Z AUTO 00000KT 10SM CLR A3018 RMK MADISHF
BOI,2017-04-01 15:50,-116.2406,43.5667,M,M,M,0.00,0.00,M,30.18,M,10.00,M,CLR,M,M,M,M,M,M,M,M,KBOI 011550Z AUTO 00000KT 10SM CLR A3018 RMK MADISHF
BOI,2017-04-01 15:53,-116.2406,43.5667,45.00,35.10,68.05,0.00,0.00,0.00,30.18,1022.10,10.00,M,CLR,M,M,M,M,M,M,M,M,KBOI 011553Z 00000KT 10SM CLR 07/02 A3018 RMK AO2 SLP221 T00720017 $
BOI,2017-04-01 15:55,-116.2406,43.5667,M,M,M,0.00,0.00,M,30.18,M,10.00,M,CLR,M,M,M,M,M,M,M,M,KBOI 011555Z AUTO 00000KT 10SM CLR A3018 RMK MADISHF
BOI,2017-04-01 16:00,-116.2406,43.5667,M,M,M,0.00,0.00,M,30.18,M,10.00,M,CLR,M,M,M,M,M,M,M,M,KBOI 011600Z AUTO 00000KT 10SM CLR A3018 RMK MADISHF
BOI,2017-04-01 16:05,-116.2406,43.5667,M,M,M,0.00,0.00,M,30.18,M,10.00,M,CLR,M,M,M,M,M,M,M,M,KBOI 011605Z AUTO 00000KT 10SM CLR A3018 RMK MADISHF
BOI,2017-04-01 16:10,-116.2406,43.5667,M,M,M,0.00,0.00,M,30.18,M,10.00,M,CLR,M,M,M,M,M,M,M,M,KBOI 011610Z AUTO 00000KT 10SM CLR A3018 RMK MADISHF
BOI,2017-04-01 16:15,-116.2406,43.5667,M,M,M,250.00,3.00,M,30.18,M,10.00,M,CLR,M,M,M,M,M,M,M,M,KBOI 011615Z AUTO 25003KT 10SM CLR A3018 RMK MADISHF
BOI,2017-04-01 16:20,-116.2406,43.5667,M,M,M,0.00,0.00,M,30.18,M,10.00,M,CLR,M,M,M,M,M,M,M,M,KBOI 011620Z AUTO 00000KT 10SM CLR A3018 RMK MADISHF
BOI,2017-04-01 16:25,-116.2406,43.5667,M,M,M,250.00,4.00,M,30.18,M,10.00,M,CLR,M,M,M,M,M,M,M,M,KBOI 011625Z AUTO 25004KT 10SM CLR A3018 RMK MADISHF
BOI,2017-04-01 16:30,-116.2406,43.5667,M,M,M,290.00,3.00,M,30.18,M,10.00,M,CLR,M,M,M,M,M,M,M,M,KBOI 011630Z AUTO 29003KT 10SM CLR A3018 RMK MADISHF
BOI,2017-04-01 16:35,-116.2406,43.5667,M,M,M,300.00,6.00,M,30.18,M,10.00,M,CLR,M,M,M,M,M,M,M,M,KBOI 011635Z AUTO 30006KT 10SM CLR A3018 RMK MADISHF
BOI,2017-04-01 16:40,-116.2406,43.5667,M,M,M,310.00,4.00,M,30.18,M,10.00,M,CLR,M,M,M,M,M,M,M,M,KBOI 011640Z AUTO 31004KT 10SM CLR A3018 RMK MADISHF
BOI,2017-04-01 16:45,-116.2406,43.5667,M,M,M,290.00,6.00,M,30.18,M,10.00,M,CLR,M,M,M,M,M,M,M,M,KBOI 011645Z AUTO 29006KT 10SM CLR A3018 RMK MADISHF
BOI,2017-04-01 16:50,-116.2406,43.5667,M,M,M,320.00,7.00,M,30.18,M,10.00,M,CLR,M,M,M,M,M,M,M,M,KBOI 011650Z AUTO 32007KT 10SM CLR A3018 RMK MADISHF
BOI,2017-04-01 16:53,-116.2406,43.5667,50.00,36.00,58.44,310.00,8.00,0.00,30.18,1021.90,10.00,M,CLR,M,M,M,M,M,M,M,M,KBOI 011653Z 31008KT 10SM CLR 10/02 A3018 RMK AO2 SLP219 T01000022 $
BOI,2017-04-01 16:55,-116.2406,43.5667,M,M,M,320.00,6.00,M,30.18,M,10.00,M,CLR,M,M,M,M,M,M,M,M,KBOI 011655Z AUTO 32006KT 10SM CLR A3018 RMK MADISHF
BOI,2017-04-01 17:00,-116.2406,43.5667,M,M,M,290.00,6.00,M,30.18,M,10.00,M,CLR,M,M,M,M,M,M,M,M,KBOI 011700Z AUTO 29006KT 10SM CLR A3018 RMK MADISHF
BOI,2017-04-01 17:05,-116.2406,43.5667,M,M,M,300.00,5.00,M,30.18,M,10.00,M,CLR,M,M,M,M,M,M,M,M,KBOI 011705Z AUTO 30005KT 10SM CLR A3018 RMK MADISHF
BOI,2017-04-01 17:10,-116.2406,43.5667,M,M,M,300.00,8.00,M,30.18,M,10.00,M,CLR,M,M,M,M,M,M,M,M,KBOI 011710Z AUTO 30008KT 10SM CLR A3018 RMK MADISHF
BOI,2017-04-01 17:15,-116.2406,43.5667,M,M,M,320.00,8.00,M,30.17,M,10.00,M,CLR,M,M,M,M,M,M,M,M,KBOI 011715Z AUTO 32008KT 10SM CLR A3017 RMK MADISHF
BOI,2017-04-01 17:20,-116.2406,43.5667,M,M,M,320.00,5.00,M,30.18,M,10.00,M,CLR,M,M,M,M,M,M,M,M,KBOI 011720Z AUTO 32005KT 10SM CLR A3018 RMK MADISHF
BOI,2017-04-01 17:25,-116.2406,43.5667,M,M,M,290.00,8.00,M,30.17,M,10.00,M,CLR,M,M,M,M,M,M,M,M,KBOI 011725Z AUTO 29008KT 10SM CLR A3017 RMK MADISHF
BOI,2017-04-01 17:30,-116.2406,43.5667,M,M,M,290.00,8.00,M,30.17,M,10.00,M,CLR,M,M,M,M,M,M,M,M,KBOI 011730Z AUTO 29008KT 10SM CLR A3017 RMK MADISHF
BOI,2017-04-01 17:35,-116.2406,43.5667,M,M,M,300.00,7.00,M,30.18,M,10.00,M,CLR,M,M,M,M,M,M,M,M,KBOI 011735Z AUTO 30007KT 10SM CLR A3018 RMK MADISHF
BOI,2017-04-01 17:40,-116.2406,43.5667,M,M,M,310.00,7.00,M,30.18,M,10.00,M,CLR,M,M,M,M,M,M,M,M,KBOI 011740Z AUTO 31007KT 10SM CLR A3018 RMK MADISHF
BOI,2017-04-01 17:45,-116.2406,43.5667,M,M,M,300.00,10.00,M,30.18,M,10.00,M,CLR,M,M,M,M,M,M,M,M,KBOI 011745Z AUTO 30010KT 10SM CLR A3018 RMK MADISHF
BOI,2017-04-01 17:50,-116.2406,43.5667,M,M,M,290.00,7.00,M,30.17,M,10.00,M,CLR,M,M,M,M,M,M,M,M,KBOI 011750Z AUTO 29007KT 10SM CLR A3017 RMK MADISHF
BOI,2017-04-01 17:53,-116.2406,43.5667,53.10,35.10,50.28,290.00,8.00,0.00,30.17,1021.50,10.00,M,CLR,M,M,M,M,M,M,M,M,KBOI 011753Z 29008KT 10SM CLR 12/02 A3017 RMK AO2 SLP215 T01170017 10117 20017 58003 $
BOI,2017-04-01 17:55,-116.2406,43.5667,M,M,M,300.00,9.00,M,30.17,M,10.00,M,CLR,M,M,M,M,M,M,M,M,KBOI 011755Z AUTO 30009KT 10SM CLR A3017 RMK MADISHF
BOI,2017-04-01 18:00,-116.2406,43.5667,M,M,M,280.00,8.00,M,30.17,M,10.00,M,CLR,M,M,M,M,M,M,M,M,KBOI 011800Z AUTO 28008KT 10SM CLR A3017 RMK MADISHF
BOI,2017-04-01 18:05,-116.2406,43.5667,M,M,M,310.00,8.00,M,30.17,M,10.00,M,CLR,M,M,M,M,M,M,M,M,KBOI 011805Z AUTO 31008KT 10SM CLR A3017 RMK MADISHF
BOI,2017-04-01 18:10,-116.2406,43.5667,M,M,M,320.00,7.00,M,30.17,M,10.00,M,CLR,M,M,M,M,M,M,M,M,KBOI 011810Z AUTO 32007KT 10SM CLR A3017 RMK MADISHF
BOI,2017-04-01 18:15,-116.2406,43.5667,M,M,M,330.00,9.00,M,30.17,M,10.00,M,CLR,M,M,M,M,M,M,M,M,KBOI 011815Z AUTO 33009KT 10SM CLR A3017 RMK MADISHF
BOI,2017-04-01 18:20,-116.2406,43.5667,M,M,M,300.00,11.00,M,30.17,M,10.00,M,CLR,M,M,M,M,M,M,M,M,KBOI 011820Z AUTO 30011KT 10SM CLR A3017 RMK MADISHF
BOI,2017-04-01 18:25,-116.2406,43.5667,M,M,M,310.00,11.00,M,30.18,M,10.00,M,CLR,M,M,M,M,M,M,M,M,KBOI 011825Z AUTO 31011KT 10SM CLR A3018 RMK MADISHF
BOI,2017-04-01 18:30,-116.2406,43.5667,M,M,M,300.00,8.00,M,30.17,M,10.00,M,CLR,M,M,M,M,M,M,M,M,KBOI 011830Z AUTO 30008KT 10SM CLR A3017 RMK MADISHF
BOI,2017-04-01 18:35,-116.2406,43.5667,M,M,M,320.00,10.00,M,30.17,M,10.00,M,CLR,M,M,M,M,M,M,M,M,KBOI 011835Z AUTO 32010KT 10SM CLR A3017 RMK MADISHF
BOI,2017-04-01 18:40,-116.2406,43.5667,M,M,M,300.00,8.00,M,30.17,M,10.00,M,CLR,M,M,M,M,M,M,M,M,KBOI 011840Z AUTO 30008KT 10SM CLR A3017 RMK MADISHF
BOI,2017-04-01 18:45,-116.2406,43.5667,M,M,M,310.00,9.00,M,30.17,M,10.00,M,CLR,M,M,M,M,M,M,M,M,KBOI 011845Z AUTO 31009KT 10SM CLR A3017 RMK MADISHF
BOI,2017-04-01 18:50,-116.2406,43.5667,M,M,M,310.00,9.00,M,30.17,M,10.00,M,CLR,M,M,M,M,M,M,M,M,KBOI 011850Z AUTO 31009KT 10SM CLR A3017 RMK MADISHF
BOI,2017-04-01 18:53,-116.2406,43.5667,55.90,36.00,47.05,320.00,6.00,0.00,30.17,1021.20,10.00,M,CLR,M,M,M,M,M,M,M,M,KBOI 011853Z 32006KT 10SM CLR 13/02 A3017 RMK AO2 SLP212 T01330022 $
BOI,2017-04-01 18:55,-116.2406,43.5667,M,M,M,270.00,8.00,M,30.16,M,10.00,M,CLR,M,M,M,M,M,M,M,M,KBOI 011855Z AUTO 27008KT 10SM CLR A3016 RMK MADISHF
BOI,2017-04-01 19:00,-116.2406,43.5667,M,M,M,270.00,8.00,M,30.16,M,10.00,M,CLR,M,M,M,M,M,M,M,M,KBOI 011900Z AUTO 27008KT 10SM CLR A3016 RMK MADISHF
BOI,2017-04-01 19:05,-116.2406,43.5667,M,M,M,310.00,8.00,M,30.16,M,10.00,M,CLR,M,M,M,M,M,M,M,M,KBOI 011905Z AUTO 31008KT 10SM CLR A3016 RMK MADISHF
BOI,2017-04-01 19:10,-116.2406,43.5667,M,M,M,320.00,6.00,M,30.16,M,10.00,M,CLR,M,M,M,M,M,M,M,M,KBOI 011910Z AUTO 32006KT 10SM CLR A3016 RMK MADISHF
BOI,2017-04-01 19:15,-116.2406,43.5667,M,M,M,310.00,6.00,M,30.16,M,10.00,M,CLR,M,M,M,M,M,M,M,M,KBOI 011915Z AUTO 31006KT 10SM CLR A3016 RMK MADISHF
BOI,2017-04-01 19:20,-116.2406,43.5667,M,M,M,270.00,9.00,M,30.16,M,10.00,M,CLR,M,M,M,M,M,M,M,M,KBOI 011920Z AUTO 27009KT 10SM CLR A3016 RMK MADISHF
BOI,2017-04-01 19:25,-116.2406,43.5667,M,M,M,300.00,10.00,M,30.15,M,10.00,M,CLR,M,M,M,M,M,M,M,M,KBOI 011925Z AUTO 30010KT 10SM CLR A3015 RMK MADISHF
BOI,2017-04-01 19:30,-116.2406,43.5667,M,M,M,290.00,8.00,M,30.15,M,10.00,M,CLR,M,M,M,M,M,M,M,M,KBOI 011930Z AUTO 29008KT 10SM CLR A3015 RMK MADISHF
BOI,2017-04-01 19:35,-116.2406,43.5667,M,M,M,300.00,6.00,M,30.15,M,10.00,M,CLR,M,M,M,M,M,M,M,M,KBOI 011935Z AUTO 30006KT 10SM CLR A3015 RMK MADISHF
BOI,2017-04-01 19:40,-116.2406,43.5667,M,M,M,320.00,7.00,M,30.15,M,10.00,M,CLR,M,M,M,M,M,M,M,M,KBOI 011940Z AUTO 32007KT 10SM CLR A3015 RMK MADISHF
BOI,2017-04-01 19:45,-116.2406,43.5667,M,M,M,310.00,4.00,M,30.14,M,10.00,M,CLR,M,M,M,M,M,M,M,M,KBOI 011945Z AUTO 31004KT 10SM CLR A3014 RMK VRB04KT  MADISHF
BOI,2017-04-01 19:50,-116.2406,43.5667,M,M,M,340.00,5.00,M,30.14,M,10.00,M,CLR,M,M,M,M,M,M,M,M,KBOI 011950Z AUTO 34005KT 10SM CLR A3014 RMK MADISHF
BOI,2017-04-01 19:53,-116.2406,43.5667,55.90,35.10,45.40,350.00,3.00,0.00,30.14,1020.20,10.00,M,CLR,M,M,M,M,M,M,M,M,KBOI 011953Z 35003KT 10SM CLR 13/02 A3014 RMK AO2 SLP202 T01330017 $
BOI,2017-04-01 19:55,-116.2406,43.5667,M,M,M,360.00,3.00,M,30.14,M,10.00,M,CLR,M,M,M,M,M,M,M,M,KBOI 011955Z AUTO 36003KT 10SM CLR A3014 RMK MADISHF
BOI,2017-04-01 20:00,-116.2406,43.5667,M,M,M,280.00,3.00,M,30.13,M,10.00,M,CLR,M,M,M,M,M,M,M,M,KBOI 012000Z AUTO 28003KT 10SM CLR A3013 RMK VRB03KT  MADISHF
BOI,2017-04-01 20:05,-116.2406,43.5667,M,M,M,280.00,6.00,M,30.13,M,10.00,M,CLR,M,M,M,M,M,M,M,M,KBOI 012005Z AUTO 28006KT 10SM CLR A3013 RMK VRB06KT  MADISHF
BOI,2017-04-01 20:10,-116.2406,43.5667,M,M,M,260.00,4.00,M,30.13,M,10.00,M,CLR,M,M,M,M,M,M,M,M,KBOI 012010Z AUTO 26004KT 10SM CLR A3013 RMK MADISHF
BOI,2017-04-01 20:15,-116.2406,43.5667,M,M,M,220.00,3.00,M,30.13,M,10.00,M,CLR,M,M,M,M,M,M,M,M,KBOI 012015Z AUTO 22003KT 10SM CLR A3013 RMK VRB03KT  MADISHF
BOI,2017-04-01 20:20,-116.2406,43.5667,M,M,M,0.00,0.00,M,30.13,M,10.00,M,CLR,M,M,M,M,M,M,M,M,KBOI 012020Z AUTO 00000KT 10SM CLR A3013 RMK MADISHF
BOI,2017-04-01 20:25,-116.2406,43.5667,M,M,M,280.00,7.00,M,30.12,M,10.00,M,CLR,M,M,M,M,M,M,M,M,KBOI 012025Z AUTO 28007KT 10SM CLR A3012 RMK MADISHF
BOI,2017-04-01 20:30,-116.2406,43.5667,M,M,M,300.00,5.00,M,30.12,M,10.00,M,CLR,M,M,M,M,M,M,M,M,KBOI 012030Z AUTO 30005KT 10SM CLR A3012 RMK MADISHF
BOI,2017-04-01 20:35,-116.2406,43.5667,M,M,M,300.00,4.00,M,30.12,M,10.00,M,CLR,M,M,M,M,M,M,M,M,KBOI 012035Z AUTO 30004KT 10SM CLR A3012 RMK MADISHF
BOI,2017-04-01 20:40,-116.2406,43.5667,M,M,M,300.00,4.00,M,30.11,M,10.00,M,CLR,M,M,M,M,M,M,M,M,KBOI 012040Z AUTO 30004KT 10SM CLR A3011 RMK MADISHF
BOI,2017-04-01 20:45,-116.2406,43.5667,M,M,M,350.00,3.00,M,30.11,M,10.00,M,CLR,M,M,M,M,M,M,M,M,KBOI 012045Z AUTO 35003KT 10SM CLR A3011 RMK MADISHF
BOI,2017-04-01 20:50,-116.2406,43.5667,M,M,M,290.00,5.00,M,30.11,M,10.00,M,CLR,M,M,M,M,M,M,M,M,KBOI 012050Z AUTO 29005KT 10SM CLR A3011 RMK MADISHF
BOI,2017-04-01 20:53,-116.2406,43.5667,57.90,33.10,39.00,300.00,5.00,0.00,30.11,1019.40,10.00,M,CLR,M,M,M,M,M,M,M,M,KBOI 012053Z 30005KT 10SM CLR 14/01 A3011 RMK AO2 SLP194 T01440006 58019 $
BOI,2017-04-01 20:55,-116.2406,43.5667,M,M,M,300.00,6.00,M,30.11,M,10.00,M,CLR,M,M,M,M,M,M,M,M,KBOI 012055Z AUTO 30006KT 10SM CLR A3011 RMK VRB06KT  MADISHF
BOI,2017-04-01 21:00,-116.2406,43.5667,M,M,M,310.00,7.00,M,30.11,M,10.00,M,CLR,M,M,M,M,M,M,M,M,KBOI 012100Z AUTO 31007KT 10SM CLR A3011 RMK MADISHF
BOI,2017-04-01 21:05,-116.2406,43.5667,M,M,M,300.00,8.00,M,30.11,M,10.00,M,CLR,M,M,M,M,M,M,M,M,KBOI 012105Z AUTO 30008KT 10SM CLR A3011 RMK MADISHF
BOI,2017-04-01 21:10,-116.2406,43.5667,M,M,M,300.00,7.00,M,30.10,M,10.00,M,CLR,M,M,M,M,M,M,M,M,KBOI 012110Z AUTO 30007KT 10SM CLR A3010 RMK MADISHF
BOI,2017-04-01 21:15,-116.2406,43.5667,M,M,M,270.00,7.00,M,30.10,M,10.00,M,CLR,M,M,M,M,M,M,M,M,KBOI 012115Z AUTO 27007KT 10SM CLR A3010 RMK WND 24V31  MADISHF
BOI,2017-04-01 21:20,-116.2406,43.5667,M,M,M,290.00,7.00,M,30.10,M,10.00,M,CLR,M,M,M,M,M,M,M,M,KBOI 012120Z AUTO 29007KT 10SM CLR A3010 RMK WND 25V33  MADISHF
BOI,2017-04-01 21:25,-116.2406,43.5667,M,M,M,270.00,6.00,M,30.10,M,10.00,M,CLR,M,M,M,M,M,M,M,M,KBOI 012125Z AUTO 27006KT 10SM CLR A3010 RMK MADISHF
BOI,2017-04-01 21:30,-116.2406,43.5667,M,M,M,320.00,6.00,M,30.09,M,10.00,M,CLR,M,M,M,M,M,M,M,M,KBOI 012130Z AUTO 32006KT 10SM CLR A3009 RMK MADISHF
BOI,2017-04-01 21:35,-116.2406,43.5667,M,M,M,330.00,5.00,M,30.09,M,10.00,M,CLR,M,M,M,M,M,M,M,M,KBOI 012135Z AUTO 33005KT 10SM CLR A3009 RMK VRB05KT  MADISHF
BOI,2017-04-01 21:40,-116.2406,43.5667,M,M,M,310.00,10.00,M,30.09,M,10.00,M,CLR,M,M,M,M,M,M,M,M,KBOI 012140Z AUTO 31010KT 10SM CLR A3009 RMK MADISHF
BOI,2017-04-01 21:45,-116.2406,43.5667,M,M,M,320.00,8.00,M,30.09,M,10.00,M,CLR,M,M,M,M,M,M,M,M,KBOI 012145Z AUTO 32008KT 10SM CLR A3009 RMK MADISHF
BOI,2017-04-01 21:50,-116.2406,43.5667,M,M,M,310.00,10.00,M,30.09,M,10.00,M,CLR,M,M,M,M,M,M,M,M,KBOI 012150Z AUTO 31010KT 10SM CLR A3009 RMK MADISHF
BOI,2017-04-01 21:53,-116.2406,43.5667,60.10,33.10,36.05,300.00,8.00,0.00,30.09,1018.50,10.00,M,CLR,M,M,M,M,M,M,M,M,KBOI 012153Z 30008KT 10SM CLR 16/01 A3009 RMK AO2 SLP185 T01560006 $
BOI,2017-04-01 21:55,-116.2406,43.5667,M,M,M,310.00,8.00,M,30.09,M,10.00,M,CLR,M,M,M,M,M,M,M,M,KBOI 012155Z AUTO 31008KT 10SM CLR A3009 RMK MADISHF
BOI,2017-04-01 22:00,-116.2406,43.5667,M,M,M,310.00,9.00,M,30.09,M,10.00,16.00,CLR,M,M,M,M,M,M,M,M,KBOI 012200Z AUTO 31009G16KT 10SM CLR A3009 RMK MADISHF
BOI,2017-04-01 22:05,-116.2406,43.5667,M,M,M,310.00,11.00,M,30.09,M,10.00,M,CLR,M,M,M,M,M,M,M,M,KBOI 012205Z AUTO 31011KT 10SM CLR A3009 RMK MADISHF
BOI,2017-04-01 22:10,-116.2406,43.5667,M,M,M,300.00,12.00,M,30.09,M,10.00,M,CLR,M,M,M,M,M,M,M,M,KBOI 012210Z AUTO 30012KT 10SM CLR A3009 RMK MADISHF
BOI,2017-04-01 22:15,-116.2406,43.5667,M,M,M,290.00,10.00,M,30.09,M,10.00,M,CLR,M,M,M,M,M,M,M,M,KBOI 012215Z AUTO 29010KT 10SM CLR A3009 RMK MADISHF
BOI,2017-04-01 22:20,-116.2406,43.5667,M,M,M,320.00,10.00,M,30.08,M,10.00,M,CLR,M,M,M,M,M,M,M,M,KBOI 012220Z AUTO 32010KT 10SM CLR A3008 RMK MADISHF
BOI,2017-04-01 22:25,-116.2406,43.5667,M,M,M,320.00,7.00,M,30.08,M,10.00,M,CLR,M,M,M,M,M,M,M,M,KBOI 012225Z AUTO 32007KT 10SM CLR A3008 RMK MADISHF
BOI,2017-04-01 22:30,-116.2406,43.5667,M,M,M,320.00,11.00,M,30.08,M,10.00,M,CLR,M,M,M,M,M,M,M,M,KBOI 012230Z AUTO 32011KT 10SM CLR A3008 RMK MADISHF
BOI,2017-04-01 22:35,-116.2406,43.5667,M,M,M,340.00,10.00,M,30.08,M,10.00,M,CLR,M,M,M,M,M,M,M,M,KBOI 012235Z AUTO 34010KT 10SM CLR A3008 RMK MADISHF
BOI,2017-04-01 22:40,-116.2406,43.5667,M,M,M,300.00,9.00,M,30.08,M,10.00,M,CLR,M,M,M,M,M,M,M,M,KBOI 012240Z AUTO 30009KT 10SM CLR A3008 RMK MADISHF
BOI,2017-04-01 22:45,-116.2406,43.5667,M,M,M,320.00,10.00,M,30.08,M,10.00,M,SCT,M,M,M,7000.00,M,M,M,M,KBOI 012245Z AUTO 32010KT 10SM SCT070 A3008 RMK MADISHF
BOI,2017-04-01 22:50,-116.2406,43.5667,M,M,M,320.00,8.00,M,30.08,M,10.00,M,BKN,M,M,M,7000.00,M,M,M,M,KBOI 012250Z AUTO 32008KT 10SM BKN070 A3008 RMK MADISHF
BOI,2017-04-01 22:53,-116.2406,43.5667,60.10,32.00,34.49,310.00,11.00,0.00,30.08,1018.40,10.00,M,BKN,M,M,M,7000.00,M,M,M,M,KBOI 012253Z 31011KT 10SM BKN070 16/00 A3008 RMK AO2 SLP184 T01560000 $
BOI,2017-04-01 22:55,-116.2406,43.5667,M,M,M,310.00,8.00,M,30.08,M,10.00,M,BKN,M,M,M,7500.00,M,M,M,M,KBOI 012255Z AUTO 31008KT 10SM BKN075 A3008 RMK MADISHF
BOI,2017-04-01 23:00,-116.2406,43.5667,M,M,M,330.00,9.00,M,30.08,M,10.00,M,BKN,M,M,M,7500.00,M,M,M,M,KBOI 012300Z AUTO 33009KT 10SM BKN075 A3008 RMK MADISHF
BOI,2017-04-01 23:05,-116.2406,43.5667,M,M,M,320.00,9.00,M,30.08,M,10.00,M,BKN,M,M,M,7500.00,M,M,M,M,KBOI 012305Z AUTO 32009KT 10SM BKN075 A3008 RMK MADISHF
BOI,2017-04-01 23:10,-116.2406,43.5667,M,M,M,320.00,11.00,M,30.07,M,10.00,M,SCT,M,M,M,7500.00,M,M,M,M,KBOI 012310Z AUTO 32011KT 10SM SCT075 A3007 RMK MADISHF
BOI,2017-04-01 23:15,-116.2406,43.5667,M,M,M,320.00,8.00,M,30.08,M,10.00,M,SCT,M,M,M,7500.00,M,M,M,M,KBOI 012315Z AUTO 32008KT 10SM SCT075 A3008 RMK WND 29V35  MADISHF
BOI,2017-04-01 23:20,-116.2406,43.5667,M,M,M,310.00,7.00,M,30.07,M,10.00,M,FEW,M,M,M,7500.00,M,M,M,M,KBOI 012320Z AUTO 31007KT 10SM FEW075 A3007 RMK MADISHF
BOI,2017-04-01 23:25,-116.2406,43.5667,M,M,M,340.00,9.00,M,30.07,M,10.00,M,FEW,M,M,M,7500.00,M,M,M,M,KBOI 012325Z AUTO 34009KT 10SM FEW075 A3007 RMK MADISHF
BOI,2017-04-01 23:30,-116.2406,43.5667,M,M,M,340.00,10.00,M,30.07,M,10.00,M,CLR,M,M,M,M,M,M,M,M,KBOI 012330Z AUTO 34010KT 10SM CLR A3007 RMK MADISHF
BOI,2017-04-01 23:35,-116.2406,43.5667,M,M,M,310.00,7.00,M,30.06,M,10.00,M,CLR,M,M,M,M,M,M,M,M,KBOI 012335Z AUTO 31007KT 10SM CLR A3006 RMK MADISHF
BOI,2017-04-01 23:40,-116.2406,43.5667,M,M,M,300.00,8.00,M,30.06,M,10.00,M,CLR,M,M,M,M,M,M,M,M,KBOI 012340Z AUTO 30008KT 10SM CLR A3006 RMK MADISHF
BOI,2017-04-01 23:45,-116.2406,43.5667,M,M,M,310.00,8.00,M,30.06,M,10.00,M,CLR,M,M,M,M,M,M,M,M,KBOI 012345Z AUTO 31008KT 10SM CLR A3006 RMK MADISHF
BOI,2017-04-01 23:50,-116.2406,43.5667,M,M,M,310.00,8.00,M,30.06,M,10.00,M,CLR,M,M,M,M,M,M,M,M,KBOI 012350Z AUTO 31008KT 10SM CLR A3006 RMK MADISHF
BOI,2017-04-01 23:53,-116.2406,43.5667,61.00,28.00,28.38,320.00,7.00,0.00,30.06,1017.90,10.00,M,CLR,M,M,M,M,M,M,M,M,KBOI 012353Z 32007KT 10SM CLR 16/M02 A3006 RMK AO2 SLP179 T01611022 10161 20117 56015 $
BOI,2017-04-01 23:55,-116.2406,43.5667,M,M,M,320.00,8.00,M,30.06,M,10.00,M,CLR,M,M,M,M,M,M,M,M,KBOI 012355Z AUTO 32008KT 10SM CLR A3006 RMK MADISHF
