#DEBUG: Format Typ    -> comma
#DEBUG: Time Period   -> 2017-04-01 00:00:00+00:00 2017-04-02 00:00:00+00:00
#DEBUG: Time Zone     -> Etc/UTC
#DEBUG: Data Contact   -> daryl herzmann akrherz@iastate.edu 515-294-5978
#DEBUG: Entries Found -> -1
station,valid,lon,lat,tmpf, dwpf, relh, drct, sknt, p01i, alti, mslp, vsby, gust, skyc1, skyc2, skyc3, skyc4, skyl1, skyl2, skyl3, skyl4, presentwx, metar
BOK,2017-04-01 00:00,-124.2901,42.0746,M,M,M,320.00,11.00,M,30.16,M,10.00,M,CLR,M,M,M,M,M,M,M,M,KBOK 010000Z AUTO 32011KT 10SM CLR A3016 RMK MADISHF
BOK,2017-04-01 00:05,-124.2901,42.0746,M,M,M,320.00,11.00,M,30.16,M,10.00,M,CLR,M,M,M,M,M,M,M,M,KBOK 010005Z AUTO 32011KT 10SM CLR A3016 RMK MADISHF
BOK,2017-04-01 00:10,-124.2901,42.0746,M,M,M,320.00,10.00,M,30.16,M,10.00,M,CLR,M,M,M,M,M,M,M,M,KBOK 010010Z AUTO 32010KT 10SM CLR A3016 RMK MADISHF
BOK,2017-04-01 00:15,-124.2901,42.0746,M,M,M,320.00,11.00,M,30.16,M,10.00,M,CLR,M,M,M,M,M,M,M,M,KBOK 010015Z AUTO 32011KT 10SM CLR A3016 RMK MADISHF
BOK,2017-04-01 00:20,-124.2901,42.0746,M,M,M,320.00,12.00,M,30.16,M,10.00,M,CLR,M,M,M,M,M,M,M,M,KBOK 010020Z AUTO 32012KT 10SM CLR A3016 RMK MADISHF
BOK,2017-04-01 00:25,-124.2901,42.0746,M,M,M,320.00,11.00,M,30.16,M,10.00,M,CLR,M,M,M,M,M,M,M,M,KBOK 010025Z AUTO 32011KT 10SM CLR A3016 RMK MADISHF
BOK,2017-04-01 00:30,-124.2901,42.0746,M,M,M,320.00,11.00,M,30.16,M,10.00,M,CLR,M,M,M,M,M,M,M,M,KBOK 010030Z AUTO 32011KT 10SM CLR A3016 RMK MADISHF
BOK,2017-04-01 00:35,-124.2901,42.0746,M,M,M,320.00,11.00,M,30.16,M,10.00,M,CLR,M,M,M,M,M,M,M,M,KBOK 010035Z AUTO 32011KT 10SM CLR A3016 RMK MADISHF
BOK,2017-04-01 00:40,-124.2901,42.0746,M,M,M,320.00,11.00,M,30.16,M,10.00,M,CLR,M,M,M,M,M,M,M,M,KBOK 010040Z AUTO 32011KT 10SM CLR A3016 RMK MADISHF
BOK,2017-04-01 00:45,-124.2901,42.0746,M,M,M,330.00,13.00,M,30.17,M,10.00,M,CLR,M,M,M,M,M,M,M,M,KBOK 010045Z AUTO 33013KT 10SM CLR A3017 RMK MADISHF
BOK,2017-04-01 00:50,-124.2901,42.0746,M,M,M,330.00,14.00,M,30.17,M,10.00,M,CLR,M,M,M,M,M,M,M,M,KBOK 010050Z AUTO 33014KT 10SM CLR A3017 RMK MADISHF
BOK,2017-04-01 00:55,-124.2901,42.0746,M,M,M,320.00,14.00,M,30.17,M,10.00,M,CLR,M,M,M,M,M,M,M,M,KBOK 010055Z AUTO 32014KT 10SM CLR A3017 RMK MADISHF
BOK,2017-04-01 01:00,-124.2901,42.0746,M,M,M,320.00,15.00,M,30.17,M,10.00,M,CLR,M,M,M,M,M,M,M,M,KBOK 010100Z AUTO 32015KT 10SM CLR A3017 RMK MADISHF
BOK,2017-04-01 01:05,-124.2901,42.0746,M,M,M,320.00,14.00,M,30.17,M,10.00,M,CLR,M,M,M,M,M,M,M,M,KBOK 010105Z AUTO 32014KT 10SM CLR A3017 RMK MADISHF
BOK,2017-04-01 01:10,-124.2901,42.0746,M,M,M,320.00,13.00,M,30.17,M,10.00,M,CLR,M,M,M,M,M,M,M,M,KBOK 010110Z AUTO 32013KT 10SM CLR A3017 RMK MADISHF
BOK,2017-04-01 01:15,-124.2901,42.0746,M,M,M,330.00,12.00,M,30.17,M,10.00,M,CLR,M,M,M,M,M,M,M,M,KBOK 010115Z AUTO 33012KT 10SM CLR A3017 RMK MADISHF
BOK,2017-04-01 01:20,-124.2901,42.0746,M,M,M,320.00,12.00,M,30.17,M,10.00,M,CLR,M,M,M,M,M,M,M,M,KBOK 010120Z AUTO 32012KT 10SM CLR A3017 RMK MADISHF
BOK,2017-04-01 01:25,-124.2901,42.0746,M,M,M,330.00,8.00,M,30.17,M,10.00,M,CLR,M,M,M,M,M,M,M,M,KBOK 010125Z AUTO 33008KT 10SM CLR A3017 RMK MADISHF
BOK,2017-04-01 01:35,-124.2901,42.0746,M,M,M,320.00,7.00,M,30.17,M,10.00,M,CLR,M,M,M,M,M,M,M,M,KBOK 010135Z AUTO 32007KT 10SM CLR A3017 RMK MADISHF
BOK,2017-04-01 01:40,-124.2901,42.0746,M,M,M,330.00,7.00,M,30.17,M,10.00,M,CLR,M,M,M,M,M,M,M,M,KBOK 010140Z AUTO 33007KT 10SM CLR A3017 RMK MADISHF
BOK,2017-04-01 01:45,-124.2901,42.0746,M,M,M,330.00,7.00,M,30.17,M,10.00,M,CLR,M,M,M,M,M,M,M,M,KBOK 010145Z AUTO 33007KT 10SM CLR A3017 RMK MADISHF
BOK,2017-04-01 01:50,-124.2901,42.0746,M,M,M,340.00,9.00,M,30.16,M,10.00,M,CLR,M,M,M,M,M,M,M,M,KBOK 010150Z AUTO 34009KT 10SM CLR A3016 RMK MADISHF
BOK,2017-04-01 01:55,-124.2901,42.0746,M,M,M,320.00,6.00,M,30.16,M,10.00,M,CLR,M,M,M,M,M,M,M,M,KBOK 010155Z AUTO 32006KT 10SM CLR A3016 RMK MADISHF
BOK,2017-04-01 01:56,-124.2901,42.0746,61.00,46.90,59.71,330.00,7.00,0.00,30.16,1023.00,10.00,M,CLR,M,M,M,M,M,M,M,M,KBOK 010156Z AUTO 33007KT 10SM CLR 16/08 A3016 RMK AO2 SLP230 T01610083
BOK,2017-04-01 02:00,-124.2901,42.0746,M,M,M,320.00,8.00,M,30.16,M,10.00,M,CLR,M,M,M,M,M,M,M,M,KBOK 010200Z AUTO 32008KT 10SM CLR A3016 RMK MADISHF
BOK,2017-04-01 02:05,-124.2901,42.0746,M,M,M,320.00,7.00,M,30.16,M,10.00,M,CLR,M,M,M,M,M,M,M,M,KBOK 010205Z AUTO 32007KT 10SM CLR A3016 RMK MADISHF
BOK,2017-04-01 02:10,-124.2901,42.0746,M,M,M,340.00,6.00,M,30.16,M,10.00,M,CLR,M,M,M,M,M,M,M,M,KBOK 010210Z AUTO 34006KT 10SM CLR A3016 RMK MADISHF
BOK,2017-04-01 02:15,-124.2901,42.0746,M,M,M,350.00,7.00,M,30.17,M,10.00,M,CLR,M,M,M,M,M,M,M,M,KBOK 010215Z AUTO 35007KT 10SM CLR A3017 RMK MADISHF
BOK,2017-04-01 02:20,-124.2901,42.0746,M,M,M,360.00,6.00,M,30.16,M,10.00,M,CLR,M,M,M,M,M,M,M,M,KBOK 010220Z AUTO 36006KT 10SM CLR A3016 RMK MADISHF
BOK,2017-04-01 02:25,-124.2901,42.0746,M,M,M,10.00,4.00,M,30.16,M,10.00,M,CLR,M,M,M,M,M,M,M,M,KBOK 010225Z AUTO 01004KT 10SM CLR A3016 RMK MADISHF
BOK,2017-04-01 02:30,-124.2901,42.0746,M,M,M,360.00,5.00,M,30.16,M,10.00,M,CLR,M,M,M,M,M,M,M,M,KBOK 010230Z AUTO 36005KT 10SM CLR A3016 RMK VRB05KT  MADISHF
BOK,2017-04-01 02:35,-124.2901,42.0746,M,M,M,350.00,4.00,M,30.16,M,10.00,M,CLR,M,M,M,M,M,M,M,M,KBOK 010235Z AUTO 35004KT 10SM CLR A3016 RMK VRB04KT  MADISHF
BOK,2017-04-01 02:40,-124.2901,42.0746,M,M,M,310.00,6.00,M,30.16,M,10.00,M,CLR,M,M,M,M,M,M,M,M,KBOK 010240Z AUTO 31006KT 10SM CLR A3016 RMK MADISHF
BOK,2017-04-01 02:45,-124.2901,42.0746,M,M,M,320.00,7.00,M,30.16,M,10.00,M,CLR,M,M,M,M,M,M,M,M,KBOK 010245Z AUTO 32007KT 10SM CLR A3016 RMK MADISHF
BOK,2017-04-01 02:50,-124.2901,42.0746,M,M,M,310.00,6.00,M,30.16,M,10.00,M,CLR,M,M,M,M,M,M,M,M,KBOK 010250Z AUTO 31006KT 10SM CLR A3016 RMK MADISHF
BOK,2017-04-01 02:55,-124.2901,42.0746,M,M,M,320.00,6.00,M,30.16,M,10.00,M,CLR,M,M,M,M,M,M,M,M,KBOK 010255Z AUTO 32006KT 10SM CLR A3016 RMK MADISHF
BOK,2017-04-01 02:56,-124.2901,42.0746,55.00,46.90,74.08,320.00,6.00,0.00,30.16,1023.00,10.00,M,CLR,M,M,M,M,M,M,M,M,KBOK 010256Z AUTO 32006KT 10SM CLR 13/08 A3016 RMK AO2 SLP230 T01280083 58001
BOK,2017-04-01 03:00,-124.2901,42.0746,M,M,M,320.00,5.00,M,30.16,M,10.00,M,CLR,M,M,M,M,M,M,M,M,KBOK 010300Z AUTO 32005KT 10SM CLR A3016 RMK VRB05KT  MADISHF
BOK,2017-04-01 03:05,-124.2901,42.0746,M,M,M,0.00,0.00,M,M,M,10.00,M,CLR,M,M,M,M,M,M,M,M,KBOK 010305Z AUTO 00000KT 10SM CLR RMK MADISHF
BOK,2017-04-01 03:10,-124.2901,42.0746,M,M,M,0.00,0.00,M,30.17,M,10.00,M,CLR,M,M,M,M,M,M,M,M,KBOK 010310Z AUTO 00000KT 10SM CLR A3017 RMK MADISHF
BOK,2017-04-01 03:15,-124.2901,42.0746,M,M,M,0.00,0.00,M,30.17,M,10.00,M,CLR,M,M,M,M,M,M,M,M,KBOK 010315Z AUTO 00000KT 10SM CLR A3017 RMK MADISHF
BOK,2017-04-01 03:20,-124.2901,42.0746,M,M,M,0.00,0.00,M,30.17,M,10.00,M,CLR,M,M,M,M,M,M,M,M,KBOK 010320Z AUTO 00000KT 10SM CLR A3017 RMK MADISHF
BOK,2017-04-01 03:25,-124.2901,42.0746,M,M,M,0.00,0.00,M,30.17,M,10.00,M,CLR,M,M,M,M,M,M,M,M,KBOK 010325Z AUTO 00000KT 10SM CLR A3017 RMK MADISHF
BOK,2017-04-01 03:30,-124.2901,42.0746,M,M,M,0.00,0.00,M,30.18,M,10.00,M,CLR,M,M,M,M,M,M,M,M,KBOK 010330Z AUTO 00000KT 10SM CLR A3018 RMK MADISHF
BOK,2017-04-01 03:35,-124.2901,42.0746,M,M,M,0.00,0.00,M,30.18,M,10.00,M,CLR,M,M,M,M,M,M,M,M,KBOK 010335Z AUTO 00000KT 10SM CLR A3018 RMK MADISHF
BOK,2017-04-01 03:40,-124.2901,42.0746,M,M,M,0.00,0.00,M,30.18,M,10.00,M,CLR,M,M,M,M,M,M,M,M,KBOK 010340Z AUTO 00000KT 10SM CLR A3018 RMK MADISHF
BOK,2017-04-01 03:45,-124.2901,42.0746,M,M,M,0.00,0.00,M,30.18,M,10.00,M,CLR,M,M,M,M,M,M,M,M,KBOK 010345Z AUTO 00000KT 10SM CLR A3018 RMK MADISHF
BOK,2017-04-01 03:50,-124.2901,42.0746,M,M,M,0.00,0.00,M,30.18,M,10.00,M,CLR,M,M,M,M,M,M,M,M,KBOK 010350Z AUTO 00000KT 10SM CLR A3018 RMK MADISHF
BOK,2017-04-01 03:55,-124.2901,42.0746,M,M,M,0.00,0.00,M,30.19,M,10.00,M,CLR,M,M,M,M,M,M,M,M,KBOK 010355Z AUTO 00000KT 10SM CLR A3019 RMK MADISHF
BOK,2017-04-01 03:56,-124.2901,42.0746,53.10,46.90,79.40,0.00,0.00,0.00,30.19,1023.80,10.00,M,CLR,M,M,M,M,M,M,M,M,KBOK 010356Z AUTO 00000KT 10SM CLR 12/08 A3019 RMK AO2 SLP238 T01170083
BOK,2017-04-01 04:00,-124.2901,42.0746,M,M,M,0.00,0.00,M,30.19,M,10.00,M,CLR,M,M,M,M,M,M,M,M,KBOK 010400Z AUTO 00000KT 10SM CLR A3019 RMK MADISHF
BOK,2017-04-01 04:05,-124.2901,42.0746,M,M,M,0.00,0.00,M,30.19,M,10.00,M,CLR,M,M,M,M,M,M,M,M,KBOK 010405Z AUTO 00000KT 10SM CLR A3019 RMK MADISHF
BOK,2017-04-01 04:10,-124.2901,42.0746,M,M,M,90.00,3.00,M,30.19,M,10.00,M,CLR,M,M,M,M,M,M,M,M,KBOK 010410Z AUTO 09003KT 10SM CLR A3019 RMK MADISHF
BOK,2017-04-01 04:15,-124.2901,42.0746,M,M,M,0.00,0.00,M,30.19,M,10.00,M,CLR,M,M,M,M,M,M,M,M,KBOK 010415Z AUTO 00000KT 10SM CLR A3019 RMK MADISHF
BOK,2017-04-01 04:20,-124.2901,42.0746,M,M,M,0.00,0.00,M,30.19,M,10.00,M,CLR,M,M,M,M,M,M,M,M,KBOK 010420Z AUTO 00000KT 10SM CLR A3019 RMK MADISHF
BOK,2017-04-01 04:25,-124.2901,42.0746,M,M,M,0.00,0.00,M,30.19,M,10.00,M,CLR,M,M,M,M,M,M,M,M,KBOK 010425Z AUTO 00000KT 10SM CLR A3019 RMK MADISHF
BOK,2017-04-01 04:30,-124.2901,42.0746,M,M,M,0.00,0.00,M,30.19,M,10.00,M,CLR,M,M,M,M,M,M,M,M,KBOK 010430Z AUTO 00000KT 10SM CLR A3019 RMK MADISHF
BOK,2017-04-01 04:35,-124.2901,42.0746,M,M,M,0.00,0.00,M,30.20,M,10.00,M,CLR,M,M,M,M,M,M,M,M,KBOK 010435Z AUTO 00000KT 10SM CLR A3020 RMK MADISHF
BOK,2017-04-01 04:40,-124.2901,42.0746,M,M,M,0.00,0.00,M,30.20,M,10.00,M,CLR,M,M,M,M,M,M,M,M,KBOK 010440Z AUTO 00000KT 10SM CLR A3020 RMK MADISHF
BOK,2017-04-01 04:45,-124.2901,42.0746,M,M,M,0.00,0.00,M,30.20,M,10.00,M,CLR,M,M,M,M,M,M,M,M,KBOK 010445Z AUTO 00000KT 10SM CLR A3020 RMK MADISHF
BOK,2017-04-01 04:50,-124.2901,42.0746,M,M,M,0.00,0.00,M,30.20,M,10.00,M,CLR,M,M,M,M,M,M,M,M,KBOK 010450Z AUTO 00000KT 10SM CLR A3020 RMK MADISHF
BOK,2017-04-01 04:55,-124.2901,42.0746,M,M,M,0.00,0.00,M,30.20,M,10.00,M,CLR,M,M,M,M,M,M,M,M,KBOK 010455Z AUTO 00000KT 10SM CLR A3020 RMK MADISHF
BOK,2017-04-01 04:56,-124.2901,42.0746,51.10,46.00,82.62,M,3.00,0.00,30.21,1024.40,10.00,M,CLR,M,M,M,M,M,M,M,M,KBOK 010456Z AUTO VRB03KT 10SM CLR 11/08 A3021 RMK AO2 SLP244 T01060078
BOK,2017-04-01 05:00,-124.2901,42.0746,M,M,M,0.00,0.00,M,30.21,M,10.00,M,CLR,M,M,M,M,M,M,M,M,KBOK 010500Z AUTO 00000KT 10SM CLR A3021 RMK MADISHF
BOK,2017-04-01 05:05,-124.2901,42.0746,M,M,M,0.00,0.00,M,30.21,M,10.00,M,CLR,M,M,M,M,M,M,M,M,KBOK 010505Z AUTO 00000KT 10SM CLR A3021 RMK MADISHF
BOK,2017-04-01 05:10,-124.2901,42.0746,M,M,M,140.00,3.00,M,30.21,M,10.00,M,CLR,M,M,M,M,M,M,M,M,KBOK 010510Z AUTO 14003KT 10SM CLR A3021 RMK MADISHF
BOK,2017-04-01 05:15,-124.2901,42.0746,M,M,M,120.00,4.00,M,30.21,M,9.00,M,CLR,M,M,M,M,M,M,M,M,KBOK 010515Z AUTO 12004KT 9SM CLR A3021 RMK MADISHF
BOK,2017-04-01 05:20,-124.2901,42.0746,M,M,M,120.00,4.00,M,30.21,M,9.00,M,CLR,M,M,M,M,M,M,M,M,KBOK 010520Z AUTO 12004KT 9SM CLR A3021 RMK MADISHF
BOK,2017-04-01 05:25,-124.2901,42.0746,M,M,M,0.00,0.00,M,30.20,M,9.00,M,CLR,M,M,M,M,M,M,M,M,KBOK 010525Z AUTO 00000KT 9SM CLR A3020 RMK MADISHF
BOK,2017-04-01 05:30,-124.2901,42.0746,M,M,M,280.00,3.00,M,30.21,M,9.00,M,CLR,M,M,M,M,M,M,M,M,KBOK 010530Z AUTO 28003KT 9SM CLR A3021 RMK MADISHF
BOK,2017-04-01 05:35,-124.2901,42.0746,M,M,M,340.00,3.00,M,30.21,M,9.00,M,CLR,M,M,M,M,M,M,M,M,KBOK 010535Z AUTO 34003KT 9SM CLR A3021 RMK MADISHF
BOK,2017-04-01 05:40,-124.2901,42.0746,M,M,M,0.00,0.00,M,30.21,M,9.00,M,CLR,M,M,M,M,M,M,M,M,KBOK 010540Z AUTO 00000KT 9SM CLR A3021 RMK MADISHF
BOK,2017-04-01 05:45,-124.2901,42.0746,M,M,M,0.00,0.00,M,30.21,M,10.00,M,CLR,M,M,M,M,M,M,M,M,KBOK 010545Z AUTO 00000KT 10SM CLR A3021 RMK MADISHF
BOK,2017-04-01 05:50,-124.2901,42.0746,M,M,M,0.00,0.00,M,30.21,M,10.00,M,CLR,M,M,M,M,M,M,M,M,KBOK 010550Z AUTO 00000KT 10SM CLR A3021 RMK MADISHF
BOK,2017-04-01 05:55,-124.2901,42.0746,M,M,M,0.00,0.00,M,30.21,M,10.00,M,CLR,M,M,M,M,M,M,M,M,KBOK 010555Z AUTO 00000KT 10SM CLR A3021 RMK MADISHF
BOK,2017-04-01 05:56,-124.2901,42.0746,50.00,46.00,86.06,0.00,0.00,0.00,30.21,1024.40,10.00,M,CLR,M,M,M,M,M,M,M,M,KBOK 010556Z AUTO 00000KT 10SM CLR 10/08 A3021 RMK AO2 SLP244 T01000078 10183 20100 51015
BOK,2017-04-01 06:00,-124.2901,42.0746,M,M,M,0.00,0.00,M,30.21,M,10.00,M,CLR,M,M,M,M,M,M,M,M,KBOK 010600Z AUTO 00000KT 10SM CLR A3021 RMK MADISHF
BOK,2017-04-01 06:05,-124.2901,42.0746,M,M,M,0.00,0.00,M,30.21,M,10.00,M,CLR,M,M,M,M,M,M,M,M,KBOK 010605Z AUTO 00000KT 10SM CLR A3021 RMK MADISHF
BOK,2017-04-01 06:10,-124.2901,42.0746,M,M,M,0.00,0.00,M,30.21,M,10.00,M,CLR,M,M,M,M,M,M,M,M,KBOK 010610Z AUTO 00000KT 10SM CLR A3021 RMK MADISHF
BOK,2017-04-01 06:15,-124.2901,42.0746,M,M,M,0.00,0.00,M,30.21,M,10.00,M,CLR,M,M,M,M,M,M,M,M,KBOK 010615Z AUTO 00000KT 10SM CLR A3021 RMK MADISHF
BOK,2017-04-01 06:20,-124.2901,42.0746,M,M,M,0.00,0.00,M,30.21,M,10.00,M,CLR,M,M,M,M,M,M,M,M,KBOK 010620Z AUTO 00000KT 10SM CLR A3021 RMK MADISHF
BOK,2017-04-01 06:25,-124.2901,42.0746,M,M,M,0.00,0.00,M,30.21,M,10.00,M,CLR,M,M,M,M,M,M,M,M,KBOK 010625Z AUTO 00000KT 10SM CLR A3021 RMK MADISHF
BOK,2017-04-01 06:30,-124.2901,42.0746,M,M,M,0.00,0.00,M,30.21,M,10.00,M,CLR,M,M,M,M,M,M,M,M,KBOK 010630Z AUTO 00000KT 10SM CLR A3021 RMK MADISHF
BOK,2017-04-01 06:35,-124.2901,42.0746,M,M,M,0.00,0.00,M,30.22,M,10.00,M,CLR,M,M,M,M,M,M,M,M,KBOK 010635Z AUTO 00000KT 10SM CLR A3022 RMK MADISHF
BOK,2017-04-01 06:40,-124.2901,42.0746,M,M,M,0.00,0.00,M,30.21,M,10.00,M,CLR,M,M,M,M,M,M,M,M,KBOK 010640Z AUTO 00000KT 10SM CLR A3021 RMK MADISHF
BOK,2017-04-01 06:45,-124.2901,42.0746,M,M,M,0.00,0.00,M,30.21,M,10.00,M,CLR,M,M,M,M,M,M,M,M,KBOK 010645Z AUTO 00000KT 10SM CLR A3021 RMK MADISHF
BOK,2017-04-01 06:50,-124.2901,42.0746,M,M,M,0.00,0.00,M,30.21,M,10.00,M,CLR,M,M,M,M,M,M,M,M,KBOK 010650Z AUTO 00000KT 10SM CLR A3021 RMK MADISHF
BOK,2017-04-01 06:55,-124.2901,42.0746,M,M,M,0.00,0.00,M,30.21,M,10.00,M,CLR,M,M,M,M,M,M,M,M,KBOK 010655Z AUTO 00000KT 10SM CLR A3021 RMK MADISHF
BOK,2017-04-01 06:56,-124.2901,42.0746,48.90,43.00,79.98,80.00,3.00,0.00,30.21,1024.50,10.00,M,CLR,M,M,M,M,M,M,M,M,KBOK 010656Z AUTO 08003KT 10SM CLR 09/06 A3021 RMK AO2 SLP245 T00940061
BOK,2017-04-01 07:00,-124.2901,42.0746,M,M,M,0.00,0.00,M,30.21,M,10.00,M,CLR,M,M,M,M,M,M,M,M,KBOK 010700Z AUTO 00000KT 10SM CLR A3021 RMK MADISHF
BOK,2017-04-01 07:05,-124.2901,42.0746,M,M,M,240.00,3.00,M,30.21,M,10.00,M,CLR,M,M,M,M,M,M,M,M,KBOK 010705Z AUTO 24003KT 10SM CLR A3021 RMK MADISHF
BOK,2017-04-01 07:10,-124.2901,42.0746,M,M,M,0.00,0.00,M,30.21,M,10.00,M,CLR,M,M,M,M,M,M,M,M,KBOK 010710Z AUTO 00000KT 10SM CLR A3021 RMK MADISHF
BOK,2017-04-01 07:15,-124.2901,42.0746,M,M,M,0.00,0.00,M,30.20,M,10.00,M,CLR,M,M,M,M,M,M,M,M,KBOK 010715Z AUTO 00000KT 10SM CLR A3020 RMK MADISHF
BOK,2017-04-01 07:20,-124.2901,42.0746,M,M,M,130.00,3.00,M,30.20,M,10.00,M,CLR,M,M,M,M,M,M,M,M,KBOK 010720Z AUTO 13003KT 10SM CLR A3020 RMK MADISHF
BOK,2017-04-01 07:25,-124.2901,42.0746,M,M,M,100.00,4.00,M,30.20,M,10.00,M,CLR,M,M,M,M,M,M,M,M,KBOK 010725Z AUTO 10004KT 10SM CLR A3020 RMK MADISHF
BOK,2017-04-01 07:30,-124.2901,42.0746,M,M,M,0.00,0.00,M,30.20,M,10.00,M,CLR,M,M,M,M,M,M,M,M,KBOK 010730Z AUTO 00000KT 10SM CLR A3020 RMK MADISHF
BOK,2017-04-01 07:35,-124.2901,42.0746,M,M,M,0.00,0.00,M,30.20,M,10.00,M,CLR,M,M,M,M,M,M,M,M,KBOK 010735Z AUTO 00000KT 10SM CLR A3020 RMK MADISHF
BOK,2017-04-01 07:40,-124.2901,42.0746,M,M,M,0.00,0.00,M,30.20,M,10.00,M,CLR,M,M,M,M,M,M,M,M,KBOK 010740Z AUTO 00000KT 10SM CLR A3020 RMK MADISHF
BOK,2017-04-01 07:45,-124.2901,42.0746,M,M,M,0.00,0.00,M,30.20,M,10.00,M,CLR,M,M,M,M,M,M,M,M,KBOK 010745Z AUTO 00000KT 10SM CLR A3020 RMK MADISHF
BOK,2017-04-01 07:50,-124.2901,42.0746,M,M,M,0.00,0.00,M,30.20,M,10.00,M,CLR,M,M,M,M,M,M,M,M,KBOK 010750Z AUTO 00000KT 10SM CLR A3020 RMK MADISHF
BOK,2017-04-01 07:55,-124.2901,42.0746,M,M,M,280.00,4.00,M,30.21,M,10.00,M,CLR,M,M,M,M,M,M,M,M,KBOK 010755Z AUTO 28004KT 10SM CLR A3021 RMK MADISHF
BOK,2017-04-01 07:56,-124.2901,42.0746,48.00,43.00,82.72,290.00,3.00,0.00,30.21,1024.50,10.00,M,CLR,M,M,M,M,M,M,M,M,KBOK 010756Z AUTO 29003KT 10SM CLR 09/06 A3021 RMK AO2 SLP245 T00890061 401830039
BOK,2017-04-01 08:00,-124.2901,42.0746,M,M,M,30.00,3.00,M,30.21,M,10.00,M,CLR,M,M,M,M,M,M,M,M,KBOK 010800Z AUTO 03003KT 10SM CLR A3021 RMK MADISHF
BOK,2017-04-01 08:05,-124.2901,42.0746,M,M,M,10.00,3.00,M,30.21,M,10.00,M,CLR,M,M,M,M,M,M,M,M,KBOK 010805Z AUTO 01003KT 10SM CLR A3021 RMK MADISHF
BOK,2017-04-01 08:10,-124.2901,42.0746,M,M,M,40.00,3.00,M,30.21,M,10.00,M,CLR,M,M,M,M,M,M,M,M,KBOK 010810Z AUTO 04003KT 10SM CLR A3021 RMK MADISHF
BOK,2017-04-01 08:15,-124.2901,42.0746,M,M,M,60.00,3.00,M,30.20,M,10.00,M,CLR,M,M,M,M,M,M,M,M,KBOK 010815Z AUTO 06003KT 10SM CLR A3020 RMK MADISHF
BOK,2017-04-01 08:20,-124.2901,42.0746,M,M,M,0.00,0.00,M,30.20,M,10.00,M,CLR,M,M,M,M,M,M,M,M,KBOK 010820Z AUTO 00000KT 10SM CLR A3020 RMK MADISHF
BOK,2017-04-01 08:25,-124.2901,42.0746,M,M,M,60.00,4.00,M,30.20,M,10.00,M,CLR,M,M,M,M,M,M,M,M,KBOK 010825Z AUTO 06004KT 10SM CLR A3020 RMK MADISHF
BOK,2017-04-01 08:30,-124.2901,42.0746,M,M,M,0.00,0.00,M,30.20,M,10.00,M,CLR,M,M,M,M,M,M,M,M,KBOK 010830Z AUTO 00000KT 10SM CLR A3020 RMK MADISHF
BOK,2017-04-01 08:35,-124.2901,42.0746,M,M,M,90.00,3.00,M,30.19,M,10.00,M,CLR,M,M,M,M,M,M,M,M,KBOK 010835Z AUTO 09003KT 10SM CLR A3019 RMK MADISHF
BOK,2017-04-01 08:40,-124.2901,42.0746,M,M,M,0.00,0.00,M,30.19,M,10.00,M,CLR,M,M,M,M,M,M,M,M,KBOK 010840Z AUTO 00000KT 10SM CLR A3019 RMK MADISHF
BOK,2017-04-01 08:45,-124.2901,42.0746,M,M,M,0.00,0.00,M,30.20,M,10.00,M,CLR,M,M,M,M,M,M,M,M,KBOK 010845Z AUTO 00000KT 10SM CLR A3020 RMK MADISHF
BOK,2017-04-01 08:50,-124.2901,42.0746,M,M,M,0.00,0.00,M,30.19,M,10.00,M,CLR,M,M,M,M,M,M,M,M,KBOK 010850Z AUTO 00000KT 10SM CLR A3019 RMK MADISHF
BOK,2017-04-01 08:55,-124.2901,42.0746,M,M,M,0.00,0.00,M,30.19,M,10.00,M,CLR,M,M,M,M,M,M,M,M,KBOK 010855Z AUTO 00000KT 10SM CLR A3019 RMK MADISHF
BOK,2017-04-01 08:56,-124.2901,42.0746,48.90,39.00,68.51,20.00,3.00,0.00,30.19,1024.00,10.00,M,CLR,M,M,M,M,M,M,M,M,KBOK 010856Z AUTO 02003KT 10SM CLR 09/04 A3019 RMK AO2 SLP240 T00940039 58004
BOK,2017-04-01 09:00,-124.2901,42.0746,M,M,M,30.00,3.00,M,30.19,M,10.00,M,CLR,M,M,M,M,M,M,M,M,KBOK 010900Z AUTO 03003KT 10SM CLR A3019 RMK MADISHF
BOK,2017-04-01 09:05,-124.2901,42.0746,M,M,M,40.00,3.00,M,30.19,M,10.00,M,CLR,M,M,M,M,M,M,M,M,KBOK 010905Z AUTO 04003KT 10SM CLR A3019 RMK MADISHF
BOK,2017-04-01 09:10,-124.2901,42.0746,M,M,M,50.00,3.00,M,30.19,M,10.00,M,CLR,M,M,M,M,M,M,M,M,KBOK 010910Z AUTO 05003KT 10SM CLR A3019 RMK MADISHF
BOK,2017-04-01 09:15,-124.2901,42.0746,M,M,M,40.00,3.00,M,30.19,M,10.00,M,CLR,M,M,M,M,M,M,M,M,KBOK 010915Z AUTO 04003KT 10SM CLR A3019 RMK MADISHF
BOK,2017-04-01 09:20,-124.2901,42.0746,M,M,M,0.00,0.00,M,30.20,M,10.00,M,CLR,M,M,M,M,M,M,M,M,KBOK 010920Z AUTO 00000KT 10SM CLR A3020 RMK MADISHF
BOK,2017-04-01 09:25,-124.2901,42.0746,M,M,M,0.00,0.00,M,30.20,M,10.00,M,CLR,M,M,M,M,M,M,M,M,KBOK 010925Z AUTO 00000KT 10SM CLR A3020 RMK MADISHF
BOK,2017-04-01 09:30,-124.2901,42.0746,M,M,M,70.00,3.00,M,30.19,M,10.00,M,CLR,M,M,M,M,M,M,M,M,KBOK 010930Z AUTO 07003KT 10SM CLR A3019 RMK MADISHF
BOK,2017-04-01 09:35,-124.2901,42.0746,M,M,M,70.00,3.00,M,30.19,M,10.00,M,CLR,M,M,M,M,M,M,M,M,KBOK 010935Z AUTO 07003KT 10SM CLR A3019 RMK MADISHF
BOK,2017-04-01 09:40,-124.2901,42.0746,M,M,M,0.00,0.00,M,30.19,M,10.00,M,CLR,M,M,M,M,M,M,M,M,KBOK 010940Z AUTO 00000KT 10SM CLR A3019 RMK MADISHF
BOK,2017-04-01 09:45,-124.2901,42.0746,M,M,M,0.00,0.00,M,30.19,M,10.00,M,CLR,M,M,M,M,M,M,M,M,KBOK 010945Z AUTO 00000KT 10SM CLR A3019 RMK MADISHF
BOK,2017-04-01 09:50,-124.2901,42.0746,M,M,M,0.00,0.00,M,30.19,M,10.00,M,CLR,M,M,M,M,M,M,M,M,KBOK 010950Z AUTO 00000KT 10SM CLR A3019 RMK MADISHF
BOK,2017-04-01 09:55,-124.2901,42.0746,M,M,M,0.00,0.00,M,30.19,M,10.00,M,CLR,M,M,M,M,M,M,M,M,KBOK 010955Z AUTO 00000KT 10SM CLR A3019 RMK MADISHF
BOK,2017-04-01 09:56,-124.2901,42.0746,48.90,36.00,60.88,0.00,0.00,0.00,30.19,1023.70,10.00,M,CLR,M,M,M,M,M,M,M,M,KBOK 010956Z AUTO 00000KT 10SM CLR 09/02 A3019 RMK AO2 SLP237 T00940022
BOK,2017-04-01 10:00,-124.2901,42.0746,M,M,M,20.00,3.00,M,30.19,M,10.00,M,CLR,M,M,M,M,M,M,M,M,KBOK 011000Z AUTO 02003KT 10SM CLR A3019 RMK MADISHF
BOK,2017-04-01 10:05,-124.2901,42.0746,M,M,M,0.00,0.00,M,30.20,M,10.00,M,CLR,M,M,M,M,M,M,M,M,KBOK 011005Z AUTO 00000KT 10SM CLR A3020 RMK MADISHF
BOK,2017-04-01 10:10,-124.2901,42.0746,M,M,M,0.00,0.00,M,30.20,M,10.00,M,CLR,M,M,M,M,M,M,M,M,KBOK 011010Z AUTO 00000KT 10SM CLR A3020 RMK MADISHF
BOK,2017-04-01 10:15,-124.2901,42.0746,M,M,M,70.00,3.00,M,30.19,M,10.00,M,CLR,M,M,M,M,M,M,M,M,KBOK 011015Z AUTO 07003KT 10SM CLR A3019 RMK MADISHF
BOK,2017-04-01 10:20,-124.2901,42.0746,M,M,M,0.00,0.00,M,30.19,M,10.00,M,CLR,M,M,M,M,M,M,M,M,KBOK 011020Z AUTO 00000KT 10SM CLR A3019 RMK MADISHF
BOK,2017-04-01 10:25,-124.2901,42.0746,M,M,M,0.00,0.00,M,30.19,M,10.00,M,CLR,M,M,M,M,M,M,M,M,KBOK 011025Z AUTO 00000KT 10SM CLR A3019 RMK MADISHF
BOK,2017-04-01 10:30,-124.2901,42.0746,M,M,M,0.00,0.00,M,30.19,M,10.00,M,CLR,M,M,M,M,M,M,M,M,KBOK 011030Z AUTO 00000KT 10SM CLR A3019 RMK MADISHF
BOK,2017-04-01 10:35,-124.2901,42.0746,M,M,M,0.00,0.00,M,30.19,M,10.00,M,CLR,M,M,M,M,M,M,M,M,KBOK 011035Z AUTO 00000KT 10SM CLR A3019 RMK MADISHF
BOK,2017-04-01 10:40,-124.2901,42.0746,M,M,M,300.00,4.00,M,30.20,M,10.00,M,CLR,M,M,M,M,M,M,M,M,KBOK 011040Z AUTO 30004KT 10SM CLR A3020 RMK MADISHF
BOK,2017-04-01 10:45,-124.2901,42.0746,M,M,M,310.00,4.00,M,30.20,M,10.00,M,CLR,M,M,M,M,M,M,M,M,KBOK 011045Z AUTO 31004KT 10SM CLR A3020 RMK MADISHF
BOK,2017-04-01 10:50,-124.2901,42.0746,M,M,M,0.00,0.00,M,30.20,M,10.00,M,CLR,M,M,M,M,M,M,M,M,KBOK 011050Z AUTO 00000KT 10SM CLR A3020 RMK MADISHF
BOK,2017-04-01 10:55,-124.2901,42.0746,M,M,M,0.00,0.00,M,30.20,M,10.00,M,CLR,M,M,M,M,M,M,M,M,KBOK 011055Z AUTO 00000KT 10SM CLR A3020 RMK MADISHF
BOK,2017-04-01 10:56,-124.2901,42.0746,48.90,37.00,63.34,30.00,3.00,0.00,30.20,1024.20,10.00,M,CLR,M,M,M,M,M,M,M,M,KBOK 011056Z AUTO 03003KT 10SM CLR 09/03 A3020 RMK AO2 SLP242 T00940028
BOK,2017-04-01 11:00,-124.2901,42.0746,M,M,M,40.00,3.00,M,30.20,M,10.00,M,CLR,M,M,M,M,M,M,M,M,KBOK 011100Z AUTO 04003KT 10SM CLR A3020 RMK MADISHF
BOK,2017-04-01 11:05,-124.2901,42.0746,M,M,M,70.00,3.00,M,30.20,M,10.00,M,CLR,M,M,M,M,M,M,M,M,KBOK 011105Z AUTO 07003KT 10SM CLR A3020 RMK MADISHF
BOK,2017-04-01 11:10,-124.2901,42.0746,M,M,M,0.00,0.00,M,30.20,M,10.00,M,CLR,M,M,M,M,M,M,M,M,KBOK 011110Z AUTO 00000KT 10SM CLR A3020 RMK MADISHF
BOK,2017-04-01 11:15,-124.2901,42.0746,M,M,M,0.00,0.00,M,30.20,M,10.00,M,CLR,M,M,M,M,M,M,M,M,KBOK 011115Z AUTO 00000KT 10SM CLR A3020 RMK MADISHF
BOK,2017-04-01 11:20,-124.2901,42.0746,M,M,M,0.00,0.00,M,30.20,M,10.00,M,CLR,M,M,M,M,M,M,M,M,KBOK 011120Z AUTO 00000KT 10SM CLR A3020 RMK MADISHF
BOK,2017-04-01 11:25,-124.2901,42.0746,M,M,M,0.00,0.00,M,30.20,M,10.00,M,CLR,M,M,M,M,M,M,M,M,KBOK 011125Z AUTO 00000KT 10SM CLR A3020 RMK MADISHF
BOK,2017-04-01 11:30,-124.2901,42.0746,M,M,M,0.00,0.00,M,30.19,M,10.00,M,CLR,M,M,M,M,M,M,M,M,KBOK 011130Z AUTO 00000KT 10SM CLR A3019 RMK MADISHF
BOK,2017-04-01 11:35,-124.2901,42.0746,M,M,M,0.00,0.00,M,30.19,M,10.00,M,CLR,M,M,M,M,M,M,M,M,KBOK 011135Z AUTO 00000KT 10SM CLR A3019 RMK MADISHF
BOK,2017-04-01 11:40,-124.2901,42.0746,M,M,M,0.00,0.00,M,30.19,M,10.00,M,CLR,M,M,M,M,M,M,M,M,KBOK 011140Z AUTO 00000KT 10SM CLR A3019 RMK MADISHF
BOK,2017-04-01 11:45,-124.2901,42.0746,M,M,M,0.00,0.00,M,30.20,M,10.00,M,CLR,M,M,M,M,M,M,M,M,KBOK 011145Z AUTO 00000KT 10SM CLR A3020 RMK MADISHF
BOK,2017-04-01 11:50,-124.2901,42.0746,M,M,M,0.00,0.00,M,30.19,M,10.00,M,CLR,M,M,M,M,M,M,M,M,KBOK 011150Z AUTO 00000KT 10SM CLR A3019 RMK MADISHF
BOK,2017-04-01 11:55,-124.2901,42.0746,M,M,M,0.00,0.00,M,30.19,M,10.00,M,CLR,M,M,M,M,M,M,M,M,KBOK 011155Z AUTO 00000KT 10SM CLR A3019 RMK MADISHF
BOK,2017-04-01 11:56,-124.2901,42.0746,46.00,37.90,73.18,0.00,0.00,0.00,30.19,1023.80,10.00,M,CLR,M,M,M,M,M,M,M,M,KBOK 011156Z AUTO 00000KT 10SM CLR 08/03 A3019 RMK AO2 SLP238 T00780033 10106 20078 58001
BOK,2017-04-01 12:00,-124.2901,42.0746,M,M,M,0.00,0.00,M,30.19,M,10.00,M,CLR,M,M,M,M,M,M,M,M,KBOK 011200Z AUTO 00000KT 10SM CLR A3019 RMK MADISHF
BOK,2017-04-01 12:05,-124.2901,42.0746,M,M,M,0.00,0.00,M,30.19,M,10.00,M,CLR,M,M,M,M,M,M,M,M,KBOK 011205Z AUTO 00000KT 10SM CLR A3019 RMK MADISHF
BOK,2017-04-01 12:10,-124.2901,42.0746,M,M,M,0.00,0.00,M,30.20,M,10.00,M,CLR,M,M,M,M,M,M,M,M,KBOK 011210Z AUTO 00000KT 10SM CLR A3020 RMK MADISHF
BOK,2017-04-01 12:15,-124.2901,42.0746,M,M,M,0.00,0.00,M,30.20,M,10.00,M,CLR,M,M,M,M,M,M,M,M,KBOK 011215Z AUTO 00000KT 10SM CLR A3020 RMK MADISHF
BOK,2017-04-01 12:20,-124.2901,42.0746,M,M,M,280.00,5.00,M,30.21,M,10.00,M,FEW,M,M,M,5000.00,M,M,M,M,KBOK 011220Z AUTO 28005KT 10SM FEW050 A3021 RMK MADISHF
BOK,2017-04-01 12:25,-124.2901,42.0746,M,M,M,310.00,4.00,M,M,M,10.00,M,SCT,M,M,M,5000.00,M,M,M,M,KBOK 011225Z AUTO 31004KT 10SM SCT050 RMK MADISHF
BOK,2017-04-01 12:30,-124.2901,42.0746,M,M,M,0.00,0.00,M,30.22,M,10.00,M,BKN,M,M,M,5000.00,M,M,M,M,KBOK 011230Z AUTO 00000KT 10SM BKN050 A3022 RMK MADISHF
BOK,2017-04-01 12:35,-124.2901,42.0746,M,M,M,60.00,3.00,M,30.21,M,10.00,M,BKN,M,M,M,5000.00,M,M,M,M,KBOK 011235Z AUTO 06003KT 10SM BKN050 A3021 RMK MADISHF
BOK,2017-04-01 12:40,-124.2901,42.0746,M,M,M,90.00,3.00,M,30.20,M,10.00,M,BKN,M,M,M,5000.00,M,M,M,M,KBOK 011240Z AUTO 09003KT 10SM BKN050 A3020 RMK MADISHF
BOK,2017-04-01 12:45,-124.2901,42.0746,M,M,M,130.00,3.00,M,30.20,M,10.00,M,BKN,M,M,M,5000.00,M,M,M,M,KBOK 011245Z AUTO 13003KT 10SM BKN050 A3020 RMK MADISHF
BOK,2017-04-01 12:50,-124.2901,42.0746,M,M,M,0.00,0.00,M,30.20,M,10.00,M,BKN,M,M,M,5000.00,M,M,M,M,KBOK 011250Z AUTO 00000KT 10SM BKN050 A3020 RMK MADISHF
BOK,2017-04-01 12:55,-124.2901,42.0746,M,M,M,100.00,3.00,M,30.20,M,10.00,M,BKN,M,M,M,5000.00,M,M,M,M,KBOK 011255Z AUTO 10003KT 10SM BKN050 A3020 RMK VRB03KT  MADISHF
BOK,2017-04-01 12:56,-124.2901,42.0746,50.00,36.00,58.44,M,4.00,0.00,30.20,1024.10,10.00,M,BKN,M,M,M,5000.00,M,M,M,M,KBOK 011256Z AUTO VRB04KT 10SM BKN050 10/02 A3020 RMK AO2 SLP241 T01000022
BOK,2017-04-01 13:00,-124.2901,42.0746,M,M,M,90.00,5.00,M,30.20,M,10.00,M,BKN,M,M,M,5000.00,M,M,M,M,KBOK 011300Z AUTO 09005KT 10SM BKN050 A3020 RMK VRB05KT  MADISHF
BOK,2017-04-01 13:05,-124.2901,42.0746,M,M,M,110.00,4.00,M,30.19,M,10.00,M,FEW,M,M,M,5000.00,M,M,M,M,KBOK 011305Z AUTO 11004KT 10SM FEW050 A3019 RMK MADISHF
BOK,2017-04-01 13:10,-124.2901,42.0746,M,M,M,120.00,3.00,M,30.19,M,10.00,M,FEW,M,M,M,5000.00,M,M,M,M,KBOK 011310Z AUTO 12003KT 10SM FEW050 A3019 RMK MADISHF
BOK,2017-04-01 13:15,-124.2901,42.0746,M,M,M,0.00,0.00,M,30.20,M,10.00,M,SCT,M,M,M,4800.00,M,M,M,M,KBOK 011315Z AUTO 00000KT 10SM SCT048 A3020 RMK MADISHF
BOK,2017-04-01 13:20,-124.2901,42.0746,M,M,M,0.00,0.00,M,30.20,M,10.00,M,BKN,M,M,M,4800.00,M,M,M,M,KBOK 011320Z AUTO 00000KT 10SM BKN048 A3020 RMK MADISHF
BOK,2017-04-01 13:25,-124.2901,42.0746,M,M,M,0.00,0.00,M,30.20,M,10.00,M,BKN,M,M,M,4600.00,M,M,M,M,KBOK 011325Z AUTO 00000KT 10SM BKN046 A3020 RMK MADISHF
BOK,2017-04-01 13:30,-124.2901,42.0746,M,M,M,0.00,0.00,M,30.20,M,10.00,M,BKN,M,M,M,4600.00,M,M,M,M,KBOK 011330Z AUTO 00000KT 10SM BKN046 A3020 RMK MADISHF
BOK,2017-04-01 13:35,-124.2901,42.0746,M,M,M,0.00,0.00,M,30.20,M,10.00,M,OVC,M,M,M,4600.00,M,M,M,M,KBOK 011335Z AUTO 00000KT 10SM OVC046 A3020 RMK MADISHF
BOK,2017-04-01 13:40,-124.2901,42.0746,M,M,M,0.00,0.00,M,30.20,M,10.00,M,OVC,M,M,M,4600.00,M,M,M,M,KBOK 011340Z AUTO 00000KT 10SM OVC046 A3020 RMK MADISHF
BOK,2017-04-01 13:45,-124.2901,42.0746,M,M,M,0.00,0.00,M,30.21,M,10.00,M,OVC,M,M,M,4300.00,M,M,M,M,KBOK 011345Z AUTO 00000KT 10SM OVC043 A3021 RMK MADISHF
BOK,2017-04-01 13:50,-124.2901,42.0746,M,M,M,310.00,3.00,M,30.21,M,10.00,M,OVC,M,M,M,4300.00,M,M,M,M,KBOK 011350Z AUTO 31003KT 10SM OVC043 A3021 RMK MADISHF
BOK,2017-04-01 13:55,-124.2901,42.0746,M,M,M,0.00,0.00,M,30.21,M,10.00,M,BKN,OVC,M,M,4100.00,5000.00,M,M,M,KBOK 011355Z AUTO 00000KT 10SM BKN041 OVC050 A3021 RMK MADISHF
BOK,2017-04-01 13:56,-124.2901,42.0746,50.00,37.90,62.98,0.00,0.00,0.00,30.21,1024.40,10.00,M,BKN,OVC,M,M,4100.00,5000.00,M,M,M,KBOK 011356Z AUTO 00000KT 10SM BKN041 OVC050 10/03 A3021 RMK AO2 SLP244 T01000033
BOK,2017-04-01 14:00,-124.2901,42.0746,M,M,M,130.00,3.00,M,30.20,M,10.00,M,BKN,OVC,M,M,4100.00,5000.00,M,M,M,KBOK 011400Z AUTO 13003KT 10SM BKN041 OVC050 A3020 RMK MADISHF
BOK,2017-04-01 14:05,-124.2901,42.0746,M,M,M,140.00,3.00,M,30.21,M,10.00,M,BKN,OVC,M,M,4100.00,5000.00,M,M,M,KBOK 011405Z AUTO 14003KT 10SM BKN041 OVC050 A3021 RMK MADISHF
BOK,2017-04-01 14:10,-124.2901,42.0746,M,M,M,110.00,5.00,M,30.20,M,10.00,M,SCT,OVC,M,M,3900.00,5000.00,M,M,M,KBOK 011410Z AUTO 11005KT 10SM SCT039 OVC050 A3020 RMK MADISHF
BOK,2017-04-01 14:15,-124.2901,42.0746,M,M,M,90.00,5.00,M,30.20,M,10.00,M,FEW,OVC,M,M,3900.00,4800.00,M,M,M,KBOK 011415Z AUTO 09005KT 10SM FEW039 OVC048 A3020 RMK MADISHF
BOK,2017-04-01 14:20,-124.2901,42.0746,M,M,M,120.00,4.00,M,30.20,M,10.00,M,FEW,OVC,M,M,3500.00,4800.00,M,M,M,KBOK 011420Z AUTO 12004KT 10SM FEW035 OVC048 A3020 RMK MADISHF
BOK,2017-04-01 14:25,-124.2901,42.0746,M,M,M,0.00,0.00,M,30.20,M,10.00,M,OVC,M,M,M,5000.00,M,M,M,M,KBOK 011425Z AUTO 00000KT 10SM OVC050 A3020 RMK MADISHF
BOK,2017-04-01 14:30,-124.2901,42.0746,M,M,M,0.00,0.00,M,30.20,M,10.00,M,OVC,M,M,M,5000.00,M,M,M,M,KBOK 011430Z AUTO 00000KT 10SM OVC050 A3020 RMK MADISHF
BOK,2017-04-01 14:35,-124.2901,42.0746,M,M,M,320.00,4.00,M,30.21,M,10.00,M,OVC,M,M,M,5000.00,M,M,M,M,KBOK 011435Z AUTO 32004KT 10SM OVC050 A3021 RMK MADISHF
BOK,2017-04-01 14:40,-124.2901,42.0746,M,M,M,320.00,3.00,M,30.21,M,10.00,M,OVC,M,M,M,5000.00,M,M,M,M,KBOK 011440Z AUTO 32003KT 10SM OVC050 A3021 RMK MADISHF
BOK,2017-04-01 14:45,-124.2901,42.0746,M,M,M,0.00,0.00,M,30.21,M,10.00,M,BKN,M,M,M,5000.00,M,M,M,M,KBOK 011445Z AUTO 00000KT 10SM BKN050 A3021 RMK MADISHF
BOK,2017-04-01 14:50,-124.2901,42.0746,M,M,M,0.00,0.00,M,30.21,M,10.00,M,BKN,M,M,M,5000.00,M,M,M,M,KBOK 011450Z AUTO 00000KT 10SM BKN050 A3021 RMK MADISHF
BOK,2017-04-01 14:55,-124.2901,42.0746,M,M,M,0.00,0.00,M,30.21,M,10.00,M,SCT,M,M,M,5000.00,M,M,M,M,KBOK 011455Z AUTO 00000KT 10SM SCT050 A3021 RMK MADISHF
BOK,2017-04-01 14:56,-124.2901,42.0746,50.00,39.90,68.10,0.00,0.00,0.00,30.21,1024.50,10.00,M,SCT,M,M,M,5000.00,M,M,M,M,KBOK 011456Z AUTO 00000KT 10SM SCT050 10/04 A3021 RMK AO2 SLP245 T01000044 50006
BOK,2017-04-01 15:00,-124.2901,42.0746,M,M,M,0.00,0.00,M,30.21,M,10.00,M,FEW,M,M,M,5500.00,M,M,M,M,KBOK 011500Z AUTO 00000KT 10SM FEW055 A3021 RMK MADISHF
BOK,2017-04-01 15:05,-124.2901,42.0746,M,M,M,0.00,0.00,M,30.20,M,10.00,M,FEW,M,M,M,5500.00,M,M,M,M,KBOK 011505Z AUTO 00000KT 10SM FEW055 A3020 RMK MADISHF
BOK,2017-04-01 15:10,-124.2901,42.0746,M,M,M,0.00,0.00,M,30.21,M,10.00,M,CLR,M,M,M,M,M,M,M,M,KBOK 011510Z AUTO 00000KT 10SM CLR A3021 RMK MADISHF
BOK,2017-04-01 15:15,-124.2901,42.0746,M,M,M,0.00,0.00,M,30.20,M,10.00,M,CLR,M,M,M,M,M,M,M,M,KBOK 011515Z AUTO 00000KT 10SM CLR A3020 RMK MADISHF
BOK,2017-04-01 15:20,-124.2901,42.0746,M,M,M,0.00,0.00,M,30.20,M,10.00,M,CLR,M,M,M,M,M,M,M,M,KBOK 011520Z AUTO 00000KT 10SM CLR A3020 RMK MADISHF
BOK,2017-04-01 15:25,-124.2901,42.0746,M,M,M,290.00,4.00,M,30.21,M,10.00,M,CLR,M,M,M,M,M,M,M,M,KBOK 011525Z AUTO 29004KT 10SM CLR A3021 RMK MADISHF
BOK,2017-04-01 15:30,-124.2901,42.0746,M,M,M,300.00,4.00,M,30.22,M,10.00,M,CLR,M,M,M,M,M,M,M,M,KBOK 011530Z AUTO 30004KT 10SM CLR A3022 RMK MADISHF
BOK,2017-04-01 15:35,-124.2901,42.0746,M,M,M,320.00,5.00,M,30.22,M,10.00,M,FEW,M,M,M,5000.00,M,M,M,M,KBOK 011535Z AUTO 32005KT 10SM FEW050 A3022 RMK MADISHF
BOK,2017-04-01 15:40,-124.2901,42.0746,M,M,M,330.00,4.00,M,30.22,M,10.00,M,SCT,M,M,M,5000.00,M,M,M,M,KBOK 011540Z AUTO 33004KT 10SM SCT050 A3022 RMK MADISHF
BOK,2017-04-01 15:45,-124.2901,42.0746,M,M,M,320.00,4.00,M,30.22,M,10.00,M,BKN,M,M,M,5000.00,M,M,M,M,KBOK 011545Z AUTO 32004KT 10SM BKN050 A3022 RMK MADISHF
BOK,2017-04-01 15:50,-124.2901,42.0746,M,M,M,310.00,3.00,M,30.22,M,10.00,M,BKN,M,M,M,5000.00,M,M,M,M,KBOK 011550Z AUTO 31003KT 10SM BKN050 A3022 RMK MADISHF
BOK,2017-04-01 15:55,-124.2901,42.0746,M,M,M,0.00,0.00,M,30.21,M,10.00,M,SCT,M,M,M,5000.00,M,M,M,M,KBOK 011555Z AUTO 00000KT 10SM SCT050 A3021 RMK MADISHF
BOK,2017-04-01 15:56,-124.2901,42.0746,53.10,39.90,60.73,0.00,0.00,0.00,30.21,1024.70,10.00,M,SCT,M,M,M,5000.00,M,M,M,M,KBOK 011556Z AUTO 00000KT 10SM SCT050 12/04 A3021 RMK AO2 SLP247 T01170044
BOK,2017-04-01 16:00,-124.2901,42.0746,M,M,M,0.00,0.00,M,30.21,M,10.00,M,SCT,M,M,M,5000.00,M,M,M,M,KBOK 011600Z AUTO 00000KT 10SM SCT050 A3021 RMK MADISHF
BOK,2017-04-01 16:05,-124.2901,42.0746,M,M,M,0.00,0.00,M,30.21,M,10.00,M,BKN,M,M,M,5000.00,M,M,M,M,KBOK 011605Z AUTO 00000KT 10SM BKN050 A3021 RMK MADISHF
BOK,2017-04-01 16:10,-124.2901,42.0746,M,M,M,0.00,0.00,M,30.21,M,10.00,M,SCT,M,M,M,5000.00,M,M,M,M,KBOK 011610Z AUTO 00000KT 10SM SCT050 A3021 RMK MADISHF
BOK,2017-04-01 16:15,-124.2901,42.0746,M,M,M,270.00,4.00,M,30.21,M,10.00,M,FEW,M,M,M,5000.00,M,M,M,M,KBOK 011615Z AUTO 27004KT 10SM FEW050 A3021 RMK MADISHF
BOK,2017-04-01 16:20,-124.2901,42.0746,M,M,M,280.00,4.00,M,30.21,M,10.00,M,FEW,M,M,M,5000.00,M,M,M,M,KBOK 011620Z AUTO 28004KT 10SM FEW050 A3021 RMK MADISHF
BOK,2017-04-01 16:25,-124.2901,42.0746,M,M,M,0.00,0.00,M,30.21,M,10.00,M,FEW,M,M,M,5000.00,M,M,M,M,KBOK 011625Z AUTO 00000KT 10SM FEW050 A3021 RMK MADISHF
BOK,2017-04-01 16:30,-124.2901,42.0746,M,M,M,0.00,0.00,M,30.21,M,10.00,M,FEW,M,M,M,5000.00,M,M,M,M,KBOK 011630Z AUTO 00000KT 10SM FEW050 A3021 RMK MADISHF
BOK,2017-04-01 16:35,-124.2901,42.0746,M,M,M,0.00,0.00,M,30.21,M,10.00,M,CLR,M,M,M,M,M,M,M,M,KBOK 011635Z AUTO 00000KT 10SM CLR A3021 RMK MADISHF
BOK,2017-04-01 16:40,-124.2901,42.0746,M,M,M,0.00,0.00,M,30.20,M,10.00,M,CLR,M,M,M,M,M,M,M,M,KBOK 011640Z AUTO 00000KT 10SM CLR A3020 RMK MADISHF
BOK,2017-04-01 16:45,-124.2901,42.0746,M,M,M,170.00,4.00,M,30.20,M,10.00,M,CLR,M,M,M,M,M,M,M,M,KBOK 011645Z AUTO 17004KT 10SM CLR A3020 RMK MADISHF
BOK,2017-04-01 16:50,-124.2901,42.0746,M,M,M,170.00,3.00,M,30.20,M,10.00,M,CLR,M,M,M,M,M,M,M,M,KBOK 011650Z AUTO 17003KT 10SM CLR A3020 RMK VRB03KT  MADISHF
BOK,2017-04-01 16:55,-124.2901,42.0746,M,M,M,170.00,4.00,M,30.20,M,10.00,M,CLR,M,M,M,M,M,M,M,M,KBOK 011655Z AUTO 17004KT 10SM CLR A3020 RMK MADISHF
BOK,2017-04-01 16:56,-124.2901,42.0746,60.10,41.00,49.21,180.00,4.00,0.00,30.21,1024.30,10.00,M,CLR,M,M,M,M,M,M,M,M,KBOK 011656Z AUTO 18004KT 10SM CLR 16/05 A3021 RMK AO2 SLP243 T01560050
BOK,2017-04-01 17:00,-124.2901,42.0746,M,M,M,210.00,4.00,M,30.21,M,10.00,M,CLR,M,M,M,M,M,M,M,M,KBOK 011700Z AUTO 21004KT 10SM CLR A3021 RMK VRB04KT  MADISHF
BOK,2017-04-01 17:05,-124.2901,42.0746,M,M,M,240.00,4.00,M,30.21,M,10.00,M,CLR,M,M,M,M,M,M,M,M,KBOK 011705Z AUTO 24004KT 10SM CLR A3021 RMK MADISHF
BOK,2017-04-01 17:10,-124.2901,42.0746,M,M,M,210.00,3.00,M,30.21,M,10.00,M,CLR,M,M,M,M,M,M,M,M,KBOK 011710Z AUTO 21003KT 10SM CLR A3021 RMK MADISHF
BOK,2017-04-01 17:15,-124.2901,42.0746,M,M,M,0.00,0.00,M,30.20,M,10.00,M,CLR,M,M,M,M,M,M,M,M,KBOK 011715Z AUTO 00000KT 10SM CLR A3020 RMK MADISHF
BOK,2017-04-01 17:20,-124.2901,42.0746,M,M,M,0.00,0.00,M,30.20,M,10.00,M,CLR,M,M,M,M,M,M,M,M,KBOK 011720Z AUTO 00000KT 10SM CLR A3020 RMK MADISHF
BOK,2017-04-01 17:25,-124.2901,42.0746,M,M,M,170.00,3.00,M,30.20,M,10.00,M,CLR,M,M,M,M,M,M,M,M,KBOK 011725Z AUTO 17003KT 10SM CLR A3020 RMK MADISHF
BOK,2017-04-01 17:30,-124.2901,42.0746,M,M,M,0.00,0.00,M,30.20,M,10.00,M,CLR,M,M,M,M,M,M,M,M,KBOK 011730Z AUTO 00000KT 10SM CLR A3020 RMK MADISHF
BOK,2017-04-01 17:35,-124.2901,42.0746,M,M,M,180.00,3.00,M,30.20,M,10.00,M,CLR,M,M,M,M,M,M,M,M,KBOK 011735Z AUTO 18003KT 10SM CLR A3020 RMK MADISHF
BOK,2017-04-01 17:40,-124.2901,42.0746,M,M,M,210.00,3.00,M,30.21,M,10.00,M,CLR,M,M,M,M,M,M,M,M,KBOK 011740Z AUTO 21003KT 10SM CLR A3021 RMK MADISHF
BOK,2017-04-01 17:45,-124.2901,42.0746,M,M,M,0.00,0.00,M,30.21,M,10.00,M,CLR,M,M,M,M,M,M,M,M,KBOK 011745Z AUTO 00000KT 10SM CLR A3021 RMK MADISHF
BOK,2017-04-01 17:50,-124.2901,42.0746,M,M,M,0.00,0.00,M,30.21,M,10.00,M,CLR,M,M,M,M,M,M,M,M,KBOK 011750Z AUTO 00000KT 10SM CLR A3021 RMK MADISHF
BOK,2017-04-01 17:55,-124.2901,42.0746,M,M,M,0.00,0.00,M,30.21,M,10.00,M,CLR,M,M,M,M,M,M,M,M,KBOK 011755Z AUTO 00000KT 10SM CLR A3021 RMK MADISHF
BOK,2017-04-01 17:56,-124.2901,42.0746,61.00,48.00,62.23,0.00,0.00,0.00,30.21,1024.30,10.00,M,CLR,M,M,M,M,M,M,M,M,KBOK 011756Z AUTO 00000KT 10SM CLR 16/09 A3021 RMK AO2 SLP243 T01610089 10161 20078 50000
BOK,2017-04-01 18:00,-124.2901,42.0746,M,M,M,220.00,3.00,M,30.21,M,10.00,M,CLR,M,M,M,M,M,M,M,M,KBOK 011800Z AUTO 22003KT 10SM CLR A3021 RMK VRB03KT  MADISHF
BOK,2017-04-01 18:05,-124.2901,42.0746,M,M,M,120.00,4.00,M,30.20,M,10.00,M,CLR,M,M,M,M,M,M,M,M,KBOK 011805Z AUTO 12004KT 10SM CLR A3020 RMK VRB04KT  MADISHF
BOK,2017-04-01 18:10,-124.2901,42.0746,M,M,M,30.00,3.00,M,30.20,M,10.00,M,CLR,M,M,M,M,M,M,M,M,KBOK 011810Z AUTO 03003KT 10SM CLR A3020 RMK VRB03KT  MADISHF
BOK,2017-04-01 18:15,-124.2901,42.0746,M,M,M,300.00,7.00,M,30.20,M,10.00,M,CLR,M,M,M,M,M,M,M,M,KBOK 011815Z AUTO 30007KT 10SM CLR A3020 RMK MADISHF
BOK,2017-04-01 18:20,-124.2901,42.0746,M,M,M,270.00,3.00,M,30.20,M,10.00,M,CLR,M,M,M,M,M,M,M,M,KBOK 011820Z AUTO 27003KT 10SM CLR A3020 RMK VRB03KT  MADISHF
BOK,2017-04-01 18:25,-124.2901,42.0746,M,M,M,150.00,6.00,M,30.20,M,10.00,M,CLR,M,M,M,M,M,M,M,M,KBOK 011825Z AUTO 15006KT 10SM CLR A3020 RMK MADISHF
BOK,2017-04-01 18:30,-124.2901,42.0746,M,M,M,140.00,5.00,M,30.20,M,10.00,M,CLR,M,M,M,M,M,M,M,M,KBOK 011830Z AUTO 14005KT 10SM CLR A3020 RMK VRB05KT  MADISHF
BOK,2017-04-01 18:35,-124.2901,42.0746,M,M,M,130.00,5.00,M,30.20,M,10.00,M,CLR,M,M,M,M,M,M,M,M,KBOK 011835Z AUTO 13005KT 10SM CLR A3020 RMK VRB05KT  MADISHF
BOK,2017-04-01 18:40,-124.2901,42.0746,M,M,M,280.00,5.00,M,30.20,M,10.00,M,CLR,M,M,M,M,M,M,M,M,KBOK 011840Z AUTO 28005KT 10SM CLR A3020 RMK VRB05KT  MADISHF
BOK,2017-04-01 18:45,-124.2901,42.0746,M,M,M,280.00,5.00,M,30.20,M,10.00,M,CLR,M,M,M,M,M,M,M,M,KBOK 011845Z AUTO 28005KT 10SM CLR A3020 RMK MADISHF
BOK,2017-04-01 18:50,-124.2901,42.0746,M,M,M,290.00,5.00,M,30.20,M,10.00,M,CLR,M,M,M,M,M,M,M,M,KBOK 011850Z AUTO 29005KT 10SM CLR A3020 RMK MADISHF
BOK,2017-04-01 18:55,-124.2901,42.0746,M,M,M,300.00,3.00,M,30.20,M,10.00,M,CLR,M,M,M,M,M,M,M,M,KBOK 011855Z AUTO 30003KT 10SM CLR A3020 RMK VRB03KT  MADISHF
BOK,2017-04-01 18:56,-124.2901,42.0746,64.90,48.90,56.12,M,3.00,0.00,30.20,1024.20,10.00,M,CLR,M,M,M,M,M,M,M,M,KBOK 011856Z AUTO VRB03KT 10SM CLR 18/09 A3020 RMK AO2 SLP242 T01830094
BOK,2017-04-01 19:00,-124.2901,42.0746,M,M,M,300.00,6.00,M,30.20,M,10.00,M,CLR,M,M,M,M,M,M,M,M,KBOK 011900Z AUTO 30006KT 10SM CLR A3020 RMK MADISHF
BOK,2017-04-01 19:05,-124.2901,42.0746,M,M,M,300.00,4.00,M,30.20,M,10.00,M,CLR,M,M,M,M,M,M,M,M,KBOK 011905Z AUTO 30004KT 10SM CLR A3020 RMK VRB04KT  MADISHF
BOK,2017-04-01 19:10,-124.2901,42.0746,M,M,M,280.00,8.00,M,30.20,M,10.00,M,CLR,M,M,M,M,M,M,M,M,KBOK 011910Z AUTO 28008KT 10SM CLR A3020 RMK MADISHF
BOK,2017-04-01 19:15,-124.2901,42.0746,M,M,M,300.00,10.00,M,30.20,M,10.00,M,CLR,M,M,M,M,M,M,M,M,KBOK 011915Z AUTO 30010KT 10SM CLR A3020 RMK MADISHF
BOK,2017-04-01 19:20,-124.2901,42.0746,M,M,M,310.00,9.00,M,30.20,M,10.00,M,CLR,M,M,M,M,M,M,M,M,KBOK 011920Z AUTO 31009KT 10SM CLR A3020 RMK MADISHF
BOK,2017-04-01 19:25,-124.2901,42.0746,M,M,M,320.00,12.00,M,30.20,M,10.00,M,CLR,M,M,M,M,M,M,M,M,KBOK 011925Z AUTO 32012KT 10SM CLR A3020 RMK MADISHF
BOK,2017-04-01 19:30,-124.2901,42.0746,M,M,M,300.00,8.00,M,30.19,M,10.00,M,CLR,M,M,M,M,M,M,M,M,KBOK 011930Z AUTO 30008KT 10SM CLR A3019 RMK MADISHF
BOK,2017-04-01 19:35,-124.2901,42.0746,M,M,M,290.00,9.00,M,30.19,M,10.00,M,CLR,M,M,M,M,M,M,M,M,KBOK 011935Z AUTO 29009KT 10SM CLR A3019 RMK MADISHF
BOK,2017-04-01 19:40,-124.2901,42.0746,M,M,M,300.00,7.00,M,30.19,M,10.00,M,CLR,M,M,M,M,M,M,M,M,KBOK 011940Z AUTO 30007KT 10SM CLR A3019 RMK MADISHF
BOK,2017-04-01 19:45,-124.2901,42.0746,M,M,M,300.00,11.00,M,30.18,M,10.00,M,CLR,M,M,M,M,M,M,M,M,KBOK 011945Z AUTO 30011KT 10SM CLR A3018 RMK MADISHF
BOK,2017-04-01 19:50,-124.2901,42.0746,M,M,M,310.00,11.00,M,30.18,M,10.00,M,CLR,M,M,M,M,M,M,M,M,KBOK 011950Z AUTO 31011KT 10SM CLR A3018 RMK MADISHF
BOK,2017-04-01 19:55,-124.2901,42.0746,M,M,M,310.00,11.00,M,30.18,M,10.00,M,CLR,M,M,M,M,M,M,M,M,KBOK 011955Z AUTO 31011KT 10SM CLR A3018 RMK MADISHF
BOK,2017-04-01 19:56,-124.2901,42.0746,63.00,48.90,59.98,310.00,12.00,0.00,30.18,1023.40,10.00,M,CLR,M,M,M,M,M,M,M,M,KBOK 011956Z AUTO 31012KT 10SM CLR 17/09 A3018 RMK AO2 SLP234 T01720094
BOK,2017-04-01 20:00,-124.2901,42.0746,M,M,M,310.00,13.00,M,30.18,M,10.00,M,CLR,M,M,M,M,M,M,M,M,KBOK 012000Z AUTO 31013KT 10SM CLR A3018 RMK MADISHF
BOK,2017-04-01 20:05,-124.2901,42.0746,M,M,M,320.00,12.00,M,30.18,M,10.00,M,CLR,M,M,M,M,M,M,M,M,KBOK 012005Z AUTO 32012KT 10SM CLR A3018 RMK MADISHF
BOK,2017-04-01 20:10,-124.2901,42.0746,M,M,M,310.00,10.00,M,30.18,M,10.00,M,CLR,M,M,M,M,M,M,M,M,KBOK 012010Z AUTO 31010KT 10SM CLR A3018 RMK MADISHF
BOK,2017-04-01 20:15,-124.2901,42.0746,M,M,M,320.00,10.00,M,30.18,M,10.00,M,CLR,M,M,M,M,M,M,M,M,KBOK 012015Z AUTO 32010KT 10SM CLR A3018 RMK MADISHF
BOK,2017-04-01 20:20,-124.2901,42.0746,M,M,M,310.00,10.00,M,30.18,M,10.00,M,CLR,M,M,M,M,M,M,M,M,KBOK 012020Z AUTO 31010KT 10SM CLR A3018 RMK MADISHF
BOK,2017-04-01 20:25,-124.2901,42.0746,M,M,M,M,M,M,30.18,M,10.00,M,CLR,M,M,M,M,M,M,M,M,KBOK 012025Z AUTO /////KT 10SM CLR A3018 RMK MADISHF
BOK,2017-04-01 20:30,-124.2901,42.0746,M,M,M,310.00,12.00,M,30.18,M,10.00,M,CLR,M,M,M,M,M,M,M,M,KBOK 012030Z AUTO 31012KT 10SM CLR A3018 RMK MADISHF
BOK,2017-04-01 20:35,-124.2901,42.0746,M,M,M,M,M,M,30.17,M,10.00,M,CLR,M,M,M,M,M,M,M,M,KBOK 012035Z AUTO /////KT 10SM CLR A3017 RMK MADISHF
BOK,2017-04-01 20:40,-124.2901,42.0746,M,M,M,M,M,M,30.17,M,10.00,M,CLR,M,M,M,M,M,M,M,M,KBOK 012040Z AUTO /////KT 10SM CLR A3017 RMK MADISHF
BOK,2017-04-01 20:45,-124.2901,42.0746,M,M,M,M,M,M,30.17,M,10.00,M,CLR,M,M,M,M,M,M,M,M,KBOK 012045Z AUTO /////KT 10SM CLR A3017 RMK MADISHF
BOK,2017-04-01 20:50,-124.2901,42.0746,M,M,M,320.00,10.00,M,30.17,M,10.00,M,CLR,M,M,M,M,M,M,M,M,KBOK 012050Z AUTO 32010KT 10SM CLR A3017 RMK MADISHF
BOK,2017-04-01 20:55,-124.2901,42.0746,M,M,M,310.00,13.00,M,30.17,M,10.00,M,CLR,M,M,M,M,M,M,M,M,KBOK 012055Z AUTO 31013KT 10SM CLR A3017 RMK MADISHF
BOK,2017-04-01 20:56,-124.2901,42.0746,64.90,50.00,58.47,310.00,14.00,0.00,30.17,1022.90,10.00,18.00,CLR,M,M,M,M,M,M,M,M,KBOK 012056Z AUTO 31014G18KT 10SM CLR 18/10 A3017 RMK AO2 SLP229 T01830100 58014
BOK,2017-04-01 21:00,-124.2901,42.0746,M,M,M,320.00,14.00,M,30.17,M,10.00,M,CLR,M,M,M,M,M,M,M,M,KBOK 012100Z AUTO 32014KT 10SM CLR A3017 RMK MADISHF
BOK,2017-04-01 21:05,-124.2901,42.0746,M,M,M,300.00,13.00,M,30.17,M,10.00,M,CLR,M,M,M,M,M,M,M,M,KBOK 012105Z AUTO 30013KT 10SM CLR A3017 RMK MADISHF
BOK,2017-04-01 21:10,-124.2901,42.0746,M,M,M,310.00,12.00,M,30.17,M,10.00,M,CLR,M,M,M,M,M,M,M,M,KBOK 012110Z AUTO 31012KT 10SM CLR A3017 RMK MADISHF
BOK,2017-04-01 21:15,-124.2901,42.0746,M,M,M,M,M,M,30.16,M,10.00,M,CLR,M,M,M,M,M,M,M,M,KBOK 012115Z AUTO /////KT 10SM CLR A3016 RMK MADISHF
BOK,2017-04-01 21:20,-124.2901,42.0746,M,M,M,320.00,10.00,M,30.16,M,10.00,M,CLR,M,M,M,M,M,M,M,M,KBOK 012120Z AUTO 32010KT 10SM CLR A3016 RMK MADISHF
BOK,2017-04-01 21:25,-124.2901,42.0746,M,M,M,320.00,12.00,M,30.16,M,10.00,M,CLR,M,M,M,M,M,M,M,M,KBOK 012125Z AUTO 32012KT 10SM CLR A3016 RMK MADISHF
BOK,2017-04-01 21:30,-124.2901,42.0746,M,M,M,320.00,13.00,M,30.16,M,10.00,M,CLR,M,M,M,M,M,M,M,M,KBOK 012130Z AUTO 32013KT 10SM CLR A3016 RMK MADISHF
BOK,2017-04-01 21:35,-124.2901,42.0746,M,M,M,310.00,15.00,M,30.15,M,10.00,M,CLR,M,M,M,M,M,M,M,M,KBOK 012135Z AUTO 31015KT 10SM CLR A3015 RMK MADISHF
BOK,2017-04-01 21:40,-124.2901,42.0746,M,M,M,310.00,13.00,M,30.15,M,10.00,18.00,CLR,M,M,M,M,M,M,M,M,KBOK 012140Z AUTO 31013G18KT 10SM CLR A3015 RMK MADISHF
BOK,2017-04-01 21:45,-124.2901,42.0746,M,M,M,310.00,11.00,M,30.15,M,10.00,M,CLR,M,M,M,M,M,M,M,M,KBOK 012145Z AUTO 31011KT 10SM CLR A3015 RMK MADISHF
BOK,2017-04-01 21:50,-124.2901,42.0746,M,M,M,M,M,M,30.14,M,10.00,M,CLR,M,M,M,M,M,M,M,M,KBOK 012150Z AUTO /////KT 10SM CLR A3014 RMK MADISHF
BOK,2017-04-01 21:55,-124.2901,42.0746,M,M,M,310.00,15.00,M,30.14,M,10.00,M,CLR,M,M,M,M,M,M,M,M,KBOK 012155Z AUTO 31015KT 10SM CLR A3014 RMK MADISHF
BOK,2017-04-01 21:56,-124.2901,42.0746,64.90,51.10,60.90,310.00,17.00,0.00,30.14,1022.00,10.00,20.00,CLR,M,M,M,M,M,M,M,M,KBOK 012156Z AUTO 31017G20KT 10SM CLR 18/11 A3014 RMK AO2 SLP220 T01830106
BOK,2017-04-01 22:00,-124.2901,42.0746,M,M,M,310.00,15.00,M,30.14,M,10.00,M,CLR,M,M,M,M,M,M,M,M,KBOK 012200Z AUTO 31015KT 10SM CLR A3014 RMK MADISHF
BOK,2017-04-01 22:05,-124.2901,42.0746,M,M,M,M,M,M,30.14,M,10.00,M,CLR,M,M,M,M,M,M,M,M,KBOK 012205Z AUTO /////KT 10SM CLR A3014 RMK MADISHF
BOK,2017-04-01 22:10,-124.2901,42.0746,M,M,M,M,M,M,30.14,M,10.00,M,CLR,M,M,M,M,M,M,M,M,KBOK 012210Z AUTO /////KT 10SM CLR A3014 RMK MADISHF
BOK,2017-04-01 22:15,-124.2901,42.0746,M,M,M,310.00,13.00,M,30.14,M,10.00,M,CLR,M,M,M,M,M,M,M,M,KBOK 012215Z AUTO 31013KT 10SM CLR A3014 RMK MADISHF
BOK,2017-04-01 22:20,-124.2901,42.0746,M,M,M,M,M,M,30.14,M,10.00,M,CLR,M,M,M,M,M,M,M,M,KBOK 012220Z AUTO /////KT 10SM CLR A3014 RMK MADISHF
BOK,2017-04-01 22:25,-124.2901,42.0746,M,M,M,310.00,12.00,M,30.13,M,10.00,18.00,CLR,M,M,M,M,M,M,M,M,KBOK 012225Z AUTO 31012G18KT 10SM CLR A3013 RMK MADISHF
BOK,2017-04-01 22:30,-124.2901,42.0746,M,M,M,310.00,12.00,M,30.13,M,10.00,M,CLR,M,M,M,M,M,M,M,M,KBOK 012230Z AUTO 31012KT 10SM CLR A3013 RMK MADISHF
BOK,2017-04-01 22:35,-124.2901,42.0746,M,M,M,M,M,M,30.14,M,10.00,M,CLR,M,M,M,M,M,M,M,M,KBOK 012235Z AUTO /////KT 10SM CLR A3014 RMK MADISHF
BOK,2017-04-01 22:40,-124.2901,42.0746,M,M,M,M,M,M,30.14,M,10.00,M,CLR,M,M,M,M,M,M,M,M,KBOK 012240Z AUTO /////KT 10SM CLR A3014 RMK MADISHF
BOK,2017-04-01 22:45,-124.2901,42.0746,M,M,M,M,M,M,30.14,M,10.00,M,CLR,M,M,M,M,M,M,M,M,KBOK 012245Z AUTO /////KT 10SM CLR A3014 RMK MADISHF
BOK,2017-04-01 22:50,-124.2901,42.0746,M,M,M,310.00,13.00,M,30.14,M,10.00,M,CLR,M,M,M,M,M,M,M,M,KBOK 012250Z AUTO 31013KT 10SM CLR A3014 RMK MADISHF
BOK,2017-04-01 22:55,-124.2901,42.0746,M,M,M,320.00,13.00,M,30.14,M,10.00,M,CLR,M,M,M,M,M,M,M,M,KBOK 012255Z AUTO 32013KT 10SM CLR A3014 RMK MADISHF
BOK,2017-04-01 22:56,-124.2901,42.0746,64.90,52.00,62.96,320.00,13.00,0.00,30.14,1021.90,10.00,18.00,CLR,M,M,M,M,M,M,M,M,KBOK 012256Z AUTO 32013G18KT 10SM CLR 18/11 A3014 RMK AO2 SLP219 T01830111
BOK,2017-04-01 23:00,-124.2901,42.0746,M,M,M,310.00,13.00,M,30.14,M,10.00,M,CLR,M,M,M,M,M,M,M,M,KBOK 012300Z AUTO 31013KT 10SM CLR A3014 RMK MADISHF
BOK,2017-04-01 23:05,-124.2901,42.0746,M,M,M,320.00,13.00,M,30.14,M,10.00,M,CLR,M,M,M,M,M,M,M,M,KBOK 012305Z AUTO 32013KT 10SM CLR A3014 RMK MADISHF
BOK,2017-04-01 23:10,-124.2901,42.0746,M,M,M,320.00,14.00,M,30.13,M,10.00,M,CLR,M,M,M,M,M,M,M,M,KBOK 012310Z AUTO 32014KT 10SM CLR A3013 RMK MADISHF
BOK,2017-04-01 23:15,-124.2901,42.0746,M,M,M,320.00,13.00,M,30.13,M,10.00,M,CLR,M,M,M,M,M,M,M,M,KBOK 012315Z AUTO 32013KT 10SM CLR A3013 RMK MADISHF
BOK,2017-04-01 23:20,-124.2901,42.0746,M,M,M,310.00,12.00,M,30.13,M,10.00,M,CLR,M,M,M,M,M,M,M,M,KBOK 012320Z AUTO 31012KT 10SM CLR A3013 RMK MADISHF
BOK,2017-04-01 23:25,-124.2901,42.0746,M,M,M,320.00,14.00,M,30.13,M,10.00,M,CLR,M,M,M,M,M,M,M,M,KBOK 012325Z AUTO 32014KT 10SM CLR A3013 RMK MADISHF
BOK,2017-04-01 23:30,-124.2901,42.0746,M,M,M,320.00,11.00,M,30.13,M,10.00,M,CLR,M,M,M,M,M,M,M,M,KBOK 012330Z AUTO 32011KT 10SM CLR A3013 RMK MADISHF
BOK,2017-04-01 23:35,-124.2901,42.0746,M,M,M,320.00,13.00,M,30.13,M,10.00,M,CLR,M,M,M,M,M,M,M,M,KBOK 012335Z AUTO 32013KT 10SM CLR A3013 RMK MADISHF
BOK,2017-04-01 23:40,-124.2901,42.0746,M,M,M,M,M,M,30.13,M,10.00,M,CLR,M,M,M,M,M,M,M,M,KBOK 012340Z AUTO /////KT 10SM CLR A3013 RMK MADISHF
BOK,2017-04-01 23:45,-124.2901,42.0746,M,M,M,310.00,12.00,M,30.13,M,10.00,M,CLR,M,M,M,M,M,M,M,M,KBOK 012345Z AUTO 31012KT 10SM CLR A3013 RMK MADISHF
BOK,2017-04-01 23:50,-124.2901,42.0746,M,M,M,320.00,10.00,M,30.13,M,10.00,15.00,CLR,M,M,M,M,M,M,M,M,KBOK 012350Z AUTO 32010G15KT 10SM CLR A3013 RMK MADISHF
BOK,2017-04-01 23:55,-124.2901,42.0746,M,M,M,310.00,11.00,M,30.13,M,10.00,M,CLR,M,M,M,M,M,M,M,M,KBOK 012355Z AUTO 31011KT 10SM CLR A3013 RMK MADISHF
BOK,2017-04-01 23:56,-124.2901,42.0746,64.00,53.10,67.66,320.00,12.00,0.00,30.13,1021.80,10.00,M,CLR,M,M,M,M,M,M,M,M,KBOK 012356Z AUTO 32012KT 10SM CLR 18/12 A3013 RMK AO2 SLP218 T01780117 10189 20161 56012
