#DEBUG: Format Typ    -> comma
#DEBUG: Time Period   -> 2017-04-01 00:00:00+00:00 2017-04-02 00:00:00+00:00
#DEBUG: Time Zone     -> Etc/UTC
#DEBUG: Data Contact   -> daryl herzmann akrherz@iastate.edu 515-294-5978
#DEBUG: Entries Found -> -1
station,valid,lon,lat,tmpf, dwpf, relh, drct, sknt, p01i, alti, mslp, vsby, gust, skyc1, skyc2, skyc3, skyc4, skyl1, skyl2, skyl3, skyl4, presentwx, metar
BOS,2017-04-01 00:00,-71.0097,42.3606,M,M,M,80.00,12.00,M,30.07,M,6.00,M,SCT,SCT,OVC,M,900.00,1800.00,3399.00,M,RA BR,KBOS 010000Z AUTO 08012KT 6SM RA BR SCT009 SCT018 OVC033 A3007 RMK MADISHF
BOS,2017-04-01 00:05,-71.0097,42.3606,M,M,M,80.00,12.00,0.01,30.07,M,6.00,M,SCT,SCT,OVC,M,900.00,1800.00,3399.00,M,RA BR,KBOS 010005Z AUTO 08012KT 6SM RA BR SCT009 SCT018 OVC033 A3007 RMK P0001 MADISHF
BOS,2017-04-01 00:10,-71.0097,42.3606,M,M,M,90.00,12.00,0.01,30.07,M,5.00,M,SCT,SCT,OVC,M,900.00,1800.00,3399.00,M,RA BR,KBOS 010010Z AUTO 09012KT 5SM RA BR SCT009 SCT018 OVC033 A3007 RMK P0001 MADISHF
BOS,2017-04-01 00:15,-71.0097,42.3606,M,M,M,80.00,14.00,0.02,30.07,M,5.00,M,SCT,BKN,OVC,M,800.00,1400.00,3399.00,M,-RA -,KBOS 010015Z AUTO 08014KT 5SM -RA - SCT008 BKN014 OVC033 A3007 RMK P0002 MADISHF
BOS,2017-04-01 00:16,-71.0097,42.3606,34.00,33.10,96.46,80.00,13.00,0.02,30.07,M,3.00,M,SCT,BKN,OVC,M,800.00,1400.00,3400.00,M,-PLRA,KBOS 010016Z 08013KT 3SM -PLRA SCT008 BKN014 OVC034 01/01 A3007 RMK AO2 SFC VIS 5 GSB15E16PLB16 P0002 T00110006 $
BOS,2017-04-01 00:20,-71.0097,42.3606,M,M,M,80.00,12.00,0.03,30.07,M,4.00,M,SCT,BKN,OVC,M,800.00,1400.00,3399.00,M,-RA -PL,KBOS 010020Z AUTO 08012KT 4SM -RA -PL SCT008 BKN014 OVC033 A3007 RMK P0003 MADISHF
BOS,2017-04-01 00:25,-71.0097,42.3606,M,M,M,80.00,14.00,0.03,30.07,M,4.00,M,SCT,BKN,OVC,M,800.00,1400.00,3399.00,M,-RA -PL,KBOS 010025Z AUTO 08014KT 4SM -RA -PL SCT008 BKN014 OVC033 A3007 RMK P0003 MADISHF
BOS,2017-04-01 00:30,-71.0097,42.3606,M,M,M,80.00,14.00,0.03,30.06,M,4.00,M,SCT,BKN,OVC,M,800.00,1400.00,3399.00,M,-RA -PL,KBOS 010030Z AUTO 08014KT 4SM -RA -PL SCT008 BKN014 OVC033 A3006 RMK P0003  PLB09 MADISHF
BOS,2017-04-01 00:35,-71.0097,42.3606,M,M,M,80.00,17.00,0.04,30.06,M,4.00,M,SCT,BKN,OVC,M,800.00,1400.00,3399.00,M,-RA -PL,KBOS 010035Z AUTO 08017KT 4SM -RA -PL SCT008 BKN014 OVC033 A3006 RMK P0004  PLB09 MADISHF
BOS,2017-04-01 00:40,-71.0097,42.3606,M,M,M,80.00,15.00,0.05,30.06,M,4.00,M,SCT,BKN,OVC,M,800.00,1400.00,3399.00,M,-RA -PL,KBOS 010040Z AUTO 08015KT 4SM -RA -PL SCT008 BKN014 OVC033 A3006 RMK P0005  PLB09 MADISHF
BOS,2017-04-01 00:45,-71.0097,42.3606,M,M,M,80.00,16.00,0.05,30.06,M,4.00,M,SCT,BKN,OVC,M,800.00,1400.00,3399.00,M,-RA -PL,KBOS 010045Z AUTO 08016KT 4SM -RA -PL SCT008 BKN014 OVC033 A3006 RMK P0005  PLB09 MADISHF
BOS,2017-04-01 00:50,-71.0097,42.3606,M,M,M,80.00,17.00,0.06,30.06,M,4.00,M,SCT,BKN,OVC,M,800.00,1400.00,3399.00,M,-RA -PL,KBOS 010050Z AUTO 08017KT 4SM -RA -PL SCT008 BKN014 OVC033 A3006 RMK P0006  PLB09 MADISHF
BOS,2017-04-01 00:54,-71.0097,42.3606,34.00,33.10,96.46,80.00,17.00,0.07,30.06,1017.70,3.00,M,SCT,BKN,OVC,M,800.00,2100.00,3400.00,M,-PLRA,KBOS 010054Z 08017KT 3SM -PLRA SCT008 BKN021 OVC034 01/01 A3006 RMK AO2 SFC VIS 4 SLP177 PLB09 P0007 T00110006 $
BOS,2017-04-01 00:55,-71.0097,42.3606,M,M,M,80.00,18.00,M,30.06,M,4.00,M,SCT,BKN,OVC,M,700.00,2300.00,3100.00,M,-RA -PL,KBOS 010055Z AUTO 08018KT 4SM -RA -PL SCT007 BKN023 OVC031 A3006 RMK MADISHF
BOS,2017-04-01 01:00,-71.0097,42.3606,M,M,M,80.00,17.00,M,30.06,M,4.00,M,SCT,BKN,OVC,M,700.00,2300.00,3100.00,M,-RA -PL,KBOS 010100Z AUTO 08017KT 4SM -RA -PL SCT007 BKN023 OVC031 A3006 RMK MADISHF
BOS,2017-04-01 01:05,-71.0097,42.3606,M,M,M,80.00,15.00,0.01,30.06,M,4.00,20.00,SCT,BKN,OVC,M,700.00,2300.00,3100.00,M,-RA -PL,KBOS 010105Z AUTO 08015G20KT 4SM -RA -PL SCT007 BKN023 OVC031 A3006 RMK P0001 MADISHF
BOS,2017-04-01 01:10,-71.0097,42.3606,M,M,M,80.00,16.00,0.02,30.06,M,4.00,M,SCT,BKN,OVC,M,700.00,1600.00,3100.00,M,-RA -PL,KBOS 010110Z AUTO 08016KT 4SM -RA -PL SCT007 BKN016 OVC031 A3006 RMK P0002 MADISHF
BOS,2017-04-01 01:15,-71.0097,42.3606,M,M,M,80.00,15.00,0.02,30.05,M,4.00,M,SCT,BKN,OVC,M,700.00,1600.00,3100.00,M,-RA -PL,KBOS 010115Z AUTO 08015KT 4SM -RA -PL SCT007 BKN016 OVC031 A3005 RMK P0002 MADISHF
BOS,2017-04-01 01:20,-71.0097,42.3606,M,M,M,80.00,15.00,0.04,30.05,M,4.00,M,SCT,BKN,OVC,M,700.00,1600.00,3100.00,M,-RA -PL,KBOS 010120Z AUTO 08015KT 4SM -RA -PL SCT007 BKN016 OVC031 A3005 RMK P0004 MADISHF
BOS,2017-04-01 01:25,-71.0097,42.3606,M,M,M,80.00,16.00,0.04,30.05,M,4.00,M,SCT,BKN,OVC,M,700.00,1600.00,3100.00,M,-RA -PL,KBOS 010125Z AUTO 08016KT 4SM -RA -PL SCT007 BKN016 OVC031 A3005 RMK P0004 MADISHF
BOS,2017-04-01 01:30,-71.0097,42.3606,M,M,M,80.00,16.00,0.05,30.05,M,4.00,M,SCT,BKN,OVC,M,700.00,1500.00,3100.00,M,-RA -PL,KBOS 010130Z AUTO 08016KT 4SM -RA -PL SCT007 BKN015 OVC031 A3005 RMK P0005 MADISHF
BOS,2017-04-01 01:32,-71.0097,42.3606,34.00,33.10,96.46,80.00,15.00,0.06,30.05,M,3.00,M,BKN,OVC,M,M,700.00,1600.00,M,M,-PLRA,KBOS 010132Z 08015KT 3SM -PLRA BKN007 OVC016 01/01 A3005 RMK AO2 P0006 T00110006 $
BOS,2017-04-01 01:35,-71.0097,42.3606,M,M,M,80.00,14.00,0.06,30.05,M,3.00,M,BKN,OVC,M,M,700.00,1600.00,M,M,-RA -PL,KBOS 010135Z AUTO 08014KT 3SM -RA -PL BKN007 OVC016 A3005 RMK P0006 MADISHF
BOS,2017-04-01 01:39,-71.0097,42.3606,34.00,33.10,96.46,80.00,15.00,0.07,30.04,M,3.00,M,BKN,OVC,M,M,700.00,1700.00,M,M,-PLRA,KBOS 010139Z 08015KT 3SM -PLRA BKN007 OVC017 01/01 A3004 RMK AO2 P0007 T00110006 $
BOS,2017-04-01 01:40,-71.0097,42.3606,M,M,M,80.00,14.00,0.07,30.04,M,3.00,M,BKN,OVC,M,M,700.00,1699.00,M,M,-RA -PL,KBOS 010140Z AUTO 08014KT 3SM -RA -PL BKN007 OVC016 A3004 RMK P0007 MADISHF
BOS,2017-04-01 01:45,-71.0097,42.3606,M,M,M,80.00,17.00,0.09,30.04,M,3.00,M,BKN,OVC,M,M,700.00,1699.00,M,M,-RA -PL,KBOS 010145Z AUTO 08017KT 3SM -RA -PL BKN007 OVC016 A3004 RMK P0009 MADISHF
BOS,2017-04-01 01:50,-71.0097,42.3606,M,M,M,80.00,18.00,0.10,30.04,M,3.00,M,BKN,OVC,M,M,700.00,1699.00,M,M,-RA -PL,KBOS 010150Z AUTO 08018KT 3SM -RA -PL BKN007 OVC016 A3004 RMK P0010 MADISHF
BOS,2017-04-01 01:54,-71.0097,42.3606,34.00,33.10,96.46,80.00,15.00,0.10,30.04,1017.10,3.00,M,BKN,OVC,M,M,700.00,1700.00,M,M,-PLRA,KBOS 010154Z 08015KT 3SM -PLRA BKN007 OVC017 01/01 A3004 RMK AO2 SLP171 P0010 T00110006 $
BOS,2017-04-01 01:55,-71.0097,42.3606,M,M,M,80.00,17.00,0.01,30.04,M,3.00,M,BKN,OVC,M,M,700.00,1699.00,M,M,-RA -PL,KBOS 010155Z AUTO 08017KT 3SM -RA -PL BKN007 OVC016 A3004 RMK P0001 MADISHF
BOS,2017-04-01 02:00,-71.0097,42.3606,M,M,M,80.00,16.00,0.02,30.03,M,3.00,M,BKN,OVC,M,M,700.00,1699.00,M,M,-RA -PL,KBOS 010200Z AUTO 08016KT 3SM -RA -PL BKN007 OVC016 A3003 RMK P0002 MADISHF
BOS,2017-04-01 02:05,-71.0097,42.3606,M,M,M,90.00,16.00,0.03,30.03,M,3.00,M,BKN,OVC,M,M,700.00,1699.00,M,M,-RA -PL,KBOS 010205Z AUTO 09016KT 3SM -RA -PL BKN007 OVC016 A3003 RMK P0003 MADISHF
BOS,2017-04-01 02:10,-71.0097,42.3606,M,M,M,80.00,16.00,0.04,30.03,M,3.00,M,BKN,OVC,M,M,700.00,1699.00,M,M,-RA -PL,KBOS 010210Z AUTO 08016KT 3SM -RA -PL BKN007 OVC016 A3003 RMK P0004 MADISHF
BOS,2017-04-01 02:15,-71.0097,42.3606,M,M,M,80.00,17.00,0.05,30.03,M,3.00,M,BKN,OVC,M,M,700.00,1699.00,M,M,-RA -PL,KBOS 010215Z AUTO 08017KT 3SM -RA -PL BKN007 OVC016 A3003 RMK P0005 MADISHF
BOS,2017-04-01 02:20,-71.0097,42.3606,M,M,M,80.00,18.00,0.06,30.02,M,3.00,M,BKN,OVC,M,M,700.00,1699.00,M,M,-RA -PL,KBOS 010220Z AUTO 08018KT 3SM -RA -PL BKN007 OVC016 A3002 RMK P0006 MADISHF
BOS,2017-04-01 02:25,-71.0097,42.3606,M,M,M,80.00,17.00,0.07,30.02,M,3.00,M,BKN,OVC,M,M,700.00,1699.00,M,M,-RA -PL,KBOS 010225Z AUTO 08017KT 3SM -RA -PL BKN007 OVC016 A3002 RMK P0007 MADISHF
BOS,2017-04-01 02:30,-71.0097,42.3606,34.00,33.10,96.46,80.00,17.00,0.08,30.02,M,3.00,M,SCT,BKN,OVC,M,700.00,1100.00,2400.00,M,-RA BR,KBOS 010230Z 08017KT 3SM -RA BR SCT007 BKN011 OVC024 01/01 A3002 RMK AO2 PLE27 P0008 T00110006 $
BOS,2017-04-01 02:35,-71.0097,42.3606,M,M,M,M,M,0.09,30.01,M,3.00,M,SCT,OVC,M,M,700.00,1100.00,M,M,-RA BR,KBOS 010235Z AUTO /////KT 3SM -RA BR SCT007 OVC011 A3001 RMK P0009 MADISHF
BOS,2017-04-01 02:40,-71.0097,42.3606,M,M,M,80.00,19.00,0.10,30.01,M,3.00,M,SCT,OVC,M,M,700.00,1100.00,M,M,-RA BR,KBOS 010240Z AUTO 08019KT 3SM -RA BR SCT007 OVC011 A3001 RMK P0010 MADISHF
BOS,2017-04-01 02:45,-71.0097,42.3606,M,M,M,80.00,17.00,0.10,30.01,M,3.00,M,SCT,OVC,M,M,700.00,1100.00,M,M,-RA BR,KBOS 010245Z AUTO 08017KT 3SM -RA BR SCT007 OVC011 A3001 RMK P0010 MADISHF
BOS,2017-04-01 02:50,-71.0097,42.3606,M,M,M,80.00,18.00,0.12,30.00,M,3.00,M,SCT,BKN,OVC,M,900.00,1800.00,3000.00,M,-RA BR,KBOS 010250Z AUTO 08018KT 3SM -RA BR SCT009 BKN018 OVC030 A3000 RMK P0012 CIG 013 E  MADISHF
BOS,2017-04-01 02:54,-71.0097,42.3606,34.00,33.10,96.46,80.00,20.00,0.13,30.00,1015.80,3.00,M,SCT,BKN,OVC,M,900.00,1800.00,3000.00,M,-RA BR,KBOS 010254Z 08020KT 3SM -RA BR SCT009 BKN018 OVC030 01/01 A3000 RMK AO2 PLE27 CIG 013 E SLP158 P0013 60030 T00110006 58024 $
BOS,2017-04-01 02:55,-71.0097,42.3606,M,M,M,M,M,M,30.00,M,4.00,M,SCT,BKN,OVC,M,900.00,1800.00,3000.00,M,-RA BR,KBOS 010255Z AUTO /////KT 4SM -RA BR SCT009 BKN018 OVC030 A3000 RMK CIG 013 E  MADISHF
BOS,2017-04-01 03:00,-71.0097,42.3606,M,M,M,80.00,20.00,M,30.00,M,4.00,M,SCT,BKN,OVC,M,900.00,1600.00,3000.00,M,-RA BR,KBOS 010300Z AUTO 08020KT 4SM -RA BR SCT009 BKN016 OVC030 A3000 RMK MADISHF
BOS,2017-04-01 03:05,-71.0097,42.3606,M,M,M,80.00,20.00,0.01,29.99,M,4.00,M,SCT,BKN,OVC,M,900.00,1600.00,3000.00,M,-RA BR,KBOS 010305Z AUTO 08020KT 4SM -RA BR SCT009 BKN016 OVC030 A2999 RMK P0001 MADISHF
BOS,2017-04-01 03:10,-71.0097,42.3606,M,M,M,80.00,20.00,0.02,29.99,M,4.00,M,SCT,BKN,OVC,M,900.00,1600.00,3000.00,M,-RA BR,KBOS 010310Z AUTO 08020KT 4SM -RA BR SCT009 BKN016 OVC030 A2999 RMK P0002 MADISHF
BOS,2017-04-01 03:15,-71.0097,42.3606,M,M,M,80.00,21.00,0.02,29.99,M,4.00,M,SCT,BKN,OVC,M,900.00,1600.00,3000.00,M,-RA BR,KBOS 010315Z AUTO 08021KT 4SM -RA BR SCT009 BKN016 OVC030 A2999 RMK P0002 MADISHF
BOS,2017-04-01 03:20,-71.0097,42.3606,M,M,M,80.00,21.00,0.04,29.98,M,4.00,M,SCT,BKN,OVC,M,900.00,1600.00,3000.00,M,-RA BR,KBOS 010320Z AUTO 08021KT 4SM -RA BR SCT009 BKN016 OVC030 A2998 RMK P0004 MADISHF
BOS,2017-04-01 03:25,-71.0097,42.3606,M,M,M,M,M,0.05,29.98,M,4.00,M,SCT,BKN,OVC,M,900.00,1600.00,3000.00,M,-RA BR,KBOS 010325Z AUTO /////KT 4SM -RA BR SCT009 BKN016 OVC030 A2998 RMK P0005 MADISHF
BOS,2017-04-01 03:30,-71.0097,42.3606,M,M,M,80.00,21.00,0.05,29.98,M,4.00,M,SCT,BKN,OVC,M,900.00,1600.00,3000.00,M,-RA BR,KBOS 010330Z AUTO 08021KT 4SM -RA BR SCT009 BKN016 OVC030 A2998 RMK P0005 MADISHF
BOS,2017-04-01 03:35,-71.0097,42.3606,M,M,M,M,M,0.06,29.98,M,4.00,M,SCT,BKN,OVC,M,900.00,1600.00,3000.00,M,-RA BR,KBOS 010335Z AUTO /////KT 4SM -RA BR SCT009 BKN016 OVC030 A2998 RMK P0006 MADISHF
BOS,2017-04-01 03:40,-71.0097,42.3606,M,M,M,M,M,0.07,29.98,M,4.00,M,SCT,BKN,OVC,M,900.00,1600.00,3000.00,M,-RA BR,KBOS 010340Z AUTO /////KT 4SM -RA BR SCT009 BKN016 OVC030 A2998 RMK P0007 MADISHF
BOS,2017-04-01 03:45,-71.0097,42.3606,M,M,M,80.00,19.00,0.08,29.97,M,4.00,M,SCT,BKN,OVC,M,900.00,1600.00,3000.00,M,-RA BR,KBOS 010345Z AUTO 08019KT 4SM -RA BR SCT009 BKN016 OVC030 A2997 RMK P0008 MADISHF
BOS,2017-04-01 03:50,-71.0097,42.3606,M,M,M,80.00,19.00,0.08,29.97,M,4.00,M,BKN,BKN,OVC,M,900.00,1800.00,2600.00,M,RA BR,KBOS 010350Z AUTO 08019KT 4SM RA BR BKN009 BKN018 OVC026 A2997 RMK P0008 MADISHF
BOS,2017-04-01 03:54,-71.0097,42.3606,35.10,33.10,92.32,80.00,21.00,0.09,29.97,1014.90,4.00,M,BKN,BKN,OVC,M,1100.00,1800.00,2400.00,M,RA BR,KBOS 010354Z 08021KT 4SM RA BR BKN011 BKN018 OVC024 02/01 A2997 RMK AO2 PK WND 09028/0336 SLP149 P0009 T00170006 $
BOS,2017-04-01 03:55,-71.0097,42.3606,M,M,M,80.00,20.00,M,29.97,M,4.00,M,BKN,BKN,OVC,M,1100.00,1800.00,2400.00,M,RA BR,KBOS 010355Z AUTO 08020KT 4SM RA BR BKN011 BKN018 OVC024 A2997 RMK MADISHF
BOS,2017-04-01 04:00,-71.0097,42.3606,M,M,M,M,M,0.01,29.97,M,4.00,M,BKN,BKN,OVC,M,1100.00,1800.00,2400.00,M,RA BR,KBOS 010400Z AUTO /////KT 4SM RA BR BKN011 BKN018 OVC024 A2997 RMK P0001 MADISHF
BOS,2017-04-01 04:05,-71.0097,42.3606,M,M,M,M,M,0.02,29.97,M,4.00,M,BKN,BKN,OVC,M,1100.00,1800.00,2400.00,M,RA BR,KBOS 010405Z AUTO /////KT 4SM RA BR BKN011 BKN018 OVC024 A2997 RMK P0002 MADISHF
BOS,2017-04-01 04:10,-71.0097,42.3606,M,M,M,M,M,0.03,29.97,M,4.00,M,BKN,BKN,OVC,M,1100.00,1800.00,2300.00,M,RA BR,KBOS 010410Z AUTO /////KT 4SM RA BR BKN011 BKN018 OVC023 A2997 RMK P0003 MADISHF
BOS,2017-04-01 04:15,-71.0097,42.3606,M,M,M,M,M,0.04,29.97,M,4.00,M,BKN,BKN,OVC,M,1100.00,1800.00,2300.00,M,RA BR,KBOS 010415Z AUTO /////KT 4SM RA BR BKN011 BKN018 OVC023 A2997 RMK P0004 MADISHF
BOS,2017-04-01 04:20,-71.0097,42.3606,M,M,M,80.00,18.00,0.05,29.97,M,4.00,M,BKN,OVC,M,M,1300.00,1999.00,M,M,RA BR,KBOS 010420Z AUTO 08018KT 4SM RA BR BKN013 OVC019 A2997 RMK P0005 MADISHF
BOS,2017-04-01 04:25,-71.0097,42.3606,M,M,M,M,M,0.06,29.96,M,5.00,M,BKN,OVC,M,M,1300.00,1999.00,M,M,RA BR,KBOS 010425Z AUTO /////KT 5SM RA BR BKN013 OVC019 A2996 RMK P0006 MADISHF
BOS,2017-04-01 04:30,-71.0097,42.3606,M,M,M,80.00,18.00,0.07,29.96,M,5.00,M,BKN,OVC,M,M,1300.00,1999.00,M,M,RA BR,KBOS 010430Z AUTO 08018KT 5SM RA BR BKN013 OVC019 A2996 RMK P0007 MADISHF
BOS,2017-04-01 04:35,-71.0097,42.3606,M,M,M,M,M,0.08,29.96,M,5.00,M,BKN,OVC,M,M,1300.00,1999.00,M,M,RA BR,KBOS 010435Z AUTO /////KT 5SM RA BR BKN013 OVC019 A2996 RMK P0008 MADISHF
BOS,2017-04-01 04:40,-71.0097,42.3606,M,M,M,80.00,20.00,0.09,29.95,M,5.00,M,BKN,OVC,M,M,1300.00,1999.00,M,M,RA BR,KBOS 010440Z AUTO 08020KT 5SM RA BR BKN013 OVC019 A2995 RMK P0009 MADISHF
BOS,2017-04-01 04:45,-71.0097,42.3606,M,M,M,M,M,0.09,29.95,M,5.00,M,BKN,BKN,OVC,M,999.00,1600.00,2100.00,M,RA BR,KBOS 010445Z AUTO /////KT 5SM RA BR BKN009 BKN016 OVC021 A2995 RMK P0009 MADISHF
BOS,2017-04-01 04:50,-71.0097,42.3606,M,M,M,M,M,0.10,29.95,M,4.00,M,BKN,OVC,M,M,999.00,1699.00,M,M,RA BR,KBOS 010450Z AUTO /////KT 4SM RA BR BKN009 OVC016 A2995 RMK P0010 MADISHF
BOS,2017-04-01 04:54,-71.0097,42.3606,36.00,34.00,92.35,80.00,19.00,0.11,29.95,1014.00,5.00,M,OVC,M,M,M,1200.00,M,M,M,RA BR,KBOS 010454Z 08019KT 5SM RA BR OVC012 02/01 A2995 RMK AO2 PK WND 08028/0403 SLP140 P0011 T00220011 400440006 $
BOS,2017-04-01 04:55,-71.0097,42.3606,M,M,M,80.00,19.00,M,29.95,M,5.00,M,BKN,OVC,M,M,1200.00,1600.00,M,M,RA BR,KBOS 010455Z AUTO 08019KT 5SM RA BR BKN012 OVC016 A2995 RMK MADISHF
BOS,2017-04-01 05:00,-71.0097,42.3606,M,M,M,M,M,M,29.95,M,5.00,M,OVC,M,M,M,1200.00,M,M,M,RA BR,KBOS 010500Z AUTO /////KT 5SM RA BR OVC012 A2995 RMK MADISHF
BOS,2017-04-01 05:05,-71.0097,42.3606,M,M,M,M,M,0.01,29.94,M,5.00,M,OVC,M,M,M,1200.00,M,M,M,RA BR,KBOS 010505Z AUTO /////KT 5SM RA BR OVC012 A2994 RMK P0001 MADISHF
BOS,2017-04-01 05:10,-71.0097,42.3606,M,M,M,80.00,22.00,0.01,29.94,M,5.00,M,BKN,OVC,M,M,999.00,1400.00,M,M,RA BR,KBOS 010510Z AUTO 08022KT 5SM RA BR BKN009 OVC014 A2994 RMK P0001 MADISHF
BOS,2017-04-01 05:15,-71.0097,42.3606,M,M,M,80.00,20.00,0.03,29.94,M,4.00,M,BKN,OVC,M,M,999.00,1600.00,M,M,RA BR,KBOS 010515Z AUTO 08020KT 4SM RA BR BKN009 OVC016 A2994 RMK P0003 MADISHF
BOS,2017-04-01 05:20,-71.0097,42.3606,M,M,M,M,M,0.04,29.93,M,4.00,M,BKN,OVC,M,M,999.00,1600.00,M,M,RA BR,KBOS 010520Z AUTO /////KT 4SM RA BR BKN009 OVC016 A2993 RMK P0004 MADISHF
BOS,2017-04-01 05:25,-71.0097,42.3606,M,M,M,M,M,0.06,29.93,M,4.00,M,BKN,BKN,OVC,M,999.00,1600.00,2400.00,M,RA BR,KBOS 010525Z AUTO /////KT 4SM RA BR BKN009 BKN016 OVC024 A2993 RMK P0006 MADISHF
BOS,2017-04-01 05:30,-71.0097,42.3606,M,M,M,M,M,0.07,29.93,M,4.00,M,BKN,BKN,OVC,M,999.00,1600.00,2400.00,M,RA BR,KBOS 010530Z AUTO /////KT 4SM RA BR BKN009 BKN016 OVC024 A2993 RMK P0007 MADISHF
BOS,2017-04-01 05:35,-71.0097,42.3606,M,M,M,M,M,0.08,29.93,M,4.00,M,BKN,BKN,OVC,M,999.00,1600.00,2400.00,M,RA BR,KBOS 010535Z AUTO /////KT 4SM RA BR BKN009 BKN016 OVC024 A2993 RMK P0008 MADISHF
BOS,2017-04-01 05:40,-71.0097,42.3606,M,M,M,M,M,0.08,29.92,M,4.00,M,BKN,BKN,OVC,M,999.00,1600.00,2400.00,M,RA BR,KBOS 010540Z AUTO /////KT 4SM RA BR BKN009 BKN016 OVC024 A2992 RMK P0008 MADISHF
BOS,2017-04-01 05:45,-71.0097,42.3606,M,M,M,M,M,0.09,29.92,M,5.00,M,BKN,BKN,OVC,M,999.00,1600.00,2400.00,M,-RA BR,KBOS 010545Z AUTO /////KT 5SM -RA BR BKN009 BKN016 OVC024 A2992 RMK P0009 MADISHF
BOS,2017-04-01 05:50,-71.0097,42.3606,M,M,M,80.00,20.00,0.10,29.92,M,4.00,M,SCT,SCT,OVC,M,999.00,1600.00,2400.00,M,-RA BR,KBOS 010550Z AUTO 08020KT 4SM -RA BR SCT009 SCT016 OVC024 A2992 RMK P0010 MADISHF
BOS,2017-04-01 05:54,-71.0097,42.3606,36.00,35.10,96.49,90.00,22.00,0.10,29.91,1012.90,4.00,M,FEW,SCT,OVC,M,1000.00,1600.00,2300.00,M,-RA BR,KBOS 010554Z 09022KT 4SM -RA BR FEW010 SCT016 OVC023 02/02 A2991 RMK AO2 PK WND 09029/0538 SLP129 P0010 60060 T00220017 10022 20006 58029 $
BOS,2017-04-01 05:55,-71.0097,42.3606,M,M,M,M,M,0.01,29.91,M,4.00,M,FEW,SCT,OVC,M,999.00,1600.00,2300.00,M,-RA BR,KBOS 010555Z AUTO /////KT 4SM -RA BR FEW009 SCT016 OVC023 A2991 RMK P0001 MADISHF
BOS,2017-04-01 06:00,-71.0097,42.3606,M,M,M,M,M,0.01,29.91,M,4.00,M,FEW,BKN,OVC,M,1200.00,1699.00,2300.00,M,-RA BR,KBOS 010600Z AUTO /////KT 4SM -RA BR FEW012 BKN016 OVC023 A2991 RMK P0001 MADISHF
BOS,2017-04-01 06:05,-71.0097,42.3606,M,M,M,M,M,0.03,29.91,M,4.00,M,SCT,SCT,OVC,M,999.00,1600.00,2100.00,M,-RA BR,KBOS 010605Z AUTO /////KT 4SM -RA BR SCT009 SCT016 OVC021 A2991 RMK P0003 MADISHF
BOS,2017-04-01 06:10,-71.0097,42.3606,M,M,M,M,M,0.04,29.91,M,4.00,M,SCT,BKN,OVC,M,999.00,1800.00,2300.00,M,-RA BR,KBOS 010610Z AUTO /////KT 4SM -RA BR SCT009 BKN018 OVC023 A2991 RMK P0004 MADISHF
BOS,2017-04-01 06:15,-71.0097,42.3606,M,M,M,M,M,0.04,29.90,M,4.00,M,BKN,BKN,OVC,M,999.00,1800.00,2300.00,M,-RA BR,KBOS 010615Z AUTO /////KT 4SM -RA BR BKN009 BKN018 OVC023 A2990 RMK P0004 MADISHF
BOS,2017-04-01 06:19,-71.0097,42.3606,36.00,35.10,96.49,70.00,20.00,0.05,29.90,M,4.00,M,FEW,BKN,OVC,M,800.00,1200.00,2300.00,M,-RA BR,KBOS 010619Z 07020KT 4SM -RA BR FEW008 BKN012 OVC023 02/02 A2990 RMK AO2 PK WND 09027/0602 P0005 T00220017 $
BOS,2017-04-01 06:20,-71.0097,42.3606,M,M,M,M,M,0.05,29.90,M,4.00,M,FEW,BKN,OVC,M,800.00,1200.00,2300.00,M,-RA BR,KBOS 010620Z AUTO /////KT 4SM -RA BR FEW008 BKN012 OVC023 A2990 RMK P0005 MADISHF
BOS,2017-04-01 06:25,-71.0097,42.3606,M,M,M,M,M,0.05,29.89,M,4.00,M,BKN,BKN,OVC,M,1200.00,1699.00,2300.00,M,-RA BR,KBOS 010625Z AUTO /////KT 4SM -RA BR BKN012 BKN016 OVC023 A2989 RMK P0005 MADISHF
BOS,2017-04-01 06:30,-71.0097,42.3606,M,M,M,M,M,0.06,29.89,M,4.00,M,SCT,BKN,OVC,M,999.00,1800.00,2300.00,M,-RA BR,KBOS 010630Z AUTO /////KT 4SM -RA BR SCT009 BKN018 OVC023 A2989 RMK P0006 CIG 010 E  MADISHF
BOS,2017-04-01 06:35,-71.0097,42.3606,M,M,M,M,M,0.07,29.90,M,4.00,M,SCT,BKN,OVC,M,999.00,1800.00,2300.00,M,-RA BR,KBOS 010635Z AUTO /////KT 4SM -RA BR SCT009 BKN018 OVC023 A2990 RMK P0007 CIG 012 E  MADISHF
BOS,2017-04-01 06:40,-71.0097,42.3606,M,M,M,M,M,0.08,29.89,M,4.00,M,SCT,BKN,OVC,M,999.00,2100.00,2600.00,M,-RA BR,KBOS 010640Z AUTO /////KT 4SM -RA BR SCT009 BKN021 OVC026 A2989 RMK P0008 CIG 015 E  MADISHF
BOS,2017-04-01 06:45,-71.0097,42.3606,M,M,M,M,M,0.09,29.88,M,3.50,M,BKN,BKN,OVC,M,1100.00,1900.00,2400.00,M,-RA BR,KBOS 010645Z AUTO /////KT 3SM -RA BR BKN011 BKN019 OVC024 A2988 RMK P0009 MADISHF
BOS,2017-04-01 06:50,-71.0097,42.3606,M,M,M,80.00,21.00,0.10,29.88,M,3.50,M,FEW,BKN,OVC,M,900.00,1300.00,2200.00,M,-RA BR,KBOS 010650Z AUTO 08021KT 3SM -RA BR FEW009 BKN013 OVC022 A2988 RMK P0010 MADISHF
BOS,2017-04-01 06:54,-71.0097,42.3606,37.00,36.00,96.13,80.00,19.00,0.11,29.89,1012.00,4.00,27.00,SCT,BKN,OVC,M,900.00,1300.00,2500.00,M,-RA BR,KBOS 010654Z 08019G27KT 4SM -RA BR SCT009 BKN013 OVC025 03/02 A2989 RMK AO2 PK WND 07027/0627 SLP120 P0011 T00280022 $
BOS,2017-04-01 06:55,-71.0097,42.3606,M,M,M,80.00,20.00,M,29.89,M,4.00,M,SCT,BKN,OVC,M,900.00,1300.00,2500.00,M,-RA BR,KBOS 010655Z AUTO 08020KT 4SM -RA BR SCT009 BKN013 OVC025 A2989 RMK MADISHF
BOS,2017-04-01 07:00,-71.0097,42.3606,M,M,M,80.00,21.00,M,29.88,M,4.00,M,BKN,OVC,M,M,900.00,1699.00,M,M,-RA BR,KBOS 010700Z AUTO 08021KT 4SM -RA BR BKN009 OVC016 A2988 RMK MADISHF
BOS,2017-04-01 07:05,-71.0097,42.3606,M,M,M,80.00,20.00,M,29.88,M,4.00,M,BKN,OVC,M,M,900.00,1699.00,M,M,-RA BR,KBOS 010705Z AUTO 08020KT 4SM -RA BR BKN009 OVC016 A2988 RMK MADISHF
BOS,2017-04-01 07:06,-71.0097,42.3606,37.00,36.00,96.13,80.00,21.00,0.01,29.88,M,4.00,28.00,BKN,OVC,M,M,900.00,1700.00,M,M,-RA BR,KBOS 010706Z 08021G28KT 4SM -RA BR BKN009 OVC017 03/02 A2988 RMK AO2 PK WND 09028/0700 P0001 T00280022 $
BOS,2017-04-01 07:10,-71.0097,42.3606,M,M,M,M,M,0.01,29.87,M,4.00,M,SCT,OVC,M,M,900.00,1500.00,M,M,-RA BR,KBOS 010710Z AUTO /////KT 4SM -RA BR SCT009 OVC015 A2987 RMK P0001 CIG 009 E  MADISHF
BOS,2017-04-01 07:13,-71.0097,42.3606,37.00,36.00,96.13,80.00,22.00,0.02,29.87,M,4.00,28.00,SCT,BKN,OVC,M,900.00,1500.00,2100.00,M,-RA BR,KBOS 010713Z 08022G28KT 4SM -RA BR SCT009 BKN015 OVC021 03/02 A2987 RMK AO2 PK WND 08028/0710 CIG 009 E PRESFR P0002 T00280022 $
BOS,2017-04-01 07:15,-71.0097,42.3606,M,M,M,M,M,0.02,29.86,M,4.00,M,FEW,OVC,M,M,900.00,1500.00,M,M,-RA BR,KBOS 010715Z AUTO /////KT 4SM -RA BR FEW009 OVC015 A2986 RMK P0002 CIG 009 E  MADISHF
BOS,2017-04-01 07:20,-71.0097,42.3606,M,M,M,M,M,0.03,29.87,M,3.50,M,SCT,OVC,M,M,900.00,1699.00,M,M,-RA BR,KBOS 010720Z AUTO /////KT 3SM -RA BR SCT009 OVC016 A2987 RMK P0003 CIG 009 E  MADISHF
BOS,2017-04-01 07:25,-71.0097,42.3606,M,M,M,M,M,0.04,29.87,M,3.00,M,SCT,OVC,M,M,900.00,1500.00,M,M,-RA BR,KBOS 010725Z AUTO /////KT 3SM -RA BR SCT009 OVC015 A2987 RMK P0004 CIG 009 E  MADISHF
BOS,2017-04-01 07:30,-71.0097,42.3606,M,M,M,80.00,22.00,0.06,29.86,M,3.00,M,BKN,OVC,M,M,900.00,1500.00,M,M,-RA BR,KBOS 010730Z AUTO 08022KT 3SM -RA BR BKN009 OVC015 A2986 RMK P0006 MADISHF
BOS,2017-04-01 07:34,-71.0097,42.3606,37.00,36.00,96.13,70.00,23.00,0.07,29.86,M,3.00,28.00,BKN,OVC,M,M,900.00,1500.00,M,M,-RA BR,KBOS 010734Z 07023G28KT 3SM -RA BR BKN009 OVC015 03/02 A2986 RMK AO2 PK WND 08028/0729 P0007 T00280022 $
BOS,2017-04-01 07:35,-71.0097,42.3606,M,M,M,M,M,0.07,29.85,M,3.00,M,SCT,BKN,OVC,M,900.00,1500.00,2100.00,M,-RA BR,KBOS 010735Z AUTO /////KT 3SM -RA BR SCT009 BKN015 OVC021 A2985 RMK P0007 CIG 009 E  MADISHF
BOS,2017-04-01 07:40,-71.0097,42.3606,M,M,M,80.00,22.00,0.08,29.85,M,3.00,M,SCT,OVC,M,M,900.00,1699.00,M,M,-RA BR,KBOS 010740Z AUTO 08022KT 3SM -RA BR SCT009 OVC016 A2985 RMK P0008 CIG 009 E  MADISHF
BOS,2017-04-01 07:41,-71.0097,42.3606,37.00,36.00,96.13,80.00,23.00,0.08,29.86,M,2.50,30.00,SCT,OVC,M,M,900.00,1700.00,M,M,-RA BR,KBOS 010741Z 08023G30KT 2 1/2SM -RA BR SCT009 OVC017 03/02 A2986 RMK AO2 PK WND 08030/0741 CIG 009 E P0008 T00280022 $
BOS,2017-04-01 07:45,-71.0097,42.3606,M,M,M,M,M,0.10,29.86,M,2.50,M,SCT,OVC,M,M,900.00,1699.00,M,M,-RA BR,KBOS 010745Z AUTO /////KT 2 1/2SM -RA BR SCT009 OVC016 A2986 RMK P0010 CIG 009 E  MADISHF
BOS,2017-04-01 07:50,-71.0097,42.3606,M,M,M,M,M,0.11,29.86,M,3.00,M,SCT,OVC,M,M,900.00,1699.00,M,M,-RA BR,KBOS 010750Z AUTO /////KT 3SM -RA BR SCT009 OVC016 A2986 RMK P0011 CIG 009 E  MADISHF
BOS,2017-04-01 07:52,-71.0097,42.3606,37.40,35.60,93.14,80.00,20.00,0.11,29.86,M,3.00,M,SCT,OVC,M,M,900.00,1500.00,M,M,-RA BR,KBOS 010752Z 08020KT 3SM -RA BR SCT009 OVC015 03/02 A2986 RMK AO2 PK WND 08030/0741 CIG 008 E P0011 $
BOS,2017-04-01 07:54,-71.0097,42.3606,37.00,36.00,96.13,80.00,19.00,0.11,29.86,1010.90,3.00,M,SCT,OVC,M,M,900.00,1500.00,M,M,-RA BR,KBOS 010754Z 08019KT 3SM -RA BR SCT009 OVC015 03/02 A2986 RMK AO2 PK WND 08030/0741 CIG 008 E SLP109 P0011 T00280022 $
BOS,2017-04-01 07:55,-71.0097,42.3606,M,M,M,70.00,19.00,0.01,29.86,M,3.00,M,SCT,OVC,M,M,900.00,1500.00,M,M,-RA BR,KBOS 010755Z AUTO 07019KT 3SM -RA BR SCT009 OVC015 A2986 RMK P0001 CIG 008 E  MADISHF
BOS,2017-04-01 08:00,-71.0097,42.3606,M,M,M,70.00,19.00,0.01,29.86,M,2.50,M,FEW,OVC,M,M,900.00,1500.00,M,M,-RA BR,KBOS 010800Z AUTO 07019KT 2 1/2SM -RA BR FEW009 OVC015 A2986 RMK P0001 CIG 008 E  MADISHF
BOS,2017-04-01 08:03,-71.0097,42.3606,37.00,36.00,96.13,80.00,21.00,0.03,29.86,M,2.50,M,FEW,OVC,M,M,800.00,1300.00,M,M,-RA BR,KBOS 010803Z 08021KT 2 1/2SM -RA BR FEW008 OVC013 03/02 A2986 RMK AO2 CIG 008 E P0003 T00280022 $
BOS,2017-04-01 08:05,-71.0097,42.3606,M,M,M,70.00,18.00,0.04,29.85,M,2.50,M,FEW,OVC,M,M,800.00,1300.00,M,M,-RA BR,KBOS 010805Z AUTO 07018KT 2 1/2SM -RA BR FEW008 OVC013 A2985 RMK P0004 CIG 008 E  MADISHF
BOS,2017-04-01 08:10,-71.0097,42.3606,M,M,M,70.00,18.00,0.06,29.85,M,2.50,M,SCT,OVC,M,M,800.00,1300.00,M,M,-RA BR,KBOS 010810Z AUTO 07018KT 2 1/2SM -RA BR SCT008 OVC013 A2985 RMK P0006 CIG 008 E  MADISHF
BOS,2017-04-01 08:15,-71.0097,42.3606,M,M,M,M,M,0.08,29.84,M,2.50,M,SCT,OVC,M,M,800.00,1300.00,M,M,-RA BR,KBOS 010815Z AUTO /////KT 2 1/2SM -RA BR SCT008 OVC013 A2984 RMK P0008 CIG 008 E  MADISHF
BOS,2017-04-01 08:20,-71.0097,42.3606,M,M,M,M,M,0.09,29.83,M,2.50,M,SCT,OVC,M,M,800.00,1100.00,M,M,-RA BR,KBOS 010820Z AUTO /////KT 2 1/2SM -RA BR SCT008 OVC011 A2983 RMK P0009 CIG 007 E  MADISHF
BOS,2017-04-01 08:25,-71.0097,42.3606,M,M,M,M,M,0.11,29.83,M,2.50,M,OVC,M,M,M,1100.00,M,M,M,-RA BR,KBOS 010825Z AUTO /////KT 2 1/2SM -RA BR OVC011 A2983 RMK P0011 CIG 007 E  MADISHF
BOS,2017-04-01 08:30,-71.0097,42.3606,M,M,M,M,M,0.12,29.83,M,3.00,M,SCT,OVC,M,M,700.00,1100.00,M,M,-RA BR,KBOS 010830Z AUTO /////KT 3SM -RA BR SCT007 OVC011 A2983 RMK P0012 MADISHF
BOS,2017-04-01 08:35,-71.0097,42.3606,M,M,M,M,M,0.13,29.83,M,3.50,M,SCT,OVC,M,M,700.00,1100.00,M,M,-RA BR,KBOS 010835Z AUTO /////KT 3SM -RA BR SCT007 OVC011 A2983 RMK P0013 MADISHF
BOS,2017-04-01 08:36,-71.0097,42.3606,37.00,36.00,96.13,70.00,20.00,0.14,29.83,M,3.00,M,SCT,OVC,M,M,700.00,1100.00,M,M,-RA BR,KBOS 010836Z 07020KT 3SM -RA BR SCT007 OVC011 03/02 A2983 RMK AO2 PK WND 07026/0823 P0014 T00280022 $
BOS,2017-04-01 08:40,-71.0097,42.3606,M,M,M,M,M,0.15,29.83,M,3.50,M,OVC,M,M,M,999.00,M,M,M,-RA BR,KBOS 010840Z AUTO /////KT 3SM -RA BR OVC009 A2983 RMK P0015 MADISHF
BOS,2017-04-01 08:45,-71.0097,42.3606,M,M,M,M,M,0.15,29.82,M,3.00,M,SCT,OVC,M,M,800.00,1200.00,M,M,-RA BR,KBOS 010845Z AUTO /////KT 3SM -RA BR SCT008 OVC012 A2982 RMK P0015 MADISHF
BOS,2017-04-01 08:50,-71.0097,42.3606,M,M,M,60.00,20.00,0.17,29.82,M,3.00,M,SCT,OVC,M,M,800.00,1200.00,M,M,-RA BR,KBOS 010850Z AUTO 06020KT 3SM -RA BR SCT008 OVC012 A2982 RMK P0017 MADISHF
BOS,2017-04-01 08:54,-71.0097,42.3606,37.00,36.00,96.13,60.00,21.00,0.17,29.82,1009.80,3.00,M,BKN,OVC,M,M,800.00,1200.00,M,M,-RA BR,KBOS 010854Z 06021KT 3SM -RA BR BKN008 OVC012 03/02 A2982 RMK AO2 PK WND 06028/0842 SLP098 P0017 60039 T00280022 58022 $
BOS,2017-04-01 08:55,-71.0097,42.3606,M,M,M,M,M,M,29.82,M,3.50,M,BKN,OVC,M,M,800.00,1200.00,M,M,-RA BR,KBOS 010855Z AUTO /////KT 3SM -RA BR BKN008 OVC012 A2982 RMK MADISHF
BOS,2017-04-01 09:00,-71.0097,42.3606,M,M,M,M,M,0.02,29.83,M,3.50,M,BKN,OVC,M,M,800.00,1200.00,M,M,-RA BR,KBOS 010900Z AUTO /////KT 3SM -RA BR BKN008 OVC012 A2983 RMK P0002 MADISHF
BOS,2017-04-01 09:05,-71.0097,42.3606,M,M,M,M,M,0.02,29.82,M,3.50,M,SCT,OVC,M,M,800.00,1400.00,M,M,-RA BR,KBOS 010905Z AUTO /////KT 3SM -RA BR SCT008 OVC014 A2982 RMK P0002 CIG 008 E  MADISHF
BOS,2017-04-01 09:07,-71.0097,42.3606,37.00,36.00,96.13,60.00,21.00,0.04,29.82,M,4.00,M,SCT,OVC,M,M,800.00,1400.00,M,M,-RA BR,KBOS 010907Z 06021KT 4SM -RA BR SCT008 OVC014 03/02 A2982 RMK AO2 PK WND 06026/0902 CIG 008 E P0004 T00280022 $
BOS,2017-04-01 09:10,-71.0097,42.3606,M,M,M,M,M,0.04,29.82,M,4.00,M,SCT,OVC,M,M,800.00,1400.00,M,M,-RA BR,KBOS 010910Z AUTO /////KT 4SM -RA BR SCT008 OVC014 A2982 RMK P0004 MADISHF
BOS,2017-04-01 09:15,-71.0097,42.3606,M,M,M,M,M,0.04,29.82,M,4.00,M,SCT,OVC,M,M,999.00,1400.00,M,M,-RA BR,KBOS 010915Z AUTO /////KT 4SM -RA BR SCT009 OVC014 A2982 RMK P0004 CIG 010 E  MADISHF
BOS,2017-04-01 09:20,-71.0097,42.3606,M,M,M,M,M,0.05,29.82,M,4.00,M,OVC,M,M,M,1200.00,M,M,M,-RA BR,KBOS 010920Z AUTO /////KT 4SM -RA BR OVC012 A2982 RMK P0005 MADISHF
BOS,2017-04-01 09:25,-71.0097,42.3606,M,M,M,M,M,0.06,29.81,M,4.00,M,BKN,OVC,M,M,900.00,1400.00,M,M,-RA BR,KBOS 010925Z AUTO /////KT 4SM -RA BR BKN009 OVC014 A2981 RMK P0006 MADISHF
BOS,2017-04-01 09:27,-71.0097,42.3606,37.00,36.00,96.13,60.00,20.00,0.07,29.81,M,4.00,27.00,BKN,OVC,M,M,900.00,1400.00,M,M,-RA BR,KBOS 010927Z 06020G27KT 4SM -RA BR BKN009 OVC014 03/02 A2981 RMK AO2 PK WND 05027/0927 P0007 T00280022 $
BOS,2017-04-01 09:30,-71.0097,42.3606,M,M,M,60.00,22.00,0.08,29.81,M,4.00,M,SCT,OVC,M,M,900.00,1400.00,M,M,-RA BR,KBOS 010930Z AUTO 06022KT 4SM -RA BR SCT009 OVC014 A2981 RMK P0008 CIG 010 E  MADISHF
BOS,2017-04-01 09:35,-71.0097,42.3606,M,M,M,M,M,0.08,29.81,M,4.00,M,OVC,M,M,M,1400.00,M,M,M,-RA BR,KBOS 010935Z AUTO /////KT 4SM -RA BR OVC014 A2981 RMK P0008 CIG 010 E  MADISHF
BOS,2017-04-01 09:40,-71.0097,42.3606,37.00,36.00,96.13,60.00,20.00,0.09,29.81,M,4.00,29.00,BKN,OVC,M,M,1000.00,1400.00,M,M,-RA BR,KBOS 010940Z 06020G29KT 4SM -RA BR BKN010 OVC014 03/02 A2981 RMK AO2 PK WND 05029/0940 P0009 T00280022 $
BOS,2017-04-01 09:45,-71.0097,42.3606,M,M,M,M,M,0.10,29.81,M,4.00,M,BKN,OVC,M,M,999.00,1400.00,M,M,-RA BR,KBOS 010945Z AUTO /////KT 4SM -RA BR BKN009 OVC014 A2981 RMK P0010 MADISHF
BOS,2017-04-01 09:50,-71.0097,42.3606,M,M,M,M,M,0.10,29.81,M,4.00,M,SCT,OVC,M,M,900.00,1400.00,M,M,-RA BR,KBOS 010950Z AUTO /////KT 4SM -RA BR SCT009 OVC014 A2981 RMK P0010 MADISHF
BOS,2017-04-01 09:54,-71.0097,42.3606,37.00,36.00,96.13,60.00,20.00,0.11,29.81,1009.40,4.00,M,SCT,OVC,M,M,900.00,1400.00,M,M,-RA BR,KBOS 010954Z 06020KT 4SM -RA BR SCT009 OVC014 03/02 A2981 RMK AO2 PK WND 05029/0942 SLP094 P0011 T00280022 $
BOS,2017-04-01 09:55,-71.0097,42.3606,M,M,M,M,M,M,29.81,M,4.00,M,SCT,OVC,M,M,900.00,1400.00,M,M,-RA BR,KBOS 010955Z AUTO /////KT 4SM -RA BR SCT009 OVC014 A2981 RMK MADISHF
BOS,2017-04-01 10:00,-71.0097,42.3606,M,M,M,M,M,0.01,29.81,M,4.00,M,SCT,OVC,M,M,999.00,1400.00,M,M,-RA BR,KBOS 011000Z AUTO /////KT 4SM -RA BR SCT009 OVC014 A2981 RMK P0001 MADISHF
BOS,2017-04-01 10:05,-71.0097,42.3606,M,M,M,M,M,0.02,29.81,M,4.00,M,SCT,OVC,M,M,999.00,1400.00,M,M,-RA BR,KBOS 011005Z AUTO /////KT 4SM -RA BR SCT009 OVC014 A2981 RMK P0002 MADISHF
BOS,2017-04-01 10:10,-71.0097,42.3606,M,M,M,M,M,0.03,29.81,M,4.00,M,SCT,OVC,M,M,999.00,1300.00,M,M,-RA BR,KBOS 011010Z AUTO /////KT 4SM -RA BR SCT009 OVC013 A2981 RMK P0003 MADISHF
BOS,2017-04-01 10:15,-71.0097,42.3606,M,M,M,M,M,0.04,29.81,M,4.00,M,SCT,OVC,M,M,999.00,1300.00,M,M,-RA BR,KBOS 011015Z AUTO /////KT 4SM -RA BR SCT009 OVC013 A2981 RMK P0004 MADISHF
BOS,2017-04-01 10:20,-71.0097,42.3606,M,M,M,50.00,16.00,0.05,29.81,M,3.50,M,SCT,OVC,M,M,999.00,1300.00,M,M,-RA BR,KBOS 011020Z AUTO 05016KT 3SM -RA BR SCT009 OVC013 A2981 RMK P0005 MADISHF
BOS,2017-04-01 10:25,-71.0097,42.3606,M,M,M,M,M,0.07,29.81,M,3.50,M,SCT,OVC,M,M,999.00,1300.00,M,M,-RA BR,KBOS 011025Z AUTO /////KT 3SM -RA BR SCT009 OVC013 A2981 RMK P0007 MADISHF
BOS,2017-04-01 10:30,-71.0097,42.3606,M,M,M,M,M,0.07,29.81,M,4.00,M,SCT,OVC,M,M,999.00,1300.00,M,M,-RA BR,KBOS 011030Z AUTO /////KT 4SM -RA BR SCT009 OVC013 A2981 RMK P0007 MADISHF
BOS,2017-04-01 10:35,-71.0097,42.3606,M,M,M,50.00,17.00,0.08,29.81,M,4.00,M,SCT,OVC,M,M,999.00,1300.00,M,M,-RA BR,KBOS 011035Z AUTO 05017KT 4SM -RA BR SCT009 OVC013 A2981 RMK P0008 MADISHF
BOS,2017-04-01 10:40,-71.0097,42.3606,M,M,M,M,M,0.09,29.81,M,4.00,M,SCT,OVC,M,M,999.00,1300.00,M,M,-RA BR,KBOS 011040Z AUTO /////KT 4SM -RA BR SCT009 OVC013 A2981 RMK P0009 MADISHF
BOS,2017-04-01 10:45,-71.0097,42.3606,M,M,M,M,M,0.10,29.80,M,3.50,M,SCT,OVC,M,M,999.00,1300.00,M,M,-RA BR,KBOS 011045Z AUTO /////KT 3SM -RA BR SCT009 OVC013 A2980 RMK P0010 MADISHF
BOS,2017-04-01 10:50,-71.0097,42.3606,M,M,M,M,M,0.11,29.80,M,3.50,M,BKN,OVC,M,M,999.00,1300.00,M,M,-RA BR,KBOS 011050Z AUTO /////KT 3SM -RA BR BKN009 OVC013 A2980 RMK P0011 MADISHF
BOS,2017-04-01 10:54,-71.0097,42.3606,37.90,37.00,96.52,50.00,20.00,0.12,29.80,1009.00,3.00,28.00,BKN,OVC,M,M,800.00,1300.00,M,M,-RA BR,KBOS 011054Z 05020G28KT 3SM -RA BR BKN008 OVC013 03/03 A2980 RMK AO2 PK WND 05028/1049 SLP090 P0012 T00330028 $
BOS,2017-04-01 10:55,-71.0097,42.3606,M,M,M,M,M,M,29.80,M,3.50,M,BKN,OVC,M,M,800.00,1300.00,M,M,-RA BR,KBOS 011055Z AUTO /////KT 3SM -RA BR BKN008 OVC013 A2980 RMK MADISHF
BOS,2017-04-01 11:00,-71.0097,42.3606,M,M,M,M,M,0.01,29.80,M,3.50,M,OVC,M,M,M,800.00,M,M,M,-RA BR,KBOS 011100Z AUTO /////KT 3SM -RA BR OVC008 A2980 RMK P0001 MADISHF
BOS,2017-04-01 11:05,-71.0097,42.3606,M,M,M,M,M,0.02,29.80,M,4.00,M,OVC,M,M,M,800.00,M,M,M,-RA BR,KBOS 011105Z AUTO /////KT 4SM -RA BR OVC008 A2980 RMK P0002 MADISHF
BOS,2017-04-01 11:10,-71.0097,42.3606,M,M,M,M,M,0.02,29.80,M,3.00,M,OVC,M,M,M,800.00,M,M,M,-RA BR,KBOS 011110Z AUTO /////KT 3SM -RA BR OVC008 A2980 RMK P0002 MADISHF
BOS,2017-04-01 11:15,-71.0097,42.3606,M,M,M,M,M,0.04,29.80,M,2.50,M,OVC,M,M,M,800.00,M,M,M,-RA BR,KBOS 011115Z AUTO /////KT 2 1/2SM -RA BR OVC008 A2980 RMK P0004 MADISHF
BOS,2017-04-01 11:20,-71.0097,42.3606,37.90,37.00,96.52,50.00,19.00,0.05,29.80,M,2.50,27.00,OVC,M,M,M,800.00,M,M,M,-RA BR,KBOS 011120Z 05019G27KT 2 1/2SM -RA BR OVC008 03/03 A2980 RMK AO2 PK WND 05027/1112 P0005 T00330028 $
BOS,2017-04-01 11:25,-71.0097,42.3606,M,M,M,M,M,0.06,29.79,M,2.50,M,OVC,M,M,M,800.00,M,M,M,-RA BR,KBOS 011125Z AUTO /////KT 2 1/2SM -RA BR OVC008 A2979 RMK P0006 MADISHF
BOS,2017-04-01 11:30,-71.0097,42.3606,M,M,M,50.00,16.00,0.07,29.80,M,2.50,M,OVC,M,M,M,800.00,M,M,M,-RA BR,KBOS 011130Z AUTO 05016KT 2 1/2SM -RA BR OVC008 A2980 RMK P0007 MADISHF
BOS,2017-04-01 11:35,-71.0097,42.3606,M,M,M,M,M,0.09,29.79,M,2.50,M,OVC,M,M,M,800.00,M,M,M,-RA BR,KBOS 011135Z AUTO /////KT 2 1/2SM -RA BR OVC008 A2979 RMK P0009 MADISHF
BOS,2017-04-01 11:40,-71.0097,42.3606,M,M,M,M,M,0.10,29.79,M,2.50,M,OVC,M,M,M,800.00,M,M,M,-RA BR,KBOS 011140Z AUTO /////KT 2 1/2SM -RA BR OVC008 A2979 RMK P0010 MADISHF
BOS,2017-04-01 11:45,-71.0097,42.3606,M,M,M,M,M,0.12,29.79,M,2.50,M,OVC,M,M,M,800.00,M,M,M,-RA BR,KBOS 011145Z AUTO /////KT 2 1/2SM -RA BR OVC008 A2979 RMK P0012 MADISHF
BOS,2017-04-01 11:50,-71.0097,42.3606,M,M,M,M,M,0.14,29.79,M,2.50,M,OVC,M,M,M,800.00,M,M,M,-RA BR,KBOS 011150Z AUTO /////KT 2 1/2SM -RA BR OVC008 A2979 RMK P0014 MADISHF
BOS,2017-04-01 11:54,-71.0097,42.3606,37.90,37.00,96.52,50.00,22.00,0.15,29.79,1008.80,2.50,30.00,OVC,M,M,M,800.00,M,M,M,-RA BR,KBOS 011154Z 05022G30KT 2 1/2SM -RA BR OVC008 03/03 A2979 RMK AO2 PK WND 05031/1135 SLP088 P0015 60077 70174 T00330028 10033 20022 56010 $
BOS,2017-04-01 11:55,-71.0097,42.3606,M,M,M,M,M,M,29.79,M,2.50,M,SCT,SCT,OVC,M,800.00,1500.00,2200.00,M,-RA BR,KBOS 011155Z AUTO /////KT 2 1/2SM -RA BR SCT008 SCT015 OVC022 A2979 RMK MADISHF
BOS,2017-04-01 12:00,-71.0097,42.3606,M,M,M,M,M,0.01,29.79,M,2.00,M,BKN,BKN,OVC,M,800.00,1500.00,2200.00,M,-RA BR,KBOS 011200Z AUTO /////KT 2SM -RA BR BKN008 BKN015 OVC022 A2979 RMK P0001 MADISHF
BOS,2017-04-01 12:05,-71.0097,42.3606,M,M,M,M,M,0.02,29.80,M,2.00,M,BKN,BKN,OVC,M,800.00,1500.00,2200.00,M,-RA BR,KBOS 011205Z AUTO /////KT 2SM -RA BR BKN008 BKN015 OVC022 A2980 RMK P0002 MADISHF
BOS,2017-04-01 12:10,-71.0097,42.3606,M,M,M,M,M,0.03,29.80,M,2.00,M,BKN,BKN,OVC,M,800.00,1500.00,2200.00,M,-RA BR,KBOS 011210Z AUTO /////KT 2SM -RA BR BKN008 BKN015 OVC022 A2980 RMK P0003 MADISHF
BOS,2017-04-01 12:15,-71.0097,42.3606,M,M,M,M,M,0.04,29.80,M,2.00,M,BKN,BKN,OVC,M,800.00,1500.00,2200.00,M,-RA BR,KBOS 011215Z AUTO /////KT 2SM -RA BR BKN008 BKN015 OVC022 A2980 RMK P0004 MADISHF
BOS,2017-04-01 12:20,-71.0097,42.3606,M,M,M,M,M,0.05,29.80,M,2.00,M,BKN,BKN,OVC,M,800.00,1500.00,2200.00,M,-RA BR,KBOS 011220Z AUTO /////KT 2SM -RA BR BKN008 BKN015 OVC022 A2980 RMK P0005 MADISHF
BOS,2017-04-01 12:25,-71.0097,42.3606,M,M,M,M,M,0.06,29.81,M,2.00,M,BKN,BKN,OVC,M,800.00,1500.00,2200.00,M,-RA BR,KBOS 011225Z AUTO /////KT 2SM -RA BR BKN008 BKN015 OVC022 A2981 RMK P0006 MADISHF
BOS,2017-04-01 12:30,-71.0097,42.3606,M,M,M,50.00,20.00,0.08,29.81,M,2.00,M,BKN,BKN,OVC,M,800.00,1500.00,2200.00,M,-RA BR,KBOS 011230Z AUTO 05020KT 2SM -RA BR BKN008 BKN015 OVC022 A2981 RMK P0008 MADISHF
BOS,2017-04-01 12:35,-71.0097,42.3606,M,M,M,M,M,0.10,29.81,M,2.00,M,BKN,BKN,OVC,M,800.00,1500.00,2200.00,M,-RA BR,KBOS 011235Z AUTO /////KT 2SM -RA BR BKN008 BKN015 OVC022 A2981 RMK P0010 MADISHF
BOS,2017-04-01 12:40,-71.0097,42.3606,M,M,M,M,M,0.11,29.81,M,2.50,M,BKN,BKN,OVC,M,800.00,1500.00,2200.00,M,RA BR,KBOS 011240Z AUTO /////KT 2 1/2SM RA BR BKN008 BKN015 OVC022 A2981 RMK P0011 MADISHF
BOS,2017-04-01 12:45,-71.0097,42.3606,M,M,M,M,M,0.12,29.81,M,2.50,M,BKN,BKN,OVC,M,800.00,1500.00,2200.00,M,RA BR,KBOS 011245Z AUTO /////KT 2 1/2SM RA BR BKN008 BKN015 OVC022 A2981 RMK P0012 MADISHF
BOS,2017-04-01 12:50,-71.0097,42.3606,M,M,M,50.00,20.00,0.13,29.81,M,2.50,M,BKN,BKN,OVC,M,800.00,1500.00,2200.00,M,RA BR,KBOS 011250Z AUTO 05020KT 2 1/2SM RA BR BKN008 BKN015 OVC022 A2981 RMK P0013 MADISHF
BOS,2017-04-01 12:54,-71.0097,42.3606,37.00,36.00,96.13,50.00,19.00,0.14,29.81,1009.40,2.50,27.00,BKN,BKN,OVC,M,800.00,1500.00,2200.00,M,RA BR,KBOS 011254Z 05019G27KT 2 1/2SM RA BR BKN008 BKN015 OVC022 03/02 A2981 RMK AO2 PK WND 04032/1235 SLP094 P0014 T00280022 $
BOS,2017-04-01 12:55,-71.0097,42.3606,M,M,M,40.00,17.00,M,29.81,M,2.50,M,BKN,OVC,M,M,999.00,1800.00,M,M,RA BR,KBOS 011255Z AUTO 04017KT 2 1/2SM RA BR BKN009 OVC018 A2981 RMK MADISHF
BOS,2017-04-01 13:00,-71.0097,42.3606,M,M,M,M,M,0.02,29.82,M,2.50,M,BKN,OVC,M,M,800.00,1800.00,M,M,RA BR,KBOS 011300Z AUTO /////KT 2 1/2SM RA BR BKN008 OVC018 A2982 RMK P0002 MADISHF
BOS,2017-04-01 13:05,-71.0097,42.3606,M,M,M,M,M,0.03,29.82,M,2.50,M,BKN,OVC,M,M,800.00,1800.00,M,M,RA BR,KBOS 011305Z AUTO /////KT 2 1/2SM RA BR BKN008 OVC018 A2982 RMK P0003 MADISHF
BOS,2017-04-01 13:10,-71.0097,42.3606,M,M,M,M,M,0.05,29.82,M,2.50,M,BKN,OVC,M,M,800.00,1800.00,M,M,RA BR,KBOS 011310Z AUTO /////KT 2 1/2SM RA BR BKN008 OVC018 A2982 RMK P0005 MADISHF
BOS,2017-04-01 13:15,-71.0097,42.3606,M,M,M,M,M,0.06,29.81,M,2.00,M,BKN,OVC,M,M,800.00,1800.00,M,M,+RA BR,KBOS 011315Z AUTO /////KT 2SM +RA BR BKN008 OVC018 A2981 RMK P0006 MADISHF
BOS,2017-04-01 13:20,-71.0097,42.3606,M,M,M,M,M,0.07,29.81,M,2.50,M,BKN,OVC,M,M,800.00,1800.00,M,M,RA BR,KBOS 011320Z AUTO /////KT 2 1/2SM RA BR BKN008 OVC018 A2981 RMK P0007 MADISHF
BOS,2017-04-01 13:25,-71.0097,42.3606,M,M,M,M,M,0.08,29.81,M,2.50,M,BKN,OVC,M,M,800.00,1800.00,M,M,RA BR,KBOS 011325Z AUTO /////KT 2 1/2SM RA BR BKN008 OVC018 A2981 RMK P0008 MADISHF
BOS,2017-04-01 13:30,-71.0097,42.3606,M,M,M,M,M,0.09,29.82,M,2.50,M,BKN,BKN,OVC,M,800.00,1200.00,1800.00,M,RA BR,KBOS 011330Z AUTO /////KT 2 1/2SM RA BR BKN008 BKN012 OVC018 A2982 RMK P0009 MADISHF
BOS,2017-04-01 13:35,-71.0097,42.3606,M,M,M,M,M,0.11,29.82,M,2.50,M,BKN,BKN,OVC,M,800.00,1200.00,1800.00,M,+RA BR,KBOS 011335Z AUTO /////KT 2 1/2SM +RA BR BKN008 BKN012 OVC018 A2982 RMK P0011 MADISHF
BOS,2017-04-01 13:40,-71.0097,42.3606,M,M,M,M,M,0.13,29.82,M,2.00,M,BKN,BKN,OVC,M,800.00,1200.00,1800.00,M,+RA BR,KBOS 011340Z AUTO /////KT 2SM +RA BR BKN008 BKN012 OVC018 A2982 RMK P0013 MADISHF
BOS,2017-04-01 13:45,-71.0097,42.3606,M,M,M,M,M,0.14,29.82,M,2.00,M,BKN,BKN,OVC,M,800.00,1200.00,1800.00,M,+RA BR,KBOS 011345Z AUTO /////KT 2SM +RA BR BKN008 BKN012 OVC018 A2982 RMK P0014 MADISHF
BOS,2017-04-01 13:50,-71.0097,42.3606,M,M,M,M,M,0.16,29.82,M,2.50,M,BKN,BKN,OVC,M,800.00,1200.00,1800.00,M,RA BR,KBOS 011350Z AUTO /////KT 2 1/2SM RA BR BKN008 BKN012 OVC018 A2982 RMK P0016 MADISHF
BOS,2017-04-01 13:54,-71.0097,42.3606,36.00,35.10,96.49,40.00,18.00,0.17,29.82,1009.70,2.50,26.00,BKN,OVC,M,M,800.00,1500.00,M,M,RA BR,KBOS 011354Z 04018G26KT 2 1/2SM R04R/5500VP6000FT RA BR BKN008 OVC015 02/02 A2982 RMK AO2 PK WND 05030/1318 SLP097 P0017 T00220017 $
BOS,2017-04-01 13:55,-71.0097,42.3606,M,M,M,M,M,0.01,29.82,M,2.50,M,BKN,OVC,M,M,999.00,1500.00,M,M,RA BR,KBOS 011355Z AUTO /////KT 2 1/2SM RA BR BKN009 OVC015 A2982 RMK P0001 MADISHF
BOS,2017-04-01 14:00,-71.0097,42.3606,M,M,M,M,M,0.02,29.82,M,2.00,M,BKN,OVC,M,M,800.00,1500.00,M,M,RA BR,KBOS 011400Z AUTO /////KT 2SM RA BR BKN008 OVC015 A2982 RMK P0002 MADISHF
BOS,2017-04-01 14:05,-71.0097,42.3606,M,M,M,M,M,0.05,29.82,M,1.75,M,BKN,OVC,M,M,800.00,1500.00,M,M,+RA BR,KBOS 011405Z AUTO /////KT 2SM +RA BR BKN008 OVC015 A2982 RMK P0005 MADISHF
BOS,2017-04-01 14:10,-71.0097,42.3606,M,M,M,40.00,19.00,0.07,29.82,M,2.00,M,BKN,OVC,M,M,900.00,1400.00,M,M,-SN BR,KBOS 011410Z AUTO 04019KT 2SM -SN BR BKN009 OVC014 A2982 RMK P0007 MADISHF
BOS,2017-04-01 14:15,-71.0097,42.3606,M,M,M,M,M,0.09,29.82,M,2.00,M,BKN,OVC,M,M,900.00,1400.00,M,M,-SN BR,KBOS 011415Z AUTO /////KT 2SM -SN BR BKN009 OVC014 A2982 RMK P0009 MADISHF
BOS,2017-04-01 14:20,-71.0097,42.3606,M,M,M,M,M,0.10,29.82,M,2.00,M,BKN,OVC,M,M,900.00,1300.00,M,M,-SN BR,KBOS 011420Z AUTO /////KT 2SM -SN BR BKN009 OVC013 A2982 RMK P0010 MADISHF
BOS,2017-04-01 14:25,-71.0097,42.3606,M,M,M,M,M,0.11,29.82,M,2.50,M,BKN,OVC,M,M,900.00,1300.00,M,M,-SN BR,KBOS 011425Z AUTO /////KT 2 1/2SM -SN BR BKN009 OVC013 A2982 RMK P0011 MADISHF
BOS,2017-04-01 14:30,-71.0097,42.3606,M,M,M,M,M,0.13,29.82,M,2.50,M,BKN,OVC,M,M,900.00,1400.00,M,M,-SN BR,KBOS 011430Z AUTO /////KT 2 1/2SM -SN BR BKN009 OVC014 A2982 RMK P0013 MADISHF
BOS,2017-04-01 14:35,-71.0097,42.3606,M,M,M,M,M,0.13,29.83,M,2.50,M,OVC,M,M,M,900.00,M,M,M,-SN BR,KBOS 011435Z AUTO /////KT 2 1/2SM -SN BR OVC009 A2983 RMK P0013 MADISHF
BOS,2017-04-01 14:40,-71.0097,42.3606,M,M,M,M,M,0.13,29.83,M,3.00,M,OVC,M,M,M,900.00,M,M,M,-SN BR,KBOS 011440Z AUTO /////KT 3SM -SN BR OVC009 A2983 RMK P0013 MADISHF
BOS,2017-04-01 14:44,-71.0097,42.3606,35.10,34.00,95.71,30.00,16.00,0.14,29.83,M,3.00,M,OVC,M,M,M,900.00,M,M,M,-SN BR,KBOS 011444Z 03016KT 3SM -SN BR OVC009 02/01 A2983 RMK AO2 PK WND 02026/1410 RAE09SNB09 P0014 T00170011 $
BOS,2017-04-01 14:45,-71.0097,42.3606,M,M,M,M,M,0.14,29.83,M,3.00,M,OVC,M,M,M,900.00,M,M,M,-SN BR,KBOS 011445Z AUTO /////KT 3SM -SN BR OVC009 A2983 RMK P0014 MADISHF
BOS,2017-04-01 14:50,-71.0097,42.3606,M,M,M,M,M,0.16,29.84,M,3.00,M,BKN,OVC,M,M,900.00,1300.00,M,M,-SN BR,KBOS 011450Z AUTO /////KT 3SM -SN BR BKN009 OVC013 A2984 RMK P0016 MADISHF
BOS,2017-04-01 14:54,-71.0097,42.3606,35.10,34.00,95.71,30.00,17.00,0.16,29.84,1010.30,3.00,M,OVC,M,M,M,900.00,M,M,M,-SN BR,KBOS 011454Z 03017KT 3SM -SN BR OVC009 02/01 A2984 RMK AO2 PK WND 02026/1410 RAE09SNB09 SLP103 P0016 60047 T00170011 51015 $
BOS,2017-04-01 14:55,-71.0097,42.3606,M,M,M,M,M,M,29.84,M,2.50,M,BKN,OVC,M,M,900.00,1200.00,M,M,-SN BR,KBOS 011455Z AUTO /////KT 2 1/2SM -SN BR BKN009 OVC012 A2984 RMK MADISHF
BOS,2017-04-01 15:00,-71.0097,42.3606,M,M,M,M,M,M,29.84,M,3.00,M,BKN,OVC,M,M,900.00,1200.00,M,M,-SN BR,KBOS 011500Z AUTO /////KT 3SM -SN BR BKN009 OVC012 A2984 RMK MADISHF
BOS,2017-04-01 15:05,-71.0097,42.3606,M,M,M,M,M,0.02,29.83,M,3.00,M,BKN,OVC,M,M,800.00,1200.00,M,M,-SN BR,KBOS 011505Z AUTO /////KT 3SM -SN BR BKN008 OVC012 A2983 RMK P0002 MADISHF
BOS,2017-04-01 15:10,-71.0097,42.3606,M,M,M,20.00,16.00,0.02,29.83,M,3.00,M,BKN,OVC,M,M,800.00,1100.00,M,M,-SN BR,KBOS 011510Z AUTO 02016KT 3SM -SN BR BKN008 OVC011 A2983 RMK P0002 MADISHF
BOS,2017-04-01 15:15,-71.0097,42.3606,M,M,M,20.00,14.00,0.03,29.83,M,1.00,M,BKN,OVC,M,M,800.00,1100.00,M,M,-SN BR,KBOS 011515Z AUTO 02014KT 1SM -SN BR BKN008 OVC011 A2983 RMK P0003 MADISHF
BOS,2017-04-01 15:16,-71.0097,42.3606,33.10,33.10,100.00,20.00,15.00,0.04,29.83,M,1.00,M,OVC,M,M,M,800.00,M,M,M,-SN BR,KBOS 011516Z 02015KT 1SM R04R/4000VP6000FT -SN BR OVC008 01/01 A2983 RMK AO2 TWR VIS 1 1/2 P0004 T00060006 $
BOS,2017-04-01 15:20,-71.0097,42.3606,M,M,M,M,M,0.04,29.83,M,1.00,M,OVC,M,M,M,800.00,M,M,M,-SN BR,KBOS 011520Z AUTO /////KT 1SM -SN BR OVC008 A2983 RMK P0004 MADISHF
BOS,2017-04-01 15:25,-71.0097,42.3606,M,M,M,M,M,0.04,29.83,M,1.25,M,BKN,OVC,M,M,800.00,1100.00,M,M,-SN BR,KBOS 011525Z AUTO /////KT 1 1/2SM -SN BR BKN008 OVC011 A2983 RMK P0004 MADISHF
BOS,2017-04-01 15:30,-71.0097,42.3606,M,M,M,M,M,0.06,29.83,M,1.25,M,BKN,OVC,M,M,800.00,1100.00,M,M,SN BR,KBOS 011530Z AUTO /////KT 1 1/2SM SN BR BKN008 OVC011 A2983 RMK P0006 MADISHF
BOS,2017-04-01 15:35,-71.0097,42.3606,M,M,M,M,M,0.06,29.83,M,0.75,M,BKN,OVC,M,M,600.00,1100.00,M,M,SN BR,KBOS 011535Z AUTO /////KT 1SM SN BR BKN006 OVC011 A2983 RMK P0006 MADISHF
BOS,2017-04-01 15:40,-71.0097,42.3606,M,M,M,M,M,0.07,29.83,M,0.75,M,OVC,M,M,M,600.00,M,M,M,SN BR,KBOS 011540Z AUTO /////KT 1SM SN BR OVC006 A2983 RMK P0007 MADISHF
BOS,2017-04-01 15:41,-71.0097,42.3606,33.10,33.10,100.00,30.00,18.00,0.07,29.83,M,0.75,M,OVC,M,M,M,600.00,M,M,M,SN BR,KBOS 011541Z 03018KT 3/4SM R04R/3500V4500FT SN BR OVC006 01/01 A2983 RMK AO2 TWR VIS 1 1/2 P0007 T00060006 $
BOS,2017-04-01 15:45,-71.0097,42.3606,M,M,M,M,M,0.08,29.82,M,0.50,M,OVC,M,M,M,600.00,M,M,M,SN FG,KBOS 011545Z AUTO /////KT 1/2SM SN FG OVC006 A2982 RMK P0008 MADISHF
BOS,2017-04-01 15:50,-71.0097,42.3606,M,M,M,30.00,17.00,0.10,29.82,M,0.50,M,OVC,M,M,M,700.00,M,M,M,SN FG,KBOS 011550Z AUTO 03017KT 1/2SM SN FG OVC007 A2982 RMK P0010 MADISHF
BOS,2017-04-01 15:54,-71.0097,42.3606,33.10,33.10,100.00,30.00,19.00,0.10,29.83,1009.90,0.50,25.00,OVC,M,M,M,700.00,M,M,M,SN FG,KBOS 011554Z 03019G25KT 1/2SM R04R/2600V4000FT SN FG OVC007 01/01 A2983 RMK AO2 TWR VIS 1 1/2 SLP099 P0010 T00060006 $
BOS,2017-04-01 15:55,-71.0097,42.3606,M,M,M,M,M,M,29.82,M,0.50,M,OVC,M,M,M,600.00,M,M,M,SN FG,KBOS 011555Z AUTO /////KT 1/2SM SN FG OVC006 A2982 RMK MADISHF
BOS,2017-04-01 16:00,-71.0097,42.3606,M,M,M,M,M,0.01,29.83,M,0.75,M,OVC,M,M,M,600.00,M,M,M,SN BR,KBOS 011600Z AUTO /////KT 1SM SN BR OVC006 A2983 RMK P0001 MADISHF
BOS,2017-04-01 16:05,-71.0097,42.3606,M,M,M,M,M,0.01,29.83,M,0.75,M,OVC,M,M,M,600.00,M,M,M,SN BR,KBOS 011605Z AUTO /////KT 1SM SN BR OVC006 A2983 RMK P0001 MADISHF
BOS,2017-04-01 16:10,-71.0097,42.3606,M,M,M,M,M,0.02,29.83,M,0.75,M,OVC,M,M,M,600.00,M,M,M,SN BR,KBOS 011610Z AUTO /////KT 1SM SN BR OVC006 A2983 RMK P0002 MADISHF
BOS,2017-04-01 16:15,-71.0097,42.3606,M,M,M,M,M,0.03,29.83,M,0.75,M,OVC,M,M,M,600.00,M,M,M,SN BR,KBOS 011615Z AUTO /////KT 1SM SN BR OVC006 A2983 RMK P0003 MADISHF
BOS,2017-04-01 16:20,-71.0097,42.3606,M,M,M,M,M,0.03,29.83,M,0.75,M,OVC,M,M,M,600.00,M,M,M,SN BR,KBOS 011620Z AUTO /////KT 1SM SN BR OVC006 A2983 RMK P0003 MADISHF
BOS,2017-04-01 16:25,-71.0097,42.3606,M,M,M,M,M,0.03,29.82,M,0.75,M,OVC,M,M,M,600.00,M,M,M,SN BR,KBOS 011625Z AUTO /////KT 1SM SN BR OVC006 A2982 RMK P0003 MADISHF
BOS,2017-04-01 16:30,-71.0097,42.3606,M,M,M,M,M,0.03,29.83,M,0.75,M,OVC,M,M,M,600.00,M,M,M,SN BR,KBOS 011630Z AUTO /////KT 1SM SN BR OVC006 A2983 RMK P0003 MADISHF
BOS,2017-04-01 16:35,-71.0097,42.3606,M,M,M,M,M,0.03,29.83,M,0.75,M,OVC,M,M,M,600.00,M,M,M,SN BR,KBOS 011635Z AUTO /////KT 1SM SN BR OVC006 A2983 RMK P0003 MADISHF
BOS,2017-04-01 16:40,-71.0097,42.3606,M,M,M,M,M,0.04,29.83,M,0.75,M,OVC,M,M,M,600.00,M,M,M,SN BR,KBOS 011640Z AUTO /////KT 1SM SN BR OVC006 A2983 RMK P0004 MADISHF
BOS,2017-04-01 16:45,-71.0097,42.3606,M,M,M,M,M,0.04,29.83,M,0.75,M,OVC,M,M,M,600.00,M,M,M,SN BR,KBOS 011645Z AUTO /////KT 1SM SN BR OVC006 A2983 RMK P0004 MADISHF
BOS,2017-04-01 16:50,-71.0097,42.3606,M,M,M,30.00,21.00,0.04,29.83,M,0.75,M,OVC,M,M,M,600.00,M,M,M,-SN BR,KBOS 011650Z AUTO 03021KT 1SM -SN BR OVC006 A2983 RMK P0004 MADISHF
BOS,2017-04-01 16:54,-71.0097,42.3606,33.10,33.10,100.00,30.00,20.00,0.04,29.83,1010.10,0.75,29.00,OVC,M,M,M,600.00,M,M,M,-SN BR,KBOS 011654Z 03020G29KT 3/4SM R04R/4000V5500FT -SN BR OVC006 01/01 A2983 RMK AO2 PK WND 02029/1651 TWR VIS 1 1/2 SLP101 P0004 T00060006
BOS,2017-04-01 16:55,-71.0097,42.3606,M,M,M,M,M,M,29.83,M,0.75,M,BKN,OVC,M,M,900.00,1300.00,M,M,-SN BR,KBOS 011655Z AUTO /////KT 1SM -SN BR BKN009 OVC013 A2983 RMK MADISHF
BOS,2017-04-01 17:00,-71.0097,42.3606,M,M,M,M,M,M,29.83,M,0.75,M,BKN,OVC,M,M,900.00,1300.00,M,M,-SN BR,KBOS 011700Z AUTO /////KT 1SM -SN BR BKN009 OVC013 A2983 RMK MADISHF
BOS,2017-04-01 17:05,-71.0097,42.3606,M,M,M,M,M,0.01,29.83,M,0.75,M,BKN,OVC,M,M,900.00,1300.00,M,M,-SN BR,KBOS 011705Z AUTO /////KT 1SM -SN BR BKN009 OVC013 A2983 RMK P0001 MADISHF
BOS,2017-04-01 17:10,-71.0097,42.3606,M,M,M,M,M,0.02,29.83,M,0.75,M,BKN,OVC,M,M,900.00,1300.00,M,M,-SN BR,KBOS 011710Z AUTO /////KT 1SM -SN BR BKN009 OVC013 A2983 RMK P0002 MADISHF
BOS,2017-04-01 17:15,-71.0097,42.3606,M,M,M,M,M,0.02,29.83,M,0.75,M,BKN,OVC,M,M,900.00,1300.00,M,M,-SN BR,KBOS 011715Z AUTO /////KT 1SM -SN BR BKN009 OVC013 A2983 RMK P0002 MADISHF
BOS,2017-04-01 17:20,-71.0097,42.3606,M,M,M,M,M,0.02,29.84,M,0.75,M,BKN,OVC,M,M,900.00,1300.00,M,M,-SN BR,KBOS 011720Z AUTO /////KT 1SM -SN BR BKN009 OVC013 A2984 RMK P0002 MADISHF
BOS,2017-04-01 17:25,-71.0097,42.3606,M,M,M,M,M,0.03,29.84,M,0.75,M,BKN,OVC,M,M,900.00,1300.00,M,M,-SN BR,KBOS 011725Z AUTO /////KT 1SM -SN BR BKN009 OVC013 A2984 RMK P0003 MADISHF
BOS,2017-04-01 17:30,-71.0097,42.3606,M,M,M,M,M,0.03,29.84,M,0.75,M,BKN,OVC,M,M,900.00,1300.00,M,M,-SN BR,KBOS 011730Z AUTO /////KT 1SM -SN BR BKN009 OVC013 A2984 RMK P0003 MADISHF
BOS,2017-04-01 17:35,-71.0097,42.3606,M,M,M,M,M,0.03,29.84,M,0.75,M,BKN,OVC,M,M,900.00,1300.00,M,M,-SN BR,KBOS 011735Z AUTO /////KT 1SM -SN BR BKN009 OVC013 A2984 RMK P0003 MADISHF
BOS,2017-04-01 17:40,-71.0097,42.3606,M,M,M,M,M,0.04,29.84,M,0.75,M,BKN,OVC,M,M,900.00,1300.00,M,M,-SN BR,KBOS 011740Z AUTO /////KT 1SM -SN BR BKN009 OVC013 A2984 RMK P0004 MADISHF
BOS,2017-04-01 17:45,-71.0097,42.3606,M,M,M,M,M,0.04,29.83,M,0.75,M,BKN,OVC,M,M,900.00,1300.00,M,M,-SN BR,KBOS 011745Z AUTO /////KT 1SM -SN BR BKN009 OVC013 A2983 RMK P0004 MADISHF
BOS,2017-04-01 17:50,-71.0097,42.3606,M,M,M,M,M,0.04,29.83,M,0.75,M,BKN,OVC,M,M,900.00,1300.00,M,M,-SN BR,KBOS 011750Z AUTO /////KT 1SM -SN BR BKN009 OVC013 A2983 RMK P0004 MADISHF
BOS,2017-04-01 17:54,-71.0097,42.3606,33.10,32.00,95.67,30.00,22.00,0.04,29.83,1010.20,0.75,27.00,BKN,OVC,M,M,900.00,1300.00,M,M,-SN BR,KBOS 011754Z 03022G27KT 3/4SM R04R/4000VP6000FT -SN BR BKN009 OVC013 01/00 A2983 RMK AO2 PK WND 03027/1754 TWR VIS 1 1/2 SLP102 P0004 60065 T00060000 10033 20006 55001
BOS,2017-04-01 17:55,-71.0097,42.3606,M,M,M,M,M,0.01,29.83,M,0.75,M,BKN,OVC,M,M,900.00,1300.00,M,M,-SN BR,KBOS 011755Z AUTO /////KT 1SM -SN BR BKN009 OVC013 A2983 RMK P0001 MADISHF
BOS,2017-04-01 18:00,-71.0097,42.3606,M,M,M,M,M,0.01,29.83,M,0.75,M,BKN,OVC,M,M,900.00,1300.00,M,M,-SN BR,KBOS 011800Z AUTO /////KT 1SM -SN BR BKN009 OVC013 A2983 RMK P0001 MADISHF
BOS,2017-04-01 18:05,-71.0097,42.3606,M,M,M,M,M,0.01,29.83,M,0.75,M,BKN,OVC,M,M,900.00,1300.00,M,M,-SN BR,KBOS 011805Z AUTO /////KT 1SM -SN BR BKN009 OVC013 A2983 RMK P0001 MADISHF
BOS,2017-04-01 18:07,-71.0097,42.3606,34.00,33.10,96.46,20.00,17.00,0.01,29.83,M,1.50,27.00,OVC,M,M,M,1000.00,M,M,M,-SN BR,KBOS 011807Z 02017G27KT 1 1/2SM -SN BR OVC010 01/01 A2983 RMK AO2 PK WND 03032/1755 P0001 T00110006
BOS,2017-04-01 18:10,-71.0097,42.3606,M,M,M,M,M,0.01,29.83,M,1.50,M,OVC,M,M,M,999.00,M,M,M,-SN BR,KBOS 011810Z AUTO /////KT 1 1/2SM -SN BR OVC009 A2983 RMK P0001 MADISHF
BOS,2017-04-01 18:15,-71.0097,42.3606,M,M,M,M,M,0.02,29.83,M,1.50,M,BKN,OVC,M,M,999.00,1500.00,M,M,-SN BR,KBOS 011815Z AUTO /////KT 1 1/2SM -SN BR BKN009 OVC015 A2983 RMK P0002 MADISHF
BOS,2017-04-01 18:20,-71.0097,42.3606,M,M,M,M,M,0.02,29.83,M,1.50,M,BKN,OVC,M,M,999.00,1500.00,M,M,-SN BR,KBOS 011820Z AUTO /////KT 1 1/2SM -SN BR BKN009 OVC015 A2983 RMK P0002 MADISHF
BOS,2017-04-01 18:23,-71.0097,42.3606,34.00,33.10,96.46,20.00,19.00,0.02,29.83,M,2.00,28.00,BKN,OVC,M,M,1000.00,1500.00,M,M,-SN BR,KBOS 011823Z 02019G28KT 2SM R04R/6000VP6000FT -SN BR BKN010 OVC015 01/01 A2983 RMK AO2 PK WND 03032/1755 P0002 T00110006
BOS,2017-04-01 18:25,-71.0097,42.3606,M,M,M,M,M,0.02,29.83,M,2.00,M,BKN,OVC,M,M,999.00,1500.00,M,M,-SN BR,KBOS 011825Z AUTO /////KT 2SM -SN BR BKN009 OVC015 A2983 RMK P0002 MADISHF
BOS,2017-04-01 18:30,-71.0097,42.3606,M,M,M,M,M,0.02,29.83,M,2.00,M,BKN,OVC,M,M,999.00,1500.00,M,M,-SN BR,KBOS 011830Z AUTO /////KT 2SM -SN BR BKN009 OVC015 A2983 RMK P0002 MADISHF
BOS,2017-04-01 18:35,-71.0097,42.3606,M,M,M,M,M,0.02,29.83,M,2.00,M,BKN,OVC,M,M,999.00,1500.00,M,M,-SN BR,KBOS 011835Z AUTO /////KT 2SM -SN BR BKN009 OVC015 A2983 RMK P0002 MADISHF
BOS,2017-04-01 18:40,-71.0097,42.3606,M,M,M,M,M,0.02,29.83,M,2.00,M,BKN,OVC,M,M,999.00,1500.00,M,M,-SN BR,KBOS 011840Z AUTO /////KT 2SM -SN BR BKN009 OVC015 A2983 RMK P0002 MADISHF
BOS,2017-04-01 18:45,-71.0097,42.3606,M,M,M,M,M,0.02,29.83,M,2.00,M,BKN,OVC,M,M,999.00,1500.00,M,M,-SN BR,KBOS 011845Z AUTO /////KT 2SM -SN BR BKN009 OVC015 A2983 RMK P0002 MADISHF
BOS,2017-04-01 18:47,-71.0097,42.3606,34.00,33.10,96.46,30.00,27.00,0.02,29.83,M,3.00,34.00,BKN,OVC,M,M,1100.00,1700.00,M,M,-SNRA BR,KBOS 011847Z 03027G34KT 3SM -SNRA BR BKN011 OVC017 01/01 A2983 RMK AO2 PK WND 04034/1845 RAB46 P0002 T00110006
BOS,2017-04-01 18:50,-71.0097,42.3606,M,M,M,M,M,0.02,29.83,M,3.00,M,BKN,OVC,M,M,1100.00,1699.00,M,M,-RA -SN BR,KBOS 011850Z AUTO /////KT 3SM -RA -SN BR BKN011 OVC016 A2983 RMK P0002 MADISHF
BOS,2017-04-01 18:54,-71.0097,42.3606,35.10,33.10,92.32,20.00,22.00,0.02,29.83,1010.10,3.00,34.00,BKN,OVC,M,M,1100.00,2000.00,M,M,-SNRA BR,KBOS 011854Z 02022G34KT 3SM -SNRA BR BKN011 OVC020 02/01 A2983 RMK AO2 PK WND 04034/1845 RAB46 SLP101 P0002 T00170006
BOS,2017-04-01 18:55,-71.0097,42.3606,M,M,M,M,M,M,29.83,M,3.00,M,BKN,OVC,M,M,1100.00,1999.00,M,M,-RA -SN BR,KBOS 011855Z AUTO /////KT 3SM -RA -SN BR BKN011 OVC019 A2983 RMK MADISHF
BOS,2017-04-01 19:00,-71.0097,42.3606,M,M,M,M,M,M,29.83,M,4.00,M,BKN,OVC,M,M,1100.00,1999.00,M,M,-RA -SN BR,KBOS 011900Z AUTO /////KT 4SM -RA -SN BR BKN011 OVC019 A2983 RMK MADISHF
BOS,2017-04-01 19:05,-71.0097,42.3606,M,M,M,M,M,M,29.83,M,4.00,M,BKN,OVC,M,M,1300.00,2500.00,M,M,-RA -SN BR,KBOS 011905Z AUTO /////KT 4SM -RA -SN BR BKN013 OVC025 A2983 RMK MADISHF
BOS,2017-04-01 19:10,-71.0097,42.3606,M,M,M,M,M,M,29.82,M,3.00,M,BKN,OVC,M,M,1300.00,2500.00,M,M,-RA -SN BR,KBOS 011910Z AUTO /////KT 3SM -RA -SN BR BKN013 OVC025 A2982 RMK MADISHF
BOS,2017-04-01 19:15,-71.0097,42.3606,M,M,M,M,M,M,29.82,M,3.00,M,BKN,OVC,M,M,1300.00,2500.00,M,M,-RA -SN BR,KBOS 011915Z AUTO /////KT 3SM -RA -SN BR BKN013 OVC025 A2982 RMK MADISHF
BOS,2017-04-01 19:20,-71.0097,42.3606,M,M,M,M,M,M,29.83,M,3.00,M,BKN,OVC,M,M,1300.00,2500.00,M,M,-RA -SN BR,KBOS 011920Z AUTO /////KT 3SM -RA -SN BR BKN013 OVC025 A2983 RMK MADISHF
BOS,2017-04-01 19:25,-71.0097,42.3606,M,M,M,M,M,M,29.83,M,4.00,M,BKN,OVC,M,M,1300.00,2500.00,M,M,-RA -SN BR,KBOS 011925Z AUTO /////KT 4SM -RA -SN BR BKN013 OVC025 A2983 RMK MADISHF
BOS,2017-04-01 19:30,-71.0097,42.3606,M,M,M,M,M,M,29.83,M,4.00,M,BKN,OVC,M,M,999.00,1699.00,M,M,-RA -SN BR,KBOS 011930Z AUTO /////KT 4SM -RA -SN BR BKN009 OVC016 A2983 RMK MADISHF
BOS,2017-04-01 19:35,-71.0097,42.3606,M,M,M,M,M,M,29.83,M,5.00,M,BKN,OVC,M,M,999.00,1699.00,M,M,-RA -SN BR,KBOS 011935Z AUTO /////KT 5SM -RA -SN BR BKN009 OVC016 A2983 RMK MADISHF
BOS,2017-04-01 19:40,-71.0097,42.3606,M,M,M,M,M,M,29.83,M,5.00,M,BKN,OVC,M,M,999.00,1699.00,M,M,-RA BR,KBOS 011940Z AUTO /////KT 5SM -RA BR BKN009 OVC016 A2983 RMK MADISHF
BOS,2017-04-01 19:45,-71.0097,42.3606,M,M,M,M,M,M,29.83,M,5.00,M,BKN,OVC,M,M,999.00,1699.00,M,M,-RA BR,KBOS 011945Z AUTO /////KT 5SM -RA BR BKN009 OVC016 A2983 RMK MADISHF
BOS,2017-04-01 19:50,-71.0097,42.3606,M,M,M,M,M,M,29.83,M,5.00,M,BKN,OVC,M,M,1100.00,1900.00,M,M,BR,KBOS 011950Z AUTO /////KT 5SM BR BKN011 OVC019 A2983 RMK MADISHF
BOS,2017-04-01 19:54,-71.0097,42.3606,35.10,34.00,95.71,20.00,21.00,0.00,29.84,1010.20,3.00,28.00,BKN,OVC,M,M,1100.00,1900.00,M,M,-RASN BR,KBOS 011954Z 02021G28KT 3SM -RASN BR BKN011 OVC019 02/01 A2984 RMK AO2 PK WND 02031/1945 SFC VIS 5 SLP102 P0000 T00170011
BOS,2017-04-01 19:55,-71.0097,42.3606,M,M,M,M,M,M,29.84,M,5.00,M,BKN,OVC,M,M,1100.00,1900.00,M,M,-RA -SN BR,KBOS 011955Z AUTO /////KT 5SM -RA -SN BR BKN011 OVC019 A2984 RMK MADISHF
BOS,2017-04-01 20:00,-71.0097,42.3606,M,M,M,M,M,M,29.84,M,5.00,M,BKN,OVC,M,M,1100.00,1900.00,M,M,-RA -SN BR,KBOS 012000Z AUTO /////KT 5SM -RA -SN BR BKN011 OVC019 A2984 RMK MADISHF
BOS,2017-04-01 20:05,-71.0097,42.3606,M,M,M,M,M,M,29.85,M,4.00,M,BKN,OVC,M,M,1100.00,1699.00,M,M,-RA -SN BR,KBOS 012005Z AUTO /////KT 4SM -RA -SN BR BKN011 OVC016 A2985 RMK MADISHF
BOS,2017-04-01 20:10,-71.0097,42.3606,M,M,M,20.00,25.00,M,29.85,M,4.00,M,BKN,OVC,M,M,1100.00,1699.00,M,M,-RA -SN BR,KBOS 012010Z AUTO 02025KT 4SM -RA -SN BR BKN011 OVC016 A2985 RMK MADISHF
BOS,2017-04-01 20:15,-71.0097,42.3606,M,M,M,M,M,M,29.86,M,4.00,M,OVC,M,M,M,1100.00,M,M,M,-RA -SN BR,KBOS 012015Z AUTO /////KT 4SM -RA -SN BR OVC011 A2986 RMK MADISHF
BOS,2017-04-01 20:20,-71.0097,42.3606,M,M,M,M,M,M,29.86,M,4.00,M,OVC,M,M,M,1100.00,M,M,M,-RA -SN BR,KBOS 012020Z AUTO /////KT 4SM -RA -SN BR OVC011 A2986 RMK MADISHF
BOS,2017-04-01 20:25,-71.0097,42.3606,M,M,M,10.00,19.00,M,29.87,M,4.00,M,OVC,M,M,M,1100.00,M,M,M,-RA -SN BR,KBOS 012025Z AUTO 01019KT 4SM -RA -SN BR OVC011 A2987 RMK MADISHF
BOS,2017-04-01 20:30,-71.0097,42.3606,M,M,M,10.00,17.00,M,29.87,M,4.00,M,OVC,M,M,M,1100.00,M,M,M,-RA -SN BR,KBOS 012030Z AUTO 01017KT 4SM -RA -SN BR OVC011 A2987 RMK MADISHF
BOS,2017-04-01 20:35,-71.0097,42.3606,M,M,M,M,M,M,29.87,M,4.00,M,OVC,M,M,M,1200.00,M,M,M,-RA -SN BR,KBOS 012035Z AUTO /////KT 4SM -RA -SN BR OVC012 A2987 RMK MADISHF
BOS,2017-04-01 20:40,-71.0097,42.3606,M,M,M,M,M,M,29.87,M,4.00,M,OVC,M,M,M,1200.00,M,M,M,-RA BR,KBOS 012040Z AUTO /////KT 4SM -RA BR OVC012 A2987 RMK MADISHF
BOS,2017-04-01 20:45,-71.0097,42.3606,M,M,M,M,M,M,29.88,M,4.00,M,OVC,M,M,M,1200.00,M,M,M,-RA BR,KBOS 012045Z AUTO /////KT 4SM -RA BR OVC012 A2988 RMK MADISHF
BOS,2017-04-01 20:50,-71.0097,42.3606,M,M,M,10.00,18.00,M,29.88,M,4.00,M,BKN,OVC,M,M,1200.00,1699.00,M,M,BR,KBOS 012050Z AUTO 01018KT 4SM BR BKN012 OVC016 A2988 RMK MADISHF
BOS,2017-04-01 20:54,-71.0097,42.3606,35.10,34.00,95.71,10.00,19.00,0.00,29.89,1011.90,3.00,M,BKN,OVC,M,M,1200.00,1800.00,M,M,-RASN BR,KBOS 012054Z 01019KT 3SM -RASN BR BKN012 OVC018 02/01 A2989 RMK AO2 PK WND 03033/2003 SFC VIS 4 SNE37B53 SLP119 PCPN VRY LGT P0000 60002 T00170011 53018
BOS,2017-04-01 20:55,-71.0097,42.3606,M,M,M,M,M,M,29.89,M,4.00,M,BKN,OVC,M,M,1200.00,1900.00,M,M,-RA -SN BR,KBOS 012055Z AUTO /////KT 4SM -RA -SN BR BKN012 OVC019 A2989 RMK MADISHF
BOS,2017-04-01 21:00,-71.0097,42.3606,M,M,M,M,M,M,29.89,M,4.00,M,BKN,OVC,M,M,1200.00,1900.00,M,M,-RA -SN BR,KBOS 012100Z AUTO /////KT 4SM -RA -SN BR BKN012 OVC019 A2989 RMK MADISHF
BOS,2017-04-01 21:05,-71.0097,42.3606,M,M,M,M,M,M,29.89,M,4.00,M,BKN,OVC,M,M,1200.00,1900.00,M,M,-RA -SN BR,KBOS 012105Z AUTO /////KT 4SM -RA -SN BR BKN012 OVC019 A2989 RMK MADISHF
BOS,2017-04-01 21:10,-71.0097,42.3606,M,M,M,360.00,15.00,M,29.89,M,4.00,M,BKN,OVC,M,M,1200.00,1900.00,M,M,-RA -SN BR,KBOS 012110Z AUTO 36015KT 4SM -RA -SN BR BKN012 OVC019 A2989 RMK MADISHF
BOS,2017-04-01 21:15,-71.0097,42.3606,M,M,M,M,M,M,29.89,M,4.00,M,BKN,OVC,M,M,1200.00,1900.00,M,M,-RA -SN BR,KBOS 012115Z AUTO /////KT 4SM -RA -SN BR BKN012 OVC019 A2989 RMK MADISHF
BOS,2017-04-01 21:20,-71.0097,42.3606,M,M,M,10.00,17.00,M,29.89,M,4.00,M,BKN,OVC,M,M,1200.00,1900.00,M,M,-RA -SN BR,KBOS 012120Z AUTO 01017KT 4SM -RA -SN BR BKN012 OVC019 A2989 RMK MADISHF
BOS,2017-04-01 21:25,-71.0097,42.3606,M,M,M,M,M,M,29.89,M,4.00,M,BKN,OVC,M,M,1200.00,1900.00,M,M,-RA -SN BR,KBOS 012125Z AUTO /////KT 4SM -RA -SN BR BKN012 OVC019 A2989 RMK MADISHF
BOS,2017-04-01 21:30,-71.0097,42.3606,M,M,M,20.00,14.00,M,29.90,M,5.00,M,BKN,OVC,M,M,1200.00,1900.00,M,M,-RA -SN BR,KBOS 012130Z AUTO 02014KT 5SM -RA -SN BR BKN012 OVC019 A2990 RMK MADISHF
BOS,2017-04-01 21:35,-71.0097,42.3606,M,M,M,M,M,M,29.91,M,5.00,M,FEW,BKN,OVC,M,1100.00,1400.00,2800.00,M,-RA BR,KBOS 012135Z AUTO /////KT 5SM -RA BR FEW011 BKN014 OVC028 A2991 RMK MADISHF
BOS,2017-04-01 21:40,-71.0097,42.3606,M,M,M,360.00,15.00,M,29.92,M,5.00,M,FEW,BKN,OVC,M,1100.00,1400.00,2800.00,M,-RA BR,KBOS 012140Z AUTO 36015KT 5SM -RA BR FEW011 BKN014 OVC028 A2992 RMK MADISHF
BOS,2017-04-01 21:45,-71.0097,42.3606,M,M,M,360.00,15.00,M,29.91,M,5.00,M,BKN,BKN,OVC,M,999.00,1400.00,2800.00,M,-RA BR,KBOS 012145Z AUTO 36015KT 5SM -RA BR BKN009 BKN014 OVC028 A2991 RMK MADISHF
BOS,2017-04-01 21:50,-71.0097,42.3606,M,M,M,M,M,M,29.92,M,6.00,M,BKN,OVC,M,M,999.00,1500.00,M,M,-RA -SN BR,KBOS 012150Z AUTO /////KT 6SM -RA -SN BR BKN009 OVC015 A2992 RMK  PCPN VRY LGT MADISHF
BOS,2017-04-01 21:54,-71.0097,42.3606,35.10,33.10,92.32,360.00,15.00,0.00,29.92,1013.20,3.00,M,BKN,OVC,M,M,1000.00,1500.00,M,M,-RASN BR,KBOS 012154Z 36015KT 3SM -RASN BR BKN010 OVC015 02/01 A2992 RMK AO2 PK WND 36030/2058 SFC VIS 5 SLP132 PCPN VRY LGT P0000 T00170006
BOS,2017-04-01 21:55,-71.0097,42.3606,M,M,M,360.00,15.00,M,29.92,M,5.00,M,OVC,M,M,M,1100.00,M,M,M,-RA -SN BR,KBOS 012155Z AUTO 36015KT 5SM -RA -SN BR OVC011 A2992 RMK MADISHF
BOS,2017-04-01 22:00,-71.0097,42.3606,M,M,M,360.00,13.00,M,29.93,M,5.00,18.00,OVC,M,M,M,1100.00,M,M,M,-RA -SN BR,KBOS 012200Z AUTO 36013G18KT 5SM -RA -SN BR OVC011 A2993 RMK MADISHF
BOS,2017-04-01 22:05,-71.0097,42.3606,M,M,M,350.00,14.00,M,29.93,M,4.00,M,OVC,M,M,M,1100.00,M,M,M,-RA -SN BR,KBOS 012205Z AUTO 35014KT 4SM -RA -SN BR OVC011 A2993 RMK MADISHF
BOS,2017-04-01 22:10,-71.0097,42.3606,M,M,M,350.00,13.00,M,29.94,M,3.00,18.00,OVC,M,M,M,1100.00,M,M,M,-SN BR,KBOS 012210Z AUTO 35013G18KT 3SM -SN BR OVC011 A2994 RMK MADISHF
BOS,2017-04-01 22:15,-71.0097,42.3606,M,M,M,360.00,15.00,M,29.94,M,3.00,M,OVC,M,M,M,1100.00,M,M,M,-SN BR,KBOS 012215Z AUTO 36015KT 3SM -SN BR OVC011 A2994 RMK MADISHF
BOS,2017-04-01 22:20,-71.0097,42.3606,M,M,M,360.00,14.00,M,29.94,M,3.00,M,OVC,M,M,M,1100.00,M,M,M,-SN BR,KBOS 012220Z AUTO 36014KT 3SM -SN BR OVC011 A2994 RMK MADISHF
BOS,2017-04-01 22:24,-71.0097,42.3606,34.00,33.10,96.46,360.00,14.00,0.00,29.94,M,2.50,M,BKN,OVC,M,M,1000.00,1400.00,M,M,-SN BR,KBOS 012224Z 36014KT 2 1/2SM -SN BR BKN010 OVC014 01/01 A2994 RMK AO2 TWR VIS 3 RAE09 P0000 T00110006
BOS,2017-04-01 22:25,-71.0097,42.3606,M,M,M,360.00,13.00,M,29.94,M,2.50,M,BKN,OVC,M,M,999.00,1400.00,M,M,-SN BR,KBOS 012225Z AUTO 36013KT 2 1/2SM -SN BR BKN009 OVC014 A2994 RMK MADISHF
BOS,2017-04-01 22:30,-71.0097,42.3606,M,M,M,360.00,13.00,0.01,29.94,M,2.50,18.00,BKN,OVC,M,M,999.00,1400.00,M,M,-SN BR,KBOS 012230Z AUTO 36013G18KT 2 1/2SM -SN BR BKN009 OVC014 A2994 RMK P0001 MADISHF
BOS,2017-04-01 22:35,-71.0097,42.3606,M,M,M,350.00,12.00,0.01,29.95,M,2.50,M,BKN,OVC,M,M,999.00,1400.00,M,M,-SN BR,KBOS 012235Z AUTO 35012KT 2 1/2SM -SN BR BKN009 OVC014 A2995 RMK P0001 MADISHF
BOS,2017-04-01 22:40,-71.0097,42.3606,M,M,M,340.00,11.00,0.01,29.95,M,2.50,M,BKN,OVC,M,M,999.00,1400.00,M,M,-SN BR,KBOS 012240Z AUTO 34011KT 2 1/2SM -SN BR BKN009 OVC014 A2995 RMK P0001 MADISHF
BOS,2017-04-01 22:45,-71.0097,42.3606,M,M,M,350.00,13.00,0.01,29.95,M,2.50,M,BKN,OVC,M,M,999.00,1500.00,M,M,-SN BR,KBOS 012245Z AUTO 35013KT 2 1/2SM -SN BR BKN009 OVC015 A2995 RMK P0001 MADISHF
BOS,2017-04-01 22:50,-71.0097,42.3606,M,M,M,340.00,11.00,0.01,29.95,M,2.50,M,BKN,OVC,M,M,999.00,1500.00,M,M,-SN BR,KBOS 012250Z AUTO 34011KT 2 1/2SM -SN BR BKN009 OVC015 A2995 RMK P0001 MADISHF
BOS,2017-04-01 22:54,-71.0097,42.3606,33.10,33.10,100.00,350.00,10.00,0.01,29.95,1014.30,2.50,M,BKN,OVC,M,M,1000.00,1500.00,M,M,-SN BR,KBOS 012254Z 35010KT 2 1/2SM -SN BR BKN010 OVC015 01/01 A2995 RMK AO2 TWR VIS 3 RAE09 SLP143 P0001 T00060006
BOS,2017-04-01 22:55,-71.0097,42.3606,M,M,M,350.00,10.00,M,29.96,M,2.00,M,BKN,OVC,M,M,999.00,1500.00,M,M,-SN BR,KBOS 012255Z AUTO 35010KT 2SM -SN BR BKN009 OVC015 A2996 RMK MADISHF
BOS,2017-04-01 23:00,-71.0097,42.3606,M,M,M,340.00,11.00,M,29.96,M,2.00,M,BKN,OVC,M,M,999.00,1500.00,M,M,-SN BR,KBOS 012300Z AUTO 34011KT 2SM -SN BR BKN009 OVC015 A2996 RMK MADISHF
BOS,2017-04-01 23:05,-71.0097,42.3606,M,M,M,340.00,12.00,M,29.96,M,2.00,M,BKN,OVC,M,M,999.00,1500.00,M,M,-SN BR,KBOS 012305Z AUTO 34012KT 2SM -SN BR BKN009 OVC015 A2996 RMK MADISHF
BOS,2017-04-01 23:07,-71.0097,42.3606,33.10,32.00,95.67,340.00,12.00,0.00,29.96,M,2.00,M,BKN,OVC,M,M,700.00,1500.00,M,M,-SN BR,KBOS 012307Z 34012KT 2SM -SN BR BKN007 OVC015 01/00 A2996 RMK AO2 TWR VIS 3 P0000 T00060000
BOS,2017-04-01 23:10,-71.0097,42.3606,M,M,M,340.00,13.00,0.01,29.96,M,2.00,M,BKN,OVC,M,M,700.00,1500.00,M,M,-SN BR,KBOS 012310Z AUTO 34013KT 2SM -SN BR BKN007 OVC015 A2996 RMK P0001 MADISHF
BOS,2017-04-01 23:15,-71.0097,42.3606,M,M,M,350.00,13.00,0.01,29.96,M,2.50,M,BKN,OVC,M,M,700.00,1500.00,M,M,-SN BR,KBOS 012315Z AUTO 35013KT 2 1/2SM -SN BR BKN007 OVC015 A2996 RMK P0001 MADISHF
BOS,2017-04-01 23:20,-71.0097,42.3606,M,M,M,350.00,10.00,0.01,29.96,M,2.50,M,BKN,BKN,OVC,M,700.00,1300.00,1999.00,M,-SN BR,KBOS 012320Z AUTO 35010KT 2 1/2SM -SN BR BKN007 BKN013 OVC019 A2996 RMK P0001 MADISHF
BOS,2017-04-01 23:25,-71.0097,42.3606,M,M,M,350.00,11.00,0.01,29.96,M,2.50,M,BKN,BKN,OVC,M,700.00,1300.00,2300.00,M,-SN BR,KBOS 012325Z AUTO 35011KT 2 1/2SM -SN BR BKN007 BKN013 OVC023 A2996 RMK P0001 MADISHF
BOS,2017-04-01 23:28,-71.0097,42.3606,33.80,33.80,100.00,350.00,11.00,0.00,29.96,M,3.00,M,BKN,BKN,OVC,M,700.00,1300.00,2300.00,M,-SN BR,KBOS 012328Z 35011KT 3SM -SN BR BKN007 BKN013 OVC023 01/01 A2996
BOS,2017-04-01 23:30,-71.0097,42.3606,M,M,M,350.00,12.00,0.01,29.96,M,3.00,M,BKN,BKN,OVC,M,700.00,1300.00,2300.00,M,-RA -SN BR,KBOS 012330Z AUTO 35012KT 3SM -RA -SN BR BKN007 BKN013 OVC023 A2996 RMK P0001 MADISHF
BOS,2017-04-01 23:35,-71.0097,42.3606,M,M,M,350.00,10.00,0.01,29.96,M,3.00,M,BKN,BKN,OVC,M,700.00,1300.00,2300.00,M,-RA -SN BR,KBOS 012335Z AUTO 35010KT 3SM -RA -SN BR BKN007 BKN013 OVC023 A2996 RMK P0001 MADISHF
BOS,2017-04-01 23:40,-71.0097,42.3606,M,M,M,350.00,11.00,0.01,29.96,M,4.00,M,BKN,BKN,OVC,M,800.00,1300.00,3800.00,M,-RA -SN BR,KBOS 012340Z AUTO 35011KT 4SM -RA -SN BR BKN008 BKN013 OVC038 A2996 RMK P0001 MADISHF
BOS,2017-04-01 23:45,-71.0097,42.3606,M,M,M,350.00,10.00,0.01,29.96,M,4.00,M,BKN,BKN,OVC,M,800.00,1300.00,3800.00,M,-RA BR,KBOS 012345Z AUTO 35010KT 4SM -RA BR BKN008 BKN013 OVC038 A2996 RMK P0001 MADISHF
BOS,2017-04-01 23:50,-71.0097,42.3606,M,M,M,340.00,10.00,0.01,29.96,M,6.00,M,BKN,BKN,OVC,M,800.00,1300.00,3800.00,M,-RA BR,KBOS 012350Z AUTO 34010KT 6SM -RA BR BKN008 BKN013 OVC038 A2996 RMK P0001 MADISHF
BOS,2017-04-01 23:54,-71.0097,42.3606,34.00,33.10,96.46,340.00,10.00,0.01,29.96,1014.50,3.00,M,SCT,BKN,OVC,M,800.00,1300.00,4600.00,M,-RA BR,KBOS 012354Z 34010KT 3SM -RA BR SCT008 BKN013 OVC046 01/01 A2996 RMK AO2 SFC VIS 6 RAB29SNE45 SLP145 P0001 60004 T00110006 10022 20006 51026
BOS,2017-04-01 23:55,-71.0097,42.3606,M,M,M,340.00,10.00,M,29.96,M,6.00,M,SCT,BKN,OVC,M,800.00,1400.00,4600.00,M,-RA BR,KBOS 012355Z AUTO 34010KT 6SM -RA BR SCT008 BKN014 OVC046 A2996 RMK MADISHF
