#DEBUG: Format Typ    -> comma
#DEBUG: Time Period   -> 2017-04-01 00:00:00+00:00 2017-04-02 00:00:00+00:00
#DEBUG: Time Zone     -> Etc/UTC
#DEBUG: Data Contact   -> daryl herzmann akrherz@iastate.edu 515-294-5978
#DEBUG: Entries Found -> -1
station,valid,lon,lat,tmpf, dwpf, relh, drct, sknt, p01i, alti, mslp, vsby, gust, skyc1, skyc2, skyc3, skyc4, skyl1, skyl2, skyl3, skyl4, presentwx, metar
BQK,2017-04-01 00:15,-81.4665,31.2588,78.80,59.00,50.69,270.00,6.00,0.00,29.80,M,10.00,M,SCT,M,M,M,7500.00,M,M,M,M,KBQK 010015Z AUTO 27006KT 10SM SCT075 26/15 A2980 RMK AO2
BQK,2017-04-01 00:35,-81.4665,31.2588,77.00,57.20,50.43,260.00,3.00,0.00,29.81,M,10.00,M,CLR,M,M,M,M,M,M,M,M,KBQK 010035Z AUTO 26003KT 10SM CLR 25/14 A2981 RMK AO2
BQK,2017-04-01 00:55,-81.4665,31.2588,77.00,57.20,50.43,250.00,3.00,0.00,29.82,M,10.00,M,CLR,M,M,M,M,M,M,M,M,KBQK 010055Z AUTO 25003KT 10SM CLR 25/14 A2982 RMK AO2
BQK,2017-04-01 01:15,-81.4665,31.2588,77.00,57.20,50.43,230.00,4.00,0.00,29.83,M,10.00,M,CLR,M,M,M,M,M,M,M,M,KBQK 010115Z AUTO 23004KT 10SM CLR 25/14 A2983 RMK AO2
BQK,2017-04-01 01:35,-81.4665,31.2588,73.40,59.00,60.67,220.00,3.00,0.00,29.84,M,10.00,M,CLR,M,M,M,M,M,M,M,M,KBQK 010135Z AUTO 22003KT 10SM CLR 23/15 A2984 RMK AO2
BQK,2017-04-01 01:55,-81.4665,31.2588,73.40,59.00,60.67,230.00,3.00,0.00,29.85,M,10.00,M,CLR,M,M,M,M,M,M,M,M,KBQK 010155Z AUTO 23003KT 10SM CLR 23/15 A2985 RMK AO2
BQK,2017-04-01 02:15,-81.4665,31.2588,71.60,59.00,64.48,230.00,4.00,0.00,29.86,M,10.00,M,CLR,M,M,M,M,M,M,M,M,KBQK 010215Z AUTO 23004KT 10SM CLR 22/15 A2986 RMK AO2
BQK,2017-04-01 02:35,-81.4665,31.2588,71.60,59.00,64.48,230.00,4.00,0.00,29.87,M,10.00,M,CLR,M,M,M,M,M,M,M,M,KBQK 010235Z AUTO 23004KT 10SM CLR 22/15 A2987 RMK AO2
BQK,2017-04-01 02:55,-81.4665,31.2588,71.60,59.00,64.48,240.00,6.00,0.00,29.88,M,10.00,M,CLR,M,M,M,M,M,M,M,M,KBQK 010255Z AUTO 24006KT 10SM CLR 22/15 A2988 RMK AO2
BQK,2017-04-01 03:15,-81.4665,31.2588,71.60,59.00,64.48,240.00,6.00,0.00,29.88,M,10.00,M,CLR,M,M,M,M,M,M,M,M,KBQK 010315Z AUTO 24006KT 10SM CLR 22/15 A2988 RMK AO2
BQK,2017-04-01 03:35,-81.4665,31.2588,69.80,59.00,68.55,250.00,6.00,0.00,29.89,M,10.00,M,CLR,M,M,M,M,M,M,M,M,KBQK 010335Z AUTO 25006KT 10SM CLR 21/15 A2989 RMK AO2
BQK,2017-04-01 03:55,-81.4665,31.2588,69.80,59.00,68.55,230.00,5.00,0.00,29.89,M,10.00,M,CLR,M,M,M,M,M,M,M,M,KBQK 010355Z AUTO 23005KT 10SM CLR 21/15 A2989 RMK AO2
BQK,2017-04-01 04:15,-81.4665,31.2588,69.80,59.00,68.55,250.00,7.00,0.00,29.90,M,10.00,M,CLR,M,M,M,M,M,M,M,M,KBQK 010415Z AUTO 25007KT 10SM CLR 21/15 A2990 RMK AO2
BQK,2017-04-01 04:35,-81.4665,31.2588,69.80,59.00,68.55,250.00,6.00,0.00,29.90,M,10.00,M,CLR,M,M,M,M,M,M,M,M,KBQK 010435Z AUTO 25006KT 10SM CLR 21/15 A2990 RMK AO2
BQK,2017-04-01 04:55,-81.4665,31.2588,68.00,59.00,72.92,250.00,5.00,0.00,29.90,M,10.00,M,CLR,M,M,M,M,M,M,M,M,KBQK 010455Z AUTO 25005KT 10SM CLR 20/15 A2990 RMK AO2
BQK,2017-04-01 05:15,-81.4665,31.2588,68.00,59.00,72.92,260.00,5.00,0.00,29.91,M,10.00,M,CLR,M,M,M,M,M,M,M,M,KBQK 010515Z AUTO 26005KT 10SM CLR 20/15 A2991 RMK AO2
BQK,2017-04-01 05:35,-81.4665,31.2588,68.00,59.00,72.92,260.00,5.00,0.00,29.92,M,10.00,M,CLR,M,M,M,M,M,M,M,M,KBQK 010535Z AUTO 26005KT 10SM CLR 20/15 A2992 RMK AO2
BQK,2017-04-01 05:55,-81.4665,31.2588,66.20,59.00,77.60,260.00,5.00,0.00,29.92,M,10.00,M,CLR,M,M,M,M,M,M,M,M,KBQK 010555Z AUTO 26005KT 10SM CLR 19/15 A2992 RMK AO2
BQK,2017-04-01 06:15,-81.4665,31.2588,64.40,59.00,82.62,250.00,4.00,0.00,29.92,M,10.00,M,CLR,M,M,M,M,M,M,M,M,KBQK 010615Z AUTO 25004KT 10SM CLR 18/15 A2992 RMK AO2
BQK,2017-04-01 06:35,-81.4665,31.2588,66.20,59.00,77.60,240.00,4.00,0.00,29.93,M,10.00,M,CLR,M,M,M,M,M,M,M,M,KBQK 010635Z AUTO 24004KT 10SM CLR 19/15 A2993 RMK AO2
BQK,2017-04-01 06:55,-81.4665,31.2588,64.40,59.00,82.62,270.00,4.00,0.00,29.93,M,10.00,M,CLR,M,M,M,M,M,M,M,M,KBQK 010655Z AUTO 27004KT 10SM CLR 18/15 A2993 RMK AO2
BQK,2017-04-01 07:15,-81.4665,31.2588,64.40,59.00,82.62,250.00,4.00,0.00,29.93,M,10.00,M,CLR,M,M,M,M,M,M,M,M,KBQK 010715Z AUTO 25004KT 10SM CLR 18/15 A2993 RMK AO2
BQK,2017-04-01 07:35,-81.4665,31.2588,62.60,59.00,88.00,270.00,4.00,0.00,29.93,M,10.00,M,CLR,M,M,M,M,M,M,M,M,KBQK 010735Z AUTO 27004KT 10SM CLR 17/15 A2993 RMK AO2
BQK,2017-04-01 07:55,-81.4665,31.2588,62.60,59.00,88.00,280.00,4.00,0.00,29.93,M,10.00,M,CLR,M,M,M,M,M,M,M,M,KBQK 010755Z AUTO 28004KT 10SM CLR 17/15 A2993 RMK AO2
BQK,2017-04-01 08:15,-81.4665,31.2588,62.60,59.00,88.00,280.00,3.00,0.00,29.94,M,10.00,M,CLR,M,M,M,M,M,M,M,M,KBQK 010815Z AUTO 28003KT 10SM CLR 17/15 A2994 RMK AO2
BQK,2017-04-01 08:35,-81.4665,31.2588,60.80,57.20,87.92,290.00,4.00,0.00,29.95,M,10.00,M,CLR,M,M,M,M,M,M,M,M,KBQK 010835Z AUTO 29004KT 10SM CLR 16/14 A2995 RMK AO2
BQK,2017-04-01 08:55,-81.4665,31.2588,60.80,57.20,87.92,300.00,5.00,0.00,29.95,M,10.00,M,CLR,M,M,M,M,M,M,M,M,KBQK 010855Z AUTO 30005KT 10SM CLR 16/14 A2995 RMK AO2
BQK,2017-04-01 09:15,-81.4665,31.2588,60.80,55.40,82.37,300.00,4.00,0.00,29.95,M,10.00,M,CLR,M,M,M,M,M,M,M,M,KBQK 010915Z AUTO 30004KT 10SM CLR 16/13 A2995 RMK AO2
BQK,2017-04-01 09:35,-81.4665,31.2588,60.80,55.40,82.37,0.00,0.00,0.00,29.96,M,10.00,M,CLR,M,M,M,M,M,M,M,M,KBQK 010935Z AUTO 00000KT 10SM CLR 16/13 A2996 RMK AO2
BQK,2017-04-01 09:55,-81.4665,31.2588,59.00,55.40,87.83,0.00,0.00,0.00,29.96,M,10.00,M,CLR,M,M,M,M,M,M,M,M,KBQK 010955Z AUTO 00000KT 10SM CLR 15/13 A2996 RMK AO2
BQK,2017-04-01 10:15,-81.4665,31.2588,55.40,55.40,100.00,0.00,0.00,0.00,29.97,M,10.00,M,CLR,M,M,M,M,M,M,M,M,KBQK 011015Z AUTO 00000KT 10SM CLR 13/13 A2997 RMK AO2
BQK,2017-04-01 10:35,-81.4665,31.2588,55.40,53.60,93.65,280.00,3.00,0.00,29.98,M,10.00,M,CLR,M,M,M,M,M,M,M,M,KBQK 011035Z AUTO 28003KT 10SM CLR 13/12 A2998 RMK AO2
BQK,2017-04-01 10:55,-81.4665,31.2588,55.40,53.60,93.65,0.00,0.00,0.00,29.99,M,10.00,M,CLR,M,M,M,M,M,M,M,M,KBQK 011055Z AUTO 00000KT 10SM CLR 13/12 A2999 RMK AO2
BQK,2017-04-01 11:15,-81.4665,31.2588,55.40,55.40,100.00,0.00,0.00,0.00,29.99,M,10.00,M,CLR,M,M,M,M,M,M,M,M,KBQK 011115Z AUTO 00000KT 10SM CLR 13/13 A2999 RMK AO2
BQK,2017-04-01 11:35,-81.4665,31.2588,53.60,53.60,100.00,280.00,3.00,0.00,30.00,M,10.00,M,CLR,M,M,M,M,M,M,M,M,KBQK 011135Z AUTO 28003KT 10SM CLR 12/12 A3000 RMK AO2
BQK,2017-04-01 11:55,-81.4665,31.2588,55.40,53.60,93.65,290.00,3.00,0.00,30.01,M,10.00,M,CLR,M,M,M,M,M,M,M,M,KBQK 011155Z AUTO 29003KT 10SM CLR 13/12 A3001 RMK AO2
BQK,2017-04-01 12:15,-81.4665,31.2588,60.80,55.40,82.37,300.00,3.00,0.00,30.01,M,10.00,M,CLR,M,M,M,M,M,M,M,M,KBQK 011215Z AUTO 30003KT 10SM CLR 16/13 A3001 RMK AO2
BQK,2017-04-01 12:35,-81.4665,31.2588,62.60,55.40,77.29,320.00,5.00,0.00,30.02,M,10.00,M,CLR,M,M,M,M,M,M,M,M,KBQK 011235Z AUTO 32005KT 10SM CLR 17/13 A3002 RMK AO2
BQK,2017-04-01 12:55,-81.4665,31.2588,64.40,55.40,72.56,280.00,4.00,0.00,30.03,M,10.00,M,CLR,M,M,M,M,M,M,M,M,KBQK 011255Z AUTO 28004KT 10SM CLR 18/13 A3003 RMK AO2
BQK,2017-04-01 13:15,-81.4665,31.2588,68.00,55.40,64.04,330.00,4.00,0.00,30.04,M,10.00,M,CLR,M,M,M,M,M,M,M,M,KBQK 011315Z AUTO 33004KT 10SM CLR 20/13 A3004 RMK AO2
BQK,2017-04-01 13:35,-81.4665,31.2588,69.80,53.60,56.38,350.00,5.00,0.00,30.04,M,10.00,M,CLR,M,M,M,M,M,M,M,M,KBQK 011335Z AUTO 35005KT 10SM CLR 21/12 A3004 RMK AO2
BQK,2017-04-01 13:55,-81.4665,31.2588,69.80,53.60,56.38,350.00,6.00,0.00,30.04,M,10.00,M,CLR,M,M,M,M,M,M,M,M,KBQK 011355Z AUTO 35006KT 10SM CLR 21/12 A3004 RMK AO2
BQK,2017-04-01 14:15,-81.4665,31.2588,71.60,53.60,53.03,340.00,6.00,0.00,30.04,M,10.00,M,CLR,M,M,M,M,M,M,M,M,KBQK 011415Z AUTO 34006KT 10SM CLR 22/12 A3004 RMK AO2
BQK,2017-04-01 14:35,-81.4665,31.2588,73.40,53.60,49.90,340.00,5.00,0.00,30.05,M,10.00,M,CLR,M,M,M,M,M,M,M,M,KBQK 011435Z AUTO 34005KT 10SM CLR 23/12 A3005 RMK AO2
BQK,2017-04-01 14:55,-81.4665,31.2588,73.40,53.60,49.90,350.00,6.00,0.00,30.05,M,10.00,M,CLR,M,M,M,M,M,M,M,M,KBQK 011455Z AUTO 35006KT 10SM CLR 23/12 A3005 RMK AO2
BQK,2017-04-01 15:15,-81.4665,31.2588,77.00,53.60,44.25,320.00,6.00,0.00,30.04,M,10.00,M,CLR,M,M,M,M,M,M,M,M,KBQK 011515Z AUTO 32006KT 10SM CLR 25/12 A3004 RMK AO2
BQK,2017-04-01 15:35,-81.4665,31.2588,77.00,53.60,44.25,300.00,9.00,0.00,30.04,M,10.00,15.00,CLR,M,M,M,M,M,M,M,M,KBQK 011535Z AUTO 30009G15KT 270V350 10SM CLR 25/12 A3004 RMK AO2
BQK,2017-04-01 15:55,-81.4665,31.2588,78.80,53.60,41.69,310.00,5.00,0.00,30.04,M,10.00,M,CLR,M,M,M,M,M,M,M,M,KBQK 011555Z AUTO 31005KT 10SM CLR 26/12 A3004 RMK AO2
BQK,2017-04-01 16:15,-81.4665,31.2588,78.80,53.60,41.69,340.00,9.00,0.00,30.04,M,10.00,M,CLR,M,M,M,M,M,M,M,M,KBQK 011615Z AUTO 34009KT 10SM CLR 26/12 A3004 RMK AO2
BQK,2017-04-01 16:35,-81.4665,31.2588,80.60,53.60,39.30,270.00,5.00,0.00,30.03,M,10.00,M,CLR,M,M,M,M,M,M,M,M,KBQK 011635Z AUTO 27005KT 10SM CLR 27/12 A3003 RMK AO2
BQK,2017-04-01 16:55,-81.4665,31.2588,80.60,53.60,39.30,310.00,6.00,0.00,30.03,M,10.00,M,CLR,M,M,M,M,M,M,M,M,KBQK 011655Z AUTO 31006KT 10SM CLR 27/12 A3003 RMK AO2
BQK,2017-04-01 17:15,-81.4665,31.2588,80.60,51.80,36.79,290.00,8.00,0.00,30.02,M,10.00,M,CLR,M,M,M,M,M,M,M,M,KBQK 011715Z AUTO 29008KT 10SM CLR 27/11 A3002 RMK AO2
BQK,2017-04-01 17:35,-81.4665,31.2588,82.40,51.80,34.69,290.00,7.00,0.00,30.02,M,10.00,M,CLR,M,M,M,M,M,M,M,M,KBQK 011735Z AUTO 29007KT 10SM CLR 28/11 A3002 RMK AO2
BQK,2017-04-01 17:55,-81.4665,31.2588,82.40,51.80,34.69,250.00,6.00,0.00,30.01,M,10.00,M,CLR,M,M,M,M,M,M,M,M,KBQK 011755Z AUTO 25006KT 10SM CLR 28/11 A3001 RMK AO2
BQK,2017-04-01 18:15,-81.4665,31.2588,82.40,50.00,32.46,230.00,6.00,0.00,30.00,M,10.00,M,CLR,M,M,M,M,M,M,M,M,KBQK 011815Z AUTO 23006KT 10SM CLR 28/10 A3000 RMK AO2
BQK,2017-04-01 18:35,-81.4665,31.2588,82.40,51.80,34.69,270.00,7.00,0.00,30.00,M,10.00,M,CLR,M,M,M,M,M,M,M,M,KBQK 011835Z AUTO 27007KT 10SM CLR 28/11 A3000 RMK AO2
BQK,2017-04-01 18:55,-81.4665,31.2588,82.40,57.20,42.25,190.00,6.00,0.00,29.99,M,10.00,15.00,CLR,M,M,M,M,M,M,M,M,KBQK 011855Z AUTO 19006G15KT 10SM CLR 28/14 A2999 RMK AO2
BQK,2017-04-01 19:15,-81.4665,31.2588,80.60,60.80,50.95,160.00,9.00,0.00,29.98,M,10.00,M,CLR,M,M,M,M,M,M,M,M,KBQK 011915Z AUTO 16009KT 10SM CLR 27/16 A2998 RMK AO2
BQK,2017-04-01 19:35,-81.4665,31.2588,78.80,60.80,54.05,150.00,11.00,0.00,29.98,M,10.00,M,CLR,M,M,M,M,M,M,M,M,KBQK 011935Z AUTO 15011KT 10SM CLR 26/16 A2998 RMK AO2
BQK,2017-04-01 19:55,-81.4665,31.2588,78.80,60.80,54.05,140.00,8.00,0.00,29.97,M,10.00,M,CLR,M,M,M,M,M,M,M,M,KBQK 011955Z AUTO 14008KT 10SM CLR 26/16 A2997 RMK AO2
BQK,2017-04-01 20:15,-81.4665,31.2588,80.60,60.80,50.95,160.00,8.00,0.00,29.97,M,10.00,M,CLR,M,M,M,M,M,M,M,M,KBQK 012015Z AUTO 16008KT 10SM CLR 27/16 A2997 RMK AO2
BQK,2017-04-01 20:35,-81.4665,31.2588,78.80,60.80,54.05,150.00,7.00,0.00,29.97,M,10.00,M,CLR,M,M,M,M,M,M,M,M,KBQK 012035Z AUTO 15007KT 10SM CLR 26/16 A2997 RMK AO2
BQK,2017-04-01 20:55,-81.4665,31.2588,78.80,60.80,54.05,160.00,8.00,0.00,29.96,M,10.00,M,CLR,M,M,M,M,M,M,M,M,KBQK 012055Z AUTO 16008KT 10SM CLR 26/16 A2996 RMK AO2
BQK,2017-04-01 21:15,-81.4665,31.2588,78.80,59.00,50.69,140.00,9.00,0.00,29.96,M,10.00,M,CLR,M,M,M,M,M,M,M,M,KBQK 012115Z AUTO 14009KT 10SM CLR 26/15 A2996 RMK AO2
BQK,2017-04-01 21:35,-81.4665,31.2588,78.80,60.80,54.05,170.00,8.00,0.00,29.97,M,10.00,M,CLR,M,M,M,M,M,M,M,M,KBQK 012135Z AUTO 17008KT 130V190 10SM CLR 26/16 A2997 RMK AO2
BQK,2017-04-01 21:55,-81.4665,31.2588,78.80,59.00,50.69,150.00,7.00,0.00,29.97,M,10.00,M,CLR,M,M,M,M,M,M,M,M,KBQK 012155Z AUTO 15007KT 10SM CLR 26/15 A2997 RMK AO2
BQK,2017-04-01 22:15,-81.4665,31.2588,77.00,60.80,57.36,140.00,8.00,0.00,29.98,M,10.00,M,CLR,M,M,M,M,M,M,M,M,KBQK 012215Z AUTO 14008KT 10SM CLR 25/16 A2998 RMK AO2
BQK,2017-04-01 22:35,-81.4665,31.2588,77.00,60.80,57.36,150.00,8.00,0.00,29.98,M,10.00,M,CLR,M,M,M,M,M,M,M,M,KBQK 012235Z AUTO 15008KT 10SM CLR 25/16 A2998 RMK AO2
BQK,2017-04-01 22:55,-81.4665,31.2588,75.20,60.80,60.90,140.00,4.00,0.00,29.98,M,10.00,M,CLR,M,M,M,M,M,M,M,M,KBQK 012255Z AUTO 14004KT 10SM CLR 24/16 A2998 RMK AO2
BQK,2017-04-01 23:15,-81.4665,31.2588,73.40,60.80,64.69,170.00,7.00,0.00,29.99,M,10.00,M,CLR,M,M,M,M,M,M,M,M,KBQK 012315Z AUTO 17007KT 10SM CLR 23/16 A2999 RMK AO2
BQK,2017-04-01 23:35,-81.4665,31.2588,73.40,60.80,64.69,150.00,6.00,0.00,29.99,M,10.00,M,CLR,M,M,M,M,M,M,M,M,KBQK 012335Z AUTO 15006KT 10SM CLR 23/16 A2999 RMK AO2
BQK,2017-04-01 23:55,-81.4665,31.2588,71.60,62.60,73.27,150.00,3.00,0.00,30.00,M,10.00,M,CLR,M,M,M,M,M,M,M,M,KBQK 012355Z AUTO 15003KT 10SM CLR 22/17 A3000 RMK AO2
