#DEBUG: Format Typ    -> comma
#DEBUG: Time Period   -> 2017-04-01 00:00:00+00:00 2017-04-02 00:00:00+00:00
#DEBUG: Time Zone     -> Etc/UTC
#DEBUG: Data Contact   -> daryl herzmann akrherz@iastate.edu 515-294-5978
#DEBUG: Entries Found -> -1
station,valid,lon,lat,tmpf, dwpf, relh, drct, sknt, p01i, alti, mslp, vsby, gust, skyc1, skyc2, skyc3, skyc4, skyl1, skyl2, skyl3, skyl4, presentwx, metar
BTR,2017-04-01 00:00,-91.1469,30.5372,M,M,M,320.00,3.00,M,29.87,M,10.00,M,CLR,M,M,M,M,M,M,M,M,KBTR 010000Z AUTO 32003KT 10SM CLR A2987 RMK MADISHF
BTR,2017-04-01 00:05,-91.1469,30.5372,M,M,M,0.00,0.00,M,29.87,M,10.00,M,CLR,M,M,M,M,M,M,M,M,KBTR 010005Z AUTO 00000KT 10SM CLR A2987 RMK MADISHF
BTR,2017-04-01 00:10,-91.1469,30.5372,M,M,M,0.00,0.00,M,29.87,M,10.00,M,CLR,M,M,M,M,M,M,M,M,KBTR 010010Z AUTO 00000KT 10SM CLR A2987 RMK MADISHF
BTR,2017-04-01 00:15,-91.1469,30.5372,M,M,M,290.00,3.00,M,29.87,M,10.00,M,CLR,M,M,M,M,M,M,M,M,KBTR 010015Z AUTO 29003KT 10SM CLR A2987 RMK MADISHF
BTR,2017-04-01 00:20,-91.1469,30.5372,M,M,M,0.00,0.00,M,29.88,M,10.00,M,CLR,M,M,M,M,M,M,M,M,KBTR 010020Z AUTO 00000KT 10SM CLR A2988 RMK MADISHF
BTR,2017-04-01 00:25,-91.1469,30.5372,M,M,M,0.00,0.00,M,29.88,M,10.00,M,CLR,M,M,M,M,M,M,M,M,KBTR 010025Z AUTO 00000KT 10SM CLR A2988 RMK MADISHF
BTR,2017-04-01 00:30,-91.1469,30.5372,M,M,M,0.00,0.00,M,29.88,M,10.00,M,CLR,M,M,M,M,M,M,M,M,KBTR 010030Z AUTO 00000KT 10SM CLR A2988 RMK MADISHF
BTR,2017-04-01 00:35,-91.1469,30.5372,M,M,M,0.00,0.00,M,29.88,M,10.00,M,CLR,M,M,M,M,M,M,M,M,KBTR 010035Z AUTO 00000KT 10SM CLR A2988 RMK MADISHF
BTR,2017-04-01 00:40,-91.1469,30.5372,M,M,M,0.00,0.00,M,29.88,M,10.00,M,CLR,M,M,M,M,M,M,M,M,KBTR 010040Z AUTO 00000KT 10SM CLR A2988 RMK MADISHF
BTR,2017-04-01 00:45,-91.1469,30.5372,M,M,M,0.00,0.00,M,29.88,M,10.00,M,CLR,M,M,M,M,M,M,M,M,KBTR 010045Z AUTO 00000KT 10SM CLR A2988 RMK MADISHF
BTR,2017-04-01 00:50,-91.1469,30.5372,M,M,M,0.00,0.00,M,29.88,M,10.00,M,CLR,M,M,M,M,M,M,M,M,KBTR 010050Z AUTO 00000KT 10SM CLR A2988 RMK MADISHF
BTR,2017-04-01 00:53,-91.1469,30.5372,71.10,60.10,68.21,0.00,0.00,0.00,29.88,1011.80,10.00,M,CLR,M,M,M,M,M,M,M,M,KBTR 010053Z 00000KT 10SM CLR 22/16 A2988 RMK AO2 SLP118 T02170156
BTR,2017-04-01 00:55,-91.1469,30.5372,M,M,M,0.00,0.00,M,29.88,M,10.00,M,CLR,M,M,M,M,M,M,M,M,KBTR 010055Z AUTO 00000KT 10SM CLR A2988 RMK MADISHF
BTR,2017-04-01 01:00,-91.1469,30.5372,M,M,M,0.00,0.00,M,29.88,M,10.00,M,CLR,M,M,M,M,M,M,M,M,KBTR 010100Z AUTO 00000KT 10SM CLR A2988 RMK MADISHF
BTR,2017-04-01 01:05,-91.1469,30.5372,M,M,M,70.00,3.00,M,29.89,M,10.00,M,CLR,M,M,M,M,M,M,M,M,KBTR 010105Z AUTO 07003KT 10SM CLR A2989 RMK MADISHF
BTR,2017-04-01 01:10,-91.1469,30.5372,M,M,M,0.00,0.00,M,29.89,M,10.00,M,CLR,M,M,M,M,M,M,M,M,KBTR 010110Z AUTO 00000KT 10SM CLR A2989 RMK MADISHF
BTR,2017-04-01 01:15,-91.1469,30.5372,M,M,M,0.00,0.00,M,29.89,M,10.00,M,CLR,M,M,M,M,M,M,M,M,KBTR 010115Z AUTO 00000KT 10SM CLR A2989 RMK MADISHF
BTR,2017-04-01 01:20,-91.1469,30.5372,M,M,M,0.00,0.00,M,29.89,M,10.00,M,CLR,M,M,M,M,M,M,M,M,KBTR 010120Z AUTO 00000KT 10SM CLR A2989 RMK MADISHF
BTR,2017-04-01 01:25,-91.1469,30.5372,M,M,M,0.00,0.00,M,29.89,M,10.00,M,CLR,M,M,M,M,M,M,M,M,KBTR 010125Z AUTO 00000KT 10SM CLR A2989 RMK MADISHF
BTR,2017-04-01 01:30,-91.1469,30.5372,M,M,M,0.00,0.00,M,29.90,M,10.00,M,CLR,M,M,M,M,M,M,M,M,KBTR 010130Z AUTO 00000KT 10SM CLR A2990 RMK MADISHF
BTR,2017-04-01 01:35,-91.1469,30.5372,M,M,M,0.00,0.00,M,29.90,M,10.00,M,CLR,M,M,M,M,M,M,M,M,KBTR 010135Z AUTO 00000KT 10SM CLR A2990 RMK MADISHF
BTR,2017-04-01 01:40,-91.1469,30.5372,M,M,M,0.00,0.00,M,29.90,M,10.00,M,CLR,M,M,M,M,M,M,M,M,KBTR 010140Z AUTO 00000KT 10SM CLR A2990 RMK MADISHF
BTR,2017-04-01 01:45,-91.1469,30.5372,M,M,M,0.00,0.00,M,29.90,M,10.00,M,CLR,M,M,M,M,M,M,M,M,KBTR 010145Z AUTO 00000KT 10SM CLR A2990 RMK MADISHF
BTR,2017-04-01 01:50,-91.1469,30.5372,M,M,M,260.00,6.00,M,29.90,M,10.00,M,CLR,M,M,M,M,M,M,M,M,KBTR 010150Z AUTO 26006KT 10SM CLR A2990 RMK MADISHF
BTR,2017-04-01 01:53,-91.1469,30.5372,66.90,59.00,75.74,260.00,5.00,0.00,29.90,1012.50,10.00,M,CLR,M,M,M,M,M,M,M,M,KBTR 010153Z 26005KT 10SM CLR 19/15 A2990 RMK AO2 SLP125 T01940150
BTR,2017-04-01 01:55,-91.1469,30.5372,M,M,M,260.00,5.00,M,29.90,M,10.00,M,CLR,M,M,M,M,M,M,M,M,KBTR 010155Z AUTO 26005KT 10SM CLR A2990 RMK MADISHF
BTR,2017-04-01 02:00,-91.1469,30.5372,M,M,M,250.00,5.00,M,29.91,M,10.00,M,CLR,M,M,M,M,M,M,M,M,KBTR 010200Z AUTO 25005KT 10SM CLR A2991 RMK MADISHF
BTR,2017-04-01 02:05,-91.1469,30.5372,M,M,M,250.00,5.00,M,29.91,M,10.00,M,CLR,M,M,M,M,M,M,M,M,KBTR 010205Z AUTO 25005KT 10SM CLR A2991 RMK MADISHF
BTR,2017-04-01 02:10,-91.1469,30.5372,M,M,M,250.00,5.00,M,29.91,M,10.00,M,CLR,M,M,M,M,M,M,M,M,KBTR 010210Z AUTO 25005KT 10SM CLR A2991 RMK MADISHF
BTR,2017-04-01 02:15,-91.1469,30.5372,M,M,M,230.00,3.00,M,29.91,M,10.00,M,CLR,M,M,M,M,M,M,M,M,KBTR 010215Z AUTO 23003KT 10SM CLR A2991 RMK MADISHF
BTR,2017-04-01 02:20,-91.1469,30.5372,M,M,M,220.00,4.00,M,29.91,M,10.00,M,CLR,M,M,M,M,M,M,M,M,KBTR 010220Z AUTO 22004KT 10SM CLR A2991 RMK MADISHF
BTR,2017-04-01 02:25,-91.1469,30.5372,M,M,M,230.00,6.00,M,29.91,M,10.00,M,CLR,M,M,M,M,M,M,M,M,KBTR 010225Z AUTO 23006KT 10SM CLR A2991 RMK MADISHF
BTR,2017-04-01 02:30,-91.1469,30.5372,M,M,M,240.00,6.00,M,29.91,M,10.00,M,CLR,M,M,M,M,M,M,M,M,KBTR 010230Z AUTO 24006KT 10SM CLR A2991 RMK MADISHF
BTR,2017-04-01 02:35,-91.1469,30.5372,M,M,M,260.00,5.00,M,29.92,M,10.00,M,CLR,M,M,M,M,M,M,M,M,KBTR 010235Z AUTO 26005KT 10SM CLR A2992 RMK MADISHF
BTR,2017-04-01 02:40,-91.1469,30.5372,M,M,M,230.00,3.00,M,29.92,M,10.00,M,CLR,M,M,M,M,M,M,M,M,KBTR 010240Z AUTO 23003KT 10SM CLR A2992 RMK MADISHF
BTR,2017-04-01 02:45,-91.1469,30.5372,M,M,M,130.00,5.00,M,29.93,M,10.00,M,CLR,M,M,M,M,M,M,M,M,KBTR 010245Z AUTO 13005KT 10SM CLR A2993 RMK MADISHF
BTR,2017-04-01 02:50,-91.1469,30.5372,M,M,M,150.00,5.00,M,29.93,M,10.00,M,CLR,M,M,M,M,M,M,M,M,KBTR 010250Z AUTO 15005KT 10SM CLR A2993 RMK MADISHF
BTR,2017-04-01 02:53,-91.1469,30.5372,66.90,59.00,75.74,160.00,5.00,0.00,29.93,1013.40,10.00,M,CLR,M,M,M,M,M,M,M,M,KBTR 010253Z 16005KT 10SM CLR 19/15 A2993 RMK AO2 SLP134 T01940150 53020
BTR,2017-04-01 02:55,-91.1469,30.5372,M,M,M,170.00,5.00,M,29.93,M,10.00,M,CLR,M,M,M,M,M,M,M,M,KBTR 010255Z AUTO 17005KT 10SM CLR A2993 RMK MADISHF
BTR,2017-04-01 03:00,-91.1469,30.5372,M,M,M,170.00,5.00,M,29.93,M,10.00,M,CLR,M,M,M,M,M,M,M,M,KBTR 010300Z AUTO 17005KT 10SM CLR A2993 RMK MADISHF
BTR,2017-04-01 03:05,-91.1469,30.5372,M,M,M,190.00,6.00,M,29.93,M,10.00,M,CLR,M,M,M,M,M,M,M,M,KBTR 010305Z AUTO 19006KT 10SM CLR A2993 RMK MADISHF
BTR,2017-04-01 03:10,-91.1469,30.5372,M,M,M,200.00,5.00,M,29.93,M,10.00,M,CLR,M,M,M,M,M,M,M,M,KBTR 010310Z AUTO 20005KT 10SM CLR A2993 RMK MADISHF
BTR,2017-04-01 03:15,-91.1469,30.5372,M,M,M,190.00,4.00,M,29.93,M,10.00,M,CLR,M,M,M,M,M,M,M,M,KBTR 010315Z AUTO 19004KT 10SM CLR A2993 RMK MADISHF
BTR,2017-04-01 03:20,-91.1469,30.5372,M,M,M,200.00,3.00,M,29.93,M,10.00,M,CLR,M,M,M,M,M,M,M,M,KBTR 010320Z AUTO 20003KT 10SM CLR A2993 RMK MADISHF
BTR,2017-04-01 03:25,-91.1469,30.5372,M,M,M,0.00,0.00,M,29.93,M,10.00,M,CLR,M,M,M,M,M,M,M,M,KBTR 010325Z AUTO 00000KT 10SM CLR A2993 RMK MADISHF
BTR,2017-04-01 03:30,-91.1469,30.5372,M,M,M,0.00,0.00,M,29.93,M,10.00,M,CLR,M,M,M,M,M,M,M,M,KBTR 010330Z AUTO 00000KT 10SM CLR A2993 RMK MADISHF
BTR,2017-04-01 03:35,-91.1469,30.5372,M,M,M,0.00,0.00,M,29.93,M,10.00,M,CLR,M,M,M,M,M,M,M,M,KBTR 010335Z AUTO 00000KT 10SM CLR A2993 RMK MADISHF
BTR,2017-04-01 03:40,-91.1469,30.5372,M,M,M,0.00,0.00,M,29.93,M,10.00,M,CLR,M,M,M,M,M,M,M,M,KBTR 010340Z AUTO 00000KT 10SM CLR A2993 RMK MADISHF
BTR,2017-04-01 03:45,-91.1469,30.5372,M,M,M,0.00,0.00,M,29.93,M,10.00,M,CLR,M,M,M,M,M,M,M,M,KBTR 010345Z AUTO 00000KT 10SM CLR A2993 RMK MADISHF
BTR,2017-04-01 03:50,-91.1469,30.5372,M,M,M,0.00,0.00,M,29.93,M,10.00,M,CLR,M,M,M,M,M,M,M,M,KBTR 010350Z AUTO 00000KT 10SM CLR A2993 RMK MADISHF
BTR,2017-04-01 03:53,-91.1469,30.5372,66.00,60.10,81.27,240.00,3.00,0.00,29.93,1013.40,10.00,M,CLR,M,M,M,M,M,M,M,M,KBTR 010353Z 24003KT 10SM CLR 19/16 A2993 RMK AO2 SLP134 T01890156
BTR,2017-04-01 03:55,-91.1469,30.5372,M,M,M,240.00,3.00,M,29.93,M,10.00,M,CLR,M,M,M,M,M,M,M,M,KBTR 010355Z AUTO 24003KT 10SM CLR A2993 RMK MADISHF
BTR,2017-04-01 04:00,-91.1469,30.5372,M,M,M,0.00,0.00,M,29.93,M,10.00,M,CLR,M,M,M,M,M,M,M,M,KBTR 010400Z AUTO 00000KT 10SM CLR A2993 RMK MADISHF
BTR,2017-04-01 04:05,-91.1469,30.5372,M,M,M,0.00,0.00,M,29.93,M,10.00,M,CLR,M,M,M,M,M,M,M,M,KBTR 010405Z AUTO 00000KT 10SM CLR A2993 RMK MADISHF
BTR,2017-04-01 04:10,-91.1469,30.5372,M,M,M,230.00,3.00,M,29.93,M,10.00,M,CLR,M,M,M,M,M,M,M,M,KBTR 010410Z AUTO 23003KT 10SM CLR A2993 RMK MADISHF
BTR,2017-04-01 04:15,-91.1469,30.5372,M,M,M,230.00,4.00,M,29.93,M,10.00,M,CLR,M,M,M,M,M,M,M,M,KBTR 010415Z AUTO 23004KT 10SM CLR A2993 RMK MADISHF
BTR,2017-04-01 04:20,-91.1469,30.5372,M,M,M,210.00,4.00,M,29.93,M,10.00,M,CLR,M,M,M,M,M,M,M,M,KBTR 010420Z AUTO 21004KT 10SM CLR A2993 RMK MADISHF
BTR,2017-04-01 04:25,-91.1469,30.5372,M,M,M,210.00,4.00,M,29.93,M,10.00,M,CLR,M,M,M,M,M,M,M,M,KBTR 010425Z AUTO 21004KT 10SM CLR A2993 RMK MADISHF
BTR,2017-04-01 04:30,-91.1469,30.5372,M,M,M,210.00,3.00,M,29.93,M,10.00,M,CLR,M,M,M,M,M,M,M,M,KBTR 010430Z AUTO 21003KT 10SM CLR A2993 RMK MADISHF
BTR,2017-04-01 04:35,-91.1469,30.5372,M,M,M,200.00,3.00,M,29.93,M,10.00,M,CLR,M,M,M,M,M,M,M,M,KBTR 010435Z AUTO 20003KT 10SM CLR A2993 RMK MADISHF
BTR,2017-04-01 04:40,-91.1469,30.5372,M,M,M,210.00,4.00,M,29.93,M,10.00,M,CLR,M,M,M,M,M,M,M,M,KBTR 010440Z AUTO 21004KT 10SM CLR A2993 RMK MADISHF
BTR,2017-04-01 04:45,-91.1469,30.5372,M,M,M,0.00,0.00,M,29.93,M,10.00,M,CLR,M,M,M,M,M,M,M,M,KBTR 010445Z AUTO 00000KT 10SM CLR A2993 RMK MADISHF
BTR,2017-04-01 04:50,-91.1469,30.5372,M,M,M,0.00,0.00,M,29.93,M,10.00,M,CLR,M,M,M,M,M,M,M,M,KBTR 010450Z AUTO 00000KT 10SM CLR A2993 RMK MADISHF
BTR,2017-04-01 04:53,-91.1469,30.5372,64.00,59.00,83.78,0.00,0.00,0.00,29.93,1013.40,10.00,M,CLR,M,M,M,M,M,M,M,M,KBTR 010453Z 00000KT 10SM CLR 18/15 A2993 RMK AO2 SLP134 T01780150
BTR,2017-04-01 04:55,-91.1469,30.5372,M,M,M,0.00,0.00,M,29.93,M,10.00,M,CLR,M,M,M,M,M,M,M,M,KBTR 010455Z AUTO 00000KT 10SM CLR A2993 RMK MADISHF
BTR,2017-04-01 05:00,-91.1469,30.5372,M,M,M,0.00,0.00,M,29.93,M,10.00,M,CLR,M,M,M,M,M,M,M,M,KBTR 010500Z AUTO 00000KT 10SM CLR A2993 RMK MADISHF
BTR,2017-04-01 05:05,-91.1469,30.5372,M,M,M,0.00,0.00,M,29.93,M,10.00,M,CLR,M,M,M,M,M,M,M,M,KBTR 010505Z AUTO 00000KT 10SM CLR A2993 RMK MADISHF
BTR,2017-04-01 05:10,-91.1469,30.5372,M,M,M,0.00,0.00,M,29.93,M,10.00,M,CLR,M,M,M,M,M,M,M,M,KBTR 010510Z AUTO 00000KT 10SM CLR A2993 RMK MADISHF
BTR,2017-04-01 05:15,-91.1469,30.5372,M,M,M,0.00,0.00,M,29.93,M,10.00,M,CLR,M,M,M,M,M,M,M,M,KBTR 010515Z AUTO 00000KT 10SM CLR A2993 RMK MADISHF
BTR,2017-04-01 05:20,-91.1469,30.5372,M,M,M,0.00,0.00,M,29.93,M,10.00,M,CLR,M,M,M,M,M,M,M,M,KBTR 010520Z AUTO 00000KT 10SM CLR A2993 RMK MADISHF
BTR,2017-04-01 05:25,-91.1469,30.5372,M,M,M,0.00,0.00,M,29.93,M,10.00,M,CLR,M,M,M,M,M,M,M,M,KBTR 010525Z AUTO 00000KT 10SM CLR A2993 RMK MADISHF
BTR,2017-04-01 05:30,-91.1469,30.5372,M,M,M,0.00,0.00,M,29.93,M,10.00,M,CLR,M,M,M,M,M,M,M,M,KBTR 010530Z AUTO 00000KT 10SM CLR A2993 RMK MADISHF
BTR,2017-04-01 05:35,-91.1469,30.5372,M,M,M,0.00,0.00,M,29.94,M,10.00,M,CLR,M,M,M,M,M,M,M,M,KBTR 010535Z AUTO 00000KT 10SM CLR A2994 RMK MADISHF
BTR,2017-04-01 05:40,-91.1469,30.5372,M,M,M,0.00,0.00,M,29.94,M,10.00,M,CLR,M,M,M,M,M,M,M,M,KBTR 010540Z AUTO 00000KT 10SM CLR A2994 RMK MADISHF
BTR,2017-04-01 05:45,-91.1469,30.5372,M,M,M,0.00,0.00,M,29.94,M,10.00,M,CLR,M,M,M,M,M,M,M,M,KBTR 010545Z AUTO 00000KT 10SM CLR A2994 RMK MADISHF
BTR,2017-04-01 05:50,-91.1469,30.5372,M,M,M,0.00,0.00,M,29.94,M,10.00,M,CLR,M,M,M,M,M,M,M,M,KBTR 010550Z AUTO 00000KT 10SM CLR A2994 RMK MADISHF
BTR,2017-04-01 05:53,-91.1469,30.5372,61.00,57.90,89.52,0.00,0.00,0.00,29.94,1013.70,10.00,M,CLR,M,M,M,M,M,M,M,M,KBTR 010553Z AUTO 00000KT 10SM CLR 16/14 A2994 RMK AO2 SLP137 T01610144 10272 20161 402890122 53003
BTR,2017-04-01 05:55,-91.1469,30.5372,M,M,M,0.00,0.00,M,29.94,M,10.00,M,CLR,M,M,M,M,M,M,M,M,KBTR 010555Z AUTO 00000KT 10SM CLR A2994 RMK MADISHF
BTR,2017-04-01 06:00,-91.1469,30.5372,M,M,M,0.00,0.00,M,29.94,M,10.00,M,CLR,M,M,M,M,M,M,M,M,KBTR 010600Z AUTO 00000KT 10SM CLR A2994 RMK MADISHF
BTR,2017-04-01 06:05,-91.1469,30.5372,M,M,M,0.00,0.00,M,29.94,M,10.00,M,CLR,M,M,M,M,M,M,M,M,KBTR 010605Z AUTO 00000KT 10SM CLR A2994 RMK MADISHF
BTR,2017-04-01 06:10,-91.1469,30.5372,M,M,M,0.00,0.00,M,29.94,M,10.00,M,CLR,M,M,M,M,M,M,M,M,KBTR 010610Z AUTO 00000KT 10SM CLR A2994 RMK MADISHF
BTR,2017-04-01 06:15,-91.1469,30.5372,M,M,M,0.00,0.00,M,29.94,M,10.00,M,CLR,M,M,M,M,M,M,M,M,KBTR 010615Z AUTO 00000KT 10SM CLR A2994 RMK MADISHF
BTR,2017-04-01 06:20,-91.1469,30.5372,M,M,M,0.00,0.00,M,29.94,M,10.00,M,CLR,M,M,M,M,M,M,M,M,KBTR 010620Z AUTO 00000KT 10SM CLR A2994 RMK MADISHF
BTR,2017-04-01 06:25,-91.1469,30.5372,M,M,M,0.00,0.00,M,29.94,M,10.00,M,CLR,M,M,M,M,M,M,M,M,KBTR 010625Z AUTO 00000KT 10SM CLR A2994 RMK MADISHF
BTR,2017-04-01 06:30,-91.1469,30.5372,M,M,M,0.00,0.00,M,29.94,M,10.00,M,CLR,M,M,M,M,M,M,M,M,KBTR 010630Z AUTO 00000KT 10SM CLR A2994 RMK MADISHF
BTR,2017-04-01 06:35,-91.1469,30.5372,M,M,M,0.00,0.00,M,29.94,M,10.00,M,CLR,M,M,M,M,M,M,M,M,KBTR 010635Z AUTO 00000KT 10SM CLR A2994 RMK MADISHF
BTR,2017-04-01 06:40,-91.1469,30.5372,M,M,M,0.00,0.00,M,29.94,M,10.00,M,CLR,M,M,M,M,M,M,M,M,KBTR 010640Z AUTO 00000KT 10SM CLR A2994 RMK MADISHF
BTR,2017-04-01 06:45,-91.1469,30.5372,M,M,M,0.00,0.00,M,29.94,M,10.00,M,CLR,M,M,M,M,M,M,M,M,KBTR 010645Z AUTO 00000KT 10SM CLR A2994 RMK MADISHF
BTR,2017-04-01 06:50,-91.1469,30.5372,M,M,M,0.00,0.00,M,29.94,M,10.00,M,CLR,M,M,M,M,M,M,M,M,KBTR 010650Z AUTO 00000KT 10SM CLR A2994 RMK MADISHF
BTR,2017-04-01 06:53,-91.1469,30.5372,60.10,57.90,92.43,0.00,0.00,0.00,29.94,1013.80,10.00,M,CLR,M,M,M,M,M,M,M,M,KBTR 010653Z AUTO 00000KT 10SM CLR 16/14 A2994 RMK AO2 SLP138 T01560144
BTR,2017-04-01 06:55,-91.1469,30.5372,M,M,M,0.00,0.00,M,29.94,M,10.00,M,CLR,M,M,M,M,M,M,M,M,KBTR 010655Z AUTO 00000KT 10SM CLR A2994 RMK MADISHF
BTR,2017-04-01 07:00,-91.1469,30.5372,M,M,M,70.00,3.00,M,29.94,M,10.00,M,CLR,M,M,M,M,M,M,M,M,KBTR 010700Z AUTO 07003KT 10SM CLR A2994 RMK MADISHF
BTR,2017-04-01 07:05,-91.1469,30.5372,M,M,M,50.00,3.00,M,29.95,M,10.00,M,CLR,M,M,M,M,M,M,M,M,KBTR 010705Z AUTO 05003KT 10SM CLR A2995 RMK MADISHF
BTR,2017-04-01 07:10,-91.1469,30.5372,M,M,M,70.00,3.00,M,29.95,M,10.00,M,CLR,M,M,M,M,M,M,M,M,KBTR 010710Z AUTO 07003KT 10SM CLR A2995 RMK MADISHF
BTR,2017-04-01 07:15,-91.1469,30.5372,M,M,M,60.00,3.00,M,29.95,M,10.00,M,CLR,M,M,M,M,M,M,M,M,KBTR 010715Z AUTO 06003KT 10SM CLR A2995 RMK MADISHF
BTR,2017-04-01 07:20,-91.1469,30.5372,M,M,M,40.00,3.00,M,29.95,M,10.00,M,CLR,M,M,M,M,M,M,M,M,KBTR 010720Z AUTO 04003KT 10SM CLR A2995 RMK MADISHF
BTR,2017-04-01 07:25,-91.1469,30.5372,M,M,M,40.00,3.00,M,29.95,M,10.00,M,CLR,M,M,M,M,M,M,M,M,KBTR 010725Z AUTO 04003KT 10SM CLR A2995 RMK MADISHF
BTR,2017-04-01 07:30,-91.1469,30.5372,M,M,M,40.00,3.00,M,29.95,M,10.00,M,CLR,M,M,M,M,M,M,M,M,KBTR 010730Z AUTO 04003KT 10SM CLR A2995 RMK MADISHF
BTR,2017-04-01 07:35,-91.1469,30.5372,M,M,M,30.00,3.00,M,29.94,M,10.00,M,CLR,M,M,M,M,M,M,M,M,KBTR 010735Z AUTO 03003KT 10SM CLR A2994 RMK MADISHF
BTR,2017-04-01 07:40,-91.1469,30.5372,M,M,M,30.00,3.00,M,29.94,M,10.00,M,CLR,M,M,M,M,M,M,M,M,KBTR 010740Z AUTO 03003KT 10SM CLR A2994 RMK MADISHF
BTR,2017-04-01 07:45,-91.1469,30.5372,M,M,M,20.00,3.00,M,29.94,M,10.00,M,CLR,M,M,M,M,M,M,M,M,KBTR 010745Z AUTO 02003KT 10SM CLR A2994 RMK MADISHF
BTR,2017-04-01 07:50,-91.1469,30.5372,M,M,M,30.00,3.00,M,29.94,M,10.00,M,CLR,M,M,M,M,M,M,M,M,KBTR 010750Z AUTO 03003KT 10SM CLR A2994 RMK MADISHF
BTR,2017-04-01 07:53,-91.1469,30.5372,59.00,57.00,93.07,30.00,3.00,0.00,29.94,1013.80,10.00,M,CLR,M,M,M,M,M,M,M,M,KBTR 010753Z AUTO 03003KT 10SM CLR 15/14 A2994 RMK AO2 SLP138 T01500139
BTR,2017-04-01 07:55,-91.1469,30.5372,M,M,M,20.00,3.00,M,29.94,M,10.00,M,CLR,M,M,M,M,M,M,M,M,KBTR 010755Z AUTO 02003KT 10SM CLR A2994 RMK MADISHF
BTR,2017-04-01 08:00,-91.1469,30.5372,M,M,M,20.00,4.00,M,29.94,M,10.00,M,CLR,M,M,M,M,M,M,M,M,KBTR 010800Z AUTO 02004KT 10SM CLR A2994 RMK MADISHF
BTR,2017-04-01 08:05,-91.1469,30.5372,M,M,M,10.00,3.00,M,29.94,M,10.00,M,CLR,M,M,M,M,M,M,M,M,KBTR 010805Z AUTO 01003KT 10SM CLR A2994 RMK MADISHF
BTR,2017-04-01 08:10,-91.1469,30.5372,M,M,M,0.00,0.00,M,29.94,M,10.00,M,CLR,M,M,M,M,M,M,M,M,KBTR 010810Z AUTO 00000KT 10SM CLR A2994 RMK MADISHF
BTR,2017-04-01 08:15,-91.1469,30.5372,M,M,M,0.00,0.00,M,29.94,M,10.00,M,CLR,M,M,M,M,M,M,M,M,KBTR 010815Z AUTO 00000KT 10SM CLR A2994 RMK MADISHF
BTR,2017-04-01 08:20,-91.1469,30.5372,M,M,M,0.00,0.00,M,29.94,M,10.00,M,CLR,M,M,M,M,M,M,M,M,KBTR 010820Z AUTO 00000KT 10SM CLR A2994 RMK MADISHF
BTR,2017-04-01 08:25,-91.1469,30.5372,M,M,M,0.00,0.00,M,29.95,M,10.00,M,CLR,M,M,M,M,M,M,M,M,KBTR 010825Z AUTO 00000KT 10SM CLR A2995 RMK MADISHF
BTR,2017-04-01 08:30,-91.1469,30.5372,M,M,M,0.00,0.00,M,29.95,M,10.00,M,CLR,M,M,M,M,M,M,M,M,KBTR 010830Z AUTO 00000KT 10SM CLR A2995 RMK MADISHF
BTR,2017-04-01 08:35,-91.1469,30.5372,M,M,M,0.00,0.00,M,29.95,M,10.00,M,CLR,M,M,M,M,M,M,M,M,KBTR 010835Z AUTO 00000KT 10SM CLR A2995 RMK MADISHF
BTR,2017-04-01 08:40,-91.1469,30.5372,M,M,M,0.00,0.00,M,29.94,M,10.00,M,CLR,M,M,M,M,M,M,M,M,KBTR 010840Z AUTO 00000KT 10SM CLR A2994 RMK MADISHF
BTR,2017-04-01 08:45,-91.1469,30.5372,M,M,M,30.00,3.00,M,29.94,M,10.00,M,CLR,M,M,M,M,M,M,M,M,KBTR 010845Z AUTO 03003KT 10SM CLR A2994 RMK MADISHF
BTR,2017-04-01 08:50,-91.1469,30.5372,M,M,M,30.00,3.00,M,29.94,M,10.00,M,CLR,M,M,M,M,M,M,M,M,KBTR 010850Z AUTO 03003KT 10SM CLR A2994 RMK MADISHF
BTR,2017-04-01 08:53,-91.1469,30.5372,57.90,55.90,93.04,30.00,3.00,0.00,29.94,1013.90,10.00,M,CLR,M,M,M,M,M,M,M,M,KBTR 010853Z AUTO 03003KT 10SM CLR 14/13 A2994 RMK AO2 SLP139 T01440133 51001
BTR,2017-04-01 08:55,-91.1469,30.5372,M,M,M,10.00,3.00,M,29.94,M,10.00,M,CLR,M,M,M,M,M,M,M,M,KBTR 010855Z AUTO 01003KT 10SM CLR A2994 RMK MADISHF
BTR,2017-04-01 09:00,-91.1469,30.5372,M,M,M,30.00,3.00,M,29.95,M,10.00,M,CLR,M,M,M,M,M,M,M,M,KBTR 010900Z AUTO 03003KT 10SM CLR A2995 RMK MADISHF
BTR,2017-04-01 09:05,-91.1469,30.5372,M,M,M,30.00,3.00,M,29.95,M,10.00,M,CLR,M,M,M,M,M,M,M,M,KBTR 010905Z AUTO 03003KT 10SM CLR A2995 RMK MADISHF
BTR,2017-04-01 09:10,-91.1469,30.5372,M,M,M,30.00,3.00,M,29.95,M,10.00,M,CLR,M,M,M,M,M,M,M,M,KBTR 010910Z AUTO 03003KT 10SM CLR A2995 RMK MADISHF
BTR,2017-04-01 09:15,-91.1469,30.5372,M,M,M,0.00,0.00,M,29.95,M,10.00,M,CLR,M,M,M,M,M,M,M,M,KBTR 010915Z AUTO 00000KT 10SM CLR A2995 RMK MADISHF
BTR,2017-04-01 09:20,-91.1469,30.5372,M,M,M,0.00,0.00,M,29.95,M,10.00,M,CLR,M,M,M,M,M,M,M,M,KBTR 010920Z AUTO 00000KT 10SM CLR A2995 RMK MADISHF
BTR,2017-04-01 09:25,-91.1469,30.5372,M,M,M,0.00,0.00,M,29.95,M,10.00,M,CLR,M,M,M,M,M,M,M,M,KBTR 010925Z AUTO 00000KT 10SM CLR A2995 RMK MADISHF
BTR,2017-04-01 09:30,-91.1469,30.5372,M,M,M,0.00,0.00,M,29.95,M,10.00,M,CLR,M,M,M,M,M,M,M,M,KBTR 010930Z AUTO 00000KT 10SM CLR A2995 RMK MADISHF
BTR,2017-04-01 09:35,-91.1469,30.5372,M,M,M,40.00,3.00,M,29.95,M,10.00,M,CLR,M,M,M,M,M,M,M,M,KBTR 010935Z AUTO 04003KT 10SM CLR A2995 RMK MADISHF
BTR,2017-04-01 09:40,-91.1469,30.5372,M,M,M,40.00,3.00,M,29.95,M,10.00,M,CLR,M,M,M,M,M,M,M,M,KBTR 010940Z AUTO 04003KT 10SM CLR A2995 RMK MADISHF
BTR,2017-04-01 09:45,-91.1469,30.5372,M,M,M,0.00,0.00,M,29.95,M,10.00,M,CLR,M,M,M,M,M,M,M,M,KBTR 010945Z AUTO 00000KT 10SM CLR A2995 RMK MADISHF
BTR,2017-04-01 09:50,-91.1469,30.5372,M,M,M,40.00,3.00,M,29.96,M,10.00,M,CLR,M,M,M,M,M,M,M,M,KBTR 010950Z AUTO 04003KT 10SM CLR A2996 RMK MADISHF
BTR,2017-04-01 09:53,-91.1469,30.5372,57.90,55.90,93.04,0.00,0.00,0.00,29.96,1014.30,10.00,M,CLR,M,M,M,M,M,M,M,M,KBTR 010953Z 00000KT 10SM CLR 14/13 A2996 RMK AO2 SLP143 T01440133
BTR,2017-04-01 09:55,-91.1469,30.5372,M,M,M,0.00,0.00,M,29.96,M,10.00,M,CLR,M,M,M,M,M,M,M,M,KBTR 010955Z AUTO 00000KT 10SM CLR A2996 RMK MADISHF
BTR,2017-04-01 10:00,-91.1469,30.5372,M,M,M,0.00,0.00,M,29.96,M,10.00,M,CLR,M,M,M,M,M,M,M,M,KBTR 011000Z AUTO 00000KT 10SM CLR A2996 RMK MADISHF
BTR,2017-04-01 10:05,-91.1469,30.5372,M,M,M,0.00,0.00,M,29.96,M,10.00,M,CLR,M,M,M,M,M,M,M,M,KBTR 011005Z AUTO 00000KT 10SM CLR A2996 RMK MADISHF
BTR,2017-04-01 10:10,-91.1469,30.5372,M,M,M,80.00,3.00,M,29.96,M,10.00,M,CLR,M,M,M,M,M,M,M,M,KBTR 011010Z AUTO 08003KT 10SM CLR A2996 RMK MADISHF
BTR,2017-04-01 10:15,-91.1469,30.5372,M,M,M,70.00,3.00,M,29.96,M,10.00,M,CLR,M,M,M,M,M,M,M,M,KBTR 011015Z AUTO 07003KT 10SM CLR A2996 RMK MADISHF
BTR,2017-04-01 10:20,-91.1469,30.5372,M,M,M,70.00,3.00,M,29.96,M,10.00,M,CLR,M,M,M,M,M,M,M,M,KBTR 011020Z AUTO 07003KT 10SM CLR A2996 RMK MADISHF
BTR,2017-04-01 10:25,-91.1469,30.5372,M,M,M,0.00,0.00,M,29.96,M,10.00,M,CLR,M,M,M,M,M,M,M,M,KBTR 011025Z AUTO 00000KT 10SM CLR A2996 RMK MADISHF
BTR,2017-04-01 10:30,-91.1469,30.5372,M,M,M,60.00,3.00,M,29.96,M,10.00,M,CLR,M,M,M,M,M,M,M,M,KBTR 011030Z AUTO 06003KT 10SM CLR A2996 RMK MADISHF
BTR,2017-04-01 10:35,-91.1469,30.5372,M,M,M,50.00,3.00,M,29.97,M,10.00,M,CLR,M,M,M,M,M,M,M,M,KBTR 011035Z AUTO 05003KT 10SM CLR A2997 RMK MADISHF
BTR,2017-04-01 10:40,-91.1469,30.5372,M,M,M,50.00,3.00,M,29.97,M,10.00,M,CLR,M,M,M,M,M,M,M,M,KBTR 011040Z AUTO 05003KT 10SM CLR A2997 RMK MADISHF
BTR,2017-04-01 10:45,-91.1469,30.5372,M,M,M,50.00,3.00,M,29.97,M,9.00,M,CLR,M,M,M,M,M,M,M,M,KBTR 011045Z AUTO 05003KT 9SM CLR A2997 RMK MADISHF
BTR,2017-04-01 10:50,-91.1469,30.5372,M,M,M,40.00,3.00,M,29.96,M,8.00,M,CLR,M,M,M,M,M,M,M,M,KBTR 011050Z AUTO 04003KT 8SM CLR A2996 RMK MADISHF
BTR,2017-04-01 10:53,-91.1469,30.5372,57.00,55.90,96.10,40.00,3.00,0.00,29.97,1014.60,8.00,M,CLR,M,M,M,M,M,M,M,M,KBTR 011053Z 04003KT 8SM CLR 14/13 A2997 RMK AO2 SLP146 T01390133
BTR,2017-04-01 10:55,-91.1469,30.5372,M,M,M,50.00,3.00,M,29.97,M,8.00,M,CLR,M,M,M,M,M,M,M,M,KBTR 011055Z AUTO 05003KT 8SM CLR A2997 RMK MADISHF
BTR,2017-04-01 11:00,-91.1469,30.5372,M,M,M,50.00,4.00,M,29.97,M,8.00,M,CLR,M,M,M,M,M,M,M,M,KBTR 011100Z AUTO 05004KT 8SM CLR A2997 RMK MADISHF
BTR,2017-04-01 11:05,-91.1469,30.5372,M,M,M,60.00,4.00,M,29.97,M,9.00,M,CLR,M,M,M,M,M,M,M,M,KBTR 011105Z AUTO 06004KT 9SM CLR A2997 RMK MADISHF
BTR,2017-04-01 11:10,-91.1469,30.5372,M,M,M,50.00,4.00,M,29.97,M,10.00,M,CLR,M,M,M,M,M,M,M,M,KBTR 011110Z AUTO 05004KT 10SM CLR A2997 RMK MADISHF
BTR,2017-04-01 11:15,-91.1469,30.5372,M,M,M,50.00,4.00,M,29.97,M,10.00,M,CLR,M,M,M,M,M,M,M,M,KBTR 011115Z AUTO 05004KT 10SM CLR A2997 RMK MADISHF
BTR,2017-04-01 11:20,-91.1469,30.5372,M,M,M,50.00,4.00,M,29.98,M,10.00,M,CLR,M,M,M,M,M,M,M,M,KBTR 011120Z AUTO 05004KT 10SM CLR A2998 RMK MADISHF
BTR,2017-04-01 11:25,-91.1469,30.5372,M,M,M,60.00,3.00,M,29.98,M,10.00,M,CLR,M,M,M,M,M,M,M,M,KBTR 011125Z AUTO 06003KT 10SM CLR A2998 RMK MADISHF
BTR,2017-04-01 11:30,-91.1469,30.5372,M,M,M,60.00,3.00,M,29.98,M,10.00,M,CLR,M,M,M,M,M,M,M,M,KBTR 011130Z AUTO 06003KT 10SM CLR A2998 RMK MADISHF
BTR,2017-04-01 11:35,-91.1469,30.5372,M,M,M,50.00,3.00,M,29.98,M,10.00,M,CLR,M,M,M,M,M,M,M,M,KBTR 011135Z AUTO 05003KT 10SM CLR A2998 RMK MADISHF
BTR,2017-04-01 11:40,-91.1469,30.5372,M,M,M,50.00,3.00,M,29.98,M,10.00,M,CLR,M,M,M,M,M,M,M,M,KBTR 011140Z AUTO 05003KT 10SM CLR A2998 RMK MADISHF
BTR,2017-04-01 11:45,-91.1469,30.5372,M,M,M,50.00,3.00,M,29.98,M,10.00,M,CLR,M,M,M,M,M,M,M,M,KBTR 011145Z AUTO 05003KT 10SM CLR A2998 RMK MADISHF
BTR,2017-04-01 11:50,-91.1469,30.5372,M,M,M,50.00,3.00,M,29.98,M,8.00,M,CLR,M,M,M,M,M,M,M,M,KBTR 011150Z AUTO 05003KT 8SM CLR A2998 RMK MADISHF
BTR,2017-04-01 11:53,-91.1469,30.5372,57.90,55.90,93.04,50.00,3.00,0.00,29.99,1015.30,7.00,M,CLR,M,M,M,M,M,M,M,M,KBTR 011153Z 05003KT 7SM CLR 14/13 A2999 RMK AO2 SLP153 T01440133 10167 20139 53014
BTR,2017-04-01 11:55,-91.1469,30.5372,M,M,M,50.00,3.00,M,29.99,M,7.00,M,CLR,M,M,M,M,M,M,M,M,KBTR 011155Z AUTO 05003KT 7SM CLR A2999 RMK MADISHF
BTR,2017-04-01 12:00,-91.1469,30.5372,M,M,M,50.00,3.00,M,29.99,M,8.00,M,CLR,M,M,M,M,M,M,M,M,KBTR 011200Z AUTO 05003KT 8SM CLR A2999 RMK MADISHF
BTR,2017-04-01 12:05,-91.1469,30.5372,M,M,M,40.00,3.00,M,29.99,M,8.00,M,CLR,M,M,M,M,M,M,M,M,KBTR 011205Z AUTO 04003KT 8SM CLR A2999 RMK MADISHF
BTR,2017-04-01 12:10,-91.1469,30.5372,M,M,M,50.00,3.00,M,29.99,M,7.00,M,CLR,M,M,M,M,M,M,M,M,KBTR 011210Z AUTO 05003KT 7SM CLR A2999 RMK MADISHF
BTR,2017-04-01 12:15,-91.1469,30.5372,M,M,M,40.00,3.00,M,29.99,M,7.00,M,CLR,M,M,M,M,M,M,M,M,KBTR 011215Z AUTO 04003KT 7SM CLR A2999 RMK MADISHF
BTR,2017-04-01 12:20,-91.1469,30.5372,M,M,M,0.00,0.00,M,29.99,M,7.00,M,CLR,M,M,M,M,M,M,M,M,KBTR 011220Z AUTO 00000KT 7SM CLR A2999 RMK MADISHF
BTR,2017-04-01 12:25,-91.1469,30.5372,M,M,M,0.00,0.00,M,29.99,M,8.00,M,CLR,M,M,M,M,M,M,M,M,KBTR 011225Z AUTO 00000KT 8SM CLR A2999 RMK MADISHF
BTR,2017-04-01 12:30,-91.1469,30.5372,M,M,M,50.00,3.00,M,29.99,M,9.00,M,CLR,M,M,M,M,M,M,M,M,KBTR 011230Z AUTO 05003KT 9SM CLR A2999 RMK MADISHF
BTR,2017-04-01 12:35,-91.1469,30.5372,M,M,M,50.00,3.00,M,30.00,M,9.00,M,CLR,M,M,M,M,M,M,M,M,KBTR 011235Z AUTO 05003KT 9SM CLR A3000 RMK MADISHF
BTR,2017-04-01 12:40,-91.1469,30.5372,M,M,M,50.00,4.00,M,30.00,M,9.00,M,CLR,M,M,M,M,M,M,M,M,KBTR 011240Z AUTO 05004KT 9SM CLR A3000 RMK MADISHF
BTR,2017-04-01 12:45,-91.1469,30.5372,M,M,M,50.00,4.00,M,30.00,M,10.00,M,CLR,M,M,M,M,M,M,M,M,KBTR 011245Z AUTO 05004KT 10SM CLR A3000 RMK MADISHF
BTR,2017-04-01 12:50,-91.1469,30.5372,M,M,M,60.00,3.00,M,30.00,M,10.00,M,CLR,M,M,M,M,M,M,M,M,KBTR 011250Z AUTO 06003KT 10SM CLR A3000 RMK MADISHF
BTR,2017-04-01 12:53,-91.1469,30.5372,61.00,59.00,93.12,50.00,4.00,0.00,30.00,1015.80,10.00,M,CLR,M,M,M,M,M,M,M,M,KBTR 011253Z 05004KT 10SM CLR 16/15 A3000 RMK AO2 SLP158 T01610150
BTR,2017-04-01 12:55,-91.1469,30.5372,M,M,M,50.00,4.00,M,30.00,M,10.00,M,CLR,M,M,M,M,M,M,M,M,KBTR 011255Z AUTO 05004KT 10SM CLR A3000 RMK MADISHF
BTR,2017-04-01 13:00,-91.1469,30.5372,M,M,M,60.00,4.00,M,30.01,M,10.00,M,CLR,M,M,M,M,M,M,M,M,KBTR 011300Z AUTO 06004KT 10SM CLR A3001 RMK MADISHF
BTR,2017-04-01 13:05,-91.1469,30.5372,M,M,M,70.00,4.00,M,30.01,M,10.00,M,CLR,M,M,M,M,M,M,M,M,KBTR 011305Z AUTO 07004KT 10SM CLR A3001 RMK MADISHF
BTR,2017-04-01 13:10,-91.1469,30.5372,M,M,M,60.00,4.00,M,30.01,M,10.00,M,CLR,M,M,M,M,M,M,M,M,KBTR 011310Z AUTO 06004KT 10SM CLR A3001 RMK MADISHF
BTR,2017-04-01 13:15,-91.1469,30.5372,M,M,M,70.00,4.00,M,30.01,M,10.00,M,CLR,M,M,M,M,M,M,M,M,KBTR 011315Z AUTO 07004KT 10SM CLR A3001 RMK MADISHF
BTR,2017-04-01 13:20,-91.1469,30.5372,M,M,M,70.00,5.00,M,30.01,M,10.00,M,CLR,M,M,M,M,M,M,M,M,KBTR 011320Z AUTO 07005KT 10SM CLR A3001 RMK MADISHF
BTR,2017-04-01 13:25,-91.1469,30.5372,M,M,M,60.00,4.00,M,30.01,M,10.00,M,CLR,M,M,M,M,M,M,M,M,KBTR 011325Z AUTO 06004KT 10SM CLR A3001 RMK MADISHF
BTR,2017-04-01 13:30,-91.1469,30.5372,M,M,M,70.00,4.00,M,30.01,M,10.00,M,CLR,M,M,M,M,M,M,M,M,KBTR 011330Z AUTO 07004KT 10SM CLR A3001 RMK MADISHF
BTR,2017-04-01 13:35,-91.1469,30.5372,M,M,M,70.00,4.00,M,30.01,M,10.00,M,CLR,M,M,M,M,M,M,M,M,KBTR 011335Z AUTO 07004KT 10SM CLR A3001 RMK MADISHF
BTR,2017-04-01 13:40,-91.1469,30.5372,M,M,M,70.00,4.00,M,30.01,M,10.00,M,CLR,M,M,M,M,M,M,M,M,KBTR 011340Z AUTO 07004KT 10SM CLR A3001 RMK MADISHF
BTR,2017-04-01 13:45,-91.1469,30.5372,M,M,M,70.00,4.00,M,30.01,M,10.00,M,CLR,M,M,M,M,M,M,M,M,KBTR 011345Z AUTO 07004KT 10SM CLR A3001 RMK MADISHF
BTR,2017-04-01 13:50,-91.1469,30.5372,M,M,M,70.00,5.00,M,30.02,M,10.00,M,CLR,M,M,M,M,M,M,M,M,KBTR 011350Z AUTO 07005KT 10SM CLR A3002 RMK MADISHF
BTR,2017-04-01 13:53,-91.1469,30.5372,66.90,61.00,81.33,70.00,5.00,0.00,30.02,1016.40,10.00,M,CLR,M,M,M,M,M,M,M,M,KBTR 011353Z 07005KT 10SM CLR 19/16 A3002 RMK AO2 SLP164 T01940161
BTR,2017-04-01 13:55,-91.1469,30.5372,M,M,M,60.00,5.00,M,30.02,M,10.00,M,CLR,M,M,M,M,M,M,M,M,KBTR 011355Z AUTO 06005KT 10SM CLR A3002 RMK MADISHF
BTR,2017-04-01 14:00,-91.1469,30.5372,M,M,M,70.00,4.00,M,30.02,M,10.00,M,CLR,M,M,M,M,M,M,M,M,KBTR 011400Z AUTO 07004KT 10SM CLR A3002 RMK MADISHF
BTR,2017-04-01 14:05,-91.1469,30.5372,M,M,M,70.00,5.00,M,30.02,M,10.00,M,CLR,M,M,M,M,M,M,M,M,KBTR 011405Z AUTO 07005KT 10SM CLR A3002 RMK MADISHF
BTR,2017-04-01 14:10,-91.1469,30.5372,M,M,M,80.00,5.00,M,30.02,M,10.00,M,CLR,M,M,M,M,M,M,M,M,KBTR 011410Z AUTO 08005KT 10SM CLR A3002 RMK MADISHF
BTR,2017-04-01 14:15,-91.1469,30.5372,M,M,M,70.00,6.00,M,30.02,M,10.00,M,CLR,M,M,M,M,M,M,M,M,KBTR 011415Z AUTO 07006KT 10SM CLR A3002 RMK MADISHF
BTR,2017-04-01 14:20,-91.1469,30.5372,M,M,M,70.00,6.00,M,30.02,M,10.00,M,CLR,M,M,M,M,M,M,M,M,KBTR 011420Z AUTO 07006KT 10SM CLR A3002 RMK MADISHF
BTR,2017-04-01 14:25,-91.1469,30.5372,M,M,M,70.00,7.00,M,30.02,M,10.00,M,CLR,M,M,M,M,M,M,M,M,KBTR 011425Z AUTO 07007KT 10SM CLR A3002 RMK MADISHF
BTR,2017-04-01 14:30,-91.1469,30.5372,M,M,M,70.00,5.00,M,30.03,M,10.00,M,CLR,M,M,M,M,M,M,M,M,KBTR 011430Z AUTO 07005KT 10SM CLR A3003 RMK MADISHF
BTR,2017-04-01 14:35,-91.1469,30.5372,M,M,M,80.00,5.00,M,30.03,M,10.00,M,CLR,M,M,M,M,M,M,M,M,KBTR 011435Z AUTO 08005KT 10SM CLR A3003 RMK MADISHF
BTR,2017-04-01 14:40,-91.1469,30.5372,M,M,M,70.00,4.00,M,30.03,M,10.00,M,CLR,M,M,M,M,M,M,M,M,KBTR 011440Z AUTO 07004KT 10SM CLR A3003 RMK MADISHF
BTR,2017-04-01 14:45,-91.1469,30.5372,M,M,M,80.00,5.00,M,30.03,M,10.00,M,CLR,M,M,M,M,M,M,M,M,KBTR 011445Z AUTO 08005KT 10SM CLR A3003 RMK MADISHF
BTR,2017-04-01 14:50,-91.1469,30.5372,M,M,M,90.00,5.00,M,30.03,M,10.00,M,CLR,M,M,M,M,M,M,M,M,KBTR 011450Z AUTO 09005KT 10SM CLR A3003 RMK MADISHF
BTR,2017-04-01 14:53,-91.1469,30.5372,73.00,60.10,63.96,80.00,6.00,0.00,30.03,1016.80,10.00,M,CLR,M,M,M,M,M,M,M,M,KBTR 011453Z 08006KT 10SM CLR 23/16 A3003 RMK AO2 SLP168 T02280156 51015
BTR,2017-04-01 14:55,-91.1469,30.5372,M,M,M,80.00,5.00,M,30.03,M,10.00,M,CLR,M,M,M,M,M,M,M,M,KBTR 011455Z AUTO 08005KT 10SM CLR A3003 RMK MADISHF
BTR,2017-04-01 15:00,-91.1469,30.5372,M,M,M,80.00,6.00,M,30.03,M,10.00,M,CLR,M,M,M,M,M,M,M,M,KBTR 011500Z AUTO 08006KT 10SM CLR A3003 RMK MADISHF
BTR,2017-04-01 15:05,-91.1469,30.5372,M,M,M,90.00,7.00,M,30.03,M,10.00,M,CLR,M,M,M,M,M,M,M,M,KBTR 011505Z AUTO 09007KT 10SM CLR A3003 RMK MADISHF
BTR,2017-04-01 15:10,-91.1469,30.5372,M,M,M,70.00,9.00,M,30.03,M,10.00,M,CLR,M,M,M,M,M,M,M,M,KBTR 011510Z AUTO 07009KT 10SM CLR A3003 RMK MADISHF
BTR,2017-04-01 15:15,-91.1469,30.5372,M,M,M,90.00,6.00,M,30.03,M,10.00,M,CLR,M,M,M,M,M,M,M,M,KBTR 011515Z AUTO 09006KT 10SM CLR A3003 RMK MADISHF
BTR,2017-04-01 15:20,-91.1469,30.5372,M,M,M,100.00,10.00,M,30.03,M,10.00,M,CLR,M,M,M,M,M,M,M,M,KBTR 011520Z AUTO 10010KT 10SM CLR A3003 RMK MADISHF
BTR,2017-04-01 15:25,-91.1469,30.5372,M,M,M,80.00,6.00,M,30.03,M,10.00,M,CLR,M,M,M,M,M,M,M,M,KBTR 011525Z AUTO 08006KT 10SM CLR A3003 RMK MADISHF
BTR,2017-04-01 15:30,-91.1469,30.5372,M,M,M,100.00,9.00,M,30.03,M,10.00,M,CLR,M,M,M,M,M,M,M,M,KBTR 011530Z AUTO 10009KT 10SM CLR A3003 RMK MADISHF
BTR,2017-04-01 15:35,-91.1469,30.5372,M,M,M,80.00,8.00,M,30.03,M,10.00,M,CLR,M,M,M,M,M,M,M,M,KBTR 011535Z AUTO 08008KT 10SM CLR A3003 RMK MADISHF
BTR,2017-04-01 15:40,-91.1469,30.5372,M,M,M,80.00,10.00,M,30.03,M,10.00,M,CLR,M,M,M,M,M,M,M,M,KBTR 011540Z AUTO 08010KT 10SM CLR A3003 RMK MADISHF
BTR,2017-04-01 15:45,-91.1469,30.5372,M,M,M,90.00,8.00,M,30.03,M,10.00,M,CLR,M,M,M,M,M,M,M,M,KBTR 011545Z AUTO 09008KT 10SM CLR A3003 RMK MADISHF
BTR,2017-04-01 15:50,-91.1469,30.5372,M,M,M,90.00,8.00,M,30.03,M,10.00,M,CLR,M,M,M,M,M,M,M,M,KBTR 011550Z AUTO 09008KT 10SM CLR A3003 RMK MADISHF
BTR,2017-04-01 15:53,-91.1469,30.5372,78.10,59.00,51.88,80.00,8.00,0.00,30.03,1016.90,10.00,M,CLR,M,M,M,M,M,M,M,M,KBTR 011553Z 08008KT 10SM CLR 26/15 A3003 RMK AO2 SLP169 T02560150
BTR,2017-04-01 15:55,-91.1469,30.5372,M,M,M,90.00,9.00,M,30.03,M,10.00,M,CLR,M,M,M,M,M,M,M,M,KBTR 011555Z AUTO 09009KT 10SM CLR A3003 RMK MADISHF
BTR,2017-04-01 16:00,-91.1469,30.5372,M,M,M,90.00,8.00,M,30.03,M,10.00,M,CLR,M,M,M,M,M,M,M,M,KBTR 011600Z AUTO 09008KT 10SM CLR A3003 RMK MADISHF
BTR,2017-04-01 16:05,-91.1469,30.5372,M,M,M,90.00,10.00,M,30.03,M,10.00,M,CLR,M,M,M,M,M,M,M,M,KBTR 011605Z AUTO 09010KT 10SM CLR A3003 RMK MADISHF
BTR,2017-04-01 16:10,-91.1469,30.5372,M,M,M,100.00,11.00,M,30.03,M,10.00,M,CLR,M,M,M,M,M,M,M,M,KBTR 011610Z AUTO 10011KT 10SM CLR A3003 RMK MADISHF
BTR,2017-04-01 16:15,-91.1469,30.5372,M,M,M,110.00,8.00,M,30.03,M,10.00,M,CLR,M,M,M,M,M,M,M,M,KBTR 011615Z AUTO 11008KT 10SM CLR A3003 RMK MADISHF
BTR,2017-04-01 16:20,-91.1469,30.5372,M,M,M,90.00,8.00,M,30.03,M,10.00,M,CLR,M,M,M,M,M,M,M,M,KBTR 011620Z AUTO 09008KT 10SM CLR A3003 RMK MADISHF
BTR,2017-04-01 16:25,-91.1469,30.5372,M,M,M,90.00,11.00,M,30.03,M,10.00,M,CLR,M,M,M,M,M,M,M,M,KBTR 011625Z AUTO 09011KT 10SM CLR A3003 RMK MADISHF
BTR,2017-04-01 16:30,-91.1469,30.5372,M,M,M,110.00,10.00,M,30.03,M,10.00,M,CLR,M,M,M,M,M,M,M,M,KBTR 011630Z AUTO 11010KT 10SM CLR A3003 RMK MADISHF
BTR,2017-04-01 16:35,-91.1469,30.5372,M,M,M,M,M,M,30.03,M,10.00,M,CLR,M,M,M,M,M,M,M,M,KBTR 011635Z AUTO /////KT 10SM CLR A3003 RMK MADISHF
BTR,2017-04-01 16:40,-91.1469,30.5372,M,M,M,110.00,9.00,M,30.03,M,10.00,M,CLR,M,M,M,M,M,M,M,M,KBTR 011640Z AUTO 11009KT 10SM CLR A3003 RMK MADISHF
BTR,2017-04-01 16:45,-91.1469,30.5372,M,M,M,110.00,10.00,M,30.03,M,10.00,M,CLR,M,M,M,M,M,M,M,M,KBTR 011645Z AUTO 11010KT 10SM CLR A3003 RMK MADISHF
BTR,2017-04-01 16:50,-91.1469,30.5372,M,M,M,M,M,M,30.02,M,10.00,M,CLR,M,M,M,M,M,M,M,M,KBTR 011650Z AUTO /////KT 10SM CLR A3002 RMK MADISHF
BTR,2017-04-01 16:53,-91.1469,30.5372,81.00,57.90,45.34,110.00,11.00,0.00,30.02,1016.60,10.00,M,CLR,M,M,M,M,M,M,M,M,KBTR 011653Z 11011KT 10SM CLR 27/14 A3002 RMK AO2 SLP166 T02720144
BTR,2017-04-01 16:55,-91.1469,30.5372,M,M,M,M,M,M,30.02,M,10.00,M,CLR,M,M,M,M,M,M,M,M,KBTR 011655Z AUTO /////KT 10SM CLR A3002 RMK MADISHF
BTR,2017-04-01 17:00,-91.1469,30.5372,M,M,M,M,M,M,30.02,M,10.00,M,CLR,M,M,M,M,M,M,M,M,KBTR 011700Z AUTO /////KT 10SM CLR A3002 RMK MADISHF
BTR,2017-04-01 17:05,-91.1469,30.5372,M,M,M,M,M,M,30.02,M,10.00,M,CLR,M,M,M,M,M,M,M,M,KBTR 011705Z AUTO /////KT 10SM CLR A3002 RMK MADISHF
BTR,2017-04-01 17:10,-91.1469,30.5372,M,M,M,M,M,M,30.02,M,10.00,19.00,CLR,M,M,M,M,M,M,M,M,KBTR 011710Z AUTO /////G19KT 10SM CLR A3002 RMK MADISHF
BTR,2017-04-01 17:15,-91.1469,30.5372,M,M,M,M,M,M,30.02,M,10.00,M,CLR,M,M,M,M,M,M,M,M,KBTR 011715Z AUTO /////KT 10SM CLR A3002 RMK MADISHF
BTR,2017-04-01 17:20,-91.1469,30.5372,M,M,M,M,M,M,30.02,M,10.00,M,CLR,M,M,M,M,M,M,M,M,KBTR 011720Z AUTO /////KT 10SM CLR A3002 RMK MADISHF
BTR,2017-04-01 17:25,-91.1469,30.5372,M,M,M,130.00,10.00,M,30.02,M,10.00,M,CLR,M,M,M,M,M,M,M,M,KBTR 011725Z AUTO 13010KT 10SM CLR A3002 RMK MADISHF
BTR,2017-04-01 17:30,-91.1469,30.5372,M,M,M,M,M,M,30.02,M,10.00,M,CLR,M,M,M,M,M,M,M,M,KBTR 011730Z AUTO /////KT 10SM CLR A3002 RMK MADISHF
BTR,2017-04-01 17:35,-91.1469,30.5372,M,M,M,130.00,12.00,M,30.02,M,10.00,M,CLR,M,M,M,M,M,M,M,M,KBTR 011735Z AUTO 13012KT 10SM CLR A3002 RMK MADISHF
BTR,2017-04-01 17:40,-91.1469,30.5372,M,M,M,M,M,M,30.02,M,10.00,18.00,CLR,M,M,M,M,M,M,M,M,KBTR 011740Z AUTO /////G18KT 10SM CLR A3002 RMK MADISHF
BTR,2017-04-01 17:45,-91.1469,30.5372,M,M,M,130.00,12.00,M,30.02,M,10.00,M,CLR,M,M,M,M,M,M,M,M,KBTR 011745Z AUTO 13012KT 10SM CLR A3002 RMK MADISHF
BTR,2017-04-01 17:50,-91.1469,30.5372,M,M,M,120.00,12.00,M,30.02,M,10.00,M,CLR,M,M,M,M,M,M,M,M,KBTR 011750Z AUTO 12012KT 10SM CLR A3002 RMK MADISHF
BTR,2017-04-01 17:53,-91.1469,30.5372,82.90,55.90,39.66,110.00,12.00,0.00,30.02,1016.50,10.00,M,CLR,M,M,M,M,M,M,M,M,KBTR 011753Z 11012KT 10SM CLR 28/13 A3002 RMK AO2 SLP165 T02830133 10283 20139 58003
BTR,2017-04-01 17:55,-91.1469,30.5372,M,M,M,120.00,12.00,M,30.02,M,10.00,M,CLR,M,M,M,M,M,M,M,M,KBTR 011755Z AUTO 12012KT 10SM CLR A3002 RMK MADISHF
BTR,2017-04-01 18:00,-91.1469,30.5372,M,M,M,130.00,14.00,M,30.02,M,10.00,M,CLR,M,M,M,M,M,M,M,M,KBTR 011800Z AUTO 13014KT 10SM CLR A3002 RMK MADISHF
BTR,2017-04-01 18:05,-91.1469,30.5372,M,M,M,110.00,13.00,M,30.02,M,10.00,M,CLR,M,M,M,M,M,M,M,M,KBTR 011805Z AUTO 11013KT 10SM CLR A3002 RMK MADISHF
BTR,2017-04-01 18:10,-91.1469,30.5372,M,M,M,110.00,7.00,M,30.02,M,10.00,M,CLR,M,M,M,M,M,M,M,M,KBTR 011810Z AUTO 11007KT 10SM CLR A3002 RMK MADISHF
BTR,2017-04-01 18:15,-91.1469,30.5372,M,M,M,M,M,M,30.02,M,10.00,M,CLR,M,M,M,M,M,M,M,M,KBTR 011815Z AUTO /////KT 10SM CLR A3002 RMK MADISHF
BTR,2017-04-01 18:20,-91.1469,30.5372,M,M,M,130.00,11.00,M,30.02,M,10.00,M,CLR,M,M,M,M,M,M,M,M,KBTR 011820Z AUTO 13011KT 10SM CLR A3002 RMK MADISHF
BTR,2017-04-01 18:25,-91.1469,30.5372,M,M,M,120.00,11.00,M,30.02,M,10.00,16.00,CLR,M,M,M,M,M,M,M,M,KBTR 011825Z AUTO 12011G16KT 10SM CLR A3002 RMK MADISHF
BTR,2017-04-01 18:30,-91.1469,30.5372,M,M,M,M,M,M,30.01,M,10.00,20.00,CLR,M,M,M,M,M,M,M,M,KBTR 011830Z AUTO /////G20KT 10SM CLR A3001 RMK MADISHF
BTR,2017-04-01 18:35,-91.1469,30.5372,M,M,M,110.00,10.00,M,30.01,M,10.00,M,CLR,M,M,M,M,M,M,M,M,KBTR 011835Z AUTO 11010KT 10SM CLR A3001 RMK MADISHF
BTR,2017-04-01 18:40,-91.1469,30.5372,M,M,M,M,M,M,30.01,M,10.00,M,CLR,M,M,M,M,M,M,M,M,KBTR 011840Z AUTO /////KT 10SM CLR A3001 RMK MADISHF
BTR,2017-04-01 18:45,-91.1469,30.5372,M,M,M,M,M,M,30.00,M,10.00,M,CLR,M,M,M,M,M,M,M,M,KBTR 011845Z AUTO /////KT 10SM CLR A3000 RMK MADISHF
BTR,2017-04-01 18:50,-91.1469,30.5372,M,M,M,M,M,M,30.00,M,10.00,M,CLR,M,M,M,M,M,M,M,M,KBTR 011850Z AUTO /////KT 10SM CLR A3000 RMK MADISHF
BTR,2017-04-01 18:53,-91.1469,30.5372,84.00,55.00,37.05,100.00,11.00,0.00,30.00,1015.80,10.00,M,CLR,M,M,M,M,M,M,M,M,KBTR 011853Z 10011KT 10SM CLR 29/13 A3000 RMK AO2 SLP158 T02890128
BTR,2017-04-01 18:55,-91.1469,30.5372,M,M,M,M,M,M,30.00,M,10.00,M,CLR,M,M,M,M,M,M,M,M,KBTR 011855Z AUTO /////KT 10SM CLR A3000 RMK MADISHF
BTR,2017-04-01 19:00,-91.1469,30.5372,M,M,M,110.00,11.00,M,30.00,M,10.00,18.00,CLR,M,M,M,M,M,M,M,M,KBTR 011900Z AUTO 11011G18KT 10SM CLR A3000 RMK MADISHF
BTR,2017-04-01 19:05,-91.1469,30.5372,M,M,M,120.00,11.00,M,30.00,M,10.00,M,CLR,M,M,M,M,M,M,M,M,KBTR 011905Z AUTO 12011KT 10SM CLR A3000 RMK MADISHF
BTR,2017-04-01 19:10,-91.1469,30.5372,M,M,M,M,M,M,30.00,M,10.00,M,CLR,M,M,M,M,M,M,M,M,KBTR 011910Z AUTO /////KT 10SM CLR A3000 RMK MADISHF
BTR,2017-04-01 19:15,-91.1469,30.5372,M,M,M,M,M,M,30.00,M,10.00,M,CLR,M,M,M,M,M,M,M,M,KBTR 011915Z AUTO /////KT 10SM CLR A3000 RMK MADISHF
BTR,2017-04-01 19:20,-91.1469,30.5372,M,M,M,M,M,M,29.99,M,10.00,M,CLR,M,M,M,M,M,M,M,M,KBTR 011920Z AUTO /////KT 10SM CLR A2999 RMK MADISHF
BTR,2017-04-01 19:25,-91.1469,30.5372,M,M,M,110.00,11.00,M,29.99,M,10.00,M,CLR,M,M,M,M,M,M,M,M,KBTR 011925Z AUTO 11011KT 10SM CLR A2999 RMK MADISHF
BTR,2017-04-01 19:30,-91.1469,30.5372,M,M,M,120.00,11.00,M,29.99,M,10.00,M,CLR,M,M,M,M,M,M,M,M,KBTR 011930Z AUTO 12011KT 10SM CLR A2999 RMK MADISHF
BTR,2017-04-01 19:35,-91.1469,30.5372,M,M,M,120.00,13.00,M,29.99,M,10.00,19.00,CLR,M,M,M,M,M,M,M,M,KBTR 011935Z AUTO 12013G19KT 10SM CLR A2999 RMK MADISHF
BTR,2017-04-01 19:40,-91.1469,30.5372,M,M,M,130.00,15.00,M,29.98,M,10.00,M,CLR,M,M,M,M,M,M,M,M,KBTR 011940Z AUTO 13015KT 10SM CLR A2998 RMK MADISHF
BTR,2017-04-01 19:45,-91.1469,30.5372,M,M,M,120.00,10.00,M,29.98,M,10.00,M,CLR,M,M,M,M,M,M,M,M,KBTR 011945Z AUTO 12010KT 10SM CLR A2998 RMK MADISHF
BTR,2017-04-01 19:50,-91.1469,30.5372,M,M,M,90.00,12.00,M,29.98,M,10.00,M,CLR,M,M,M,M,M,M,M,M,KBTR 011950Z AUTO 09012KT 10SM CLR A2998 RMK MADISHF
BTR,2017-04-01 19:53,-91.1469,30.5372,82.00,55.00,39.52,110.00,9.00,0.00,29.98,1015.20,10.00,M,CLR,M,M,M,M,M,M,M,M,KBTR 011953Z 11009KT 10SM CLR 28/13 A2998 RMK AO2 SLP152 T02780128
BTR,2017-04-01 19:55,-91.1469,30.5372,M,M,M,120.00,12.00,M,29.98,M,10.00,M,CLR,M,M,M,M,M,M,M,M,KBTR 011955Z AUTO 12012KT 10SM CLR A2998 RMK MADISHF
BTR,2017-04-01 20:00,-91.1469,30.5372,M,M,M,M,M,M,29.98,M,10.00,19.00,CLR,M,M,M,M,M,M,M,M,KBTR 012000Z AUTO /////G19KT 10SM CLR A2998 RMK MADISHF
BTR,2017-04-01 20:05,-91.1469,30.5372,M,M,M,M,M,M,29.98,M,10.00,M,CLR,M,M,M,M,M,M,M,M,KBTR 012005Z AUTO /////KT 10SM CLR A2998 RMK MADISHF
BTR,2017-04-01 20:10,-91.1469,30.5372,M,M,M,M,M,M,29.98,M,10.00,M,CLR,M,M,M,M,M,M,M,M,KBTR 012010Z AUTO /////KT 10SM CLR A2998 RMK MADISHF
BTR,2017-04-01 20:15,-91.1469,30.5372,M,M,M,M,M,M,29.98,M,10.00,M,CLR,M,M,M,M,M,M,M,M,KBTR 012015Z AUTO /////KT 10SM CLR A2998 RMK MADISHF
BTR,2017-04-01 20:20,-91.1469,30.5372,M,M,M,M,M,M,29.98,M,10.00,M,CLR,M,M,M,M,M,M,M,M,KBTR 012020Z AUTO /////KT 10SM CLR A2998 RMK MADISHF
BTR,2017-04-01 20:25,-91.1469,30.5372,M,M,M,100.00,13.00,M,29.98,M,10.00,18.00,CLR,M,M,M,M,M,M,M,M,KBTR 012025Z AUTO 10013G18KT 10SM CLR A2998 RMK MADISHF
BTR,2017-04-01 20:30,-91.1469,30.5372,M,M,M,M,M,M,29.98,M,10.00,M,CLR,M,M,M,M,M,M,M,M,KBTR 012030Z AUTO /////KT 10SM CLR A2998 RMK MADISHF
BTR,2017-04-01 20:35,-91.1469,30.5372,M,M,M,M,M,M,29.97,M,10.00,M,CLR,M,M,M,M,M,M,M,M,KBTR 012035Z AUTO /////KT 10SM CLR A2997 RMK MADISHF
BTR,2017-04-01 20:40,-91.1469,30.5372,M,M,M,M,M,M,29.97,M,10.00,M,CLR,M,M,M,M,M,M,M,M,KBTR 012040Z AUTO /////KT 10SM CLR A2997 RMK MADISHF
BTR,2017-04-01 20:45,-91.1469,30.5372,M,M,M,M,M,M,29.97,M,10.00,M,CLR,M,M,M,M,M,M,M,M,KBTR 012045Z AUTO /////KT 10SM CLR A2997 RMK MADISHF
BTR,2017-04-01 20:50,-91.1469,30.5372,M,M,M,100.00,16.00,M,29.97,M,10.00,M,CLR,M,M,M,M,M,M,M,M,KBTR 012050Z AUTO 10016KT 10SM CLR A2997 RMK MADISHF
BTR,2017-04-01 20:53,-91.1469,30.5372,82.90,55.00,38.38,100.00,17.00,0.00,29.97,1014.80,10.00,24.00,CLR,M,M,M,M,M,M,M,M,KBTR 012053Z 10017G24KT 10SM CLR 28/13 A2997 RMK AO2 SLP148 T02830128 56017
BTR,2017-04-01 20:55,-91.1469,30.5372,M,M,M,M,M,M,29.97,M,10.00,M,CLR,M,M,M,M,M,M,M,M,KBTR 012055Z AUTO /////KT 10SM CLR A2997 RMK MADISHF
BTR,2017-04-01 21:00,-91.1469,30.5372,M,M,M,110.00,12.00,M,29.97,M,10.00,M,CLR,M,M,M,M,M,M,M,M,KBTR 012100Z AUTO 11012KT 10SM CLR A2997 RMK MADISHF
BTR,2017-04-01 21:05,-91.1469,30.5372,M,M,M,M,M,M,29.97,M,10.00,M,CLR,M,M,M,M,M,M,M,M,KBTR 012105Z AUTO /////KT 10SM CLR A2997 RMK MADISHF
BTR,2017-04-01 21:10,-91.1469,30.5372,M,M,M,M,M,M,29.97,M,10.00,M,CLR,M,M,M,M,M,M,M,M,KBTR 012110Z AUTO /////KT 10SM CLR A2997 RMK MADISHF
BTR,2017-04-01 21:15,-91.1469,30.5372,M,M,M,M,M,M,29.97,M,10.00,M,CLR,M,M,M,M,M,M,M,M,KBTR 012115Z AUTO /////KT 10SM CLR A2997 RMK WND 07V13  MADISHF
BTR,2017-04-01 21:20,-91.1469,30.5372,M,M,M,M,M,M,29.97,M,10.00,M,CLR,M,M,M,M,M,M,M,M,KBTR 012120Z AUTO /////KT 10SM CLR A2997 RMK MADISHF
BTR,2017-04-01 21:25,-91.1469,30.5372,M,M,M,M,M,M,29.98,M,10.00,M,CLR,M,M,M,M,M,M,M,M,KBTR 012125Z AUTO /////KT 10SM CLR A2998 RMK MADISHF
BTR,2017-04-01 21:30,-91.1469,30.5372,M,M,M,M,M,M,29.98,M,10.00,M,CLR,M,M,M,M,M,M,M,M,KBTR 012130Z AUTO /////KT 10SM CLR A2998 RMK MADISHF
BTR,2017-04-01 21:35,-91.1469,30.5372,M,M,M,100.00,11.00,M,29.98,M,10.00,M,CLR,M,M,M,M,M,M,M,M,KBTR 012135Z AUTO 10011KT 10SM CLR A2998 RMK MADISHF
BTR,2017-04-01 21:40,-91.1469,30.5372,M,M,M,M,M,M,29.98,M,10.00,M,CLR,M,M,M,M,M,M,M,M,KBTR 012140Z AUTO /////KT 10SM CLR A2998 RMK MADISHF
BTR,2017-04-01 21:45,-91.1469,30.5372,M,M,M,80.00,13.00,M,29.98,M,10.00,M,CLR,M,M,M,M,M,M,M,M,KBTR 012145Z AUTO 08013KT 10SM CLR A2998 RMK MADISHF
BTR,2017-04-01 21:50,-91.1469,30.5372,M,M,M,90.00,12.00,M,29.98,M,10.00,M,CLR,M,M,M,M,M,M,M,M,KBTR 012150Z AUTO 09012KT 10SM CLR A2998 RMK MADISHF
BTR,2017-04-01 21:53,-91.1469,30.5372,82.90,55.90,39.66,90.00,14.00,0.00,29.97,1014.90,10.00,M,CLR,M,M,M,M,M,M,M,M,KBTR 012153Z 09014KT 10SM CLR 28/13 A2997 RMK AO2 SLP149 T02830133
BTR,2017-04-01 21:55,-91.1469,30.5372,M,M,M,90.00,11.00,M,29.97,M,10.00,M,CLR,M,M,M,M,M,M,M,M,KBTR 012155Z AUTO 09011KT 10SM CLR A2997 RMK MADISHF
BTR,2017-04-01 22:00,-91.1469,30.5372,M,M,M,90.00,11.00,M,29.97,M,10.00,M,CLR,M,M,M,M,M,M,M,M,KBTR 012200Z AUTO 09011KT 10SM CLR A2997 RMK MADISHF
BTR,2017-04-01 22:05,-91.1469,30.5372,M,M,M,M,M,M,29.97,M,10.00,M,CLR,M,M,M,M,M,M,M,M,KBTR 012205Z AUTO /////KT 10SM CLR A2997 RMK MADISHF
BTR,2017-04-01 22:10,-91.1469,30.5372,M,M,M,100.00,10.00,M,29.97,M,10.00,M,CLR,M,M,M,M,M,M,M,M,KBTR 012210Z AUTO 10010KT 10SM CLR A2997 RMK MADISHF
BTR,2017-04-01 22:15,-91.1469,30.5372,M,M,M,90.00,12.00,M,29.97,M,10.00,M,CLR,M,M,M,M,M,M,M,M,KBTR 012215Z AUTO 09012KT 10SM CLR A2997 RMK MADISHF
BTR,2017-04-01 22:20,-91.1469,30.5372,M,M,M,M,M,M,29.97,M,10.00,M,CLR,M,M,M,M,M,M,M,M,KBTR 012220Z AUTO /////KT 10SM CLR A2997 RMK MADISHF
BTR,2017-04-01 22:25,-91.1469,30.5372,M,M,M,M,M,M,29.97,M,10.00,M,CLR,M,M,M,M,M,M,M,M,KBTR 012225Z AUTO /////KT 10SM CLR A2997 RMK MADISHF
BTR,2017-04-01 22:30,-91.1469,30.5372,M,M,M,M,M,M,29.97,M,10.00,M,CLR,M,M,M,M,M,M,M,M,KBTR 012230Z AUTO /////KT 10SM CLR A2997 RMK MADISHF
BTR,2017-04-01 22:35,-91.1469,30.5372,M,M,M,M,M,M,29.97,M,10.00,17.00,CLR,M,M,M,M,M,M,M,M,KBTR 012235Z AUTO /////G17KT 10SM CLR A2997 RMK MADISHF
BTR,2017-04-01 22:40,-91.1469,30.5372,M,M,M,100.00,10.00,M,29.97,M,10.00,M,CLR,M,M,M,M,M,M,M,M,KBTR 012240Z AUTO 10010KT 10SM CLR A2997 RMK MADISHF
BTR,2017-04-01 22:45,-91.1469,30.5372,M,M,M,100.00,11.00,M,29.97,M,10.00,M,CLR,M,M,M,M,M,M,M,M,KBTR 012245Z AUTO 10011KT 10SM CLR A2997 RMK MADISHF
BTR,2017-04-01 22:50,-91.1469,30.5372,M,M,M,110.00,10.00,M,29.97,M,10.00,18.00,CLR,M,M,M,M,M,M,M,M,KBTR 012250Z AUTO 11010G18KT 10SM CLR A2997 RMK MADISHF
BTR,2017-04-01 22:53,-91.1469,30.5372,81.00,60.10,49.06,100.00,11.00,0.00,29.97,1014.70,10.00,21.00,CLR,M,M,M,M,M,M,M,M,KBTR 012253Z 10011G21KT 10SM CLR 27/16 A2997 RMK AO2 SLP147 T02720156
BTR,2017-04-01 22:55,-91.1469,30.5372,M,M,M,100.00,10.00,M,29.97,M,10.00,M,CLR,M,M,M,M,M,M,M,M,KBTR 012255Z AUTO 10010KT 10SM CLR A2997 RMK MADISHF
BTR,2017-04-01 23:00,-91.1469,30.5372,M,M,M,110.00,8.00,M,29.97,M,10.00,M,CLR,M,M,M,M,M,M,M,M,KBTR 012300Z AUTO 11008KT 10SM CLR A2997 RMK WND 09V15  MADISHF
BTR,2017-04-01 23:05,-91.1469,30.5372,M,M,M,100.00,10.00,M,29.97,M,10.00,M,CLR,M,M,M,M,M,M,M,M,KBTR 012305Z AUTO 10010KT 10SM CLR A2997 RMK MADISHF
BTR,2017-04-01 23:10,-91.1469,30.5372,M,M,M,90.00,10.00,M,29.97,M,10.00,M,CLR,M,M,M,M,M,M,M,M,KBTR 012310Z AUTO 09010KT 10SM CLR A2997 RMK MADISHF
BTR,2017-04-01 23:15,-91.1469,30.5372,M,M,M,110.00,9.00,M,29.97,M,10.00,M,CLR,M,M,M,M,M,M,M,M,KBTR 012315Z AUTO 11009KT 10SM CLR A2997 RMK MADISHF
BTR,2017-04-01 23:20,-91.1469,30.5372,M,M,M,100.00,9.00,M,29.97,M,10.00,M,CLR,M,M,M,M,M,M,M,M,KBTR 012320Z AUTO 10009KT 10SM CLR A2997 RMK MADISHF
BTR,2017-04-01 23:25,-91.1469,30.5372,M,M,M,100.00,10.00,M,29.97,M,10.00,M,CLR,M,M,M,M,M,M,M,M,KBTR 012325Z AUTO 10010KT 10SM CLR A2997 RMK WND 09V15  MADISHF
BTR,2017-04-01 23:30,-91.1469,30.5372,M,M,M,M,M,M,29.97,M,10.00,M,CLR,M,M,M,M,M,M,M,M,KBTR 012330Z AUTO /////KT 10SM CLR A2997 RMK MADISHF
BTR,2017-04-01 23:35,-91.1469,30.5372,M,M,M,M,M,M,29.97,M,10.00,M,CLR,M,M,M,M,M,M,M,M,KBTR 012335Z AUTO /////KT 10SM CLR A2997 RMK MADISHF
BTR,2017-04-01 23:40,-91.1469,30.5372,M,M,M,120.00,9.00,M,29.98,M,10.00,M,CLR,M,M,M,M,M,M,M,M,KBTR 012340Z AUTO 12009KT 10SM CLR A2998 RMK WND 05V16  MADISHF
BTR,2017-04-01 23:45,-91.1469,30.5372,M,M,M,100.00,10.00,M,29.98,M,10.00,M,CLR,M,M,M,M,M,M,M,M,KBTR 012345Z AUTO 10010KT 10SM CLR A2998 RMK WND 05V16  MADISHF
BTR,2017-04-01 23:50,-91.1469,30.5372,M,M,M,100.00,9.00,M,29.98,M,10.00,M,CLR,M,M,M,M,M,M,M,M,KBTR 012350Z AUTO 10009KT 10SM CLR A2998 RMK MADISHF
BTR,2017-04-01 23:53,-91.1469,30.5372,78.10,59.00,51.88,100.00,8.00,0.00,29.98,1015.00,10.00,23.00,CLR,M,M,M,M,M,M,M,M,KBTR 012353Z 10008G23KT 10SM CLR 26/15 A2998 RMK AO2 PK WND 12028/2338 SLP150 T02560150 10294 20256 53002
BTR,2017-04-01 23:55,-91.1469,30.5372,M,M,M,100.00,9.00,M,29.98,M,10.00,M,CLR,M,M,M,M,M,M,M,M,KBTR 012355Z AUTO 10009KT 10SM CLR A2998 RMK MADISHF
