#DEBUG: Format Typ    -> comma
#DEBUG: Time Period   -> 2017-04-01 00:00:00+00:00 2017-04-02 00:00:00+00:00
#DEBUG: Time Zone     -> Etc/UTC
#DEBUG: Data Contact   -> daryl herzmann akrherz@iastate.edu 515-294-5978
#DEBUG: Entries Found -> -1
station,valid,lon,lat,tmpf, dwpf, relh, drct, sknt, p01i, alti, mslp, vsby, gust, skyc1, skyc2, skyc3, skyc4, skyl1, skyl2, skyl3, skyl4, presentwx, metar
BTV,2017-04-01 00:00,-73.1500,44.4700,M,M,M,110.00,5.00,0.01,29.97,M,1.00,M,VV ,M,M,M,1200.00,M,M,M,-SN BR,KBTV 010000Z AUTO 11005KT 1SM -SN BR VV012 A2997 RMK P0001  VIS 1/2V1 MADISHF
BTV,2017-04-01 00:03,-73.1500,44.4700,33.10,32.00,95.67,110.00,5.00,0.01,29.97,M,1.00,M,BKN,OVC,M,M,1200.00,1800.00,M,M,-SN BR,KBTV 010003Z 11005KT 1SM R15/6000VP6000FT -SN BR BKN012 OVC018 01/00 A2997 RMK AO2 VIS 1/2V1 P0001 T00060000
BTV,2017-04-01 00:05,-73.1500,44.4700,M,M,M,110.00,4.00,0.01,29.97,M,1.00,M,VV ,M,M,M,1300.00,M,M,M,-SN BR,KBTV 010005Z AUTO 11004KT 1SM -SN BR VV013 A2997 RMK P0001  VIS 1/2V1 MADISHF
BTV,2017-04-01 00:10,-73.1500,44.4700,M,M,M,110.00,5.00,0.01,29.97,M,1.25,M,OVC,M,M,M,1300.00,M,M,M,-SN BR,KBTV 010010Z AUTO 11005KT 1 1/2SM -SN BR OVC013 A2997 RMK P0001  VIS 1/2V1 MADISHF
BTV,2017-04-01 00:15,-73.1500,44.4700,M,M,M,110.00,4.00,0.02,29.97,M,1.25,M,OVC,M,M,M,1300.00,M,M,M,-SN BR,KBTV 010015Z AUTO 11004KT 1 1/2SM -SN BR OVC013 A2997 RMK P0002  VIS 1/2V1 MADISHF
BTV,2017-04-01 00:20,-73.1500,44.4700,M,M,M,120.00,4.00,0.03,29.97,M,1.25,M,OVC,M,M,M,1300.00,M,M,M,-SN BR,KBTV 010020Z AUTO 12004KT 1 1/2SM -SN BR OVC013 A2997 RMK P0003  VIS 1/2V1 MADISHF
BTV,2017-04-01 00:25,-73.1500,44.4700,M,M,M,120.00,4.00,0.03,29.97,M,1.25,M,OVC,M,M,M,1400.00,M,M,M,-SN BR,KBTV 010025Z AUTO 12004KT 1 1/2SM -SN BR OVC014 A2997 RMK P0003 MADISHF
BTV,2017-04-01 00:30,-73.1500,44.4700,M,M,M,120.00,3.00,0.04,29.97,M,1.25,M,OVC,M,M,M,1400.00,M,M,M,-SN BR,KBTV 010030Z AUTO 12003KT 1 1/2SM -SN BR OVC014 A2997 RMK P0004 MADISHF
BTV,2017-04-01 00:35,-73.1500,44.4700,33.10,32.00,95.67,130.00,3.00,0.04,29.97,M,1.50,M,OVC,M,M,M,1600.00,M,M,M,-SN BR,KBTV 010035Z 13003KT 1 1/2SM -SN BR OVC016 01/00 A2997 RMK AO2 P0004 T00060000
BTV,2017-04-01 00:40,-73.1500,44.4700,M,M,M,140.00,3.00,0.05,29.98,M,1.25,M,OVC,M,M,M,1600.00,M,M,M,-SN BR,KBTV 010040Z AUTO 14003KT 1 1/2SM -SN BR OVC016 A2998 RMK P0005 MADISHF
BTV,2017-04-01 00:42,-73.1500,44.4700,33.10,32.00,95.67,150.00,3.00,0.05,29.98,M,1.25,M,OVC,M,M,M,1400.00,M,M,M,-SN BR,KBTV 010042Z 15003KT 1 1/4SM R15/6000VP6000FT -SN BR OVC014 01/00 A2998 RMK AO2 P0005 T00060000
BTV,2017-04-01 00:45,-73.1500,44.4700,M,M,M,140.00,3.00,0.05,29.98,M,1.00,M,VV ,M,M,M,1300.00,M,M,M,-SN BR,KBTV 010045Z AUTO 14003KT 1SM -SN BR VV013 A2998 RMK P0005 MADISHF
BTV,2017-04-01 00:50,-73.1500,44.4700,M,M,M,130.00,3.00,0.06,29.98,M,0.75,M,VV ,M,M,M,1200.00,M,M,M,-SN BR,KBTV 010050Z AUTO 13003KT 1SM -SN BR VV012 A2998 RMK P0006 MADISHF
BTV,2017-04-01 00:54,-73.1500,44.4700,33.10,32.00,95.67,120.00,4.00,0.07,29.97,1015.30,0.50,M,VV ,M,M,M,1100.00,M,M,M,SN FG,KBTV 010054Z 12004KT 1/2SM R15/4500V5500FT SN FG VV011 01/00 A2997 RMK AO2 SLP153 P0007 T00060000
BTV,2017-04-01 00:55,-73.1500,44.4700,M,M,M,120.00,4.00,M,29.97,M,0.50,M,VV ,M,M,M,1100.00,M,M,M,SN FG,KBTV 010055Z AUTO 12004KT 1/2SM SN FG VV011 A2997 RMK MADISHF
BTV,2017-04-01 01:00,-73.1500,44.4700,M,M,M,120.00,3.00,0.01,29.97,M,0.50,M,VV ,M,M,M,999.00,M,M,M,SN FG,KBTV 010100Z AUTO 12003KT 1/2SM SN FG VV009 A2997 RMK P0001 MADISHF
BTV,2017-04-01 01:05,-73.1500,44.4700,M,M,M,110.00,4.00,0.02,29.97,M,0.50,M,FEW,OVC,M,M,400.00,999.00,M,M,SN FG,KBTV 010105Z AUTO 11004KT 1/2SM SN FG FEW004 OVC009 A2997 RMK P0002 MADISHF
BTV,2017-04-01 01:08,-73.1500,44.4700,33.10,32.00,95.67,100.00,5.00,0.03,29.97,M,0.50,M,VV ,M,M,M,900.00,M,M,M,SN FG,KBTV 010108Z 10005KT 1/2SM R15/5000VP6000FT SN FG VV009 01/00 A2997 RMK AO2 P0003 T00060000
BTV,2017-04-01 01:10,-73.1500,44.4700,M,M,M,110.00,4.00,0.03,29.97,M,0.50,M,BKN,OVC,M,M,900.00,1300.00,M,M,SN FG,KBTV 010110Z AUTO 11004KT 1/2SM SN FG BKN009 OVC013 A2997 RMK P0003 MADISHF
BTV,2017-04-01 01:15,-73.1500,44.4700,M,M,M,110.00,5.00,0.03,29.97,M,0.75,M,BKN,OVC,M,M,900.00,1300.00,M,M,-SN BR,KBTV 010115Z AUTO 11005KT 1SM -SN BR BKN009 OVC013 A2997 RMK P0003  VIS 1/2V1 MADISHF
BTV,2017-04-01 01:20,-73.1500,44.4700,M,M,M,110.00,5.00,0.04,29.97,M,0.75,M,BKN,OVC,M,M,900.00,1300.00,M,M,-SN BR,KBTV 010120Z AUTO 11005KT 1SM -SN BR BKN009 OVC013 A2997 RMK P0004  VIS 1/2V1 MADISHF
BTV,2017-04-01 01:25,-73.1500,44.4700,M,M,M,110.00,5.00,0.04,29.97,M,0.75,M,OVC,M,M,M,1100.00,M,M,M,-SN BR,KBTV 010125Z AUTO 11005KT 1SM -SN BR OVC011 A2997 RMK P0004  VIS 1/2V1 MADISHF
BTV,2017-04-01 01:30,-73.1500,44.4700,33.10,32.00,95.67,120.00,5.00,0.05,29.97,M,0.75,M,OVC,M,M,M,1100.00,M,M,M,-SN BR,KBTV 010130Z 12005KT 3/4SM R15/5500VP6000FT -SN BR OVC011 01/00 A2997 RMK AO2 VIS 1/2V1 P0005 T00060000
BTV,2017-04-01 01:35,-73.1500,44.4700,M,M,M,110.00,5.00,0.06,29.96,M,0.75,M,BKN,OVC,M,M,1100.00,1500.00,M,M,-SN BR,KBTV 010135Z AUTO 11005KT 1SM -SN BR BKN011 OVC015 A2996 RMK P0006  VIS 1/2V1 MADISHF
BTV,2017-04-01 01:40,-73.1500,44.4700,M,M,M,110.00,5.00,0.07,29.96,M,0.75,M,BKN,OVC,M,M,999.00,1400.00,M,M,-SN BR,KBTV 010140Z AUTO 11005KT 1SM -SN BR BKN009 OVC014 A2996 RMK P0007  VIS 1/2V1 MADISHF
BTV,2017-04-01 01:45,-73.1500,44.4700,M,M,M,110.00,4.00,0.08,29.96,M,0.50,M,VV ,M,M,M,999.00,M,M,M,SN FG,KBTV 010145Z AUTO 11004KT 1/2SM SN FG VV009 A2996 RMK P0008  VIS 1/2V1 SNINCR 1/2 MADISHF
BTV,2017-04-01 01:50,-73.1500,44.4700,M,M,M,110.00,5.00,0.08,29.96,M,0.50,M,VV ,M,M,M,999.00,M,M,M,SN FG,KBTV 010150Z AUTO 11005KT 1/2SM SN FG VV009 A2996 RMK P0008  VIS 1/2V1 SNINCR 1/2 MADISHF
BTV,2017-04-01 01:54,-73.1500,44.4700,33.10,32.00,95.67,110.00,4.00,0.09,29.95,1014.70,0.50,M,VV ,M,M,M,1000.00,M,M,M,SN FG,KBTV 010154Z 11004KT 1/2SM R15/5500VP6000FT SN FG VV010 01/00 A2995 RMK AO2 SLP147 VIS 1/2V1 SNINCR 1/2 P0009 T00060000
BTV,2017-04-01 01:55,-73.1500,44.4700,M,M,M,110.00,4.00,M,29.95,M,1.00,M,VV ,M,M,M,999.00,M,M,M,-SN BR,KBTV 010155Z AUTO 11004KT 1SM -SN BR VV009 A2995 RMK MADISHF
BTV,2017-04-01 02:00,-73.1500,44.4700,M,M,M,110.00,5.00,0.01,29.95,M,0.50,M,VV ,M,M,M,999.00,M,M,M,SN FG,KBTV 010200Z AUTO 11005KT 1/2SM SN FG VV009 A2995 RMK P0001  VIS 1/2V1 MADISHF
BTV,2017-04-01 02:05,-73.1500,44.4700,M,M,M,120.00,6.00,0.01,29.95,M,0.50,M,VV ,M,M,M,1100.00,M,M,M,SN FG,KBTV 010205Z AUTO 12006KT 1/2SM SN FG VV011 A2995 RMK P0001  VIS 1/2V1 MADISHF
BTV,2017-04-01 02:10,-73.1500,44.4700,M,M,M,120.00,6.00,0.02,29.95,M,0.75,M,VV ,M,M,M,1100.00,M,M,M,-SN BR,KBTV 010210Z AUTO 12006KT 1SM -SN BR VV011 A2995 RMK P0002  VIS 1/2V1 MADISHF
BTV,2017-04-01 02:15,-73.1500,44.4700,M,M,M,120.00,5.00,0.03,29.95,M,0.75,M,VV ,M,M,M,1100.00,M,M,M,-SN BR,KBTV 010215Z AUTO 12005KT 1SM -SN BR VV011 A2995 RMK P0003  VIS 1/2V1 MADISHF
BTV,2017-04-01 02:20,-73.1500,44.4700,M,M,M,120.00,5.00,0.04,29.95,M,0.75,M,VV ,M,M,M,1100.00,M,M,M,-SN BR,KBTV 010220Z AUTO 12005KT 1SM -SN BR VV011 A2995 RMK P0004  VIS 1/2V1 MADISHF
BTV,2017-04-01 02:25,-73.1500,44.4700,M,M,M,130.00,5.00,0.04,29.94,M,0.75,M,VV ,M,M,M,1300.00,M,M,M,-SN BR,KBTV 010225Z AUTO 13005KT 1SM -SN BR VV013 A2994 RMK P0004  VIS 1/2V1 MADISHF
BTV,2017-04-01 02:30,-73.1500,44.4700,M,M,M,120.00,5.00,0.05,29.94,M,0.75,M,VV ,M,M,M,1500.00,M,M,M,-SN BR,KBTV 010230Z AUTO 12005KT 1SM -SN BR VV015 A2994 RMK P0005  VIS 1/2V1 MADISHF
BTV,2017-04-01 02:35,-73.1500,44.4700,33.10,32.00,95.67,120.00,3.00,0.05,29.94,M,0.75,M,VV ,M,M,M,1600.00,M,M,M,-SN BR,KBTV 010235Z 12003KT 3/4SM R15/P6000FT -SN BR VV016 01/00 A2994 RMK AO2 VIS 1/2V1 P0005 T00060000
BTV,2017-04-01 02:40,-73.1500,44.4700,M,M,M,120.00,3.00,0.05,29.94,M,1.00,M,VV ,M,M,M,1600.00,M,M,M,-SN BR,KBTV 010240Z AUTO 12003KT 1SM -SN BR VV016 A2994 RMK P0005  VIS 1/2V1 MADISHF
BTV,2017-04-01 02:42,-73.1500,44.4700,33.10,32.00,95.67,130.00,3.00,0.06,29.94,M,1.00,M,VV ,M,M,M,1600.00,M,M,M,-SN BR,KBTV 010242Z 13003KT 1SM R15/P6000FT -SN BR VV016 01/00 A2994 RMK AO2 VIS 1/2V1 P0006 T00060000
BTV,2017-04-01 02:45,-73.1500,44.4700,M,M,M,120.00,3.00,0.06,29.94,M,1.00,M,VV ,M,M,M,1699.00,M,M,M,-SN BR,KBTV 010245Z AUTO 12003KT 1SM -SN BR VV016 A2994 RMK P0006  VIS 1/2V1 MADISHF
BTV,2017-04-01 02:50,-73.1500,44.4700,M,M,M,120.00,3.00,0.06,29.94,M,1.00,M,FEW,OVC,M,M,999.00,1699.00,M,M,-SN BR,KBTV 010250Z AUTO 12003KT 1SM -SN BR FEW009 OVC016 A2994 RMK P0006  VIS 1/2V1 MADISHF
BTV,2017-04-01 02:54,-73.1500,44.4700,33.10,32.00,95.67,120.00,3.00,0.07,29.94,1014.20,1.00,M,VV ,M,M,M,1500.00,M,M,M,-SN BR,KBTV 010254Z 12003KT 1SM R15/P6000FT -SN BR VV015 01/00 A2994 RMK AO2 SLP142 SNINCR 1/3 VIS 1/2V1 P0007 60023 T00060000 58011
BTV,2017-04-01 02:55,-73.1500,44.4700,M,M,M,110.00,3.00,M,29.94,M,1.25,M,FEW,OVC,M,M,999.00,1600.00,M,M,-SN BR,KBTV 010255Z AUTO 11003KT 1 1/2SM -SN BR FEW009 OVC016 A2994 RMK MADISHF
BTV,2017-04-01 02:59,-73.1500,44.4700,33.10,32.00,95.67,110.00,3.00,0.00,29.94,M,0.75,M,VV ,M,M,M,1400.00,M,M,M,-SN BR,KBTV 010259Z 11003KT 3/4SM R15/P6000FT -SN BR VV014 01/00 A2994 RMK AO2 P0000 T00060000
BTV,2017-04-01 03:00,-73.1500,44.4700,M,M,M,100.00,3.00,M,29.94,M,0.75,M,VV ,M,M,M,1400.00,M,M,M,-SN BR,KBTV 010300Z AUTO 10003KT 1SM -SN BR VV014 A2994 RMK MADISHF
BTV,2017-04-01 03:05,-73.1500,44.4700,M,M,M,110.00,3.00,0.01,29.94,M,0.75,M,FEW,OVC,M,M,999.00,1600.00,M,M,-SN BR,KBTV 010305Z AUTO 11003KT 1SM -SN BR FEW009 OVC016 A2994 RMK P0001  VIS 1/2V1 1/2 MADISHF
BTV,2017-04-01 03:09,-73.1500,44.4700,33.10,32.00,95.67,0.00,0.00,0.01,29.94,M,0.75,M,VV ,M,M,M,1600.00,M,M,M,-SN BR,KBTV 010309Z 00000KT 3/4SM R15/P6000FT -SN BR VV016 01/00 A2994 RMK AO2 VIS 1/2V1 1/2 P0001 T00060000
BTV,2017-04-01 03:10,-73.1500,44.4700,M,M,M,0.00,0.00,0.01,29.94,M,0.75,M,VV ,M,M,M,1600.00,M,M,M,-SN BR,KBTV 010310Z AUTO 00000KT 1SM -SN BR VV016 A2994 RMK P0001  VIS 1/2V1 1/2 MADISHF
BTV,2017-04-01 03:15,-73.1500,44.4700,M,M,M,90.00,3.00,0.02,29.94,M,0.75,M,VV ,M,M,M,1400.00,M,M,M,-SN BR,KBTV 010315Z AUTO 09003KT 1SM -SN BR VV014 A2994 RMK P0002  VIS 1/2V1 1/2 MADISHF
BTV,2017-04-01 03:18,-73.1500,44.4700,33.10,32.00,95.67,100.00,3.00,0.02,29.94,M,0.75,M,FEW,OVC,M,M,900.00,1500.00,M,M,-SN BR,KBTV 010318Z 10003KT 3/4SM R15/P6000FT -SN BR FEW009 OVC015 01/00 A2994 RMK AO2 VIS 1/2V1 1/2 P0002 T00060000
BTV,2017-04-01 03:20,-73.1500,44.4700,M,M,M,100.00,3.00,0.02,29.93,M,0.75,M,FEW,OVC,M,M,900.00,1500.00,M,M,-SN BR,KBTV 010320Z AUTO 10003KT 1SM -SN BR FEW009 OVC015 A2993 RMK P0002  VIS 1/2V1 1/2 MADISHF
BTV,2017-04-01 03:25,-73.1500,44.4700,M,M,M,100.00,4.00,0.02,29.93,M,0.75,M,VV ,M,M,M,1300.00,M,M,M,-SN BR,KBTV 010325Z AUTO 10004KT 1SM -SN BR VV013 A2993 RMK P0002  VIS 1/2V1 1/2 MADISHF
BTV,2017-04-01 03:28,-73.1500,44.4700,33.10,32.00,95.67,110.00,4.00,0.03,29.93,M,0.75,M,VV ,M,M,M,1300.00,M,M,M,-SN BR,KBTV 010328Z 11004KT 3/4SM R15/6000VP6000FT -SN BR VV013 01/00 A2993 RMK AO2 VIS 1/2V1 1/2 P0003 T00060000
BTV,2017-04-01 03:30,-73.1500,44.4700,M,M,M,100.00,4.00,0.03,29.93,M,0.75,M,VV ,M,M,M,1200.00,M,M,M,-SN BR,KBTV 010330Z AUTO 10004KT 1SM -SN BR VV012 A2993 RMK P0003  VIS 1/2V1 1/2 MADISHF
BTV,2017-04-01 03:35,-73.1500,44.4700,M,M,M,110.00,3.00,0.04,29.93,M,0.75,M,VV ,M,M,M,1200.00,M,M,M,-SN BR,KBTV 010335Z AUTO 11003KT 1SM -SN BR VV012 A2993 RMK P0004  VIS 1/2V1 1/2 MADISHF
BTV,2017-04-01 03:40,-73.1500,44.4700,M,M,M,100.00,3.00,0.05,29.93,M,0.75,M,FEW,OVC,M,M,900.00,1300.00,M,M,-SN BR,KBTV 010340Z AUTO 10003KT 1SM -SN BR FEW009 OVC013 A2993 RMK P0005  VIS 1/2V1 1/2 MADISHF
BTV,2017-04-01 03:45,-73.1500,44.4700,M,M,M,110.00,3.00,0.05,29.93,M,0.75,M,VV ,M,M,M,1300.00,M,M,M,-SN BR,KBTV 010345Z AUTO 11003KT 1SM -SN BR VV013 A2993 RMK P0005  VIS 1/2V1 1/2 MADISHF
BTV,2017-04-01 03:50,-73.1500,44.4700,M,M,M,110.00,3.00,0.06,29.93,M,0.75,M,VV ,M,M,M,1400.00,M,M,M,-SN BR,KBTV 010350Z AUTO 11003KT 1SM -SN BR VV014 A2993 RMK P0006  "LAST" VIS 1/2V1 1/2 MADISHF
BTV,2017-04-01 03:54,-73.1500,44.4700,33.10,32.00,95.67,100.00,3.00,0.06,29.93,1013.70,0.75,M,VV ,M,M,M,1400.00,M,M,M,-SN BR,KBTV 010354Z 10003KT 3/4SM R15/P6000FT -SN BR VV014 01/00 A2993 RMK AO2 SLP137 "LAST" VIS 1/2V1 1/2 P0006 T00060000
BTV,2017-04-01 03:55,-73.1500,44.4700,M,M,M,90.00,3.00,M,29.93,M,0.75,M,VV ,M,M,M,1500.00,M,M,M,-SN BR,KBTV 010355Z AUTO 09003KT 1SM -SN BR VV015 A2993 RMK MADISHF
BTV,2017-04-01 04:00,-73.1500,44.4700,M,M,M,90.00,3.00,0.01,29.92,M,0.75,M,VV ,M,M,M,1500.00,M,M,M,-SN BR,KBTV 010400Z AUTO 09003KT 1SM -SN BR VV015 A2992 RMK P0001 MADISHF
BTV,2017-04-01 04:01,-73.1500,44.4700,33.10,32.00,95.67,0.00,0.00,0.01,29.92,M,1.25,M,OVC,M,M,M,1500.00,M,M,M,-SN BR,KBTV 010401Z 00000KT 1 1/4SM -SN BR OVC015 01/00 A2992 RMK AO2 P0001 T00060000
BTV,2017-04-01 04:05,-73.1500,44.4700,M,M,M,90.00,3.00,0.01,29.93,M,1.50,M,OVC,M,M,M,1500.00,M,M,M,-SN BR,KBTV 010405Z AUTO 09003KT 1 1/2SM -SN BR OVC015 A2993 RMK P0001 MADISHF
BTV,2017-04-01 04:10,-73.1500,44.4700,33.10,32.00,95.67,0.00,0.00,0.01,29.92,M,1.50,M,OVC,M,M,M,1700.00,M,M,M,-SN BR,KBTV 010410Z 00000KT 1 1/2SM -SN BR OVC017 01/00 A2992 RMK AO2 P0001 T00060000
BTV,2017-04-01 04:15,-73.1500,44.4700,M,M,M,0.00,0.00,0.02,29.92,M,1.50,M,OVC,M,M,M,1699.00,M,M,M,-SN BR,KBTV 010415Z AUTO 00000KT 1 1/2SM -SN BR OVC016 A2992 RMK P0002 MADISHF
BTV,2017-04-01 04:20,-73.1500,44.4700,M,M,M,100.00,3.00,0.02,29.92,M,1.25,M,OVC,M,M,M,1800.00,M,M,M,-SN BR,KBTV 010420Z AUTO 10003KT 1 1/2SM -SN BR OVC018 A2992 RMK P0002 MADISHF
BTV,2017-04-01 04:25,-73.1500,44.4700,33.10,30.90,91.51,100.00,3.00,0.03,29.92,M,1.25,M,OVC,M,M,M,1600.00,M,M,M,-SN BR,KBTV 010425Z 10003KT 1 1/4SM -SN BR OVC016 01/M01 A2992 RMK AO2 P0003 T00061006
BTV,2017-04-01 04:30,-73.1500,44.4700,M,M,M,100.00,3.00,0.03,29.92,M,1.25,M,OVC,M,M,M,1600.00,M,M,M,-SN BR,KBTV 010430Z AUTO 10003KT 1 1/2SM -SN BR OVC016 A2992 RMK P0003 MADISHF
BTV,2017-04-01 04:35,-73.1500,44.4700,M,M,M,110.00,3.00,0.03,29.91,M,1.50,M,OVC,M,M,M,1600.00,M,M,M,-SN BR,KBTV 010435Z AUTO 11003KT 1 1/2SM -SN BR OVC016 A2991 RMK P0003 MADISHF
BTV,2017-04-01 04:38,-73.1500,44.4700,33.10,32.00,95.67,100.00,3.00,0.03,29.91,M,1.50,M,OVC,M,M,M,1700.00,M,M,M,-SN BR,KBTV 010438Z 10003KT 1 1/2SM -SN BR OVC017 01/00 A2991 RMK AO2 P0003 T00060000
BTV,2017-04-01 04:40,-73.1500,44.4700,M,M,M,0.00,0.00,0.04,29.92,M,1.50,M,OVC,M,M,M,1699.00,M,M,M,-SN BR,KBTV 010440Z AUTO 00000KT 1 1/2SM -SN BR OVC016 A2992 RMK P0004 MADISHF
BTV,2017-04-01 04:45,-73.1500,44.4700,M,M,M,110.00,3.00,0.04,29.92,M,1.50,M,OVC,M,M,M,1900.00,M,M,M,-SN BR,KBTV 010445Z AUTO 11003KT 1 1/2SM -SN BR OVC019 A2992 RMK P0004 MADISHF
BTV,2017-04-01 04:50,-73.1500,44.4700,M,M,M,110.00,3.00,0.04,29.91,M,1.75,M,OVC,M,M,M,1900.00,M,M,M,-SN BR,KBTV 010450Z AUTO 11003KT 2SM -SN BR OVC019 A2991 RMK P0004 MADISHF
BTV,2017-04-01 04:54,-73.1500,44.4700,33.10,32.00,95.67,100.00,3.00,0.04,29.91,1013.30,1.75,M,OVC,M,M,M,1900.00,M,M,M,-SN BR,KBTV 010454Z 10003KT 1 3/4SM -SN BR OVC019 01/00 A2991 RMK AO2 SLP133 P0004 T00060000 400440000
BTV,2017-04-01 04:55,-73.1500,44.4700,M,M,M,100.00,3.00,0.01,29.91,M,1.50,M,OVC,M,M,M,1900.00,M,M,M,-SN BR,KBTV 010455Z AUTO 10003KT 1 1/2SM -SN BR OVC019 A2991 RMK P0001 MADISHF
BTV,2017-04-01 05:00,-73.1500,44.4700,M,M,M,90.00,3.00,0.01,29.91,M,1.25,M,OVC,M,M,M,1699.00,M,M,M,-SN BR,KBTV 010500Z AUTO 09003KT 1 1/2SM -SN BR OVC016 A2991 RMK P0001 MADISHF
BTV,2017-04-01 05:05,-73.1500,44.4700,33.10,32.00,95.67,0.00,0.00,0.02,29.91,M,1.25,M,OVC,M,M,M,1700.00,M,M,M,-SN BR,KBTV 010505Z 00000KT 1 1/4SM -SN BR OVC017 01/00 A2991 RMK AO2 P0002 T00060000
BTV,2017-04-01 05:10,-73.1500,44.4700,M,M,M,0.00,0.00,0.02,29.91,M,1.25,M,OVC,M,M,M,1699.00,M,M,M,-SN BR,KBTV 010510Z AUTO 00000KT 1 1/2SM -SN BR OVC016 A2991 RMK P0002 MADISHF
BTV,2017-04-01 05:15,-73.1500,44.4700,M,M,M,80.00,3.00,0.02,29.91,M,1.50,M,OVC,M,M,M,1699.00,M,M,M,-SN BR,KBTV 010515Z AUTO 08003KT 1 1/2SM -SN BR OVC016 A2991 RMK P0002 MADISHF
BTV,2017-04-01 05:19,-73.1500,44.4700,33.10,30.90,91.51,90.00,3.00,0.03,29.91,M,1.75,M,OVC,M,M,M,1700.00,M,M,M,-SN BR,KBTV 010519Z 09003KT 1 3/4SM -SN BR OVC017 01/M01 A2991 RMK AO2 P0003 T00061006
BTV,2017-04-01 05:20,-73.1500,44.4700,M,M,M,90.00,3.00,0.03,29.91,M,1.75,M,OVC,M,M,M,1699.00,M,M,M,-SN BR,KBTV 010520Z AUTO 09003KT 2SM -SN BR OVC016 A2991 RMK P0003 MADISHF
BTV,2017-04-01 05:25,-73.1500,44.4700,M,M,M,90.00,3.00,0.03,29.91,M,1.75,M,OVC,M,M,M,1699.00,M,M,M,-SN BR,KBTV 010525Z AUTO 09003KT 2SM -SN BR OVC016 A2991 RMK P0003 MADISHF
BTV,2017-04-01 05:30,-73.1500,44.4700,M,M,M,100.00,3.00,0.03,29.91,M,1.75,M,OVC,M,M,M,1900.00,M,M,M,-SN BR,KBTV 010530Z AUTO 10003KT 2SM -SN BR OVC019 A2991 RMK P0003 MADISHF
BTV,2017-04-01 05:35,-73.1500,44.4700,M,M,M,120.00,3.00,0.03,29.92,M,1.75,M,OVC,M,M,M,1900.00,M,M,M,-SN BR,KBTV 010535Z AUTO 12003KT 2SM -SN BR OVC019 A2992 RMK P0003 MADISHF
BTV,2017-04-01 05:40,-73.1500,44.4700,M,M,M,0.00,0.00,0.04,29.92,M,1.50,M,OVC,M,M,M,1900.00,M,M,M,-SN BR,KBTV 010540Z AUTO 00000KT 1 1/2SM -SN BR OVC019 A2992 RMK P0004 MADISHF
BTV,2017-04-01 05:45,-73.1500,44.4700,M,M,M,0.00,0.00,0.04,29.92,M,1.50,M,OVC,M,M,M,1900.00,M,M,M,-SN BR,KBTV 010545Z AUTO 00000KT 1 1/2SM -SN BR OVC019 A2992 RMK P0004 MADISHF
BTV,2017-04-01 05:50,-73.1500,44.4700,M,M,M,0.00,0.00,0.05,29.92,M,1.50,M,OVC,M,M,M,1699.00,M,M,M,-SN BR,KBTV 010550Z AUTO 00000KT 1 1/2SM -SN BR OVC016 A2992 RMK P0005 MADISHF
BTV,2017-04-01 05:54,-73.1500,44.4700,33.10,30.90,91.51,0.00,0.00,0.05,29.92,1013.40,1.50,M,OVC,M,M,M,1700.00,M,M,M,-SN BR,KBTV 010554Z 00000KT 1 1/2SM -SN BR OVC017 01/M01 A2992 RMK AO2 SLP134 P0005 60038 T00061006 10006 20006 55008
BTV,2017-04-01 05:55,-73.1500,44.4700,M,M,M,0.00,0.00,M,29.91,M,1.25,M,OVC,M,M,M,1699.00,M,M,M,-SN BR,KBTV 010555Z AUTO 00000KT 1 1/2SM -SN BR OVC016 A2991 RMK MADISHF
BTV,2017-04-01 06:00,-73.1500,44.4700,33.10,30.90,91.51,0.00,0.00,0.01,29.91,M,1.00,M,VV ,M,M,M,1300.00,M,M,M,-SN BR,KBTV 010600Z 00000KT 1SM R15/6000VP6000FT -SN BR VV013 01/M01 A2991 RMK AO2 P0001 T00061006
BTV,2017-04-01 06:05,-73.1500,44.4700,M,M,M,0.00,0.00,0.01,29.91,M,1.00,M,VV ,M,M,M,1100.00,M,M,M,-SN BR,KBTV 010605Z AUTO 00000KT 1SM -SN BR VV011 A2991 RMK P0001 MADISHF
BTV,2017-04-01 06:10,-73.1500,44.4700,M,M,M,0.00,0.00,0.02,29.91,M,0.75,M,VV ,M,M,M,999.00,M,M,M,-SN BR,KBTV 010610Z AUTO 00000KT 1SM -SN BR VV009 A2991 RMK P0002 MADISHF
BTV,2017-04-01 06:13,-73.1500,44.4700,33.10,32.00,95.67,0.00,0.00,0.02,29.91,M,0.75,M,VV ,M,M,M,1000.00,M,M,M,-SN BR,KBTV 010613Z 00000KT 3/4SM R15/4000V6000FT -SN BR VV010 01/00 A2991 RMK AO2 P0002 T00060000
BTV,2017-04-01 06:15,-73.1500,44.4700,M,M,M,0.00,0.00,0.03,29.91,M,1.00,M,VV ,M,M,M,999.00,M,M,M,-SN BR,KBTV 010615Z AUTO 00000KT 1SM -SN BR VV009 A2991 RMK P0003 MADISHF
BTV,2017-04-01 06:20,-73.1500,44.4700,33.10,30.90,91.51,0.00,0.00,0.03,29.91,M,1.25,M,FEW,OVC,M,M,800.00,1200.00,M,M,-SN BR,KBTV 010620Z 00000KT 1 1/4SM R15/5500VP6000FT -SN BR FEW008 OVC012 01/M01 A2991 RMK AO2 P0003 T00061006
BTV,2017-04-01 06:22,-73.1500,44.4700,33.10,30.90,91.51,0.00,0.00,0.03,29.91,M,1.50,M,FEW,OVC,M,M,800.00,1500.00,M,M,-SN BR,KBTV 010622Z 00000KT 1 1/2SM R15/6000VP6000FT -SN BR FEW008 OVC015 01/M01 A2991 RMK AO2 P0003 T00061006
BTV,2017-04-01 06:25,-73.1500,44.4700,M,M,M,0.00,0.00,0.03,29.91,M,2.00,M,FEW,OVC,M,M,800.00,1699.00,M,M,-SN BR,KBTV 010625Z AUTO 00000KT 2SM -SN BR FEW008 OVC016 A2991 RMK P0003 MADISHF
BTV,2017-04-01 06:30,-73.1500,44.4700,33.10,30.90,91.51,0.00,0.00,0.03,29.91,M,3.00,M,OVC,M,M,M,2300.00,M,M,M,-SN BR,KBTV 010630Z 00000KT 3SM R15/5000VP6000FT -SN BR OVC023 01/M01 A2991 RMK AO2 P0003 T00061006
BTV,2017-04-01 06:35,-73.1500,44.4700,M,M,M,0.00,0.00,0.03,29.91,M,3.00,M,OVC,M,M,M,2700.00,M,M,M,-SN BR,KBTV 010635Z AUTO 00000KT 3SM -SN BR OVC027 A2991 RMK P0003 MADISHF
BTV,2017-04-01 06:40,-73.1500,44.4700,M,M,M,0.00,0.00,0.04,29.91,M,3.00,M,OVC,M,M,M,2900.00,M,M,M,-SN BR,KBTV 010640Z AUTO 00000KT 3SM -SN BR OVC029 A2991 RMK P0004 MADISHF
BTV,2017-04-01 06:45,-73.1500,44.4700,M,M,M,0.00,0.00,0.04,29.91,M,3.00,M,OVC,M,M,M,3300.00,M,M,M,-SN BR,KBTV 010645Z AUTO 00000KT 3SM -SN BR OVC033 A2991 RMK P0004 MADISHF
BTV,2017-04-01 06:47,-73.1500,44.4700,33.10,32.00,95.67,0.00,0.00,0.04,29.90,M,3.00,M,OVC,M,M,M,3500.00,M,M,M,-SN BR,KBTV 010647Z 00000KT 3SM R15/3500V5000FT -SN BR OVC035 01/00 A2990 RMK AO2 P0004 T00060000
BTV,2017-04-01 06:50,-73.1500,44.4700,M,M,M,0.00,0.00,0.04,29.91,M,3.00,M,OVC,M,M,M,3500.00,M,M,M,-SN BR,KBTV 010650Z AUTO 00000KT 3SM -SN BR OVC035 A2991 RMK P0004 MADISHF
BTV,2017-04-01 06:54,-73.1500,44.4700,33.10,32.00,95.67,0.00,0.00,0.04,29.90,1013.00,3.00,M,OVC,M,M,M,3500.00,M,M,M,-SN BR,KBTV 010654Z 00000KT 3SM R15/4000V5000FT -SN BR OVC035 01/00 A2990 RMK AO2 SLP130 P0004 T00060000
BTV,2017-04-01 06:55,-73.1500,44.4700,M,M,M,0.00,0.00,M,29.90,M,3.00,M,OVC,M,M,M,3500.00,M,M,M,-SN BR,KBTV 010655Z AUTO 00000KT 3SM -SN BR OVC035 A2990 RMK MADISHF
BTV,2017-04-01 07:00,-73.1500,44.4700,33.10,30.90,91.51,0.00,0.00,0.00,29.90,M,2.50,M,FEW,OVC,M,M,600.00,3500.00,M,M,-SN BR,KBTV 010700Z 00000KT 2 1/2SM R15/4000VP6000FT -SN BR FEW006 OVC035 01/M01 A2990 RMK AO2 P0000 T00061006
BTV,2017-04-01 07:05,-73.1500,44.4700,M,M,M,340.00,3.00,M,29.90,M,1.75,M,FEW,OVC,M,M,600.00,3500.00,M,M,-SN BR,KBTV 010705Z AUTO 34003KT 2SM -SN BR FEW006 OVC035 A2990 RMK MADISHF
BTV,2017-04-01 07:10,-73.1500,44.4700,32.00,30.90,95.65,0.00,0.00,0.00,29.90,M,1.50,M,FEW,OVC,M,M,700.00,3500.00,M,M,-SN BR,KBTV 010710Z 00000KT 1 1/2SM -SN BR FEW007 OVC035 00/M01 A2990 RMK AO2 P0000 T00001006
BTV,2017-04-01 07:15,-73.1500,44.4700,M,M,M,0.00,0.00,M,29.90,M,2.00,M,FEW,OVC,M,M,700.00,3700.00,M,M,-SN BR,KBTV 010715Z AUTO 00000KT 2SM -SN BR FEW007 OVC037 A2990 RMK MADISHF
BTV,2017-04-01 07:20,-73.1500,44.4700,M,M,M,340.00,3.00,M,29.90,M,2.00,M,FEW,OVC,M,M,700.00,3700.00,M,M,-SN BR,KBTV 010720Z AUTO 34003KT 2SM -SN BR FEW007 OVC037 A2990 RMK MADISHF
BTV,2017-04-01 07:21,-73.1500,44.4700,32.00,30.90,95.65,340.00,3.00,0.00,29.90,M,2.00,M,FEW,OVC,M,M,700.00,3700.00,M,M,-SN BR,KBTV 010721Z 34003KT 2SM -SN BR FEW007 OVC037 00/M01 A2990 RMK AO2 P0000 T00001006
BTV,2017-04-01 07:25,-73.1500,44.4700,M,M,M,0.00,0.00,M,29.91,M,2.00,M,SCT,OVC,M,M,700.00,3900.00,M,M,-SN BR,KBTV 010725Z AUTO 00000KT 2SM -SN BR SCT007 OVC039 A2991 RMK MADISHF
BTV,2017-04-01 07:30,-73.1500,44.4700,32.00,30.90,95.65,330.00,3.00,0.00,29.90,M,1.50,M,SCT,BKN,OVC,M,700.00,1100.00,3900.00,M,-SN BR,KBTV 010730Z 33003KT 1 1/2SM R15/4000VP6000FT -SN BR SCT007 BKN011 OVC039 00/M01 A2990 RMK AO2 P0000 T00001006
BTV,2017-04-01 07:32,-73.1500,44.4700,32.00,30.90,95.65,330.00,4.00,0.01,29.90,M,1.25,M,BKN,BKN,OVC,M,700.00,1100.00,3900.00,M,-SN BR,KBTV 010732Z 33004KT 1 1/4SM R15/4000VP6000FT -SN BR BKN007 BKN011 OVC039 00/M01 A2990 RMK AO2 P0001 T00001006
BTV,2017-04-01 07:35,-73.1500,44.4700,M,M,M,330.00,3.00,0.01,29.90,M,1.00,M,BKN,OVC,M,M,600.00,3900.00,M,M,-SN BR,KBTV 010735Z AUTO 33003KT 1SM -SN BR BKN006 OVC039 A2990 RMK P0001 MADISHF
BTV,2017-04-01 07:40,-73.1500,44.4700,M,M,M,330.00,5.00,0.01,29.90,M,1.75,M,BKN,OVC,M,M,600.00,3900.00,M,M,-SN BR,KBTV 010740Z AUTO 33005KT 2SM -SN BR BKN006 OVC039 A2990 RMK P0001 MADISHF
BTV,2017-04-01 07:41,-73.1500,44.4700,33.10,30.90,91.51,330.00,5.00,0.01,29.90,M,2.00,M,BKN,OVC,M,M,600.00,3900.00,M,M,-SN BR,KBTV 010741Z 33005KT 2SM R15/5500VP6000FT -SN BR BKN006 OVC039 01/M01 A2990 RMK AO2 P0001 T00061006
BTV,2017-04-01 07:45,-73.1500,44.4700,M,M,M,320.00,5.00,0.01,29.90,M,2.00,M,SCT,OVC,M,M,600.00,3700.00,M,M,-SN BR,KBTV 010745Z AUTO 32005KT 2SM -SN BR SCT006 OVC037 A2990 RMK P0001 MADISHF
BTV,2017-04-01 07:49,-73.1500,44.4700,33.80,30.20,86.49,330.00,5.00,0.01,29.90,M,1.75,M,FEW,BKN,OVC,M,200.00,1000.00,3500.00,M,-SN BR,KBTV 010749Z 33005KT 1 3/4SM -SN BR FEW002 BKN010 OVC035 01/M01 A2990 RMK AO2 P0001
BTV,2017-04-01 07:50,-73.1500,44.4700,M,M,M,330.00,5.00,0.01,29.90,M,1.75,M,FEW,BKN,OVC,M,200.00,600.00,3500.00,M,-SN BR,KBTV 010750Z AUTO 33005KT 2SM -SN BR FEW002 BKN006 OVC035 A2990 RMK P0001 MADISHF
BTV,2017-04-01 07:52,-73.1500,44.4700,33.80,30.20,86.49,330.00,5.00,0.01,29.90,M,2.00,M,FEW,BKN,OVC,M,200.00,600.00,3100.00,M,-SN BR,KBTV 010752Z 33005KT 2SM -SN BR FEW002 BKN006 OVC031 01/M01 A2990 RMK AO2 P0001
BTV,2017-04-01 07:54,-73.1500,44.4700,33.10,30.90,91.51,330.00,4.00,0.01,29.90,1012.90,2.50,M,FEW,BKN,OVC,M,200.00,600.00,3100.00,M,-SN BR,KBTV 010754Z 33004KT 2 1/2SM -SN BR FEW002 BKN006 OVC031 01/M01 A2990 RMK AO2 SLP129 P0001 T00061006
BTV,2017-04-01 07:55,-73.1500,44.4700,M,M,M,330.00,4.00,M,29.90,M,3.00,M,BKN,BKN,OVC,M,400.00,999.00,3100.00,M,-SN BR,KBTV 010755Z AUTO 33004KT 3SM -SN BR BKN004 BKN009 OVC031 A2990 RMK MADISHF
BTV,2017-04-01 08:00,-73.1500,44.4700,M,M,M,330.00,5.00,M,29.90,M,7.00,M,BKN,BKN,OVC,M,400.00,1100.00,3300.00,M,-SN,KBTV 010800Z AUTO 33005KT 7SM -SN BKN004 BKN011 OVC033 A2990 RMK MADISHF
BTV,2017-04-01 08:01,-73.1500,44.4700,33.10,30.90,91.51,330.00,5.00,0.00,29.90,M,8.00,M,BKN,BKN,OVC,M,400.00,1100.00,3300.00,M,-SN,KBTV 010801Z 33005KT 8SM -SN BKN004 BKN011 OVC033 01/M01 A2990 RMK AO2 P0000 T00061006
BTV,2017-04-01 08:05,-73.1500,44.4700,M,M,M,330.00,4.00,M,29.90,M,7.00,M,SCT,BKN,OVC,M,400.00,1100.00,3300.00,M,-SN,KBTV 010805Z AUTO 33004KT 7SM -SN SCT004 BKN011 OVC033 A2990 RMK MADISHF
BTV,2017-04-01 08:08,-73.1500,44.4700,33.10,30.90,91.51,330.00,5.00,0.00,29.90,M,5.00,M,SCT,BKN,OVC,M,400.00,1500.00,3500.00,M,-SN BR,KBTV 010808Z 33005KT 5SM -SN BR SCT004 BKN015 OVC035 01/M01 A2990 RMK AO2 P0000 T00061006
BTV,2017-04-01 08:10,-73.1500,44.4700,M,M,M,320.00,5.00,M,29.90,M,5.00,M,SCT,BKN,OVC,M,400.00,1500.00,3500.00,M,-SN BR,KBTV 010810Z AUTO 32005KT 5SM -SN BR SCT004 BKN015 OVC035 A2990 RMK MADISHF
BTV,2017-04-01 08:15,-73.1500,44.4700,M,M,M,320.00,5.00,M,29.90,M,5.00,M,FEW,BKN,OVC,M,300.00,1500.00,3900.00,M,-SN BR,KBTV 010815Z AUTO 32005KT 5SM -SN BR FEW003 BKN015 OVC039 A2990 RMK MADISHF
BTV,2017-04-01 08:20,-73.1500,44.4700,M,M,M,330.00,6.00,M,29.90,M,5.00,M,FEW,SCT,OVC,M,300.00,1500.00,3900.00,M,-SN BR,KBTV 010820Z AUTO 33006KT 5SM -SN BR FEW003 SCT015 OVC039 A2990 RMK MADISHF
BTV,2017-04-01 08:22,-73.1500,44.4700,33.10,30.90,91.51,330.00,5.00,0.00,29.90,M,5.00,M,FEW,SCT,OVC,M,300.00,1500.00,3900.00,M,-SN BR,KBTV 010822Z 33005KT 5SM -SN BR FEW003 SCT015 OVC039 01/M01 A2990 RMK AO2 P0000 T00061006
BTV,2017-04-01 08:25,-73.1500,44.4700,M,M,M,330.00,5.00,M,29.90,M,4.00,M,FEW,FEW,OVC,M,300.00,1200.00,3700.00,M,-SN BR,KBTV 010825Z AUTO 33005KT 4SM -SN BR FEW003 FEW012 OVC037 A2990 RMK MADISHF
BTV,2017-04-01 08:30,-73.1500,44.4700,M,M,M,320.00,5.00,M,29.90,M,3.50,M,OVC,M,M,M,3500.00,M,M,M,-SN BR,KBTV 010830Z AUTO 32005KT 3SM -SN BR OVC035 A2990 RMK MADISHF
BTV,2017-04-01 08:35,-73.1500,44.4700,M,M,M,320.00,6.00,M,29.90,M,3.00,M,OVC,M,M,M,3300.00,M,M,M,-SN BR,KBTV 010835Z AUTO 32006KT 3SM -SN BR OVC033 A2990 RMK MADISHF
BTV,2017-04-01 08:40,-73.1500,44.4700,M,M,M,320.00,5.00,M,29.90,M,2.50,M,OVC,M,M,M,3100.00,M,M,M,-SN BR,KBTV 010840Z AUTO 32005KT 2 1/2SM -SN BR OVC031 A2990 RMK MADISHF
BTV,2017-04-01 08:42,-73.1500,44.4700,33.80,30.20,86.49,320.00,5.00,0.00,29.90,M,2.50,M,OVC,M,M,M,2900.00,M,M,M,-SN BR,KBTV 010842Z 32005KT 2 1/2SM -SN BR OVC029 01/M01 A2990
BTV,2017-04-01 08:45,-73.1500,44.4700,M,M,M,320.00,6.00,M,29.90,M,2.50,M,OVC,M,M,M,2900.00,M,M,M,-SN BR,KBTV 010845Z AUTO 32006KT 2 1/2SM -SN BR OVC029 A2990 RMK MADISHF
BTV,2017-04-01 08:50,-73.1500,44.4700,M,M,M,320.00,5.00,M,29.91,M,2.50,M,FEW,OVC,M,M,400.00,2700.00,M,M,-SN BR,KBTV 010850Z AUTO 32005KT 2 1/2SM -SN BR FEW004 OVC027 A2991 RMK MADISHF
BTV,2017-04-01 08:54,-73.1500,44.4700,33.10,30.90,91.51,330.00,6.00,0.00,29.91,1013.00,3.00,M,FEW,OVC,M,M,400.00,2500.00,M,M,-SN BR,KBTV 010854Z 33006KT 3SM -SN BR FEW004 OVC025 01/M01 A2991 RMK AO2 SLP130 P0000 60005 T00061006 53001
BTV,2017-04-01 08:55,-73.1500,44.4700,M,M,M,330.00,6.00,M,29.91,M,3.00,M,FEW,OVC,M,M,400.00,2500.00,M,M,-SN BR,KBTV 010855Z AUTO 33006KT 3SM -SN BR FEW004 OVC025 A2991 RMK MADISHF
BTV,2017-04-01 09:00,-73.1500,44.4700,M,M,M,330.00,5.00,0.01,29.91,M,3.00,M,FEW,OVC,M,M,499.00,2500.00,M,M,-SN BR,KBTV 010900Z AUTO 33005KT 3SM -SN BR FEW004 OVC025 A2991 RMK P0001 MADISHF
BTV,2017-04-01 09:05,-73.1500,44.4700,M,M,M,320.00,5.00,0.01,29.91,M,3.00,M,SCT,OVC,M,M,499.00,2500.00,M,M,-SN BR,KBTV 010905Z AUTO 32005KT 3SM -SN BR SCT004 OVC025 A2991 RMK P0001 MADISHF
BTV,2017-04-01 09:10,-73.1500,44.4700,M,M,M,330.00,5.00,0.01,29.91,M,3.00,M,SCT,OVC,M,M,499.00,2500.00,M,M,-SN BR,KBTV 010910Z AUTO 33005KT 3SM -SN BR SCT004 OVC025 A2991 RMK P0001 MADISHF
BTV,2017-04-01 09:11,-73.1500,44.4700,33.10,30.90,91.51,330.00,5.00,0.01,29.91,M,1.00,M,SCT,OVC,M,M,500.00,2500.00,M,M,-SN BR,KBTV 010911Z 33005KT 1SM R15/P6000FT -SN BR SCT005 OVC025 01/M01 A2991 RMK AO2 P0001 T00061006
BTV,2017-04-01 09:15,-73.1500,44.4700,M,M,M,330.00,4.00,0.01,29.91,M,1.00,M,SCT,BKN,OVC,M,499.00,1800.00,2400.00,M,-SN BR,KBTV 010915Z AUTO 33004KT 1SM -SN BR SCT004 BKN018 OVC024 A2991 RMK P0001 MADISHF
BTV,2017-04-01 09:20,-73.1500,44.4700,M,M,M,320.00,4.00,0.01,29.91,M,1.00,M,BKN,BKN,OVC,M,499.00,1800.00,2400.00,M,-SN BR,KBTV 010920Z AUTO 32004KT 1SM -SN BR BKN004 BKN018 OVC024 A2991 RMK P0001 MADISHF
BTV,2017-04-01 09:25,-73.1500,44.4700,33.10,30.90,91.51,330.00,5.00,0.01,29.91,M,1.00,M,BKN,BKN,OVC,M,500.00,1800.00,2400.00,M,-SN BR,KBTV 010925Z 33005KT 1SM R15/P6000FT -SN BR BKN005 BKN018 OVC024 01/M01 A2991 RMK AO2 P0001 T00061006
BTV,2017-04-01 09:30,-73.1500,44.4700,M,M,M,330.00,3.00,0.01,29.92,M,2.00,M,BKN,OVC,M,M,499.00,2400.00,M,M,-SN BR,KBTV 010930Z AUTO 33003KT 2SM -SN BR BKN004 OVC024 A2992 RMK P0001  VIS 1V2 1/2 MADISHF
BTV,2017-04-01 09:31,-73.1500,44.4700,33.10,32.00,95.67,330.00,3.00,0.01,29.92,M,2.00,M,BKN,OVC,M,M,500.00,2400.00,M,M,-SN BR,KBTV 010931Z 33003KT 2SM -SN BR BKN005 OVC024 01/00 A2992 RMK AO2 VIS 1V2 1/2 P0001 T00060000
BTV,2017-04-01 09:35,-73.1500,44.4700,M,M,M,340.00,4.00,0.02,29.92,M,2.00,M,BKN,BKN,OVC,M,499.00,800.00,2400.00,M,-SN BR,KBTV 010935Z AUTO 34004KT 2SM -SN BR BKN004 BKN008 OVC024 A2992 RMK P0002  VIS 1V2 1/2 MADISHF
BTV,2017-04-01 09:38,-73.1500,44.4700,33.80,30.20,86.49,350.00,4.00,0.00,29.92,M,1.50,M,BKN,OVC,M,M,500.00,2200.00,M,M,-SN BR,KBTV 010938Z 35004KT 1 1/2SM -SN BR BKN005 OVC022 01/M01 A2992
BTV,2017-04-01 09:40,-73.1500,44.4700,M,M,M,350.00,4.00,0.02,29.92,M,1.50,M,BKN,OVC,M,M,499.00,1999.00,M,M,-SN BR,KBTV 010940Z AUTO 35004KT 1 1/2SM -SN BR BKN004 OVC019 A2992 RMK P0002  VIS 1V2 1/2 MADISHF
BTV,2017-04-01 09:45,-73.1500,44.4700,M,M,M,350.00,3.00,0.02,29.92,M,1.50,M,BKN,BKN,OVC,M,499.00,800.00,1999.00,M,-SN BR,KBTV 010945Z AUTO 35003KT 1 1/2SM -SN BR BKN004 BKN008 OVC019 A2992 RMK P0002  VIS 1V2 1/2 MADISHF
BTV,2017-04-01 09:50,-73.1500,44.4700,M,M,M,350.00,5.00,0.02,29.92,M,1.50,M,BKN,BKN,OVC,M,499.00,800.00,1999.00,M,-SN BR,KBTV 010950Z AUTO 35005KT 1 1/2SM -SN BR BKN004 BKN008 OVC019 A2992 RMK P0002  VIS 1V2 1/2 MADISHF
BTV,2017-04-01 09:54,-73.1500,44.4700,33.10,30.90,91.51,340.00,5.00,0.02,29.92,1013.50,0.75,M,SCT,BKN,OVC,M,400.00,800.00,1800.00,M,-SN BR,KBTV 010954Z 34005KT 3/4SM R15/P6000FT -SN BR SCT004 BKN008 OVC018 01/M01 A2992 RMK AO2 SLP135 VIS 3/4V1 1/2 P0002 T00061006
BTV,2017-04-01 09:55,-73.1500,44.4700,M,M,M,340.00,5.00,M,29.92,M,1.00,M,SCT,BKN,OVC,M,400.00,800.00,1800.00,M,-SN BR,KBTV 010955Z AUTO 34005KT 1SM -SN BR SCT004 BKN008 OVC018 A2992 RMK MADISHF
BTV,2017-04-01 09:56,-73.1500,44.4700,33.10,30.90,91.51,340.00,5.00,0.00,29.92,M,1.00,M,SCT,BKN,OVC,M,400.00,800.00,1800.00,M,-SN BR,KBTV 010956Z 34005KT 1SM R15/P6000FT -SN BR SCT004 BKN008 OVC018 01/M01 A2992 RMK AO2 P0000 T00061006
BTV,2017-04-01 10:00,-73.1500,44.4700,M,M,M,350.00,5.00,0.01,29.92,M,1.00,M,SCT,SCT,OVC,M,400.00,900.00,1800.00,M,-SN BR,KBTV 011000Z AUTO 35005KT 1SM -SN BR SCT004 SCT009 OVC018 A2992 RMK P0001 MADISHF
BTV,2017-04-01 10:05,-73.1500,44.4700,33.10,30.90,91.51,350.00,5.00,0.01,29.92,M,1.00,M,FEW,SCT,OVC,M,400.00,900.00,1800.00,M,-SN BR,KBTV 011005Z 35005KT 1SM R15/P6000FT -SN BR FEW004 SCT009 OVC018 01/M01 A2992 RMK AO2 P0001 T00061006
BTV,2017-04-01 10:10,-73.1500,44.4700,M,M,M,350.00,6.00,0.01,29.92,M,1.00,M,FEW,FEW,OVC,M,400.00,900.00,1800.00,M,-SN BR,KBTV 011010Z AUTO 35006KT 1SM -SN BR FEW004 FEW009 OVC018 A2992 RMK P0001  VIS 3/4V1 1/2 MADISHF
BTV,2017-04-01 10:15,-73.1500,44.4700,M,M,M,350.00,6.00,0.02,29.92,M,1.00,M,VV ,M,M,M,1600.00,M,M,M,-SN BR,KBTV 011015Z AUTO 35006KT 1SM -SN BR VV016 A2992 RMK P0002  VIS 3/4V1 1/2 MADISHF
BTV,2017-04-01 10:20,-73.1500,44.4700,M,M,M,350.00,5.00,0.02,29.93,M,1.00,M,FEW,OVC,M,M,499.00,1500.00,M,M,-SN BR,KBTV 011020Z AUTO 35005KT 1SM -SN BR FEW004 OVC015 A2993 RMK P0002  VIS 3/4V1 1/2 MADISHF
BTV,2017-04-01 10:25,-73.1500,44.4700,M,M,M,340.00,5.00,0.02,29.93,M,1.00,M,FEW,OVC,M,M,499.00,1500.00,M,M,-SN BR,KBTV 011025Z AUTO 34005KT 1SM -SN BR FEW004 OVC015 A2993 RMK P0002  VIS 3/4V1 1/2 MADISHF
BTV,2017-04-01 10:30,-73.1500,44.4700,M,M,M,350.00,5.00,0.02,29.93,M,1.00,M,VV ,M,M,M,1500.00,M,M,M,-SN BR,KBTV 011030Z AUTO 35005KT 1SM -SN BR VV015 A2993 RMK P0002  VIS 3/4V1 1/2 MADISHF
BTV,2017-04-01 10:35,-73.1500,44.4700,M,M,M,340.00,5.00,0.03,29.93,M,1.00,M,FEW,OVC,M,M,400.00,1500.00,M,M,-SN BR,KBTV 011035Z AUTO 34005KT 1SM -SN BR FEW004 OVC015 A2993 RMK P0003  VIS 3/4V1 1/2 MADISHF
BTV,2017-04-01 10:40,-73.1500,44.4700,M,M,M,340.00,5.00,0.03,29.93,M,1.00,M,FEW,OVC,M,M,400.00,1500.00,M,M,-SN BR,KBTV 011040Z AUTO 34005KT 1SM -SN BR FEW004 OVC015 A2993 RMK P0003  VIS 3/4V1 1/2 MADISHF
BTV,2017-04-01 10:41,-73.1500,44.4700,33.10,30.90,91.51,340.00,5.00,0.03,29.93,M,0.50,M,FEW,OVC,M,M,400.00,1500.00,M,M,SN FG,KBTV 011041Z 34005KT 1/2SM R15/5000V6000FT SN FG FEW004 OVC015 01/M01 A2993 RMK AO2 VIS 1/2V1 1/2 P0003 T00061006
BTV,2017-04-01 10:45,-73.1500,44.4700,M,M,M,340.00,5.00,0.03,29.93,M,0.50,M,FEW,OVC,M,M,400.00,1400.00,M,M,SN FG,KBTV 011045Z AUTO 34005KT 1/2SM SN FG FEW004 OVC014 A2993 RMK P0003  VIS 1/2V1 1/2 MADISHF
BTV,2017-04-01 10:50,-73.1500,44.4700,M,M,M,340.00,5.00,0.04,29.93,M,0.50,M,VV ,M,M,M,1400.00,M,M,M,SN FG,KBTV 011050Z AUTO 34005KT 1/2SM SN FG VV014 A2993 RMK P0004  VIS 1/2V1 1/4 MADISHF
BTV,2017-04-01 10:54,-73.1500,44.4700,33.10,30.90,91.51,350.00,5.00,0.04,29.93,1014.00,0.75,M,FEW,OVC,M,M,300.00,1400.00,M,M,-SN BR,KBTV 011054Z 35005KT 3/4SM R15/5000V6000FT -SN BR FEW003 OVC014 01/M01 A2993 RMK AO2 SLP140 VIS 1/2V1 1/4 P0004 T00061006
BTV,2017-04-01 10:55,-73.1500,44.4700,M,M,M,350.00,5.00,M,29.94,M,0.75,M,FEW,OVC,M,M,300.00,1400.00,M,M,-SN BR,KBTV 011055Z AUTO 35005KT 1SM -SN BR FEW003 OVC014 A2994 RMK MADISHF
BTV,2017-04-01 10:57,-73.1500,44.4700,33.10,30.90,91.51,350.00,5.00,0.00,29.94,M,0.50,M,FEW,OVC,M,M,300.00,1400.00,M,M,SN FG,KBTV 011057Z 35005KT 1/2SM R15/4000V5500FT SN FG FEW003 OVC014 01/M01 A2994 RMK AO2 VIS 1/2V1 1/4 P0000 T00061006
BTV,2017-04-01 11:00,-73.1500,44.4700,M,M,M,350.00,4.00,0.01,29.94,M,0.50,M,FEW,OVC,M,M,300.00,1400.00,M,M,SN FG,KBTV 011100Z AUTO 35004KT 1/2SM SN FG FEW003 OVC014 A2994 RMK P0001  VIS 1/2V1 1/4 MADISHF
BTV,2017-04-01 11:05,-73.1500,44.4700,M,M,M,360.00,5.00,0.01,29.94,M,0.50,M,FEW,OVC,M,M,300.00,1400.00,M,M,SN FG,KBTV 011105Z AUTO 36005KT 1/2SM SN FG FEW003 OVC014 A2994 RMK P0001  VIS 1/2V1 1/4 MADISHF
BTV,2017-04-01 11:10,-73.1500,44.4700,M,M,M,360.00,4.00,0.01,29.94,M,0.50,M,FEW,OVC,M,M,300.00,1400.00,M,M,SN FG,KBTV 011110Z AUTO 36004KT 1/2SM SN FG FEW003 OVC014 A2994 RMK P0001  VIS 1/2V1 1/4 MADISHF
BTV,2017-04-01 11:15,-73.1500,44.4700,M,M,M,360.00,4.00,0.02,29.94,M,0.50,M,FEW,OVC,M,M,300.00,1400.00,M,M,SN FG,KBTV 011115Z AUTO 36004KT 1/2SM SN FG FEW003 OVC014 A2994 RMK P0002  VIS 1/2V1 1/4 MADISHF
BTV,2017-04-01 11:20,-73.1500,44.4700,M,M,M,360.00,4.00,0.02,29.94,M,0.50,M,FEW,OVC,M,M,300.00,1400.00,M,M,SN FG,KBTV 011120Z AUTO 36004KT 1/2SM SN FG FEW003 OVC014 A2994 RMK P0002  VIS 1/2V1 1/4 MADISHF
BTV,2017-04-01 11:25,-73.1500,44.4700,M,M,M,10.00,4.00,0.02,29.94,M,0.50,M,FEW,OVC,M,M,200.00,1400.00,M,M,-SN FG,KBTV 011125Z AUTO 01004KT 1/2SM -SN FG FEW002 OVC014 A2994 RMK P0002  VIS 1/2V1 1/4 MADISHF
BTV,2017-04-01 11:30,-73.1500,44.4700,M,M,M,360.00,4.00,0.02,29.94,M,0.50,M,FEW,OVC,M,M,200.00,1500.00,M,M,-SN FG,KBTV 011130Z AUTO 36004KT 1/2SM -SN FG FEW002 OVC015 A2994 RMK P0002  VIS 1/2V1 1/4 MADISHF
BTV,2017-04-01 11:32,-73.1500,44.4700,33.10,32.00,95.67,360.00,4.00,0.03,29.95,M,0.50,M,FEW,OVC,M,M,200.00,1500.00,M,M,-SN FG,KBTV 011132Z 36004KT 1/2SM R15/4500V5000FT -SN FG FEW002 OVC015 01/00 A2995 RMK AO2 VIS 1/2V1 1/4 P0003 T00060000
BTV,2017-04-01 11:35,-73.1500,44.4700,M,M,M,360.00,4.00,0.03,29.95,M,0.50,M,FEW,OVC,M,M,200.00,1500.00,M,M,-SN FG,KBTV 011135Z AUTO 36004KT 1/2SM -SN FG FEW002 OVC015 A2995 RMK P0003  VIS 1/2V1 1/4 MADISHF
BTV,2017-04-01 11:40,-73.1500,44.4700,M,M,M,360.00,4.00,0.03,29.95,M,0.50,M,FEW,OVC,M,M,200.00,1600.00,M,M,-SN FG,KBTV 011140Z AUTO 36004KT 1/2SM -SN FG FEW002 OVC016 A2995 RMK P0003  VIS 1/2V1 1/4 MADISHF
BTV,2017-04-01 11:45,-73.1500,44.4700,M,M,M,360.00,4.00,0.03,29.95,M,0.50,M,FEW,OVC,M,M,300.00,1600.00,M,M,-SN FG,KBTV 011145Z AUTO 36004KT 1/2SM -SN FG FEW003 OVC016 A2995 RMK P0003  VIS 1/2V1 1/4 MADISHF
BTV,2017-04-01 11:50,-73.1500,44.4700,M,M,M,360.00,4.00,0.04,29.95,M,0.75,M,FEW,OVC,M,M,300.00,1600.00,M,M,-SN BR,KBTV 011150Z AUTO 36004KT 1SM -SN BR FEW003 OVC016 A2995 RMK P0004  VIS 1/2V1 1/4 4/007 MADISHF
BTV,2017-04-01 11:54,-73.1500,44.4700,33.10,32.00,95.67,360.00,4.00,0.04,29.95,1014.60,0.75,M,FEW,OVC,M,M,300.00,1600.00,M,M,-SN BR,KBTV 011154Z 36004KT 3/4SM R15/4500V5500FT -SN BR FEW003 OVC016 01/00 A2995 RMK AO2 SLP146 VIS 1/2V1 1/4 4/007 P0004 60015 70076 T00060000 10006 20000 53015
BTV,2017-04-01 11:55,-73.1500,44.4700,M,M,M,360.00,5.00,M,29.95,M,0.75,M,FEW,OVC,M,M,300.00,1600.00,M,M,-SN BR,KBTV 011155Z AUTO 36005KT 1SM -SN BR FEW003 OVC016 A2995 RMK MADISHF
BTV,2017-04-01 11:57,-73.1500,44.4700,33.10,32.00,95.67,360.00,4.00,0.00,29.95,M,0.50,M,FEW,OVC,M,M,300.00,1600.00,M,M,-SN FG,KBTV 011157Z 36004KT 1/2SM R15/4500V5000FT -SN FG FEW003 OVC016 01/00 A2995 RMK AO2 VIS 1/2V1 1/4 P0000 T00060000
BTV,2017-04-01 12:00,-73.1500,44.4700,M,M,M,10.00,5.00,M,29.95,M,0.50,M,FEW,OVC,M,M,200.00,1600.00,M,M,SN FG,KBTV 011200Z AUTO 01005KT 1/2SM SN FG FEW002 OVC016 A2995 RMK  VIS 1/2V1 1/4 MADISHF
BTV,2017-04-01 12:05,-73.1500,44.4700,M,M,M,10.00,5.00,M,29.95,M,0.50,M,FEW,OVC,M,M,200.00,1600.00,M,M,SN FG,KBTV 011205Z AUTO 01005KT 1/2SM SN FG FEW002 OVC016 A2995 RMK  VIS 1/2V1 1/4 MADISHF
BTV,2017-04-01 12:10,-73.1500,44.4700,M,M,M,10.00,5.00,0.01,29.95,M,0.50,M,FEW,OVC,M,M,200.00,1600.00,M,M,-SN FG,KBTV 011210Z AUTO 01005KT 1/2SM -SN FG FEW002 OVC016 A2995 RMK P0001  VIS 1/2V1 1/4 MADISHF
BTV,2017-04-01 12:15,-73.1500,44.4700,M,M,M,360.00,4.00,0.01,29.96,M,0.50,M,FEW,OVC,M,M,200.00,1600.00,M,M,-SN FG,KBTV 011215Z AUTO 36004KT 1/2SM -SN FG FEW002 OVC016 A2996 RMK P0001  VIS 1/2V1 1/4 MADISHF
BTV,2017-04-01 12:20,-73.1500,44.4700,M,M,M,360.00,5.00,0.01,29.96,M,0.50,M,FEW,OVC,M,M,200.00,1600.00,M,M,-SN FG,KBTV 011220Z AUTO 36005KT 1/2SM -SN FG FEW002 OVC016 A2996 RMK P0001  VIS 1/2V1 1/4 MADISHF
BTV,2017-04-01 12:25,-73.1500,44.4700,M,M,M,360.00,5.00,0.02,29.96,M,0.50,M,FEW,OVC,M,M,200.00,1600.00,M,M,-SN FG,KBTV 011225Z AUTO 36005KT 1/2SM -SN FG FEW002 OVC016 A2996 RMK P0002  VIS 1/2V1 1/4 MADISHF
BTV,2017-04-01 12:30,-73.1500,44.4700,M,M,M,360.00,5.00,0.02,29.96,M,0.50,M,FEW,OVC,M,M,200.00,1800.00,M,M,-SN FG,KBTV 011230Z AUTO 36005KT 1/2SM -SN FG FEW002 OVC018 A2996 RMK P0002  VIS 1/2V1 1/4 MADISHF
BTV,2017-04-01 12:35,-73.1500,44.4700,M,M,M,360.00,5.00,0.02,29.96,M,0.50,M,FEW,OVC,M,M,200.00,1800.00,M,M,-SN FG,KBTV 011235Z AUTO 36005KT 1/2SM -SN FG FEW002 OVC018 A2996 RMK P0002  VIS 1/2V1 1/4 MADISHF
BTV,2017-04-01 12:40,-73.1500,44.4700,M,M,M,360.00,4.00,0.02,29.96,M,0.50,M,FEW,OVC,M,M,200.00,1800.00,M,M,SN FG,KBTV 011240Z AUTO 36004KT 1/2SM SN FG FEW002 OVC018 A2996 RMK P0002  VIS 1/2V1 1/4 MADISHF
BTV,2017-04-01 12:45,-73.1500,44.4700,M,M,M,360.00,4.00,0.02,29.96,M,0.50,M,FEW,OVC,M,M,300.00,1800.00,M,M,-SN FG,KBTV 011245Z AUTO 36004KT 1/2SM -SN FG FEW003 OVC018 A2996 RMK P0002  VIS 1/2V1 1/4 MADISHF
BTV,2017-04-01 12:50,-73.1500,44.4700,M,M,M,360.00,4.00,0.03,29.96,M,0.50,M,FEW,OVC,M,M,300.00,1800.00,M,M,-SN FG,KBTV 011250Z AUTO 36004KT 1/2SM -SN FG FEW003 OVC018 A2996 RMK P0003  VIS 1/2V1 1/4 MADISHF
BTV,2017-04-01 12:54,-73.1500,44.4700,33.10,32.00,95.67,360.00,4.00,0.03,29.96,1014.90,0.75,M,FEW,OVC,M,M,300.00,1800.00,M,M,-SN BR,KBTV 011254Z 36004KT 3/4SM R15/4500V5500FT -SN BR FEW003 OVC018 01/00 A2996 RMK AO2 SLP149 VIS 1/2V1 1/4 P0003 T00060000
BTV,2017-04-01 12:55,-73.1500,44.4700,M,M,M,360.00,4.00,M,29.96,M,1.00,M,FEW,OVC,M,M,300.00,1800.00,M,M,-SN BR,KBTV 011255Z AUTO 36004KT 1SM -SN BR FEW003 OVC018 A2996 RMK MADISHF
BTV,2017-04-01 13:00,-73.1500,44.4700,M,M,M,360.00,4.00,M,29.96,M,0.75,M,FEW,OVC,M,M,300.00,1800.00,M,M,-SN BR,KBTV 011300Z AUTO 36004KT 1SM -SN BR FEW003 OVC018 A2996 RMK  VIS 1/2V1 1/4 MADISHF
BTV,2017-04-01 13:05,-73.1500,44.4700,M,M,M,360.00,4.00,0.01,29.96,M,0.50,M,FEW,OVC,M,M,300.00,1600.00,M,M,SN FG,KBTV 011305Z AUTO 36004KT 1/2SM SN FG FEW003 OVC016 A2996 RMK P0001  VIS 1/2V1 1/4 MADISHF
BTV,2017-04-01 13:10,-73.1500,44.4700,M,M,M,360.00,4.00,0.01,29.96,M,0.50,M,FEW,OVC,M,M,300.00,1400.00,M,M,SN FG,KBTV 011310Z AUTO 36004KT 1/2SM SN FG FEW003 OVC014 A2996 RMK P0001  VIS 1/2V1 1/4 MADISHF
BTV,2017-04-01 13:14,-73.1500,44.4700,34.00,32.00,92.29,360.00,4.00,0.01,29.96,M,0.50,M,FEW,OVC,M,M,300.00,1400.00,M,M,SN FG,KBTV 011314Z 36004KT 1/2SM R15/3500V4000FT SN FG FEW003 OVC014 01/00 A2996 RMK AO2 VIS 1/2V1 1/4 P0001 T00110000
BTV,2017-04-01 13:15,-73.1500,44.4700,M,M,M,360.00,4.00,0.02,29.96,M,0.50,M,FEW,OVC,M,M,300.00,1200.00,M,M,SN FG,KBTV 011315Z AUTO 36004KT 1/2SM SN FG FEW003 OVC012 A2996 RMK P0002  VIS 1/2V1 1/4 MADISHF
BTV,2017-04-01 13:20,-73.1500,44.4700,M,M,M,10.00,3.00,0.02,29.96,M,0.50,M,VV ,M,M,M,1100.00,M,M,M,SN FG,KBTV 011320Z AUTO 01003KT 1/2SM SN FG VV011 A2996 RMK P0002  VIS 1/2V1 1/4 MADISHF
BTV,2017-04-01 13:25,-73.1500,44.4700,M,M,M,10.00,4.00,0.02,29.96,M,0.50,M,VV ,M,M,M,999.00,M,M,M,SN FG,KBTV 011325Z AUTO 01004KT 1/2SM SN FG VV009 A2996 RMK P0002  VIS 1/2V1 1/4 MADISHF
BTV,2017-04-01 13:30,-73.1500,44.4700,M,M,M,360.00,3.00,0.03,29.96,M,0.50,M,VV ,M,M,M,900.00,M,M,M,SN FG,KBTV 011330Z AUTO 36003KT 1/2SM SN FG VV009 A2996 RMK P0003  VIS 1/2V1 1/4 MADISHF
BTV,2017-04-01 13:35,-73.1500,44.4700,M,M,M,360.00,3.00,0.04,29.97,M,0.50,M,VV ,M,M,M,900.00,M,M,M,SN FG,KBTV 011335Z AUTO 36003KT 1/2SM SN FG VV009 A2997 RMK P0004  VIS 1/2V1 1/4 MADISHF
BTV,2017-04-01 13:36,-73.1500,44.4700,34.00,32.00,92.29,10.00,3.00,0.04,29.97,M,0.50,M,VV ,M,M,M,900.00,M,M,M,SN FG,KBTV 011336Z 01003KT 1/2SM R15/2800V3500FT SN FG VV009 01/00 A2997 RMK AO2 VIS 1/2V1 1/4 P0004 T00110000
BTV,2017-04-01 13:40,-73.1500,44.4700,M,M,M,360.00,3.00,0.04,29.97,M,0.50,M,VV ,M,M,M,900.00,M,M,M,SN FG,KBTV 011340Z AUTO 36003KT 1/2SM SN FG VV009 A2997 RMK P0004  VIS 1/4V3/4 MADISHF
BTV,2017-04-01 13:45,-73.1500,44.4700,M,M,M,360.00,3.00,0.05,29.97,M,0.50,M,VV ,M,M,M,999.00,M,M,M,SN FG,KBTV 011345Z AUTO 36003KT 1/2SM SN FG VV009 A2997 RMK P0005  VIS 1/4V1/2 MADISHF
BTV,2017-04-01 13:50,-73.1500,44.4700,M,M,M,360.00,4.00,0.05,29.97,M,0.50,M,VV ,M,M,M,999.00,M,M,M,SN FG,KBTV 011350Z AUTO 36004KT 1/2SM SN FG VV009 A2997 RMK P0005  SNINCR 1/7 VIS 1/4V1/2 MADISHF
BTV,2017-04-01 13:54,-73.1500,44.4700,34.00,32.00,92.29,360.00,3.00,0.06,29.97,1015.20,0.50,M,VV ,M,M,M,1000.00,M,M,M,SN FG,KBTV 011354Z 36003KT 1/2SM R15/3500V4000FT SN FG VV010 01/00 A2997 RMK AO2 SLP152 SNINCR 1/7 VIS 1/4V1/2 P0006 T00110000
BTV,2017-04-01 13:55,-73.1500,44.4700,M,M,M,360.00,3.00,M,29.97,M,0.50,M,VV ,M,M,M,999.00,M,M,M,SN FG,KBTV 011355Z AUTO 36003KT 1/2SM SN FG VV009 A2997 RMK MADISHF
BTV,2017-04-01 14:00,-73.1500,44.4700,M,M,M,350.00,3.00,M,29.97,M,0.75,M,FEW,OVC,M,M,200.00,1100.00,M,M,-SN BR,KBTV 011400Z AUTO 35003KT 1SM -SN BR FEW002 OVC011 A2997 RMK MADISHF
BTV,2017-04-01 14:04,-73.1500,44.4700,34.00,32.00,92.29,360.00,3.00,0.00,29.97,M,0.75,M,FEW,OVC,M,M,200.00,1100.00,M,M,-SN BR,KBTV 011404Z 36003KT 3/4SM R15/4000V4500FT -SN BR FEW002 OVC011 01/00 A2997 RMK AO2 P0000 T00110000
BTV,2017-04-01 14:05,-73.1500,44.4700,M,M,M,360.00,3.00,M,29.97,M,0.75,M,FEW,OVC,M,M,200.00,1100.00,M,M,-SN BR,KBTV 011405Z AUTO 36003KT 1SM -SN BR FEW002 OVC011 A2997 RMK MADISHF
BTV,2017-04-01 14:10,-73.1500,44.4700,M,M,M,350.00,3.00,0.01,29.97,M,0.75,M,SCT,OVC,M,M,200.00,1300.00,M,M,-SN BR,KBTV 011410Z AUTO 35003KT 1SM -SN BR SCT002 OVC013 A2997 RMK P0001 MADISHF
BTV,2017-04-01 14:15,-73.1500,44.4700,M,M,M,350.00,3.00,0.01,29.97,M,0.75,M,SCT,OVC,M,M,200.00,1300.00,M,M,-SN BR,KBTV 011415Z AUTO 35003KT 1SM -SN BR SCT002 OVC013 A2997 RMK P0001  VIS 1/2V3/4 MADISHF
BTV,2017-04-01 14:20,-73.1500,44.4700,M,M,M,350.00,3.00,0.01,29.97,M,0.50,M,SCT,OVC,M,M,200.00,1300.00,M,M,SN FG,KBTV 011420Z AUTO 35003KT 1/2SM SN FG SCT002 OVC013 A2997 RMK P0001  VIS 1/2V3/4 MADISHF
BTV,2017-04-01 14:25,-73.1500,44.4700,M,M,M,350.00,3.00,0.01,29.97,M,0.50,M,BKN,OVC,M,M,200.00,1300.00,M,M,SN FG,KBTV 011425Z AUTO 35003KT 1/2SM SN FG BKN002 OVC013 A2997 RMK P0001  VIS 1/2V3/4 MADISHF
BTV,2017-04-01 14:30,-73.1500,44.4700,M,M,M,350.00,3.00,0.02,29.97,M,0.50,M,BKN,OVC,M,M,200.00,1500.00,M,M,SN FG,KBTV 011430Z AUTO 35003KT 1/2SM SN FG BKN002 OVC015 A2997 RMK P0002  VIS 1/2V3/4 MADISHF
BTV,2017-04-01 14:31,-73.1500,44.4700,34.00,32.00,92.29,350.00,4.00,0.02,29.97,M,0.50,M,BKN,OVC,M,M,200.00,1500.00,M,M,SN FG,KBTV 011431Z 35004KT 1/2SM R15/3500V4000FT SN FG BKN002 OVC015 01/00 A2997 RMK AO2 VIS 1/2V3/4 P0002 T00110000
BTV,2017-04-01 14:35,-73.1500,44.4700,M,M,M,340.00,3.00,0.02,29.97,M,0.50,M,BKN,OVC,M,M,200.00,1500.00,M,M,-SN FG,KBTV 011435Z AUTO 34003KT 1/2SM -SN FG BKN002 OVC015 A2997 RMK P0002  VIS 1/2V3/4 MADISHF
BTV,2017-04-01 14:40,-73.1500,44.4700,M,M,M,340.00,3.00,0.02,29.97,M,0.75,M,BKN,OVC,M,M,200.00,1500.00,M,M,-SN BR,KBTV 011440Z AUTO 34003KT 1SM -SN BR BKN002 OVC015 A2997 RMK P0002  VIS 1/2V1 MADISHF
BTV,2017-04-01 14:45,-73.1500,44.4700,M,M,M,330.00,4.00,0.03,29.98,M,0.75,M,BKN,OVC,M,M,200.00,1500.00,M,M,-SN BR,KBTV 011445Z AUTO 33004KT 1SM -SN BR BKN002 OVC015 A2998 RMK P0003  VIS 1/2V1 MADISHF
BTV,2017-04-01 14:50,-73.1500,44.4700,M,M,M,330.00,4.00,0.03,29.98,M,0.75,M,BKN,OVC,M,M,200.00,1500.00,M,M,-SN BR,KBTV 011450Z AUTO 33004KT 1SM -SN BR BKN002 OVC015 A2998 RMK P0003  VIS 1/2V1 MADISHF
BTV,2017-04-01 14:54,-73.1500,44.4700,34.00,32.00,92.29,340.00,4.00,0.03,29.98,1015.40,0.75,M,BKN,OVC,M,M,200.00,1500.00,M,M,-SN BR,KBTV 011454Z 34004KT 3/4SM R15/4000V5500FT -SN BR BKN002 OVC015 01/00 A2998 RMK AO2 SLP154 VIS 1/2V1 P0003 60012 T00110000 53005
BTV,2017-04-01 14:55,-73.1500,44.4700,M,M,M,340.00,4.00,M,29.98,M,1.00,M,BKN,OVC,M,M,200.00,1500.00,M,M,-SN BR,KBTV 011455Z AUTO 34004KT 1SM -SN BR BKN002 OVC015 A2998 RMK MADISHF
BTV,2017-04-01 15:00,-73.1500,44.4700,M,M,M,350.00,4.00,M,29.97,M,1.00,M,BKN,OVC,M,M,300.00,1500.00,M,M,-SN BR,KBTV 011500Z AUTO 35004KT 1SM -SN BR BKN003 OVC015 A2997 RMK MADISHF
BTV,2017-04-01 15:01,-73.1500,44.4700,34.00,32.00,92.29,350.00,4.00,0.00,29.97,M,1.00,M,BKN,OVC,M,M,300.00,1500.00,M,M,-SN BR,KBTV 011501Z 35004KT 1SM R15/4000V5500FT -SN BR BKN003 OVC015 01/00 A2997 RMK AO2 P0000 T00110000
BTV,2017-04-01 15:05,-73.1500,44.4700,M,M,M,340.00,4.00,0.01,29.97,M,1.00,M,BKN,OVC,M,M,300.00,1500.00,M,M,-SN BR,KBTV 011505Z AUTO 34004KT 1SM -SN BR BKN003 OVC015 A2997 RMK P0001 MADISHF
BTV,2017-04-01 15:10,-73.1500,44.4700,M,M,M,340.00,4.00,0.01,29.97,M,1.00,M,BKN,OVC,M,M,300.00,1500.00,M,M,-SN BR,KBTV 011510Z AUTO 34004KT 1SM -SN BR BKN003 OVC015 A2997 RMK P0001 MADISHF
BTV,2017-04-01 15:15,-73.1500,44.4700,M,M,M,340.00,3.00,0.02,29.97,M,0.75,M,BKN,OVC,M,M,300.00,1500.00,M,M,-SN BR,KBTV 011515Z AUTO 34003KT 1SM -SN BR BKN003 OVC015 A2997 RMK P0002 MADISHF
BTV,2017-04-01 15:19,-73.1500,44.4700,34.00,32.00,92.29,330.00,4.00,0.02,29.97,M,0.75,M,SCT,OVC,M,M,300.00,1300.00,M,M,-SN BR,KBTV 011519Z 33004KT 3/4SM R15/3500V4500FT -SN BR SCT003 OVC013 01/00 A2997 RMK AO2 P0002 T00110000
BTV,2017-04-01 15:20,-73.1500,44.4700,M,M,M,330.00,4.00,0.02,29.97,M,0.75,M,SCT,OVC,M,M,300.00,1300.00,M,M,-SN BR,KBTV 011520Z AUTO 33004KT 1SM -SN BR SCT003 OVC013 A2997 RMK P0002 MADISHF
BTV,2017-04-01 15:25,-73.1500,44.4700,M,M,M,350.00,3.00,0.02,29.97,M,0.50,M,SCT,OVC,M,M,300.00,1300.00,M,M,SN FG,KBTV 011525Z AUTO 35003KT 1/2SM SN FG SCT003 OVC013 A2997 RMK P0002  VIS 1/2V3/4 MADISHF
BTV,2017-04-01 15:30,-73.1500,44.4700,M,M,M,350.00,3.00,0.03,29.97,M,0.50,M,SCT,OVC,M,M,300.00,1300.00,M,M,SN FG,KBTV 011530Z AUTO 35003KT 1/2SM SN FG SCT003 OVC013 A2997 RMK P0003  VIS 1/2V3/4 MADISHF
BTV,2017-04-01 15:35,-73.1500,44.4700,M,M,M,350.00,3.00,0.03,29.97,M,0.50,M,SCT,OVC,M,M,300.00,1300.00,M,M,SN FG,KBTV 011535Z AUTO 35003KT 1/2SM SN FG SCT003 OVC013 A2997 RMK P0003  VIS 1/2V3/4 MADISHF
BTV,2017-04-01 15:40,-73.1500,44.4700,M,M,M,340.00,3.00,0.04,29.97,M,0.50,M,SCT,OVC,M,M,300.00,1300.00,M,M,SN FG,KBTV 011540Z AUTO 34003KT 1/2SM SN FG SCT003 OVC013 A2997 RMK P0004  VIS 1/2V3/4 MADISHF
BTV,2017-04-01 15:45,-73.1500,44.4700,M,M,M,340.00,3.00,0.04,29.97,M,0.50,M,SCT,OVC,M,M,300.00,1300.00,M,M,SN FG,KBTV 011545Z AUTO 34003KT 1/2SM SN FG SCT003 OVC013 A2997 RMK P0004  VIS 1/2V3/4 MADISHF
BTV,2017-04-01 15:50,-73.1500,44.4700,M,M,M,340.00,3.00,0.04,29.97,M,0.75,M,SCT,OVC,M,M,300.00,1300.00,M,M,-SN BR,KBTV 011550Z AUTO 34003KT 1SM -SN BR SCT003 OVC013 A2997 RMK P0004  VIS 3/4V1 MADISHF
BTV,2017-04-01 15:54,-73.1500,44.4700,35.10,32.00,88.33,340.00,3.00,0.05,29.97,1015.30,0.75,M,SCT,OVC,M,M,300.00,1300.00,M,M,-SN BR,KBTV 011554Z 34003KT 3/4SM R15/4500V6000FT -SN BR SCT003 OVC013 02/00 A2997 RMK AO2 SLP153 VIS 3/4V1 P0005 T00170000
BTV,2017-04-01 15:55,-73.1500,44.4700,M,M,M,340.00,4.00,M,29.97,M,1.00,M,SCT,OVC,M,M,300.00,1300.00,M,M,-SN BR,KBTV 011555Z AUTO 34004KT 1SM -SN BR SCT003 OVC013 A2997 RMK MADISHF
BTV,2017-04-01 16:00,-73.1500,44.4700,M,M,M,340.00,3.00,M,29.97,M,0.75,M,SCT,OVC,M,M,300.00,1300.00,M,M,-SN BR,KBTV 011600Z AUTO 34003KT 1SM -SN BR SCT003 OVC013 A2997 RMK MADISHF
BTV,2017-04-01 16:05,-73.1500,44.4700,M,M,M,330.00,3.00,M,29.97,M,1.00,M,SCT,OVC,M,M,300.00,1400.00,M,M,-SN BR,KBTV 011605Z AUTO 33003KT 1SM -SN BR SCT003 OVC014 A2997 RMK MADISHF
BTV,2017-04-01 16:09,-73.1500,44.4700,35.10,33.10,92.32,330.00,3.00,0.01,29.97,M,1.00,M,SCT,OVC,M,M,300.00,1400.00,M,M,-SN BR,KBTV 011609Z 33003KT 1SM R15/5500VP6000FT -SN BR SCT003 OVC014 02/01 A2997 RMK AO2 P0001 T00170006
BTV,2017-04-01 16:10,-73.1500,44.4700,M,M,M,330.00,3.00,0.01,29.97,M,1.00,M,SCT,OVC,M,M,300.00,1400.00,M,M,-SN BR,KBTV 011610Z AUTO 33003KT 1SM -SN BR SCT003 OVC014 A2997 RMK P0001 MADISHF
BTV,2017-04-01 16:15,-73.1500,44.4700,M,M,M,320.00,3.00,0.01,29.97,M,1.25,M,BKN,OVC,M,M,300.00,1400.00,M,M,-SN BR,KBTV 011615Z AUTO 32003KT 1 1/2SM -SN BR BKN003 OVC014 A2997 RMK P0001 MADISHF
BTV,2017-04-01 16:20,-73.1500,44.4700,M,M,M,320.00,3.00,0.01,29.97,M,1.25,M,BKN,OVC,M,M,300.00,1500.00,M,M,-SN BR,KBTV 011620Z AUTO 32003KT 1 1/2SM -SN BR BKN003 OVC015 A2997 RMK P0001 MADISHF
BTV,2017-04-01 16:21,-73.1500,44.4700,35.10,33.10,92.32,320.00,3.00,0.01,29.97,M,1.25,M,BKN,OVC,M,M,300.00,1500.00,M,M,-SN BR,KBTV 011621Z 32003KT 1 1/4SM -SN BR BKN003 OVC015 02/01 A2997 RMK AO2 P0001 T00170006
BTV,2017-04-01 16:25,-73.1500,44.4700,M,M,M,330.00,3.00,0.01,29.97,M,1.50,M,BKN,OVC,M,M,300.00,1500.00,M,M,-SN BR,KBTV 011625Z AUTO 33003KT 1 1/2SM -SN BR BKN003 OVC015 A2997 RMK P0001 MADISHF
BTV,2017-04-01 16:30,-73.1500,44.4700,M,M,M,0.00,0.00,0.02,29.97,M,1.75,M,BKN,OVC,M,M,300.00,1500.00,M,M,-SN BR,KBTV 011630Z AUTO 00000KT 2SM -SN BR BKN003 OVC015 A2997 RMK P0002 MADISHF
BTV,2017-04-01 16:31,-73.1500,44.4700,35.10,33.10,92.32,0.00,0.00,0.02,29.97,M,1.75,M,BKN,OVC,M,M,300.00,1500.00,M,M,-SN BR,KBTV 011631Z 00000KT 1 3/4SM -SN BR BKN003 OVC015 02/01 A2997 RMK AO2 P0002 T00170006
BTV,2017-04-01 16:35,-73.1500,44.4700,M,M,M,0.00,0.00,0.02,29.97,M,2.50,M,OVC,M,M,M,300.00,M,M,M,-SN BR,KBTV 011635Z AUTO 00000KT 2 1/2SM -SN BR OVC003 A2997 RMK P0002 MADISHF
BTV,2017-04-01 16:38,-73.1500,44.4700,35.10,33.10,92.32,0.00,0.00,0.02,29.97,M,3.00,M,BKN,OVC,M,M,300.00,2000.00,M,M,-SN BR,KBTV 011638Z 00000KT 3SM -SN BR BKN003 OVC020 02/01 A2997 RMK AO2 P0002 T00170006
BTV,2017-04-01 16:40,-73.1500,44.4700,M,M,M,0.00,0.00,0.02,29.97,M,3.00,M,BKN,OVC,M,M,300.00,1999.00,M,M,-SN BR,KBTV 011640Z AUTO 00000KT 3SM -SN BR BKN003 OVC019 A2997 RMK P0002 MADISHF
BTV,2017-04-01 16:45,-73.1500,44.4700,M,M,M,0.00,0.00,0.02,29.97,M,4.00,M,BKN,OVC,M,M,300.00,2500.00,M,M,-SN BR,KBTV 011645Z AUTO 00000KT 4SM -SN BR BKN003 OVC025 A2997 RMK P0002 MADISHF
BTV,2017-04-01 16:50,-73.1500,44.4700,M,M,M,310.00,3.00,0.02,29.97,M,6.00,M,OVC,M,M,M,300.00,M,M,M,-SN BR,KBTV 011650Z AUTO 31003KT 6SM -SN BR OVC003 A2997 RMK P0002 MADISHF
BTV,2017-04-01 16:54,-73.1500,44.4700,36.00,33.10,89.09,0.00,0.00,0.02,29.97,1015.30,7.00,M,BKN,OVC,M,M,300.00,3400.00,M,M,-SN,KBTV 011654Z 00000KT 7SM -SN BKN003 OVC034 02/01 A2997 RMK AO2 SLP153 P0002 T00220006
BTV,2017-04-01 16:55,-73.1500,44.4700,M,M,M,0.00,0.00,M,29.97,M,7.00,M,BKN,OVC,M,M,300.00,3399.00,M,M,-SN,KBTV 011655Z AUTO 00000KT 7SM -SN BKN003 OVC033 A2997 RMK MADISHF
BTV,2017-04-01 17:00,-73.1500,44.4700,M,M,M,0.00,0.00,M,29.97,M,8.00,M,BKN,OVC,M,M,300.00,3399.00,M,M,M,KBTV 011700Z AUTO 00000KT 8SM BKN003 OVC033 A2997 RMK MADISHF
BTV,2017-04-01 17:05,-73.1500,44.4700,M,M,M,0.00,0.00,M,29.97,M,10.00,M,BKN,OVC,M,M,400.00,3600.00,M,M,-RA,KBTV 011705Z AUTO 00000KT 10SM -RA BKN004 OVC036 A2997 RMK MADISHF
BTV,2017-04-01 17:10,-73.1500,44.4700,M,M,M,0.00,0.00,M,29.96,M,10.00,M,OVC,M,M,M,400.00,M,M,M,-RA,KBTV 011710Z AUTO 00000KT 10SM -RA OVC004 A2996 RMK MADISHF
BTV,2017-04-01 17:15,-73.1500,44.4700,M,M,M,0.00,0.00,M,29.96,M,10.00,M,BKN,OVC,M,M,400.00,4200.00,M,M,-RA,KBTV 011715Z AUTO 00000KT 10SM -RA BKN004 OVC042 A2996 RMK MADISHF
BTV,2017-04-01 17:20,-73.1500,44.4700,M,M,M,0.00,0.00,M,29.96,M,10.00,M,BKN,OVC,M,M,400.00,4200.00,M,M,-RA,KBTV 011720Z AUTO 00000KT 10SM -RA BKN004 OVC042 A2996 RMK MADISHF
BTV,2017-04-01 17:25,-73.1500,44.4700,M,M,M,0.00,0.00,M,29.96,M,10.00,M,BKN,BKN,OVC,M,400.00,4200.00,6000.00,M,-RA,KBTV 011725Z AUTO 00000KT 10SM -RA BKN004 BKN042 OVC060 A2996 RMK MADISHF
BTV,2017-04-01 17:30,-73.1500,44.4700,M,M,M,0.00,0.00,M,29.96,M,10.00,M,BKN,BKN,OVC,M,400.00,5000.00,6000.00,M,-RA,KBTV 011730Z AUTO 00000KT 10SM -RA BKN004 BKN050 OVC060 A2996 RMK MADISHF
BTV,2017-04-01 17:35,-73.1500,44.4700,M,M,M,0.00,0.00,M,29.96,M,10.00,M,BKN,OVC,M,M,400.00,6000.00,M,M,-RA,KBTV 011735Z AUTO 00000KT 10SM -RA BKN004 OVC060 A2996 RMK MADISHF
BTV,2017-04-01 17:40,-73.1500,44.4700,M,M,M,0.00,0.00,M,29.96,M,10.00,M,SCT,OVC,M,M,400.00,6000.00,M,M,-RA,KBTV 011740Z AUTO 00000KT 10SM -RA SCT004 OVC060 A2996 RMK MADISHF
BTV,2017-04-01 17:45,-73.1500,44.4700,39.00,34.00,82.08,0.00,0.00,0.00,29.96,M,10.00,M,SCT,OVC,M,M,500.00,6000.00,M,M,-RA,KBTV 011745Z 00000KT 10SM -RA SCT005 OVC060 04/01 A2996 RMK AO2 RAB03SNE1658 P0000 T00390011
BTV,2017-04-01 17:50,-73.1500,44.4700,M,M,M,0.00,0.00,M,29.95,M,10.00,M,FEW,OVC,M,M,499.00,6000.00,M,M,M,KBTV 011750Z AUTO 00000KT 10SM FEW004 OVC060 A2995 RMK MADISHF
BTV,2017-04-01 17:54,-73.1500,44.4700,39.00,34.00,82.08,310.00,3.00,0.00,29.95,1014.70,10.00,M,FEW,OVC,M,M,500.00,6000.00,M,M,M,KBTV 011754Z 31003KT 10SM FEW005 OVC060 04/01 A2995 RMK AO2 RAB03E50SNE1658 SLP147 4/007 P0000 60019 T00390011 10044 20006 58007
BTV,2017-04-01 17:55,-73.1500,44.4700,M,M,M,300.00,3.00,M,29.95,M,10.00,M,FEW,OVC,M,M,499.00,6000.00,M,M,M,KBTV 011755Z AUTO 30003KT 10SM FEW004 OVC060 A2995 RMK MADISHF
BTV,2017-04-01 18:00,-73.1500,44.4700,M,M,M,310.00,3.00,M,29.95,M,10.00,M,FEW,OVC,M,M,499.00,5500.00,M,M,M,KBTV 011800Z AUTO 31003KT 10SM FEW004 OVC055 A2995 RMK MADISHF
BTV,2017-04-01 18:05,-73.1500,44.4700,M,M,M,320.00,4.00,M,29.96,M,10.00,M,FEW,OVC,M,M,600.00,5500.00,M,M,M,KBTV 011805Z AUTO 32004KT 10SM FEW006 OVC055 A2996 RMK MADISHF
BTV,2017-04-01 18:10,-73.1500,44.4700,M,M,M,320.00,5.00,M,29.96,M,10.00,M,FEW,OVC,M,M,600.00,5500.00,M,M,M,KBTV 011810Z AUTO 32005KT 10SM FEW006 OVC055 A2996 RMK MADISHF
BTV,2017-04-01 18:15,-73.1500,44.4700,M,M,M,310.00,4.00,M,29.95,M,10.00,M,SCT,OVC,M,M,600.00,5500.00,M,M,M,KBTV 011815Z AUTO 31004KT 10SM SCT006 OVC055 A2995 RMK MADISHF
BTV,2017-04-01 18:20,-73.1500,44.4700,M,M,M,320.00,5.00,M,29.95,M,10.00,M,SCT,OVC,M,M,700.00,5500.00,M,M,M,KBTV 011820Z AUTO 32005KT 10SM SCT007 OVC055 A2995 RMK MADISHF
BTV,2017-04-01 18:25,-73.1500,44.4700,M,M,M,320.00,5.00,M,29.96,M,10.00,M,FEW,OVC,M,M,700.00,5500.00,M,M,M,KBTV 011825Z AUTO 32005KT 10SM FEW007 OVC055 A2996 RMK MADISHF
BTV,2017-04-01 18:30,-73.1500,44.4700,M,M,M,310.00,6.00,M,29.96,M,10.00,M,FEW,OVC,M,M,700.00,5500.00,M,M,M,KBTV 011830Z AUTO 31006KT 10SM FEW007 OVC055 A2996 RMK MADISHF
BTV,2017-04-01 18:35,-73.1500,44.4700,M,M,M,310.00,6.00,M,29.96,M,10.00,M,FEW,OVC,M,M,700.00,5500.00,M,M,M,KBTV 011835Z AUTO 31006KT 10SM FEW007 OVC055 A2996 RMK MADISHF
BTV,2017-04-01 18:40,-73.1500,44.4700,M,M,M,320.00,6.00,M,29.96,M,10.00,M,FEW,OVC,M,M,700.00,5500.00,M,M,M,KBTV 011840Z AUTO 32006KT 10SM FEW007 OVC055 A2996 RMK MADISHF
BTV,2017-04-01 18:45,-73.1500,44.4700,M,M,M,310.00,6.00,M,29.96,M,10.00,M,SCT,OVC,M,M,700.00,5500.00,M,M,M,KBTV 011845Z AUTO 31006KT 10SM SCT007 OVC055 A2996 RMK MADISHF
BTV,2017-04-01 18:50,-73.1500,44.4700,M,M,M,310.00,5.00,M,29.97,M,10.00,M,SCT,OVC,M,M,800.00,5500.00,M,M,M,KBTV 011850Z AUTO 31005KT 10SM SCT008 OVC055 A2997 RMK MADISHF
BTV,2017-04-01 18:54,-73.1500,44.4700,37.00,34.00,88.78,320.00,6.00,0.00,29.97,1015.10,10.00,M,SCT,OVC,M,M,800.00,5500.00,M,M,M,KBTV 011854Z 32006KT 10SM SCT008 OVC055 03/01 A2997 RMK AO2 SLP151 T00280011
BTV,2017-04-01 18:55,-73.1500,44.4700,M,M,M,320.00,5.00,M,29.97,M,10.00,M,SCT,OVC,M,M,800.00,5500.00,M,M,M,KBTV 011855Z AUTO 32005KT 10SM SCT008 OVC055 A2997 RMK MADISHF
BTV,2017-04-01 19:00,-73.1500,44.4700,M,M,M,310.00,4.00,M,29.96,M,10.00,M,SCT,OVC,M,M,800.00,5500.00,M,M,M,KBTV 011900Z AUTO 31004KT 10SM SCT008 OVC055 A2996 RMK MADISHF
BTV,2017-04-01 19:05,-73.1500,44.4700,M,M,M,320.00,6.00,M,29.96,M,10.00,M,SCT,OVC,M,M,800.00,5000.00,M,M,M,KBTV 011905Z AUTO 32006KT 10SM SCT008 OVC050 A2996 RMK MADISHF
BTV,2017-04-01 19:10,-73.1500,44.4700,M,M,M,320.00,5.00,M,29.96,M,10.00,M,SCT,OVC,M,M,800.00,5000.00,M,M,M,KBTV 011910Z AUTO 32005KT 10SM SCT008 OVC050 A2996 RMK MADISHF
BTV,2017-04-01 19:15,-73.1500,44.4700,M,M,M,320.00,5.00,M,29.96,M,10.00,M,FEW,OVC,M,M,800.00,5000.00,M,M,M,KBTV 011915Z AUTO 32005KT 10SM FEW008 OVC050 A2996 RMK MADISHF
BTV,2017-04-01 19:20,-73.1500,44.4700,M,M,M,320.00,6.00,M,29.96,M,10.00,M,FEW,OVC,M,M,800.00,5000.00,M,M,M,KBTV 011920Z AUTO 32006KT 10SM FEW008 OVC050 A2996 RMK MADISHF
BTV,2017-04-01 19:25,-73.1500,44.4700,M,M,M,320.00,6.00,M,29.97,M,10.00,M,FEW,OVC,M,M,800.00,5000.00,M,M,M,KBTV 011925Z AUTO 32006KT 10SM FEW008 OVC050 A2997 RMK MADISHF
BTV,2017-04-01 19:30,-73.1500,44.4700,M,M,M,320.00,7.00,M,29.97,M,10.00,M,OVC,M,M,M,5000.00,M,M,M,M,KBTV 011930Z AUTO 32007KT 10SM OVC050 A2997 RMK MADISHF
BTV,2017-04-01 19:35,-73.1500,44.4700,M,M,M,320.00,6.00,M,29.97,M,10.00,M,OVC,M,M,M,5000.00,M,M,M,M,KBTV 011935Z AUTO 32006KT 10SM OVC050 A2997 RMK MADISHF
BTV,2017-04-01 19:40,-73.1500,44.4700,M,M,M,330.00,5.00,M,29.96,M,10.00,M,FEW,OVC,M,M,600.00,5000.00,M,M,M,KBTV 011940Z AUTO 33005KT 10SM FEW006 OVC050 A2996 RMK MADISHF
BTV,2017-04-01 19:45,-73.1500,44.4700,M,M,M,340.00,5.00,M,29.96,M,10.00,M,FEW,OVC,M,M,600.00,5000.00,M,M,M,KBTV 011945Z AUTO 34005KT 10SM FEW006 OVC050 A2996 RMK MADISHF
BTV,2017-04-01 19:50,-73.1500,44.4700,M,M,M,320.00,5.00,M,29.96,M,10.00,M,FEW,OVC,M,M,600.00,5500.00,M,M,M,KBTV 011950Z AUTO 32005KT 10SM FEW006 OVC055 A2996 RMK MADISHF
BTV,2017-04-01 19:54,-73.1500,44.4700,37.00,34.00,88.78,320.00,5.00,0.00,29.97,1015.10,10.00,M,FEW,OVC,M,M,600.00,5500.00,M,M,M,KBTV 011954Z 32005KT 10SM FEW006 OVC055 03/01 A2997 RMK AO2 SLP151 T00280011
BTV,2017-04-01 19:55,-73.1500,44.4700,M,M,M,330.00,6.00,M,29.97,M,10.00,M,FEW,OVC,M,M,600.00,5500.00,M,M,M,KBTV 011955Z AUTO 33006KT 10SM FEW006 OVC055 A2997 RMK MADISHF
BTV,2017-04-01 20:00,-73.1500,44.4700,M,M,M,330.00,5.00,M,29.97,M,10.00,M,FEW,OVC,M,M,600.00,5000.00,M,M,M,KBTV 012000Z AUTO 33005KT 10SM FEW006 OVC050 A2997 RMK MADISHF
BTV,2017-04-01 20:05,-73.1500,44.4700,M,M,M,330.00,4.00,M,29.97,M,10.00,M,FEW,OVC,M,M,600.00,5500.00,M,M,M,KBTV 012005Z AUTO 33004KT 10SM FEW006 OVC055 A2997 RMK MADISHF
BTV,2017-04-01 20:10,-73.1500,44.4700,M,M,M,340.00,4.00,M,29.97,M,10.00,M,FEW,OVC,M,M,600.00,5500.00,M,M,M,KBTV 012010Z AUTO 34004KT 10SM FEW006 OVC055 A2997 RMK MADISHF
BTV,2017-04-01 20:15,-73.1500,44.4700,M,M,M,340.00,4.00,M,29.97,M,10.00,M,OVC,M,M,M,5500.00,M,M,M,M,KBTV 012015Z AUTO 34004KT 10SM OVC055 A2997 RMK MADISHF
BTV,2017-04-01 20:20,-73.1500,44.4700,M,M,M,350.00,3.00,M,29.97,M,10.00,M,OVC,M,M,M,5500.00,M,M,M,M,KBTV 012020Z AUTO 35003KT 10SM OVC055 A2997 RMK MADISHF
BTV,2017-04-01 20:25,-73.1500,44.4700,M,M,M,340.00,4.00,M,29.97,M,10.00,M,OVC,M,M,M,5500.00,M,M,M,M,KBTV 012025Z AUTO 34004KT 10SM OVC055 A2997 RMK MADISHF
BTV,2017-04-01 20:30,-73.1500,44.4700,M,M,M,350.00,4.00,M,29.98,M,10.00,M,OVC,M,M,M,5500.00,M,M,M,M,KBTV 012030Z AUTO 35004KT 10SM OVC055 A2998 RMK MADISHF
BTV,2017-04-01 20:35,-73.1500,44.4700,M,M,M,340.00,4.00,M,29.98,M,10.00,M,FEW,OVC,M,M,700.00,5000.00,M,M,M,KBTV 012035Z AUTO 34004KT 10SM FEW007 OVC050 A2998 RMK MADISHF
BTV,2017-04-01 20:40,-73.1500,44.4700,M,M,M,350.00,4.00,M,29.98,M,10.00,M,SCT,OVC,M,M,700.00,5000.00,M,M,M,KBTV 012040Z AUTO 35004KT 10SM SCT007 OVC050 A2998 RMK MADISHF
BTV,2017-04-01 20:45,-73.1500,44.4700,M,M,M,350.00,4.00,M,29.98,M,10.00,M,SCT,OVC,M,M,800.00,5000.00,M,M,M,KBTV 012045Z AUTO 35004KT 10SM SCT008 OVC050 A2998 RMK MADISHF
BTV,2017-04-01 20:50,-73.1500,44.4700,M,M,M,350.00,4.00,M,29.98,M,10.00,M,SCT,OVC,M,M,800.00,5000.00,M,M,M,KBTV 012050Z AUTO 35004KT 10SM SCT008 OVC050 A2998 RMK MADISHF
BTV,2017-04-01 20:54,-73.1500,44.4700,37.90,34.00,85.69,350.00,3.00,0.00,29.98,1015.50,10.00,M,SCT,OVC,M,M,700.00,5000.00,M,M,M,KBTV 012054Z 35003KT 10SM SCT007 OVC050 03/01 A2998 RMK AO2 SLP155 T00330011 52008
BTV,2017-04-01 20:55,-73.1500,44.4700,M,M,M,340.00,3.00,M,29.98,M,10.00,M,SCT,OVC,M,M,700.00,5000.00,M,M,M,KBTV 012055Z AUTO 34003KT 10SM SCT007 OVC050 A2998 RMK MADISHF
BTV,2017-04-01 21:00,-73.1500,44.4700,M,M,M,340.00,3.00,M,29.98,M,10.00,M,FEW,OVC,M,M,700.00,5000.00,M,M,M,KBTV 012100Z AUTO 34003KT 10SM FEW007 OVC050 A2998 RMK MADISHF
BTV,2017-04-01 21:05,-73.1500,44.4700,M,M,M,320.00,5.00,M,29.98,M,10.00,M,FEW,OVC,M,M,700.00,5000.00,M,M,M,KBTV 012105Z AUTO 32005KT 10SM FEW007 OVC050 A2998 RMK MADISHF
BTV,2017-04-01 21:10,-73.1500,44.4700,M,M,M,330.00,3.00,M,29.98,M,10.00,M,FEW,OVC,M,M,700.00,5000.00,M,M,M,KBTV 012110Z AUTO 33003KT 10SM FEW007 OVC050 A2998 RMK MADISHF
BTV,2017-04-01 21:15,-73.1500,44.4700,M,M,M,330.00,3.00,M,29.98,M,10.00,M,FEW,OVC,M,M,700.00,5000.00,M,M,M,KBTV 012115Z AUTO 33003KT 10SM FEW007 OVC050 A2998 RMK MADISHF
BTV,2017-04-01 21:20,-73.1500,44.4700,M,M,M,320.00,4.00,M,29.99,M,10.00,M,SCT,OVC,M,M,700.00,5000.00,M,M,M,KBTV 012120Z AUTO 32004KT 10SM SCT007 OVC050 A2999 RMK MADISHF
BTV,2017-04-01 21:25,-73.1500,44.4700,M,M,M,330.00,5.00,M,29.99,M,10.00,M,SCT,OVC,M,M,800.00,5000.00,M,M,M,KBTV 012125Z AUTO 33005KT 10SM SCT008 OVC050 A2999 RMK MADISHF
BTV,2017-04-01 21:30,-73.1500,44.4700,M,M,M,320.00,6.00,M,29.99,M,10.00,M,FEW,SCT,OVC,M,800.00,1300.00,5000.00,M,M,KBTV 012130Z AUTO 32006KT 10SM FEW008 SCT013 OVC050 A2999 RMK MADISHF
BTV,2017-04-01 21:35,-73.1500,44.4700,M,M,M,310.00,6.00,M,29.99,M,10.00,M,FEW,SCT,OVC,M,800.00,1300.00,5000.00,M,M,KBTV 012135Z AUTO 31006KT 10SM FEW008 SCT013 OVC050 A2999 RMK MADISHF
BTV,2017-04-01 21:40,-73.1500,44.4700,M,M,M,310.00,6.00,M,29.99,M,10.00,M,FEW,BKN,OVC,M,800.00,3900.00,5000.00,M,-RA,KBTV 012140Z AUTO 31006KT 10SM -RA FEW008 BKN039 OVC050 A2999 RMK MADISHF
BTV,2017-04-01 21:45,-73.1500,44.4700,M,M,M,320.00,6.00,M,29.99,M,10.00,M,FEW,BKN,OVC,M,800.00,1400.00,5000.00,M,-RA,KBTV 012145Z AUTO 32006KT 10SM -RA FEW008 BKN014 OVC050 A2999 RMK MADISHF
BTV,2017-04-01 21:50,-73.1500,44.4700,M,M,M,310.00,6.00,M,30.00,M,10.00,M,FEW,BKN,OVC,M,800.00,3800.00,5500.00,M,-RA,KBTV 012150Z AUTO 31006KT 10SM -RA FEW008 BKN038 OVC055 A3000 RMK MADISHF
BTV,2017-04-01 21:54,-73.1500,44.4700,37.00,34.00,88.78,310.00,6.00,0.00,30.00,1016.20,10.00,M,FEW,BKN,OVC,M,800.00,1600.00,5000.00,M,-RA,KBTV 012154Z 31006KT 10SM -RA FEW008 BKN016 OVC050 03/01 A3000 RMK AO2 RAB40 SLP162 P0000 T00280011
BTV,2017-04-01 21:55,-73.1500,44.4700,M,M,M,310.00,6.00,M,30.00,M,10.00,M,SCT,BKN,OVC,M,800.00,1600.00,5500.00,M,-RA,KBTV 012155Z AUTO 31006KT 10SM -RA SCT008 BKN016 OVC055 A3000 RMK MADISHF
BTV,2017-04-01 22:00,-73.1500,44.4700,M,M,M,330.00,7.00,M,30.00,M,10.00,M,SCT,BKN,OVC,M,800.00,1300.00,5500.00,M,-RA,KBTV 012200Z AUTO 33007KT 10SM -RA SCT008 BKN013 OVC055 A3000 RMK MADISHF
BTV,2017-04-01 22:02,-73.1500,44.4700,37.00,33.10,85.64,330.00,6.00,0.00,30.00,M,10.00,M,SCT,BKN,OVC,M,800.00,1300.00,5500.00,M,-RA,KBTV 012202Z 33006KT 10SM -RA SCT008 BKN013 OVC055 03/01 A3000 RMK AO2 P0000 T00280006
BTV,2017-04-01 22:05,-73.1500,44.4700,M,M,M,320.00,6.00,M,30.00,M,10.00,M,SCT,BKN,OVC,M,800.00,1300.00,5500.00,M,-RA,KBTV 012205Z AUTO 32006KT 10SM -RA SCT008 BKN013 OVC055 A3000 RMK MADISHF
BTV,2017-04-01 22:10,-73.1500,44.4700,M,M,M,320.00,6.00,M,30.00,M,10.00,M,FEW,OVC,M,M,800.00,1300.00,M,M,-RA,KBTV 012210Z AUTO 32006KT 10SM -RA FEW008 OVC013 A3000 RMK MADISHF
BTV,2017-04-01 22:15,-73.1500,44.4700,M,M,M,330.00,6.00,M,30.00,M,10.00,M,FEW,OVC,M,M,800.00,1300.00,M,M,-RA,KBTV 012215Z AUTO 33006KT 10SM -RA FEW008 OVC013 A3000 RMK MADISHF
BTV,2017-04-01 22:20,-73.1500,44.4700,M,M,M,330.00,6.00,M,30.00,M,10.00,M,OVC,M,M,M,1300.00,M,M,M,-RA,KBTV 012220Z AUTO 33006KT 10SM -RA OVC013 A3000 RMK MADISHF
BTV,2017-04-01 22:25,-73.1500,44.4700,M,M,M,350.00,6.00,M,30.00,M,10.00,M,OVC,M,M,M,1200.00,M,M,M,-RA,KBTV 012225Z AUTO 35006KT 10SM -RA OVC012 A3000 RMK MADISHF
BTV,2017-04-01 22:30,-73.1500,44.4700,M,M,M,340.00,6.00,M,30.00,M,10.00,M,OVC,M,M,M,1200.00,M,M,M,-RA,KBTV 012230Z AUTO 34006KT 10SM -RA OVC012 A3000 RMK MADISHF
BTV,2017-04-01 22:35,-73.1500,44.4700,M,M,M,330.00,6.00,M,30.00,M,10.00,M,OVC,M,M,M,1200.00,M,M,M,-RA,KBTV 012235Z AUTO 33006KT 10SM -RA OVC012 A3000 RMK MADISHF
BTV,2017-04-01 22:40,-73.1500,44.4700,M,M,M,330.00,6.00,M,30.00,M,10.00,M,BKN,OVC,M,M,999.00,1400.00,M,M,-RA,KBTV 012240Z AUTO 33006KT 10SM -RA BKN009 OVC014 A3000 RMK CIG 8V12  MADISHF
BTV,2017-04-01 22:45,-73.1500,44.4700,M,M,M,330.00,6.00,M,30.00,M,10.00,M,BKN,OVC,M,M,999.00,1400.00,M,M,-RA,KBTV 012245Z AUTO 33006KT 10SM -RA BKN009 OVC014 A3000 RMK MADISHF
BTV,2017-04-01 22:50,-73.1500,44.4700,M,M,M,330.00,5.00,M,30.00,M,10.00,M,BKN,OVC,M,M,999.00,1400.00,M,M,-RA,KBTV 012250Z AUTO 33005KT 10SM -RA BKN009 OVC014 A3000 RMK MADISHF
BTV,2017-04-01 22:54,-73.1500,44.4700,37.00,34.00,88.78,320.00,6.00,0.00,30.00,1016.30,10.00,M,OVC,M,M,M,900.00,M,M,M,-RA,KBTV 012254Z 32006KT 10SM -RA OVC009 03/01 A3000 RMK AO2 SLP163 P0000 T00280011
BTV,2017-04-01 22:55,-73.1500,44.4700,M,M,M,330.00,6.00,M,30.00,M,10.00,M,OVC,M,M,M,900.00,M,M,M,-RA,KBTV 012255Z AUTO 33006KT 10SM -RA OVC009 A3000 RMK MADISHF
BTV,2017-04-01 23:00,-73.1500,44.4700,M,M,M,320.00,5.00,M,30.00,M,10.00,M,OVC,M,M,M,900.00,M,M,M,-RA,KBTV 012300Z AUTO 32005KT 10SM -RA OVC009 A3000 RMK CIG 8V12  MADISHF
BTV,2017-04-01 23:05,-73.1500,44.4700,M,M,M,310.00,5.00,M,30.00,M,10.00,M,OVC,M,M,M,900.00,M,M,M,-RA,KBTV 012305Z AUTO 31005KT 10SM -RA OVC009 A3000 RMK CIG 8V14  MADISHF
BTV,2017-04-01 23:10,-73.1500,44.4700,M,M,M,310.00,6.00,M,30.00,M,10.00,M,BKN,OVC,M,M,1100.00,7000.00,M,M,-RA,KBTV 012310Z AUTO 31006KT 10SM -RA BKN011 OVC070 A3000 RMK MADISHF
BTV,2017-04-01 23:13,-73.1500,44.4700,36.00,34.00,92.35,320.00,6.00,0.00,30.00,M,10.00,M,BKN,OVC,M,M,1100.00,7000.00,M,M,-RA,KBTV 012313Z 32006KT 10SM -RA BKN011 OVC070 02/01 A3000 RMK AO2 P0000 T00220011
BTV,2017-04-01 23:15,-73.1500,44.4700,M,M,M,320.00,5.00,M,30.00,M,10.00,M,BKN,OVC,M,M,1100.00,7000.00,M,M,-RA,KBTV 012315Z AUTO 32005KT 10SM -RA BKN011 OVC070 A3000 RMK MADISHF
BTV,2017-04-01 23:20,-73.1500,44.4700,M,M,M,320.00,6.00,M,30.00,M,10.00,M,BKN,OVC,M,M,1100.00,7000.00,M,M,-RA,KBTV 012320Z AUTO 32006KT 10SM -RA BKN011 OVC070 A3000 RMK MADISHF
BTV,2017-04-01 23:25,-73.1500,44.4700,M,M,M,320.00,6.00,M,30.00,M,10.00,M,BKN,OVC,M,M,1100.00,7000.00,M,M,-RA,KBTV 012325Z AUTO 32006KT 10SM -RA BKN011 OVC070 A3000 RMK CIG 6V14  MADISHF
BTV,2017-04-01 23:30,-73.1500,44.4700,M,M,M,320.00,6.00,M,30.00,M,10.00,M,BKN,OVC,M,M,1100.00,7000.00,M,M,-RA,KBTV 012330Z AUTO 32006KT 10SM -RA BKN011 OVC070 A3000 RMK CIG 6V14  MADISHF
BTV,2017-04-01 23:35,-73.1500,44.4700,M,M,M,320.00,6.00,M,30.00,M,10.00,M,BKN,OVC,M,M,1100.00,7000.00,M,M,-RA,KBTV 012335Z AUTO 32006KT 10SM -RA BKN011 OVC070 A3000 RMK MADISHF
BTV,2017-04-01 23:40,-73.1500,44.4700,M,M,M,320.00,6.00,M,30.00,M,10.00,M,BKN,OVC,M,M,999.00,7000.00,M,M,-RA,KBTV 012340Z AUTO 32006KT 10SM -RA BKN009 OVC070 A3000 RMK  4/006 MADISHF
BTV,2017-04-01 23:45,-73.1500,44.4700,M,M,M,320.00,6.00,M,30.00,M,10.00,M,OVC,M,M,M,999.00,M,M,M,-RA,KBTV 012345Z AUTO 32006KT 10SM -RA OVC009 A3000 RMK  4/006 MADISHF
BTV,2017-04-01 23:50,-73.1500,44.4700,M,M,M,330.00,6.00,M,30.01,M,10.00,M,OVC,M,M,M,999.00,M,M,M,-RA,KBTV 012350Z AUTO 33006KT 10SM -RA OVC009 A3001 RMK  4/006 MADISHF
BTV,2017-04-01 23:54,-73.1500,44.4700,36.00,34.00,92.35,330.00,5.00,0.00,30.01,1016.50,10.00,M,OVC,M,M,M,1000.00,M,M,M,-RA,KBTV 012354Z 33005KT 10SM -RA OVC010 02/01 A3001 RMK AO2 SLP165 4/006 P0000 60000 T00220011 10039 20022 51009
BTV,2017-04-01 23:55,-73.1500,44.4700,M,M,M,330.00,5.00,M,30.01,M,10.00,M,OVC,M,M,M,999.00,M,M,M,-RA,KBTV 012355Z AUTO 33005KT 10SM -RA OVC009 A3001 RMK MADISHF
