#DEBUG: Format Typ    -> comma
#DEBUG: Time Period   -> 2017-04-01 00:00:00+00:00 2017-04-02 00:00:00+00:00
#DEBUG: Time Zone     -> Etc/UTC
#DEBUG: Data Contact   -> daryl herzmann akrherz@iastate.edu 515-294-5978
#DEBUG: Entries Found -> -1
station,valid,lon,lat,tmpf, dwpf, relh, drct, sknt, p01i, alti, mslp, vsby, gust, skyc1, skyc2, skyc3, skyc4, skyl1, skyl2, skyl3, skyl4, presentwx, metar
BUF,2017-04-01 00:00,-78.7358,42.9408,M,M,M,50.00,5.00,M,29.68,M,8.00,M,SCT,OVC,M,M,700.00,1300.00,M,M,-RA,KBUF 010000Z AUTO 05005KT 8SM -RA SCT007 OVC013 A2968 RMK MADISHF
BUF,2017-04-01 00:05,-78.7358,42.9408,M,M,M,40.00,4.00,M,29.68,M,8.00,M,FEW,OVC,M,M,900.00,1300.00,M,M,-RA,KBUF 010005Z AUTO 04004KT 8SM -RA FEW009 OVC013 A2968 RMK MADISHF
BUF,2017-04-01 00:06,-78.7358,42.9408,45.00,43.00,92.65,40.00,5.00,0.00,29.68,M,5.00,M,FEW,OVC,M,M,900.00,1300.00,M,M,-RA BR,KBUF 010006Z 04005KT 5SM -RA BR FEW009 OVC013 07/06 A2968 RMK AO2 P0000 T00720061
BUF,2017-04-01 00:10,-78.7358,42.9408,M,M,M,40.00,5.00,0.01,29.68,M,5.00,M,FEW,OVC,M,M,900.00,1300.00,M,M,-RA BR,KBUF 010010Z AUTO 04005KT 5SM -RA BR FEW009 OVC013 A2968 RMK P0001 MADISHF
BUF,2017-04-01 00:15,-78.7358,42.9408,M,M,M,40.00,5.00,0.01,29.68,M,5.00,M,FEW,OVC,M,M,800.00,1300.00,M,M,-RA BR,KBUF 010015Z AUTO 04005KT 5SM -RA BR FEW008 OVC013 A2968 RMK P0001 MADISHF
BUF,2017-04-01 00:20,-78.7358,42.9408,M,M,M,40.00,5.00,0.01,29.68,M,5.00,M,FEW,OVC,M,M,600.00,1300.00,M,M,-RA BR,KBUF 010020Z AUTO 04005KT 5SM -RA BR FEW006 OVC013 A2968 RMK P0001 MADISHF
BUF,2017-04-01 00:25,-78.7358,42.9408,M,M,M,40.00,6.00,0.01,29.68,M,5.00,M,FEW,OVC,M,M,400.00,1300.00,M,M,-RA BR,KBUF 010025Z AUTO 04006KT 5SM -RA BR FEW004 OVC013 A2968 RMK P0001 MADISHF
BUF,2017-04-01 00:30,-78.7358,42.9408,M,M,M,40.00,5.00,0.02,29.69,M,5.00,M,FEW,OVC,M,M,900.00,1300.00,M,M,-RA BR,KBUF 010030Z AUTO 04005KT 5SM -RA BR FEW009 OVC013 A2969 RMK P0002 MADISHF
BUF,2017-04-01 00:35,-78.7358,42.9408,M,M,M,40.00,6.00,0.02,29.69,M,5.00,M,FEW,OVC,M,M,400.00,1300.00,M,M,-RA BR,KBUF 010035Z AUTO 04006KT 5SM -RA BR FEW004 OVC013 A2969 RMK P0002 MADISHF
BUF,2017-04-01 00:40,-78.7358,42.9408,M,M,M,40.00,7.00,0.02,29.69,M,5.00,M,FEW,OVC,M,M,400.00,1300.00,M,M,-RA BR,KBUF 010040Z AUTO 04007KT 5SM -RA BR FEW004 OVC013 A2969 RMK P0002 MADISHF
BUF,2017-04-01 00:45,-78.7358,42.9408,M,M,M,40.00,5.00,0.03,29.69,M,5.00,M,FEW,OVC,M,M,400.00,1300.00,M,M,-RA BR,KBUF 010045Z AUTO 04005KT 5SM -RA BR FEW004 OVC013 A2969 RMK P0003 MADISHF
BUF,2017-04-01 00:50,-78.7358,42.9408,M,M,M,40.00,7.00,0.03,29.69,M,3.00,M,SCT,OVC,M,M,400.00,999.00,M,M,-RA BR,KBUF 010050Z AUTO 04007KT 3SM -RA BR SCT004 OVC009 A2969 RMK P0003 MADISHF
BUF,2017-04-01 00:54,-78.7358,42.9408,44.10,42.10,92.62,30.00,6.00,0.03,29.69,1005.90,3.00,M,SCT,OVC,M,M,400.00,1000.00,M,M,-RA BR,KBUF 010054Z 03006KT 3SM -RA BR SCT004 OVC010 07/06 A2969 RMK AO2 SLP059 P0003 T00670056
BUF,2017-04-01 00:55,-78.7358,42.9408,M,M,M,30.00,6.00,M,29.69,M,4.00,M,SCT,OVC,M,M,400.00,1200.00,M,M,-RA BR,KBUF 010055Z AUTO 03006KT 4SM -RA BR SCT004 OVC012 A2969 RMK MADISHF
BUF,2017-04-01 01:00,-78.7358,42.9408,M,M,M,30.00,7.00,M,29.69,M,4.00,M,SCT,SCT,OVC,M,400.00,900.00,1200.00,M,-RA BR,KBUF 010100Z AUTO 03007KT 4SM -RA BR SCT004 SCT009 OVC012 A2969 RMK MADISHF
BUF,2017-04-01 01:05,-78.7358,42.9408,M,M,M,30.00,7.00,0.01,29.69,M,3.50,M,SCT,SCT,OVC,M,400.00,900.00,1200.00,M,-RA BR,KBUF 010105Z AUTO 03007KT 3SM -RA BR SCT004 SCT009 OVC012 A2969 RMK P0001 MADISHF
BUF,2017-04-01 01:07,-78.7358,42.9408,44.10,42.10,92.62,30.00,9.00,0.01,29.69,M,2.00,M,BKN,OVC,M,M,400.00,800.00,M,M,-RA BR,KBUF 010107Z 03009KT 2SM -RA BR BKN004 OVC008 07/06 A2969 RMK AO2 P0001 T00670056
BUF,2017-04-01 01:10,-78.7358,42.9408,M,M,M,20.00,6.00,0.01,29.69,M,2.00,M,BKN,OVC,M,M,400.00,800.00,M,M,-RA BR,KBUF 010110Z AUTO 02006KT 2SM -RA BR BKN004 OVC008 A2969 RMK P0001 MADISHF
BUF,2017-04-01 01:15,-78.7358,42.9408,M,M,M,30.00,9.00,0.02,29.69,M,2.00,M,BKN,OVC,M,M,400.00,800.00,M,M,-RA BR,KBUF 010115Z AUTO 03009KT 2SM -RA BR BKN004 OVC008 A2969 RMK P0002 MADISHF
BUF,2017-04-01 01:20,-78.7358,42.9408,M,M,M,30.00,8.00,0.02,29.70,M,2.00,M,BKN,OVC,M,M,400.00,800.00,M,M,-RA BR,KBUF 010120Z AUTO 03008KT 2SM -RA BR BKN004 OVC008 A2970 RMK P0002 MADISHF
BUF,2017-04-01 01:25,-78.7358,42.9408,M,M,M,40.00,8.00,0.02,29.70,M,2.00,M,BKN,OVC,M,M,400.00,800.00,M,M,-RA BR,KBUF 010125Z AUTO 04008KT 2SM -RA BR BKN004 OVC008 A2970 RMK P0002 MADISHF
BUF,2017-04-01 01:30,-78.7358,42.9408,M,M,M,50.00,7.00,0.03,29.70,M,2.00,M,BKN,OVC,M,M,400.00,800.00,M,M,-RA BR,KBUF 010130Z AUTO 05007KT 2SM -RA BR BKN004 OVC008 A2970 RMK P0003 MADISHF
BUF,2017-04-01 01:35,-78.7358,42.9408,M,M,M,50.00,7.00,0.03,29.70,M,2.00,M,BKN,OVC,M,M,400.00,800.00,M,M,-RA BR,KBUF 010135Z AUTO 05007KT 2SM -RA BR BKN004 OVC008 A2970 RMK P0003 MADISHF
BUF,2017-04-01 01:40,-78.7358,42.9408,M,M,M,40.00,8.00,0.03,29.70,M,2.00,M,BKN,OVC,M,M,400.00,800.00,M,M,-RA BR,KBUF 010140Z AUTO 04008KT 2SM -RA BR BKN004 OVC008 A2970 RMK P0003 MADISHF
BUF,2017-04-01 01:45,-78.7358,42.9408,M,M,M,40.00,7.00,0.03,29.70,M,2.00,M,BKN,OVC,M,M,400.00,800.00,M,M,-RA BR,KBUF 010145Z AUTO 04007KT 2SM -RA BR BKN004 OVC008 A2970 RMK P0003 MADISHF
BUF,2017-04-01 01:50,-78.7358,42.9408,M,M,M,40.00,7.00,0.03,29.70,M,2.00,M,OVC,M,M,M,400.00,M,M,M,-RA BR,KBUF 010150Z AUTO 04007KT 2SM -RA BR OVC004 A2970 RMK P0003 MADISHF
BUF,2017-04-01 01:54,-78.7358,42.9408,43.00,41.00,92.58,40.00,7.00,0.03,29.70,1006.30,2.00,M,OVC,M,M,M,400.00,M,M,M,-RA BR,KBUF 010154Z 04007KT 2SM -RA BR OVC004 06/05 A2970 RMK AO2 SLP063 P0003 T00610050
BUF,2017-04-01 01:55,-78.7358,42.9408,M,M,M,40.00,7.00,M,29.70,M,4.00,M,OVC,M,M,M,400.00,M,M,M,-RA BR,KBUF 010155Z AUTO 04007KT 4SM -RA BR OVC004 A2970 RMK MADISHF
BUF,2017-04-01 02:00,-78.7358,42.9408,M,M,M,40.00,6.00,M,29.70,M,2.00,M,OVC,M,M,M,400.00,M,M,M,-RA BR,KBUF 010200Z AUTO 04006KT 2SM -RA BR OVC004 A2970 RMK MADISHF
BUF,2017-04-01 02:05,-78.7358,42.9408,M,M,M,40.00,6.00,0.01,29.70,M,2.00,M,OVC,M,M,M,400.00,M,M,M,-RA BR,KBUF 010205Z AUTO 04006KT 2SM -RA BR OVC004 A2970 RMK P0001 MADISHF
BUF,2017-04-01 02:10,-78.7358,42.9408,M,M,M,40.00,6.00,0.01,29.70,M,2.00,M,OVC,M,M,M,400.00,M,M,M,-RA BR,KBUF 010210Z AUTO 04006KT 2SM -RA BR OVC004 A2970 RMK P0001 MADISHF
BUF,2017-04-01 02:15,-78.7358,42.9408,M,M,M,30.00,6.00,0.01,29.70,M,2.00,M,OVC,M,M,M,400.00,M,M,M,-RA BR,KBUF 010215Z AUTO 03006KT 2SM -RA BR OVC004 A2970 RMK P0001 MADISHF
BUF,2017-04-01 02:20,-78.7358,42.9408,M,M,M,40.00,6.00,0.01,29.71,M,2.00,M,OVC,M,M,M,400.00,M,M,M,-RA BR,KBUF 010220Z AUTO 04006KT 2SM -RA BR OVC004 A2971 RMK P0001 MADISHF
BUF,2017-04-01 02:25,-78.7358,42.9408,M,M,M,30.00,6.00,0.01,29.70,M,2.00,M,OVC,M,M,M,400.00,M,M,M,-RA BR,KBUF 010225Z AUTO 03006KT 2SM -RA BR OVC004 A2970 RMK P0001 MADISHF
BUF,2017-04-01 02:30,-78.7358,42.9408,M,M,M,40.00,7.00,0.01,29.71,M,2.00,M,OVC,M,M,M,400.00,M,M,M,-RA BR,KBUF 010230Z AUTO 04007KT 2SM -RA BR OVC004 A2971 RMK P0001 MADISHF
BUF,2017-04-01 02:35,-78.7358,42.9408,M,M,M,30.00,7.00,0.01,29.71,M,2.00,M,OVC,M,M,M,400.00,M,M,M,-RA BR,KBUF 010235Z AUTO 03007KT 2SM -RA BR OVC004 A2971 RMK P0001 MADISHF
BUF,2017-04-01 02:40,-78.7358,42.9408,M,M,M,30.00,8.00,0.01,29.71,M,2.00,M,OVC,M,M,M,400.00,M,M,M,-RA BR,KBUF 010240Z AUTO 03008KT 2SM -RA BR OVC004 A2971 RMK P0001 MADISHF
BUF,2017-04-01 02:45,-78.7358,42.9408,M,M,M,20.00,6.00,0.01,29.71,M,2.00,M,OVC,M,M,M,400.00,M,M,M,-RA BR,KBUF 010245Z AUTO 02006KT 2SM -RA BR OVC004 A2971 RMK P0001 MADISHF
BUF,2017-04-01 02:50,-78.7358,42.9408,M,M,M,20.00,7.00,0.02,29.71,M,2.00,M,OVC,M,M,M,400.00,M,M,M,-RA BR,KBUF 010250Z AUTO 02007KT 2SM -RA BR OVC004 A2971 RMK P0002 MADISHF
BUF,2017-04-01 02:54,-78.7358,42.9408,41.00,39.00,92.52,20.00,8.00,0.02,29.71,1006.50,2.00,M,OVC,M,M,M,300.00,M,M,M,-RA BR,KBUF 010254Z 02008KT 2SM -RA BR OVC003 05/04 A2971 RMK AO2 SLP065 P0002 60008 T00500039 51010
BUF,2017-04-01 02:55,-78.7358,42.9408,M,M,M,20.00,8.00,M,29.71,M,4.00,M,OVC,M,M,M,300.00,M,M,M,-RA BR,KBUF 010255Z AUTO 02008KT 4SM -RA BR OVC003 A2971 RMK MADISHF
BUF,2017-04-01 03:00,-78.7358,42.9408,M,M,M,20.00,7.00,M,29.71,M,2.00,M,OVC,M,M,M,300.00,M,M,M,-RA BR,KBUF 010300Z AUTO 02007KT 2SM -RA BR OVC003 A2971 RMK MADISHF
BUF,2017-04-01 03:05,-78.7358,42.9408,M,M,M,20.00,8.00,M,29.71,M,2.00,M,OVC,M,M,M,300.00,M,M,M,-RA BR,KBUF 010305Z AUTO 02008KT 2SM -RA BR OVC003 A2971 RMK MADISHF
BUF,2017-04-01 03:10,-78.7358,42.9408,M,M,M,20.00,7.00,M,29.71,M,2.00,M,OVC,M,M,M,300.00,M,M,M,-RA BR,KBUF 010310Z AUTO 02007KT 2SM -RA BR OVC003 A2971 RMK MADISHF
BUF,2017-04-01 03:15,-78.7358,42.9408,M,M,M,10.00,8.00,M,29.71,M,2.00,M,OVC,M,M,M,300.00,M,M,M,-RA BR,KBUF 010315Z AUTO 01008KT 2SM -RA BR OVC003 A2971 RMK MADISHF
BUF,2017-04-01 03:20,-78.7358,42.9408,M,M,M,20.00,8.00,M,29.71,M,2.00,M,OVC,M,M,M,300.00,M,M,M,-RA BR,KBUF 010320Z AUTO 02008KT 2SM -RA BR OVC003 A2971 RMK MADISHF
BUF,2017-04-01 03:25,-78.7358,42.9408,M,M,M,10.00,7.00,M,29.71,M,2.00,M,OVC,M,M,M,300.00,M,M,M,-RA BR,KBUF 010325Z AUTO 01007KT 2SM -RA BR OVC003 A2971 RMK MADISHF
BUF,2017-04-01 03:30,-78.7358,42.9408,M,M,M,10.00,7.00,M,29.72,M,2.00,M,OVC,M,M,M,300.00,M,M,M,-RA BR,KBUF 010330Z AUTO 01007KT 2SM -RA BR OVC003 A2972 RMK MADISHF
BUF,2017-04-01 03:35,-78.7358,42.9408,M,M,M,10.00,7.00,0.01,29.72,M,2.00,M,OVC,M,M,M,300.00,M,M,M,-RA BR,KBUF 010335Z AUTO 01007KT 2SM -RA BR OVC003 A2972 RMK P0001 MADISHF
BUF,2017-04-01 03:40,-78.7358,42.9408,M,M,M,10.00,7.00,0.01,29.72,M,2.00,M,OVC,M,M,M,300.00,M,M,M,-RA BR,KBUF 010340Z AUTO 01007KT 2SM -RA BR OVC003 A2972 RMK P0001 MADISHF
BUF,2017-04-01 03:45,-78.7358,42.9408,M,M,M,10.00,8.00,0.01,29.72,M,2.00,M,OVC,M,M,M,300.00,M,M,M,-RA BR,KBUF 010345Z AUTO 01008KT 2SM -RA BR OVC003 A2972 RMK P0001 MADISHF
BUF,2017-04-01 03:50,-78.7358,42.9408,M,M,M,360.00,7.00,0.01,29.72,M,2.00,M,OVC,M,M,M,300.00,M,M,M,-RA BR,KBUF 010350Z AUTO 36007KT 2SM -RA BR OVC003 A2972 RMK P0001 MADISHF
BUF,2017-04-01 03:54,-78.7358,42.9408,39.90,37.90,92.48,10.00,7.00,0.01,29.72,1006.90,2.00,M,OVC,M,M,M,300.00,M,M,M,-RA BR,KBUF 010354Z 01007KT 2SM -RA BR OVC003 04/03 A2972 RMK AO2 SLP069 P0001 T00440033
BUF,2017-04-01 03:55,-78.7358,42.9408,M,M,M,10.00,7.00,M,29.72,M,2.00,M,OVC,M,M,M,300.00,M,M,M,-RA BR,KBUF 010355Z AUTO 01007KT 2SM -RA BR OVC003 A2972 RMK MADISHF
BUF,2017-04-01 04:00,-78.7358,42.9408,M,M,M,10.00,9.00,M,29.72,M,2.00,M,OVC,M,M,M,300.00,M,M,M,-RA BR,KBUF 010400Z AUTO 01009KT 2SM -RA BR OVC003 A2972 RMK MADISHF
BUF,2017-04-01 04:05,-78.7358,42.9408,M,M,M,20.00,8.00,M,29.72,M,2.00,M,OVC,M,M,M,300.00,M,M,M,-RA BR,KBUF 010405Z AUTO 02008KT 2SM -RA BR OVC003 A2972 RMK MADISHF
BUF,2017-04-01 04:10,-78.7358,42.9408,M,M,M,20.00,10.00,M,29.72,M,2.00,M,OVC,M,M,M,300.00,M,M,M,-RA BR,KBUF 010410Z AUTO 02010KT 2SM -RA BR OVC003 A2972 RMK MADISHF
BUF,2017-04-01 04:15,-78.7358,42.9408,M,M,M,30.00,8.00,0.01,29.72,M,2.00,M,OVC,M,M,M,300.00,M,M,M,-RA BR,KBUF 010415Z AUTO 03008KT 2SM -RA BR OVC003 A2972 RMK P0001 MADISHF
BUF,2017-04-01 04:20,-78.7358,42.9408,M,M,M,20.00,10.00,0.01,29.72,M,2.00,M,OVC,M,M,M,300.00,M,M,M,-RA BR,KBUF 010420Z AUTO 02010KT 2SM -RA BR OVC003 A2972 RMK P0001 MADISHF
BUF,2017-04-01 04:25,-78.7358,42.9408,M,M,M,20.00,9.00,0.01,29.73,M,2.00,M,OVC,M,M,M,300.00,M,M,M,-RA BR,KBUF 010425Z AUTO 02009KT 2SM -RA BR OVC003 A2973 RMK P0001 MADISHF
BUF,2017-04-01 04:30,-78.7358,42.9408,M,M,M,20.00,7.00,0.01,29.73,M,2.00,M,OVC,M,M,M,300.00,M,M,M,-RA BR,KBUF 010430Z AUTO 02007KT 2SM -RA BR OVC003 A2973 RMK P0001 MADISHF
BUF,2017-04-01 04:35,-78.7358,42.9408,M,M,M,10.00,8.00,0.01,29.73,M,2.00,M,OVC,M,M,M,300.00,M,M,M,-RA BR,KBUF 010435Z AUTO 01008KT 2SM -RA BR OVC003 A2973 RMK P0001 MADISHF
BUF,2017-04-01 04:40,-78.7358,42.9408,M,M,M,10.00,8.00,0.01,29.73,M,2.00,M,OVC,M,M,M,300.00,M,M,M,-RA BR,KBUF 010440Z AUTO 01008KT 2SM -RA BR OVC003 A2973 RMK P0001 MADISHF
BUF,2017-04-01 04:45,-78.7358,42.9408,M,M,M,10.00,8.00,0.01,29.74,M,2.00,M,OVC,M,M,M,300.00,M,M,M,-RA BR,KBUF 010445Z AUTO 01008KT 2SM -RA BR OVC003 A2974 RMK P0001 MADISHF
BUF,2017-04-01 04:50,-78.7358,42.9408,M,M,M,10.00,9.00,0.01,29.74,M,2.00,M,OVC,M,M,M,300.00,M,M,M,-RA BR,KBUF 010450Z AUTO 01009KT 2SM -RA BR OVC003 A2974 RMK P0001 MADISHF
BUF,2017-04-01 04:54,-78.7358,42.9408,37.90,36.00,92.78,10.00,8.00,0.01,29.74,1007.70,3.00,M,OVC,M,M,M,300.00,M,M,M,-RA BR,KBUF 010454Z 01008KT 3SM -RA BR OVC003 03/02 A2974 RMK AO2 SLP077 P0001 T00330022 400830033
BUF,2017-04-01 04:55,-78.7358,42.9408,M,M,M,10.00,9.00,M,29.74,M,3.00,14.00,OVC,M,M,M,300.00,M,M,M,-RA BR,KBUF 010455Z AUTO 01009G14KT 3SM -RA BR OVC003 A2974 RMK MADISHF
BUF,2017-04-01 05:00,-78.7358,42.9408,M,M,M,10.00,8.00,M,29.75,M,3.00,M,OVC,M,M,M,400.00,M,M,M,-RA BR,KBUF 010500Z AUTO 01008KT 3SM -RA BR OVC004 A2975 RMK MADISHF
BUF,2017-04-01 05:05,-78.7358,42.9408,M,M,M,20.00,9.00,M,29.75,M,3.00,M,OVC,M,M,M,400.00,M,M,M,-RA BR,KBUF 010505Z AUTO 02009KT 3SM -RA BR OVC004 A2975 RMK MADISHF
BUF,2017-04-01 05:10,-78.7358,42.9408,M,M,M,10.00,10.00,M,29.75,M,3.00,16.00,OVC,M,M,M,400.00,M,M,M,-RA BR,KBUF 010510Z AUTO 01010G16KT 3SM -RA BR OVC004 A2975 RMK MADISHF
BUF,2017-04-01 05:15,-78.7358,42.9408,M,M,M,10.00,8.00,M,29.75,M,3.00,M,OVC,M,M,M,400.00,M,M,M,-RA BR,KBUF 010515Z AUTO 01008KT 3SM -RA BR OVC004 A2975 RMK MADISHF
BUF,2017-04-01 05:20,-78.7358,42.9408,M,M,M,10.00,9.00,0.01,29.76,M,3.00,M,OVC,M,M,M,400.00,M,M,M,-RA BR,KBUF 010520Z AUTO 01009KT 3SM -RA BR OVC004 A2976 RMK P0001 MADISHF
BUF,2017-04-01 05:25,-78.7358,42.9408,M,M,M,10.00,10.00,0.01,29.76,M,4.00,M,OVC,M,M,M,400.00,M,M,M,-RA BR,KBUF 010525Z AUTO 01010KT 4SM -RA BR OVC004 A2976 RMK P0001 MADISHF
BUF,2017-04-01 05:30,-78.7358,42.9408,M,M,M,10.00,9.00,0.01,29.76,M,4.00,M,OVC,M,M,M,300.00,M,M,M,-RA BR,KBUF 010530Z AUTO 01009KT 4SM -RA BR OVC003 A2976 RMK P0001 MADISHF
BUF,2017-04-01 05:35,-78.7358,42.9408,M,M,M,20.00,11.00,0.01,29.76,M,5.00,M,OVC,M,M,M,300.00,M,M,M,-RA BR,KBUF 010535Z AUTO 02011KT 5SM -RA BR OVC003 A2976 RMK P0001 MADISHF
BUF,2017-04-01 05:40,-78.7358,42.9408,M,M,M,20.00,8.00,0.01,29.76,M,4.00,M,OVC,M,M,M,400.00,M,M,M,-RA BR,KBUF 010540Z AUTO 02008KT 4SM -RA BR OVC004 A2976 RMK P0001 MADISHF
BUF,2017-04-01 05:45,-78.7358,42.9408,M,M,M,20.00,8.00,0.01,29.76,M,4.00,M,OVC,M,M,M,400.00,M,M,M,-RA BR,KBUF 010545Z AUTO 02008KT 4SM -RA BR OVC004 A2976 RMK P0001 MADISHF
BUF,2017-04-01 05:50,-78.7358,42.9408,M,M,M,10.00,8.00,0.01,29.76,M,4.00,M,OVC,M,M,M,400.00,M,M,M,-RA BR,KBUF 010550Z AUTO 01008KT 4SM -RA BR OVC004 A2976 RMK P0001 MADISHF
BUF,2017-04-01 05:54,-78.7358,42.9408,37.00,35.10,92.76,20.00,8.00,0.01,29.76,1008.40,5.00,M,OVC,M,M,M,400.00,M,M,M,-RA BR,KBUF 010554Z 02008KT 5SM -RA BR OVC004 03/02 A2976 RMK AO2 SLP084 P0001 60011 T00280017 10072 20028 53018
BUF,2017-04-01 05:55,-78.7358,42.9408,M,M,M,20.00,9.00,M,29.76,M,5.00,M,OVC,M,M,M,400.00,M,M,M,-RA BR,KBUF 010555Z AUTO 02009KT 5SM -RA BR OVC004 A2976 RMK MADISHF
BUF,2017-04-01 06:00,-78.7358,42.9408,M,M,M,20.00,9.00,M,29.76,M,5.00,M,OVC,M,M,M,400.00,M,M,M,-RA BR,KBUF 010600Z AUTO 02009KT 5SM -RA BR OVC004 A2976 RMK MADISHF
BUF,2017-04-01 06:05,-78.7358,42.9408,M,M,M,20.00,11.00,M,29.76,M,5.00,M,OVC,M,M,M,400.00,M,M,M,-RA BR,KBUF 010605Z AUTO 02011KT 5SM -RA BR OVC004 A2976 RMK MADISHF
BUF,2017-04-01 06:10,-78.7358,42.9408,M,M,M,10.00,10.00,M,29.77,M,6.00,M,OVC,M,M,M,400.00,M,M,M,-RA BR,KBUF 010610Z AUTO 01010KT 6SM -RA BR OVC004 A2977 RMK MADISHF
BUF,2017-04-01 06:15,-78.7358,42.9408,M,M,M,10.00,8.00,M,29.77,M,6.00,M,OVC,M,M,M,400.00,M,M,M,-RA BR,KBUF 010615Z AUTO 01008KT 6SM -RA BR OVC004 A2977 RMK MADISHF
BUF,2017-04-01 06:20,-78.7358,42.9408,M,M,M,20.00,11.00,M,29.77,M,6.00,M,OVC,M,M,M,400.00,M,M,M,-RA BR,KBUF 010620Z AUTO 02011KT 6SM -RA BR OVC004 A2977 RMK MADISHF
BUF,2017-04-01 06:25,-78.7358,42.9408,M,M,M,20.00,9.00,M,29.77,M,5.00,M,OVC,M,M,M,400.00,M,M,M,-RA BR,KBUF 010625Z AUTO 02009KT 5SM -RA BR OVC004 A2977 RMK MADISHF
BUF,2017-04-01 06:30,-78.7358,42.9408,M,M,M,10.00,8.00,M,29.78,M,5.00,M,OVC,M,M,M,400.00,M,M,M,-RA BR,KBUF 010630Z AUTO 01008KT 5SM -RA BR OVC004 A2978 RMK MADISHF
BUF,2017-04-01 06:35,-78.7358,42.9408,M,M,M,360.00,8.00,M,29.78,M,5.00,M,OVC,M,M,M,400.00,M,M,M,-RA BR,KBUF 010635Z AUTO 36008KT 5SM -RA BR OVC004 A2978 RMK MADISHF
BUF,2017-04-01 06:40,-78.7358,42.9408,M,M,M,10.00,7.00,M,29.79,M,5.00,M,OVC,M,M,M,400.00,M,M,M,-RA BR,KBUF 010640Z AUTO 01007KT 5SM -RA BR OVC004 A2979 RMK MADISHF
BUF,2017-04-01 06:45,-78.7358,42.9408,M,M,M,10.00,9.00,M,29.79,M,4.00,M,OVC,M,M,M,400.00,M,M,M,-RA BR,KBUF 010645Z AUTO 01009KT 4SM -RA BR OVC004 A2979 RMK MADISHF
BUF,2017-04-01 06:50,-78.7358,42.9408,M,M,M,10.00,7.00,M,29.79,M,3.50,M,OVC,M,M,M,400.00,M,M,M,-RA BR,KBUF 010650Z AUTO 01007KT 3SM -RA BR OVC004 A2979 RMK MADISHF
BUF,2017-04-01 06:54,-78.7358,42.9408,37.00,35.10,92.76,10.00,9.00,0.00,29.79,1009.30,3.00,M,OVC,M,M,M,400.00,M,M,M,-RA BR,KBUF 010654Z 01009KT 3SM -RA BR OVC004 03/02 A2979 RMK AO2 SLP093 P0000 T00280017
BUF,2017-04-01 06:55,-78.7358,42.9408,M,M,M,10.00,9.00,M,29.79,M,3.50,M,OVC,M,M,M,400.00,M,M,M,-RA BR,KBUF 010655Z AUTO 01009KT 3SM -RA BR OVC004 A2979 RMK MADISHF
BUF,2017-04-01 07:00,-78.7358,42.9408,M,M,M,360.00,8.00,M,29.80,M,4.00,M,OVC,M,M,M,400.00,M,M,M,-RA BR,KBUF 010700Z AUTO 36008KT 4SM -RA BR OVC004 A2980 RMK MADISHF
BUF,2017-04-01 07:05,-78.7358,42.9408,M,M,M,350.00,10.00,M,29.80,M,3.00,M,OVC,M,M,M,400.00,M,M,M,-RA BR,KBUF 010705Z AUTO 35010KT 3SM -RA BR OVC004 A2980 RMK MADISHF
BUF,2017-04-01 07:10,-78.7358,42.9408,M,M,M,360.00,10.00,M,29.80,M,2.50,M,OVC,M,M,M,300.00,M,M,M,-RA BR,KBUF 010710Z AUTO 36010KT 2 1/2SM -RA BR OVC003 A2980 RMK MADISHF
BUF,2017-04-01 07:11,-78.7358,42.9408,37.00,35.10,92.76,360.00,11.00,0.00,29.80,M,2.50,M,OVC,M,M,M,300.00,M,M,M,-RA BR,KBUF 010711Z 36011KT 2 1/2SM -RA BR OVC003 03/02 A2980 RMK AO2 P0000 T00280017
BUF,2017-04-01 07:15,-78.7358,42.9408,M,M,M,360.00,11.00,M,29.80,M,2.50,M,OVC,M,M,M,300.00,M,M,M,-RA BR,KBUF 010715Z AUTO 36011KT 2 1/2SM -RA BR OVC003 A2980 RMK MADISHF
BUF,2017-04-01 07:20,-78.7358,42.9408,M,M,M,10.00,9.00,M,29.80,M,2.50,M,OVC,M,M,M,300.00,M,M,M,-RA BR,KBUF 010720Z AUTO 01009KT 2 1/2SM -RA BR OVC003 A2980 RMK CIG 2V6  MADISHF
BUF,2017-04-01 07:25,-78.7358,42.9408,M,M,M,350.00,10.00,M,29.81,M,3.00,M,OVC,M,M,M,300.00,M,M,M,-RA BR,KBUF 010725Z AUTO 35010KT 3SM -RA BR OVC003 A2981 RMK CIG 2V6  MADISHF
BUF,2017-04-01 07:30,-78.7358,42.9408,M,M,M,360.00,10.00,M,29.81,M,2.50,M,OVC,M,M,M,300.00,M,M,M,-RA BR,KBUF 010730Z AUTO 36010KT 2 1/2SM -RA BR OVC003 A2981 RMK MADISHF
BUF,2017-04-01 07:35,-78.7358,42.9408,M,M,M,360.00,11.00,M,29.81,M,3.00,M,OVC,M,M,M,300.00,M,M,M,-RA BR,KBUF 010735Z AUTO 36011KT 3SM -RA BR OVC003 A2981 RMK MADISHF
BUF,2017-04-01 07:40,-78.7358,42.9408,36.00,34.00,92.35,360.00,10.00,0.00,29.82,M,3.00,M,OVC,M,M,M,300.00,M,M,M,-RA BR,KBUF 010740Z 36010KT 3SM -RA BR OVC003 02/01 A2982 RMK AO2 P0000 T00220011
BUF,2017-04-01 07:45,-78.7358,42.9408,M,M,M,360.00,11.00,M,29.82,M,4.00,M,OVC,M,M,M,300.00,M,M,M,-RA BR,KBUF 010745Z AUTO 36011KT 4SM -RA BR OVC003 A2982 RMK MADISHF
BUF,2017-04-01 07:50,-78.7358,42.9408,M,M,M,10.00,11.00,M,29.82,M,4.00,M,OVC,M,M,M,300.00,M,M,M,-RA BR,KBUF 010750Z AUTO 01011KT 4SM -RA BR OVC003 A2982 RMK MADISHF
BUF,2017-04-01 07:54,-78.7358,42.9408,36.00,34.00,92.35,10.00,9.00,0.00,29.82,1010.40,4.00,M,OVC,M,M,M,300.00,M,M,M,-RA BR,KBUF 010754Z 01009KT 4SM -RA BR OVC003 02/01 A2982 RMK AO2 SLP104 P0000 T00220011
BUF,2017-04-01 07:55,-78.7358,42.9408,M,M,M,10.00,9.00,M,29.82,M,4.00,M,OVC,M,M,M,300.00,M,M,M,-RA BR,KBUF 010755Z AUTO 01009KT 4SM -RA BR OVC003 A2982 RMK MADISHF
BUF,2017-04-01 08:00,-78.7358,42.9408,M,M,M,360.00,12.00,M,29.82,M,4.00,M,OVC,M,M,M,300.00,M,M,M,-RA BR,KBUF 010800Z AUTO 36012KT 4SM -RA BR OVC003 A2982 RMK MADISHF
BUF,2017-04-01 08:05,-78.7358,42.9408,M,M,M,10.00,12.00,M,29.83,M,3.00,M,OVC,M,M,M,300.00,M,M,M,-RA BR,KBUF 010805Z AUTO 01012KT 3SM -RA BR OVC003 A2983 RMK MADISHF
BUF,2017-04-01 08:10,-78.7358,42.9408,M,M,M,10.00,11.00,M,29.83,M,2.50,M,OVC,M,M,M,300.00,M,M,M,-RA BR,KBUF 010810Z AUTO 01011KT 2 1/2SM -RA BR OVC003 A2983 RMK MADISHF
BUF,2017-04-01 08:13,-78.7358,42.9408,36.00,34.00,92.35,10.00,9.00,0.00,29.83,M,2.50,M,OVC,M,M,M,200.00,M,M,M,-RA BR,KBUF 010813Z 01009KT 2 1/2SM -RA BR OVC002 02/01 A2983 RMK AO2 P0000 T00220011
BUF,2017-04-01 08:15,-78.7358,42.9408,M,M,M,10.00,7.00,M,29.83,M,2.50,M,OVC,M,M,M,200.00,M,M,M,-RA BR,KBUF 010815Z AUTO 01007KT 2 1/2SM -RA BR OVC002 A2983 RMK MADISHF
BUF,2017-04-01 08:20,-78.7358,42.9408,M,M,M,20.00,12.00,M,29.83,M,2.00,M,OVC,M,M,M,200.00,M,M,M,-RA BR,KBUF 010820Z AUTO 02012KT 2SM -RA BR OVC002 A2983 RMK MADISHF
BUF,2017-04-01 08:25,-78.7358,42.9408,M,M,M,10.00,10.00,M,29.84,M,2.00,M,OVC,M,M,M,200.00,M,M,M,-RA BR,KBUF 010825Z AUTO 01010KT 2SM -RA BR OVC002 A2984 RMK MADISHF
BUF,2017-04-01 08:30,-78.7358,42.9408,M,M,M,10.00,10.00,M,29.84,M,2.50,M,OVC,M,M,M,200.00,M,M,M,-RA BR,KBUF 010830Z AUTO 01010KT 2 1/2SM -RA BR OVC002 A2984 RMK MADISHF
BUF,2017-04-01 08:35,-78.7358,42.9408,M,M,M,10.00,10.00,M,29.84,M,2.50,M,OVC,M,M,M,200.00,M,M,M,-RA BR,KBUF 010835Z AUTO 01010KT 2 1/2SM -RA BR OVC002 A2984 RMK MADISHF
BUF,2017-04-01 08:40,-78.7358,42.9408,M,M,M,10.00,8.00,M,29.85,M,3.00,M,OVC,M,M,M,200.00,M,M,M,-RA BR,KBUF 010840Z AUTO 01008KT 3SM -RA BR OVC002 A2985 RMK MADISHF
BUF,2017-04-01 08:42,-78.7358,42.9408,35.60,33.80,93.08,10.00,8.00,0.00,29.85,M,3.00,16.00,OVC,M,M,M,200.00,M,M,M,-RA BR,KBUF 010842Z 01008G16KT 3SM -RA BR OVC002 02/01 A2985
BUF,2017-04-01 08:45,-78.7358,42.9408,M,M,M,10.00,7.00,M,29.85,M,3.00,M,OVC,M,M,M,200.00,M,M,M,-RA BR,KBUF 010845Z AUTO 01007KT 3SM -RA BR OVC002 A2985 RMK MADISHF
BUF,2017-04-01 08:50,-78.7358,42.9408,M,M,M,350.00,13.00,M,29.85,M,3.00,M,OVC,M,M,M,200.00,M,M,M,-RA BR,KBUF 010850Z AUTO 35013KT 3SM -RA BR OVC002 A2985 RMK  PCPN VRY LGT MADISHF
BUF,2017-04-01 08:54,-78.7358,42.9408,35.10,34.00,95.71,10.00,11.00,0.00,29.85,1011.50,3.00,M,OVC,M,M,M,200.00,M,M,M,-RA BR,KBUF 010854Z 01011KT 3SM -RA BR OVC002 02/01 A2985 RMK AO2 SLP115 PCPN VRY LGT P0000 60000 T00170011 53030
BUF,2017-04-01 08:55,-78.7358,42.9408,M,M,M,10.00,11.00,M,29.85,M,3.00,M,OVC,M,M,M,200.00,M,M,M,-RA BR,KBUF 010855Z AUTO 01011KT 3SM -RA BR OVC002 A2985 RMK MADISHF
BUF,2017-04-01 09:00,-78.7358,42.9408,M,M,M,360.00,11.00,M,29.86,M,3.00,M,OVC,M,M,M,200.00,M,M,M,-RA BR,KBUF 010900Z AUTO 36011KT 3SM -RA BR OVC002 A2986 RMK MADISHF
BUF,2017-04-01 09:05,-78.7358,42.9408,M,M,M,360.00,8.00,M,29.86,M,4.00,M,OVC,M,M,M,200.00,M,M,M,-RA BR,KBUF 010905Z AUTO 36008KT 4SM -RA BR OVC002 A2986 RMK MADISHF
BUF,2017-04-01 09:10,-78.7358,42.9408,M,M,M,10.00,10.00,M,29.87,M,6.00,M,BKN,OVC,M,M,200.00,600.00,M,M,-RA BR,KBUF 010910Z AUTO 01010KT 6SM -RA BR BKN002 OVC006 A2987 RMK MADISHF
BUF,2017-04-01 09:15,-78.7358,42.9408,M,M,M,10.00,9.00,M,29.87,M,9.00,M,OVC,M,M,M,400.00,M,M,M,-RA,KBUF 010915Z AUTO 01009KT 9SM -RA OVC004 A2987 RMK CIG 2V7  MADISHF
BUF,2017-04-01 09:20,-78.7358,42.9408,M,M,M,10.00,8.00,M,29.87,M,10.00,M,OVC,M,M,M,400.00,M,M,M,-RA,KBUF 010920Z AUTO 01008KT 10SM -RA OVC004 A2987 RMK CIG 2V7  MADISHF
BUF,2017-04-01 09:25,-78.7358,42.9408,M,M,M,360.00,9.00,M,29.87,M,7.00,M,OVC,M,M,M,400.00,M,M,M,-RA,KBUF 010925Z AUTO 36009KT 7SM -RA OVC004 A2987 RMK CIG 2V7  MADISHF
BUF,2017-04-01 09:30,-78.7358,42.9408,M,M,M,10.00,9.00,M,29.88,M,7.00,M,OVC,M,M,M,400.00,M,M,M,-RA,KBUF 010930Z AUTO 01009KT 7SM -RA OVC004 A2988 RMK CIG 3V7  MADISHF
BUF,2017-04-01 09:35,-78.7358,42.9408,M,M,M,10.00,10.00,M,29.88,M,10.00,M,OVC,M,M,M,400.00,M,M,M,-RA,KBUF 010935Z AUTO 01010KT 10SM -RA OVC004 A2988 RMK MADISHF
BUF,2017-04-01 09:40,-78.7358,42.9408,M,M,M,360.00,8.00,M,29.88,M,10.00,M,OVC,M,M,M,499.00,M,M,M,-RA,KBUF 010940Z AUTO 36008KT 10SM -RA OVC004 A2988 RMK CIG 3V9  MADISHF
BUF,2017-04-01 09:44,-78.7358,42.9408,35.60,33.80,93.08,10.00,7.00,0.00,29.89,M,10.00,M,OVC,M,M,M,500.00,M,M,M,-RA,KBUF 010944Z 01007KT 10SM -RA OVC005 02/01 A2989
BUF,2017-04-01 09:45,-78.7358,42.9408,M,M,M,10.00,7.00,M,29.89,M,10.00,M,OVC,M,M,M,499.00,M,M,M,-RA,KBUF 010945Z AUTO 01007KT 10SM -RA OVC004 A2989 RMK CIG 3V9  MADISHF
BUF,2017-04-01 09:50,-78.7358,42.9408,M,M,M,10.00,8.00,M,29.89,M,9.00,M,OVC,M,M,M,499.00,M,M,M,-RA,KBUF 010950Z AUTO 01008KT 9SM -RA OVC004 A2989 RMK CIG 3V9  MADISHF
BUF,2017-04-01 09:54,-78.7358,42.9408,35.10,33.10,92.32,360.00,8.00,0.00,29.89,1012.80,8.00,M,OVC,M,M,M,500.00,M,M,M,-RA,KBUF 010954Z 36008KT 8SM -RA OVC005 02/01 A2989 RMK AO2 CIG 003V009 SLP128 P0000 T00170006
BUF,2017-04-01 09:55,-78.7358,42.9408,M,M,M,10.00,8.00,M,29.89,M,8.00,M,OVC,M,M,M,499.00,M,M,M,-RA,KBUF 010955Z AUTO 01008KT 8SM -RA OVC004 A2989 RMK CIG 3V9  MADISHF
BUF,2017-04-01 10:00,-78.7358,42.9408,M,M,M,360.00,9.00,M,29.89,M,7.00,M,OVC,M,M,M,400.00,M,M,M,-RA,KBUF 011000Z AUTO 36009KT 7SM -RA OVC004 A2989 RMK CIG 3V7  MADISHF
BUF,2017-04-01 10:02,-78.7358,42.9408,35.10,33.10,92.32,10.00,9.00,0.00,29.90,M,7.00,M,OVC,M,M,M,400.00,M,M,M,-RA,KBUF 011002Z 01009KT 7SM -RA OVC004 02/01 A2990 RMK AO2 CIG 003V007 P0000 T00170006
BUF,2017-04-01 10:05,-78.7358,42.9408,M,M,M,10.00,7.00,M,29.90,M,8.00,M,OVC,M,M,M,400.00,M,M,M,-RA,KBUF 011005Z AUTO 01007KT 8SM -RA OVC004 A2990 RMK CIG 3V9  MADISHF
BUF,2017-04-01 10:10,-78.7358,42.9408,M,M,M,360.00,7.00,M,29.90,M,7.00,M,OVC,M,M,M,400.00,M,M,M,-RA,KBUF 011010Z AUTO 36007KT 7SM -RA OVC004 A2990 RMK MADISHF
BUF,2017-04-01 10:15,-78.7358,42.9408,M,M,M,350.00,10.00,M,29.90,M,5.00,M,OVC,M,M,M,400.00,M,M,M,-RA BR,KBUF 011015Z AUTO 35010KT 5SM -RA BR OVC004 A2990 RMK CIG 3V9  MADISHF
BUF,2017-04-01 10:20,-78.7358,42.9408,M,M,M,350.00,10.00,M,29.91,M,7.00,M,OVC,M,M,M,600.00,M,M,M,-RA,KBUF 011020Z AUTO 35010KT 7SM -RA OVC006 A2991 RMK CIG 3V10  MADISHF
BUF,2017-04-01 10:25,-78.7358,42.9408,M,M,M,350.00,9.00,M,29.91,M,10.00,M,OVC,M,M,M,600.00,M,M,M,-RA,KBUF 011025Z AUTO 35009KT 10SM -RA OVC006 A2991 RMK CIG 3V10  MADISHF
BUF,2017-04-01 10:26,-78.7358,42.9408,35.10,33.10,92.32,360.00,8.00,0.00,29.91,M,10.00,M,OVC,M,M,M,600.00,M,M,M,-RA,KBUF 011026Z 36008KT 10SM -RA OVC006 02/01 A2991 RMK AO2 CIG 003V010 P0000 T00170006
BUF,2017-04-01 10:30,-78.7358,42.9408,M,M,M,350.00,8.00,M,29.92,M,10.00,M,OVC,M,M,M,600.00,M,M,M,-RA,KBUF 011030Z AUTO 35008KT 10SM -RA OVC006 A2992 RMK CIG 3V10  MADISHF
BUF,2017-04-01 10:35,-78.7358,42.9408,M,M,M,350.00,9.00,M,29.92,M,10.00,M,OVC,M,M,M,600.00,M,M,M,M,KBUF 011035Z AUTO 35009KT 10SM OVC006 A2992 RMK CIG 3V10  MADISHF
BUF,2017-04-01 10:40,-78.7358,42.9408,M,M,M,350.00,7.00,M,29.92,M,6.00,M,OVC,M,M,M,600.00,M,M,M,BR,KBUF 011040Z AUTO 35007KT 6SM BR OVC006 A2992 RMK CIG 3V10  MADISHF
BUF,2017-04-01 10:45,-78.7358,42.9408,M,M,M,350.00,8.00,M,29.92,M,6.00,M,OVC,M,M,M,600.00,M,M,M,BR,KBUF 011045Z AUTO 35008KT 6SM BR OVC006 A2992 RMK CIG 3V10  MADISHF
BUF,2017-04-01 10:50,-78.7358,42.9408,M,M,M,360.00,9.00,M,29.93,M,9.00,M,OVC,M,M,M,600.00,M,M,M,M,KBUF 011050Z AUTO 36009KT 9SM OVC006 A2993 RMK CIG 3V10  MADISHF
BUF,2017-04-01 10:54,-78.7358,42.9408,35.10,33.10,92.32,360.00,7.00,0.00,29.92,1013.90,9.00,M,OVC,M,M,M,600.00,M,M,M,M,KBUF 011054Z 36007KT 9SM OVC006 02/01 A2992 RMK AO2 RAE35 CIG 003V010 SLP139 P0000 T00170006
BUF,2017-04-01 10:55,-78.7358,42.9408,M,M,M,360.00,7.00,M,29.92,M,9.00,M,OVC,M,M,M,600.00,M,M,M,M,KBUF 011055Z AUTO 36007KT 9SM OVC006 A2992 RMK CIG 3V10  MADISHF
BUF,2017-04-01 11:00,-78.7358,42.9408,M,M,M,360.00,7.00,M,29.93,M,8.00,M,OVC,M,M,M,600.00,M,M,M,M,KBUF 011100Z AUTO 36007KT 8SM OVC006 A2993 RMK CIG 3V10  MADISHF
BUF,2017-04-01 11:05,-78.7358,42.9408,M,M,M,360.00,7.00,M,29.93,M,8.00,M,OVC,M,M,M,600.00,M,M,M,M,KBUF 011105Z AUTO 36007KT 8SM OVC006 A2993 RMK CIG 3V10  MADISHF
BUF,2017-04-01 11:10,-78.7358,42.9408,M,M,M,340.00,6.00,M,29.94,M,9.00,M,OVC,M,M,M,600.00,M,M,M,M,KBUF 011110Z AUTO 34006KT 9SM OVC006 A2994 RMK CIG 4V10  MADISHF
BUF,2017-04-01 11:15,-78.7358,42.9408,M,M,M,350.00,7.00,M,29.94,M,7.00,M,OVC,M,M,M,600.00,M,M,M,M,KBUF 011115Z AUTO 35007KT 7SM OVC006 A2994 RMK CIG 4V10  MADISHF
BUF,2017-04-01 11:20,-78.7358,42.9408,M,M,M,350.00,8.00,M,29.94,M,6.00,M,OVC,M,M,M,600.00,M,M,M,BR,KBUF 011120Z AUTO 35008KT 6SM BR OVC006 A2994 RMK CIG 4V9  MADISHF
BUF,2017-04-01 11:25,-78.7358,42.9408,M,M,M,340.00,9.00,M,29.94,M,6.00,M,OVC,M,M,M,499.00,M,M,M,BR,KBUF 011125Z AUTO 34009KT 6SM BR OVC004 A2994 RMK CIG 4V9  MADISHF
BUF,2017-04-01 11:30,-78.7358,42.9408,M,M,M,350.00,9.00,M,29.94,M,5.00,M,OVC,M,M,M,499.00,M,M,M,BR,KBUF 011130Z AUTO 35009KT 5SM BR OVC004 A2994 RMK MADISHF
BUF,2017-04-01 11:35,-78.7358,42.9408,M,M,M,350.00,8.00,M,29.95,M,4.00,M,OVC,M,M,M,499.00,M,M,M,-DZ BR,KBUF 011135Z AUTO 35008KT 4SM -DZ BR OVC004 A2995 RMK MADISHF
BUF,2017-04-01 11:40,-78.7358,42.9408,M,M,M,360.00,8.00,M,29.95,M,6.00,M,OVC,M,M,M,499.00,M,M,M,-DZ BR,KBUF 011140Z AUTO 36008KT 6SM -DZ BR OVC004 A2995 RMK MADISHF
BUF,2017-04-01 11:45,-78.7358,42.9408,M,M,M,350.00,8.00,M,29.95,M,6.00,M,OVC,M,M,M,499.00,M,M,M,-DZ BR,KBUF 011145Z AUTO 35008KT 6SM -DZ BR OVC004 A2995 RMK CIG 4V9  MADISHF
BUF,2017-04-01 11:50,-78.7358,42.9408,M,M,M,350.00,8.00,M,29.95,M,6.00,M,OVC,M,M,M,499.00,M,M,M,-DZ BR,KBUF 011150Z AUTO 35008KT 6SM -DZ BR OVC004 A2995 RMK CIG 4V9  MADISHF
BUF,2017-04-01 11:54,-78.7358,42.9408,35.10,33.10,92.32,350.00,8.00,0.00,29.95,1014.90,8.00,M,OVC,M,M,M,500.00,M,M,M,-DZ,KBUF 011154Z 35008KT 8SM -DZ OVC005 02/01 A2995 RMK AO2 DZB31 CIG 004V009 SLP149 P0000 60000 70037 T00170006 10028 20017 51034
BUF,2017-04-01 11:55,-78.7358,42.9408,M,M,M,360.00,8.00,M,29.96,M,8.00,M,OVC,M,M,M,600.00,M,M,M,-DZ,KBUF 011155Z AUTO 36008KT 8SM -DZ OVC006 A2996 RMK MADISHF
BUF,2017-04-01 12:00,-78.7358,42.9408,M,M,M,350.00,8.00,M,29.96,M,7.00,M,OVC,M,M,M,600.00,M,M,M,-DZ,KBUF 011200Z AUTO 35008KT 7SM -DZ OVC006 A2996 RMK MADISHF
BUF,2017-04-01 12:05,-78.7358,42.9408,M,M,M,350.00,7.00,M,29.96,M,6.00,M,OVC,M,M,M,600.00,M,M,M,-DZ BR,KBUF 011205Z AUTO 35007KT 6SM -DZ BR OVC006 A2996 RMK MADISHF
BUF,2017-04-01 12:10,-78.7358,42.9408,M,M,M,360.00,5.00,M,29.96,M,4.00,M,OVC,M,M,M,600.00,M,M,M,-DZ BR,KBUF 011210Z AUTO 36005KT 4SM -DZ BR OVC006 A2996 RMK MADISHF
BUF,2017-04-01 12:15,-78.7358,42.9408,M,M,M,360.00,6.00,M,29.96,M,2.00,M,OVC,M,M,M,600.00,M,M,M,-DZ BR,KBUF 011215Z AUTO 36006KT 2SM -DZ BR OVC006 A2996 RMK MADISHF
BUF,2017-04-01 12:20,-78.7358,42.9408,35.10,33.10,92.32,350.00,6.00,0.00,29.96,M,2.00,M,OVC,M,M,M,600.00,M,M,M,-DZ BR,KBUF 011220Z 35006KT 2SM -DZ BR OVC006 02/01 A2996 RMK AO2 P0000 T00170006
BUF,2017-04-01 12:25,-78.7358,42.9408,M,M,M,350.00,6.00,M,29.97,M,2.00,M,OVC,M,M,M,600.00,M,M,M,-DZ BR,KBUF 011225Z AUTO 35006KT 2SM -DZ BR OVC006 A2997 RMK MADISHF
BUF,2017-04-01 12:30,-78.7358,42.9408,M,M,M,360.00,7.00,M,29.97,M,2.00,M,OVC,M,M,M,600.00,M,M,M,-DZ BR,KBUF 011230Z AUTO 36007KT 2SM -DZ BR OVC006 A2997 RMK MADISHF
BUF,2017-04-01 12:35,-78.7358,42.9408,M,M,M,350.00,5.00,M,29.97,M,2.00,M,OVC,M,M,M,600.00,M,M,M,-DZ BR,KBUF 011235Z AUTO 35005KT 2SM -DZ BR OVC006 A2997 RMK MADISHF
BUF,2017-04-01 12:40,-78.7358,42.9408,M,M,M,340.00,7.00,M,29.97,M,2.00,M,OVC,M,M,M,600.00,M,M,M,-DZ BR,KBUF 011240Z AUTO 34007KT 2SM -DZ BR OVC006 A2997 RMK MADISHF
BUF,2017-04-01 12:45,-78.7358,42.9408,M,M,M,340.00,6.00,M,29.97,M,2.00,M,OVC,M,M,M,600.00,M,M,M,-DZ BR,KBUF 011245Z AUTO 34006KT 2SM -DZ BR OVC006 A2997 RMK MADISHF
BUF,2017-04-01 12:50,-78.7358,42.9408,M,M,M,340.00,7.00,M,29.97,M,2.00,M,OVC,M,M,M,600.00,M,M,M,-DZ BR,KBUF 011250Z AUTO 34007KT 2SM -DZ BR OVC006 A2997 RMK MADISHF
BUF,2017-04-01 12:54,-78.7358,42.9408,36.00,33.10,89.09,340.00,7.00,0.00,29.98,1015.70,5.00,M,OVC,M,M,M,400.00,M,M,M,-DZ BR,KBUF 011254Z 34007KT 5SM -DZ BR OVC004 02/01 A2998 RMK AO2 SLP157 P0000 T00220006
BUF,2017-04-01 12:55,-78.7358,42.9408,M,M,M,340.00,8.00,M,29.98,M,5.00,M,OVC,M,M,M,400.00,M,M,M,-DZ BR,KBUF 011255Z AUTO 34008KT 5SM -DZ BR OVC004 A2998 RMK MADISHF
BUF,2017-04-01 13:00,-78.7358,42.9408,M,M,M,330.00,7.00,M,29.98,M,6.00,M,OVC,M,M,M,400.00,M,M,M,-DZ BR,KBUF 011300Z AUTO 33007KT 6SM -DZ BR OVC004 A2998 RMK MADISHF
BUF,2017-04-01 13:05,-78.7358,42.9408,M,M,M,350.00,6.00,M,29.98,M,7.00,M,OVC,M,M,M,400.00,M,M,M,-DZ,KBUF 011305Z AUTO 35006KT 7SM -DZ OVC004 A2998 RMK MADISHF
BUF,2017-04-01 13:10,-78.7358,42.9408,M,M,M,310.00,7.00,M,29.98,M,5.00,M,OVC,M,M,M,400.00,M,M,M,-DZ BR,KBUF 011310Z AUTO 31007KT 5SM -DZ BR OVC004 A2998 RMK MADISHF
BUF,2017-04-01 13:15,-78.7358,42.9408,M,M,M,330.00,8.00,M,29.98,M,5.00,M,OVC,M,M,M,400.00,M,M,M,-DZ BR,KBUF 011315Z AUTO 33008KT 5SM -DZ BR OVC004 A2998 RMK MADISHF
BUF,2017-04-01 13:20,-78.7358,42.9408,M,M,M,330.00,8.00,M,29.99,M,7.00,M,OVC,M,M,M,400.00,M,M,M,-DZ,KBUF 011320Z AUTO 33008KT 7SM -DZ OVC004 A2999 RMK MADISHF
BUF,2017-04-01 13:25,-78.7358,42.9408,M,M,M,340.00,9.00,M,29.99,M,9.00,M,BKN,OVC,M,M,400.00,1100.00,M,M,-DZ,KBUF 011325Z AUTO 34009KT 9SM -DZ BKN004 OVC011 A2999 RMK MADISHF
BUF,2017-04-01 13:30,-78.7358,42.9408,M,M,M,330.00,8.00,M,29.99,M,8.00,M,BKN,OVC,M,M,400.00,1100.00,M,M,-DZ,KBUF 011330Z AUTO 33008KT 8SM -DZ BKN004 OVC011 A2999 RMK MADISHF
BUF,2017-04-01 13:35,-78.7358,42.9408,M,M,M,320.00,5.00,M,30.00,M,7.00,M,BKN,OVC,M,M,400.00,1100.00,M,M,-DZ,KBUF 011335Z AUTO 32005KT 7SM -DZ BKN004 OVC011 A3000 RMK MADISHF
BUF,2017-04-01 13:40,-78.7358,42.9408,M,M,M,330.00,7.00,M,30.00,M,7.00,M,BKN,OVC,M,M,400.00,1100.00,M,M,-DZ,KBUF 011340Z AUTO 33007KT 7SM -DZ BKN004 OVC011 A3000 RMK MADISHF
BUF,2017-04-01 13:45,-78.7358,42.9408,M,M,M,320.00,6.00,M,30.00,M,5.00,M,BKN,OVC,M,M,400.00,1100.00,M,M,-DZ BR,KBUF 011345Z AUTO 32006KT 5SM -DZ BR BKN004 OVC011 A3000 RMK MADISHF
BUF,2017-04-01 13:50,-78.7358,42.9408,M,M,M,310.00,7.00,M,30.01,M,4.00,M,BKN,OVC,M,M,400.00,1100.00,M,M,-DZ BR,KBUF 011350Z AUTO 31007KT 4SM -DZ BR BKN004 OVC011 A3001 RMK MADISHF
BUF,2017-04-01 13:54,-78.7358,42.9408,36.00,33.10,89.09,310.00,9.00,0.00,30.01,1016.70,4.00,M,BKN,OVC,M,M,400.00,1100.00,M,M,-DZ BR,KBUF 011354Z 31009KT 4SM -DZ BR BKN004 OVC011 02/01 A3001 RMK AO2 SLP167 P0000 T00220006
BUF,2017-04-01 13:55,-78.7358,42.9408,M,M,M,310.00,9.00,M,30.01,M,4.00,M,BKN,OVC,M,M,400.00,999.00,M,M,-DZ BR,KBUF 011355Z AUTO 31009KT 4SM -DZ BR BKN004 OVC009 A3001 RMK MADISHF
BUF,2017-04-01 14:00,-78.7358,42.9408,M,M,M,310.00,7.00,M,30.01,M,3.00,M,BKN,OVC,M,M,400.00,999.00,M,M,-DZ BR,KBUF 011400Z AUTO 31007KT 3SM -DZ BR BKN004 OVC009 A3001 RMK MADISHF
BUF,2017-04-01 14:05,-78.7358,42.9408,M,M,M,320.00,8.00,M,30.01,M,3.00,M,BKN,OVC,M,M,400.00,999.00,M,M,-DZ BR,KBUF 011405Z AUTO 32008KT 3SM -DZ BR BKN004 OVC009 A3001 RMK MADISHF
BUF,2017-04-01 14:10,-78.7358,42.9408,M,M,M,310.00,8.00,M,30.01,M,3.00,M,BKN,OVC,M,M,400.00,999.00,M,M,-DZ BR,KBUF 011410Z AUTO 31008KT 3SM -DZ BR BKN004 OVC009 A3001 RMK MADISHF
BUF,2017-04-01 14:15,-78.7358,42.9408,M,M,M,310.00,7.00,M,30.02,M,6.00,M,BKN,OVC,M,M,400.00,999.00,M,M,-DZ BR,KBUF 011415Z AUTO 31007KT 6SM -DZ BR BKN004 OVC009 A3002 RMK MADISHF
BUF,2017-04-01 14:20,-78.7358,42.9408,M,M,M,320.00,7.00,M,30.02,M,9.00,M,BKN,OVC,M,M,400.00,999.00,M,M,-DZ,KBUF 011420Z AUTO 32007KT 9SM -DZ BKN004 OVC009 A3002 RMK MADISHF
BUF,2017-04-01 14:25,-78.7358,42.9408,M,M,M,310.00,7.00,M,30.02,M,10.00,M,BKN,OVC,M,M,400.00,999.00,M,M,-DZ,KBUF 011425Z AUTO 31007KT 10SM -DZ BKN004 OVC009 A3002 RMK MADISHF
BUF,2017-04-01 14:30,-78.7358,42.9408,M,M,M,300.00,7.00,M,30.02,M,10.00,M,BKN,OVC,M,M,400.00,999.00,M,M,-DZ,KBUF 011430Z AUTO 30007KT 10SM -DZ BKN004 OVC009 A3002 RMK MADISHF
BUF,2017-04-01 14:35,-78.7358,42.9408,M,M,M,310.00,7.00,M,30.02,M,10.00,M,BKN,OVC,M,M,400.00,999.00,M,M,-DZ,KBUF 011435Z AUTO 31007KT 10SM -DZ BKN004 OVC009 A3002 RMK MADISHF
BUF,2017-04-01 14:40,-78.7358,42.9408,M,M,M,310.00,10.00,M,30.03,M,10.00,M,BKN,OVC,M,M,400.00,999.00,M,M,-DZ,KBUF 011440Z AUTO 31010KT 10SM -DZ BKN004 OVC009 A3003 RMK MADISHF
BUF,2017-04-01 14:45,-78.7358,42.9408,M,M,M,310.00,9.00,M,30.03,M,10.00,M,BKN,OVC,M,M,400.00,999.00,M,M,-DZ,KBUF 011445Z AUTO 31009KT 10SM -DZ BKN004 OVC009 A3003 RMK MADISHF
BUF,2017-04-01 14:50,-78.7358,42.9408,M,M,M,320.00,8.00,M,30.03,M,10.00,M,BKN,OVC,M,M,400.00,999.00,M,M,-DZ,KBUF 011450Z AUTO 32008KT 10SM -DZ BKN004 OVC009 A3003 RMK MADISHF
BUF,2017-04-01 14:54,-78.7358,42.9408,36.00,33.10,89.09,320.00,8.00,0.00,30.03,1017.50,10.00,M,BKN,OVC,M,M,600.00,1200.00,M,M,-DZ,KBUF 011454Z 32008KT 10SM -DZ BKN006 OVC012 02/01 A3003 RMK AO2 SLP175 P0000 60000 T00220006 53025
BUF,2017-04-01 14:55,-78.7358,42.9408,M,M,M,320.00,7.00,M,30.03,M,10.00,M,OVC,M,M,M,600.00,M,M,M,-DZ,KBUF 011455Z AUTO 32007KT 10SM -DZ OVC006 A3003 RMK CIG 5V9  MADISHF
BUF,2017-04-01 15:00,-78.7358,42.9408,M,M,M,320.00,9.00,M,30.03,M,9.00,M,OVC,M,M,M,600.00,M,M,M,-DZ,KBUF 011500Z AUTO 32009KT 9SM -DZ OVC006 A3003 RMK CIG 5V9  MADISHF
BUF,2017-04-01 15:05,-78.7358,42.9408,M,M,M,300.00,8.00,M,30.03,M,8.00,M,OVC,M,M,M,600.00,M,M,M,-DZ,KBUF 011505Z AUTO 30008KT 8SM -DZ OVC006 A3003 RMK CIG 5V9  MADISHF
BUF,2017-04-01 15:10,-78.7358,42.9408,M,M,M,300.00,7.00,M,30.03,M,9.00,M,OVC,M,M,M,499.00,M,M,M,-DZ,KBUF 011510Z AUTO 30007KT 9SM -DZ OVC004 A3003 RMK MADISHF
BUF,2017-04-01 15:15,-78.7358,42.9408,M,M,M,310.00,8.00,M,30.03,M,10.00,M,OVC,M,M,M,600.00,M,M,M,-DZ,KBUF 011515Z AUTO 31008KT 10SM -DZ OVC006 A3003 RMK MADISHF
BUF,2017-04-01 15:20,-78.7358,42.9408,M,M,M,310.00,8.00,M,30.03,M,10.00,M,OVC,M,M,M,600.00,M,M,M,-DZ,KBUF 011520Z AUTO 31008KT 10SM -DZ OVC006 A3003 RMK MADISHF
BUF,2017-04-01 15:25,-78.7358,42.9408,M,M,M,310.00,8.00,M,30.03,M,9.00,M,OVC,M,M,M,600.00,M,M,M,M,KBUF 011525Z AUTO 31008KT 9SM OVC006 A3003 RMK MADISHF
BUF,2017-04-01 15:30,-78.7358,42.9408,M,M,M,320.00,9.00,M,30.03,M,9.00,M,OVC,M,M,M,600.00,M,M,M,M,KBUF 011530Z AUTO 32009KT 9SM OVC006 A3003 RMK MADISHF
BUF,2017-04-01 15:35,-78.7358,42.9408,M,M,M,300.00,7.00,M,30.03,M,10.00,M,OVC,M,M,M,600.00,M,M,M,M,KBUF 011535Z AUTO 30007KT 10SM OVC006 A3003 RMK MADISHF
BUF,2017-04-01 15:40,-78.7358,42.9408,M,M,M,300.00,6.00,M,30.03,M,10.00,M,OVC,M,M,M,600.00,M,M,M,M,KBUF 011540Z AUTO 30006KT 10SM OVC006 A3003 RMK MADISHF
BUF,2017-04-01 15:45,-78.7358,42.9408,M,M,M,330.00,9.00,M,30.03,M,10.00,M,OVC,M,M,M,600.00,M,M,M,M,KBUF 011545Z AUTO 33009KT 10SM OVC006 A3003 RMK MADISHF
BUF,2017-04-01 15:50,-78.7358,42.9408,M,M,M,320.00,8.00,M,30.03,M,10.00,M,BKN,OVC,M,M,600.00,1200.00,M,M,M,KBUF 011550Z AUTO 32008KT 10SM BKN006 OVC012 A3003 RMK MADISHF
BUF,2017-04-01 15:54,-78.7358,42.9408,36.00,33.10,89.09,330.00,8.00,0.00,30.03,1017.70,10.00,M,BKN,OVC,M,M,600.00,1200.00,M,M,M,KBUF 011554Z 33008KT 10SM BKN006 OVC012 02/01 A3003 RMK AO2 DZE23 SLP177 P0000 T00220006
BUF,2017-04-01 15:55,-78.7358,42.9408,M,M,M,330.00,7.00,M,30.03,M,10.00,M,OVC,M,M,M,600.00,M,M,M,M,KBUF 011555Z AUTO 33007KT 10SM OVC006 A3003 RMK MADISHF
BUF,2017-04-01 16:00,-78.7358,42.9408,M,M,M,320.00,7.00,M,30.03,M,10.00,M,OVC,M,M,M,600.00,M,M,M,M,KBUF 011600Z AUTO 32007KT 10SM OVC006 A3003 RMK MADISHF
BUF,2017-04-01 16:05,-78.7358,42.9408,M,M,M,320.00,7.00,M,30.03,M,10.00,M,OVC,M,M,M,700.00,M,M,M,M,KBUF 011605Z AUTO 32007KT 10SM OVC007 A3003 RMK MADISHF
BUF,2017-04-01 16:10,-78.7358,42.9408,M,M,M,320.00,8.00,M,30.03,M,10.00,M,OVC,M,M,M,700.00,M,M,M,M,KBUF 011610Z AUTO 32008KT 10SM OVC007 A3003 RMK MADISHF
BUF,2017-04-01 16:15,-78.7358,42.9408,M,M,M,330.00,6.00,M,30.03,M,10.00,M,OVC,M,M,M,700.00,M,M,M,M,KBUF 011615Z AUTO 33006KT 10SM OVC007 A3003 RMK MADISHF
BUF,2017-04-01 16:20,-78.7358,42.9408,M,M,M,320.00,8.00,M,30.03,M,10.00,M,OVC,M,M,M,700.00,M,M,M,M,KBUF 011620Z AUTO 32008KT 10SM OVC007 A3003 RMK CIG 6V12  MADISHF
BUF,2017-04-01 16:25,-78.7358,42.9408,M,M,M,300.00,7.00,M,30.03,M,10.00,M,OVC,M,M,M,900.00,M,M,M,M,KBUF 011625Z AUTO 30007KT 10SM OVC009 A3003 RMK CIG 6V12  MADISHF
BUF,2017-04-01 16:30,-78.7358,42.9408,M,M,M,310.00,7.00,M,30.03,M,10.00,M,OVC,M,M,M,900.00,M,M,M,M,KBUF 011630Z AUTO 31007KT 10SM OVC009 A3003 RMK CIG 6V12  MADISHF
BUF,2017-04-01 16:35,-78.7358,42.9408,M,M,M,320.00,7.00,M,30.04,M,10.00,M,OVC,M,M,M,900.00,M,M,M,M,KBUF 011635Z AUTO 32007KT 10SM OVC009 A3004 RMK CIG 7V12  MADISHF
BUF,2017-04-01 16:40,-78.7358,42.9408,M,M,M,320.00,9.00,M,30.03,M,10.00,M,OVC,M,M,M,900.00,M,M,M,M,KBUF 011640Z AUTO 32009KT 10SM OVC009 A3003 RMK MADISHF
BUF,2017-04-01 16:45,-78.7358,42.9408,M,M,M,310.00,9.00,M,30.03,M,10.00,M,OVC,M,M,M,900.00,M,M,M,M,KBUF 011645Z AUTO 31009KT 10SM OVC009 A3003 RMK MADISHF
BUF,2017-04-01 16:50,-78.7358,42.9408,M,M,M,310.00,8.00,M,30.04,M,10.00,M,OVC,M,M,M,900.00,M,M,M,M,KBUF 011650Z AUTO 31008KT 10SM OVC009 A3004 RMK MADISHF
BUF,2017-04-01 16:54,-78.7358,42.9408,37.00,33.10,85.64,310.00,6.00,0.00,30.04,1017.90,10.00,M,BKN,OVC,M,M,1000.00,1500.00,M,M,M,KBUF 011654Z 31006KT 10SM BKN010 OVC015 03/01 A3004 RMK AO2 SLP179 T00280006
BUF,2017-04-01 16:55,-78.7358,42.9408,M,M,M,320.00,7.00,M,30.04,M,10.00,M,OVC,M,M,M,1100.00,M,M,M,M,KBUF 011655Z AUTO 32007KT 10SM OVC011 A3004 RMK MADISHF
BUF,2017-04-01 17:00,-78.7358,42.9408,M,M,M,320.00,8.00,M,30.03,M,10.00,M,OVC,M,M,M,1100.00,M,M,M,M,KBUF 011700Z AUTO 32008KT 10SM OVC011 A3003 RMK MADISHF
BUF,2017-04-01 17:05,-78.7358,42.9408,M,M,M,320.00,8.00,M,30.03,M,10.00,M,OVC,M,M,M,1100.00,M,M,M,M,KBUF 011705Z AUTO 32008KT 10SM OVC011 A3003 RMK MADISHF
BUF,2017-04-01 17:10,-78.7358,42.9408,M,M,M,320.00,6.00,M,30.03,M,10.00,M,OVC,M,M,M,1100.00,M,M,M,M,KBUF 011710Z AUTO 32006KT 10SM OVC011 A3003 RMK MADISHF
BUF,2017-04-01 17:15,-78.7358,42.9408,M,M,M,300.00,8.00,M,30.03,M,10.00,M,OVC,M,M,M,1100.00,M,M,M,M,KBUF 011715Z AUTO 30008KT 10SM OVC011 A3003 RMK MADISHF
BUF,2017-04-01 17:20,-78.7358,42.9408,M,M,M,320.00,8.00,M,30.04,M,10.00,M,OVC,M,M,M,1100.00,M,M,M,M,KBUF 011720Z AUTO 32008KT 10SM OVC011 A3004 RMK MADISHF
BUF,2017-04-01 17:25,-78.7358,42.9408,M,M,M,300.00,8.00,M,30.04,M,10.00,M,OVC,M,M,M,1100.00,M,M,M,M,KBUF 011725Z AUTO 30008KT 10SM OVC011 A3004 RMK MADISHF
BUF,2017-04-01 17:30,-78.7358,42.9408,M,M,M,290.00,8.00,M,30.05,M,10.00,M,OVC,M,M,M,1300.00,M,M,M,M,KBUF 011730Z AUTO 29008KT 10SM OVC013 A3005 RMK MADISHF
BUF,2017-04-01 17:35,-78.7358,42.9408,M,M,M,300.00,6.00,M,30.05,M,10.00,M,OVC,M,M,M,1300.00,M,M,M,M,KBUF 011735Z AUTO 30006KT 10SM OVC013 A3005 RMK MADISHF
BUF,2017-04-01 17:40,-78.7358,42.9408,M,M,M,300.00,9.00,M,30.05,M,10.00,M,OVC,M,M,M,1300.00,M,M,M,M,KBUF 011740Z AUTO 30009KT 10SM OVC013 A3005 RMK MADISHF
BUF,2017-04-01 17:45,-78.7358,42.9408,M,M,M,300.00,9.00,M,30.05,M,10.00,M,OVC,M,M,M,1300.00,M,M,M,M,KBUF 011745Z AUTO 30009KT 10SM OVC013 A3005 RMK MADISHF
BUF,2017-04-01 17:50,-78.7358,42.9408,M,M,M,300.00,7.00,M,30.05,M,10.00,M,BKN,OVC,M,M,1300.00,1800.00,M,M,M,KBUF 011750Z AUTO 30007KT 10SM BKN013 OVC018 A3005 RMK MADISHF
BUF,2017-04-01 17:54,-78.7358,42.9408,39.00,33.10,79.17,310.00,10.00,0.00,30.05,1018.30,10.00,M,BKN,OVC,M,M,1300.00,1800.00,M,M,M,KBUF 011754Z 31010KT 10SM BKN013 OVC018 04/01 A3005 RMK AO2 SLP183 60000 T00390006 10039 20017 53006
BUF,2017-04-01 17:55,-78.7358,42.9408,M,M,M,310.00,9.00,M,30.05,M,10.00,M,OVC,M,M,M,1400.00,M,M,M,M,KBUF 011755Z AUTO 31009KT 10SM OVC014 A3005 RMK MADISHF
BUF,2017-04-01 18:00,-78.7358,42.9408,M,M,M,310.00,9.00,M,30.06,M,10.00,M,OVC,M,M,M,1400.00,M,M,M,M,KBUF 011800Z AUTO 31009KT 10SM OVC014 A3006 RMK MADISHF
BUF,2017-04-01 18:05,-78.7358,42.9408,M,M,M,300.00,8.00,M,30.05,M,10.00,M,OVC,M,M,M,1400.00,M,M,M,M,KBUF 011805Z AUTO 30008KT 10SM OVC014 A3005 RMK MADISHF
BUF,2017-04-01 18:10,-78.7358,42.9408,M,M,M,300.00,11.00,M,30.05,M,10.00,M,BKN,OVC,M,M,1500.00,1999.00,M,M,M,KBUF 011810Z AUTO 30011KT 10SM BKN015 OVC019 A3005 RMK MADISHF
BUF,2017-04-01 18:15,-78.7358,42.9408,39.00,32.00,75.75,300.00,10.00,0.00,30.05,M,10.00,M,BKN,OVC,M,M,1500.00,2000.00,M,M,M,KBUF 011815Z 30010KT 10SM BKN015 OVC020 04/00 A3005 RMK AO2 T00390000
BUF,2017-04-01 18:20,-78.7358,42.9408,M,M,M,320.00,11.00,M,30.05,M,10.00,M,BKN,OVC,M,M,1500.00,1999.00,M,M,M,KBUF 011820Z AUTO 32011KT 10SM BKN015 OVC019 A3005 RMK MADISHF
BUF,2017-04-01 18:25,-78.7358,42.9408,M,M,M,320.00,8.00,M,30.05,M,10.00,M,BKN,OVC,M,M,1500.00,1999.00,M,M,M,KBUF 011825Z AUTO 32008KT 10SM BKN015 OVC019 A3005 RMK MADISHF
BUF,2017-04-01 18:30,-78.7358,42.9408,M,M,M,310.00,9.00,M,30.05,M,10.00,M,BKN,OVC,M,M,1500.00,1999.00,M,M,M,KBUF 011830Z AUTO 31009KT 10SM BKN015 OVC019 A3005 RMK MADISHF
BUF,2017-04-01 18:35,-78.7358,42.9408,M,M,M,320.00,10.00,M,30.05,M,10.00,M,BKN,OVC,M,M,1500.00,1999.00,M,M,M,KBUF 011835Z AUTO 32010KT 10SM BKN015 OVC019 A3005 RMK MADISHF
BUF,2017-04-01 18:40,-78.7358,42.9408,M,M,M,310.00,9.00,M,30.05,M,10.00,M,BKN,OVC,M,M,1500.00,1999.00,M,M,M,KBUF 011840Z AUTO 31009KT 10SM BKN015 OVC019 A3005 RMK MADISHF
BUF,2017-04-01 18:45,-78.7358,42.9408,M,M,M,310.00,9.00,M,30.05,M,10.00,M,BKN,OVC,M,M,1500.00,1999.00,M,M,M,KBUF 011845Z AUTO 31009KT 10SM BKN015 OVC019 A3005 RMK MADISHF
BUF,2017-04-01 18:50,-78.7358,42.9408,M,M,M,300.00,7.00,M,30.05,M,10.00,M,BKN,OVC,M,M,1500.00,1999.00,M,M,M,KBUF 011850Z AUTO 30007KT 10SM BKN015 OVC019 A3005 RMK MADISHF
BUF,2017-04-01 18:54,-78.7358,42.9408,39.00,32.00,75.75,310.00,8.00,0.00,30.05,1018.40,10.00,M,BKN,OVC,M,M,1500.00,2000.00,M,M,M,KBUF 011854Z 31008KT 10SM BKN015 OVC020 04/00 A3005 RMK AO2 SLP184 T00390000
BUF,2017-04-01 18:55,-78.7358,42.9408,M,M,M,310.00,8.00,M,30.05,M,10.00,M,OVC,M,M,M,1699.00,M,M,M,M,KBUF 011855Z AUTO 31008KT 10SM OVC016 A3005 RMK MADISHF
BUF,2017-04-01 19:00,-78.7358,42.9408,M,M,M,290.00,9.00,M,30.05,M,10.00,M,OVC,M,M,M,1699.00,M,M,M,M,KBUF 011900Z AUTO 29009KT 10SM OVC016 A3005 RMK MADISHF
BUF,2017-04-01 19:05,-78.7358,42.9408,M,M,M,310.00,7.00,M,30.05,M,10.00,M,OVC,M,M,M,1699.00,M,M,M,M,KBUF 011905Z AUTO 31007KT 10SM OVC016 A3005 RMK MADISHF
BUF,2017-04-01 19:10,-78.7358,42.9408,M,M,M,300.00,10.00,M,30.05,M,10.00,M,OVC,M,M,M,1699.00,M,M,M,M,KBUF 011910Z AUTO 30010KT 10SM OVC016 A3005 RMK MADISHF
BUF,2017-04-01 19:15,-78.7358,42.9408,M,M,M,290.00,8.00,M,30.05,M,10.00,M,OVC,M,M,M,1800.00,M,M,M,M,KBUF 011915Z AUTO 29008KT 10SM OVC018 A3005 RMK MADISHF
BUF,2017-04-01 19:20,-78.7358,42.9408,M,M,M,310.00,10.00,M,30.05,M,10.00,M,OVC,M,M,M,1800.00,M,M,M,M,KBUF 011920Z AUTO 31010KT 10SM OVC018 A3005 RMK MADISHF
BUF,2017-04-01 19:25,-78.7358,42.9408,M,M,M,300.00,9.00,M,30.05,M,10.00,M,OVC,M,M,M,1800.00,M,M,M,M,KBUF 011925Z AUTO 30009KT 10SM OVC018 A3005 RMK MADISHF
BUF,2017-04-01 19:30,-78.7358,42.9408,M,M,M,300.00,9.00,M,30.05,M,10.00,M,OVC,M,M,M,1999.00,M,M,M,M,KBUF 011930Z AUTO 30009KT 10SM OVC019 A3005 RMK MADISHF
BUF,2017-04-01 19:35,-78.7358,42.9408,M,M,M,310.00,8.00,M,30.05,M,10.00,M,OVC,M,M,M,1999.00,M,M,M,M,KBUF 011935Z AUTO 31008KT 10SM OVC019 A3005 RMK MADISHF
BUF,2017-04-01 19:40,-78.7358,42.9408,M,M,M,310.00,6.00,M,30.05,M,10.00,M,OVC,M,M,M,2200.00,M,M,M,M,KBUF 011940Z AUTO 31006KT 10SM OVC022 A3005 RMK MADISHF
BUF,2017-04-01 19:45,-78.7358,42.9408,M,M,M,320.00,7.00,M,30.05,M,10.00,M,OVC,M,M,M,2200.00,M,M,M,M,KBUF 011945Z AUTO 32007KT 10SM OVC022 A3005 RMK MADISHF
BUF,2017-04-01 19:50,-78.7358,42.9408,M,M,M,300.00,9.00,M,30.05,M,10.00,M,OVC,M,M,M,2200.00,M,M,M,M,KBUF 011950Z AUTO 30009KT 10SM OVC022 A3005 RMK MADISHF
BUF,2017-04-01 19:54,-78.7358,42.9408,39.90,30.90,69.96,290.00,6.00,0.00,30.06,1018.50,10.00,M,OVC,M,M,M,2200.00,M,M,M,M,KBUF 011954Z 29006KT 10SM OVC022 04/M01 A3006 RMK AO2 SLP185 T00441006
BUF,2017-04-01 19:55,-78.7358,42.9408,M,M,M,290.00,7.00,M,30.06,M,10.00,M,OVC,M,M,M,2200.00,M,M,M,M,KBUF 011955Z AUTO 29007KT 10SM OVC022 A3006 RMK MADISHF
BUF,2017-04-01 20:00,-78.7358,42.9408,M,M,M,310.00,4.00,M,30.05,M,10.00,M,OVC,M,M,M,2400.00,M,M,M,M,KBUF 012000Z AUTO 31004KT 10SM OVC024 A3005 RMK VRB04KT  MADISHF
BUF,2017-04-01 20:05,-78.7358,42.9408,M,M,M,290.00,5.00,M,30.06,M,10.00,M,OVC,M,M,M,2400.00,M,M,M,M,KBUF 012005Z AUTO 29005KT 10SM OVC024 A3006 RMK MADISHF
BUF,2017-04-01 20:10,-78.7358,42.9408,M,M,M,300.00,6.00,M,30.06,M,10.00,M,OVC,M,M,M,2400.00,M,M,M,M,KBUF 012010Z AUTO 30006KT 10SM OVC024 A3006 RMK MADISHF
BUF,2017-04-01 20:15,-78.7358,42.9408,M,M,M,310.00,8.00,M,30.06,M,10.00,M,OVC,M,M,M,2400.00,M,M,M,M,KBUF 012015Z AUTO 31008KT 10SM OVC024 A3006 RMK MADISHF
BUF,2017-04-01 20:20,-78.7358,42.9408,M,M,M,290.00,6.00,M,30.07,M,10.00,M,OVC,M,M,M,2400.00,M,M,M,M,KBUF 012020Z AUTO 29006KT 10SM OVC024 A3007 RMK MADISHF
BUF,2017-04-01 20:25,-78.7358,42.9408,M,M,M,270.00,7.00,M,30.07,M,10.00,M,OVC,M,M,M,2400.00,M,M,M,M,KBUF 012025Z AUTO 27007KT 10SM OVC024 A3007 RMK MADISHF
BUF,2017-04-01 20:30,-78.7358,42.9408,M,M,M,280.00,8.00,M,30.07,M,10.00,M,OVC,M,M,M,2500.00,M,M,M,M,KBUF 012030Z AUTO 28008KT 10SM OVC025 A3007 RMK MADISHF
BUF,2017-04-01 20:35,-78.7358,42.9408,M,M,M,290.00,8.00,M,30.07,M,10.00,M,OVC,M,M,M,2500.00,M,M,M,M,KBUF 012035Z AUTO 29008KT 10SM OVC025 A3007 RMK MADISHF
BUF,2017-04-01 20:40,-78.7358,42.9408,M,M,M,290.00,9.00,M,30.08,M,10.00,M,OVC,M,M,M,2500.00,M,M,M,M,KBUF 012040Z AUTO 29009KT 10SM OVC025 A3008 RMK MADISHF
BUF,2017-04-01 20:45,-78.7358,42.9408,M,M,M,300.00,7.00,M,30.08,M,10.00,M,OVC,M,M,M,2500.00,M,M,M,M,KBUF 012045Z AUTO 30007KT 10SM OVC025 A3008 RMK MADISHF
BUF,2017-04-01 20:50,-78.7358,42.9408,M,M,M,290.00,7.00,M,30.09,M,10.00,M,OVC,M,M,M,2500.00,M,M,M,M,KBUF 012050Z AUTO 29007KT 10SM OVC025 A3009 RMK MADISHF
BUF,2017-04-01 20:54,-78.7358,42.9408,42.10,32.00,67.17,300.00,8.00,0.00,30.09,1019.40,10.00,M,OVC,M,M,M,2500.00,M,M,M,M,KBUF 012054Z 30008KT 10SM OVC025 06/00 A3009 RMK AO2 SLP194 T00560000 53012
BUF,2017-04-01 20:55,-78.7358,42.9408,M,M,M,290.00,8.00,M,30.09,M,10.00,M,OVC,M,M,M,2500.00,M,M,M,M,KBUF 012055Z AUTO 29008KT 10SM OVC025 A3009 RMK MADISHF
BUF,2017-04-01 21:00,-78.7358,42.9408,M,M,M,300.00,7.00,M,30.09,M,10.00,M,OVC,M,M,M,2500.00,M,M,M,M,KBUF 012100Z AUTO 30007KT 10SM OVC025 A3009 RMK MADISHF
BUF,2017-04-01 21:05,-78.7358,42.9408,M,M,M,280.00,7.00,M,30.09,M,10.00,M,OVC,M,M,M,2800.00,M,M,M,M,KBUF 012105Z AUTO 28007KT 10SM OVC028 A3009 RMK MADISHF
BUF,2017-04-01 21:10,-78.7358,42.9408,M,M,M,270.00,6.00,M,30.09,M,10.00,M,OVC,M,M,M,2800.00,M,M,M,M,KBUF 012110Z AUTO 27006KT 10SM OVC028 A3009 RMK MADISHF
BUF,2017-04-01 21:15,-78.7358,42.9408,M,M,M,270.00,7.00,M,30.09,M,10.00,M,OVC,M,M,M,3000.00,M,M,M,M,KBUF 012115Z AUTO 27007KT 10SM OVC030 A3009 RMK WND 24V30  MADISHF
BUF,2017-04-01 21:20,-78.7358,42.9408,M,M,M,250.00,6.00,M,30.09,M,10.00,M,OVC,M,M,M,3100.00,M,M,M,M,KBUF 012120Z AUTO 25006KT 10SM OVC031 A3009 RMK MADISHF
BUF,2017-04-01 21:24,-78.7358,42.9408,43.00,33.10,67.82,280.00,5.00,0.00,30.09,M,10.00,M,FEW,OVC,M,M,2700.00,3300.00,M,M,M,KBUF 012124Z 28005KT 10SM FEW027 OVC033 06/01 A3009 RMK AO2 T00610006
BUF,2017-04-01 21:25,-78.7358,42.9408,M,M,M,280.00,5.00,M,30.09,M,10.00,M,OVC,M,M,M,3300.00,M,M,M,M,KBUF 012125Z AUTO 28005KT 10SM OVC033 A3009 RMK MADISHF
BUF,2017-04-01 21:30,-78.7358,42.9408,M,M,M,260.00,7.00,M,30.09,M,10.00,M,OVC,M,M,M,3300.00,M,M,M,M,KBUF 012130Z AUTO 26007KT 10SM OVC033 A3009 RMK MADISHF
BUF,2017-04-01 21:35,-78.7358,42.9408,M,M,M,260.00,8.00,M,30.09,M,10.00,M,OVC,M,M,M,3500.00,M,M,M,M,KBUF 012135Z AUTO 26008KT 10SM OVC035 A3009 RMK MADISHF
BUF,2017-04-01 21:40,-78.7358,42.9408,M,M,M,260.00,7.00,M,30.09,M,10.00,M,OVC,M,M,M,3500.00,M,M,M,M,KBUF 012140Z AUTO 26007KT 10SM OVC035 A3009 RMK MADISHF
BUF,2017-04-01 21:45,-78.7358,42.9408,M,M,M,260.00,6.00,M,30.08,M,10.00,M,OVC,M,M,M,3500.00,M,M,M,M,KBUF 012145Z AUTO 26006KT 10SM OVC035 A3008 RMK MADISHF
BUF,2017-04-01 21:50,-78.7358,42.9408,M,M,M,240.00,6.00,M,30.08,M,10.00,M,BKN,M,M,M,3600.00,M,M,M,M,KBUF 012150Z AUTO 24006KT 10SM BKN036 A3008 RMK MADISHF
BUF,2017-04-01 21:54,-78.7358,42.9408,43.00,32.00,64.88,230.00,4.00,0.00,30.08,1019.30,10.00,M,BKN,M,M,M,3600.00,M,M,M,M,KBUF 012154Z 23004KT 10SM BKN036 06/00 A3008 RMK AO2 SLP193 T00610000
BUF,2017-04-01 21:55,-78.7358,42.9408,M,M,M,240.00,6.00,M,30.08,M,10.00,M,BKN,M,M,M,3600.00,M,M,M,M,KBUF 012155Z AUTO 24006KT 10SM BKN036 A3008 RMK MADISHF
BUF,2017-04-01 22:00,-78.7358,42.9408,M,M,M,210.00,11.00,M,30.09,M,10.00,M,SCT,M,M,M,3700.00,M,M,M,M,KBUF 012200Z AUTO 21011KT 10SM SCT037 A3009 RMK MADISHF
BUF,2017-04-01 22:05,-78.7358,42.9408,M,M,M,220.00,11.00,M,30.09,M,10.00,M,FEW,M,M,M,3700.00,M,M,M,M,KBUF 012205Z AUTO 22011KT 10SM FEW037 A3009 RMK MADISHF
BUF,2017-04-01 22:10,-78.7358,42.9408,M,M,M,220.00,10.00,M,30.09,M,10.00,M,FEW,M,M,M,3700.00,M,M,M,M,KBUF 012210Z AUTO 22010KT 10SM FEW037 A3009 RMK MADISHF
BUF,2017-04-01 22:15,-78.7358,42.9408,M,M,M,220.00,9.00,M,30.09,M,10.00,M,CLR,M,M,M,M,M,M,M,M,KBUF 012215Z AUTO 22009KT 10SM CLR A3009 RMK MADISHF
BUF,2017-04-01 22:20,-78.7358,42.9408,M,M,M,210.00,10.00,M,30.09,M,10.00,M,CLR,M,M,M,M,M,M,M,M,KBUF 012220Z AUTO 21010KT 10SM CLR A3009 RMK MADISHF
BUF,2017-04-01 22:25,-78.7358,42.9408,M,M,M,220.00,10.00,M,30.09,M,10.00,M,CLR,M,M,M,M,M,M,M,M,KBUF 012225Z AUTO 22010KT 10SM CLR A3009 RMK MADISHF
BUF,2017-04-01 22:30,-78.7358,42.9408,M,M,M,230.00,9.00,M,30.09,M,10.00,M,CLR,M,M,M,M,M,M,M,M,KBUF 012230Z AUTO 23009KT 10SM CLR A3009 RMK MADISHF
BUF,2017-04-01 22:35,-78.7358,42.9408,M,M,M,220.00,11.00,M,30.09,M,10.00,M,CLR,M,M,M,M,M,M,M,M,KBUF 012235Z AUTO 22011KT 10SM CLR A3009 RMK MADISHF
BUF,2017-04-01 22:40,-78.7358,42.9408,M,M,M,220.00,10.00,M,30.09,M,10.00,M,CLR,M,M,M,M,M,M,M,M,KBUF 012240Z AUTO 22010KT 10SM CLR A3009 RMK MADISHF
BUF,2017-04-01 22:45,-78.7358,42.9408,M,M,M,230.00,9.00,M,30.09,M,10.00,M,CLR,M,M,M,M,M,M,M,M,KBUF 012245Z AUTO 23009KT 10SM CLR A3009 RMK MADISHF
BUF,2017-04-01 22:50,-78.7358,42.9408,M,M,M,230.00,11.00,M,30.09,M,10.00,M,CLR,M,M,M,M,M,M,M,M,KBUF 012250Z AUTO 23011KT 10SM CLR A3009 RMK MADISHF
BUF,2017-04-01 22:54,-78.7358,42.9408,39.90,32.00,73.14,230.00,11.00,0.00,30.09,1019.70,10.00,M,FEW,BKN,M,M,3600.00,17000.00,M,M,M,KBUF 012254Z 23011KT 10SM FEW036 BKN170 04/00 A3009 RMK AO2 SLP197 T00440000
BUF,2017-04-01 22:55,-78.7358,42.9408,M,M,M,230.00,12.00,M,30.09,M,10.00,M,CLR,M,M,M,M,M,M,M,M,KBUF 012255Z AUTO 23012KT 10SM CLR A3009 RMK MADISHF
BUF,2017-04-01 23:00,-78.7358,42.9408,M,M,M,220.00,11.00,M,30.09,M,10.00,M,CLR,M,M,M,M,M,M,M,M,KBUF 012300Z AUTO 22011KT 10SM CLR A3009 RMK MADISHF
BUF,2017-04-01 23:05,-78.7358,42.9408,M,M,M,230.00,10.00,M,30.10,M,10.00,M,CLR,M,M,M,M,M,M,M,M,KBUF 012305Z AUTO 23010KT 10SM CLR A3010 RMK MADISHF
BUF,2017-04-01 23:10,-78.7358,42.9408,M,M,M,240.00,12.00,M,30.10,M,10.00,M,CLR,M,M,M,M,M,M,M,M,KBUF 012310Z AUTO 24012KT 10SM CLR A3010 RMK MADISHF
BUF,2017-04-01 23:15,-78.7358,42.9408,M,M,M,240.00,11.00,M,30.10,M,10.00,M,CLR,M,M,M,M,M,M,M,M,KBUF 012315Z AUTO 24011KT 10SM CLR A3010 RMK MADISHF
BUF,2017-04-01 23:20,-78.7358,42.9408,M,M,M,230.00,13.00,M,30.10,M,10.00,M,CLR,M,M,M,M,M,M,M,M,KBUF 012320Z AUTO 23013KT 10SM CLR A3010 RMK MADISHF
BUF,2017-04-01 23:25,-78.7358,42.9408,M,M,M,230.00,10.00,M,30.10,M,10.00,M,CLR,M,M,M,M,M,M,M,M,KBUF 012325Z AUTO 23010KT 10SM CLR A3010 RMK MADISHF
BUF,2017-04-01 23:30,-78.7358,42.9408,M,M,M,230.00,12.00,M,30.10,M,10.00,M,CLR,M,M,M,M,M,M,M,M,KBUF 012330Z AUTO 23012KT 10SM CLR A3010 RMK MADISHF
BUF,2017-04-01 23:35,-78.7358,42.9408,M,M,M,240.00,10.00,M,30.10,M,10.00,M,CLR,M,M,M,M,M,M,M,M,KBUF 012335Z AUTO 24010KT 10SM CLR A3010 RMK MADISHF
BUF,2017-04-01 23:40,-78.7358,42.9408,M,M,M,230.00,11.00,M,30.10,M,10.00,M,CLR,M,M,M,M,M,M,M,M,KBUF 012340Z AUTO 23011KT 10SM CLR A3010 RMK MADISHF
BUF,2017-04-01 23:45,-78.7358,42.9408,M,M,M,240.00,11.00,M,30.10,M,10.00,M,CLR,M,M,M,M,M,M,M,M,KBUF 012345Z AUTO 24011KT 10SM CLR A3010 RMK MADISHF
BUF,2017-04-01 23:50,-78.7358,42.9408,M,M,M,240.00,10.00,M,30.10,M,10.00,M,FEW,M,M,M,3600.00,M,M,M,M,KBUF 012350Z AUTO 24010KT 10SM FEW036 A3010 RMK MADISHF
BUF,2017-04-01 23:54,-78.7358,42.9408,37.00,30.90,78.37,240.00,11.00,0.00,30.10,1020.10,10.00,M,FEW,FEW,M,M,3600.00,17000.00,M,M,M,KBUF 012354Z 24011KT 10SM FEW036 FEW170 03/M01 A3010 RMK AO2 SLP201 T00281006 10067 20028 53006
BUF,2017-04-01 23:55,-78.7358,42.9408,M,M,M,240.00,12.00,M,30.10,M,10.00,M,CLR,M,M,M,M,M,M,M,M,KBUF 012355Z AUTO 24012KT 10SM CLR A3010 RMK MADISHF
