#DEBUG: Format Typ    -> comma
#DEBUG: Time Period   -> 2017-04-01 00:00:00+00:00 2017-04-02 00:00:00+00:00
#DEBUG: Time Zone     -> Etc/UTC
#DEBUG: Data Contact   -> daryl herzmann akrherz@iastate.edu 515-294-5978
#DEBUG: Entries Found -> -1
station,valid,lon,lat,tmpf, dwpf, relh, drct, sknt, p01i, alti, mslp, vsby, gust, skyc1, skyc2, skyc3, skyc4, skyl1, skyl2, skyl3, skyl4, presentwx, metar
BUR,2017-04-01 00:00,-118.3587,34.2007,M,M,M,180.00,10.00,M,29.79,M,10.00,M,CLR,M,M,M,M,M,M,M,M,KBUR 010000Z AUTO 18010KT 10SM CLR A2979 RMK MADISHF
BUR,2017-04-01 00:05,-118.3587,34.2007,M,M,M,190.00,11.00,M,29.79,M,10.00,M,CLR,M,M,M,M,M,M,M,M,KBUR 010005Z AUTO 19011KT 10SM CLR A2979 RMK MADISHF
BUR,2017-04-01 00:10,-118.3587,34.2007,M,M,M,190.00,9.00,M,29.79,M,10.00,M,CLR,M,M,M,M,M,M,M,M,KBUR 010010Z AUTO 19009KT 10SM CLR A2979 RMK MADISHF
BUR,2017-04-01 00:15,-118.3587,34.2007,M,M,M,160.00,9.00,M,29.79,M,10.00,M,CLR,M,M,M,M,M,M,M,M,KBUR 010015Z AUTO 16009KT 10SM CLR A2979 RMK MADISHF
BUR,2017-04-01 00:20,-118.3587,34.2007,M,M,M,M,M,M,29.79,M,10.00,M,CLR,M,M,M,M,M,M,M,M,KBUR 010020Z AUTO /////KT 10SM CLR A2979 RMK MADISHF
BUR,2017-04-01 00:25,-118.3587,34.2007,M,M,M,160.00,9.00,M,29.79,M,10.00,M,CLR,M,M,M,M,M,M,M,M,KBUR 010025Z AUTO 16009KT 10SM CLR A2979 RMK MADISHF
BUR,2017-04-01 00:30,-118.3587,34.2007,M,M,M,150.00,11.00,M,29.79,M,10.00,M,CLR,M,M,M,M,M,M,M,M,KBUR 010030Z AUTO 15011KT 10SM CLR A2979 RMK MADISHF
BUR,2017-04-01 00:35,-118.3587,34.2007,M,M,M,180.00,8.00,M,29.80,M,10.00,M,CLR,M,M,M,M,M,M,M,M,KBUR 010035Z AUTO 18008KT 10SM CLR A2980 RMK MADISHF
BUR,2017-04-01 00:40,-118.3587,34.2007,M,M,M,180.00,7.00,M,29.80,M,10.00,M,CLR,M,M,M,M,M,M,M,M,KBUR 010040Z AUTO 18007KT 10SM CLR A2980 RMK MADISHF
BUR,2017-04-01 00:45,-118.3587,34.2007,M,M,M,160.00,8.00,M,29.80,M,10.00,M,CLR,M,M,M,M,M,M,M,M,KBUR 010045Z AUTO 16008KT 10SM CLR A2980 RMK MADISHF
BUR,2017-04-01 00:50,-118.3587,34.2007,M,M,M,190.00,9.00,M,29.80,M,10.00,M,CLR,M,M,M,M,M,M,M,M,KBUR 010050Z AUTO 19009KT 10SM CLR A2980 RMK MADISHF
BUR,2017-04-01 00:53,-118.3587,34.2007,64.90,27.00,23.75,200.00,7.00,0.00,29.80,1008.20,10.00,M,CLR,M,M,M,M,M,M,M,M,KBUR 010053Z 20007KT 10SM CLR 18/M03 A2980 RMK AO2 SLP082 T01831028
BUR,2017-04-01 00:55,-118.3587,34.2007,M,M,M,170.00,6.00,M,29.80,M,10.00,M,CLR,M,M,M,M,M,M,M,M,KBUR 010055Z AUTO 17006KT 10SM CLR A2980 RMK MADISHF
BUR,2017-04-01 01:00,-118.3587,34.2007,M,M,M,170.00,6.00,M,29.80,M,10.00,M,CLR,M,M,M,M,M,M,M,M,KBUR 010100Z AUTO 17006KT 10SM CLR A2980 RMK MADISHF
BUR,2017-04-01 01:05,-118.3587,34.2007,M,M,M,140.00,6.00,M,29.80,M,10.00,M,CLR,M,M,M,M,M,M,M,M,KBUR 010105Z AUTO 14006KT 10SM CLR A2980 RMK MADISHF
BUR,2017-04-01 01:10,-118.3587,34.2007,M,M,M,160.00,6.00,M,29.80,M,10.00,M,CLR,M,M,M,M,M,M,M,M,KBUR 010110Z AUTO 16006KT 10SM CLR A2980 RMK MADISHF
BUR,2017-04-01 01:15,-118.3587,34.2007,M,M,M,150.00,6.00,M,29.81,M,10.00,M,CLR,M,M,M,M,M,M,M,M,KBUR 010115Z AUTO 15006KT 10SM CLR A2981 RMK MADISHF
BUR,2017-04-01 01:20,-118.3587,34.2007,M,M,M,160.00,6.00,M,29.81,M,10.00,M,CLR,M,M,M,M,M,M,M,M,KBUR 010120Z AUTO 16006KT 10SM CLR A2981 RMK MADISHF
BUR,2017-04-01 01:25,-118.3587,34.2007,M,M,M,150.00,7.00,M,29.81,M,10.00,M,CLR,M,M,M,M,M,M,M,M,KBUR 010125Z AUTO 15007KT 10SM CLR A2981 RMK MADISHF
BUR,2017-04-01 01:30,-118.3587,34.2007,M,M,M,160.00,7.00,M,29.81,M,10.00,M,CLR,M,M,M,M,M,M,M,M,KBUR 010130Z AUTO 16007KT 10SM CLR A2981 RMK MADISHF
BUR,2017-04-01 01:35,-118.3587,34.2007,M,M,M,150.00,7.00,M,29.81,M,10.00,M,CLR,M,M,M,M,M,M,M,M,KBUR 010135Z AUTO 15007KT 10SM CLR A2981 RMK MADISHF
BUR,2017-04-01 01:40,-118.3587,34.2007,M,M,M,180.00,6.00,M,29.81,M,10.00,M,CLR,M,M,M,M,M,M,M,M,KBUR 010140Z AUTO 18006KT 10SM CLR A2981 RMK MADISHF
BUR,2017-04-01 01:45,-118.3587,34.2007,M,M,M,170.00,6.00,M,29.81,M,10.00,M,CLR,M,M,M,M,M,M,M,M,KBUR 010145Z AUTO 17006KT 10SM CLR A2981 RMK MADISHF
BUR,2017-04-01 01:50,-118.3587,34.2007,M,M,M,160.00,7.00,M,29.82,M,10.00,M,CLR,M,M,M,M,M,M,M,M,KBUR 010150Z AUTO 16007KT 10SM CLR A2982 RMK MADISHF
BUR,2017-04-01 01:53,-118.3587,34.2007,63.00,30.00,28.70,160.00,7.00,0.00,29.82,1008.80,10.00,M,CLR,M,M,M,M,M,M,M,M,KBUR 010153Z 16007KT 10SM CLR 17/M01 A2982 RMK AO2 SLP088 T01721011
BUR,2017-04-01 01:55,-118.3587,34.2007,M,M,M,150.00,6.00,M,29.82,M,10.00,M,CLR,M,M,M,M,M,M,M,M,KBUR 010155Z AUTO 15006KT 10SM CLR A2982 RMK MADISHF
BUR,2017-04-01 02:00,-118.3587,34.2007,M,M,M,170.00,5.00,M,29.82,M,10.00,M,CLR,M,M,M,M,M,M,M,M,KBUR 010200Z AUTO 17005KT 10SM CLR A2982 RMK MADISHF
BUR,2017-04-01 02:05,-118.3587,34.2007,M,M,M,180.00,5.00,M,29.82,M,10.00,M,CLR,M,M,M,M,M,M,M,M,KBUR 010205Z AUTO 18005KT 10SM CLR A2982 RMK MADISHF
BUR,2017-04-01 02:10,-118.3587,34.2007,M,M,M,180.00,6.00,M,29.82,M,10.00,M,CLR,M,M,M,M,M,M,M,M,KBUR 010210Z AUTO 18006KT 10SM CLR A2982 RMK MADISHF
BUR,2017-04-01 02:15,-118.3587,34.2007,M,M,M,180.00,6.00,M,29.82,M,10.00,M,CLR,M,M,M,M,M,M,M,M,KBUR 010215Z AUTO 18006KT 10SM CLR A2982 RMK MADISHF
BUR,2017-04-01 02:20,-118.3587,34.2007,M,M,M,180.00,5.00,M,29.82,M,10.00,M,CLR,M,M,M,M,M,M,M,M,KBUR 010220Z AUTO 18005KT 10SM CLR A2982 RMK MADISHF
BUR,2017-04-01 02:25,-118.3587,34.2007,M,M,M,180.00,6.00,M,29.83,M,10.00,M,CLR,M,M,M,M,M,M,M,M,KBUR 010225Z AUTO 18006KT 10SM CLR A2983 RMK MADISHF
BUR,2017-04-01 02:30,-118.3587,34.2007,M,M,M,160.00,4.00,M,29.83,M,10.00,M,CLR,M,M,M,M,M,M,M,M,KBUR 010230Z AUTO 16004KT 10SM CLR A2983 RMK MADISHF
BUR,2017-04-01 02:35,-118.3587,34.2007,M,M,M,160.00,6.00,M,29.83,M,10.00,M,CLR,M,M,M,M,M,M,M,M,KBUR 010235Z AUTO 16006KT 10SM CLR A2983 RMK MADISHF
BUR,2017-04-01 02:40,-118.3587,34.2007,M,M,M,170.00,4.00,M,29.83,M,10.00,M,CLR,M,M,M,M,M,M,M,M,KBUR 010240Z AUTO 17004KT 10SM CLR A2983 RMK MADISHF
BUR,2017-04-01 02:45,-118.3587,34.2007,M,M,M,150.00,4.00,M,29.83,M,10.00,M,CLR,M,M,M,M,M,M,M,M,KBUR 010245Z AUTO 15004KT 10SM CLR A2983 RMK MADISHF
BUR,2017-04-01 02:50,-118.3587,34.2007,M,M,M,140.00,5.00,M,29.83,M,10.00,M,CLR,M,M,M,M,M,M,M,M,KBUR 010250Z AUTO 14005KT 10SM CLR A2983 RMK MADISHF
BUR,2017-04-01 02:53,-118.3587,34.2007,62.10,28.90,28.33,140.00,4.00,0.00,29.84,1009.50,10.00,M,CLR,M,M,M,M,M,M,M,M,KBUR 010253Z 14004KT 10SM CLR 17/M02 A2984 RMK AO2 SLP095 T01671017 53018
BUR,2017-04-01 02:55,-118.3587,34.2007,M,M,M,160.00,4.00,M,29.84,M,10.00,M,CLR,M,M,M,M,M,M,M,M,KBUR 010255Z AUTO 16004KT 10SM CLR A2984 RMK MADISHF
BUR,2017-04-01 03:00,-118.3587,34.2007,M,M,M,130.00,5.00,M,29.84,M,10.00,M,CLR,M,M,M,M,M,M,M,M,KBUR 010300Z AUTO 13005KT 10SM CLR A2984 RMK MADISHF
BUR,2017-04-01 03:05,-118.3587,34.2007,M,M,M,110.00,5.00,M,29.84,M,10.00,M,CLR,M,M,M,M,M,M,M,M,KBUR 010305Z AUTO 11005KT 10SM CLR A2984 RMK MADISHF
BUR,2017-04-01 03:10,-118.3587,34.2007,M,M,M,100.00,4.00,M,29.84,M,10.00,M,CLR,M,M,M,M,M,M,M,M,KBUR 010310Z AUTO 10004KT 10SM CLR A2984 RMK MADISHF
BUR,2017-04-01 03:15,-118.3587,34.2007,M,M,M,110.00,4.00,M,29.85,M,10.00,M,CLR,M,M,M,M,M,M,M,M,KBUR 010315Z AUTO 11004KT 10SM CLR A2985 RMK MADISHF
BUR,2017-04-01 03:20,-118.3587,34.2007,M,M,M,110.00,4.00,M,29.85,M,10.00,M,CLR,M,M,M,M,M,M,M,M,KBUR 010320Z AUTO 11004KT 10SM CLR A2985 RMK MADISHF
BUR,2017-04-01 03:25,-118.3587,34.2007,M,M,M,100.00,4.00,M,29.85,M,10.00,M,CLR,M,M,M,M,M,M,M,M,KBUR 010325Z AUTO 10004KT 10SM CLR A2985 RMK MADISHF
BUR,2017-04-01 03:30,-118.3587,34.2007,M,M,M,100.00,5.00,M,29.86,M,10.00,M,CLR,M,M,M,M,M,M,M,M,KBUR 010330Z AUTO 10005KT 10SM CLR A2986 RMK MADISHF
BUR,2017-04-01 03:35,-118.3587,34.2007,M,M,M,110.00,5.00,M,29.86,M,10.00,M,CLR,M,M,M,M,M,M,M,M,KBUR 010335Z AUTO 11005KT 10SM CLR A2986 RMK MADISHF
BUR,2017-04-01 03:40,-118.3587,34.2007,M,M,M,60.00,4.00,M,29.86,M,10.00,M,CLR,M,M,M,M,M,M,M,M,KBUR 010340Z AUTO 06004KT 10SM CLR A2986 RMK MADISHF
BUR,2017-04-01 03:45,-118.3587,34.2007,M,M,M,80.00,4.00,M,29.87,M,10.00,M,CLR,M,M,M,M,M,M,M,M,KBUR 010345Z AUTO 08004KT 10SM CLR A2987 RMK MADISHF
BUR,2017-04-01 03:50,-118.3587,34.2007,M,M,M,80.00,4.00,M,29.87,M,10.00,M,CLR,M,M,M,M,M,M,M,M,KBUR 010350Z AUTO 08004KT 10SM CLR A2987 RMK MADISHF
BUR,2017-04-01 03:53,-118.3587,34.2007,61.00,27.00,27.24,70.00,4.00,0.00,29.87,1010.60,10.00,M,CLR,M,M,M,M,M,M,M,M,KBUR 010353Z 07004KT 10SM CLR 16/M03 A2987 RMK AO2 SLP106 T01611028
BUR,2017-04-01 03:55,-118.3587,34.2007,M,M,M,70.00,4.00,M,29.87,M,10.00,M,CLR,M,M,M,M,M,M,M,M,KBUR 010355Z AUTO 07004KT 10SM CLR A2987 RMK MADISHF
BUR,2017-04-01 04:00,-118.3587,34.2007,M,M,M,50.00,3.00,M,29.88,M,10.00,M,CLR,M,M,M,M,M,M,M,M,KBUR 010400Z AUTO 05003KT 10SM CLR A2988 RMK MADISHF
BUR,2017-04-01 04:05,-118.3587,34.2007,M,M,M,50.00,3.00,M,29.88,M,10.00,M,CLR,M,M,M,M,M,M,M,M,KBUR 010405Z AUTO 05003KT 10SM CLR A2988 RMK MADISHF
BUR,2017-04-01 04:10,-118.3587,34.2007,M,M,M,40.00,3.00,M,29.88,M,10.00,M,CLR,M,M,M,M,M,M,M,M,KBUR 010410Z AUTO 04003KT 10SM CLR A2988 RMK MADISHF
BUR,2017-04-01 04:15,-118.3587,34.2007,M,M,M,50.00,3.00,M,29.88,M,10.00,M,CLR,M,M,M,M,M,M,M,M,KBUR 010415Z AUTO 05003KT 10SM CLR A2988 RMK MADISHF
BUR,2017-04-01 04:20,-118.3587,34.2007,M,M,M,80.00,3.00,M,29.88,M,10.00,M,CLR,M,M,M,M,M,M,M,M,KBUR 010420Z AUTO 08003KT 10SM CLR A2988 RMK MADISHF
BUR,2017-04-01 04:25,-118.3587,34.2007,M,M,M,50.00,3.00,M,29.89,M,10.00,M,CLR,M,M,M,M,M,M,M,M,KBUR 010425Z AUTO 05003KT 10SM CLR A2989 RMK MADISHF
BUR,2017-04-01 04:30,-118.3587,34.2007,M,M,M,60.00,3.00,M,29.89,M,10.00,M,CLR,M,M,M,M,M,M,M,M,KBUR 010430Z AUTO 06003KT 10SM CLR A2989 RMK MADISHF
BUR,2017-04-01 04:35,-118.3587,34.2007,M,M,M,0.00,0.00,M,29.89,M,10.00,M,CLR,M,M,M,M,M,M,M,M,KBUR 010435Z AUTO 00000KT 10SM CLR A2989 RMK MADISHF
BUR,2017-04-01 04:40,-118.3587,34.2007,M,M,M,90.00,3.00,M,29.89,M,10.00,M,CLR,M,M,M,M,M,M,M,M,KBUR 010440Z AUTO 09003KT 10SM CLR A2989 RMK VRB03KT  MADISHF
BUR,2017-04-01 04:45,-118.3587,34.2007,M,M,M,140.00,3.00,M,29.89,M,10.00,M,CLR,M,M,M,M,M,M,M,M,KBUR 010445Z AUTO 14003KT 10SM CLR A2989 RMK VRB03KT  MADISHF
BUR,2017-04-01 04:50,-118.3587,34.2007,M,M,M,180.00,3.00,M,29.89,M,10.00,M,CLR,M,M,M,M,M,M,M,M,KBUR 010450Z AUTO 18003KT 10SM CLR A2989 RMK VRB03KT  MADISHF
BUR,2017-04-01 04:53,-118.3587,34.2007,60.10,28.00,29.31,200.00,3.00,0.00,29.89,1011.30,10.00,M,CLR,M,M,M,M,M,M,M,M,KBUR 010453Z 20003KT 10SM CLR 16/M02 A2989 RMK AO2 SLP113 T01561022
BUR,2017-04-01 04:55,-118.3587,34.2007,M,M,M,200.00,3.00,M,29.89,M,10.00,M,CLR,M,M,M,M,M,M,M,M,KBUR 010455Z AUTO 20003KT 10SM CLR A2989 RMK MADISHF
BUR,2017-04-01 05:00,-118.3587,34.2007,M,M,M,180.00,3.00,M,29.89,M,10.00,M,CLR,M,M,M,M,M,M,M,M,KBUR 010500Z AUTO 18003KT 10SM CLR A2989 RMK MADISHF
BUR,2017-04-01 05:05,-118.3587,34.2007,M,M,M,150.00,6.00,M,29.89,M,10.00,M,CLR,M,M,M,M,M,M,M,M,KBUR 010505Z AUTO 15006KT 10SM CLR A2989 RMK MADISHF
BUR,2017-04-01 05:10,-118.3587,34.2007,M,M,M,130.00,7.00,M,29.89,M,10.00,M,CLR,M,M,M,M,M,M,M,M,KBUR 010510Z AUTO 13007KT 10SM CLR A2989 RMK MADISHF
BUR,2017-04-01 05:15,-118.3587,34.2007,M,M,M,120.00,6.00,M,29.89,M,10.00,M,CLR,M,M,M,M,M,M,M,M,KBUR 010515Z AUTO 12006KT 10SM CLR A2989 RMK MADISHF
BUR,2017-04-01 05:20,-118.3587,34.2007,M,M,M,120.00,6.00,M,29.91,M,10.00,M,CLR,M,M,M,M,M,M,M,M,KBUR 010520Z AUTO 12006KT 10SM CLR A2991 RMK MADISHF
BUR,2017-04-01 05:25,-118.3587,34.2007,M,M,M,120.00,6.00,M,29.91,M,10.00,M,CLR,M,M,M,M,M,M,M,M,KBUR 010525Z AUTO 12006KT 10SM CLR A2991 RMK MADISHF
BUR,2017-04-01 05:30,-118.3587,34.2007,M,M,M,120.00,6.00,M,29.90,M,10.00,M,CLR,M,M,M,M,M,M,M,M,KBUR 010530Z AUTO 12006KT 10SM CLR A2990 RMK MADISHF
BUR,2017-04-01 05:35,-118.3587,34.2007,M,M,M,130.00,7.00,M,29.90,M,10.00,M,CLR,M,M,M,M,M,M,M,M,KBUR 010535Z AUTO 13007KT 10SM CLR A2990 RMK MADISHF
BUR,2017-04-01 05:40,-118.3587,34.2007,M,M,M,120.00,6.00,M,29.91,M,10.00,M,CLR,M,M,M,M,M,M,M,M,KBUR 010540Z AUTO 12006KT 10SM CLR A2991 RMK MADISHF
BUR,2017-04-01 05:45,-118.3587,34.2007,M,M,M,120.00,6.00,M,29.91,M,10.00,M,CLR,M,M,M,M,M,M,M,M,KBUR 010545Z AUTO 12006KT 10SM CLR A2991 RMK MADISHF
BUR,2017-04-01 05:50,-118.3587,34.2007,M,M,M,120.00,7.00,M,29.91,M,10.00,M,CLR,M,M,M,M,M,M,M,M,KBUR 010550Z AUTO 12007KT 10SM CLR A2991 RMK MADISHF
BUR,2017-04-01 05:53,-118.3587,34.2007,59.00,37.00,43.78,130.00,6.00,0.00,29.91,1011.80,10.00,M,CLR,M,M,M,M,M,M,M,M,KBUR 010553Z 13006KT 10SM CLR 15/03 A2991 RMK AO2 SLP118 T01500028 10194 20144 51024
BUR,2017-04-01 05:55,-118.3587,34.2007,M,M,M,120.00,5.00,M,29.91,M,10.00,M,CLR,M,M,M,M,M,M,M,M,KBUR 010555Z AUTO 12005KT 10SM CLR A2991 RMK MADISHF
BUR,2017-04-01 06:00,-118.3587,34.2007,M,M,M,130.00,7.00,M,29.91,M,10.00,M,CLR,M,M,M,M,M,M,M,M,KBUR 010600Z AUTO 13007KT 10SM CLR A2991 RMK MADISHF
BUR,2017-04-01 06:05,-118.3587,34.2007,M,M,M,130.00,5.00,M,29.91,M,10.00,M,CLR,M,M,M,M,M,M,M,M,KBUR 010605Z AUTO 13005KT 10SM CLR A2991 RMK MADISHF
BUR,2017-04-01 06:10,-118.3587,34.2007,M,M,M,130.00,6.00,M,29.91,M,10.00,M,CLR,M,M,M,M,M,M,M,M,KBUR 010610Z AUTO 13006KT 10SM CLR A2991 RMK MADISHF
BUR,2017-04-01 06:15,-118.3587,34.2007,M,M,M,150.00,5.00,M,29.91,M,10.00,M,CLR,M,M,M,M,M,M,M,M,KBUR 010615Z AUTO 15005KT 10SM CLR A2991 RMK MADISHF
BUR,2017-04-01 06:20,-118.3587,34.2007,M,M,M,160.00,4.00,M,29.91,M,10.00,M,CLR,M,M,M,M,M,M,M,M,KBUR 010620Z AUTO 16004KT 10SM CLR A2991 RMK MADISHF
BUR,2017-04-01 06:25,-118.3587,34.2007,M,M,M,140.00,4.00,M,29.91,M,10.00,M,CLR,M,M,M,M,M,M,M,M,KBUR 010625Z AUTO 14004KT 10SM CLR A2991 RMK MADISHF
BUR,2017-04-01 06:30,-118.3587,34.2007,M,M,M,120.00,4.00,M,29.91,M,10.00,M,CLR,M,M,M,M,M,M,M,M,KBUR 010630Z AUTO 12004KT 10SM CLR A2991 RMK MADISHF
BUR,2017-04-01 06:35,-118.3587,34.2007,M,M,M,130.00,4.00,M,29.91,M,10.00,M,CLR,M,M,M,M,M,M,M,M,KBUR 010635Z AUTO 13004KT 10SM CLR A2991 RMK MADISHF
BUR,2017-04-01 06:40,-118.3587,34.2007,M,M,M,170.00,4.00,M,29.91,M,10.00,M,CLR,M,M,M,M,M,M,M,M,KBUR 010640Z AUTO 17004KT 10SM CLR A2991 RMK MADISHF
BUR,2017-04-01 06:45,-118.3587,34.2007,M,M,M,170.00,3.00,M,29.91,M,10.00,M,CLR,M,M,M,M,M,M,M,M,KBUR 010645Z AUTO 17003KT 10SM CLR A2991 RMK MADISHF
BUR,2017-04-01 06:50,-118.3587,34.2007,M,M,M,180.00,3.00,M,29.91,M,10.00,M,CLR,M,M,M,M,M,M,M,M,KBUR 010650Z AUTO 18003KT 10SM CLR A2991 RMK MADISHF
BUR,2017-04-01 06:53,-118.3587,34.2007,57.00,37.90,48.73,180.00,3.00,0.00,29.91,1012.10,10.00,M,CLR,M,M,M,M,M,M,M,M,KBUR 010653Z 18003KT 10SM CLR 14/03 A2991 RMK AO2 SLP121 T01390033
BUR,2017-04-01 06:55,-118.3587,34.2007,M,M,M,170.00,3.00,M,29.91,M,10.00,M,CLR,M,M,M,M,M,M,M,M,KBUR 010655Z AUTO 17003KT 10SM CLR A2991 RMK MADISHF
BUR,2017-04-01 07:00,-118.3587,34.2007,M,M,M,0.00,0.00,M,29.92,M,10.00,M,CLR,M,M,M,M,M,M,M,M,KBUR 010700Z AUTO 00000KT 10SM CLR A2992 RMK MADISHF
BUR,2017-04-01 07:05,-118.3587,34.2007,M,M,M,0.00,0.00,M,29.92,M,10.00,M,CLR,M,M,M,M,M,M,M,M,KBUR 010705Z AUTO 00000KT 10SM CLR A2992 RMK MADISHF
BUR,2017-04-01 07:10,-118.3587,34.2007,M,M,M,0.00,0.00,M,29.92,M,10.00,M,CLR,M,M,M,M,M,M,M,M,KBUR 010710Z AUTO 00000KT 10SM CLR A2992 RMK MADISHF
BUR,2017-04-01 07:15,-118.3587,34.2007,M,M,M,0.00,0.00,M,29.92,M,10.00,M,CLR,M,M,M,M,M,M,M,M,KBUR 010715Z AUTO 00000KT 10SM CLR A2992 RMK MADISHF
BUR,2017-04-01 07:20,-118.3587,34.2007,M,M,M,0.00,0.00,M,29.92,M,10.00,M,CLR,M,M,M,M,M,M,M,M,KBUR 010720Z AUTO 00000KT 10SM CLR A2992 RMK MADISHF
BUR,2017-04-01 07:25,-118.3587,34.2007,M,M,M,0.00,0.00,M,29.92,M,10.00,M,CLR,M,M,M,M,M,M,M,M,KBUR 010725Z AUTO 00000KT 10SM CLR A2992 RMK MADISHF
BUR,2017-04-01 07:30,-118.3587,34.2007,M,M,M,0.00,0.00,M,29.93,M,10.00,M,CLR,M,M,M,M,M,M,M,M,KBUR 010730Z AUTO 00000KT 10SM CLR A2993 RMK MADISHF
BUR,2017-04-01 07:35,-118.3587,34.2007,M,M,M,340.00,6.00,M,29.92,M,10.00,M,CLR,M,M,M,M,M,M,M,M,KBUR 010735Z AUTO 34006KT 10SM CLR A2992 RMK MADISHF
BUR,2017-04-01 07:40,-118.3587,34.2007,M,M,M,330.00,4.00,M,29.93,M,10.00,M,CLR,M,M,M,M,M,M,M,M,KBUR 010740Z AUTO 33004KT 10SM CLR A2993 RMK MADISHF
BUR,2017-04-01 07:45,-118.3587,34.2007,M,M,M,340.00,4.00,M,29.93,M,10.00,M,CLR,M,M,M,M,M,M,M,M,KBUR 010745Z AUTO 34004KT 10SM CLR A2993 RMK MADISHF
BUR,2017-04-01 07:50,-118.3587,34.2007,M,M,M,320.00,3.00,M,29.93,M,10.00,M,CLR,M,M,M,M,M,M,M,M,KBUR 010750Z AUTO 32003KT 10SM CLR A2993 RMK MADISHF
BUR,2017-04-01 07:53,-118.3587,34.2007,54.00,33.10,44.92,330.00,3.00,0.00,29.93,1012.60,10.00,M,CLR,M,M,M,M,M,M,M,M,KBUR 010753Z 33003KT 10SM CLR 12/01 A2993 RMK AO2 SLP126 T01220006 402330117
BUR,2017-04-01 07:55,-118.3587,34.2007,M,M,M,320.00,3.00,M,29.93,M,10.00,M,CLR,M,M,M,M,M,M,M,M,KBUR 010755Z AUTO 32003KT 10SM CLR A2993 RMK MADISHF
BUR,2017-04-01 08:00,-118.3587,34.2007,M,M,M,320.00,3.00,M,29.93,M,10.00,M,CLR,M,M,M,M,M,M,M,M,KBUR 010800Z AUTO 32003KT 10SM CLR A2993 RMK MADISHF
BUR,2017-04-01 08:05,-118.3587,34.2007,M,M,M,310.00,3.00,M,29.93,M,10.00,M,CLR,M,M,M,M,M,M,M,M,KBUR 010805Z AUTO 31003KT 10SM CLR A2993 RMK MADISHF
BUR,2017-04-01 08:10,-118.3587,34.2007,M,M,M,0.00,0.00,M,29.93,M,10.00,M,CLR,M,M,M,M,M,M,M,M,KBUR 010810Z AUTO 00000KT 10SM CLR A2993 RMK MADISHF
BUR,2017-04-01 08:15,-118.3587,34.2007,M,M,M,0.00,0.00,M,29.93,M,10.00,M,CLR,M,M,M,M,M,M,M,M,KBUR 010815Z AUTO 00000KT 10SM CLR A2993 RMK MADISHF
BUR,2017-04-01 08:20,-118.3587,34.2007,M,M,M,0.00,0.00,M,29.93,M,10.00,M,CLR,M,M,M,M,M,M,M,M,KBUR 010820Z AUTO 00000KT 10SM CLR A2993 RMK MADISHF
BUR,2017-04-01 08:25,-118.3587,34.2007,M,M,M,0.00,0.00,M,29.93,M,10.00,M,CLR,M,M,M,M,M,M,M,M,KBUR 010825Z AUTO 00000KT 10SM CLR A2993 RMK MADISHF
BUR,2017-04-01 08:30,-118.3587,34.2007,M,M,M,0.00,0.00,M,29.93,M,10.00,M,CLR,M,M,M,M,M,M,M,M,KBUR 010830Z AUTO 00000KT 10SM CLR A2993 RMK MADISHF
BUR,2017-04-01 08:35,-118.3587,34.2007,M,M,M,0.00,0.00,M,29.93,M,10.00,M,CLR,M,M,M,M,M,M,M,M,KBUR 010835Z AUTO 00000KT 10SM CLR A2993 RMK MADISHF
BUR,2017-04-01 08:40,-118.3587,34.2007,M,M,M,0.00,0.00,M,29.93,M,10.00,M,CLR,M,M,M,M,M,M,M,M,KBUR 010840Z AUTO 00000KT 10SM CLR A2993 RMK MADISHF
BUR,2017-04-01 08:45,-118.3587,34.2007,M,M,M,350.00,3.00,M,29.93,M,10.00,M,CLR,M,M,M,M,M,M,M,M,KBUR 010845Z AUTO 35003KT 10SM CLR A2993 RMK MADISHF
BUR,2017-04-01 08:50,-118.3587,34.2007,M,M,M,340.00,3.00,M,29.93,M,10.00,M,CLR,M,M,M,M,M,M,M,M,KBUR 010850Z AUTO 34003KT 10SM CLR A2993 RMK MADISHF
BUR,2017-04-01 08:53,-118.3587,34.2007,53.10,34.00,48.13,340.00,3.00,0.00,29.93,1012.50,10.00,M,CLR,M,M,M,M,M,M,M,M,KBUR 010853Z 34003KT 10SM CLR 12/01 A2993 RMK AO2 SLP125 T01170011 50007
BUR,2017-04-01 08:55,-118.3587,34.2007,M,M,M,0.00,0.00,M,29.93,M,10.00,M,CLR,M,M,M,M,M,M,M,M,KBUR 010855Z AUTO 00000KT 10SM CLR A2993 RMK MADISHF
BUR,2017-04-01 09:00,-118.3587,34.2007,M,M,M,10.00,3.00,M,29.93,M,10.00,M,CLR,M,M,M,M,M,M,M,M,KBUR 010900Z AUTO 01003KT 10SM CLR A2993 RMK MADISHF
BUR,2017-04-01 09:05,-118.3587,34.2007,M,M,M,20.00,3.00,M,29.93,M,10.00,M,CLR,M,M,M,M,M,M,M,M,KBUR 010905Z AUTO 02003KT 10SM CLR A2993 RMK MADISHF
BUR,2017-04-01 09:10,-118.3587,34.2007,M,M,M,0.00,0.00,M,29.93,M,10.00,M,CLR,M,M,M,M,M,M,M,M,KBUR 010910Z AUTO 00000KT 10SM CLR A2993 RMK MADISHF
BUR,2017-04-01 09:15,-118.3587,34.2007,M,M,M,360.00,3.00,M,29.92,M,10.00,M,CLR,M,M,M,M,M,M,M,M,KBUR 010915Z AUTO 36003KT 10SM CLR A2992 RMK MADISHF
BUR,2017-04-01 09:20,-118.3587,34.2007,M,M,M,330.00,3.00,M,29.92,M,10.00,M,CLR,M,M,M,M,M,M,M,M,KBUR 010920Z AUTO 33003KT 10SM CLR A2992 RMK MADISHF
BUR,2017-04-01 09:25,-118.3587,34.2007,M,M,M,330.00,3.00,M,29.92,M,10.00,M,CLR,M,M,M,M,M,M,M,M,KBUR 010925Z AUTO 33003KT 10SM CLR A2992 RMK MADISHF
BUR,2017-04-01 09:30,-118.3587,34.2007,M,M,M,330.00,4.00,M,29.92,M,10.00,M,CLR,M,M,M,M,M,M,M,M,KBUR 010930Z AUTO 33004KT 10SM CLR A2992 RMK MADISHF
BUR,2017-04-01 09:35,-118.3587,34.2007,M,M,M,320.00,5.00,M,29.92,M,10.00,M,CLR,M,M,M,M,M,M,M,M,KBUR 010935Z AUTO 32005KT 10SM CLR A2992 RMK MADISHF
BUR,2017-04-01 09:40,-118.3587,34.2007,M,M,M,340.00,4.00,M,29.92,M,10.00,M,CLR,M,M,M,M,M,M,M,M,KBUR 010940Z AUTO 34004KT 10SM CLR A2992 RMK MADISHF
BUR,2017-04-01 09:45,-118.3587,34.2007,M,M,M,340.00,4.00,M,29.92,M,10.00,M,CLR,M,M,M,M,M,M,M,M,KBUR 010945Z AUTO 34004KT 10SM CLR A2992 RMK MADISHF
BUR,2017-04-01 09:50,-118.3587,34.2007,M,M,M,340.00,4.00,M,29.92,M,10.00,M,CLR,M,M,M,M,M,M,M,M,KBUR 010950Z AUTO 34004KT 10SM CLR A2992 RMK MADISHF
BUR,2017-04-01 09:53,-118.3587,34.2007,52.00,34.00,50.12,340.00,3.00,0.00,29.92,1012.30,10.00,M,CLR,M,M,M,M,M,M,M,M,KBUR 010953Z 34003KT 10SM CLR 11/01 A2992 RMK AO2 SLP123 T01110011
BUR,2017-04-01 09:55,-118.3587,34.2007,M,M,M,330.00,4.00,M,29.92,M,10.00,M,CLR,M,M,M,M,M,M,M,M,KBUR 010955Z AUTO 33004KT 10SM CLR A2992 RMK MADISHF
BUR,2017-04-01 10:00,-118.3587,34.2007,M,M,M,320.00,3.00,M,29.92,M,10.00,M,CLR,M,M,M,M,M,M,M,M,KBUR 011000Z AUTO 32003KT 10SM CLR A2992 RMK MADISHF
BUR,2017-04-01 10:05,-118.3587,34.2007,M,M,M,330.00,3.00,M,29.92,M,10.00,M,CLR,M,M,M,M,M,M,M,M,KBUR 011005Z AUTO 33003KT 10SM CLR A2992 RMK MADISHF
BUR,2017-04-01 10:10,-118.3587,34.2007,M,M,M,0.00,0.00,M,29.93,M,10.00,M,CLR,M,M,M,M,M,M,M,M,KBUR 011010Z AUTO 00000KT 10SM CLR A2993 RMK MADISHF
BUR,2017-04-01 10:15,-118.3587,34.2007,M,M,M,0.00,0.00,M,29.92,M,10.00,M,CLR,M,M,M,M,M,M,M,M,KBUR 011015Z AUTO 00000KT 10SM CLR A2992 RMK MADISHF
BUR,2017-04-01 10:20,-118.3587,34.2007,M,M,M,0.00,0.00,M,29.92,M,10.00,M,CLR,M,M,M,M,M,M,M,M,KBUR 011020Z AUTO 00000KT 10SM CLR A2992 RMK MADISHF
BUR,2017-04-01 10:25,-118.3587,34.2007,M,M,M,290.00,4.00,M,29.92,M,10.00,M,CLR,M,M,M,M,M,M,M,M,KBUR 011025Z AUTO 29004KT 10SM CLR A2992 RMK MADISHF
BUR,2017-04-01 10:30,-118.3587,34.2007,M,M,M,0.00,0.00,M,29.92,M,10.00,M,CLR,M,M,M,M,M,M,M,M,KBUR 011030Z AUTO 00000KT 10SM CLR A2992 RMK MADISHF
BUR,2017-04-01 10:35,-118.3587,34.2007,M,M,M,270.00,3.00,M,29.92,M,10.00,M,CLR,M,M,M,M,M,M,M,M,KBUR 011035Z AUTO 27003KT 10SM CLR A2992 RMK MADISHF
BUR,2017-04-01 10:40,-118.3587,34.2007,M,M,M,250.00,3.00,M,29.92,M,10.00,M,CLR,M,M,M,M,M,M,M,M,KBUR 011040Z AUTO 25003KT 10SM CLR A2992 RMK MADISHF
BUR,2017-04-01 10:45,-118.3587,34.2007,M,M,M,0.00,0.00,M,29.91,M,10.00,M,CLR,M,M,M,M,M,M,M,M,KBUR 011045Z AUTO 00000KT 10SM CLR A2991 RMK MADISHF
BUR,2017-04-01 10:50,-118.3587,34.2007,M,M,M,260.00,4.00,M,29.91,M,10.00,M,CLR,M,M,M,M,M,M,M,M,KBUR 011050Z AUTO 26004KT 10SM CLR A2991 RMK MADISHF
BUR,2017-04-01 10:53,-118.3587,34.2007,52.00,34.00,50.12,280.00,3.00,0.00,29.91,1012.00,10.00,M,CLR,M,M,M,M,M,M,M,M,KBUR 011053Z AUTO 28003KT 10SM CLR 11/01 A2991 RMK AO2 SLP120 T01110011
BUR,2017-04-01 10:55,-118.3587,34.2007,M,M,M,260.00,4.00,M,29.91,M,10.00,M,CLR,M,M,M,M,M,M,M,M,KBUR 011055Z AUTO 26004KT 10SM CLR A2991 RMK MADISHF
BUR,2017-04-01 11:00,-118.3587,34.2007,M,M,M,320.00,3.00,M,29.91,M,10.00,M,CLR,M,M,M,M,M,M,M,M,KBUR 011100Z AUTO 32003KT 10SM CLR A2991 RMK MADISHF
BUR,2017-04-01 11:05,-118.3587,34.2007,M,M,M,0.00,0.00,M,29.92,M,10.00,M,CLR,M,M,M,M,M,M,M,M,KBUR 011105Z AUTO 00000KT 10SM CLR A2992 RMK MADISHF
BUR,2017-04-01 11:10,-118.3587,34.2007,M,M,M,0.00,0.00,M,29.92,M,10.00,M,CLR,M,M,M,M,M,M,M,M,KBUR 011110Z AUTO 00000KT 10SM CLR A2992 RMK MADISHF
BUR,2017-04-01 11:15,-118.3587,34.2007,M,M,M,0.00,0.00,M,29.92,M,10.00,M,CLR,M,M,M,M,M,M,M,M,KBUR 011115Z AUTO 00000KT 10SM CLR A2992 RMK MADISHF
BUR,2017-04-01 11:20,-118.3587,34.2007,M,M,M,0.00,0.00,M,29.92,M,10.00,M,CLR,M,M,M,M,M,M,M,M,KBUR 011120Z AUTO 00000KT 10SM CLR A2992 RMK MADISHF
BUR,2017-04-01 11:25,-118.3587,34.2007,M,M,M,230.00,4.00,M,29.92,M,10.00,M,CLR,M,M,M,M,M,M,M,M,KBUR 011125Z AUTO 23004KT 10SM CLR A2992 RMK MADISHF
BUR,2017-04-01 11:30,-118.3587,34.2007,M,M,M,150.00,4.00,M,29.92,M,10.00,M,CLR,M,M,M,M,M,M,M,M,KBUR 011130Z AUTO 15004KT 10SM CLR A2992 RMK MADISHF
BUR,2017-04-01 11:35,-118.3587,34.2007,M,M,M,0.00,0.00,M,29.92,M,10.00,M,CLR,M,M,M,M,M,M,M,M,KBUR 011135Z AUTO 00000KT 10SM CLR A2992 RMK MADISHF
BUR,2017-04-01 11:40,-118.3587,34.2007,M,M,M,0.00,0.00,M,29.92,M,10.00,M,CLR,M,M,M,M,M,M,M,M,KBUR 011140Z AUTO 00000KT 10SM CLR A2992 RMK MADISHF
BUR,2017-04-01 11:45,-118.3587,34.2007,M,M,M,260.00,4.00,M,29.92,M,10.00,M,CLR,M,M,M,M,M,M,M,M,KBUR 011145Z AUTO 26004KT 10SM CLR A2992 RMK MADISHF
BUR,2017-04-01 11:50,-118.3587,34.2007,M,M,M,240.00,4.00,M,29.92,M,10.00,M,CLR,M,M,M,M,M,M,M,M,KBUR 011150Z AUTO 24004KT 10SM CLR A2992 RMK MADISHF
BUR,2017-04-01 11:53,-118.3587,34.2007,51.10,34.00,51.81,280.00,4.00,0.00,29.92,1012.50,10.00,M,CLR,M,M,M,M,M,M,M,M,KBUR 011153Z AUTO 28004KT 10SM CLR 11/01 A2992 RMK AO2 SLP125 T01060011 10150 20100 55002
BUR,2017-04-01 11:55,-118.3587,34.2007,M,M,M,250.00,5.00,M,29.92,M,10.00,M,CLR,M,M,M,M,M,M,M,M,KBUR 011155Z AUTO 25005KT 10SM CLR A2992 RMK MADISHF
BUR,2017-04-01 12:00,-118.3587,34.2007,M,M,M,320.00,4.00,M,29.93,M,10.00,M,CLR,M,M,M,M,M,M,M,M,KBUR 011200Z AUTO 32004KT 10SM CLR A2993 RMK VRB04KT  MADISHF
BUR,2017-04-01 12:05,-118.3587,34.2007,M,M,M,310.00,4.00,M,29.92,M,10.00,M,CLR,M,M,M,M,M,M,M,M,KBUR 011205Z AUTO 31004KT 10SM CLR A2992 RMK MADISHF
BUR,2017-04-01 12:10,-118.3587,34.2007,M,M,M,300.00,3.00,M,29.92,M,10.00,M,CLR,M,M,M,M,M,M,M,M,KBUR 011210Z AUTO 30003KT 10SM CLR A2992 RMK MADISHF
BUR,2017-04-01 12:15,-118.3587,34.2007,M,M,M,340.00,6.00,M,29.92,M,10.00,M,CLR,M,M,M,M,M,M,M,M,KBUR 011215Z AUTO 34006KT 10SM CLR A2992 RMK MADISHF
BUR,2017-04-01 12:20,-118.3587,34.2007,M,M,M,360.00,4.00,M,29.92,M,10.00,M,CLR,M,M,M,M,M,M,M,M,KBUR 011220Z AUTO 36004KT 10SM CLR A2992 RMK MADISHF
BUR,2017-04-01 12:25,-118.3587,34.2007,M,M,M,10.00,3.00,M,29.92,M,10.00,M,CLR,M,M,M,M,M,M,M,M,KBUR 011225Z AUTO 01003KT 10SM CLR A2992 RMK MADISHF
BUR,2017-04-01 12:30,-118.3587,34.2007,M,M,M,270.00,3.00,M,29.92,M,10.00,M,CLR,M,M,M,M,M,M,M,M,KBUR 011230Z AUTO 27003KT 10SM CLR A2992 RMK MADISHF
BUR,2017-04-01 12:35,-118.3587,34.2007,M,M,M,270.00,3.00,M,29.92,M,10.00,M,CLR,M,M,M,M,M,M,M,M,KBUR 011235Z AUTO 27003KT 10SM CLR A2992 RMK MADISHF
BUR,2017-04-01 12:40,-118.3587,34.2007,M,M,M,290.00,3.00,M,29.93,M,10.00,M,CLR,M,M,M,M,M,M,M,M,KBUR 011240Z AUTO 29003KT 10SM CLR A2993 RMK MADISHF
BUR,2017-04-01 12:45,-118.3587,34.2007,M,M,M,0.00,0.00,M,29.92,M,10.00,M,CLR,M,M,M,M,M,M,M,M,KBUR 011245Z AUTO 00000KT 10SM CLR A2992 RMK MADISHF
BUR,2017-04-01 12:50,-118.3587,34.2007,M,M,M,0.00,0.00,M,29.93,M,10.00,M,CLR,M,M,M,M,M,M,M,M,KBUR 011250Z AUTO 00000KT 10SM CLR A2993 RMK MADISHF
BUR,2017-04-01 12:53,-118.3587,34.2007,48.90,34.00,56.23,30.00,3.00,0.00,29.93,1012.60,10.00,M,CLR,M,M,M,M,M,M,M,M,KBUR 011253Z 03003KT 10SM CLR 09/01 A2993 RMK AO2 SLP126 T00940011
BUR,2017-04-01 12:55,-118.3587,34.2007,M,M,M,0.00,0.00,M,29.93,M,10.00,M,CLR,M,M,M,M,M,M,M,M,KBUR 011255Z AUTO 00000KT 10SM CLR A2993 RMK MADISHF
BUR,2017-04-01 13:00,-118.3587,34.2007,M,M,M,0.00,0.00,M,29.93,M,10.00,M,CLR,M,M,M,M,M,M,M,M,KBUR 011300Z AUTO 00000KT 10SM CLR A2993 RMK MADISHF
BUR,2017-04-01 13:05,-118.3587,34.2007,M,M,M,0.00,0.00,M,29.93,M,10.00,M,CLR,M,M,M,M,M,M,M,M,KBUR 011305Z AUTO 00000KT 10SM CLR A2993 RMK MADISHF
BUR,2017-04-01 13:10,-118.3587,34.2007,M,M,M,100.00,3.00,M,29.93,M,10.00,M,CLR,M,M,M,M,M,M,M,M,KBUR 011310Z AUTO 10003KT 10SM CLR A2993 RMK MADISHF
BUR,2017-04-01 13:15,-118.3587,34.2007,M,M,M,0.00,0.00,M,29.93,M,10.00,M,CLR,M,M,M,M,M,M,M,M,KBUR 011315Z AUTO 00000KT 10SM CLR A2993 RMK MADISHF
BUR,2017-04-01 13:20,-118.3587,34.2007,M,M,M,190.00,3.00,M,29.93,M,10.00,M,CLR,M,M,M,M,M,M,M,M,KBUR 011320Z AUTO 19003KT 10SM CLR A2993 RMK MADISHF
BUR,2017-04-01 13:25,-118.3587,34.2007,M,M,M,150.00,4.00,M,29.94,M,10.00,M,CLR,M,M,M,M,M,M,M,M,KBUR 011325Z AUTO 15004KT 10SM CLR A2994 RMK MADISHF
BUR,2017-04-01 13:30,-118.3587,34.2007,M,M,M,140.00,4.00,M,29.94,M,10.00,M,CLR,M,M,M,M,M,M,M,M,KBUR 011330Z AUTO 14004KT 10SM CLR A2994 RMK MADISHF
BUR,2017-04-01 13:35,-118.3587,34.2007,M,M,M,160.00,3.00,M,29.94,M,10.00,M,CLR,M,M,M,M,M,M,M,M,KBUR 011335Z AUTO 16003KT 10SM CLR A2994 RMK MADISHF
BUR,2017-04-01 13:40,-118.3587,34.2007,M,M,M,0.00,0.00,M,29.94,M,10.00,M,CLR,M,M,M,M,M,M,M,M,KBUR 011340Z AUTO 00000KT 10SM CLR A2994 RMK MADISHF
BUR,2017-04-01 13:45,-118.3587,34.2007,M,M,M,0.00,0.00,M,29.94,M,10.00,M,CLR,M,M,M,M,M,M,M,M,KBUR 011345Z AUTO 00000KT 10SM CLR A2994 RMK MADISHF
BUR,2017-04-01 13:50,-118.3587,34.2007,M,M,M,130.00,4.00,M,29.94,M,10.00,M,CLR,M,M,M,M,M,M,M,M,KBUR 011350Z AUTO 13004KT 10SM CLR A2994 RMK MADISHF
BUR,2017-04-01 13:53,-118.3587,34.2007,50.00,35.10,56.39,120.00,3.00,0.00,29.95,1013.30,10.00,M,CLR,M,M,M,M,M,M,M,M,KBUR 011353Z 12003KT 10SM CLR 10/02 A2995 RMK AO2 SLP133 T01000017
BUR,2017-04-01 13:55,-118.3587,34.2007,M,M,M,80.00,3.00,M,29.95,M,10.00,M,CLR,M,M,M,M,M,M,M,M,KBUR 011355Z AUTO 08003KT 10SM CLR A2995 RMK MADISHF
BUR,2017-04-01 14:00,-118.3587,34.2007,M,M,M,80.00,3.00,M,29.95,M,10.00,M,CLR,M,M,M,M,M,M,M,M,KBUR 011400Z AUTO 08003KT 10SM CLR A2995 RMK MADISHF
BUR,2017-04-01 14:05,-118.3587,34.2007,M,M,M,80.00,3.00,M,29.95,M,10.00,M,CLR,M,M,M,M,M,M,M,M,KBUR 011405Z AUTO 08003KT 10SM CLR A2995 RMK MADISHF
BUR,2017-04-01 14:10,-118.3587,34.2007,M,M,M,0.00,0.00,M,29.96,M,10.00,M,CLR,M,M,M,M,M,M,M,M,KBUR 011410Z AUTO 00000KT 10SM CLR A2996 RMK MADISHF
BUR,2017-04-01 14:15,-118.3587,34.2007,M,M,M,0.00,0.00,M,29.96,M,10.00,M,CLR,M,M,M,M,M,M,M,M,KBUR 011415Z AUTO 00000KT 10SM CLR A2996 RMK MADISHF
BUR,2017-04-01 14:20,-118.3587,34.2007,M,M,M,0.00,0.00,M,29.96,M,10.00,M,CLR,M,M,M,M,M,M,M,M,KBUR 011420Z AUTO 00000KT 10SM CLR A2996 RMK MADISHF
BUR,2017-04-01 14:25,-118.3587,34.2007,M,M,M,100.00,3.00,M,29.96,M,10.00,M,CLR,M,M,M,M,M,M,M,M,KBUR 011425Z AUTO 10003KT 10SM CLR A2996 RMK MADISHF
BUR,2017-04-01 14:30,-118.3587,34.2007,M,M,M,130.00,6.00,M,29.96,M,10.00,M,CLR,M,M,M,M,M,M,M,M,KBUR 011430Z AUTO 13006KT 10SM CLR A2996 RMK MADISHF
BUR,2017-04-01 14:35,-118.3587,34.2007,M,M,M,130.00,3.00,M,29.96,M,10.00,M,CLR,M,M,M,M,M,M,M,M,KBUR 011435Z AUTO 13003KT 10SM CLR A2996 RMK MADISHF
BUR,2017-04-01 14:40,-118.3587,34.2007,M,M,M,0.00,0.00,M,29.96,M,10.00,M,CLR,M,M,M,M,M,M,M,M,KBUR 011440Z AUTO 00000KT 10SM CLR A2996 RMK MADISHF
BUR,2017-04-01 14:45,-118.3587,34.2007,M,M,M,0.00,0.00,M,29.97,M,10.00,M,CLR,M,M,M,M,M,M,M,M,KBUR 011445Z AUTO 00000KT 10SM CLR A2997 RMK MADISHF
BUR,2017-04-01 14:50,-118.3587,34.2007,M,M,M,0.00,0.00,M,29.97,M,10.00,M,CLR,M,M,M,M,M,M,M,M,KBUR 011450Z AUTO 00000KT 10SM CLR A2997 RMK MADISHF
BUR,2017-04-01 14:53,-118.3587,34.2007,55.00,37.00,50.58,0.00,0.00,0.00,29.97,1014.00,10.00,M,CLR,M,M,M,M,M,M,M,M,KBUR 011453Z 00000KT 10SM CLR 13/03 A2997 RMK AO2 SLP140 T01280028 53015
BUR,2017-04-01 14:55,-118.3587,34.2007,M,M,M,0.00,0.00,M,29.97,M,10.00,M,CLR,M,M,M,M,M,M,M,M,KBUR 011455Z AUTO 00000KT 10SM CLR A2997 RMK MADISHF
BUR,2017-04-01 15:00,-118.3587,34.2007,M,M,M,0.00,0.00,M,29.97,M,10.00,M,CLR,M,M,M,M,M,M,M,M,KBUR 011500Z AUTO 00000KT 10SM CLR A2997 RMK MADISHF
BUR,2017-04-01 15:05,-118.3587,34.2007,M,M,M,0.00,0.00,M,29.97,M,10.00,M,CLR,M,M,M,M,M,M,M,M,KBUR 011505Z AUTO 00000KT 10SM CLR A2997 RMK MADISHF
BUR,2017-04-01 15:10,-118.3587,34.2007,M,M,M,0.00,0.00,M,29.98,M,10.00,M,CLR,M,M,M,M,M,M,M,M,KBUR 011510Z AUTO 00000KT 10SM CLR A2998 RMK MADISHF
BUR,2017-04-01 15:15,-118.3587,34.2007,M,M,M,0.00,0.00,M,29.98,M,10.00,M,CLR,M,M,M,M,M,M,M,M,KBUR 011515Z AUTO 00000KT 10SM CLR A2998 RMK MADISHF
BUR,2017-04-01 15:20,-118.3587,34.2007,M,M,M,150.00,3.00,M,29.98,M,10.00,M,CLR,M,M,M,M,M,M,M,M,KBUR 011520Z AUTO 15003KT 10SM CLR A2998 RMK MADISHF
BUR,2017-04-01 15:25,-118.3587,34.2007,M,M,M,0.00,0.00,M,29.98,M,10.00,M,CLR,M,M,M,M,M,M,M,M,KBUR 011525Z AUTO 00000KT 10SM CLR A2998 RMK MADISHF
BUR,2017-04-01 15:30,-118.3587,34.2007,M,M,M,0.00,0.00,M,29.98,M,10.00,M,CLR,M,M,M,M,M,M,M,M,KBUR 011530Z AUTO 00000KT 10SM CLR A2998 RMK MADISHF
BUR,2017-04-01 15:35,-118.3587,34.2007,M,M,M,120.00,3.00,M,29.98,M,10.00,M,CLR,M,M,M,M,M,M,M,M,KBUR 011535Z AUTO 12003KT 10SM CLR A2998 RMK MADISHF
BUR,2017-04-01 15:40,-118.3587,34.2007,M,M,M,150.00,5.00,M,29.99,M,10.00,M,CLR,M,M,M,M,M,M,M,M,KBUR 011540Z AUTO 15005KT 10SM CLR A2999 RMK MADISHF
BUR,2017-04-01 15:45,-118.3587,34.2007,M,M,M,160.00,5.00,M,29.98,M,10.00,M,CLR,M,M,M,M,M,M,M,M,KBUR 011545Z AUTO 16005KT 10SM CLR A2998 RMK MADISHF
BUR,2017-04-01 15:50,-118.3587,34.2007,M,M,M,130.00,4.00,M,29.98,M,10.00,M,CLR,M,M,M,M,M,M,M,M,KBUR 011550Z AUTO 13004KT 10SM CLR A2998 RMK MADISHF
BUR,2017-04-01 15:53,-118.3587,34.2007,59.00,36.00,42.08,140.00,5.00,0.00,29.98,1014.30,10.00,M,CLR,M,M,M,M,M,M,M,M,KBUR 011553Z 14005KT 10SM CLR 15/02 A2998 RMK AO2 SLP143 T01500022
BUR,2017-04-01 15:55,-118.3587,34.2007,M,M,M,160.00,3.00,M,29.98,M,10.00,M,CLR,M,M,M,M,M,M,M,M,KBUR 011555Z AUTO 16003KT 10SM CLR A2998 RMK MADISHF
BUR,2017-04-01 16:00,-118.3587,34.2007,M,M,M,160.00,5.00,M,29.98,M,10.00,M,CLR,M,M,M,M,M,M,M,M,KBUR 011600Z AUTO 16005KT 10SM CLR A2998 RMK MADISHF
BUR,2017-04-01 16:05,-118.3587,34.2007,M,M,M,150.00,4.00,M,29.98,M,10.00,M,CLR,M,M,M,M,M,M,M,M,KBUR 011605Z AUTO 15004KT 10SM CLR A2998 RMK MADISHF
BUR,2017-04-01 16:10,-118.3587,34.2007,M,M,M,150.00,5.00,M,29.98,M,10.00,M,CLR,M,M,M,M,M,M,M,M,KBUR 011610Z AUTO 15005KT 10SM CLR A2998 RMK MADISHF
BUR,2017-04-01 16:15,-118.3587,34.2007,M,M,M,140.00,5.00,M,29.98,M,10.00,M,CLR,M,M,M,M,M,M,M,M,KBUR 011615Z AUTO 14005KT 10SM CLR A2998 RMK MADISHF
BUR,2017-04-01 16:20,-118.3587,34.2007,M,M,M,140.00,6.00,M,29.98,M,10.00,M,CLR,M,M,M,M,M,M,M,M,KBUR 011620Z AUTO 14006KT 10SM CLR A2998 RMK MADISHF
BUR,2017-04-01 16:25,-118.3587,34.2007,M,M,M,140.00,4.00,M,29.98,M,10.00,M,CLR,M,M,M,M,M,M,M,M,KBUR 011625Z AUTO 14004KT 10SM CLR A2998 RMK MADISHF
BUR,2017-04-01 16:30,-118.3587,34.2007,M,M,M,130.00,4.00,M,29.98,M,10.00,M,CLR,M,M,M,M,M,M,M,M,KBUR 011630Z AUTO 13004KT 10SM CLR A2998 RMK MADISHF
BUR,2017-04-01 16:35,-118.3587,34.2007,M,M,M,140.00,5.00,M,29.98,M,10.00,M,CLR,M,M,M,M,M,M,M,M,KBUR 011635Z AUTO 14005KT 10SM CLR A2998 RMK MADISHF
BUR,2017-04-01 16:40,-118.3587,34.2007,M,M,M,130.00,6.00,M,29.98,M,10.00,M,CLR,M,M,M,M,M,M,M,M,KBUR 011640Z AUTO 13006KT 10SM CLR A2998 RMK VRB06KT  MADISHF
BUR,2017-04-01 16:45,-118.3587,34.2007,M,M,M,120.00,5.00,M,29.98,M,10.00,M,CLR,M,M,M,M,M,M,M,M,KBUR 011645Z AUTO 12005KT 10SM CLR A2998 RMK MADISHF
BUR,2017-04-01 16:50,-118.3587,34.2007,M,M,M,140.00,6.00,M,29.98,M,10.00,M,CLR,M,M,M,M,M,M,M,M,KBUR 011650Z AUTO 14006KT 10SM CLR A2998 RMK MADISHF
BUR,2017-04-01 16:53,-118.3587,34.2007,63.00,35.10,35.24,170.00,5.00,0.00,29.99,1014.50,10.00,M,CLR,M,M,M,M,M,M,M,M,KBUR 011653Z 17005KT 10SM CLR 17/02 A2999 RMK AO2 SLP145 T01720017
BUR,2017-04-01 16:55,-118.3587,34.2007,M,M,M,170.00,4.00,M,29.99,M,10.00,M,CLR,M,M,M,M,M,M,M,M,KBUR 011655Z AUTO 17004KT 10SM CLR A2999 RMK MADISHF
BUR,2017-04-01 17:00,-118.3587,34.2007,M,M,M,170.00,6.00,M,29.99,M,10.00,M,CLR,M,M,M,M,M,M,M,M,KBUR 011700Z AUTO 17006KT 10SM CLR A2999 RMK MADISHF
BUR,2017-04-01 17:05,-118.3587,34.2007,M,M,M,150.00,7.00,M,29.99,M,10.00,M,CLR,M,M,M,M,M,M,M,M,KBUR 011705Z AUTO 15007KT 10SM CLR A2999 RMK MADISHF
BUR,2017-04-01 17:10,-118.3587,34.2007,M,M,M,160.00,4.00,M,29.99,M,10.00,M,CLR,M,M,M,M,M,M,M,M,KBUR 011710Z AUTO 16004KT 10SM CLR A2999 RMK MADISHF
BUR,2017-04-01 17:15,-118.3587,34.2007,M,M,M,150.00,5.00,M,29.99,M,10.00,M,CLR,M,M,M,M,M,M,M,M,KBUR 011715Z AUTO 15005KT 10SM CLR A2999 RMK VRB05KT  MADISHF
BUR,2017-04-01 17:20,-118.3587,34.2007,M,M,M,180.00,5.00,M,29.99,M,10.00,M,CLR,M,M,M,M,M,M,M,M,KBUR 011720Z AUTO 18005KT 10SM CLR A2999 RMK MADISHF
BUR,2017-04-01 17:25,-118.3587,34.2007,M,M,M,150.00,6.00,M,29.99,M,10.00,M,CLR,M,M,M,M,M,M,M,M,KBUR 011725Z AUTO 15006KT 10SM CLR A2999 RMK MADISHF
BUR,2017-04-01 17:30,-118.3587,34.2007,M,M,M,160.00,6.00,M,29.99,M,10.00,M,CLR,M,M,M,M,M,M,M,M,KBUR 011730Z AUTO 16006KT 10SM CLR A2999 RMK MADISHF
BUR,2017-04-01 17:35,-118.3587,34.2007,M,M,M,190.00,5.00,M,29.99,M,10.00,M,CLR,M,M,M,M,M,M,M,M,KBUR 011735Z AUTO 19005KT 10SM CLR A2999 RMK MADISHF
BUR,2017-04-01 17:40,-118.3587,34.2007,M,M,M,160.00,5.00,M,29.99,M,10.00,M,CLR,M,M,M,M,M,M,M,M,KBUR 011740Z AUTO 16005KT 10SM CLR A2999 RMK MADISHF
BUR,2017-04-01 17:45,-118.3587,34.2007,M,M,M,180.00,6.00,M,29.99,M,10.00,M,CLR,M,M,M,M,M,M,M,M,KBUR 011745Z AUTO 18006KT 10SM CLR A2999 RMK MADISHF
BUR,2017-04-01 17:50,-118.3587,34.2007,M,M,M,170.00,6.00,M,29.99,M,10.00,M,CLR,M,M,M,M,M,M,M,M,KBUR 011750Z AUTO 17006KT 10SM CLR A2999 RMK VRB06KT  MADISHF
BUR,2017-04-01 17:53,-118.3587,34.2007,66.00,36.00,32.88,200.00,6.00,0.00,29.99,1014.50,10.00,M,CLR,M,M,M,M,M,M,M,M,KBUR 011753Z 20006KT 10SM CLR 19/02 A2999 RMK AO2 SLP145 T01890022 10189 20094 51006
BUR,2017-04-01 17:55,-118.3587,34.2007,M,M,M,200.00,5.00,M,29.99,M,10.00,M,CLR,M,M,M,M,M,M,M,M,KBUR 011755Z AUTO 20005KT 10SM CLR A2999 RMK MADISHF
BUR,2017-04-01 18:00,-118.3587,34.2007,M,M,M,0.00,0.00,M,29.99,M,10.00,M,CLR,M,M,M,M,M,M,M,M,KBUR 011800Z AUTO 00000KT 10SM CLR A2999 RMK MADISHF
BUR,2017-04-01 18:05,-118.3587,34.2007,M,M,M,M,M,M,29.98,M,10.00,M,CLR,M,M,M,M,M,M,M,M,KBUR 011805Z AUTO /////KT 10SM CLR A2998 RMK MADISHF
BUR,2017-04-01 18:10,-118.3587,34.2007,M,M,M,130.00,5.00,M,29.98,M,10.00,M,CLR,M,M,M,M,M,M,M,M,KBUR 011810Z AUTO 13005KT 10SM CLR A2998 RMK MADISHF
BUR,2017-04-01 18:15,-118.3587,34.2007,M,M,M,160.00,5.00,M,29.98,M,10.00,M,CLR,M,M,M,M,M,M,M,M,KBUR 011815Z AUTO 16005KT 10SM CLR A2998 RMK MADISHF
BUR,2017-04-01 18:20,-118.3587,34.2007,M,M,M,180.00,6.00,M,29.98,M,10.00,M,CLR,M,M,M,M,M,M,M,M,KBUR 011820Z AUTO 18006KT 10SM CLR A2998 RMK VRB06KT  MADISHF
BUR,2017-04-01 18:25,-118.3587,34.2007,M,M,M,170.00,6.00,M,29.98,M,10.00,M,CLR,M,M,M,M,M,M,M,M,KBUR 011825Z AUTO 17006KT 10SM CLR A2998 RMK MADISHF
BUR,2017-04-01 18:30,-118.3587,34.2007,M,M,M,150.00,7.00,M,29.98,M,10.00,M,CLR,M,M,M,M,M,M,M,M,KBUR 011830Z AUTO 15007KT 10SM CLR A2998 RMK MADISHF
BUR,2017-04-01 18:35,-118.3587,34.2007,M,M,M,150.00,8.00,M,29.98,M,10.00,M,CLR,M,M,M,M,M,M,M,M,KBUR 011835Z AUTO 15008KT 10SM CLR A2998 RMK MADISHF
BUR,2017-04-01 18:40,-118.3587,34.2007,M,M,M,150.00,7.00,M,29.98,M,10.00,M,CLR,M,M,M,M,M,M,M,M,KBUR 011840Z AUTO 15007KT 10SM CLR A2998 RMK WND 12V18  MADISHF
BUR,2017-04-01 18:45,-118.3587,34.2007,M,M,M,120.00,3.00,M,29.98,M,10.00,M,CLR,M,M,M,M,M,M,M,M,KBUR 011845Z AUTO 12003KT 10SM CLR A2998 RMK VRB03KT  MADISHF
BUR,2017-04-01 18:50,-118.3587,34.2007,M,M,M,M,M,M,29.98,M,10.00,M,CLR,M,M,M,M,M,M,M,M,KBUR 011850Z AUTO /////KT 10SM CLR A2998 RMK MADISHF
BUR,2017-04-01 18:53,-118.3587,34.2007,71.10,37.00,28.71,120.00,7.00,0.00,29.98,1014.10,10.00,M,CLR,M,M,M,M,M,M,M,M,KBUR 011853Z 12007KT 10SM CLR 22/03 A2998 RMK AO2 SLP141 T02170028
BUR,2017-04-01 18:55,-118.3587,34.2007,M,M,M,140.00,9.00,M,29.98,M,10.00,M,CLR,M,M,M,M,M,M,M,M,KBUR 011855Z AUTO 14009KT 10SM CLR A2998 RMK MADISHF
BUR,2017-04-01 19:00,-118.3587,34.2007,M,M,M,120.00,8.00,M,29.98,M,10.00,M,CLR,M,M,M,M,M,M,M,M,KBUR 011900Z AUTO 12008KT 10SM CLR A2998 RMK MADISHF
BUR,2017-04-01 19:05,-118.3587,34.2007,M,M,M,120.00,7.00,M,29.97,M,10.00,M,CLR,M,M,M,M,M,M,M,M,KBUR 011905Z AUTO 12007KT 10SM CLR A2997 RMK MADISHF
BUR,2017-04-01 19:10,-118.3587,34.2007,M,M,M,130.00,8.00,M,29.97,M,10.00,M,CLR,M,M,M,M,M,M,M,M,KBUR 011910Z AUTO 13008KT 10SM CLR A2997 RMK MADISHF
BUR,2017-04-01 19:15,-118.3587,34.2007,M,M,M,110.00,8.00,M,29.97,M,10.00,M,CLR,M,M,M,M,M,M,M,M,KBUR 011915Z AUTO 11008KT 10SM CLR A2997 RMK MADISHF
BUR,2017-04-01 19:20,-118.3587,34.2007,M,M,M,160.00,9.00,M,29.97,M,10.00,M,CLR,M,M,M,M,M,M,M,M,KBUR 011920Z AUTO 16009KT 10SM CLR A2997 RMK MADISHF
BUR,2017-04-01 19:25,-118.3587,34.2007,M,M,M,180.00,8.00,M,29.97,M,10.00,M,CLR,M,M,M,M,M,M,M,M,KBUR 011925Z AUTO 18008KT 10SM CLR A2997 RMK MADISHF
BUR,2017-04-01 19:30,-118.3587,34.2007,M,M,M,170.00,8.00,M,29.97,M,10.00,M,CLR,M,M,M,M,M,M,M,M,KBUR 011930Z AUTO 17008KT 10SM CLR A2997 RMK MADISHF
BUR,2017-04-01 19:35,-118.3587,34.2007,M,M,M,170.00,8.00,M,29.96,M,10.00,M,CLR,M,M,M,M,M,M,M,M,KBUR 011935Z AUTO 17008KT 10SM CLR A2996 RMK MADISHF
BUR,2017-04-01 19:40,-118.3587,34.2007,M,M,M,170.00,8.00,M,29.96,M,10.00,M,CLR,M,M,M,M,M,M,M,M,KBUR 011940Z AUTO 17008KT 10SM CLR A2996 RMK MADISHF
BUR,2017-04-01 19:45,-118.3587,34.2007,M,M,M,170.00,7.00,M,29.96,M,10.00,M,CLR,M,M,M,M,M,M,M,M,KBUR 011945Z AUTO 17007KT 10SM CLR A2996 RMK WND 12V19  MADISHF
BUR,2017-04-01 19:50,-118.3587,34.2007,M,M,M,170.00,6.00,M,29.96,M,10.00,M,CLR,M,M,M,M,M,M,M,M,KBUR 011950Z AUTO 17006KT 10SM CLR A2996 RMK VRB06KT  MADISHF
BUR,2017-04-01 19:53,-118.3587,34.2007,72.00,36.00,26.77,150.00,7.00,0.00,29.96,1013.50,10.00,M,CLR,M,M,M,M,M,M,M,M,KBUR 011953Z 15007KT 10SM CLR 22/02 A2996 RMK AO2 SLP135 T02220022
BUR,2017-04-01 19:55,-118.3587,34.2007,M,M,M,190.00,7.00,M,29.96,M,10.00,M,CLR,M,M,M,M,M,M,M,M,KBUR 011955Z AUTO 19007KT 10SM CLR A2996 RMK WND 13V21  MADISHF
BUR,2017-04-01 20:00,-118.3587,34.2007,M,M,M,160.00,8.00,M,29.96,M,10.00,M,CLR,M,M,M,M,M,M,M,M,KBUR 012000Z AUTO 16008KT 10SM CLR A2996 RMK MADISHF
BUR,2017-04-01 20:05,-118.3587,34.2007,M,M,M,180.00,7.00,M,29.95,M,10.00,M,CLR,M,M,M,M,M,M,M,M,KBUR 012005Z AUTO 18007KT 10SM CLR A2995 RMK MADISHF
BUR,2017-04-01 20:10,-118.3587,34.2007,M,M,M,130.00,6.00,M,29.95,M,10.00,M,CLR,M,M,M,M,M,M,M,M,KBUR 012010Z AUTO 13006KT 10SM CLR A2995 RMK VRB06KT  MADISHF
BUR,2017-04-01 20:15,-118.3587,34.2007,M,M,M,160.00,9.00,M,29.95,M,10.00,M,CLR,M,M,M,M,M,M,M,M,KBUR 012015Z AUTO 16009KT 10SM CLR A2995 RMK MADISHF
BUR,2017-04-01 20:20,-118.3587,34.2007,M,M,M,180.00,7.00,M,29.95,M,10.00,M,CLR,M,M,M,M,M,M,M,M,KBUR 012020Z AUTO 18007KT 10SM CLR A2995 RMK MADISHF
BUR,2017-04-01 20:25,-118.3587,34.2007,M,M,M,170.00,8.00,M,29.95,M,10.00,M,CLR,M,M,M,M,M,M,M,M,KBUR 012025Z AUTO 17008KT 10SM CLR A2995 RMK WND 14V20  MADISHF
BUR,2017-04-01 20:30,-118.3587,34.2007,M,M,M,190.00,10.00,M,29.95,M,10.00,M,CLR,M,M,M,M,M,M,M,M,KBUR 012030Z AUTO 19010KT 10SM CLR A2995 RMK MADISHF
BUR,2017-04-01 20:35,-118.3587,34.2007,M,M,M,170.00,7.00,M,29.95,M,10.00,M,CLR,M,M,M,M,M,M,M,M,KBUR 012035Z AUTO 17007KT 10SM CLR A2995 RMK MADISHF
BUR,2017-04-01 20:40,-118.3587,34.2007,M,M,M,210.00,6.00,M,29.95,M,10.00,M,CLR,M,M,M,M,M,M,M,M,KBUR 012040Z AUTO 21006KT 10SM CLR A2995 RMK MADISHF
BUR,2017-04-01 20:45,-118.3587,34.2007,M,M,M,170.00,7.00,M,29.94,M,10.00,M,CLR,M,M,M,M,M,M,M,M,KBUR 012045Z AUTO 17007KT 10SM CLR A2994 RMK MADISHF
BUR,2017-04-01 20:50,-118.3587,34.2007,M,M,M,170.00,7.00,M,29.94,M,10.00,M,CLR,M,M,M,M,M,M,M,M,KBUR 012050Z AUTO 17007KT 10SM CLR A2994 RMK MADISHF
BUR,2017-04-01 20:53,-118.3587,34.2007,73.00,36.00,25.88,170.00,6.00,0.00,29.94,1012.90,10.00,M,CLR,M,M,M,M,M,M,M,M,KBUR 012053Z 17006KT 10SM CLR 23/02 A2994 RMK AO2 SLP129 T02280022 58016
BUR,2017-04-01 20:55,-118.3587,34.2007,M,M,M,180.00,6.00,M,29.94,M,10.00,M,CLR,M,M,M,M,M,M,M,M,KBUR 012055Z AUTO 18006KT 10SM CLR A2994 RMK VRB06KT  MADISHF
BUR,2017-04-01 21:00,-118.3587,34.2007,M,M,M,150.00,8.00,M,29.94,M,10.00,M,CLR,M,M,M,M,M,M,M,M,KBUR 012100Z AUTO 15008KT 10SM CLR A2994 RMK MADISHF
BUR,2017-04-01 21:05,-118.3587,34.2007,M,M,M,150.00,7.00,M,29.93,M,10.00,M,CLR,M,M,M,M,M,M,M,M,KBUR 012105Z AUTO 15007KT 10SM CLR A2993 RMK MADISHF
BUR,2017-04-01 21:10,-118.3587,34.2007,M,M,M,160.00,7.00,M,29.93,M,10.00,M,CLR,M,M,M,M,M,M,M,M,KBUR 012110Z AUTO 16007KT 10SM CLR A2993 RMK MADISHF
BUR,2017-04-01 21:15,-118.3587,34.2007,M,M,M,170.00,7.00,M,29.93,M,10.00,M,CLR,M,M,M,M,M,M,M,M,KBUR 012115Z AUTO 17007KT 10SM CLR A2993 RMK MADISHF
BUR,2017-04-01 21:20,-118.3587,34.2007,M,M,M,180.00,7.00,M,29.93,M,10.00,M,CLR,M,M,M,M,M,M,M,M,KBUR 012120Z AUTO 18007KT 10SM CLR A2993 RMK MADISHF
BUR,2017-04-01 21:25,-118.3587,34.2007,M,M,M,M,M,M,29.93,M,10.00,M,CLR,M,M,M,M,M,M,M,M,KBUR 012125Z AUTO /////KT 10SM CLR A2993 RMK MADISHF
BUR,2017-04-01 21:30,-118.3587,34.2007,M,M,M,160.00,8.00,M,29.93,M,10.00,M,CLR,M,M,M,M,M,M,M,M,KBUR 012130Z AUTO 16008KT 10SM CLR A2993 RMK WND 14V22  MADISHF
BUR,2017-04-01 21:35,-118.3587,34.2007,M,M,M,190.00,8.00,M,29.93,M,10.00,M,CLR,M,M,M,M,M,M,M,M,KBUR 012135Z AUTO 19008KT 10SM CLR A2993 RMK MADISHF
BUR,2017-04-01 21:40,-118.3587,34.2007,M,M,M,170.00,10.00,M,29.93,M,10.00,M,CLR,M,M,M,M,M,M,M,M,KBUR 012140Z AUTO 17010KT 10SM CLR A2993 RMK MADISHF
BUR,2017-04-01 21:45,-118.3587,34.2007,M,M,M,M,M,M,29.92,M,10.00,M,CLR,M,M,M,M,M,M,M,M,KBUR 012145Z AUTO /////KT 10SM CLR A2992 RMK MADISHF
BUR,2017-04-01 21:50,-118.3587,34.2007,M,M,M,210.00,9.00,M,29.92,M,10.00,M,CLR,M,M,M,M,M,M,M,M,KBUR 012150Z AUTO 21009KT 10SM CLR A2992 RMK MADISHF
BUR,2017-04-01 21:53,-118.3587,34.2007,73.90,39.00,28.25,190.00,8.00,0.00,29.92,1012.30,10.00,M,CLR,M,M,M,M,M,M,M,M,KBUR 012153Z 19008KT 10SM CLR 23/04 A2992 RMK AO2 SLP123 T02330039
BUR,2017-04-01 21:55,-118.3587,34.2007,M,M,M,190.00,8.00,M,29.92,M,10.00,M,CLR,M,M,M,M,M,M,M,M,KBUR 012155Z AUTO 19008KT 10SM CLR A2992 RMK MADISHF
BUR,2017-04-01 22:00,-118.3587,34.2007,M,M,M,170.00,10.00,M,29.92,M,10.00,M,CLR,M,M,M,M,M,M,M,M,KBUR 012200Z AUTO 17010KT 10SM CLR A2992 RMK MADISHF
BUR,2017-04-01 22:05,-118.3587,34.2007,M,M,M,190.00,8.00,M,29.92,M,10.00,M,CLR,M,M,M,M,M,M,M,M,KBUR 012205Z AUTO 19008KT 10SM CLR A2992 RMK MADISHF
BUR,2017-04-01 22:10,-118.3587,34.2007,M,M,M,170.00,8.00,M,29.92,M,10.00,M,CLR,M,M,M,M,M,M,M,M,KBUR 012210Z AUTO 17008KT 10SM CLR A2992 RMK MADISHF
BUR,2017-04-01 22:15,-118.3587,34.2007,M,M,M,160.00,9.00,M,29.92,M,10.00,M,CLR,M,M,M,M,M,M,M,M,KBUR 012215Z AUTO 16009KT 10SM CLR A2992 RMK MADISHF
BUR,2017-04-01 22:20,-118.3587,34.2007,M,M,M,M,M,M,29.92,M,10.00,M,CLR,M,M,M,M,M,M,M,M,KBUR 012220Z AUTO /////KT 10SM CLR A2992 RMK MADISHF
BUR,2017-04-01 22:25,-118.3587,34.2007,M,M,M,170.00,10.00,M,29.92,M,10.00,M,CLR,M,M,M,M,M,M,M,M,KBUR 012225Z AUTO 17010KT 10SM CLR A2992 RMK MADISHF
BUR,2017-04-01 22:30,-118.3587,34.2007,M,M,M,M,M,M,29.91,M,10.00,M,CLR,M,M,M,M,M,M,M,M,KBUR 012230Z AUTO /////KT 10SM CLR A2991 RMK MADISHF
BUR,2017-04-01 22:35,-118.3587,34.2007,M,M,M,M,M,M,29.92,M,10.00,M,CLR,M,M,M,M,M,M,M,M,KBUR 012235Z AUTO /////KT 10SM CLR A2992 RMK MADISHF
BUR,2017-04-01 22:40,-118.3587,34.2007,M,M,M,170.00,11.00,M,29.91,M,10.00,M,CLR,M,M,M,M,M,M,M,M,KBUR 012240Z AUTO 17011KT 10SM CLR A2991 RMK MADISHF
BUR,2017-04-01 22:45,-118.3587,34.2007,M,M,M,M,M,M,29.91,M,10.00,M,CLR,M,M,M,M,M,M,M,M,KBUR 012245Z AUTO /////KT 10SM CLR A2991 RMK MADISHF
BUR,2017-04-01 22:50,-118.3587,34.2007,M,M,M,170.00,10.00,M,29.92,M,10.00,M,CLR,M,M,M,M,M,M,M,M,KBUR 012250Z AUTO 17010KT 10SM CLR A2992 RMK MADISHF
BUR,2017-04-01 22:53,-118.3587,34.2007,73.00,37.00,26.92,170.00,10.00,0.00,29.91,1012.00,10.00,M,CLR,M,M,M,M,M,M,M,M,KBUR 012253Z 17010KT 10SM CLR 23/03 A2991 RMK AO2 SLP120 T02280028
BUR,2017-04-01 22:55,-118.3587,34.2007,M,M,M,M,M,M,29.91,M,10.00,M,CLR,M,M,M,M,M,M,M,M,KBUR 012255Z AUTO /////KT 10SM CLR A2991 RMK MADISHF
BUR,2017-04-01 23:00,-118.3587,34.2007,M,M,M,150.00,10.00,M,29.91,M,10.00,M,CLR,M,M,M,M,M,M,M,M,KBUR 012300Z AUTO 15010KT 10SM CLR A2991 RMK MADISHF
BUR,2017-04-01 23:05,-118.3587,34.2007,M,M,M,130.00,8.00,M,29.91,M,10.00,M,CLR,M,M,M,M,M,M,M,M,KBUR 012305Z AUTO 13008KT 10SM CLR A2991 RMK MADISHF
BUR,2017-04-01 23:10,-118.3587,34.2007,M,M,M,160.00,7.00,M,29.91,M,10.00,M,CLR,M,M,M,M,M,M,M,M,KBUR 012310Z AUTO 16007KT 10SM CLR A2991 RMK MADISHF
BUR,2017-04-01 23:15,-118.3587,34.2007,M,M,M,140.00,8.00,M,29.91,M,10.00,M,CLR,M,M,M,M,M,M,M,M,KBUR 012315Z AUTO 14008KT 10SM CLR A2991 RMK MADISHF
BUR,2017-04-01 23:20,-118.3587,34.2007,M,M,M,170.00,10.00,M,29.91,M,10.00,M,CLR,M,M,M,M,M,M,M,M,KBUR 012320Z AUTO 17010KT 10SM CLR A2991 RMK MADISHF
BUR,2017-04-01 23:25,-118.3587,34.2007,M,M,M,160.00,7.00,M,29.91,M,10.00,M,CLR,M,M,M,M,M,M,M,M,KBUR 012325Z AUTO 16007KT 10SM CLR A2991 RMK MADISHF
BUR,2017-04-01 23:30,-118.3587,34.2007,M,M,M,170.00,9.00,M,29.91,M,10.00,M,CLR,M,M,M,M,M,M,M,M,KBUR 012330Z AUTO 17009KT 10SM CLR A2991 RMK MADISHF
BUR,2017-04-01 23:35,-118.3587,34.2007,M,M,M,160.00,8.00,M,29.91,M,10.00,M,CLR,M,M,M,M,M,M,M,M,KBUR 012335Z AUTO 16008KT 10SM CLR A2991 RMK MADISHF
BUR,2017-04-01 23:40,-118.3587,34.2007,M,M,M,160.00,8.00,M,29.90,M,10.00,M,CLR,M,M,M,M,M,M,M,M,KBUR 012340Z AUTO 16008KT 10SM CLR A2990 RMK MADISHF
BUR,2017-04-01 23:45,-118.3587,34.2007,M,M,M,170.00,6.00,M,29.90,M,10.00,M,CLR,M,M,M,M,M,M,M,M,KBUR 012345Z AUTO 17006KT 10SM CLR A2990 RMK MADISHF
BUR,2017-04-01 23:50,-118.3587,34.2007,M,M,M,160.00,8.00,M,29.90,M,10.00,M,CLR,M,M,M,M,M,M,M,M,KBUR 012350Z AUTO 16008KT 10SM CLR A2990 RMK MADISHF
BUR,2017-04-01 23:53,-118.3587,34.2007,73.90,37.00,26.12,170.00,9.00,0.00,29.90,1011.60,10.00,M,CLR,M,M,M,M,M,M,M,M,KBUR 012353Z 17009KT 10SM CLR 23/03 A2990 RMK AO2 SLP116 T02330028 10233 20194 56013
BUR,2017-04-01 23:55,-118.3587,34.2007,M,M,M,160.00,6.00,M,29.90,M,10.00,M,CLR,M,M,M,M,M,M,M,M,KBUR 012355Z AUTO 16006KT 10SM CLR A2990 RMK MADISHF
