#DEBUG: Format Typ    -> comma
#DEBUG: Time Period   -> 2017-04-01 00:00:00+00:00 2017-04-02 00:00:00+00:00
#DEBUG: Time Zone     -> Etc/UTC
#DEBUG: Data Contact   -> daryl herzmann akrherz@iastate.edu 515-294-5978
#DEBUG: Entries Found -> -1
station,valid,lon,lat,tmpf, dwpf, relh, drct, sknt, p01i, alti, mslp, vsby, gust, skyc1, skyc2, skyc3, skyc4, skyl1, skyl2, skyl3, skyl4, presentwx, metar
BVN,2017-04-01 00:15,-98.0558,41.7286,50.90,35.60,55.63,0.00,0.00,0.00,30.05,M,10.00,M,OVC,M,M,M,3700.00,M,M,M,M,KBVN 010015Z AUTO 00000KT 10SM OVC037 11/02 A3005 RMK AO2 T01050020
BVN,2017-04-01 00:35,-98.0558,41.7286,50.40,36.30,58.26,0.00,0.00,0.00,30.05,M,10.00,M,OVC,M,M,M,3900.00,M,M,M,M,KBVN 010035Z AUTO 00000KT 10SM OVC039 10/02 A3005 RMK AO2 T01020024
BVN,2017-04-01 00:55,-98.0558,41.7286,49.50,36.50,60.72,0.00,0.00,0.00,30.05,M,10.00,M,OVC,M,M,M,4100.00,M,M,M,M,KBVN 010055Z AUTO 00000KT 10SM OVC041 10/03 A3005 RMK AO2 T00970025
BVN,2017-04-01 01:15,-98.0558,41.7286,47.30,37.20,67.78,40.00,4.00,0.00,30.05,M,10.00,M,BKN,M,M,M,4100.00,M,M,M,M,KBVN 010115Z AUTO 04004KT 10SM BKN041 09/03 A3005 RMK AO2 T00850029
BVN,2017-04-01 01:35,-98.0558,41.7286,45.00,37.60,75.12,30.00,4.00,0.00,30.06,M,10.00,M,BKN,M,M,M,4100.00,M,M,M,M,KBVN 010135Z AUTO 03004KT 10SM BKN041 07/03 A3006 RMK AO2 T00720031
BVN,2017-04-01 01:55,-98.0558,41.7286,44.80,37.20,74.51,20.00,3.00,0.00,30.06,M,10.00,M,SCT,M,M,M,4100.00,M,M,M,M,KBVN 010155Z AUTO 02003KT 10SM SCT041 07/03 A3006 RMK AO2 T00710029
BVN,2017-04-01 02:20,-98.0558,41.7286,44.60,37.40,75.68,0.00,0.00,0.00,30.07,M,10.00,M,CLR,M,M,M,M,M,M,M,M,KBVN 010220Z AUTO 00000KT 10SM CLR 07/03 A3007 RMK AO2 T00700030
BVN,2017-04-01 02:35,-98.0558,41.7286,43.90,37.60,78.34,0.00,0.00,0.00,30.08,M,10.00,M,CLR,M,M,M,M,M,M,M,M,KBVN 010235Z AUTO 00000KT 10SM CLR 07/03 A3008 RMK AO2 T00660031
BVN,2017-04-01 02:55,-98.0558,41.7286,42.40,36.90,80.72,330.00,4.00,0.00,30.09,M,10.00,M,SCT,M,M,M,12000.00,M,M,M,M,KBVN 010255Z AUTO 33004KT 10SM SCT120 06/03 A3009 RMK AO2 T00580027
BVN,2017-04-01 03:15,-98.0558,41.7286,42.60,36.50,78.85,330.00,3.00,0.00,30.09,M,10.00,M,SCT,M,M,M,12000.00,M,M,M,M,KBVN 010315Z AUTO 33003KT 10SM SCT120 06/03 A3009 RMK AO2 T00590025
BVN,2017-04-01 03:35,-98.0558,41.7286,41.20,36.30,82.56,0.00,0.00,0.00,30.10,M,10.00,M,CLR,M,M,M,M,M,M,M,M,KBVN 010335Z AUTO 00000KT 10SM CLR 05/02 A3010 RMK AO2 T00510024
BVN,2017-04-01 03:55,-98.0558,41.7286,40.60,36.50,85.17,350.00,4.00,0.00,30.11,M,10.00,M,CLR,M,M,M,M,M,M,M,M,KBVN 010355Z AUTO 35004KT 10SM CLR 05/03 A3011 RMK AO2 T00480025
BVN,2017-04-01 04:15,-98.0558,41.7286,41.40,36.50,82.58,360.00,3.00,0.00,30.11,M,10.00,M,CLR,M,M,M,M,M,M,M,M,KBVN 010415Z AUTO 36003KT 10SM CLR 05/03 A3011 RMK AO2 T00520025
BVN,2017-04-01 04:35,-98.0558,41.7286,41.20,37.40,86.22,320.00,4.00,0.00,30.12,M,10.00,M,SCT,M,M,M,12000.00,M,M,M,M,KBVN 010435Z AUTO 32004KT 10SM SCT120 05/03 A3012 RMK AO2 T00510030
BVN,2017-04-01 04:55,-98.0558,41.7286,41.70,37.60,85.24,350.00,5.00,0.00,30.13,M,10.00,M,BKN,OVC,M,M,10000.00,12000.00,M,M,M,KBVN 010455Z AUTO 35005KT 10SM BKN100 OVC120 05/03 A3013 RMK AO2 T00540031
BVN,2017-04-01 05:15,-98.0558,41.7286,44.60,37.60,76.27,350.00,4.00,0.00,30.13,M,10.00,M,OVC,M,M,M,9000.00,M,M,M,M,KBVN 010515Z AUTO 35004KT 10SM OVC090 07/03 A3013 RMK AO2 T00700031
BVN,2017-04-01 05:35,-98.0558,41.7286,44.10,36.90,75.63,20.00,5.00,0.00,30.13,M,10.00,M,SCT,BKN,M,M,9000.00,11000.00,M,M,M,KBVN 010535Z AUTO 02005KT 10SM SCT090 BKN110 07/03 A3013 RMK AO2 T00670027
BVN,2017-04-01 05:55,-98.0558,41.7286,44.10,36.00,72.99,40.00,7.00,0.00,30.13,M,10.00,M,CLR,M,M,M,M,M,M,M,M,KBVN 010555Z AUTO 04007KT 10SM CLR 07/02 A3013 RMK AO2 T00670022 10106 20044 401130044
BVN,2017-04-01 06:15,-98.0558,41.7286,43.50,35.60,73.51,50.00,5.00,0.00,30.15,M,10.00,M,CLR,M,M,M,M,M,M,M,M,KBVN 010615Z AUTO 05005KT 10SM CLR 06/02 A3015 RMK AO2 T00640020
BVN,2017-04-01 06:35,-98.0558,41.7286,42.80,35.80,76.11,50.00,6.00,0.00,30.15,M,10.00,M,BKN,M,M,M,12000.00,M,M,M,M,KBVN 010635Z AUTO 05006KT 10SM BKN120 06/02 A3015 RMK AO2 LTG DSNT SW T00600021
BVN,2017-04-01 06:55,-98.0558,41.7286,42.40,36.10,78.21,60.00,8.00,0.00,30.15,M,10.00,M,BKN,M,M,M,12000.00,M,M,M,M,KBVN 010655Z AUTO 06008KT 10SM BKN120 06/02 A3015 RMK AO2 T00580023
BVN,2017-04-01 07:15,-98.0558,41.7286,41.90,36.50,81.00,50.00,7.00,0.00,30.16,M,10.00,M,SCT,M,M,M,12000.00,M,M,M,M,KBVN 010715Z AUTO 05007KT 10SM SCT120 06/03 A3016 RMK AO2 T00550025
BVN,2017-04-01 07:35,-98.0558,41.7286,41.90,36.90,82.29,40.00,8.00,0.00,30.16,M,10.00,M,BKN,M,M,M,12000.00,M,M,M,M,KBVN 010735Z AUTO 04008KT 10SM BKN120 06/03 A3016 RMK AO2 T00550027
BVN,2017-04-01 07:55,-98.0558,41.7286,41.90,37.40,83.92,60.00,7.00,0.00,30.15,M,10.00,M,BKN,M,M,M,12000.00,M,M,M,M,KBVN 010755Z AUTO 06007KT 10SM BKN120 06/03 A3015 RMK AO2 T00550030
BVN,2017-04-01 08:15,-98.0558,41.7286,41.00,36.90,85.20,40.00,7.00,0.00,30.16,M,10.00,M,SCT,M,M,M,12000.00,M,M,M,M,KBVN 010815Z AUTO 04007KT 10SM SCT120 05/03 A3016 RMK AO2 T00500027
BVN,2017-04-01 08:35,-98.0558,41.7286,41.00,37.00,85.54,30.00,7.00,0.00,30.15,M,10.00,M,SCT,M,M,M,12000.00,M,M,M,M,KBVN 010835Z AUTO 03007KT 10SM SCT120 05/03 A3015 RMK AO2 LTG DSNT S T00500028
BVN,2017-04-01 08:55,-98.0558,41.7286,40.10,36.70,87.53,40.00,7.00,0.00,30.15,M,10.00,M,CLR,M,M,M,M,M,M,M,M,KBVN 010855Z AUTO 04007KT 10SM CLR 05/03 A3015 RMK AO2 T00450026
BVN,2017-04-01 09:15,-98.0558,41.7286,39.60,36.50,88.55,50.00,6.00,0.00,30.15,M,10.00,M,CLR,M,M,M,M,M,M,M,M,KBVN 010915Z AUTO 05006KT 10SM CLR 04/03 A3015 RMK AO2 T00420025
BVN,2017-04-01 09:35,-98.0558,41.7286,39.20,36.30,89.23,30.00,5.00,0.00,30.15,M,10.00,M,CLR,M,M,M,M,M,M,M,M,KBVN 010935Z AUTO 03005KT 10SM CLR 04/02 A3015 RMK AO2 T00400024
BVN,2017-04-01 09:55,-98.0558,41.7286,38.80,36.10,89.93,50.00,6.00,0.00,30.16,M,7.00,M,CLR,M,M,M,M,M,M,M,M,KBVN 010955Z AUTO 05006KT 7SM CLR 04/02 A3016 RMK AO2 T00380023
BVN,2017-04-01 10:15,-98.0558,41.7286,38.50,35.80,89.91,0.00,0.00,0.00,30.18,M,7.00,M,CLR,M,M,M,M,M,M,M,M,KBVN 011015Z AUTO 00000KT 7SM CLR 04/02 A3018 RMK AO2 T00360021
BVN,2017-04-01 10:35,-98.0558,41.7286,37.60,35.40,91.68,50.00,4.00,0.00,30.18,M,7.00,M,SCT,M,M,M,11000.00,M,M,M,M,KBVN 011035Z AUTO 05004KT 7SM SCT110 03/02 A3018 RMK AO2 T00310019
BVN,2017-04-01 10:55,-98.0558,41.7286,38.50,36.00,90.63,40.00,5.00,0.00,30.19,M,7.00,M,CLR,M,M,M,M,M,M,M,M,KBVN 011055Z AUTO 04005KT 7SM CLR 04/02 A3019 RMK AO2 LTG DSNT S T00360022
BVN,2017-04-01 11:15,-98.0558,41.7286,39.20,36.30,89.23,50.00,5.00,0.00,30.19,M,7.00,M,SCT,BKN,M,M,1500.00,11000.00,M,M,M,KBVN 011115Z AUTO 05005KT 7SM SCT015 BKN110 04/02 A3019 RMK AO2 T00400024
BVN,2017-04-01 11:35,-98.0558,41.7286,39.20,36.50,89.94,0.00,0.00,0.00,30.19,M,7.00,M,SCT,BKN,OVC,M,1100.00,1500.00,12000.00,M,M,KBVN 011135Z AUTO 00000KT 7SM SCT011 BKN015 OVC120 04/03 A3019 RMK AO2 T00400025
BVN,2017-04-01 11:55,-98.0558,41.7286,38.70,36.10,90.28,0.00,0.00,0.00,30.19,M,7.00,M,BKN,OVC,M,M,1100.00,1500.00,M,M,M,KBVN 011155Z AUTO 00000KT 7SM BKN011 OVC015 04/02 A3019 RMK AO2 T00370023 10066 20031
BVN,2017-04-01 12:15,-98.0558,41.7286,38.80,36.10,89.93,0.00,0.00,0.00,30.19,M,7.00,M,OVC,M,M,M,900.00,M,M,M,M,KBVN 011215Z AUTO 00000KT 7SM OVC009 04/02 A3019 RMK AO2 T00380023
BVN,2017-04-01 12:35,-98.0558,41.7286,38.80,36.10,89.93,80.00,3.00,0.00,30.20,M,5.00,M,OVC,M,M,M,900.00,M,M,M,BR,KBVN 011235Z AUTO 08003KT 5SM BR OVC009 04/02 A3020 RMK AO2 T00380023
BVN,2017-04-01 12:55,-98.0558,41.7286,39.20,36.30,89.23,60.00,4.00,0.00,30.20,M,5.00,M,OVC,M,M,M,900.00,M,M,M,BR,KBVN 011255Z AUTO 06004KT 5SM BR OVC009 04/02 A3020 RMK AO2 LTG DSNT S T00400024
BVN,2017-04-01 13:15,-98.0558,41.7286,39.40,36.50,89.24,50.00,4.00,0.00,30.20,M,5.00,M,OVC,M,M,M,700.00,M,M,M,BR,KBVN 011315Z AUTO 05004KT 5SM BR OVC007 04/03 A3020 RMK AO2 T00410025
BVN,2017-04-01 13:35,-98.0558,41.7286,39.70,36.50,88.21,50.00,5.00,0.00,30.19,M,7.00,M,OVC,M,M,M,700.00,M,M,M,M,KBVN 011335Z AUTO 05005KT 7SM OVC007 04/03 A3019 RMK AO2 T00430025
BVN,2017-04-01 13:55,-98.0558,41.7286,40.30,37.00,87.89,40.00,7.00,0.00,30.18,M,5.00,M,OVC,M,M,M,500.00,M,M,M,BR,KBVN 011355Z AUTO 04007KT 5SM BR OVC005 05/03 A3018 RMK AO2 T00460028
BVN,2017-04-01 14:15,-98.0558,41.7286,40.50,37.40,88.59,70.00,5.00,0.00,30.19,M,5.00,M,OVC,M,M,M,500.00,M,M,M,BR,KBVN 011415Z AUTO 07005KT 5SM BR OVC005 05/03 A3019 RMK AO2 T00470030
BVN,2017-04-01 14:35,-98.0558,41.7286,40.60,37.40,88.25,60.00,6.00,0.00,30.20,M,5.00,M,OVC,M,M,M,500.00,M,M,M,BR,KBVN 011435Z AUTO 06006KT 5SM BR OVC005 05/03 A3020 RMK AO2 T00480030
BVN,2017-04-01 14:55,-98.0558,41.7286,41.00,37.40,86.89,90.00,3.00,0.00,30.22,M,5.00,M,OVC,M,M,M,500.00,M,M,M,BR,KBVN 011455Z AUTO 09003KT 5SM BR OVC005 05/03 A3022 RMK AO2 T00500030
BVN,2017-04-01 15:15,-98.0558,41.7286,41.40,37.80,86.92,0.00,0.00,0.00,30.23,M,5.00,M,OVC,M,M,M,500.00,M,M,M,BR,KBVN 011515Z AUTO 00000KT 5SM BR OVC005 05/03 A3023 RMK AO2 T00520032
BVN,2017-04-01 15:35,-98.0558,41.7286,41.90,37.90,85.59,110.00,4.00,0.00,30.23,M,5.00,M,OVC,M,M,M,500.00,M,M,M,BR,KBVN 011535Z AUTO 11004KT 5SM BR OVC005 06/03 A3023 RMK AO2 T00550033
BVN,2017-04-01 15:55,-98.0558,41.7286,42.10,38.30,86.28,140.00,5.00,0.00,30.23,M,4.00,M,OVC,M,M,M,500.00,M,M,M,BR,KBVN 011555Z AUTO 14005KT 4SM BR OVC005 06/04 A3023 RMK AO2 T00560035
BVN,2017-04-01 16:15,-98.0558,41.7286,42.40,38.70,86.63,120.00,5.00,0.00,30.22,M,4.00,M,OVC,M,M,M,500.00,M,M,M,BR,KBVN 011615Z AUTO 12005KT 4SM BR OVC005 06/04 A3022 RMK AO2 T00580037
BVN,2017-04-01 16:35,-98.0558,41.7286,43.30,38.80,84.02,80.00,3.00,0.00,30.22,M,5.00,M,OVC,M,M,M,700.00,M,M,M,BR,KBVN 011635Z AUTO 08003KT 5SM BR OVC007 06/04 A3022 RMK AO2 T00630038
BVN,2017-04-01 16:55,-98.0558,41.7286,43.00,38.70,84.66,90.00,4.00,0.00,30.22,M,4.00,M,OVC,M,M,M,700.00,M,M,M,BR,KBVN 011655Z AUTO 09004KT 4SM BR OVC007 06/04 A3022 RMK AO2 T00610037
BVN,2017-04-01 17:15,-98.0558,41.7286,43.30,38.80,84.02,80.00,4.00,0.00,30.20,M,5.00,M,OVC,M,M,M,700.00,M,M,M,BR,KBVN 011715Z AUTO 08004KT 5SM BR OVC007 06/04 A3020 RMK AO2 T00630038
BVN,2017-04-01 17:35,-98.0558,41.7286,43.90,38.80,82.11,90.00,4.00,0.00,30.19,M,5.00,M,OVC,M,M,M,700.00,M,M,M,HZ,KBVN 011735Z AUTO 09004KT 5SM HZ OVC007 07/04 A3019 RMK AO2 T00660038
BVN,2017-04-01 17:55,-98.0558,41.7286,45.50,38.80,77.26,90.00,5.00,0.00,30.18,M,7.00,M,BKN,OVC,M,M,700.00,1400.00,M,M,M,KBVN 011755Z AUTO 09005KT 7SM BKN007 OVC014 08/04 A3018 RMK AO2 T00750038 10075 20038
BVN,2017-04-01 18:15,-98.0558,41.7286,45.10,38.50,77.52,120.00,5.00,0.00,30.18,M,7.00,M,OVC,M,M,M,1400.00,M,M,M,M,KBVN 011815Z AUTO 12005KT 7SM OVC014 07/04 A3018 RMK AO2 T00730036
BVN,2017-04-01 18:35,-98.0558,41.7286,45.70,38.50,75.78,100.00,5.00,0.00,30.18,M,7.00,M,OVC,M,M,M,1400.00,M,M,M,M,KBVN 011835Z AUTO 10005KT 7SM OVC014 08/04 A3018 RMK AO2 T00760036
BVN,2017-04-01 18:55,-98.0558,41.7286,45.90,37.90,73.46,30.00,3.00,0.00,30.19,M,10.00,M,OVC,M,M,M,1400.00,M,M,M,M,KBVN 011855Z AUTO 03003KT 10SM OVC014 08/03 A3019 RMK AO2 T00770033
BVN,2017-04-01 19:15,-98.0558,41.7286,45.90,37.90,73.46,0.00,0.00,0.00,30.18,M,10.00,M,OVC,M,M,M,1600.00,M,M,M,M,KBVN 011915Z AUTO 00000KT 10SM OVC016 08/03 A3018 RMK AO2 T00770033
BVN,2017-04-01 19:35,-98.0558,41.7286,46.60,37.80,71.26,0.00,0.00,0.00,30.18,M,10.00,M,OVC,M,M,M,1800.00,M,M,M,M,KBVN 011935Z AUTO 00000KT 10SM OVC018 08/03 A3018 RMK AO2 T00810032
BVN,2017-04-01 19:55,-98.0558,41.7286,46.90,37.80,70.46,130.00,3.00,0.00,30.18,M,10.00,M,OVC,M,M,M,2200.00,M,M,M,M,KBVN 011955Z AUTO 13003KT 10SM OVC022 08/03 A3018 RMK AO2 LTG DSNT S T00830032
BVN,2017-04-01 20:15,-98.0558,41.7286,47.30,37.40,68.32,190.00,4.00,0.00,30.18,M,10.00,M,OVC,M,M,M,2200.00,M,M,M,M,KBVN 012015Z AUTO 19004KT 10SM OVC022 09/03 A3018 RMK AO2 T00850030
BVN,2017-04-01 20:35,-98.0558,41.7286,47.70,37.40,67.30,140.00,4.00,0.00,30.17,M,10.00,M,OVC,M,M,M,2400.00,M,M,M,M,KBVN 012035Z AUTO 14004KT 10SM OVC024 09/03 A3017 RMK AO2 T00870030
BVN,2017-04-01 20:55,-98.0558,41.7286,48.20,37.60,66.57,150.00,7.00,0.00,30.17,M,10.00,M,OVC,M,M,M,2600.00,M,M,M,M,KBVN 012055Z AUTO 15007KT 10SM OVC026 09/03 A3017 RMK AO2 T00900031
BVN,2017-04-01 21:15,-98.0558,41.7286,47.30,37.80,69.40,170.00,6.00,0.00,30.17,M,10.00,M,OVC,M,M,M,2800.00,M,M,M,M,KBVN 012115Z AUTO 17006KT 10SM OVC028 09/03 A3017 RMK AO2 T00850032
BVN,2017-04-01 21:35,-98.0558,41.7286,47.70,37.80,68.37,180.00,5.00,0.00,30.16,M,10.00,M,BKN,OVC,M,M,2600.00,11000.00,M,M,M,KBVN 012135Z AUTO 18005KT 10SM BKN026 OVC110 09/03 A3016 RMK AO2 T00870032
BVN,2017-04-01 21:55,-98.0558,41.7286,47.10,36.90,67.49,0.00,0.00,0.00,30.13,M,10.00,M,SCT,OVC,M,M,2400.00,10000.00,M,M,M,KBVN 012155Z AUTO 00000KT 10SM SCT024 OVC100 08/03 A3013 RMK AO2 T00840027
BVN,2017-04-01 22:15,-98.0558,41.7286,47.30,37.40,68.32,0.00,0.00,0.00,30.13,M,10.00,M,OVC,M,M,M,10000.00,M,M,M,M,KBVN 012215Z AUTO 00000KT 10SM OVC100 09/03 A3013 RMK AO2 T00850030
BVN,2017-04-01 22:35,-98.0558,41.7286,47.30,37.40,68.32,0.00,0.00,0.00,30.13,M,10.00,M,OVC,M,M,M,9000.00,M,M,M,M,KBVN 012235Z AUTO 00000KT 10SM OVC090 09/03 A3013 RMK AO2 LTG DSNT S T00850030
BVN,2017-04-01 22:55,-98.0558,41.7286,47.30,38.30,70.78,0.00,0.00,0.00,30.12,M,10.00,M,OVC,M,M,M,9000.00,M,M,M,M,KBVN 012255Z AUTO 00000KT 10SM OVC090 09/04 A3012 RMK AO2 T00850035
BVN,2017-04-01 23:15,-98.0558,41.7286,47.30,37.20,67.78,0.00,0.00,0.00,30.13,M,10.00,M,OVC,M,M,M,8000.00,M,M,M,M,KBVN 012315Z AUTO 00000KT 10SM OVC080 09/03 A3013 RMK AO2 T00850029
BVN,2017-04-01 23:35,-98.0558,41.7286,46.90,38.30,71.85,0.00,0.00,0.00,30.13,M,10.00,M,SCT,OVC,M,M,2400.00,7000.00,M,M,-DZ,KBVN 012335Z AUTO 00000KT 10SM -DZ SCT024 OVC070 08/04 A3013 RMK AO2 T00830035
BVN,2017-04-01 23:55,-98.0558,41.7286,46.80,38.70,73.26,0.00,0.00,0.00,30.11,M,10.00,M,OVC,M,M,M,7000.00,M,M,M,M,KBVN 012355Z AUTO 00000KT 10SM OVC070 08/04 A3011 RMK AO2 T00820037 10090 20073
