#DEBUG: Format Typ    -> comma
#DEBUG: Time Period   -> 2017-04-01 00:00:00+00:00 2017-04-02 00:00:00+00:00
#DEBUG: Time Zone     -> Etc/UTC
#DEBUG: Data Contact   -> daryl herzmann akrherz@iastate.edu 515-294-5978
#DEBUG: Entries Found -> -1
station,valid,lon,lat,tmpf, dwpf, relh, drct, sknt, p01i, alti, mslp, vsby, gust, skyc1, skyc2, skyc3, skyc4, skyl1, skyl2, skyl3, skyl4, presentwx, metar
BVO,2017-04-01 00:00,-96.0112,36.7625,55.00,44.10,66.61,50.00,8.00,0.00,29.93,M,10.00,M,SCT,M,M,M,2600.00,M,M,M,M,KBVO 010000Z AUTO 05008KT 10SM SCT026 13/07 A2993 RMK AO2 T01280067 TSNO
BVO,2017-04-01 00:05,-96.0112,36.7625,M,M,M,60.00,10.00,M,29.93,M,10.00,M,FEW,M,M,M,2600.00,M,M,M,M,KBVO 010005Z AUTO 06010KT 10SM FEW026 A2993 RMK MADISHF
BVO,2017-04-01 00:10,-96.0112,36.7625,M,M,M,60.00,10.00,M,29.93,M,10.00,M,FEW,M,M,M,2600.00,M,M,M,M,KBVO 010010Z AUTO 06010KT 10SM FEW026 A2993 RMK MADISHF
BVO,2017-04-01 00:15,-96.0112,36.7625,M,M,M,60.00,8.00,M,29.93,M,10.00,M,FEW,M,M,M,2600.00,M,M,M,M,KBVO 010015Z AUTO 06008KT 10SM FEW026 A2993 RMK MADISHF
BVO,2017-04-01 00:20,-96.0112,36.7625,M,M,M,60.00,9.00,M,29.93,M,10.00,M,CLR,M,M,M,M,M,M,M,M,KBVO 010020Z AUTO 06009KT 10SM CLR A2993 RMK MADISHF
BVO,2017-04-01 00:25,-96.0112,36.7625,M,M,M,60.00,8.00,M,29.93,M,10.00,M,CLR,M,M,M,M,M,M,M,M,KBVO 010025Z AUTO 06008KT 10SM CLR A2993 RMK MADISHF
BVO,2017-04-01 00:30,-96.0112,36.7625,M,M,M,50.00,7.00,M,29.93,M,10.00,M,CLR,M,M,M,M,M,M,M,M,KBVO 010030Z AUTO 05007KT 10SM CLR A2993 RMK MADISHF
BVO,2017-04-01 00:35,-96.0112,36.7625,M,M,M,50.00,6.00,M,29.93,M,10.00,M,CLR,M,M,M,M,M,M,M,M,KBVO 010035Z AUTO 05006KT 10SM CLR A2993 RMK MADISHF
BVO,2017-04-01 00:40,-96.0112,36.7625,M,M,M,50.00,7.00,M,29.94,M,10.00,M,CLR,M,M,M,M,M,M,M,M,KBVO 010040Z AUTO 05007KT 10SM CLR A2994 RMK MADISHF
BVO,2017-04-01 00:50,-96.0112,36.7625,M,M,M,50.00,7.00,M,29.94,M,10.00,M,CLR,M,M,M,M,M,M,M,M,KBVO 010050Z AUTO 05007KT 10SM CLR A2994 RMK MADISHF
BVO,2017-04-01 00:53,-96.0112,36.7625,53.10,44.10,71.40,50.00,5.00,0.00,29.94,1013.50,10.00,M,CLR,M,M,M,M,M,M,M,M,KBVO 010053Z AUTO 05005KT 10SM CLR 12/07 A2994 RMK AO2 SLP135 T01170067 TSNO
BVO,2017-04-01 00:55,-96.0112,36.7625,M,M,M,50.00,6.00,M,29.94,M,10.00,M,CLR,M,M,M,M,M,M,M,M,KBVO 010055Z AUTO 05006KT 10SM CLR A2994 RMK MADISHF
BVO,2017-04-01 01:00,-96.0112,36.7625,M,M,M,50.00,5.00,M,29.94,M,10.00,M,CLR,M,M,M,M,M,M,M,M,KBVO 010100Z AUTO 05005KT 10SM CLR A2994 RMK MADISHF
BVO,2017-04-01 01:05,-96.0112,36.7625,M,M,M,50.00,5.00,M,29.94,M,10.00,M,CLR,M,M,M,M,M,M,M,M,KBVO 010105Z AUTO 05005KT 10SM CLR A2994 RMK MADISHF
BVO,2017-04-01 01:10,-96.0112,36.7625,M,M,M,40.00,5.00,M,29.94,M,10.00,M,CLR,M,M,M,M,M,M,M,M,KBVO 010110Z AUTO 04005KT 10SM CLR A2994 RMK MADISHF
BVO,2017-04-01 01:15,-96.0112,36.7625,M,M,M,30.00,5.00,M,29.95,M,10.00,M,CLR,M,M,M,M,M,M,M,M,KBVO 010115Z AUTO 03005KT 10SM CLR A2995 RMK MADISHF
BVO,2017-04-01 01:20,-96.0112,36.7625,M,M,M,30.00,5.00,M,29.95,M,10.00,M,CLR,M,M,M,M,M,M,M,M,KBVO 010120Z AUTO 03005KT 10SM CLR A2995 RMK MADISHF
BVO,2017-04-01 01:25,-96.0112,36.7625,M,M,M,30.00,5.00,M,29.95,M,10.00,M,CLR,M,M,M,M,M,M,M,M,KBVO 010125Z AUTO 03005KT 10SM CLR A2995 RMK MADISHF
BVO,2017-04-01 01:45,-96.0112,36.7625,M,M,M,30.00,6.00,M,29.95,M,10.00,M,CLR,M,M,M,M,M,M,M,M,KBVO 010145Z AUTO 03006KT 10SM CLR A2995 RMK MADISHF
BVO,2017-04-01 01:50,-96.0112,36.7625,M,M,M,30.00,5.00,M,29.96,M,10.00,M,CLR,M,M,M,M,M,M,M,M,KBVO 010150Z AUTO 03005KT 10SM CLR A2996 RMK MADISHF
BVO,2017-04-01 01:53,-96.0112,36.7625,50.00,43.00,76.76,30.00,6.00,0.00,29.96,1014.10,9.00,M,CLR,M,M,M,M,M,M,M,M,KBVO 010153Z AUTO 03006KT 9SM CLR 10/06 A2996 RMK AO2 SLP141 T01000061 TSNO
BVO,2017-04-01 01:55,-96.0112,36.7625,M,M,M,20.00,6.00,M,29.96,M,10.00,M,CLR,M,M,M,M,M,M,M,M,KBVO 010155Z AUTO 02006KT 10SM CLR A2996 RMK MADISHF
BVO,2017-04-01 02:00,-96.0112,36.7625,M,M,M,20.00,6.00,M,29.96,M,10.00,M,CLR,M,M,M,M,M,M,M,M,KBVO 010200Z AUTO 02006KT 10SM CLR A2996 RMK MADISHF
BVO,2017-04-01 02:05,-96.0112,36.7625,M,M,M,20.00,7.00,M,29.96,M,10.00,M,CLR,M,M,M,M,M,M,M,M,KBVO 010205Z AUTO 02007KT 10SM CLR A2996 RMK MADISHF
BVO,2017-04-01 02:10,-96.0112,36.7625,M,M,M,20.00,7.00,M,29.95,M,10.00,M,CLR,M,M,M,M,M,M,M,M,KBVO 010210Z AUTO 02007KT 10SM CLR A2995 RMK MADISHF
BVO,2017-04-01 02:25,-96.0112,36.7625,M,M,M,30.00,6.00,M,29.96,M,10.00,M,CLR,M,M,M,M,M,M,M,M,KBVO 010225Z AUTO 03006KT 10SM CLR A2996 RMK MADISHF
BVO,2017-04-01 02:30,-96.0112,36.7625,M,M,M,30.00,7.00,M,29.96,M,10.00,M,CLR,M,M,M,M,M,M,M,M,KBVO 010230Z AUTO 03007KT 10SM CLR A2996 RMK MADISHF
BVO,2017-04-01 02:35,-96.0112,36.7625,M,M,M,30.00,7.00,M,29.97,M,10.00,M,CLR,M,M,M,M,M,M,M,M,KBVO 010235Z AUTO 03007KT 10SM CLR A2997 RMK MADISHF
BVO,2017-04-01 02:40,-96.0112,36.7625,M,M,M,40.00,6.00,M,29.97,M,10.00,M,CLR,M,M,M,M,M,M,M,M,KBVO 010240Z AUTO 04006KT 10SM CLR A2997 RMK MADISHF
BVO,2017-04-01 02:45,-96.0112,36.7625,M,M,M,40.00,5.00,M,29.98,M,10.00,M,CLR,M,M,M,M,M,M,M,M,KBVO 010245Z AUTO 04005KT 10SM CLR A2998 RMK MADISHF
BVO,2017-04-01 02:50,-96.0112,36.7625,M,M,M,30.00,6.00,M,29.98,M,10.00,M,CLR,M,M,M,M,M,M,M,M,KBVO 010250Z AUTO 03006KT 10SM CLR A2998 RMK MADISHF
BVO,2017-04-01 02:53,-96.0112,36.7625,50.00,44.10,80.06,30.00,7.00,0.00,29.98,1014.90,10.00,M,CLR,M,M,M,M,M,M,M,M,KBVO 010253Z AUTO 03007KT 10SM CLR 10/07 A2998 RMK AO2 SLP149 T01000067 53017 TSNO
BVO,2017-04-01 03:00,-96.0112,36.7625,M,M,M,40.00,7.00,M,29.98,M,10.00,M,CLR,M,M,M,M,M,M,M,M,KBVO 010300Z AUTO 04007KT 10SM CLR A2998 RMK MADISHF
BVO,2017-04-01 03:05,-96.0112,36.7625,M,M,M,30.00,7.00,M,29.98,M,10.00,M,CLR,M,M,M,M,M,M,M,M,KBVO 010305Z AUTO 03007KT 10SM CLR A2998 RMK MADISHF
BVO,2017-04-01 03:10,-96.0112,36.7625,M,M,M,40.00,7.00,M,29.98,M,10.00,M,CLR,M,M,M,M,M,M,M,M,KBVO 010310Z AUTO 04007KT 10SM CLR A2998 RMK MADISHF
BVO,2017-04-01 03:15,-96.0112,36.7625,M,M,M,40.00,7.00,M,29.98,M,10.00,M,CLR,M,M,M,M,M,M,M,M,KBVO 010315Z AUTO 04007KT 10SM CLR A2998 RMK MADISHF
BVO,2017-04-01 03:20,-96.0112,36.7625,M,M,M,40.00,7.00,M,29.98,M,10.00,M,CLR,M,M,M,M,M,M,M,M,KBVO 010320Z AUTO 04007KT 10SM CLR A2998 RMK MADISHF
BVO,2017-04-01 03:25,-96.0112,36.7625,M,M,M,30.00,7.00,M,29.99,M,10.00,M,CLR,M,M,M,M,M,M,M,M,KBVO 010325Z AUTO 03007KT 10SM CLR A2999 RMK MADISHF
BVO,2017-04-01 03:30,-96.0112,36.7625,M,M,M,40.00,9.00,M,29.99,M,10.00,M,CLR,M,M,M,M,M,M,M,M,KBVO 010330Z AUTO 04009KT 10SM CLR A2999 RMK MADISHF
BVO,2017-04-01 03:53,-96.0112,36.7625,50.00,44.10,80.06,50.00,7.00,0.00,30.01,1015.70,10.00,M,CLR,M,M,M,M,M,M,M,M,KBVO 010353Z AUTO 05007KT 10SM CLR 10/07 A3001 RMK AO2 SLP157 T01000067 TSNO
BVO,2017-04-01 03:55,-96.0112,36.7625,M,M,M,50.00,7.00,M,30.01,M,10.00,M,CLR,M,M,M,M,M,M,M,M,KBVO 010355Z AUTO 05007KT 10SM CLR A3001 RMK MADISHF
BVO,2017-04-01 04:00,-96.0112,36.7625,M,M,M,50.00,8.00,M,30.01,M,10.00,M,CLR,M,M,M,M,M,M,M,M,KBVO 010400Z AUTO 05008KT 10SM CLR A3001 RMK MADISHF
BVO,2017-04-01 04:05,-96.0112,36.7625,M,M,M,50.00,7.00,M,30.01,M,10.00,M,CLR,M,M,M,M,M,M,M,M,KBVO 010405Z AUTO 05007KT 10SM CLR A3001 RMK MADISHF
BVO,2017-04-01 04:10,-96.0112,36.7625,M,M,M,40.00,5.00,M,30.02,M,10.00,M,CLR,M,M,M,M,M,M,M,M,KBVO 010410Z AUTO 04005KT 10SM CLR A3002 RMK MADISHF
BVO,2017-04-01 04:25,-96.0112,36.7625,M,M,M,30.00,7.00,M,30.02,M,10.00,M,CLR,M,M,M,M,M,M,M,M,KBVO 010425Z AUTO 03007KT 10SM CLR A3002 RMK MADISHF
BVO,2017-04-01 04:30,-96.0112,36.7625,M,M,M,40.00,8.00,M,30.02,M,10.00,M,CLR,M,M,M,M,M,M,M,M,KBVO 010430Z AUTO 04008KT 10SM CLR A3002 RMK MADISHF
BVO,2017-04-01 04:35,-96.0112,36.7625,M,M,M,30.00,7.00,M,30.02,M,10.00,M,CLR,M,M,M,M,M,M,M,M,KBVO 010435Z AUTO 03007KT 10SM CLR A3002 RMK MADISHF
BVO,2017-04-01 04:40,-96.0112,36.7625,M,M,M,20.00,7.00,M,30.03,M,10.00,M,CLR,M,M,M,M,M,M,M,M,KBVO 010440Z AUTO 02007KT 10SM CLR A3003 RMK MADISHF
BVO,2017-04-01 04:45,-96.0112,36.7625,M,M,M,30.00,7.00,M,30.03,M,10.00,M,CLR,M,M,M,M,M,M,M,M,KBVO 010445Z AUTO 03007KT 10SM CLR A3003 RMK MADISHF
BVO,2017-04-01 04:50,-96.0112,36.7625,M,M,M,20.00,8.00,M,30.03,M,10.00,M,CLR,M,M,M,M,M,M,M,M,KBVO 010450Z AUTO 02008KT 10SM CLR A3003 RMK MADISHF
BVO,2017-04-01 04:53,-96.0112,36.7625,48.00,43.00,82.72,20.00,9.00,0.00,30.03,1016.60,10.00,M,CLR,M,M,M,M,M,M,M,M,KBVO 010453Z AUTO 02009KT 10SM CLR 09/06 A3003 RMK AO2 SLP166 T00890061 TSNO
BVO,2017-04-01 04:55,-96.0112,36.7625,M,M,M,10.00,8.00,M,30.03,M,10.00,M,CLR,M,M,M,M,M,M,M,M,KBVO 010455Z AUTO 01008KT 10SM CLR A3003 RMK MADISHF
BVO,2017-04-01 05:00,-96.0112,36.7625,M,M,M,20.00,8.00,M,30.03,M,10.00,M,CLR,M,M,M,M,M,M,M,M,KBVO 010500Z AUTO 02008KT 10SM CLR A3003 RMK MADISHF
BVO,2017-04-01 05:05,-96.0112,36.7625,M,M,M,20.00,8.00,M,30.04,M,10.00,M,CLR,M,M,M,M,M,M,M,M,KBVO 010505Z AUTO 02008KT 10SM CLR A3004 RMK MADISHF
BVO,2017-04-01 05:10,-96.0112,36.7625,M,M,M,20.00,9.00,M,30.04,M,10.00,M,CLR,M,M,M,M,M,M,M,M,KBVO 010510Z AUTO 02009KT 10SM CLR A3004 RMK MADISHF
BVO,2017-04-01 05:20,-96.0112,36.7625,M,M,M,20.00,9.00,M,30.04,M,10.00,M,CLR,M,M,M,M,M,M,M,M,KBVO 010520Z AUTO 02009KT 10SM CLR A3004 RMK MADISHF
BVO,2017-04-01 05:25,-96.0112,36.7625,M,M,M,30.00,9.00,M,30.04,M,10.00,M,CLR,M,M,M,M,M,M,M,M,KBVO 010525Z AUTO 03009KT 10SM CLR A3004 RMK MADISHF
BVO,2017-04-01 05:30,-96.0112,36.7625,M,M,M,20.00,7.00,M,30.04,M,10.00,M,CLR,M,M,M,M,M,M,M,M,KBVO 010530Z AUTO 02007KT 10SM CLR A3004 RMK MADISHF
BVO,2017-04-01 05:35,-96.0112,36.7625,M,M,M,20.00,7.00,M,30.03,M,10.00,M,CLR,M,M,M,M,M,M,M,M,KBVO 010535Z AUTO 02007KT 10SM CLR A3003 RMK MADISHF
BVO,2017-04-01 05:40,-96.0112,36.7625,M,M,M,30.00,10.00,M,30.03,M,10.00,M,CLR,M,M,M,M,M,M,M,M,KBVO 010540Z AUTO 03010KT 10SM CLR A3003 RMK MADISHF
BVO,2017-04-01 05:50,-96.0112,36.7625,M,M,M,20.00,8.00,M,30.03,M,10.00,M,CLR,M,M,M,M,M,M,M,M,KBVO 010550Z AUTO 02008KT 10SM CLR A3003 RMK MADISHF
BVO,2017-04-01 05:53,-96.0112,36.7625,46.90,42.10,83.28,30.00,9.00,0.00,30.03,1016.70,10.00,M,CLR,M,M,M,M,M,M,M,M,KBVO 010553Z AUTO 03009KT 10SM CLR 08/06 A3003 RMK AO2 SLP167 T00830056 10128 20083 401440067 51019 TSNO
BVO,2017-04-01 05:55,-96.0112,36.7625,M,M,M,20.00,9.00,M,30.03,M,10.00,M,CLR,M,M,M,M,M,M,M,M,KBVO 010555Z AUTO 02009KT 10SM CLR A3003 RMK MADISHF
BVO,2017-04-01 06:00,-96.0112,36.7625,M,M,M,20.00,9.00,M,30.03,M,10.00,M,CLR,M,M,M,M,M,M,M,M,KBVO 010600Z AUTO 02009KT 10SM CLR A3003 RMK MADISHF
BVO,2017-04-01 06:10,-96.0112,36.7625,M,M,M,20.00,8.00,M,30.03,M,10.00,M,CLR,M,M,M,M,M,M,M,M,KBVO 010610Z AUTO 02008KT 10SM CLR A3003 RMK MADISHF
BVO,2017-04-01 06:15,-96.0112,36.7625,M,M,M,20.00,7.00,M,30.03,M,10.00,M,CLR,M,M,M,M,M,M,M,M,KBVO 010615Z AUTO 02007KT 10SM CLR A3003 RMK MADISHF
BVO,2017-04-01 06:20,-96.0112,36.7625,M,M,M,30.00,8.00,M,30.03,M,10.00,M,CLR,M,M,M,M,M,M,M,M,KBVO 010620Z AUTO 03008KT 10SM CLR A3003 RMK MADISHF
BVO,2017-04-01 06:25,-96.0112,36.7625,M,M,M,30.00,7.00,M,30.03,M,10.00,M,CLR,M,M,M,M,M,M,M,M,KBVO 010625Z AUTO 03007KT 10SM CLR A3003 RMK MADISHF
BVO,2017-04-01 06:30,-96.0112,36.7625,M,M,M,20.00,8.00,M,30.03,M,10.00,M,CLR,M,M,M,M,M,M,M,M,KBVO 010630Z AUTO 02008KT 10SM CLR A3003 RMK MADISHF
BVO,2017-04-01 06:35,-96.0112,36.7625,M,M,M,30.00,7.00,M,30.03,M,10.00,M,CLR,M,M,M,M,M,M,M,M,KBVO 010635Z AUTO 03007KT 10SM CLR A3003 RMK MADISHF
BVO,2017-04-01 06:40,-96.0112,36.7625,M,M,M,30.00,7.00,M,30.03,M,10.00,M,CLR,M,M,M,M,M,M,M,M,KBVO 010640Z AUTO 03007KT 10SM CLR A3003 RMK MADISHF
BVO,2017-04-01 06:53,-96.0112,36.7625,46.00,41.00,82.58,30.00,7.00,0.00,30.03,1016.40,10.00,M,CLR,M,M,M,M,M,M,M,M,KBVO 010653Z AUTO 03007KT 10SM CLR 08/05 A3003 RMK AO2 SLP164 T00780050 TSNO
BVO,2017-04-01 06:55,-96.0112,36.7625,M,M,M,30.00,5.00,M,30.03,M,10.00,M,CLR,M,M,M,M,M,M,M,M,KBVO 010655Z AUTO 03005KT 10SM CLR A3003 RMK MADISHF
BVO,2017-04-01 07:00,-96.0112,36.7625,M,M,M,40.00,6.00,M,30.02,M,10.00,M,CLR,M,M,M,M,M,M,M,M,KBVO 010700Z AUTO 04006KT 10SM CLR A3002 RMK MADISHF
BVO,2017-04-01 07:05,-96.0112,36.7625,M,M,M,50.00,8.00,M,30.02,M,10.00,M,CLR,M,M,M,M,M,M,M,M,KBVO 010705Z AUTO 05008KT 10SM CLR A3002 RMK MADISHF
BVO,2017-04-01 07:10,-96.0112,36.7625,M,M,M,50.00,8.00,M,30.02,M,10.00,M,CLR,M,M,M,M,M,M,M,M,KBVO 010710Z AUTO 05008KT 10SM CLR A3002 RMK MADISHF
BVO,2017-04-01 07:15,-96.0112,36.7625,M,M,M,50.00,6.00,M,30.02,M,10.00,M,CLR,M,M,M,M,M,M,M,M,KBVO 010715Z AUTO 05006KT 10SM CLR A3002 RMK MADISHF
BVO,2017-04-01 07:25,-96.0112,36.7625,M,M,M,50.00,8.00,M,30.02,M,10.00,M,CLR,M,M,M,M,M,M,M,M,KBVO 010725Z AUTO 05008KT 10SM CLR A3002 RMK MADISHF
BVO,2017-04-01 07:30,-96.0112,36.7625,M,M,M,40.00,7.00,M,30.02,M,10.00,M,CLR,M,M,M,M,M,M,M,M,KBVO 010730Z AUTO 04007KT 10SM CLR A3002 RMK MADISHF
BVO,2017-04-01 07:40,-96.0112,36.7625,M,M,M,50.00,8.00,M,30.02,M,10.00,M,CLR,M,M,M,M,M,M,M,M,KBVO 010740Z AUTO 05008KT 10SM CLR A3002 RMK MADISHF
BVO,2017-04-01 07:45,-96.0112,36.7625,M,M,M,50.00,9.00,M,30.02,M,10.00,M,CLR,M,M,M,M,M,M,M,M,KBVO 010745Z AUTO 05009KT 10SM CLR A3002 RMK MADISHF
BVO,2017-04-01 07:50,-96.0112,36.7625,M,M,M,50.00,7.00,M,30.02,M,10.00,M,CLR,M,M,M,M,M,M,M,M,KBVO 010750Z AUTO 05007KT 10SM CLR A3002 RMK MADISHF
BVO,2017-04-01 07:53,-96.0112,36.7625,46.00,41.00,82.58,50.00,8.00,0.00,30.02,1016.10,10.00,M,CLR,M,M,M,M,M,M,M,M,KBVO 010753Z AUTO 05008KT 10SM CLR 08/05 A3002 RMK AO2 SLP161 T00780050 TSNO
BVO,2017-04-01 08:00,-96.0112,36.7625,M,M,M,40.00,7.00,M,30.02,M,10.00,M,CLR,M,M,M,M,M,M,M,M,KBVO 010800Z AUTO 04007KT 10SM CLR A3002 RMK MADISHF
BVO,2017-04-01 08:05,-96.0112,36.7625,M,M,M,50.00,7.00,M,30.02,M,10.00,M,CLR,M,M,M,M,M,M,M,M,KBVO 010805Z AUTO 05007KT 10SM CLR A3002 RMK MADISHF
BVO,2017-04-01 08:10,-96.0112,36.7625,M,M,M,40.00,8.00,M,30.02,M,10.00,M,CLR,M,M,M,M,M,M,M,M,KBVO 010810Z AUTO 04008KT 10SM CLR A3002 RMK MADISHF
BVO,2017-04-01 08:15,-96.0112,36.7625,M,M,M,40.00,9.00,M,30.02,M,10.00,M,CLR,M,M,M,M,M,M,M,M,KBVO 010815Z AUTO 04009KT 10SM CLR A3002 RMK MADISHF
BVO,2017-04-01 08:20,-96.0112,36.7625,M,M,M,50.00,7.00,M,30.02,M,10.00,M,CLR,M,M,M,M,M,M,M,M,KBVO 010820Z AUTO 05007KT 10SM CLR A3002 RMK MADISHF
BVO,2017-04-01 08:25,-96.0112,36.7625,M,M,M,40.00,8.00,M,30.02,M,10.00,M,CLR,M,M,M,M,M,M,M,M,KBVO 010825Z AUTO 04008KT 10SM CLR A3002 RMK MADISHF
BVO,2017-04-01 08:30,-96.0112,36.7625,M,M,M,40.00,7.00,M,30.03,M,10.00,M,CLR,M,M,M,M,M,M,M,M,KBVO 010830Z AUTO 04007KT 10SM CLR A3003 RMK MADISHF
BVO,2017-04-01 08:35,-96.0112,36.7625,M,M,M,40.00,6.00,M,30.03,M,10.00,M,CLR,M,M,M,M,M,M,M,M,KBVO 010835Z AUTO 04006KT 10SM CLR A3003 RMK MADISHF
BVO,2017-04-01 08:45,-96.0112,36.7625,M,M,M,30.00,7.00,M,30.03,M,10.00,M,CLR,M,M,M,M,M,M,M,M,KBVO 010845Z AUTO 03007KT 10SM CLR A3003 RMK MADISHF
BVO,2017-04-01 08:50,-96.0112,36.7625,M,M,M,30.00,8.00,M,30.03,M,10.00,M,CLR,M,M,M,M,M,M,M,M,KBVO 010850Z AUTO 03008KT 10SM CLR A3003 RMK MADISHF
BVO,2017-04-01 08:53,-96.0112,36.7625,46.00,41.00,82.58,30.00,6.00,0.00,30.03,1016.70,10.00,M,CLR,M,M,M,M,M,M,M,M,KBVO 010853Z AUTO 03006KT 10SM CLR 08/05 A3003 RMK AO2 SLP167 T00780050 55000 TSNO
BVO,2017-04-01 08:55,-96.0112,36.7625,M,M,M,30.00,8.00,M,30.03,M,10.00,M,CLR,M,M,M,M,M,M,M,M,KBVO 010855Z AUTO 03008KT 10SM CLR A3003 RMK MADISHF
BVO,2017-04-01 09:00,-96.0112,36.7625,M,M,M,30.00,7.00,M,30.03,M,10.00,M,CLR,M,M,M,M,M,M,M,M,KBVO 010900Z AUTO 03007KT 10SM CLR A3003 RMK MADISHF
BVO,2017-04-01 09:15,-96.0112,36.7625,M,M,M,50.00,7.00,M,30.02,M,10.00,M,CLR,M,M,M,M,M,M,M,M,KBVO 010915Z AUTO 05007KT 10SM CLR A3002 RMK MADISHF
BVO,2017-04-01 09:20,-96.0112,36.7625,M,M,M,40.00,7.00,M,30.02,M,10.00,M,CLR,M,M,M,M,M,M,M,M,KBVO 010920Z AUTO 04007KT 10SM CLR A3002 RMK MADISHF
BVO,2017-04-01 09:25,-96.0112,36.7625,M,M,M,50.00,8.00,M,30.02,M,10.00,M,CLR,M,M,M,M,M,M,M,M,KBVO 010925Z AUTO 05008KT 10SM CLR A3002 RMK MADISHF
BVO,2017-04-01 09:30,-96.0112,36.7625,M,M,M,40.00,7.00,M,30.02,M,10.00,M,CLR,M,M,M,M,M,M,M,M,KBVO 010930Z AUTO 04007KT 10SM CLR A3002 RMK MADISHF
BVO,2017-04-01 09:35,-96.0112,36.7625,M,M,M,30.00,6.00,M,30.03,M,10.00,M,CLR,M,M,M,M,M,M,M,M,KBVO 010935Z AUTO 03006KT 10SM CLR A3003 RMK MADISHF
BVO,2017-04-01 09:45,-96.0112,36.7625,M,M,M,30.00,9.00,M,30.03,M,10.00,M,CLR,M,M,M,M,M,M,M,M,KBVO 010945Z AUTO 03009KT 10SM CLR A3003 RMK MADISHF
BVO,2017-04-01 09:50,-96.0112,36.7625,M,M,M,30.00,9.00,M,30.03,M,10.00,M,CLR,M,M,M,M,M,M,M,M,KBVO 010950Z AUTO 03009KT 10SM CLR A3003 RMK MADISHF
BVO,2017-04-01 09:53,-96.0112,36.7625,46.00,41.00,82.58,30.00,7.00,0.00,30.03,1016.70,10.00,M,CLR,M,M,M,M,M,M,M,M,KBVO 010953Z AUTO 03007KT 10SM CLR 08/05 A3003 RMK AO2 SLP167 T00780050 TSNO
BVO,2017-04-01 09:55,-96.0112,36.7625,M,M,M,30.00,8.00,M,30.04,M,10.00,M,CLR,M,M,M,M,M,M,M,M,KBVO 010955Z AUTO 03008KT 10SM CLR A3004 RMK MADISHF
BVO,2017-04-01 10:00,-96.0112,36.7625,M,M,M,40.00,7.00,M,30.04,M,10.00,M,CLR,M,M,M,M,M,M,M,M,KBVO 011000Z AUTO 04007KT 10SM CLR A3004 RMK MADISHF
BVO,2017-04-01 10:05,-96.0112,36.7625,M,M,M,50.00,7.00,M,30.04,M,10.00,M,CLR,M,M,M,M,M,M,M,M,KBVO 011005Z AUTO 05007KT 10SM CLR A3004 RMK MADISHF
BVO,2017-04-01 10:10,-96.0112,36.7625,M,M,M,30.00,8.00,M,30.04,M,10.00,M,CLR,M,M,M,M,M,M,M,M,KBVO 011010Z AUTO 03008KT 10SM CLR A3004 RMK MADISHF
BVO,2017-04-01 10:30,-96.0112,36.7625,M,M,M,40.00,8.00,M,30.04,M,10.00,M,CLR,M,M,M,M,M,M,M,M,KBVO 011030Z AUTO 04008KT 10SM CLR A3004 RMK MADISHF
BVO,2017-04-01 10:35,-96.0112,36.7625,M,M,M,40.00,8.00,M,30.04,M,10.00,M,CLR,M,M,M,M,M,M,M,M,KBVO 011035Z AUTO 04008KT 10SM CLR A3004 RMK MADISHF
BVO,2017-04-01 10:40,-96.0112,36.7625,M,M,M,40.00,7.00,M,30.04,M,10.00,M,CLR,M,M,M,M,M,M,M,M,KBVO 011040Z AUTO 04007KT 10SM CLR A3004 RMK MADISHF
BVO,2017-04-01 10:45,-96.0112,36.7625,M,M,M,40.00,7.00,M,30.05,M,10.00,M,CLR,M,M,M,M,M,M,M,M,KBVO 011045Z AUTO 04007KT 10SM CLR A3005 RMK MADISHF
BVO,2017-04-01 10:50,-96.0112,36.7625,M,M,M,40.00,6.00,M,30.05,M,10.00,M,CLR,M,M,M,M,M,M,M,M,KBVO 011050Z AUTO 04006KT 10SM CLR A3005 RMK MADISHF
BVO,2017-04-01 10:53,-96.0112,36.7625,46.00,41.00,82.58,30.00,8.00,0.00,30.05,1017.30,10.00,M,FEW,M,M,M,1700.00,M,M,M,M,KBVO 011053Z AUTO 03008KT 10SM FEW017 08/05 A3005 RMK AO2 SLP173 T00780050 TSNO
BVO,2017-04-01 11:00,-96.0112,36.7625,M,M,M,40.00,7.00,M,30.06,M,10.00,M,SCT,M,M,M,1699.00,M,M,M,M,KBVO 011100Z AUTO 04007KT 10SM SCT016 A3006 RMK MADISHF
BVO,2017-04-01 11:05,-96.0112,36.7625,M,M,M,30.00,7.00,M,30.06,M,10.00,M,SCT,M,M,M,1699.00,M,M,M,M,KBVO 011105Z AUTO 03007KT 10SM SCT016 A3006 RMK MADISHF
BVO,2017-04-01 11:10,-96.0112,36.7625,M,M,M,20.00,7.00,M,30.07,M,10.00,M,BKN,M,M,M,1699.00,M,M,M,M,KBVO 011110Z AUTO 02007KT 10SM BKN016 A3007 RMK MADISHF
BVO,2017-04-01 11:15,-96.0112,36.7625,M,M,M,30.00,8.00,M,30.07,M,10.00,M,BKN,M,M,M,1699.00,M,M,M,M,KBVO 011115Z AUTO 03008KT 10SM BKN016 A3007 RMK MADISHF
BVO,2017-04-01 11:16,-96.0112,36.7625,46.00,42.10,86.16,20.00,8.00,0.00,30.07,M,10.00,M,BKN,M,M,M,1700.00,M,M,M,M,KBVO 011116Z AUTO 02008KT 10SM BKN017 08/06 A3007 RMK AO2 T00780056 TSNO
BVO,2017-04-01 11:20,-96.0112,36.7625,M,M,M,30.00,6.00,M,30.07,M,10.00,M,BKN,M,M,M,1699.00,M,M,M,M,KBVO 011120Z AUTO 03006KT 10SM BKN016 A3007 RMK MADISHF
BVO,2017-04-01 11:25,-96.0112,36.7625,M,M,M,30.00,6.00,M,30.08,M,10.00,M,BKN,M,M,M,1699.00,M,M,M,M,KBVO 011125Z AUTO 03006KT 10SM BKN016 A3008 RMK MADISHF
BVO,2017-04-01 11:30,-96.0112,36.7625,M,M,M,40.00,7.00,M,30.08,M,10.00,M,BKN,M,M,M,1699.00,M,M,M,M,KBVO 011130Z AUTO 04007KT 10SM BKN016 A3008 RMK MADISHF
BVO,2017-04-01 11:35,-96.0112,36.7625,M,M,M,40.00,5.00,M,30.08,M,10.00,M,BKN,M,M,M,1699.00,M,M,M,M,KBVO 011135Z AUTO 04005KT 10SM BKN016 A3008 RMK MADISHF
BVO,2017-04-01 11:40,-96.0112,36.7625,M,M,M,40.00,5.00,M,30.08,M,10.00,M,BKN,M,M,M,1699.00,M,M,M,M,KBVO 011140Z AUTO 04005KT 10SM BKN016 A3008 RMK MADISHF
BVO,2017-04-01 11:45,-96.0112,36.7625,M,M,M,50.00,6.00,M,30.07,M,10.00,M,BKN,M,M,M,1699.00,M,M,M,M,KBVO 011145Z AUTO 05006KT 10SM BKN016 A3007 RMK MADISHF
BVO,2017-04-01 11:50,-96.0112,36.7625,M,M,M,40.00,7.00,M,30.07,M,10.00,M,SCT,M,M,M,1699.00,M,M,M,M,KBVO 011150Z AUTO 04007KT 10SM SCT016 A3007 RMK MADISHF
BVO,2017-04-01 11:53,-96.0112,36.7625,46.00,42.10,86.16,60.00,8.00,0.00,30.07,1018.00,10.00,M,SCT,M,M,M,1700.00,M,M,M,M,KBVO 011153Z AUTO 06008KT 10SM SCT017 08/06 A3007 RMK AO2 SLP180 T00780056 10083 20078 53013 TSNO
BVO,2017-04-01 11:55,-96.0112,36.7625,M,M,M,50.00,7.00,M,30.07,M,10.00,M,SCT,M,M,M,1699.00,M,M,M,M,KBVO 011155Z AUTO 05007KT 10SM SCT016 A3007 RMK MADISHF
BVO,2017-04-01 12:00,-96.0112,36.7625,M,M,M,50.00,6.00,M,30.07,M,10.00,M,FEW,M,M,M,1699.00,M,M,M,M,KBVO 011200Z AUTO 05006KT 10SM FEW016 A3007 RMK MADISHF
BVO,2017-04-01 12:05,-96.0112,36.7625,M,M,M,50.00,8.00,M,30.08,M,10.00,M,FEW,M,M,M,1699.00,M,M,M,M,KBVO 011205Z AUTO 05008KT 10SM FEW016 A3008 RMK MADISHF
BVO,2017-04-01 12:10,-96.0112,36.7625,M,M,M,50.00,10.00,M,30.07,M,10.00,M,CLR,M,M,M,M,M,M,M,M,KBVO 011210Z AUTO 05010KT 10SM CLR A3007 RMK MADISHF
BVO,2017-04-01 12:15,-96.0112,36.7625,M,M,M,50.00,5.00,M,30.08,M,10.00,M,CLR,M,M,M,M,M,M,M,M,KBVO 011215Z AUTO 05005KT 10SM CLR A3008 RMK VRB05KT  MADISHF
BVO,2017-04-01 12:25,-96.0112,36.7625,M,M,M,50.00,7.00,M,30.08,M,10.00,M,CLR,M,M,M,M,M,M,M,M,KBVO 011225Z AUTO 05007KT 10SM CLR A3008 RMK MADISHF
BVO,2017-04-01 12:30,-96.0112,36.7625,M,M,M,50.00,8.00,M,30.09,M,10.00,M,CLR,M,M,M,M,M,M,M,M,KBVO 011230Z AUTO 05008KT 10SM CLR A3009 RMK MADISHF
BVO,2017-04-01 12:35,-96.0112,36.7625,M,M,M,40.00,6.00,M,30.09,M,10.00,M,CLR,M,M,M,M,M,M,M,M,KBVO 011235Z AUTO 04006KT 10SM CLR A3009 RMK MADISHF
BVO,2017-04-01 12:40,-96.0112,36.7625,M,M,M,40.00,6.00,M,30.09,M,10.00,M,CLR,M,M,M,M,M,M,M,M,KBVO 011240Z AUTO 04006KT 10SM CLR A3009 RMK MADISHF
BVO,2017-04-01 12:45,-96.0112,36.7625,M,M,M,30.00,6.00,M,30.09,M,10.00,M,CLR,M,M,M,M,M,M,M,M,KBVO 011245Z AUTO 03006KT 10SM CLR A3009 RMK MADISHF
BVO,2017-04-01 12:50,-96.0112,36.7625,M,M,M,40.00,8.00,M,30.10,M,10.00,M,FEW,M,M,M,1600.00,M,M,M,M,KBVO 011250Z AUTO 04008KT 10SM FEW016 A3010 RMK MADISHF
BVO,2017-04-01 12:53,-96.0112,36.7625,48.00,43.00,82.72,50.00,7.00,0.00,30.10,1018.80,10.00,M,FEW,M,M,M,1600.00,M,M,M,M,KBVO 011253Z AUTO 05007KT 10SM FEW016 09/06 A3010 RMK AO2 SLP188 T00890061 TSNO
BVO,2017-04-01 12:55,-96.0112,36.7625,M,M,M,50.00,9.00,M,30.10,M,10.00,M,FEW,M,M,M,1600.00,M,M,M,M,KBVO 011255Z AUTO 05009KT 10SM FEW016 A3010 RMK MADISHF
BVO,2017-04-01 13:05,-96.0112,36.7625,M,M,M,50.00,8.00,M,30.10,M,10.00,M,SCT,M,M,M,1600.00,M,M,M,M,KBVO 011305Z AUTO 05008KT 10SM SCT016 A3010 RMK MADISHF
BVO,2017-04-01 13:10,-96.0112,36.7625,M,M,M,50.00,5.00,M,30.10,M,10.00,M,FEW,M,M,M,1600.00,M,M,M,M,KBVO 011310Z AUTO 05005KT 10SM FEW016 A3010 RMK MADISHF
BVO,2017-04-01 13:15,-96.0112,36.7625,M,M,M,40.00,7.00,M,30.10,M,10.00,M,SCT,M,M,M,1500.00,M,M,M,M,KBVO 011315Z AUTO 04007KT 10SM SCT015 A3010 RMK MADISHF
BVO,2017-04-01 13:20,-96.0112,36.7625,M,M,M,60.00,9.00,M,30.10,M,10.00,M,SCT,M,M,M,1500.00,M,M,M,M,KBVO 011320Z AUTO 06009KT 10SM SCT015 A3010 RMK MADISHF
BVO,2017-04-01 13:25,-96.0112,36.7625,M,M,M,60.00,9.00,M,30.10,M,10.00,M,SCT,M,M,M,1500.00,M,M,M,M,KBVO 011325Z AUTO 06009KT 10SM SCT015 A3010 RMK MADISHF
BVO,2017-04-01 13:30,-96.0112,36.7625,M,M,M,60.00,10.00,M,30.10,M,10.00,M,SCT,M,M,M,1300.00,M,M,M,M,KBVO 011330Z AUTO 06010KT 10SM SCT013 A3010 RMK MADISHF
BVO,2017-04-01 13:35,-96.0112,36.7625,M,M,M,60.00,10.00,M,30.10,M,10.00,M,SCT,M,M,M,1300.00,M,M,M,M,KBVO 011335Z AUTO 06010KT 10SM SCT013 A3010 RMK MADISHF
BVO,2017-04-01 13:40,-96.0112,36.7625,M,M,M,50.00,9.00,M,30.10,M,10.00,15.00,SCT,M,M,M,1300.00,M,M,M,M,KBVO 011340Z AUTO 05009G15KT 10SM SCT013 A3010 RMK MADISHF
BVO,2017-04-01 13:45,-96.0112,36.7625,M,M,M,50.00,13.00,M,30.10,M,10.00,M,SCT,M,M,M,1300.00,M,M,M,M,KBVO 011345Z AUTO 05013KT 10SM SCT013 A3010 RMK MADISHF
BVO,2017-04-01 13:50,-96.0112,36.7625,M,M,M,60.00,12.00,M,30.10,M,10.00,M,BKN,M,M,M,1400.00,M,M,M,M,KBVO 011350Z AUTO 06012KT 10SM BKN014 A3010 RMK MADISHF
BVO,2017-04-01 13:53,-96.0112,36.7625,50.00,44.10,80.06,60.00,11.00,0.00,30.10,1018.90,10.00,19.00,BKN,M,M,M,1400.00,M,M,M,M,KBVO 011353Z AUTO 06011G19KT 10SM BKN014 10/07 A3010 RMK AO2 SLP189 T01000067 TSNO
BVO,2017-04-01 13:55,-96.0112,36.7625,M,M,M,60.00,11.00,M,30.10,M,10.00,M,BKN,M,M,M,1400.00,M,M,M,M,KBVO 011355Z AUTO 06011KT 10SM BKN014 A3010 RMK MADISHF
BVO,2017-04-01 14:00,-96.0112,36.7625,M,M,M,50.00,8.00,M,30.10,M,10.00,M,BKN,M,M,M,1400.00,M,M,M,M,KBVO 011400Z AUTO 05008KT 10SM BKN014 A3010 RMK MADISHF
BVO,2017-04-01 14:15,-96.0112,36.7625,M,M,M,50.00,9.00,M,30.10,M,10.00,M,BKN,M,M,M,1400.00,M,M,M,M,KBVO 011415Z AUTO 05009KT 10SM BKN014 A3010 RMK MADISHF
BVO,2017-04-01 14:20,-96.0112,36.7625,M,M,M,50.00,10.00,M,30.10,M,10.00,M,BKN,M,M,M,1400.00,M,M,M,M,KBVO 011420Z AUTO 05010KT 10SM BKN014 A3010 RMK MADISHF
BVO,2017-04-01 14:25,-96.0112,36.7625,M,M,M,60.00,13.00,M,30.10,M,10.00,M,BKN,M,M,M,1400.00,M,M,M,M,KBVO 011425Z AUTO 06013KT 10SM BKN014 A3010 RMK MADISHF
BVO,2017-04-01 14:30,-96.0112,36.7625,M,M,M,60.00,10.00,M,30.10,M,10.00,M,SCT,M,M,M,1400.00,M,M,M,M,KBVO 011430Z AUTO 06010KT 10SM SCT014 A3010 RMK MADISHF
BVO,2017-04-01 14:32,-96.0112,36.7625,53.10,45.00,73.89,60.00,9.00,0.00,30.10,M,10.00,M,SCT,M,M,M,1400.00,M,M,M,M,KBVO 011432Z AUTO 06009KT 10SM SCT014 12/07 A3010 RMK AO2 T01170072 TSNO
BVO,2017-04-01 14:35,-96.0112,36.7625,M,M,M,50.00,10.00,M,30.10,M,10.00,M,FEW,M,M,M,1400.00,M,M,M,M,KBVO 011435Z AUTO 05010KT 10SM FEW014 A3010 RMK MADISHF
BVO,2017-04-01 14:45,-96.0112,36.7625,M,M,M,50.00,12.00,M,30.10,M,10.00,M,FEW,M,M,M,1500.00,M,M,M,M,KBVO 011445Z AUTO 05012KT 10SM FEW015 A3010 RMK MADISHF
BVO,2017-04-01 14:50,-96.0112,36.7625,M,M,M,60.00,9.00,M,30.10,M,10.00,M,FEW,M,M,M,1500.00,M,M,M,M,KBVO 011450Z AUTO 06009KT 10SM FEW015 A3010 RMK MADISHF
BVO,2017-04-01 14:53,-96.0112,36.7625,54.00,45.00,71.50,50.00,11.00,0.00,30.10,1018.90,10.00,17.00,FEW,M,M,M,1500.00,M,M,M,M,KBVO 011453Z AUTO 05011G17KT 10SM FEW015 12/07 A3010 RMK AO2 SLP189 T01220072 50008 TSNO
BVO,2017-04-01 14:55,-96.0112,36.7625,M,M,M,60.00,13.00,M,30.10,M,10.00,M,FEW,M,M,M,1500.00,M,M,M,M,KBVO 011455Z AUTO 06013KT 10SM FEW015 A3010 RMK MADISHF
BVO,2017-04-01 15:00,-96.0112,36.7625,M,M,M,60.00,11.00,M,30.10,M,10.00,M,FEW,M,M,M,1600.00,M,M,M,M,KBVO 011500Z AUTO 06011KT 10SM FEW016 A3010 RMK MADISHF
BVO,2017-04-01 15:05,-96.0112,36.7625,M,M,M,50.00,9.00,M,30.10,M,10.00,M,FEW,M,M,M,1699.00,M,M,M,M,KBVO 011505Z AUTO 05009KT 10SM FEW016 A3010 RMK MADISHF
BVO,2017-04-01 15:10,-96.0112,36.7625,M,M,M,50.00,7.00,M,30.10,M,10.00,M,FEW,M,M,M,1699.00,M,M,M,M,KBVO 011510Z AUTO 05007KT 10SM FEW016 A3010 RMK MADISHF
BVO,2017-04-01 15:15,-96.0112,36.7625,M,M,M,60.00,11.00,M,30.10,M,10.00,M,SCT,M,M,M,1699.00,M,M,M,M,KBVO 011515Z AUTO 06011KT 10SM SCT016 A3010 RMK MADISHF
BVO,2017-04-01 15:25,-96.0112,36.7625,M,M,M,60.00,12.00,M,30.10,M,10.00,M,SCT,M,M,M,1699.00,M,M,M,M,KBVO 011525Z AUTO 06012KT 10SM SCT016 A3010 RMK WND 04V10  MADISHF
BVO,2017-04-01 15:30,-96.0112,36.7625,M,M,M,70.00,12.00,M,30.10,M,10.00,M,FEW,M,M,M,1699.00,M,M,M,M,KBVO 011530Z AUTO 07012KT 10SM FEW016 A3010 RMK MADISHF
BVO,2017-04-01 15:35,-96.0112,36.7625,M,M,M,50.00,9.00,M,30.10,M,10.00,M,FEW,M,M,M,1699.00,M,M,M,M,KBVO 011535Z AUTO 05009KT 10SM FEW016 A3010 RMK MADISHF
BVO,2017-04-01 15:40,-96.0112,36.7625,M,M,M,70.00,10.00,M,30.10,M,10.00,M,FEW,M,M,M,1699.00,M,M,M,M,KBVO 011540Z AUTO 07010KT 10SM FEW016 A3010 RMK MADISHF
BVO,2017-04-01 15:45,-96.0112,36.7625,M,M,M,40.00,8.00,M,30.10,M,10.00,M,FEW,M,M,M,1699.00,M,M,M,M,KBVO 011545Z AUTO 04008KT 10SM FEW016 A3010 RMK MADISHF
BVO,2017-04-01 15:50,-96.0112,36.7625,M,M,M,50.00,9.00,M,30.10,M,10.00,M,FEW,M,M,M,1900.00,M,M,M,M,KBVO 011550Z AUTO 05009KT 10SM FEW019 A3010 RMK MADISHF
BVO,2017-04-01 15:53,-96.0112,36.7625,59.00,46.90,64.12,60.00,10.00,0.00,30.10,1018.70,10.00,14.00,FEW,M,M,M,2100.00,M,M,M,M,KBVO 011553Z AUTO 06010G14KT 10SM FEW021 15/08 A3010 RMK AO2 SLP187 T01500083 TSNO
BVO,2017-04-01 16:00,-96.0112,36.7625,M,M,M,60.00,12.00,M,30.10,M,10.00,M,SCT,M,M,M,2100.00,M,M,M,M,KBVO 011600Z AUTO 06012KT 10SM SCT021 A3010 RMK MADISHF
BVO,2017-04-01 16:05,-96.0112,36.7625,M,M,M,70.00,10.00,M,30.09,M,10.00,M,BKN,M,M,M,2100.00,M,M,M,M,KBVO 011605Z AUTO 07010KT 10SM BKN021 A3009 RMK MADISHF
BVO,2017-04-01 16:10,-96.0112,36.7625,59.00,46.90,64.12,60.00,11.00,0.00,30.09,M,10.00,17.00,BKN,M,M,M,2100.00,M,M,M,M,KBVO 011610Z AUTO 06011G17KT 10SM BKN021 15/08 A3009 RMK AO2 T01500083 TSNO
BVO,2017-04-01 16:15,-96.0112,36.7625,M,M,M,50.00,11.00,M,30.09,M,10.00,M,BKN,M,M,M,2200.00,M,M,M,M,KBVO 011615Z AUTO 05011KT 10SM BKN022 A3009 RMK MADISHF
BVO,2017-04-01 16:20,-96.0112,36.7625,M,M,M,70.00,11.00,M,30.09,M,10.00,M,SCT,M,M,M,2200.00,M,M,M,M,KBVO 011620Z AUTO 07011KT 10SM SCT022 A3009 RMK MADISHF
BVO,2017-04-01 16:25,-96.0112,36.7625,60.10,46.90,61.65,50.00,11.00,0.00,30.09,M,10.00,17.00,SCT,M,M,M,2200.00,M,M,M,M,KBVO 011625Z AUTO 05011G17KT 10SM SCT022 16/08 A3009 RMK AO2 T01560083 TSNO
BVO,2017-04-01 16:30,-96.0112,36.7625,M,M,M,60.00,12.00,M,30.08,M,10.00,M,FEW,M,M,M,2200.00,M,M,M,M,KBVO 011630Z AUTO 06012KT 10SM FEW022 A3008 RMK MADISHF
BVO,2017-04-01 16:35,-96.0112,36.7625,M,M,M,70.00,12.00,M,30.08,M,10.00,17.00,FEW,M,M,M,2200.00,M,M,M,M,KBVO 011635Z AUTO 07012G17KT 10SM FEW022 A3008 RMK MADISHF
BVO,2017-04-01 16:40,-96.0112,36.7625,M,M,M,60.00,14.00,M,30.08,M,10.00,M,FEW,M,M,M,2200.00,M,M,M,M,KBVO 011640Z AUTO 06014KT 10SM FEW022 A3008 RMK MADISHF
BVO,2017-04-01 16:45,-96.0112,36.7625,M,M,M,70.00,15.00,M,30.08,M,10.00,M,CLR,M,M,M,M,M,M,M,M,KBVO 011645Z AUTO 07015KT 10SM CLR A3008 RMK MADISHF
BVO,2017-04-01 16:50,-96.0112,36.7625,M,M,M,80.00,13.00,M,30.07,M,10.00,M,CLR,M,M,M,M,M,M,M,M,KBVO 011650Z AUTO 08013KT 10SM CLR A3007 RMK MADISHF
BVO,2017-04-01 16:53,-96.0112,36.7625,61.00,48.00,62.23,70.00,11.00,0.00,30.07,1017.90,10.00,M,CLR,M,M,M,M,M,M,M,M,KBVO 011653Z AUTO 07011KT 10SM CLR 16/09 A3007 RMK AO2 SLP179 T01610089 TSNO
BVO,2017-04-01 16:55,-96.0112,36.7625,M,M,M,80.00,11.00,M,30.07,M,10.00,M,CLR,M,M,M,M,M,M,M,M,KBVO 011655Z AUTO 08011KT 10SM CLR A3007 RMK MADISHF
BVO,2017-04-01 17:00,-96.0112,36.7625,M,M,M,70.00,12.00,M,30.07,M,10.00,M,CLR,M,M,M,M,M,M,M,M,KBVO 011700Z AUTO 07012KT 10SM CLR A3007 RMK MADISHF
BVO,2017-04-01 17:15,-96.0112,36.7625,M,M,M,70.00,13.00,M,30.06,M,10.00,M,CLR,M,M,M,M,M,M,M,M,KBVO 011715Z AUTO 07013KT 10SM CLR A3006 RMK MADISHF
BVO,2017-04-01 17:20,-96.0112,36.7625,M,M,M,60.00,14.00,M,30.06,M,10.00,M,CLR,M,M,M,M,M,M,M,M,KBVO 011720Z AUTO 06014KT 10SM CLR A3006 RMK MADISHF
BVO,2017-04-01 17:25,-96.0112,36.7625,M,M,M,70.00,13.00,M,30.06,M,10.00,M,CLR,M,M,M,M,M,M,M,M,KBVO 011725Z AUTO 07013KT 10SM CLR A3006 RMK MADISHF
BVO,2017-04-01 17:30,-96.0112,36.7625,M,M,M,70.00,13.00,M,30.06,M,10.00,M,CLR,M,M,M,M,M,M,M,M,KBVO 011730Z AUTO 07013KT 10SM CLR A3006 RMK MADISHF
BVO,2017-04-01 17:35,-96.0112,36.7625,M,M,M,60.00,12.00,M,30.05,M,10.00,M,CLR,M,M,M,M,M,M,M,M,KBVO 011735Z AUTO 06012KT 10SM CLR A3005 RMK MADISHF
BVO,2017-04-01 17:40,-96.0112,36.7625,M,M,M,70.00,10.00,M,30.05,M,10.00,M,CLR,M,M,M,M,M,M,M,M,KBVO 011740Z AUTO 07010KT 10SM CLR A3005 RMK MADISHF
BVO,2017-04-01 17:45,-96.0112,36.7625,M,M,M,70.00,14.00,M,30.05,M,10.00,M,CLR,M,M,M,M,M,M,M,M,KBVO 011745Z AUTO 07014KT 10SM CLR A3005 RMK MADISHF
BVO,2017-04-01 17:50,-96.0112,36.7625,M,M,M,80.00,13.00,M,30.05,M,10.00,M,CLR,M,M,M,M,M,M,M,M,KBVO 011750Z AUTO 08013KT 10SM CLR A3005 RMK MADISHF
BVO,2017-04-01 17:53,-96.0112,36.7625,64.90,48.90,56.12,80.00,12.00,0.00,30.05,1016.90,10.00,20.00,CLR,M,M,M,M,M,M,M,M,KBVO 011753Z AUTO 08012G20KT 10SM CLR 18/09 A3005 RMK AO2 SLP169 T01830094 10183 20078 58018 TSNO
BVO,2017-04-01 18:00,-96.0112,36.7625,M,M,M,90.00,11.00,M,30.04,M,10.00,M,CLR,M,M,M,M,M,M,M,M,KBVO 011800Z AUTO 09011KT 10SM CLR A3004 RMK MADISHF
BVO,2017-04-01 18:05,-96.0112,36.7625,M,M,M,80.00,13.00,M,30.04,M,10.00,M,CLR,M,M,M,M,M,M,M,M,KBVO 011805Z AUTO 08013KT 10SM CLR A3004 RMK MADISHF
BVO,2017-04-01 18:10,-96.0112,36.7625,M,M,M,70.00,11.00,M,30.04,M,10.00,M,CLR,M,M,M,M,M,M,M,M,KBVO 011810Z AUTO 07011KT 10SM CLR A3004 RMK MADISHF
BVO,2017-04-01 18:15,-96.0112,36.7625,M,M,M,70.00,13.00,M,30.03,M,10.00,M,CLR,M,M,M,M,M,M,M,M,KBVO 011815Z AUTO 07013KT 10SM CLR A3003 RMK MADISHF
BVO,2017-04-01 18:20,-96.0112,36.7625,M,M,M,70.00,10.00,M,30.03,M,10.00,M,CLR,M,M,M,M,M,M,M,M,KBVO 011820Z AUTO 07010KT 10SM CLR A3003 RMK MADISHF
BVO,2017-04-01 18:25,-96.0112,36.7625,M,M,M,80.00,9.00,M,30.03,M,10.00,M,CLR,M,M,M,M,M,M,M,M,KBVO 011825Z AUTO 08009KT 10SM CLR A3003 RMK MADISHF
BVO,2017-04-01 18:30,-96.0112,36.7625,M,M,M,60.00,12.00,M,30.02,M,10.00,M,CLR,M,M,M,M,M,M,M,M,KBVO 011830Z AUTO 06012KT 10SM CLR A3002 RMK MADISHF
BVO,2017-04-01 18:35,-96.0112,36.7625,M,M,M,80.00,11.00,M,30.02,M,10.00,M,CLR,M,M,M,M,M,M,M,M,KBVO 011835Z AUTO 08011KT 10SM CLR A3002 RMK MADISHF
BVO,2017-04-01 18:40,-96.0112,36.7625,M,M,M,80.00,12.00,M,30.02,M,10.00,M,CLR,M,M,M,M,M,M,M,M,KBVO 011840Z AUTO 08012KT 10SM CLR A3002 RMK MADISHF
BVO,2017-04-01 18:45,-96.0112,36.7625,M,M,M,70.00,11.00,M,30.01,M,10.00,M,CLR,M,M,M,M,M,M,M,M,KBVO 011845Z AUTO 07011KT 10SM CLR A3001 RMK MADISHF
BVO,2017-04-01 18:50,-96.0112,36.7625,M,M,M,80.00,11.00,M,30.01,M,10.00,M,CLR,M,M,M,M,M,M,M,M,KBVO 011850Z AUTO 08011KT 10SM CLR A3001 RMK MADISHF
BVO,2017-04-01 18:53,-96.0112,36.7625,68.00,50.00,52.51,80.00,11.00,0.00,30.01,1015.80,10.00,M,CLR,M,M,M,M,M,M,M,M,KBVO 011853Z AUTO 08011KT 10SM CLR 20/10 A3001 RMK AO2 SLP158 T02000100 TSNO
BVO,2017-04-01 18:55,-96.0112,36.7625,M,M,M,80.00,11.00,M,30.01,M,10.00,16.00,CLR,M,M,M,M,M,M,M,M,KBVO 011855Z AUTO 08011G16KT 10SM CLR A3001 RMK MADISHF
BVO,2017-04-01 19:00,-96.0112,36.7625,M,M,M,70.00,12.00,M,30.01,M,10.00,M,CLR,M,M,M,M,M,M,M,M,KBVO 011900Z AUTO 07012KT 10SM CLR A3001 RMK MADISHF
BVO,2017-04-01 19:15,-96.0112,36.7625,M,M,M,70.00,12.00,M,30.00,M,10.00,M,CLR,M,M,M,M,M,M,M,M,KBVO 011915Z AUTO 07012KT 10SM CLR A3000 RMK MADISHF
BVO,2017-04-01 19:20,-96.0112,36.7625,M,M,M,70.00,10.00,M,30.00,M,10.00,M,CLR,M,M,M,M,M,M,M,M,KBVO 011920Z AUTO 07010KT 10SM CLR A3000 RMK MADISHF
BVO,2017-04-01 19:25,-96.0112,36.7625,M,M,M,50.00,11.00,M,30.00,M,10.00,M,CLR,M,M,M,M,M,M,M,M,KBVO 011925Z AUTO 05011KT 10SM CLR A3000 RMK MADISHF
BVO,2017-04-01 19:30,-96.0112,36.7625,M,M,M,50.00,11.00,M,30.00,M,10.00,M,CLR,M,M,M,M,M,M,M,M,KBVO 011930Z AUTO 05011KT 10SM CLR A3000 RMK MADISHF
BVO,2017-04-01 19:35,-96.0112,36.7625,M,M,M,60.00,7.00,M,30.01,M,10.00,M,CLR,M,M,M,M,M,M,M,M,KBVO 011935Z AUTO 06007KT 10SM CLR A3001 RMK MADISHF
BVO,2017-04-01 19:40,-96.0112,36.7625,M,M,M,90.00,9.00,M,30.01,M,10.00,M,CLR,M,M,M,M,M,M,M,M,KBVO 011940Z AUTO 09009KT 10SM CLR A3001 RMK MADISHF
BVO,2017-04-01 19:53,-96.0112,36.7625,70.00,51.10,51.07,50.00,9.00,0.00,30.00,1015.20,10.00,M,CLR,M,M,M,M,M,M,M,M,KBVO 011953Z AUTO 05009KT 10SM CLR 21/11 A3000 RMK AO2 SLP152 T02110106 TSNO
BVO,2017-04-01 19:55,-96.0112,36.7625,M,M,M,60.00,8.00,M,30.00,M,10.00,M,CLR,M,M,M,M,M,M,M,M,KBVO 011955Z AUTO 06008KT 10SM CLR A3000 RMK MADISHF
BVO,2017-04-01 20:00,-96.0112,36.7625,M,M,M,60.00,11.00,M,29.99,M,10.00,M,CLR,M,M,M,M,M,M,M,M,KBVO 012000Z AUTO 06011KT 10SM CLR A2999 RMK MADISHF
BVO,2017-04-01 20:05,-96.0112,36.7625,M,M,M,70.00,9.00,M,29.99,M,10.00,M,CLR,M,M,M,M,M,M,M,M,KBVO 012005Z AUTO 07009KT 10SM CLR A2999 RMK MADISHF
BVO,2017-04-01 20:10,-96.0112,36.7625,M,M,M,70.00,7.00,M,29.98,M,10.00,M,CLR,M,M,M,M,M,M,M,M,KBVO 012010Z AUTO 07007KT 10SM CLR A2998 RMK MADISHF
BVO,2017-04-01 20:15,-96.0112,36.7625,M,M,M,70.00,12.00,M,29.98,M,10.00,M,CLR,M,M,M,M,M,M,M,M,KBVO 012015Z AUTO 07012KT 10SM CLR A2998 RMK MADISHF
BVO,2017-04-01 20:20,-96.0112,36.7625,M,M,M,60.00,10.00,M,29.98,M,10.00,M,CLR,M,M,M,M,M,M,M,M,KBVO 012020Z AUTO 06010KT 10SM CLR A2998 RMK MADISHF
BVO,2017-04-01 20:35,-96.0112,36.7625,M,M,M,70.00,12.00,M,29.97,M,10.00,M,CLR,M,M,M,M,M,M,M,M,KBVO 012035Z AUTO 07012KT 10SM CLR A2997 RMK MADISHF
BVO,2017-04-01 20:40,-96.0112,36.7625,M,M,M,70.00,10.00,M,29.97,M,10.00,15.00,CLR,M,M,M,M,M,M,M,M,KBVO 012040Z AUTO 07010G15KT 10SM CLR A2997 RMK MADISHF
BVO,2017-04-01 20:45,-96.0112,36.7625,M,M,M,60.00,11.00,M,29.97,M,10.00,M,CLR,M,M,M,M,M,M,M,M,KBVO 012045Z AUTO 06011KT 10SM CLR A2997 RMK MADISHF
BVO,2017-04-01 20:50,-96.0112,36.7625,M,M,M,60.00,10.00,M,29.96,M,10.00,M,CLR,M,M,M,M,M,M,M,M,KBVO 012050Z AUTO 06010KT 10SM CLR A2996 RMK MADISHF
BVO,2017-04-01 20:53,-96.0112,36.7625,71.10,51.10,49.20,60.00,10.00,0.00,29.96,1014.10,10.00,M,CLR,M,M,M,M,M,M,M,M,KBVO 012053Z AUTO 06010KT 10SM CLR 22/11 A2996 RMK AO2 SLP141 T02170106 58027 TSNO
BVO,2017-04-01 20:55,-96.0112,36.7625,M,M,M,60.00,10.00,M,29.96,M,10.00,M,CLR,M,M,M,M,M,M,M,M,KBVO 012055Z AUTO 06010KT 10SM CLR A2996 RMK MADISHF
BVO,2017-04-01 21:00,-96.0112,36.7625,M,M,M,60.00,9.00,M,29.96,M,10.00,M,CLR,M,M,M,M,M,M,M,M,KBVO 012100Z AUTO 06009KT 10SM CLR A2996 RMK MADISHF
BVO,2017-04-01 21:05,-96.0112,36.7625,M,M,M,40.00,8.00,M,29.96,M,10.00,M,CLR,M,M,M,M,M,M,M,M,KBVO 012105Z AUTO 04008KT 10SM CLR A2996 RMK MADISHF
BVO,2017-04-01 21:25,-96.0112,36.7625,M,M,M,30.00,10.00,M,29.96,M,10.00,M,CLR,M,M,M,M,M,M,M,M,KBVO 012125Z AUTO 03010KT 10SM CLR A2996 RMK MADISHF
BVO,2017-04-01 21:30,-96.0112,36.7625,M,M,M,30.00,11.00,M,29.96,M,10.00,M,CLR,M,M,M,M,M,M,M,M,KBVO 012130Z AUTO 03011KT 10SM CLR A2996 RMK MADISHF
BVO,2017-04-01 21:35,-96.0112,36.7625,M,M,M,30.00,8.00,M,29.96,M,10.00,M,CLR,M,M,M,M,M,M,M,M,KBVO 012135Z AUTO 03008KT 10SM CLR A2996 RMK MADISHF
BVO,2017-04-01 21:40,-96.0112,36.7625,M,M,M,30.00,12.00,M,29.96,M,10.00,M,CLR,M,M,M,M,M,M,M,M,KBVO 012140Z AUTO 03012KT 10SM CLR A2996 RMK MADISHF
BVO,2017-04-01 21:45,-96.0112,36.7625,M,M,M,30.00,11.00,M,29.96,M,10.00,M,CLR,M,M,M,M,M,M,M,M,KBVO 012145Z AUTO 03011KT 10SM CLR A2996 RMK MADISHF
BVO,2017-04-01 21:50,-96.0112,36.7625,M,M,M,20.00,12.00,M,29.96,M,10.00,M,CLR,M,M,M,M,M,M,M,M,KBVO 012150Z AUTO 02012KT 10SM CLR A2996 RMK MADISHF
BVO,2017-04-01 21:53,-96.0112,36.7625,68.00,52.00,56.55,30.00,9.00,0.00,29.96,1013.90,10.00,16.00,CLR,M,M,M,M,M,M,M,M,KBVO 012153Z AUTO 03009G16KT 10SM CLR 20/11 A2996 RMK AO2 SLP139 T02000111 TSNO
BVO,2017-04-01 21:55,-96.0112,36.7625,M,M,M,40.00,9.00,M,29.96,M,10.00,M,CLR,M,M,M,M,M,M,M,M,KBVO 012155Z AUTO 04009KT 10SM CLR A2996 RMK MADISHF
BVO,2017-04-01 22:00,-96.0112,36.7625,M,M,M,30.00,11.00,M,29.96,M,10.00,M,CLR,M,M,M,M,M,M,M,M,KBVO 012200Z AUTO 03011KT 10SM CLR A2996 RMK MADISHF
BVO,2017-04-01 22:10,-96.0112,36.7625,M,M,M,10.00,13.00,M,29.97,M,10.00,M,CLR,M,M,M,M,M,M,M,M,KBVO 012210Z AUTO 01013KT 10SM CLR A2997 RMK MADISHF
BVO,2017-04-01 22:15,-96.0112,36.7625,M,M,M,30.00,12.00,M,29.96,M,10.00,M,CLR,M,M,M,M,M,M,M,M,KBVO 012215Z AUTO 03012KT 10SM CLR A2996 RMK MADISHF
BVO,2017-04-01 22:20,-96.0112,36.7625,M,M,M,20.00,13.00,M,29.96,M,10.00,18.00,CLR,M,M,M,M,M,M,M,M,KBVO 012220Z AUTO 02013G18KT 10SM CLR A2996 RMK MADISHF
BVO,2017-04-01 22:25,-96.0112,36.7625,M,M,M,30.00,10.00,M,29.96,M,10.00,M,CLR,M,M,M,M,M,M,M,M,KBVO 012225Z AUTO 03010KT 10SM CLR A2996 RMK MADISHF
BVO,2017-04-01 22:30,-96.0112,36.7625,M,M,M,30.00,11.00,M,29.97,M,10.00,M,CLR,M,M,M,M,M,M,M,M,KBVO 012230Z AUTO 03011KT 10SM CLR A2997 RMK MADISHF
BVO,2017-04-01 22:35,-96.0112,36.7625,M,M,M,30.00,11.00,M,29.97,M,10.00,M,CLR,M,M,M,M,M,M,M,M,KBVO 012235Z AUTO 03011KT 10SM CLR A2997 RMK MADISHF
BVO,2017-04-01 22:45,-96.0112,36.7625,M,M,M,20.00,12.00,M,29.98,M,10.00,M,CLR,M,M,M,M,M,M,M,M,KBVO 012245Z AUTO 02012KT 10SM CLR A2998 RMK MADISHF
BVO,2017-04-01 22:50,-96.0112,36.7625,M,M,M,30.00,10.00,M,29.98,M,10.00,M,CLR,M,M,M,M,M,M,M,M,KBVO 012250Z AUTO 03010KT 10SM CLR A2998 RMK MADISHF
BVO,2017-04-01 22:53,-96.0112,36.7625,64.90,52.00,62.96,30.00,12.00,0.00,29.98,1014.80,10.00,17.00,CLR,M,M,M,M,M,M,M,M,KBVO 012253Z AUTO 03012G17KT 10SM CLR 18/11 A2998 RMK AO2 SLP148 T01830111 TSNO
BVO,2017-04-01 22:55,-96.0112,36.7625,M,M,M,30.00,9.00,M,29.99,M,10.00,M,CLR,M,M,M,M,M,M,M,M,KBVO 012255Z AUTO 03009KT 10SM CLR A2999 RMK MADISHF
BVO,2017-04-01 23:00,-96.0112,36.7625,M,M,M,20.00,13.00,M,29.99,M,10.00,M,CLR,M,M,M,M,M,M,M,M,KBVO 012300Z AUTO 02013KT 10SM CLR A2999 RMK MADISHF
BVO,2017-04-01 23:05,-96.0112,36.7625,M,M,M,30.00,10.00,M,29.99,M,10.00,15.00,CLR,M,M,M,M,M,M,M,M,KBVO 012305Z AUTO 03010G15KT 10SM CLR A2999 RMK MADISHF
BVO,2017-04-01 23:20,-96.0112,36.7625,M,M,M,20.00,12.00,M,29.98,M,10.00,M,CLR,M,M,M,M,M,M,M,M,KBVO 012320Z AUTO 02012KT 10SM CLR A2998 RMK MADISHF
BVO,2017-04-01 23:25,-96.0112,36.7625,M,M,M,30.00,11.00,M,29.98,M,10.00,M,CLR,M,M,M,M,M,M,M,M,KBVO 012325Z AUTO 03011KT 10SM CLR A2998 RMK MADISHF
BVO,2017-04-01 23:30,-96.0112,36.7625,M,M,M,30.00,9.00,M,29.97,M,10.00,M,CLR,M,M,M,M,M,M,M,M,KBVO 012330Z AUTO 03009KT 10SM CLR A2997 RMK MADISHF
BVO,2017-04-01 23:35,-96.0112,36.7625,M,M,M,30.00,11.00,M,29.98,M,10.00,M,CLR,M,M,M,M,M,M,M,M,KBVO 012335Z AUTO 03011KT 10SM CLR A2998 RMK MADISHF
BVO,2017-04-01 23:40,-96.0112,36.7625,M,M,M,20.00,10.00,M,29.99,M,10.00,M,CLR,M,M,M,M,M,M,M,M,KBVO 012340Z AUTO 02010KT 10SM CLR A2999 RMK MADISHF
BVO,2017-04-01 23:45,-96.0112,36.7625,M,M,M,20.00,10.00,M,29.99,M,10.00,M,CLR,M,M,M,M,M,M,M,M,KBVO 012345Z AUTO 02010KT 10SM CLR A2999 RMK MADISHF
BVO,2017-04-01 23:53,-96.0112,36.7625,62.10,51.10,67.19,30.00,12.00,0.00,29.99,1015.10,10.00,M,FEW,M,M,M,12000.00,M,M,M,M,KBVO 012353Z AUTO 03012KT 10SM FEW120 17/11 A2999 RMK AO2 SLP151 T01670106 10222 20167 53009 TSNO
BVO,2017-04-01 23:55,-96.0112,36.7625,M,M,M,20.00,10.00,M,29.99,M,10.00,M,FEW,M,M,M,12000.00,M,M,M,M,KBVO 012355Z AUTO 02010KT 10SM FEW120 A2999 RMK MADISHF
