#DEBUG: Format Typ    -> comma
#DEBUG: Time Period   -> 2017-04-01 00:00:00+00:00 2017-04-02 00:00:00+00:00
#DEBUG: Time Zone     -> Etc/UTC
#DEBUG: Data Contact   -> daryl herzmann akrherz@iastate.edu 515-294-5978
#DEBUG: Entries Found -> -1
station,valid,lon,lat,tmpf, dwpf, relh, drct, sknt, p01i, alti, mslp, vsby, gust, skyc1, skyc2, skyc3, skyc4, skyl1, skyl2, skyl3, skyl4, presentwx, metar
BVS,2017-04-01 00:15,-122.4200,48.4700,53.60,42.80,66.70,300.00,7.00,0.00,30.30,M,10.00,M,BKN,M,M,M,7000.00,M,M,M,M,KBVS 010015Z AUTO 30007KT 10SM BKN070 12/06 A3030 RMK A01
BVS,2017-04-01 00:35,-122.4200,48.4700,51.80,42.80,71.26,310.00,5.00,0.00,30.29,M,10.00,M,BKN,M,M,M,7000.00,M,M,M,M,KBVS 010035Z AUTO 31005KT 10SM BKN070 11/06 A3029 RMK A01
BVS,2017-04-01 00:55,-122.4200,48.4700,51.80,42.80,71.26,320.00,7.00,0.00,30.29,M,10.00,M,BKN,M,M,M,6500.00,M,M,M,M,KBVS 010055Z AUTO 32007KT 10SM BKN065 11/06 A3029 RMK A01
BVS,2017-04-01 01:15,-122.4200,48.4700,51.80,41.00,66.48,310.00,5.00,0.00,30.28,M,10.00,M,SCT,SCT,M,M,6500.00,12000.00,M,M,M,KBVS 010115Z AUTO 31005KT 10SM SCT065 SCT120 11/05 A3028 RMK A01
BVS,2017-04-01 01:35,-122.4200,48.4700,51.80,41.00,66.48,310.00,5.00,0.00,30.27,M,10.00,M,CLR,M,M,M,M,M,M,M,M,KBVS 010135Z AUTO 31005KT 10SM CLR 11/05 A3027 RMK A01
BVS,2017-04-01 01:55,-122.4200,48.4700,50.00,41.00,71.07,300.00,5.00,0.00,30.27,M,10.00,M,CLR,M,M,M,M,M,M,M,M,KBVS 010155Z AUTO 30005KT 10SM CLR 10/05 A3027 RMK A01
BVS,2017-04-01 02:15,-122.4200,48.4700,50.00,42.80,76.18,300.00,5.00,0.00,30.27,M,10.00,M,BKN,M,M,M,6500.00,M,M,M,M,KBVS 010215Z AUTO 30005KT 10SM BKN065 10/06 A3027 RMK A01
BVS,2017-04-01 02:35,-122.4200,48.4700,50.00,42.80,76.18,310.00,5.00,0.00,30.26,M,10.00,M,BKN,BKN,M,M,7000.00,10000.00,M,M,M,KBVS 010235Z AUTO 31005KT 10SM BKN070 BKN100 10/06 A3026 RMK A01
BVS,2017-04-01 02:55,-122.4200,48.4700,50.00,42.80,76.18,0.00,0.00,0.00,30.25,M,10.00,M,OVC,M,M,M,6500.00,M,M,M,M,KBVS 010255Z AUTO 00000KT 10SM OVC065 10/06 A3025 RMK A01
BVS,2017-04-01 03:15,-122.4200,48.4700,48.20,42.80,81.47,0.00,0.00,0.00,30.25,M,10.00,M,OVC,M,M,M,6000.00,M,M,M,M,KBVS 010315Z AUTO 00000KT 10SM OVC060 09/06 A3025 RMK A01
BVS,2017-04-01 03:35,-122.4200,48.4700,48.20,42.80,81.47,300.00,3.00,0.00,30.25,M,10.00,M,OVC,M,M,M,6500.00,M,M,M,M,KBVS 010335Z AUTO 30003KT 10SM OVC065 09/06 A3025 RMK A01
BVS,2017-04-01 03:55,-122.4200,48.4700,48.20,42.80,81.47,300.00,3.00,0.00,30.26,M,10.00,M,OVC,M,M,M,6000.00,M,M,M,M,KBVS 010355Z AUTO 30003KT 10SM OVC060 09/06 A3026 RMK A01
BVS,2017-04-01 04:15,-122.4200,48.4700,48.20,42.80,81.47,0.00,0.00,0.00,30.26,M,10.00,M,BKN,BKN,OVC,M,6000.00,9500.00,11000.00,M,M,KBVS 010415Z AUTO 00000KT 10SM BKN060 BKN095 OVC110 09/06 A3026 RMK A01
BVS,2017-04-01 04:35,-122.4200,48.4700,48.20,42.80,81.47,0.00,0.00,0.00,30.26,M,10.00,M,BKN,BKN,OVC,M,6000.00,7000.00,9000.00,M,M,KBVS 010435Z AUTO 00000KT 10SM BKN060 BKN070 OVC090 09/06 A3026 RMK A01
BVS,2017-04-01 04:55,-122.4200,48.4700,48.20,42.80,81.47,0.00,0.00,0.00,30.26,M,10.00,M,OVC,M,M,M,6000.00,M,M,M,M,KBVS 010455Z AUTO 00000KT 10SM OVC060 09/06 A3026 RMK A01
BVS,2017-04-01 05:15,-122.4200,48.4700,48.20,42.80,81.47,0.00,0.00,0.00,30.25,M,10.00,M,OVC,M,M,M,6000.00,M,M,M,M,KBVS 010515Z AUTO 00000KT 10SM OVC060 09/06 A3025 RMK A01
BVS,2017-04-01 05:35,-122.4200,48.4700,48.20,42.80,81.47,0.00,0.00,0.00,30.25,M,10.00,M,OVC,M,M,M,6000.00,M,M,M,M,KBVS 010535Z AUTO 00000KT 10SM OVC060 09/06 A3025 RMK A01
BVS,2017-04-01 05:55,-122.4200,48.4700,48.20,42.80,81.47,0.00,0.00,0.00,30.25,M,10.00,M,OVC,M,M,M,6000.00,M,M,M,M,KBVS 010555Z AUTO 00000KT 10SM OVC060 09/06 A3025 RMK A01
BVS,2017-04-01 06:15,-122.4200,48.4700,48.20,44.60,87.28,0.00,0.00,0.00,30.25,M,10.00,M,OVC,M,M,M,6000.00,M,M,M,M,KBVS 010615Z AUTO 00000KT 10SM OVC060 09/07 A3025 RMK A01
BVS,2017-04-01 06:35,-122.4200,48.4700,48.20,42.80,81.47,0.00,0.00,0.00,30.24,M,10.00,M,OVC,M,M,M,6000.00,M,M,M,M,KBVS 010635Z AUTO 00000KT 10SM OVC060 09/06 A3024 RMK A01
BVS,2017-04-01 06:55,-122.4200,48.4700,48.20,44.60,87.28,0.00,0.00,0.00,30.23,M,10.00,M,OVC,M,M,M,6000.00,M,M,M,M,KBVS 010655Z AUTO 00000KT 10SM OVC060 09/07 A3023 RMK A01
BVS,2017-04-01 07:15,-122.4200,48.4700,48.20,44.60,87.28,0.00,0.00,0.00,30.22,M,10.00,M,OVC,M,M,M,6000.00,M,M,M,M,KBVS 010715Z AUTO 00000KT 10SM OVC060 09/07 A3022 RMK A01
BVS,2017-04-01 07:35,-122.4200,48.4700,48.20,44.60,87.28,0.00,0.00,0.00,30.20,M,10.00,M,OVC,M,M,M,5500.00,M,M,M,M,KBVS 010735Z AUTO 00000KT 10SM OVC055 09/07 A3020 RMK A01
BVS,2017-04-01 07:55,-122.4200,48.4700,48.20,44.60,87.28,0.00,0.00,0.00,30.20,M,10.00,M,OVC,M,M,M,6000.00,M,M,M,M,KBVS 010755Z AUTO 00000KT 10SM OVC060 09/07 A3020 RMK A01
BVS,2017-04-01 08:15,-122.4200,48.4700,48.20,44.60,87.28,0.00,0.00,0.00,30.19,M,10.00,M,OVC,M,M,M,6000.00,M,M,M,M,KBVS 010815Z AUTO 00000KT 10SM OVC060 09/07 A3019 RMK A01
BVS,2017-04-01 08:35,-122.4200,48.4700,48.20,44.60,87.28,0.00,0.00,0.00,30.19,M,10.00,M,OVC,M,M,M,6000.00,M,M,M,M,KBVS 010835Z AUTO 00000KT 10SM OVC060 09/07 A3019 RMK A01
BVS,2017-04-01 08:55,-122.4200,48.4700,48.20,44.60,87.28,0.00,0.00,0.00,30.18,M,10.00,M,OVC,M,M,M,6500.00,M,M,M,M,KBVS 010855Z AUTO 00000KT 10SM OVC065 09/07 A3018 RMK A01
BVS,2017-04-01 09:15,-122.4200,48.4700,48.20,44.60,87.28,0.00,0.00,0.00,30.17,M,10.00,M,OVC,M,M,M,6000.00,M,M,M,M,KBVS 010915Z AUTO 00000KT 10SM OVC060 09/07 A3017 RMK A01
BVS,2017-04-01 09:35,-122.4200,48.4700,48.20,44.60,87.28,0.00,0.00,0.00,30.16,M,10.00,M,OVC,M,M,M,6000.00,M,M,M,M,KBVS 010935Z AUTO 00000KT 10SM OVC060 09/07 A3016 RMK A01
BVS,2017-04-01 09:55,-122.4200,48.4700,48.20,44.60,87.28,300.00,5.00,0.00,30.18,M,10.00,M,SCT,OVC,M,M,4300.00,5500.00,M,M,M,KBVS 010955Z AUTO 30005KT 10SM SCT043 OVC055 09/07 A3018 RMK A01
BVS,2017-04-01 10:15,-122.4200,48.4700,48.20,44.60,87.28,0.00,0.00,0.00,30.18,M,9.00,M,SCT,OVC,M,M,4200.00,5500.00,M,M,M,KBVS 011015Z AUTO 00000KT 9SM SCT042 OVC055 09/07 A3018 RMK A01
BVS,2017-04-01 10:35,-122.4200,48.4700,46.40,44.60,93.40,40.00,3.00,0.00,30.18,M,7.00,M,FEW,BKN,OVC,M,4000.00,5000.00,5500.00,M,M,KBVS 011035Z AUTO 04003KT 7SM FEW040 BKN050 OVC055 08/07 A3018 RMK A01
BVS,2017-04-01 10:55,-122.4200,48.4700,48.20,44.60,87.28,0.00,0.00,0.03,30.16,M,7.00,M,FEW,SCT,BKN,M,3000.00,3600.00,4900.00,M,M,KBVS 011055Z AUTO 00000KT 7SM FEW030 SCT036 BKN049 09/07 A3016 RMK A01 P0003
BVS,2017-04-01 11:15,-122.4200,48.4700,46.40,44.60,93.40,80.00,4.00,0.00,30.15,M,8.00,M,FEW,FEW,OVC,M,3400.00,4500.00,5500.00,M,M,KBVS 011115Z AUTO 08004KT 8SM FEW034 FEW045 OVC055 08/07 A3015 RMK A01
BVS,2017-04-01 11:35,-122.4200,48.4700,48.20,46.40,93.45,90.00,6.00,0.00,30.14,M,10.00,M,OVC,M,M,M,5000.00,M,M,M,M,KBVS 011135Z AUTO 09006KT 10SM OVC050 09/08 A3014 RMK A01
BVS,2017-04-01 11:55,-122.4200,48.4700,48.20,44.60,87.28,110.00,5.00,0.01,30.14,M,10.00,M,OVC,M,M,M,4900.00,M,M,M,M,KBVS 011155Z AUTO 11005KT 10SM OVC049 09/07 A3014 RMK A01 P0001
BVS,2017-04-01 12:15,-122.4200,48.4700,48.20,44.60,87.28,100.00,5.00,0.00,30.14,M,10.00,M,SCT,OVC,M,M,3600.00,4800.00,M,M,M,KBVS 011215Z AUTO 10005KT 10SM SCT036 OVC048 09/07 A3014 RMK A01
BVS,2017-04-01 12:35,-122.4200,48.4700,48.20,44.60,87.28,0.00,0.00,0.00,30.14,M,6.00,M,FEW,BKN,OVC,M,2900.00,3400.00,4700.00,M,BR,KBVS 011235Z AUTO 00000KT 6SM BR FEW029 BKN034 OVC047 09/07 A3014 RMK A01
BVS,2017-04-01 12:55,-122.4200,48.4700,46.40,44.60,93.40,0.00,0.00,0.03,30.15,M,3.00,M,BKN,OVC,M,M,3300.00,4200.00,M,M,BR,KBVS 011255Z AUTO 00000KT 3SM BR BKN033 OVC042 08/07 A3015 RMK A01 P0003
BVS,2017-04-01 13:15,-122.4200,48.4700,46.40,46.40,100.00,0.00,0.00,0.00,30.15,M,4.00,M,BKN,BKN,OVC,M,3200.00,4100.00,4900.00,M,BR,KBVS 011315Z AUTO 00000KT 4SM BR BKN032 BKN041 OVC049 08/08 A3015 RMK A01
BVS,2017-04-01 13:35,-122.4200,48.4700,46.40,44.60,93.40,90.00,5.00,0.00,30.16,M,6.00,M,FEW,SCT,BKN,M,3100.00,3700.00,4500.00,M,BR,KBVS 011335Z AUTO 09005KT 6SM BR FEW031 SCT037 BKN045 08/07 A3016 RMK A01
BVS,2017-04-01 13:55,-122.4200,48.4700,46.40,44.60,93.40,90.00,6.00,0.04,30.17,M,5.00,M,FEW,BKN,OVC,M,3100.00,4100.00,5000.00,M,BR,KBVS 011355Z AUTO 09006KT 5SM BR FEW031 BKN041 OVC050 08/07 A3017 RMK A01 P0004
BVS,2017-04-01 14:15,-122.4200,48.4700,46.40,46.40,100.00,110.00,3.00,0.00,30.18,M,3.00,M,FEW,SCT,BKN,M,1700.00,2100.00,2800.00,M,BR,KBVS 011415Z AUTO 11003KT 3SM BR FEW017 SCT021 BKN028 08/08 A3018 RMK A01
BVS,2017-04-01 14:35,-122.4200,48.4700,46.40,46.40,100.00,110.00,5.00,0.00,30.17,M,2.50,M,SCT,BKN,OVC,M,2100.00,2800.00,4600.00,M,BR,KBVS 011435Z AUTO 11005KT 2 1/2SM BR SCT021 BKN028 OVC046 08/08 A3017 RMK A01
BVS,2017-04-01 14:55,-122.4200,48.4700,46.40,44.60,93.40,110.00,6.00,0.06,30.17,M,3.00,M,FEW,SCT,BKN,M,2300.00,2900.00,4400.00,M,BR,KBVS 011455Z AUTO 11006KT 3SM BR FEW023 SCT029 BKN044 08/07 A3017 RMK A01 P0006
BVS,2017-04-01 15:15,-122.4200,48.4700,46.40,44.60,93.40,120.00,5.00,0.00,30.18,M,6.00,M,FEW,BKN,OVC,M,3200.00,4200.00,4800.00,M,BR,KBVS 011515Z AUTO 12005KT 6SM BR FEW032 BKN042 OVC048 08/07 A3018 RMK A01
BVS,2017-04-01 15:35,-122.4200,48.4700,48.20,46.40,93.45,120.00,4.00,0.00,30.18,M,2.50,M,FEW,SCT,OVC,M,2700.00,3400.00,4100.00,M,BR,KBVS 011535Z AUTO 12004KT 2 1/2SM BR FEW027 SCT034 OVC041 09/08 A3018 RMK A01
BVS,2017-04-01 15:55,-122.4200,48.4700,48.20,46.40,93.45,M,4.00,0.03,30.19,M,8.00,M,FEW,FEW,OVC,M,1800.00,2600.00,4300.00,M,M,KBVS 011555Z AUTO VRB04KT 8SM FEW018 FEW026 OVC043 09/08 A3019 RMK A01 P0003
BVS,2017-04-01 16:15,-122.4200,48.4700,48.20,46.40,93.45,140.00,6.00,0.00,30.19,M,10.00,M,FEW,SCT,BKN,M,1200.00,1800.00,2200.00,M,M,KBVS 011615Z AUTO 14006KT 10SM FEW012 SCT018 BKN022 09/08 A3019 RMK A01
BVS,2017-04-01 16:35,-122.4200,48.4700,48.20,44.60,87.28,170.00,5.00,0.00,30.20,M,10.00,M,FEW,BKN,OVC,M,1300.00,1900.00,3400.00,M,M,KBVS 011635Z AUTO 17005KT 10SM FEW013 BKN019 OVC034 09/07 A3020 RMK A01
BVS,2017-04-01 16:55,-122.4200,48.4700,48.20,46.40,93.45,160.00,6.00,0.00,30.20,M,10.00,M,SCT,BKN,OVC,M,1300.00,2900.00,3400.00,M,M,KBVS 011655Z AUTO 16006KT 10SM SCT013 BKN029 OVC034 09/08 A3020 RMK A01
BVS,2017-04-01 17:15,-122.4200,48.4700,48.20,46.40,93.45,M,5.00,0.00,30.21,M,10.00,M,FEW,BKN,OVC,M,900.00,1400.00,3100.00,M,M,KBVS 011715Z AUTO VRB05KT 10SM FEW009 BKN014 OVC031 09/08 A3021 RMK A01
BVS,2017-04-01 17:35,-122.4200,48.4700,48.20,46.40,93.45,150.00,7.00,0.00,30.21,M,10.00,M,FEW,BKN,OVC,M,900.00,1400.00,1900.00,M,M,KBVS 011735Z AUTO 15007KT 10SM FEW009 BKN014 OVC019 09/08 A3021 RMK A01
BVS,2017-04-01 17:55,-122.4200,48.4700,50.00,46.40,87.37,180.00,6.00,0.00,30.22,M,10.00,M,BKN,OVC,M,M,1300.00,1800.00,M,M,M,KBVS 011755Z AUTO 18006KT 10SM BKN013 OVC018 10/08 A3022 RMK A01
BVS,2017-04-01 18:15,-122.4200,48.4700,50.00,46.40,87.37,160.00,8.00,0.00,30.22,M,10.00,M,OVC,M,M,M,1400.00,M,M,M,M,KBVS 011815Z AUTO 16008KT 10SM OVC014 10/08 A3022 RMK A01
BVS,2017-04-01 18:35,-122.4200,48.4700,50.00,44.60,81.61,190.00,7.00,0.00,30.22,M,10.00,M,OVC,M,M,M,1200.00,M,M,M,M,KBVS 011835Z AUTO 19007KT 10SM OVC012 10/07 A3022 RMK A01
BVS,2017-04-01 18:55,-122.4200,48.4700,48.20,44.60,87.28,170.00,6.00,0.00,30.23,M,10.00,M,OVC,M,M,M,1300.00,M,M,M,M,KBVS 011855Z AUTO 17006KT 10SM OVC013 09/07 A3023 RMK A01
BVS,2017-04-01 19:15,-122.4200,48.4700,50.00,44.60,81.61,180.00,6.00,0.00,30.23,M,10.00,M,BKN,OVC,M,M,1400.00,2700.00,M,M,M,KBVS 011915Z AUTO 18006KT 10SM BKN014 OVC027 10/07 A3023 RMK A01
BVS,2017-04-01 19:35,-122.4200,48.4700,50.00,44.60,81.61,190.00,5.00,0.00,30.23,M,9.00,M,OVC,M,M,M,1300.00,M,M,M,M,KBVS 011935Z AUTO 19005KT 9SM OVC013 10/07 A3023 RMK A01
BVS,2017-04-01 19:55,-122.4200,48.4700,50.00,46.40,87.37,180.00,5.00,0.00,30.24,M,4.00,M,OVC,M,M,M,1300.00,M,M,M,BR,KBVS 011955Z AUTO 18005KT 4SM BR OVC013 10/08 A3024 RMK A01
BVS,2017-04-01 20:15,-122.4200,48.4700,50.00,46.40,87.37,0.00,0.00,0.00,30.24,M,6.00,M,SCT,OVC,M,M,1300.00,2600.00,M,M,BR,KBVS 012015Z AUTO 00000KT 6SM BR SCT013 OVC026 10/08 A3024 RMK A01
BVS,2017-04-01 20:35,-122.4200,48.4700,51.80,44.60,76.34,160.00,6.00,0.00,30.24,M,10.00,M,OVC,M,M,M,2500.00,M,M,M,M,KBVS 012035Z AUTO 16006KT 10SM OVC025 11/07 A3024 RMK A01
BVS,2017-04-01 20:55,-122.4200,48.4700,51.80,44.60,76.34,M,5.00,0.00,30.24,M,10.00,M,FEW,OVC,M,M,1800.00,2400.00,M,M,M,KBVS 012055Z AUTO VRB05KT 10SM FEW018 OVC024 11/07 A3024 RMK A01
BVS,2017-04-01 21:15,-122.4200,48.4700,51.80,46.40,81.74,160.00,5.00,0.00,30.24,M,10.00,M,FEW,OVC,M,M,1700.00,2400.00,M,M,M,KBVS 012115Z AUTO 16005KT 10SM FEW017 OVC024 11/08 A3024 RMK A01
BVS,2017-04-01 21:35,-122.4200,48.4700,51.80,46.40,81.74,170.00,4.00,0.00,30.24,M,10.00,M,OVC,M,M,M,2100.00,M,M,M,M,KBVS 012135Z AUTO 17004KT 10SM OVC021 11/08 A3024 RMK A01
BVS,2017-04-01 21:55,-122.4200,48.4700,53.60,46.40,76.50,M,4.00,0.00,30.23,M,10.00,M,BKN,OVC,M,M,1900.00,2700.00,M,M,M,KBVS 012155Z AUTO VRB04KT 10SM BKN019 OVC027 12/08 A3023 RMK A01
BVS,2017-04-01 22:15,-122.4200,48.4700,53.60,46.40,76.50,M,3.00,0.00,30.24,M,10.00,M,SCT,BKN,OVC,M,2100.00,2700.00,4600.00,M,M,KBVS 012215Z AUTO VRB03KT 10SM SCT021 BKN027 OVC046 12/08 A3024 RMK A01
BVS,2017-04-01 22:35,-122.4200,48.4700,53.60,46.40,76.50,0.00,0.00,0.00,30.23,M,10.00,M,BKN,BKN,OVC,M,1900.00,2400.00,4600.00,M,M,KBVS 012235Z AUTO 00000KT 10SM BKN019 BKN024 OVC046 12/08 A3023 RMK A01
BVS,2017-04-01 22:55,-122.4200,48.4700,55.40,46.40,71.64,0.00,0.00,0.00,30.24,M,10.00,M,FEW,BKN,OVC,M,1900.00,2500.00,4800.00,M,M,KBVS 012255Z AUTO 00000KT 10SM FEW019 BKN025 OVC048 13/08 A3024 RMK A01
BVS,2017-04-01 23:15,-122.4200,48.4700,53.60,46.40,76.50,0.00,0.00,0.00,30.24,M,10.00,M,FEW,BKN,OVC,M,2100.00,4800.00,5500.00,M,M,KBVS 012315Z AUTO 00000KT 10SM FEW021 BKN048 OVC055 12/08 A3024 RMK A01
BVS,2017-04-01 23:35,-122.4200,48.4700,53.60,46.40,76.50,0.00,0.00,0.00,30.24,M,10.00,M,BKN,M,M,M,5000.00,M,M,M,M,KBVS 012335Z AUTO 00000KT 10SM BKN050 12/08 A3024 RMK A01
BVS,2017-04-01 23:55,-122.4200,48.4700,55.40,46.40,71.64,0.00,0.00,0.00,30.24,M,10.00,M,FEW,OVC,M,M,3000.00,5000.00,M,M,M,KBVS 012355Z AUTO 00000KT 10SM FEW030 OVC050 13/08 A3024 RMK A01
