#DEBUG: Format Typ    -> comma
#DEBUG: Time Period   -> 2017-04-01 00:00:00+00:00 2017-04-02 00:00:00+00:00
#DEBUG: Time Zone     -> Etc/UTC
#DEBUG: Data Contact   -> daryl herzmann akrherz@iastate.edu 515-294-5978
#DEBUG: Entries Found -> -1
station,valid,lon,lat,tmpf, dwpf, relh, drct, sknt, p01i, alti, mslp, vsby, gust, skyc1, skyc2, skyc3, skyc4, skyl1, skyl2, skyl3, skyl4, presentwx, metar
BVU,2017-04-01 00:15,-114.8611,35.9475,64.40,33.80,31.85,70.00,6.00,0.00,29.76,M,10.00,M,M,M,M,M,M,M,M,M,M,KBVU 010015Z AUTO 07006KT 10SM 18/01 A2976 RMK AO2
BVU,2017-04-01 00:35,-114.8611,35.9475,64.40,33.80,31.85,60.00,8.00,0.00,29.77,M,10.00,M,M,M,M,M,M,M,M,M,M,KBVU 010035Z AUTO 06008KT 10SM 18/01 A2977 RMK AO2
BVU,2017-04-01 00:55,-114.8611,35.9475,62.60,33.80,33.93,60.00,8.00,0.00,29.77,M,10.00,M,M,M,M,M,M,M,M,M,M,KBVU 010055Z AUTO 06008KT 10SM 17/01 A2977 RMK AO2
BVU,2017-04-01 01:15,-114.8611,35.9475,62.60,33.80,33.93,40.00,8.00,0.00,29.78,M,10.00,M,M,M,M,M,M,M,M,M,M,KBVU 010115Z AUTO 04008KT 10SM 17/01 A2978 RMK AO2
BVU,2017-04-01 01:35,-114.8611,35.9475,62.60,35.60,36.45,60.00,6.00,0.00,29.79,M,10.00,M,M,M,M,M,M,M,M,M,M,KBVU 010135Z AUTO 06006KT 10SM 17/02 A2979 RMK AO2
BVU,2017-04-01 01:55,-114.8611,35.9475,60.80,35.60,38.85,50.00,5.00,0.00,29.79,M,10.00,M,M,M,M,M,M,M,M,M,M,KBVU 010155Z AUTO 05005KT 10SM 16/02 A2979 RMK AO2
BVU,2017-04-01 02:15,-114.8611,35.9475,60.80,37.40,41.71,60.00,6.00,0.00,29.80,M,10.00,M,M,M,M,M,M,M,M,M,M,KBVU 010215Z AUTO 06006KT 10SM 16/03 A2980 RMK AO2
BVU,2017-04-01 02:35,-114.8611,35.9475,59.00,39.20,47.72,40.00,5.00,0.00,29.81,M,10.00,M,M,M,M,M,M,M,M,M,M,KBVU 010235Z AUTO 04005KT 10SM 15/04 A2981 RMK AO2
BVU,2017-04-01 02:55,-114.8611,35.9475,59.00,39.20,47.72,40.00,7.00,0.00,29.82,M,10.00,M,M,M,M,M,M,M,M,M,M,KBVU 010255Z AUTO 04007KT 10SM 15/04 A2982 RMK AO2
BVU,2017-04-01 03:15,-114.8611,35.9475,59.00,39.20,47.72,30.00,7.00,0.00,29.84,M,10.00,M,M,M,M,M,M,M,M,M,M,KBVU 010315Z AUTO 03007KT 10SM 15/04 A2984 RMK AO2
BVU,2017-04-01 03:35,-114.8611,35.9475,59.00,39.20,47.72,40.00,9.00,0.00,29.84,M,10.00,M,M,M,M,M,M,M,M,M,M,KBVU 010335Z AUTO 04009KT 10SM 15/04 A2984 RMK AO2
BVU,2017-04-01 03:55,-114.8611,35.9475,57.20,39.20,50.91,50.00,7.00,0.00,29.85,M,10.00,M,M,M,M,M,M,M,M,M,M,KBVU 010355Z AUTO 05007KT 10SM 14/04 A2985 RMK AO2
BVU,2017-04-01 04:15,-114.8611,35.9475,57.20,39.20,50.91,50.00,7.00,0.00,29.86,M,10.00,M,M,M,M,M,M,M,M,M,M,KBVU 010415Z AUTO 05007KT 10SM 14/04 A2986 RMK AO2
BVU,2017-04-01 04:35,-114.8611,35.9475,57.20,39.20,50.91,30.00,6.00,0.00,29.87,M,10.00,M,M,M,M,M,M,M,M,M,M,KBVU 010435Z AUTO 03006KT 10SM 14/04 A2987 RMK AO2
BVU,2017-04-01 04:55,-114.8611,35.9475,57.20,39.20,50.91,30.00,6.00,0.00,29.86,M,10.00,M,M,M,M,M,M,M,M,M,M,KBVU 010455Z AUTO 03006KT 10SM 14/04 A2986 RMK AO2
BVU,2017-04-01 05:15,-114.8611,35.9475,57.20,37.40,47.44,10.00,6.00,0.00,29.87,M,10.00,M,M,M,M,M,M,M,M,M,M,KBVU 010515Z AUTO 01006KT 10SM 14/03 A2987 RMK AO2
BVU,2017-04-01 05:35,-114.8611,35.9475,57.20,37.40,47.44,20.00,5.00,0.00,29.87,M,10.00,M,M,M,M,M,M,M,M,M,M,KBVU 010535Z AUTO 02005KT 10SM 14/03 A2987 RMK AO2
BVU,2017-04-01 05:55,-114.8611,35.9475,57.20,39.20,50.91,40.00,6.00,0.00,29.88,M,10.00,M,M,M,M,M,M,M,M,M,M,KBVU 010555Z AUTO 04006KT 10SM 14/04 A2988 RMK AO2
BVU,2017-04-01 06:15,-114.8611,35.9475,57.20,37.40,47.44,330.00,6.00,0.00,29.88,M,10.00,M,M,M,M,M,M,M,M,M,M,KBVU 010615Z AUTO 33006KT 10SM 14/03 A2988 RMK AO2
BVU,2017-04-01 06:35,-114.8611,35.9475,57.20,37.40,47.44,340.00,8.00,0.00,29.88,M,10.00,M,M,M,M,M,M,M,M,M,M,KBVU 010635Z AUTO 34008KT 10SM 14/03 A2988 RMK AO2
BVU,2017-04-01 06:55,-114.8611,35.9475,57.20,37.40,47.44,360.00,7.00,0.00,29.89,M,10.00,M,M,M,M,M,M,M,M,M,M,KBVU 010655Z AUTO 36007KT 10SM 14/03 A2989 RMK AO2
BVU,2017-04-01 07:15,-114.8611,35.9475,57.20,39.20,50.91,350.00,6.00,0.00,29.89,M,10.00,M,M,M,M,M,M,M,M,M,M,KBVU 010715Z AUTO 35006KT 10SM 14/04 A2989 RMK AO2
BVU,2017-04-01 07:35,-114.8611,35.9475,57.20,37.40,47.44,350.00,5.00,0.00,29.90,M,10.00,M,M,M,M,M,M,M,M,M,M,KBVU 010735Z AUTO 35005KT 10SM 14/03 A2990 RMK AO2
BVU,2017-04-01 07:55,-114.8611,35.9475,57.20,37.40,47.44,360.00,5.00,0.00,29.90,M,10.00,M,M,M,M,M,M,M,M,M,M,KBVU 010755Z AUTO 36005KT 10SM 14/03 A2990 RMK AO2
BVU,2017-04-01 08:15,-114.8611,35.9475,57.20,37.40,47.44,340.00,7.00,0.00,29.89,M,10.00,M,M,M,M,M,M,M,M,M,M,KBVU 010815Z AUTO 34007KT 10SM 14/03 A2989 RMK AO2
BVU,2017-04-01 08:35,-114.8611,35.9475,57.20,35.60,44.19,330.00,7.00,0.00,29.89,M,10.00,M,M,M,M,M,M,M,M,M,M,KBVU 010835Z AUTO 33007KT 10SM 14/02 A2989 RMK AO2
BVU,2017-04-01 08:55,-114.8611,35.9475,57.20,37.40,47.44,340.00,5.00,0.00,29.89,M,10.00,M,M,M,M,M,M,M,M,M,M,KBVU 010855Z AUTO 34005KT 10SM 14/03 A2989 RMK AO2
BVU,2017-04-01 09:15,-114.8611,35.9475,55.40,35.60,47.16,330.00,5.00,0.00,29.89,M,10.00,M,M,M,M,M,M,M,M,M,M,KBVU 010915Z AUTO 33005KT 10SM 13/02 A2989 RMK AO2
BVU,2017-04-01 09:35,-114.8611,35.9475,57.20,35.60,44.19,340.00,8.00,0.00,29.89,M,10.00,M,M,M,M,M,M,M,M,M,M,KBVU 010935Z AUTO 34008KT 10SM 14/02 A2989 RMK AO2
BVU,2017-04-01 09:55,-114.8611,35.9475,57.20,33.80,41.13,340.00,13.00,0.00,29.88,M,10.00,M,M,M,M,M,M,M,M,M,M,KBVU 010955Z AUTO 34013KT 10SM 14/01 A2988 RMK AO2
BVU,2017-04-01 10:15,-114.8611,35.9475,59.00,33.80,38.56,340.00,11.00,0.00,29.89,M,10.00,18.00,M,M,M,M,M,M,M,M,M,KBVU 011015Z AUTO 34011G18KT 10SM 15/01 A2989 RMK AO2
BVU,2017-04-01 10:35,-114.8611,35.9475,59.00,33.80,38.56,330.00,15.00,0.00,29.89,M,10.00,M,M,M,M,M,M,M,M,M,M,KBVU 011035Z AUTO 33015KT 10SM 15/01 A2989 RMK AO2
BVU,2017-04-01 10:55,-114.8611,35.9475,57.20,33.80,41.13,320.00,14.00,0.00,29.89,M,10.00,M,M,M,M,M,M,M,M,M,M,KBVU 011055Z AUTO 32014KT 10SM 14/01 A2989 RMK AO2
BVU,2017-04-01 11:15,-114.8611,35.9475,57.20,33.80,41.13,320.00,15.00,0.00,29.89,M,10.00,M,M,M,M,M,M,M,M,M,M,KBVU 011115Z AUTO 32015KT 10SM 14/01 A2989 RMK AO2
BVU,2017-04-01 11:35,-114.8611,35.9475,57.20,33.80,41.13,320.00,11.00,0.00,29.90,M,10.00,M,M,M,M,M,M,M,M,M,M,KBVU 011135Z AUTO 32011KT 10SM 14/01 A2990 RMK AO2
BVU,2017-04-01 11:55,-114.8611,35.9475,57.20,33.80,41.13,320.00,6.00,0.00,29.91,M,10.00,M,M,M,M,M,M,M,M,M,M,KBVU 011155Z AUTO 32006KT 10SM 14/01 A2991 RMK AO2
BVU,2017-04-01 12:15,-114.8611,35.9475,57.20,33.80,41.13,330.00,7.00,0.00,29.91,M,10.00,13.00,M,M,M,M,M,M,M,M,M,KBVU 011215Z AUTO 33007G13KT 10SM 14/01 A2991 RMK AO2
BVU,2017-04-01 12:35,-114.8611,35.9475,57.20,33.80,41.13,330.00,7.00,0.00,29.91,M,10.00,12.00,M,M,M,M,M,M,M,M,M,KBVU 011235Z AUTO 33007G12KT 10SM 14/01 A2991 RMK AO2
BVU,2017-04-01 12:55,-114.8611,35.9475,57.20,33.80,41.13,330.00,10.00,0.00,29.91,M,10.00,M,M,M,M,M,M,M,M,M,M,KBVU 011255Z AUTO 33010KT 10SM 14/01 A2991 RMK AO2
BVU,2017-04-01 13:15,-114.8611,35.9475,57.20,33.80,41.13,330.00,12.00,0.00,29.92,M,10.00,M,M,M,M,M,M,M,M,M,M,KBVU 011315Z AUTO 33012KT 10SM 14/01 A2992 RMK AO2
BVU,2017-04-01 13:35,-114.8611,35.9475,57.20,33.80,41.13,340.00,11.00,0.00,29.93,M,10.00,M,M,M,M,M,M,M,M,M,M,KBVU 011335Z AUTO 34011KT 10SM 14/01 A2993 RMK AO2
BVU,2017-04-01 13:55,-114.8611,35.9475,57.20,33.80,41.13,340.00,12.00,0.00,29.94,M,10.00,M,M,M,M,M,M,M,M,M,M,KBVU 011355Z AUTO 34012KT 10SM 14/01 A2994 RMK AO2
BVU,2017-04-01 14:15,-114.8611,35.9475,59.00,33.80,38.56,350.00,10.00,0.00,29.96,M,10.00,M,M,M,M,M,M,M,M,M,M,KBVU 011415Z AUTO 35010KT 10SM 15/01 A2996 RMK AO2
BVU,2017-04-01 14:35,-114.8611,35.9475,59.00,33.80,38.56,330.00,12.00,0.00,29.96,M,10.00,M,M,M,M,M,M,M,M,M,M,KBVU 011435Z AUTO 33012KT 10SM 15/01 A2996 RMK AO2
BVU,2017-04-01 14:55,-114.8611,35.9475,60.80,33.80,36.16,320.00,8.00,0.00,29.97,M,10.00,M,M,M,M,M,M,M,M,M,M,KBVU 011455Z AUTO 32008KT 10SM 16/01 A2997 RMK AO2
BVU,2017-04-01 15:15,-114.8611,35.9475,62.60,33.80,33.93,320.00,9.00,0.00,29.97,M,10.00,M,M,M,M,M,M,M,M,M,M,KBVU 011515Z AUTO 32009KT 10SM 17/01 A2997 RMK AO2
BVU,2017-04-01 15:35,-114.8611,35.9475,62.60,35.60,36.45,320.00,9.00,0.00,29.97,M,10.00,M,M,M,M,M,M,M,M,M,M,KBVU 011535Z AUTO 32009KT 10SM 17/02 A2997 RMK AO2
BVU,2017-04-01 15:55,-114.8611,35.9475,64.40,35.60,34.22,330.00,8.00,0.00,29.97,M,10.00,M,M,M,M,M,M,M,M,M,M,KBVU 011555Z AUTO 33008KT 10SM 18/02 A2997 RMK AO2
BVU,2017-04-01 16:15,-114.8611,35.9475,66.20,35.60,32.14,350.00,11.00,0.00,29.98,M,10.00,17.00,M,M,M,M,M,M,M,M,M,KBVU 011615Z AUTO 35011G17KT 10SM 19/02 A2998 RMK AO2
BVU,2017-04-01 16:35,-114.8611,35.9475,66.20,33.80,29.92,340.00,12.00,0.00,29.98,M,10.00,18.00,M,M,M,M,M,M,M,M,M,KBVU 011635Z AUTO 34012G18KT 10SM 19/01 A2998 RMK AO2
BVU,2017-04-01 16:55,-114.8611,35.9475,68.00,33.80,28.11,360.00,11.00,0.00,29.99,M,10.00,20.00,M,M,M,M,M,M,M,M,M,KBVU 011655Z AUTO 36011G20KT 10SM 20/01 A2999 RMK AO2
BVU,2017-04-01 17:15,-114.8611,35.9475,68.00,33.80,28.11,360.00,9.00,0.00,29.99,M,10.00,19.00,M,M,M,M,M,M,M,M,M,KBVU 011715Z AUTO 36009G19KT 10SM 20/01 A2999 RMK AO2
BVU,2017-04-01 17:35,-114.8611,35.9475,69.80,33.80,26.43,10.00,15.00,0.00,29.99,M,10.00,20.00,M,M,M,M,M,M,M,M,M,KBVU 011735Z AUTO 01015G20KT 10SM 21/01 A2999 RMK AO2
BVU,2017-04-01 17:55,-114.8611,35.9475,69.80,35.60,28.39,40.00,14.00,0.00,30.00,M,10.00,M,M,M,M,M,M,M,M,M,M,KBVU 011755Z AUTO 04014KT 10SM 21/02 A3000 RMK AO2
BVU,2017-04-01 18:15,-114.8611,35.9475,68.00,33.80,28.11,50.00,13.00,0.00,30.00,M,10.00,M,M,M,M,M,M,M,M,M,M,KBVU 011815Z AUTO 05013KT 10SM 20/01 A3000 RMK AO2
BVU,2017-04-01 18:35,-114.8611,35.9475,69.80,35.60,28.39,50.00,13.00,0.00,30.00,M,10.00,20.00,M,M,M,M,M,M,M,M,M,KBVU 011835Z AUTO 05013G20KT 10SM 21/02 A3000 RMK AO2
BVU,2017-04-01 18:55,-114.8611,35.9475,69.80,33.80,26.43,50.00,12.00,0.00,30.00,M,10.00,18.00,M,M,M,M,M,M,M,M,M,KBVU 011855Z AUTO 05012G18KT 10SM 21/01 A3000 RMK AO2
BVU,2017-04-01 19:15,-114.8611,35.9475,71.60,33.80,24.86,40.00,13.00,0.00,30.01,M,10.00,M,M,M,M,M,M,M,M,M,M,KBVU 011915Z AUTO 04013KT 10SM 22/01 A3001 RMK AO2
BVU,2017-04-01 19:35,-114.8611,35.9475,69.80,35.60,28.39,60.00,14.00,0.00,30.00,M,10.00,20.00,M,M,M,M,M,M,M,M,M,KBVU 011935Z AUTO 06014G20KT 10SM 21/02 A3000 RMK AO2
BVU,2017-04-01 19:55,-114.8611,35.9475,71.60,33.80,24.86,60.00,12.00,0.00,30.00,M,10.00,19.00,M,M,M,M,M,M,M,M,M,KBVU 011955Z AUTO 06012G19KT 10SM 22/01 A3000 RMK AO2
BVU,2017-04-01 20:15,-114.8611,35.9475,71.60,33.80,24.86,30.00,11.00,0.00,29.99,M,10.00,18.00,M,M,M,M,M,M,M,M,M,KBVU 012015Z AUTO 03011G18KT 10SM 22/01 A2999 RMK AO2
BVU,2017-04-01 20:35,-114.8611,35.9475,71.60,33.80,24.86,50.00,13.00,0.00,29.99,M,10.00,18.00,M,M,M,M,M,M,M,M,M,KBVU 012035Z AUTO 05013G18KT 10SM 22/01 A2999 RMK AO2
BVU,2017-04-01 20:55,-114.8611,35.9475,71.60,33.80,24.86,60.00,15.00,0.00,29.98,M,10.00,M,M,M,M,M,M,M,M,M,M,KBVU 012055Z AUTO 06015KT 10SM 22/01 A2998 RMK AO2
BVU,2017-04-01 21:15,-114.8611,35.9475,73.40,33.80,23.39,50.00,11.00,0.00,29.97,M,10.00,17.00,M,M,M,M,M,M,M,M,M,KBVU 012115Z AUTO 05011G17KT 10SM 23/01 A2997 RMK AO2
BVU,2017-04-01 21:35,-114.8611,35.9475,73.40,33.80,23.39,60.00,12.00,0.00,29.97,M,10.00,M,M,M,M,M,M,M,M,M,M,KBVU 012135Z AUTO 06012KT 10SM 23/01 A2997 RMK AO2
BVU,2017-04-01 21:55,-114.8611,35.9475,71.60,33.80,24.86,30.00,6.00,0.00,29.97,M,10.00,14.00,M,M,M,M,M,M,M,M,M,KBVU 012155Z AUTO 03006G14KT 10SM 22/01 A2997 RMK AO2
BVU,2017-04-01 22:15,-114.8611,35.9475,73.40,33.80,23.39,70.00,13.00,0.00,29.96,M,10.00,20.00,M,M,M,M,M,M,M,M,M,KBVU 012215Z AUTO 07013G20KT 10SM 23/01 A2996 RMK AO2
BVU,2017-04-01 22:35,-114.8611,35.9475,73.40,33.80,23.39,80.00,8.00,0.00,29.96,M,10.00,14.00,M,M,M,M,M,M,M,M,M,KBVU 012235Z AUTO 08008G14KT 10SM 23/01 A2996 RMK AO2
BVU,2017-04-01 22:55,-114.8611,35.9475,73.40,33.80,23.39,50.00,9.00,0.00,29.96,M,10.00,M,M,M,M,M,M,M,M,M,M,KBVU 012255Z AUTO 05009KT 020V080 10SM 23/01 A2996 RMK AO2
BVU,2017-04-01 23:15,-114.8611,35.9475,73.40,33.80,23.39,50.00,9.00,0.00,29.95,M,10.00,15.00,M,M,M,M,M,M,M,M,M,KBVU 012315Z AUTO 05009G15KT 10SM 23/01 A2995 RMK AO2
BVU,2017-04-01 23:35,-114.8611,35.9475,73.40,33.80,23.39,80.00,6.00,0.00,29.95,M,10.00,12.00,M,M,M,M,M,M,M,M,M,KBVU 012335Z AUTO 08006G12KT 10SM 23/01 A2995 RMK AO2
BVU,2017-04-01 23:55,-114.8611,35.9475,73.40,33.80,23.39,70.00,7.00,0.00,29.95,M,10.00,M,M,M,M,M,M,M,M,M,M,KBVU 012355Z AUTO 07007KT 10SM 23/01 A2995 RMK AO2
