#DEBUG: Format Typ    -> comma
#DEBUG: Time Period   -> 2017-04-01 00:00:00+00:00 2017-04-02 00:00:00+00:00
#DEBUG: Time Zone     -> Etc/UTC
#DEBUG: Data Contact   -> daryl herzmann akrherz@iastate.edu 515-294-5978
#DEBUG: Entries Found -> -1
station,valid,lon,lat,tmpf, dwpf, relh, drct, sknt, p01i, alti, mslp, vsby, gust, skyc1, skyc2, skyc3, skyc4, skyl1, skyl2, skyl3, skyl4, presentwx, metar
BVX,2017-04-01 00:00,-91.6472,35.7261,M,M,M,40.00,3.00,M,29.90,M,10.00,M,CLR,M,M,M,M,M,M,M,M,KBVX 010000Z AUTO 04003KT 10SM CLR A2990 RMK MADISHF
BVX,2017-04-01 00:10,-91.6472,35.7261,M,M,M,80.00,4.00,M,29.91,M,10.00,M,CLR,M,M,M,M,M,M,M,M,KBVX 010010Z AUTO 08004KT 10SM CLR A2991 RMK MADISHF
BVX,2017-04-01 00:15,-91.6472,35.7261,68.00,46.40,45.88,100.00,9.00,0.00,29.91,M,10.00,M,CLR,M,M,M,M,M,M,M,M,KBVX 010015Z AUTO 10009KT 10SM CLR 20/08 A2991 RMK AO1
BVX,2017-04-01 00:20,-91.6472,35.7261,M,M,M,100.00,8.00,M,29.92,M,10.00,M,CLR,M,M,M,M,M,M,M,M,KBVX 010020Z AUTO 10008KT 10SM CLR A2992 RMK MADISHF
BVX,2017-04-01 00:30,-91.6472,35.7261,M,M,M,100.00,8.00,M,29.92,M,10.00,M,CLR,M,M,M,M,M,M,M,M,KBVX 010030Z AUTO 10008KT 10SM CLR A2992 RMK MADISHF
BVX,2017-04-01 00:35,-91.6472,35.7261,64.40,48.20,55.63,110.00,6.00,0.00,29.92,M,10.00,M,CLR,M,M,M,M,M,M,M,M,KBVX 010035Z AUTO 11006KT 10SM CLR 18/09 A2992 RMK AO1
BVX,2017-04-01 00:40,-91.6472,35.7261,M,M,M,100.00,6.00,M,29.93,M,10.00,M,CLR,M,M,M,M,M,M,M,M,KBVX 010040Z AUTO 10006KT 10SM CLR A2993 RMK MADISHF
BVX,2017-04-01 00:50,-91.6472,35.7261,M,M,M,120.00,6.00,M,29.93,M,10.00,M,CLR,M,M,M,M,M,M,M,M,KBVX 010050Z AUTO 12006KT 10SM CLR A2993 RMK MADISHF
BVX,2017-04-01 00:55,-91.6472,35.7261,62.60,48.20,59.26,110.00,5.00,0.00,29.93,M,10.00,M,CLR,M,M,M,M,M,M,M,M,KBVX 010055Z AUTO 11005KT 10SM CLR 17/09 A2993 RMK AO1
BVX,2017-04-01 01:00,-91.6472,35.7261,M,M,M,120.00,5.00,M,29.93,M,10.00,M,CLR,M,M,M,M,M,M,M,M,KBVX 010100Z AUTO 12005KT 10SM CLR A2993 RMK MADISHF
BVX,2017-04-01 01:10,-91.6472,35.7261,M,M,M,120.00,4.00,M,29.94,M,10.00,M,CLR,M,M,M,M,M,M,M,M,KBVX 010110Z AUTO 12004KT 10SM CLR A2994 RMK MADISHF
BVX,2017-04-01 01:15,-91.6472,35.7261,60.80,48.20,63.15,120.00,5.00,0.00,29.94,M,10.00,M,CLR,M,M,M,M,M,M,M,M,KBVX 010115Z AUTO 12005KT 10SM CLR 16/09 A2994 RMK AO1
BVX,2017-04-01 01:20,-91.6472,35.7261,M,M,M,110.00,5.00,M,29.94,M,10.00,M,CLR,M,M,M,M,M,M,M,M,KBVX 010120Z AUTO 11005KT 10SM CLR A2994 RMK MADISHF
BVX,2017-04-01 01:30,-91.6472,35.7261,M,M,M,90.00,5.00,M,29.94,M,10.00,M,CLR,M,M,M,M,M,M,M,M,KBVX 010130Z AUTO 09005KT 10SM CLR A2994 RMK MADISHF
BVX,2017-04-01 01:35,-91.6472,35.7261,60.80,48.20,63.15,90.00,5.00,0.00,29.94,M,10.00,M,CLR,M,M,M,M,M,M,M,M,KBVX 010135Z AUTO 09005KT 10SM CLR 16/09 A2994 RMK AO1
BVX,2017-04-01 01:40,-91.6472,35.7261,M,M,M,90.00,5.00,M,29.95,M,10.00,M,CLR,M,M,M,M,M,M,M,M,KBVX 010140Z AUTO 09005KT 10SM CLR A2995 RMK MADISHF
BVX,2017-04-01 01:50,-91.6472,35.7261,M,M,M,90.00,5.00,M,29.95,M,10.00,M,CLR,M,M,M,M,M,M,M,M,KBVX 010150Z AUTO 09005KT 10SM CLR A2995 RMK MADISHF
BVX,2017-04-01 01:55,-91.6472,35.7261,60.80,50.00,67.54,90.00,5.00,0.00,29.95,M,10.00,M,CLR,M,M,M,M,M,M,M,M,KBVX 010155Z AUTO 09005KT 10SM CLR 16/10 A2995 RMK AO1
BVX,2017-04-01 02:00,-91.6472,35.7261,M,M,M,80.00,4.00,M,29.96,M,10.00,M,CLR,M,M,M,M,M,M,M,M,KBVX 010200Z AUTO 08004KT 10SM CLR A2996 RMK MADISHF
BVX,2017-04-01 02:10,-91.6472,35.7261,M,M,M,80.00,5.00,M,29.96,M,10.00,M,CLR,M,M,M,M,M,M,M,M,KBVX 010210Z AUTO 08005KT 10SM CLR A2996 RMK MADISHF
BVX,2017-04-01 02:15,-91.6472,35.7261,60.80,50.00,67.54,70.00,5.00,0.00,29.97,M,10.00,M,CLR,M,M,M,M,M,M,M,M,KBVX 010215Z AUTO 07005KT 10SM CLR 16/10 A2997 RMK AO1
BVX,2017-04-01 02:20,-91.6472,35.7261,M,M,M,60.00,5.00,M,29.97,M,10.00,M,CLR,M,M,M,M,M,M,M,M,KBVX 010220Z AUTO 06005KT 10SM CLR A2997 RMK MADISHF
BVX,2017-04-01 02:30,-91.6472,35.7261,M,M,M,60.00,5.00,M,29.97,M,10.00,M,CLR,M,M,M,M,M,M,M,M,KBVX 010230Z AUTO 06005KT 10SM CLR A2997 RMK MADISHF
BVX,2017-04-01 02:35,-91.6472,35.7261,60.80,50.00,67.54,70.00,6.00,0.00,29.97,M,10.00,M,CLR,M,M,M,M,M,M,M,M,KBVX 010235Z AUTO 07006KT 10SM CLR 16/10 A2997 RMK AO1
BVX,2017-04-01 02:40,-91.6472,35.7261,M,M,M,70.00,7.00,M,29.98,M,10.00,M,CLR,M,M,M,M,M,M,M,M,KBVX 010240Z AUTO 07007KT 10SM CLR A2998 RMK MADISHF
BVX,2017-04-01 02:50,-91.6472,35.7261,M,M,M,70.00,6.00,M,29.98,M,10.00,M,CLR,M,M,M,M,M,M,M,M,KBVX 010250Z AUTO 07006KT 10SM CLR A2998 RMK MADISHF
BVX,2017-04-01 02:55,-91.6472,35.7261,59.00,50.00,72.01,70.00,6.00,0.00,29.98,M,10.00,M,CLR,M,M,M,M,M,M,M,M,KBVX 010255Z AUTO 07006KT 10SM CLR 15/10 A2998 RMK AO1 52027
BVX,2017-04-01 03:00,-91.6472,35.7261,M,M,M,70.00,7.00,M,29.99,M,10.00,M,CLR,M,M,M,M,M,M,M,M,KBVX 010300Z AUTO 07007KT 10SM CLR A2999 RMK MADISHF
BVX,2017-04-01 03:10,-91.6472,35.7261,M,M,M,40.00,5.00,M,29.99,M,10.00,M,CLR,M,M,M,M,M,M,M,M,KBVX 010310Z AUTO 04005KT 10SM CLR A2999 RMK MADISHF
BVX,2017-04-01 03:15,-91.6472,35.7261,59.00,48.20,67.33,40.00,5.00,0.00,29.99,M,10.00,M,CLR,M,M,M,M,M,M,M,M,KBVX 010315Z AUTO 04005KT 10SM CLR 15/09 A2999 RMK AO1
BVX,2017-04-01 03:20,-91.6472,35.7261,M,M,M,30.00,5.00,M,29.99,M,10.00,M,CLR,M,M,M,M,M,M,M,M,KBVX 010320Z AUTO 03005KT 10SM CLR A2999 RMK MADISHF
BVX,2017-04-01 03:30,-91.6472,35.7261,M,M,M,30.00,6.00,M,30.00,M,10.00,M,CLR,M,M,M,M,M,M,M,M,KBVX 010330Z AUTO 03006KT 10SM CLR A3000 RMK MADISHF
BVX,2017-04-01 03:35,-91.6472,35.7261,57.20,46.40,67.12,40.00,7.00,0.00,30.00,M,10.00,M,CLR,M,M,M,M,M,M,M,M,KBVX 010335Z AUTO 04007KT 10SM CLR 14/08 A3000 RMK AO1
BVX,2017-04-01 03:40,-91.6472,35.7261,M,M,M,30.00,6.00,M,30.00,M,10.00,M,CLR,M,M,M,M,M,M,M,M,KBVX 010340Z AUTO 03006KT 10SM CLR A3000 RMK MADISHF
BVX,2017-04-01 03:50,-91.6472,35.7261,M,M,M,40.00,6.00,M,30.00,M,10.00,M,CLR,M,M,M,M,M,M,M,M,KBVX 010350Z AUTO 04006KT 10SM CLR A3000 RMK MADISHF
BVX,2017-04-01 03:55,-91.6472,35.7261,57.20,46.40,67.12,30.00,5.00,0.00,30.00,M,10.00,M,CLR,M,M,M,M,M,M,M,M,KBVX 010355Z AUTO 03005KT 10SM CLR 14/08 A3000 RMK AO1
BVX,2017-04-01 04:00,-91.6472,35.7261,M,M,M,40.00,5.00,M,30.00,M,10.00,M,CLR,M,M,M,M,M,M,M,M,KBVX 010400Z AUTO 04005KT 10SM CLR A3000 RMK MADISHF
BVX,2017-04-01 04:10,-91.6472,35.7261,M,M,M,30.00,6.00,M,30.01,M,10.00,M,CLR,M,M,M,M,M,M,M,M,KBVX 010410Z AUTO 03006KT 10SM CLR A3001 RMK MADISHF
BVX,2017-04-01 04:15,-91.6472,35.7261,57.20,44.60,62.69,30.00,5.00,0.00,30.01,M,10.00,M,CLR,M,M,M,M,M,M,M,M,KBVX 010415Z AUTO 03005KT 10SM CLR 14/07 A3001 RMK AO1
BVX,2017-04-01 04:20,-91.6472,35.7261,M,M,M,30.00,7.00,M,30.01,M,10.00,M,CLR,M,M,M,M,M,M,M,M,KBVX 010420Z AUTO 03007KT 10SM CLR A3001 RMK MADISHF
BVX,2017-04-01 04:30,-91.6472,35.7261,M,M,M,30.00,5.00,M,30.01,M,10.00,M,CLR,M,M,M,M,M,M,M,M,KBVX 010430Z AUTO 03005KT 10SM CLR A3001 RMK MADISHF
BVX,2017-04-01 04:35,-91.6472,35.7261,55.40,44.60,66.91,30.00,5.00,0.00,30.01,M,10.00,M,CLR,M,M,M,M,M,M,M,M,KBVX 010435Z AUTO 03005KT 10SM CLR 13/07 A3001 RMK AO1
BVX,2017-04-01 04:40,-91.6472,35.7261,M,M,M,30.00,6.00,M,30.01,M,10.00,M,CLR,M,M,M,M,M,M,M,M,KBVX 010440Z AUTO 03006KT 10SM CLR A3001 RMK MADISHF
BVX,2017-04-01 04:50,-91.6472,35.7261,M,M,M,20.00,6.00,M,30.02,M,10.00,M,CLR,M,M,M,M,M,M,M,M,KBVX 010450Z AUTO 02006KT 10SM CLR A3002 RMK MADISHF
BVX,2017-04-01 04:55,-91.6472,35.7261,55.40,44.60,66.91,20.00,6.00,0.00,30.02,M,10.00,M,CLR,M,M,M,M,M,M,M,M,KBVX 010455Z AUTO 02006KT 10SM CLR 13/07 A3002 RMK AO1
BVX,2017-04-01 05:00,-91.6472,35.7261,M,M,M,20.00,6.00,M,30.03,M,10.00,M,CLR,M,M,M,M,M,M,M,M,KBVX 010500Z AUTO 02006KT 10SM CLR A3003 RMK MADISHF
BVX,2017-04-01 05:10,-91.6472,35.7261,M,M,M,30.00,5.00,M,30.03,M,10.00,M,CLR,M,M,M,M,M,M,M,M,KBVX 010510Z AUTO 03005KT 10SM CLR A3003 RMK MADISHF
BVX,2017-04-01 05:15,-91.6472,35.7261,53.60,44.60,71.45,30.00,6.00,0.00,30.04,M,10.00,M,CLR,M,M,M,M,M,M,M,M,KBVX 010515Z AUTO 03006KT 10SM CLR 12/07 A3004 RMK AO1
BVX,2017-04-01 05:20,-91.6472,35.7261,M,M,M,30.00,7.00,M,30.04,M,10.00,M,CLR,M,M,M,M,M,M,M,M,KBVX 010520Z AUTO 03007KT 10SM CLR A3004 RMK MADISHF
BVX,2017-04-01 05:30,-91.6472,35.7261,M,M,M,30.00,4.00,M,30.04,M,10.00,M,CLR,M,M,M,M,M,M,M,M,KBVX 010530Z AUTO 03004KT 10SM CLR A3004 RMK MADISHF
BVX,2017-04-01 05:35,-91.6472,35.7261,53.60,44.60,71.45,30.00,6.00,0.00,30.04,M,10.00,M,CLR,M,M,M,M,M,M,M,M,KBVX 010535Z AUTO 03006KT 10SM CLR 12/07 A3004 RMK AO1
BVX,2017-04-01 05:40,-91.6472,35.7261,M,M,M,30.00,5.00,M,30.04,M,10.00,M,CLR,M,M,M,M,M,M,M,M,KBVX 010540Z AUTO 03005KT 10SM CLR A3004 RMK MADISHF
BVX,2017-04-01 05:50,-91.6472,35.7261,M,M,M,50.00,3.00,M,30.05,M,10.00,M,CLR,M,M,M,M,M,M,M,M,KBVX 010550Z AUTO 05003KT 10SM CLR A3005 RMK MADISHF
BVX,2017-04-01 05:55,-91.6472,35.7261,53.60,44.60,71.45,0.00,0.00,0.00,30.05,M,10.00,M,CLR,M,M,M,M,M,M,M,M,KBVX 010555Z AUTO 00000KT 10SM CLR 12/07 A3005 RMK AO1 10210 20120 52024
BVX,2017-04-01 06:00,-91.6472,35.7261,M,M,M,0.00,0.00,M,30.05,M,10.00,M,CLR,M,M,M,M,M,M,M,M,KBVX 010600Z AUTO 00000KT 10SM CLR A3005 RMK MADISHF
BVX,2017-04-01 06:10,-91.6472,35.7261,M,M,M,0.00,0.00,M,30.05,M,10.00,M,CLR,M,M,M,M,M,M,M,M,KBVX 010610Z AUTO 00000KT 10SM CLR A3005 RMK MADISHF
BVX,2017-04-01 06:15,-91.6472,35.7261,51.80,44.60,76.34,50.00,3.00,0.00,30.05,M,10.00,M,CLR,M,M,M,M,M,M,M,M,KBVX 010615Z AUTO 05003KT 10SM CLR 11/07 A3005 RMK AO1
BVX,2017-04-01 06:20,-91.6472,35.7261,M,M,M,0.00,0.00,M,30.05,M,10.00,M,CLR,M,M,M,M,M,M,M,M,KBVX 010620Z AUTO 00000KT 10SM CLR A3005 RMK MADISHF
BVX,2017-04-01 06:30,-91.6472,35.7261,M,M,M,0.00,0.00,M,30.05,M,10.00,M,CLR,M,M,M,M,M,M,M,M,KBVX 010630Z AUTO 00000KT 10SM CLR A3005 RMK MADISHF
BVX,2017-04-01 06:35,-91.6472,35.7261,51.80,42.80,71.26,0.00,0.00,0.00,30.05,M,10.00,M,CLR,M,M,M,M,M,M,M,M,KBVX 010635Z AUTO 00000KT 10SM CLR 11/06 A3005 RMK AO1
BVX,2017-04-01 06:40,-91.6472,35.7261,M,M,M,50.00,4.00,M,30.06,M,10.00,M,CLR,M,M,M,M,M,M,M,M,KBVX 010640Z AUTO 05004KT 10SM CLR A3006 RMK MADISHF
BVX,2017-04-01 06:50,-91.6472,35.7261,M,M,M,50.00,5.00,M,30.06,M,10.00,M,CLR,M,M,M,M,M,M,M,M,KBVX 010650Z AUTO 05005KT 10SM CLR A3006 RMK MADISHF
BVX,2017-04-01 06:55,-91.6472,35.7261,51.80,42.80,71.26,50.00,3.00,0.00,30.06,M,10.00,M,CLR,M,M,M,M,M,M,M,M,KBVX 010655Z AUTO 05003KT 10SM CLR 11/06 A3006 RMK AO1
BVX,2017-04-01 07:00,-91.6472,35.7261,M,M,M,40.00,4.00,M,30.06,M,10.00,M,CLR,M,M,M,M,M,M,M,M,KBVX 010700Z AUTO 04004KT 10SM CLR A3006 RMK MADISHF
BVX,2017-04-01 07:10,-91.6472,35.7261,M,M,M,60.00,3.00,M,30.06,M,10.00,M,CLR,M,M,M,M,M,M,M,M,KBVX 010710Z AUTO 06003KT 10SM CLR A3006 RMK MADISHF
BVX,2017-04-01 07:15,-91.6472,35.7261,51.80,42.80,71.26,30.00,3.00,0.00,30.06,M,10.00,M,CLR,M,M,M,M,M,M,M,M,KBVX 010715Z AUTO 03003KT 10SM CLR 11/06 A3006 RMK AO1
BVX,2017-04-01 07:20,-91.6472,35.7261,M,M,M,10.00,3.00,M,30.07,M,10.00,M,CLR,M,M,M,M,M,M,M,M,KBVX 010720Z AUTO 01003KT 10SM CLR A3007 RMK MADISHF
BVX,2017-04-01 07:30,-91.6472,35.7261,M,M,M,0.00,0.00,M,30.07,M,10.00,M,CLR,M,M,M,M,M,M,M,M,KBVX 010730Z AUTO 00000KT 10SM CLR A3007 RMK MADISHF
BVX,2017-04-01 07:35,-91.6472,35.7261,50.00,42.80,76.18,0.00,0.00,0.00,30.08,M,10.00,M,CLR,M,M,M,M,M,M,M,M,KBVX 010735Z AUTO 00000KT 10SM CLR 10/06 A3008 RMK AO1
BVX,2017-04-01 07:40,-91.6472,35.7261,M,M,M,20.00,3.00,M,30.08,M,10.00,M,CLR,M,M,M,M,M,M,M,M,KBVX 010740Z AUTO 02003KT 10SM CLR A3008 RMK MADISHF
BVX,2017-04-01 07:50,-91.6472,35.7261,M,M,M,0.00,0.00,M,30.07,M,10.00,M,CLR,M,M,M,M,M,M,M,M,KBVX 010750Z AUTO 00000KT 10SM CLR A3007 RMK MADISHF
BVX,2017-04-01 07:55,-91.6472,35.7261,50.00,42.80,76.18,0.00,0.00,0.00,30.08,M,10.00,M,CLR,M,M,M,M,M,M,M,M,KBVX 010755Z AUTO 00000KT 10SM CLR 10/06 A3008 RMK AO1
BVX,2017-04-01 08:00,-91.6472,35.7261,M,M,M,0.00,0.00,M,30.08,M,10.00,M,CLR,M,M,M,M,M,M,M,M,KBVX 010800Z AUTO 00000KT 10SM CLR A3008 RMK MADISHF
BVX,2017-04-01 08:10,-91.6472,35.7261,M,M,M,30.00,3.00,M,30.08,M,10.00,M,CLR,M,M,M,M,M,M,M,M,KBVX 010810Z AUTO 03003KT 10SM CLR A3008 RMK MADISHF
BVX,2017-04-01 08:15,-91.6472,35.7261,48.20,42.80,81.47,20.00,3.00,0.00,30.08,M,10.00,M,CLR,M,M,M,M,M,M,M,M,KBVX 010815Z AUTO 02003KT 10SM CLR 09/06 A3008 RMK AO1
BVX,2017-04-01 08:20,-91.6472,35.7261,M,M,M,30.00,3.00,M,30.08,M,10.00,M,CLR,M,M,M,M,M,M,M,M,KBVX 010820Z AUTO 03003KT 10SM CLR A3008 RMK MADISHF
BVX,2017-04-01 08:30,-91.6472,35.7261,M,M,M,30.00,3.00,M,30.09,M,10.00,M,CLR,M,M,M,M,M,M,M,M,KBVX 010830Z AUTO 03003KT 10SM CLR A3009 RMK MADISHF
BVX,2017-04-01 08:35,-91.6472,35.7261,48.20,42.80,81.47,20.00,4.00,0.00,30.09,M,10.00,M,CLR,M,M,M,M,M,M,M,M,KBVX 010835Z AUTO 02004KT 10SM CLR 09/06 A3009 RMK AO1
BVX,2017-04-01 08:40,-91.6472,35.7261,M,M,M,20.00,3.00,M,30.09,M,10.00,M,CLR,M,M,M,M,M,M,M,M,KBVX 010840Z AUTO 02003KT 10SM CLR A3009 RMK MADISHF
BVX,2017-04-01 08:50,-91.6472,35.7261,M,M,M,0.00,0.00,M,30.09,M,10.00,M,CLR,M,M,M,M,M,M,M,M,KBVX 010850Z AUTO 00000KT 10SM CLR A3009 RMK MADISHF
BVX,2017-04-01 08:55,-91.6472,35.7261,48.20,42.80,81.47,10.00,3.00,0.00,30.09,M,10.00,M,CLR,M,M,M,M,M,M,M,M,KBVX 010855Z AUTO 01003KT 10SM CLR 09/06 A3009 RMK AO1 52014
BVX,2017-04-01 09:00,-91.6472,35.7261,M,M,M,20.00,3.00,M,30.09,M,10.00,M,CLR,M,M,M,M,M,M,M,M,KBVX 010900Z AUTO 02003KT 10SM CLR A3009 RMK MADISHF
BVX,2017-04-01 09:05,-91.6472,35.7261,M,M,M,10.00,3.00,M,30.09,M,10.00,M,CLR,M,M,M,M,M,M,M,M,KBVX 010905Z AUTO 01003KT 10SM CLR A3009 RMK MADISHF
BVX,2017-04-01 09:10,-91.6472,35.7261,M,M,M,0.00,0.00,M,30.09,M,10.00,M,CLR,M,M,M,M,M,M,M,M,KBVX 010910Z AUTO 00000KT 10SM CLR A3009 RMK MADISHF
BVX,2017-04-01 09:15,-91.6472,35.7261,48.20,42.80,81.47,50.00,4.00,0.00,30.09,M,10.00,M,CLR,M,M,M,M,M,M,M,M,KBVX 010915Z AUTO 05004KT 10SM CLR 09/06 A3009 RMK AO1
BVX,2017-04-01 09:20,-91.6472,35.7261,M,M,M,40.00,3.00,M,30.09,M,10.00,M,CLR,M,M,M,M,M,M,M,M,KBVX 010920Z AUTO 04003KT 10SM CLR A3009 RMK MADISHF
BVX,2017-04-01 09:30,-91.6472,35.7261,M,M,M,50.00,4.00,M,30.10,M,10.00,M,CLR,M,M,M,M,M,M,M,M,KBVX 010930Z AUTO 05004KT 10SM CLR A3010 RMK MADISHF
BVX,2017-04-01 09:35,-91.6472,35.7261,48.20,42.80,81.47,40.00,4.00,0.00,30.10,M,10.00,M,CLR,M,M,M,M,M,M,M,M,KBVX 010935Z AUTO 04004KT 10SM CLR 09/06 A3010 RMK AO1
BVX,2017-04-01 09:40,-91.6472,35.7261,M,M,M,40.00,3.00,M,30.10,M,10.00,M,CLR,M,M,M,M,M,M,M,M,KBVX 010940Z AUTO 04003KT 10SM CLR A3010 RMK MADISHF
BVX,2017-04-01 09:50,-91.6472,35.7261,M,M,M,40.00,3.00,M,30.10,M,10.00,M,CLR,M,M,M,M,M,M,M,M,KBVX 010950Z AUTO 04003KT 10SM CLR A3010 RMK MADISHF
BVX,2017-04-01 09:55,-91.6472,35.7261,48.20,42.80,81.47,40.00,4.00,0.00,30.10,M,10.00,M,CLR,M,M,M,M,M,M,M,M,KBVX 010955Z AUTO 04004KT 10SM CLR 09/06 A3010 RMK AO1
BVX,2017-04-01 10:00,-91.6472,35.7261,M,M,M,40.00,3.00,M,30.11,M,10.00,M,CLR,M,M,M,M,M,M,M,M,KBVX 011000Z AUTO 04003KT 10SM CLR A3011 RMK MADISHF
BVX,2017-04-01 10:05,-91.6472,35.7261,M,M,M,50.00,4.00,M,30.11,M,10.00,M,CLR,M,M,M,M,M,M,M,M,KBVX 011005Z AUTO 05004KT 10SM CLR A3011 RMK MADISHF
BVX,2017-04-01 10:10,-91.6472,35.7261,M,M,M,50.00,5.00,M,30.11,M,10.00,M,CLR,M,M,M,M,M,M,M,M,KBVX 011010Z AUTO 05005KT 10SM CLR A3011 RMK MADISHF
BVX,2017-04-01 10:15,-91.6472,35.7261,48.20,42.80,81.47,40.00,6.00,0.00,30.11,M,10.00,M,CLR,M,M,M,M,M,M,M,M,KBVX 011015Z AUTO 04006KT 10SM CLR 09/06 A3011 RMK AO1
BVX,2017-04-01 10:20,-91.6472,35.7261,M,M,M,50.00,5.00,M,30.11,M,10.00,M,CLR,M,M,M,M,M,M,M,M,KBVX 011020Z AUTO 05005KT 10SM CLR A3011 RMK MADISHF
BVX,2017-04-01 10:25,-91.6472,35.7261,M,M,M,60.00,5.00,M,30.11,M,10.00,M,CLR,M,M,M,M,M,M,M,M,KBVX 011025Z AUTO 06005KT 10SM CLR A3011 RMK MADISHF
BVX,2017-04-01 10:30,-91.6472,35.7261,M,M,M,40.00,5.00,M,30.11,M,10.00,M,CLR,M,M,M,M,M,M,M,M,KBVX 011030Z AUTO 04005KT 10SM CLR A3011 RMK MADISHF
BVX,2017-04-01 10:35,-91.6472,35.7261,48.20,42.80,81.47,40.00,4.00,0.00,30.11,M,10.00,M,CLR,M,M,M,M,M,M,M,M,KBVX 011035Z AUTO 04004KT 10SM CLR 09/06 A3011 RMK AO1
BVX,2017-04-01 10:40,-91.6472,35.7261,M,M,M,50.00,4.00,M,30.12,M,10.00,M,CLR,M,M,M,M,M,M,M,M,KBVX 011040Z AUTO 05004KT 10SM CLR A3012 RMK MADISHF
BVX,2017-04-01 10:45,-91.6472,35.7261,M,M,M,50.00,3.00,M,30.12,M,10.00,M,CLR,M,M,M,M,M,M,M,M,KBVX 011045Z AUTO 05003KT 10SM CLR A3012 RMK MADISHF
BVX,2017-04-01 10:50,-91.6472,35.7261,M,M,M,50.00,4.00,M,30.12,M,10.00,M,CLR,M,M,M,M,M,M,M,M,KBVX 011050Z AUTO 05004KT 10SM CLR A3012 RMK MADISHF
BVX,2017-04-01 10:55,-91.6472,35.7261,48.20,42.80,81.47,40.00,3.00,0.00,30.12,M,10.00,M,CLR,M,M,M,M,M,M,M,M,KBVX 011055Z AUTO 04003KT 10SM CLR 09/06 A3012 RMK AO1
BVX,2017-04-01 11:00,-91.6472,35.7261,M,M,M,60.00,4.00,M,30.12,M,10.00,M,CLR,M,M,M,M,M,M,M,M,KBVX 011100Z AUTO 06004KT 10SM CLR A3012 RMK MADISHF
BVX,2017-04-01 11:05,-91.6472,35.7261,M,M,M,50.00,4.00,M,30.12,M,10.00,M,CLR,M,M,M,M,M,M,M,M,KBVX 011105Z AUTO 05004KT 10SM CLR A3012 RMK MADISHF
BVX,2017-04-01 11:10,-91.6472,35.7261,M,M,M,80.00,4.00,M,30.12,M,10.00,M,CLR,M,M,M,M,M,M,M,M,KBVX 011110Z AUTO 08004KT 10SM CLR A3012 RMK MADISHF
BVX,2017-04-01 11:15,-91.6472,35.7261,46.40,42.80,87.19,80.00,3.00,0.00,30.12,M,10.00,M,CLR,M,M,M,M,M,M,M,M,KBVX 011115Z AUTO 08003KT 10SM CLR 08/06 A3012 RMK AO1
BVX,2017-04-01 11:20,-91.6472,35.7261,M,M,M,60.00,4.00,M,30.13,M,10.00,M,CLR,M,M,M,M,M,M,M,M,KBVX 011120Z AUTO 06004KT 10SM CLR A3013 RMK MADISHF
BVX,2017-04-01 11:25,-91.6472,35.7261,M,M,M,70.00,3.00,M,30.13,M,10.00,M,CLR,M,M,M,M,M,M,M,M,KBVX 011125Z AUTO 07003KT 10SM CLR A3013 RMK MADISHF
BVX,2017-04-01 11:35,-91.6472,35.7261,46.40,42.80,87.19,60.00,3.00,0.00,30.13,M,10.00,M,CLR,M,M,M,M,M,M,M,M,KBVX 011135Z AUTO 06003KT 10SM CLR 08/06 A3013 RMK AO1
BVX,2017-04-01 11:45,-91.6472,35.7261,M,M,M,60.00,5.00,M,30.14,M,10.00,M,CLR,M,M,M,M,M,M,M,M,KBVX 011145Z AUTO 06005KT 10SM CLR A3014 RMK MADISHF
BVX,2017-04-01 11:55,-91.6472,35.7261,46.40,42.80,87.19,60.00,4.00,0.00,30.14,M,10.00,M,CLR,M,M,M,M,M,M,M,M,KBVX 011155Z AUTO 06004KT 10SM CLR 08/06 A3014 RMK AO1 10120 20080 52017
BVX,2017-04-01 12:05,-91.6472,35.7261,M,M,M,60.00,5.00,M,30.14,M,10.00,M,CLR,M,M,M,M,M,M,M,M,KBVX 011205Z AUTO 06005KT 10SM CLR A3014 RMK MADISHF
BVX,2017-04-01 12:15,-91.6472,35.7261,46.40,42.80,87.19,50.00,6.00,0.00,30.14,M,10.00,M,CLR,M,M,M,M,M,M,M,M,KBVX 011215Z AUTO 05006KT 10SM CLR 08/06 A3014 RMK AO1
BVX,2017-04-01 12:25,-91.6472,35.7261,M,M,M,70.00,6.00,M,30.14,M,10.00,M,CLR,M,M,M,M,M,M,M,M,KBVX 011225Z AUTO 07006KT 10SM CLR A3014 RMK MADISHF
BVX,2017-04-01 12:35,-91.6472,35.7261,48.20,42.80,81.47,70.00,5.00,0.00,30.15,M,10.00,M,CLR,M,M,M,M,M,M,M,M,KBVX 011235Z AUTO 07005KT 10SM CLR 09/06 A3015 RMK AO1
BVX,2017-04-01 12:45,-91.6472,35.7261,M,M,M,70.00,5.00,M,30.15,M,10.00,M,CLR,M,M,M,M,M,M,M,M,KBVX 011245Z AUTO 07005KT 10SM CLR A3015 RMK MADISHF
BVX,2017-04-01 12:55,-91.6472,35.7261,M,M,M,60.00,7.00,M,30.15,M,10.00,M,CLR,M,M,M,M,M,M,M,M,KBVX 011255Z AUTO 06007KT 10SM CLR A3015 RMK WND 03V10  MADISHF
BVX,2017-04-01 13:05,-91.6472,35.7261,M,M,M,70.00,7.00,M,30.16,M,10.00,M,CLR,M,M,M,M,M,M,M,M,KBVX 011305Z AUTO 07007KT 10SM CLR A3016 RMK MADISHF
BVX,2017-04-01 13:15,-91.6472,35.7261,50.00,42.80,76.18,70.00,8.00,0.00,30.16,M,10.00,M,SCT,M,M,M,1600.00,M,M,M,M,KBVX 011315Z AUTO 07008KT 10SM SCT016 10/06 A3016 RMK AO1
BVX,2017-04-01 13:25,-91.6472,35.7261,M,M,M,60.00,8.00,M,30.16,M,10.00,M,BKN,M,M,M,1600.00,M,M,M,M,KBVX 011325Z AUTO 06008KT 10SM BKN016 A3016 RMK MADISHF
BVX,2017-04-01 13:30,-91.6472,35.7261,M,M,M,70.00,9.00,M,30.17,M,10.00,M,BKN,M,M,M,1600.00,M,M,M,M,KBVX 011330Z AUTO 07009KT 10SM BKN016 A3017 RMK MADISHF
BVX,2017-04-01 13:35,-91.6472,35.7261,50.00,42.80,76.18,70.00,9.00,0.00,30.17,M,10.00,M,OVC,M,M,M,1600.00,M,M,M,M,KBVX 011335Z AUTO 07009KT 10SM OVC016 10/06 A3017 RMK AO1
BVX,2017-04-01 13:40,-91.6472,35.7261,M,M,M,60.00,6.00,M,30.17,M,10.00,M,OVC,M,M,M,1600.00,M,M,M,M,KBVX 011340Z AUTO 06006KT 10SM OVC016 A3017 RMK MADISHF
BVX,2017-04-01 13:45,-91.6472,35.7261,M,M,M,60.00,9.00,M,30.17,M,10.00,M,OVC,M,M,M,1600.00,M,M,M,M,KBVX 011345Z AUTO 06009KT 10SM OVC016 A3017 RMK MADISHF
BVX,2017-04-01 13:55,-91.6472,35.7261,51.80,42.80,71.26,70.00,9.00,0.00,30.17,M,10.00,M,OVC,M,M,M,1600.00,M,M,M,M,KBVX 011355Z AUTO 07009KT 10SM OVC016 11/06 A3017 RMK AO1
BVX,2017-04-01 14:05,-91.6472,35.7261,M,M,M,80.00,10.00,M,30.17,M,10.00,M,OVC,M,M,M,1600.00,M,M,M,M,KBVX 011405Z AUTO 08010KT 10SM OVC016 A3017 RMK MADISHF
BVX,2017-04-01 14:15,-91.6472,35.7261,51.80,42.80,71.26,90.00,11.00,0.00,30.18,M,10.00,M,OVC,M,M,M,1600.00,M,M,M,M,KBVX 011415Z AUTO 09011KT 10SM OVC016 11/06 A3018 RMK AO1
BVX,2017-04-01 14:25,-91.6472,35.7261,M,M,M,90.00,10.00,M,30.18,M,10.00,M,OVC,M,M,M,1600.00,M,M,M,M,KBVX 011425Z AUTO 09010KT 10SM OVC016 A3018 RMK MADISHF
BVX,2017-04-01 14:35,-91.6472,35.7261,51.80,42.80,71.26,80.00,9.00,0.00,30.18,M,10.00,M,OVC,M,M,M,1600.00,M,M,M,M,KBVX 011435Z AUTO 08009KT 10SM OVC016 11/06 A3018 RMK AO1
BVX,2017-04-01 14:45,-91.6472,35.7261,M,M,M,70.00,7.00,M,30.19,M,10.00,M,OVC,M,M,M,1400.00,M,M,M,M,KBVX 011445Z AUTO 07007KT 10SM OVC014 A3019 RMK MADISHF
BVX,2017-04-01 14:55,-91.6472,35.7261,51.80,42.80,71.26,70.00,8.00,0.00,30.19,M,10.00,M,OVC,M,M,M,1400.00,M,M,M,M,KBVX 011455Z AUTO 07008KT 10SM OVC014 11/06 A3019 RMK AO1 52017
BVX,2017-04-01 15:05,-91.6472,35.7261,M,M,M,60.00,7.00,M,30.20,M,10.00,M,OVC,M,M,M,1400.00,M,M,M,M,KBVX 011505Z AUTO 06007KT 10SM OVC014 A3020 RMK MADISHF
BVX,2017-04-01 15:15,-91.6472,35.7261,51.80,44.60,76.34,70.00,5.00,0.00,30.20,M,10.00,M,OVC,M,M,M,1400.00,M,M,M,M,KBVX 011515Z AUTO 07005KT 10SM OVC014 11/07 A3020 RMK AO1
BVX,2017-04-01 15:25,-91.6472,35.7261,M,M,M,80.00,8.00,M,30.21,M,10.00,M,OVC,M,M,M,1400.00,M,M,M,M,KBVX 011525Z AUTO 08008KT 10SM OVC014 A3021 RMK MADISHF
BVX,2017-04-01 15:35,-91.6472,35.7261,51.80,44.60,76.34,70.00,6.00,0.00,30.21,M,10.00,M,OVC,M,M,M,1400.00,M,M,M,M,KBVX 011535Z AUTO 07006KT 10SM OVC014 11/07 A3021 RMK AO1
BVX,2017-04-01 15:45,-91.6472,35.7261,M,M,M,60.00,6.00,M,30.21,M,10.00,M,OVC,M,M,M,1400.00,M,M,M,M,KBVX 011545Z AUTO 06006KT 10SM OVC014 A3021 RMK MADISHF
BVX,2017-04-01 15:55,-91.6472,35.7261,53.60,44.60,71.45,100.00,7.00,0.00,30.21,M,10.00,M,OVC,M,M,M,1400.00,M,M,M,M,KBVX 011555Z AUTO 10007KT 10SM OVC014 12/07 A3021 RMK AO1
BVX,2017-04-01 16:05,-91.6472,35.7261,M,M,M,70.00,7.00,M,30.21,M,10.00,M,OVC,M,M,M,1600.00,M,M,M,M,KBVX 011605Z AUTO 07007KT 10SM OVC016 A3021 RMK MADISHF
BVX,2017-04-01 16:15,-91.6472,35.7261,53.60,44.60,71.45,90.00,7.00,0.00,30.21,M,10.00,M,OVC,M,M,M,1600.00,M,M,M,M,KBVX 011615Z AUTO 09007KT 10SM OVC016 12/07 A3021 RMK AO1
BVX,2017-04-01 16:25,-91.6472,35.7261,M,M,M,80.00,7.00,M,30.21,M,10.00,M,OVC,M,M,M,1600.00,M,M,M,M,KBVX 011625Z AUTO 08007KT 10SM OVC016 A3021 RMK MADISHF
BVX,2017-04-01 16:35,-91.6472,35.7261,53.60,44.60,71.45,90.00,7.00,0.00,30.21,M,10.00,M,OVC,M,M,M,1600.00,M,M,M,M,KBVX 011635Z AUTO 09007KT 10SM OVC016 12/07 A3021 RMK AO1
BVX,2017-04-01 16:40,-91.6472,35.7261,M,M,M,60.00,6.00,M,30.21,M,10.00,M,OVC,M,M,M,1600.00,M,M,M,M,KBVX 011640Z AUTO 06006KT 10SM OVC016 A3021 RMK MADISHF
BVX,2017-04-01 16:45,-91.6472,35.7261,M,M,M,80.00,7.00,M,30.21,M,10.00,M,OVC,M,M,M,1600.00,M,M,M,M,KBVX 011645Z AUTO 08007KT 10SM OVC016 A3021 RMK MADISHF
BVX,2017-04-01 16:50,-91.6472,35.7261,M,M,M,80.00,8.00,M,30.20,M,10.00,M,OVC,M,M,M,1600.00,M,M,M,M,KBVX 011650Z AUTO 08008KT 10SM OVC016 A3020 RMK MADISHF
BVX,2017-04-01 16:55,-91.6472,35.7261,55.40,44.60,66.91,70.00,8.00,0.00,30.20,M,10.00,M,OVC,M,M,M,1600.00,M,M,M,M,KBVX 011655Z AUTO 07008KT 10SM OVC016 13/07 A3020 RMK AO1
BVX,2017-04-01 17:00,-91.6472,35.7261,M,M,M,100.00,4.00,M,30.20,M,10.00,M,OVC,M,M,M,1800.00,M,M,M,M,KBVX 011700Z AUTO 10004KT 10SM OVC018 A3020 RMK MADISHF
BVX,2017-04-01 17:05,-91.6472,35.7261,M,M,M,30.00,7.00,M,30.20,M,10.00,M,OVC,M,M,M,1800.00,M,M,M,M,KBVX 011705Z AUTO 03007KT 10SM OVC018 A3020 RMK MADISHF
BVX,2017-04-01 17:10,-91.6472,35.7261,M,M,M,50.00,4.00,M,30.20,M,10.00,M,OVC,M,M,M,1800.00,M,M,M,M,KBVX 011710Z AUTO 05004KT 10SM OVC018 A3020 RMK MADISHF
BVX,2017-04-01 17:15,-91.6472,35.7261,55.40,44.60,66.91,90.00,6.00,0.00,30.20,M,10.00,M,OVC,M,M,M,1800.00,M,M,M,M,KBVX 011715Z AUTO 09006KT 10SM OVC018 13/07 A3020 RMK AO1
BVX,2017-04-01 17:20,-91.6472,35.7261,M,M,M,60.00,5.00,M,30.19,M,10.00,M,OVC,M,M,M,1800.00,M,M,M,M,KBVX 011720Z AUTO 06005KT 10SM OVC018 A3019 RMK MADISHF
BVX,2017-04-01 17:25,-91.6472,35.7261,M,M,M,90.00,9.00,M,30.19,M,10.00,M,OVC,M,M,M,1800.00,M,M,M,M,KBVX 011725Z AUTO 09009KT 10SM OVC018 A3019 RMK MADISHF
BVX,2017-04-01 17:30,-91.6472,35.7261,M,M,M,110.00,7.00,M,30.18,M,10.00,M,OVC,M,M,M,1800.00,M,M,M,M,KBVX 011730Z AUTO 11007KT 10SM OVC018 A3018 RMK WND 08V14  MADISHF
BVX,2017-04-01 17:35,-91.6472,35.7261,57.20,44.60,62.69,80.00,5.00,0.00,30.18,M,10.00,M,OVC,M,M,M,2000.00,M,M,M,M,KBVX 011735Z AUTO 08005KT 10SM OVC020 14/07 A3018 RMK AO1
BVX,2017-04-01 17:40,-91.6472,35.7261,M,M,M,100.00,8.00,M,30.18,M,10.00,M,OVC,M,M,M,1999.00,M,M,M,M,KBVX 011740Z AUTO 10008KT 10SM OVC019 A3018 RMK MADISHF
BVX,2017-04-01 17:45,-91.6472,35.7261,M,M,M,100.00,8.00,M,30.18,M,10.00,M,BKN,M,M,M,1999.00,M,M,M,M,KBVX 011745Z AUTO 10008KT 10SM BKN019 A3018 RMK MADISHF
BVX,2017-04-01 17:50,-91.6472,35.7261,M,M,M,90.00,10.00,M,30.18,M,10.00,M,BKN,M,M,M,1999.00,M,M,M,M,KBVX 011750Z AUTO 09010KT 10SM BKN019 A3018 RMK MADISHF
BVX,2017-04-01 17:55,-91.6472,35.7261,57.20,46.40,67.12,120.00,9.00,0.00,30.17,M,10.00,M,BKN,M,M,M,2000.00,M,M,M,M,KBVX 011755Z AUTO 12009KT 080V140 10SM BKN020 14/08 A3017 RMK AO1 10140 20080 57007
BVX,2017-04-01 18:00,-91.6472,35.7261,M,M,M,100.00,6.00,M,30.17,M,10.00,M,BKN,M,M,M,1999.00,M,M,M,M,KBVX 011800Z AUTO 10006KT 10SM BKN019 A3017 RMK MADISHF
BVX,2017-04-01 18:05,-91.6472,35.7261,M,M,M,110.00,9.00,M,30.17,M,10.00,M,SCT,M,M,M,2200.00,M,M,M,M,KBVX 011805Z AUTO 11009KT 10SM SCT022 A3017 RMK MADISHF
BVX,2017-04-01 18:10,-91.6472,35.7261,M,M,M,80.00,8.00,M,30.17,M,10.00,M,SCT,M,M,M,2200.00,M,M,M,M,KBVX 011810Z AUTO 08008KT 10SM SCT022 A3017 RMK MADISHF
BVX,2017-04-01 18:15,-91.6472,35.7261,M,M,M,80.00,7.00,M,30.17,M,10.00,M,SCT,M,M,M,2200.00,M,M,M,M,KBVX 011815Z AUTO 08007KT 10SM SCT022 A3017 RMK WND 04V13  MADISHF
BVX,2017-04-01 18:20,-91.6472,35.7261,M,M,M,80.00,9.00,M,30.17,M,10.00,14.00,SCT,M,M,M,2200.00,M,M,M,M,KBVX 011820Z AUTO 08009G14KT 10SM SCT022 A3017 RMK MADISHF
BVX,2017-04-01 18:25,-91.6472,35.7261,M,M,M,100.00,9.00,M,30.17,M,10.00,14.00,SCT,M,M,M,2200.00,M,M,M,M,KBVX 011825Z AUTO 10009G14KT 10SM SCT022 A3017 RMK MADISHF
BVX,2017-04-01 18:35,-91.6472,35.7261,60.80,46.40,59.01,100.00,9.00,0.00,30.17,M,10.00,M,FEW,M,M,M,2200.00,M,M,M,M,KBVX 011835Z AUTO 10009KT 10SM FEW022 16/08 A3017 RMK AO1
BVX,2017-04-01 18:45,-91.6472,35.7261,M,M,M,90.00,9.00,M,30.17,M,10.00,M,CLR,M,M,M,M,M,M,M,M,KBVX 011845Z AUTO 09009KT 10SM CLR A3017 RMK MADISHF
BVX,2017-04-01 18:55,-91.6472,35.7261,60.80,46.40,59.01,80.00,8.00,0.00,30.17,M,10.00,M,CLR,M,M,M,M,M,M,M,M,KBVX 011855Z AUTO 08008KT 050V120 10SM CLR 16/08 A3017 RMK AO1
BVX,2017-04-01 19:00,-91.6472,35.7261,M,M,M,110.00,9.00,M,30.16,M,10.00,M,CLR,M,M,M,M,M,M,M,M,KBVX 011900Z AUTO 11009KT 10SM CLR A3016 RMK MADISHF
BVX,2017-04-01 19:05,-91.6472,35.7261,M,M,M,120.00,8.00,M,30.16,M,10.00,M,CLR,M,M,M,M,M,M,M,M,KBVX 011905Z AUTO 12008KT 10SM CLR A3016 RMK WND 07V14  MADISHF
BVX,2017-04-01 19:10,-91.6472,35.7261,M,M,M,110.00,6.00,M,30.16,M,10.00,M,CLR,M,M,M,M,M,M,M,M,KBVX 011910Z AUTO 11006KT 10SM CLR A3016 RMK MADISHF
BVX,2017-04-01 19:15,-91.6472,35.7261,62.60,46.40,55.37,110.00,9.00,0.00,30.16,M,10.00,M,CLR,M,M,M,M,M,M,M,M,KBVX 011915Z AUTO 11009KT 10SM CLR 17/08 A3016 RMK AO1
BVX,2017-04-01 19:20,-91.6472,35.7261,M,M,M,120.00,7.00,M,30.15,M,10.00,M,CLR,M,M,M,M,M,M,M,M,KBVX 011920Z AUTO 12007KT 10SM CLR A3015 RMK MADISHF
BVX,2017-04-01 19:25,-91.6472,35.7261,M,M,M,90.00,4.00,M,30.15,M,10.00,M,CLR,M,M,M,M,M,M,M,M,KBVX 011925Z AUTO 09004KT 10SM CLR A3015 RMK MADISHF
BVX,2017-04-01 19:35,-91.6472,35.7261,62.60,48.20,59.26,110.00,5.00,0.00,30.15,M,10.00,M,CLR,M,M,M,M,M,M,M,M,KBVX 011935Z AUTO 11005KT 10SM CLR 17/09 A3015 RMK AO1
BVX,2017-04-01 19:45,-91.6472,35.7261,M,M,M,100.00,7.00,M,30.14,M,10.00,M,CLR,M,M,M,M,M,M,M,M,KBVX 011945Z AUTO 10007KT 10SM CLR A3014 RMK MADISHF
BVX,2017-04-01 19:55,-91.6472,35.7261,62.60,48.20,59.26,110.00,8.00,0.00,30.14,M,10.00,M,CLR,M,M,M,M,M,M,M,M,KBVX 011955Z AUTO 11008KT 10SM CLR 17/09 A3014 RMK AO1
BVX,2017-04-01 20:05,-91.6472,35.7261,M,M,M,100.00,10.00,M,30.14,M,10.00,M,CLR,M,M,M,M,M,M,M,M,KBVX 012005Z AUTO 10010KT 10SM CLR A3014 RMK MADISHF
BVX,2017-04-01 20:15,-91.6472,35.7261,62.60,48.20,59.26,90.00,9.00,0.00,30.13,M,10.00,M,CLR,M,M,M,M,M,M,M,M,KBVX 012015Z AUTO 09009KT 10SM CLR 17/09 A3013 RMK AO1
BVX,2017-04-01 20:25,-91.6472,35.7261,M,M,M,100.00,9.00,M,30.13,M,10.00,M,CLR,M,M,M,M,M,M,M,M,KBVX 012025Z AUTO 10009KT 10SM CLR A3013 RMK MADISHF
BVX,2017-04-01 20:35,-91.6472,35.7261,M,M,M,110.00,9.00,M,30.12,M,10.00,M,CLR,M,M,M,M,M,M,M,M,KBVX 012035Z AUTO 11009KT 10SM CLR A3012 RMK WND 08V14  MADISHF
BVX,2017-04-01 20:40,-91.6472,35.7261,M,M,M,90.00,10.00,M,30.12,M,10.00,M,CLR,M,M,M,M,M,M,M,M,KBVX 012040Z AUTO 09010KT 10SM CLR A3012 RMK WND 07V13  MADISHF
BVX,2017-04-01 20:45,-91.6472,35.7261,M,M,M,100.00,9.00,M,30.12,M,10.00,15.00,CLR,M,M,M,M,M,M,M,M,KBVX 012045Z AUTO 10009G15KT 10SM CLR A3012 RMK MADISHF
BVX,2017-04-01 20:55,-91.6472,35.7261,62.60,48.20,59.26,120.00,10.00,0.00,30.12,M,10.00,M,CLR,M,M,M,M,M,M,M,M,KBVX 012055Z AUTO 12010KT 10SM CLR 17/09 A3012 RMK AO1 57017
BVX,2017-04-01 21:00,-91.6472,35.7261,M,M,M,110.00,10.00,M,30.11,M,10.00,M,CLR,M,M,M,M,M,M,M,M,KBVX 012100Z AUTO 11010KT 10SM CLR A3011 RMK MADISHF
BVX,2017-04-01 21:05,-91.6472,35.7261,M,M,M,100.00,12.00,M,30.11,M,10.00,16.00,CLR,M,M,M,M,M,M,M,M,KBVX 012105Z AUTO 10012G16KT 10SM CLR A3011 RMK MADISHF
BVX,2017-04-01 21:15,-91.6472,35.7261,62.60,48.20,59.26,110.00,10.00,0.00,30.12,M,10.00,16.00,CLR,M,M,M,M,M,M,M,M,KBVX 012115Z AUTO 11010G16KT 10SM CLR 17/09 A3012 RMK AO1
BVX,2017-04-01 21:20,-91.6472,35.7261,M,M,M,100.00,9.00,M,30.11,M,10.00,M,CLR,M,M,M,M,M,M,M,M,KBVX 012120Z AUTO 10009KT 10SM CLR A3011 RMK MADISHF
BVX,2017-04-01 21:25,-91.6472,35.7261,M,M,M,90.00,10.00,M,30.11,M,10.00,M,CLR,M,M,M,M,M,M,M,M,KBVX 012125Z AUTO 09010KT 10SM CLR A3011 RMK MADISHF
BVX,2017-04-01 21:35,-91.6472,35.7261,64.40,48.20,55.63,110.00,10.00,0.00,30.11,M,10.00,14.00,CLR,M,M,M,M,M,M,M,M,KBVX 012135Z AUTO 11010G14KT 10SM CLR 18/09 A3011 RMK AO1
BVX,2017-04-01 21:40,-91.6472,35.7261,M,M,M,90.00,9.00,M,30.11,M,10.00,14.00,CLR,M,M,M,M,M,M,M,M,KBVX 012140Z AUTO 09009G14KT 10SM CLR A3011 RMK MADISHF
BVX,2017-04-01 21:45,-91.6472,35.7261,M,M,M,120.00,6.00,M,30.11,M,10.00,M,CLR,M,M,M,M,M,M,M,M,KBVX 012145Z AUTO 12006KT 10SM CLR A3011 RMK MADISHF
BVX,2017-04-01 21:55,-91.6472,35.7261,62.60,48.20,59.26,110.00,9.00,0.00,30.11,M,10.00,M,CLR,M,M,M,M,M,M,M,M,KBVX 012155Z AUTO 11009KT 070V130 10SM CLR 17/09 A3011 RMK AO1
BVX,2017-04-01 22:00,-91.6472,35.7261,M,M,M,80.00,9.00,M,30.11,M,10.00,M,CLR,M,M,M,M,M,M,M,M,KBVX 012200Z AUTO 08009KT 10SM CLR A3011 RMK MADISHF
BVX,2017-04-01 22:05,-91.6472,35.7261,M,M,M,100.00,10.00,M,30.11,M,10.00,16.00,CLR,M,M,M,M,M,M,M,M,KBVX 012205Z AUTO 10010G16KT 10SM CLR A3011 RMK MADISHF
BVX,2017-04-01 22:15,-91.6472,35.7261,62.60,48.20,59.26,100.00,11.00,0.00,30.11,M,10.00,M,CLR,M,M,M,M,M,M,M,M,KBVX 012215Z AUTO 10011KT 10SM CLR 17/09 A3011 RMK AO1
BVX,2017-04-01 22:20,-91.6472,35.7261,M,M,M,90.00,9.00,M,30.10,M,10.00,M,CLR,M,M,M,M,M,M,M,M,KBVX 012220Z AUTO 09009KT 10SM CLR A3010 RMK MADISHF
BVX,2017-04-01 22:25,-91.6472,35.7261,M,M,M,80.00,11.00,M,30.10,M,10.00,M,CLR,M,M,M,M,M,M,M,M,KBVX 012225Z AUTO 08011KT 10SM CLR A3010 RMK MADISHF
BVX,2017-04-01 22:35,-91.6472,35.7261,62.60,48.20,59.26,80.00,7.00,0.00,30.10,M,10.00,M,CLR,M,M,M,M,M,M,M,M,KBVX 012235Z AUTO 08007KT 10SM CLR 17/09 A3010 RMK AO1
BVX,2017-04-01 22:40,-91.6472,35.7261,M,M,M,80.00,9.00,M,30.10,M,10.00,14.00,CLR,M,M,M,M,M,M,M,M,KBVX 012240Z AUTO 08009G14KT 10SM CLR A3010 RMK MADISHF
BVX,2017-04-01 22:45,-91.6472,35.7261,M,M,M,70.00,9.00,M,30.10,M,10.00,14.00,CLR,M,M,M,M,M,M,M,M,KBVX 012245Z AUTO 07009G14KT 10SM CLR A3010 RMK MADISHF
BVX,2017-04-01 22:55,-91.6472,35.7261,62.60,48.20,59.26,90.00,9.00,0.00,30.10,M,10.00,M,CLR,M,M,M,M,M,M,M,M,KBVX 012255Z AUTO 09009KT 10SM CLR 17/09 A3010 RMK AO1
BVX,2017-04-01 23:00,-91.6472,35.7261,M,M,M,90.00,7.00,M,30.10,M,10.00,M,CLR,M,M,M,M,M,M,M,M,KBVX 012300Z AUTO 09007KT 10SM CLR A3010 RMK MADISHF
BVX,2017-04-01 23:05,-91.6472,35.7261,M,M,M,100.00,9.00,M,30.10,M,10.00,M,CLR,M,M,M,M,M,M,M,M,KBVX 012305Z AUTO 10009KT 10SM CLR A3010 RMK MADISHF
BVX,2017-04-01 23:15,-91.6472,35.7261,62.60,48.20,59.26,70.00,4.00,0.00,30.10,M,10.00,M,CLR,M,M,M,M,M,M,M,M,KBVX 012315Z AUTO 07004KT 10SM CLR 17/09 A3010 RMK AO1
BVX,2017-04-01 23:20,-91.6472,35.7261,M,M,M,70.00,7.00,M,30.10,M,10.00,M,CLR,M,M,M,M,M,M,M,M,KBVX 012320Z AUTO 07007KT 10SM CLR A3010 RMK MADISHF
BVX,2017-04-01 23:25,-91.6472,35.7261,M,M,M,60.00,7.00,M,30.11,M,10.00,M,CLR,M,M,M,M,M,M,M,M,KBVX 012325Z AUTO 06007KT 10SM CLR A3011 RMK MADISHF
BVX,2017-04-01 23:30,-91.6472,35.7261,M,M,M,70.00,6.00,M,30.11,M,10.00,M,CLR,M,M,M,M,M,M,M,M,KBVX 012330Z AUTO 07006KT 10SM CLR A3011 RMK MADISHF
BVX,2017-04-01 23:35,-91.6472,35.7261,60.80,48.20,63.15,60.00,7.00,0.00,30.10,M,10.00,M,CLR,M,M,M,M,M,M,M,M,KBVX 012335Z AUTO 06007KT 10SM CLR 16/09 A3010 RMK AO1
BVX,2017-04-01 23:40,-91.6472,35.7261,M,M,M,60.00,6.00,M,30.10,M,10.00,M,CLR,M,M,M,M,M,M,M,M,KBVX 012340Z AUTO 06006KT 10SM CLR A3010 RMK MADISHF
BVX,2017-04-01 23:45,-91.6472,35.7261,M,M,M,70.00,6.00,M,30.10,M,10.00,M,CLR,M,M,M,M,M,M,M,M,KBVX 012345Z AUTO 07006KT 10SM CLR A3010 RMK MADISHF
BVX,2017-04-01 23:50,-91.6472,35.7261,M,M,M,70.00,6.00,M,30.10,M,10.00,M,CLR,M,M,M,M,M,M,M,M,KBVX 012350Z AUTO 07006KT 10SM CLR A3010 RMK MADISHF
BVX,2017-04-01 23:55,-91.6472,35.7261,59.00,48.20,67.33,70.00,6.00,0.00,30.10,M,10.00,M,CLR,M,M,M,M,M,M,M,M,KBVX 012355Z AUTO 07006KT 10SM CLR 15/09 A3010 RMK AO1 10180 20140 402100080 57007
