#DEBUG: Format Typ    -> comma
#DEBUG: Time Period   -> 2017-04-01 00:00:00+00:00 2017-04-02 00:00:00+00:00
#DEBUG: Time Zone     -> Etc/UTC
#DEBUG: Data Contact   -> daryl herzmann akrherz@iastate.edu 515-294-5978
#DEBUG: Entries Found -> -1
station,valid,lon,lat,tmpf, dwpf, relh, drct, sknt, p01i, alti, mslp, vsby, gust, skyc1, skyc2, skyc3, skyc4, skyl1, skyl2, skyl3, skyl4, presentwx, metar
BVY,2017-04-01 00:00,-70.9161,42.5841,M,M,M,70.00,4.00,0.01,30.07,M,1.75,M,BKN,OVC,M,M,700.00,999.00,M,M,-SN BR,KBVY 010000Z AUTO 07004KT 2SM -SN BR BKN007 OVC009 A3007 RMK P0001 MADISHF
BVY,2017-04-01 00:05,-70.9161,42.5841,M,M,M,70.00,5.00,0.02,30.07,M,1.75,M,OVC,M,M,M,700.00,M,M,M,-SN BR,KBVY 010005Z AUTO 07005KT 2SM -SN BR OVC007 A3007 RMK P0002 CIG 4V9  MADISHF
BVY,2017-04-01 00:10,-70.9161,42.5841,M,M,M,60.00,5.00,0.03,30.07,M,1.50,M,BKN,OVC,M,M,499.00,900.00,M,M,-SN BR,KBVY 010010Z AUTO 06005KT 1 1/2SM -SN BR BKN004 OVC009 A3007 RMK P0003 CIG 3V7  MADISHF
BVY,2017-04-01 00:15,-70.9161,42.5841,M,M,M,60.00,4.00,0.05,30.07,M,1.75,M,BKN,OVC,M,M,499.00,1100.00,M,M,-SN BR,KBVY 010015Z AUTO 06004KT 2SM -SN BR BKN004 OVC011 A3007 RMK P0005 MADISHF
BVY,2017-04-01 00:20,-70.9161,42.5841,M,M,M,60.00,4.00,0.06,30.07,M,2.50,M,BKN,OVC,M,M,499.00,1100.00,M,M,-SN BR,KBVY 010020Z AUTO 06004KT 2 1/2SM -SN BR BKN004 OVC011 A3007 RMK P0006 MADISHF
BVY,2017-04-01 00:23,-70.9161,42.5841,34.00,33.10,96.46,70.00,4.00,0.07,30.07,M,2.00,M,BKN,OVC,M,M,600.00,1600.00,M,M,-SN BR,KBVY 010023Z AUTO 07004KT 2SM -SN BR BKN006 OVC016 01/01 A3007 RMK AO2 P0007 T00110006
BVY,2017-04-01 00:25,-70.9161,42.5841,M,M,M,70.00,4.00,0.07,30.07,M,1.75,M,BKN,OVC,M,M,600.00,1400.00,M,M,-SN BR,KBVY 010025Z AUTO 07004KT 2SM -SN BR BKN006 OVC014 A3007 RMK P0007 MADISHF
BVY,2017-04-01 00:30,-70.9161,42.5841,34.00,33.10,96.46,70.00,5.00,0.08,30.07,M,1.75,M,BKN,OVC,M,M,600.00,1400.00,M,M,-SN BR,KBVY 010030Z AUTO 07005KT 1 3/4SM -SN BR BKN006 OVC014 01/01 A3007 RMK AO2 P0008 T00110006
BVY,2017-04-01 00:34,-70.9161,42.5841,34.00,33.10,96.46,70.00,5.00,0.08,30.07,M,3.00,M,BKN,OVC,M,M,600.00,1400.00,M,M,-SN BR,KBVY 010034Z AUTO 07005KT 3SM -SN BR BKN006 OVC014 01/01 A3007 RMK AO2 P0008 T00110006
BVY,2017-04-01 00:35,-70.9161,42.5841,M,M,M,60.00,4.00,0.09,30.07,M,3.00,M,BKN,OVC,M,M,600.00,1400.00,M,M,-RA BR,KBVY 010035Z AUTO 06004KT 3SM -RA BR BKN006 OVC014 A3007 RMK P0009 MADISHF
BVY,2017-04-01 00:40,-70.9161,42.5841,M,M,M,60.00,4.00,0.09,30.06,M,5.00,M,BKN,OVC,M,M,600.00,1200.00,M,M,-RA BR,KBVY 010040Z AUTO 06004KT 5SM -RA BR BKN006 OVC012 A3006 RMK P0009 MADISHF
BVY,2017-04-01 00:45,-70.9161,42.5841,M,M,M,60.00,5.00,0.10,30.06,M,6.00,M,BKN,OVC,M,M,600.00,1200.00,M,M,-RA BR,KBVY 010045Z AUTO 06005KT 6SM -RA BR BKN006 OVC012 A3006 RMK P0010 MADISHF
BVY,2017-04-01 00:50,-70.9161,42.5841,M,M,M,70.00,4.00,0.11,30.06,M,5.00,M,BKN,OVC,M,M,600.00,1200.00,M,M,-RA BR,KBVY 010050Z AUTO 07004KT 5SM -RA BR BKN006 OVC012 A3006 RMK P0011 MADISHF
BVY,2017-04-01 00:53,-70.9161,42.5841,34.00,33.10,96.46,60.00,5.00,0.11,30.06,1017.80,5.00,M,OVC,M,M,M,600.00,M,M,M,-RA BR,KBVY 010053Z AUTO 06005KT 5SM -RA BR OVC006 01/01 A3006 RMK AO2 RAB35SNE35 SLP178 P0011 T00110006
BVY,2017-04-01 00:55,-70.9161,42.5841,M,M,M,70.00,5.00,M,30.06,M,5.00,M,BKN,OVC,M,M,600.00,900.00,M,M,-RA BR,KBVY 010055Z AUTO 07005KT 5SM -RA BR BKN006 OVC009 A3006 RMK MADISHF
BVY,2017-04-01 01:00,-70.9161,42.5841,M,M,M,60.00,5.00,0.01,30.06,M,5.00,M,BKN,OVC,M,M,600.00,900.00,M,M,RA BR,KBVY 010100Z AUTO 06005KT 5SM RA BR BKN006 OVC009 A3006 RMK P0001 MADISHF
BVY,2017-04-01 01:05,-70.9161,42.5841,M,M,M,70.00,6.00,0.02,30.06,M,4.00,M,OVC,M,M,M,600.00,M,M,M,-RA BR,KBVY 010105Z AUTO 07006KT 4SM -RA BR OVC006 A3006 RMK P0002 MADISHF
BVY,2017-04-01 01:10,-70.9161,42.5841,M,M,M,70.00,5.00,0.02,30.06,M,3.50,M,OVC,M,M,M,600.00,M,M,M,-RA BR,KBVY 010110Z AUTO 07005KT 3SM -RA BR OVC006 A3006 RMK P0002 CIG 4V8  MADISHF
BVY,2017-04-01 01:15,-70.9161,42.5841,M,M,M,70.00,5.00,0.03,30.06,M,3.50,M,OVC,M,M,M,499.00,M,M,M,-RA BR,KBVY 010115Z AUTO 07005KT 3SM -RA BR OVC004 A3006 RMK P0003 CIG 3V8  MADISHF
BVY,2017-04-01 01:20,-70.9161,42.5841,M,M,M,60.00,5.00,0.03,M,M,M,M,M,M,M,M,M,M,M,M,-RA,KBVY 010120Z AUTO 06005KT -RA RMK P0003 VRB05KT  MADISHF
BVY,2017-04-01 01:25,-70.9161,42.5841,M,M,M,70.00,5.00,0.04,30.06,M,M,M,M,M,M,M,M,M,M,M,-RA,KBVY 010125Z AUTO 07005KT -RA A3006 RMK P0004 MADISHF
BVY,2017-04-01 01:30,-70.9161,42.5841,M,M,M,60.00,6.00,0.04,30.05,M,5.00,M,M,M,M,M,M,M,M,M,-RA BR,KBVY 010130Z AUTO 06006KT 5SM -RA BR A3005 RMK P0004 MADISHF
BVY,2017-04-01 01:35,-70.9161,42.5841,M,M,M,70.00,6.00,0.05,30.05,M,5.00,M,M,M,M,M,M,M,M,M,-RA BR,KBVY 010135Z AUTO 07006KT 5SM -RA BR A3005 RMK P0005 MADISHF
BVY,2017-04-01 01:40,-70.9161,42.5841,M,M,M,70.00,7.00,0.06,30.05,M,5.00,M,M,M,M,M,M,M,M,M,-RA BR,KBVY 010140Z AUTO 07007KT 5SM -RA BR A3005 RMK P0006 MADISHF
BVY,2017-04-01 01:45,-70.9161,42.5841,M,M,M,80.00,7.00,0.06,30.05,M,4.00,M,M,M,M,M,M,M,M,M,RA BR,KBVY 010145Z AUTO 08007KT 4SM RA BR A3005 RMK P0006 MADISHF
BVY,2017-04-01 01:50,-70.9161,42.5841,M,M,M,70.00,8.00,0.07,30.05,M,4.00,M,OVC,M,M,M,400.00,M,M,M,-RA BR,KBVY 010150Z AUTO 07008KT 4SM -RA BR OVC004 A3005 RMK P0007 CIG 3V8  MADISHF
BVY,2017-04-01 01:53,-70.9161,42.5841,34.00,32.00,92.29,80.00,8.00,0.07,30.04,1017.10,5.00,M,OVC,M,M,M,400.00,M,M,M,-RA BR,KBVY 010153Z AUTO 08008KT 5SM -RA BR OVC004 01/00 A3004 RMK AO2 RAB20 CIG 003V009 SLP171 P0007 T00110000 $
BVY,2017-04-01 01:55,-70.9161,42.5841,M,M,M,80.00,8.00,0.01,30.04,M,5.00,M,OVC,M,M,M,600.00,M,M,M,-RA BR,KBVY 010155Z AUTO 08008KT 5SM -RA BR OVC006 A3004 RMK P0001 CIG 4V9  MADISHF
BVY,2017-04-01 02:00,-70.9161,42.5841,34.00,32.00,92.29,90.00,9.00,0.01,30.04,M,5.00,M,BKN,OVC,M,M,600.00,900.00,M,M,-RA BR,KBVY 010200Z AUTO 09009KT 5SM -RA BR BKN006 OVC009 01/00 A3004 RMK AO2 CIG 004V009 P0001 T00110000 $
BVY,2017-04-01 02:05,-70.9161,42.5841,M,M,M,80.00,9.00,0.02,30.04,M,4.00,M,BKN,BKN,OVC,M,600.00,1100.00,3600.00,M,RA BR,KBVY 010205Z AUTO 08009KT 4SM RA BR BKN006 BKN011 OVC036 A3004 RMK P0002 CIG 4V9  MADISHF
BVY,2017-04-01 02:10,-70.9161,42.5841,M,M,M,80.00,7.00,0.03,30.03,M,3.00,M,BKN,BKN,OVC,M,600.00,1300.00,3500.00,M,-RA BR,KBVY 010210Z AUTO 08007KT 3SM -RA BR BKN006 BKN013 OVC035 A3003 RMK P0003 CIG 4V10  MADISHF
BVY,2017-04-01 02:15,-70.9161,42.5841,M,M,M,70.00,8.00,0.04,30.03,M,3.00,M,BKN,OVC,M,M,600.00,3500.00,M,M,RA BR,KBVY 010215Z AUTO 07008KT 3SM RA BR BKN006 OVC035 A3003 RMK P0004 CIG 5V10  MADISHF
BVY,2017-04-01 02:20,-70.9161,42.5841,M,M,M,80.00,8.00,0.05,30.03,M,4.00,M,BKN,OVC,M,M,700.00,3500.00,M,M,-RA BR,KBVY 010220Z AUTO 08008KT 4SM -RA BR BKN007 OVC035 A3003 RMK P0005 CIG 5V10  MADISHF
BVY,2017-04-01 02:25,-70.9161,42.5841,M,M,M,70.00,7.00,0.05,30.03,M,4.00,M,OVC,M,M,M,700.00,M,M,M,-RA BR,KBVY 010225Z AUTO 07007KT 4SM -RA BR OVC007 A3003 RMK P0005 CIG 5V10  MADISHF
BVY,2017-04-01 02:30,-70.9161,42.5841,M,M,M,70.00,9.00,0.06,30.02,M,4.00,M,BKN,OVC,M,M,700.00,1300.00,M,M,-RA BR,KBVY 010230Z AUTO 07009KT 4SM -RA BR BKN007 OVC013 A3002 RMK P0006 MADISHF
BVY,2017-04-01 02:35,-70.9161,42.5841,M,M,M,90.00,10.00,0.07,30.02,M,4.00,M,BKN,OVC,M,M,700.00,1300.00,M,M,-RA BR,KBVY 010235Z AUTO 09010KT 4SM -RA BR BKN007 OVC013 A3002 RMK P0007 MADISHF
BVY,2017-04-01 02:40,-70.9161,42.5841,M,M,M,80.00,8.00,0.07,30.02,M,4.00,M,BKN,OVC,M,M,700.00,1300.00,M,M,-RA BR,KBVY 010240Z AUTO 08008KT 4SM -RA BR BKN007 OVC013 A3002 RMK P0007 MADISHF
BVY,2017-04-01 02:45,-70.9161,42.5841,M,M,M,80.00,8.00,0.08,30.02,M,4.00,M,BKN,OVC,M,M,700.00,1500.00,M,M,-RA BR,KBVY 010245Z AUTO 08008KT 4SM -RA BR BKN007 OVC015 A3002 RMK P0008 MADISHF
BVY,2017-04-01 02:50,-70.9161,42.5841,M,M,M,80.00,9.00,0.09,30.01,M,3.50,M,BKN,OVC,M,M,700.00,1500.00,M,M,-RA BR,KBVY 010250Z AUTO 08009KT 3SM -RA BR BKN007 OVC015 A3001 RMK P0009 MADISHF
BVY,2017-04-01 02:53,-70.9161,42.5841,34.00,32.00,92.29,80.00,9.00,0.09,30.01,1016.00,3.00,M,BKN,BKN,OVC,M,900.00,1400.00,3000.00,M,-RA BR,KBVY 010253Z AUTO 08009KT 3SM -RA BR BKN009 BKN014 OVC030 01/00 A3001 RMK AO2 SLP160 P0009 60027 T00110000 $
BVY,2017-04-01 02:55,-70.9161,42.5841,M,M,M,80.00,8.00,M,30.01,M,3.50,M,BKN,BKN,OVC,M,900.00,1400.00,3000.00,M,-RA BR,KBVY 010255Z AUTO 08008KT 3SM -RA BR BKN009 BKN014 OVC030 A3001 RMK MADISHF
BVY,2017-04-01 03:00,-70.9161,42.5841,M,M,M,80.00,8.00,0.01,30.01,M,4.00,M,BKN,OVC,M,M,900.00,1400.00,M,M,-RA BR,KBVY 010300Z AUTO 08008KT 4SM -RA BR BKN009 OVC014 A3001 RMK P0001 MADISHF
BVY,2017-04-01 03:05,-70.9161,42.5841,M,M,M,80.00,8.00,0.01,30.00,M,4.00,M,BKN,BKN,OVC,M,900.00,1400.00,2900.00,M,-RA BR,KBVY 010305Z AUTO 08008KT 4SM -RA BR BKN009 BKN014 OVC029 A3000 RMK P0001 MADISHF
BVY,2017-04-01 03:10,-70.9161,42.5841,M,M,M,70.00,8.00,0.02,30.00,M,4.00,M,BKN,BKN,OVC,M,900.00,1200.00,2900.00,M,-RA BR,KBVY 010310Z AUTO 07008KT 4SM -RA BR BKN009 BKN012 OVC029 A3000 RMK P0002 MADISHF
BVY,2017-04-01 03:15,-70.9161,42.5841,M,M,M,80.00,9.00,0.02,30.00,M,4.00,M,BKN,OVC,M,M,900.00,2900.00,M,M,-RA BR,KBVY 010315Z AUTO 08009KT 4SM -RA BR BKN009 OVC029 A3000 RMK P0002 MADISHF
BVY,2017-04-01 03:20,-70.9161,42.5841,M,M,M,70.00,7.00,0.03,29.99,M,3.00,M,BKN,BKN,OVC,M,900.00,1699.00,2500.00,M,-RA BR,KBVY 010320Z AUTO 07007KT 3SM -RA BR BKN009 BKN016 OVC025 A2999 RMK P0003 MADISHF
BVY,2017-04-01 03:25,-70.9161,42.5841,M,M,M,80.00,8.00,0.03,29.99,M,2.50,M,BKN,BKN,OVC,M,700.00,1200.00,2500.00,M,-RA BR,KBVY 010325Z AUTO 08008KT 2 1/2SM -RA BR BKN007 BKN012 OVC025 A2999 RMK P0003 MADISHF
BVY,2017-04-01 03:28,-70.9161,42.5841,34.00,33.10,96.46,80.00,8.00,0.03,29.99,M,2.50,M,BKN,BKN,OVC,M,700.00,1300.00,2500.00,M,-RA BR,KBVY 010328Z AUTO 08008KT 2 1/2SM -RA BR BKN007 BKN013 OVC025 01/01 A2999 RMK AO2 P0003 T00110006 $
BVY,2017-04-01 03:30,-70.9161,42.5841,M,M,M,80.00,8.00,0.04,29.99,M,3.00,M,BKN,BKN,OVC,M,700.00,1300.00,3000.00,M,-RA BR,KBVY 010330Z AUTO 08008KT 3SM -RA BR BKN007 BKN013 OVC030 A2999 RMK P0004 MADISHF
BVY,2017-04-01 03:35,-70.9161,42.5841,34.00,33.10,96.46,80.00,8.00,0.04,29.98,M,4.00,M,SCT,BKN,OVC,M,700.00,1100.00,1600.00,M,-RA BR,KBVY 010335Z AUTO 08008KT 4SM -RA BR SCT007 BKN011 OVC016 01/01 A2998 RMK AO2 P0004 T00110006 $
BVY,2017-04-01 03:40,-70.9161,42.5841,M,M,M,80.00,7.00,0.05,29.98,M,4.00,M,SCT,BKN,OVC,M,700.00,1100.00,2100.00,M,-RA BR,KBVY 010340Z AUTO 08007KT 4SM -RA BR SCT007 BKN011 OVC021 A2998 RMK P0005 MADISHF
BVY,2017-04-01 03:45,-70.9161,42.5841,M,M,M,80.00,9.00,0.05,29.98,M,4.00,M,BKN,BKN,OVC,M,700.00,1200.00,2100.00,M,-RA BR,KBVY 010345Z AUTO 08009KT 4SM -RA BR BKN007 BKN012 OVC021 A2998 RMK P0005 MADISHF
BVY,2017-04-01 03:49,-70.9161,42.5841,33.80,33.80,100.00,70.00,7.00,0.06,29.98,M,4.00,M,BKN,OVC,M,M,900.00,2300.00,M,M,-RA BR,KBVY 010349Z AUTO 07007KT 4SM -RA BR BKN009 OVC023 01/01 A2998 RMK AO2 P0006 $
BVY,2017-04-01 03:50,-70.9161,42.5841,M,M,M,70.00,9.00,0.06,29.98,M,4.00,M,BKN,BKN,OVC,M,900.00,1300.00,2300.00,M,-RA BR,KBVY 010350Z AUTO 07009KT 4SM -RA BR BKN009 BKN013 OVC023 A2998 RMK P0006 MADISHF
BVY,2017-04-01 03:53,-70.9161,42.5841,34.00,33.10,96.46,70.00,8.00,0.06,29.98,1014.90,5.00,M,BKN,BKN,OVC,M,900.00,1300.00,2300.00,M,-RA BR,KBVY 010353Z AUTO 07008KT 5SM -RA BR BKN009 BKN013 OVC023 01/01 A2998 RMK AO2 SLP149 P0006 T00110006 $
BVY,2017-04-01 03:55,-70.9161,42.5841,M,M,M,70.00,8.00,M,29.98,M,5.00,M,OVC,M,M,M,900.00,M,M,M,-RA BR,KBVY 010355Z AUTO 07008KT 5SM -RA BR OVC009 A2998 RMK MADISHF
BVY,2017-04-01 04:00,-70.9161,42.5841,M,M,M,80.00,9.00,0.01,29.98,M,5.00,M,BKN,BKN,OVC,M,900.00,1500.00,2500.00,M,-RA BR,KBVY 010400Z AUTO 08009KT 5SM -RA BR BKN009 BKN015 OVC025 A2998 RMK P0001 MADISHF
BVY,2017-04-01 04:05,-70.9161,42.5841,M,M,M,80.00,9.00,0.02,29.98,M,5.00,M,SCT,BKN,OVC,M,700.00,1100.00,3200.00,M,-RA BR,KBVY 010405Z AUTO 08009KT 5SM -RA BR SCT007 BKN011 OVC032 A2998 RMK P0002 MADISHF
BVY,2017-04-01 04:08,-70.9161,42.5841,35.10,33.10,92.32,80.00,12.00,0.02,29.98,M,5.00,16.00,FEW,BKN,OVC,M,700.00,1100.00,3200.00,M,-RA BR,KBVY 010408Z AUTO 08012G16KT 5SM -RA BR FEW007 BKN011 OVC032 02/01 A2998 RMK AO2 P0002 T00170006 $
BVY,2017-04-01 04:10,-70.9161,42.5841,M,M,M,80.00,11.00,0.02,29.97,M,5.00,M,FEW,BKN,OVC,M,700.00,1100.00,3200.00,M,-RA BR,KBVY 010410Z AUTO 08011KT 5SM -RA BR FEW007 BKN011 OVC032 A2997 RMK P0002 MADISHF
BVY,2017-04-01 04:15,-70.9161,42.5841,M,M,M,80.00,9.00,0.02,29.97,M,6.00,M,SCT,OVC,M,M,1100.00,3399.00,M,M,-RA BR,KBVY 010415Z AUTO 08009KT 6SM -RA BR SCT011 OVC033 A2997 RMK P0002 MADISHF
BVY,2017-04-01 04:18,-70.9161,42.5841,35.60,33.80,93.08,90.00,10.00,0.00,29.97,M,6.00,M,SCT,OVC,M,M,1100.00,3400.00,M,M,-RA BR,KBVY 010418Z AUTO 09010KT 6SM -RA BR SCT011 OVC034 02/01 A2997
BVY,2017-04-01 04:20,-70.9161,42.5841,M,M,M,80.00,9.00,0.03,29.97,M,6.00,M,SCT,OVC,M,M,1100.00,3399.00,M,M,-RA BR,KBVY 010420Z AUTO 08009KT 6SM -RA BR SCT011 OVC033 A2997 RMK P0003 MADISHF
BVY,2017-04-01 04:25,-70.9161,42.5841,M,M,M,80.00,9.00,0.04,29.97,M,5.00,M,SCT,BKN,OVC,M,1100.00,2800.00,3300.00,M,-RA BR,KBVY 010425Z AUTO 08009KT 5SM -RA BR SCT011 BKN028 OVC033 A2997 RMK P0004 MADISHF
BVY,2017-04-01 04:30,-70.9161,42.5841,M,M,M,70.00,7.00,0.05,29.97,M,4.00,M,SCT,BKN,OVC,M,999.00,2600.00,3300.00,M,RA BR,KBVY 010430Z AUTO 07007KT 4SM RA BR SCT009 BKN026 OVC033 A2997 RMK P0005 MADISHF
BVY,2017-04-01 04:35,-70.9161,42.5841,M,M,M,70.00,7.00,0.06,29.97,M,4.00,M,SCT,BKN,OVC,M,999.00,1699.00,3300.00,M,RA BR,KBVY 010435Z AUTO 07007KT 4SM RA BR SCT009 BKN016 OVC033 A2997 RMK P0006 MADISHF
BVY,2017-04-01 04:38,-70.9161,42.5841,35.10,33.10,92.32,70.00,7.00,0.06,29.96,M,4.00,M,BKN,BKN,OVC,M,800.00,1200.00,3300.00,M,RA BR,KBVY 010438Z AUTO 07007KT 4SM RA BR BKN008 BKN012 OVC033 02/01 A2996 RMK AO2 P0006 T00170006 $
BVY,2017-04-01 04:40,-70.9161,42.5841,M,M,M,70.00,9.00,0.07,29.96,M,4.00,M,BKN,BKN,OVC,M,800.00,1200.00,3300.00,M,RA BR,KBVY 010440Z AUTO 07009KT 4SM RA BR BKN008 BKN012 OVC033 A2996 RMK P0007 MADISHF
BVY,2017-04-01 04:45,-70.9161,42.5841,M,M,M,70.00,7.00,0.08,29.96,M,5.00,M,BKN,BKN,OVC,M,800.00,1300.00,1900.00,M,RA BR,KBVY 010445Z AUTO 07007KT 5SM RA BR BKN008 BKN013 OVC019 A2996 RMK P0008 MADISHF
BVY,2017-04-01 04:50,-70.9161,42.5841,M,M,M,70.00,7.00,0.09,29.96,M,5.00,M,BKN,OVC,M,M,800.00,1300.00,M,M,RA BR,KBVY 010450Z AUTO 07007KT 5SM RA BR BKN008 OVC013 A2996 RMK P0009 MADISHF
BVY,2017-04-01 04:53,-70.9161,42.5841,34.00,33.10,96.46,70.00,8.00,0.09,29.95,1014.10,4.00,M,BKN,OVC,M,M,800.00,1300.00,M,M,RA BR,KBVY 010453Z AUTO 07008KT 4SM RA BR BKN008 OVC013 01/01 A2995 RMK AO2 SLP141 P0009 T00110006 400440006 $
BVY,2017-04-01 04:55,-70.9161,42.5841,M,M,M,70.00,7.00,0.01,29.95,M,4.00,M,BKN,OVC,M,M,800.00,1300.00,M,M,RA BR,KBVY 010455Z AUTO 07007KT 4SM RA BR BKN008 OVC013 A2995 RMK P0001 MADISHF
BVY,2017-04-01 05:00,-70.9161,42.5841,M,M,M,70.00,9.00,0.02,29.95,M,4.00,M,BKN,OVC,M,M,800.00,1100.00,M,M,RA BR,KBVY 010500Z AUTO 07009KT 4SM RA BR BKN008 OVC011 A2995 RMK P0002 MADISHF
BVY,2017-04-01 05:05,-70.9161,42.5841,M,M,M,70.00,8.00,0.03,29.95,M,4.00,M,BKN,OVC,M,M,800.00,1100.00,M,M,RA BR,KBVY 010505Z AUTO 07008KT 4SM RA BR BKN008 OVC011 A2995 RMK P0003 MADISHF
BVY,2017-04-01 05:10,-70.9161,42.5841,M,M,M,70.00,7.00,0.04,29.95,M,5.00,M,BKN,OVC,M,M,700.00,1100.00,M,M,RA BR,KBVY 010510Z AUTO 07007KT 5SM RA BR BKN007 OVC011 A2995 RMK P0004 MADISHF
BVY,2017-04-01 05:15,-70.9161,42.5841,M,M,M,80.00,8.00,0.05,29.95,M,5.00,M,BKN,OVC,M,M,700.00,1100.00,M,M,RA BR,KBVY 010515Z AUTO 08008KT 5SM RA BR BKN007 OVC011 A2995 RMK P0005 MADISHF
BVY,2017-04-01 05:20,-70.9161,42.5841,M,M,M,70.00,8.00,0.05,29.95,M,6.00,M,BKN,OVC,M,M,700.00,1100.00,M,M,-RA BR,KBVY 010520Z AUTO 07008KT 6SM -RA BR BKN007 OVC011 A2995 RMK P0005 MADISHF
BVY,2017-04-01 05:25,-70.9161,42.5841,M,M,M,70.00,7.00,0.06,29.95,M,5.00,M,BKN,OVC,M,M,700.00,1100.00,M,M,RA BR,KBVY 010525Z AUTO 07007KT 5SM RA BR BKN007 OVC011 A2995 RMK P0006 MADISHF
BVY,2017-04-01 05:30,-70.9161,42.5841,M,M,M,70.00,9.00,0.07,29.95,M,4.00,M,BKN,OVC,M,M,600.00,999.00,M,M,-SN BR,KBVY 010530Z AUTO 07009KT 4SM -SN BR BKN006 OVC009 A2995 RMK P0007 MADISHF
BVY,2017-04-01 05:35,-70.9161,42.5841,M,M,M,70.00,7.00,0.08,29.94,M,3.00,M,BKN,OVC,M,M,600.00,999.00,M,M,-SN BR,KBVY 010535Z AUTO 07007KT 3SM -SN BR BKN006 OVC009 A2994 RMK P0008 MADISHF
BVY,2017-04-01 05:40,-70.9161,42.5841,M,M,M,60.00,9.00,0.09,29.94,M,3.00,M,OVC,M,M,M,999.00,M,M,M,-SN BR,KBVY 010540Z AUTO 06009KT 3SM -SN BR OVC009 A2994 RMK P0009 MADISHF
BVY,2017-04-01 05:45,-70.9161,42.5841,M,M,M,60.00,8.00,0.11,29.93,M,2.50,M,OVC,M,M,M,900.00,M,M,M,-SN BR,KBVY 010545Z AUTO 06008KT 2 1/2SM -SN BR OVC009 A2993 RMK P0011 MADISHF
BVY,2017-04-01 05:50,-70.9161,42.5841,33.80,33.80,100.00,70.00,9.00,0.12,29.93,M,2.00,M,OVC,M,M,M,900.00,M,M,M,-SN BR,KBVY 010550Z AUTO 07009KT 2SM -SN BR OVC009 01/01 A2993 RMK AO2 RAE30SNB30 P0012 $
BVY,2017-04-01 05:53,-70.9161,42.5841,34.00,33.10,96.46,70.00,7.00,0.14,29.93,1013.20,2.00,M,OVC,M,M,M,900.00,M,M,M,-SN BR,KBVY 010553Z AUTO 07007KT 2SM -SN BR OVC009 01/01 A2993 RMK AO2 RAE30SNB30 SLP132 P0014 60056 T00110006 10017 20011 56017 $
BVY,2017-04-01 05:55,-70.9161,42.5841,M,M,M,70.00,7.00,0.02,29.93,M,2.50,M,OVC,M,M,M,900.00,M,M,M,-SN BR,KBVY 010555Z AUTO 07007KT 2 1/2SM -SN BR OVC009 A2993 RMK P0002 MADISHF
BVY,2017-04-01 06:00,-70.9161,42.5841,M,M,M,60.00,8.00,0.04,29.93,M,2.50,M,OVC,M,M,M,900.00,M,M,M,-SN BR,KBVY 010600Z AUTO 06008KT 2 1/2SM -SN BR OVC009 A2993 RMK P0004 MADISHF
BVY,2017-04-01 06:05,-70.9161,42.5841,M,M,M,60.00,8.00,0.05,29.93,M,3.00,M,OVC,M,M,M,900.00,M,M,M,RA BR,KBVY 010605Z AUTO 06008KT 3SM RA BR OVC009 A2993 RMK P0005 MADISHF
BVY,2017-04-01 06:10,-70.9161,42.5841,34.00,33.10,96.46,60.00,6.00,0.07,29.92,M,3.00,M,BKN,OVC,M,M,600.00,900.00,M,M,RA BR,KBVY 010610Z AUTO 06006KT 3SM RA BR BKN006 OVC009 01/01 A2992 RMK AO2 RAB03SNE03 P0007 T00110006 $
BVY,2017-04-01 06:15,-70.9161,42.5841,M,M,M,60.00,6.00,0.09,29.92,M,3.50,M,BKN,OVC,M,M,600.00,900.00,M,M,RA BR,KBVY 010615Z AUTO 06006KT 3SM RA BR BKN006 OVC009 A2992 RMK P0009 MADISHF
BVY,2017-04-01 06:20,-70.9161,42.5841,M,M,M,60.00,7.00,0.10,29.92,M,4.00,M,OVC,M,M,M,800.00,M,M,M,RA BR,KBVY 010620Z AUTO 06007KT 4SM RA BR OVC008 A2992 RMK P0010 MADISHF
BVY,2017-04-01 06:25,-70.9161,42.5841,M,M,M,60.00,7.00,0.12,29.91,M,4.00,M,OVC,M,M,M,800.00,M,M,M,RA BR,KBVY 010625Z AUTO 06007KT 4SM RA BR OVC008 A2991 RMK P0012 MADISHF
BVY,2017-04-01 06:30,-70.9161,42.5841,M,M,M,60.00,8.00,0.13,29.91,M,4.00,M,OVC,M,M,M,800.00,M,M,M,RA BR,KBVY 010630Z AUTO 06008KT 4SM RA BR OVC008 A2991 RMK P0013 MADISHF
BVY,2017-04-01 06:35,-70.9161,42.5841,M,M,M,60.00,7.00,0.14,29.91,M,4.00,M,OVC,M,M,M,800.00,M,M,M,RA BR,KBVY 010635Z AUTO 06007KT 4SM RA BR OVC008 A2991 RMK P0014 MADISHF
BVY,2017-04-01 06:40,-70.9161,42.5841,M,M,M,60.00,7.00,0.17,29.90,M,4.00,M,BKN,OVC,M,M,600.00,999.00,M,M,RA BR,KBVY 010640Z AUTO 06007KT 4SM RA BR BKN006 OVC009 A2990 RMK P0017 MADISHF
BVY,2017-04-01 06:45,-70.9161,42.5841,M,M,M,50.00,8.00,0.20,29.90,M,4.00,M,OVC,M,M,M,600.00,M,M,M,RA BR,KBVY 010645Z AUTO 05008KT 4SM RA BR OVC006 A2990 RMK P0020 MADISHF
BVY,2017-04-01 06:50,-70.9161,42.5841,M,M,M,50.00,6.00,0.22,29.90,M,4.00,M,OVC,M,M,M,800.00,M,M,M,RA BR,KBVY 010650Z AUTO 05006KT 4SM RA BR OVC008 A2990 RMK P0022 MADISHF
BVY,2017-04-01 06:53,-70.9161,42.5841,34.00,33.10,96.46,60.00,7.00,0.22,29.90,1012.20,4.00,M,OVC,M,M,M,800.00,M,M,M,RA BR,KBVY 010653Z AUTO 06007KT 4SM RA BR OVC008 01/01 A2990 RMK AO2 RAB03SNE03 SLP122 P0022 T00110006 $
BVY,2017-04-01 06:55,-70.9161,42.5841,M,M,M,50.00,7.00,M,29.90,M,4.00,M,OVC,M,M,M,800.00,M,M,M,RA BR,KBVY 010655Z AUTO 05007KT 4SM RA BR OVC008 A2990 RMK MADISHF
BVY,2017-04-01 07:00,-70.9161,42.5841,M,M,M,60.00,7.00,0.01,29.89,M,5.00,M,OVC,M,M,M,800.00,M,M,M,-RA BR,KBVY 010700Z AUTO 06007KT 5SM -RA BR OVC008 A2989 RMK P0001 MADISHF
BVY,2017-04-01 07:05,-70.9161,42.5841,M,M,M,50.00,6.00,0.02,29.89,M,5.00,M,OVC,M,M,M,800.00,M,M,M,-RA BR,KBVY 010705Z AUTO 05006KT 5SM -RA BR OVC008 A2989 RMK P0002 MADISHF
BVY,2017-04-01 07:10,-70.9161,42.5841,M,M,M,60.00,6.00,0.03,29.89,M,4.00,M,OVC,M,M,M,700.00,M,M,M,RA BR,KBVY 010710Z AUTO 06006KT 4SM RA BR OVC007 A2989 RMK P0003 MADISHF
BVY,2017-04-01 07:15,-70.9161,42.5841,M,M,M,60.00,7.00,0.04,29.89,M,4.00,M,OVC,M,M,M,700.00,M,M,M,-RA BR,KBVY 010715Z AUTO 06007KT 4SM -RA BR OVC007 A2989 RMK P0004 MADISHF
BVY,2017-04-01 07:20,-70.9161,42.5841,M,M,M,60.00,7.00,0.05,29.89,M,5.00,M,OVC,M,M,M,700.00,M,M,M,-RA BR,KBVY 010720Z AUTO 06007KT 5SM -RA BR OVC007 A2989 RMK P0005 MADISHF
BVY,2017-04-01 07:25,-70.9161,42.5841,M,M,M,60.00,8.00,0.06,29.88,M,5.00,M,OVC,M,M,M,700.00,M,M,M,RA BR,KBVY 010725Z AUTO 06008KT 5SM RA BR OVC007 A2988 RMK P0006 MADISHF
BVY,2017-04-01 07:30,-70.9161,42.5841,M,M,M,60.00,8.00,0.08,29.87,M,4.00,M,OVC,M,M,M,800.00,M,M,M,RA BR,KBVY 010730Z AUTO 06008KT 4SM RA BR OVC008 A2987 RMK P0008 MADISHF
BVY,2017-04-01 07:35,-70.9161,42.5841,M,M,M,60.00,9.00,0.09,29.87,M,4.00,M,OVC,M,M,M,800.00,M,M,M,RA BR,KBVY 010735Z AUTO 06009KT 4SM RA BR OVC008 A2987 RMK P0009 MADISHF
BVY,2017-04-01 07:40,-70.9161,42.5841,M,M,M,70.00,9.00,0.11,29.87,M,4.00,M,OVC,M,M,M,800.00,M,M,M,RA BR,KBVY 010740Z AUTO 07009KT 4SM RA BR OVC008 A2987 RMK P0011 MADISHF
BVY,2017-04-01 07:45,-70.9161,42.5841,M,M,M,60.00,10.00,0.12,29.87,M,4.00,M,BKN,OVC,M,M,800.00,1100.00,M,M,RA BR,KBVY 010745Z AUTO 06010KT 4SM RA BR BKN008 OVC011 A2987 RMK P0012 MADISHF
BVY,2017-04-01 07:50,-70.9161,42.5841,M,M,M,60.00,11.00,0.13,29.86,M,4.00,M,OVC,M,M,M,900.00,M,M,M,RA BR,KBVY 010750Z AUTO 06011KT 4SM RA BR OVC009 A2986 RMK P0013 MADISHF
BVY,2017-04-01 07:53,-70.9161,42.5841,36.00,34.00,92.35,60.00,9.00,0.14,29.86,1011.00,3.00,18.00,OVC,M,M,M,900.00,M,M,M,RA BR,KBVY 010753Z AUTO 06009G18KT 3SM RA BR OVC009 02/01 A2986 RMK AO2 SLP110 P0014 T00220011 $
BVY,2017-04-01 07:55,-70.9161,42.5841,M,M,M,60.00,10.00,M,29.86,M,3.50,M,BKN,OVC,M,M,700.00,1200.00,M,M,RA BR,KBVY 010755Z AUTO 06010KT 3SM RA BR BKN007 OVC012 A2986 RMK MADISHF
BVY,2017-04-01 08:00,-70.9161,42.5841,M,M,M,60.00,12.00,0.03,29.86,M,3.00,M,BKN,OVC,M,M,700.00,1200.00,M,M,RA BR,KBVY 010800Z AUTO 06012KT 3SM RA BR BKN007 OVC012 A2986 RMK P0003 MADISHF
BVY,2017-04-01 08:05,-70.9161,42.5841,M,M,M,60.00,8.00,0.04,29.86,M,3.00,M,OVC,M,M,M,900.00,M,M,M,RA BR,KBVY 010805Z AUTO 06008KT 3SM RA BR OVC009 A2986 RMK P0004 MADISHF
BVY,2017-04-01 08:10,-70.9161,42.5841,M,M,M,70.00,11.00,0.05,29.86,M,3.50,M,BKN,OVC,M,M,700.00,1100.00,M,M,RA BR,KBVY 010810Z AUTO 07011KT 3SM RA BR BKN007 OVC011 A2986 RMK P0005 MADISHF
BVY,2017-04-01 08:15,-70.9161,42.5841,M,M,M,60.00,8.00,0.06,29.86,M,3.50,M,BKN,OVC,M,M,700.00,1200.00,M,M,RA BR,KBVY 010815Z AUTO 06008KT 3SM RA BR BKN007 OVC012 A2986 RMK P0006 MADISHF
BVY,2017-04-01 08:20,-70.9161,42.5841,M,M,M,60.00,11.00,0.07,29.86,M,3.50,M,BKN,OVC,M,M,700.00,1200.00,M,M,RA BR,KBVY 010820Z AUTO 06011KT 3SM RA BR BKN007 OVC012 A2986 RMK P0007 MADISHF
BVY,2017-04-01 08:25,-70.9161,42.5841,M,M,M,60.00,9.00,0.08,29.85,M,4.00,M,OVC,M,M,M,900.00,M,M,M,RA BR,KBVY 010825Z AUTO 06009KT 4SM RA BR OVC009 A2985 RMK P0008 MADISHF
BVY,2017-04-01 08:30,-70.9161,42.5841,M,M,M,70.00,10.00,0.10,29.84,M,4.00,M,OVC,M,M,M,900.00,M,M,M,RA BR,KBVY 010830Z AUTO 07010KT 4SM RA BR OVC009 A2984 RMK P0010 MADISHF
BVY,2017-04-01 08:35,-70.9161,42.5841,M,M,M,60.00,11.00,0.12,29.84,M,4.00,M,OVC,M,M,M,900.00,M,M,M,RA BR,KBVY 010835Z AUTO 06011KT 4SM RA BR OVC009 A2984 RMK P0012 MADISHF
BVY,2017-04-01 08:40,-70.9161,42.5841,M,M,M,60.00,12.00,0.14,29.84,M,4.00,M,OVC,M,M,M,900.00,M,M,M,RA BR,KBVY 010840Z AUTO 06012KT 4SM RA BR OVC009 A2984 RMK P0014 MADISHF
BVY,2017-04-01 08:45,-70.9161,42.5841,M,M,M,60.00,11.00,0.15,29.84,M,4.00,M,OVC,M,M,M,999.00,M,M,M,RA BR,KBVY 010845Z AUTO 06011KT 4SM RA BR OVC009 A2984 RMK P0015 MADISHF
BVY,2017-04-01 08:50,-70.9161,42.5841,M,M,M,60.00,10.00,0.16,29.83,M,4.00,M,BKN,OVC,M,M,999.00,1400.00,M,M,RA BR,KBVY 010850Z AUTO 06010KT 4SM RA BR BKN009 OVC014 A2983 RMK P0016 WND 02V08  MADISHF
BVY,2017-04-01 08:53,-70.9161,42.5841,36.00,35.10,96.49,60.00,10.00,0.17,29.83,1009.90,4.00,M,BKN,OVC,M,M,800.00,1300.00,M,M,RA BR,KBVY 010853Z AUTO 06010KT 4SM RA BR BKN008 OVC013 02/02 A2983 RMK AO2 SLP099 P0017 60053 T00220017 56033 $
BVY,2017-04-01 08:55,-70.9161,42.5841,M,M,M,60.00,9.00,M,29.83,M,4.00,15.00,BKN,OVC,M,M,800.00,1300.00,M,M,RA BR,KBVY 010855Z AUTO 06009G15KT 4SM RA BR BKN008 OVC013 A2983 RMK MADISHF
BVY,2017-04-01 09:00,-70.9161,42.5841,M,M,M,70.00,10.00,0.03,29.84,M,4.00,M,BKN,OVC,M,M,999.00,1500.00,M,M,RA BR,KBVY 010900Z AUTO 07010KT 4SM RA BR BKN009 OVC015 A2984 RMK P0003 MADISHF
BVY,2017-04-01 09:05,-70.9161,42.5841,M,M,M,70.00,10.00,0.04,29.84,M,4.00,M,BKN,OVC,M,M,800.00,1300.00,M,M,RA BR,KBVY 010905Z AUTO 07010KT 4SM RA BR BKN008 OVC013 A2984 RMK P0004 MADISHF
BVY,2017-04-01 09:10,-70.9161,42.5841,M,M,M,60.00,10.00,0.06,29.83,M,4.00,15.00,BKN,OVC,M,M,999.00,1500.00,M,M,RA BR,KBVY 010910Z AUTO 06010G15KT 4SM RA BR BKN009 OVC015 A2983 RMK P0006 MADISHF
BVY,2017-04-01 09:13,-70.9161,42.5841,37.00,35.10,92.76,60.00,13.00,0.07,29.83,M,4.00,18.00,BKN,OVC,M,M,1000.00,1500.00,M,M,RA BR,KBVY 010913Z AUTO 06013G18KT 4SM RA BR BKN010 OVC015 03/02 A2983 RMK AO2 P0007 T00280017 $
BVY,2017-04-01 09:15,-70.9161,42.5841,M,M,M,60.00,11.00,0.07,29.83,M,4.00,M,BKN,OVC,M,M,999.00,1500.00,M,M,RA BR,KBVY 010915Z AUTO 06011KT 4SM RA BR BKN009 OVC015 A2983 RMK P0007 MADISHF
BVY,2017-04-01 09:20,-70.9161,42.5841,M,M,M,60.00,10.00,0.09,29.83,M,4.00,M,BKN,OVC,M,M,999.00,1500.00,M,M,RA BR,KBVY 010920Z AUTO 06010KT 4SM RA BR BKN009 OVC015 A2983 RMK P0009 MADISHF
BVY,2017-04-01 09:25,-70.9161,42.5841,M,M,M,60.00,12.00,0.11,29.83,M,4.00,M,BKN,OVC,M,M,900.00,1500.00,M,M,RA BR,KBVY 010925Z AUTO 06012KT 4SM RA BR BKN009 OVC015 A2983 RMK P0011 MADISHF
BVY,2017-04-01 09:30,-70.9161,42.5841,M,M,M,70.00,11.00,0.12,29.83,M,4.00,M,BKN,OVC,M,M,900.00,1500.00,M,M,RA BR,KBVY 010930Z AUTO 07011KT 4SM RA BR BKN009 OVC015 A2983 RMK P0012 MADISHF
BVY,2017-04-01 09:31,-70.9161,42.5841,37.00,35.10,92.76,70.00,11.00,0.12,29.84,M,4.00,17.00,BKN,OVC,M,M,900.00,1500.00,M,M,RA BR,KBVY 010931Z AUTO 07011G17KT 4SM RA BR BKN009 OVC015 03/02 A2984 RMK AO2 P0012 T00280017 $
BVY,2017-04-01 09:35,-70.9161,42.5841,M,M,M,70.00,12.00,0.13,29.84,M,4.00,M,BKN,OVC,M,M,900.00,1500.00,M,M,RA BR,KBVY 010935Z AUTO 07012KT 4SM RA BR BKN009 OVC015 A2984 RMK P0013 MADISHF
BVY,2017-04-01 09:40,-70.9161,42.5841,M,M,M,60.00,13.00,0.15,29.83,M,4.00,M,BKN,OVC,M,M,900.00,1300.00,M,M,RA BR,KBVY 010940Z AUTO 06013KT 4SM RA BR BKN009 OVC013 A2983 RMK P0015 CIG 6V11  MADISHF
BVY,2017-04-01 09:45,-70.9161,42.5841,M,M,M,60.00,14.00,0.16,29.83,M,4.00,20.00,OVC,M,M,M,1100.00,M,M,M,RA BR,KBVY 010945Z AUTO 06014G20KT 4SM RA BR OVC011 A2983 RMK P0016 MADISHF
BVY,2017-04-01 09:50,-70.9161,42.5841,M,M,M,60.00,12.00,0.17,29.83,M,4.00,M,BKN,OVC,M,M,900.00,1400.00,M,M,RA BR,KBVY 010950Z AUTO 06012KT 4SM RA BR BKN009 OVC014 A2983 RMK P0017 MADISHF
BVY,2017-04-01 09:53,-70.9161,42.5841,37.00,35.10,92.76,60.00,12.00,0.18,29.83,1009.70,4.00,21.00,BKN,OVC,M,M,900.00,1400.00,M,M,RA BR,KBVY 010953Z AUTO 06012G21KT 4SM RA BR BKN009 OVC014 03/02 A2983 RMK AO2 SLP097 P0018 T00280017 $
BVY,2017-04-01 09:55,-70.9161,42.5841,M,M,M,50.00,10.00,0.01,29.83,M,4.00,M,BKN,OVC,M,M,900.00,1400.00,M,M,RA BR,KBVY 010955Z AUTO 05010KT 4SM RA BR BKN009 OVC014 A2983 RMK P0001 MADISHF
BVY,2017-04-01 10:00,-70.9161,42.5841,M,M,M,50.00,13.00,0.03,29.82,M,4.00,M,BKN,OVC,M,M,900.00,1200.00,M,M,RA BR,KBVY 011000Z AUTO 05013KT 4SM RA BR BKN009 OVC012 A2982 RMK P0003 MADISHF
BVY,2017-04-01 10:05,-70.9161,42.5841,M,M,M,50.00,13.00,0.04,29.82,M,4.00,M,BKN,OVC,M,M,900.00,1400.00,M,M,RA BR,KBVY 011005Z AUTO 05013KT 4SM RA BR BKN009 OVC014 A2982 RMK P0004 MADISHF
BVY,2017-04-01 10:10,-70.9161,42.5841,M,M,M,60.00,10.00,0.05,29.82,M,4.00,M,BKN,OVC,M,M,900.00,1300.00,M,M,RA BR,KBVY 011010Z AUTO 06010KT 4SM RA BR BKN009 OVC013 A2982 RMK P0005 MADISHF
BVY,2017-04-01 10:15,-70.9161,42.5841,M,M,M,60.00,11.00,0.06,29.82,M,4.00,M,BKN,OVC,M,M,900.00,1300.00,M,M,RA BR,KBVY 011015Z AUTO 06011KT 4SM RA BR BKN009 OVC013 A2982 RMK P0006 MADISHF
BVY,2017-04-01 10:20,-70.9161,42.5841,M,M,M,60.00,10.00,0.07,29.82,M,4.00,M,BKN,OVC,M,M,900.00,1300.00,M,M,RA BR,KBVY 011020Z AUTO 06010KT 4SM RA BR BKN009 OVC013 A2982 RMK P0007 MADISHF
BVY,2017-04-01 10:25,-70.9161,42.5841,M,M,M,60.00,13.00,0.08,29.82,M,4.00,M,BKN,OVC,M,M,800.00,1300.00,M,M,RA BR,KBVY 011025Z AUTO 06013KT 4SM RA BR BKN008 OVC013 A2982 RMK P0008 MADISHF
BVY,2017-04-01 10:30,-70.9161,42.5841,M,M,M,60.00,11.00,0.10,29.82,M,4.00,M,OVC,M,M,M,800.00,M,M,M,RA BR,KBVY 011030Z AUTO 06011KT 4SM RA BR OVC008 A2982 RMK P0010 MADISHF
BVY,2017-04-01 10:35,-70.9161,42.5841,M,M,M,60.00,11.00,0.12,29.82,M,4.00,M,BKN,OVC,M,M,800.00,1200.00,M,M,RA BR,KBVY 011035Z AUTO 06011KT 4SM RA BR BKN008 OVC012 A2982 RMK P0012 MADISHF
BVY,2017-04-01 10:40,-70.9161,42.5841,M,M,M,60.00,11.00,0.13,29.82,M,4.00,17.00,BKN,OVC,M,M,800.00,1100.00,M,M,RA BR,KBVY 011040Z AUTO 06011G17KT 4SM RA BR BKN008 OVC011 A2982 RMK P0013 MADISHF
BVY,2017-04-01 10:45,-70.9161,42.5841,M,M,M,60.00,10.00,0.14,29.83,M,4.00,M,OVC,M,M,M,800.00,M,M,M,RA BR,KBVY 011045Z AUTO 06010KT 4SM RA BR OVC008 A2983 RMK P0014 MADISHF
BVY,2017-04-01 10:50,-70.9161,42.5841,M,M,M,70.00,11.00,0.15,29.82,M,2.00,M,BKN,OVC,M,M,800.00,1200.00,M,M,RA BR,KBVY 011050Z AUTO 07011KT 2SM RA BR BKN008 OVC012 A2982 RMK P0015 MADISHF
BVY,2017-04-01 10:53,-70.9161,42.5841,37.00,36.00,96.13,50.00,12.00,0.17,29.82,1009.60,2.00,20.00,BKN,OVC,M,M,800.00,1200.00,M,M,RA BR,KBVY 011053Z 05012G20KT 2SM RA BR BKN008 OVC012 03/02 A2982 RMK AO2 SLP096 P0017 T00280022 $
BVY,2017-04-01 10:55,-70.9161,42.5841,M,M,M,50.00,10.00,0.01,29.82,M,3.50,M,BKN,OVC,M,M,800.00,1200.00,M,M,RA BR,KBVY 011055Z AUTO 05010KT 3SM RA BR BKN008 OVC012 A2982 RMK P0001 MADISHF
BVY,2017-04-01 11:00,-70.9161,42.5841,M,M,M,60.00,9.00,0.02,29.82,M,3.00,M,BKN,OVC,M,M,800.00,1400.00,M,M,RA BR,KBVY 011100Z AUTO 06009KT 3SM RA BR BKN008 OVC014 A2982 RMK P0002 MADISHF
BVY,2017-04-01 11:05,-70.9161,42.5841,M,M,M,50.00,9.00,0.03,29.82,M,2.50,M,BKN,OVC,M,M,800.00,1400.00,M,M,RA BR,KBVY 011105Z AUTO 05009KT 2 1/2SM RA BR BKN008 OVC014 A2982 RMK P0003 MADISHF
BVY,2017-04-01 11:07,-70.9161,42.5841,37.00,36.00,96.13,60.00,10.00,0.03,29.82,M,2.50,M,BKN,OVC,M,M,800.00,1400.00,M,M,RA BR,KBVY 011107Z 06010KT 2 1/2SM RA BR BKN008 OVC014 03/02 A2982 RMK AO2 P0003 T00280022 $
BVY,2017-04-01 11:10,-70.9161,42.5841,M,M,M,60.00,10.00,0.04,29.82,M,2.50,M,BKN,OVC,M,M,800.00,1400.00,M,M,-RA BR,KBVY 011110Z AUTO 06010KT 2 1/2SM -RA BR BKN008 OVC014 A2982 RMK P0004 MADISHF
BVY,2017-04-01 11:15,-70.9161,42.5841,M,M,M,60.00,11.00,0.04,29.82,M,2.50,16.00,OVC,M,M,M,999.00,M,M,M,RA BR,KBVY 011115Z AUTO 06011G16KT 2 1/2SM RA BR OVC009 A2982 RMK P0004 MADISHF
BVY,2017-04-01 11:20,-70.9161,42.5841,M,M,M,60.00,12.00,0.05,29.82,M,2.50,M,BKN,OVC,M,M,800.00,1300.00,M,M,RA BR,KBVY 011120Z AUTO 06012KT 2 1/2SM RA BR BKN008 OVC013 A2982 RMK P0005 MADISHF
BVY,2017-04-01 11:25,-70.9161,42.5841,M,M,M,60.00,11.00,0.06,29.82,M,3.00,M,BKN,OVC,M,M,800.00,1300.00,M,M,RA BR,KBVY 011125Z AUTO 06011KT 3SM RA BR BKN008 OVC013 A2982 RMK P0006 MADISHF
BVY,2017-04-01 11:30,-70.9161,42.5841,37.90,36.00,92.78,60.00,8.00,0.07,29.82,M,3.00,18.00,OVC,M,M,M,800.00,M,M,M,RA BR,KBVY 011130Z 06008G18KT 3SM RA BR OVC008 03/02 A2982 RMK AO2 P0007 T00330022 $
BVY,2017-04-01 11:35,-70.9161,42.5841,M,M,M,50.00,9.00,0.08,29.82,M,3.00,M,OVC,M,M,M,800.00,M,M,M,RA BR,KBVY 011135Z AUTO 05009KT 3SM RA BR OVC008 A2982 RMK P0008 MADISHF
BVY,2017-04-01 11:40,-70.9161,42.5841,M,M,M,50.00,14.00,0.09,29.82,M,3.00,M,OVC,M,M,M,800.00,M,M,M,RA BR,KBVY 011140Z AUTO 05014KT 3SM RA BR OVC008 A2982 RMK P0009 MADISHF
BVY,2017-04-01 11:45,-70.9161,42.5841,M,M,M,60.00,11.00,0.10,29.82,M,3.00,M,BKN,OVC,M,M,800.00,1100.00,M,M,-RA BR,KBVY 011145Z AUTO 06011KT 3SM -RA BR BKN008 OVC011 A2982 RMK P0010 MADISHF
BVY,2017-04-01 11:50,-70.9161,42.5841,M,M,M,50.00,10.00,0.11,29.82,M,3.00,M,BKN,OVC,M,M,800.00,1100.00,M,M,RA BR,KBVY 011150Z AUTO 05010KT 3SM RA BR BKN008 OVC011 A2982 RMK P0011 MADISHF
BVY,2017-04-01 11:53,-70.9161,42.5841,37.00,36.00,96.13,50.00,12.00,0.12,29.81,1009.30,3.00,18.00,BKN,OVC,M,M,800.00,1100.00,M,M,RA BR,KBVY 011153Z 05012G18KT 3SM RA BR BKN008 OVC011 03/02 A2981 RMK AO2 SLP093 P0012 60100 70187 T00280022 10033 20022 58006 $
BVY,2017-04-01 11:55,-70.9161,42.5841,M,M,M,50.00,12.00,M,29.81,M,3.00,M,OVC,M,M,M,800.00,M,M,M,RA BR,KBVY 011155Z AUTO 05012KT 3SM RA BR OVC008 A2981 RMK MADISHF
BVY,2017-04-01 12:00,-70.9161,42.5841,M,M,M,50.00,10.00,0.01,29.82,M,3.00,M,OVC,M,M,M,800.00,M,M,M,RA BR,KBVY 011200Z AUTO 05010KT 3SM RA BR OVC008 A2982 RMK P0001 MADISHF
BVY,2017-04-01 12:05,-70.9161,42.5841,M,M,M,40.00,10.00,0.02,29.81,M,3.00,15.00,BKN,OVC,M,M,800.00,1200.00,M,M,RA BR,KBVY 011205Z AUTO 04010G15KT 3SM RA BR BKN008 OVC012 A2981 RMK P0002 MADISHF
BVY,2017-04-01 12:10,-70.9161,42.5841,M,M,M,50.00,13.00,0.04,29.81,M,2.50,19.00,OVC,M,M,M,800.00,M,M,M,RA BR,KBVY 011210Z AUTO 05013G19KT 2 1/2SM RA BR OVC008 A2981 RMK P0004 CIG 6V14  MADISHF
BVY,2017-04-01 12:12,-70.9161,42.5841,37.40,35.60,93.14,50.00,12.00,0.00,29.81,M,2.50,20.00,OVC,M,M,M,800.00,M,M,M,RA BR,KBVY 011212Z 05012G20KT 2 1/2SM RA BR OVC008 03/02 A2981
BVY,2017-04-01 12:15,-70.9161,42.5841,M,M,M,50.00,11.00,0.05,29.81,M,2.50,M,BKN,OVC,M,M,800.00,1200.00,M,M,RA BR,KBVY 011215Z AUTO 05011KT 2 1/2SM RA BR BKN008 OVC012 A2981 RMK P0005 MADISHF
BVY,2017-04-01 12:20,-70.9161,42.5841,M,M,M,60.00,13.00,0.07,29.81,M,3.00,M,BKN,OVC,M,M,800.00,1200.00,M,M,RA BR,KBVY 011220Z AUTO 06013KT 3SM RA BR BKN008 OVC012 A2981 RMK P0007 MADISHF
BVY,2017-04-01 12:24,-70.9161,42.5841,37.00,35.10,92.76,50.00,13.00,0.08,29.81,M,3.00,22.00,BKN,OVC,M,M,800.00,1200.00,M,M,RA BR,KBVY 011224Z 05013G22KT 3SM RA BR BKN008 OVC012 03/02 A2981 RMK AO2 P0008 T00280017 $
BVY,2017-04-01 12:25,-70.9161,42.5841,M,M,M,50.00,12.00,0.08,29.81,M,3.00,M,BKN,OVC,M,M,800.00,1200.00,M,M,RA BR,KBVY 011225Z AUTO 05012KT 3SM RA BR BKN008 OVC012 A2981 RMK P0008 MADISHF
BVY,2017-04-01 12:30,-70.9161,42.5841,M,M,M,60.00,12.00,0.09,29.82,M,3.00,M,BKN,OVC,M,M,800.00,1699.00,M,M,RA BR,KBVY 011230Z AUTO 06012KT 3SM RA BR BKN008 OVC016 A2982 RMK P0009 MADISHF
BVY,2017-04-01 12:35,-70.9161,42.5841,M,M,M,50.00,14.00,0.10,29.82,M,3.50,M,BKN,OVC,M,M,800.00,1699.00,M,M,RA BR,KBVY 011235Z AUTO 05014KT 3SM RA BR BKN008 OVC016 A2982 RMK P0010 MADISHF
BVY,2017-04-01 12:40,-70.9161,42.5841,M,M,M,50.00,10.00,0.11,29.82,M,3.00,M,OVC,M,M,M,900.00,M,M,M,RA BR,KBVY 011240Z AUTO 05010KT 3SM RA BR OVC009 A2982 RMK P0011 WND 02V08  MADISHF
BVY,2017-04-01 12:45,-70.9161,42.5841,M,M,M,50.00,8.00,0.13,29.83,M,3.00,M,OVC,M,M,M,900.00,M,M,M,RA BR,KBVY 011245Z AUTO 05008KT 3SM RA BR OVC009 A2983 RMK P0013 MADISHF
BVY,2017-04-01 12:50,-70.9161,42.5841,M,M,M,60.00,12.00,0.14,29.83,M,3.50,M,BKN,OVC,M,M,900.00,1200.00,M,M,RA BR,KBVY 011250Z AUTO 06012KT 3SM RA BR BKN009 OVC012 A2983 RMK P0014 MADISHF
BVY,2017-04-01 12:53,-70.9161,42.5841,37.00,35.10,92.76,50.00,12.00,0.14,29.83,1009.70,4.00,21.00,OVC,M,M,M,900.00,M,M,M,RA BR,KBVY 011253Z 05012G21KT 4SM RA BR OVC009 03/02 A2983 RMK AO2 SLP097 P0014 T00280017 $
BVY,2017-04-01 12:55,-70.9161,42.5841,M,M,M,50.00,11.00,0.01,29.82,M,4.00,M,OVC,M,M,M,900.00,M,M,M,RA BR,KBVY 011255Z AUTO 05011KT 4SM RA BR OVC009 A2982 RMK P0001 CIG 6V12  MADISHF
BVY,2017-04-01 13:00,-70.9161,42.5841,M,M,M,50.00,11.00,0.02,29.82,M,3.00,M,OVC,M,M,M,900.00,M,M,M,RA BR,KBVY 011300Z AUTO 05011KT 3SM RA BR OVC009 A2982 RMK P0002 MADISHF
BVY,2017-04-01 13:05,-70.9161,42.5841,M,M,M,50.00,12.00,0.04,29.82,M,2.50,19.00,OVC,M,M,M,900.00,M,M,M,RA BR,KBVY 011305Z AUTO 05012G19KT 2 1/2SM RA BR OVC009 A2982 RMK P0004 MADISHF
BVY,2017-04-01 13:09,-70.9161,42.5841,37.00,35.10,92.76,50.00,15.00,0.05,29.82,M,2.50,21.00,OVC,M,M,M,900.00,M,M,M,RA BR,KBVY 011309Z 05015G21KT 2 1/2SM RA BR OVC009 03/02 A2982 RMK AO2 P0005 T00280017 $
BVY,2017-04-01 13:10,-70.9161,42.5841,M,M,M,40.00,14.00,0.05,29.82,M,2.00,M,OVC,M,M,M,900.00,M,M,M,RA BR,KBVY 011310Z AUTO 04014KT 2SM RA BR OVC009 A2982 RMK P0005 MADISHF
BVY,2017-04-01 13:15,-70.9161,42.5841,M,M,M,40.00,15.00,0.08,29.82,M,2.00,M,OVC,M,M,M,900.00,M,M,M,RA BR,KBVY 011315Z AUTO 04015KT 2SM RA BR OVC009 A2982 RMK P0008 MADISHF
BVY,2017-04-01 13:20,-70.9161,42.5841,M,M,M,40.00,13.00,0.10,29.82,M,2.00,M,OVC,M,M,M,900.00,M,M,M,RA BR,KBVY 011320Z AUTO 04013KT 2SM RA BR OVC009 A2982 RMK P0010 MADISHF
BVY,2017-04-01 13:25,-70.9161,42.5841,M,M,M,40.00,11.00,0.11,29.83,M,2.50,M,BKN,OVC,M,M,700.00,1100.00,M,M,RA BR,KBVY 011325Z AUTO 04011KT 2 1/2SM RA BR BKN007 OVC011 A2983 RMK P0011 MADISHF
BVY,2017-04-01 13:30,-70.9161,42.5841,M,M,M,40.00,13.00,0.12,29.83,M,3.00,M,BKN,OVC,M,M,700.00,1100.00,M,M,RA BR,KBVY 011330Z AUTO 04013KT 3SM RA BR BKN007 OVC011 A2983 RMK P0012 MADISHF
BVY,2017-04-01 13:35,-70.9161,42.5841,36.00,34.00,92.35,40.00,14.00,0.13,29.83,M,3.00,21.00,OVC,M,M,M,700.00,M,M,M,-RA BR,KBVY 011335Z 04014G21KT 3SM -RA BR OVC007 02/01 A2983 RMK AO2 P0013 T00220011 $
BVY,2017-04-01 13:40,-70.9161,42.5841,M,M,M,40.00,15.00,0.16,29.83,M,2.50,M,OVC,M,M,M,700.00,M,M,M,RA BR,KBVY 011340Z AUTO 04015KT 2 1/2SM RA BR OVC007 A2983 RMK P0016 CIG 6V12  MADISHF
BVY,2017-04-01 13:45,-70.9161,42.5841,36.00,34.00,92.35,40.00,15.00,0.18,29.82,M,2.00,20.00,OVC,M,M,M,700.00,M,M,M,-SN BR,KBVY 011345Z 04015G20KT 2SM -SN BR OVC007 02/01 A2982 RMK AO2 VIS 1 1/2V3 RAE41SNB41 P0018 T00220011 $
BVY,2017-04-01 13:50,-70.9161,42.5841,M,M,M,40.00,11.00,0.19,29.83,M,2.50,M,OVC,M,M,M,700.00,M,M,M,-SN BR,KBVY 011350Z AUTO 04011KT 2 1/2SM -SN BR OVC007 A2983 RMK P0019 MADISHF
BVY,2017-04-01 13:53,-70.9161,42.5841,36.00,34.00,92.35,50.00,17.00,0.19,29.83,1009.80,2.00,27.00,OVC,M,M,M,700.00,M,M,M,-SN BR,KBVY 011353Z 05017G27KT 2SM -SN BR OVC007 02/01 A2983 RMK AO2 PK WND 05027/1352 RAE41SNB41 SLP098 P0019 T00220011 $
BVY,2017-04-01 13:55,-70.9161,42.5841,M,M,M,40.00,14.00,0.01,29.83,M,2.00,20.00,OVC,M,M,M,700.00,M,M,M,-SN BR,KBVY 011355Z AUTO 04014G20KT 2SM -SN BR OVC007 A2983 RMK P0001 MADISHF
BVY,2017-04-01 14:00,-70.9161,42.5841,M,M,M,30.00,11.00,0.01,29.83,M,2.00,M,OVC,M,M,M,700.00,M,M,M,-SN BR,KBVY 011400Z AUTO 03011KT 2SM -SN BR OVC007 A2983 RMK P0001 MADISHF
BVY,2017-04-01 14:05,-70.9161,42.5841,M,M,M,40.00,13.00,0.03,29.83,M,2.00,M,OVC,M,M,M,700.00,M,M,M,-SN BR,KBVY 011405Z AUTO 04013KT 2SM -SN BR OVC007 A2983 RMK P0003 MADISHF
BVY,2017-04-01 14:10,-70.9161,42.5841,M,M,M,40.00,11.00,0.03,29.83,M,2.00,M,OVC,M,M,M,700.00,M,M,M,-SN BR,KBVY 011410Z AUTO 04011KT 2SM -SN BR OVC007 A2983 RMK P0003 MADISHF
BVY,2017-04-01 14:15,-70.9161,42.5841,M,M,M,40.00,12.00,0.04,29.83,M,1.75,M,OVC,M,M,M,600.00,M,M,M,-SN BR,KBVY 011415Z AUTO 04012KT 2SM -SN BR OVC006 A2983 RMK P0004 MADISHF
BVY,2017-04-01 14:17,-70.9161,42.5841,35.10,34.00,95.71,40.00,12.00,0.04,29.83,M,1.50,20.00,OVC,M,M,M,600.00,M,M,M,-SN BR,KBVY 011417Z 04012G20KT 1 1/2SM -SN BR OVC006 02/01 A2983 RMK AO2 P0004 T00170011 $
BVY,2017-04-01 14:20,-70.9161,42.5841,M,M,M,30.00,13.00,0.05,29.83,M,1.25,M,OVC,M,M,M,600.00,M,M,M,-SN BR,KBVY 011420Z AUTO 03013KT 1 1/2SM -SN BR OVC006 A2983 RMK P0005 MADISHF
BVY,2017-04-01 14:25,-70.9161,42.5841,M,M,M,30.00,12.00,0.06,29.83,M,1.25,M,OVC,M,M,M,600.00,M,M,M,-SN BR,KBVY 011425Z AUTO 03012KT 1 1/2SM -SN BR OVC006 A2983 RMK P0006 MADISHF
BVY,2017-04-01 14:30,-70.9161,42.5841,M,M,M,30.00,10.00,0.06,29.84,M,1.25,M,OVC,M,M,M,600.00,M,M,M,-SN BR,KBVY 011430Z AUTO 03010KT 1 1/2SM -SN BR OVC006 A2984 RMK P0006 WND 01V07  MADISHF
BVY,2017-04-01 14:35,-70.9161,42.5841,M,M,M,30.00,12.00,0.07,29.84,M,1.00,18.00,OVC,M,M,M,600.00,M,M,M,-SN BR,KBVY 011435Z AUTO 03012G18KT 1SM -SN BR OVC006 A2984 RMK P0007 MADISHF
BVY,2017-04-01 14:40,-70.9161,42.5841,M,M,M,M,M,0.07,29.84,M,1.00,M,OVC,M,M,M,600.00,M,M,M,-SN BR,KBVY 011440Z AUTO /////KT 1SM -SN BR OVC006 A2984 RMK P0007 MADISHF
BVY,2017-04-01 14:45,-70.9161,42.5841,M,M,M,30.00,15.00,0.08,29.84,M,0.75,M,BKN,OVC,M,M,600.00,900.00,M,M,-SN BR,KBVY 011445Z AUTO 03015KT 1SM -SN BR BKN006 OVC009 A2984 RMK P0008 MADISHF
BVY,2017-04-01 14:50,-70.9161,42.5841,M,M,M,20.00,12.00,0.09,29.84,M,0.75,M,BKN,OVC,M,M,499.00,900.00,M,M,-SN BR,KBVY 011450Z AUTO 02012KT 1SM -SN BR BKN004 OVC009 A2984 RMK P0009 MADISHF
BVY,2017-04-01 14:53,-70.9161,42.5841,34.00,33.10,96.46,30.00,14.00,0.09,29.84,1010.20,0.75,23.00,BKN,OVC,M,M,500.00,1000.00,M,M,-SN BR,KBVY 011453Z 03014G23KT 3/4SM -SN BR BKN005 OVC010 01/01 A2984 RMK AO2 SLP102 P0009 60042 T00110006 53008 $
BVY,2017-04-01 14:55,-70.9161,42.5841,M,M,M,30.00,15.00,M,29.84,M,0.75,23.00,BKN,OVC,M,M,499.00,999.00,M,M,-SN BR,KBVY 011455Z AUTO 03015G23KT 1SM -SN BR BKN004 OVC009 A2984 RMK MADISHF
BVY,2017-04-01 15:00,-70.9161,42.5841,M,M,M,30.00,15.00,0.01,29.84,M,0.75,20.00,BKN,OVC,M,M,499.00,999.00,M,M,-SN BR,KBVY 011500Z AUTO 03015G20KT 1SM -SN BR BKN004 OVC009 A2984 RMK P0001 MADISHF
BVY,2017-04-01 15:05,-70.9161,42.5841,M,M,M,30.00,14.00,0.01,29.84,M,0.75,19.00,OVC,M,M,M,700.00,M,M,M,-SN BR,KBVY 011505Z AUTO 03014G19KT 1SM -SN BR OVC007 A2984 RMK P0001 MADISHF
BVY,2017-04-01 15:10,-70.9161,42.5841,M,M,M,30.00,15.00,0.03,29.84,M,0.75,M,OVC,M,M,M,700.00,M,M,M,-SN BR,KBVY 011510Z AUTO 03015KT 1SM -SN BR OVC007 A2984 RMK P0003 MADISHF
BVY,2017-04-01 15:15,-70.9161,42.5841,M,M,M,30.00,14.00,0.03,29.84,M,0.75,M,OVC,M,M,M,700.00,M,M,M,-SN BR,KBVY 011515Z AUTO 03014KT 1SM -SN BR OVC007 A2984 RMK P0003 MADISHF
BVY,2017-04-01 15:20,-70.9161,42.5841,M,M,M,30.00,16.00,0.04,29.84,M,0.75,M,OVC,M,M,M,700.00,M,M,M,-SN BR,KBVY 011520Z AUTO 03016KT 1SM -SN BR OVC007 A2984 RMK P0004 MADISHF
BVY,2017-04-01 15:25,-70.9161,42.5841,M,M,M,30.00,14.00,0.05,29.84,M,0.50,M,OVC,M,M,M,700.00,M,M,M,SN FG,KBVY 011525Z AUTO 03014KT 1/2SM SN FG OVC007 A2984 RMK P0005 MADISHF
BVY,2017-04-01 15:30,-70.9161,42.5841,M,M,M,20.00,15.00,0.05,29.84,M,0.50,M,OVC,M,M,M,700.00,M,M,M,SN FG,KBVY 011530Z AUTO 02015KT 1/2SM SN FG OVC007 A2984 RMK P0005 MADISHF
BVY,2017-04-01 15:35,-70.9161,42.5841,M,M,M,30.00,15.00,0.06,29.84,M,0.50,M,OVC,M,M,M,700.00,M,M,M,SN FG,KBVY 011535Z AUTO 03015KT 1/2SM SN FG OVC007 A2984 RMK P0006 MADISHF
BVY,2017-04-01 15:40,-70.9161,42.5841,M,M,M,M,M,0.07,29.83,M,0.25,M,VV ,M,M,M,700.00,M,M,M,SN FG,KBVY 011540Z AUTO /////KT 1/4SM SN FG VV007 A2983 RMK P0007 MADISHF
BVY,2017-04-01 15:45,-70.9161,42.5841,M,M,M,30.00,17.00,0.07,29.83,M,0.50,M,VV ,M,M,M,700.00,M,M,M,SN FG,KBVY 011545Z AUTO 03017KT 1/2SM SN FG VV007 A2983 RMK P0007 MADISHF
BVY,2017-04-01 15:50,-70.9161,42.5841,M,M,M,30.00,14.00,0.08,29.83,M,0.50,M,VV ,M,M,M,700.00,M,M,M,SN FG,KBVY 011550Z AUTO 03014KT 1/2SM SN FG VV007 A2983 RMK P0008 MADISHF
BVY,2017-04-01 15:53,-70.9161,42.5841,34.00,33.10,96.46,40.00,16.00,0.08,29.83,1009.80,0.50,26.00,VV ,M,M,M,700.00,M,M,M,SN FG,KBVY 011553Z 04016G26KT 1/2SM SN FG VV007 01/01 A2983 RMK AO2 PK WND 05028/1509 SLP098 P0008 T00110006 $
BVY,2017-04-01 15:55,-70.9161,42.5841,M,M,M,30.00,15.00,0.01,29.83,M,0.50,M,VV ,M,M,M,700.00,M,M,M,SN FG,KBVY 011555Z AUTO 03015KT 1/2SM SN FG VV007 A2983 RMK P0001 MADISHF
BVY,2017-04-01 16:00,-70.9161,42.5841,M,M,M,30.00,12.00,0.01,29.83,M,0.50,M,VV ,M,M,M,700.00,M,M,M,SN FG,KBVY 011600Z AUTO 03012KT 1/2SM SN FG VV007 A2983 RMK P0001 MADISHF
BVY,2017-04-01 16:05,-70.9161,42.5841,M,M,M,30.00,12.00,0.02,29.83,M,0.50,M,VV ,M,M,M,700.00,M,M,M,SN FG,KBVY 011605Z AUTO 03012KT 1/2SM SN FG VV007 A2983 RMK P0002 MADISHF
BVY,2017-04-01 16:10,-70.9161,42.5841,M,M,M,30.00,15.00,0.02,29.83,M,0.50,M,OVC,M,M,M,600.00,M,M,M,SN FG,KBVY 011610Z AUTO 03015KT 1/2SM SN FG OVC006 A2983 RMK P0002 MADISHF
BVY,2017-04-01 16:15,-70.9161,42.5841,M,M,M,20.00,15.00,0.03,29.83,M,0.50,M,VV ,M,M,M,600.00,M,M,M,SN FG,KBVY 011615Z AUTO 02015KT 1/2SM SN FG VV006 A2983 RMK P0003 MADISHF
BVY,2017-04-01 16:20,-70.9161,42.5841,M,M,M,30.00,12.00,0.04,29.83,M,0.25,M,OVC,M,M,M,600.00,M,M,M,+SN FG,KBVY 011620Z AUTO 03012KT 1/4SM +SN FG OVC006 A2983 RMK P0004 MADISHF
BVY,2017-04-01 16:22,-70.9161,42.5841,34.00,33.10,96.46,30.00,15.00,0.04,29.83,M,0.25,23.00,VV ,M,M,M,600.00,M,M,M,+SN FG,KBVY 011622Z 03015G23KT 1/4SM +SN FG VV006 01/01 A2983 RMK AO2 PK WND 04026/1554 P0004 T00110006 $
BVY,2017-04-01 16:25,-70.9161,42.5841,M,M,M,20.00,12.00,0.04,29.83,M,0.25,18.00,VV ,M,M,M,600.00,M,M,M,SN FG,KBVY 011625Z AUTO 02012G18KT 1/4SM SN FG VV006 A2983 RMK P0004 MADISHF
BVY,2017-04-01 16:30,-70.9161,42.5841,M,M,M,30.00,18.00,0.05,29.83,M,0.50,M,OVC,M,M,M,600.00,M,M,M,SN FG,KBVY 011630Z AUTO 03018KT 1/2SM SN FG OVC006 A2983 RMK P0005 MADISHF
BVY,2017-04-01 16:33,-70.9161,42.5841,34.00,33.10,96.46,30.00,15.00,0.05,29.83,M,0.50,26.00,OVC,M,M,M,600.00,M,M,M,SN FG,KBVY 011633Z 03015G26KT 1/2SM SN FG OVC006 01/01 A2983 RMK AO2 PK WND 04026/1632 P0005 T00110006 $
BVY,2017-04-01 16:35,-70.9161,42.5841,M,M,M,30.00,16.00,0.05,29.83,M,0.50,M,OVC,M,M,M,600.00,M,M,M,SN FG,KBVY 011635Z AUTO 03016KT 1/2SM SN FG OVC006 A2983 RMK P0005 MADISHF
BVY,2017-04-01 16:40,-70.9161,42.5841,M,M,M,20.00,13.00,0.06,29.83,M,0.50,19.00,OVC,M,M,M,600.00,M,M,M,SN FG,KBVY 011640Z AUTO 02013G19KT 1/2SM SN FG OVC006 A2983 RMK P0006 MADISHF
BVY,2017-04-01 16:45,-70.9161,42.5841,M,M,M,30.00,16.00,0.06,29.83,M,0.50,M,OVC,M,M,M,600.00,M,M,M,SN FG,KBVY 011645Z AUTO 03016KT 1/2SM SN FG OVC006 A2983 RMK P0006 MADISHF
BVY,2017-04-01 16:50,-70.9161,42.5841,M,M,M,30.00,15.00,0.06,29.83,M,0.75,M,BKN,OVC,M,M,600.00,900.00,M,M,-SN BR,KBVY 011650Z AUTO 03015KT 1SM -SN BR BKN006 OVC009 A2983 RMK P0006 MADISHF
BVY,2017-04-01 16:53,-70.9161,42.5841,34.00,33.10,96.46,30.00,15.00,0.06,29.83,1009.90,0.75,22.00,OVC,M,M,M,600.00,M,M,M,-SN BR,KBVY 011653Z 03015G22KT 3/4SM -SN BR OVC006 01/01 A2983 RMK AO2 PK WND 04026/1632 SLP099 P0006 T00110006 $
BVY,2017-04-01 16:55,-70.9161,42.5841,M,M,M,20.00,13.00,0.01,29.83,M,0.75,M,OVC,M,M,M,600.00,M,M,M,-SN BR,KBVY 011655Z AUTO 02013KT 1SM -SN BR OVC006 A2983 RMK P0001 WND 35V06  MADISHF
BVY,2017-04-01 17:00,-70.9161,42.5841,M,M,M,30.00,16.00,0.01,29.83,M,0.75,M,BKN,OVC,M,M,600.00,999.00,M,M,-SN BR,KBVY 011700Z AUTO 03016KT 1SM -SN BR BKN006 OVC009 A2983 RMK P0001 MADISHF
BVY,2017-04-01 17:05,-70.9161,42.5841,M,M,M,20.00,16.00,0.01,29.83,M,0.50,M,OVC,M,M,M,800.00,M,M,M,SN FG,KBVY 011705Z AUTO 02016KT 1/2SM SN FG OVC008 A2983 RMK P0001 MADISHF
BVY,2017-04-01 17:10,-70.9161,42.5841,M,M,M,20.00,15.00,0.02,29.83,M,0.50,M,OVC,M,M,M,800.00,M,M,M,SN FG,KBVY 011710Z AUTO 02015KT 1/2SM SN FG OVC008 A2983 RMK P0002 MADISHF
BVY,2017-04-01 17:15,-70.9161,42.5841,M,M,M,30.00,15.00,0.02,29.83,M,0.50,M,OVC,M,M,M,800.00,M,M,M,SN FG,KBVY 011715Z AUTO 03015KT 1/2SM SN FG OVC008 A2983 RMK P0002 MADISHF
BVY,2017-04-01 17:20,-70.9161,42.5841,M,M,M,20.00,16.00,0.04,29.83,M,0.50,M,BKN,OVC,M,M,600.00,999.00,M,M,SN FG,KBVY 011720Z AUTO 02016KT 1/2SM SN FG BKN006 OVC009 A2983 RMK P0004 MADISHF
BVY,2017-04-01 17:25,-70.9161,42.5841,M,M,M,30.00,15.00,0.04,29.83,M,0.50,M,BKN,OVC,M,M,600.00,999.00,M,M,SN FG,KBVY 011725Z AUTO 03015KT 1/2SM SN FG BKN006 OVC009 A2983 RMK P0004 MADISHF
BVY,2017-04-01 17:30,-70.9161,42.5841,M,M,M,20.00,12.00,0.05,29.83,M,0.50,20.00,BKN,OVC,M,M,600.00,999.00,M,M,SN FG,KBVY 011730Z AUTO 02012G20KT 1/2SM SN FG BKN006 OVC009 A2983 RMK P0005 MADISHF
BVY,2017-04-01 17:35,-70.9161,42.5841,M,M,M,20.00,17.00,0.05,29.83,M,0.50,M,BKN,OVC,M,M,600.00,999.00,M,M,SN FG,KBVY 011735Z AUTO 02017KT 1/2SM SN FG BKN006 OVC009 A2983 RMK P0005 MADISHF
BVY,2017-04-01 17:40,-70.9161,42.5841,M,M,M,30.00,16.00,0.06,29.83,M,0.50,M,OVC,M,M,M,600.00,M,M,M,SN FG,KBVY 011740Z AUTO 03016KT 1/2SM SN FG OVC006 A2983 RMK P0006 MADISHF
BVY,2017-04-01 17:45,-70.9161,42.5841,M,M,M,20.00,16.00,0.06,29.83,M,0.50,24.00,OVC,M,M,M,600.00,M,M,M,SN FG,KBVY 011745Z AUTO 02016G24KT 1/2SM SN FG OVC006 A2983 RMK P0006 MADISHF
BVY,2017-04-01 17:50,-70.9161,42.5841,M,M,M,30.00,15.00,0.07,29.83,M,0.50,20.00,OVC,M,M,M,700.00,M,M,M,SN FG,KBVY 011750Z AUTO 03015G20KT 1/2SM SN FG OVC007 A2983 RMK P0007 MADISHF
BVY,2017-04-01 17:53,-70.9161,42.5841,34.00,33.10,96.46,30.00,14.00,0.07,29.83,1010.00,0.50,26.00,OVC,M,M,M,700.00,M,M,M,SN FG,KBVY 011753Z 03014G26KT 1/2SM SN FG OVC007 01/01 A2983 RMK AO2 PK WND 03030/1703 SLP100 P0007 60063 T00110006 10028 20011 55002 $
BVY,2017-04-01 17:55,-70.9161,42.5841,M,M,M,20.00,12.00,M,29.83,M,0.50,M,OVC,M,M,M,700.00,M,M,M,SN FG,KBVY 011755Z AUTO 02012KT 1/2SM SN FG OVC007 A2983 RMK MADISHF
BVY,2017-04-01 18:00,-70.9161,42.5841,M,M,M,20.00,14.00,0.02,29.83,M,0.50,M,OVC,M,M,M,700.00,M,M,M,SN FG,KBVY 011800Z AUTO 02014KT 1/2SM SN FG OVC007 A2983 RMK P0002 MADISHF
BVY,2017-04-01 18:05,-70.9161,42.5841,M,M,M,30.00,16.00,0.02,29.83,M,0.50,M,OVC,M,M,M,700.00,M,M,M,SN FG,KBVY 011805Z AUTO 03016KT 1/2SM SN FG OVC007 A2983 RMK P0002 MADISHF
BVY,2017-04-01 18:10,-70.9161,42.5841,M,M,M,30.00,17.00,0.03,29.83,M,0.50,M,BKN,OVC,M,M,700.00,999.00,M,M,SN FG,KBVY 011810Z AUTO 03017KT 1/2SM SN FG BKN007 OVC009 A2983 RMK P0003 MADISHF
BVY,2017-04-01 18:15,-70.9161,42.5841,M,M,M,20.00,17.00,0.03,29.83,M,0.75,M,OVC,M,M,M,700.00,M,M,M,-SN BR,KBVY 011815Z AUTO 02017KT 1SM -SN BR OVC007 A2983 RMK P0003 MADISHF
BVY,2017-04-01 18:20,-70.9161,42.5841,M,M,M,20.00,17.00,0.03,29.83,M,0.75,M,BKN,OVC,M,M,700.00,999.00,M,M,-SN BR,KBVY 011820Z AUTO 02017KT 1SM -SN BR BKN007 OVC009 A2983 RMK P0003 MADISHF
BVY,2017-04-01 18:25,-70.9161,42.5841,M,M,M,M,M,0.04,29.83,M,0.75,M,OVC,M,M,M,700.00,M,M,M,-SN BR,KBVY 011825Z AUTO /////KT 1SM -SN BR OVC007 A2983 RMK P0004 MADISHF
BVY,2017-04-01 18:30,-70.9161,42.5841,M,M,M,M,M,0.04,29.83,M,1.00,M,BKN,OVC,M,M,700.00,999.00,M,M,-SN BR,KBVY 011830Z AUTO /////KT 1SM -SN BR BKN007 OVC009 A2983 RMK P0004 MADISHF
BVY,2017-04-01 18:35,-70.9161,42.5841,M,M,M,30.00,13.00,0.04,29.83,M,1.00,21.00,OVC,M,M,M,800.00,M,M,M,-SN BR,KBVY 011835Z AUTO 03013G21KT 1SM -SN BR OVC008 A2983 RMK P0004 MADISHF
BVY,2017-04-01 18:36,-70.9161,42.5841,35.10,33.10,92.32,30.00,12.00,0.04,29.83,M,1.00,28.00,BKN,OVC,M,M,600.00,1000.00,M,M,-SN BR,KBVY 011836Z 03012G28KT 1SM -SN BR BKN006 OVC010 02/01 A2983 RMK AO2 PK WND 02028/1829 P0004 T00170006 $
BVY,2017-04-01 18:40,-70.9161,42.5841,M,M,M,20.00,12.00,0.04,29.83,M,1.00,18.00,BKN,OVC,M,M,600.00,1100.00,M,M,-SN BR,KBVY 011840Z AUTO 02012G18KT 1SM -SN BR BKN006 OVC011 A2983 RMK P0004 MADISHF
BVY,2017-04-01 18:45,-70.9161,42.5841,M,M,M,20.00,17.00,0.05,29.83,M,1.00,22.00,BKN,OVC,M,M,600.00,1100.00,M,M,-SN BR,KBVY 011845Z AUTO 02017G22KT 1SM -SN BR BKN006 OVC011 A2983 RMK P0005 MADISHF
BVY,2017-04-01 18:50,-70.9161,42.5841,M,M,M,30.00,16.00,0.05,29.83,M,1.00,M,BKN,OVC,M,M,600.00,1100.00,M,M,-SN BR,KBVY 011850Z AUTO 03016KT 1SM -SN BR BKN006 OVC011 A2983 RMK P0005 MADISHF
BVY,2017-04-01 18:53,-70.9161,42.5841,35.10,33.10,92.32,30.00,14.00,0.05,29.83,1009.90,1.00,28.00,BKN,OVC,M,M,600.00,1100.00,M,M,-SN BR,KBVY 011853Z 03014G28KT 1SM -SN BR BKN006 OVC011 02/01 A2983 RMK AO2 PK WND 02028/1844 SLP099 P0005 T00170006 $
BVY,2017-04-01 18:55,-70.9161,42.5841,M,M,M,30.00,18.00,M,29.83,M,1.00,M,BKN,OVC,M,M,700.00,1100.00,M,M,-SN BR,KBVY 011855Z AUTO 03018KT 1SM -SN BR BKN007 OVC011 A2983 RMK MADISHF
BVY,2017-04-01 19:00,-70.9161,42.5841,M,M,M,M,M,M,29.83,M,1.00,M,BKN,OVC,M,M,700.00,1300.00,M,M,-SN BR,KBVY 011900Z AUTO /////KT 1SM -SN BR BKN007 OVC013 A2983 RMK MADISHF
BVY,2017-04-01 19:05,-70.9161,42.5841,M,M,M,20.00,14.00,M,29.83,M,1.25,20.00,BKN,OVC,M,M,700.00,1300.00,M,M,-SN BR,KBVY 011905Z AUTO 02014G20KT 1 1/2SM -SN BR BKN007 OVC013 A2983 RMK MADISHF
BVY,2017-04-01 19:10,-70.9161,42.5841,M,M,M,30.00,14.00,M,29.83,M,1.50,M,BKN,OVC,M,M,700.00,1300.00,M,M,-SN BR,KBVY 011910Z AUTO 03014KT 1 1/2SM -SN BR BKN007 OVC013 A2983 RMK MADISHF
BVY,2017-04-01 19:15,-70.9161,42.5841,M,M,M,30.00,14.00,0.02,29.83,M,2.00,M,BKN,OVC,M,M,700.00,1500.00,M,M,-SN BR,KBVY 011915Z AUTO 03014KT 2SM -SN BR BKN007 OVC015 A2983 RMK P0002 MADISHF
BVY,2017-04-01 19:20,-70.9161,42.5841,M,M,M,M,M,0.02,29.83,M,2.50,M,BKN,OVC,M,M,800.00,1699.00,M,M,-SN BR,KBVY 011920Z AUTO /////KT 2 1/2SM -SN BR BKN008 OVC016 A2983 RMK P0002 MADISHF
BVY,2017-04-01 19:21,-70.9161,42.5841,35.10,32.00,88.33,30.00,17.00,0.02,29.83,M,2.50,26.00,BKN,OVC,M,M,800.00,1500.00,M,M,-SN BR,KBVY 011921Z 03017G26KT 2 1/2SM -SN BR BKN008 OVC015 02/00 A2983 RMK AO2 PK WND 05030/1910 P0002 T00170000 $
BVY,2017-04-01 19:25,-70.9161,42.5841,M,M,M,20.00,17.00,0.02,29.83,M,2.50,M,BKN,OVC,M,M,800.00,1500.00,M,M,-SN BR,KBVY 011925Z AUTO 02017KT 2 1/2SM -SN BR BKN008 OVC015 A2983 RMK P0002 MADISHF
BVY,2017-04-01 19:28,-70.9161,42.5841,35.10,33.10,92.32,30.00,15.00,0.02,29.83,M,2.50,24.00,OVC,M,M,M,1000.00,M,M,M,-SN BR,KBVY 011928Z 03015G24KT 2 1/2SM -SN BR OVC010 02/01 A2983 RMK AO2 PK WND 05030/1910 P0002 T00170006 $
BVY,2017-04-01 19:30,-70.9161,42.5841,M,M,M,30.00,19.00,0.02,29.83,M,2.50,M,BKN,OVC,M,M,999.00,1699.00,M,M,-SN BR,KBVY 011930Z AUTO 03019KT 2 1/2SM -SN BR BKN009 OVC016 A2983 RMK P0002 MADISHF
BVY,2017-04-01 19:35,-70.9161,42.5841,M,M,M,30.00,19.00,0.02,29.83,M,2.50,M,BKN,OVC,M,M,999.00,1699.00,M,M,-SN BR,KBVY 011935Z AUTO 03019KT 2 1/2SM -SN BR BKN009 OVC016 A2983 RMK P0002 MADISHF
BVY,2017-04-01 19:40,-70.9161,42.5841,M,M,M,30.00,17.00,0.02,29.83,M,3.00,23.00,BKN,OVC,M,M,900.00,1600.00,M,M,-SN BR,KBVY 011940Z AUTO 03017G23KT 3SM -SN BR BKN009 OVC016 A2983 RMK P0002 MADISHF
BVY,2017-04-01 19:44,-70.9161,42.5841,35.10,32.00,88.33,30.00,13.00,0.02,29.84,M,2.50,26.00,BKN,BKN,OVC,M,900.00,1300.00,1800.00,M,-SN BR,KBVY 011944Z 03013G26KT 2 1/2SM -SN BR BKN009 BKN013 OVC018 02/00 A2984 RMK AO2 PK WND 05030/1910 P0002 T00170000 $
BVY,2017-04-01 19:45,-70.9161,42.5841,M,M,M,30.00,14.00,0.02,29.84,M,2.50,24.00,BKN,BKN,OVC,M,900.00,1300.00,1800.00,M,-SN BR,KBVY 011945Z AUTO 03014G24KT 2 1/2SM -SN BR BKN009 BKN013 OVC018 A2984 RMK P0002 MADISHF
BVY,2017-04-01 19:50,-70.9161,42.5841,M,M,M,20.00,12.00,0.02,29.84,M,2.00,19.00,BKN,OVC,M,M,900.00,1300.00,M,M,-SN BR,KBVY 011950Z AUTO 02012G19KT 2SM -SN BR BKN009 OVC013 A2984 RMK P0002 MADISHF
BVY,2017-04-01 19:53,-70.9161,42.5841,35.10,33.10,92.32,30.00,10.00,0.02,29.84,1010.20,2.00,25.00,BKN,OVC,M,M,900.00,1300.00,M,M,-SN BR,KBVY 011953Z 03010G25KT 2SM -SN BR BKN009 OVC013 02/01 A2984 RMK AO2 PK WND 05030/1910 SLP102 P0002 T00170006 $
BVY,2017-04-01 19:55,-70.9161,42.5841,M,M,M,30.00,14.00,M,29.84,M,2.00,M,BKN,OVC,M,M,900.00,1300.00,M,M,-SN BR,KBVY 011955Z AUTO 03014KT 2SM -SN BR BKN009 OVC013 A2984 RMK MADISHF
BVY,2017-04-01 20:00,-70.9161,42.5841,M,M,M,30.00,15.00,M,29.84,M,2.50,M,BKN,OVC,M,M,800.00,1400.00,M,M,-SN BR,KBVY 012000Z AUTO 03015KT 2 1/2SM -SN BR BKN008 OVC014 A2984 RMK MADISHF
BVY,2017-04-01 20:05,-70.9161,42.5841,M,M,M,30.00,15.00,M,29.85,M,2.50,22.00,BKN,OVC,M,M,800.00,1400.00,M,M,-SN BR,KBVY 012005Z AUTO 03015G22KT 2 1/2SM -SN BR BKN008 OVC014 A2985 RMK MADISHF
BVY,2017-04-01 20:10,-70.9161,42.5841,M,M,M,20.00,17.00,0.01,29.85,M,2.00,M,BKN,OVC,M,M,800.00,1600.00,M,M,-SN BR,KBVY 012010Z AUTO 02017KT 2SM -SN BR BKN008 OVC016 A2985 RMK P0001 MADISHF
BVY,2017-04-01 20:15,-70.9161,42.5841,M,M,M,20.00,15.00,0.01,29.86,M,1.50,M,BKN,OVC,M,M,800.00,1600.00,M,M,-SN BR,KBVY 012015Z AUTO 02015KT 1 1/2SM -SN BR BKN008 OVC016 A2986 RMK P0001 MADISHF
BVY,2017-04-01 20:17,-70.9161,42.5841,35.10,33.10,92.32,20.00,15.00,0.01,29.86,M,1.25,25.00,BKN,OVC,M,M,800.00,1200.00,M,M,-SN BR,KBVY 012017Z 02015G25KT 1 1/4SM -SN BR BKN008 OVC012 02/01 A2986 RMK AO2 P0001 T00170006 $
BVY,2017-04-01 20:20,-70.9161,42.5841,M,M,M,10.00,14.00,0.01,29.86,M,1.25,M,BKN,OVC,M,M,800.00,1200.00,M,M,-SN BR,KBVY 012020Z AUTO 01014KT 1 1/2SM -SN BR BKN008 OVC012 A2986 RMK P0001 MADISHF
BVY,2017-04-01 20:25,-70.9161,42.5841,M,M,M,20.00,13.00,0.01,29.87,M,1.50,19.00,BKN,OVC,M,M,800.00,1300.00,M,M,-SN BR,KBVY 012025Z AUTO 02013G19KT 1 1/2SM -SN BR BKN008 OVC013 A2987 RMK P0001 MADISHF
BVY,2017-04-01 20:30,-70.9161,42.5841,M,M,M,10.00,12.00,0.01,29.87,M,1.75,M,BKN,OVC,M,M,800.00,1300.00,M,M,-SN BR,KBVY 012030Z AUTO 01012KT 2SM -SN BR BKN008 OVC013 A2987 RMK P0001 MADISHF
BVY,2017-04-01 20:35,-70.9161,42.5841,M,M,M,30.00,11.00,0.02,29.87,M,1.75,20.00,BKN,OVC,M,M,800.00,1200.00,M,M,-SN BR,KBVY 012035Z AUTO 03011G20KT 2SM -SN BR BKN008 OVC012 A2987 RMK P0002 MADISHF
BVY,2017-04-01 20:40,-70.9161,42.5841,M,M,M,20.00,13.00,0.02,29.87,M,1.50,M,OVC,M,M,M,800.00,M,M,M,-SN BR,KBVY 012040Z AUTO 02013KT 1 1/2SM -SN BR OVC008 A2987 RMK P0002 MADISHF
BVY,2017-04-01 20:45,-70.9161,42.5841,M,M,M,10.00,12.00,0.02,29.88,M,1.75,M,OVC,M,M,M,800.00,M,M,M,-SN BR,KBVY 012045Z AUTO 01012KT 2SM -SN BR OVC008 A2988 RMK P0002 MADISHF
BVY,2017-04-01 20:50,-70.9161,42.5841,M,M,M,20.00,15.00,0.02,29.88,M,1.75,M,OVC,M,M,M,800.00,M,M,M,-SN BR,KBVY 012050Z AUTO 02015KT 2SM -SN BR OVC008 A2988 RMK P0002 MADISHF
BVY,2017-04-01 20:53,-70.9161,42.5841,35.10,33.10,92.32,10.00,15.00,0.02,29.88,1011.70,1.75,20.00,OVC,M,M,M,800.00,M,M,M,-SN BR,KBVY 012053Z 01015G20KT 1 3/4SM -SN BR OVC008 02/01 A2988 RMK AO2 PK WND 03029/2037 SLP117 P0002 60009 T00170006 53017 $
BVY,2017-04-01 20:55,-70.9161,42.5841,M,M,M,10.00,12.00,0.01,29.88,M,1.50,M,OVC,M,M,M,800.00,M,M,M,-SN BR,KBVY 012055Z AUTO 01012KT 1 1/2SM -SN BR OVC008 A2988 RMK P0001 MADISHF
BVY,2017-04-01 21:00,-70.9161,42.5841,M,M,M,10.00,13.00,0.01,29.88,M,1.50,M,OVC,M,M,M,800.00,M,M,M,-SN BR,KBVY 012100Z AUTO 01013KT 1 1/2SM -SN BR OVC008 A2988 RMK P0001 MADISHF
BVY,2017-04-01 21:05,-70.9161,42.5841,M,M,M,20.00,13.00,0.01,29.89,M,1.75,M,OVC,M,M,M,800.00,M,M,M,-SN BR,KBVY 012105Z AUTO 02013KT 2SM -SN BR OVC008 A2989 RMK P0001 MADISHF
BVY,2017-04-01 21:10,-70.9161,42.5841,M,M,M,20.00,9.00,0.01,29.88,M,1.75,M,OVC,M,M,M,800.00,M,M,M,-SN BR,KBVY 012110Z AUTO 02009KT 2SM -SN BR OVC008 A2988 RMK P0001 MADISHF
BVY,2017-04-01 21:15,-70.9161,42.5841,M,M,M,20.00,14.00,0.01,29.88,M,1.50,20.00,OVC,M,M,M,800.00,M,M,M,-SN BR,KBVY 012115Z AUTO 02014G20KT 1 1/2SM -SN BR OVC008 A2988 RMK P0001 MADISHF
BVY,2017-04-01 21:20,-70.9161,42.5841,M,M,M,20.00,14.00,0.01,29.88,M,1.25,M,OVC,M,M,M,700.00,M,M,M,-SN BR,KBVY 012120Z AUTO 02014KT 1 1/2SM -SN BR OVC007 A2988 RMK P0001 MADISHF
BVY,2017-04-01 21:25,-70.9161,42.5841,M,M,M,20.00,11.00,0.01,29.89,M,1.25,16.00,OVC,M,M,M,700.00,M,M,M,-SN BR,KBVY 012125Z AUTO 02011G16KT 1 1/2SM -SN BR OVC007 A2989 RMK P0001 MADISHF
BVY,2017-04-01 21:30,-70.9161,42.5841,M,M,M,10.00,13.00,0.01,29.90,M,1.25,M,OVC,M,M,M,700.00,M,M,M,-SN BR,KBVY 012130Z AUTO 01013KT 1 1/2SM -SN BR OVC007 A2990 RMK P0001 MADISHF
BVY,2017-04-01 21:35,-70.9161,42.5841,M,M,M,10.00,12.00,0.01,29.90,M,1.25,M,OVC,M,M,M,700.00,M,M,M,-SN BR,KBVY 012135Z AUTO 01012KT 1 1/2SM -SN BR OVC007 A2990 RMK P0001 MADISHF
BVY,2017-04-01 21:40,-70.9161,42.5841,M,M,M,360.00,11.00,0.01,29.91,M,1.25,M,OVC,M,M,M,700.00,M,M,M,-SN BR,KBVY 012140Z AUTO 36011KT 1 1/2SM -SN BR OVC007 A2991 RMK P0001 MADISHF
BVY,2017-04-01 21:45,-70.9161,42.5841,M,M,M,10.00,13.00,0.02,29.91,M,1.50,M,OVC,M,M,M,700.00,M,M,M,-SN BR,KBVY 012145Z AUTO 01013KT 1 1/2SM -SN BR OVC007 A2991 RMK P0002 MADISHF
BVY,2017-04-01 21:50,-70.9161,42.5841,M,M,M,10.00,12.00,0.02,29.91,M,1.50,18.00,OVC,M,M,M,700.00,M,M,M,-SN BR,KBVY 012150Z AUTO 01012G18KT 1 1/2SM -SN BR OVC007 A2991 RMK P0002 MADISHF
BVY,2017-04-01 21:53,-70.9161,42.5841,34.00,33.10,96.46,10.00,10.00,0.02,29.91,1012.70,1.50,24.00,OVC,M,M,M,700.00,M,M,M,-SN BR,KBVY 012153Z 01010G24KT 1 1/2SM -SN BR OVC007 01/01 A2991 RMK AO2 SLP127 P0002 T00110006 $
BVY,2017-04-01 21:55,-70.9161,42.5841,M,M,M,10.00,13.00,M,29.92,M,1.75,M,OVC,M,M,M,700.00,M,M,M,-SN BR,KBVY 012155Z AUTO 01013KT 2SM -SN BR OVC007 A2992 RMK MADISHF
BVY,2017-04-01 22:00,-70.9161,42.5841,M,M,M,10.00,12.00,M,29.92,M,1.50,17.00,BKN,OVC,M,M,700.00,1100.00,M,M,-SN BR,KBVY 012200Z AUTO 01012G17KT 1 1/2SM -SN BR BKN007 OVC011 A2992 RMK MADISHF
BVY,2017-04-01 22:05,-70.9161,42.5841,M,M,M,10.00,11.00,M,29.93,M,1.25,M,OVC,M,M,M,900.00,M,M,M,-SN BR,KBVY 012205Z AUTO 01011KT 1 1/2SM -SN BR OVC009 A2993 RMK MADISHF
BVY,2017-04-01 22:10,-70.9161,42.5841,M,M,M,360.00,11.00,M,29.93,M,1.00,16.00,BKN,OVC,M,M,700.00,1200.00,M,M,-SN BR,KBVY 012210Z AUTO 36011G16KT 1SM -SN BR BKN007 OVC012 A2993 RMK MADISHF
BVY,2017-04-01 22:15,-70.9161,42.5841,M,M,M,360.00,9.00,M,29.93,M,1.00,14.00,OVC,M,M,M,700.00,M,M,M,-SN BR,KBVY 012215Z AUTO 36009G14KT 1SM -SN BR OVC007 A2993 RMK MADISHF
BVY,2017-04-01 22:20,-70.9161,42.5841,M,M,M,360.00,8.00,M,29.93,M,1.00,M,BKN,OVC,M,M,700.00,1100.00,M,M,-SN BR,KBVY 012220Z AUTO 36008KT 1SM -SN BR BKN007 OVC011 A2993 RMK MADISHF
BVY,2017-04-01 22:25,-70.9161,42.5841,M,M,M,360.00,8.00,M,29.94,M,0.75,M,OVC,M,M,M,700.00,M,M,M,-SN BR,KBVY 012225Z AUTO 36008KT 1SM -SN BR OVC007 A2994 RMK MADISHF
BVY,2017-04-01 22:30,-70.9161,42.5841,34.00,33.10,96.46,360.00,9.00,0.01,29.94,M,0.75,M,BKN,OVC,M,M,700.00,1000.00,M,M,-SN BR,KBVY 012230Z 36009KT 3/4SM -SN BR BKN007 OVC010 01/01 A2994 RMK AO2 P0001 T00110006 $
BVY,2017-04-01 22:35,-70.9161,42.5841,M,M,M,350.00,10.00,0.01,29.94,M,1.00,M,BKN,OVC,M,M,700.00,1100.00,M,M,-SN BR,KBVY 012235Z AUTO 35010KT 1SM -SN BR BKN007 OVC011 A2994 RMK P0001 CIG 4V8  MADISHF
BVY,2017-04-01 22:40,-70.9161,42.5841,M,M,M,360.00,10.00,0.01,29.94,M,1.00,M,OVC,M,M,M,700.00,M,M,M,-SN BR,KBVY 012240Z AUTO 36010KT 1SM -SN BR OVC007 A2994 RMK P0001 CIG 4V12  MADISHF
BVY,2017-04-01 22:41,-70.9161,42.5841,34.00,33.10,96.46,360.00,11.00,0.01,29.94,M,1.00,M,OVC,M,M,M,700.00,M,M,M,-SN BR,KBVY 012241Z 36011KT 1SM -SN BR OVC007 01/01 A2994 RMK AO2 CIG 004V011 P0001 T00110006 $
BVY,2017-04-01 22:45,-70.9161,42.5841,M,M,M,360.00,10.00,0.01,29.95,M,1.00,M,BKN,OVC,M,M,499.00,1200.00,M,M,-SN BR,KBVY 012245Z AUTO 36010KT 1SM -SN BR BKN004 OVC012 A2995 RMK P0001 CIG 4V9  MADISHF
BVY,2017-04-01 22:50,-70.9161,42.5841,M,M,M,350.00,10.00,0.01,29.95,M,1.25,M,BKN,OVC,M,M,700.00,1200.00,M,M,-SN BR,KBVY 012250Z AUTO 35010KT 1 1/2SM -SN BR BKN007 OVC012 A2995 RMK P0001 MADISHF
BVY,2017-04-01 22:53,-70.9161,42.5841,34.00,32.00,92.29,360.00,8.00,0.01,29.95,1013.80,1.00,M,BKN,OVC,M,M,700.00,1200.00,M,M,-SN BR,KBVY 012253Z 36008KT 1SM -SN BR BKN007 OVC012 01/00 A2995 RMK AO2 SLP138 P0001 T00110000 $
BVY,2017-04-01 22:55,-70.9161,42.5841,M,M,M,360.00,10.00,M,29.95,M,1.00,M,BKN,OVC,M,M,700.00,1200.00,M,M,-SN BR,KBVY 012255Z AUTO 36010KT 1SM -SN BR BKN007 OVC012 A2995 RMK MADISHF
BVY,2017-04-01 23:00,-70.9161,42.5841,M,M,M,350.00,9.00,M,29.95,M,1.00,M,BKN,OVC,M,M,700.00,1200.00,M,M,-SN BR,KBVY 012300Z AUTO 35009KT 1SM -SN BR BKN007 OVC012 A2995 RMK MADISHF
BVY,2017-04-01 23:05,-70.9161,42.5841,M,M,M,350.00,8.00,M,29.95,M,1.00,M,BKN,OVC,M,M,700.00,1200.00,M,M,-SN BR,KBVY 012305Z AUTO 35008KT 1SM -SN BR BKN007 OVC012 A2995 RMK MADISHF
BVY,2017-04-01 23:10,-70.9161,42.5841,M,M,M,360.00,8.00,M,29.95,M,1.25,M,BKN,OVC,M,M,700.00,1200.00,M,M,-SN BR,KBVY 012310Z AUTO 36008KT 1 1/2SM -SN BR BKN007 OVC012 A2995 RMK MADISHF
BVY,2017-04-01 23:15,-70.9161,42.5841,M,M,M,360.00,8.00,M,29.95,M,1.50,M,BKN,OVC,M,M,700.00,1200.00,M,M,-SN BR,KBVY 012315Z AUTO 36008KT 1 1/2SM -SN BR BKN007 OVC012 A2995 RMK MADISHF
BVY,2017-04-01 23:20,-70.9161,42.5841,M,M,M,350.00,9.00,M,29.95,M,2.00,M,BKN,OVC,M,M,700.00,1200.00,M,M,-SN BR,KBVY 012320Z AUTO 35009KT 2SM -SN BR BKN007 OVC012 A2995 RMK MADISHF
BVY,2017-04-01 23:25,-70.9161,42.5841,34.00,32.00,92.29,350.00,9.00,0.00,29.95,M,3.00,M,BKN,OVC,M,M,700.00,1200.00,M,M,UP BR,KBVY 012325Z 35009KT 3SM UP BR BKN007 OVC012 01/00 A2995 RMK AO2 UPB21SNE21 P0000 T00110000 $
BVY,2017-04-01 23:30,-70.9161,42.5841,M,M,M,350.00,10.00,M,29.95,M,4.00,15.00,BKN,OVC,M,M,700.00,1300.00,M,M,BR,KBVY 012330Z AUTO 35010G15KT 4SM BR BKN007 OVC013 A2995 RMK MADISHF
BVY,2017-04-01 23:35,-70.9161,42.5841,M,M,M,340.00,9.00,0.00,29.95,M,5.00,M,BKN,OVC,M,M,700.00,1300.00,M,M,UP BR,KBVY 012335Z AUTO 34009KT 5SM UP BR BKN007 OVC013 A2995 RMK P0000 MADISHF
BVY,2017-04-01 23:40,-70.9161,42.5841,M,M,M,340.00,9.00,0.00,29.95,M,6.00,M,BKN,OVC,M,M,700.00,1300.00,M,M,UP BR,KBVY 012340Z AUTO 34009KT 6SM UP BR BKN007 OVC013 A2995 RMK P0000 MADISHF
BVY,2017-04-01 23:45,-70.9161,42.5841,M,M,M,350.00,10.00,M,29.95,M,7.00,M,BKN,OVC,M,M,900.00,1500.00,M,M,M,KBVY 012345Z AUTO 35010KT 7SM BKN009 OVC015 A2995 RMK CIG 5V13  MADISHF
BVY,2017-04-01 23:50,-70.9161,42.5841,M,M,M,350.00,11.00,0.00,29.95,M,7.00,16.00,BKN,OVC,M,M,900.00,1500.00,M,M,UP,KBVY 012350Z AUTO 35011G16KT 7SM UP BKN009 OVC015 A2995 RMK P0000 CIG 5V13  MADISHF
BVY,2017-04-01 23:53,-70.9161,42.5841,34.00,32.00,92.29,350.00,9.00,0.00,29.95,1014.00,8.00,17.00,BKN,OVC,M,M,900.00,1500.00,M,M,UP,KBVY 012353Z 35009G17KT 8SM UP BKN009 OVC015 01/00 A2995 RMK AO2 UPB21SNE21 CIG 005V013 SLP140 P0000 60012 T00110000 10017 20011 51024 $
BVY,2017-04-01 23:55,-70.9161,42.5841,M,M,M,350.00,11.00,0.00,29.95,M,8.00,M,BKN,OVC,M,M,900.00,1500.00,M,M,UP,KBVY 012355Z AUTO 35011KT 8SM UP BKN009 OVC015 A2995 RMK P0000 CIG 5V13  MADISHF
