#DEBUG: Format Typ    -> comma
#DEBUG: Time Period   -> 2017-04-01 00:00:00+00:00 2017-04-02 00:00:00+00:00
#DEBUG: Time Zone     -> Etc/UTC
#DEBUG: Data Contact   -> daryl herzmann akrherz@iastate.edu 515-294-5978
#DEBUG: Entries Found -> -1
station,valid,lon,lat,tmpf, dwpf, relh, drct, sknt, p01i, alti, mslp, vsby, gust, skyc1, skyc2, skyc3, skyc4, skyl1, skyl2, skyl3, skyl4, presentwx, metar
BWG,2017-04-01 00:00,-86.4197,36.9645,M,M,M,320.00,5.00,M,29.94,M,10.00,M,OVC,M,M,M,1900.00,M,M,M,M,KBWG 010000Z AUTO 32005KT 10SM OVC019 A2994 RMK MADISHF
BWG,2017-04-01 00:05,-86.4197,36.9645,M,M,M,330.00,6.00,M,29.95,M,10.00,M,OVC,M,M,M,1999.00,M,M,M,M,KBWG 010005Z AUTO 33006KT 10SM OVC019 A2995 RMK MADISHF
BWG,2017-04-01 00:10,-86.4197,36.9645,M,M,M,320.00,8.00,M,29.95,M,10.00,M,OVC,M,M,M,1999.00,M,M,M,M,KBWG 010010Z AUTO 32008KT 10SM OVC019 A2995 RMK MADISHF
BWG,2017-04-01 00:15,-86.4197,36.9645,M,M,M,320.00,7.00,M,29.95,M,10.00,M,OVC,M,M,M,1999.00,M,M,M,M,KBWG 010015Z AUTO 32007KT 10SM OVC019 A2995 RMK MADISHF
BWG,2017-04-01 00:20,-86.4197,36.9645,M,M,M,330.00,6.00,M,29.95,M,10.00,M,OVC,M,M,M,1999.00,M,M,M,M,KBWG 010020Z AUTO 33006KT 10SM OVC019 A2995 RMK MADISHF
BWG,2017-04-01 00:25,-86.4197,36.9645,M,M,M,330.00,7.00,M,29.95,M,10.00,M,OVC,M,M,M,1999.00,M,M,M,M,KBWG 010025Z AUTO 33007KT 10SM OVC019 A2995 RMK MADISHF
BWG,2017-04-01 00:30,-86.4197,36.9645,M,M,M,330.00,8.00,M,29.95,M,10.00,M,OVC,M,M,M,1999.00,M,M,M,M,KBWG 010030Z AUTO 33008KT 10SM OVC019 A2995 RMK MADISHF
BWG,2017-04-01 00:35,-86.4197,36.9645,M,M,M,320.00,6.00,M,29.95,M,10.00,M,OVC,M,M,M,1999.00,M,M,M,M,KBWG 010035Z AUTO 32006KT 10SM OVC019 A2995 RMK MADISHF
BWG,2017-04-01 00:40,-86.4197,36.9645,M,M,M,320.00,6.00,M,29.95,M,10.00,M,BKN,OVC,M,M,1999.00,3800.00,M,M,M,KBWG 010040Z AUTO 32006KT 10SM BKN019 OVC038 A2995 RMK MADISHF
BWG,2017-04-01 00:45,-86.4197,36.9645,M,M,M,320.00,7.00,M,29.95,M,10.00,M,BKN,OVC,M,M,1999.00,3800.00,M,M,M,KBWG 010045Z AUTO 32007KT 10SM BKN019 OVC038 A2995 RMK MADISHF
BWG,2017-04-01 00:50,-86.4197,36.9645,M,M,M,310.00,6.00,M,29.95,M,10.00,M,BKN,OVC,M,M,1999.00,3800.00,M,M,M,KBWG 010050Z AUTO 31006KT 10SM BKN019 OVC038 A2995 RMK MADISHF
BWG,2017-04-01 00:53,-86.4197,36.9645,51.10,44.10,76.86,320.00,6.00,0.00,29.96,1014.30,10.00,M,BKN,OVC,M,M,2000.00,3800.00,M,M,M,KBWG 010053Z AUTO 32006KT 10SM BKN020 OVC038 11/07 A2996 RMK AO2 SLP143 T01060067 TSNO
BWG,2017-04-01 00:55,-86.4197,36.9645,M,M,M,320.00,7.00,M,29.96,M,10.00,M,BKN,OVC,M,M,1999.00,3800.00,M,M,M,KBWG 010055Z AUTO 32007KT 10SM BKN019 OVC038 A2996 RMK MADISHF
BWG,2017-04-01 01:00,-86.4197,36.9645,M,M,M,330.00,6.00,M,29.96,M,10.00,M,BKN,OVC,M,M,1999.00,3800.00,M,M,M,KBWG 010100Z AUTO 33006KT 10SM BKN019 OVC038 A2996 RMK MADISHF
BWG,2017-04-01 01:05,-86.4197,36.9645,M,M,M,320.00,6.00,M,29.96,M,10.00,M,BKN,OVC,M,M,1800.00,3800.00,M,M,M,KBWG 010105Z AUTO 32006KT 10SM BKN018 OVC038 A2996 RMK MADISHF
BWG,2017-04-01 01:10,-86.4197,36.9645,M,M,M,320.00,5.00,M,29.97,M,10.00,M,BKN,OVC,M,M,1800.00,3800.00,M,M,M,KBWG 010110Z AUTO 32005KT 10SM BKN018 OVC038 A2997 RMK MADISHF
BWG,2017-04-01 01:15,-86.4197,36.9645,M,M,M,360.00,4.00,M,29.97,M,10.00,M,OVC,M,M,M,1800.00,M,M,M,M,KBWG 010115Z AUTO 36004KT 10SM OVC018 A2997 RMK VRB04KT  MADISHF
BWG,2017-04-01 01:20,-86.4197,36.9645,M,M,M,M,M,M,29.98,M,10.00,M,OVC,M,M,M,1699.00,M,M,M,M,KBWG 010120Z AUTO /////KT 10SM OVC016 A2998 RMK MADISHF
BWG,2017-04-01 01:25,-86.4197,36.9645,M,M,M,340.00,7.00,M,29.98,M,10.00,M,OVC,M,M,M,1699.00,M,M,M,M,KBWG 010125Z AUTO 34007KT 10SM OVC016 A2998 RMK MADISHF
BWG,2017-04-01 01:30,-86.4197,36.9645,M,M,M,330.00,6.00,M,29.98,M,10.00,M,OVC,M,M,M,1699.00,M,M,M,M,KBWG 010130Z AUTO 33006KT 10SM OVC016 A2998 RMK MADISHF
BWG,2017-04-01 01:35,-86.4197,36.9645,M,M,M,340.00,6.00,M,29.99,M,10.00,M,OVC,M,M,M,1699.00,M,M,M,M,KBWG 010135Z AUTO 34006KT 10SM OVC016 A2999 RMK MADISHF
BWG,2017-04-01 01:40,-86.4197,36.9645,M,M,M,330.00,7.00,M,29.99,M,10.00,M,OVC,M,M,M,1699.00,M,M,M,M,KBWG 010140Z AUTO 33007KT 10SM OVC016 A2999 RMK MADISHF
BWG,2017-04-01 01:45,-86.4197,36.9645,M,M,M,320.00,7.00,M,29.99,M,10.00,M,OVC,M,M,M,1500.00,M,M,M,M,KBWG 010145Z AUTO 32007KT 10SM OVC015 A2999 RMK MADISHF
BWG,2017-04-01 01:50,-86.4197,36.9645,M,M,M,320.00,7.00,M,29.99,M,10.00,M,OVC,M,M,M,1500.00,M,M,M,M,KBWG 010150Z AUTO 32007KT 10SM OVC015 A2999 RMK MADISHF
BWG,2017-04-01 01:53,-86.4197,36.9645,50.00,44.10,80.06,320.00,5.00,0.00,29.99,1015.50,10.00,M,OVC,M,M,M,1500.00,M,M,M,M,KBWG 010153Z AUTO 32005KT 10SM OVC015 10/07 A2999 RMK AO2 SLP155 T01000067 TSNO
BWG,2017-04-01 01:55,-86.4197,36.9645,M,M,M,300.00,6.00,M,29.99,M,10.00,M,OVC,M,M,M,1600.00,M,M,M,M,KBWG 010155Z AUTO 30006KT 10SM OVC016 A2999 RMK MADISHF
BWG,2017-04-01 02:00,-86.4197,36.9645,M,M,M,300.00,6.00,M,29.99,M,10.00,M,OVC,M,M,M,1600.00,M,M,M,M,KBWG 010200Z AUTO 30006KT 10SM OVC016 A2999 RMK MADISHF
BWG,2017-04-01 02:05,-86.4197,36.9645,M,M,M,320.00,4.00,M,29.99,M,10.00,M,OVC,M,M,M,1600.00,M,M,M,M,KBWG 010205Z AUTO 32004KT 10SM OVC016 A2999 RMK MADISHF
BWG,2017-04-01 02:10,-86.4197,36.9645,M,M,M,300.00,4.00,M,30.00,M,10.00,M,OVC,M,M,M,1600.00,M,M,M,M,KBWG 010210Z AUTO 30004KT 10SM OVC016 A3000 RMK VRB04KT  MADISHF
BWG,2017-04-01 02:15,-86.4197,36.9645,M,M,M,310.00,6.00,M,30.00,M,10.00,M,OVC,M,M,M,1500.00,M,M,M,M,KBWG 010215Z AUTO 31006KT 10SM OVC015 A3000 RMK MADISHF
BWG,2017-04-01 02:20,-86.4197,36.9645,M,M,M,310.00,5.00,M,30.00,M,10.00,M,OVC,M,M,M,1699.00,M,M,M,M,KBWG 010220Z AUTO 31005KT 10SM OVC016 A3000 RMK MADISHF
BWG,2017-04-01 02:25,-86.4197,36.9645,M,M,M,320.00,6.00,M,30.00,M,10.00,M,OVC,M,M,M,1699.00,M,M,M,M,KBWG 010225Z AUTO 32006KT 10SM OVC016 A3000 RMK MADISHF
BWG,2017-04-01 02:30,-86.4197,36.9645,M,M,M,320.00,4.00,M,30.01,M,10.00,M,OVC,M,M,M,1500.00,M,M,M,M,KBWG 010230Z AUTO 32004KT 10SM OVC015 A3001 RMK MADISHF
BWG,2017-04-01 02:35,-86.4197,36.9645,M,M,M,330.00,4.00,M,30.01,M,10.00,M,OVC,M,M,M,1500.00,M,M,M,M,KBWG 010235Z AUTO 33004KT 10SM OVC015 A3001 RMK MADISHF
BWG,2017-04-01 02:40,-86.4197,36.9645,M,M,M,330.00,6.00,M,30.01,M,10.00,M,OVC,M,M,M,1600.00,M,M,M,M,KBWG 010240Z AUTO 33006KT 10SM OVC016 A3001 RMK MADISHF
BWG,2017-04-01 02:45,-86.4197,36.9645,M,M,M,330.00,5.00,M,30.01,M,10.00,M,OVC,M,M,M,1600.00,M,M,M,M,KBWG 010245Z AUTO 33005KT 10SM OVC016 A3001 RMK MADISHF
BWG,2017-04-01 02:50,-86.4197,36.9645,M,M,M,330.00,5.00,M,30.01,M,10.00,M,OVC,M,M,M,1600.00,M,M,M,M,KBWG 010250Z AUTO 33005KT 10SM OVC016 A3001 RMK MADISHF
BWG,2017-04-01 02:53,-86.4197,36.9645,50.00,43.00,76.76,330.00,4.00,0.00,30.01,1016.00,10.00,M,OVC,M,M,M,1500.00,M,M,M,M,KBWG 010253Z AUTO 33004KT 10SM OVC015 10/06 A3001 RMK AO2 SLP160 T01000061 53020 TSNO
BWG,2017-04-01 02:55,-86.4197,36.9645,M,M,M,330.00,5.00,M,30.00,M,10.00,M,OVC,M,M,M,1500.00,M,M,M,M,KBWG 010255Z AUTO 33005KT 10SM OVC015 A3000 RMK MADISHF
BWG,2017-04-01 03:00,-86.4197,36.9645,M,M,M,330.00,4.00,M,30.01,M,10.00,M,OVC,M,M,M,1500.00,M,M,M,M,KBWG 010300Z AUTO 33004KT 10SM OVC015 A3001 RMK VRB04KT  MADISHF
BWG,2017-04-01 03:05,-86.4197,36.9645,M,M,M,340.00,5.00,M,30.01,M,10.00,M,OVC,M,M,M,1500.00,M,M,M,M,KBWG 010305Z AUTO 34005KT 10SM OVC015 A3001 RMK MADISHF
BWG,2017-04-01 03:10,-86.4197,36.9645,M,M,M,310.00,5.00,M,30.01,M,10.00,M,OVC,M,M,M,1500.00,M,M,M,M,KBWG 010310Z AUTO 31005KT 10SM OVC015 A3001 RMK MADISHF
BWG,2017-04-01 03:15,-86.4197,36.9645,M,M,M,330.00,5.00,M,30.01,M,10.00,M,OVC,M,M,M,1500.00,M,M,M,M,KBWG 010315Z AUTO 33005KT 10SM OVC015 A3001 RMK MADISHF
BWG,2017-04-01 03:20,-86.4197,36.9645,M,M,M,320.00,6.00,M,30.01,M,10.00,M,OVC,M,M,M,1500.00,M,M,M,M,KBWG 010320Z AUTO 32006KT 10SM OVC015 A3001 RMK MADISHF
BWG,2017-04-01 03:25,-86.4197,36.9645,M,M,M,320.00,4.00,M,30.01,M,10.00,M,OVC,M,M,M,1500.00,M,M,M,M,KBWG 010325Z AUTO 32004KT 10SM OVC015 A3001 RMK MADISHF
BWG,2017-04-01 03:30,-86.4197,36.9645,M,M,M,320.00,3.00,M,30.01,M,10.00,M,OVC,M,M,M,1600.00,M,M,M,M,KBWG 010330Z AUTO 32003KT 10SM OVC016 A3001 RMK VRB03KT  MADISHF
BWG,2017-04-01 03:35,-86.4197,36.9645,M,M,M,320.00,7.00,M,30.01,M,10.00,M,OVC,M,M,M,1600.00,M,M,M,M,KBWG 010335Z AUTO 32007KT 10SM OVC016 A3001 RMK MADISHF
BWG,2017-04-01 03:40,-86.4197,36.9645,M,M,M,320.00,6.00,M,30.02,M,10.00,M,OVC,M,M,M,1600.00,M,M,M,M,KBWG 010340Z AUTO 32006KT 10SM OVC016 A3002 RMK MADISHF
BWG,2017-04-01 03:45,-86.4197,36.9645,M,M,M,350.00,4.00,M,30.02,M,10.00,M,OVC,M,M,M,1600.00,M,M,M,M,KBWG 010345Z AUTO 35004KT 10SM OVC016 A3002 RMK VRB04KT  MADISHF
BWG,2017-04-01 03:50,-86.4197,36.9645,M,M,M,330.00,5.00,M,30.02,M,10.00,M,OVC,M,M,M,1600.00,M,M,M,M,KBWG 010350Z AUTO 33005KT 10SM OVC016 A3002 RMK MADISHF
BWG,2017-04-01 03:53,-86.4197,36.9645,48.90,43.00,79.98,320.00,6.00,0.00,30.02,1016.40,10.00,M,OVC,M,M,M,1600.00,M,M,M,M,KBWG 010353Z AUTO 32006KT 10SM OVC016 09/06 A3002 RMK AO2 SLP164 T00940061 TSNO
BWG,2017-04-01 03:55,-86.4197,36.9645,M,M,M,330.00,5.00,M,30.02,M,10.00,M,BKN,OVC,M,M,1400.00,1900.00,M,M,M,KBWG 010355Z AUTO 33005KT 10SM BKN014 OVC019 A3002 RMK MADISHF
BWG,2017-04-01 04:00,-86.4197,36.9645,48.90,43.00,79.98,310.00,7.00,0.00,30.02,M,10.00,M,OVC,M,M,M,1400.00,M,M,M,M,KBWG 010400Z AUTO 31007KT 10SM OVC014 09/06 A3002 RMK AO2 T00940061 TSNO
BWG,2017-04-01 04:05,-86.4197,36.9645,M,M,M,320.00,6.00,M,30.02,M,10.00,M,OVC,M,M,M,1400.00,M,M,M,M,KBWG 010405Z AUTO 32006KT 10SM OVC014 A3002 RMK MADISHF
BWG,2017-04-01 04:10,-86.4197,36.9645,M,M,M,300.00,5.00,M,30.02,M,10.00,M,OVC,M,M,M,1600.00,M,M,M,M,KBWG 010410Z AUTO 30005KT 10SM OVC016 A3002 RMK MADISHF
BWG,2017-04-01 04:12,-86.4197,36.9645,48.90,43.00,79.98,310.00,7.00,0.00,30.02,M,10.00,M,OVC,M,M,M,1600.00,M,M,M,M,KBWG 010412Z AUTO 31007KT 10SM OVC016 09/06 A3002 RMK AO2 T00940061 TSNO
BWG,2017-04-01 04:15,-86.4197,36.9645,M,M,M,330.00,4.00,M,30.03,M,10.00,M,OVC,M,M,M,1600.00,M,M,M,M,KBWG 010415Z AUTO 33004KT 10SM OVC016 A3003 RMK VRB04KT  MADISHF
BWG,2017-04-01 04:20,-86.4197,36.9645,M,M,M,330.00,4.00,M,30.03,M,10.00,M,OVC,M,M,M,1600.00,M,M,M,M,KBWG 010420Z AUTO 33004KT 10SM OVC016 A3003 RMK MADISHF
BWG,2017-04-01 04:25,-86.4197,36.9645,M,M,M,330.00,7.00,M,30.02,M,10.00,M,OVC,M,M,M,1600.00,M,M,M,M,KBWG 010425Z AUTO 33007KT 10SM OVC016 A3002 RMK MADISHF
BWG,2017-04-01 04:30,-86.4197,36.9645,M,M,M,330.00,7.00,M,30.02,M,10.00,M,OVC,M,M,M,1600.00,M,M,M,M,KBWG 010430Z AUTO 33007KT 10SM OVC016 A3002 RMK MADISHF
BWG,2017-04-01 04:35,-86.4197,36.9645,M,M,M,320.00,5.00,M,30.03,M,10.00,M,OVC,M,M,M,1600.00,M,M,M,M,KBWG 010435Z AUTO 32005KT 10SM OVC016 A3003 RMK MADISHF
BWG,2017-04-01 04:40,-86.4197,36.9645,M,M,M,340.00,5.00,M,30.03,M,10.00,M,BKN,OVC,M,M,1600.00,3300.00,M,M,M,KBWG 010440Z AUTO 34005KT 10SM BKN016 OVC033 A3003 RMK MADISHF
BWG,2017-04-01 04:45,-86.4197,36.9645,M,M,M,330.00,7.00,M,30.03,M,10.00,M,BKN,BKN,OVC,M,1600.00,2200.00,3300.00,M,M,KBWG 010445Z AUTO 33007KT 10SM BKN016 BKN022 OVC033 A3003 RMK MADISHF
BWG,2017-04-01 04:50,-86.4197,36.9645,M,M,M,310.00,5.00,M,30.03,M,10.00,M,BKN,OVC,M,M,1600.00,3300.00,M,M,M,KBWG 010450Z AUTO 31005KT 10SM BKN016 OVC033 A3003 RMK MADISHF
BWG,2017-04-01 04:53,-86.4197,36.9645,48.90,42.10,77.26,320.00,7.00,0.00,30.03,1016.80,10.00,M,SCT,OVC,M,M,1600.00,3300.00,M,M,M,KBWG 010453Z AUTO 32007KT 10SM SCT016 OVC033 09/06 A3003 RMK AO2 SLP168 T00940056 TSNO
BWG,2017-04-01 04:55,-86.4197,36.9645,M,M,M,320.00,7.00,M,30.03,M,10.00,M,SCT,OVC,M,M,1600.00,3300.00,M,M,M,KBWG 010455Z AUTO 32007KT 10SM SCT016 OVC033 A3003 RMK MADISHF
BWG,2017-04-01 05:00,-86.4197,36.9645,M,M,M,330.00,4.00,M,30.03,M,10.00,M,SCT,OVC,M,M,1600.00,3300.00,M,M,M,KBWG 010500Z AUTO 33004KT 10SM SCT016 OVC033 A3003 RMK MADISHF
BWG,2017-04-01 05:05,-86.4197,36.9645,M,M,M,310.00,6.00,M,30.03,M,10.00,M,SCT,OVC,M,M,1600.00,3300.00,M,M,M,KBWG 010505Z AUTO 31006KT 10SM SCT016 OVC033 A3003 RMK MADISHF
BWG,2017-04-01 05:10,-86.4197,36.9645,M,M,M,320.00,3.00,M,30.03,M,10.00,M,BKN,OVC,M,M,1600.00,3300.00,M,M,M,KBWG 010510Z AUTO 32003KT 10SM BKN016 OVC033 A3003 RMK MADISHF
BWG,2017-04-01 05:12,-86.4197,36.9645,48.90,42.10,77.26,320.00,4.00,0.00,30.03,M,10.00,M,BKN,OVC,M,M,1600.00,3300.00,M,M,M,KBWG 010512Z AUTO 32004KT 10SM BKN016 OVC033 09/06 A3003 RMK AO2 T00940056 TSNO
BWG,2017-04-01 05:15,-86.4197,36.9645,M,M,M,320.00,5.00,M,30.03,M,10.00,M,BKN,OVC,M,M,1600.00,3300.00,M,M,M,KBWG 010515Z AUTO 32005KT 10SM BKN016 OVC033 A3003 RMK MADISHF
BWG,2017-04-01 05:20,-86.4197,36.9645,M,M,M,310.00,6.00,M,30.04,M,10.00,M,BKN,OVC,M,M,1600.00,3300.00,M,M,M,KBWG 010520Z AUTO 31006KT 10SM BKN016 OVC033 A3004 RMK MADISHF
BWG,2017-04-01 05:25,-86.4197,36.9645,M,M,M,320.00,7.00,M,30.04,M,10.00,M,OVC,M,M,M,1600.00,M,M,M,M,KBWG 010525Z AUTO 32007KT 10SM OVC016 A3004 RMK MADISHF
BWG,2017-04-01 05:30,-86.4197,36.9645,M,M,M,320.00,7.00,M,30.04,M,10.00,M,OVC,M,M,M,1600.00,M,M,M,M,KBWG 010530Z AUTO 32007KT 10SM OVC016 A3004 RMK MADISHF
BWG,2017-04-01 05:35,-86.4197,36.9645,M,M,M,320.00,6.00,M,30.05,M,10.00,M,OVC,M,M,M,1800.00,M,M,M,M,KBWG 010535Z AUTO 32006KT 10SM OVC018 A3005 RMK MADISHF
BWG,2017-04-01 05:40,-86.4197,36.9645,M,M,M,340.00,6.00,M,30.05,M,10.00,M,OVC,M,M,M,1600.00,M,M,M,M,KBWG 010540Z AUTO 34006KT 10SM OVC016 A3005 RMK MADISHF
BWG,2017-04-01 05:45,-86.4197,36.9645,M,M,M,320.00,6.00,M,30.05,M,10.00,M,OVC,M,M,M,1600.00,M,M,M,M,KBWG 010545Z AUTO 32006KT 10SM OVC016 A3005 RMK MADISHF
BWG,2017-04-01 05:50,-86.4197,36.9645,M,M,M,330.00,6.00,M,30.05,M,10.00,M,OVC,M,M,M,1600.00,M,M,M,M,KBWG 010550Z AUTO 33006KT 10SM OVC016 A3005 RMK MADISHF
BWG,2017-04-01 05:53,-86.4197,36.9645,48.00,42.10,79.91,330.00,5.00,0.00,30.05,1017.40,10.00,M,OVC,M,M,M,1600.00,M,M,M,M,KBWG 010553Z AUTO 33005KT 10SM OVC016 09/06 A3005 RMK AO2 SLP174 T00890056 10111 20089 401440089 53014 TSNO
BWG,2017-04-01 05:55,-86.4197,36.9645,M,M,M,320.00,3.00,M,30.05,M,10.00,M,OVC,M,M,M,1600.00,M,M,M,M,KBWG 010555Z AUTO 32003KT 10SM OVC016 A3005 RMK MADISHF
BWG,2017-04-01 06:00,-86.4197,36.9645,M,M,M,310.00,5.00,M,30.05,M,10.00,M,OVC,M,M,M,1600.00,M,M,M,M,KBWG 010600Z AUTO 31005KT 10SM OVC016 A3005 RMK MADISHF
BWG,2017-04-01 06:05,-86.4197,36.9645,M,M,M,340.00,5.00,M,30.05,M,10.00,M,OVC,M,M,M,1600.00,M,M,M,M,KBWG 010605Z AUTO 34005KT 10SM OVC016 A3005 RMK MADISHF
BWG,2017-04-01 06:10,-86.4197,36.9645,M,M,M,320.00,4.00,M,30.05,M,10.00,M,BKN,OVC,M,M,1600.00,2100.00,M,M,M,KBWG 010610Z AUTO 32004KT 10SM BKN016 OVC021 A3005 RMK MADISHF
BWG,2017-04-01 06:15,-86.4197,36.9645,M,M,M,320.00,4.00,M,30.05,M,10.00,M,OVC,M,M,M,1800.00,M,M,M,M,KBWG 010615Z AUTO 32004KT 10SM OVC018 A3005 RMK MADISHF
BWG,2017-04-01 06:20,-86.4197,36.9645,M,M,M,340.00,4.00,M,30.05,M,10.00,M,OVC,M,M,M,1800.00,M,M,M,M,KBWG 010620Z AUTO 34004KT 10SM OVC018 A3005 RMK MADISHF
BWG,2017-04-01 06:25,-86.4197,36.9645,M,M,M,330.00,3.00,M,30.05,M,10.00,M,OVC,M,M,M,1800.00,M,M,M,M,KBWG 010625Z AUTO 33003KT 10SM OVC018 A3005 RMK VRB03KT  MADISHF
BWG,2017-04-01 06:30,-86.4197,36.9645,M,M,M,320.00,3.00,M,30.05,M,10.00,M,OVC,M,M,M,1900.00,M,M,M,M,KBWG 010630Z AUTO 32003KT 10SM OVC019 A3005 RMK MADISHF
BWG,2017-04-01 06:35,-86.4197,36.9645,M,M,M,330.00,3.00,M,30.05,M,10.00,M,OVC,M,M,M,1900.00,M,M,M,M,KBWG 010635Z AUTO 33003KT 10SM OVC019 A3005 RMK MADISHF
BWG,2017-04-01 06:40,-86.4197,36.9645,M,M,M,320.00,5.00,M,30.05,M,10.00,M,OVC,M,M,M,1699.00,M,M,M,M,KBWG 010640Z AUTO 32005KT 10SM OVC016 A3005 RMK MADISHF
BWG,2017-04-01 06:45,-86.4197,36.9645,M,M,M,330.00,4.00,M,30.05,M,10.00,M,OVC,M,M,M,1699.00,M,M,M,M,KBWG 010645Z AUTO 33004KT 10SM OVC016 A3005 RMK MADISHF
BWG,2017-04-01 06:50,-86.4197,36.9645,M,M,M,320.00,5.00,M,30.05,M,10.00,M,OVC,M,M,M,1699.00,M,M,M,M,KBWG 010650Z AUTO 32005KT 10SM OVC016 A3005 RMK MADISHF
BWG,2017-04-01 06:53,-86.4197,36.9645,48.00,41.00,76.58,330.00,6.00,0.00,30.05,1017.60,10.00,M,OVC,M,M,M,1700.00,M,M,M,M,KBWG 010653Z AUTO 33006KT 10SM OVC017 09/05 A3005 RMK AO2 SLP176 T00890050 TSNO
BWG,2017-04-01 06:55,-86.4197,36.9645,M,M,M,330.00,6.00,M,30.05,M,10.00,M,OVC,M,M,M,1600.00,M,M,M,M,KBWG 010655Z AUTO 33006KT 10SM OVC016 A3005 RMK MADISHF
BWG,2017-04-01 07:00,-86.4197,36.9645,M,M,M,320.00,5.00,M,30.05,M,10.00,M,OVC,M,M,M,1600.00,M,M,M,M,KBWG 010700Z AUTO 32005KT 10SM OVC016 A3005 RMK VRB05KT  MADISHF
BWG,2017-04-01 07:05,-86.4197,36.9645,M,M,M,320.00,6.00,M,30.06,M,10.00,M,OVC,M,M,M,1600.00,M,M,M,M,KBWG 010705Z AUTO 32006KT 10SM OVC016 A3006 RMK MADISHF
BWG,2017-04-01 07:10,-86.4197,36.9645,M,M,M,330.00,7.00,M,30.06,M,10.00,M,OVC,M,M,M,1600.00,M,M,M,M,KBWG 010710Z AUTO 33007KT 10SM OVC016 A3006 RMK MADISHF
BWG,2017-04-01 07:15,-86.4197,36.9645,M,M,M,330.00,5.00,M,30.06,M,10.00,M,OVC,M,M,M,1600.00,M,M,M,M,KBWG 010715Z AUTO 33005KT 10SM OVC016 A3006 RMK MADISHF
BWG,2017-04-01 07:20,-86.4197,36.9645,M,M,M,320.00,7.00,M,30.06,M,10.00,M,OVC,M,M,M,1600.00,M,M,M,M,KBWG 010720Z AUTO 32007KT 10SM OVC016 A3006 RMK MADISHF
BWG,2017-04-01 07:25,-86.4197,36.9645,M,M,M,320.00,6.00,M,30.06,M,10.00,M,OVC,M,M,M,1600.00,M,M,M,M,KBWG 010725Z AUTO 32006KT 10SM OVC016 A3006 RMK MADISHF
BWG,2017-04-01 07:30,-86.4197,36.9645,M,M,M,310.00,6.00,M,30.06,M,10.00,M,BKN,OVC,M,M,1600.00,2500.00,M,M,M,KBWG 010730Z AUTO 31006KT 10SM BKN016 OVC025 A3006 RMK MADISHF
BWG,2017-04-01 07:35,-86.4197,36.9645,M,M,M,310.00,7.00,M,30.06,M,10.00,M,BKN,OVC,M,M,1800.00,2500.00,M,M,M,KBWG 010735Z AUTO 31007KT 10SM BKN018 OVC025 A3006 RMK MADISHF
BWG,2017-04-01 07:40,-86.4197,36.9645,M,M,M,310.00,5.00,M,30.07,M,10.00,M,OVC,M,M,M,1800.00,M,M,M,M,KBWG 010740Z AUTO 31005KT 10SM OVC018 A3007 RMK MADISHF
BWG,2017-04-01 07:45,-86.4197,36.9645,M,M,M,320.00,5.00,M,30.07,M,10.00,M,OVC,M,M,M,1600.00,M,M,M,M,KBWG 010745Z AUTO 32005KT 10SM OVC016 A3007 RMK MADISHF
BWG,2017-04-01 07:50,-86.4197,36.9645,M,M,M,320.00,6.00,M,30.07,M,10.00,M,OVC,M,M,M,1600.00,M,M,M,M,KBWG 010750Z AUTO 32006KT 10SM OVC016 A3007 RMK MADISHF
BWG,2017-04-01 07:53,-86.4197,36.9645,46.90,41.00,79.82,330.00,6.00,0.00,30.07,1018.10,10.00,M,OVC,M,M,M,1600.00,M,M,M,M,KBWG 010753Z AUTO 33006KT 10SM OVC016 08/05 A3007 RMK AO2 SLP181 T00830050 TSNO
BWG,2017-04-01 07:55,-86.4197,36.9645,M,M,M,320.00,4.00,M,30.07,M,10.00,M,OVC,M,M,M,1600.00,M,M,M,M,KBWG 010755Z AUTO 32004KT 10SM OVC016 A3007 RMK MADISHF
BWG,2017-04-01 08:00,-86.4197,36.9645,M,M,M,330.00,5.00,M,30.07,M,10.00,M,OVC,M,M,M,1600.00,M,M,M,M,KBWG 010800Z AUTO 33005KT 10SM OVC016 A3007 RMK MADISHF
BWG,2017-04-01 08:05,-86.4197,36.9645,M,M,M,340.00,4.00,M,30.07,M,10.00,M,BKN,OVC,M,M,1600.00,2500.00,M,M,M,KBWG 010805Z AUTO 34004KT 10SM BKN016 OVC025 A3007 RMK VRB04KT  MADISHF
BWG,2017-04-01 08:10,-86.4197,36.9645,M,M,M,320.00,5.00,M,30.07,M,10.00,M,BKN,OVC,M,M,1600.00,2500.00,M,M,M,KBWG 010810Z AUTO 32005KT 10SM BKN016 OVC025 A3007 RMK MADISHF
BWG,2017-04-01 08:15,-86.4197,36.9645,M,M,M,330.00,4.00,M,30.07,M,10.00,M,SCT,OVC,M,M,1600.00,2300.00,M,M,M,KBWG 010815Z AUTO 33004KT 10SM SCT016 OVC023 A3007 RMK MADISHF
BWG,2017-04-01 08:20,-86.4197,36.9645,M,M,M,320.00,3.00,M,30.07,M,10.00,M,SCT,OVC,M,M,1600.00,2300.00,M,M,M,KBWG 010820Z AUTO 32003KT 10SM SCT016 OVC023 A3007 RMK MADISHF
BWG,2017-04-01 08:25,-86.4197,36.9645,M,M,M,310.00,4.00,M,30.08,M,10.00,M,SCT,OVC,M,M,1400.00,2300.00,M,M,M,KBWG 010825Z AUTO 31004KT 10SM SCT014 OVC023 A3008 RMK MADISHF
BWG,2017-04-01 08:30,-86.4197,36.9645,M,M,M,310.00,5.00,M,30.08,M,10.00,M,SCT,OVC,M,M,1400.00,2200.00,M,M,M,KBWG 010830Z AUTO 31005KT 10SM SCT014 OVC022 A3008 RMK MADISHF
BWG,2017-04-01 08:35,-86.4197,36.9645,M,M,M,290.00,4.00,M,30.08,M,10.00,M,SCT,OVC,M,M,1400.00,2200.00,M,M,M,KBWG 010835Z AUTO 29004KT 10SM SCT014 OVC022 A3008 RMK MADISHF
BWG,2017-04-01 08:40,-86.4197,36.9645,M,M,M,300.00,4.00,M,30.08,M,10.00,M,SCT,OVC,M,M,1400.00,2200.00,M,M,M,KBWG 010840Z AUTO 30004KT 10SM SCT014 OVC022 A3008 RMK MADISHF
BWG,2017-04-01 08:45,-86.4197,36.9645,M,M,M,310.00,5.00,M,30.08,M,9.00,M,BKN,OVC,M,M,1400.00,2100.00,M,M,M,KBWG 010845Z AUTO 31005KT 9SM BKN014 OVC021 A3008 RMK MADISHF
BWG,2017-04-01 08:50,-86.4197,36.9645,M,M,M,320.00,4.00,M,30.08,M,9.00,M,BKN,OVC,M,M,1400.00,2100.00,M,M,M,KBWG 010850Z AUTO 32004KT 9SM BKN014 OVC021 A3008 RMK MADISHF
BWG,2017-04-01 08:53,-86.4197,36.9645,46.90,42.10,83.28,310.00,5.00,0.00,30.08,1018.50,10.00,M,BKN,OVC,M,M,1400.00,2100.00,M,M,M,KBWG 010853Z AUTO 31005KT 10SM BKN014 OVC021 08/06 A3008 RMK AO2 SLP185 T00830056 53012 TSNO
BWG,2017-04-01 08:55,-86.4197,36.9645,M,M,M,310.00,5.00,M,30.08,M,10.00,M,BKN,OVC,M,M,1400.00,1999.00,M,M,M,KBWG 010855Z AUTO 31005KT 10SM BKN014 OVC019 A3008 RMK MADISHF
BWG,2017-04-01 09:00,-86.4197,36.9645,M,M,M,310.00,4.00,M,30.08,M,10.00,M,BKN,OVC,M,M,1400.00,1999.00,M,M,M,KBWG 010900Z AUTO 31004KT 10SM BKN014 OVC019 A3008 RMK MADISHF
BWG,2017-04-01 09:05,-86.4197,36.9645,M,M,M,310.00,5.00,M,30.08,M,10.00,M,BKN,OVC,M,M,1400.00,1900.00,M,M,M,KBWG 010905Z AUTO 31005KT 10SM BKN014 OVC019 A3008 RMK MADISHF
BWG,2017-04-01 09:10,-86.4197,36.9645,M,M,M,310.00,5.00,M,30.09,M,10.00,M,BKN,OVC,M,M,1400.00,1900.00,M,M,M,KBWG 010910Z AUTO 31005KT 10SM BKN014 OVC019 A3009 RMK MADISHF
BWG,2017-04-01 09:15,-86.4197,36.9645,M,M,M,320.00,4.00,M,30.09,M,10.00,M,SCT,BKN,OVC,M,1400.00,1900.00,2400.00,M,M,KBWG 010915Z AUTO 32004KT 10SM SCT014 BKN019 OVC024 A3009 RMK MADISHF
BWG,2017-04-01 09:19,-86.4197,36.9645,46.90,42.10,83.28,300.00,6.00,0.00,30.09,M,10.00,M,FEW,BKN,OVC,M,1100.00,1900.00,2400.00,M,M,KBWG 010919Z AUTO 30006KT 10SM FEW011 BKN019 OVC024 08/06 A3009 RMK AO2 T00830056 TSNO
BWG,2017-04-01 09:20,-86.4197,36.9645,M,M,M,310.00,5.00,M,30.09,M,10.00,M,FEW,BKN,OVC,M,1100.00,1900.00,2400.00,M,M,KBWG 010920Z AUTO 31005KT 10SM FEW011 BKN019 OVC024 A3009 RMK MADISHF
BWG,2017-04-01 09:25,-86.4197,36.9645,M,M,M,320.00,4.00,M,30.09,M,10.00,M,FEW,BKN,OVC,M,1100.00,1900.00,2400.00,M,M,KBWG 010925Z AUTO 32004KT 10SM FEW011 BKN019 OVC024 A3009 RMK MADISHF
BWG,2017-04-01 09:30,-86.4197,36.9645,M,M,M,330.00,6.00,M,30.09,M,10.00,M,FEW,OVC,M,M,1100.00,2100.00,M,M,M,KBWG 010930Z AUTO 33006KT 10SM FEW011 OVC021 A3009 RMK MADISHF
BWG,2017-04-01 09:35,-86.4197,36.9645,M,M,M,320.00,3.00,M,30.09,M,10.00,M,FEW,BKN,OVC,M,1100.00,1900.00,2400.00,M,M,KBWG 010935Z AUTO 32003KT 10SM FEW011 BKN019 OVC024 A3009 RMK MADISHF
BWG,2017-04-01 09:40,-86.4197,36.9645,M,M,M,330.00,4.00,M,30.09,M,10.00,M,BKN,OVC,M,M,1900.00,2400.00,M,M,M,KBWG 010940Z AUTO 33004KT 10SM BKN019 OVC024 A3009 RMK MADISHF
BWG,2017-04-01 09:45,-86.4197,36.9645,M,M,M,320.00,4.00,M,30.09,M,10.00,M,BKN,OVC,M,M,1900.00,2400.00,M,M,M,KBWG 010945Z AUTO 32004KT 10SM BKN019 OVC024 A3009 RMK MADISHF
BWG,2017-04-01 09:50,-86.4197,36.9645,M,M,M,310.00,6.00,M,30.09,M,10.00,M,OVC,M,M,M,1900.00,M,M,M,M,KBWG 010950Z AUTO 31006KT 10SM OVC019 A3009 RMK MADISHF
BWG,2017-04-01 09:53,-86.4197,36.9645,46.90,39.90,76.48,320.00,6.00,0.00,30.10,1019.10,10.00,M,OVC,M,M,M,1900.00,M,M,M,M,KBWG 010953Z AUTO 32006KT 10SM OVC019 08/04 A3010 RMK AO2 SLP191 T00830044 TSNO
BWG,2017-04-01 09:55,-86.4197,36.9645,M,M,M,310.00,5.00,M,30.10,M,10.00,M,OVC,M,M,M,1800.00,M,M,M,M,KBWG 010955Z AUTO 31005KT 10SM OVC018 A3010 RMK MADISHF
BWG,2017-04-01 10:00,-86.4197,36.9645,M,M,M,300.00,5.00,M,30.10,M,10.00,M,OVC,M,M,M,1600.00,M,M,M,M,KBWG 011000Z AUTO 30005KT 10SM OVC016 A3010 RMK MADISHF
BWG,2017-04-01 10:05,-86.4197,36.9645,M,M,M,310.00,7.00,M,30.10,M,10.00,M,OVC,M,M,M,1600.00,M,M,M,M,KBWG 011005Z AUTO 31007KT 10SM OVC016 A3010 RMK MADISHF
BWG,2017-04-01 10:10,-86.4197,36.9645,M,M,M,330.00,5.00,M,30.10,M,10.00,M,OVC,M,M,M,1400.00,M,M,M,M,KBWG 011010Z AUTO 33005KT 10SM OVC014 A3010 RMK VRB05KT  MADISHF
BWG,2017-04-01 10:14,-86.4197,36.9645,46.90,41.00,79.82,320.00,3.00,0.00,30.10,M,10.00,M,OVC,M,M,M,1400.00,M,M,M,M,KBWG 011014Z AUTO 32003KT 10SM OVC014 08/05 A3010 RMK AO2 T00830050 TSNO
BWG,2017-04-01 10:15,-86.4197,36.9645,M,M,M,310.00,3.00,M,30.10,M,10.00,M,OVC,M,M,M,1400.00,M,M,M,M,KBWG 011015Z AUTO 31003KT 10SM OVC014 A3010 RMK MADISHF
BWG,2017-04-01 10:20,-86.4197,36.9645,M,M,M,310.00,6.00,M,30.10,M,10.00,M,OVC,M,M,M,1400.00,M,M,M,M,KBWG 011020Z AUTO 31006KT 10SM OVC014 A3010 RMK MADISHF
BWG,2017-04-01 10:25,-86.4197,36.9645,M,M,M,350.00,3.00,M,30.11,M,10.00,M,OVC,M,M,M,1400.00,M,M,M,M,KBWG 011025Z AUTO 35003KT 10SM OVC014 A3011 RMK VRB03KT  MADISHF
BWG,2017-04-01 10:30,-86.4197,36.9645,M,M,M,350.00,4.00,M,30.11,M,10.00,M,OVC,M,M,M,1400.00,M,M,M,M,KBWG 011030Z AUTO 35004KT 10SM OVC014 A3011 RMK MADISHF
BWG,2017-04-01 10:35,-86.4197,36.9645,M,M,M,340.00,6.00,M,30.11,M,10.00,M,OVC,M,M,M,1400.00,M,M,M,M,KBWG 011035Z AUTO 34006KT 10SM OVC014 A3011 RMK MADISHF
BWG,2017-04-01 10:40,-86.4197,36.9645,M,M,M,350.00,4.00,M,30.12,M,10.00,M,OVC,M,M,M,1400.00,M,M,M,M,KBWG 011040Z AUTO 35004KT 10SM OVC014 A3012 RMK MADISHF
BWG,2017-04-01 10:45,-86.4197,36.9645,M,M,M,350.00,5.00,M,30.12,M,10.00,M,OVC,M,M,M,1400.00,M,M,M,M,KBWG 011045Z AUTO 35005KT 10SM OVC014 A3012 RMK MADISHF
BWG,2017-04-01 10:50,-86.4197,36.9645,M,M,M,10.00,5.00,M,30.12,M,10.00,M,OVC,M,M,M,1400.00,M,M,M,M,KBWG 011050Z AUTO 01005KT 10SM OVC014 A3012 RMK MADISHF
BWG,2017-04-01 10:53,-86.4197,36.9645,46.00,39.90,79.13,10.00,4.00,0.00,30.12,1020.10,10.00,M,OVC,M,M,M,1400.00,M,M,M,M,KBWG 011053Z AUTO 01004KT 10SM OVC014 08/04 A3012 RMK AO2 SLP201 T00780044 TSNO
BWG,2017-04-01 10:55,-86.4197,36.9645,M,M,M,350.00,3.00,M,30.12,M,10.00,M,OVC,M,M,M,1400.00,M,M,M,M,KBWG 011055Z AUTO 35003KT 10SM OVC014 A3012 RMK MADISHF
BWG,2017-04-01 11:00,-86.4197,36.9645,M,M,M,340.00,3.00,M,30.12,M,10.00,M,OVC,M,M,M,1400.00,M,M,M,M,KBWG 011100Z AUTO 34003KT 10SM OVC014 A3012 RMK MADISHF
BWG,2017-04-01 11:05,-86.4197,36.9645,M,M,M,0.00,0.00,M,30.13,M,10.00,M,OVC,M,M,M,1600.00,M,M,M,M,KBWG 011105Z AUTO 00000KT 10SM OVC016 A3013 RMK MADISHF
BWG,2017-04-01 11:10,-86.4197,36.9645,M,M,M,360.00,4.00,M,30.13,M,10.00,M,OVC,M,M,M,1600.00,M,M,M,M,KBWG 011110Z AUTO 36004KT 10SM OVC016 A3013 RMK MADISHF
BWG,2017-04-01 11:11,-86.4197,36.9645,46.00,39.90,79.13,M,3.00,0.00,30.13,M,10.00,M,OVC,M,M,M,1600.00,M,M,M,M,KBWG 011111Z AUTO VRB03KT 10SM OVC016 08/04 A3013 RMK AO2 T00780044 TSNO
BWG,2017-04-01 11:15,-86.4197,36.9645,M,M,M,0.00,0.00,M,30.13,M,10.00,M,OVC,M,M,M,1600.00,M,M,M,M,KBWG 011115Z AUTO 00000KT 10SM OVC016 A3013 RMK MADISHF
BWG,2017-04-01 11:20,-86.4197,36.9645,M,M,M,360.00,3.00,M,30.13,M,10.00,M,OVC,M,M,M,1600.00,M,M,M,M,KBWG 011120Z AUTO 36003KT 10SM OVC016 A3013 RMK VRB03KT  MADISHF
BWG,2017-04-01 11:25,-86.4197,36.9645,M,M,M,360.00,3.00,M,30.14,M,10.00,M,OVC,M,M,M,1600.00,M,M,M,M,KBWG 011125Z AUTO 36003KT 10SM OVC016 A3014 RMK MADISHF
BWG,2017-04-01 11:30,-86.4197,36.9645,M,M,M,350.00,3.00,M,30.14,M,10.00,M,OVC,M,M,M,1600.00,M,M,M,M,KBWG 011130Z AUTO 35003KT 10SM OVC016 A3014 RMK VRB03KT  MADISHF
BWG,2017-04-01 11:35,-86.4197,36.9645,M,M,M,0.00,0.00,M,30.14,M,10.00,M,OVC,M,M,M,1500.00,M,M,M,M,KBWG 011135Z AUTO 00000KT 10SM OVC015 A3014 RMK MADISHF
BWG,2017-04-01 11:40,-86.4197,36.9645,M,M,M,330.00,3.00,M,30.14,M,10.00,M,OVC,M,M,M,1500.00,M,M,M,M,KBWG 011140Z AUTO 33003KT 10SM OVC015 A3014 RMK MADISHF
BWG,2017-04-01 11:45,-86.4197,36.9645,M,M,M,20.00,3.00,M,30.14,M,10.00,M,OVC,M,M,M,1500.00,M,M,M,M,KBWG 011145Z AUTO 02003KT 10SM OVC015 A3014 RMK MADISHF
BWG,2017-04-01 11:50,-86.4197,36.9645,M,M,M,0.00,0.00,M,30.15,M,10.00,M,OVC,M,M,M,1500.00,M,M,M,M,KBWG 011150Z AUTO 00000KT 10SM OVC015 A3015 RMK MADISHF
BWG,2017-04-01 11:53,-86.4197,36.9645,46.00,39.00,76.40,0.00,0.00,0.00,30.15,1020.90,10.00,M,OVC,M,M,M,1500.00,M,M,M,M,KBWG 011153Z AUTO 00000KT 10SM OVC015 08/04 A3015 RMK AO2 SLP209 T00780039 10089 20078 53022 TSNO
BWG,2017-04-01 11:55,-86.4197,36.9645,M,M,M,10.00,3.00,M,30.15,M,10.00,M,OVC,M,M,M,1500.00,M,M,M,M,KBWG 011155Z AUTO 01003KT 10SM OVC015 A3015 RMK VRB03KT  MADISHF
BWG,2017-04-01 12:00,-86.4197,36.9645,M,M,M,0.00,0.00,M,30.15,M,10.00,M,OVC,M,M,M,1500.00,M,M,M,M,KBWG 011200Z AUTO 00000KT 10SM OVC015 A3015 RMK MADISHF
BWG,2017-04-01 12:05,-86.4197,36.9645,M,M,M,360.00,3.00,M,30.15,M,10.00,M,OVC,M,M,M,1500.00,M,M,M,M,KBWG 011205Z AUTO 36003KT 10SM OVC015 A3015 RMK MADISHF
BWG,2017-04-01 12:10,-86.4197,36.9645,M,M,M,10.00,3.00,M,30.16,M,10.00,M,OVC,M,M,M,1500.00,M,M,M,M,KBWG 011210Z AUTO 01003KT 10SM OVC015 A3016 RMK MADISHF
BWG,2017-04-01 12:15,-86.4197,36.9645,M,M,M,20.00,4.00,M,30.16,M,10.00,M,OVC,M,M,M,1500.00,M,M,M,M,KBWG 011215Z AUTO 02004KT 10SM OVC015 A3016 RMK MADISHF
BWG,2017-04-01 12:20,-86.4197,36.9645,M,M,M,10.00,3.00,M,30.16,M,10.00,M,OVC,M,M,M,1500.00,M,M,M,M,KBWG 011220Z AUTO 01003KT 10SM OVC015 A3016 RMK MADISHF
BWG,2017-04-01 12:25,-86.4197,36.9645,M,M,M,20.00,4.00,M,30.17,M,10.00,M,OVC,M,M,M,1500.00,M,M,M,M,KBWG 011225Z AUTO 02004KT 10SM OVC015 A3017 RMK MADISHF
BWG,2017-04-01 12:30,-86.4197,36.9645,M,M,M,10.00,5.00,M,30.17,M,10.00,M,OVC,M,M,M,1500.00,M,M,M,M,KBWG 011230Z AUTO 01005KT 10SM OVC015 A3017 RMK MADISHF
BWG,2017-04-01 12:35,-86.4197,36.9645,M,M,M,360.00,5.00,M,30.17,M,10.00,M,OVC,M,M,M,1500.00,M,M,M,M,KBWG 011235Z AUTO 36005KT 10SM OVC015 A3017 RMK MADISHF
BWG,2017-04-01 12:40,-86.4197,36.9645,M,M,M,10.00,5.00,M,30.17,M,10.00,M,OVC,M,M,M,1500.00,M,M,M,M,KBWG 011240Z AUTO 01005KT 10SM OVC015 A3017 RMK MADISHF
BWG,2017-04-01 12:45,-86.4197,36.9645,M,M,M,10.00,4.00,M,30.18,M,10.00,M,OVC,M,M,M,1500.00,M,M,M,M,KBWG 011245Z AUTO 01004KT 10SM OVC015 A3018 RMK MADISHF
BWG,2017-04-01 12:50,-86.4197,36.9645,M,M,M,10.00,4.00,M,30.18,M,10.00,M,OVC,M,M,M,1400.00,M,M,M,M,KBWG 011250Z AUTO 01004KT 10SM OVC014 A3018 RMK MADISHF
BWG,2017-04-01 12:53,-86.4197,36.9645,46.00,39.90,79.13,360.00,5.00,0.00,30.18,1022.10,10.00,M,OVC,M,M,M,1400.00,M,M,M,M,KBWG 011253Z AUTO 36005KT 10SM OVC014 08/04 A3018 RMK AO2 SLP221 T00780044 TSNO
BWG,2017-04-01 12:55,-86.4197,36.9645,M,M,M,360.00,6.00,M,30.18,M,10.00,M,OVC,M,M,M,1400.00,M,M,M,M,KBWG 011255Z AUTO 36006KT 10SM OVC014 A3018 RMK MADISHF
BWG,2017-04-01 13:00,-86.4197,36.9645,M,M,M,350.00,5.00,M,30.18,M,10.00,M,OVC,M,M,M,1400.00,M,M,M,M,KBWG 011300Z AUTO 35005KT 10SM OVC014 A3018 RMK MADISHF
BWG,2017-04-01 13:05,-86.4197,36.9645,M,M,M,340.00,5.00,M,30.19,M,10.00,M,OVC,M,M,M,1400.00,M,M,M,M,KBWG 011305Z AUTO 34005KT 10SM OVC014 A3019 RMK MADISHF
BWG,2017-04-01 13:10,-86.4197,36.9645,M,M,M,340.00,5.00,M,30.19,M,10.00,M,OVC,M,M,M,1400.00,M,M,M,M,KBWG 011310Z AUTO 34005KT 10SM OVC014 A3019 RMK MADISHF
BWG,2017-04-01 13:15,-86.4197,36.9645,M,M,M,360.00,4.00,M,30.19,M,10.00,M,OVC,M,M,M,1400.00,M,M,M,M,KBWG 011315Z AUTO 36004KT 10SM OVC014 A3019 RMK MADISHF
BWG,2017-04-01 13:20,-86.4197,36.9645,M,M,M,20.00,6.00,M,30.19,M,10.00,M,OVC,M,M,M,1500.00,M,M,M,M,KBWG 011320Z AUTO 02006KT 10SM OVC015 A3019 RMK MADISHF
BWG,2017-04-01 13:25,-86.4197,36.9645,M,M,M,360.00,5.00,M,30.19,M,10.00,M,OVC,M,M,M,1500.00,M,M,M,M,KBWG 011325Z AUTO 36005KT 10SM OVC015 A3019 RMK MADISHF
BWG,2017-04-01 13:26,-86.4197,36.9645,46.00,39.00,76.40,10.00,6.00,0.00,30.20,M,10.00,M,OVC,M,M,M,1500.00,M,M,M,M,KBWG 011326Z AUTO 01006KT 10SM OVC015 08/04 A3020 RMK AO2 T00780039 TSNO
BWG,2017-04-01 13:30,-86.4197,36.9645,M,M,M,30.00,5.00,M,30.19,M,10.00,M,OVC,M,M,M,1500.00,M,M,M,M,KBWG 011330Z AUTO 03005KT 10SM OVC015 A3019 RMK MADISHF
BWG,2017-04-01 13:35,-86.4197,36.9645,M,M,M,40.00,6.00,M,30.19,M,10.00,M,OVC,M,M,M,1500.00,M,M,M,M,KBWG 011335Z AUTO 04006KT 10SM OVC015 A3019 RMK MADISHF
BWG,2017-04-01 13:40,-86.4197,36.9645,M,M,M,20.00,5.00,M,30.19,M,10.00,M,OVC,M,M,M,1500.00,M,M,M,M,KBWG 011340Z AUTO 02005KT 10SM OVC015 A3019 RMK MADISHF
BWG,2017-04-01 13:45,-86.4197,36.9645,M,M,M,20.00,6.00,M,30.19,M,10.00,M,OVC,M,M,M,1500.00,M,M,M,M,KBWG 011345Z AUTO 02006KT 10SM OVC015 A3019 RMK MADISHF
BWG,2017-04-01 13:50,-86.4197,36.9645,M,M,M,30.00,5.00,M,30.19,M,10.00,M,OVC,M,M,M,1500.00,M,M,M,M,KBWG 011350Z AUTO 03005KT 10SM OVC015 A3019 RMK MADISHF
BWG,2017-04-01 13:53,-86.4197,36.9645,46.00,39.00,76.40,20.00,5.00,0.00,30.19,1022.50,10.00,M,OVC,M,M,M,1500.00,M,M,M,M,KBWG 011353Z AUTO 02005KT 10SM OVC015 08/04 A3019 RMK AO2 SLP225 T00780039 TSNO
BWG,2017-04-01 13:55,-86.4197,36.9645,M,M,M,30.00,6.00,M,30.19,M,10.00,M,OVC,M,M,M,1500.00,M,M,M,M,KBWG 011355Z AUTO 03006KT 10SM OVC015 A3019 RMK MADISHF
BWG,2017-04-01 14:00,-86.4197,36.9645,M,M,M,20.00,6.00,M,30.19,M,10.00,M,OVC,M,M,M,1500.00,M,M,M,M,KBWG 011400Z AUTO 02006KT 10SM OVC015 A3019 RMK MADISHF
BWG,2017-04-01 14:05,-86.4197,36.9645,M,M,M,30.00,6.00,M,30.19,M,10.00,M,OVC,M,M,M,1500.00,M,M,M,M,KBWG 011405Z AUTO 03006KT 10SM OVC015 A3019 RMK MADISHF
BWG,2017-04-01 14:10,-86.4197,36.9645,M,M,M,40.00,6.00,M,30.19,M,10.00,M,OVC,M,M,M,1500.00,M,M,M,M,KBWG 011410Z AUTO 04006KT 10SM OVC015 A3019 RMK MADISHF
BWG,2017-04-01 14:15,-86.4197,36.9645,M,M,M,30.00,4.00,M,30.19,M,10.00,M,OVC,M,M,M,1500.00,M,M,M,M,KBWG 011415Z AUTO 03004KT 10SM OVC015 A3019 RMK MADISHF
BWG,2017-04-01 14:20,-86.4197,36.9645,M,M,M,M,M,M,30.19,M,10.00,M,OVC,M,M,M,1500.00,M,M,M,M,KBWG 011420Z AUTO /////KT 10SM OVC015 A3019 RMK MADISHF
BWG,2017-04-01 14:25,-86.4197,36.9645,M,M,M,10.00,4.00,M,30.20,M,10.00,M,OVC,M,M,M,1500.00,M,M,M,M,KBWG 011425Z AUTO 01004KT 10SM OVC015 A3020 RMK MADISHF
BWG,2017-04-01 14:30,-86.4197,36.9645,M,M,M,340.00,5.00,M,30.20,M,10.00,M,OVC,M,M,M,1500.00,M,M,M,M,KBWG 011430Z AUTO 34005KT 10SM OVC015 A3020 RMK VRB05KT  MADISHF
BWG,2017-04-01 14:35,-86.4197,36.9645,M,M,M,340.00,4.00,M,30.20,M,10.00,M,OVC,M,M,M,1500.00,M,M,M,M,KBWG 011435Z AUTO 34004KT 10SM OVC015 A3020 RMK MADISHF
BWG,2017-04-01 14:40,-86.4197,36.9645,M,M,M,10.00,4.00,M,30.21,M,10.00,M,OVC,M,M,M,1500.00,M,M,M,M,KBWG 011440Z AUTO 01004KT 10SM OVC015 A3021 RMK MADISHF
BWG,2017-04-01 14:45,-86.4197,36.9645,M,M,M,320.00,4.00,M,30.21,M,10.00,M,OVC,M,M,M,1500.00,M,M,M,M,KBWG 011445Z AUTO 32004KT 10SM OVC015 A3021 RMK MADISHF
BWG,2017-04-01 14:50,-86.4197,36.9645,M,M,M,330.00,5.00,M,30.21,M,10.00,M,OVC,M,M,M,1500.00,M,M,M,M,KBWG 011450Z AUTO 33005KT 10SM OVC015 A3021 RMK MADISHF
BWG,2017-04-01 14:53,-86.4197,36.9645,46.90,39.00,73.85,20.00,3.00,0.00,30.21,1023.00,10.00,M,OVC,M,M,M,1500.00,M,M,M,M,KBWG 011453Z AUTO 02003KT 10SM OVC015 08/04 A3021 RMK AO2 SLP230 T00830039 51021 TSNO
BWG,2017-04-01 14:55,-86.4197,36.9645,M,M,M,20.00,5.00,M,30.21,M,10.00,M,OVC,M,M,M,1500.00,M,M,M,M,KBWG 011455Z AUTO 02005KT 10SM OVC015 A3021 RMK MADISHF
BWG,2017-04-01 15:00,-86.4197,36.9645,M,M,M,10.00,6.00,M,30.21,M,10.00,M,OVC,M,M,M,1500.00,M,M,M,M,KBWG 011500Z AUTO 01006KT 10SM OVC015 A3021 RMK MADISHF
BWG,2017-04-01 15:05,-86.4197,36.9645,M,M,M,10.00,5.00,M,30.22,M,10.00,M,OVC,M,M,M,1500.00,M,M,M,M,KBWG 011505Z AUTO 01005KT 10SM OVC015 A3022 RMK MADISHF
BWG,2017-04-01 15:10,-86.4197,36.9645,M,M,M,350.00,5.00,M,30.22,M,10.00,M,OVC,M,M,M,1600.00,M,M,M,M,KBWG 011510Z AUTO 35005KT 10SM OVC016 A3022 RMK VRB05KT  MADISHF
BWG,2017-04-01 15:15,-86.4197,36.9645,M,M,M,360.00,6.00,M,30.22,M,10.00,M,OVC,M,M,M,1600.00,M,M,M,M,KBWG 011515Z AUTO 36006KT 10SM OVC016 A3022 RMK MADISHF
BWG,2017-04-01 15:20,-86.4197,36.9645,M,M,M,340.00,3.00,M,30.22,M,10.00,M,OVC,M,M,M,1600.00,M,M,M,M,KBWG 011520Z AUTO 34003KT 10SM OVC016 A3022 RMK MADISHF
BWG,2017-04-01 15:25,-86.4197,36.9645,M,M,M,350.00,4.00,M,30.22,M,10.00,M,OVC,M,M,M,1600.00,M,M,M,M,KBWG 011525Z AUTO 35004KT 10SM OVC016 A3022 RMK VRB04KT  MADISHF
BWG,2017-04-01 15:30,-86.4197,36.9645,M,M,M,20.00,5.00,M,30.21,M,10.00,M,OVC,M,M,M,1600.00,M,M,M,M,KBWG 011530Z AUTO 02005KT 10SM OVC016 A3021 RMK MADISHF
BWG,2017-04-01 15:35,-86.4197,36.9645,M,M,M,30.00,3.00,M,30.21,M,10.00,M,OVC,M,M,M,1699.00,M,M,M,M,KBWG 011535Z AUTO 03003KT 10SM OVC016 A3021 RMK MADISHF
BWG,2017-04-01 15:40,-86.4197,36.9645,M,M,M,20.00,3.00,M,30.21,M,10.00,M,OVC,M,M,M,1699.00,M,M,M,M,KBWG 011540Z AUTO 02003KT 10SM OVC016 A3021 RMK VRB03KT  MADISHF
BWG,2017-04-01 15:45,-86.4197,36.9645,M,M,M,10.00,4.00,M,30.21,M,10.00,M,OVC,M,M,M,1699.00,M,M,M,M,KBWG 011545Z AUTO 01004KT 10SM OVC016 A3021 RMK MADISHF
BWG,2017-04-01 15:50,-86.4197,36.9645,M,M,M,10.00,4.00,M,30.21,M,10.00,M,OVC,M,M,M,1699.00,M,M,M,M,KBWG 011550Z AUTO 01004KT 10SM OVC016 A3021 RMK MADISHF
BWG,2017-04-01 15:53,-86.4197,36.9645,48.00,39.00,70.85,20.00,5.00,0.00,30.21,1023.10,10.00,M,OVC,M,M,M,1700.00,M,M,M,M,KBWG 011553Z AUTO 02005KT 10SM OVC017 09/04 A3021 RMK AO2 SLP231 T00890039 TSNO
BWG,2017-04-01 15:55,-86.4197,36.9645,M,M,M,360.00,4.00,M,30.21,M,10.00,M,OVC,M,M,M,1699.00,M,M,M,M,KBWG 011555Z AUTO 36004KT 10SM OVC016 A3021 RMK VRB04KT  MADISHF
BWG,2017-04-01 16:00,-86.4197,36.9645,M,M,M,20.00,5.00,M,30.21,M,10.00,M,OVC,M,M,M,1699.00,M,M,M,M,KBWG 011600Z AUTO 02005KT 10SM OVC016 A3021 RMK MADISHF
BWG,2017-04-01 16:05,-86.4197,36.9645,M,M,M,20.00,4.00,M,30.21,M,10.00,M,OVC,M,M,M,1699.00,M,M,M,M,KBWG 011605Z AUTO 02004KT 10SM OVC016 A3021 RMK MADISHF
BWG,2017-04-01 16:10,-86.4197,36.9645,M,M,M,20.00,4.00,M,30.21,M,10.00,M,OVC,M,M,M,1699.00,M,M,M,M,KBWG 011610Z AUTO 02004KT 10SM OVC016 A3021 RMK MADISHF
BWG,2017-04-01 16:15,-86.4197,36.9645,M,M,M,330.00,4.00,M,30.21,M,10.00,M,OVC,M,M,M,1699.00,M,M,M,M,KBWG 011615Z AUTO 33004KT 10SM OVC016 A3021 RMK MADISHF
BWG,2017-04-01 16:20,-86.4197,36.9645,M,M,M,360.00,3.00,M,30.21,M,10.00,M,OVC,M,M,M,1800.00,M,M,M,M,KBWG 011620Z AUTO 36003KT 10SM OVC018 A3021 RMK VRB03KT  MADISHF
BWG,2017-04-01 16:25,-86.4197,36.9645,M,M,M,330.00,4.00,M,30.21,M,10.00,M,OVC,M,M,M,1800.00,M,M,M,M,KBWG 011625Z AUTO 33004KT 10SM OVC018 A3021 RMK MADISHF
BWG,2017-04-01 16:30,-86.4197,36.9645,M,M,M,40.00,4.00,M,30.21,M,10.00,M,OVC,M,M,M,1800.00,M,M,M,M,KBWG 011630Z AUTO 04004KT 10SM OVC018 A3021 RMK MADISHF
BWG,2017-04-01 16:35,-86.4197,36.9645,M,M,M,20.00,5.00,M,30.21,M,10.00,M,OVC,M,M,M,1800.00,M,M,M,M,KBWG 011635Z AUTO 02005KT 10SM OVC018 A3021 RMK MADISHF
BWG,2017-04-01 16:40,-86.4197,36.9645,M,M,M,10.00,5.00,M,30.21,M,10.00,M,OVC,M,M,M,1800.00,M,M,M,M,KBWG 011640Z AUTO 01005KT 10SM OVC018 A3021 RMK MADISHF
BWG,2017-04-01 16:45,-86.4197,36.9645,M,M,M,350.00,4.00,M,30.21,M,10.00,M,OVC,M,M,M,1800.00,M,M,M,M,KBWG 011645Z AUTO 35004KT 10SM OVC018 A3021 RMK VRB04KT  MADISHF
BWG,2017-04-01 16:50,-86.4197,36.9645,M,M,M,0.00,0.00,M,30.21,M,10.00,M,OVC,M,M,M,1800.00,M,M,M,M,KBWG 011650Z AUTO 00000KT 10SM OVC018 A3021 RMK MADISHF
BWG,2017-04-01 16:53,-86.4197,36.9645,48.00,39.00,70.85,M,3.00,0.00,30.21,1023.10,10.00,M,OVC,M,M,M,1800.00,M,M,M,M,KBWG 011653Z AUTO VRB03KT 10SM OVC018 09/04 A3021 RMK AO2 SLP231 T00890039 TSNO
BWG,2017-04-01 16:55,-86.4197,36.9645,M,M,M,300.00,3.00,M,30.21,M,10.00,M,OVC,M,M,M,1800.00,M,M,M,M,KBWG 011655Z AUTO 30003KT 10SM OVC018 A3021 RMK MADISHF
BWG,2017-04-01 17:00,-86.4197,36.9645,M,M,M,0.00,0.00,M,30.21,M,10.00,M,OVC,M,M,M,1800.00,M,M,M,M,KBWG 011700Z AUTO 00000KT 10SM OVC018 A3021 RMK MADISHF
BWG,2017-04-01 17:05,-86.4197,36.9645,M,M,M,330.00,4.00,M,30.21,M,10.00,M,OVC,M,M,M,1999.00,M,M,M,M,KBWG 011705Z AUTO 33004KT 10SM OVC019 A3021 RMK MADISHF
BWG,2017-04-01 17:10,-86.4197,36.9645,M,M,M,40.00,4.00,M,30.21,M,10.00,M,OVC,M,M,M,1999.00,M,M,M,M,KBWG 011710Z AUTO 04004KT 10SM OVC019 A3021 RMK VRB04KT  MADISHF
BWG,2017-04-01 17:15,-86.4197,36.9645,M,M,M,310.00,3.00,M,30.20,M,10.00,M,OVC,M,M,M,1999.00,M,M,M,M,KBWG 011715Z AUTO 31003KT 10SM OVC019 A3020 RMK VRB03KT  MADISHF
BWG,2017-04-01 17:20,-86.4197,36.9645,M,M,M,10.00,3.00,M,30.20,M,10.00,M,OVC,M,M,M,1999.00,M,M,M,M,KBWG 011720Z AUTO 01003KT 10SM OVC019 A3020 RMK VRB03KT  MADISHF
BWG,2017-04-01 17:25,-86.4197,36.9645,M,M,M,60.00,4.00,M,30.20,M,10.00,M,OVC,M,M,M,1999.00,M,M,M,M,KBWG 011725Z AUTO 06004KT 10SM OVC019 A3020 RMK MADISHF
BWG,2017-04-01 17:30,-86.4197,36.9645,M,M,M,30.00,3.00,M,30.20,M,10.00,M,OVC,M,M,M,2100.00,M,M,M,M,KBWG 011730Z AUTO 03003KT 10SM OVC021 A3020 RMK VRB03KT  MADISHF
BWG,2017-04-01 17:35,-86.4197,36.9645,M,M,M,40.00,3.00,M,30.20,M,10.00,M,OVC,M,M,M,2100.00,M,M,M,M,KBWG 011735Z AUTO 04003KT 10SM OVC021 A3020 RMK VRB03KT  MADISHF
BWG,2017-04-01 17:40,-86.4197,36.9645,M,M,M,0.00,0.00,M,30.20,M,10.00,M,OVC,M,M,M,2100.00,M,M,M,M,KBWG 011740Z AUTO 00000KT 10SM OVC021 A3020 RMK MADISHF
BWG,2017-04-01 17:45,-86.4197,36.9645,M,M,M,90.00,3.00,M,30.20,M,10.00,M,OVC,M,M,M,2100.00,M,M,M,M,KBWG 011745Z AUTO 09003KT 10SM OVC021 A3020 RMK VRB03KT  MADISHF
BWG,2017-04-01 17:50,-86.4197,36.9645,M,M,M,0.00,0.00,M,30.19,M,10.00,M,OVC,M,M,M,2200.00,M,M,M,M,KBWG 011750Z AUTO 00000KT 10SM OVC022 A3019 RMK MADISHF
BWG,2017-04-01 17:53,-86.4197,36.9645,51.10,39.90,65.38,M,4.00,0.00,30.19,1022.40,10.00,M,OVC,M,M,M,2200.00,M,M,M,M,KBWG 011753Z AUTO VRB04KT 10SM OVC022 11/04 A3019 RMK AO2 SLP224 T01060044 10106 20078 58006 TSNO
BWG,2017-04-01 17:55,-86.4197,36.9645,M,M,M,50.00,3.00,M,30.19,M,10.00,M,OVC,M,M,M,2200.00,M,M,M,M,KBWG 011755Z AUTO 05003KT 10SM OVC022 A3019 RMK VRB03KT  MADISHF
BWG,2017-04-01 18:00,-86.4197,36.9645,M,M,M,140.00,4.00,M,30.19,M,10.00,M,OVC,M,M,M,2200.00,M,M,M,M,KBWG 011800Z AUTO 14004KT 10SM OVC022 A3019 RMK VRB04KT  MADISHF
BWG,2017-04-01 18:05,-86.4197,36.9645,M,M,M,110.00,4.00,M,30.19,M,10.00,M,OVC,M,M,M,2200.00,M,M,M,M,KBWG 011805Z AUTO 11004KT 10SM OVC022 A3019 RMK VRB04KT  MADISHF
BWG,2017-04-01 18:10,-86.4197,36.9645,M,M,M,140.00,3.00,M,30.19,M,10.00,M,OVC,M,M,M,2200.00,M,M,M,M,KBWG 011810Z AUTO 14003KT 10SM OVC022 A3019 RMK MADISHF
BWG,2017-04-01 18:15,-86.4197,36.9645,M,M,M,110.00,5.00,M,30.19,M,10.00,M,OVC,M,M,M,2300.00,M,M,M,M,KBWG 011815Z AUTO 11005KT 10SM OVC023 A3019 RMK MADISHF
BWG,2017-04-01 18:20,-86.4197,36.9645,M,M,M,120.00,4.00,M,30.19,M,10.00,M,OVC,M,M,M,2300.00,M,M,M,M,KBWG 011820Z AUTO 12004KT 10SM OVC023 A3019 RMK MADISHF
BWG,2017-04-01 18:25,-86.4197,36.9645,M,M,M,160.00,3.00,M,30.19,M,10.00,M,OVC,M,M,M,2300.00,M,M,M,M,KBWG 011825Z AUTO 16003KT 10SM OVC023 A3019 RMK VRB03KT  MADISHF
BWG,2017-04-01 18:30,-86.4197,36.9645,M,M,M,80.00,5.00,M,30.19,M,10.00,M,OVC,M,M,M,2300.00,M,M,M,M,KBWG 011830Z AUTO 08005KT 10SM OVC023 A3019 RMK MADISHF
BWG,2017-04-01 18:35,-86.4197,36.9645,M,M,M,60.00,4.00,M,30.19,M,10.00,M,OVC,M,M,M,2300.00,M,M,M,M,KBWG 011835Z AUTO 06004KT 10SM OVC023 A3019 RMK MADISHF
BWG,2017-04-01 18:40,-86.4197,36.9645,M,M,M,60.00,4.00,M,30.19,M,10.00,M,OVC,M,M,M,2300.00,M,M,M,M,KBWG 011840Z AUTO 06004KT 10SM OVC023 A3019 RMK MADISHF
BWG,2017-04-01 18:45,-86.4197,36.9645,M,M,M,0.00,0.00,M,30.19,M,10.00,M,OVC,M,M,M,2400.00,M,M,M,M,KBWG 011845Z AUTO 00000KT 10SM OVC024 A3019 RMK MADISHF
BWG,2017-04-01 18:50,-86.4197,36.9645,M,M,M,100.00,4.00,M,30.19,M,10.00,M,OVC,M,M,M,2400.00,M,M,M,M,KBWG 011850Z AUTO 10004KT 10SM OVC024 A3019 RMK VRB04KT  MADISHF
BWG,2017-04-01 18:53,-86.4197,36.9645,53.10,41.00,63.38,80.00,3.00,0.00,30.19,1022.30,10.00,M,OVC,M,M,M,2400.00,M,M,M,M,KBWG 011853Z AUTO 08003KT 10SM OVC024 12/05 A3019 RMK AO2 SLP223 T01170050 TSNO
BWG,2017-04-01 18:55,-86.4197,36.9645,M,M,M,60.00,4.00,M,30.19,M,10.00,M,OVC,M,M,M,2400.00,M,M,M,M,KBWG 011855Z AUTO 06004KT 10SM OVC024 A3019 RMK MADISHF
BWG,2017-04-01 19:00,-86.4197,36.9645,M,M,M,90.00,5.00,M,30.19,M,10.00,M,OVC,M,M,M,2500.00,M,M,M,M,KBWG 011900Z AUTO 09005KT 10SM OVC025 A3019 RMK MADISHF
BWG,2017-04-01 19:05,-86.4197,36.9645,M,M,M,0.00,0.00,M,30.19,M,10.00,M,OVC,M,M,M,2500.00,M,M,M,M,KBWG 011905Z AUTO 00000KT 10SM OVC025 A3019 RMK MADISHF
BWG,2017-04-01 19:10,-86.4197,36.9645,M,M,M,70.00,3.00,M,30.18,M,10.00,M,OVC,M,M,M,2600.00,M,M,M,M,KBWG 011910Z AUTO 07003KT 10SM OVC026 A3018 RMK VRB03KT  MADISHF
BWG,2017-04-01 19:15,-86.4197,36.9645,M,M,M,0.00,0.00,M,30.18,M,10.00,M,OVC,M,M,M,2600.00,M,M,M,M,KBWG 011915Z AUTO 00000KT 10SM OVC026 A3018 RMK MADISHF
BWG,2017-04-01 19:20,-86.4197,36.9645,M,M,M,50.00,6.00,M,30.18,M,10.00,M,OVC,M,M,M,2600.00,M,M,M,M,KBWG 011920Z AUTO 05006KT 10SM OVC026 A3018 RMK MADISHF
BWG,2017-04-01 19:25,-86.4197,36.9645,M,M,M,110.00,4.00,M,30.18,M,10.00,M,OVC,M,M,M,2800.00,M,M,M,M,KBWG 011925Z AUTO 11004KT 10SM OVC028 A3018 RMK MADISHF
BWG,2017-04-01 19:30,-86.4197,36.9645,M,M,M,100.00,5.00,M,30.18,M,10.00,M,OVC,M,M,M,2800.00,M,M,M,M,KBWG 011930Z AUTO 10005KT 10SM OVC028 A3018 RMK MADISHF
BWG,2017-04-01 19:35,-86.4197,36.9645,M,M,M,100.00,4.00,M,30.18,M,10.00,M,OVC,M,M,M,2800.00,M,M,M,M,KBWG 011935Z AUTO 10004KT 10SM OVC028 A3018 RMK VRB04KT  MADISHF
BWG,2017-04-01 19:40,-86.4197,36.9645,M,M,M,80.00,5.00,M,30.18,M,10.00,M,OVC,M,M,M,2800.00,M,M,M,M,KBWG 011940Z AUTO 08005KT 10SM OVC028 A3018 RMK VRB05KT  MADISHF
BWG,2017-04-01 19:45,-86.4197,36.9645,M,M,M,30.00,3.00,M,30.18,M,10.00,M,OVC,M,M,M,2800.00,M,M,M,M,KBWG 011945Z AUTO 03003KT 10SM OVC028 A3018 RMK MADISHF
BWG,2017-04-01 19:50,-86.4197,36.9645,M,M,M,0.00,0.00,M,30.17,M,10.00,M,OVC,M,M,M,2800.00,M,M,M,M,KBWG 011950Z AUTO 00000KT 10SM OVC028 A3017 RMK MADISHF
BWG,2017-04-01 19:53,-86.4197,36.9645,55.90,42.10,59.71,80.00,3.00,0.00,30.18,1021.80,10.00,M,OVC,M,M,M,2800.00,M,M,M,M,KBWG 011953Z AUTO 08003KT 10SM OVC028 13/06 A3018 RMK AO2 SLP218 T01330056 TSNO
BWG,2017-04-01 19:55,-86.4197,36.9645,M,M,M,0.00,0.00,M,30.17,M,10.00,M,OVC,M,M,M,2800.00,M,M,M,M,KBWG 011955Z AUTO 00000KT 10SM OVC028 A3017 RMK MADISHF
BWG,2017-04-01 20:00,-86.4197,36.9645,M,M,M,60.00,4.00,M,30.17,M,10.00,M,OVC,M,M,M,2800.00,M,M,M,M,KBWG 012000Z AUTO 06004KT 10SM OVC028 A3017 RMK MADISHF
BWG,2017-04-01 20:05,-86.4197,36.9645,M,M,M,10.00,4.00,M,30.17,M,10.00,M,OVC,M,M,M,2800.00,M,M,M,M,KBWG 012005Z AUTO 01004KT 10SM OVC028 A3017 RMK VRB04KT  MADISHF
BWG,2017-04-01 20:10,-86.4197,36.9645,M,M,M,20.00,5.00,M,30.17,M,10.00,M,BKN,M,M,M,2900.00,M,M,M,M,KBWG 012010Z AUTO 02005KT 10SM BKN029 A3017 RMK VRB05KT  MADISHF
BWG,2017-04-01 20:15,-86.4197,36.9645,M,M,M,10.00,3.00,M,30.17,M,10.00,M,BKN,M,M,M,2900.00,M,M,M,M,KBWG 012015Z AUTO 01003KT 10SM BKN029 A3017 RMK VRB03KT  MADISHF
BWG,2017-04-01 20:20,-86.4197,36.9645,M,M,M,300.00,3.00,M,30.18,M,10.00,M,BKN,M,M,M,2900.00,M,M,M,M,KBWG 012020Z AUTO 30003KT 10SM BKN029 A3018 RMK VRB03KT  MADISHF
BWG,2017-04-01 20:25,-86.4197,36.9645,M,M,M,310.00,5.00,M,30.18,M,10.00,M,SCT,M,M,M,2900.00,M,M,M,M,KBWG 012025Z AUTO 31005KT 10SM SCT029 A3018 RMK VRB05KT  MADISHF
BWG,2017-04-01 20:28,-86.4197,36.9645,57.00,41.00,54.99,320.00,5.00,0.00,30.17,M,10.00,M,SCT,M,M,M,2900.00,M,M,M,M,KBWG 012028Z AUTO 32005KT 10SM SCT029 14/05 A3017 RMK AO2 T01390050 TSNO
BWG,2017-04-01 20:30,-86.4197,36.9645,M,M,M,40.00,4.00,M,30.17,M,10.00,M,SCT,M,M,M,2900.00,M,M,M,M,KBWG 012030Z AUTO 04004KT 10SM SCT029 A3017 RMK VRB04KT  MADISHF
BWG,2017-04-01 20:35,-86.4197,36.9645,M,M,M,50.00,8.00,M,30.18,M,10.00,M,BKN,M,M,M,3100.00,M,M,M,M,KBWG 012035Z AUTO 05008KT 10SM BKN031 A3018 RMK MADISHF
BWG,2017-04-01 20:40,-86.4197,36.9645,M,M,M,20.00,5.00,M,30.18,M,10.00,M,BKN,M,M,M,3100.00,M,M,M,M,KBWG 012040Z AUTO 02005KT 10SM BKN031 A3018 RMK MADISHF
BWG,2017-04-01 20:45,-86.4197,36.9645,M,M,M,120.00,3.00,M,30.18,M,10.00,M,BKN,M,M,M,3100.00,M,M,M,M,KBWG 012045Z AUTO 12003KT 10SM BKN031 A3018 RMK VRB03KT  MADISHF
BWG,2017-04-01 20:50,-86.4197,36.9645,M,M,M,130.00,4.00,M,30.18,M,10.00,M,BKN,M,M,M,3100.00,M,M,M,M,KBWG 012050Z AUTO 13004KT 10SM BKN031 A3018 RMK MADISHF
BWG,2017-04-01 20:53,-86.4197,36.9645,55.90,41.00,57.23,110.00,3.00,0.00,30.18,1021.90,10.00,M,BKN,M,M,M,3100.00,M,M,M,M,KBWG 012053Z AUTO 11003KT 10SM BKN031 13/05 A3018 RMK AO2 SLP219 T01330050 55004 TSNO
BWG,2017-04-01 20:55,-86.4197,36.9645,M,M,M,110.00,5.00,M,30.18,M,10.00,M,BKN,M,M,M,3100.00,M,M,M,M,KBWG 012055Z AUTO 11005KT 10SM BKN031 A3018 RMK MADISHF
BWG,2017-04-01 21:00,-86.4197,36.9645,M,M,M,60.00,3.00,M,30.18,M,10.00,M,BKN,M,M,M,3100.00,M,M,M,M,KBWG 012100Z AUTO 06003KT 10SM BKN031 A3018 RMK VRB03KT  MADISHF
BWG,2017-04-01 21:05,-86.4197,36.9645,M,M,M,40.00,8.00,M,30.18,M,10.00,M,OVC,M,M,M,3100.00,M,M,M,M,KBWG 012105Z AUTO 04008KT 10SM OVC031 A3018 RMK MADISHF
BWG,2017-04-01 21:10,-86.4197,36.9645,M,M,M,40.00,7.00,M,30.18,M,10.00,M,BKN,M,M,M,3300.00,M,M,M,M,KBWG 012110Z AUTO 04007KT 10SM BKN033 A3018 RMK MADISHF
BWG,2017-04-01 21:15,-86.4197,36.9645,M,M,M,40.00,6.00,M,30.18,M,10.00,M,BKN,M,M,M,3300.00,M,M,M,M,KBWG 012115Z AUTO 04006KT 10SM BKN033 A3018 RMK MADISHF
BWG,2017-04-01 21:20,-86.4197,36.9645,M,M,M,40.00,4.00,M,30.18,M,10.00,M,OVC,M,M,M,3500.00,M,M,M,M,KBWG 012120Z AUTO 04004KT 10SM OVC035 A3018 RMK MADISHF
BWG,2017-04-01 21:25,-86.4197,36.9645,M,M,M,50.00,5.00,M,30.18,M,10.00,M,OVC,M,M,M,3500.00,M,M,M,M,KBWG 012125Z AUTO 05005KT 10SM OVC035 A3018 RMK VRB05KT  MADISHF
BWG,2017-04-01 21:30,-86.4197,36.9645,M,M,M,50.00,6.00,M,30.18,M,10.00,M,OVC,M,M,M,3500.00,M,M,M,M,KBWG 012130Z AUTO 05006KT 10SM OVC035 A3018 RMK MADISHF
BWG,2017-04-01 21:35,-86.4197,36.9645,M,M,M,40.00,6.00,M,30.18,M,10.00,M,OVC,M,M,M,3500.00,M,M,M,M,KBWG 012135Z AUTO 04006KT 10SM OVC035 A3018 RMK MADISHF
BWG,2017-04-01 21:40,-86.4197,36.9645,M,M,M,90.00,5.00,M,30.18,M,10.00,M,BKN,M,M,M,3600.00,M,M,M,M,KBWG 012140Z AUTO 09005KT 10SM BKN036 A3018 RMK MADISHF
BWG,2017-04-01 21:45,-86.4197,36.9645,M,M,M,40.00,8.00,M,30.18,M,10.00,M,BKN,M,M,M,3600.00,M,M,M,M,KBWG 012145Z AUTO 04008KT 10SM BKN036 A3018 RMK MADISHF
BWG,2017-04-01 21:50,-86.4197,36.9645,M,M,M,30.00,6.00,M,30.18,M,10.00,M,BKN,M,M,M,3600.00,M,M,M,M,KBWG 012150Z AUTO 03006KT 10SM BKN036 A3018 RMK MADISHF
BWG,2017-04-01 21:53,-86.4197,36.9645,55.90,41.00,57.23,30.00,4.00,0.00,30.18,1022.00,10.00,M,BKN,M,M,M,3600.00,M,M,M,M,KBWG 012153Z AUTO 03004KT 10SM BKN036 13/05 A3018 RMK AO2 SLP220 T01330050 TSNO
BWG,2017-04-01 21:55,-86.4197,36.9645,M,M,M,60.00,4.00,M,30.18,M,10.00,M,BKN,M,M,M,3600.00,M,M,M,M,KBWG 012155Z AUTO 06004KT 10SM BKN036 A3018 RMK MADISHF
BWG,2017-04-01 22:00,-86.4197,36.9645,M,M,M,80.00,6.00,M,30.18,M,10.00,M,BKN,M,M,M,3600.00,M,M,M,M,KBWG 012200Z AUTO 08006KT 10SM BKN036 A3018 RMK MADISHF
BWG,2017-04-01 22:05,-86.4197,36.9645,M,M,M,60.00,6.00,M,30.18,M,10.00,M,BKN,M,M,M,3600.00,M,M,M,M,KBWG 012205Z AUTO 06006KT 10SM BKN036 A3018 RMK MADISHF
BWG,2017-04-01 22:10,-86.4197,36.9645,M,M,M,60.00,9.00,M,30.18,M,10.00,M,BKN,M,M,M,3600.00,M,M,M,M,KBWG 012210Z AUTO 06009KT 10SM BKN036 A3018 RMK MADISHF
BWG,2017-04-01 22:15,-86.4197,36.9645,M,M,M,70.00,6.00,M,30.18,M,10.00,M,SCT,M,M,M,3600.00,M,M,M,M,KBWG 012215Z AUTO 07006KT 10SM SCT036 A3018 RMK MADISHF
BWG,2017-04-01 22:20,-86.4197,36.9645,M,M,M,80.00,8.00,M,30.18,M,10.00,M,SCT,M,M,M,3600.00,M,M,M,M,KBWG 012220Z AUTO 08008KT 10SM SCT036 A3018 RMK MADISHF
BWG,2017-04-01 22:25,-86.4197,36.9645,M,M,M,70.00,8.00,M,30.18,M,10.00,M,SCT,M,M,M,3600.00,M,M,M,M,KBWG 012225Z AUTO 07008KT 10SM SCT036 A3018 RMK MADISHF
BWG,2017-04-01 22:30,-86.4197,36.9645,M,M,M,80.00,7.00,M,30.18,M,10.00,M,FEW,M,M,M,3600.00,M,M,M,M,KBWG 012230Z AUTO 08007KT 10SM FEW036 A3018 RMK MADISHF
BWG,2017-04-01 22:35,-86.4197,36.9645,M,M,M,70.00,6.00,M,30.18,M,10.00,M,FEW,M,M,M,3600.00,M,M,M,M,KBWG 012235Z AUTO 07006KT 10SM FEW036 A3018 RMK MADISHF
BWG,2017-04-01 22:40,-86.4197,36.9645,M,M,M,60.00,6.00,M,30.18,M,10.00,M,FEW,M,M,M,3600.00,M,M,M,M,KBWG 012240Z AUTO 06006KT 10SM FEW036 A3018 RMK MADISHF
BWG,2017-04-01 22:45,-86.4197,36.9645,M,M,M,60.00,9.00,M,30.18,M,10.00,M,FEW,M,M,M,3700.00,M,M,M,M,KBWG 012245Z AUTO 06009KT 10SM FEW037 A3018 RMK WND 03V10  MADISHF
BWG,2017-04-01 22:50,-86.4197,36.9645,M,M,M,70.00,6.00,M,30.18,M,10.00,M,CLR,M,M,M,M,M,M,M,M,KBWG 012250Z AUTO 07006KT 10SM CLR A3018 RMK MADISHF
BWG,2017-04-01 22:53,-86.4197,36.9645,55.90,43.00,61.81,80.00,8.00,0.00,30.18,1021.90,10.00,M,CLR,M,M,M,M,M,M,M,M,KBWG 012253Z AUTO 08008KT 10SM CLR 13/06 A3018 RMK AO2 SLP219 T01330061 TSNO
BWG,2017-04-01 22:55,-86.4197,36.9645,M,M,M,70.00,9.00,M,30.18,M,10.00,M,CLR,M,M,M,M,M,M,M,M,KBWG 012255Z AUTO 07009KT 10SM CLR A3018 RMK MADISHF
BWG,2017-04-01 23:00,-86.4197,36.9645,M,M,M,80.00,7.00,M,30.18,M,10.00,M,CLR,M,M,M,M,M,M,M,M,KBWG 012300Z AUTO 08007KT 10SM CLR A3018 RMK MADISHF
BWG,2017-04-01 23:05,-86.4197,36.9645,M,M,M,90.00,7.00,M,30.18,M,10.00,M,CLR,M,M,M,M,M,M,M,M,KBWG 012305Z AUTO 09007KT 10SM CLR A3018 RMK MADISHF
BWG,2017-04-01 23:10,-86.4197,36.9645,M,M,M,70.00,8.00,M,30.18,M,10.00,M,CLR,M,M,M,M,M,M,M,M,KBWG 012310Z AUTO 07008KT 10SM CLR A3018 RMK MADISHF
BWG,2017-04-01 23:15,-86.4197,36.9645,M,M,M,70.00,8.00,M,30.18,M,10.00,M,CLR,M,M,M,M,M,M,M,M,KBWG 012315Z AUTO 07008KT 10SM CLR A3018 RMK MADISHF
BWG,2017-04-01 23:20,-86.4197,36.9645,M,M,M,70.00,7.00,M,30.18,M,10.00,M,CLR,M,M,M,M,M,M,M,M,KBWG 012320Z AUTO 07007KT 10SM CLR A3018 RMK MADISHF
BWG,2017-04-01 23:25,-86.4197,36.9645,M,M,M,70.00,7.00,M,30.18,M,10.00,M,CLR,M,M,M,M,M,M,M,M,KBWG 012325Z AUTO 07007KT 10SM CLR A3018 RMK MADISHF
BWG,2017-04-01 23:30,-86.4197,36.9645,M,M,M,70.00,7.00,M,30.18,M,10.00,M,CLR,M,M,M,M,M,M,M,M,KBWG 012330Z AUTO 07007KT 10SM CLR A3018 RMK MADISHF
BWG,2017-04-01 23:35,-86.4197,36.9645,M,M,M,80.00,7.00,M,30.18,M,10.00,M,CLR,M,M,M,M,M,M,M,M,KBWG 012335Z AUTO 08007KT 10SM CLR A3018 RMK MADISHF
BWG,2017-04-01 23:40,-86.4197,36.9645,M,M,M,60.00,7.00,M,30.19,M,10.00,M,CLR,M,M,M,M,M,M,M,M,KBWG 012340Z AUTO 06007KT 10SM CLR A3019 RMK MADISHF
BWG,2017-04-01 23:45,-86.4197,36.9645,M,M,M,50.00,8.00,M,30.19,M,10.00,M,CLR,M,M,M,M,M,M,M,M,KBWG 012345Z AUTO 05008KT 10SM CLR A3019 RMK MADISHF
BWG,2017-04-01 23:50,-86.4197,36.9645,M,M,M,50.00,8.00,M,30.19,M,10.00,M,CLR,M,M,M,M,M,M,M,M,KBWG 012350Z AUTO 05008KT 10SM CLR A3019 RMK MADISHF
BWG,2017-04-01 23:53,-86.4197,36.9645,52.00,41.00,66.00,60.00,7.00,0.00,30.19,1022.30,10.00,M,CLR,M,M,M,M,M,M,M,M,KBWG 012353Z AUTO 06007KT 10SM CLR 11/05 A3019 RMK AO2 SLP223 T01110050 10144 20100 53003 TSNO
BWG,2017-04-01 23:55,-86.4197,36.9645,M,M,M,60.00,6.00,M,30.19,M,10.00,M,CLR,M,M,M,M,M,M,M,M,KBWG 012355Z AUTO 06006KT 10SM CLR A3019 RMK MADISHF
