#DEBUG: Format Typ    -> comma
#DEBUG: Time Period   -> 2017-04-01 00:00:00+00:00 2017-04-02 00:00:00+00:00
#DEBUG: Time Zone     -> Etc/UTC
#DEBUG: Data Contact   -> daryl herzmann akrherz@iastate.edu 515-294-5978
#DEBUG: Entries Found -> -1
station,valid,lon,lat,tmpf, dwpf, relh, drct, sknt, p01i, alti, mslp, vsby, gust, skyc1, skyc2, skyc3, skyc4, skyl1, skyl2, skyl3, skyl4, presentwx, metar
BWI,2017-04-01 00:00,-76.6683,39.1754,M,M,M,280.00,6.00,0.01,29.64,M,7.00,M,OVC,M,M,M,499.00,M,M,M,-RA,KBWI 010000Z AUTO 28006KT 7SM -RA OVC004 A2964 RMK P0001 MADISHF
BWI,2017-04-01 00:05,-76.6683,39.1754,M,M,M,270.00,6.00,0.01,29.64,M,7.00,M,OVC,M,M,M,499.00,M,M,M,-RA,KBWI 010005Z AUTO 27006KT 7SM -RA OVC004 A2964 RMK P0001 MADISHF
BWI,2017-04-01 00:10,-76.6683,39.1754,M,M,M,270.00,6.00,0.01,29.65,M,7.00,M,OVC,M,M,M,499.00,M,M,M,-RA,KBWI 010010Z AUTO 27006KT 7SM -RA OVC004 A2965 RMK P0001 MADISHF
BWI,2017-04-01 00:15,-76.6683,39.1754,M,M,M,280.00,7.00,0.02,29.65,M,8.00,M,OVC,M,M,M,499.00,M,M,M,-RA,KBWI 010015Z AUTO 28007KT 8SM -RA OVC004 A2965 RMK P0002 MADISHF
BWI,2017-04-01 00:20,-76.6683,39.1754,M,M,M,290.00,8.00,0.02,29.65,M,8.00,M,OVC,M,M,M,600.00,M,M,M,-RA,KBWI 010020Z AUTO 29008KT 8SM -RA OVC006 A2965 RMK P0002 MADISHF
BWI,2017-04-01 00:25,-76.6683,39.1754,M,M,M,280.00,6.00,0.02,29.65,M,8.00,M,OVC,M,M,M,600.00,M,M,M,-RA,KBWI 010025Z AUTO 28006KT 8SM -RA OVC006 A2965 RMK P0002 MADISHF
BWI,2017-04-01 00:30,-76.6683,39.1754,M,M,M,290.00,9.00,0.02,29.65,M,7.00,M,OVC,M,M,M,700.00,M,M,M,-RA,KBWI 010030Z AUTO 29009KT 7SM -RA OVC007 A2965 RMK P0002 MADISHF
BWI,2017-04-01 00:35,-76.6683,39.1754,M,M,M,290.00,6.00,0.03,29.65,M,7.00,M,OVC,M,M,M,700.00,M,M,M,-RA,KBWI 010035Z AUTO 29006KT 7SM -RA OVC007 A2965 RMK P0003 MADISHF
BWI,2017-04-01 00:40,-76.6683,39.1754,M,M,M,290.00,6.00,0.03,29.65,M,6.00,M,OVC,M,M,M,700.00,M,M,M,-RA BR,KBWI 010040Z AUTO 29006KT 6SM -RA BR OVC007 A2965 RMK P0003 MADISHF
BWI,2017-04-01 00:45,-76.6683,39.1754,M,M,M,290.00,6.00,0.04,29.65,M,7.00,M,OVC,M,M,M,700.00,M,M,M,-RA,KBWI 010045Z AUTO 29006KT 7SM -RA OVC007 A2965 RMK P0004 MADISHF
BWI,2017-04-01 00:50,-76.6683,39.1754,M,M,M,290.00,5.00,0.04,29.65,M,6.00,M,OVC,M,M,M,700.00,M,M,M,-RA BR,KBWI 010050Z AUTO 29005KT 6SM -RA BR OVC007 A2965 RMK P0004 MADISHF
BWI,2017-04-01 00:54,-76.6683,39.1754,46.90,46.90,100.00,290.00,6.00,0.04,29.65,1004.00,6.00,M,OVC,M,M,M,700.00,M,M,M,-RA BR,KBWI 010054Z 29006KT 6SM -RA BR OVC007 08/08 A2965 RMK AO2 SLP040 P0004 T00830083
BWI,2017-04-01 00:55,-76.6683,39.1754,M,M,M,290.00,7.00,M,29.65,M,9.00,M,OVC,M,M,M,700.00,M,M,M,-RA,KBWI 010055Z AUTO 29007KT 9SM -RA OVC007 A2965 RMK MADISHF
BWI,2017-04-01 01:00,-76.6683,39.1754,M,M,M,290.00,7.00,M,29.66,M,9.00,M,OVC,M,M,M,700.00,M,M,M,-RA,KBWI 010100Z AUTO 29007KT 9SM -RA OVC007 A2966 RMK MADISHF
BWI,2017-04-01 01:05,-76.6683,39.1754,M,M,M,290.00,8.00,M,29.65,M,9.00,M,OVC,M,M,M,700.00,M,M,M,M,KBWI 010105Z AUTO 29008KT 9SM OVC007 A2965 RMK MADISHF
BWI,2017-04-01 01:10,-76.6683,39.1754,M,M,M,300.00,7.00,M,29.65,M,9.00,M,OVC,M,M,M,700.00,M,M,M,M,KBWI 010110Z AUTO 30007KT 9SM OVC007 A2965 RMK MADISHF
BWI,2017-04-01 01:15,-76.6683,39.1754,M,M,M,290.00,8.00,M,29.66,M,9.00,M,OVC,M,M,M,700.00,M,M,M,M,KBWI 010115Z AUTO 29008KT 9SM OVC007 A2966 RMK MADISHF
BWI,2017-04-01 01:20,-76.6683,39.1754,M,M,M,290.00,7.00,M,29.66,M,9.00,M,OVC,M,M,M,700.00,M,M,M,M,KBWI 010120Z AUTO 29007KT 9SM OVC007 A2966 RMK MADISHF
BWI,2017-04-01 01:25,-76.6683,39.1754,M,M,M,300.00,9.00,M,29.66,M,9.00,M,OVC,M,M,M,700.00,M,M,M,M,KBWI 010125Z AUTO 30009KT 9SM OVC007 A2966 RMK MADISHF
BWI,2017-04-01 01:30,-76.6683,39.1754,M,M,M,310.00,8.00,M,29.65,M,9.00,M,OVC,M,M,M,700.00,M,M,M,M,KBWI 010130Z AUTO 31008KT 9SM OVC007 A2965 RMK MADISHF
BWI,2017-04-01 01:35,-76.6683,39.1754,M,M,M,310.00,7.00,M,29.65,M,9.00,M,OVC,M,M,M,700.00,M,M,M,M,KBWI 010135Z AUTO 31007KT 9SM OVC007 A2965 RMK MADISHF
BWI,2017-04-01 01:40,-76.6683,39.1754,M,M,M,300.00,6.00,M,29.65,M,9.00,M,OVC,M,M,M,700.00,M,M,M,M,KBWI 010140Z AUTO 30006KT 9SM OVC007 A2965 RMK MADISHF
BWI,2017-04-01 01:45,-76.6683,39.1754,M,M,M,300.00,5.00,M,29.65,M,9.00,M,OVC,M,M,M,700.00,M,M,M,M,KBWI 010145Z AUTO 30005KT 9SM OVC007 A2965 RMK MADISHF
BWI,2017-04-01 01:50,-76.6683,39.1754,M,M,M,320.00,5.00,M,29.65,M,6.00,M,BKN,OVC,M,M,700.00,1200.00,M,M,BR,KBWI 010150Z AUTO 32005KT 6SM BR BKN007 OVC012 A2965 RMK MADISHF
BWI,2017-04-01 01:54,-76.6683,39.1754,46.00,46.00,100.00,330.00,5.00,0.00,29.65,1004.00,6.00,M,BKN,OVC,M,M,700.00,1200.00,M,M,BR,KBWI 010154Z 33005KT 6SM BR BKN007 OVC012 08/08 A2965 RMK AO2 RAE01 SLP040 P0000 T00780078
BWI,2017-04-01 01:55,-76.6683,39.1754,M,M,M,330.00,5.00,M,29.65,M,10.00,M,OVC,M,M,M,700.00,M,M,M,BR,KBWI 010155Z AUTO 33005KT 10SM BR OVC007 A2965 RMK MADISHF
BWI,2017-04-01 02:00,-76.6683,39.1754,M,M,M,320.00,6.00,M,29.65,M,10.00,M,BKN,OVC,M,M,700.00,7500.00,M,M,M,KBWI 010200Z AUTO 32006KT 10SM BKN007 OVC075 A2965 RMK MADISHF
BWI,2017-04-01 02:05,-76.6683,39.1754,M,M,M,320.00,4.00,M,29.64,M,10.00,M,BKN,OVC,M,M,800.00,7000.00,M,M,M,KBWI 010205Z AUTO 32004KT 10SM BKN008 OVC070 A2964 RMK MADISHF
BWI,2017-04-01 02:10,-76.6683,39.1754,M,M,M,310.00,4.00,M,29.64,M,9.00,M,BKN,OVC,M,M,800.00,7000.00,M,M,M,KBWI 010210Z AUTO 31004KT 9SM BKN008 OVC070 A2964 RMK MADISHF
BWI,2017-04-01 02:15,-76.6683,39.1754,M,M,M,290.00,5.00,M,29.64,M,9.00,M,BKN,OVC,M,M,800.00,7000.00,M,M,M,KBWI 010215Z AUTO 29005KT 9SM BKN008 OVC070 A2964 RMK MADISHF
BWI,2017-04-01 02:20,-76.6683,39.1754,M,M,M,290.00,6.00,M,29.64,M,8.00,M,BKN,BKN,OVC,M,800.00,7000.00,10000.00,M,M,KBWI 010220Z AUTO 29006KT 8SM BKN008 BKN070 OVC100 A2964 RMK MADISHF
BWI,2017-04-01 02:25,-76.6683,39.1754,M,M,M,300.00,5.00,M,29.65,M,8.00,M,BKN,BKN,OVC,M,800.00,7000.00,9500.00,M,M,KBWI 010225Z AUTO 30005KT 8SM BKN008 BKN070 OVC095 A2965 RMK MADISHF
BWI,2017-04-01 02:30,-76.6683,39.1754,M,M,M,290.00,5.00,M,29.65,M,8.00,M,BKN,BKN,OVC,M,900.00,7000.00,9500.00,M,M,KBWI 010230Z AUTO 29005KT 8SM BKN009 BKN070 OVC095 A2965 RMK MADISHF
BWI,2017-04-01 02:35,-76.6683,39.1754,M,M,M,300.00,4.00,M,29.65,M,8.00,M,BKN,OVC,M,M,900.00,7000.00,M,M,M,KBWI 010235Z AUTO 30004KT 8SM BKN009 OVC070 A2965 RMK MADISHF
BWI,2017-04-01 02:40,-76.6683,39.1754,M,M,M,300.00,5.00,M,29.65,M,8.00,M,BKN,OVC,M,M,900.00,10000.00,M,M,M,KBWI 010240Z AUTO 30005KT 8SM BKN009 OVC100 A2965 RMK MADISHF
BWI,2017-04-01 02:45,-76.6683,39.1754,M,M,M,290.00,5.00,M,29.65,M,8.00,M,BKN,M,M,M,900.00,M,M,M,-RA,KBWI 010245Z AUTO 29005KT 8SM -RA BKN009 A2965 RMK MADISHF
BWI,2017-04-01 02:50,-76.6683,39.1754,M,M,M,300.00,5.00,M,29.65,M,6.00,M,BKN,OVC,M,M,900.00,5000.00,M,M,-RA BR,KBWI 010250Z AUTO 30005KT 6SM -RA BR BKN009 OVC050 A2965 RMK MADISHF
BWI,2017-04-01 02:54,-76.6683,39.1754,46.00,46.00,100.00,310.00,5.00,0.00,29.65,1003.90,6.00,M,BKN,OVC,M,M,900.00,5000.00,M,M,-RA BR,KBWI 010254Z 31005KT 6SM -RA BR BKN009 OVC050 08/08 A2965 RMK AO2 RAB43 SLP039 P0000 60004 T00780078 50003
BWI,2017-04-01 02:55,-76.6683,39.1754,M,M,M,310.00,4.00,M,29.65,M,9.00,M,OVC,M,M,M,900.00,M,M,M,-RA BR,KBWI 010255Z AUTO 31004KT 9SM -RA BR OVC009 A2965 RMK MADISHF
BWI,2017-04-01 03:00,-76.6683,39.1754,M,M,M,320.00,5.00,M,29.65,M,9.00,M,OVC,M,M,M,900.00,M,M,M,M,KBWI 010300Z AUTO 32005KT 9SM OVC009 A2965 RMK MADISHF
BWI,2017-04-01 03:05,-76.6683,39.1754,M,M,M,320.00,5.00,M,29.65,M,9.00,M,BKN,OVC,M,M,900.00,9000.00,M,M,M,KBWI 010305Z AUTO 32005KT 9SM BKN009 OVC090 A2965 RMK MADISHF
BWI,2017-04-01 03:10,-76.6683,39.1754,M,M,M,320.00,4.00,M,29.64,M,9.00,M,BKN,OVC,M,M,900.00,9000.00,M,M,M,KBWI 010310Z AUTO 32004KT 9SM BKN009 OVC090 A2964 RMK MADISHF
BWI,2017-04-01 03:15,-76.6683,39.1754,M,M,M,310.00,5.00,M,29.64,M,9.00,M,BKN,BKN,OVC,M,900.00,9000.00,11000.00,M,M,KBWI 010315Z AUTO 31005KT 9SM BKN009 BKN090 OVC110 A2964 RMK MADISHF
BWI,2017-04-01 03:20,-76.6683,39.1754,M,M,M,310.00,4.00,M,29.65,M,9.00,M,BKN,BKN,OVC,M,900.00,9000.00,11000.00,M,M,KBWI 010320Z AUTO 31004KT 9SM BKN009 BKN090 OVC110 A2965 RMK MADISHF
BWI,2017-04-01 03:25,-76.6683,39.1754,M,M,M,280.00,4.00,M,29.65,M,9.00,M,BKN,OVC,M,M,900.00,8500.00,M,M,M,KBWI 010325Z AUTO 28004KT 9SM BKN009 OVC085 A2965 RMK MADISHF
BWI,2017-04-01 03:30,-76.6683,39.1754,M,M,M,280.00,4.00,M,29.65,M,8.00,M,BKN,OVC,M,M,900.00,8500.00,M,M,M,KBWI 010330Z AUTO 28004KT 8SM BKN009 OVC085 A2965 RMK MADISHF
BWI,2017-04-01 03:35,-76.6683,39.1754,M,M,M,260.00,4.00,M,29.65,M,8.00,M,OVC,M,M,M,900.00,M,M,M,M,KBWI 010335Z AUTO 26004KT 8SM OVC009 A2965 RMK MADISHF
BWI,2017-04-01 03:40,-76.6683,39.1754,M,M,M,270.00,4.00,M,29.65,M,9.00,M,OVC,M,M,M,900.00,M,M,M,M,KBWI 010340Z AUTO 27004KT 9SM OVC009 A2965 RMK MADISHF
BWI,2017-04-01 03:45,-76.6683,39.1754,M,M,M,280.00,4.00,M,29.65,M,9.00,M,OVC,M,M,M,900.00,M,M,M,M,KBWI 010345Z AUTO 28004KT 9SM OVC009 A2965 RMK MADISHF
BWI,2017-04-01 03:50,-76.6683,39.1754,M,M,M,290.00,3.00,M,29.65,M,9.00,M,OVC,M,M,M,900.00,M,M,M,M,KBWI 010350Z AUTO 29003KT 9SM OVC009 A2965 RMK MADISHF
BWI,2017-04-01 03:54,-76.6683,39.1754,46.00,46.00,100.00,300.00,3.00,0.00,29.65,1004.10,6.00,M,BKN,M,M,M,900.00,M,M,M,BR,KBWI 010354Z 30003KT 6SM BR BKN009 08/08 A2965 RMK AO2 RAE0256 SLP041 P0000 T00780078
BWI,2017-04-01 03:55,-76.6683,39.1754,M,M,M,290.00,3.00,M,29.65,M,9.00,M,OVC,M,M,M,900.00,M,M,M,M,KBWI 010355Z AUTO 29003KT 9SM OVC009 A2965 RMK MADISHF
BWI,2017-04-01 04:00,-76.6683,39.1754,M,M,M,290.00,4.00,M,29.65,M,9.00,M,OVC,M,M,M,900.00,M,M,M,M,KBWI 010400Z AUTO 29004KT 9SM OVC009 A2965 RMK MADISHF
BWI,2017-04-01 04:05,-76.6683,39.1754,M,M,M,290.00,4.00,M,29.65,M,9.00,M,OVC,M,M,M,900.00,M,M,M,M,KBWI 010405Z AUTO 29004KT 9SM OVC009 A2965 RMK MADISHF
BWI,2017-04-01 04:10,-76.6683,39.1754,M,M,M,280.00,4.00,M,29.65,M,8.00,M,OVC,M,M,M,900.00,M,M,M,M,KBWI 010410Z AUTO 28004KT 8SM OVC009 A2965 RMK MADISHF
BWI,2017-04-01 04:15,-76.6683,39.1754,M,M,M,270.00,4.00,M,29.65,M,8.00,M,OVC,M,M,M,900.00,M,M,M,M,KBWI 010415Z AUTO 27004KT 8SM OVC009 A2965 RMK MADISHF
BWI,2017-04-01 04:20,-76.6683,39.1754,M,M,M,270.00,4.00,M,29.65,M,8.00,M,OVC,M,M,M,900.00,M,M,M,M,KBWI 010420Z AUTO 27004KT 8SM OVC009 A2965 RMK MADISHF
BWI,2017-04-01 04:25,-76.6683,39.1754,M,M,M,270.00,4.00,M,29.65,M,8.00,M,OVC,M,M,M,999.00,M,M,M,M,KBWI 010425Z AUTO 27004KT 8SM OVC009 A2965 RMK MADISHF
BWI,2017-04-01 04:30,-76.6683,39.1754,M,M,M,270.00,5.00,M,29.65,M,9.00,M,OVC,M,M,M,900.00,M,M,M,M,KBWI 010430Z AUTO 27005KT 9SM OVC009 A2965 RMK MADISHF
BWI,2017-04-01 04:35,-76.6683,39.1754,M,M,M,290.00,6.00,M,29.65,M,10.00,M,OVC,M,M,M,900.00,M,M,M,M,KBWI 010435Z AUTO 29006KT 10SM OVC009 A2965 RMK MADISHF
BWI,2017-04-01 04:40,-76.6683,39.1754,M,M,M,300.00,6.00,M,29.65,M,10.00,M,OVC,M,M,M,900.00,M,M,M,M,KBWI 010440Z AUTO 30006KT 10SM OVC009 A2965 RMK MADISHF
BWI,2017-04-01 04:45,-76.6683,39.1754,M,M,M,300.00,6.00,M,29.65,M,10.00,M,OVC,M,M,M,900.00,M,M,M,M,KBWI 010445Z AUTO 30006KT 10SM OVC009 A2965 RMK MADISHF
BWI,2017-04-01 04:50,-76.6683,39.1754,M,M,M,290.00,6.00,M,29.65,M,10.00,M,OVC,M,M,M,900.00,M,M,M,M,KBWI 010450Z AUTO 29006KT 10SM OVC009 A2965 RMK MADISHF
BWI,2017-04-01 04:54,-76.6683,39.1754,45.00,45.00,100.00,290.00,5.00,0.00,29.65,1004.20,7.00,M,OVC,M,M,M,1100.00,M,M,M,M,KBWI 010454Z 29005KT 7SM OVC011 07/07 A2965 RMK AO2 SLP042 T00720072 401110056
BWI,2017-04-01 04:55,-76.6683,39.1754,M,M,M,290.00,6.00,M,29.65,M,10.00,M,OVC,M,M,M,1100.00,M,M,M,M,KBWI 010455Z AUTO 29006KT 10SM OVC011 A2965 RMK MADISHF
BWI,2017-04-01 05:00,-76.6683,39.1754,M,M,M,300.00,7.00,M,29.66,M,7.00,M,OVC,M,M,M,1100.00,M,M,M,M,KBWI 010500Z AUTO 30007KT 7SM OVC011 A2966 RMK MADISHF
BWI,2017-04-01 05:05,-76.6683,39.1754,M,M,M,300.00,8.00,M,29.66,M,7.00,M,OVC,M,M,M,1100.00,M,M,M,M,KBWI 010505Z AUTO 30008KT 7SM OVC011 A2966 RMK MADISHF
BWI,2017-04-01 05:10,-76.6683,39.1754,M,M,M,300.00,8.00,M,29.66,M,7.00,M,OVC,M,M,M,1100.00,M,M,M,M,KBWI 010510Z AUTO 30008KT 7SM OVC011 A2966 RMK MADISHF
BWI,2017-04-01 05:15,-76.6683,39.1754,M,M,M,300.00,8.00,M,29.66,M,7.00,M,OVC,M,M,M,1100.00,M,M,M,M,KBWI 010515Z AUTO 30008KT 7SM OVC011 A2966 RMK MADISHF
BWI,2017-04-01 05:20,-76.6683,39.1754,M,M,M,300.00,6.00,M,29.66,M,7.00,M,OVC,M,M,M,1100.00,M,M,M,M,KBWI 010520Z AUTO 30006KT 7SM OVC011 A2966 RMK MADISHF
BWI,2017-04-01 05:25,-76.6683,39.1754,M,M,M,300.00,5.00,M,29.66,M,7.00,M,BKN,BKN,BKN,M,1100.00,3700.00,4600.00,M,M,KBWI 010525Z AUTO 30005KT 7SM BKN011 BKN037 BKN046 A2966 RMK MADISHF
BWI,2017-04-01 05:30,-76.6683,39.1754,M,M,M,300.00,4.00,M,29.66,M,7.00,M,BKN,BKN,OVC,M,1100.00,3700.00,4600.00,M,M,KBWI 010530Z AUTO 30004KT 7SM BKN011 BKN037 OVC046 A2966 RMK MADISHF
BWI,2017-04-01 05:35,-76.6683,39.1754,M,M,M,290.00,5.00,M,29.66,M,7.00,M,SCT,BKN,OVC,M,1100.00,3700.00,4600.00,M,M,KBWI 010535Z AUTO 29005KT 7SM SCT011 BKN037 OVC046 A2966 RMK MADISHF
BWI,2017-04-01 05:38,-76.6683,39.1754,44.60,44.60,100.00,280.00,6.00,0.00,29.66,M,7.00,M,SCT,BKN,OVC,M,1100.00,3700.00,4600.00,M,M,KBWI 010538Z 28006KT 7SM SCT011 BKN037 OVC046 07/07 A2966
BWI,2017-04-01 05:40,-76.6683,39.1754,M,M,M,290.00,5.00,M,29.66,M,7.00,M,SCT,BKN,OVC,M,1100.00,3700.00,4600.00,M,M,KBWI 010540Z AUTO 29005KT 7SM SCT011 BKN037 OVC046 A2966 RMK MADISHF
BWI,2017-04-01 05:45,-76.6683,39.1754,M,M,M,280.00,6.00,M,29.66,M,7.00,M,SCT,BKN,OVC,M,1100.00,3700.00,4600.00,M,M,KBWI 010545Z AUTO 28006KT 7SM SCT011 BKN037 OVC046 A2966 RMK MADISHF
BWI,2017-04-01 05:50,-76.6683,39.1754,M,M,M,290.00,6.00,M,29.67,M,7.00,M,SCT,BKN,OVC,M,1100.00,3700.00,4600.00,M,M,KBWI 010550Z AUTO 29006KT 7SM SCT011 BKN037 OVC046 A2967 RMK MADISHF
BWI,2017-04-01 05:54,-76.6683,39.1754,46.00,45.00,96.28,290.00,6.00,0.00,29.67,1004.60,7.00,M,SCT,BKN,OVC,M,1100.00,3700.00,4600.00,M,M,KBWI 010554Z 29006KT 7SM SCT011 BKN037 OVC046 08/07 A2967 RMK AO2 SLP046 60004 T00780072 10094 20072 53007
BWI,2017-04-01 05:55,-76.6683,39.1754,M,M,M,290.00,6.00,M,29.67,M,10.00,M,FEW,BKN,OVC,M,1100.00,3399.00,4400.00,M,M,KBWI 010555Z AUTO 29006KT 10SM FEW011 BKN033 OVC044 A2967 RMK MADISHF
BWI,2017-04-01 06:00,-76.6683,39.1754,M,M,M,300.00,4.00,M,29.67,M,10.00,M,BKN,OVC,M,M,3399.00,4400.00,M,M,M,KBWI 010600Z AUTO 30004KT 10SM BKN033 OVC044 A2967 RMK MADISHF
BWI,2017-04-01 06:05,-76.6683,39.1754,M,M,M,290.00,6.00,M,29.67,M,10.00,M,BKN,OVC,M,M,3399.00,4400.00,M,M,M,KBWI 010605Z AUTO 29006KT 10SM BKN033 OVC044 A2967 RMK MADISHF
BWI,2017-04-01 06:10,-76.6683,39.1754,M,M,M,300.00,6.00,M,29.67,M,10.00,M,BKN,OVC,M,M,3399.00,4400.00,M,M,M,KBWI 010610Z AUTO 30006KT 10SM BKN033 OVC044 A2967 RMK MADISHF
BWI,2017-04-01 06:15,-76.6683,39.1754,M,M,M,290.00,6.00,M,29.67,M,10.00,M,BKN,OVC,M,M,3200.00,4400.00,M,M,M,KBWI 010615Z AUTO 29006KT 10SM BKN032 OVC044 A2967 RMK MADISHF
BWI,2017-04-01 06:20,-76.6683,39.1754,M,M,M,300.00,6.00,M,29.67,M,10.00,M,OVC,M,M,M,3200.00,M,M,M,M,KBWI 010620Z AUTO 30006KT 10SM OVC032 A2967 RMK MADISHF
BWI,2017-04-01 06:25,-76.6683,39.1754,M,M,M,290.00,6.00,M,29.67,M,10.00,M,OVC,M,M,M,3200.00,M,M,M,M,KBWI 010625Z AUTO 29006KT 10SM OVC032 A2967 RMK MADISHF
BWI,2017-04-01 06:30,-76.6683,39.1754,M,M,M,300.00,6.00,M,29.67,M,10.00,M,OVC,M,M,M,3200.00,M,M,M,M,KBWI 010630Z AUTO 30006KT 10SM OVC032 A2967 RMK MADISHF
BWI,2017-04-01 06:35,-76.6683,39.1754,M,M,M,300.00,6.00,M,29.67,M,10.00,M,OVC,M,M,M,3100.00,M,M,M,M,KBWI 010635Z AUTO 30006KT 10SM OVC031 A2967 RMK MADISHF
BWI,2017-04-01 06:40,-76.6683,39.1754,M,M,M,300.00,5.00,M,29.67,M,10.00,M,OVC,M,M,M,3100.00,M,M,M,M,KBWI 010640Z AUTO 30005KT 10SM OVC031 A2967 RMK MADISHF
BWI,2017-04-01 06:45,-76.6683,39.1754,M,M,M,310.00,4.00,M,29.67,M,10.00,M,OVC,M,M,M,3200.00,M,M,M,M,KBWI 010645Z AUTO 31004KT 10SM OVC032 A2967 RMK MADISHF
BWI,2017-04-01 06:50,-76.6683,39.1754,M,M,M,310.00,5.00,M,29.67,M,10.00,M,OVC,M,M,M,3200.00,M,M,M,M,KBWI 010650Z AUTO 31005KT 10SM OVC032 A2967 RMK MADISHF
BWI,2017-04-01 06:54,-76.6683,39.1754,46.00,45.00,96.28,310.00,5.00,0.00,29.67,1004.80,8.00,M,FEW,OVC,M,M,1100.00,3200.00,M,M,M,KBWI 010654Z 31005KT 8SM FEW011 OVC032 08/07 A2967 RMK AO2 SLP048 T00780072
BWI,2017-04-01 06:55,-76.6683,39.1754,M,M,M,310.00,6.00,M,29.67,M,10.00,M,OVC,M,M,M,3200.00,M,M,M,M,KBWI 010655Z AUTO 31006KT 10SM OVC032 A2967 RMK MADISHF
BWI,2017-04-01 07:00,-76.6683,39.1754,M,M,M,310.00,5.00,M,29.67,M,10.00,M,OVC,M,M,M,3200.00,M,M,M,M,KBWI 010700Z AUTO 31005KT 10SM OVC032 A2967 RMK MADISHF
BWI,2017-04-01 07:05,-76.6683,39.1754,M,M,M,320.00,5.00,M,29.68,M,10.00,M,OVC,M,M,M,3399.00,M,M,M,M,KBWI 010705Z AUTO 32005KT 10SM OVC033 A2968 RMK MADISHF
BWI,2017-04-01 07:10,-76.6683,39.1754,M,M,M,330.00,4.00,M,29.68,M,10.00,M,BKN,OVC,M,M,3399.00,7999.00,M,M,M,KBWI 010710Z AUTO 33004KT 10SM BKN033 OVC079 A2968 RMK MADISHF
BWI,2017-04-01 07:15,-76.6683,39.1754,M,M,M,330.00,5.00,M,29.68,M,10.00,M,BKN,BKN,OVC,M,3399.00,4600.00,7999.00,M,M,KBWI 010715Z AUTO 33005KT 10SM BKN033 BKN046 OVC079 A2968 RMK MADISHF
BWI,2017-04-01 07:20,-76.6683,39.1754,M,M,M,320.00,5.00,M,29.68,M,10.00,M,BKN,OVC,M,M,3600.00,4600.00,M,M,M,KBWI 010720Z AUTO 32005KT 10SM BKN036 OVC046 A2968 RMK MADISHF
BWI,2017-04-01 07:25,-76.6683,39.1754,M,M,M,320.00,5.00,M,29.69,M,10.00,M,BKN,OVC,M,M,3800.00,4600.00,M,M,M,KBWI 010725Z AUTO 32005KT 10SM BKN038 OVC046 A2969 RMK MADISHF
BWI,2017-04-01 07:30,-76.6683,39.1754,M,M,M,310.00,4.00,M,29.69,M,10.00,M,BKN,OVC,M,M,3800.00,4600.00,M,M,M,KBWI 010730Z AUTO 31004KT 10SM BKN038 OVC046 A2969 RMK MADISHF
BWI,2017-04-01 07:35,-76.6683,39.1754,M,M,M,310.00,5.00,M,29.69,M,10.00,M,BKN,OVC,M,M,3800.00,4600.00,M,M,M,KBWI 010735Z AUTO 31005KT 10SM BKN038 OVC046 A2969 RMK MADISHF
BWI,2017-04-01 07:40,-76.6683,39.1754,M,M,M,320.00,4.00,M,29.69,M,10.00,M,BKN,OVC,M,M,3800.00,4600.00,M,M,M,KBWI 010740Z AUTO 32004KT 10SM BKN038 OVC046 A2969 RMK MADISHF
BWI,2017-04-01 07:45,-76.6683,39.1754,M,M,M,310.00,5.00,M,29.70,M,10.00,M,OVC,M,M,M,3999.00,M,M,M,M,KBWI 010745Z AUTO 31005KT 10SM OVC039 A2970 RMK MADISHF
BWI,2017-04-01 07:50,-76.6683,39.1754,M,M,M,310.00,6.00,M,29.70,M,10.00,M,OVC,M,M,M,3999.00,M,M,M,M,KBWI 010750Z AUTO 31006KT 10SM OVC039 A2970 RMK MADISHF
BWI,2017-04-01 07:54,-76.6683,39.1754,45.00,44.10,96.63,310.00,5.00,0.00,29.70,1005.70,8.00,M,FEW,BKN,OVC,M,1000.00,4000.00,8000.00,M,M,KBWI 010754Z 31005KT 8SM FEW010 BKN040 OVC080 07/07 A2970 RMK AO2 SLP057 VCSH W-SW T00720067
BWI,2017-04-01 07:55,-76.6683,39.1754,M,M,M,310.00,6.00,M,29.70,M,10.00,M,OVC,M,M,M,3999.00,M,M,M,M,KBWI 010755Z AUTO 31006KT 10SM OVC039 A2970 RMK MADISHF
BWI,2017-04-01 08:00,-76.6683,39.1754,M,M,M,310.00,6.00,M,29.70,M,10.00,M,OVC,M,M,M,3999.00,M,M,M,M,KBWI 010800Z AUTO 31006KT 10SM OVC039 A2970 RMK MADISHF
BWI,2017-04-01 08:05,-76.6683,39.1754,M,M,M,320.00,6.00,M,29.71,M,10.00,M,OVC,M,M,M,4100.00,M,M,M,M,KBWI 010805Z AUTO 32006KT 10SM OVC041 A2971 RMK MADISHF
BWI,2017-04-01 08:10,-76.6683,39.1754,M,M,M,320.00,6.00,M,29.71,M,10.00,M,OVC,M,M,M,4100.00,M,M,M,M,KBWI 010810Z AUTO 32006KT 10SM OVC041 A2971 RMK MADISHF
BWI,2017-04-01 08:15,-76.6683,39.1754,M,M,M,320.00,6.00,M,29.71,M,10.00,M,OVC,M,M,M,4100.00,M,M,M,M,KBWI 010815Z AUTO 32006KT 10SM OVC041 A2971 RMK MADISHF
BWI,2017-04-01 08:20,-76.6683,39.1754,M,M,M,320.00,5.00,M,29.71,M,10.00,M,OVC,M,M,M,4200.00,M,M,M,M,KBWI 010820Z AUTO 32005KT 10SM OVC042 A2971 RMK MADISHF
BWI,2017-04-01 08:25,-76.6683,39.1754,M,M,M,320.00,7.00,M,29.72,M,10.00,M,OVC,M,M,M,4200.00,M,M,M,M,KBWI 010825Z AUTO 32007KT 10SM OVC042 A2972 RMK MADISHF
BWI,2017-04-01 08:30,-76.6683,39.1754,M,M,M,320.00,7.00,M,29.72,M,10.00,M,OVC,M,M,M,4200.00,M,M,M,M,KBWI 010830Z AUTO 32007KT 10SM OVC042 A2972 RMK MADISHF
BWI,2017-04-01 08:35,-76.6683,39.1754,M,M,M,310.00,8.00,M,29.72,M,10.00,M,BKN,OVC,M,M,4200.00,7000.00,M,M,M,KBWI 010835Z AUTO 31008KT 10SM BKN042 OVC070 A2972 RMK MADISHF
BWI,2017-04-01 08:40,-76.6683,39.1754,M,M,M,320.00,6.00,M,29.73,M,10.00,M,BKN,OVC,M,M,4200.00,7000.00,M,M,M,KBWI 010840Z AUTO 32006KT 10SM BKN042 OVC070 A2973 RMK MADISHF
BWI,2017-04-01 08:45,-76.6683,39.1754,M,M,M,320.00,6.00,M,29.73,M,10.00,M,BKN,OVC,M,M,4200.00,7000.00,M,M,M,KBWI 010845Z AUTO 32006KT 10SM BKN042 OVC070 A2973 RMK MADISHF
BWI,2017-04-01 08:50,-76.6683,39.1754,M,M,M,310.00,9.00,M,29.73,M,10.00,M,BKN,OVC,M,M,4400.00,7000.00,M,M,M,KBWI 010850Z AUTO 31009KT 10SM BKN044 OVC070 A2973 RMK MADISHF
BWI,2017-04-01 08:54,-76.6683,39.1754,46.00,43.00,89.20,320.00,9.00,0.00,29.73,1006.80,9.00,M,FEW,BKN,OVC,M,1100.00,4400.00,7000.00,M,M,KBWI 010854Z 32009KT 9SM FEW011 BKN044 OVC070 08/06 A2973 RMK AO2 SLP068 T00780061 53022
BWI,2017-04-01 08:55,-76.6683,39.1754,M,M,M,320.00,8.00,M,29.73,M,10.00,M,FEW,BKN,OVC,M,1400.00,4400.00,7000.00,M,M,KBWI 010855Z AUTO 32008KT 10SM FEW014 BKN044 OVC070 A2973 RMK MADISHF
BWI,2017-04-01 09:00,-76.6683,39.1754,M,M,M,320.00,6.00,M,29.73,M,10.00,M,FEW,BKN,OVC,M,1400.00,4400.00,6500.00,M,M,KBWI 010900Z AUTO 32006KT 10SM FEW014 BKN044 OVC065 A2973 RMK MADISHF
BWI,2017-04-01 09:05,-76.6683,39.1754,M,M,M,340.00,8.00,M,29.73,M,10.00,M,FEW,BKN,OVC,M,1400.00,4500.00,6500.00,M,M,KBWI 010905Z AUTO 34008KT 10SM FEW014 BKN045 OVC065 A2973 RMK MADISHF
BWI,2017-04-01 09:10,-76.6683,39.1754,M,M,M,320.00,8.00,M,29.73,M,10.00,M,FEW,BKN,OVC,M,1400.00,4500.00,6500.00,M,M,KBWI 010910Z AUTO 32008KT 10SM FEW014 BKN045 OVC065 A2973 RMK MADISHF
BWI,2017-04-01 09:15,-76.6683,39.1754,M,M,M,320.00,8.00,M,29.74,M,10.00,M,SCT,BKN,OVC,M,1400.00,4500.00,6500.00,M,M,KBWI 010915Z AUTO 32008KT 10SM SCT014 BKN045 OVC065 A2974 RMK MADISHF
BWI,2017-04-01 09:20,-76.6683,39.1754,M,M,M,310.00,7.00,M,29.74,M,10.00,M,SCT,BKN,OVC,M,1600.00,4600.00,6500.00,M,M,KBWI 010920Z AUTO 31007KT 10SM SCT016 BKN046 OVC065 A2974 RMK MADISHF
BWI,2017-04-01 09:25,-76.6683,39.1754,M,M,M,320.00,8.00,M,29.74,M,10.00,M,SCT,SCT,OVC,M,1600.00,4800.00,6500.00,M,M,KBWI 010925Z AUTO 32008KT 10SM SCT016 SCT048 OVC065 A2974 RMK MADISHF
BWI,2017-04-01 09:30,-76.6683,39.1754,M,M,M,330.00,9.00,M,29.74,M,10.00,M,SCT,OVC,M,M,1600.00,6000.00,M,M,M,KBWI 010930Z AUTO 33009KT 10SM SCT016 OVC060 A2974 RMK MADISHF
BWI,2017-04-01 09:35,-76.6683,39.1754,M,M,M,330.00,7.00,M,29.75,M,10.00,M,FEW,OVC,M,M,1500.00,6000.00,M,M,M,KBWI 010935Z AUTO 33007KT 10SM FEW015 OVC060 A2975 RMK MADISHF
BWI,2017-04-01 09:40,-76.6683,39.1754,M,M,M,310.00,9.00,M,29.75,M,10.00,M,FEW,OVC,M,M,1500.00,6000.00,M,M,M,KBWI 010940Z AUTO 31009KT 10SM FEW015 OVC060 A2975 RMK MADISHF
BWI,2017-04-01 09:45,-76.6683,39.1754,M,M,M,320.00,9.00,M,29.75,M,10.00,M,FEW,OVC,M,M,1500.00,6500.00,M,M,M,KBWI 010945Z AUTO 32009KT 10SM FEW015 OVC065 A2975 RMK MADISHF
BWI,2017-04-01 09:50,-76.6683,39.1754,M,M,M,310.00,8.00,M,29.76,M,10.00,M,SCT,OVC,M,M,1500.00,6000.00,M,M,M,KBWI 010950Z AUTO 31008KT 10SM SCT015 OVC060 A2976 RMK MADISHF
BWI,2017-04-01 09:54,-76.6683,39.1754,45.00,42.10,89.49,320.00,9.00,0.00,29.76,1007.60,10.00,M,SCT,BKN,OVC,M,1500.00,6000.00,9000.00,M,M,KBWI 010954Z 32009KT 10SM SCT015 BKN060 OVC090 07/06 A2976 RMK AO2 SLP076 T00720056
BWI,2017-04-01 09:55,-76.6683,39.1754,M,M,M,320.00,8.00,M,29.76,M,10.00,M,FEW,OVC,M,M,1500.00,6000.00,M,M,M,KBWI 010955Z AUTO 32008KT 10SM FEW015 OVC060 A2976 RMK MADISHF
BWI,2017-04-01 10:00,-76.6683,39.1754,M,M,M,330.00,7.00,M,29.76,M,10.00,M,FEW,OVC,M,M,1500.00,6500.00,M,M,M,KBWI 011000Z AUTO 33007KT 10SM FEW015 OVC065 A2976 RMK MADISHF
BWI,2017-04-01 10:05,-76.6683,39.1754,M,M,M,310.00,8.00,M,29.76,M,10.00,M,FEW,OVC,M,M,1500.00,6500.00,M,M,M,KBWI 011005Z AUTO 31008KT 10SM FEW015 OVC065 A2976 RMK MADISHF
BWI,2017-04-01 10:10,-76.6683,39.1754,M,M,M,310.00,6.00,M,29.77,M,10.00,M,SCT,OVC,M,M,1699.00,6500.00,M,M,M,KBWI 011010Z AUTO 31006KT 10SM SCT016 OVC065 A2977 RMK MADISHF
BWI,2017-04-01 10:15,-76.6683,39.1754,M,M,M,320.00,5.00,M,29.77,M,10.00,M,SCT,OVC,M,M,1699.00,6000.00,M,M,M,KBWI 011015Z AUTO 32005KT 10SM SCT016 OVC060 A2977 RMK MADISHF
BWI,2017-04-01 10:20,-76.6683,39.1754,M,M,M,310.00,5.00,M,29.77,M,10.00,M,FEW,OVC,M,M,1699.00,6000.00,M,M,M,KBWI 011020Z AUTO 31005KT 10SM FEW016 OVC060 A2977 RMK MADISHF
BWI,2017-04-01 10:25,-76.6683,39.1754,M,M,M,320.00,4.00,M,29.77,M,10.00,M,FEW,OVC,M,M,1699.00,6000.00,M,M,M,KBWI 011025Z AUTO 32004KT 10SM FEW016 OVC060 A2977 RMK MADISHF
BWI,2017-04-01 10:30,-76.6683,39.1754,M,M,M,310.00,6.00,M,29.78,M,10.00,M,FEW,OVC,M,M,1699.00,6000.00,M,M,M,KBWI 011030Z AUTO 31006KT 10SM FEW016 OVC060 A2978 RMK MADISHF
BWI,2017-04-01 10:35,-76.6683,39.1754,M,M,M,320.00,6.00,M,29.78,M,10.00,M,FEW,BKN,OVC,M,1699.00,6000.00,7999.00,M,M,KBWI 011035Z AUTO 32006KT 10SM FEW016 BKN060 OVC079 A2978 RMK MADISHF
BWI,2017-04-01 10:40,-76.6683,39.1754,M,M,M,300.00,6.00,M,29.78,M,10.00,M,FEW,BKN,OVC,M,1699.00,6000.00,8500.00,M,M,KBWI 011040Z AUTO 30006KT 10SM FEW016 BKN060 OVC085 A2978 RMK MADISHF
BWI,2017-04-01 10:45,-76.6683,39.1754,M,M,M,320.00,6.00,M,29.78,M,10.00,M,FEW,BKN,OVC,M,1699.00,6000.00,8500.00,M,M,KBWI 011045Z AUTO 32006KT 10SM FEW016 BKN060 OVC085 A2978 RMK MADISHF
BWI,2017-04-01 10:50,-76.6683,39.1754,M,M,M,330.00,5.00,M,29.79,M,10.00,M,FEW,BKN,OVC,M,1699.00,6000.00,8500.00,M,M,KBWI 011050Z AUTO 33005KT 10SM FEW016 BKN060 OVC085 A2979 RMK MADISHF
BWI,2017-04-01 10:54,-76.6683,39.1754,44.10,42.10,92.62,320.00,5.00,0.00,29.79,1008.70,10.00,M,SCT,BKN,BKN,BKN,1700.00,6000.00,8500.00,25000.00,M,KBWI 011054Z 32005KT 10SM SCT017 BKN060 BKN085 BKN250 07/06 A2979 RMK AO2 SLP087 T00670056
BWI,2017-04-01 10:55,-76.6683,39.1754,M,M,M,320.00,5.00,M,29.79,M,10.00,M,FEW,BKN,OVC,M,1699.00,6000.00,8500.00,M,M,KBWI 011055Z AUTO 32005KT 10SM FEW016 BKN060 OVC085 A2979 RMK MADISHF
BWI,2017-04-01 11:00,-76.6683,39.1754,M,M,M,330.00,7.00,M,29.79,M,10.00,M,FEW,BKN,BKN,M,1699.00,6000.00,8500.00,M,M,KBWI 011100Z AUTO 33007KT 10SM FEW016 BKN060 BKN085 A2979 RMK MADISHF
BWI,2017-04-01 11:05,-76.6683,39.1754,M,M,M,310.00,6.00,M,29.79,M,10.00,M,FEW,SCT,BKN,M,1600.00,6000.00,8500.00,M,M,KBWI 011105Z AUTO 31006KT 10SM FEW016 SCT060 BKN085 A2979 RMK MADISHF
BWI,2017-04-01 11:10,-76.6683,39.1754,M,M,M,310.00,6.00,M,29.80,M,10.00,M,FEW,SCT,M,M,1600.00,6000.00,M,M,M,KBWI 011110Z AUTO 31006KT 10SM FEW016 SCT060 A2980 RMK MADISHF
BWI,2017-04-01 11:15,-76.6683,39.1754,M,M,M,310.00,7.00,M,29.80,M,10.00,M,FEW,SCT,M,M,1600.00,6000.00,M,M,M,KBWI 011115Z AUTO 31007KT 10SM FEW016 SCT060 A2980 RMK MADISHF
BWI,2017-04-01 11:20,-76.6683,39.1754,M,M,M,310.00,7.00,M,29.81,M,10.00,M,FEW,M,M,M,6000.00,M,M,M,M,KBWI 011120Z AUTO 31007KT 10SM FEW060 A2981 RMK MADISHF
BWI,2017-04-01 11:25,-76.6683,39.1754,M,M,M,310.00,6.00,M,29.81,M,10.00,M,CLR,M,M,M,M,M,M,M,M,KBWI 011125Z AUTO 31006KT 10SM CLR A2981 RMK MADISHF
BWI,2017-04-01 11:30,-76.6683,39.1754,M,M,M,320.00,7.00,M,29.81,M,10.00,M,CLR,M,M,M,M,M,M,M,M,KBWI 011130Z AUTO 32007KT 10SM CLR A2981 RMK MADISHF
BWI,2017-04-01 11:35,-76.6683,39.1754,M,M,M,320.00,6.00,M,29.81,M,10.00,M,CLR,M,M,M,M,M,M,M,M,KBWI 011135Z AUTO 32006KT 10SM CLR A2981 RMK MADISHF
BWI,2017-04-01 11:40,-76.6683,39.1754,M,M,M,310.00,6.00,M,29.82,M,10.00,M,CLR,M,M,M,M,M,M,M,M,KBWI 011140Z AUTO 31006KT 10SM CLR A2982 RMK MADISHF
BWI,2017-04-01 11:45,-76.6683,39.1754,M,M,M,310.00,5.00,M,29.82,M,10.00,M,FEW,FEW,M,M,5500.00,10000.00,M,M,M,KBWI 011145Z AUTO 31005KT 10SM FEW055 FEW100 A2982 RMK MADISHF
BWI,2017-04-01 11:50,-76.6683,39.1754,M,M,M,310.00,5.00,M,29.83,M,10.00,M,SCT,SCT,M,M,5500.00,10000.00,M,M,M,KBWI 011150Z AUTO 31005KT 10SM SCT055 SCT100 A2983 RMK MADISHF
BWI,2017-04-01 11:54,-76.6683,39.1754,44.10,42.10,92.62,M,6.00,0.00,29.83,1010.00,10.00,M,SCT,BKN,BKN,M,5500.00,10000.00,25000.00,M,M,KBWI 011154Z VRB06KT 10SM SCT055 BKN100 BKN250 07/06 A2983 RMK AO2 SLP100 70119 T00670056 10078 20067 53032
BWI,2017-04-01 11:55,-76.6683,39.1754,M,M,M,310.00,6.00,M,29.83,M,10.00,M,BKN,BKN,M,M,5500.00,10000.00,M,M,M,KBWI 011155Z AUTO 31006KT 10SM BKN055 BKN100 A2983 RMK MADISHF
BWI,2017-04-01 12:00,-76.6683,39.1754,M,M,M,310.00,5.00,M,29.83,M,10.00,M,BKN,BKN,M,M,5000.00,10000.00,M,M,M,KBWI 011200Z AUTO 31005KT 10SM BKN050 BKN100 A2983 RMK MADISHF
BWI,2017-04-01 12:05,-76.6683,39.1754,M,M,M,310.00,7.00,M,29.83,M,10.00,M,BKN,BKN,M,M,5000.00,10000.00,M,M,M,KBWI 011205Z AUTO 31007KT 10SM BKN050 BKN100 A2983 RMK MADISHF
BWI,2017-04-01 12:10,-76.6683,39.1754,M,M,M,310.00,6.00,M,29.83,M,10.00,M,OVC,M,M,M,5000.00,M,M,M,M,KBWI 011210Z AUTO 31006KT 10SM OVC050 A2983 RMK MADISHF
BWI,2017-04-01 12:15,-76.6683,39.1754,M,M,M,310.00,7.00,M,29.83,M,10.00,M,OVC,M,M,M,5000.00,M,M,M,M,KBWI 011215Z AUTO 31007KT 10SM OVC050 A2983 RMK MADISHF
BWI,2017-04-01 12:20,-76.6683,39.1754,M,M,M,310.00,8.00,M,29.84,M,10.00,M,OVC,M,M,M,5000.00,M,M,M,M,KBWI 011220Z AUTO 31008KT 10SM OVC050 A2984 RMK MADISHF
BWI,2017-04-01 12:25,-76.6683,39.1754,M,M,M,310.00,6.00,M,29.84,M,10.00,M,OVC,M,M,M,5000.00,M,M,M,M,KBWI 011225Z AUTO 31006KT 10SM OVC050 A2984 RMK MADISHF
BWI,2017-04-01 12:30,-76.6683,39.1754,M,M,M,310.00,6.00,M,29.84,M,10.00,M,OVC,M,M,M,5000.00,M,M,M,M,KBWI 011230Z AUTO 31006KT 10SM OVC050 A2984 RMK MADISHF
BWI,2017-04-01 12:35,-76.6683,39.1754,M,M,M,310.00,6.00,M,29.84,M,10.00,M,OVC,M,M,M,5000.00,M,M,M,M,KBWI 011235Z AUTO 31006KT 10SM OVC050 A2984 RMK MADISHF
BWI,2017-04-01 12:40,-76.6683,39.1754,M,M,M,330.00,5.00,M,29.84,M,10.00,M,OVC,M,M,M,4800.00,M,M,M,M,KBWI 011240Z AUTO 33005KT 10SM OVC048 A2984 RMK MADISHF
BWI,2017-04-01 12:45,-76.6683,39.1754,M,M,M,310.00,5.00,M,29.84,M,10.00,M,OVC,M,M,M,4800.00,M,M,M,M,KBWI 011245Z AUTO 31005KT 10SM OVC048 A2984 RMK MADISHF
BWI,2017-04-01 12:50,-76.6683,39.1754,M,M,M,320.00,6.00,M,29.84,M,10.00,M,BKN,M,M,M,4900.00,M,M,M,M,KBWI 011250Z AUTO 32006KT 10SM BKN049 A2984 RMK MADISHF
BWI,2017-04-01 12:54,-76.6683,39.1754,46.90,43.00,86.21,310.00,6.00,0.00,29.84,1010.40,10.00,M,BKN,M,M,M,4900.00,M,M,M,M,KBWI 011254Z 31006KT 10SM BKN049 08/06 A2984 RMK AO2 SLP104 T00830061
BWI,2017-04-01 12:55,-76.6683,39.1754,M,M,M,320.00,6.00,M,29.84,M,10.00,M,OVC,M,M,M,4900.00,M,M,M,M,KBWI 011255Z AUTO 32006KT 10SM OVC049 A2984 RMK MADISHF
BWI,2017-04-01 13:00,-76.6683,39.1754,M,M,M,310.00,6.00,M,29.84,M,10.00,M,OVC,M,M,M,4900.00,M,M,M,M,KBWI 011300Z AUTO 31006KT 10SM OVC049 A2984 RMK VRB06KT  MADISHF
BWI,2017-04-01 13:05,-76.6683,39.1754,M,M,M,310.00,6.00,M,29.84,M,10.00,M,BKN,M,M,M,4900.00,M,M,M,M,KBWI 011305Z AUTO 31006KT 10SM BKN049 A2984 RMK MADISHF
BWI,2017-04-01 13:10,-76.6683,39.1754,M,M,M,310.00,6.00,M,29.84,M,10.00,M,FEW,BKN,M,M,3399.00,4900.00,M,M,M,KBWI 011310Z AUTO 31006KT 10SM FEW033 BKN049 A2984 RMK MADISHF
BWI,2017-04-01 13:15,-76.6683,39.1754,M,M,M,310.00,8.00,M,29.84,M,10.00,M,SCT,BKN,M,M,3399.00,4900.00,M,M,M,KBWI 011315Z AUTO 31008KT 10SM SCT033 BKN049 A2984 RMK MADISHF
BWI,2017-04-01 13:20,-76.6683,39.1754,M,M,M,300.00,6.00,M,29.84,M,10.00,M,SCT,BKN,M,M,3399.00,4900.00,M,M,M,KBWI 011320Z AUTO 30006KT 10SM SCT033 BKN049 A2984 RMK MADISHF
BWI,2017-04-01 13:25,-76.6683,39.1754,M,M,M,310.00,10.00,M,29.84,M,10.00,M,SCT,BKN,M,M,3399.00,4900.00,M,M,M,KBWI 011325Z AUTO 31010KT 10SM SCT033 BKN049 A2984 RMK MADISHF
BWI,2017-04-01 13:30,-76.6683,39.1754,M,M,M,310.00,9.00,M,29.84,M,10.00,M,BKN,BKN,M,M,3399.00,5000.00,M,M,M,KBWI 011330Z AUTO 31009KT 10SM BKN033 BKN050 A2984 RMK MADISHF
BWI,2017-04-01 13:35,-76.6683,39.1754,M,M,M,300.00,10.00,M,29.84,M,10.00,M,BKN,OVC,M,M,3399.00,5000.00,M,M,M,KBWI 011335Z AUTO 30010KT 10SM BKN033 OVC050 A2984 RMK MADISHF
BWI,2017-04-01 13:40,-76.6683,39.1754,M,M,M,310.00,7.00,M,29.84,M,10.00,M,OVC,M,M,M,3399.00,M,M,M,M,KBWI 011340Z AUTO 31007KT 10SM OVC033 A2984 RMK MADISHF
BWI,2017-04-01 13:45,-76.6683,39.1754,M,M,M,310.00,8.00,M,29.85,M,10.00,M,OVC,M,M,M,3399.00,M,M,M,M,KBWI 011345Z AUTO 31008KT 10SM OVC033 A2985 RMK MADISHF
BWI,2017-04-01 13:50,-76.6683,39.1754,M,M,M,320.00,10.00,M,29.85,M,10.00,M,BKN,BKN,M,M,3399.00,5000.00,M,M,M,KBWI 011350Z AUTO 32010KT 10SM BKN033 BKN050 A2985 RMK MADISHF
BWI,2017-04-01 13:54,-76.6683,39.1754,50.00,44.10,80.06,310.00,9.00,0.00,29.85,1010.90,10.00,M,BKN,BKN,M,M,3400.00,5000.00,M,M,M,KBWI 011354Z 31009KT 10SM BKN034 BKN050 10/07 A2985 RMK AO2 SLP109 T01000067
BWI,2017-04-01 13:55,-76.6683,39.1754,M,M,M,320.00,11.00,M,29.85,M,10.00,M,OVC,M,M,M,3399.00,M,M,M,M,KBWI 011355Z AUTO 32011KT 10SM OVC033 A2985 RMK MADISHF
BWI,2017-04-01 14:00,-76.6683,39.1754,M,M,M,320.00,8.00,M,29.85,M,10.00,M,OVC,M,M,M,3300.00,M,M,M,M,KBWI 011400Z AUTO 32008KT 10SM OVC033 A2985 RMK MADISHF
BWI,2017-04-01 14:05,-76.6683,39.1754,M,M,M,310.00,6.00,M,29.85,M,10.00,M,OVC,M,M,M,3300.00,M,M,M,M,KBWI 011405Z AUTO 31006KT 10SM OVC033 A2985 RMK MADISHF
BWI,2017-04-01 14:10,-76.6683,39.1754,M,M,M,310.00,8.00,M,29.85,M,10.00,M,OVC,M,M,M,3300.00,M,M,M,M,KBWI 011410Z AUTO 31008KT 10SM OVC033 A2985 RMK MADISHF
BWI,2017-04-01 14:15,-76.6683,39.1754,M,M,M,320.00,8.00,M,29.86,M,10.00,M,OVC,M,M,M,3300.00,M,M,M,M,KBWI 011415Z AUTO 32008KT 10SM OVC033 A2986 RMK MADISHF
BWI,2017-04-01 14:20,-76.6683,39.1754,M,M,M,310.00,11.00,M,29.86,M,10.00,M,OVC,M,M,M,3300.00,M,M,M,M,KBWI 011420Z AUTO 31011KT 10SM OVC033 A2986 RMK MADISHF
BWI,2017-04-01 14:25,-76.6683,39.1754,M,M,M,310.00,10.00,M,29.86,M,10.00,M,FEW,OVC,M,M,2600.00,3300.00,M,M,M,KBWI 011425Z AUTO 31010KT 10SM FEW026 OVC033 A2986 RMK MADISHF
BWI,2017-04-01 14:30,-76.6683,39.1754,M,M,M,M,M,M,29.86,M,10.00,M,FEW,OVC,M,M,2600.00,3300.00,M,M,M,KBWI 011430Z AUTO /////KT 10SM FEW026 OVC033 A2986 RMK MADISHF
BWI,2017-04-01 14:35,-76.6683,39.1754,M,M,M,M,M,M,29.86,M,10.00,M,OVC,M,M,M,3300.00,M,M,M,M,KBWI 011435Z AUTO /////KT 10SM OVC033 A2986 RMK MADISHF
BWI,2017-04-01 14:40,-76.6683,39.1754,M,M,M,M,M,M,29.86,M,10.00,M,OVC,M,M,M,3399.00,M,M,M,M,KBWI 011440Z AUTO /////KT 10SM OVC033 A2986 RMK MADISHF
BWI,2017-04-01 14:45,-76.6683,39.1754,M,M,M,330.00,13.00,M,29.86,M,10.00,M,OVC,M,M,M,3399.00,M,M,M,M,KBWI 011445Z AUTO 33013KT 10SM OVC033 A2986 RMK MADISHF
BWI,2017-04-01 14:50,-76.6683,39.1754,M,M,M,320.00,13.00,M,29.86,M,10.00,M,FEW,BKN,M,M,2700.00,3500.00,M,M,M,KBWI 011450Z AUTO 32013KT 10SM FEW027 BKN035 A2986 RMK MADISHF
BWI,2017-04-01 14:54,-76.6683,39.1754,54.00,44.10,69.09,320.00,14.00,0.00,29.86,1011.30,10.00,20.00,FEW,BKN,M,M,2700.00,3500.00,M,M,M,KBWI 011454Z 32014G20KT 10SM FEW027 BKN035 12/07 A2986 RMK AO2 SLP113 T01220067 51012
BWI,2017-04-01 14:55,-76.6683,39.1754,M,M,M,320.00,14.00,M,29.86,M,10.00,M,OVC,M,M,M,3500.00,M,M,M,M,KBWI 011455Z AUTO 32014KT 10SM OVC035 A2986 RMK MADISHF
BWI,2017-04-01 15:00,-76.6683,39.1754,M,M,M,M,M,M,29.86,M,10.00,M,FEW,OVC,M,M,2700.00,3500.00,M,M,M,KBWI 011500Z AUTO /////KT 10SM FEW027 OVC035 A2986 RMK MADISHF
BWI,2017-04-01 15:05,-76.6683,39.1754,M,M,M,320.00,11.00,M,29.86,M,10.00,M,FEW,OVC,M,M,2700.00,3500.00,M,M,M,KBWI 011505Z AUTO 32011KT 10SM FEW027 OVC035 A2986 RMK MADISHF
BWI,2017-04-01 15:10,-76.6683,39.1754,M,M,M,330.00,11.00,M,29.87,M,10.00,M,SCT,OVC,M,M,2900.00,3500.00,M,M,M,KBWI 011510Z AUTO 33011KT 10SM SCT029 OVC035 A2987 RMK MADISHF
BWI,2017-04-01 15:15,-76.6683,39.1754,M,M,M,310.00,12.00,M,29.87,M,10.00,M,SCT,OVC,M,M,2900.00,3500.00,M,M,M,KBWI 011515Z AUTO 31012KT 10SM SCT029 OVC035 A2987 RMK MADISHF
BWI,2017-04-01 15:20,-76.6683,39.1754,M,M,M,320.00,12.00,M,29.87,M,10.00,17.00,SCT,OVC,M,M,2900.00,3500.00,M,M,M,KBWI 011520Z AUTO 32012G17KT 10SM SCT029 OVC035 A2987 RMK MADISHF
BWI,2017-04-01 15:25,-76.6683,39.1754,M,M,M,320.00,11.00,M,29.87,M,10.00,M,FEW,OVC,M,M,2800.00,3500.00,M,M,M,KBWI 011525Z AUTO 32011KT 10SM FEW028 OVC035 A2987 RMK MADISHF
BWI,2017-04-01 15:30,-76.6683,39.1754,M,M,M,320.00,12.00,M,29.87,M,10.00,M,OVC,M,M,M,3300.00,M,M,M,M,KBWI 011530Z AUTO 32012KT 10SM OVC033 A2987 RMK MADISHF
BWI,2017-04-01 15:35,-76.6683,39.1754,M,M,M,330.00,11.00,M,29.87,M,10.00,M,OVC,M,M,M,3300.00,M,M,M,M,KBWI 011535Z AUTO 33011KT 10SM OVC033 A2987 RMK MADISHF
BWI,2017-04-01 15:40,-76.6683,39.1754,M,M,M,300.00,13.00,M,29.88,M,10.00,M,OVC,M,M,M,3100.00,M,M,M,M,KBWI 011540Z AUTO 30013KT 10SM OVC031 A2988 RMK MADISHF
BWI,2017-04-01 15:45,-76.6683,39.1754,M,M,M,320.00,9.00,M,29.88,M,10.00,M,OVC,M,M,M,3100.00,M,M,M,M,KBWI 011545Z AUTO 32009KT 10SM OVC031 A2988 RMK MADISHF
BWI,2017-04-01 15:50,-76.6683,39.1754,M,M,M,320.00,11.00,M,29.88,M,10.00,M,OVC,M,M,M,3200.00,M,M,M,M,KBWI 011550Z AUTO 32011KT 10SM OVC032 A2988 RMK MADISHF
BWI,2017-04-01 15:54,-76.6683,39.1754,54.00,44.10,69.09,300.00,8.00,0.00,29.88,1011.90,10.00,M,OVC,M,M,M,3000.00,M,M,M,M,KBWI 011554Z 30008KT 10SM OVC030 12/07 A2988 RMK AO2 SLP119 T01220067
BWI,2017-04-01 15:55,-76.6683,39.1754,M,M,M,300.00,8.00,M,29.88,M,10.00,M,OVC,M,M,M,3000.00,M,M,M,M,KBWI 011555Z AUTO 30008KT 10SM OVC030 A2988 RMK MADISHF
BWI,2017-04-01 16:00,-76.6683,39.1754,M,M,M,310.00,13.00,M,29.89,M,10.00,M,OVC,M,M,M,3000.00,M,M,M,M,KBWI 011600Z AUTO 31013KT 10SM OVC030 A2989 RMK MADISHF
BWI,2017-04-01 16:05,-76.6683,39.1754,M,M,M,310.00,8.00,M,29.89,M,10.00,M,OVC,M,M,M,3000.00,M,M,M,M,KBWI 011605Z AUTO 31008KT 10SM OVC030 A2989 RMK MADISHF
BWI,2017-04-01 16:10,-76.6683,39.1754,M,M,M,310.00,12.00,M,29.89,M,10.00,M,OVC,M,M,M,3000.00,M,M,M,M,KBWI 011610Z AUTO 31012KT 10SM OVC030 A2989 RMK MADISHF
BWI,2017-04-01 16:15,-76.6683,39.1754,M,M,M,300.00,13.00,M,29.89,M,10.00,M,OVC,M,M,M,3000.00,M,M,M,M,KBWI 011615Z AUTO 30013KT 10SM OVC030 A2989 RMK MADISHF
BWI,2017-04-01 16:20,-76.6683,39.1754,M,M,M,310.00,13.00,M,29.89,M,10.00,M,OVC,M,M,M,3000.00,M,M,M,M,KBWI 011620Z AUTO 31013KT 10SM OVC030 A2989 RMK MADISHF
BWI,2017-04-01 16:25,-76.6683,39.1754,M,M,M,300.00,10.00,M,29.89,M,10.00,M,OVC,M,M,M,3000.00,M,M,M,M,KBWI 011625Z AUTO 30010KT 10SM OVC030 A2989 RMK MADISHF
BWI,2017-04-01 16:30,-76.6683,39.1754,M,M,M,300.00,12.00,M,29.89,M,10.00,M,OVC,M,M,M,3000.00,M,M,M,M,KBWI 011630Z AUTO 30012KT 10SM OVC030 A2989 RMK MADISHF
BWI,2017-04-01 16:35,-76.6683,39.1754,M,M,M,310.00,14.00,M,29.89,M,10.00,M,OVC,M,M,M,3000.00,M,M,M,M,KBWI 011635Z AUTO 31014KT 10SM OVC030 A2989 RMK MADISHF
BWI,2017-04-01 16:40,-76.6683,39.1754,M,M,M,300.00,13.00,M,29.90,M,10.00,M,OVC,M,M,M,3300.00,M,M,M,M,KBWI 011640Z AUTO 30013KT 10SM OVC033 A2990 RMK MADISHF
BWI,2017-04-01 16:45,-76.6683,39.1754,M,M,M,300.00,14.00,M,29.90,M,10.00,M,BKN,OVC,M,M,3000.00,3600.00,M,M,M,KBWI 011645Z AUTO 30014KT 10SM BKN030 OVC036 A2990 RMK MADISHF
BWI,2017-04-01 16:50,-76.6683,39.1754,M,M,M,300.00,13.00,M,29.89,M,10.00,M,OVC,M,M,M,3200.00,M,M,M,M,KBWI 011650Z AUTO 30013KT 10SM OVC032 A2989 RMK MADISHF
BWI,2017-04-01 16:54,-76.6683,39.1754,54.00,43.00,66.24,310.00,13.00,0.00,29.90,1012.40,10.00,21.00,OVC,M,M,M,3200.00,M,M,M,M,KBWI 011654Z 31013G21KT 10SM OVC032 12/06 A2990 RMK AO2 SLP124 T01220061
BWI,2017-04-01 16:55,-76.6683,39.1754,M,M,M,300.00,12.00,M,29.90,M,10.00,M,OVC,M,M,M,3200.00,M,M,M,M,KBWI 011655Z AUTO 30012KT 10SM OVC032 A2990 RMK MADISHF
BWI,2017-04-01 17:00,-76.6683,39.1754,M,M,M,290.00,16.00,M,29.90,M,10.00,M,OVC,M,M,M,3399.00,M,M,M,M,KBWI 011700Z AUTO 29016KT 10SM OVC033 A2990 RMK MADISHF
BWI,2017-04-01 17:05,-76.6683,39.1754,M,M,M,300.00,13.00,M,29.90,M,10.00,M,OVC,M,M,M,3399.00,M,M,M,M,KBWI 011705Z AUTO 30013KT 10SM OVC033 A2990 RMK MADISHF
BWI,2017-04-01 17:10,-76.6683,39.1754,M,M,M,300.00,13.00,M,29.89,M,10.00,M,OVC,M,M,M,3399.00,M,M,M,M,KBWI 011710Z AUTO 30013KT 10SM OVC033 A2989 RMK MADISHF
BWI,2017-04-01 17:15,-76.6683,39.1754,M,M,M,M,M,M,29.90,M,10.00,M,OVC,M,M,M,3399.00,M,M,M,M,KBWI 011715Z AUTO /////KT 10SM OVC033 A2990 RMK MADISHF
BWI,2017-04-01 17:20,-76.6683,39.1754,M,M,M,290.00,15.00,M,29.90,M,10.00,M,OVC,M,M,M,3399.00,M,M,M,M,KBWI 011720Z AUTO 29015KT 10SM OVC033 A2990 RMK MADISHF
BWI,2017-04-01 17:25,-76.6683,39.1754,M,M,M,M,M,M,29.90,M,10.00,M,OVC,M,M,M,3399.00,M,M,M,M,KBWI 011725Z AUTO /////KT 10SM OVC033 A2990 RMK MADISHF
BWI,2017-04-01 17:30,-76.6683,39.1754,M,M,M,280.00,15.00,M,29.90,M,10.00,M,OVC,M,M,M,3399.00,M,M,M,M,KBWI 011730Z AUTO 28015KT 10SM OVC033 A2990 RMK MADISHF
BWI,2017-04-01 17:35,-76.6683,39.1754,M,M,M,290.00,11.00,M,29.91,M,10.00,M,OVC,M,M,M,3399.00,M,M,M,M,KBWI 011735Z AUTO 29011KT 10SM OVC033 A2991 RMK MADISHF
BWI,2017-04-01 17:40,-76.6683,39.1754,M,M,M,M,M,M,29.91,M,10.00,M,OVC,M,M,M,3399.00,M,M,M,M,KBWI 011740Z AUTO /////KT 10SM OVC033 A2991 RMK MADISHF
BWI,2017-04-01 17:45,-76.6683,39.1754,M,M,M,290.00,15.00,M,29.91,M,10.00,M,OVC,M,M,M,3399.00,M,M,M,M,KBWI 011745Z AUTO 29015KT 10SM OVC033 A2991 RMK MADISHF
BWI,2017-04-01 17:50,-76.6683,39.1754,M,M,M,300.00,14.00,M,29.91,M,10.00,M,OVC,M,M,M,3399.00,M,M,M,M,KBWI 011750Z AUTO 30014KT 10SM OVC033 A2991 RMK MADISHF
BWI,2017-04-01 17:54,-76.6683,39.1754,54.00,42.10,63.98,310.00,15.00,0.00,29.91,1012.90,10.00,M,OVC,M,M,M,3300.00,M,M,M,M,KBWI 011754Z 31015KT 10SM OVC033 12/06 A2991 RMK AO2 SLP129 T01220056 10133 20067 51016
BWI,2017-04-01 17:55,-76.6683,39.1754,M,M,M,300.00,12.00,M,29.91,M,10.00,M,OVC,M,M,M,3300.00,M,M,M,M,KBWI 011755Z AUTO 30012KT 10SM OVC033 A2991 RMK MADISHF
BWI,2017-04-01 18:00,-76.6683,39.1754,M,M,M,310.00,15.00,M,29.91,M,10.00,M,OVC,M,M,M,3300.00,M,M,M,M,KBWI 011800Z AUTO 31015KT 10SM OVC033 A2991 RMK MADISHF
BWI,2017-04-01 18:05,-76.6683,39.1754,M,M,M,300.00,15.00,M,29.91,M,10.00,M,OVC,M,M,M,3300.00,M,M,M,M,KBWI 011805Z AUTO 30015KT 10SM OVC033 A2991 RMK MADISHF
BWI,2017-04-01 18:10,-76.6683,39.1754,M,M,M,290.00,16.00,M,29.91,M,10.00,M,OVC,M,M,M,3500.00,M,M,M,M,KBWI 011810Z AUTO 29016KT 10SM OVC035 A2991 RMK MADISHF
BWI,2017-04-01 18:15,-76.6683,39.1754,M,M,M,320.00,10.00,M,29.91,M,10.00,M,OVC,M,M,M,3500.00,M,M,M,M,KBWI 011815Z AUTO 32010KT 10SM OVC035 A2991 RMK MADISHF
BWI,2017-04-01 18:20,-76.6683,39.1754,M,M,M,280.00,10.00,M,29.91,M,10.00,M,OVC,M,M,M,3500.00,M,M,M,M,KBWI 011820Z AUTO 28010KT 10SM OVC035 A2991 RMK MADISHF
BWI,2017-04-01 18:25,-76.6683,39.1754,M,M,M,300.00,14.00,M,29.91,M,10.00,M,OVC,M,M,M,3500.00,M,M,M,M,KBWI 011825Z AUTO 30014KT 10SM OVC035 A2991 RMK MADISHF
BWI,2017-04-01 18:30,-76.6683,39.1754,M,M,M,290.00,14.00,M,29.91,M,10.00,M,OVC,M,M,M,3500.00,M,M,M,M,KBWI 011830Z AUTO 29014KT 10SM OVC035 A2991 RMK MADISHF
BWI,2017-04-01 18:35,-76.6683,39.1754,M,M,M,M,M,M,29.91,M,10.00,M,OVC,M,M,M,3600.00,M,M,M,M,KBWI 011835Z AUTO /////KT 10SM OVC036 A2991 RMK MADISHF
BWI,2017-04-01 18:40,-76.6683,39.1754,M,M,M,310.00,14.00,M,29.91,M,10.00,M,OVC,M,M,M,3600.00,M,M,M,M,KBWI 011840Z AUTO 31014KT 10SM OVC036 A2991 RMK MADISHF
BWI,2017-04-01 18:45,-76.6683,39.1754,M,M,M,320.00,12.00,M,29.91,M,10.00,M,BKN,M,M,M,3600.00,M,M,M,M,KBWI 011845Z AUTO 32012KT 10SM BKN036 A2991 RMK MADISHF
BWI,2017-04-01 18:50,-76.6683,39.1754,M,M,M,310.00,13.00,M,29.91,M,10.00,M,BKN,M,M,M,3600.00,M,M,M,M,KBWI 011850Z AUTO 31013KT 10SM BKN036 A2991 RMK MADISHF
BWI,2017-04-01 18:54,-76.6683,39.1754,55.00,42.10,61.69,300.00,15.00,0.00,29.91,1013.00,10.00,21.00,BKN,M,M,M,3600.00,M,M,M,M,KBWI 011854Z 30015G21KT 10SM BKN036 13/06 A2991 RMK AO2 SLP130 T01280056
BWI,2017-04-01 18:55,-76.6683,39.1754,M,M,M,290.00,15.00,M,29.91,M,10.00,M,OVC,M,M,M,3600.00,M,M,M,M,KBWI 011855Z AUTO 29015KT 10SM OVC036 A2991 RMK MADISHF
BWI,2017-04-01 19:00,-76.6683,39.1754,M,M,M,300.00,17.00,M,29.92,M,10.00,M,OVC,M,M,M,3600.00,M,M,M,M,KBWI 011900Z AUTO 30017KT 10SM OVC036 A2992 RMK MADISHF
BWI,2017-04-01 19:05,-76.6683,39.1754,M,M,M,M,M,M,29.92,M,10.00,M,OVC,M,M,M,3600.00,M,M,M,M,KBWI 011905Z AUTO /////KT 10SM OVC036 A2992 RMK MADISHF
BWI,2017-04-01 19:10,-76.6683,39.1754,M,M,M,M,M,M,29.92,M,10.00,M,BKN,M,M,M,3800.00,M,M,M,M,KBWI 011910Z AUTO /////KT 10SM BKN038 A2992 RMK MADISHF
BWI,2017-04-01 19:15,-76.6683,39.1754,M,M,M,310.00,16.00,M,29.92,M,10.00,M,BKN,M,M,M,3800.00,M,M,M,M,KBWI 011915Z AUTO 31016KT 10SM BKN038 A2992 RMK MADISHF
BWI,2017-04-01 19:20,-76.6683,39.1754,M,M,M,M,M,M,29.92,M,10.00,M,BKN,M,M,M,3800.00,M,M,M,M,KBWI 011920Z AUTO /////KT 10SM BKN038 A2992 RMK MADISHF
BWI,2017-04-01 19:25,-76.6683,39.1754,M,M,M,M,M,M,29.92,M,10.00,M,BKN,M,M,M,3800.00,M,M,M,M,KBWI 011925Z AUTO /////KT 10SM BKN038 A2992 RMK MADISHF
BWI,2017-04-01 19:30,-76.6683,39.1754,M,M,M,300.00,15.00,M,29.92,M,10.00,M,BKN,M,M,M,3800.00,M,M,M,M,KBWI 011930Z AUTO 30015KT 10SM BKN038 A2992 RMK MADISHF
BWI,2017-04-01 19:35,-76.6683,39.1754,M,M,M,310.00,15.00,M,29.92,M,10.00,M,BKN,M,M,M,3800.00,M,M,M,M,KBWI 011935Z AUTO 31015KT 10SM BKN038 A2992 RMK MADISHF
BWI,2017-04-01 19:40,-76.6683,39.1754,M,M,M,M,M,M,29.92,M,10.00,M,OVC,M,M,M,3800.00,M,M,M,M,KBWI 011940Z AUTO /////KT 10SM OVC038 A2992 RMK MADISHF
BWI,2017-04-01 19:45,-76.6683,39.1754,M,M,M,320.00,15.00,M,29.92,M,10.00,M,OVC,M,M,M,3999.00,M,M,M,M,KBWI 011945Z AUTO 32015KT 10SM OVC039 A2992 RMK MADISHF
BWI,2017-04-01 19:50,-76.6683,39.1754,M,M,M,310.00,19.00,M,29.93,M,10.00,M,OVC,M,M,M,3999.00,M,M,M,M,KBWI 011950Z AUTO 31019KT 10SM OVC039 A2993 RMK MADISHF
BWI,2017-04-01 19:54,-76.6683,39.1754,55.00,39.90,56.66,310.00,15.00,0.00,29.92,1013.30,10.00,25.00,BKN,M,M,M,4000.00,M,M,M,M,KBWI 011954Z 31015G25KT 10SM BKN040 13/04 A2992 RMK AO2 PK WND 31026/1906 SLP133 T01280044
BWI,2017-04-01 19:55,-76.6683,39.1754,M,M,M,310.00,15.00,M,29.92,M,10.00,M,OVC,M,M,M,3999.00,M,M,M,M,KBWI 011955Z AUTO 31015KT 10SM OVC039 A2992 RMK MADISHF
BWI,2017-04-01 20:00,-76.6683,39.1754,M,M,M,300.00,12.00,M,29.93,M,10.00,M,OVC,M,M,M,3999.00,M,M,M,M,KBWI 012000Z AUTO 30012KT 10SM OVC039 A2993 RMK MADISHF
BWI,2017-04-01 20:05,-76.6683,39.1754,M,M,M,320.00,13.00,M,29.93,M,10.00,M,OVC,M,M,M,3999.00,M,M,M,M,KBWI 012005Z AUTO 32013KT 10SM OVC039 A2993 RMK MADISHF
BWI,2017-04-01 20:10,-76.6683,39.1754,M,M,M,310.00,11.00,M,29.94,M,10.00,M,OVC,M,M,M,4100.00,M,M,M,M,KBWI 012010Z AUTO 31011KT 10SM OVC041 A2994 RMK MADISHF
BWI,2017-04-01 20:15,-76.6683,39.1754,M,M,M,320.00,14.00,M,29.94,M,10.00,20.00,OVC,M,M,M,4100.00,M,M,M,M,KBWI 012015Z AUTO 32014G20KT 10SM OVC041 A2994 RMK MADISHF
BWI,2017-04-01 20:20,-76.6683,39.1754,M,M,M,M,M,M,29.94,M,10.00,M,OVC,M,M,M,4100.00,M,M,M,M,KBWI 012020Z AUTO /////KT 10SM OVC041 A2994 RMK MADISHF
BWI,2017-04-01 20:25,-76.6683,39.1754,M,M,M,310.00,15.00,M,29.94,M,10.00,M,OVC,M,M,M,4100.00,M,M,M,M,KBWI 012025Z AUTO 31015KT 10SM OVC041 A2994 RMK MADISHF
BWI,2017-04-01 20:30,-76.6683,39.1754,M,M,M,300.00,12.00,M,29.94,M,10.00,M,OVC,M,M,M,4100.00,M,M,M,M,KBWI 012030Z AUTO 30012KT 10SM OVC041 A2994 RMK MADISHF
BWI,2017-04-01 20:35,-76.6683,39.1754,M,M,M,M,M,M,29.94,M,10.00,M,OVC,M,M,M,4100.00,M,M,M,M,KBWI 012035Z AUTO /////KT 10SM OVC041 A2994 RMK MADISHF
BWI,2017-04-01 20:40,-76.6683,39.1754,M,M,M,310.00,14.00,M,29.95,M,10.00,M,OVC,M,M,M,4100.00,M,M,M,M,KBWI 012040Z AUTO 31014KT 10SM OVC041 A2995 RMK MADISHF
BWI,2017-04-01 20:45,-76.6683,39.1754,M,M,M,310.00,14.00,M,29.95,M,10.00,19.00,OVC,M,M,M,4100.00,M,M,M,M,KBWI 012045Z AUTO 31014G19KT 10SM OVC041 A2995 RMK MADISHF
BWI,2017-04-01 20:50,-76.6683,39.1754,M,M,M,310.00,15.00,M,29.95,M,10.00,M,OVC,M,M,M,4100.00,M,M,M,M,KBWI 012050Z AUTO 31015KT 10SM OVC041 A2995 RMK MADISHF
BWI,2017-04-01 20:54,-76.6683,39.1754,55.00,39.90,56.66,310.00,16.00,0.00,29.95,1014.20,10.00,M,BKN,M,M,M,4100.00,M,M,M,M,KBWI 012054Z 31016KT 10SM BKN041 13/04 A2995 RMK AO2 SLP142 T01280044 53013
BWI,2017-04-01 20:55,-76.6683,39.1754,M,M,M,300.00,15.00,M,29.95,M,10.00,M,OVC,M,M,M,4100.00,M,M,M,M,KBWI 012055Z AUTO 30015KT 10SM OVC041 A2995 RMK MADISHF
BWI,2017-04-01 21:00,-76.6683,39.1754,M,M,M,320.00,12.00,M,29.95,M,10.00,M,OVC,M,M,M,4100.00,M,M,M,M,KBWI 012100Z AUTO 32012KT 10SM OVC041 A2995 RMK MADISHF
BWI,2017-04-01 21:05,-76.6683,39.1754,M,M,M,310.00,14.00,M,29.96,M,10.00,M,OVC,M,M,M,4100.00,M,M,M,M,KBWI 012105Z AUTO 31014KT 10SM OVC041 A2996 RMK MADISHF
BWI,2017-04-01 21:10,-76.6683,39.1754,M,M,M,330.00,10.00,M,29.96,M,10.00,M,OVC,M,M,M,4100.00,M,M,M,M,KBWI 012110Z AUTO 33010KT 10SM OVC041 A2996 RMK MADISHF
BWI,2017-04-01 21:15,-76.6683,39.1754,M,M,M,320.00,11.00,M,29.96,M,10.00,16.00,OVC,M,M,M,4100.00,M,M,M,M,KBWI 012115Z AUTO 32011G16KT 10SM OVC041 A2996 RMK MADISHF
BWI,2017-04-01 21:20,-76.6683,39.1754,M,M,M,M,M,M,29.96,M,10.00,M,OVC,M,M,M,4300.00,M,M,M,M,KBWI 012120Z AUTO /////KT 10SM OVC043 A2996 RMK MADISHF
BWI,2017-04-01 21:25,-76.6683,39.1754,M,M,M,M,M,M,29.97,M,10.00,M,OVC,M,M,M,4300.00,M,M,M,M,KBWI 012125Z AUTO /////KT 10SM OVC043 A2997 RMK MADISHF
BWI,2017-04-01 21:30,-76.6683,39.1754,M,M,M,310.00,12.00,M,29.97,M,10.00,M,OVC,M,M,M,4300.00,M,M,M,M,KBWI 012130Z AUTO 31012KT 10SM OVC043 A2997 RMK MADISHF
BWI,2017-04-01 21:35,-76.6683,39.1754,M,M,M,320.00,13.00,M,29.97,M,10.00,M,OVC,M,M,M,4300.00,M,M,M,M,KBWI 012135Z AUTO 32013KT 10SM OVC043 A2997 RMK MADISHF
BWI,2017-04-01 21:40,-76.6683,39.1754,M,M,M,320.00,9.00,M,29.98,M,10.00,14.00,OVC,M,M,M,4300.00,M,M,M,M,KBWI 012140Z AUTO 32009G14KT 10SM OVC043 A2998 RMK MADISHF
BWI,2017-04-01 21:45,-76.6683,39.1754,M,M,M,320.00,11.00,M,29.98,M,10.00,M,OVC,M,M,M,4300.00,M,M,M,M,KBWI 012145Z AUTO 32011KT 10SM OVC043 A2998 RMK MADISHF
BWI,2017-04-01 21:50,-76.6683,39.1754,M,M,M,310.00,14.00,M,29.98,M,10.00,M,OVC,M,M,M,4300.00,M,M,M,M,KBWI 012150Z AUTO 31014KT 10SM OVC043 A2998 RMK MADISHF
BWI,2017-04-01 21:54,-76.6683,39.1754,53.10,39.00,58.64,310.00,13.00,0.00,29.98,1015.30,10.00,24.00,OVC,M,M,M,4300.00,M,M,M,M,KBWI 012154Z 31013G24KT 10SM OVC043 12/04 A2998 RMK AO2 SLP153 T01170039
BWI,2017-04-01 21:55,-76.6683,39.1754,M,M,M,320.00,11.00,M,29.98,M,10.00,M,OVC,M,M,M,4300.00,M,M,M,M,KBWI 012155Z AUTO 32011KT 10SM OVC043 A2998 RMK MADISHF
BWI,2017-04-01 22:00,-76.6683,39.1754,M,M,M,310.00,11.00,M,29.98,M,10.00,16.00,OVC,M,M,M,4300.00,M,M,M,M,KBWI 012200Z AUTO 31011G16KT 10SM OVC043 A2998 RMK MADISHF
BWI,2017-04-01 22:05,-76.6683,39.1754,M,M,M,320.00,7.00,M,29.99,M,10.00,M,OVC,M,M,M,4300.00,M,M,M,M,KBWI 012205Z AUTO 32007KT 10SM OVC043 A2999 RMK WND 27V01  MADISHF
BWI,2017-04-01 22:10,-76.6683,39.1754,M,M,M,320.00,9.00,M,29.99,M,10.00,M,OVC,M,M,M,4300.00,M,M,M,M,KBWI 012210Z AUTO 32009KT 10SM OVC043 A2999 RMK MADISHF
BWI,2017-04-01 22:15,-76.6683,39.1754,M,M,M,330.00,12.00,M,29.99,M,10.00,M,OVC,M,M,M,4300.00,M,M,M,M,KBWI 012215Z AUTO 33012KT 10SM OVC043 A2999 RMK MADISHF
BWI,2017-04-01 22:20,-76.6683,39.1754,M,M,M,320.00,9.00,M,30.00,M,10.00,M,OVC,M,M,M,4100.00,M,M,M,M,KBWI 012220Z AUTO 32009KT 10SM OVC041 A3000 RMK MADISHF
BWI,2017-04-01 22:25,-76.6683,39.1754,M,M,M,310.00,9.00,M,30.00,M,10.00,M,OVC,M,M,M,3900.00,M,M,M,M,KBWI 012225Z AUTO 31009KT 10SM OVC039 A3000 RMK MADISHF
BWI,2017-04-01 22:30,-76.6683,39.1754,M,M,M,330.00,13.00,M,30.01,M,10.00,M,BKN,OVC,M,M,3700.00,4400.00,M,M,M,KBWI 012230Z AUTO 33013KT 10SM BKN037 OVC044 A3001 RMK MADISHF
BWI,2017-04-01 22:35,-76.6683,39.1754,M,M,M,330.00,9.00,M,30.01,M,10.00,M,OVC,M,M,M,3900.00,M,M,M,M,KBWI 012235Z AUTO 33009KT 10SM OVC039 A3001 RMK MADISHF
BWI,2017-04-01 22:40,-76.6683,39.1754,M,M,M,310.00,13.00,M,30.01,M,10.00,20.00,OVC,M,M,M,3700.00,M,M,M,M,KBWI 012240Z AUTO 31013G20KT 10SM OVC037 A3001 RMK MADISHF
BWI,2017-04-01 22:45,-76.6683,39.1754,M,M,M,300.00,13.00,M,30.02,M,10.00,M,BKN,OVC,M,M,3700.00,4400.00,M,M,M,KBWI 012245Z AUTO 30013KT 10SM BKN037 OVC044 A3002 RMK MADISHF
BWI,2017-04-01 22:50,-76.6683,39.1754,M,M,M,310.00,11.00,M,30.02,M,10.00,M,OVC,M,M,M,3900.00,M,M,M,M,KBWI 012250Z AUTO 31011KT 10SM OVC039 A3002 RMK MADISHF
BWI,2017-04-01 22:54,-76.6683,39.1754,52.00,37.90,58.48,320.00,10.00,0.00,30.03,1016.80,10.00,M,OVC,M,M,M,3900.00,M,M,M,M,KBWI 012254Z 32010KT 10SM OVC039 11/03 A3003 RMK AO2 SLP168 T01110033
BWI,2017-04-01 22:55,-76.6683,39.1754,M,M,M,320.00,11.00,M,30.03,M,10.00,M,OVC,M,M,M,4100.00,M,M,M,M,KBWI 012255Z AUTO 32011KT 10SM OVC041 A3003 RMK MADISHF
BWI,2017-04-01 23:00,-76.6683,39.1754,M,M,M,320.00,12.00,M,30.03,M,10.00,M,OVC,M,M,M,4100.00,M,M,M,M,KBWI 012300Z AUTO 32012KT 10SM OVC041 A3003 RMK MADISHF
BWI,2017-04-01 23:05,-76.6683,39.1754,M,M,M,310.00,7.00,M,30.03,M,10.00,M,OVC,M,M,M,4100.00,M,M,M,M,KBWI 012305Z AUTO 31007KT 10SM OVC041 A3003 RMK MADISHF
BWI,2017-04-01 23:10,-76.6683,39.1754,M,M,M,310.00,9.00,M,30.04,M,10.00,M,OVC,M,M,M,4100.00,M,M,M,M,KBWI 012310Z AUTO 31009KT 10SM OVC041 A3004 RMK MADISHF
BWI,2017-04-01 23:15,-76.6683,39.1754,M,M,M,310.00,14.00,M,30.04,M,10.00,M,OVC,M,M,M,4100.00,M,M,M,M,KBWI 012315Z AUTO 31014KT 10SM OVC041 A3004 RMK MADISHF
BWI,2017-04-01 23:20,-76.6683,39.1754,M,M,M,320.00,11.00,M,30.04,M,10.00,M,OVC,M,M,M,4100.00,M,M,M,M,KBWI 012320Z AUTO 32011KT 10SM OVC041 A3004 RMK MADISHF
BWI,2017-04-01 23:25,-76.6683,39.1754,M,M,M,300.00,13.00,M,30.05,M,10.00,M,OVC,M,M,M,4100.00,M,M,M,M,KBWI 012325Z AUTO 30013KT 10SM OVC041 A3005 RMK MADISHF
BWI,2017-04-01 23:30,-76.6683,39.1754,M,M,M,310.00,10.00,M,30.05,M,10.00,M,OVC,M,M,M,4200.00,M,M,M,M,KBWI 012330Z AUTO 31010KT 10SM OVC042 A3005 RMK MADISHF
BWI,2017-04-01 23:35,-76.6683,39.1754,M,M,M,310.00,9.00,M,30.05,M,10.00,M,OVC,M,M,M,4200.00,M,M,M,M,KBWI 012335Z AUTO 31009KT 10SM OVC042 A3005 RMK MADISHF
BWI,2017-04-01 23:40,-76.6683,39.1754,M,M,M,310.00,11.00,M,30.06,M,10.00,M,OVC,M,M,M,4200.00,M,M,M,M,KBWI 012340Z AUTO 31011KT 10SM OVC042 A3006 RMK MADISHF
BWI,2017-04-01 23:45,-76.6683,39.1754,M,M,M,310.00,8.00,M,30.05,M,10.00,M,OVC,M,M,M,4200.00,M,M,M,M,KBWI 012345Z AUTO 31008KT 10SM OVC042 A3005 RMK MADISHF
BWI,2017-04-01 23:50,-76.6683,39.1754,M,M,M,300.00,11.00,M,30.06,M,10.00,M,OVC,M,M,M,3999.00,M,M,M,M,KBWI 012350Z AUTO 30011KT 10SM OVC039 A3006 RMK MADISHF
BWI,2017-04-01 23:54,-76.6683,39.1754,51.10,37.90,60.46,310.00,11.00,0.00,30.06,1018.00,10.00,15.00,OVC,M,M,M,4000.00,M,M,M,M,KBWI 012354Z 31011G15KT 10SM OVC040 11/03 A3006 RMK AO2 SLP180 T01060033 10144 20106 53038
BWI,2017-04-01 23:55,-76.6683,39.1754,M,M,M,310.00,11.00,M,30.06,M,10.00,M,OVC,M,M,M,3999.00,M,M,M,M,KBWI 012355Z AUTO 31011KT 10SM OVC039 A3006 RMK WND 28V35  MADISHF
