#DEBUG: Format Typ    -> comma
#DEBUG: Time Period   -> 2017-04-01 00:00:00+00:00 2017-04-02 00:00:00+00:00
#DEBUG: Time Zone     -> Etc/UTC
#DEBUG: Data Contact   -> daryl herzmann akrherz@iastate.edu 515-294-5978
#DEBUG: Entries Found -> -1
station,valid,lon,lat,tmpf, dwpf, relh, drct, sknt, p01i, alti, mslp, vsby, gust, skyc1, skyc2, skyc3, skyc4, skyl1, skyl2, skyl3, skyl4, presentwx, metar
BXA,2017-04-01 00:15,-89.8650,30.8137,74.80,61.70,63.72,0.00,0.00,0.00,29.89,M,10.00,M,CLR,M,M,M,M,M,M,M,M,KBXA 010015Z AUTO 00000KT 10SM CLR 24/17 A2989 RMK AO2 T02380165
BXA,2017-04-01 00:35,-89.8650,30.8137,71.60,61.50,70.48,0.00,0.00,0.00,29.90,M,10.00,M,CLR,M,M,M,M,M,M,M,M,KBXA 010035Z AUTO 00000KT 10SM CLR 22/16 A2990 RMK AO2 T02200164
BXA,2017-04-01 00:55,-89.8650,30.8137,71.40,60.80,69.22,0.00,0.00,0.00,29.90,M,10.00,M,CLR,M,M,M,M,M,M,M,M,KBXA 010055Z AUTO 00000KT 10SM CLR 22/16 A2990 RMK AO2 T02190160
BXA,2017-04-01 01:15,-89.8650,30.8137,67.80,61.30,79.69,0.00,0.00,0.00,29.91,M,10.00,M,CLR,M,M,M,M,M,M,M,M,KBXA 010115Z AUTO 00000KT 10SM CLR 20/16 A2991 RMK AO2 T01990163
BXA,2017-04-01 01:35,-89.8650,30.8137,67.50,61.70,81.66,0.00,0.00,0.00,29.91,M,10.00,M,CLR,M,M,M,M,M,M,M,M,KBXA 010135Z AUTO 00000KT 10SM CLR 20/17 A2991 RMK AO2 T01970165
BXA,2017-04-01 01:55,-89.8650,30.8137,67.10,61.50,82.21,0.00,0.00,0.00,29.92,M,10.00,M,CLR,M,M,M,M,M,M,M,M,KBXA 010155Z AUTO 00000KT 10SM CLR 20/16 A2992 RMK AO2 T01950164
BXA,2017-04-01 02:15,-89.8650,30.8137,64.80,60.40,85.64,0.00,0.00,0.00,29.93,M,10.00,M,CLR,M,M,M,M,M,M,M,M,KBXA 010215Z AUTO 00000KT 10SM CLR 18/16 A2993 RMK AO2 T01820158
BXA,2017-04-01 02:35,-89.8650,30.8137,63.90,59.90,86.82,0.00,0.00,0.00,29.94,M,10.00,M,CLR,M,M,M,M,M,M,M,M,KBXA 010235Z AUTO 00000KT 10SM CLR 18/16 A2994 RMK AO2 T01770155
BXA,2017-04-01 02:55,-89.8650,30.8137,63.90,59.70,86.20,0.00,0.00,0.00,29.94,M,10.00,M,CLR,M,M,M,M,M,M,M,M,KBXA 010255Z AUTO 00000KT 10SM CLR 18/15 A2994 RMK AO2 T01770154
BXA,2017-04-01 03:15,-89.8650,30.8137,63.10,59.20,87.09,0.00,0.00,0.00,29.95,M,10.00,M,CLR,M,M,M,M,M,M,M,M,KBXA 010315Z AUTO 00000KT 10SM CLR 17/15 A2995 RMK AO2 T01730151
BXA,2017-04-01 03:35,-89.8650,30.8137,62.10,58.60,88.30,0.00,0.00,0.00,29.95,M,10.00,M,CLR,M,M,M,M,M,M,M,M,KBXA 010335Z AUTO 00000KT 10SM CLR 17/15 A2995 RMK AO2 T01670148
BXA,2017-04-01 03:55,-89.8650,30.8137,61.70,58.30,88.59,0.00,0.00,0.00,29.95,M,10.00,M,CLR,M,M,M,M,M,M,M,M,KBXA 010355Z AUTO 00000KT 10SM CLR 17/15 A2995 RMK AO2 T01650146
BXA,2017-04-01 04:15,-89.8650,30.8137,61.70,58.10,87.96,0.00,0.00,0.00,29.95,M,10.00,M,CLR,M,M,M,M,M,M,M,M,KBXA 010415Z AUTO 00000KT 10SM CLR 17/15 A2995 RMK AO2 T01650145
BXA,2017-04-01 04:35,-89.8650,30.8137,60.60,57.40,89.18,0.00,0.00,0.00,29.96,M,10.00,M,CLR,M,M,M,M,M,M,M,M,KBXA 010435Z AUTO 00000KT 10SM CLR 16/14 A2996 RMK AO2 T01590141
BXA,2017-04-01 04:55,-89.8650,30.8137,60.60,57.60,89.83,0.00,0.00,0.00,29.95,M,10.00,M,CLR,M,M,M,M,M,M,M,M,KBXA 010455Z AUTO 00000KT 10SM CLR 16/14 A2995 RMK AO2 T01590142
BXA,2017-04-01 05:15,-89.8650,30.8137,60.30,57.20,89.49,0.00,0.00,0.00,29.95,M,10.00,M,CLR,M,M,M,M,M,M,M,M,KBXA 010515Z AUTO 00000KT 10SM CLR 16/14 A2995 RMK AO2 T01570140
BXA,2017-04-01 05:35,-89.8650,30.8137,59.70,56.70,89.79,0.00,0.00,0.00,29.96,M,10.00,M,CLR,M,M,M,M,M,M,M,M,KBXA 010535Z AUTO 00000KT 10SM CLR 15/14 A2996 RMK AO2 T01540137
BXA,2017-04-01 05:55,-89.8650,30.8137,59.40,56.50,90.10,0.00,0.00,0.00,29.96,M,10.00,M,CLR,M,M,M,M,M,M,M,M,KBXA 010555Z AUTO 00000KT 10SM CLR 15/14 A2996 RMK AO2 T01520136 10259 20151 402850118
BXA,2017-04-01 06:15,-89.8650,30.8137,59.00,56.10,90.09,0.00,0.00,0.00,29.96,M,10.00,M,CLR,M,M,M,M,M,M,M,M,KBXA 010615Z AUTO 00000KT 10SM CLR 15/13 A2996 RMK AO2 T01500134
BXA,2017-04-01 06:35,-89.8650,30.8137,58.30,55.40,90.06,0.00,0.00,0.00,29.97,M,10.00,M,CLR,M,M,M,M,M,M,M,M,KBXA 010635Z AUTO 00000KT 10SM CLR 15/13 A2997 RMK AO2 T01460130
BXA,2017-04-01 06:55,-89.8650,30.8137,57.70,54.90,90.36,0.00,0.00,0.00,29.97,M,10.00,M,CLR,M,M,M,M,M,M,M,M,KBXA 010655Z AUTO 00000KT 10SM CLR 14/13 A2997 RMK AO2 T01430127
BXA,2017-04-01 07:15,-89.8650,30.8137,58.10,55.00,89.40,0.00,0.00,0.00,29.97,M,10.00,M,CLR,M,M,M,M,M,M,M,M,KBXA 010715Z AUTO 00000KT 10SM CLR 15/13 A2997 RMK AO2 T01450128
BXA,2017-04-01 07:35,-89.8650,30.8137,57.00,54.10,90.01,0.00,0.00,0.00,29.97,M,10.00,M,CLR,M,M,M,M,M,M,M,M,KBXA 010735Z AUTO 00000KT 10SM CLR 14/12 A2997 RMK AO2 T01390123
BXA,2017-04-01 07:55,-89.8650,30.8137,57.20,54.30,90.01,0.00,0.00,0.00,29.98,M,10.00,M,CLR,M,M,M,M,M,M,M,M,KBXA 010755Z AUTO 00000KT 10SM CLR 14/12 A2998 RMK AO2 T01400124
BXA,2017-04-01 08:15,-89.8650,30.8137,55.80,52.70,89.30,0.00,0.00,0.00,29.98,M,10.00,M,CLR,M,M,M,M,M,M,M,M,KBXA 010815Z AUTO 00000KT 10SM CLR 13/12 A2998 RMK AO2 T01320115
BXA,2017-04-01 08:35,-89.8650,30.8137,56.30,53.40,89.98,0.00,0.00,0.00,29.98,M,10.00,M,CLR,M,M,M,M,M,M,M,M,KBXA 010835Z AUTO 00000KT 10SM CLR 14/12 A2998 RMK AO2 T01350119
BXA,2017-04-01 08:55,-89.8650,30.8137,56.70,53.80,89.99,0.00,0.00,0.00,29.98,M,10.00,M,CLR,M,M,M,M,M,M,M,M,KBXA 010855Z AUTO 00000KT 10SM CLR 14/12 A2998 RMK AO2 T01370121
BXA,2017-04-01 09:15,-89.8650,30.8137,55.60,52.70,89.95,0.00,0.00,0.00,29.98,M,10.00,M,CLR,M,M,M,M,M,M,M,M,KBXA 010915Z AUTO 00000KT 10SM CLR 13/12 A2998 RMK AO2 T01310115
BXA,2017-04-01 09:35,-89.8650,30.8137,54.70,52.00,90.58,0.00,0.00,0.00,29.98,M,10.00,M,CLR,M,M,M,M,M,M,M,M,KBXA 010935Z AUTO 00000KT 10SM CLR 13/11 A2998 RMK AO2 T01260111
BXA,2017-04-01 09:55,-89.8650,30.8137,54.90,52.00,89.92,0.00,0.00,0.00,29.99,M,10.00,M,SCT,M,M,M,100.00,M,M,M,M,KBXA 010955Z AUTO 00000KT 10SM SCT001 13/11 A2999 RMK AO2 T01270111
BXA,2017-04-01 10:15,-89.8650,30.8137,54.50,51.80,90.57,0.00,0.00,0.00,29.99,M,10.00,M,BKN,M,M,M,100.00,M,M,M,M,KBXA 011015Z AUTO 00000KT 10SM BKN001 13/11 A2999 RMK AO2 T01250110
BXA,2017-04-01 10:35,-89.8650,30.8137,54.90,52.20,90.58,0.00,0.00,0.00,30.00,M,10.00,M,BKN,M,M,M,100.00,M,M,M,M,KBXA 011035Z AUTO 00000KT 10SM BKN001 13/11 A3000 RMK AO2 T01270112
BXA,2017-04-01 10:55,-89.8650,30.8137,54.10,51.40,90.55,0.00,0.00,0.00,30.00,M,7.00,M,OVC,M,M,M,100.00,M,M,M,VCTS,KBXA 011055Z AUTO 00000KT 7SM VCTS OVC001 12/11 A3000 RMK AO2 T01230108
BXA,2017-04-01 11:15,-89.8650,30.8137,54.50,51.80,90.57,0.00,0.00,0.00,30.01,M,10.00,M,OVC,M,M,M,100.00,M,M,M,M,KBXA 011115Z AUTO 00000KT 10SM OVC001 13/11 A3001 RMK AO2 T01250110
BXA,2017-04-01 11:35,-89.8650,30.8137,54.70,52.00,90.58,0.00,0.00,0.00,30.02,M,10.00,M,OVC,M,M,M,100.00,M,M,M,M,KBXA 011135Z AUTO 00000KT 10SM OVC001 13/11 A3002 RMK AO2 T01260111
BXA,2017-04-01 11:55,-89.8650,30.8137,54.50,51.80,90.57,0.00,0.00,0.00,30.03,M,10.00,M,OVC,M,M,M,100.00,M,M,M,M,KBXA 011155Z AUTO 00000KT 10SM OVC001 13/11 A3003 RMK AO2 T01250110 10150 20123
BXA,2017-04-01 12:15,-89.8650,30.8137,54.00,51.30,90.55,0.00,0.00,0.00,30.03,M,10.00,M,OVC,M,M,M,100.00,M,M,M,M,KBXA 011215Z AUTO 00000KT 10SM OVC001 12/11 A3003 RMK AO2 T01220107
BXA,2017-04-01 12:35,-89.8650,30.8137,54.50,51.80,90.57,0.00,0.00,0.00,30.04,M,10.00,M,BKN,M,M,M,100.00,M,M,M,M,KBXA 011235Z AUTO 00000KT 10SM BKN001 13/11 A3004 RMK AO2 T01250110
BXA,2017-04-01 12:55,-89.8650,30.8137,56.70,54.00,90.65,0.00,0.00,0.00,30.04,M,10.00,M,SCT,M,M,M,100.00,M,M,M,M,KBXA 011255Z AUTO 00000KT 10SM SCT001 14/12 A3004 RMK AO2 T01370122
BXA,2017-04-01 13:15,-89.8650,30.8137,58.30,55.60,90.72,0.00,0.00,0.00,30.04,M,5.00,M,CLR,M,M,M,M,M,M,M,M,KBXA 011315Z AUTO 00000KT 5SM CLR 15/13 A3004 RMK AO2 T01460131
BXA,2017-04-01 13:35,-89.8650,30.8137,60.30,57.40,90.14,0.00,0.00,0.00,30.05,M,5.00,M,CLR,M,M,M,M,M,M,M,M,KBXA 011335Z AUTO 00000KT 5SM CLR 16/14 A3005 RMK AO2 T01570141
BXA,2017-04-01 13:55,-89.8650,30.8137,62.60,58.60,86.75,0.00,0.00,0.00,30.05,M,7.00,M,CLR,M,M,M,M,M,M,M,M,KBXA 011355Z AUTO 00000KT 7SM CLR 17/15 A3005 RMK AO2 T01700148
BXA,2017-04-01 14:15,-89.8650,30.8137,65.80,60.30,82.42,0.00,0.00,0.00,30.05,M,10.00,M,CLR,M,M,M,M,M,M,M,M,KBXA 011415Z AUTO 00000KT 10SM CLR 19/16 A3005 RMK AO2 T01880157
BXA,2017-04-01 14:35,-89.8650,30.8137,68.90,60.60,74.85,0.00,0.00,0.00,30.05,M,10.00,M,CLR,M,M,M,M,M,M,M,M,KBXA 011435Z AUTO 00000KT 10SM CLR 21/16 A3005 RMK AO2 T02050159
BXA,2017-04-01 14:55,-89.8650,30.8137,71.20,61.30,70.94,0.00,0.00,0.00,30.06,M,10.00,M,CLR,M,M,M,M,M,M,M,M,KBXA 011455Z AUTO 00000KT 10SM CLR 22/16 A3006 RMK AO2 T02180163
BXA,2017-04-01 15:15,-89.8650,30.8137,73.90,60.80,63.61,80.00,4.00,0.00,30.06,M,10.00,M,CLR,M,M,M,M,M,M,M,M,KBXA 011515Z AUTO 08004KT 10SM CLR 23/16 A3006 RMK AO2 T02330160
BXA,2017-04-01 15:35,-89.8650,30.8137,75.90,61.00,59.92,50.00,4.00,0.00,30.06,M,10.00,M,CLR,M,M,M,M,M,M,M,M,KBXA 011535Z AUTO 05004KT 10SM CLR 24/16 A3006 RMK AO2 T02440161
BXA,2017-04-01 15:55,-89.8650,30.8137,77.00,60.10,55.95,100.00,5.00,0.00,30.07,M,10.00,M,CLR,M,M,M,M,M,M,M,M,KBXA 011555Z AUTO 10005KT 10SM CLR 25/16 A3007 RMK AO2 T02500156
BXA,2017-04-01 16:15,-89.8650,30.8137,78.40,59.40,52.11,90.00,3.00,0.00,30.07,M,10.00,M,CLR,M,M,M,M,M,M,M,M,KBXA 011615Z AUTO 09003KT 10SM CLR 26/15 A3007 RMK AO2 T02580152
BXA,2017-04-01 16:35,-89.8650,30.8137,80.40,58.80,47.76,140.00,4.00,0.00,30.07,M,10.00,M,CLR,M,M,M,M,M,M,M,M,KBXA 011635Z AUTO 14004KT 10SM CLR 27/15 A3007 RMK AO2 T02690149
BXA,2017-04-01 16:55,-89.8650,30.8137,82.00,57.20,42.80,90.00,5.00,0.00,30.06,M,10.00,M,CLR,M,M,M,M,M,M,M,M,KBXA 011655Z AUTO 09005KT 10SM CLR 28/14 A3006 RMK AO2 T02780140
BXA,2017-04-01 17:15,-89.8650,30.8137,82.20,54.50,38.56,140.00,9.00,0.00,30.06,M,10.00,14.00,CLR,M,M,M,M,M,M,M,M,KBXA 011715Z AUTO 14009G14KT 10SM CLR 28/13 A3006 RMK AO2 T02790125
BXA,2017-04-01 17:35,-89.8650,30.8137,83.30,55.40,38.45,140.00,7.00,0.00,30.05,M,10.00,M,CLR,M,M,M,M,M,M,M,M,KBXA 011735Z AUTO 14007KT 100V160 10SM CLR 29/13 A3005 RMK AO2 T02850130
BXA,2017-04-01 17:55,-89.8650,30.8137,83.30,53.20,35.48,80.00,7.00,0.00,30.05,M,10.00,M,CLR,M,M,M,M,M,M,M,M,KBXA 011755Z AUTO 08007KT 10SM CLR 29/12 A3005 RMK AO2 T02850118 10286 20122
BXA,2017-04-01 18:15,-89.8650,30.8137,84.20,54.00,35.49,80.00,7.00,0.00,30.05,M,10.00,M,CLR,M,M,M,M,M,M,M,M,KBXA 011815Z AUTO 08007KT 10SM CLR 29/12 A3005 RMK AO2 T02900122
BXA,2017-04-01 18:35,-89.8650,30.8137,84.60,53.10,33.90,130.00,5.00,0.00,30.04,M,10.00,M,CLR,M,M,M,M,M,M,M,M,KBXA 011835Z AUTO 13005KT 10SM CLR 29/12 A3004 RMK AO2 T02920117
BXA,2017-04-01 18:55,-89.8650,30.8137,85.50,53.10,32.93,110.00,7.00,0.00,30.04,M,10.00,15.00,CLR,M,M,M,M,M,M,M,M,KBXA 011855Z AUTO 11007G15KT 10SM CLR 30/12 A3004 RMK AO2 T02970117
BXA,2017-04-01 19:15,-89.8650,30.8137,85.80,52.70,32.14,140.00,7.00,0.00,30.03,M,10.00,M,CLR,M,M,M,M,M,M,M,M,KBXA 011915Z AUTO 14007KT 10SM CLR 30/12 A3003 RMK AO2 T02990115
BXA,2017-04-01 19:35,-89.8650,30.8137,86.20,52.70,31.74,130.00,9.00,0.00,30.02,M,10.00,M,CLR,M,M,M,M,M,M,M,M,KBXA 011935Z AUTO 13009KT 10SM CLR 30/12 A3002 RMK AO2 T03010115
BXA,2017-04-01 19:55,-89.8650,30.8137,86.50,52.30,30.97,120.00,7.00,0.00,30.02,M,10.00,M,CLR,M,M,M,M,M,M,M,M,KBXA 011955Z AUTO 12007KT 10SM CLR 30/11 A3002 RMK AO2 T03030113
BXA,2017-04-01 20:15,-89.8650,30.8137,87.30,52.30,30.20,120.00,5.00,0.00,30.01,M,10.00,M,CLR,M,M,M,M,M,M,M,M,KBXA 012015Z AUTO 12005KT 10SM CLR 31/11 A3001 RMK AO2 T03070113
BXA,2017-04-01 20:35,-89.8650,30.8137,86.40,52.50,31.30,120.00,5.00,0.00,30.00,M,10.00,M,CLR,M,M,M,M,M,M,M,M,KBXA 012035Z AUTO 12005KT 10SM CLR 30/11 A3000 RMK AO2 T03020114
BXA,2017-04-01 20:55,-89.8650,30.8137,85.10,52.20,32.27,140.00,7.00,0.00,30.00,M,10.00,M,CLR,M,M,M,M,M,M,M,M,KBXA 012055Z AUTO 14007KT 10SM CLR 30/11 A3000 RMK AO2 T02950112
BXA,2017-04-01 21:15,-89.8650,30.8137,85.30,53.40,33.51,170.00,7.00,0.00,30.00,M,10.00,M,CLR,M,M,M,M,M,M,M,M,KBXA 012115Z AUTO 17007KT 10SM CLR 30/12 A3000 RMK AO2 T02960119
BXA,2017-04-01 21:35,-89.8650,30.8137,86.70,52.50,31.01,170.00,7.00,0.00,29.99,M,10.00,M,CLR,M,M,M,M,M,M,M,M,KBXA 012135Z AUTO 17007KT 10SM CLR 30/11 A2999 RMK AO2 T03040114
BXA,2017-04-01 21:55,-89.8650,30.8137,85.60,52.20,31.76,0.00,0.00,0.00,29.99,M,10.00,M,CLR,M,M,M,M,M,M,M,M,KBXA 012155Z AUTO 00000KT 10SM CLR 30/11 A2999 RMK AO2 T02980112
BXA,2017-04-01 22:15,-89.8650,30.8137,86.00,53.40,32.77,160.00,7.00,0.00,29.99,M,10.00,M,CLR,M,M,M,M,M,M,M,M,KBXA 012215Z AUTO 16007KT 10SM CLR 30/12 A2999 RMK AO2 T03000119
BXA,2017-04-01 22:35,-89.8650,30.8137,84.70,53.40,34.16,180.00,9.00,0.00,30.00,M,10.00,M,CLR,M,M,M,M,M,M,M,M,KBXA 012235Z AUTO 18009KT 140V210 10SM CLR 29/12 A3000 RMK AO2 T02930119
BXA,2017-04-01 22:55,-89.8650,30.8137,84.20,53.10,34.34,180.00,9.00,0.00,30.00,M,10.00,M,CLR,M,M,M,M,M,M,M,M,KBXA 012255Z AUTO 18009KT 10SM CLR 29/12 A3000 RMK AO2 T02900117
BXA,2017-04-01 23:15,-89.8650,30.8137,82.80,53.40,36.32,180.00,8.00,0.00,30.00,M,10.00,M,CLR,M,M,M,M,M,M,M,M,KBXA 012315Z AUTO 18008KT 10SM CLR 28/12 A3000 RMK AO2 T02820119
BXA,2017-04-01 23:35,-89.8650,30.8137,81.70,53.60,37.92,180.00,8.00,0.00,30.01,M,10.00,M,CLR,M,M,M,M,M,M,M,M,KBXA 012335Z AUTO 18008KT 10SM CLR 28/12 A3001 RMK AO2 T02760120
BXA,2017-04-01 23:55,-89.8650,30.8137,80.10,54.30,40.99,160.00,8.00,0.00,30.01,M,10.00,M,CLR,M,M,M,M,M,M,M,M,KBXA 012355Z AUTO 16008KT 10SM CLR 27/12 A3001 RMK AO2 T02670124 10307 20267
