#DEBUG: Format Typ    -> comma
#DEBUG: Time Period   -> 2017-04-01 00:00:00+00:00 2017-04-02 00:00:00+00:00
#DEBUG: Time Zone     -> Etc/UTC
#DEBUG: Data Contact   -> daryl herzmann akrherz@iastate.edu 515-294-5978
#DEBUG: Entries Found -> -1
station,valid,lon,lat,tmpf, dwpf, relh, drct, sknt, p01i, alti, mslp, vsby, gust, skyc1, skyc2, skyc3, skyc4, skyl1, skyl2, skyl3, skyl4, presentwx, metar
BYY,2017-04-01 00:15,-95.8634,28.9733,74.80,59.50,58.93,140.00,6.00,0.00,29.80,M,10.00,M,CLR,M,M,M,M,M,M,M,M,KBYY 010015Z AUTO 14006KT 10SM CLR 23/16 A2980 RMK AO2 T02380153
BYY,2017-04-01 00:35,-95.8634,28.9733,73.00,61.90,68.18,130.00,7.00,0.00,29.80,M,10.00,M,CLR,M,M,M,M,M,M,M,M,KBYY 010035Z AUTO 13007KT 10SM CLR 22/17 A2980 RMK AO2 T02280166
BYY,2017-04-01 00:55,-95.8634,28.9733,71.40,63.70,76.67,120.00,6.00,0.00,29.81,M,10.00,M,CLR,M,M,M,M,M,M,M,M,KBYY 010055Z AUTO 12006KT 10SM CLR 21/17 A2981 RMK AO2 T02190176
BYY,2017-04-01 01:15,-95.8634,28.9733,70.00,64.80,83.57,130.00,5.00,0.00,29.81,M,10.00,M,CLR,M,M,M,M,M,M,M,M,KBYY 010115Z AUTO 13005KT 10SM CLR 20/18 A2981 RMK AO2 T02110182
BYY,2017-04-01 01:35,-95.8634,28.9733,68.50,64.40,86.76,130.00,4.00,0.00,29.83,M,10.00,M,CLR,M,M,M,M,M,M,M,M,KBYY 010135Z AUTO 13004KT 10SM CLR 20/17 A2983 RMK AO2 T02030180
BYY,2017-04-01 01:55,-95.8634,28.9733,67.60,64.40,89.48,120.00,5.00,0.00,29.83,M,10.00,M,CLR,M,M,M,M,M,M,M,M,KBYY 010155Z AUTO 12005KT 10SM CLR 20/17 A2983 RMK AO2 T01980180
BYY,2017-04-01 02:15,-95.8634,28.9733,67.30,64.20,89.79,110.00,5.00,0.00,29.83,M,10.00,M,CLR,M,M,M,M,M,M,M,M,KBYY 010215Z AUTO 11005KT 10SM CLR 19/17 A2983 RMK AO2 T01960179
BYY,2017-04-01 02:35,-95.8634,28.9733,66.40,64.00,91.98,110.00,5.00,0.00,29.83,M,10.00,M,CLR,M,M,M,M,M,M,M,M,KBYY 010235Z AUTO 11005KT 10SM CLR 18/17 A2983 RMK AO2 T01910178
BYY,2017-04-01 02:55,-95.8634,28.9733,66.70,64.00,91.03,120.00,6.00,0.00,29.83,M,10.00,M,CLR,M,M,M,M,M,M,M,M,KBYY 010255Z AUTO 12006KT 10SM CLR 19/17 A2983 RMK AO2 T01930178
BYY,2017-04-01 03:15,-95.8634,28.9733,66.70,63.90,90.71,120.00,6.00,0.00,29.84,M,10.00,M,CLR,M,M,M,M,M,M,M,M,KBYY 010315Z AUTO 12006KT 10SM CLR 19/17 A2984 RMK AO2 T01930177
BYY,2017-04-01 03:35,-95.8634,28.9733,66.60,63.30,89.13,120.00,6.00,0.00,29.84,M,10.00,M,CLR,M,M,M,M,M,M,M,M,KBYY 010335Z AUTO 12006KT 10SM CLR 18/17 A2984 RMK AO2 T01920174
BYY,2017-04-01 03:55,-95.8634,28.9733,66.20,63.00,89.43,110.00,6.00,0.00,29.84,M,10.00,M,CLR,M,M,M,M,M,M,M,M,KBYY 010355Z AUTO 11006KT 10SM CLR 18/17 A2984 RMK AO2 T01900172
BYY,2017-04-01 04:15,-95.8634,28.9733,66.00,62.80,89.42,110.00,5.00,0.00,29.84,M,10.00,M,CLR,M,M,M,M,M,M,M,M,KBYY 010415Z AUTO 11005KT 10SM CLR 18/17 A2984 RMK AO2 T01890171
BYY,2017-04-01 04:35,-95.8634,28.9733,65.80,62.60,89.41,110.00,6.00,0.00,29.83,M,10.00,M,CLR,M,M,M,M,M,M,M,M,KBYY 010435Z AUTO 11006KT 10SM CLR 18/17 A2983 RMK AO2 T01880170
BYY,2017-04-01 04:55,-95.8634,28.9733,65.80,62.40,88.78,110.00,5.00,0.00,29.83,M,10.00,M,CLR,M,M,M,M,M,M,M,M,KBYY 010455Z AUTO 11005KT 10SM CLR 18/16 A2983 RMK AO2 T01880169
BYY,2017-04-01 05:15,-95.8634,28.9733,65.70,62.10,88.15,110.00,5.00,0.00,29.83,M,10.00,M,CLR,M,M,M,M,M,M,M,M,KBYY 010515Z AUTO 11005KT 10SM CLR 18/16 A2983 RMK AO2 T01870167
BYY,2017-04-01 05:35,-95.8634,28.9733,65.80,62.20,88.16,110.00,7.00,0.00,29.82,M,10.00,M,CLR,M,M,M,M,M,M,M,M,KBYY 010535Z AUTO 11007KT 10SM CLR 18/17 A2982 RMK AO2 T01880168
BYY,2017-04-01 05:55,-95.8634,28.9733,66.70,62.60,86.66,120.00,7.00,0.00,29.81,M,10.00,M,CLR,M,M,M,M,M,M,M,M,KBYY 010555Z AUTO 12007KT 10SM CLR 19/17 A2981 RMK AO2 T01930170
BYY,2017-04-01 06:15,-95.8634,28.9733,67.50,63.00,85.49,120.00,7.00,0.00,29.81,M,10.00,M,CLR,M,M,M,M,M,M,M,M,KBYY 010615Z AUTO 12007KT 10SM CLR 20/17 A2981 RMK AO2 T01970172
BYY,2017-04-01 06:35,-95.8634,28.9733,67.60,63.10,85.50,120.00,6.00,0.00,29.81,M,10.00,M,CLR,M,M,M,M,M,M,M,M,KBYY 010635Z AUTO 12006KT 10SM CLR 20/17 A2981 RMK AO2 T01980173
BYY,2017-04-01 06:55,-95.8634,28.9733,67.80,63.50,86.11,120.00,6.00,0.00,29.81,M,10.00,M,CLR,M,M,M,M,M,M,M,M,KBYY 010655Z AUTO 12006KT 10SM CLR 20/17 A2981 RMK AO2 T01990175
BYY,2017-04-01 07:15,-95.8634,28.9733,68.00,64.00,87.03,120.00,7.00,0.00,29.81,M,10.00,M,CLR,M,M,M,M,M,M,M,M,KBYY 010715Z AUTO 12007KT 10SM CLR 20/17 A2981 RMK AO2 T02000178
BYY,2017-04-01 07:35,-95.8634,28.9733,68.40,64.60,87.66,130.00,8.00,0.00,29.81,M,10.00,M,SCT,M,M,M,1800.00,M,M,M,M,KBYY 010735Z AUTO 13008KT 10SM SCT018 20/18 A2981 RMK AO2 T02020181
BYY,2017-04-01 07:55,-95.8634,28.9733,68.70,65.10,88.29,120.00,8.00,0.00,29.80,M,10.00,M,BKN,M,M,M,1800.00,M,M,M,M,KBYY 010755Z AUTO 12008KT 10SM BKN018 20/18 A2980 RMK AO2 T02040184
BYY,2017-04-01 08:15,-95.8634,28.9733,68.90,65.30,88.30,120.00,9.00,0.00,29.80,M,10.00,M,OVC,M,M,M,1800.00,M,M,M,M,KBYY 010815Z AUTO 12009KT 10SM OVC018 20/18 A2980 RMK AO2 T02050185
BYY,2017-04-01 08:35,-95.8634,28.9733,69.10,65.30,87.70,130.00,7.00,0.00,29.80,M,10.00,M,OVC,M,M,M,1800.00,M,M,M,M,KBYY 010835Z AUTO 13007KT 10SM OVC018 20/18 A2980 RMK AO2 T02060185
BYY,2017-04-01 08:55,-95.8634,28.9733,69.40,65.50,87.41,140.00,6.00,0.00,29.81,M,10.00,M,OVC,M,M,M,1800.00,M,M,M,M,KBYY 010855Z AUTO 14006KT 10SM OVC018 21/18 A2981 RMK AO2 T02080186
BYY,2017-04-01 09:15,-95.8634,28.9733,70.00,65.70,86.23,140.00,7.00,0.00,29.82,M,10.00,M,OVC,M,M,M,1800.00,M,M,M,M,KBYY 010915Z AUTO 14007KT 10SM OVC018 21/18 A2982 RMK AO2 T02110187
BYY,2017-04-01 09:35,-95.8634,28.9733,70.00,65.50,85.63,130.00,5.00,0.00,29.82,M,10.00,M,OVC,M,M,M,2000.00,M,M,M,M,KBYY 010935Z AUTO 13005KT 10SM OVC020 21/18 A2982 RMK AO2 T02110186
BYY,2017-04-01 09:55,-95.8634,28.9733,69.40,65.30,86.80,120.00,6.00,0.00,29.82,M,10.00,M,OVC,M,M,M,2000.00,M,M,M,M,KBYY 010955Z AUTO 12006KT 10SM OVC020 20/18 A2982 RMK AO2 T02080185
BYY,2017-04-01 10:15,-95.8634,28.9733,69.40,65.70,88.02,110.00,5.00,0.00,29.83,M,10.00,M,OVC,M,M,M,2000.00,M,M,M,M,KBYY 011015Z AUTO 11005KT 10SM OVC020 21/18 A2983 RMK AO2 T02080187
BYY,2017-04-01 10:35,-95.8634,28.9733,69.10,65.30,87.70,120.00,6.00,0.00,29.83,M,10.00,M,OVC,M,M,M,2000.00,M,M,M,M,KBYY 011035Z AUTO 12006KT 10SM OVC020 20/18 A2983 RMK AO2 T02060185
BYY,2017-04-01 10:55,-95.8634,28.9733,68.90,65.30,88.30,130.00,6.00,0.00,29.83,M,10.00,M,BKN,M,M,M,2000.00,M,M,M,M,KBYY 011055Z AUTO 13006KT 10SM BKN020 20/18 A2983 RMK AO2 T02050185
BYY,2017-04-01 11:15,-95.8634,28.9733,68.90,65.30,88.30,130.00,6.00,0.00,29.83,M,10.00,M,BKN,M,M,M,2000.00,M,M,M,M,KBYY 011115Z AUTO 13006KT 10SM BKN020 20/18 A2983 RMK AO2 T02050185
BYY,2017-04-01 11:35,-95.8634,28.9733,68.70,65.30,88.91,130.00,6.00,0.00,29.84,M,10.00,M,BKN,M,M,M,2200.00,M,M,M,M,KBYY 011135Z AUTO 13006KT 10SM BKN022 20/18 A2984 RMK AO2 T02040185
BYY,2017-04-01 11:55,-95.8634,28.9733,68.90,65.30,88.30,130.00,6.00,0.00,29.84,M,10.00,M,BKN,M,M,M,2200.00,M,M,M,M,KBYY 011155Z AUTO 13006KT 10SM BKN022 20/18 A2984 RMK AO2 T02050185
BYY,2017-04-01 12:15,-95.8634,28.9733,69.40,65.70,88.02,140.00,7.00,0.00,29.84,M,10.00,M,BKN,M,M,M,2200.00,M,M,M,M,KBYY 011215Z AUTO 14007KT 10SM BKN022 21/18 A2984 RMK AO2 T02080187
BYY,2017-04-01 12:35,-95.8634,28.9733,70.20,65.80,85.94,130.00,7.00,0.00,29.85,M,10.00,M,BKN,M,M,M,2400.00,M,M,M,M,KBYY 011235Z AUTO 13007KT 10SM BKN024 21/18 A2985 RMK AO2 T02120188
BYY,2017-04-01 12:55,-95.8634,28.9733,70.50,66.00,85.66,130.00,6.00,0.00,29.85,M,10.00,M,BKN,M,M,M,2400.00,M,M,M,M,KBYY 011255Z AUTO 13006KT 10SM BKN024 21/18 A2985 RMK AO2 T02140189
BYY,2017-04-01 13:15,-95.8634,28.9733,71.10,66.40,85.10,130.00,7.00,0.00,29.85,M,10.00,M,OVC,M,M,M,2400.00,M,M,M,M,KBYY 011315Z AUTO 13007KT 10SM OVC024 21/19 A2985 RMK AO2 T02170191
BYY,2017-04-01 13:35,-95.8634,28.9733,72.00,66.90,83.99,120.00,6.00,0.00,29.87,M,10.00,M,OVC,M,M,M,2200.00,M,M,M,M,KBYY 011335Z AUTO 12006KT 10SM OVC022 22/19 A2987 RMK AO2 T02220194
BYY,2017-04-01 13:55,-95.8634,28.9733,73.00,67.60,83.18,120.00,9.00,0.00,29.87,M,10.00,M,OVC,M,M,M,2200.00,M,M,M,M,KBYY 011355Z AUTO 12009KT 10SM OVC022 23/20 A2987 RMK AO2 T02280198
BYY,2017-04-01 14:15,-95.8634,28.9733,74.30,68.40,81.85,130.00,8.00,0.00,29.88,M,10.00,15.00,OVC,M,M,M,2000.00,M,M,M,M,KBYY 011415Z AUTO 13008G15KT 10SM OVC020 23/20 A2988 RMK AO2 T02350202
BYY,2017-04-01 14:35,-95.8634,28.9733,74.50,68.20,80.75,130.00,13.00,0.00,29.88,M,10.00,19.00,OVC,M,M,M,2000.00,M,M,M,M,KBYY 011435Z AUTO 13013G19KT 10SM OVC020 23/20 A2988 RMK AO2 T02360201
BYY,2017-04-01 14:55,-95.8634,28.9733,74.80,67.80,78.85,130.00,13.00,0.00,29.88,M,10.00,17.00,BKN,BKN,M,M,2000.00,2700.00,M,M,M,KBYY 011455Z AUTO 13013G17KT 10SM BKN020 BKN027 23/20 A2988 RMK AO2 T02380199
BYY,2017-04-01 15:15,-95.8634,28.9733,76.50,67.80,74.50,120.00,13.00,0.00,29.88,M,10.00,21.00,BKN,BKN,M,M,2200.00,2900.00,M,M,M,KBYY 011515Z AUTO 12013G21KT 10SM BKN022 BKN029 25/20 A2988 RMK AO2 T02470199
BYY,2017-04-01 15:35,-95.8634,28.9733,76.30,67.60,74.48,130.00,16.00,0.00,29.89,M,10.00,M,BKN,BKN,M,M,2200.00,2800.00,M,M,M,KBYY 011535Z AUTO 13016KT 10SM BKN022 BKN028 24/20 A2989 RMK AO2 T02460198
BYY,2017-04-01 15:55,-95.8634,28.9733,75.60,67.60,76.24,140.00,14.00,0.00,29.89,M,10.00,20.00,BKN,BKN,M,M,2200.00,2600.00,M,M,M,KBYY 011555Z AUTO 14014G20KT 10SM BKN022 BKN026 24/20 A2989 RMK AO2 T02420198
BYY,2017-04-01 16:15,-95.8634,28.9733,75.70,67.80,76.51,130.00,12.00,0.00,29.89,M,10.00,19.00,BKN,BKN,M,M,2200.00,2900.00,M,M,M,KBYY 011615Z AUTO 13012G19KT 10SM BKN022 BKN029 24/20 A2989 RMK AO2 T02430199
BYY,2017-04-01 16:35,-95.8634,28.9733,77.00,68.00,73.78,130.00,14.00,0.00,29.89,M,10.00,21.00,BKN,BKN,M,M,2200.00,2800.00,M,M,M,KBYY 011635Z AUTO 13014G21KT 10SM BKN022 BKN028 25/20 A2989 RMK AO2 T02500200
BYY,2017-04-01 16:55,-95.8634,28.9733,78.10,68.40,72.13,120.00,12.00,0.00,29.89,M,10.00,19.00,BKN,OVC,M,M,2200.00,2800.00,M,M,M,KBYY 011655Z AUTO 12012G19KT 10SM BKN022 OVC028 25/20 A2989 RMK AO2 T02560202
BYY,2017-04-01 17:15,-95.8634,28.9733,78.30,68.50,71.90,120.00,11.00,0.00,29.90,M,10.00,21.00,BKN,OVC,M,M,2200.00,2800.00,M,M,M,KBYY 011715Z AUTO 12011G21KT 10SM BKN022 OVC028 25/20 A2990 RMK AO2 T02570203
BYY,2017-04-01 17:35,-95.8634,28.9733,79.00,68.00,69.07,130.00,13.00,0.00,29.90,M,10.00,20.00,BKN,BKN,BKN,M,2200.00,2800.00,3500.00,M,M,KBYY 011735Z AUTO 13013G20KT 10SM BKN022 BKN028 BKN035 26/19 A2990 RMK AO2 T02610200
BYY,2017-04-01 17:55,-95.8634,28.9733,79.30,68.00,68.39,130.00,11.00,0.00,29.89,M,10.00,18.00,BKN,OVC,M,M,2400.00,3200.00,M,M,M,KBYY 011755Z AUTO 13011G18KT 10SM BKN024 OVC032 26/20 A2989 RMK AO2 T02630200
BYY,2017-04-01 18:15,-95.8634,28.9733,80.10,67.50,65.48,140.00,15.00,0.00,29.89,M,10.00,M,SCT,BKN,M,M,2600.00,3400.00,M,M,M,KBYY 011815Z AUTO 14015KT 10SM SCT026 BKN034 26/19 A2989 RMK AO2 T02670197
BYY,2017-04-01 18:35,-95.8634,28.9733,80.20,67.30,64.82,130.00,13.00,0.00,29.89,M,10.00,18.00,SCT,BKN,M,M,2900.00,3600.00,M,M,M,KBYY 011835Z AUTO 13013G18KT 10SM SCT029 BKN036 27/20 A2989 RMK AO2 T02680196
BYY,2017-04-01 18:55,-95.8634,28.9733,80.20,67.30,64.82,130.00,12.00,0.00,29.88,M,10.00,20.00,OVC,M,M,M,2900.00,M,M,M,M,KBYY 011855Z AUTO 13012G20KT 10SM OVC029 26/20 A2988 RMK AO2 T02680196
BYY,2017-04-01 19:15,-95.8634,28.9733,80.20,67.60,65.49,140.00,12.00,0.00,29.88,M,10.00,21.00,BKN,OVC,M,M,2900.00,3700.00,M,M,M,KBYY 011915Z AUTO 14012G21KT 10SM BKN029 OVC037 26/19 A2988 RMK AO2 T02680198
BYY,2017-04-01 19:35,-95.8634,28.9733,79.90,67.60,66.14,140.00,13.00,0.00,29.88,M,10.00,16.00,BKN,BKN,M,M,2600.00,3700.00,M,M,M,KBYY 011935Z AUTO 14013G16KT 10SM BKN026 BKN037 26/20 A2988 RMK AO2 T02660198
BYY,2017-04-01 19:55,-95.8634,28.9733,80.60,68.40,66.44,120.00,13.00,0.00,29.87,M,10.00,16.00,SCT,BKN,M,M,2500.00,3700.00,M,M,M,KBYY 011955Z AUTO 12013G16KT 10SM SCT025 BKN037 27/20 A2987 RMK AO2 T02700202
BYY,2017-04-01 20:15,-95.8634,28.9733,81.00,68.50,65.81,110.00,13.00,0.00,29.86,M,10.00,19.00,BKN,BKN,BKN,M,2500.00,3200.00,4000.00,M,M,KBYY 012015Z AUTO 11013G19KT 10SM BKN025 BKN032 BKN040 27/20 A2986 RMK AO2 T02720203
BYY,2017-04-01 20:35,-95.8634,28.9733,80.20,67.80,65.94,130.00,10.00,0.00,29.85,M,10.00,17.00,BKN,OVC,M,M,2500.00,3200.00,M,M,M,KBYY 012035Z AUTO 13010G17KT 10SM BKN025 OVC032 26/20 A2985 RMK AO2 T02680199
BYY,2017-04-01 20:55,-95.8634,28.9733,80.80,68.40,66.01,140.00,12.00,0.00,29.85,M,10.00,18.00,BKN,BKN,BKN,M,2500.00,3100.00,3700.00,M,M,KBYY 012055Z AUTO 14012G18KT 10SM BKN025 BKN031 BKN037 27/20 A2985 RMK AO2 T02710202
BYY,2017-04-01 21:15,-95.8634,28.9733,80.60,68.00,65.54,120.00,14.00,0.00,29.85,M,10.00,M,BKN,BKN,M,M,2500.00,3300.00,M,M,M,KBYY 012115Z AUTO 12014KT 10SM BKN025 BKN033 26/20 A2985 RMK AO2 T02700200
BYY,2017-04-01 21:35,-95.8634,28.9733,80.20,68.00,66.40,130.00,10.00,0.00,29.85,M,10.00,19.00,BKN,BKN,OVC,M,2500.00,3000.00,3600.00,M,M,KBYY 012135Z AUTO 13010G19KT 10SM BKN025 BKN030 OVC036 26/20 A2985 RMK AO2 T02680200
BYY,2017-04-01 21:55,-95.8634,28.9733,79.30,67.80,67.92,120.00,8.00,0.00,29.85,M,10.00,16.00,BKN,BKN,BKN,M,2500.00,3000.00,3700.00,M,M,KBYY 012155Z AUTO 12008G16KT 10SM BKN025 BKN030 BKN037 26/20 A2985 RMK AO2 T02630199
BYY,2017-04-01 22:15,-95.8634,28.9733,79.30,68.50,69.57,120.00,11.00,0.00,29.85,M,10.00,16.00,SCT,BKN,OVC,M,2300.00,3200.00,9500.00,M,M,KBYY 012215Z AUTO 12011G16KT 10SM SCT023 BKN032 OVC095 26/20 A2985 RMK AO2 T02630203
BYY,2017-04-01 22:35,-95.8634,28.9733,79.20,68.70,70.28,100.00,14.00,0.00,29.84,M,10.00,M,BKN,BKN,OVC,M,2100.00,2900.00,9500.00,M,M,KBYY 012235Z AUTO 10014KT 10SM BKN021 BKN029 OVC095 26/20 A2984 RMK AO2 T02620204
BYY,2017-04-01 22:55,-95.8634,28.9733,78.30,68.50,71.90,110.00,11.00,0.00,29.85,M,10.00,18.00,SCT,SCT,BKN,M,2100.00,2600.00,3200.00,M,M,KBYY 012255Z AUTO 11011G18KT 10SM SCT021 SCT026 BKN032 25/20 A2985 RMK AO2 T02570203
BYY,2017-04-01 23:15,-95.8634,28.9733,77.70,68.70,73.85,110.00,12.00,0.00,29.85,M,10.00,17.00,BKN,BKN,OVC,M,2100.00,2500.00,10000.00,M,M,KBYY 012315Z AUTO 11012G17KT 10SM BKN021 BKN025 OVC100 25/20 A2985 RMK AO2 T02540204
BYY,2017-04-01 23:35,-95.8634,28.9733,76.10,68.50,77.34,100.00,12.00,0.00,29.85,M,10.00,M,BKN,BKN,BKN,M,1900.00,3100.00,4300.00,M,M,KBYY 012335Z AUTO 10012KT 10SM BKN019 BKN031 BKN043 24/20 A2985 RMK AO2 T02450203
BYY,2017-04-01 23:55,-95.8634,28.9733,75.70,68.70,78.92,100.00,8.00,0.00,29.85,M,10.00,M,BKN,BKN,M,M,1900.00,3200.00,M,M,M,KBYY 012355Z AUTO 10008KT 10SM BKN019 BKN032 23/20 A2985 RMK AO2 T02430204
