#DEBUG: Format Typ    -> comma
#DEBUG: Time Period   -> 2017-04-01 00:00:00+00:00 2017-04-02 00:00:00+00:00
#DEBUG: Time Zone     -> Etc/UTC
#DEBUG: Data Contact   -> daryl herzmann akrherz@iastate.edu 515-294-5978
#DEBUG: Entries Found -> -1
station,valid,lon,lat,tmpf, dwpf, relh, drct, sknt, p01i, alti, mslp, vsby, gust, skyc1, skyc2, skyc3, skyc4, skyl1, skyl2, skyl3, skyl4, presentwx, metar
CAE,2017-04-01 00:00,-81.1181,33.9419,M,M,M,280.00,16.00,M,29.75,M,10.00,M,CLR,M,M,M,M,M,M,M,M,KCAE 010000Z AUTO 28016KT 10SM CLR A2975 RMK MADISHF
CAE,2017-04-01 00:05,-81.1181,33.9419,M,M,M,290.00,11.00,M,29.75,M,10.00,M,CLR,M,M,M,M,M,M,M,M,KCAE 010005Z AUTO 29011KT 10SM CLR A2975 RMK MADISHF
CAE,2017-04-01 00:10,-81.1181,33.9419,M,M,M,290.00,11.00,M,29.76,M,10.00,M,CLR,M,M,M,M,M,M,M,M,KCAE 010010Z AUTO 29011KT 10SM CLR A2976 RMK MADISHF
CAE,2017-04-01 00:15,-81.1181,33.9419,M,M,M,290.00,10.00,M,29.76,M,10.00,M,CLR,M,M,M,M,M,M,M,M,KCAE 010015Z AUTO 29010KT 10SM CLR A2976 RMK MADISHF
CAE,2017-04-01 00:20,-81.1181,33.9419,M,M,M,290.00,15.00,M,29.76,M,10.00,M,CLR,M,M,M,M,M,M,M,M,KCAE 010020Z AUTO 29015KT 10SM CLR A2976 RMK MADISHF
CAE,2017-04-01 00:25,-81.1181,33.9419,M,M,M,290.00,13.00,M,29.76,M,10.00,M,CLR,M,M,M,M,M,M,M,M,KCAE 010025Z AUTO 29013KT 10SM CLR A2976 RMK MADISHF
CAE,2017-04-01 00:30,-81.1181,33.9419,M,M,M,280.00,13.00,M,29.76,M,10.00,M,CLR,M,M,M,M,M,M,M,M,KCAE 010030Z AUTO 28013KT 10SM CLR A2976 RMK MADISHF
CAE,2017-04-01 00:35,-81.1181,33.9419,M,M,M,290.00,13.00,M,29.76,M,10.00,M,CLR,M,M,M,M,M,M,M,M,KCAE 010035Z AUTO 29013KT 10SM CLR A2976 RMK MADISHF
CAE,2017-04-01 00:40,-81.1181,33.9419,M,M,M,290.00,10.00,M,29.77,M,10.00,M,CLR,M,M,M,M,M,M,M,M,KCAE 010040Z AUTO 29010KT 10SM CLR A2977 RMK MADISHF
CAE,2017-04-01 00:45,-81.1181,33.9419,M,M,M,290.00,9.00,M,29.77,M,10.00,M,CLR,M,M,M,M,M,M,M,M,KCAE 010045Z AUTO 29009KT 10SM CLR A2977 RMK MADISHF
CAE,2017-04-01 00:50,-81.1181,33.9419,M,M,M,290.00,8.00,M,29.77,M,10.00,M,CLR,M,M,M,M,M,M,M,M,KCAE 010050Z AUTO 29008KT 10SM CLR A2977 RMK MADISHF
CAE,2017-04-01 00:55,-81.1181,33.9419,M,M,M,290.00,7.00,M,29.77,M,10.00,M,CLR,M,M,M,M,M,M,M,M,KCAE 010055Z AUTO 29007KT 10SM CLR A2977 RMK MADISHF
CAE,2017-04-01 00:56,-81.1181,33.9419,71.10,46.00,40.65,290.00,7.00,0.00,29.77,1008.00,10.00,M,CLR,M,M,M,M,M,M,M,M,KCAE 010056Z 29007KT 10SM CLR 22/08 A2977 RMK AO2 SLP080 T02170078
CAE,2017-04-01 01:00,-81.1181,33.9419,M,M,M,290.00,9.00,M,29.78,M,10.00,M,CLR,M,M,M,M,M,M,M,M,KCAE 010100Z AUTO 29009KT 10SM CLR A2978 RMK MADISHF
CAE,2017-04-01 01:05,-81.1181,33.9419,M,M,M,290.00,11.00,M,29.78,M,10.00,M,CLR,M,M,M,M,M,M,M,M,KCAE 010105Z AUTO 29011KT 10SM CLR A2978 RMK MADISHF
CAE,2017-04-01 01:10,-81.1181,33.9419,M,M,M,290.00,10.00,M,29.79,M,10.00,M,CLR,M,M,M,M,M,M,M,M,KCAE 010110Z AUTO 29010KT 10SM CLR A2979 RMK MADISHF
CAE,2017-04-01 01:15,-81.1181,33.9419,M,M,M,300.00,11.00,M,29.79,M,10.00,M,CLR,M,M,M,M,M,M,M,M,KCAE 010115Z AUTO 30011KT 10SM CLR A2979 RMK MADISHF
CAE,2017-04-01 01:20,-81.1181,33.9419,M,M,M,290.00,9.00,M,29.79,M,10.00,M,CLR,M,M,M,M,M,M,M,M,KCAE 010120Z AUTO 29009KT 10SM CLR A2979 RMK MADISHF
CAE,2017-04-01 01:25,-81.1181,33.9419,M,M,M,280.00,11.00,M,29.79,M,10.00,M,CLR,M,M,M,M,M,M,M,M,KCAE 010125Z AUTO 28011KT 10SM CLR A2979 RMK MADISHF
CAE,2017-04-01 01:30,-81.1181,33.9419,M,M,M,280.00,9.00,M,29.79,M,10.00,M,CLR,M,M,M,M,M,M,M,M,KCAE 010130Z AUTO 28009KT 10SM CLR A2979 RMK MADISHF
CAE,2017-04-01 01:35,-81.1181,33.9419,M,M,M,280.00,9.00,M,29.79,M,10.00,M,CLR,M,M,M,M,M,M,M,M,KCAE 010135Z AUTO 28009KT 10SM CLR A2979 RMK MADISHF
CAE,2017-04-01 01:40,-81.1181,33.9419,M,M,M,280.00,9.00,M,29.80,M,10.00,M,CLR,M,M,M,M,M,M,M,M,KCAE 010140Z AUTO 28009KT 10SM CLR A2980 RMK MADISHF
CAE,2017-04-01 01:45,-81.1181,33.9419,M,M,M,290.00,7.00,M,29.80,M,10.00,M,CLR,M,M,M,M,M,M,M,M,KCAE 010145Z AUTO 29007KT 10SM CLR A2980 RMK MADISHF
CAE,2017-04-01 01:50,-81.1181,33.9419,M,M,M,280.00,7.00,M,29.80,M,10.00,M,CLR,M,M,M,M,M,M,M,M,KCAE 010150Z AUTO 28007KT 10SM CLR A2980 RMK MADISHF
CAE,2017-04-01 01:55,-81.1181,33.9419,M,M,M,290.00,10.00,M,29.81,M,10.00,M,CLR,M,M,M,M,M,M,M,M,KCAE 010155Z AUTO 29010KT 10SM CLR A2981 RMK MADISHF
CAE,2017-04-01 01:56,-81.1181,33.9419,69.10,46.00,43.52,300.00,9.00,0.00,29.81,1009.20,10.00,M,CLR,M,M,M,M,M,M,M,M,KCAE 010156Z 30009KT 10SM CLR 21/08 A2981 RMK AO2 SLP092 T02060078
CAE,2017-04-01 02:00,-81.1181,33.9419,M,M,M,290.00,9.00,M,29.81,M,10.00,M,CLR,M,M,M,M,M,M,M,M,KCAE 010200Z AUTO 29009KT 10SM CLR A2981 RMK MADISHF
CAE,2017-04-01 02:05,-81.1181,33.9419,M,M,M,280.00,8.00,M,29.81,M,10.00,M,CLR,M,M,M,M,M,M,M,M,KCAE 010205Z AUTO 28008KT 10SM CLR A2981 RMK MADISHF
CAE,2017-04-01 02:10,-81.1181,33.9419,M,M,M,290.00,8.00,M,29.81,M,10.00,M,CLR,M,M,M,M,M,M,M,M,KCAE 010210Z AUTO 29008KT 10SM CLR A2981 RMK MADISHF
CAE,2017-04-01 02:15,-81.1181,33.9419,M,M,M,280.00,7.00,M,29.82,M,10.00,M,CLR,M,M,M,M,M,M,M,M,KCAE 010215Z AUTO 28007KT 10SM CLR A2982 RMK MADISHF
CAE,2017-04-01 02:20,-81.1181,33.9419,M,M,M,290.00,8.00,M,29.82,M,10.00,M,CLR,M,M,M,M,M,M,M,M,KCAE 010220Z AUTO 29008KT 10SM CLR A2982 RMK MADISHF
CAE,2017-04-01 02:25,-81.1181,33.9419,M,M,M,280.00,8.00,M,29.82,M,10.00,M,CLR,M,M,M,M,M,M,M,M,KCAE 010225Z AUTO 28008KT 10SM CLR A2982 RMK MADISHF
CAE,2017-04-01 02:30,-81.1181,33.9419,M,M,M,270.00,9.00,M,29.82,M,10.00,M,CLR,M,M,M,M,M,M,M,M,KCAE 010230Z AUTO 27009KT 10SM CLR A2982 RMK MADISHF
CAE,2017-04-01 02:35,-81.1181,33.9419,M,M,M,280.00,10.00,M,29.82,M,10.00,M,CLR,M,M,M,M,M,M,M,M,KCAE 010235Z AUTO 28010KT 10SM CLR A2982 RMK MADISHF
CAE,2017-04-01 02:40,-81.1181,33.9419,M,M,M,280.00,11.00,M,29.83,M,10.00,M,CLR,M,M,M,M,M,M,M,M,KCAE 010240Z AUTO 28011KT 10SM CLR A2983 RMK MADISHF
CAE,2017-04-01 02:45,-81.1181,33.9419,M,M,M,280.00,8.00,M,29.83,M,10.00,M,CLR,M,M,M,M,M,M,M,M,KCAE 010245Z AUTO 28008KT 10SM CLR A2983 RMK MADISHF
CAE,2017-04-01 02:50,-81.1181,33.9419,M,M,M,280.00,9.00,M,29.83,M,10.00,M,CLR,M,M,M,M,M,M,M,M,KCAE 010250Z AUTO 28009KT 10SM CLR A2983 RMK MADISHF
CAE,2017-04-01 02:55,-81.1181,33.9419,M,M,M,280.00,10.00,M,29.83,M,10.00,M,CLR,M,M,M,M,M,M,M,M,KCAE 010255Z AUTO 28010KT 10SM CLR A2983 RMK MADISHF
CAE,2017-04-01 02:56,-81.1181,33.9419,66.90,46.00,46.94,280.00,10.00,0.00,29.83,1010.00,10.00,M,CLR,M,M,M,M,M,M,M,M,KCAE 010256Z 28010KT 10SM CLR 19/08 A2983 RMK AO2 SLP100 T01940078 51029
CAE,2017-04-01 03:00,-81.1181,33.9419,M,M,M,280.00,9.00,M,29.84,M,10.00,M,CLR,M,M,M,M,M,M,M,M,KCAE 010300Z AUTO 28009KT 10SM CLR A2984 RMK MADISHF
CAE,2017-04-01 03:05,-81.1181,33.9419,M,M,M,280.00,9.00,M,29.84,M,10.00,M,CLR,M,M,M,M,M,M,M,M,KCAE 010305Z AUTO 28009KT 10SM CLR A2984 RMK MADISHF
CAE,2017-04-01 03:10,-81.1181,33.9419,M,M,M,280.00,9.00,M,29.84,M,10.00,M,CLR,M,M,M,M,M,M,M,M,KCAE 010310Z AUTO 28009KT 10SM CLR A2984 RMK MADISHF
CAE,2017-04-01 03:15,-81.1181,33.9419,M,M,M,280.00,10.00,M,29.84,M,10.00,M,CLR,M,M,M,M,M,M,M,M,KCAE 010315Z AUTO 28010KT 10SM CLR A2984 RMK MADISHF
CAE,2017-04-01 03:20,-81.1181,33.9419,M,M,M,280.00,11.00,M,29.84,M,10.00,M,CLR,M,M,M,M,M,M,M,M,KCAE 010320Z AUTO 28011KT 10SM CLR A2984 RMK MADISHF
CAE,2017-04-01 03:25,-81.1181,33.9419,M,M,M,280.00,10.00,M,29.84,M,10.00,M,CLR,M,M,M,M,M,M,M,M,KCAE 010325Z AUTO 28010KT 10SM CLR A2984 RMK MADISHF
CAE,2017-04-01 03:30,-81.1181,33.9419,M,M,M,270.00,9.00,M,29.84,M,10.00,M,CLR,M,M,M,M,M,M,M,M,KCAE 010330Z AUTO 27009KT 10SM CLR A2984 RMK MADISHF
CAE,2017-04-01 03:35,-81.1181,33.9419,M,M,M,270.00,9.00,M,29.84,M,10.00,M,CLR,M,M,M,M,M,M,M,M,KCAE 010335Z AUTO 27009KT 10SM CLR A2984 RMK MADISHF
CAE,2017-04-01 03:40,-81.1181,33.9419,M,M,M,280.00,9.00,M,29.84,M,10.00,M,CLR,M,M,M,M,M,M,M,M,KCAE 010340Z AUTO 28009KT 10SM CLR A2984 RMK MADISHF
CAE,2017-04-01 03:45,-81.1181,33.9419,M,M,M,280.00,8.00,M,29.84,M,10.00,M,CLR,M,M,M,M,M,M,M,M,KCAE 010345Z AUTO 28008KT 10SM CLR A2984 RMK MADISHF
CAE,2017-04-01 03:50,-81.1181,33.9419,M,M,M,280.00,7.00,M,29.84,M,10.00,M,CLR,M,M,M,M,M,M,M,M,KCAE 010350Z AUTO 28007KT 10SM CLR A2984 RMK MADISHF
CAE,2017-04-01 03:55,-81.1181,33.9419,M,M,M,290.00,6.00,M,29.85,M,10.00,M,CLR,M,M,M,M,M,M,M,M,KCAE 010355Z AUTO 29006KT 10SM CLR A2985 RMK MADISHF
CAE,2017-04-01 03:56,-81.1181,33.9419,64.90,46.00,50.32,290.00,6.00,0.00,29.85,1010.50,10.00,M,CLR,M,M,M,M,M,M,M,M,KCAE 010356Z 29006KT 10SM CLR 18/08 A2985 RMK AO2 SLP105 T01830078
CAE,2017-04-01 04:00,-81.1181,33.9419,M,M,M,280.00,6.00,M,29.85,M,10.00,M,CLR,M,M,M,M,M,M,M,M,KCAE 010400Z AUTO 28006KT 10SM CLR A2985 RMK MADISHF
CAE,2017-04-01 04:05,-81.1181,33.9419,M,M,M,270.00,9.00,M,29.85,M,10.00,M,CLR,M,M,M,M,M,M,M,M,KCAE 010405Z AUTO 27009KT 10SM CLR A2985 RMK MADISHF
CAE,2017-04-01 04:10,-81.1181,33.9419,M,M,M,270.00,7.00,M,29.85,M,10.00,M,CLR,M,M,M,M,M,M,M,M,KCAE 010410Z AUTO 27007KT 10SM CLR A2985 RMK MADISHF
CAE,2017-04-01 04:15,-81.1181,33.9419,M,M,M,290.00,6.00,M,29.86,M,10.00,M,CLR,M,M,M,M,M,M,M,M,KCAE 010415Z AUTO 29006KT 10SM CLR A2986 RMK MADISHF
CAE,2017-04-01 04:20,-81.1181,33.9419,M,M,M,280.00,5.00,M,29.86,M,10.00,M,CLR,M,M,M,M,M,M,M,M,KCAE 010420Z AUTO 28005KT 10SM CLR A2986 RMK MADISHF
CAE,2017-04-01 04:25,-81.1181,33.9419,M,M,M,270.00,6.00,M,29.86,M,10.00,M,CLR,M,M,M,M,M,M,M,M,KCAE 010425Z AUTO 27006KT 10SM CLR A2986 RMK MADISHF
CAE,2017-04-01 04:30,-81.1181,33.9419,M,M,M,270.00,7.00,M,29.86,M,10.00,M,CLR,M,M,M,M,M,M,M,M,KCAE 010430Z AUTO 27007KT 10SM CLR A2986 RMK MADISHF
CAE,2017-04-01 04:35,-81.1181,33.9419,M,M,M,270.00,6.00,M,29.86,M,10.00,M,CLR,M,M,M,M,M,M,M,M,KCAE 010435Z AUTO 27006KT 10SM CLR A2986 RMK MADISHF
CAE,2017-04-01 04:40,-81.1181,33.9419,M,M,M,290.00,4.00,M,29.86,M,10.00,M,CLR,M,M,M,M,M,M,M,M,KCAE 010440Z AUTO 29004KT 10SM CLR A2986 RMK MADISHF
CAE,2017-04-01 04:45,-81.1181,33.9419,M,M,M,280.00,5.00,M,29.86,M,10.00,M,CLR,M,M,M,M,M,M,M,M,KCAE 010445Z AUTO 28005KT 10SM CLR A2986 RMK MADISHF
CAE,2017-04-01 04:50,-81.1181,33.9419,M,M,M,280.00,6.00,M,29.86,M,10.00,M,CLR,M,M,M,M,M,M,M,M,KCAE 010450Z AUTO 28006KT 10SM CLR A2986 RMK MADISHF
CAE,2017-04-01 04:55,-81.1181,33.9419,M,M,M,260.00,6.00,M,29.86,M,10.00,M,CLR,M,M,M,M,M,M,M,M,KCAE 010455Z AUTO 26006KT 10SM CLR A2986 RMK MADISHF
CAE,2017-04-01 04:56,-81.1181,33.9419,61.00,46.00,57.72,260.00,6.00,0.00,29.86,1011.00,10.00,M,CLR,M,M,M,M,M,M,M,M,KCAE 010456Z 26006KT 10SM CLR 16/08 A2986 RMK AO2 SLP110 T01610078 402780156
CAE,2017-04-01 05:00,-81.1181,33.9419,M,M,M,270.00,6.00,M,29.86,M,10.00,M,CLR,M,M,M,M,M,M,M,M,KCAE 010500Z AUTO 27006KT 10SM CLR A2986 RMK MADISHF
CAE,2017-04-01 05:05,-81.1181,33.9419,M,M,M,280.00,5.00,M,29.87,M,10.00,M,CLR,M,M,M,M,M,M,M,M,KCAE 010505Z AUTO 28005KT 10SM CLR A2987 RMK MADISHF
CAE,2017-04-01 05:10,-81.1181,33.9419,M,M,M,290.00,4.00,M,29.87,M,10.00,M,CLR,M,M,M,M,M,M,M,M,KCAE 010510Z AUTO 29004KT 10SM CLR A2987 RMK MADISHF
CAE,2017-04-01 05:15,-81.1181,33.9419,M,M,M,300.00,4.00,M,29.87,M,10.00,M,CLR,M,M,M,M,M,M,M,M,KCAE 010515Z AUTO 30004KT 10SM CLR A2987 RMK MADISHF
CAE,2017-04-01 05:20,-81.1181,33.9419,M,M,M,290.00,6.00,M,29.87,M,10.00,M,CLR,M,M,M,M,M,M,M,M,KCAE 010520Z AUTO 29006KT 10SM CLR A2987 RMK MADISHF
CAE,2017-04-01 05:25,-81.1181,33.9419,M,M,M,270.00,6.00,M,29.87,M,10.00,M,CLR,M,M,M,M,M,M,M,M,KCAE 010525Z AUTO 27006KT 10SM CLR A2987 RMK MADISHF
CAE,2017-04-01 05:30,-81.1181,33.9419,M,M,M,260.00,6.00,M,29.87,M,10.00,M,CLR,M,M,M,M,M,M,M,M,KCAE 010530Z AUTO 26006KT 10SM CLR A2987 RMK MADISHF
CAE,2017-04-01 05:35,-81.1181,33.9419,M,M,M,260.00,4.00,M,29.87,M,10.00,M,CLR,M,M,M,M,M,M,M,M,KCAE 010535Z AUTO 26004KT 10SM CLR A2987 RMK MADISHF
CAE,2017-04-01 05:40,-81.1181,33.9419,M,M,M,250.00,5.00,M,29.87,M,10.00,M,CLR,M,M,M,M,M,M,M,M,KCAE 010540Z AUTO 25005KT 10SM CLR A2987 RMK MADISHF
CAE,2017-04-01 05:45,-81.1181,33.9419,M,M,M,250.00,5.00,M,29.87,M,10.00,M,CLR,M,M,M,M,M,M,M,M,KCAE 010545Z AUTO 25005KT 10SM CLR A2987 RMK MADISHF
CAE,2017-04-01 05:50,-81.1181,33.9419,M,M,M,260.00,6.00,M,29.87,M,10.00,M,CLR,M,M,M,M,M,M,M,M,KCAE 010550Z AUTO 26006KT 10SM CLR A2987 RMK MADISHF
CAE,2017-04-01 05:55,-81.1181,33.9419,M,M,M,260.00,5.00,M,29.87,M,10.00,M,CLR,M,M,M,M,M,M,M,M,KCAE 010555Z AUTO 26005KT 10SM CLR A2987 RMK MADISHF
CAE,2017-04-01 05:56,-81.1181,33.9419,57.90,46.00,64.47,270.00,5.00,0.00,29.87,1011.30,10.00,M,CLR,M,M,M,M,M,M,M,M,KCAE 010556Z 27005KT 10SM CLR 14/08 A2987 RMK AO2 SLP113 T01440078 10233 20144 51013
CAE,2017-04-01 06:00,-81.1181,33.9419,M,M,M,260.00,5.00,M,29.87,M,10.00,M,CLR,M,M,M,M,M,M,M,M,KCAE 010600Z AUTO 26005KT 10SM CLR A2987 RMK MADISHF
CAE,2017-04-01 06:05,-81.1181,33.9419,M,M,M,280.00,4.00,M,29.87,M,10.00,M,CLR,M,M,M,M,M,M,M,M,KCAE 010605Z AUTO 28004KT 10SM CLR A2987 RMK MADISHF
CAE,2017-04-01 06:10,-81.1181,33.9419,M,M,M,280.00,3.00,M,29.87,M,10.00,M,CLR,M,M,M,M,M,M,M,M,KCAE 010610Z AUTO 28003KT 10SM CLR A2987 RMK MADISHF
CAE,2017-04-01 06:15,-81.1181,33.9419,M,M,M,270.00,4.00,M,29.87,M,10.00,M,CLR,M,M,M,M,M,M,M,M,KCAE 010615Z AUTO 27004KT 10SM CLR A2987 RMK MADISHF
CAE,2017-04-01 06:20,-81.1181,33.9419,M,M,M,270.00,5.00,M,29.87,M,10.00,M,CLR,M,M,M,M,M,M,M,M,KCAE 010620Z AUTO 27005KT 10SM CLR A2987 RMK MADISHF
CAE,2017-04-01 06:25,-81.1181,33.9419,M,M,M,270.00,6.00,M,29.87,M,10.00,M,CLR,M,M,M,M,M,M,M,M,KCAE 010625Z AUTO 27006KT 10SM CLR A2987 RMK MADISHF
CAE,2017-04-01 06:30,-81.1181,33.9419,M,M,M,270.00,6.00,M,29.87,M,10.00,M,CLR,M,M,M,M,M,M,M,M,KCAE 010630Z AUTO 27006KT 10SM CLR A2987 RMK MADISHF
CAE,2017-04-01 06:35,-81.1181,33.9419,M,M,M,270.00,5.00,M,29.87,M,10.00,M,CLR,M,M,M,M,M,M,M,M,KCAE 010635Z AUTO 27005KT 10SM CLR A2987 RMK MADISHF
CAE,2017-04-01 06:40,-81.1181,33.9419,M,M,M,280.00,4.00,M,29.88,M,10.00,M,CLR,M,M,M,M,M,M,M,M,KCAE 010640Z AUTO 28004KT 10SM CLR A2988 RMK MADISHF
CAE,2017-04-01 06:45,-81.1181,33.9419,M,M,M,280.00,4.00,M,29.88,M,10.00,M,CLR,M,M,M,M,M,M,M,M,KCAE 010645Z AUTO 28004KT 10SM CLR A2988 RMK MADISHF
CAE,2017-04-01 06:50,-81.1181,33.9419,M,M,M,270.00,4.00,M,29.88,M,10.00,M,CLR,M,M,M,M,M,M,M,M,KCAE 010650Z AUTO 27004KT 10SM CLR A2988 RMK MADISHF
CAE,2017-04-01 06:55,-81.1181,33.9419,M,M,M,270.00,6.00,M,29.87,M,10.00,M,CLR,M,M,M,M,M,M,M,M,KCAE 010655Z AUTO 27006KT 10SM CLR A2987 RMK MADISHF
CAE,2017-04-01 06:56,-81.1181,33.9419,57.00,46.00,66.59,270.00,6.00,0.00,29.87,1011.40,10.00,M,CLR,M,M,M,M,M,M,M,M,KCAE 010656Z 27006KT 10SM CLR 14/08 A2987 RMK AO2 SLP114 T01390078
CAE,2017-04-01 07:00,-81.1181,33.9419,M,M,M,270.00,6.00,M,29.87,M,10.00,M,CLR,M,M,M,M,M,M,M,M,KCAE 010700Z AUTO 27006KT 10SM CLR A2987 RMK MADISHF
CAE,2017-04-01 07:05,-81.1181,33.9419,M,M,M,270.00,6.00,M,29.87,M,10.00,M,CLR,M,M,M,M,M,M,M,M,KCAE 010705Z AUTO 27006KT 10SM CLR A2987 RMK MADISHF
CAE,2017-04-01 07:10,-81.1181,33.9419,M,M,M,280.00,5.00,M,29.88,M,10.00,M,CLR,M,M,M,M,M,M,M,M,KCAE 010710Z AUTO 28005KT 10SM CLR A2988 RMK MADISHF
CAE,2017-04-01 07:15,-81.1181,33.9419,M,M,M,290.00,4.00,M,29.88,M,10.00,M,CLR,M,M,M,M,M,M,M,M,KCAE 010715Z AUTO 29004KT 10SM CLR A2988 RMK MADISHF
CAE,2017-04-01 07:20,-81.1181,33.9419,M,M,M,280.00,4.00,M,29.88,M,10.00,M,CLR,M,M,M,M,M,M,M,M,KCAE 010720Z AUTO 28004KT 10SM CLR A2988 RMK MADISHF
CAE,2017-04-01 07:25,-81.1181,33.9419,M,M,M,270.00,5.00,M,29.87,M,10.00,M,CLR,M,M,M,M,M,M,M,M,KCAE 010725Z AUTO 27005KT 10SM CLR A2987 RMK MADISHF
CAE,2017-04-01 07:30,-81.1181,33.9419,M,M,M,270.00,5.00,M,29.87,M,10.00,M,CLR,M,M,M,M,M,M,M,M,KCAE 010730Z AUTO 27005KT 10SM CLR A2987 RMK MADISHF
CAE,2017-04-01 07:35,-81.1181,33.9419,M,M,M,270.00,6.00,M,29.87,M,10.00,M,CLR,M,M,M,M,M,M,M,M,KCAE 010735Z AUTO 27006KT 10SM CLR A2987 RMK MADISHF
CAE,2017-04-01 07:40,-81.1181,33.9419,M,M,M,280.00,5.00,M,29.87,M,10.00,M,CLR,M,M,M,M,M,M,M,M,KCAE 010740Z AUTO 28005KT 10SM CLR A2987 RMK MADISHF
CAE,2017-04-01 07:45,-81.1181,33.9419,M,M,M,270.00,5.00,M,29.87,M,10.00,M,CLR,M,M,M,M,M,M,M,M,KCAE 010745Z AUTO 27005KT 10SM CLR A2987 RMK MADISHF
CAE,2017-04-01 07:50,-81.1181,33.9419,M,M,M,270.00,5.00,M,29.88,M,10.00,M,CLR,M,M,M,M,M,M,M,M,KCAE 010750Z AUTO 27005KT 10SM CLR A2988 RMK MADISHF
CAE,2017-04-01 07:55,-81.1181,33.9419,M,M,M,280.00,6.00,M,29.88,M,10.00,M,CLR,M,M,M,M,M,M,M,M,KCAE 010755Z AUTO 28006KT 10SM CLR A2988 RMK MADISHF
CAE,2017-04-01 07:56,-81.1181,33.9419,55.00,46.00,71.60,280.00,6.00,0.00,29.88,1011.50,10.00,M,CLR,M,M,M,M,M,M,M,M,KCAE 010756Z 28006KT 10SM CLR 13/08 A2988 RMK AO2 SLP115 T01280078
CAE,2017-04-01 08:00,-81.1181,33.9419,M,M,M,280.00,7.00,M,29.88,M,10.00,M,CLR,M,M,M,M,M,M,M,M,KCAE 010800Z AUTO 28007KT 10SM CLR A2988 RMK MADISHF
CAE,2017-04-01 08:05,-81.1181,33.9419,M,M,M,270.00,7.00,M,29.88,M,10.00,M,CLR,M,M,M,M,M,M,M,M,KCAE 010805Z AUTO 27007KT 10SM CLR A2988 RMK MADISHF
CAE,2017-04-01 08:10,-81.1181,33.9419,M,M,M,280.00,6.00,M,29.88,M,10.00,M,CLR,M,M,M,M,M,M,M,M,KCAE 010810Z AUTO 28006KT 10SM CLR A2988 RMK MADISHF
CAE,2017-04-01 08:15,-81.1181,33.9419,M,M,M,280.00,5.00,M,29.88,M,10.00,M,CLR,M,M,M,M,M,M,M,M,KCAE 010815Z AUTO 28005KT 10SM CLR A2988 RMK MADISHF
CAE,2017-04-01 08:20,-81.1181,33.9419,M,M,M,270.00,4.00,M,29.88,M,10.00,M,CLR,M,M,M,M,M,M,M,M,KCAE 010820Z AUTO 27004KT 10SM CLR A2988 RMK MADISHF
CAE,2017-04-01 08:25,-81.1181,33.9419,M,M,M,270.00,4.00,M,29.88,M,10.00,M,CLR,M,M,M,M,M,M,M,M,KCAE 010825Z AUTO 27004KT 10SM CLR A2988 RMK MADISHF
CAE,2017-04-01 08:30,-81.1181,33.9419,M,M,M,260.00,5.00,M,29.89,M,10.00,M,CLR,M,M,M,M,M,M,M,M,KCAE 010830Z AUTO 26005KT 10SM CLR A2989 RMK MADISHF
CAE,2017-04-01 08:35,-81.1181,33.9419,M,M,M,260.00,5.00,M,29.89,M,10.00,M,CLR,M,M,M,M,M,M,M,M,KCAE 010835Z AUTO 26005KT 10SM CLR A2989 RMK MADISHF
CAE,2017-04-01 08:40,-81.1181,33.9419,M,M,M,270.00,4.00,M,29.89,M,10.00,M,CLR,M,M,M,M,M,M,M,M,KCAE 010840Z AUTO 27004KT 10SM CLR A2989 RMK MADISHF
CAE,2017-04-01 08:45,-81.1181,33.9419,M,M,M,270.00,3.00,M,29.89,M,10.00,M,CLR,M,M,M,M,M,M,M,M,KCAE 010845Z AUTO 27003KT 10SM CLR A2989 RMK MADISHF
CAE,2017-04-01 08:50,-81.1181,33.9419,M,M,M,200.00,3.00,M,29.89,M,10.00,M,CLR,M,M,M,M,M,M,M,M,KCAE 010850Z AUTO 20003KT 10SM CLR A2989 RMK MADISHF
CAE,2017-04-01 08:55,-81.1181,33.9419,M,M,M,190.00,4.00,M,29.89,M,10.00,M,CLR,M,M,M,M,M,M,M,M,KCAE 010855Z AUTO 19004KT 10SM CLR A2989 RMK MADISHF
CAE,2017-04-01 08:56,-81.1181,33.9419,53.10,46.90,79.40,190.00,4.00,0.00,29.89,1011.90,10.00,M,CLR,M,M,M,M,M,M,M,M,KCAE 010856Z 19004KT 10SM CLR 12/08 A2989 RMK AO2 SLP119 T01170083 53006
CAE,2017-04-01 09:00,-81.1181,33.9419,M,M,M,200.00,4.00,M,29.89,M,10.00,M,CLR,M,M,M,M,M,M,M,M,KCAE 010900Z AUTO 20004KT 10SM CLR A2989 RMK MADISHF
CAE,2017-04-01 09:05,-81.1181,33.9419,M,M,M,210.00,4.00,M,29.89,M,10.00,M,CLR,M,M,M,M,M,M,M,M,KCAE 010905Z AUTO 21004KT 10SM CLR A2989 RMK MADISHF
CAE,2017-04-01 09:10,-81.1181,33.9419,M,M,M,210.00,4.00,M,29.89,M,10.00,M,CLR,M,M,M,M,M,M,M,M,KCAE 010910Z AUTO 21004KT 10SM CLR A2989 RMK MADISHF
CAE,2017-04-01 09:15,-81.1181,33.9419,M,M,M,220.00,4.00,M,29.90,M,10.00,M,CLR,M,M,M,M,M,M,M,M,KCAE 010915Z AUTO 22004KT 10SM CLR A2990 RMK MADISHF
CAE,2017-04-01 09:20,-81.1181,33.9419,M,M,M,230.00,3.00,M,29.90,M,10.00,M,CLR,M,M,M,M,M,M,M,M,KCAE 010920Z AUTO 23003KT 10SM CLR A2990 RMK MADISHF
CAE,2017-04-01 09:25,-81.1181,33.9419,M,M,M,230.00,3.00,M,29.90,M,10.00,M,CLR,M,M,M,M,M,M,M,M,KCAE 010925Z AUTO 23003KT 10SM CLR A2990 RMK MADISHF
CAE,2017-04-01 09:30,-81.1181,33.9419,M,M,M,0.00,0.00,M,29.90,M,10.00,M,CLR,M,M,M,M,M,M,M,M,KCAE 010930Z AUTO 00000KT 10SM CLR A2990 RMK MADISHF
CAE,2017-04-01 09:35,-81.1181,33.9419,M,M,M,250.00,3.00,M,29.90,M,10.00,M,CLR,M,M,M,M,M,M,M,M,KCAE 010935Z AUTO 25003KT 10SM CLR A2990 RMK MADISHF
CAE,2017-04-01 09:40,-81.1181,33.9419,M,M,M,250.00,4.00,M,29.91,M,10.00,M,CLR,M,M,M,M,M,M,M,M,KCAE 010940Z AUTO 25004KT 10SM CLR A2991 RMK MADISHF
CAE,2017-04-01 09:45,-81.1181,33.9419,M,M,M,250.00,4.00,M,29.91,M,10.00,M,CLR,M,M,M,M,M,M,M,M,KCAE 010945Z AUTO 25004KT 10SM CLR A2991 RMK MADISHF
CAE,2017-04-01 09:50,-81.1181,33.9419,M,M,M,250.00,4.00,M,29.91,M,10.00,M,CLR,M,M,M,M,M,M,M,M,KCAE 010950Z AUTO 25004KT 10SM CLR A2991 RMK MADISHF
CAE,2017-04-01 09:55,-81.1181,33.9419,M,M,M,250.00,4.00,M,29.91,M,10.00,M,CLR,M,M,M,M,M,M,M,M,KCAE 010955Z AUTO 25004KT 10SM CLR A2991 RMK MADISHF
CAE,2017-04-01 09:56,-81.1181,33.9419,51.10,45.00,79.54,250.00,4.00,0.00,29.91,1012.60,10.00,M,CLR,M,M,M,M,M,M,M,M,KCAE 010956Z 25004KT 10SM CLR 11/07 A2991 RMK AO2 SLP126 T01060072
CAE,2017-04-01 10:00,-81.1181,33.9419,M,M,M,250.00,4.00,M,29.91,M,10.00,M,CLR,M,M,M,M,M,M,M,M,KCAE 011000Z AUTO 25004KT 10SM CLR A2991 RMK MADISHF
CAE,2017-04-01 10:05,-81.1181,33.9419,M,M,M,250.00,4.00,M,29.91,M,10.00,M,CLR,M,M,M,M,M,M,M,M,KCAE 011005Z AUTO 25004KT 10SM CLR A2991 RMK MADISHF
CAE,2017-04-01 10:10,-81.1181,33.9419,M,M,M,250.00,4.00,M,29.91,M,10.00,M,CLR,M,M,M,M,M,M,M,M,KCAE 011010Z AUTO 25004KT 10SM CLR A2991 RMK MADISHF
CAE,2017-04-01 10:15,-81.1181,33.9419,M,M,M,260.00,4.00,M,29.91,M,10.00,M,CLR,M,M,M,M,M,M,M,M,KCAE 011015Z AUTO 26004KT 10SM CLR A2991 RMK MADISHF
CAE,2017-04-01 10:20,-81.1181,33.9419,M,M,M,260.00,5.00,M,29.91,M,10.00,M,CLR,M,M,M,M,M,M,M,M,KCAE 011020Z AUTO 26005KT 10SM CLR A2991 RMK MADISHF
CAE,2017-04-01 10:25,-81.1181,33.9419,M,M,M,270.00,5.00,M,29.92,M,10.00,M,CLR,M,M,M,M,M,M,M,M,KCAE 011025Z AUTO 27005KT 10SM CLR A2992 RMK MADISHF
CAE,2017-04-01 10:30,-81.1181,33.9419,M,M,M,270.00,5.00,M,29.92,M,10.00,M,CLR,M,M,M,M,M,M,M,M,KCAE 011030Z AUTO 27005KT 10SM CLR A2992 RMK MADISHF
CAE,2017-04-01 10:35,-81.1181,33.9419,M,M,M,280.00,5.00,M,29.92,M,10.00,M,CLR,M,M,M,M,M,M,M,M,KCAE 011035Z AUTO 28005KT 10SM CLR A2992 RMK MADISHF
CAE,2017-04-01 10:40,-81.1181,33.9419,M,M,M,280.00,4.00,M,29.92,M,10.00,M,CLR,M,M,M,M,M,M,M,M,KCAE 011040Z AUTO 28004KT 10SM CLR A2992 RMK MADISHF
CAE,2017-04-01 10:45,-81.1181,33.9419,M,M,M,280.00,5.00,M,29.93,M,10.00,M,CLR,M,M,M,M,M,M,M,M,KCAE 011045Z AUTO 28005KT 10SM CLR A2993 RMK MADISHF
CAE,2017-04-01 10:50,-81.1181,33.9419,M,M,M,270.00,5.00,M,29.93,M,10.00,M,CLR,M,M,M,M,M,M,M,M,KCAE 011050Z AUTO 27005KT 10SM CLR A2993 RMK MADISHF
CAE,2017-04-01 10:55,-81.1181,33.9419,M,M,M,270.00,5.00,M,29.93,M,10.00,M,CLR,M,M,M,M,M,M,M,M,KCAE 011055Z AUTO 27005KT 10SM CLR A2993 RMK MADISHF
CAE,2017-04-01 10:56,-81.1181,33.9419,50.00,45.00,82.86,280.00,5.00,0.00,29.93,1013.30,10.00,M,CLR,M,M,M,M,M,M,M,M,KCAE 011056Z 28005KT 10SM CLR 10/07 A2993 RMK AO2 SLP133 T01000072
CAE,2017-04-01 11:00,-81.1181,33.9419,M,M,M,280.00,4.00,M,29.93,M,10.00,M,CLR,M,M,M,M,M,M,M,M,KCAE 011100Z AUTO 28004KT 10SM CLR A2993 RMK MADISHF
CAE,2017-04-01 11:05,-81.1181,33.9419,M,M,M,270.00,4.00,M,29.93,M,10.00,M,CLR,M,M,M,M,M,M,M,M,KCAE 011105Z AUTO 27004KT 10SM CLR A2993 RMK MADISHF
CAE,2017-04-01 11:10,-81.1181,33.9419,M,M,M,250.00,3.00,M,29.93,M,10.00,M,CLR,M,M,M,M,M,M,M,M,KCAE 011110Z AUTO 25003KT 10SM CLR A2993 RMK MADISHF
CAE,2017-04-01 11:15,-81.1181,33.9419,M,M,M,0.00,0.00,M,29.94,M,10.00,M,CLR,M,M,M,M,M,M,M,M,KCAE 011115Z AUTO 00000KT 10SM CLR A2994 RMK MADISHF
CAE,2017-04-01 11:20,-81.1181,33.9419,M,M,M,240.00,3.00,M,29.94,M,10.00,M,CLR,M,M,M,M,M,M,M,M,KCAE 011120Z AUTO 24003KT 10SM CLR A2994 RMK MADISHF
CAE,2017-04-01 11:25,-81.1181,33.9419,M,M,M,0.00,0.00,M,29.95,M,10.00,M,CLR,M,M,M,M,M,M,M,M,KCAE 011125Z AUTO 00000KT 10SM CLR A2995 RMK MADISHF
CAE,2017-04-01 11:30,-81.1181,33.9419,M,M,M,240.00,3.00,M,29.95,M,10.00,M,CLR,M,M,M,M,M,M,M,M,KCAE 011130Z AUTO 24003KT 10SM CLR A2995 RMK MADISHF
CAE,2017-04-01 11:35,-81.1181,33.9419,M,M,M,0.00,0.00,M,29.95,M,10.00,M,CLR,M,M,M,M,M,M,M,M,KCAE 011135Z AUTO 00000KT 10SM CLR A2995 RMK MADISHF
CAE,2017-04-01 11:40,-81.1181,33.9419,M,M,M,0.00,0.00,M,29.95,M,10.00,M,CLR,M,M,M,M,M,M,M,M,KCAE 011140Z AUTO 00000KT 10SM CLR A2995 RMK MADISHF
CAE,2017-04-01 11:45,-81.1181,33.9419,M,M,M,0.00,0.00,M,29.96,M,10.00,M,CLR,M,M,M,M,M,M,M,M,KCAE 011145Z AUTO 00000KT 10SM CLR A2996 RMK MADISHF
CAE,2017-04-01 11:50,-81.1181,33.9419,M,M,M,230.00,3.00,M,29.96,M,10.00,M,CLR,M,M,M,M,M,M,M,M,KCAE 011150Z AUTO 23003KT 10SM CLR A2996 RMK VRB03KT  MADISHF
CAE,2017-04-01 11:55,-81.1181,33.9419,M,M,M,250.00,4.00,M,29.96,M,10.00,M,CLR,M,M,M,M,M,M,M,M,KCAE 011155Z AUTO 25004KT 10SM CLR A2996 RMK MADISHF
CAE,2017-04-01 11:56,-81.1181,33.9419,53.10,46.90,79.40,250.00,4.00,0.00,29.96,1014.30,10.00,M,CLR,M,M,M,M,M,M,M,M,KCAE 011156Z 25004KT 10SM CLR 12/08 A2996 RMK AO2 SLP143 70009 T01170083 10156 20094 53023
CAE,2017-04-01 12:00,-81.1181,33.9419,M,M,M,250.00,4.00,M,29.96,M,10.00,M,CLR,M,M,M,M,M,M,M,M,KCAE 011200Z AUTO 25004KT 10SM CLR A2996 RMK MADISHF
CAE,2017-04-01 12:05,-81.1181,33.9419,M,M,M,250.00,3.00,M,29.96,M,10.00,M,CLR,M,M,M,M,M,M,M,M,KCAE 011205Z AUTO 25003KT 10SM CLR A2996 RMK MADISHF
CAE,2017-04-01 12:10,-81.1181,33.9419,M,M,M,240.00,3.00,M,29.97,M,10.00,M,CLR,M,M,M,M,M,M,M,M,KCAE 011210Z AUTO 24003KT 10SM CLR A2997 RMK MADISHF
CAE,2017-04-01 12:15,-81.1181,33.9419,M,M,M,260.00,3.00,M,29.97,M,10.00,M,CLR,M,M,M,M,M,M,M,M,KCAE 011215Z AUTO 26003KT 10SM CLR A2997 RMK MADISHF
CAE,2017-04-01 12:20,-81.1181,33.9419,M,M,M,260.00,4.00,M,29.97,M,10.00,M,CLR,M,M,M,M,M,M,M,M,KCAE 011220Z AUTO 26004KT 10SM CLR A2997 RMK MADISHF
CAE,2017-04-01 12:25,-81.1181,33.9419,M,M,M,260.00,4.00,M,29.97,M,10.00,M,CLR,M,M,M,M,M,M,M,M,KCAE 011225Z AUTO 26004KT 10SM CLR A2997 RMK MADISHF
CAE,2017-04-01 12:30,-81.1181,33.9419,M,M,M,270.00,5.00,M,29.97,M,10.00,M,CLR,M,M,M,M,M,M,M,M,KCAE 011230Z AUTO 27005KT 10SM CLR A2997 RMK MADISHF
CAE,2017-04-01 12:35,-81.1181,33.9419,M,M,M,290.00,6.00,M,29.97,M,10.00,M,CLR,M,M,M,M,M,M,M,M,KCAE 011235Z AUTO 29006KT 10SM CLR A2997 RMK MADISHF
CAE,2017-04-01 12:40,-81.1181,33.9419,M,M,M,270.00,7.00,M,29.97,M,10.00,M,CLR,M,M,M,M,M,M,M,M,KCAE 011240Z AUTO 27007KT 10SM CLR A2997 RMK MADISHF
CAE,2017-04-01 12:45,-81.1181,33.9419,M,M,M,280.00,6.00,M,29.97,M,10.00,M,CLR,M,M,M,M,M,M,M,M,KCAE 011245Z AUTO 28006KT 10SM CLR A2997 RMK MADISHF
CAE,2017-04-01 12:50,-81.1181,33.9419,M,M,M,280.00,7.00,M,29.97,M,10.00,M,CLR,M,M,M,M,M,M,M,M,KCAE 011250Z AUTO 28007KT 10SM CLR A2997 RMK MADISHF
CAE,2017-04-01 12:55,-81.1181,33.9419,M,M,M,280.00,6.00,M,29.98,M,10.00,M,CLR,M,M,M,M,M,M,M,M,KCAE 011255Z AUTO 28006KT 10SM CLR A2998 RMK MADISHF
CAE,2017-04-01 12:56,-81.1181,33.9419,62.10,48.00,59.86,280.00,6.00,0.00,29.98,1014.80,10.00,M,CLR,M,M,M,M,M,M,M,M,KCAE 011256Z 28006KT 10SM CLR 17/09 A2998 RMK AO2 SLP148 T01670089
CAE,2017-04-01 13:00,-81.1181,33.9419,M,M,M,290.00,7.00,M,29.98,M,10.00,M,CLR,M,M,M,M,M,M,M,M,KCAE 011300Z AUTO 29007KT 10SM CLR A2998 RMK MADISHF
CAE,2017-04-01 13:05,-81.1181,33.9419,M,M,M,310.00,6.00,M,29.98,M,10.00,M,CLR,M,M,M,M,M,M,M,M,KCAE 011305Z AUTO 31006KT 10SM CLR A2998 RMK MADISHF
CAE,2017-04-01 13:10,-81.1181,33.9419,M,M,M,300.00,8.00,M,29.98,M,10.00,M,CLR,M,M,M,M,M,M,M,M,KCAE 011310Z AUTO 30008KT 10SM CLR A2998 RMK MADISHF
CAE,2017-04-01 13:15,-81.1181,33.9419,M,M,M,290.00,8.00,M,29.98,M,10.00,M,CLR,M,M,M,M,M,M,M,M,KCAE 011315Z AUTO 29008KT 10SM CLR A2998 RMK MADISHF
CAE,2017-04-01 13:20,-81.1181,33.9419,M,M,M,310.00,7.00,M,29.98,M,10.00,M,CLR,M,M,M,M,M,M,M,M,KCAE 011320Z AUTO 31007KT 10SM CLR A2998 RMK MADISHF
CAE,2017-04-01 13:25,-81.1181,33.9419,M,M,M,310.00,6.00,M,29.98,M,10.00,M,CLR,M,M,M,M,M,M,M,M,KCAE 011325Z AUTO 31006KT 10SM CLR A2998 RMK MADISHF
CAE,2017-04-01 13:30,-81.1181,33.9419,M,M,M,320.00,7.00,M,29.98,M,10.00,M,CLR,M,M,M,M,M,M,M,M,KCAE 011330Z AUTO 32007KT 10SM CLR A2998 RMK MADISHF
CAE,2017-04-01 13:35,-81.1181,33.9419,M,M,M,330.00,6.00,M,29.98,M,10.00,M,CLR,M,M,M,M,M,M,M,M,KCAE 011335Z AUTO 33006KT 10SM CLR A2998 RMK MADISHF
CAE,2017-04-01 13:40,-81.1181,33.9419,M,M,M,340.00,5.00,M,29.98,M,10.00,M,CLR,M,M,M,M,M,M,M,M,KCAE 011340Z AUTO 34005KT 10SM CLR A2998 RMK MADISHF
CAE,2017-04-01 13:45,-81.1181,33.9419,M,M,M,330.00,5.00,M,29.98,M,10.00,M,CLR,M,M,M,M,M,M,M,M,KCAE 011345Z AUTO 33005KT 10SM CLR A2998 RMK MADISHF
CAE,2017-04-01 13:50,-81.1181,33.9419,M,M,M,340.00,8.00,M,29.98,M,10.00,M,CLR,M,M,M,M,M,M,M,M,KCAE 011350Z AUTO 34008KT 10SM CLR A2998 RMK MADISHF
CAE,2017-04-01 13:55,-81.1181,33.9419,M,M,M,330.00,7.00,M,29.98,M,10.00,M,CLR,M,M,M,M,M,M,M,M,KCAE 011355Z AUTO 33007KT 10SM CLR A2998 RMK MADISHF
CAE,2017-04-01 13:56,-81.1181,33.9419,66.00,46.90,50.10,330.00,7.00,0.00,29.98,1015.10,10.00,M,CLR,M,M,M,M,M,M,M,M,KCAE 011356Z 33007KT 10SM CLR 19/08 A2998 RMK AO2 SLP151 T01890083
CAE,2017-04-01 14:00,-81.1181,33.9419,M,M,M,330.00,5.00,M,29.98,M,10.00,M,CLR,M,M,M,M,M,M,M,M,KCAE 011400Z AUTO 33005KT 10SM CLR A2998 RMK MADISHF
CAE,2017-04-01 14:05,-81.1181,33.9419,M,M,M,330.00,7.00,M,29.98,M,10.00,M,CLR,M,M,M,M,M,M,M,M,KCAE 011405Z AUTO 33007KT 10SM CLR A2998 RMK MADISHF
CAE,2017-04-01 14:10,-81.1181,33.9419,M,M,M,330.00,6.00,M,29.98,M,10.00,M,CLR,M,M,M,M,M,M,M,M,KCAE 011410Z AUTO 33006KT 10SM CLR A2998 RMK MADISHF
CAE,2017-04-01 14:15,-81.1181,33.9419,M,M,M,330.00,5.00,M,29.98,M,10.00,M,CLR,M,M,M,M,M,M,M,M,KCAE 011415Z AUTO 33005KT 10SM CLR A2998 RMK MADISHF
CAE,2017-04-01 14:20,-81.1181,33.9419,M,M,M,310.00,7.00,M,29.99,M,10.00,M,CLR,M,M,M,M,M,M,M,M,KCAE 011420Z AUTO 31007KT 10SM CLR A2999 RMK MADISHF
CAE,2017-04-01 14:25,-81.1181,33.9419,M,M,M,320.00,7.00,M,29.99,M,10.00,M,CLR,M,M,M,M,M,M,M,M,KCAE 011425Z AUTO 32007KT 10SM CLR A2999 RMK MADISHF
CAE,2017-04-01 14:30,-81.1181,33.9419,M,M,M,320.00,6.00,M,29.99,M,10.00,M,CLR,M,M,M,M,M,M,M,M,KCAE 011430Z AUTO 32006KT 10SM CLR A2999 RMK MADISHF
CAE,2017-04-01 14:35,-81.1181,33.9419,M,M,M,330.00,6.00,M,29.99,M,10.00,M,CLR,M,M,M,M,M,M,M,M,KCAE 011435Z AUTO 33006KT 10SM CLR A2999 RMK MADISHF
CAE,2017-04-01 14:40,-81.1181,33.9419,M,M,M,320.00,5.00,M,29.99,M,10.00,M,CLR,M,M,M,M,M,M,M,M,KCAE 011440Z AUTO 32005KT 10SM CLR A2999 RMK VRB05KT  MADISHF
CAE,2017-04-01 14:45,-81.1181,33.9419,M,M,M,320.00,4.00,M,29.99,M,10.00,M,CLR,M,M,M,M,M,M,M,M,KCAE 011445Z AUTO 32004KT 10SM CLR A2999 RMK VRB04KT  MADISHF
CAE,2017-04-01 14:50,-81.1181,33.9419,M,M,M,340.00,8.00,M,29.99,M,10.00,M,CLR,M,M,M,M,M,M,M,M,KCAE 011450Z AUTO 34008KT 10SM CLR A2999 RMK MADISHF
CAE,2017-04-01 14:55,-81.1181,33.9419,M,M,M,330.00,5.00,M,29.99,M,10.00,M,CLR,M,M,M,M,M,M,M,M,KCAE 011455Z AUTO 33005KT 10SM CLR A2999 RMK MADISHF
CAE,2017-04-01 14:56,-81.1181,33.9419,69.10,48.00,46.92,M,5.00,0.00,29.99,1015.30,10.00,M,CLR,M,M,M,M,M,M,M,M,KCAE 011456Z VRB05KT 10SM CLR 21/09 A2999 RMK AO2 SLP153 T02060089 51010
CAE,2017-04-01 15:00,-81.1181,33.9419,M,M,M,290.00,8.00,M,29.99,M,10.00,M,CLR,M,M,M,M,M,M,M,M,KCAE 011500Z AUTO 29008KT 10SM CLR A2999 RMK MADISHF
CAE,2017-04-01 15:05,-81.1181,33.9419,M,M,M,280.00,7.00,M,29.99,M,10.00,M,CLR,M,M,M,M,M,M,M,M,KCAE 011505Z AUTO 28007KT 10SM CLR A2999 RMK MADISHF
CAE,2017-04-01 15:10,-81.1181,33.9419,M,M,M,320.00,7.00,M,29.99,M,10.00,M,CLR,M,M,M,M,M,M,M,M,KCAE 011510Z AUTO 32007KT 10SM CLR A2999 RMK MADISHF
CAE,2017-04-01 15:15,-81.1181,33.9419,M,M,M,300.00,5.00,M,29.99,M,10.00,M,CLR,M,M,M,M,M,M,M,M,KCAE 011515Z AUTO 30005KT 10SM CLR A2999 RMK MADISHF
CAE,2017-04-01 15:20,-81.1181,33.9419,M,M,M,270.00,10.00,M,29.99,M,10.00,M,CLR,M,M,M,M,M,M,M,M,KCAE 011520Z AUTO 27010KT 10SM CLR A2999 RMK MADISHF
CAE,2017-04-01 15:25,-81.1181,33.9419,M,M,M,290.00,8.00,M,29.99,M,10.00,M,CLR,M,M,M,M,M,M,M,M,KCAE 011525Z AUTO 29008KT 10SM CLR A2999 RMK MADISHF
CAE,2017-04-01 15:30,-81.1181,33.9419,M,M,M,290.00,7.00,M,29.99,M,10.00,M,CLR,M,M,M,M,M,M,M,M,KCAE 011530Z AUTO 29007KT 10SM CLR A2999 RMK MADISHF
CAE,2017-04-01 15:35,-81.1181,33.9419,M,M,M,300.00,7.00,M,29.99,M,10.00,M,CLR,M,M,M,M,M,M,M,M,KCAE 011535Z AUTO 30007KT 10SM CLR A2999 RMK MADISHF
CAE,2017-04-01 15:40,-81.1181,33.9419,M,M,M,310.00,6.00,M,29.99,M,10.00,M,CLR,M,M,M,M,M,M,M,M,KCAE 011540Z AUTO 31006KT 10SM CLR A2999 RMK MADISHF
CAE,2017-04-01 15:45,-81.1181,33.9419,M,M,M,280.00,10.00,M,29.99,M,10.00,M,CLR,M,M,M,M,M,M,M,M,KCAE 011545Z AUTO 28010KT 10SM CLR A2999 RMK MADISHF
CAE,2017-04-01 15:50,-81.1181,33.9419,M,M,M,270.00,8.00,M,29.99,M,10.00,M,CLR,M,M,M,M,M,M,M,M,KCAE 011550Z AUTO 27008KT 10SM CLR A2999 RMK MADISHF
CAE,2017-04-01 15:55,-81.1181,33.9419,M,M,M,280.00,8.00,M,29.99,M,10.00,M,CLR,M,M,M,M,M,M,M,M,KCAE 011555Z AUTO 28008KT 10SM CLR A2999 RMK MADISHF
CAE,2017-04-01 15:56,-81.1181,33.9419,72.00,48.00,42.51,280.00,8.00,0.00,29.99,1015.40,10.00,M,CLR,M,M,M,M,M,M,M,M,KCAE 011556Z 28008KT 10SM CLR 22/09 A2999 RMK AO2 SLP154 T02220089
CAE,2017-04-01 16:00,-81.1181,33.9419,M,M,M,300.00,8.00,M,29.99,M,10.00,M,CLR,M,M,M,M,M,M,M,M,KCAE 011600Z AUTO 30008KT 10SM CLR A2999 RMK MADISHF
CAE,2017-04-01 16:05,-81.1181,33.9419,M,M,M,280.00,8.00,M,29.99,M,10.00,M,CLR,M,M,M,M,M,M,M,M,KCAE 011605Z AUTO 28008KT 10SM CLR A2999 RMK MADISHF
CAE,2017-04-01 16:10,-81.1181,33.9419,M,M,M,290.00,9.00,M,29.99,M,10.00,M,CLR,M,M,M,M,M,M,M,M,KCAE 011610Z AUTO 29009KT 10SM CLR A2999 RMK MADISHF
CAE,2017-04-01 16:15,-81.1181,33.9419,M,M,M,280.00,9.00,M,29.99,M,10.00,M,CLR,M,M,M,M,M,M,M,M,KCAE 011615Z AUTO 28009KT 10SM CLR A2999 RMK MADISHF
CAE,2017-04-01 16:20,-81.1181,33.9419,M,M,M,270.00,9.00,M,29.99,M,10.00,M,CLR,M,M,M,M,M,M,M,M,KCAE 011620Z AUTO 27009KT 10SM CLR A2999 RMK MADISHF
CAE,2017-04-01 16:25,-81.1181,33.9419,M,M,M,280.00,10.00,M,29.99,M,10.00,M,CLR,M,M,M,M,M,M,M,M,KCAE 011625Z AUTO 28010KT 10SM CLR A2999 RMK MADISHF
CAE,2017-04-01 16:30,-81.1181,33.9419,M,M,M,280.00,9.00,M,29.99,M,10.00,M,CLR,M,M,M,M,M,M,M,M,KCAE 011630Z AUTO 28009KT 10SM CLR A2999 RMK MADISHF
CAE,2017-04-01 16:35,-81.1181,33.9419,M,M,M,290.00,8.00,M,29.98,M,10.00,M,CLR,M,M,M,M,M,M,M,M,KCAE 011635Z AUTO 29008KT 10SM CLR A2998 RMK MADISHF
CAE,2017-04-01 16:40,-81.1181,33.9419,M,M,M,310.00,9.00,M,29.98,M,10.00,M,CLR,M,M,M,M,M,M,M,M,KCAE 011640Z AUTO 31009KT 10SM CLR A2998 RMK MADISHF
CAE,2017-04-01 16:45,-81.1181,33.9419,M,M,M,310.00,7.00,M,29.98,M,10.00,M,CLR,M,M,M,M,M,M,M,M,KCAE 011645Z AUTO 31007KT 10SM CLR A2998 RMK WND 29V35  MADISHF
CAE,2017-04-01 16:50,-81.1181,33.9419,M,M,M,330.00,6.00,M,29.98,M,10.00,M,CLR,M,M,M,M,M,M,M,M,KCAE 011650Z AUTO 33006KT 10SM CLR A2998 RMK MADISHF
CAE,2017-04-01 16:55,-81.1181,33.9419,M,M,M,280.00,8.00,M,29.98,M,10.00,M,CLR,M,M,M,M,M,M,M,M,KCAE 011655Z AUTO 28008KT 10SM CLR A2998 RMK MADISHF
CAE,2017-04-01 16:56,-81.1181,33.9419,73.90,48.00,39.87,280.00,9.00,0.00,29.98,1014.90,10.00,14.00,CLR,M,M,M,M,M,M,M,M,KCAE 011656Z 28009G14KT 10SM CLR 23/09 A2998 RMK AO2 SLP149 T02330089
CAE,2017-04-01 17:00,-81.1181,33.9419,M,M,M,290.00,11.00,M,29.98,M,10.00,M,CLR,M,M,M,M,M,M,M,M,KCAE 011700Z AUTO 29011KT 10SM CLR A2998 RMK MADISHF
CAE,2017-04-01 17:05,-81.1181,33.9419,M,M,M,280.00,8.00,M,29.98,M,10.00,M,CLR,M,M,M,M,M,M,M,M,KCAE 011705Z AUTO 28008KT 10SM CLR A2998 RMK MADISHF
CAE,2017-04-01 17:10,-81.1181,33.9419,M,M,M,290.00,9.00,M,29.98,M,10.00,14.00,CLR,M,M,M,M,M,M,M,M,KCAE 011710Z AUTO 29009G14KT 10SM CLR A2998 RMK MADISHF
CAE,2017-04-01 17:15,-81.1181,33.9419,M,M,M,280.00,9.00,M,29.98,M,10.00,M,CLR,M,M,M,M,M,M,M,M,KCAE 011715Z AUTO 28009KT 10SM CLR A2998 RMK MADISHF
CAE,2017-04-01 17:20,-81.1181,33.9419,M,M,M,270.00,11.00,M,29.98,M,10.00,M,CLR,M,M,M,M,M,M,M,M,KCAE 011720Z AUTO 27011KT 10SM CLR A2998 RMK MADISHF
CAE,2017-04-01 17:25,-81.1181,33.9419,M,M,M,280.00,11.00,M,29.98,M,10.00,M,CLR,M,M,M,M,M,M,M,M,KCAE 011725Z AUTO 28011KT 10SM CLR A2998 RMK MADISHF
CAE,2017-04-01 17:30,-81.1181,33.9419,M,M,M,300.00,9.00,M,29.98,M,10.00,M,CLR,M,M,M,M,M,M,M,M,KCAE 011730Z AUTO 30009KT 10SM CLR A2998 RMK WND 27V34  MADISHF
CAE,2017-04-01 17:35,-81.1181,33.9419,M,M,M,280.00,10.00,M,29.98,M,10.00,M,CLR,M,M,M,M,M,M,M,M,KCAE 011735Z AUTO 28010KT 10SM CLR A2998 RMK MADISHF
CAE,2017-04-01 17:40,-81.1181,33.9419,M,M,M,330.00,8.00,M,29.98,M,10.00,M,CLR,M,M,M,M,M,M,M,M,KCAE 011740Z AUTO 33008KT 10SM CLR A2998 RMK WND 28V35  MADISHF
CAE,2017-04-01 17:45,-81.1181,33.9419,M,M,M,300.00,10.00,M,29.98,M,10.00,M,CLR,M,M,M,M,M,M,M,M,KCAE 011745Z AUTO 30010KT 10SM CLR A2998 RMK MADISHF
CAE,2017-04-01 17:50,-81.1181,33.9419,M,M,M,280.00,11.00,M,29.98,M,10.00,M,CLR,M,M,M,M,M,M,M,M,KCAE 011750Z AUTO 28011KT 10SM CLR A2998 RMK MADISHF
CAE,2017-04-01 17:55,-81.1181,33.9419,M,M,M,M,M,M,29.98,M,10.00,M,CLR,M,M,M,M,M,M,M,M,KCAE 011755Z AUTO /////KT 10SM CLR A2998 RMK MADISHF
CAE,2017-04-01 17:56,-81.1181,33.9419,75.90,48.00,37.29,290.00,12.00,0.00,29.98,1014.90,10.00,21.00,CLR,M,M,M,M,M,M,M,M,KCAE 011756Z 29012G21KT 10SM CLR 24/09 A2998 RMK AO2 SLP149 T02440089 10244 20117 58004
CAE,2017-04-01 18:00,-81.1181,33.9419,M,M,M,300.00,9.00,M,29.98,M,10.00,M,CLR,M,M,M,M,M,M,M,M,KCAE 011800Z AUTO 30009KT 10SM CLR A2998 RMK MADISHF
CAE,2017-04-01 18:05,-81.1181,33.9419,M,M,M,290.00,6.00,M,29.98,M,10.00,M,CLR,M,M,M,M,M,M,M,M,KCAE 011805Z AUTO 29006KT 10SM CLR A2998 RMK MADISHF
CAE,2017-04-01 18:10,-81.1181,33.9419,M,M,M,320.00,10.00,M,29.98,M,10.00,M,CLR,M,M,M,M,M,M,M,M,KCAE 011810Z AUTO 32010KT 10SM CLR A2998 RMK MADISHF
CAE,2017-04-01 18:15,-81.1181,33.9419,M,M,M,320.00,7.00,M,29.98,M,10.00,M,CLR,M,M,M,M,M,M,M,M,KCAE 011815Z AUTO 32007KT 10SM CLR A2998 RMK MADISHF
CAE,2017-04-01 18:20,-81.1181,33.9419,M,M,M,330.00,7.00,M,29.97,M,10.00,M,CLR,M,M,M,M,M,M,M,M,KCAE 011820Z AUTO 33007KT 10SM CLR A2997 RMK MADISHF
CAE,2017-04-01 18:25,-81.1181,33.9419,M,M,M,300.00,8.00,M,29.97,M,10.00,M,CLR,M,M,M,M,M,M,M,M,KCAE 011825Z AUTO 30008KT 10SM CLR A2997 RMK MADISHF
CAE,2017-04-01 18:30,-81.1181,33.9419,M,M,M,330.00,10.00,M,29.97,M,10.00,M,CLR,M,M,M,M,M,M,M,M,KCAE 011830Z AUTO 33010KT 10SM CLR A2997 RMK MADISHF
CAE,2017-04-01 18:35,-81.1181,33.9419,M,M,M,310.00,6.00,M,29.97,M,10.00,M,CLR,M,M,M,M,M,M,M,M,KCAE 011835Z AUTO 31006KT 10SM CLR A2997 RMK MADISHF
CAE,2017-04-01 18:40,-81.1181,33.9419,M,M,M,340.00,8.00,M,29.97,M,10.00,M,CLR,M,M,M,M,M,M,M,M,KCAE 011840Z AUTO 34008KT 10SM CLR A2997 RMK MADISHF
CAE,2017-04-01 18:45,-81.1181,33.9419,M,M,M,290.00,6.00,M,29.97,M,10.00,M,CLR,M,M,M,M,M,M,M,M,KCAE 011845Z AUTO 29006KT 10SM CLR A2997 RMK MADISHF
CAE,2017-04-01 18:50,-81.1181,33.9419,M,M,M,320.00,7.00,M,29.97,M,10.00,M,CLR,M,M,M,M,M,M,M,M,KCAE 011850Z AUTO 32007KT 10SM CLR A2997 RMK MADISHF
CAE,2017-04-01 18:55,-81.1181,33.9419,M,M,M,280.00,4.00,M,29.96,M,10.00,M,CLR,M,M,M,M,M,M,M,M,KCAE 011855Z AUTO 28004KT 10SM CLR A2996 RMK VRB04KT  MADISHF
CAE,2017-04-01 18:56,-81.1181,33.9419,78.10,48.90,35.86,M,4.00,0.00,29.96,1014.30,10.00,M,CLR,M,M,M,M,M,M,M,M,KCAE 011856Z VRB04KT 10SM CLR 26/09 A2996 RMK AO2 SLP143 T02560094
CAE,2017-04-01 19:00,-81.1181,33.9419,M,M,M,360.00,5.00,M,29.96,M,10.00,M,CLR,M,M,M,M,M,M,M,M,KCAE 011900Z AUTO 36005KT 10SM CLR A2996 RMK MADISHF
CAE,2017-04-01 19:05,-81.1181,33.9419,M,M,M,330.00,7.00,M,29.96,M,10.00,M,CLR,M,M,M,M,M,M,M,M,KCAE 011905Z AUTO 33007KT 10SM CLR A2996 RMK MADISHF
CAE,2017-04-01 19:10,-81.1181,33.9419,M,M,M,310.00,5.00,M,29.95,M,10.00,M,CLR,M,M,M,M,M,M,M,M,KCAE 011910Z AUTO 31005KT 10SM CLR A2995 RMK VRB05KT  MADISHF
CAE,2017-04-01 19:15,-81.1181,33.9419,M,M,M,270.00,8.00,M,29.95,M,10.00,M,CLR,M,M,M,M,M,M,M,M,KCAE 011915Z AUTO 27008KT 10SM CLR A2995 RMK MADISHF
CAE,2017-04-01 19:20,-81.1181,33.9419,M,M,M,360.00,5.00,M,29.95,M,10.00,M,CLR,M,M,M,M,M,M,M,M,KCAE 011920Z AUTO 36005KT 10SM CLR A2995 RMK VRB05KT  MADISHF
CAE,2017-04-01 19:25,-81.1181,33.9419,M,M,M,270.00,7.00,M,29.95,M,10.00,M,CLR,M,M,M,M,M,M,M,M,KCAE 011925Z AUTO 27007KT 10SM CLR A2995 RMK MADISHF
CAE,2017-04-01 19:30,-81.1181,33.9419,M,M,M,340.00,5.00,M,29.95,M,10.00,M,CLR,M,M,M,M,M,M,M,M,KCAE 011930Z AUTO 34005KT 10SM CLR A2995 RMK VRB05KT  MADISHF
CAE,2017-04-01 19:35,-81.1181,33.9419,M,M,M,0.00,0.00,M,29.95,M,10.00,M,CLR,M,M,M,M,M,M,M,M,KCAE 011935Z AUTO 00000KT 10SM CLR A2995 RMK MADISHF
CAE,2017-04-01 19:40,-81.1181,33.9419,M,M,M,310.00,9.00,M,29.94,M,10.00,M,CLR,M,M,M,M,M,M,M,M,KCAE 011940Z AUTO 31009KT 10SM CLR A2994 RMK MADISHF
CAE,2017-04-01 19:45,-81.1181,33.9419,M,M,M,310.00,5.00,M,29.94,M,10.00,M,CLR,M,M,M,M,M,M,M,M,KCAE 011945Z AUTO 31005KT 10SM CLR A2994 RMK MADISHF
CAE,2017-04-01 19:50,-81.1181,33.9419,M,M,M,290.00,8.00,M,29.94,M,10.00,M,CLR,M,M,M,M,M,M,M,M,KCAE 011950Z AUTO 29008KT 10SM CLR A2994 RMK MADISHF
CAE,2017-04-01 19:55,-81.1181,33.9419,M,M,M,310.00,10.00,M,29.94,M,10.00,M,CLR,M,M,M,M,M,M,M,M,KCAE 011955Z AUTO 31010KT 10SM CLR A2994 RMK MADISHF
CAE,2017-04-01 19:56,-81.1181,33.9419,79.00,46.90,32.29,320.00,8.00,0.00,29.94,1013.70,10.00,M,CLR,M,M,M,M,M,M,M,M,KCAE 011956Z 32008KT 10SM CLR 26/08 A2994 RMK AO2 SLP137 T02610083
CAE,2017-04-01 20:00,-81.1181,33.9419,M,M,M,330.00,5.00,M,29.94,M,10.00,M,CLR,M,M,M,M,M,M,M,M,KCAE 012000Z AUTO 33005KT 10SM CLR A2994 RMK MADISHF
CAE,2017-04-01 20:05,-81.1181,33.9419,M,M,M,270.00,9.00,M,29.94,M,10.00,M,CLR,M,M,M,M,M,M,M,M,KCAE 012005Z AUTO 27009KT 10SM CLR A2994 RMK MADISHF
CAE,2017-04-01 20:10,-81.1181,33.9419,M,M,M,280.00,8.00,M,29.94,M,10.00,M,CLR,M,M,M,M,M,M,M,M,KCAE 012010Z AUTO 28008KT 10SM CLR A2994 RMK MADISHF
CAE,2017-04-01 20:15,-81.1181,33.9419,M,M,M,290.00,6.00,M,29.94,M,10.00,M,CLR,M,M,M,M,M,M,M,M,KCAE 012015Z AUTO 29006KT 10SM CLR A2994 RMK MADISHF
CAE,2017-04-01 20:20,-81.1181,33.9419,M,M,M,250.00,6.00,M,29.94,M,10.00,M,CLR,M,M,M,M,M,M,M,M,KCAE 012020Z AUTO 25006KT 10SM CLR A2994 RMK MADISHF
CAE,2017-04-01 20:25,-81.1181,33.9419,M,M,M,330.00,5.00,M,29.94,M,10.00,M,CLR,M,M,M,M,M,M,M,M,KCAE 012025Z AUTO 33005KT 10SM CLR A2994 RMK VRB05KT  MADISHF
CAE,2017-04-01 20:30,-81.1181,33.9419,M,M,M,330.00,4.00,M,29.93,M,10.00,M,CLR,M,M,M,M,M,M,M,M,KCAE 012030Z AUTO 33004KT 10SM CLR A2993 RMK VRB04KT  MADISHF
CAE,2017-04-01 20:35,-81.1181,33.9419,M,M,M,310.00,8.00,M,29.93,M,10.00,M,CLR,M,M,M,M,M,M,M,M,KCAE 012035Z AUTO 31008KT 10SM CLR A2993 RMK MADISHF
CAE,2017-04-01 20:40,-81.1181,33.9419,M,M,M,310.00,9.00,M,29.93,M,10.00,M,CLR,M,M,M,M,M,M,M,M,KCAE 012040Z AUTO 31009KT 10SM CLR A2993 RMK MADISHF
CAE,2017-04-01 20:45,-81.1181,33.9419,M,M,M,300.00,8.00,M,29.94,M,10.00,M,CLR,M,M,M,M,M,M,M,M,KCAE 012045Z AUTO 30008KT 10SM CLR A2994 RMK MADISHF
CAE,2017-04-01 20:50,-81.1181,33.9419,M,M,M,270.00,5.00,M,29.94,M,10.00,M,CLR,M,M,M,M,M,M,M,M,KCAE 012050Z AUTO 27005KT 10SM CLR A2994 RMK MADISHF
CAE,2017-04-01 20:55,-81.1181,33.9419,M,M,M,340.00,5.00,M,29.94,M,10.00,M,CLR,M,M,M,M,M,M,M,M,KCAE 012055Z AUTO 34005KT 10SM CLR A2994 RMK MADISHF
CAE,2017-04-01 20:56,-81.1181,33.9419,80.10,48.00,32.46,340.00,4.00,0.00,29.94,1013.50,10.00,M,CLR,M,M,M,M,M,M,M,M,KCAE 012056Z 34004KT 10SM CLR 27/09 A2994 RMK AO2 SLP135 T02670089 56015
CAE,2017-04-01 21:00,-81.1181,33.9419,M,M,M,310.00,10.00,M,29.94,M,10.00,M,CLR,M,M,M,M,M,M,M,M,KCAE 012100Z AUTO 31010KT 10SM CLR A2994 RMK WND 29V35  MADISHF
CAE,2017-04-01 21:05,-81.1181,33.9419,M,M,M,310.00,5.00,M,29.94,M,10.00,M,CLR,M,M,M,M,M,M,M,M,KCAE 012105Z AUTO 31005KT 10SM CLR A2994 RMK MADISHF
CAE,2017-04-01 21:10,-81.1181,33.9419,M,M,M,280.00,6.00,M,29.94,M,10.00,M,CLR,M,M,M,M,M,M,M,M,KCAE 012110Z AUTO 28006KT 10SM CLR A2994 RMK MADISHF
CAE,2017-04-01 21:15,-81.1181,33.9419,M,M,M,330.00,6.00,M,29.94,M,10.00,M,CLR,M,M,M,M,M,M,M,M,KCAE 012115Z AUTO 33006KT 10SM CLR A2994 RMK MADISHF
CAE,2017-04-01 21:20,-81.1181,33.9419,M,M,M,310.00,7.00,M,29.94,M,10.00,M,CLR,M,M,M,M,M,M,M,M,KCAE 012120Z AUTO 31007KT 10SM CLR A2994 RMK MADISHF
CAE,2017-04-01 21:25,-81.1181,33.9419,M,M,M,290.00,6.00,M,29.94,M,10.00,M,CLR,M,M,M,M,M,M,M,M,KCAE 012125Z AUTO 29006KT 10SM CLR A2994 RMK VRB06KT  MADISHF
CAE,2017-04-01 21:30,-81.1181,33.9419,M,M,M,310.00,8.00,M,29.94,M,10.00,M,CLR,M,M,M,M,M,M,M,M,KCAE 012130Z AUTO 31008KT 10SM CLR A2994 RMK MADISHF
CAE,2017-04-01 21:35,-81.1181,33.9419,M,M,M,320.00,8.00,M,29.94,M,10.00,M,CLR,M,M,M,M,M,M,M,M,KCAE 012135Z AUTO 32008KT 10SM CLR A2994 RMK MADISHF
CAE,2017-04-01 21:40,-81.1181,33.9419,M,M,M,330.00,7.00,M,29.94,M,10.00,M,CLR,M,M,M,M,M,M,M,M,KCAE 012140Z AUTO 33007KT 10SM CLR A2994 RMK MADISHF
CAE,2017-04-01 21:45,-81.1181,33.9419,M,M,M,290.00,7.00,M,29.94,M,10.00,M,CLR,M,M,M,M,M,M,M,M,KCAE 012145Z AUTO 29007KT 10SM CLR A2994 RMK MADISHF
CAE,2017-04-01 21:50,-81.1181,33.9419,M,M,M,300.00,10.00,M,29.94,M,10.00,M,CLR,M,M,M,M,M,M,M,M,KCAE 012150Z AUTO 30010KT 10SM CLR A2994 RMK MADISHF
CAE,2017-04-01 21:55,-81.1181,33.9419,M,M,M,310.00,7.00,M,29.94,M,10.00,M,CLR,M,M,M,M,M,M,M,M,KCAE 012155Z AUTO 31007KT 10SM CLR A2994 RMK MADISHF
CAE,2017-04-01 21:56,-81.1181,33.9419,81.00,46.00,29.23,320.00,8.00,0.00,29.94,1013.70,10.00,M,CLR,M,M,M,M,M,M,M,M,KCAE 012156Z 32008KT 10SM CLR 27/08 A2994 RMK AO2 SLP137 T02720078
CAE,2017-04-01 22:00,-81.1181,33.9419,M,M,M,310.00,7.00,M,29.94,M,10.00,M,CLR,M,M,M,M,M,M,M,M,KCAE 012200Z AUTO 31007KT 10SM CLR A2994 RMK MADISHF
CAE,2017-04-01 22:05,-81.1181,33.9419,M,M,M,300.00,7.00,M,29.94,M,10.00,M,CLR,M,M,M,M,M,M,M,M,KCAE 012205Z AUTO 30007KT 10SM CLR A2994 RMK MADISHF
CAE,2017-04-01 22:10,-81.1181,33.9419,M,M,M,290.00,9.00,M,29.94,M,10.00,M,CLR,M,M,M,M,M,M,M,M,KCAE 012210Z AUTO 29009KT 10SM CLR A2994 RMK MADISHF
CAE,2017-04-01 22:15,-81.1181,33.9419,M,M,M,290.00,8.00,M,29.95,M,10.00,M,CLR,M,M,M,M,M,M,M,M,KCAE 012215Z AUTO 29008KT 10SM CLR A2995 RMK MADISHF
CAE,2017-04-01 22:20,-81.1181,33.9419,M,M,M,270.00,9.00,M,29.95,M,10.00,M,CLR,M,M,M,M,M,M,M,M,KCAE 012220Z AUTO 27009KT 10SM CLR A2995 RMK MADISHF
CAE,2017-04-01 22:25,-81.1181,33.9419,M,M,M,270.00,7.00,M,29.95,M,10.00,M,CLR,M,M,M,M,M,M,M,M,KCAE 012225Z AUTO 27007KT 10SM CLR A2995 RMK MADISHF
CAE,2017-04-01 22:30,-81.1181,33.9419,M,M,M,310.00,7.00,M,29.95,M,10.00,M,CLR,M,M,M,M,M,M,M,M,KCAE 012230Z AUTO 31007KT 10SM CLR A2995 RMK MADISHF
CAE,2017-04-01 22:35,-81.1181,33.9419,M,M,M,300.00,5.00,M,29.95,M,10.00,M,CLR,M,M,M,M,M,M,M,M,KCAE 012235Z AUTO 30005KT 10SM CLR A2995 RMK VRB05KT  MADISHF
CAE,2017-04-01 22:40,-81.1181,33.9419,M,M,M,290.00,7.00,M,29.95,M,10.00,M,CLR,M,M,M,M,M,M,M,M,KCAE 012240Z AUTO 29007KT 10SM CLR A2995 RMK MADISHF
CAE,2017-04-01 22:45,-81.1181,33.9419,M,M,M,290.00,7.00,M,29.95,M,10.00,M,CLR,M,M,M,M,M,M,M,M,KCAE 012245Z AUTO 29007KT 10SM CLR A2995 RMK MADISHF
CAE,2017-04-01 22:50,-81.1181,33.9419,M,M,M,290.00,6.00,M,29.95,M,10.00,M,CLR,M,M,M,M,M,M,M,M,KCAE 012250Z AUTO 29006KT 10SM CLR A2995 RMK MADISHF
CAE,2017-04-01 22:55,-81.1181,33.9419,M,M,M,300.00,5.00,M,29.95,M,10.00,M,CLR,M,M,M,M,M,M,M,M,KCAE 012255Z AUTO 30005KT 10SM CLR A2995 RMK MADISHF
CAE,2017-04-01 22:56,-81.1181,33.9419,80.10,46.90,31.15,300.00,6.00,0.00,29.95,1014.00,10.00,M,CLR,M,M,M,M,M,M,M,M,KCAE 012256Z 30006KT 10SM CLR 27/08 A2995 RMK AO2 SLP140 T02670083
CAE,2017-04-01 23:00,-81.1181,33.9419,M,M,M,290.00,6.00,M,29.95,M,10.00,M,CLR,M,M,M,M,M,M,M,M,KCAE 012300Z AUTO 29006KT 10SM CLR A2995 RMK MADISHF
CAE,2017-04-01 23:05,-81.1181,33.9419,M,M,M,300.00,7.00,M,29.95,M,10.00,M,CLR,M,M,M,M,M,M,M,M,KCAE 012305Z AUTO 30007KT 10SM CLR A2995 RMK MADISHF
CAE,2017-04-01 23:10,-81.1181,33.9419,M,M,M,290.00,6.00,M,29.96,M,10.00,M,CLR,M,M,M,M,M,M,M,M,KCAE 012310Z AUTO 29006KT 10SM CLR A2996 RMK MADISHF
CAE,2017-04-01 23:15,-81.1181,33.9419,M,M,M,280.00,7.00,M,29.96,M,10.00,M,CLR,M,M,M,M,M,M,M,M,KCAE 012315Z AUTO 28007KT 10SM CLR A2996 RMK MADISHF
CAE,2017-04-01 23:20,-81.1181,33.9419,M,M,M,280.00,7.00,M,29.96,M,10.00,M,CLR,M,M,M,M,M,M,M,M,KCAE 012320Z AUTO 28007KT 10SM CLR A2996 RMK MADISHF
CAE,2017-04-01 23:25,-81.1181,33.9419,M,M,M,290.00,6.00,M,29.96,M,10.00,M,CLR,M,M,M,M,M,M,M,M,KCAE 012325Z AUTO 29006KT 10SM CLR A2996 RMK MADISHF
CAE,2017-04-01 23:30,-81.1181,33.9419,M,M,M,290.00,5.00,M,29.96,M,10.00,M,CLR,M,M,M,M,M,M,M,M,KCAE 012330Z AUTO 29005KT 10SM CLR A2996 RMK MADISHF
CAE,2017-04-01 23:35,-81.1181,33.9419,M,M,M,290.00,5.00,M,29.96,M,10.00,M,FEW,M,M,M,7000.00,M,M,M,M,KCAE 012335Z AUTO 29005KT 10SM FEW070 A2996 RMK MADISHF
CAE,2017-04-01 23:40,-81.1181,33.9419,M,M,M,270.00,5.00,M,29.96,M,10.00,M,FEW,M,M,M,7000.00,M,M,M,M,KCAE 012340Z AUTO 27005KT 10SM FEW070 A2996 RMK MADISHF
CAE,2017-04-01 23:45,-81.1181,33.9419,M,M,M,270.00,4.00,M,29.96,M,10.00,M,FEW,M,M,M,7000.00,M,M,M,M,KCAE 012345Z AUTO 27004KT 10SM FEW070 A2996 RMK MADISHF
CAE,2017-04-01 23:50,-81.1181,33.9419,M,M,M,270.00,4.00,M,29.96,M,10.00,M,FEW,M,M,M,7000.00,M,M,M,M,KCAE 012350Z AUTO 27004KT 10SM FEW070 A2996 RMK MADISHF
CAE,2017-04-01 23:55,-81.1181,33.9419,M,M,M,280.00,4.00,M,29.97,M,10.00,M,FEW,M,M,M,7000.00,M,M,M,M,KCAE 012355Z AUTO 28004KT 10SM FEW070 A2997 RMK MADISHF
CAE,2017-04-01 23:56,-81.1181,33.9419,75.00,46.90,36.87,280.00,4.00,0.00,29.97,1014.60,10.00,M,FEW,M,M,M,7000.00,M,M,M,M,KCAE 012356Z 28004KT 10SM FEW070 24/08 A2997 RMK AO2 SLP146 T02390083 10272 20239 53011
