#DEBUG: Format Typ    -> comma
#DEBUG: Time Period   -> 2017-04-01 00:00:00+00:00 2017-04-02 00:00:00+00:00
#DEBUG: Time Zone     -> Etc/UTC
#DEBUG: Data Contact   -> daryl herzmann akrherz@iastate.edu 515-294-5978
#DEBUG: Entries Found -> -1
station,valid,lon,lat,tmpf, dwpf, relh, drct, sknt, p01i, alti, mslp, vsby, gust, skyc1, skyc2, skyc3, skyc4, skyl1, skyl2, skyl3, skyl4, presentwx, metar
CAK,2017-04-01 00:00,-81.4422,40.9161,M,M,M,330.00,12.00,M,29.71,M,7.00,M,BKN,M,M,M,600.00,M,M,M,-RA,KCAK 010000Z AUTO 33012KT 7SM -RA BKN006 A2971 RMK MADISHF
CAK,2017-04-01 00:05,-81.4422,40.9161,M,M,M,330.00,12.00,M,29.71,M,7.00,M,BKN,M,M,M,600.00,M,M,M,-RA,KCAK 010005Z AUTO 33012KT 7SM -RA BKN006 A2971 RMK MADISHF
CAK,2017-04-01 00:10,-81.4422,40.9161,M,M,M,330.00,11.00,M,29.71,M,7.00,M,BKN,M,M,M,600.00,M,M,M,-RA,KCAK 010010Z AUTO 33011KT 7SM -RA BKN006 A2971 RMK MADISHF
CAK,2017-04-01 00:15,-81.4422,40.9161,M,M,M,320.00,11.00,M,29.71,M,7.00,M,BKN,M,M,M,600.00,M,M,M,-RA,KCAK 010015Z AUTO 32011KT 7SM -RA BKN006 A2971 RMK MADISHF
CAK,2017-04-01 00:20,-81.4422,40.9161,M,M,M,320.00,11.00,M,29.72,M,7.00,M,BKN,M,M,M,600.00,M,M,M,-RA,KCAK 010020Z AUTO 32011KT 7SM -RA BKN006 A2972 RMK MADISHF
CAK,2017-04-01 00:25,-81.4422,40.9161,M,M,M,320.00,12.00,0.01,29.72,M,7.00,M,BKN,M,M,M,600.00,M,M,M,-RA,KCAK 010025Z AUTO 32012KT 7SM -RA BKN006 A2972 RMK P0001 MADISHF
CAK,2017-04-01 00:30,-81.4422,40.9161,M,M,M,330.00,13.00,0.01,29.72,M,7.00,M,BKN,M,M,M,600.00,M,M,M,-RA,KCAK 010030Z AUTO 33013KT 7SM -RA BKN006 A2972 RMK P0001 MADISHF
CAK,2017-04-01 00:35,-81.4422,40.9161,M,M,M,320.00,11.00,0.01,29.72,M,7.00,M,BKN,M,M,M,600.00,M,M,M,-RA,KCAK 010035Z AUTO 32011KT 7SM -RA BKN006 A2972 RMK P0001 MADISHF
CAK,2017-04-01 00:40,-81.4422,40.9161,M,M,M,330.00,13.00,0.01,29.73,M,7.00,M,OVC,M,M,M,499.00,M,M,M,-RA,KCAK 010040Z AUTO 33013KT 7SM -RA OVC004 A2973 RMK P0001 MADISHF
CAK,2017-04-01 00:45,-81.4422,40.9161,M,M,M,330.00,13.00,0.01,29.73,M,7.00,M,OVC,M,M,M,600.00,M,M,M,-RA,KCAK 010045Z AUTO 33013KT 7SM -RA OVC006 A2973 RMK P0001 MADISHF
CAK,2017-04-01 00:50,-81.4422,40.9161,M,M,M,330.00,12.00,0.01,29.73,M,7.00,M,OVC,M,M,M,600.00,M,M,M,-RA,KCAK 010050Z AUTO 33012KT 7SM -RA OVC006 A2973 RMK P0001 MADISHF
CAK,2017-04-01 00:51,-81.4422,40.9161,43.00,39.00,85.66,330.00,13.00,0.01,29.73,1007.00,3.00,M,OVC,M,M,M,600.00,M,M,M,-RA,KCAK 010051Z 33013KT 3SM -RA OVC006 06/04 A2973 RMK AO2 SFC VIS 7 SLP070 P0001 T00610039
CAK,2017-04-01 00:55,-81.4422,40.9161,M,M,M,M,M,M,29.74,M,7.00,M,OVC,M,M,M,600.00,M,M,M,-RA,KCAK 010055Z AUTO /////KT 7SM -RA OVC006 A2974 RMK MADISHF
CAK,2017-04-01 01:00,-81.4422,40.9161,M,M,M,330.00,13.00,M,29.74,M,7.00,18.00,OVC,M,M,M,600.00,M,M,M,-RA,KCAK 010100Z AUTO 33013G18KT 7SM -RA OVC006 A2974 RMK MADISHF
CAK,2017-04-01 01:05,-81.4422,40.9161,M,M,M,330.00,13.00,0.01,29.74,M,7.00,M,OVC,M,M,M,600.00,M,M,M,-RA,KCAK 010105Z AUTO 33013KT 7SM -RA OVC006 A2974 RMK P0001 MADISHF
CAK,2017-04-01 01:10,-81.4422,40.9161,M,M,M,330.00,12.00,0.01,29.74,M,7.00,M,OVC,M,M,M,600.00,M,M,M,-RA,KCAK 010110Z AUTO 33012KT 7SM -RA OVC006 A2974 RMK P0001 MADISHF
CAK,2017-04-01 01:15,-81.4422,40.9161,M,M,M,340.00,12.00,0.01,29.74,M,7.00,M,OVC,M,M,M,600.00,M,M,M,-RA,KCAK 010115Z AUTO 34012KT 7SM -RA OVC006 A2974 RMK P0001 MADISHF
CAK,2017-04-01 01:20,-81.4422,40.9161,M,M,M,330.00,11.00,0.01,29.75,M,7.00,M,OVC,M,M,M,600.00,M,M,M,-RA,KCAK 010120Z AUTO 33011KT 7SM -RA OVC006 A2975 RMK P0001 MADISHF
CAK,2017-04-01 01:25,-81.4422,40.9161,M,M,M,330.00,10.00,0.01,29.75,M,7.00,M,OVC,M,M,M,600.00,M,M,M,-RA,KCAK 010125Z AUTO 33010KT 7SM -RA OVC006 A2975 RMK P0001 MADISHF
CAK,2017-04-01 01:30,-81.4422,40.9161,M,M,M,320.00,11.00,0.01,29.76,M,10.00,17.00,OVC,M,M,M,600.00,M,M,M,-RA,KCAK 010130Z AUTO 32011G17KT 10SM -RA OVC006 A2976 RMK P0001 MADISHF
CAK,2017-04-01 01:35,-81.4422,40.9161,M,M,M,M,M,0.01,29.76,M,10.00,M,OVC,M,M,M,600.00,M,M,M,-RA,KCAK 010135Z AUTO /////KT 10SM -RA OVC006 A2976 RMK P0001 MADISHF
CAK,2017-04-01 01:40,-81.4422,40.9161,M,M,M,320.00,10.00,0.01,29.76,M,10.00,M,OVC,M,M,M,600.00,M,M,M,-RA,KCAK 010140Z AUTO 32010KT 10SM -RA OVC006 A2976 RMK P0001 MADISHF
CAK,2017-04-01 01:45,-81.4422,40.9161,M,M,M,M,M,0.01,29.76,M,10.00,M,OVC,M,M,M,600.00,M,M,M,-RA,KCAK 010145Z AUTO /////KT 10SM -RA OVC006 A2976 RMK P0001 MADISHF
CAK,2017-04-01 01:50,-81.4422,40.9161,M,M,M,330.00,14.00,0.01,29.76,M,9.00,M,OVC,M,M,M,499.00,M,M,M,M,KCAK 010150Z AUTO 33014KT 9SM OVC004 A2976 RMK P0001 MADISHF
CAK,2017-04-01 01:51,-81.4422,40.9161,43.00,39.00,85.66,330.00,13.00,0.01,29.76,1008.10,9.00,M,OVC,M,M,M,500.00,M,M,M,M,KCAK 010151Z 33013KT 9SM OVC005 06/04 A2976 RMK AO2 RAE46 SLP081 P0001 T00610039
CAK,2017-04-01 01:55,-81.4422,40.9161,M,M,M,320.00,10.00,M,29.77,M,8.00,M,OVC,M,M,M,499.00,M,M,M,M,KCAK 010155Z AUTO 32010KT 8SM OVC004 A2977 RMK MADISHF
CAK,2017-04-01 02:00,-81.4422,40.9161,M,M,M,M,M,M,29.77,M,7.00,M,OVC,M,M,M,499.00,M,M,M,M,KCAK 010200Z AUTO /////KT 7SM OVC004 A2977 RMK MADISHF
CAK,2017-04-01 02:05,-81.4422,40.9161,M,M,M,320.00,12.00,M,29.77,M,8.00,M,OVC,M,M,M,499.00,M,M,M,M,KCAK 010205Z AUTO 32012KT 8SM OVC004 A2977 RMK MADISHF
CAK,2017-04-01 02:10,-81.4422,40.9161,M,M,M,320.00,12.00,M,29.77,M,9.00,M,OVC,M,M,M,499.00,M,M,M,M,KCAK 010210Z AUTO 32012KT 9SM OVC004 A2977 RMK MADISHF
CAK,2017-04-01 02:15,-81.4422,40.9161,M,M,M,330.00,13.00,M,29.77,M,10.00,M,OVC,M,M,M,499.00,M,M,M,M,KCAK 010215Z AUTO 33013KT 10SM OVC004 A2977 RMK MADISHF
CAK,2017-04-01 02:20,-81.4422,40.9161,M,M,M,M,M,M,29.78,M,10.00,M,OVC,M,M,M,499.00,M,M,M,M,KCAK 010220Z AUTO /////KT 10SM OVC004 A2978 RMK MADISHF
CAK,2017-04-01 02:25,-81.4422,40.9161,M,M,M,330.00,11.00,M,29.78,M,10.00,M,OVC,M,M,M,499.00,M,M,M,M,KCAK 010225Z AUTO 33011KT 10SM OVC004 A2978 RMK MADISHF
CAK,2017-04-01 02:30,-81.4422,40.9161,M,M,M,M,M,M,29.78,M,10.00,M,OVC,M,M,M,499.00,M,M,M,M,KCAK 010230Z AUTO /////KT 10SM OVC004 A2978 RMK MADISHF
CAK,2017-04-01 02:35,-81.4422,40.9161,M,M,M,330.00,11.00,M,29.78,M,10.00,M,OVC,M,M,M,499.00,M,M,M,M,KCAK 010235Z AUTO 33011KT 10SM OVC004 A2978 RMK MADISHF
CAK,2017-04-01 02:40,-81.4422,40.9161,M,M,M,330.00,10.00,M,29.78,M,10.00,M,OVC,M,M,M,499.00,M,M,M,M,KCAK 010240Z AUTO 33010KT 10SM OVC004 A2978 RMK MADISHF
CAK,2017-04-01 02:45,-81.4422,40.9161,M,M,M,330.00,11.00,M,29.78,M,10.00,M,OVC,M,M,M,499.00,M,M,M,M,KCAK 010245Z AUTO 33011KT 10SM OVC004 A2978 RMK MADISHF
CAK,2017-04-01 02:50,-81.4422,40.9161,M,M,M,330.00,9.00,M,29.78,M,7.00,M,OVC,M,M,M,499.00,M,M,M,M,KCAK 010250Z AUTO 33009KT 7SM OVC004 A2978 RMK MADISHF
CAK,2017-04-01 02:51,-81.4422,40.9161,42.10,39.00,88.67,330.00,10.00,0.00,29.79,1008.80,7.00,M,OVC,M,M,M,500.00,M,M,M,M,KCAK 010251Z 33010KT 7SM OVC005 06/04 A2979 RMK AO2 SLP088 60002 T00560039 51027
CAK,2017-04-01 02:55,-81.4422,40.9161,M,M,M,320.00,8.00,M,29.79,M,5.00,M,OVC,M,M,M,499.00,M,M,M,-RA BR,KCAK 010255Z AUTO 32008KT 5SM -RA BR OVC004 A2979 RMK MADISHF
CAK,2017-04-01 03:00,-81.4422,40.9161,M,M,M,320.00,12.00,M,29.79,M,3.50,M,OVC,M,M,M,499.00,M,M,M,-RA BR,KCAK 010300Z AUTO 32012KT 3SM -RA BR OVC004 A2979 RMK MADISHF
CAK,2017-04-01 03:05,-81.4422,40.9161,M,M,M,320.00,13.00,0.01,29.79,M,3.00,M,OVC,M,M,M,499.00,M,M,M,-RA BR,KCAK 010305Z AUTO 32013KT 3SM -RA BR OVC004 A2979 RMK P0001 MADISHF
CAK,2017-04-01 03:10,-81.4422,40.9161,M,M,M,320.00,13.00,0.01,29.79,M,4.00,M,OVC,M,M,M,499.00,M,M,M,-RA BR,KCAK 010310Z AUTO 32013KT 4SM -RA BR OVC004 A2979 RMK P0001 MADISHF
CAK,2017-04-01 03:15,-81.4422,40.9161,M,M,M,320.00,13.00,0.01,29.79,M,5.00,18.00,OVC,M,M,M,499.00,M,M,M,-RA BR,KCAK 010315Z AUTO 32013G18KT 5SM -RA BR OVC004 A2979 RMK P0001 MADISHF
CAK,2017-04-01 03:20,-81.4422,40.9161,M,M,M,320.00,11.00,0.01,29.79,M,6.00,M,OVC,M,M,M,499.00,M,M,M,-RA BR,KCAK 010320Z AUTO 32011KT 6SM -RA BR OVC004 A2979 RMK P0001 MADISHF
CAK,2017-04-01 03:25,-81.4422,40.9161,M,M,M,310.00,12.00,0.01,29.80,M,7.00,M,OVC,M,M,M,499.00,M,M,M,M,KCAK 010325Z AUTO 31012KT 7SM OVC004 A2980 RMK P0001 MADISHF
CAK,2017-04-01 03:30,-81.4422,40.9161,M,M,M,320.00,12.00,0.01,29.80,M,6.00,M,OVC,M,M,M,499.00,M,M,M,BR,KCAK 010330Z AUTO 32012KT 6SM BR OVC004 A2980 RMK P0001 MADISHF
CAK,2017-04-01 03:35,-81.4422,40.9161,M,M,M,310.00,13.00,0.01,29.80,M,5.00,M,OVC,M,M,M,499.00,M,M,M,BR,KCAK 010335Z AUTO 31013KT 5SM BR OVC004 A2980 RMK P0001 MADISHF
CAK,2017-04-01 03:40,-81.4422,40.9161,M,M,M,310.00,12.00,0.01,29.80,M,4.00,M,OVC,M,M,M,499.00,M,M,M,BR,KCAK 010340Z AUTO 31012KT 4SM BR OVC004 A2980 RMK P0001 MADISHF
CAK,2017-04-01 03:45,-81.4422,40.9161,M,M,M,310.00,11.00,0.01,29.80,M,4.00,M,OVC,M,M,M,499.00,M,M,M,BR,KCAK 010345Z AUTO 31011KT 4SM BR OVC004 A2980 RMK P0001 MADISHF
CAK,2017-04-01 03:50,-81.4422,40.9161,M,M,M,320.00,8.00,0.01,29.81,M,4.00,M,OVC,M,M,M,499.00,M,M,M,BR,KCAK 010350Z AUTO 32008KT 4SM BR OVC004 A2981 RMK P0001 MADISHF
CAK,2017-04-01 03:51,-81.4422,40.9161,41.00,37.90,88.62,320.00,9.00,0.01,29.81,1009.60,4.00,M,OVC,M,M,M,500.00,M,M,M,-RA BR,KCAK 010351Z 32009KT 4SM -RA BR OVC005 05/03 A2981 RMK AO2 RAB0253E21B51 SLP096 P0001 T00500033
CAK,2017-04-01 03:55,-81.4422,40.9161,M,M,M,310.00,10.00,M,29.81,M,3.50,M,OVC,M,M,M,499.00,M,M,M,-RA BR,KCAK 010355Z AUTO 31010KT 3SM -RA BR OVC004 A2981 RMK MADISHF
CAK,2017-04-01 04:00,-81.4422,40.9161,M,M,M,M,M,M,29.81,M,3.00,M,OVC,M,M,M,499.00,M,M,M,-RA BR,KCAK 010400Z AUTO /////KT 3SM -RA BR OVC004 A2981 RMK MADISHF
CAK,2017-04-01 04:05,-81.4422,40.9161,M,M,M,300.00,13.00,0.01,29.81,M,4.00,M,OVC,M,M,M,499.00,M,M,M,-RA BR,KCAK 010405Z AUTO 30013KT 4SM -RA BR OVC004 A2981 RMK P0001 MADISHF
CAK,2017-04-01 04:10,-81.4422,40.9161,M,M,M,M,M,0.01,29.81,M,5.00,M,OVC,M,M,M,499.00,M,M,M,-RA BR,KCAK 010410Z AUTO /////KT 5SM -RA BR OVC004 A2981 RMK P0001 MADISHF
CAK,2017-04-01 04:15,-81.4422,40.9161,M,M,M,M,M,0.01,29.82,M,8.00,M,OVC,M,M,M,499.00,M,M,M,-RA,KCAK 010415Z AUTO /////KT 8SM -RA OVC004 A2982 RMK P0001 MADISHF
CAK,2017-04-01 04:20,-81.4422,40.9161,M,M,M,310.00,12.00,0.01,29.82,M,9.00,M,OVC,M,M,M,499.00,M,M,M,M,KCAK 010420Z AUTO 31012KT 9SM OVC004 A2982 RMK P0001 MADISHF
CAK,2017-04-01 04:25,-81.4422,40.9161,M,M,M,M,M,0.01,29.82,M,10.00,M,OVC,M,M,M,499.00,M,M,M,-RA,KCAK 010425Z AUTO /////KT 10SM -RA OVC004 A2982 RMK P0001 MADISHF
CAK,2017-04-01 04:30,-81.4422,40.9161,M,M,M,320.00,13.00,0.01,29.82,M,10.00,M,OVC,M,M,M,499.00,M,M,M,-RA,KCAK 010430Z AUTO 32013KT 10SM -RA OVC004 A2982 RMK P0001 MADISHF
CAK,2017-04-01 04:35,-81.4422,40.9161,M,M,M,M,M,0.01,29.83,M,10.00,19.00,OVC,M,M,M,499.00,M,M,M,-RA,KCAK 010435Z AUTO /////G19KT 10SM -RA OVC004 A2983 RMK P0001 MADISHF
CAK,2017-04-01 04:40,-81.4422,40.9161,M,M,M,320.00,12.00,0.01,29.83,M,10.00,M,OVC,M,M,M,499.00,M,M,M,-RA,KCAK 010440Z AUTO 32012KT 10SM -RA OVC004 A2983 RMK P0001 MADISHF
CAK,2017-04-01 04:45,-81.4422,40.9161,M,M,M,310.00,12.00,0.01,29.83,M,10.00,M,OVC,M,M,M,499.00,M,M,M,-RA,KCAK 010445Z AUTO 31012KT 10SM -RA OVC004 A2983 RMK P0001 MADISHF
CAK,2017-04-01 04:50,-81.4422,40.9161,M,M,M,320.00,11.00,0.01,29.83,M,7.00,M,OVC,M,M,M,499.00,M,M,M,-RA,KCAK 010450Z AUTO 32011KT 7SM -RA OVC004 A2983 RMK P0001 MADISHF
CAK,2017-04-01 04:51,-81.4422,40.9161,39.90,36.00,85.81,320.00,10.00,0.01,29.83,1010.50,7.00,M,OVC,M,M,M,500.00,M,M,M,-RA,KCAK 010451Z 32010KT 7SM -RA OVC005 04/02 A2983 RMK AO2 SLP105 P0001 T00440022 401440044
CAK,2017-04-01 04:55,-81.4422,40.9161,M,M,M,320.00,9.00,M,29.83,M,6.00,M,OVC,M,M,M,499.00,M,M,M,-RA BR,KCAK 010455Z AUTO 32009KT 6SM -RA BR OVC004 A2983 RMK MADISHF
CAK,2017-04-01 05:00,-81.4422,40.9161,M,M,M,310.00,10.00,M,29.83,M,7.00,M,OVC,M,M,M,499.00,M,M,M,-RA,KCAK 010500Z AUTO 31010KT 7SM -RA OVC004 A2983 RMK MADISHF
CAK,2017-04-01 05:05,-81.4422,40.9161,M,M,M,M,M,M,29.84,M,9.00,M,OVC,M,M,M,499.00,M,M,M,-RA,KCAK 010505Z AUTO /////KT 9SM -RA OVC004 A2984 RMK MADISHF
CAK,2017-04-01 05:10,-81.4422,40.9161,M,M,M,320.00,11.00,M,29.84,M,9.00,M,OVC,M,M,M,499.00,M,M,M,M,KCAK 010510Z AUTO 32011KT 9SM OVC004 A2984 RMK MADISHF
CAK,2017-04-01 05:15,-81.4422,40.9161,M,M,M,320.00,8.00,M,29.84,M,8.00,M,OVC,M,M,M,499.00,M,M,M,M,KCAK 010515Z AUTO 32008KT 8SM OVC004 A2984 RMK MADISHF
CAK,2017-04-01 05:20,-81.4422,40.9161,M,M,M,320.00,10.00,M,29.84,M,8.00,M,OVC,M,M,M,499.00,M,M,M,M,KCAK 010520Z AUTO 32010KT 8SM OVC004 A2984 RMK MADISHF
CAK,2017-04-01 05:25,-81.4422,40.9161,M,M,M,320.00,10.00,M,29.84,M,7.00,M,OVC,M,M,M,499.00,M,M,M,M,KCAK 010525Z AUTO 32010KT 7SM OVC004 A2984 RMK MADISHF
CAK,2017-04-01 05:30,-81.4422,40.9161,M,M,M,320.00,10.00,M,29.84,M,5.00,M,OVC,M,M,M,499.00,M,M,M,BR,KCAK 010530Z AUTO 32010KT 5SM BR OVC004 A2984 RMK MADISHF
CAK,2017-04-01 05:35,-81.4422,40.9161,M,M,M,320.00,13.00,M,29.85,M,5.00,M,OVC,M,M,M,499.00,M,M,M,BR,KCAK 010535Z AUTO 32013KT 5SM BR OVC004 A2985 RMK MADISHF
CAK,2017-04-01 05:40,-81.4422,40.9161,M,M,M,330.00,12.00,M,29.85,M,5.00,M,OVC,M,M,M,499.00,M,M,M,BR,KCAK 010540Z AUTO 33012KT 5SM BR OVC004 A2985 RMK MADISHF
CAK,2017-04-01 05:45,-81.4422,40.9161,M,M,M,M,M,M,29.85,M,5.00,M,OVC,M,M,M,499.00,M,M,M,BR,KCAK 010545Z AUTO /////KT 5SM BR OVC004 A2985 RMK MADISHF
CAK,2017-04-01 05:50,-81.4422,40.9161,M,M,M,M,M,M,29.85,M,5.00,M,OVC,M,M,M,400.00,M,M,M,BR,KCAK 010550Z AUTO /////KT 5SM BR OVC004 A2985 RMK MADISHF
CAK,2017-04-01 05:51,-81.4422,40.9161,39.00,36.00,88.87,320.00,12.00,0.00,29.85,1011.10,5.00,M,OVC,M,M,M,400.00,M,M,M,BR,KCAK 010551Z 32012KT 5SM BR OVC004 04/02 A2985 RMK AO2 RAE06 SLP111 P0000 60004 T00390022 10061 20039 51021
CAK,2017-04-01 05:55,-81.4422,40.9161,M,M,M,320.00,13.00,M,29.85,M,6.00,M,OVC,M,M,M,400.00,M,M,M,BR,KCAK 010555Z AUTO 32013KT 6SM BR OVC004 A2985 RMK MADISHF
CAK,2017-04-01 06:00,-81.4422,40.9161,M,M,M,330.00,10.00,M,29.85,M,7.00,M,OVC,M,M,M,400.00,M,M,M,M,KCAK 010600Z AUTO 33010KT 7SM OVC004 A2985 RMK MADISHF
CAK,2017-04-01 06:05,-81.4422,40.9161,M,M,M,340.00,13.00,M,29.86,M,8.00,M,OVC,M,M,M,400.00,M,M,M,M,KCAK 010605Z AUTO 34013KT 8SM OVC004 A2986 RMK MADISHF
CAK,2017-04-01 06:10,-81.4422,40.9161,M,M,M,330.00,14.00,M,29.86,M,9.00,M,OVC,M,M,M,400.00,M,M,M,M,KCAK 010610Z AUTO 33014KT 9SM OVC004 A2986 RMK MADISHF
CAK,2017-04-01 06:15,-81.4422,40.9161,M,M,M,320.00,14.00,M,29.86,M,10.00,M,OVC,M,M,M,400.00,M,M,M,M,KCAK 010615Z AUTO 32014KT 10SM OVC004 A2986 RMK MADISHF
CAK,2017-04-01 06:20,-81.4422,40.9161,M,M,M,330.00,12.00,M,29.86,M,10.00,M,OVC,M,M,M,400.00,M,M,M,M,KCAK 010620Z AUTO 33012KT 10SM OVC004 A2986 RMK MADISHF
CAK,2017-04-01 06:25,-81.4422,40.9161,M,M,M,320.00,12.00,M,29.86,M,8.00,M,OVC,M,M,M,400.00,M,M,M,M,KCAK 010625Z AUTO 32012KT 8SM OVC004 A2986 RMK MADISHF
CAK,2017-04-01 06:30,-81.4422,40.9161,M,M,M,320.00,8.00,M,29.86,M,7.00,M,OVC,M,M,M,400.00,M,M,M,M,KCAK 010630Z AUTO 32008KT 7SM OVC004 A2986 RMK MADISHF
CAK,2017-04-01 06:35,-81.4422,40.9161,M,M,M,330.00,10.00,M,29.86,M,6.00,M,OVC,M,M,M,400.00,M,M,M,BR,KCAK 010635Z AUTO 33010KT 6SM BR OVC004 A2986 RMK MADISHF
CAK,2017-04-01 06:40,-81.4422,40.9161,M,M,M,330.00,9.00,M,29.86,M,7.00,M,OVC,M,M,M,400.00,M,M,M,M,KCAK 010640Z AUTO 33009KT 7SM OVC004 A2986 RMK MADISHF
CAK,2017-04-01 06:45,-81.4422,40.9161,M,M,M,330.00,10.00,M,29.86,M,8.00,M,OVC,M,M,M,400.00,M,M,M,M,KCAK 010645Z AUTO 33010KT 8SM OVC004 A2986 RMK MADISHF
CAK,2017-04-01 06:50,-81.4422,40.9161,M,M,M,320.00,12.00,M,29.87,M,8.00,M,OVC,M,M,M,400.00,M,M,M,M,KCAK 010650Z AUTO 32012KT 8SM OVC004 A2987 RMK MADISHF
CAK,2017-04-01 06:51,-81.4422,40.9161,37.90,35.10,89.53,320.00,12.00,0.00,29.87,1011.70,8.00,M,OVC,M,M,M,400.00,M,M,M,M,KCAK 010651Z 32012KT 8SM OVC004 03/02 A2987 RMK AO2 SLP117 T00330017
CAK,2017-04-01 06:55,-81.4422,40.9161,M,M,M,330.00,13.00,M,29.87,M,9.00,M,OVC,M,M,M,400.00,M,M,M,M,KCAK 010655Z AUTO 33013KT 9SM OVC004 A2987 RMK MADISHF
CAK,2017-04-01 07:00,-81.4422,40.9161,M,M,M,330.00,12.00,M,29.87,M,9.00,M,OVC,M,M,M,400.00,M,M,M,M,KCAK 010700Z AUTO 33012KT 9SM OVC004 A2987 RMK MADISHF
CAK,2017-04-01 07:05,-81.4422,40.9161,M,M,M,320.00,11.00,M,29.87,M,10.00,M,OVC,M,M,M,400.00,M,M,M,M,KCAK 010705Z AUTO 32011KT 10SM OVC004 A2987 RMK MADISHF
CAK,2017-04-01 07:10,-81.4422,40.9161,M,M,M,330.00,12.00,M,29.88,M,10.00,M,OVC,M,M,M,400.00,M,M,M,M,KCAK 010710Z AUTO 33012KT 10SM OVC004 A2988 RMK MADISHF
CAK,2017-04-01 07:15,-81.4422,40.9161,M,M,M,320.00,9.00,M,29.88,M,9.00,M,OVC,M,M,M,400.00,M,M,M,M,KCAK 010715Z AUTO 32009KT 9SM OVC004 A2988 RMK MADISHF
CAK,2017-04-01 07:20,-81.4422,40.9161,M,M,M,320.00,11.00,M,29.88,M,7.00,M,OVC,M,M,M,400.00,M,M,M,M,KCAK 010720Z AUTO 32011KT 7SM OVC004 A2988 RMK MADISHF
CAK,2017-04-01 07:25,-81.4422,40.9161,M,M,M,330.00,9.00,M,29.88,M,6.00,14.00,OVC,M,M,M,400.00,M,M,M,BR,KCAK 010725Z AUTO 33009G14KT 6SM BR OVC004 A2988 RMK MADISHF
CAK,2017-04-01 07:30,-81.4422,40.9161,M,M,M,330.00,10.00,M,29.88,M,6.00,M,OVC,M,M,M,400.00,M,M,M,BR,KCAK 010730Z AUTO 33010KT 6SM BR OVC004 A2988 RMK MADISHF
CAK,2017-04-01 07:35,-81.4422,40.9161,M,M,M,310.00,10.00,M,29.89,M,5.00,M,OVC,M,M,M,400.00,M,M,M,BR,KCAK 010735Z AUTO 31010KT 5SM BR OVC004 A2989 RMK MADISHF
CAK,2017-04-01 07:40,-81.4422,40.9161,M,M,M,310.00,10.00,M,29.89,M,5.00,M,OVC,M,M,M,400.00,M,M,M,BR,KCAK 010740Z AUTO 31010KT 5SM BR OVC004 A2989 RMK MADISHF
CAK,2017-04-01 07:45,-81.4422,40.9161,M,M,M,320.00,9.00,M,29.89,M,5.00,M,OVC,M,M,M,400.00,M,M,M,BR,KCAK 010745Z AUTO 32009KT 5SM BR OVC004 A2989 RMK MADISHF
CAK,2017-04-01 07:50,-81.4422,40.9161,M,M,M,320.00,10.00,M,29.90,M,5.00,M,OVC,M,M,M,400.00,M,M,M,BR,KCAK 010750Z AUTO 32010KT 5SM BR OVC004 A2990 RMK MADISHF
CAK,2017-04-01 07:51,-81.4422,40.9161,37.90,35.10,89.53,320.00,9.00,0.00,29.90,1012.90,4.00,M,OVC,M,M,M,400.00,M,M,M,BR,KCAK 010751Z 32009KT 4SM BR OVC004 03/02 A2990 RMK AO2 SLP129 T00330017
CAK,2017-04-01 07:55,-81.4422,40.9161,M,M,M,320.00,10.00,M,29.90,M,4.00,M,OVC,M,M,M,400.00,M,M,M,BR,KCAK 010755Z AUTO 32010KT 4SM BR OVC004 A2990 RMK MADISHF
CAK,2017-04-01 08:00,-81.4422,40.9161,M,M,M,320.00,12.00,M,29.90,M,4.00,M,OVC,M,M,M,400.00,M,M,M,BR,KCAK 010800Z AUTO 32012KT 4SM BR OVC004 A2990 RMK MADISHF
CAK,2017-04-01 08:05,-81.4422,40.9161,M,M,M,320.00,12.00,M,29.91,M,3.00,M,OVC,M,M,M,400.00,M,M,M,BR,KCAK 010805Z AUTO 32012KT 3SM BR OVC004 A2991 RMK MADISHF
CAK,2017-04-01 08:10,-81.4422,40.9161,M,M,M,310.00,12.00,M,29.91,M,3.00,M,OVC,M,M,M,400.00,M,M,M,BR,KCAK 010810Z AUTO 31012KT 3SM BR OVC004 A2991 RMK MADISHF
CAK,2017-04-01 08:15,-81.4422,40.9161,M,M,M,320.00,12.00,M,29.91,M,3.00,M,OVC,M,M,M,400.00,M,M,M,BR,KCAK 010815Z AUTO 32012KT 3SM BR OVC004 A2991 RMK MADISHF
CAK,2017-04-01 08:20,-81.4422,40.9161,M,M,M,310.00,11.00,M,29.92,M,3.00,M,OVC,M,M,M,400.00,M,M,M,BR,KCAK 010820Z AUTO 31011KT 3SM BR OVC004 A2992 RMK MADISHF
CAK,2017-04-01 08:25,-81.4422,40.9161,M,M,M,320.00,11.00,M,29.92,M,3.00,M,OVC,M,M,M,400.00,M,M,M,BR,KCAK 010825Z AUTO 32011KT 3SM BR OVC004 A2992 RMK MADISHF
CAK,2017-04-01 08:30,-81.4422,40.9161,M,M,M,310.00,12.00,M,29.92,M,3.00,M,OVC,M,M,M,400.00,M,M,M,BR,KCAK 010830Z AUTO 31012KT 3SM BR OVC004 A2992 RMK MADISHF
CAK,2017-04-01 08:35,-81.4422,40.9161,M,M,M,320.00,12.00,M,29.92,M,3.00,M,OVC,M,M,M,400.00,M,M,M,BR,KCAK 010835Z AUTO 32012KT 3SM BR OVC004 A2992 RMK MADISHF
CAK,2017-04-01 08:40,-81.4422,40.9161,M,M,M,320.00,12.00,M,29.93,M,3.00,M,OVC,M,M,M,400.00,M,M,M,BR,KCAK 010840Z AUTO 32012KT 3SM BR OVC004 A2993 RMK MADISHF
CAK,2017-04-01 08:45,-81.4422,40.9161,M,M,M,320.00,11.00,M,29.93,M,3.00,M,OVC,M,M,M,400.00,M,M,M,BR,KCAK 010845Z AUTO 32011KT 3SM BR OVC004 A2993 RMK MADISHF
CAK,2017-04-01 08:50,-81.4422,40.9161,M,M,M,310.00,8.00,M,29.93,M,3.00,M,BKN,OVC,M,M,400.00,999.00,M,M,BR,KCAK 010850Z AUTO 31008KT 3SM BR BKN004 OVC009 A2993 RMK MADISHF
CAK,2017-04-01 08:51,-81.4422,40.9161,37.90,34.00,85.69,310.00,10.00,0.00,29.93,1014.10,3.00,18.00,BKN,OVC,M,M,400.00,1000.00,M,M,BR,KCAK 010851Z 31010G18KT 3SM BR BKN004 OVC010 03/01 A2993 RMK AO2 SLP141 T00330011 53028
CAK,2017-04-01 08:55,-81.4422,40.9161,M,M,M,M,M,M,29.94,M,3.00,M,BKN,OVC,M,M,400.00,999.00,M,M,BR,KCAK 010855Z AUTO /////KT 3SM BR BKN004 OVC009 A2994 RMK MADISHF
CAK,2017-04-01 09:00,-81.4422,40.9161,M,M,M,310.00,12.00,M,29.94,M,3.00,M,BKN,OVC,M,M,400.00,999.00,M,M,BR,KCAK 010900Z AUTO 31012KT 3SM BR BKN004 OVC009 A2994 RMK MADISHF
CAK,2017-04-01 09:05,-81.4422,40.9161,M,M,M,310.00,9.00,M,29.94,M,3.00,M,BKN,OVC,M,M,400.00,999.00,M,M,BR,KCAK 010905Z AUTO 31009KT 3SM BR BKN004 OVC009 A2994 RMK MADISHF
CAK,2017-04-01 09:10,-81.4422,40.9161,M,M,M,310.00,10.00,M,29.94,M,3.00,M,BKN,OVC,M,M,400.00,999.00,M,M,BR,KCAK 010910Z AUTO 31010KT 3SM BR BKN004 OVC009 A2994 RMK MADISHF
CAK,2017-04-01 09:15,-81.4422,40.9161,M,M,M,310.00,9.00,M,29.94,M,3.00,M,BKN,OVC,M,M,400.00,999.00,M,M,BR,KCAK 010915Z AUTO 31009KT 3SM BR BKN004 OVC009 A2994 RMK MADISHF
CAK,2017-04-01 09:20,-81.4422,40.9161,M,M,M,310.00,11.00,M,29.94,M,3.00,M,BKN,OVC,M,M,400.00,999.00,M,M,BR,KCAK 010920Z AUTO 31011KT 3SM BR BKN004 OVC009 A2994 RMK MADISHF
CAK,2017-04-01 09:25,-81.4422,40.9161,M,M,M,320.00,9.00,M,29.94,M,3.00,M,BKN,OVC,M,M,400.00,999.00,M,M,BR,KCAK 010925Z AUTO 32009KT 3SM BR BKN004 OVC009 A2994 RMK MADISHF
CAK,2017-04-01 09:30,-81.4422,40.9161,M,M,M,310.00,11.00,M,29.94,M,3.00,M,BKN,OVC,M,M,400.00,999.00,M,M,BR,KCAK 010930Z AUTO 31011KT 3SM BR BKN004 OVC009 A2994 RMK MADISHF
CAK,2017-04-01 09:35,-81.4422,40.9161,M,M,M,320.00,8.00,M,29.94,M,3.00,M,BKN,OVC,M,M,400.00,999.00,M,M,BR,KCAK 010935Z AUTO 32008KT 3SM BR BKN004 OVC009 A2994 RMK MADISHF
CAK,2017-04-01 09:40,-81.4422,40.9161,M,M,M,320.00,9.00,M,29.94,M,3.00,M,BKN,OVC,M,M,400.00,999.00,M,M,BR,KCAK 010940Z AUTO 32009KT 3SM BR BKN004 OVC009 A2994 RMK MADISHF
CAK,2017-04-01 09:45,-81.4422,40.9161,M,M,M,320.00,10.00,M,29.95,M,3.00,M,BKN,OVC,M,M,400.00,999.00,M,M,BR,KCAK 010945Z AUTO 32010KT 3SM BR BKN004 OVC009 A2995 RMK MADISHF
CAK,2017-04-01 09:50,-81.4422,40.9161,M,M,M,320.00,7.00,M,29.94,M,4.00,M,OVC,M,M,M,499.00,M,M,M,BR,KCAK 010950Z AUTO 32007KT 4SM BR OVC004 A2994 RMK MADISHF
CAK,2017-04-01 09:51,-81.4422,40.9161,37.00,34.00,88.78,320.00,6.00,0.00,29.94,1014.30,4.00,M,OVC,M,M,M,500.00,M,M,M,BR,KCAK 010951Z 32006KT 4SM BR OVC005 03/01 A2994 RMK AO2 SLP143 T00280011
CAK,2017-04-01 09:55,-81.4422,40.9161,M,M,M,320.00,7.00,M,29.94,M,4.00,M,OVC,M,M,M,499.00,M,M,M,BR,KCAK 010955Z AUTO 32007KT 4SM BR OVC004 A2994 RMK MADISHF
CAK,2017-04-01 10:00,-81.4422,40.9161,M,M,M,330.00,8.00,M,29.94,M,4.00,M,OVC,M,M,M,499.00,M,M,M,BR,KCAK 011000Z AUTO 33008KT 4SM BR OVC004 A2994 RMK MADISHF
CAK,2017-04-01 10:05,-81.4422,40.9161,M,M,M,320.00,7.00,M,29.95,M,4.00,M,OVC,M,M,M,499.00,M,M,M,BR,KCAK 011005Z AUTO 32007KT 4SM BR OVC004 A2995 RMK MADISHF
CAK,2017-04-01 10:10,-81.4422,40.9161,M,M,M,330.00,7.00,M,29.95,M,4.00,M,OVC,M,M,M,499.00,M,M,M,BR,KCAK 011010Z AUTO 33007KT 4SM BR OVC004 A2995 RMK MADISHF
CAK,2017-04-01 10:15,-81.4422,40.9161,M,M,M,330.00,6.00,M,29.95,M,4.00,M,OVC,M,M,M,499.00,M,M,M,BR,KCAK 011015Z AUTO 33006KT 4SM BR OVC004 A2995 RMK MADISHF
CAK,2017-04-01 10:20,-81.4422,40.9161,M,M,M,320.00,6.00,M,29.95,M,5.00,M,OVC,M,M,M,499.00,M,M,M,BR,KCAK 011020Z AUTO 32006KT 5SM BR OVC004 A2995 RMK MADISHF
CAK,2017-04-01 10:25,-81.4422,40.9161,M,M,M,330.00,6.00,M,29.96,M,5.00,M,OVC,M,M,M,499.00,M,M,M,BR,KCAK 011025Z AUTO 33006KT 5SM BR OVC004 A2996 RMK MADISHF
CAK,2017-04-01 10:30,-81.4422,40.9161,M,M,M,330.00,9.00,M,29.96,M,5.00,M,OVC,M,M,M,499.00,M,M,M,BR,KCAK 011030Z AUTO 33009KT 5SM BR OVC004 A2996 RMK MADISHF
CAK,2017-04-01 10:35,-81.4422,40.9161,M,M,M,320.00,10.00,M,29.96,M,6.00,M,OVC,M,M,M,499.00,M,M,M,BR,KCAK 011035Z AUTO 32010KT 6SM BR OVC004 A2996 RMK MADISHF
CAK,2017-04-01 10:40,-81.4422,40.9161,M,M,M,320.00,9.00,M,29.97,M,6.00,M,OVC,M,M,M,499.00,M,M,M,BR,KCAK 011040Z AUTO 32009KT 6SM BR OVC004 A2997 RMK MADISHF
CAK,2017-04-01 10:45,-81.4422,40.9161,M,M,M,320.00,8.00,M,29.97,M,7.00,M,OVC,M,M,M,499.00,M,M,M,M,KCAK 011045Z AUTO 32008KT 7SM OVC004 A2997 RMK MADISHF
CAK,2017-04-01 10:50,-81.4422,40.9161,M,M,M,320.00,8.00,M,29.97,M,6.00,M,OVC,M,M,M,499.00,M,M,M,BR,KCAK 011050Z AUTO 32008KT 6SM BR OVC004 A2997 RMK MADISHF
CAK,2017-04-01 10:51,-81.4422,40.9161,37.00,34.00,88.78,330.00,7.00,0.00,29.97,1015.60,6.00,M,OVC,M,M,M,500.00,M,M,M,BR,KCAK 011051Z 33007KT 6SM BR OVC005 03/01 A2997 RMK AO2 SLP156 T00280011
CAK,2017-04-01 10:55,-81.4422,40.9161,M,M,M,330.00,8.00,M,29.98,M,6.00,M,OVC,M,M,M,400.00,M,M,M,BR,KCAK 011055Z AUTO 33008KT 6SM BR OVC004 A2998 RMK MADISHF
CAK,2017-04-01 11:00,-81.4422,40.9161,M,M,M,320.00,8.00,M,29.98,M,6.00,M,OVC,M,M,M,499.00,M,M,M,BR,KCAK 011100Z AUTO 32008KT 6SM BR OVC004 A2998 RMK MADISHF
CAK,2017-04-01 11:05,-81.4422,40.9161,M,M,M,320.00,10.00,M,29.99,M,5.00,M,OVC,M,M,M,499.00,M,M,M,BR,KCAK 011105Z AUTO 32010KT 5SM BR OVC004 A2999 RMK MADISHF
CAK,2017-04-01 11:10,-81.4422,40.9161,M,M,M,320.00,11.00,M,29.99,M,4.00,M,OVC,M,M,M,499.00,M,M,M,BR,KCAK 011110Z AUTO 32011KT 4SM BR OVC004 A2999 RMK MADISHF
CAK,2017-04-01 11:15,-81.4422,40.9161,M,M,M,330.00,12.00,M,29.99,M,4.00,M,OVC,M,M,M,499.00,M,M,M,BR,KCAK 011115Z AUTO 33012KT 4SM BR OVC004 A2999 RMK MADISHF
CAK,2017-04-01 11:20,-81.4422,40.9161,M,M,M,340.00,9.00,M,29.99,M,3.50,M,OVC,M,M,M,499.00,M,M,M,BR,KCAK 011120Z AUTO 34009KT 3SM BR OVC004 A2999 RMK MADISHF
CAK,2017-04-01 11:25,-81.4422,40.9161,M,M,M,330.00,8.00,M,30.00,M,3.00,M,OVC,M,M,M,499.00,M,M,M,BR,KCAK 011125Z AUTO 33008KT 3SM BR OVC004 A3000 RMK MADISHF
CAK,2017-04-01 11:30,-81.4422,40.9161,M,M,M,330.00,9.00,M,30.00,M,3.00,M,OVC,M,M,M,499.00,M,M,M,BR,KCAK 011130Z AUTO 33009KT 3SM BR OVC004 A3000 RMK MADISHF
CAK,2017-04-01 11:35,-81.4422,40.9161,M,M,M,310.00,10.00,M,30.00,M,3.00,M,OVC,M,M,M,499.00,M,M,M,BR,KCAK 011135Z AUTO 31010KT 3SM BR OVC004 A3000 RMK MADISHF
CAK,2017-04-01 11:40,-81.4422,40.9161,M,M,M,310.00,8.00,M,30.01,M,2.50,M,OVC,M,M,M,300.00,M,M,M,BR,KCAK 011140Z AUTO 31008KT 2 1/2SM BR OVC003 A3001 RMK MADISHF
CAK,2017-04-01 11:41,-81.4422,40.9161,37.00,34.00,88.78,310.00,9.00,0.00,30.01,M,2.50,M,OVC,M,M,M,300.00,M,M,M,BR,KCAK 011141Z 31009KT 2 1/2SM BR OVC003 03/01 A3001 RMK AO2 TWR VIS 3 T00280011
CAK,2017-04-01 11:45,-81.4422,40.9161,M,M,M,330.00,9.00,M,30.01,M,2.50,M,OVC,M,M,M,300.00,M,M,M,BR,KCAK 011145Z AUTO 33009KT 2 1/2SM BR OVC003 A3001 RMK MADISHF
CAK,2017-04-01 11:50,-81.4422,40.9161,M,M,M,330.00,9.00,M,30.01,M,2.50,M,OVC,M,M,M,300.00,M,M,M,BR,KCAK 011150Z AUTO 33009KT 2 1/2SM BR OVC003 A3001 RMK MADISHF
CAK,2017-04-01 11:51,-81.4422,40.9161,37.00,34.00,88.78,330.00,8.00,0.00,30.01,1017.10,2.50,M,OVC,M,M,M,300.00,M,M,M,BR,KCAK 011151Z 33008KT 2 1/2SM BR OVC003 03/01 A3001 RMK AO2 TWR VIS 3 SLP171 70094 T00280011 10039 20028 53025
CAK,2017-04-01 11:55,-81.4422,40.9161,M,M,M,330.00,6.00,M,30.01,M,2.50,M,OVC,M,M,M,300.00,M,M,M,BR,KCAK 011155Z AUTO 33006KT 2 1/2SM BR OVC003 A3001 RMK MADISHF
CAK,2017-04-01 12:00,-81.4422,40.9161,M,M,M,340.00,7.00,M,30.02,M,2.50,M,OVC,M,M,M,300.00,M,M,M,BR,KCAK 011200Z AUTO 34007KT 2 1/2SM BR OVC003 A3002 RMK MADISHF
CAK,2017-04-01 12:05,-81.4422,40.9161,M,M,M,330.00,6.00,M,30.02,M,2.50,M,OVC,M,M,M,300.00,M,M,M,BR,KCAK 011205Z AUTO 33006KT 2 1/2SM BR OVC003 A3002 RMK MADISHF
CAK,2017-04-01 12:10,-81.4422,40.9161,M,M,M,320.00,6.00,M,30.03,M,2.50,M,OVC,M,M,M,300.00,M,M,M,BR,KCAK 011210Z AUTO 32006KT 2 1/2SM BR OVC003 A3003 RMK MADISHF
CAK,2017-04-01 12:15,-81.4422,40.9161,M,M,M,320.00,8.00,M,30.03,M,2.50,M,OVC,M,M,M,300.00,M,M,M,BR,KCAK 011215Z AUTO 32008KT 2 1/2SM BR OVC003 A3003 RMK MADISHF
CAK,2017-04-01 12:20,-81.4422,40.9161,M,M,M,320.00,9.00,M,30.03,M,2.50,M,OVC,M,M,M,300.00,M,M,M,BR,KCAK 011220Z AUTO 32009KT 2 1/2SM BR OVC003 A3003 RMK MADISHF
CAK,2017-04-01 12:25,-81.4422,40.9161,M,M,M,330.00,9.00,M,30.03,M,2.50,M,OVC,M,M,M,300.00,M,M,M,BR,KCAK 011225Z AUTO 33009KT 2 1/2SM BR OVC003 A3003 RMK MADISHF
CAK,2017-04-01 12:30,-81.4422,40.9161,M,M,M,330.00,10.00,M,30.03,M,2.50,M,OVC,M,M,M,300.00,M,M,M,BR,KCAK 011230Z AUTO 33010KT 2 1/2SM BR OVC003 A3003 RMK MADISHF
CAK,2017-04-01 12:35,-81.4422,40.9161,M,M,M,320.00,8.00,M,30.04,M,2.50,M,OVC,M,M,M,300.00,M,M,M,BR,KCAK 011235Z AUTO 32008KT 2 1/2SM BR OVC003 A3004 RMK MADISHF
CAK,2017-04-01 12:40,-81.4422,40.9161,M,M,M,320.00,7.00,M,30.04,M,2.50,M,OVC,M,M,M,300.00,M,M,M,BR,KCAK 011240Z AUTO 32007KT 2 1/2SM BR OVC003 A3004 RMK MADISHF
CAK,2017-04-01 12:45,-81.4422,40.9161,M,M,M,320.00,11.00,M,30.04,M,2.50,M,OVC,M,M,M,300.00,M,M,M,BR,KCAK 011245Z AUTO 32011KT 2 1/2SM BR OVC003 A3004 RMK MADISHF
CAK,2017-04-01 12:50,-81.4422,40.9161,M,M,M,320.00,8.00,M,30.04,M,2.50,M,BKN,OVC,M,M,400.00,800.00,M,M,-RA BR,KCAK 011250Z AUTO 32008KT 2 1/2SM -RA BR BKN004 OVC008 A3004 RMK MADISHF
CAK,2017-04-01 12:51,-81.4422,40.9161,37.00,34.00,88.78,320.00,9.00,0.00,30.04,1018.10,2.50,M,BKN,OVC,M,M,400.00,800.00,M,M,-RA BR,KCAK 011251Z 32009KT 2 1/2SM -RA BR BKN004 OVC008 03/01 A3004 RMK AO2 TWR VIS 3 RAB50 SLP181 P0000 T00280011
CAK,2017-04-01 12:55,-81.4422,40.9161,M,M,M,320.00,10.00,0.01,30.05,M,2.50,M,BKN,OVC,M,M,400.00,800.00,M,M,-RA BR,KCAK 011255Z AUTO 32010KT 2 1/2SM -RA BR BKN004 OVC008 A3005 RMK P0001 MADISHF
CAK,2017-04-01 13:00,-81.4422,40.9161,M,M,M,320.00,10.00,0.01,30.05,M,2.50,M,BKN,OVC,M,M,400.00,800.00,M,M,-RA BR,KCAK 011300Z AUTO 32010KT 2 1/2SM -RA BR BKN004 OVC008 A3005 RMK P0001 MADISHF
CAK,2017-04-01 13:05,-81.4422,40.9161,M,M,M,330.00,11.00,0.01,30.05,M,2.50,M,BKN,OVC,M,M,400.00,800.00,M,M,-RA BR,KCAK 011305Z AUTO 33011KT 2 1/2SM -RA BR BKN004 OVC008 A3005 RMK P0001 MADISHF
CAK,2017-04-01 13:10,-81.4422,40.9161,M,M,M,330.00,10.00,0.01,30.05,M,2.50,M,BKN,OVC,M,M,400.00,800.00,M,M,-RA BR,KCAK 011310Z AUTO 33010KT 2 1/2SM -RA BR BKN004 OVC008 A3005 RMK P0001 MADISHF
CAK,2017-04-01 13:15,-81.4422,40.9161,M,M,M,330.00,9.00,0.01,30.06,M,2.50,M,BKN,OVC,M,M,400.00,800.00,M,M,-RA BR,KCAK 011315Z AUTO 33009KT 2 1/2SM -RA BR BKN004 OVC008 A3006 RMK P0001 MADISHF
CAK,2017-04-01 13:19,-81.4422,40.9161,37.90,34.00,85.69,320.00,10.00,0.01,30.06,M,3.00,M,OVC,M,M,M,600.00,M,M,M,-RA BR,KCAK 011319Z 32010KT 3SM -RA BR OVC006 03/01 A3006 RMK AO2 P0001 T00330011
CAK,2017-04-01 13:20,-81.4422,40.9161,M,M,M,330.00,11.00,0.01,30.06,M,3.00,M,OVC,M,M,M,600.00,M,M,M,-RA BR,KCAK 011320Z AUTO 33011KT 3SM -RA BR OVC006 A3006 RMK P0001 MADISHF
CAK,2017-04-01 13:25,-81.4422,40.9161,M,M,M,330.00,11.00,0.01,30.06,M,3.00,M,OVC,M,M,M,600.00,M,M,M,-RA BR,KCAK 011325Z AUTO 33011KT 3SM -RA BR OVC006 A3006 RMK P0001 MADISHF
CAK,2017-04-01 13:30,-81.4422,40.9161,M,M,M,320.00,10.00,0.01,30.06,M,3.00,M,OVC,M,M,M,600.00,M,M,M,-RA BR,KCAK 011330Z AUTO 32010KT 3SM -RA BR OVC006 A3006 RMK P0001 MADISHF
CAK,2017-04-01 13:35,-81.4422,40.9161,M,M,M,330.00,9.00,0.01,30.07,M,3.00,M,OVC,M,M,M,600.00,M,M,M,-RA BR,KCAK 011335Z AUTO 33009KT 3SM -RA BR OVC006 A3007 RMK P0001 MADISHF
CAK,2017-04-01 13:40,-81.4422,40.9161,M,M,M,320.00,9.00,0.01,30.06,M,3.00,M,OVC,M,M,M,800.00,M,M,M,BR,KCAK 011340Z AUTO 32009KT 3SM BR OVC008 A3006 RMK P0001 MADISHF
CAK,2017-04-01 13:45,-81.4422,40.9161,M,M,M,320.00,10.00,0.01,30.06,M,3.00,M,OVC,M,M,M,499.00,M,M,M,-DZ BR,KCAK 011345Z AUTO 32010KT 3SM -DZ BR OVC004 A3006 RMK P0001 MADISHF
CAK,2017-04-01 13:50,-81.4422,40.9161,M,M,M,320.00,11.00,0.01,30.07,M,3.00,M,OVC,M,M,M,499.00,M,M,M,-DZ BR,KCAK 011350Z AUTO 32011KT 3SM -DZ BR OVC004 A3007 RMK P0001 MADISHF
CAK,2017-04-01 13:51,-81.4422,40.9161,37.90,34.00,85.69,330.00,9.00,0.01,30.07,1018.90,3.00,M,OVC,M,M,M,500.00,M,M,M,BR,KCAK 011351Z 33009KT 3SM BR OVC005 03/01 A3007 RMK AO2 SFC VIS 4 RAE39DZB44E51 SLP189 P0001 T00330011
CAK,2017-04-01 13:55,-81.4422,40.9161,M,M,M,320.00,11.00,M,30.07,M,4.00,M,OVC,M,M,M,499.00,M,M,M,BR,KCAK 011355Z AUTO 32011KT 4SM BR OVC004 A3007 RMK MADISHF
CAK,2017-04-01 14:00,-81.4422,40.9161,M,M,M,320.00,9.00,M,30.07,M,4.00,M,OVC,M,M,M,499.00,M,M,M,BR,KCAK 011400Z AUTO 32009KT 4SM BR OVC004 A3007 RMK MADISHF
CAK,2017-04-01 14:05,-81.4422,40.9161,M,M,M,330.00,11.00,M,30.07,M,4.00,M,OVC,M,M,M,499.00,M,M,M,BR,KCAK 011405Z AUTO 33011KT 4SM BR OVC004 A3007 RMK MADISHF
CAK,2017-04-01 14:10,-81.4422,40.9161,M,M,M,330.00,12.00,M,30.07,M,5.00,M,OVC,M,M,M,499.00,M,M,M,BR,KCAK 011410Z AUTO 33012KT 5SM BR OVC004 A3007 RMK MADISHF
CAK,2017-04-01 14:15,-81.4422,40.9161,M,M,M,330.00,10.00,M,30.07,M,5.00,M,OVC,M,M,M,700.00,M,M,M,BR,KCAK 011415Z AUTO 33010KT 5SM BR OVC007 A3007 RMK MADISHF
CAK,2017-04-01 14:20,-81.4422,40.9161,M,M,M,330.00,12.00,M,30.07,M,5.00,M,OVC,M,M,M,700.00,M,M,M,BR,KCAK 011420Z AUTO 33012KT 5SM BR OVC007 A3007 RMK MADISHF
CAK,2017-04-01 14:25,-81.4422,40.9161,M,M,M,310.00,11.00,M,30.08,M,5.00,M,OVC,M,M,M,700.00,M,M,M,HZ,KCAK 011425Z AUTO 31011KT 5SM HZ OVC007 A3008 RMK MADISHF
CAK,2017-04-01 14:30,-81.4422,40.9161,M,M,M,320.00,8.00,M,30.08,M,7.00,M,OVC,M,M,M,600.00,M,M,M,M,KCAK 011430Z AUTO 32008KT 7SM OVC006 A3008 RMK MADISHF
CAK,2017-04-01 14:35,-81.4422,40.9161,M,M,M,320.00,10.00,M,30.08,M,7.00,M,OVC,M,M,M,600.00,M,M,M,M,KCAK 011435Z AUTO 32010KT 7SM OVC006 A3008 RMK MADISHF
CAK,2017-04-01 14:40,-81.4422,40.9161,M,M,M,310.00,12.00,M,30.08,M,8.00,M,OVC,M,M,M,600.00,M,M,M,M,KCAK 011440Z AUTO 31012KT 8SM OVC006 A3008 RMK MADISHF
CAK,2017-04-01 14:45,-81.4422,40.9161,M,M,M,320.00,11.00,M,30.08,M,9.00,M,OVC,M,M,M,600.00,M,M,M,M,KCAK 011445Z AUTO 32011KT 9SM OVC006 A3008 RMK MADISHF
CAK,2017-04-01 14:50,-81.4422,40.9161,M,M,M,330.00,10.00,M,30.08,M,10.00,M,OVC,M,M,M,800.00,M,M,M,M,KCAK 011450Z AUTO 33010KT 10SM OVC008 A3008 RMK MADISHF
CAK,2017-04-01 14:51,-81.4422,40.9161,37.00,33.10,85.64,330.00,10.00,0.00,30.08,1019.40,3.00,M,OVC,M,M,M,800.00,M,M,M,M,KCAK 011451Z 33010KT 3SM OVC008 03/01 A3008 RMK AO2 SFC VIS 10 SLP194 60001 T00280006 51023
CAK,2017-04-01 14:55,-81.4422,40.9161,M,M,M,330.00,12.00,M,30.08,M,10.00,M,OVC,M,M,M,800.00,M,M,M,M,KCAK 011455Z AUTO 33012KT 10SM OVC008 A3008 RMK MADISHF
CAK,2017-04-01 15:00,-81.4422,40.9161,M,M,M,330.00,11.00,M,30.08,M,10.00,M,OVC,M,M,M,800.00,M,M,M,M,KCAK 011500Z AUTO 33011KT 10SM OVC008 A3008 RMK MADISHF
CAK,2017-04-01 15:05,-81.4422,40.9161,M,M,M,330.00,10.00,M,30.09,M,10.00,M,OVC,M,M,M,700.00,M,M,M,M,KCAK 011505Z AUTO 33010KT 10SM OVC007 A3009 RMK MADISHF
CAK,2017-04-01 15:10,-81.4422,40.9161,M,M,M,330.00,7.00,M,30.09,M,10.00,M,OVC,M,M,M,700.00,M,M,M,M,KCAK 011510Z AUTO 33007KT 10SM OVC007 A3009 RMK MADISHF
CAK,2017-04-01 15:15,-81.4422,40.9161,M,M,M,330.00,7.00,M,30.08,M,10.00,M,OVC,M,M,M,700.00,M,M,M,M,KCAK 011515Z AUTO 33007KT 10SM OVC007 A3008 RMK MADISHF
CAK,2017-04-01 15:20,-81.4422,40.9161,M,M,M,330.00,9.00,M,30.09,M,10.00,M,OVC,M,M,M,700.00,M,M,M,M,KCAK 011520Z AUTO 33009KT 10SM OVC007 A3009 RMK MADISHF
CAK,2017-04-01 15:25,-81.4422,40.9161,M,M,M,320.00,9.00,M,30.09,M,10.00,M,OVC,M,M,M,700.00,M,M,M,M,KCAK 011525Z AUTO 32009KT 10SM OVC007 A3009 RMK MADISHF
CAK,2017-04-01 15:30,-81.4422,40.9161,M,M,M,340.00,7.00,M,30.08,M,10.00,M,OVC,M,M,M,700.00,M,M,M,M,KCAK 011530Z AUTO 34007KT 10SM OVC007 A3008 RMK MADISHF
CAK,2017-04-01 15:35,-81.4422,40.9161,M,M,M,340.00,7.00,M,30.08,M,10.00,M,OVC,M,M,M,600.00,M,M,M,M,KCAK 011535Z AUTO 34007KT 10SM OVC006 A3008 RMK MADISHF
CAK,2017-04-01 15:40,-81.4422,40.9161,M,M,M,320.00,7.00,M,30.08,M,10.00,M,OVC,M,M,M,600.00,M,M,M,M,KCAK 011540Z AUTO 32007KT 10SM OVC006 A3008 RMK MADISHF
CAK,2017-04-01 15:45,-81.4422,40.9161,M,M,M,310.00,8.00,M,30.08,M,10.00,M,OVC,M,M,M,600.00,M,M,M,M,KCAK 011545Z AUTO 31008KT 10SM OVC006 A3008 RMK MADISHF
CAK,2017-04-01 15:50,-81.4422,40.9161,M,M,M,330.00,9.00,M,30.08,M,10.00,M,OVC,M,M,M,600.00,M,M,M,M,KCAK 011550Z AUTO 33009KT 10SM OVC006 A3008 RMK MADISHF
CAK,2017-04-01 15:51,-81.4422,40.9161,37.90,34.00,85.69,330.00,9.00,0.00,30.08,1019.50,10.00,M,OVC,M,M,M,700.00,M,M,M,M,KCAK 011551Z 33009KT 10SM OVC007 03/01 A3008 RMK AO2 SLP195 T00330011
CAK,2017-04-01 15:55,-81.4422,40.9161,M,M,M,330.00,9.00,M,30.08,M,10.00,M,OVC,M,M,M,700.00,M,M,M,M,KCAK 011555Z AUTO 33009KT 10SM OVC007 A3008 RMK MADISHF
CAK,2017-04-01 16:00,-81.4422,40.9161,M,M,M,320.00,10.00,M,30.09,M,10.00,M,OVC,M,M,M,700.00,M,M,M,M,KCAK 011600Z AUTO 32010KT 10SM OVC007 A3009 RMK MADISHF
CAK,2017-04-01 16:05,-81.4422,40.9161,M,M,M,330.00,10.00,M,30.09,M,10.00,M,OVC,M,M,M,700.00,M,M,M,M,KCAK 011605Z AUTO 33010KT 10SM OVC007 A3009 RMK MADISHF
CAK,2017-04-01 16:10,-81.4422,40.9161,M,M,M,320.00,9.00,M,30.10,M,10.00,M,OVC,M,M,M,800.00,M,M,M,M,KCAK 011610Z AUTO 32009KT 10SM OVC008 A3010 RMK MADISHF
CAK,2017-04-01 16:15,-81.4422,40.9161,M,M,M,300.00,11.00,M,30.10,M,10.00,M,OVC,M,M,M,800.00,M,M,M,M,KCAK 011615Z AUTO 30011KT 10SM OVC008 A3010 RMK MADISHF
CAK,2017-04-01 16:20,-81.4422,40.9161,M,M,M,330.00,11.00,M,30.10,M,10.00,M,OVC,M,M,M,800.00,M,M,M,M,KCAK 011620Z AUTO 33011KT 10SM OVC008 A3010 RMK MADISHF
CAK,2017-04-01 16:25,-81.4422,40.9161,M,M,M,310.00,11.00,M,30.10,M,10.00,M,OVC,M,M,M,800.00,M,M,M,M,KCAK 011625Z AUTO 31011KT 10SM OVC008 A3010 RMK MADISHF
CAK,2017-04-01 16:30,-81.4422,40.9161,M,M,M,320.00,10.00,M,30.11,M,10.00,M,OVC,M,M,M,800.00,M,M,M,M,KCAK 011630Z AUTO 32010KT 10SM OVC008 A3011 RMK MADISHF
CAK,2017-04-01 16:35,-81.4422,40.9161,M,M,M,320.00,7.00,M,30.10,M,10.00,M,OVC,M,M,M,800.00,M,M,M,M,KCAK 011635Z AUTO 32007KT 10SM OVC008 A3010 RMK MADISHF
CAK,2017-04-01 16:40,-81.4422,40.9161,M,M,M,320.00,11.00,M,30.10,M,10.00,M,OVC,M,M,M,800.00,M,M,M,M,KCAK 011640Z AUTO 32011KT 10SM OVC008 A3010 RMK MADISHF
CAK,2017-04-01 16:45,-81.4422,40.9161,M,M,M,320.00,9.00,M,30.10,M,10.00,14.00,OVC,M,M,M,800.00,M,M,M,M,KCAK 011645Z AUTO 32009G14KT 10SM OVC008 A3010 RMK MADISHF
CAK,2017-04-01 16:50,-81.4422,40.9161,M,M,M,330.00,11.00,M,30.10,M,10.00,M,OVC,M,M,M,900.00,M,M,M,M,KCAK 011650Z AUTO 33011KT 10SM OVC009 A3010 RMK MADISHF
CAK,2017-04-01 16:51,-81.4422,40.9161,37.90,33.10,82.66,330.00,9.00,0.00,30.10,1020.10,10.00,M,OVC,M,M,M,1000.00,M,M,M,M,KCAK 011651Z 33009KT 10SM OVC010 03/01 A3010 RMK AO2 SLP201 T00330006
CAK,2017-04-01 16:55,-81.4422,40.9161,M,M,M,320.00,10.00,M,30.10,M,10.00,M,OVC,M,M,M,999.00,M,M,M,M,KCAK 011655Z AUTO 32010KT 10SM OVC009 A3010 RMK MADISHF
CAK,2017-04-01 17:00,-81.4422,40.9161,M,M,M,310.00,10.00,M,30.11,M,10.00,M,OVC,M,M,M,999.00,M,M,M,M,KCAK 011700Z AUTO 31010KT 10SM OVC009 A3011 RMK MADISHF
CAK,2017-04-01 17:05,-81.4422,40.9161,M,M,M,320.00,10.00,M,30.11,M,10.00,M,OVC,M,M,M,999.00,M,M,M,M,KCAK 011705Z AUTO 32010KT 10SM OVC009 A3011 RMK MADISHF
CAK,2017-04-01 17:10,-81.4422,40.9161,M,M,M,310.00,7.00,M,30.11,M,10.00,M,OVC,M,M,M,999.00,M,M,M,M,KCAK 011710Z AUTO 31007KT 10SM OVC009 A3011 RMK MADISHF
CAK,2017-04-01 17:15,-81.4422,40.9161,M,M,M,320.00,10.00,M,30.11,M,10.00,M,OVC,M,M,M,999.00,M,M,M,M,KCAK 011715Z AUTO 32010KT 10SM OVC009 A3011 RMK MADISHF
CAK,2017-04-01 17:20,-81.4422,40.9161,M,M,M,320.00,10.00,M,30.11,M,10.00,M,OVC,M,M,M,999.00,M,M,M,M,KCAK 011720Z AUTO 32010KT 10SM OVC009 A3011 RMK MADISHF
CAK,2017-04-01 17:25,-81.4422,40.9161,M,M,M,310.00,9.00,M,30.11,M,10.00,M,OVC,M,M,M,999.00,M,M,M,M,KCAK 011725Z AUTO 31009KT 10SM OVC009 A3011 RMK MADISHF
CAK,2017-04-01 17:30,-81.4422,40.9161,M,M,M,310.00,9.00,M,30.11,M,10.00,M,OVC,M,M,M,999.00,M,M,M,M,KCAK 011730Z AUTO 31009KT 10SM OVC009 A3011 RMK MADISHF
CAK,2017-04-01 17:35,-81.4422,40.9161,M,M,M,M,M,M,30.11,M,10.00,M,OVC,M,M,M,999.00,M,M,M,M,KCAK 011735Z AUTO /////KT 10SM OVC009 A3011 RMK MADISHF
CAK,2017-04-01 17:40,-81.4422,40.9161,M,M,M,310.00,10.00,M,30.11,M,10.00,M,OVC,M,M,M,999.00,M,M,M,M,KCAK 011740Z AUTO 31010KT 10SM OVC009 A3011 RMK MADISHF
CAK,2017-04-01 17:45,-81.4422,40.9161,M,M,M,330.00,10.00,M,30.11,M,10.00,M,OVC,M,M,M,999.00,M,M,M,M,KCAK 011745Z AUTO 33010KT 10SM OVC009 A3011 RMK MADISHF
CAK,2017-04-01 17:50,-81.4422,40.9161,M,M,M,330.00,8.00,M,30.11,M,10.00,M,OVC,M,M,M,999.00,M,M,M,M,KCAK 011750Z AUTO 33008KT 10SM OVC009 A3011 RMK MADISHF
CAK,2017-04-01 17:51,-81.4422,40.9161,39.00,33.10,79.17,320.00,8.00,0.00,30.11,1020.50,10.00,M,OVC,M,M,M,1000.00,M,M,M,M,KCAK 011751Z 32008KT 10SM OVC010 04/01 A3011 RMK AO2 SLP205 60001 T00390006 10044 20028 53009
CAK,2017-04-01 17:55,-81.4422,40.9161,M,M,M,310.00,8.00,M,30.11,M,10.00,M,OVC,M,M,M,999.00,M,M,M,M,KCAK 011755Z AUTO 31008KT 10SM OVC009 A3011 RMK MADISHF
CAK,2017-04-01 18:00,-81.4422,40.9161,M,M,M,320.00,9.00,M,30.11,M,10.00,M,OVC,M,M,M,999.00,M,M,M,M,KCAK 011800Z AUTO 32009KT 10SM OVC009 A3011 RMK MADISHF
CAK,2017-04-01 18:05,-81.4422,40.9161,M,M,M,310.00,9.00,M,30.11,M,9.00,M,OVC,M,M,M,999.00,M,M,M,M,KCAK 011805Z AUTO 31009KT 9SM OVC009 A3011 RMK MADISHF
CAK,2017-04-01 18:10,-81.4422,40.9161,M,M,M,330.00,10.00,M,30.11,M,8.00,M,OVC,M,M,M,999.00,M,M,M,M,KCAK 011810Z AUTO 33010KT 8SM OVC009 A3011 RMK MADISHF
CAK,2017-04-01 18:15,-81.4422,40.9161,M,M,M,330.00,10.00,M,30.11,M,8.00,M,OVC,M,M,M,999.00,M,M,M,M,KCAK 011815Z AUTO 33010KT 8SM OVC009 A3011 RMK MADISHF
CAK,2017-04-01 18:20,-81.4422,40.9161,M,M,M,330.00,8.00,M,30.11,M,8.00,M,OVC,M,M,M,999.00,M,M,M,M,KCAK 011820Z AUTO 33008KT 8SM OVC009 A3011 RMK MADISHF
CAK,2017-04-01 18:25,-81.4422,40.9161,M,M,M,310.00,8.00,M,30.11,M,8.00,M,OVC,M,M,M,999.00,M,M,M,M,KCAK 011825Z AUTO 31008KT 8SM OVC009 A3011 RMK MADISHF
CAK,2017-04-01 18:30,-81.4422,40.9161,M,M,M,310.00,9.00,M,30.11,M,8.00,M,OVC,M,M,M,999.00,M,M,M,M,KCAK 011830Z AUTO 31009KT 8SM OVC009 A3011 RMK MADISHF
CAK,2017-04-01 18:35,-81.4422,40.9161,M,M,M,310.00,10.00,M,30.11,M,8.00,M,OVC,M,M,M,999.00,M,M,M,M,KCAK 011835Z AUTO 31010KT 8SM OVC009 A3011 RMK MADISHF
CAK,2017-04-01 18:40,-81.4422,40.9161,M,M,M,320.00,8.00,M,30.11,M,8.00,M,OVC,M,M,M,999.00,M,M,M,M,KCAK 011840Z AUTO 32008KT 8SM OVC009 A3011 RMK MADISHF
CAK,2017-04-01 18:45,-81.4422,40.9161,M,M,M,320.00,9.00,M,30.11,M,8.00,M,OVC,M,M,M,1200.00,M,M,M,M,KCAK 011845Z AUTO 32009KT 8SM OVC012 A3011 RMK MADISHF
CAK,2017-04-01 18:50,-81.4422,40.9161,M,M,M,310.00,9.00,M,30.11,M,8.00,M,OVC,M,M,M,1200.00,M,M,M,M,KCAK 011850Z AUTO 31009KT 8SM OVC012 A3011 RMK MADISHF
CAK,2017-04-01 18:51,-81.4422,40.9161,39.90,34.00,79.25,320.00,9.00,0.00,30.11,1020.40,8.00,M,OVC,M,M,M,1200.00,M,M,M,M,KCAK 011851Z 32009KT 8SM OVC012 04/01 A3011 RMK AO2 SLP204 T00440011
CAK,2017-04-01 18:55,-81.4422,40.9161,M,M,M,290.00,10.00,M,30.11,M,8.00,M,OVC,M,M,M,1200.00,M,M,M,M,KCAK 011855Z AUTO 29010KT 8SM OVC012 A3011 RMK MADISHF
CAK,2017-04-01 19:00,-81.4422,40.9161,M,M,M,M,M,M,30.11,M,8.00,M,OVC,M,M,M,1100.00,M,M,M,M,KCAK 011900Z AUTO /////KT 8SM OVC011 A3011 RMK MADISHF
CAK,2017-04-01 19:05,-81.4422,40.9161,M,M,M,310.00,8.00,M,30.11,M,8.00,M,OVC,M,M,M,1100.00,M,M,M,M,KCAK 011905Z AUTO 31008KT 8SM OVC011 A3011 RMK MADISHF
CAK,2017-04-01 19:10,-81.4422,40.9161,M,M,M,330.00,11.00,M,30.12,M,9.00,M,OVC,M,M,M,1100.00,M,M,M,M,KCAK 011910Z AUTO 33011KT 9SM OVC011 A3012 RMK MADISHF
CAK,2017-04-01 19:15,-81.4422,40.9161,M,M,M,320.00,10.00,M,30.12,M,9.00,M,OVC,M,M,M,1100.00,M,M,M,M,KCAK 011915Z AUTO 32010KT 9SM OVC011 A3012 RMK MADISHF
CAK,2017-04-01 19:20,-81.4422,40.9161,M,M,M,300.00,11.00,M,30.11,M,10.00,M,OVC,M,M,M,1100.00,M,M,M,M,KCAK 011920Z AUTO 30011KT 10SM OVC011 A3011 RMK MADISHF
CAK,2017-04-01 19:25,-81.4422,40.9161,M,M,M,300.00,10.00,M,30.12,M,10.00,M,OVC,M,M,M,1200.00,M,M,M,M,KCAK 011925Z AUTO 30010KT 10SM OVC012 A3012 RMK MADISHF
CAK,2017-04-01 19:30,-81.4422,40.9161,M,M,M,300.00,7.00,M,30.12,M,10.00,M,OVC,M,M,M,1200.00,M,M,M,M,KCAK 011930Z AUTO 30007KT 10SM OVC012 A3012 RMK MADISHF
CAK,2017-04-01 19:35,-81.4422,40.9161,M,M,M,320.00,10.00,M,30.12,M,10.00,M,OVC,M,M,M,1200.00,M,M,M,M,KCAK 011935Z AUTO 32010KT 10SM OVC012 A3012 RMK MADISHF
CAK,2017-04-01 19:40,-81.4422,40.9161,M,M,M,M,M,M,30.13,M,10.00,M,OVC,M,M,M,1200.00,M,M,M,M,KCAK 011940Z AUTO /////KT 10SM OVC012 A3013 RMK MADISHF
CAK,2017-04-01 19:45,-81.4422,40.9161,M,M,M,310.00,11.00,M,30.13,M,10.00,M,OVC,M,M,M,1200.00,M,M,M,M,KCAK 011945Z AUTO 31011KT 10SM OVC012 A3013 RMK MADISHF
CAK,2017-04-01 19:50,-81.4422,40.9161,M,M,M,310.00,10.00,M,30.13,M,10.00,M,OVC,M,M,M,1200.00,M,M,M,M,KCAK 011950Z AUTO 31010KT 10SM OVC012 A3013 RMK MADISHF
CAK,2017-04-01 19:51,-81.4422,40.9161,39.00,33.10,79.17,320.00,10.00,0.00,30.13,1021.10,10.00,M,OVC,M,M,M,1200.00,M,M,M,M,KCAK 011951Z 32010KT 10SM OVC012 04/01 A3013 RMK AO2 SLP211 T00390006
CAK,2017-04-01 19:55,-81.4422,40.9161,M,M,M,310.00,10.00,M,30.13,M,10.00,M,OVC,M,M,M,1200.00,M,M,M,M,KCAK 011955Z AUTO 31010KT 10SM OVC012 A3013 RMK MADISHF
CAK,2017-04-01 20:00,-81.4422,40.9161,M,M,M,310.00,11.00,M,30.13,M,10.00,M,OVC,M,M,M,1200.00,M,M,M,M,KCAK 012000Z AUTO 31011KT 10SM OVC012 A3013 RMK MADISHF
CAK,2017-04-01 20:05,-81.4422,40.9161,M,M,M,310.00,11.00,M,30.14,M,10.00,M,OVC,M,M,M,1200.00,M,M,M,M,KCAK 012005Z AUTO 31011KT 10SM OVC012 A3014 RMK MADISHF
CAK,2017-04-01 20:10,-81.4422,40.9161,M,M,M,320.00,11.00,M,30.14,M,10.00,M,OVC,M,M,M,1200.00,M,M,M,M,KCAK 012010Z AUTO 32011KT 10SM OVC012 A3014 RMK MADISHF
CAK,2017-04-01 20:15,-81.4422,40.9161,M,M,M,320.00,8.00,M,30.14,M,10.00,M,OVC,M,M,M,1200.00,M,M,M,M,KCAK 012015Z AUTO 32008KT 10SM OVC012 A3014 RMK MADISHF
CAK,2017-04-01 20:20,-81.4422,40.9161,M,M,M,300.00,9.00,M,30.14,M,10.00,M,OVC,M,M,M,1300.00,M,M,M,M,KCAK 012020Z AUTO 30009KT 10SM OVC013 A3014 RMK MADISHF
CAK,2017-04-01 20:25,-81.4422,40.9161,M,M,M,310.00,9.00,M,30.14,M,10.00,M,OVC,M,M,M,1300.00,M,M,M,M,KCAK 012025Z AUTO 31009KT 10SM OVC013 A3014 RMK MADISHF
CAK,2017-04-01 20:30,-81.4422,40.9161,M,M,M,300.00,12.00,M,30.15,M,10.00,M,OVC,M,M,M,1300.00,M,M,M,M,KCAK 012030Z AUTO 30012KT 10SM OVC013 A3015 RMK MADISHF
CAK,2017-04-01 20:35,-81.4422,40.9161,M,M,M,320.00,8.00,M,30.15,M,10.00,M,OVC,M,M,M,1400.00,M,M,M,M,KCAK 012035Z AUTO 32008KT 10SM OVC014 A3015 RMK MADISHF
CAK,2017-04-01 20:40,-81.4422,40.9161,M,M,M,330.00,10.00,M,30.15,M,10.00,M,OVC,M,M,M,1400.00,M,M,M,M,KCAK 012040Z AUTO 33010KT 10SM OVC014 A3015 RMK MADISHF
CAK,2017-04-01 20:45,-81.4422,40.9161,M,M,M,320.00,9.00,M,30.16,M,10.00,M,OVC,M,M,M,1400.00,M,M,M,M,KCAK 012045Z AUTO 32009KT 10SM OVC014 A3016 RMK MADISHF
CAK,2017-04-01 20:50,-81.4422,40.9161,M,M,M,320.00,8.00,M,30.16,M,10.00,M,OVC,M,M,M,1500.00,M,M,M,M,KCAK 012050Z AUTO 32008KT 10SM OVC015 A3016 RMK MADISHF
CAK,2017-04-01 20:51,-81.4422,40.9161,39.90,32.00,73.14,320.00,8.00,0.00,30.16,1022.20,10.00,M,OVC,M,M,M,1500.00,M,M,M,M,KCAK 012051Z 32008KT 10SM OVC015 04/00 A3016 RMK AO2 SLP222 T00440000 53016
CAK,2017-04-01 20:55,-81.4422,40.9161,M,M,M,330.00,10.00,M,30.16,M,10.00,M,OVC,M,M,M,1500.00,M,M,M,M,KCAK 012055Z AUTO 33010KT 10SM OVC015 A3016 RMK MADISHF
CAK,2017-04-01 21:00,-81.4422,40.9161,M,M,M,330.00,10.00,M,30.16,M,10.00,M,OVC,M,M,M,1500.00,M,M,M,M,KCAK 012100Z AUTO 33010KT 10SM OVC015 A3016 RMK MADISHF
CAK,2017-04-01 21:05,-81.4422,40.9161,M,M,M,330.00,10.00,M,30.17,M,9.00,M,OVC,M,M,M,1600.00,M,M,M,M,KCAK 012105Z AUTO 33010KT 9SM OVC016 A3017 RMK MADISHF
CAK,2017-04-01 21:10,-81.4422,40.9161,M,M,M,340.00,10.00,M,30.17,M,10.00,M,OVC,M,M,M,1600.00,M,M,M,M,KCAK 012110Z AUTO 34010KT 10SM OVC016 A3017 RMK MADISHF
CAK,2017-04-01 21:15,-81.4422,40.9161,M,M,M,330.00,8.00,M,30.17,M,10.00,M,OVC,M,M,M,1800.00,M,M,M,M,KCAK 012115Z AUTO 33008KT 10SM OVC018 A3017 RMK WND 30V01  MADISHF
CAK,2017-04-01 21:20,-81.4422,40.9161,M,M,M,320.00,8.00,M,30.17,M,10.00,M,OVC,M,M,M,1800.00,M,M,M,M,KCAK 012120Z AUTO 32008KT 10SM OVC018 A3017 RMK MADISHF
CAK,2017-04-01 21:25,-81.4422,40.9161,M,M,M,330.00,8.00,M,30.17,M,10.00,M,OVC,M,M,M,1800.00,M,M,M,M,KCAK 012125Z AUTO 33008KT 10SM OVC018 A3017 RMK MADISHF
CAK,2017-04-01 21:30,-81.4422,40.9161,M,M,M,330.00,9.00,M,30.17,M,10.00,M,OVC,M,M,M,1800.00,M,M,M,M,KCAK 012130Z AUTO 33009KT 10SM OVC018 A3017 RMK MADISHF
CAK,2017-04-01 21:35,-81.4422,40.9161,M,M,M,300.00,7.00,M,30.17,M,10.00,M,OVC,M,M,M,1900.00,M,M,M,M,KCAK 012135Z AUTO 30007KT 10SM OVC019 A3017 RMK MADISHF
CAK,2017-04-01 21:40,-81.4422,40.9161,M,M,M,320.00,6.00,M,30.17,M,10.00,M,OVC,M,M,M,1900.00,M,M,M,M,KCAK 012140Z AUTO 32006KT 10SM OVC019 A3017 RMK MADISHF
CAK,2017-04-01 21:45,-81.4422,40.9161,M,M,M,300.00,8.00,M,30.17,M,10.00,M,OVC,M,M,M,1999.00,M,M,M,M,KCAK 012145Z AUTO 30008KT 10SM OVC019 A3017 RMK MADISHF
CAK,2017-04-01 21:50,-81.4422,40.9161,M,M,M,310.00,7.00,M,30.18,M,10.00,M,OVC,M,M,M,1999.00,M,M,M,M,KCAK 012150Z AUTO 31007KT 10SM OVC019 A3018 RMK MADISHF
CAK,2017-04-01 21:51,-81.4422,40.9161,41.00,33.10,73.25,310.00,7.00,0.00,30.18,1022.80,10.00,M,OVC,M,M,M,2000.00,M,M,M,M,KCAK 012151Z 31007KT 10SM OVC020 05/01 A3018 RMK AO2 SLP228 T00500006
CAK,2017-04-01 21:55,-81.4422,40.9161,M,M,M,310.00,7.00,M,30.18,M,10.00,M,OVC,M,M,M,2100.00,M,M,M,M,KCAK 012155Z AUTO 31007KT 10SM OVC021 A3018 RMK MADISHF
CAK,2017-04-01 22:00,-81.4422,40.9161,M,M,M,320.00,5.00,M,30.18,M,10.00,M,OVC,M,M,M,2100.00,M,M,M,M,KCAK 012200Z AUTO 32005KT 10SM OVC021 A3018 RMK MADISHF
CAK,2017-04-01 22:05,-81.4422,40.9161,M,M,M,310.00,7.00,M,30.18,M,10.00,M,OVC,M,M,M,2100.00,M,M,M,M,KCAK 012205Z AUTO 31007KT 10SM OVC021 A3018 RMK MADISHF
CAK,2017-04-01 22:10,-81.4422,40.9161,M,M,M,300.00,4.00,M,30.18,M,10.00,M,OVC,M,M,M,2100.00,M,M,M,M,KCAK 012210Z AUTO 30004KT 10SM OVC021 A3018 RMK MADISHF
CAK,2017-04-01 22:15,-81.4422,40.9161,M,M,M,290.00,6.00,M,30.18,M,10.00,M,OVC,M,M,M,2200.00,M,M,M,M,KCAK 012215Z AUTO 29006KT 10SM OVC022 A3018 RMK MADISHF
CAK,2017-04-01 22:20,-81.4422,40.9161,M,M,M,290.00,6.00,M,30.18,M,10.00,M,OVC,M,M,M,2200.00,M,M,M,M,KCAK 012220Z AUTO 29006KT 10SM OVC022 A3018 RMK MADISHF
CAK,2017-04-01 22:25,-81.4422,40.9161,M,M,M,310.00,5.00,M,30.18,M,10.00,M,OVC,M,M,M,2200.00,M,M,M,M,KCAK 012225Z AUTO 31005KT 10SM OVC022 A3018 RMK MADISHF
CAK,2017-04-01 22:30,-81.4422,40.9161,M,M,M,260.00,4.00,M,30.18,M,10.00,M,OVC,M,M,M,2200.00,M,M,M,M,KCAK 012230Z AUTO 26004KT 10SM OVC022 A3018 RMK MADISHF
CAK,2017-04-01 22:35,-81.4422,40.9161,M,M,M,240.00,4.00,M,30.18,M,10.00,M,OVC,M,M,M,2300.00,M,M,M,M,KCAK 012235Z AUTO 24004KT 10SM OVC023 A3018 RMK MADISHF
CAK,2017-04-01 22:40,-81.4422,40.9161,M,M,M,270.00,4.00,M,30.17,M,10.00,M,OVC,M,M,M,2300.00,M,M,M,M,KCAK 012240Z AUTO 27004KT 10SM OVC023 A3017 RMK MADISHF
CAK,2017-04-01 22:45,-81.4422,40.9161,M,M,M,260.00,3.00,M,30.17,M,10.00,M,OVC,M,M,M,2300.00,M,M,M,M,KCAK 012245Z AUTO 26003KT 10SM OVC023 A3017 RMK MADISHF
CAK,2017-04-01 22:50,-81.4422,40.9161,M,M,M,260.00,4.00,M,30.17,M,10.00,M,OVC,M,M,M,2300.00,M,M,M,M,KCAK 012250Z AUTO 26004KT 10SM OVC023 A3017 RMK MADISHF
CAK,2017-04-01 22:51,-81.4422,40.9161,41.00,32.00,70.08,260.00,4.00,0.00,30.17,1022.50,10.00,M,OVC,M,M,M,2300.00,M,M,M,M,KCAK 012251Z 26004KT 10SM OVC023 05/00 A3017 RMK AO2 SLP225 T00500000
CAK,2017-04-01 22:55,-81.4422,40.9161,M,M,M,270.00,4.00,M,30.17,M,10.00,M,OVC,M,M,M,2300.00,M,M,M,M,KCAK 012255Z AUTO 27004KT 10SM OVC023 A3017 RMK MADISHF
CAK,2017-04-01 23:00,-81.4422,40.9161,M,M,M,260.00,4.00,M,30.17,M,10.00,M,OVC,M,M,M,2300.00,M,M,M,M,KCAK 012300Z AUTO 26004KT 10SM OVC023 A3017 RMK MADISHF
CAK,2017-04-01 23:05,-81.4422,40.9161,M,M,M,250.00,3.00,M,30.17,M,10.00,M,OVC,M,M,M,2300.00,M,M,M,M,KCAK 012305Z AUTO 25003KT 10SM OVC023 A3017 RMK MADISHF
CAK,2017-04-01 23:10,-81.4422,40.9161,M,M,M,230.00,3.00,M,30.17,M,10.00,M,OVC,M,M,M,2300.00,M,M,M,M,KCAK 012310Z AUTO 23003KT 10SM OVC023 A3017 RMK MADISHF
CAK,2017-04-01 23:15,-81.4422,40.9161,M,M,M,230.00,3.00,M,30.17,M,10.00,M,OVC,M,M,M,2200.00,M,M,M,M,KCAK 012315Z AUTO 23003KT 10SM OVC022 A3017 RMK MADISHF
CAK,2017-04-01 23:20,-81.4422,40.9161,M,M,M,230.00,4.00,M,30.17,M,10.00,M,OVC,M,M,M,2200.00,M,M,M,M,KCAK 012320Z AUTO 23004KT 10SM OVC022 A3017 RMK MADISHF
CAK,2017-04-01 23:25,-81.4422,40.9161,M,M,M,230.00,3.00,M,30.17,M,10.00,M,OVC,M,M,M,2200.00,M,M,M,M,KCAK 012325Z AUTO 23003KT 10SM OVC022 A3017 RMK MADISHF
CAK,2017-04-01 23:30,-81.4422,40.9161,M,M,M,220.00,5.00,M,30.17,M,10.00,M,OVC,M,M,M,2200.00,M,M,M,M,KCAK 012330Z AUTO 22005KT 10SM OVC022 A3017 RMK MADISHF
CAK,2017-04-01 23:35,-81.4422,40.9161,M,M,M,220.00,5.00,M,30.17,M,10.00,M,OVC,M,M,M,2200.00,M,M,M,M,KCAK 012335Z AUTO 22005KT 10SM OVC022 A3017 RMK MADISHF
CAK,2017-04-01 23:40,-81.4422,40.9161,M,M,M,220.00,6.00,M,30.17,M,10.00,M,BKN,M,M,M,2200.00,M,M,M,M,KCAK 012340Z AUTO 22006KT 10SM BKN022 A3017 RMK MADISHF
CAK,2017-04-01 23:45,-81.4422,40.9161,M,M,M,220.00,6.00,M,30.17,M,10.00,M,BKN,M,M,M,2200.00,M,M,M,M,KCAK 012345Z AUTO 22006KT 10SM BKN022 A3017 RMK MADISHF
CAK,2017-04-01 23:50,-81.4422,40.9161,M,M,M,220.00,6.00,M,30.17,M,10.00,M,FEW,M,M,M,2200.00,M,M,M,M,KCAK 012350Z AUTO 22006KT 10SM FEW022 A3017 RMK MADISHF
CAK,2017-04-01 23:51,-81.4422,40.9161,37.90,32.00,79.08,220.00,6.00,0.00,30.17,1022.70,10.00,M,FEW,FEW,M,M,2200.00,25000.00,M,M,M,KCAK 012351Z 22006KT 10SM FEW022 FEW250 03/00 A3017 RMK AO2 SLP227 T00330000 10056 20033 51004
CAK,2017-04-01 23:55,-81.4422,40.9161,M,M,M,230.00,5.00,M,30.17,M,10.00,M,FEW,M,M,M,2200.00,M,M,M,M,KCAK 012355Z AUTO 23005KT 10SM FEW022 A3017 RMK MADISHF
