#DEBUG: Format Typ    -> comma
#DEBUG: Time Period   -> 2017-04-01 00:00:00+00:00 2017-04-02 00:00:00+00:00
#DEBUG: Time Zone     -> Etc/UTC
#DEBUG: Data Contact   -> daryl herzmann akrherz@iastate.edu 515-294-5978
#DEBUG: Entries Found -> -1
station,valid,lon,lat,tmpf, dwpf, relh, drct, sknt, p01i, alti, mslp, vsby, gust, skyc1, skyc2, skyc3, skyc4, skyl1, skyl2, skyl3, skyl4, presentwx, metar
CAO,2017-04-01 00:00,-103.1539,36.4486,M,M,M,30.00,17.00,M,M,M,0.24,M,VV ,M,M,M,200.00,M,M,M,-RA FG,KCAO 010000Z AUTO 03017KT 1/4SM -RA FG VV002 RMK MADISHF
CAO,2017-04-01 00:05,-103.1539,36.4486,M,M,M,M,M,M,M,M,0.24,M,VV ,M,M,M,200.00,M,M,M,-RA FG,KCAO 010005Z AUTO /////KT 1/4SM -RA FG VV002 RMK MADISHF
CAO,2017-04-01 00:10,-103.1539,36.4486,M,M,M,20.00,21.00,M,29.82,M,0.24,M,VV ,M,M,M,200.00,M,M,M,-RA FG,KCAO 010010Z AUTO 02021KT 1/4SM -RA FG VV002 A2982 RMK MADISHF
CAO,2017-04-01 00:15,-103.1539,36.4486,M,M,M,30.00,17.00,M,M,M,0.24,M,VV ,M,M,M,200.00,M,M,M,-RA FG,KCAO 010015Z AUTO 03017KT 1/4SM -RA FG VV002 RMK MADISHF
CAO,2017-04-01 00:20,-103.1539,36.4486,M,M,M,30.00,20.00,M,M,M,0.25,M,VV ,M,M,M,200.00,M,M,M,-RA FG,KCAO 010020Z AUTO 03020KT 1/4SM -RA FG VV002 RMK MADISHF
CAO,2017-04-01 00:25,-103.1539,36.4486,M,M,M,30.00,19.00,0.01,M,M,0.50,M,VV ,M,M,M,200.00,M,M,M,-RA FG,KCAO 010025Z AUTO 03019KT 1/2SM -RA FG VV002 RMK P0001 MADISHF
CAO,2017-04-01 00:30,-103.1539,36.4486,37.90,37.90,100.00,30.00,21.00,0.01,29.83,M,0.50,27.00,VV ,M,M,M,200.00,M,M,M,-RA FG,KCAO 010030Z AUTO 03021G27KT 1/2SM -RA FG VV002 03/03 A2983 RMK AO2 PK WND 04027/0027 RAB00 P0001 T00330033
CAO,2017-04-01 00:35,-103.1539,36.4486,M,M,M,30.00,17.00,0.01,M,M,0.50,M,VV ,M,M,M,300.00,M,M,M,-RA FG,KCAO 010035Z AUTO 03017KT 1/2SM -RA FG VV003 RMK P0001  LTG DSNT W! MADISHF
CAO,2017-04-01 00:40,-103.1539,36.4486,M,M,M,40.00,15.00,0.01,M,M,0.50,M,VV ,M,M,M,300.00,M,M,M,-RA FG,KCAO 010040Z AUTO 04015KT 1/2SM -RA FG VV003 RMK P0001  LTG DSNT W! MADISHF
CAO,2017-04-01 00:45,-103.1539,36.4486,M,M,M,40.00,16.00,0.01,M,M,0.50,M,VV ,M,M,M,300.00,M,M,M,-RA FG,KCAO 010045Z AUTO 04016KT 1/2SM -RA FG VV003 RMK P0001  LTG DSNT W! MADISHF
CAO,2017-04-01 00:50,-103.1539,36.4486,M,M,M,40.00,18.00,0.01,29.86,M,0.50,M,VV ,M,M,M,300.00,M,M,M,FG,KCAO 010050Z AUTO 04018KT 1/2SM FG VV003 A2986 RMK P0001 MADISHF
CAO,2017-04-01 00:55,-103.1539,36.4486,39.00,39.00,100.00,40.00,18.00,0.01,29.85,1010.30,0.50,26.00,VV ,M,M,M,300.00,M,M,M,-RA FG,KCAO 010055Z AUTO 04018G26KT 1/2SM -RA FG VV003 04/04 A2985 RMK AO2 PK WND 04027/0027 RAB00 SLP103 P0001 T00390039 $
CAO,2017-04-01 01:00,-103.1539,36.4486,M,M,M,M,M,M,M,M,0.75,M,VV ,M,M,M,300.00,M,M,M,-RA BR,KCAO 010100Z AUTO /////KT 1SM -RA BR VV003 RMK  LTG DSNT W! MADISHF
CAO,2017-04-01 01:05,-103.1539,36.4486,M,M,M,30.00,22.00,M,M,M,0.75,M,VV ,M,M,M,300.00,M,M,M,-RA BR,KCAO 010105Z AUTO 03022KT 1SM -RA BR VV003 RMK  LTG DSNT W! MADISHF
CAO,2017-04-01 01:10,-103.1539,36.4486,M,M,M,40.00,24.00,M,29.83,M,0.75,M,VV ,M,M,M,300.00,M,M,M,-SN BR,KCAO 010110Z AUTO 04024KT 1SM -SN BR VV003 A2983 RMK  LTG DSNT W! MADISHF
CAO,2017-04-01 01:15,-103.1539,36.4486,M,M,M,40.00,25.00,M,M,M,0.75,M,VV ,M,M,M,300.00,M,M,M,-SN BR,KCAO 010115Z AUTO 04025KT 1SM -SN BR VV003 RMK MADISHF
CAO,2017-04-01 01:20,-103.1539,36.4486,M,M,M,30.00,26.00,M,M,M,0.75,M,VV ,M,M,M,300.00,M,M,M,BR,KCAO 010120Z AUTO 03026KT 1SM BR VV003 RMK MADISHF
CAO,2017-04-01 01:25,-103.1539,36.4486,M,M,M,M,M,M,M,M,0.75,M,VV ,M,M,M,200.00,M,M,M,-RA BR,KCAO 010125Z AUTO /////KT 1SM -RA BR VV002 RMK MADISHF
CAO,2017-04-01 01:30,-103.1539,36.4486,M,M,M,40.00,23.00,M,29.82,M,0.50,M,VV ,M,M,M,200.00,M,M,M,-RA FG,KCAO 010130Z AUTO 04023KT 1/2SM -RA FG VV002 A2982 RMK MADISHF
CAO,2017-04-01 01:35,-103.1539,36.4486,M,M,M,40.00,25.00,M,M,M,0.50,M,VV ,M,M,M,200.00,M,M,M,-RA FG,KCAO 010135Z AUTO 04025KT 1/2SM -RA FG VV002 RMK MADISHF
CAO,2017-04-01 01:40,-103.1539,36.4486,M,M,M,30.00,23.00,M,M,M,0.50,M,VV ,M,M,M,200.00,M,M,M,-RA FG,KCAO 010140Z AUTO 03023KT 1/2SM -RA FG VV002 RMK MADISHF
CAO,2017-04-01 01:45,-103.1539,36.4486,M,M,M,40.00,22.00,M,M,M,0.50,M,VV ,M,M,M,200.00,M,M,M,-RA FG,KCAO 010145Z AUTO 04022KT 1/2SM -RA FG VV002 RMK MADISHF
CAO,2017-04-01 01:50,-103.1539,36.4486,M,M,M,40.00,23.00,M,29.84,M,0.25,M,VV ,M,M,M,200.00,M,M,M,-RA FG,KCAO 010150Z AUTO 04023KT 1/4SM -RA FG VV002 A2984 RMK MADISHF
CAO,2017-04-01 01:52,-103.1539,36.4486,37.40,37.40,100.00,40.00,22.00,0.00,29.84,M,0.25,29.00,VV ,M,M,M,200.00,M,M,M,-RA FG,KCAO 010152Z AUTO 04022G29KT 1/4SM -RA FG VV002 03/03 A2984 RMK AO2 PK WND 04032/0122 SNB07E17 P0000 $
CAO,2017-04-01 01:55,-103.1539,36.4486,37.90,37.90,100.00,30.00,22.00,0.00,29.84,1009.80,0.25,28.00,VV ,M,M,M,200.00,M,M,M,-RA FG,KCAO 010155Z AUTO 03022G28KT 1/4SM -RA FG VV002 03/03 A2984 RMK AO2 PK WND 04032/0122 SNB07E17 SLP098 P0000 T00330033 $
CAO,2017-04-01 02:00,-103.1539,36.4486,M,M,M,30.00,18.00,M,M,M,0.50,M,VV ,M,M,M,200.00,M,M,M,-RA FG,KCAO 010200Z AUTO 03018KT 1/2SM -RA FG VV002 RMK MADISHF
CAO,2017-04-01 02:05,-103.1539,36.4486,M,M,M,30.00,20.00,M,M,M,0.50,M,VV ,M,M,M,200.00,M,M,M,-RA FG,KCAO 010205Z AUTO 03020KT 1/2SM -RA FG VV002 RMK MADISHF
CAO,2017-04-01 02:06,-103.1539,36.4486,37.90,37.90,100.00,30.00,19.00,0.00,29.85,M,0.50,M,VV ,M,M,M,200.00,M,M,M,-RA FG,KCAO 010206Z AUTO 03019KT 1/2SM -RA FG VV002 03/03 A2985 RMK AO2 PK WND 03026/0156 P0000 T00330033 $
CAO,2017-04-01 02:10,-103.1539,36.4486,M,M,M,M,M,M,M,M,0.50,M,VV ,M,M,M,200.00,M,M,M,-RA FG,KCAO 010210Z AUTO /////KT 1/2SM -RA FG VV002 RMK MADISHF
CAO,2017-04-01 02:15,-103.1539,36.4486,M,M,M,30.00,19.00,M,M,M,0.50,M,VV ,M,M,M,200.00,M,M,M,-RA FG,KCAO 010215Z AUTO 03019KT 1/2SM -RA FG VV002 RMK MADISHF
CAO,2017-04-01 02:20,-103.1539,36.4486,M,M,M,M,M,M,M,M,1.00,M,VV ,M,M,M,200.00,M,M,M,-RA BR,KCAO 010220Z AUTO /////KT 1SM -RA BR VV002 RMK MADISHF
CAO,2017-04-01 02:25,-103.1539,36.4486,M,M,M,40.00,20.00,0.01,M,M,0.75,M,VV ,M,M,M,200.00,M,M,M,-RA BR,KCAO 010225Z AUTO 04020KT 1SM -RA BR VV002 RMK P0001 MADISHF
CAO,2017-04-01 02:30,-103.1539,36.4486,M,M,M,30.00,19.00,0.01,29.85,M,0.75,M,VV ,M,M,M,200.00,M,M,M,-RA BR,KCAO 010230Z AUTO 03019KT 1SM -RA BR VV002 A2985 RMK P0001 MADISHF
CAO,2017-04-01 02:35,-103.1539,36.4486,M,M,M,30.00,15.00,0.01,M,M,0.75,M,VV ,M,M,M,200.00,M,M,M,-RA BR,KCAO 010235Z AUTO 03015KT 1SM -RA BR VV002 RMK P0001  LTG DSNT SW! MADISHF
CAO,2017-04-01 02:40,-103.1539,36.4486,M,M,M,10.00,12.00,0.01,M,M,1.25,M,OVC,M,M,M,200.00,M,M,M,-RA BR,KCAO 010240Z AUTO 01012KT 1 1/2SM -RA BR OVC002 RMK P0001  LTG DSNT SW! MADISHF
CAO,2017-04-01 02:41,-103.1539,36.4486,37.90,37.90,100.00,10.00,14.00,0.01,29.90,M,1.50,24.00,OVC,M,M,M,200.00,M,M,M,-RA BR,KCAO 010241Z AUTO 01014G24KT 1 1/2SM -RA BR OVC002 03/03 A2990 RMK AO2 PK WND 04028/0227 LTG DSNT SW PRESRR P0001 T00330033 $
CAO,2017-04-01 02:45,-103.1539,36.4486,M,M,M,20.00,17.00,0.01,M,M,1.75,M,OVC,M,M,M,200.00,M,M,M,-RA BR,KCAO 010245Z AUTO 02017KT 2SM -RA BR OVC002 RMK P0001  LTG DSNT SW! MADISHF
CAO,2017-04-01 02:49,-103.1539,36.4486,37.40,37.40,100.00,30.00,19.00,0.01,29.88,M,3.00,M,BKN,OVC,M,M,200.00,600.00,M,M,-RA BR,KCAO 010249Z AUTO 03019KT 3SM -RA BR BKN002 OVC006 03/03 A2988 RMK AO2 PK WND 04028/0227 LTG DSNT SW P0001 $
CAO,2017-04-01 02:50,-103.1539,36.4486,M,M,M,30.00,19.00,0.01,29.88,M,3.50,M,BKN,OVC,M,M,200.00,600.00,M,M,-RA BR,KCAO 010250Z AUTO 03019KT 3SM -RA BR BKN002 OVC006 A2988 RMK P0001  LTG DSNT SW! MADISHF
CAO,2017-04-01 02:55,-103.1539,36.4486,37.90,37.90,100.00,20.00,19.00,0.01,29.89,1011.50,3.00,M,BKN,OVC,M,M,200.00,600.00,M,M,VCTS -RA BR,KCAO 010255Z AUTO 02019KT 3SM VCTS -RA BR BKN002 OVC006 03/03 A2989 RMK AO2 PK WND 04028/0227 LTG DSNT SW SLP115 P0001 60002 T00330033 53013 $
CAO,2017-04-01 03:00,-103.1539,36.4486,M,M,M,40.00,15.00,M,M,M,2.00,M,OVC,M,M,M,200.00,M,M,M,-RA BR,KCAO 010300Z AUTO 04015KT 2SM -RA BR OVC002 RMK  LTG DSNT SW AND W! MADISHF
CAO,2017-04-01 03:01,-103.1539,36.4486,37.90,37.90,100.00,40.00,15.00,0.00,29.93,M,1.75,M,OVC,M,M,M,200.00,M,M,M,VCTS -RA BR,KCAO 010301Z AUTO 04015KT 1 3/4SM VCTS -RA BR OVC002 03/03 A2993 RMK AO2 LTG DSNT SW AND W PRESRR P0000 T00330033 $
CAO,2017-04-01 03:05,-103.1539,36.4486,M,M,M,30.00,14.00,M,M,M,1.50,M,OVC,M,M,M,200.00,M,M,M,-RA BR,KCAO 010305Z AUTO 03014KT 1 1/2SM -RA BR OVC002 RMK  LTG DSNT SW AND W! MADISHF
CAO,2017-04-01 03:07,-103.1539,36.4486,37.90,37.90,100.00,30.00,13.00,0.00,29.93,M,1.25,M,OVC,M,M,M,200.00,M,M,M,-RA BR,KCAO 010307Z AUTO 03013KT 1 1/4SM -RA BR OVC002 03/03 A2993 RMK AO2 LTG DSNT SW AND W P0000 T00330033 $
CAO,2017-04-01 03:10,-103.1539,36.4486,M,M,M,30.00,15.00,0.01,29.92,M,1.25,M,OVC,M,M,M,200.00,M,M,M,RA BR,KCAO 010310Z AUTO 03015KT 1 1/2SM RA BR OVC002 A2992 RMK P0001  LTG DSNT S-W! MADISHF
CAO,2017-04-01 03:15,-103.1539,36.4486,M,M,M,30.00,13.00,0.01,M,M,1.50,M,OVC,M,M,M,200.00,M,M,M,-RA,KCAO 010315Z AUTO 03013KT 1 1/2SM -RA OVC002 RMK P0001  LTG DSNT S AND SW! MADISHF
CAO,2017-04-01 03:18,-103.1539,36.4486,37.90,M,M,30.00,14.00,0.01,29.93,M,1.75,M,OVC,M,M,M,300.00,M,M,M,-RA,KCAO 010318Z AUTO 03014KT 1 3/4SM -RA OVC003 03/ A2993 RMK AO2 LTG DSNT S AND SW P0001 T0033 $
CAO,2017-04-01 03:20,-103.1539,36.4486,M,M,M,30.00,13.00,0.01,M,M,1.75,M,OVC,M,M,M,300.00,M,M,M,-SN,KCAO 010320Z AUTO 03013KT 2SM -SN OVC003 RMK P0001  LTG DSNT S AND SW! MADISHF
CAO,2017-04-01 03:25,-103.1539,36.4486,37.90,M,M,40.00,15.00,0.01,29.94,M,2.00,M,OVC,M,M,M,300.00,M,M,M,VCTS -SN,KCAO 010325Z AUTO 04015KT 2SM VCTS -SN OVC003 03/ A2994 RMK AO2 LTG DSNT NE AND S AND SW RAE20SNB20 P0001 T0033 $
CAO,2017-04-01 03:30,-103.1539,36.4486,M,M,M,20.00,16.00,0.01,29.94,M,2.00,M,OVC,M,M,M,300.00,M,M,M,-RA,KCAO 010330Z AUTO 02016KT 2SM -RA OVC003 A2994 RMK P0001  LTG DSNT NE AND S AND SW! MADISHF
CAO,2017-04-01 03:34,-103.1539,36.4486,37.90,37.90,100.00,30.00,14.00,0.02,29.94,M,1.75,M,OVC,M,M,M,300.00,M,M,M,TSRA BR,KCAO 010334Z AUTO 03014KT 1 3/4SM TSRA BR OVC003 03/03 A2994 RMK AO2 LTG DSNT NE AND S AND SW RAE20B29SNB20E29 TSB32 P0002 T00330033 $
CAO,2017-04-01 03:35,-103.1539,36.4486,M,M,M,30.00,16.00,0.03,M,M,1.75,M,OVC,M,M,M,300.00,M,M,M,RA BR,KCAO 010335Z AUTO 03016KT 2SM RA BR OVC003 RMK P0003  LTG DSNT NE AND S AND SW! MADISHF
CAO,2017-04-01 03:40,-103.1539,36.4486,M,M,M,30.00,12.00,0.03,M,M,2.00,M,OVC,M,M,M,300.00,M,M,M,RA BR,KCAO 010340Z AUTO 03012KT 2SM RA BR OVC003 RMK P0003  LTG DSNT S AND SW! MADISHF
CAO,2017-04-01 03:45,-103.1539,36.4486,37.00,37.00,100.00,30.00,14.00,0.05,29.95,M,2.50,M,OVC,M,M,M,300.00,M,M,M,TSRA BR,KCAO 010345Z AUTO 03014KT 2 1/2SM TSRA BR OVC003 03/03 A2995 RMK AO2 LTG DSNT S-W RAE20B29SNB20E29 TSB32 P0005 T00280028 $
CAO,2017-04-01 03:50,-103.1539,36.4486,M,M,M,30.00,14.00,0.05,M,M,2.50,M,OVC,M,M,M,300.00,M,M,M,RA BR,KCAO 010350Z AUTO 03014KT 2 1/2SM RA BR OVC003 RMK P0005  LTG DSNT ALQDS! MADISHF
CAO,2017-04-01 03:55,-103.1539,36.4486,37.00,37.00,100.00,30.00,13.00,0.06,29.94,1013.70,2.50,M,OVC,M,M,M,300.00,M,M,M,TSRA BR,KCAO 010355Z AUTO 03013KT 2 1/2SM TSRA BR OVC003 03/03 A2994 RMK AO2 LTG DSNT ALQDS RAE20B29SNB20E29 TSB32 SLP137 P0006 T00280028 $
CAO,2017-04-01 04:00,-103.1539,36.4486,M,M,M,350.00,9.00,0.01,M,M,2.00,M,OVC,M,M,M,300.00,M,M,M,-RA BR,KCAO 010400Z AUTO 35009KT 2SM -RA BR OVC003 RMK P0001  LTG DSNT ALQDS! MADISHF
CAO,2017-04-01 04:05,-103.1539,36.4486,M,M,M,30.00,11.00,0.01,M,M,3.00,M,OVC,M,M,M,300.00,M,M,M,RA BR,KCAO 010405Z AUTO 03011KT 3SM RA BR OVC003 RMK P0001  LTG DSNT N AND S AND SW! MADISHF
CAO,2017-04-01 04:10,-103.1539,36.4486,M,M,M,30.00,16.00,0.03,M,M,4.00,M,BKN,OVC,M,M,300.00,1100.00,M,M,+RA BR,KCAO 010410Z AUTO 03016KT 4SM +RA BR BKN003 OVC011 RMK P0003  LTG DSNT N AND S AND SW! MADISHF
CAO,2017-04-01 04:11,-103.1539,36.4486,35.10,35.10,100.00,30.00,16.00,0.04,29.95,M,4.00,M,BKN,OVC,M,M,300.00,1100.00,M,M,+TSRA BR,KCAO 010411Z AUTO 03016KT 4SM +TSRA BR BKN003 OVC011 02/02 A2995 RMK AO2 LTG DSNT N AND S AND SW P0004 T00170017 $
CAO,2017-04-01 04:14,-103.1539,36.4486,35.10,35.10,100.00,10.00,15.00,0.07,29.94,M,2.50,M,SCT,OVC,M,M,300.00,1100.00,M,M,+TSRA BR,KCAO 010414Z AUTO 01015KT 2 1/2SM +TSRA BR SCT003 OVC011 02/02 A2994 RMK AO2 LTG DSNT ALQDS P0007 T00170017 $
CAO,2017-04-01 04:15,-103.1539,36.4486,M,M,M,M,M,0.08,M,M,2.50,M,SCT,OVC,M,M,300.00,1300.00,M,M,+RA BR,KCAO 010415Z AUTO /////KT 2 1/2SM +RA BR SCT003 OVC013 RMK P0008  LTG DSNT ALQDS! MADISHF
CAO,2017-04-01 04:20,-103.1539,36.4486,M,M,M,M,M,0.14,M,M,2.00,M,FEW,OVC,M,M,300.00,1500.00,M,M,+RA BR,KCAO 010420Z AUTO /////KT 2SM +RA BR FEW003 OVC015 RMK P0014  LTG DSNT ALQDS! MADISHF
CAO,2017-04-01 04:25,-103.1539,36.4486,M,M,M,10.00,8.00,0.16,M,M,2.50,M,FEW,OVC,M,M,300.00,1500.00,M,M,+RA BR,KCAO 010425Z AUTO 01008KT 2 1/2SM +RA BR FEW003 OVC015 RMK P0016  LTG DSNT ALQDS! MADISHF
CAO,2017-04-01 04:26,-103.1539,36.4486,34.00,34.00,100.00,10.00,6.00,0.16,29.97,M,3.00,M,FEW,OVC,M,M,300.00,1500.00,M,M,+TSRA BR,KCAO 010426Z AUTO 01006KT 3SM +TSRA BR FEW003 OVC015 01/01 A2997 RMK AO2 LTG DSNT ALQDS P0016 T00110011 $
CAO,2017-04-01 04:30,-103.1539,36.4486,M,M,M,20.00,11.00,0.18,M,M,4.00,M,FEW,BKN,OVC,M,300.00,1699.00,2600.00,M,+RA BR,KCAO 010430Z AUTO 02011KT 4SM +RA BR FEW003 BKN016 OVC026 RMK P0018  LTG DSNT ALQDS! MADISHF
CAO,2017-04-01 04:35,-103.1539,36.4486,M,M,M,30.00,10.00,0.19,M,M,4.00,M,BKN,M,M,M,1900.00,M,M,M,+RA BR,KCAO 010435Z AUTO 03010KT 4SM +RA BR BKN019 RMK P0019  LTG DSNT ALQDS! MADISHF
CAO,2017-04-01 04:40,-103.1539,36.4486,M,M,M,20.00,10.00,0.23,M,M,2.50,M,OVC,M,M,M,1900.00,M,M,M,+RA,KCAO 010440Z AUTO 02010KT 2 1/2SM +RA OVC019 RMK P0023  LTG DSNT N AND NE! MADISHF
CAO,2017-04-01 04:45,-103.1539,36.4486,34.00,M,M,30.00,10.00,0.27,29.97,M,2.50,M,OVC,M,M,M,1900.00,M,M,M,+TSRA,KCAO 010445Z AUTO 03010KT 2 1/2SM +TSRA OVC019 01/ A2997 RMK AO2 LTG DSNT N AND NE P0027 T0011 $
CAO,2017-04-01 04:49,-103.1539,36.4486,33.80,M,M,40.00,11.00,0.27,29.97,M,3.00,M,FEW,OVC,M,M,200.00,2100.00,M,M,TSRA,KCAO 010449Z AUTO 04011KT 3SM TSRA FEW002 OVC021 01/ A2997 RMK AO2 LTG DSNT N AND NE P0027 $
CAO,2017-04-01 04:50,-103.1539,36.4486,M,M,M,30.00,12.00,0.27,M,M,3.00,M,FEW,OVC,M,M,200.00,2100.00,M,M,RA,KCAO 010450Z AUTO 03012KT 3SM RA FEW002 OVC021 RMK P0027  LTG DSNT N AND NE! MADISHF
CAO,2017-04-01 04:55,-103.1539,36.4486,34.00,M,M,20.00,13.00,0.29,29.96,1014.40,3.00,M,FEW,OVC,M,M,200.00,2100.00,M,M,+TSRA,KCAO 010455Z AUTO 02013KT 3SM +TSRA FEW002 OVC021 01/ A2996 RMK AO2 LTG DSNT NE SLP144 P0029 T0011 $
CAO,2017-04-01 05:00,-103.1539,36.4486,M,M,M,20.00,13.00,0.03,M,M,3.00,M,OVC,M,M,M,1900.00,M,M,M,+RA,KCAO 010500Z AUTO 02013KT 3SM +RA OVC019 RMK P0003  LTG DSNT NE! MADISHF
CAO,2017-04-01 05:02,-103.1539,36.4486,34.00,M,M,30.00,15.00,0.03,29.95,M,3.00,M,BKN,OVC,M,M,1900.00,4200.00,M,M,+RA,KCAO 010502Z AUTO 03015KT 3SM +RA BKN019 OVC042 01/ A2995 RMK AO2 LTG DSNT NE TSE0457 P0003 T0011 $
CAO,2017-04-01 05:05,-103.1539,36.4486,M,M,M,30.00,15.00,0.04,M,M,3.00,M,FEW,BKN,OVC,M,200.00,1699.00,4200.00,M,+RA,KCAO 010505Z AUTO 03015KT 3SM +RA FEW002 BKN016 OVC042 RMK P0004  LTG DSNT NE! MADISHF
CAO,2017-04-01 05:15,-103.1539,36.4486,M,M,M,20.00,13.00,0.04,M,M,1.25,M,SCT,OVC,M,M,200.00,1100.00,M,M,-RA BR,KCAO 010515Z AUTO 02013KT 1 1/2SM -RA BR SCT002 OVC011 RMK P0004  LTG DSNT NE AND SE! MADISHF
CAO,2017-04-01 05:20,-103.1539,36.4486,M,M,M,20.00,9.00,0.04,M,M,2.00,M,SCT,OVC,M,M,200.00,1100.00,M,M,BR,KCAO 010520Z AUTO 02009KT 2SM BR SCT002 OVC011 RMK P0004  LTG DSNT NE-S! MADISHF
CAO,2017-04-01 05:21,-103.1539,36.4486,34.00,34.00,100.00,10.00,10.00,0.04,29.97,M,2.50,M,BKN,OVC,M,M,200.00,1100.00,M,M,BR,KCAO 010521Z AUTO 01010KT 2 1/2SM BR BKN002 OVC011 01/01 A2997 RMK AO2 LTG DSNT NE-S RAE19UPB16E18 TSE0457 P0004 T00110011 $
CAO,2017-04-01 05:25,-103.1539,36.4486,M,M,M,M,M,0.04,M,M,4.00,M,BKN,OVC,M,M,200.00,700.00,M,M,BR,KCAO 010525Z AUTO /////KT 4SM BR BKN002 OVC007 RMK P0004  LTG DSNT NE-S! MADISHF
CAO,2017-04-01 05:30,-103.1539,36.4486,M,M,M,20.00,14.00,0.04,29.96,M,1.75,M,OVC,M,M,M,200.00,M,M,M,BR,KCAO 010530Z AUTO 02014KT 2SM BR OVC002 A2996 RMK P0004  LTG DSNT SE AND S! MADISHF
CAO,2017-04-01 05:34,-103.1539,36.4486,34.00,M,M,20.00,13.00,0.04,29.96,M,1.25,M,OVC,M,M,M,200.00,M,M,M,BR,KCAO 010534Z AUTO 02013KT 1 1/4SM BR OVC002 01/ A2996 RMK AO2 LTG DSNT SE AND S RAE19UPB16E18 TSE0457 P0004 T0011 $
CAO,2017-04-01 05:35,-103.1539,36.4486,M,M,M,20.00,13.00,0.04,M,M,1.25,M,OVC,M,M,M,200.00,M,M,M,BR,KCAO 010535Z AUTO 02013KT 1 1/2SM BR OVC002 RMK P0004  LTG DSNT SE AND S! MADISHF
CAO,2017-04-01 05:40,-103.1539,36.4486,M,M,M,30.00,15.00,0.04,M,M,1.00,M,OVC,M,M,M,200.00,M,M,M,-RA,KCAO 010540Z AUTO 03015KT 1SM -RA OVC002 RMK P0004  LTG DSNT SE! MADISHF
CAO,2017-04-01 05:45,-103.1539,36.4486,M,M,M,30.00,14.00,0.04,29.96,M,1.00,M,VV ,M,M,M,300.00,M,M,M,-RA,KCAO 010545Z AUTO 03014KT 1SM -RA VV003 A2996 RMK P0004  LTG DSNT SE! MADISHF
CAO,2017-04-01 05:50,-103.1539,36.4486,M,M,M,10.00,14.00,0.04,M,M,0.75,M,VV ,M,M,M,300.00,M,M,M,-RA,KCAO 010550Z AUTO 01014KT 1SM -RA VV003 RMK P0004  LTG DSNT SE AND S! MADISHF
CAO,2017-04-01 05:53,-103.1539,36.4486,33.80,M,M,10.00,14.00,0.04,29.96,M,0.75,M,VV ,M,M,M,300.00,M,M,M,-RA,KCAO 010553Z AUTO 01014KT 3/4SM -RA VV003 01/ A2996 RMK AO2 LTG DSNT SE AND S RAE19B40UPB16E18 TSE0457 P0004 $
CAO,2017-04-01 05:55,-103.1539,36.4486,34.00,M,M,10.00,13.00,0.05,29.97,1014.60,0.75,M,VV ,M,M,M,300.00,M,M,M,-RA,KCAO 010555Z AUTO 01013KT 3/4SM -RA VV003 01/ A2997 RMK AO2 LTG DSNT SE AND S RAE19B40UPB16E18 TSE0457 SLP146 P0005 60042 T0011 10039 20011 51006 $
CAO,2017-04-01 06:00,-103.1539,36.4486,M,M,M,10.00,13.00,M,M,M,1.00,M,VV ,M,M,M,300.00,M,M,M,-RA BR,KCAO 010600Z AUTO 01013KT 1SM -RA BR VV003 RMK  LTG DSNT SE AND S! MADISHF
CAO,2017-04-01 06:04,-103.1539,36.4486,34.00,34.00,100.00,20.00,14.00,0.00,29.96,M,1.25,M,OVC,M,M,M,300.00,M,M,M,-RA BR,KCAO 010604Z AUTO 02014KT 1 1/4SM -RA BR OVC003 01/01 A2996 RMK AO2 LTG DSNT E-SW P0000 T00110011 $
CAO,2017-04-01 06:05,-103.1539,36.4486,M,M,M,20.00,15.00,M,M,M,1.25,M,OVC,M,M,M,300.00,M,M,M,-RA BR,KCAO 010605Z AUTO 02015KT 1 1/2SM -RA BR OVC003 RMK  LTG DSNT E-SW! MADISHF
CAO,2017-04-01 06:10,-103.1539,36.4486,M,M,M,10.00,18.00,M,29.95,M,1.00,M,VV ,M,M,M,300.00,M,M,M,RA BR,KCAO 010610Z AUTO 01018KT 1SM RA BR VV003 A2995 RMK  LTG DSNT E-SW! MADISHF
CAO,2017-04-01 06:15,-103.1539,36.4486,M,M,M,M,M,M,M,M,1.75,M,OVC,M,M,M,300.00,M,M,M,-RA BR,KCAO 010615Z AUTO /////KT 2SM -RA BR OVC003 RMK  LTG DSNT E-SW! MADISHF
CAO,2017-04-01 06:17,-103.1539,36.4486,34.00,34.00,100.00,360.00,17.00,0.00,29.96,M,2.00,M,OVC,M,M,M,300.00,M,M,M,-RA BR,KCAO 010617Z AUTO 36017KT 2SM -RA BR OVC003 01/01 A2996 RMK AO2 LTG DSNT E-SW P0000 T00110011 $
CAO,2017-04-01 06:20,-103.1539,36.4486,M,M,M,M,M,0.01,M,M,2.50,M,OVC,M,M,M,300.00,M,M,M,RA BR,KCAO 010620Z AUTO /////KT 2 1/2SM RA BR OVC003 RMK P0001  LTG DSNT E-SW! MADISHF
CAO,2017-04-01 06:25,-103.1539,36.4486,M,M,M,M,M,0.01,M,M,2.50,M,OVC,M,M,M,300.00,M,M,M,RA BR,KCAO 010625Z AUTO /////KT 2 1/2SM RA BR OVC003 RMK P0001  LTG DSNT E-SW! MADISHF
CAO,2017-04-01 06:30,-103.1539,36.4486,M,M,M,360.00,18.00,0.01,29.95,M,3.00,M,OVC,M,M,M,300.00,M,M,M,-RA BR,KCAO 010630Z AUTO 36018KT 3SM -RA BR OVC003 A2995 RMK P0001  LTG DSNT E AND SW! MADISHF
CAO,2017-04-01 06:33,-103.1539,36.4486,34.00,34.00,100.00,360.00,17.00,0.01,29.95,M,3.00,M,OVC,M,M,M,300.00,M,M,M,-SN BR,KCAO 010633Z AUTO 36017KT 3SM -SN BR OVC003 01/01 A2995 RMK AO2 LTG DSNT E-SW RAE31SNB31 P0001 T00110011 $
CAO,2017-04-01 06:35,-103.1539,36.4486,M,M,M,M,M,0.01,M,M,3.50,M,OVC,M,M,M,300.00,M,M,M,-SN BR,KCAO 010635Z AUTO /////KT 3SM -SN BR OVC003 RMK P0001  LTG DSNT E-SW! MADISHF
CAO,2017-04-01 06:40,-103.1539,36.4486,M,M,M,M,M,0.02,M,M,5.00,M,OVC,M,M,M,300.00,M,M,M,-SN BR,KCAO 010640Z AUTO /////KT 5SM -SN BR OVC003 RMK P0002  LTG DSNT E-SW! MADISHF
CAO,2017-04-01 06:45,-103.1539,36.4486,M,M,M,M,M,0.02,M,M,7.00,M,OVC,M,M,M,300.00,M,M,M,-SN,KCAO 010645Z AUTO /////KT 7SM -SN OVC003 RMK P0002  LTG DSNT E-SW! MADISHF
CAO,2017-04-01 06:50,-103.1539,36.4486,M,M,M,10.00,18.00,0.02,29.97,M,9.00,M,OVC,M,M,M,499.00,M,M,M,UP,KCAO 010650Z AUTO 01018KT 9SM UP OVC004 A2997 RMK P0002  LTG DSNT E! MADISHF
CAO,2017-04-01 06:51,-103.1539,36.4486,33.80,33.80,100.00,10.00,16.00,0.02,29.97,M,9.00,M,OVC,M,M,M,500.00,M,M,M,VCTS UP,KCAO 010651Z AUTO 01016KT 9SM VCTS UP OVC005 01/01 A2997 RMK AO2 LTG DSNT E RAE31UPB48SNB31E48 PRESRR P0002 $
CAO,2017-04-01 06:55,-103.1539,36.4486,34.00,34.00,100.00,360.00,13.00,0.02,30.00,1015.80,10.00,23.00,OVC,M,M,M,500.00,M,M,M,VCTS,KCAO 010655Z AUTO 36013G23KT 10SM VCTS OVC005 01/01 A3000 RMK AO2 LTG DSNT E RAE31UPB48E54SNB31E48 PRESRR SLP158 P0002 T00110011 400610011 $
CAO,2017-04-01 07:00,-103.1539,36.4486,M,M,M,360.00,15.00,0.00,M,M,10.00,M,OVC,M,M,M,499.00,M,M,M,UP,KCAO 010700Z AUTO 36015KT 10SM UP OVC004 RMK P0000  LTG DSNT E! MADISHF
CAO,2017-04-01 07:05,-103.1539,36.4486,M,M,M,360.00,15.00,M,M,M,10.00,M,OVC,M,M,M,499.00,M,M,M,-RA,KCAO 010705Z AUTO 36015KT 10SM -RA OVC004 RMK  LTG DSNT E! MADISHF
CAO,2017-04-01 07:10,-103.1539,36.4486,M,M,M,350.00,15.00,M,29.98,M,10.00,M,OVC,M,M,M,499.00,M,M,M,-RA,KCAO 010710Z AUTO 35015KT 10SM -RA OVC004 A2998 RMK  LTG DSNT E! MADISHF
CAO,2017-04-01 07:15,-103.1539,36.4486,M,M,M,350.00,14.00,0.01,M,M,9.00,M,OVC,M,M,M,499.00,M,M,M,RA,KCAO 010715Z AUTO 35014KT 9SM RA OVC004 RMK P0001 MADISHF
CAO,2017-04-01 07:20,-103.1539,36.4486,M,M,M,10.00,14.00,0.01,M,M,8.00,M,OVC,M,M,M,499.00,M,M,M,RA,KCAO 010720Z AUTO 01014KT 8SM RA OVC004 RMK P0001 MADISHF
CAO,2017-04-01 07:22,-103.1539,36.4486,34.00,34.00,100.00,10.00,15.00,0.01,29.99,M,8.00,M,OVC,M,M,M,500.00,M,M,M,RA,KCAO 010722Z AUTO 01015KT 8SM RA OVC005 01/01 A2999 RMK AO2 UPB0658E02RAB02 P0001 T00110011 $
CAO,2017-04-01 07:25,-103.1539,36.4486,M,M,M,M,M,0.01,M,M,8.00,M,OVC,M,M,M,499.00,M,M,M,RA,KCAO 010725Z AUTO /////KT 8SM RA OVC004 RMK P0001 MADISHF
CAO,2017-04-01 07:30,-103.1539,36.4486,M,M,M,10.00,13.00,0.02,30.00,M,8.00,M,BKN,OVC,M,M,499.00,999.00,M,M,-RA,KCAO 010730Z AUTO 01013KT 8SM -RA BKN004 OVC009 A3000 RMK P0002 MADISHF
CAO,2017-04-01 07:35,-103.1539,36.4486,M,M,M,10.00,15.00,0.02,M,M,8.00,M,OVC,M,M,M,700.00,M,M,M,-RA,KCAO 010735Z AUTO 01015KT 8SM -RA OVC007 RMK P0002  LTG DSNT E! MADISHF
CAO,2017-04-01 07:37,-103.1539,36.4486,33.10,33.10,100.00,10.00,14.00,0.02,29.99,M,8.00,M,FEW,OVC,M,M,500.00,900.00,M,M,-RA,KCAO 010737Z AUTO 01014KT 8SM -RA FEW005 OVC009 01/01 A2999 RMK AO2 LTG DSNT E UPB0658E02RAB02 P0002 T00060006 $
CAO,2017-04-01 07:40,-103.1539,36.4486,M,M,M,M,M,0.02,M,M,8.00,M,BKN,OVC,M,M,900.00,3800.00,M,M,-RA,KCAO 010740Z AUTO /////KT 8SM -RA BKN009 OVC038 RMK P0002  LTG DSNT E! MADISHF
CAO,2017-04-01 07:45,-103.1539,36.4486,M,M,M,20.00,12.00,0.02,M,M,8.00,M,BKN,OVC,M,M,900.00,3800.00,M,M,-RA,KCAO 010745Z AUTO 02012KT 8SM -RA BKN009 OVC038 RMK P0002  LTG DSNT E! MADISHF
CAO,2017-04-01 07:50,-103.1539,36.4486,M,M,M,20.00,13.00,0.03,30.00,M,6.00,M,BKN,BKN,OVC,M,900.00,2400.00,3800.00,M,+RA,KCAO 010750Z AUTO 02013KT 6SM +RA BKN009 BKN024 OVC038 A3000 RMK P0003 MADISHF
CAO,2017-04-01 07:55,-103.1539,36.4486,33.10,M,M,20.00,13.00,0.05,30.00,1016.10,3.00,M,SCT,BKN,OVC,M,1000.00,1800.00,3800.00,M,+RA,KCAO 010755Z AUTO 02013KT 3SM +RA SCT010 BKN018 OVC038 01/ A3000 RMK AO2 UPB0658E02RAB02 SLP161 P0005 T0006 $
CAO,2017-04-01 08:00,-103.1539,36.4486,33.10,M,M,20.00,14.00,0.01,30.01,M,2.50,M,FEW,SCT,OVC,M,1000.00,2000.00,4000.00,M,+RA,KCAO 010800Z AUTO 02014KT 2 1/2SM +RA FEW010 SCT020 OVC040 01/ A3001 RMK AO2 P0001 T0006 $
CAO,2017-04-01 08:05,-103.1539,36.4486,M,M,M,20.00,14.00,0.02,M,M,3.50,M,FEW,FEW,OVC,M,999.00,2200.00,3999.00,M,RA,KCAO 010805Z AUTO 02014KT 3SM RA FEW009 FEW022 OVC039 RMK P0002 MADISHF
CAO,2017-04-01 08:07,-103.1539,36.4486,33.10,M,M,20.00,15.00,0.02,30.00,M,4.00,M,FEW,FEW,OVC,M,1000.00,2200.00,4000.00,M,RA,KCAO 010807Z AUTO 02015KT 4SM RA FEW010 FEW022 OVC040 01/ A3000 RMK AO2 P0002 T0006 $
CAO,2017-04-01 08:10,-103.1539,36.4486,M,M,M,10.00,16.00,0.02,29.99,M,4.00,M,FEW,FEW,OVC,M,999.00,2200.00,4100.00,M,RA,KCAO 010810Z AUTO 01016KT 4SM RA FEW009 FEW022 OVC041 A2999 RMK P0002 MADISHF
CAO,2017-04-01 08:15,-103.1539,36.4486,M,M,M,10.00,14.00,0.03,M,M,4.00,M,FEW,FEW,OVC,M,1100.00,2300.00,4100.00,M,RA BR,KCAO 010815Z AUTO 01014KT 4SM RA BR FEW011 FEW023 OVC041 RMK P0003 MADISHF
CAO,2017-04-01 08:20,-103.1539,36.4486,M,M,M,M,M,0.04,M,M,4.00,M,OVC,M,M,M,4100.00,M,M,M,RA BR,KCAO 010820Z AUTO /////KT 4SM RA BR OVC041 RMK P0004 MADISHF
CAO,2017-04-01 08:25,-103.1539,36.4486,M,M,M,M,M,0.04,M,M,5.00,M,OVC,M,M,M,3800.00,M,M,M,RA BR,KCAO 010825Z AUTO /////KT 5SM RA BR OVC038 RMK P0004 MADISHF
CAO,2017-04-01 08:30,-103.1539,36.4486,M,M,M,10.00,16.00,0.05,29.99,M,5.00,M,BKN,OVC,M,M,3500.00,4300.00,M,M,-RA BR,KCAO 010830Z AUTO 01016KT 5SM -RA BR BKN035 OVC043 A2999 RMK P0005 MADISHF
CAO,2017-04-01 08:35,-103.1539,36.4486,M,M,M,M,M,0.05,M,M,4.00,M,BKN,OVC,M,M,3300.00,4100.00,M,M,-SN BR,KCAO 010835Z AUTO /////KT 4SM -SN BR BKN033 OVC041 RMK P0005 MADISHF
CAO,2017-04-01 08:40,-103.1539,36.4486,M,M,M,M,M,0.05,M,M,5.00,M,BKN,OVC,M,M,3000.00,3800.00,M,M,-SN BR,KCAO 010840Z AUTO /////KT 5SM -SN BR BKN030 OVC038 RMK P0005 MADISHF
CAO,2017-04-01 08:45,-103.1539,36.4486,M,M,M,M,M,0.05,M,M,7.00,M,BKN,OVC,M,M,3000.00,3800.00,M,M,-RA,KCAO 010845Z AUTO /////KT 7SM -RA BKN030 OVC038 RMK P0005 MADISHF
CAO,2017-04-01 08:50,-103.1539,36.4486,M,M,M,10.00,18.00,0.05,29.97,M,9.00,M,BKN,OVC,M,M,2700.00,3399.00,M,M,-RA,KCAO 010850Z AUTO 01018KT 9SM -RA BKN027 OVC033 A2997 RMK P0005 MADISHF
CAO,2017-04-01 08:55,-103.1539,36.4486,33.10,33.10,100.00,10.00,17.00,0.05,29.97,1014.90,10.00,M,FEW,OVC,M,M,400.00,2700.00,M,M,M,KCAO 010855Z AUTO 01017KT 10SM FEW004 OVC027 01/01 A2997 RMK AO2 RAE53SNB32E42 SLP149 P0005 60012 I1001 I3001 T00060006 58008 $
CAO,2017-04-01 09:00,-103.1539,36.4486,M,M,M,10.00,17.00,M,M,M,7.00,M,SCT,OVC,M,M,400.00,2700.00,M,M,M,KCAO 010900Z AUTO 01017KT 7SM SCT004 OVC027 RMK MADISHF
CAO,2017-04-01 09:05,-103.1539,36.4486,M,M,M,M,M,M,M,M,6.00,M,BKN,OVC,M,M,400.00,2700.00,M,M,BR,KCAO 010905Z AUTO /////KT 6SM BR BKN004 OVC027 RMK MADISHF
CAO,2017-04-01 09:10,-103.1539,36.4486,33.10,33.10,100.00,360.00,17.00,0.00,29.98,M,7.00,M,BKN,OVC,M,M,400.00,2700.00,M,M,M,KCAO 010910Z AUTO 36017KT 7SM BKN004 OVC027 01/01 A2998 RMK AO2 T00060006 $
CAO,2017-04-01 09:15,-103.1539,36.4486,M,M,M,M,M,M,M,M,8.00,M,BKN,OVC,M,M,400.00,2600.00,M,M,M,KCAO 010915Z AUTO /////KT 8SM BKN004 OVC026 RMK MADISHF
CAO,2017-04-01 09:20,-103.1539,36.4486,M,M,M,360.00,16.00,M,M,M,10.00,M,OVC,M,M,M,499.00,M,M,M,M,KCAO 010920Z AUTO 36016KT 10SM OVC004 RMK MADISHF
CAO,2017-04-01 09:25,-103.1539,36.4486,33.10,33.10,100.00,360.00,18.00,0.00,30.00,M,10.00,M,BKN,OVC,M,M,500.00,1400.00,M,M,M,KCAO 010925Z AUTO 36018KT 10SM BKN005 OVC014 01/01 A3000 RMK AO2 T00060006 $
CAO,2017-04-01 09:30,-103.1539,36.4486,M,M,M,360.00,16.00,M,30.00,M,10.00,M,BKN,OVC,M,M,700.00,1400.00,M,M,M,KCAO 010930Z AUTO 36016KT 10SM BKN007 OVC014 A3000 RMK MADISHF
CAO,2017-04-01 09:35,-103.1539,36.4486,M,M,M,10.00,14.00,M,M,M,10.00,M,OVC,M,M,M,700.00,M,M,M,M,KCAO 010935Z AUTO 01014KT 10SM OVC007 RMK MADISHF
CAO,2017-04-01 09:36,-103.1539,36.4486,34.00,34.00,100.00,10.00,15.00,0.00,29.99,M,10.00,M,OVC,M,M,M,700.00,M,M,M,M,KCAO 010936Z AUTO 01015KT 10SM OVC007 01/01 A2999 RMK AO2 T00110011 $
CAO,2017-04-01 09:40,-103.1539,36.4486,M,M,M,360.00,19.00,M,M,M,10.00,M,OVC,M,M,M,700.00,M,M,M,M,KCAO 010940Z AUTO 36019KT 10SM OVC007 RMK MADISHF
CAO,2017-04-01 09:45,-103.1539,36.4486,M,M,M,10.00,17.00,M,M,M,10.00,M,OVC,M,M,M,700.00,M,M,M,M,KCAO 010945Z AUTO 01017KT 10SM OVC007 RMK MADISHF
CAO,2017-04-01 09:50,-103.1539,36.4486,M,M,M,360.00,20.00,M,29.96,M,10.00,M,OVC,M,M,M,700.00,M,M,M,M,KCAO 010950Z AUTO 36020KT 10SM OVC007 A2996 RMK MADISHF
CAO,2017-04-01 09:55,-103.1539,36.4486,34.00,34.00,100.00,10.00,21.00,0.00,29.97,1014.60,10.00,M,OVC,M,M,M,700.00,M,M,M,M,KCAO 010955Z AUTO 01021KT 10SM OVC007 01/01 A2997 RMK AO2 SLP146 T00110011 $
CAO,2017-04-01 10:00,-103.1539,36.4486,M,M,M,360.00,20.00,M,M,M,10.00,M,OVC,M,M,M,700.00,M,M,M,M,KCAO 011000Z AUTO 36020KT 10SM OVC007 RMK MADISHF
CAO,2017-04-01 10:05,-103.1539,36.4486,M,M,M,10.00,17.00,M,M,M,10.00,M,OVC,M,M,M,700.00,M,M,M,M,KCAO 011005Z AUTO 01017KT 10SM OVC007 RMK MADISHF
CAO,2017-04-01 10:10,-103.1539,36.4486,M,M,M,360.00,18.00,M,M,M,10.00,M,OVC,M,M,M,700.00,M,M,M,M,KCAO 011010Z AUTO 36018KT 10SM OVC007 RMK MADISHF
CAO,2017-04-01 10:15,-103.1539,36.4486,M,M,M,350.00,16.00,M,M,M,10.00,M,OVC,M,M,M,700.00,M,M,M,M,KCAO 011015Z AUTO 35016KT 10SM OVC007 RMK MADISHF
CAO,2017-04-01 10:20,-103.1539,36.4486,M,M,M,350.00,15.00,M,M,M,10.00,M,OVC,M,M,M,600.00,M,M,M,M,KCAO 011020Z AUTO 35015KT 10SM OVC006 RMK MADISHF
CAO,2017-04-01 10:25,-103.1539,36.4486,M,M,M,360.00,19.00,M,M,M,10.00,M,OVC,M,M,M,600.00,M,M,M,M,KCAO 011025Z AUTO 36019KT 10SM OVC006 RMK MADISHF
CAO,2017-04-01 10:30,-103.1539,36.4486,M,M,M,10.00,17.00,M,29.99,M,10.00,M,OVC,M,M,M,600.00,M,M,M,M,KCAO 011030Z AUTO 01017KT 10SM OVC006 A2999 RMK MADISHF
CAO,2017-04-01 10:35,-103.1539,36.4486,M,M,M,360.00,17.00,M,M,M,10.00,M,OVC,M,M,M,600.00,M,M,M,M,KCAO 011035Z AUTO 36017KT 10SM OVC006 RMK MADISHF
CAO,2017-04-01 10:40,-103.1539,36.4486,M,M,M,360.00,17.00,M,M,M,10.00,M,OVC,M,M,M,600.00,M,M,M,M,KCAO 011040Z AUTO 36017KT 10SM OVC006 RMK MADISHF
CAO,2017-04-01 10:45,-103.1539,36.4486,M,M,M,360.00,17.00,M,30.00,M,10.00,M,OVC,M,M,M,600.00,M,M,M,M,KCAO 011045Z AUTO 36017KT 10SM OVC006 A3000 RMK MADISHF
CAO,2017-04-01 10:50,-103.1539,36.4486,M,M,M,360.00,17.00,M,M,M,9.00,M,OVC,M,M,M,600.00,M,M,M,M,KCAO 011050Z AUTO 36017KT 9SM OVC006 RMK MADISHF
CAO,2017-04-01 10:55,-103.1539,36.4486,33.10,33.10,100.00,360.00,19.00,0.00,30.01,1016.30,7.00,M,OVC,M,M,M,600.00,M,M,M,UP,KCAO 011055Z AUTO 36019KT 7SM UP OVC006 01/01 A3001 RMK AO2 UPB54 SLP163 P0000 T00060006 $
CAO,2017-04-01 11:00,-103.1539,36.4486,M,M,M,360.00,17.00,0.00,M,M,6.00,M,OVC,M,M,M,600.00,M,M,M,UP BR,KCAO 011100Z AUTO 36017KT 6SM UP BR OVC006 RMK P0000 MADISHF
CAO,2017-04-01 11:05,-103.1539,36.4486,M,M,M,10.00,19.00,M,M,M,4.00,M,OVC,M,M,M,600.00,M,M,M,-SN BR,KCAO 011105Z AUTO 01019KT 4SM -SN BR OVC006 RMK MADISHF
CAO,2017-04-01 11:10,-103.1539,36.4486,M,M,M,10.00,21.00,M,M,M,4.00,M,OVC,M,M,M,600.00,M,M,M,-SN BR,KCAO 011110Z AUTO 01021KT 4SM -SN BR OVC006 RMK MADISHF
CAO,2017-04-01 11:15,-103.1539,36.4486,M,M,M,10.00,21.00,M,M,M,3.50,M,OVC,M,M,M,600.00,M,M,M,-SN,KCAO 011115Z AUTO 01021KT 3SM -SN OVC006 RMK MADISHF
CAO,2017-04-01 11:20,-103.1539,36.4486,M,M,M,360.00,18.00,M,M,M,4.00,M,OVC,M,M,M,600.00,M,M,M,-SN,KCAO 011120Z AUTO 36018KT 4SM -SN OVC006 RMK MADISHF
CAO,2017-04-01 11:25,-103.1539,36.4486,M,M,M,360.00,18.00,M,M,M,4.00,M,OVC,M,M,M,600.00,M,M,M,-SN,KCAO 011125Z AUTO 36018KT 4SM -SN OVC006 RMK MADISHF
CAO,2017-04-01 11:30,-103.1539,36.4486,M,M,M,10.00,18.00,0.00,30.01,M,4.00,M,OVC,M,M,M,800.00,M,M,M,UP,KCAO 011130Z AUTO 01018KT 4SM UP OVC008 A3001 RMK P0000 MADISHF
CAO,2017-04-01 11:35,-103.1539,36.4486,33.10,M,M,10.00,15.00,0.00,30.01,M,5.00,M,OVC,M,M,M,800.00,M,M,M,UP,KCAO 011135Z AUTO 01015KT 5SM UP OVC008 01/ A3001 RMK AO2 PK WND 01027/1112 UPE05B27SNB05E27 P0000 T0006 $
CAO,2017-04-01 11:40,-103.1539,36.4486,M,M,M,360.00,14.00,0.00,M,M,5.00,M,OVC,M,M,M,700.00,M,M,M,UP,KCAO 011140Z AUTO 36014KT 5SM UP OVC007 RMK P0000 MADISHF
CAO,2017-04-01 11:45,-103.1539,36.4486,M,M,M,360.00,15.00,0.00,30.02,M,6.00,M,OVC,M,M,M,700.00,M,M,M,UP BR,KCAO 011145Z AUTO 36015KT 6SM UP BR OVC007 A3002 RMK P0000 MADISHF
CAO,2017-04-01 11:46,-103.1539,36.4486,34.00,34.00,100.00,360.00,16.00,0.00,30.02,M,6.00,M,OVC,M,M,M,700.00,M,M,M,UP BR,KCAO 011146Z AUTO 36016KT 6SM UP BR OVC007 01/01 A3002 RMK AO2 PK WND 01027/1112 UPE05B27SNB05E27 P0000 T00110011 $
CAO,2017-04-01 11:50,-103.1539,36.4486,M,M,M,10.00,20.00,0.00,M,M,7.00,M,OVC,M,M,M,700.00,M,M,M,UP,KCAO 011150Z AUTO 01020KT 7SM UP OVC007 RMK P0000 MADISHF
CAO,2017-04-01 11:55,-103.1539,36.4486,34.00,34.00,100.00,360.00,17.00,0.00,30.01,1016.40,7.00,25.00,OVC,M,M,M,700.00,M,M,M,UP,KCAO 011155Z AUTO 36017G25KT 7SM UP OVC007 01/01 A3001 RMK AO2 PK WND 01027/1112 UPE05B27SNB05E27 SLP164 P0000 60012 70054 I6001 T00110011 10011 20006 53012 $
CAO,2017-04-01 12:00,-103.1539,36.4486,M,M,M,360.00,17.00,0.00,M,M,8.00,M,OVC,M,M,M,800.00,M,M,M,UP,KCAO 011200Z AUTO 36017KT 8SM UP OVC008 RMK P0000 MADISHF
CAO,2017-04-01 12:03,-103.1539,36.4486,34.00,34.00,100.00,360.00,17.00,0.00,30.02,M,8.00,M,OVC,M,M,M,800.00,M,M,M,UP,KCAO 011203Z AUTO 36017KT 8SM UP OVC008 01/01 A3002 RMK AO2 P0000 T00110011 $
CAO,2017-04-01 12:05,-103.1539,36.4486,M,M,M,360.00,17.00,M,M,M,9.00,M,OVC,M,M,M,800.00,M,M,M,M,KCAO 011205Z AUTO 36017KT 9SM OVC008 RMK MADISHF
CAO,2017-04-01 12:10,-103.1539,36.4486,M,M,M,350.00,15.00,M,30.03,M,9.00,M,OVC,M,M,M,800.00,M,M,M,M,KCAO 011210Z AUTO 35015KT 9SM OVC008 A3003 RMK MADISHF
CAO,2017-04-01 12:15,-103.1539,36.4486,M,M,M,350.00,17.00,M,M,M,9.00,M,OVC,M,M,M,800.00,M,M,M,-SN,KCAO 011215Z AUTO 35017KT 9SM -SN OVC008 RMK MADISHF
CAO,2017-04-01 12:20,-103.1539,36.4486,M,M,M,350.00,17.00,M,M,M,7.00,M,OVC,M,M,M,800.00,M,M,M,-SN,KCAO 011220Z AUTO 35017KT 7SM -SN OVC008 RMK MADISHF
CAO,2017-04-01 12:25,-103.1539,36.4486,M,M,M,350.00,19.00,M,M,M,6.00,M,OVC,M,M,M,800.00,M,M,M,-SN BR,KCAO 011225Z AUTO 35019KT 6SM -SN BR OVC008 RMK MADISHF
CAO,2017-04-01 12:30,-103.1539,36.4486,M,M,M,360.00,17.00,M,30.02,M,6.00,M,FEW,OVC,M,M,600.00,999.00,M,M,-SN BR,KCAO 011230Z AUTO 36017KT 6SM -SN BR FEW006 OVC009 A3002 RMK MADISHF
CAO,2017-04-01 12:34,-103.1539,36.4486,34.00,34.00,100.00,360.00,20.00,0.00,30.02,M,6.00,M,FEW,OVC,M,M,600.00,1000.00,M,M,-SN BR,KCAO 011234Z AUTO 36020KT 6SM -SN BR FEW006 OVC010 01/01 A3002 RMK AO2 UPE05SNB14 P0000 T00110011 $
CAO,2017-04-01 12:35,-103.1539,36.4486,M,M,M,360.00,19.00,M,M,M,6.00,M,OVC,M,M,M,999.00,M,M,M,-SN BR,KCAO 011235Z AUTO 36019KT 6SM -SN BR OVC009 RMK MADISHF
CAO,2017-04-01 12:40,-103.1539,36.4486,M,M,M,360.00,18.00,M,M,M,8.00,M,FEW,BKN,OVC,M,700.00,999.00,1699.00,M,-SN,KCAO 011240Z AUTO 36018KT 8SM -SN FEW007 BKN009 OVC016 RMK MADISHF
CAO,2017-04-01 12:45,-103.1539,36.4486,M,M,M,360.00,19.00,0.00,M,M,9.00,M,BKN,OVC,M,M,1200.00,1699.00,M,M,UP,KCAO 011245Z AUTO 36019KT 9SM UP BKN012 OVC016 RMK P0000 MADISHF
CAO,2017-04-01 12:50,-103.1539,36.4486,M,M,M,360.00,19.00,M,30.04,M,10.00,M,BKN,OVC,M,M,1400.00,1800.00,M,M,M,KCAO 011250Z AUTO 36019KT 10SM BKN014 OVC018 A3004 RMK MADISHF
CAO,2017-04-01 12:55,-103.1539,36.4486,34.00,34.00,100.00,360.00,18.00,0.00,30.04,1017.50,10.00,M,BKN,OVC,M,M,1400.00,1800.00,M,M,M,KCAO 011255Z AUTO 36018KT 10SM BKN014 OVC018 01/01 A3004 RMK AO2 UPE05B44E47SNB14E44 SLP175 P0000 T00110011 $
CAO,2017-04-01 13:00,-103.1539,36.4486,M,M,M,360.00,17.00,M,M,M,10.00,M,BKN,OVC,M,M,1400.00,1900.00,M,M,M,KCAO 011300Z AUTO 36017KT 10SM BKN014 OVC019 RMK MADISHF
CAO,2017-04-01 13:05,-103.1539,36.4486,M,M,M,360.00,15.00,M,M,M,10.00,M,OVC,M,M,M,1400.00,M,M,M,M,KCAO 011305Z AUTO 36015KT 10SM OVC014 RMK MADISHF
CAO,2017-04-01 13:10,-103.1539,36.4486,M,M,M,360.00,16.00,M,30.05,M,10.00,M,OVC,M,M,M,1400.00,M,M,M,M,KCAO 011310Z AUTO 36016KT 10SM OVC014 A3005 RMK MADISHF
CAO,2017-04-01 13:15,-103.1539,36.4486,M,M,M,360.00,14.00,M,M,M,10.00,M,OVC,M,M,M,1400.00,M,M,M,M,KCAO 011315Z AUTO 36014KT 10SM OVC014 RMK MADISHF
CAO,2017-04-01 13:20,-103.1539,36.4486,M,M,M,360.00,16.00,M,M,M,9.00,M,OVC,M,M,M,1400.00,M,M,M,M,KCAO 011320Z AUTO 36016KT 9SM OVC014 RMK MADISHF
CAO,2017-04-01 13:25,-103.1539,36.4486,M,M,M,350.00,14.00,M,M,M,4.00,M,OVC,M,M,M,1400.00,M,M,M,-SN BR,KCAO 011325Z AUTO 35014KT 4SM -SN BR OVC014 RMK MADISHF
CAO,2017-04-01 13:30,-103.1539,36.4486,M,M,M,360.00,17.00,M,30.05,M,2.00,M,OVC,M,M,M,1400.00,M,M,M,-SN BR,KCAO 011330Z AUTO 36017KT 2SM -SN BR OVC014 A3005 RMK MADISHF
CAO,2017-04-01 13:31,-103.1539,36.4486,33.10,33.10,100.00,360.00,17.00,0.00,30.05,M,1.75,M,OVC,M,M,M,1400.00,M,M,M,-SN BR,KCAO 011331Z AUTO 36017KT 1 3/4SM -SN BR OVC014 01/01 A3005 RMK AO2 SNB22 P0000 T00060006 $
CAO,2017-04-01 13:35,-103.1539,36.4486,M,M,M,360.00,15.00,M,M,M,1.50,M,OVC,M,M,M,1400.00,M,M,M,-SN BR,KCAO 011335Z AUTO 36015KT 1 1/2SM -SN BR OVC014 RMK MADISHF
CAO,2017-04-01 13:40,-103.1539,36.4486,M,M,M,360.00,15.00,0.01,M,M,1.75,M,OVC,M,M,M,1300.00,M,M,M,-SN BR,KCAO 011340Z AUTO 36015KT 2SM -SN BR OVC013 RMK P0001 MADISHF
CAO,2017-04-01 13:45,-103.1539,36.4486,M,M,M,350.00,13.00,0.01,M,M,2.00,M,OVC,M,M,M,1300.00,M,M,M,-SN BR,KCAO 011345Z AUTO 35013KT 2SM -SN BR OVC013 RMK P0001 MADISHF
CAO,2017-04-01 13:50,-103.1539,36.4486,M,M,M,360.00,15.00,0.01,30.06,M,3.00,M,BKN,OVC,M,M,1300.00,2500.00,M,M,-SN BR,KCAO 011350Z AUTO 36015KT 3SM -SN BR BKN013 OVC025 A3006 RMK P0001 MADISHF
CAO,2017-04-01 13:55,-103.1539,36.4486,33.10,33.10,100.00,360.00,15.00,0.01,30.06,1018.20,4.00,M,BKN,OVC,M,M,1300.00,2500.00,M,M,-SN BR,KCAO 011355Z AUTO 36015KT 4SM -SN BR BKN013 OVC025 01/01 A3006 RMK AO2 SNB22 SLP182 P0001 T00060006 $
CAO,2017-04-01 14:00,-103.1539,36.4486,M,M,M,350.00,16.00,M,M,M,3.50,M,BKN,OVC,M,M,1400.00,2500.00,M,M,-SN BR,KCAO 011400Z AUTO 35016KT 3SM -SN BR BKN014 OVC025 RMK MADISHF
CAO,2017-04-01 14:03,-103.1539,36.4486,33.10,33.10,100.00,360.00,16.00,0.00,30.05,M,2.50,M,SCT,OVC,M,M,1400.00,2700.00,M,M,-SN BR,KCAO 011403Z AUTO 36016KT 2 1/2SM -SN BR SCT014 OVC027 01/01 A3005 RMK AO2 P0000 T00060006 $
CAO,2017-04-01 14:05,-103.1539,36.4486,M,M,M,360.00,17.00,M,M,M,2.00,M,SCT,OVC,M,M,1600.00,2700.00,M,M,-SN BR,KCAO 011405Z AUTO 36017KT 2SM -SN BR SCT016 OVC027 RMK MADISHF
CAO,2017-04-01 14:10,-103.1539,36.4486,M,M,M,360.00,16.00,M,30.05,M,1.75,M,SCT,OVC,M,M,2200.00,2700.00,M,M,-SN BR,KCAO 011410Z AUTO 36016KT 2SM -SN BR SCT022 OVC027 A3005 RMK MADISHF
CAO,2017-04-01 14:13,-103.1539,36.4486,33.10,33.10,100.00,360.00,17.00,0.00,30.05,M,1.75,M,OVC,M,M,M,2700.00,M,M,M,-SN BR,KCAO 011413Z AUTO 36017KT 1 3/4SM -SN BR OVC027 01/01 A3005 RMK AO2 P0000 T00060006 $
CAO,2017-04-01 14:15,-103.1539,36.4486,M,M,M,360.00,17.00,M,M,M,2.00,M,BKN,OVC,M,M,2700.00,4600.00,M,M,-SN BR,KCAO 011415Z AUTO 36017KT 2SM -SN BR BKN027 OVC046 RMK MADISHF
CAO,2017-04-01 14:18,-103.1539,36.4486,33.10,33.10,100.00,360.00,19.00,0.00,30.05,M,3.00,M,BKN,BKN,OVC,M,2700.00,3300.00,4600.00,M,-SN BR,KCAO 011418Z AUTO 36019KT 3SM -SN BR BKN027 BKN033 OVC046 01/01 A3005 RMK AO2 P0000 T00060006 $
CAO,2017-04-01 14:20,-103.1539,36.4486,M,M,M,350.00,17.00,M,M,M,4.00,M,SCT,BKN,OVC,M,2700.00,3300.00,4600.00,M,-SN BR,KCAO 011420Z AUTO 35017KT 4SM -SN BR SCT027 BKN033 OVC046 RMK MADISHF
CAO,2017-04-01 14:25,-103.1539,36.4486,M,M,M,350.00,20.00,M,M,M,5.00,M,SCT,BKN,OVC,M,2900.00,3700.00,5000.00,M,-SN BR,KCAO 011425Z AUTO 35020KT 5SM -SN BR SCT029 BKN037 OVC050 RMK MADISHF
CAO,2017-04-01 14:30,-103.1539,36.4486,M,M,M,350.00,19.00,0.00,M,M,7.00,M,SCT,BKN,OVC,M,2700.00,3500.00,5500.00,M,UP,KCAO 011430Z AUTO 35019KT 7SM UP SCT027 BKN035 OVC055 RMK P0000 MADISHF
CAO,2017-04-01 14:31,-103.1539,36.4486,34.00,34.00,100.00,350.00,19.00,0.00,30.05,M,7.00,24.00,SCT,BKN,OVC,M,3100.00,4800.00,5500.00,M,UP,KCAO 011431Z AUTO 35019G24KT 7SM UP SCT031 BKN048 OVC055 01/01 A3005 RMK AO2 UPB30SNE30 P0000 T00110011 $
CAO,2017-04-01 14:35,-103.1539,36.4486,M,M,M,350.00,19.00,0.00,M,M,9.00,M,FEW,BKN,OVC,M,700.00,3100.00,10000.00,M,UP,KCAO 011435Z AUTO 35019KT 9SM UP FEW007 BKN031 OVC100 RMK P0000 MADISHF
CAO,2017-04-01 14:40,-103.1539,36.4486,34.00,34.00,100.00,350.00,20.00,0.00,30.03,M,10.00,26.00,FEW,BKN,OVC,M,700.00,4700.00,10000.00,M,M,KCAO 011440Z AUTO 35020G26KT 10SM FEW007 BKN047 OVC100 01/01 A3003 RMK AO2 PK WND 36026/1439 UPB30E40SNE30 P0000 T00110011 $
CAO,2017-04-01 14:45,-103.1539,36.4486,M,M,M,350.00,18.00,M,M,M,10.00,M,FEW,BKN,OVC,M,700.00,3200.00,10000.00,M,M,KCAO 011445Z AUTO 35018KT 10SM FEW007 BKN032 OVC100 RMK MADISHF
CAO,2017-04-01 14:50,-103.1539,36.4486,M,M,M,350.00,17.00,M,30.04,M,10.00,M,BKN,BKN,OVC,M,3200.00,5500.00,10000.00,M,M,KCAO 011450Z AUTO 35017KT 10SM BKN032 BKN055 OVC100 A3004 RMK MADISHF
CAO,2017-04-01 14:55,-103.1539,36.4486,34.00,34.00,100.00,350.00,18.00,0.00,30.04,1017.60,10.00,M,BKN,BKN,OVC,M,3000.00,5500.00,10000.00,M,M,KCAO 011455Z AUTO 35018KT 10SM BKN030 BKN055 OVC100 01/01 A3004 RMK AO2 PK WND 36026/1439 UPB30E40SNE30 SLP176 P0000 60001 T00110011 50008 $
CAO,2017-04-01 15:00,-103.1539,36.4486,M,M,M,350.00,18.00,M,M,M,10.00,M,BKN,OVC,M,M,3000.00,9500.00,M,M,M,KCAO 011500Z AUTO 35018KT 10SM BKN030 OVC095 RMK MADISHF
CAO,2017-04-01 15:05,-103.1539,36.4486,M,M,M,360.00,17.00,M,M,M,7.00,M,OVC,M,M,M,3000.00,M,M,M,-SN,KCAO 011505Z AUTO 36017KT 7SM -SN OVC030 RMK MADISHF
CAO,2017-04-01 15:10,-103.1539,36.4486,M,M,M,350.00,17.00,M,30.05,M,5.00,M,OVC,M,M,M,3000.00,M,M,M,-SN BR,KCAO 011510Z AUTO 35017KT 5SM -SN BR OVC030 A3005 RMK MADISHF
CAO,2017-04-01 15:15,-103.1539,36.4486,M,M,M,350.00,17.00,M,M,M,4.00,M,OVC,M,M,M,3000.00,M,M,M,-SN BR,KCAO 011515Z AUTO 35017KT 4SM -SN BR OVC030 RMK MADISHF
CAO,2017-04-01 15:20,-103.1539,36.4486,M,M,M,350.00,17.00,M,M,M,5.00,M,OVC,M,M,M,2900.00,M,M,M,-SN BR,KCAO 011520Z AUTO 35017KT 5SM -SN BR OVC029 RMK MADISHF
CAO,2017-04-01 15:24,-103.1539,36.4486,34.00,34.00,100.00,350.00,17.00,0.00,30.06,M,5.00,M,OVC,M,M,M,2900.00,M,M,M,-SN BR,KCAO 011524Z AUTO 35017KT 5SM -SN BR OVC029 01/01 A3006 RMK AO2 SNB03 P0000 T00110011 $
CAO,2017-04-01 15:25,-103.1539,36.4486,M,M,M,350.00,16.00,M,M,M,6.00,M,OVC,M,M,M,2900.00,M,M,M,-SN BR,KCAO 011525Z AUTO 35016KT 6SM -SN BR OVC029 RMK MADISHF
CAO,2017-04-01 15:30,-103.1539,36.4486,M,M,M,350.00,18.00,M,30.06,M,8.00,M,OVC,M,M,M,2900.00,M,M,M,-SN,KCAO 011530Z AUTO 35018KT 8SM -SN OVC029 A3006 RMK MADISHF
CAO,2017-04-01 15:35,-103.1539,36.4486,M,M,M,350.00,16.00,M,M,M,9.00,M,OVC,M,M,M,2900.00,M,M,M,M,KCAO 011535Z AUTO 35016KT 9SM OVC029 RMK MADISHF
CAO,2017-04-01 15:40,-103.1539,36.4486,M,M,M,350.00,15.00,M,M,M,10.00,M,OVC,M,M,M,2800.00,M,M,M,M,KCAO 011540Z AUTO 35015KT 10SM OVC028 RMK MADISHF
CAO,2017-04-01 15:45,-103.1539,36.4486,M,M,M,350.00,18.00,M,M,M,10.00,M,OVC,M,M,M,2800.00,M,M,M,M,KCAO 011545Z AUTO 35018KT 10SM OVC028 RMK MADISHF
CAO,2017-04-01 15:50,-103.1539,36.4486,M,M,M,350.00,16.00,M,30.07,M,10.00,M,OVC,M,M,M,2800.00,M,M,M,M,KCAO 011550Z AUTO 35016KT 10SM OVC028 A3007 RMK MADISHF
CAO,2017-04-01 15:55,-103.1539,36.4486,34.00,34.00,100.00,350.00,17.00,0.00,30.07,1018.80,10.00,M,OVC,M,M,M,2800.00,M,M,M,M,KCAO 011555Z AUTO 35017KT 10SM OVC028 01/01 A3007 RMK AO2 SNB03E31 SLP188 P0000 T00110011 $
CAO,2017-04-01 16:00,-103.1539,36.4486,M,M,M,350.00,16.00,M,M,M,10.00,M,OVC,M,M,M,2800.00,M,M,M,M,KCAO 011600Z AUTO 35016KT 10SM OVC028 RMK MADISHF
CAO,2017-04-01 16:05,-103.1539,36.4486,M,M,M,350.00,15.00,M,M,M,10.00,M,OVC,M,M,M,2800.00,M,M,M,M,KCAO 011605Z AUTO 35015KT 10SM OVC028 RMK MADISHF
CAO,2017-04-01 16:10,-103.1539,36.4486,M,M,M,350.00,16.00,M,M,M,10.00,M,OVC,M,M,M,2800.00,M,M,M,M,KCAO 011610Z AUTO 35016KT 10SM OVC028 RMK MADISHF
CAO,2017-04-01 16:15,-103.1539,36.4486,M,M,M,M,M,M,M,M,10.00,M,OVC,M,M,M,2800.00,M,M,M,M,KCAO 011615Z AUTO /////KT 10SM OVC028 RMK MADISHF
CAO,2017-04-01 16:20,-103.1539,36.4486,M,M,M,350.00,18.00,M,M,M,10.00,M,OVC,M,M,M,3000.00,M,M,M,M,KCAO 011620Z AUTO 35018KT 10SM OVC030 RMK MADISHF
CAO,2017-04-01 16:24,-103.1539,36.4486,34.00,34.00,100.00,350.00,17.00,0.00,30.09,M,10.00,24.00,OVC,M,M,M,3000.00,M,M,M,M,KCAO 011624Z AUTO 35017G24KT 10SM OVC030 01/01 A3009 RMK AO2 T00110011 $
CAO,2017-04-01 16:25,-103.1539,36.4486,M,M,M,350.00,17.00,M,M,M,10.00,M,OVC,M,M,M,3000.00,M,M,M,M,KCAO 011625Z AUTO 35017KT 10SM OVC030 RMK MADISHF
CAO,2017-04-01 16:30,-103.1539,36.4486,M,M,M,350.00,14.00,M,M,M,10.00,M,OVC,M,M,M,3000.00,M,M,M,M,KCAO 011630Z AUTO 35014KT 10SM OVC030 RMK MADISHF
CAO,2017-04-01 16:35,-103.1539,36.4486,M,M,M,350.00,15.00,M,M,M,10.00,M,OVC,M,M,M,3200.00,M,M,M,M,KCAO 011635Z AUTO 35015KT 10SM OVC032 RMK MADISHF
CAO,2017-04-01 16:40,-103.1539,36.4486,M,M,M,350.00,17.00,M,M,M,10.00,M,OVC,M,M,M,3200.00,M,M,M,M,KCAO 011640Z AUTO 35017KT 10SM OVC032 RMK MADISHF
CAO,2017-04-01 16:45,-103.1539,36.4486,M,M,M,350.00,16.00,M,M,M,10.00,M,OVC,M,M,M,3200.00,M,M,M,M,KCAO 011645Z AUTO 35016KT 10SM OVC032 RMK MADISHF
CAO,2017-04-01 16:50,-103.1539,36.4486,M,M,M,350.00,18.00,M,30.08,M,10.00,M,OVC,M,M,M,3200.00,M,M,M,M,KCAO 011650Z AUTO 35018KT 10SM OVC032 A3008 RMK MADISHF
CAO,2017-04-01 16:55,-103.1539,36.4486,34.00,34.00,100.00,350.00,17.00,0.00,30.07,1019.20,10.00,M,OVC,M,M,M,3200.00,M,M,M,M,KCAO 011655Z AUTO 35017KT 10SM OVC032 01/01 A3007 RMK AO2 SLP192 T00110011 $
CAO,2017-04-01 17:00,-103.1539,36.4486,M,M,M,350.00,16.00,M,M,M,10.00,M,OVC,M,M,M,3200.00,M,M,M,M,KCAO 011700Z AUTO 35016KT 10SM OVC032 RMK MADISHF
CAO,2017-04-01 17:05,-103.1539,36.4486,M,M,M,350.00,19.00,M,M,M,10.00,M,BKN,OVC,M,M,3200.00,4300.00,M,M,M,KCAO 011705Z AUTO 35019KT 10SM BKN032 OVC043 RMK MADISHF
CAO,2017-04-01 17:10,-103.1539,36.4486,M,M,M,350.00,18.00,M,30.07,M,10.00,M,BKN,BKN,OVC,M,3200.00,4500.00,5000.00,M,M,KCAO 011710Z AUTO 35018KT 10SM BKN032 BKN045 OVC050 A3007 RMK MADISHF
CAO,2017-04-01 17:15,-103.1539,36.4486,M,M,M,350.00,17.00,M,M,M,10.00,M,BKN,BKN,OVC,M,3399.00,4300.00,5000.00,M,M,KCAO 011715Z AUTO 35017KT 10SM BKN033 BKN043 OVC050 RMK MADISHF
CAO,2017-04-01 17:20,-103.1539,36.4486,M,M,M,350.00,16.00,M,M,M,10.00,M,FEW,BKN,OVC,M,800.00,3399.00,4400.00,M,M,KCAO 011720Z AUTO 35016KT 10SM FEW008 BKN033 OVC044 RMK MADISHF
CAO,2017-04-01 17:24,-103.1539,36.4486,35.10,35.10,100.00,350.00,18.00,0.00,30.08,M,10.00,23.00,FEW,BKN,OVC,M,800.00,3400.00,4400.00,M,M,KCAO 011724Z AUTO 35018G23KT 10SM FEW008 BKN034 OVC044 02/02 A3008 RMK AO2 T00170017 $
CAO,2017-04-01 17:25,-103.1539,36.4486,M,M,M,350.00,19.00,M,M,M,10.00,M,FEW,BKN,OVC,M,800.00,3600.00,4400.00,M,M,KCAO 011725Z AUTO 35019KT 10SM FEW008 BKN036 OVC044 RMK MADISHF
CAO,2017-04-01 17:30,-103.1539,36.4486,M,M,M,350.00,17.00,M,30.08,M,10.00,M,FEW,BKN,OVC,M,900.00,3600.00,4400.00,M,M,KCAO 011730Z AUTO 35017KT 10SM FEW009 BKN036 OVC044 A3008 RMK MADISHF
CAO,2017-04-01 17:35,-103.1539,36.4486,M,M,M,350.00,20.00,M,M,M,10.00,M,FEW,OVC,M,M,900.00,3600.00,M,M,M,KCAO 011735Z AUTO 35020KT 10SM FEW009 OVC036 RMK MADISHF
CAO,2017-04-01 17:40,-103.1539,36.4486,M,M,M,350.00,18.00,M,M,M,10.00,M,FEW,OVC,M,M,900.00,3600.00,M,M,M,KCAO 011740Z AUTO 35018KT 10SM FEW009 OVC036 RMK MADISHF
CAO,2017-04-01 17:45,-103.1539,36.4486,M,M,M,360.00,19.00,M,M,M,10.00,M,SCT,OVC,M,M,900.00,3500.00,M,M,M,KCAO 011745Z AUTO 36019KT 10SM SCT009 OVC035 RMK MADISHF
CAO,2017-04-01 17:50,-103.1539,36.4486,M,M,M,350.00,19.00,M,30.08,M,10.00,M,SCT,OVC,M,M,900.00,3500.00,M,M,M,KCAO 011750Z AUTO 35019KT 10SM SCT009 OVC035 A3008 RMK MADISHF
CAO,2017-04-01 17:55,-103.1539,36.4486,36.00,35.10,96.49,350.00,20.00,0.00,30.07,1019.00,10.00,25.00,FEW,OVC,M,M,900.00,3500.00,M,M,M,KCAO 011755Z AUTO 35020G25KT 10SM FEW009 OVC035 02/02 A3007 RMK AO2 PK WND 35026/1736 SLP190 60001 T00220017 10022 20006 51009 $
CAO,2017-04-01 18:00,-103.1539,36.4486,M,M,M,350.00,18.00,M,M,M,10.00,M,SCT,OVC,M,M,900.00,3500.00,M,M,M,KCAO 011800Z AUTO 35018KT 10SM SCT009 OVC035 RMK MADISHF
CAO,2017-04-01 18:05,-103.1539,36.4486,M,M,M,350.00,20.00,M,M,M,10.00,M,SCT,OVC,M,M,900.00,3500.00,M,M,M,KCAO 011805Z AUTO 35020KT 10SM SCT009 OVC035 RMK MADISHF
CAO,2017-04-01 18:10,-103.1539,36.4486,M,M,M,350.00,23.00,M,M,M,10.00,M,BKN,BKN,OVC,M,900.00,3500.00,4200.00,M,M,KCAO 011810Z AUTO 35023KT 10SM BKN009 BKN035 OVC042 RMK MADISHF
CAO,2017-04-01 18:12,-103.1539,36.4486,37.40,35.60,93.14,350.00,23.00,0.00,30.05,M,10.00,28.00,BKN,BKN,OVC,M,900.00,3500.00,4200.00,M,M,KCAO 011812Z AUTO 35023G28KT 10SM BKN009 BKN035 OVC042 03/02 A3005
CAO,2017-04-01 18:15,-103.1539,36.4486,M,M,M,M,M,M,M,M,10.00,M,BKN,OVC,M,M,900.00,3500.00,M,M,M,KCAO 011815Z AUTO /////KT 10SM BKN009 OVC035 RMK CIG 7V11  MADISHF
CAO,2017-04-01 18:20,-103.1539,36.4486,M,M,M,360.00,22.00,M,M,M,10.00,M,BKN,OVC,M,M,900.00,3700.00,M,M,M,KCAO 011820Z AUTO 36022KT 10SM BKN009 OVC037 RMK MADISHF
CAO,2017-04-01 18:25,-103.1539,36.4486,M,M,M,M,M,M,M,M,10.00,M,BKN,OVC,M,M,900.00,4100.00,M,M,M,KCAO 011825Z AUTO /////KT 10SM BKN009 OVC041 RMK CIG 7V11  MADISHF
CAO,2017-04-01 18:30,-103.1539,36.4486,M,M,M,350.00,22.00,M,30.05,M,10.00,M,OVC,M,M,M,900.00,M,M,M,M,KCAO 011830Z AUTO 35022KT 10SM OVC009 A3005 RMK CIG 7V11  MADISHF
CAO,2017-04-01 18:35,-103.1539,36.4486,M,M,M,M,M,M,M,M,10.00,M,OVC,M,M,M,900.00,M,M,M,M,KCAO 011835Z AUTO /////KT 10SM OVC009 RMK CIG 7V13  MADISHF
CAO,2017-04-01 18:40,-103.1539,36.4486,M,M,M,360.00,23.00,M,M,M,10.00,M,OVC,M,M,M,900.00,M,M,M,M,KCAO 011840Z AUTO 36023KT 10SM OVC009 RMK CIG 7V14  MADISHF
CAO,2017-04-01 18:45,-103.1539,36.4486,M,M,M,M,M,M,M,M,10.00,M,OVC,M,M,M,900.00,M,M,M,M,KCAO 011845Z AUTO /////KT 10SM OVC009 RMK CIG 8V14  MADISHF
CAO,2017-04-01 18:50,-103.1539,36.4486,M,M,M,360.00,22.00,M,30.05,M,10.00,M,OVC,M,M,M,999.00,M,M,M,M,KCAO 011850Z AUTO 36022KT 10SM OVC009 A3005 RMK MADISHF
CAO,2017-04-01 18:55,-103.1539,36.4486,39.00,37.90,95.78,350.00,21.00,0.00,30.05,1017.90,10.00,27.00,OVC,M,M,M,1000.00,M,M,M,M,KCAO 011855Z AUTO 35021G27KT 10SM OVC010 04/03 A3005 RMK AO2 PK WND 36030/1831 SLP179 T00390033
CAO,2017-04-01 19:00,-103.1539,36.4486,M,M,M,360.00,22.00,M,M,M,10.00,M,OVC,M,M,M,999.00,M,M,M,M,KCAO 011900Z AUTO 36022KT 10SM OVC009 RMK MADISHF
CAO,2017-04-01 19:05,-103.1539,36.4486,M,M,M,M,M,M,M,M,10.00,M,OVC,M,M,M,1100.00,M,M,M,M,KCAO 011905Z AUTO /////KT 10SM OVC011 RMK MADISHF
CAO,2017-04-01 19:10,-103.1539,36.4486,M,M,M,350.00,20.00,M,30.06,M,10.00,M,OVC,M,M,M,1100.00,M,M,M,M,KCAO 011910Z AUTO 35020KT 10SM OVC011 A3006 RMK MADISHF
CAO,2017-04-01 19:15,-103.1539,36.4486,M,M,M,350.00,20.00,M,M,M,10.00,M,OVC,M,M,M,1100.00,M,M,M,M,KCAO 011915Z AUTO 35020KT 10SM OVC011 RMK MADISHF
CAO,2017-04-01 19:20,-103.1539,36.4486,M,M,M,360.00,19.00,M,M,M,10.00,M,OVC,M,M,M,1100.00,M,M,M,M,KCAO 011920Z AUTO 36019KT 10SM OVC011 RMK MADISHF
CAO,2017-04-01 19:25,-103.1539,36.4486,M,M,M,360.00,17.00,M,M,M,10.00,M,OVC,M,M,M,1100.00,M,M,M,M,KCAO 011925Z AUTO 36017KT 10SM OVC011 RMK MADISHF
CAO,2017-04-01 19:30,-103.1539,36.4486,M,M,M,360.00,22.00,M,30.06,M,10.00,M,OVC,M,M,M,1200.00,M,M,M,M,KCAO 011930Z AUTO 36022KT 10SM OVC012 A3006 RMK MADISHF
CAO,2017-04-01 19:35,-103.1539,36.4486,M,M,M,360.00,20.00,M,M,M,10.00,M,OVC,M,M,M,1200.00,M,M,M,M,KCAO 011935Z AUTO 36020KT 10SM OVC012 RMK MADISHF
CAO,2017-04-01 19:40,-103.1539,36.4486,M,M,M,360.00,18.00,M,M,M,10.00,M,OVC,M,M,M,1200.00,M,M,M,M,KCAO 011940Z AUTO 36018KT 10SM OVC012 RMK MADISHF
CAO,2017-04-01 19:45,-103.1539,36.4486,M,M,M,10.00,23.00,M,M,M,10.00,M,BKN,OVC,M,M,1300.00,3500.00,M,M,M,KCAO 011945Z AUTO 01023KT 10SM BKN013 OVC035 RMK MADISHF
CAO,2017-04-01 19:50,-103.1539,36.4486,M,M,M,360.00,21.00,M,30.06,M,10.00,M,BKN,OVC,M,M,1300.00,1800.00,M,M,M,KCAO 011950Z AUTO 36021KT 10SM BKN013 OVC018 A3006 RMK MADISHF
CAO,2017-04-01 19:55,-103.1539,36.4486,39.00,36.00,88.87,350.00,20.00,0.00,30.06,1018.40,10.00,M,BKN,OVC,M,M,1300.00,1800.00,M,M,M,KCAO 011955Z AUTO 35020KT 10SM BKN013 OVC018 04/02 A3006 RMK AO2 PK WND 35029/1907 SLP184 T00390022
CAO,2017-04-01 20:00,-103.1539,36.4486,M,M,M,360.00,18.00,M,M,M,10.00,M,BKN,OVC,M,M,1500.00,3500.00,M,M,M,KCAO 012000Z AUTO 36018KT 10SM BKN015 OVC035 RMK MADISHF
CAO,2017-04-01 20:04,-103.1539,36.4486,39.90,37.00,89.27,360.00,20.00,0.00,30.06,M,10.00,M,BKN,OVC,M,M,1500.00,3500.00,M,M,M,KCAO 012004Z AUTO 36020KT 10SM BKN015 OVC035 04/03 A3006 RMK AO2 T00440028
CAO,2017-04-01 20:05,-103.1539,36.4486,M,M,M,360.00,19.00,M,M,M,10.00,M,BKN,OVC,M,M,1500.00,3300.00,M,M,M,KCAO 012005Z AUTO 36019KT 10SM BKN015 OVC033 RMK MADISHF
CAO,2017-04-01 20:10,-103.1539,36.4486,M,M,M,360.00,21.00,M,30.05,M,10.00,M,BKN,OVC,M,M,1400.00,3300.00,M,M,M,KCAO 012010Z AUTO 36021KT 10SM BKN014 OVC033 A3005 RMK MADISHF
CAO,2017-04-01 20:14,-103.1539,36.4486,41.00,37.00,85.54,360.00,21.00,0.00,30.05,M,10.00,27.00,SCT,BKN,OVC,M,1400.00,3300.00,4600.00,M,M,KCAO 012014Z AUTO 36021G27KT 10SM SCT014 BKN033 OVC046 05/03 A3005 RMK AO2 PK WND 36027/2007 T00500028
CAO,2017-04-01 20:15,-103.1539,36.4486,M,M,M,360.00,20.00,M,M,M,10.00,M,SCT,BKN,OVC,M,1400.00,3300.00,4600.00,M,M,KCAO 012015Z AUTO 36020KT 10SM SCT014 BKN033 OVC046 RMK MADISHF
CAO,2017-04-01 20:20,-103.1539,36.4486,M,M,M,360.00,20.00,M,M,M,10.00,M,SCT,BKN,OVC,M,1400.00,3300.00,4600.00,M,M,KCAO 012020Z AUTO 36020KT 10SM SCT014 BKN033 OVC046 RMK MADISHF
CAO,2017-04-01 20:25,-103.1539,36.4486,M,M,M,350.00,19.00,M,M,M,10.00,M,BKN,BKN,OVC,M,1600.00,3300.00,4700.00,M,M,KCAO 012025Z AUTO 35019KT 10SM BKN016 BKN033 OVC047 RMK MADISHF
CAO,2017-04-01 20:29,-103.1539,36.4486,42.10,37.00,81.98,10.00,22.00,0.00,30.04,M,10.00,28.00,BKN,BKN,OVC,M,1600.00,3300.00,4700.00,M,M,KCAO 012029Z AUTO 01022G28KT 10SM BKN016 BKN033 OVC047 06/03 A3004 RMK AO2 PK WND 36028/2027 T00560028
CAO,2017-04-01 20:30,-103.1539,36.4486,M,M,M,10.00,21.00,M,30.04,M,10.00,M,BKN,BKN,OVC,M,1600.00,3300.00,4700.00,M,M,KCAO 012030Z AUTO 01021KT 10SM BKN016 BKN033 OVC047 A3004 RMK MADISHF
CAO,2017-04-01 20:35,-103.1539,36.4486,M,M,M,360.00,22.00,M,M,M,10.00,M,SCT,BKN,OVC,M,1600.00,3300.00,4700.00,M,M,KCAO 012035Z AUTO 36022KT 10SM SCT016 BKN033 OVC047 RMK MADISHF
CAO,2017-04-01 20:39,-103.1539,36.4486,42.10,37.00,81.98,360.00,21.00,0.00,30.03,M,10.00,28.00,SCT,BKN,OVC,M,1600.00,3200.00,4700.00,M,M,KCAO 012039Z AUTO 36021G28KT 10SM SCT016 BKN032 OVC047 06/03 A3003 RMK AO2 PK WND 36028/2037 T00560028
CAO,2017-04-01 20:40,-103.1539,36.4486,M,M,M,360.00,21.00,M,M,M,10.00,M,SCT,BKN,OVC,M,1600.00,3200.00,4700.00,M,M,KCAO 012040Z AUTO 36021KT 10SM SCT016 BKN032 OVC047 RMK MADISHF
CAO,2017-04-01 20:45,-103.1539,36.4486,M,M,M,10.00,20.00,M,M,M,10.00,M,BKN,BKN,OVC,M,1600.00,3200.00,4800.00,M,M,KCAO 012045Z AUTO 01020KT 10SM BKN016 BKN032 OVC048 RMK MADISHF
CAO,2017-04-01 20:47,-103.1539,36.4486,42.10,37.00,81.98,10.00,22.00,0.00,30.03,M,10.00,28.00,BKN,BKN,OVC,M,1600.00,3200.00,4800.00,M,M,KCAO 012047Z AUTO 01022G28KT 10SM BKN016 BKN032 OVC048 06/03 A3003 RMK AO2 PK WND 36028/2037 T00560028
CAO,2017-04-01 20:50,-103.1539,36.4486,M,M,M,360.00,21.00,M,30.03,M,10.00,M,BKN,BKN,OVC,M,1600.00,3200.00,4800.00,M,M,KCAO 012050Z AUTO 36021KT 10SM BKN016 BKN032 OVC048 A3003 RMK MADISHF
CAO,2017-04-01 20:55,-103.1539,36.4486,44.10,37.90,78.66,10.00,18.00,0.00,30.03,1016.70,10.00,28.00,BKN,BKN,OVC,M,1600.00,3200.00,4900.00,M,M,KCAO 012055Z AUTO 01018G28KT 10SM BKN016 BKN032 OVC049 07/03 A3003 RMK AO2 PK WND 36028/2037 SLP167 T00670033 58007
CAO,2017-04-01 21:00,-103.1539,36.4486,M,M,M,M,M,M,M,M,10.00,M,BKN,BKN,OVC,M,1600.00,3200.00,4900.00,M,M,KCAO 012100Z AUTO /////KT 10SM BKN016 BKN032 OVC049 RMK MADISHF
CAO,2017-04-01 21:05,-103.1539,36.4486,M,M,M,360.00,19.00,M,M,M,10.00,M,BKN,OVC,M,M,1600.00,3200.00,M,M,M,KCAO 012105Z AUTO 36019KT 10SM BKN016 OVC032 RMK MADISHF
CAO,2017-04-01 21:10,-103.1539,36.4486,M,M,M,360.00,21.00,M,30.03,M,10.00,M,BKN,OVC,M,M,1600.00,3100.00,M,M,M,KCAO 012110Z AUTO 36021KT 10SM BKN016 OVC031 A3003 RMK MADISHF
CAO,2017-04-01 21:15,-103.1539,36.4486,M,M,M,10.00,21.00,M,M,M,10.00,M,BKN,OVC,M,M,1800.00,3100.00,M,M,M,KCAO 012115Z AUTO 01021KT 10SM BKN018 OVC031 RMK MADISHF
CAO,2017-04-01 21:20,-103.1539,36.4486,M,M,M,10.00,21.00,M,M,M,10.00,M,BKN,OVC,M,M,1800.00,3100.00,M,M,M,KCAO 012120Z AUTO 01021KT 10SM BKN018 OVC031 RMK MADISHF
CAO,2017-04-01 21:25,-103.1539,36.4486,M,M,M,350.00,20.00,M,M,M,10.00,M,BKN,OVC,M,M,1800.00,3100.00,M,M,M,KCAO 012125Z AUTO 35020KT 10SM BKN018 OVC031 RMK MADISHF
CAO,2017-04-01 21:30,-103.1539,36.4486,M,M,M,350.00,21.00,M,30.03,M,10.00,M,SCT,OVC,M,M,1800.00,3100.00,M,M,M,KCAO 012130Z AUTO 35021KT 10SM SCT018 OVC031 A3003 RMK MADISHF
CAO,2017-04-01 21:35,-103.1539,36.4486,M,M,M,360.00,19.00,M,M,M,10.00,M,SCT,OVC,M,M,1800.00,3100.00,M,M,M,KCAO 012135Z AUTO 36019KT 10SM SCT018 OVC031 RMK MADISHF
CAO,2017-04-01 21:36,-103.1539,36.4486,43.00,36.00,76.12,360.00,18.00,0.00,30.03,M,10.00,26.00,SCT,OVC,M,M,1800.00,3100.00,M,M,M,KCAO 012136Z AUTO 36018G26KT 10SM SCT018 OVC031 06/02 A3003 RMK AO2 PK WND 36029/2059 T00610022
CAO,2017-04-01 21:40,-103.1539,36.4486,M,M,M,360.00,18.00,M,M,M,10.00,M,SCT,OVC,M,M,1800.00,3100.00,M,M,M,KCAO 012140Z AUTO 36018KT 10SM SCT018 OVC031 RMK MADISHF
CAO,2017-04-01 21:45,-103.1539,36.4486,M,M,M,10.00,18.00,M,M,M,10.00,M,SCT,OVC,M,M,1800.00,3200.00,M,M,M,KCAO 012145Z AUTO 01018KT 10SM SCT018 OVC032 RMK MADISHF
CAO,2017-04-01 21:50,-103.1539,36.4486,M,M,M,360.00,19.00,M,30.04,M,10.00,M,SCT,OVC,M,M,1800.00,3200.00,M,M,M,KCAO 012150Z AUTO 36019KT 10SM SCT018 OVC032 A3004 RMK MADISHF
CAO,2017-04-01 21:55,-103.1539,36.4486,42.10,35.10,76.04,10.00,21.00,0.00,30.04,1017.10,10.00,25.00,SCT,OVC,M,M,1800.00,3200.00,M,M,M,KCAO 012155Z AUTO 01021G25KT 10SM SCT018 OVC032 06/02 A3004 RMK AO2 PK WND 36029/2059 SLP171 T00560017
CAO,2017-04-01 22:00,-103.1539,36.4486,M,M,M,360.00,19.00,M,M,M,10.00,M,SCT,OVC,M,M,1800.00,3200.00,M,M,M,KCAO 012200Z AUTO 36019KT 10SM SCT018 OVC032 RMK MADISHF
CAO,2017-04-01 22:05,-103.1539,36.4486,M,M,M,360.00,19.00,M,M,M,10.00,M,SCT,OVC,M,M,1800.00,3200.00,M,M,M,KCAO 012205Z AUTO 36019KT 10SM SCT018 OVC032 RMK MADISHF
CAO,2017-04-01 22:10,-103.1539,36.4486,M,M,M,360.00,21.00,M,M,M,10.00,M,BKN,OVC,M,M,1900.00,3200.00,M,M,M,KCAO 012210Z AUTO 36021KT 10SM BKN019 OVC032 RMK MADISHF
CAO,2017-04-01 22:12,-103.1539,36.4486,43.00,36.00,76.12,360.00,19.00,0.00,30.04,M,10.00,22.00,BKN,OVC,M,M,1900.00,3300.00,M,M,M,KCAO 012212Z AUTO 36019G22KT 10SM BKN019 OVC033 06/02 A3004 RMK AO2 T00610022
CAO,2017-04-01 22:15,-103.1539,36.4486,M,M,M,360.00,20.00,M,M,M,10.00,M,BKN,OVC,M,M,1900.00,3300.00,M,M,M,KCAO 012215Z AUTO 36020KT 10SM BKN019 OVC033 RMK MADISHF
CAO,2017-04-01 22:20,-103.1539,36.4486,M,M,M,360.00,20.00,M,M,M,10.00,M,BKN,OVC,M,M,1900.00,3300.00,M,M,M,KCAO 012220Z AUTO 36020KT 10SM BKN019 OVC033 RMK MADISHF
CAO,2017-04-01 22:25,-103.1539,36.4486,M,M,M,360.00,15.00,M,M,M,10.00,M,BKN,OVC,M,M,1900.00,3200.00,M,M,M,KCAO 012225Z AUTO 36015KT 10SM BKN019 OVC032 RMK MADISHF
CAO,2017-04-01 22:30,-103.1539,36.4486,M,M,M,360.00,18.00,M,30.04,M,10.00,M,BKN,OVC,M,M,1900.00,3200.00,M,M,M,KCAO 012230Z AUTO 36018KT 10SM BKN019 OVC032 A3004 RMK MADISHF
CAO,2017-04-01 22:35,-103.1539,36.4486,M,M,M,10.00,19.00,M,M,M,10.00,M,BKN,OVC,M,M,1900.00,3200.00,M,M,M,KCAO 012235Z AUTO 01019KT 10SM BKN019 OVC032 RMK MADISHF
CAO,2017-04-01 22:40,-103.1539,36.4486,M,M,M,360.00,19.00,M,M,M,10.00,M,BKN,OVC,M,M,1900.00,3200.00,M,M,M,KCAO 012240Z AUTO 36019KT 10SM BKN019 OVC032 RMK MADISHF
CAO,2017-04-01 22:45,-103.1539,36.4486,M,M,M,360.00,19.00,M,M,M,10.00,M,SCT,OVC,M,M,2100.00,3200.00,M,M,M,KCAO 012245Z AUTO 36019KT 10SM SCT021 OVC032 RMK MADISHF
CAO,2017-04-01 22:50,-103.1539,36.4486,M,M,M,360.00,17.00,M,30.04,M,10.00,M,BKN,OVC,M,M,2100.00,3200.00,M,M,M,KCAO 012250Z AUTO 36017KT 10SM BKN021 OVC032 A3004 RMK MADISHF
CAO,2017-04-01 22:55,-103.1539,36.4486,43.00,34.00,70.30,360.00,18.00,0.00,30.05,1017.50,10.00,M,BKN,OVC,M,M,2100.00,3200.00,M,M,M,KCAO 012255Z AUTO 36018KT 10SM BKN021 OVC032 06/01 A3005 RMK AO2 SLP175 T00610011
CAO,2017-04-01 23:00,-103.1539,36.4486,M,M,M,360.00,17.00,M,M,M,10.00,M,BKN,OVC,M,M,2100.00,3100.00,M,M,M,KCAO 012300Z AUTO 36017KT 10SM BKN021 OVC031 RMK MADISHF
CAO,2017-04-01 23:05,-103.1539,36.4486,M,M,M,10.00,18.00,M,M,M,10.00,M,BKN,OVC,M,M,2100.00,3100.00,M,M,M,KCAO 012305Z AUTO 01018KT 10SM BKN021 OVC031 RMK MADISHF
CAO,2017-04-01 23:10,-103.1539,36.4486,M,M,M,10.00,18.00,M,M,M,10.00,M,BKN,OVC,M,M,2100.00,3100.00,M,M,M,KCAO 012310Z AUTO 01018KT 10SM BKN021 OVC031 RMK MADISHF
CAO,2017-04-01 23:15,-103.1539,36.4486,M,M,M,10.00,17.00,M,M,M,10.00,M,BKN,OVC,M,M,2100.00,3100.00,M,M,M,KCAO 012315Z AUTO 01017KT 10SM BKN021 OVC031 RMK MADISHF
CAO,2017-04-01 23:20,-103.1539,36.4486,M,M,M,10.00,19.00,M,M,M,10.00,M,BKN,OVC,M,M,2100.00,3200.00,M,M,M,KCAO 012320Z AUTO 01019KT 10SM BKN021 OVC032 RMK MADISHF
CAO,2017-04-01 23:25,-103.1539,36.4486,M,M,M,10.00,17.00,M,M,M,10.00,M,BKN,OVC,M,M,2100.00,3200.00,M,M,M,KCAO 012325Z AUTO 01017KT 10SM BKN021 OVC032 RMK MADISHF
CAO,2017-04-01 23:30,-103.1539,36.4486,M,M,M,10.00,18.00,M,30.05,M,10.00,M,BKN,OVC,M,M,2100.00,3200.00,M,M,M,KCAO 012330Z AUTO 01018KT 10SM BKN021 OVC032 A3005 RMK MADISHF
CAO,2017-04-01 23:35,-103.1539,36.4486,M,M,M,360.00,16.00,M,M,M,10.00,M,BKN,OVC,M,M,2100.00,3200.00,M,M,M,KCAO 012335Z AUTO 36016KT 10SM BKN021 OVC032 RMK MADISHF
CAO,2017-04-01 23:40,-103.1539,36.4486,M,M,M,10.00,17.00,M,M,M,10.00,M,SCT,OVC,M,M,2100.00,3200.00,M,M,M,KCAO 012340Z AUTO 01017KT 10SM SCT021 OVC032 RMK MADISHF
CAO,2017-04-01 23:45,-103.1539,36.4486,M,M,M,10.00,17.00,M,M,M,10.00,M,SCT,OVC,M,M,2100.00,3200.00,M,M,M,KCAO 012345Z AUTO 01017KT 10SM SCT021 OVC032 RMK MADISHF
CAO,2017-04-01 23:46,-103.1539,36.4486,41.00,34.00,75.94,10.00,17.00,0.00,30.06,M,10.00,M,SCT,OVC,M,M,2100.00,3200.00,M,M,M,KCAO 012346Z AUTO 01017KT 10SM SCT021 OVC032 05/01 A3006 RMK AO2 T00500011
CAO,2017-04-01 23:50,-103.1539,36.4486,M,M,M,10.00,16.00,M,30.06,M,10.00,M,SCT,OVC,M,M,2100.00,3200.00,M,M,M,KCAO 012350Z AUTO 01016KT 10SM SCT021 OVC032 A3006 RMK MADISHF
CAO,2017-04-01 23:55,-103.1539,36.4486,41.00,34.00,75.94,10.00,15.00,0.00,30.07,1018.20,10.00,M,SCT,OVC,M,M,2100.00,3200.00,M,M,M,KCAO 012355Z AUTO 01015KT 10SM SCT021 OVC032 05/01 A3007 RMK AO2 SLP182 T00500011 10067 20022 53011
