#DEBUG: Format Typ    -> comma
#DEBUG: Time Period   -> 2017-04-01 00:00:00+00:00 2017-04-02 00:00:00+00:00
#DEBUG: Time Zone     -> Etc/UTC
#DEBUG: Data Contact   -> daryl herzmann akrherz@iastate.edu 515-294-5978
#DEBUG: Entries Found -> -1
station,valid,lon,lat,tmpf, dwpf, relh, drct, sknt, p01i, alti, mslp, vsby, gust, skyc1, skyc2, skyc3, skyc4, skyl1, skyl2, skyl3, skyl4, presentwx, metar
CAR,2017-04-01 00:00,-68.0200,46.8700,M,M,M,10.00,4.00,M,30.08,M,10.00,M,CLR,M,M,M,M,M,M,M,M,KCAR 010000Z AUTO 01004KT 10SM CLR A3008 RMK MADISHF
CAR,2017-04-01 00:05,-68.0200,46.8700,M,M,M,10.00,4.00,M,30.08,M,10.00,M,CLR,M,M,M,M,M,M,M,M,KCAR 010005Z AUTO 01004KT 10SM CLR A3008 RMK MADISHF
CAR,2017-04-01 00:10,-68.0200,46.8700,M,M,M,10.00,4.00,M,30.08,M,10.00,M,CLR,M,M,M,M,M,M,M,M,KCAR 010010Z AUTO 01004KT 10SM CLR A3008 RMK MADISHF
CAR,2017-04-01 00:15,-68.0200,46.8700,M,M,M,10.00,4.00,M,30.08,M,10.00,M,CLR,M,M,M,M,M,M,M,M,KCAR 010015Z AUTO 01004KT 10SM CLR A3008 RMK MADISHF
CAR,2017-04-01 00:20,-68.0200,46.8700,M,M,M,10.00,3.00,M,30.09,M,10.00,M,CLR,M,M,M,M,M,M,M,M,KCAR 010020Z AUTO 01003KT 10SM CLR A3009 RMK MADISHF
CAR,2017-04-01 00:25,-68.0200,46.8700,M,M,M,10.00,3.00,M,30.09,M,10.00,M,CLR,M,M,M,M,M,M,M,M,KCAR 010025Z AUTO 01003KT 10SM CLR A3009 RMK MADISHF
CAR,2017-04-01 00:30,-68.0200,46.8700,M,M,M,20.00,3.00,M,30.09,M,10.00,M,CLR,M,M,M,M,M,M,M,M,KCAR 010030Z AUTO 02003KT 10SM CLR A3009 RMK MADISHF
CAR,2017-04-01 00:35,-68.0200,46.8700,M,M,M,0.00,0.00,M,30.09,M,10.00,M,CLR,M,M,M,M,M,M,M,M,KCAR 010035Z AUTO 00000KT 10SM CLR A3009 RMK MADISHF
CAR,2017-04-01 00:40,-68.0200,46.8700,M,M,M,30.00,3.00,M,30.09,M,10.00,M,CLR,M,M,M,M,M,M,M,M,KCAR 010040Z AUTO 03003KT 10SM CLR A3009 RMK MADISHF
CAR,2017-04-01 00:45,-68.0200,46.8700,M,M,M,0.00,0.00,M,30.09,M,10.00,M,CLR,M,M,M,M,M,M,M,M,KCAR 010045Z AUTO 00000KT 10SM CLR A3009 RMK MADISHF
CAR,2017-04-01 00:50,-68.0200,46.8700,M,M,M,20.00,3.00,M,30.09,M,10.00,M,CLR,M,M,M,M,M,M,M,M,KCAR 010050Z AUTO 02003KT 10SM CLR A3009 RMK MADISHF
CAR,2017-04-01 00:54,-68.0200,46.8700,33.10,14.00,44.89,20.00,3.00,0.00,30.09,1020.30,10.00,M,CLR,M,M,M,M,M,M,M,M,KCAR 010054Z AUTO 02003KT 10SM CLR 01/M10 A3009 RMK AO2 SLP203 T00061100
CAR,2017-04-01 00:55,-68.0200,46.8700,M,M,M,20.00,4.00,M,30.09,M,10.00,M,CLR,M,M,M,M,M,M,M,M,KCAR 010055Z AUTO 02004KT 10SM CLR A3009 RMK MADISHF
CAR,2017-04-01 01:00,-68.0200,46.8700,M,M,M,20.00,3.00,M,30.10,M,10.00,M,CLR,M,M,M,M,M,M,M,M,KCAR 010100Z AUTO 02003KT 10SM CLR A3010 RMK MADISHF
CAR,2017-04-01 01:05,-68.0200,46.8700,M,M,M,30.00,3.00,M,30.10,M,10.00,M,CLR,M,M,M,M,M,M,M,M,KCAR 010105Z AUTO 03003KT 10SM CLR A3010 RMK MADISHF
CAR,2017-04-01 01:10,-68.0200,46.8700,M,M,M,30.00,3.00,M,30.10,M,10.00,M,CLR,M,M,M,M,M,M,M,M,KCAR 010110Z AUTO 03003KT 10SM CLR A3010 RMK MADISHF
CAR,2017-04-01 01:15,-68.0200,46.8700,M,M,M,30.00,3.00,M,30.10,M,10.00,M,CLR,M,M,M,M,M,M,M,M,KCAR 010115Z AUTO 03003KT 10SM CLR A3010 RMK MADISHF
CAR,2017-04-01 01:20,-68.0200,46.8700,M,M,M,0.00,0.00,M,30.10,M,10.00,M,CLR,M,M,M,M,M,M,M,M,KCAR 010120Z AUTO 00000KT 10SM CLR A3010 RMK MADISHF
CAR,2017-04-01 01:25,-68.0200,46.8700,M,M,M,0.00,0.00,M,30.10,M,10.00,M,CLR,M,M,M,M,M,M,M,M,KCAR 010125Z AUTO 00000KT 10SM CLR A3010 RMK MADISHF
CAR,2017-04-01 01:30,-68.0200,46.8700,M,M,M,0.00,0.00,M,30.10,M,10.00,M,CLR,M,M,M,M,M,M,M,M,KCAR 010130Z AUTO 00000KT 10SM CLR A3010 RMK MADISHF
CAR,2017-04-01 01:35,-68.0200,46.8700,M,M,M,0.00,0.00,M,30.10,M,10.00,M,CLR,M,M,M,M,M,M,M,M,KCAR 010135Z AUTO 00000KT 10SM CLR A3010 RMK MADISHF
CAR,2017-04-01 01:40,-68.0200,46.8700,M,M,M,10.00,3.00,M,30.10,M,10.00,M,CLR,M,M,M,M,M,M,M,M,KCAR 010140Z AUTO 01003KT 10SM CLR A3010 RMK MADISHF
CAR,2017-04-01 01:45,-68.0200,46.8700,M,M,M,10.00,3.00,M,30.10,M,10.00,M,CLR,M,M,M,M,M,M,M,M,KCAR 010145Z AUTO 01003KT 10SM CLR A3010 RMK MADISHF
CAR,2017-04-01 01:50,-68.0200,46.8700,M,M,M,20.00,4.00,M,30.09,M,10.00,M,CLR,M,M,M,M,M,M,M,M,KCAR 010150Z AUTO 02004KT 10SM CLR A3009 RMK MADISHF
CAR,2017-04-01 01:54,-68.0200,46.8700,33.10,14.00,44.89,20.00,4.00,0.00,30.09,1020.10,10.00,M,CLR,M,M,M,M,M,M,M,M,KCAR 010154Z AUTO 02004KT 10SM CLR 01/M10 A3009 RMK AO2 SLP201 T00061100
CAR,2017-04-01 01:55,-68.0200,46.8700,M,M,M,20.00,4.00,M,30.09,M,10.00,M,CLR,M,M,M,M,M,M,M,M,KCAR 010155Z AUTO 02004KT 10SM CLR A3009 RMK MADISHF
CAR,2017-04-01 02:00,-68.0200,46.8700,M,M,M,20.00,4.00,M,30.09,M,10.00,M,CLR,M,M,M,M,M,M,M,M,KCAR 010200Z AUTO 02004KT 10SM CLR A3009 RMK MADISHF
CAR,2017-04-01 02:05,-68.0200,46.8700,M,M,M,20.00,3.00,M,30.09,M,10.00,M,CLR,M,M,M,M,M,M,M,M,KCAR 010205Z AUTO 02003KT 10SM CLR A3009 RMK MADISHF
CAR,2017-04-01 02:10,-68.0200,46.8700,M,M,M,30.00,3.00,M,30.09,M,10.00,M,CLR,M,M,M,M,M,M,M,M,KCAR 010210Z AUTO 03003KT 10SM CLR A3009 RMK MADISHF
CAR,2017-04-01 02:15,-68.0200,46.8700,M,M,M,50.00,3.00,M,30.09,M,10.00,M,CLR,M,M,M,M,M,M,M,M,KCAR 010215Z AUTO 05003KT 10SM CLR A3009 RMK MADISHF
CAR,2017-04-01 02:20,-68.0200,46.8700,M,M,M,0.00,0.00,M,30.09,M,10.00,M,CLR,M,M,M,M,M,M,M,M,KCAR 010220Z AUTO 00000KT 10SM CLR A3009 RMK MADISHF
CAR,2017-04-01 02:25,-68.0200,46.8700,M,M,M,150.00,8.00,M,30.09,M,10.00,M,CLR,M,M,M,M,M,M,M,M,KCAR 010225Z AUTO 15008KT 10SM CLR A3009 RMK MADISHF
CAR,2017-04-01 02:30,-68.0200,46.8700,M,M,M,130.00,3.00,M,30.09,M,10.00,M,CLR,M,M,M,M,M,M,M,M,KCAR 010230Z AUTO 13003KT 10SM CLR A3009 RMK MADISHF
CAR,2017-04-01 02:35,-68.0200,46.8700,M,M,M,110.00,4.00,M,30.09,M,10.00,M,CLR,M,M,M,M,M,M,M,M,KCAR 010235Z AUTO 11004KT 10SM CLR A3009 RMK MADISHF
CAR,2017-04-01 02:40,-68.0200,46.8700,M,M,M,0.00,0.00,M,30.09,M,10.00,M,CLR,M,M,M,M,M,M,M,M,KCAR 010240Z AUTO 00000KT 10SM CLR A3009 RMK MADISHF
CAR,2017-04-01 02:45,-68.0200,46.8700,M,M,M,80.00,3.00,M,30.09,M,10.00,M,CLR,M,M,M,M,M,M,M,M,KCAR 010245Z AUTO 08003KT 10SM CLR A3009 RMK MADISHF
CAR,2017-04-01 02:50,-68.0200,46.8700,M,M,M,0.00,0.00,M,30.09,M,10.00,M,CLR,M,M,M,M,M,M,M,M,KCAR 010250Z AUTO 00000KT 10SM CLR A3009 RMK MADISHF
CAR,2017-04-01 02:54,-68.0200,46.8700,32.00,15.10,49.23,70.00,4.00,0.00,30.09,1020.00,10.00,M,CLR,M,M,M,M,M,M,M,M,KCAR 010254Z AUTO 07004KT 10SM CLR 00/M09 A3009 RMK AO2 SLP200 T00001094 50003
CAR,2017-04-01 02:55,-68.0200,46.8700,M,M,M,70.00,4.00,M,30.09,M,10.00,M,CLR,M,M,M,M,M,M,M,M,KCAR 010255Z AUTO 07004KT 10SM CLR A3009 RMK MADISHF
CAR,2017-04-01 03:00,-68.0200,46.8700,M,M,M,0.00,0.00,M,30.09,M,10.00,M,CLR,M,M,M,M,M,M,M,M,KCAR 010300Z AUTO 00000KT 10SM CLR A3009 RMK MADISHF
CAR,2017-04-01 03:05,-68.0200,46.8700,M,M,M,0.00,0.00,M,30.09,M,10.00,M,CLR,M,M,M,M,M,M,M,M,KCAR 010305Z AUTO 00000KT 10SM CLR A3009 RMK MADISHF
CAR,2017-04-01 03:10,-68.0200,46.8700,M,M,M,80.00,4.00,M,30.09,M,10.00,M,CLR,M,M,M,M,M,M,M,M,KCAR 010310Z AUTO 08004KT 10SM CLR A3009 RMK MADISHF
CAR,2017-04-01 03:15,-68.0200,46.8700,M,M,M,80.00,4.00,M,30.09,M,10.00,M,CLR,M,M,M,M,M,M,M,M,KCAR 010315Z AUTO 08004KT 10SM CLR A3009 RMK MADISHF
CAR,2017-04-01 03:20,-68.0200,46.8700,M,M,M,80.00,4.00,M,30.09,M,10.00,M,CLR,M,M,M,M,M,M,M,M,KCAR 010320Z AUTO 08004KT 10SM CLR A3009 RMK MADISHF
CAR,2017-04-01 03:25,-68.0200,46.8700,M,M,M,70.00,4.00,M,30.09,M,10.00,M,CLR,M,M,M,M,M,M,M,M,KCAR 010325Z AUTO 07004KT 10SM CLR A3009 RMK MADISHF
CAR,2017-04-01 03:30,-68.0200,46.8700,M,M,M,70.00,4.00,M,30.09,M,10.00,M,CLR,M,M,M,M,M,M,M,M,KCAR 010330Z AUTO 07004KT 10SM CLR A3009 RMK MADISHF
CAR,2017-04-01 03:35,-68.0200,46.8700,M,M,M,60.00,4.00,M,30.09,M,10.00,M,CLR,M,M,M,M,M,M,M,M,KCAR 010335Z AUTO 06004KT 10SM CLR A3009 RMK MADISHF
CAR,2017-04-01 03:40,-68.0200,46.8700,M,M,M,60.00,4.00,M,30.09,M,10.00,M,CLR,M,M,M,M,M,M,M,M,KCAR 010340Z AUTO 06004KT 10SM CLR A3009 RMK MADISHF
CAR,2017-04-01 03:45,-68.0200,46.8700,M,M,M,70.00,4.00,M,30.09,M,10.00,M,CLR,M,M,M,M,M,M,M,M,KCAR 010345Z AUTO 07004KT 10SM CLR A3009 RMK MADISHF
CAR,2017-04-01 03:50,-68.0200,46.8700,M,M,M,60.00,3.00,M,30.09,M,10.00,M,CLR,M,M,M,M,M,M,M,M,KCAR 010350Z AUTO 06003KT 10SM CLR A3009 RMK MADISHF
CAR,2017-04-01 03:54,-68.0200,46.8700,30.90,16.00,53.53,70.00,3.00,0.00,30.09,1020.10,10.00,M,CLR,M,M,M,M,M,M,M,M,KCAR 010354Z AUTO 07003KT 10SM CLR M01/M09 A3009 RMK AO2 SLP201 T10061089
CAR,2017-04-01 03:55,-68.0200,46.8700,M,M,M,70.00,3.00,M,30.09,M,10.00,M,CLR,M,M,M,M,M,M,M,M,KCAR 010355Z AUTO 07003KT 10SM CLR A3009 RMK MADISHF
CAR,2017-04-01 04:00,-68.0200,46.8700,M,M,M,60.00,3.00,M,30.09,M,10.00,M,CLR,M,M,M,M,M,M,M,M,KCAR 010400Z AUTO 06003KT 10SM CLR A3009 RMK MADISHF
CAR,2017-04-01 04:05,-68.0200,46.8700,M,M,M,0.00,0.00,M,30.09,M,10.00,M,CLR,M,M,M,M,M,M,M,M,KCAR 010405Z AUTO 00000KT 10SM CLR A3009 RMK MADISHF
CAR,2017-04-01 04:10,-68.0200,46.8700,M,M,M,70.00,3.00,M,30.09,M,10.00,M,CLR,M,M,M,M,M,M,M,M,KCAR 010410Z AUTO 07003KT 10SM CLR A3009 RMK MADISHF
CAR,2017-04-01 04:15,-68.0200,46.8700,M,M,M,60.00,3.00,M,30.09,M,10.00,M,CLR,M,M,M,M,M,M,M,M,KCAR 010415Z AUTO 06003KT 10SM CLR A3009 RMK MADISHF
CAR,2017-04-01 04:20,-68.0200,46.8700,M,M,M,50.00,3.00,M,30.10,M,10.00,M,CLR,M,M,M,M,M,M,M,M,KCAR 010420Z AUTO 05003KT 10SM CLR A3010 RMK MADISHF
CAR,2017-04-01 04:25,-68.0200,46.8700,M,M,M,50.00,3.00,M,30.10,M,10.00,M,CLR,M,M,M,M,M,M,M,M,KCAR 010425Z AUTO 05003KT 10SM CLR A3010 RMK MADISHF
CAR,2017-04-01 04:30,-68.0200,46.8700,M,M,M,70.00,3.00,M,30.10,M,10.00,M,CLR,M,M,M,M,M,M,M,M,KCAR 010430Z AUTO 07003KT 10SM CLR A3010 RMK MADISHF
CAR,2017-04-01 04:35,-68.0200,46.8700,M,M,M,60.00,3.00,M,30.10,M,10.00,M,CLR,M,M,M,M,M,M,M,M,KCAR 010435Z AUTO 06003KT 10SM CLR A3010 RMK MADISHF
CAR,2017-04-01 04:40,-68.0200,46.8700,M,M,M,50.00,4.00,M,30.10,M,10.00,M,CLR,M,M,M,M,M,M,M,M,KCAR 010440Z AUTO 05004KT 10SM CLR A3010 RMK MADISHF
CAR,2017-04-01 04:45,-68.0200,46.8700,M,M,M,40.00,4.00,M,30.09,M,10.00,M,CLR,M,M,M,M,M,M,M,M,KCAR 010445Z AUTO 04004KT 10SM CLR A3009 RMK MADISHF
CAR,2017-04-01 04:50,-68.0200,46.8700,M,M,M,50.00,3.00,M,30.10,M,10.00,M,CLR,M,M,M,M,M,M,M,M,KCAR 010450Z AUTO 05003KT 10SM CLR A3010 RMK MADISHF
CAR,2017-04-01 04:54,-68.0200,46.8700,28.90,16.00,58.06,50.00,3.00,0.00,30.10,1020.20,10.00,M,CLR,M,M,M,M,M,M,M,M,KCAR 010454Z AUTO 05003KT 10SM CLR M02/M09 A3010 RMK AO2 SLP202 T10171089 400721089
CAR,2017-04-01 04:55,-68.0200,46.8700,M,M,M,60.00,3.00,M,30.09,M,10.00,M,CLR,M,M,M,M,M,M,M,M,KCAR 010455Z AUTO 06003KT 10SM CLR A3009 RMK MADISHF
CAR,2017-04-01 05:00,-68.0200,46.8700,M,M,M,50.00,4.00,M,30.09,M,10.00,M,CLR,M,M,M,M,M,M,M,M,KCAR 010500Z AUTO 05004KT 10SM CLR A3009 RMK MADISHF
CAR,2017-04-01 05:05,-68.0200,46.8700,M,M,M,50.00,3.00,M,30.09,M,10.00,M,CLR,M,M,M,M,M,M,M,M,KCAR 010505Z AUTO 05003KT 10SM CLR A3009 RMK MADISHF
CAR,2017-04-01 05:10,-68.0200,46.8700,M,M,M,50.00,4.00,M,30.09,M,10.00,M,CLR,M,M,M,M,M,M,M,M,KCAR 010510Z AUTO 05004KT 10SM CLR A3009 RMK MADISHF
CAR,2017-04-01 05:15,-68.0200,46.8700,M,M,M,60.00,3.00,M,30.09,M,10.00,M,CLR,M,M,M,M,M,M,M,M,KCAR 010515Z AUTO 06003KT 10SM CLR A3009 RMK MADISHF
CAR,2017-04-01 05:20,-68.0200,46.8700,M,M,M,60.00,3.00,M,30.09,M,10.00,M,CLR,M,M,M,M,M,M,M,M,KCAR 010520Z AUTO 06003KT 10SM CLR A3009 RMK MADISHF
CAR,2017-04-01 05:25,-68.0200,46.8700,M,M,M,50.00,4.00,M,30.09,M,10.00,M,CLR,M,M,M,M,M,M,M,M,KCAR 010525Z AUTO 05004KT 10SM CLR A3009 RMK MADISHF
CAR,2017-04-01 05:30,-68.0200,46.8700,M,M,M,50.00,4.00,M,30.09,M,10.00,M,CLR,M,M,M,M,M,M,M,M,KCAR 010530Z AUTO 05004KT 10SM CLR A3009 RMK MADISHF
CAR,2017-04-01 05:35,-68.0200,46.8700,M,M,M,40.00,5.00,M,30.09,M,10.00,M,CLR,M,M,M,M,M,M,M,M,KCAR 010535Z AUTO 04005KT 10SM CLR A3009 RMK MADISHF
CAR,2017-04-01 05:40,-68.0200,46.8700,M,M,M,50.00,5.00,M,30.09,M,10.00,M,CLR,M,M,M,M,M,M,M,M,KCAR 010540Z AUTO 05005KT 10SM CLR A3009 RMK MADISHF
CAR,2017-04-01 05:45,-68.0200,46.8700,M,M,M,40.00,5.00,M,30.09,M,10.00,M,CLR,M,M,M,M,M,M,M,M,KCAR 010545Z AUTO 04005KT 10SM CLR A3009 RMK MADISHF
CAR,2017-04-01 05:50,-68.0200,46.8700,M,M,M,40.00,4.00,M,30.09,M,10.00,M,CLR,M,M,M,M,M,M,M,M,KCAR 010550Z AUTO 04004KT 10SM CLR A3009 RMK MADISHF
CAR,2017-04-01 05:54,-68.0200,46.8700,28.00,16.00,60.25,50.00,4.00,0.00,30.09,1020.20,10.00,M,CLR,M,M,M,M,M,M,M,M,KCAR 010554Z AUTO 05004KT 10SM CLR M02/M09 A3009 RMK AO2 SLP202 T10221089 10022 21028 50001
CAR,2017-04-01 05:55,-68.0200,46.8700,M,M,M,50.00,4.00,M,30.09,M,10.00,M,CLR,M,M,M,M,M,M,M,M,KCAR 010555Z AUTO 05004KT 10SM CLR A3009 RMK MADISHF
CAR,2017-04-01 06:00,-68.0200,46.8700,M,M,M,60.00,4.00,M,30.09,M,10.00,M,CLR,M,M,M,M,M,M,M,M,KCAR 010600Z AUTO 06004KT 10SM CLR A3009 RMK MADISHF
CAR,2017-04-01 06:05,-68.0200,46.8700,M,M,M,70.00,3.00,M,30.09,M,10.00,M,CLR,M,M,M,M,M,M,M,M,KCAR 010605Z AUTO 07003KT 10SM CLR A3009 RMK MADISHF
CAR,2017-04-01 06:10,-68.0200,46.8700,M,M,M,70.00,3.00,M,30.09,M,10.00,M,CLR,M,M,M,M,M,M,M,M,KCAR 010610Z AUTO 07003KT 10SM CLR A3009 RMK MADISHF
CAR,2017-04-01 06:15,-68.0200,46.8700,M,M,M,80.00,4.00,M,30.09,M,10.00,M,CLR,M,M,M,M,M,M,M,M,KCAR 010615Z AUTO 08004KT 10SM CLR A3009 RMK MADISHF
CAR,2017-04-01 06:20,-68.0200,46.8700,M,M,M,80.00,3.00,M,30.09,M,10.00,M,CLR,M,M,M,M,M,M,M,M,KCAR 010620Z AUTO 08003KT 10SM CLR A3009 RMK MADISHF
CAR,2017-04-01 06:25,-68.0200,46.8700,M,M,M,70.00,4.00,M,30.09,M,10.00,M,CLR,M,M,M,M,M,M,M,M,KCAR 010625Z AUTO 07004KT 10SM CLR A3009 RMK MADISHF
CAR,2017-04-01 06:30,-68.0200,46.8700,M,M,M,70.00,4.00,M,30.09,M,10.00,M,CLR,M,M,M,M,M,M,M,M,KCAR 010630Z AUTO 07004KT 10SM CLR A3009 RMK MADISHF
CAR,2017-04-01 06:35,-68.0200,46.8700,M,M,M,80.00,5.00,M,30.09,M,10.00,M,CLR,M,M,M,M,M,M,M,M,KCAR 010635Z AUTO 08005KT 10SM CLR A3009 RMK MADISHF
CAR,2017-04-01 06:40,-68.0200,46.8700,M,M,M,70.00,4.00,M,30.09,M,10.00,M,CLR,M,M,M,M,M,M,M,M,KCAR 010640Z AUTO 07004KT 10SM CLR A3009 RMK MADISHF
CAR,2017-04-01 06:45,-68.0200,46.8700,M,M,M,80.00,4.00,M,30.09,M,10.00,M,CLR,M,M,M,M,M,M,M,M,KCAR 010645Z AUTO 08004KT 10SM CLR A3009 RMK MADISHF
CAR,2017-04-01 06:50,-68.0200,46.8700,M,M,M,80.00,5.00,M,30.09,M,10.00,M,CLR,M,M,M,M,M,M,M,M,KCAR 010650Z AUTO 08005KT 10SM CLR A3009 RMK MADISHF
CAR,2017-04-01 06:54,-68.0200,46.8700,28.90,17.10,60.90,80.00,6.00,0.00,30.09,1020.00,10.00,M,CLR,M,M,M,M,M,M,M,M,KCAR 010654Z AUTO 08006KT 10SM CLR M02/M08 A3009 RMK AO2 SLP200 T10171083
CAR,2017-04-01 06:55,-68.0200,46.8700,M,M,M,70.00,6.00,M,30.09,M,10.00,M,CLR,M,M,M,M,M,M,M,M,KCAR 010655Z AUTO 07006KT 10SM CLR A3009 RMK MADISHF
CAR,2017-04-01 07:00,-68.0200,46.8700,M,M,M,80.00,6.00,M,30.09,M,10.00,M,CLR,M,M,M,M,M,M,M,M,KCAR 010700Z AUTO 08006KT 10SM CLR A3009 RMK MADISHF
CAR,2017-04-01 07:05,-68.0200,46.8700,M,M,M,80.00,5.00,M,30.09,M,10.00,M,CLR,M,M,M,M,M,M,M,M,KCAR 010705Z AUTO 08005KT 10SM CLR A3009 RMK MADISHF
CAR,2017-04-01 07:10,-68.0200,46.8700,M,M,M,90.00,5.00,M,30.09,M,10.00,M,CLR,M,M,M,M,M,M,M,M,KCAR 010710Z AUTO 09005KT 10SM CLR A3009 RMK MADISHF
CAR,2017-04-01 07:15,-68.0200,46.8700,M,M,M,90.00,5.00,M,30.09,M,10.00,M,CLR,M,M,M,M,M,M,M,M,KCAR 010715Z AUTO 09005KT 10SM CLR A3009 RMK MADISHF
CAR,2017-04-01 07:20,-68.0200,46.8700,M,M,M,80.00,5.00,M,30.09,M,10.00,M,CLR,M,M,M,M,M,M,M,M,KCAR 010720Z AUTO 08005KT 10SM CLR A3009 RMK MADISHF
CAR,2017-04-01 07:25,-68.0200,46.8700,M,M,M,80.00,5.00,M,30.09,M,10.00,M,CLR,M,M,M,M,M,M,M,M,KCAR 010725Z AUTO 08005KT 10SM CLR A3009 RMK MADISHF
CAR,2017-04-01 07:30,-68.0200,46.8700,M,M,M,80.00,6.00,M,30.09,M,10.00,M,CLR,M,M,M,M,M,M,M,M,KCAR 010730Z AUTO 08006KT 10SM CLR A3009 RMK MADISHF
CAR,2017-04-01 07:35,-68.0200,46.8700,M,M,M,80.00,5.00,M,30.09,M,10.00,M,CLR,M,M,M,M,M,M,M,M,KCAR 010735Z AUTO 08005KT 10SM CLR A3009 RMK MADISHF
CAR,2017-04-01 07:40,-68.0200,46.8700,M,M,M,80.00,4.00,M,30.09,M,10.00,M,CLR,M,M,M,M,M,M,M,M,KCAR 010740Z AUTO 08004KT 10SM CLR A3009 RMK MADISHF
CAR,2017-04-01 07:45,-68.0200,46.8700,M,M,M,90.00,5.00,M,30.09,M,10.00,M,CLR,M,M,M,M,M,M,M,M,KCAR 010745Z AUTO 09005KT 10SM CLR A3009 RMK MADISHF
CAR,2017-04-01 07:50,-68.0200,46.8700,M,M,M,90.00,4.00,M,30.10,M,10.00,M,CLR,M,M,M,M,M,M,M,M,KCAR 010750Z AUTO 09004KT 10SM CLR A3010 RMK MADISHF
CAR,2017-04-01 07:54,-68.0200,46.8700,28.00,18.00,65.69,90.00,5.00,0.00,30.10,1020.10,10.00,M,CLR,M,M,M,M,M,M,M,M,KCAR 010754Z AUTO 09005KT 10SM CLR M02/M08 A3010 RMK AO2 SLP201 T10221078
CAR,2017-04-01 07:55,-68.0200,46.8700,M,M,M,90.00,4.00,M,30.10,M,10.00,M,CLR,M,M,M,M,M,M,M,M,KCAR 010755Z AUTO 09004KT 10SM CLR A3010 RMK MADISHF
CAR,2017-04-01 08:00,-68.0200,46.8700,M,M,M,80.00,4.00,M,30.10,M,10.00,M,CLR,M,M,M,M,M,M,M,M,KCAR 010800Z AUTO 08004KT 10SM CLR A3010 RMK MADISHF
CAR,2017-04-01 08:05,-68.0200,46.8700,M,M,M,90.00,4.00,M,30.10,M,10.00,M,CLR,M,M,M,M,M,M,M,M,KCAR 010805Z AUTO 09004KT 10SM CLR A3010 RMK MADISHF
CAR,2017-04-01 08:10,-68.0200,46.8700,M,M,M,90.00,5.00,M,30.09,M,10.00,M,CLR,M,M,M,M,M,M,M,M,KCAR 010810Z AUTO 09005KT 10SM CLR A3009 RMK MADISHF
CAR,2017-04-01 08:15,-68.0200,46.8700,M,M,M,90.00,4.00,M,30.09,M,10.00,M,CLR,M,M,M,M,M,M,M,M,KCAR 010815Z AUTO 09004KT 10SM CLR A3009 RMK MADISHF
CAR,2017-04-01 08:20,-68.0200,46.8700,M,M,M,90.00,5.00,M,30.09,M,10.00,M,CLR,M,M,M,M,M,M,M,M,KCAR 010820Z AUTO 09005KT 10SM CLR A3009 RMK MADISHF
CAR,2017-04-01 08:25,-68.0200,46.8700,M,M,M,90.00,5.00,M,30.09,M,10.00,M,CLR,M,M,M,M,M,M,M,M,KCAR 010825Z AUTO 09005KT 10SM CLR A3009 RMK MADISHF
CAR,2017-04-01 08:30,-68.0200,46.8700,M,M,M,90.00,5.00,M,30.09,M,10.00,M,CLR,M,M,M,M,M,M,M,M,KCAR 010830Z AUTO 09005KT 10SM CLR A3009 RMK MADISHF
CAR,2017-04-01 08:35,-68.0200,46.8700,M,M,M,90.00,4.00,M,30.10,M,10.00,M,CLR,M,M,M,M,M,M,M,M,KCAR 010835Z AUTO 09004KT 10SM CLR A3010 RMK MADISHF
CAR,2017-04-01 08:40,-68.0200,46.8700,M,M,M,90.00,4.00,M,30.09,M,10.00,M,CLR,M,M,M,M,M,M,M,M,KCAR 010840Z AUTO 09004KT 10SM CLR A3009 RMK MADISHF
CAR,2017-04-01 08:45,-68.0200,46.8700,M,M,M,90.00,3.00,M,30.10,M,10.00,M,CLR,M,M,M,M,M,M,M,M,KCAR 010845Z AUTO 09003KT 10SM CLR A3010 RMK MADISHF
CAR,2017-04-01 08:50,-68.0200,46.8700,M,M,M,80.00,4.00,M,30.09,M,10.00,M,CLR,M,M,M,M,M,M,M,M,KCAR 010850Z AUTO 08004KT 10SM CLR A3009 RMK MADISHF
CAR,2017-04-01 08:54,-68.0200,46.8700,28.00,18.00,65.69,90.00,4.00,0.00,30.09,1020.10,10.00,M,CLR,M,M,M,M,M,M,M,M,KCAR 010854Z AUTO 09004KT 10SM CLR M02/M08 A3009 RMK AO2 SLP201 T10221078 55000
CAR,2017-04-01 08:55,-68.0200,46.8700,M,M,M,70.00,3.00,M,30.09,M,10.00,M,CLR,M,M,M,M,M,M,M,M,KCAR 010855Z AUTO 07003KT 10SM CLR A3009 RMK MADISHF
CAR,2017-04-01 09:00,-68.0200,46.8700,M,M,M,80.00,3.00,M,30.10,M,10.00,M,CLR,M,M,M,M,M,M,M,M,KCAR 010900Z AUTO 08003KT 10SM CLR A3010 RMK MADISHF
CAR,2017-04-01 09:05,-68.0200,46.8700,M,M,M,0.00,0.00,M,30.10,M,10.00,M,CLR,M,M,M,M,M,M,M,M,KCAR 010905Z AUTO 00000KT 10SM CLR A3010 RMK MADISHF
CAR,2017-04-01 09:10,-68.0200,46.8700,M,M,M,0.00,0.00,M,30.09,M,10.00,M,CLR,M,M,M,M,M,M,M,M,KCAR 010910Z AUTO 00000KT 10SM CLR A3009 RMK MADISHF
CAR,2017-04-01 09:15,-68.0200,46.8700,M,M,M,90.00,3.00,M,30.10,M,10.00,M,CLR,M,M,M,M,M,M,M,M,KCAR 010915Z AUTO 09003KT 10SM CLR A3010 RMK MADISHF
CAR,2017-04-01 09:20,-68.0200,46.8700,M,M,M,90.00,3.00,M,30.10,M,10.00,M,CLR,M,M,M,M,M,M,M,M,KCAR 010920Z AUTO 09003KT 10SM CLR A3010 RMK MADISHF
CAR,2017-04-01 09:25,-68.0200,46.8700,M,M,M,100.00,3.00,M,30.10,M,10.00,M,CLR,M,M,M,M,M,M,M,M,KCAR 010925Z AUTO 10003KT 10SM CLR A3010 RMK MADISHF
CAR,2017-04-01 09:30,-68.0200,46.8700,M,M,M,80.00,3.00,M,30.10,M,10.00,M,CLR,M,M,M,M,M,M,M,M,KCAR 010930Z AUTO 08003KT 10SM CLR A3010 RMK MADISHF
CAR,2017-04-01 09:35,-68.0200,46.8700,M,M,M,0.00,0.00,M,30.10,M,10.00,M,CLR,M,M,M,M,M,M,M,M,KCAR 010935Z AUTO 00000KT 10SM CLR A3010 RMK MADISHF
CAR,2017-04-01 09:40,-68.0200,46.8700,M,M,M,80.00,3.00,M,30.10,M,10.00,M,CLR,M,M,M,M,M,M,M,M,KCAR 010940Z AUTO 08003KT 10SM CLR A3010 RMK MADISHF
CAR,2017-04-01 09:45,-68.0200,46.8700,M,M,M,70.00,3.00,M,30.10,M,10.00,M,CLR,M,M,M,M,M,M,M,M,KCAR 010945Z AUTO 07003KT 10SM CLR A3010 RMK MADISHF
CAR,2017-04-01 09:50,-68.0200,46.8700,M,M,M,70.00,3.00,M,30.10,M,10.00,M,CLR,M,M,M,M,M,M,M,M,KCAR 010950Z AUTO 07003KT 10SM CLR A3010 RMK MADISHF
CAR,2017-04-01 09:54,-68.0200,46.8700,28.00,18.00,65.69,70.00,3.00,0.00,30.10,1020.30,10.00,M,CLR,M,M,M,M,M,M,M,M,KCAR 010954Z AUTO 07003KT 10SM CLR M02/M08 A3010 RMK AO2 SLP203 T10221078
CAR,2017-04-01 09:55,-68.0200,46.8700,M,M,M,0.00,0.00,M,30.10,M,10.00,M,CLR,M,M,M,M,M,M,M,M,KCAR 010955Z AUTO 00000KT 10SM CLR A3010 RMK MADISHF
CAR,2017-04-01 10:00,-68.0200,46.8700,M,M,M,0.00,0.00,M,30.10,M,10.00,M,CLR,M,M,M,M,M,M,M,M,KCAR 011000Z AUTO 00000KT 10SM CLR A3010 RMK MADISHF
CAR,2017-04-01 10:05,-68.0200,46.8700,M,M,M,60.00,3.00,M,30.10,M,10.00,M,CLR,M,M,M,M,M,M,M,M,KCAR 011005Z AUTO 06003KT 10SM CLR A3010 RMK MADISHF
CAR,2017-04-01 10:10,-68.0200,46.8700,M,M,M,60.00,3.00,M,30.10,M,10.00,M,CLR,M,M,M,M,M,M,M,M,KCAR 011010Z AUTO 06003KT 10SM CLR A3010 RMK MADISHF
CAR,2017-04-01 10:15,-68.0200,46.8700,M,M,M,60.00,3.00,M,30.10,M,10.00,M,CLR,M,M,M,M,M,M,M,M,KCAR 011015Z AUTO 06003KT 10SM CLR A3010 RMK MADISHF
CAR,2017-04-01 10:20,-68.0200,46.8700,M,M,M,60.00,3.00,M,30.10,M,10.00,M,CLR,M,M,M,M,M,M,M,M,KCAR 011020Z AUTO 06003KT 10SM CLR A3010 RMK MADISHF
CAR,2017-04-01 10:25,-68.0200,46.8700,M,M,M,0.00,0.00,M,30.10,M,10.00,M,CLR,M,M,M,M,M,M,M,M,KCAR 011025Z AUTO 00000KT 10SM CLR A3010 RMK MADISHF
CAR,2017-04-01 10:30,-68.0200,46.8700,M,M,M,0.00,0.00,M,30.10,M,10.00,M,CLR,M,M,M,M,M,M,M,M,KCAR 011030Z AUTO 00000KT 10SM CLR A3010 RMK MADISHF
CAR,2017-04-01 10:35,-68.0200,46.8700,M,M,M,0.00,0.00,M,30.10,M,10.00,M,CLR,M,M,M,M,M,M,M,M,KCAR 011035Z AUTO 00000KT 10SM CLR A3010 RMK MADISHF
CAR,2017-04-01 10:40,-68.0200,46.8700,M,M,M,0.00,0.00,M,30.10,M,10.00,M,CLR,M,M,M,M,M,M,M,M,KCAR 011040Z AUTO 00000KT 10SM CLR A3010 RMK MADISHF
CAR,2017-04-01 10:45,-68.0200,46.8700,M,M,M,0.00,0.00,M,30.11,M,10.00,M,CLR,M,M,M,M,M,M,M,M,KCAR 011045Z AUTO 00000KT 10SM CLR A3011 RMK MADISHF
CAR,2017-04-01 10:50,-68.0200,46.8700,M,M,M,0.00,0.00,M,30.11,M,10.00,M,CLR,M,M,M,M,M,M,M,M,KCAR 011050Z AUTO 00000KT 10SM CLR A3011 RMK MADISHF
CAR,2017-04-01 10:54,-68.0200,46.8700,28.00,18.00,65.69,M,3.00,0.00,30.11,1020.50,10.00,M,CLR,M,M,M,M,M,M,M,M,KCAR 011054Z AUTO VRB03KT 10SM CLR M02/M08 A3011 RMK AO2 SLP205 T10221078
CAR,2017-04-01 10:55,-68.0200,46.8700,M,M,M,60.00,4.00,M,30.11,M,10.00,M,CLR,M,M,M,M,M,M,M,M,KCAR 011055Z AUTO 06004KT 10SM CLR A3011 RMK MADISHF
CAR,2017-04-01 11:00,-68.0200,46.8700,M,M,M,60.00,3.00,M,30.11,M,10.00,M,CLR,M,M,M,M,M,M,M,M,KCAR 011100Z AUTO 06003KT 10SM CLR A3011 RMK MADISHF
CAR,2017-04-01 11:05,-68.0200,46.8700,M,M,M,70.00,3.00,M,30.11,M,10.00,M,CLR,M,M,M,M,M,M,M,M,KCAR 011105Z AUTO 07003KT 10SM CLR A3011 RMK MADISHF
CAR,2017-04-01 11:10,-68.0200,46.8700,M,M,M,60.00,4.00,M,30.11,M,10.00,M,CLR,M,M,M,M,M,M,M,M,KCAR 011110Z AUTO 06004KT 10SM CLR A3011 RMK MADISHF
CAR,2017-04-01 11:15,-68.0200,46.8700,M,M,M,60.00,3.00,M,30.11,M,10.00,M,CLR,M,M,M,M,M,M,M,M,KCAR 011115Z AUTO 06003KT 10SM CLR A3011 RMK MADISHF
CAR,2017-04-01 11:20,-68.0200,46.8700,M,M,M,0.00,0.00,M,30.11,M,10.00,M,CLR,M,M,M,M,M,M,M,M,KCAR 011120Z AUTO 00000KT 10SM CLR A3011 RMK MADISHF
CAR,2017-04-01 11:25,-68.0200,46.8700,M,M,M,0.00,0.00,M,30.11,M,10.00,M,CLR,M,M,M,M,M,M,M,M,KCAR 011125Z AUTO 00000KT 10SM CLR A3011 RMK MADISHF
CAR,2017-04-01 11:30,-68.0200,46.8700,M,M,M,0.00,0.00,M,30.11,M,10.00,M,CLR,M,M,M,M,M,M,M,M,KCAR 011130Z AUTO 00000KT 10SM CLR A3011 RMK MADISHF
CAR,2017-04-01 11:35,-68.0200,46.8700,M,M,M,50.00,3.00,M,30.11,M,10.00,M,CLR,M,M,M,M,M,M,M,M,KCAR 011135Z AUTO 05003KT 10SM CLR A3011 RMK MADISHF
CAR,2017-04-01 11:40,-68.0200,46.8700,M,M,M,50.00,3.00,M,30.11,M,10.00,M,CLR,M,M,M,M,M,M,M,M,KCAR 011140Z AUTO 05003KT 10SM CLR A3011 RMK MADISHF
CAR,2017-04-01 11:45,-68.0200,46.8700,M,M,M,50.00,3.00,M,30.12,M,10.00,M,CLR,M,M,M,M,M,M,M,M,KCAR 011145Z AUTO 05003KT 10SM CLR A3012 RMK MADISHF
CAR,2017-04-01 11:50,-68.0200,46.8700,M,M,M,0.00,0.00,M,30.12,M,10.00,M,CLR,M,M,M,M,M,M,M,M,KCAR 011150Z AUTO 00000KT 10SM CLR A3012 RMK MADISHF
CAR,2017-04-01 11:54,-68.0200,46.8700,28.90,18.00,63.31,50.00,3.00,0.00,30.12,1021.00,10.00,M,CLR,M,M,M,M,M,M,M,M,KCAR 011154Z AUTO 05003KT 10SM CLR M02/M08 A3012 RMK AO2 SLP210 T10171078 11011 21028 53007
CAR,2017-04-01 11:55,-68.0200,46.8700,M,M,M,50.00,3.00,M,30.12,M,10.00,M,CLR,M,M,M,M,M,M,M,M,KCAR 011155Z AUTO 05003KT 10SM CLR A3012 RMK MADISHF
CAR,2017-04-01 12:00,-68.0200,46.8700,M,M,M,50.00,3.00,M,30.12,M,10.00,M,CLR,M,M,M,M,M,M,M,M,KCAR 011200Z AUTO 05003KT 10SM CLR A3012 RMK MADISHF
CAR,2017-04-01 12:05,-68.0200,46.8700,M,M,M,0.00,0.00,M,30.11,M,10.00,M,CLR,M,M,M,M,M,M,M,M,KCAR 011205Z AUTO 00000KT 10SM CLR A3011 RMK MADISHF
CAR,2017-04-01 12:10,-68.0200,46.8700,M,M,M,0.00,0.00,M,30.11,M,10.00,M,CLR,M,M,M,M,M,M,M,M,KCAR 011210Z AUTO 00000KT 10SM CLR A3011 RMK MADISHF
CAR,2017-04-01 12:15,-68.0200,46.8700,M,M,M,80.00,3.00,M,30.11,M,10.00,M,CLR,M,M,M,M,M,M,M,M,KCAR 011215Z AUTO 08003KT 10SM CLR A3011 RMK MADISHF
CAR,2017-04-01 12:20,-68.0200,46.8700,M,M,M,0.00,0.00,M,30.11,M,10.00,M,CLR,M,M,M,M,M,M,M,M,KCAR 011220Z AUTO 00000KT 10SM CLR A3011 RMK MADISHF
CAR,2017-04-01 12:25,-68.0200,46.8700,M,M,M,50.00,3.00,M,30.11,M,10.00,M,CLR,M,M,M,M,M,M,M,M,KCAR 011225Z AUTO 05003KT 10SM CLR A3011 RMK MADISHF
CAR,2017-04-01 12:30,-68.0200,46.8700,M,M,M,0.00,0.00,M,30.11,M,10.00,M,CLR,M,M,M,M,M,M,M,M,KCAR 011230Z AUTO 00000KT 10SM CLR A3011 RMK MADISHF
CAR,2017-04-01 12:35,-68.0200,46.8700,M,M,M,90.00,3.00,M,30.11,M,10.00,M,CLR,M,M,M,M,M,M,M,M,KCAR 011235Z AUTO 09003KT 10SM CLR A3011 RMK MADISHF
CAR,2017-04-01 12:40,-68.0200,46.8700,M,M,M,100.00,4.00,M,30.11,M,10.00,M,CLR,M,M,M,M,M,M,M,M,KCAR 011240Z AUTO 10004KT 10SM CLR A3011 RMK MADISHF
CAR,2017-04-01 12:45,-68.0200,46.8700,M,M,M,100.00,4.00,M,30.11,M,10.00,M,CLR,M,M,M,M,M,M,M,M,KCAR 011245Z AUTO 10004KT 10SM CLR A3011 RMK MADISHF
CAR,2017-04-01 12:50,-68.0200,46.8700,M,M,M,100.00,4.00,M,30.11,M,10.00,M,CLR,M,M,M,M,M,M,M,M,KCAR 011250Z AUTO 10004KT 10SM CLR A3011 RMK MADISHF
CAR,2017-04-01 12:54,-68.0200,46.8700,30.00,18.00,60.53,100.00,4.00,0.00,30.11,1020.70,10.00,M,CLR,M,M,M,M,M,M,M,M,KCAR 011254Z AUTO 10004KT 10SM CLR M01/M08 A3011 RMK AO2 SLP207 T10111078
CAR,2017-04-01 12:55,-68.0200,46.8700,M,M,M,120.00,4.00,M,30.11,M,10.00,M,CLR,M,M,M,M,M,M,M,M,KCAR 011255Z AUTO 12004KT 10SM CLR A3011 RMK MADISHF
CAR,2017-04-01 13:00,-68.0200,46.8700,M,M,M,100.00,4.00,M,30.11,M,10.00,M,CLR,M,M,M,M,M,M,M,M,KCAR 011300Z AUTO 10004KT 10SM CLR A3011 RMK MADISHF
CAR,2017-04-01 13:05,-68.0200,46.8700,M,M,M,80.00,4.00,M,30.11,M,10.00,M,CLR,M,M,M,M,M,M,M,M,KCAR 011305Z AUTO 08004KT 10SM CLR A3011 RMK MADISHF
CAR,2017-04-01 13:10,-68.0200,46.8700,M,M,M,80.00,4.00,M,30.11,M,10.00,M,CLR,M,M,M,M,M,M,M,M,KCAR 011310Z AUTO 08004KT 10SM CLR A3011 RMK MADISHF
CAR,2017-04-01 13:15,-68.0200,46.8700,M,M,M,100.00,4.00,M,30.11,M,10.00,M,CLR,M,M,M,M,M,M,M,M,KCAR 011315Z AUTO 10004KT 10SM CLR A3011 RMK MADISHF
CAR,2017-04-01 13:20,-68.0200,46.8700,M,M,M,90.00,4.00,M,30.11,M,10.00,M,CLR,M,M,M,M,M,M,M,M,KCAR 011320Z AUTO 09004KT 10SM CLR A3011 RMK MADISHF
CAR,2017-04-01 13:25,-68.0200,46.8700,M,M,M,90.00,3.00,M,30.11,M,10.00,M,CLR,M,M,M,M,M,M,M,M,KCAR 011325Z AUTO 09003KT 10SM CLR A3011 RMK MADISHF
CAR,2017-04-01 13:30,-68.0200,46.8700,M,M,M,110.00,5.00,M,30.11,M,10.00,M,CLR,M,M,M,M,M,M,M,M,KCAR 011330Z AUTO 11005KT 10SM CLR A3011 RMK MADISHF
CAR,2017-04-01 13:35,-68.0200,46.8700,M,M,M,100.00,5.00,M,30.11,M,10.00,M,CLR,M,M,M,M,M,M,M,M,KCAR 011335Z AUTO 10005KT 10SM CLR A3011 RMK MADISHF
CAR,2017-04-01 13:40,-68.0200,46.8700,M,M,M,110.00,4.00,M,30.11,M,10.00,M,CLR,M,M,M,M,M,M,M,M,KCAR 011340Z AUTO 11004KT 10SM CLR A3011 RMK MADISHF
CAR,2017-04-01 13:45,-68.0200,46.8700,M,M,M,70.00,3.00,M,30.11,M,10.00,M,CLR,M,M,M,M,M,M,M,M,KCAR 011345Z AUTO 07003KT 10SM CLR A3011 RMK MADISHF
CAR,2017-04-01 13:50,-68.0200,46.8700,M,M,M,100.00,3.00,M,30.10,M,10.00,M,CLR,M,M,M,M,M,M,M,M,KCAR 011350Z AUTO 10003KT 10SM CLR A3010 RMK MADISHF
CAR,2017-04-01 13:54,-68.0200,46.8700,32.00,16.00,51.20,100.00,4.00,0.00,30.10,1020.50,10.00,M,CLR,M,M,M,M,M,M,M,M,KCAR 011354Z AUTO 10004KT 10SM CLR 00/M09 A3010 RMK AO2 SLP205 T00001089
CAR,2017-04-01 13:55,-68.0200,46.8700,M,M,M,90.00,4.00,M,30.10,M,10.00,M,CLR,M,M,M,M,M,M,M,M,KCAR 011355Z AUTO 09004KT 10SM CLR A3010 RMK MADISHF
CAR,2017-04-01 14:00,-68.0200,46.8700,M,M,M,50.00,4.00,M,30.10,M,10.00,M,CLR,M,M,M,M,M,M,M,M,KCAR 011400Z AUTO 05004KT 10SM CLR A3010 RMK MADISHF
CAR,2017-04-01 14:05,-68.0200,46.8700,M,M,M,80.00,3.00,M,30.10,M,10.00,M,CLR,M,M,M,M,M,M,M,M,KCAR 011405Z AUTO 08003KT 10SM CLR A3010 RMK VRB03KT  MADISHF
CAR,2017-04-01 14:10,-68.0200,46.8700,M,M,M,70.00,3.00,M,30.10,M,10.00,M,CLR,M,M,M,M,M,M,M,M,KCAR 011410Z AUTO 07003KT 10SM CLR A3010 RMK MADISHF
CAR,2017-04-01 14:15,-68.0200,46.8700,M,M,M,100.00,3.00,M,30.10,M,10.00,M,CLR,M,M,M,M,M,M,M,M,KCAR 011415Z AUTO 10003KT 10SM CLR A3010 RMK MADISHF
CAR,2017-04-01 14:20,-68.0200,46.8700,M,M,M,90.00,4.00,M,30.10,M,10.00,M,CLR,M,M,M,M,M,M,M,M,KCAR 011420Z AUTO 09004KT 10SM CLR A3010 RMK MADISHF
CAR,2017-04-01 14:25,-68.0200,46.8700,M,M,M,0.00,0.00,M,30.10,M,10.00,M,CLR,M,M,M,M,M,M,M,M,KCAR 011425Z AUTO 00000KT 10SM CLR A3010 RMK MADISHF
CAR,2017-04-01 14:30,-68.0200,46.8700,M,M,M,0.00,0.00,M,30.10,M,10.00,M,CLR,M,M,M,M,M,M,M,M,KCAR 011430Z AUTO 00000KT 10SM CLR A3010 RMK MADISHF
CAR,2017-04-01 14:35,-68.0200,46.8700,M,M,M,0.00,0.00,M,30.10,M,10.00,M,CLR,M,M,M,M,M,M,M,M,KCAR 011435Z AUTO 00000KT 10SM CLR A3010 RMK MADISHF
CAR,2017-04-01 14:40,-68.0200,46.8700,M,M,M,0.00,0.00,M,30.10,M,10.00,M,CLR,M,M,M,M,M,M,M,M,KCAR 011440Z AUTO 00000KT 10SM CLR A3010 RMK MADISHF
CAR,2017-04-01 14:45,-68.0200,46.8700,M,M,M,0.00,0.00,M,30.09,M,10.00,M,CLR,M,M,M,M,M,M,M,M,KCAR 011445Z AUTO 00000KT 10SM CLR A3009 RMK MADISHF
CAR,2017-04-01 14:50,-68.0200,46.8700,M,M,M,30.00,3.00,M,30.09,M,10.00,M,CLR,M,M,M,M,M,M,M,M,KCAR 011450Z AUTO 03003KT 10SM CLR A3009 RMK MADISHF
CAR,2017-04-01 14:54,-68.0200,46.8700,36.00,15.10,41.96,0.00,0.00,0.00,30.09,1020.00,10.00,M,CLR,M,M,M,M,M,M,M,M,KCAR 011454Z AUTO 00000KT 10SM CLR 02/M09 A3009 RMK AO2 SLP200 T00221094 58009
CAR,2017-04-01 14:55,-68.0200,46.8700,M,M,M,0.00,0.00,M,30.09,M,10.00,M,CLR,M,M,M,M,M,M,M,M,KCAR 011455Z AUTO 00000KT 10SM CLR A3009 RMK MADISHF
CAR,2017-04-01 15:00,-68.0200,46.8700,M,M,M,0.00,0.00,M,30.09,M,10.00,M,CLR,M,M,M,M,M,M,M,M,KCAR 011500Z AUTO 00000KT 10SM CLR A3009 RMK MADISHF
CAR,2017-04-01 15:05,-68.0200,46.8700,M,M,M,0.00,0.00,M,30.09,M,10.00,M,CLR,M,M,M,M,M,M,M,M,KCAR 011505Z AUTO 00000KT 10SM CLR A3009 RMK MADISHF
CAR,2017-04-01 15:10,-68.0200,46.8700,M,M,M,0.00,0.00,M,30.09,M,10.00,M,CLR,M,M,M,M,M,M,M,M,KCAR 011510Z AUTO 00000KT 10SM CLR A3009 RMK MADISHF
CAR,2017-04-01 15:15,-68.0200,46.8700,M,M,M,0.00,0.00,M,30.08,M,10.00,M,CLR,M,M,M,M,M,M,M,M,KCAR 011515Z AUTO 00000KT 10SM CLR A3008 RMK MADISHF
CAR,2017-04-01 15:20,-68.0200,46.8700,M,M,M,0.00,0.00,M,30.08,M,10.00,M,CLR,M,M,M,M,M,M,M,M,KCAR 011520Z AUTO 00000KT 10SM CLR A3008 RMK MADISHF
CAR,2017-04-01 15:25,-68.0200,46.8700,M,M,M,0.00,0.00,M,30.08,M,10.00,M,CLR,M,M,M,M,M,M,M,M,KCAR 011525Z AUTO 00000KT 10SM CLR A3008 RMK MADISHF
CAR,2017-04-01 15:30,-68.0200,46.8700,M,M,M,0.00,0.00,M,30.08,M,10.00,M,CLR,M,M,M,M,M,M,M,M,KCAR 011530Z AUTO 00000KT 10SM CLR A3008 RMK MADISHF
CAR,2017-04-01 15:35,-68.0200,46.8700,M,M,M,0.00,0.00,M,30.07,M,10.00,M,CLR,M,M,M,M,M,M,M,M,KCAR 011535Z AUTO 00000KT 10SM CLR A3007 RMK MADISHF
CAR,2017-04-01 15:40,-68.0200,46.8700,M,M,M,0.00,0.00,M,30.07,M,10.00,M,CLR,M,M,M,M,M,M,M,M,KCAR 011540Z AUTO 00000KT 10SM CLR A3007 RMK MADISHF
CAR,2017-04-01 15:45,-68.0200,46.8700,M,M,M,0.00,0.00,M,30.07,M,10.00,M,CLR,M,M,M,M,M,M,M,M,KCAR 011545Z AUTO 00000KT 10SM CLR A3007 RMK MADISHF
CAR,2017-04-01 15:50,-68.0200,46.8700,M,M,M,0.00,0.00,M,30.07,M,10.00,M,CLR,M,M,M,M,M,M,M,M,KCAR 011550Z AUTO 00000KT 10SM CLR A3007 RMK MADISHF
CAR,2017-04-01 15:54,-68.0200,46.8700,36.00,12.00,36.62,0.00,0.00,0.00,30.06,1019.20,10.00,M,CLR,M,M,M,M,M,M,M,M,KCAR 011554Z AUTO 00000KT 10SM CLR 02/M11 A3006 RMK AO2 SLP192 T00221111
CAR,2017-04-01 15:55,-68.0200,46.8700,M,M,M,110.00,3.00,M,30.06,M,10.00,M,CLR,M,M,M,M,M,M,M,M,KCAR 011555Z AUTO 11003KT 10SM CLR A3006 RMK MADISHF
CAR,2017-04-01 16:00,-68.0200,46.8700,M,M,M,120.00,3.00,M,30.06,M,10.00,M,CLR,M,M,M,M,M,M,M,M,KCAR 011600Z AUTO 12003KT 10SM CLR A3006 RMK MADISHF
CAR,2017-04-01 16:05,-68.0200,46.8700,M,M,M,150.00,3.00,M,30.06,M,10.00,M,CLR,M,M,M,M,M,M,M,M,KCAR 011605Z AUTO 15003KT 10SM CLR A3006 RMK MADISHF
CAR,2017-04-01 16:10,-68.0200,46.8700,M,M,M,0.00,0.00,M,30.06,M,10.00,M,CLR,M,M,M,M,M,M,M,M,KCAR 011610Z AUTO 00000KT 10SM CLR A3006 RMK MADISHF
CAR,2017-04-01 16:15,-68.0200,46.8700,M,M,M,0.00,0.00,M,30.06,M,10.00,M,CLR,M,M,M,M,M,M,M,M,KCAR 011615Z AUTO 00000KT 10SM CLR A3006 RMK MADISHF
CAR,2017-04-01 16:20,-68.0200,46.8700,M,M,M,0.00,0.00,M,30.05,M,10.00,M,CLR,M,M,M,M,M,M,M,M,KCAR 011620Z AUTO 00000KT 10SM CLR A3005 RMK MADISHF
CAR,2017-04-01 16:25,-68.0200,46.8700,M,M,M,0.00,0.00,M,30.05,M,10.00,M,CLR,M,M,M,M,M,M,M,M,KCAR 011625Z AUTO 00000KT 10SM CLR A3005 RMK MADISHF
CAR,2017-04-01 16:30,-68.0200,46.8700,M,M,M,0.00,0.00,M,30.05,M,10.00,M,CLR,M,M,M,M,M,M,M,M,KCAR 011630Z AUTO 00000KT 10SM CLR A3005 RMK MADISHF
CAR,2017-04-01 16:35,-68.0200,46.8700,M,M,M,360.00,4.00,M,30.05,M,10.00,M,CLR,M,M,M,M,M,M,M,M,KCAR 011635Z AUTO 36004KT 10SM CLR A3005 RMK VRB04KT  MADISHF
CAR,2017-04-01 16:40,-68.0200,46.8700,M,M,M,70.00,4.00,M,30.05,M,10.00,M,CLR,M,M,M,M,M,M,M,M,KCAR 011640Z AUTO 07004KT 10SM CLR A3005 RMK VRB04KT  MADISHF
CAR,2017-04-01 16:45,-68.0200,46.8700,M,M,M,40.00,6.00,M,30.05,M,10.00,M,CLR,M,M,M,M,M,M,M,M,KCAR 011645Z AUTO 04006KT 10SM CLR A3005 RMK MADISHF
CAR,2017-04-01 16:50,-68.0200,46.8700,M,M,M,40.00,4.00,M,30.05,M,10.00,M,CLR,M,M,M,M,M,M,M,M,KCAR 011650Z AUTO 04004KT 10SM CLR A3005 RMK MADISHF
CAR,2017-04-01 16:54,-68.0200,46.8700,37.90,10.90,32.36,0.00,0.00,0.00,30.05,1018.60,10.00,M,FEW,M,M,M,12000.00,M,M,M,M,KCAR 011654Z AUTO 00000KT 10SM FEW120 03/M12 A3005 RMK AO2 SLP186 T00331117
CAR,2017-04-01 16:55,-68.0200,46.8700,M,M,M,50.00,3.00,M,30.05,M,10.00,M,FEW,M,M,M,12000.00,M,M,M,M,KCAR 011655Z AUTO 05003KT 10SM FEW120 A3005 RMK VRB03KT  MADISHF
CAR,2017-04-01 17:00,-68.0200,46.8700,M,M,M,60.00,3.00,M,30.05,M,10.00,M,FEW,M,M,M,12000.00,M,M,M,M,KCAR 011700Z AUTO 06003KT 10SM FEW120 A3005 RMK MADISHF
CAR,2017-04-01 17:05,-68.0200,46.8700,M,M,M,40.00,5.00,M,30.05,M,10.00,M,FEW,M,M,M,12000.00,M,M,M,M,KCAR 011705Z AUTO 04005KT 10SM FEW120 A3005 RMK MADISHF
CAR,2017-04-01 17:10,-68.0200,46.8700,M,M,M,40.00,6.00,M,30.05,M,10.00,M,SCT,M,M,M,12000.00,M,M,M,M,KCAR 011710Z AUTO 04006KT 10SM SCT120 A3005 RMK MADISHF
CAR,2017-04-01 17:15,-68.0200,46.8700,M,M,M,50.00,7.00,M,30.04,M,10.00,M,SCT,M,M,M,12000.00,M,M,M,M,KCAR 011715Z AUTO 05007KT 10SM SCT120 A3004 RMK MADISHF
CAR,2017-04-01 17:20,-68.0200,46.8700,M,M,M,30.00,6.00,M,30.04,M,10.00,M,FEW,M,M,M,12000.00,M,M,M,M,KCAR 011720Z AUTO 03006KT 10SM FEW120 A3004 RMK MADISHF
CAR,2017-04-01 17:25,-68.0200,46.8700,M,M,M,30.00,5.00,M,30.04,M,10.00,M,FEW,M,M,M,12000.00,M,M,M,M,KCAR 011725Z AUTO 03005KT 10SM FEW120 A3004 RMK MADISHF
CAR,2017-04-01 17:30,-68.0200,46.8700,M,M,M,40.00,4.00,M,30.04,M,10.00,M,FEW,M,M,M,12000.00,M,M,M,M,KCAR 011730Z AUTO 04004KT 10SM FEW120 A3004 RMK MADISHF
CAR,2017-04-01 17:35,-68.0200,46.8700,M,M,M,50.00,4.00,M,30.04,M,10.00,M,FEW,M,M,M,12000.00,M,M,M,M,KCAR 011735Z AUTO 05004KT 10SM FEW120 A3004 RMK MADISHF
CAR,2017-04-01 17:40,-68.0200,46.8700,M,M,M,60.00,3.00,M,30.04,M,10.00,M,FEW,M,M,M,11000.00,M,M,M,M,KCAR 011740Z AUTO 06003KT 10SM FEW110 A3004 RMK MADISHF
CAR,2017-04-01 17:45,-68.0200,46.8700,M,M,M,60.00,3.00,M,30.04,M,10.00,M,FEW,M,M,M,11000.00,M,M,M,M,KCAR 011745Z AUTO 06003KT 10SM FEW110 A3004 RMK VRB03KT  MADISHF
CAR,2017-04-01 17:50,-68.0200,46.8700,M,M,M,30.00,5.00,M,30.04,M,10.00,M,SCT,M,M,M,11000.00,M,M,M,M,KCAR 011750Z AUTO 03005KT 10SM SCT110 A3004 RMK MADISHF
CAR,2017-04-01 17:54,-68.0200,46.8700,39.00,10.00,29.77,30.00,4.00,0.00,30.04,1018.20,10.00,M,SCT,M,M,M,11000.00,M,M,M,M,KCAR 011754Z AUTO 03004KT 10SM SCT110 04/M12 A3004 RMK AO2 SLP182 T00391122 10039 21017 56018
CAR,2017-04-01 17:55,-68.0200,46.8700,M,M,M,20.00,4.00,M,30.04,M,10.00,M,SCT,M,M,M,11000.00,M,M,M,M,KCAR 011755Z AUTO 02004KT 10SM SCT110 A3004 RMK MADISHF
CAR,2017-04-01 18:00,-68.0200,46.8700,M,M,M,350.00,4.00,M,30.03,M,10.00,M,BKN,M,M,M,11000.00,M,M,M,M,KCAR 011800Z AUTO 35004KT 10SM BKN110 A3003 RMK MADISHF
CAR,2017-04-01 18:05,-68.0200,46.8700,M,M,M,0.00,0.00,M,30.03,M,10.00,M,BKN,M,M,M,11000.00,M,M,M,M,KCAR 011805Z AUTO 00000KT 10SM BKN110 A3003 RMK MADISHF
CAR,2017-04-01 18:10,-68.0200,46.8700,M,M,M,360.00,4.00,M,30.03,M,10.00,M,BKN,M,M,M,11000.00,M,M,M,M,KCAR 011810Z AUTO 36004KT 10SM BKN110 A3003 RMK MADISHF
CAR,2017-04-01 18:15,-68.0200,46.8700,M,M,M,330.00,3.00,M,30.03,M,10.00,M,BKN,M,M,M,10000.00,M,M,M,M,KCAR 011815Z AUTO 33003KT 10SM BKN100 A3003 RMK MADISHF
CAR,2017-04-01 18:20,-68.0200,46.8700,M,M,M,0.00,0.00,M,30.03,M,10.00,M,OVC,M,M,M,10000.00,M,M,M,M,KCAR 011820Z AUTO 00000KT 10SM OVC100 A3003 RMK MADISHF
CAR,2017-04-01 18:25,-68.0200,46.8700,M,M,M,0.00,0.00,M,30.03,M,10.00,M,OVC,M,M,M,10000.00,M,M,M,M,KCAR 011825Z AUTO 00000KT 10SM OVC100 A3003 RMK MADISHF
CAR,2017-04-01 18:30,-68.0200,46.8700,M,M,M,300.00,3.00,M,30.03,M,10.00,M,OVC,M,M,M,10000.00,M,M,M,M,KCAR 011830Z AUTO 30003KT 10SM OVC100 A3003 RMK MADISHF
CAR,2017-04-01 18:35,-68.0200,46.8700,M,M,M,0.00,0.00,M,30.02,M,10.00,M,OVC,M,M,M,10000.00,M,M,M,M,KCAR 011835Z AUTO 00000KT 10SM OVC100 A3002 RMK MADISHF
CAR,2017-04-01 18:40,-68.0200,46.8700,M,M,M,310.00,3.00,M,30.02,M,10.00,M,OVC,M,M,M,10000.00,M,M,M,M,KCAR 011840Z AUTO 31003KT 10SM OVC100 A3002 RMK MADISHF
CAR,2017-04-01 18:45,-68.0200,46.8700,M,M,M,330.00,3.00,M,30.02,M,10.00,M,BKN,M,M,M,10000.00,M,M,M,M,KCAR 011845Z AUTO 33003KT 10SM BKN100 A3002 RMK MADISHF
CAR,2017-04-01 18:50,-68.0200,46.8700,M,M,M,330.00,5.00,M,30.02,M,10.00,M,BKN,M,M,M,9500.00,M,M,M,M,KCAR 011850Z AUTO 33005KT 10SM BKN095 A3002 RMK MADISHF
CAR,2017-04-01 18:54,-68.0200,46.8700,39.00,10.00,29.77,330.00,5.00,0.00,30.02,1017.50,10.00,M,BKN,M,M,M,9000.00,M,M,M,M,KCAR 011854Z AUTO 33005KT 10SM BKN090 04/M12 A3002 RMK AO2 SLP175 T00391122
CAR,2017-04-01 18:55,-68.0200,46.8700,M,M,M,330.00,4.00,M,30.02,M,10.00,M,BKN,M,M,M,9000.00,M,M,M,M,KCAR 011855Z AUTO 33004KT 10SM BKN090 A3002 RMK MADISHF
CAR,2017-04-01 19:00,-68.0200,46.8700,M,M,M,330.00,4.00,M,30.01,M,10.00,M,BKN,M,M,M,9000.00,M,M,M,M,KCAR 011900Z AUTO 33004KT 10SM BKN090 A3001 RMK MADISHF
CAR,2017-04-01 19:05,-68.0200,46.8700,M,M,M,320.00,3.00,M,30.01,M,10.00,M,BKN,M,M,M,9000.00,M,M,M,M,KCAR 011905Z AUTO 32003KT 10SM BKN090 A3001 RMK MADISHF
CAR,2017-04-01 19:10,-68.0200,46.8700,M,M,M,320.00,4.00,M,30.01,M,10.00,M,OVC,M,M,M,8500.00,M,M,M,M,KCAR 011910Z AUTO 32004KT 10SM OVC085 A3001 RMK MADISHF
CAR,2017-04-01 19:15,-68.0200,46.8700,M,M,M,330.00,4.00,M,30.01,M,10.00,M,OVC,M,M,M,8500.00,M,M,M,M,KCAR 011915Z AUTO 33004KT 10SM OVC085 A3001 RMK MADISHF
CAR,2017-04-01 19:20,-68.0200,46.8700,M,M,M,320.00,3.00,M,30.01,M,10.00,M,OVC,M,M,M,8500.00,M,M,M,M,KCAR 011920Z AUTO 32003KT 10SM OVC085 A3001 RMK MADISHF
CAR,2017-04-01 19:25,-68.0200,46.8700,M,M,M,0.00,0.00,M,30.00,M,10.00,M,OVC,M,M,M,8500.00,M,M,M,M,KCAR 011925Z AUTO 00000KT 10SM OVC085 A3000 RMK MADISHF
CAR,2017-04-01 19:30,-68.0200,46.8700,M,M,M,0.00,0.00,M,30.00,M,10.00,M,OVC,M,M,M,8500.00,M,M,M,M,KCAR 011930Z AUTO 00000KT 10SM OVC085 A3000 RMK MADISHF
CAR,2017-04-01 19:35,-68.0200,46.8700,M,M,M,320.00,4.00,M,30.00,M,10.00,M,OVC,M,M,M,8500.00,M,M,M,M,KCAR 011935Z AUTO 32004KT 10SM OVC085 A3000 RMK MADISHF
CAR,2017-04-01 19:40,-68.0200,46.8700,M,M,M,320.00,3.00,M,30.00,M,10.00,M,OVC,M,M,M,8500.00,M,M,M,M,KCAR 011940Z AUTO 32003KT 10SM OVC085 A3000 RMK MADISHF
CAR,2017-04-01 19:45,-68.0200,46.8700,M,M,M,0.00,0.00,M,30.00,M,10.00,M,OVC,M,M,M,8500.00,M,M,M,M,KCAR 011945Z AUTO 00000KT 10SM OVC085 A3000 RMK MADISHF
CAR,2017-04-01 19:50,-68.0200,46.8700,M,M,M,310.00,3.00,M,30.00,M,10.00,M,OVC,M,M,M,8500.00,M,M,M,M,KCAR 011950Z AUTO 31003KT 10SM OVC085 A3000 RMK MADISHF
CAR,2017-04-01 19:54,-68.0200,46.8700,39.90,9.00,27.49,300.00,3.00,0.00,30.00,1017.00,10.00,M,OVC,M,M,M,8500.00,M,M,M,M,KCAR 011954Z AUTO 30003KT 10SM OVC085 04/M13 A3000 RMK AO2 SLP170 T00441128
CAR,2017-04-01 19:55,-68.0200,46.8700,M,M,M,0.00,0.00,M,30.00,M,10.00,M,OVC,M,M,M,8500.00,M,M,M,M,KCAR 011955Z AUTO 00000KT 10SM OVC085 A3000 RMK MADISHF
CAR,2017-04-01 20:00,-68.0200,46.8700,M,M,M,0.00,0.00,M,30.00,M,10.00,M,OVC,M,M,M,8500.00,M,M,M,M,KCAR 012000Z AUTO 00000KT 10SM OVC085 A3000 RMK MADISHF
CAR,2017-04-01 20:05,-68.0200,46.8700,M,M,M,310.00,3.00,M,30.00,M,10.00,M,OVC,M,M,M,7999.00,M,M,M,M,KCAR 012005Z AUTO 31003KT 10SM OVC079 A3000 RMK MADISHF
CAR,2017-04-01 20:10,-68.0200,46.8700,M,M,M,320.00,3.00,M,30.00,M,10.00,M,OVC,M,M,M,7999.00,M,M,M,M,KCAR 012010Z AUTO 32003KT 10SM OVC079 A3000 RMK MADISHF
CAR,2017-04-01 20:15,-68.0200,46.8700,M,M,M,310.00,3.00,M,29.99,M,10.00,M,OVC,M,M,M,7999.00,M,M,M,M,KCAR 012015Z AUTO 31003KT 10SM OVC079 A2999 RMK MADISHF
CAR,2017-04-01 20:20,-68.0200,46.8700,M,M,M,310.00,3.00,M,29.99,M,10.00,M,OVC,M,M,M,7999.00,M,M,M,M,KCAR 012020Z AUTO 31003KT 10SM OVC079 A2999 RMK MADISHF
CAR,2017-04-01 20:25,-68.0200,46.8700,M,M,M,320.00,3.00,M,29.99,M,10.00,M,OVC,M,M,M,7999.00,M,M,M,M,KCAR 012025Z AUTO 32003KT 10SM OVC079 A2999 RMK MADISHF
CAR,2017-04-01 20:30,-68.0200,46.8700,M,M,M,320.00,3.00,M,29.99,M,10.00,M,OVC,M,M,M,7999.00,M,M,M,M,KCAR 012030Z AUTO 32003KT 10SM OVC079 A2999 RMK MADISHF
CAR,2017-04-01 20:35,-68.0200,46.8700,M,M,M,320.00,4.00,M,29.99,M,10.00,M,OVC,M,M,M,8500.00,M,M,M,M,KCAR 012035Z AUTO 32004KT 10SM OVC085 A2999 RMK MADISHF
CAR,2017-04-01 20:40,-68.0200,46.8700,M,M,M,320.00,4.00,M,29.99,M,10.00,M,OVC,M,M,M,8500.00,M,M,M,M,KCAR 012040Z AUTO 32004KT 10SM OVC085 A2999 RMK MADISHF
CAR,2017-04-01 20:45,-68.0200,46.8700,M,M,M,310.00,3.00,M,29.99,M,10.00,M,OVC,M,M,M,8500.00,M,M,M,M,KCAR 012045Z AUTO 31003KT 10SM OVC085 A2999 RMK MADISHF
CAR,2017-04-01 20:50,-68.0200,46.8700,M,M,M,310.00,4.00,M,29.99,M,10.00,M,OVC,M,M,M,8500.00,M,M,M,M,KCAR 012050Z AUTO 31004KT 10SM OVC085 A2999 RMK MADISHF
CAR,2017-04-01 20:54,-68.0200,46.8700,39.00,12.00,32.54,310.00,4.00,0.00,29.99,1016.70,10.00,M,OVC,M,M,M,9000.00,M,M,M,M,KCAR 012054Z AUTO 31004KT 10SM OVC090 04/M11 A2999 RMK AO2 SLP167 T00391111 56015
CAR,2017-04-01 20:55,-68.0200,46.8700,M,M,M,310.00,4.00,M,29.99,M,10.00,M,OVC,M,M,M,8500.00,M,M,M,M,KCAR 012055Z AUTO 31004KT 10SM OVC085 A2999 RMK MADISHF
CAR,2017-04-01 21:00,-68.0200,46.8700,M,M,M,300.00,3.00,M,29.99,M,10.00,M,OVC,M,M,M,8500.00,M,M,M,M,KCAR 012100Z AUTO 30003KT 10SM OVC085 A2999 RMK MADISHF
CAR,2017-04-01 21:05,-68.0200,46.8700,M,M,M,290.00,3.00,M,29.99,M,10.00,M,OVC,M,M,M,8500.00,M,M,M,M,KCAR 012105Z AUTO 29003KT 10SM OVC085 A2999 RMK MADISHF
CAR,2017-04-01 21:10,-68.0200,46.8700,M,M,M,300.00,3.00,M,29.99,M,10.00,M,OVC,M,M,M,8500.00,M,M,M,M,KCAR 012110Z AUTO 30003KT 10SM OVC085 A2999 RMK MADISHF
CAR,2017-04-01 21:15,-68.0200,46.8700,M,M,M,310.00,3.00,M,29.99,M,10.00,M,OVC,M,M,M,8500.00,M,M,M,M,KCAR 012115Z AUTO 31003KT 10SM OVC085 A2999 RMK MADISHF
CAR,2017-04-01 21:20,-68.0200,46.8700,M,M,M,300.00,3.00,M,29.99,M,10.00,M,OVC,M,M,M,8500.00,M,M,M,M,KCAR 012120Z AUTO 30003KT 10SM OVC085 A2999 RMK MADISHF
CAR,2017-04-01 21:25,-68.0200,46.8700,M,M,M,0.00,0.00,M,29.98,M,10.00,M,OVC,M,M,M,7999.00,M,M,M,M,KCAR 012125Z AUTO 00000KT 10SM OVC079 A2998 RMK MADISHF
CAR,2017-04-01 21:30,-68.0200,46.8700,M,M,M,0.00,0.00,M,29.98,M,10.00,M,OVC,M,M,M,7999.00,M,M,M,M,KCAR 012130Z AUTO 00000KT 10SM OVC079 A2998 RMK MADISHF
CAR,2017-04-01 21:35,-68.0200,46.8700,M,M,M,0.00,0.00,M,29.99,M,10.00,M,OVC,M,M,M,7999.00,M,M,M,M,KCAR 012135Z AUTO 00000KT 10SM OVC079 A2999 RMK MADISHF
CAR,2017-04-01 21:40,-68.0200,46.8700,M,M,M,0.00,0.00,M,29.99,M,10.00,M,OVC,M,M,M,7999.00,M,M,M,M,KCAR 012140Z AUTO 00000KT 10SM OVC079 A2999 RMK MADISHF
CAR,2017-04-01 21:45,-68.0200,46.8700,M,M,M,0.00,0.00,M,29.99,M,10.00,M,BKN,OVC,M,M,7999.00,9000.00,M,M,M,KCAR 012145Z AUTO 00000KT 10SM BKN079 OVC090 A2999 RMK MADISHF
CAR,2017-04-01 21:50,-68.0200,46.8700,M,M,M,0.00,0.00,M,29.99,M,10.00,M,OVC,M,M,M,8500.00,M,M,M,M,KCAR 012150Z AUTO 00000KT 10SM OVC085 A2999 RMK MADISHF
CAR,2017-04-01 21:54,-68.0200,46.8700,39.00,12.00,32.54,0.00,0.00,0.00,29.99,1016.50,10.00,M,OVC,M,M,M,9000.00,M,M,M,M,KCAR 012154Z AUTO 00000KT 10SM OVC090 04/M11 A2999 RMK AO2 SLP165 T00391111
CAR,2017-04-01 21:55,-68.0200,46.8700,M,M,M,0.00,0.00,M,29.99,M,10.00,M,OVC,M,M,M,9000.00,M,M,M,M,KCAR 012155Z AUTO 00000KT 10SM OVC090 A2999 RMK MADISHF
CAR,2017-04-01 22:00,-68.0200,46.8700,M,M,M,0.00,0.00,M,29.99,M,10.00,M,OVC,M,M,M,9000.00,M,M,M,M,KCAR 012200Z AUTO 00000KT 10SM OVC090 A2999 RMK MADISHF
CAR,2017-04-01 22:05,-68.0200,46.8700,M,M,M,0.00,0.00,M,29.99,M,10.00,M,OVC,M,M,M,9000.00,M,M,M,M,KCAR 012205Z AUTO 00000KT 10SM OVC090 A2999 RMK MADISHF
CAR,2017-04-01 22:10,-68.0200,46.8700,M,M,M,0.00,0.00,M,29.99,M,10.00,M,OVC,M,M,M,9000.00,M,M,M,M,KCAR 012210Z AUTO 00000KT 10SM OVC090 A2999 RMK MADISHF
CAR,2017-04-01 22:15,-68.0200,46.8700,M,M,M,290.00,3.00,M,29.99,M,10.00,M,OVC,M,M,M,9000.00,M,M,M,M,KCAR 012215Z AUTO 29003KT 10SM OVC090 A2999 RMK MADISHF
CAR,2017-04-01 22:20,-68.0200,46.8700,M,M,M,300.00,3.00,M,29.99,M,10.00,M,OVC,M,M,M,9000.00,M,M,M,M,KCAR 012220Z AUTO 30003KT 10SM OVC090 A2999 RMK MADISHF
CAR,2017-04-01 22:25,-68.0200,46.8700,M,M,M,310.00,3.00,M,29.99,M,10.00,M,OVC,M,M,M,9000.00,M,M,M,M,KCAR 012225Z AUTO 31003KT 10SM OVC090 A2999 RMK MADISHF
CAR,2017-04-01 22:30,-68.0200,46.8700,M,M,M,310.00,3.00,M,29.99,M,10.00,M,OVC,M,M,M,9000.00,M,M,M,M,KCAR 012230Z AUTO 31003KT 10SM OVC090 A2999 RMK MADISHF
CAR,2017-04-01 22:35,-68.0200,46.8700,M,M,M,320.00,3.00,M,29.99,M,10.00,M,OVC,M,M,M,9500.00,M,M,M,M,KCAR 012235Z AUTO 32003KT 10SM OVC095 A2999 RMK MADISHF
CAR,2017-04-01 22:40,-68.0200,46.8700,M,M,M,320.00,3.00,M,29.99,M,10.00,M,OVC,M,M,M,9000.00,M,M,M,M,KCAR 012240Z AUTO 32003KT 10SM OVC090 A2999 RMK MADISHF
CAR,2017-04-01 22:45,-68.0200,46.8700,M,M,M,0.00,0.00,M,29.99,M,10.00,M,OVC,M,M,M,9000.00,M,M,M,M,KCAR 012245Z AUTO 00000KT 10SM OVC090 A2999 RMK MADISHF
CAR,2017-04-01 22:50,-68.0200,46.8700,M,M,M,330.00,3.00,M,29.99,M,10.00,M,OVC,M,M,M,9000.00,M,M,M,M,KCAR 012250Z AUTO 33003KT 10SM OVC090 A2999 RMK MADISHF
CAR,2017-04-01 22:54,-68.0200,46.8700,39.00,10.90,30.99,350.00,3.00,0.00,29.98,1016.50,10.00,M,OVC,M,M,M,9000.00,M,M,M,M,KCAR 012254Z AUTO 35003KT 10SM OVC090 04/M12 A2998 RMK AO2 SLP165 T00391117
CAR,2017-04-01 22:55,-68.0200,46.8700,M,M,M,350.00,3.00,M,29.98,M,10.00,M,OVC,M,M,M,9000.00,M,M,M,M,KCAR 012255Z AUTO 35003KT 10SM OVC090 A2998 RMK MADISHF
CAR,2017-04-01 23:00,-68.0200,46.8700,M,M,M,350.00,4.00,M,29.99,M,10.00,M,OVC,M,M,M,9000.00,M,M,M,M,KCAR 012300Z AUTO 35004KT 10SM OVC090 A2999 RMK MADISHF
CAR,2017-04-01 23:05,-68.0200,46.8700,M,M,M,350.00,4.00,M,29.99,M,10.00,M,OVC,M,M,M,9000.00,M,M,M,M,KCAR 012305Z AUTO 35004KT 10SM OVC090 A2999 RMK MADISHF
CAR,2017-04-01 23:10,-68.0200,46.8700,M,M,M,350.00,4.00,M,29.99,M,10.00,M,OVC,M,M,M,8500.00,M,M,M,M,KCAR 012310Z AUTO 35004KT 10SM OVC085 A2999 RMK MADISHF
CAR,2017-04-01 23:15,-68.0200,46.8700,M,M,M,350.00,4.00,M,29.99,M,10.00,M,OVC,M,M,M,8500.00,M,M,M,M,KCAR 012315Z AUTO 35004KT 10SM OVC085 A2999 RMK MADISHF
CAR,2017-04-01 23:20,-68.0200,46.8700,M,M,M,350.00,3.00,M,29.99,M,10.00,M,OVC,M,M,M,7999.00,M,M,M,M,KCAR 012320Z AUTO 35003KT 10SM OVC079 A2999 RMK MADISHF
CAR,2017-04-01 23:25,-68.0200,46.8700,M,M,M,0.00,0.00,M,29.99,M,10.00,M,OVC,M,M,M,7999.00,M,M,M,M,KCAR 012325Z AUTO 00000KT 10SM OVC079 A2999 RMK MADISHF
CAR,2017-04-01 23:30,-68.0200,46.8700,M,M,M,360.00,3.00,M,29.98,M,10.00,M,OVC,M,M,M,7999.00,M,M,M,M,KCAR 012330Z AUTO 36003KT 10SM OVC079 A2998 RMK MADISHF
CAR,2017-04-01 23:35,-68.0200,46.8700,M,M,M,0.00,0.00,M,29.98,M,10.00,M,OVC,M,M,M,7999.00,M,M,M,M,KCAR 012335Z AUTO 00000KT 10SM OVC079 A2998 RMK MADISHF
CAR,2017-04-01 23:40,-68.0200,46.8700,M,M,M,0.00,0.00,M,29.98,M,10.00,M,OVC,M,M,M,7500.00,M,M,M,M,KCAR 012340Z AUTO 00000KT 10SM OVC075 A2998 RMK MADISHF
CAR,2017-04-01 23:45,-68.0200,46.8700,M,M,M,0.00,0.00,M,29.98,M,10.00,M,OVC,M,M,M,7500.00,M,M,M,M,KCAR 012345Z AUTO 00000KT 10SM OVC075 A2998 RMK MADISHF
CAR,2017-04-01 23:50,-68.0200,46.8700,M,M,M,0.00,0.00,M,29.98,M,10.00,M,BKN,BKN,M,M,7000.00,9000.00,M,M,M,KCAR 012350Z AUTO 00000KT 10SM BKN070 BKN090 A2998 RMK MADISHF
CAR,2017-04-01 23:54,-68.0200,46.8700,35.10,18.00,49.31,0.00,0.00,0.00,29.98,1016.40,10.00,M,BKN,BKN,M,M,7000.00,9500.00,M,M,M,KCAR 012354Z AUTO 00000KT 10SM BKN070 BKN095 02/M08 A2998 RMK AO2 SLP164 T00171078 10044 20017 56002
CAR,2017-04-01 23:55,-68.0200,46.8700,M,M,M,0.00,0.00,M,29.98,M,10.00,M,BKN,BKN,M,M,7000.00,9500.00,M,M,M,KCAR 012355Z AUTO 00000KT 10SM BKN070 BKN095 A2998 RMK MADISHF
