#DEBUG: Format Typ    -> comma
#DEBUG: Time Period   -> 2017-04-01 00:00:00+00:00 2017-04-02 00:00:00+00:00
#DEBUG: Time Zone     -> Etc/UTC
#DEBUG: Data Contact   -> daryl herzmann akrherz@iastate.edu 515-294-5978
#DEBUG: Entries Found -> -1
station,valid,lon,lat,tmpf, dwpf, relh, drct, sknt, p01i, alti, mslp, vsby, gust, skyc1, skyc2, skyc3, skyc4, skyl1, skyl2, skyl3, skyl4, presentwx, metar
CAV,2017-04-01 00:00,-93.7593,42.7430,42.80,41.00,93.30,30.00,7.00,0.00,30.04,M,10.00,M,OVC,M,M,M,2000.00,M,M,M,M,KCAV 010000Z AUTO 03007KT 10SM OVC020 06/05 A3004 RMK AO2 PWINO
CAV,2017-04-01 00:10,-93.7593,42.7430,42.80,41.00,93.30,20.00,7.00,0.00,30.04,M,10.00,M,BKN,OVC,M,M,2100.00,2800.00,M,M,M,KCAV 010010Z AUTO 02007KT 10SM BKN021 OVC028 06/05 A3004 RMK AO2 PWINO
CAV,2017-04-01 00:15,-93.7593,42.7430,42.80,41.00,93.30,30.00,6.00,0.00,30.04,M,10.00,M,SCT,OVC,M,M,2000.00,2800.00,M,M,M,KCAV 010015Z AUTO 03006KT 10SM SCT020 OVC028 06/05 A3004 RMK AO2 PWINO
CAV,2017-04-01 00:20,-93.7593,42.7430,42.80,41.00,93.30,30.00,5.00,0.00,30.05,M,10.00,M,FEW,OVC,M,M,2000.00,2900.00,M,M,M,KCAV 010020Z AUTO 03005KT 10SM FEW020 OVC029 06/05 A3005 RMK AO2 PWINO
CAV,2017-04-01 00:30,-93.7593,42.7430,41.00,41.00,100.00,40.00,5.00,0.00,30.05,M,10.00,M,OVC,M,M,M,2900.00,M,M,M,M,KCAV 010030Z AUTO 04005KT 10SM OVC029 05/05 A3005 RMK AO2 PWINO
CAV,2017-04-01 00:35,-93.7593,42.7430,41.00,41.00,100.00,20.00,5.00,0.00,30.05,M,10.00,M,OVC,M,M,M,2900.00,M,M,M,M,KCAV 010035Z AUTO 02005KT 10SM OVC029 05/05 A3005 RMK AO2 PWINO
CAV,2017-04-01 00:40,-93.7593,42.7430,41.00,41.00,100.00,30.00,5.00,0.00,30.05,M,10.00,M,OVC,M,M,M,2900.00,M,M,M,M,KCAV 010040Z AUTO 03005KT 10SM OVC029 05/05 A3005 RMK AO2 PWINO
CAV,2017-04-01 00:50,-93.7593,42.7430,41.00,41.00,100.00,30.00,5.00,0.00,30.06,M,10.00,M,BKN,M,M,M,3000.00,M,M,M,M,KCAV 010050Z AUTO 03005KT 10SM BKN030 05/05 A3006 RMK AO2 PWINO
CAV,2017-04-01 00:55,-93.7593,42.7430,39.20,39.20,100.00,40.00,4.00,0.00,30.06,M,10.00,M,BKN,M,M,M,2900.00,M,M,M,M,KCAV 010055Z AUTO 04004KT 10SM BKN029 04/04 A3006 RMK AO2 PWINO
CAV,2017-04-01 01:00,-93.7593,42.7430,39.20,39.20,100.00,0.00,0.00,0.00,30.07,M,10.00,M,BKN,M,M,M,3100.00,M,M,M,M,KCAV 010100Z AUTO 00000KT 10SM BKN031 04/04 A3007 RMK AO2 PWINO
CAV,2017-04-01 01:10,-93.7593,42.7430,39.20,39.20,100.00,10.00,5.00,0.00,30.07,M,10.00,M,BKN,M,M,M,3200.00,M,M,M,M,KCAV 010110Z AUTO 01005KT 10SM BKN032 04/04 A3007 RMK AO2 PWINO
CAV,2017-04-01 01:15,-93.7593,42.7430,39.20,39.20,100.00,10.00,4.00,0.00,30.07,M,10.00,M,BKN,M,M,M,3300.00,M,M,M,M,KCAV 010115Z AUTO 01004KT 10SM BKN033 04/04 A3007 RMK AO2 PWINO
CAV,2017-04-01 01:20,-93.7593,42.7430,41.00,41.00,100.00,0.00,0.00,0.00,30.08,M,10.00,M,BKN,M,M,M,3200.00,M,M,M,M,KCAV 010120Z AUTO 00000KT 10SM BKN032 05/05 A3008 RMK AO2 PWINO
CAV,2017-04-01 01:30,-93.7593,42.7430,39.20,39.20,100.00,0.00,0.00,0.00,30.09,M,10.00,M,BKN,M,M,M,3200.00,M,M,M,M,KCAV 010130Z AUTO 00000KT 10SM BKN032 04/04 A3009 RMK AO2 PWINO
CAV,2017-04-01 01:35,-93.7593,42.7430,39.20,39.20,100.00,260.00,3.00,0.00,30.09,M,10.00,M,BKN,M,M,M,3300.00,M,M,M,M,KCAV 010135Z AUTO 26003KT 10SM BKN033 04/04 A3009 RMK AO2 PWINO
CAV,2017-04-01 01:40,-93.7593,42.7430,37.40,37.40,100.00,280.00,3.00,0.00,30.10,M,10.00,M,BKN,M,M,M,3300.00,M,M,M,M,KCAV 010140Z AUTO 28003KT 10SM BKN033 03/03 A3010 RMK AO2 PWINO
CAV,2017-04-01 01:50,-93.7593,42.7430,39.20,39.20,100.00,280.00,3.00,0.00,30.10,M,10.00,M,BKN,M,M,M,3300.00,M,M,M,M,KCAV 010150Z AUTO 28003KT 10SM BKN033 04/04 A3010 RMK AO2 PWINO
CAV,2017-04-01 01:55,-93.7593,42.7430,39.20,39.20,100.00,0.00,0.00,0.00,30.10,M,10.00,M,OVC,M,M,M,3300.00,M,M,M,M,KCAV 010155Z AUTO 00000KT 10SM OVC033 04/04 A3010 RMK AO2 PWINO
CAV,2017-04-01 02:00,-93.7593,42.7430,39.20,39.20,100.00,0.00,0.00,0.00,30.11,M,10.00,M,OVC,M,M,M,3400.00,M,M,M,M,KCAV 010200Z AUTO 00000KT 10SM OVC034 04/04 A3011 RMK AO2 PWINO
CAV,2017-04-01 02:10,-93.7593,42.7430,39.20,39.20,100.00,0.00,0.00,0.00,30.11,M,10.00,M,OVC,M,M,M,3500.00,M,M,M,M,KCAV 010210Z AUTO 00000KT 10SM OVC035 04/04 A3011 RMK AO2 PWINO
CAV,2017-04-01 02:15,-93.7593,42.7430,39.20,39.20,100.00,0.00,0.00,0.00,30.11,M,10.00,M,OVC,M,M,M,3500.00,M,M,M,M,KCAV 010215Z AUTO 00000KT 10SM OVC035 04/04 A3011 RMK AO2 PWINO
CAV,2017-04-01 02:20,-93.7593,42.7430,39.20,39.20,100.00,0.00,0.00,0.00,30.11,M,10.00,M,OVC,M,M,M,3600.00,M,M,M,M,KCAV 010220Z AUTO 00000KT 10SM OVC036 04/04 A3011 RMK AO2 PWINO
CAV,2017-04-01 02:30,-93.7593,42.7430,37.40,37.40,100.00,0.00,0.00,0.00,30.11,M,10.00,M,BKN,M,M,M,3600.00,M,M,M,M,KCAV 010230Z AUTO 00000KT 10SM BKN036 03/03 A3011 RMK AO2 PWINO
CAV,2017-04-01 02:35,-93.7593,42.7430,39.20,39.20,100.00,0.00,0.00,0.00,30.11,M,10.00,M,SCT,M,M,M,3600.00,M,M,M,M,KCAV 010235Z AUTO 00000KT 10SM SCT036 04/04 A3011 RMK AO2 PWINO
CAV,2017-04-01 02:40,-93.7593,42.7430,39.20,39.20,100.00,0.00,0.00,0.00,30.11,M,10.00,M,FEW,M,M,M,3600.00,M,M,M,M,KCAV 010240Z AUTO 00000KT 10SM FEW036 04/04 A3011 RMK AO2 PWINO
CAV,2017-04-01 02:50,-93.7593,42.7430,35.60,35.60,100.00,0.00,0.00,0.00,30.12,M,10.00,M,CLR,M,M,M,M,M,M,M,M,KCAV 010250Z AUTO 00000KT 10SM CLR 02/02 A3012 RMK AO2 PWINO
CAV,2017-04-01 02:55,-93.7593,42.7430,35.60,35.60,100.00,0.00,0.00,0.00,30.12,M,10.00,M,CLR,M,M,M,M,M,M,M,M,KCAV 010255Z AUTO 00000KT 10SM CLR 02/02 A3012 RMK AO2 PWINO
CAV,2017-04-01 03:00,-93.7593,42.7430,35.60,35.60,100.00,0.00,0.00,0.00,30.12,M,10.00,M,CLR,M,M,M,M,M,M,M,M,KCAV 010300Z AUTO 00000KT 10SM CLR 02/02 A3012 RMK AO2 PWINO
CAV,2017-04-01 03:10,-93.7593,42.7430,35.60,35.60,100.00,0.00,0.00,0.00,30.12,M,10.00,M,CLR,M,M,M,M,M,M,M,M,KCAV 010310Z AUTO 00000KT 10SM CLR 02/02 A3012 RMK AO2 PWINO
CAV,2017-04-01 03:15,-93.7593,42.7430,35.60,35.60,100.00,230.00,3.00,0.00,30.13,M,10.00,M,CLR,M,M,M,M,M,M,M,M,KCAV 010315Z AUTO 23003KT 10SM CLR 02/02 A3013 RMK AO2 PWINO
CAV,2017-04-01 03:20,-93.7593,42.7430,35.60,35.60,100.00,0.00,0.00,0.00,30.13,M,10.00,M,CLR,M,M,M,M,M,M,M,M,KCAV 010320Z AUTO 00000KT 10SM CLR 02/02 A3013 RMK AO2 PWINO
CAV,2017-04-01 03:30,-93.7593,42.7430,33.80,33.80,100.00,0.00,0.00,0.00,30.13,M,10.00,M,CLR,M,M,M,M,M,M,M,M,KCAV 010330Z AUTO 00000KT 10SM CLR 01/01 A3013 RMK AO2 PWINO
CAV,2017-04-01 03:35,-93.7593,42.7430,33.80,33.80,100.00,240.00,3.00,0.00,30.13,M,10.00,M,CLR,M,M,M,M,M,M,M,M,KCAV 010335Z AUTO 24003KT 10SM CLR 01/01 A3013 RMK AO2 PWINO
CAV,2017-04-01 03:40,-93.7593,42.7430,33.80,33.80,100.00,230.00,3.00,0.00,30.13,M,10.00,M,CLR,M,M,M,M,M,M,M,M,KCAV 010340Z AUTO 23003KT 10SM CLR 01/01 A3013 RMK AO2 PWINO
CAV,2017-04-01 03:50,-93.7593,42.7430,33.80,33.80,100.00,0.00,0.00,0.00,30.14,M,10.00,M,CLR,M,M,M,M,M,M,M,M,KCAV 010350Z AUTO 00000KT 10SM CLR 01/01 A3014 RMK AO2 PWINO
CAV,2017-04-01 03:55,-93.7593,42.7430,33.80,33.80,100.00,0.00,0.00,0.00,30.14,M,10.00,M,CLR,M,M,M,M,M,M,M,M,KCAV 010355Z AUTO 00000KT 10SM CLR 01/01 A3014 RMK AO2 PWINO
CAV,2017-04-01 04:00,-93.7593,42.7430,33.80,33.80,100.00,0.00,0.00,0.00,30.14,M,10.00,M,CLR,M,M,M,M,M,M,M,M,KCAV 010400Z AUTO 00000KT 10SM CLR 01/01 A3014 RMK AO2 PWINO
CAV,2017-04-01 04:10,-93.7593,42.7430,33.80,33.80,100.00,0.00,0.00,0.00,30.14,M,10.00,M,CLR,M,M,M,M,M,M,M,M,KCAV 010410Z AUTO 00000KT 10SM CLR 01/01 A3014 RMK AO2 PWINO
CAV,2017-04-01 04:15,-93.7593,42.7430,33.80,33.80,100.00,0.00,0.00,0.00,30.14,M,10.00,M,CLR,M,M,M,M,M,M,M,M,KCAV 010415Z AUTO 00000KT 10SM CLR 01/01 A3014 RMK AO2 PWINO
CAV,2017-04-01 04:20,-93.7593,42.7430,35.60,35.60,100.00,0.00,0.00,0.00,30.14,M,10.00,M,CLR,M,M,M,M,M,M,M,M,KCAV 010420Z AUTO 00000KT 10SM CLR 02/02 A3014 RMK AO2 PWINO
CAV,2017-04-01 04:30,-93.7593,42.7430,33.80,33.80,100.00,0.00,0.00,0.00,30.14,M,9.00,M,CLR,M,M,M,M,M,M,M,M,KCAV 010430Z AUTO 00000KT 9SM CLR 01/01 A3014 RMK AO2 PWINO
CAV,2017-04-01 04:35,-93.7593,42.7430,35.60,35.60,100.00,0.00,0.00,0.00,30.13,M,9.00,M,CLR,M,M,M,M,M,M,M,M,KCAV 010435Z AUTO 00000KT 9SM CLR 02/02 A3013 RMK AO2 PWINO
CAV,2017-04-01 04:40,-93.7593,42.7430,35.60,35.60,100.00,0.00,0.00,0.00,30.13,M,8.00,M,CLR,M,M,M,M,M,M,M,M,KCAV 010440Z AUTO 00000KT 8SM CLR 02/02 A3013 RMK AO2 PWINO
CAV,2017-04-01 04:50,-93.7593,42.7430,35.60,35.60,100.00,0.00,0.00,0.00,30.13,M,9.00,M,CLR,M,M,M,M,M,M,M,M,KCAV 010450Z AUTO 00000KT 9SM CLR 02/02 A3013 RMK AO2 PWINO
CAV,2017-04-01 04:55,-93.7593,42.7430,33.80,33.80,100.00,0.00,0.00,0.00,30.14,M,10.00,M,CLR,M,M,M,M,M,M,M,M,KCAV 010455Z AUTO 00000KT 10SM CLR 01/01 A3014 RMK AO2 PWINO
CAV,2017-04-01 05:00,-93.7593,42.7430,33.80,33.80,100.00,0.00,0.00,0.00,30.14,M,9.00,M,CLR,M,M,M,M,M,M,M,M,KCAV 010500Z AUTO 00000KT 9SM CLR 01/01 A3014 RMK AO2 PWINO
CAV,2017-04-01 05:10,-93.7593,42.7430,33.80,33.80,100.00,0.00,0.00,0.00,30.14,M,10.00,M,CLR,M,M,M,M,M,M,M,M,KCAV 010510Z AUTO 00000KT 10SM CLR 01/01 A3014 RMK AO2 PWINO
CAV,2017-04-01 05:15,-93.7593,42.7430,33.80,33.80,100.00,0.00,0.00,0.00,30.13,M,10.00,M,CLR,M,M,M,M,M,M,M,M,KCAV 010515Z AUTO 00000KT 10SM CLR 01/01 A3013 RMK AO2 PWINO
CAV,2017-04-01 05:20,-93.7593,42.7430,33.80,33.80,100.00,0.00,0.00,0.00,30.13,M,10.00,M,CLR,M,M,M,M,M,M,M,M,KCAV 010520Z AUTO 00000KT 10SM CLR 01/01 A3013 RMK AO2 PWINO
CAV,2017-04-01 05:30,-93.7593,42.7430,33.80,33.80,100.00,0.00,0.00,0.00,30.13,M,10.00,M,CLR,M,M,M,M,M,M,M,M,KCAV 010530Z AUTO 00000KT 10SM CLR 01/01 A3013 RMK AO2 PWINO
CAV,2017-04-01 05:35,-93.7593,42.7430,32.00,32.00,100.00,0.00,0.00,0.00,30.13,M,10.00,M,CLR,M,M,M,M,M,M,M,M,KCAV 010535Z AUTO 00000KT 10SM CLR 00/00 A3013 RMK AO2 PWINO
CAV,2017-04-01 05:40,-93.7593,42.7430,33.80,33.80,100.00,0.00,0.00,0.00,30.14,M,10.00,M,CLR,M,M,M,M,M,M,M,M,KCAV 010540Z AUTO 00000KT 10SM CLR 01/01 A3014 RMK AO2 PWINO
CAV,2017-04-01 05:50,-93.7593,42.7430,33.80,33.80,100.00,0.00,0.00,0.00,30.14,M,10.00,M,CLR,M,M,M,M,M,M,M,M,KCAV 010550Z AUTO 00000KT 10SM CLR 01/01 A3014 RMK AO2 PWINO
CAV,2017-04-01 05:55,-93.7593,42.7430,33.80,33.80,100.00,0.00,0.00,0.00,30.15,M,10.00,M,CLR,M,M,M,M,M,M,M,M,KCAV 010555Z AUTO 00000KT 10SM CLR 01/01 A3015 RMK AO2 PWINO
CAV,2017-04-01 06:00,-93.7593,42.7430,33.80,33.80,100.00,0.00,0.00,0.00,30.15,M,10.00,M,CLR,M,M,M,M,M,M,M,M,KCAV 010600Z AUTO 00000KT 10SM CLR 01/01 A3015 RMK AO2 PWINO
CAV,2017-04-01 06:10,-93.7593,42.7430,32.00,32.00,100.00,350.00,4.00,0.00,30.15,M,9.00,M,CLR,M,M,M,M,M,M,M,M,KCAV 010610Z AUTO 35004KT 9SM CLR 00/00 A3015 RMK AO2 PWINO
CAV,2017-04-01 06:15,-93.7593,42.7430,33.80,33.80,100.00,0.00,0.00,0.00,30.15,M,9.00,M,CLR,M,M,M,M,M,M,M,M,KCAV 010615Z AUTO 00000KT 9SM CLR 01/01 A3015 RMK AO2 PWINO
CAV,2017-04-01 06:20,-93.7593,42.7430,33.80,33.80,100.00,0.00,0.00,0.00,30.16,M,10.00,M,CLR,M,M,M,M,M,M,M,M,KCAV 010620Z AUTO 00000KT 10SM CLR 01/01 A3016 RMK AO2 PWINO
CAV,2017-04-01 06:30,-93.7593,42.7430,32.00,32.00,100.00,0.00,0.00,0.00,30.16,M,9.00,M,CLR,M,M,M,M,M,M,M,M,KCAV 010630Z AUTO 00000KT 9SM CLR 00/00 A3016 RMK AO2 PWINO
CAV,2017-04-01 06:35,-93.7593,42.7430,32.00,32.00,100.00,300.00,3.00,0.00,30.16,M,9.00,M,CLR,M,M,M,M,M,M,M,M,KCAV 010635Z AUTO 30003KT 9SM CLR 00/00 A3016 RMK AO2 PWINO
CAV,2017-04-01 06:40,-93.7593,42.7430,32.00,32.00,100.00,0.00,0.00,0.00,30.17,M,9.00,M,CLR,M,M,M,M,M,M,M,M,KCAV 010640Z AUTO 00000KT 9SM CLR 00/00 A3017 RMK AO2 PWINO
CAV,2017-04-01 06:50,-93.7593,42.7430,32.00,32.00,100.00,280.00,3.00,0.00,30.17,M,10.00,M,CLR,M,M,M,M,M,M,M,M,KCAV 010650Z AUTO 28003KT 10SM CLR 00/00 A3017 RMK AO2 PWINO
CAV,2017-04-01 06:55,-93.7593,42.7430,32.00,32.00,100.00,290.00,3.00,0.00,30.17,M,10.00,M,CLR,M,M,M,M,M,M,M,M,KCAV 010655Z AUTO 29003KT 10SM CLR 00/00 A3017 RMK AO2 PWINO
CAV,2017-04-01 07:00,-93.7593,42.7430,32.00,32.00,100.00,310.00,3.00,0.00,30.17,M,10.00,M,CLR,M,M,M,M,M,M,M,M,KCAV 010700Z AUTO 31003KT 10SM CLR 00/00 A3017 RMK AO2 PWINO
CAV,2017-04-01 07:10,-93.7593,42.7430,33.80,33.80,100.00,310.00,3.00,0.00,30.17,M,10.00,M,CLR,M,M,M,M,M,M,M,M,KCAV 010710Z AUTO 31003KT 10SM CLR 01/01 A3017 RMK AO2 PWINO
CAV,2017-04-01 07:15,-93.7593,42.7430,33.80,33.80,100.00,300.00,3.00,0.00,30.17,M,10.00,M,CLR,M,M,M,M,M,M,M,M,KCAV 010715Z AUTO 30003KT 10SM CLR 01/01 A3017 RMK AO2 PWINO
CAV,2017-04-01 07:20,-93.7593,42.7430,33.80,33.80,100.00,0.00,0.00,0.00,30.17,M,10.00,M,CLR,M,M,M,M,M,M,M,M,KCAV 010720Z AUTO 00000KT 10SM CLR 01/01 A3017 RMK AO2 PWINO
CAV,2017-04-01 07:30,-93.7593,42.7430,33.80,33.80,100.00,0.00,0.00,0.00,30.18,M,10.00,M,CLR,M,M,M,M,M,M,M,M,KCAV 010730Z AUTO 00000KT 10SM CLR 01/01 A3018 RMK AO2 PWINO
CAV,2017-04-01 07:35,-93.7593,42.7430,32.00,32.00,100.00,0.00,0.00,0.00,30.18,M,10.00,M,CLR,M,M,M,M,M,M,M,M,KCAV 010735Z AUTO 00000KT 10SM CLR 00/00 A3018 RMK AO2 PWINO
CAV,2017-04-01 07:40,-93.7593,42.7430,32.00,32.00,100.00,0.00,0.00,0.00,30.18,M,10.00,M,CLR,M,M,M,M,M,M,M,M,KCAV 010740Z AUTO 00000KT 10SM CLR 00/00 A3018 RMK AO2 PWINO
CAV,2017-04-01 07:50,-93.7593,42.7430,32.00,32.00,100.00,0.00,0.00,0.00,30.18,M,10.00,M,CLR,M,M,M,M,M,M,M,M,KCAV 010750Z AUTO 00000KT 10SM CLR 00/00 A3018 RMK AO2 PWINO
CAV,2017-04-01 07:55,-93.7593,42.7430,32.00,32.00,100.00,0.00,0.00,0.00,30.18,M,9.00,M,CLR,M,M,M,M,M,M,M,M,KCAV 010755Z AUTO 00000KT 9SM CLR 00/00 A3018 RMK AO2 PWINO
CAV,2017-04-01 08:00,-93.7593,42.7430,32.00,32.00,100.00,0.00,0.00,0.00,30.18,M,9.00,M,CLR,M,M,M,M,M,M,M,M,KCAV 010800Z AUTO 00000KT 9SM CLR 00/00 A3018 RMK AO2 PWINO
CAV,2017-04-01 08:10,-93.7593,42.7430,33.80,33.80,100.00,0.00,0.00,0.00,30.18,M,10.00,M,CLR,M,M,M,M,M,M,M,M,KCAV 010810Z AUTO 00000KT 10SM CLR 01/01 A3018 RMK AO2 PWINO
CAV,2017-04-01 08:15,-93.7593,42.7430,33.80,33.80,100.00,0.00,0.00,0.00,30.18,M,10.00,M,CLR,M,M,M,M,M,M,M,M,KCAV 010815Z AUTO 00000KT 10SM CLR 01/01 A3018 RMK AO2 PWINO
CAV,2017-04-01 08:20,-93.7593,42.7430,33.80,33.80,100.00,0.00,0.00,0.00,30.18,M,10.00,M,CLR,M,M,M,M,M,M,M,M,KCAV 010820Z AUTO 00000KT 10SM CLR 01/01 A3018 RMK AO2 PWINO
CAV,2017-04-01 08:30,-93.7593,42.7430,33.80,33.80,100.00,0.00,0.00,0.00,30.18,M,10.00,M,CLR,M,M,M,M,M,M,M,M,KCAV 010830Z AUTO 00000KT 10SM CLR 01/01 A3018 RMK AO2 PWINO
CAV,2017-04-01 08:35,-93.7593,42.7430,33.80,33.80,100.00,0.00,0.00,0.00,30.18,M,10.00,M,CLR,M,M,M,M,M,M,M,M,KCAV 010835Z AUTO 00000KT 10SM CLR 01/01 A3018 RMK AO2 PWINO
CAV,2017-04-01 08:40,-93.7593,42.7430,32.00,32.00,100.00,0.00,0.00,0.00,30.18,M,10.00,M,CLR,M,M,M,M,M,M,M,M,KCAV 010840Z AUTO 00000KT 10SM CLR 00/00 A3018 RMK AO2 PWINO
CAV,2017-04-01 08:50,-93.7593,42.7430,32.00,32.00,100.00,0.00,0.00,0.00,30.17,M,10.00,M,CLR,M,M,M,M,M,M,M,M,KCAV 010850Z AUTO 00000KT 10SM CLR 00/00 A3017 RMK AO2 PWINO
CAV,2017-04-01 08:55,-93.7593,42.7430,33.80,33.80,100.00,0.00,0.00,0.00,30.17,M,10.00,M,CLR,M,M,M,M,M,M,M,M,KCAV 010855Z AUTO 00000KT 10SM CLR 01/01 A3017 RMK AO2 PWINO
CAV,2017-04-01 09:00,-93.7593,42.7430,33.80,33.80,100.00,0.00,0.00,0.00,30.17,M,10.00,M,CLR,M,M,M,M,M,M,M,M,KCAV 010900Z AUTO 00000KT 10SM CLR 01/01 A3017 RMK AO2 PWINO
CAV,2017-04-01 09:10,-93.7593,42.7430,33.80,33.80,100.00,350.00,4.00,0.00,30.16,M,10.00,M,CLR,M,M,M,M,M,M,M,M,KCAV 010910Z AUTO 35004KT 10SM CLR 01/01 A3016 RMK AO2 PWINO
CAV,2017-04-01 09:15,-93.7593,42.7430,33.80,33.80,100.00,350.00,4.00,0.00,30.16,M,10.00,M,CLR,M,M,M,M,M,M,M,M,KCAV 010915Z AUTO 35004KT 10SM CLR 01/01 A3016 RMK AO2 PWINO
CAV,2017-04-01 09:20,-93.7593,42.7430,33.80,33.80,100.00,340.00,5.00,0.00,30.16,M,10.00,M,CLR,M,M,M,M,M,M,M,M,KCAV 010920Z AUTO 34005KT 10SM CLR 01/01 A3016 RMK AO2 PWINO
CAV,2017-04-01 09:30,-93.7593,42.7430,33.80,33.80,100.00,340.00,5.00,0.00,30.17,M,10.00,M,CLR,M,M,M,M,M,M,M,M,KCAV 010930Z AUTO 34005KT 10SM CLR 01/01 A3017 RMK AO2 PWINO
CAV,2017-04-01 09:35,-93.7593,42.7430,33.80,33.80,100.00,330.00,4.00,0.00,30.17,M,10.00,M,CLR,M,M,M,M,M,M,M,M,KCAV 010935Z AUTO 33004KT 10SM CLR 01/01 A3017 RMK AO2 PWINO
CAV,2017-04-01 09:40,-93.7593,42.7430,35.60,35.60,100.00,320.00,4.00,0.00,30.18,M,10.00,M,CLR,M,M,M,M,M,M,M,M,KCAV 010940Z AUTO 32004KT 10SM CLR 02/02 A3018 RMK AO2 PWINO
CAV,2017-04-01 09:50,-93.7593,42.7430,33.80,33.80,100.00,320.00,3.00,0.00,30.18,M,10.00,M,CLR,M,M,M,M,M,M,M,M,KCAV 010950Z AUTO 32003KT 10SM CLR 01/01 A3018 RMK AO2 PWINO
CAV,2017-04-01 09:55,-93.7593,42.7430,33.80,33.80,100.00,320.00,4.00,0.00,30.18,M,10.00,M,CLR,M,M,M,M,M,M,M,M,KCAV 010955Z AUTO 32004KT 10SM CLR 01/01 A3018 RMK AO2 PWINO
CAV,2017-04-01 10:00,-93.7593,42.7430,33.80,33.80,100.00,320.00,5.00,0.00,30.18,M,10.00,M,CLR,M,M,M,M,M,M,M,M,KCAV 011000Z AUTO 32005KT 10SM CLR 01/01 A3018 RMK AO2 PWINO
CAV,2017-04-01 10:10,-93.7593,42.7430,33.80,33.80,100.00,330.00,4.00,0.00,30.18,M,10.00,M,CLR,M,M,M,M,M,M,M,M,KCAV 011010Z AUTO 33004KT 10SM CLR 01/01 A3018 RMK AO2 PWINO
CAV,2017-04-01 10:15,-93.7593,42.7430,33.80,33.80,100.00,330.00,5.00,0.00,30.18,M,10.00,M,CLR,M,M,M,M,M,M,M,M,KCAV 011015Z AUTO 33005KT 10SM CLR 01/01 A3018 RMK AO2 PWINO
CAV,2017-04-01 10:20,-93.7593,42.7430,33.80,33.80,100.00,340.00,5.00,0.00,30.19,M,10.00,M,CLR,M,M,M,M,M,M,M,M,KCAV 011020Z AUTO 34005KT 10SM CLR 01/01 A3019 RMK AO2 PWINO
CAV,2017-04-01 10:30,-93.7593,42.7430,33.80,33.80,100.00,340.00,4.00,0.00,30.19,M,10.00,M,CLR,M,M,M,M,M,M,M,M,KCAV 011030Z AUTO 34004KT 10SM CLR 01/01 A3019 RMK AO2 PWINO
CAV,2017-04-01 10:35,-93.7593,42.7430,33.80,33.80,100.00,330.00,5.00,0.00,30.20,M,10.00,M,CLR,M,M,M,M,M,M,M,M,KCAV 011035Z AUTO 33005KT 10SM CLR 01/01 A3020 RMK AO2 PWINO
CAV,2017-04-01 10:40,-93.7593,42.7430,33.80,33.80,100.00,320.00,4.00,0.00,30.20,M,10.00,M,CLR,M,M,M,M,M,M,M,M,KCAV 011040Z AUTO 32004KT 10SM CLR 01/01 A3020 RMK AO2 PWINO
CAV,2017-04-01 10:50,-93.7593,42.7430,32.00,32.00,100.00,0.00,0.00,0.00,30.20,M,8.00,M,CLR,M,M,M,M,M,M,M,M,KCAV 011050Z AUTO 00000KT 8SM CLR 00/00 A3020 RMK AO2 PWINO
CAV,2017-04-01 10:55,-93.7593,42.7430,32.00,32.00,100.00,0.00,0.00,0.00,30.20,M,7.00,M,CLR,M,M,M,M,M,M,M,M,KCAV 011055Z AUTO 00000KT 7SM CLR 00/00 A3020 RMK AO2 PWINO
CAV,2017-04-01 11:00,-93.7593,42.7430,32.00,32.00,100.00,0.00,0.00,0.00,30.20,M,7.00,M,CLR,M,M,M,M,M,M,M,M,KCAV 011100Z AUTO 00000KT 7SM CLR 00/00 A3020 RMK AO2 PWINO
CAV,2017-04-01 11:10,-93.7593,42.7430,32.00,32.00,100.00,0.00,0.00,0.00,30.20,M,7.00,M,CLR,M,M,M,M,M,M,M,M,KCAV 011110Z AUTO 00000KT 7SM CLR 00/00 A3020 RMK AO2 PWINO
CAV,2017-04-01 11:15,-93.7593,42.7430,32.00,32.00,100.00,250.00,3.00,0.00,30.21,M,8.00,M,CLR,M,M,M,M,M,M,M,M,KCAV 011115Z AUTO 25003KT 8SM CLR 00/00 A3021 RMK AO2 PWINO
CAV,2017-04-01 11:20,-93.7593,42.7430,32.00,32.00,100.00,250.00,3.00,0.00,30.21,M,7.00,M,CLR,M,M,M,M,M,M,M,M,KCAV 011120Z AUTO 25003KT 7SM CLR M00/M00 A3021 RMK AO2 PWINO
CAV,2017-04-01 11:30,-93.7593,42.7430,32.00,32.00,100.00,260.00,4.00,0.00,30.22,M,6.00,M,CLR,M,M,M,M,M,M,M,BR,KCAV 011130Z AUTO 26004KT 6SM BR CLR M00/M00 A3022 RMK AO2 PWINO
CAV,2017-04-01 11:35,-93.7593,42.7430,32.00,32.00,100.00,250.00,3.00,0.00,30.22,M,6.00,M,CLR,M,M,M,M,M,M,M,BR,KCAV 011135Z AUTO 25003KT 6SM BR CLR M00/M00 A3022 RMK AO2 PWINO
CAV,2017-04-01 11:40,-93.7593,42.7430,32.00,32.00,100.00,250.00,3.00,0.00,30.22,M,6.00,M,CLR,M,M,M,M,M,M,M,BR,KCAV 011140Z AUTO 25003KT 6SM BR CLR M00/00 A3022 RMK AO2 PWINO
CAV,2017-04-01 11:50,-93.7593,42.7430,32.00,32.00,100.00,0.00,0.00,0.00,30.22,M,6.00,M,CLR,M,M,M,M,M,M,M,BR,KCAV 011150Z AUTO 00000KT 6SM BR CLR 00/00 A3022 RMK AO2 PWINO
CAV,2017-04-01 11:55,-93.7593,42.7430,32.00,32.00,100.00,210.00,4.00,0.00,30.23,M,4.00,M,CLR,M,M,M,M,M,M,M,BR,KCAV 011155Z AUTO 21004KT 4SM BR CLR M00/M00 A3023 RMK AO2 PWINO
CAV,2017-04-01 12:00,-93.7593,42.7430,32.00,32.00,100.00,220.00,4.00,0.00,30.23,M,4.00,M,CLR,M,M,M,M,M,M,M,BR,KCAV 011200Z AUTO 22004KT 4SM BR CLR M00/M00 A3023 RMK AO2 PWINO
CAV,2017-04-01 12:10,-93.7593,42.7430,32.00,32.00,100.00,220.00,5.00,0.00,30.24,M,5.00,M,FEW,M,M,M,11000.00,M,M,M,BR,KCAV 011210Z AUTO 22005KT 5SM BR FEW110 00/00 A3024 RMK AO2 PWINO
CAV,2017-04-01 12:15,-93.7593,42.7430,32.00,32.00,100.00,220.00,4.00,0.00,30.24,M,5.00,M,FEW,M,M,M,11000.00,M,M,M,BR,KCAV 011215Z AUTO 22004KT 5SM BR FEW110 00/00 A3024 RMK AO2 PWINO
CAV,2017-04-01 12:20,-93.7593,42.7430,32.00,32.00,100.00,230.00,3.00,0.00,30.24,M,5.00,M,FEW,M,M,M,11000.00,M,M,M,BR,KCAV 011220Z AUTO 23003KT 5SM BR FEW110 00/00 A3024 RMK AO2 PWINO
CAV,2017-04-01 12:30,-93.7593,42.7430,33.80,33.80,100.00,220.00,3.00,0.00,30.24,M,4.00,M,FEW,M,M,M,11000.00,M,M,M,BR,KCAV 011230Z AUTO 22003KT 4SM BR FEW110 01/01 A3024 RMK AO2 PWINO
CAV,2017-04-01 12:35,-93.7593,42.7430,33.80,33.80,100.00,0.00,0.00,0.00,30.24,M,6.00,M,FEW,M,M,M,11000.00,M,M,M,BR,KCAV 011235Z AUTO 00000KT 6SM BR FEW110 01/01 A3024 RMK AO2 PWINO
CAV,2017-04-01 12:40,-93.7593,42.7430,33.80,33.80,100.00,0.00,0.00,0.00,30.23,M,6.00,M,CLR,M,M,M,M,M,M,M,BR,KCAV 011240Z AUTO 00000KT 6SM BR CLR 01/01 A3023 RMK AO2 PWINO
CAV,2017-04-01 12:50,-93.7593,42.7430,33.80,33.80,100.00,0.00,0.00,0.00,30.24,M,5.00,M,CLR,M,M,M,M,M,M,M,BR,KCAV 011250Z AUTO 00000KT 5SM BR CLR 01/01 A3024 RMK AO2 PWINO
CAV,2017-04-01 12:55,-93.7593,42.7430,33.80,33.80,100.00,220.00,4.00,0.00,30.24,M,5.00,M,CLR,M,M,M,M,M,M,M,BR,KCAV 011255Z AUTO 22004KT 5SM BR CLR 01/01 A3024 RMK AO2 PWINO
CAV,2017-04-01 13:00,-93.7593,42.7430,33.80,33.80,100.00,210.00,4.00,0.00,30.24,M,5.00,M,CLR,M,M,M,M,M,M,M,BR,KCAV 011300Z AUTO 21004KT 5SM BR CLR 01/01 A3024 RMK AO2 PWINO
CAV,2017-04-01 13:10,-93.7593,42.7430,33.80,33.80,100.00,210.00,3.00,0.00,30.24,M,5.00,M,CLR,M,M,M,M,M,M,M,BR,KCAV 011310Z AUTO 21003KT 5SM BR CLR 01/01 A3024 RMK AO2 PWINO
CAV,2017-04-01 13:15,-93.7593,42.7430,33.80,33.80,100.00,0.00,0.00,0.00,30.24,M,5.00,M,CLR,M,M,M,M,M,M,M,BR,KCAV 011315Z AUTO 00000KT 5SM BR CLR 01/01 A3024 RMK AO2 PWINO
CAV,2017-04-01 13:20,-93.7593,42.7430,35.60,35.60,100.00,0.00,0.00,0.00,30.24,M,5.00,M,CLR,M,M,M,M,M,M,M,BR,KCAV 011320Z AUTO 00000KT 5SM BR CLR 02/02 A3024 RMK AO2 PWINO
CAV,2017-04-01 13:30,-93.7593,42.7430,35.60,35.60,100.00,0.00,0.00,0.00,30.24,M,5.00,M,CLR,M,M,M,M,M,M,M,BR,KCAV 011330Z AUTO 00000KT 5SM BR CLR 02/02 A3024 RMK AO2 PWINO
CAV,2017-04-01 13:35,-93.7593,42.7430,35.60,35.60,100.00,0.00,0.00,0.00,30.24,M,6.00,M,CLR,M,M,M,M,M,M,M,BR,KCAV 011335Z AUTO 00000KT 6SM BR CLR 02/02 A3024 RMK AO2 PWINO
CAV,2017-04-01 13:40,-93.7593,42.7430,37.40,37.40,100.00,300.00,3.00,0.00,30.24,M,7.00,M,CLR,M,M,M,M,M,M,M,M,KCAV 011340Z AUTO 30003KT 7SM CLR 03/03 A3024 RMK AO2 PWINO
CAV,2017-04-01 13:50,-93.7593,42.7430,37.40,37.40,100.00,330.00,3.00,0.00,30.25,M,7.00,M,BKN,M,M,M,12000.00,M,M,M,M,KCAV 011350Z AUTO 33003KT 7SM BKN120 03/03 A3025 RMK AO2 PWINO
CAV,2017-04-01 13:55,-93.7593,42.7430,37.40,37.40,100.00,330.00,4.00,0.00,30.24,M,8.00,M,BKN,M,M,M,12000.00,M,M,M,M,KCAV 011355Z AUTO 33004KT 8SM BKN120 03/03 A3024 RMK AO2 PWINO
CAV,2017-04-01 14:00,-93.7593,42.7430,39.20,39.20,100.00,330.00,5.00,0.00,30.24,M,8.00,M,BKN,M,M,M,12000.00,M,M,M,M,KCAV 011400Z AUTO 33005KT 8SM BKN120 04/04 A3024 RMK AO2 PWINO
CAV,2017-04-01 14:10,-93.7593,42.7430,41.00,41.00,100.00,320.00,5.00,0.00,30.24,M,8.00,M,OVC,M,M,M,12000.00,M,M,M,M,KCAV 011410Z AUTO 32005KT 8SM OVC120 05/05 A3024 RMK AO2 PWINO
CAV,2017-04-01 14:15,-93.7593,42.7430,41.00,41.00,100.00,320.00,5.00,0.00,30.24,M,8.00,M,OVC,M,M,M,12000.00,M,M,M,M,KCAV 011415Z AUTO 32005KT 8SM OVC120 05/05 A3024 RMK AO2 PWINO
CAV,2017-04-01 14:20,-93.7593,42.7430,41.00,41.00,100.00,310.00,5.00,0.00,30.24,M,8.00,M,OVC,M,M,M,11000.00,M,M,M,M,KCAV 011420Z AUTO 31005KT 8SM OVC110 05/05 A3024 RMK AO2 PWINO
CAV,2017-04-01 14:30,-93.7593,42.7430,42.80,42.80,100.00,320.00,4.00,0.00,30.24,M,8.00,M,OVC,M,M,M,11000.00,M,M,M,M,KCAV 011430Z AUTO 32004KT 8SM OVC110 06/06 A3024 RMK AO2 PWINO
CAV,2017-04-01 14:35,-93.7593,42.7430,42.80,42.80,100.00,310.00,4.00,0.00,30.24,M,8.00,M,OVC,M,M,M,11000.00,M,M,M,M,KCAV 011435Z AUTO 31004KT 8SM OVC110 06/06 A3024 RMK AO2 PWINO
CAV,2017-04-01 14:40,-93.7593,42.7430,42.80,42.80,100.00,320.00,6.00,0.00,30.24,M,9.00,M,OVC,M,M,M,11000.00,M,M,M,M,KCAV 011440Z AUTO 32006KT 9SM OVC110 06/06 A3024 RMK AO2 PWINO
CAV,2017-04-01 14:50,-93.7593,42.7430,42.80,42.80,100.00,340.00,4.00,0.00,30.25,M,9.00,M,OVC,M,M,M,11000.00,M,M,M,M,KCAV 011450Z AUTO 34004KT 9SM OVC110 06/06 A3025 RMK AO2 PWINO
CAV,2017-04-01 14:55,-93.7593,42.7430,42.80,42.80,100.00,330.00,5.00,0.00,30.25,M,9.00,M,OVC,M,M,M,11000.00,M,M,M,M,KCAV 011455Z AUTO 33005KT 9SM OVC110 06/06 A3025 RMK AO2 PWINO
CAV,2017-04-01 15:00,-93.7593,42.7430,42.80,42.80,100.00,340.00,5.00,0.00,30.25,M,9.00,M,OVC,M,M,M,11000.00,M,M,M,M,KCAV 011500Z AUTO 34005KT 9SM OVC110 06/06 A3025 RMK AO2 PWINO
CAV,2017-04-01 15:10,-93.7593,42.7430,44.60,44.60,100.00,350.00,5.00,0.00,30.25,M,10.00,M,BKN,M,M,M,11000.00,M,M,M,M,KCAV 011510Z AUTO 35005KT 10SM BKN110 07/07 A3025 RMK AO2 PWINO
CAV,2017-04-01 15:15,-93.7593,42.7430,44.60,44.60,100.00,330.00,6.00,0.00,30.25,M,10.00,M,BKN,M,M,M,11000.00,M,M,M,M,KCAV 011515Z AUTO 33006KT 10SM BKN110 07/07 A3025 RMK AO2 PWINO
CAV,2017-04-01 15:20,-93.7593,42.7430,44.60,42.80,93.35,350.00,5.00,0.00,30.25,M,10.00,M,SCT,M,M,M,11000.00,M,M,M,M,KCAV 011520Z AUTO 35005KT 10SM SCT110 07/06 A3025 RMK AO2 PWINO
CAV,2017-04-01 15:30,-93.7593,42.7430,44.60,42.80,93.35,340.00,5.00,0.00,30.25,M,10.00,M,FEW,M,M,M,11000.00,M,M,M,M,KCAV 011530Z AUTO 34005KT 10SM FEW110 07/06 A3025 RMK AO2 PWINO
CAV,2017-04-01 15:35,-93.7593,42.7430,44.60,44.60,100.00,M,4.00,0.00,30.24,M,10.00,M,FEW,M,M,M,11000.00,M,M,M,M,KCAV 011535Z AUTO VRB04KT 10SM FEW110 07/07 A3024 RMK AO2 PWINO
CAV,2017-04-01 15:40,-93.7593,42.7430,44.60,42.80,93.35,M,4.00,0.00,30.24,M,10.00,M,FEW,M,M,M,11000.00,M,M,M,M,KCAV 011540Z AUTO VRB04KT 10SM FEW110 07/06 A3024 RMK AO2 PWINO
CAV,2017-04-01 15:50,-93.7593,42.7430,46.40,44.60,93.40,330.00,3.00,0.00,30.25,M,10.00,M,FEW,M,M,M,11000.00,M,M,M,M,KCAV 011550Z AUTO 33003KT 10SM FEW110 08/07 A3025 RMK AO2 PWINO
CAV,2017-04-01 15:55,-93.7593,42.7430,46.40,44.60,93.40,M,3.00,0.00,30.25,M,10.00,M,SCT,M,M,M,11000.00,M,M,M,M,KCAV 011555Z AUTO VRB03KT 10SM SCT110 08/07 A3025 RMK AO2 PWINO
CAV,2017-04-01 16:00,-93.7593,42.7430,46.40,44.60,93.40,M,3.00,0.00,30.25,M,10.00,M,SCT,M,M,M,11000.00,M,M,M,M,KCAV 011600Z AUTO VRB03KT 10SM SCT110 08/07 A3025 RMK AO2 PWINO
CAV,2017-04-01 16:10,-93.7593,42.7430,46.40,42.80,87.19,330.00,4.00,0.00,30.25,M,10.00,M,FEW,M,M,M,11000.00,M,M,M,M,KCAV 011610Z AUTO 33004KT 10SM FEW110 08/06 A3025 RMK AO2 PWINO
CAV,2017-04-01 16:15,-93.7593,42.7430,46.40,42.80,87.19,350.00,5.00,0.00,30.25,M,10.00,M,FEW,M,M,M,11000.00,M,M,M,M,KCAV 011615Z AUTO 35005KT 10SM FEW110 08/06 A3025 RMK AO2 PWINO
CAV,2017-04-01 16:20,-93.7593,42.7430,46.40,42.80,87.19,330.00,5.00,0.00,30.26,M,10.00,M,FEW,M,M,M,11000.00,M,M,M,M,KCAV 011620Z AUTO 33005KT 10SM FEW110 08/06 A3026 RMK AO2 PWINO
CAV,2017-04-01 16:30,-93.7593,42.7430,48.20,42.80,81.47,340.00,4.00,0.00,30.25,M,10.00,M,FEW,M,M,M,11000.00,M,M,M,M,KCAV 011630Z AUTO 34004KT 10SM FEW110 09/06 A3025 RMK AO2 PWINO
CAV,2017-04-01 16:35,-93.7593,42.7430,48.20,42.80,81.47,0.00,0.00,0.00,30.25,M,10.00,M,SCT,M,M,M,11000.00,M,M,M,M,KCAV 011635Z AUTO 00000KT 10SM SCT110 09/06 A3025 RMK AO2 PWINO
CAV,2017-04-01 16:40,-93.7593,42.7430,48.20,42.80,81.47,0.00,0.00,0.00,30.25,M,10.00,M,BKN,M,M,M,11000.00,M,M,M,M,KCAV 011640Z AUTO 00000KT 10SM BKN110 09/06 A3025 RMK AO2 PWINO
CAV,2017-04-01 16:50,-93.7593,42.7430,48.20,42.80,81.47,0.00,0.00,0.00,30.25,M,10.00,M,BKN,M,M,M,11000.00,M,M,M,M,KCAV 011650Z AUTO 00000KT 10SM BKN110 09/06 A3025 RMK AO2 PWINO
CAV,2017-04-01 16:55,-93.7593,42.7430,48.20,42.80,81.47,0.00,0.00,0.00,30.25,M,10.00,M,SCT,M,M,M,11000.00,M,M,M,M,KCAV 011655Z AUTO 00000KT 10SM SCT110 09/06 A3025 RMK AO2 PWINO
CAV,2017-04-01 17:00,-93.7593,42.7430,48.20,42.80,81.47,0.00,0.00,0.00,30.24,M,10.00,M,SCT,M,M,M,11000.00,M,M,M,M,KCAV 011700Z AUTO 00000KT 10SM SCT110 09/06 A3024 RMK AO2 PWINO
CAV,2017-04-01 17:10,-93.7593,42.7430,50.00,41.00,71.07,0.00,0.00,0.00,30.24,M,10.00,M,FEW,M,M,M,11000.00,M,M,M,M,KCAV 011710Z AUTO 00000KT 10SM FEW110 10/05 A3024 RMK AO2 PWINO
CAV,2017-04-01 17:15,-93.7593,42.7430,50.00,41.00,71.07,0.00,0.00,0.00,30.24,M,10.00,M,CLR,M,M,M,M,M,M,M,M,KCAV 011715Z AUTO 00000KT 10SM CLR 10/05 A3024 RMK AO2 PWINO
CAV,2017-04-01 17:20,-93.7593,42.7430,50.00,41.00,71.07,0.00,0.00,0.00,30.24,M,10.00,M,CLR,M,M,M,M,M,M,M,M,KCAV 011720Z AUTO 00000KT 10SM CLR 10/05 A3024 RMK AO2 PWINO
CAV,2017-04-01 17:30,-93.7593,42.7430,50.00,41.00,71.07,M,3.00,0.00,30.23,M,10.00,M,CLR,M,M,M,M,M,M,M,M,KCAV 011730Z AUTO VRB03KT 10SM CLR 10/05 A3023 RMK AO2 PWINO
CAV,2017-04-01 17:35,-93.7593,42.7430,50.00,41.00,71.07,M,4.00,0.00,30.23,M,10.00,M,CLR,M,M,M,M,M,M,M,M,KCAV 011735Z AUTO VRB04KT 10SM CLR 10/05 A3023 RMK AO2 PWINO
CAV,2017-04-01 17:40,-93.7593,42.7430,50.00,39.20,66.27,0.00,0.00,0.00,30.23,M,10.00,M,CLR,M,M,M,M,M,M,M,M,KCAV 011740Z AUTO 00000KT 10SM CLR 10/04 A3023 RMK AO2 PWINO
CAV,2017-04-01 17:50,-93.7593,42.7430,51.80,41.00,66.48,310.00,4.00,0.00,30.23,M,10.00,M,CLR,M,M,M,M,M,M,M,M,KCAV 011750Z AUTO 31004KT 10SM CLR 11/05 A3023 RMK AO2 PWINO
CAV,2017-04-01 17:55,-93.7593,42.7430,51.80,41.00,66.48,310.00,5.00,0.00,30.23,M,10.00,M,CLR,M,M,M,M,M,M,M,M,KCAV 011755Z AUTO 31005KT 10SM CLR 11/05 A3023 RMK AO2 PWINO
CAV,2017-04-01 18:00,-93.7593,42.7430,51.80,41.00,66.48,310.00,5.00,0.00,30.23,M,10.00,M,CLR,M,M,M,M,M,M,M,M,KCAV 011800Z AUTO 31005KT 10SM CLR 11/05 A3023 RMK AO2 PWINO
CAV,2017-04-01 18:10,-93.7593,42.7430,51.80,39.20,61.99,320.00,4.00,0.00,30.23,M,10.00,M,CLR,M,M,M,M,M,M,M,M,KCAV 011810Z AUTO 32004KT 10SM CLR 11/04 A3023 RMK AO2 PWINO
CAV,2017-04-01 18:15,-93.7593,42.7430,51.80,41.00,66.48,290.00,4.00,0.00,30.22,M,10.00,M,CLR,M,M,M,M,M,M,M,M,KCAV 011815Z AUTO 29004KT 10SM CLR 11/05 A3022 RMK AO2 PWINO
CAV,2017-04-01 18:20,-93.7593,42.7430,51.80,41.00,66.48,M,4.00,0.00,30.22,M,10.00,M,CLR,M,M,M,M,M,M,M,M,KCAV 011820Z AUTO VRB04KT 10SM CLR 11/05 A3022 RMK AO2 PWINO
CAV,2017-04-01 18:30,-93.7593,42.7430,53.60,41.00,62.23,0.00,0.00,0.00,30.22,M,10.00,M,CLR,M,M,M,M,M,M,M,M,KCAV 011830Z AUTO 00000KT 10SM CLR 12/05 A3022 RMK AO2 PWINO
CAV,2017-04-01 18:35,-93.7593,42.7430,53.60,39.20,58.02,320.00,4.00,0.00,30.22,M,10.00,M,CLR,M,M,M,M,M,M,M,M,KCAV 011835Z AUTO 32004KT 10SM CLR 12/04 A3022 RMK AO2 PWINO
CAV,2017-04-01 18:40,-93.7593,42.7430,53.60,39.20,58.02,320.00,5.00,0.00,30.22,M,10.00,M,CLR,M,M,M,M,M,M,M,M,KCAV 011840Z AUTO 32005KT 10SM CLR 12/04 A3022 RMK AO2 PWINO
CAV,2017-04-01 18:50,-93.7593,42.7430,55.40,39.20,54.34,M,6.00,0.00,30.21,M,10.00,M,CLR,M,M,M,M,M,M,M,M,KCAV 011850Z AUTO VRB06KT 10SM CLR 13/04 A3021 RMK AO2 PWINO
CAV,2017-04-01 18:55,-93.7593,42.7430,53.60,37.40,54.07,M,4.00,0.00,30.21,M,10.00,M,CLR,M,M,M,M,M,M,M,M,KCAV 011855Z AUTO VRB04KT 10SM CLR 12/03 A3021 RMK AO2 PWINO
CAV,2017-04-01 19:00,-93.7593,42.7430,55.40,39.20,54.34,340.00,4.00,0.00,30.21,M,10.00,M,CLR,M,M,M,M,M,M,M,M,KCAV 011900Z AUTO 34004KT 10SM CLR 13/04 A3021 RMK AO2 PWINO
CAV,2017-04-01 19:10,-93.7593,42.7430,55.40,33.80,43.90,350.00,3.00,0.00,30.21,M,10.00,M,CLR,M,M,M,M,M,M,M,M,KCAV 011910Z AUTO 35003KT 10SM CLR 13/01 A3021 RMK AO2 PWINO
CAV,2017-04-01 19:15,-93.7593,42.7430,55.40,33.80,43.90,0.00,0.00,0.00,30.20,M,10.00,M,CLR,M,M,M,M,M,M,M,M,KCAV 011915Z AUTO 00000KT 10SM CLR 13/01 A3020 RMK AO2 PWINO
CAV,2017-04-01 19:20,-93.7593,42.7430,55.40,33.80,43.90,0.00,0.00,0.00,30.20,M,10.00,M,CLR,M,M,M,M,M,M,M,M,KCAV 011920Z AUTO 00000KT 10SM CLR 13/01 A3020 RMK AO2 PWINO
CAV,2017-04-01 19:30,-93.7593,42.7430,55.40,35.60,47.16,0.00,0.00,0.00,30.20,M,10.00,M,CLR,M,M,M,M,M,M,M,M,KCAV 011930Z AUTO 00000KT 10SM CLR 13/02 A3020 RMK AO2 PWINO
CAV,2017-04-01 19:35,-93.7593,42.7430,55.40,35.60,47.16,0.00,0.00,0.00,30.20,M,10.00,M,CLR,M,M,M,M,M,M,M,M,KCAV 011935Z AUTO 00000KT 10SM CLR 13/02 A3020 RMK AO2 PWINO
CAV,2017-04-01 19:40,-93.7593,42.7430,55.40,35.60,47.16,0.00,0.00,0.00,30.20,M,10.00,M,CLR,M,M,M,M,M,M,M,M,KCAV 011940Z AUTO 00000KT 10SM CLR 13/02 A3020 RMK AO2 PWINO
CAV,2017-04-01 19:50,-93.7593,42.7430,55.40,33.80,43.90,0.00,0.00,0.00,30.19,M,10.00,M,CLR,M,M,M,M,M,M,M,M,KCAV 011950Z AUTO 00000KT 10SM CLR 13/01 A3019 RMK AO2 PWINO
CAV,2017-04-01 19:55,-93.7593,42.7430,55.40,33.80,43.90,M,4.00,0.00,30.19,M,10.00,M,CLR,M,M,M,M,M,M,M,M,KCAV 011955Z AUTO VRB04KT 10SM CLR 13/01 A3019 RMK AO2 PWINO
CAV,2017-04-01 20:00,-93.7593,42.7430,55.40,33.80,43.90,0.00,0.00,0.00,30.19,M,10.00,M,CLR,M,M,M,M,M,M,M,M,KCAV 012000Z AUTO 00000KT 10SM CLR 13/01 A3019 RMK AO2 PWINO
CAV,2017-04-01 20:10,-93.7593,42.7430,55.40,32.00,40.84,0.00,0.00,0.00,30.19,M,10.00,M,CLR,M,M,M,M,M,M,M,M,KCAV 012010Z AUTO 00000KT 10SM CLR 13/M00 A3019 RMK AO2 PWINO
CAV,2017-04-01 20:15,-93.7593,42.7430,55.40,32.00,40.84,0.00,0.00,0.00,30.19,M,10.00,M,FEW,M,M,M,11000.00,M,M,M,M,KCAV 012015Z AUTO 00000KT 10SM FEW110 13/00 A3019 RMK AO2 PWINO
CAV,2017-04-01 20:20,-93.7593,42.7430,55.40,33.80,43.90,M,4.00,0.00,30.19,M,10.00,M,FEW,M,M,M,11000.00,M,M,M,M,KCAV 012020Z AUTO VRB04KT 10SM FEW110 13/01 A3019 RMK AO2 PWINO
CAV,2017-04-01 20:30,-93.7593,42.7430,57.20,32.00,38.26,320.00,3.00,0.00,30.19,M,10.00,M,FEW,M,M,M,12000.00,M,M,M,M,KCAV 012030Z AUTO 32003KT 10SM FEW120 14/00 A3019 RMK AO2 PWINO
CAV,2017-04-01 20:35,-93.7593,42.7430,55.40,32.00,40.84,0.00,0.00,0.00,30.19,M,10.00,M,FEW,M,M,M,11000.00,M,M,M,M,KCAV 012035Z AUTO 00000KT 10SM FEW110 13/M00 A3019 RMK AO2 PWINO
CAV,2017-04-01 20:40,-93.7593,42.7430,55.40,32.00,40.84,0.00,0.00,0.00,30.18,M,10.00,M,FEW,M,M,M,11000.00,M,M,M,M,KCAV 012040Z AUTO 00000KT 10SM FEW110 13/00 A3018 RMK AO2 PWINO
CAV,2017-04-01 20:50,-93.7593,42.7430,57.20,33.80,41.13,0.00,0.00,0.00,30.18,M,10.00,M,CLR,M,M,M,M,M,M,M,M,KCAV 012050Z AUTO 00000KT 10SM CLR 14/01 A3018 RMK AO2 PWINO
CAV,2017-04-01 20:55,-93.7593,42.7430,57.20,33.80,41.13,0.00,0.00,0.00,30.18,M,10.00,M,CLR,M,M,M,M,M,M,M,M,KCAV 012055Z AUTO 00000KT 10SM CLR 14/01 A3018 RMK AO2 PWINO
CAV,2017-04-01 21:00,-93.7593,42.7430,57.20,33.80,41.13,0.00,0.00,0.00,30.18,M,10.00,M,CLR,M,M,M,M,M,M,M,M,KCAV 012100Z AUTO 00000KT 10SM CLR 14/01 A3018 RMK AO2 PWINO
CAV,2017-04-01 21:10,-93.7593,42.7430,57.20,32.00,38.26,0.00,0.00,0.00,30.17,M,10.00,M,CLR,M,M,M,M,M,M,M,M,KCAV 012110Z AUTO 00000KT 10SM CLR 14/00 A3017 RMK AO2 PWINO
CAV,2017-04-01 21:15,-93.7593,42.7430,57.20,32.00,38.26,0.00,0.00,0.00,30.17,M,10.00,M,CLR,M,M,M,M,M,M,M,M,KCAV 012115Z AUTO 00000KT 10SM CLR 14/00 A3017 RMK AO2 PWINO
CAV,2017-04-01 21:20,-93.7593,42.7430,57.20,33.80,41.13,M,3.00,0.00,30.17,M,10.00,M,CLR,M,M,M,M,M,M,M,M,KCAV 012120Z AUTO VRB03KT 10SM CLR 14/01 A3017 RMK AO2 PWINO
CAV,2017-04-01 21:30,-93.7593,42.7430,57.20,33.80,41.13,360.00,3.00,0.00,30.17,M,10.00,M,CLR,M,M,M,M,M,M,M,M,KCAV 012130Z AUTO 36003KT 10SM CLR 14/01 A3017 RMK AO2 PWINO
CAV,2017-04-01 21:35,-93.7593,42.7430,55.40,32.00,40.84,0.00,0.00,0.00,30.17,M,M,M,CLR,M,M,M,M,M,M,M,M,KCAV 012135Z AUTO 00000KT CLR 13/00 A3017 RMK AO2 PWINO
CAV,2017-04-01 21:40,-93.7593,42.7430,55.40,32.00,40.84,0.00,0.00,0.00,30.17,M,M,M,CLR,M,M,M,M,M,M,M,M,KCAV 012140Z AUTO 00000KT CLR 13/00 A3017 RMK AO2 PWINO
CAV,2017-04-01 21:50,-93.7593,42.7430,57.20,33.80,41.13,0.00,0.00,0.00,30.17,M,10.00,M,CLR,M,M,M,M,M,M,M,M,KCAV 012150Z AUTO 00000KT 10SM CLR 14/01 A3017 RMK AO2 PWINO
CAV,2017-04-01 21:55,-93.7593,42.7430,57.20,33.80,41.13,0.00,0.00,0.00,30.18,M,10.00,M,CLR,M,M,M,M,M,M,M,M,KCAV 012155Z AUTO 00000KT 10SM CLR 14/01 A3018 RMK AO2 PWINO
CAV,2017-04-01 22:00,-93.7593,42.7430,57.20,33.80,41.13,0.00,0.00,0.00,30.18,M,10.00,M,CLR,M,M,M,M,M,M,M,M,KCAV 012200Z AUTO 00000KT 10SM CLR 14/01 A3018 RMK AO2 PWINO
CAV,2017-04-01 22:10,-93.7593,42.7430,57.20,32.00,38.26,0.00,0.00,0.00,30.18,M,10.00,M,CLR,M,M,M,M,M,M,M,M,KCAV 012210Z AUTO 00000KT 10SM CLR 14/00 A3018 RMK AO2 PWINO
CAV,2017-04-01 22:15,-93.7593,42.7430,57.20,33.80,41.13,170.00,3.00,0.00,30.17,M,10.00,M,CLR,M,M,M,M,M,M,M,M,KCAV 012215Z AUTO 17003KT 10SM CLR 14/01 A3017 RMK AO2 PWINO
CAV,2017-04-01 22:20,-93.7593,42.7430,57.20,33.80,41.13,200.00,5.00,0.00,30.17,M,10.00,M,CLR,M,M,M,M,M,M,M,M,KCAV 012220Z AUTO 20005KT 10SM CLR 14/01 A3017 RMK AO2 PWINO
CAV,2017-04-01 22:30,-93.7593,42.7430,57.20,33.80,41.13,200.00,4.00,0.00,30.16,M,10.00,M,CLR,M,M,M,M,M,M,M,M,KCAV 012230Z AUTO 20004KT 10SM CLR 14/01 A3016 RMK AO2 PWINO
CAV,2017-04-01 22:35,-93.7593,42.7430,55.40,33.80,43.90,0.00,0.00,0.00,30.16,M,10.00,M,CLR,M,M,M,M,M,M,M,M,KCAV 012235Z AUTO 00000KT 10SM CLR 13/01 A3016 RMK AO2 PWINO
CAV,2017-04-01 22:40,-93.7593,42.7430,55.40,32.00,40.84,0.00,0.00,0.00,30.16,M,10.00,M,CLR,M,M,M,M,M,M,M,M,KCAV 012240Z AUTO 00000KT 10SM CLR 13/00 A3016 RMK AO2 PWINO
CAV,2017-04-01 22:50,-93.7593,42.7430,55.40,32.00,40.84,0.00,0.00,0.00,30.15,M,10.00,M,CLR,M,M,M,M,M,M,M,M,KCAV 012250Z AUTO 00000KT 10SM CLR 13/00 A3015 RMK AO2 PWINO
CAV,2017-04-01 22:55,-93.7593,42.7430,55.40,33.80,43.90,0.00,0.00,0.00,30.15,M,10.00,M,CLR,M,M,M,M,M,M,M,M,KCAV 012255Z AUTO 00000KT 10SM CLR 13/01 A3015 RMK AO2 PWINO
CAV,2017-04-01 23:00,-93.7593,42.7430,55.40,33.80,43.90,0.00,0.00,0.00,30.15,M,10.00,M,CLR,M,M,M,M,M,M,M,M,KCAV 012300Z AUTO 00000KT 10SM CLR 13/01 A3015 RMK AO2 PWINO
CAV,2017-04-01 23:10,-93.7593,42.7430,55.40,32.00,40.84,0.00,0.00,0.00,30.16,M,10.00,M,CLR,M,M,M,M,M,M,M,M,KCAV 012310Z AUTO 00000KT 10SM CLR 13/00 A3016 RMK AO2 PWINO
CAV,2017-04-01 23:15,-93.7593,42.7430,55.40,32.00,40.84,0.00,0.00,0.00,30.16,M,10.00,M,CLR,M,M,M,M,M,M,M,M,KCAV 012315Z AUTO 00000KT 10SM CLR 13/00 A3016 RMK AO2 PWINO
CAV,2017-04-01 23:20,-93.7593,42.7430,55.40,32.00,40.84,0.00,0.00,0.00,30.16,M,10.00,M,CLR,M,M,M,M,M,M,M,M,KCAV 012320Z AUTO 00000KT 10SM CLR 13/00 A3016 RMK AO2 PWINO
CAV,2017-04-01 23:30,-93.7593,42.7430,55.40,33.80,43.90,0.00,0.00,0.00,30.16,M,10.00,M,CLR,M,M,M,M,M,M,M,M,KCAV 012330Z AUTO 00000KT 10SM CLR 13/01 A3016 RMK AO2 PWINO
CAV,2017-04-01 23:35,-93.7593,42.7430,55.40,33.80,43.90,0.00,0.00,0.00,30.16,M,10.00,M,CLR,M,M,M,M,M,M,M,M,KCAV 012335Z AUTO 00000KT 10SM CLR 13/01 A3016 RMK AO2 PWINO
CAV,2017-04-01 23:40,-93.7593,42.7430,55.40,35.60,47.16,190.00,4.00,0.00,30.16,M,10.00,M,CLR,M,M,M,M,M,M,M,M,KCAV 012340Z AUTO 19004KT 10SM CLR 13/02 A3016 RMK AO2 PWINO
CAV,2017-04-01 23:50,-93.7593,42.7430,55.40,37.40,50.64,180.00,4.00,0.00,30.15,M,10.00,M,CLR,M,M,M,M,M,M,M,M,KCAV 012350Z AUTO 18004KT 10SM CLR 13/03 A3015 RMK AO2 PWINO
CAV,2017-04-01 23:55,-93.7593,42.7430,53.60,39.20,58.02,180.00,4.00,0.00,30.15,M,10.00,M,CLR,M,M,M,M,M,M,M,M,KCAV 012355Z AUTO 18004KT 10SM CLR 12/04 A3015 RMK AO2 PWINO
