#DEBUG: Format Typ    -> comma
#DEBUG: Time Period   -> 2017-04-01 00:00:00+00:00 2017-04-02 00:00:00+00:00
#DEBUG: Time Zone     -> Etc/UTC
#DEBUG: Data Contact   -> daryl herzmann akrherz@iastate.edu 515-294-5978
#DEBUG: Entries Found -> -1
station,valid,lon,lat,tmpf, dwpf, relh, drct, sknt, p01i, alti, mslp, vsby, gust, skyc1, skyc2, skyc3, skyc4, skyl1, skyl2, skyl3, skyl4, presentwx, metar
CBF,2017-04-01 00:00,-95.7604,41.2611,50.00,42.80,76.18,60.00,6.00,0.00,30.02,M,10.00,M,OVC,M,M,M,4000.00,M,M,M,M,KCBF 010000Z AUTO 06006KT 10SM OVC040 10/06 A3002 RMK AO2
CBF,2017-04-01 00:10,-95.7604,41.2611,50.00,42.80,76.18,60.00,5.00,0.00,30.03,M,10.00,M,OVC,M,M,M,4000.00,M,M,M,M,KCBF 010010Z AUTO 06005KT 10SM OVC040 10/06 A3003 RMK AO2
CBF,2017-04-01 00:15,-95.7604,41.2611,50.00,42.80,76.18,60.00,5.00,0.00,30.02,M,10.00,M,OVC,M,M,M,3900.00,M,M,M,M,KCBF 010015Z AUTO 06005KT 10SM OVC039 10/06 A3002 RMK AO2
CBF,2017-04-01 00:20,-95.7604,41.2611,50.00,42.80,76.18,60.00,5.00,0.00,30.02,M,10.00,M,OVC,M,M,M,3900.00,M,M,M,M,KCBF 010020Z AUTO 06005KT 10SM OVC039 10/06 A3002 RMK AO2
CBF,2017-04-01 00:30,-95.7604,41.2611,50.00,42.80,76.18,60.00,5.00,0.00,30.03,M,10.00,M,OVC,M,M,M,4000.00,M,M,M,M,KCBF 010030Z AUTO 06005KT 10SM OVC040 10/06 A3003 RMK AO2
CBF,2017-04-01 00:35,-95.7604,41.2611,50.00,42.80,76.18,70.00,4.00,0.00,30.03,M,10.00,M,OVC,M,M,M,4000.00,M,M,M,M,KCBF 010035Z AUTO 07004KT 10SM OVC040 10/06 A3003 RMK AO2
CBF,2017-04-01 00:40,-95.7604,41.2611,50.00,42.80,76.18,70.00,3.00,0.00,30.03,M,10.00,M,OVC,M,M,M,4100.00,M,M,M,M,KCBF 010040Z AUTO 07003KT 10SM OVC041 10/06 A3003 RMK AO2
CBF,2017-04-01 00:50,-95.7604,41.2611,50.00,42.80,76.18,0.00,0.00,0.00,30.04,M,10.00,M,OVC,M,M,M,4100.00,M,M,M,M,KCBF 010050Z AUTO 00000KT 10SM OVC041 10/06 A3004 RMK AO2
CBF,2017-04-01 00:55,-95.7604,41.2611,50.00,42.80,76.18,0.00,0.00,0.00,30.04,M,10.00,M,OVC,M,M,M,4100.00,M,M,M,M,KCBF 010055Z AUTO 00000KT 10SM OVC041 10/06 A3004 RMK AO2
CBF,2017-04-01 01:00,-95.7604,41.2611,50.00,42.80,76.18,70.00,3.00,0.00,30.04,M,10.00,M,OVC,M,M,M,4100.00,M,M,M,M,KCBF 010100Z AUTO 07003KT 10SM OVC041 10/06 A3004 RMK AO2
CBF,2017-04-01 01:10,-95.7604,41.2611,50.00,42.80,76.18,80.00,3.00,0.00,30.05,M,10.00,M,OVC,M,M,M,4000.00,M,M,M,M,KCBF 010110Z AUTO 08003KT 10SM OVC040 10/06 A3005 RMK AO2
CBF,2017-04-01 01:15,-95.7604,41.2611,48.20,42.80,81.47,80.00,4.00,0.00,30.05,M,10.00,M,OVC,M,M,M,4100.00,M,M,M,M,KCBF 010115Z AUTO 08004KT 10SM OVC041 09/06 A3005 RMK AO2
CBF,2017-04-01 01:20,-95.7604,41.2611,48.20,42.80,81.47,80.00,4.00,0.00,30.05,M,10.00,M,OVC,M,M,M,4100.00,M,M,M,M,KCBF 010120Z AUTO 08004KT 10SM OVC041 09/06 A3005 RMK AO2
CBF,2017-04-01 01:30,-95.7604,41.2611,48.20,42.80,81.47,70.00,5.00,0.00,30.04,M,10.00,M,OVC,M,M,M,4100.00,M,M,M,M,KCBF 010130Z AUTO 07005KT 10SM OVC041 09/06 A3004 RMK AO2
CBF,2017-04-01 01:35,-95.7604,41.2611,48.20,42.80,81.47,70.00,5.00,0.00,30.04,M,10.00,M,OVC,M,M,M,4100.00,M,M,M,M,KCBF 010135Z AUTO 07005KT 10SM OVC041 09/06 A3004 RMK AO2
CBF,2017-04-01 01:40,-95.7604,41.2611,46.40,42.80,87.19,60.00,6.00,0.00,30.04,M,10.00,M,OVC,M,M,M,4100.00,M,M,M,M,KCBF 010140Z AUTO 06006KT 10SM OVC041 08/06 A3004 RMK AO2
CBF,2017-04-01 01:50,-95.7604,41.2611,46.40,42.80,87.19,70.00,6.00,0.00,30.05,M,10.00,M,BKN,M,M,M,4100.00,M,M,M,M,KCBF 010150Z AUTO 07006KT 10SM BKN041 08/06 A3005 RMK AO2
CBF,2017-04-01 01:55,-95.7604,41.2611,46.40,42.80,87.19,80.00,6.00,0.00,30.05,M,10.00,M,BKN,M,M,M,4000.00,M,M,M,M,KCBF 010155Z AUTO 08006KT 10SM BKN040 08/06 A3005 RMK AO2
CBF,2017-04-01 02:00,-95.7604,41.2611,46.40,42.80,87.19,80.00,6.00,0.00,30.05,M,10.00,M,BKN,M,M,M,4000.00,M,M,M,M,KCBF 010200Z AUTO 08006KT 10SM BKN040 08/06 A3005 RMK AO2
CBF,2017-04-01 02:10,-95.7604,41.2611,46.40,42.80,87.19,70.00,6.00,0.00,30.05,M,10.00,M,FEW,M,M,M,4000.00,M,M,M,M,KCBF 010210Z AUTO 07006KT 10SM FEW040 08/06 A3005 RMK AO2
CBF,2017-04-01 02:15,-95.7604,41.2611,46.40,42.80,87.19,80.00,6.00,0.00,30.05,M,10.00,M,FEW,M,M,M,3900.00,M,M,M,M,KCBF 010215Z AUTO 08006KT 10SM FEW039 08/06 A3005 RMK AO2
CBF,2017-04-01 02:20,-95.7604,41.2611,46.40,42.80,87.19,80.00,7.00,0.00,30.06,M,10.00,M,FEW,M,M,M,3900.00,M,M,M,M,KCBF 010220Z AUTO 08007KT 10SM FEW039 08/06 A3006 RMK AO2
CBF,2017-04-01 02:30,-95.7604,41.2611,46.40,42.80,87.19,80.00,7.00,0.00,30.06,M,10.00,M,CLR,M,M,M,M,M,M,M,M,KCBF 010230Z AUTO 08007KT 10SM CLR 08/06 A3006 RMK AO2
CBF,2017-04-01 02:35,-95.7604,41.2611,46.40,42.80,87.19,80.00,6.00,0.00,30.06,M,10.00,M,CLR,M,M,M,M,M,M,M,M,KCBF 010235Z AUTO 08006KT 10SM CLR 08/06 A3006 RMK AO2
CBF,2017-04-01 02:40,-95.7604,41.2611,46.40,42.80,87.19,70.00,7.00,0.00,30.06,M,10.00,M,CLR,M,M,M,M,M,M,M,M,KCBF 010240Z AUTO 07007KT 10SM CLR 08/06 A3006 RMK AO2
CBF,2017-04-01 02:50,-95.7604,41.2611,44.60,41.00,87.09,70.00,6.00,0.00,30.07,M,10.00,M,CLR,M,M,M,M,M,M,M,M,KCBF 010250Z AUTO 07006KT 10SM CLR 07/05 A3007 RMK AO2
CBF,2017-04-01 02:55,-95.7604,41.2611,44.60,41.00,87.09,70.00,7.00,0.00,30.07,M,10.00,M,CLR,M,M,M,M,M,M,M,M,KCBF 010255Z AUTO 07007KT 10SM CLR 07/05 A3007 RMK AO2
CBF,2017-04-01 03:00,-95.7604,41.2611,44.60,41.00,87.09,70.00,7.00,0.00,30.07,M,10.00,M,CLR,M,M,M,M,M,M,M,M,KCBF 010300Z AUTO 07007KT 10SM CLR 07/05 A3007 RMK AO2
CBF,2017-04-01 03:10,-95.7604,41.2611,44.60,41.00,87.09,70.00,6.00,0.00,30.08,M,10.00,M,CLR,M,M,M,M,M,M,M,M,KCBF 010310Z AUTO 07006KT 10SM CLR 07/05 A3008 RMK AO2
CBF,2017-04-01 03:15,-95.7604,41.2611,44.60,41.00,87.09,70.00,7.00,0.00,30.08,M,10.00,M,CLR,M,M,M,M,M,M,M,M,KCBF 010315Z AUTO 07007KT 10SM CLR 07/05 A3008 RMK AO2
CBF,2017-04-01 03:20,-95.7604,41.2611,44.60,41.00,87.09,70.00,6.00,0.00,30.09,M,10.00,M,CLR,M,M,M,M,M,M,M,M,KCBF 010320Z AUTO 07006KT 10SM CLR 07/05 A3009 RMK AO2
CBF,2017-04-01 03:30,-95.7604,41.2611,44.60,41.00,87.09,60.00,7.00,0.00,30.10,M,10.00,M,CLR,M,M,M,M,M,M,M,M,KCBF 010330Z AUTO 06007KT 10SM CLR 07/05 A3010 RMK AO2
CBF,2017-04-01 03:35,-95.7604,41.2611,44.60,41.00,87.09,60.00,9.00,0.00,30.09,M,10.00,M,CLR,M,M,M,M,M,M,M,M,KCBF 010335Z AUTO 06009KT 10SM CLR 07/05 A3009 RMK AO2
CBF,2017-04-01 03:40,-95.7604,41.2611,44.60,41.00,87.09,60.00,8.00,0.00,30.10,M,10.00,M,CLR,M,M,M,M,M,M,M,M,KCBF 010340Z AUTO 06008KT 10SM CLR 07/05 A3010 RMK AO2
CBF,2017-04-01 03:50,-95.7604,41.2611,42.80,41.00,93.30,50.00,9.00,0.00,30.10,M,10.00,M,CLR,M,M,M,M,M,M,M,M,KCBF 010350Z AUTO 05009KT 10SM CLR 06/05 A3010 RMK AO2
CBF,2017-04-01 03:55,-95.7604,41.2611,42.80,42.80,100.00,50.00,9.00,0.00,30.10,M,10.00,M,CLR,M,M,M,M,M,M,M,M,KCBF 010355Z AUTO 05009KT 10SM CLR 06/06 A3010 RMK AO2
CBF,2017-04-01 04:00,-95.7604,41.2611,42.80,42.80,100.00,50.00,10.00,0.00,30.10,M,10.00,M,CLR,M,M,M,M,M,M,M,M,KCBF 010400Z AUTO 05010KT 10SM CLR 06/06 A3010 RMK AO2
CBF,2017-04-01 04:10,-95.7604,41.2611,42.80,42.80,100.00,60.00,11.00,0.00,30.10,M,10.00,M,CLR,M,M,M,M,M,M,M,M,KCBF 010410Z AUTO 06011KT 10SM CLR 06/06 A3010 RMK AO2
CBF,2017-04-01 04:15,-95.7604,41.2611,42.80,42.80,100.00,60.00,10.00,0.00,30.10,M,10.00,15.00,CLR,M,M,M,M,M,M,M,M,KCBF 010415Z AUTO 06010G15KT 10SM CLR 06/06 A3010 RMK AO2
CBF,2017-04-01 04:20,-95.7604,41.2611,42.80,42.80,100.00,60.00,9.00,0.00,30.11,M,10.00,15.00,CLR,M,M,M,M,M,M,M,M,KCBF 010420Z AUTO 06009G15KT 10SM CLR 06/06 A3011 RMK AO2
CBF,2017-04-01 04:30,-95.7604,41.2611,42.80,41.00,93.30,70.00,10.00,0.00,30.11,M,10.00,M,CLR,M,M,M,M,M,M,M,M,KCBF 010430Z AUTO 07010KT 10SM CLR 06/05 A3011 RMK AO2
CBF,2017-04-01 04:35,-95.7604,41.2611,42.80,41.00,93.30,70.00,10.00,0.00,30.11,M,10.00,M,CLR,M,M,M,M,M,M,M,M,KCBF 010435Z AUTO 07010KT 10SM CLR 06/05 A3011 RMK AO2
CBF,2017-04-01 04:40,-95.7604,41.2611,42.80,41.00,93.30,70.00,9.00,0.00,30.11,M,10.00,M,CLR,M,M,M,M,M,M,M,M,KCBF 010440Z AUTO 07009KT 10SM CLR 06/05 A3011 RMK AO2
CBF,2017-04-01 04:50,-95.7604,41.2611,41.00,41.00,100.00,70.00,7.00,0.00,30.12,M,10.00,M,FEW,SCT,M,M,2000.00,3200.00,M,M,M,KCBF 010450Z AUTO 07007KT 10SM FEW020 SCT032 05/05 A3012 RMK AO2
CBF,2017-04-01 04:55,-95.7604,41.2611,41.00,41.00,100.00,70.00,8.00,0.00,30.12,M,10.00,M,FEW,BKN,M,M,2000.00,3000.00,M,M,M,KCBF 010455Z AUTO 07008KT 10SM FEW020 BKN030 05/05 A3012 RMK AO2
CBF,2017-04-01 05:00,-95.7604,41.2611,41.00,41.00,100.00,60.00,7.00,0.00,30.12,M,10.00,M,FEW,BKN,M,M,2000.00,2900.00,M,M,M,KCBF 010500Z AUTO 06007KT 10SM FEW020 BKN029 05/05 A3012 RMK AO2
CBF,2017-04-01 05:10,-95.7604,41.2611,41.00,41.00,100.00,60.00,8.00,0.00,30.13,M,10.00,M,BKN,M,M,M,2900.00,M,M,M,M,KCBF 010510Z AUTO 06008KT 10SM BKN029 05/05 A3013 RMK AO2
CBF,2017-04-01 05:15,-95.7604,41.2611,41.00,41.00,100.00,60.00,7.00,0.00,30.13,M,10.00,M,OVC,M,M,M,2800.00,M,M,M,M,KCBF 010515Z AUTO 06007KT 10SM OVC028 05/05 A3013 RMK AO2
CBF,2017-04-01 05:30,-95.7604,41.2611,41.00,41.00,100.00,70.00,7.00,0.00,30.13,M,10.00,M,BKN,M,M,M,2700.00,M,M,M,M,KCBF 010530Z AUTO 07007KT 10SM BKN027 05/05 A3013 RMK AO2
CBF,2017-04-01 05:35,-95.7604,41.2611,41.00,41.00,100.00,70.00,7.00,0.00,30.13,M,10.00,M,BKN,BKN,M,M,2700.00,12000.00,M,M,M,KCBF 010535Z AUTO 07007KT 10SM BKN027 BKN120 05/05 A3013 RMK AO2
CBF,2017-04-01 05:40,-95.7604,41.2611,41.00,41.00,100.00,80.00,6.00,0.00,30.14,M,10.00,M,SCT,SCT,M,M,2700.00,12000.00,M,M,M,KCBF 010540Z AUTO 08006KT 10SM SCT027 SCT120 05/05 A3014 RMK AO2
CBF,2017-04-01 05:50,-95.7604,41.2611,41.00,41.00,100.00,90.00,6.00,0.00,30.15,M,10.00,M,SCT,SCT,SCT,M,2500.00,3500.00,12000.00,M,M,KCBF 010550Z AUTO 09006KT 10SM SCT025 SCT035 SCT120 05/05 A3015 RMK AO2
CBF,2017-04-01 05:55,-95.7604,41.2611,41.00,41.00,100.00,80.00,5.00,0.00,30.15,M,10.00,M,SCT,SCT,SCT,M,2400.00,3500.00,12000.00,M,M,KCBF 010555Z AUTO 08005KT 10SM SCT024 SCT035 SCT120 05/05 A3015 RMK AO2
CBF,2017-04-01 06:00,-95.7604,41.2611,41.00,41.00,100.00,90.00,4.00,0.00,30.16,M,10.00,M,SCT,SCT,BKN,M,2400.00,3400.00,11000.00,M,M,KCBF 010600Z AUTO 09004KT 10SM SCT024 SCT034 BKN110 05/05 A3016 RMK AO2
CBF,2017-04-01 06:10,-95.7604,41.2611,41.00,41.00,100.00,80.00,3.00,0.00,30.16,M,10.00,M,FEW,BKN,BKN,M,2400.00,3400.00,11000.00,M,M,KCBF 010610Z AUTO 08003KT 10SM FEW024 BKN034 BKN110 05/05 A3016 RMK AO2
CBF,2017-04-01 06:15,-95.7604,41.2611,41.00,41.00,100.00,80.00,4.00,0.00,30.16,M,10.00,M,FEW,OVC,M,M,2400.00,3400.00,M,M,M,KCBF 010615Z AUTO 08004KT 10SM FEW024 OVC034 05/05 A3016 RMK AO2
CBF,2017-04-01 06:20,-95.7604,41.2611,41.00,41.00,100.00,90.00,3.00,0.00,30.16,M,10.00,M,FEW,OVC,M,M,2400.00,3400.00,M,M,M,KCBF 010620Z AUTO 09003KT 10SM FEW024 OVC034 05/05 A3016 RMK AO2
CBF,2017-04-01 06:30,-95.7604,41.2611,41.00,41.00,100.00,90.00,4.00,0.00,30.16,M,10.00,M,OVC,M,M,M,3300.00,M,M,M,M,KCBF 010630Z AUTO 09004KT 10SM OVC033 05/05 A3016 RMK AO2
CBF,2017-04-01 06:35,-95.7604,41.2611,41.00,41.00,100.00,90.00,5.00,0.00,30.16,M,10.00,M,OVC,M,M,M,3200.00,M,M,M,M,KCBF 010635Z AUTO 09005KT 10SM OVC032 05/05 A3016 RMK AO2
CBF,2017-04-01 06:40,-95.7604,41.2611,41.00,41.00,100.00,100.00,5.00,0.00,30.16,M,10.00,M,OVC,M,M,M,3100.00,M,M,M,M,KCBF 010640Z AUTO 10005KT 10SM OVC031 05/05 A3016 RMK AO2
CBF,2017-04-01 06:50,-95.7604,41.2611,41.00,41.00,100.00,110.00,4.00,0.00,30.16,M,10.00,M,OVC,M,M,M,3000.00,M,M,M,M,KCBF 010650Z AUTO 11004KT 10SM OVC030 05/05 A3016 RMK AO2
CBF,2017-04-01 06:55,-95.7604,41.2611,41.00,41.00,100.00,100.00,5.00,0.00,30.16,M,10.00,M,OVC,M,M,M,3000.00,M,M,M,M,KCBF 010655Z AUTO 10005KT 10SM OVC030 05/05 A3016 RMK AO2
CBF,2017-04-01 07:00,-95.7604,41.2611,41.00,41.00,100.00,90.00,4.00,0.00,30.16,M,10.00,M,OVC,M,M,M,2900.00,M,M,M,M,KCBF 010700Z AUTO 09004KT 10SM OVC029 05/05 A3016 RMK AO2
CBF,2017-04-01 07:10,-95.7604,41.2611,41.00,41.00,100.00,90.00,4.00,0.00,30.16,M,10.00,M,OVC,M,M,M,2900.00,M,M,M,M,KCBF 010710Z AUTO 09004KT 10SM OVC029 05/05 A3016 RMK AO2
CBF,2017-04-01 07:15,-95.7604,41.2611,41.00,41.00,100.00,80.00,4.00,0.00,30.15,M,10.00,M,OVC,M,M,M,2900.00,M,M,M,M,KCBF 010715Z AUTO 08004KT 10SM OVC029 05/05 A3015 RMK AO2
CBF,2017-04-01 07:20,-95.7604,41.2611,41.00,41.00,100.00,70.00,4.00,0.00,30.14,M,10.00,M,OVC,M,M,M,3000.00,M,M,M,M,KCBF 010720Z AUTO 07004KT 10SM OVC030 05/05 A3014 RMK AO2
CBF,2017-04-01 07:30,-95.7604,41.2611,41.00,41.00,100.00,70.00,4.00,0.00,30.15,M,10.00,M,OVC,M,M,M,3100.00,M,M,M,M,KCBF 010730Z AUTO 07004KT 10SM OVC031 05/05 A3015 RMK AO2
CBF,2017-04-01 07:35,-95.7604,41.2611,41.00,41.00,100.00,100.00,3.00,0.00,30.15,M,10.00,M,OVC,M,M,M,3100.00,M,M,M,M,KCBF 010735Z AUTO 10003KT 10SM OVC031 05/05 A3015 RMK AO2
CBF,2017-04-01 07:40,-95.7604,41.2611,41.00,41.00,100.00,100.00,4.00,0.00,30.15,M,10.00,M,OVC,M,M,M,3100.00,M,M,M,M,KCBF 010740Z AUTO 10004KT 10SM OVC031 05/05 A3015 RMK AO2
CBF,2017-04-01 07:50,-95.7604,41.2611,41.00,41.00,100.00,0.00,0.00,0.00,30.15,M,10.00,M,BKN,M,M,M,3100.00,M,M,M,M,KCBF 010750Z AUTO 00000KT 10SM BKN031 05/05 A3015 RMK AO2
CBF,2017-04-01 07:55,-95.7604,41.2611,39.20,39.20,100.00,90.00,4.00,0.00,30.15,M,10.00,M,BKN,M,M,M,3200.00,M,M,M,M,KCBF 010755Z AUTO 09004KT 10SM BKN032 04/04 A3015 RMK AO2
CBF,2017-04-01 08:00,-95.7604,41.2611,39.20,39.20,100.00,80.00,4.00,0.00,30.15,M,10.00,M,SCT,M,M,M,3200.00,M,M,M,M,KCBF 010800Z AUTO 08004KT 10SM SCT032 04/04 A3015 RMK AO2
CBF,2017-04-01 08:10,-95.7604,41.2611,39.20,39.20,100.00,80.00,5.00,0.00,30.14,M,10.00,M,FEW,M,M,M,3100.00,M,M,M,M,KCBF 010810Z AUTO 08005KT 10SM FEW031 04/04 A3014 RMK AO2
CBF,2017-04-01 08:15,-95.7604,41.2611,39.20,39.20,100.00,80.00,5.00,0.00,30.15,M,10.00,M,CLR,M,M,M,M,M,M,M,M,KCBF 010815Z AUTO 08005KT 10SM CLR 04/04 A3015 RMK AO2
CBF,2017-04-01 08:20,-95.7604,41.2611,39.20,39.20,100.00,70.00,4.00,0.00,30.15,M,10.00,M,CLR,M,M,M,M,M,M,M,M,KCBF 010820Z AUTO 07004KT 10SM CLR 04/04 A3015 RMK AO2
CBF,2017-04-01 08:30,-95.7604,41.2611,39.20,39.20,100.00,0.00,0.00,0.00,30.16,M,10.00,M,CLR,M,M,M,M,M,M,M,M,KCBF 010830Z AUTO 00000KT 10SM CLR 04/04 A3016 RMK AO2
CBF,2017-04-01 08:35,-95.7604,41.2611,39.20,39.20,100.00,0.00,0.00,0.00,30.16,M,10.00,M,CLR,M,M,M,M,M,M,M,M,KCBF 010835Z AUTO 00000KT 10SM CLR 04/04 A3016 RMK AO2
CBF,2017-04-01 08:40,-95.7604,41.2611,39.20,39.20,100.00,50.00,3.00,0.00,30.16,M,10.00,M,CLR,M,M,M,M,M,M,M,M,KCBF 010840Z AUTO 05003KT 10SM CLR 04/04 A3016 RMK AO2
CBF,2017-04-01 08:50,-95.7604,41.2611,39.20,39.20,100.00,330.00,4.00,0.00,30.16,M,10.00,M,SCT,M,M,M,2500.00,M,M,M,M,KCBF 010850Z AUTO 33004KT 10SM SCT025 04/04 A3016 RMK AO2
CBF,2017-04-01 08:55,-95.7604,41.2611,39.20,39.20,100.00,360.00,4.00,0.00,30.16,M,10.00,M,BKN,M,M,M,2500.00,M,M,M,M,KCBF 010855Z AUTO 36004KT 10SM BKN025 04/04 A3016 RMK AO2
CBF,2017-04-01 09:00,-95.7604,41.2611,39.20,39.20,100.00,10.00,4.00,0.00,30.16,M,10.00,M,BKN,M,M,M,2500.00,M,M,M,M,KCBF 010900Z AUTO 01004KT 10SM BKN025 04/04 A3016 RMK AO2
CBF,2017-04-01 09:10,-95.7604,41.2611,39.20,39.20,100.00,350.00,3.00,0.00,30.16,M,10.00,M,BKN,M,M,M,2500.00,M,M,M,M,KCBF 010910Z AUTO 35003KT 10SM BKN025 04/04 A3016 RMK AO2
CBF,2017-04-01 09:15,-95.7604,41.2611,39.20,39.20,100.00,340.00,4.00,0.00,30.17,M,10.00,M,OVC,M,M,M,2500.00,M,M,M,M,KCBF 010915Z AUTO 34004KT 10SM OVC025 04/04 A3017 RMK AO2
CBF,2017-04-01 09:20,-95.7604,41.2611,37.40,37.40,100.00,340.00,4.00,0.00,30.17,M,10.00,M,FEW,OVC,M,M,1500.00,2500.00,M,M,M,KCBF 010920Z AUTO 34004KT 10SM FEW015 OVC025 03/03 A3017 RMK AO2
CBF,2017-04-01 09:30,-95.7604,41.2611,37.40,37.40,100.00,340.00,4.00,0.00,30.18,M,10.00,M,BKN,OVC,M,M,1600.00,2500.00,M,M,M,KCBF 010930Z AUTO 34004KT 10SM BKN016 OVC025 03/03 A3018 RMK AO2
CBF,2017-04-01 09:35,-95.7604,41.2611,37.40,37.40,100.00,340.00,5.00,0.00,30.18,M,10.00,M,BKN,OVC,M,M,1600.00,2500.00,M,M,M,KCBF 010935Z AUTO 34005KT 10SM BKN016 OVC025 03/03 A3018 RMK AO2
CBF,2017-04-01 09:40,-95.7604,41.2611,37.40,37.40,100.00,350.00,5.00,0.00,30.18,M,10.00,M,BKN,OVC,M,M,1600.00,2700.00,M,M,M,KCBF 010940Z AUTO 35005KT 10SM BKN016 OVC027 03/03 A3018 RMK AO2
CBF,2017-04-01 09:50,-95.7604,41.2611,37.40,37.40,100.00,20.00,5.00,0.00,30.18,M,10.00,M,SCT,OVC,M,M,1600.00,2600.00,M,M,M,KCBF 010950Z AUTO 02005KT 10SM SCT016 OVC026 03/03 A3018 RMK AO2
CBF,2017-04-01 09:55,-95.7604,41.2611,37.40,37.40,100.00,20.00,4.00,0.00,30.18,M,10.00,M,SCT,OVC,M,M,1700.00,2600.00,M,M,M,KCBF 010955Z AUTO 02004KT 10SM SCT017 OVC026 03/03 A3018 RMK AO2
CBF,2017-04-01 10:00,-95.7604,41.2611,37.40,37.40,100.00,30.00,4.00,0.00,30.18,M,10.00,M,SCT,OVC,M,M,1700.00,2600.00,M,M,M,KCBF 011000Z AUTO 03004KT 10SM SCT017 OVC026 03/03 A3018 RMK AO2
CBF,2017-04-01 10:10,-95.7604,41.2611,37.40,37.40,100.00,20.00,4.00,0.00,30.18,M,10.00,M,SCT,OVC,M,M,1800.00,2600.00,M,M,M,KCBF 011010Z AUTO 02004KT 10SM SCT018 OVC026 03/03 A3018 RMK AO2
CBF,2017-04-01 10:15,-95.7604,41.2611,37.40,37.40,100.00,40.00,3.00,0.00,30.18,M,10.00,M,BKN,OVC,M,M,1800.00,2600.00,M,M,M,KCBF 011015Z AUTO 04003KT 10SM BKN018 OVC026 03/03 A3018 RMK AO2
CBF,2017-04-01 10:20,-95.7604,41.2611,37.40,37.40,100.00,50.00,4.00,0.00,30.18,M,10.00,M,BKN,OVC,M,M,1800.00,2600.00,M,M,M,KCBF 011020Z AUTO 05004KT 10SM BKN018 OVC026 03/03 A3018 RMK AO2
CBF,2017-04-01 10:30,-95.7604,41.2611,37.40,37.40,100.00,50.00,5.00,0.00,30.18,M,10.00,M,BKN,OVC,M,M,1800.00,2600.00,M,M,M,KCBF 011030Z AUTO 05005KT 10SM BKN018 OVC026 03/03 A3018 RMK AO2
CBF,2017-04-01 10:35,-95.7604,41.2611,39.20,39.20,100.00,50.00,4.00,0.00,30.18,M,10.00,M,OVC,M,M,M,1800.00,M,M,M,M,KCBF 011035Z AUTO 05004KT 10SM OVC018 04/04 A3018 RMK AO2
CBF,2017-04-01 10:40,-95.7604,41.2611,39.20,39.20,100.00,40.00,4.00,0.00,30.19,M,10.00,M,OVC,M,M,M,1800.00,M,M,M,M,KCBF 011040Z AUTO 04004KT 10SM OVC018 04/04 A3019 RMK AO2
CBF,2017-04-01 10:50,-95.7604,41.2611,39.20,39.20,100.00,30.00,3.00,0.00,30.19,M,10.00,M,OVC,M,M,M,1800.00,M,M,M,M,KCBF 011050Z AUTO 03003KT 10SM OVC018 04/04 A3019 RMK AO2
CBF,2017-04-01 10:55,-95.7604,41.2611,39.20,39.20,100.00,40.00,4.00,0.00,30.19,M,10.00,M,OVC,M,M,M,1800.00,M,M,M,M,KCBF 011055Z AUTO 04004KT 10SM OVC018 04/04 A3019 RMK AO2
CBF,2017-04-01 11:00,-95.7604,41.2611,39.20,39.20,100.00,50.00,4.00,0.00,30.19,M,10.00,M,OVC,M,M,M,1800.00,M,M,M,M,KCBF 011100Z AUTO 05004KT 10SM OVC018 04/04 A3019 RMK AO2
CBF,2017-04-01 11:10,-95.7604,41.2611,39.20,39.20,100.00,50.00,4.00,0.00,30.20,M,10.00,M,OVC,M,M,M,2000.00,M,M,M,M,KCBF 011110Z AUTO 05004KT 10SM OVC020 04/04 A3020 RMK AO2
CBF,2017-04-01 11:15,-95.7604,41.2611,39.20,39.20,100.00,50.00,4.00,0.00,30.20,M,10.00,M,OVC,M,M,M,2000.00,M,M,M,M,KCBF 011115Z AUTO 05004KT 10SM OVC020 04/04 A3020 RMK AO2
CBF,2017-04-01 11:20,-95.7604,41.2611,39.20,39.20,100.00,50.00,3.00,0.00,30.20,M,10.00,M,OVC,M,M,M,2000.00,M,M,M,M,KCBF 011120Z AUTO 05003KT 10SM OVC020 04/04 A3020 RMK AO2
CBF,2017-04-01 11:30,-95.7604,41.2611,39.20,39.20,100.00,50.00,3.00,0.00,30.20,M,10.00,M,OVC,M,M,M,2000.00,M,M,M,M,KCBF 011130Z AUTO 05003KT 10SM OVC020 04/04 A3020 RMK AO2
CBF,2017-04-01 11:35,-95.7604,41.2611,39.20,39.20,100.00,0.00,0.00,0.00,30.21,M,10.00,M,BKN,OVC,M,M,1800.00,2200.00,M,M,M,KCBF 011135Z AUTO 00000KT 10SM BKN018 OVC022 04/04 A3021 RMK AO2
CBF,2017-04-01 11:40,-95.7604,41.2611,39.20,39.20,100.00,0.00,0.00,0.00,30.21,M,10.00,M,BKN,OVC,M,M,1700.00,2200.00,M,M,M,KCBF 011140Z AUTO 00000KT 10SM BKN017 OVC022 04/04 A3021 RMK AO2
CBF,2017-04-01 11:50,-95.7604,41.2611,39.20,39.20,100.00,0.00,0.00,0.00,30.21,M,10.00,M,OVC,M,M,M,1800.00,M,M,M,M,KCBF 011150Z AUTO 00000KT 10SM OVC018 04/04 A3021 RMK AO2
CBF,2017-04-01 11:55,-95.7604,41.2611,39.20,39.20,100.00,30.00,3.00,0.00,30.21,M,10.00,M,OVC,M,M,M,1800.00,M,M,M,M,KCBF 011155Z AUTO 03003KT 10SM OVC018 04/04 A3021 RMK AO2
CBF,2017-04-01 12:00,-95.7604,41.2611,39.20,39.20,100.00,30.00,3.00,0.00,30.21,M,10.00,M,OVC,M,M,M,1800.00,M,M,M,M,KCBF 011200Z AUTO 03003KT 10SM OVC018 04/04 A3021 RMK AO2
CBF,2017-04-01 12:10,-95.7604,41.2611,39.20,39.20,100.00,50.00,4.00,0.00,30.21,M,10.00,M,OVC,M,M,M,1800.00,M,M,M,M,KCBF 011210Z AUTO 05004KT 10SM OVC018 04/04 A3021 RMK AO2
CBF,2017-04-01 12:15,-95.7604,41.2611,39.20,39.20,100.00,50.00,4.00,0.00,30.21,M,10.00,M,OVC,M,M,M,1800.00,M,M,M,M,KCBF 011215Z AUTO 05004KT 10SM OVC018 04/04 A3021 RMK AO2
CBF,2017-04-01 12:20,-95.7604,41.2611,39.20,39.20,100.00,50.00,4.00,0.00,30.21,M,10.00,M,OVC,M,M,M,1800.00,M,M,M,M,KCBF 011220Z AUTO 05004KT 10SM OVC018 04/04 A3021 RMK AO2
CBF,2017-04-01 12:30,-95.7604,41.2611,39.20,39.20,100.00,50.00,3.00,0.00,30.22,M,10.00,M,OVC,M,M,M,1800.00,M,M,M,M,KCBF 011230Z AUTO 05003KT 10SM OVC018 04/04 A3022 RMK AO2
CBF,2017-04-01 12:35,-95.7604,41.2611,39.20,39.20,100.00,70.00,5.00,0.00,30.22,M,10.00,M,OVC,M,M,M,1800.00,M,M,M,M,KCBF 011235Z AUTO 07005KT 10SM OVC018 04/04 A3022 RMK AO2
CBF,2017-04-01 12:40,-95.7604,41.2611,39.20,39.20,100.00,60.00,4.00,0.00,30.22,M,10.00,M,OVC,M,M,M,1800.00,M,M,M,M,KCBF 011240Z AUTO 06004KT 10SM OVC018 04/04 A3022 RMK AO2
CBF,2017-04-01 12:50,-95.7604,41.2611,39.20,39.20,100.00,360.00,4.00,0.00,30.22,M,10.00,M,OVC,M,M,M,1800.00,M,M,M,M,KCBF 011250Z AUTO 36004KT 10SM OVC018 04/04 A3022 RMK AO2
CBF,2017-04-01 12:55,-95.7604,41.2611,39.20,39.20,100.00,40.00,4.00,0.00,30.22,M,10.00,M,OVC,M,M,M,1800.00,M,M,M,M,KCBF 011255Z AUTO 04004KT 10SM OVC018 04/04 A3022 RMK AO2
CBF,2017-04-01 13:00,-95.7604,41.2611,41.00,41.00,100.00,50.00,5.00,0.00,30.22,M,10.00,M,OVC,M,M,M,1800.00,M,M,M,M,KCBF 011300Z AUTO 05005KT 10SM OVC018 05/05 A3022 RMK AO2
CBF,2017-04-01 13:10,-95.7604,41.2611,41.00,41.00,100.00,40.00,5.00,0.00,30.21,M,10.00,M,OVC,M,M,M,1800.00,M,M,M,M,KCBF 011310Z AUTO 04005KT 10SM OVC018 05/05 A3021 RMK AO2
CBF,2017-04-01 13:15,-95.7604,41.2611,41.00,41.00,100.00,50.00,6.00,0.00,30.21,M,10.00,M,OVC,M,M,M,1700.00,M,M,M,M,KCBF 011315Z AUTO 05006KT 10SM OVC017 05/05 A3021 RMK AO2
CBF,2017-04-01 13:20,-95.7604,41.2611,41.00,41.00,100.00,50.00,6.00,0.00,30.21,M,10.00,M,OVC,M,M,M,1700.00,M,M,M,M,KCBF 011320Z AUTO 05006KT 10SM OVC017 05/05 A3021 RMK AO2
CBF,2017-04-01 13:30,-95.7604,41.2611,41.00,41.00,100.00,60.00,6.00,0.00,30.22,M,10.00,M,OVC,M,M,M,1700.00,M,M,M,M,KCBF 011330Z AUTO 06006KT 10SM OVC017 05/05 A3022 RMK AO2
CBF,2017-04-01 13:35,-95.7604,41.2611,41.00,41.00,100.00,60.00,6.00,0.00,30.22,M,10.00,M,OVC,M,M,M,1700.00,M,M,M,M,KCBF 011335Z AUTO 06006KT 10SM OVC017 05/05 A3022 RMK AO2
CBF,2017-04-01 13:40,-95.7604,41.2611,41.00,41.00,100.00,60.00,6.00,0.00,30.22,M,10.00,M,OVC,M,M,M,1700.00,M,M,M,M,KCBF 011340Z AUTO 06006KT 10SM OVC017 05/05 A3022 RMK AO2
CBF,2017-04-01 13:50,-95.7604,41.2611,41.00,41.00,100.00,60.00,6.00,0.00,30.22,M,10.00,M,OVC,M,M,M,1700.00,M,M,M,M,KCBF 011350Z AUTO 06006KT 10SM OVC017 05/05 A3022 RMK AO2
CBF,2017-04-01 13:55,-95.7604,41.2611,41.00,41.00,100.00,60.00,7.00,0.00,30.22,M,10.00,M,OVC,M,M,M,1700.00,M,M,M,M,KCBF 011355Z AUTO 06007KT 10SM OVC017 05/05 A3022 RMK AO2
CBF,2017-04-01 14:00,-95.7604,41.2611,41.00,41.00,100.00,60.00,7.00,0.00,30.21,M,10.00,M,OVC,M,M,M,1600.00,M,M,M,M,KCBF 011400Z AUTO 06007KT 10SM OVC016 05/05 A3021 RMK AO2
CBF,2017-04-01 14:10,-95.7604,41.2611,41.00,41.00,100.00,60.00,7.00,0.00,30.22,M,10.00,M,OVC,M,M,M,1600.00,M,M,M,M,KCBF 011410Z AUTO 06007KT 10SM OVC016 05/05 A3022 RMK AO2
CBF,2017-04-01 14:15,-95.7604,41.2611,41.00,41.00,100.00,70.00,7.00,0.00,30.22,M,10.00,M,OVC,M,M,M,1600.00,M,M,M,M,KCBF 011415Z AUTO 07007KT 10SM OVC016 05/05 A3022 RMK AO2
CBF,2017-04-01 14:20,-95.7604,41.2611,41.00,41.00,100.00,80.00,7.00,0.00,30.22,M,10.00,M,OVC,M,M,M,1600.00,M,M,M,M,KCBF 011420Z AUTO 08007KT 10SM OVC016 05/05 A3022 RMK AO2
CBF,2017-04-01 14:30,-95.7604,41.2611,41.00,41.00,100.00,90.00,5.00,0.00,30.22,M,10.00,10.00,OVC,M,M,M,1500.00,M,M,M,M,KCBF 011430Z AUTO 09005G10KT 10SM OVC015 05/05 A3022 RMK AO2
CBF,2017-04-01 14:35,-95.7604,41.2611,41.00,41.00,100.00,80.00,7.00,0.00,30.23,M,10.00,M,OVC,M,M,M,1400.00,M,M,M,M,KCBF 011435Z AUTO 08007KT 10SM OVC014 05/05 A3023 RMK AO2
CBF,2017-04-01 14:40,-95.7604,41.2611,41.00,41.00,100.00,80.00,8.00,0.00,30.23,M,10.00,M,OVC,M,M,M,1400.00,M,M,M,M,KCBF 011440Z AUTO 08008KT 10SM OVC014 05/05 A3023 RMK AO2
CBF,2017-04-01 14:50,-95.7604,41.2611,41.00,41.00,100.00,90.00,6.00,0.00,30.23,M,10.00,M,OVC,M,M,M,1400.00,M,M,M,M,KCBF 011450Z AUTO 09006KT 10SM OVC014 05/05 A3023 RMK AO2
CBF,2017-04-01 14:55,-95.7604,41.2611,41.00,41.00,100.00,100.00,8.00,0.00,30.23,M,10.00,M,OVC,M,M,M,1300.00,M,M,M,M,KCBF 011455Z AUTO 10008KT 10SM OVC013 05/05 A3023 RMK AO2
CBF,2017-04-01 15:00,-95.7604,41.2611,41.00,41.00,100.00,90.00,7.00,0.00,30.23,M,10.00,M,OVC,M,M,M,1400.00,M,M,M,M,KCBF 011500Z AUTO 09007KT 060V120 10SM OVC014 05/05 A3023 RMK AO2
CBF,2017-04-01 15:10,-95.7604,41.2611,41.00,41.00,100.00,90.00,6.00,0.00,30.23,M,10.00,M,OVC,M,M,M,1400.00,M,M,M,M,KCBF 011510Z AUTO 09006KT 10SM OVC014 05/05 A3023 RMK AO2
CBF,2017-04-01 15:15,-95.7604,41.2611,41.00,41.00,100.00,80.00,7.00,0.00,30.23,M,10.00,M,OVC,M,M,M,1400.00,M,M,M,M,KCBF 011515Z AUTO 08007KT 10SM OVC014 05/05 A3023 RMK AO2
CBF,2017-04-01 15:20,-95.7604,41.2611,42.80,41.00,93.30,80.00,5.00,0.00,30.23,M,10.00,11.00,OVC,M,M,M,1500.00,M,M,M,M,KCBF 011520Z AUTO 08005G11KT 10SM OVC015 06/05 A3023 RMK AO2
CBF,2017-04-01 15:30,-95.7604,41.2611,42.80,41.00,93.30,90.00,7.00,0.00,30.23,M,10.00,M,OVC,M,M,M,1500.00,M,M,M,M,KCBF 011530Z AUTO 09007KT 10SM OVC015 06/05 A3023 RMK AO2
CBF,2017-04-01 15:35,-95.7604,41.2611,42.80,41.00,93.30,100.00,7.00,0.00,30.23,M,10.00,M,OVC,M,M,M,1500.00,M,M,M,M,KCBF 011535Z AUTO 10007KT 10SM OVC015 06/05 A3023 RMK AO2
CBF,2017-04-01 15:40,-95.7604,41.2611,42.80,41.00,93.30,90.00,7.00,0.00,30.23,M,10.00,M,OVC,M,M,M,1500.00,M,M,M,M,KCBF 011540Z AUTO 09007KT 10SM OVC015 06/05 A3023 RMK AO2
CBF,2017-04-01 15:50,-95.7604,41.2611,42.80,41.00,93.30,70.00,7.00,0.00,30.23,M,10.00,M,BKN,M,M,M,1500.00,M,M,M,M,KCBF 011550Z AUTO 07007KT 10SM BKN015 06/05 A3023 RMK AO2
CBF,2017-04-01 15:55,-95.7604,41.2611,42.80,41.00,93.30,80.00,5.00,0.00,30.23,M,10.00,M,OVC,M,M,M,1500.00,M,M,M,M,KCBF 011555Z AUTO 08005KT 10SM OVC015 06/05 A3023 RMK AO2
CBF,2017-04-01 16:00,-95.7604,41.2611,42.80,41.00,93.30,80.00,7.00,0.00,30.23,M,10.00,M,M,M,M,M,M,M,M,M,M,KCBF 011600Z AUTO 08007KT 10SM 06/05 A3023 RMK AO2
CBF,2017-04-01 16:10,-95.7604,41.2611,42.80,41.00,93.30,120.00,8.00,0.00,30.25,M,10.00,M,M,M,M,M,M,M,M,M,M,KCBF 011610Z AUTO 12008KT 10SM 06/05 A3025 RMK AO2
CBF,2017-04-01 16:15,-95.7604,41.2611,42.80,41.00,93.30,120.00,5.00,0.00,30.25,M,10.00,M,M,M,M,M,M,M,M,M,M,KCBF 011615Z AUTO 12005KT 10SM 06/05 A3025 RMK AO2
CBF,2017-04-01 16:20,-95.7604,41.2611,42.80,41.00,93.30,130.00,8.00,0.00,30.25,M,10.00,M,M,M,M,M,M,M,M,M,M,KCBF 011620Z AUTO 13008KT 10SM 06/05 A3025 RMK AO2
CBF,2017-04-01 16:30,-95.7604,41.2611,42.80,41.00,93.30,130.00,7.00,0.00,30.25,M,10.00,M,M,M,M,M,M,M,M,M,M,KCBF 011630Z AUTO 13007KT 10SM 06/05 A3025 RMK AO2
CBF,2017-04-01 16:35,-95.7604,41.2611,42.80,41.00,93.30,140.00,8.00,0.00,30.25,M,10.00,M,M,M,M,M,M,M,M,M,M,KCBF 011635Z AUTO 14008KT 10SM 06/05 A3025 RMK AO2
CBF,2017-04-01 16:40,-95.7604,41.2611,42.80,41.00,93.30,140.00,9.00,0.00,30.25,M,10.00,M,M,M,M,M,M,M,M,M,M,KCBF 011640Z AUTO 14009KT 10SM 06/05 A3025 RMK AO2
CBF,2017-04-01 16:50,-95.7604,41.2611,42.80,41.00,93.30,140.00,9.00,0.00,30.24,M,10.00,M,OVC,M,M,M,1500.00,M,M,M,M,KCBF 011650Z AUTO 14009KT 10SM OVC015 06/05 A3024 RMK AO2
CBF,2017-04-01 16:55,-95.7604,41.2611,42.80,41.00,93.30,130.00,9.00,0.00,30.24,M,10.00,M,OVC,M,M,M,1500.00,M,M,M,M,KCBF 011655Z AUTO 13009KT 10SM OVC015 06/05 A3024 RMK AO2
CBF,2017-04-01 17:00,-95.7604,41.2611,42.80,41.00,93.30,140.00,7.00,0.00,30.23,M,10.00,M,OVC,M,M,M,1500.00,M,M,M,M,KCBF 011700Z AUTO 14007KT 10SM OVC015 06/05 A3023 RMK AO2
CBF,2017-04-01 17:10,-95.7604,41.2611,42.80,41.00,93.30,130.00,6.00,0.00,30.23,M,10.00,M,OVC,M,M,M,1400.00,M,M,M,M,KCBF 011710Z AUTO 13006KT 10SM OVC014 06/05 A3023 RMK AO2
CBF,2017-04-01 17:15,-95.7604,41.2611,42.80,41.00,93.30,150.00,6.00,0.00,30.23,M,10.00,M,OVC,M,M,M,1400.00,M,M,M,M,KCBF 011715Z AUTO 15006KT 10SM OVC014 06/05 A3023 RMK AO2
CBF,2017-04-01 17:20,-95.7604,41.2611,42.80,41.00,93.30,140.00,5.00,0.00,30.23,M,10.00,M,OVC,M,M,M,1400.00,M,M,M,M,KCBF 011720Z AUTO 14005KT 10SM OVC014 06/05 A3023 RMK AO2
CBF,2017-04-01 17:30,-95.7604,41.2611,42.80,41.00,93.30,M,4.00,0.00,30.22,M,10.00,M,OVC,M,M,M,1400.00,M,M,M,M,KCBF 011730Z AUTO VRB04KT 10SM OVC014 06/05 A3022 RMK AO2
CBF,2017-04-01 17:35,-95.7604,41.2611,42.80,41.00,93.30,110.00,6.00,0.00,30.22,M,10.00,M,OVC,M,M,M,1400.00,M,M,M,M,KCBF 011735Z AUTO 11006KT 10SM OVC014 06/05 A3022 RMK AO2
CBF,2017-04-01 17:40,-95.7604,41.2611,42.80,41.00,93.30,100.00,6.00,0.00,30.21,M,10.00,M,OVC,M,M,M,1400.00,M,M,M,M,KCBF 011740Z AUTO 10006KT 10SM OVC014 06/05 A3021 RMK AO2
CBF,2017-04-01 17:50,-95.7604,41.2611,42.80,39.20,86.99,100.00,6.00,0.00,30.21,M,10.00,M,OVC,M,M,M,1400.00,M,M,M,M,KCBF 011750Z AUTO 10006KT 10SM OVC014 06/04 A3021 RMK AO2
CBF,2017-04-01 17:55,-95.7604,41.2611,44.60,41.00,87.09,90.00,7.00,0.00,30.21,M,10.00,M,OVC,M,M,M,1500.00,M,M,M,M,KCBF 011755Z AUTO 09007KT 10SM OVC015 07/05 A3021 RMK AO2
CBF,2017-04-01 18:00,-95.7604,41.2611,44.60,41.00,87.09,100.00,7.00,0.00,30.21,M,10.00,M,OVC,M,M,M,1500.00,M,M,M,M,KCBF 011800Z AUTO 10007KT 10SM OVC015 07/05 A3021 RMK AO2
CBF,2017-04-01 18:10,-95.7604,41.2611,44.60,39.20,81.20,100.00,5.00,0.00,30.22,M,10.00,M,M,M,M,M,M,M,M,M,M,KCBF 011810Z AUTO 10005KT 10SM 07/04 A3022 RMK AO2
CBF,2017-04-01 18:15,-95.7604,41.2611,44.60,39.20,81.20,100.00,7.00,0.00,30.22,M,10.00,M,M,M,M,M,M,M,M,M,M,KCBF 011815Z AUTO 10007KT 10SM 07/04 A3022 RMK AO2
CBF,2017-04-01 18:20,-95.7604,41.2611,44.60,41.00,87.09,120.00,6.00,0.00,30.22,M,10.00,M,M,M,M,M,M,M,M,M,M,KCBF 011820Z AUTO 12006KT 10SM 07/05 A3022 RMK AO2
CBF,2017-04-01 18:30,-95.7604,41.2611,44.60,39.20,81.20,100.00,6.00,0.00,30.21,M,10.00,M,M,M,M,M,M,M,M,M,M,KCBF 011830Z AUTO 10006KT 10SM 07/04 A3021 RMK AO2
CBF,2017-04-01 18:35,-95.7604,41.2611,44.60,41.00,87.09,100.00,7.00,0.00,30.21,M,10.00,M,M,M,M,M,M,M,M,M,M,KCBF 011835Z AUTO 10007KT 10SM 07/05 A3021 RMK AO2
CBF,2017-04-01 18:40,-95.7604,41.2611,44.60,41.00,87.09,130.00,7.00,0.00,30.21,M,10.00,M,M,M,M,M,M,M,M,M,M,KCBF 011840Z AUTO 13007KT 10SM 07/05 A3021 RMK AO2
CBF,2017-04-01 18:50,-95.7604,41.2611,46.40,41.00,81.34,120.00,9.00,0.00,30.19,M,10.00,M,M,M,M,M,M,M,M,M,M,KCBF 011850Z AUTO 12009KT 10SM 08/05 A3019 RMK AO2
CBF,2017-04-01 18:55,-95.7604,41.2611,46.40,41.00,81.34,100.00,9.00,0.00,30.19,M,10.00,M,M,M,M,M,M,M,M,M,M,KCBF 011855Z AUTO 10009KT 10SM 08/05 A3019 RMK AO2
CBF,2017-04-01 19:00,-95.7604,41.2611,46.40,41.00,81.34,90.00,9.00,0.00,30.18,M,10.00,M,M,M,M,M,M,M,M,M,M,KCBF 011900Z AUTO 09009KT 10SM 08/05 A3018 RMK AO2
CBF,2017-04-01 19:10,-95.7604,41.2611,44.60,39.20,81.20,80.00,10.00,0.00,30.16,M,10.00,M,M,M,M,M,M,M,M,M,M,KCBF 011910Z AUTO 08010KT 10SM 07/04 A3016 RMK AO2
CBF,2017-04-01 19:15,-95.7604,41.2611,46.40,41.00,81.34,90.00,9.00,0.00,30.16,M,10.00,M,M,M,M,M,M,M,M,M,M,KCBF 011915Z AUTO 09009KT 10SM 08/05 A3016 RMK AO2
CBF,2017-04-01 19:20,-95.7604,41.2611,46.40,41.00,81.34,90.00,8.00,0.00,30.17,M,10.00,14.00,M,M,M,M,M,M,M,M,M,KCBF 011920Z AUTO 09008G14KT 10SM 08/05 A3017 RMK AO2
CBF,2017-04-01 19:30,-95.7604,41.2611,46.40,41.00,81.34,110.00,7.00,0.00,30.19,M,10.00,M,M,M,M,M,M,M,M,M,M,KCBF 011930Z AUTO 11007KT 10SM 08/05 A3019 RMK AO2
CBF,2017-04-01 19:35,-95.7604,41.2611,46.40,41.00,81.34,120.00,6.00,0.00,30.19,M,10.00,M,SCT,M,M,M,1600.00,M,M,M,M,KCBF 011935Z AUTO 12006KT 10SM SCT016 08/05 A3019 RMK AO2
CBF,2017-04-01 19:40,-95.7604,41.2611,46.40,41.00,81.34,130.00,8.00,0.00,30.19,M,10.00,M,BKN,M,M,M,1700.00,M,M,M,M,KCBF 011940Z AUTO 13008KT 10SM BKN017 08/05 A3019 RMK AO2
CBF,2017-04-01 19:50,-95.7604,41.2611,46.40,41.00,81.34,150.00,7.00,0.00,30.21,M,10.00,12.00,BKN,BKN,M,M,1700.00,2200.00,M,M,M,KCBF 011950Z AUTO 15007G12KT 10SM BKN017 BKN022 08/05 A3021 RMK AO2
CBF,2017-04-01 19:55,-95.7604,41.2611,46.40,41.00,81.34,140.00,9.00,0.00,30.19,M,10.00,M,OVC,M,M,M,1700.00,M,M,M,M,KCBF 011955Z AUTO 14009KT 10SM OVC017 08/05 A3019 RMK AO2
CBF,2017-04-01 20:00,-95.7604,41.2611,46.40,41.00,81.34,130.00,7.00,0.00,30.19,M,10.00,M,OVC,M,M,M,1700.00,M,M,M,M,KCBF 012000Z AUTO 13007KT 10SM OVC017 08/05 A3019 RMK AO2
CBF,2017-04-01 20:10,-95.7604,41.2611,46.40,41.00,81.34,0.00,0.00,0.00,30.19,M,10.00,M,BKN,SCT,M,M,1700.00,2100.00,M,M,M,KCBF 012010Z AUTO 00000KT 10SM BKN017 SCT021 08/05 A3019 RMK AO2
CBF,2017-04-01 20:15,-95.7604,41.2611,46.40,41.00,81.34,120.00,4.00,0.00,30.19,M,10.00,M,BKN,BKN,M,M,1700.00,2100.00,M,M,M,KCBF 012015Z AUTO 12004KT 10SM BKN017 BKN021 08/05 A3019 RMK AO2
CBF,2017-04-01 20:20,-95.7604,41.2611,46.40,41.00,81.34,70.00,5.00,0.00,30.18,M,10.00,M,BKN,M,M,M,1700.00,M,M,M,M,KCBF 012020Z AUTO 07005KT 10SM BKN017 08/05 A3018 RMK AO2
CBF,2017-04-01 20:30,-95.7604,41.2611,46.40,41.00,81.34,100.00,6.00,0.00,30.17,M,10.00,M,SCT,M,M,M,1900.00,M,M,M,M,KCBF 012030Z AUTO 10006KT 10SM SCT019 08/05 A3017 RMK AO2
CBF,2017-04-01 20:35,-95.7604,41.2611,46.40,41.00,81.34,100.00,6.00,0.00,30.17,M,10.00,M,SCT,M,M,M,1800.00,M,M,M,M,KCBF 012035Z AUTO 10006KT 10SM SCT018 08/05 A3017 RMK AO2
CBF,2017-04-01 20:40,-95.7604,41.2611,46.40,41.00,81.34,100.00,6.00,0.00,30.17,M,10.00,M,SCT,M,M,M,1800.00,M,M,M,M,KCBF 012040Z AUTO 10006KT 10SM SCT018 08/05 A3017 RMK AO2
CBF,2017-04-01 20:50,-95.7604,41.2611,46.40,41.00,81.34,120.00,6.00,0.00,30.17,M,10.00,M,BKN,BKN,M,M,1900.00,6500.00,M,M,M,KCBF 012050Z AUTO 12006KT 10SM BKN019 BKN065 08/05 A3017 RMK AO2
CBF,2017-04-01 20:55,-95.7604,41.2611,46.40,41.00,81.34,140.00,7.00,0.00,30.17,M,10.00,M,SCT,BKN,M,M,1900.00,6500.00,M,M,M,KCBF 012055Z AUTO 14007KT 10SM SCT019 BKN065 08/05 A3017 RMK AO2
CBF,2017-04-01 21:00,-95.7604,41.2611,46.40,41.00,81.34,140.00,6.00,0.00,30.18,M,10.00,M,SCT,BKN,M,M,2000.00,6500.00,M,M,M,KCBF 012100Z AUTO 14006KT 10SM SCT020 BKN065 08/05 A3018 RMK AO2
CBF,2017-04-01 21:10,-95.7604,41.2611,46.40,41.00,81.34,130.00,6.00,0.00,30.17,M,10.00,M,SCT,BKN,M,M,2000.00,6500.00,M,M,M,KCBF 012110Z AUTO 13006KT 10SM SCT020 BKN065 08/05 A3017 RMK AO2
CBF,2017-04-01 21:15,-95.7604,41.2611,46.40,41.00,81.34,110.00,6.00,0.00,30.16,M,10.00,M,FEW,BKN,M,M,2000.00,6500.00,M,M,M,KCBF 012115Z AUTO 11006KT 10SM FEW020 BKN065 08/05 A3016 RMK AO2
CBF,2017-04-01 21:20,-95.7604,41.2611,46.40,41.00,81.34,110.00,8.00,0.00,30.15,M,10.00,M,FEW,BKN,M,M,2100.00,6500.00,M,M,M,KCBF 012120Z AUTO 11008KT 10SM FEW021 BKN065 08/05 A3015 RMK AO2
CBF,2017-04-01 21:30,-95.7604,41.2611,46.40,41.00,81.34,100.00,7.00,0.00,30.15,M,10.00,M,BKN,M,M,M,6500.00,M,M,M,M,KCBF 012130Z AUTO 10007KT 10SM BKN065 08/05 A3015 RMK AO2
CBF,2017-04-01 21:35,-95.7604,41.2611,46.40,41.00,81.34,120.00,8.00,0.00,30.16,M,10.00,M,BKN,M,M,M,6500.00,M,M,M,M,KCBF 012135Z AUTO 12008KT 10SM BKN065 08/05 A3016 RMK AO2
CBF,2017-04-01 21:40,-95.7604,41.2611,48.20,41.00,76.01,130.00,9.00,0.00,30.16,M,10.00,M,BKN,M,M,M,6500.00,M,M,M,M,KCBF 012140Z AUTO 13009KT 10SM BKN065 09/05 A3016 RMK AO2
CBF,2017-04-01 21:50,-95.7604,41.2611,48.20,41.00,76.01,90.00,7.00,0.00,30.16,M,10.00,M,FEW,SCT,M,M,2100.00,7000.00,M,M,M,KCBF 012150Z AUTO 09007KT 10SM FEW021 SCT070 09/05 A3016 RMK AO2
CBF,2017-04-01 21:55,-95.7604,41.2611,48.20,41.00,76.01,90.00,7.00,0.00,30.16,M,10.00,M,FEW,SCT,M,M,2100.00,7000.00,M,M,M,KCBF 012155Z AUTO 09007KT 10SM FEW021 SCT070 09/05 A3016 RMK AO2
CBF,2017-04-01 22:00,-95.7604,41.2611,48.20,41.00,76.01,120.00,6.00,0.00,30.17,M,10.00,M,FEW,FEW,M,M,2100.00,6500.00,M,M,M,KCBF 012200Z AUTO 12006KT 10SM FEW021 FEW065 09/05 A3017 RMK AO2
CBF,2017-04-01 22:10,-95.7604,41.2611,48.20,41.00,76.01,120.00,7.00,0.00,30.17,M,10.00,M,SCT,BKN,M,M,2000.00,6500.00,M,M,M,KCBF 012210Z AUTO 12007KT 10SM SCT020 BKN065 09/05 A3017 RMK AO2
CBF,2017-04-01 22:15,-95.7604,41.2611,48.20,41.00,76.01,100.00,7.00,0.00,30.17,M,10.00,M,SCT,BKN,M,M,2000.00,7000.00,M,M,M,KCBF 012215Z AUTO 10007KT 10SM SCT020 BKN070 09/05 A3017 RMK AO2
CBF,2017-04-01 22:20,-95.7604,41.2611,48.20,42.80,81.47,110.00,6.00,0.00,30.16,M,10.00,M,FEW,BKN,M,M,2000.00,7000.00,M,M,M,KCBF 012220Z AUTO 11006KT 10SM FEW020 BKN070 09/06 A3016 RMK AO2
CBF,2017-04-01 22:30,-95.7604,41.2611,48.20,41.00,76.01,100.00,10.00,0.00,30.15,M,10.00,M,SCT,OVC,M,M,2000.00,7000.00,M,M,M,KCBF 012230Z AUTO 10010KT 10SM SCT020 OVC070 09/05 A3015 RMK AO2
CBF,2017-04-01 22:35,-95.7604,41.2611,48.20,41.00,76.01,90.00,7.00,0.00,30.15,M,10.00,M,FEW,FEW,OVC,M,2000.00,2400.00,7000.00,M,M,KCBF 012235Z AUTO 09007KT 10SM FEW020 FEW024 OVC070 09/05 A3015 RMK AO2
CBF,2017-04-01 22:40,-95.7604,41.2611,48.20,41.00,76.01,80.00,9.00,0.00,30.14,M,10.00,M,FEW,BKN,BKN,M,2000.00,7000.00,8500.00,M,M,KCBF 012240Z AUTO 08009KT 10SM FEW020 BKN070 BKN085 09/05 A3014 RMK AO2
CBF,2017-04-01 22:50,-95.7604,41.2611,46.40,41.00,81.34,90.00,6.00,0.00,30.14,M,10.00,M,FEW,SCT,BKN,M,2100.00,7000.00,8000.00,M,M,KCBF 012250Z AUTO 09006KT 10SM FEW021 SCT070 BKN080 08/05 A3014 RMK AO2
CBF,2017-04-01 22:55,-95.7604,41.2611,48.20,42.80,81.47,100.00,6.00,0.00,30.15,M,10.00,M,FEW,BKN,M,M,7000.00,8000.00,M,M,M,KCBF 012255Z AUTO 10006KT 10SM FEW070 BKN080 09/06 A3015 RMK AO2
CBF,2017-04-01 23:00,-95.7604,41.2611,48.20,41.00,76.01,100.00,7.00,0.00,30.15,M,10.00,M,FEW,BKN,M,M,7000.00,8000.00,M,M,M,KCBF 012300Z AUTO 10007KT 10SM FEW070 BKN080 09/05 A3015 RMK AO2
CBF,2017-04-01 23:10,-95.7604,41.2611,48.20,41.00,76.01,100.00,5.00,0.00,30.15,M,10.00,M,BKN,M,M,M,8500.00,M,M,M,M,KCBF 012310Z AUTO 10005KT 10SM BKN085 09/05 A3015 RMK AO2
CBF,2017-04-01 23:15,-95.7604,41.2611,48.20,41.00,76.01,100.00,5.00,0.00,30.15,M,10.00,M,BKN,M,M,M,8500.00,M,M,M,M,KCBF 012315Z AUTO 10005KT 10SM BKN085 09/05 A3015 RMK AO2
CBF,2017-04-01 23:20,-95.7604,41.2611,48.20,41.00,76.01,110.00,6.00,0.00,30.15,M,10.00,M,BKN,M,M,M,8500.00,M,M,M,M,KCBF 012320Z AUTO 11006KT 10SM BKN085 09/05 A3015 RMK AO2
CBF,2017-04-01 23:30,-95.7604,41.2611,48.20,42.80,81.47,80.00,5.00,0.00,30.15,M,10.00,M,BKN,M,M,M,9000.00,M,M,M,M,KCBF 012330Z AUTO 08005KT 10SM BKN090 09/06 A3015 RMK AO2
CBF,2017-04-01 23:35,-95.7604,41.2611,48.20,42.80,81.47,90.00,5.00,0.00,30.15,M,10.00,M,BKN,M,M,M,9000.00,M,M,M,M,KCBF 012335Z AUTO 09005KT 10SM BKN090 09/06 A3015 RMK AO2
CBF,2017-04-01 23:40,-95.7604,41.2611,48.20,42.80,81.47,90.00,5.00,0.00,30.15,M,10.00,M,OVC,M,M,M,9000.00,M,M,M,M,KCBF 012340Z AUTO 09005KT 10SM OVC090 09/06 A3015 RMK AO2
CBF,2017-04-01 23:50,-95.7604,41.2611,48.20,42.80,81.47,90.00,4.00,0.00,30.16,M,10.00,M,OVC,M,M,M,9000.00,M,M,M,M,KCBF 012350Z AUTO 09004KT 10SM OVC090 09/06 A3016 RMK AO2
CBF,2017-04-01 23:55,-95.7604,41.2611,48.20,42.80,81.47,110.00,3.00,0.00,30.16,M,10.00,M,OVC,M,M,M,9000.00,M,M,M,M,KCBF 012355Z AUTO 11003KT 10SM OVC090 09/06 A3016 RMK AO2
