#DEBUG: Format Typ    -> comma
#DEBUG: Time Period   -> 2017-04-01 00:00:00+00:00 2017-04-02 00:00:00+00:00
#DEBUG: Time Zone     -> Etc/UTC
#DEBUG: Data Contact   -> daryl herzmann akrherz@iastate.edu 515-294-5978
#DEBUG: Entries Found -> -1
station,valid,lon,lat,tmpf, dwpf, relh, drct, sknt, p01i, alti, mslp, vsby, gust, skyc1, skyc2, skyc3, skyc4, skyl1, skyl2, skyl3, skyl4, presentwx, metar
CBG,2017-04-01 00:15,-93.2642,45.5575,57.20,33.80,41.13,20.00,3.00,0.00,30.03,M,10.00,M,CLR,M,M,M,M,M,M,M,M,KCBG 010015Z AUTO 02003KT 10SM CLR 14/01 A3003 RMK AO2
CBG,2017-04-01 00:36,-93.2642,45.5575,55.40,32.00,40.84,0.00,0.00,0.00,30.04,M,10.00,M,CLR,M,M,M,M,M,M,M,M,KCBG 010036Z AUTO 00000KT 10SM CLR 13/00 A3004 RMK AO2
CBG,2017-04-01 00:55,-93.2642,45.5575,51.80,32.00,46.59,0.00,0.00,0.00,30.05,M,10.00,M,CLR,M,M,M,M,M,M,M,M,KCBG 010055Z AUTO 00000KT 10SM CLR 11/00 A3005 RMK AO2
CBG,2017-04-01 01:15,-93.2642,45.5575,46.40,28.40,49.24,0.00,0.00,0.00,30.05,M,10.00,M,CLR,M,M,M,M,M,M,M,M,KCBG 010115Z AUTO 00000KT 10SM CLR 08/M02 A3005 RMK AO2
CBG,2017-04-01 01:36,-93.2642,45.5575,46.40,28.40,49.24,0.00,0.00,0.00,30.06,M,10.00,M,CLR,M,M,M,M,M,M,M,M,KCBG 010136Z AUTO 00000KT 10SM CLR 08/M02 A3006 RMK AO2
CBG,2017-04-01 01:55,-93.2642,45.5575,42.80,28.40,56.48,0.00,0.00,0.00,30.06,M,10.00,M,CLR,M,M,M,M,M,M,M,M,KCBG 010155Z AUTO 00000KT 10SM CLR 06/M02 A3006 RMK AO2
CBG,2017-04-01 02:15,-93.2642,45.5575,42.80,26.60,52.45,0.00,0.00,0.00,30.07,M,10.00,M,CLR,M,M,M,M,M,M,M,M,KCBG 010215Z AUTO 00000KT 10SM CLR 06/M03 A3007 RMK AO2
CBG,2017-04-01 02:36,-93.2642,45.5575,39.20,28.40,64.93,0.00,0.00,0.00,30.08,M,10.00,M,CLR,M,M,M,M,M,M,M,M,KCBG 010236Z AUTO 00000KT 10SM CLR 04/M02 A3008 RMK AO2
CBG,2017-04-01 02:55,-93.2642,45.5575,39.20,26.60,60.29,0.00,0.00,0.00,30.08,M,10.00,M,CLR,M,M,M,M,M,M,M,M,KCBG 010255Z AUTO 00000KT 10SM CLR 04/M03 A3008 RMK AO2
CBG,2017-04-01 03:15,-93.2642,45.5575,39.20,26.60,60.29,0.00,0.00,0.00,30.09,M,10.00,M,CLR,M,M,M,M,M,M,M,M,KCBG 010315Z AUTO 00000KT 10SM CLR 04/M03 A3009 RMK AO2
CBG,2017-04-01 03:36,-93.2642,45.5575,39.20,26.60,60.29,0.00,0.00,0.00,30.10,M,10.00,M,CLR,M,M,M,M,M,M,M,M,KCBG 010336Z AUTO 00000KT 10SM CLR 04/M03 A3010 RMK AO2
CBG,2017-04-01 03:55,-93.2642,45.5575,39.20,26.60,60.29,0.00,0.00,0.00,30.10,M,10.00,M,CLR,M,M,M,M,M,M,M,M,KCBG 010355Z AUTO 00000KT 10SM CLR 04/M03 A3010 RMK AO2
CBG,2017-04-01 04:16,-93.2642,45.5575,37.40,26.60,64.70,0.00,0.00,0.00,30.11,M,10.00,M,CLR,M,M,M,M,M,M,M,M,KCBG 010416Z AUTO 00000KT 10SM CLR 03/M03 A3011 RMK AO2
CBG,2017-04-01 04:35,-93.2642,45.5575,37.40,26.60,64.70,0.00,0.00,0.00,30.11,M,10.00,M,CLR,M,M,M,M,M,M,M,M,KCBG 010435Z AUTO 00000KT 10SM CLR 03/M03 A3011 RMK AO2
CBG,2017-04-01 04:55,-93.2642,45.5575,37.40,26.60,64.70,0.00,0.00,0.00,30.12,M,10.00,M,CLR,M,M,M,M,M,M,M,M,KCBG 010455Z AUTO 00000KT 10SM CLR 03/M03 A3012 RMK AO2
CBG,2017-04-01 05:16,-93.2642,45.5575,37.40,24.80,60.04,0.00,0.00,0.00,30.12,M,10.00,M,CLR,M,M,M,M,M,M,M,M,KCBG 010516Z AUTO 00000KT 10SM CLR 03/M04 A3012 RMK AO2
CBG,2017-04-01 05:35,-93.2642,45.5575,35.60,26.60,69.46,0.00,0.00,0.00,30.12,M,10.00,M,CLR,M,M,M,M,M,M,M,M,KCBG 010535Z AUTO 00000KT 10SM CLR 02/M03 A3012 RMK AO2
CBG,2017-04-01 05:55,-93.2642,45.5575,33.80,24.80,69.25,0.00,0.00,0.00,30.12,M,10.00,M,CLR,M,M,M,M,M,M,M,M,KCBG 010555Z AUTO 00000KT 10SM CLR 01/M04 A3012 RMK AO2
CBG,2017-04-01 06:16,-93.2642,45.5575,33.80,24.80,69.25,0.00,0.00,0.00,30.13,M,10.00,M,CLR,M,M,M,M,M,M,M,M,KCBG 010616Z AUTO 00000KT 10SM CLR 01/M04 A3013 RMK AO2
CBG,2017-04-01 06:35,-93.2642,45.5575,33.80,24.80,69.25,0.00,0.00,0.00,30.13,M,10.00,M,CLR,M,M,M,M,M,M,M,M,KCBG 010635Z AUTO 00000KT 10SM CLR 01/M04 A3013 RMK AO2
CBG,2017-04-01 06:55,-93.2642,45.5575,33.80,24.80,69.25,0.00,0.00,0.00,30.14,M,10.00,M,CLR,M,M,M,M,M,M,M,M,KCBG 010655Z AUTO 00000KT 10SM CLR 01/M04 A3014 RMK AO2
CBG,2017-04-01 07:16,-93.2642,45.5575,33.80,24.80,69.25,0.00,0.00,0.00,30.14,M,10.00,M,CLR,M,M,M,M,M,M,M,M,KCBG 010716Z AUTO 00000KT 10SM CLR 01/M04 A3014 RMK AO2
CBG,2017-04-01 07:35,-93.2642,45.5575,35.60,24.80,64.46,0.00,0.00,0.00,30.14,M,10.00,M,CLR,M,M,M,M,M,M,M,M,KCBG 010735Z AUTO 00000KT 10SM CLR 02/M04 A3014 RMK AO2
CBG,2017-04-01 07:55,-93.2642,45.5575,35.60,24.80,64.46,0.00,0.00,0.00,30.14,M,10.00,M,CLR,M,M,M,M,M,M,M,M,KCBG 010755Z AUTO 00000KT 10SM CLR 02/M04 A3014 RMK AO2
CBG,2017-04-01 08:16,-93.2642,45.5575,35.60,24.80,64.46,0.00,0.00,0.00,30.14,M,10.00,M,CLR,M,M,M,M,M,M,M,M,KCBG 010816Z AUTO 00000KT 10SM CLR 02/M04 A3014 RMK AO2
CBG,2017-04-01 08:35,-93.2642,45.5575,33.80,24.80,69.25,0.00,0.00,0.00,30.15,M,10.00,M,CLR,M,M,M,M,M,M,M,M,KCBG 010835Z AUTO 00000KT 10SM CLR 01/M04 A3015 RMK AO2 LTG DSNT SW
CBG,2017-04-01 08:56,-93.2642,45.5575,33.80,24.80,69.25,0.00,0.00,0.00,30.15,M,10.00,M,CLR,M,M,M,M,M,M,M,M,KCBG 010856Z AUTO 00000KT 10SM CLR 01/M04 A3015 RMK AO2
CBG,2017-04-01 09:15,-93.2642,45.5575,33.80,24.80,69.25,0.00,0.00,0.00,30.15,M,10.00,M,CLR,M,M,M,M,M,M,M,M,KCBG 010915Z AUTO 00000KT 10SM CLR 01/M04 A3015 RMK AO2
CBG,2017-04-01 09:35,-93.2642,45.5575,32.00,24.80,74.44,0.00,0.00,0.00,30.15,M,10.00,M,CLR,M,M,M,M,M,M,M,M,KCBG 010935Z AUTO 00000KT 10SM CLR 00/M04 A3015 RMK AO2
CBG,2017-04-01 09:56,-93.2642,45.5575,32.00,23.00,69.04,0.00,0.00,0.00,30.16,M,10.00,M,CLR,M,M,M,M,M,M,M,M,KCBG 010956Z AUTO 00000KT 10SM CLR 00/M05 A3016 RMK AO2
CBG,2017-04-01 10:15,-93.2642,45.5575,32.00,24.80,74.44,0.00,0.00,0.00,30.16,M,10.00,M,CLR,M,M,M,M,M,M,M,M,KCBG 011015Z AUTO 00000KT 10SM CLR 00/M04 A3016 RMK AO2
CBG,2017-04-01 10:35,-93.2642,45.5575,33.80,24.80,69.25,0.00,0.00,0.00,30.16,M,10.00,M,CLR,M,M,M,M,M,M,M,M,KCBG 011035Z AUTO 00000KT 10SM CLR 01/M04 A3016 RMK AO2
CBG,2017-04-01 10:56,-93.2642,45.5575,33.80,24.80,69.25,0.00,0.00,0.00,30.16,M,10.00,M,CLR,M,M,M,M,M,M,M,M,KCBG 011056Z AUTO 00000KT 10SM CLR 01/M04 A3016 RMK AO2
CBG,2017-04-01 11:15,-93.2642,45.5575,32.00,24.80,74.44,0.00,0.00,0.00,30.16,M,10.00,M,CLR,M,M,M,M,M,M,M,M,KCBG 011115Z AUTO 00000KT 10SM CLR 00/M04 A3016 RMK AO2
CBG,2017-04-01 11:35,-93.2642,45.5575,30.20,23.00,74.26,0.00,0.00,0.00,30.17,M,10.00,M,CLR,M,M,M,M,M,M,M,M,KCBG 011135Z AUTO 00000KT 10SM CLR M01/M05 A3017 RMK AO2
CBG,2017-04-01 11:56,-93.2642,45.5575,32.00,24.80,74.44,0.00,0.00,0.00,30.18,M,10.00,M,CLR,M,M,M,M,M,M,M,M,KCBG 011156Z AUTO 00000KT 10SM CLR 00/M04 A3018 RMK AO2
CBG,2017-04-01 12:15,-93.2642,45.5575,32.00,24.80,74.44,0.00,0.00,0.00,30.17,M,10.00,M,CLR,M,M,M,M,M,M,M,M,KCBG 011215Z AUTO 00000KT 10SM CLR 00/M04 A3017 RMK AO2
CBG,2017-04-01 12:36,-93.2642,45.5575,32.00,26.60,80.22,0.00,0.00,0.00,30.18,M,10.00,M,CLR,M,M,M,M,M,M,M,M,KCBG 011236Z AUTO 00000KT 10SM CLR 00/M03 A3018 RMK AO2
CBG,2017-04-01 12:55,-93.2642,45.5575,35.60,26.60,69.46,0.00,0.00,0.00,30.18,M,10.00,M,CLR,M,M,M,M,M,M,M,M,KCBG 011255Z AUTO 00000KT 10SM CLR 02/M03 A3018 RMK AO2
CBG,2017-04-01 13:15,-93.2642,45.5575,39.20,30.20,69.88,0.00,0.00,0.00,30.18,M,10.00,M,CLR,M,M,M,M,M,M,M,M,KCBG 011315Z AUTO 00000KT 10SM CLR 04/M01 A3018 RMK AO2
CBG,2017-04-01 13:36,-93.2642,45.5575,42.80,32.00,65.38,0.00,0.00,0.00,30.18,M,10.00,M,CLR,M,M,M,M,M,M,M,M,KCBG 011336Z AUTO 00000KT 10SM CLR 06/00 A3018 RMK AO2
CBG,2017-04-01 13:55,-93.2642,45.5575,46.40,32.00,57.00,0.00,0.00,0.00,30.18,M,10.00,M,CLR,M,M,M,M,M,M,M,M,KCBG 011355Z AUTO 00000KT 10SM CLR 08/00 A3018 RMK AO2
CBG,2017-04-01 14:15,-93.2642,45.5575,50.00,33.80,53.54,210.00,5.00,0.00,30.19,M,10.00,M,CLR,M,M,M,M,M,M,M,M,KCBG 011415Z AUTO 21005KT 10SM CLR 10/01 A3019 RMK AO2
CBG,2017-04-01 14:36,-93.2642,45.5575,53.60,35.60,50.36,200.00,3.00,0.00,30.18,M,10.00,M,CLR,M,M,M,M,M,M,M,M,KCBG 011436Z AUTO 20003KT 10SM CLR 12/02 A3018 RMK AO2
CBG,2017-04-01 14:55,-93.2642,45.5575,55.40,35.60,47.16,220.00,5.00,0.00,30.18,M,10.00,M,SCT,M,M,M,11000.00,M,M,M,M,KCBG 011455Z AUTO 22005KT 10SM SCT110 13/02 A3018 RMK AO2
CBG,2017-04-01 15:15,-93.2642,45.5575,55.40,35.60,47.16,230.00,6.00,0.00,30.19,M,10.00,M,BKN,M,M,M,11000.00,M,M,M,M,KCBG 011515Z AUTO 23006KT 10SM BKN110 13/02 A3019 RMK AO2
CBG,2017-04-01 15:36,-93.2642,45.5575,57.20,35.60,44.19,210.00,4.00,0.00,30.20,M,10.00,M,SCT,SCT,M,M,8500.00,11000.00,M,M,M,KCBG 011536Z AUTO 21004KT 10SM SCT085 SCT110 14/02 A3020 RMK AO2
CBG,2017-04-01 15:55,-93.2642,45.5575,57.20,35.60,44.19,240.00,4.00,0.00,30.20,M,10.00,M,BKN,M,M,M,8500.00,M,M,M,M,KCBG 011555Z AUTO 24004KT 10SM BKN085 14/02 A3020 RMK AO2
CBG,2017-04-01 16:15,-93.2642,45.5575,59.00,35.60,41.42,270.00,8.00,0.00,30.19,M,10.00,M,SCT,M,M,M,8500.00,M,M,M,M,KCBG 011615Z AUTO 27008KT 10SM SCT085 15/02 A3019 RMK AO2
CBG,2017-04-01 16:36,-93.2642,45.5575,60.80,37.40,41.71,300.00,11.00,0.00,30.19,M,10.00,M,SCT,M,M,M,11000.00,M,M,M,M,KCBG 011636Z AUTO 30011KT 10SM SCT110 16/03 A3019 RMK AO2
CBG,2017-04-01 16:55,-93.2642,45.5575,60.80,37.40,41.71,280.00,8.00,0.00,30.18,M,10.00,M,SCT,M,M,M,11000.00,M,M,M,M,KCBG 011655Z AUTO 28008KT 10SM SCT110 16/03 A3018 RMK AO2
CBG,2017-04-01 17:16,-93.2642,45.5575,60.80,37.40,41.71,270.00,8.00,0.00,30.19,M,10.00,M,SCT,M,M,M,8000.00,M,M,M,M,KCBG 011716Z AUTO 27008KT 10SM SCT080 16/03 A3019 RMK AO2
CBG,2017-04-01 17:36,-93.2642,45.5575,60.80,37.40,41.71,270.00,8.00,0.00,30.17,M,10.00,M,SCT,M,M,M,8000.00,M,M,M,M,KCBG 011736Z AUTO 27008KT 10SM SCT080 16/03 A3017 RMK AO2
CBG,2017-04-01 17:55,-93.2642,45.5575,62.60,39.20,42.00,230.00,8.00,0.00,30.17,M,10.00,M,SCT,M,M,M,8000.00,M,M,M,M,KCBG 011755Z AUTO 23008KT 10SM SCT080 17/04 A3017 RMK AO2
CBG,2017-04-01 18:16,-93.2642,45.5575,62.60,39.20,42.00,280.00,8.00,0.00,30.16,M,10.00,M,SCT,M,M,M,8000.00,M,M,M,M,KCBG 011816Z AUTO 28008KT 10SM SCT080 17/04 A3016 RMK AO2
CBG,2017-04-01 18:35,-93.2642,45.5575,62.60,39.20,42.00,290.00,10.00,0.00,30.16,M,10.00,M,SCT,M,M,M,8000.00,M,M,M,M,KCBG 011835Z AUTO 29010KT 10SM SCT080 17/04 A3016 RMK AO2
CBG,2017-04-01 18:55,-93.2642,45.5575,64.40,41.00,42.28,260.00,4.00,0.00,30.15,M,10.00,M,SCT,M,M,M,7000.00,M,M,M,M,KCBG 011855Z AUTO 26004KT 10SM SCT070 18/05 A3015 RMK AO2
CBG,2017-04-01 19:16,-93.2642,45.5575,64.40,41.00,42.28,320.00,11.00,0.00,30.15,M,10.00,M,BKN,M,M,M,7000.00,M,M,M,M,KCBG 011916Z AUTO 32011KT 10SM BKN070 18/05 A3015 RMK AO2
CBG,2017-04-01 19:35,-93.2642,45.5575,64.40,42.80,45.32,310.00,8.00,0.00,30.14,M,10.00,M,SCT,M,M,M,7000.00,M,M,M,M,KCBG 011935Z AUTO 31008KT 10SM SCT070 18/06 A3014 RMK AO2
CBG,2017-04-01 19:55,-93.2642,45.5575,62.60,42.80,48.28,300.00,6.00,0.00,30.14,M,10.00,M,SCT,SCT,M,M,6000.00,7000.00,M,M,M,KCBG 011955Z AUTO 30006KT 10SM SCT060 SCT070 17/06 A3014 RMK AO2
CBG,2017-04-01 20:16,-93.2642,45.5575,64.40,42.80,45.32,300.00,11.00,0.00,30.13,M,10.00,15.00,SCT,BKN,M,M,6000.00,7500.00,M,M,M,KCBG 012016Z AUTO 30011G15KT 10SM SCT060 BKN075 18/06 A3013 RMK AO2
CBG,2017-04-01 20:35,-93.2642,45.5575,62.60,42.80,48.28,300.00,8.00,0.00,30.12,M,10.00,M,BKN,M,M,M,7500.00,M,M,M,M,KCBG 012035Z AUTO 30008KT 10SM BKN075 17/06 A3012 RMK AO2
CBG,2017-04-01 20:55,-93.2642,45.5575,62.60,42.80,48.28,260.00,6.00,0.00,30.12,M,10.00,M,SCT,BKN,M,M,5000.00,7500.00,M,M,M,KCBG 012055Z AUTO 26006KT 10SM SCT050 BKN075 17/06 A3012 RMK AO2
CBG,2017-04-01 21:15,-93.2642,45.5575,62.60,42.80,48.28,260.00,9.00,0.00,30.11,M,10.00,M,SCT,SCT,M,M,5000.00,7500.00,M,M,M,KCBG 012115Z AUTO 26009KT 10SM SCT050 SCT075 17/06 A3011 RMK AO2
CBG,2017-04-01 21:35,-93.2642,45.5575,62.60,42.80,48.28,240.00,8.00,0.00,30.12,M,10.00,15.00,CLR,M,M,M,M,M,M,M,M,KCBG 012135Z AUTO 24008G15KT 10SM CLR 17/06 A3012 RMK AO2
CBG,2017-04-01 21:56,-93.2642,45.5575,62.60,42.80,48.28,260.00,7.00,0.00,30.11,M,10.00,M,SCT,M,M,M,7000.00,M,M,M,M,KCBG 012156Z AUTO 26007KT 233V293 10SM SCT070 17/06 A3011 RMK AO2
CBG,2017-04-01 22:15,-93.2642,45.5575,62.60,42.80,48.28,280.00,6.00,0.00,30.11,M,10.00,M,SCT,M,M,M,7000.00,M,M,M,M,KCBG 012215Z AUTO 28006KT 10SM SCT070 17/06 A3011 RMK AO2
CBG,2017-04-01 22:36,-93.2642,45.5575,62.60,42.80,48.28,280.00,6.00,0.00,30.11,M,10.00,M,SCT,M,M,M,5000.00,M,M,M,M,KCBG 012236Z AUTO 28006KT 10SM SCT050 17/06 A3011 RMK AO2
CBG,2017-04-01 22:56,-93.2642,45.5575,62.60,42.80,48.28,250.00,4.00,0.00,30.11,M,10.00,M,SCT,M,M,M,8000.00,M,M,M,M,KCBG 012256Z AUTO 25004KT 10SM SCT080 17/06 A3011 RMK AO2
CBG,2017-04-01 23:15,-93.2642,45.5575,62.60,42.80,48.28,240.00,5.00,0.00,30.11,M,10.00,M,BKN,M,M,M,8000.00,M,M,M,M,KCBG 012315Z AUTO 24005KT 10SM BKN080 17/06 A3011 RMK AO2
CBG,2017-04-01 23:36,-93.2642,45.5575,62.60,42.80,48.28,300.00,5.00,0.00,30.10,M,10.00,M,SCT,M,M,M,8000.00,M,M,M,M,KCBG 012336Z AUTO 30005KT 10SM SCT080 17/06 A3010 RMK AO2
CBG,2017-04-01 23:56,-93.2642,45.5575,60.80,42.80,51.45,270.00,6.00,0.00,30.10,M,10.00,M,CLR,M,M,M,M,M,M,M,M,KCBG 012356Z AUTO 27006KT 10SM CLR 16/06 A3010 RMK AO2
