#DEBUG: Format Typ    -> comma
#DEBUG: Time Period   -> 2017-04-01 00:00:00+00:00 2017-04-02 00:00:00+00:00
#DEBUG: Time Zone     -> Etc/UTC
#DEBUG: Data Contact   -> daryl herzmann akrherz@iastate.edu 515-294-5978
#DEBUG: Entries Found -> -1
station,valid,lon,lat,tmpf, dwpf, relh, drct, sknt, p01i, alti, mslp, vsby, gust, skyc1, skyc2, skyc3, skyc4, skyl1, skyl2, skyl3, skyl4, presentwx, metar
CCY,2017-04-01 00:05,-92.6132,43.0730,44.60,39.20,81.20,0.00,0.00,0.00,30.04,M,10.00,M,OVC,M,M,M,3700.00,M,M,M,M,KCCY 010005Z AUTO 00000KT 10SM OVC037 07/04 A3004 RMK AO2
CCY,2017-04-01 00:15,-92.6132,43.0730,44.60,39.20,81.20,210.00,3.00,0.00,30.04,M,10.00,M,OVC,M,M,M,3700.00,M,M,M,M,KCCY 010015Z AUTO 21003KT 10SM OVC037 07/04 A3004 RMK AO2
CCY,2017-04-01 00:25,-92.6132,43.0730,44.60,39.20,81.20,240.00,4.00,0.00,30.04,M,10.00,M,BKN,M,M,M,3800.00,M,M,M,M,KCCY 010025Z AUTO 24004KT 10SM BKN038 07/04 A3004 RMK AO2
CCY,2017-04-01 00:35,-92.6132,43.0730,42.80,39.20,86.99,0.00,0.00,0.00,30.04,M,10.00,M,BKN,M,M,M,3900.00,M,M,M,M,KCCY 010035Z AUTO 00000KT 10SM BKN039 06/04 A3004 RMK AO2
CCY,2017-04-01 00:45,-92.6132,43.0730,42.80,41.00,93.30,240.00,4.00,0.00,30.05,M,10.00,M,BKN,M,M,M,3900.00,M,M,M,M,KCCY 010045Z AUTO 24004KT 10SM BKN039 06/05 A3005 RMK AO2
CCY,2017-04-01 00:55,-92.6132,43.0730,42.80,39.20,86.99,240.00,5.00,0.00,30.05,M,10.00,M,BKN,M,M,M,3900.00,M,M,M,M,KCCY 010055Z AUTO 24005KT 10SM BKN039 06/04 A3005 RMK AO2
CCY,2017-04-01 01:05,-92.6132,43.0730,41.00,39.20,93.24,270.00,4.00,0.00,30.06,M,10.00,M,BKN,M,M,M,4000.00,M,M,M,M,KCCY 010105Z AUTO 27004KT 10SM BKN040 05/04 A3006 RMK AO2
CCY,2017-04-01 01:15,-92.6132,43.0730,41.00,39.20,93.24,250.00,4.00,0.00,30.06,M,10.00,M,SCT,M,M,M,4000.00,M,M,M,M,KCCY 010115Z AUTO 25004KT 10SM SCT040 05/04 A3006 RMK AO2
CCY,2017-04-01 01:25,-92.6132,43.0730,41.00,39.20,93.24,250.00,4.00,0.00,30.06,M,10.00,M,FEW,M,M,M,4100.00,M,M,M,M,KCCY 010125Z AUTO 25004KT 10SM FEW041 05/04 A3006 RMK AO2
CCY,2017-04-01 01:35,-92.6132,43.0730,41.00,39.20,93.24,260.00,4.00,0.00,30.06,M,10.00,M,CLR,M,M,M,M,M,M,M,M,KCCY 010135Z AUTO 26004KT 10SM CLR 05/04 A3006 RMK AO2
CCY,2017-04-01 01:45,-92.6132,43.0730,41.00,39.20,93.24,250.00,4.00,0.00,30.06,M,10.00,M,CLR,M,M,M,M,M,M,M,M,KCCY 010145Z AUTO 25004KT 10SM CLR 05/04 A3006 RMK AO2
CCY,2017-04-01 01:55,-92.6132,43.0730,41.00,39.20,93.24,250.00,4.00,0.00,30.07,M,10.00,M,CLR,M,M,M,M,M,M,M,M,KCCY 010155Z AUTO 25004KT 10SM CLR 05/04 A3007 RMK AO2
CCY,2017-04-01 02:05,-92.6132,43.0730,39.20,39.20,100.00,260.00,4.00,0.00,30.08,M,10.00,M,CLR,M,M,M,M,M,M,M,M,KCCY 010205Z AUTO 26004KT 10SM CLR 04/04 A3008 RMK AO2
CCY,2017-04-01 02:15,-92.6132,43.0730,39.20,39.20,100.00,260.00,6.00,0.00,30.08,M,10.00,M,CLR,M,M,M,M,M,M,M,M,KCCY 010215Z AUTO 26006KT 10SM CLR 04/04 A3008 RMK AO2
CCY,2017-04-01 02:25,-92.6132,43.0730,39.20,39.20,100.00,270.00,6.00,0.00,30.09,M,10.00,M,CLR,M,M,M,M,M,M,M,M,KCCY 010225Z AUTO 27006KT 10SM CLR 04/04 A3009 RMK AO2
CCY,2017-04-01 02:35,-92.6132,43.0730,39.20,39.20,100.00,270.00,6.00,0.00,30.09,M,10.00,M,CLR,M,M,M,M,M,M,M,M,KCCY 010235Z AUTO 27006KT 10SM CLR 04/04 A3009 RMK AO2
CCY,2017-04-01 02:45,-92.6132,43.0730,39.20,37.40,93.19,270.00,4.00,0.00,30.10,M,10.00,M,CLR,M,M,M,M,M,M,M,M,KCCY 010245Z AUTO 27004KT 10SM CLR 04/03 A3010 RMK AO2
CCY,2017-04-01 02:55,-92.6132,43.0730,39.20,37.40,93.19,280.00,4.00,0.00,30.10,M,10.00,M,CLR,M,M,M,M,M,M,M,M,KCCY 010255Z AUTO 28004KT 10SM CLR 04/03 A3010 RMK AO2
CCY,2017-04-01 03:05,-92.6132,43.0730,37.40,37.40,100.00,250.00,4.00,0.00,30.10,M,10.00,M,CLR,M,M,M,M,M,M,M,M,KCCY 010305Z AUTO 25004KT 10SM CLR 03/03 A3010 RMK AO2
CCY,2017-04-01 03:15,-92.6132,43.0730,39.20,37.40,93.19,260.00,5.00,0.00,30.11,M,10.00,M,CLR,M,M,M,M,M,M,M,M,KCCY 010315Z AUTO 26005KT 10SM CLR 04/03 A3011 RMK AO2
CCY,2017-04-01 03:25,-92.6132,43.0730,37.40,37.40,100.00,240.00,6.00,0.00,30.12,M,10.00,M,CLR,M,M,M,M,M,M,M,M,KCCY 010325Z AUTO 24006KT 10SM CLR 03/03 A3012 RMK AO2
CCY,2017-04-01 03:35,-92.6132,43.0730,37.40,37.40,100.00,260.00,5.00,0.00,30.11,M,10.00,M,CLR,M,M,M,M,M,M,M,M,KCCY 010335Z AUTO 26005KT 10SM CLR 03/03 A3011 RMK AO2
CCY,2017-04-01 03:45,-92.6132,43.0730,37.40,37.40,100.00,270.00,5.00,0.00,30.11,M,10.00,M,CLR,M,M,M,M,M,M,M,M,KCCY 010345Z AUTO 27005KT 10SM CLR 03/03 A3011 RMK AO2
CCY,2017-04-01 03:55,-92.6132,43.0730,37.40,37.40,100.00,280.00,5.00,0.00,30.11,M,10.00,M,CLR,M,M,M,M,M,M,M,M,KCCY 010355Z AUTO 28005KT 10SM CLR 03/03 A3011 RMK AO2
CCY,2017-04-01 04:00,-92.6132,43.0730,37.40,37.40,100.00,280.00,6.00,0.00,30.11,M,10.00,M,CLR,M,M,M,M,M,M,M,M,KCCY 010400Z AUTO 28006KT 10SM CLR 03/03 A3011 RMK AO2
CCY,2017-04-01 04:15,-92.6132,43.0730,37.40,37.40,100.00,270.00,6.00,0.00,30.12,M,10.00,M,CLR,M,M,M,M,M,M,M,M,KCCY 010415Z AUTO 27006KT 10SM CLR 03/03 A3012 RMK AO2
CCY,2017-04-01 04:25,-92.6132,43.0730,37.40,37.40,100.00,300.00,4.00,0.00,30.11,M,10.00,M,CLR,M,M,M,M,M,M,M,M,KCCY 010425Z AUTO 30004KT 10SM CLR 03/03 A3011 RMK AO2
CCY,2017-04-01 04:35,-92.6132,43.0730,37.40,37.40,100.00,280.00,5.00,0.00,30.11,M,10.00,M,CLR,M,M,M,M,M,M,M,M,KCCY 010435Z AUTO 28005KT 10SM CLR 03/03 A3011 RMK AO2
CCY,2017-04-01 04:45,-92.6132,43.0730,37.40,37.40,100.00,260.00,5.00,0.00,30.12,M,10.00,M,CLR,M,M,M,M,M,M,M,M,KCCY 010445Z AUTO 26005KT 10SM CLR 03/03 A3012 RMK AO2
CCY,2017-04-01 04:55,-92.6132,43.0730,35.60,35.60,100.00,250.00,5.00,0.00,30.12,M,10.00,M,CLR,M,M,M,M,M,M,M,M,KCCY 010455Z AUTO 25005KT 10SM CLR 02/02 A3012 RMK AO2
CCY,2017-04-01 05:05,-92.6132,43.0730,35.60,35.60,100.00,260.00,6.00,0.00,30.12,M,10.00,M,CLR,M,M,M,M,M,M,M,M,KCCY 010505Z AUTO 26006KT 10SM CLR 02/02 A3012 RMK AO2
CCY,2017-04-01 05:15,-92.6132,43.0730,35.60,35.60,100.00,280.00,6.00,0.00,30.13,M,10.00,M,CLR,M,M,M,M,M,M,M,M,KCCY 010515Z AUTO 28006KT 10SM CLR 02/02 A3013 RMK AO2
CCY,2017-04-01 05:25,-92.6132,43.0730,35.60,35.60,100.00,290.00,7.00,0.00,30.13,M,10.00,M,CLR,M,M,M,M,M,M,M,M,KCCY 010525Z AUTO 29007KT 10SM CLR 02/02 A3013 RMK AO2
CCY,2017-04-01 05:35,-92.6132,43.0730,35.60,35.60,100.00,280.00,7.00,0.00,30.14,M,10.00,M,CLR,M,M,M,M,M,M,M,M,KCCY 010535Z AUTO 28007KT 10SM CLR 02/02 A3014 RMK AO2
CCY,2017-04-01 05:40,-92.6132,43.0730,35.60,35.60,100.00,260.00,5.00,0.00,30.14,M,10.00,M,CLR,M,M,M,M,M,M,M,M,KCCY 010540Z AUTO 26005KT 10SM CLR 02/02 A3014 RMK AO2
CCY,2017-04-01 05:55,-92.6132,43.0730,35.60,35.60,100.00,290.00,4.00,0.00,30.14,M,10.00,M,CLR,M,M,M,M,M,M,M,M,KCCY 010555Z AUTO 29004KT 10SM CLR 02/02 A3014 RMK AO2
CCY,2017-04-01 06:05,-92.6132,43.0730,35.60,35.60,100.00,270.00,6.00,0.00,30.14,M,10.00,M,CLR,M,M,M,M,M,M,M,M,KCCY 010605Z AUTO 27006KT 10SM CLR 02/02 A3014 RMK AO2
CCY,2017-04-01 06:15,-92.6132,43.0730,35.60,35.60,100.00,270.00,6.00,0.00,30.14,M,10.00,M,CLR,M,M,M,M,M,M,M,M,KCCY 010615Z AUTO 27006KT 10SM CLR 02/02 A3014 RMK AO2
CCY,2017-04-01 06:20,-92.6132,43.0730,35.60,35.60,100.00,280.00,5.00,0.00,30.14,M,10.00,M,CLR,M,M,M,M,M,M,M,M,KCCY 010620Z AUTO 28005KT 10SM CLR 02/02 A3014 RMK AO2
CCY,2017-04-01 06:35,-92.6132,43.0730,35.60,35.60,100.00,280.00,6.00,0.00,30.14,M,10.00,M,CLR,M,M,M,M,M,M,M,M,KCCY 010635Z AUTO 28006KT 10SM CLR 02/02 A3014 RMK AO2
CCY,2017-04-01 06:45,-92.6132,43.0730,35.60,35.60,100.00,300.00,5.00,0.00,30.13,M,10.00,M,CLR,M,M,M,M,M,M,M,M,KCCY 010645Z AUTO 30005KT 10SM CLR 02/02 A3013 RMK AO2
CCY,2017-04-01 06:55,-92.6132,43.0730,35.60,35.60,100.00,300.00,5.00,0.00,30.13,M,10.00,M,CLR,M,M,M,M,M,M,M,M,KCCY 010655Z AUTO 30005KT 10SM CLR 02/02 A3013 RMK AO2
CCY,2017-04-01 07:00,-92.6132,43.0730,35.60,35.60,100.00,290.00,5.00,0.00,30.14,M,10.00,M,CLR,M,M,M,M,M,M,M,M,KCCY 010700Z AUTO 29005KT 10SM CLR 02/02 A3014 RMK AO2
CCY,2017-04-01 07:15,-92.6132,43.0730,35.60,35.60,100.00,280.00,6.00,0.00,30.15,M,10.00,M,CLR,M,M,M,M,M,M,M,M,KCCY 010715Z AUTO 28006KT 10SM CLR 02/02 A3015 RMK AO2
CCY,2017-04-01 07:25,-92.6132,43.0730,35.60,35.60,100.00,280.00,6.00,0.00,30.15,M,10.00,M,CLR,M,M,M,M,M,M,M,M,KCCY 010725Z AUTO 28006KT 10SM CLR 02/02 A3015 RMK AO2
CCY,2017-04-01 07:35,-92.6132,43.0730,35.60,35.60,100.00,280.00,7.00,0.00,30.15,M,10.00,M,CLR,M,M,M,M,M,M,M,M,KCCY 010735Z AUTO 28007KT 10SM CLR 02/02 A3015 RMK AO2
CCY,2017-04-01 07:45,-92.6132,43.0730,35.60,35.60,100.00,280.00,6.00,0.00,30.15,M,10.00,M,CLR,M,M,M,M,M,M,M,M,KCCY 010745Z AUTO 28006KT 10SM CLR 02/02 A3015 RMK AO2
CCY,2017-04-01 07:55,-92.6132,43.0730,35.60,35.60,100.00,290.00,6.00,0.00,30.15,M,10.00,M,CLR,M,M,M,M,M,M,M,M,KCCY 010755Z AUTO 29006KT 10SM CLR 02/02 A3015 RMK AO2
CCY,2017-04-01 08:05,-92.6132,43.0730,35.60,35.60,100.00,290.00,5.00,0.00,30.15,M,10.00,M,CLR,M,M,M,M,M,M,M,M,KCCY 010805Z AUTO 29005KT 10SM CLR 02/02 A3015 RMK AO2
CCY,2017-04-01 08:15,-92.6132,43.0730,35.60,35.60,100.00,290.00,5.00,0.00,30.15,M,10.00,M,CLR,M,M,M,M,M,M,M,M,KCCY 010815Z AUTO 29005KT 10SM CLR 02/02 A3015 RMK AO2
CCY,2017-04-01 08:25,-92.6132,43.0730,35.60,35.60,100.00,280.00,5.00,0.00,30.16,M,10.00,M,CLR,M,M,M,M,M,M,M,M,KCCY 010825Z AUTO 28005KT 10SM CLR 02/02 A3016 RMK AO2
CCY,2017-04-01 08:35,-92.6132,43.0730,35.60,35.60,100.00,290.00,5.00,0.00,30.16,M,10.00,M,CLR,M,M,M,M,M,M,M,M,KCCY 010835Z AUTO 29005KT 10SM CLR 02/02 A3016 RMK AO2
CCY,2017-04-01 08:45,-92.6132,43.0730,35.60,35.60,100.00,290.00,6.00,0.00,30.16,M,10.00,M,CLR,M,M,M,M,M,M,M,M,KCCY 010845Z AUTO 29006KT 10SM CLR 02/02 A3016 RMK AO2
CCY,2017-04-01 08:55,-92.6132,43.0730,35.60,35.60,100.00,290.00,6.00,0.00,30.17,M,10.00,M,CLR,M,M,M,M,M,M,M,M,KCCY 010855Z AUTO 29006KT 10SM CLR 02/02 A3017 RMK AO2
CCY,2017-04-01 09:05,-92.6132,43.0730,35.60,35.60,100.00,290.00,6.00,0.00,30.16,M,9.00,M,CLR,M,M,M,M,M,M,M,M,KCCY 010905Z AUTO 29006KT 9SM CLR 02/02 A3016 RMK AO2
CCY,2017-04-01 09:15,-92.6132,43.0730,33.80,33.80,100.00,310.00,6.00,0.00,30.16,M,7.00,M,CLR,M,M,M,M,M,M,M,M,KCCY 010915Z AUTO 31006KT 7SM CLR 01/01 A3016 RMK AO2
CCY,2017-04-01 09:25,-92.6132,43.0730,33.80,33.80,100.00,320.00,6.00,0.00,30.15,M,7.00,M,CLR,M,M,M,M,M,M,M,M,KCCY 010925Z AUTO 32006KT 7SM CLR 01/01 A3015 RMK AO2
CCY,2017-04-01 09:35,-92.6132,43.0730,33.80,33.80,100.00,330.00,4.00,0.00,30.15,M,9.00,M,CLR,M,M,M,M,M,M,M,M,KCCY 010935Z AUTO 33004KT 9SM CLR 01/01 A3015 RMK AO2
CCY,2017-04-01 09:45,-92.6132,43.0730,33.80,33.80,100.00,310.00,4.00,0.00,30.15,M,8.00,M,CLR,M,M,M,M,M,M,M,M,KCCY 010945Z AUTO 31004KT 8SM CLR 01/01 A3015 RMK AO2
CCY,2017-04-01 09:55,-92.6132,43.0730,33.80,33.80,100.00,320.00,4.00,0.00,30.15,M,9.00,M,CLR,M,M,M,M,M,M,M,M,KCCY 010955Z AUTO 32004KT 9SM CLR 01/01 A3015 RMK AO2
CCY,2017-04-01 10:05,-92.6132,43.0730,33.80,33.80,100.00,310.00,5.00,0.00,30.16,M,10.00,M,CLR,M,M,M,M,M,M,M,M,KCCY 011005Z AUTO 31005KT 10SM CLR 01/01 A3016 RMK AO2
CCY,2017-04-01 10:15,-92.6132,43.0730,33.80,33.80,100.00,310.00,5.00,0.00,30.16,M,10.00,M,CLR,M,M,M,M,M,M,M,M,KCCY 011015Z AUTO 31005KT 10SM CLR 01/01 A3016 RMK AO2
CCY,2017-04-01 10:20,-92.6132,43.0730,33.80,33.80,100.00,310.00,5.00,0.00,30.17,M,9.00,M,CLR,M,M,M,M,M,M,M,M,KCCY 011020Z AUTO 31005KT 9SM CLR 01/01 A3017 RMK AO2
CCY,2017-04-01 10:35,-92.6132,43.0730,33.80,33.80,100.00,310.00,5.00,0.00,30.17,M,10.00,M,FEW,M,M,M,18000.00,M,M,M,M,KCCY 011035Z AUTO 31005KT 10SM FEW180 01/01 A3017 RMK AO2
CCY,2017-04-01 10:45,-92.6132,43.0730,32.00,32.00,100.00,320.00,5.00,0.00,30.18,M,9.00,M,CLR,M,M,M,M,M,M,M,M,KCCY 011045Z AUTO 32005KT 9SM CLR 00/00 A3018 RMK AO2
CCY,2017-04-01 10:55,-92.6132,43.0730,33.80,33.80,100.00,320.00,5.00,0.00,30.18,M,10.00,M,FEW,M,M,M,17000.00,M,M,M,M,KCCY 011055Z AUTO 32005KT 10SM FEW170 01/01 A3018 RMK AO2
CCY,2017-04-01 11:05,-92.6132,43.0730,33.80,33.80,100.00,330.00,5.00,0.00,30.18,M,10.00,M,SCT,M,M,M,17000.00,M,M,M,M,KCCY 011105Z AUTO 33005KT 10SM SCT170 01/01 A3018 RMK AO2
CCY,2017-04-01 11:15,-92.6132,43.0730,33.80,33.80,100.00,330.00,4.00,0.00,30.19,M,M,M,M,M,M,M,M,M,M,M,M,KCCY 011115Z AUTO 33004KT 01/01 A3019 RMK AO2
CCY,2017-04-01 11:25,-92.6132,43.0730,33.80,33.80,100.00,320.00,5.00,0.00,30.19,M,10.00,M,BKN,BKN,M,M,13000.00,17000.00,M,M,M,KCCY 011125Z AUTO 32005KT 10SM BKN130 BKN170 01/01 A3019 RMK AO2
CCY,2017-04-01 11:35,-92.6132,43.0730,33.80,33.80,100.00,330.00,6.00,0.00,30.19,M,10.00,M,SCT,SCT,M,M,13000.00,17000.00,M,M,M,KCCY 011135Z AUTO 33006KT 10SM SCT130 SCT170 01/01 A3019 RMK AO2
CCY,2017-04-01 11:45,-92.6132,43.0730,33.80,33.80,100.00,330.00,6.00,0.00,30.20,M,10.00,M,SCT,BKN,M,M,13000.00,15000.00,M,M,M,KCCY 011145Z AUTO 33006KT 10SM SCT130 BKN150 01/01 A3020 RMK AO2
CCY,2017-04-01 11:55,-92.6132,43.0730,33.80,33.80,100.00,330.00,4.00,0.00,30.20,M,9.00,M,FEW,SCT,M,M,13000.00,15000.00,M,M,M,KCCY 011155Z AUTO 33004KT 9SM FEW130 SCT150 01/01 A3020 RMK AO2
CCY,2017-04-01 12:05,-92.6132,43.0730,33.80,33.80,100.00,330.00,4.00,0.00,30.21,M,8.00,M,SCT,M,M,M,14000.00,M,M,M,M,KCCY 011205Z AUTO 33004KT 8SM SCT140 01/01 A3021 RMK AO2
CCY,2017-04-01 12:15,-92.6132,43.0730,32.00,32.00,100.00,310.00,3.00,0.00,30.22,M,7.00,M,FEW,M,M,M,14000.00,M,M,M,M,KCCY 011215Z AUTO 31003KT 7SM FEW140 00/00 A3022 RMK AO2
CCY,2017-04-01 12:25,-92.6132,43.0730,32.00,32.00,100.00,320.00,4.00,0.00,30.22,M,7.00,M,CLR,M,M,M,M,M,M,M,M,KCCY 011225Z AUTO 32004KT 7SM CLR 00/00 A3022 RMK AO2
CCY,2017-04-01 12:35,-92.6132,43.0730,33.80,33.80,100.00,300.00,4.00,0.00,30.22,M,7.00,M,FEW,M,M,M,19000.00,M,M,M,M,KCCY 011235Z AUTO 30004KT 7SM FEW190 01/01 A3022 RMK AO2
CCY,2017-04-01 12:45,-92.6132,43.0730,33.80,33.80,100.00,290.00,4.00,0.00,30.22,M,6.00,M,CLR,M,M,M,M,M,M,M,BR,KCCY 011245Z AUTO 29004KT 6SM BR CLR 01/01 A3022 RMK AO2
CCY,2017-04-01 12:55,-92.6132,43.0730,33.80,33.80,100.00,290.00,4.00,0.00,30.23,M,6.00,M,CLR,M,M,M,M,M,M,M,BR,KCCY 011255Z AUTO 29004KT 6SM BR CLR 01/01 A3023 RMK AO2
CCY,2017-04-01 13:05,-92.6132,43.0730,33.80,33.80,100.00,290.00,4.00,0.00,30.22,M,7.00,M,CLR,M,M,M,M,M,M,M,M,KCCY 011305Z AUTO 29004KT 7SM CLR 01/01 A3022 RMK AO2
CCY,2017-04-01 13:15,-92.6132,43.0730,33.80,33.80,100.00,300.00,3.00,0.00,30.22,M,5.00,M,FEW,M,M,M,14000.00,M,M,M,BR,KCCY 011315Z AUTO 30003KT 5SM BR FEW140 01/01 A3022 RMK AO2
CCY,2017-04-01 13:25,-92.6132,43.0730,35.60,35.60,100.00,0.00,0.00,0.00,30.22,M,6.00,M,BKN,M,M,M,13000.00,M,M,M,BR,KCCY 011325Z AUTO 00000KT 6SM BR BKN130 02/02 A3022 RMK AO2
CCY,2017-04-01 13:35,-92.6132,43.0730,35.60,35.60,100.00,0.00,0.00,0.00,30.22,M,7.00,M,BKN,M,M,M,13000.00,M,M,M,M,KCCY 011335Z AUTO 00000KT 7SM BKN130 02/02 A3022 RMK AO2
CCY,2017-04-01 13:40,-92.6132,43.0730,35.60,35.60,100.00,350.00,3.00,0.00,30.23,M,9.00,M,BKN,M,M,M,13000.00,M,M,M,M,KCCY 011340Z AUTO 35003KT 9SM BKN130 02/02 A3023 RMK AO2
CCY,2017-04-01 13:55,-92.6132,43.0730,37.40,37.40,100.00,0.00,0.00,0.00,30.22,M,10.00,M,BKN,M,M,M,13000.00,M,M,M,M,KCCY 011355Z AUTO 00000KT 10SM BKN130 03/03 A3022 RMK AO2
CCY,2017-04-01 14:00,-92.6132,43.0730,37.40,37.40,100.00,340.00,3.00,0.00,30.23,M,10.00,M,BKN,M,M,M,13000.00,M,M,M,M,KCCY 011400Z AUTO 34003KT 10SM BKN130 03/03 A3023 RMK AO2
CCY,2017-04-01 14:15,-92.6132,43.0730,39.20,37.40,93.19,340.00,4.00,0.00,30.23,M,10.00,M,BKN,BKN,M,M,12000.00,14000.00,M,M,M,KCCY 011415Z AUTO 34004KT 10SM BKN120 BKN140 04/03 A3023 RMK AO2
CCY,2017-04-01 14:25,-92.6132,43.0730,39.20,37.40,93.19,330.00,4.00,0.00,30.23,M,10.00,M,BKN,BKN,M,M,12000.00,14000.00,M,M,M,KCCY 011425Z AUTO 33004KT 10SM BKN120 BKN140 04/03 A3023 RMK AO2
CCY,2017-04-01 14:35,-92.6132,43.0730,41.00,37.40,86.89,330.00,4.00,0.00,30.24,M,10.00,M,BKN,M,M,M,12000.00,M,M,M,M,KCCY 011435Z AUTO 33004KT 10SM BKN120 05/03 A3024 RMK AO2
CCY,2017-04-01 14:45,-92.6132,43.0730,41.00,39.20,93.24,330.00,4.00,0.00,30.24,M,10.00,M,SCT,M,M,M,12000.00,M,M,M,M,KCCY 011445Z AUTO 33004KT 10SM SCT120 05/04 A3024 RMK AO2
CCY,2017-04-01 14:55,-92.6132,43.0730,41.00,37.40,86.89,330.00,4.00,0.00,30.24,M,10.00,M,FEW,M,M,M,12000.00,M,M,M,M,KCCY 011455Z AUTO 33004KT 10SM FEW120 05/03 A3024 RMK AO2
CCY,2017-04-01 15:05,-92.6132,43.0730,41.00,37.40,86.89,350.00,5.00,0.00,30.25,M,10.00,M,CLR,M,M,M,M,M,M,M,M,KCCY 011505Z AUTO 35005KT 10SM CLR 05/03 A3025 RMK AO2
CCY,2017-04-01 15:15,-92.6132,43.0730,42.80,39.20,86.99,360.00,3.00,0.00,30.25,M,10.00,M,CLR,M,M,M,M,M,M,M,M,KCCY 011515Z AUTO 36003KT 10SM CLR 06/04 A3025 RMK AO2
CCY,2017-04-01 15:20,-92.6132,43.0730,42.80,39.20,86.99,360.00,4.00,0.00,30.24,M,10.00,M,CLR,M,M,M,M,M,M,M,M,KCCY 011520Z AUTO 36004KT 10SM CLR 06/04 A3024 RMK AO2
CCY,2017-04-01 15:35,-92.6132,43.0730,44.60,37.40,75.68,20.00,4.00,0.00,30.24,M,10.00,M,CLR,M,M,M,M,M,M,M,M,KCCY 011535Z AUTO 02004KT 10SM CLR 07/03 A3024 RMK AO2
CCY,2017-04-01 15:45,-92.6132,43.0730,44.60,35.60,70.48,40.00,3.00,0.00,30.24,M,10.00,M,SCT,M,M,M,12000.00,M,M,M,M,KCCY 011545Z AUTO 04003KT 10SM SCT120 07/02 A3024 RMK AO2
CCY,2017-04-01 15:55,-92.6132,43.0730,46.40,35.60,65.83,40.00,3.00,0.00,30.24,M,10.00,M,BKN,M,M,M,12000.00,M,M,M,M,KCCY 011555Z AUTO 04003KT 10SM BKN120 08/02 A3024 RMK AO2
CCY,2017-04-01 16:05,-92.6132,43.0730,46.40,37.40,70.68,0.00,0.00,0.00,30.24,M,10.00,M,OVC,M,M,M,12000.00,M,M,M,M,KCCY 011605Z AUTO 00000KT 10SM OVC120 08/03 A3024 RMK AO2
CCY,2017-04-01 16:15,-92.6132,43.0730,48.20,35.60,61.52,0.00,0.00,0.00,30.24,M,10.00,M,OVC,M,M,M,12000.00,M,M,M,M,KCCY 011615Z AUTO 00000KT 10SM OVC120 09/02 A3024 RMK AO2
CCY,2017-04-01 16:25,-92.6132,43.0730,50.00,35.60,57.52,0.00,0.00,0.00,30.24,M,10.00,M,OVC,M,M,M,12000.00,M,M,M,M,KCCY 011625Z AUTO 00000KT 10SM OVC120 10/02 A3024 RMK AO2
CCY,2017-04-01 16:35,-92.6132,43.0730,50.00,32.00,49.81,0.00,0.00,0.00,30.24,M,10.00,M,OVC,M,M,M,12000.00,M,M,M,M,KCCY 011635Z AUTO 00000KT 10SM OVC120 10/M00 A3024 RMK AO2
CCY,2017-04-01 16:45,-92.6132,43.0730,50.00,32.00,49.81,0.00,0.00,0.00,30.24,M,10.00,M,OVC,M,M,M,12000.00,M,M,M,M,KCCY 011645Z AUTO 00000KT 10SM OVC120 10/M00 A3024 RMK AO2
CCY,2017-04-01 16:55,-92.6132,43.0730,51.80,30.20,43.32,0.00,0.00,0.00,30.24,M,10.00,M,OVC,M,M,M,12000.00,M,M,M,M,KCCY 011655Z AUTO 00000KT 10SM OVC120 11/M01 A3024 RMK AO2
CCY,2017-04-01 17:05,-92.6132,43.0730,51.80,30.20,43.32,0.00,0.00,0.00,30.24,M,10.00,M,BKN,M,M,M,12000.00,M,M,M,M,KCCY 011705Z AUTO 00000KT 10SM BKN120 11/M01 A3024 RMK AO2
CCY,2017-04-01 17:15,-92.6132,43.0730,51.80,30.20,43.32,0.00,0.00,0.00,30.24,M,10.00,M,SCT,M,M,M,12000.00,M,M,M,M,KCCY 011715Z AUTO 00000KT 10SM SCT120 11/M01 A3024 RMK AO2
CCY,2017-04-01 17:25,-92.6132,43.0730,53.60,28.40,37.67,0.00,0.00,0.00,30.23,M,10.00,M,FEW,M,M,M,12000.00,M,M,M,M,KCCY 011725Z AUTO 00000KT 10SM FEW120 12/M02 A3023 RMK AO2
CCY,2017-04-01 17:35,-92.6132,43.0730,53.60,26.60,34.98,0.00,0.00,0.00,30.23,M,10.00,M,CLR,M,M,M,M,M,M,M,M,KCCY 011735Z AUTO 00000KT 10SM CLR 12/M03 A3023 RMK AO2
CCY,2017-04-01 17:45,-92.6132,43.0730,53.60,24.80,32.46,0.00,0.00,0.00,30.23,M,10.00,M,FEW,M,M,M,14000.00,M,M,M,M,KCCY 011745Z AUTO 00000KT 10SM FEW140 12/M04 A3023 RMK AO2
CCY,2017-04-01 17:55,-92.6132,43.0730,53.60,23.00,30.11,300.00,4.00,0.00,30.22,M,10.00,M,CLR,M,M,M,M,M,M,M,M,KCCY 011755Z AUTO 30004KT 10SM CLR 12/M05 A3022 RMK AO2
CCY,2017-04-01 18:05,-92.6132,43.0730,55.40,23.00,28.20,0.00,0.00,0.00,30.22,M,10.00,M,CLR,M,M,M,M,M,M,M,M,KCCY 011805Z AUTO 00000KT 10SM CLR 13/M05 A3022 RMK AO2
CCY,2017-04-01 18:15,-92.6132,43.0730,55.40,24.80,30.40,M,3.00,0.00,30.22,M,10.00,M,CLR,M,M,M,M,M,M,M,M,KCCY 011815Z AUTO VRB03KT 10SM CLR 13/M04 A3022 RMK AO2
CCY,2017-04-01 18:25,-92.6132,43.0730,55.40,23.00,28.20,0.00,0.00,0.00,30.21,M,10.00,M,CLR,M,M,M,M,M,M,M,M,KCCY 011825Z AUTO 00000KT 10SM CLR 13/M05 A3021 RMK AO2
CCY,2017-04-01 18:35,-92.6132,43.0730,55.40,24.80,30.40,330.00,4.00,0.00,30.21,M,10.00,M,CLR,M,M,M,M,M,M,M,M,KCCY 011835Z AUTO 33004KT 10SM CLR 13/M04 A3021 RMK AO2
CCY,2017-04-01 18:45,-92.6132,43.0730,55.40,23.00,28.20,0.00,0.00,0.00,30.21,M,10.00,M,CLR,M,M,M,M,M,M,M,M,KCCY 011845Z AUTO 00000KT 10SM CLR 13/M05 A3021 RMK AO2
CCY,2017-04-01 18:55,-92.6132,43.0730,57.20,24.80,28.48,M,4.00,0.00,30.21,M,10.00,M,CLR,M,M,M,M,M,M,M,M,KCCY 011855Z AUTO VRB04KT 10SM CLR 14/M04 A3021 RMK AO2
CCY,2017-04-01 19:05,-92.6132,43.0730,57.20,24.80,28.48,M,3.00,0.00,30.20,M,10.00,M,CLR,M,M,M,M,M,M,M,M,KCCY 011905Z AUTO VRB03KT 10SM CLR 14/M04 A3020 RMK AO2
CCY,2017-04-01 19:15,-92.6132,43.0730,57.20,23.00,26.42,0.00,0.00,0.00,30.20,M,10.00,M,CLR,M,M,M,M,M,M,M,M,KCCY 011915Z AUTO 00000KT 10SM CLR 14/M05 A3020 RMK AO2
CCY,2017-04-01 19:25,-92.6132,43.0730,57.20,21.20,24.49,0.00,0.00,0.00,30.20,M,10.00,M,CLR,M,M,M,M,M,M,M,M,KCCY 011925Z AUTO 00000KT 10SM CLR 14/M06 A3020 RMK AO2
CCY,2017-04-01 19:35,-92.6132,43.0730,57.20,23.00,26.42,M,4.00,0.00,30.19,M,10.00,M,CLR,M,M,M,M,M,M,M,M,KCCY 011935Z AUTO VRB04KT 10SM CLR 14/M05 A3019 RMK AO2
CCY,2017-04-01 19:45,-92.6132,43.0730,59.00,24.80,26.70,320.00,5.00,0.00,30.19,M,10.00,M,CLR,M,M,M,M,M,M,M,M,KCCY 011945Z AUTO 32005KT 10SM CLR 15/M04 A3019 RMK AO2
CCY,2017-04-01 19:55,-92.6132,43.0730,57.20,21.20,24.49,330.00,3.00,0.00,30.19,M,10.00,M,CLR,M,M,M,M,M,M,M,M,KCCY 011955Z AUTO 33003KT 10SM CLR 14/M06 A3019 RMK AO2
CCY,2017-04-01 20:05,-92.6132,43.0730,57.20,21.20,24.49,0.00,0.00,0.00,30.18,M,10.00,M,CLR,M,M,M,M,M,M,M,M,KCCY 012005Z AUTO 00000KT 10SM CLR 14/M06 A3018 RMK AO2
CCY,2017-04-01 20:15,-92.6132,43.0730,57.20,19.40,22.68,0.00,0.00,0.00,30.18,M,10.00,M,CLR,M,M,M,M,M,M,M,M,KCCY 012015Z AUTO 00000KT 10SM CLR 14/M07 A3018 RMK AO2
CCY,2017-04-01 20:25,-92.6132,43.0730,59.00,19.40,21.26,0.00,0.00,0.00,30.18,M,10.00,M,CLR,M,M,M,M,M,M,M,M,KCCY 012025Z AUTO 00000KT 10SM CLR 15/M07 A3018 RMK AO2
CCY,2017-04-01 20:35,-92.6132,43.0730,59.00,19.40,21.26,M,3.00,0.00,30.18,M,10.00,M,CLR,M,M,M,M,M,M,M,M,KCCY 012035Z AUTO VRB03KT 10SM CLR 15/M07 A3018 RMK AO2
CCY,2017-04-01 20:45,-92.6132,43.0730,59.00,19.40,21.26,0.00,0.00,0.00,30.17,M,10.00,M,CLR,M,M,M,M,M,M,M,M,KCCY 012045Z AUTO 00000KT 10SM CLR 15/M07 A3017 RMK AO2
CCY,2017-04-01 20:55,-92.6132,43.0730,59.00,19.40,21.26,0.00,0.00,0.00,30.17,M,10.00,M,CLR,M,M,M,M,M,M,M,M,KCCY 012055Z AUTO 00000KT 10SM CLR 15/M07 A3017 RMK AO2
CCY,2017-04-01 21:05,-92.6132,43.0730,59.00,21.20,22.95,290.00,4.00,0.00,30.17,M,10.00,M,CLR,M,M,M,M,M,M,M,M,KCCY 012105Z AUTO 29004KT 10SM CLR 15/M06 A3017 RMK AO2
CCY,2017-04-01 21:15,-92.6132,43.0730,59.00,19.40,21.26,0.00,0.00,0.00,30.17,M,10.00,M,CLR,M,M,M,M,M,M,M,M,KCCY 012115Z AUTO 00000KT 10SM CLR 15/M07 A3017 RMK AO2
CCY,2017-04-01 21:25,-92.6132,43.0730,59.00,19.40,21.26,0.00,0.00,0.00,30.17,M,10.00,M,CLR,M,M,M,M,M,M,M,M,KCCY 012125Z AUTO 00000KT 10SM CLR 15/M07 A3017 RMK AO2
CCY,2017-04-01 21:35,-92.6132,43.0730,59.00,17.60,19.68,0.00,0.00,0.00,30.17,M,10.00,M,CLR,M,M,M,M,M,M,M,M,KCCY 012135Z AUTO 00000KT 10SM CLR 15/M08 A3017 RMK AO2
CCY,2017-04-01 21:45,-92.6132,43.0730,59.00,19.40,21.26,0.00,0.00,0.00,30.17,M,10.00,M,CLR,M,M,M,M,M,M,M,M,KCCY 012145Z AUTO 00000KT 10SM CLR 15/M07 A3017 RMK AO2
CCY,2017-04-01 21:55,-92.6132,43.0730,59.00,19.40,21.26,M,4.00,0.00,30.17,M,10.00,M,CLR,M,M,M,M,M,M,M,M,KCCY 012155Z AUTO VRB04KT 10SM CLR 15/M07 A3017 RMK AO2
CCY,2017-04-01 22:05,-92.6132,43.0730,59.00,15.80,18.20,0.00,0.00,0.00,30.17,M,10.00,M,CLR,M,M,M,M,M,M,M,M,KCCY 012205Z AUTO 00000KT 10SM CLR 15/M09 A3017 RMK AO2
CCY,2017-04-01 22:15,-92.6132,43.0730,59.00,17.60,19.68,0.00,0.00,0.00,30.16,M,10.00,M,CLR,M,M,M,M,M,M,M,M,KCCY 012215Z AUTO 00000KT 10SM CLR 15/M08 A3016 RMK AO2
CCY,2017-04-01 22:25,-92.6132,43.0730,59.00,19.40,21.26,360.00,3.00,0.00,30.16,M,10.00,M,CLR,M,M,M,M,M,M,M,M,KCCY 012225Z AUTO 36003KT 10SM CLR 15/M07 A3016 RMK AO2
CCY,2017-04-01 22:35,-92.6132,43.0730,59.00,17.60,19.68,0.00,0.00,0.00,30.16,M,10.00,M,CLR,M,M,M,M,M,M,M,M,KCCY 012235Z AUTO 00000KT 10SM CLR 15/M08 A3016 RMK AO2
CCY,2017-04-01 22:45,-92.6132,43.0730,59.00,17.60,19.68,0.00,0.00,0.00,30.17,M,10.00,M,CLR,M,M,M,M,M,M,M,M,KCCY 012245Z AUTO 00000KT 10SM CLR 15/M08 A3017 RMK AO2
CCY,2017-04-01 22:55,-92.6132,43.0730,59.00,17.60,19.68,0.00,0.00,0.00,30.17,M,10.00,M,CLR,M,M,M,M,M,M,M,M,KCCY 012255Z AUTO 00000KT 10SM CLR 15/M08 A3017 RMK AO2
CCY,2017-04-01 23:05,-92.6132,43.0730,59.00,17.60,19.68,0.00,0.00,0.00,30.17,M,10.00,M,CLR,M,M,M,M,M,M,M,M,KCCY 012305Z AUTO 00000KT 10SM CLR 15/M08 A3017 RMK AO2
CCY,2017-04-01 23:15,-92.6132,43.0730,59.00,17.60,19.68,0.00,0.00,0.00,30.16,M,10.00,M,CLR,M,M,M,M,M,M,M,M,KCCY 012315Z AUTO 00000KT 10SM CLR 15/M08 A3016 RMK AO2
CCY,2017-04-01 23:25,-92.6132,43.0730,59.00,19.40,21.26,0.00,0.00,0.00,30.16,M,10.00,M,CLR,M,M,M,M,M,M,M,M,KCCY 012325Z AUTO 00000KT 10SM CLR 15/M07 A3016 RMK AO2
CCY,2017-04-01 23:35,-92.6132,43.0730,57.20,24.80,28.48,0.00,0.00,0.00,30.16,M,10.00,M,CLR,M,M,M,M,M,M,M,M,KCCY 012335Z AUTO 00000KT 10SM CLR 14/M04 A3016 RMK AO2
CCY,2017-04-01 23:45,-92.6132,43.0730,57.20,28.40,33.05,160.00,4.00,0.00,30.15,M,10.00,M,CLR,M,M,M,M,M,M,M,M,KCCY 012345Z AUTO 16004KT 10SM CLR 14/M02 A3015 RMK AO2
CCY,2017-04-01 23:55,-92.6132,43.0730,55.40,26.60,32.76,140.00,4.00,0.00,30.15,M,10.00,M,CLR,M,M,M,M,M,M,M,M,KCCY 012355Z AUTO 14004KT 10SM CLR 13/M03 A3015 RMK AO2
