#DEBUG: Format Typ    -> comma
#DEBUG: Time Period   -> 2017-04-01 00:00:00+00:00 2017-04-02 00:00:00+00:00
#DEBUG: Time Zone     -> Etc/UTC
#DEBUG: Data Contact   -> daryl herzmann akrherz@iastate.edu 515-294-5978
#DEBUG: Entries Found -> -1
station,valid,lon,lat,tmpf, dwpf, relh, drct, sknt, p01i, alti, mslp, vsby, gust, skyc1, skyc2, skyc3, skyc4, skyl1, skyl2, skyl3, skyl4, presentwx, metar
CDA,2017-04-01 00:15,-72.0180,44.5691,31.50,30.90,97.60,0.00,0.00,0.00,30.00,M,2.00,M,BKN,BKN,OVC,M,200.00,900.00,1400.00,M,-SN,KCDA 010015Z AUTO 00000KT 2SM -SN BKN002 BKN009 OVC014 00/M01 A3000 RMK AO2 T10031006
CDA,2017-04-01 00:35,-72.0180,44.5691,31.30,30.90,98.39,130.00,4.00,0.00,30.00,M,1.50,M,BKN,OVC,M,M,200.00,600.00,M,M,-SN,KCDA 010035Z AUTO 13004KT 1 1/2SM -SN BKN002 OVC006 00/M01 A3000 RMK AO2 T10041006
CDA,2017-04-01 00:55,-72.0180,44.5691,31.10,30.90,99.19,130.00,5.00,0.00,30.01,M,1.50,M,BKN,OVC,M,M,200.00,600.00,M,M,-SN,KCDA 010055Z AUTO 13005KT 1 1/2SM -SN BKN002 OVC006 00/M01 A3001 RMK AO2 T10051006
CDA,2017-04-01 01:15,-72.0180,44.5691,31.10,30.70,98.39,130.00,3.00,0.00,30.01,M,1.75,M,OVC,M,M,M,200.00,M,M,M,-SN,KCDA 010115Z AUTO 13003KT 1 3/4SM -SN OVC002 00/M01 A3001 RMK AO2 T10051007
CDA,2017-04-01 01:35,-72.0180,44.5691,31.10,30.70,98.39,130.00,3.00,0.00,30.00,M,1.25,M,BKN,OVC,M,M,200.00,900.00,M,M,-SN,KCDA 010135Z AUTO 13003KT 1 1/4SM -SN BKN002 OVC009 00/M01 A3000 RMK AO2 T10051007
CDA,2017-04-01 01:55,-72.0180,44.5691,30.90,30.60,98.79,120.00,3.00,0.00,30.00,M,1.50,M,SCT,OVC,M,M,200.00,700.00,M,M,-SN,KCDA 010155Z AUTO 12003KT 1 1/2SM -SN SCT002 OVC007 M01/M01 A3000 RMK AO2 T10061008
CDA,2017-04-01 02:15,-72.0180,44.5691,31.10,30.70,98.39,90.00,6.00,0.00,29.99,M,1.50,M,SCT,OVC,M,M,100.00,400.00,M,M,-SN,KCDA 010215Z AUTO 09006KT 1 1/2SM -SN SCT001 OVC004 00/M01 A2999 RMK AO2 T10051007
CDA,2017-04-01 02:35,-72.0180,44.5691,31.10,30.90,99.19,90.00,6.00,0.00,29.98,M,1.50,M,OVC,M,M,M,700.00,M,M,M,-SN,KCDA 010235Z AUTO 09006KT 1 1/2SM -SN OVC007 00/M01 A2998 RMK AO2 T10051006
CDA,2017-04-01 02:55,-72.0180,44.5691,30.90,30.20,97.20,80.00,4.00,0.00,29.97,M,1.25,M,OVC,M,M,M,700.00,M,M,M,-SN,KCDA 010255Z AUTO 08004KT 1 1/4SM -SN OVC007 M01/M01 A2997 RMK AO2 T10061010
CDA,2017-04-01 03:15,-72.0180,44.5691,30.90,30.20,97.20,90.00,5.00,0.00,29.96,M,1.25,M,OVC,M,M,M,700.00,M,M,M,-SN,KCDA 010315Z AUTO 09005KT 1 1/4SM -SN OVC007 M01/M01 A2996 RMK AO2 T10061010
CDA,2017-04-01 03:35,-72.0180,44.5691,30.70,30.00,97.20,90.00,4.00,0.00,29.96,M,1.50,M,OVC,M,M,M,800.00,M,M,M,-SN,KCDA 010335Z AUTO 09004KT 1 1/2SM -SN OVC008 M01/M01 A2996 RMK AO2 T10071011
CDA,2017-04-01 03:55,-72.0180,44.5691,30.70,30.00,97.20,90.00,6.00,0.00,29.95,M,1.50,M,SCT,OVC,M,M,300.00,800.00,M,M,-SN,KCDA 010355Z AUTO 09006KT 1 1/2SM -SN SCT003 OVC008 M01/M01 A2995 RMK AO2 T10071011
CDA,2017-04-01 04:15,-72.0180,44.5691,31.10,30.20,96.42,90.00,11.00,0.00,29.95,M,1.25,14.00,OVC,M,M,M,800.00,M,M,M,-SN,KCDA 010415Z AUTO 09011G14KT 1 1/4SM -SN OVC008 00/M01 A2995 RMK AO2 T10051010
CDA,2017-04-01 04:35,-72.0180,44.5691,31.50,29.80,93.34,100.00,11.00,0.00,29.95,M,1.50,17.00,OVC,M,M,M,800.00,M,M,M,-SN,KCDA 010435Z AUTO 10011G17KT 1 1/2SM -SN OVC008 00/M01 A2995 RMK AO2 T10031012
CDA,2017-04-01 04:55,-72.0180,44.5691,31.50,29.80,93.34,90.00,11.00,0.00,29.94,M,1.75,18.00,OVC,M,M,M,1000.00,M,M,M,-SN,KCDA 010455Z AUTO 09011G18KT 1 3/4SM -SN OVC010 00/M01 A2994 RMK AO2 T10031012 400331020
CDA,2017-04-01 05:15,-72.0180,44.5691,31.50,29.70,92.96,80.00,7.00,0.00,29.93,M,1.75,M,OVC,M,M,M,1200.00,M,M,M,-SN,KCDA 010515Z AUTO 08007KT 1 3/4SM -SN OVC012 00/M01 A2993 RMK AO2 T10031013
CDA,2017-04-01 05:35,-72.0180,44.5691,31.10,30.00,95.63,50.00,4.00,0.00,29.93,M,2.00,M,SCT,OVC,M,M,400.00,1200.00,M,M,-SN,KCDA 010535Z AUTO 05004KT 2SM -SN SCT004 OVC012 00/M01 A2993 RMK AO2 T10051011
CDA,2017-04-01 05:55,-72.0180,44.5691,31.10,30.20,96.42,90.00,9.00,0.00,29.93,M,1.75,M,SCT,OVC,M,M,200.00,1000.00,M,M,-SN,KCDA 010555Z AUTO 09009KT 030V090 1 3/4SM -SN SCT002 OVC010 00/M01 A2993 RMK AO2 T10051010 11002 21007
CDA,2017-04-01 06:15,-72.0180,44.5691,31.10,30.00,95.63,80.00,3.00,0.00,29.92,M,1.50,M,OVC,M,M,M,800.00,M,M,M,-SN,KCDA 010615Z AUTO 08003KT 1 1/2SM -SN OVC008 00/M01 A2992 RMK AO2 T10051011
CDA,2017-04-01 06:35,-72.0180,44.5691,30.90,30.00,96.41,350.00,3.00,0.00,29.92,M,1.00,M,OVC,M,M,M,700.00,M,M,M,SN,KCDA 010635Z AUTO 35003KT 1SM SN OVC007 M01/M01 A2992 RMK AO2 T10061011
CDA,2017-04-01 06:55,-72.0180,44.5691,30.70,30.00,97.20,0.00,0.00,0.00,29.91,M,1.25,M,BKN,OVC,M,M,700.00,1100.00,M,M,-SN,KCDA 010655Z AUTO 00000KT 1 1/4SM -SN BKN007 OVC011 M01/M01 A2991 RMK AO2 T10071011
CDA,2017-04-01 07:15,-72.0180,44.5691,30.70,30.20,97.99,0.00,0.00,0.00,29.91,M,2.50,M,SCT,BKN,OVC,M,900.00,1900.00,3300.00,M,-SN,KCDA 010715Z AUTO 00000KT 2 1/2SM -SN SCT009 BKN019 OVC033 M01/M01 A2991 RMK AO2 T10071010
CDA,2017-04-01 07:35,-72.0180,44.5691,30.70,30.20,97.99,0.00,0.00,0.00,29.91,M,1.00,M,OVC,M,M,M,600.00,M,M,M,SN,KCDA 010735Z AUTO 00000KT 1SM SN OVC006 M01/M01 A2991 RMK AO2 T10071010
CDA,2017-04-01 07:55,-72.0180,44.5691,30.70,30.20,97.99,0.00,0.00,0.00,29.91,M,1.00,M,OVC,M,M,M,400.00,M,M,M,SN,KCDA 010755Z AUTO 00000KT 1SM SN OVC004 M01/M01 A2991 RMK AO2 T10071010
CDA,2017-04-01 08:15,-72.0180,44.5691,30.90,30.60,98.79,0.00,0.00,0.00,29.90,M,1.50,M,OVC,M,M,M,1000.00,M,M,M,-SN,KCDA 010815Z AUTO 00000KT 1 1/2SM -SN OVC010 M01/M01 A2990 RMK AO2 T10061008
CDA,2017-04-01 08:35,-72.0180,44.5691,30.90,30.60,98.79,350.00,4.00,0.00,29.90,M,1.75,M,OVC,M,M,M,1000.00,M,M,M,-SN,KCDA 010835Z AUTO 35004KT 1 3/4SM -SN OVC010 M01/M01 A2990 RMK AO2 T10061008
CDA,2017-04-01 08:55,-72.0180,44.5691,30.90,30.20,97.20,0.00,0.00,0.00,29.90,M,1.25,M,OVC,M,M,M,800.00,M,M,M,-SN,KCDA 010855Z AUTO 00000KT 1 1/4SM -SN OVC008 M01/M01 A2990 RMK AO2 T10061010
CDA,2017-04-01 09:15,-72.0180,44.5691,31.10,30.60,97.99,360.00,4.00,0.00,29.90,M,2.00,M,OVC,M,M,M,800.00,M,M,M,-SN,KCDA 010915Z AUTO 36004KT 2SM -SN OVC008 00/M01 A2990 RMK AO2 T10051008
CDA,2017-04-01 09:35,-72.0180,44.5691,31.10,30.20,96.42,10.00,5.00,0.00,29.91,M,3.00,M,OVC,M,M,M,1000.00,M,M,M,-SN,KCDA 010935Z AUTO 01005KT 3SM -SN OVC010 00/M01 A2991 RMK AO2 T10051010
CDA,2017-04-01 09:55,-72.0180,44.5691,31.10,30.20,96.42,360.00,4.00,0.00,29.91,M,2.50,M,OVC,M,M,M,1000.00,M,M,M,-RA,KCDA 010955Z AUTO 36004KT 2 1/2SM -RA OVC010 00/M01 A2991 RMK AO2 T10051010
CDA,2017-04-01 10:15,-72.0180,44.5691,30.90,30.20,97.20,360.00,3.00,0.00,29.91,M,2.50,M,OVC,M,M,M,1000.00,M,M,M,-SN,KCDA 011015Z AUTO 36003KT 2 1/2SM -SN OVC010 M01/M01 A2991 RMK AO2 T10061010
CDA,2017-04-01 10:35,-72.0180,44.5691,30.90,30.20,97.20,360.00,3.00,0.00,29.92,M,2.00,M,OVC,M,M,M,1000.00,M,M,M,-SN,KCDA 011035Z AUTO 36003KT 2SM -SN OVC010 M01/M01 A2992 RMK AO2 T10061010
CDA,2017-04-01 10:55,-72.0180,44.5691,30.90,30.20,97.20,360.00,4.00,0.00,29.92,M,1.50,M,OVC,M,M,M,800.00,M,M,M,-SN,KCDA 011055Z AUTO 36004KT 1 1/2SM -SN OVC008 M01/M01 A2992 RMK AO2 T10061010
CDA,2017-04-01 11:15,-72.0180,44.5691,30.90,30.20,97.20,360.00,3.00,0.00,29.93,M,0.50,M,OVC,M,M,M,600.00,M,M,M,SN,KCDA 011115Z AUTO 36003KT 1/2SM SN OVC006 M01/M01 A2993 RMK AO2 T10061010
CDA,2017-04-01 11:35,-72.0180,44.5691,30.90,30.20,97.20,10.00,3.00,0.00,29.93,M,1.25,M,OVC,M,M,M,900.00,M,M,M,-SN,KCDA 011135Z AUTO 01003KT 1 1/4SM -SN OVC009 M01/M01 A2993 RMK AO2 T10061010
CDA,2017-04-01 11:55,-72.0180,44.5691,30.90,30.00,96.41,0.00,0.00,0.00,29.94,M,1.00,M,SCT,OVC,M,M,300.00,900.00,M,M,-SN,KCDA 011155Z AUTO 00000KT 1SM -SN SCT003 OVC009 M01/M01 A2994 RMK AO2 T10061011 11003 21007
CDA,2017-04-01 12:15,-72.0180,44.5691,30.90,30.20,97.20,0.00,0.00,0.00,29.94,M,1.00,M,OVC,M,M,M,900.00,M,M,M,-SN,KCDA 011215Z AUTO 00000KT 1SM -SN OVC009 M01/M01 A2994 RMK AO2 T10061010
CDA,2017-04-01 12:35,-72.0180,44.5691,30.90,30.00,96.41,0.00,0.00,0.00,29.94,M,1.00,M,OVC,M,M,M,900.00,M,M,M,-SN,KCDA 011235Z AUTO 00000KT 1SM -SN OVC009 M01/M01 A2994 RMK AO2 T10061011
CDA,2017-04-01 12:55,-72.0180,44.5691,31.10,30.20,96.42,340.00,3.00,0.00,29.94,M,0.75,M,SCT,OVC,M,M,300.00,900.00,M,M,-SN,KCDA 011255Z AUTO 34003KT 3/4SM -SN SCT003 OVC009 00/M01 A2994 RMK AO2 T10051010
CDA,2017-04-01 13:15,-72.0180,44.5691,31.10,30.00,95.63,350.00,4.00,0.00,29.95,M,1.00,M,OVC,M,M,M,400.00,M,M,M,-SN,KCDA 011315Z AUTO 35004KT 1SM -SN OVC004 00/M01 A2995 RMK AO2 T10051011
CDA,2017-04-01 13:35,-72.0180,44.5691,31.10,30.00,95.63,350.00,4.00,0.00,29.95,M,1.25,M,SCT,OVC,M,M,400.00,800.00,M,M,-SN,KCDA 011335Z AUTO 35004KT 1 1/4SM -SN SCT004 OVC008 00/M01 A2995 RMK AO2 T10051011
CDA,2017-04-01 13:55,-72.0180,44.5691,31.10,30.00,95.63,340.00,4.00,0.00,29.95,M,1.00,M,OVC,M,M,M,800.00,M,M,M,-SN,KCDA 011355Z AUTO 34004KT 1SM -SN OVC008 00/M01 A2995 RMK AO2 T10051011
CDA,2017-04-01 14:15,-72.0180,44.5691,31.50,30.20,94.87,360.00,4.00,0.00,29.96,M,1.50,M,BKN,OVC,M,M,800.00,1300.00,M,M,-SN,KCDA 011415Z AUTO 36004KT 1 1/2SM -SN BKN008 OVC013 00/M01 A2996 RMK AO2 T10031010
CDA,2017-04-01 14:35,-72.0180,44.5691,31.50,30.20,94.87,360.00,5.00,0.00,29.96,M,1.50,M,SCT,OVC,M,M,400.00,1000.00,M,M,-SN,KCDA 011435Z AUTO 36005KT 1 1/2SM -SN SCT004 OVC010 00/M01 A2996 RMK AO2 T10031010
CDA,2017-04-01 14:55,-72.0180,44.5691,31.60,30.00,93.72,360.00,4.00,0.00,29.96,M,1.00,M,SCT,OVC,M,M,400.00,1000.00,M,M,-SN,KCDA 011455Z AUTO 36004KT 1SM -SN SCT004 OVC010 00/M01 A2996 RMK AO2 T10021011
CDA,2017-04-01 15:15,-72.0180,44.5691,31.60,29.80,92.96,360.00,4.00,0.00,29.96,M,1.25,M,OVC,M,M,M,800.00,M,M,M,-SN,KCDA 011515Z AUTO 36004KT 1 1/4SM -SN OVC008 00/M01 A2996 RMK AO2 T10021012
CDA,2017-04-01 15:35,-72.0180,44.5691,31.80,29.80,92.21,20.00,7.00,0.00,29.95,M,1.50,M,OVC,M,M,M,800.00,M,M,M,-SN,KCDA 011535Z AUTO 02007KT 1 1/2SM -SN OVC008 00/M01 A2995 RMK AO2 VIS 1V2 1/2 T10011012
CDA,2017-04-01 15:55,-72.0180,44.5691,31.80,29.70,91.84,360.00,4.00,0.00,29.96,M,1.50,M,OVC,M,M,M,800.00,M,M,M,-SN,KCDA 011555Z AUTO 36004KT 1 1/2SM -SN OVC008 00/M01 A2996 RMK AO2 T10011013
CDA,2017-04-01 16:15,-72.0180,44.5691,32.00,30.20,92.97,10.00,4.00,0.00,29.95,M,2.00,M,SCT,OVC,M,M,500.00,1200.00,M,M,UP,KCDA 011615Z AUTO 01004KT 2SM UP SCT005 OVC012 00/M01 A2995 RMK AO2 T00001010
CDA,2017-04-01 16:35,-72.0180,44.5691,32.00,29.80,91.47,340.00,4.00,0.00,29.95,M,5.00,M,BKN,OVC,M,M,1400.00,2100.00,M,M,-RA,KCDA 011635Z AUTO 34004KT 5SM -RA BKN014 OVC021 00/M01 A2995 RMK AO2 T00001012
CDA,2017-04-01 16:55,-72.0180,44.5691,32.20,30.00,91.48,330.00,3.00,0.00,29.95,M,2.00,M,SCT,OVC,M,M,700.00,1600.00,M,M,RA,KCDA 011655Z AUTO 33003KT 2SM RA SCT007 OVC016 00/M01 A2995 RMK AO2 T00011011
CDA,2017-04-01 17:15,-72.0180,44.5691,32.50,30.40,91.86,340.00,4.00,0.00,29.95,M,1.25,M,SCT,BKN,OVC,M,600.00,1000.00,1400.00,M,-SN,KCDA 011715Z AUTO 34004KT 1 1/4SM -SN SCT006 BKN010 OVC014 00/M01 A2995 RMK AO2 T00031009
CDA,2017-04-01 17:35,-72.0180,44.5691,32.50,30.20,91.12,330.00,4.00,0.00,29.95,M,2.50,M,OVC,M,M,M,1000.00,M,M,M,-RA,KCDA 011735Z AUTO 33004KT 2 1/2SM -RA OVC010 00/M01 A2995 RMK AO2 T00031010
CDA,2017-04-01 17:55,-72.0180,44.5691,33.10,30.40,89.68,330.00,4.00,0.00,29.94,M,5.00,M,BKN,OVC,M,M,1000.00,1700.00,M,M,-RA,KCDA 011755Z AUTO 33004KT 5SM -RA BKN010 OVC017 01/M01 A2994 RMK AO2 T00061009 10006 21007
CDA,2017-04-01 18:15,-72.0180,44.5691,33.30,30.60,89.68,340.00,3.00,0.00,29.94,M,5.00,M,BKN,OVC,M,M,1000.00,1900.00,M,M,-RA,KCDA 011815Z AUTO 34003KT 5SM -RA BKN010 OVC019 01/M01 A2994 RMK AO2 T00071008
CDA,2017-04-01 18:35,-72.0180,44.5691,33.80,30.70,88.26,330.00,3.00,0.00,29.93,M,5.00,M,SCT,BKN,OVC,M,800.00,2000.00,4400.00,M,-RA,KCDA 011835Z AUTO 33003KT 5SM -RA SCT008 BKN020 OVC044 01/M01 A2993 RMK AO2 T00101007
CDA,2017-04-01 18:55,-72.0180,44.5691,34.30,31.10,87.93,340.00,4.00,0.00,29.92,M,7.00,M,SCT,SCT,BKN,M,800.00,1500.00,4400.00,M,M,KCDA 011855Z AUTO 34004KT 7SM SCT008 SCT015 BKN044 01/00 A2992 RMK AO2 T00131005
CDA,2017-04-01 19:15,-72.0180,44.5691,35.10,30.40,82.79,300.00,3.00,0.00,29.93,M,10.00,M,SCT,SCT,BKN,M,800.00,3700.00,11000.00,M,M,KCDA 011915Z AUTO 30003KT 10SM SCT008 SCT037 BKN110 02/M01 A2993 RMK AO2 T00171009
CDA,2017-04-01 19:35,-72.0180,44.5691,35.20,29.80,80.48,290.00,4.00,0.00,29.93,M,10.00,M,SCT,BKN,OVC,M,1000.00,3700.00,4900.00,M,M,KCDA 011935Z AUTO 29004KT 10SM SCT010 BKN037 OVC049 02/M01 A2993 RMK AO2 T00181012
CDA,2017-04-01 19:55,-72.0180,44.5691,35.40,29.70,79.51,260.00,3.00,0.00,29.94,M,10.00,M,OVC,M,M,M,2100.00,M,M,M,M,KCDA 011955Z AUTO 26003KT 10SM OVC021 02/M01 A2994 RMK AO2 T00191013
CDA,2017-04-01 20:15,-72.0180,44.5691,35.40,31.50,85.54,240.00,4.00,0.00,29.94,M,10.00,M,OVC,M,M,M,2300.00,M,M,M,M,KCDA 012015Z AUTO 24004KT 10SM OVC023 02/00 A2994 RMK AO2 T00191003
CDA,2017-04-01 20:35,-72.0180,44.5691,35.20,31.60,86.57,230.00,3.00,0.00,29.94,M,10.00,M,OVC,M,M,M,2500.00,M,M,M,M,KCDA 012035Z AUTO 23003KT 10SM OVC025 02/00 A2994 RMK AO2 T00181002
CDA,2017-04-01 20:55,-72.0180,44.5691,35.40,32.00,87.28,260.00,3.00,0.00,29.95,M,10.00,M,SCT,BKN,OVC,M,1300.00,2200.00,3000.00,M,M,KCDA 012055Z AUTO 26003KT 10SM SCT013 BKN022 OVC030 02/00 A2995 RMK AO2 T00190000
CDA,2017-04-01 21:15,-72.0180,44.5691,35.10,32.40,89.76,230.00,3.00,0.00,29.95,M,10.00,M,SCT,BKN,OVC,M,1300.00,2000.00,2500.00,M,-DZ,KCDA 012115Z AUTO 23003KT 10SM -DZ SCT013 BKN020 OVC025 02/00 A2995 RMK AO2 T00170002
CDA,2017-04-01 21:35,-72.0180,44.5691,34.30,33.10,95.31,240.00,3.00,0.00,29.96,M,10.00,M,SCT,BKN,OVC,M,900.00,2200.00,3000.00,M,M,KCDA 012135Z AUTO 24003KT 10SM SCT009 BKN022 OVC030 01/01 A2996 RMK AO2 T00130006
CDA,2017-04-01 21:55,-72.0180,44.5691,34.30,33.30,96.08,0.00,0.00,0.00,29.96,M,10.00,M,SCT,SCT,OVC,M,900.00,1700.00,3300.00,M,M,KCDA 012155Z AUTO 00000KT 10SM SCT009 SCT017 OVC033 01/01 A2996 RMK AO2 T00130007
CDA,2017-04-01 22:15,-72.0180,44.5691,34.30,33.30,96.08,240.00,4.00,0.00,29.97,M,10.00,M,BKN,OVC,M,M,3300.00,4300.00,M,M,-RA,KCDA 012215Z AUTO 24004KT 10SM -RA BKN033 OVC043 01/01 A2997 RMK AO2 T00130007
CDA,2017-04-01 22:35,-72.0180,44.5691,34.00,32.90,95.69,240.00,4.00,0.00,29.97,M,10.00,M,BKN,OVC,M,M,2400.00,3300.00,M,M,-RA,KCDA 012235Z AUTO 24004KT 10SM -RA BKN024 OVC033 01/01 A2997 RMK AO2 T00110005
CDA,2017-04-01 22:55,-72.0180,44.5691,33.40,32.50,96.45,0.00,0.00,0.00,29.97,M,5.00,M,BKN,OVC,M,M,2000.00,2400.00,M,M,-RA,KCDA 012255Z AUTO 00000KT 5SM -RA BKN020 OVC024 01/00 A2997 RMK AO2 T00080003
CDA,2017-04-01 23:15,-72.0180,44.5691,33.10,32.40,97.23,230.00,3.00,0.00,29.97,M,3.00,M,OVC,M,M,M,1800.00,M,M,M,-RA,KCDA 012315Z AUTO 23003KT 3SM -RA OVC018 01/00 A2997 RMK AO2 T00060002
CDA,2017-04-01 23:35,-72.0180,44.5691,32.90,32.20,97.22,230.00,3.00,0.00,29.97,M,4.00,M,SCT,BKN,OVC,M,1600.00,2100.00,6000.00,M,-RA,KCDA 012335Z AUTO 23003KT 4SM -RA SCT016 BKN021 OVC060 01/00 A2997 RMK AO2 T00050001
CDA,2017-04-01 23:55,-72.0180,44.5691,32.70,32.20,98.01,250.00,3.00,0.00,29.97,M,7.00,M,BKN,OVC,M,M,1400.00,6000.00,M,M,-SN,KCDA 012355Z AUTO 25003KT 7SM -SN BKN014 OVC060 00/00 A2997 RMK AO2 T00040001 10020 20004
