#DEBUG: Format Typ    -> comma
#DEBUG: Time Period   -> 2017-04-01 00:00:00+00:00 2017-04-02 00:00:00+00:00
#DEBUG: Time Zone     -> Etc/UTC
#DEBUG: Data Contact   -> daryl herzmann akrherz@iastate.edu 515-294-5978
#DEBUG: Entries Found -> -1
station,valid,lon,lat,tmpf, dwpf, relh, drct, sknt, p01i, alti, mslp, vsby, gust, skyc1, skyc2, skyc3, skyc4, skyl1, skyl2, skyl3, skyl4, presentwx, metar
CDI,2017-04-01 00:05,-81.5776,39.9750,53.60,50.50,89.20,240.00,6.00,0.00,29.70,M,10.00,M,OVC,M,M,M,1400.00,M,M,M,-DZ,KCDI 010005Z AUTO 24006KT 10SM -DZ OVC014 12/10 A2970 RMK AO2 T01200103
CDI,2017-04-01 00:34,-81.5776,39.9750,53.20,50.50,90.52,240.00,3.00,0.00,29.71,M,10.00,M,OVC,M,M,M,1200.00,M,M,M,M,KCDI 010034Z AUTO 24003KT 10SM OVC012 12/10 A2971 RMK AO2 T01180103
CDI,2017-04-01 00:53,-81.5776,39.9750,53.20,50.50,90.52,240.00,4.00,0.00,29.72,M,7.00,M,OVC,M,M,M,1000.00,M,M,M,M,KCDI 010053Z AUTO 24004KT 7SM OVC010 12/10 A2972 RMK AO2 T01180103
CDI,2017-04-01 01:05,-81.5776,39.9750,52.90,50.90,92.89,240.00,5.00,0.00,29.73,M,3.00,M,OVC,M,M,M,1000.00,M,M,M,DZ,KCDI 010105Z AUTO 24005KT 3SM DZ OVC010 12/11 A2973 RMK AO2 T01160105
CDI,2017-04-01 01:34,-81.5776,39.9750,53.20,51.10,92.55,320.00,9.00,0.00,29.75,M,4.00,14.00,OVC,M,M,M,700.00,M,M,M,DZ,KCDI 010134Z AUTO 32009G14KT 290V350 4SM DZ OVC007 12/11 A2975 RMK AO2 T01180106
CDI,2017-04-01 01:53,-81.5776,39.9750,50.50,48.00,91.09,320.00,9.00,0.00,29.77,M,5.00,15.00,OVC,M,M,M,700.00,M,M,M,BR,KCDI 010153Z AUTO 32009G15KT 290V350 5SM BR OVC007 10/09 A2977 RMK AO2 T01030089
CDI,2017-04-01 02:05,-81.5776,39.9750,48.70,45.90,90.00,330.00,9.00,0.00,29.78,M,4.00,15.00,SCT,BKN,OVC,M,700.00,1200.00,2700.00,M,+RA,KCDI 010205Z AUTO 33009G15KT 4SM +RA SCT007 BKN012 OVC027 09/08 A2978 RMK AO2 T00930077
CDI,2017-04-01 02:34,-81.5776,39.9750,46.90,44.60,91.65,300.00,7.00,0.00,29.80,M,7.00,M,OVC,M,M,M,700.00,M,M,M,M,KCDI 010234Z AUTO 30007KT 7SM OVC007 08/07 A2980 RMK AO2 T00830070
CDI,2017-04-01 02:53,-81.5776,39.9750,46.40,43.90,90.94,0.00,0.00,0.00,29.81,M,10.00,M,OVC,M,M,M,700.00,M,M,M,M,KCDI 010253Z AUTO 00000KT 10SM OVC007 08/07 A2981 RMK AO2 T00800066
CDI,2017-04-01 03:05,-81.5776,39.9750,46.00,43.70,91.62,310.00,4.00,0.00,29.81,M,10.00,M,OVC,M,M,M,700.00,M,M,M,M,KCDI 010305Z AUTO 31004KT 10SM OVC007 08/07 A2981 RMK AO2 T00780065
CDI,2017-04-01 03:34,-81.5776,39.9750,45.50,42.80,90.21,300.00,5.00,0.00,29.83,M,10.00,M,OVC,M,M,M,900.00,M,M,M,M,KCDI 010334Z AUTO 30005KT 10SM OVC009 08/06 A2983 RMK AO2 T00750060
CDI,2017-04-01 03:53,-81.5776,39.9750,45.00,42.30,90.19,0.00,0.00,0.00,29.84,M,10.00,M,OVC,M,M,M,1100.00,M,M,M,M,KCDI 010353Z AUTO 00000KT 10SM OVC011 07/06 A2984 RMK AO2 T00720057
CDI,2017-04-01 04:05,-81.5776,39.9750,44.80,41.90,89.49,290.00,5.00,0.00,29.84,M,10.00,M,OVC,M,M,M,1100.00,M,M,M,M,KCDI 010405Z AUTO 29005KT 10SM OVC011 07/06 A2984 RMK AO2 T00710055
CDI,2017-04-01 04:34,-81.5776,39.9750,44.20,41.40,89.81,300.00,6.00,0.00,29.85,M,10.00,M,OVC,M,M,M,900.00,M,M,M,M,KCDI 010434Z AUTO 30006KT 10SM OVC009 07/05 A2985 RMK AO2 T00680052
CDI,2017-04-01 04:53,-81.5776,39.9750,43.90,41.20,90.14,290.00,4.00,0.00,29.86,M,10.00,M,OVC,M,M,M,900.00,M,M,M,M,KCDI 010453Z AUTO 29004KT 10SM OVC009 07/05 A2986 RMK AO2 T00660051 401440066
CDI,2017-04-01 05:05,-81.5776,39.9750,43.90,41.20,90.14,280.00,4.00,0.00,29.86,M,10.00,M,OVC,M,M,M,900.00,M,M,M,M,KCDI 010505Z AUTO 28004KT 10SM OVC009 07/05 A2986 RMK AO2 T00660051
CDI,2017-04-01 05:34,-81.5776,39.9750,43.20,41.00,91.87,0.00,0.00,0.00,29.87,M,10.00,M,OVC,M,M,M,700.00,M,M,M,-RA,KCDI 010534Z AUTO 00000KT 10SM -RA OVC007 06/05 A2987 RMK AO2 T00620050
CDI,2017-04-01 05:53,-81.5776,39.9750,43.20,40.60,90.46,310.00,3.00,0.00,29.87,M,10.00,M,OVC,M,M,M,700.00,M,M,M,-DZ,KCDI 010553Z AUTO 31003KT 10SM -DZ OVC007 06/05 A2987 RMK AO2 T00620048 10120 20061
CDI,2017-04-01 06:05,-81.5776,39.9750,43.20,40.50,90.11,0.00,0.00,0.00,29.88,M,10.00,M,OVC,M,M,M,1100.00,M,M,M,M,KCDI 010605Z AUTO 00000KT 10SM OVC011 06/05 A2988 RMK AO2 T00620047
CDI,2017-04-01 06:34,-81.5776,39.9750,43.20,40.10,88.72,0.00,0.00,0.00,29.88,M,10.00,M,OVC,M,M,M,1100.00,M,M,M,M,KCDI 010634Z AUTO 00000KT 10SM OVC011 06/05 A2988 RMK AO2 T00620045
CDI,2017-04-01 06:53,-81.5776,39.9750,43.20,39.70,87.35,310.00,3.00,0.00,29.89,M,10.00,M,OVC,M,M,M,1300.00,M,M,M,M,KCDI 010653Z AUTO 31003KT 10SM OVC013 06/04 A2989 RMK AO2 T00620043
CDI,2017-04-01 07:05,-81.5776,39.9750,43.20,39.70,87.35,0.00,0.00,0.00,29.90,M,10.00,M,OVC,M,M,M,1100.00,M,M,M,M,KCDI 010705Z AUTO 00000KT 10SM OVC011 06/04 A2990 RMK AO2 T00620043
CDI,2017-04-01 07:34,-81.5776,39.9750,43.00,39.40,87.00,290.00,4.00,0.00,29.91,M,10.00,M,BKN,OVC,M,M,1100.00,1800.00,M,M,M,KCDI 010734Z AUTO 29004KT 10SM BKN011 OVC018 06/04 A2991 RMK AO2 T00610041
CDI,2017-04-01 07:54,-81.5776,39.9750,43.00,39.20,86.33,300.00,4.00,0.00,29.92,M,10.00,M,OVC,M,M,M,1300.00,M,M,M,M,KCDI 010754Z AUTO 30004KT 10SM OVC013 06/04 A2992 RMK AO2 T00610040
CDI,2017-04-01 08:06,-81.5776,39.9750,42.80,39.20,86.99,300.00,4.00,0.00,29.93,M,10.00,M,OVC,M,M,M,1300.00,M,M,M,M,KCDI 010806Z AUTO 30004KT 10SM OVC013 06/04 A2993 RMK AO2 T00600040
CDI,2017-04-01 08:33,-81.5776,39.9750,42.80,39.20,86.99,310.00,4.00,0.00,29.94,M,10.00,M,OVC,M,M,M,1100.00,M,M,M,M,KCDI 010833Z AUTO 31004KT 10SM OVC011 06/04 A2994 RMK AO2 T00600040
CDI,2017-04-01 08:54,-81.5776,39.9750,42.10,39.40,90.07,0.00,0.00,0.00,29.95,M,4.00,M,OVC,M,M,M,900.00,M,M,M,BR,KCDI 010854Z AUTO 00000KT 4SM BR OVC009 06/04 A2995 RMK AO2 T00560041
CDI,2017-04-01 09:06,-81.5776,39.9750,41.90,39.40,90.76,310.00,3.00,0.00,29.96,M,5.00,M,OVC,M,M,M,900.00,M,M,M,BR,KCDI 010906Z AUTO 31003KT 5SM BR OVC009 06/04 A2996 RMK AO2 T00550041
CDI,2017-04-01 09:33,-81.5776,39.9750,41.90,39.20,90.06,330.00,5.00,0.00,29.98,M,7.00,M,BKN,OVC,M,M,1100.00,1600.00,M,M,M,KCDI 010933Z AUTO 33005KT 7SM BKN011 OVC016 06/04 A2998 RMK AO2 T00550040
CDI,2017-04-01 09:54,-81.5776,39.9750,41.20,38.80,91.09,360.00,3.00,0.00,29.99,M,5.00,M,OVC,M,M,M,900.00,M,M,M,-DZ,KCDI 010954Z AUTO 36003KT 5SM -DZ OVC009 05/04 A2999 RMK AO2 T00510038
CDI,2017-04-01 10:06,-81.5776,39.9750,41.00,38.70,91.44,0.00,0.00,0.00,29.98,M,7.00,M,BKN,OVC,M,M,900.00,1500.00,M,M,M,KCDI 011006Z AUTO 00000KT 7SM BKN009 OVC015 05/04 A2998 RMK AO2 T00500037
CDI,2017-04-01 10:33,-81.5776,39.9750,40.60,38.50,92.14,350.00,3.00,0.00,29.98,M,10.00,M,OVC,M,M,M,900.00,M,M,M,M,KCDI 011033Z AUTO 35003KT 10SM OVC009 05/04 A2998 RMK AO2 T00480036
CDI,2017-04-01 10:54,-81.5776,39.9750,40.60,38.30,91.43,0.00,0.00,0.00,30.00,M,10.00,M,OVC,M,M,M,1100.00,M,M,M,M,KCDI 011054Z AUTO 00000KT 10SM OVC011 05/04 A3000 RMK AO2 T00480035
CDI,2017-04-01 11:06,-81.5776,39.9750,40.80,38.30,90.72,350.00,5.00,0.00,30.01,M,10.00,M,OVC,M,M,M,1100.00,M,M,M,M,KCDI 011106Z AUTO 35005KT 10SM OVC011 05/04 A3001 RMK AO2 T00490035
CDI,2017-04-01 11:33,-81.5776,39.9750,40.10,37.40,89.98,360.00,5.00,0.00,30.03,M,10.00,M,OVC,M,M,M,900.00,M,M,M,M,KCDI 011133Z AUTO 36005KT 10SM OVC009 05/03 A3003 RMK AO2 T00450030
CDI,2017-04-01 11:54,-81.5776,39.9750,40.10,37.40,89.98,0.00,0.00,0.00,30.04,M,10.00,M,OVC,M,M,M,900.00,M,M,M,M,KCDI 011154Z AUTO 00000KT 10SM OVC009 05/03 A3004 RMK AO2 T00450030 10062 20045
CDI,2017-04-01 12:06,-81.5776,39.9750,40.10,37.40,89.98,0.00,0.00,0.00,30.05,M,10.00,M,OVC,M,M,M,900.00,M,M,M,M,KCDI 011206Z AUTO 00000KT 10SM OVC009 05/03 A3005 RMK AO2 T00450030
CDI,2017-04-01 12:33,-81.5776,39.9750,40.50,36.90,86.87,0.00,0.00,0.00,30.06,M,10.00,M,OVC,M,M,M,1100.00,M,M,M,M,KCDI 011233Z AUTO 00000KT 10SM OVC011 05/03 A3006 RMK AO2 T00470027
CDI,2017-04-01 12:54,-81.5776,39.9750,40.60,37.00,86.87,300.00,3.00,0.00,30.08,M,10.00,M,OVC,M,M,M,1300.00,M,M,M,M,KCDI 011254Z AUTO 30003KT 10SM OVC013 05/03 A3008 RMK AO2 T00480028
CDI,2017-04-01 13:06,-81.5776,39.9750,40.60,37.20,87.56,300.00,3.00,0.00,30.08,M,7.00,M,OVC,M,M,M,1300.00,M,M,M,M,KCDI 011306Z AUTO 30003KT 7SM OVC013 05/03 A3008 RMK AO2 T00480029
CDI,2017-04-01 13:33,-81.5776,39.9750,39.90,37.40,90.68,330.00,3.00,0.00,30.09,M,5.00,M,OVC,M,M,M,900.00,M,M,M,BR,KCDI 011333Z AUTO 33003KT 5SM BR OVC009 04/03 A3009 RMK AO2 T00440030
CDI,2017-04-01 13:54,-81.5776,39.9750,39.90,37.40,90.68,330.00,4.00,0.00,30.10,M,4.00,M,OVC,M,M,M,900.00,M,M,M,-RA,KCDI 011354Z AUTO 33004KT 4SM -RA OVC009 04/03 A3010 RMK AO2 T00440030
CDI,2017-04-01 14:06,-81.5776,39.9750,39.70,37.80,92.84,340.00,3.00,0.00,30.10,M,4.00,M,OVC,M,M,M,900.00,M,M,M,-DZ,KCDI 011406Z AUTO 34003KT 4SM -DZ OVC009 04/03 A3010 RMK AO2 T00430032
CDI,2017-04-01 14:33,-81.5776,39.9750,40.30,37.20,88.58,340.00,5.00,0.00,30.10,M,10.00,M,BKN,OVC,M,M,900.00,1600.00,M,M,M,KCDI 011433Z AUTO 34005KT 10SM BKN009 OVC016 05/03 A3010 RMK AO2 T00460029
CDI,2017-04-01 14:54,-81.5776,39.9750,42.10,37.20,82.63,360.00,8.00,0.00,30.10,M,10.00,M,BKN,OVC,M,M,1600.00,2300.00,M,M,M,KCDI 011454Z AUTO 36008KT 10SM BKN016 OVC023 06/03 A3010 RMK AO2 T00560029
CDI,2017-04-01 15:06,-81.5776,39.9750,41.50,36.50,82.26,320.00,3.00,0.00,30.10,M,10.00,M,OVC,M,M,M,1400.00,M,M,M,M,KCDI 011506Z AUTO 32003KT 10SM OVC014 05/03 A3010 RMK AO2 T00530025
CDI,2017-04-01 15:33,-81.5776,39.9750,41.20,36.50,83.22,330.00,4.00,0.00,30.11,M,10.00,M,OVC,M,M,M,1200.00,M,M,M,M,KCDI 011533Z AUTO 33004KT 10SM OVC012 05/03 A3011 RMK AO2 T00510025
CDI,2017-04-01 15:54,-81.5776,39.9750,42.30,36.90,81.03,310.00,6.00,0.00,30.12,M,10.00,M,BKN,OVC,M,M,1400.00,2000.00,M,M,M,KCDI 011554Z AUTO 31006KT 10SM BKN014 OVC020 06/03 A3012 RMK AO2 T00570027
CDI,2017-04-01 16:06,-81.5776,39.9750,43.00,37.00,79.19,330.00,3.00,0.00,30.12,M,10.00,M,OVC,M,M,M,1600.00,M,M,M,M,KCDI 011606Z AUTO 33003KT 10SM OVC016 06/03 A3012 RMK AO2 T00610028
CDI,2017-04-01 16:33,-81.5776,39.9750,43.30,37.00,78.29,310.00,4.00,0.00,30.12,M,10.00,M,OVC,M,M,M,1600.00,M,M,M,M,KCDI 011633Z AUTO 31004KT 10SM OVC016 06/03 A3012 RMK AO2 T00630028
CDI,2017-04-01 16:54,-81.5776,39.9750,43.30,36.70,77.36,320.00,4.00,0.00,30.12,M,10.00,M,OVC,M,M,M,1600.00,M,M,M,M,KCDI 011654Z AUTO 32004KT 10SM OVC016 06/03 A3012 RMK AO2 T00630026
CDI,2017-04-01 17:06,-81.5776,39.9750,43.70,36.50,75.59,290.00,4.00,0.00,30.12,M,10.00,M,OVC,M,M,M,1600.00,M,M,M,M,KCDI 011706Z AUTO 29004KT 10SM OVC016 07/03 A3012 RMK AO2 T00650025
CDI,2017-04-01 17:33,-81.5776,39.9750,43.90,36.50,75.01,330.00,5.00,0.00,30.12,M,10.00,M,OVC,M,M,M,1800.00,M,M,M,M,KCDI 011733Z AUTO 33005KT 10SM OVC018 07/03 A3012 RMK AO2 T00660025
CDI,2017-04-01 17:54,-81.5776,39.9750,44.60,36.50,73.04,330.00,5.00,0.00,30.12,M,10.00,M,OVC,M,M,M,1800.00,M,M,M,M,KCDI 011754Z AUTO 33005KT 10SM OVC018 07/03 A3012 RMK AO2 T00700025 10070 20043
CDI,2017-04-01 18:06,-81.5776,39.9750,44.60,36.70,73.62,340.00,4.00,0.00,30.12,M,10.00,M,OVC,M,M,M,2000.00,M,M,M,M,KCDI 011806Z AUTO 34004KT 10SM OVC020 07/03 A3012 RMK AO2 T00700026
CDI,2017-04-01 18:33,-81.5776,39.9750,45.00,37.40,74.53,310.00,6.00,0.00,30.12,M,10.00,M,OVC,M,M,M,2000.00,M,M,M,M,KCDI 011833Z AUTO 31006KT 10SM OVC020 07/03 A3012 RMK AO2 T00720030
CDI,2017-04-01 18:54,-81.5776,39.9750,44.80,37.00,73.93,320.00,4.00,0.00,30.13,M,10.00,M,OVC,M,M,M,2000.00,M,M,M,M,KCDI 011854Z AUTO 32004KT 10SM OVC020 07/03 A3013 RMK AO2 T00710028
CDI,2017-04-01 19:06,-81.5776,39.9750,44.60,36.90,74.20,0.00,0.00,0.00,30.13,M,10.00,M,OVC,M,M,M,2000.00,M,M,M,M,KCDI 011906Z AUTO 00000KT 10SM OVC020 07/03 A3013 RMK AO2 T00700027
CDI,2017-04-01 19:33,-81.5776,39.9750,44.60,36.90,74.20,290.00,3.00,0.00,30.14,M,10.00,M,OVC,M,M,M,2000.00,M,M,M,M,KCDI 011933Z AUTO 29003KT 10SM OVC020 07/03 A3014 RMK AO2 T00700027
CDI,2017-04-01 19:54,-81.5776,39.9750,44.60,36.50,73.04,310.00,3.00,0.00,30.14,M,10.00,M,OVC,M,M,M,2000.00,M,M,M,M,KCDI 011954Z AUTO 31003KT 10SM OVC020 07/03 A3014 RMK AO2 T00700025
CDI,2017-04-01 20:06,-81.5776,39.9750,44.20,36.70,74.75,0.00,0.00,0.00,30.15,M,10.00,M,OVC,M,M,M,2000.00,M,M,M,M,KCDI 012006Z AUTO 00000KT 10SM OVC020 07/03 A3015 RMK AO2 T00680026
CDI,2017-04-01 20:34,-81.5776,39.9750,44.20,36.50,74.16,310.00,4.00,0.00,30.16,M,10.00,M,OVC,M,M,M,2000.00,M,M,M,M,KCDI 012034Z AUTO 31004KT 10SM OVC020 07/03 A3016 RMK AO2 T00680025
CDI,2017-04-01 20:53,-81.5776,39.9750,44.10,36.50,74.44,300.00,4.00,0.00,30.16,M,10.00,M,OVC,M,M,M,2000.00,M,M,M,M,KCDI 012053Z AUTO 30004KT 10SM OVC020 07/03 A3016 RMK AO2 T00670025
CDI,2017-04-01 21:06,-81.5776,39.9750,43.70,36.50,75.59,290.00,6.00,0.00,30.17,M,10.00,M,OVC,M,M,M,2000.00,M,M,M,M,KCDI 012106Z AUTO 29006KT 10SM OVC020 07/03 A3017 RMK AO2 T00650025
CDI,2017-04-01 21:34,-81.5776,39.9750,43.70,36.70,76.19,330.00,4.00,0.00,30.18,M,10.00,M,OVC,M,M,M,2000.00,M,M,M,M,KCDI 012134Z AUTO 33004KT 10SM OVC020 07/03 A3018 RMK AO2 T00650026
CDI,2017-04-01 21:53,-81.5776,39.9750,43.70,36.70,76.19,0.00,0.00,0.00,30.19,M,10.00,M,BKN,OVC,M,M,1800.00,2400.00,M,M,M,KCDI 012153Z AUTO 00000KT 10SM BKN018 OVC024 07/03 A3019 RMK AO2 T00650026
CDI,2017-04-01 22:06,-81.5776,39.9750,43.30,36.30,76.15,320.00,3.00,0.00,30.20,M,10.00,M,OVC,M,M,M,2000.00,M,M,M,M,KCDI 012206Z AUTO 32003KT 10SM OVC020 06/02 A3020 RMK AO2 T00630024
CDI,2017-04-01 22:34,-81.5776,39.9750,43.20,36.10,75.84,330.00,3.00,0.00,30.21,M,10.00,M,OVC,M,M,M,2200.00,M,M,M,M,KCDI 012234Z AUTO 33003KT 10SM OVC022 06/02 A3021 RMK AO2 T00620023
CDI,2017-04-01 22:53,-81.5776,39.9750,43.20,36.00,75.54,320.00,3.00,0.00,30.21,M,10.00,M,OVC,M,M,M,2400.00,M,M,M,M,KCDI 012253Z AUTO 32003KT 10SM OVC024 06/02 A3021 RMK AO2 T00620022
CDI,2017-04-01 23:06,-81.5776,39.9750,43.20,36.00,75.54,340.00,3.00,0.00,30.21,M,10.00,M,OVC,M,M,M,2400.00,M,M,M,M,KCDI 012306Z AUTO 34003KT 10SM OVC024 06/02 A3021 RMK AO2 T00620022
CDI,2017-04-01 23:34,-81.5776,39.9750,43.00,35.80,75.52,0.00,0.00,0.00,30.21,M,10.00,M,BKN,OVC,M,M,2300.00,2800.00,M,M,M,KCDI 012334Z AUTO 00000KT 10SM BKN023 OVC028 06/02 A3021 RMK AO2 T00610021
CDI,2017-04-01 23:53,-81.5776,39.9750,42.80,35.40,74.91,0.00,0.00,0.00,30.21,M,10.00,M,OVC,M,M,M,2600.00,M,M,M,M,KCDI 012353Z AUTO 00000KT 10SM OVC026 06/02 A3021 RMK AO2 T00600019 10072 20060
