#DEBUG: Format Typ    -> comma
#DEBUG: Time Period   -> 2017-04-01 00:00:00+00:00 2017-04-02 00:00:00+00:00
#DEBUG: Time Zone     -> Etc/UTC
#DEBUG: Data Contact   -> daryl herzmann akrherz@iastate.edu 515-294-5978
#DEBUG: Entries Found -> -1
station,valid,lon,lat,tmpf, dwpf, relh, drct, sknt, p01i, alti, mslp, vsby, gust, skyc1, skyc2, skyc3, skyc4, skyl1, skyl2, skyl3, skyl4, presentwx, metar
CFE,2017-04-01 00:13,-93.8433,45.1590,53.20,27.30,36.54,0.00,0.00,0.00,30.06,M,10.00,M,CLR,M,M,M,M,M,M,M,M,KCFE 010013Z AUTO 00000KT 10SM CLR 12/M03 A3006 RMK AO2 T01181026
CFE,2017-04-01 00:34,-93.8433,45.1590,51.40,26.60,37.93,0.00,0.00,0.00,30.06,M,10.00,M,CLR,M,M,M,M,M,M,M,M,KCFE 010034Z AUTO 00000KT 10SM CLR 11/M03 A3006 RMK AO2 T01081030
CFE,2017-04-01 00:54,-93.8433,45.1590,49.30,29.70,46.57,0.00,0.00,0.00,30.07,M,10.00,M,CLR,M,M,M,M,M,M,M,M,KCFE 010054Z AUTO 00000KT 10SM CLR 10/M01 A3007 RMK AO2 T00961013
CFE,2017-04-01 01:13,-93.8433,45.1590,46.60,28.40,48.87,0.00,0.00,0.00,30.07,M,10.00,M,CLR,M,M,M,M,M,M,M,M,KCFE 010113Z AUTO 00000KT 10SM CLR 08/M02 A3007 RMK AO2 T00811020
CFE,2017-04-01 01:34,-93.8433,45.1590,44.60,30.90,58.38,0.00,0.00,0.00,30.08,M,10.00,M,CLR,M,M,M,M,M,M,M,M,KCFE 010134Z AUTO 00000KT 10SM CLR 07/M01 A3008 RMK AO2 T00701006
CFE,2017-04-01 01:53,-93.8433,45.1590,43.90,29.80,57.34,0.00,0.00,0.00,30.09,M,10.00,M,CLR,M,M,M,M,M,M,M,M,KCFE 010153Z AUTO 00000KT 10SM CLR 07/M01 A3009 RMK AO2 T00661012
CFE,2017-04-01 02:14,-93.8433,45.1590,42.30,30.00,61.46,0.00,0.00,0.00,30.09,M,10.00,M,CLR,M,M,M,M,M,M,M,M,KCFE 010214Z AUTO 00000KT 10SM CLR 06/M01 A3009 RMK AO2 T00571011
CFE,2017-04-01 02:34,-93.8433,45.1590,42.40,29.10,59.02,0.00,0.00,0.00,30.10,M,10.00,M,CLR,M,M,M,M,M,M,M,M,KCFE 010234Z AUTO 00000KT 10SM CLR 06/M02 A3010 RMK AO2 T00581016
CFE,2017-04-01 02:53,-93.8433,45.1590,41.70,29.50,61.63,0.00,0.00,0.00,30.11,M,10.00,M,CLR,M,M,M,M,M,M,M,M,KCFE 010253Z AUTO 00000KT 10SM CLR 05/M01 A3011 RMK AO2 T00541014
CFE,2017-04-01 03:14,-93.8433,45.1590,40.60,30.20,66.17,0.00,0.00,0.00,30.12,M,10.00,M,CLR,M,M,M,M,M,M,M,M,KCFE 010314Z AUTO 00000KT 10SM CLR 05/M01 A3012 RMK AO2 T00481010
CFE,2017-04-01 03:34,-93.8433,45.1590,40.10,29.80,66.38,0.00,0.00,0.00,30.13,M,10.00,M,CLR,M,M,M,M,M,M,M,M,KCFE 010334Z AUTO 00000KT 10SM CLR 05/M01 A3013 RMK AO2 T00451012
CFE,2017-04-01 03:53,-93.8433,45.1590,39.00,29.80,69.29,0.00,0.00,0.00,30.13,M,10.00,M,CLR,M,M,M,M,M,M,M,M,KCFE 010353Z AUTO 00000KT 10SM CLR 04/M01 A3013 RMK AO2 T00391012
CFE,2017-04-01 04:14,-93.8433,45.1590,37.80,29.80,72.62,0.00,0.00,0.00,30.14,M,10.00,M,CLR,M,M,M,M,M,M,M,M,KCFE 010414Z AUTO 00000KT 10SM CLR 03/M01 A3014 RMK AO2 T00321012
CFE,2017-04-01 04:34,-93.8433,45.1590,37.40,29.50,72.88,0.00,0.00,0.00,30.14,M,10.00,M,CLR,M,M,M,M,M,M,M,M,KCFE 010434Z AUTO 00000KT 10SM CLR 03/M01 A3014 RMK AO2 T00301014
CFE,2017-04-01 04:53,-93.8433,45.1590,36.10,29.30,76.09,0.00,0.00,0.00,30.14,M,10.00,M,CLR,M,M,M,M,M,M,M,M,KCFE 010453Z AUTO 00000KT 10SM CLR 02/M01 A3014 RMK AO2 T00231015
CFE,2017-04-01 05:14,-93.8433,45.1590,34.70,28.40,77.53,0.00,0.00,0.00,30.14,M,10.00,M,CLR,M,M,M,M,M,M,M,M,KCFE 010514Z AUTO 00000KT 10SM CLR 02/M02 A3014 RMK AO2 T00151020
CFE,2017-04-01 05:33,-93.8433,45.1590,35.10,29.30,79.17,0.00,0.00,0.00,30.15,M,10.00,M,CLR,M,M,M,M,M,M,M,M,KCFE 010533Z AUTO 00000KT 10SM CLR 02/M01 A3015 RMK AO2 T00171015
CFE,2017-04-01 05:54,-93.8433,45.1590,34.70,28.80,78.81,0.00,0.00,0.00,30.15,M,10.00,M,CLR,M,M,M,M,M,M,M,M,KCFE 010554Z AUTO 00000KT 10SM CLR 02/M02 A3015 RMK AO2 T00151018
CFE,2017-04-01 06:14,-93.8433,45.1590,35.10,28.80,77.56,0.00,0.00,0.00,30.16,M,10.00,M,CLR,M,M,M,M,M,M,M,M,KCFE 010614Z AUTO 00000KT 10SM CLR 02/M02 A3016 RMK AO2 T00171018
CFE,2017-04-01 06:33,-93.8433,45.1590,34.90,29.30,79.80,0.00,0.00,0.00,30.16,M,10.00,M,CLR,M,M,M,M,M,M,M,M,KCFE 010633Z AUTO 00000KT 10SM CLR 02/M01 A3016 RMK AO2 T00161015
CFE,2017-04-01 06:54,-93.8433,45.1590,34.70,28.90,79.13,0.00,0.00,0.00,30.16,M,10.00,M,CLR,M,M,M,M,M,M,M,M,KCFE 010654Z AUTO 00000KT 10SM CLR 02/M02 A3016 RMK AO2 T00151017
CFE,2017-04-01 07:14,-93.8433,45.1590,32.90,28.40,83.31,0.00,0.00,0.00,30.16,M,10.00,M,CLR,M,M,M,M,M,M,M,M,KCFE 010714Z AUTO 00000KT 10SM CLR 01/M02 A3016 RMK AO2 T00051020
CFE,2017-04-01 07:33,-93.8433,45.1590,33.80,28.90,82.03,0.00,0.00,0.00,30.16,M,10.00,M,CLR,M,M,M,M,M,M,M,M,KCFE 010733Z AUTO 00000KT 10SM CLR 01/M02 A3016 RMK AO2 T00101017
CFE,2017-04-01 07:54,-93.8433,45.1590,33.60,28.90,82.68,0.00,0.00,0.00,30.16,M,10.00,M,CLR,M,M,M,M,M,M,M,M,KCFE 010754Z AUTO 00000KT 10SM CLR 01/M02 A3016 RMK AO2 T00091017
CFE,2017-04-01 08:14,-93.8433,45.1590,33.80,28.40,80.36,0.00,0.00,0.00,30.17,M,10.00,M,CLR,M,M,M,M,M,M,M,M,KCFE 010814Z AUTO 00000KT 10SM CLR 01/M02 A3017 RMK AO2 T00101020
CFE,2017-04-01 08:33,-93.8433,45.1590,33.40,28.40,81.66,0.00,0.00,0.00,30.17,M,10.00,M,CLR,M,M,M,M,M,M,M,M,KCFE 010833Z AUTO 00000KT 10SM CLR 01/M02 A3017 RMK AO2 T00081020
CFE,2017-04-01 08:54,-93.8433,45.1590,33.80,28.40,80.36,0.00,0.00,0.00,30.17,M,10.00,M,CLR,M,M,M,M,M,M,M,M,KCFE 010854Z AUTO 00000KT 10SM CLR 01/M02 A3017 RMK AO2 T00101020
CFE,2017-04-01 09:14,-93.8433,45.1590,32.70,28.40,83.99,0.00,0.00,0.00,30.18,M,10.00,M,CLR,M,M,M,M,M,M,M,M,KCFE 010914Z AUTO 00000KT 10SM CLR 00/M02 A3018 RMK AO2 T00041020
CFE,2017-04-01 09:33,-93.8433,45.1590,32.50,28.40,84.66,0.00,0.00,0.00,30.19,M,10.00,M,CLR,M,M,M,M,M,M,M,M,KCFE 010933Z AUTO 00000KT 10SM CLR 00/M02 A3019 RMK AO2 T00031020
CFE,2017-04-01 09:54,-93.8433,45.1590,32.90,28.90,85.04,0.00,0.00,0.00,30.19,M,10.00,M,CLR,M,M,M,M,M,M,M,M,KCFE 010954Z AUTO 00000KT 10SM CLR 01/M02 A3019 RMK AO2 T00051017
CFE,2017-04-01 10:14,-93.8433,45.1590,32.50,28.40,84.66,0.00,0.00,0.00,30.19,M,10.00,M,CLR,M,M,M,M,M,M,M,M,KCFE 011014Z AUTO 00000KT 10SM CLR 00/M02 A3019 RMK AO2 T00031020
CFE,2017-04-01 10:34,-93.8433,45.1590,32.00,28.40,86.39,0.00,0.00,0.00,30.19,M,10.00,M,CLR,M,M,M,M,M,M,M,M,KCFE 011034Z AUTO 00000KT 10SM CLR 00/M02 A3019 RMK AO2 T00001020
CFE,2017-04-01 10:54,-93.8433,45.1590,32.00,28.20,85.68,0.00,0.00,0.00,30.19,M,10.00,M,CLR,M,M,M,M,M,M,M,M,KCFE 011054Z AUTO 00000KT 10SM CLR 00/M02 A3019 RMK AO2 T00001021
CFE,2017-04-01 11:14,-93.8433,45.1590,32.00,28.90,88.17,0.00,0.00,0.00,30.20,M,10.00,M,CLR,M,M,M,M,M,M,M,M,KCFE 011114Z AUTO 00000KT 10SM CLR 00/M02 A3020 RMK AO2 T00001017
CFE,2017-04-01 11:34,-93.8433,45.1590,31.80,28.80,88.52,0.00,0.00,0.00,30.20,M,10.00,M,CLR,M,M,M,M,M,M,M,M,KCFE 011134Z AUTO 00000KT 10SM CLR 00/M02 A3020 RMK AO2 T10011018
CFE,2017-04-01 11:54,-93.8433,45.1590,31.10,28.20,88.85,0.00,0.00,0.00,30.20,M,10.00,M,CLR,M,M,M,M,M,M,M,M,KCFE 011154Z AUTO 00000KT 10SM CLR 00/M02 A3020 RMK AO2 T10051021
CFE,2017-04-01 12:14,-93.8433,45.1590,30.40,27.70,89.55,0.00,0.00,0.00,30.21,M,10.00,M,CLR,M,M,M,M,M,M,M,M,KCFE 011214Z AUTO 00000KT 10SM CLR M01/M02 A3021 RMK AO2 T10091024
CFE,2017-04-01 12:34,-93.8433,45.1590,32.00,29.70,91.10,0.00,0.00,0.00,30.21,M,10.00,M,CLR,M,M,M,M,M,M,M,M,KCFE 011234Z AUTO 00000KT 10SM CLR 00/M01 A3021 RMK AO2 T00001013
CFE,2017-04-01 12:54,-93.8433,45.1590,34.00,30.90,88.27,0.00,0.00,0.00,30.21,M,10.00,M,CLR,M,M,M,M,M,M,M,M,KCFE 011254Z AUTO 00000KT 10SM CLR 01/M01 A3021 RMK AO2 T00111006
CFE,2017-04-01 13:14,-93.8433,45.1590,36.50,32.00,83.56,0.00,0.00,0.00,30.22,M,10.00,M,CLR,M,M,M,M,M,M,M,M,KCFE 011314Z AUTO 00000KT 10SM CLR 03/00 A3022 RMK AO2 T00250000
CFE,2017-04-01 13:34,-93.8433,45.1590,38.80,33.30,80.44,0.00,0.00,0.00,30.22,M,10.00,M,CLR,M,M,M,M,M,M,M,M,KCFE 011334Z AUTO 00000KT 10SM CLR 04/01 A3022 RMK AO2 T00380007
CFE,2017-04-01 13:54,-93.8433,45.1590,43.50,32.00,63.65,0.00,0.00,0.00,30.23,M,10.00,M,CLR,M,M,M,M,M,M,M,M,KCFE 011354Z AUTO 00000KT 10SM CLR 06/00 A3023 RMK AO2 T00640000
CFE,2017-04-01 14:14,-93.8433,45.1590,46.90,28.90,49.32,180.00,4.00,0.00,30.22,M,10.00,M,CLR,M,M,M,M,M,M,M,M,KCFE 011414Z AUTO 18004KT 10SM CLR 08/M02 A3022 RMK AO2 T00831017
CFE,2017-04-01 14:33,-93.8433,45.1590,48.70,28.60,45.53,200.00,4.00,0.00,30.22,M,10.00,M,CLR,M,M,M,M,M,M,M,M,KCFE 011433Z AUTO 20004KT 10SM CLR 09/M02 A3022 RMK AO2 T00931019
CFE,2017-04-01 14:54,-93.8433,45.1590,51.40,29.80,43.25,200.00,5.00,0.00,30.24,M,10.00,M,CLR,M,M,M,M,M,M,M,M,KCFE 011454Z AUTO 20005KT 10SM CLR 11/M01 A3024 RMK AO2 T01081012
CFE,2017-04-01 15:14,-93.8433,45.1590,52.50,30.20,42.22,230.00,4.00,0.00,30.23,M,10.00,M,SCT,M,M,M,11000.00,M,M,M,M,KCFE 011514Z AUTO 23004KT 10SM SCT110 11/M01 A3023 RMK AO2 T01141010
CFE,2017-04-01 15:33,-93.8433,45.1590,54.90,29.30,37.27,270.00,3.00,0.00,30.22,M,10.00,M,CLR,M,M,M,M,M,M,M,M,KCFE 011533Z AUTO 27003KT 10SM CLR 13/M01 A3022 RMK AO2 T01271015
CFE,2017-04-01 15:54,-93.8433,45.1590,55.80,27.90,34.06,250.00,5.00,0.00,30.22,M,10.00,M,CLR,M,M,M,M,M,M,M,M,KCFE 011554Z AUTO 25005KT 10SM CLR 13/M02 A3022 RMK AO2 T01321023
CFE,2017-04-01 16:14,-93.8433,45.1590,56.70,27.90,32.97,280.00,4.00,0.00,30.21,M,10.00,M,CLR,M,M,M,M,M,M,M,M,KCFE 011614Z AUTO 28004KT 10SM CLR 14/M02 A3021 RMK AO2 T01371023
CFE,2017-04-01 16:33,-93.8433,45.1590,57.60,27.70,31.66,260.00,5.00,0.00,30.21,M,10.00,M,CLR,M,M,M,M,M,M,M,M,KCFE 011633Z AUTO 26005KT 10SM CLR 14/M02 A3021 RMK AO2 T01421024
CFE,2017-04-01 16:54,-93.8433,45.1590,59.00,28.60,31.24,260.00,5.00,0.00,30.21,M,10.00,M,CLR,M,M,M,M,M,M,M,M,KCFE 011654Z AUTO 26005KT 10SM CLR 15/M02 A3021 RMK AO2 T01501019
CFE,2017-04-01 17:14,-93.8433,45.1590,59.70,28.60,30.47,270.00,6.00,0.00,30.21,M,10.00,M,SCT,M,M,M,11000.00,M,M,M,M,KCFE 011714Z AUTO 27006KT 10SM SCT110 15/M02 A3021 RMK AO2 T01541019
CFE,2017-04-01 17:33,-93.8433,45.1590,60.60,28.80,29.75,250.00,5.00,0.00,30.21,M,10.00,M,SCT,M,M,M,10000.00,M,M,M,M,KCFE 011733Z AUTO 25005KT 10SM SCT100 16/M02 A3021 RMK AO2 T01591018
CFE,2017-04-01 17:54,-93.8433,45.1590,60.30,29.50,30.94,250.00,3.00,0.00,30.20,M,10.00,M,SCT,M,M,M,10000.00,M,M,M,M,KCFE 011754Z AUTO 25003KT 10SM SCT100 16/M01 A3020 RMK AO2 T01571014
CFE,2017-04-01 18:14,-93.8433,45.1590,60.40,29.70,31.08,230.00,5.00,0.00,30.19,M,10.00,M,CLR,M,M,M,M,M,M,M,M,KCFE 011814Z AUTO 23005KT 10SM CLR 16/M01 A3019 RMK AO2 T01581013
CFE,2017-04-01 18:33,-93.8433,45.1590,60.40,29.50,30.83,210.00,5.00,0.00,30.19,M,10.00,M,CLR,M,M,M,M,M,M,M,M,KCFE 011833Z AUTO 21005KT 10SM CLR 16/M01 A3019 RMK AO2 T01581014
CFE,2017-04-01 18:54,-93.8433,45.1590,61.50,30.00,30.26,240.00,7.00,0.00,30.18,M,10.00,M,CLR,M,M,M,M,M,M,M,M,KCFE 011854Z AUTO 24007KT 10SM CLR 16/M01 A3018 RMK AO2 T01641011
CFE,2017-04-01 19:14,-93.8433,45.1590,62.60,30.60,29.83,200.00,4.00,0.00,30.18,M,10.00,M,SCT,M,M,M,7000.00,M,M,M,M,KCFE 011914Z AUTO 20004KT 10SM SCT070 17/M01 A3018 RMK AO2 T01701008
CFE,2017-04-01 19:33,-93.8433,45.1590,61.20,30.60,31.34,0.00,0.00,0.00,30.17,M,10.00,M,OVC,M,M,M,7000.00,M,M,M,M,KCFE 011933Z AUTO 00000KT 10SM OVC070 16/M01 A3017 RMK AO2 T01621008
CFE,2017-04-01 19:54,-93.8433,45.1590,62.60,31.10,30.44,270.00,5.00,0.00,30.16,M,10.00,M,OVC,M,M,M,7000.00,M,M,M,M,KCFE 011954Z AUTO 27005KT 10SM OVC070 17/00 A3016 RMK AO2 T01701005
CFE,2017-04-01 20:14,-93.8433,45.1590,62.20,30.90,30.62,210.00,4.00,0.00,30.16,M,10.00,M,BKN,M,M,M,7000.00,M,M,M,M,KCFE 012014Z AUTO 21004KT 10SM BKN070 17/M01 A3016 RMK AO2 T01681006
CFE,2017-04-01 20:33,-93.8433,45.1590,63.30,31.80,30.55,330.00,5.00,0.00,30.15,M,10.00,M,SCT,M,M,M,7000.00,M,M,M,M,KCFE 012033Z AUTO 33005KT 10SM SCT070 17/00 A3015 RMK AO2 T01741001
CFE,2017-04-01 20:54,-93.8433,45.1590,60.60,31.80,33.61,270.00,5.00,0.00,30.15,M,10.00,M,BKN,M,M,M,7000.00,M,M,M,M,KCFE 012054Z AUTO 27005KT 10SM BKN070 16/00 A3015 RMK AO2 T01591001
CFE,2017-04-01 21:14,-93.8433,45.1590,62.60,32.00,31.56,290.00,6.00,0.00,30.14,M,10.00,M,BKN,M,M,M,7000.00,M,M,M,M,KCFE 012114Z AUTO 29006KT 10SM BKN070 17/00 A3014 RMK AO2 T01700000
CFE,2017-04-01 21:33,-93.8433,45.1590,62.20,32.50,32.66,330.00,4.00,0.00,30.14,M,10.00,M,SCT,M,M,M,7000.00,M,M,M,M,KCFE 012133Z AUTO 33004KT 10SM SCT070 17/00 A3014 RMK AO2 T01680003
CFE,2017-04-01 21:54,-93.8433,45.1590,62.10,33.30,33.85,280.00,6.00,0.00,30.14,M,10.00,M,SCT,M,M,M,7000.00,M,M,M,M,KCFE 012154Z AUTO 28006KT 10SM SCT070 17/01 A3014 RMK AO2 T01670007
CFE,2017-04-01 22:14,-93.8433,45.1590,62.10,33.30,33.85,290.00,5.00,0.00,30.13,M,10.00,M,CLR,M,M,M,M,M,M,M,M,KCFE 012214Z AUTO 29005KT 10SM CLR 17/01 A3013 RMK AO2 T01670007
CFE,2017-04-01 22:33,-93.8433,45.1590,61.90,33.80,34.78,290.00,5.00,0.00,30.13,M,10.00,M,CLR,M,M,M,M,M,M,M,M,KCFE 012233Z AUTO 29005KT 10SM CLR 17/01 A3013 RMK AO2 T01660010
CFE,2017-04-01 22:54,-93.8433,45.1590,61.00,33.10,34.91,300.00,3.00,0.00,30.13,M,10.00,M,CLR,M,M,M,M,M,M,M,M,KCFE 012254Z AUTO 30003KT 10SM CLR 16/01 A3013 RMK AO2 T01610006
CFE,2017-04-01 23:14,-93.8433,45.1590,61.20,34.20,36.23,290.00,6.00,0.00,30.13,M,10.00,M,CLR,M,M,M,M,M,M,M,M,KCFE 012314Z AUTO 29006KT 10SM CLR 16/01 A3013 RMK AO2 T01620012
CFE,2017-04-01 23:33,-93.8433,45.1590,60.30,33.40,36.22,280.00,5.00,0.00,30.14,M,10.00,M,CLR,M,M,M,M,M,M,M,M,KCFE 012333Z AUTO 28005KT 10SM CLR 16/01 A3014 RMK AO2 T01570008
CFE,2017-04-01 23:54,-93.8433,45.1590,60.30,34.00,37.10,250.00,3.00,0.00,30.13,M,10.00,M,CLR,M,M,M,M,M,M,M,M,KCFE 012354Z AUTO 25003KT 10SM CLR 16/01 A3013 RMK AO2 T01570011
