#DEBUG: Format Typ    -> comma
#DEBUG: Time Period   -> 2017-04-01 00:00:00+00:00 2017-04-02 00:00:00+00:00
#DEBUG: Time Zone     -> Etc/UTC
#DEBUG: Data Contact   -> daryl herzmann akrherz@iastate.edu 515-294-5978
#DEBUG: Entries Found -> -1
station,valid,lon,lat,tmpf, dwpf, relh, drct, sknt, p01i, alti, mslp, vsby, gust, skyc1, skyc2, skyc3, skyc4, skyl1, skyl2, skyl3, skyl4, presentwx, metar
CFV,2017-04-01 00:00,-95.5719,37.0941,M,M,M,50.00,6.00,M,29.93,M,10.00,M,SCT,M,M,M,2800.00,M,M,M,M,KCFV 010000Z AUTO 05006KT 10SM SCT028 A2993 RMK MADISHF
CFV,2017-04-01 00:05,-95.5719,37.0941,M,M,M,50.00,7.00,M,29.93,M,10.00,M,BKN,M,M,M,2800.00,M,M,M,M,KCFV 010005Z AUTO 05007KT 10SM BKN028 A2993 RMK MADISHF
CFV,2017-04-01 00:07,-95.5719,37.0941,55.90,46.00,69.30,40.00,8.00,0.00,29.93,M,10.00,M,BKN,M,M,M,2800.00,M,M,M,M,KCFV 010007Z AUTO 04008KT 10SM BKN028 13/08 A2993 RMK AO2 T01330078
CFV,2017-04-01 00:10,-95.5719,37.0941,M,M,M,40.00,11.00,M,29.93,M,10.00,M,BKN,M,M,M,2800.00,M,M,M,M,KCFV 010010Z AUTO 04011KT 10SM BKN028 A2993 RMK MADISHF
CFV,2017-04-01 00:15,-95.5719,37.0941,M,M,M,40.00,9.00,M,29.93,M,10.00,M,BKN,M,M,M,3000.00,M,M,M,M,KCFV 010015Z AUTO 04009KT 10SM BKN030 A2993 RMK MADISHF
CFV,2017-04-01 00:17,-95.5719,37.0941,55.90,45.00,66.72,40.00,10.00,0.00,29.93,M,10.00,M,BKN,M,M,M,3000.00,M,M,M,M,KCFV 010017Z AUTO 04010KT 10SM BKN030 13/07 A2993 RMK AO2 T01330072
CFV,2017-04-01 00:20,-95.5719,37.0941,M,M,M,40.00,9.00,M,29.93,M,10.00,M,BKN,M,M,M,3000.00,M,M,M,M,KCFV 010020Z AUTO 04009KT 10SM BKN030 A2993 RMK MADISHF
CFV,2017-04-01 00:30,-95.5719,37.0941,M,M,M,40.00,10.00,M,29.93,M,10.00,M,OVC,M,M,M,3000.00,M,M,M,M,KCFV 010030Z AUTO 04010KT 10SM OVC030 A2993 RMK MADISHF
CFV,2017-04-01 00:35,-95.5719,37.0941,M,M,M,40.00,8.00,M,29.93,M,10.00,M,OVC,M,M,M,3000.00,M,M,M,M,KCFV 010035Z AUTO 04008KT 10SM OVC030 A2993 RMK MADISHF
CFV,2017-04-01 00:40,-95.5719,37.0941,M,M,M,40.00,8.00,M,29.93,M,10.00,M,OVC,M,M,M,3000.00,M,M,M,M,KCFV 010040Z AUTO 04008KT 10SM OVC030 A2993 RMK MADISHF
CFV,2017-04-01 00:45,-95.5719,37.0941,M,M,M,40.00,9.00,M,29.94,M,10.00,M,OVC,M,M,M,3000.00,M,M,M,M,KCFV 010045Z AUTO 04009KT 10SM OVC030 A2994 RMK MADISHF
CFV,2017-04-01 00:50,-95.5719,37.0941,M,M,M,60.00,9.00,M,29.94,M,10.00,M,OVC,M,M,M,3000.00,M,M,M,M,KCFV 010050Z AUTO 06009KT 10SM OVC030 A2994 RMK MADISHF
CFV,2017-04-01 00:52,-95.5719,37.0941,54.00,46.00,74.26,50.00,8.00,0.00,29.94,1013.80,10.00,M,OVC,M,M,M,3000.00,M,M,M,M,KCFV 010052Z AUTO 05008KT 10SM OVC030 12/08 A2994 RMK AO2 SLP138 T01220078
CFV,2017-04-01 00:55,-95.5719,37.0941,M,M,M,50.00,8.00,M,29.94,M,10.00,M,OVC,M,M,M,2900.00,M,M,M,M,KCFV 010055Z AUTO 05008KT 10SM OVC029 A2994 RMK MADISHF
CFV,2017-04-01 00:59,-95.5719,37.0941,54.00,45.00,71.50,50.00,9.00,0.00,29.94,M,10.00,M,OVC,M,M,M,2900.00,M,M,M,M,KCFV 010059Z AUTO 05009KT 10SM OVC029 12/07 A2994 RMK AO2 T01220072
CFV,2017-04-01 01:00,-95.5719,37.0941,M,M,M,50.00,9.00,M,29.94,M,10.00,M,OVC,M,M,M,2900.00,M,M,M,M,KCFV 010100Z AUTO 05009KT 10SM OVC029 A2994 RMK MADISHF
CFV,2017-04-01 01:05,-95.5719,37.0941,M,M,M,50.00,9.00,M,29.95,M,10.00,M,OVC,M,M,M,2900.00,M,M,M,M,KCFV 010105Z AUTO 05009KT 10SM OVC029 A2995 RMK MADISHF
CFV,2017-04-01 01:20,-95.5719,37.0941,M,M,M,50.00,10.00,M,29.96,M,10.00,M,OVC,M,M,M,2900.00,M,M,M,M,KCFV 010120Z AUTO 05010KT 10SM OVC029 A2996 RMK MADISHF
CFV,2017-04-01 01:25,-95.5719,37.0941,M,M,M,50.00,10.00,M,29.96,M,10.00,M,OVC,M,M,M,2900.00,M,M,M,M,KCFV 010125Z AUTO 05010KT 10SM OVC029 A2996 RMK MADISHF
CFV,2017-04-01 01:30,-95.5719,37.0941,M,M,M,50.00,9.00,M,29.96,M,10.00,M,OVC,M,M,M,2900.00,M,M,M,M,KCFV 010130Z AUTO 05009KT 10SM OVC029 A2996 RMK MADISHF
CFV,2017-04-01 01:35,-95.5719,37.0941,M,M,M,50.00,11.00,M,29.96,M,10.00,M,OVC,M,M,M,2900.00,M,M,M,M,KCFV 010135Z AUTO 05011KT 10SM OVC029 A2996 RMK MADISHF
CFV,2017-04-01 01:40,-95.5719,37.0941,M,M,M,50.00,8.00,M,29.97,M,10.00,M,OVC,M,M,M,2800.00,M,M,M,M,KCFV 010140Z AUTO 05008KT 10SM OVC028 A2997 RMK MADISHF
CFV,2017-04-01 01:45,-95.5719,37.0941,M,M,M,50.00,11.00,M,29.96,M,10.00,M,OVC,M,M,M,2800.00,M,M,M,M,KCFV 010145Z AUTO 05011KT 10SM OVC028 A2996 RMK MADISHF
CFV,2017-04-01 01:50,-95.5719,37.0941,M,M,M,50.00,10.00,M,29.97,M,10.00,M,OVC,M,M,M,2800.00,M,M,M,M,KCFV 010150Z AUTO 05010KT 10SM OVC028 A2997 RMK MADISHF
CFV,2017-04-01 01:52,-95.5719,37.0941,53.10,46.00,76.75,50.00,9.00,0.00,29.97,1014.90,10.00,M,OVC,M,M,M,2800.00,M,M,M,M,KCFV 010152Z AUTO 05009KT 10SM OVC028 12/08 A2997 RMK AO2 SLP149 T01170078
CFV,2017-04-01 02:05,-95.5719,37.0941,M,M,M,40.00,14.00,M,29.98,M,10.00,M,BKN,M,M,M,2800.00,M,M,M,M,KCFV 010205Z AUTO 04014KT 10SM BKN028 A2998 RMK MADISHF
CFV,2017-04-01 02:10,-95.5719,37.0941,M,M,M,50.00,13.00,M,29.98,M,10.00,M,BKN,M,M,M,2800.00,M,M,M,M,KCFV 010210Z AUTO 05013KT 10SM BKN028 A2998 RMK MADISHF
CFV,2017-04-01 02:15,-95.5719,37.0941,M,M,M,50.00,10.00,M,29.98,M,10.00,M,BKN,M,M,M,2800.00,M,M,M,M,KCFV 010215Z AUTO 05010KT 10SM BKN028 A2998 RMK MADISHF
CFV,2017-04-01 02:20,-95.5719,37.0941,M,M,M,50.00,10.00,M,29.98,M,10.00,M,SCT,M,M,M,2800.00,M,M,M,M,KCFV 010220Z AUTO 05010KT 10SM SCT028 A2998 RMK MADISHF
CFV,2017-04-01 02:23,-95.5719,37.0941,51.10,45.00,79.54,50.00,11.00,0.00,29.99,M,10.00,M,FEW,M,M,M,2800.00,M,M,M,M,KCFV 010223Z AUTO 05011KT 10SM FEW028 11/07 A2999 RMK AO2 T01060072
CFV,2017-04-01 02:25,-95.5719,37.0941,M,M,M,50.00,11.00,M,29.99,M,10.00,M,FEW,M,M,M,2900.00,M,M,M,M,KCFV 010225Z AUTO 05011KT 10SM FEW029 A2999 RMK MADISHF
CFV,2017-04-01 02:30,-95.5719,37.0941,M,M,M,60.00,11.00,M,29.99,M,10.00,M,FEW,M,M,M,2900.00,M,M,M,M,KCFV 010230Z AUTO 06011KT 10SM FEW029 A2999 RMK MADISHF
CFV,2017-04-01 02:52,-95.5719,37.0941,48.00,44.10,86.28,40.00,8.00,0.00,29.99,1015.70,10.00,M,CLR,M,M,M,M,M,M,M,M,KCFV 010252Z AUTO 04008KT 10SM CLR 09/07 A2999 RMK AO2 SLP157 T00890067 53021
CFV,2017-04-01 02:55,-95.5719,37.0941,M,M,M,40.00,8.00,M,29.99,M,10.00,M,CLR,M,M,M,M,M,M,M,M,KCFV 010255Z AUTO 04008KT 10SM CLR A2999 RMK MADISHF
CFV,2017-04-01 03:00,-95.5719,37.0941,M,M,M,40.00,11.00,M,29.99,M,10.00,M,CLR,M,M,M,M,M,M,M,M,KCFV 010300Z AUTO 04011KT 10SM CLR A2999 RMK MADISHF
CFV,2017-04-01 03:05,-95.5719,37.0941,M,M,M,50.00,11.00,M,29.99,M,10.00,M,CLR,M,M,M,M,M,M,M,M,KCFV 010305Z AUTO 05011KT 10SM CLR A2999 RMK MADISHF
CFV,2017-04-01 03:10,-95.5719,37.0941,M,M,M,50.00,11.00,M,29.99,M,10.00,M,CLR,M,M,M,M,M,M,M,M,KCFV 010310Z AUTO 05011KT 10SM CLR A2999 RMK MADISHF
CFV,2017-04-01 03:15,-95.5719,37.0941,M,M,M,40.00,9.00,M,30.00,M,10.00,M,CLR,M,M,M,M,M,M,M,M,KCFV 010315Z AUTO 04009KT 10SM CLR A3000 RMK MADISHF
CFV,2017-04-01 03:20,-95.5719,37.0941,M,M,M,40.00,9.00,M,30.00,M,10.00,M,CLR,M,M,M,M,M,M,M,M,KCFV 010320Z AUTO 04009KT 10SM CLR A3000 RMK MADISHF
CFV,2017-04-01 03:25,-95.5719,37.0941,M,M,M,40.00,11.00,M,30.00,M,10.00,M,CLR,M,M,M,M,M,M,M,M,KCFV 010325Z AUTO 04011KT 10SM CLR A3000 RMK MADISHF
CFV,2017-04-01 03:35,-95.5719,37.0941,M,M,M,40.00,10.00,M,30.00,M,10.00,M,CLR,M,M,M,M,M,M,M,M,KCFV 010335Z AUTO 04010KT 10SM CLR A3000 RMK MADISHF
CFV,2017-04-01 03:40,-95.5719,37.0941,M,M,M,40.00,11.00,M,30.01,M,10.00,M,CLR,M,M,M,M,M,M,M,M,KCFV 010340Z AUTO 04011KT 10SM CLR A3001 RMK MADISHF
CFV,2017-04-01 03:45,-95.5719,37.0941,M,M,M,30.00,10.00,M,30.01,M,10.00,M,CLR,M,M,M,M,M,M,M,M,KCFV 010345Z AUTO 03010KT 10SM CLR A3001 RMK MADISHF
CFV,2017-04-01 03:50,-95.5719,37.0941,M,M,M,30.00,11.00,M,30.01,M,10.00,M,CLR,M,M,M,M,M,M,M,M,KCFV 010350Z AUTO 03011KT 10SM CLR A3001 RMK MADISHF
CFV,2017-04-01 03:52,-95.5719,37.0941,48.00,43.00,82.72,30.00,10.00,0.00,30.01,1016.30,10.00,M,CLR,M,M,M,M,M,M,M,M,KCFV 010352Z AUTO 03010KT 10SM CLR 09/06 A3001 RMK AO2 SLP163 T00890061
CFV,2017-04-01 03:55,-95.5719,37.0941,M,M,M,40.00,10.00,M,30.01,M,10.00,M,CLR,M,M,M,M,M,M,M,M,KCFV 010355Z AUTO 04010KT 10SM CLR A3001 RMK MADISHF
CFV,2017-04-01 04:00,-95.5719,37.0941,M,M,M,40.00,10.00,M,30.01,M,10.00,M,CLR,M,M,M,M,M,M,M,M,KCFV 010400Z AUTO 04010KT 10SM CLR A3001 RMK MADISHF
CFV,2017-04-01 04:05,-95.5719,37.0941,M,M,M,40.00,10.00,M,30.01,M,10.00,M,CLR,M,M,M,M,M,M,M,M,KCFV 010405Z AUTO 04010KT 10SM CLR A3001 RMK MADISHF
CFV,2017-04-01 04:15,-95.5719,37.0941,M,M,M,30.00,10.00,M,30.01,M,10.00,M,CLR,M,M,M,M,M,M,M,M,KCFV 010415Z AUTO 03010KT 10SM CLR A3001 RMK MADISHF
CFV,2017-04-01 04:20,-95.5719,37.0941,M,M,M,30.00,8.00,M,30.02,M,10.00,M,CLR,M,M,M,M,M,M,M,M,KCFV 010420Z AUTO 03008KT 10SM CLR A3002 RMK MADISHF
CFV,2017-04-01 04:25,-95.5719,37.0941,M,M,M,30.00,8.00,M,30.02,M,10.00,M,CLR,M,M,M,M,M,M,M,M,KCFV 010425Z AUTO 03008KT 10SM CLR A3002 RMK MADISHF
CFV,2017-04-01 04:30,-95.5719,37.0941,M,M,M,30.00,8.00,M,30.02,M,10.00,M,CLR,M,M,M,M,M,M,M,M,KCFV 010430Z AUTO 03008KT 10SM CLR A3002 RMK MADISHF
CFV,2017-04-01 04:35,-95.5719,37.0941,M,M,M,30.00,7.00,M,30.03,M,10.00,M,CLR,M,M,M,M,M,M,M,M,KCFV 010435Z AUTO 03007KT 10SM CLR A3003 RMK MADISHF
CFV,2017-04-01 04:40,-95.5719,37.0941,M,M,M,30.00,7.00,M,30.03,M,10.00,M,CLR,M,M,M,M,M,M,M,M,KCFV 010440Z AUTO 03007KT 10SM CLR A3003 RMK MADISHF
CFV,2017-04-01 04:52,-95.5719,37.0941,46.90,43.00,86.21,30.00,7.00,0.00,30.04,1017.40,10.00,M,CLR,M,M,M,M,M,M,M,M,KCFV 010452Z AUTO 03007KT 10SM CLR 08/06 A3004 RMK AO2 SLP174 T00830061
CFV,2017-04-01 04:55,-95.5719,37.0941,M,M,M,30.00,7.00,M,30.04,M,10.00,M,CLR,M,M,M,M,M,M,M,M,KCFV 010455Z AUTO 03007KT 10SM CLR A3004 RMK MADISHF
CFV,2017-04-01 05:00,-95.5719,37.0941,M,M,M,40.00,8.00,M,30.04,M,10.00,M,CLR,M,M,M,M,M,M,M,M,KCFV 010500Z AUTO 04008KT 10SM CLR A3004 RMK MADISHF
CFV,2017-04-01 05:05,-95.5719,37.0941,M,M,M,30.00,7.00,M,30.04,M,10.00,M,CLR,M,M,M,M,M,M,M,M,KCFV 010505Z AUTO 03007KT 10SM CLR A3004 RMK MADISHF
CFV,2017-04-01 05:10,-95.5719,37.0941,M,M,M,30.00,8.00,M,30.04,M,10.00,M,CLR,M,M,M,M,M,M,M,M,KCFV 010510Z AUTO 03008KT 10SM CLR A3004 RMK MADISHF
CFV,2017-04-01 05:15,-95.5719,37.0941,M,M,M,30.00,8.00,M,30.04,M,10.00,M,CLR,M,M,M,M,M,M,M,M,KCFV 010515Z AUTO 03008KT 10SM CLR A3004 RMK MADISHF
CFV,2017-04-01 05:20,-95.5719,37.0941,M,M,M,30.00,8.00,M,30.04,M,10.00,M,CLR,M,M,M,M,M,M,M,M,KCFV 010520Z AUTO 03008KT 10SM CLR A3004 RMK MADISHF
CFV,2017-04-01 05:25,-95.5719,37.0941,M,M,M,30.00,8.00,M,30.04,M,10.00,M,CLR,M,M,M,M,M,M,M,M,KCFV 010525Z AUTO 03008KT 10SM CLR A3004 RMK MADISHF
CFV,2017-04-01 05:30,-95.5719,37.0941,M,M,M,30.00,8.00,M,30.04,M,10.00,M,CLR,M,M,M,M,M,M,M,M,KCFV 010530Z AUTO 03008KT 10SM CLR A3004 RMK MADISHF
CFV,2017-04-01 05:35,-95.5719,37.0941,M,M,M,30.00,7.00,M,30.04,M,10.00,M,CLR,M,M,M,M,M,M,M,M,KCFV 010535Z AUTO 03007KT 10SM CLR A3004 RMK MADISHF
CFV,2017-04-01 05:40,-95.5719,37.0941,M,M,M,30.00,8.00,M,30.04,M,10.00,M,CLR,M,M,M,M,M,M,M,M,KCFV 010540Z AUTO 03008KT 10SM CLR A3004 RMK MADISHF
CFV,2017-04-01 05:50,-95.5719,37.0941,M,M,M,30.00,7.00,M,30.04,M,10.00,M,CLR,M,M,M,M,M,M,M,M,KCFV 010550Z AUTO 03007KT 10SM CLR A3004 RMK MADISHF
CFV,2017-04-01 05:52,-95.5719,37.0941,46.00,42.10,86.16,30.00,8.00,0.00,30.04,1017.40,10.00,M,CLR,M,M,M,M,M,M,M,M,KCFV 010552Z AUTO 03008KT 10SM CLR 08/06 A3004 RMK AO2 SLP174 T00780056 10133 20078 401390072 50017
CFV,2017-04-01 05:55,-95.5719,37.0941,M,M,M,30.00,8.00,M,30.04,M,10.00,M,CLR,M,M,M,M,M,M,M,M,KCFV 010555Z AUTO 03008KT 10SM CLR A3004 RMK MADISHF
CFV,2017-04-01 06:00,-95.5719,37.0941,M,M,M,40.00,7.00,M,30.04,M,10.00,M,CLR,M,M,M,M,M,M,M,M,KCFV 010600Z AUTO 04007KT 10SM CLR A3004 RMK MADISHF
CFV,2017-04-01 06:05,-95.5719,37.0941,M,M,M,30.00,8.00,M,30.04,M,10.00,M,CLR,M,M,M,M,M,M,M,M,KCFV 010605Z AUTO 03008KT 10SM CLR A3004 RMK MADISHF
CFV,2017-04-01 06:10,-95.5719,37.0941,M,M,M,40.00,8.00,M,30.04,M,10.00,M,CLR,M,M,M,M,M,M,M,M,KCFV 010610Z AUTO 04008KT 10SM CLR A3004 RMK MADISHF
CFV,2017-04-01 06:20,-95.5719,37.0941,M,M,M,40.00,9.00,M,30.04,M,10.00,M,CLR,M,M,M,M,M,M,M,M,KCFV 010620Z AUTO 04009KT 10SM CLR A3004 RMK MADISHF
CFV,2017-04-01 06:25,-95.5719,37.0941,M,M,M,40.00,8.00,M,30.04,M,10.00,M,CLR,M,M,M,M,M,M,M,M,KCFV 010625Z AUTO 04008KT 10SM CLR A3004 RMK MADISHF
CFV,2017-04-01 06:30,-95.5719,37.0941,M,M,M,40.00,8.00,M,30.04,M,10.00,M,CLR,M,M,M,M,M,M,M,M,KCFV 010630Z AUTO 04008KT 10SM CLR A3004 RMK MADISHF
CFV,2017-04-01 06:35,-95.5719,37.0941,M,M,M,40.00,8.00,M,30.04,M,10.00,M,CLR,M,M,M,M,M,M,M,M,KCFV 010635Z AUTO 04008KT 10SM CLR A3004 RMK MADISHF
CFV,2017-04-01 06:40,-95.5719,37.0941,M,M,M,40.00,8.00,M,30.04,M,10.00,M,CLR,M,M,M,M,M,M,M,M,KCFV 010640Z AUTO 04008KT 10SM CLR A3004 RMK MADISHF
CFV,2017-04-01 06:45,-95.5719,37.0941,M,M,M,50.00,8.00,M,30.04,M,10.00,M,CLR,M,M,M,M,M,M,M,M,KCFV 010645Z AUTO 05008KT 10SM CLR A3004 RMK MADISHF
CFV,2017-04-01 06:52,-95.5719,37.0941,46.00,42.10,86.16,60.00,7.00,0.00,30.03,1017.20,10.00,M,CLR,M,M,M,M,M,M,M,M,KCFV 010652Z AUTO 06007KT 10SM CLR 08/06 A3003 RMK AO2 SLP172 T00780056
CFV,2017-04-01 06:55,-95.5719,37.0941,M,M,M,60.00,8.00,M,30.03,M,10.00,M,CLR,M,M,M,M,M,M,M,M,KCFV 010655Z AUTO 06008KT 10SM CLR A3003 RMK MADISHF
CFV,2017-04-01 07:00,-95.5719,37.0941,M,M,M,50.00,8.00,M,30.03,M,10.00,M,FEW,M,M,M,1600.00,M,M,M,M,KCFV 010700Z AUTO 05008KT 10SM FEW016 A3003 RMK MADISHF
CFV,2017-04-01 07:05,-95.5719,37.0941,M,M,M,50.00,8.00,M,30.03,M,10.00,M,FEW,M,M,M,1600.00,M,M,M,M,KCFV 010705Z AUTO 05008KT 10SM FEW016 A3003 RMK MADISHF
CFV,2017-04-01 07:10,-95.5719,37.0941,M,M,M,60.00,7.00,M,30.03,M,10.00,M,FEW,M,M,M,1600.00,M,M,M,M,KCFV 010710Z AUTO 06007KT 10SM FEW016 A3003 RMK MADISHF
CFV,2017-04-01 07:15,-95.5719,37.0941,M,M,M,60.00,8.00,M,30.03,M,10.00,M,FEW,M,M,M,1600.00,M,M,M,M,KCFV 010715Z AUTO 06008KT 10SM FEW016 A3003 RMK MADISHF
CFV,2017-04-01 07:20,-95.5719,37.0941,M,M,M,60.00,8.00,M,30.03,M,10.00,M,FEW,M,M,M,1600.00,M,M,M,M,KCFV 010720Z AUTO 06008KT 10SM FEW016 A3003 RMK MADISHF
CFV,2017-04-01 07:25,-95.5719,37.0941,M,M,M,60.00,8.00,M,30.03,M,10.00,M,FEW,M,M,M,1600.00,M,M,M,M,KCFV 010725Z AUTO 06008KT 10SM FEW016 A3003 RMK MADISHF
CFV,2017-04-01 07:30,-95.5719,37.0941,M,M,M,60.00,8.00,M,30.03,M,10.00,M,CLR,M,M,M,M,M,M,M,M,KCFV 010730Z AUTO 06008KT 10SM CLR A3003 RMK MADISHF
CFV,2017-04-01 07:45,-95.5719,37.0941,M,M,M,60.00,8.00,M,30.02,M,10.00,M,CLR,M,M,M,M,M,M,M,M,KCFV 010745Z AUTO 06008KT 10SM CLR A3002 RMK MADISHF
CFV,2017-04-01 07:50,-95.5719,37.0941,M,M,M,60.00,10.00,M,30.03,M,10.00,M,CLR,M,M,M,M,M,M,M,M,KCFV 010750Z AUTO 06010KT 10SM CLR A3003 RMK MADISHF
CFV,2017-04-01 07:52,-95.5719,37.0941,46.90,43.00,86.21,60.00,10.00,0.00,30.03,1016.80,10.00,M,CLR,M,M,M,M,M,M,M,M,KCFV 010752Z AUTO 06010KT 10SM CLR 08/06 A3003 RMK AO2 SLP168 T00830061
CFV,2017-04-01 07:55,-95.5719,37.0941,M,M,M,60.00,10.00,M,30.03,M,10.00,M,CLR,M,M,M,M,M,M,M,M,KCFV 010755Z AUTO 06010KT 10SM CLR A3003 RMK MADISHF
CFV,2017-04-01 08:00,-95.5719,37.0941,M,M,M,50.00,10.00,M,30.03,M,10.00,M,CLR,M,M,M,M,M,M,M,M,KCFV 010800Z AUTO 05010KT 10SM CLR A3003 RMK MADISHF
CFV,2017-04-01 08:10,-95.5719,37.0941,M,M,M,50.00,11.00,M,30.02,M,10.00,M,CLR,M,M,M,M,M,M,M,M,KCFV 010810Z AUTO 05011KT 10SM CLR A3002 RMK MADISHF
CFV,2017-04-01 08:15,-95.5719,37.0941,M,M,M,50.00,10.00,M,30.02,M,10.00,M,CLR,M,M,M,M,M,M,M,M,KCFV 010815Z AUTO 05010KT 10SM CLR A3002 RMK MADISHF
CFV,2017-04-01 08:20,-95.5719,37.0941,M,M,M,50.00,10.00,M,30.02,M,10.00,M,CLR,M,M,M,M,M,M,M,M,KCFV 010820Z AUTO 05010KT 10SM CLR A3002 RMK MADISHF
CFV,2017-04-01 08:25,-95.5719,37.0941,M,M,M,50.00,9.00,M,30.03,M,10.00,M,FEW,M,M,M,1600.00,M,M,M,M,KCFV 010825Z AUTO 05009KT 10SM FEW016 A3003 RMK MADISHF
CFV,2017-04-01 08:30,-95.5719,37.0941,M,M,M,50.00,9.00,M,30.03,M,10.00,M,SCT,M,M,M,1600.00,M,M,M,M,KCFV 010830Z AUTO 05009KT 10SM SCT016 A3003 RMK MADISHF
CFV,2017-04-01 08:35,-95.5719,37.0941,M,M,M,50.00,10.00,M,30.03,M,10.00,M,BKN,M,M,M,1600.00,M,M,M,M,KCFV 010835Z AUTO 05010KT 10SM BKN016 A3003 RMK MADISHF
CFV,2017-04-01 08:38,-95.5719,37.0941,46.90,43.00,86.21,50.00,11.00,0.00,30.03,M,10.00,M,BKN,M,M,M,1600.00,M,M,M,M,KCFV 010838Z AUTO 05011KT 10SM BKN016 08/06 A3003 RMK AO2 T00830061
CFV,2017-04-01 08:40,-95.5719,37.0941,M,M,M,50.00,10.00,M,30.03,M,10.00,M,BKN,M,M,M,1600.00,M,M,M,M,KCFV 010840Z AUTO 05010KT 10SM BKN016 A3003 RMK MADISHF
CFV,2017-04-01 08:52,-95.5719,37.0941,48.00,43.00,82.72,50.00,12.00,0.00,30.04,1017.30,10.00,M,OVC,M,M,M,1600.00,M,M,M,M,KCFV 010852Z AUTO 05012KT 10SM OVC016 09/06 A3004 RMK AO2 SLP173 T00890061 55000
CFV,2017-04-01 08:55,-95.5719,37.0941,M,M,M,50.00,11.00,M,30.04,M,10.00,M,OVC,M,M,M,1600.00,M,M,M,M,KCFV 010855Z AUTO 05011KT 10SM OVC016 A3004 RMK MADISHF
CFV,2017-04-01 09:00,-95.5719,37.0941,M,M,M,60.00,10.00,M,30.04,M,10.00,M,OVC,M,M,M,1600.00,M,M,M,M,KCFV 010900Z AUTO 06010KT 10SM OVC016 A3004 RMK MADISHF
CFV,2017-04-01 09:05,-95.5719,37.0941,M,M,M,50.00,11.00,M,30.04,M,10.00,M,OVC,M,M,M,1500.00,M,M,M,M,KCFV 010905Z AUTO 05011KT 10SM OVC015 A3004 RMK MADISHF
CFV,2017-04-01 09:10,-95.5719,37.0941,M,M,M,60.00,13.00,M,30.04,M,10.00,M,OVC,M,M,M,1500.00,M,M,M,M,KCFV 010910Z AUTO 06013KT 10SM OVC015 A3004 RMK MADISHF
CFV,2017-04-01 09:15,-95.5719,37.0941,M,M,M,50.00,11.00,M,30.04,M,10.00,M,OVC,M,M,M,1500.00,M,M,M,M,KCFV 010915Z AUTO 05011KT 10SM OVC015 A3004 RMK MADISHF
CFV,2017-04-01 09:20,-95.5719,37.0941,M,M,M,50.00,11.00,M,30.04,M,10.00,M,OVC,M,M,M,1500.00,M,M,M,M,KCFV 010920Z AUTO 05011KT 10SM OVC015 A3004 RMK MADISHF
CFV,2017-04-01 09:30,-95.5719,37.0941,M,M,M,60.00,12.00,M,30.03,M,10.00,M,OVC,M,M,M,1500.00,M,M,M,M,KCFV 010930Z AUTO 06012KT 10SM OVC015 A3003 RMK MADISHF
CFV,2017-04-01 09:35,-95.5719,37.0941,M,M,M,60.00,11.00,M,30.03,M,10.00,M,OVC,M,M,M,1500.00,M,M,M,M,KCFV 010935Z AUTO 06011KT 10SM OVC015 A3003 RMK MADISHF
CFV,2017-04-01 09:40,-95.5719,37.0941,M,M,M,60.00,12.00,M,30.04,M,10.00,M,OVC,M,M,M,1500.00,M,M,M,M,KCFV 010940Z AUTO 06012KT 10SM OVC015 A3004 RMK MADISHF
CFV,2017-04-01 09:45,-95.5719,37.0941,M,M,M,60.00,10.00,M,30.04,M,10.00,M,OVC,M,M,M,1500.00,M,M,M,M,KCFV 010945Z AUTO 06010KT 10SM OVC015 A3004 RMK MADISHF
CFV,2017-04-01 09:50,-95.5719,37.0941,M,M,M,50.00,12.00,M,30.04,M,10.00,M,OVC,M,M,M,1500.00,M,M,M,M,KCFV 010950Z AUTO 05012KT 10SM OVC015 A3004 RMK MADISHF
CFV,2017-04-01 09:52,-95.5719,37.0941,48.00,44.10,86.28,50.00,10.00,0.00,30.04,1017.20,10.00,M,OVC,M,M,M,1500.00,M,M,M,M,KCFV 010952Z AUTO 05010KT 10SM OVC015 09/07 A3004 RMK AO2 SLP172 T00890067
CFV,2017-04-01 10:00,-95.5719,37.0941,M,M,M,50.00,10.00,M,30.04,M,10.00,M,OVC,M,M,M,1500.00,M,M,M,M,KCFV 011000Z AUTO 05010KT 10SM OVC015 A3004 RMK MADISHF
CFV,2017-04-01 10:05,-95.5719,37.0941,M,M,M,50.00,10.00,M,30.04,M,10.00,M,OVC,M,M,M,1500.00,M,M,M,M,KCFV 011005Z AUTO 05010KT 10SM OVC015 A3004 RMK MADISHF
CFV,2017-04-01 10:10,-95.5719,37.0941,M,M,M,50.00,11.00,M,30.05,M,10.00,M,OVC,M,M,M,1500.00,M,M,M,M,KCFV 011010Z AUTO 05011KT 10SM OVC015 A3005 RMK MADISHF
CFV,2017-04-01 10:15,-95.5719,37.0941,M,M,M,50.00,12.00,M,30.05,M,10.00,M,OVC,M,M,M,1500.00,M,M,M,M,KCFV 011015Z AUTO 05012KT 10SM OVC015 A3005 RMK MADISHF
CFV,2017-04-01 10:20,-95.5719,37.0941,M,M,M,50.00,11.00,M,30.05,M,10.00,M,OVC,M,M,M,1500.00,M,M,M,M,KCFV 011020Z AUTO 05011KT 10SM OVC015 A3005 RMK MADISHF
CFV,2017-04-01 10:25,-95.5719,37.0941,M,M,M,50.00,12.00,M,30.05,M,10.00,M,OVC,M,M,M,1500.00,M,M,M,M,KCFV 011025Z AUTO 05012KT 10SM OVC015 A3005 RMK MADISHF
CFV,2017-04-01 10:30,-95.5719,37.0941,M,M,M,50.00,12.00,M,30.05,M,10.00,M,OVC,M,M,M,1500.00,M,M,M,M,KCFV 011030Z AUTO 05012KT 10SM OVC015 A3005 RMK MADISHF
CFV,2017-04-01 10:35,-95.5719,37.0941,M,M,M,50.00,12.00,M,30.05,M,10.00,M,OVC,M,M,M,1500.00,M,M,M,M,KCFV 011035Z AUTO 05012KT 10SM OVC015 A3005 RMK MADISHF
CFV,2017-04-01 10:50,-95.5719,37.0941,M,M,M,50.00,12.00,M,30.06,M,10.00,M,OVC,M,M,M,1500.00,M,M,M,M,KCFV 011050Z AUTO 05012KT 10SM OVC015 A3006 RMK MADISHF
CFV,2017-04-01 10:52,-95.5719,37.0941,48.00,44.10,86.28,50.00,13.00,0.00,30.06,1017.90,10.00,M,OVC,M,M,M,1500.00,M,M,M,M,KCFV 011052Z AUTO 05013KT 10SM OVC015 09/07 A3006 RMK AO2 SLP179 T00890067
CFV,2017-04-01 10:55,-95.5719,37.0941,M,M,M,50.00,13.00,M,30.06,M,10.00,19.00,OVC,M,M,M,1500.00,M,M,M,M,KCFV 011055Z AUTO 05013G19KT 10SM OVC015 A3006 RMK MADISHF
CFV,2017-04-01 11:00,-95.5719,37.0941,M,M,M,50.00,13.00,M,30.06,M,10.00,M,OVC,M,M,M,1500.00,M,M,M,M,KCFV 011100Z AUTO 05013KT 10SM OVC015 A3006 RMK MADISHF
CFV,2017-04-01 11:05,-95.5719,37.0941,M,M,M,50.00,12.00,M,30.06,M,10.00,M,OVC,M,M,M,1500.00,M,M,M,M,KCFV 011105Z AUTO 05012KT 10SM OVC015 A3006 RMK MADISHF
CFV,2017-04-01 11:10,-95.5719,37.0941,M,M,M,50.00,12.00,M,30.06,M,10.00,M,OVC,M,M,M,1500.00,M,M,M,M,KCFV 011110Z AUTO 05012KT 10SM OVC015 A3006 RMK MADISHF
CFV,2017-04-01 11:15,-95.5719,37.0941,M,M,M,50.00,14.00,M,30.07,M,10.00,M,OVC,M,M,M,1500.00,M,M,M,M,KCFV 011115Z AUTO 05014KT 10SM OVC015 A3007 RMK MADISHF
CFV,2017-04-01 11:20,-95.5719,37.0941,M,M,M,50.00,12.00,M,30.07,M,10.00,M,OVC,M,M,M,1500.00,M,M,M,M,KCFV 011120Z AUTO 05012KT 10SM OVC015 A3007 RMK MADISHF
CFV,2017-04-01 11:35,-95.5719,37.0941,M,M,M,50.00,10.00,M,30.08,M,10.00,M,OVC,M,M,M,1500.00,M,M,M,M,KCFV 011135Z AUTO 05010KT 10SM OVC015 A3008 RMK MADISHF
CFV,2017-04-01 11:40,-95.5719,37.0941,M,M,M,50.00,10.00,M,30.08,M,10.00,M,OVC,M,M,M,1500.00,M,M,M,M,KCFV 011140Z AUTO 05010KT 10SM OVC015 A3008 RMK MADISHF
CFV,2017-04-01 11:45,-95.5719,37.0941,M,M,M,60.00,10.00,M,30.08,M,10.00,M,OVC,M,M,M,1500.00,M,M,M,M,KCFV 011145Z AUTO 06010KT 10SM OVC015 A3008 RMK MADISHF
CFV,2017-04-01 11:50,-95.5719,37.0941,M,M,M,60.00,9.00,M,30.08,M,10.00,M,OVC,M,M,M,1500.00,M,M,M,M,KCFV 011150Z AUTO 06009KT 10SM OVC015 A3008 RMK MADISHF
CFV,2017-04-01 11:52,-95.5719,37.0941,48.90,44.10,83.42,60.00,10.00,0.00,30.08,1018.80,10.00,M,OVC,M,M,M,1500.00,M,M,M,M,KCFV 011152Z AUTO 06010KT 10SM OVC015 09/07 A3008 RMK AO2 SLP188 T00940067 10094 20078 53015
CFV,2017-04-01 11:55,-95.5719,37.0941,M,M,M,60.00,10.00,M,30.09,M,10.00,M,OVC,M,M,M,1500.00,M,M,M,M,KCFV 011155Z AUTO 06010KT 10SM OVC015 A3009 RMK MADISHF
CFV,2017-04-01 12:00,-95.5719,37.0941,M,M,M,60.00,11.00,M,30.09,M,10.00,M,OVC,M,M,M,1500.00,M,M,M,M,KCFV 011200Z AUTO 06011KT 10SM OVC015 A3009 RMK MADISHF
CFV,2017-04-01 12:15,-95.5719,37.0941,M,M,M,70.00,11.00,M,30.08,M,10.00,M,OVC,M,M,M,1500.00,M,M,M,M,KCFV 011215Z AUTO 07011KT 10SM OVC015 A3008 RMK MADISHF
CFV,2017-04-01 12:20,-95.5719,37.0941,M,M,M,60.00,11.00,M,30.09,M,10.00,M,OVC,M,M,M,1500.00,M,M,M,M,KCFV 011220Z AUTO 06011KT 10SM OVC015 A3009 RMK MADISHF
CFV,2017-04-01 12:25,-95.5719,37.0941,M,M,M,60.00,10.00,M,30.09,M,10.00,M,OVC,M,M,M,1500.00,M,M,M,M,KCFV 011225Z AUTO 06010KT 10SM OVC015 A3009 RMK MADISHF
CFV,2017-04-01 12:30,-95.5719,37.0941,M,M,M,60.00,12.00,M,30.10,M,10.00,M,OVC,M,M,M,1400.00,M,M,M,M,KCFV 011230Z AUTO 06012KT 10SM OVC014 A3010 RMK MADISHF
CFV,2017-04-01 12:34,-95.5719,37.0941,48.90,44.10,83.42,60.00,13.00,0.00,30.10,M,10.00,M,OVC,M,M,M,1400.00,M,M,M,M,KCFV 011234Z AUTO 06013KT 10SM OVC014 09/07 A3010 RMK AO2 T00940067
CFV,2017-04-01 12:35,-95.5719,37.0941,M,M,M,60.00,11.00,M,30.10,M,10.00,M,OVC,M,M,M,1400.00,M,M,M,M,KCFV 011235Z AUTO 06011KT 10SM OVC014 A3010 RMK MADISHF
CFV,2017-04-01 12:45,-95.5719,37.0941,M,M,M,60.00,10.00,M,30.10,M,10.00,M,OVC,M,M,M,1400.00,M,M,M,M,KCFV 011245Z AUTO 06010KT 10SM OVC014 A3010 RMK MADISHF
CFV,2017-04-01 12:50,-95.5719,37.0941,M,M,M,60.00,10.00,M,30.10,M,10.00,M,OVC,M,M,M,1400.00,M,M,M,M,KCFV 011250Z AUTO 06010KT 10SM OVC014 A3010 RMK MADISHF
CFV,2017-04-01 12:52,-95.5719,37.0941,48.90,44.10,83.42,60.00,12.00,0.00,30.10,1019.20,10.00,M,OVC,M,M,M,1400.00,M,M,M,M,KCFV 011252Z AUTO 06012KT 10SM OVC014 09/07 A3010 RMK AO2 SLP192 T00940067
CFV,2017-04-01 12:55,-95.5719,37.0941,M,M,M,60.00,9.00,M,30.10,M,10.00,M,OVC,M,M,M,1400.00,M,M,M,M,KCFV 011255Z AUTO 06009KT 10SM OVC014 A3010 RMK MADISHF
CFV,2017-04-01 13:00,-95.5719,37.0941,M,M,M,70.00,12.00,M,30.10,M,10.00,M,OVC,M,M,M,1400.00,M,M,M,M,KCFV 011300Z AUTO 07012KT 10SM OVC014 A3010 RMK MADISHF
CFV,2017-04-01 13:15,-95.5719,37.0941,M,M,M,70.00,12.00,M,30.11,M,10.00,M,OVC,M,M,M,1400.00,M,M,M,M,KCFV 011315Z AUTO 07012KT 10SM OVC014 A3011 RMK MADISHF
CFV,2017-04-01 13:20,-95.5719,37.0941,M,M,M,60.00,11.00,M,30.10,M,10.00,M,OVC,M,M,M,1400.00,M,M,M,M,KCFV 011320Z AUTO 06011KT 10SM OVC014 A3010 RMK MADISHF
CFV,2017-04-01 13:25,-95.5719,37.0941,M,M,M,60.00,11.00,M,30.11,M,10.00,M,OVC,M,M,M,1400.00,M,M,M,M,KCFV 011325Z AUTO 06011KT 10SM OVC014 A3011 RMK MADISHF
CFV,2017-04-01 13:30,-95.5719,37.0941,M,M,M,70.00,11.00,M,30.11,M,10.00,M,OVC,M,M,M,1400.00,M,M,M,M,KCFV 011330Z AUTO 07011KT 10SM OVC014 A3011 RMK MADISHF
CFV,2017-04-01 13:40,-95.5719,37.0941,M,M,M,70.00,12.00,M,30.11,M,10.00,M,OVC,M,M,M,1400.00,M,M,M,M,KCFV 011340Z AUTO 07012KT 10SM OVC014 A3011 RMK MADISHF
CFV,2017-04-01 13:45,-95.5719,37.0941,M,M,M,70.00,13.00,M,30.11,M,10.00,18.00,OVC,M,M,M,1400.00,M,M,M,M,KCFV 011345Z AUTO 07013G18KT 10SM OVC014 A3011 RMK MADISHF
CFV,2017-04-01 13:50,-95.5719,37.0941,M,M,M,70.00,14.00,M,30.11,M,10.00,M,OVC,M,M,M,1400.00,M,M,M,M,KCFV 011350Z AUTO 07014KT 10SM OVC014 A3011 RMK MADISHF
CFV,2017-04-01 13:52,-95.5719,37.0941,50.00,45.00,82.86,70.00,14.00,0.00,30.11,1019.60,10.00,M,OVC,M,M,M,1400.00,M,M,M,M,KCFV 011352Z AUTO 07014KT 10SM OVC014 10/07 A3011 RMK AO2 SLP196 T01000072
CFV,2017-04-01 13:55,-95.5719,37.0941,M,M,M,70.00,13.00,M,30.11,M,10.00,M,OVC,M,M,M,1400.00,M,M,M,M,KCFV 011355Z AUTO 07013KT 10SM OVC014 A3011 RMK MADISHF
CFV,2017-04-01 14:00,-95.5719,37.0941,M,M,M,70.00,13.00,M,30.11,M,10.00,M,OVC,M,M,M,1400.00,M,M,M,M,KCFV 011400Z AUTO 07013KT 10SM OVC014 A3011 RMK MADISHF
CFV,2017-04-01 14:05,-95.5719,37.0941,M,M,M,60.00,10.00,M,30.11,M,10.00,M,OVC,M,M,M,1400.00,M,M,M,M,KCFV 011405Z AUTO 06010KT 10SM OVC014 A3011 RMK MADISHF
CFV,2017-04-01 14:20,-95.5719,37.0941,M,M,M,70.00,11.00,M,30.11,M,10.00,M,OVC,M,M,M,1400.00,M,M,M,M,KCFV 011420Z AUTO 07011KT 10SM OVC014 A3011 RMK MADISHF
CFV,2017-04-01 14:25,-95.5719,37.0941,M,M,M,60.00,11.00,M,30.11,M,10.00,M,OVC,M,M,M,1400.00,M,M,M,M,KCFV 011425Z AUTO 06011KT 10SM OVC014 A3011 RMK MADISHF
CFV,2017-04-01 14:30,-95.5719,37.0941,M,M,M,70.00,11.00,M,30.11,M,10.00,18.00,OVC,M,M,M,1400.00,M,M,M,M,KCFV 011430Z AUTO 07011G18KT 10SM OVC014 A3011 RMK MADISHF
CFV,2017-04-01 14:35,-95.5719,37.0941,M,M,M,70.00,13.00,M,30.11,M,10.00,M,OVC,M,M,M,1400.00,M,M,M,M,KCFV 011435Z AUTO 07013KT 10SM OVC014 A3011 RMK MADISHF
CFV,2017-04-01 14:40,-95.5719,37.0941,M,M,M,70.00,11.00,M,30.11,M,10.00,M,OVC,M,M,M,1400.00,M,M,M,M,KCFV 011440Z AUTO 07011KT 10SM OVC014 A3011 RMK MADISHF
CFV,2017-04-01 14:45,-95.5719,37.0941,M,M,M,70.00,13.00,M,30.11,M,10.00,M,OVC,M,M,M,1400.00,M,M,M,M,KCFV 011445Z AUTO 07013KT 10SM OVC014 A3011 RMK MADISHF
CFV,2017-04-01 14:50,-95.5719,37.0941,M,M,M,70.00,11.00,M,30.11,M,10.00,M,OVC,M,M,M,1400.00,M,M,M,M,KCFV 011450Z AUTO 07011KT 10SM OVC014 A3011 RMK MADISHF
CFV,2017-04-01 14:52,-95.5719,37.0941,52.00,46.00,79.92,60.00,10.00,0.00,30.11,1019.90,10.00,M,OVC,M,M,M,1400.00,M,M,M,M,KCFV 011452Z AUTO 06010KT 10SM OVC014 11/08 A3011 RMK AO2 SLP199 T01110078 51009
CFV,2017-04-01 15:05,-95.5719,37.0941,M,M,M,60.00,10.00,M,30.11,M,10.00,M,OVC,M,M,M,1400.00,M,M,M,M,KCFV 011505Z AUTO 06010KT 10SM OVC014 A3011 RMK MADISHF
CFV,2017-04-01 15:10,-95.5719,37.0941,M,M,M,50.00,14.00,M,30.11,M,10.00,M,OVC,M,M,M,1400.00,M,M,M,M,KCFV 011510Z AUTO 05014KT 10SM OVC014 A3011 RMK MADISHF
CFV,2017-04-01 15:15,-95.5719,37.0941,M,M,M,50.00,14.00,M,30.11,M,10.00,M,OVC,M,M,M,1400.00,M,M,M,M,KCFV 011515Z AUTO 05014KT 10SM OVC014 A3011 RMK MADISHF
CFV,2017-04-01 15:20,-95.5719,37.0941,M,M,M,70.00,10.00,M,30.12,M,10.00,M,OVC,M,M,M,1400.00,M,M,M,M,KCFV 011520Z AUTO 07010KT 10SM OVC014 A3012 RMK MADISHF
CFV,2017-04-01 15:25,-95.5719,37.0941,M,M,M,60.00,11.00,M,30.12,M,10.00,M,OVC,M,M,M,1400.00,M,M,M,M,KCFV 011525Z AUTO 06011KT 10SM OVC014 A3012 RMK MADISHF
CFV,2017-04-01 15:30,-95.5719,37.0941,M,M,M,60.00,11.00,M,30.12,M,10.00,M,OVC,M,M,M,1400.00,M,M,M,M,KCFV 011530Z AUTO 06011KT 10SM OVC014 A3012 RMK MADISHF
CFV,2017-04-01 15:35,-95.5719,37.0941,M,M,M,60.00,13.00,M,30.12,M,10.00,M,OVC,M,M,M,1400.00,M,M,M,M,KCFV 011535Z AUTO 06013KT 10SM OVC014 A3012 RMK MADISHF
CFV,2017-04-01 15:49,-95.5719,37.0941,53.60,46.40,76.50,50.00,12.00,0.00,30.12,M,10.00,M,OVC,M,M,M,1500.00,M,M,M,M,KCFV 011549Z AUTO 05012KT 10SM OVC015 12/08 A3012 RMK AO2
CFV,2017-04-01 15:50,-95.5719,37.0941,M,M,M,50.00,10.00,M,30.12,M,10.00,M,OVC,M,M,M,1500.00,M,M,M,M,KCFV 011550Z AUTO 05010KT 10SM OVC015 A3012 RMK MADISHF
CFV,2017-04-01 15:52,-95.5719,37.0941,53.10,46.00,76.75,50.00,13.00,0.00,30.12,1020.10,10.00,M,OVC,M,M,M,1500.00,M,M,M,M,KCFV 011552Z AUTO 05013KT 10SM OVC015 12/08 A3012 RMK AO2 SLP201 T01170078
CFV,2017-04-01 15:55,-95.5719,37.0941,M,M,M,50.00,14.00,M,30.12,M,10.00,M,OVC,M,M,M,1500.00,M,M,M,M,KCFV 011555Z AUTO 05014KT 10SM OVC015 A3012 RMK MADISHF
CFV,2017-04-01 16:00,-95.5719,37.0941,M,M,M,60.00,12.00,M,30.12,M,10.00,M,OVC,M,M,M,1500.00,M,M,M,M,KCFV 011600Z AUTO 06012KT 10SM OVC015 A3012 RMK MADISHF
CFV,2017-04-01 16:05,-95.5719,37.0941,M,M,M,50.00,14.00,M,30.12,M,10.00,M,OVC,M,M,M,1500.00,M,M,M,M,KCFV 011605Z AUTO 05014KT 10SM OVC015 A3012 RMK MADISHF
CFV,2017-04-01 16:10,-95.5719,37.0941,M,M,M,50.00,12.00,M,30.12,M,10.00,M,OVC,M,M,M,1500.00,M,M,M,M,KCFV 011610Z AUTO 05012KT 10SM OVC015 A3012 RMK MADISHF
CFV,2017-04-01 16:15,-95.5719,37.0941,M,M,M,50.00,11.00,M,30.11,M,10.00,M,OVC,M,M,M,1500.00,M,M,M,M,KCFV 011615Z AUTO 05011KT 10SM OVC015 A3011 RMK MADISHF
CFV,2017-04-01 16:20,-95.5719,37.0941,M,M,M,60.00,13.00,M,30.12,M,10.00,M,OVC,M,M,M,1500.00,M,M,M,M,KCFV 011620Z AUTO 06013KT 10SM OVC015 A3012 RMK MADISHF
CFV,2017-04-01 16:25,-95.5719,37.0941,M,M,M,70.00,12.00,M,30.11,M,10.00,M,OVC,M,M,M,1500.00,M,M,M,M,KCFV 011625Z AUTO 07012KT 10SM OVC015 A3011 RMK MADISHF
CFV,2017-04-01 16:35,-95.5719,37.0941,M,M,M,60.00,14.00,M,30.11,M,10.00,M,OVC,M,M,M,1600.00,M,M,M,M,KCFV 011635Z AUTO 06014KT 10SM OVC016 A3011 RMK MADISHF
CFV,2017-04-01 16:40,-95.5719,37.0941,M,M,M,60.00,14.00,M,30.11,M,10.00,M,OVC,M,M,M,1600.00,M,M,M,M,KCFV 011640Z AUTO 06014KT 10SM OVC016 A3011 RMK MADISHF
CFV,2017-04-01 16:45,-95.5719,37.0941,M,M,M,60.00,13.00,M,30.11,M,10.00,M,OVC,M,M,M,1600.00,M,M,M,M,KCFV 011645Z AUTO 06013KT 10SM OVC016 A3011 RMK MADISHF
CFV,2017-04-01 16:50,-95.5719,37.0941,M,M,M,50.00,13.00,M,30.10,M,10.00,M,OVC,M,M,M,1699.00,M,M,M,M,KCFV 011650Z AUTO 05013KT 10SM OVC016 A3010 RMK MADISHF
CFV,2017-04-01 16:52,-95.5719,37.0941,55.00,46.90,74.08,50.00,15.00,0.00,30.10,1019.40,10.00,M,OVC,M,M,M,1700.00,M,M,M,M,KCFV 011652Z AUTO 05015KT 10SM OVC017 13/08 A3010 RMK AO2 SLP194 T01280083
CFV,2017-04-01 16:55,-95.5719,37.0941,M,M,M,60.00,14.00,M,30.10,M,10.00,M,OVC,M,M,M,1699.00,M,M,M,M,KCFV 011655Z AUTO 06014KT 10SM OVC016 A3010 RMK MADISHF
CFV,2017-04-01 17:00,-95.5719,37.0941,M,M,M,70.00,13.00,M,30.09,M,10.00,18.00,BKN,M,M,M,1699.00,M,M,M,M,KCFV 011700Z AUTO 07013G18KT 10SM BKN016 A3009 RMK MADISHF
CFV,2017-04-01 17:05,-95.5719,37.0941,M,M,M,70.00,15.00,M,30.09,M,10.00,M,BKN,M,M,M,1699.00,M,M,M,M,KCFV 011705Z AUTO 07015KT 10SM BKN016 A3009 RMK MADISHF
CFV,2017-04-01 17:10,-95.5719,37.0941,M,M,M,60.00,14.00,M,30.09,M,10.00,M,OVC,M,M,M,1699.00,M,M,M,M,KCFV 011710Z AUTO 06014KT 10SM OVC016 A3009 RMK MADISHF
CFV,2017-04-01 17:15,-95.5719,37.0941,M,M,M,60.00,15.00,M,30.09,M,10.00,M,OVC,M,M,M,1699.00,M,M,M,M,KCFV 011715Z AUTO 06015KT 10SM OVC016 A3009 RMK MADISHF
CFV,2017-04-01 17:20,-95.5719,37.0941,M,M,M,60.00,13.00,M,30.09,M,10.00,M,OVC,M,M,M,1699.00,M,M,M,M,KCFV 011720Z AUTO 06013KT 10SM OVC016 A3009 RMK MADISHF
CFV,2017-04-01 17:25,-95.5719,37.0941,M,M,M,70.00,12.00,M,30.08,M,10.00,M,BKN,M,M,M,1699.00,M,M,M,M,KCFV 011725Z AUTO 07012KT 10SM BKN016 A3008 RMK MADISHF
CFV,2017-04-01 17:30,-95.5719,37.0941,M,M,M,70.00,13.00,M,30.08,M,10.00,M,BKN,M,M,M,1699.00,M,M,M,M,KCFV 011730Z AUTO 07013KT 10SM BKN016 A3008 RMK MADISHF
CFV,2017-04-01 17:35,-95.5719,37.0941,M,M,M,60.00,15.00,M,30.08,M,10.00,M,BKN,M,M,M,1800.00,M,M,M,M,KCFV 011735Z AUTO 06015KT 10SM BKN018 A3008 RMK MADISHF
CFV,2017-04-01 17:50,-95.5719,37.0941,M,M,M,60.00,14.00,M,30.08,M,10.00,M,BKN,M,M,M,1800.00,M,M,M,M,KCFV 011750Z AUTO 06014KT 10SM BKN018 A3008 RMK MADISHF
CFV,2017-04-01 17:52,-95.5719,37.0941,60.10,48.90,66.46,50.00,14.00,0.00,30.07,1018.50,10.00,M,BKN,M,M,M,1800.00,M,M,M,M,KCFV 011752Z AUTO 05014KT 10SM BKN018 16/09 A3007 RMK AO2 SLP185 T01560094 10156 20094 58016
CFV,2017-04-01 17:55,-95.5719,37.0941,M,M,M,80.00,12.00,M,30.08,M,10.00,M,BKN,M,M,M,1900.00,M,M,M,M,KCFV 011755Z AUTO 08012KT 10SM BKN019 A3008 RMK MADISHF
CFV,2017-04-01 18:00,-95.5719,37.0941,M,M,M,70.00,12.00,M,30.07,M,10.00,M,BKN,M,M,M,1900.00,M,M,M,M,KCFV 011800Z AUTO 07012KT 10SM BKN019 A3007 RMK MADISHF
CFV,2017-04-01 18:05,-95.5719,37.0941,M,M,M,70.00,11.00,M,30.07,M,10.00,M,BKN,M,M,M,1900.00,M,M,M,M,KCFV 011805Z AUTO 07011KT 10SM BKN019 A3007 RMK MADISHF
CFV,2017-04-01 18:10,-95.5719,37.0941,M,M,M,90.00,11.00,M,30.06,M,10.00,17.00,SCT,M,M,M,1900.00,M,M,M,M,KCFV 011810Z AUTO 09011G17KT 10SM SCT019 A3006 RMK MADISHF
CFV,2017-04-01 18:16,-95.5719,37.0941,61.00,50.00,67.06,70.00,13.00,0.00,30.06,M,10.00,17.00,FEW,M,M,M,1900.00,M,M,M,M,KCFV 011816Z AUTO 07013G17KT 10SM FEW019 16/10 A3006 RMK AO2 T01610100
CFV,2017-04-01 18:20,-95.5719,37.0941,M,M,M,80.00,13.00,M,30.06,M,10.00,M,FEW,M,M,M,1900.00,M,M,M,M,KCFV 011820Z AUTO 08013KT 10SM FEW019 A3006 RMK MADISHF
CFV,2017-04-01 18:25,-95.5719,37.0941,M,M,M,90.00,12.00,M,30.06,M,10.00,M,CLR,M,M,M,M,M,M,M,M,KCFV 011825Z AUTO 09012KT 10SM CLR A3006 RMK MADISHF
CFV,2017-04-01 18:30,-95.5719,37.0941,M,M,M,70.00,14.00,M,30.05,M,10.00,M,FEW,M,M,M,1999.00,M,M,M,M,KCFV 011830Z AUTO 07014KT 10SM FEW019 A3005 RMK MADISHF
CFV,2017-04-01 18:35,-95.5719,37.0941,M,M,M,90.00,11.00,M,30.05,M,10.00,16.00,CLR,M,M,M,M,M,M,M,M,KCFV 011835Z AUTO 09011G16KT 10SM CLR A3005 RMK MADISHF
CFV,2017-04-01 18:40,-95.5719,37.0941,M,M,M,90.00,11.00,M,30.05,M,10.00,M,CLR,M,M,M,M,M,M,M,M,KCFV 011840Z AUTO 09011KT 10SM CLR A3005 RMK MADISHF
CFV,2017-04-01 18:45,-95.5719,37.0941,M,M,M,70.00,13.00,M,30.05,M,10.00,M,CLR,M,M,M,M,M,M,M,M,KCFV 011845Z AUTO 07013KT 10SM CLR A3005 RMK MADISHF
CFV,2017-04-01 18:50,-95.5719,37.0941,M,M,M,90.00,14.00,M,30.05,M,10.00,M,CLR,M,M,M,M,M,M,M,M,KCFV 011850Z AUTO 09014KT 10SM CLR A3005 RMK MADISHF
CFV,2017-04-01 18:52,-95.5719,37.0941,62.10,50.00,64.50,80.00,11.00,0.00,30.05,1017.40,10.00,M,CLR,M,M,M,M,M,M,M,M,KCFV 011852Z AUTO 08011KT 10SM CLR 17/10 A3005 RMK AO2 SLP174 T01670100
CFV,2017-04-01 18:55,-95.5719,37.0941,M,M,M,70.00,12.00,M,30.05,M,10.00,M,CLR,M,M,M,M,M,M,M,M,KCFV 011855Z AUTO 07012KT 10SM CLR A3005 RMK MADISHF
CFV,2017-04-01 19:00,-95.5719,37.0941,M,M,M,70.00,14.00,M,30.05,M,10.00,M,CLR,M,M,M,M,M,M,M,M,KCFV 011900Z AUTO 07014KT 10SM CLR A3005 RMK MADISHF
CFV,2017-04-01 19:10,-95.5719,37.0941,M,M,M,70.00,11.00,M,30.04,M,10.00,M,CLR,M,M,M,M,M,M,M,M,KCFV 011910Z AUTO 07011KT 10SM CLR A3004 RMK MADISHF
CFV,2017-04-01 19:15,-95.5719,37.0941,M,M,M,70.00,11.00,M,30.04,M,10.00,M,CLR,M,M,M,M,M,M,M,M,KCFV 011915Z AUTO 07011KT 10SM CLR A3004 RMK MADISHF
CFV,2017-04-01 19:20,-95.5719,37.0941,M,M,M,70.00,11.00,M,30.04,M,10.00,M,CLR,M,M,M,M,M,M,M,M,KCFV 011920Z AUTO 07011KT 10SM CLR A3004 RMK MADISHF
CFV,2017-04-01 19:25,-95.5719,37.0941,M,M,M,60.00,15.00,M,30.04,M,10.00,M,CLR,M,M,M,M,M,M,M,M,KCFV 011925Z AUTO 06015KT 10SM CLR A3004 RMK MADISHF
CFV,2017-04-01 19:30,-95.5719,37.0941,M,M,M,60.00,12.00,M,30.03,M,10.00,M,CLR,M,M,M,M,M,M,M,M,KCFV 011930Z AUTO 06012KT 10SM CLR A3003 RMK MADISHF
CFV,2017-04-01 19:35,-95.5719,37.0941,M,M,M,60.00,14.00,M,30.03,M,10.00,19.00,CLR,M,M,M,M,M,M,M,M,KCFV 011935Z AUTO 06014G19KT 10SM CLR A3003 RMK MADISHF
CFV,2017-04-01 19:40,-95.5719,37.0941,M,M,M,70.00,13.00,M,30.02,M,10.00,M,CLR,M,M,M,M,M,M,M,M,KCFV 011940Z AUTO 07013KT 10SM CLR A3002 RMK MADISHF
CFV,2017-04-01 19:52,-95.5719,37.0941,66.00,53.10,63.10,60.00,13.00,0.00,30.02,1016.40,10.00,M,CLR,M,M,M,M,M,M,M,M,KCFV 011952Z AUTO 06013KT 10SM CLR 19/12 A3002 RMK AO2 SLP164 T01890117
CFV,2017-04-01 19:55,-95.5719,37.0941,M,M,M,60.00,12.00,M,30.02,M,10.00,M,CLR,M,M,M,M,M,M,M,M,KCFV 011955Z AUTO 06012KT 10SM CLR A3002 RMK MADISHF
CFV,2017-04-01 20:00,-95.5719,37.0941,M,M,M,60.00,14.00,M,30.01,M,10.00,M,CLR,M,M,M,M,M,M,M,M,KCFV 012000Z AUTO 06014KT 10SM CLR A3001 RMK MADISHF
CFV,2017-04-01 20:05,-95.5719,37.0941,M,M,M,50.00,15.00,M,30.01,M,10.00,M,CLR,M,M,M,M,M,M,M,M,KCFV 012005Z AUTO 05015KT 10SM CLR A3001 RMK MADISHF
CFV,2017-04-01 20:10,-95.5719,37.0941,M,M,M,70.00,13.00,M,30.01,M,10.00,M,CLR,M,M,M,M,M,M,M,M,KCFV 012010Z AUTO 07013KT 10SM CLR A3001 RMK MADISHF
CFV,2017-04-01 20:15,-95.5719,37.0941,M,M,M,50.00,15.00,M,30.00,M,10.00,M,CLR,M,M,M,M,M,M,M,M,KCFV 012015Z AUTO 05015KT 10SM CLR A3000 RMK MADISHF
CFV,2017-04-01 20:20,-95.5719,37.0941,M,M,M,60.00,14.00,M,30.00,M,10.00,M,CLR,M,M,M,M,M,M,M,M,KCFV 012020Z AUTO 06014KT 10SM CLR A3000 RMK MADISHF
CFV,2017-04-01 20:30,-95.5719,37.0941,M,M,M,70.00,15.00,M,30.00,M,10.00,M,CLR,M,M,M,M,M,M,M,M,KCFV 012030Z AUTO 07015KT 10SM CLR A3000 RMK MADISHF
CFV,2017-04-01 20:35,-95.5719,37.0941,M,M,M,60.00,15.00,M,30.00,M,10.00,M,CLR,M,M,M,M,M,M,M,M,KCFV 012035Z AUTO 06015KT 10SM CLR A3000 RMK MADISHF
CFV,2017-04-01 20:40,-95.5719,37.0941,M,M,M,50.00,13.00,M,29.99,M,10.00,M,CLR,M,M,M,M,M,M,M,M,KCFV 012040Z AUTO 05013KT 10SM CLR A2999 RMK MADISHF
CFV,2017-04-01 20:45,-95.5719,37.0941,M,M,M,70.00,16.00,M,29.99,M,10.00,M,CLR,M,M,M,M,M,M,M,M,KCFV 012045Z AUTO 07016KT 10SM CLR A2999 RMK MADISHF
CFV,2017-04-01 20:50,-95.5719,37.0941,M,M,M,60.00,13.00,M,29.99,M,10.00,M,CLR,M,M,M,M,M,M,M,M,KCFV 012050Z AUTO 06013KT 10SM CLR A2999 RMK MADISHF
CFV,2017-04-01 20:52,-95.5719,37.0941,64.90,52.00,62.96,50.00,16.00,0.00,29.99,1015.50,10.00,M,CLR,M,M,M,M,M,M,M,M,KCFV 012052Z AUTO 05016KT 10SM CLR 18/11 A2999 RMK AO2 SLP155 T01830111 56027
CFV,2017-04-01 20:55,-95.5719,37.0941,M,M,M,60.00,14.00,M,30.00,M,10.00,M,CLR,M,M,M,M,M,M,M,M,KCFV 012055Z AUTO 06014KT 10SM CLR A3000 RMK MADISHF
CFV,2017-04-01 21:00,-95.5719,37.0941,M,M,M,50.00,14.00,M,30.00,M,10.00,M,CLR,M,M,M,M,M,M,M,M,KCFV 012100Z AUTO 05014KT 10SM CLR A3000 RMK MADISHF
CFV,2017-04-01 21:05,-95.5719,37.0941,M,M,M,70.00,12.00,M,30.00,M,10.00,M,CLR,M,M,M,M,M,M,M,M,KCFV 012105Z AUTO 07012KT 10SM CLR A3000 RMK MADISHF
CFV,2017-04-01 21:15,-95.5719,37.0941,M,M,M,70.00,12.00,M,29.99,M,10.00,M,CLR,M,M,M,M,M,M,M,M,KCFV 012115Z AUTO 07012KT 10SM CLR A2999 RMK MADISHF
CFV,2017-04-01 21:20,-95.5719,37.0941,M,M,M,50.00,15.00,M,29.99,M,10.00,M,CLR,M,M,M,M,M,M,M,M,KCFV 012120Z AUTO 05015KT 10SM CLR A2999 RMK MADISHF
CFV,2017-04-01 21:30,-95.5719,37.0941,M,M,M,50.00,13.00,M,29.98,M,10.00,M,CLR,M,M,M,M,M,M,M,M,KCFV 012130Z AUTO 05013KT 10SM CLR A2998 RMK MADISHF
CFV,2017-04-01 21:45,-95.5719,37.0941,M,M,M,50.00,15.00,M,29.97,M,10.00,M,CLR,M,M,M,M,M,M,M,M,KCFV 012145Z AUTO 05015KT 10SM CLR A2997 RMK MADISHF
CFV,2017-04-01 21:50,-95.5719,37.0941,M,M,M,50.00,11.00,M,29.97,M,10.00,M,CLR,M,M,M,M,M,M,M,M,KCFV 012150Z AUTO 05011KT 10SM CLR A2997 RMK MADISHF
CFV,2017-04-01 21:52,-95.5719,37.0941,64.00,53.10,67.66,60.00,15.00,0.00,29.97,1014.90,10.00,21.00,CLR,M,M,M,M,M,M,M,M,KCFV 012152Z AUTO 06015G21KT 10SM CLR 18/12 A2997 RMK AO2 SLP149 T01780117
CFV,2017-04-01 21:55,-95.5719,37.0941,M,M,M,50.00,17.00,M,29.97,M,10.00,M,CLR,M,M,M,M,M,M,M,M,KCFV 012155Z AUTO 05017KT 10SM CLR A2997 RMK MADISHF
CFV,2017-04-01 22:00,-95.5719,37.0941,M,M,M,60.00,13.00,M,29.98,M,10.00,M,CLR,M,M,M,M,M,M,M,M,KCFV 012200Z AUTO 06013KT 10SM CLR A2998 RMK MADISHF
CFV,2017-04-01 22:05,-95.5719,37.0941,M,M,M,50.00,13.00,M,29.98,M,10.00,M,CLR,M,M,M,M,M,M,M,M,KCFV 012205Z AUTO 05013KT 10SM CLR A2998 RMK MADISHF
CFV,2017-04-01 22:15,-95.5719,37.0941,M,M,M,40.00,12.00,M,29.99,M,10.00,M,CLR,M,M,M,M,M,M,M,M,KCFV 012215Z AUTO 04012KT 10SM CLR A2999 RMK MADISHF
CFV,2017-04-01 22:20,-95.5719,37.0941,M,M,M,40.00,12.00,M,29.99,M,10.00,M,CLR,M,M,M,M,M,M,M,M,KCFV 012220Z AUTO 04012KT 10SM CLR A2999 RMK MADISHF
CFV,2017-04-01 22:30,-95.5719,37.0941,M,M,M,40.00,13.00,M,29.99,M,10.00,M,CLR,M,M,M,M,M,M,M,M,KCFV 012230Z AUTO 04013KT 10SM CLR A2999 RMK MADISHF
CFV,2017-04-01 22:35,-95.5719,37.0941,M,M,M,40.00,11.00,M,29.99,M,10.00,M,CLR,M,M,M,M,M,M,M,M,KCFV 012235Z AUTO 04011KT 10SM CLR A2999 RMK MADISHF
CFV,2017-04-01 22:40,-95.5719,37.0941,M,M,M,40.00,12.00,M,29.99,M,10.00,M,CLR,M,M,M,M,M,M,M,M,KCFV 012240Z AUTO 04012KT 10SM CLR A2999 RMK MADISHF
CFV,2017-04-01 22:45,-95.5719,37.0941,M,M,M,40.00,12.00,M,29.99,M,10.00,M,CLR,M,M,M,M,M,M,M,M,KCFV 012245Z AUTO 04012KT 10SM CLR A2999 RMK MADISHF
CFV,2017-04-01 22:50,-95.5719,37.0941,M,M,M,40.00,12.00,M,29.99,M,10.00,M,CLR,M,M,M,M,M,M,M,M,KCFV 012250Z AUTO 04012KT 10SM CLR A2999 RMK MADISHF
CFV,2017-04-01 22:52,-95.5719,37.0941,62.10,52.00,69.46,40.00,11.00,0.00,29.99,1015.50,10.00,M,CLR,M,M,M,M,M,M,M,M,KCFV 012252Z AUTO 04011KT 10SM CLR 17/11 A2999 RMK AO2 SLP155 T01670111
CFV,2017-04-01 22:55,-95.5719,37.0941,M,M,M,40.00,8.00,M,29.99,M,10.00,M,CLR,M,M,M,M,M,M,M,M,KCFV 012255Z AUTO 04008KT 10SM CLR A2999 RMK MADISHF
CFV,2017-04-01 23:00,-95.5719,37.0941,M,M,M,40.00,9.00,M,29.99,M,10.00,M,CLR,M,M,M,M,M,M,M,M,KCFV 012300Z AUTO 04009KT 10SM CLR A2999 RMK MADISHF
CFV,2017-04-01 23:10,-95.5719,37.0941,M,M,M,40.00,11.00,M,30.00,M,10.00,M,CLR,M,M,M,M,M,M,M,M,KCFV 012310Z AUTO 04011KT 10SM CLR A3000 RMK MADISHF
CFV,2017-04-01 23:15,-95.5719,37.0941,M,M,M,30.00,9.00,M,30.00,M,10.00,M,CLR,M,M,M,M,M,M,M,M,KCFV 012315Z AUTO 03009KT 10SM CLR A3000 RMK MADISHF
CFV,2017-04-01 23:20,-95.5719,37.0941,M,M,M,30.00,11.00,M,30.00,M,10.00,M,CLR,M,M,M,M,M,M,M,M,KCFV 012320Z AUTO 03011KT 10SM CLR A3000 RMK MADISHF
CFV,2017-04-01 23:25,-95.5719,37.0941,M,M,M,30.00,10.00,M,30.00,M,10.00,M,CLR,M,M,M,M,M,M,M,M,KCFV 012325Z AUTO 03010KT 10SM CLR A3000 RMK MADISHF
CFV,2017-04-01 23:30,-95.5719,37.0941,M,M,M,30.00,11.00,M,30.00,M,10.00,M,CLR,M,M,M,M,M,M,M,M,KCFV 012330Z AUTO 03011KT 10SM CLR A3000 RMK MADISHF
CFV,2017-04-01 23:40,-95.5719,37.0941,M,M,M,30.00,10.00,M,30.00,M,10.00,M,CLR,M,M,M,M,M,M,M,M,KCFV 012340Z AUTO 03010KT 10SM CLR A3000 RMK MADISHF
CFV,2017-04-01 23:45,-95.5719,37.0941,M,M,M,10.00,10.00,M,30.01,M,10.00,M,CLR,M,M,M,M,M,M,M,M,KCFV 012345Z AUTO 01010KT 10SM CLR A3001 RMK MADISHF
CFV,2017-04-01 23:50,-95.5719,37.0941,M,M,M,20.00,10.00,M,30.01,M,10.00,M,CLR,M,M,M,M,M,M,M,M,KCFV 012350Z AUTO 02010KT 10SM CLR A3001 RMK MADISHF
CFV,2017-04-01 23:52,-95.5719,37.0941,60.10,52.00,74.57,30.00,12.00,0.00,30.01,1016.00,10.00,M,CLR,M,M,M,M,M,M,M,M,KCFV 012352Z AUTO 03012KT 10SM CLR 16/11 A3001 RMK AO2 SLP160 T01560111 10189 20156 53005
CFV,2017-04-01 23:55,-95.5719,37.0941,M,M,M,20.00,12.00,M,30.01,M,10.00,M,CLR,M,M,M,M,M,M,M,M,KCFV 012355Z AUTO 02012KT 10SM CLR A3001 RMK MADISHF
