#DEBUG: Format Typ    -> comma
#DEBUG: Time Period   -> 2017-04-01 00:00:00+00:00 2017-04-02 00:00:00+00:00
#DEBUG: Time Zone     -> Etc/UTC
#DEBUG: Data Contact   -> daryl herzmann akrherz@iastate.edu 515-294-5978
#DEBUG: Entries Found -> -1
station,valid,lon,lat,tmpf, dwpf, relh, drct, sknt, p01i, alti, mslp, vsby, gust, skyc1, skyc2, skyc3, skyc4, skyl1, skyl2, skyl3, skyl4, presentwx, metar
CGC,2017-04-01 00:15,-82.5713,28.8673,71.60,68.00,88.43,240.00,5.00,0.00,29.89,M,10.00,M,SCT,BKN,OVC,M,1300.00,1900.00,2600.00,M,M,KCGC 010015Z AUTO 24005KT 10SM SCT013 BKN019 OVC026 22/20 A2989 RMK AO2
CGC,2017-04-01 00:35,-82.5713,28.8673,71.60,68.00,88.43,230.00,5.00,0.00,29.90,M,10.00,M,BKN,OVC,M,M,1300.00,2200.00,M,M,M,KCGC 010035Z AUTO 23005KT 10SM BKN013 OVC022 22/20 A2990 RMK AO2
CGC,2017-04-01 00:55,-82.5713,28.8673,71.60,68.00,88.43,250.00,6.00,0.00,29.91,M,10.00,M,BKN,BKN,BKN,M,1300.00,2000.00,2500.00,M,M,KCGC 010055Z AUTO 25006KT 10SM BKN013 BKN020 BKN025 22/20 A2991 RMK AO2
CGC,2017-04-01 01:15,-82.5713,28.8673,71.60,68.00,88.43,250.00,4.00,0.00,29.91,M,10.00,M,BKN,OVC,M,M,1500.00,2000.00,M,M,M,KCGC 010115Z AUTO 25004KT 10SM BKN015 OVC020 22/20 A2991 RMK AO2
CGC,2017-04-01 01:35,-82.5713,28.8673,71.60,68.00,88.43,260.00,8.00,0.00,29.92,M,10.00,M,BKN,BKN,M,M,1700.00,2300.00,M,M,M,KCGC 010135Z AUTO 26008KT 10SM BKN017 BKN023 22/20 A2992 RMK AO2
CGC,2017-04-01 01:55,-82.5713,28.8673,71.60,68.00,88.43,260.00,6.00,0.00,29.92,M,10.00,M,SCT,BKN,BKN,M,1400.00,2100.00,2600.00,M,M,KCGC 010155Z AUTO 26006KT 10SM SCT014 BKN021 BKN026 22/20 A2992 RMK AO2
CGC,2017-04-01 02:15,-82.5713,28.8673,71.60,66.20,83.09,260.00,7.00,0.00,29.93,M,10.00,M,SCT,BKN,M,M,1400.00,2100.00,M,M,M,KCGC 010215Z AUTO 26007KT 10SM SCT014 BKN021 22/19 A2993 RMK AO2
CGC,2017-04-01 02:35,-82.5713,28.8673,69.80,66.20,88.34,260.00,6.00,0.00,29.94,M,10.00,M,SCT,SCT,M,M,1400.00,2300.00,M,M,M,KCGC 010235Z AUTO 26006KT 10SM SCT014 SCT023 21/19 A2994 RMK AO2
CGC,2017-04-01 02:55,-82.5713,28.8673,69.80,66.20,88.34,260.00,5.00,0.00,29.94,M,10.00,M,SCT,M,M,M,2300.00,M,M,M,M,KCGC 010255Z AUTO 26005KT 10SM SCT023 21/19 A2994 RMK AO2
CGC,2017-04-01 03:15,-82.5713,28.8673,69.80,66.20,88.34,260.00,6.00,0.00,29.94,M,10.00,M,SCT,BKN,M,M,1600.00,2500.00,M,M,M,KCGC 010315Z AUTO 26006KT 10SM SCT016 BKN025 21/19 A2994 RMK AO2
CGC,2017-04-01 03:35,-82.5713,28.8673,71.60,68.00,88.43,260.00,5.00,0.00,29.95,M,10.00,M,BKN,OVC,M,M,1500.00,2500.00,M,M,M,KCGC 010335Z AUTO 26005KT 10SM BKN015 OVC025 22/20 A2995 RMK AO2
CGC,2017-04-01 03:55,-82.5713,28.8673,69.80,66.20,88.34,260.00,7.00,0.00,29.95,M,10.00,M,BKN,BKN,M,M,1500.00,2800.00,M,M,M,KCGC 010355Z AUTO 26007KT 10SM BKN015 BKN028 21/19 A2995 RMK AO2
CGC,2017-04-01 04:15,-82.5713,28.8673,69.80,66.20,88.34,260.00,6.00,0.00,29.95,M,10.00,M,SCT,BKN,M,M,1700.00,2600.00,M,M,M,KCGC 010415Z AUTO 26006KT 10SM SCT017 BKN026 21/19 A2995 RMK AO2
CGC,2017-04-01 04:35,-82.5713,28.8673,69.80,66.20,88.34,260.00,7.00,0.00,29.96,M,10.00,M,SCT,SCT,BKN,M,1700.00,2300.00,2800.00,M,M,KCGC 010435Z AUTO 26007KT 10SM SCT017 SCT023 BKN028 21/19 A2996 RMK AO2
CGC,2017-04-01 04:55,-82.5713,28.8673,69.80,66.20,88.34,270.00,5.00,0.00,29.96,M,10.00,M,SCT,SCT,M,M,1500.00,2300.00,M,M,M,KCGC 010455Z AUTO 27005KT 10SM SCT015 SCT023 21/19 A2996 RMK AO2
CGC,2017-04-01 05:15,-82.5713,28.8673,69.80,66.20,88.34,260.00,6.00,0.00,29.97,M,10.00,M,SCT,BKN,M,M,1700.00,2300.00,M,M,M,KCGC 010515Z AUTO 26006KT 10SM SCT017 BKN023 21/19 A2997 RMK AO2
CGC,2017-04-01 05:35,-82.5713,28.8673,69.80,66.20,88.34,270.00,6.00,0.00,29.96,M,10.00,M,SCT,BKN,M,M,1400.00,2300.00,M,M,M,KCGC 010535Z AUTO 27006KT 10SM SCT014 BKN023 21/19 A2996 RMK AO2
CGC,2017-04-01 05:55,-82.5713,28.8673,69.80,64.40,82.98,270.00,7.00,0.00,29.96,M,10.00,M,SCT,BKN,M,M,1500.00,2300.00,M,M,M,KCGC 010555Z AUTO 27007KT 10SM SCT015 BKN023 21/18 A2996 RMK AO2
CGC,2017-04-01 06:15,-82.5713,28.8673,69.80,64.40,82.98,260.00,3.00,0.00,29.96,M,10.00,M,BKN,BKN,M,M,1600.00,2300.00,M,M,M,KCGC 010615Z AUTO 26003KT 10SM BKN016 BKN023 21/18 A2996 RMK AO2
CGC,2017-04-01 06:35,-82.5713,28.8673,69.80,64.40,82.98,270.00,4.00,0.00,29.96,M,10.00,M,SCT,OVC,M,M,1500.00,2200.00,M,M,M,KCGC 010635Z AUTO 27004KT 10SM SCT015 OVC022 21/18 A2996 RMK AO2
CGC,2017-04-01 06:55,-82.5713,28.8673,69.80,64.40,82.98,270.00,4.00,0.00,29.97,M,10.00,M,BKN,M,M,M,2300.00,M,M,M,M,KCGC 010655Z AUTO 27004KT 10SM BKN023 21/18 A2997 RMK AO2
CGC,2017-04-01 07:15,-82.5713,28.8673,68.00,62.60,82.86,270.00,4.00,0.00,29.96,M,10.00,M,BKN,BKN,M,M,2300.00,2900.00,M,M,M,KCGC 010715Z AUTO 27004KT 10SM BKN023 BKN029 20/17 A2996 RMK AO2
CGC,2017-04-01 07:35,-82.5713,28.8673,68.00,64.40,88.26,0.00,0.00,0.00,29.96,M,10.00,M,BKN,BKN,M,M,2100.00,2700.00,M,M,M,KCGC 010735Z AUTO 00000KT 10SM BKN021 BKN027 20/18 A2996 RMK AO2
CGC,2017-04-01 07:55,-82.5713,28.8673,68.00,62.60,82.86,270.00,3.00,0.00,29.96,M,10.00,M,SCT,SCT,M,M,1900.00,2700.00,M,M,M,KCGC 010755Z AUTO 27003KT 10SM SCT019 SCT027 20/17 A2996 RMK AO2
CGC,2017-04-01 08:15,-82.5713,28.8673,68.00,62.60,82.86,0.00,0.00,0.00,29.97,M,10.00,M,CLR,M,M,M,M,M,M,M,M,KCGC 010815Z AUTO 00000KT 10SM CLR 20/17 A2997 RMK AO2
CGC,2017-04-01 08:35,-82.5713,28.8673,62.60,60.80,93.83,0.00,0.00,0.00,29.96,M,10.00,M,CLR,M,M,M,M,M,M,M,M,KCGC 010835Z AUTO 00000KT 10SM CLR 17/16 A2996 RMK AO2
CGC,2017-04-01 08:55,-82.5713,28.8673,60.80,60.80,100.00,0.00,0.00,0.00,29.96,M,7.00,M,CLR,M,M,M,M,M,M,M,M,KCGC 010855Z AUTO 00000KT 7SM CLR 16/16 A2996 RMK AO2
CGC,2017-04-01 09:15,-82.5713,28.8673,60.80,59.00,93.79,0.00,0.00,0.00,29.97,M,10.00,M,CLR,M,M,M,M,M,M,M,M,KCGC 010915Z AUTO 00000KT 10SM CLR 16/15 A2997 RMK AO2
CGC,2017-04-01 09:35,-82.5713,28.8673,59.00,59.00,100.00,0.00,0.00,0.00,29.97,M,5.00,M,CLR,M,M,M,M,M,M,M,BR,KCGC 010935Z AUTO 00000KT 5SM BR CLR 15/15 A2997 RMK AO2
CGC,2017-04-01 09:55,-82.5713,28.8673,59.00,59.00,100.00,0.00,0.00,0.00,29.98,M,4.00,M,CLR,M,M,M,M,M,M,M,BR,KCGC 010955Z AUTO 00000KT 4SM BR CLR 15/15 A2998 RMK AO2
CGC,2017-04-01 10:15,-82.5713,28.8673,59.00,59.00,100.00,0.00,0.00,0.00,29.98,M,4.00,M,CLR,M,M,M,M,M,M,M,BR,KCGC 011015Z AUTO 00000KT 4SM BR CLR 15/15 A2998 RMK AO2
CGC,2017-04-01 10:35,-82.5713,28.8673,55.40,55.40,100.00,0.00,0.00,0.00,30.00,M,10.00,M,SCT,SCT,M,M,600.00,2200.00,M,M,M,KCGC 011035Z AUTO 00000KT 10SM SCT006 SCT022 13/13 A3000 RMK AO2
CGC,2017-04-01 10:55,-82.5713,28.8673,57.20,57.20,100.00,0.00,0.00,0.00,30.00,M,4.00,M,BKN,OVC,M,M,200.00,700.00,M,M,BR,KCGC 011055Z AUTO 00000KT 4SM BR BKN002 OVC007 14/14 A3000 RMK AO2
CGC,2017-04-01 11:15,-82.5713,28.8673,55.40,55.40,100.00,0.00,0.00,0.00,30.01,M,7.00,M,SCT,M,M,M,200.00,M,M,M,M,KCGC 011115Z AUTO 00000KT 7SM SCT002 13/13 A3001 RMK AO2
CGC,2017-04-01 11:35,-82.5713,28.8673,55.40,55.40,100.00,0.00,0.00,0.00,30.01,M,10.00,M,BKN,M,M,M,200.00,M,M,M,M,KCGC 011135Z AUTO 00000KT 10SM BKN002 13/13 A3001 RMK AO2
CGC,2017-04-01 11:55,-82.5713,28.8673,57.20,55.40,93.69,0.00,0.00,0.00,30.02,M,10.00,M,SCT,M,M,M,200.00,M,M,M,M,KCGC 011155Z AUTO 00000KT 10SM SCT002 14/13 A3002 RMK AO2
CGC,2017-04-01 12:15,-82.5713,28.8673,59.00,59.00,100.00,0.00,0.00,0.00,30.03,M,10.00,M,CLR,M,M,M,M,M,M,M,M,KCGC 011215Z AUTO 00000KT 10SM CLR 15/15 A3003 RMK AO2
CGC,2017-04-01 12:35,-82.5713,28.8673,62.60,60.80,93.83,0.00,0.00,0.00,30.03,M,10.00,M,CLR,M,M,M,M,M,M,M,M,KCGC 011235Z AUTO 00000KT 10SM CLR 17/16 A3003 RMK AO2
CGC,2017-04-01 12:55,-82.5713,28.8673,68.00,62.60,82.86,350.00,4.00,0.00,30.03,M,10.00,M,CLR,M,M,M,M,M,M,M,M,KCGC 011255Z AUTO 35004KT 10SM CLR 20/17 A3003 RMK AO2
CGC,2017-04-01 13:15,-82.5713,28.8673,69.80,64.40,82.98,360.00,5.00,0.00,30.04,M,10.00,M,CLR,M,M,M,M,M,M,M,M,KCGC 011315Z AUTO 36005KT 10SM CLR 21/18 A3004 RMK AO2
CGC,2017-04-01 13:35,-82.5713,28.8673,71.60,64.40,78.04,350.00,6.00,0.00,30.04,M,10.00,M,CLR,M,M,M,M,M,M,M,M,KCGC 011335Z AUTO 35006KT 10SM CLR 22/18 A3004 RMK AO2
CGC,2017-04-01 13:55,-82.5713,28.8673,73.40,62.60,68.94,330.00,5.00,0.00,30.05,M,10.00,M,CLR,M,M,M,M,M,M,M,M,KCGC 011355Z AUTO 33005KT 10SM CLR 23/17 A3005 RMK AO2
CGC,2017-04-01 14:15,-82.5713,28.8673,73.40,60.80,64.69,10.00,4.00,0.00,30.06,M,10.00,M,CLR,M,M,M,M,M,M,M,M,KCGC 011415Z AUTO 01004KT 10SM CLR 23/16 A3006 RMK AO2
CGC,2017-04-01 14:35,-82.5713,28.8673,75.20,59.00,57.12,40.00,6.00,0.00,30.06,M,10.00,M,CLR,M,M,M,M,M,M,M,M,KCGC 011435Z AUTO 04006KT 10SM CLR 24/15 A3006 RMK AO2
CGC,2017-04-01 14:55,-82.5713,28.8673,77.00,57.20,50.43,20.00,4.00,0.00,30.06,M,10.00,M,CLR,M,M,M,M,M,M,M,M,KCGC 011455Z AUTO 02004KT 10SM CLR 25/14 A3006 RMK AO2
CGC,2017-04-01 15:15,-82.5713,28.8673,78.80,55.40,44.52,20.00,4.00,0.00,30.06,M,10.00,M,CLR,M,M,M,M,M,M,M,M,KCGC 011515Z AUTO 02004KT 10SM CLR 26/13 A3006 RMK AO2
CGC,2017-04-01 15:35,-82.5713,28.8673,78.80,53.60,41.69,70.00,5.00,0.00,30.06,M,10.00,M,CLR,M,M,M,M,M,M,M,M,KCGC 011535Z AUTO 07005KT 10SM CLR 26/12 A3006 RMK AO2
CGC,2017-04-01 15:55,-82.5713,28.8673,80.60,53.60,39.30,100.00,5.00,0.00,30.06,M,10.00,M,CLR,M,M,M,M,M,M,M,M,KCGC 011555Z AUTO 10005KT 10SM CLR 27/12 A3006 RMK AO2
CGC,2017-04-01 16:15,-82.5713,28.8673,80.60,53.60,39.30,90.00,5.00,0.00,30.05,M,10.00,M,CLR,M,M,M,M,M,M,M,M,KCGC 011615Z AUTO 09005KT 10SM CLR 27/12 A3005 RMK AO2
CGC,2017-04-01 16:35,-82.5713,28.8673,82.40,51.80,34.69,320.00,4.00,0.00,30.04,M,10.00,M,CLR,M,M,M,M,M,M,M,M,KCGC 011635Z AUTO 32004KT 10SM CLR 28/11 A3004 RMK AO2
CGC,2017-04-01 16:55,-82.5713,28.8673,82.40,51.80,34.69,330.00,4.00,0.00,30.04,M,10.00,M,CLR,M,M,M,M,M,M,M,M,KCGC 011655Z AUTO 33004KT 10SM CLR 28/11 A3004 RMK AO2
CGC,2017-04-01 17:15,-82.5713,28.8673,86.00,51.80,30.90,40.00,4.00,0.00,30.03,M,10.00,M,CLR,M,M,M,M,M,M,M,M,KCGC 011715Z AUTO 04004KT 10SM CLR 30/11 A3003 RMK AO2
CGC,2017-04-01 17:35,-82.5713,28.8673,84.20,50.00,30.62,30.00,3.00,0.00,30.03,M,10.00,M,CLR,M,M,M,M,M,M,M,M,KCGC 011735Z AUTO 03003KT 10SM CLR 29/10 A3003 RMK AO2
CGC,2017-04-01 17:55,-82.5713,28.8673,86.00,50.00,28.90,60.00,5.00,0.00,30.02,M,10.00,M,CLR,M,M,M,M,M,M,M,M,KCGC 011755Z AUTO 06005KT 10SM CLR 30/10 A3002 RMK AO2
CGC,2017-04-01 18:15,-82.5713,28.8673,86.00,48.20,27.03,260.00,6.00,0.00,30.01,M,10.00,M,CLR,M,M,M,M,M,M,M,M,KCGC 011815Z AUTO 26006KT 10SM CLR 30/09 A3001 RMK AO2
CGC,2017-04-01 18:35,-82.5713,28.8673,86.00,53.60,33.01,250.00,5.00,0.00,30.00,M,10.00,M,CLR,M,M,M,M,M,M,M,M,KCGC 011835Z AUTO 25005KT 10SM CLR 30/12 A3000 RMK AO2
CGC,2017-04-01 18:55,-82.5713,28.8673,86.00,57.20,37.62,280.00,9.00,0.00,30.00,M,10.00,M,CLR,M,M,M,M,M,M,M,M,KCGC 011855Z AUTO 28009KT 10SM CLR 30/14 A3000 RMK AO2
CGC,2017-04-01 19:15,-82.5713,28.8673,82.40,55.40,39.58,290.00,7.00,0.00,30.00,M,10.00,M,CLR,M,M,M,M,M,M,M,M,KCGC 011915Z AUTO 29007KT 10SM CLR 28/13 A3000 RMK AO2
CGC,2017-04-01 19:35,-82.5713,28.8673,86.00,53.60,33.01,270.00,9.00,0.00,29.99,M,10.00,M,CLR,M,M,M,M,M,M,M,M,KCGC 011935Z AUTO 27009KT 10SM CLR 30/12 A2999 RMK AO2
CGC,2017-04-01 19:55,-82.5713,28.8673,86.00,53.60,33.01,280.00,8.00,0.00,29.99,M,10.00,M,CLR,M,M,M,M,M,M,M,M,KCGC 011955Z AUTO 28008KT 10SM CLR 30/12 A2999 RMK AO2
CGC,2017-04-01 20:15,-82.5713,28.8673,84.20,55.40,37.35,290.00,8.00,0.00,29.99,M,10.00,16.00,CLR,M,M,M,M,M,M,M,M,KCGC 012015Z AUTO 29008G16KT 10SM CLR 29/13 A2999 RMK AO2
CGC,2017-04-01 20:35,-82.5713,28.8673,82.40,57.20,42.25,290.00,8.00,0.00,29.98,M,10.00,15.00,CLR,M,M,M,M,M,M,M,M,KCGC 012035Z AUTO 29008G15KT 10SM CLR 28/14 A2998 RMK AO2
CGC,2017-04-01 20:55,-82.5713,28.8673,82.40,55.40,39.58,270.00,8.00,0.00,29.98,M,10.00,M,CLR,M,M,M,M,M,M,M,M,KCGC 012055Z AUTO 27008KT 10SM CLR 28/13 A2998 RMK AO2
CGC,2017-04-01 21:15,-82.5713,28.8673,82.40,51.80,34.69,270.00,7.00,0.00,29.99,M,10.00,M,CLR,M,M,M,M,M,M,M,M,KCGC 012115Z AUTO 27007KT 10SM CLR 28/11 A2999 RMK AO2
CGC,2017-04-01 21:35,-82.5713,28.8673,82.40,57.20,42.25,280.00,7.00,0.00,29.99,M,10.00,M,CLR,M,M,M,M,M,M,M,M,KCGC 012135Z AUTO 28007KT 10SM CLR 28/14 A2999 RMK AO2
CGC,2017-04-01 21:55,-82.5713,28.8673,80.60,57.20,44.80,280.00,8.00,0.00,30.00,M,10.00,M,CLR,M,M,M,M,M,M,M,M,KCGC 012155Z AUTO 28008KT 10SM CLR 27/14 A3000 RMK AO2
CGC,2017-04-01 22:15,-82.5713,28.8673,77.00,59.00,53.80,280.00,7.00,0.00,30.00,M,10.00,M,CLR,M,M,M,M,M,M,M,M,KCGC 012215Z AUTO 28007KT 10SM CLR 25/15 A3000 RMK AO2
CGC,2017-04-01 22:35,-82.5713,28.8673,78.80,59.00,50.69,280.00,6.00,0.00,30.01,M,10.00,M,CLR,M,M,M,M,M,M,M,M,KCGC 012235Z AUTO 28006KT 10SM CLR 26/15 A3001 RMK AO2
CGC,2017-04-01 22:55,-82.5713,28.8673,77.00,59.00,53.80,270.00,6.00,0.00,30.01,M,10.00,M,CLR,M,M,M,M,M,M,M,M,KCGC 012255Z AUTO 27006KT 10SM CLR 25/15 A3001 RMK AO2
CGC,2017-04-01 23:15,-82.5713,28.8673,77.00,59.00,53.80,270.00,5.00,0.00,30.01,M,10.00,M,CLR,M,M,M,M,M,M,M,M,KCGC 012315Z AUTO 27005KT 10SM CLR 25/15 A3001 RMK AO2
CGC,2017-04-01 23:35,-82.5713,28.8673,73.40,59.00,60.67,270.00,4.00,0.00,30.01,M,10.00,M,CLR,M,M,M,M,M,M,M,M,KCGC 012335Z AUTO 27004KT 10SM CLR 23/15 A3001 RMK AO2
CGC,2017-04-01 23:55,-82.5713,28.8673,71.60,59.00,64.48,0.00,0.00,0.00,30.02,M,10.00,M,CLR,M,M,M,M,M,M,M,M,KCGC 012355Z AUTO 00000KT 10SM CLR 22/15 A3002 RMK AO2
