#DEBUG: Format Typ    -> comma
#DEBUG: Time Period   -> 2017-04-01 00:00:00+00:00 2017-04-02 00:00:00+00:00
#DEBUG: Time Zone     -> Etc/UTC
#DEBUG: Data Contact   -> daryl herzmann akrherz@iastate.edu 515-294-5978
#DEBUG: Entries Found -> -1
station,valid,lon,lat,tmpf, dwpf, relh, drct, sknt, p01i, alti, mslp, vsby, gust, skyc1, skyc2, skyc3, skyc4, skyl1, skyl2, skyl3, skyl4, presentwx, metar
CGI,2017-04-01 00:00,-89.5708,37.2253,M,M,M,10.00,9.00,M,29.96,M,10.00,M,OVC,M,M,M,3100.00,M,M,M,M,KCGI 010000Z AUTO 01009KT 10SM OVC031 A2996 RMK MADISHF
CGI,2017-04-01 00:05,-89.5708,37.2253,M,M,M,10.00,8.00,M,29.97,M,10.00,M,OVC,M,M,M,3100.00,M,M,M,M,KCGI 010005Z AUTO 01008KT 10SM OVC031 A2997 RMK MADISHF
CGI,2017-04-01 00:20,-89.5708,37.2253,M,M,M,360.00,7.00,M,29.97,M,10.00,M,OVC,M,M,M,3100.00,M,M,M,M,KCGI 010020Z AUTO 36007KT 10SM OVC031 A2997 RMK MADISHF
CGI,2017-04-01 00:25,-89.5708,37.2253,M,M,M,10.00,7.00,M,29.97,M,10.00,M,OVC,M,M,M,3100.00,M,M,M,M,KCGI 010025Z AUTO 01007KT 10SM OVC031 A2997 RMK MADISHF
CGI,2017-04-01 00:30,-89.5708,37.2253,M,M,M,20.00,8.00,M,29.97,M,10.00,M,OVC,M,M,M,3100.00,M,M,M,M,KCGI 010030Z AUTO 02008KT 10SM OVC031 A2997 RMK MADISHF
CGI,2017-04-01 00:35,-89.5708,37.2253,M,M,M,10.00,8.00,M,29.98,M,10.00,M,OVC,M,M,M,3000.00,M,M,M,M,KCGI 010035Z AUTO 01008KT 10SM OVC030 A2998 RMK MADISHF
CGI,2017-04-01 00:40,-89.5708,37.2253,M,M,M,10.00,8.00,M,29.98,M,10.00,M,OVC,M,M,M,3000.00,M,M,M,M,KCGI 010040Z AUTO 01008KT 10SM OVC030 A2998 RMK MADISHF
CGI,2017-04-01 00:45,-89.5708,37.2253,M,M,M,10.00,7.00,M,29.98,M,10.00,M,OVC,M,M,M,3000.00,M,M,M,M,KCGI 010045Z AUTO 01007KT 10SM OVC030 A2998 RMK MADISHF
CGI,2017-04-01 00:50,-89.5708,37.2253,M,M,M,360.00,7.00,M,29.98,M,10.00,M,OVC,M,M,M,3000.00,M,M,M,M,KCGI 010050Z AUTO 36007KT 10SM OVC030 A2998 RMK MADISHF
CGI,2017-04-01 00:53,-89.5708,37.2253,53.10,42.10,66.13,20.00,6.00,0.00,29.98,1015.20,10.00,M,OVC,M,M,M,3000.00,M,M,M,M,KCGI 010053Z AUTO 02006KT 10SM OVC030 12/06 A2998 RMK AO2 SLP152 T01170056
CGI,2017-04-01 00:55,-89.5708,37.2253,M,M,M,10.00,7.00,M,29.98,M,10.00,M,OVC,M,M,M,3000.00,M,M,M,M,KCGI 010055Z AUTO 01007KT 10SM OVC030 A2998 RMK MADISHF
CGI,2017-04-01 01:00,-89.5708,37.2253,M,M,M,10.00,6.00,M,29.98,M,10.00,M,OVC,M,M,M,3000.00,M,M,M,M,KCGI 010100Z AUTO 01006KT 10SM OVC030 A2998 RMK MADISHF
CGI,2017-04-01 01:05,-89.5708,37.2253,M,M,M,30.00,7.00,M,29.99,M,10.00,M,OVC,M,M,M,3000.00,M,M,M,M,KCGI 010105Z AUTO 03007KT 10SM OVC030 A2999 RMK MADISHF
CGI,2017-04-01 01:10,-89.5708,37.2253,M,M,M,30.00,7.00,M,29.99,M,10.00,M,OVC,M,M,M,3000.00,M,M,M,M,KCGI 010110Z AUTO 03007KT 10SM OVC030 A2999 RMK MADISHF
CGI,2017-04-01 01:15,-89.5708,37.2253,M,M,M,30.00,4.00,M,29.99,M,10.00,M,OVC,M,M,M,3000.00,M,M,M,M,KCGI 010115Z AUTO 03004KT 10SM OVC030 A2999 RMK MADISHF
CGI,2017-04-01 01:20,-89.5708,37.2253,M,M,M,30.00,5.00,M,30.00,M,10.00,M,OVC,M,M,M,3000.00,M,M,M,M,KCGI 010120Z AUTO 03005KT 10SM OVC030 A3000 RMK MADISHF
CGI,2017-04-01 01:25,-89.5708,37.2253,M,M,M,20.00,6.00,M,30.00,M,10.00,M,OVC,M,M,M,2900.00,M,M,M,M,KCGI 010125Z AUTO 02006KT 10SM OVC029 A3000 RMK MADISHF
CGI,2017-04-01 01:28,-89.5708,37.2253,52.00,43.00,71.28,30.00,6.00,0.00,30.00,M,10.00,M,OVC,M,M,M,2900.00,M,M,M,M,KCGI 010128Z AUTO 03006KT 10SM OVC029 11/06 A3000 RMK AO2 T01110061
CGI,2017-04-01 01:30,-89.5708,37.2253,M,M,M,30.00,6.00,M,30.00,M,10.00,M,OVC,M,M,M,2900.00,M,M,M,M,KCGI 010130Z AUTO 03006KT 10SM OVC029 A3000 RMK MADISHF
CGI,2017-04-01 01:35,-89.5708,37.2253,M,M,M,20.00,8.00,M,30.00,M,10.00,M,OVC,M,M,M,2900.00,M,M,M,M,KCGI 010135Z AUTO 02008KT 10SM OVC029 A3000 RMK MADISHF
CGI,2017-04-01 01:45,-89.5708,37.2253,M,M,M,30.00,9.00,M,30.01,M,10.00,M,OVC,M,M,M,2900.00,M,M,M,M,KCGI 010145Z AUTO 03009KT 10SM OVC029 A3001 RMK MADISHF
CGI,2017-04-01 01:50,-89.5708,37.2253,M,M,M,30.00,7.00,M,30.01,M,10.00,M,OVC,M,M,M,2800.00,M,M,M,M,KCGI 010150Z AUTO 03007KT 10SM OVC028 A3001 RMK MADISHF
CGI,2017-04-01 01:53,-89.5708,37.2253,52.00,43.00,71.28,30.00,7.00,0.00,30.01,1016.20,10.00,M,OVC,M,M,M,2800.00,M,M,M,M,KCGI 010153Z AUTO 03007KT 10SM OVC028 11/06 A3001 RMK AO2 SLP162 T01110061
CGI,2017-04-01 01:55,-89.5708,37.2253,M,M,M,30.00,6.00,M,30.01,M,10.00,M,OVC,M,M,M,2800.00,M,M,M,M,KCGI 010155Z AUTO 03006KT 10SM OVC028 A3001 RMK MADISHF
CGI,2017-04-01 02:00,-89.5708,37.2253,M,M,M,40.00,9.00,M,30.01,M,10.00,M,OVC,M,M,M,2800.00,M,M,M,M,KCGI 010200Z AUTO 04009KT 10SM OVC028 A3001 RMK MADISHF
CGI,2017-04-01 02:05,-89.5708,37.2253,M,M,M,40.00,10.00,M,30.01,M,10.00,M,OVC,M,M,M,2800.00,M,M,M,M,KCGI 010205Z AUTO 04010KT 10SM OVC028 A3001 RMK MADISHF
CGI,2017-04-01 02:10,-89.5708,37.2253,M,M,M,40.00,9.00,M,30.01,M,10.00,M,OVC,M,M,M,2800.00,M,M,M,M,KCGI 010210Z AUTO 04009KT 10SM OVC028 A3001 RMK MADISHF
CGI,2017-04-01 02:25,-89.5708,37.2253,M,M,M,30.00,8.00,M,30.02,M,10.00,M,OVC,M,M,M,2700.00,M,M,M,M,KCGI 010225Z AUTO 03008KT 10SM OVC027 A3002 RMK MADISHF
CGI,2017-04-01 02:30,-89.5708,37.2253,M,M,M,30.00,7.00,M,30.02,M,10.00,M,OVC,M,M,M,2700.00,M,M,M,M,KCGI 010230Z AUTO 03007KT 10SM OVC027 A3002 RMK MADISHF
CGI,2017-04-01 02:35,-89.5708,37.2253,M,M,M,20.00,6.00,M,30.03,M,10.00,M,OVC,M,M,M,2500.00,M,M,M,M,KCGI 010235Z AUTO 02006KT 10SM OVC025 A3003 RMK MADISHF
CGI,2017-04-01 02:40,-89.5708,37.2253,M,M,M,30.00,8.00,M,30.03,M,10.00,M,OVC,M,M,M,2500.00,M,M,M,M,KCGI 010240Z AUTO 03008KT 10SM OVC025 A3003 RMK MADISHF
CGI,2017-04-01 02:45,-89.5708,37.2253,M,M,M,20.00,6.00,M,30.03,M,10.00,M,OVC,M,M,M,2500.00,M,M,M,M,KCGI 010245Z AUTO 02006KT 10SM OVC025 A3003 RMK MADISHF
CGI,2017-04-01 02:50,-89.5708,37.2253,M,M,M,20.00,5.00,M,30.03,M,10.00,M,OVC,M,M,M,2500.00,M,M,M,M,KCGI 010250Z AUTO 02005KT 10SM OVC025 A3003 RMK MADISHF
CGI,2017-04-01 02:53,-89.5708,37.2253,51.10,43.00,73.69,20.00,8.00,0.00,30.03,1016.90,10.00,M,OVC,M,M,M,2500.00,M,M,M,M,KCGI 010253Z AUTO 02008KT 10SM OVC025 11/06 A3003 RMK AO2 SLP169 T01060061 51024
CGI,2017-04-01 02:55,-89.5708,37.2253,M,M,M,20.00,8.00,M,30.03,M,10.00,M,OVC,M,M,M,2500.00,M,M,M,M,KCGI 010255Z AUTO 02008KT 10SM OVC025 A3003 RMK MADISHF
CGI,2017-04-01 03:00,-89.5708,37.2253,M,M,M,20.00,9.00,M,30.04,M,10.00,M,OVC,M,M,M,2500.00,M,M,M,M,KCGI 010300Z AUTO 02009KT 10SM OVC025 A3004 RMK MADISHF
CGI,2017-04-01 03:05,-89.5708,37.2253,M,M,M,20.00,7.00,M,30.04,M,10.00,M,OVC,M,M,M,2500.00,M,M,M,M,KCGI 010305Z AUTO 02007KT 10SM OVC025 A3004 RMK MADISHF
CGI,2017-04-01 03:10,-89.5708,37.2253,M,M,M,30.00,6.00,M,30.05,M,10.00,M,OVC,M,M,M,2500.00,M,M,M,M,KCGI 010310Z AUTO 03006KT 10SM OVC025 A3005 RMK MADISHF
CGI,2017-04-01 03:15,-89.5708,37.2253,M,M,M,20.00,5.00,M,30.05,M,10.00,M,OVC,M,M,M,2500.00,M,M,M,M,KCGI 010315Z AUTO 02005KT 10SM OVC025 A3005 RMK MADISHF
CGI,2017-04-01 03:20,-89.5708,37.2253,M,M,M,360.00,6.00,M,30.05,M,10.00,M,OVC,M,M,M,2500.00,M,M,M,M,KCGI 010320Z AUTO 36006KT 10SM OVC025 A3005 RMK MADISHF
CGI,2017-04-01 03:25,-89.5708,37.2253,M,M,M,360.00,6.00,M,30.05,M,10.00,M,OVC,M,M,M,2500.00,M,M,M,M,KCGI 010325Z AUTO 36006KT 10SM OVC025 A3005 RMK MADISHF
CGI,2017-04-01 03:30,-89.5708,37.2253,M,M,M,10.00,7.00,M,30.05,M,10.00,M,OVC,M,M,M,2500.00,M,M,M,M,KCGI 010330Z AUTO 01007KT 10SM OVC025 A3005 RMK MADISHF
CGI,2017-04-01 03:35,-89.5708,37.2253,M,M,M,10.00,8.00,M,30.05,M,10.00,M,OVC,M,M,M,2500.00,M,M,M,M,KCGI 010335Z AUTO 01008KT 10SM OVC025 A3005 RMK MADISHF
CGI,2017-04-01 03:40,-89.5708,37.2253,M,M,M,360.00,8.00,M,30.05,M,10.00,M,OVC,M,M,M,2500.00,M,M,M,M,KCGI 010340Z AUTO 36008KT 10SM OVC025 A3005 RMK MADISHF
CGI,2017-04-01 03:45,-89.5708,37.2253,M,M,M,10.00,7.00,M,30.05,M,10.00,M,OVC,M,M,M,2500.00,M,M,M,M,KCGI 010345Z AUTO 01007KT 10SM OVC025 A3005 RMK MADISHF
CGI,2017-04-01 03:53,-89.5708,37.2253,50.00,42.10,74.15,10.00,6.00,0.00,30.05,1017.50,10.00,M,OVC,M,M,M,2500.00,M,M,M,M,KCGI 010353Z AUTO 01006KT 10SM OVC025 10/06 A3005 RMK AO2 SLP175 T01000056
CGI,2017-04-01 03:55,-89.5708,37.2253,M,M,M,10.00,8.00,M,30.05,M,10.00,M,OVC,M,M,M,2500.00,M,M,M,M,KCGI 010355Z AUTO 01008KT 10SM OVC025 A3005 RMK MADISHF
CGI,2017-04-01 04:00,-89.5708,37.2253,M,M,M,360.00,9.00,M,30.06,M,10.00,M,OVC,M,M,M,2500.00,M,M,M,M,KCGI 010400Z AUTO 36009KT 10SM OVC025 A3006 RMK MADISHF
CGI,2017-04-01 04:05,-89.5708,37.2253,M,M,M,10.00,9.00,M,30.06,M,10.00,M,OVC,M,M,M,2500.00,M,M,M,M,KCGI 010405Z AUTO 01009KT 10SM OVC025 A3006 RMK MADISHF
CGI,2017-04-01 04:10,-89.5708,37.2253,M,M,M,10.00,9.00,M,30.06,M,10.00,M,OVC,M,M,M,2500.00,M,M,M,M,KCGI 010410Z AUTO 01009KT 10SM OVC025 A3006 RMK MADISHF
CGI,2017-04-01 04:15,-89.5708,37.2253,M,M,M,10.00,6.00,M,30.06,M,10.00,M,OVC,M,M,M,2500.00,M,M,M,M,KCGI 010415Z AUTO 01006KT 10SM OVC025 A3006 RMK MADISHF
CGI,2017-04-01 04:20,-89.5708,37.2253,M,M,M,10.00,8.00,M,30.06,M,10.00,M,OVC,M,M,M,2500.00,M,M,M,M,KCGI 010420Z AUTO 01008KT 10SM OVC025 A3006 RMK MADISHF
CGI,2017-04-01 04:25,-89.5708,37.2253,M,M,M,10.00,8.00,M,30.06,M,10.00,M,OVC,M,M,M,2500.00,M,M,M,M,KCGI 010425Z AUTO 01008KT 10SM OVC025 A3006 RMK MADISHF
CGI,2017-04-01 04:30,-89.5708,37.2253,M,M,M,340.00,9.00,M,30.06,M,10.00,M,OVC,M,M,M,2500.00,M,M,M,M,KCGI 010430Z AUTO 34009KT 10SM OVC025 A3006 RMK MADISHF
CGI,2017-04-01 04:45,-89.5708,37.2253,M,M,M,360.00,8.00,M,30.06,M,10.00,M,OVC,M,M,M,2300.00,M,M,M,M,KCGI 010445Z AUTO 36008KT 10SM OVC023 A3006 RMK MADISHF
CGI,2017-04-01 04:50,-89.5708,37.2253,M,M,M,350.00,8.00,M,30.06,M,10.00,M,OVC,M,M,M,2300.00,M,M,M,M,KCGI 010450Z AUTO 35008KT 10SM OVC023 A3006 RMK MADISHF
CGI,2017-04-01 04:53,-89.5708,37.2253,50.00,41.00,71.07,350.00,9.00,0.00,30.06,1017.90,10.00,M,OVC,M,M,M,2100.00,M,M,M,M,KCGI 010453Z AUTO 35009KT 10SM OVC021 10/05 A3006 RMK AO2 SLP179 T01000050
CGI,2017-04-01 04:55,-89.5708,37.2253,M,M,M,360.00,7.00,M,30.06,M,10.00,M,OVC,M,M,M,2100.00,M,M,M,M,KCGI 010455Z AUTO 36007KT 10SM OVC021 A3006 RMK MADISHF
CGI,2017-04-01 05:00,-89.5708,37.2253,M,M,M,360.00,9.00,M,30.07,M,10.00,M,OVC,M,M,M,2100.00,M,M,M,M,KCGI 010500Z AUTO 36009KT 10SM OVC021 A3007 RMK MADISHF
CGI,2017-04-01 05:05,-89.5708,37.2253,M,M,M,20.00,10.00,M,30.07,M,10.00,M,OVC,M,M,M,2100.00,M,M,M,M,KCGI 010505Z AUTO 02010KT 10SM OVC021 A3007 RMK MADISHF
CGI,2017-04-01 05:10,-89.5708,37.2253,M,M,M,10.00,10.00,M,30.07,M,10.00,M,OVC,M,M,M,2100.00,M,M,M,M,KCGI 010510Z AUTO 01010KT 10SM OVC021 A3007 RMK MADISHF
CGI,2017-04-01 05:15,-89.5708,37.2253,M,M,M,10.00,10.00,M,30.07,M,10.00,M,OVC,M,M,M,1999.00,M,M,M,M,KCGI 010515Z AUTO 01010KT 10SM OVC019 A3007 RMK MADISHF
CGI,2017-04-01 05:20,-89.5708,37.2253,M,M,M,20.00,9.00,M,30.07,M,10.00,M,OVC,M,M,M,1999.00,M,M,M,M,KCGI 010520Z AUTO 02009KT 10SM OVC019 A3007 RMK MADISHF
CGI,2017-04-01 05:35,-89.5708,37.2253,M,M,M,30.00,8.00,M,30.08,M,10.00,M,OVC,M,M,M,1900.00,M,M,M,M,KCGI 010535Z AUTO 03008KT 10SM OVC019 A3008 RMK MADISHF
CGI,2017-04-01 05:40,-89.5708,37.2253,M,M,M,20.00,11.00,M,30.08,M,10.00,M,OVC,M,M,M,1900.00,M,M,M,M,KCGI 010540Z AUTO 02011KT 10SM OVC019 A3008 RMK MADISHF
CGI,2017-04-01 05:45,-89.5708,37.2253,M,M,M,30.00,10.00,M,30.08,M,10.00,M,OVC,M,M,M,1900.00,M,M,M,M,KCGI 010545Z AUTO 03010KT 10SM OVC019 A3008 RMK MADISHF
CGI,2017-04-01 05:50,-89.5708,37.2253,M,M,M,30.00,10.00,M,30.08,M,10.00,M,OVC,M,M,M,1900.00,M,M,M,M,KCGI 010550Z AUTO 03010KT 10SM OVC019 A3008 RMK MADISHF
CGI,2017-04-01 05:53,-89.5708,37.2253,48.00,42.10,79.91,30.00,10.00,0.00,30.08,1018.40,10.00,M,OVC,M,M,M,1900.00,M,M,M,M,KCGI 010553Z AUTO 03010KT 10SM OVC019 09/06 A3008 RMK AO2 SLP184 T00890056 10122 20089 401330089 51015
CGI,2017-04-01 05:55,-89.5708,37.2253,M,M,M,30.00,10.00,M,30.07,M,10.00,M,OVC,M,M,M,1900.00,M,M,M,M,KCGI 010555Z AUTO 03010KT 10SM OVC019 A3007 RMK MADISHF
CGI,2017-04-01 06:00,-89.5708,37.2253,M,M,M,30.00,9.00,M,30.07,M,10.00,M,OVC,M,M,M,1900.00,M,M,M,M,KCGI 010600Z AUTO 03009KT 10SM OVC019 A3007 RMK MADISHF
CGI,2017-04-01 06:05,-89.5708,37.2253,M,M,M,30.00,10.00,M,30.08,M,10.00,M,OVC,M,M,M,1900.00,M,M,M,M,KCGI 010605Z AUTO 03010KT 10SM OVC019 A3008 RMK MADISHF
CGI,2017-04-01 06:10,-89.5708,37.2253,M,M,M,10.00,11.00,M,30.08,M,10.00,M,OVC,M,M,M,1900.00,M,M,M,M,KCGI 010610Z AUTO 01011KT 10SM OVC019 A3008 RMK MADISHF
CGI,2017-04-01 06:15,-89.5708,37.2253,M,M,M,10.00,8.00,M,30.08,M,10.00,M,OVC,M,M,M,1900.00,M,M,M,M,KCGI 010615Z AUTO 01008KT 10SM OVC019 A3008 RMK MADISHF
CGI,2017-04-01 06:20,-89.5708,37.2253,M,M,M,20.00,9.00,M,30.08,M,10.00,M,OVC,M,M,M,1900.00,M,M,M,M,KCGI 010620Z AUTO 02009KT 10SM OVC019 A3008 RMK MADISHF
CGI,2017-04-01 06:25,-89.5708,37.2253,M,M,M,10.00,9.00,M,30.09,M,10.00,M,OVC,M,M,M,1900.00,M,M,M,M,KCGI 010625Z AUTO 01009KT 10SM OVC019 A3009 RMK MADISHF
CGI,2017-04-01 06:30,-89.5708,37.2253,M,M,M,10.00,10.00,M,30.09,M,10.00,M,OVC,M,M,M,1900.00,M,M,M,M,KCGI 010630Z AUTO 01010KT 10SM OVC019 A3009 RMK MADISHF
CGI,2017-04-01 06:35,-89.5708,37.2253,M,M,M,30.00,8.00,M,30.09,M,10.00,M,OVC,M,M,M,1900.00,M,M,M,M,KCGI 010635Z AUTO 03008KT 10SM OVC019 A3009 RMK MADISHF
CGI,2017-04-01 06:40,-89.5708,37.2253,M,M,M,40.00,8.00,M,30.09,M,10.00,M,OVC,M,M,M,1900.00,M,M,M,M,KCGI 010640Z AUTO 04008KT 10SM OVC019 A3009 RMK MADISHF
CGI,2017-04-01 06:45,-89.5708,37.2253,M,M,M,20.00,8.00,M,30.09,M,10.00,M,OVC,M,M,M,1900.00,M,M,M,M,KCGI 010645Z AUTO 02008KT 10SM OVC019 A3009 RMK MADISHF
CGI,2017-04-01 06:53,-89.5708,37.2253,48.00,39.90,73.38,30.00,11.00,0.00,30.08,1018.70,10.00,M,OVC,M,M,M,2000.00,M,M,M,M,KCGI 010653Z AUTO 03011KT 10SM OVC020 09/04 A3008 RMK AO2 SLP187 T00890044
CGI,2017-04-01 06:55,-89.5708,37.2253,M,M,M,40.00,9.00,M,30.08,M,10.00,M,OVC,M,M,M,1999.00,M,M,M,M,KCGI 010655Z AUTO 04009KT 10SM OVC019 A3008 RMK MADISHF
CGI,2017-04-01 07:00,-89.5708,37.2253,M,M,M,20.00,10.00,M,30.08,M,10.00,M,OVC,M,M,M,1999.00,M,M,M,M,KCGI 010700Z AUTO 02010KT 10SM OVC019 A3008 RMK MADISHF
CGI,2017-04-01 07:05,-89.5708,37.2253,M,M,M,20.00,9.00,M,30.08,M,10.00,M,OVC,M,M,M,1900.00,M,M,M,M,KCGI 010705Z AUTO 02009KT 10SM OVC019 A3008 RMK MADISHF
CGI,2017-04-01 07:10,-89.5708,37.2253,M,M,M,10.00,9.00,M,30.09,M,10.00,M,OVC,M,M,M,1900.00,M,M,M,M,KCGI 010710Z AUTO 01009KT 10SM OVC019 A3009 RMK MADISHF
CGI,2017-04-01 07:15,-89.5708,37.2253,M,M,M,40.00,12.00,M,30.09,M,10.00,M,OVC,M,M,M,1900.00,M,M,M,M,KCGI 010715Z AUTO 04012KT 10SM OVC019 A3009 RMK MADISHF
CGI,2017-04-01 07:20,-89.5708,37.2253,M,M,M,40.00,11.00,M,30.09,M,10.00,M,OVC,M,M,M,1900.00,M,M,M,M,KCGI 010720Z AUTO 04011KT 10SM OVC019 A3009 RMK MADISHF
CGI,2017-04-01 07:40,-89.5708,37.2253,M,M,M,30.00,8.00,M,30.10,M,10.00,M,OVC,M,M,M,1900.00,M,M,M,M,KCGI 010740Z AUTO 03008KT 10SM OVC019 A3010 RMK MADISHF
CGI,2017-04-01 07:45,-89.5708,37.2253,M,M,M,30.00,9.00,M,30.10,M,10.00,M,OVC,M,M,M,1900.00,M,M,M,M,KCGI 010745Z AUTO 03009KT 10SM OVC019 A3010 RMK MADISHF
CGI,2017-04-01 07:50,-89.5708,37.2253,M,M,M,20.00,7.00,M,30.11,M,10.00,M,OVC,M,M,M,1900.00,M,M,M,M,KCGI 010750Z AUTO 02007KT 10SM OVC019 A3011 RMK MADISHF
CGI,2017-04-01 07:53,-89.5708,37.2253,46.90,39.00,73.85,10.00,8.00,0.00,30.11,1019.50,10.00,M,OVC,M,M,M,1900.00,M,M,M,M,KCGI 010753Z AUTO 01008KT 10SM OVC019 08/04 A3011 RMK AO2 SLP195 T00830039
CGI,2017-04-01 07:55,-89.5708,37.2253,M,M,M,20.00,9.00,M,30.11,M,10.00,M,OVC,M,M,M,1900.00,M,M,M,M,KCGI 010755Z AUTO 02009KT 10SM OVC019 A3011 RMK MADISHF
CGI,2017-04-01 08:05,-89.5708,37.2253,M,M,M,40.00,10.00,M,30.11,M,10.00,M,OVC,M,M,M,1900.00,M,M,M,M,KCGI 010805Z AUTO 04010KT 10SM OVC019 A3011 RMK MADISHF
CGI,2017-04-01 08:10,-89.5708,37.2253,M,M,M,40.00,11.00,M,30.11,M,10.00,M,OVC,M,M,M,1900.00,M,M,M,M,KCGI 010810Z AUTO 04011KT 10SM OVC019 A3011 RMK MADISHF
CGI,2017-04-01 08:15,-89.5708,37.2253,M,M,M,40.00,11.00,M,30.11,M,10.00,M,OVC,M,M,M,1900.00,M,M,M,M,KCGI 010815Z AUTO 04011KT 10SM OVC019 A3011 RMK MADISHF
CGI,2017-04-01 08:20,-89.5708,37.2253,M,M,M,40.00,10.00,M,30.11,M,10.00,M,OVC,M,M,M,1699.00,M,M,M,M,KCGI 010820Z AUTO 04010KT 10SM OVC016 A3011 RMK MADISHF
CGI,2017-04-01 08:25,-89.5708,37.2253,M,M,M,20.00,10.00,M,30.11,M,10.00,M,OVC,M,M,M,1699.00,M,M,M,M,KCGI 010825Z AUTO 02010KT 10SM OVC016 A3011 RMK MADISHF
CGI,2017-04-01 08:40,-89.5708,37.2253,M,M,M,30.00,11.00,M,30.12,M,10.00,M,OVC,M,M,M,1699.00,M,M,M,M,KCGI 010840Z AUTO 03011KT 10SM OVC016 A3012 RMK MADISHF
CGI,2017-04-01 08:45,-89.5708,37.2253,M,M,M,30.00,11.00,M,30.11,M,10.00,M,OVC,M,M,M,1600.00,M,M,M,M,KCGI 010845Z AUTO 03011KT 10SM OVC016 A3011 RMK MADISHF
CGI,2017-04-01 08:50,-89.5708,37.2253,M,M,M,30.00,11.00,M,30.11,M,10.00,M,OVC,M,M,M,1600.00,M,M,M,M,KCGI 010850Z AUTO 03011KT 10SM OVC016 A3011 RMK MADISHF
CGI,2017-04-01 08:53,-89.5708,37.2253,46.00,39.00,76.40,20.00,10.00,0.00,30.11,1019.70,10.00,M,OVC,M,M,M,1600.00,M,M,M,M,KCGI 010853Z AUTO 02010KT 10SM OVC016 08/04 A3011 RMK AO2 SLP197 T00780039 51013
CGI,2017-04-01 08:55,-89.5708,37.2253,M,M,M,30.00,9.00,M,30.12,M,10.00,M,OVC,M,M,M,1600.00,M,M,M,M,KCGI 010855Z AUTO 03009KT 10SM OVC016 A3012 RMK MADISHF
CGI,2017-04-01 09:00,-89.5708,37.2253,M,M,M,30.00,11.00,M,30.12,M,10.00,M,OVC,M,M,M,1600.00,M,M,M,M,KCGI 010900Z AUTO 03011KT 10SM OVC016 A3012 RMK MADISHF
CGI,2017-04-01 09:05,-89.5708,37.2253,M,M,M,40.00,11.00,M,30.12,M,10.00,M,OVC,M,M,M,1600.00,M,M,M,M,KCGI 010905Z AUTO 04011KT 10SM OVC016 A3012 RMK MADISHF
CGI,2017-04-01 09:15,-89.5708,37.2253,M,M,M,30.00,11.00,M,30.12,M,10.00,M,OVC,M,M,M,1600.00,M,M,M,M,KCGI 010915Z AUTO 03011KT 10SM OVC016 A3012 RMK MADISHF
CGI,2017-04-01 09:20,-89.5708,37.2253,M,M,M,30.00,10.00,M,30.12,M,10.00,M,OVC,M,M,M,1600.00,M,M,M,M,KCGI 010920Z AUTO 03010KT 10SM OVC016 A3012 RMK MADISHF
CGI,2017-04-01 09:25,-89.5708,37.2253,M,M,M,40.00,9.00,M,30.12,M,10.00,M,OVC,M,M,M,1600.00,M,M,M,M,KCGI 010925Z AUTO 04009KT 10SM OVC016 A3012 RMK MADISHF
CGI,2017-04-01 09:30,-89.5708,37.2253,M,M,M,40.00,9.00,M,30.12,M,10.00,M,OVC,M,M,M,1500.00,M,M,M,M,KCGI 010930Z AUTO 04009KT 10SM OVC015 A3012 RMK MADISHF
CGI,2017-04-01 09:35,-89.5708,37.2253,M,M,M,30.00,9.00,M,30.13,M,10.00,M,OVC,M,M,M,1500.00,M,M,M,M,KCGI 010935Z AUTO 03009KT 10SM OVC015 A3013 RMK MADISHF
CGI,2017-04-01 09:40,-89.5708,37.2253,M,M,M,10.00,7.00,M,30.13,M,10.00,M,OVC,M,M,M,1500.00,M,M,M,M,KCGI 010940Z AUTO 01007KT 10SM OVC015 A3013 RMK MADISHF
CGI,2017-04-01 09:53,-89.5708,37.2253,46.00,39.00,76.40,10.00,8.00,0.00,30.13,1020.30,10.00,M,OVC,M,M,M,1600.00,M,M,M,M,KCGI 010953Z AUTO 01008KT 10SM OVC016 08/04 A3013 RMK AO2 SLP203 T00780039
CGI,2017-04-01 09:55,-89.5708,37.2253,M,M,M,360.00,8.00,M,30.13,M,10.00,M,OVC,M,M,M,1600.00,M,M,M,M,KCGI 010955Z AUTO 36008KT 10SM OVC016 A3013 RMK MADISHF
CGI,2017-04-01 10:00,-89.5708,37.2253,M,M,M,360.00,7.00,M,30.13,M,10.00,M,OVC,M,M,M,1600.00,M,M,M,M,KCGI 011000Z AUTO 36007KT 10SM OVC016 A3013 RMK MADISHF
CGI,2017-04-01 10:05,-89.5708,37.2253,M,M,M,10.00,6.00,M,30.14,M,10.00,M,OVC,M,M,M,1600.00,M,M,M,M,KCGI 011005Z AUTO 01006KT 10SM OVC016 A3014 RMK MADISHF
CGI,2017-04-01 10:10,-89.5708,37.2253,M,M,M,360.00,8.00,M,30.14,M,10.00,M,OVC,M,M,M,1600.00,M,M,M,M,KCGI 011010Z AUTO 36008KT 10SM OVC016 A3014 RMK MADISHF
CGI,2017-04-01 10:15,-89.5708,37.2253,M,M,M,350.00,8.00,M,30.14,M,10.00,M,OVC,M,M,M,1600.00,M,M,M,M,KCGI 011015Z AUTO 35008KT 10SM OVC016 A3014 RMK MADISHF
CGI,2017-04-01 10:20,-89.5708,37.2253,M,M,M,360.00,8.00,M,30.14,M,10.00,M,OVC,M,M,M,1600.00,M,M,M,M,KCGI 011020Z AUTO 36008KT 10SM OVC016 A3014 RMK MADISHF
CGI,2017-04-01 10:25,-89.5708,37.2253,M,M,M,350.00,9.00,M,30.14,M,10.00,M,OVC,M,M,M,1600.00,M,M,M,M,KCGI 011025Z AUTO 35009KT 10SM OVC016 A3014 RMK MADISHF
CGI,2017-04-01 10:35,-89.5708,37.2253,M,M,M,360.00,9.00,M,30.15,M,10.00,M,OVC,M,M,M,1600.00,M,M,M,M,KCGI 011035Z AUTO 36009KT 10SM OVC016 A3015 RMK MADISHF
CGI,2017-04-01 10:40,-89.5708,37.2253,M,M,M,350.00,8.00,M,30.15,M,10.00,M,OVC,M,M,M,1600.00,M,M,M,M,KCGI 011040Z AUTO 35008KT 10SM OVC016 A3015 RMK MADISHF
CGI,2017-04-01 10:45,-89.5708,37.2253,M,M,M,360.00,6.00,M,30.15,M,10.00,M,OVC,M,M,M,1600.00,M,M,M,M,KCGI 011045Z AUTO 36006KT 10SM OVC016 A3015 RMK MADISHF
CGI,2017-04-01 10:50,-89.5708,37.2253,M,M,M,360.00,7.00,M,30.16,M,10.00,M,OVC,M,M,M,1600.00,M,M,M,M,KCGI 011050Z AUTO 36007KT 10SM OVC016 A3016 RMK MADISHF
CGI,2017-04-01 10:53,-89.5708,37.2253,45.00,37.90,76.01,360.00,7.00,0.00,30.16,1021.30,10.00,M,OVC,M,M,M,1600.00,M,M,M,M,KCGI 011053Z AUTO 36007KT 10SM OVC016 07/03 A3016 RMK AO2 SLP213 T00720033
CGI,2017-04-01 10:55,-89.5708,37.2253,M,M,M,10.00,6.00,M,30.16,M,10.00,M,OVC,M,M,M,1600.00,M,M,M,M,KCGI 011055Z AUTO 01006KT 10SM OVC016 A3016 RMK MADISHF
CGI,2017-04-01 11:00,-89.5708,37.2253,M,M,M,10.00,8.00,M,30.16,M,10.00,M,OVC,M,M,M,1600.00,M,M,M,M,KCGI 011100Z AUTO 01008KT 10SM OVC016 A3016 RMK MADISHF
CGI,2017-04-01 11:05,-89.5708,37.2253,M,M,M,20.00,6.00,M,30.16,M,10.00,M,OVC,M,M,M,1600.00,M,M,M,M,KCGI 011105Z AUTO 02006KT 10SM OVC016 A3016 RMK MADISHF
CGI,2017-04-01 11:10,-89.5708,37.2253,M,M,M,10.00,8.00,M,30.16,M,10.00,M,OVC,M,M,M,1600.00,M,M,M,M,KCGI 011110Z AUTO 01008KT 10SM OVC016 A3016 RMK MADISHF
CGI,2017-04-01 11:25,-89.5708,37.2253,M,M,M,360.00,7.00,M,30.17,M,10.00,M,OVC,M,M,M,1600.00,M,M,M,M,KCGI 011125Z AUTO 36007KT 10SM OVC016 A3017 RMK MADISHF
CGI,2017-04-01 11:30,-89.5708,37.2253,M,M,M,10.00,5.00,M,30.17,M,10.00,M,OVC,M,M,M,1600.00,M,M,M,M,KCGI 011130Z AUTO 01005KT 10SM OVC016 A3017 RMK MADISHF
CGI,2017-04-01 11:35,-89.5708,37.2253,M,M,M,10.00,8.00,M,30.17,M,10.00,M,OVC,M,M,M,1600.00,M,M,M,M,KCGI 011135Z AUTO 01008KT 10SM OVC016 A3017 RMK MADISHF
CGI,2017-04-01 11:40,-89.5708,37.2253,M,M,M,20.00,6.00,M,30.18,M,10.00,M,OVC,M,M,M,1600.00,M,M,M,M,KCGI 011140Z AUTO 02006KT 10SM OVC016 A3018 RMK MADISHF
CGI,2017-04-01 11:45,-89.5708,37.2253,M,M,M,10.00,7.00,M,30.18,M,10.00,M,OVC,M,M,M,1600.00,M,M,M,M,KCGI 011145Z AUTO 01007KT 10SM OVC016 A3018 RMK MADISHF
CGI,2017-04-01 11:50,-89.5708,37.2253,M,M,M,10.00,10.00,M,30.18,M,10.00,M,OVC,M,M,M,1600.00,M,M,M,M,KCGI 011150Z AUTO 01010KT 10SM OVC016 A3018 RMK MADISHF
CGI,2017-04-01 11:53,-89.5708,37.2253,45.00,39.00,79.36,10.00,10.00,0.00,30.18,1022.00,10.00,M,OVC,M,M,M,1500.00,M,M,M,M,KCGI 011153Z 01010KT 10SM OVC015 07/04 A3018 RMK AO2 SLP220 T00720039 10089 20072 53022
CGI,2017-04-01 12:05,-89.5708,37.2253,M,M,M,10.00,7.00,M,30.19,M,10.00,M,OVC,M,M,M,1500.00,M,M,M,M,KCGI 011205Z AUTO 01007KT 10SM OVC015 A3019 RMK MADISHF
CGI,2017-04-01 12:10,-89.5708,37.2253,M,M,M,10.00,9.00,M,30.19,M,10.00,M,OVC,M,M,M,1300.00,M,M,M,M,KCGI 011210Z AUTO 01009KT 10SM OVC013 A3019 RMK MADISHF
CGI,2017-04-01 12:15,-89.5708,37.2253,M,M,M,30.00,9.00,M,30.19,M,10.00,M,OVC,M,M,M,1300.00,M,M,M,M,KCGI 011215Z AUTO 03009KT 10SM OVC013 A3019 RMK MADISHF
CGI,2017-04-01 12:16,-89.5708,37.2253,45.00,39.00,79.36,40.00,8.00,0.00,30.19,M,10.00,M,OVC,M,M,M,1300.00,M,M,M,M,KCGI 011216Z 04008KT 10SM OVC013 07/04 A3019 RMK AO2 T00720039
CGI,2017-04-01 12:20,-89.5708,37.2253,M,M,M,50.00,8.00,M,30.19,M,10.00,M,OVC,M,M,M,1300.00,M,M,M,M,KCGI 011220Z AUTO 05008KT 10SM OVC013 A3019 RMK MADISHF
CGI,2017-04-01 12:25,-89.5708,37.2253,M,M,M,30.00,10.00,M,30.19,M,10.00,M,OVC,M,M,M,1300.00,M,M,M,M,KCGI 011225Z AUTO 03010KT 10SM OVC013 A3019 RMK MADISHF
CGI,2017-04-01 12:35,-89.5708,37.2253,M,M,M,30.00,11.00,M,30.20,M,10.00,M,OVC,M,M,M,1300.00,M,M,M,M,KCGI 011235Z AUTO 03011KT 10SM OVC013 A3020 RMK MADISHF
CGI,2017-04-01 12:40,-89.5708,37.2253,M,M,M,20.00,8.00,M,30.20,M,10.00,M,OVC,M,M,M,1300.00,M,M,M,M,KCGI 011240Z AUTO 02008KT 10SM OVC013 A3020 RMK MADISHF
CGI,2017-04-01 12:45,-89.5708,37.2253,M,M,M,20.00,10.00,M,30.20,M,10.00,M,OVC,M,M,M,1300.00,M,M,M,M,KCGI 011245Z AUTO 02010KT 10SM OVC013 A3020 RMK MADISHF
CGI,2017-04-01 12:50,-89.5708,37.2253,M,M,M,20.00,6.00,M,30.21,M,10.00,M,OVC,M,M,M,1300.00,M,M,M,M,KCGI 011250Z AUTO 02006KT 10SM OVC013 A3021 RMK MADISHF
CGI,2017-04-01 12:53,-89.5708,37.2253,45.00,39.00,79.36,20.00,8.00,0.00,30.21,1023.00,10.00,M,OVC,M,M,M,1300.00,M,M,M,M,KCGI 011253Z 02008KT 10SM OVC013 07/04 A3021 RMK AO2 SLP230 T00720039
CGI,2017-04-01 12:55,-89.5708,37.2253,M,M,M,20.00,8.00,M,30.21,M,10.00,M,OVC,M,M,M,1300.00,M,M,M,M,KCGI 011255Z AUTO 02008KT 10SM OVC013 A3021 RMK MADISHF
CGI,2017-04-01 13:05,-89.5708,37.2253,M,M,M,10.00,9.00,M,30.21,M,10.00,M,OVC,M,M,M,1300.00,M,M,M,M,KCGI 011305Z AUTO 01009KT 10SM OVC013 A3021 RMK MADISHF
CGI,2017-04-01 13:10,-89.5708,37.2253,M,M,M,10.00,9.00,M,30.21,M,10.00,M,OVC,M,M,M,1300.00,M,M,M,M,KCGI 011310Z AUTO 01009KT 10SM OVC013 A3021 RMK MADISHF
CGI,2017-04-01 13:15,-89.5708,37.2253,M,M,M,10.00,8.00,M,30.21,M,10.00,M,OVC,M,M,M,1300.00,M,M,M,M,KCGI 011315Z AUTO 01008KT 10SM OVC013 A3021 RMK MADISHF
CGI,2017-04-01 13:20,-89.5708,37.2253,M,M,M,10.00,8.00,M,30.21,M,10.00,M,OVC,M,M,M,1300.00,M,M,M,M,KCGI 011320Z AUTO 01008KT 10SM OVC013 A3021 RMK MADISHF
CGI,2017-04-01 13:25,-89.5708,37.2253,M,M,M,20.00,10.00,M,30.21,M,10.00,M,OVC,M,M,M,1300.00,M,M,M,M,KCGI 011325Z AUTO 02010KT 10SM OVC013 A3021 RMK MADISHF
CGI,2017-04-01 13:30,-89.5708,37.2253,M,M,M,40.00,8.00,M,30.22,M,10.00,M,OVC,M,M,M,1400.00,M,M,M,M,KCGI 011330Z AUTO 04008KT 10SM OVC014 A3022 RMK MADISHF
CGI,2017-04-01 13:35,-89.5708,37.2253,M,M,M,50.00,8.00,M,30.21,M,10.00,M,OVC,M,M,M,1400.00,M,M,M,M,KCGI 011335Z AUTO 05008KT 10SM OVC014 A3021 RMK MADISHF
CGI,2017-04-01 13:50,-89.5708,37.2253,M,M,M,50.00,10.00,M,30.21,M,10.00,M,OVC,M,M,M,1400.00,M,M,M,M,KCGI 011350Z AUTO 05010KT 10SM OVC014 A3021 RMK MADISHF
CGI,2017-04-01 13:53,-89.5708,37.2253,44.10,37.00,75.93,50.00,10.00,0.00,30.21,1023.10,10.00,M,OVC,M,M,M,1400.00,M,M,M,M,KCGI 011353Z 05010KT 10SM OVC014 07/03 A3021 RMK AO2 SLP231 T00670028
CGI,2017-04-01 13:55,-89.5708,37.2253,M,M,M,40.00,10.00,M,30.21,M,10.00,M,OVC,M,M,M,1500.00,M,M,M,M,KCGI 011355Z AUTO 04010KT 10SM OVC015 A3021 RMK MADISHF
CGI,2017-04-01 14:00,-89.5708,37.2253,45.00,37.00,73.37,20.00,10.00,0.00,30.21,M,10.00,M,OVC,M,M,M,1500.00,M,M,M,M,KCGI 011400Z 02010KT 10SM OVC015 07/03 A3021 RMK AO2 T00720028
CGI,2017-04-01 14:05,-89.5708,37.2253,M,M,M,30.00,9.00,M,30.21,M,10.00,M,OVC,M,M,M,1500.00,M,M,M,M,KCGI 011405Z AUTO 03009KT 10SM OVC015 A3021 RMK MADISHF
CGI,2017-04-01 14:10,-89.5708,37.2253,M,M,M,30.00,10.00,M,30.21,M,10.00,M,OVC,M,M,M,1500.00,M,M,M,M,KCGI 011410Z AUTO 03010KT 10SM OVC015 A3021 RMK MADISHF
CGI,2017-04-01 14:15,-89.5708,37.2253,M,M,M,40.00,8.00,M,30.21,M,10.00,M,OVC,M,M,M,1500.00,M,M,M,M,KCGI 011415Z AUTO 04008KT 10SM OVC015 A3021 RMK MADISHF
CGI,2017-04-01 14:20,-89.5708,37.2253,M,M,M,50.00,8.00,M,30.21,M,10.00,M,OVC,M,M,M,1600.00,M,M,M,M,KCGI 011420Z AUTO 05008KT 10SM OVC016 A3021 RMK MADISHF
CGI,2017-04-01 14:25,-89.5708,37.2253,M,M,M,20.00,9.00,M,30.21,M,10.00,M,OVC,M,M,M,1600.00,M,M,M,M,KCGI 011425Z AUTO 02009KT 10SM OVC016 A3021 RMK MADISHF
CGI,2017-04-01 14:30,-89.5708,37.2253,M,M,M,20.00,9.00,M,30.21,M,10.00,M,OVC,M,M,M,1600.00,M,M,M,M,KCGI 011430Z AUTO 02009KT 10SM OVC016 A3021 RMK MADISHF
CGI,2017-04-01 14:45,-89.5708,37.2253,M,M,M,40.00,11.00,M,30.21,M,10.00,M,OVC,M,M,M,1800.00,M,M,M,M,KCGI 011445Z AUTO 04011KT 10SM OVC018 A3021 RMK MADISHF
CGI,2017-04-01 14:50,-89.5708,37.2253,M,M,M,40.00,9.00,M,30.21,M,10.00,M,OVC,M,M,M,1800.00,M,M,M,M,KCGI 011450Z AUTO 04009KT 10SM OVC018 A3021 RMK MADISHF
CGI,2017-04-01 14:53,-89.5708,37.2253,46.90,37.00,68.27,30.00,9.00,0.00,30.21,1023.20,10.00,M,OVC,M,M,M,2000.00,M,M,M,M,KCGI 011453Z 03009KT 10SM OVC020 08/03 A3021 RMK AO2 SLP232 T00830028 51012
CGI,2017-04-01 14:55,-89.5708,37.2253,M,M,M,30.00,8.00,M,30.21,M,10.00,M,OVC,M,M,M,1999.00,M,M,M,M,KCGI 011455Z AUTO 03008KT 10SM OVC019 A3021 RMK MADISHF
CGI,2017-04-01 15:00,-89.5708,37.2253,M,M,M,20.00,8.00,M,30.21,M,10.00,M,OVC,M,M,M,1999.00,M,M,M,M,KCGI 011500Z AUTO 02008KT 10SM OVC019 A3021 RMK MADISHF
CGI,2017-04-01 15:05,-89.5708,37.2253,M,M,M,60.00,9.00,M,30.21,M,10.00,M,OVC,M,M,M,1999.00,M,M,M,M,KCGI 011505Z AUTO 06009KT 10SM OVC019 A3021 RMK MADISHF
CGI,2017-04-01 15:10,-89.5708,37.2253,M,M,M,60.00,11.00,M,30.21,M,10.00,M,OVC,M,M,M,1999.00,M,M,M,M,KCGI 011510Z AUTO 06011KT 10SM OVC019 A3021 RMK MADISHF
CGI,2017-04-01 15:25,-89.5708,37.2253,M,M,M,60.00,8.00,M,30.22,M,10.00,M,OVC,M,M,M,1999.00,M,M,M,M,KCGI 011525Z AUTO 06008KT 10SM OVC019 A3022 RMK MADISHF
CGI,2017-04-01 15:30,-89.5708,37.2253,M,M,M,60.00,7.00,M,30.22,M,10.00,M,OVC,M,M,M,1999.00,M,M,M,M,KCGI 011530Z AUTO 06007KT 10SM OVC019 A3022 RMK MADISHF
CGI,2017-04-01 15:35,-89.5708,37.2253,M,M,M,60.00,8.00,M,30.22,M,10.00,M,OVC,M,M,M,1999.00,M,M,M,M,KCGI 011535Z AUTO 06008KT 10SM OVC019 A3022 RMK MADISHF
CGI,2017-04-01 15:40,-89.5708,37.2253,M,M,M,70.00,7.00,M,30.23,M,10.00,M,OVC,M,M,M,1999.00,M,M,M,M,KCGI 011540Z AUTO 07007KT 10SM OVC019 A3023 RMK MADISHF
CGI,2017-04-01 15:45,-89.5708,37.2253,M,M,M,40.00,6.00,M,30.23,M,10.00,M,OVC,M,M,M,1999.00,M,M,M,M,KCGI 011545Z AUTO 04006KT 10SM OVC019 A3023 RMK VRB06KT  MADISHF
CGI,2017-04-01 15:50,-89.5708,37.2253,M,M,M,30.00,6.00,M,30.23,M,10.00,M,OVC,M,M,M,1999.00,M,M,M,M,KCGI 011550Z AUTO 03006KT 10SM OVC019 A3023 RMK MADISHF
CGI,2017-04-01 15:53,-89.5708,37.2253,48.90,39.00,68.51,40.00,9.00,0.00,30.23,1023.70,10.00,M,OVC,M,M,M,2000.00,M,M,M,M,KCGI 011553Z 04009KT 10SM OVC020 09/04 A3023 RMK AO2 SLP237 T00940039
CGI,2017-04-01 16:00,-89.5708,37.2253,M,M,M,40.00,10.00,M,30.23,M,10.00,M,OVC,M,M,M,2100.00,M,M,M,M,KCGI 011600Z AUTO 04010KT 10SM OVC021 A3023 RMK MADISHF
CGI,2017-04-01 16:05,-89.5708,37.2253,M,M,M,70.00,10.00,M,30.23,M,10.00,M,OVC,M,M,M,2100.00,M,M,M,M,KCGI 011605Z AUTO 07010KT 10SM OVC021 A3023 RMK MADISHF
CGI,2017-04-01 16:10,-89.5708,37.2253,M,M,M,80.00,8.00,M,30.23,M,10.00,M,OVC,M,M,M,2100.00,M,M,M,M,KCGI 011610Z AUTO 08008KT 10SM OVC021 A3023 RMK MADISHF
CGI,2017-04-01 16:15,-89.5708,37.2253,M,M,M,70.00,9.00,M,30.23,M,10.00,M,OVC,M,M,M,2100.00,M,M,M,M,KCGI 011615Z AUTO 07009KT 10SM OVC021 A3023 RMK MADISHF
CGI,2017-04-01 16:25,-89.5708,37.2253,M,M,M,30.00,8.00,M,30.23,M,10.00,M,OVC,M,M,M,2200.00,M,M,M,M,KCGI 011625Z AUTO 03008KT 10SM OVC022 A3023 RMK MADISHF
CGI,2017-04-01 16:30,-89.5708,37.2253,M,M,M,40.00,5.00,M,30.23,M,10.00,M,OVC,M,M,M,2200.00,M,M,M,M,KCGI 011630Z AUTO 04005KT 10SM OVC022 A3023 RMK VRB05KT  MADISHF
CGI,2017-04-01 16:35,-89.5708,37.2253,M,M,M,40.00,6.00,M,30.23,M,10.00,M,OVC,M,M,M,2300.00,M,M,M,M,KCGI 011635Z AUTO 04006KT 10SM OVC023 A3023 RMK MADISHF
CGI,2017-04-01 16:40,-89.5708,37.2253,M,M,M,40.00,5.00,M,30.23,M,10.00,M,OVC,M,M,M,2300.00,M,M,M,M,KCGI 011640Z AUTO 04005KT 10SM OVC023 A3023 RMK VRB05KT  MADISHF
CGI,2017-04-01 16:45,-89.5708,37.2253,M,M,M,30.00,6.00,M,30.23,M,10.00,M,OVC,M,M,M,2300.00,M,M,M,M,KCGI 011645Z AUTO 03006KT 10SM OVC023 A3023 RMK MADISHF
CGI,2017-04-01 16:50,-89.5708,37.2253,M,M,M,0.00,0.00,M,30.23,M,10.00,M,OVC,M,M,M,2400.00,M,M,M,M,KCGI 011650Z AUTO 00000KT 10SM OVC024 A3023 RMK MADISHF
CGI,2017-04-01 16:53,-89.5708,37.2253,51.10,39.00,63.12,50.00,9.00,0.00,30.23,1023.60,10.00,M,OVC,M,M,M,2400.00,M,M,M,M,KCGI 011653Z 05009KT 010V070 10SM OVC024 11/04 A3023 RMK AO2 SLP236 T01060039
CGI,2017-04-01 17:00,-89.5708,37.2253,M,M,M,30.00,6.00,M,30.23,M,10.00,M,OVC,M,M,M,2400.00,M,M,M,M,KCGI 011700Z AUTO 03006KT 10SM OVC024 A3023 RMK MADISHF
CGI,2017-04-01 17:05,-89.5708,37.2253,M,M,M,60.00,9.00,M,30.23,M,10.00,M,OVC,M,M,M,2400.00,M,M,M,M,KCGI 011705Z AUTO 06009KT 10SM OVC024 A3023 RMK MADISHF
CGI,2017-04-01 17:10,-89.5708,37.2253,M,M,M,90.00,6.00,M,30.23,M,10.00,M,OVC,M,M,M,2400.00,M,M,M,M,KCGI 011710Z AUTO 09006KT 10SM OVC024 A3023 RMK MADISHF
CGI,2017-04-01 17:15,-89.5708,37.2253,M,M,M,90.00,3.00,M,30.23,M,10.00,M,OVC,M,M,M,2500.00,M,M,M,M,KCGI 011715Z AUTO 09003KT 10SM OVC025 A3023 RMK VRB03KT  MADISHF
CGI,2017-04-01 17:25,-89.5708,37.2253,M,M,M,M,M,M,30.22,M,10.00,M,OVC,M,M,M,2500.00,M,M,M,M,KCGI 011725Z AUTO /////KT 10SM OVC025 A3022 RMK MADISHF
CGI,2017-04-01 17:30,-89.5708,37.2253,M,M,M,40.00,4.00,M,30.22,M,10.00,M,OVC,M,M,M,2500.00,M,M,M,M,KCGI 011730Z AUTO 04004KT 10SM OVC025 A3022 RMK MADISHF
CGI,2017-04-01 17:35,-89.5708,37.2253,M,M,M,30.00,6.00,M,30.22,M,10.00,M,BKN,M,M,M,2500.00,M,M,M,M,KCGI 011735Z AUTO 03006KT 10SM BKN025 A3022 RMK MADISHF
CGI,2017-04-01 17:40,-89.5708,37.2253,M,M,M,50.00,5.00,M,30.21,M,10.00,M,BKN,M,M,M,2500.00,M,M,M,M,KCGI 011740Z AUTO 05005KT 10SM BKN025 A3021 RMK VRB05KT  MADISHF
CGI,2017-04-01 17:45,-89.5708,37.2253,M,M,M,50.00,5.00,M,30.21,M,10.00,M,BKN,M,M,M,2500.00,M,M,M,M,KCGI 011745Z AUTO 05005KT 10SM BKN025 A3021 RMK VRB05KT  MADISHF
CGI,2017-04-01 17:53,-89.5708,37.2253,54.00,41.00,61.32,M,5.00,0.00,30.21,1022.80,10.00,M,BKN,M,M,M,2700.00,M,M,M,M,KCGI 011753Z VRB05KT 10SM BKN027 12/05 A3021 RMK AO2 SLP228 T01220050 10122 20067 58003
CGI,2017-04-01 17:55,-89.5708,37.2253,M,M,M,80.00,7.00,M,30.20,M,10.00,M,BKN,M,M,M,2700.00,M,M,M,M,KCGI 011755Z AUTO 08007KT 10SM BKN027 A3020 RMK MADISHF
CGI,2017-04-01 18:00,-89.5708,37.2253,M,M,M,40.00,5.00,M,30.20,M,10.00,M,SCT,M,M,M,2700.00,M,M,M,M,KCGI 011800Z AUTO 04005KT 10SM SCT027 A3020 RMK MADISHF
CGI,2017-04-01 18:04,-89.5708,37.2253,54.00,39.90,58.76,70.00,5.00,0.00,30.20,M,10.00,M,SCT,M,M,M,2700.00,M,M,M,M,KCGI 011804Z 07005KT 10SM SCT027 12/04 A3020 RMK AO2 T01220044
CGI,2017-04-01 18:05,-89.5708,37.2253,M,M,M,60.00,5.00,M,30.20,M,10.00,M,SCT,M,M,M,2700.00,M,M,M,M,KCGI 011805Z AUTO 06005KT 10SM SCT027 A3020 RMK MADISHF
CGI,2017-04-01 18:10,-89.5708,37.2253,M,M,M,100.00,3.00,M,30.20,M,10.00,M,SCT,M,M,M,2800.00,M,M,M,M,KCGI 011810Z AUTO 10003KT 10SM SCT028 A3020 RMK VRB03KT  MADISHF
CGI,2017-04-01 18:15,-89.5708,37.2253,M,M,M,50.00,9.00,M,30.20,M,10.00,M,FEW,M,M,M,2800.00,M,M,M,M,KCGI 011815Z AUTO 05009KT 10SM FEW028 A3020 RMK MADISHF
CGI,2017-04-01 18:20,-89.5708,37.2253,M,M,M,60.00,4.00,M,30.20,M,10.00,M,FEW,M,M,M,2800.00,M,M,M,M,KCGI 011820Z AUTO 06004KT 10SM FEW028 A3020 RMK MADISHF
CGI,2017-04-01 18:25,-89.5708,37.2253,M,M,M,100.00,6.00,M,30.20,M,10.00,M,CLR,M,M,M,M,M,M,M,M,KCGI 011825Z AUTO 10006KT 10SM CLR A3020 RMK MADISHF
CGI,2017-04-01 18:40,-89.5708,37.2253,M,M,M,70.00,4.00,M,30.20,M,10.00,M,CLR,M,M,M,M,M,M,M,M,KCGI 011840Z AUTO 07004KT 10SM CLR A3020 RMK MADISHF
CGI,2017-04-01 18:45,-89.5708,37.2253,M,M,M,80.00,6.00,M,30.19,M,10.00,M,CLR,M,M,M,M,M,M,M,M,KCGI 011845Z AUTO 08006KT 10SM CLR A3019 RMK VRB06KT  MADISHF
CGI,2017-04-01 18:50,-89.5708,37.2253,M,M,M,110.00,5.00,M,30.19,M,10.00,M,CLR,M,M,M,M,M,M,M,M,KCGI 011850Z AUTO 11005KT 10SM CLR A3019 RMK MADISHF
CGI,2017-04-01 18:53,-89.5708,37.2253,55.90,41.00,57.23,90.00,6.00,0.00,30.19,1022.30,10.00,M,CLR,M,M,M,M,M,M,M,M,KCGI 011853Z 09006KT 10SM CLR 13/05 A3019 RMK AO2 SLP223 T01330050
CGI,2017-04-01 18:55,-89.5708,37.2253,M,M,M,60.00,5.00,M,30.19,M,10.00,M,CLR,M,M,M,M,M,M,M,M,KCGI 011855Z AUTO 06005KT 10SM CLR A3019 RMK VRB05KT  MADISHF
CGI,2017-04-01 19:00,-89.5708,37.2253,M,M,M,30.00,5.00,M,30.19,M,10.00,M,CLR,M,M,M,M,M,M,M,M,KCGI 011900Z AUTO 03005KT 10SM CLR A3019 RMK VRB05KT  MADISHF
CGI,2017-04-01 19:15,-89.5708,37.2253,M,M,M,M,M,M,30.19,M,10.00,M,CLR,M,M,M,M,M,M,M,M,KCGI 011915Z AUTO /////KT 10SM CLR A3019 RMK MADISHF
CGI,2017-04-01 19:20,-89.5708,37.2253,M,M,M,210.00,4.00,M,30.19,M,10.00,M,CLR,M,M,M,M,M,M,M,M,KCGI 011920Z AUTO 21004KT 10SM CLR A3019 RMK MADISHF
CGI,2017-04-01 19:25,-89.5708,37.2253,M,M,M,80.00,3.00,M,30.18,M,10.00,M,CLR,M,M,M,M,M,M,M,M,KCGI 011925Z AUTO 08003KT 10SM CLR A3018 RMK VRB03KT  MADISHF
CGI,2017-04-01 19:30,-89.5708,37.2253,M,M,M,60.00,5.00,M,30.18,M,10.00,M,CLR,M,M,M,M,M,M,M,M,KCGI 011930Z AUTO 06005KT 10SM CLR A3018 RMK MADISHF
CGI,2017-04-01 19:35,-89.5708,37.2253,M,M,M,0.00,0.00,M,30.18,M,10.00,M,CLR,M,M,M,M,M,M,M,M,KCGI 011935Z AUTO 00000KT 10SM CLR A3018 RMK MADISHF
CGI,2017-04-01 19:40,-89.5708,37.2253,M,M,M,310.00,3.00,M,30.18,M,10.00,M,CLR,M,M,M,M,M,M,M,M,KCGI 011940Z AUTO 31003KT 10SM CLR A3018 RMK VRB03KT  MADISHF
CGI,2017-04-01 19:45,-89.5708,37.2253,M,M,M,160.00,3.00,M,30.18,M,10.00,M,CLR,M,M,M,M,M,M,M,M,KCGI 011945Z AUTO 16003KT 10SM CLR A3018 RMK VRB03KT  MADISHF
CGI,2017-04-01 19:53,-89.5708,37.2253,59.00,42.10,53.40,40.00,6.00,0.00,30.17,1021.70,10.00,M,CLR,M,M,M,M,M,M,M,M,KCGI 011953Z 04006KT 10SM CLR 15/06 A3017 RMK AO2 SLP217 T01500056
CGI,2017-04-01 19:55,-89.5708,37.2253,M,M,M,10.00,3.00,M,30.17,M,10.00,M,CLR,M,M,M,M,M,M,M,M,KCGI 011955Z AUTO 01003KT 10SM CLR A3017 RMK MADISHF
CGI,2017-04-01 20:00,-89.5708,37.2253,M,M,M,50.00,5.00,M,30.17,M,10.00,M,CLR,M,M,M,M,M,M,M,M,KCGI 012000Z AUTO 05005KT 10SM CLR A3017 RMK MADISHF
CGI,2017-04-01 20:05,-89.5708,37.2253,M,M,M,0.00,0.00,M,30.17,M,10.00,M,CLR,M,M,M,M,M,M,M,M,KCGI 012005Z AUTO 00000KT 10SM CLR A3017 RMK MADISHF
CGI,2017-04-01 20:10,-89.5708,37.2253,M,M,M,100.00,3.00,M,30.16,M,10.00,M,CLR,M,M,M,M,M,M,M,M,KCGI 012010Z AUTO 10003KT 10SM CLR A3016 RMK VRB03KT  MADISHF
CGI,2017-04-01 20:20,-89.5708,37.2253,M,M,M,50.00,9.00,M,30.16,M,10.00,M,CLR,M,M,M,M,M,M,M,M,KCGI 012020Z AUTO 05009KT 10SM CLR A3016 RMK MADISHF
CGI,2017-04-01 20:25,-89.5708,37.2253,M,M,M,80.00,7.00,M,30.16,M,10.00,M,CLR,M,M,M,M,M,M,M,M,KCGI 012025Z AUTO 08007KT 10SM CLR A3016 RMK MADISHF
CGI,2017-04-01 20:30,-89.5708,37.2253,M,M,M,90.00,5.00,M,30.15,M,10.00,M,CLR,M,M,M,M,M,M,M,M,KCGI 012030Z AUTO 09005KT 10SM CLR A3015 RMK VRB05KT  MADISHF
CGI,2017-04-01 20:35,-89.5708,37.2253,M,M,M,50.00,3.00,M,30.15,M,10.00,M,CLR,M,M,M,M,M,M,M,M,KCGI 012035Z AUTO 05003KT 10SM CLR A3015 RMK VRB03KT  MADISHF
CGI,2017-04-01 20:40,-89.5708,37.2253,M,M,M,70.00,9.00,M,30.15,M,10.00,M,CLR,M,M,M,M,M,M,M,M,KCGI 012040Z AUTO 07009KT 10SM CLR A3015 RMK MADISHF
CGI,2017-04-01 20:45,-89.5708,37.2253,M,M,M,50.00,7.00,M,30.15,M,10.00,M,CLR,M,M,M,M,M,M,M,M,KCGI 012045Z AUTO 05007KT 10SM CLR A3015 RMK MADISHF
CGI,2017-04-01 20:53,-89.5708,37.2253,61.00,41.00,47.66,70.00,7.00,0.00,30.15,1020.80,10.00,M,CLR,M,M,M,M,M,M,M,M,KCGI 012053Z AUTO 07007KT 10SM CLR 16/05 A3015 RMK AO2 SLP208 T01610050 58019
CGI,2017-04-01 20:55,-89.5708,37.2253,M,M,M,50.00,6.00,M,30.15,M,10.00,M,CLR,M,M,M,M,M,M,M,M,KCGI 012055Z AUTO 05006KT 10SM CLR A3015 RMK VRB06KT  MADISHF
CGI,2017-04-01 21:00,-89.5708,37.2253,M,M,M,50.00,5.00,M,30.15,M,10.00,M,CLR,M,M,M,M,M,M,M,M,KCGI 012100Z AUTO 05005KT 10SM CLR A3015 RMK MADISHF
CGI,2017-04-01 21:05,-89.5708,37.2253,M,M,M,60.00,7.00,M,30.15,M,10.00,M,CLR,M,M,M,M,M,M,M,M,KCGI 012105Z AUTO 06007KT 10SM CLR A3015 RMK MADISHF
CGI,2017-04-01 21:10,-89.5708,37.2253,M,M,M,60.00,8.00,M,30.14,M,10.00,M,CLR,M,M,M,M,M,M,M,M,KCGI 012110Z AUTO 06008KT 10SM CLR A3014 RMK MADISHF
CGI,2017-04-01 21:15,-89.5708,37.2253,M,M,M,60.00,7.00,M,30.14,M,10.00,M,CLR,M,M,M,M,M,M,M,M,KCGI 012115Z AUTO 06007KT 10SM CLR A3014 RMK MADISHF
CGI,2017-04-01 21:20,-89.5708,37.2253,M,M,M,70.00,6.00,M,30.14,M,10.00,M,CLR,M,M,M,M,M,M,M,M,KCGI 012120Z AUTO 07006KT 10SM CLR A3014 RMK MADISHF
CGI,2017-04-01 21:25,-89.5708,37.2253,M,M,M,70.00,8.00,M,30.14,M,10.00,M,CLR,M,M,M,M,M,M,M,M,KCGI 012125Z AUTO 07008KT 10SM CLR A3014 RMK MADISHF
CGI,2017-04-01 21:30,-89.5708,37.2253,M,M,M,70.00,6.00,M,30.14,M,10.00,M,CLR,M,M,M,M,M,M,M,M,KCGI 012130Z AUTO 07006KT 10SM CLR A3014 RMK MADISHF
CGI,2017-04-01 21:45,-89.5708,37.2253,M,M,M,40.00,7.00,M,30.14,M,10.00,M,CLR,M,M,M,M,M,M,M,M,KCGI 012145Z AUTO 04007KT 10SM CLR A3014 RMK MADISHF
CGI,2017-04-01 21:50,-89.5708,37.2253,M,M,M,70.00,5.00,M,30.14,M,10.00,M,CLR,M,M,M,M,M,M,M,M,KCGI 012150Z AUTO 07005KT 10SM CLR A3014 RMK MADISHF
CGI,2017-04-01 21:53,-89.5708,37.2253,62.10,41.00,45.84,50.00,5.00,0.00,30.14,1020.60,10.00,M,CLR,M,M,M,M,M,M,M,M,KCGI 012153Z AUTO 05005KT 10SM CLR 17/05 A3014 RMK AO2 SLP206 T01670050
CGI,2017-04-01 21:55,-89.5708,37.2253,M,M,M,50.00,6.00,M,30.14,M,10.00,M,CLR,M,M,M,M,M,M,M,M,KCGI 012155Z AUTO 05006KT 10SM CLR A3014 RMK MADISHF
CGI,2017-04-01 22:00,-89.5708,37.2253,M,M,M,360.00,3.00,M,30.14,M,10.00,M,CLR,M,M,M,M,M,M,M,M,KCGI 012200Z AUTO 36003KT 10SM CLR A3014 RMK MADISHF
CGI,2017-04-01 22:05,-89.5708,37.2253,M,M,M,60.00,6.00,M,30.14,M,10.00,M,CLR,M,M,M,M,M,M,M,M,KCGI 012205Z AUTO 06006KT 10SM CLR A3014 RMK MADISHF
CGI,2017-04-01 22:10,-89.5708,37.2253,M,M,M,70.00,5.00,M,30.13,M,10.00,M,CLR,M,M,M,M,M,M,M,M,KCGI 012210Z AUTO 07005KT 10SM CLR A3013 RMK MADISHF
CGI,2017-04-01 22:20,-89.5708,37.2253,M,M,M,50.00,5.00,M,30.14,M,10.00,M,CLR,M,M,M,M,M,M,M,M,KCGI 012220Z AUTO 05005KT 10SM CLR A3014 RMK VRB05KT  MADISHF
CGI,2017-04-01 22:25,-89.5708,37.2253,M,M,M,70.00,6.00,M,30.14,M,10.00,M,CLR,M,M,M,M,M,M,M,M,KCGI 012225Z AUTO 07006KT 10SM CLR A3014 RMK MADISHF
CGI,2017-04-01 22:30,-89.5708,37.2253,M,M,M,60.00,7.00,M,30.14,M,10.00,M,CLR,M,M,M,M,M,M,M,M,KCGI 012230Z AUTO 06007KT 10SM CLR A3014 RMK MADISHF
CGI,2017-04-01 22:35,-89.5708,37.2253,M,M,M,30.00,3.00,M,30.13,M,10.00,M,CLR,M,M,M,M,M,M,M,M,KCGI 012235Z AUTO 03003KT 10SM CLR A3013 RMK MADISHF
CGI,2017-04-01 22:40,-89.5708,37.2253,M,M,M,0.00,0.00,M,30.13,M,10.00,M,CLR,M,M,M,M,M,M,M,M,KCGI 012240Z AUTO 00000KT 10SM CLR A3013 RMK MADISHF
CGI,2017-04-01 22:45,-89.5708,37.2253,M,M,M,40.00,7.00,M,30.13,M,10.00,M,CLR,M,M,M,M,M,M,M,M,KCGI 012245Z AUTO 04007KT 10SM CLR A3013 RMK MADISHF
CGI,2017-04-01 22:50,-89.5708,37.2253,M,M,M,60.00,7.00,M,30.13,M,10.00,M,CLR,M,M,M,M,M,M,M,M,KCGI 012250Z AUTO 06007KT 10SM CLR A3013 RMK MADISHF
CGI,2017-04-01 22:53,-89.5708,37.2253,62.10,41.00,45.84,70.00,3.00,0.00,30.13,1020.30,10.00,M,CLR,M,M,M,M,M,M,M,M,KCGI 012253Z AUTO 07003KT 10SM CLR 17/05 A3013 RMK AO2 SLP203 T01670050
CGI,2017-04-01 22:55,-89.5708,37.2253,M,M,M,50.00,5.00,M,30.13,M,10.00,M,CLR,M,M,M,M,M,M,M,M,KCGI 012255Z AUTO 05005KT 10SM CLR A3013 RMK MADISHF
CGI,2017-04-01 23:05,-89.5708,37.2253,M,M,M,40.00,6.00,M,30.13,M,10.00,M,CLR,M,M,M,M,M,M,M,M,KCGI 012305Z AUTO 04006KT 10SM CLR A3013 RMK MADISHF
CGI,2017-04-01 23:10,-89.5708,37.2253,M,M,M,60.00,7.00,M,30.13,M,10.00,M,CLR,M,M,M,M,M,M,M,M,KCGI 012310Z AUTO 06007KT 10SM CLR A3013 RMK MADISHF
CGI,2017-04-01 23:15,-89.5708,37.2253,M,M,M,70.00,5.00,M,30.14,M,10.00,M,CLR,M,M,M,M,M,M,M,M,KCGI 012315Z AUTO 07005KT 10SM CLR A3014 RMK MADISHF
CGI,2017-04-01 23:20,-89.5708,37.2253,M,M,M,50.00,6.00,M,30.14,M,10.00,M,CLR,M,M,M,M,M,M,M,M,KCGI 012320Z AUTO 05006KT 10SM CLR A3014 RMK MADISHF
CGI,2017-04-01 23:25,-89.5708,37.2253,M,M,M,50.00,6.00,M,30.14,M,10.00,M,CLR,M,M,M,M,M,M,M,M,KCGI 012325Z AUTO 05006KT 10SM CLR A3014 RMK MADISHF
CGI,2017-04-01 23:30,-89.5708,37.2253,M,M,M,60.00,6.00,M,30.14,M,10.00,M,CLR,M,M,M,M,M,M,M,M,KCGI 012330Z AUTO 06006KT 10SM CLR A3014 RMK MADISHF
CGI,2017-04-01 23:35,-89.5708,37.2253,M,M,M,30.00,7.00,M,30.14,M,10.00,M,CLR,M,M,M,M,M,M,M,M,KCGI 012335Z AUTO 03007KT 10SM CLR A3014 RMK MADISHF
CGI,2017-04-01 23:50,-89.5708,37.2253,M,M,M,50.00,8.00,M,30.14,M,10.00,M,CLR,M,M,M,M,M,M,M,M,KCGI 012350Z AUTO 05008KT 10SM CLR A3014 RMK MADISHF
CGI,2017-04-01 23:53,-89.5708,37.2253,59.00,42.10,53.40,50.00,7.00,0.00,30.14,1020.50,10.00,M,CLR,M,M,M,M,M,M,M,M,KCGI 012353Z AUTO 05007KT 10SM CLR 15/06 A3014 RMK AO2 SLP205 T01500056 10172 20122 55003
CGI,2017-04-01 23:55,-89.5708,37.2253,M,M,M,50.00,7.00,M,30.14,M,10.00,M,CLR,M,M,M,M,M,M,M,M,KCGI 012355Z AUTO 05007KT 10SM CLR A3014 RMK MADISHF
