#DEBUG: Format Typ    -> comma
#DEBUG: Time Period   -> 2017-04-01 00:00:00+00:00 2017-04-02 00:00:00+00:00
#DEBUG: Time Zone     -> Etc/UTC
#DEBUG: Data Contact   -> daryl herzmann akrherz@iastate.edu 515-294-5978
#DEBUG: Entries Found -> -1
station,valid,lon,lat,tmpf, dwpf, relh, drct, sknt, p01i, alti, mslp, vsby, gust, skyc1, skyc2, skyc3, skyc4, skyl1, skyl2, skyl3, skyl4, presentwx, metar
CGZ,2017-04-01 00:00,-111.7668,32.9549,M,M,M,280.00,9.00,M,29.74,M,10.00,M,OVC,M,M,M,11000.00,M,M,M,M,KCGZ 010000Z AUTO 28009KT 10SM OVC110 A2974 RMK MADISHF
CGZ,2017-04-01 00:05,-111.7668,32.9549,M,M,M,280.00,12.00,M,29.74,M,10.00,M,OVC,M,M,M,11000.00,M,M,M,M,KCGZ 010005Z AUTO 28012KT 10SM OVC110 A2974 RMK MADISHF
CGZ,2017-04-01 00:10,-111.7668,32.9549,M,M,M,260.00,12.00,M,29.74,M,10.00,M,OVC,M,M,M,11000.00,M,M,M,M,KCGZ 010010Z AUTO 26012KT 10SM OVC110 A2974 RMK MADISHF
CGZ,2017-04-01 00:15,-111.7668,32.9549,M,M,M,270.00,11.00,M,29.75,M,10.00,M,OVC,M,M,M,10000.00,M,M,M,M,KCGZ 010015Z AUTO 27011KT 10SM OVC100 A2975 RMK MADISHF
CGZ,2017-04-01 00:20,-111.7668,32.9549,M,M,M,270.00,9.00,M,29.75,M,10.00,15.00,OVC,M,M,M,10000.00,M,M,M,M,KCGZ 010020Z AUTO 27009G15KT 10SM OVC100 A2975 RMK MADISHF
CGZ,2017-04-01 00:25,-111.7668,32.9549,M,M,M,270.00,10.00,M,29.75,M,10.00,M,OVC,M,M,M,10000.00,M,M,M,M,KCGZ 010025Z AUTO 27010KT 10SM OVC100 A2975 RMK MADISHF
CGZ,2017-04-01 00:30,-111.7668,32.9549,M,M,M,300.00,10.00,M,29.75,M,10.00,M,OVC,M,M,M,10000.00,M,M,M,M,KCGZ 010030Z AUTO 30010KT 10SM OVC100 A2975 RMK MADISHF
CGZ,2017-04-01 00:35,-111.7668,32.9549,M,M,M,280.00,10.00,M,29.75,M,10.00,M,OVC,M,M,M,10000.00,M,M,M,M,KCGZ 010035Z AUTO 28010KT 10SM OVC100 A2975 RMK MADISHF
CGZ,2017-04-01 00:40,-111.7668,32.9549,M,M,M,270.00,11.00,M,29.75,M,10.00,M,OVC,M,M,M,10000.00,M,M,M,M,KCGZ 010040Z AUTO 27011KT 10SM OVC100 A2975 RMK MADISHF
CGZ,2017-04-01 00:45,-111.7668,32.9549,M,M,M,290.00,9.00,M,29.75,M,10.00,M,OVC,M,M,M,10000.00,M,M,M,M,KCGZ 010045Z AUTO 29009KT 10SM OVC100 A2975 RMK MADISHF
CGZ,2017-04-01 00:50,-111.7668,32.9549,M,M,M,270.00,12.00,M,29.75,M,10.00,M,OVC,M,M,M,10000.00,M,M,M,M,KCGZ 010050Z AUTO 27012KT 10SM OVC100 A2975 RMK MADISHF
CGZ,2017-04-01 00:55,-111.7668,32.9549,M,M,M,300.00,10.00,M,29.76,M,10.00,M,OVC,M,M,M,10000.00,M,M,M,M,KCGZ 010055Z AUTO 30010KT 10SM OVC100 A2976 RMK MADISHF
CGZ,2017-04-01 00:56,-111.7668,32.9549,64.00,26.10,23.61,300.00,11.00,0.00,29.76,1007.00,10.00,15.00,OVC,M,M,M,10000.00,M,M,M,M,KCGZ 010056Z AUTO 30011G15KT 10SM OVC100 18/M03 A2976 RMK AO2 SLP070 T01781033 $
CGZ,2017-04-01 01:00,-111.7668,32.9549,M,M,M,300.00,12.00,M,29.76,M,10.00,M,OVC,M,M,M,10000.00,M,M,M,M,KCGZ 010100Z AUTO 30012KT 10SM OVC100 A2976 RMK MADISHF
CGZ,2017-04-01 01:05,-111.7668,32.9549,M,M,M,290.00,9.00,M,29.76,M,10.00,M,OVC,M,M,M,10000.00,M,M,M,M,KCGZ 010105Z AUTO 29009KT 10SM OVC100 A2976 RMK MADISHF
CGZ,2017-04-01 01:10,-111.7668,32.9549,M,M,M,280.00,7.00,M,29.76,M,10.00,M,OVC,M,M,M,10000.00,M,M,M,M,KCGZ 010110Z AUTO 28007KT 10SM OVC100 A2976 RMK MADISHF
CGZ,2017-04-01 01:15,-111.7668,32.9549,M,M,M,280.00,8.00,M,29.76,M,10.00,M,OVC,M,M,M,10000.00,M,M,M,M,KCGZ 010115Z AUTO 28008KT 10SM OVC100 A2976 RMK MADISHF
CGZ,2017-04-01 01:20,-111.7668,32.9549,M,M,M,300.00,10.00,M,29.76,M,10.00,M,OVC,M,M,M,10000.00,M,M,M,M,KCGZ 010120Z AUTO 30010KT 10SM OVC100 A2976 RMK MADISHF
CGZ,2017-04-01 01:25,-111.7668,32.9549,M,M,M,280.00,9.00,M,29.76,M,10.00,M,OVC,M,M,M,10000.00,M,M,M,M,KCGZ 010125Z AUTO 28009KT 10SM OVC100 A2976 RMK MADISHF
CGZ,2017-04-01 01:30,-111.7668,32.9549,M,M,M,300.00,5.00,M,29.76,M,10.00,M,OVC,M,M,M,9500.00,M,M,M,M,KCGZ 010130Z AUTO 30005KT 10SM OVC095 A2976 RMK MADISHF
CGZ,2017-04-01 01:35,-111.7668,32.9549,M,M,M,320.00,7.00,M,29.77,M,10.00,M,OVC,M,M,M,9500.00,M,M,M,M,KCGZ 010135Z AUTO 32007KT 10SM OVC095 A2977 RMK MADISHF
CGZ,2017-04-01 01:40,-111.7668,32.9549,M,M,M,300.00,6.00,M,29.77,M,10.00,M,OVC,M,M,M,9000.00,M,M,M,M,KCGZ 010140Z AUTO 30006KT 10SM OVC090 A2977 RMK MADISHF
CGZ,2017-04-01 01:45,-111.7668,32.9549,M,M,M,300.00,7.00,M,29.77,M,10.00,M,OVC,M,M,M,9000.00,M,M,M,M,KCGZ 010145Z AUTO 30007KT 10SM OVC090 A2977 RMK MADISHF
CGZ,2017-04-01 01:50,-111.7668,32.9549,M,M,M,320.00,7.00,M,29.77,M,10.00,M,OVC,M,M,M,9000.00,M,M,M,M,KCGZ 010150Z AUTO 32007KT 10SM OVC090 A2977 RMK MADISHF
CGZ,2017-04-01 01:55,-111.7668,32.9549,M,M,M,310.00,7.00,M,29.77,M,10.00,M,OVC,M,M,M,8500.00,M,M,M,M,KCGZ 010155Z AUTO 31007KT 10SM OVC085 A2977 RMK MADISHF
CGZ,2017-04-01 01:56,-111.7668,32.9549,64.00,28.00,25.54,310.00,8.00,0.00,29.77,1007.80,10.00,M,OVC,M,M,M,8500.00,M,M,M,M,KCGZ 010156Z AUTO 31008KT 10SM OVC085 18/M02 A2977 RMK AO2 SLP078 T01781022 $
CGZ,2017-04-01 02:00,-111.7668,32.9549,M,M,M,310.00,5.00,M,29.78,M,10.00,M,OVC,M,M,M,8500.00,M,M,M,M,KCGZ 010200Z AUTO 31005KT 10SM OVC085 A2978 RMK MADISHF
CGZ,2017-04-01 02:10,-111.7668,32.9549,M,M,M,340.00,11.00,M,29.79,M,10.00,M,OVC,M,M,M,9000.00,M,M,M,M,KCGZ 010210Z AUTO 34011KT 10SM OVC090 A2979 RMK MADISHF
CGZ,2017-04-01 02:15,-111.7668,32.9549,M,M,M,350.00,10.00,M,29.79,M,10.00,M,OVC,M,M,M,9000.00,M,M,M,M,KCGZ 010215Z AUTO 35010KT 10SM OVC090 A2979 RMK MADISHF
CGZ,2017-04-01 02:20,-111.7668,32.9549,M,M,M,340.00,9.00,M,29.79,M,10.00,M,BKN,OVC,M,M,9000.00,10000.00,M,M,M,KCGZ 010220Z AUTO 34009KT 10SM BKN090 OVC100 A2979 RMK MADISHF
CGZ,2017-04-01 02:25,-111.7668,32.9549,M,M,M,350.00,10.00,M,29.79,M,10.00,M,OVC,M,M,M,9500.00,M,M,M,M,KCGZ 010225Z AUTO 35010KT 10SM OVC095 A2979 RMK MADISHF
CGZ,2017-04-01 02:30,-111.7668,32.9549,M,M,M,360.00,8.00,M,29.79,M,10.00,M,BKN,M,M,M,9500.00,M,M,M,M,KCGZ 010230Z AUTO 36008KT 10SM BKN095 A2979 RMK MADISHF
CGZ,2017-04-01 02:35,-111.7668,32.9549,M,M,M,360.00,8.00,M,29.80,M,10.00,M,SCT,BKN,M,M,9000.00,10000.00,M,M,M,KCGZ 010235Z AUTO 36008KT 10SM SCT090 BKN100 A2980 RMK MADISHF
CGZ,2017-04-01 02:40,-111.7668,32.9549,M,M,M,360.00,8.00,M,29.80,M,10.00,M,BKN,M,M,M,9500.00,M,M,M,M,KCGZ 010240Z AUTO 36008KT 10SM BKN095 A2980 RMK MADISHF
CGZ,2017-04-01 02:45,-111.7668,32.9549,M,M,M,350.00,6.00,M,29.80,M,10.00,M,BKN,M,M,M,9500.00,M,M,M,M,KCGZ 010245Z AUTO 35006KT 10SM BKN095 A2980 RMK MADISHF
CGZ,2017-04-01 02:50,-111.7668,32.9549,M,M,M,350.00,6.00,M,29.80,M,10.00,M,BKN,M,M,M,9500.00,M,M,M,M,KCGZ 010250Z AUTO 35006KT 10SM BKN095 A2980 RMK MADISHF
CGZ,2017-04-01 02:55,-111.7668,32.9549,M,M,M,350.00,6.00,M,29.81,M,10.00,M,BKN,M,M,M,9000.00,M,M,M,M,KCGZ 010255Z AUTO 35006KT 10SM BKN090 A2981 RMK MADISHF
CGZ,2017-04-01 02:56,-111.7668,32.9549,62.10,30.00,29.63,350.00,6.00,0.00,29.81,1008.80,10.00,M,BKN,M,M,M,9500.00,M,M,M,M,KCGZ 010256Z AUTO 35006KT 10SM BKN095 17/M01 A2981 RMK AO2 SLP088 T01671011 53020 $
CGZ,2017-04-01 03:05,-111.7668,32.9549,M,M,M,350.00,7.00,M,29.81,M,10.00,M,BKN,M,M,M,9000.00,M,M,M,M,KCGZ 010305Z AUTO 35007KT 10SM BKN090 A2981 RMK MADISHF
CGZ,2017-04-01 03:10,-111.7668,32.9549,M,M,M,350.00,8.00,M,29.81,M,10.00,M,BKN,M,M,M,9000.00,M,M,M,M,KCGZ 010310Z AUTO 35008KT 10SM BKN090 A2981 RMK MADISHF
CGZ,2017-04-01 03:15,-111.7668,32.9549,M,M,M,350.00,8.00,M,29.81,M,10.00,M,BKN,M,M,M,9000.00,M,M,M,M,KCGZ 010315Z AUTO 35008KT 10SM BKN090 A2981 RMK MADISHF
CGZ,2017-04-01 03:20,-111.7668,32.9549,M,M,M,340.00,8.00,M,29.81,M,10.00,M,BKN,M,M,M,9000.00,M,M,M,M,KCGZ 010320Z AUTO 34008KT 10SM BKN090 A2981 RMK MADISHF
CGZ,2017-04-01 03:25,-111.7668,32.9549,M,M,M,340.00,8.00,M,29.81,M,10.00,M,SCT,M,M,M,9000.00,M,M,M,M,KCGZ 010325Z AUTO 34008KT 10SM SCT090 A2981 RMK MADISHF
CGZ,2017-04-01 03:30,-111.7668,32.9549,M,M,M,340.00,6.00,M,29.81,M,10.00,M,FEW,M,M,M,9000.00,M,M,M,M,KCGZ 010330Z AUTO 34006KT 10SM FEW090 A2981 RMK MADISHF
CGZ,2017-04-01 03:35,-111.7668,32.9549,M,M,M,350.00,6.00,M,29.81,M,10.00,M,FEW,M,M,M,9000.00,M,M,M,M,KCGZ 010335Z AUTO 35006KT 10SM FEW090 A2981 RMK MADISHF
CGZ,2017-04-01 03:40,-111.7668,32.9549,M,M,M,350.00,6.00,M,29.81,M,10.00,M,FEW,M,M,M,8500.00,M,M,M,M,KCGZ 010340Z AUTO 35006KT 10SM FEW085 A2981 RMK MADISHF
CGZ,2017-04-01 03:45,-111.7668,32.9549,M,M,M,350.00,6.00,M,29.82,M,10.00,M,FEW,M,M,M,8500.00,M,M,M,M,KCGZ 010345Z AUTO 35006KT 10SM FEW085 A2982 RMK MADISHF
CGZ,2017-04-01 03:50,-111.7668,32.9549,M,M,M,360.00,6.00,M,29.82,M,10.00,M,CLR,M,M,M,M,M,M,M,M,KCGZ 010350Z AUTO 36006KT 10SM CLR A2982 RMK MADISHF
CGZ,2017-04-01 03:55,-111.7668,32.9549,M,M,M,10.00,6.00,M,29.82,M,10.00,M,CLR,M,M,M,M,M,M,M,M,KCGZ 010355Z AUTO 01006KT 10SM CLR A2982 RMK MADISHF
CGZ,2017-04-01 03:56,-111.7668,32.9549,59.00,30.00,33.08,10.00,6.00,0.00,29.82,1009.40,10.00,M,CLR,M,M,M,M,M,M,M,M,KCGZ 010356Z AUTO 01006KT 10SM CLR 15/M01 A2982 RMK AO2 SLP094 T01501011 $
CGZ,2017-04-01 04:00,-111.7668,32.9549,M,M,M,10.00,5.00,M,29.82,M,10.00,M,CLR,M,M,M,M,M,M,M,M,KCGZ 010400Z AUTO 01005KT 10SM CLR A2982 RMK MADISHF
CGZ,2017-04-01 04:05,-111.7668,32.9549,M,M,M,10.00,6.00,M,29.82,M,10.00,M,CLR,M,M,M,M,M,M,M,M,KCGZ 010405Z AUTO 01006KT 10SM CLR A2982 RMK MADISHF
CGZ,2017-04-01 04:10,-111.7668,32.9549,M,M,M,40.00,6.00,M,29.82,M,10.00,M,CLR,M,M,M,M,M,M,M,M,KCGZ 010410Z AUTO 04006KT 10SM CLR A2982 RMK MADISHF
CGZ,2017-04-01 04:15,-111.7668,32.9549,M,M,M,40.00,7.00,M,29.82,M,10.00,M,CLR,M,M,M,M,M,M,M,M,KCGZ 010415Z AUTO 04007KT 10SM CLR A2982 RMK MADISHF
CGZ,2017-04-01 04:20,-111.7668,32.9549,M,M,M,50.00,6.00,M,29.82,M,10.00,M,CLR,M,M,M,M,M,M,M,M,KCGZ 010420Z AUTO 05006KT 10SM CLR A2982 RMK MADISHF
CGZ,2017-04-01 04:25,-111.7668,32.9549,M,M,M,50.00,6.00,M,29.83,M,10.00,M,CLR,M,M,M,M,M,M,M,M,KCGZ 010425Z AUTO 05006KT 10SM CLR A2983 RMK MADISHF
CGZ,2017-04-01 04:35,-111.7668,32.9549,M,M,M,40.00,6.00,M,29.83,M,10.00,M,CLR,M,M,M,M,M,M,M,M,KCGZ 010435Z AUTO 04006KT 10SM CLR A2983 RMK MADISHF
CGZ,2017-04-01 04:40,-111.7668,32.9549,M,M,M,40.00,6.00,M,29.83,M,10.00,M,CLR,M,M,M,M,M,M,M,M,KCGZ 010440Z AUTO 04006KT 10SM CLR A2983 RMK MADISHF
CGZ,2017-04-01 04:45,-111.7668,32.9549,M,M,M,40.00,5.00,M,29.83,M,10.00,M,CLR,M,M,M,M,M,M,M,M,KCGZ 010445Z AUTO 04005KT 10SM CLR A2983 RMK MADISHF
CGZ,2017-04-01 04:50,-111.7668,32.9549,M,M,M,40.00,6.00,M,29.83,M,10.00,M,SCT,M,M,M,9000.00,M,M,M,M,KCGZ 010450Z AUTO 04006KT 10SM SCT090 A2983 RMK MADISHF
CGZ,2017-04-01 04:55,-111.7668,32.9549,M,M,M,40.00,6.00,M,29.83,M,10.00,M,SCT,M,M,M,9000.00,M,M,M,M,KCGZ 010455Z AUTO 04006KT 10SM SCT090 A2983 RMK MADISHF
CGZ,2017-04-01 04:56,-111.7668,32.9549,57.00,28.00,32.75,40.00,5.00,0.00,29.83,1009.80,10.00,M,SCT,M,M,M,9000.00,M,M,M,M,KCGZ 010456Z AUTO 04005KT 10SM SCT090 14/M02 A2983 RMK AO2 SLP098 T01391022 $
CGZ,2017-04-01 05:00,-111.7668,32.9549,M,M,M,40.00,4.00,M,29.83,M,10.00,M,SCT,M,M,M,9000.00,M,M,M,M,KCGZ 010500Z AUTO 04004KT 10SM SCT090 A2983 RMK MADISHF
CGZ,2017-04-01 05:05,-111.7668,32.9549,M,M,M,50.00,4.00,M,29.83,M,10.00,M,SCT,M,M,M,9000.00,M,M,M,M,KCGZ 010505Z AUTO 05004KT 10SM SCT090 A2983 RMK MADISHF
CGZ,2017-04-01 05:10,-111.7668,32.9549,M,M,M,50.00,3.00,M,29.83,M,10.00,M,SCT,M,M,M,9000.00,M,M,M,M,KCGZ 010510Z AUTO 05003KT 10SM SCT090 A2983 RMK MADISHF
CGZ,2017-04-01 05:15,-111.7668,32.9549,M,M,M,50.00,3.00,M,29.83,M,10.00,M,FEW,M,M,M,9000.00,M,M,M,M,KCGZ 010515Z AUTO 05003KT 10SM FEW090 A2983 RMK MADISHF
CGZ,2017-04-01 05:20,-111.7668,32.9549,M,M,M,50.00,3.00,M,29.83,M,10.00,M,FEW,M,M,M,9000.00,M,M,M,M,KCGZ 010520Z AUTO 05003KT 10SM FEW090 A2983 RMK MADISHF
CGZ,2017-04-01 05:25,-111.7668,32.9549,M,M,M,70.00,3.00,M,29.83,M,10.00,M,CLR,M,M,M,M,M,M,M,M,KCGZ 010525Z AUTO 07003KT 10SM CLR A2983 RMK MADISHF
CGZ,2017-04-01 05:30,-111.7668,32.9549,M,M,M,50.00,3.00,M,29.83,M,10.00,M,CLR,M,M,M,M,M,M,M,M,KCGZ 010530Z AUTO 05003KT 10SM CLR A2983 RMK MADISHF
CGZ,2017-04-01 05:35,-111.7668,32.9549,M,M,M,40.00,3.00,M,29.83,M,10.00,M,CLR,M,M,M,M,M,M,M,M,KCGZ 010535Z AUTO 04003KT 10SM CLR A2983 RMK MADISHF
CGZ,2017-04-01 05:40,-111.7668,32.9549,M,M,M,50.00,3.00,M,29.83,M,10.00,M,CLR,M,M,M,M,M,M,M,M,KCGZ 010540Z AUTO 05003KT 10SM CLR A2983 RMK MADISHF
CGZ,2017-04-01 05:45,-111.7668,32.9549,M,M,M,70.00,3.00,M,29.83,M,10.00,M,CLR,M,M,M,M,M,M,M,M,KCGZ 010545Z AUTO 07003KT 10SM CLR A2983 RMK MADISHF
CGZ,2017-04-01 05:50,-111.7668,32.9549,M,M,M,0.00,0.00,M,29.83,M,10.00,M,CLR,M,M,M,M,M,M,M,M,KCGZ 010550Z AUTO 00000KT 10SM CLR A2983 RMK MADISHF
CGZ,2017-04-01 05:55,-111.7668,32.9549,M,M,M,0.00,0.00,M,29.83,M,10.00,M,CLR,M,M,M,M,M,M,M,M,KCGZ 010555Z AUTO 00000KT 10SM CLR A2983 RMK MADISHF
CGZ,2017-04-01 05:56,-111.7668,32.9549,53.10,28.00,37.74,0.00,0.00,0.00,29.83,1009.90,10.00,M,CLR,M,M,M,M,M,M,M,M,KCGZ 010556Z AUTO 00000KT 10SM CLR 12/M02 A2983 RMK AO2 SLP099 T01171022 10189 20117 51008 $
CGZ,2017-04-01 06:00,-111.7668,32.9549,M,M,M,170.00,3.00,M,29.83,M,10.00,M,CLR,M,M,M,M,M,M,M,M,KCGZ 010600Z AUTO 17003KT 10SM CLR A2983 RMK MADISHF
CGZ,2017-04-01 06:05,-111.7668,32.9549,M,M,M,0.00,0.00,M,29.83,M,10.00,M,CLR,M,M,M,M,M,M,M,M,KCGZ 010605Z AUTO 00000KT 10SM CLR A2983 RMK MADISHF
CGZ,2017-04-01 06:10,-111.7668,32.9549,M,M,M,0.00,0.00,M,29.84,M,10.00,M,CLR,M,M,M,M,M,M,M,M,KCGZ 010610Z AUTO 00000KT 10SM CLR A2984 RMK MADISHF
CGZ,2017-04-01 06:15,-111.7668,32.9549,M,M,M,0.00,0.00,M,29.84,M,10.00,M,CLR,M,M,M,M,M,M,M,M,KCGZ 010615Z AUTO 00000KT 10SM CLR A2984 RMK MADISHF
CGZ,2017-04-01 06:20,-111.7668,32.9549,M,M,M,0.00,0.00,M,29.84,M,10.00,M,CLR,M,M,M,M,M,M,M,M,KCGZ 010620Z AUTO 00000KT 10SM CLR A2984 RMK MADISHF
CGZ,2017-04-01 06:25,-111.7668,32.9549,M,M,M,0.00,0.00,M,29.84,M,10.00,M,CLR,M,M,M,M,M,M,M,M,KCGZ 010625Z AUTO 00000KT 10SM CLR A2984 RMK MADISHF
CGZ,2017-04-01 06:30,-111.7668,32.9549,M,M,M,0.00,0.00,M,29.84,M,10.00,M,CLR,M,M,M,M,M,M,M,M,KCGZ 010630Z AUTO 00000KT 10SM CLR A2984 RMK MADISHF
CGZ,2017-04-01 06:35,-111.7668,32.9549,M,M,M,0.00,0.00,M,29.84,M,10.00,M,CLR,M,M,M,M,M,M,M,M,KCGZ 010635Z AUTO 00000KT 10SM CLR A2984 RMK MADISHF
CGZ,2017-04-01 06:40,-111.7668,32.9549,M,M,M,0.00,0.00,M,29.84,M,10.00,M,CLR,M,M,M,M,M,M,M,M,KCGZ 010640Z AUTO 00000KT 10SM CLR A2984 RMK MADISHF
CGZ,2017-04-01 06:45,-111.7668,32.9549,M,M,M,0.00,0.00,M,29.84,M,10.00,M,CLR,M,M,M,M,M,M,M,M,KCGZ 010645Z AUTO 00000KT 10SM CLR A2984 RMK MADISHF
CGZ,2017-04-01 06:50,-111.7668,32.9549,M,M,M,0.00,0.00,M,29.84,M,10.00,M,CLR,M,M,M,M,M,M,M,M,KCGZ 010650Z AUTO 00000KT 10SM CLR A2984 RMK MADISHF
CGZ,2017-04-01 06:55,-111.7668,32.9549,M,M,M,0.00,0.00,M,29.84,M,10.00,M,CLR,M,M,M,M,M,M,M,M,KCGZ 010655Z AUTO 00000KT 10SM CLR A2984 RMK MADISHF
CGZ,2017-04-01 06:56,-111.7668,32.9549,53.10,28.00,37.74,0.00,0.00,0.00,29.84,1010.10,10.00,M,CLR,M,M,M,M,M,M,M,M,KCGZ 010656Z AUTO 00000KT 10SM CLR 12/M02 A2984 RMK AO2 SLP101 T01171022 402110117 $
CGZ,2017-04-01 07:00,-111.7668,32.9549,M,M,M,0.00,0.00,M,29.84,M,10.00,M,CLR,M,M,M,M,M,M,M,M,KCGZ 010700Z AUTO 00000KT 10SM CLR A2984 RMK MADISHF
CGZ,2017-04-01 07:05,-111.7668,32.9549,M,M,M,20.00,3.00,M,29.84,M,10.00,M,CLR,M,M,M,M,M,M,M,M,KCGZ 010705Z AUTO 02003KT 10SM CLR A2984 RMK MADISHF
CGZ,2017-04-01 07:10,-111.7668,32.9549,M,M,M,40.00,3.00,M,29.84,M,10.00,M,CLR,M,M,M,M,M,M,M,M,KCGZ 010710Z AUTO 04003KT 10SM CLR A2984 RMK MADISHF
CGZ,2017-04-01 07:15,-111.7668,32.9549,M,M,M,0.00,0.00,M,29.84,M,10.00,M,CLR,M,M,M,M,M,M,M,M,KCGZ 010715Z AUTO 00000KT 10SM CLR A2984 RMK MADISHF
CGZ,2017-04-01 07:20,-111.7668,32.9549,M,M,M,0.00,0.00,M,29.84,M,10.00,M,CLR,M,M,M,M,M,M,M,M,KCGZ 010720Z AUTO 00000KT 10SM CLR A2984 RMK MADISHF
CGZ,2017-04-01 07:25,-111.7668,32.9549,M,M,M,0.00,0.00,M,29.84,M,10.00,M,CLR,M,M,M,M,M,M,M,M,KCGZ 010725Z AUTO 00000KT 10SM CLR A2984 RMK MADISHF
CGZ,2017-04-01 07:30,-111.7668,32.9549,M,M,M,0.00,0.00,M,29.84,M,10.00,M,CLR,M,M,M,M,M,M,M,M,KCGZ 010730Z AUTO 00000KT 10SM CLR A2984 RMK MADISHF
CGZ,2017-04-01 07:35,-111.7668,32.9549,M,M,M,0.00,0.00,M,29.85,M,10.00,M,CLR,M,M,M,M,M,M,M,M,KCGZ 010735Z AUTO 00000KT 10SM CLR A2985 RMK MADISHF
CGZ,2017-04-01 07:40,-111.7668,32.9549,M,M,M,20.00,3.00,M,29.85,M,10.00,M,CLR,M,M,M,M,M,M,M,M,KCGZ 010740Z AUTO 02003KT 10SM CLR A2985 RMK MADISHF
CGZ,2017-04-01 07:45,-111.7668,32.9549,M,M,M,20.00,3.00,M,29.85,M,10.00,M,CLR,M,M,M,M,M,M,M,M,KCGZ 010745Z AUTO 02003KT 10SM CLR A2985 RMK MADISHF
CGZ,2017-04-01 07:50,-111.7668,32.9549,M,M,M,20.00,3.00,M,29.85,M,10.00,M,CLR,M,M,M,M,M,M,M,M,KCGZ 010750Z AUTO 02003KT 10SM CLR A2985 RMK MADISHF
CGZ,2017-04-01 07:55,-111.7668,32.9549,M,M,M,20.00,3.00,M,29.85,M,10.00,M,CLR,M,M,M,M,M,M,M,M,KCGZ 010755Z AUTO 02003KT 10SM CLR A2985 RMK MADISHF
CGZ,2017-04-01 07:56,-111.7668,32.9549,51.10,28.00,40.63,20.00,3.00,0.00,29.85,1010.30,10.00,M,CLR,M,M,M,M,M,M,M,M,KCGZ 010756Z AUTO 02003KT 10SM CLR 11/M02 A2985 RMK AO2 SLP103 T01061022 $
CGZ,2017-04-01 08:00,-111.7668,32.9549,M,M,M,10.00,3.00,M,29.85,M,10.00,M,CLR,M,M,M,M,M,M,M,M,KCGZ 010800Z AUTO 01003KT 10SM CLR A2985 RMK MADISHF
CGZ,2017-04-01 08:05,-111.7668,32.9549,M,M,M,360.00,3.00,M,29.85,M,10.00,M,CLR,M,M,M,M,M,M,M,M,KCGZ 010805Z AUTO 36003KT 10SM CLR A2985 RMK MADISHF
CGZ,2017-04-01 08:10,-111.7668,32.9549,M,M,M,360.00,4.00,M,29.85,M,10.00,M,CLR,M,M,M,M,M,M,M,M,KCGZ 010810Z AUTO 36004KT 10SM CLR A2985 RMK MADISHF
CGZ,2017-04-01 08:15,-111.7668,32.9549,M,M,M,360.00,5.00,M,29.85,M,10.00,M,CLR,M,M,M,M,M,M,M,M,KCGZ 010815Z AUTO 36005KT 10SM CLR A2985 RMK MADISHF
CGZ,2017-04-01 08:20,-111.7668,32.9549,M,M,M,10.00,4.00,M,29.85,M,10.00,M,CLR,M,M,M,M,M,M,M,M,KCGZ 010820Z AUTO 01004KT 10SM CLR A2985 RMK MADISHF
CGZ,2017-04-01 08:25,-111.7668,32.9549,M,M,M,360.00,4.00,M,29.85,M,10.00,M,CLR,M,M,M,M,M,M,M,M,KCGZ 010825Z AUTO 36004KT 10SM CLR A2985 RMK MADISHF
CGZ,2017-04-01 08:30,-111.7668,32.9549,M,M,M,340.00,4.00,M,29.85,M,10.00,M,CLR,M,M,M,M,M,M,M,M,KCGZ 010830Z AUTO 34004KT 10SM CLR A2985 RMK MADISHF
CGZ,2017-04-01 08:35,-111.7668,32.9549,M,M,M,300.00,5.00,M,29.85,M,10.00,M,CLR,M,M,M,M,M,M,M,M,KCGZ 010835Z AUTO 30005KT 10SM CLR A2985 RMK MADISHF
CGZ,2017-04-01 08:40,-111.7668,32.9549,M,M,M,300.00,6.00,M,29.85,M,10.00,M,CLR,M,M,M,M,M,M,M,M,KCGZ 010840Z AUTO 30006KT 10SM CLR A2985 RMK MADISHF
CGZ,2017-04-01 08:45,-111.7668,32.9549,M,M,M,290.00,6.00,M,29.85,M,10.00,M,CLR,M,M,M,M,M,M,M,M,KCGZ 010845Z AUTO 29006KT 10SM CLR A2985 RMK MADISHF
CGZ,2017-04-01 08:50,-111.7668,32.9549,M,M,M,290.00,6.00,M,29.85,M,10.00,M,CLR,M,M,M,M,M,M,M,M,KCGZ 010850Z AUTO 29006KT 10SM CLR A2985 RMK MADISHF
CGZ,2017-04-01 08:55,-111.7668,32.9549,M,M,M,300.00,6.00,M,29.85,M,10.00,M,CLR,M,M,M,M,M,M,M,M,KCGZ 010855Z AUTO 30006KT 10SM CLR A2985 RMK MADISHF
CGZ,2017-04-01 08:56,-111.7668,32.9549,51.10,27.00,38.99,300.00,6.00,0.00,29.86,1010.60,10.00,M,CLR,M,M,M,M,M,M,M,M,KCGZ 010856Z AUTO 30006KT 10SM CLR 11/M03 A2986 RMK AO2 SLP106 T01061028 53007 $
CGZ,2017-04-01 09:00,-111.7668,32.9549,M,M,M,300.00,6.00,M,29.85,M,10.00,M,CLR,M,M,M,M,M,M,M,M,KCGZ 010900Z AUTO 30006KT 10SM CLR A2985 RMK MADISHF
CGZ,2017-04-01 09:05,-111.7668,32.9549,M,M,M,310.00,5.00,M,29.85,M,10.00,M,CLR,M,M,M,M,M,M,M,M,KCGZ 010905Z AUTO 31005KT 10SM CLR A2985 RMK MADISHF
CGZ,2017-04-01 09:10,-111.7668,32.9549,M,M,M,300.00,5.00,M,29.85,M,10.00,M,CLR,M,M,M,M,M,M,M,M,KCGZ 010910Z AUTO 30005KT 10SM CLR A2985 RMK MADISHF
CGZ,2017-04-01 09:20,-111.7668,32.9549,M,M,M,280.00,6.00,M,29.85,M,10.00,M,CLR,M,M,M,M,M,M,M,M,KCGZ 010920Z AUTO 28006KT 10SM CLR A2985 RMK MADISHF
CGZ,2017-04-01 09:25,-111.7668,32.9549,M,M,M,290.00,7.00,M,29.86,M,10.00,M,CLR,M,M,M,M,M,M,M,M,KCGZ 010925Z AUTO 29007KT 10SM CLR A2986 RMK MADISHF
CGZ,2017-04-01 09:30,-111.7668,32.9549,M,M,M,290.00,8.00,M,29.85,M,10.00,M,CLR,M,M,M,M,M,M,M,M,KCGZ 010930Z AUTO 29008KT 10SM CLR A2985 RMK MADISHF
CGZ,2017-04-01 09:35,-111.7668,32.9549,M,M,M,290.00,8.00,M,29.85,M,10.00,M,CLR,M,M,M,M,M,M,M,M,KCGZ 010935Z AUTO 29008KT 10SM CLR A2985 RMK MADISHF
CGZ,2017-04-01 09:40,-111.7668,32.9549,M,M,M,290.00,8.00,M,29.85,M,10.00,M,CLR,M,M,M,M,M,M,M,M,KCGZ 010940Z AUTO 29008KT 10SM CLR A2985 RMK MADISHF
CGZ,2017-04-01 09:45,-111.7668,32.9549,M,M,M,290.00,8.00,M,29.85,M,10.00,M,CLR,M,M,M,M,M,M,M,M,KCGZ 010945Z AUTO 29008KT 10SM CLR A2985 RMK MADISHF
CGZ,2017-04-01 09:55,-111.7668,32.9549,M,M,M,300.00,8.00,M,29.86,M,10.00,M,CLR,M,M,M,M,M,M,M,M,KCGZ 010955Z AUTO 30008KT 10SM CLR A2986 RMK MADISHF
CGZ,2017-04-01 09:56,-111.7668,32.9549,52.00,28.00,39.30,300.00,8.00,0.00,29.86,1010.70,10.00,M,CLR,M,M,M,M,M,M,M,M,KCGZ 010956Z AUTO 30008KT 10SM CLR 11/M02 A2986 RMK AO2 SLP107 T01111022 $
CGZ,2017-04-01 10:00,-111.7668,32.9549,M,M,M,310.00,6.00,M,29.86,M,10.00,M,CLR,M,M,M,M,M,M,M,M,KCGZ 011000Z AUTO 31006KT 10SM CLR A2986 RMK MADISHF
CGZ,2017-04-01 10:05,-111.7668,32.9549,M,M,M,340.00,5.00,M,29.86,M,10.00,M,CLR,M,M,M,M,M,M,M,M,KCGZ 011005Z AUTO 34005KT 10SM CLR A2986 RMK MADISHF
CGZ,2017-04-01 10:10,-111.7668,32.9549,M,M,M,360.00,5.00,M,29.86,M,10.00,M,CLR,M,M,M,M,M,M,M,M,KCGZ 011010Z AUTO 36005KT 10SM CLR A2986 RMK MADISHF
CGZ,2017-04-01 10:15,-111.7668,32.9549,M,M,M,350.00,7.00,M,29.86,M,10.00,M,CLR,M,M,M,M,M,M,M,M,KCGZ 011015Z AUTO 35007KT 10SM CLR A2986 RMK MADISHF
CGZ,2017-04-01 10:20,-111.7668,32.9549,M,M,M,340.00,4.00,M,29.86,M,10.00,M,CLR,M,M,M,M,M,M,M,M,KCGZ 011020Z AUTO 34004KT 10SM CLR A2986 RMK MADISHF
CGZ,2017-04-01 10:25,-111.7668,32.9549,M,M,M,340.00,4.00,M,29.86,M,10.00,M,CLR,M,M,M,M,M,M,M,M,KCGZ 011025Z AUTO 34004KT 10SM CLR A2986 RMK MADISHF
CGZ,2017-04-01 10:40,-111.7668,32.9549,M,M,M,330.00,4.00,M,29.86,M,10.00,M,CLR,M,M,M,M,M,M,M,M,KCGZ 011040Z AUTO 33004KT 10SM CLR A2986 RMK MADISHF
CGZ,2017-04-01 10:45,-111.7668,32.9549,M,M,M,340.00,4.00,M,29.86,M,10.00,M,CLR,M,M,M,M,M,M,M,M,KCGZ 011045Z AUTO 34004KT 10SM CLR A2986 RMK MADISHF
CGZ,2017-04-01 10:50,-111.7668,32.9549,M,M,M,360.00,5.00,M,29.87,M,10.00,M,CLR,M,M,M,M,M,M,M,M,KCGZ 011050Z AUTO 36005KT 10SM CLR A2987 RMK MADISHF
CGZ,2017-04-01 10:55,-111.7668,32.9549,M,M,M,360.00,7.00,M,29.87,M,10.00,M,CLR,M,M,M,M,M,M,M,M,KCGZ 011055Z AUTO 36007KT 10SM CLR A2987 RMK MADISHF
CGZ,2017-04-01 10:56,-111.7668,32.9549,48.00,28.00,45.61,10.00,7.00,0.00,29.86,1011.00,10.00,M,CLR,M,M,M,M,M,M,M,M,KCGZ 011056Z AUTO 01007KT 10SM CLR 09/M02 A2986 RMK AO2 SLP110 T00891022 $
CGZ,2017-04-01 11:00,-111.7668,32.9549,M,M,M,10.00,7.00,M,29.86,M,10.00,M,CLR,M,M,M,M,M,M,M,M,KCGZ 011100Z AUTO 01007KT 10SM CLR A2986 RMK MADISHF
CGZ,2017-04-01 11:05,-111.7668,32.9549,M,M,M,360.00,7.00,M,29.86,M,10.00,M,CLR,M,M,M,M,M,M,M,M,KCGZ 011105Z AUTO 36007KT 10SM CLR A2986 RMK MADISHF
CGZ,2017-04-01 11:10,-111.7668,32.9549,M,M,M,10.00,6.00,M,29.86,M,10.00,M,FEW,M,M,M,10000.00,M,M,M,M,KCGZ 011110Z AUTO 01006KT 10SM FEW100 A2986 RMK MADISHF
CGZ,2017-04-01 11:15,-111.7668,32.9549,M,M,M,10.00,5.00,M,29.86,M,10.00,M,SCT,M,M,M,10000.00,M,M,M,M,KCGZ 011115Z AUTO 01005KT 10SM SCT100 A2986 RMK MADISHF
CGZ,2017-04-01 11:20,-111.7668,32.9549,M,M,M,350.00,4.00,M,29.86,M,10.00,M,BKN,M,M,M,10000.00,M,M,M,M,KCGZ 011120Z AUTO 35004KT 10SM BKN100 A2986 RMK MADISHF
CGZ,2017-04-01 11:25,-111.7668,32.9549,M,M,M,350.00,3.00,M,29.86,M,10.00,M,BKN,M,M,M,10000.00,M,M,M,M,KCGZ 011125Z AUTO 35003KT 10SM BKN100 A2986 RMK MADISHF
CGZ,2017-04-01 11:30,-111.7668,32.9549,M,M,M,0.00,0.00,M,29.87,M,10.00,M,BKN,M,M,M,10000.00,M,M,M,M,KCGZ 011130Z AUTO 00000KT 10SM BKN100 A2987 RMK MADISHF
CGZ,2017-04-01 11:35,-111.7668,32.9549,M,M,M,0.00,0.00,M,29.87,M,10.00,M,OVC,M,M,M,10000.00,M,M,M,M,KCGZ 011135Z AUTO 00000KT 10SM OVC100 A2987 RMK MADISHF
CGZ,2017-04-01 11:40,-111.7668,32.9549,M,M,M,240.00,3.00,M,29.87,M,10.00,M,OVC,M,M,M,10000.00,M,M,M,M,KCGZ 011140Z AUTO 24003KT 10SM OVC100 A2987 RMK VRB03KT  MADISHF
CGZ,2017-04-01 11:45,-111.7668,32.9549,M,M,M,200.00,3.00,M,29.87,M,10.00,M,BKN,M,M,M,10000.00,M,M,M,M,KCGZ 011145Z AUTO 20003KT 10SM BKN100 A2987 RMK MADISHF
CGZ,2017-04-01 11:50,-111.7668,32.9549,M,M,M,130.00,5.00,M,29.87,M,10.00,M,BKN,M,M,M,10000.00,M,M,M,M,KCGZ 011150Z AUTO 13005KT 10SM BKN100 A2987 RMK MADISHF
CGZ,2017-04-01 11:55,-111.7668,32.9549,M,M,M,0.00,0.00,M,29.87,M,10.00,M,SCT,M,M,M,10000.00,M,M,M,M,KCGZ 011155Z AUTO 00000KT 10SM SCT100 A2987 RMK MADISHF
CGZ,2017-04-01 11:56,-111.7668,32.9549,48.90,28.00,44.10,0.00,0.00,0.00,29.87,1011.20,10.00,M,SCT,M,M,M,10000.00,M,M,M,M,KCGZ 011156Z AUTO 00000KT 10SM SCT100 09/M02 A2987 RMK AO2 SLP112 7//// T00941022 10128 20089 53005 $
CGZ,2017-04-01 12:00,-111.7668,32.9549,M,M,M,0.00,0.00,M,29.87,M,10.00,M,FEW,M,M,M,10000.00,M,M,M,M,KCGZ 011200Z AUTO 00000KT 10SM FEW100 A2987 RMK MADISHF
CGZ,2017-04-01 12:05,-111.7668,32.9549,M,M,M,0.00,0.00,M,29.87,M,10.00,M,FEW,M,M,M,10000.00,M,M,M,M,KCGZ 011205Z AUTO 00000KT 10SM FEW100 A2987 RMK MADISHF
CGZ,2017-04-01 12:10,-111.7668,32.9549,M,M,M,0.00,0.00,M,29.87,M,10.00,M,CLR,M,M,M,M,M,M,M,M,KCGZ 011210Z AUTO 00000KT 10SM CLR A2987 RMK MADISHF
CGZ,2017-04-01 12:15,-111.7668,32.9549,M,M,M,0.00,0.00,M,29.87,M,10.00,M,CLR,M,M,M,M,M,M,M,M,KCGZ 011215Z AUTO 00000KT 10SM CLR A2987 RMK MADISHF
CGZ,2017-04-01 12:20,-111.7668,32.9549,M,M,M,350.00,3.00,M,29.87,M,10.00,M,CLR,M,M,M,M,M,M,M,M,KCGZ 011220Z AUTO 35003KT 10SM CLR A2987 RMK MADISHF
CGZ,2017-04-01 12:25,-111.7668,32.9549,M,M,M,350.00,3.00,M,29.87,M,10.00,M,CLR,M,M,M,M,M,M,M,M,KCGZ 011225Z AUTO 35003KT 10SM CLR A2987 RMK MADISHF
CGZ,2017-04-01 12:30,-111.7668,32.9549,M,M,M,0.00,0.00,M,29.87,M,10.00,M,CLR,M,M,M,M,M,M,M,M,KCGZ 011230Z AUTO 00000KT 10SM CLR A2987 RMK MADISHF
CGZ,2017-04-01 12:35,-111.7668,32.9549,M,M,M,120.00,3.00,M,29.87,M,10.00,M,CLR,M,M,M,M,M,M,M,M,KCGZ 011235Z AUTO 12003KT 10SM CLR A2987 RMK MADISHF
CGZ,2017-04-01 12:40,-111.7668,32.9549,M,M,M,0.00,0.00,M,29.88,M,10.00,M,CLR,M,M,M,M,M,M,M,M,KCGZ 011240Z AUTO 00000KT 10SM CLR A2988 RMK MADISHF
CGZ,2017-04-01 12:45,-111.7668,32.9549,M,M,M,70.00,3.00,M,29.88,M,10.00,M,CLR,M,M,M,M,M,M,M,M,KCGZ 011245Z AUTO 07003KT 10SM CLR A2988 RMK MADISHF
CGZ,2017-04-01 12:50,-111.7668,32.9549,M,M,M,80.00,3.00,M,29.88,M,10.00,M,CLR,M,M,M,M,M,M,M,M,KCGZ 011250Z AUTO 08003KT 10SM CLR A2988 RMK MADISHF
CGZ,2017-04-01 12:55,-111.7668,32.9549,M,M,M,60.00,4.00,M,29.89,M,10.00,M,CLR,M,M,M,M,M,M,M,M,KCGZ 011255Z AUTO 06004KT 10SM CLR A2989 RMK MADISHF
CGZ,2017-04-01 12:56,-111.7668,32.9549,46.90,28.00,47.54,70.00,4.00,0.00,29.89,1011.80,10.00,M,CLR,M,M,M,M,M,M,M,M,KCGZ 011256Z AUTO 07004KT 10SM CLR 08/M02 A2989 RMK AO2 SLP118 T00831022 $
CGZ,2017-04-01 13:00,-111.7668,32.9549,M,M,M,80.00,4.00,M,29.89,M,10.00,M,CLR,M,M,M,M,M,M,M,M,KCGZ 011300Z AUTO 08004KT 10SM CLR A2989 RMK MADISHF
CGZ,2017-04-01 13:05,-111.7668,32.9549,M,M,M,70.00,3.00,M,29.89,M,10.00,M,CLR,M,M,M,M,M,M,M,M,KCGZ 011305Z AUTO 07003KT 10SM CLR A2989 RMK MADISHF
CGZ,2017-04-01 13:10,-111.7668,32.9549,M,M,M,0.00,0.00,M,29.89,M,10.00,M,CLR,M,M,M,M,M,M,M,M,KCGZ 011310Z AUTO 00000KT 10SM CLR A2989 RMK MADISHF
CGZ,2017-04-01 13:15,-111.7668,32.9549,M,M,M,0.00,0.00,M,29.89,M,10.00,M,CLR,M,M,M,M,M,M,M,M,KCGZ 011315Z AUTO 00000KT 10SM CLR A2989 RMK MADISHF
CGZ,2017-04-01 13:20,-111.7668,32.9549,M,M,M,0.00,0.00,M,29.89,M,10.00,M,CLR,M,M,M,M,M,M,M,M,KCGZ 011320Z AUTO 00000KT 10SM CLR A2989 RMK MADISHF
CGZ,2017-04-01 13:30,-111.7668,32.9549,M,M,M,80.00,3.00,M,29.90,M,10.00,M,CLR,M,M,M,M,M,M,M,M,KCGZ 011330Z AUTO 08003KT 10SM CLR A2990 RMK MADISHF
CGZ,2017-04-01 13:35,-111.7668,32.9549,M,M,M,0.00,0.00,M,29.90,M,10.00,M,CLR,M,M,M,M,M,M,M,M,KCGZ 011335Z AUTO 00000KT 10SM CLR A2990 RMK MADISHF
CGZ,2017-04-01 13:40,-111.7668,32.9549,M,M,M,0.00,0.00,M,29.90,M,10.00,M,CLR,M,M,M,M,M,M,M,M,KCGZ 011340Z AUTO 00000KT 10SM CLR A2990 RMK MADISHF
CGZ,2017-04-01 13:50,-111.7668,32.9549,M,M,M,0.00,0.00,M,29.90,M,10.00,M,CLR,M,M,M,M,M,M,M,M,KCGZ 011350Z AUTO 00000KT 10SM CLR A2990 RMK MADISHF
CGZ,2017-04-01 13:55,-111.7668,32.9549,M,M,M,0.00,0.00,M,29.90,M,10.00,M,CLR,M,M,M,M,M,M,M,M,KCGZ 011355Z AUTO 00000KT 10SM CLR A2990 RMK MADISHF
CGZ,2017-04-01 13:56,-111.7668,32.9549,46.00,28.00,49.18,0.00,0.00,0.00,29.90,1012.50,10.00,M,CLR,M,M,M,M,M,M,M,M,KCGZ 011356Z AUTO 00000KT 10SM CLR 08/M02 A2990 RMK AO2 SLP125 T00781022 $
CGZ,2017-04-01 14:00,-111.7668,32.9549,M,M,M,0.00,0.00,M,29.91,M,10.00,M,CLR,M,M,M,M,M,M,M,M,KCGZ 011400Z AUTO 00000KT 10SM CLR A2991 RMK MADISHF
CGZ,2017-04-01 14:05,-111.7668,32.9549,M,M,M,0.00,0.00,M,29.91,M,10.00,M,CLR,M,M,M,M,M,M,M,M,KCGZ 011405Z AUTO 00000KT 10SM CLR A2991 RMK MADISHF
CGZ,2017-04-01 14:10,-111.7668,32.9549,M,M,M,170.00,3.00,M,29.91,M,10.00,M,CLR,M,M,M,M,M,M,M,M,KCGZ 011410Z AUTO 17003KT 10SM CLR A2991 RMK MADISHF
CGZ,2017-04-01 14:15,-111.7668,32.9549,M,M,M,0.00,0.00,M,29.91,M,10.00,M,CLR,M,M,M,M,M,M,M,M,KCGZ 011415Z AUTO 00000KT 10SM CLR A2991 RMK MADISHF
CGZ,2017-04-01 14:20,-111.7668,32.9549,M,M,M,0.00,0.00,M,29.91,M,10.00,M,CLR,M,M,M,M,M,M,M,M,KCGZ 011420Z AUTO 00000KT 10SM CLR A2991 RMK MADISHF
CGZ,2017-04-01 14:25,-111.7668,32.9549,M,M,M,0.00,0.00,M,29.91,M,10.00,M,FEW,M,M,M,9000.00,M,M,M,M,KCGZ 011425Z AUTO 00000KT 10SM FEW090 A2991 RMK MADISHF
CGZ,2017-04-01 14:30,-111.7668,32.9549,M,M,M,0.00,0.00,M,29.92,M,10.00,M,SCT,M,M,M,9000.00,M,M,M,M,KCGZ 011430Z AUTO 00000KT 10SM SCT090 A2992 RMK MADISHF
CGZ,2017-04-01 14:35,-111.7668,32.9549,M,M,M,0.00,0.00,M,29.92,M,10.00,M,BKN,M,M,M,9000.00,M,M,M,M,KCGZ 011435Z AUTO 00000KT 10SM BKN090 A2992 RMK MADISHF
CGZ,2017-04-01 14:40,-111.7668,32.9549,M,M,M,0.00,0.00,M,29.92,M,10.00,M,BKN,M,M,M,9000.00,M,M,M,M,KCGZ 011440Z AUTO 00000KT 10SM BKN090 A2992 RMK MADISHF
CGZ,2017-04-01 14:45,-111.7668,32.9549,M,M,M,0.00,0.00,M,29.92,M,10.00,M,BKN,M,M,M,9000.00,M,M,M,M,KCGZ 011445Z AUTO 00000KT 10SM BKN090 A2992 RMK MADISHF
CGZ,2017-04-01 14:50,-111.7668,32.9549,M,M,M,0.00,0.00,M,29.92,M,10.00,M,OVC,M,M,M,9000.00,M,M,M,M,KCGZ 011450Z AUTO 00000KT 10SM OVC090 A2992 RMK MADISHF
CGZ,2017-04-01 14:55,-111.7668,32.9549,M,M,M,0.00,0.00,M,29.92,M,10.00,M,OVC,M,M,M,9000.00,M,M,M,M,KCGZ 011455Z AUTO 00000KT 10SM OVC090 A2992 RMK MADISHF
CGZ,2017-04-01 14:56,-111.7668,32.9549,51.10,30.00,44.09,0.00,0.00,0.00,29.92,1013.00,10.00,M,OVC,M,M,M,9000.00,M,M,M,M,KCGZ 011456Z AUTO 00000KT 10SM OVC090 11/M01 A2992 RMK AO2 SLP130 T01061011 53017 $
CGZ,2017-04-01 15:00,-111.7668,32.9549,M,M,M,0.00,0.00,M,29.93,M,10.00,M,OVC,M,M,M,9000.00,M,M,M,M,KCGZ 011500Z AUTO 00000KT 10SM OVC090 A2993 RMK MADISHF
CGZ,2017-04-01 15:05,-111.7668,32.9549,M,M,M,0.00,0.00,M,29.93,M,10.00,M,OVC,M,M,M,9000.00,M,M,M,M,KCGZ 011505Z AUTO 00000KT 10SM OVC090 A2993 RMK MADISHF
CGZ,2017-04-01 15:10,-111.7668,32.9549,M,M,M,0.00,0.00,M,29.93,M,10.00,M,OVC,M,M,M,9000.00,M,M,M,M,KCGZ 011510Z AUTO 00000KT 10SM OVC090 A2993 RMK MADISHF
CGZ,2017-04-01 15:15,-111.7668,32.9549,M,M,M,0.00,0.00,M,29.93,M,10.00,M,OVC,M,M,M,9000.00,M,M,M,M,KCGZ 011515Z AUTO 00000KT 10SM OVC090 A2993 RMK MADISHF
CGZ,2017-04-01 15:20,-111.7668,32.9549,M,M,M,0.00,0.00,M,29.93,M,10.00,M,OVC,M,M,M,9000.00,M,M,M,M,KCGZ 011520Z AUTO 00000KT 10SM OVC090 A2993 RMK MADISHF
CGZ,2017-04-01 15:25,-111.7668,32.9549,M,M,M,120.00,3.00,M,29.93,M,10.00,M,OVC,M,M,M,9000.00,M,M,M,M,KCGZ 011525Z AUTO 12003KT 10SM OVC090 A2993 RMK MADISHF
CGZ,2017-04-01 15:30,-111.7668,32.9549,M,M,M,0.00,0.00,M,29.93,M,10.00,M,BKN,M,M,M,9000.00,M,M,M,M,KCGZ 011530Z AUTO 00000KT 10SM BKN090 A2993 RMK MADISHF
CGZ,2017-04-01 15:35,-111.7668,32.9549,M,M,M,0.00,0.00,M,29.93,M,10.00,M,BKN,M,M,M,9000.00,M,M,M,M,KCGZ 011535Z AUTO 00000KT 10SM BKN090 A2993 RMK MADISHF
CGZ,2017-04-01 15:40,-111.7668,32.9549,M,M,M,0.00,0.00,M,29.93,M,10.00,M,OVC,M,M,M,9000.00,M,M,M,M,KCGZ 011540Z AUTO 00000KT 10SM OVC090 A2993 RMK MADISHF
CGZ,2017-04-01 15:45,-111.7668,32.9549,M,M,M,0.00,0.00,M,29.94,M,10.00,M,BKN,M,M,M,9000.00,M,M,M,M,KCGZ 011545Z AUTO 00000KT 10SM BKN090 A2994 RMK MADISHF
CGZ,2017-04-01 15:50,-111.7668,32.9549,M,M,M,0.00,0.00,M,29.94,M,10.00,M,BKN,M,M,M,9000.00,M,M,M,M,KCGZ 011550Z AUTO 00000KT 10SM BKN090 A2994 RMK MADISHF
CGZ,2017-04-01 15:55,-111.7668,32.9549,M,M,M,140.00,3.00,M,29.94,M,10.00,M,BKN,M,M,M,9000.00,M,M,M,M,KCGZ 011555Z AUTO 14003KT 10SM BKN090 A2994 RMK VRB03KT  MADISHF
CGZ,2017-04-01 15:56,-111.7668,32.9549,57.00,30.00,35.54,0.00,0.00,0.00,29.94,1013.40,10.00,M,BKN,M,M,M,9000.00,M,M,M,M,KCGZ 011556Z AUTO 00000KT 10SM BKN090 14/M01 A2994 RMK AO2 SLP134 T01391011 $
CGZ,2017-04-01 16:00,-111.7668,32.9549,M,M,M,0.00,0.00,M,29.94,M,10.00,M,BKN,M,M,M,9000.00,M,M,M,M,KCGZ 011600Z AUTO 00000KT 10SM BKN090 A2994 RMK MADISHF
CGZ,2017-04-01 16:05,-111.7668,32.9549,M,M,M,0.00,0.00,M,29.94,M,10.00,M,BKN,M,M,M,9000.00,M,M,M,M,KCGZ 011605Z AUTO 00000KT 10SM BKN090 A2994 RMK MADISHF
CGZ,2017-04-01 16:10,-111.7668,32.9549,M,M,M,0.00,0.00,M,29.94,M,10.00,M,SCT,M,M,M,9000.00,M,M,M,M,KCGZ 011610Z AUTO 00000KT 10SM SCT090 A2994 RMK MADISHF
CGZ,2017-04-01 16:15,-111.7668,32.9549,M,M,M,0.00,0.00,M,29.94,M,10.00,M,FEW,M,M,M,9000.00,M,M,M,M,KCGZ 011615Z AUTO 00000KT 10SM FEW090 A2994 RMK MADISHF
CGZ,2017-04-01 16:20,-111.7668,32.9549,M,M,M,0.00,0.00,M,29.94,M,10.00,M,FEW,M,M,M,9000.00,M,M,M,M,KCGZ 011620Z AUTO 00000KT 10SM FEW090 A2994 RMK MADISHF
CGZ,2017-04-01 16:25,-111.7668,32.9549,M,M,M,0.00,0.00,M,29.94,M,10.00,M,FEW,M,M,M,9000.00,M,M,M,M,KCGZ 011625Z AUTO 00000KT 10SM FEW090 A2994 RMK MADISHF
CGZ,2017-04-01 16:30,-111.7668,32.9549,M,M,M,0.00,0.00,M,29.95,M,10.00,M,FEW,M,M,M,9000.00,M,M,M,M,KCGZ 011630Z AUTO 00000KT 10SM FEW090 A2995 RMK MADISHF
CGZ,2017-04-01 16:35,-111.7668,32.9549,M,M,M,0.00,0.00,M,29.95,M,10.00,M,FEW,M,M,M,9000.00,M,M,M,M,KCGZ 011635Z AUTO 00000KT 10SM FEW090 A2995 RMK MADISHF
CGZ,2017-04-01 16:40,-111.7668,32.9549,M,M,M,0.00,0.00,M,29.95,M,10.00,M,FEW,M,M,M,9000.00,M,M,M,M,KCGZ 011640Z AUTO 00000KT 10SM FEW090 A2995 RMK MADISHF
CGZ,2017-04-01 16:45,-111.7668,32.9549,M,M,M,0.00,0.00,M,29.95,M,10.00,M,FEW,M,M,M,9000.00,M,M,M,M,KCGZ 011645Z AUTO 00000KT 10SM FEW090 A2995 RMK MADISHF
CGZ,2017-04-01 16:50,-111.7668,32.9549,M,M,M,0.00,0.00,M,29.95,M,10.00,M,FEW,M,M,M,9000.00,M,M,M,M,KCGZ 011650Z AUTO 00000KT 10SM FEW090 A2995 RMK MADISHF
CGZ,2017-04-01 16:55,-111.7668,32.9549,M,M,M,0.00,0.00,M,29.95,M,10.00,M,CLR,M,M,M,M,M,M,M,M,KCGZ 011655Z AUTO 00000KT 10SM CLR A2995 RMK MADISHF
CGZ,2017-04-01 16:56,-111.7668,32.9549,62.10,30.00,29.63,0.00,0.00,0.00,29.95,1013.90,10.00,M,CLR,M,M,M,M,M,M,M,M,KCGZ 011656Z AUTO 00000KT 10SM CLR 17/M01 A2995 RMK AO2 SLP139 T01671011 $
CGZ,2017-04-01 17:00,-111.7668,32.9549,M,M,M,0.00,0.00,M,29.95,M,10.00,M,CLR,M,M,M,M,M,M,M,M,KCGZ 011700Z AUTO 00000KT 10SM CLR A2995 RMK MADISHF
CGZ,2017-04-01 17:05,-111.7668,32.9549,M,M,M,120.00,3.00,M,29.95,M,10.00,M,CLR,M,M,M,M,M,M,M,M,KCGZ 011705Z AUTO 12003KT 10SM CLR A2995 RMK MADISHF
CGZ,2017-04-01 17:10,-111.7668,32.9549,M,M,M,140.00,3.00,M,29.95,M,10.00,M,CLR,M,M,M,M,M,M,M,M,KCGZ 011710Z AUTO 14003KT 10SM CLR A2995 RMK MADISHF
CGZ,2017-04-01 17:15,-111.7668,32.9549,M,M,M,0.00,0.00,M,29.96,M,10.00,M,CLR,M,M,M,M,M,M,M,M,KCGZ 011715Z AUTO 00000KT 10SM CLR A2996 RMK MADISHF
CGZ,2017-04-01 17:20,-111.7668,32.9549,M,M,M,0.00,0.00,M,29.96,M,10.00,M,CLR,M,M,M,M,M,M,M,M,KCGZ 011720Z AUTO 00000KT 10SM CLR A2996 RMK MADISHF
CGZ,2017-04-01 17:25,-111.7668,32.9549,M,M,M,80.00,3.00,M,29.96,M,10.00,M,CLR,M,M,M,M,M,M,M,M,KCGZ 011725Z AUTO 08003KT 10SM CLR A2996 RMK MADISHF
CGZ,2017-04-01 17:30,-111.7668,32.9549,M,M,M,50.00,3.00,M,29.95,M,10.00,M,CLR,M,M,M,M,M,M,M,M,KCGZ 011730Z AUTO 05003KT 10SM CLR A2995 RMK MADISHF
CGZ,2017-04-01 17:35,-111.7668,32.9549,M,M,M,0.00,0.00,M,29.95,M,10.00,M,CLR,M,M,M,M,M,M,M,M,KCGZ 011735Z AUTO 00000KT 10SM CLR A2995 RMK MADISHF
CGZ,2017-04-01 17:40,-111.7668,32.9549,M,M,M,110.00,5.00,M,29.95,M,10.00,M,CLR,M,M,M,M,M,M,M,M,KCGZ 011740Z AUTO 11005KT 10SM CLR A2995 RMK VRB05KT  MADISHF
CGZ,2017-04-01 17:45,-111.7668,32.9549,M,M,M,80.00,4.00,M,29.95,M,10.00,M,CLR,M,M,M,M,M,M,M,M,KCGZ 011745Z AUTO 08004KT 10SM CLR A2995 RMK VRB04KT  MADISHF
CGZ,2017-04-01 17:50,-111.7668,32.9549,M,M,M,140.00,4.00,M,29.94,M,10.00,M,CLR,M,M,M,M,M,M,M,M,KCGZ 011750Z AUTO 14004KT 10SM CLR A2994 RMK VRB04KT  MADISHF
CGZ,2017-04-01 17:55,-111.7668,32.9549,M,M,M,120.00,3.00,M,29.94,M,10.00,M,CLR,M,M,M,M,M,M,M,M,KCGZ 011755Z AUTO 12003KT 10SM CLR A2994 RMK VRB03KT  MADISHF
CGZ,2017-04-01 17:56,-111.7668,32.9549,64.00,33.10,31.41,M,3.00,0.00,29.94,1013.60,10.00,M,CLR,M,M,M,M,M,M,M,M,KCGZ 011756Z AUTO VRB03KT 10SM CLR 18/01 A2994 RMK AO2 SLP136 T01780006 10178 20067 50006 $
CGZ,2017-04-01 18:00,-111.7668,32.9549,M,M,M,170.00,3.00,M,29.94,M,10.00,M,CLR,M,M,M,M,M,M,M,M,KCGZ 011800Z AUTO 17003KT 10SM CLR A2994 RMK MADISHF
CGZ,2017-04-01 18:05,-111.7668,32.9549,M,M,M,200.00,6.00,M,29.94,M,10.00,M,CLR,M,M,M,M,M,M,M,M,KCGZ 011805Z AUTO 20006KT 10SM CLR A2994 RMK MADISHF
CGZ,2017-04-01 18:10,-111.7668,32.9549,M,M,M,190.00,4.00,M,29.94,M,10.00,M,SCT,M,M,M,11000.00,M,M,M,M,KCGZ 011810Z AUTO 19004KT 10SM SCT110 A2994 RMK VRB04KT  MADISHF
CGZ,2017-04-01 18:15,-111.7668,32.9549,M,M,M,250.00,3.00,M,29.94,M,10.00,M,SCT,M,M,M,11000.00,M,M,M,M,KCGZ 011815Z AUTO 25003KT 10SM SCT110 A2994 RMK VRB03KT  MADISHF
CGZ,2017-04-01 18:20,-111.7668,32.9549,M,M,M,0.00,0.00,M,29.94,M,10.00,M,BKN,M,M,M,11000.00,M,M,M,M,KCGZ 011820Z AUTO 00000KT 10SM BKN110 A2994 RMK MADISHF
CGZ,2017-04-01 18:25,-111.7668,32.9549,M,M,M,0.00,0.00,M,29.94,M,10.00,M,BKN,M,M,M,11000.00,M,M,M,M,KCGZ 011825Z AUTO 00000KT 10SM BKN110 A2994 RMK MADISHF
CGZ,2017-04-01 18:30,-111.7668,32.9549,M,M,M,180.00,3.00,M,29.94,M,10.00,M,BKN,M,M,M,11000.00,M,M,M,M,KCGZ 011830Z AUTO 18003KT 10SM BKN110 A2994 RMK VRB03KT  MADISHF
CGZ,2017-04-01 18:35,-111.7668,32.9549,M,M,M,320.00,4.00,M,29.94,M,10.00,M,SCT,M,M,M,11000.00,M,M,M,M,KCGZ 011835Z AUTO 32004KT 10SM SCT110 A2994 RMK MADISHF
CGZ,2017-04-01 18:40,-111.7668,32.9549,M,M,M,10.00,4.00,M,29.94,M,10.00,M,SCT,M,M,M,11000.00,M,M,M,M,KCGZ 011840Z AUTO 01004KT 10SM SCT110 A2994 RMK VRB04KT  MADISHF
CGZ,2017-04-01 18:45,-111.7668,32.9549,M,M,M,360.00,3.00,M,29.94,M,10.00,M,FEW,M,M,M,11000.00,M,M,M,M,KCGZ 011845Z AUTO 36003KT 10SM FEW110 A2994 RMK VRB03KT  MADISHF
CGZ,2017-04-01 18:50,-111.7668,32.9549,M,M,M,310.00,7.00,M,29.94,M,10.00,M,FEW,M,M,M,11000.00,M,M,M,M,KCGZ 011850Z AUTO 31007KT 10SM FEW110 A2994 RMK MADISHF
CGZ,2017-04-01 18:56,-111.7668,32.9549,66.00,30.00,25.85,M,3.00,0.00,29.94,1013.30,10.00,M,CLR,M,M,M,M,M,M,M,M,KCGZ 011856Z AUTO VRB03KT 10SM CLR 19/M01 A2994 RMK AO2 SLP133 T01891011 $
CGZ,2017-04-01 19:00,-111.7668,32.9549,M,M,M,310.00,4.00,M,29.94,M,10.00,M,CLR,M,M,M,M,M,M,M,M,KCGZ 011900Z AUTO 31004KT 10SM CLR A2994 RMK MADISHF
CGZ,2017-04-01 19:05,-111.7668,32.9549,M,M,M,320.00,4.00,M,29.94,M,10.00,M,CLR,M,M,M,M,M,M,M,M,KCGZ 011905Z AUTO 32004KT 10SM CLR A2994 RMK VRB04KT  MADISHF
CGZ,2017-04-01 19:10,-111.7668,32.9549,M,M,M,320.00,7.00,M,29.94,M,10.00,M,CLR,M,M,M,M,M,M,M,M,KCGZ 011910Z AUTO 32007KT 10SM CLR A2994 RMK MADISHF
CGZ,2017-04-01 19:15,-111.7668,32.9549,M,M,M,330.00,5.00,M,29.94,M,10.00,M,CLR,M,M,M,M,M,M,M,M,KCGZ 011915Z AUTO 33005KT 10SM CLR A2994 RMK MADISHF
CGZ,2017-04-01 19:20,-111.7668,32.9549,M,M,M,M,M,M,29.93,M,10.00,M,CLR,M,M,M,M,M,M,M,M,KCGZ 011920Z AUTO /////KT 10SM CLR A2993 RMK MADISHF
CGZ,2017-04-01 19:30,-111.7668,32.9549,M,M,M,180.00,3.00,M,29.93,M,10.00,M,CLR,M,M,M,M,M,M,M,M,KCGZ 011930Z AUTO 18003KT 10SM CLR A2993 RMK VRB03KT  MADISHF
CGZ,2017-04-01 19:35,-111.7668,32.9549,M,M,M,150.00,5.00,M,29.93,M,10.00,M,CLR,M,M,M,M,M,M,M,M,KCGZ 011935Z AUTO 15005KT 10SM CLR A2993 RMK MADISHF
CGZ,2017-04-01 19:40,-111.7668,32.9549,M,M,M,320.00,3.00,M,29.93,M,10.00,M,CLR,M,M,M,M,M,M,M,M,KCGZ 011940Z AUTO 32003KT 10SM CLR A2993 RMK MADISHF
CGZ,2017-04-01 19:45,-111.7668,32.9549,M,M,M,320.00,6.00,M,29.92,M,10.00,M,CLR,M,M,M,M,M,M,M,M,KCGZ 011945Z AUTO 32006KT 10SM CLR A2992 RMK MADISHF
CGZ,2017-04-01 19:50,-111.7668,32.9549,M,M,M,340.00,5.00,M,29.92,M,10.00,M,CLR,M,M,M,M,M,M,M,M,KCGZ 011950Z AUTO 34005KT 10SM CLR A2992 RMK MADISHF
CGZ,2017-04-01 19:55,-111.7668,32.9549,M,M,M,330.00,4.00,M,29.92,M,10.00,M,CLR,M,M,M,M,M,M,M,M,KCGZ 011955Z AUTO 33004KT 10SM CLR A2992 RMK VRB04KT  MADISHF
CGZ,2017-04-01 19:56,-111.7668,32.9549,66.90,30.90,25.98,0.00,0.00,0.00,29.92,1012.80,10.00,M,CLR,M,M,M,M,M,M,M,M,KCGZ 011956Z AUTO 00000KT 10SM CLR 19/M01 A2992 RMK AO2 SLP128 T01941006 $
CGZ,2017-04-01 20:00,-111.7668,32.9549,M,M,M,0.00,0.00,M,29.92,M,10.00,M,CLR,M,M,M,M,M,M,M,M,KCGZ 012000Z AUTO 00000KT 10SM CLR A2992 RMK MADISHF
CGZ,2017-04-01 20:05,-111.7668,32.9549,M,M,M,320.00,9.00,M,29.92,M,10.00,M,CLR,M,M,M,M,M,M,M,M,KCGZ 012005Z AUTO 32009KT 10SM CLR A2992 RMK MADISHF
CGZ,2017-04-01 20:10,-111.7668,32.9549,M,M,M,250.00,3.00,M,29.92,M,10.00,M,CLR,M,M,M,M,M,M,M,M,KCGZ 012010Z AUTO 25003KT 10SM CLR A2992 RMK VRB03KT  MADISHF
CGZ,2017-04-01 20:20,-111.7668,32.9549,M,M,M,360.00,7.00,M,29.92,M,10.00,M,CLR,M,M,M,M,M,M,M,M,KCGZ 012020Z AUTO 36007KT 10SM CLR A2992 RMK MADISHF
CGZ,2017-04-01 20:25,-111.7668,32.9549,M,M,M,20.00,5.00,M,29.92,M,10.00,M,FEW,M,M,M,10000.00,M,M,M,M,KCGZ 012025Z AUTO 02005KT 10SM FEW100 A2992 RMK MADISHF
CGZ,2017-04-01 20:30,-111.7668,32.9549,M,M,M,330.00,10.00,M,29.92,M,10.00,M,SCT,M,M,M,10000.00,M,M,M,M,KCGZ 012030Z AUTO 33010KT 10SM SCT100 A2992 RMK MADISHF
CGZ,2017-04-01 20:35,-111.7668,32.9549,M,M,M,330.00,6.00,M,29.92,M,10.00,M,FEW,SCT,M,M,7999.00,9500.00,M,M,M,KCGZ 012035Z AUTO 33006KT 10SM FEW079 SCT095 A2992 RMK MADISHF
CGZ,2017-04-01 20:40,-111.7668,32.9549,M,M,M,330.00,7.00,M,29.92,M,M,M,BKN,M,M,M,9000.00,M,M,M,M,KCGZ 012040Z AUTO 33007KT BKN090 A2992 RMK MADISHF
CGZ,2017-04-01 20:45,-111.7668,32.9549,M,M,M,290.00,4.00,M,29.92,M,M,M,SCT,BKN,M,M,7999.00,9500.00,M,M,M,KCGZ 012045Z AUTO 29004KT SCT079 BKN095 A2992 RMK MADISHF
CGZ,2017-04-01 20:50,-111.7668,32.9549,M,M,M,240.00,3.00,M,29.92,M,M,M,FEW,SCT,M,M,7999.00,9500.00,M,M,M,KCGZ 012050Z AUTO 24003KT FEW079 SCT095 A2992 RMK MADISHF
CGZ,2017-04-01 20:55,-111.7668,32.9549,M,M,M,300.00,6.00,M,29.92,M,M,M,FEW,SCT,M,M,7999.00,9500.00,M,M,M,KCGZ 012055Z AUTO 30006KT FEW079 SCT095 A2992 RMK MADISHF
CGZ,2017-04-01 20:56,-111.7668,32.9549,66.00,30.00,25.85,310.00,5.00,0.00,29.92,1012.60,M,M,FEW,SCT,M,M,8000.00,9500.00,M,M,M,KCGZ 012056Z AUTO 31005KT FEW080 SCT095 19/M01 A2992 RMK AO2 SLP126 6//// T01891011 57009 PWINO $
CGZ,2017-04-01 21:00,-111.7668,32.9549,M,M,M,350.00,7.00,M,29.92,M,M,M,FEW,M,M,M,7999.00,M,M,M,M,KCGZ 012100Z AUTO 35007KT FEW079 A2992 RMK MADISHF
CGZ,2017-04-01 21:05,-111.7668,32.9549,M,M,M,320.00,9.00,M,29.92,M,M,M,FEW,M,M,M,7999.00,M,M,M,M,KCGZ 012105Z AUTO 32009KT FEW079 A2992 RMK MADISHF
CGZ,2017-04-01 21:10,-111.7668,32.9549,M,M,M,10.00,9.00,M,29.92,M,M,M,CLR,M,M,M,M,M,M,M,M,KCGZ 012110Z AUTO 01009KT CLR A2992 RMK MADISHF
CGZ,2017-04-01 21:15,-111.7668,32.9549,M,M,M,330.00,10.00,M,29.92,M,M,M,CLR,M,M,M,M,M,M,M,M,KCGZ 012115Z AUTO 33010KT CLR A2992 RMK MADISHF
CGZ,2017-04-01 21:20,-111.7668,32.9549,M,M,M,310.00,8.00,M,29.92,M,M,M,CLR,M,M,M,M,M,M,M,M,KCGZ 012120Z AUTO 31008KT CLR A2992 RMK MADISHF
CGZ,2017-04-01 21:25,-111.7668,32.9549,M,M,M,310.00,10.00,M,29.92,M,M,M,CLR,M,M,M,M,M,M,M,M,KCGZ 012125Z AUTO 31010KT CLR A2992 RMK MADISHF
CGZ,2017-04-01 21:30,-111.7668,32.9549,M,M,M,260.00,4.00,M,29.92,M,10.00,M,CLR,M,M,M,M,M,M,M,M,KCGZ 012130Z AUTO 26004KT 10SM CLR A2992 RMK VRB04G15KT  MADISHF
CGZ,2017-04-01 21:35,-111.7668,32.9549,M,M,M,310.00,7.00,M,29.92,M,10.00,M,CLR,M,M,M,M,M,M,M,M,KCGZ 012135Z AUTO 31007KT 10SM CLR A2992 RMK MADISHF
CGZ,2017-04-01 21:40,-111.7668,32.9549,M,M,M,290.00,5.00,M,29.92,M,10.00,M,CLR,M,M,M,M,M,M,M,M,KCGZ 012140Z AUTO 29005KT 10SM CLR A2992 RMK MADISHF
CGZ,2017-04-01 21:45,-111.7668,32.9549,M,M,M,300.00,4.00,M,29.92,M,10.00,M,CLR,M,M,M,M,M,M,M,M,KCGZ 012145Z AUTO 30004KT 10SM CLR A2992 RMK MADISHF
CGZ,2017-04-01 21:50,-111.7668,32.9549,M,M,M,360.00,3.00,M,29.92,M,10.00,M,CLR,M,M,M,M,M,M,M,M,KCGZ 012150Z AUTO 36003KT 10SM CLR A2992 RMK VRB03KT  MADISHF
CGZ,2017-04-01 21:55,-111.7668,32.9549,M,M,M,30.00,7.00,M,29.91,M,10.00,M,CLR,M,M,M,M,M,M,M,M,KCGZ 012155Z AUTO 03007KT 10SM CLR A2991 RMK WND 32V06  MADISHF
CGZ,2017-04-01 21:56,-111.7668,32.9549,68.00,30.00,24.12,M,6.00,0.00,29.91,1012.50,10.00,M,CLR,M,M,M,M,M,M,M,M,KCGZ 012156Z AUTO VRB06KT 10SM CLR 20/M01 A2991 RMK AO2 SLP125 T02001011 $
CGZ,2017-04-01 22:00,-111.7668,32.9549,M,M,M,310.00,4.00,M,29.91,M,10.00,M,CLR,M,M,M,M,M,M,M,M,KCGZ 012200Z AUTO 31004KT 10SM CLR A2991 RMK MADISHF
CGZ,2017-04-01 22:05,-111.7668,32.9549,M,M,M,330.00,3.00,M,29.91,M,10.00,M,CLR,M,M,M,M,M,M,M,M,KCGZ 012205Z AUTO 33003KT 10SM CLR A2991 RMK VRB03KT  MADISHF
CGZ,2017-04-01 22:10,-111.7668,32.9549,M,M,M,340.00,11.00,M,29.91,M,10.00,M,CLR,M,M,M,M,M,M,M,M,KCGZ 012210Z AUTO 34011KT 10SM CLR A2991 RMK MADISHF
CGZ,2017-04-01 22:15,-111.7668,32.9549,M,M,M,10.00,6.00,M,29.91,M,10.00,M,CLR,M,M,M,M,M,M,M,M,KCGZ 012215Z AUTO 01006KT 10SM CLR A2991 RMK MADISHF
CGZ,2017-04-01 22:20,-111.7668,32.9549,M,M,M,20.00,7.00,M,29.91,M,10.00,M,CLR,M,M,M,M,M,M,M,M,KCGZ 012220Z AUTO 02007KT 10SM CLR A2991 RMK MADISHF
CGZ,2017-04-01 22:25,-111.7668,32.9549,M,M,M,320.00,8.00,M,29.91,M,10.00,M,CLR,M,M,M,M,M,M,M,M,KCGZ 012225Z AUTO 32008KT 10SM CLR A2991 RMK WND 28V02  MADISHF
CGZ,2017-04-01 22:30,-111.7668,32.9549,M,M,M,340.00,12.00,M,29.91,M,10.00,M,CLR,M,M,M,M,M,M,M,M,KCGZ 012230Z AUTO 34012KT 10SM CLR A2991 RMK MADISHF
CGZ,2017-04-01 22:35,-111.7668,32.9549,M,M,M,10.00,11.00,M,29.91,M,10.00,M,CLR,M,M,M,M,M,M,M,M,KCGZ 012235Z AUTO 01011KT 10SM CLR A2991 RMK MADISHF
CGZ,2017-04-01 22:45,-111.7668,32.9549,M,M,M,360.00,11.00,M,29.92,M,10.00,M,CLR,M,M,M,M,M,M,M,M,KCGZ 012245Z AUTO 36011KT 10SM CLR A2992 RMK WND 34V05  MADISHF
CGZ,2017-04-01 22:50,-111.7668,32.9549,M,M,M,360.00,10.00,M,29.92,M,10.00,M,CLR,M,M,M,M,M,M,M,M,KCGZ 012250Z AUTO 36010KT 10SM CLR A2992 RMK MADISHF
CGZ,2017-04-01 22:55,-111.7668,32.9549,M,M,M,350.00,7.00,M,29.92,M,10.00,M,CLR,M,M,M,M,M,M,M,M,KCGZ 012255Z AUTO 35007KT 10SM CLR A2992 RMK MADISHF
CGZ,2017-04-01 22:56,-111.7668,32.9549,69.10,25.00,18.91,360.00,8.00,0.00,29.92,1012.80,10.00,M,CLR,M,M,M,M,M,M,M,M,KCGZ 012256Z AUTO 36008KT 10SM CLR 21/M04 A2992 RMK AO2 SLP128 T02061039 $
CGZ,2017-04-01 23:00,-111.7668,32.9549,M,M,M,320.00,9.00,M,29.92,M,10.00,M,CLR,M,M,M,M,M,M,M,M,KCGZ 012300Z AUTO 32009KT 10SM CLR A2992 RMK MADISHF
CGZ,2017-04-01 23:05,-111.7668,32.9549,M,M,M,340.00,9.00,M,29.92,M,10.00,M,CLR,M,M,M,M,M,M,M,M,KCGZ 012305Z AUTO 34009KT 10SM CLR A2992 RMK MADISHF
CGZ,2017-04-01 23:15,-111.7668,32.9549,M,M,M,360.00,9.00,M,29.92,M,10.00,M,CLR,M,M,M,M,M,M,M,M,KCGZ 012315Z AUTO 36009KT 10SM CLR A2992 RMK MADISHF
CGZ,2017-04-01 23:20,-111.7668,32.9549,M,M,M,20.00,6.00,M,29.92,M,10.00,M,CLR,M,M,M,M,M,M,M,M,KCGZ 012320Z AUTO 02006KT 10SM CLR A2992 RMK MADISHF
CGZ,2017-04-01 23:25,-111.7668,32.9549,M,M,M,290.00,4.00,M,29.92,M,10.00,M,CLR,M,M,M,M,M,M,M,M,KCGZ 012325Z AUTO 29004KT 10SM CLR A2992 RMK MADISHF
CGZ,2017-04-01 23:30,-111.7668,32.9549,M,M,M,340.00,8.00,M,29.92,M,10.00,M,CLR,M,M,M,M,M,M,M,M,KCGZ 012330Z AUTO 34008KT 10SM CLR A2992 RMK WND 30V36  MADISHF
CGZ,2017-04-01 23:35,-111.7668,32.9549,M,M,M,360.00,9.00,M,29.92,M,10.00,M,CLR,M,M,M,M,M,M,M,M,KCGZ 012335Z AUTO 36009KT 10SM CLR A2992 RMK MADISHF
CGZ,2017-04-01 23:40,-111.7668,32.9549,M,M,M,350.00,9.00,M,29.92,M,10.00,M,CLR,M,M,M,M,M,M,M,M,KCGZ 012340Z AUTO 35009KT 10SM CLR A2992 RMK MADISHF
CGZ,2017-04-01 23:45,-111.7668,32.9549,M,M,M,350.00,6.00,M,29.92,M,10.00,M,CLR,M,M,M,M,M,M,M,M,KCGZ 012345Z AUTO 35006KT 10SM CLR A2992 RMK MADISHF
CGZ,2017-04-01 23:50,-111.7668,32.9549,M,M,M,340.00,7.00,M,29.92,M,10.00,M,CLR,M,M,M,M,M,M,M,M,KCGZ 012350Z AUTO 34007KT 10SM CLR A2992 RMK MADISHF
CGZ,2017-04-01 23:55,-111.7668,32.9549,M,M,M,0.00,0.00,M,29.92,M,10.00,M,CLR,M,M,M,M,M,M,M,M,KCGZ 012355Z AUTO 00000KT 10SM CLR A2992 RMK MADISHF
CGZ,2017-04-01 23:56,-111.7668,32.9549,68.00,25.00,19.63,0.00,0.00,0.00,29.92,1012.90,10.00,M,CLR,M,M,M,M,M,M,M,M,KCGZ 012356Z AUTO 00000KT 10SM CLR 20/M04 A2992 RMK AO2 SLP129 6//// T02001039 10211 20172 53003 $
