#DEBUG: Format Typ    -> comma
#DEBUG: Time Period   -> 2017-04-01 00:00:00+00:00 2017-04-02 00:00:00+00:00
#DEBUG: Time Zone     -> Etc/UTC
#DEBUG: Data Contact   -> daryl herzmann akrherz@iastate.edu 515-294-5978
#DEBUG: Entries Found -> -1
station,valid,lon,lat,tmpf, dwpf, relh, drct, sknt, p01i, alti, mslp, vsby, gust, skyc1, skyc2, skyc3, skyc4, skyl1, skyl2, skyl3, skyl4, presentwx, metar
CHA,2017-04-01 00:00,-85.2038,35.0353,M,M,M,270.00,3.00,M,29.88,M,10.00,M,OVC,M,M,M,5500.00,M,M,M,M,KCHA 010000Z AUTO 27003KT 10SM OVC055 A2988 RMK MADISHF
CHA,2017-04-01 00:05,-85.2038,35.0353,M,M,M,270.00,3.00,M,29.88,M,10.00,M,OVC,M,M,M,5500.00,M,M,M,M,KCHA 010005Z AUTO 27003KT 10SM OVC055 A2988 RMK MADISHF
CHA,2017-04-01 00:10,-85.2038,35.0353,M,M,M,0.00,0.00,M,29.88,M,10.00,M,OVC,M,M,M,5000.00,M,M,M,M,KCHA 010010Z AUTO 00000KT 10SM OVC050 A2988 RMK MADISHF
CHA,2017-04-01 00:15,-85.2038,35.0353,M,M,M,0.00,0.00,M,29.88,M,10.00,M,OVC,M,M,M,5000.00,M,M,M,M,KCHA 010015Z AUTO 00000KT 10SM OVC050 A2988 RMK MADISHF
CHA,2017-04-01 00:20,-85.2038,35.0353,M,M,M,0.00,0.00,M,29.89,M,10.00,M,OVC,M,M,M,5000.00,M,M,M,M,KCHA 010020Z AUTO 00000KT 10SM OVC050 A2989 RMK MADISHF
CHA,2017-04-01 00:25,-85.2038,35.0353,M,M,M,280.00,3.00,M,29.89,M,10.00,M,OVC,M,M,M,5000.00,M,M,M,M,KCHA 010025Z AUTO 28003KT 10SM OVC050 A2989 RMK MADISHF
CHA,2017-04-01 00:30,-85.2038,35.0353,M,M,M,0.00,0.00,M,29.89,M,10.00,M,OVC,M,M,M,5000.00,M,M,M,M,KCHA 010030Z AUTO 00000KT 10SM OVC050 A2989 RMK MADISHF
CHA,2017-04-01 00:35,-85.2038,35.0353,M,M,M,280.00,3.00,M,29.89,M,10.00,M,OVC,M,M,M,5000.00,M,M,M,M,KCHA 010035Z AUTO 28003KT 10SM OVC050 A2989 RMK MADISHF
CHA,2017-04-01 00:40,-85.2038,35.0353,M,M,M,0.00,0.00,M,29.89,M,10.00,M,OVC,M,M,M,5000.00,M,M,M,M,KCHA 010040Z AUTO 00000KT 10SM OVC050 A2989 RMK MADISHF
CHA,2017-04-01 00:45,-85.2038,35.0353,M,M,M,0.00,0.00,M,29.89,M,10.00,M,OVC,M,M,M,5000.00,M,M,M,M,KCHA 010045Z AUTO 00000KT 10SM OVC050 A2989 RMK MADISHF
CHA,2017-04-01 00:50,-85.2038,35.0353,M,M,M,0.00,0.00,M,29.90,M,10.00,M,BKN,M,M,M,5000.00,M,M,M,M,KCHA 010050Z AUTO 00000KT 10SM BKN050 A2990 RMK MADISHF
CHA,2017-04-01 00:53,-85.2038,35.0353,64.90,46.00,50.32,0.00,0.00,0.00,29.90,1012.00,10.00,M,BKN,M,M,M,5000.00,M,M,M,M,KCHA 010053Z 00000KT 10SM BKN050 18/08 A2990 RMK AO2 SLP120 T01830078
CHA,2017-04-01 00:55,-85.2038,35.0353,M,M,M,350.00,3.00,M,29.90,M,10.00,M,OVC,M,M,M,5000.00,M,M,M,M,KCHA 010055Z AUTO 35003KT 10SM OVC050 A2990 RMK MADISHF
CHA,2017-04-01 01:00,-85.2038,35.0353,M,M,M,0.00,0.00,M,29.90,M,10.00,M,OVC,M,M,M,5000.00,M,M,M,M,KCHA 010100Z AUTO 00000KT 10SM OVC050 A2990 RMK MADISHF
CHA,2017-04-01 01:05,-85.2038,35.0353,M,M,M,330.00,3.00,M,29.90,M,10.00,M,OVC,M,M,M,5000.00,M,M,M,M,KCHA 010105Z AUTO 33003KT 10SM OVC050 A2990 RMK MADISHF
CHA,2017-04-01 01:10,-85.2038,35.0353,M,M,M,0.00,0.00,M,29.90,M,10.00,M,OVC,M,M,M,5000.00,M,M,M,M,KCHA 010110Z AUTO 00000KT 10SM OVC050 A2990 RMK MADISHF
CHA,2017-04-01 01:15,-85.2038,35.0353,M,M,M,350.00,3.00,M,29.90,M,10.00,M,OVC,M,M,M,5000.00,M,M,M,M,KCHA 010115Z AUTO 35003KT 10SM OVC050 A2990 RMK MADISHF
CHA,2017-04-01 01:20,-85.2038,35.0353,M,M,M,350.00,4.00,M,29.91,M,10.00,M,BKN,M,M,M,5000.00,M,M,M,M,KCHA 010120Z AUTO 35004KT 10SM BKN050 A2991 RMK MADISHF
CHA,2017-04-01 01:25,-85.2038,35.0353,M,M,M,330.00,4.00,M,29.91,M,10.00,M,BKN,M,M,M,5000.00,M,M,M,M,KCHA 010125Z AUTO 33004KT 10SM BKN050 A2991 RMK MADISHF
CHA,2017-04-01 01:30,-85.2038,35.0353,M,M,M,330.00,5.00,M,29.91,M,10.00,M,BKN,M,M,M,5000.00,M,M,M,M,KCHA 010130Z AUTO 33005KT 10SM BKN050 A2991 RMK MADISHF
CHA,2017-04-01 01:35,-85.2038,35.0353,M,M,M,320.00,5.00,M,29.91,M,10.00,M,BKN,M,M,M,5000.00,M,M,M,M,KCHA 010135Z AUTO 32005KT 10SM BKN050 A2991 RMK MADISHF
CHA,2017-04-01 01:40,-85.2038,35.0353,M,M,M,330.00,7.00,M,29.91,M,10.00,M,BKN,M,M,M,5000.00,M,M,M,M,KCHA 010140Z AUTO 33007KT 10SM BKN050 A2991 RMK MADISHF
CHA,2017-04-01 01:45,-85.2038,35.0353,M,M,M,320.00,6.00,M,29.91,M,10.00,M,BKN,M,M,M,5000.00,M,M,M,M,KCHA 010145Z AUTO 32006KT 10SM BKN050 A2991 RMK MADISHF
CHA,2017-04-01 01:50,-85.2038,35.0353,M,M,M,320.00,5.00,M,29.92,M,10.00,M,BKN,M,M,M,5000.00,M,M,M,M,KCHA 010150Z AUTO 32005KT 10SM BKN050 A2992 RMK MADISHF
CHA,2017-04-01 01:53,-85.2038,35.0353,63.00,46.90,55.64,320.00,5.00,0.00,29.92,1012.80,10.00,M,BKN,M,M,M,5000.00,M,M,M,M,KCHA 010153Z 32005KT 10SM BKN050 17/08 A2992 RMK AO2 SLP128 T01720083
CHA,2017-04-01 01:55,-85.2038,35.0353,M,M,M,320.00,5.00,M,29.92,M,10.00,M,OVC,M,M,M,5000.00,M,M,M,M,KCHA 010155Z AUTO 32005KT 10SM OVC050 A2992 RMK MADISHF
CHA,2017-04-01 02:00,-85.2038,35.0353,M,M,M,320.00,5.00,M,29.92,M,10.00,M,OVC,M,M,M,5000.00,M,M,M,M,KCHA 010200Z AUTO 32005KT 10SM OVC050 A2992 RMK MADISHF
CHA,2017-04-01 02:05,-85.2038,35.0353,M,M,M,320.00,5.00,M,29.92,M,10.00,M,OVC,M,M,M,5000.00,M,M,M,M,KCHA 010205Z AUTO 32005KT 10SM OVC050 A2992 RMK MADISHF
CHA,2017-04-01 02:10,-85.2038,35.0353,M,M,M,320.00,6.00,M,29.92,M,10.00,M,BKN,M,M,M,5000.00,M,M,M,M,KCHA 010210Z AUTO 32006KT 10SM BKN050 A2992 RMK MADISHF
CHA,2017-04-01 02:15,-85.2038,35.0353,M,M,M,320.00,7.00,M,29.93,M,10.00,M,BKN,M,M,M,5000.00,M,M,M,M,KCHA 010215Z AUTO 32007KT 10SM BKN050 A2993 RMK MADISHF
CHA,2017-04-01 02:20,-85.2038,35.0353,M,M,M,330.00,7.00,M,29.93,M,10.00,M,BKN,M,M,M,5000.00,M,M,M,M,KCHA 010220Z AUTO 33007KT 10SM BKN050 A2993 RMK MADISHF
CHA,2017-04-01 02:25,-85.2038,35.0353,M,M,M,340.00,8.00,M,29.93,M,10.00,M,SCT,M,M,M,5000.00,M,M,M,M,KCHA 010225Z AUTO 34008KT 10SM SCT050 A2993 RMK MADISHF
CHA,2017-04-01 02:30,-85.2038,35.0353,M,M,M,340.00,8.00,M,29.93,M,10.00,M,SCT,M,M,M,5000.00,M,M,M,M,KCHA 010230Z AUTO 34008KT 10SM SCT050 A2993 RMK MADISHF
CHA,2017-04-01 02:35,-85.2038,35.0353,M,M,M,340.00,10.00,M,29.94,M,10.00,M,SCT,M,M,M,5000.00,M,M,M,M,KCHA 010235Z AUTO 34010KT 10SM SCT050 A2994 RMK MADISHF
CHA,2017-04-01 02:40,-85.2038,35.0353,M,M,M,340.00,11.00,M,29.94,M,10.00,M,FEW,M,M,M,5000.00,M,M,M,M,KCHA 010240Z AUTO 34011KT 10SM FEW050 A2994 RMK MADISHF
CHA,2017-04-01 02:45,-85.2038,35.0353,M,M,M,340.00,9.00,M,29.94,M,10.00,M,FEW,M,M,M,5000.00,M,M,M,M,KCHA 010245Z AUTO 34009KT 10SM FEW050 A2994 RMK MADISHF
CHA,2017-04-01 02:50,-85.2038,35.0353,M,M,M,340.00,10.00,M,29.94,M,10.00,M,SCT,M,M,M,5000.00,M,M,M,M,KCHA 010250Z AUTO 34010KT 10SM SCT050 A2994 RMK MADISHF
CHA,2017-04-01 02:53,-85.2038,35.0353,61.00,46.90,59.71,340.00,9.00,0.00,29.95,1013.70,10.00,M,SCT,M,M,M,5000.00,M,M,M,M,KCHA 010253Z 34009KT 10SM SCT050 16/08 A2995 RMK AO2 SLP137 T01610083 53024
CHA,2017-04-01 02:55,-85.2038,35.0353,M,M,M,350.00,9.00,M,29.95,M,10.00,M,FEW,M,M,M,5000.00,M,M,M,M,KCHA 010255Z AUTO 35009KT 10SM FEW050 A2995 RMK MADISHF
CHA,2017-04-01 03:00,-85.2038,35.0353,M,M,M,340.00,9.00,M,29.95,M,10.00,M,FEW,M,M,M,5000.00,M,M,M,M,KCHA 010300Z AUTO 34009KT 10SM FEW050 A2995 RMK MADISHF
CHA,2017-04-01 03:05,-85.2038,35.0353,M,M,M,340.00,9.00,M,29.95,M,10.00,M,SCT,M,M,M,5000.00,M,M,M,M,KCHA 010305Z AUTO 34009KT 10SM SCT050 A2995 RMK MADISHF
CHA,2017-04-01 03:10,-85.2038,35.0353,M,M,M,350.00,8.00,M,29.95,M,10.00,M,BKN,M,M,M,4800.00,M,M,M,M,KCHA 010310Z AUTO 35008KT 10SM BKN048 A2995 RMK MADISHF
CHA,2017-04-01 03:15,-85.2038,35.0353,M,M,M,340.00,7.00,M,29.96,M,10.00,M,BKN,M,M,M,4800.00,M,M,M,M,KCHA 010315Z AUTO 34007KT 10SM BKN048 A2996 RMK MADISHF
CHA,2017-04-01 03:20,-85.2038,35.0353,M,M,M,340.00,8.00,M,29.96,M,10.00,M,BKN,M,M,M,4800.00,M,M,M,M,KCHA 010320Z AUTO 34008KT 10SM BKN048 A2996 RMK MADISHF
CHA,2017-04-01 03:25,-85.2038,35.0353,M,M,M,340.00,7.00,M,29.96,M,10.00,M,BKN,M,M,M,4800.00,M,M,M,M,KCHA 010325Z AUTO 34007KT 10SM BKN048 A2996 RMK MADISHF
CHA,2017-04-01 03:30,-85.2038,35.0353,M,M,M,330.00,5.00,M,29.96,M,10.00,M,BKN,M,M,M,4800.00,M,M,M,M,KCHA 010330Z AUTO 33005KT 10SM BKN048 A2996 RMK MADISHF
CHA,2017-04-01 03:35,-85.2038,35.0353,M,M,M,340.00,5.00,M,29.96,M,10.00,M,BKN,M,M,M,4800.00,M,M,M,M,KCHA 010335Z AUTO 34005KT 10SM BKN048 A2996 RMK MADISHF
CHA,2017-04-01 03:40,-85.2038,35.0353,M,M,M,360.00,6.00,M,29.96,M,10.00,M,SCT,M,M,M,4800.00,M,M,M,M,KCHA 010340Z AUTO 36006KT 10SM SCT048 A2996 RMK MADISHF
CHA,2017-04-01 03:45,-85.2038,35.0353,M,M,M,360.00,6.00,M,29.96,M,10.00,M,SCT,M,M,M,4900.00,M,M,M,M,KCHA 010345Z AUTO 36006KT 10SM SCT049 A2996 RMK MADISHF
CHA,2017-04-01 03:50,-85.2038,35.0353,M,M,M,360.00,7.00,M,29.96,M,10.00,M,SCT,M,M,M,5000.00,M,M,M,M,KCHA 010350Z AUTO 36007KT 10SM SCT050 A2996 RMK MADISHF
CHA,2017-04-01 03:53,-85.2038,35.0353,59.00,46.00,61.98,350.00,6.00,0.00,29.96,1014.30,10.00,M,SCT,M,M,M,5000.00,M,M,M,M,KCHA 010353Z 35006KT 10SM SCT050 15/08 A2996 RMK AO2 SLP143 T01500078
CHA,2017-04-01 03:55,-85.2038,35.0353,M,M,M,360.00,5.00,M,29.97,M,10.00,M,FEW,M,M,M,5000.00,M,M,M,M,KCHA 010355Z AUTO 36005KT 10SM FEW050 A2997 RMK MADISHF
CHA,2017-04-01 04:00,-85.2038,35.0353,M,M,M,350.00,4.00,M,29.96,M,10.00,M,CLR,M,M,M,M,M,M,M,M,KCHA 010400Z AUTO 35004KT 10SM CLR A2996 RMK MADISHF
CHA,2017-04-01 04:05,-85.2038,35.0353,M,M,M,340.00,4.00,M,29.96,M,10.00,M,CLR,M,M,M,M,M,M,M,M,KCHA 010405Z AUTO 34004KT 10SM CLR A2996 RMK MADISHF
CHA,2017-04-01 04:10,-85.2038,35.0353,M,M,M,340.00,4.00,M,29.96,M,10.00,M,CLR,M,M,M,M,M,M,M,M,KCHA 010410Z AUTO 34004KT 10SM CLR A2996 RMK MADISHF
CHA,2017-04-01 04:15,-85.2038,35.0353,M,M,M,320.00,4.00,M,29.97,M,10.00,M,CLR,M,M,M,M,M,M,M,M,KCHA 010415Z AUTO 32004KT 10SM CLR A2997 RMK MADISHF
CHA,2017-04-01 04:20,-85.2038,35.0353,M,M,M,300.00,3.00,M,29.97,M,10.00,M,CLR,M,M,M,M,M,M,M,M,KCHA 010420Z AUTO 30003KT 10SM CLR A2997 RMK MADISHF
CHA,2017-04-01 04:25,-85.2038,35.0353,M,M,M,300.00,3.00,M,29.97,M,10.00,M,CLR,M,M,M,M,M,M,M,M,KCHA 010425Z AUTO 30003KT 10SM CLR A2997 RMK MADISHF
CHA,2017-04-01 04:30,-85.2038,35.0353,M,M,M,320.00,3.00,M,29.97,M,10.00,M,CLR,M,M,M,M,M,M,M,M,KCHA 010430Z AUTO 32003KT 10SM CLR A2997 RMK MADISHF
CHA,2017-04-01 04:35,-85.2038,35.0353,M,M,M,320.00,5.00,M,29.97,M,10.00,M,CLR,M,M,M,M,M,M,M,M,KCHA 010435Z AUTO 32005KT 10SM CLR A2997 RMK MADISHF
CHA,2017-04-01 04:40,-85.2038,35.0353,M,M,M,310.00,3.00,M,29.97,M,10.00,M,CLR,M,M,M,M,M,M,M,M,KCHA 010440Z AUTO 31003KT 10SM CLR A2997 RMK MADISHF
CHA,2017-04-01 04:45,-85.2038,35.0353,M,M,M,310.00,4.00,M,29.97,M,10.00,M,CLR,M,M,M,M,M,M,M,M,KCHA 010445Z AUTO 31004KT 10SM CLR A2997 RMK MADISHF
CHA,2017-04-01 04:50,-85.2038,35.0353,M,M,M,300.00,3.00,M,29.97,M,10.00,M,CLR,M,M,M,M,M,M,M,M,KCHA 010450Z AUTO 30003KT 10SM CLR A2997 RMK MADISHF
CHA,2017-04-01 04:53,-85.2038,35.0353,57.00,46.00,66.59,310.00,3.00,0.00,29.97,1014.50,10.00,M,CLR,M,M,M,M,M,M,M,M,KCHA 010453Z AUTO 31003KT 10SM CLR 14/08 A2997 RMK AO2 SLP145 T01390078 402110133
CHA,2017-04-01 04:55,-85.2038,35.0353,M,M,M,300.00,3.00,M,29.97,M,10.00,M,CLR,M,M,M,M,M,M,M,M,KCHA 010455Z AUTO 30003KT 10SM CLR A2997 RMK MADISHF
CHA,2017-04-01 05:00,-85.2038,35.0353,M,M,M,0.00,0.00,M,29.97,M,10.00,M,CLR,M,M,M,M,M,M,M,M,KCHA 010500Z AUTO 00000KT 10SM CLR A2997 RMK MADISHF
CHA,2017-04-01 05:05,-85.2038,35.0353,M,M,M,290.00,3.00,M,29.97,M,10.00,M,CLR,M,M,M,M,M,M,M,M,KCHA 010505Z AUTO 29003KT 10SM CLR A2997 RMK MADISHF
CHA,2017-04-01 05:10,-85.2038,35.0353,M,M,M,0.00,0.00,M,29.97,M,10.00,M,CLR,M,M,M,M,M,M,M,M,KCHA 010510Z AUTO 00000KT 10SM CLR A2997 RMK MADISHF
CHA,2017-04-01 05:15,-85.2038,35.0353,M,M,M,0.00,0.00,M,29.97,M,10.00,M,CLR,M,M,M,M,M,M,M,M,KCHA 010515Z AUTO 00000KT 10SM CLR A2997 RMK MADISHF
CHA,2017-04-01 05:20,-85.2038,35.0353,M,M,M,0.00,0.00,M,29.98,M,10.00,M,CLR,M,M,M,M,M,M,M,M,KCHA 010520Z AUTO 00000KT 10SM CLR A2998 RMK MADISHF
CHA,2017-04-01 05:25,-85.2038,35.0353,M,M,M,0.00,0.00,M,29.98,M,10.00,M,CLR,M,M,M,M,M,M,M,M,KCHA 010525Z AUTO 00000KT 10SM CLR A2998 RMK MADISHF
CHA,2017-04-01 05:30,-85.2038,35.0353,M,M,M,0.00,0.00,M,29.98,M,10.00,M,CLR,M,M,M,M,M,M,M,M,KCHA 010530Z AUTO 00000KT 10SM CLR A2998 RMK MADISHF
CHA,2017-04-01 05:35,-85.2038,35.0353,M,M,M,0.00,0.00,M,29.98,M,10.00,M,CLR,M,M,M,M,M,M,M,M,KCHA 010535Z AUTO 00000KT 10SM CLR A2998 RMK MADISHF
CHA,2017-04-01 05:40,-85.2038,35.0353,M,M,M,0.00,0.00,M,29.98,M,10.00,M,CLR,M,M,M,M,M,M,M,M,KCHA 010540Z AUTO 00000KT 10SM CLR A2998 RMK MADISHF
CHA,2017-04-01 05:45,-85.2038,35.0353,M,M,M,0.00,0.00,M,29.98,M,10.00,M,CLR,M,M,M,M,M,M,M,M,KCHA 010545Z AUTO 00000KT 10SM CLR A2998 RMK MADISHF
CHA,2017-04-01 05:50,-85.2038,35.0353,M,M,M,0.00,0.00,M,29.98,M,10.00,M,CLR,M,M,M,M,M,M,M,M,KCHA 010550Z AUTO 00000KT 10SM CLR A2998 RMK MADISHF
CHA,2017-04-01 05:53,-85.2038,35.0353,55.90,46.00,69.30,0.00,0.00,0.00,29.98,1014.80,10.00,M,CLR,M,M,M,M,M,M,M,M,KCHA 010553Z AUTO 00000KT 10SM CLR 13/08 A2998 RMK AO2 SLP148 T01330078 10183 20133 51012
CHA,2017-04-01 05:55,-85.2038,35.0353,M,M,M,0.00,0.00,M,29.98,M,10.00,M,CLR,M,M,M,M,M,M,M,M,KCHA 010555Z AUTO 00000KT 10SM CLR A2998 RMK MADISHF
CHA,2017-04-01 06:00,-85.2038,35.0353,M,M,M,0.00,0.00,M,29.98,M,10.00,M,CLR,M,M,M,M,M,M,M,M,KCHA 010600Z AUTO 00000KT 10SM CLR A2998 RMK MADISHF
CHA,2017-04-01 06:05,-85.2038,35.0353,M,M,M,0.00,0.00,M,29.98,M,10.00,M,CLR,M,M,M,M,M,M,M,M,KCHA 010605Z AUTO 00000KT 10SM CLR A2998 RMK MADISHF
CHA,2017-04-01 06:10,-85.2038,35.0353,M,M,M,340.00,3.00,M,29.98,M,10.00,M,CLR,M,M,M,M,M,M,M,M,KCHA 010610Z AUTO 34003KT 10SM CLR A2998 RMK MADISHF
CHA,2017-04-01 06:15,-85.2038,35.0353,M,M,M,0.00,0.00,M,29.98,M,10.00,M,CLR,M,M,M,M,M,M,M,M,KCHA 010615Z AUTO 00000KT 10SM CLR A2998 RMK MADISHF
CHA,2017-04-01 06:20,-85.2038,35.0353,M,M,M,0.00,0.00,M,29.98,M,10.00,M,CLR,M,M,M,M,M,M,M,M,KCHA 010620Z AUTO 00000KT 10SM CLR A2998 RMK MADISHF
CHA,2017-04-01 06:25,-85.2038,35.0353,M,M,M,0.00,0.00,M,29.98,M,10.00,M,CLR,M,M,M,M,M,M,M,M,KCHA 010625Z AUTO 00000KT 10SM CLR A2998 RMK MADISHF
CHA,2017-04-01 06:30,-85.2038,35.0353,M,M,M,0.00,0.00,M,29.98,M,10.00,M,CLR,M,M,M,M,M,M,M,M,KCHA 010630Z AUTO 00000KT 10SM CLR A2998 RMK MADISHF
CHA,2017-04-01 06:35,-85.2038,35.0353,M,M,M,0.00,0.00,M,29.99,M,10.00,M,CLR,M,M,M,M,M,M,M,M,KCHA 010635Z AUTO 00000KT 10SM CLR A2999 RMK MADISHF
CHA,2017-04-01 06:40,-85.2038,35.0353,M,M,M,0.00,0.00,M,29.99,M,10.00,M,CLR,M,M,M,M,M,M,M,M,KCHA 010640Z AUTO 00000KT 10SM CLR A2999 RMK MADISHF
CHA,2017-04-01 06:45,-85.2038,35.0353,M,M,M,0.00,0.00,M,29.99,M,10.00,M,CLR,M,M,M,M,M,M,M,M,KCHA 010645Z AUTO 00000KT 10SM CLR A2999 RMK MADISHF
CHA,2017-04-01 06:50,-85.2038,35.0353,M,M,M,340.00,3.00,M,29.99,M,10.00,M,CLR,M,M,M,M,M,M,M,M,KCHA 010650Z AUTO 34003KT 10SM CLR A2999 RMK MADISHF
CHA,2017-04-01 06:53,-85.2038,35.0353,55.00,46.00,71.60,340.00,3.00,0.00,29.99,1015.10,10.00,M,CLR,M,M,M,M,M,M,M,M,KCHA 010653Z AUTO 34003KT 10SM CLR 13/08 A2999 RMK AO2 SLP151 T01280078
CHA,2017-04-01 06:55,-85.2038,35.0353,M,M,M,340.00,3.00,M,29.99,M,10.00,M,CLR,M,M,M,M,M,M,M,M,KCHA 010655Z AUTO 34003KT 10SM CLR A2999 RMK MADISHF
CHA,2017-04-01 07:00,-85.2038,35.0353,M,M,M,350.00,3.00,M,29.99,M,10.00,M,CLR,M,M,M,M,M,M,M,M,KCHA 010700Z AUTO 35003KT 10SM CLR A2999 RMK MADISHF
CHA,2017-04-01 07:05,-85.2038,35.0353,M,M,M,350.00,3.00,M,29.99,M,10.00,M,CLR,M,M,M,M,M,M,M,M,KCHA 010705Z AUTO 35003KT 10SM CLR A2999 RMK MADISHF
CHA,2017-04-01 07:10,-85.2038,35.0353,M,M,M,360.00,3.00,M,29.99,M,10.00,M,CLR,M,M,M,M,M,M,M,M,KCHA 010710Z AUTO 36003KT 10SM CLR A2999 RMK MADISHF
CHA,2017-04-01 07:15,-85.2038,35.0353,M,M,M,340.00,3.00,M,29.99,M,10.00,M,CLR,M,M,M,M,M,M,M,M,KCHA 010715Z AUTO 34003KT 10SM CLR A2999 RMK MADISHF
CHA,2017-04-01 07:20,-85.2038,35.0353,M,M,M,330.00,3.00,M,29.99,M,10.00,M,CLR,M,M,M,M,M,M,M,M,KCHA 010720Z AUTO 33003KT 10SM CLR A2999 RMK MADISHF
CHA,2017-04-01 07:25,-85.2038,35.0353,M,M,M,330.00,4.00,M,29.99,M,10.00,M,CLR,M,M,M,M,M,M,M,M,KCHA 010725Z AUTO 33004KT 10SM CLR A2999 RMK MADISHF
CHA,2017-04-01 07:30,-85.2038,35.0353,M,M,M,330.00,3.00,M,29.99,M,10.00,M,CLR,M,M,M,M,M,M,M,M,KCHA 010730Z AUTO 33003KT 10SM CLR A2999 RMK MADISHF
CHA,2017-04-01 07:35,-85.2038,35.0353,M,M,M,330.00,3.00,M,29.99,M,10.00,M,CLR,M,M,M,M,M,M,M,M,KCHA 010735Z AUTO 33003KT 10SM CLR A2999 RMK MADISHF
CHA,2017-04-01 07:40,-85.2038,35.0353,M,M,M,330.00,4.00,M,29.99,M,10.00,M,CLR,M,M,M,M,M,M,M,M,KCHA 010740Z AUTO 33004KT 10SM CLR A2999 RMK MADISHF
CHA,2017-04-01 07:45,-85.2038,35.0353,M,M,M,340.00,3.00,M,29.99,M,10.00,M,CLR,M,M,M,M,M,M,M,M,KCHA 010745Z AUTO 34003KT 10SM CLR A2999 RMK MADISHF
CHA,2017-04-01 07:50,-85.2038,35.0353,M,M,M,350.00,3.00,M,29.99,M,10.00,M,CLR,M,M,M,M,M,M,M,M,KCHA 010750Z AUTO 35003KT 10SM CLR A2999 RMK MADISHF
CHA,2017-04-01 07:53,-85.2038,35.0353,53.10,45.00,73.89,340.00,3.00,0.00,30.00,1015.40,10.00,M,CLR,M,M,M,M,M,M,M,M,KCHA 010753Z AUTO 34003KT 10SM CLR 12/07 A3000 RMK AO2 SLP154 T01170072
CHA,2017-04-01 07:55,-85.2038,35.0353,M,M,M,350.00,3.00,M,30.00,M,10.00,M,CLR,M,M,M,M,M,M,M,M,KCHA 010755Z AUTO 35003KT 10SM CLR A3000 RMK MADISHF
CHA,2017-04-01 08:00,-85.2038,35.0353,M,M,M,0.00,0.00,M,30.00,M,10.00,M,CLR,M,M,M,M,M,M,M,M,KCHA 010800Z AUTO 00000KT 10SM CLR A3000 RMK MADISHF
CHA,2017-04-01 08:05,-85.2038,35.0353,M,M,M,0.00,0.00,M,30.00,M,10.00,M,CLR,M,M,M,M,M,M,M,M,KCHA 010805Z AUTO 00000KT 10SM CLR A3000 RMK MADISHF
CHA,2017-04-01 08:10,-85.2038,35.0353,M,M,M,0.00,0.00,M,30.00,M,10.00,M,CLR,M,M,M,M,M,M,M,M,KCHA 010810Z AUTO 00000KT 10SM CLR A3000 RMK MADISHF
CHA,2017-04-01 08:15,-85.2038,35.0353,M,M,M,0.00,0.00,M,30.00,M,10.00,M,CLR,M,M,M,M,M,M,M,M,KCHA 010815Z AUTO 00000KT 10SM CLR A3000 RMK MADISHF
CHA,2017-04-01 08:20,-85.2038,35.0353,M,M,M,270.00,3.00,M,30.00,M,10.00,M,CLR,M,M,M,M,M,M,M,M,KCHA 010820Z AUTO 27003KT 10SM CLR A3000 RMK MADISHF
CHA,2017-04-01 08:25,-85.2038,35.0353,M,M,M,270.00,4.00,M,30.01,M,10.00,M,CLR,M,M,M,M,M,M,M,M,KCHA 010825Z AUTO 27004KT 10SM CLR A3001 RMK MADISHF
CHA,2017-04-01 08:30,-85.2038,35.0353,M,M,M,280.00,3.00,M,30.01,M,10.00,M,CLR,M,M,M,M,M,M,M,M,KCHA 010830Z AUTO 28003KT 10SM CLR A3001 RMK MADISHF
CHA,2017-04-01 08:35,-85.2038,35.0353,M,M,M,290.00,4.00,M,30.01,M,10.00,M,CLR,M,M,M,M,M,M,M,M,KCHA 010835Z AUTO 29004KT 10SM CLR A3001 RMK MADISHF
CHA,2017-04-01 08:40,-85.2038,35.0353,M,M,M,310.00,4.00,M,30.01,M,10.00,M,CLR,M,M,M,M,M,M,M,M,KCHA 010840Z AUTO 31004KT 10SM CLR A3001 RMK MADISHF
CHA,2017-04-01 08:45,-85.2038,35.0353,M,M,M,310.00,4.00,M,30.01,M,10.00,M,CLR,M,M,M,M,M,M,M,M,KCHA 010845Z AUTO 31004KT 10SM CLR A3001 RMK MADISHF
CHA,2017-04-01 08:50,-85.2038,35.0353,M,M,M,310.00,4.00,M,30.01,M,10.00,M,CLR,M,M,M,M,M,M,M,M,KCHA 010850Z AUTO 31004KT 10SM CLR A3001 RMK MADISHF
CHA,2017-04-01 08:53,-85.2038,35.0353,50.00,46.00,86.06,310.00,4.00,0.00,30.01,1015.90,10.00,M,CLR,M,M,M,M,M,M,M,M,KCHA 010853Z AUTO 31004KT 10SM CLR 10/08 A3001 RMK AO2 SLP159 T01000078 53010
CHA,2017-04-01 08:55,-85.2038,35.0353,M,M,M,300.00,4.00,M,30.01,M,10.00,M,CLR,M,M,M,M,M,M,M,M,KCHA 010855Z AUTO 30004KT 10SM CLR A3001 RMK MADISHF
CHA,2017-04-01 09:00,-85.2038,35.0353,M,M,M,290.00,3.00,M,30.01,M,10.00,M,CLR,M,M,M,M,M,M,M,M,KCHA 010900Z AUTO 29003KT 10SM CLR A3001 RMK MADISHF
CHA,2017-04-01 09:05,-85.2038,35.0353,M,M,M,0.00,0.00,M,30.01,M,10.00,M,CLR,M,M,M,M,M,M,M,M,KCHA 010905Z AUTO 00000KT 10SM CLR A3001 RMK MADISHF
CHA,2017-04-01 09:10,-85.2038,35.0353,M,M,M,110.00,3.00,M,30.02,M,10.00,M,CLR,M,M,M,M,M,M,M,M,KCHA 010910Z AUTO 11003KT 10SM CLR A3002 RMK MADISHF
CHA,2017-04-01 09:15,-85.2038,35.0353,M,M,M,90.00,3.00,M,30.02,M,10.00,M,CLR,M,M,M,M,M,M,M,M,KCHA 010915Z AUTO 09003KT 10SM CLR A3002 RMK MADISHF
CHA,2017-04-01 09:20,-85.2038,35.0353,M,M,M,0.00,0.00,M,30.02,M,10.00,M,CLR,M,M,M,M,M,M,M,M,KCHA 010920Z AUTO 00000KT 10SM CLR A3002 RMK MADISHF
CHA,2017-04-01 09:25,-85.2038,35.0353,M,M,M,0.00,0.00,M,30.02,M,10.00,M,CLR,M,M,M,M,M,M,M,M,KCHA 010925Z AUTO 00000KT 10SM CLR A3002 RMK MADISHF
CHA,2017-04-01 09:30,-85.2038,35.0353,M,M,M,0.00,0.00,M,30.02,M,10.00,M,CLR,M,M,M,M,M,M,M,M,KCHA 010930Z AUTO 00000KT 10SM CLR A3002 RMK MADISHF
CHA,2017-04-01 09:35,-85.2038,35.0353,M,M,M,0.00,0.00,M,30.02,M,10.00,M,CLR,M,M,M,M,M,M,M,M,KCHA 010935Z AUTO 00000KT 10SM CLR A3002 RMK MADISHF
CHA,2017-04-01 09:40,-85.2038,35.0353,M,M,M,0.00,0.00,M,30.03,M,10.00,M,CLR,M,M,M,M,M,M,M,M,KCHA 010940Z AUTO 00000KT 10SM CLR A3003 RMK MADISHF
CHA,2017-04-01 09:45,-85.2038,35.0353,M,M,M,310.00,3.00,M,30.03,M,10.00,M,CLR,M,M,M,M,M,M,M,M,KCHA 010945Z AUTO 31003KT 10SM CLR A3003 RMK MADISHF
CHA,2017-04-01 09:50,-85.2038,35.0353,M,M,M,0.00,0.00,M,30.03,M,10.00,M,SCT,M,M,M,5000.00,M,M,M,M,KCHA 010950Z AUTO 00000KT 10SM SCT050 A3003 RMK MADISHF
CHA,2017-04-01 09:53,-85.2038,35.0353,50.00,45.00,82.86,320.00,3.00,0.00,30.03,1016.50,10.00,M,SCT,M,M,M,5000.00,M,M,M,M,KCHA 010953Z 32003KT 10SM SCT050 10/07 A3003 RMK AO2 SLP165 T01000072
CHA,2017-04-01 09:55,-85.2038,35.0353,M,M,M,320.00,3.00,M,30.03,M,10.00,M,SCT,M,M,M,5000.00,M,M,M,M,KCHA 010955Z AUTO 32003KT 10SM SCT050 A3003 RMK MADISHF
CHA,2017-04-01 10:00,-85.2038,35.0353,M,M,M,310.00,3.00,M,30.03,M,10.00,M,SCT,M,M,M,5000.00,M,M,M,M,KCHA 011000Z AUTO 31003KT 10SM SCT050 A3003 RMK MADISHF
CHA,2017-04-01 10:05,-85.2038,35.0353,M,M,M,0.00,0.00,M,30.03,M,10.00,M,SCT,M,M,M,5000.00,M,M,M,M,KCHA 011005Z AUTO 00000KT 10SM SCT050 A3003 RMK MADISHF
CHA,2017-04-01 10:10,-85.2038,35.0353,M,M,M,0.00,0.00,M,30.03,M,10.00,M,SCT,M,M,M,5000.00,M,M,M,M,KCHA 011010Z AUTO 00000KT 10SM SCT050 A3003 RMK MADISHF
CHA,2017-04-01 10:15,-85.2038,35.0353,M,M,M,0.00,0.00,M,30.04,M,10.00,M,SCT,M,M,M,5000.00,M,M,M,M,KCHA 011015Z AUTO 00000KT 10SM SCT050 A3004 RMK MADISHF
CHA,2017-04-01 10:20,-85.2038,35.0353,M,M,M,0.00,0.00,M,30.04,M,10.00,M,SCT,M,M,M,5000.00,M,M,M,M,KCHA 011020Z AUTO 00000KT 10SM SCT050 A3004 RMK MADISHF
CHA,2017-04-01 10:25,-85.2038,35.0353,M,M,M,0.00,0.00,M,30.04,M,10.00,M,SCT,M,M,M,5000.00,M,M,M,M,KCHA 011025Z AUTO 00000KT 10SM SCT050 A3004 RMK MADISHF
CHA,2017-04-01 10:30,-85.2038,35.0353,M,M,M,0.00,0.00,M,30.04,M,10.00,M,SCT,M,M,M,5000.00,M,M,M,M,KCHA 011030Z AUTO 00000KT 10SM SCT050 A3004 RMK MADISHF
CHA,2017-04-01 10:35,-85.2038,35.0353,M,M,M,0.00,0.00,M,30.04,M,10.00,M,SCT,M,M,M,5000.00,M,M,M,M,KCHA 011035Z AUTO 00000KT 10SM SCT050 A3004 RMK MADISHF
CHA,2017-04-01 10:40,-85.2038,35.0353,M,M,M,0.00,0.00,M,30.05,M,10.00,M,SCT,M,M,M,5000.00,M,M,M,M,KCHA 011040Z AUTO 00000KT 10SM SCT050 A3005 RMK MADISHF
CHA,2017-04-01 10:45,-85.2038,35.0353,M,M,M,0.00,0.00,M,30.05,M,10.00,M,SCT,M,M,M,5000.00,M,M,M,M,KCHA 011045Z AUTO 00000KT 10SM SCT050 A3005 RMK MADISHF
CHA,2017-04-01 10:50,-85.2038,35.0353,M,M,M,0.00,0.00,M,30.05,M,10.00,M,SCT,BKN,M,M,2500.00,5000.00,M,M,M,KCHA 011050Z AUTO 00000KT 10SM SCT025 BKN050 A3005 RMK MADISHF
CHA,2017-04-01 10:53,-85.2038,35.0353,51.10,46.00,82.62,340.00,3.00,0.00,30.05,1017.30,10.00,M,SCT,BKN,M,M,2500.00,5000.00,M,M,M,KCHA 011053Z 34003KT 10SM SCT025 BKN050 11/08 A3005 RMK AO2 SLP173 T01060078
CHA,2017-04-01 10:55,-85.2038,35.0353,M,M,M,340.00,4.00,M,30.05,M,10.00,M,SCT,BKN,M,M,2500.00,5000.00,M,M,M,KCHA 011055Z AUTO 34004KT 10SM SCT025 BKN050 A3005 RMK MADISHF
CHA,2017-04-01 11:00,-85.2038,35.0353,M,M,M,350.00,5.00,M,30.06,M,10.00,M,SCT,BKN,M,M,2500.00,5000.00,M,M,M,KCHA 011100Z AUTO 35005KT 10SM SCT025 BKN050 A3006 RMK MADISHF
CHA,2017-04-01 11:05,-85.2038,35.0353,M,M,M,360.00,9.00,M,30.06,M,10.00,M,SCT,BKN,M,M,2500.00,5000.00,M,M,M,KCHA 011105Z AUTO 36009KT 10SM SCT025 BKN050 A3006 RMK MADISHF
CHA,2017-04-01 11:10,-85.2038,35.0353,M,M,M,360.00,9.00,M,30.06,M,10.00,M,SCT,BKN,M,M,2500.00,5000.00,M,M,M,KCHA 011110Z AUTO 36009KT 10SM SCT025 BKN050 A3006 RMK MADISHF
CHA,2017-04-01 11:15,-85.2038,35.0353,M,M,M,360.00,9.00,M,30.06,M,10.00,M,SCT,BKN,M,M,2500.00,5000.00,M,M,M,KCHA 011115Z AUTO 36009KT 10SM SCT025 BKN050 A3006 RMK MADISHF
CHA,2017-04-01 11:18,-85.2038,35.0353,53.10,45.00,73.89,350.00,10.00,0.00,30.07,M,10.00,M,BKN,BKN,M,M,2500.00,5000.00,M,M,M,KCHA 011118Z 35010KT 10SM BKN025 BKN050 12/07 A3007 RMK AO2 T01170072
CHA,2017-04-01 11:20,-85.2038,35.0353,M,M,M,350.00,10.00,M,30.07,M,10.00,M,BKN,BKN,M,M,2500.00,5000.00,M,M,M,KCHA 011120Z AUTO 35010KT 10SM BKN025 BKN050 A3007 RMK MADISHF
CHA,2017-04-01 11:25,-85.2038,35.0353,M,M,M,360.00,9.00,M,30.07,M,10.00,M,BKN,BKN,M,M,2500.00,5000.00,M,M,M,KCHA 011125Z AUTO 36009KT 10SM BKN025 BKN050 A3007 RMK MADISHF
CHA,2017-04-01 11:30,-85.2038,35.0353,M,M,M,360.00,8.00,M,30.07,M,10.00,M,BKN,BKN,M,M,2500.00,5000.00,M,M,M,KCHA 011130Z AUTO 36008KT 10SM BKN025 BKN050 A3007 RMK MADISHF
CHA,2017-04-01 11:35,-85.2038,35.0353,M,M,M,360.00,8.00,M,30.07,M,10.00,M,BKN,BKN,M,M,2500.00,5000.00,M,M,M,KCHA 011135Z AUTO 36008KT 10SM BKN025 BKN050 A3007 RMK MADISHF
CHA,2017-04-01 11:40,-85.2038,35.0353,M,M,M,350.00,9.00,M,30.07,M,10.00,M,BKN,BKN,M,M,2500.00,5000.00,M,M,M,KCHA 011140Z AUTO 35009KT 10SM BKN025 BKN050 A3007 RMK MADISHF
CHA,2017-04-01 11:45,-85.2038,35.0353,M,M,M,340.00,10.00,M,30.07,M,10.00,M,BKN,BKN,M,M,2500.00,5000.00,M,M,M,KCHA 011145Z AUTO 34010KT 10SM BKN025 BKN050 A3007 RMK MADISHF
CHA,2017-04-01 11:50,-85.2038,35.0353,M,M,M,340.00,10.00,M,30.08,M,10.00,M,BKN,BKN,M,M,2500.00,5000.00,M,M,M,KCHA 011150Z AUTO 34010KT 10SM BKN025 BKN050 A3008 RMK MADISHF
CHA,2017-04-01 11:53,-85.2038,35.0353,53.10,44.10,71.40,350.00,9.00,0.00,30.08,1018.10,10.00,M,BKN,BKN,M,M,2500.00,5000.00,M,M,M,KCHA 011153Z 35009KT 10SM BKN025 BKN050 12/07 A3008 RMK AO2 SLP181 T01170067 10133 20094 53022
CHA,2017-04-01 11:55,-85.2038,35.0353,M,M,M,340.00,8.00,M,30.08,M,10.00,M,BKN,BKN,M,M,2500.00,5000.00,M,M,M,KCHA 011155Z AUTO 34008KT 10SM BKN025 BKN050 A3008 RMK MADISHF
CHA,2017-04-01 12:00,-85.2038,35.0353,M,M,M,340.00,8.00,M,30.08,M,10.00,M,BKN,BKN,M,M,2500.00,5000.00,M,M,M,KCHA 011200Z AUTO 34008KT 10SM BKN025 BKN050 A3008 RMK MADISHF
CHA,2017-04-01 12:05,-85.2038,35.0353,M,M,M,330.00,9.00,M,30.08,M,10.00,M,BKN,BKN,M,M,2500.00,5000.00,M,M,M,KCHA 011205Z AUTO 33009KT 10SM BKN025 BKN050 A3008 RMK MADISHF
CHA,2017-04-01 12:10,-85.2038,35.0353,M,M,M,340.00,9.00,M,30.09,M,10.00,M,BKN,BKN,M,M,2500.00,5000.00,M,M,M,KCHA 011210Z AUTO 34009KT 10SM BKN025 BKN050 A3009 RMK MADISHF
CHA,2017-04-01 12:15,-85.2038,35.0353,M,M,M,320.00,8.00,M,30.09,M,10.00,M,BKN,BKN,M,M,2500.00,5000.00,M,M,M,KCHA 011215Z AUTO 32008KT 10SM BKN025 BKN050 A3009 RMK MADISHF
CHA,2017-04-01 12:20,-85.2038,35.0353,M,M,M,320.00,7.00,M,30.09,M,10.00,M,BKN,BKN,M,M,2500.00,5000.00,M,M,M,KCHA 011220Z AUTO 32007KT 10SM BKN025 BKN050 A3009 RMK MADISHF
CHA,2017-04-01 12:25,-85.2038,35.0353,M,M,M,330.00,7.00,M,30.09,M,10.00,M,BKN,BKN,M,M,2500.00,5000.00,M,M,M,KCHA 011225Z AUTO 33007KT 10SM BKN025 BKN050 A3009 RMK MADISHF
CHA,2017-04-01 12:30,-85.2038,35.0353,M,M,M,330.00,6.00,M,30.10,M,10.00,M,BKN,BKN,M,M,2500.00,5000.00,M,M,M,KCHA 011230Z AUTO 33006KT 10SM BKN025 BKN050 A3010 RMK MADISHF
CHA,2017-04-01 12:35,-85.2038,35.0353,M,M,M,330.00,8.00,M,30.10,M,10.00,M,BKN,BKN,M,M,2500.00,5000.00,M,M,M,KCHA 011235Z AUTO 33008KT 10SM BKN025 BKN050 A3010 RMK MADISHF
CHA,2017-04-01 12:40,-85.2038,35.0353,M,M,M,350.00,9.00,M,30.10,M,10.00,M,BKN,BKN,M,M,2500.00,5000.00,M,M,M,KCHA 011240Z AUTO 35009KT 10SM BKN025 BKN050 A3010 RMK MADISHF
CHA,2017-04-01 12:45,-85.2038,35.0353,M,M,M,340.00,8.00,M,30.10,M,10.00,M,BKN,BKN,M,M,2500.00,5000.00,M,M,M,KCHA 011245Z AUTO 34008KT 10SM BKN025 BKN050 A3010 RMK MADISHF
CHA,2017-04-01 12:50,-85.2038,35.0353,M,M,M,340.00,9.00,M,30.10,M,10.00,M,BKN,BKN,M,M,2500.00,5000.00,M,M,M,KCHA 011250Z AUTO 34009KT 10SM BKN025 BKN050 A3010 RMK MADISHF
CHA,2017-04-01 12:53,-85.2038,35.0353,54.00,44.10,69.09,340.00,8.00,0.00,30.10,1019.10,10.00,M,BKN,BKN,M,M,2500.00,5000.00,M,M,M,KCHA 011253Z 34008KT 10SM BKN025 BKN050 12/07 A3010 RMK AO2 SLP191 T01220067
CHA,2017-04-01 12:55,-85.2038,35.0353,M,M,M,330.00,8.00,M,30.10,M,10.00,M,BKN,BKN,M,M,2500.00,5000.00,M,M,M,KCHA 011255Z AUTO 33008KT 10SM BKN025 BKN050 A3010 RMK MADISHF
CHA,2017-04-01 13:00,-85.2038,35.0353,M,M,M,330.00,8.00,M,30.11,M,10.00,M,BKN,BKN,M,M,2500.00,5000.00,M,M,M,KCHA 011300Z AUTO 33008KT 10SM BKN025 BKN050 A3011 RMK MADISHF
CHA,2017-04-01 13:05,-85.2038,35.0353,M,M,M,350.00,9.00,M,30.11,M,10.00,M,BKN,BKN,M,M,2500.00,5000.00,M,M,M,KCHA 011305Z AUTO 35009KT 10SM BKN025 BKN050 A3011 RMK MADISHF
CHA,2017-04-01 13:10,-85.2038,35.0353,M,M,M,340.00,10.00,M,30.11,M,10.00,M,BKN,BKN,M,M,2500.00,5000.00,M,M,M,KCHA 011310Z AUTO 34010KT 10SM BKN025 BKN050 A3011 RMK MADISHF
CHA,2017-04-01 13:15,-85.2038,35.0353,M,M,M,330.00,10.00,M,30.11,M,10.00,M,BKN,BKN,M,M,2500.00,5000.00,M,M,M,KCHA 011315Z AUTO 33010KT 10SM BKN025 BKN050 A3011 RMK MADISHF
CHA,2017-04-01 13:20,-85.2038,35.0353,M,M,M,340.00,10.00,M,30.11,M,10.00,M,BKN,BKN,M,M,2500.00,5000.00,M,M,M,KCHA 011320Z AUTO 34010KT 10SM BKN025 BKN050 A3011 RMK MADISHF
CHA,2017-04-01 13:25,-85.2038,35.0353,M,M,M,340.00,8.00,M,30.11,M,10.00,M,BKN,BKN,M,M,2500.00,5000.00,M,M,M,KCHA 011325Z AUTO 34008KT 10SM BKN025 BKN050 A3011 RMK MADISHF
CHA,2017-04-01 13:30,-85.2038,35.0353,M,M,M,330.00,9.00,M,30.12,M,10.00,M,BKN,BKN,M,M,2500.00,5000.00,M,M,M,KCHA 011330Z AUTO 33009KT 10SM BKN025 BKN050 A3012 RMK MADISHF
CHA,2017-04-01 13:35,-85.2038,35.0353,M,M,M,340.00,8.00,M,30.12,M,10.00,M,BKN,BKN,M,M,2500.00,5000.00,M,M,M,KCHA 011335Z AUTO 34008KT 10SM BKN025 BKN050 A3012 RMK MADISHF
CHA,2017-04-01 13:40,-85.2038,35.0353,M,M,M,340.00,8.00,M,30.12,M,10.00,M,BKN,BKN,M,M,2500.00,5000.00,M,M,M,KCHA 011340Z AUTO 34008KT 10SM BKN025 BKN050 A3012 RMK MADISHF
CHA,2017-04-01 13:45,-85.2038,35.0353,M,M,M,320.00,9.00,M,30.12,M,10.00,M,BKN,BKN,M,M,2500.00,5000.00,M,M,M,KCHA 011345Z AUTO 32009KT 10SM BKN025 BKN050 A3012 RMK MADISHF
CHA,2017-04-01 13:50,-85.2038,35.0353,M,M,M,330.00,6.00,M,30.12,M,10.00,M,BKN,BKN,M,M,2300.00,5000.00,M,M,M,KCHA 011350Z AUTO 33006KT 10SM BKN023 BKN050 A3012 RMK MADISHF
CHA,2017-04-01 13:53,-85.2038,35.0353,54.00,44.10,69.09,320.00,8.00,0.00,30.12,1019.70,10.00,M,BKN,BKN,M,M,2300.00,5000.00,M,M,M,KCHA 011353Z 32008KT 10SM BKN023 BKN050 12/07 A3012 RMK AO2 SLP197 T01220067
CHA,2017-04-01 13:55,-85.2038,35.0353,M,M,M,340.00,7.00,M,30.12,M,10.00,M,BKN,BKN,M,M,2300.00,5000.00,M,M,M,KCHA 011355Z AUTO 34007KT 10SM BKN023 BKN050 A3012 RMK MADISHF
CHA,2017-04-01 14:00,-85.2038,35.0353,M,M,M,340.00,7.00,M,30.12,M,10.00,M,BKN,BKN,M,M,2300.00,5000.00,M,M,M,KCHA 011400Z AUTO 34007KT 10SM BKN023 BKN050 A3012 RMK MADISHF
CHA,2017-04-01 14:05,-85.2038,35.0353,M,M,M,330.00,7.00,M,30.13,M,10.00,M,BKN,BKN,M,M,2300.00,5000.00,M,M,M,KCHA 011405Z AUTO 33007KT 10SM BKN023 BKN050 A3013 RMK MADISHF
CHA,2017-04-01 14:10,-85.2038,35.0353,M,M,M,360.00,6.00,M,30.13,M,10.00,M,BKN,BKN,M,M,2300.00,5000.00,M,M,M,KCHA 011410Z AUTO 36006KT 10SM BKN023 BKN050 A3013 RMK MADISHF
CHA,2017-04-01 14:15,-85.2038,35.0353,M,M,M,350.00,8.00,M,30.13,M,10.00,M,BKN,BKN,M,M,2300.00,5000.00,M,M,M,KCHA 011415Z AUTO 35008KT 10SM BKN023 BKN050 A3013 RMK MADISHF
CHA,2017-04-01 14:20,-85.2038,35.0353,M,M,M,360.00,9.00,M,30.13,M,10.00,M,BKN,BKN,M,M,2300.00,5000.00,M,M,M,KCHA 011420Z AUTO 36009KT 10SM BKN023 BKN050 A3013 RMK MADISHF
CHA,2017-04-01 14:25,-85.2038,35.0353,M,M,M,360.00,10.00,M,30.13,M,10.00,M,BKN,BKN,M,M,2300.00,5000.00,M,M,M,KCHA 011425Z AUTO 36010KT 10SM BKN023 BKN050 A3013 RMK MADISHF
CHA,2017-04-01 14:30,-85.2038,35.0353,M,M,M,350.00,9.00,M,30.13,M,10.00,M,BKN,BKN,M,M,2300.00,5000.00,M,M,M,KCHA 011430Z AUTO 35009KT 10SM BKN023 BKN050 A3013 RMK MADISHF
CHA,2017-04-01 14:35,-85.2038,35.0353,M,M,M,350.00,8.00,M,30.14,M,10.00,M,BKN,BKN,M,M,2300.00,5000.00,M,M,M,KCHA 011435Z AUTO 35008KT 10SM BKN023 BKN050 A3014 RMK MADISHF
CHA,2017-04-01 14:40,-85.2038,35.0353,M,M,M,340.00,8.00,M,30.14,M,10.00,M,BKN,BKN,M,M,2300.00,5000.00,M,M,M,KCHA 011440Z AUTO 34008KT 10SM BKN023 BKN050 A3014 RMK MADISHF
CHA,2017-04-01 14:45,-85.2038,35.0353,M,M,M,20.00,6.00,M,30.14,M,10.00,M,BKN,BKN,M,M,2300.00,5000.00,M,M,M,KCHA 011445Z AUTO 02006KT 10SM BKN023 BKN050 A3014 RMK MADISHF
CHA,2017-04-01 14:50,-85.2038,35.0353,M,M,M,20.00,8.00,M,30.14,M,10.00,M,BKN,BKN,M,M,2500.00,5000.00,M,M,M,KCHA 011450Z AUTO 02008KT 10SM BKN025 BKN050 A3014 RMK MADISHF
CHA,2017-04-01 14:53,-85.2038,35.0353,55.90,44.10,64.47,20.00,9.00,0.00,30.14,1020.20,10.00,M,BKN,BKN,M,M,2500.00,5000.00,M,M,M,KCHA 011453Z 02009KT 10SM BKN025 BKN050 13/07 A3014 RMK AO2 SLP202 T01330067 51020
CHA,2017-04-01 14:55,-85.2038,35.0353,M,M,M,20.00,8.00,M,30.14,M,10.00,M,BKN,BKN,M,M,2500.00,5000.00,M,M,M,KCHA 011455Z AUTO 02008KT 10SM BKN025 BKN050 A3014 RMK MADISHF
CHA,2017-04-01 15:00,-85.2038,35.0353,M,M,M,350.00,8.00,M,30.14,M,10.00,M,BKN,BKN,M,M,2500.00,5000.00,M,M,M,KCHA 011500Z AUTO 35008KT 10SM BKN025 BKN050 A3014 RMK MADISHF
CHA,2017-04-01 15:05,-85.2038,35.0353,M,M,M,350.00,6.00,M,30.14,M,10.00,M,BKN,BKN,M,M,2500.00,5000.00,M,M,M,KCHA 011505Z AUTO 35006KT 10SM BKN025 BKN050 A3014 RMK MADISHF
CHA,2017-04-01 15:10,-85.2038,35.0353,M,M,M,20.00,7.00,M,30.14,M,10.00,M,BKN,BKN,M,M,2500.00,5000.00,M,M,M,KCHA 011510Z AUTO 02007KT 10SM BKN025 BKN050 A3014 RMK MADISHF
CHA,2017-04-01 15:15,-85.2038,35.0353,M,M,M,360.00,9.00,M,30.14,M,10.00,M,BKN,BKN,M,M,2500.00,5000.00,M,M,M,KCHA 011515Z AUTO 36009KT 10SM BKN025 BKN050 A3014 RMK MADISHF
CHA,2017-04-01 15:20,-85.2038,35.0353,M,M,M,20.00,7.00,M,30.15,M,10.00,M,BKN,BKN,M,M,2500.00,5000.00,M,M,M,KCHA 011520Z AUTO 02007KT 10SM BKN025 BKN050 A3015 RMK MADISHF
CHA,2017-04-01 15:25,-85.2038,35.0353,M,M,M,20.00,7.00,M,30.15,M,10.00,M,BKN,BKN,M,M,2500.00,5000.00,M,M,M,KCHA 011525Z AUTO 02007KT 10SM BKN025 BKN050 A3015 RMK MADISHF
CHA,2017-04-01 15:30,-85.2038,35.0353,M,M,M,20.00,6.00,M,30.15,M,10.00,M,BKN,BKN,M,M,2500.00,5000.00,M,M,M,KCHA 011530Z AUTO 02006KT 10SM BKN025 BKN050 A3015 RMK MADISHF
CHA,2017-04-01 15:35,-85.2038,35.0353,M,M,M,360.00,7.00,M,30.14,M,10.00,M,BKN,BKN,M,M,2500.00,5000.00,M,M,M,KCHA 011535Z AUTO 36007KT 10SM BKN025 BKN050 A3014 RMK WND 33V04  MADISHF
CHA,2017-04-01 15:40,-85.2038,35.0353,M,M,M,20.00,9.00,M,30.14,M,10.00,M,BKN,BKN,M,M,2500.00,5000.00,M,M,M,KCHA 011540Z AUTO 02009KT 10SM BKN025 BKN050 A3014 RMK MADISHF
CHA,2017-04-01 15:45,-85.2038,35.0353,M,M,M,340.00,5.00,M,30.14,M,10.00,M,BKN,BKN,M,M,2500.00,5000.00,M,M,M,KCHA 011545Z AUTO 34005KT 10SM BKN025 BKN050 A3014 RMK VRB05KT  MADISHF
CHA,2017-04-01 15:50,-85.2038,35.0353,M,M,M,10.00,10.00,M,30.14,M,10.00,M,BKN,BKN,M,M,2600.00,5000.00,M,M,M,KCHA 011550Z AUTO 01010KT 10SM BKN026 BKN050 A3014 RMK MADISHF
CHA,2017-04-01 15:53,-85.2038,35.0353,59.00,45.00,59.67,10.00,6.00,0.00,30.14,1020.40,10.00,M,BKN,BKN,M,M,2600.00,5000.00,M,M,M,KCHA 011553Z 01006KT 10SM BKN026 BKN050 15/07 A3014 RMK AO2 SLP204 T01500072
CHA,2017-04-01 15:55,-85.2038,35.0353,M,M,M,30.00,5.00,M,30.14,M,10.00,M,BKN,BKN,M,M,2600.00,5000.00,M,M,M,KCHA 011555Z AUTO 03005KT 10SM BKN026 BKN050 A3014 RMK MADISHF
CHA,2017-04-01 16:00,-85.2038,35.0353,M,M,M,340.00,9.00,M,30.14,M,10.00,M,BKN,BKN,M,M,2600.00,5000.00,M,M,M,KCHA 011600Z AUTO 34009KT 10SM BKN026 BKN050 A3014 RMK MADISHF
CHA,2017-04-01 16:05,-85.2038,35.0353,M,M,M,10.00,9.00,M,30.14,M,10.00,M,BKN,BKN,M,M,2600.00,5000.00,M,M,M,KCHA 011605Z AUTO 01009KT 10SM BKN026 BKN050 A3014 RMK MADISHF
CHA,2017-04-01 16:10,-85.2038,35.0353,M,M,M,10.00,9.00,M,30.14,M,10.00,M,BKN,BKN,M,M,2600.00,5000.00,M,M,M,KCHA 011610Z AUTO 01009KT 10SM BKN026 BKN050 A3014 RMK MADISHF
CHA,2017-04-01 16:15,-85.2038,35.0353,M,M,M,10.00,7.00,M,30.14,M,10.00,M,BKN,BKN,M,M,2600.00,5000.00,M,M,M,KCHA 011615Z AUTO 01007KT 10SM BKN026 BKN050 A3014 RMK MADISHF
CHA,2017-04-01 16:20,-85.2038,35.0353,M,M,M,10.00,11.00,M,30.14,M,10.00,M,BKN,BKN,M,M,2600.00,5000.00,M,M,M,KCHA 011620Z AUTO 01011KT 10SM BKN026 BKN050 A3014 RMK MADISHF
CHA,2017-04-01 16:25,-85.2038,35.0353,M,M,M,10.00,8.00,M,30.14,M,10.00,M,BKN,BKN,M,M,2600.00,5000.00,M,M,M,KCHA 011625Z AUTO 01008KT 10SM BKN026 BKN050 A3014 RMK MADISHF
CHA,2017-04-01 16:30,-85.2038,35.0353,M,M,M,30.00,10.00,M,30.13,M,10.00,M,BKN,BKN,M,M,2600.00,5000.00,M,M,M,KCHA 011630Z AUTO 03010KT 10SM BKN026 BKN050 A3013 RMK MADISHF
CHA,2017-04-01 16:35,-85.2038,35.0353,M,M,M,40.00,7.00,M,30.13,M,10.00,M,BKN,BKN,M,M,2600.00,5000.00,M,M,M,KCHA 011635Z AUTO 04007KT 10SM BKN026 BKN050 A3013 RMK MADISHF
CHA,2017-04-01 16:40,-85.2038,35.0353,M,M,M,20.00,7.00,M,30.13,M,10.00,M,BKN,BKN,M,M,2600.00,5000.00,M,M,M,KCHA 011640Z AUTO 02007KT 10SM BKN026 BKN050 A3013 RMK MADISHF
CHA,2017-04-01 16:45,-85.2038,35.0353,M,M,M,10.00,5.00,M,30.13,M,10.00,M,BKN,BKN,M,M,2600.00,5000.00,M,M,M,KCHA 011645Z AUTO 01005KT 10SM BKN026 BKN050 A3013 RMK MADISHF
CHA,2017-04-01 16:50,-85.2038,35.0353,M,M,M,20.00,7.00,M,30.13,M,10.00,M,SCT,SCT,M,M,3000.00,5000.00,M,M,M,KCHA 011650Z AUTO 02007KT 10SM SCT030 SCT050 A3013 RMK MADISHF
CHA,2017-04-01 16:53,-85.2038,35.0353,60.10,45.00,57.37,10.00,7.00,0.00,30.13,1019.80,10.00,M,SCT,SCT,M,M,3000.00,5000.00,M,M,M,KCHA 011653Z 01007KT 330V030 10SM SCT030 SCT050 16/07 A3013 RMK AO2 SLP198 T01560072
CHA,2017-04-01 16:55,-85.2038,35.0353,M,M,M,30.00,5.00,M,30.13,M,10.00,M,CLR,M,M,M,M,M,M,M,M,KCHA 011655Z AUTO 03005KT 10SM CLR A3013 RMK VRB05KT  MADISHF
CHA,2017-04-01 17:00,-85.2038,35.0353,M,M,M,10.00,9.00,M,30.13,M,10.00,M,CLR,M,M,M,M,M,M,M,M,KCHA 011700Z AUTO 01009KT 10SM CLR A3013 RMK MADISHF
CHA,2017-04-01 17:05,-85.2038,35.0353,M,M,M,20.00,8.00,M,30.13,M,10.00,M,CLR,M,M,M,M,M,M,M,M,KCHA 011705Z AUTO 02008KT 10SM CLR A3013 RMK WND 35V05  MADISHF
CHA,2017-04-01 17:10,-85.2038,35.0353,M,M,M,20.00,9.00,M,30.12,M,10.00,M,CLR,M,M,M,M,M,M,M,M,KCHA 011710Z AUTO 02009KT 10SM CLR A3012 RMK WND 35V05  MADISHF
CHA,2017-04-01 17:15,-85.2038,35.0353,M,M,M,10.00,10.00,M,30.12,M,10.00,M,CLR,M,M,M,M,M,M,M,M,KCHA 011715Z AUTO 01010KT 10SM CLR A3012 RMK MADISHF
CHA,2017-04-01 17:20,-85.2038,35.0353,M,M,M,10.00,8.00,M,30.12,M,10.00,M,CLR,M,M,M,M,M,M,M,M,KCHA 011720Z AUTO 01008KT 10SM CLR A3012 RMK MADISHF
CHA,2017-04-01 17:25,-85.2038,35.0353,M,M,M,40.00,8.00,M,30.12,M,10.00,M,CLR,M,M,M,M,M,M,M,M,KCHA 011725Z AUTO 04008KT 10SM CLR A3012 RMK MADISHF
CHA,2017-04-01 17:30,-85.2038,35.0353,M,M,M,10.00,11.00,M,30.12,M,10.00,M,CLR,M,M,M,M,M,M,M,M,KCHA 011730Z AUTO 01011KT 10SM CLR A3012 RMK MADISHF
CHA,2017-04-01 17:35,-85.2038,35.0353,M,M,M,20.00,9.00,M,30.12,M,10.00,M,CLR,M,M,M,M,M,M,M,M,KCHA 011735Z AUTO 02009KT 10SM CLR A3012 RMK MADISHF
CHA,2017-04-01 17:40,-85.2038,35.0353,M,M,M,30.00,10.00,M,30.12,M,10.00,M,CLR,M,M,M,M,M,M,M,M,KCHA 011740Z AUTO 03010KT 10SM CLR A3012 RMK MADISHF
CHA,2017-04-01 17:45,-85.2038,35.0353,M,M,M,20.00,7.00,M,30.11,M,10.00,M,CLR,M,M,M,M,M,M,M,M,KCHA 011745Z AUTO 02007KT 10SM CLR A3011 RMK MADISHF
CHA,2017-04-01 17:50,-85.2038,35.0353,M,M,M,20.00,10.00,M,30.11,M,10.00,M,FEW,SCT,M,M,3000.00,5000.00,M,M,M,KCHA 011750Z AUTO 02010KT 10SM FEW030 SCT050 A3011 RMK MADISHF
CHA,2017-04-01 17:53,-85.2038,35.0353,63.00,45.00,51.78,20.00,9.00,0.00,30.11,1019.40,10.00,M,FEW,SCT,M,M,3000.00,5000.00,M,M,M,KCHA 011753Z 02009KT 10SM FEW030 SCT050 17/07 A3011 RMK AO2 SLP194 T01720072 10172 20117 58008
CHA,2017-04-01 17:55,-85.2038,35.0353,M,M,M,360.00,7.00,M,30.11,M,10.00,M,CLR,M,M,M,M,M,M,M,M,KCHA 011755Z AUTO 36007KT 10SM CLR A3011 RMK MADISHF
CHA,2017-04-01 18:00,-85.2038,35.0353,M,M,M,50.00,9.00,M,30.11,M,10.00,M,CLR,M,M,M,M,M,M,M,M,KCHA 011800Z AUTO 05009KT 10SM CLR A3011 RMK MADISHF
CHA,2017-04-01 18:05,-85.2038,35.0353,M,M,M,30.00,5.00,M,30.11,M,10.00,M,CLR,M,M,M,M,M,M,M,M,KCHA 011805Z AUTO 03005KT 10SM CLR A3011 RMK MADISHF
CHA,2017-04-01 18:10,-85.2038,35.0353,M,M,M,10.00,10.00,M,30.11,M,10.00,M,CLR,M,M,M,M,M,M,M,M,KCHA 011810Z AUTO 01010KT 10SM CLR A3011 RMK MADISHF
CHA,2017-04-01 18:15,-85.2038,35.0353,M,M,M,350.00,7.00,M,30.11,M,10.00,M,CLR,M,M,M,M,M,M,M,M,KCHA 011815Z AUTO 35007KT 10SM CLR A3011 RMK MADISHF
CHA,2017-04-01 18:20,-85.2038,35.0353,M,M,M,10.00,9.00,M,30.11,M,10.00,M,CLR,M,M,M,M,M,M,M,M,KCHA 011820Z AUTO 01009KT 10SM CLR A3011 RMK MADISHF
CHA,2017-04-01 18:25,-85.2038,35.0353,M,M,M,340.00,8.00,M,30.11,M,10.00,M,CLR,M,M,M,M,M,M,M,M,KCHA 011825Z AUTO 34008KT 10SM CLR A3011 RMK MADISHF
CHA,2017-04-01 18:30,-85.2038,35.0353,M,M,M,20.00,5.00,M,30.11,M,10.00,M,CLR,M,M,M,M,M,M,M,M,KCHA 011830Z AUTO 02005KT 10SM CLR A3011 RMK VRB05KT  MADISHF
CHA,2017-04-01 18:35,-85.2038,35.0353,M,M,M,30.00,8.00,M,30.11,M,10.00,M,CLR,M,M,M,M,M,M,M,M,KCHA 011835Z AUTO 03008KT 10SM CLR A3011 RMK MADISHF
CHA,2017-04-01 18:40,-85.2038,35.0353,M,M,M,60.00,3.00,M,30.11,M,10.00,M,CLR,M,M,M,M,M,M,M,M,KCHA 011840Z AUTO 06003KT 10SM CLR A3011 RMK VRB03KT  MADISHF
CHA,2017-04-01 18:45,-85.2038,35.0353,M,M,M,M,M,M,30.11,M,10.00,M,CLR,M,M,M,M,M,M,M,M,KCHA 011845Z AUTO /////KT 10SM CLR A3011 RMK MADISHF
CHA,2017-04-01 18:50,-85.2038,35.0353,M,M,M,0.00,0.00,M,30.11,M,10.00,M,CLR,M,M,M,M,M,M,M,M,KCHA 011850Z AUTO 00000KT 10SM CLR A3011 RMK MADISHF
CHA,2017-04-01 18:53,-85.2038,35.0353,64.90,45.00,48.44,0.00,0.00,0.00,30.11,1019.10,10.00,M,FEW,M,M,M,5000.00,M,M,M,M,KCHA 011853Z 00000KT 10SM FEW050 18/07 A3011 RMK AO2 SLP191 T01830072
CHA,2017-04-01 18:55,-85.2038,35.0353,M,M,M,30.00,5.00,M,30.10,M,10.00,M,CLR,M,M,M,M,M,M,M,M,KCHA 011855Z AUTO 03005KT 10SM CLR A3010 RMK MADISHF
CHA,2017-04-01 19:00,-85.2038,35.0353,M,M,M,20.00,9.00,M,30.10,M,10.00,M,CLR,M,M,M,M,M,M,M,M,KCHA 011900Z AUTO 02009KT 10SM CLR A3010 RMK MADISHF
CHA,2017-04-01 19:05,-85.2038,35.0353,M,M,M,10.00,4.00,M,30.10,M,10.00,M,CLR,M,M,M,M,M,M,M,M,KCHA 011905Z AUTO 01004KT 10SM CLR A3010 RMK VRB04KT  MADISHF
CHA,2017-04-01 19:10,-85.2038,35.0353,M,M,M,40.00,6.00,M,30.09,M,10.00,M,CLR,M,M,M,M,M,M,M,M,KCHA 011910Z AUTO 04006KT 10SM CLR A3009 RMK MADISHF
CHA,2017-04-01 19:15,-85.2038,35.0353,M,M,M,10.00,5.00,M,30.09,M,10.00,M,CLR,M,M,M,M,M,M,M,M,KCHA 011915Z AUTO 01005KT 10SM CLR A3009 RMK MADISHF
CHA,2017-04-01 19:20,-85.2038,35.0353,M,M,M,30.00,4.00,M,30.09,M,10.00,M,CLR,M,M,M,M,M,M,M,M,KCHA 011920Z AUTO 03004KT 10SM CLR A3009 RMK MADISHF
CHA,2017-04-01 19:25,-85.2038,35.0353,M,M,M,10.00,8.00,M,30.09,M,10.00,M,CLR,M,M,M,M,M,M,M,M,KCHA 011925Z AUTO 01008KT 10SM CLR A3009 RMK MADISHF
CHA,2017-04-01 19:30,-85.2038,35.0353,M,M,M,350.00,6.00,M,30.09,M,10.00,M,CLR,M,M,M,M,M,M,M,M,KCHA 011930Z AUTO 35006KT 10SM CLR A3009 RMK MADISHF
CHA,2017-04-01 19:35,-85.2038,35.0353,M,M,M,350.00,5.00,M,30.08,M,10.00,M,CLR,M,M,M,M,M,M,M,M,KCHA 011935Z AUTO 35005KT 10SM CLR A3008 RMK VRB05KT  MADISHF
CHA,2017-04-01 19:40,-85.2038,35.0353,M,M,M,340.00,7.00,M,30.08,M,10.00,M,CLR,M,M,M,M,M,M,M,M,KCHA 011940Z AUTO 34007KT 10SM CLR A3008 RMK MADISHF
CHA,2017-04-01 19:45,-85.2038,35.0353,M,M,M,360.00,6.00,M,30.08,M,10.00,M,CLR,M,M,M,M,M,M,M,M,KCHA 011945Z AUTO 36006KT 10SM CLR A3008 RMK VRB06KT  MADISHF
CHA,2017-04-01 19:50,-85.2038,35.0353,M,M,M,350.00,7.00,M,30.08,M,10.00,M,FEW,M,M,M,5000.00,M,M,M,M,KCHA 011950Z AUTO 35007KT 10SM FEW050 A3008 RMK MADISHF
CHA,2017-04-01 19:53,-85.2038,35.0353,68.00,45.00,43.51,M,3.00,0.00,30.08,1018.30,10.00,M,FEW,M,M,M,5000.00,M,M,M,M,KCHA 011953Z VRB03KT 10SM FEW050 20/07 A3008 RMK AO2 SLP183 T02000072
CHA,2017-04-01 19:55,-85.2038,35.0353,M,M,M,330.00,4.00,M,30.08,M,10.00,M,CLR,M,M,M,M,M,M,M,M,KCHA 011955Z AUTO 33004KT 10SM CLR A3008 RMK MADISHF
CHA,2017-04-01 20:00,-85.2038,35.0353,M,M,M,M,M,M,30.08,M,10.00,M,CLR,M,M,M,M,M,M,M,M,KCHA 012000Z AUTO /////KT 10SM CLR A3008 RMK MADISHF
CHA,2017-04-01 20:05,-85.2038,35.0353,M,M,M,360.00,6.00,M,30.08,M,10.00,M,CLR,M,M,M,M,M,M,M,M,KCHA 012005Z AUTO 36006KT 10SM CLR A3008 RMK VRB06KT  MADISHF
CHA,2017-04-01 20:10,-85.2038,35.0353,M,M,M,0.00,0.00,M,30.08,M,10.00,M,CLR,M,M,M,M,M,M,M,M,KCHA 012010Z AUTO 00000KT 10SM CLR A3008 RMK MADISHF
CHA,2017-04-01 20:15,-85.2038,35.0353,M,M,M,30.00,3.00,M,30.08,M,10.00,M,CLR,M,M,M,M,M,M,M,M,KCHA 012015Z AUTO 03003KT 10SM CLR A3008 RMK MADISHF
CHA,2017-04-01 20:20,-85.2038,35.0353,M,M,M,360.00,3.00,M,30.08,M,10.00,M,CLR,M,M,M,M,M,M,M,M,KCHA 012020Z AUTO 36003KT 10SM CLR A3008 RMK MADISHF
CHA,2017-04-01 20:25,-85.2038,35.0353,M,M,M,0.00,0.00,M,30.08,M,10.00,M,CLR,M,M,M,M,M,M,M,M,KCHA 012025Z AUTO 00000KT 10SM CLR A3008 RMK MADISHF
CHA,2017-04-01 20:30,-85.2038,35.0353,M,M,M,350.00,5.00,M,30.08,M,10.00,M,CLR,M,M,M,M,M,M,M,M,KCHA 012030Z AUTO 35005KT 10SM CLR A3008 RMK MADISHF
CHA,2017-04-01 20:35,-85.2038,35.0353,M,M,M,310.00,5.00,M,30.08,M,10.00,M,CLR,M,M,M,M,M,M,M,M,KCHA 012035Z AUTO 31005KT 10SM CLR A3008 RMK MADISHF
CHA,2017-04-01 20:40,-85.2038,35.0353,M,M,M,10.00,4.00,M,30.07,M,10.00,M,CLR,M,M,M,M,M,M,M,M,KCHA 012040Z AUTO 01004KT 10SM CLR A3007 RMK VRB04KT  MADISHF
CHA,2017-04-01 20:45,-85.2038,35.0353,M,M,M,360.00,6.00,M,30.07,M,10.00,M,CLR,M,M,M,M,M,M,M,M,KCHA 012045Z AUTO 36006KT 10SM CLR A3007 RMK MADISHF
CHA,2017-04-01 20:50,-85.2038,35.0353,M,M,M,10.00,4.00,M,30.07,M,10.00,M,CLR,M,M,M,M,M,M,M,M,KCHA 012050Z AUTO 01004KT 10SM CLR A3007 RMK VRB04KT  MADISHF
CHA,2017-04-01 20:53,-85.2038,35.0353,70.00,44.10,39.26,320.00,3.00,0.00,30.07,1018.00,10.00,M,FEW,M,M,M,6000.00,M,M,M,M,KCHA 012053Z 32003KT 10SM FEW060 21/07 A3007 RMK AO2 SLP180 T02110067 58014
CHA,2017-04-01 20:55,-85.2038,35.0353,M,M,M,0.00,0.00,M,30.07,M,10.00,M,CLR,M,M,M,M,M,M,M,M,KCHA 012055Z AUTO 00000KT 10SM CLR A3007 RMK MADISHF
CHA,2017-04-01 21:00,-85.2038,35.0353,M,M,M,M,M,M,30.07,M,10.00,M,CLR,M,M,M,M,M,M,M,M,KCHA 012100Z AUTO /////KT 10SM CLR A3007 RMK MADISHF
CHA,2017-04-01 21:05,-85.2038,35.0353,M,M,M,10.00,9.00,M,30.07,M,10.00,M,CLR,M,M,M,M,M,M,M,M,KCHA 012105Z AUTO 01009KT 10SM CLR A3007 RMK MADISHF
CHA,2017-04-01 21:10,-85.2038,35.0353,M,M,M,10.00,7.00,M,30.07,M,10.00,M,CLR,M,M,M,M,M,M,M,M,KCHA 012110Z AUTO 01007KT 10SM CLR A3007 RMK MADISHF
CHA,2017-04-01 21:15,-85.2038,35.0353,M,M,M,0.00,0.00,M,30.08,M,10.00,M,CLR,M,M,M,M,M,M,M,M,KCHA 012115Z AUTO 00000KT 10SM CLR A3008 RMK MADISHF
CHA,2017-04-01 21:20,-85.2038,35.0353,M,M,M,350.00,5.00,M,30.07,M,10.00,M,CLR,M,M,M,M,M,M,M,M,KCHA 012120Z AUTO 35005KT 10SM CLR A3007 RMK MADISHF
CHA,2017-04-01 21:25,-85.2038,35.0353,M,M,M,340.00,5.00,M,30.07,M,10.00,M,CLR,M,M,M,M,M,M,M,M,KCHA 012125Z AUTO 34005KT 10SM CLR A3007 RMK MADISHF
CHA,2017-04-01 21:30,-85.2038,35.0353,M,M,M,360.00,3.00,M,30.07,M,10.00,M,CLR,M,M,M,M,M,M,M,M,KCHA 012130Z AUTO 36003KT 10SM CLR A3007 RMK VRB03KT  MADISHF
CHA,2017-04-01 21:35,-85.2038,35.0353,M,M,M,20.00,7.00,M,30.07,M,10.00,M,CLR,M,M,M,M,M,M,M,M,KCHA 012135Z AUTO 02007KT 10SM CLR A3007 RMK MADISHF
CHA,2017-04-01 21:40,-85.2038,35.0353,M,M,M,350.00,8.00,M,30.07,M,10.00,M,CLR,M,M,M,M,M,M,M,M,KCHA 012140Z AUTO 35008KT 10SM CLR A3007 RMK MADISHF
CHA,2017-04-01 21:45,-85.2038,35.0353,M,M,M,340.00,5.00,M,30.07,M,10.00,M,CLR,M,M,M,M,M,M,M,M,KCHA 012145Z AUTO 34005KT 10SM CLR A3007 RMK MADISHF
CHA,2017-04-01 21:50,-85.2038,35.0353,M,M,M,330.00,4.00,M,30.07,M,10.00,M,FEW,M,M,M,6000.00,M,M,M,M,KCHA 012150Z AUTO 33004KT 10SM FEW060 A3007 RMK MADISHF
CHA,2017-04-01 21:53,-85.2038,35.0353,71.10,44.10,37.81,30.00,7.00,0.00,30.07,1017.90,10.00,M,FEW,FEW,M,M,6000.00,20000.00,M,M,M,KCHA 012153Z 03007KT 360V060 10SM FEW060 FEW200 22/07 A3007 RMK AO2 SLP179 T02170067
CHA,2017-04-01 21:55,-85.2038,35.0353,M,M,M,30.00,7.00,M,30.07,M,10.00,M,FEW,M,M,M,6000.00,M,M,M,M,KCHA 012155Z AUTO 03007KT 10SM FEW060 A3007 RMK MADISHF
CHA,2017-04-01 22:00,-85.2038,35.0353,M,M,M,40.00,6.00,M,30.07,M,10.00,M,FEW,M,M,M,6000.00,M,M,M,M,KCHA 012200Z AUTO 04006KT 10SM FEW060 A3007 RMK MADISHF
CHA,2017-04-01 22:05,-85.2038,35.0353,M,M,M,360.00,7.00,M,30.08,M,10.00,M,FEW,M,M,M,6000.00,M,M,M,M,KCHA 012205Z AUTO 36007KT 10SM FEW060 A3008 RMK MADISHF
CHA,2017-04-01 22:10,-85.2038,35.0353,M,M,M,330.00,5.00,M,30.08,M,10.00,M,FEW,M,M,M,6000.00,M,M,M,M,KCHA 012210Z AUTO 33005KT 10SM FEW060 A3008 RMK MADISHF
CHA,2017-04-01 22:15,-85.2038,35.0353,M,M,M,350.00,7.00,M,30.08,M,10.00,M,FEW,M,M,M,6000.00,M,M,M,M,KCHA 012215Z AUTO 35007KT 10SM FEW060 A3008 RMK MADISHF
CHA,2017-04-01 22:20,-85.2038,35.0353,M,M,M,350.00,6.00,M,30.08,M,10.00,M,FEW,M,M,M,6000.00,M,M,M,M,KCHA 012220Z AUTO 35006KT 10SM FEW060 A3008 RMK MADISHF
CHA,2017-04-01 22:25,-85.2038,35.0353,M,M,M,20.00,8.00,M,30.08,M,10.00,M,FEW,M,M,M,6000.00,M,M,M,M,KCHA 012225Z AUTO 02008KT 10SM FEW060 A3008 RMK MADISHF
CHA,2017-04-01 22:30,-85.2038,35.0353,M,M,M,20.00,8.00,M,30.08,M,10.00,M,FEW,M,M,M,6000.00,M,M,M,M,KCHA 012230Z AUTO 02008KT 10SM FEW060 A3008 RMK MADISHF
CHA,2017-04-01 22:35,-85.2038,35.0353,M,M,M,350.00,5.00,M,30.08,M,10.00,M,FEW,M,M,M,6000.00,M,M,M,M,KCHA 012235Z AUTO 35005KT 10SM FEW060 A3008 RMK MADISHF
CHA,2017-04-01 22:40,-85.2038,35.0353,M,M,M,360.00,5.00,M,30.08,M,10.00,M,FEW,M,M,M,6000.00,M,M,M,M,KCHA 012240Z AUTO 36005KT 10SM FEW060 A3008 RMK MADISHF
CHA,2017-04-01 22:45,-85.2038,35.0353,M,M,M,360.00,5.00,M,30.08,M,10.00,M,FEW,M,M,M,6000.00,M,M,M,M,KCHA 012245Z AUTO 36005KT 10SM FEW060 A3008 RMK MADISHF
CHA,2017-04-01 22:50,-85.2038,35.0353,M,M,M,350.00,7.00,M,30.08,M,10.00,M,M,M,M,M,M,M,M,M,M,KCHA 012250Z AUTO 35007KT 10SM A3008 RMK MADISHF
CHA,2017-04-01 22:53,-85.2038,35.0353,70.00,43.00,37.64,350.00,5.00,0.00,30.08,1018.30,10.00,M,FEW,M,M,M,20000.00,M,M,M,M,KCHA 012253Z 35005KT 10SM FEW200 21/06 A3008 RMK AO2 SLP183 T02110061
CHA,2017-04-01 22:55,-85.2038,35.0353,M,M,M,350.00,5.00,M,30.08,M,10.00,M,CLR,M,M,M,M,M,M,M,M,KCHA 012255Z AUTO 35005KT 10SM CLR A3008 RMK MADISHF
CHA,2017-04-01 23:00,-85.2038,35.0353,M,M,M,360.00,7.00,M,30.08,M,10.00,M,CLR,M,M,M,M,M,M,M,M,KCHA 012300Z AUTO 36007KT 10SM CLR A3008 RMK MADISHF
CHA,2017-04-01 23:05,-85.2038,35.0353,M,M,M,10.00,9.00,M,30.08,M,10.00,M,CLR,M,M,M,M,M,M,M,M,KCHA 012305Z AUTO 01009KT 10SM CLR A3008 RMK MADISHF
CHA,2017-04-01 23:10,-85.2038,35.0353,M,M,M,30.00,7.00,M,30.08,M,10.00,M,CLR,M,M,M,M,M,M,M,M,KCHA 012310Z AUTO 03007KT 10SM CLR A3008 RMK MADISHF
CHA,2017-04-01 23:15,-85.2038,35.0353,M,M,M,10.00,9.00,M,30.08,M,10.00,M,CLR,M,M,M,M,M,M,M,M,KCHA 012315Z AUTO 01009KT 10SM CLR A3008 RMK MADISHF
CHA,2017-04-01 23:20,-85.2038,35.0353,M,M,M,40.00,10.00,M,30.08,M,10.00,M,CLR,M,M,M,M,M,M,M,M,KCHA 012320Z AUTO 04010KT 10SM CLR A3008 RMK MADISHF
CHA,2017-04-01 23:25,-85.2038,35.0353,M,M,M,30.00,8.00,M,30.08,M,10.00,M,CLR,M,M,M,M,M,M,M,M,KCHA 012325Z AUTO 03008KT 10SM CLR A3008 RMK MADISHF
CHA,2017-04-01 23:30,-85.2038,35.0353,M,M,M,20.00,9.00,M,30.08,M,10.00,M,CLR,M,M,M,M,M,M,M,M,KCHA 012330Z AUTO 02009KT 10SM CLR A3008 RMK MADISHF
CHA,2017-04-01 23:35,-85.2038,35.0353,M,M,M,30.00,7.00,M,30.08,M,10.00,M,CLR,M,M,M,M,M,M,M,M,KCHA 012335Z AUTO 03007KT 10SM CLR A3008 RMK MADISHF
CHA,2017-04-01 23:40,-85.2038,35.0353,M,M,M,30.00,7.00,M,30.08,M,10.00,M,CLR,M,M,M,M,M,M,M,M,KCHA 012340Z AUTO 03007KT 10SM CLR A3008 RMK MADISHF
CHA,2017-04-01 23:45,-85.2038,35.0353,M,M,M,30.00,9.00,M,30.09,M,10.00,M,CLR,M,M,M,M,M,M,M,M,KCHA 012345Z AUTO 03009KT 10SM CLR A3009 RMK MADISHF
CHA,2017-04-01 23:50,-85.2038,35.0353,M,M,M,20.00,9.00,M,30.09,M,10.00,M,M,M,M,M,M,M,M,M,M,KCHA 012350Z AUTO 02009KT 10SM A3009 RMK MADISHF
CHA,2017-04-01 23:53,-85.2038,35.0353,68.00,43.00,40.31,30.00,8.00,0.00,30.09,1018.50,10.00,M,FEW,M,M,M,20000.00,M,M,M,M,KCHA 012353Z 03008KT 10SM FEW200 20/06 A3009 RMK AO2 SLP185 T02000061 10217 20167 53005
CHA,2017-04-01 23:55,-85.2038,35.0353,M,M,M,20.00,8.00,M,30.09,M,10.00,M,CLR,M,M,M,M,M,M,M,M,KCHA 012355Z AUTO 02008KT 10SM CLR A3009 RMK MADISHF
