#DEBUG: Format Typ    -> comma
#DEBUG: Time Period   -> 2017-04-01 00:00:00+00:00 2017-04-02 00:00:00+00:00
#DEBUG: Time Zone     -> Etc/UTC
#DEBUG: Data Contact   -> daryl herzmann akrherz@iastate.edu 515-294-5978
#DEBUG: Entries Found -> -1
station,valid,lon,lat,tmpf, dwpf, relh, drct, sknt, p01i, alti, mslp, vsby, gust, skyc1, skyc2, skyc3, skyc4, skyl1, skyl2, skyl3, skyl4, presentwx, metar
CID,2017-04-01 00:00,-91.7246,41.8829,M,M,M,360.00,6.00,M,30.03,M,10.00,M,OVC,M,M,M,2200.00,M,M,M,M,KCID 010000Z AUTO 36006KT 10SM OVC022 A3003 RMK MADISHF
CID,2017-04-01 00:05,-91.7246,41.8829,M,M,M,10.00,6.00,M,30.03,M,10.00,M,OVC,M,M,M,2200.00,M,M,M,M,KCID 010005Z AUTO 01006KT 10SM OVC022 A3003 RMK MADISHF
CID,2017-04-01 00:10,-91.7246,41.8829,M,M,M,20.00,6.00,M,30.03,M,10.00,M,OVC,M,M,M,2200.00,M,M,M,M,KCID 010010Z AUTO 02006KT 10SM OVC022 A3003 RMK MADISHF
CID,2017-04-01 00:15,-91.7246,41.8829,M,M,M,10.00,6.00,M,30.03,M,10.00,M,OVC,M,M,M,2200.00,M,M,M,M,KCID 010015Z AUTO 01006KT 10SM OVC022 A3003 RMK MADISHF
CID,2017-04-01 00:20,-91.7246,41.8829,M,M,M,20.00,6.00,M,30.03,M,10.00,M,OVC,M,M,M,2200.00,M,M,M,M,KCID 010020Z AUTO 02006KT 10SM OVC022 A3003 RMK MADISHF
CID,2017-04-01 00:25,-91.7246,41.8829,M,M,M,20.00,5.00,M,30.04,M,10.00,M,OVC,M,M,M,2200.00,M,M,M,M,KCID 010025Z AUTO 02005KT 10SM OVC022 A3004 RMK MADISHF
CID,2017-04-01 00:30,-91.7246,41.8829,M,M,M,10.00,7.00,M,30.04,M,10.00,M,OVC,M,M,M,2200.00,M,M,M,M,KCID 010030Z AUTO 01007KT 10SM OVC022 A3004 RMK MADISHF
CID,2017-04-01 00:35,-91.7246,41.8829,M,M,M,10.00,7.00,M,30.04,M,10.00,M,OVC,M,M,M,2200.00,M,M,M,M,KCID 010035Z AUTO 01007KT 10SM OVC022 A3004 RMK MADISHF
CID,2017-04-01 00:40,-91.7246,41.8829,M,M,M,360.00,8.00,M,30.04,M,10.00,M,OVC,M,M,M,2300.00,M,M,M,M,KCID 010040Z AUTO 36008KT 10SM OVC023 A3004 RMK MADISHF
CID,2017-04-01 00:45,-91.7246,41.8829,M,M,M,360.00,7.00,M,30.04,M,10.00,M,OVC,M,M,M,2300.00,M,M,M,M,KCID 010045Z AUTO 36007KT 10SM OVC023 A3004 RMK MADISHF
CID,2017-04-01 00:50,-91.7246,41.8829,M,M,M,20.00,6.00,M,30.04,M,10.00,M,OVC,M,M,M,2300.00,M,M,M,M,KCID 010050Z AUTO 02006KT 10SM OVC023 A3004 RMK MADISHF
CID,2017-04-01 00:52,-91.7246,41.8829,42.10,37.00,81.98,10.00,5.00,0.00,30.04,1018.00,10.00,M,OVC,M,M,M,2300.00,M,M,M,M,KCID 010052Z 01005KT 10SM OVC023 06/03 A3004 RMK AO2 SLP180 T00560028
CID,2017-04-01 00:55,-91.7246,41.8829,M,M,M,360.00,5.00,M,30.05,M,10.00,M,OVC,M,M,M,2300.00,M,M,M,M,KCID 010055Z AUTO 36005KT 10SM OVC023 A3005 RMK MADISHF
CID,2017-04-01 01:00,-91.7246,41.8829,M,M,M,20.00,8.00,M,30.05,M,10.00,M,OVC,M,M,M,2400.00,M,M,M,M,KCID 010100Z AUTO 02008KT 10SM OVC024 A3005 RMK MADISHF
CID,2017-04-01 01:05,-91.7246,41.8829,M,M,M,60.00,5.00,M,30.04,M,10.00,M,OVC,M,M,M,2400.00,M,M,M,M,KCID 010105Z AUTO 06005KT 10SM OVC024 A3004 RMK MADISHF
CID,2017-04-01 01:10,-91.7246,41.8829,M,M,M,50.00,6.00,M,30.04,M,10.00,M,OVC,M,M,M,2400.00,M,M,M,M,KCID 010110Z AUTO 05006KT 10SM OVC024 A3004 RMK MADISHF
CID,2017-04-01 01:15,-91.7246,41.8829,M,M,M,60.00,6.00,M,30.04,M,10.00,M,OVC,M,M,M,2600.00,M,M,M,M,KCID 010115Z AUTO 06006KT 10SM OVC026 A3004 RMK MADISHF
CID,2017-04-01 01:20,-91.7246,41.8829,M,M,M,60.00,6.00,M,30.04,M,10.00,M,BKN,M,M,M,2600.00,M,M,M,M,KCID 010120Z AUTO 06006KT 10SM BKN026 A3004 RMK MADISHF
CID,2017-04-01 01:25,-91.7246,41.8829,M,M,M,60.00,7.00,M,30.04,M,10.00,M,FEW,SCT,M,M,2300.00,2800.00,M,M,M,KCID 010125Z AUTO 06007KT 10SM FEW023 SCT028 A3004 RMK MADISHF
CID,2017-04-01 01:30,-91.7246,41.8829,M,M,M,70.00,6.00,M,30.04,M,10.00,M,BKN,BKN,M,M,2300.00,2800.00,M,M,M,KCID 010130Z AUTO 07006KT 10SM BKN023 BKN028 A3004 RMK MADISHF
CID,2017-04-01 01:35,-91.7246,41.8829,M,M,M,70.00,5.00,M,30.05,M,10.00,M,BKN,BKN,M,M,2300.00,2800.00,M,M,M,KCID 010135Z AUTO 07005KT 10SM BKN023 BKN028 A3005 RMK MADISHF
CID,2017-04-01 01:40,-91.7246,41.8829,M,M,M,70.00,5.00,M,30.05,M,10.00,M,BKN,BKN,M,M,2300.00,2800.00,M,M,M,KCID 010140Z AUTO 07005KT 10SM BKN023 BKN028 A3005 RMK MADISHF
CID,2017-04-01 01:45,-91.7246,41.8829,M,M,M,90.00,4.00,M,30.05,M,10.00,M,BKN,BKN,M,M,2300.00,2800.00,M,M,M,KCID 010145Z AUTO 09004KT 10SM BKN023 BKN028 A3005 RMK MADISHF
CID,2017-04-01 01:50,-91.7246,41.8829,M,M,M,90.00,3.00,M,30.05,M,10.00,M,CLR,M,M,M,M,M,M,M,M,KCID 010150Z AUTO 09003KT 10SM CLR A3005 RMK MADISHF
CID,2017-04-01 01:52,-91.7246,41.8829,39.00,35.10,85.76,100.00,3.00,0.00,30.05,1018.30,10.00,M,CLR,M,M,M,M,M,M,M,M,KCID 010152Z 10003KT 10SM CLR 04/02 A3005 RMK AO2 SLP183 T00390017
CID,2017-04-01 01:55,-91.7246,41.8829,M,M,M,110.00,3.00,M,30.05,M,10.00,M,CLR,M,M,M,M,M,M,M,M,KCID 010155Z AUTO 11003KT 10SM CLR A3005 RMK MADISHF
CID,2017-04-01 02:00,-91.7246,41.8829,M,M,M,100.00,4.00,M,30.05,M,10.00,M,CLR,M,M,M,M,M,M,M,M,KCID 010200Z AUTO 10004KT 10SM CLR A3005 RMK MADISHF
CID,2017-04-01 02:05,-91.7246,41.8829,M,M,M,0.00,0.00,M,30.06,M,10.00,M,CLR,M,M,M,M,M,M,M,M,KCID 010205Z AUTO 00000KT 10SM CLR A3006 RMK MADISHF
CID,2017-04-01 02:10,-91.7246,41.8829,M,M,M,0.00,0.00,M,30.07,M,10.00,M,CLR,M,M,M,M,M,M,M,M,KCID 010210Z AUTO 00000KT 10SM CLR A3007 RMK MADISHF
CID,2017-04-01 02:15,-91.7246,41.8829,M,M,M,0.00,0.00,M,30.07,M,10.00,M,CLR,M,M,M,M,M,M,M,M,KCID 010215Z AUTO 00000KT 10SM CLR A3007 RMK MADISHF
CID,2017-04-01 02:20,-91.7246,41.8829,M,M,M,0.00,0.00,M,30.07,M,10.00,M,CLR,M,M,M,M,M,M,M,M,KCID 010220Z AUTO 00000KT 10SM CLR A3007 RMK MADISHF
CID,2017-04-01 02:25,-91.7246,41.8829,M,M,M,190.00,3.00,M,30.08,M,10.00,M,CLR,M,M,M,M,M,M,M,M,KCID 010225Z AUTO 19003KT 10SM CLR A3008 RMK MADISHF
CID,2017-04-01 02:30,-91.7246,41.8829,M,M,M,200.00,3.00,M,30.08,M,10.00,M,CLR,M,M,M,M,M,M,M,M,KCID 010230Z AUTO 20003KT 10SM CLR A3008 RMK MADISHF
CID,2017-04-01 02:35,-91.7246,41.8829,M,M,M,210.00,4.00,M,30.09,M,10.00,M,CLR,M,M,M,M,M,M,M,M,KCID 010235Z AUTO 21004KT 10SM CLR A3009 RMK MADISHF
CID,2017-04-01 02:40,-91.7246,41.8829,M,M,M,220.00,4.00,M,30.09,M,10.00,M,CLR,M,M,M,M,M,M,M,M,KCID 010240Z AUTO 22004KT 10SM CLR A3009 RMK MADISHF
CID,2017-04-01 02:45,-91.7246,41.8829,M,M,M,220.00,4.00,M,30.09,M,10.00,M,CLR,M,M,M,M,M,M,M,M,KCID 010245Z AUTO 22004KT 10SM CLR A3009 RMK MADISHF
CID,2017-04-01 02:50,-91.7246,41.8829,M,M,M,250.00,4.00,M,30.09,M,10.00,M,CLR,M,M,M,M,M,M,M,M,KCID 010250Z AUTO 25004KT 10SM CLR A3009 RMK MADISHF
CID,2017-04-01 02:52,-91.7246,41.8829,35.10,34.00,95.71,260.00,4.00,0.00,30.09,1019.80,10.00,M,CLR,M,M,M,M,M,M,M,M,KCID 010252Z 26004KT 10SM CLR 02/01 A3009 RMK AO2 SLP198 T00170011 53024
CID,2017-04-01 02:55,-91.7246,41.8829,M,M,M,250.00,4.00,M,30.09,M,10.00,M,CLR,M,M,M,M,M,M,M,M,KCID 010255Z AUTO 25004KT 10SM CLR A3009 RMK MADISHF
CID,2017-04-01 03:00,-91.7246,41.8829,M,M,M,250.00,4.00,M,30.09,M,10.00,M,CLR,M,M,M,M,M,M,M,M,KCID 010300Z AUTO 25004KT 10SM CLR A3009 RMK MADISHF
CID,2017-04-01 03:05,-91.7246,41.8829,M,M,M,250.00,4.00,M,30.09,M,10.00,M,CLR,M,M,M,M,M,M,M,M,KCID 010305Z AUTO 25004KT 10SM CLR A3009 RMK MADISHF
CID,2017-04-01 03:10,-91.7246,41.8829,M,M,M,260.00,5.00,M,30.09,M,10.00,M,CLR,M,M,M,M,M,M,M,M,KCID 010310Z AUTO 26005KT 10SM CLR A3009 RMK MADISHF
CID,2017-04-01 03:15,-91.7246,41.8829,M,M,M,280.00,5.00,M,30.09,M,10.00,M,CLR,M,M,M,M,M,M,M,M,KCID 010315Z AUTO 28005KT 10SM CLR A3009 RMK MADISHF
CID,2017-04-01 03:20,-91.7246,41.8829,M,M,M,280.00,4.00,M,30.09,M,10.00,M,CLR,M,M,M,M,M,M,M,M,KCID 010320Z AUTO 28004KT 10SM CLR A3009 RMK MADISHF
CID,2017-04-01 03:25,-91.7246,41.8829,M,M,M,300.00,5.00,M,30.09,M,10.00,M,CLR,M,M,M,M,M,M,M,M,KCID 010325Z AUTO 30005KT 10SM CLR A3009 RMK MADISHF
CID,2017-04-01 03:30,-91.7246,41.8829,M,M,M,300.00,6.00,M,30.10,M,10.00,M,CLR,M,M,M,M,M,M,M,M,KCID 010330Z AUTO 30006KT 10SM CLR A3010 RMK MADISHF
CID,2017-04-01 03:35,-91.7246,41.8829,M,M,M,290.00,6.00,M,30.10,M,10.00,M,CLR,M,M,M,M,M,M,M,M,KCID 010335Z AUTO 29006KT 10SM CLR A3010 RMK MADISHF
CID,2017-04-01 03:40,-91.7246,41.8829,M,M,M,280.00,6.00,M,30.10,M,10.00,M,CLR,M,M,M,M,M,M,M,M,KCID 010340Z AUTO 28006KT 10SM CLR A3010 RMK MADISHF
CID,2017-04-01 03:45,-91.7246,41.8829,M,M,M,290.00,6.00,M,30.10,M,10.00,M,CLR,M,M,M,M,M,M,M,M,KCID 010345Z AUTO 29006KT 10SM CLR A3010 RMK MADISHF
CID,2017-04-01 03:50,-91.7246,41.8829,M,M,M,290.00,6.00,M,30.10,M,10.00,M,CLR,M,M,M,M,M,M,M,M,KCID 010350Z AUTO 29006KT 10SM CLR A3010 RMK MADISHF
CID,2017-04-01 03:52,-91.7246,41.8829,35.10,34.00,95.71,290.00,6.00,0.00,30.10,1020.00,10.00,M,CLR,M,M,M,M,M,M,M,M,KCID 010352Z 29006KT 10SM CLR 02/01 A3010 RMK AO2 SLP200 T00170011
CID,2017-04-01 03:55,-91.7246,41.8829,M,M,M,280.00,6.00,M,30.10,M,10.00,M,CLR,M,M,M,M,M,M,M,M,KCID 010355Z AUTO 28006KT 10SM CLR A3010 RMK MADISHF
CID,2017-04-01 04:00,-91.7246,41.8829,M,M,M,280.00,6.00,M,30.10,M,10.00,M,CLR,M,M,M,M,M,M,M,M,KCID 010400Z AUTO 28006KT 10SM CLR A3010 RMK MADISHF
CID,2017-04-01 04:05,-91.7246,41.8829,M,M,M,290.00,6.00,M,30.10,M,10.00,M,CLR,M,M,M,M,M,M,M,M,KCID 010405Z AUTO 29006KT 10SM CLR A3010 RMK MADISHF
CID,2017-04-01 04:10,-91.7246,41.8829,M,M,M,290.00,6.00,M,30.10,M,10.00,M,CLR,M,M,M,M,M,M,M,M,KCID 010410Z AUTO 29006KT 10SM CLR A3010 RMK MADISHF
CID,2017-04-01 04:15,-91.7246,41.8829,M,M,M,300.00,5.00,M,30.10,M,10.00,M,CLR,M,M,M,M,M,M,M,M,KCID 010415Z AUTO 30005KT 10SM CLR A3010 RMK MADISHF
CID,2017-04-01 04:20,-91.7246,41.8829,M,M,M,310.00,5.00,M,30.10,M,10.00,M,CLR,M,M,M,M,M,M,M,M,KCID 010420Z AUTO 31005KT 10SM CLR A3010 RMK MADISHF
CID,2017-04-01 04:25,-91.7246,41.8829,M,M,M,320.00,5.00,M,30.10,M,10.00,M,CLR,M,M,M,M,M,M,M,M,KCID 010425Z AUTO 32005KT 10SM CLR A3010 RMK MADISHF
CID,2017-04-01 04:30,-91.7246,41.8829,M,M,M,320.00,6.00,M,30.10,M,10.00,M,CLR,M,M,M,M,M,M,M,M,KCID 010430Z AUTO 32006KT 10SM CLR A3010 RMK MADISHF
CID,2017-04-01 04:35,-91.7246,41.8829,M,M,M,320.00,6.00,M,30.11,M,10.00,M,CLR,M,M,M,M,M,M,M,M,KCID 010435Z AUTO 32006KT 10SM CLR A3011 RMK MADISHF
CID,2017-04-01 04:40,-91.7246,41.8829,M,M,M,310.00,6.00,M,30.11,M,10.00,M,CLR,M,M,M,M,M,M,M,M,KCID 010440Z AUTO 31006KT 10SM CLR A3011 RMK MADISHF
CID,2017-04-01 04:45,-91.7246,41.8829,M,M,M,320.00,6.00,M,30.11,M,10.00,M,CLR,M,M,M,M,M,M,M,M,KCID 010445Z AUTO 32006KT 10SM CLR A3011 RMK MADISHF
CID,2017-04-01 04:50,-91.7246,41.8829,M,M,M,300.00,6.00,M,30.12,M,10.00,M,CLR,M,M,M,M,M,M,M,M,KCID 010450Z AUTO 30006KT 10SM CLR A3012 RMK MADISHF
CID,2017-04-01 04:52,-91.7246,41.8829,34.00,34.00,100.00,300.00,7.00,0.00,30.12,1020.70,10.00,M,CLR,M,M,M,M,M,M,M,M,KCID 010452Z AUTO 30007KT 10SM CLR 01/01 A3012 RMK AO2 SLP207 T00110011
CID,2017-04-01 04:55,-91.7246,41.8829,M,M,M,300.00,8.00,M,30.12,M,10.00,M,CLR,M,M,M,M,M,M,M,M,KCID 010455Z AUTO 30008KT 10SM CLR A3012 RMK MADISHF
CID,2017-04-01 05:00,-91.7246,41.8829,M,M,M,300.00,7.00,M,30.12,M,10.00,M,CLR,M,M,M,M,M,M,M,M,KCID 010500Z AUTO 30007KT 10SM CLR A3012 RMK MADISHF
CID,2017-04-01 05:05,-91.7246,41.8829,M,M,M,300.00,5.00,M,30.12,M,10.00,M,CLR,M,M,M,M,M,M,M,M,KCID 010505Z AUTO 30005KT 10SM CLR A3012 RMK MADISHF
CID,2017-04-01 05:10,-91.7246,41.8829,M,M,M,310.00,4.00,M,30.12,M,10.00,M,CLR,M,M,M,M,M,M,M,M,KCID 010510Z AUTO 31004KT 10SM CLR A3012 RMK MADISHF
CID,2017-04-01 05:15,-91.7246,41.8829,M,M,M,320.00,4.00,M,30.12,M,10.00,M,CLR,M,M,M,M,M,M,M,M,KCID 010515Z AUTO 32004KT 10SM CLR A3012 RMK MADISHF
CID,2017-04-01 05:20,-91.7246,41.8829,M,M,M,310.00,4.00,M,30.12,M,10.00,M,CLR,M,M,M,M,M,M,M,M,KCID 010520Z AUTO 31004KT 10SM CLR A3012 RMK MADISHF
CID,2017-04-01 05:25,-91.7246,41.8829,M,M,M,320.00,5.00,M,30.12,M,10.00,M,CLR,M,M,M,M,M,M,M,M,KCID 010525Z AUTO 32005KT 10SM CLR A3012 RMK MADISHF
CID,2017-04-01 05:30,-91.7246,41.8829,M,M,M,320.00,5.00,M,30.12,M,10.00,M,CLR,M,M,M,M,M,M,M,M,KCID 010530Z AUTO 32005KT 10SM CLR A3012 RMK MADISHF
CID,2017-04-01 05:35,-91.7246,41.8829,M,M,M,330.00,5.00,M,30.12,M,10.00,M,CLR,M,M,M,M,M,M,M,M,KCID 010535Z AUTO 33005KT 10SM CLR A3012 RMK MADISHF
CID,2017-04-01 05:40,-91.7246,41.8829,M,M,M,330.00,5.00,M,30.12,M,10.00,M,CLR,M,M,M,M,M,M,M,M,KCID 010540Z AUTO 33005KT 10SM CLR A3012 RMK MADISHF
CID,2017-04-01 05:45,-91.7246,41.8829,M,M,M,330.00,5.00,M,30.12,M,10.00,M,CLR,M,M,M,M,M,M,M,M,KCID 010545Z AUTO 33005KT 10SM CLR A3012 RMK MADISHF
CID,2017-04-01 05:50,-91.7246,41.8829,M,M,M,330.00,5.00,M,30.12,M,10.00,M,CLR,M,M,M,M,M,M,M,M,KCID 010550Z AUTO 33005KT 10SM CLR A3012 RMK MADISHF
CID,2017-04-01 05:52,-91.7246,41.8829,33.10,33.10,100.00,330.00,5.00,0.00,30.12,1020.80,10.00,M,CLR,M,M,M,M,M,M,M,M,KCID 010552Z AUTO 33005KT 10SM CLR 01/01 A3012 RMK AO2 SLP208 T00060006 10061 20000 400670000 51010
CID,2017-04-01 05:55,-91.7246,41.8829,M,M,M,330.00,5.00,M,30.13,M,10.00,M,CLR,M,M,M,M,M,M,M,M,KCID 010555Z AUTO 33005KT 10SM CLR A3013 RMK MADISHF
CID,2017-04-01 06:00,-91.7246,41.8829,M,M,M,330.00,5.00,M,30.13,M,10.00,M,CLR,M,M,M,M,M,M,M,M,KCID 010600Z AUTO 33005KT 10SM CLR A3013 RMK MADISHF
CID,2017-04-01 06:05,-91.7246,41.8829,M,M,M,330.00,5.00,M,30.13,M,10.00,M,CLR,M,M,M,M,M,M,M,M,KCID 010605Z AUTO 33005KT 10SM CLR A3013 RMK MADISHF
CID,2017-04-01 06:10,-91.7246,41.8829,M,M,M,340.00,6.00,M,30.13,M,9.00,M,CLR,M,M,M,M,M,M,M,M,KCID 010610Z AUTO 34006KT 9SM CLR A3013 RMK MADISHF
CID,2017-04-01 06:15,-91.7246,41.8829,M,M,M,330.00,5.00,M,30.13,M,9.00,M,CLR,M,M,M,M,M,M,M,M,KCID 010615Z AUTO 33005KT 9SM CLR A3013 RMK MADISHF
CID,2017-04-01 06:20,-91.7246,41.8829,M,M,M,330.00,5.00,M,30.13,M,9.00,M,CLR,M,M,M,M,M,M,M,M,KCID 010620Z AUTO 33005KT 9SM CLR A3013 RMK MADISHF
CID,2017-04-01 06:25,-91.7246,41.8829,M,M,M,320.00,5.00,M,30.13,M,9.00,M,CLR,M,M,M,M,M,M,M,M,KCID 010625Z AUTO 32005KT 9SM CLR A3013 RMK MADISHF
CID,2017-04-01 06:30,-91.7246,41.8829,M,M,M,320.00,6.00,M,30.13,M,10.00,M,CLR,M,M,M,M,M,M,M,M,KCID 010630Z AUTO 32006KT 10SM CLR A3013 RMK MADISHF
CID,2017-04-01 06:35,-91.7246,41.8829,M,M,M,320.00,6.00,M,30.13,M,10.00,M,CLR,M,M,M,M,M,M,M,M,KCID 010635Z AUTO 32006KT 10SM CLR A3013 RMK MADISHF
CID,2017-04-01 06:40,-91.7246,41.8829,M,M,M,320.00,5.00,M,30.13,M,10.00,M,CLR,M,M,M,M,M,M,M,M,KCID 010640Z AUTO 32005KT 10SM CLR A3013 RMK MADISHF
CID,2017-04-01 06:45,-91.7246,41.8829,M,M,M,330.00,5.00,M,30.14,M,10.00,M,CLR,M,M,M,M,M,M,M,M,KCID 010645Z AUTO 33005KT 10SM CLR A3014 RMK MADISHF
CID,2017-04-01 06:50,-91.7246,41.8829,M,M,M,320.00,4.00,M,30.14,M,10.00,M,CLR,M,M,M,M,M,M,M,M,KCID 010650Z AUTO 32004KT 10SM CLR A3014 RMK MADISHF
CID,2017-04-01 06:52,-91.7246,41.8829,32.00,32.00,100.00,320.00,4.00,0.00,30.14,1021.30,10.00,M,CLR,M,M,M,M,M,M,M,M,KCID 010652Z AUTO 32004KT 10SM CLR 00/00 A3014 RMK AO2 SLP213 T00000000
CID,2017-04-01 06:55,-91.7246,41.8829,M,M,M,310.00,4.00,M,30.14,M,10.00,M,CLR,M,M,M,M,M,M,M,M,KCID 010655Z AUTO 31004KT 10SM CLR A3014 RMK MADISHF
CID,2017-04-01 07:00,-91.7246,41.8829,M,M,M,300.00,4.00,M,30.14,M,10.00,M,CLR,M,M,M,M,M,M,M,M,KCID 010700Z AUTO 30004KT 10SM CLR A3014 RMK MADISHF
CID,2017-04-01 07:05,-91.7246,41.8829,M,M,M,300.00,5.00,M,30.15,M,10.00,M,CLR,M,M,M,M,M,M,M,M,KCID 010705Z AUTO 30005KT 10SM CLR A3015 RMK MADISHF
CID,2017-04-01 07:10,-91.7246,41.8829,M,M,M,310.00,5.00,M,30.14,M,10.00,M,CLR,M,M,M,M,M,M,M,M,KCID 010710Z AUTO 31005KT 10SM CLR A3014 RMK MADISHF
CID,2017-04-01 07:15,-91.7246,41.8829,M,M,M,320.00,5.00,M,30.14,M,10.00,M,CLR,M,M,M,M,M,M,M,M,KCID 010715Z AUTO 32005KT 10SM CLR A3014 RMK MADISHF
CID,2017-04-01 07:20,-91.7246,41.8829,M,M,M,320.00,5.00,M,30.14,M,10.00,M,CLR,M,M,M,M,M,M,M,M,KCID 010720Z AUTO 32005KT 10SM CLR A3014 RMK MADISHF
CID,2017-04-01 07:25,-91.7246,41.8829,M,M,M,320.00,5.00,M,30.15,M,10.00,M,CLR,M,M,M,M,M,M,M,M,KCID 010725Z AUTO 32005KT 10SM CLR A3015 RMK MADISHF
CID,2017-04-01 07:30,-91.7246,41.8829,M,M,M,320.00,5.00,M,30.15,M,10.00,M,CLR,M,M,M,M,M,M,M,M,KCID 010730Z AUTO 32005KT 10SM CLR A3015 RMK MADISHF
CID,2017-04-01 07:35,-91.7246,41.8829,M,M,M,320.00,5.00,M,30.15,M,10.00,M,CLR,M,M,M,M,M,M,M,M,KCID 010735Z AUTO 32005KT 10SM CLR A3015 RMK MADISHF
CID,2017-04-01 07:40,-91.7246,41.8829,M,M,M,330.00,6.00,M,30.14,M,10.00,M,CLR,M,M,M,M,M,M,M,M,KCID 010740Z AUTO 33006KT 10SM CLR A3014 RMK MADISHF
CID,2017-04-01 07:45,-91.7246,41.8829,M,M,M,320.00,6.00,M,30.15,M,10.00,M,CLR,M,M,M,M,M,M,M,M,KCID 010745Z AUTO 32006KT 10SM CLR A3015 RMK MADISHF
CID,2017-04-01 07:50,-91.7246,41.8829,M,M,M,320.00,5.00,M,30.15,M,10.00,M,CLR,M,M,M,M,M,M,M,M,KCID 010750Z AUTO 32005KT 10SM CLR A3015 RMK MADISHF
CID,2017-04-01 07:52,-91.7246,41.8829,32.00,32.00,100.00,320.00,5.00,0.00,30.15,1021.70,10.00,M,CLR,M,M,M,M,M,M,M,M,KCID 010752Z AUTO 32005KT 10SM CLR 00/00 A3015 RMK AO2 SLP217 T00000000
CID,2017-04-01 07:55,-91.7246,41.8829,M,M,M,320.00,5.00,M,30.15,M,10.00,M,CLR,M,M,M,M,M,M,M,M,KCID 010755Z AUTO 32005KT 10SM CLR A3015 RMK MADISHF
CID,2017-04-01 08:00,-91.7246,41.8829,M,M,M,310.00,6.00,M,30.16,M,10.00,M,CLR,M,M,M,M,M,M,M,M,KCID 010800Z AUTO 31006KT 10SM CLR A3016 RMK MADISHF
CID,2017-04-01 08:05,-91.7246,41.8829,M,M,M,310.00,6.00,M,30.16,M,10.00,M,CLR,M,M,M,M,M,M,M,M,KCID 010805Z AUTO 31006KT 10SM CLR A3016 RMK MADISHF
CID,2017-04-01 08:10,-91.7246,41.8829,M,M,M,310.00,6.00,M,30.16,M,10.00,M,CLR,M,M,M,M,M,M,M,M,KCID 010810Z AUTO 31006KT 10SM CLR A3016 RMK MADISHF
CID,2017-04-01 08:15,-91.7246,41.8829,M,M,M,300.00,5.00,M,30.16,M,10.00,M,CLR,M,M,M,M,M,M,M,M,KCID 010815Z AUTO 30005KT 10SM CLR A3016 RMK MADISHF
CID,2017-04-01 08:20,-91.7246,41.8829,M,M,M,300.00,5.00,M,30.16,M,10.00,M,CLR,M,M,M,M,M,M,M,M,KCID 010820Z AUTO 30005KT 10SM CLR A3016 RMK MADISHF
CID,2017-04-01 08:25,-91.7246,41.8829,M,M,M,310.00,5.00,M,30.16,M,10.00,M,CLR,M,M,M,M,M,M,M,M,KCID 010825Z AUTO 31005KT 10SM CLR A3016 RMK MADISHF
CID,2017-04-01 08:30,-91.7246,41.8829,M,M,M,300.00,4.00,M,30.16,M,10.00,M,CLR,M,M,M,M,M,M,M,M,KCID 010830Z AUTO 30004KT 10SM CLR A3016 RMK MADISHF
CID,2017-04-01 08:35,-91.7246,41.8829,M,M,M,270.00,3.00,M,30.15,M,10.00,M,CLR,M,M,M,M,M,M,M,M,KCID 010835Z AUTO 27003KT 10SM CLR A3015 RMK MADISHF
CID,2017-04-01 08:40,-91.7246,41.8829,M,M,M,250.00,3.00,M,30.16,M,10.00,M,CLR,M,M,M,M,M,M,M,M,KCID 010840Z AUTO 25003KT 10SM CLR A3016 RMK MADISHF
CID,2017-04-01 08:45,-91.7246,41.8829,M,M,M,0.00,0.00,M,30.16,M,10.00,M,CLR,M,M,M,M,M,M,M,M,KCID 010845Z AUTO 00000KT 10SM CLR A3016 RMK MADISHF
CID,2017-04-01 08:50,-91.7246,41.8829,M,M,M,0.00,0.00,M,30.16,M,9.00,M,CLR,M,M,M,M,M,M,M,M,KCID 010850Z AUTO 00000KT 9SM CLR A3016 RMK MADISHF
CID,2017-04-01 08:52,-91.7246,41.8829,30.90,30.90,100.00,0.00,0.00,0.00,30.16,1022.20,9.00,M,CLR,M,M,M,M,M,M,M,M,KCID 010852Z AUTO 00000KT 9SM CLR M01/M01 A3016 RMK AO2 SLP222 T10061006 51013
CID,2017-04-01 08:55,-91.7246,41.8829,M,M,M,270.00,3.00,M,30.16,M,9.00,M,CLR,M,M,M,M,M,M,M,M,KCID 010855Z AUTO 27003KT 9SM CLR A3016 RMK MADISHF
CID,2017-04-01 09:00,-91.7246,41.8829,M,M,M,280.00,4.00,M,30.16,M,8.00,M,CLR,M,M,M,M,M,M,M,M,KCID 010900Z AUTO 28004KT 8SM CLR A3016 RMK MADISHF
CID,2017-04-01 09:05,-91.7246,41.8829,M,M,M,280.00,5.00,M,30.16,M,9.00,M,CLR,M,M,M,M,M,M,M,M,KCID 010905Z AUTO 28005KT 9SM CLR A3016 RMK MADISHF
CID,2017-04-01 09:10,-91.7246,41.8829,M,M,M,280.00,4.00,M,30.16,M,9.00,M,CLR,M,M,M,M,M,M,M,M,KCID 010910Z AUTO 28004KT 9SM CLR A3016 RMK MADISHF
CID,2017-04-01 09:15,-91.7246,41.8829,M,M,M,280.00,4.00,M,30.16,M,10.00,M,CLR,M,M,M,M,M,M,M,M,KCID 010915Z AUTO 28004KT 10SM CLR A3016 RMK MADISHF
CID,2017-04-01 09:20,-91.7246,41.8829,M,M,M,290.00,5.00,M,30.16,M,10.00,M,CLR,M,M,M,M,M,M,M,M,KCID 010920Z AUTO 29005KT 10SM CLR A3016 RMK MADISHF
CID,2017-04-01 09:25,-91.7246,41.8829,M,M,M,300.00,4.00,M,30.16,M,10.00,M,CLR,M,M,M,M,M,M,M,M,KCID 010925Z AUTO 30004KT 10SM CLR A3016 RMK MADISHF
CID,2017-04-01 09:30,-91.7246,41.8829,M,M,M,300.00,5.00,M,30.16,M,10.00,M,CLR,M,M,M,M,M,M,M,M,KCID 010930Z AUTO 30005KT 10SM CLR A3016 RMK MADISHF
CID,2017-04-01 09:35,-91.7246,41.8829,M,M,M,300.00,5.00,M,30.16,M,10.00,M,CLR,M,M,M,M,M,M,M,M,KCID 010935Z AUTO 30005KT 10SM CLR A3016 RMK MADISHF
CID,2017-04-01 09:40,-91.7246,41.8829,M,M,M,310.00,4.00,M,30.16,M,10.00,M,CLR,M,M,M,M,M,M,M,M,KCID 010940Z AUTO 31004KT 10SM CLR A3016 RMK MADISHF
CID,2017-04-01 09:45,-91.7246,41.8829,M,M,M,310.00,4.00,M,30.16,M,10.00,M,CLR,M,M,M,M,M,M,M,M,KCID 010945Z AUTO 31004KT 10SM CLR A3016 RMK MADISHF
CID,2017-04-01 09:50,-91.7246,41.8829,M,M,M,320.00,4.00,M,30.16,M,10.00,M,CLR,M,M,M,M,M,M,M,M,KCID 010950Z AUTO 32004KT 10SM CLR A3016 RMK MADISHF
CID,2017-04-01 09:52,-91.7246,41.8829,30.90,30.90,100.00,310.00,4.00,0.00,30.16,1022.10,10.00,M,CLR,M,M,M,M,M,M,M,M,KCID 010952Z AUTO 31004KT 10SM CLR M01/M01 A3016 RMK AO2 SLP221 T10061006
CID,2017-04-01 09:55,-91.7246,41.8829,M,M,M,320.00,4.00,M,30.16,M,10.00,M,CLR,M,M,M,M,M,M,M,M,KCID 010955Z AUTO 32004KT 10SM CLR A3016 RMK MADISHF
CID,2017-04-01 10:00,-91.7246,41.8829,M,M,M,320.00,4.00,M,30.16,M,10.00,M,CLR,M,M,M,M,M,M,M,M,KCID 011000Z AUTO 32004KT 10SM CLR A3016 RMK MADISHF
CID,2017-04-01 10:05,-91.7246,41.8829,M,M,M,320.00,3.00,M,30.16,M,10.00,M,CLR,M,M,M,M,M,M,M,M,KCID 011005Z AUTO 32003KT 10SM CLR A3016 RMK MADISHF
CID,2017-04-01 10:10,-91.7246,41.8829,M,M,M,310.00,3.00,M,30.16,M,10.00,M,CLR,M,M,M,M,M,M,M,M,KCID 011010Z AUTO 31003KT 10SM CLR A3016 RMK MADISHF
CID,2017-04-01 10:15,-91.7246,41.8829,M,M,M,0.00,0.00,M,30.16,M,9.00,M,CLR,M,M,M,M,M,M,M,M,KCID 011015Z AUTO 00000KT 9SM CLR A3016 RMK MADISHF
CID,2017-04-01 10:20,-91.7246,41.8829,M,M,M,0.00,0.00,M,30.16,M,9.00,M,CLR,M,M,M,M,M,M,M,M,KCID 011020Z AUTO 00000KT 9SM CLR A3016 RMK MADISHF
CID,2017-04-01 10:25,-91.7246,41.8829,M,M,M,310.00,3.00,M,30.17,M,9.00,M,CLR,M,M,M,M,M,M,M,M,KCID 011025Z AUTO 31003KT 9SM CLR A3017 RMK MADISHF
CID,2017-04-01 10:30,-91.7246,41.8829,M,M,M,300.00,3.00,M,30.17,M,10.00,M,CLR,M,M,M,M,M,M,M,M,KCID 011030Z AUTO 30003KT 10SM CLR A3017 RMK VRB03KT  MADISHF
CID,2017-04-01 10:35,-91.7246,41.8829,M,M,M,290.00,4.00,M,30.17,M,10.00,M,CLR,M,M,M,M,M,M,M,M,KCID 011035Z AUTO 29004KT 10SM CLR A3017 RMK MADISHF
CID,2017-04-01 10:40,-91.7246,41.8829,M,M,M,290.00,5.00,M,30.18,M,10.00,M,CLR,M,M,M,M,M,M,M,M,KCID 011040Z AUTO 29005KT 10SM CLR A3018 RMK MADISHF
CID,2017-04-01 10:45,-91.7246,41.8829,M,M,M,290.00,4.00,M,30.18,M,10.00,M,CLR,M,M,M,M,M,M,M,M,KCID 011045Z AUTO 29004KT 10SM CLR A3018 RMK MADISHF
CID,2017-04-01 10:50,-91.7246,41.8829,M,M,M,280.00,5.00,M,30.18,M,10.00,M,CLR,M,M,M,M,M,M,M,M,KCID 011050Z AUTO 28005KT 10SM CLR A3018 RMK MADISHF
CID,2017-04-01 10:52,-91.7246,41.8829,30.00,30.00,100.00,290.00,5.00,0.00,30.18,1022.70,10.00,M,CLR,M,M,M,M,M,M,M,M,KCID 011052Z 29005KT 10SM CLR M01/M01 A3018 RMK AO2 SLP227 T10111011
CID,2017-04-01 10:55,-91.7246,41.8829,M,M,M,290.00,5.00,M,30.18,M,10.00,M,CLR,M,M,M,M,M,M,M,M,KCID 011055Z AUTO 29005KT 10SM CLR A3018 RMK MADISHF
CID,2017-04-01 11:00,-91.7246,41.8829,M,M,M,290.00,5.00,M,30.18,M,10.00,M,CLR,M,M,M,M,M,M,M,M,KCID 011100Z AUTO 29005KT 10SM CLR A3018 RMK MADISHF
CID,2017-04-01 11:05,-91.7246,41.8829,M,M,M,290.00,4.00,M,30.18,M,10.00,M,CLR,M,M,M,M,M,M,M,M,KCID 011105Z AUTO 29004KT 10SM CLR A3018 RMK MADISHF
CID,2017-04-01 11:10,-91.7246,41.8829,M,M,M,290.00,4.00,M,30.18,M,10.00,M,CLR,M,M,M,M,M,M,M,M,KCID 011110Z AUTO 29004KT 10SM CLR A3018 RMK MADISHF
CID,2017-04-01 11:15,-91.7246,41.8829,M,M,M,290.00,4.00,M,30.18,M,10.00,M,CLR,M,M,M,M,M,M,M,M,KCID 011115Z AUTO 29004KT 10SM CLR A3018 RMK MADISHF
CID,2017-04-01 11:20,-91.7246,41.8829,M,M,M,300.00,4.00,M,30.18,M,10.00,M,CLR,M,M,M,M,M,M,M,M,KCID 011120Z AUTO 30004KT 10SM CLR A3018 RMK MADISHF
CID,2017-04-01 11:25,-91.7246,41.8829,M,M,M,310.00,5.00,M,30.19,M,10.00,M,CLR,M,M,M,M,M,M,M,M,KCID 011125Z AUTO 31005KT 10SM CLR A3019 RMK MADISHF
CID,2017-04-01 11:30,-91.7246,41.8829,M,M,M,320.00,4.00,M,30.19,M,10.00,M,CLR,M,M,M,M,M,M,M,M,KCID 011130Z AUTO 32004KT 10SM CLR A3019 RMK MADISHF
CID,2017-04-01 11:35,-91.7246,41.8829,M,M,M,320.00,5.00,M,30.19,M,10.00,M,CLR,M,M,M,M,M,M,M,M,KCID 011135Z AUTO 32005KT 10SM CLR A3019 RMK MADISHF
CID,2017-04-01 11:40,-91.7246,41.8829,M,M,M,310.00,5.00,M,30.19,M,9.00,M,CLR,M,M,M,M,M,M,M,M,KCID 011140Z AUTO 31005KT 9SM CLR A3019 RMK MADISHF
CID,2017-04-01 11:45,-91.7246,41.8829,M,M,M,300.00,5.00,M,30.19,M,9.00,M,CLR,M,M,M,M,M,M,M,M,KCID 011145Z AUTO 30005KT 9SM CLR A3019 RMK MADISHF
CID,2017-04-01 11:50,-91.7246,41.8829,M,M,M,300.00,5.00,M,30.20,M,10.00,M,CLR,M,M,M,M,M,M,M,M,KCID 011150Z AUTO 30005KT 10SM CLR A3020 RMK MADISHF
CID,2017-04-01 11:52,-91.7246,41.8829,30.90,30.90,100.00,300.00,5.00,0.00,30.20,1023.60,10.00,M,CLR,M,M,M,M,M,M,M,M,KCID 011152Z 30005KT 10SM CLR M01/M01 A3020 RMK AO2 SLP236 T10061006 10006 21017 53014
CID,2017-04-01 11:55,-91.7246,41.8829,M,M,M,290.00,5.00,M,30.21,M,10.00,M,CLR,M,M,M,M,M,M,M,M,KCID 011155Z AUTO 29005KT 10SM CLR A3021 RMK MADISHF
CID,2017-04-01 12:00,-91.7246,41.8829,M,M,M,290.00,3.00,M,30.21,M,10.00,M,CLR,M,M,M,M,M,M,M,M,KCID 011200Z AUTO 29003KT 10SM CLR A3021 RMK MADISHF
CID,2017-04-01 12:05,-91.7246,41.8829,M,M,M,280.00,3.00,M,30.21,M,10.00,M,CLR,M,M,M,M,M,M,M,M,KCID 011205Z AUTO 28003KT 10SM CLR A3021 RMK MADISHF
CID,2017-04-01 12:10,-91.7246,41.8829,M,M,M,280.00,3.00,M,30.22,M,9.00,M,CLR,M,M,M,M,M,M,M,M,KCID 011210Z AUTO 28003KT 9SM CLR A3022 RMK MADISHF
CID,2017-04-01 12:15,-91.7246,41.8829,M,M,M,290.00,3.00,M,30.22,M,8.00,M,CLR,M,M,M,M,M,M,M,M,KCID 011215Z AUTO 29003KT 8SM CLR A3022 RMK MADISHF
CID,2017-04-01 12:20,-91.7246,41.8829,M,M,M,300.00,3.00,M,30.22,M,8.00,M,CLR,M,M,M,M,M,M,M,M,KCID 011220Z AUTO 30003KT 8SM CLR A3022 RMK MADISHF
CID,2017-04-01 12:25,-91.7246,41.8829,M,M,M,290.00,4.00,M,30.22,M,9.00,M,CLR,M,M,M,M,M,M,M,M,KCID 011225Z AUTO 29004KT 9SM CLR A3022 RMK MADISHF
CID,2017-04-01 12:30,-91.7246,41.8829,M,M,M,290.00,5.00,M,30.23,M,9.00,M,CLR,M,M,M,M,M,M,M,M,KCID 011230Z AUTO 29005KT 9SM CLR A3023 RMK MADISHF
CID,2017-04-01 12:35,-91.7246,41.8829,M,M,M,280.00,5.00,M,30.23,M,10.00,M,CLR,M,M,M,M,M,M,M,M,KCID 011235Z AUTO 28005KT 10SM CLR A3023 RMK MADISHF
CID,2017-04-01 12:40,-91.7246,41.8829,M,M,M,290.00,4.00,M,30.24,M,10.00,M,CLR,M,M,M,M,M,M,M,M,KCID 011240Z AUTO 29004KT 10SM CLR A3024 RMK MADISHF
CID,2017-04-01 12:45,-91.7246,41.8829,M,M,M,280.00,4.00,M,30.24,M,10.00,M,CLR,M,M,M,M,M,M,M,M,KCID 011245Z AUTO 28004KT 10SM CLR A3024 RMK MADISHF
CID,2017-04-01 12:50,-91.7246,41.8829,M,M,M,280.00,3.00,M,30.24,M,9.00,M,CLR,M,M,M,M,M,M,M,M,KCID 011250Z AUTO 28003KT 9SM CLR A3024 RMK MADISHF
CID,2017-04-01 12:52,-91.7246,41.8829,34.00,34.00,100.00,0.00,0.00,0.00,30.24,1024.60,9.00,M,CLR,M,M,M,M,M,M,M,M,KCID 011252Z 00000KT 9SM CLR 01/01 A3024 RMK AO2 SLP246 T00110011
CID,2017-04-01 12:55,-91.7246,41.8829,M,M,M,0.00,0.00,M,30.24,M,9.00,M,CLR,M,M,M,M,M,M,M,M,KCID 011255Z AUTO 00000KT 9SM CLR A3024 RMK MADISHF
CID,2017-04-01 13:00,-91.7246,41.8829,M,M,M,0.00,0.00,M,30.24,M,9.00,M,CLR,M,M,M,M,M,M,M,M,KCID 011300Z AUTO 00000KT 9SM CLR A3024 RMK MADISHF
CID,2017-04-01 13:05,-91.7246,41.8829,M,M,M,0.00,0.00,M,30.24,M,9.00,M,CLR,M,M,M,M,M,M,M,M,KCID 011305Z AUTO 00000KT 9SM CLR A3024 RMK MADISHF
CID,2017-04-01 13:10,-91.7246,41.8829,M,M,M,0.00,0.00,M,30.24,M,10.00,M,CLR,M,M,M,M,M,M,M,M,KCID 011310Z AUTO 00000KT 10SM CLR A3024 RMK MADISHF
CID,2017-04-01 13:15,-91.7246,41.8829,M,M,M,0.00,0.00,M,30.24,M,10.00,M,CLR,M,M,M,M,M,M,M,M,KCID 011315Z AUTO 00000KT 10SM CLR A3024 RMK MADISHF
CID,2017-04-01 13:20,-91.7246,41.8829,M,M,M,310.00,3.00,M,30.24,M,10.00,M,CLR,M,M,M,M,M,M,M,M,KCID 011320Z AUTO 31003KT 10SM CLR A3024 RMK MADISHF
CID,2017-04-01 13:25,-91.7246,41.8829,M,M,M,310.00,3.00,M,30.24,M,10.00,M,CLR,M,M,M,M,M,M,M,M,KCID 011325Z AUTO 31003KT 10SM CLR A3024 RMK MADISHF
CID,2017-04-01 13:30,-91.7246,41.8829,M,M,M,310.00,3.00,M,30.24,M,10.00,M,CLR,M,M,M,M,M,M,M,M,KCID 011330Z AUTO 31003KT 10SM CLR A3024 RMK MADISHF
CID,2017-04-01 13:35,-91.7246,41.8829,M,M,M,320.00,4.00,M,30.24,M,10.00,M,CLR,M,M,M,M,M,M,M,M,KCID 011335Z AUTO 32004KT 10SM CLR A3024 RMK MADISHF
CID,2017-04-01 13:40,-91.7246,41.8829,M,M,M,320.00,5.00,M,30.24,M,10.00,M,CLR,M,M,M,M,M,M,M,M,KCID 011340Z AUTO 32005KT 10SM CLR A3024 RMK MADISHF
CID,2017-04-01 13:45,-91.7246,41.8829,M,M,M,310.00,5.00,M,30.23,M,10.00,M,CLR,M,M,M,M,M,M,M,M,KCID 011345Z AUTO 31005KT 10SM CLR A3023 RMK MADISHF
CID,2017-04-01 13:50,-91.7246,41.8829,M,M,M,310.00,5.00,M,30.23,M,10.00,M,CLR,M,M,M,M,M,M,M,M,KCID 011350Z AUTO 31005KT 10SM CLR A3023 RMK MADISHF
CID,2017-04-01 13:52,-91.7246,41.8829,39.90,37.90,92.48,310.00,4.00,0.00,30.23,1024.20,10.00,M,CLR,M,M,M,M,M,M,M,M,KCID 011352Z 31004KT 10SM CLR 04/03 A3023 RMK AO2 SLP242 T00440033
CID,2017-04-01 13:55,-91.7246,41.8829,M,M,M,300.00,4.00,M,30.23,M,10.00,M,CLR,M,M,M,M,M,M,M,M,KCID 011355Z AUTO 30004KT 10SM CLR A3023 RMK MADISHF
CID,2017-04-01 14:00,-91.7246,41.8829,M,M,M,300.00,5.00,M,30.22,M,10.00,M,CLR,M,M,M,M,M,M,M,M,KCID 011400Z AUTO 30005KT 10SM CLR A3022 RMK MADISHF
CID,2017-04-01 14:05,-91.7246,41.8829,M,M,M,310.00,6.00,M,30.22,M,10.00,M,CLR,M,M,M,M,M,M,M,M,KCID 011405Z AUTO 31006KT 10SM CLR A3022 RMK MADISHF
CID,2017-04-01 14:10,-91.7246,41.8829,M,M,M,320.00,6.00,M,30.22,M,10.00,M,CLR,M,M,M,M,M,M,M,M,KCID 011410Z AUTO 32006KT 10SM CLR A3022 RMK MADISHF
CID,2017-04-01 14:15,-91.7246,41.8829,M,M,M,320.00,6.00,M,30.22,M,10.00,M,CLR,M,M,M,M,M,M,M,M,KCID 011415Z AUTO 32006KT 10SM CLR A3022 RMK MADISHF
CID,2017-04-01 14:20,-91.7246,41.8829,M,M,M,330.00,7.00,M,30.22,M,10.00,M,CLR,M,M,M,M,M,M,M,M,KCID 011420Z AUTO 33007KT 10SM CLR A3022 RMK MADISHF
CID,2017-04-01 14:25,-91.7246,41.8829,M,M,M,330.00,6.00,M,30.22,M,10.00,M,CLR,M,M,M,M,M,M,M,M,KCID 011425Z AUTO 33006KT 10SM CLR A3022 RMK MADISHF
CID,2017-04-01 14:30,-91.7246,41.8829,M,M,M,320.00,6.00,M,30.22,M,10.00,M,CLR,M,M,M,M,M,M,M,M,KCID 011430Z AUTO 32006KT 10SM CLR A3022 RMK MADISHF
CID,2017-04-01 14:35,-91.7246,41.8829,M,M,M,320.00,6.00,M,30.22,M,10.00,M,CLR,M,M,M,M,M,M,M,M,KCID 011435Z AUTO 32006KT 10SM CLR A3022 RMK MADISHF
CID,2017-04-01 14:40,-91.7246,41.8829,M,M,M,320.00,6.00,M,30.22,M,10.00,M,CLR,M,M,M,M,M,M,M,M,KCID 011440Z AUTO 32006KT 10SM CLR A3022 RMK MADISHF
CID,2017-04-01 14:45,-91.7246,41.8829,M,M,M,310.00,7.00,M,30.22,M,10.00,M,CLR,M,M,M,M,M,M,M,M,KCID 011445Z AUTO 31007KT 10SM CLR A3022 RMK MADISHF
CID,2017-04-01 14:50,-91.7246,41.8829,M,M,M,310.00,7.00,M,30.23,M,10.00,M,CLR,M,M,M,M,M,M,M,M,KCID 011450Z AUTO 31007KT 10SM CLR A3023 RMK MADISHF
CID,2017-04-01 14:52,-91.7246,41.8829,46.00,39.00,76.40,310.00,5.00,0.00,30.23,1024.20,10.00,M,CLR,M,M,M,M,M,M,M,M,KCID 011452Z 31005KT 10SM CLR 08/04 A3023 RMK AO2 SLP242 T00780039 51008
CID,2017-04-01 14:55,-91.7246,41.8829,M,M,M,310.00,6.00,M,30.23,M,10.00,M,CLR,M,M,M,M,M,M,M,M,KCID 011455Z AUTO 31006KT 10SM CLR A3023 RMK MADISHF
CID,2017-04-01 15:00,-91.7246,41.8829,M,M,M,280.00,6.00,M,30.23,M,10.00,M,CLR,M,M,M,M,M,M,M,M,KCID 011500Z AUTO 28006KT 10SM CLR A3023 RMK MADISHF
CID,2017-04-01 15:05,-91.7246,41.8829,M,M,M,300.00,6.00,M,30.23,M,10.00,M,CLR,M,M,M,M,M,M,M,M,KCID 011505Z AUTO 30006KT 10SM CLR A3023 RMK MADISHF
CID,2017-04-01 15:10,-91.7246,41.8829,M,M,M,290.00,6.00,M,30.23,M,10.00,M,CLR,M,M,M,M,M,M,M,M,KCID 011510Z AUTO 29006KT 10SM CLR A3023 RMK MADISHF
CID,2017-04-01 15:15,-91.7246,41.8829,M,M,M,290.00,6.00,M,30.23,M,10.00,M,CLR,M,M,M,M,M,M,M,M,KCID 011515Z AUTO 29006KT 10SM CLR A3023 RMK MADISHF
CID,2017-04-01 15:20,-91.7246,41.8829,M,M,M,260.00,7.00,M,30.23,M,10.00,M,CLR,M,M,M,M,M,M,M,M,KCID 011520Z AUTO 26007KT 10SM CLR A3023 RMK MADISHF
CID,2017-04-01 15:25,-91.7246,41.8829,M,M,M,270.00,6.00,M,30.23,M,10.00,M,CLR,M,M,M,M,M,M,M,M,KCID 011525Z AUTO 27006KT 10SM CLR A3023 RMK MADISHF
CID,2017-04-01 15:30,-91.7246,41.8829,M,M,M,280.00,7.00,M,30.24,M,10.00,M,CLR,M,M,M,M,M,M,M,M,KCID 011530Z AUTO 28007KT 10SM CLR A3024 RMK MADISHF
CID,2017-04-01 15:35,-91.7246,41.8829,M,M,M,270.00,7.00,M,30.24,M,10.00,M,CLR,M,M,M,M,M,M,M,M,KCID 011535Z AUTO 27007KT 10SM CLR A3024 RMK MADISHF
CID,2017-04-01 15:40,-91.7246,41.8829,M,M,M,280.00,8.00,M,30.24,M,10.00,M,CLR,M,M,M,M,M,M,M,M,KCID 011540Z AUTO 28008KT 10SM CLR A3024 RMK MADISHF
CID,2017-04-01 15:45,-91.7246,41.8829,M,M,M,260.00,8.00,M,30.24,M,10.00,M,CLR,M,M,M,M,M,M,M,M,KCID 011545Z AUTO 26008KT 10SM CLR A3024 RMK MADISHF
CID,2017-04-01 15:50,-91.7246,41.8829,M,M,M,280.00,8.00,M,30.24,M,10.00,M,CLR,M,M,M,M,M,M,M,M,KCID 011550Z AUTO 28008KT 10SM CLR A3024 RMK MADISHF
CID,2017-04-01 15:52,-91.7246,41.8829,51.10,39.00,63.12,290.00,7.00,0.00,30.24,1024.50,10.00,M,CLR,M,M,M,M,M,M,M,M,KCID 011552Z 29007KT 10SM CLR 11/04 A3024 RMK AO2 SLP245 T01060039
CID,2017-04-01 15:55,-91.7246,41.8829,M,M,M,300.00,7.00,M,30.24,M,10.00,M,CLR,M,M,M,M,M,M,M,M,KCID 011555Z AUTO 30007KT 10SM CLR A3024 RMK MADISHF
CID,2017-04-01 16:00,-91.7246,41.8829,M,M,M,260.00,7.00,M,30.24,M,10.00,M,CLR,M,M,M,M,M,M,M,M,KCID 011600Z AUTO 26007KT 10SM CLR A3024 RMK MADISHF
CID,2017-04-01 16:05,-91.7246,41.8829,M,M,M,300.00,7.00,M,30.24,M,10.00,M,CLR,M,M,M,M,M,M,M,M,KCID 011605Z AUTO 30007KT 10SM CLR A3024 RMK MADISHF
CID,2017-04-01 16:10,-91.7246,41.8829,M,M,M,M,M,M,30.24,M,10.00,M,CLR,M,M,M,M,M,M,M,M,KCID 011610Z AUTO /////KT 10SM CLR A3024 RMK MADISHF
CID,2017-04-01 16:15,-91.7246,41.8829,M,M,M,270.00,6.00,M,30.24,M,10.00,M,CLR,M,M,M,M,M,M,M,M,KCID 011615Z AUTO 27006KT 10SM CLR A3024 RMK MADISHF
CID,2017-04-01 16:20,-91.7246,41.8829,M,M,M,300.00,8.00,M,30.24,M,10.00,M,CLR,M,M,M,M,M,M,M,M,KCID 011620Z AUTO 30008KT 10SM CLR A3024 RMK MADISHF
CID,2017-04-01 16:25,-91.7246,41.8829,M,M,M,290.00,7.00,M,30.24,M,10.00,M,CLR,M,M,M,M,M,M,M,M,KCID 011625Z AUTO 29007KT 10SM CLR A3024 RMK WND 25V32  MADISHF
CID,2017-04-01 16:30,-91.7246,41.8829,M,M,M,280.00,7.00,M,30.23,M,10.00,M,CLR,M,M,M,M,M,M,M,M,KCID 011630Z AUTO 28007KT 10SM CLR A3023 RMK MADISHF
CID,2017-04-01 16:35,-91.7246,41.8829,M,M,M,280.00,7.00,M,30.23,M,10.00,M,CLR,M,M,M,M,M,M,M,M,KCID 011635Z AUTO 28007KT 10SM CLR A3023 RMK MADISHF
CID,2017-04-01 16:40,-91.7246,41.8829,M,M,M,300.00,6.00,M,30.23,M,10.00,M,CLR,M,M,M,M,M,M,M,M,KCID 011640Z AUTO 30006KT 10SM CLR A3023 RMK MADISHF
CID,2017-04-01 16:45,-91.7246,41.8829,M,M,M,300.00,7.00,M,30.23,M,10.00,M,CLR,M,M,M,M,M,M,M,M,KCID 011645Z AUTO 30007KT 10SM CLR A3023 RMK MADISHF
CID,2017-04-01 16:50,-91.7246,41.8829,M,M,M,270.00,7.00,M,30.23,M,10.00,M,CLR,M,M,M,M,M,M,M,M,KCID 011650Z AUTO 27007KT 10SM CLR A3023 RMK MADISHF
CID,2017-04-01 16:52,-91.7246,41.8829,54.00,37.90,54.34,290.00,7.00,0.00,30.23,1024.30,10.00,M,CLR,M,M,M,M,M,M,M,M,KCID 011652Z 29007KT 10SM CLR 12/03 A3023 RMK AO2 SLP243 T01220033
CID,2017-04-01 16:55,-91.7246,41.8829,M,M,M,290.00,6.00,M,30.23,M,10.00,M,CLR,M,M,M,M,M,M,M,M,KCID 011655Z AUTO 29006KT 10SM CLR A3023 RMK MADISHF
CID,2017-04-01 17:00,-91.7246,41.8829,M,M,M,300.00,7.00,M,30.23,M,10.00,M,CLR,M,M,M,M,M,M,M,M,KCID 011700Z AUTO 30007KT 10SM CLR A3023 RMK MADISHF
CID,2017-04-01 17:05,-91.7246,41.8829,M,M,M,290.00,6.00,M,30.23,M,10.00,M,CLR,M,M,M,M,M,M,M,M,KCID 011705Z AUTO 29006KT 10SM CLR A3023 RMK VRB06KT  MADISHF
CID,2017-04-01 17:10,-91.7246,41.8829,M,M,M,300.00,6.00,M,30.23,M,10.00,M,CLR,M,M,M,M,M,M,M,M,KCID 011710Z AUTO 30006KT 10SM CLR A3023 RMK VRB06KT  MADISHF
CID,2017-04-01 17:15,-91.7246,41.8829,M,M,M,270.00,6.00,M,30.23,M,10.00,M,CLR,M,M,M,M,M,M,M,M,KCID 011715Z AUTO 27006KT 10SM CLR A3023 RMK MADISHF
CID,2017-04-01 17:20,-91.7246,41.8829,M,M,M,310.00,6.00,M,30.23,M,10.00,M,CLR,M,M,M,M,M,M,M,M,KCID 011720Z AUTO 31006KT 10SM CLR A3023 RMK MADISHF
CID,2017-04-01 17:25,-91.7246,41.8829,M,M,M,330.00,6.00,M,30.22,M,10.00,M,CLR,M,M,M,M,M,M,M,M,KCID 011725Z AUTO 33006KT 10SM CLR A3022 RMK MADISHF
CID,2017-04-01 17:30,-91.7246,41.8829,M,M,M,310.00,7.00,M,30.22,M,10.00,M,CLR,M,M,M,M,M,M,M,M,KCID 011730Z AUTO 31007KT 10SM CLR A3022 RMK MADISHF
CID,2017-04-01 17:35,-91.7246,41.8829,M,M,M,310.00,6.00,M,30.22,M,10.00,M,CLR,M,M,M,M,M,M,M,M,KCID 011735Z AUTO 31006KT 10SM CLR A3022 RMK MADISHF
CID,2017-04-01 17:40,-91.7246,41.8829,M,M,M,310.00,3.00,M,30.22,M,10.00,M,CLR,M,M,M,M,M,M,M,M,KCID 011740Z AUTO 31003KT 10SM CLR A3022 RMK MADISHF
CID,2017-04-01 17:45,-91.7246,41.8829,M,M,M,310.00,6.00,M,30.22,M,10.00,M,CLR,M,M,M,M,M,M,M,M,KCID 011745Z AUTO 31006KT 10SM CLR A3022 RMK VRB06KT  MADISHF
CID,2017-04-01 17:50,-91.7246,41.8829,M,M,M,280.00,5.00,M,30.22,M,10.00,M,CLR,M,M,M,M,M,M,M,M,KCID 011750Z AUTO 28005KT 10SM CLR A3022 RMK MADISHF
CID,2017-04-01 17:52,-91.7246,41.8829,55.00,39.00,54.70,300.00,7.00,0.00,30.22,1023.80,10.00,M,CLR,M,M,M,M,M,M,M,M,KCID 011752Z 30007KT 10SM CLR 13/04 A3022 RMK AO2 SLP238 T01280039 10128 21006 58002
CID,2017-04-01 17:55,-91.7246,41.8829,M,M,M,300.00,7.00,M,30.22,M,10.00,M,CLR,M,M,M,M,M,M,M,M,KCID 011755Z AUTO 30007KT 10SM CLR A3022 RMK WND 26V32  MADISHF
CID,2017-04-01 18:00,-91.7246,41.8829,M,M,M,330.00,5.00,M,30.22,M,10.00,M,CLR,M,M,M,M,M,M,M,M,KCID 011800Z AUTO 33005KT 10SM CLR A3022 RMK MADISHF
CID,2017-04-01 18:05,-91.7246,41.8829,M,M,M,310.00,7.00,M,30.22,M,10.00,M,CLR,M,M,M,M,M,M,M,M,KCID 011805Z AUTO 31007KT 10SM CLR A3022 RMK MADISHF
CID,2017-04-01 18:10,-91.7246,41.8829,M,M,M,330.00,4.00,M,30.21,M,10.00,M,CLR,M,M,M,M,M,M,M,M,KCID 011810Z AUTO 33004KT 10SM CLR A3021 RMK MADISHF
CID,2017-04-01 18:15,-91.7246,41.8829,M,M,M,280.00,4.00,M,30.21,M,10.00,M,CLR,M,M,M,M,M,M,M,M,KCID 011815Z AUTO 28004KT 10SM CLR A3021 RMK MADISHF
CID,2017-04-01 18:20,-91.7246,41.8829,M,M,M,320.00,5.00,M,30.21,M,10.00,M,CLR,M,M,M,M,M,M,M,M,KCID 011820Z AUTO 32005KT 10SM CLR A3021 RMK MADISHF
CID,2017-04-01 18:25,-91.7246,41.8829,M,M,M,340.00,4.00,M,30.20,M,10.00,M,CLR,M,M,M,M,M,M,M,M,KCID 011825Z AUTO 34004KT 10SM CLR A3020 RMK MADISHF
CID,2017-04-01 18:30,-91.7246,41.8829,M,M,M,350.00,4.00,M,30.20,M,10.00,M,CLR,M,M,M,M,M,M,M,M,KCID 011830Z AUTO 35004KT 10SM CLR A3020 RMK MADISHF
CID,2017-04-01 18:35,-91.7246,41.8829,M,M,M,M,M,M,30.21,M,10.00,M,CLR,M,M,M,M,M,M,M,M,KCID 011835Z AUTO /////KT 10SM CLR A3021 RMK MADISHF
CID,2017-04-01 18:40,-91.7246,41.8829,M,M,M,270.00,3.00,M,30.21,M,10.00,M,CLR,M,M,M,M,M,M,M,M,KCID 011840Z AUTO 27003KT 10SM CLR A3021 RMK VRB03KT  MADISHF
CID,2017-04-01 18:45,-91.7246,41.8829,M,M,M,230.00,5.00,M,30.21,M,10.00,M,CLR,M,M,M,M,M,M,M,M,KCID 011845Z AUTO 23005KT 10SM CLR A3021 RMK MADISHF
CID,2017-04-01 18:50,-91.7246,41.8829,M,M,M,260.00,4.00,M,30.20,M,10.00,M,CLR,M,M,M,M,M,M,M,M,KCID 011850Z AUTO 26004KT 10SM CLR A3020 RMK VRB04KT  MADISHF
CID,2017-04-01 18:52,-91.7246,41.8829,55.90,36.00,47.05,260.00,5.00,0.00,30.20,1023.30,10.00,M,CLR,M,M,M,M,M,M,M,M,KCID 011852Z 26005KT 10SM CLR 13/02 A3020 RMK AO2 SLP233 T01330022
CID,2017-04-01 18:55,-91.7246,41.8829,M,M,M,0.00,0.00,M,30.20,M,10.00,M,CLR,M,M,M,M,M,M,M,M,KCID 011855Z AUTO 00000KT 10SM CLR A3020 RMK MADISHF
CID,2017-04-01 19:00,-91.7246,41.8829,M,M,M,250.00,4.00,M,30.20,M,10.00,M,CLR,M,M,M,M,M,M,M,M,KCID 011900Z AUTO 25004KT 10SM CLR A3020 RMK MADISHF
CID,2017-04-01 19:05,-91.7246,41.8829,M,M,M,0.00,0.00,M,30.20,M,10.00,M,CLR,M,M,M,M,M,M,M,M,KCID 011905Z AUTO 00000KT 10SM CLR A3020 RMK MADISHF
CID,2017-04-01 19:10,-91.7246,41.8829,M,M,M,250.00,6.00,M,30.20,M,10.00,M,CLR,M,M,M,M,M,M,M,M,KCID 011910Z AUTO 25006KT 10SM CLR A3020 RMK MADISHF
CID,2017-04-01 19:15,-91.7246,41.8829,M,M,M,260.00,4.00,M,30.20,M,10.00,M,CLR,M,M,M,M,M,M,M,M,KCID 011915Z AUTO 26004KT 10SM CLR A3020 RMK VRB04KT  MADISHF
CID,2017-04-01 19:20,-91.7246,41.8829,M,M,M,0.00,0.00,M,30.20,M,10.00,M,CLR,M,M,M,M,M,M,M,M,KCID 011920Z AUTO 00000KT 10SM CLR A3020 RMK MADISHF
CID,2017-04-01 19:25,-91.7246,41.8829,M,M,M,0.00,0.00,M,30.20,M,10.00,M,CLR,M,M,M,M,M,M,M,M,KCID 011925Z AUTO 00000KT 10SM CLR A3020 RMK MADISHF
CID,2017-04-01 19:30,-91.7246,41.8829,M,M,M,190.00,3.00,M,30.19,M,10.00,M,CLR,M,M,M,M,M,M,M,M,KCID 011930Z AUTO 19003KT 10SM CLR A3019 RMK MADISHF
CID,2017-04-01 19:35,-91.7246,41.8829,M,M,M,0.00,0.00,M,30.19,M,10.00,M,CLR,M,M,M,M,M,M,M,M,KCID 011935Z AUTO 00000KT 10SM CLR A3019 RMK MADISHF
CID,2017-04-01 19:40,-91.7246,41.8829,M,M,M,330.00,3.00,M,30.19,M,10.00,M,CLR,M,M,M,M,M,M,M,M,KCID 011940Z AUTO 33003KT 10SM CLR A3019 RMK MADISHF
CID,2017-04-01 19:45,-91.7246,41.8829,M,M,M,0.00,0.00,M,30.19,M,10.00,M,CLR,M,M,M,M,M,M,M,M,KCID 011945Z AUTO 00000KT 10SM CLR A3019 RMK MADISHF
CID,2017-04-01 19:50,-91.7246,41.8829,M,M,M,310.00,3.00,M,30.18,M,10.00,M,CLR,M,M,M,M,M,M,M,M,KCID 011950Z AUTO 31003KT 10SM CLR A3018 RMK MADISHF
CID,2017-04-01 19:52,-91.7246,41.8829,57.00,35.10,43.63,0.00,0.00,0.00,30.18,1022.60,10.00,M,CLR,M,M,M,M,M,M,M,M,KCID 011952Z 00000KT 10SM CLR 14/02 A3018 RMK AO2 SLP226 T01390017
CID,2017-04-01 19:55,-91.7246,41.8829,M,M,M,0.00,0.00,M,30.18,M,10.00,M,CLR,M,M,M,M,M,M,M,M,KCID 011955Z AUTO 00000KT 10SM CLR A3018 RMK MADISHF
CID,2017-04-01 20:00,-91.7246,41.8829,M,M,M,0.00,0.00,M,30.18,M,10.00,M,CLR,M,M,M,M,M,M,M,M,KCID 012000Z AUTO 00000KT 10SM CLR A3018 RMK MADISHF
CID,2017-04-01 20:05,-91.7246,41.8829,M,M,M,0.00,0.00,M,30.17,M,10.00,M,CLR,M,M,M,M,M,M,M,M,KCID 012005Z AUTO 00000KT 10SM CLR A3017 RMK MADISHF
CID,2017-04-01 20:10,-91.7246,41.8829,M,M,M,320.00,3.00,M,30.18,M,10.00,M,CLR,M,M,M,M,M,M,M,M,KCID 012010Z AUTO 32003KT 10SM CLR A3018 RMK MADISHF
CID,2017-04-01 20:15,-91.7246,41.8829,M,M,M,10.00,3.00,M,30.18,M,10.00,M,CLR,M,M,M,M,M,M,M,M,KCID 012015Z AUTO 01003KT 10SM CLR A3018 RMK MADISHF
CID,2017-04-01 20:20,-91.7246,41.8829,M,M,M,290.00,3.00,M,30.19,M,10.00,M,CLR,M,M,M,M,M,M,M,M,KCID 012020Z AUTO 29003KT 10SM CLR A3019 RMK VRB03KT  MADISHF
CID,2017-04-01 20:25,-91.7246,41.8829,M,M,M,270.00,3.00,M,30.18,M,10.00,M,CLR,M,M,M,M,M,M,M,M,KCID 012025Z AUTO 27003KT 10SM CLR A3018 RMK VRB03KT  MADISHF
CID,2017-04-01 20:30,-91.7246,41.8829,M,M,M,0.00,0.00,M,30.18,M,10.00,M,CLR,M,M,M,M,M,M,M,M,KCID 012030Z AUTO 00000KT 10SM CLR A3018 RMK MADISHF
CID,2017-04-01 20:35,-91.7246,41.8829,M,M,M,40.00,4.00,M,30.18,M,10.00,M,CLR,M,M,M,M,M,M,M,M,KCID 012035Z AUTO 04004KT 10SM CLR A3018 RMK MADISHF
CID,2017-04-01 20:40,-91.7246,41.8829,M,M,M,20.00,4.00,M,30.18,M,10.00,M,CLR,M,M,M,M,M,M,M,M,KCID 012040Z AUTO 02004KT 10SM CLR A3018 RMK MADISHF
CID,2017-04-01 20:45,-91.7246,41.8829,M,M,M,30.00,3.00,M,30.18,M,10.00,M,CLR,M,M,M,M,M,M,M,M,KCID 012045Z AUTO 03003KT 10SM CLR A3018 RMK MADISHF
CID,2017-04-01 20:50,-91.7246,41.8829,M,M,M,80.00,3.00,M,30.18,M,10.00,M,CLR,M,M,M,M,M,M,M,M,KCID 012050Z AUTO 08003KT 10SM CLR A3018 RMK MADISHF
CID,2017-04-01 20:52,-91.7246,41.8829,57.00,32.00,38.54,0.00,0.00,0.00,30.17,1022.30,10.00,M,CLR,M,M,M,M,M,M,M,M,KCID 012052Z 00000KT 10SM CLR 14/00 A3017 RMK AO2 SLP223 T01390000 56015
CID,2017-04-01 20:55,-91.7246,41.8829,M,M,M,0.00,0.00,M,30.17,M,10.00,M,CLR,M,M,M,M,M,M,M,M,KCID 012055Z AUTO 00000KT 10SM CLR A3017 RMK MADISHF
CID,2017-04-01 21:00,-91.7246,41.8829,M,M,M,0.00,0.00,M,30.17,M,10.00,M,CLR,M,M,M,M,M,M,M,M,KCID 012100Z AUTO 00000KT 10SM CLR A3017 RMK MADISHF
CID,2017-04-01 21:05,-91.7246,41.8829,M,M,M,0.00,0.00,M,30.17,M,10.00,M,CLR,M,M,M,M,M,M,M,M,KCID 012105Z AUTO 00000KT 10SM CLR A3017 RMK MADISHF
CID,2017-04-01 21:10,-91.7246,41.8829,M,M,M,0.00,0.00,M,30.17,M,10.00,M,CLR,M,M,M,M,M,M,M,M,KCID 012110Z AUTO 00000KT 10SM CLR A3017 RMK MADISHF
CID,2017-04-01 21:15,-91.7246,41.8829,M,M,M,0.00,0.00,M,30.17,M,10.00,M,CLR,M,M,M,M,M,M,M,M,KCID 012115Z AUTO 00000KT 10SM CLR A3017 RMK MADISHF
CID,2017-04-01 21:20,-91.7246,41.8829,M,M,M,0.00,0.00,M,30.17,M,10.00,M,CLR,M,M,M,M,M,M,M,M,KCID 012120Z AUTO 00000KT 10SM CLR A3017 RMK MADISHF
CID,2017-04-01 21:25,-91.7246,41.8829,M,M,M,0.00,0.00,M,30.17,M,10.00,M,CLR,M,M,M,M,M,M,M,M,KCID 012125Z AUTO 00000KT 10SM CLR A3017 RMK MADISHF
CID,2017-04-01 21:30,-91.7246,41.8829,M,M,M,320.00,3.00,M,30.17,M,10.00,M,CLR,M,M,M,M,M,M,M,M,KCID 012130Z AUTO 32003KT 10SM CLR A3017 RMK MADISHF
CID,2017-04-01 21:35,-91.7246,41.8829,M,M,M,0.00,0.00,M,30.17,M,10.00,M,CLR,M,M,M,M,M,M,M,M,KCID 012135Z AUTO 00000KT 10SM CLR A3017 RMK MADISHF
CID,2017-04-01 21:40,-91.7246,41.8829,M,M,M,0.00,0.00,M,30.17,M,10.00,M,FEW,M,M,M,12000.00,M,M,M,M,KCID 012140Z AUTO 00000KT 10SM FEW120 A3017 RMK MADISHF
CID,2017-04-01 21:45,-91.7246,41.8829,M,M,M,0.00,0.00,M,30.17,M,10.00,M,FEW,M,M,M,12000.00,M,M,M,M,KCID 012145Z AUTO 00000KT 10SM FEW120 A3017 RMK MADISHF
CID,2017-04-01 21:50,-91.7246,41.8829,M,M,M,0.00,0.00,M,30.17,M,10.00,M,CLR,M,M,M,M,M,M,M,M,KCID 012150Z AUTO 00000KT 10SM CLR A3017 RMK MADISHF
CID,2017-04-01 21:52,-91.7246,41.8829,55.90,32.00,40.10,0.00,0.00,0.00,30.17,1022.00,10.00,M,CLR,M,M,M,M,M,M,M,M,KCID 012152Z 00000KT 10SM CLR 13/00 A3017 RMK AO2 SLP220 T01330000
CID,2017-04-01 21:55,-91.7246,41.8829,M,M,M,0.00,0.00,M,30.16,M,10.00,M,FEW,M,M,M,12000.00,M,M,M,M,KCID 012155Z AUTO 00000KT 10SM FEW120 A3016 RMK MADISHF
CID,2017-04-01 22:00,-91.7246,41.8829,M,M,M,0.00,0.00,M,30.16,M,10.00,M,SCT,M,M,M,12000.00,M,M,M,M,KCID 012200Z AUTO 00000KT 10SM SCT120 A3016 RMK MADISHF
CID,2017-04-01 22:05,-91.7246,41.8829,M,M,M,0.00,0.00,M,30.16,M,10.00,M,FEW,M,M,M,12000.00,M,M,M,M,KCID 012205Z AUTO 00000KT 10SM FEW120 A3016 RMK MADISHF
CID,2017-04-01 22:10,-91.7246,41.8829,M,M,M,0.00,0.00,M,30.16,M,10.00,M,SCT,M,M,M,12000.00,M,M,M,M,KCID 012210Z AUTO 00000KT 10SM SCT120 A3016 RMK MADISHF
CID,2017-04-01 22:15,-91.7246,41.8829,M,M,M,0.00,0.00,M,30.16,M,10.00,M,BKN,M,M,M,11000.00,M,M,M,M,KCID 012215Z AUTO 00000KT 10SM BKN110 A3016 RMK MADISHF
CID,2017-04-01 22:20,-91.7246,41.8829,M,M,M,0.00,0.00,M,30.16,M,10.00,M,BKN,M,M,M,11000.00,M,M,M,M,KCID 012220Z AUTO 00000KT 10SM BKN110 A3016 RMK MADISHF
CID,2017-04-01 22:25,-91.7246,41.8829,M,M,M,0.00,0.00,M,30.16,M,10.00,M,BKN,M,M,M,11000.00,M,M,M,M,KCID 012225Z AUTO 00000KT 10SM BKN110 A3016 RMK MADISHF
CID,2017-04-01 22:30,-91.7246,41.8829,M,M,M,0.00,0.00,M,30.16,M,10.00,M,OVC,M,M,M,11000.00,M,M,M,M,KCID 012230Z AUTO 00000KT 10SM OVC110 A3016 RMK MADISHF
CID,2017-04-01 22:35,-91.7246,41.8829,M,M,M,230.00,4.00,M,30.16,M,10.00,M,OVC,M,M,M,10000.00,M,M,M,M,KCID 012235Z AUTO 23004KT 10SM OVC100 A3016 RMK MADISHF
CID,2017-04-01 22:40,-91.7246,41.8829,M,M,M,230.00,4.00,M,30.17,M,10.00,M,OVC,M,M,M,10000.00,M,M,M,M,KCID 012240Z AUTO 23004KT 10SM OVC100 A3017 RMK MADISHF
CID,2017-04-01 22:45,-91.7246,41.8829,M,M,M,230.00,4.00,M,30.17,M,10.00,M,OVC,M,M,M,10000.00,M,M,M,M,KCID 012245Z AUTO 23004KT 10SM OVC100 A3017 RMK MADISHF
CID,2017-04-01 22:50,-91.7246,41.8829,M,M,M,230.00,4.00,M,30.17,M,10.00,M,OVC,M,M,M,10000.00,M,M,M,M,KCID 012250Z AUTO 23004KT 10SM OVC100 A3017 RMK MADISHF
CID,2017-04-01 22:52,-91.7246,41.8829,55.00,36.00,48.62,230.00,4.00,0.00,30.17,1022.10,10.00,M,OVC,M,M,M,10000.00,M,M,M,M,KCID 012252Z 23004KT 10SM OVC100 13/02 A3017 RMK AO2 SLP221 T01280022
CID,2017-04-01 22:55,-91.7246,41.8829,M,M,M,220.00,4.00,M,30.17,M,10.00,M,OVC,M,M,M,10000.00,M,M,M,M,KCID 012255Z AUTO 22004KT 10SM OVC100 A3017 RMK MADISHF
CID,2017-04-01 23:00,-91.7246,41.8829,M,M,M,220.00,3.00,M,30.17,M,10.00,M,OVC,M,M,M,10000.00,M,M,M,M,KCID 012300Z AUTO 22003KT 10SM OVC100 A3017 RMK MADISHF
CID,2017-04-01 23:05,-91.7246,41.8829,M,M,M,M,M,M,30.17,M,10.00,M,OVC,M,M,M,10000.00,M,M,M,M,KCID 012305Z AUTO /////KT 10SM OVC100 A3017 RMK MADISHF
CID,2017-04-01 23:10,-91.7246,41.8829,M,M,M,260.00,3.00,M,30.17,M,10.00,M,OVC,M,M,M,10000.00,M,M,M,M,KCID 012310Z AUTO 26003KT 10SM OVC100 A3017 RMK MADISHF
CID,2017-04-01 23:15,-91.7246,41.8829,M,M,M,250.00,3.00,M,30.17,M,10.00,M,OVC,M,M,M,10000.00,M,M,M,M,KCID 012315Z AUTO 25003KT 10SM OVC100 A3017 RMK MADISHF
CID,2017-04-01 23:20,-91.7246,41.8829,M,M,M,0.00,0.00,M,30.17,M,10.00,M,OVC,M,M,M,10000.00,M,M,M,M,KCID 012320Z AUTO 00000KT 10SM OVC100 A3017 RMK MADISHF
CID,2017-04-01 23:25,-91.7246,41.8829,M,M,M,0.00,0.00,M,30.16,M,10.00,M,OVC,M,M,M,10000.00,M,M,M,M,KCID 012325Z AUTO 00000KT 10SM OVC100 A3016 RMK MADISHF
CID,2017-04-01 23:30,-91.7246,41.8829,M,M,M,0.00,0.00,M,30.16,M,10.00,M,OVC,M,M,M,10000.00,M,M,M,M,KCID 012330Z AUTO 00000KT 10SM OVC100 A3016 RMK MADISHF
CID,2017-04-01 23:35,-91.7246,41.8829,M,M,M,0.00,0.00,M,30.16,M,10.00,M,OVC,M,M,M,10000.00,M,M,M,M,KCID 012335Z AUTO 00000KT 10SM OVC100 A3016 RMK MADISHF
CID,2017-04-01 23:40,-91.7246,41.8829,M,M,M,0.00,0.00,M,30.16,M,10.00,M,OVC,M,M,M,10000.00,M,M,M,M,KCID 012340Z AUTO 00000KT 10SM OVC100 A3016 RMK MADISHF
CID,2017-04-01 23:45,-91.7246,41.8829,M,M,M,0.00,0.00,M,30.16,M,10.00,M,OVC,M,M,M,10000.00,M,M,M,M,KCID 012345Z AUTO 00000KT 10SM OVC100 A3016 RMK MADISHF
CID,2017-04-01 23:50,-91.7246,41.8829,M,M,M,0.00,0.00,M,30.16,M,10.00,M,OVC,M,M,M,10000.00,M,M,M,M,KCID 012350Z AUTO 00000KT 10SM OVC100 A3016 RMK MADISHF
CID,2017-04-01 23:52,-91.7246,41.8829,54.00,37.90,54.34,0.00,0.00,0.00,30.15,1021.60,10.00,M,OVC,M,M,M,10000.00,M,M,M,M,KCID 012352Z 00000KT 10SM OVC100 12/03 A3015 RMK AO2 SLP216 T01220033 10144 20122 58007
CID,2017-04-01 23:55,-91.7246,41.8829,M,M,M,0.00,0.00,M,30.16,M,10.00,M,OVC,M,M,M,10000.00,M,M,M,M,KCID 012355Z AUTO 00000KT 10SM OVC100 A3016 RMK MADISHF
