#DEBUG: Format Typ    -> comma
#DEBUG: Time Period   -> 2017-04-01 00:00:00+00:00 2017-04-02 00:00:00+00:00
#DEBUG: Time Zone     -> Etc/UTC
#DEBUG: Data Contact   -> daryl herzmann akrherz@iastate.edu 515-294-5978
#DEBUG: Entries Found -> -1
station,valid,lon,lat,tmpf, dwpf, relh, drct, sknt, p01i, alti, mslp, vsby, gust, skyc1, skyc2, skyc3, skyc4, skyl1, skyl2, skyl3, skyl4, presentwx, metar
CKB,2017-04-01 00:00,-80.2281,39.2966,M,M,M,250.00,12.00,M,29.71,M,10.00,M,OVC,M,M,M,999.00,M,M,M,-RA,KCKB 010000Z AUTO 25012KT 10SM -RA OVC009 A2971 RMK MADISHF
CKB,2017-04-01 00:05,-80.2281,39.2966,M,M,M,250.00,12.00,M,29.71,M,10.00,M,OVC,M,M,M,999.00,M,M,M,M,KCKB 010005Z AUTO 25012KT 10SM OVC009 A2971 RMK MADISHF
CKB,2017-04-01 00:10,-80.2281,39.2966,M,M,M,250.00,12.00,M,29.71,M,10.00,18.00,OVC,M,M,M,999.00,M,M,M,M,KCKB 010010Z AUTO 25012G18KT 10SM OVC009 A2971 RMK MADISHF
CKB,2017-04-01 00:15,-80.2281,39.2966,M,M,M,250.00,10.00,M,29.71,M,8.00,M,BKN,OVC,M,M,1100.00,1500.00,M,M,M,KCKB 010015Z AUTO 25010KT 8SM BKN011 OVC015 A2971 RMK CIG 8V13  MADISHF
CKB,2017-04-01 00:20,-80.2281,39.2966,M,M,M,240.00,10.00,0.01,29.71,M,7.00,M,BKN,OVC,M,M,1100.00,1400.00,M,M,M,KCKB 010020Z AUTO 24010KT 7SM BKN011 OVC014 A2971 RMK P0001 CIG 7V13  MADISHF
CKB,2017-04-01 00:25,-80.2281,39.2966,M,M,M,240.00,10.00,0.01,29.71,M,5.00,M,BKN,OVC,M,M,999.00,1500.00,M,M,BR,KCKB 010025Z AUTO 24010KT 5SM BR BKN009 OVC015 A2971 RMK P0001 MADISHF
CKB,2017-04-01 00:30,-80.2281,39.2966,M,M,M,240.00,9.00,0.01,29.72,M,5.00,M,BKN,OVC,M,M,999.00,1500.00,M,M,BR,KCKB 010030Z AUTO 24009KT 5SM BR BKN009 OVC015 A2972 RMK P0001 MADISHF
CKB,2017-04-01 00:35,-80.2281,39.2966,M,M,M,240.00,8.00,0.01,29.72,M,6.00,M,BKN,OVC,M,M,999.00,1500.00,M,M,BR,KCKB 010035Z AUTO 24008KT 6SM BR BKN009 OVC015 A2972 RMK P0001 MADISHF
CKB,2017-04-01 00:40,-80.2281,39.2966,M,M,M,250.00,7.00,0.01,29.72,M,7.00,M,BKN,OVC,M,M,999.00,1500.00,M,M,M,KCKB 010040Z AUTO 25007KT 7SM BKN009 OVC015 A2972 RMK P0001 MADISHF
CKB,2017-04-01 00:45,-80.2281,39.2966,M,M,M,250.00,8.00,0.01,29.72,M,9.00,M,BKN,OVC,M,M,999.00,1500.00,M,M,M,KCKB 010045Z AUTO 25008KT 9SM BKN009 OVC015 A2972 RMK P0001 MADISHF
CKB,2017-04-01 00:50,-80.2281,39.2966,M,M,M,240.00,10.00,0.01,29.72,M,9.00,M,BKN,OVC,M,M,999.00,1500.00,M,M,M,KCKB 010050Z AUTO 24010KT 9SM BKN009 OVC015 A2972 RMK P0001 MADISHF
CKB,2017-04-01 00:53,-80.2281,39.2966,51.10,48.00,89.09,240.00,11.00,0.01,29.72,1005.90,8.00,M,OVC,M,M,M,800.00,M,M,M,M,KCKB 010053Z 24011KT 8SM OVC008 11/09 A2972 RMK AO2 RAE04 SLP059 P0001 T01060089
CKB,2017-04-01 00:55,-80.2281,39.2966,M,M,M,250.00,10.00,M,29.72,M,8.00,M,OVC,M,M,M,800.00,M,M,M,M,KCKB 010055Z AUTO 25010KT 8SM OVC008 A2972 RMK CIG 6V10  MADISHF
CKB,2017-04-01 01:00,-80.2281,39.2966,M,M,M,240.00,10.00,M,29.73,M,8.00,M,OVC,M,M,M,800.00,M,M,M,M,KCKB 010100Z AUTO 24010KT 8SM OVC008 A2973 RMK CIG 6V11  MADISHF
CKB,2017-04-01 01:05,-80.2281,39.2966,M,M,M,250.00,9.00,M,29.73,M,7.00,M,OVC,M,M,M,800.00,M,M,M,M,KCKB 010105Z AUTO 25009KT 7SM OVC008 A2973 RMK CIG 7V11  MADISHF
CKB,2017-04-01 01:10,-80.2281,39.2966,M,M,M,240.00,11.00,M,29.73,M,5.00,M,OVC,M,M,M,800.00,M,M,M,BR,KCKB 010110Z AUTO 24011KT 5SM BR OVC008 A2973 RMK CIG 6V12  MADISHF
CKB,2017-04-01 01:15,-80.2281,39.2966,M,M,M,250.00,9.00,M,29.73,M,4.00,M,OVC,M,M,M,800.00,M,M,M,BR,KCKB 010115Z AUTO 25009KT 4SM BR OVC008 A2973 RMK CIG 6V10  MADISHF
CKB,2017-04-01 01:20,-80.2281,39.2966,M,M,M,240.00,9.00,M,29.73,M,4.00,M,OVC,M,M,M,800.00,M,M,M,BR,KCKB 010120Z AUTO 24009KT 4SM BR OVC008 A2973 RMK CIG 5V12  MADISHF
CKB,2017-04-01 01:25,-80.2281,39.2966,M,M,M,260.00,10.00,M,29.74,M,4.00,M,OVC,M,M,M,800.00,M,M,M,BR,KCKB 010125Z AUTO 26010KT 4SM BR OVC008 A2974 RMK CIG 5V12  MADISHF
CKB,2017-04-01 01:30,-80.2281,39.2966,M,M,M,240.00,9.00,M,29.74,M,6.00,M,OVC,M,M,M,800.00,M,M,M,BR,KCKB 010130Z AUTO 24009KT 6SM BR OVC008 A2974 RMK CIG 5V12  MADISHF
CKB,2017-04-01 01:35,-80.2281,39.2966,M,M,M,250.00,9.00,M,29.74,M,8.00,M,OVC,M,M,M,700.00,M,M,M,M,KCKB 010135Z AUTO 25009KT 8SM OVC007 A2974 RMK CIG 5V12  MADISHF
CKB,2017-04-01 01:40,-80.2281,39.2966,M,M,M,250.00,9.00,M,29.74,M,8.00,M,OVC,M,M,M,700.00,M,M,M,M,KCKB 010140Z AUTO 25009KT 8SM OVC007 A2974 RMK CIG 5V12  MADISHF
CKB,2017-04-01 01:45,-80.2281,39.2966,M,M,M,260.00,9.00,M,29.74,M,9.00,M,OVC,M,M,M,700.00,M,M,M,M,KCKB 010145Z AUTO 26009KT 9SM OVC007 A2974 RMK CIG 5V11  MADISHF
CKB,2017-04-01 01:50,-80.2281,39.2966,M,M,M,250.00,8.00,M,29.74,M,7.00,M,OVC,M,M,M,700.00,M,M,M,M,KCKB 010150Z AUTO 25008KT 7SM OVC007 A2974 RMK CIG 6V11  MADISHF
CKB,2017-04-01 01:53,-80.2281,39.2966,51.10,48.90,92.14,240.00,11.00,0.00,29.74,1006.60,6.00,M,OVC,M,M,M,700.00,M,M,M,BR,KCKB 010153Z 24011KT 6SM BR OVC007 11/09 A2974 RMK AO2 SLP066 T01060094
CKB,2017-04-01 01:55,-80.2281,39.2966,M,M,M,240.00,10.00,M,29.75,M,6.00,M,OVC,M,M,M,700.00,M,M,M,BR,KCKB 010155Z AUTO 24010KT 6SM BR OVC007 A2975 RMK MADISHF
CKB,2017-04-01 02:00,-80.2281,39.2966,M,M,M,250.00,9.00,M,29.75,M,6.00,M,OVC,M,M,M,700.00,M,M,M,BR,KCKB 010200Z AUTO 25009KT 6SM BR OVC007 A2975 RMK MADISHF
CKB,2017-04-01 02:05,-80.2281,39.2966,M,M,M,240.00,7.00,M,29.75,M,7.00,M,OVC,M,M,M,700.00,M,M,M,M,KCKB 010205Z AUTO 24007KT 7SM OVC007 A2975 RMK MADISHF
CKB,2017-04-01 02:10,-80.2281,39.2966,M,M,M,250.00,8.00,M,29.75,M,7.00,M,OVC,M,M,M,700.00,M,M,M,M,KCKB 010210Z AUTO 25008KT 7SM OVC007 A2975 RMK CIG 6V10  MADISHF
CKB,2017-04-01 02:15,-80.2281,39.2966,M,M,M,250.00,7.00,M,29.75,M,6.00,M,OVC,M,M,M,700.00,M,M,M,BR,KCKB 010215Z AUTO 25007KT 6SM BR OVC007 A2975 RMK CIG 6V10  MADISHF
CKB,2017-04-01 02:20,-80.2281,39.2966,M,M,M,260.00,7.00,M,29.75,M,6.00,M,OVC,M,M,M,700.00,M,M,M,BR,KCKB 010220Z AUTO 26007KT 6SM BR OVC007 A2975 RMK CIG 6V10  MADISHF
CKB,2017-04-01 02:25,-80.2281,39.2966,M,M,M,250.00,8.00,M,29.75,M,6.00,M,OVC,M,M,M,700.00,M,M,M,BR,KCKB 010225Z AUTO 25008KT 6SM BR OVC007 A2975 RMK CIG 6V10  MADISHF
CKB,2017-04-01 02:30,-80.2281,39.2966,M,M,M,250.00,9.00,M,29.75,M,8.00,M,OVC,M,M,M,700.00,M,M,M,M,KCKB 010230Z AUTO 25009KT 8SM OVC007 A2975 RMK CIG 6V10  MADISHF
CKB,2017-04-01 02:35,-80.2281,39.2966,M,M,M,250.00,10.00,M,29.75,M,9.00,M,OVC,M,M,M,700.00,M,M,M,M,KCKB 010235Z AUTO 25010KT 9SM OVC007 A2975 RMK MADISHF
CKB,2017-04-01 02:40,-80.2281,39.2966,M,M,M,260.00,8.00,M,29.75,M,8.00,M,OVC,M,M,M,700.00,M,M,M,M,KCKB 010240Z AUTO 26008KT 8SM OVC007 A2975 RMK CIG 6V11  MADISHF
CKB,2017-04-01 02:45,-80.2281,39.2966,M,M,M,250.00,11.00,M,29.75,M,7.00,16.00,OVC,M,M,M,700.00,M,M,M,M,KCKB 010245Z AUTO 25011G16KT 7SM OVC007 A2975 RMK MADISHF
CKB,2017-04-01 02:50,-80.2281,39.2966,M,M,M,250.00,9.00,M,29.75,M,8.00,M,OVC,M,M,M,700.00,M,M,M,M,KCKB 010250Z AUTO 25009KT 8SM OVC007 A2975 RMK CIG 6V11  MADISHF
CKB,2017-04-01 02:53,-80.2281,39.2966,51.10,48.90,92.14,250.00,10.00,0.00,29.75,1006.90,8.00,M,OVC,M,M,M,700.00,M,M,M,M,KCKB 010253Z 25010KT 8SM OVC007 11/09 A2975 RMK AO2 CIG 006V011 SLP069 60001 T01060094 51016
CKB,2017-04-01 02:55,-80.2281,39.2966,M,M,M,250.00,10.00,M,29.75,M,8.00,M,OVC,M,M,M,800.00,M,M,M,M,KCKB 010255Z AUTO 25010KT 8SM OVC008 A2975 RMK CIG 6V11  MADISHF
CKB,2017-04-01 03:00,-80.2281,39.2966,M,M,M,250.00,9.00,M,29.75,M,7.00,14.00,OVC,M,M,M,800.00,M,M,M,M,KCKB 010300Z AUTO 25009G14KT 7SM OVC008 A2975 RMK CIG 7V11  MADISHF
CKB,2017-04-01 03:05,-80.2281,39.2966,M,M,M,250.00,8.00,M,29.75,M,6.00,M,OVC,M,M,M,800.00,M,M,M,BR,KCKB 010305Z AUTO 25008KT 6SM BR OVC008 A2975 RMK CIG 7V11  MADISHF
CKB,2017-04-01 03:10,-80.2281,39.2966,M,M,M,250.00,11.00,M,29.75,M,6.00,M,OVC,M,M,M,800.00,M,M,M,BR,KCKB 010310Z AUTO 25011KT 6SM BR OVC008 A2975 RMK CIG 7V12  MADISHF
CKB,2017-04-01 03:15,-80.2281,39.2966,M,M,M,250.00,11.00,M,29.75,M,6.00,M,OVC,M,M,M,800.00,M,M,M,BR,KCKB 010315Z AUTO 25011KT 6SM BR OVC008 A2975 RMK CIG 6V12  MADISHF
CKB,2017-04-01 03:20,-80.2281,39.2966,M,M,M,250.00,8.00,M,29.75,M,7.00,M,OVC,M,M,M,800.00,M,M,M,M,KCKB 010320Z AUTO 25008KT 7SM OVC008 A2975 RMK CIG 6V11  MADISHF
CKB,2017-04-01 03:25,-80.2281,39.2966,M,M,M,260.00,8.00,M,29.75,M,8.00,M,OVC,M,M,M,800.00,M,M,M,-RA,KCKB 010325Z AUTO 26008KT 8SM -RA OVC008 A2975 RMK CIG 6V11  MADISHF
CKB,2017-04-01 03:30,-80.2281,39.2966,M,M,M,250.00,11.00,M,29.76,M,9.00,M,OVC,M,M,M,800.00,M,M,M,-RA,KCKB 010330Z AUTO 25011KT 9SM -RA OVC008 A2976 RMK CIG 6V10  MADISHF
CKB,2017-04-01 03:35,-80.2281,39.2966,M,M,M,250.00,8.00,M,29.76,M,10.00,M,OVC,M,M,M,800.00,M,M,M,M,KCKB 010335Z AUTO 25008KT 10SM OVC008 A2976 RMK MADISHF
CKB,2017-04-01 03:40,-80.2281,39.2966,M,M,M,250.00,8.00,M,29.76,M,10.00,M,OVC,M,M,M,800.00,M,M,M,M,KCKB 010340Z AUTO 25008KT 10SM OVC008 A2976 RMK CIG 6V13  MADISHF
CKB,2017-04-01 03:45,-80.2281,39.2966,M,M,M,250.00,7.00,M,29.76,M,8.00,M,OVC,M,M,M,800.00,M,M,M,M,KCKB 010345Z AUTO 25007KT 8SM OVC008 A2976 RMK CIG 7V12  MADISHF
CKB,2017-04-01 03:50,-80.2281,39.2966,M,M,M,250.00,8.00,M,29.76,M,5.00,M,OVC,M,M,M,800.00,M,M,M,BR,KCKB 010350Z AUTO 25008KT 5SM BR OVC008 A2976 RMK CIG 5V12  MADISHF
CKB,2017-04-01 03:53,-80.2281,39.2966,51.10,48.90,92.14,250.00,10.00,0.00,29.76,1007.00,4.00,M,OVC,M,M,M,800.00,M,M,M,BR,KCKB 010353Z 25010KT 4SM BR OVC008 11/09 A2976 RMK AO2 RAB21E31 CIG 005V012 SLP070 P0000 T01060094
CKB,2017-04-01 03:55,-80.2281,39.2966,M,M,M,250.00,12.00,M,29.76,M,4.00,M,OVC,M,M,M,800.00,M,M,M,BR,KCKB 010355Z AUTO 25012KT 4SM BR OVC008 A2976 RMK CIG 5V12  MADISHF
CKB,2017-04-01 04:00,-80.2281,39.2966,M,M,M,250.00,10.00,M,29.76,M,3.00,M,OVC,M,M,M,800.00,M,M,M,BR,KCKB 010400Z AUTO 25010KT 3SM BR OVC008 A2976 RMK CIG 5V11  MADISHF
CKB,2017-04-01 04:05,-80.2281,39.2966,M,M,M,250.00,9.00,M,29.76,M,3.00,M,OVC,M,M,M,800.00,M,M,M,BR,KCKB 010405Z AUTO 25009KT 3SM BR OVC008 A2976 RMK CIG 4V11  MADISHF
CKB,2017-04-01 04:10,-80.2281,39.2966,M,M,M,250.00,8.00,M,29.76,M,3.50,M,OVC,M,M,M,600.00,M,M,M,BR,KCKB 010410Z AUTO 25008KT 3SM BR OVC006 A2976 RMK CIG 4V11  MADISHF
CKB,2017-04-01 04:15,-80.2281,39.2966,M,M,M,250.00,9.00,M,29.76,M,4.00,M,BKN,OVC,M,M,600.00,999.00,M,M,BR,KCKB 010415Z AUTO 25009KT 4SM BR BKN006 OVC009 A2976 RMK CIG 4V8  MADISHF
CKB,2017-04-01 04:20,-80.2281,39.2966,M,M,M,250.00,9.00,M,29.76,M,6.00,M,BKN,OVC,M,M,600.00,999.00,M,M,BR,KCKB 010420Z AUTO 25009KT 6SM BR BKN006 OVC009 A2976 RMK CIG 4V8  MADISHF
CKB,2017-04-01 04:25,-80.2281,39.2966,M,M,M,250.00,9.00,M,29.76,M,6.00,M,OVC,M,M,M,600.00,M,M,M,BR,KCKB 010425Z AUTO 25009KT 6SM BR OVC006 A2976 RMK CIG 4V9  MADISHF
CKB,2017-04-01 04:30,-80.2281,39.2966,M,M,M,250.00,7.00,M,29.76,M,7.00,M,OVC,M,M,M,600.00,M,M,M,M,KCKB 010430Z AUTO 25007KT 7SM OVC006 A2976 RMK CIG 4V12  MADISHF
CKB,2017-04-01 04:35,-80.2281,39.2966,M,M,M,260.00,8.00,M,29.76,M,9.00,M,OVC,M,M,M,700.00,M,M,M,M,KCKB 010435Z AUTO 26008KT 9SM OVC007 A2976 RMK CIG 5V12  MADISHF
CKB,2017-04-01 04:40,-80.2281,39.2966,M,M,M,260.00,8.00,M,29.76,M,10.00,M,OVC,M,M,M,700.00,M,M,M,M,KCKB 010440Z AUTO 26008KT 10SM OVC007 A2976 RMK CIG 5V12  MADISHF
CKB,2017-04-01 04:45,-80.2281,39.2966,M,M,M,260.00,6.00,M,29.77,M,10.00,M,OVC,M,M,M,800.00,M,M,M,M,KCKB 010445Z AUTO 26006KT 10SM OVC008 A2977 RMK CIG 5V11  MADISHF
CKB,2017-04-01 04:50,-80.2281,39.2966,M,M,M,260.00,7.00,M,29.77,M,9.00,M,OVC,M,M,M,800.00,M,M,M,M,KCKB 010450Z AUTO 26007KT 9SM OVC008 A2977 RMK CIG 5V11  MADISHF
CKB,2017-04-01 04:53,-80.2281,39.2966,51.10,48.90,92.14,260.00,8.00,0.00,29.76,1007.10,9.00,M,OVC,M,M,M,800.00,M,M,M,M,KCKB 010453Z 26008KT 9SM OVC008 11/09 A2976 RMK AO2 CIG 005V012 SLP071 T01060094 401720100
CKB,2017-04-01 04:55,-80.2281,39.2966,M,M,M,260.00,8.00,M,29.77,M,8.00,M,OVC,M,M,M,800.00,M,M,M,M,KCKB 010455Z AUTO 26008KT 8SM OVC008 A2977 RMK CIG 5V12  MADISHF
CKB,2017-04-01 05:00,-80.2281,39.2966,M,M,M,250.00,8.00,M,29.77,M,8.00,M,OVC,M,M,M,800.00,M,M,M,M,KCKB 010500Z AUTO 25008KT 8SM OVC008 A2977 RMK CIG 6V12  MADISHF
CKB,2017-04-01 05:05,-80.2281,39.2966,M,M,M,260.00,9.00,M,29.77,M,9.00,M,OVC,M,M,M,800.00,M,M,M,M,KCKB 010505Z AUTO 26009KT 9SM OVC008 A2977 RMK CIG 6V12  MADISHF
CKB,2017-04-01 05:10,-80.2281,39.2966,M,M,M,260.00,8.00,M,29.77,M,10.00,M,OVC,M,M,M,800.00,M,M,M,M,KCKB 010510Z AUTO 26008KT 10SM OVC008 A2977 RMK CIG 6V12  MADISHF
CKB,2017-04-01 05:15,-80.2281,39.2966,M,M,M,270.00,8.00,M,29.77,M,10.00,M,OVC,M,M,M,800.00,M,M,M,M,KCKB 010515Z AUTO 27008KT 10SM OVC008 A2977 RMK CIG 6V12  MADISHF
CKB,2017-04-01 05:20,-80.2281,39.2966,M,M,M,270.00,9.00,M,29.77,M,10.00,M,OVC,M,M,M,800.00,M,M,M,M,KCKB 010520Z AUTO 27009KT 10SM OVC008 A2977 RMK CIG 6V12  MADISHF
CKB,2017-04-01 05:25,-80.2281,39.2966,M,M,M,270.00,9.00,M,29.77,M,9.00,M,OVC,M,M,M,800.00,M,M,M,M,KCKB 010525Z AUTO 27009KT 9SM OVC008 A2977 RMK MADISHF
CKB,2017-04-01 05:30,-80.2281,39.2966,M,M,M,270.00,10.00,M,29.78,M,8.00,M,OVC,M,M,M,800.00,M,M,M,-RA,KCKB 010530Z AUTO 27010KT 8SM -RA OVC008 A2978 RMK MADISHF
CKB,2017-04-01 05:35,-80.2281,39.2966,M,M,M,260.00,8.00,M,29.78,M,7.00,M,OVC,M,M,M,800.00,M,M,M,-RA,KCKB 010535Z AUTO 26008KT 7SM -RA OVC008 A2978 RMK CIG 6V11  MADISHF
CKB,2017-04-01 05:40,-80.2281,39.2966,M,M,M,270.00,8.00,M,29.78,M,7.00,M,OVC,M,M,M,800.00,M,M,M,-RA,KCKB 010540Z AUTO 27008KT 7SM -RA OVC008 A2978 RMK MADISHF
CKB,2017-04-01 05:45,-80.2281,39.2966,M,M,M,270.00,9.00,M,29.78,M,7.00,M,OVC,M,M,M,700.00,M,M,M,-RA,KCKB 010545Z AUTO 27009KT 7SM -RA OVC007 A2978 RMK MADISHF
CKB,2017-04-01 05:50,-80.2281,39.2966,M,M,M,260.00,8.00,M,29.78,M,7.00,M,OVC,M,M,M,700.00,M,M,M,M,KCKB 010550Z AUTO 26008KT 7SM OVC007 A2978 RMK MADISHF
CKB,2017-04-01 05:53,-80.2281,39.2966,50.00,48.00,92.80,270.00,7.00,0.00,29.78,1008.00,7.00,M,OVC,M,M,M,700.00,M,M,M,M,KCKB 010553Z 27007KT 7SM OVC007 10/09 A2978 RMK AO2 RAB26E49 SLP080 P0000 60001 T01000089 10106 20100 53010
CKB,2017-04-01 05:55,-80.2281,39.2966,M,M,M,260.00,8.00,M,29.79,M,7.00,M,OVC,M,M,M,700.00,M,M,M,M,KCKB 010555Z AUTO 26008KT 7SM OVC007 A2979 RMK MADISHF
CKB,2017-04-01 06:00,-80.2281,39.2966,M,M,M,260.00,8.00,M,29.79,M,7.00,M,OVC,M,M,M,700.00,M,M,M,-RA,KCKB 010600Z AUTO 26008KT 7SM -RA OVC007 A2979 RMK CIG 6V10  MADISHF
CKB,2017-04-01 06:05,-80.2281,39.2966,M,M,M,260.00,9.00,M,29.79,M,6.00,M,OVC,M,M,M,700.00,M,M,M,-RA BR,KCKB 010605Z AUTO 26009KT 6SM -RA BR OVC007 A2979 RMK CIG 6V10  MADISHF
CKB,2017-04-01 06:10,-80.2281,39.2966,M,M,M,270.00,7.00,M,29.79,M,6.00,M,OVC,M,M,M,700.00,M,M,M,-RA BR,KCKB 010610Z AUTO 27007KT 6SM -RA BR OVC007 A2979 RMK CIG 6V12  MADISHF
CKB,2017-04-01 06:15,-80.2281,39.2966,M,M,M,270.00,7.00,M,29.79,M,7.00,M,OVC,M,M,M,700.00,M,M,M,-RA,KCKB 010615Z AUTO 27007KT 7SM -RA OVC007 A2979 RMK CIG 6V12  MADISHF
CKB,2017-04-01 06:20,-80.2281,39.2966,M,M,M,270.00,10.00,M,29.79,M,5.00,16.00,OVC,M,M,M,700.00,M,M,M,-RA BR,KCKB 010620Z AUTO 27010G16KT 5SM -RA BR OVC007 A2979 RMK CIG 6V12  MADISHF
CKB,2017-04-01 06:25,-80.2281,39.2966,M,M,M,270.00,10.00,M,29.80,M,5.00,M,OVC,M,M,M,700.00,M,M,M,-RA BR,KCKB 010625Z AUTO 27010KT 5SM -RA BR OVC007 A2980 RMK CIG 6V12  MADISHF
CKB,2017-04-01 06:30,-80.2281,39.2966,M,M,M,270.00,9.00,M,29.80,M,4.00,M,OVC,M,M,M,700.00,M,M,M,-RA BR,KCKB 010630Z AUTO 27009KT 4SM -RA BR OVC007 A2980 RMK CIG 6V11  MADISHF
CKB,2017-04-01 06:35,-80.2281,39.2966,M,M,M,280.00,9.00,M,29.81,M,5.00,M,OVC,M,M,M,700.00,M,M,M,-RA BR,KCKB 010635Z AUTO 28009KT 5SM -RA BR OVC007 A2981 RMK CIG 6V11  MADISHF
CKB,2017-04-01 06:40,-80.2281,39.2966,M,M,M,270.00,11.00,M,29.81,M,6.00,M,OVC,M,M,M,700.00,M,M,M,-RA BR,KCKB 010640Z AUTO 27011KT 6SM -RA BR OVC007 A2981 RMK CIG 6V11  MADISHF
CKB,2017-04-01 06:45,-80.2281,39.2966,M,M,M,280.00,12.00,M,29.81,M,7.00,M,OVC,M,M,M,700.00,M,M,M,-RA,KCKB 010645Z AUTO 28012KT 7SM -RA OVC007 A2981 RMK MADISHF
CKB,2017-04-01 06:50,-80.2281,39.2966,M,M,M,280.00,12.00,M,29.82,M,9.00,M,OVC,M,M,M,700.00,M,M,M,-RA,KCKB 010650Z AUTO 28012KT 9SM -RA OVC007 A2982 RMK CIG 5V11  MADISHF
CKB,2017-04-01 06:53,-80.2281,39.2966,48.00,45.00,89.29,280.00,12.00,0.00,29.82,1009.30,10.00,M,OVC,M,M,M,700.00,M,M,M,M,KCKB 010653Z 28012KT 10SM OVC007 09/07 A2982 RMK AO2 RAB0557E53 CIG 005V010 SLP093 P0000 T00890072
CKB,2017-04-01 06:55,-80.2281,39.2966,M,M,M,270.00,10.00,M,29.82,M,10.00,M,OVC,M,M,M,700.00,M,M,M,M,KCKB 010655Z AUTO 27010KT 10SM OVC007 A2982 RMK CIG 5V10  MADISHF
CKB,2017-04-01 07:00,-80.2281,39.2966,M,M,M,280.00,9.00,M,29.83,M,10.00,M,OVC,M,M,M,499.00,M,M,M,M,KCKB 010700Z AUTO 28009KT 10SM OVC004 A2983 RMK CIG 5V8  MADISHF
CKB,2017-04-01 07:05,-80.2281,39.2966,M,M,M,280.00,11.00,M,29.83,M,10.00,M,OVC,M,M,M,499.00,M,M,M,M,KCKB 010705Z AUTO 28011KT 10SM OVC004 A2983 RMK CIG 5V8  MADISHF
CKB,2017-04-01 07:10,-80.2281,39.2966,M,M,M,300.00,11.00,M,29.83,M,10.00,M,OVC,M,M,M,499.00,M,M,M,M,KCKB 010710Z AUTO 30011KT 10SM OVC004 A2983 RMK CIG 5V9  MADISHF
CKB,2017-04-01 07:15,-80.2281,39.2966,M,M,M,300.00,11.00,M,29.83,M,10.00,M,OVC,M,M,M,499.00,M,M,M,M,KCKB 010715Z AUTO 30011KT 10SM OVC004 A2983 RMK MADISHF
CKB,2017-04-01 07:20,-80.2281,39.2966,M,M,M,300.00,9.00,M,29.84,M,10.00,M,OVC,M,M,M,600.00,M,M,M,M,KCKB 010720Z AUTO 30009KT 10SM OVC006 A2984 RMK MADISHF
CKB,2017-04-01 07:25,-80.2281,39.2966,M,M,M,300.00,13.00,M,29.84,M,10.00,M,OVC,M,M,M,600.00,M,M,M,M,KCKB 010725Z AUTO 30013KT 10SM OVC006 A2984 RMK MADISHF
CKB,2017-04-01 07:30,-80.2281,39.2966,M,M,M,310.00,9.00,M,29.84,M,10.00,M,OVC,M,M,M,600.00,M,M,M,-RA,KCKB 010730Z AUTO 31009KT 10SM -RA OVC006 A2984 RMK MADISHF
CKB,2017-04-01 07:35,-80.2281,39.2966,M,M,M,310.00,10.00,M,29.85,M,9.00,M,OVC,M,M,M,499.00,M,M,M,-RA,KCKB 010735Z AUTO 31010KT 9SM -RA OVC004 A2985 RMK MADISHF
CKB,2017-04-01 07:40,-80.2281,39.2966,M,M,M,300.00,8.00,M,29.85,M,7.00,M,OVC,M,M,M,499.00,M,M,M,-RA,KCKB 010740Z AUTO 30008KT 7SM -RA OVC004 A2985 RMK MADISHF
CKB,2017-04-01 07:45,-80.2281,39.2966,M,M,M,310.00,10.00,M,29.85,M,6.00,M,OVC,M,M,M,499.00,M,M,M,-RA BR,KCKB 010745Z AUTO 31010KT 6SM -RA BR OVC004 A2985 RMK MADISHF
CKB,2017-04-01 07:50,-80.2281,39.2966,M,M,M,300.00,12.00,M,29.86,M,6.00,M,OVC,M,M,M,400.00,M,M,M,BR,KCKB 010750Z AUTO 30012KT 6SM BR OVC004 A2986 RMK MADISHF
CKB,2017-04-01 07:53,-80.2281,39.2966,46.00,44.10,93.03,310.00,11.00,0.00,29.86,1010.50,6.00,M,OVC,M,M,M,400.00,M,M,M,BR,KCKB 010753Z 31011KT 6SM BR OVC004 08/07 A2986 RMK AO2 RAB27E47 SLP105 P0000 T00780067
CKB,2017-04-01 07:55,-80.2281,39.2966,M,M,M,300.00,10.00,M,29.86,M,6.00,M,OVC,M,M,M,400.00,M,M,M,-RA BR,KCKB 010755Z AUTO 30010KT 6SM -RA BR OVC004 A2986 RMK MADISHF
CKB,2017-04-01 08:00,-80.2281,39.2966,M,M,M,300.00,9.00,M,29.86,M,5.00,M,OVC,M,M,M,400.00,M,M,M,-RA BR,KCKB 010800Z AUTO 30009KT 5SM -RA BR OVC004 A2986 RMK MADISHF
CKB,2017-04-01 08:05,-80.2281,39.2966,M,M,M,320.00,11.00,M,29.87,M,4.00,M,OVC,M,M,M,400.00,M,M,M,-RA BR,KCKB 010805Z AUTO 32011KT 4SM -RA BR OVC004 A2987 RMK MADISHF
CKB,2017-04-01 08:10,-80.2281,39.2966,M,M,M,310.00,9.00,M,29.87,M,4.00,M,OVC,M,M,M,400.00,M,M,M,-RA BR,KCKB 010810Z AUTO 31009KT 4SM -RA BR OVC004 A2987 RMK MADISHF
CKB,2017-04-01 08:15,-80.2281,39.2966,M,M,M,310.00,12.00,M,29.88,M,4.00,M,OVC,M,M,M,499.00,M,M,M,-RA BR,KCKB 010815Z AUTO 31012KT 4SM -RA BR OVC004 A2988 RMK MADISHF
CKB,2017-04-01 08:19,-80.2281,39.2966,45.00,43.00,92.65,300.00,11.00,0.00,29.88,M,4.00,M,OVC,M,M,M,500.00,M,M,M,-RA BR,KCKB 010819Z 30011KT 4SM -RA BR OVC005 07/06 A2988 RMK AO2 RAB0755 P0000 T00720061
CKB,2017-04-01 08:20,-80.2281,39.2966,M,M,M,300.00,11.00,M,29.88,M,4.00,M,OVC,M,M,M,499.00,M,M,M,-RA BR,KCKB 010820Z AUTO 30011KT 4SM -RA BR OVC004 A2988 RMK MADISHF
CKB,2017-04-01 08:25,-80.2281,39.2966,M,M,M,280.00,6.00,0.01,29.88,M,4.00,M,OVC,M,M,M,499.00,M,M,M,-RA BR,KCKB 010825Z AUTO 28006KT 4SM -RA BR OVC004 A2988 RMK P0001 MADISHF
CKB,2017-04-01 08:30,-80.2281,39.2966,M,M,M,270.00,7.00,0.01,29.88,M,6.00,M,OVC,M,M,M,400.00,M,M,M,-RA BR,KCKB 010830Z AUTO 27007KT 6SM -RA BR OVC004 A2988 RMK P0001 MADISHF
CKB,2017-04-01 08:35,-80.2281,39.2966,M,M,M,270.00,9.00,0.01,29.89,M,7.00,M,OVC,M,M,M,400.00,M,M,M,-RA,KCKB 010835Z AUTO 27009KT 7SM -RA OVC004 A2989 RMK P0001 MADISHF
CKB,2017-04-01 08:36,-80.2281,39.2966,45.00,43.00,92.65,280.00,8.00,0.01,29.89,M,8.00,M,OVC,M,M,M,400.00,M,M,M,-RA,KCKB 010836Z 28008KT 8SM -RA OVC004 07/06 A2989 RMK AO2 RAB0755 P0001 T00720061
CKB,2017-04-01 08:40,-80.2281,39.2966,M,M,M,270.00,10.00,0.01,29.89,M,8.00,M,OVC,M,M,M,400.00,M,M,M,-RA,KCKB 010840Z AUTO 27010KT 8SM -RA OVC004 A2989 RMK P0001 MADISHF
CKB,2017-04-01 08:45,-80.2281,39.2966,M,M,M,260.00,10.00,0.01,29.89,M,7.00,M,OVC,M,M,M,400.00,M,M,M,-RA,KCKB 010845Z AUTO 26010KT 7SM -RA OVC004 A2989 RMK P0001 MADISHF
CKB,2017-04-01 08:50,-80.2281,39.2966,M,M,M,260.00,9.00,0.01,29.90,M,6.00,M,OVC,M,M,M,400.00,M,M,M,-RA BR,KCKB 010850Z AUTO 26009KT 6SM -RA BR OVC004 A2990 RMK P0001 MADISHF
CKB,2017-04-01 08:53,-80.2281,39.2966,44.10,42.10,92.62,270.00,9.00,0.01,29.90,1012.10,6.00,M,OVC,M,M,M,500.00,M,M,M,-RA BR,KCKB 010853Z 27009KT 6SM -RA BR OVC005 07/06 A2990 RMK AO2 RAB0755 SLP121 P0001 60001 T00670056 53025
CKB,2017-04-01 08:55,-80.2281,39.2966,M,M,M,260.00,9.00,M,29.90,M,6.00,M,OVC,M,M,M,499.00,M,M,M,-RA BR,KCKB 010855Z AUTO 26009KT 6SM -RA BR OVC004 A2990 RMK MADISHF
CKB,2017-04-01 09:00,-80.2281,39.2966,M,M,M,260.00,8.00,M,29.90,M,5.00,M,OVC,M,M,M,499.00,M,M,M,-RA BR,KCKB 010900Z AUTO 26008KT 5SM -RA BR OVC004 A2990 RMK MADISHF
CKB,2017-04-01 09:05,-80.2281,39.2966,M,M,M,280.00,10.00,M,29.91,M,5.00,M,OVC,M,M,M,499.00,M,M,M,-RA BR,KCKB 010905Z AUTO 28010KT 5SM -RA BR OVC004 A2991 RMK MADISHF
CKB,2017-04-01 09:10,-80.2281,39.2966,M,M,M,280.00,8.00,M,29.91,M,4.00,M,OVC,M,M,M,499.00,M,M,M,-RA BR,KCKB 010910Z AUTO 28008KT 4SM -RA BR OVC004 A2991 RMK MADISHF
CKB,2017-04-01 09:15,-80.2281,39.2966,M,M,M,260.00,8.00,M,29.91,M,4.00,M,OVC,M,M,M,499.00,M,M,M,-RA BR,KCKB 010915Z AUTO 26008KT 4SM -RA BR OVC004 A2991 RMK MADISHF
CKB,2017-04-01 09:20,-80.2281,39.2966,M,M,M,270.00,9.00,M,29.92,M,4.00,M,OVC,M,M,M,499.00,M,M,M,BR,KCKB 010920Z AUTO 27009KT 4SM BR OVC004 A2992 RMK MADISHF
CKB,2017-04-01 09:25,-80.2281,39.2966,M,M,M,270.00,8.00,M,29.92,M,5.00,M,OVC,M,M,M,499.00,M,M,M,BR,KCKB 010925Z AUTO 27008KT 5SM BR OVC004 A2992 RMK MADISHF
CKB,2017-04-01 09:30,-80.2281,39.2966,M,M,M,280.00,10.00,M,29.92,M,6.00,M,OVC,M,M,M,499.00,M,M,M,-RA BR,KCKB 010930Z AUTO 28010KT 6SM -RA BR OVC004 A2992 RMK CIG 4V9  MADISHF
CKB,2017-04-01 09:35,-80.2281,39.2966,M,M,M,280.00,8.00,M,29.92,M,8.00,M,OVC,M,M,M,700.00,M,M,M,-RA,KCKB 010935Z AUTO 28008KT 8SM -RA OVC007 A2992 RMK CIG 4V9  MADISHF
CKB,2017-04-01 09:40,-80.2281,39.2966,M,M,M,280.00,12.00,M,29.92,M,9.00,M,OVC,M,M,M,700.00,M,M,M,-RA,KCKB 010940Z AUTO 28012KT 9SM -RA OVC007 A2992 RMK CIG 5V11  MADISHF
CKB,2017-04-01 09:45,-80.2281,39.2966,M,M,M,290.00,11.00,0.01,29.93,M,6.00,M,BKN,OVC,M,M,700.00,1200.00,M,M,-RA BR,KCKB 010945Z AUTO 29011KT 6SM -RA BR BKN007 OVC012 A2993 RMK P0001 CIG 5V10  MADISHF
CKB,2017-04-01 09:50,-80.2281,39.2966,M,M,M,290.00,8.00,0.01,29.93,M,5.00,M,OVC,M,M,M,900.00,M,M,M,-RA BR,KCKB 010950Z AUTO 29008KT 5SM -RA BR OVC009 A2993 RMK P0001 CIG 5V12  MADISHF
CKB,2017-04-01 09:53,-80.2281,39.2966,43.00,41.00,92.58,280.00,9.00,0.01,29.93,1013.30,5.00,M,OVC,M,M,M,900.00,M,M,M,-RA BR,KCKB 010953Z AUTO 28009KT 5SM -RA BR OVC009 06/05 A2993 RMK AO2 CIG 005V012 SLP133 P0001 T00610050
CKB,2017-04-01 09:55,-80.2281,39.2966,M,M,M,270.00,9.00,M,29.94,M,5.00,14.00,OVC,M,M,M,900.00,M,M,M,-RA BR,KCKB 010955Z AUTO 27009G14KT 5SM -RA BR OVC009 A2994 RMK CIG 7V12  MADISHF
CKB,2017-04-01 10:00,-80.2281,39.2966,M,M,M,280.00,8.00,M,29.94,M,4.00,M,OVC,M,M,M,900.00,M,M,M,-RA BR,KCKB 011000Z AUTO 28008KT 4SM -RA BR OVC009 A2994 RMK CIG 7V12  MADISHF
CKB,2017-04-01 10:05,-80.2281,39.2966,M,M,M,270.00,7.00,M,29.95,M,4.00,M,OVC,M,M,M,900.00,M,M,M,-RA BR,KCKB 011005Z AUTO 27007KT 4SM -RA BR OVC009 A2995 RMK CIG 5V13  MADISHF
CKB,2017-04-01 10:10,-80.2281,39.2966,M,M,M,280.00,7.00,M,29.95,M,4.00,M,OVC,M,M,M,900.00,M,M,M,-RA BR,KCKB 011010Z AUTO 28007KT 4SM -RA BR OVC009 A2995 RMK CIG 5V14  MADISHF
CKB,2017-04-01 10:15,-80.2281,39.2966,M,M,M,280.00,8.00,M,29.95,M,5.00,M,FEW,BKN,OVC,M,499.00,900.00,1600.00,M,-RA BR,KCKB 011015Z AUTO 28008KT 5SM -RA BR FEW004 BKN009 OVC016 A2995 RMK MADISHF
CKB,2017-04-01 10:20,-80.2281,39.2966,M,M,M,280.00,9.00,M,29.96,M,5.00,M,FEW,BKN,OVC,M,499.00,900.00,1800.00,M,-RA BR,KCKB 011020Z AUTO 28009KT 5SM -RA BR FEW004 BKN009 OVC018 A2996 RMK MADISHF
CKB,2017-04-01 10:23,-80.2281,39.2966,43.00,41.00,92.58,290.00,8.00,0.00,29.96,M,7.00,M,SCT,BKN,OVC,M,800.00,1500.00,2000.00,M,-RA,KCKB 011023Z AUTO 29008KT 7SM -RA SCT008 BKN015 OVC020 06/05 A2996 RMK AO2 P0000 T00610050
CKB,2017-04-01 10:25,-80.2281,39.2966,M,M,M,270.00,6.00,M,29.96,M,8.00,M,FEW,BKN,OVC,M,499.00,1100.00,1800.00,M,-RA,KCKB 011025Z AUTO 27006KT 8SM -RA FEW004 BKN011 OVC018 A2996 RMK MADISHF
CKB,2017-04-01 10:30,-80.2281,39.2966,M,M,M,270.00,7.00,M,29.96,M,9.00,M,SCT,OVC,M,M,999.00,1800.00,M,M,-RA,KCKB 011030Z AUTO 27007KT 9SM -RA SCT009 OVC018 A2996 RMK MADISHF
CKB,2017-04-01 10:35,-80.2281,39.2966,M,M,M,280.00,7.00,M,29.96,M,9.00,M,FEW,OVC,M,M,900.00,1600.00,M,M,-RA,KCKB 011035Z AUTO 28007KT 9SM -RA FEW009 OVC016 A2996 RMK MADISHF
CKB,2017-04-01 10:40,-80.2281,39.2966,M,M,M,280.00,7.00,M,29.97,M,10.00,M,BKN,OVC,M,M,1300.00,1800.00,M,M,M,KCKB 011040Z AUTO 28007KT 10SM BKN013 OVC018 A2997 RMK MADISHF
CKB,2017-04-01 10:45,-80.2281,39.2966,M,M,M,280.00,8.00,M,29.97,M,10.00,M,BKN,OVC,M,M,1100.00,1800.00,M,M,M,KCKB 011045Z AUTO 28008KT 10SM BKN011 OVC018 A2997 RMK MADISHF
CKB,2017-04-01 10:46,-80.2281,39.2966,43.00,39.90,88.71,290.00,8.00,0.00,29.97,M,10.00,M,BKN,OVC,M,M,1100.00,1800.00,M,M,M,KCKB 011046Z AUTO 29008KT 10SM BKN011 OVC018 06/04 A2997 RMK AO2 RAE39 P0000 T00610044
CKB,2017-04-01 10:50,-80.2281,39.2966,M,M,M,280.00,8.00,M,M,M,9.00,M,BKN,OVC,M,M,1100.00,1800.00,M,M,M,KCKB 011050Z AUTO 28008KT 9SM BKN011 OVC018 RMK MADISHF
CKB,2017-04-01 10:53,-80.2281,39.2966,43.00,39.90,88.71,280.00,9.00,0.00,29.98,1015.00,8.00,M,BKN,OVC,M,M,1100.00,1800.00,M,M,M,KCKB 011053Z 28009KT 8SM BKN011 OVC018 06/04 A2998 RMK AO2 RAE39 CIG 008V014 SLP150 P0000 T00610044
CKB,2017-04-01 10:55,-80.2281,39.2966,M,M,M,270.00,9.00,M,29.98,M,7.00,M,BKN,OVC,M,M,1100.00,1800.00,M,M,M,KCKB 011055Z AUTO 27009KT 7SM BKN011 OVC018 A2998 RMK CIG 8V14  MADISHF
CKB,2017-04-01 11:00,-80.2281,39.2966,M,M,M,280.00,9.00,M,29.98,M,6.00,M,OVC,M,M,M,1100.00,M,M,M,BR,KCKB 011100Z AUTO 28009KT 6SM BR OVC011 A2998 RMK CIG 8V14  MADISHF
CKB,2017-04-01 11:05,-80.2281,39.2966,M,M,M,280.00,8.00,M,29.98,M,5.00,M,OVC,M,M,M,999.00,M,M,M,BR,KCKB 011105Z AUTO 28008KT 5SM BR OVC009 A2998 RMK CIG 6V14  MADISHF
CKB,2017-04-01 11:10,-80.2281,39.2966,M,M,M,270.00,6.00,M,29.98,M,4.00,M,OVC,M,M,M,999.00,M,M,M,-RA BR,KCKB 011110Z AUTO 27006KT 4SM -RA BR OVC009 A2998 RMK CIG 6V13  MADISHF
CKB,2017-04-01 11:15,-80.2281,39.2966,M,M,M,260.00,4.00,M,29.98,M,4.00,M,BKN,OVC,M,M,800.00,1100.00,M,M,-RA BR,KCKB 011115Z AUTO 26004KT 4SM -RA BR BKN008 OVC011 A2998 RMK CIG 5V9  MADISHF
CKB,2017-04-01 11:19,-80.2281,39.2966,43.00,41.00,92.58,260.00,4.00,0.00,29.98,M,4.00,M,BKN,OVC,M,M,800.00,1100.00,M,M,BR,KCKB 011119Z 26004KT 4SM BR BKN008 OVC011 06/05 A2998 RMK AO2 RAB10E17 CIG 005V009 P0000 T00610050
CKB,2017-04-01 11:20,-80.2281,39.2966,M,M,M,250.00,5.00,M,29.98,M,4.00,M,BKN,OVC,M,M,800.00,1100.00,M,M,BR,KCKB 011120Z AUTO 25005KT 4SM BR BKN008 OVC011 A2998 RMK CIG 5V10  MADISHF
CKB,2017-04-01 11:25,-80.2281,39.2966,M,M,M,270.00,5.00,M,29.98,M,4.00,M,BKN,OVC,M,M,600.00,1100.00,M,M,BR,KCKB 011125Z AUTO 27005KT 4SM BR BKN006 OVC011 A2998 RMK CIG 4V9  MADISHF
CKB,2017-04-01 11:30,-80.2281,39.2966,M,M,M,260.00,4.00,0.01,29.98,M,4.00,M,OVC,M,M,M,600.00,M,M,M,-RA BR,KCKB 011130Z AUTO 26004KT 4SM -RA BR OVC006 A2998 RMK P0001 CIG 4V10  MADISHF
CKB,2017-04-01 11:35,-80.2281,39.2966,M,M,M,240.00,4.00,0.01,29.97,M,5.00,M,BKN,OVC,M,M,600.00,999.00,M,M,BR,KCKB 011135Z AUTO 24004KT 5SM BR BKN006 OVC009 A2997 RMK P0001 CIG 4V8  MADISHF
CKB,2017-04-01 11:40,-80.2281,39.2966,M,M,M,250.00,5.00,0.01,29.98,M,5.00,M,BKN,OVC,M,M,600.00,999.00,M,M,BR,KCKB 011140Z AUTO 25005KT 5SM BR BKN006 OVC009 A2998 RMK P0001 CIG 4V8  MADISHF
CKB,2017-04-01 11:45,-80.2281,39.2966,M,M,M,250.00,4.00,0.01,29.98,M,5.00,M,OVC,M,M,M,600.00,M,M,M,BR,KCKB 011145Z AUTO 25004KT 5SM BR OVC006 A2998 RMK P0001 CIG 4V11  MADISHF
CKB,2017-04-01 11:50,-80.2281,39.2966,M,M,M,240.00,4.00,0.01,29.98,M,5.00,M,OVC,M,M,M,600.00,M,M,M,BR,KCKB 011150Z AUTO 24004KT 5SM BR OVC006 A2998 RMK P0001 CIG 4V11  MADISHF
CKB,2017-04-01 11:53,-80.2281,39.2966,42.10,41.00,95.84,250.00,3.00,0.01,29.98,1015.00,5.00,M,OVC,M,M,M,700.00,M,M,M,BR,KCKB 011153Z 25003KT 5SM BR OVC007 06/05 A2998 RMK AO2 RAB10E17B30E34 CIG 004V011 SLP150 P0001 60003 70052 T00560050 10100 20056 51027
CKB,2017-04-01 11:55,-80.2281,39.2966,M,M,M,250.00,3.00,M,29.98,M,5.00,M,OVC,M,M,M,700.00,M,M,M,BR,KCKB 011155Z AUTO 25003KT 5SM BR OVC007 A2998 RMK CIG 4V11  MADISHF
CKB,2017-04-01 12:00,-80.2281,39.2966,M,M,M,260.00,3.00,M,29.99,M,5.00,M,OVC,M,M,M,700.00,M,M,M,BR,KCKB 011200Z AUTO 26003KT 5SM BR OVC007 A2999 RMK CIG 5V11  MADISHF
CKB,2017-04-01 12:05,-80.2281,39.2966,M,M,M,270.00,4.00,M,29.99,M,6.00,M,OVC,M,M,M,700.00,M,M,M,BR,KCKB 011205Z AUTO 27004KT 6SM BR OVC007 A2999 RMK CIG 5V11  MADISHF
CKB,2017-04-01 12:10,-80.2281,39.2966,M,M,M,270.00,4.00,M,29.99,M,6.00,M,OVC,M,M,M,700.00,M,M,M,BR,KCKB 011210Z AUTO 27004KT 6SM BR OVC007 A2999 RMK CIG 5V11  MADISHF
CKB,2017-04-01 12:15,-80.2281,39.2966,M,M,M,280.00,4.00,M,30.00,M,7.00,M,OVC,M,M,M,700.00,M,M,M,M,KCKB 011215Z AUTO 28004KT 7SM OVC007 A3000 RMK CIG 5V10  MADISHF
CKB,2017-04-01 12:20,-80.2281,39.2966,M,M,M,290.00,5.00,M,30.00,M,9.00,M,OVC,M,M,M,900.00,M,M,M,M,KCKB 011220Z AUTO 29005KT 9SM OVC009 A3000 RMK CIG 5V12  MADISHF
CKB,2017-04-01 12:25,-80.2281,39.2966,M,M,M,280.00,5.00,M,30.00,M,10.00,M,OVC,M,M,M,900.00,M,M,M,M,KCKB 011225Z AUTO 28005KT 10SM OVC009 A3000 RMK CIG 5V12  MADISHF
CKB,2017-04-01 12:30,-80.2281,39.2966,M,M,M,290.00,6.00,M,30.00,M,10.00,M,OVC,M,M,M,900.00,M,M,M,M,KCKB 011230Z AUTO 29006KT 10SM OVC009 A3000 RMK CIG 5V14  MADISHF
CKB,2017-04-01 12:35,-80.2281,39.2966,M,M,M,300.00,6.00,M,30.00,M,10.00,M,SCT,OVC,M,M,800.00,1400.00,M,M,M,KCKB 011235Z AUTO 30006KT 10SM SCT008 OVC014 A3000 RMK MADISHF
CKB,2017-04-01 12:38,-80.2281,39.2966,43.00,41.00,92.58,290.00,5.00,0.00,30.00,M,10.00,M,BKN,OVC,M,M,1000.00,1400.00,M,M,M,KCKB 011238Z 29005KT 10SM BKN010 OVC014 06/05 A3000 RMK AO2 CIG 006V013 T00610050
CKB,2017-04-01 12:40,-80.2281,39.2966,M,M,M,290.00,6.00,M,30.01,M,10.00,M,OVC,M,M,M,1200.00,M,M,M,M,KCKB 011240Z AUTO 29006KT 10SM OVC012 A3001 RMK MADISHF
CKB,2017-04-01 12:45,-80.2281,39.2966,M,M,M,290.00,6.00,M,30.01,M,10.00,M,OVC,M,M,M,1200.00,M,M,M,M,KCKB 011245Z AUTO 29006KT 10SM OVC012 A3001 RMK MADISHF
CKB,2017-04-01 12:50,-80.2281,39.2966,M,M,M,280.00,6.00,M,30.01,M,9.00,M,FEW,OVC,M,M,600.00,1200.00,M,M,M,KCKB 011250Z AUTO 28006KT 9SM FEW006 OVC012 A3001 RMK MADISHF
CKB,2017-04-01 12:53,-80.2281,39.2966,43.00,41.00,92.58,300.00,6.00,0.00,30.01,1016.00,8.00,M,SCT,OVC,M,M,600.00,1200.00,M,M,M,KCKB 011253Z 30006KT 8SM SCT006 OVC012 06/05 A3001 RMK AO2 SLP160 T00610050
CKB,2017-04-01 12:55,-80.2281,39.2966,M,M,M,300.00,7.00,M,30.01,M,8.00,M,BKN,OVC,M,M,600.00,1200.00,M,M,M,KCKB 011255Z AUTO 30007KT 8SM BKN006 OVC012 A3001 RMK CIG 5V11  MADISHF
CKB,2017-04-01 13:00,-80.2281,39.2966,M,M,M,310.00,5.00,M,30.01,M,6.00,M,OVC,M,M,M,800.00,M,M,M,BR,KCKB 011300Z AUTO 31005KT 6SM BR OVC008 A3001 RMK MADISHF
CKB,2017-04-01 13:01,-80.2281,39.2966,43.00,41.00,92.58,310.00,5.00,0.00,30.01,M,6.00,M,OVC,M,M,M,800.00,M,M,M,BR,KCKB 011301Z 31005KT 6SM BR OVC008 06/05 A3001 RMK AO2 T00610050
CKB,2017-04-01 13:05,-80.2281,39.2966,M,M,M,310.00,6.00,M,30.01,M,6.00,M,OVC,M,M,M,800.00,M,M,M,BR,KCKB 011305Z AUTO 31006KT 6SM BR OVC008 A3001 RMK MADISHF
CKB,2017-04-01 13:10,-80.2281,39.2966,M,M,M,300.00,6.00,M,30.01,M,7.00,M,OVC,M,M,M,800.00,M,M,M,M,KCKB 011310Z AUTO 30006KT 7SM OVC008 A3001 RMK MADISHF
CKB,2017-04-01 13:15,-80.2281,39.2966,M,M,M,300.00,9.00,M,30.01,M,9.00,M,OVC,M,M,M,800.00,M,M,M,M,KCKB 011315Z AUTO 30009KT 9SM OVC008 A3001 RMK MADISHF
CKB,2017-04-01 13:20,-80.2281,39.2966,M,M,M,310.00,8.00,M,30.01,M,10.00,M,OVC,M,M,M,800.00,M,M,M,M,KCKB 011320Z AUTO 31008KT 10SM OVC008 A3001 RMK MADISHF
CKB,2017-04-01 13:25,-80.2281,39.2966,M,M,M,310.00,8.00,M,30.02,M,10.00,M,OVC,M,M,M,800.00,M,M,M,M,KCKB 011325Z AUTO 31008KT 10SM OVC008 A3002 RMK MADISHF
CKB,2017-04-01 13:30,-80.2281,39.2966,M,M,M,300.00,8.00,M,30.02,M,10.00,M,OVC,M,M,M,800.00,M,M,M,M,KCKB 011330Z AUTO 30008KT 10SM OVC008 A3002 RMK MADISHF
CKB,2017-04-01 13:35,-80.2281,39.2966,M,M,M,300.00,5.00,M,30.02,M,10.00,M,OVC,M,M,M,800.00,M,M,M,M,KCKB 011335Z AUTO 30005KT 10SM OVC008 A3002 RMK MADISHF
CKB,2017-04-01 13:40,-80.2281,39.2966,M,M,M,300.00,8.00,M,30.02,M,10.00,M,OVC,M,M,M,800.00,M,M,M,M,KCKB 011340Z AUTO 30008KT 10SM OVC008 A3002 RMK MADISHF
CKB,2017-04-01 13:45,-80.2281,39.2966,M,M,M,300.00,7.00,M,30.03,M,10.00,M,OVC,M,M,M,800.00,M,M,M,M,KCKB 011345Z AUTO 30007KT 10SM OVC008 A3003 RMK MADISHF
CKB,2017-04-01 13:50,-80.2281,39.2966,M,M,M,290.00,6.00,M,30.03,M,10.00,M,OVC,M,M,M,800.00,M,M,M,M,KCKB 011350Z AUTO 29006KT 10SM OVC008 A3003 RMK MADISHF
CKB,2017-04-01 13:53,-80.2281,39.2966,43.00,39.90,88.71,300.00,8.00,0.00,30.03,1016.70,10.00,M,OVC,M,M,M,800.00,M,M,M,M,KCKB 011353Z 30008KT 10SM OVC008 06/04 A3003 RMK AO2 SLP167 T00610044
CKB,2017-04-01 13:55,-80.2281,39.2966,M,M,M,290.00,9.00,M,30.03,M,10.00,M,OVC,M,M,M,1300.00,M,M,M,M,KCKB 011355Z AUTO 29009KT 10SM OVC013 A3003 RMK MADISHF
CKB,2017-04-01 14:00,-80.2281,39.2966,43.00,39.90,88.71,300.00,8.00,0.00,30.04,M,10.00,M,OVC,M,M,M,1300.00,M,M,M,M,KCKB 011400Z 30008KT 10SM OVC013 06/04 A3004 RMK AO2 T00610044
CKB,2017-04-01 14:05,-80.2281,39.2966,M,M,M,300.00,8.00,M,30.04,M,10.00,M,OVC,M,M,M,1300.00,M,M,M,M,KCKB 011405Z AUTO 30008KT 10SM OVC013 A3004 RMK MADISHF
CKB,2017-04-01 14:10,-80.2281,39.2966,M,M,M,290.00,7.00,M,30.04,M,10.00,M,FEW,OVC,M,M,999.00,1300.00,M,M,M,KCKB 011410Z AUTO 29007KT 10SM FEW009 OVC013 A3004 RMK MADISHF
CKB,2017-04-01 14:15,-80.2281,39.2966,M,M,M,280.00,7.00,M,30.04,M,10.00,M,OVC,M,M,M,1300.00,M,M,M,M,KCKB 011415Z AUTO 28007KT 10SM OVC013 A3004 RMK MADISHF
CKB,2017-04-01 14:20,-80.2281,39.2966,M,M,M,280.00,6.00,M,30.05,M,10.00,M,OVC,M,M,M,1300.00,M,M,M,M,KCKB 011420Z AUTO 28006KT 10SM OVC013 A3005 RMK MADISHF
CKB,2017-04-01 14:25,-80.2281,39.2966,M,M,M,280.00,8.00,M,30.05,M,10.00,M,OVC,M,M,M,1300.00,M,M,M,M,KCKB 011425Z AUTO 28008KT 10SM OVC013 A3005 RMK MADISHF
CKB,2017-04-01 14:30,-80.2281,39.2966,M,M,M,270.00,8.00,M,30.05,M,10.00,M,OVC,M,M,M,1300.00,M,M,M,M,KCKB 011430Z AUTO 27008KT 10SM OVC013 A3005 RMK MADISHF
CKB,2017-04-01 14:35,-80.2281,39.2966,M,M,M,280.00,9.00,M,30.05,M,10.00,M,OVC,M,M,M,1300.00,M,M,M,M,KCKB 011435Z AUTO 28009KT 10SM OVC013 A3005 RMK MADISHF
CKB,2017-04-01 14:40,-80.2281,39.2966,M,M,M,290.00,7.00,M,30.05,M,10.00,M,OVC,M,M,M,1300.00,M,M,M,M,KCKB 011440Z AUTO 29007KT 10SM OVC013 A3005 RMK MADISHF
CKB,2017-04-01 14:45,-80.2281,39.2966,M,M,M,300.00,8.00,M,M,M,10.00,M,OVC,M,M,M,1300.00,M,M,M,M,KCKB 011445Z AUTO 30008KT 10SM OVC013 RMK MADISHF
CKB,2017-04-01 14:50,-80.2281,39.2966,M,M,M,290.00,8.00,M,30.06,M,10.00,M,OVC,M,M,M,1300.00,M,M,M,M,KCKB 011450Z AUTO 29008KT 10SM OVC013 A3006 RMK MADISHF
CKB,2017-04-01 14:53,-80.2281,39.2966,44.10,39.90,85.06,290.00,9.00,0.00,30.06,1017.60,10.00,M,BKN,OVC,M,M,1300.00,1700.00,M,M,M,KCKB 011453Z 29009KT 10SM BKN013 OVC017 07/04 A3006 RMK AO2 SLP176 T00670044 51025
CKB,2017-04-01 14:55,-80.2281,39.2966,M,M,M,280.00,8.00,M,M,M,10.00,M,BKN,OVC,M,M,1300.00,1699.00,M,M,M,KCKB 011455Z AUTO 28008KT 10SM BKN013 OVC016 RMK MADISHF
CKB,2017-04-01 15:00,-80.2281,39.2966,M,M,M,290.00,9.00,M,M,M,9.00,M,BKN,OVC,M,M,999.00,1500.00,M,M,M,KCKB 011500Z AUTO 29009KT 9SM BKN009 OVC015 RMK MADISHF
CKB,2017-04-01 15:05,-80.2281,39.2966,M,M,M,290.00,8.00,M,M,M,7.00,M,BKN,OVC,M,M,999.00,1699.00,M,M,M,KCKB 011505Z AUTO 29008KT 7SM BKN009 OVC016 RMK MADISHF
CKB,2017-04-01 15:10,-80.2281,39.2966,M,M,M,290.00,8.00,M,30.06,M,5.00,M,BKN,OVC,M,M,1300.00,1900.00,M,M,BR,KCKB 011510Z AUTO 29008KT 5SM BR BKN013 OVC019 A3006 RMK MADISHF
CKB,2017-04-01 15:15,-80.2281,39.2966,M,M,M,280.00,6.00,M,M,M,5.00,M,SCT,BKN,OVC,M,1300.00,1800.00,2600.00,M,BR,KCKB 011515Z AUTO 28006KT 5SM BR SCT013 BKN018 OVC026 RMK MADISHF
CKB,2017-04-01 15:20,-80.2281,39.2966,M,M,M,280.00,7.00,M,30.05,M,6.00,M,SCT,BKN,OVC,M,1100.00,1800.00,2600.00,M,BR,KCKB 011520Z AUTO 28007KT 6SM BR SCT011 BKN018 OVC026 A3005 RMK MADISHF
CKB,2017-04-01 15:25,-80.2281,39.2966,M,M,M,280.00,8.00,M,M,M,6.00,M,BKN,OVC,M,M,1300.00,1699.00,M,M,BR,KCKB 011525Z AUTO 28008KT 6SM BR BKN013 OVC016 RMK MADISHF
CKB,2017-04-01 15:30,-80.2281,39.2966,M,M,M,280.00,7.00,M,30.05,M,8.00,M,BKN,OVC,M,M,1300.00,1699.00,M,M,M,KCKB 011530Z AUTO 28007KT 8SM BKN013 OVC016 A3005 RMK MADISHF
CKB,2017-04-01 15:35,-80.2281,39.2966,M,M,M,280.00,7.00,M,M,M,9.00,M,BKN,OVC,M,M,1300.00,1699.00,M,M,M,KCKB 011535Z AUTO 28007KT 9SM BKN013 OVC016 RMK MADISHF
CKB,2017-04-01 15:40,-80.2281,39.2966,M,M,M,280.00,7.00,M,30.05,M,9.00,M,BKN,OVC,M,M,1300.00,1699.00,M,M,M,KCKB 011540Z AUTO 28007KT 9SM BKN013 OVC016 A3005 RMK MADISHF
CKB,2017-04-01 15:45,-80.2281,39.2966,M,M,M,280.00,6.00,M,30.06,M,10.00,M,BKN,OVC,M,M,1300.00,1699.00,M,M,M,KCKB 011545Z AUTO 28006KT 10SM BKN013 OVC016 A3006 RMK MADISHF
CKB,2017-04-01 15:50,-80.2281,39.2966,M,M,M,270.00,7.00,M,30.06,M,10.00,M,BKN,OVC,M,M,1300.00,1699.00,M,M,M,KCKB 011550Z AUTO 27007KT 10SM BKN013 OVC016 A3006 RMK MADISHF
CKB,2017-04-01 15:53,-80.2281,39.2966,44.10,39.90,85.06,280.00,5.00,0.00,30.06,1017.60,10.00,M,OVC,M,M,M,1500.00,M,M,M,M,KCKB 011553Z 28005KT 10SM OVC015 07/04 A3006 RMK AO2 SLP176 T00670044
CKB,2017-04-01 15:55,-80.2281,39.2966,M,M,M,270.00,5.00,M,30.06,M,10.00,M,OVC,M,M,M,1500.00,M,M,M,M,KCKB 011555Z AUTO 27005KT 10SM OVC015 A3006 RMK MADISHF
CKB,2017-04-01 16:00,-80.2281,39.2966,M,M,M,280.00,8.00,M,30.06,M,10.00,M,OVC,M,M,M,1300.00,M,M,M,M,KCKB 011600Z AUTO 28008KT 10SM OVC013 A3006 RMK MADISHF
CKB,2017-04-01 16:03,-80.2281,39.2966,44.10,39.90,85.06,290.00,8.00,0.00,30.06,M,10.00,M,BKN,OVC,M,M,1300.00,2900.00,M,M,M,KCKB 011603Z 29008KT 10SM BKN013 OVC029 07/04 A3006 RMK AO2 T00670044
CKB,2017-04-01 16:05,-80.2281,39.2966,M,M,M,290.00,6.00,M,30.05,M,10.00,M,OVC,M,M,M,1300.00,M,M,M,M,KCKB 011605Z AUTO 29006KT 10SM OVC013 A3005 RMK MADISHF
CKB,2017-04-01 16:10,-80.2281,39.2966,M,M,M,290.00,6.00,M,30.05,M,10.00,M,OVC,M,M,M,1300.00,M,M,M,M,KCKB 011610Z AUTO 29006KT 10SM OVC013 A3005 RMK MADISHF
CKB,2017-04-01 16:15,-80.2281,39.2966,M,M,M,300.00,9.00,M,30.05,M,10.00,M,OVC,M,M,M,1300.00,M,M,M,M,KCKB 011615Z AUTO 30009KT 10SM OVC013 A3005 RMK MADISHF
CKB,2017-04-01 16:20,-80.2281,39.2966,M,M,M,310.00,8.00,M,30.06,M,10.00,M,BKN,OVC,M,M,1300.00,1900.00,M,M,M,KCKB 011620Z AUTO 31008KT 10SM BKN013 OVC019 A3006 RMK MADISHF
CKB,2017-04-01 16:25,-80.2281,39.2966,M,M,M,300.00,9.00,M,30.06,M,10.00,M,BKN,OVC,M,M,1300.00,1999.00,M,M,M,KCKB 011625Z AUTO 30009KT 10SM BKN013 OVC019 A3006 RMK MADISHF
CKB,2017-04-01 16:30,-80.2281,39.2966,M,M,M,310.00,8.00,M,30.06,M,10.00,M,BKN,OVC,M,M,1300.00,2200.00,M,M,M,KCKB 011630Z AUTO 31008KT 10SM BKN013 OVC022 A3006 RMK MADISHF
CKB,2017-04-01 16:35,-80.2281,39.2966,M,M,M,320.00,8.00,M,30.06,M,10.00,M,BKN,OVC,M,M,1300.00,2200.00,M,M,M,KCKB 011635Z AUTO 32008KT 10SM BKN013 OVC022 A3006 RMK MADISHF
CKB,2017-04-01 16:40,-80.2281,39.2966,M,M,M,310.00,8.00,M,30.06,M,10.00,M,BKN,OVC,M,M,1500.00,2200.00,M,M,M,KCKB 011640Z AUTO 31008KT 10SM BKN015 OVC022 A3006 RMK MADISHF
CKB,2017-04-01 16:43,-80.2281,39.2966,44.10,39.00,82.12,310.00,9.00,0.00,30.05,M,10.00,M,OVC,M,M,M,1700.00,M,M,M,M,KCKB 011643Z 31009KT 10SM OVC017 07/04 A3005 RMK AO2 T00670039
CKB,2017-04-01 16:45,-80.2281,39.2966,M,M,M,310.00,7.00,M,30.06,M,10.00,M,BKN,OVC,M,M,1500.00,2100.00,M,M,M,KCKB 011645Z AUTO 31007KT 10SM BKN015 OVC021 A3006 RMK MADISHF
CKB,2017-04-01 16:50,-80.2281,39.2966,M,M,M,300.00,9.00,M,30.06,M,10.00,M,BKN,OVC,M,M,1500.00,2100.00,M,M,M,KCKB 011650Z AUTO 30009KT 10SM BKN015 OVC021 A3006 RMK MADISHF
CKB,2017-04-01 16:53,-80.2281,39.2966,44.10,39.00,82.12,300.00,7.00,0.00,30.06,1017.70,10.00,M,BKN,OVC,M,M,1500.00,2100.00,M,M,M,KCKB 011653Z 30007KT 10SM BKN015 OVC021 07/04 A3006 RMK AO2 SLP177 T00670039
CKB,2017-04-01 16:55,-80.2281,39.2966,M,M,M,280.00,9.00,M,30.06,M,10.00,14.00,OVC,M,M,M,1500.00,M,M,M,M,KCKB 011655Z AUTO 28009G14KT 10SM OVC015 A3006 RMK MADISHF
CKB,2017-04-01 17:00,-80.2281,39.2966,M,M,M,300.00,7.00,M,30.06,M,10.00,M,OVC,M,M,M,1500.00,M,M,M,M,KCKB 011700Z AUTO 30007KT 10SM OVC015 A3006 RMK MADISHF
CKB,2017-04-01 17:05,-80.2281,39.2966,M,M,M,290.00,8.00,M,30.06,M,10.00,M,BKN,OVC,M,M,1500.00,2200.00,M,M,M,KCKB 011705Z AUTO 29008KT 10SM BKN015 OVC022 A3006 RMK MADISHF
CKB,2017-04-01 17:10,-80.2281,39.2966,M,M,M,290.00,7.00,M,30.06,M,10.00,M,BKN,OVC,M,M,1699.00,2200.00,M,M,M,KCKB 011710Z AUTO 29007KT 10SM BKN016 OVC022 A3006 RMK MADISHF
CKB,2017-04-01 17:15,-80.2281,39.2966,M,M,M,300.00,9.00,M,30.06,M,10.00,M,OVC,M,M,M,1699.00,M,M,M,M,KCKB 011715Z AUTO 30009KT 10SM OVC016 A3006 RMK MADISHF
CKB,2017-04-01 17:20,-80.2281,39.2966,M,M,M,290.00,9.00,M,30.06,M,10.00,M,OVC,M,M,M,1600.00,M,M,M,M,KCKB 011720Z AUTO 29009KT 10SM OVC016 A3006 RMK MADISHF
CKB,2017-04-01 17:25,-80.2281,39.2966,M,M,M,290.00,8.00,M,30.06,M,10.00,M,OVC,M,M,M,1600.00,M,M,M,M,KCKB 011725Z AUTO 29008KT 10SM OVC016 A3006 RMK MADISHF
CKB,2017-04-01 17:30,-80.2281,39.2966,M,M,M,280.00,10.00,M,30.07,M,10.00,M,BKN,OVC,M,M,1600.00,2200.00,M,M,M,KCKB 011730Z AUTO 28010KT 10SM BKN016 OVC022 A3007 RMK MADISHF
CKB,2017-04-01 17:35,-80.2281,39.2966,M,M,M,300.00,8.00,M,30.07,M,10.00,M,OVC,M,M,M,1400.00,M,M,M,M,KCKB 011735Z AUTO 30008KT 10SM OVC014 A3007 RMK MADISHF
CKB,2017-04-01 17:40,-80.2281,39.2966,M,M,M,300.00,8.00,M,30.07,M,10.00,M,OVC,M,M,M,1400.00,M,M,M,M,KCKB 011740Z AUTO 30008KT 10SM OVC014 A3007 RMK MADISHF
CKB,2017-04-01 17:41,-80.2281,39.2966,44.10,39.00,82.12,310.00,8.00,0.00,30.07,M,10.00,M,OVC,M,M,M,1400.00,M,M,M,M,KCKB 011741Z 31008KT 10SM OVC014 07/04 A3007 RMK AO2 T00670039
CKB,2017-04-01 17:45,-80.2281,39.2966,M,M,M,310.00,10.00,M,30.07,M,10.00,M,OVC,M,M,M,1400.00,M,M,M,M,KCKB 011745Z AUTO 31010KT 10SM OVC014 A3007 RMK MADISHF
CKB,2017-04-01 17:50,-80.2281,39.2966,M,M,M,310.00,8.00,M,30.07,M,10.00,M,BKN,OVC,M,M,1400.00,2400.00,M,M,M,KCKB 011750Z AUTO 31008KT 10SM BKN014 OVC024 A3007 RMK MADISHF
CKB,2017-04-01 17:53,-80.2281,39.2966,45.00,39.00,79.36,310.00,7.00,0.00,30.07,1018.20,10.00,M,BKN,OVC,M,M,1400.00,2400.00,M,M,M,KCKB 011753Z 31007KT 10SM BKN014 OVC024 07/04 A3007 RMK AO2 SLP182 T00720039 10072 20056 53006
CKB,2017-04-01 17:55,-80.2281,39.2966,M,M,M,310.00,9.00,M,30.08,M,10.00,M,BKN,OVC,M,M,1400.00,2400.00,M,M,M,KCKB 011755Z AUTO 31009KT 10SM BKN014 OVC024 A3008 RMK MADISHF
CKB,2017-04-01 18:00,-80.2281,39.2966,M,M,M,300.00,10.00,M,30.08,M,10.00,M,OVC,M,M,M,1400.00,M,M,M,M,KCKB 011800Z AUTO 30010KT 10SM OVC014 A3008 RMK MADISHF
CKB,2017-04-01 18:05,-80.2281,39.2966,M,M,M,290.00,7.00,M,30.08,M,9.00,M,OVC,M,M,M,1400.00,M,M,M,M,KCKB 011805Z AUTO 29007KT 9SM OVC014 A3008 RMK MADISHF
CKB,2017-04-01 18:10,-80.2281,39.2966,M,M,M,290.00,8.00,M,30.08,M,9.00,M,BKN,OVC,M,M,1400.00,1999.00,M,M,M,KCKB 011810Z AUTO 29008KT 9SM BKN014 OVC019 A3008 RMK MADISHF
CKB,2017-04-01 18:15,-80.2281,39.2966,M,M,M,280.00,9.00,M,30.08,M,9.00,M,BKN,OVC,M,M,1400.00,2300.00,M,M,M,KCKB 011815Z AUTO 28009KT 9SM BKN014 OVC023 A3008 RMK MADISHF
CKB,2017-04-01 18:20,-80.2281,39.2966,M,M,M,280.00,8.00,M,30.08,M,9.00,M,BKN,OVC,M,M,1400.00,2300.00,M,M,M,KCKB 011820Z AUTO 28008KT 9SM BKN014 OVC023 A3008 RMK MADISHF
CKB,2017-04-01 18:25,-80.2281,39.2966,M,M,M,300.00,10.00,M,30.08,M,10.00,M,BKN,OVC,M,M,1500.00,2100.00,M,M,M,KCKB 011825Z AUTO 30010KT 10SM BKN015 OVC021 A3008 RMK MADISHF
CKB,2017-04-01 18:30,-80.2281,39.2966,M,M,M,290.00,7.00,M,30.08,M,10.00,M,BKN,OVC,M,M,1400.00,2400.00,M,M,M,KCKB 011830Z AUTO 29007KT 10SM BKN014 OVC024 A3008 RMK MADISHF
CKB,2017-04-01 18:35,-80.2281,39.2966,M,M,M,300.00,6.00,M,30.08,M,10.00,M,BKN,OVC,M,M,1400.00,2400.00,M,M,M,KCKB 011835Z AUTO 30006KT 10SM BKN014 OVC024 A3008 RMK MADISHF
CKB,2017-04-01 18:40,-80.2281,39.2966,M,M,M,300.00,9.00,M,30.08,M,10.00,M,BKN,OVC,M,M,1400.00,2400.00,M,M,M,KCKB 011840Z AUTO 30009KT 10SM BKN014 OVC024 A3008 RMK MADISHF
CKB,2017-04-01 18:45,-80.2281,39.2966,M,M,M,310.00,10.00,M,30.09,M,10.00,M,BKN,OVC,M,M,1400.00,2400.00,M,M,M,KCKB 011845Z AUTO 31010KT 10SM BKN014 OVC024 A3009 RMK MADISHF
CKB,2017-04-01 18:50,-80.2281,39.2966,M,M,M,300.00,8.00,M,30.09,M,8.00,M,BKN,OVC,M,M,1400.00,1800.00,M,M,M,KCKB 011850Z AUTO 30008KT 8SM BKN014 OVC018 A3009 RMK MADISHF
CKB,2017-04-01 18:53,-80.2281,39.2966,44.10,39.00,82.12,300.00,6.00,0.00,30.09,1018.80,8.00,M,BKN,OVC,M,M,1400.00,2000.00,M,M,M,KCKB 011853Z 30006KT 8SM BKN014 OVC020 07/04 A3009 RMK AO2 SLP188 T00670039
CKB,2017-04-01 18:55,-80.2281,39.2966,M,M,M,290.00,5.00,M,30.09,M,8.00,M,BKN,OVC,M,M,1400.00,1999.00,M,M,M,KCKB 011855Z AUTO 29005KT 8SM BKN014 OVC019 A3009 RMK MADISHF
CKB,2017-04-01 19:00,-80.2281,39.2966,M,M,M,290.00,6.00,M,30.09,M,9.00,M,BKN,OVC,M,M,1400.00,1999.00,M,M,M,KCKB 011900Z AUTO 29006KT 9SM BKN014 OVC019 A3009 RMK MADISHF
CKB,2017-04-01 19:05,-80.2281,39.2966,M,M,M,300.00,6.00,M,30.09,M,10.00,M,BKN,OVC,M,M,1400.00,1999.00,M,M,M,KCKB 011905Z AUTO 30006KT 10SM BKN014 OVC019 A3009 RMK MADISHF
CKB,2017-04-01 19:10,-80.2281,39.2966,M,M,M,280.00,5.00,M,30.08,M,10.00,M,BKN,OVC,M,M,1400.00,1999.00,M,M,M,KCKB 011910Z AUTO 28005KT 10SM BKN014 OVC019 A3008 RMK MADISHF
CKB,2017-04-01 19:15,-80.2281,39.2966,M,M,M,260.00,8.00,M,30.08,M,10.00,M,BKN,OVC,M,M,1400.00,1999.00,M,M,M,KCKB 011915Z AUTO 26008KT 10SM BKN014 OVC019 A3008 RMK MADISHF
CKB,2017-04-01 19:20,-80.2281,39.2966,M,M,M,290.00,8.00,M,30.08,M,10.00,M,BKN,OVC,M,M,1400.00,1999.00,M,M,M,KCKB 011920Z AUTO 29008KT 10SM BKN014 OVC019 A3008 RMK MADISHF
CKB,2017-04-01 19:25,-80.2281,39.2966,M,M,M,280.00,8.00,M,30.08,M,10.00,M,BKN,OVC,M,M,1400.00,1999.00,M,M,M,KCKB 011925Z AUTO 28008KT 10SM BKN014 OVC019 A3008 RMK MADISHF
CKB,2017-04-01 19:30,-80.2281,39.2966,M,M,M,300.00,6.00,M,30.08,M,10.00,M,BKN,OVC,M,M,1400.00,1999.00,M,M,M,KCKB 011930Z AUTO 30006KT 10SM BKN014 OVC019 A3008 RMK MADISHF
CKB,2017-04-01 19:35,-80.2281,39.2966,M,M,M,300.00,8.00,M,30.08,M,10.00,M,BKN,OVC,M,M,1400.00,1999.00,M,M,M,KCKB 011935Z AUTO 30008KT 10SM BKN014 OVC019 A3008 RMK MADISHF
CKB,2017-04-01 19:40,-80.2281,39.2966,M,M,M,280.00,5.00,M,30.09,M,10.00,M,BKN,OVC,M,M,1400.00,1999.00,M,M,M,KCKB 011940Z AUTO 28005KT 10SM BKN014 OVC019 A3009 RMK MADISHF
CKB,2017-04-01 19:45,-80.2281,39.2966,M,M,M,280.00,6.00,M,30.09,M,10.00,M,BKN,OVC,M,M,1400.00,1999.00,M,M,M,KCKB 011945Z AUTO 28006KT 10SM BKN014 OVC019 A3009 RMK MADISHF
CKB,2017-04-01 19:50,-80.2281,39.2966,M,M,M,270.00,8.00,M,30.09,M,10.00,M,BKN,OVC,M,M,1600.00,2200.00,M,M,M,KCKB 011950Z AUTO 27008KT 10SM BKN016 OVC022 A3009 RMK MADISHF
CKB,2017-04-01 19:53,-80.2281,39.2966,44.10,37.90,78.66,260.00,8.00,0.00,30.09,1018.80,10.00,M,BKN,OVC,M,M,1600.00,2200.00,M,M,M,KCKB 011953Z 26008KT 10SM BKN016 OVC022 07/03 A3009 RMK AO2 SLP188 T00670033
CKB,2017-04-01 19:55,-80.2281,39.2966,M,M,M,260.00,9.00,M,30.09,M,10.00,M,BKN,OVC,M,M,1600.00,2200.00,M,M,M,KCKB 011955Z AUTO 26009KT 10SM BKN016 OVC022 A3009 RMK MADISHF
CKB,2017-04-01 20:00,-80.2281,39.2966,M,M,M,270.00,7.00,M,30.09,M,10.00,M,OVC,M,M,M,1600.00,M,M,M,M,KCKB 012000Z AUTO 27007KT 10SM OVC016 A3009 RMK MADISHF
CKB,2017-04-01 20:05,-80.2281,39.2966,M,M,M,280.00,7.00,M,30.09,M,10.00,M,OVC,M,M,M,1600.00,M,M,M,M,KCKB 012005Z AUTO 28007KT 10SM OVC016 A3009 RMK MADISHF
CKB,2017-04-01 20:10,-80.2281,39.2966,M,M,M,270.00,8.00,M,30.09,M,10.00,M,OVC,M,M,M,1600.00,M,M,M,M,KCKB 012010Z AUTO 27008KT 10SM OVC016 A3009 RMK MADISHF
CKB,2017-04-01 20:15,-80.2281,39.2966,M,M,M,270.00,8.00,M,30.09,M,10.00,M,OVC,M,M,M,1600.00,M,M,M,M,KCKB 012015Z AUTO 27008KT 10SM OVC016 A3009 RMK MADISHF
CKB,2017-04-01 20:20,-80.2281,39.2966,M,M,M,270.00,7.00,M,30.09,M,10.00,M,OVC,M,M,M,1800.00,M,M,M,M,KCKB 012020Z AUTO 27007KT 10SM OVC018 A3009 RMK MADISHF
CKB,2017-04-01 20:25,-80.2281,39.2966,M,M,M,260.00,7.00,M,30.10,M,10.00,M,BKN,OVC,M,M,1800.00,3800.00,M,M,M,KCKB 012025Z AUTO 26007KT 10SM BKN018 OVC038 A3010 RMK MADISHF
CKB,2017-04-01 20:30,-80.2281,39.2966,M,M,M,270.00,8.00,M,30.10,M,10.00,M,BKN,BKN,OVC,M,1800.00,2600.00,3800.00,M,M,KCKB 012030Z AUTO 27008KT 10SM BKN018 BKN026 OVC038 A3010 RMK MADISHF
CKB,2017-04-01 20:35,-80.2281,39.2966,M,M,M,270.00,7.00,M,30.10,M,10.00,M,BKN,OVC,M,M,1800.00,2600.00,M,M,M,KCKB 012035Z AUTO 27007KT 10SM BKN018 OVC026 A3010 RMK MADISHF
CKB,2017-04-01 20:40,-80.2281,39.2966,M,M,M,280.00,8.00,M,30.10,M,10.00,M,BKN,OVC,M,M,1999.00,2600.00,M,M,M,KCKB 012040Z AUTO 28008KT 10SM BKN019 OVC026 A3010 RMK MADISHF
CKB,2017-04-01 20:45,-80.2281,39.2966,M,M,M,270.00,9.00,M,30.11,M,10.00,M,BKN,OVC,M,M,1800.00,2500.00,M,M,M,KCKB 012045Z AUTO 27009KT 10SM BKN018 OVC025 A3011 RMK MADISHF
CKB,2017-04-01 20:50,-80.2281,39.2966,M,M,M,260.00,10.00,M,30.11,M,10.00,M,BKN,OVC,M,M,1600.00,2300.00,M,M,M,KCKB 012050Z AUTO 26010KT 10SM BKN016 OVC023 A3011 RMK MADISHF
CKB,2017-04-01 20:53,-80.2281,39.2966,45.00,37.90,76.01,260.00,7.00,0.00,30.11,1019.60,10.00,M,BKN,OVC,M,M,1600.00,2300.00,M,M,M,KCKB 012053Z 26007KT 10SM BKN016 OVC023 07/03 A3011 RMK AO2 SLP196 T00720033 53013
CKB,2017-04-01 20:55,-80.2281,39.2966,M,M,M,260.00,8.00,M,30.11,M,10.00,M,BKN,OVC,M,M,1600.00,2500.00,M,M,M,KCKB 012055Z AUTO 26008KT 10SM BKN016 OVC025 A3011 RMK MADISHF
CKB,2017-04-01 21:00,-80.2281,39.2966,M,M,M,290.00,8.00,M,30.12,M,10.00,M,BKN,OVC,M,M,1600.00,2300.00,M,M,M,KCKB 012100Z AUTO 29008KT 10SM BKN016 OVC023 A3012 RMK MADISHF
CKB,2017-04-01 21:05,-80.2281,39.2966,M,M,M,290.00,6.00,M,30.12,M,10.00,M,BKN,OVC,M,M,1600.00,2300.00,M,M,M,KCKB 012105Z AUTO 29006KT 10SM BKN016 OVC023 A3012 RMK MADISHF
CKB,2017-04-01 21:10,-80.2281,39.2966,M,M,M,270.00,5.00,M,30.12,M,10.00,M,BKN,OVC,M,M,1600.00,2300.00,M,M,M,KCKB 012110Z AUTO 27005KT 10SM BKN016 OVC023 A3012 RMK MADISHF
CKB,2017-04-01 21:15,-80.2281,39.2966,M,M,M,270.00,7.00,M,30.12,M,10.00,M,OVC,M,M,M,1699.00,M,M,M,M,KCKB 012115Z AUTO 27007KT 10SM OVC016 A3012 RMK MADISHF
CKB,2017-04-01 21:20,-80.2281,39.2966,M,M,M,270.00,5.00,M,30.12,M,10.00,M,OVC,M,M,M,1699.00,M,M,M,M,KCKB 012120Z AUTO 27005KT 10SM OVC016 A3012 RMK MADISHF
CKB,2017-04-01 21:25,-80.2281,39.2966,M,M,M,280.00,8.00,M,30.12,M,10.00,M,OVC,M,M,M,1699.00,M,M,M,M,KCKB 012125Z AUTO 28008KT 10SM OVC016 A3012 RMK MADISHF
CKB,2017-04-01 21:30,-80.2281,39.2966,M,M,M,280.00,8.00,M,30.12,M,10.00,M,OVC,M,M,M,1699.00,M,M,M,M,KCKB 012130Z AUTO 28008KT 10SM OVC016 A3012 RMK MADISHF
CKB,2017-04-01 21:35,-80.2281,39.2966,M,M,M,290.00,8.00,M,30.13,M,10.00,M,OVC,M,M,M,1699.00,M,M,M,M,KCKB 012135Z AUTO 29008KT 10SM OVC016 A3013 RMK MADISHF
CKB,2017-04-01 21:40,-80.2281,39.2966,M,M,M,290.00,9.00,M,30.13,M,10.00,M,OVC,M,M,M,1699.00,M,M,M,M,KCKB 012140Z AUTO 29009KT 10SM OVC016 A3013 RMK MADISHF
CKB,2017-04-01 21:45,-80.2281,39.2966,M,M,M,290.00,9.00,M,30.13,M,10.00,M,OVC,M,M,M,1699.00,M,M,M,M,KCKB 012145Z AUTO 29009KT 10SM OVC016 A3013 RMK MADISHF
CKB,2017-04-01 21:50,-80.2281,39.2966,M,M,M,290.00,9.00,M,30.14,M,10.00,M,OVC,M,M,M,1699.00,M,M,M,M,KCKB 012150Z AUTO 29009KT 10SM OVC016 A3014 RMK MADISHF
CKB,2017-04-01 21:53,-80.2281,39.2966,45.00,37.90,76.01,290.00,9.00,0.00,30.14,1020.60,10.00,M,OVC,M,M,M,1700.00,M,M,M,M,KCKB 012153Z 29009KT 10SM OVC017 07/03 A3014 RMK AO2 SLP206 T00720033
CKB,2017-04-01 21:55,-80.2281,39.2966,M,M,M,280.00,9.00,M,30.14,M,10.00,M,OVC,M,M,M,1699.00,M,M,M,M,KCKB 012155Z AUTO 28009KT 10SM OVC016 A3014 RMK MADISHF
CKB,2017-04-01 22:00,-80.2281,39.2966,M,M,M,290.00,7.00,M,30.14,M,10.00,M,OVC,M,M,M,1600.00,M,M,M,M,KCKB 012200Z AUTO 29007KT 10SM OVC016 A3014 RMK MADISHF
CKB,2017-04-01 22:05,-80.2281,39.2966,M,M,M,290.00,5.00,M,30.14,M,10.00,M,OVC,M,M,M,1600.00,M,M,M,M,KCKB 012205Z AUTO 29005KT 10SM OVC016 A3014 RMK MADISHF
CKB,2017-04-01 22:10,-80.2281,39.2966,M,M,M,300.00,6.00,M,30.15,M,10.00,M,BKN,OVC,M,M,1800.00,3200.00,M,M,M,KCKB 012210Z AUTO 30006KT 10SM BKN018 OVC032 A3015 RMK MADISHF
CKB,2017-04-01 22:15,-80.2281,39.2966,M,M,M,300.00,5.00,M,30.15,M,10.00,M,BKN,BKN,OVC,M,1800.00,2200.00,3200.00,M,M,KCKB 012215Z AUTO 30005KT 10SM BKN018 BKN022 OVC032 A3015 RMK MADISHF
CKB,2017-04-01 22:20,-80.2281,39.2966,M,M,M,310.00,10.00,M,30.15,M,10.00,M,BKN,OVC,M,M,1800.00,3000.00,M,M,M,KCKB 012220Z AUTO 31010KT 10SM BKN018 OVC030 A3015 RMK MADISHF
CKB,2017-04-01 22:25,-80.2281,39.2966,M,M,M,310.00,9.00,M,30.15,M,10.00,M,BKN,OVC,M,M,1999.00,3000.00,M,M,M,KCKB 012225Z AUTO 31009KT 10SM BKN019 OVC030 A3015 RMK MADISHF
CKB,2017-04-01 22:30,-80.2281,39.2966,M,M,M,310.00,8.00,M,30.16,M,10.00,M,BKN,OVC,M,M,1999.00,3000.00,M,M,M,KCKB 012230Z AUTO 31008KT 10SM BKN019 OVC030 A3016 RMK MADISHF
CKB,2017-04-01 22:35,-80.2281,39.2966,M,M,M,280.00,7.00,M,30.16,M,10.00,M,BKN,OVC,M,M,1999.00,3000.00,M,M,M,KCKB 012235Z AUTO 28007KT 10SM BKN019 OVC030 A3016 RMK MADISHF
CKB,2017-04-01 22:40,-80.2281,39.2966,M,M,M,290.00,6.00,M,30.16,M,10.00,M,OVC,M,M,M,1800.00,M,M,M,M,KCKB 012240Z AUTO 29006KT 10SM OVC018 A3016 RMK MADISHF
CKB,2017-04-01 22:45,-80.2281,39.2966,M,M,M,320.00,8.00,M,30.16,M,10.00,M,OVC,M,M,M,1800.00,M,M,M,M,KCKB 012245Z AUTO 32008KT 10SM OVC018 A3016 RMK MADISHF
CKB,2017-04-01 22:50,-80.2281,39.2966,M,M,M,300.00,9.00,M,30.16,M,10.00,M,BKN,OVC,M,M,1600.00,2100.00,M,M,M,KCKB 012250Z AUTO 30009KT 10SM BKN016 OVC021 A3016 RMK MADISHF
CKB,2017-04-01 22:53,-80.2281,39.2966,44.10,37.90,78.66,300.00,7.00,0.00,30.16,1021.40,10.00,M,OVC,M,M,M,1800.00,M,M,M,M,KCKB 012253Z 30007KT 10SM OVC018 07/03 A3016 RMK AO2 SLP214 T00670033
CKB,2017-04-01 22:55,-80.2281,39.2966,M,M,M,310.00,7.00,M,30.16,M,10.00,M,OVC,M,M,M,1800.00,M,M,M,M,KCKB 012255Z AUTO 31007KT 10SM OVC018 A3016 RMK MADISHF
CKB,2017-04-01 23:00,-80.2281,39.2966,M,M,M,310.00,5.00,M,30.16,M,10.00,M,BKN,OVC,M,M,1800.00,2300.00,M,M,M,KCKB 012300Z AUTO 31005KT 10SM BKN018 OVC023 A3016 RMK MADISHF
CKB,2017-04-01 23:05,-80.2281,39.2966,M,M,M,320.00,8.00,M,30.17,M,10.00,M,BKN,OVC,M,M,1800.00,2300.00,M,M,M,KCKB 012305Z AUTO 32008KT 10SM BKN018 OVC023 A3017 RMK MADISHF
CKB,2017-04-01 23:10,-80.2281,39.2966,M,M,M,320.00,7.00,M,30.17,M,10.00,M,SCT,OVC,M,M,1800.00,2300.00,M,M,M,KCKB 012310Z AUTO 32007KT 10SM SCT018 OVC023 A3017 RMK MADISHF
CKB,2017-04-01 23:15,-80.2281,39.2966,M,M,M,320.00,6.00,M,30.17,M,10.00,M,OVC,M,M,M,2300.00,M,M,M,M,KCKB 012315Z AUTO 32006KT 10SM OVC023 A3017 RMK MADISHF
CKB,2017-04-01 23:20,-80.2281,39.2966,M,M,M,310.00,6.00,M,30.17,M,10.00,M,OVC,M,M,M,2300.00,M,M,M,M,KCKB 012320Z AUTO 31006KT 10SM OVC023 A3017 RMK MADISHF
CKB,2017-04-01 23:25,-80.2281,39.2966,M,M,M,300.00,4.00,M,30.17,M,10.00,M,OVC,M,M,M,2200.00,M,M,M,M,KCKB 012325Z AUTO 30004KT 10SM OVC022 A3017 RMK MADISHF
CKB,2017-04-01 23:30,-80.2281,39.2966,M,M,M,320.00,6.00,M,30.18,M,10.00,M,OVC,M,M,M,2200.00,M,M,M,M,KCKB 012330Z AUTO 32006KT 10SM OVC022 A3018 RMK MADISHF
CKB,2017-04-01 23:35,-80.2281,39.2966,M,M,M,300.00,6.00,M,30.17,M,10.00,M,OVC,M,M,M,2200.00,M,M,M,M,KCKB 012335Z AUTO 30006KT 10SM OVC022 A3017 RMK MADISHF
CKB,2017-04-01 23:40,-80.2281,39.2966,M,M,M,310.00,6.00,M,30.17,M,10.00,M,OVC,M,M,M,2200.00,M,M,M,M,KCKB 012340Z AUTO 31006KT 10SM OVC022 A3017 RMK MADISHF
CKB,2017-04-01 23:45,-80.2281,39.2966,M,M,M,320.00,4.00,M,30.18,M,10.00,M,OVC,M,M,M,2100.00,M,M,M,M,KCKB 012345Z AUTO 32004KT 10SM OVC021 A3018 RMK MADISHF
CKB,2017-04-01 23:50,-80.2281,39.2966,M,M,M,300.00,6.00,M,30.18,M,10.00,M,OVC,M,M,M,2100.00,M,M,M,M,KCKB 012350Z AUTO 30006KT 10SM OVC021 A3018 RMK MADISHF
CKB,2017-04-01 23:53,-80.2281,39.2966,44.10,37.00,75.93,300.00,5.00,0.00,30.18,1021.90,10.00,M,OVC,M,M,M,2000.00,M,M,M,M,KCKB 012353Z 30005KT 10SM OVC020 07/03 A3018 RMK AO2 SLP219 T00670028 10072 20067 51021
CKB,2017-04-01 23:55,-80.2281,39.2966,M,M,M,310.00,4.00,M,30.18,M,10.00,M,OVC,M,M,M,1999.00,M,M,M,M,KCKB 012355Z AUTO 31004KT 10SM OVC019 A3018 RMK MADISHF
