#DEBUG: Format Typ    -> comma
#DEBUG: Time Period   -> 2017-04-01 00:00:00+00:00 2017-04-02 00:00:00+00:00
#DEBUG: Time Zone     -> Etc/UTC
#DEBUG: Data Contact   -> daryl herzmann akrherz@iastate.edu 515-294-5978
#DEBUG: Entries Found -> -1
station,valid,lon,lat,tmpf, dwpf, relh, drct, sknt, p01i, alti, mslp, vsby, gust, skyc1, skyc2, skyc3, skyc4, skyl1, skyl2, skyl3, skyl4, presentwx, metar
CKP,2017-04-01 00:05,-95.5538,42.7304,45.90,37.40,72.03,50.00,7.00,0.00,30.05,M,10.00,M,CLR,M,M,M,M,M,M,M,M,KCKP 010005Z AUTO 05007KT 10SM CLR 08/03 A3005 RMK AO2 T00770030
CKP,2017-04-01 00:15,-95.5538,42.7304,45.30,37.40,73.69,60.00,9.00,0.00,30.06,M,10.00,M,CLR,M,M,M,M,M,M,M,M,KCKP 010015Z AUTO 06009KT 10SM CLR 07/03 A3006 RMK AO2 T00740030
CKP,2017-04-01 00:25,-95.5538,42.7304,44.60,37.40,75.68,50.00,6.00,0.00,30.07,M,10.00,M,CLR,M,M,M,M,M,M,M,M,KCKP 010025Z AUTO 05006KT 10SM CLR 07/03 A3007 RMK AO2 T00700030
CKP,2017-04-01 00:35,-95.5538,42.7304,43.70,37.00,77.10,50.00,9.00,0.00,30.08,M,10.00,M,CLR,M,M,M,M,M,M,M,M,KCKP 010035Z AUTO 05009KT 10SM CLR 07/03 A3008 RMK AO2 T00650028
CKP,2017-04-01 00:45,-95.5538,42.7304,42.80,37.00,79.80,50.00,6.00,0.00,30.09,M,10.00,M,CLR,M,M,M,M,M,M,M,M,KCKP 010045Z AUTO 05006KT 10SM CLR 06/03 A3009 RMK AO2 T00600028
CKP,2017-04-01 00:55,-95.5538,42.7304,42.30,36.90,81.03,50.00,6.00,0.00,30.09,M,10.00,M,CLR,M,M,M,M,M,M,M,M,KCKP 010055Z AUTO 05006KT 10SM CLR 06/03 A3009 RMK AO2 T00570027
CKP,2017-04-01 01:05,-95.5538,42.7304,41.90,36.70,81.64,60.00,8.00,0.00,30.09,M,10.00,M,CLR,M,M,M,M,M,M,M,M,KCKP 010105Z AUTO 06008KT 10SM CLR 06/03 A3009 RMK AO2 T00550026
CKP,2017-04-01 01:15,-95.5538,42.7304,41.20,36.70,83.88,60.00,7.00,0.00,30.09,M,10.00,M,CLR,M,M,M,M,M,M,M,M,KCKP 010115Z AUTO 06007KT 10SM CLR 05/03 A3009 RMK AO2 T00510026
CKP,2017-04-01 01:25,-95.5538,42.7304,40.80,36.50,84.52,70.00,7.00,0.00,30.09,M,10.00,M,CLR,M,M,M,M,M,M,M,M,KCKP 010125Z AUTO 07007KT 10SM CLR 05/03 A3009 RMK AO2 T00490025
CKP,2017-04-01 01:35,-95.5538,42.7304,40.10,36.50,86.84,80.00,5.00,0.00,30.10,M,10.00,M,CLR,M,M,M,M,M,M,M,M,KCKP 010135Z AUTO 08005KT 10SM CLR 05/03 A3010 RMK AO2 T00450025
CKP,2017-04-01 01:45,-95.5538,42.7304,39.60,36.50,88.55,70.00,4.00,0.00,30.11,M,10.00,M,CLR,M,M,M,M,M,M,M,M,KCKP 010145Z AUTO 07004KT 10SM CLR 04/03 A3011 RMK AO2 T00420025
CKP,2017-04-01 01:55,-95.5538,42.7304,39.20,36.30,89.23,70.00,4.00,0.00,30.11,M,10.00,M,CLR,M,M,M,M,M,M,M,M,KCKP 010155Z AUTO 07004KT 10SM CLR 04/02 A3011 RMK AO2 T00400024
CKP,2017-04-01 02:05,-95.5538,42.7304,38.50,35.60,89.20,80.00,4.00,0.00,30.11,M,10.00,M,CLR,M,M,M,M,M,M,M,M,KCKP 010205Z AUTO 08004KT 10SM CLR 04/02 A3011 RMK AO2 T00360020
CKP,2017-04-01 02:15,-95.5538,42.7304,37.60,35.20,90.95,80.00,5.00,0.00,30.11,M,10.00,M,CLR,M,M,M,M,M,M,M,M,KCKP 010215Z AUTO 08005KT 10SM CLR 03/02 A3011 RMK AO2 T00310018
CKP,2017-04-01 02:25,-95.5538,42.7304,37.80,35.80,92.41,80.00,4.00,0.00,30.11,M,10.00,M,CLR,M,M,M,M,M,M,M,M,KCKP 010225Z AUTO 08004KT 10SM CLR 03/02 A3011 RMK AO2 T00320021
CKP,2017-04-01 02:35,-95.5538,42.7304,37.60,35.40,91.68,0.00,0.00,0.00,30.13,M,10.00,M,CLR,M,M,M,M,M,M,M,M,KCKP 010235Z AUTO 00000KT 10SM CLR 03/02 A3013 RMK AO2 T00310019
CKP,2017-04-01 02:45,-95.5538,42.7304,36.70,34.70,92.38,0.00,0.00,0.00,30.13,M,10.00,M,CLR,M,M,M,M,M,M,M,M,KCKP 010245Z AUTO 00000KT 10SM CLR 03/02 A3013 RMK AO2 T00260015
CKP,2017-04-01 02:55,-95.5538,42.7304,35.60,34.20,94.58,0.00,0.00,0.00,30.13,M,10.00,M,CLR,M,M,M,M,M,M,M,M,KCKP 010255Z AUTO 00000KT 10SM CLR 02/01 A3013 RMK AO2 T00200012
CKP,2017-04-01 03:05,-95.5538,42.7304,34.30,33.10,95.31,0.00,0.00,0.00,30.14,M,10.00,M,CLR,M,M,M,M,M,M,M,M,KCKP 010305Z AUTO 00000KT 10SM CLR 01/01 A3014 RMK AO2 T00130006
CKP,2017-04-01 03:15,-95.5538,42.7304,34.90,34.20,97.25,0.00,0.00,0.00,30.13,M,10.00,M,CLR,M,M,M,M,M,M,M,M,KCKP 010315Z AUTO 00000KT 10SM CLR 02/01 A3013 RMK AO2 T00160012
CKP,2017-04-01 03:25,-95.5538,42.7304,35.40,34.70,97.26,100.00,3.00,0.00,30.13,M,10.00,M,CLR,M,M,M,M,M,M,M,M,KCKP 010325Z AUTO 10003KT 10SM CLR 02/02 A3013 RMK AO2 T00190015
CKP,2017-04-01 03:35,-95.5538,42.7304,34.90,34.20,97.25,0.00,0.00,0.00,30.14,M,10.00,M,CLR,M,M,M,M,M,M,M,M,KCKP 010335Z AUTO 00000KT 10SM CLR 02/01 A3014 RMK AO2 T00160012
CKP,2017-04-01 03:45,-95.5538,42.7304,34.70,34.20,98.03,0.00,0.00,0.00,30.13,M,10.00,M,CLR,M,M,M,M,M,M,M,M,KCKP 010345Z AUTO 00000KT 10SM CLR 02/01 A3013 RMK AO2 T00150012
CKP,2017-04-01 03:55,-95.5538,42.7304,34.90,34.30,97.64,0.00,0.00,0.00,30.13,M,10.00,M,CLR,M,M,M,M,M,M,M,M,KCKP 010355Z AUTO 00000KT 10SM CLR 02/01 A3013 RMK AO2 T00160013
CKP,2017-04-01 04:05,-95.5538,42.7304,34.90,34.70,99.21,0.00,0.00,0.00,30.13,M,10.00,M,CLR,M,M,M,M,M,M,M,M,KCKP 010405Z AUTO 00000KT 10SM CLR 02/02 A3013 RMK AO2 T00160015
CKP,2017-04-01 04:15,-95.5538,42.7304,35.60,35.10,98.03,0.00,0.00,0.00,30.14,M,10.00,M,CLR,M,M,M,M,M,M,M,M,KCKP 010415Z AUTO 00000KT 10SM CLR 02/02 A3014 RMK AO2 T00200017
CKP,2017-04-01 04:25,-95.5538,42.7304,35.80,35.60,99.21,0.00,0.00,0.00,30.14,M,10.00,M,CLR,M,M,M,M,M,M,M,M,KCKP 010425Z AUTO 00000KT 10SM CLR 02/02 A3014 RMK AO2 T00210020
CKP,2017-04-01 04:35,-95.5538,42.7304,35.40,34.70,97.26,0.00,0.00,0.00,30.15,M,10.00,M,CLR,M,M,M,M,M,M,M,M,KCKP 010435Z AUTO 00000KT 10SM CLR 02/02 A3015 RMK AO2 T00190015
CKP,2017-04-01 04:45,-95.5538,42.7304,34.00,33.40,97.63,0.00,0.00,0.00,30.15,M,10.00,M,CLR,M,M,M,M,M,M,M,M,KCKP 010445Z AUTO 00000KT 10SM CLR 01/01 A3015 RMK AO2 T00110008
CKP,2017-04-01 04:55,-95.5538,42.7304,34.70,34.70,100.00,0.00,0.00,0.00,30.15,M,10.00,M,CLR,M,M,M,M,M,M,M,M,KCKP 010455Z AUTO 00000KT 10SM CLR 02/02 A3015 RMK AO2 T00150015
CKP,2017-04-01 05:05,-95.5538,42.7304,34.70,34.70,100.00,0.00,0.00,0.00,30.15,M,10.00,M,CLR,M,M,M,M,M,M,M,M,KCKP 010505Z AUTO 00000KT 10SM CLR 02/02 A3015 RMK AO2 T00150015
CKP,2017-04-01 05:15,-95.5538,42.7304,35.20,35.20,100.00,40.00,3.00,0.00,30.15,M,10.00,M,CLR,M,M,M,M,M,M,M,M,KCKP 010515Z AUTO 04003KT 10SM CLR 02/02 A3015 RMK AO2 T00180018
CKP,2017-04-01 05:25,-95.5538,42.7304,35.40,35.20,99.21,0.00,0.00,0.00,30.16,M,10.00,M,CLR,M,M,M,M,M,M,M,M,KCKP 010525Z AUTO 00000KT 10SM CLR 02/02 A3016 RMK AO2 T00190018
CKP,2017-04-01 05:35,-95.5538,42.7304,34.90,34.90,100.00,0.00,0.00,0.00,30.17,M,10.00,M,CLR,M,M,M,M,M,M,M,M,KCKP 010535Z AUTO 00000KT 10SM CLR 02/02 A3017 RMK AO2 T00160016
CKP,2017-04-01 05:45,-95.5538,42.7304,34.30,34.20,99.60,0.00,0.00,0.00,30.17,M,10.00,M,CLR,M,M,M,M,M,M,M,M,KCKP 010545Z AUTO 00000KT 10SM CLR 01/01 A3017 RMK AO2 T00130012
CKP,2017-04-01 05:55,-95.5538,42.7304,34.70,34.70,100.00,0.00,0.00,0.00,30.17,M,10.00,M,CLR,M,M,M,M,M,M,M,M,KCKP 010555Z AUTO 00000KT 10SM CLR 02/02 A3017 RMK AO2 T00150015 10080 20010 401200010
CKP,2017-04-01 06:05,-95.5538,42.7304,35.20,35.20,100.00,0.00,0.00,0.00,30.18,M,10.00,M,CLR,M,M,M,M,M,M,M,M,KCKP 010605Z AUTO 00000KT 10SM CLR 02/02 A3018 RMK AO2 T00180018
CKP,2017-04-01 06:15,-95.5538,42.7304,35.60,35.40,99.21,0.00,0.00,0.00,30.17,M,10.00,M,CLR,M,M,M,M,M,M,M,M,KCKP 010615Z AUTO 00000KT 10SM CLR 02/02 A3017 RMK AO2 T00200019
CKP,2017-04-01 06:25,-95.5538,42.7304,34.90,34.70,99.21,0.00,0.00,0.00,30.17,M,10.00,M,CLR,M,M,M,M,M,M,M,M,KCKP 010625Z AUTO 00000KT 10SM CLR 02/02 A3017 RMK AO2 T00160015
CKP,2017-04-01 06:35,-95.5538,42.7304,35.40,35.40,100.00,0.00,0.00,0.00,30.17,M,10.00,M,CLR,M,M,M,M,M,M,M,M,KCKP 010635Z AUTO 00000KT 10SM CLR 02/02 A3017 RMK AO2 T00190019
CKP,2017-04-01 06:45,-95.5538,42.7304,35.60,35.60,100.00,0.00,0.00,0.00,30.18,M,10.00,M,CLR,M,M,M,M,M,M,M,M,KCKP 010645Z AUTO 00000KT 10SM CLR 02/02 A3018 RMK AO2 T00200020
CKP,2017-04-01 06:55,-95.5538,42.7304,35.60,35.60,100.00,0.00,0.00,0.00,30.18,M,10.00,M,CLR,M,M,M,M,M,M,M,M,KCKP 010655Z AUTO 00000KT 10SM CLR 02/02 A3018 RMK AO2 T00200020
CKP,2017-04-01 07:05,-95.5538,42.7304,35.60,35.60,100.00,0.00,0.00,0.00,30.19,M,10.00,M,CLR,M,M,M,M,M,M,M,M,KCKP 010705Z AUTO 00000KT 10SM CLR 02/02 A3019 RMK AO2 T00200020
CKP,2017-04-01 07:15,-95.5538,42.7304,35.10,34.90,99.21,0.00,0.00,0.00,30.19,M,10.00,M,CLR,M,M,M,M,M,M,M,M,KCKP 010715Z AUTO 00000KT 10SM CLR 02/02 A3019 RMK AO2 T00170016
CKP,2017-04-01 07:25,-95.5538,42.7304,34.70,34.70,100.00,0.00,0.00,0.00,30.19,M,7.00,M,CLR,M,M,M,M,M,M,M,M,KCKP 010725Z AUTO 00000KT 7SM CLR 02/02 A3019 RMK AO2 T00150015
CKP,2017-04-01 07:35,-95.5538,42.7304,34.30,34.30,100.00,0.00,0.00,0.00,30.19,M,7.00,M,CLR,M,M,M,M,M,M,M,M,KCKP 010735Z AUTO 00000KT 7SM CLR 01/01 A3019 RMK AO2 T00130013
CKP,2017-04-01 07:45,-95.5538,42.7304,34.70,34.70,100.00,0.00,0.00,0.00,30.19,M,7.00,M,CLR,M,M,M,M,M,M,M,M,KCKP 010745Z AUTO 00000KT 7SM CLR 02/02 A3019 RMK AO2 T00150015
CKP,2017-04-01 07:55,-95.5538,42.7304,34.70,34.70,100.00,0.00,0.00,0.00,30.17,M,7.00,M,CLR,M,M,M,M,M,M,M,M,KCKP 010755Z AUTO 00000KT 7SM CLR 02/02 A3017 RMK AO2 T00150015
CKP,2017-04-01 08:05,-95.5538,42.7304,34.70,34.70,100.00,30.00,3.00,0.00,30.17,M,7.00,M,CLR,M,M,M,M,M,M,M,M,KCKP 010805Z AUTO 03003KT 7SM CLR 02/02 A3017 RMK AO2 T00150015
CKP,2017-04-01 08:15,-95.5538,42.7304,34.70,34.70,100.00,10.00,4.00,0.00,30.17,M,7.00,M,CLR,M,M,M,M,M,M,M,M,KCKP 010815Z AUTO 01004KT 7SM CLR 02/02 A3017 RMK AO2 T00150015
CKP,2017-04-01 08:25,-95.5538,42.7304,34.70,34.70,100.00,20.00,5.00,0.00,30.17,M,7.00,M,CLR,M,M,M,M,M,M,M,M,KCKP 010825Z AUTO 02005KT 7SM CLR 02/02 A3017 RMK AO2 T00150015
CKP,2017-04-01 08:35,-95.5538,42.7304,34.90,34.90,100.00,0.00,0.00,0.00,30.17,M,7.00,M,CLR,M,M,M,M,M,M,M,M,KCKP 010835Z AUTO 00000KT 7SM CLR 02/02 A3017 RMK AO2 LTG DSNT SW T00160016
CKP,2017-04-01 08:45,-95.5538,42.7304,35.10,35.10,100.00,0.00,0.00,0.00,30.18,M,7.00,M,CLR,M,M,M,M,M,M,M,M,KCKP 010845Z AUTO 00000KT 7SM CLR 02/02 A3018 RMK AO2 LTG DSNT SW T00170017
CKP,2017-04-01 08:55,-95.5538,42.7304,35.10,35.10,100.00,0.00,0.00,0.00,30.19,M,7.00,M,SCT,M,M,M,12000.00,M,M,M,M,KCKP 010855Z AUTO 00000KT 7SM SCT120 02/02 A3019 RMK AO2 T00170017
CKP,2017-04-01 09:05,-95.5538,42.7304,35.10,35.10,100.00,0.00,0.00,0.00,30.20,M,10.00,M,BKN,M,M,M,12000.00,M,M,M,M,KCKP 010905Z AUTO 00000KT 10SM BKN120 02/02 A3020 RMK AO2 T00170017
CKP,2017-04-01 09:15,-95.5538,42.7304,34.30,34.30,100.00,0.00,0.00,0.00,30.20,M,10.00,M,SCT,M,M,M,12000.00,M,M,M,M,KCKP 010915Z AUTO 00000KT 10SM SCT120 01/01 A3020 RMK AO2 T00130013
CKP,2017-04-01 09:25,-95.5538,42.7304,34.30,34.30,100.00,0.00,0.00,0.00,30.21,M,7.00,M,SCT,M,M,M,12000.00,M,M,M,M,KCKP 010925Z AUTO 00000KT 7SM SCT120 01/01 A3021 RMK AO2 T00130013
CKP,2017-04-01 09:35,-95.5538,42.7304,34.70,34.70,100.00,0.00,0.00,0.00,30.21,M,7.00,M,CLR,M,M,M,M,M,M,M,M,KCKP 010935Z AUTO 00000KT 7SM CLR 02/02 A3021 RMK AO2 T00150015
CKP,2017-04-01 09:45,-95.5538,42.7304,34.30,34.30,100.00,0.00,0.00,0.00,30.20,M,7.00,M,CLR,M,M,M,M,M,M,M,M,KCKP 010945Z AUTO 00000KT 7SM CLR 01/01 A3020 RMK AO2 T00130013
CKP,2017-04-01 09:55,-95.5538,42.7304,34.00,34.00,100.00,0.00,0.00,0.00,30.20,M,7.00,M,CLR,M,M,M,M,M,M,M,M,KCKP 010955Z AUTO 00000KT 7SM CLR 01/01 A3020 RMK AO2 T00110011
CKP,2017-04-01 10:05,-95.5538,42.7304,33.60,33.60,100.00,0.00,0.00,0.00,30.20,M,7.00,M,SCT,M,M,M,12000.00,M,M,M,M,KCKP 011005Z AUTO 00000KT 7SM SCT120 01/01 A3020 RMK AO2 T00090009
CKP,2017-04-01 10:15,-95.5538,42.7304,32.40,32.40,100.00,0.00,0.00,0.00,30.20,M,7.00,M,SCT,M,M,M,12000.00,M,M,M,M,KCKP 011015Z AUTO 00000KT 7SM SCT120 00/00 A3020 RMK AO2 T00020002
CKP,2017-04-01 10:25,-95.5538,42.7304,33.10,33.10,100.00,0.00,0.00,0.00,30.20,M,7.00,M,BKN,M,M,M,12000.00,M,M,M,M,KCKP 011025Z AUTO 00000KT 7SM BKN120 01/01 A3020 RMK AO2 T00060006
CKP,2017-04-01 10:35,-95.5538,42.7304,33.30,33.30,100.00,0.00,0.00,0.00,30.20,M,5.00,M,BKN,M,M,M,12000.00,M,M,M,BR,KCKP 011035Z AUTO 00000KT 5SM BR BKN120 01/01 A3020 RMK AO2 T00070007
CKP,2017-04-01 10:45,-95.5538,42.7304,33.80,33.80,100.00,0.00,0.00,0.00,30.20,M,7.00,M,OVC,M,M,M,12000.00,M,M,M,M,KCKP 011045Z AUTO 00000KT 7SM OVC120 01/01 A3020 RMK AO2 T00100010
CKP,2017-04-01 10:55,-95.5538,42.7304,33.40,33.40,100.00,0.00,0.00,0.00,30.21,M,7.00,M,OVC,M,M,M,12000.00,M,M,M,M,KCKP 011055Z AUTO 00000KT 7SM OVC120 01/01 A3021 RMK AO2 T00080008
CKP,2017-04-01 11:05,-95.5538,42.7304,33.30,33.30,100.00,0.00,0.00,0.00,30.22,M,7.00,M,BKN,M,M,M,12000.00,M,M,M,M,KCKP 011105Z AUTO 00000KT 7SM BKN120 01/01 A3022 RMK AO2 T00070007
CKP,2017-04-01 11:15,-95.5538,42.7304,33.60,33.60,100.00,0.00,0.00,0.00,30.23,M,7.00,M,BKN,M,M,M,12000.00,M,M,M,M,KCKP 011115Z AUTO 00000KT 7SM BKN120 01/01 A3023 RMK AO2 T00090009
CKP,2017-04-01 11:25,-95.5538,42.7304,34.20,34.20,100.00,0.00,0.00,0.00,30.23,M,7.00,M,BKN,M,M,M,12000.00,M,M,M,M,KCKP 011125Z AUTO 00000KT 7SM BKN120 01/01 A3023 RMK AO2 T00120012
CKP,2017-04-01 11:35,-95.5538,42.7304,34.70,34.70,100.00,0.00,0.00,0.00,30.23,M,7.00,M,OVC,M,M,M,11000.00,M,M,M,M,KCKP 011135Z AUTO 00000KT 7SM OVC110 02/02 A3023 RMK AO2 T00150015
CKP,2017-04-01 11:45,-95.5538,42.7304,34.90,34.90,100.00,0.00,0.00,0.00,30.23,M,7.00,M,OVC,M,M,M,11000.00,M,M,M,M,KCKP 011145Z AUTO 00000KT 7SM OVC110 02/02 A3023 RMK AO2 T00160016
CKP,2017-04-01 11:55,-95.5538,42.7304,34.70,34.70,100.00,360.00,4.00,0.00,30.23,M,7.00,M,BKN,M,M,M,11000.00,M,M,M,M,KCKP 011155Z AUTO 36004KT 7SM BKN110 02/02 A3023 RMK AO2 T00150015 10021 20002
CKP,2017-04-01 12:05,-95.5538,42.7304,34.90,34.90,100.00,0.00,0.00,0.00,30.23,M,7.00,M,BKN,M,M,M,11000.00,M,M,M,M,KCKP 011205Z AUTO 00000KT 7SM BKN110 02/02 A3023 RMK AO2 T00160016
CKP,2017-04-01 12:15,-95.5538,42.7304,35.10,35.10,100.00,0.00,0.00,0.00,30.24,M,7.00,M,BKN,BKN,M,M,9500.00,11000.00,M,M,M,KCKP 011215Z AUTO 00000KT 7SM BKN095 BKN110 02/02 A3024 RMK AO2 T00170017
CKP,2017-04-01 12:25,-95.5538,42.7304,35.20,35.20,100.00,0.00,0.00,0.00,30.24,M,5.00,M,BKN,M,M,M,9500.00,M,M,M,BR,KCKP 011225Z AUTO 00000KT 5SM BR BKN095 02/02 A3024 RMK AO2 T00180018
CKP,2017-04-01 12:35,-95.5538,42.7304,35.60,35.60,100.00,30.00,3.00,0.00,30.24,M,5.00,M,OVC,M,M,M,9500.00,M,M,M,BR,KCKP 011235Z AUTO 03003KT 5SM BR OVC095 02/02 A3024 RMK AO2 T00200020
CKP,2017-04-01 12:45,-95.5538,42.7304,35.80,35.80,100.00,20.00,4.00,0.00,30.24,M,5.00,M,OVC,M,M,M,9500.00,M,M,M,BR,KCKP 011245Z AUTO 02004KT 5SM BR OVC095 02/02 A3024 RMK AO2 LTG DSNT SW T00210021
CKP,2017-04-01 12:55,-95.5538,42.7304,35.80,35.80,100.00,30.00,5.00,0.00,30.24,M,7.00,M,OVC,M,M,M,9500.00,M,M,M,M,KCKP 011255Z AUTO 03005KT 7SM OVC095 02/02 A3024 RMK AO2 LTG DSNT SW T00210021
CKP,2017-04-01 13:05,-95.5538,42.7304,36.10,36.10,100.00,30.00,3.00,0.00,30.24,M,7.00,M,OVC,M,M,M,8500.00,M,M,M,M,KCKP 011305Z AUTO 03003KT 7SM OVC085 02/02 A3024 RMK AO2 T00230023
CKP,2017-04-01 13:15,-95.5538,42.7304,36.70,36.70,100.00,20.00,4.00,0.00,30.24,M,7.00,M,OVC,M,M,M,8500.00,M,M,M,M,KCKP 011315Z AUTO 02004KT 7SM OVC085 03/03 A3024 RMK AO2 T00260026
CKP,2017-04-01 13:25,-95.5538,42.7304,37.00,37.00,100.00,10.00,3.00,0.00,30.25,M,7.00,M,OVC,M,M,M,8500.00,M,M,M,M,KCKP 011325Z AUTO 01003KT 7SM OVC085 03/03 A3025 RMK AO2 T00280028
CKP,2017-04-01 13:35,-95.5538,42.7304,37.40,37.40,100.00,10.00,3.00,0.00,30.25,M,7.00,M,OVC,M,M,M,9500.00,M,M,M,M,KCKP 011335Z AUTO 01003KT 7SM OVC095 03/03 A3025 RMK AO2 T00300030
CKP,2017-04-01 13:45,-95.5538,42.7304,37.90,37.80,99.61,30.00,3.00,0.00,30.24,M,7.00,M,BKN,M,M,M,9500.00,M,M,M,M,KCKP 011345Z AUTO 03003KT 7SM BKN095 03/03 A3024 RMK AO2 T00330032
CKP,2017-04-01 13:55,-95.5538,42.7304,38.70,38.30,98.45,30.00,3.00,0.00,30.24,M,7.00,M,SCT,M,M,M,9500.00,M,M,M,M,KCKP 011355Z AUTO 03003KT 7SM SCT095 04/04 A3024 RMK AO2 T00370035
CKP,2017-04-01 14:05,-95.5538,42.7304,39.20,38.30,96.54,30.00,3.00,0.00,30.24,M,10.00,M,SCT,M,M,M,9500.00,M,M,M,M,KCKP 011405Z AUTO 03003KT 10SM SCT095 04/04 A3024 RMK AO2 T00400035
CKP,2017-04-01 14:15,-95.5538,42.7304,40.30,39.00,95.06,30.00,3.00,0.00,30.25,M,10.00,M,CLR,M,M,M,M,M,M,M,M,KCKP 011415Z AUTO 03003KT 10SM CLR 05/04 A3025 RMK AO2 T00460039
CKP,2017-04-01 14:25,-95.5538,42.7304,41.00,39.40,93.97,20.00,3.00,0.00,30.25,M,10.00,M,CLR,M,M,M,M,M,M,M,M,KCKP 011425Z AUTO 02003KT 10SM CLR 05/04 A3025 RMK AO2 T00500041
CKP,2017-04-01 14:35,-95.5538,42.7304,41.90,39.70,91.83,30.00,3.00,0.00,30.25,M,10.00,M,CLR,M,M,M,M,M,M,M,M,KCKP 011435Z AUTO 03003KT 10SM CLR 06/04 A3025 RMK AO2 T00550043
CKP,2017-04-01 14:45,-95.5538,42.7304,42.80,39.70,88.70,0.00,0.00,0.00,30.24,M,10.00,M,SCT,SCT,M,M,10000.00,12000.00,M,M,M,KCKP 011445Z AUTO 00000KT 10SM SCT100 SCT120 06/04 A3024 RMK AO2 T00600043
CKP,2017-04-01 14:55,-95.5538,42.7304,43.30,39.40,86.01,0.00,0.00,0.00,30.25,M,10.00,M,SCT,SCT,M,M,10000.00,12000.00,M,M,M,KCKP 011455Z AUTO 00000KT 10SM SCT100 SCT120 06/04 A3025 RMK AO2 T00630041
CKP,2017-04-01 15:05,-95.5538,42.7304,43.90,39.90,85.71,0.00,0.00,0.00,30.24,M,10.00,M,SCT,SCT,M,M,10000.00,12000.00,M,M,M,KCKP 011505Z AUTO 00000KT 10SM SCT100 SCT120 07/04 A3024 RMK AO2 T00660044
CKP,2017-04-01 15:15,-95.5538,42.7304,44.60,39.90,83.45,10.00,3.00,0.00,30.25,M,10.00,M,CLR,M,M,M,M,M,M,M,M,KCKP 011515Z AUTO 01003KT 10SM CLR 07/04 A3025 RMK AO2 T00700044
CKP,2017-04-01 15:25,-95.5538,42.7304,45.30,39.90,81.26,20.00,3.00,0.00,30.25,M,10.00,M,CLR,M,M,M,M,M,M,M,M,KCKP 011525Z AUTO 02003KT 10SM CLR 07/04 A3025 RMK AO2 T00740044
CKP,2017-04-01 15:35,-95.5538,42.7304,46.00,39.70,78.52,30.00,4.00,0.00,30.25,M,10.00,M,CLR,M,M,M,M,M,M,M,M,KCKP 011535Z AUTO 03004KT 10SM CLR 08/04 A3025 RMK AO2 T00780043
CKP,2017-04-01 15:45,-95.5538,42.7304,46.60,40.10,77.96,30.00,3.00,0.00,30.25,M,10.00,M,CLR,M,M,M,M,M,M,M,M,KCKP 011545Z AUTO 03003KT 10SM CLR 08/05 A3025 RMK AO2 T00810045
CKP,2017-04-01 15:55,-95.5538,42.7304,47.30,39.70,74.76,0.00,0.00,0.00,30.26,M,10.00,M,CLR,M,M,M,M,M,M,M,M,KCKP 011555Z AUTO 00000KT 10SM CLR 09/04 A3026 RMK AO2 T00850043
CKP,2017-04-01 16:05,-95.5538,42.7304,47.50,39.60,73.91,0.00,0.00,0.00,30.26,M,10.00,M,CLR,M,M,M,M,M,M,M,M,KCKP 011605Z AUTO 00000KT 10SM CLR 09/04 A3026 RMK AO2 T00860042
CKP,2017-04-01 16:15,-95.5538,42.7304,47.50,38.50,70.80,0.00,0.00,0.00,30.26,M,10.00,M,SCT,M,M,M,12000.00,M,M,M,M,KCKP 011615Z AUTO 00000KT 10SM SCT120 09/04 A3026 RMK AO2 T00860036
CKP,2017-04-01 16:25,-95.5538,42.7304,47.80,39.40,72.51,0.00,0.00,0.00,30.25,M,10.00,M,SCT,M,M,M,12000.00,M,M,M,M,KCKP 011625Z AUTO 00000KT 10SM SCT120 09/04 A3025 RMK AO2 T00880041
CKP,2017-04-01 16:35,-95.5538,42.7304,48.40,39.20,70.35,170.00,3.00,0.00,30.25,M,10.00,M,SCT,M,M,M,12000.00,M,M,M,M,KCKP 011635Z AUTO 17003KT 10SM SCT120 09/04 A3025 RMK AO2 T00910040
CKP,2017-04-01 16:45,-95.5538,42.7304,48.60,39.20,69.82,0.00,0.00,0.00,30.25,M,10.00,M,SCT,M,M,M,12000.00,M,M,M,M,KCKP 011645Z AUTO 00000KT 10SM SCT120 09/04 A3025 RMK AO2 T00920040
CKP,2017-04-01 16:55,-95.5538,42.7304,49.10,39.20,68.53,200.00,3.00,0.00,30.25,M,10.00,M,SCT,BKN,M,M,10000.00,12000.00,M,M,M,KCKP 011655Z AUTO 20003KT 10SM SCT100 BKN120 10/04 A3025 RMK AO2 T00950040
CKP,2017-04-01 17:05,-95.5538,42.7304,48.70,38.80,68.48,0.00,0.00,0.00,30.25,M,10.00,M,BKN,OVC,M,M,10000.00,12000.00,M,M,M,KCKP 011705Z AUTO 00000KT 10SM BKN100 OVC120 09/04 A3025 RMK AO2 T00930038
CKP,2017-04-01 17:15,-95.5538,42.7304,49.30,38.70,66.70,0.00,0.00,0.00,30.25,M,10.00,M,SCT,OVC,M,M,10000.00,12000.00,M,M,M,KCKP 011715Z AUTO 00000KT 10SM SCT100 OVC120 10/04 A3025 RMK AO2 T00960037
CKP,2017-04-01 17:25,-95.5538,42.7304,49.50,38.80,66.47,0.00,0.00,0.00,30.24,M,10.00,M,SCT,BKN,M,M,10000.00,12000.00,M,M,M,KCKP 011725Z AUTO 00000KT 10SM SCT100 BKN120 10/04 A3024 RMK AO2 T00970038
CKP,2017-04-01 17:35,-95.5538,42.7304,50.00,38.10,63.48,0.00,0.00,0.00,30.24,M,10.00,M,BKN,M,M,M,12000.00,M,M,M,M,KCKP 011735Z AUTO 00000KT 10SM BKN120 10/03 A3024 RMK AO2 T01000034
CKP,2017-04-01 17:45,-95.5538,42.7304,50.40,37.90,62.05,0.00,0.00,0.00,30.24,M,10.00,M,SCT,BKN,M,M,9500.00,12000.00,M,M,M,KCKP 011745Z AUTO 00000KT 10SM SCT095 BKN120 10/03 A3024 RMK AO2 T01020033
CKP,2017-04-01 17:55,-95.5538,42.7304,50.90,38.80,63.10,360.00,3.00,0.00,30.24,M,10.00,M,SCT,M,M,M,12000.00,M,M,M,M,KCKP 011755Z AUTO 36003KT 10SM SCT120 11/04 A3024 RMK AO2 T01050038 10105 20015
CKP,2017-04-01 18:05,-95.5538,42.7304,51.40,38.30,60.74,70.00,4.00,0.00,30.23,M,10.00,M,SCT,M,M,M,12000.00,M,M,M,M,KCKP 011805Z AUTO 07004KT 10SM SCT120 11/04 A3023 RMK AO2 T01080035
CKP,2017-04-01 18:15,-95.5538,42.7304,51.80,37.80,58.69,0.00,0.00,0.00,30.23,M,10.00,M,SCT,M,M,M,12000.00,M,M,M,M,KCKP 011815Z AUTO 00000KT 10SM SCT120 11/03 A3023 RMK AO2 T01100032
CKP,2017-04-01 18:25,-95.5538,42.7304,52.20,37.40,56.93,90.00,4.00,0.00,30.22,M,10.00,M,SCT,M,M,M,12000.00,M,M,M,M,KCKP 011825Z AUTO 09004KT 10SM SCT120 11/03 A3022 RMK AO2 T01120030
CKP,2017-04-01 18:35,-95.5538,42.7304,52.70,36.90,54.80,160.00,3.00,0.00,30.22,M,10.00,M,SCT,M,M,M,12000.00,M,M,M,M,KCKP 011835Z AUTO 16003KT 10SM SCT120 12/03 A3022 RMK AO2 T01150027
CKP,2017-04-01 18:45,-95.5538,42.7304,53.10,37.60,55.51,130.00,3.00,0.00,30.21,M,10.00,M,SCT,M,M,M,12000.00,M,M,M,M,KCKP 011845Z AUTO 13003KT 10SM SCT120 12/03 A3021 RMK AO2 T01170031
CKP,2017-04-01 18:55,-95.5538,42.7304,53.60,35.20,49.57,0.00,0.00,0.00,30.21,M,10.00,M,SCT,M,M,M,12000.00,M,M,M,M,KCKP 011855Z AUTO 00000KT 10SM SCT120 12/02 A3021 RMK AO2 T01200018
CKP,2017-04-01 19:05,-95.5538,42.7304,53.80,33.60,46.16,0.00,0.00,0.00,30.21,M,10.00,M,CLR,M,M,M,M,M,M,M,M,KCKP 011905Z AUTO 00000KT 10SM CLR 12/01 A3021 RMK AO2 T01210009
CKP,2017-04-01 19:15,-95.5538,42.7304,54.00,34.00,46.57,110.00,3.00,0.00,30.21,M,10.00,M,CLR,M,M,M,M,M,M,M,M,KCKP 011915Z AUTO 11003KT 10SM CLR 12/01 A3021 RMK AO2 T01220011
CKP,2017-04-01 19:25,-95.5538,42.7304,54.30,33.10,44.43,160.00,3.00,0.00,30.21,M,10.00,M,CLR,M,M,M,M,M,M,M,M,KCKP 011925Z AUTO 16003KT 10SM CLR 12/01 A3021 RMK AO2 T01240006
CKP,2017-04-01 19:35,-95.5538,42.7304,54.10,32.50,43.69,130.00,6.00,0.00,30.20,M,10.00,M,SCT,M,M,M,11000.00,M,M,M,M,KCKP 011935Z AUTO 13006KT 10SM SCT110 12/00 A3020 RMK AO2 T01230003
CKP,2017-04-01 19:45,-95.5538,42.7304,54.10,32.70,44.04,130.00,4.00,0.00,30.19,M,10.00,M,SCT,M,M,M,11000.00,M,M,M,M,KCKP 011945Z AUTO 13004KT 10SM SCT110 12/00 A3019 RMK AO2 T01230004
CKP,2017-04-01 19:55,-95.5538,42.7304,54.00,31.80,42.63,120.00,3.00,0.00,30.19,M,10.00,M,SCT,M,M,M,11000.00,M,M,M,M,KCKP 011955Z AUTO 12003KT 10SM SCT110 12/00 A3019 RMK AO2 T01221001
CKP,2017-04-01 20:05,-95.5538,42.7304,54.70,31.50,41.05,120.00,4.00,0.00,30.19,M,10.00,M,CLR,M,M,M,M,M,M,M,M,KCKP 012005Z AUTO 12004KT 10SM CLR 13/00 A3019 RMK AO2 T01261003
CKP,2017-04-01 20:15,-95.5538,42.7304,55.40,31.80,40.51,130.00,6.00,0.00,30.19,M,10.00,M,CLR,M,M,M,M,M,M,M,M,KCKP 012015Z AUTO 13006KT 10SM CLR 13/00 A3019 RMK AO2 T01301001
CKP,2017-04-01 20:25,-95.5538,42.7304,55.80,30.60,38.03,130.00,7.00,0.00,30.18,M,10.00,M,CLR,M,M,M,M,M,M,M,M,KCKP 012025Z AUTO 13007KT 10SM CLR 13/M01 A3018 RMK AO2 T01321008
CKP,2017-04-01 20:35,-95.5538,42.7304,55.80,30.20,37.42,120.00,5.00,0.00,30.18,M,10.00,M,CLR,M,M,M,M,M,M,M,M,KCKP 012035Z AUTO 12005KT 10SM CLR 13/M01 A3018 RMK AO2 T01321010
CKP,2017-04-01 20:45,-95.5538,42.7304,55.60,31.30,39.41,140.00,5.00,0.00,30.17,M,10.00,M,CLR,M,M,M,M,M,M,M,M,KCKP 012045Z AUTO 14005KT 10SM CLR 13/00 A3017 RMK AO2 T01311004
CKP,2017-04-01 20:55,-95.5538,42.7304,56.10,31.60,39.18,130.00,5.00,0.00,30.17,M,10.00,M,CLR,M,M,M,M,M,M,M,M,KCKP 012055Z AUTO 13005KT 10SM CLR 13/00 A3017 RMK AO2 T01341002
CKP,2017-04-01 21:05,-95.5538,42.7304,56.10,32.00,39.81,120.00,4.00,0.00,30.17,M,10.00,M,CLR,M,M,M,M,M,M,M,M,KCKP 012105Z AUTO 12004KT 10SM CLR 13/00 A3017 RMK AO2 T01340000
CKP,2017-04-01 21:15,-95.5538,42.7304,55.20,30.90,39.35,130.00,4.00,0.00,30.18,M,10.00,M,SCT,M,M,M,10000.00,M,M,M,M,KCKP 012115Z AUTO 13004KT 10SM SCT100 13/M01 A3018 RMK AO2 T01291006
CKP,2017-04-01 21:25,-95.5538,42.7304,55.00,32.00,41.44,100.00,4.00,0.00,30.18,M,10.00,M,BKN,M,M,M,10000.00,M,M,M,M,KCKP 012125Z AUTO 10004KT 10SM BKN100 13/00 A3018 RMK AO2 T01280000
CKP,2017-04-01 21:35,-95.5538,42.7304,55.20,32.00,41.14,110.00,3.00,0.00,30.17,M,10.00,M,OVC,M,M,M,10000.00,M,M,M,M,KCKP 012135Z AUTO 11003KT 10SM OVC100 13/00 A3017 RMK AO2 T01290000
CKP,2017-04-01 21:45,-95.5538,42.7304,55.00,31.80,41.10,140.00,3.00,0.00,30.16,M,10.00,M,OVC,M,M,M,10000.00,M,M,M,M,KCKP 012145Z AUTO 14003KT 10SM OVC100 13/00 A3016 RMK AO2 T01281001
CKP,2017-04-01 21:55,-95.5538,42.7304,55.20,32.20,41.47,120.00,5.00,0.00,30.16,M,10.00,M,BKN,M,M,M,10000.00,M,M,M,M,KCKP 012155Z AUTO 12005KT 10SM BKN100 13/00 A3016 RMK AO2 T01290001
CKP,2017-04-01 22:05,-95.5538,42.7304,54.70,32.20,42.23,110.00,3.00,0.00,30.16,M,10.00,M,SCT,M,M,M,10000.00,M,M,M,M,KCKP 012205Z AUTO 11003KT 10SM SCT100 13/00 A3016 RMK AO2 T01260001
CKP,2017-04-01 22:15,-95.5538,42.7304,54.70,32.20,42.23,140.00,3.00,0.00,30.16,M,10.00,M,SCT,M,M,M,10000.00,M,M,M,M,KCKP 012215Z AUTO 14003KT 10SM SCT100 13/00 A3016 RMK AO2 T01260001
CKP,2017-04-01 22:25,-95.5538,42.7304,54.70,32.40,42.57,130.00,3.00,0.00,30.16,M,10.00,M,CLR,M,M,M,M,M,M,M,M,KCKP 012225Z AUTO 13003KT 10SM CLR 13/00 A3016 RMK AO2 T01260002
CKP,2017-04-01 22:35,-95.5538,42.7304,54.50,32.20,42.54,150.00,3.00,0.00,30.16,M,10.00,M,CLR,M,M,M,M,M,M,M,M,KCKP 012235Z AUTO 15003KT 10SM CLR 13/00 A3016 RMK AO2 T01250001
CKP,2017-04-01 22:45,-95.5538,42.7304,54.50,32.40,42.88,130.00,6.00,0.00,30.16,M,10.00,M,CLR,M,M,M,M,M,M,M,M,KCKP 012245Z AUTO 13006KT 10SM CLR 13/00 A3016 RMK AO2 T01250002
CKP,2017-04-01 22:55,-95.5538,42.7304,54.10,32.20,43.17,140.00,6.00,0.00,30.16,M,10.00,M,SCT,M,M,M,10000.00,M,M,M,M,KCKP 012255Z AUTO 14006KT 10SM SCT100 12/00 A3016 RMK AO2 T01230001
CKP,2017-04-01 23:05,-95.5538,42.7304,54.00,34.00,46.57,160.00,5.00,0.00,30.16,M,10.00,M,CLR,M,M,M,M,M,M,M,M,KCKP 012305Z AUTO 16005KT 10SM CLR 12/01 A3016 RMK AO2 T01220011
CKP,2017-04-01 23:15,-95.5538,42.7304,53.60,34.20,47.63,160.00,6.00,0.00,30.16,M,10.00,M,CLR,M,M,M,M,M,M,M,M,KCKP 012315Z AUTO 16006KT 10SM CLR 12/01 A3016 RMK AO2 T01200012
CKP,2017-04-01 23:25,-95.5538,42.7304,53.20,33.60,47.19,160.00,5.00,0.00,30.15,M,10.00,M,CLR,M,M,M,M,M,M,M,M,KCKP 012325Z AUTO 16005KT 10SM CLR 12/01 A3015 RMK AO2 T01180009
CKP,2017-04-01 23:35,-95.5538,42.7304,53.10,33.40,46.99,160.00,6.00,0.00,30.15,M,10.00,M,CLR,M,M,M,M,M,M,M,M,KCKP 012335Z AUTO 16006KT 10SM CLR 12/01 A3015 RMK AO2 T01170008
CKP,2017-04-01 23:45,-95.5538,42.7304,52.70,34.20,49.23,140.00,4.00,0.00,30.15,M,10.00,M,CLR,M,M,M,M,M,M,M,M,KCKP 012345Z AUTO 14004KT 10SM CLR 12/01 A3015 RMK AO2 T01150012
CKP,2017-04-01 23:55,-95.5538,42.7304,52.50,33.80,48.81,130.00,3.00,0.00,30.14,M,10.00,M,CLR,M,M,M,M,M,M,M,M,KCKP 012355Z AUTO 13003KT 10SM CLR 11/01 A3014 RMK AO2 T01140010 10135 20106
