#DEBUG: Format Typ    -> comma
#DEBUG: Time Period   -> 2017-04-01 00:00:00+00:00 2017-04-02 00:00:00+00:00
#DEBUG: Time Zone     -> Etc/UTC
#DEBUG: Data Contact   -> daryl herzmann akrherz@iastate.edu 515-294-5978
#DEBUG: Entries Found -> -1
station,valid,lon,lat,tmpf, dwpf, relh, drct, sknt, p01i, alti, mslp, vsby, gust, skyc1, skyc2, skyc3, skyc4, skyl1, skyl2, skyl3, skyl4, presentwx, metar
CKV,2017-04-01 00:00,-87.4150,36.6219,M,M,M,350.00,9.00,M,29.93,M,10.00,M,OVC,M,M,M,3200.00,M,M,M,M,KCKV 010000Z AUTO 35009KT 10SM OVC032 A2993 RMK MADISHF
CKV,2017-04-01 00:05,-87.4150,36.6219,M,M,M,350.00,8.00,M,29.93,M,10.00,M,OVC,M,M,M,3200.00,M,M,M,M,KCKV 010005Z AUTO 35008KT 10SM OVC032 A2993 RMK MADISHF
CKV,2017-04-01 00:10,-87.4150,36.6219,M,M,M,340.00,8.00,M,29.94,M,10.00,M,OVC,M,M,M,3200.00,M,M,M,M,KCKV 010010Z AUTO 34008KT 10SM OVC032 A2994 RMK MADISHF
CKV,2017-04-01 00:15,-87.4150,36.6219,M,M,M,350.00,8.00,M,29.94,M,10.00,M,OVC,M,M,M,3399.00,M,M,M,M,KCKV 010015Z AUTO 35008KT 10SM OVC033 A2994 RMK MADISHF
CKV,2017-04-01 00:20,-87.4150,36.6219,M,M,M,340.00,8.00,M,29.94,M,10.00,M,OVC,M,M,M,3399.00,M,M,M,M,KCKV 010020Z AUTO 34008KT 10SM OVC033 A2994 RMK MADISHF
CKV,2017-04-01 00:25,-87.4150,36.6219,M,M,M,330.00,9.00,M,29.94,M,10.00,M,OVC,M,M,M,3600.00,M,M,M,M,KCKV 010025Z AUTO 33009KT 10SM OVC036 A2994 RMK MADISHF
CKV,2017-04-01 00:30,-87.4150,36.6219,M,M,M,330.00,8.00,M,29.94,M,10.00,M,OVC,M,M,M,3600.00,M,M,M,M,KCKV 010030Z AUTO 33008KT 10SM OVC036 A2994 RMK MADISHF
CKV,2017-04-01 00:35,-87.4150,36.6219,M,M,M,340.00,9.00,M,29.95,M,10.00,M,OVC,M,M,M,3600.00,M,M,M,M,KCKV 010035Z AUTO 34009KT 10SM OVC036 A2995 RMK MADISHF
CKV,2017-04-01 00:40,-87.4150,36.6219,M,M,M,340.00,8.00,M,29.95,M,10.00,M,OVC,M,M,M,3800.00,M,M,M,M,KCKV 010040Z AUTO 34008KT 10SM OVC038 A2995 RMK MADISHF
CKV,2017-04-01 00:45,-87.4150,36.6219,M,M,M,340.00,9.00,M,29.96,M,10.00,M,OVC,M,M,M,3800.00,M,M,M,M,KCKV 010045Z AUTO 34009KT 10SM OVC038 A2996 RMK MADISHF
CKV,2017-04-01 00:50,-87.4150,36.6219,M,M,M,340.00,6.00,M,29.96,M,10.00,M,OVC,M,M,M,3800.00,M,M,M,M,KCKV 010050Z AUTO 34006KT 10SM OVC038 A2996 RMK MADISHF
CKV,2017-04-01 00:52,-87.4150,36.6219,53.10,45.00,73.89,340.00,7.00,0.00,29.96,1014.40,10.00,M,OVC,M,M,M,3800.00,M,M,M,M,KCKV 010052Z AUTO 34007KT 10SM OVC038 12/07 A2996 RMK AO2 SLP144 T01170072
CKV,2017-04-01 00:55,-87.4150,36.6219,M,M,M,340.00,9.00,M,29.96,M,10.00,M,OVC,M,M,M,3800.00,M,M,M,M,KCKV 010055Z AUTO 34009KT 10SM OVC038 A2996 RMK MADISHF
CKV,2017-04-01 01:00,-87.4150,36.6219,M,M,M,350.00,11.00,M,29.96,M,10.00,M,OVC,M,M,M,3700.00,M,M,M,M,KCKV 010100Z AUTO 35011KT 10SM OVC037 A2996 RMK MADISHF
CKV,2017-04-01 01:05,-87.4150,36.6219,M,M,M,340.00,11.00,M,29.97,M,10.00,M,OVC,M,M,M,3700.00,M,M,M,M,KCKV 010105Z AUTO 34011KT 10SM OVC037 A2997 RMK MADISHF
CKV,2017-04-01 01:10,-87.4150,36.6219,M,M,M,350.00,10.00,M,29.97,M,10.00,M,OVC,M,M,M,3700.00,M,M,M,M,KCKV 010110Z AUTO 35010KT 10SM OVC037 A2997 RMK MADISHF
CKV,2017-04-01 01:15,-87.4150,36.6219,M,M,M,350.00,11.00,M,29.97,M,10.00,M,OVC,M,M,M,3700.00,M,M,M,M,KCKV 010115Z AUTO 35011KT 10SM OVC037 A2997 RMK MADISHF
CKV,2017-04-01 01:20,-87.4150,36.6219,M,M,M,350.00,9.00,M,29.97,M,10.00,M,OVC,M,M,M,3600.00,M,M,M,M,KCKV 010120Z AUTO 35009KT 10SM OVC036 A2997 RMK MADISHF
CKV,2017-04-01 01:25,-87.4150,36.6219,M,M,M,350.00,8.00,M,29.98,M,10.00,M,FEW,OVC,M,M,2700.00,3600.00,M,M,M,KCKV 010125Z AUTO 35008KT 10SM FEW027 OVC036 A2998 RMK MADISHF
CKV,2017-04-01 01:30,-87.4150,36.6219,M,M,M,350.00,9.00,M,29.98,M,10.00,M,FEW,OVC,M,M,2700.00,3500.00,M,M,M,KCKV 010130Z AUTO 35009KT 10SM FEW027 OVC035 A2998 RMK MADISHF
CKV,2017-04-01 01:35,-87.4150,36.6219,M,M,M,10.00,7.00,M,29.98,M,10.00,M,FEW,OVC,M,M,2700.00,3500.00,M,M,M,KCKV 010135Z AUTO 01007KT 10SM FEW027 OVC035 A2998 RMK MADISHF
CKV,2017-04-01 01:40,-87.4150,36.6219,M,M,M,20.00,10.00,M,29.98,M,10.00,M,SCT,OVC,M,M,2700.00,3500.00,M,M,M,KCKV 010140Z AUTO 02010KT 10SM SCT027 OVC035 A2998 RMK MADISHF
CKV,2017-04-01 01:45,-87.4150,36.6219,M,M,M,10.00,10.00,M,29.98,M,10.00,M,SCT,OVC,M,M,2600.00,3500.00,M,M,M,KCKV 010145Z AUTO 01010KT 10SM SCT026 OVC035 A2998 RMK MADISHF
CKV,2017-04-01 01:50,-87.4150,36.6219,M,M,M,10.00,10.00,M,29.99,M,10.00,M,SCT,OVC,M,M,2600.00,3399.00,M,M,M,KCKV 010150Z AUTO 01010KT 10SM SCT026 OVC033 A2999 RMK MADISHF
CKV,2017-04-01 01:52,-87.4150,36.6219,52.00,44.10,74.35,10.00,10.00,0.00,29.99,1015.50,10.00,M,SCT,OVC,M,M,2600.00,3400.00,M,M,M,KCKV 010152Z AUTO 01010KT 10SM SCT026 OVC034 11/07 A2999 RMK AO2 SLP155 T01110067
CKV,2017-04-01 01:55,-87.4150,36.6219,M,M,M,10.00,9.00,M,29.99,M,10.00,M,FEW,OVC,M,M,2600.00,3399.00,M,M,M,KCKV 010155Z AUTO 01009KT 10SM FEW026 OVC033 A2999 RMK MADISHF
CKV,2017-04-01 02:00,-87.4150,36.6219,M,M,M,360.00,9.00,M,29.99,M,10.00,M,FEW,OVC,M,M,2600.00,3399.00,M,M,M,KCKV 010200Z AUTO 36009KT 10SM FEW026 OVC033 A2999 RMK MADISHF
CKV,2017-04-01 02:05,-87.4150,36.6219,M,M,M,10.00,11.00,M,29.99,M,10.00,M,FEW,OVC,M,M,2600.00,3200.00,M,M,M,KCKV 010205Z AUTO 01011KT 10SM FEW026 OVC032 A2999 RMK MADISHF
CKV,2017-04-01 02:10,-87.4150,36.6219,M,M,M,10.00,12.00,M,29.99,M,10.00,M,FEW,OVC,M,M,2600.00,3200.00,M,M,M,KCKV 010210Z AUTO 01012KT 10SM FEW026 OVC032 A2999 RMK MADISHF
CKV,2017-04-01 02:15,-87.4150,36.6219,M,M,M,10.00,9.00,M,30.00,M,10.00,M,OVC,M,M,M,3200.00,M,M,M,M,KCKV 010215Z AUTO 01009KT 10SM OVC032 A3000 RMK MADISHF
CKV,2017-04-01 02:20,-87.4150,36.6219,M,M,M,10.00,8.00,M,30.00,M,10.00,M,OVC,M,M,M,3200.00,M,M,M,M,KCKV 010220Z AUTO 01008KT 10SM OVC032 A3000 RMK MADISHF
CKV,2017-04-01 02:25,-87.4150,36.6219,M,M,M,10.00,9.00,M,30.00,M,10.00,M,OVC,M,M,M,3200.00,M,M,M,M,KCKV 010225Z AUTO 01009KT 10SM OVC032 A3000 RMK MADISHF
CKV,2017-04-01 02:30,-87.4150,36.6219,M,M,M,10.00,7.00,M,30.00,M,10.00,M,OVC,M,M,M,3100.00,M,M,M,M,KCKV 010230Z AUTO 01007KT 10SM OVC031 A3000 RMK MADISHF
CKV,2017-04-01 02:35,-87.4150,36.6219,M,M,M,10.00,9.00,M,30.00,M,10.00,M,OVC,M,M,M,3100.00,M,M,M,M,KCKV 010235Z AUTO 01009KT 10SM OVC031 A3000 RMK MADISHF
CKV,2017-04-01 02:40,-87.4150,36.6219,M,M,M,10.00,8.00,M,30.00,M,10.00,M,OVC,M,M,M,3100.00,M,M,M,M,KCKV 010240Z AUTO 01008KT 10SM OVC031 A3000 RMK MADISHF
CKV,2017-04-01 02:45,-87.4150,36.6219,M,M,M,360.00,8.00,M,30.01,M,10.00,M,OVC,M,M,M,3000.00,M,M,M,M,KCKV 010245Z AUTO 36008KT 10SM OVC030 A3001 RMK MADISHF
CKV,2017-04-01 02:50,-87.4150,36.6219,M,M,M,10.00,10.00,M,30.01,M,10.00,M,OVC,M,M,M,3000.00,M,M,M,M,KCKV 010250Z AUTO 01010KT 10SM OVC030 A3001 RMK MADISHF
CKV,2017-04-01 02:52,-87.4150,36.6219,50.00,43.00,76.76,10.00,9.00,0.00,30.01,1016.10,10.00,M,OVC,M,M,M,3000.00,M,M,M,M,KCKV 010252Z AUTO 01009KT 10SM OVC030 10/06 A3001 RMK AO2 SLP161 T01000061 51025
CKV,2017-04-01 02:55,-87.4150,36.6219,M,M,M,10.00,8.00,M,30.01,M,10.00,M,OVC,M,M,M,3000.00,M,M,M,M,KCKV 010255Z AUTO 01008KT 10SM OVC030 A3001 RMK MADISHF
CKV,2017-04-01 03:00,-87.4150,36.6219,M,M,M,10.00,8.00,M,30.01,M,10.00,M,OVC,M,M,M,3000.00,M,M,M,M,KCKV 010300Z AUTO 01008KT 10SM OVC030 A3001 RMK MADISHF
CKV,2017-04-01 03:05,-87.4150,36.6219,M,M,M,360.00,7.00,M,30.01,M,10.00,M,OVC,M,M,M,2900.00,M,M,M,M,KCKV 010305Z AUTO 36007KT 10SM OVC029 A3001 RMK MADISHF
CKV,2017-04-01 03:10,-87.4150,36.6219,50.00,43.00,76.76,10.00,10.00,0.00,30.01,M,10.00,M,OVC,M,M,M,2900.00,M,M,M,M,KCKV 010310Z AUTO 01010KT 10SM OVC029 10/06 A3001 RMK AO2 T01000061
CKV,2017-04-01 03:15,-87.4150,36.6219,M,M,M,360.00,8.00,M,30.02,M,10.00,M,OVC,M,M,M,2900.00,M,M,M,M,KCKV 010315Z AUTO 36008KT 10SM OVC029 A3002 RMK MADISHF
CKV,2017-04-01 03:20,-87.4150,36.6219,M,M,M,360.00,8.00,M,30.02,M,10.00,M,OVC,M,M,M,2900.00,M,M,M,M,KCKV 010320Z AUTO 36008KT 10SM OVC029 A3002 RMK MADISHF
CKV,2017-04-01 03:25,-87.4150,36.6219,M,M,M,360.00,7.00,M,30.02,M,10.00,M,OVC,M,M,M,2900.00,M,M,M,M,KCKV 010325Z AUTO 36007KT 10SM OVC029 A3002 RMK MADISHF
CKV,2017-04-01 03:30,-87.4150,36.6219,M,M,M,360.00,8.00,M,30.02,M,10.00,M,OVC,M,M,M,2900.00,M,M,M,M,KCKV 010330Z AUTO 36008KT 10SM OVC029 A3002 RMK MADISHF
CKV,2017-04-01 03:35,-87.4150,36.6219,M,M,M,350.00,8.00,M,30.02,M,10.00,M,OVC,M,M,M,2900.00,M,M,M,M,KCKV 010335Z AUTO 35008KT 10SM OVC029 A3002 RMK MADISHF
CKV,2017-04-01 03:40,-87.4150,36.6219,M,M,M,360.00,8.00,M,30.02,M,10.00,M,OVC,M,M,M,3000.00,M,M,M,M,KCKV 010340Z AUTO 36008KT 10SM OVC030 A3002 RMK MADISHF
CKV,2017-04-01 03:42,-87.4150,36.6219,50.00,43.00,76.76,350.00,8.00,0.00,30.02,M,10.00,M,OVC,M,M,M,3000.00,M,M,M,M,KCKV 010342Z AUTO 35008KT 10SM OVC030 10/06 A3002 RMK AO2 T01000061
CKV,2017-04-01 03:45,-87.4150,36.6219,M,M,M,360.00,7.00,M,30.02,M,10.00,M,OVC,M,M,M,3000.00,M,M,M,M,KCKV 010345Z AUTO 36007KT 10SM OVC030 A3002 RMK MADISHF
CKV,2017-04-01 03:50,-87.4150,36.6219,M,M,M,350.00,7.00,M,30.02,M,10.00,M,FEW,OVC,M,M,1800.00,3000.00,M,M,M,KCKV 010350Z AUTO 35007KT 10SM FEW018 OVC030 A3002 RMK MADISHF
CKV,2017-04-01 03:52,-87.4150,36.6219,50.00,43.00,76.76,350.00,7.00,0.00,30.02,1016.70,10.00,M,FEW,OVC,M,M,1800.00,3000.00,M,M,M,KCKV 010352Z AUTO 35007KT 10SM FEW018 OVC030 10/06 A3002 RMK AO2 SLP167 T01000061
CKV,2017-04-01 03:55,-87.4150,36.6219,M,M,M,350.00,6.00,M,30.03,M,10.00,M,SCT,OVC,M,M,1800.00,3000.00,M,M,M,KCKV 010355Z AUTO 35006KT 10SM SCT018 OVC030 A3003 RMK MADISHF
CKV,2017-04-01 04:00,-87.4150,36.6219,M,M,M,360.00,6.00,M,30.03,M,10.00,M,SCT,OVC,M,M,1699.00,3000.00,M,M,M,KCKV 010400Z AUTO 36006KT 10SM SCT016 OVC030 A3003 RMK MADISHF
CKV,2017-04-01 04:05,-87.4150,36.6219,M,M,M,360.00,7.00,M,30.03,M,10.00,M,FEW,OVC,M,M,1699.00,3000.00,M,M,M,KCKV 010405Z AUTO 36007KT 10SM FEW016 OVC030 A3003 RMK MADISHF
CKV,2017-04-01 04:10,-87.4150,36.6219,M,M,M,360.00,7.00,M,30.03,M,10.00,M,FEW,OVC,M,M,1699.00,3000.00,M,M,M,KCKV 010410Z AUTO 36007KT 10SM FEW016 OVC030 A3003 RMK MADISHF
CKV,2017-04-01 04:15,-87.4150,36.6219,M,M,M,360.00,6.00,M,30.03,M,10.00,M,FEW,OVC,M,M,1699.00,3000.00,M,M,M,KCKV 010415Z AUTO 36006KT 10SM FEW016 OVC030 A3003 RMK MADISHF
CKV,2017-04-01 04:20,-87.4150,36.6219,M,M,M,360.00,6.00,M,30.03,M,10.00,M,FEW,OVC,M,M,1699.00,3000.00,M,M,M,KCKV 010420Z AUTO 36006KT 10SM FEW016 OVC030 A3003 RMK MADISHF
CKV,2017-04-01 04:25,-87.4150,36.6219,M,M,M,360.00,9.00,M,30.03,M,10.00,M,OVC,M,M,M,3000.00,M,M,M,M,KCKV 010425Z AUTO 36009KT 10SM OVC030 A3003 RMK MADISHF
CKV,2017-04-01 04:30,-87.4150,36.6219,M,M,M,350.00,8.00,M,30.03,M,10.00,M,OVC,M,M,M,3000.00,M,M,M,M,KCKV 010430Z AUTO 35008KT 10SM OVC030 A3003 RMK MADISHF
CKV,2017-04-01 04:35,-87.4150,36.6219,M,M,M,350.00,7.00,M,30.03,M,10.00,M,FEW,OVC,M,M,1800.00,3000.00,M,M,M,KCKV 010435Z AUTO 35007KT 10SM FEW018 OVC030 A3003 RMK MADISHF
CKV,2017-04-01 04:40,-87.4150,36.6219,M,M,M,340.00,6.00,M,30.03,M,10.00,M,SCT,OVC,M,M,1999.00,3000.00,M,M,M,KCKV 010440Z AUTO 34006KT 10SM SCT019 OVC030 A3003 RMK MADISHF
CKV,2017-04-01 04:45,-87.4150,36.6219,M,M,M,340.00,5.00,M,30.03,M,10.00,M,FEW,BKN,OVC,M,1200.00,1999.00,3000.00,M,M,KCKV 010445Z AUTO 34005KT 10SM FEW012 BKN019 OVC030 A3003 RMK MADISHF
CKV,2017-04-01 04:50,-87.4150,36.6219,M,M,M,340.00,6.00,M,30.04,M,10.00,M,SCT,BKN,OVC,M,1400.00,1999.00,3000.00,M,M,KCKV 010450Z AUTO 34006KT 10SM SCT014 BKN019 OVC030 A3004 RMK MADISHF
CKV,2017-04-01 04:52,-87.4150,36.6219,48.90,43.00,79.98,340.00,5.00,0.00,30.04,1017.10,10.00,M,SCT,BKN,OVC,M,1400.00,2000.00,3000.00,M,M,KCKV 010452Z AUTO 34005KT 10SM SCT014 BKN020 OVC030 09/06 A3004 RMK AO2 SLP171 T00940061
CKV,2017-04-01 04:55,-87.4150,36.6219,M,M,M,340.00,5.00,M,30.04,M,10.00,M,BKN,BKN,OVC,M,1400.00,1999.00,3000.00,M,M,KCKV 010455Z AUTO 34005KT 10SM BKN014 BKN019 OVC030 A3004 RMK MADISHF
CKV,2017-04-01 05:00,-87.4150,36.6219,M,M,M,340.00,5.00,M,30.04,M,10.00,M,BKN,BKN,OVC,M,1400.00,1999.00,3000.00,M,M,KCKV 010500Z AUTO 34005KT 10SM BKN014 BKN019 OVC030 A3004 RMK MADISHF
CKV,2017-04-01 05:01,-87.4150,36.6219,48.90,43.00,79.98,350.00,6.00,0.00,30.04,M,10.00,M,BKN,BKN,OVC,M,1400.00,2000.00,3000.00,M,M,KCKV 010501Z AUTO 35006KT 10SM BKN014 BKN020 OVC030 09/06 A3004 RMK AO2 T00940061
CKV,2017-04-01 05:05,-87.4150,36.6219,M,M,M,350.00,5.00,M,30.04,M,10.00,M,BKN,OVC,M,M,1400.00,1999.00,M,M,M,KCKV 010505Z AUTO 35005KT 10SM BKN014 OVC019 A3004 RMK MADISHF
CKV,2017-04-01 05:10,-87.4150,36.6219,M,M,M,350.00,4.00,M,30.04,M,10.00,M,OVC,M,M,M,1400.00,M,M,M,M,KCKV 010510Z AUTO 35004KT 10SM OVC014 A3004 RMK MADISHF
CKV,2017-04-01 05:15,-87.4150,36.6219,M,M,M,350.00,5.00,M,30.04,M,10.00,M,OVC,M,M,M,1600.00,M,M,M,M,KCKV 010515Z AUTO 35005KT 10SM OVC016 A3004 RMK MADISHF
CKV,2017-04-01 05:20,-87.4150,36.6219,48.90,43.00,79.98,350.00,6.00,0.00,30.05,M,10.00,M,OVC,M,M,M,1600.00,M,M,M,M,KCKV 010520Z AUTO 35006KT 10SM OVC016 09/06 A3005 RMK AO2 T00940061
CKV,2017-04-01 05:25,-87.4150,36.6219,M,M,M,350.00,9.00,M,30.05,M,10.00,M,OVC,M,M,M,1600.00,M,M,M,M,KCKV 010525Z AUTO 35009KT 10SM OVC016 A3005 RMK MADISHF
CKV,2017-04-01 05:30,-87.4150,36.6219,M,M,M,340.00,9.00,M,30.05,M,10.00,M,OVC,M,M,M,1600.00,M,M,M,M,KCKV 010530Z AUTO 34009KT 10SM OVC016 A3005 RMK MADISHF
CKV,2017-04-01 05:35,-87.4150,36.6219,M,M,M,360.00,9.00,M,30.05,M,10.00,M,OVC,M,M,M,1600.00,M,M,M,M,KCKV 010535Z AUTO 36009KT 10SM OVC016 A3005 RMK MADISHF
CKV,2017-04-01 05:40,-87.4150,36.6219,M,M,M,350.00,7.00,M,30.05,M,10.00,M,OVC,M,M,M,1800.00,M,M,M,M,KCKV 010540Z AUTO 35007KT 10SM OVC018 A3005 RMK MADISHF
CKV,2017-04-01 05:45,-87.4150,36.6219,M,M,M,350.00,7.00,M,30.05,M,10.00,M,OVC,M,M,M,1800.00,M,M,M,M,KCKV 010545Z AUTO 35007KT 10SM OVC018 A3005 RMK MADISHF
CKV,2017-04-01 05:50,-87.4150,36.6219,M,M,M,360.00,6.00,M,30.05,M,10.00,M,OVC,M,M,M,1800.00,M,M,M,M,KCKV 010550Z AUTO 36006KT 10SM OVC018 A3005 RMK MADISHF
CKV,2017-04-01 05:52,-87.4150,36.6219,48.90,42.10,77.26,360.00,6.00,0.00,30.05,1017.50,10.00,M,OVC,M,M,M,1800.00,M,M,M,M,KCKV 010552Z AUTO 36006KT 10SM OVC018 09/06 A3005 RMK AO2 SLP175 T00940056 10128 20094 401440094 51008
CKV,2017-04-01 05:55,-87.4150,36.6219,M,M,M,360.00,7.00,M,30.05,M,10.00,M,OVC,M,M,M,1800.00,M,M,M,M,KCKV 010555Z AUTO 36007KT 10SM OVC018 A3005 RMK MADISHF
CKV,2017-04-01 06:00,-87.4150,36.6219,M,M,M,360.00,6.00,M,30.05,M,10.00,M,OVC,M,M,M,1600.00,M,M,M,M,KCKV 010600Z AUTO 36006KT 10SM OVC016 A3005 RMK MADISHF
CKV,2017-04-01 06:05,-87.4150,36.6219,M,M,M,360.00,7.00,M,30.05,M,10.00,M,OVC,M,M,M,1500.00,M,M,M,M,KCKV 010605Z AUTO 36007KT 10SM OVC015 A3005 RMK MADISHF
CKV,2017-04-01 06:10,-87.4150,36.6219,M,M,M,10.00,8.00,M,30.05,M,10.00,M,OVC,M,M,M,1300.00,M,M,M,M,KCKV 010610Z AUTO 01008KT 10SM OVC013 A3005 RMK MADISHF
CKV,2017-04-01 06:15,-87.4150,36.6219,M,M,M,360.00,8.00,M,30.05,M,10.00,M,OVC,M,M,M,1300.00,M,M,M,M,KCKV 010615Z AUTO 36008KT 10SM OVC013 A3005 RMK MADISHF
CKV,2017-04-01 06:16,-87.4150,36.6219,48.00,43.00,82.72,360.00,8.00,0.00,30.05,M,10.00,M,OVC,M,M,M,1300.00,M,M,M,M,KCKV 010616Z AUTO 36008KT 10SM OVC013 09/06 A3005 RMK AO2 T00890061
CKV,2017-04-01 06:20,-87.4150,36.6219,M,M,M,330.00,6.00,M,30.06,M,10.00,M,OVC,M,M,M,1300.00,M,M,M,M,KCKV 010620Z AUTO 33006KT 10SM OVC013 A3006 RMK MADISHF
CKV,2017-04-01 06:25,-87.4150,36.6219,M,M,M,M,M,M,30.06,M,10.00,M,OVC,M,M,M,1300.00,M,M,M,M,KCKV 010625Z AUTO /////KT 10SM OVC013 A3006 RMK MADISHF
CKV,2017-04-01 06:30,-87.4150,36.6219,M,M,M,M,M,M,30.06,M,10.00,M,OVC,M,M,M,1300.00,M,M,M,M,KCKV 010630Z AUTO /////KT 10SM OVC013 A3006 RMK MADISHF
CKV,2017-04-01 06:35,-87.4150,36.6219,M,M,M,M,M,M,30.06,M,10.00,M,OVC,M,M,M,1500.00,M,M,M,M,KCKV 010635Z AUTO /////KT 10SM OVC015 A3006 RMK MADISHF
CKV,2017-04-01 06:38,-87.4150,36.6219,48.00,42.10,79.91,330.00,8.00,0.00,30.06,M,10.00,M,OVC,M,M,M,1500.00,M,M,M,M,KCKV 010638Z AUTO 33008KT 10SM OVC015 09/06 A3006 RMK AO2 T00890056
CKV,2017-04-01 06:40,-87.4150,36.6219,M,M,M,M,M,M,30.06,M,10.00,M,OVC,M,M,M,1500.00,M,M,M,M,KCKV 010640Z AUTO /////KT 10SM OVC015 A3006 RMK MADISHF
CKV,2017-04-01 06:45,-87.4150,36.6219,M,M,M,M,M,M,30.06,M,10.00,M,OVC,M,M,M,1500.00,M,M,M,M,KCKV 010645Z AUTO /////KT 10SM OVC015 A3006 RMK MADISHF
CKV,2017-04-01 06:50,-87.4150,36.6219,M,M,M,M,M,M,30.06,M,10.00,M,OVC,M,M,M,1699.00,M,M,M,M,KCKV 010650Z AUTO /////KT 10SM OVC016 A3006 RMK MADISHF
CKV,2017-04-01 06:52,-87.4150,36.6219,48.00,42.10,79.91,M,M,0.00,30.06,1017.90,10.00,M,OVC,M,M,M,1700.00,M,M,M,M,KCKV 010652Z AUTO 10SM OVC017 09/06 A3006 RMK AO2 SLP179 T00890056
CKV,2017-04-01 06:55,-87.4150,36.6219,M,M,M,M,M,M,30.06,M,10.00,M,OVC,M,M,M,1699.00,M,M,M,M,KCKV 010655Z AUTO /////KT 10SM OVC016 A3006 RMK MADISHF
CKV,2017-04-01 07:00,-87.4150,36.6219,M,M,M,M,M,M,30.06,M,10.00,M,OVC,M,M,M,1900.00,M,M,M,M,KCKV 010700Z AUTO /////KT 10SM OVC019 A3006 RMK MADISHF
CKV,2017-04-01 07:05,-87.4150,36.6219,M,M,M,M,M,M,30.06,M,10.00,M,OVC,M,M,M,1900.00,M,M,M,M,KCKV 010705Z AUTO /////KT 10SM OVC019 A3006 RMK MADISHF
CKV,2017-04-01 07:10,-87.4150,36.6219,M,M,M,350.00,9.00,M,30.06,M,10.00,M,OVC,M,M,M,1900.00,M,M,M,M,KCKV 010710Z AUTO 35009KT 10SM OVC019 A3006 RMK MADISHF
CKV,2017-04-01 07:15,-87.4150,36.6219,M,M,M,350.00,8.00,M,30.07,M,10.00,M,OVC,M,M,M,2100.00,M,M,M,M,KCKV 010715Z AUTO 35008KT 10SM OVC021 A3007 RMK MADISHF
CKV,2017-04-01 07:20,-87.4150,36.6219,M,M,M,10.00,8.00,M,30.07,M,10.00,M,OVC,M,M,M,2100.00,M,M,M,M,KCKV 010720Z AUTO 01008KT 10SM OVC021 A3007 RMK MADISHF
CKV,2017-04-01 07:25,-87.4150,36.6219,M,M,M,360.00,8.00,M,30.07,M,10.00,M,OVC,M,M,M,2100.00,M,M,M,M,KCKV 010725Z AUTO 36008KT 10SM OVC021 A3007 RMK MADISHF
CKV,2017-04-01 07:30,-87.4150,36.6219,M,M,M,360.00,10.00,M,30.07,M,10.00,M,OVC,M,M,M,2100.00,M,M,M,M,KCKV 010730Z AUTO 36010KT 10SM OVC021 A3007 RMK MADISHF
CKV,2017-04-01 07:35,-87.4150,36.6219,M,M,M,360.00,9.00,M,30.07,M,10.00,M,OVC,M,M,M,2100.00,M,M,M,M,KCKV 010735Z AUTO 36009KT 10SM OVC021 A3007 RMK MADISHF
CKV,2017-04-01 07:40,-87.4150,36.6219,M,M,M,360.00,8.00,M,30.07,M,10.00,M,OVC,M,M,M,2100.00,M,M,M,M,KCKV 010740Z AUTO 36008KT 10SM OVC021 A3007 RMK MADISHF
CKV,2017-04-01 07:45,-87.4150,36.6219,M,M,M,10.00,7.00,M,30.07,M,10.00,M,OVC,M,M,M,2200.00,M,M,M,M,KCKV 010745Z AUTO 01007KT 10SM OVC022 A3007 RMK MADISHF
CKV,2017-04-01 07:50,-87.4150,36.6219,M,M,M,360.00,10.00,M,30.08,M,10.00,M,OVC,M,M,M,2200.00,M,M,M,M,KCKV 010750Z AUTO 36010KT 10SM OVC022 A3008 RMK MADISHF
CKV,2017-04-01 07:52,-87.4150,36.6219,46.90,41.00,79.82,360.00,10.00,0.00,30.08,1018.40,10.00,M,OVC,M,M,M,2200.00,M,M,M,M,KCKV 010752Z AUTO 36010KT 10SM OVC022 08/05 A3008 RMK AO2 SLP184 T00830050
CKV,2017-04-01 07:55,-87.4150,36.6219,M,M,M,360.00,9.00,M,30.08,M,10.00,M,OVC,M,M,M,2200.00,M,M,M,M,KCKV 010755Z AUTO 36009KT 10SM OVC022 A3008 RMK MADISHF
CKV,2017-04-01 08:00,-87.4150,36.6219,M,M,M,360.00,7.00,M,30.08,M,10.00,M,OVC,M,M,M,2200.00,M,M,M,M,KCKV 010800Z AUTO 36007KT 10SM OVC022 A3008 RMK MADISHF
CKV,2017-04-01 08:05,-87.4150,36.6219,M,M,M,350.00,8.00,M,30.08,M,10.00,M,OVC,M,M,M,2200.00,M,M,M,M,KCKV 010805Z AUTO 35008KT 10SM OVC022 A3008 RMK MADISHF
CKV,2017-04-01 08:10,-87.4150,36.6219,M,M,M,360.00,8.00,M,30.08,M,10.00,M,OVC,M,M,M,2200.00,M,M,M,M,KCKV 010810Z AUTO 36008KT 10SM OVC022 A3008 RMK MADISHF
CKV,2017-04-01 08:15,-87.4150,36.6219,M,M,M,360.00,9.00,M,30.08,M,10.00,M,OVC,M,M,M,2200.00,M,M,M,M,KCKV 010815Z AUTO 36009KT 10SM OVC022 A3008 RMK MADISHF
CKV,2017-04-01 08:20,-87.4150,36.6219,M,M,M,350.00,7.00,M,30.08,M,10.00,M,OVC,M,M,M,2200.00,M,M,M,M,KCKV 010820Z AUTO 35007KT 10SM OVC022 A3008 RMK MADISHF
CKV,2017-04-01 08:25,-87.4150,36.6219,M,M,M,360.00,6.00,M,30.08,M,10.00,M,OVC,M,M,M,2200.00,M,M,M,M,KCKV 010825Z AUTO 36006KT 10SM OVC022 A3008 RMK MADISHF
CKV,2017-04-01 08:30,-87.4150,36.6219,M,M,M,10.00,9.00,M,30.08,M,10.00,M,OVC,M,M,M,1900.00,M,M,M,M,KCKV 010830Z AUTO 01009KT 10SM OVC019 A3008 RMK MADISHF
CKV,2017-04-01 08:35,-87.4150,36.6219,M,M,M,360.00,8.00,M,30.08,M,10.00,M,OVC,M,M,M,1900.00,M,M,M,M,KCKV 010835Z AUTO 36008KT 10SM OVC019 A3008 RMK MADISHF
CKV,2017-04-01 08:40,-87.4150,36.6219,M,M,M,360.00,10.00,M,30.08,M,10.00,M,OVC,M,M,M,1900.00,M,M,M,M,KCKV 010840Z AUTO 36010KT 10SM OVC019 A3008 RMK MADISHF
CKV,2017-04-01 08:45,-87.4150,36.6219,M,M,M,360.00,9.00,M,30.08,M,10.00,M,OVC,M,M,M,1900.00,M,M,M,M,KCKV 010845Z AUTO 36009KT 10SM OVC019 A3008 RMK MADISHF
CKV,2017-04-01 08:50,-87.4150,36.6219,M,M,M,360.00,8.00,M,30.09,M,10.00,M,OVC,M,M,M,1900.00,M,M,M,M,KCKV 010850Z AUTO 36008KT 10SM OVC019 A3009 RMK MADISHF
CKV,2017-04-01 08:52,-87.4150,36.6219,46.90,39.00,73.85,360.00,7.00,0.00,30.09,1018.80,10.00,M,OVC,M,M,M,1900.00,M,M,M,M,KCKV 010852Z AUTO 36007KT 10SM OVC019 08/04 A3009 RMK AO2 SLP188 T00830039 52012
CKV,2017-04-01 08:55,-87.4150,36.6219,M,M,M,350.00,7.00,M,30.09,M,10.00,M,OVC,M,M,M,1900.00,M,M,M,M,KCKV 010855Z AUTO 35007KT 10SM OVC019 A3009 RMK MADISHF
CKV,2017-04-01 09:00,-87.4150,36.6219,M,M,M,360.00,6.00,M,30.09,M,10.00,M,OVC,M,M,M,1900.00,M,M,M,M,KCKV 010900Z AUTO 36006KT 10SM OVC019 A3009 RMK MADISHF
CKV,2017-04-01 09:05,-87.4150,36.6219,M,M,M,350.00,8.00,M,30.09,M,10.00,M,OVC,M,M,M,1900.00,M,M,M,M,KCKV 010905Z AUTO 35008KT 10SM OVC019 A3009 RMK MADISHF
CKV,2017-04-01 09:10,-87.4150,36.6219,M,M,M,360.00,7.00,M,30.09,M,10.00,M,OVC,M,M,M,1699.00,M,M,M,M,KCKV 010910Z AUTO 36007KT 10SM OVC016 A3009 RMK MADISHF
CKV,2017-04-01 09:15,-87.4150,36.6219,M,M,M,350.00,6.00,M,30.09,M,10.00,M,OVC,M,M,M,1699.00,M,M,M,M,KCKV 010915Z AUTO 35006KT 10SM OVC016 A3009 RMK MADISHF
CKV,2017-04-01 09:20,-87.4150,36.6219,M,M,M,350.00,6.00,M,30.10,M,10.00,M,OVC,M,M,M,1699.00,M,M,M,M,KCKV 010920Z AUTO 35006KT 10SM OVC016 A3010 RMK MADISHF
CKV,2017-04-01 09:25,-87.4150,36.6219,M,M,M,340.00,6.00,M,30.10,M,10.00,M,OVC,M,M,M,1699.00,M,M,M,M,KCKV 010925Z AUTO 34006KT 10SM OVC016 A3010 RMK MADISHF
CKV,2017-04-01 09:30,-87.4150,36.6219,M,M,M,330.00,4.00,M,30.10,M,10.00,M,OVC,M,M,M,1600.00,M,M,M,M,KCKV 010930Z AUTO 33004KT 10SM OVC016 A3010 RMK MADISHF
CKV,2017-04-01 09:35,-87.4150,36.6219,M,M,M,350.00,6.00,M,30.10,M,10.00,M,OVC,M,M,M,1600.00,M,M,M,M,KCKV 010935Z AUTO 35006KT 10SM OVC016 A3010 RMK MADISHF
CKV,2017-04-01 09:40,-87.4150,36.6219,M,M,M,320.00,8.00,M,30.10,M,10.00,M,OVC,M,M,M,1600.00,M,M,M,M,KCKV 010940Z AUTO 32008KT 10SM OVC016 A3010 RMK MADISHF
CKV,2017-04-01 09:45,-87.4150,36.6219,M,M,M,350.00,5.00,M,30.10,M,10.00,M,OVC,M,M,M,1600.00,M,M,M,M,KCKV 010945Z AUTO 35005KT 10SM OVC016 A3010 RMK MADISHF
CKV,2017-04-01 09:50,-87.4150,36.6219,M,M,M,360.00,7.00,M,30.10,M,10.00,M,OVC,M,M,M,1600.00,M,M,M,M,KCKV 010950Z AUTO 36007KT 10SM OVC016 A3010 RMK MADISHF
CKV,2017-04-01 09:52,-87.4150,36.6219,46.90,39.90,76.48,350.00,8.00,0.00,30.11,1019.40,10.00,M,OVC,M,M,M,1600.00,M,M,M,M,KCKV 010952Z AUTO 35008KT 10SM OVC016 08/04 A3011 RMK AO2 SLP194 T00830044
CKV,2017-04-01 09:55,-87.4150,36.6219,M,M,M,360.00,7.00,M,30.11,M,10.00,M,OVC,M,M,M,1600.00,M,M,M,M,KCKV 010955Z AUTO 36007KT 10SM OVC016 A3011 RMK MADISHF
CKV,2017-04-01 10:00,-87.4150,36.6219,M,M,M,10.00,6.00,M,30.11,M,10.00,M,OVC,M,M,M,1500.00,M,M,M,M,KCKV 011000Z AUTO 01006KT 10SM OVC015 A3011 RMK MADISHF
CKV,2017-04-01 10:05,-87.4150,36.6219,M,M,M,20.00,5.00,M,30.11,M,10.00,M,OVC,M,M,M,1500.00,M,M,M,M,KCKV 011005Z AUTO 02005KT 10SM OVC015 A3011 RMK MADISHF
CKV,2017-04-01 10:10,-87.4150,36.6219,M,M,M,10.00,4.00,M,30.11,M,10.00,M,OVC,M,M,M,1500.00,M,M,M,M,KCKV 011010Z AUTO 01004KT 10SM OVC015 A3011 RMK MADISHF
CKV,2017-04-01 10:15,-87.4150,36.6219,M,M,M,20.00,5.00,M,30.11,M,10.00,M,OVC,M,M,M,1500.00,M,M,M,M,KCKV 011015Z AUTO 02005KT 10SM OVC015 A3011 RMK MADISHF
CKV,2017-04-01 10:20,-87.4150,36.6219,M,M,M,30.00,5.00,M,30.11,M,10.00,M,OVC,M,M,M,1500.00,M,M,M,M,KCKV 011020Z AUTO 03005KT 10SM OVC015 A3011 RMK MADISHF
CKV,2017-04-01 10:25,-87.4150,36.6219,M,M,M,360.00,4.00,M,30.11,M,10.00,M,OVC,M,M,M,1500.00,M,M,M,M,KCKV 011025Z AUTO 36004KT 10SM OVC015 A3011 RMK MADISHF
CKV,2017-04-01 10:30,-87.4150,36.6219,M,M,M,350.00,7.00,M,30.12,M,10.00,M,OVC,M,M,M,1500.00,M,M,M,M,KCKV 011030Z AUTO 35007KT 10SM OVC015 A3012 RMK MADISHF
CKV,2017-04-01 10:35,-87.4150,36.6219,M,M,M,10.00,6.00,M,30.12,M,10.00,M,OVC,M,M,M,1500.00,M,M,M,M,KCKV 011035Z AUTO 01006KT 10SM OVC015 A3012 RMK MADISHF
CKV,2017-04-01 10:40,-87.4150,36.6219,M,M,M,20.00,7.00,M,30.12,M,10.00,M,OVC,M,M,M,1500.00,M,M,M,M,KCKV 011040Z AUTO 02007KT 10SM OVC015 A3012 RMK MADISHF
CKV,2017-04-01 10:45,-87.4150,36.6219,M,M,M,10.00,10.00,M,30.12,M,10.00,M,OVC,M,M,M,1500.00,M,M,M,M,KCKV 011045Z AUTO 01010KT 10SM OVC015 A3012 RMK MADISHF
CKV,2017-04-01 10:50,-87.4150,36.6219,M,M,M,360.00,6.00,M,30.12,M,10.00,M,OVC,M,M,M,1500.00,M,M,M,M,KCKV 011050Z AUTO 36006KT 10SM OVC015 A3012 RMK MADISHF
CKV,2017-04-01 10:52,-87.4150,36.6219,46.00,39.90,79.13,350.00,6.00,0.00,30.12,1019.90,10.00,M,OVC,M,M,M,1500.00,M,M,M,M,KCKV 011052Z AUTO 35006KT 10SM OVC015 08/04 A3012 RMK AO2 SLP199 T00780044
CKV,2017-04-01 10:55,-87.4150,36.6219,M,M,M,350.00,6.00,M,30.12,M,10.00,M,OVC,M,M,M,1500.00,M,M,M,M,KCKV 011055Z AUTO 35006KT 10SM OVC015 A3012 RMK MADISHF
CKV,2017-04-01 11:00,-87.4150,36.6219,M,M,M,360.00,7.00,M,30.12,M,10.00,M,OVC,M,M,M,1400.00,M,M,M,M,KCKV 011100Z AUTO 36007KT 10SM OVC014 A3012 RMK MADISHF
CKV,2017-04-01 11:02,-87.4150,36.6219,46.00,39.90,79.13,360.00,6.00,0.00,30.12,M,10.00,M,OVC,M,M,M,1400.00,M,M,M,M,KCKV 011102Z AUTO 36006KT 10SM OVC014 08/04 A3012 RMK AO2 T00780044
CKV,2017-04-01 11:05,-87.4150,36.6219,M,M,M,350.00,6.00,M,30.12,M,10.00,M,OVC,M,M,M,1400.00,M,M,M,M,KCKV 011105Z AUTO 35006KT 10SM OVC014 A3012 RMK MADISHF
CKV,2017-04-01 11:10,-87.4150,36.6219,M,M,M,350.00,8.00,M,30.13,M,10.00,M,OVC,M,M,M,1400.00,M,M,M,M,KCKV 011110Z AUTO 35008KT 10SM OVC014 A3013 RMK MADISHF
CKV,2017-04-01 11:15,-87.4150,36.6219,M,M,M,10.00,5.00,M,30.13,M,10.00,M,OVC,M,M,M,1300.00,M,M,M,M,KCKV 011115Z AUTO 01005KT 10SM OVC013 A3013 RMK MADISHF
CKV,2017-04-01 11:20,-87.4150,36.6219,M,M,M,360.00,5.00,M,30.14,M,10.00,M,OVC,M,M,M,1300.00,M,M,M,M,KCKV 011120Z AUTO 36005KT 10SM OVC013 A3014 RMK MADISHF
CKV,2017-04-01 11:25,-87.4150,36.6219,M,M,M,360.00,6.00,M,30.14,M,10.00,M,OVC,M,M,M,1300.00,M,M,M,M,KCKV 011125Z AUTO 36006KT 10SM OVC013 A3014 RMK MADISHF
CKV,2017-04-01 11:30,-87.4150,36.6219,M,M,M,10.00,7.00,M,30.14,M,10.00,M,OVC,M,M,M,1300.00,M,M,M,M,KCKV 011130Z AUTO 01007KT 10SM OVC013 A3014 RMK MADISHF
CKV,2017-04-01 11:35,-87.4150,36.6219,M,M,M,360.00,6.00,M,30.14,M,10.00,M,OVC,M,M,M,1300.00,M,M,M,M,KCKV 011135Z AUTO 36006KT 10SM OVC013 A3014 RMK MADISHF
CKV,2017-04-01 11:40,-87.4150,36.6219,M,M,M,360.00,6.00,M,30.15,M,10.00,M,OVC,M,M,M,1300.00,M,M,M,M,KCKV 011140Z AUTO 36006KT 10SM OVC013 A3015 RMK MADISHF
CKV,2017-04-01 11:45,-87.4150,36.6219,M,M,M,350.00,5.00,M,30.15,M,10.00,M,OVC,M,M,M,1300.00,M,M,M,M,KCKV 011145Z AUTO 35005KT 10SM OVC013 A3015 RMK MADISHF
CKV,2017-04-01 11:50,-87.4150,36.6219,M,M,M,10.00,4.00,M,30.15,M,10.00,M,OVC,M,M,M,1300.00,M,M,M,M,KCKV 011150Z AUTO 01004KT 10SM OVC013 A3015 RMK MADISHF
CKV,2017-04-01 11:52,-87.4150,36.6219,46.00,39.00,76.40,360.00,5.00,0.00,30.15,1021.00,10.00,M,OVC,M,M,M,1300.00,M,M,M,M,KCKV 011152Z AUTO 36005KT 10SM OVC013 08/04 A3015 RMK AO2 SLP210 T00780039 10094 20078 53022
CKV,2017-04-01 11:55,-87.4150,36.6219,M,M,M,340.00,4.00,M,30.15,M,10.00,M,OVC,M,M,M,1300.00,M,M,M,M,KCKV 011155Z AUTO 34004KT 10SM OVC013 A3015 RMK MADISHF
CKV,2017-04-01 12:00,-87.4150,36.6219,M,M,M,340.00,6.00,M,30.16,M,10.00,M,OVC,M,M,M,1400.00,M,M,M,M,KCKV 011200Z AUTO 34006KT 10SM OVC014 A3016 RMK MADISHF
CKV,2017-04-01 12:05,-87.4150,36.6219,M,M,M,350.00,8.00,M,30.16,M,10.00,M,OVC,M,M,M,1400.00,M,M,M,M,KCKV 011205Z AUTO 35008KT 10SM OVC014 A3016 RMK MADISHF
CKV,2017-04-01 12:10,-87.4150,36.6219,M,M,M,360.00,7.00,M,30.16,M,10.00,M,OVC,M,M,M,1400.00,M,M,M,M,KCKV 011210Z AUTO 36007KT 10SM OVC014 A3016 RMK MADISHF
CKV,2017-04-01 12:15,-87.4150,36.6219,M,M,M,10.00,8.00,M,30.16,M,10.00,M,OVC,M,M,M,1400.00,M,M,M,M,KCKV 011215Z AUTO 01008KT 10SM OVC014 A3016 RMK MADISHF
CKV,2017-04-01 12:20,-87.4150,36.6219,M,M,M,10.00,8.00,M,30.17,M,10.00,M,OVC,M,M,M,1400.00,M,M,M,M,KCKV 011220Z AUTO 01008KT 10SM OVC014 A3017 RMK MADISHF
CKV,2017-04-01 12:25,-87.4150,36.6219,M,M,M,360.00,7.00,M,30.17,M,10.00,M,OVC,M,M,M,1400.00,M,M,M,M,KCKV 011225Z AUTO 36007KT 10SM OVC014 A3017 RMK MADISHF
CKV,2017-04-01 12:30,-87.4150,36.6219,M,M,M,350.00,9.00,M,30.17,M,10.00,M,OVC,M,M,M,1400.00,M,M,M,M,KCKV 011230Z AUTO 35009KT 10SM OVC014 A3017 RMK MADISHF
CKV,2017-04-01 12:35,-87.4150,36.6219,M,M,M,360.00,8.00,M,30.17,M,10.00,M,OVC,M,M,M,1400.00,M,M,M,M,KCKV 011235Z AUTO 36008KT 10SM OVC014 A3017 RMK MADISHF
CKV,2017-04-01 12:40,-87.4150,36.6219,M,M,M,360.00,9.00,M,30.17,M,10.00,M,OVC,M,M,M,1400.00,M,M,M,M,KCKV 011240Z AUTO 36009KT 10SM OVC014 A3017 RMK MADISHF
CKV,2017-04-01 12:45,-87.4150,36.6219,M,M,M,340.00,9.00,M,30.17,M,10.00,M,OVC,M,M,M,1400.00,M,M,M,M,KCKV 011245Z AUTO 34009KT 10SM OVC014 A3017 RMK MADISHF
CKV,2017-04-01 12:50,-87.4150,36.6219,M,M,M,350.00,9.00,M,30.18,M,10.00,M,OVC,M,M,M,1400.00,M,M,M,M,KCKV 011250Z AUTO 35009KT 10SM OVC014 A3018 RMK MADISHF
CKV,2017-04-01 12:52,-87.4150,36.6219,45.00,39.00,79.36,350.00,8.00,0.00,30.18,1021.90,10.00,M,OVC,M,M,M,1400.00,M,M,M,M,KCKV 011252Z AUTO 35008KT 10SM OVC014 07/04 A3018 RMK AO2 SLP219 T00720039
CKV,2017-04-01 12:55,-87.4150,36.6219,M,M,M,350.00,11.00,M,30.18,M,10.00,M,OVC,M,M,M,1400.00,M,M,M,M,KCKV 011255Z AUTO 35011KT 10SM OVC014 A3018 RMK MADISHF
CKV,2017-04-01 13:00,-87.4150,36.6219,M,M,M,350.00,9.00,M,30.18,M,10.00,M,OVC,M,M,M,1400.00,M,M,M,M,KCKV 011300Z AUTO 35009KT 10SM OVC014 A3018 RMK MADISHF
CKV,2017-04-01 13:05,-87.4150,36.6219,M,M,M,350.00,8.00,M,30.18,M,10.00,M,OVC,M,M,M,1400.00,M,M,M,M,KCKV 011305Z AUTO 35008KT 10SM OVC014 A3018 RMK MADISHF
CKV,2017-04-01 13:10,-87.4150,36.6219,M,M,M,360.00,7.00,M,30.18,M,10.00,M,OVC,M,M,M,1500.00,M,M,M,M,KCKV 011310Z AUTO 36007KT 10SM OVC015 A3018 RMK MADISHF
CKV,2017-04-01 13:15,-87.4150,36.6219,46.00,37.90,73.18,10.00,9.00,0.00,30.18,M,10.00,M,OVC,M,M,M,1500.00,M,M,M,M,KCKV 011315Z AUTO 01009KT 10SM OVC015 08/03 A3018 RMK AO2 T00780033
CKV,2017-04-01 13:20,-87.4150,36.6219,M,M,M,350.00,8.00,M,30.19,M,10.00,M,OVC,M,M,M,1500.00,M,M,M,M,KCKV 011320Z AUTO 35008KT 10SM OVC015 A3019 RMK MADISHF
CKV,2017-04-01 13:25,-87.4150,36.6219,M,M,M,40.00,8.00,M,30.19,M,10.00,M,OVC,M,M,M,1600.00,M,M,M,M,KCKV 011325Z AUTO 04008KT 10SM OVC016 A3019 RMK MADISHF
CKV,2017-04-01 13:30,-87.4150,36.6219,M,M,M,20.00,8.00,M,30.19,M,10.00,M,OVC,M,M,M,1600.00,M,M,M,M,KCKV 011330Z AUTO 02008KT 10SM OVC016 A3019 RMK MADISHF
CKV,2017-04-01 13:35,-87.4150,36.6219,M,M,M,20.00,7.00,M,30.19,M,10.00,M,OVC,M,M,M,1600.00,M,M,M,M,KCKV 011335Z AUTO 02007KT 10SM OVC016 A3019 RMK MADISHF
CKV,2017-04-01 13:40,-87.4150,36.6219,M,M,M,10.00,9.00,M,30.19,M,10.00,M,OVC,M,M,M,1600.00,M,M,M,M,KCKV 011340Z AUTO 01009KT 10SM OVC016 A3019 RMK MADISHF
CKV,2017-04-01 13:45,-87.4150,36.6219,M,M,M,20.00,8.00,M,30.19,M,10.00,M,OVC,M,M,M,1699.00,M,M,M,M,KCKV 011345Z AUTO 02008KT 10SM OVC016 A3019 RMK MADISHF
CKV,2017-04-01 13:50,-87.4150,36.6219,M,M,M,20.00,8.00,M,30.19,M,10.00,M,OVC,M,M,M,1699.00,M,M,M,M,KCKV 011350Z AUTO 02008KT 10SM OVC016 A3019 RMK MADISHF
CKV,2017-04-01 13:52,-87.4150,36.6219,46.00,37.90,73.18,30.00,8.00,0.00,30.19,1022.40,10.00,M,OVC,M,M,M,1700.00,M,M,M,M,KCKV 011352Z AUTO 03008KT 10SM OVC017 08/03 A3019 RMK AO2 SLP224 T00780033
CKV,2017-04-01 13:55,-87.4150,36.6219,M,M,M,40.00,9.00,M,30.19,M,10.00,M,OVC,M,M,M,1699.00,M,M,M,M,KCKV 011355Z AUTO 04009KT 10SM OVC016 A3019 RMK MADISHF
CKV,2017-04-01 14:00,-87.4150,36.6219,M,M,M,40.00,8.00,M,30.19,M,10.00,M,OVC,M,M,M,1699.00,M,M,M,M,KCKV 011400Z AUTO 04008KT 10SM OVC016 A3019 RMK MADISHF
CKV,2017-04-01 14:05,-87.4150,36.6219,M,M,M,40.00,7.00,M,30.20,M,10.00,M,OVC,M,M,M,1699.00,M,M,M,M,KCKV 011405Z AUTO 04007KT 10SM OVC016 A3020 RMK MADISHF
CKV,2017-04-01 14:10,-87.4150,36.6219,M,M,M,40.00,6.00,M,30.20,M,10.00,M,OVC,M,M,M,1699.00,M,M,M,M,KCKV 011410Z AUTO 04006KT 10SM OVC016 A3020 RMK MADISHF
CKV,2017-04-01 14:15,-87.4150,36.6219,M,M,M,20.00,8.00,M,30.20,M,10.00,M,OVC,M,M,M,1699.00,M,M,M,M,KCKV 011415Z AUTO 02008KT 10SM OVC016 A3020 RMK MADISHF
CKV,2017-04-01 14:20,-87.4150,36.6219,M,M,M,20.00,7.00,M,30.20,M,10.00,M,OVC,M,M,M,1699.00,M,M,M,M,KCKV 011420Z AUTO 02007KT 10SM OVC016 A3020 RMK MADISHF
CKV,2017-04-01 14:25,-87.4150,36.6219,M,M,M,360.00,6.00,M,30.20,M,10.00,M,OVC,M,M,M,1699.00,M,M,M,M,KCKV 011425Z AUTO 36006KT 10SM OVC016 A3020 RMK MADISHF
CKV,2017-04-01 14:30,-87.4150,36.6219,M,M,M,350.00,6.00,M,30.20,M,10.00,M,OVC,M,M,M,1699.00,M,M,M,M,KCKV 011430Z AUTO 35006KT 10SM OVC016 A3020 RMK MADISHF
CKV,2017-04-01 14:35,-87.4150,36.6219,M,M,M,350.00,9.00,M,30.20,M,10.00,M,OVC,M,M,M,1600.00,M,M,M,M,KCKV 011435Z AUTO 35009KT 10SM OVC016 A3020 RMK MADISHF
CKV,2017-04-01 14:40,-87.4150,36.6219,M,M,M,350.00,10.00,M,30.20,M,10.00,M,OVC,M,M,M,1600.00,M,M,M,M,KCKV 011440Z AUTO 35010KT 10SM OVC016 A3020 RMK MADISHF
CKV,2017-04-01 14:45,-87.4150,36.6219,M,M,M,10.00,8.00,M,30.20,M,10.00,M,OVC,M,M,M,1500.00,M,M,M,M,KCKV 011445Z AUTO 01008KT 10SM OVC015 A3020 RMK MADISHF
CKV,2017-04-01 14:50,-87.4150,36.6219,M,M,M,10.00,8.00,M,30.20,M,10.00,M,OVC,M,M,M,1500.00,M,M,M,M,KCKV 011450Z AUTO 01008KT 10SM OVC015 A3020 RMK MADISHF
CKV,2017-04-01 14:52,-87.4150,36.6219,46.00,39.00,76.40,20.00,9.00,0.00,30.21,1022.90,10.00,M,OVC,M,M,M,1500.00,M,M,M,M,KCKV 011452Z AUTO 02009KT 10SM OVC015 08/04 A3021 RMK AO2 SLP229 T00780039 51018
CKV,2017-04-01 14:55,-87.4150,36.6219,M,M,M,20.00,8.00,M,30.21,M,10.00,M,OVC,M,M,M,1500.00,M,M,M,M,KCKV 011455Z AUTO 02008KT 10SM OVC015 A3021 RMK MADISHF
CKV,2017-04-01 15:00,-87.4150,36.6219,M,M,M,20.00,8.00,M,30.21,M,10.00,M,OVC,M,M,M,1500.00,M,M,M,M,KCKV 011500Z AUTO 02008KT 10SM OVC015 A3021 RMK MADISHF
CKV,2017-04-01 15:05,-87.4150,36.6219,M,M,M,360.00,8.00,M,30.21,M,10.00,M,OVC,M,M,M,1500.00,M,M,M,M,KCKV 011505Z AUTO 36008KT 10SM OVC015 A3021 RMK MADISHF
CKV,2017-04-01 15:10,-87.4150,36.6219,M,M,M,10.00,7.00,M,30.21,M,10.00,M,OVC,M,M,M,1500.00,M,M,M,M,KCKV 011510Z AUTO 01007KT 10SM OVC015 A3021 RMK MADISHF
CKV,2017-04-01 15:15,-87.4150,36.6219,M,M,M,360.00,6.00,M,30.21,M,10.00,M,OVC,M,M,M,1500.00,M,M,M,M,KCKV 011515Z AUTO 36006KT 10SM OVC015 A3021 RMK MADISHF
CKV,2017-04-01 15:20,-87.4150,36.6219,M,M,M,30.00,6.00,M,30.21,M,10.00,M,OVC,M,M,M,1500.00,M,M,M,M,KCKV 011520Z AUTO 03006KT 10SM OVC015 A3021 RMK MADISHF
CKV,2017-04-01 15:25,-87.4150,36.6219,M,M,M,10.00,6.00,M,30.22,M,10.00,M,OVC,M,M,M,1500.00,M,M,M,M,KCKV 011525Z AUTO 01006KT 10SM OVC015 A3022 RMK MADISHF
CKV,2017-04-01 15:30,-87.4150,36.6219,M,M,M,30.00,6.00,M,30.21,M,10.00,M,OVC,M,M,M,1500.00,M,M,M,M,KCKV 011530Z AUTO 03006KT 10SM OVC015 A3021 RMK MADISHF
CKV,2017-04-01 15:35,-87.4150,36.6219,M,M,M,10.00,8.00,M,30.21,M,10.00,M,OVC,M,M,M,1500.00,M,M,M,M,KCKV 011535Z AUTO 01008KT 10SM OVC015 A3021 RMK MADISHF
CKV,2017-04-01 15:40,-87.4150,36.6219,M,M,M,360.00,9.00,M,30.21,M,10.00,M,OVC,M,M,M,1500.00,M,M,M,M,KCKV 011540Z AUTO 36009KT 10SM OVC015 A3021 RMK MADISHF
CKV,2017-04-01 15:45,-87.4150,36.6219,M,M,M,360.00,7.00,M,30.21,M,10.00,M,OVC,M,M,M,1500.00,M,M,M,M,KCKV 011545Z AUTO 36007KT 10SM OVC015 A3021 RMK MADISHF
CKV,2017-04-01 15:50,-87.4150,36.6219,M,M,M,360.00,9.00,M,30.21,M,10.00,M,OVC,M,M,M,1400.00,M,M,M,M,KCKV 011550Z AUTO 36009KT 10SM OVC014 A3021 RMK MADISHF
CKV,2017-04-01 15:52,-87.4150,36.6219,46.90,39.00,73.85,10.00,7.00,0.00,30.21,1023.10,10.00,M,OVC,M,M,M,1400.00,M,M,M,M,KCKV 011552Z AUTO 01007KT 10SM OVC014 08/04 A3021 RMK AO2 SLP231 T00830039
CKV,2017-04-01 15:55,-87.4150,36.6219,M,M,M,360.00,6.00,M,30.21,M,10.00,M,OVC,M,M,M,1400.00,M,M,M,M,KCKV 011555Z AUTO 36006KT 10SM OVC014 A3021 RMK MADISHF
CKV,2017-04-01 16:00,-87.4150,36.6219,M,M,M,20.00,9.00,M,30.21,M,10.00,M,OVC,M,M,M,1400.00,M,M,M,M,KCKV 011600Z AUTO 02009KT 10SM OVC014 A3021 RMK MADISHF
CKV,2017-04-01 16:05,-87.4150,36.6219,M,M,M,10.00,7.00,M,30.21,M,10.00,M,OVC,M,M,M,1400.00,M,M,M,M,KCKV 011605Z AUTO 01007KT 10SM OVC014 A3021 RMK MADISHF
CKV,2017-04-01 16:10,-87.4150,36.6219,M,M,M,20.00,8.00,M,30.21,M,10.00,M,OVC,M,M,M,1400.00,M,M,M,M,KCKV 011610Z AUTO 02008KT 10SM OVC014 A3021 RMK MADISHF
CKV,2017-04-01 16:15,-87.4150,36.6219,M,M,M,30.00,8.00,M,30.21,M,10.00,M,OVC,M,M,M,1400.00,M,M,M,M,KCKV 011615Z AUTO 03008KT 10SM OVC014 A3021 RMK MADISHF
CKV,2017-04-01 16:20,-87.4150,36.6219,M,M,M,20.00,7.00,M,30.21,M,10.00,M,OVC,M,M,M,1400.00,M,M,M,M,KCKV 011620Z AUTO 02007KT 10SM OVC014 A3021 RMK MADISHF
CKV,2017-04-01 16:25,-87.4150,36.6219,M,M,M,40.00,4.00,M,30.21,M,10.00,M,OVC,M,M,M,1500.00,M,M,M,M,KCKV 011625Z AUTO 04004KT 10SM OVC015 A3021 RMK MADISHF
CKV,2017-04-01 16:27,-87.4150,36.6219,46.90,37.90,70.73,50.00,4.00,0.00,30.21,M,10.00,M,OVC,M,M,M,1500.00,M,M,M,M,KCKV 011627Z AUTO 05004KT 10SM OVC015 08/03 A3021 RMK AO2 T00830033
CKV,2017-04-01 16:30,-87.4150,36.6219,M,M,M,10.00,6.00,M,30.21,M,10.00,M,OVC,M,M,M,1699.00,M,M,M,M,KCKV 011630Z AUTO 01006KT 10SM OVC016 A3021 RMK VRB06KT  MADISHF
CKV,2017-04-01 16:35,-87.4150,36.6219,M,M,M,30.00,8.00,M,30.20,M,10.00,M,OVC,M,M,M,1900.00,M,M,M,M,KCKV 011635Z AUTO 03008KT 10SM OVC019 A3020 RMK MADISHF
CKV,2017-04-01 16:40,-87.4150,36.6219,M,M,M,60.00,8.00,M,30.20,M,10.00,M,OVC,M,M,M,1900.00,M,M,M,M,KCKV 011640Z AUTO 06008KT 10SM OVC019 A3020 RMK MADISHF
CKV,2017-04-01 16:45,-87.4150,36.6219,M,M,M,50.00,9.00,M,30.19,M,10.00,M,OVC,M,M,M,1900.00,M,M,M,M,KCKV 011645Z AUTO 05009KT 10SM OVC019 A3019 RMK MADISHF
CKV,2017-04-01 16:50,-87.4150,36.6219,M,M,M,30.00,7.00,M,30.19,M,10.00,M,OVC,M,M,M,1900.00,M,M,M,M,KCKV 011650Z AUTO 03007KT 10SM OVC019 A3019 RMK MADISHF
CKV,2017-04-01 16:52,-87.4150,36.6219,50.00,39.00,65.75,30.00,5.00,0.00,30.19,1022.50,10.00,M,OVC,M,M,M,1900.00,M,M,M,M,KCKV 011652Z AUTO 03005KT 10SM OVC019 10/04 A3019 RMK AO2 SLP225 T01000039
CKV,2017-04-01 16:55,-87.4150,36.6219,M,M,M,40.00,5.00,M,30.19,M,10.00,M,OVC,M,M,M,1999.00,M,M,M,M,KCKV 011655Z AUTO 04005KT 10SM OVC019 A3019 RMK VRB05KT  MADISHF
CKV,2017-04-01 17:00,-87.4150,36.6219,M,M,M,20.00,8.00,M,30.19,M,10.00,M,OVC,M,M,M,1999.00,M,M,M,M,KCKV 011700Z AUTO 02008KT 10SM OVC019 A3019 RMK MADISHF
CKV,2017-04-01 17:05,-87.4150,36.6219,M,M,M,20.00,6.00,M,30.19,M,10.00,M,OVC,M,M,M,2100.00,M,M,M,M,KCKV 011705Z AUTO 02006KT 10SM OVC021 A3019 RMK MADISHF
CKV,2017-04-01 17:10,-87.4150,36.6219,M,M,M,20.00,5.00,M,30.19,M,10.00,M,OVC,M,M,M,2100.00,M,M,M,M,KCKV 011710Z AUTO 02005KT 10SM OVC021 A3019 RMK MADISHF
CKV,2017-04-01 17:15,-87.4150,36.6219,M,M,M,M,M,M,30.19,M,10.00,M,OVC,M,M,M,2100.00,M,M,M,M,KCKV 011715Z AUTO /////KT 10SM OVC021 A3019 RMK MADISHF
CKV,2017-04-01 17:20,-87.4150,36.6219,M,M,M,80.00,6.00,M,30.19,M,10.00,M,BKN,M,M,M,2300.00,M,M,M,M,KCKV 011720Z AUTO 08006KT 10SM BKN023 A3019 RMK MADISHF
CKV,2017-04-01 17:25,-87.4150,36.6219,M,M,M,30.00,5.00,M,30.19,M,10.00,M,BKN,M,M,M,2300.00,M,M,M,M,KCKV 011725Z AUTO 03005KT 10SM BKN023 A3019 RMK VRB05KT  MADISHF
CKV,2017-04-01 17:30,-87.4150,36.6219,M,M,M,80.00,5.00,M,30.19,M,10.00,M,BKN,M,M,M,2300.00,M,M,M,M,KCKV 011730Z AUTO 08005KT 10SM BKN023 A3019 RMK VRB05KT  MADISHF
CKV,2017-04-01 17:35,-87.4150,36.6219,M,M,M,70.00,6.00,M,30.19,M,10.00,M,BKN,M,M,M,2300.00,M,M,M,M,KCKV 011735Z AUTO 07006KT 10SM BKN023 A3019 RMK MADISHF
CKV,2017-04-01 17:40,-87.4150,36.6219,M,M,M,40.00,5.00,M,30.19,M,10.00,M,BKN,M,M,M,2300.00,M,M,M,M,KCKV 011740Z AUTO 04005KT 10SM BKN023 A3019 RMK VRB05KT  MADISHF
CKV,2017-04-01 17:45,-87.4150,36.6219,M,M,M,0.00,0.00,M,30.19,M,10.00,M,BKN,M,M,M,2300.00,M,M,M,M,KCKV 011745Z AUTO 00000KT 10SM BKN023 A3019 RMK MADISHF
CKV,2017-04-01 17:50,-87.4150,36.6219,M,M,M,M,M,M,30.19,M,10.00,M,BKN,M,M,M,2500.00,M,M,M,M,KCKV 011750Z AUTO /////KT 10SM BKN025 A3019 RMK MADISHF
CKV,2017-04-01 17:52,-87.4150,36.6219,53.10,39.90,60.73,M,M,0.00,30.19,1022.20,10.00,M,BKN,M,M,M,2500.00,M,M,M,M,KCKV 011752Z AUTO 10SM BKN025 12/04 A3019 RMK AO2 SLP222 T01170044 10117 20072 58006
CKV,2017-04-01 17:55,-87.4150,36.6219,M,M,M,0.00,0.00,M,30.19,M,10.00,M,BKN,M,M,M,2500.00,M,M,M,M,KCKV 011755Z AUTO 00000KT 10SM BKN025 A3019 RMK MADISHF
CKV,2017-04-01 18:00,-87.4150,36.6219,M,M,M,90.00,5.00,M,30.19,M,10.00,M,BKN,M,M,M,2500.00,M,M,M,M,KCKV 011800Z AUTO 09005KT 10SM BKN025 A3019 RMK MADISHF
CKV,2017-04-01 18:05,-87.4150,36.6219,M,M,M,30.00,5.00,M,30.19,M,10.00,M,BKN,M,M,M,2500.00,M,M,M,M,KCKV 011805Z AUTO 03005KT 10SM BKN025 A3019 RMK MADISHF
CKV,2017-04-01 18:10,-87.4150,36.6219,M,M,M,M,M,M,30.18,M,10.00,M,BKN,M,M,M,2500.00,M,M,M,M,KCKV 011810Z AUTO /////KT 10SM BKN025 A3018 RMK MADISHF
CKV,2017-04-01 18:15,-87.4150,36.6219,M,M,M,0.00,0.00,M,30.19,M,10.00,M,BKN,M,M,M,2500.00,M,M,M,M,KCKV 011815Z AUTO 00000KT 10SM BKN025 A3019 RMK MADISHF
CKV,2017-04-01 18:20,-87.4150,36.6219,M,M,M,110.00,4.00,M,30.19,M,10.00,M,BKN,M,M,M,2500.00,M,M,M,M,KCKV 011820Z AUTO 11004KT 10SM BKN025 A3019 RMK MADISHF
CKV,2017-04-01 18:25,-87.4150,36.6219,M,M,M,90.00,6.00,M,30.19,M,10.00,M,BKN,M,M,M,2500.00,M,M,M,M,KCKV 011825Z AUTO 09006KT 10SM BKN025 A3019 RMK MADISHF
CKV,2017-04-01 18:30,-87.4150,36.6219,M,M,M,350.00,3.00,M,30.19,M,10.00,M,BKN,M,M,M,2600.00,M,M,M,M,KCKV 011830Z AUTO 35003KT 10SM BKN026 A3019 RMK VRB03KT  MADISHF
CKV,2017-04-01 18:35,-87.4150,36.6219,M,M,M,20.00,5.00,M,30.19,M,10.00,M,OVC,M,M,M,2600.00,M,M,M,M,KCKV 011835Z AUTO 02005KT 10SM OVC026 A3019 RMK VRB05KT  MADISHF
CKV,2017-04-01 18:40,-87.4150,36.6219,M,M,M,80.00,4.00,M,30.19,M,10.00,M,OVC,M,M,M,2600.00,M,M,M,M,KCKV 011840Z AUTO 08004KT 10SM OVC026 A3019 RMK MADISHF
CKV,2017-04-01 18:45,-87.4150,36.6219,M,M,M,350.00,4.00,M,30.19,M,10.00,M,OVC,M,M,M,2600.00,M,M,M,M,KCKV 011845Z AUTO 35004KT 10SM OVC026 A3019 RMK MADISHF
CKV,2017-04-01 18:50,-87.4150,36.6219,M,M,M,30.00,3.00,M,30.19,M,10.00,M,OVC,M,M,M,2600.00,M,M,M,M,KCKV 011850Z AUTO 03003KT 10SM OVC026 A3019 RMK VRB03KT  MADISHF
CKV,2017-04-01 18:52,-87.4150,36.6219,53.10,39.90,60.73,70.00,3.00,0.00,30.19,1022.30,10.00,M,OVC,M,M,M,2600.00,M,M,M,M,KCKV 011852Z AUTO 07003KT 10SM OVC026 12/04 A3019 RMK AO2 SLP223 T01170044
CKV,2017-04-01 18:55,-87.4150,36.6219,M,M,M,60.00,4.00,M,30.19,M,10.00,M,OVC,M,M,M,2600.00,M,M,M,M,KCKV 011855Z AUTO 06004KT 10SM OVC026 A3019 RMK MADISHF
CKV,2017-04-01 19:00,-87.4150,36.6219,M,M,M,50.00,4.00,M,30.19,M,10.00,M,OVC,M,M,M,2600.00,M,M,M,M,KCKV 011900Z AUTO 05004KT 10SM OVC026 A3019 RMK MADISHF
CKV,2017-04-01 19:05,-87.4150,36.6219,M,M,M,30.00,4.00,M,30.19,M,10.00,M,OVC,M,M,M,2700.00,M,M,M,M,KCKV 011905Z AUTO 03004KT 10SM OVC027 A3019 RMK VRB04KT  MADISHF
CKV,2017-04-01 19:10,-87.4150,36.6219,M,M,M,0.00,0.00,M,30.18,M,10.00,M,OVC,M,M,M,2700.00,M,M,M,M,KCKV 011910Z AUTO 00000KT 10SM OVC027 A3018 RMK MADISHF
CKV,2017-04-01 19:15,-87.4150,36.6219,M,M,M,0.00,0.00,M,30.18,M,10.00,M,OVC,M,M,M,2700.00,M,M,M,M,KCKV 011915Z AUTO 00000KT 10SM OVC027 A3018 RMK MADISHF
CKV,2017-04-01 19:20,-87.4150,36.6219,M,M,M,40.00,6.00,M,30.18,M,10.00,M,OVC,M,M,M,2700.00,M,M,M,M,KCKV 011920Z AUTO 04006KT 10SM OVC027 A3018 RMK MADISHF
CKV,2017-04-01 19:25,-87.4150,36.6219,M,M,M,10.00,7.00,M,30.18,M,10.00,M,OVC,M,M,M,2700.00,M,M,M,M,KCKV 011925Z AUTO 01007KT 10SM OVC027 A3018 RMK MADISHF
CKV,2017-04-01 19:30,-87.4150,36.6219,M,M,M,320.00,3.00,M,30.17,M,10.00,M,OVC,M,M,M,2700.00,M,M,M,M,KCKV 011930Z AUTO 32003KT 10SM OVC027 A3017 RMK VRB03KT  MADISHF
CKV,2017-04-01 19:35,-87.4150,36.6219,M,M,M,0.00,0.00,M,30.17,M,10.00,M,OVC,M,M,M,2700.00,M,M,M,M,KCKV 011935Z AUTO 00000KT 10SM OVC027 A3017 RMK MADISHF
CKV,2017-04-01 19:40,-87.4150,36.6219,M,M,M,70.00,7.00,M,30.17,M,10.00,M,OVC,M,M,M,2700.00,M,M,M,M,KCKV 011940Z AUTO 07007KT 10SM OVC027 A3017 RMK MADISHF
CKV,2017-04-01 19:45,-87.4150,36.6219,M,M,M,80.00,6.00,M,30.17,M,10.00,M,OVC,M,M,M,2700.00,M,M,M,M,KCKV 011945Z AUTO 08006KT 10SM OVC027 A3017 RMK MADISHF
CKV,2017-04-01 19:50,-87.4150,36.6219,M,M,M,90.00,3.00,M,30.17,M,10.00,M,OVC,M,M,M,2800.00,M,M,M,M,KCKV 011950Z AUTO 09003KT 10SM OVC028 A3017 RMK VRB03KT  MADISHF
CKV,2017-04-01 19:52,-87.4150,36.6219,55.00,41.00,59.13,M,3.00,0.00,30.17,1021.70,10.00,M,OVC,M,M,M,2800.00,M,M,M,M,KCKV 011952Z AUTO VRB03KT 10SM OVC028 13/05 A3017 RMK AO2 SLP217 T01280050
CKV,2017-04-01 19:55,-87.4150,36.6219,M,M,M,50.00,5.00,M,30.17,M,10.00,M,OVC,M,M,M,2800.00,M,M,M,M,KCKV 011955Z AUTO 05005KT 10SM OVC028 A3017 RMK MADISHF
CKV,2017-04-01 20:00,-87.4150,36.6219,M,M,M,M,M,M,30.17,M,10.00,M,OVC,M,M,M,2900.00,M,M,M,M,KCKV 012000Z AUTO /////KT 10SM OVC029 A3017 RMK MADISHF
CKV,2017-04-01 20:05,-87.4150,36.6219,M,M,M,30.00,6.00,M,30.17,M,10.00,M,OVC,M,M,M,2900.00,M,M,M,M,KCKV 012005Z AUTO 03006KT 10SM OVC029 A3017 RMK MADISHF
CKV,2017-04-01 20:10,-87.4150,36.6219,M,M,M,40.00,5.00,M,30.17,M,10.00,M,OVC,M,M,M,2900.00,M,M,M,M,KCKV 012010Z AUTO 04005KT 10SM OVC029 A3017 RMK MADISHF
CKV,2017-04-01 20:15,-87.4150,36.6219,M,M,M,80.00,4.00,M,30.17,M,10.00,M,BKN,M,M,M,2900.00,M,M,M,M,KCKV 012015Z AUTO 08004KT 10SM BKN029 A3017 RMK MADISHF
CKV,2017-04-01 20:20,-87.4150,36.6219,M,M,M,70.00,4.00,M,30.17,M,10.00,M,BKN,M,M,M,2900.00,M,M,M,M,KCKV 012020Z AUTO 07004KT 10SM BKN029 A3017 RMK VRB04KT  MADISHF
CKV,2017-04-01 20:25,-87.4150,36.6219,M,M,M,70.00,3.00,M,30.17,M,10.00,M,SCT,M,M,M,2900.00,M,M,M,M,KCKV 012025Z AUTO 07003KT 10SM SCT029 A3017 RMK VRB03KT  MADISHF
CKV,2017-04-01 20:27,-87.4150,36.6219,55.90,41.00,57.23,20.00,5.00,0.00,30.17,M,10.00,M,SCT,M,M,M,2900.00,M,M,M,M,KCKV 012027Z AUTO 02005KT 10SM SCT029 13/05 A3017 RMK AO2 T01330050
CKV,2017-04-01 20:30,-87.4150,36.6219,M,M,M,40.00,7.00,M,30.17,M,10.00,M,FEW,M,M,M,2900.00,M,M,M,M,KCKV 012030Z AUTO 04007KT 10SM FEW029 A3017 RMK WND 01V07  MADISHF
CKV,2017-04-01 20:35,-87.4150,36.6219,M,M,M,10.00,6.00,M,30.17,M,10.00,M,FEW,M,M,M,2900.00,M,M,M,M,KCKV 012035Z AUTO 01006KT 10SM FEW029 A3017 RMK MADISHF
CKV,2017-04-01 20:40,-87.4150,36.6219,M,M,M,50.00,4.00,M,30.17,M,10.00,M,CLR,M,M,M,M,M,M,M,M,KCKV 012040Z AUTO 05004KT 10SM CLR A3017 RMK MADISHF
CKV,2017-04-01 20:45,-87.4150,36.6219,M,M,M,40.00,4.00,M,30.17,M,10.00,M,CLR,M,M,M,M,M,M,M,M,KCKV 012045Z AUTO 04004KT 10SM CLR A3017 RMK MADISHF
CKV,2017-04-01 20:50,-87.4150,36.6219,M,M,M,70.00,7.00,M,30.17,M,10.00,M,FEW,M,M,M,2900.00,M,M,M,M,KCKV 012050Z AUTO 07007KT 10SM FEW029 A3017 RMK MADISHF
CKV,2017-04-01 20:52,-87.4150,36.6219,55.90,42.10,59.71,90.00,5.00,0.00,30.17,1021.50,10.00,M,FEW,M,M,M,2900.00,M,M,M,M,KCKV 012052Z AUTO 09005KT 10SM FEW029 13/06 A3017 RMK AO2 SLP215 T01330056 58007
CKV,2017-04-01 20:55,-87.4150,36.6219,M,M,M,60.00,6.00,M,30.17,M,10.00,M,FEW,M,M,M,2900.00,M,M,M,M,KCKV 012055Z AUTO 06006KT 10SM FEW029 A3017 RMK VRB06KT  MADISHF
CKV,2017-04-01 21:00,-87.4150,36.6219,M,M,M,50.00,6.00,M,30.17,M,10.00,M,CLR,M,M,M,M,M,M,M,M,KCKV 012100Z AUTO 05006KT 10SM CLR A3017 RMK MADISHF
CKV,2017-04-01 21:05,-87.4150,36.6219,M,M,M,20.00,4.00,M,30.17,M,10.00,M,FEW,M,M,M,3000.00,M,M,M,M,KCKV 012105Z AUTO 02004KT 10SM FEW030 A3017 RMK VRB04KT  MADISHF
CKV,2017-04-01 21:10,-87.4150,36.6219,M,M,M,360.00,5.00,M,30.17,M,10.00,M,FEW,M,M,M,3000.00,M,M,M,M,KCKV 012110Z AUTO 36005KT 10SM FEW030 A3017 RMK MADISHF
CKV,2017-04-01 21:15,-87.4150,36.6219,M,M,M,20.00,7.00,M,30.16,M,10.00,M,FEW,M,M,M,3000.00,M,M,M,M,KCKV 012115Z AUTO 02007KT 10SM FEW030 A3016 RMK MADISHF
CKV,2017-04-01 21:20,-87.4150,36.6219,M,M,M,20.00,6.00,M,30.17,M,10.00,M,CLR,M,M,M,M,M,M,M,M,KCKV 012120Z AUTO 02006KT 10SM CLR A3017 RMK MADISHF
CKV,2017-04-01 21:25,-87.4150,36.6219,M,M,M,10.00,4.00,M,30.17,M,10.00,M,CLR,M,M,M,M,M,M,M,M,KCKV 012125Z AUTO 01004KT 10SM CLR A3017 RMK VRB04KT  MADISHF
CKV,2017-04-01 21:30,-87.4150,36.6219,M,M,M,90.00,3.00,M,30.16,M,10.00,M,FEW,M,M,M,3100.00,M,M,M,M,KCKV 012130Z AUTO 09003KT 10SM FEW031 A3016 RMK MADISHF
CKV,2017-04-01 21:35,-87.4150,36.6219,M,M,M,10.00,6.00,M,30.16,M,10.00,M,FEW,M,M,M,3100.00,M,M,M,M,KCKV 012135Z AUTO 01006KT 10SM FEW031 A3016 RMK VRB06KT  MADISHF
CKV,2017-04-01 21:40,-87.4150,36.6219,M,M,M,0.00,0.00,M,30.16,M,10.00,M,FEW,M,M,M,3100.00,M,M,M,M,KCKV 012140Z AUTO 00000KT 10SM FEW031 A3016 RMK MADISHF
CKV,2017-04-01 21:45,-87.4150,36.6219,M,M,M,20.00,3.00,M,30.16,M,10.00,M,FEW,M,M,M,3100.00,M,M,M,M,KCKV 012145Z AUTO 02003KT 10SM FEW031 A3016 RMK VRB03KT  MADISHF
CKV,2017-04-01 21:50,-87.4150,36.6219,M,M,M,10.00,7.00,M,30.16,M,10.00,M,FEW,M,M,M,3100.00,M,M,M,M,KCKV 012150Z AUTO 01007KT 10SM FEW031 A3016 RMK MADISHF
CKV,2017-04-01 21:52,-87.4150,36.6219,57.90,42.10,55.55,20.00,7.00,0.00,30.16,1021.20,10.00,M,FEW,M,M,M,3100.00,M,M,M,M,KCKV 012152Z AUTO 02007KT 10SM FEW031 14/06 A3016 RMK AO2 SLP212 T01440056
CKV,2017-04-01 21:55,-87.4150,36.6219,M,M,M,360.00,7.00,M,30.16,M,10.00,M,FEW,M,M,M,3100.00,M,M,M,M,KCKV 012155Z AUTO 36007KT 10SM FEW031 A3016 RMK MADISHF
CKV,2017-04-01 22:00,-87.4150,36.6219,M,M,M,20.00,6.00,M,30.16,M,10.00,M,CLR,M,M,M,M,M,M,M,M,KCKV 012200Z AUTO 02006KT 10SM CLR A3016 RMK MADISHF
CKV,2017-04-01 22:05,-87.4150,36.6219,M,M,M,30.00,7.00,M,30.16,M,10.00,M,CLR,M,M,M,M,M,M,M,M,KCKV 012205Z AUTO 03007KT 10SM CLR A3016 RMK MADISHF
CKV,2017-04-01 22:10,-87.4150,36.6219,M,M,M,30.00,5.00,M,30.16,M,10.00,M,CLR,M,M,M,M,M,M,M,M,KCKV 012210Z AUTO 03005KT 10SM CLR A3016 RMK MADISHF
CKV,2017-04-01 22:15,-87.4150,36.6219,M,M,M,90.00,4.00,M,30.16,M,10.00,M,CLR,M,M,M,M,M,M,M,M,KCKV 012215Z AUTO 09004KT 10SM CLR A3016 RMK MADISHF
CKV,2017-04-01 22:20,-87.4150,36.6219,M,M,M,50.00,3.00,M,30.16,M,10.00,M,CLR,M,M,M,M,M,M,M,M,KCKV 012220Z AUTO 05003KT 10SM CLR A3016 RMK VRB03KT  MADISHF
CKV,2017-04-01 22:25,-87.4150,36.6219,M,M,M,0.00,0.00,M,30.16,M,10.00,M,CLR,M,M,M,M,M,M,M,M,KCKV 012225Z AUTO 00000KT 10SM CLR A3016 RMK MADISHF
CKV,2017-04-01 22:30,-87.4150,36.6219,M,M,M,0.00,0.00,M,30.16,M,10.00,M,CLR,M,M,M,M,M,M,M,M,KCKV 012230Z AUTO 00000KT 10SM CLR A3016 RMK MADISHF
CKV,2017-04-01 22:35,-87.4150,36.6219,M,M,M,330.00,4.00,M,30.16,M,10.00,M,CLR,M,M,M,M,M,M,M,M,KCKV 012235Z AUTO 33004KT 10SM CLR A3016 RMK VRB04KT  MADISHF
CKV,2017-04-01 22:40,-87.4150,36.6219,M,M,M,10.00,7.00,M,30.16,M,10.00,M,CLR,M,M,M,M,M,M,M,M,KCKV 012240Z AUTO 01007KT 10SM CLR A3016 RMK MADISHF
CKV,2017-04-01 22:45,-87.4150,36.6219,M,M,M,20.00,5.00,M,30.16,M,10.00,M,CLR,M,M,M,M,M,M,M,M,KCKV 012245Z AUTO 02005KT 10SM CLR A3016 RMK MADISHF
CKV,2017-04-01 22:50,-87.4150,36.6219,M,M,M,360.00,8.00,M,30.16,M,10.00,M,CLR,M,M,M,M,M,M,M,M,KCKV 012250Z AUTO 36008KT 10SM CLR A3016 RMK MADISHF
CKV,2017-04-01 22:52,-87.4150,36.6219,57.90,42.10,55.55,10.00,9.00,0.00,30.16,1021.40,10.00,M,CLR,M,M,M,M,M,M,M,M,KCKV 012252Z AUTO 01009KT 10SM CLR 14/06 A3016 RMK AO2 SLP214 T01440056
CKV,2017-04-01 22:55,-87.4150,36.6219,M,M,M,10.00,9.00,M,30.16,M,10.00,M,CLR,M,M,M,M,M,M,M,M,KCKV 012255Z AUTO 01009KT 10SM CLR A3016 RMK MADISHF
CKV,2017-04-01 23:00,-87.4150,36.6219,M,M,M,10.00,9.00,M,30.17,M,10.00,M,CLR,M,M,M,M,M,M,M,M,KCKV 012300Z AUTO 01009KT 10SM CLR A3017 RMK MADISHF
CKV,2017-04-01 23:05,-87.4150,36.6219,M,M,M,10.00,8.00,M,30.16,M,10.00,M,CLR,M,M,M,M,M,M,M,M,KCKV 012305Z AUTO 01008KT 10SM CLR A3016 RMK MADISHF
CKV,2017-04-01 23:10,-87.4150,36.6219,M,M,M,10.00,8.00,M,30.16,M,10.00,M,CLR,M,M,M,M,M,M,M,M,KCKV 012310Z AUTO 01008KT 10SM CLR A3016 RMK MADISHF
CKV,2017-04-01 23:15,-87.4150,36.6219,M,M,M,10.00,10.00,M,30.17,M,10.00,M,CLR,M,M,M,M,M,M,M,M,KCKV 012315Z AUTO 01010KT 10SM CLR A3017 RMK MADISHF
CKV,2017-04-01 23:20,-87.4150,36.6219,M,M,M,360.00,8.00,M,30.17,M,10.00,M,CLR,M,M,M,M,M,M,M,M,KCKV 012320Z AUTO 36008KT 10SM CLR A3017 RMK MADISHF
CKV,2017-04-01 23:25,-87.4150,36.6219,M,M,M,10.00,9.00,M,30.17,M,10.00,M,CLR,M,M,M,M,M,M,M,M,KCKV 012325Z AUTO 01009KT 10SM CLR A3017 RMK MADISHF
CKV,2017-04-01 23:30,-87.4150,36.6219,M,M,M,360.00,9.00,M,30.16,M,10.00,M,CLR,M,M,M,M,M,M,M,M,KCKV 012330Z AUTO 36009KT 10SM CLR A3016 RMK MADISHF
CKV,2017-04-01 23:35,-87.4150,36.6219,M,M,M,10.00,6.00,M,30.17,M,10.00,M,CLR,M,M,M,M,M,M,M,M,KCKV 012335Z AUTO 01006KT 10SM CLR A3017 RMK MADISHF
CKV,2017-04-01 23:40,-87.4150,36.6219,M,M,M,10.00,8.00,M,30.17,M,10.00,M,CLR,M,M,M,M,M,M,M,M,KCKV 012340Z AUTO 01008KT 10SM CLR A3017 RMK MADISHF
CKV,2017-04-01 23:45,-87.4150,36.6219,M,M,M,30.00,7.00,M,30.16,M,10.00,M,CLR,M,M,M,M,M,M,M,M,KCKV 012345Z AUTO 03007KT 10SM CLR A3016 RMK MADISHF
CKV,2017-04-01 23:50,-87.4150,36.6219,M,M,M,20.00,8.00,M,30.16,M,10.00,M,CLR,M,M,M,M,M,M,M,M,KCKV 012350Z AUTO 02008KT 10SM CLR A3016 RMK MADISHF
CKV,2017-04-01 23:52,-87.4150,36.6219,54.00,41.00,61.32,20.00,9.00,0.00,30.16,1021.30,10.00,M,CLR,M,M,M,M,M,M,M,M,KCKV 012352Z AUTO 02009KT 10SM CLR 12/05 A3016 RMK AO2 SLP213 T01220050 10150 20111 56003
CKV,2017-04-01 23:55,-87.4150,36.6219,M,M,M,30.00,8.00,M,30.16,M,10.00,M,CLR,M,M,M,M,M,M,M,M,KCKV 012355Z AUTO 03008KT 10SM CLR A3016 RMK MADISHF
