#DEBUG: Format Typ    -> comma
#DEBUG: Time Period   -> 2017-04-01 00:00:00+00:00 2017-04-02 00:00:00+00:00
#DEBUG: Time Zone     -> Etc/UTC
#DEBUG: Data Contact   -> daryl herzmann akrherz@iastate.edu 515-294-5978
#DEBUG: Entries Found -> -1
station,valid,lon,lat,tmpf, dwpf, relh, drct, sknt, p01i, alti, mslp, vsby, gust, skyc1, skyc2, skyc3, skyc4, skyl1, skyl2, skyl3, skyl4, presentwx, metar
CLI,2017-04-01 00:15,-88.7314,44.6139,48.20,32.00,53.27,120.00,3.00,0.00,29.98,M,10.00,M,CLR,M,M,M,M,M,M,M,M,KCLI 010015Z AUTO 12003KT 10SM CLR 09/00 A2998 RMK AO2
CLI,2017-04-01 00:35,-88.7314,44.6139,46.40,30.20,53.00,140.00,3.00,0.00,29.99,M,10.00,M,CLR,M,M,M,M,M,M,M,M,KCLI 010035Z AUTO 14003KT 10SM CLR 08/M01 A2999 RMK AO2
CLI,2017-04-01 00:55,-88.7314,44.6139,44.60,30.20,56.74,130.00,3.00,0.00,29.99,M,10.00,M,CLR,M,M,M,M,M,M,M,M,KCLI 010055Z AUTO 13003KT 10SM CLR 07/M01 A2999 RMK AO2
CLI,2017-04-01 01:15,-88.7314,44.6139,44.60,30.20,56.74,0.00,0.00,0.00,30.01,M,10.00,M,CLR,M,M,M,M,M,M,M,M,KCLI 010115Z AUTO 00000KT 10SM CLR 07/M01 A3001 RMK AO2
CLI,2017-04-01 01:35,-88.7314,44.6139,42.80,30.20,60.79,0.00,0.00,0.00,30.02,M,10.00,M,CLR,M,M,M,M,M,M,M,M,KCLI 010135Z AUTO 00000KT 10SM CLR 06/M01 A3002 RMK AO2
CLI,2017-04-01 01:55,-88.7314,44.6139,39.20,28.40,64.93,0.00,0.00,0.00,30.03,M,10.00,M,CLR,M,M,M,M,M,M,M,M,KCLI 010155Z AUTO 00000KT 10SM CLR 04/M02 A3003 RMK AO2
CLI,2017-04-01 02:15,-88.7314,44.6139,39.20,30.20,69.88,0.00,0.00,0.00,30.03,M,10.00,M,CLR,M,M,M,M,M,M,M,M,KCLI 010215Z AUTO 00000KT 10SM CLR 04/M01 A3003 RMK AO2
CLI,2017-04-01 02:35,-88.7314,44.6139,39.20,28.40,64.93,0.00,0.00,0.00,30.04,M,10.00,M,CLR,M,M,M,M,M,M,M,M,KCLI 010235Z AUTO 00000KT 10SM CLR 04/M02 A3004 RMK AO2
CLI,2017-04-01 02:55,-88.7314,44.6139,35.60,28.40,74.80,0.00,0.00,0.00,30.05,M,10.00,M,CLR,M,M,M,M,M,M,M,M,KCLI 010255Z AUTO 00000KT 10SM CLR 02/M02 A3005 RMK AO2
CLI,2017-04-01 03:15,-88.7314,44.6139,33.80,28.40,80.36,0.00,0.00,0.00,30.05,M,10.00,M,CLR,M,M,M,M,M,M,M,M,KCLI 010315Z AUTO 00000KT 10SM CLR 01/M02 A3005 RMK AO2
CLI,2017-04-01 03:35,-88.7314,44.6139,33.80,28.40,80.36,0.00,0.00,0.00,30.05,M,10.00,M,CLR,M,M,M,M,M,M,M,M,KCLI 010335Z AUTO 00000KT 10SM CLR 01/M02 A3005 RMK AO2
CLI,2017-04-01 03:55,-88.7314,44.6139,33.80,28.40,80.36,0.00,0.00,0.00,30.06,M,10.00,M,CLR,M,M,M,M,M,M,M,M,KCLI 010355Z AUTO 00000KT 10SM CLR 01/M02 A3006 RMK AO2
CLI,2017-04-01 04:15,-88.7314,44.6139,32.00,26.60,80.22,0.00,0.00,0.00,30.07,M,10.00,M,CLR,M,M,M,M,M,M,M,M,KCLI 010415Z AUTO 00000KT 10SM CLR 00/M03 A3007 RMK AO2
CLI,2017-04-01 04:35,-88.7314,44.6139,32.00,26.60,80.22,0.00,0.00,0.00,30.08,M,10.00,M,CLR,M,M,M,M,M,M,M,M,KCLI 010435Z AUTO 00000KT 10SM CLR 00/M03 A3008 RMK AO2
CLI,2017-04-01 04:55,-88.7314,44.6139,32.00,30.20,92.97,0.00,0.00,0.00,30.09,M,10.00,M,CLR,M,M,M,M,M,M,M,M,KCLI 010455Z AUTO 00000KT 10SM CLR 00/M01 A3009 RMK AO2
CLI,2017-04-01 05:15,-88.7314,44.6139,30.20,28.40,92.92,0.00,0.00,0.00,30.09,M,10.00,M,CLR,M,M,M,M,M,M,M,M,KCLI 010515Z AUTO 00000KT 10SM CLR M01/M02 A3009 RMK AO2
CLI,2017-04-01 05:35,-88.7314,44.6139,32.00,28.40,86.39,0.00,0.00,0.00,30.10,M,10.00,M,CLR,M,M,M,M,M,M,M,M,KCLI 010535Z AUTO 00000KT 10SM CLR 00/M02 A3010 RMK AO2
CLI,2017-04-01 05:55,-88.7314,44.6139,32.00,30.20,92.97,280.00,3.00,0.00,30.11,M,10.00,M,CLR,M,M,M,M,M,M,M,M,KCLI 010555Z AUTO 28003KT 10SM CLR 00/M01 A3011 RMK AO2
CLI,2017-04-01 06:15,-88.7314,44.6139,30.20,28.40,92.92,0.00,0.00,0.00,30.11,M,10.00,M,CLR,M,M,M,M,M,M,M,M,KCLI 010615Z AUTO 00000KT 10SM CLR M01/M02 A3011 RMK AO2
CLI,2017-04-01 06:35,-88.7314,44.6139,32.00,28.40,86.39,0.00,0.00,0.00,30.10,M,10.00,M,CLR,M,M,M,M,M,M,M,M,KCLI 010635Z AUTO 00000KT 10SM CLR 00/M02 A3010 RMK AO2
CLI,2017-04-01 06:55,-88.7314,44.6139,32.00,30.20,92.97,270.00,3.00,0.00,30.11,M,10.00,M,CLR,M,M,M,M,M,M,M,M,KCLI 010655Z AUTO 27003KT 10SM CLR 00/M01 A3011 RMK AO2
CLI,2017-04-01 07:15,-88.7314,44.6139,32.00,28.40,86.39,0.00,0.00,0.00,30.11,M,10.00,M,CLR,M,M,M,M,M,M,M,M,KCLI 010715Z AUTO 00000KT 10SM CLR 00/M02 A3011 RMK AO2
CLI,2017-04-01 07:35,-88.7314,44.6139,32.00,28.40,86.39,0.00,0.00,0.00,30.12,M,10.00,M,CLR,M,M,M,M,M,M,M,M,KCLI 010735Z AUTO 00000KT 10SM CLR 00/M02 A3012 RMK AO2
CLI,2017-04-01 07:55,-88.7314,44.6139,32.00,26.60,80.22,300.00,4.00,0.00,30.12,M,10.00,M,CLR,M,M,M,M,M,M,M,M,KCLI 010755Z AUTO 30004KT 10SM CLR 00/M03 A3012 RMK AO2
CLI,2017-04-01 08:15,-88.7314,44.6139,32.00,26.60,80.22,0.00,0.00,0.00,30.13,M,10.00,M,CLR,M,M,M,M,M,M,M,M,KCLI 010815Z AUTO 00000KT 10SM CLR 00/M03 A3013 RMK AO2
CLI,2017-04-01 08:35,-88.7314,44.6139,30.20,26.60,86.28,0.00,0.00,0.00,30.14,M,10.00,M,CLR,M,M,M,M,M,M,M,M,KCLI 010835Z AUTO 00000KT 10SM CLR M01/M03 A3014 RMK AO2
CLI,2017-04-01 08:55,-88.7314,44.6139,30.20,24.80,80.07,0.00,0.00,0.00,30.14,M,10.00,M,CLR,M,M,M,M,M,M,M,M,KCLI 010855Z AUTO 00000KT 10SM CLR M01/M04 A3014 RMK AO2
CLI,2017-04-01 09:15,-88.7314,44.6139,30.20,24.80,80.07,0.00,0.00,0.00,30.14,M,10.00,M,CLR,M,M,M,M,M,M,M,M,KCLI 010915Z AUTO 00000KT 10SM CLR M01/M04 A3014 RMK AO2
CLI,2017-04-01 09:35,-88.7314,44.6139,30.20,24.80,80.07,0.00,0.00,0.00,30.14,M,10.00,M,CLR,M,M,M,M,M,M,M,M,KCLI 010935Z AUTO 00000KT 10SM CLR M01/M04 A3014 RMK AO2
CLI,2017-04-01 09:55,-88.7314,44.6139,28.40,23.00,79.92,0.00,0.00,0.00,30.14,M,10.00,M,CLR,M,M,M,M,M,M,M,M,KCLI 010955Z AUTO 00000KT 10SM CLR M02/M05 A3014 RMK AO2
CLI,2017-04-01 10:15,-88.7314,44.6139,30.20,23.00,74.26,0.00,0.00,0.00,30.15,M,10.00,M,CLR,M,M,M,M,M,M,M,M,KCLI 011015Z AUTO 00000KT 10SM CLR M01/M05 A3015 RMK AO2
CLI,2017-04-01 10:35,-88.7314,44.6139,30.20,23.00,74.26,0.00,0.00,0.00,30.15,M,10.00,M,CLR,M,M,M,M,M,M,M,M,KCLI 011035Z AUTO 00000KT 10SM CLR M01/M05 A3015 RMK AO2
CLI,2017-04-01 10:55,-88.7314,44.6139,30.20,23.00,74.26,0.00,0.00,0.00,30.15,M,10.00,M,CLR,M,M,M,M,M,M,M,M,KCLI 011055Z AUTO 00000KT 10SM CLR M01/M05 A3015 RMK AO2
CLI,2017-04-01 11:15,-88.7314,44.6139,28.40,23.00,79.92,0.00,0.00,0.00,30.14,M,10.00,M,CLR,M,M,M,M,M,M,M,M,KCLI 011115Z AUTO 00000KT 10SM CLR M02/M05 A3014 RMK AO2
CLI,2017-04-01 11:35,-88.7314,44.6139,28.40,24.80,86.18,0.00,0.00,0.00,30.15,M,10.00,M,CLR,M,M,M,M,M,M,M,M,KCLI 011135Z AUTO 00000KT 10SM CLR M02/M04 A3015 RMK AO2
CLI,2017-04-01 11:55,-88.7314,44.6139,28.40,23.00,79.92,0.00,0.00,0.00,30.15,M,10.00,M,CLR,M,M,M,M,M,M,M,M,KCLI 011155Z AUTO 00000KT 10SM CLR M02/M05 A3015 RMK AO2
CLI,2017-04-01 12:15,-88.7314,44.6139,28.40,23.00,79.92,0.00,0.00,0.00,30.16,M,10.00,M,CLR,M,M,M,M,M,M,M,M,KCLI 011215Z AUTO 00000KT 10SM CLR M02/M05 A3016 RMK AO2
CLI,2017-04-01 12:35,-88.7314,44.6139,32.00,26.60,80.22,280.00,3.00,0.00,30.18,M,10.00,M,CLR,M,M,M,M,M,M,M,M,KCLI 011235Z AUTO 28003KT 10SM CLR 00/M03 A3018 RMK AO2
CLI,2017-04-01 12:55,-88.7314,44.6139,33.80,24.80,69.25,280.00,4.00,0.00,30.19,M,10.00,M,CLR,M,M,M,M,M,M,M,M,KCLI 011255Z AUTO 28004KT 10SM CLR 01/M04 A3019 RMK AO2
CLI,2017-04-01 13:15,-88.7314,44.6139,35.60,26.60,69.46,300.00,3.00,0.00,30.18,M,10.00,M,CLR,M,M,M,M,M,M,M,M,KCLI 011315Z AUTO 30003KT 10SM CLR 02/M03 A3018 RMK AO2
CLI,2017-04-01 13:35,-88.7314,44.6139,37.40,26.60,64.70,270.00,3.00,0.00,30.19,M,10.00,M,CLR,M,M,M,M,M,M,M,M,KCLI 011335Z AUTO 27003KT 10SM CLR 03/M03 A3019 RMK AO2
CLI,2017-04-01 13:55,-88.7314,44.6139,41.00,24.80,52.17,300.00,3.00,0.00,30.18,M,10.00,M,CLR,M,M,M,M,M,M,M,M,KCLI 011355Z AUTO 30003KT 10SM CLR 05/M04 A3018 RMK AO2
CLI,2017-04-01 14:15,-88.7314,44.6139,42.80,24.80,48.67,310.00,3.00,0.00,30.19,M,10.00,M,CLR,M,M,M,M,M,M,M,M,KCLI 011415Z AUTO 31003KT 10SM CLR 06/M04 A3019 RMK AO2
CLI,2017-04-01 14:35,-88.7314,44.6139,44.60,24.80,45.44,0.00,0.00,0.00,30.20,M,10.00,M,CLR,M,M,M,M,M,M,M,M,KCLI 011435Z AUTO 00000KT 10SM CLR 07/M04 A3020 RMK AO2
CLI,2017-04-01 14:55,-88.7314,44.6139,46.40,24.80,42.44,280.00,3.00,0.00,30.20,M,10.00,M,CLR,M,M,M,M,M,M,M,M,KCLI 011455Z AUTO 28003KT 10SM CLR 08/M04 A3020 RMK AO2
CLI,2017-04-01 15:15,-88.7314,44.6139,50.00,23.00,34.39,280.00,3.00,0.00,30.20,M,10.00,M,CLR,M,M,M,M,M,M,M,M,KCLI 011515Z AUTO 28003KT 10SM CLR 10/M05 A3020 RMK AO2
CLI,2017-04-01 15:35,-88.7314,44.6139,51.80,23.00,32.17,330.00,4.00,0.00,30.20,M,10.00,M,CLR,M,M,M,M,M,M,M,M,KCLI 011535Z AUTO 33004KT 10SM CLR 11/M05 A3020 RMK AO2
CLI,2017-04-01 15:55,-88.7314,44.6139,53.60,23.00,30.11,260.00,3.00,0.00,30.20,M,10.00,M,CLR,M,M,M,M,M,M,M,M,KCLI 011555Z AUTO 26003KT 10SM CLR 12/M05 A3020 RMK AO2
CLI,2017-04-01 16:15,-88.7314,44.6139,53.60,21.20,27.91,290.00,7.00,0.00,30.20,M,10.00,M,CLR,M,M,M,M,M,M,M,M,KCLI 011615Z AUTO 29007KT 10SM CLR 12/M06 A3020 RMK AO2
CLI,2017-04-01 16:35,-88.7314,44.6139,55.40,23.00,28.20,0.00,0.00,0.00,30.19,M,10.00,M,CLR,M,M,M,M,M,M,M,M,KCLI 011635Z AUTO 00000KT 10SM CLR 13/M05 A3019 RMK AO2
CLI,2017-04-01 16:55,-88.7314,44.6139,55.40,23.00,28.20,300.00,4.00,0.00,30.19,M,10.00,M,CLR,M,M,M,M,M,M,M,M,KCLI 011655Z AUTO 30004KT 10SM CLR 13/M05 A3019 RMK AO2
CLI,2017-04-01 17:15,-88.7314,44.6139,55.40,21.20,26.13,260.00,6.00,0.00,30.19,M,10.00,M,CLR,M,M,M,M,M,M,M,M,KCLI 011715Z AUTO 26006KT 10SM CLR 13/M06 A3019 RMK AO2
CLI,2017-04-01 17:35,-88.7314,44.6139,57.20,21.20,24.49,260.00,5.00,0.00,30.18,M,10.00,M,CLR,M,M,M,M,M,M,M,M,KCLI 011735Z AUTO 26005KT 10SM CLR 14/M06 A3018 RMK AO2
CLI,2017-04-01 17:55,-88.7314,44.6139,59.00,23.00,24.76,270.00,6.00,0.00,30.18,M,10.00,M,CLR,M,M,M,M,M,M,M,M,KCLI 011755Z AUTO 27006KT 10SM CLR 15/M05 A3018 RMK AO2
CLI,2017-04-01 18:15,-88.7314,44.6139,59.00,23.00,24.76,320.00,3.00,0.00,30.18,M,10.00,M,CLR,M,M,M,M,M,M,M,M,KCLI 011815Z AUTO 32003KT 10SM CLR 15/M05 A3018 RMK AO2
CLI,2017-04-01 18:35,-88.7314,44.6139,60.80,23.00,23.23,220.00,3.00,0.00,30.17,M,10.00,M,CLR,M,M,M,M,M,M,M,M,KCLI 011835Z AUTO 22003KT 10SM CLR 16/M05 A3017 RMK AO2
CLI,2017-04-01 18:55,-88.7314,44.6139,60.80,23.00,23.23,330.00,3.00,0.00,30.16,M,10.00,M,CLR,M,M,M,M,M,M,M,M,KCLI 011855Z AUTO 33003KT 10SM CLR 16/M05 A3016 RMK AO2
CLI,2017-04-01 19:15,-88.7314,44.6139,60.80,24.80,25.04,270.00,8.00,0.00,30.15,M,10.00,M,CLR,M,M,M,M,M,M,M,M,KCLI 011915Z AUTO 27008KT 10SM CLR 16/M04 A3015 RMK AO2
CLI,2017-04-01 19:35,-88.7314,44.6139,60.80,24.80,25.04,240.00,6.00,0.00,30.15,M,10.00,M,CLR,M,M,M,M,M,M,M,M,KCLI 011935Z AUTO 24006KT 10SM CLR 16/M04 A3015 RMK AO2
CLI,2017-04-01 19:55,-88.7314,44.6139,60.80,24.80,25.04,210.00,6.00,0.00,30.14,M,10.00,M,CLR,M,M,M,M,M,M,M,M,KCLI 011955Z AUTO 21006KT 10SM CLR 16/M04 A3014 RMK AO2
CLI,2017-04-01 20:15,-88.7314,44.6139,62.60,26.60,25.32,240.00,8.00,0.00,30.13,M,10.00,M,CLR,M,M,M,M,M,M,M,M,KCLI 012015Z AUTO 24008KT 10SM CLR 17/M03 A3013 RMK AO2
CLI,2017-04-01 20:35,-88.7314,44.6139,60.80,24.80,25.04,320.00,4.00,0.00,30.12,M,10.00,M,CLR,M,M,M,M,M,M,M,M,KCLI 012035Z AUTO 32004KT 10SM CLR 16/M04 A3012 RMK AO2
CLI,2017-04-01 20:55,-88.7314,44.6139,62.60,26.60,25.32,260.00,6.00,0.00,30.12,M,10.00,M,SCT,M,M,M,8000.00,M,M,M,M,KCLI 012055Z AUTO 26006KT 10SM SCT080 17/M03 A3012 RMK AO2
CLI,2017-04-01 21:15,-88.7314,44.6139,62.60,26.60,25.32,220.00,6.00,0.00,30.11,M,10.00,M,SCT,M,M,M,8000.00,M,M,M,M,KCLI 012115Z AUTO 22006KT 10SM SCT080 17/M03 A3011 RMK AO2
CLI,2017-04-01 21:35,-88.7314,44.6139,60.80,26.60,26.98,290.00,5.00,0.00,30.12,M,10.00,M,SCT,M,M,M,8000.00,M,M,M,M,KCLI 012135Z AUTO 29005KT 10SM SCT080 16/M03 A3012 RMK AO2
CLI,2017-04-01 21:55,-88.7314,44.6139,62.60,26.60,25.32,310.00,6.00,0.00,30.11,M,10.00,M,BKN,M,M,M,8000.00,M,M,M,M,KCLI 012155Z AUTO 31006KT 10SM BKN080 17/M03 A3011 RMK AO2
CLI,2017-04-01 22:15,-88.7314,44.6139,62.60,26.60,25.32,270.00,11.00,0.00,30.12,M,10.00,14.00,BKN,M,M,M,8000.00,M,M,M,M,KCLI 012215Z AUTO 27011G14KT 10SM BKN080 17/M03 A3012 RMK AO2
CLI,2017-04-01 22:35,-88.7314,44.6139,62.60,26.60,25.32,270.00,9.00,0.00,30.12,M,10.00,M,SCT,M,M,M,8000.00,M,M,M,M,KCLI 012235Z AUTO 27009KT 10SM SCT080 17/M03 A3012 RMK AO2
CLI,2017-04-01 22:55,-88.7314,44.6139,62.60,26.60,25.32,250.00,5.00,0.00,30.12,M,10.00,M,CLR,M,M,M,M,M,M,M,M,KCLI 012255Z AUTO 25005KT 10SM CLR 17/M03 A3012 RMK AO2
CLI,2017-04-01 23:15,-88.7314,44.6139,62.60,26.60,25.32,260.00,7.00,0.00,30.12,M,10.00,M,BKN,M,M,M,9000.00,M,M,M,M,KCLI 012315Z AUTO 26007KT 10SM BKN090 17/M03 A3012 RMK AO2
CLI,2017-04-01 23:35,-88.7314,44.6139,60.80,26.60,26.98,270.00,9.00,0.00,30.12,M,10.00,M,BKN,M,M,M,9000.00,M,M,M,M,KCLI 012335Z AUTO 27009KT 10SM BKN090 16/M03 A3012 RMK AO2
CLI,2017-04-01 23:55,-88.7314,44.6139,60.80,28.40,29.06,270.00,5.00,0.00,30.12,M,10.00,M,BKN,M,M,M,9000.00,M,M,M,M,KCLI 012355Z AUTO 27005KT 10SM BKN090 16/M02 A3012 RMK AO2
