#DEBUG: Format Typ    -> comma
#DEBUG: Time Period   -> 2017-04-01 00:00:00+00:00 2017-04-02 00:00:00+00:00
#DEBUG: Time Zone     -> Etc/UTC
#DEBUG: Data Contact   -> daryl herzmann akrherz@iastate.edu 515-294-5978
#DEBUG: Entries Found -> -1
station,valid,lon,lat,tmpf, dwpf, relh, drct, sknt, p01i, alti, mslp, vsby, gust, skyc1, skyc2, skyc3, skyc4, skyl1, skyl2, skyl3, skyl4, presentwx, metar
CLT,2017-04-01 00:00,-80.9543,35.2225,M,M,M,330.00,8.00,M,29.75,M,10.00,M,SCT,M,M,M,7000.00,M,M,M,M,KCLT 010000Z AUTO 33008KT 10SM SCT070 A2975 RMK MADISHF
CLT,2017-04-01 00:05,-80.9543,35.2225,M,M,M,320.00,7.00,M,29.76,M,10.00,M,SCT,M,M,M,7000.00,M,M,M,M,KCLT 010005Z AUTO 32007KT 10SM SCT070 A2976 RMK MADISHF
CLT,2017-04-01 00:10,-80.9543,35.2225,M,M,M,320.00,8.00,M,29.76,M,10.00,M,SCT,M,M,M,7000.00,M,M,M,M,KCLT 010010Z AUTO 32008KT 10SM SCT070 A2976 RMK MADISHF
CLT,2017-04-01 00:15,-80.9543,35.2225,M,M,M,330.00,7.00,M,29.76,M,10.00,M,SCT,M,M,M,7000.00,M,M,M,M,KCLT 010015Z AUTO 33007KT 10SM SCT070 A2976 RMK MADISHF
CLT,2017-04-01 00:20,-80.9543,35.2225,M,M,M,320.00,7.00,M,29.77,M,10.00,M,SCT,M,M,M,7000.00,M,M,M,M,KCLT 010020Z AUTO 32007KT 10SM SCT070 A2977 RMK MADISHF
CLT,2017-04-01 00:25,-80.9543,35.2225,M,M,M,330.00,6.00,M,29.77,M,10.00,M,SCT,M,M,M,7000.00,M,M,M,M,KCLT 010025Z AUTO 33006KT 10SM SCT070 A2977 RMK MADISHF
CLT,2017-04-01 00:30,-80.9543,35.2225,M,M,M,320.00,6.00,M,29.77,M,10.00,M,SCT,M,M,M,7000.00,M,M,M,M,KCLT 010030Z AUTO 32006KT 10SM SCT070 A2977 RMK MADISHF
CLT,2017-04-01 00:35,-80.9543,35.2225,M,M,M,300.00,7.00,M,29.77,M,10.00,M,SCT,M,M,M,7000.00,M,M,M,M,KCLT 010035Z AUTO 30007KT 10SM SCT070 A2977 RMK MADISHF
CLT,2017-04-01 00:40,-80.9543,35.2225,M,M,M,310.00,7.00,M,29.78,M,10.00,M,SCT,M,M,M,7000.00,M,M,M,M,KCLT 010040Z AUTO 31007KT 10SM SCT070 A2978 RMK MADISHF
CLT,2017-04-01 00:45,-80.9543,35.2225,M,M,M,320.00,7.00,M,29.78,M,10.00,M,SCT,M,M,M,7000.00,M,M,M,M,KCLT 010045Z AUTO 32007KT 10SM SCT070 A2978 RMK MADISHF
CLT,2017-04-01 00:50,-80.9543,35.2225,M,M,M,320.00,7.00,M,29.79,M,10.00,M,FEW,M,M,M,7000.00,M,M,M,M,KCLT 010050Z AUTO 32007KT 10SM FEW070 A2979 RMK MADISHF
CLT,2017-04-01 00:52,-80.9543,35.2225,62.10,41.00,45.84,320.00,7.00,0.00,29.79,1008.20,10.00,M,FEW,M,M,M,7000.00,M,M,M,M,KCLT 010052Z 32007KT 10SM FEW070 17/05 A2979 RMK AO2 SLP082 T01670050
CLT,2017-04-01 00:55,-80.9543,35.2225,M,M,M,330.00,7.00,M,29.79,M,10.00,M,CLR,M,M,M,M,M,M,M,M,KCLT 010055Z AUTO 33007KT 10SM CLR A2979 RMK MADISHF
CLT,2017-04-01 01:00,-80.9543,35.2225,M,M,M,320.00,9.00,M,29.79,M,10.00,14.00,CLR,M,M,M,M,M,M,M,M,KCLT 010100Z AUTO 32009G14KT 10SM CLR A2979 RMK MADISHF
CLT,2017-04-01 01:05,-80.9543,35.2225,M,M,M,320.00,9.00,M,29.79,M,10.00,M,CLR,M,M,M,M,M,M,M,M,KCLT 010105Z AUTO 32009KT 10SM CLR A2979 RMK MADISHF
CLT,2017-04-01 01:10,-80.9543,35.2225,M,M,M,320.00,9.00,M,29.80,M,10.00,M,FEW,M,M,M,7000.00,M,M,M,M,KCLT 010110Z AUTO 32009KT 10SM FEW070 A2980 RMK MADISHF
CLT,2017-04-01 01:15,-80.9543,35.2225,M,M,M,320.00,8.00,M,29.81,M,10.00,M,FEW,M,M,M,7000.00,M,M,M,M,KCLT 010115Z AUTO 32008KT 10SM FEW070 A2981 RMK MADISHF
CLT,2017-04-01 01:20,-80.9543,35.2225,M,M,M,320.00,9.00,M,29.81,M,10.00,M,FEW,M,M,M,7000.00,M,M,M,M,KCLT 010120Z AUTO 32009KT 10SM FEW070 A2981 RMK MADISHF
CLT,2017-04-01 01:25,-80.9543,35.2225,M,M,M,320.00,12.00,M,29.81,M,10.00,17.00,FEW,M,M,M,7000.00,M,M,M,M,KCLT 010125Z AUTO 32012G17KT 10SM FEW070 A2981 RMK MADISHF
CLT,2017-04-01 01:30,-80.9543,35.2225,M,M,M,320.00,9.00,M,29.81,M,10.00,M,FEW,M,M,M,7000.00,M,M,M,M,KCLT 010130Z AUTO 32009KT 10SM FEW070 A2981 RMK MADISHF
CLT,2017-04-01 01:35,-80.9543,35.2225,M,M,M,320.00,11.00,M,29.81,M,10.00,M,FEW,M,M,M,7000.00,M,M,M,M,KCLT 010135Z AUTO 32011KT 10SM FEW070 A2981 RMK MADISHF
CLT,2017-04-01 01:40,-80.9543,35.2225,M,M,M,320.00,12.00,M,29.81,M,10.00,M,FEW,M,M,M,7000.00,M,M,M,M,KCLT 010140Z AUTO 32012KT 10SM FEW070 A2981 RMK MADISHF
CLT,2017-04-01 01:45,-80.9543,35.2225,M,M,M,320.00,12.00,M,29.82,M,10.00,M,FEW,M,M,M,7000.00,M,M,M,M,KCLT 010145Z AUTO 32012KT 10SM FEW070 A2982 RMK MADISHF
CLT,2017-04-01 01:50,-80.9543,35.2225,M,M,M,330.00,9.00,M,29.83,M,10.00,M,FEW,M,M,M,7000.00,M,M,M,M,KCLT 010150Z AUTO 33009KT 10SM FEW070 A2983 RMK MADISHF
CLT,2017-04-01 01:52,-80.9543,35.2225,62.10,41.00,45.84,340.00,9.00,0.00,29.83,1009.50,10.00,20.00,FEW,M,M,M,7000.00,M,M,M,M,KCLT 010152Z 34009G20KT 10SM FEW070 17/05 A2983 RMK AO2 SLP095 T01670050
CLT,2017-04-01 01:55,-80.9543,35.2225,M,M,M,340.00,7.00,M,29.83,M,10.00,M,CLR,M,M,M,M,M,M,M,M,KCLT 010155Z AUTO 34007KT 10SM CLR A2983 RMK MADISHF
CLT,2017-04-01 02:00,-80.9543,35.2225,M,M,M,340.00,10.00,M,29.83,M,10.00,M,CLR,M,M,M,M,M,M,M,M,KCLT 010200Z AUTO 34010KT 10SM CLR A2983 RMK MADISHF
CLT,2017-04-01 02:05,-80.9543,35.2225,M,M,M,340.00,8.00,M,29.84,M,10.00,M,CLR,M,M,M,M,M,M,M,M,KCLT 010205Z AUTO 34008KT 10SM CLR A2984 RMK MADISHF
CLT,2017-04-01 02:10,-80.9543,35.2225,M,M,M,340.00,8.00,M,29.84,M,10.00,M,CLR,M,M,M,M,M,M,M,M,KCLT 010210Z AUTO 34008KT 10SM CLR A2984 RMK MADISHF
CLT,2017-04-01 02:15,-80.9543,35.2225,M,M,M,340.00,9.00,M,29.84,M,10.00,M,CLR,M,M,M,M,M,M,M,M,KCLT 010215Z AUTO 34009KT 10SM CLR A2984 RMK MADISHF
CLT,2017-04-01 02:20,-80.9543,35.2225,M,M,M,340.00,11.00,M,29.84,M,10.00,M,CLR,M,M,M,M,M,M,M,M,KCLT 010220Z AUTO 34011KT 10SM CLR A2984 RMK MADISHF
CLT,2017-04-01 02:25,-80.9543,35.2225,M,M,M,340.00,12.00,M,29.84,M,10.00,M,CLR,M,M,M,M,M,M,M,M,KCLT 010225Z AUTO 34012KT 10SM CLR A2984 RMK MADISHF
CLT,2017-04-01 02:30,-80.9543,35.2225,M,M,M,330.00,9.00,M,29.83,M,10.00,M,CLR,M,M,M,M,M,M,M,M,KCLT 010230Z AUTO 33009KT 10SM CLR A2983 RMK MADISHF
CLT,2017-04-01 02:35,-80.9543,35.2225,M,M,M,320.00,11.00,M,29.84,M,10.00,M,CLR,M,M,M,M,M,M,M,M,KCLT 010235Z AUTO 32011KT 10SM CLR A2984 RMK MADISHF
CLT,2017-04-01 02:40,-80.9543,35.2225,M,M,M,320.00,9.00,M,29.84,M,10.00,M,CLR,M,M,M,M,M,M,M,M,KCLT 010240Z AUTO 32009KT 10SM CLR A2984 RMK MADISHF
CLT,2017-04-01 02:45,-80.9543,35.2225,M,M,M,330.00,10.00,M,29.84,M,10.00,15.00,CLR,M,M,M,M,M,M,M,M,KCLT 010245Z AUTO 33010G15KT 10SM CLR A2984 RMK MADISHF
CLT,2017-04-01 02:50,-80.9543,35.2225,M,M,M,340.00,10.00,M,29.84,M,10.00,M,FEW,M,M,M,7000.00,M,M,M,M,KCLT 010250Z AUTO 34010KT 10SM FEW070 A2984 RMK MADISHF
CLT,2017-04-01 02:52,-80.9543,35.2225,61.00,41.00,47.66,340.00,12.00,0.00,29.84,1010.00,10.00,M,FEW,M,M,M,7000.00,M,M,M,M,KCLT 010252Z 34012KT 10SM FEW070 16/05 A2984 RMK AO2 SLP100 T01610050 51029
CLT,2017-04-01 02:55,-80.9543,35.2225,M,M,M,340.00,10.00,M,29.84,M,10.00,M,CLR,M,M,M,M,M,M,M,M,KCLT 010255Z AUTO 34010KT 10SM CLR A2984 RMK MADISHF
CLT,2017-04-01 03:00,-80.9543,35.2225,M,M,M,340.00,13.00,M,29.84,M,10.00,M,CLR,M,M,M,M,M,M,M,M,KCLT 010300Z AUTO 34013KT 10SM CLR A2984 RMK MADISHF
CLT,2017-04-01 03:05,-80.9543,35.2225,M,M,M,330.00,11.00,M,29.84,M,10.00,M,CLR,M,M,M,M,M,M,M,M,KCLT 010305Z AUTO 33011KT 10SM CLR A2984 RMK MADISHF
CLT,2017-04-01 03:10,-80.9543,35.2225,M,M,M,320.00,10.00,M,29.84,M,10.00,M,CLR,M,M,M,M,M,M,M,M,KCLT 010310Z AUTO 32010KT 10SM CLR A2984 RMK MADISHF
CLT,2017-04-01 03:15,-80.9543,35.2225,M,M,M,330.00,9.00,M,29.84,M,10.00,M,CLR,M,M,M,M,M,M,M,M,KCLT 010315Z AUTO 33009KT 10SM CLR A2984 RMK MADISHF
CLT,2017-04-01 03:20,-80.9543,35.2225,M,M,M,330.00,8.00,M,29.85,M,10.00,M,CLR,M,M,M,M,M,M,M,M,KCLT 010320Z AUTO 33008KT 10SM CLR A2985 RMK MADISHF
CLT,2017-04-01 03:25,-80.9543,35.2225,M,M,M,330.00,8.00,M,29.85,M,10.00,M,CLR,M,M,M,M,M,M,M,M,KCLT 010325Z AUTO 33008KT 10SM CLR A2985 RMK MADISHF
CLT,2017-04-01 03:30,-80.9543,35.2225,M,M,M,330.00,8.00,M,29.85,M,10.00,M,CLR,M,M,M,M,M,M,M,M,KCLT 010330Z AUTO 33008KT 10SM CLR A2985 RMK MADISHF
CLT,2017-04-01 03:35,-80.9543,35.2225,M,M,M,330.00,7.00,M,29.85,M,10.00,M,CLR,M,M,M,M,M,M,M,M,KCLT 010335Z AUTO 33007KT 10SM CLR A2985 RMK MADISHF
CLT,2017-04-01 03:40,-80.9543,35.2225,M,M,M,320.00,9.00,M,29.85,M,10.00,M,CLR,M,M,M,M,M,M,M,M,KCLT 010340Z AUTO 32009KT 10SM CLR A2985 RMK MADISHF
CLT,2017-04-01 03:45,-80.9543,35.2225,M,M,M,320.00,9.00,M,29.85,M,10.00,M,CLR,M,M,M,M,M,M,M,M,KCLT 010345Z AUTO 32009KT 10SM CLR A2985 RMK MADISHF
CLT,2017-04-01 03:50,-80.9543,35.2225,M,M,M,330.00,7.00,M,29.85,M,10.00,M,FEW,M,M,M,7999.00,M,M,M,M,KCLT 010350Z AUTO 33007KT 10SM FEW079 A2985 RMK MADISHF
CLT,2017-04-01 03:52,-80.9543,35.2225,60.10,42.10,51.35,330.00,6.00,0.00,29.85,1010.30,10.00,M,FEW,M,M,M,8000.00,M,M,M,M,KCLT 010352Z 33006KT 10SM FEW080 16/06 A2985 RMK AO2 SLP103 T01560056
CLT,2017-04-01 03:55,-80.9543,35.2225,M,M,M,320.00,6.00,M,29.85,M,10.00,M,CLR,M,M,M,M,M,M,M,M,KCLT 010355Z AUTO 32006KT 10SM CLR A2985 RMK MADISHF
CLT,2017-04-01 04:00,-80.9543,35.2225,M,M,M,310.00,4.00,M,29.86,M,10.00,M,CLR,M,M,M,M,M,M,M,M,KCLT 010400Z AUTO 31004KT 10SM CLR A2986 RMK MADISHF
CLT,2017-04-01 04:05,-80.9543,35.2225,M,M,M,300.00,5.00,M,29.85,M,10.00,M,CLR,M,M,M,M,M,M,M,M,KCLT 010405Z AUTO 30005KT 10SM CLR A2985 RMK MADISHF
CLT,2017-04-01 04:10,-80.9543,35.2225,M,M,M,300.00,8.00,M,29.85,M,10.00,M,CLR,M,M,M,M,M,M,M,M,KCLT 010410Z AUTO 30008KT 10SM CLR A2985 RMK MADISHF
CLT,2017-04-01 04:15,-80.9543,35.2225,M,M,M,310.00,9.00,M,29.85,M,10.00,M,CLR,M,M,M,M,M,M,M,M,KCLT 010415Z AUTO 31009KT 10SM CLR A2985 RMK MADISHF
CLT,2017-04-01 04:20,-80.9543,35.2225,M,M,M,310.00,9.00,M,29.85,M,10.00,M,CLR,M,M,M,M,M,M,M,M,KCLT 010420Z AUTO 31009KT 10SM CLR A2985 RMK MADISHF
CLT,2017-04-01 04:25,-80.9543,35.2225,M,M,M,320.00,5.00,M,29.85,M,10.00,M,CLR,M,M,M,M,M,M,M,M,KCLT 010425Z AUTO 32005KT 10SM CLR A2985 RMK MADISHF
CLT,2017-04-01 04:30,-80.9543,35.2225,M,M,M,0.00,0.00,M,29.85,M,10.00,M,CLR,M,M,M,M,M,M,M,M,KCLT 010430Z AUTO 00000KT 10SM CLR A2985 RMK MADISHF
CLT,2017-04-01 04:35,-80.9543,35.2225,M,M,M,310.00,3.00,M,29.86,M,10.00,M,CLR,M,M,M,M,M,M,M,M,KCLT 010435Z AUTO 31003KT 10SM CLR A2986 RMK MADISHF
CLT,2017-04-01 04:40,-80.9543,35.2225,M,M,M,280.00,3.00,M,29.86,M,10.00,M,CLR,M,M,M,M,M,M,M,M,KCLT 010440Z AUTO 28003KT 10SM CLR A2986 RMK MADISHF
CLT,2017-04-01 04:45,-80.9543,35.2225,M,M,M,300.00,4.00,M,29.86,M,10.00,M,CLR,M,M,M,M,M,M,M,M,KCLT 010445Z AUTO 30004KT 10SM CLR A2986 RMK MADISHF
CLT,2017-04-01 04:50,-80.9543,35.2225,M,M,M,310.00,5.00,M,29.86,M,10.00,M,CLR,M,M,M,M,M,M,M,M,KCLT 010450Z AUTO 31005KT 10SM CLR A2986 RMK MADISHF
CLT,2017-04-01 04:52,-80.9543,35.2225,57.00,42.10,57.38,320.00,4.00,0.00,29.86,1010.50,10.00,M,CLR,M,M,M,M,M,M,M,M,KCLT 010452Z 32004KT 10SM CLR 14/06 A2986 RMK AO2 SLP105 T01390056 402560139
CLT,2017-04-01 04:55,-80.9543,35.2225,M,M,M,310.00,6.00,M,29.86,M,10.00,M,CLR,M,M,M,M,M,M,M,M,KCLT 010455Z AUTO 31006KT 10SM CLR A2986 RMK MADISHF
CLT,2017-04-01 05:00,-80.9543,35.2225,M,M,M,310.00,5.00,M,29.86,M,10.00,M,CLR,M,M,M,M,M,M,M,M,KCLT 010500Z AUTO 31005KT 10SM CLR A2986 RMK MADISHF
CLT,2017-04-01 05:05,-80.9543,35.2225,M,M,M,320.00,5.00,M,29.86,M,10.00,M,CLR,M,M,M,M,M,M,M,M,KCLT 010505Z AUTO 32005KT 10SM CLR A2986 RMK MADISHF
CLT,2017-04-01 05:10,-80.9543,35.2225,M,M,M,320.00,6.00,M,29.86,M,10.00,M,CLR,M,M,M,M,M,M,M,M,KCLT 010510Z AUTO 32006KT 10SM CLR A2986 RMK MADISHF
CLT,2017-04-01 05:15,-80.9543,35.2225,M,M,M,330.00,5.00,M,29.86,M,10.00,M,CLR,M,M,M,M,M,M,M,M,KCLT 010515Z AUTO 33005KT 10SM CLR A2986 RMK MADISHF
CLT,2017-04-01 05:20,-80.9543,35.2225,M,M,M,330.00,5.00,M,29.86,M,10.00,M,CLR,M,M,M,M,M,M,M,M,KCLT 010520Z AUTO 33005KT 10SM CLR A2986 RMK MADISHF
CLT,2017-04-01 05:25,-80.9543,35.2225,M,M,M,330.00,4.00,M,29.87,M,10.00,M,CLR,M,M,M,M,M,M,M,M,KCLT 010525Z AUTO 33004KT 10SM CLR A2987 RMK MADISHF
CLT,2017-04-01 05:30,-80.9543,35.2225,M,M,M,310.00,5.00,M,29.86,M,10.00,M,CLR,M,M,M,M,M,M,M,M,KCLT 010530Z AUTO 31005KT 10SM CLR A2986 RMK MADISHF
CLT,2017-04-01 05:35,-80.9543,35.2225,M,M,M,290.00,6.00,M,29.86,M,10.00,M,CLR,M,M,M,M,M,M,M,M,KCLT 010535Z AUTO 29006KT 10SM CLR A2986 RMK MADISHF
CLT,2017-04-01 05:40,-80.9543,35.2225,M,M,M,290.00,7.00,M,29.86,M,10.00,M,CLR,M,M,M,M,M,M,M,M,KCLT 010540Z AUTO 29007KT 10SM CLR A2986 RMK MADISHF
CLT,2017-04-01 05:45,-80.9543,35.2225,M,M,M,290.00,8.00,M,29.86,M,10.00,M,CLR,M,M,M,M,M,M,M,M,KCLT 010545Z AUTO 29008KT 10SM CLR A2986 RMK MADISHF
CLT,2017-04-01 05:50,-80.9543,35.2225,M,M,M,290.00,7.00,M,29.86,M,10.00,M,CLR,M,M,M,M,M,M,M,M,KCLT 010550Z AUTO 29007KT 10SM CLR A2986 RMK MADISHF
CLT,2017-04-01 05:52,-80.9543,35.2225,57.00,42.10,57.38,290.00,7.00,0.00,29.86,1010.40,10.00,M,CLR,M,M,M,M,M,M,M,M,KCLT 010552Z 29007KT 10SM CLR 14/06 A2986 RMK AO2 SLP104 T01390056 10183 20133 50005
CLT,2017-04-01 05:55,-80.9543,35.2225,M,M,M,290.00,7.00,M,29.86,M,10.00,M,CLR,M,M,M,M,M,M,M,M,KCLT 010555Z AUTO 29007KT 10SM CLR A2986 RMK MADISHF
CLT,2017-04-01 06:00,-80.9543,35.2225,M,M,M,290.00,7.00,M,29.86,M,10.00,M,CLR,M,M,M,M,M,M,M,M,KCLT 010600Z AUTO 29007KT 10SM CLR A2986 RMK MADISHF
CLT,2017-04-01 06:05,-80.9543,35.2225,M,M,M,290.00,7.00,M,29.86,M,10.00,M,CLR,M,M,M,M,M,M,M,M,KCLT 010605Z AUTO 29007KT 10SM CLR A2986 RMK MADISHF
CLT,2017-04-01 06:10,-80.9543,35.2225,M,M,M,300.00,8.00,M,29.86,M,10.00,M,CLR,M,M,M,M,M,M,M,M,KCLT 010610Z AUTO 30008KT 10SM CLR A2986 RMK MADISHF
CLT,2017-04-01 06:15,-80.9543,35.2225,M,M,M,300.00,7.00,M,29.86,M,10.00,M,CLR,M,M,M,M,M,M,M,M,KCLT 010615Z AUTO 30007KT 10SM CLR A2986 RMK MADISHF
CLT,2017-04-01 06:20,-80.9543,35.2225,M,M,M,300.00,9.00,M,29.86,M,10.00,M,CLR,M,M,M,M,M,M,M,M,KCLT 010620Z AUTO 30009KT 10SM CLR A2986 RMK MADISHF
CLT,2017-04-01 06:25,-80.9543,35.2225,M,M,M,290.00,7.00,M,29.86,M,10.00,M,CLR,M,M,M,M,M,M,M,M,KCLT 010625Z AUTO 29007KT 10SM CLR A2986 RMK MADISHF
CLT,2017-04-01 06:30,-80.9543,35.2225,M,M,M,280.00,9.00,M,29.86,M,10.00,M,CLR,M,M,M,M,M,M,M,M,KCLT 010630Z AUTO 28009KT 10SM CLR A2986 RMK MADISHF
CLT,2017-04-01 06:35,-80.9543,35.2225,M,M,M,270.00,8.00,M,29.86,M,10.00,M,CLR,M,M,M,M,M,M,M,M,KCLT 010635Z AUTO 27008KT 10SM CLR A2986 RMK MADISHF
CLT,2017-04-01 06:40,-80.9543,35.2225,M,M,M,290.00,7.00,M,29.86,M,10.00,M,CLR,M,M,M,M,M,M,M,M,KCLT 010640Z AUTO 29007KT 10SM CLR A2986 RMK MADISHF
CLT,2017-04-01 06:45,-80.9543,35.2225,M,M,M,290.00,8.00,M,29.87,M,10.00,M,CLR,M,M,M,M,M,M,M,M,KCLT 010645Z AUTO 29008KT 10SM CLR A2987 RMK MADISHF
CLT,2017-04-01 06:50,-80.9543,35.2225,M,M,M,300.00,6.00,M,29.87,M,10.00,M,CLR,M,M,M,M,M,M,M,M,KCLT 010650Z AUTO 30006KT 10SM CLR A2987 RMK MADISHF
CLT,2017-04-01 06:52,-80.9543,35.2225,55.90,42.10,59.71,300.00,6.00,0.00,29.87,1010.90,10.00,M,CLR,M,M,M,M,M,M,M,M,KCLT 010652Z 30006KT 10SM CLR 13/06 A2987 RMK AO2 SLP109 T01330056
CLT,2017-04-01 06:55,-80.9543,35.2225,M,M,M,290.00,5.00,M,29.87,M,10.00,M,CLR,M,M,M,M,M,M,M,M,KCLT 010655Z AUTO 29005KT 10SM CLR A2987 RMK MADISHF
CLT,2017-04-01 07:00,-80.9543,35.2225,M,M,M,270.00,5.00,M,29.87,M,10.00,M,CLR,M,M,M,M,M,M,M,M,KCLT 010700Z AUTO 27005KT 10SM CLR A2987 RMK MADISHF
CLT,2017-04-01 07:05,-80.9543,35.2225,M,M,M,260.00,4.00,M,29.87,M,10.00,M,CLR,M,M,M,M,M,M,M,M,KCLT 010705Z AUTO 26004KT 10SM CLR A2987 RMK MADISHF
CLT,2017-04-01 07:10,-80.9543,35.2225,M,M,M,250.00,5.00,M,29.87,M,10.00,M,CLR,M,M,M,M,M,M,M,M,KCLT 010710Z AUTO 25005KT 10SM CLR A2987 RMK MADISHF
CLT,2017-04-01 07:15,-80.9543,35.2225,M,M,M,250.00,5.00,M,29.87,M,10.00,M,CLR,M,M,M,M,M,M,M,M,KCLT 010715Z AUTO 25005KT 10SM CLR A2987 RMK MADISHF
CLT,2017-04-01 07:20,-80.9543,35.2225,M,M,M,270.00,4.00,M,29.87,M,10.00,M,CLR,M,M,M,M,M,M,M,M,KCLT 010720Z AUTO 27004KT 10SM CLR A2987 RMK MADISHF
CLT,2017-04-01 07:25,-80.9543,35.2225,M,M,M,250.00,3.00,M,29.87,M,10.00,M,CLR,M,M,M,M,M,M,M,M,KCLT 010725Z AUTO 25003KT 10SM CLR A2987 RMK MADISHF
CLT,2017-04-01 07:30,-80.9543,35.2225,M,M,M,260.00,4.00,M,29.87,M,10.00,M,CLR,M,M,M,M,M,M,M,M,KCLT 010730Z AUTO 26004KT 10SM CLR A2987 RMK MADISHF
CLT,2017-04-01 07:35,-80.9543,35.2225,M,M,M,280.00,5.00,M,29.87,M,10.00,M,CLR,M,M,M,M,M,M,M,M,KCLT 010735Z AUTO 28005KT 10SM CLR A2987 RMK MADISHF
CLT,2017-04-01 07:40,-80.9543,35.2225,M,M,M,290.00,6.00,M,29.87,M,10.00,M,CLR,M,M,M,M,M,M,M,M,KCLT 010740Z AUTO 29006KT 10SM CLR A2987 RMK MADISHF
CLT,2017-04-01 07:45,-80.9543,35.2225,M,M,M,290.00,7.00,M,29.87,M,10.00,M,CLR,M,M,M,M,M,M,M,M,KCLT 010745Z AUTO 29007KT 10SM CLR A2987 RMK MADISHF
CLT,2017-04-01 07:50,-80.9543,35.2225,M,M,M,290.00,7.00,M,29.87,M,10.00,M,CLR,M,M,M,M,M,M,M,M,KCLT 010750Z AUTO 29007KT 10SM CLR A2987 RMK MADISHF
CLT,2017-04-01 07:52,-80.9543,35.2225,55.00,42.10,61.69,300.00,6.00,0.00,29.87,1011.00,10.00,M,CLR,M,M,M,M,M,M,M,M,KCLT 010752Z 30006KT 10SM CLR 13/06 A2987 RMK AO2 SLP110 T01280056
CLT,2017-04-01 07:55,-80.9543,35.2225,M,M,M,300.00,6.00,M,29.87,M,10.00,M,CLR,M,M,M,M,M,M,M,M,KCLT 010755Z AUTO 30006KT 10SM CLR A2987 RMK MADISHF
CLT,2017-04-01 08:00,-80.9543,35.2225,M,M,M,310.00,5.00,M,29.88,M,10.00,M,CLR,M,M,M,M,M,M,M,M,KCLT 010800Z AUTO 31005KT 10SM CLR A2988 RMK MADISHF
CLT,2017-04-01 08:05,-80.9543,35.2225,M,M,M,310.00,5.00,M,29.88,M,10.00,M,CLR,M,M,M,M,M,M,M,M,KCLT 010805Z AUTO 31005KT 10SM CLR A2988 RMK MADISHF
CLT,2017-04-01 08:10,-80.9543,35.2225,M,M,M,310.00,6.00,M,29.88,M,10.00,M,CLR,M,M,M,M,M,M,M,M,KCLT 010810Z AUTO 31006KT 10SM CLR A2988 RMK MADISHF
CLT,2017-04-01 08:15,-80.9543,35.2225,M,M,M,310.00,6.00,M,29.88,M,10.00,M,CLR,M,M,M,M,M,M,M,M,KCLT 010815Z AUTO 31006KT 10SM CLR A2988 RMK MADISHF
CLT,2017-04-01 08:20,-80.9543,35.2225,M,M,M,310.00,6.00,M,29.88,M,10.00,M,CLR,M,M,M,M,M,M,M,M,KCLT 010820Z AUTO 31006KT 10SM CLR A2988 RMK MADISHF
CLT,2017-04-01 08:25,-80.9543,35.2225,M,M,M,310.00,6.00,M,29.89,M,10.00,M,CLR,M,M,M,M,M,M,M,M,KCLT 010825Z AUTO 31006KT 10SM CLR A2989 RMK MADISHF
CLT,2017-04-01 08:30,-80.9543,35.2225,M,M,M,310.00,6.00,M,29.89,M,10.00,M,CLR,M,M,M,M,M,M,M,M,KCLT 010830Z AUTO 31006KT 10SM CLR A2989 RMK MADISHF
CLT,2017-04-01 08:35,-80.9543,35.2225,M,M,M,300.00,7.00,M,29.89,M,10.00,M,CLR,M,M,M,M,M,M,M,M,KCLT 010835Z AUTO 30007KT 10SM CLR A2989 RMK MADISHF
CLT,2017-04-01 08:40,-80.9543,35.2225,M,M,M,310.00,6.00,M,29.89,M,10.00,M,CLR,M,M,M,M,M,M,M,M,KCLT 010840Z AUTO 31006KT 10SM CLR A2989 RMK MADISHF
CLT,2017-04-01 08:45,-80.9543,35.2225,M,M,M,300.00,6.00,M,29.89,M,10.00,M,CLR,M,M,M,M,M,M,M,M,KCLT 010845Z AUTO 30006KT 10SM CLR A2989 RMK MADISHF
CLT,2017-04-01 08:50,-80.9543,35.2225,M,M,M,310.00,5.00,M,29.89,M,10.00,M,CLR,M,M,M,M,M,M,M,M,KCLT 010850Z AUTO 31005KT 10SM CLR A2989 RMK MADISHF
CLT,2017-04-01 08:52,-80.9543,35.2225,54.00,42.10,63.98,310.00,6.00,0.00,29.89,1011.40,10.00,M,CLR,M,M,M,M,M,M,M,M,KCLT 010852Z 31006KT 10SM CLR 12/06 A2989 RMK AO2 SLP114 T01220056 52010
CLT,2017-04-01 08:55,-80.9543,35.2225,M,M,M,320.00,5.00,M,29.89,M,10.00,M,CLR,M,M,M,M,M,M,M,M,KCLT 010855Z AUTO 32005KT 10SM CLR A2989 RMK MADISHF
CLT,2017-04-01 09:00,-80.9543,35.2225,M,M,M,310.00,6.00,M,29.89,M,10.00,M,CLR,M,M,M,M,M,M,M,M,KCLT 010900Z AUTO 31006KT 10SM CLR A2989 RMK MADISHF
CLT,2017-04-01 09:05,-80.9543,35.2225,M,M,M,310.00,6.00,M,29.89,M,10.00,M,CLR,M,M,M,M,M,M,M,M,KCLT 010905Z AUTO 31006KT 10SM CLR A2989 RMK MADISHF
CLT,2017-04-01 09:10,-80.9543,35.2225,M,M,M,310.00,5.00,M,29.89,M,10.00,M,CLR,M,M,M,M,M,M,M,M,KCLT 010910Z AUTO 31005KT 10SM CLR A2989 RMK MADISHF
CLT,2017-04-01 09:15,-80.9543,35.2225,M,M,M,340.00,3.00,M,29.89,M,10.00,M,CLR,M,M,M,M,M,M,M,M,KCLT 010915Z AUTO 34003KT 10SM CLR A2989 RMK MADISHF
CLT,2017-04-01 09:20,-80.9543,35.2225,M,M,M,320.00,3.00,M,29.90,M,10.00,M,CLR,M,M,M,M,M,M,M,M,KCLT 010920Z AUTO 32003KT 10SM CLR A2990 RMK MADISHF
CLT,2017-04-01 09:25,-80.9543,35.2225,M,M,M,320.00,3.00,M,29.90,M,10.00,M,CLR,M,M,M,M,M,M,M,M,KCLT 010925Z AUTO 32003KT 10SM CLR A2990 RMK MADISHF
CLT,2017-04-01 09:30,-80.9543,35.2225,M,M,M,290.00,3.00,M,29.90,M,10.00,M,CLR,M,M,M,M,M,M,M,M,KCLT 010930Z AUTO 29003KT 10SM CLR A2990 RMK MADISHF
CLT,2017-04-01 09:35,-80.9543,35.2225,M,M,M,300.00,4.00,M,29.90,M,10.00,M,CLR,M,M,M,M,M,M,M,M,KCLT 010935Z AUTO 30004KT 10SM CLR A2990 RMK MADISHF
CLT,2017-04-01 09:40,-80.9543,35.2225,M,M,M,290.00,4.00,M,29.90,M,10.00,M,CLR,M,M,M,M,M,M,M,M,KCLT 010940Z AUTO 29004KT 10SM CLR A2990 RMK MADISHF
CLT,2017-04-01 09:45,-80.9543,35.2225,M,M,M,280.00,6.00,M,29.90,M,10.00,M,CLR,M,M,M,M,M,M,M,M,KCLT 010945Z AUTO 28006KT 10SM CLR A2990 RMK MADISHF
CLT,2017-04-01 09:50,-80.9543,35.2225,M,M,M,280.00,6.00,M,29.90,M,10.00,M,CLR,M,M,M,M,M,M,M,M,KCLT 010950Z AUTO 28006KT 10SM CLR A2990 RMK MADISHF
CLT,2017-04-01 09:52,-80.9543,35.2225,51.10,42.10,71.19,280.00,6.00,0.00,29.90,1012.10,10.00,M,CLR,M,M,M,M,M,M,M,M,KCLT 010952Z 28006KT 10SM CLR 11/06 A2990 RMK AO2 SLP121 T01060056
CLT,2017-04-01 09:55,-80.9543,35.2225,M,M,M,280.00,5.00,M,29.90,M,10.00,M,CLR,M,M,M,M,M,M,M,M,KCLT 010955Z AUTO 28005KT 10SM CLR A2990 RMK MADISHF
CLT,2017-04-01 10:00,-80.9543,35.2225,M,M,M,280.00,4.00,M,29.90,M,10.00,M,CLR,M,M,M,M,M,M,M,M,KCLT 011000Z AUTO 28004KT 10SM CLR A2990 RMK MADISHF
CLT,2017-04-01 10:05,-80.9543,35.2225,M,M,M,280.00,6.00,M,29.90,M,10.00,M,CLR,M,M,M,M,M,M,M,M,KCLT 011005Z AUTO 28006KT 10SM CLR A2990 RMK MADISHF
CLT,2017-04-01 10:10,-80.9543,35.2225,M,M,M,280.00,6.00,M,29.91,M,10.00,M,CLR,M,M,M,M,M,M,M,M,KCLT 011010Z AUTO 28006KT 10SM CLR A2991 RMK MADISHF
CLT,2017-04-01 10:15,-80.9543,35.2225,M,M,M,300.00,5.00,M,29.91,M,10.00,M,CLR,M,M,M,M,M,M,M,M,KCLT 011015Z AUTO 30005KT 10SM CLR A2991 RMK MADISHF
CLT,2017-04-01 10:20,-80.9543,35.2225,M,M,M,290.00,6.00,M,29.91,M,10.00,M,CLR,M,M,M,M,M,M,M,M,KCLT 011020Z AUTO 29006KT 10SM CLR A2991 RMK MADISHF
CLT,2017-04-01 10:25,-80.9543,35.2225,M,M,M,290.00,6.00,M,29.91,M,10.00,M,CLR,M,M,M,M,M,M,M,M,KCLT 011025Z AUTO 29006KT 10SM CLR A2991 RMK MADISHF
CLT,2017-04-01 10:30,-80.9543,35.2225,M,M,M,280.00,5.00,M,29.91,M,10.00,M,CLR,M,M,M,M,M,M,M,M,KCLT 011030Z AUTO 28005KT 10SM CLR A2991 RMK MADISHF
CLT,2017-04-01 10:35,-80.9543,35.2225,M,M,M,280.00,5.00,M,29.92,M,10.00,M,CLR,M,M,M,M,M,M,M,M,KCLT 011035Z AUTO 28005KT 10SM CLR A2992 RMK MADISHF
CLT,2017-04-01 10:40,-80.9543,35.2225,M,M,M,290.00,3.00,M,29.92,M,10.00,M,CLR,M,M,M,M,M,M,M,M,KCLT 011040Z AUTO 29003KT 10SM CLR A2992 RMK MADISHF
CLT,2017-04-01 10:45,-80.9543,35.2225,M,M,M,290.00,4.00,M,29.92,M,10.00,M,CLR,M,M,M,M,M,M,M,M,KCLT 011045Z AUTO 29004KT 10SM CLR A2992 RMK MADISHF
CLT,2017-04-01 10:50,-80.9543,35.2225,M,M,M,280.00,5.00,M,29.92,M,10.00,M,FEW,M,M,M,10000.00,M,M,M,M,KCLT 011050Z AUTO 28005KT 10SM FEW100 A2992 RMK MADISHF
CLT,2017-04-01 10:52,-80.9543,35.2225,51.10,43.00,73.69,280.00,6.00,0.00,29.92,1012.60,10.00,M,FEW,M,M,M,10000.00,M,M,M,M,KCLT 011052Z 28006KT 10SM FEW100 11/06 A2992 RMK AO2 SLP126 T01060061
CLT,2017-04-01 10:55,-80.9543,35.2225,M,M,M,280.00,7.00,M,29.92,M,10.00,M,CLR,M,M,M,M,M,M,M,M,KCLT 011055Z AUTO 28007KT 10SM CLR A2992 RMK MADISHF
CLT,2017-04-01 11:00,-80.9543,35.2225,M,M,M,290.00,6.00,M,29.92,M,10.00,M,CLR,M,M,M,M,M,M,M,M,KCLT 011100Z AUTO 29006KT 10SM CLR A2992 RMK MADISHF
CLT,2017-04-01 11:05,-80.9543,35.2225,M,M,M,290.00,5.00,M,29.92,M,10.00,M,CLR,M,M,M,M,M,M,M,M,KCLT 011105Z AUTO 29005KT 10SM CLR A2992 RMK MADISHF
CLT,2017-04-01 11:10,-80.9543,35.2225,M,M,M,290.00,7.00,M,29.92,M,10.00,M,CLR,M,M,M,M,M,M,M,M,KCLT 011110Z AUTO 29007KT 10SM CLR A2992 RMK MADISHF
CLT,2017-04-01 11:15,-80.9543,35.2225,M,M,M,290.00,8.00,M,29.93,M,10.00,M,CLR,M,M,M,M,M,M,M,M,KCLT 011115Z AUTO 29008KT 10SM CLR A2993 RMK MADISHF
CLT,2017-04-01 11:20,-80.9543,35.2225,M,M,M,310.00,6.00,M,29.93,M,10.00,M,CLR,M,M,M,M,M,M,M,M,KCLT 011120Z AUTO 31006KT 10SM CLR A2993 RMK MADISHF
CLT,2017-04-01 11:25,-80.9543,35.2225,M,M,M,360.00,5.00,M,29.94,M,10.00,M,CLR,M,M,M,M,M,M,M,M,KCLT 011125Z AUTO 36005KT 10SM CLR A2994 RMK MADISHF
CLT,2017-04-01 11:30,-80.9543,35.2225,M,M,M,10.00,5.00,M,29.94,M,10.00,M,CLR,M,M,M,M,M,M,M,M,KCLT 011130Z AUTO 01005KT 10SM CLR A2994 RMK MADISHF
CLT,2017-04-01 11:35,-80.9543,35.2225,M,M,M,350.00,5.00,M,29.94,M,10.00,M,CLR,M,M,M,M,M,M,M,M,KCLT 011135Z AUTO 35005KT 10SM CLR A2994 RMK MADISHF
CLT,2017-04-01 11:40,-80.9543,35.2225,M,M,M,320.00,6.00,M,29.94,M,10.00,M,CLR,M,M,M,M,M,M,M,M,KCLT 011140Z AUTO 32006KT 10SM CLR A2994 RMK MADISHF
CLT,2017-04-01 11:45,-80.9543,35.2225,M,M,M,320.00,8.00,M,29.94,M,10.00,M,CLR,M,M,M,M,M,M,M,M,KCLT 011145Z AUTO 32008KT 10SM CLR A2994 RMK MADISHF
CLT,2017-04-01 11:50,-80.9543,35.2225,M,M,M,320.00,7.00,M,29.94,M,10.00,M,CLR,M,M,M,M,M,M,M,M,KCLT 011150Z AUTO 32007KT 10SM CLR A2994 RMK MADISHF
CLT,2017-04-01 11:52,-80.9543,35.2225,55.90,43.00,61.81,330.00,7.00,0.00,29.95,1013.60,10.00,M,FEW,M,M,M,10000.00,M,M,M,M,KCLT 011152Z 33007KT 10SM FEW100 13/06 A2995 RMK AO2 SLP136 T01330061 10144 20100 53020
CLT,2017-04-01 11:55,-80.9543,35.2225,M,M,M,330.00,8.00,M,29.95,M,10.00,M,CLR,M,M,M,M,M,M,M,M,KCLT 011155Z AUTO 33008KT 10SM CLR A2995 RMK MADISHF
CLT,2017-04-01 12:00,-80.9543,35.2225,M,M,M,330.00,10.00,M,29.95,M,10.00,M,CLR,M,M,M,M,M,M,M,M,KCLT 011200Z AUTO 33010KT 10SM CLR A2995 RMK MADISHF
CLT,2017-04-01 12:05,-80.9543,35.2225,M,M,M,330.00,10.00,M,29.95,M,10.00,M,CLR,M,M,M,M,M,M,M,M,KCLT 011205Z AUTO 33010KT 10SM CLR A2995 RMK MADISHF
CLT,2017-04-01 12:10,-80.9543,35.2225,M,M,M,330.00,9.00,M,29.95,M,10.00,M,CLR,M,M,M,M,M,M,M,M,KCLT 011210Z AUTO 33009KT 10SM CLR A2995 RMK MADISHF
CLT,2017-04-01 12:15,-80.9543,35.2225,M,M,M,330.00,9.00,M,29.95,M,10.00,14.00,CLR,M,M,M,M,M,M,M,M,KCLT 011215Z AUTO 33009G14KT 10SM CLR A2995 RMK MADISHF
CLT,2017-04-01 12:20,-80.9543,35.2225,M,M,M,340.00,10.00,M,29.96,M,10.00,M,CLR,M,M,M,M,M,M,M,M,KCLT 011220Z AUTO 34010KT 10SM CLR A2996 RMK MADISHF
CLT,2017-04-01 12:25,-80.9543,35.2225,M,M,M,350.00,10.00,M,29.96,M,10.00,M,CLR,M,M,M,M,M,M,M,M,KCLT 011225Z AUTO 35010KT 10SM CLR A2996 RMK MADISHF
CLT,2017-04-01 12:30,-80.9543,35.2225,M,M,M,340.00,10.00,M,29.96,M,10.00,M,CLR,M,M,M,M,M,M,M,M,KCLT 011230Z AUTO 34010KT 10SM CLR A2996 RMK MADISHF
CLT,2017-04-01 12:35,-80.9543,35.2225,M,M,M,330.00,8.00,M,29.96,M,10.00,M,CLR,M,M,M,M,M,M,M,M,KCLT 011235Z AUTO 33008KT 10SM CLR A2996 RMK MADISHF
CLT,2017-04-01 12:40,-80.9543,35.2225,M,M,M,340.00,8.00,M,29.96,M,10.00,M,CLR,M,M,M,M,M,M,M,M,KCLT 011240Z AUTO 34008KT 10SM CLR A2996 RMK MADISHF
CLT,2017-04-01 12:45,-80.9543,35.2225,M,M,M,360.00,10.00,M,29.97,M,10.00,M,CLR,M,M,M,M,M,M,M,M,KCLT 011245Z AUTO 36010KT 10SM CLR A2997 RMK MADISHF
CLT,2017-04-01 12:50,-80.9543,35.2225,M,M,M,350.00,8.00,M,29.97,M,10.00,M,CLR,M,M,M,M,M,M,M,M,KCLT 011250Z AUTO 35008KT 10SM CLR A2997 RMK MADISHF
CLT,2017-04-01 12:52,-80.9543,35.2225,60.10,44.10,55.44,340.00,11.00,0.00,29.97,1014.30,10.00,M,CLR,M,M,M,M,M,M,M,M,KCLT 011252Z 34011KT 10SM CLR 16/07 A2997 RMK AO2 SLP143 T01560067
CLT,2017-04-01 12:55,-80.9543,35.2225,M,M,M,340.00,8.00,M,29.97,M,10.00,M,CLR,M,M,M,M,M,M,M,M,KCLT 011255Z AUTO 34008KT 10SM CLR A2997 RMK MADISHF
CLT,2017-04-01 13:00,-80.9543,35.2225,M,M,M,330.00,10.00,M,29.97,M,10.00,15.00,CLR,M,M,M,M,M,M,M,M,KCLT 011300Z AUTO 33010G15KT 10SM CLR A2997 RMK MADISHF
CLT,2017-04-01 13:05,-80.9543,35.2225,M,M,M,340.00,10.00,M,29.97,M,10.00,M,CLR,M,M,M,M,M,M,M,M,KCLT 011305Z AUTO 34010KT 10SM CLR A2997 RMK MADISHF
CLT,2017-04-01 13:10,-80.9543,35.2225,M,M,M,330.00,8.00,M,29.97,M,10.00,M,CLR,M,M,M,M,M,M,M,M,KCLT 011310Z AUTO 33008KT 10SM CLR A2997 RMK MADISHF
CLT,2017-04-01 13:15,-80.9543,35.2225,M,M,M,320.00,9.00,M,29.97,M,10.00,M,CLR,M,M,M,M,M,M,M,M,KCLT 011315Z AUTO 32009KT 10SM CLR A2997 RMK MADISHF
CLT,2017-04-01 13:20,-80.9543,35.2225,M,M,M,340.00,12.00,M,29.96,M,10.00,M,CLR,M,M,M,M,M,M,M,M,KCLT 011320Z AUTO 34012KT 10SM CLR A2996 RMK MADISHF
CLT,2017-04-01 13:25,-80.9543,35.2225,M,M,M,330.00,12.00,M,29.97,M,10.00,M,CLR,M,M,M,M,M,M,M,M,KCLT 011325Z AUTO 33012KT 10SM CLR A2997 RMK MADISHF
CLT,2017-04-01 13:30,-80.9543,35.2225,M,M,M,320.00,10.00,M,29.97,M,10.00,M,CLR,M,M,M,M,M,M,M,M,KCLT 011330Z AUTO 32010KT 10SM CLR A2997 RMK MADISHF
CLT,2017-04-01 13:35,-80.9543,35.2225,M,M,M,320.00,11.00,M,29.97,M,10.00,M,CLR,M,M,M,M,M,M,M,M,KCLT 011335Z AUTO 32011KT 10SM CLR A2997 RMK MADISHF
CLT,2017-04-01 13:40,-80.9543,35.2225,M,M,M,320.00,11.00,M,29.97,M,10.00,M,CLR,M,M,M,M,M,M,M,M,KCLT 011340Z AUTO 32011KT 10SM CLR A2997 RMK MADISHF
CLT,2017-04-01 13:45,-80.9543,35.2225,M,M,M,340.00,12.00,M,29.98,M,10.00,M,CLR,M,M,M,M,M,M,M,M,KCLT 011345Z AUTO 34012KT 10SM CLR A2998 RMK MADISHF
CLT,2017-04-01 13:50,-80.9543,35.2225,M,M,M,340.00,12.00,M,29.98,M,10.00,M,CLR,M,M,M,M,M,M,M,M,KCLT 011350Z AUTO 34012KT 10SM CLR A2998 RMK MADISHF
CLT,2017-04-01 13:52,-80.9543,35.2225,63.00,43.00,47.97,340.00,12.00,0.00,29.98,1014.60,10.00,M,CLR,M,M,M,M,M,M,M,M,KCLT 011352Z 34012KT 10SM CLR 17/06 A2998 RMK AO2 SLP146 T01720061
CLT,2017-04-01 13:55,-80.9543,35.2225,M,M,M,350.00,12.00,M,29.98,M,10.00,M,CLR,M,M,M,M,M,M,M,M,KCLT 011355Z AUTO 35012KT 10SM CLR A2998 RMK MADISHF
CLT,2017-04-01 14:00,-80.9543,35.2225,M,M,M,320.00,13.00,M,29.97,M,10.00,M,CLR,M,M,M,M,M,M,M,M,KCLT 011400Z AUTO 32013KT 10SM CLR A2997 RMK MADISHF
CLT,2017-04-01 14:05,-80.9543,35.2225,M,M,M,330.00,13.00,M,29.98,M,10.00,M,CLR,M,M,M,M,M,M,M,M,KCLT 011405Z AUTO 33013KT 10SM CLR A2998 RMK MADISHF
CLT,2017-04-01 14:10,-80.9543,35.2225,M,M,M,340.00,9.00,M,29.98,M,10.00,15.00,CLR,M,M,M,M,M,M,M,M,KCLT 011410Z AUTO 34009G15KT 10SM CLR A2998 RMK MADISHF
CLT,2017-04-01 14:15,-80.9543,35.2225,M,M,M,350.00,10.00,M,29.98,M,10.00,M,CLR,M,M,M,M,M,M,M,M,KCLT 011415Z AUTO 35010KT 10SM CLR A2998 RMK MADISHF
CLT,2017-04-01 14:20,-80.9543,35.2225,M,M,M,360.00,13.00,M,29.99,M,10.00,M,CLR,M,M,M,M,M,M,M,M,KCLT 011420Z AUTO 36013KT 10SM CLR A2999 RMK MADISHF
CLT,2017-04-01 14:25,-80.9543,35.2225,M,M,M,340.00,9.00,M,29.99,M,10.00,M,CLR,M,M,M,M,M,M,M,M,KCLT 011425Z AUTO 34009KT 10SM CLR A2999 RMK MADISHF
CLT,2017-04-01 14:30,-80.9543,35.2225,M,M,M,350.00,9.00,M,29.99,M,10.00,M,CLR,M,M,M,M,M,M,M,M,KCLT 011430Z AUTO 35009KT 10SM CLR A2999 RMK MADISHF
CLT,2017-04-01 14:35,-80.9543,35.2225,M,M,M,310.00,9.00,M,29.99,M,10.00,14.00,CLR,M,M,M,M,M,M,M,M,KCLT 011435Z AUTO 31009G14KT 10SM CLR A2999 RMK MADISHF
CLT,2017-04-01 14:40,-80.9543,35.2225,M,M,M,340.00,11.00,M,30.00,M,10.00,M,CLR,M,M,M,M,M,M,M,M,KCLT 011440Z AUTO 34011KT 10SM CLR A3000 RMK MADISHF
CLT,2017-04-01 14:45,-80.9543,35.2225,M,M,M,350.00,9.00,M,30.00,M,10.00,M,CLR,M,M,M,M,M,M,M,M,KCLT 011445Z AUTO 35009KT 10SM CLR A3000 RMK MADISHF
CLT,2017-04-01 14:50,-80.9543,35.2225,M,M,M,340.00,9.00,M,30.00,M,10.00,M,CLR,M,M,M,M,M,M,M,M,KCLT 011450Z AUTO 34009KT 10SM CLR A3000 RMK MADISHF
CLT,2017-04-01 14:52,-80.9543,35.2225,66.00,44.10,45.05,330.00,7.00,0.00,30.00,1015.40,10.00,15.00,CLR,M,M,M,M,M,M,M,M,KCLT 011452Z 33007G15KT 10SM CLR 19/07 A3000 RMK AO2 SLP154 T01890067 53018
CLT,2017-04-01 14:55,-80.9543,35.2225,M,M,M,310.00,9.00,M,30.00,M,10.00,M,CLR,M,M,M,M,M,M,M,M,KCLT 011455Z AUTO 31009KT 10SM CLR A3000 RMK MADISHF
CLT,2017-04-01 15:00,-80.9543,35.2225,M,M,M,320.00,11.00,M,30.00,M,10.00,M,CLR,M,M,M,M,M,M,M,M,KCLT 011500Z AUTO 32011KT 10SM CLR A3000 RMK MADISHF
CLT,2017-04-01 15:05,-80.9543,35.2225,M,M,M,310.00,8.00,M,30.00,M,10.00,M,CLR,M,M,M,M,M,M,M,M,KCLT 011505Z AUTO 31008KT 10SM CLR A3000 RMK MADISHF
CLT,2017-04-01 15:10,-80.9543,35.2225,M,M,M,310.00,10.00,M,30.00,M,10.00,M,CLR,M,M,M,M,M,M,M,M,KCLT 011510Z AUTO 31010KT 10SM CLR A3000 RMK MADISHF
CLT,2017-04-01 15:15,-80.9543,35.2225,M,M,M,310.00,7.00,M,30.00,M,10.00,M,CLR,M,M,M,M,M,M,M,M,KCLT 011515Z AUTO 31007KT 10SM CLR A3000 RMK MADISHF
CLT,2017-04-01 15:20,-80.9543,35.2225,M,M,M,310.00,10.00,M,30.00,M,10.00,M,CLR,M,M,M,M,M,M,M,M,KCLT 011520Z AUTO 31010KT 10SM CLR A3000 RMK MADISHF
CLT,2017-04-01 15:25,-80.9543,35.2225,M,M,M,310.00,8.00,M,30.00,M,10.00,M,CLR,M,M,M,M,M,M,M,M,KCLT 011525Z AUTO 31008KT 10SM CLR A3000 RMK MADISHF
CLT,2017-04-01 15:30,-80.9543,35.2225,M,M,M,320.00,9.00,M,30.00,M,10.00,M,CLR,M,M,M,M,M,M,M,M,KCLT 011530Z AUTO 32009KT 10SM CLR A3000 RMK MADISHF
CLT,2017-04-01 15:35,-80.9543,35.2225,M,M,M,310.00,8.00,M,30.01,M,10.00,M,CLR,M,M,M,M,M,M,M,M,KCLT 011535Z AUTO 31008KT 10SM CLR A3001 RMK MADISHF
CLT,2017-04-01 15:40,-80.9543,35.2225,M,M,M,340.00,10.00,M,30.00,M,10.00,M,CLR,M,M,M,M,M,M,M,M,KCLT 011540Z AUTO 34010KT 10SM CLR A3000 RMK MADISHF
CLT,2017-04-01 15:45,-80.9543,35.2225,M,M,M,290.00,10.00,M,30.00,M,10.00,M,CLR,M,M,M,M,M,M,M,M,KCLT 011545Z AUTO 29010KT 10SM CLR A3000 RMK MADISHF
CLT,2017-04-01 15:50,-80.9543,35.2225,M,M,M,290.00,11.00,M,30.00,M,10.00,M,CLR,M,M,M,M,M,M,M,M,KCLT 011550Z AUTO 29011KT 10SM CLR A3000 RMK MADISHF
CLT,2017-04-01 15:52,-80.9543,35.2225,68.00,43.00,40.31,290.00,13.00,0.00,30.00,1015.50,10.00,18.00,CLR,M,M,M,M,M,M,M,M,KCLT 011552Z 29013G18KT 10SM CLR 20/06 A3000 RMK AO2 SLP155 T02000061
CLT,2017-04-01 15:55,-80.9543,35.2225,M,M,M,320.00,8.00,M,30.00,M,10.00,M,CLR,M,M,M,M,M,M,M,M,KCLT 011555Z AUTO 32008KT 10SM CLR A3000 RMK WND 29V35  MADISHF
CLT,2017-04-01 16:00,-80.9543,35.2225,M,M,M,300.00,10.00,M,30.00,M,10.00,M,CLR,M,M,M,M,M,M,M,M,KCLT 011600Z AUTO 30010KT 10SM CLR A3000 RMK MADISHF
CLT,2017-04-01 16:05,-80.9543,35.2225,M,M,M,300.00,10.00,M,30.00,M,10.00,17.00,CLR,M,M,M,M,M,M,M,M,KCLT 011605Z AUTO 30010G17KT 10SM CLR A3000 RMK MADISHF
CLT,2017-04-01 16:10,-80.9543,35.2225,M,M,M,330.00,6.00,M,30.00,M,10.00,M,CLR,M,M,M,M,M,M,M,M,KCLT 011610Z AUTO 33006KT 10SM CLR A3000 RMK MADISHF
CLT,2017-04-01 16:15,-80.9543,35.2225,M,M,M,300.00,9.00,M,30.00,M,10.00,M,CLR,M,M,M,M,M,M,M,M,KCLT 011615Z AUTO 30009KT 10SM CLR A3000 RMK MADISHF
CLT,2017-04-01 16:20,-80.9543,35.2225,M,M,M,300.00,6.00,M,30.00,M,10.00,M,CLR,M,M,M,M,M,M,M,M,KCLT 011620Z AUTO 30006KT 10SM CLR A3000 RMK VRB06KT  MADISHF
CLT,2017-04-01 16:25,-80.9543,35.2225,M,M,M,340.00,8.00,M,30.00,M,10.00,M,CLR,M,M,M,M,M,M,M,M,KCLT 011625Z AUTO 34008KT 10SM CLR A3000 RMK MADISHF
CLT,2017-04-01 16:30,-80.9543,35.2225,M,M,M,280.00,10.00,M,30.00,M,10.00,M,CLR,M,M,M,M,M,M,M,M,KCLT 011630Z AUTO 28010KT 10SM CLR A3000 RMK MADISHF
CLT,2017-04-01 16:35,-80.9543,35.2225,M,M,M,290.00,8.00,M,30.00,M,10.00,M,CLR,M,M,M,M,M,M,M,M,KCLT 011635Z AUTO 29008KT 10SM CLR A3000 RMK MADISHF
CLT,2017-04-01 16:40,-80.9543,35.2225,M,M,M,330.00,7.00,M,30.00,M,10.00,M,CLR,M,M,M,M,M,M,M,M,KCLT 011640Z AUTO 33007KT 10SM CLR A3000 RMK MADISHF
CLT,2017-04-01 16:45,-80.9543,35.2225,M,M,M,310.00,9.00,M,30.00,M,10.00,M,CLR,M,M,M,M,M,M,M,M,KCLT 011645Z AUTO 31009KT 10SM CLR A3000 RMK MADISHF
CLT,2017-04-01 16:50,-80.9543,35.2225,M,M,M,340.00,9.00,M,30.00,M,10.00,M,CLR,M,M,M,M,M,M,M,M,KCLT 011650Z AUTO 34009KT 10SM CLR A3000 RMK MADISHF
CLT,2017-04-01 16:52,-80.9543,35.2225,72.00,45.00,37.96,310.00,10.00,0.00,30.00,1015.40,10.00,M,CLR,M,M,M,M,M,M,M,M,KCLT 011652Z 31010KT 10SM CLR 22/07 A3000 RMK AO2 SLP154 T02220072
CLT,2017-04-01 16:55,-80.9543,35.2225,M,M,M,310.00,9.00,M,30.00,M,10.00,M,CLR,M,M,M,M,M,M,M,M,KCLT 011655Z AUTO 31009KT 10SM CLR A3000 RMK MADISHF
CLT,2017-04-01 17:00,-80.9543,35.2225,M,M,M,310.00,11.00,M,30.00,M,10.00,M,CLR,M,M,M,M,M,M,M,M,KCLT 011700Z AUTO 31011KT 10SM CLR A3000 RMK MADISHF
CLT,2017-04-01 17:05,-80.9543,35.2225,M,M,M,310.00,9.00,M,30.00,M,10.00,15.00,CLR,M,M,M,M,M,M,M,M,KCLT 011705Z AUTO 31009G15KT 10SM CLR A3000 RMK WND 29V35  MADISHF
CLT,2017-04-01 17:10,-80.9543,35.2225,M,M,M,300.00,7.00,M,30.00,M,10.00,M,CLR,M,M,M,M,M,M,M,M,KCLT 011710Z AUTO 30007KT 10SM CLR A3000 RMK MADISHF
CLT,2017-04-01 17:15,-80.9543,35.2225,M,M,M,290.00,10.00,M,30.00,M,10.00,M,CLR,M,M,M,M,M,M,M,M,KCLT 011715Z AUTO 29010KT 10SM CLR A3000 RMK MADISHF
CLT,2017-04-01 17:20,-80.9543,35.2225,M,M,M,290.00,8.00,M,30.00,M,10.00,M,CLR,M,M,M,M,M,M,M,M,KCLT 011720Z AUTO 29008KT 10SM CLR A3000 RMK MADISHF
CLT,2017-04-01 17:25,-80.9543,35.2225,M,M,M,340.00,8.00,M,30.00,M,10.00,M,CLR,M,M,M,M,M,M,M,M,KCLT 011725Z AUTO 34008KT 10SM CLR A3000 RMK WND 30V01  MADISHF
CLT,2017-04-01 17:30,-80.9543,35.2225,M,M,M,320.00,9.00,M,30.00,M,10.00,M,CLR,M,M,M,M,M,M,M,M,KCLT 011730Z AUTO 32009KT 10SM CLR A3000 RMK MADISHF
CLT,2017-04-01 17:35,-80.9543,35.2225,M,M,M,290.00,10.00,M,30.00,M,10.00,M,CLR,M,M,M,M,M,M,M,M,KCLT 011735Z AUTO 29010KT 10SM CLR A3000 RMK MADISHF
CLT,2017-04-01 17:40,-80.9543,35.2225,M,M,M,310.00,9.00,M,30.00,M,10.00,M,CLR,M,M,M,M,M,M,M,M,KCLT 011740Z AUTO 31009KT 10SM CLR A3000 RMK MADISHF
CLT,2017-04-01 17:45,-80.9543,35.2225,M,M,M,330.00,8.00,M,30.00,M,10.00,M,CLR,M,M,M,M,M,M,M,M,KCLT 011745Z AUTO 33008KT 10SM CLR A3000 RMK MADISHF
CLT,2017-04-01 17:50,-80.9543,35.2225,M,M,M,320.00,8.00,M,30.00,M,10.00,M,CLR,M,M,M,M,M,M,M,M,KCLT 011750Z AUTO 32008KT 10SM CLR A3000 RMK WND 29V36  MADISHF
CLT,2017-04-01 17:52,-80.9543,35.2225,73.00,45.00,36.70,300.00,7.00,0.00,30.00,1015.30,10.00,M,CLR,M,M,M,M,M,M,M,M,KCLT 011752Z 30007KT 10SM CLR 23/07 A3000 RMK AO2 SLP153 T02280072 10228 20133 50000
CLT,2017-04-01 17:55,-80.9543,35.2225,M,M,M,320.00,9.00,M,30.00,M,10.00,M,CLR,M,M,M,M,M,M,M,M,KCLT 011755Z AUTO 32009KT 10SM CLR A3000 RMK MADISHF
CLT,2017-04-01 18:00,-80.9543,35.2225,M,M,M,340.00,8.00,M,30.00,M,10.00,M,CLR,M,M,M,M,M,M,M,M,KCLT 011800Z AUTO 34008KT 10SM CLR A3000 RMK MADISHF
CLT,2017-04-01 18:05,-80.9543,35.2225,M,M,M,270.00,7.00,M,30.00,M,10.00,M,CLR,M,M,M,M,M,M,M,M,KCLT 011805Z AUTO 27007KT 10SM CLR A3000 RMK MADISHF
CLT,2017-04-01 18:10,-80.9543,35.2225,M,M,M,320.00,8.00,M,29.99,M,10.00,M,CLR,M,M,M,M,M,M,M,M,KCLT 011810Z AUTO 32008KT 10SM CLR A2999 RMK MADISHF
CLT,2017-04-01 18:15,-80.9543,35.2225,M,M,M,0.00,0.00,M,29.99,M,10.00,M,CLR,M,M,M,M,M,M,M,M,KCLT 011815Z AUTO 00000KT 10SM CLR A2999 RMK MADISHF
CLT,2017-04-01 18:20,-80.9543,35.2225,M,M,M,300.00,5.00,M,29.99,M,10.00,15.00,CLR,M,M,M,M,M,M,M,M,KCLT 011820Z AUTO 30005G15KT 10SM CLR A2999 RMK MADISHF
CLT,2017-04-01 18:25,-80.9543,35.2225,M,M,M,300.00,5.00,M,29.99,M,10.00,15.00,CLR,M,M,M,M,M,M,M,M,KCLT 011825Z AUTO 30005G15KT 10SM CLR A2999 RMK MADISHF
CLT,2017-04-01 18:30,-80.9543,35.2225,M,M,M,300.00,5.00,M,29.99,M,10.00,15.00,CLR,M,M,M,M,M,M,M,M,KCLT 011830Z AUTO 30005G15KT 10SM CLR A2999 RMK MADISHF
CLT,2017-04-01 18:35,-80.9543,35.2225,M,M,M,300.00,5.00,M,29.99,M,10.00,15.00,CLR,M,M,M,M,M,M,M,M,KCLT 011835Z AUTO 30005G15KT 10SM CLR A2999 RMK MADISHF
CLT,2017-04-01 18:40,-80.9543,35.2225,M,M,M,300.00,5.00,M,29.99,M,10.00,15.00,CLR,M,M,M,M,M,M,M,M,KCLT 011840Z AUTO 30005G15KT 10SM CLR A2999 RMK WND 28V34  MADISHF
CLT,2017-04-01 18:45,-80.9543,35.2225,M,M,M,330.00,3.00,M,29.99,M,10.00,M,CLR,M,M,M,M,M,M,M,M,KCLT 011845Z AUTO 33003KT 10SM CLR A2999 RMK VRB03KT  MADISHF
CLT,2017-04-01 18:50,-80.9543,35.2225,M,M,M,0.00,0.00,M,29.99,M,10.00,M,CLR,M,M,M,M,M,M,M,M,KCLT 011850Z AUTO 00000KT 10SM CLR A2999 RMK MADISHF
CLT,2017-04-01 18:52,-80.9543,35.2225,73.90,44.10,34.40,M,4.00,0.00,29.99,1014.80,10.00,M,CLR,M,M,M,M,M,M,M,M,KCLT 011852Z VRB04KT 10SM CLR 23/07 A2999 RMK AO2 SLP148 T02330067
CLT,2017-04-01 18:55,-80.9543,35.2225,M,M,M,350.00,8.00,M,29.99,M,10.00,M,CLR,M,M,M,M,M,M,M,M,KCLT 011855Z AUTO 35008KT 10SM CLR A2999 RMK MADISHF
CLT,2017-04-01 19:00,-80.9543,35.2225,M,M,M,310.00,4.00,M,29.98,M,10.00,M,CLR,M,M,M,M,M,M,M,M,KCLT 011900Z AUTO 31004KT 10SM CLR A2998 RMK VRB04KT  MADISHF
CLT,2017-04-01 19:05,-80.9543,35.2225,M,M,M,320.00,9.00,M,29.98,M,10.00,M,CLR,M,M,M,M,M,M,M,M,KCLT 011905Z AUTO 32009KT 10SM CLR A2998 RMK WND 24V12  MADISHF
CLT,2017-04-01 19:10,-80.9543,35.2225,M,M,M,340.00,6.00,M,29.98,M,10.00,M,CLR,M,M,M,M,M,M,M,M,KCLT 011910Z AUTO 34006KT 10SM CLR A2998 RMK VRB06KT  MADISHF
CLT,2017-04-01 19:15,-80.9543,35.2225,M,M,M,300.00,7.00,M,29.97,M,10.00,M,CLR,M,M,M,M,M,M,M,M,KCLT 011915Z AUTO 30007KT 10SM CLR A2997 RMK MADISHF
CLT,2017-04-01 19:20,-80.9543,35.2225,M,M,M,320.00,9.00,M,29.97,M,10.00,M,CLR,M,M,M,M,M,M,M,M,KCLT 011920Z AUTO 32009KT 10SM CLR A2997 RMK MADISHF
CLT,2017-04-01 19:25,-80.9543,35.2225,M,M,M,300.00,3.00,M,29.97,M,10.00,M,CLR,M,M,M,M,M,M,M,M,KCLT 011925Z AUTO 30003KT 10SM CLR A2997 RMK VRB03KT  MADISHF
CLT,2017-04-01 19:30,-80.9543,35.2225,M,M,M,350.00,6.00,M,29.97,M,10.00,M,CLR,M,M,M,M,M,M,M,M,KCLT 011930Z AUTO 35006KT 10SM CLR A2997 RMK MADISHF
CLT,2017-04-01 19:35,-80.9543,35.2225,M,M,M,350.00,10.00,M,29.96,M,10.00,M,CLR,M,M,M,M,M,M,M,M,KCLT 011935Z AUTO 35010KT 10SM CLR A2996 RMK MADISHF
CLT,2017-04-01 19:40,-80.9543,35.2225,M,M,M,340.00,7.00,M,29.96,M,10.00,M,CLR,M,M,M,M,M,M,M,M,KCLT 011940Z AUTO 34007KT 10SM CLR A2996 RMK MADISHF
CLT,2017-04-01 19:45,-80.9543,35.2225,M,M,M,350.00,7.00,M,29.96,M,10.00,M,CLR,M,M,M,M,M,M,M,M,KCLT 011945Z AUTO 35007KT 10SM CLR A2996 RMK MADISHF
CLT,2017-04-01 19:50,-80.9543,35.2225,M,M,M,310.00,8.00,M,29.96,M,10.00,M,CLR,M,M,M,M,M,M,M,M,KCLT 011950Z AUTO 31008KT 10SM CLR A2996 RMK MADISHF
CLT,2017-04-01 19:52,-80.9543,35.2225,75.00,44.10,33.16,M,5.00,0.00,29.96,1014.00,10.00,M,CLR,M,M,M,M,M,M,M,M,KCLT 011952Z VRB05KT 10SM CLR 24/07 A2996 RMK AO2 SLP140 T02390067
CLT,2017-04-01 19:55,-80.9543,35.2225,M,M,M,320.00,10.00,M,29.96,M,10.00,M,CLR,M,M,M,M,M,M,M,M,KCLT 011955Z AUTO 32010KT 10SM CLR A2996 RMK MADISHF
CLT,2017-04-01 20:00,-80.9543,35.2225,M,M,M,340.00,6.00,M,29.96,M,10.00,M,CLR,M,M,M,M,M,M,M,M,KCLT 012000Z AUTO 34006KT 10SM CLR A2996 RMK VRB06KT  MADISHF
CLT,2017-04-01 20:05,-80.9543,35.2225,M,M,M,360.00,11.00,M,29.96,M,10.00,M,CLR,M,M,M,M,M,M,M,M,KCLT 012005Z AUTO 36011KT 10SM CLR A2996 RMK MADISHF
CLT,2017-04-01 20:10,-80.9543,35.2225,M,M,M,340.00,8.00,M,29.96,M,10.00,M,CLR,M,M,M,M,M,M,M,M,KCLT 012010Z AUTO 34008KT 10SM CLR A2996 RMK WND 31V01  MADISHF
CLT,2017-04-01 20:15,-80.9543,35.2225,M,M,M,350.00,10.00,M,29.96,M,10.00,M,CLR,M,M,M,M,M,M,M,M,KCLT 012015Z AUTO 35010KT 10SM CLR A2996 RMK WND 30V01  MADISHF
CLT,2017-04-01 20:20,-80.9543,35.2225,M,M,M,350.00,7.00,M,29.96,M,10.00,M,CLR,M,M,M,M,M,M,M,M,KCLT 012020Z AUTO 35007KT 10SM CLR A2996 RMK MADISHF
CLT,2017-04-01 20:25,-80.9543,35.2225,M,M,M,290.00,9.00,M,29.96,M,10.00,M,CLR,M,M,M,M,M,M,M,M,KCLT 012025Z AUTO 29009KT 10SM CLR A2996 RMK MADISHF
CLT,2017-04-01 20:30,-80.9543,35.2225,M,M,M,280.00,8.00,M,29.96,M,10.00,M,CLR,M,M,M,M,M,M,M,M,KCLT 012030Z AUTO 28008KT 10SM CLR A2996 RMK MADISHF
CLT,2017-04-01 20:35,-80.9543,35.2225,M,M,M,310.00,9.00,M,29.96,M,10.00,M,CLR,M,M,M,M,M,M,M,M,KCLT 012035Z AUTO 31009KT 10SM CLR A2996 RMK MADISHF
CLT,2017-04-01 20:40,-80.9543,35.2225,M,M,M,M,M,M,29.96,M,10.00,M,CLR,M,M,M,M,M,M,M,M,KCLT 012040Z AUTO /////KT 10SM CLR A2996 RMK MADISHF
CLT,2017-04-01 20:45,-80.9543,35.2225,M,M,M,320.00,9.00,M,29.96,M,10.00,M,CLR,M,M,M,M,M,M,M,M,KCLT 012045Z AUTO 32009KT 10SM CLR A2996 RMK MADISHF
CLT,2017-04-01 20:50,-80.9543,35.2225,M,M,M,330.00,7.00,M,29.97,M,10.00,M,CLR,M,M,M,M,M,M,M,M,KCLT 012050Z AUTO 33007KT 10SM CLR A2997 RMK MADISHF
CLT,2017-04-01 20:52,-80.9543,35.2225,75.00,44.10,33.16,350.00,6.00,0.00,29.97,1014.20,10.00,M,CLR,M,M,M,M,M,M,M,M,KCLT 012052Z 35006KT 10SM CLR 24/07 A2997 RMK AO2 SLP142 T02390067 55011
CLT,2017-04-01 20:55,-80.9543,35.2225,M,M,M,330.00,7.00,M,29.97,M,10.00,M,CLR,M,M,M,M,M,M,M,M,KCLT 012055Z AUTO 33007KT 10SM CLR A2997 RMK WND 31V01  MADISHF
CLT,2017-04-01 21:00,-80.9543,35.2225,M,M,M,300.00,8.00,M,29.97,M,10.00,M,CLR,M,M,M,M,M,M,M,M,KCLT 012100Z AUTO 30008KT 10SM CLR A2997 RMK MADISHF
CLT,2017-04-01 21:05,-80.9543,35.2225,M,M,M,330.00,6.00,M,29.97,M,10.00,M,CLR,M,M,M,M,M,M,M,M,KCLT 012105Z AUTO 33006KT 10SM CLR A2997 RMK VRB06KT  MADISHF
CLT,2017-04-01 21:10,-80.9543,35.2225,M,M,M,320.00,6.00,M,29.97,M,10.00,M,CLR,M,M,M,M,M,M,M,M,KCLT 012110Z AUTO 32006KT 10SM CLR A2997 RMK MADISHF
CLT,2017-04-01 21:15,-80.9543,35.2225,M,M,M,340.00,7.00,M,29.97,M,10.00,M,CLR,M,M,M,M,M,M,M,M,KCLT 012115Z AUTO 34007KT 10SM CLR A2997 RMK MADISHF
CLT,2017-04-01 21:20,-80.9543,35.2225,M,M,M,350.00,10.00,M,29.97,M,10.00,M,CLR,M,M,M,M,M,M,M,M,KCLT 012120Z AUTO 35010KT 10SM CLR A2997 RMK MADISHF
CLT,2017-04-01 21:25,-80.9543,35.2225,M,M,M,40.00,3.00,M,29.97,M,10.00,M,CLR,M,M,M,M,M,M,M,M,KCLT 012125Z AUTO 04003KT 10SM CLR A2997 RMK VRB03KT  MADISHF
CLT,2017-04-01 21:30,-80.9543,35.2225,M,M,M,0.00,0.00,M,29.97,M,10.00,M,CLR,M,M,M,M,M,M,M,M,KCLT 012130Z AUTO 00000KT 10SM CLR A2997 RMK MADISHF
CLT,2017-04-01 21:35,-80.9543,35.2225,M,M,M,330.00,6.00,M,29.97,M,10.00,M,CLR,M,M,M,M,M,M,M,M,KCLT 012135Z AUTO 33006KT 10SM CLR A2997 RMK MADISHF
CLT,2017-04-01 21:40,-80.9543,35.2225,M,M,M,360.00,6.00,M,29.97,M,10.00,M,CLR,M,M,M,M,M,M,M,M,KCLT 012140Z AUTO 36006KT 10SM CLR A2997 RMK MADISHF
CLT,2017-04-01 21:45,-80.9543,35.2225,M,M,M,330.00,7.00,M,29.97,M,10.00,M,CLR,M,M,M,M,M,M,M,M,KCLT 012145Z AUTO 33007KT 10SM CLR A2997 RMK MADISHF
CLT,2017-04-01 21:50,-80.9543,35.2225,M,M,M,350.00,8.00,M,29.98,M,10.00,M,CLR,M,M,M,M,M,M,M,M,KCLT 012150Z AUTO 35008KT 10SM CLR A2998 RMK MADISHF
CLT,2017-04-01 21:52,-80.9543,35.2225,75.00,44.10,33.16,360.00,9.00,0.00,29.97,1014.60,10.00,M,CLR,M,M,M,M,M,M,M,M,KCLT 012152Z 36009KT 10SM CLR 24/07 A2997 RMK AO2 SLP146 T02390067
CLT,2017-04-01 21:55,-80.9543,35.2225,M,M,M,330.00,7.00,M,29.98,M,10.00,M,CLR,M,M,M,M,M,M,M,M,KCLT 012155Z AUTO 33007KT 10SM CLR A2998 RMK WND 29V35  MADISHF
CLT,2017-04-01 22:00,-80.9543,35.2225,M,M,M,360.00,7.00,M,29.98,M,10.00,M,CLR,M,M,M,M,M,M,M,M,KCLT 012200Z AUTO 36007KT 10SM CLR A2998 RMK MADISHF
CLT,2017-04-01 22:05,-80.9543,35.2225,M,M,M,10.00,7.00,M,29.98,M,10.00,M,CLR,M,M,M,M,M,M,M,M,KCLT 012205Z AUTO 01007KT 10SM CLR A2998 RMK MADISHF
CLT,2017-04-01 22:10,-80.9543,35.2225,M,M,M,360.00,6.00,M,29.98,M,10.00,M,CLR,M,M,M,M,M,M,M,M,KCLT 012210Z AUTO 36006KT 10SM CLR A2998 RMK MADISHF
CLT,2017-04-01 22:15,-80.9543,35.2225,M,M,M,310.00,4.00,M,29.98,M,10.00,M,CLR,M,M,M,M,M,M,M,M,KCLT 012215Z AUTO 31004KT 10SM CLR A2998 RMK MADISHF
CLT,2017-04-01 22:20,-80.9543,35.2225,M,M,M,310.00,5.00,M,29.99,M,10.00,M,CLR,M,M,M,M,M,M,M,M,KCLT 012220Z AUTO 31005KT 10SM CLR A2999 RMK MADISHF
CLT,2017-04-01 22:25,-80.9543,35.2225,M,M,M,340.00,5.00,M,29.99,M,10.00,M,CLR,M,M,M,M,M,M,M,M,KCLT 012225Z AUTO 34005KT 10SM CLR A2999 RMK MADISHF
CLT,2017-04-01 22:30,-80.9543,35.2225,M,M,M,330.00,7.00,M,29.99,M,10.00,M,CLR,M,M,M,M,M,M,M,M,KCLT 012230Z AUTO 33007KT 10SM CLR A2999 RMK MADISHF
CLT,2017-04-01 22:35,-80.9543,35.2225,M,M,M,330.00,4.00,M,29.99,M,10.00,M,CLR,M,M,M,M,M,M,M,M,KCLT 012235Z AUTO 33004KT 10SM CLR A2999 RMK MADISHF
CLT,2017-04-01 22:40,-80.9543,35.2225,M,M,M,330.00,7.00,M,29.99,M,10.00,M,CLR,M,M,M,M,M,M,M,M,KCLT 012240Z AUTO 33007KT 10SM CLR A2999 RMK MADISHF
CLT,2017-04-01 22:45,-80.9543,35.2225,M,M,M,340.00,6.00,M,29.99,M,10.00,M,CLR,M,M,M,M,M,M,M,M,KCLT 012245Z AUTO 34006KT 10SM CLR A2999 RMK MADISHF
CLT,2017-04-01 22:50,-80.9543,35.2225,M,M,M,20.00,5.00,M,29.99,M,10.00,M,CLR,M,M,M,M,M,M,M,M,KCLT 012250Z AUTO 02005KT 10SM CLR A2999 RMK VRB05KT  MADISHF
CLT,2017-04-01 22:52,-80.9543,35.2225,73.00,43.00,34.00,20.00,8.00,0.00,29.99,1015.20,10.00,M,CLR,M,M,M,M,M,M,M,M,KCLT 012252Z 02008KT 10SM CLR 23/06 A2999 RMK AO2 SLP152 T02280061
CLT,2017-04-01 22:55,-80.9543,35.2225,M,M,M,20.00,9.00,M,30.00,M,10.00,14.00,CLR,M,M,M,M,M,M,M,M,KCLT 012255Z AUTO 02009G14KT 10SM CLR A3000 RMK MADISHF
CLT,2017-04-01 23:00,-80.9543,35.2225,M,M,M,10.00,10.00,M,30.00,M,10.00,M,CLR,M,M,M,M,M,M,M,M,KCLT 012300Z AUTO 01010KT 10SM CLR A3000 RMK MADISHF
CLT,2017-04-01 23:05,-80.9543,35.2225,M,M,M,20.00,11.00,M,30.00,M,10.00,M,CLR,M,M,M,M,M,M,M,M,KCLT 012305Z AUTO 02011KT 10SM CLR A3000 RMK MADISHF
CLT,2017-04-01 23:10,-80.9543,35.2225,M,M,M,360.00,10.00,M,30.00,M,10.00,M,CLR,M,M,M,M,M,M,M,M,KCLT 012310Z AUTO 36010KT 10SM CLR A3000 RMK MADISHF
CLT,2017-04-01 23:15,-80.9543,35.2225,M,M,M,360.00,12.00,M,30.00,M,10.00,M,CLR,M,M,M,M,M,M,M,M,KCLT 012315Z AUTO 36012KT 10SM CLR A3000 RMK MADISHF
CLT,2017-04-01 23:20,-80.9543,35.2225,M,M,M,M,M,M,30.00,M,10.00,M,CLR,M,M,M,M,M,M,M,M,KCLT 012320Z AUTO /////KT 10SM CLR A3000 RMK MADISHF
CLT,2017-04-01 23:25,-80.9543,35.2225,M,M,M,10.00,10.00,M,30.00,M,10.00,M,CLR,M,M,M,M,M,M,M,M,KCLT 012325Z AUTO 01010KT 10SM CLR A3000 RMK MADISHF
CLT,2017-04-01 23:30,-80.9543,35.2225,M,M,M,10.00,8.00,M,30.01,M,10.00,M,CLR,M,M,M,M,M,M,M,M,KCLT 012330Z AUTO 01008KT 10SM CLR A3001 RMK MADISHF
CLT,2017-04-01 23:35,-80.9543,35.2225,M,M,M,10.00,11.00,M,30.01,M,10.00,M,CLR,M,M,M,M,M,M,M,M,KCLT 012335Z AUTO 01011KT 10SM CLR A3001 RMK MADISHF
CLT,2017-04-01 23:40,-80.9543,35.2225,M,M,M,20.00,8.00,M,30.01,M,10.00,M,CLR,M,M,M,M,M,M,M,M,KCLT 012340Z AUTO 02008KT 10SM CLR A3001 RMK MADISHF
CLT,2017-04-01 23:45,-80.9543,35.2225,M,M,M,20.00,8.00,M,30.01,M,10.00,M,CLR,M,M,M,M,M,M,M,M,KCLT 012345Z AUTO 02008KT 10SM CLR A3001 RMK MADISHF
CLT,2017-04-01 23:50,-80.9543,35.2225,M,M,M,10.00,8.00,M,30.01,M,10.00,M,CLR,M,M,M,M,M,M,M,M,KCLT 012350Z AUTO 01008KT 10SM CLR A3001 RMK MADISHF
CLT,2017-04-01 23:52,-80.9543,35.2225,66.00,43.00,43.20,20.00,7.00,0.00,30.01,1015.80,10.00,M,FEW,M,M,M,25000.00,M,M,M,M,KCLT 012352Z 02007KT 10SM FEW250 19/06 A3001 RMK AO2 SLP158 T01890061 10244 20189 53015
CLT,2017-04-01 23:55,-80.9543,35.2225,M,M,M,10.00,7.00,M,30.01,M,10.00,M,CLR,M,M,M,M,M,M,M,M,KCLT 012355Z AUTO 01007KT 10SM CLR A3001 RMK MADISHF
