#DEBUG: Format Typ    -> comma
#DEBUG: Time Period   -> 2017-04-01 00:00:00+00:00 2017-04-02 00:00:00+00:00
#DEBUG: Time Zone     -> Etc/UTC
#DEBUG: Data Contact   -> daryl herzmann akrherz@iastate.edu 515-294-5978
#DEBUG: Entries Found -> -1
station,valid,lon,lat,tmpf, dwpf, relh, drct, sknt, p01i, alti, mslp, vsby, gust, skyc1, skyc2, skyc3, skyc4, skyl1, skyl2, skyl3, skyl4, presentwx, metar
CLW,2017-04-01 00:15,-82.7563,27.9742,71.60,68.00,88.43,250.00,9.00,0.00,29.91,M,10.00,16.00,BKN,BKN,OVC,M,1200.00,1800.00,2400.00,M,M,KCLW 010015Z AUTO 25009G16KT 10SM BKN012 BKN018 OVC024 22/20 A2991 RMK AO2
CLW,2017-04-01 00:35,-82.7563,27.9742,71.60,68.00,88.43,240.00,6.00,0.00,29.91,M,10.00,M,BKN,BKN,BKN,M,1200.00,1800.00,2400.00,M,M,KCLW 010035Z AUTO 24006KT 10SM BKN012 BKN018 BKN024 22/20 A2991 RMK AO2
CLW,2017-04-01 00:55,-82.7563,27.9742,69.80,68.00,94.01,250.00,7.00,0.00,29.91,M,10.00,M,BKN,M,M,M,1200.00,M,M,M,M,KCLW 010055Z AUTO 25007KT 10SM BKN012 21/20 A2991 RMK AO2
CLW,2017-04-01 01:15,-82.7563,27.9742,69.80,68.00,94.01,250.00,6.00,0.00,29.91,M,10.00,M,SCT,M,M,M,1200.00,M,M,M,M,KCLW 010115Z AUTO 25006KT 10SM SCT012 21/20 A2991 RMK AO2
CLW,2017-04-01 01:35,-82.7563,27.9742,69.80,68.00,94.01,240.00,7.00,0.00,29.93,M,10.00,M,BKN,BKN,M,M,1200.00,1900.00,M,M,M,KCLW 010135Z AUTO 24007KT 10SM BKN012 BKN019 21/20 A2993 RMK AO2
CLW,2017-04-01 01:55,-82.7563,27.9742,69.80,68.00,94.01,240.00,6.00,0.00,29.93,M,10.00,M,BKN,OVC,M,M,1000.00,1900.00,M,M,M,KCLW 010155Z AUTO 24006KT 10SM BKN010 OVC019 21/20 A2993 RMK AO2
CLW,2017-04-01 02:15,-82.7563,27.9742,69.80,68.00,94.01,250.00,8.00,0.00,29.94,M,10.00,M,BKN,OVC,M,M,1000.00,1800.00,M,M,M,KCLW 010215Z AUTO 25008KT 10SM BKN010 OVC018 21/20 A2994 RMK AO2
CLW,2017-04-01 02:35,-82.7563,27.9742,69.80,68.00,94.01,250.00,5.00,0.00,29.94,M,10.00,M,BKN,BKN,M,M,1000.00,1800.00,M,M,M,KCLW 010235Z AUTO 25005KT 10SM BKN010 BKN018 21/20 A2994 RMK AO2
CLW,2017-04-01 02:55,-82.7563,27.9742,69.80,68.00,94.01,240.00,7.00,0.00,29.94,M,10.00,M,BKN,M,M,M,1000.00,M,M,M,M,KCLW 010255Z AUTO 24007KT 10SM BKN010 21/20 A2994 RMK AO2
CLW,2017-04-01 03:15,-82.7563,27.9742,69.80,68.00,94.01,240.00,5.00,0.00,29.95,M,10.00,M,BKN,M,M,M,1000.00,M,M,M,M,KCLW 010315Z AUTO 24005KT 10SM BKN010 21/20 A2995 RMK AO2
CLW,2017-04-01 03:35,-82.7563,27.9742,69.80,68.00,94.01,250.00,5.00,0.00,29.95,M,10.00,M,SCT,M,M,M,1000.00,M,M,M,M,KCLW 010335Z AUTO 25005KT 10SM SCT010 21/20 A2995 RMK AO2
CLW,2017-04-01 03:55,-82.7563,27.9742,69.80,68.00,94.01,260.00,5.00,0.00,29.96,M,10.00,M,SCT,SCT,M,M,1000.00,1800.00,M,M,M,KCLW 010355Z AUTO 26005KT 10SM SCT010 SCT018 21/20 A2996 RMK AO2
CLW,2017-04-01 04:15,-82.7563,27.9742,69.80,68.00,94.01,260.00,6.00,0.00,29.96,M,10.00,M,SCT,SCT,M,M,1200.00,1800.00,M,M,M,KCLW 010415Z AUTO 26006KT 10SM SCT012 SCT018 21/20 A2996 RMK AO2
CLW,2017-04-01 04:35,-82.7563,27.9742,69.80,68.00,94.01,260.00,6.00,0.00,29.96,M,10.00,M,SCT,BKN,M,M,1200.00,1800.00,M,M,M,KCLW 010435Z AUTO 26006KT 10SM SCT012 BKN018 21/20 A2996 RMK AO2
CLW,2017-04-01 04:55,-82.7563,27.9742,69.80,68.00,94.01,260.00,3.00,0.00,29.96,M,10.00,M,BKN,M,M,M,1800.00,M,M,M,M,KCLW 010455Z AUTO 26003KT 10SM BKN018 21/20 A2996 RMK AO2
CLW,2017-04-01 05:15,-82.7563,27.9742,69.80,68.00,94.01,280.00,4.00,0.00,29.96,M,10.00,M,SCT,M,M,M,1800.00,M,M,M,M,KCLW 010515Z AUTO 28004KT 10SM SCT018 21/20 A2996 RMK AO2
CLW,2017-04-01 05:35,-82.7563,27.9742,69.80,68.00,94.01,290.00,4.00,0.00,29.96,M,10.00,M,CLR,M,M,M,M,M,M,M,M,KCLW 010535Z AUTO 29004KT 10SM CLR 21/20 A2996 RMK AO2
CLW,2017-04-01 05:55,-82.7563,27.9742,69.80,68.00,94.01,290.00,3.00,0.00,29.96,M,10.00,M,CLR,M,M,M,M,M,M,M,M,KCLW 010555Z AUTO 29003KT 10SM CLR 21/20 A2996 RMK AO2
CLW,2017-04-01 06:15,-82.7563,27.9742,69.80,68.00,94.01,300.00,3.00,0.00,29.96,M,10.00,M,CLR,M,M,M,M,M,M,M,M,KCLW 010615Z AUTO 30003KT 10SM CLR 21/20 A2996 RMK AO2
CLW,2017-04-01 06:35,-82.7563,27.9742,68.00,68.00,100.00,310.00,4.00,0.00,29.96,M,10.00,M,CLR,M,M,M,M,M,M,M,M,KCLW 010635Z AUTO 31004KT 10SM CLR 20/20 A2996 RMK AO2
CLW,2017-04-01 06:55,-82.7563,27.9742,69.80,68.00,94.01,310.00,6.00,0.00,29.96,M,10.00,M,CLR,M,M,M,M,M,M,M,M,KCLW 010655Z AUTO 31006KT 10SM CLR 21/20 A2996 RMK AO2
CLW,2017-04-01 07:15,-82.7563,27.9742,69.80,68.00,94.01,310.00,6.00,0.00,29.95,M,10.00,M,CLR,M,M,M,M,M,M,M,M,KCLW 010715Z AUTO 31006KT 10SM CLR 21/20 A2995 RMK AO2
CLW,2017-04-01 07:35,-82.7563,27.9742,69.80,68.00,94.01,320.00,7.00,0.00,29.95,M,10.00,M,SCT,M,M,M,800.00,M,M,M,M,KCLW 010735Z AUTO 32007KT 10SM SCT008 21/20 A2995 RMK AO2
CLW,2017-04-01 07:55,-82.7563,27.9742,69.80,68.00,94.01,310.00,5.00,0.00,29.95,M,10.00,M,SCT,BKN,M,M,800.00,1200.00,M,M,M,KCLW 010755Z AUTO 31005KT 10SM SCT008 BKN012 21/20 A2995 RMK AO2
CLW,2017-04-01 08:15,-82.7563,27.9742,69.80,68.00,94.01,320.00,6.00,0.00,29.96,M,10.00,M,OVC,M,M,M,1000.00,M,M,M,M,KCLW 010815Z AUTO 32006KT 10SM OVC010 21/20 A2996 RMK AO2
CLW,2017-04-01 08:35,-82.7563,27.9742,69.80,68.00,94.01,0.00,0.00,0.00,29.96,M,10.00,M,BKN,BKN,M,M,1200.00,2200.00,M,M,M,KCLW 010835Z AUTO 00000KT 10SM BKN012 BKN022 21/20 A2996 RMK AO2
CLW,2017-04-01 08:55,-82.7563,27.9742,68.00,68.00,100.00,340.00,3.00,0.00,29.96,M,10.00,M,SCT,SCT,M,M,1400.00,2000.00,M,M,M,KCLW 010855Z AUTO 34003KT 10SM SCT014 SCT020 20/20 A2996 RMK AO2
CLW,2017-04-01 09:15,-82.7563,27.9742,68.00,68.00,100.00,350.00,3.00,0.00,29.96,M,10.00,M,SCT,M,M,M,1400.00,M,M,M,M,KCLW 010915Z AUTO 35003KT 10SM SCT014 20/20 A2996 RMK AO2
CLW,2017-04-01 09:35,-82.7563,27.9742,68.00,66.20,93.97,0.00,0.00,0.00,29.96,M,10.00,M,CLR,M,M,M,M,M,M,M,M,KCLW 010935Z AUTO 00000KT 10SM CLR 20/19 A2996 RMK AO2
CLW,2017-04-01 09:55,-82.7563,27.9742,66.20,66.20,100.00,0.00,0.00,0.00,29.97,M,10.00,M,CLR,M,M,M,M,M,M,M,M,KCLW 010955Z AUTO 00000KT 10SM CLR 19/19 A2997 RMK AO2
CLW,2017-04-01 10:15,-82.7563,27.9742,68.00,66.20,93.97,0.00,0.00,0.00,29.98,M,10.00,M,CLR,M,M,M,M,M,M,M,M,KCLW 011015Z AUTO 00000KT 10SM CLR 20/19 A2998 RMK AO2
CLW,2017-04-01 10:35,-82.7563,27.9742,66.20,66.20,100.00,0.00,0.00,0.00,29.98,M,10.00,M,CLR,M,M,M,M,M,M,M,M,KCLW 011035Z AUTO 00000KT 10SM CLR 19/19 A2998 RMK AO2
CLW,2017-04-01 10:55,-82.7563,27.9742,66.20,64.40,93.92,0.00,0.00,0.00,29.99,M,10.00,M,CLR,M,M,M,M,M,M,M,M,KCLW 011055Z AUTO 00000KT 10SM CLR 19/18 A2999 RMK AO2
CLW,2017-04-01 11:15,-82.7563,27.9742,66.20,64.40,93.92,0.00,0.00,0.00,30.00,M,10.00,M,CLR,M,M,M,M,M,M,M,M,KCLW 011115Z AUTO 00000KT 10SM CLR 19/18 A3000 RMK AO2
CLW,2017-04-01 11:35,-82.7563,27.9742,64.40,64.40,100.00,0.00,0.00,0.00,30.01,M,10.00,M,CLR,M,M,M,M,M,M,M,M,KCLW 011135Z AUTO 00000KT 10SM CLR 18/18 A3001 RMK AO2
CLW,2017-04-01 11:55,-82.7563,27.9742,64.40,64.40,100.00,0.00,0.00,0.00,30.01,M,10.00,M,CLR,M,M,M,M,M,M,M,M,KCLW 011155Z AUTO 00000KT 10SM CLR 18/18 A3001 RMK AO2
CLW,2017-04-01 12:15,-82.7563,27.9742,66.20,66.20,100.00,0.00,0.00,0.00,30.02,M,10.00,M,CLR,M,M,M,M,M,M,M,M,KCLW 011215Z AUTO 00000KT 10SM CLR 19/19 A3002 RMK AO2
CLW,2017-04-01 12:35,-82.7563,27.9742,68.00,66.20,93.97,0.00,0.00,0.00,30.02,M,10.00,M,CLR,M,M,M,M,M,M,M,M,KCLW 011235Z AUTO 00000KT 10SM CLR 20/19 A3002 RMK AO2
CLW,2017-04-01 12:55,-82.7563,27.9742,69.80,64.40,82.98,40.00,3.00,0.00,30.03,M,10.00,M,CLR,M,M,M,M,M,M,M,M,KCLW 011255Z AUTO 04003KT 10SM CLR 21/18 A3003 RMK AO2
CLW,2017-04-01 13:15,-82.7563,27.9742,71.60,64.40,78.04,10.00,4.00,0.00,30.02,M,10.00,M,CLR,M,M,M,M,M,M,M,M,KCLW 011315Z AUTO 01004KT 10SM CLR 22/18 A3002 RMK AO2
CLW,2017-04-01 13:35,-82.7563,27.9742,71.60,64.40,78.04,360.00,5.00,0.00,30.03,M,10.00,M,CLR,M,M,M,M,M,M,M,M,KCLW 011335Z AUTO 36005KT 10SM CLR 22/18 A3003 RMK AO2
CLW,2017-04-01 13:55,-82.7563,27.9742,71.60,64.40,78.04,10.00,4.00,0.00,30.04,M,10.00,M,SCT,M,M,M,2200.00,M,M,M,M,KCLW 011355Z AUTO 01004KT 10SM SCT022 22/18 A3004 RMK AO2
CLW,2017-04-01 14:15,-82.7563,27.9742,73.40,62.60,68.94,60.00,3.00,0.00,30.05,M,10.00,M,SCT,M,M,M,2200.00,M,M,M,M,KCLW 011415Z AUTO 06003KT 10SM SCT022 23/17 A3005 RMK AO2
CLW,2017-04-01 14:35,-82.7563,27.9742,73.40,60.80,64.69,30.00,4.00,0.00,30.05,M,10.00,M,CLR,M,M,M,M,M,M,M,M,KCLW 011435Z AUTO 03004KT 10SM CLR 23/16 A3005 RMK AO2
CLW,2017-04-01 14:55,-82.7563,27.9742,75.20,57.20,53.55,60.00,3.00,0.00,30.05,M,10.00,M,CLR,M,M,M,M,M,M,M,M,KCLW 011455Z AUTO 06003KT 10SM CLR 24/14 A3005 RMK AO2
CLW,2017-04-01 15:15,-82.7563,27.9742,77.00,55.40,47.25,0.00,0.00,0.00,30.05,M,10.00,M,CLR,M,M,M,M,M,M,M,M,KCLW 011515Z AUTO 00000KT 10SM CLR 25/13 A3005 RMK AO2
CLW,2017-04-01 15:35,-82.7563,27.9742,78.80,55.40,44.52,60.00,4.00,0.00,30.06,M,10.00,M,CLR,M,M,M,M,M,M,M,M,KCLW 011535Z AUTO 06004KT 10SM CLR 26/13 A3006 RMK AO2
CLW,2017-04-01 15:55,-82.7563,27.9742,78.80,55.40,44.52,0.00,0.00,0.00,30.06,M,10.00,M,CLR,M,M,M,M,M,M,M,M,KCLW 011555Z AUTO 00000KT 10SM CLR 26/13 A3006 RMK AO2
CLW,2017-04-01 16:15,-82.7563,27.9742,78.80,57.20,47.52,20.00,4.00,0.00,30.06,M,10.00,M,BKN,M,M,M,4600.00,M,M,M,M,KCLW 011615Z AUTO 02004KT 10SM BKN046 26/14 A3006 RMK AO2
CLW,2017-04-01 16:35,-82.7563,27.9742,78.80,59.00,50.69,340.00,4.00,0.00,30.05,M,10.00,M,OVC,M,M,M,4600.00,M,M,M,M,KCLW 011635Z AUTO 34004KT 10SM OVC046 26/15 A3005 RMK AO2
CLW,2017-04-01 16:55,-82.7563,27.9742,78.80,62.60,57.60,290.00,6.00,0.00,30.04,M,10.00,M,OVC,M,M,M,4600.00,M,M,M,M,KCLW 011655Z AUTO 29006KT 10SM OVC046 26/17 A3004 RMK AO2
CLW,2017-04-01 17:15,-82.7563,27.9742,78.80,62.60,57.60,270.00,4.00,0.00,30.04,M,10.00,M,OVC,M,M,M,4400.00,M,M,M,M,KCLW 011715Z AUTO 27004KT 10SM OVC044 26/17 A3004 RMK AO2
CLW,2017-04-01 17:35,-82.7563,27.9742,78.80,64.40,61.36,320.00,6.00,0.00,30.04,M,10.00,M,SCT,M,M,M,4200.00,M,M,M,M,KCLW 011735Z AUTO 32006KT 10SM SCT042 26/18 A3004 RMK AO2
CLW,2017-04-01 17:55,-82.7563,27.9742,78.80,62.60,57.60,0.00,0.00,0.00,30.03,M,10.00,M,CLR,M,M,M,M,M,M,M,M,KCLW 011755Z AUTO 00000KT 10SM CLR 26/17 A3003 RMK AO2
CLW,2017-04-01 18:15,-82.7563,27.9742,78.80,64.40,61.36,290.00,7.00,0.00,30.03,M,10.00,M,CLR,M,M,M,M,M,M,M,M,KCLW 011815Z AUTO 29007KT 10SM CLR 26/18 A3003 RMK AO2
CLW,2017-04-01 18:35,-82.7563,27.9742,78.80,64.40,61.36,290.00,7.00,0.00,30.02,M,10.00,M,CLR,M,M,M,M,M,M,M,M,KCLW 011835Z AUTO 29007KT 250V310 10SM CLR 26/18 A3002 RMK AO2
CLW,2017-04-01 18:55,-82.7563,27.9742,78.80,64.40,61.36,310.00,5.00,0.00,30.02,M,10.00,M,CLR,M,M,M,M,M,M,M,M,KCLW 011855Z AUTO 31005KT 10SM CLR 26/18 A3002 RMK AO2
CLW,2017-04-01 19:15,-82.7563,27.9742,78.80,64.40,61.36,280.00,6.00,0.00,30.01,M,10.00,M,CLR,M,M,M,M,M,M,M,M,KCLW 011915Z AUTO 28006KT 10SM CLR 26/18 A3001 RMK AO2
CLW,2017-04-01 19:35,-82.7563,27.9742,78.80,64.40,61.36,270.00,4.00,0.00,30.01,M,10.00,M,CLR,M,M,M,M,M,M,M,M,KCLW 011935Z AUTO 27004KT 10SM CLR 26/18 A3001 RMK AO2
CLW,2017-04-01 19:55,-82.7563,27.9742,78.80,64.40,61.36,260.00,3.00,0.00,30.00,M,10.00,M,CLR,M,M,M,M,M,M,M,M,KCLW 011955Z AUTO 26003KT 10SM CLR 26/18 A3000 RMK AO2
CLW,2017-04-01 20:15,-82.7563,27.9742,78.80,64.40,61.36,290.00,6.00,0.00,30.00,M,10.00,M,CLR,M,M,M,M,M,M,M,M,KCLW 012015Z AUTO 29006KT 10SM CLR 26/18 A3000 RMK AO2
CLW,2017-04-01 20:35,-82.7563,27.9742,77.00,64.40,65.12,280.00,6.00,0.00,30.00,M,10.00,M,CLR,M,M,M,M,M,M,M,M,KCLW 012035Z AUTO 28006KT 10SM CLR 25/18 A3000 RMK AO2
CLW,2017-04-01 20:55,-82.7563,27.9742,77.00,64.40,65.12,290.00,6.00,0.00,30.00,M,10.00,M,CLR,M,M,M,M,M,M,M,M,KCLW 012055Z AUTO 29006KT 10SM CLR 25/18 A3000 RMK AO2
CLW,2017-04-01 21:15,-82.7563,27.9742,77.00,64.40,65.12,280.00,6.00,0.00,30.00,M,10.00,M,CLR,M,M,M,M,M,M,M,M,KCLW 012115Z AUTO 28006KT 10SM CLR 25/18 A3000 RMK AO2
CLW,2017-04-01 21:35,-82.7563,27.9742,77.00,66.20,69.33,280.00,6.00,0.00,30.01,M,10.00,M,CLR,M,M,M,M,M,M,M,M,KCLW 012135Z AUTO 28006KT 10SM CLR 25/19 A3001 RMK AO2
CLW,2017-04-01 21:55,-82.7563,27.9742,75.20,64.40,69.14,260.00,3.00,0.00,30.01,M,10.00,M,CLR,M,M,M,M,M,M,M,M,KCLW 012155Z AUTO 26003KT 10SM CLR 24/18 A3001 RMK AO2
CLW,2017-04-01 22:15,-82.7563,27.9742,75.20,64.40,69.14,250.00,5.00,0.00,30.01,M,10.00,M,CLR,M,M,M,M,M,M,M,M,KCLW 012215Z AUTO 25005KT 10SM CLR 24/18 A3001 RMK AO2
CLW,2017-04-01 22:35,-82.7563,27.9742,73.40,64.40,73.44,270.00,5.00,0.00,30.01,M,7.00,M,CLR,M,M,M,M,M,M,M,M,KCLW 012235Z AUTO 27005KT 7SM CLR 23/18 A3001 RMK AO2
CLW,2017-04-01 22:55,-82.7563,27.9742,73.40,64.40,73.44,260.00,5.00,0.00,30.01,M,10.00,M,CLR,M,M,M,M,M,M,M,M,KCLW 012255Z AUTO 26005KT 10SM CLR 23/18 A3001 RMK AO2
CLW,2017-04-01 23:15,-82.7563,27.9742,73.40,64.40,73.44,290.00,5.00,0.00,30.01,M,10.00,M,CLR,M,M,M,M,M,M,M,M,KCLW 012315Z AUTO 29005KT 10SM CLR 23/18 A3001 RMK AO2
CLW,2017-04-01 23:35,-82.7563,27.9742,71.60,64.40,78.04,270.00,6.00,0.00,30.01,M,10.00,M,CLR,M,M,M,M,M,M,M,M,KCLW 012335Z AUTO 27006KT 10SM CLR 22/18 A3001 RMK AO2
CLW,2017-04-01 23:55,-82.7563,27.9742,71.60,64.40,78.04,0.00,0.00,0.00,30.01,M,10.00,M,CLR,M,M,M,M,M,M,M,M,KCLW 012355Z AUTO 00000KT 10SM CLR 22/18 A3001 RMK AO2
