#DEBUG: Format Typ    -> comma
#DEBUG: Time Period   -> 2017-04-01 00:00:00+00:00 2017-04-02 00:00:00+00:00
#DEBUG: Time Zone     -> Etc/UTC
#DEBUG: Data Contact   -> daryl herzmann akrherz@iastate.edu 515-294-5978
#DEBUG: Entries Found -> -1
station,valid,lon,lat,tmpf, dwpf, relh, drct, sknt, p01i, alti, mslp, vsby, gust, skyc1, skyc2, skyc3, skyc4, skyl1, skyl2, skyl3, skyl4, presentwx, metar
CNC,2017-04-01 00:00,-93.3608,41.0184,42.80,39.20,86.99,20.00,7.00,0.00,30.04,M,10.00,M,OVC,M,M,M,1500.00,M,M,M,M,KCNC 010000Z AUTO 02007KT 10SM OVC015 06/04 A3004 RMK AO2
CNC,2017-04-01 00:10,-93.3608,41.0184,42.80,39.20,86.99,20.00,7.00,0.00,30.05,M,10.00,M,OVC,M,M,M,1500.00,M,M,M,M,KCNC 010010Z AUTO 02007KT 10SM OVC015 06/04 A3005 RMK AO2
CNC,2017-04-01 00:15,-93.3608,41.0184,42.80,39.20,86.99,30.00,7.00,0.00,30.05,M,10.00,M,OVC,M,M,M,1500.00,M,M,M,M,KCNC 010015Z AUTO 03007KT 10SM OVC015 06/04 A3005 RMK AO2
CNC,2017-04-01 00:20,-93.3608,41.0184,42.80,39.20,86.99,30.00,8.00,0.00,30.05,M,10.00,M,OVC,M,M,M,1500.00,M,M,M,M,KCNC 010020Z AUTO 03008KT 10SM OVC015 06/04 A3005 RMK AO2
CNC,2017-04-01 00:30,-93.3608,41.0184,42.80,37.40,81.07,30.00,9.00,0.00,30.05,M,10.00,M,OVC,M,M,M,1500.00,M,M,M,M,KCNC 010030Z AUTO 03009KT 10SM OVC015 06/03 A3005 RMK AO2
CNC,2017-04-01 00:35,-93.3608,41.0184,42.80,37.40,81.07,30.00,9.00,0.00,30.06,M,10.00,M,OVC,M,M,M,1500.00,M,M,M,M,KCNC 010035Z AUTO 03009KT 10SM OVC015 06/03 A3006 RMK AO2
CNC,2017-04-01 00:40,-93.3608,41.0184,42.80,37.40,81.07,350.00,7.00,0.00,30.06,M,10.00,M,OVC,M,M,M,1500.00,M,M,M,M,KCNC 010040Z AUTO 35007KT 10SM OVC015 06/03 A3006 RMK AO2
CNC,2017-04-01 00:50,-93.3608,41.0184,42.80,37.40,81.07,10.00,6.00,0.00,30.07,M,10.00,M,OVC,M,M,M,1500.00,M,M,M,M,KCNC 010050Z AUTO 01006KT 10SM OVC015 06/03 A3007 RMK AO2
CNC,2017-04-01 00:55,-93.3608,41.0184,42.80,37.40,81.07,10.00,8.00,0.00,30.07,M,10.00,M,OVC,M,M,M,1500.00,M,M,M,M,KCNC 010055Z AUTO 01008KT 10SM OVC015 06/03 A3007 RMK AO2
CNC,2017-04-01 01:00,-93.3608,41.0184,42.80,37.40,81.07,20.00,9.00,0.00,30.06,M,10.00,M,OVC,M,M,M,1500.00,M,M,M,M,KCNC 010100Z AUTO 02009KT 10SM OVC015 06/03 A3006 RMK AO2
CNC,2017-04-01 01:10,-93.3608,41.0184,42.80,37.40,81.07,30.00,7.00,0.00,30.06,M,10.00,M,OVC,M,M,M,1500.00,M,M,M,M,KCNC 010110Z AUTO 03007KT 10SM OVC015 06/03 A3006 RMK AO2
CNC,2017-04-01 01:15,-93.3608,41.0184,42.80,37.40,81.07,30.00,5.00,0.00,30.07,M,10.00,M,OVC,M,M,M,1500.00,M,M,M,M,KCNC 010115Z AUTO 03005KT 10SM OVC015 06/03 A3007 RMK AO2
CNC,2017-04-01 01:20,-93.3608,41.0184,42.80,37.40,81.07,30.00,8.00,0.00,30.07,M,10.00,M,OVC,M,M,M,1500.00,M,M,M,M,KCNC 010120Z AUTO 03008KT 10SM OVC015 06/03 A3007 RMK AO2
CNC,2017-04-01 01:30,-93.3608,41.0184,42.80,37.40,81.07,20.00,8.00,0.00,30.07,M,M,M,OVC,M,M,M,1500.00,M,M,M,M,KCNC 010130Z AUTO 02008KT OVC015 06/03 A3007 RMK AO2
CNC,2017-04-01 01:35,-93.3608,41.0184,42.80,37.40,81.07,20.00,6.00,0.00,30.07,M,M,M,OVC,M,M,M,1500.00,M,M,M,M,KCNC 010135Z AUTO 02006KT OVC015 06/03 A3007 RMK AO2
CNC,2017-04-01 01:40,-93.3608,41.0184,42.80,37.40,81.07,20.00,6.00,0.00,30.08,M,10.00,M,OVC,M,M,M,1500.00,M,M,M,M,KCNC 010140Z AUTO 02006KT 10SM OVC015 06/03 A3008 RMK AO2
CNC,2017-04-01 01:50,-93.3608,41.0184,42.80,37.40,81.07,30.00,7.00,0.00,30.08,M,10.00,M,OVC,M,M,M,1500.00,M,M,M,M,KCNC 010150Z AUTO 03007KT 10SM OVC015 06/03 A3008 RMK AO2
CNC,2017-04-01 01:55,-93.3608,41.0184,42.80,37.40,81.07,30.00,6.00,0.00,30.09,M,10.00,M,OVC,M,M,M,1500.00,M,M,M,M,KCNC 010155Z AUTO 03006KT 10SM OVC015 06/03 A3009 RMK AO2
CNC,2017-04-01 02:00,-93.3608,41.0184,42.80,37.40,81.07,20.00,6.00,0.00,30.09,M,10.00,M,OVC,M,M,M,1500.00,M,M,M,M,KCNC 010200Z AUTO 02006KT 10SM OVC015 06/03 A3009 RMK AO2
CNC,2017-04-01 02:10,-93.3608,41.0184,42.80,37.40,81.07,20.00,6.00,0.00,30.10,M,10.00,M,OVC,M,M,M,1500.00,M,M,M,M,KCNC 010210Z AUTO 02006KT 10SM OVC015 06/03 A3010 RMK AO2
CNC,2017-04-01 02:15,-93.3608,41.0184,41.00,37.40,86.89,30.00,8.00,0.00,30.09,M,10.00,M,OVC,M,M,M,1500.00,M,M,M,M,KCNC 010215Z AUTO 03008KT 10SM OVC015 05/03 A3009 RMK AO2
CNC,2017-04-01 02:20,-93.3608,41.0184,41.00,37.40,86.89,30.00,6.00,0.00,30.09,M,10.00,M,OVC,M,M,M,1500.00,M,M,M,M,KCNC 010220Z AUTO 03006KT 10SM OVC015 05/03 A3009 RMK AO2
CNC,2017-04-01 02:30,-93.3608,41.0184,42.80,37.40,81.07,40.00,6.00,0.00,30.10,M,10.00,M,OVC,M,M,M,1500.00,M,M,M,M,KCNC 010230Z AUTO 04006KT 10SM OVC015 06/03 A3010 RMK AO2
CNC,2017-04-01 02:35,-93.3608,41.0184,42.80,37.40,81.07,50.00,7.00,0.00,30.09,M,10.00,M,OVC,M,M,M,1500.00,M,M,M,M,KCNC 010235Z AUTO 05007KT 10SM OVC015 06/03 A3009 RMK AO2
CNC,2017-04-01 02:40,-93.3608,41.0184,41.00,37.40,86.89,50.00,6.00,0.00,30.10,M,10.00,M,OVC,M,M,M,1500.00,M,M,M,M,KCNC 010240Z AUTO 05006KT 10SM OVC015 05/03 A3010 RMK AO2
CNC,2017-04-01 02:50,-93.3608,41.0184,41.00,37.40,86.89,60.00,9.00,0.00,30.09,M,10.00,M,OVC,M,M,M,1500.00,M,M,M,M,KCNC 010250Z AUTO 06009KT 10SM OVC015 05/03 A3009 RMK AO2
CNC,2017-04-01 02:55,-93.3608,41.0184,41.00,37.40,86.89,60.00,8.00,0.00,30.09,M,10.00,M,OVC,M,M,M,1500.00,M,M,M,M,KCNC 010255Z AUTO 06008KT 10SM OVC015 05/03 A3009 RMK AO2
CNC,2017-04-01 03:00,-93.3608,41.0184,41.00,37.40,86.89,50.00,9.00,0.00,30.09,M,10.00,M,OVC,M,M,M,1500.00,M,M,M,M,KCNC 010300Z AUTO 05009KT 10SM OVC015 05/03 A3009 RMK AO2
CNC,2017-04-01 03:10,-93.3608,41.0184,41.00,37.40,86.89,50.00,8.00,0.00,30.10,M,10.00,M,OVC,M,M,M,1500.00,M,M,M,M,KCNC 010310Z AUTO 05008KT 10SM OVC015 05/03 A3010 RMK AO2
CNC,2017-04-01 03:15,-93.3608,41.0184,41.00,37.40,86.89,50.00,9.00,0.00,30.09,M,10.00,M,OVC,M,M,M,1500.00,M,M,M,M,KCNC 010315Z AUTO 05009KT 10SM OVC015 05/03 A3009 RMK AO2
CNC,2017-04-01 03:20,-93.3608,41.0184,41.00,37.40,86.89,50.00,7.00,0.00,30.09,M,10.00,M,OVC,M,M,M,1500.00,M,M,M,M,KCNC 010320Z AUTO 05007KT 10SM OVC015 05/03 A3009 RMK AO2
CNC,2017-04-01 03:30,-93.3608,41.0184,41.00,37.40,86.89,50.00,7.00,0.00,30.10,M,10.00,M,OVC,M,M,M,1500.00,M,M,M,M,KCNC 010330Z AUTO 05007KT 10SM OVC015 05/03 A3010 RMK AO2
CNC,2017-04-01 03:35,-93.3608,41.0184,41.00,37.40,86.89,50.00,8.00,0.00,30.10,M,10.00,M,OVC,M,M,M,1500.00,M,M,M,M,KCNC 010335Z AUTO 05008KT 10SM OVC015 05/03 A3010 RMK AO2
CNC,2017-04-01 03:40,-93.3608,41.0184,41.00,37.40,86.89,50.00,8.00,0.00,30.10,M,10.00,M,OVC,M,M,M,1500.00,M,M,M,M,KCNC 010340Z AUTO 05008KT 10SM OVC015 05/03 A3010 RMK AO2
CNC,2017-04-01 03:50,-93.3608,41.0184,41.00,37.40,86.89,60.00,7.00,0.00,30.11,M,10.00,M,OVC,M,M,M,1500.00,M,M,M,M,KCNC 010350Z AUTO 06007KT 10SM OVC015 05/03 A3011 RMK AO2
CNC,2017-04-01 03:55,-93.3608,41.0184,41.00,37.40,86.89,50.00,8.00,0.00,30.11,M,10.00,M,OVC,M,M,M,1500.00,M,M,M,M,KCNC 010355Z AUTO 05008KT 10SM OVC015 05/03 A3011 RMK AO2
CNC,2017-04-01 04:00,-93.3608,41.0184,41.00,37.40,86.89,50.00,8.00,0.00,30.11,M,10.00,M,OVC,M,M,M,1500.00,M,M,M,M,KCNC 010400Z AUTO 05008KT 10SM OVC015 05/03 A3011 RMK AO2
CNC,2017-04-01 04:10,-93.3608,41.0184,41.00,37.40,86.89,60.00,6.00,0.00,30.11,M,10.00,M,OVC,M,M,M,1400.00,M,M,M,M,KCNC 010410Z AUTO 06006KT 10SM OVC014 05/03 A3011 RMK AO2
CNC,2017-04-01 04:15,-93.3608,41.0184,41.00,37.40,86.89,60.00,8.00,0.00,30.11,M,10.00,M,OVC,M,M,M,1400.00,M,M,M,M,KCNC 010415Z AUTO 06008KT 10SM OVC014 05/03 A3011 RMK AO2
CNC,2017-04-01 04:20,-93.3608,41.0184,41.00,37.40,86.89,70.00,6.00,0.00,30.12,M,10.00,M,OVC,M,M,M,1400.00,M,M,M,M,KCNC 010420Z AUTO 07006KT 10SM OVC014 05/03 A3012 RMK AO2
CNC,2017-04-01 04:30,-93.3608,41.0184,41.00,37.40,86.89,70.00,7.00,0.00,30.12,M,10.00,M,OVC,M,M,M,1400.00,M,M,M,M,KCNC 010430Z AUTO 07007KT 10SM OVC014 05/03 A3012 RMK AO2
CNC,2017-04-01 04:35,-93.3608,41.0184,41.00,37.40,86.89,60.00,7.00,0.00,30.12,M,10.00,M,OVC,M,M,M,1400.00,M,M,M,M,KCNC 010435Z AUTO 06007KT 10SM OVC014 05/03 A3012 RMK AO2
CNC,2017-04-01 04:40,-93.3608,41.0184,41.00,37.40,86.89,60.00,6.00,0.00,30.12,M,10.00,M,OVC,M,M,M,1400.00,M,M,M,M,KCNC 010440Z AUTO 06006KT 10SM OVC014 05/03 A3012 RMK AO2
CNC,2017-04-01 04:50,-93.3608,41.0184,41.00,37.40,86.89,60.00,6.00,0.00,30.12,M,10.00,M,OVC,M,M,M,1400.00,M,M,M,M,KCNC 010450Z AUTO 06006KT 10SM OVC014 05/03 A3012 RMK AO2
CNC,2017-04-01 04:55,-93.3608,41.0184,41.00,37.40,86.89,70.00,7.00,0.00,30.12,M,10.00,M,OVC,M,M,M,1400.00,M,M,M,M,KCNC 010455Z AUTO 07007KT 10SM OVC014 05/03 A3012 RMK AO2
CNC,2017-04-01 05:00,-93.3608,41.0184,41.00,37.40,86.89,60.00,5.00,0.00,30.13,M,10.00,M,OVC,M,M,M,1400.00,M,M,M,M,KCNC 010500Z AUTO 06005KT 10SM OVC014 05/03 A3013 RMK AO2
CNC,2017-04-01 05:10,-93.3608,41.0184,41.00,37.40,86.89,90.00,7.00,0.00,30.13,M,10.00,M,OVC,M,M,M,1400.00,M,M,M,M,KCNC 010510Z AUTO 09007KT 10SM OVC014 05/03 A3013 RMK AO2
CNC,2017-04-01 05:15,-93.3608,41.0184,41.00,37.40,86.89,80.00,7.00,0.00,30.13,M,10.00,M,OVC,M,M,M,1300.00,M,M,M,M,KCNC 010515Z AUTO 08007KT 10SM OVC013 05/03 A3013 RMK AO2
CNC,2017-04-01 05:20,-93.3608,41.0184,41.00,37.40,86.89,70.00,7.00,0.00,30.14,M,10.00,M,OVC,M,M,M,1300.00,M,M,M,M,KCNC 010520Z AUTO 07007KT 10SM OVC013 05/03 A3014 RMK AO2
CNC,2017-04-01 05:30,-93.3608,41.0184,41.00,37.40,86.89,80.00,6.00,0.00,30.14,M,10.00,M,OVC,M,M,M,1300.00,M,M,M,M,KCNC 010530Z AUTO 08006KT 10SM OVC013 05/03 A3014 RMK AO2
CNC,2017-04-01 05:35,-93.3608,41.0184,41.00,37.40,86.89,70.00,7.00,0.00,30.14,M,10.00,M,OVC,M,M,M,1300.00,M,M,M,M,KCNC 010535Z AUTO 07007KT 10SM OVC013 05/03 A3014 RMK AO2
CNC,2017-04-01 05:40,-93.3608,41.0184,41.00,37.40,86.89,60.00,7.00,0.00,30.14,M,10.00,M,OVC,M,M,M,1300.00,M,M,M,M,KCNC 010540Z AUTO 06007KT 10SM OVC013 05/03 A3014 RMK AO2
CNC,2017-04-01 05:50,-93.3608,41.0184,41.00,37.40,86.89,70.00,5.00,0.00,30.14,M,10.00,M,OVC,M,M,M,1300.00,M,M,M,M,KCNC 010550Z AUTO 07005KT 10SM OVC013 05/03 A3014 RMK AO2
CNC,2017-04-01 05:55,-93.3608,41.0184,41.00,37.40,86.89,60.00,6.00,0.00,30.14,M,10.00,M,OVC,M,M,M,1300.00,M,M,M,M,KCNC 010555Z AUTO 06006KT 10SM OVC013 05/03 A3014 RMK AO2
CNC,2017-04-01 06:00,-93.3608,41.0184,41.00,37.40,86.89,60.00,5.00,0.00,30.14,M,10.00,M,OVC,M,M,M,1300.00,M,M,M,M,KCNC 010600Z AUTO 06005KT 10SM OVC013 05/03 A3014 RMK AO2
CNC,2017-04-01 06:10,-93.3608,41.0184,41.00,37.40,86.89,90.00,4.00,0.00,30.14,M,10.00,M,OVC,M,M,M,1300.00,M,M,M,M,KCNC 010610Z AUTO 09004KT 10SM OVC013 05/03 A3014 RMK AO2
CNC,2017-04-01 06:15,-93.3608,41.0184,41.00,37.40,86.89,100.00,4.00,0.00,30.14,M,10.00,M,OVC,M,M,M,1300.00,M,M,M,M,KCNC 010615Z AUTO 10004KT 10SM OVC013 05/03 A3014 RMK AO2
CNC,2017-04-01 06:20,-93.3608,41.0184,41.00,37.40,86.89,100.00,4.00,0.00,30.14,M,10.00,M,OVC,M,M,M,1300.00,M,M,M,M,KCNC 010620Z AUTO 10004KT 10SM OVC013 05/03 A3014 RMK AO2
CNC,2017-04-01 06:30,-93.3608,41.0184,41.00,37.40,86.89,70.00,5.00,0.00,30.14,M,10.00,M,OVC,M,M,M,1400.00,M,M,M,M,KCNC 010630Z AUTO 07005KT 10SM OVC014 05/03 A3014 RMK AO2
CNC,2017-04-01 06:35,-93.3608,41.0184,41.00,37.40,86.89,90.00,5.00,0.00,30.15,M,10.00,M,OVC,M,M,M,1400.00,M,M,M,M,KCNC 010635Z AUTO 09005KT 10SM OVC014 05/03 A3015 RMK AO2
CNC,2017-04-01 06:40,-93.3608,41.0184,41.00,37.40,86.89,0.00,0.00,0.00,30.15,M,10.00,M,OVC,M,M,M,1400.00,M,M,M,M,KCNC 010640Z AUTO 00000KT 10SM OVC014 05/03 A3015 RMK AO2
CNC,2017-04-01 06:50,-93.3608,41.0184,41.00,37.40,86.89,0.00,0.00,0.00,30.16,M,10.00,M,OVC,M,M,M,1400.00,M,M,M,M,KCNC 010650Z AUTO 00000KT 10SM OVC014 05/03 A3016 RMK AO2
CNC,2017-04-01 06:55,-93.3608,41.0184,41.00,37.40,86.89,0.00,0.00,0.00,30.16,M,10.00,M,OVC,M,M,M,1500.00,M,M,M,M,KCNC 010655Z AUTO 00000KT 10SM OVC015 05/03 A3016 RMK AO2
CNC,2017-04-01 07:00,-93.3608,41.0184,41.00,37.40,86.89,0.00,0.00,0.00,30.16,M,10.00,M,OVC,M,M,M,1500.00,M,M,M,M,KCNC 010700Z AUTO 00000KT 10SM OVC015 05/03 A3016 RMK AO2
CNC,2017-04-01 07:10,-93.3608,41.0184,41.00,37.40,86.89,0.00,0.00,0.00,30.16,M,10.00,M,OVC,M,M,M,1600.00,M,M,M,M,KCNC 010710Z AUTO 00000KT 10SM OVC016 05/03 A3016 RMK AO2
CNC,2017-04-01 07:15,-93.3608,41.0184,41.00,37.40,86.89,0.00,0.00,0.00,30.16,M,10.00,M,OVC,M,M,M,1700.00,M,M,M,M,KCNC 010715Z AUTO 00000KT 10SM OVC017 05/03 A3016 RMK AO2
CNC,2017-04-01 07:20,-93.3608,41.0184,41.00,37.40,86.89,0.00,0.00,0.00,30.16,M,10.00,M,OVC,M,M,M,1700.00,M,M,M,M,KCNC 010720Z AUTO 00000KT 10SM OVC017 05/03 A3016 RMK AO2
CNC,2017-04-01 07:30,-93.3608,41.0184,39.20,37.40,93.19,0.00,0.00,0.00,30.17,M,10.00,M,OVC,M,M,M,1800.00,M,M,M,M,KCNC 010730Z AUTO 00000KT 10SM OVC018 04/03 A3017 RMK AO2
CNC,2017-04-01 07:35,-93.3608,41.0184,39.20,37.40,93.19,0.00,0.00,0.00,30.17,M,10.00,M,OVC,M,M,M,1700.00,M,M,M,M,KCNC 010735Z AUTO 00000KT 10SM OVC017 04/03 A3017 RMK AO2
CNC,2017-04-01 07:40,-93.3608,41.0184,39.20,37.40,93.19,0.00,0.00,0.00,30.17,M,10.00,M,OVC,M,M,M,1700.00,M,M,M,M,KCNC 010740Z AUTO 00000KT 10SM OVC017 04/03 A3017 RMK AO2
CNC,2017-04-01 07:50,-93.3608,41.0184,39.20,37.40,93.19,0.00,0.00,0.00,30.17,M,10.00,M,OVC,M,M,M,1700.00,M,M,M,M,KCNC 010750Z AUTO 00000KT 10SM OVC017 04/03 A3017 RMK AO2
CNC,2017-04-01 07:55,-93.3608,41.0184,39.20,37.40,93.19,310.00,3.00,0.00,30.17,M,10.00,M,OVC,M,M,M,1700.00,M,M,M,M,KCNC 010755Z AUTO 31003KT 10SM OVC017 04/03 A3017 RMK AO2
CNC,2017-04-01 08:00,-93.3608,41.0184,39.20,37.40,93.19,0.00,0.00,0.00,30.17,M,10.00,M,OVC,M,M,M,1700.00,M,M,M,M,KCNC 010800Z AUTO 00000KT 10SM OVC017 04/03 A3017 RMK AO2
CNC,2017-04-01 08:10,-93.3608,41.0184,39.20,37.40,93.19,0.00,0.00,0.00,30.17,M,10.00,M,OVC,M,M,M,1700.00,M,M,M,M,KCNC 010810Z AUTO 00000KT 10SM OVC017 04/03 A3017 RMK AO2
CNC,2017-04-01 08:15,-93.3608,41.0184,39.20,37.40,93.19,0.00,0.00,0.00,30.17,M,10.00,M,OVC,M,M,M,1700.00,M,M,M,M,KCNC 010815Z AUTO 00000KT 10SM OVC017 04/03 A3017 RMK AO2
CNC,2017-04-01 08:20,-93.3608,41.0184,39.20,37.40,93.19,0.00,0.00,0.00,30.17,M,10.00,M,OVC,M,M,M,1700.00,M,M,M,M,KCNC 010820Z AUTO 00000KT 10SM OVC017 04/03 A3017 RMK AO2
CNC,2017-04-01 08:30,-93.3608,41.0184,39.20,37.40,93.19,330.00,3.00,0.00,30.17,M,10.00,M,OVC,M,M,M,1700.00,M,M,M,M,KCNC 010830Z AUTO 33003KT 10SM OVC017 04/03 A3017 RMK AO2
CNC,2017-04-01 08:35,-93.3608,41.0184,39.20,37.40,93.19,0.00,0.00,0.00,30.17,M,10.00,M,OVC,M,M,M,1700.00,M,M,M,M,KCNC 010835Z AUTO 00000KT 10SM OVC017 04/03 A3017 RMK AO2
CNC,2017-04-01 08:40,-93.3608,41.0184,39.20,37.40,93.19,0.00,0.00,0.00,30.16,M,10.00,M,OVC,M,M,M,1700.00,M,M,M,M,KCNC 010840Z AUTO 00000KT 10SM OVC017 04/03 A3016 RMK AO2
CNC,2017-04-01 08:50,-93.3608,41.0184,39.20,37.40,93.19,20.00,3.00,0.00,30.16,M,10.00,M,OVC,M,M,M,1600.00,M,M,M,M,KCNC 010850Z AUTO 02003KT 10SM OVC016 04/03 A3016 RMK AO2
CNC,2017-04-01 08:55,-93.3608,41.0184,39.20,35.60,86.79,0.00,0.00,0.00,30.16,M,10.00,M,OVC,M,M,M,1600.00,M,M,M,M,KCNC 010855Z AUTO 00000KT 10SM OVC016 04/02 A3016 RMK AO2
CNC,2017-04-01 09:00,-93.3608,41.0184,37.40,35.60,93.14,30.00,3.00,0.00,30.16,M,10.00,M,OVC,M,M,M,1600.00,M,M,M,M,KCNC 010900Z AUTO 03003KT 10SM OVC016 03/02 A3016 RMK AO2
CNC,2017-04-01 09:10,-93.3608,41.0184,39.20,35.60,86.79,50.00,3.00,0.00,30.16,M,10.00,M,OVC,M,M,M,1600.00,M,M,M,M,KCNC 010910Z AUTO 05003KT 10SM OVC016 04/02 A3016 RMK AO2
CNC,2017-04-01 09:15,-93.3608,41.0184,39.20,35.60,86.79,0.00,0.00,0.00,30.16,M,10.00,M,OVC,M,M,M,1600.00,M,M,M,M,KCNC 010915Z AUTO 00000KT 10SM OVC016 04/02 A3016 RMK AO2
CNC,2017-04-01 09:20,-93.3608,41.0184,37.40,35.60,93.14,0.00,0.00,0.00,30.17,M,10.00,M,BKN,M,M,M,1600.00,M,M,M,M,KCNC 010920Z AUTO 00000KT 10SM BKN016 03/02 A3017 RMK AO2
CNC,2017-04-01 09:30,-93.3608,41.0184,37.40,35.60,93.14,0.00,0.00,0.00,30.17,M,10.00,M,SCT,M,M,M,1500.00,M,M,M,M,KCNC 010930Z AUTO 00000KT 10SM SCT015 03/02 A3017 RMK AO2
CNC,2017-04-01 09:35,-93.3608,41.0184,37.40,35.60,93.14,30.00,3.00,0.00,30.16,M,10.00,M,SCT,M,M,M,1600.00,M,M,M,M,KCNC 010935Z AUTO 03003KT 10SM SCT016 03/02 A3016 RMK AO2
CNC,2017-04-01 09:40,-93.3608,41.0184,37.40,35.60,93.14,20.00,4.00,0.00,30.16,M,10.00,M,FEW,M,M,M,1500.00,M,M,M,M,KCNC 010940Z AUTO 02004KT 10SM FEW015 03/02 A3016 RMK AO2
CNC,2017-04-01 09:50,-93.3608,41.0184,37.40,35.60,93.14,20.00,3.00,0.00,30.17,M,10.00,M,CLR,M,M,M,M,M,M,M,M,KCNC 010950Z AUTO 02003KT 10SM CLR 03/02 A3017 RMK AO2
CNC,2017-04-01 09:55,-93.3608,41.0184,37.40,35.60,93.14,30.00,3.00,0.00,30.17,M,10.00,M,CLR,M,M,M,M,M,M,M,M,KCNC 010955Z AUTO 03003KT 10SM CLR 03/02 A3017 RMK AO2
CNC,2017-04-01 10:00,-93.3608,41.0184,37.40,35.60,93.14,30.00,4.00,0.00,30.17,M,10.00,M,CLR,M,M,M,M,M,M,M,M,KCNC 011000Z AUTO 03004KT 10SM CLR 03/02 A3017 RMK AO2
CNC,2017-04-01 10:10,-93.3608,41.0184,37.40,35.60,93.14,40.00,3.00,0.00,30.17,M,10.00,M,CLR,M,M,M,M,M,M,M,M,KCNC 011010Z AUTO 04003KT 10SM CLR 03/02 A3017 RMK AO2
CNC,2017-04-01 10:15,-93.3608,41.0184,37.40,35.60,93.14,40.00,4.00,0.00,30.17,M,10.00,M,CLR,M,M,M,M,M,M,M,M,KCNC 011015Z AUTO 04004KT 10SM CLR 03/02 A3017 RMK AO2
CNC,2017-04-01 10:20,-93.3608,41.0184,37.40,35.60,93.14,30.00,3.00,0.00,30.18,M,10.00,M,CLR,M,M,M,M,M,M,M,M,KCNC 011020Z AUTO 03003KT 10SM CLR 03/02 A3018 RMK AO2
CNC,2017-04-01 10:30,-93.3608,41.0184,37.40,35.60,93.14,0.00,0.00,0.00,30.18,M,10.00,M,CLR,M,M,M,M,M,M,M,M,KCNC 011030Z AUTO 00000KT 10SM CLR 03/02 A3018 RMK AO2
CNC,2017-04-01 10:35,-93.3608,41.0184,37.40,35.60,93.14,0.00,0.00,0.00,30.19,M,10.00,M,CLR,M,M,M,M,M,M,M,M,KCNC 011035Z AUTO 00000KT 10SM CLR 03/02 A3019 RMK AO2
CNC,2017-04-01 10:40,-93.3608,41.0184,37.40,35.60,93.14,0.00,0.00,0.00,30.19,M,10.00,M,CLR,M,M,M,M,M,M,M,M,KCNC 011040Z AUTO 00000KT 10SM CLR 03/02 A3019 RMK AO2
CNC,2017-04-01 10:50,-93.3608,41.0184,37.40,35.60,93.14,0.00,0.00,0.00,30.19,M,10.00,M,CLR,M,M,M,M,M,M,M,M,KCNC 011050Z AUTO 00000KT 10SM CLR 03/02 A3019 RMK AO2
CNC,2017-04-01 10:55,-93.3608,41.0184,37.40,35.60,93.14,350.00,3.00,0.00,30.20,M,10.00,M,CLR,M,M,M,M,M,M,M,M,KCNC 011055Z AUTO 35003KT 10SM CLR 03/02 A3020 RMK AO2
CNC,2017-04-01 11:00,-93.3608,41.0184,37.40,35.60,93.14,340.00,4.00,0.00,30.20,M,M,M,M,M,M,M,M,M,M,M,M,KCNC 011100Z AUTO 34004KT 03/02 A3020 RMK AO2
CNC,2017-04-01 11:10,-93.3608,41.0184,35.60,35.60,100.00,360.00,5.00,0.00,30.20,M,M,M,M,M,M,M,M,M,M,M,M,KCNC 011110Z AUTO 36005KT 02/02 A3020 RMK AO2
CNC,2017-04-01 11:15,-93.3608,41.0184,35.60,35.60,100.00,360.00,4.00,0.00,30.20,M,10.00,M,CLR,M,M,M,M,M,M,M,M,KCNC 011115Z AUTO 36004KT 10SM CLR 02/02 A3020 RMK AO2
CNC,2017-04-01 11:20,-93.3608,41.0184,35.60,35.60,100.00,350.00,4.00,0.00,30.21,M,10.00,M,CLR,M,M,M,M,M,M,M,M,KCNC 011120Z AUTO 35004KT 10SM CLR 02/02 A3021 RMK AO2
CNC,2017-04-01 11:30,-93.3608,41.0184,35.60,35.60,100.00,360.00,3.00,0.00,30.21,M,10.00,M,CLR,M,M,M,M,M,M,M,M,KCNC 011130Z AUTO 36003KT 10SM CLR 02/02 A3021 RMK AO2
CNC,2017-04-01 11:35,-93.3608,41.0184,35.60,35.60,100.00,360.00,3.00,0.00,30.21,M,10.00,M,CLR,M,M,M,M,M,M,M,M,KCNC 011135Z AUTO 36003KT 10SM CLR 02/02 A3021 RMK AO2
CNC,2017-04-01 11:40,-93.3608,41.0184,35.60,35.60,100.00,360.00,3.00,0.00,30.21,M,10.00,M,CLR,M,M,M,M,M,M,M,M,KCNC 011140Z AUTO 36003KT 10SM CLR 02/02 A3021 RMK AO2
CNC,2017-04-01 11:50,-93.3608,41.0184,35.60,35.60,100.00,10.00,4.00,0.00,30.21,M,10.00,M,CLR,M,M,M,M,M,M,M,M,KCNC 011150Z AUTO 01004KT 10SM CLR 02/02 A3021 RMK AO2
CNC,2017-04-01 11:55,-93.3608,41.0184,37.40,35.60,93.14,360.00,4.00,0.00,30.22,M,10.00,M,CLR,M,M,M,M,M,M,M,M,KCNC 011155Z AUTO 36004KT 10SM CLR 03/02 A3022 RMK AO2
CNC,2017-04-01 12:00,-93.3608,41.0184,37.40,35.60,93.14,360.00,5.00,0.00,30.22,M,10.00,M,CLR,M,M,M,M,M,M,M,M,KCNC 011200Z AUTO 36005KT 10SM CLR 03/02 A3022 RMK AO2
CNC,2017-04-01 12:10,-93.3608,41.0184,37.40,35.60,93.14,10.00,5.00,0.00,30.22,M,9.00,M,CLR,M,M,M,M,M,M,M,M,KCNC 011210Z AUTO 01005KT 9SM CLR 03/02 A3022 RMK AO2
CNC,2017-04-01 12:15,-93.3608,41.0184,37.40,35.60,93.14,10.00,4.00,0.00,30.23,M,9.00,M,CLR,M,M,M,M,M,M,M,M,KCNC 011215Z AUTO 01004KT 9SM CLR 03/02 A3023 RMK AO2
CNC,2017-04-01 12:20,-93.3608,41.0184,37.40,35.60,93.14,20.00,3.00,0.00,30.23,M,10.00,M,CLR,M,M,M,M,M,M,M,M,KCNC 011220Z AUTO 02003KT 10SM CLR 03/02 A3023 RMK AO2
CNC,2017-04-01 12:30,-93.3608,41.0184,37.40,35.60,93.14,10.00,4.00,0.00,30.23,M,10.00,M,CLR,M,M,M,M,M,M,M,M,KCNC 011230Z AUTO 01004KT 10SM CLR 03/02 A3023 RMK AO2
CNC,2017-04-01 12:35,-93.3608,41.0184,37.40,35.60,93.14,20.00,4.00,0.00,30.23,M,10.00,M,CLR,M,M,M,M,M,M,M,M,KCNC 011235Z AUTO 02004KT 10SM CLR 03/02 A3023 RMK AO2
CNC,2017-04-01 12:40,-93.3608,41.0184,37.40,35.60,93.14,30.00,5.00,0.00,30.23,M,10.00,M,CLR,M,M,M,M,M,M,M,M,KCNC 011240Z AUTO 03005KT 10SM CLR 03/02 A3023 RMK AO2
CNC,2017-04-01 12:50,-93.3608,41.0184,37.40,35.60,93.14,30.00,4.00,0.00,30.23,M,10.00,M,CLR,M,M,M,M,M,M,M,M,KCNC 011250Z AUTO 03004KT 10SM CLR 03/02 A3023 RMK AO2
CNC,2017-04-01 12:55,-93.3608,41.0184,37.40,35.60,93.14,30.00,4.00,0.00,30.23,M,10.00,M,CLR,M,M,M,M,M,M,M,M,KCNC 011255Z AUTO 03004KT 10SM CLR 03/02 A3023 RMK AO2
CNC,2017-04-01 13:00,-93.3608,41.0184,37.40,35.60,93.14,40.00,4.00,0.00,30.23,M,10.00,M,CLR,M,M,M,M,M,M,M,M,KCNC 011300Z AUTO 04004KT 10SM CLR 03/02 A3023 RMK AO2
CNC,2017-04-01 13:10,-93.3608,41.0184,37.40,35.60,93.14,30.00,4.00,0.00,30.24,M,10.00,M,CLR,M,M,M,M,M,M,M,M,KCNC 011310Z AUTO 03004KT 10SM CLR 03/02 A3024 RMK AO2
CNC,2017-04-01 13:15,-93.3608,41.0184,37.40,37.40,100.00,30.00,4.00,0.00,30.24,M,10.00,M,CLR,M,M,M,M,M,M,M,M,KCNC 011315Z AUTO 03004KT 10SM CLR 03/03 A3024 RMK AO2
CNC,2017-04-01 13:20,-93.3608,41.0184,39.20,37.40,93.19,0.00,0.00,0.00,30.24,M,10.00,M,CLR,M,M,M,M,M,M,M,M,KCNC 011320Z AUTO 00000KT 10SM CLR 04/03 A3024 RMK AO2
CNC,2017-04-01 13:30,-93.3608,41.0184,39.20,37.40,93.19,30.00,3.00,0.00,30.24,M,10.00,M,CLR,M,M,M,M,M,M,M,M,KCNC 011330Z AUTO 03003KT 10SM CLR 04/03 A3024 RMK AO2
CNC,2017-04-01 13:35,-93.3608,41.0184,39.20,37.40,93.19,40.00,3.00,0.00,30.24,M,10.00,M,CLR,M,M,M,M,M,M,M,M,KCNC 011335Z AUTO 04003KT 10SM CLR 04/03 A3024 RMK AO2
CNC,2017-04-01 13:40,-93.3608,41.0184,39.20,37.40,93.19,40.00,4.00,0.00,30.24,M,10.00,M,CLR,M,M,M,M,M,M,M,M,KCNC 011340Z AUTO 04004KT 10SM CLR 04/03 A3024 RMK AO2
CNC,2017-04-01 13:50,-93.3608,41.0184,39.20,37.40,93.19,50.00,5.00,0.00,30.24,M,10.00,M,CLR,M,M,M,M,M,M,M,M,KCNC 011350Z AUTO 05005KT 10SM CLR 04/03 A3024 RMK AO2
CNC,2017-04-01 13:55,-93.3608,41.0184,39.20,37.40,93.19,40.00,6.00,0.00,30.23,M,10.00,M,CLR,M,M,M,M,M,M,M,M,KCNC 011355Z AUTO 04006KT 10SM CLR 04/03 A3023 RMK AO2
CNC,2017-04-01 14:00,-93.3608,41.0184,41.00,37.40,86.89,50.00,5.00,0.00,30.23,M,10.00,M,CLR,M,M,M,M,M,M,M,M,KCNC 011400Z AUTO 05005KT 10SM CLR 05/03 A3023 RMK AO2
CNC,2017-04-01 14:10,-93.3608,41.0184,41.00,37.40,86.89,40.00,6.00,0.00,30.24,M,10.00,M,CLR,M,M,M,M,M,M,M,M,KCNC 011410Z AUTO 04006KT 10SM CLR 05/03 A3024 RMK AO2
CNC,2017-04-01 14:15,-93.3608,41.0184,41.00,37.40,86.89,40.00,7.00,0.00,30.24,M,10.00,M,CLR,M,M,M,M,M,M,M,M,KCNC 011415Z AUTO 04007KT 10SM CLR 05/03 A3024 RMK AO2
CNC,2017-04-01 14:20,-93.3608,41.0184,41.00,37.40,86.89,50.00,6.00,0.00,30.24,M,10.00,M,CLR,M,M,M,M,M,M,M,M,KCNC 011420Z AUTO 05006KT 10SM CLR 05/03 A3024 RMK AO2
CNC,2017-04-01 14:30,-93.3608,41.0184,42.80,37.40,81.07,50.00,7.00,0.00,30.23,M,10.00,M,CLR,M,M,M,M,M,M,M,M,KCNC 011430Z AUTO 05007KT 10SM CLR 06/03 A3023 RMK AO2
CNC,2017-04-01 14:35,-93.3608,41.0184,42.80,37.40,81.07,50.00,7.00,0.00,30.23,M,10.00,M,CLR,M,M,M,M,M,M,M,M,KCNC 011435Z AUTO 05007KT 10SM CLR 06/03 A3023 RMK AO2
CNC,2017-04-01 14:40,-93.3608,41.0184,42.80,37.40,81.07,60.00,7.00,0.00,30.23,M,10.00,M,CLR,M,M,M,M,M,M,M,M,KCNC 011440Z AUTO 06007KT 10SM CLR 06/03 A3023 RMK AO2
CNC,2017-04-01 14:50,-93.3608,41.0184,42.80,39.20,86.99,70.00,7.00,0.00,30.23,M,10.00,M,CLR,M,M,M,M,M,M,M,M,KCNC 011450Z AUTO 07007KT 10SM CLR 06/04 A3023 RMK AO2
CNC,2017-04-01 14:55,-93.3608,41.0184,42.80,39.20,86.99,50.00,6.00,0.00,30.23,M,10.00,M,CLR,M,M,M,M,M,M,M,M,KCNC 011455Z AUTO 05006KT 10SM CLR 06/04 A3023 RMK AO2
CNC,2017-04-01 15:00,-93.3608,41.0184,44.60,39.20,81.20,70.00,5.00,0.00,30.24,M,10.00,M,CLR,M,M,M,M,M,M,M,M,KCNC 011500Z AUTO 07005KT 10SM CLR 07/04 A3024 RMK AO2
CNC,2017-04-01 15:10,-93.3608,41.0184,44.60,37.40,75.68,0.00,0.00,0.00,30.25,M,10.00,M,CLR,M,M,M,M,M,M,M,M,KCNC 011510Z AUTO 00000KT 10SM CLR 07/03 A3025 RMK AO2
CNC,2017-04-01 15:15,-93.3608,41.0184,44.60,37.40,75.68,M,4.00,0.00,30.25,M,10.00,M,CLR,M,M,M,M,M,M,M,M,KCNC 011515Z AUTO VRB04KT 10SM CLR 07/03 A3025 RMK AO2
CNC,2017-04-01 15:20,-93.3608,41.0184,44.60,39.20,81.20,60.00,4.00,0.00,30.25,M,10.00,M,CLR,M,M,M,M,M,M,M,M,KCNC 011520Z AUTO 06004KT 10SM CLR 07/04 A3025 RMK AO2
CNC,2017-04-01 15:30,-93.3608,41.0184,44.60,37.40,75.68,90.00,5.00,0.00,30.25,M,10.00,M,CLR,M,M,M,M,M,M,M,M,KCNC 011530Z AUTO 09005KT 10SM CLR 07/03 A3025 RMK AO2
CNC,2017-04-01 15:35,-93.3608,41.0184,44.60,37.40,75.68,90.00,5.00,0.00,30.24,M,10.00,M,CLR,M,M,M,M,M,M,M,M,KCNC 011535Z AUTO 09005KT 10SM CLR 07/03 A3024 RMK AO2
CNC,2017-04-01 15:40,-93.3608,41.0184,46.40,37.40,70.68,110.00,5.00,0.00,30.25,M,10.00,M,CLR,M,M,M,M,M,M,M,M,KCNC 011540Z AUTO 11005KT 10SM CLR 08/03 A3025 RMK AO2
CNC,2017-04-01 15:50,-93.3608,41.0184,46.40,35.60,65.83,M,M,0.00,30.25,M,10.00,M,CLR,M,M,M,M,M,M,M,M,KCNC 011550Z AUTO 10SM CLR 08/02 A3025 RMK AO2
CNC,2017-04-01 15:55,-93.3608,41.0184,46.40,37.40,70.68,100.00,5.00,0.00,30.25,M,10.00,M,CLR,M,M,M,M,M,M,M,M,KCNC 011555Z AUTO 10005KT 10SM CLR 08/03 A3025 RMK AO2
CNC,2017-04-01 16:00,-93.3608,41.0184,46.40,37.40,70.68,90.00,5.00,0.00,30.25,M,10.00,M,CLR,M,M,M,M,M,M,M,M,KCNC 011600Z AUTO 09005KT 10SM CLR 08/03 A3025 RMK AO2
CNC,2017-04-01 16:10,-93.3608,41.0184,46.40,35.60,65.83,130.00,5.00,0.00,30.25,M,10.00,M,CLR,M,M,M,M,M,M,M,M,KCNC 011610Z AUTO 13005KT 10SM CLR 08/02 A3025 RMK AO2
CNC,2017-04-01 16:15,-93.3608,41.0184,46.40,37.40,70.68,140.00,6.00,0.00,30.25,M,10.00,M,CLR,M,M,M,M,M,M,M,M,KCNC 011615Z AUTO 14006KT 10SM CLR 08/03 A3025 RMK AO2
CNC,2017-04-01 16:20,-93.3608,41.0184,48.20,37.40,66.05,140.00,4.00,0.00,30.25,M,10.00,M,CLR,M,M,M,M,M,M,M,M,KCNC 011620Z AUTO 14004KT 10SM CLR 09/03 A3025 RMK AO2
CNC,2017-04-01 16:30,-93.3608,41.0184,48.20,35.60,61.52,80.00,6.00,0.00,30.25,M,10.00,M,CLR,M,M,M,M,M,M,M,M,KCNC 011630Z AUTO 08006KT 10SM CLR 09/02 A3025 RMK AO2
CNC,2017-04-01 16:35,-93.3608,41.0184,48.20,35.60,61.52,120.00,6.00,0.00,30.25,M,10.00,M,CLR,M,M,M,M,M,M,M,M,KCNC 011635Z AUTO 12006KT 10SM CLR 09/02 A3025 RMK AO2
CNC,2017-04-01 16:40,-93.3608,41.0184,48.20,35.60,61.52,100.00,9.00,0.00,30.25,M,10.00,M,CLR,M,M,M,M,M,M,M,M,KCNC 011640Z AUTO 10009KT 10SM CLR 09/02 A3025 RMK AO2
CNC,2017-04-01 16:50,-93.3608,41.0184,48.20,35.60,61.52,120.00,4.00,0.00,30.25,M,10.00,10.00,CLR,M,M,M,M,M,M,M,M,KCNC 011650Z AUTO 12004G10KT 10SM CLR 09/02 A3025 RMK AO2
CNC,2017-04-01 16:55,-93.3608,41.0184,48.20,37.40,66.05,100.00,7.00,0.00,30.24,M,10.00,M,CLR,M,M,M,M,M,M,M,M,KCNC 011655Z AUTO 10007KT 10SM CLR 09/03 A3024 RMK AO2
CNC,2017-04-01 17:00,-93.3608,41.0184,48.20,37.40,66.05,120.00,6.00,0.00,30.24,M,10.00,M,CLR,M,M,M,M,M,M,M,M,KCNC 011700Z AUTO 12006KT 10SM CLR 09/03 A3024 RMK AO2
CNC,2017-04-01 17:10,-93.3608,41.0184,50.00,37.40,61.76,120.00,8.00,0.00,30.24,M,10.00,M,CLR,M,M,M,M,M,M,M,M,KCNC 011710Z AUTO 12008KT 10SM CLR 10/03 A3024 RMK AO2
CNC,2017-04-01 17:15,-93.3608,41.0184,50.00,37.40,61.76,120.00,9.00,0.00,30.23,M,10.00,M,CLR,M,M,M,M,M,M,M,M,KCNC 011715Z AUTO 12009KT 10SM CLR 10/03 A3023 RMK AO2
CNC,2017-04-01 17:20,-93.3608,41.0184,50.00,37.40,61.76,140.00,6.00,0.00,30.24,M,10.00,M,CLR,M,M,M,M,M,M,M,M,KCNC 011720Z AUTO 14006KT 10SM CLR 10/03 A3024 RMK AO2
CNC,2017-04-01 17:30,-93.3608,41.0184,50.00,37.40,61.76,100.00,9.00,0.00,30.23,M,10.00,M,CLR,M,M,M,M,M,M,M,M,KCNC 011730Z AUTO 10009KT 10SM CLR 10/03 A3023 RMK AO2
CNC,2017-04-01 17:35,-93.3608,41.0184,50.00,35.60,57.52,M,5.00,0.00,30.23,M,10.00,11.00,CLR,M,M,M,M,M,M,M,M,KCNC 011735Z AUTO VRB05G11KT 10SM CLR 10/02 A3023 RMK AO2
CNC,2017-04-01 17:40,-93.3608,41.0184,50.00,37.40,61.76,100.00,7.00,0.00,30.23,M,10.00,M,CLR,M,M,M,M,M,M,M,M,KCNC 011740Z AUTO 10007KT 10SM CLR 10/03 A3023 RMK AO2
CNC,2017-04-01 17:50,-93.3608,41.0184,50.00,37.40,61.76,90.00,6.00,0.00,30.23,M,10.00,M,CLR,M,M,M,M,M,M,M,M,KCNC 011750Z AUTO 09006KT 10SM CLR 10/03 A3023 RMK AO2
CNC,2017-04-01 17:55,-93.3608,41.0184,50.00,37.40,61.76,110.00,6.00,0.00,30.23,M,10.00,M,CLR,M,M,M,M,M,M,M,M,KCNC 011755Z AUTO 11006KT 10SM CLR 10/03 A3023 RMK AO2
CNC,2017-04-01 18:00,-93.3608,41.0184,51.80,37.40,57.77,100.00,7.00,0.00,30.23,M,10.00,M,CLR,M,M,M,M,M,M,M,M,KCNC 011800Z AUTO 10007KT 10SM CLR 11/03 A3023 RMK AO2
CNC,2017-04-01 18:10,-93.3608,41.0184,51.80,35.60,53.81,130.00,7.00,0.00,30.23,M,10.00,M,CLR,M,M,M,M,M,M,M,M,KCNC 011810Z AUTO 13007KT 10SM CLR 11/02 A3023 RMK AO2
CNC,2017-04-01 18:15,-93.3608,41.0184,50.00,37.40,61.76,150.00,6.00,0.00,30.23,M,10.00,M,CLR,M,M,M,M,M,M,M,M,KCNC 011815Z AUTO 15006KT 10SM CLR 10/03 A3023 RMK AO2
CNC,2017-04-01 18:20,-93.3608,41.0184,51.80,37.40,57.77,150.00,5.00,0.00,30.23,M,10.00,M,CLR,M,M,M,M,M,M,M,M,KCNC 011820Z AUTO 15005KT 10SM CLR 11/03 A3023 RMK AO2
CNC,2017-04-01 18:30,-93.3608,41.0184,51.80,37.40,57.77,120.00,8.00,0.00,30.21,M,10.00,M,CLR,M,M,M,M,M,M,M,M,KCNC 011830Z AUTO 12008KT 10SM CLR 11/03 A3021 RMK AO2
CNC,2017-04-01 18:35,-93.3608,41.0184,51.80,37.40,57.77,140.00,8.00,0.00,30.21,M,10.00,M,CLR,M,M,M,M,M,M,M,M,KCNC 011835Z AUTO 14008KT 10SM CLR 11/03 A3021 RMK AO2
CNC,2017-04-01 18:40,-93.3608,41.0184,51.80,35.60,53.81,130.00,8.00,0.00,30.22,M,10.00,M,CLR,M,M,M,M,M,M,M,M,KCNC 011840Z AUTO 13008KT 10SM CLR 11/02 A3022 RMK AO2
CNC,2017-04-01 18:50,-93.3608,41.0184,51.80,35.60,53.81,130.00,7.00,0.00,30.22,M,10.00,M,CLR,M,M,M,M,M,M,M,M,KCNC 011850Z AUTO 13007KT 10SM CLR 11/02 A3022 RMK AO2
CNC,2017-04-01 18:55,-93.3608,41.0184,51.80,35.60,53.81,130.00,6.00,0.00,30.22,M,10.00,M,CLR,M,M,M,M,M,M,M,M,KCNC 011855Z AUTO 13006KT 10SM CLR 11/02 A3022 RMK AO2
CNC,2017-04-01 19:00,-93.3608,41.0184,51.80,35.60,53.81,100.00,9.00,0.00,30.20,M,10.00,M,CLR,M,M,M,M,M,M,M,M,KCNC 011900Z AUTO 10009KT 10SM CLR 11/02 A3020 RMK AO2
CNC,2017-04-01 19:10,-93.3608,41.0184,51.80,37.40,57.77,120.00,9.00,0.00,30.19,M,10.00,M,CLR,M,M,M,M,M,M,M,M,KCNC 011910Z AUTO 12009KT 10SM CLR 11/03 A3019 RMK AO2
CNC,2017-04-01 19:15,-93.3608,41.0184,51.80,35.60,53.81,120.00,8.00,0.00,30.19,M,10.00,13.00,CLR,M,M,M,M,M,M,M,M,KCNC 011915Z AUTO 12008G13KT 10SM CLR 11/02 A3019 RMK AO2
CNC,2017-04-01 19:20,-93.3608,41.0184,51.80,35.60,53.81,100.00,7.00,0.00,30.20,M,10.00,13.00,CLR,M,M,M,M,M,M,M,M,KCNC 011920Z AUTO 10007G13KT 10SM CLR 11/02 A3020 RMK AO2
CNC,2017-04-01 19:30,-93.3608,41.0184,51.80,35.60,53.81,140.00,5.00,0.00,30.20,M,10.00,M,CLR,M,M,M,M,M,M,M,M,KCNC 011930Z AUTO 14005KT 10SM CLR 11/02 A3020 RMK AO2
CNC,2017-04-01 19:35,-93.3608,41.0184,51.80,35.60,53.81,130.00,7.00,0.00,30.20,M,10.00,M,CLR,M,M,M,M,M,M,M,M,KCNC 011935Z AUTO 13007KT 10SM CLR 11/02 A3020 RMK AO2
CNC,2017-04-01 19:40,-93.3608,41.0184,51.80,35.60,53.81,120.00,8.00,0.00,30.19,M,10.00,M,CLR,M,M,M,M,M,M,M,M,KCNC 011940Z AUTO 12008KT 10SM CLR 11/02 A3019 RMK AO2
CNC,2017-04-01 19:50,-93.3608,41.0184,51.80,35.60,53.81,140.00,6.00,0.00,30.19,M,10.00,M,CLR,M,M,M,M,M,M,M,M,KCNC 011950Z AUTO 14006KT 10SM CLR 11/02 A3019 RMK AO2
CNC,2017-04-01 19:55,-93.3608,41.0184,51.80,37.40,57.77,130.00,8.00,0.00,30.19,M,10.00,M,CLR,M,M,M,M,M,M,M,M,KCNC 011955Z AUTO 13008KT 10SM CLR 11/03 A3019 RMK AO2
CNC,2017-04-01 20:00,-93.3608,41.0184,51.80,35.60,53.81,130.00,8.00,0.00,30.18,M,10.00,M,CLR,M,M,M,M,M,M,M,M,KCNC 012000Z AUTO 13008KT 10SM CLR 11/02 A3018 RMK AO2
CNC,2017-04-01 20:10,-93.3608,41.0184,51.80,35.60,53.81,100.00,7.00,0.00,30.17,M,10.00,M,CLR,M,M,M,M,M,M,M,M,KCNC 012010Z AUTO 10007KT 10SM CLR 11/02 A3017 RMK AO2
CNC,2017-04-01 20:15,-93.3608,41.0184,53.60,35.60,50.36,100.00,10.00,0.00,30.16,M,10.00,M,CLR,M,M,M,M,M,M,M,M,KCNC 012015Z AUTO 10010KT 10SM CLR 12/02 A3016 RMK AO2
CNC,2017-04-01 20:20,-93.3608,41.0184,53.60,35.60,50.36,100.00,8.00,0.00,30.16,M,10.00,M,CLR,M,M,M,M,M,M,M,M,KCNC 012020Z AUTO 10008KT 10SM CLR 12/02 A3016 RMK AO2
CNC,2017-04-01 20:30,-93.3608,41.0184,53.60,35.60,50.36,120.00,10.00,0.00,30.15,M,10.00,M,CLR,M,M,M,M,M,M,M,M,KCNC 012030Z AUTO 12010KT 10SM CLR 12/02 A3015 RMK AO2
CNC,2017-04-01 20:35,-93.3608,41.0184,53.60,37.40,54.07,110.00,8.00,0.00,30.17,M,10.00,13.00,CLR,M,M,M,M,M,M,M,M,KCNC 012035Z AUTO 11008G13KT 10SM CLR 12/03 A3017 RMK AO2
CNC,2017-04-01 20:40,-93.3608,41.0184,53.60,35.60,50.36,110.00,6.00,0.00,30.18,M,10.00,M,CLR,M,M,M,M,M,M,M,M,KCNC 012040Z AUTO 11006KT 10SM CLR 12/02 A3018 RMK AO2
CNC,2017-04-01 20:50,-93.3608,41.0184,53.60,35.60,50.36,100.00,5.00,0.00,30.18,M,10.00,M,SCT,M,M,M,11000.00,M,M,M,M,KCNC 012050Z AUTO 10005KT 10SM SCT110 12/02 A3018 RMK AO2
CNC,2017-04-01 20:55,-93.3608,41.0184,53.60,37.40,54.07,120.00,7.00,0.00,30.17,M,10.00,M,BKN,M,M,M,11000.00,M,M,M,M,KCNC 012055Z AUTO 12007KT 10SM BKN110 12/03 A3017 RMK AO2
CNC,2017-04-01 21:00,-93.3608,41.0184,53.60,37.40,54.07,120.00,8.00,0.00,30.17,M,10.00,M,SCT,M,M,M,11000.00,M,M,M,M,KCNC 012100Z AUTO 12008KT 10SM SCT110 12/03 A3017 RMK AO2
CNC,2017-04-01 21:10,-93.3608,41.0184,53.60,35.60,50.36,90.00,7.00,0.00,30.17,M,10.00,M,BKN,M,M,M,11000.00,M,M,M,M,KCNC 012110Z AUTO 09007KT 070V130 10SM BKN110 12/02 A3017 RMK AO2
CNC,2017-04-01 21:15,-93.3608,41.0184,53.60,35.60,50.36,130.00,8.00,0.00,30.18,M,10.00,M,SCT,M,M,M,11000.00,M,M,M,M,KCNC 012115Z AUTO 13008KT 10SM SCT110 12/02 A3018 RMK AO2
CNC,2017-04-01 21:20,-93.3608,41.0184,53.60,35.60,50.36,140.00,8.00,0.00,30.18,M,10.00,M,SCT,M,M,M,10000.00,M,M,M,M,KCNC 012120Z AUTO 14008KT 10SM SCT100 12/02 A3018 RMK AO2
CNC,2017-04-01 21:30,-93.3608,41.0184,53.60,35.60,50.36,130.00,6.00,0.00,30.18,M,10.00,M,BKN,M,M,M,10000.00,M,M,M,M,KCNC 012130Z AUTO 13006KT 10SM BKN100 12/02 A3018 RMK AO2
CNC,2017-04-01 21:35,-93.3608,41.0184,53.60,35.60,50.36,120.00,6.00,0.00,30.17,M,10.00,M,BKN,M,M,M,10000.00,M,M,M,M,KCNC 012135Z AUTO 12006KT 10SM BKN100 12/02 A3017 RMK AO2
CNC,2017-04-01 21:40,-93.3608,41.0184,53.60,35.60,50.36,120.00,6.00,0.00,30.17,M,10.00,M,SCT,M,M,M,10000.00,M,M,M,M,KCNC 012140Z AUTO 12006KT 10SM SCT100 12/02 A3017 RMK AO2
CNC,2017-04-01 21:50,-93.3608,41.0184,53.60,35.60,50.36,110.00,8.00,0.00,30.17,M,10.00,M,FEW,M,M,M,10000.00,M,M,M,M,KCNC 012150Z AUTO 11008KT 10SM FEW100 12/02 A3017 RMK AO2
CNC,2017-04-01 21:55,-93.3608,41.0184,53.60,35.60,50.36,110.00,8.00,0.00,30.16,M,10.00,M,FEW,M,M,M,10000.00,M,M,M,M,KCNC 012155Z AUTO 11008KT 070V130 10SM FEW100 12/02 A3016 RMK AO2
CNC,2017-04-01 22:00,-93.3608,41.0184,53.60,37.40,54.07,120.00,8.00,0.00,30.16,M,10.00,M,FEW,M,M,M,10000.00,M,M,M,M,KCNC 012200Z AUTO 12008KT 10SM FEW100 12/03 A3016 RMK AO2
CNC,2017-04-01 22:10,-93.3608,41.0184,53.60,35.60,50.36,130.00,9.00,0.00,30.16,M,10.00,M,CLR,M,M,M,M,M,M,M,M,KCNC 012210Z AUTO 13009KT 10SM CLR 12/02 A3016 RMK AO2
CNC,2017-04-01 22:15,-93.3608,41.0184,53.60,37.40,54.07,120.00,8.00,0.00,30.16,M,10.00,M,FEW,M,M,M,11000.00,M,M,M,M,KCNC 012215Z AUTO 12008KT 10SM FEW110 12/03 A3016 RMK AO2
CNC,2017-04-01 22:20,-93.3608,41.0184,53.60,37.40,54.07,120.00,8.00,0.00,30.16,M,10.00,M,FEW,M,M,M,11000.00,M,M,M,M,KCNC 012220Z AUTO 12008KT 10SM FEW110 12/03 A3016 RMK AO2
CNC,2017-04-01 22:30,-93.3608,41.0184,53.60,37.40,54.07,100.00,7.00,0.00,30.16,M,10.00,M,CLR,M,M,M,M,M,M,M,M,KCNC 012230Z AUTO 10007KT 10SM CLR 12/03 A3016 RMK AO2
CNC,2017-04-01 22:35,-93.3608,41.0184,53.60,37.40,54.07,100.00,6.00,0.00,30.16,M,10.00,M,FEW,M,M,M,10000.00,M,M,M,M,KCNC 012235Z AUTO 10006KT 10SM FEW100 12/03 A3016 RMK AO2
CNC,2017-04-01 22:40,-93.3608,41.0184,53.60,37.40,54.07,100.00,6.00,0.00,30.16,M,10.00,M,FEW,M,M,M,9500.00,M,M,M,M,KCNC 012240Z AUTO 10006KT 10SM FEW095 12/03 A3016 RMK AO2
CNC,2017-04-01 22:50,-93.3608,41.0184,53.60,37.40,54.07,100.00,8.00,0.00,30.16,M,10.00,M,FEW,M,M,M,10000.00,M,M,M,M,KCNC 012250Z AUTO 10008KT 10SM FEW100 12/03 A3016 RMK AO2
CNC,2017-04-01 22:55,-93.3608,41.0184,53.60,35.60,50.36,90.00,9.00,0.00,30.15,M,10.00,M,FEW,M,M,M,10000.00,M,M,M,M,KCNC 012255Z AUTO 09009KT 10SM FEW100 12/02 A3015 RMK AO2
CNC,2017-04-01 23:00,-93.3608,41.0184,51.80,37.40,57.77,90.00,6.00,0.00,30.15,M,10.00,M,FEW,M,M,M,10000.00,M,M,M,M,KCNC 012300Z AUTO 09006KT 10SM FEW100 11/03 A3015 RMK AO2
CNC,2017-04-01 23:10,-93.3608,41.0184,51.80,37.40,57.77,100.00,6.00,0.00,30.16,M,10.00,M,FEW,M,M,M,9500.00,M,M,M,M,KCNC 012310Z AUTO 10006KT 10SM FEW095 11/03 A3016 RMK AO2
CNC,2017-04-01 23:15,-93.3608,41.0184,51.80,37.40,57.77,100.00,6.00,0.00,30.16,M,10.00,M,FEW,M,M,M,9500.00,M,M,M,M,KCNC 012315Z AUTO 10006KT 10SM FEW095 11/03 A3016 RMK AO2
CNC,2017-04-01 23:20,-93.3608,41.0184,51.80,37.40,57.77,100.00,7.00,0.00,30.16,M,10.00,M,SCT,M,M,M,9000.00,M,M,M,M,KCNC 012320Z AUTO 10007KT 10SM SCT090 11/03 A3016 RMK AO2
CNC,2017-04-01 23:30,-93.3608,41.0184,51.80,37.40,57.77,110.00,5.00,0.00,30.16,M,10.00,M,BKN,M,M,M,9000.00,M,M,M,M,KCNC 012330Z AUTO 11005KT 10SM BKN090 11/03 A3016 RMK AO2
CNC,2017-04-01 23:35,-93.3608,41.0184,51.80,37.40,57.77,110.00,5.00,0.00,30.16,M,10.00,M,BKN,M,M,M,9000.00,M,M,M,M,KCNC 012335Z AUTO 11005KT 10SM BKN090 11/03 A3016 RMK AO2
CNC,2017-04-01 23:40,-93.3608,41.0184,51.80,37.40,57.77,120.00,5.00,0.00,30.16,M,10.00,M,BKN,M,M,M,8500.00,M,M,M,M,KCNC 012340Z AUTO 12005KT 10SM BKN085 11/03 A3016 RMK AO2
CNC,2017-04-01 23:50,-93.3608,41.0184,51.80,39.20,61.99,120.00,4.00,0.00,30.16,M,10.00,M,BKN,BKN,M,M,8000.00,10000.00,M,M,M,KCNC 012350Z AUTO 12004KT 10SM BKN080 BKN100 11/04 A3016 RMK AO2
CNC,2017-04-01 23:55,-93.3608,41.0184,51.80,39.20,61.99,140.00,3.00,0.00,30.16,M,10.00,M,OVC,M,M,M,8000.00,M,M,M,M,KCNC 012355Z AUTO 14003KT 10SM OVC080 11/04 A3016 RMK AO2
