#DEBUG: Format Typ    -> comma
#DEBUG: Time Period   -> 2017-04-01 00:00:00+00:00 2017-04-02 00:00:00+00:00
#DEBUG: Time Zone     -> Etc/UTC
#DEBUG: Data Contact   -> daryl herzmann akrherz@iastate.edu 515-294-5978
#DEBUG: Entries Found -> -1
station,valid,lon,lat,tmpf, dwpf, relh, drct, sknt, p01i, alti, mslp, vsby, gust, skyc1, skyc2, skyc3, skyc4, skyl1, skyl2, skyl3, skyl4, presentwx, metar
CNK,2017-04-01 00:00,-97.6500,39.5500,M,M,M,70.00,8.00,M,29.99,M,10.00,M,OVC,M,M,M,2100.00,M,M,M,M,KCNK 010000Z AUTO 07008KT 10SM OVC021 A2999 RMK MADISHF
CNK,2017-04-01 00:05,-97.6500,39.5500,M,M,M,60.00,8.00,M,29.99,M,10.00,M,OVC,M,M,M,2100.00,M,M,M,M,KCNK 010005Z AUTO 06008KT 10SM OVC021 A2999 RMK MADISHF
CNK,2017-04-01 00:10,-97.6500,39.5500,M,M,M,70.00,7.00,M,29.99,M,10.00,M,OVC,M,M,M,2100.00,M,M,M,M,KCNK 010010Z AUTO 07007KT 10SM OVC021 A2999 RMK MADISHF
CNK,2017-04-01 00:15,-97.6500,39.5500,M,M,M,70.00,8.00,M,29.99,M,10.00,M,OVC,M,M,M,2100.00,M,M,M,M,KCNK 010015Z AUTO 07008KT 10SM OVC021 A2999 RMK MADISHF
CNK,2017-04-01 00:20,-97.6500,39.5500,M,M,M,60.00,7.00,M,29.99,M,10.00,M,OVC,M,M,M,2100.00,M,M,M,M,KCNK 010020Z AUTO 06007KT 10SM OVC021 A2999 RMK MADISHF
CNK,2017-04-01 00:25,-97.6500,39.5500,M,M,M,60.00,6.00,M,29.99,M,10.00,M,OVC,M,M,M,2100.00,M,M,M,M,KCNK 010025Z AUTO 06006KT 10SM OVC021 A2999 RMK MADISHF
CNK,2017-04-01 00:30,-97.6500,39.5500,M,M,M,70.00,8.00,M,30.00,M,10.00,M,OVC,M,M,M,2100.00,M,M,M,M,KCNK 010030Z AUTO 07008KT 10SM OVC021 A3000 RMK MADISHF
CNK,2017-04-01 00:35,-97.6500,39.5500,M,M,M,60.00,7.00,M,30.00,M,10.00,M,OVC,M,M,M,2100.00,M,M,M,M,KCNK 010035Z AUTO 06007KT 10SM OVC021 A3000 RMK MADISHF
CNK,2017-04-01 00:40,-97.6500,39.5500,M,M,M,60.00,6.00,M,30.00,M,10.00,M,OVC,M,M,M,2100.00,M,M,M,M,KCNK 010040Z AUTO 06006KT 10SM OVC021 A3000 RMK MADISHF
CNK,2017-04-01 00:45,-97.6500,39.5500,M,M,M,60.00,6.00,M,30.00,M,10.00,M,OVC,M,M,M,2100.00,M,M,M,M,KCNK 010045Z AUTO 06006KT 10SM OVC021 A3000 RMK MADISHF
CNK,2017-04-01 00:50,-97.6500,39.5500,M,M,M,50.00,6.00,M,30.01,M,10.00,M,OVC,M,M,M,2100.00,M,M,M,M,KCNK 010050Z AUTO 05006KT 10SM OVC021 A3001 RMK MADISHF
CNK,2017-04-01 00:55,-97.6500,39.5500,48.00,42.10,79.91,60.00,4.00,0.00,30.01,1016.60,10.00,M,OVC,M,M,M,2100.00,M,M,M,M,KCNK 010055Z AUTO 06004KT 10SM OVC021 09/06 A3001 RMK AO2 SLP166 T00890056
CNK,2017-04-01 01:00,-97.6500,39.5500,M,M,M,60.00,5.00,M,30.01,M,10.00,M,OVC,M,M,M,2100.00,M,M,M,M,KCNK 010100Z AUTO 06005KT 10SM OVC021 A3001 RMK MADISHF
CNK,2017-04-01 01:05,-97.6500,39.5500,M,M,M,60.00,6.00,M,30.01,M,10.00,M,OVC,M,M,M,2100.00,M,M,M,M,KCNK 010105Z AUTO 06006KT 10SM OVC021 A3001 RMK MADISHF
CNK,2017-04-01 01:10,-97.6500,39.5500,M,M,M,60.00,7.00,M,30.01,M,10.00,M,OVC,M,M,M,1999.00,M,M,M,M,KCNK 010110Z AUTO 06007KT 10SM OVC019 A3001 RMK MADISHF
CNK,2017-04-01 01:15,-97.6500,39.5500,M,M,M,70.00,6.00,M,30.01,M,10.00,M,OVC,M,M,M,1999.00,M,M,M,M,KCNK 010115Z AUTO 07006KT 10SM OVC019 A3001 RMK MADISHF
CNK,2017-04-01 01:20,-97.6500,39.5500,M,M,M,70.00,7.00,M,30.01,M,10.00,M,OVC,M,M,M,1999.00,M,M,M,M,KCNK 010120Z AUTO 07007KT 10SM OVC019 A3001 RMK MADISHF
CNK,2017-04-01 01:25,-97.6500,39.5500,M,M,M,60.00,7.00,M,30.01,M,10.00,M,OVC,M,M,M,2100.00,M,M,M,M,KCNK 010125Z AUTO 06007KT 10SM OVC021 A3001 RMK MADISHF
CNK,2017-04-01 01:30,-97.6500,39.5500,M,M,M,50.00,8.00,M,30.01,M,10.00,M,OVC,M,M,M,2100.00,M,M,M,M,KCNK 010130Z AUTO 05008KT 10SM OVC021 A3001 RMK MADISHF
CNK,2017-04-01 01:35,-97.6500,39.5500,M,M,M,50.00,8.00,M,30.02,M,10.00,M,OVC,M,M,M,2100.00,M,M,M,M,KCNK 010135Z AUTO 05008KT 10SM OVC021 A3002 RMK MADISHF
CNK,2017-04-01 01:40,-97.6500,39.5500,M,M,M,50.00,8.00,M,30.02,M,10.00,M,OVC,M,M,M,2100.00,M,M,M,M,KCNK 010140Z AUTO 05008KT 10SM OVC021 A3002 RMK MADISHF
CNK,2017-04-01 01:45,-97.6500,39.5500,M,M,M,60.00,7.00,M,30.03,M,10.00,M,OVC,M,M,M,2100.00,M,M,M,M,KCNK 010145Z AUTO 06007KT 10SM OVC021 A3003 RMK MADISHF
CNK,2017-04-01 01:50,-97.6500,39.5500,M,M,M,60.00,7.00,M,30.03,M,10.00,M,OVC,M,M,M,2100.00,M,M,M,M,KCNK 010150Z AUTO 06007KT 10SM OVC021 A3003 RMK MADISHF
CNK,2017-04-01 01:55,-97.6500,39.5500,46.90,42.10,83.28,60.00,7.00,0.00,30.03,1017.30,10.00,M,OVC,M,M,M,2100.00,M,M,M,M,KCNK 010155Z AUTO 06007KT 10SM OVC021 08/06 A3003 RMK AO2 SLP173 T00830056
CNK,2017-04-01 02:00,-97.6500,39.5500,M,M,M,50.00,6.00,M,30.04,M,10.00,M,OVC,M,M,M,2100.00,M,M,M,M,KCNK 010200Z AUTO 05006KT 10SM OVC021 A3004 RMK MADISHF
CNK,2017-04-01 02:05,-97.6500,39.5500,M,M,M,60.00,7.00,M,30.04,M,10.00,M,OVC,M,M,M,2100.00,M,M,M,M,KCNK 010205Z AUTO 06007KT 10SM OVC021 A3004 RMK MADISHF
CNK,2017-04-01 02:10,-97.6500,39.5500,M,M,M,50.00,8.00,M,30.04,M,10.00,M,OVC,M,M,M,1999.00,M,M,M,M,KCNK 010210Z AUTO 05008KT 10SM OVC019 A3004 RMK MADISHF
CNK,2017-04-01 02:15,-97.6500,39.5500,M,M,M,60.00,5.00,M,30.04,M,10.00,M,OVC,M,M,M,1999.00,M,M,M,M,KCNK 010215Z AUTO 06005KT 10SM OVC019 A3004 RMK MADISHF
CNK,2017-04-01 02:20,-97.6500,39.5500,M,M,M,60.00,6.00,M,30.04,M,10.00,M,OVC,M,M,M,1999.00,M,M,M,M,KCNK 010220Z AUTO 06006KT 10SM OVC019 A3004 RMK MADISHF
CNK,2017-04-01 02:25,-97.6500,39.5500,M,M,M,70.00,7.00,M,30.05,M,10.00,M,OVC,M,M,M,2100.00,M,M,M,M,KCNK 010225Z AUTO 07007KT 10SM OVC021 A3005 RMK MADISHF
CNK,2017-04-01 02:30,-97.6500,39.5500,M,M,M,70.00,6.00,M,30.05,M,10.00,M,OVC,M,M,M,2100.00,M,M,M,M,KCNK 010230Z AUTO 07006KT 10SM OVC021 A3005 RMK MADISHF
CNK,2017-04-01 02:35,-97.6500,39.5500,M,M,M,70.00,7.00,M,30.05,M,10.00,M,OVC,M,M,M,2100.00,M,M,M,M,KCNK 010235Z AUTO 07007KT 10SM OVC021 A3005 RMK MADISHF
CNK,2017-04-01 02:40,-97.6500,39.5500,M,M,M,70.00,6.00,M,30.06,M,10.00,M,OVC,M,M,M,2200.00,M,M,M,M,KCNK 010240Z AUTO 07006KT 10SM OVC022 A3006 RMK MADISHF
CNK,2017-04-01 02:45,-97.6500,39.5500,M,M,M,70.00,5.00,M,30.06,M,10.00,M,OVC,M,M,M,2200.00,M,M,M,M,KCNK 010245Z AUTO 07005KT 10SM OVC022 A3006 RMK MADISHF
CNK,2017-04-01 02:50,-97.6500,39.5500,M,M,M,70.00,5.00,M,30.06,M,10.00,M,OVC,M,M,M,2200.00,M,M,M,M,KCNK 010250Z AUTO 07005KT 10SM OVC022 A3006 RMK MADISHF
CNK,2017-04-01 02:55,-97.6500,39.5500,46.90,42.10,83.28,80.00,3.00,0.00,30.07,1018.50,10.00,M,OVC,M,M,M,2300.00,M,M,M,M,KCNK 010255Z AUTO 08003KT 10SM OVC023 08/06 A3007 RMK AO2 SLP185 T00830056 53027
CNK,2017-04-01 03:00,-97.6500,39.5500,M,M,M,0.00,0.00,M,30.07,M,10.00,M,OVC,M,M,M,2500.00,M,M,M,M,KCNK 010300Z AUTO 00000KT 10SM OVC025 A3007 RMK MADISHF
CNK,2017-04-01 03:05,-97.6500,39.5500,M,M,M,80.00,3.00,M,30.07,M,10.00,M,BKN,M,M,M,2500.00,M,M,M,M,KCNK 010305Z AUTO 08003KT 10SM BKN025 A3007 RMK MADISHF
CNK,2017-04-01 03:10,-97.6500,39.5500,M,M,M,80.00,3.00,M,30.07,M,10.00,M,BKN,M,M,M,2500.00,M,M,M,M,KCNK 010310Z AUTO 08003KT 10SM BKN025 A3007 RMK MADISHF
CNK,2017-04-01 03:15,-97.6500,39.5500,M,M,M,0.00,0.00,M,30.07,M,10.00,M,SCT,M,M,M,2500.00,M,M,M,M,KCNK 010315Z AUTO 00000KT 10SM SCT025 A3007 RMK MADISHF
CNK,2017-04-01 03:20,-97.6500,39.5500,46.00,41.00,82.58,80.00,3.00,0.00,30.07,M,10.00,M,SCT,M,M,M,2700.00,M,M,M,M,KCNK 010320Z AUTO 08003KT 10SM SCT027 08/05 A3007 RMK AO2 T00780050
CNK,2017-04-01 03:25,-97.6500,39.5500,M,M,M,0.00,0.00,M,30.07,M,10.00,M,FEW,M,M,M,2700.00,M,M,M,M,KCNK 010325Z AUTO 00000KT 10SM FEW027 A3007 RMK MADISHF
CNK,2017-04-01 03:30,-97.6500,39.5500,M,M,M,0.00,0.00,M,30.08,M,10.00,M,CLR,M,M,M,M,M,M,M,M,KCNK 010330Z AUTO 00000KT 10SM CLR A3008 RMK MADISHF
CNK,2017-04-01 03:35,-97.6500,39.5500,M,M,M,80.00,3.00,M,30.08,M,10.00,M,CLR,M,M,M,M,M,M,M,M,KCNK 010335Z AUTO 08003KT 10SM CLR A3008 RMK MADISHF
CNK,2017-04-01 03:40,-97.6500,39.5500,M,M,M,0.00,0.00,M,30.08,M,10.00,M,CLR,M,M,M,M,M,M,M,M,KCNK 010340Z AUTO 00000KT 10SM CLR A3008 RMK MADISHF
CNK,2017-04-01 03:45,-97.6500,39.5500,M,M,M,0.00,0.00,M,30.09,M,10.00,M,FEW,M,M,M,3000.00,M,M,M,M,KCNK 010345Z AUTO 00000KT 10SM FEW030 A3009 RMK MADISHF
CNK,2017-04-01 03:50,-97.6500,39.5500,M,M,M,0.00,0.00,M,30.08,M,10.00,M,SCT,M,M,M,3000.00,M,M,M,M,KCNK 010350Z AUTO 00000KT 10SM SCT030 A3008 RMK MADISHF
CNK,2017-04-01 03:55,-97.6500,39.5500,44.10,41.00,88.77,0.00,0.00,0.00,30.08,1019.10,10.00,M,BKN,M,M,M,3000.00,M,M,M,M,KCNK 010355Z AUTO 00000KT 10SM BKN030 07/05 A3008 RMK AO2 SLP191 T00670050
CNK,2017-04-01 04:00,-97.6500,39.5500,M,M,M,60.00,3.00,M,30.08,M,10.00,M,BKN,M,M,M,2900.00,M,M,M,M,KCNK 010400Z AUTO 06003KT 10SM BKN029 A3008 RMK MADISHF
CNK,2017-04-01 04:03,-97.6500,39.5500,44.10,41.00,88.77,60.00,3.00,0.00,30.08,M,10.00,M,BKN,M,M,M,2900.00,M,M,M,M,KCNK 010403Z AUTO 06003KT 10SM BKN029 07/05 A3008 RMK AO2 T00670050
CNK,2017-04-01 04:05,-97.6500,39.5500,M,M,M,60.00,3.00,M,30.09,M,10.00,M,BKN,M,M,M,2900.00,M,M,M,M,KCNK 010405Z AUTO 06003KT 10SM BKN029 A3009 RMK MADISHF
CNK,2017-04-01 04:10,-97.6500,39.5500,M,M,M,0.00,0.00,M,30.09,M,10.00,M,OVC,M,M,M,2900.00,M,M,M,M,KCNK 010410Z AUTO 00000KT 10SM OVC029 A3009 RMK MADISHF
CNK,2017-04-01 04:15,-97.6500,39.5500,M,M,M,50.00,3.00,M,30.09,M,10.00,M,OVC,M,M,M,2900.00,M,M,M,M,KCNK 010415Z AUTO 05003KT 10SM OVC029 A3009 RMK MADISHF
CNK,2017-04-01 04:20,-97.6500,39.5500,M,M,M,0.00,0.00,M,30.09,M,10.00,M,OVC,M,M,M,2900.00,M,M,M,M,KCNK 010420Z AUTO 00000KT 10SM OVC029 A3009 RMK MADISHF
CNK,2017-04-01 04:25,-97.6500,39.5500,M,M,M,0.00,0.00,M,30.10,M,10.00,M,OVC,M,M,M,2900.00,M,M,M,M,KCNK 010425Z AUTO 00000KT 10SM OVC029 A3010 RMK MADISHF
CNK,2017-04-01 04:30,-97.6500,39.5500,M,M,M,0.00,0.00,M,30.10,M,10.00,M,OVC,M,M,M,2900.00,M,M,M,M,KCNK 010430Z AUTO 00000KT 10SM OVC029 A3010 RMK MADISHF
CNK,2017-04-01 04:35,-97.6500,39.5500,M,M,M,0.00,0.00,M,30.10,M,10.00,M,BKN,OVC,M,M,2900.00,3500.00,M,M,M,KCNK 010435Z AUTO 00000KT 10SM BKN029 OVC035 A3010 RMK MADISHF
CNK,2017-04-01 04:40,-97.6500,39.5500,M,M,M,0.00,0.00,M,30.10,M,10.00,M,BKN,OVC,M,M,2900.00,3500.00,M,M,M,KCNK 010440Z AUTO 00000KT 10SM BKN029 OVC035 A3010 RMK MADISHF
CNK,2017-04-01 04:45,-97.6500,39.5500,M,M,M,0.00,0.00,M,30.11,M,10.00,M,BKN,OVC,M,M,3000.00,3500.00,M,M,M,KCNK 010445Z AUTO 00000KT 10SM BKN030 OVC035 A3011 RMK MADISHF
CNK,2017-04-01 04:48,-97.6500,39.5500,45.00,42.10,89.49,0.00,0.00,0.00,30.11,M,10.00,M,BKN,OVC,M,M,3000.00,3500.00,M,M,M,KCNK 010448Z AUTO 00000KT 10SM BKN030 OVC035 07/06 A3011 RMK AO2 T00720056
CNK,2017-04-01 04:50,-97.6500,39.5500,M,M,M,0.00,0.00,M,30.11,M,10.00,M,BKN,OVC,M,M,3000.00,3500.00,M,M,M,KCNK 010450Z AUTO 00000KT 10SM BKN030 OVC035 A3011 RMK MADISHF
CNK,2017-04-01 04:55,-97.6500,39.5500,45.00,42.10,89.49,350.00,3.00,0.00,30.11,1020.00,10.00,M,OVC,M,M,M,3500.00,M,M,M,M,KCNK 010455Z AUTO 35003KT 10SM OVC035 07/06 A3011 RMK AO2 SLP200 T00720056
CNK,2017-04-01 05:00,-97.6500,39.5500,M,M,M,350.00,4.00,M,30.11,M,10.00,M,FEW,OVC,M,M,2800.00,3500.00,M,M,M,KCNK 010500Z AUTO 35004KT 10SM FEW028 OVC035 A3011 RMK MADISHF
CNK,2017-04-01 05:05,-97.6500,39.5500,M,M,M,350.00,4.00,M,30.11,M,10.00,M,FEW,OVC,M,M,2900.00,3500.00,M,M,M,KCNK 010505Z AUTO 35004KT 10SM FEW029 OVC035 A3011 RMK MADISHF
CNK,2017-04-01 05:10,-97.6500,39.5500,M,M,M,350.00,4.00,M,30.10,M,10.00,M,FEW,OVC,M,M,2900.00,3500.00,M,M,M,KCNK 010510Z AUTO 35004KT 10SM FEW029 OVC035 A3010 RMK MADISHF
CNK,2017-04-01 05:15,-97.6500,39.5500,M,M,M,360.00,3.00,M,30.11,M,10.00,M,FEW,OVC,M,M,2900.00,3500.00,M,M,M,KCNK 010515Z AUTO 36003KT 10SM FEW029 OVC035 A3011 RMK MADISHF
CNK,2017-04-01 05:20,-97.6500,39.5500,M,M,M,360.00,3.00,M,30.11,M,9.00,M,OVC,M,M,M,3500.00,M,M,M,M,KCNK 010520Z AUTO 36003KT 9SM OVC035 A3011 RMK MADISHF
CNK,2017-04-01 05:25,-97.6500,39.5500,M,M,M,30.00,4.00,M,30.10,M,9.00,M,OVC,M,M,M,3500.00,M,M,M,M,KCNK 010525Z AUTO 03004KT 9SM OVC035 A3010 RMK MADISHF
CNK,2017-04-01 05:30,-97.6500,39.5500,M,M,M,20.00,4.00,M,30.10,M,9.00,M,OVC,M,M,M,3500.00,M,M,M,M,KCNK 010530Z AUTO 02004KT 9SM OVC035 A3010 RMK MADISHF
CNK,2017-04-01 05:35,-97.6500,39.5500,M,M,M,20.00,5.00,M,30.10,M,9.00,M,OVC,M,M,M,3500.00,M,M,M,M,KCNK 010535Z AUTO 02005KT 9SM OVC035 A3010 RMK MADISHF
CNK,2017-04-01 05:40,-97.6500,39.5500,M,M,M,20.00,4.00,M,30.10,M,9.00,M,OVC,M,M,M,3600.00,M,M,M,M,KCNK 010540Z AUTO 02004KT 9SM OVC036 A3010 RMK MADISHF
CNK,2017-04-01 05:45,-97.6500,39.5500,M,M,M,10.00,4.00,M,30.10,M,10.00,M,OVC,M,M,M,3600.00,M,M,M,M,KCNK 010545Z AUTO 01004KT 10SM OVC036 A3010 RMK MADISHF
CNK,2017-04-01 05:50,-97.6500,39.5500,M,M,M,10.00,5.00,M,30.10,M,10.00,M,OVC,M,M,M,3600.00,M,M,M,M,KCNK 010550Z AUTO 01005KT 10SM OVC036 A3010 RMK MADISHF
CNK,2017-04-01 05:55,-97.6500,39.5500,44.10,42.10,92.62,10.00,4.00,0.00,30.11,1019.90,10.00,M,OVC,M,M,M,3600.00,M,M,M,M,KCNK 010555Z AUTO 01004KT 10SM OVC036 07/06 A3011 RMK AO2 SLP199 T00670056 10089 20067 400890056 50012
CNK,2017-04-01 06:00,-97.6500,39.5500,M,M,M,20.00,5.00,M,30.10,M,10.00,M,OVC,M,M,M,3600.00,M,M,M,M,KCNK 010600Z AUTO 02005KT 10SM OVC036 A3010 RMK MADISHF
CNK,2017-04-01 06:05,-97.6500,39.5500,M,M,M,30.00,4.00,M,30.10,M,10.00,M,OVC,M,M,M,3600.00,M,M,M,M,KCNK 010605Z AUTO 03004KT 10SM OVC036 A3010 RMK MADISHF
CNK,2017-04-01 06:10,-97.6500,39.5500,M,M,M,30.00,5.00,M,30.09,M,10.00,M,OVC,M,M,M,3600.00,M,M,M,M,KCNK 010610Z AUTO 03005KT 10SM OVC036 A3009 RMK MADISHF
CNK,2017-04-01 06:15,-97.6500,39.5500,M,M,M,30.00,5.00,M,30.09,M,10.00,M,OVC,M,M,M,3500.00,M,M,M,M,KCNK 010615Z AUTO 03005KT 10SM OVC035 A3009 RMK MADISHF
CNK,2017-04-01 06:20,-97.6500,39.5500,M,M,M,40.00,5.00,M,30.09,M,10.00,M,OVC,M,M,M,3500.00,M,M,M,M,KCNK 010620Z AUTO 04005KT 10SM OVC035 A3009 RMK MADISHF
CNK,2017-04-01 06:25,-97.6500,39.5500,M,M,M,20.00,4.00,M,30.10,M,9.00,M,OVC,M,M,M,3500.00,M,M,M,M,KCNK 010625Z AUTO 02004KT 9SM OVC035 A3010 RMK MADISHF
CNK,2017-04-01 06:30,-97.6500,39.5500,M,M,M,20.00,4.00,M,30.10,M,9.00,M,OVC,M,M,M,3500.00,M,M,M,M,KCNK 010630Z AUTO 02004KT 9SM OVC035 A3010 RMK MADISHF
CNK,2017-04-01 06:35,-97.6500,39.5500,M,M,M,30.00,4.00,M,30.10,M,9.00,M,OVC,M,M,M,3500.00,M,M,M,M,KCNK 010635Z AUTO 03004KT 9SM OVC035 A3010 RMK MADISHF
CNK,2017-04-01 06:40,-97.6500,39.5500,M,M,M,20.00,5.00,M,30.10,M,9.00,M,FEW,OVC,M,M,2700.00,3600.00,M,M,M,KCNK 010640Z AUTO 02005KT 9SM FEW027 OVC036 A3010 RMK MADISHF
CNK,2017-04-01 06:45,-97.6500,39.5500,M,M,M,30.00,5.00,M,30.09,M,9.00,M,OVC,M,M,M,3600.00,M,M,M,M,KCNK 010645Z AUTO 03005KT 9SM OVC036 A3009 RMK MADISHF
CNK,2017-04-01 06:50,-97.6500,39.5500,M,M,M,40.00,5.00,M,30.09,M,9.00,M,OVC,M,M,M,3600.00,M,M,M,M,KCNK 010650Z AUTO 04005KT 9SM OVC036 A3009 RMK MADISHF
CNK,2017-04-01 06:55,-97.6500,39.5500,43.00,42.10,96.60,40.00,5.00,0.00,30.10,1019.40,8.00,M,OVC,M,M,M,3600.00,M,M,M,M,KCNK 010655Z AUTO 04005KT 8SM OVC036 06/06 A3010 RMK AO2 SLP194 T00610056
CNK,2017-04-01 07:00,-97.6500,39.5500,M,M,M,40.00,3.00,M,30.11,M,8.00,M,OVC,M,M,M,3600.00,M,M,M,M,KCNK 010700Z AUTO 04003KT 8SM OVC036 A3011 RMK MADISHF
CNK,2017-04-01 07:05,-97.6500,39.5500,M,M,M,30.00,3.00,M,30.11,M,8.00,M,OVC,M,M,M,3700.00,M,M,M,M,KCNK 010705Z AUTO 03003KT 8SM OVC037 A3011 RMK MADISHF
CNK,2017-04-01 07:10,-97.6500,39.5500,M,M,M,40.00,4.00,M,30.10,M,8.00,M,OVC,M,M,M,3700.00,M,M,M,M,KCNK 010710Z AUTO 04004KT 8SM OVC037 A3010 RMK MADISHF
CNK,2017-04-01 07:15,-97.6500,39.5500,M,M,M,20.00,4.00,M,30.10,M,8.00,M,OVC,M,M,M,3700.00,M,M,M,M,KCNK 010715Z AUTO 02004KT 8SM OVC037 A3010 RMK MADISHF
CNK,2017-04-01 07:20,-97.6500,39.5500,M,M,M,20.00,4.00,M,30.10,M,8.00,M,FEW,OVC,M,M,2400.00,3700.00,M,M,M,KCNK 010720Z AUTO 02004KT 8SM FEW024 OVC037 A3010 RMK MADISHF
CNK,2017-04-01 07:25,-97.6500,39.5500,M,M,M,30.00,4.00,M,30.10,M,8.00,M,FEW,OVC,M,M,2400.00,3700.00,M,M,M,KCNK 010725Z AUTO 03004KT 8SM FEW024 OVC037 A3010 RMK MADISHF
CNK,2017-04-01 07:30,-97.6500,39.5500,M,M,M,30.00,4.00,M,30.10,M,9.00,M,FEW,OVC,M,M,2500.00,3700.00,M,M,M,KCNK 010730Z AUTO 03004KT 9SM FEW025 OVC037 A3010 RMK MADISHF
CNK,2017-04-01 07:40,-97.6500,39.5500,M,M,M,0.00,0.00,M,30.11,M,9.00,M,FEW,OVC,M,M,2500.00,3800.00,M,M,M,KCNK 010740Z AUTO 00000KT 9SM FEW025 OVC038 A3011 RMK MADISHF
CNK,2017-04-01 07:45,-97.6500,39.5500,M,M,M,60.00,3.00,M,30.10,M,9.00,M,FEW,OVC,M,M,2500.00,3800.00,M,M,M,KCNK 010745Z AUTO 06003KT 9SM FEW025 OVC038 A3010 RMK MADISHF
CNK,2017-04-01 07:50,-97.6500,39.5500,M,M,M,80.00,3.00,M,30.11,M,9.00,M,OVC,M,M,M,3800.00,M,M,M,M,KCNK 010750Z AUTO 08003KT 9SM OVC038 A3011 RMK MADISHF
CNK,2017-04-01 07:55,-97.6500,39.5500,43.00,42.10,96.60,0.00,0.00,0.00,30.12,1020.30,9.00,M,OVC,M,M,M,3800.00,M,M,M,M,KCNK 010755Z AUTO 00000KT 9SM OVC038 06/06 A3012 RMK AO2 SLP203 T00610056
CNK,2017-04-01 08:00,-97.6500,39.5500,M,M,M,0.00,0.00,M,30.12,M,9.00,M,OVC,M,M,M,3800.00,M,M,M,M,KCNK 010800Z AUTO 00000KT 9SM OVC038 A3012 RMK MADISHF
CNK,2017-04-01 08:05,-97.6500,39.5500,M,M,M,310.00,3.00,M,30.12,M,8.00,M,OVC,M,M,M,3800.00,M,M,M,M,KCNK 010805Z AUTO 31003KT 8SM OVC038 A3012 RMK MADISHF
CNK,2017-04-01 08:10,-97.6500,39.5500,M,M,M,0.00,0.00,M,30.13,M,8.00,M,OVC,M,M,M,3800.00,M,M,M,M,KCNK 010810Z AUTO 00000KT 8SM OVC038 A3013 RMK MADISHF
CNK,2017-04-01 08:15,-97.6500,39.5500,M,M,M,0.00,0.00,M,30.13,M,9.00,M,OVC,M,M,M,3800.00,M,M,M,M,KCNK 010815Z AUTO 00000KT 9SM OVC038 A3013 RMK MADISHF
CNK,2017-04-01 08:20,-97.6500,39.5500,M,M,M,0.00,0.00,M,30.13,M,9.00,M,OVC,M,M,M,3800.00,M,M,M,M,KCNK 010820Z AUTO 00000KT 9SM OVC038 A3013 RMK MADISHF
CNK,2017-04-01 08:25,-97.6500,39.5500,M,M,M,0.00,0.00,M,30.13,M,9.00,M,OVC,M,M,M,3800.00,M,M,M,M,KCNK 010825Z AUTO 00000KT 9SM OVC038 A3013 RMK MADISHF
CNK,2017-04-01 08:30,-97.6500,39.5500,M,M,M,0.00,0.00,M,30.13,M,9.00,M,OVC,M,M,M,3800.00,M,M,M,M,KCNK 010830Z AUTO 00000KT 9SM OVC038 A3013 RMK MADISHF
CNK,2017-04-01 08:35,-97.6500,39.5500,M,M,M,0.00,0.00,M,30.13,M,9.00,M,OVC,M,M,M,3800.00,M,M,M,M,KCNK 010835Z AUTO 00000KT 9SM OVC038 A3013 RMK MADISHF
CNK,2017-04-01 08:40,-97.6500,39.5500,M,M,M,330.00,3.00,M,30.13,M,9.00,M,OVC,M,M,M,3800.00,M,M,M,M,KCNK 010840Z AUTO 33003KT 9SM OVC038 A3013 RMK MADISHF
CNK,2017-04-01 08:45,-97.6500,39.5500,M,M,M,320.00,3.00,M,30.13,M,9.00,M,OVC,M,M,M,3900.00,M,M,M,M,KCNK 010845Z AUTO 32003KT 9SM OVC039 A3013 RMK MADISHF
CNK,2017-04-01 08:50,-97.6500,39.5500,M,M,M,0.00,0.00,M,30.13,M,9.00,M,OVC,M,M,M,3900.00,M,M,M,M,KCNK 010850Z AUTO 00000KT 9SM OVC039 A3013 RMK MADISHF
CNK,2017-04-01 08:55,-97.6500,39.5500,44.10,43.00,95.88,0.00,0.00,0.00,30.13,1020.70,9.00,M,OVC,M,M,M,3900.00,M,M,M,M,KCNK 010855Z AUTO 00000KT 9SM OVC039 07/06 A3013 RMK AO2 SLP207 T00670061 53009
CNK,2017-04-01 09:00,-97.6500,39.5500,M,M,M,0.00,0.00,M,30.12,M,9.00,M,OVC,M,M,M,3900.00,M,M,M,M,KCNK 010900Z AUTO 00000KT 9SM OVC039 A3012 RMK MADISHF
CNK,2017-04-01 09:05,-97.6500,39.5500,M,M,M,0.00,0.00,M,30.13,M,9.00,M,OVC,M,M,M,3900.00,M,M,M,M,KCNK 010905Z AUTO 00000KT 9SM OVC039 A3013 RMK MADISHF
CNK,2017-04-01 09:10,-97.6500,39.5500,M,M,M,0.00,0.00,M,30.13,M,9.00,M,OVC,M,M,M,3900.00,M,M,M,M,KCNK 010910Z AUTO 00000KT 9SM OVC039 A3013 RMK MADISHF
CNK,2017-04-01 09:15,-97.6500,39.5500,M,M,M,0.00,0.00,M,30.13,M,9.00,M,OVC,M,M,M,3900.00,M,M,M,M,KCNK 010915Z AUTO 00000KT 9SM OVC039 A3013 RMK MADISHF
CNK,2017-04-01 09:20,-97.6500,39.5500,M,M,M,20.00,3.00,M,30.12,M,9.00,M,BKN,OVC,M,M,3900.00,10000.00,M,M,M,KCNK 010920Z AUTO 02003KT 9SM BKN039 OVC100 A3012 RMK MADISHF
CNK,2017-04-01 09:25,-97.6500,39.5500,M,M,M,20.00,5.00,M,30.12,M,8.00,M,BKN,OVC,M,M,3900.00,10000.00,M,M,M,KCNK 010925Z AUTO 02005KT 8SM BKN039 OVC100 A3012 RMK MADISHF
CNK,2017-04-01 09:30,-97.6500,39.5500,M,M,M,50.00,3.00,M,30.12,M,9.00,M,SCT,OVC,M,M,3900.00,10000.00,M,M,M,KCNK 010930Z AUTO 05003KT 9SM SCT039 OVC100 A3012 RMK MADISHF
CNK,2017-04-01 09:35,-97.6500,39.5500,M,M,M,60.00,3.00,M,30.12,M,8.00,M,SCT,OVC,M,M,3900.00,10000.00,M,M,M,KCNK 010935Z AUTO 06003KT 8SM SCT039 OVC100 A3012 RMK  LTG DSNT S! MADISHF
CNK,2017-04-01 09:40,-97.6500,39.5500,M,M,M,60.00,3.00,M,30.13,M,8.00,M,FEW,OVC,M,M,3900.00,11000.00,M,M,M,KCNK 010940Z AUTO 06003KT 8SM FEW039 OVC110 A3013 RMK  LTG DSNT S! MADISHF
CNK,2017-04-01 09:45,-97.6500,39.5500,M,M,M,70.00,4.00,M,30.13,M,8.00,M,OVC,M,M,M,11000.00,M,M,M,M,KCNK 010945Z AUTO 07004KT 8SM OVC110 A3013 RMK  LTG DSNT S AND SW! MADISHF
CNK,2017-04-01 09:50,-97.6500,39.5500,M,M,M,60.00,3.00,M,30.13,M,8.00,M,FEW,OVC,M,M,7500.00,11000.00,M,M,M,KCNK 010950Z AUTO 06003KT 8SM FEW075 OVC110 A3013 RMK  LTG DSNT S AND SW! MADISHF
CNK,2017-04-01 09:55,-97.6500,39.5500,44.10,43.00,95.88,30.00,4.00,0.00,30.12,1020.40,8.00,M,SCT,OVC,M,M,7500.00,11000.00,M,M,M,KCNK 010955Z AUTO 03004KT 8SM SCT075 OVC110 07/06 A3012 RMK AO2 LTG DSNT S AND SW SLP204 T00670061
CNK,2017-04-01 10:00,-97.6500,39.5500,M,M,M,20.00,5.00,M,30.12,M,7.00,M,FEW,OVC,M,M,7500.00,11000.00,M,M,M,KCNK 011000Z AUTO 02005KT 7SM FEW075 OVC110 A3012 RMK  LTG DSNT S! MADISHF
CNK,2017-04-01 10:05,-97.6500,39.5500,M,M,M,0.00,0.00,M,30.13,M,7.00,M,FEW,OVC,M,M,7500.00,10000.00,M,M,-RA,KCNK 011005Z AUTO 00000KT 7SM -RA FEW075 OVC100 A3013 RMK  LTG DSNT S! MADISHF
CNK,2017-04-01 10:10,-97.6500,39.5500,M,M,M,0.00,0.00,M,30.13,M,8.00,M,FEW,BKN,OVC,M,7500.00,9500.00,11000.00,M,-RA,KCNK 011010Z AUTO 00000KT 8SM -RA FEW075 BKN095 OVC110 A3013 RMK  LTG DSNT S! MADISHF
CNK,2017-04-01 10:15,-97.6500,39.5500,M,M,M,0.00,0.00,M,30.13,M,8.00,M,BKN,OVC,M,M,8500.00,10000.00,M,M,-RA,KCNK 011015Z AUTO 00000KT 8SM -RA BKN085 OVC100 A3013 RMK MADISHF
CNK,2017-04-01 10:20,-97.6500,39.5500,M,M,M,0.00,0.00,M,30.14,M,7.00,M,OVC,M,M,M,8500.00,M,M,M,-RA,KCNK 011020Z AUTO 00000KT 7SM -RA OVC085 A3014 RMK  LTG DSNT SE AND S! MADISHF
CNK,2017-04-01 10:25,-97.6500,39.5500,M,M,M,160.00,3.00,M,30.15,M,6.00,M,OVC,M,M,M,8500.00,M,M,M,-RA BR,KCNK 011025Z AUTO 16003KT 6SM -RA BR OVC085 A3015 RMK  LTG DSNT SE AND S! MADISHF
CNK,2017-04-01 10:30,-97.6500,39.5500,M,M,M,150.00,3.00,0.01,30.15,M,6.00,M,BKN,OVC,M,M,7999.00,9000.00,M,M,-RA BR,KCNK 011030Z AUTO 15003KT 6SM -RA BR BKN079 OVC090 A3015 RMK P0001  LTG DSNT SE AND S! MADISHF
CNK,2017-04-01 10:35,-97.6500,39.5500,M,M,M,190.00,3.00,0.02,30.16,M,4.00,M,BKN,OVC,M,M,7500.00,9000.00,M,M,RA BR,KCNK 011035Z AUTO 19003KT 4SM RA BR BKN075 OVC090 A3016 RMK P0002  LTG DSNT SE AND S! MADISHF
CNK,2017-04-01 10:40,-97.6500,39.5500,M,M,M,190.00,4.00,0.03,30.17,M,3.50,M,OVC,M,M,M,7500.00,M,M,M,RA BR,KCNK 011040Z AUTO 19004KT 3SM RA BR OVC075 A3017 RMK P0003  LTG DSNT SE AND S! MADISHF
CNK,2017-04-01 10:45,-97.6500,39.5500,M,M,M,180.00,3.00,0.05,30.17,M,3.50,M,OVC,M,M,M,7000.00,M,M,M,RA BR,KCNK 011045Z AUTO 18003KT 3SM RA BR OVC070 A3017 RMK P0005  LTG DSNT SE AND S! MADISHF
CNK,2017-04-01 10:50,-97.6500,39.5500,M,M,M,0.00,0.00,0.08,30.15,M,3.00,M,OVC,M,M,M,7000.00,M,M,M,RA BR,KCNK 011050Z AUTO 00000KT 3SM RA BR OVC070 A3015 RMK P0008  LTG DSNT E-S! MADISHF
CNK,2017-04-01 10:55,-97.6500,39.5500,43.00,43.00,100.00,0.00,0.00,0.10,30.15,1021.40,2.00,M,OVC,M,M,M,7000.00,M,M,M,RA BR,KCNK 011055Z AUTO 00000KT 2SM RA BR OVC070 06/06 A3015 RMK AO2 LTG DSNT E-S RAB02 SLP214 P0010 T00610061
CNK,2017-04-01 11:00,-97.6500,39.5500,M,M,M,0.00,0.00,0.03,30.15,M,2.00,M,OVC,M,M,M,7000.00,M,M,M,RA BR,KCNK 011100Z AUTO 00000KT 2SM RA BR OVC070 A3015 RMK P0003  LTG DSNT E! MADISHF
CNK,2017-04-01 11:05,-97.6500,39.5500,M,M,M,0.00,0.00,0.05,30.14,M,2.50,M,OVC,M,M,M,7000.00,M,M,M,RA BR,KCNK 011105Z AUTO 00000KT 2 1/2SM RA BR OVC070 A3014 RMK P0005  LTG DSNT SE! MADISHF
CNK,2017-04-01 11:10,-97.6500,39.5500,M,M,M,20.00,3.00,0.06,30.14,M,3.00,M,OVC,M,M,M,7000.00,M,M,M,RA BR,KCNK 011110Z AUTO 02003KT 3SM RA BR OVC070 A3014 RMK P0006  LTG DSNT SE! MADISHF
CNK,2017-04-01 11:13,-97.6500,39.5500,43.00,43.00,100.00,30.00,4.00,0.08,30.13,M,3.00,M,OVC,M,M,M,7000.00,M,M,M,RA BR,KCNK 011113Z AUTO 03004KT 3SM RA BR OVC070 06/06 A3013 RMK AO2 LTG DSNT SE P0008 T00610061
CNK,2017-04-01 11:15,-97.6500,39.5500,M,M,M,40.00,4.00,0.08,30.13,M,3.00,M,OVC,M,M,M,7000.00,M,M,M,RA BR,KCNK 011115Z AUTO 04004KT 3SM RA BR OVC070 A3013 RMK P0008  LTG DSNT SE! MADISHF
CNK,2017-04-01 11:20,-97.6500,39.5500,M,M,M,60.00,6.00,0.11,30.12,M,3.00,M,OVC,M,M,M,7500.00,M,M,M,RA BR,KCNK 011120Z AUTO 06006KT 3SM RA BR OVC075 A3012 RMK P0011 MADISHF
CNK,2017-04-01 11:25,-97.6500,39.5500,M,M,M,60.00,9.00,0.13,30.10,M,3.00,M,OVC,M,M,M,7000.00,M,M,M,RA BR,KCNK 011125Z AUTO 06009KT 3SM RA BR OVC070 A3010 RMK P0013 MADISHF
CNK,2017-04-01 11:30,-97.6500,39.5500,M,M,M,60.00,11.00,0.15,30.08,M,3.00,M,OVC,M,M,M,7500.00,M,M,M,RA BR,KCNK 011130Z AUTO 06011KT 3SM RA BR OVC075 A3008 RMK P0015 MADISHF
CNK,2017-04-01 11:35,-97.6500,39.5500,M,M,M,60.00,12.00,0.17,M,M,3.00,M,OVC,M,M,M,7500.00,M,M,M,RA BR,KCNK 011135Z AUTO 06012KT 3SM RA BR OVC075 RMK P0017 MADISHF
CNK,2017-04-01 11:40,-97.6500,39.5500,M,M,M,80.00,10.00,0.18,30.07,M,3.50,M,OVC,M,M,M,7999.00,M,M,M,-RA BR,KCNK 011140Z AUTO 08010KT 3SM -RA BR OVC079 A3007 RMK P0018 MADISHF
CNK,2017-04-01 11:45,-97.6500,39.5500,M,M,M,90.00,11.00,0.18,30.08,M,4.00,M,OVC,M,M,M,7999.00,M,M,M,-RA BR,KCNK 011145Z AUTO 09011KT 4SM -RA BR OVC079 A3008 RMK P0018 MADISHF
CNK,2017-04-01 11:50,-97.6500,39.5500,M,M,M,100.00,10.00,0.18,30.08,M,5.00,M,OVC,M,M,M,7999.00,M,M,M,-RA BR,KCNK 011150Z AUTO 10010KT 5SM -RA BR OVC079 A3008 RMK P0018 MADISHF
CNK,2017-04-01 11:55,-97.6500,39.5500,43.00,43.00,100.00,110.00,9.00,0.18,30.10,1019.40,6.00,M,OVC,M,M,M,8500.00,M,M,M,-RA BR,KCNK 011155Z AUTO 11009KT 6SM -RA BR OVC085 06/06 A3010 RMK AO2 PRESRR SLP194 P0018 60028 70028 T00610061 10072 20061 58012
CNK,2017-04-01 12:00,-97.6500,39.5500,M,M,M,100.00,9.00,0.01,30.10,M,7.00,M,OVC,M,M,M,8500.00,M,M,M,-RA,KCNK 011200Z AUTO 10009KT 7SM -RA OVC085 A3010 RMK P0001 MADISHF
CNK,2017-04-01 12:05,-97.6500,39.5500,M,M,M,90.00,7.00,0.01,30.12,M,8.00,M,OVC,M,M,M,8500.00,M,M,M,M,KCNK 011205Z AUTO 09007KT 8SM OVC085 A3012 RMK P0001 MADISHF
CNK,2017-04-01 12:10,-97.6500,39.5500,M,M,M,120.00,3.00,0.01,30.15,M,8.00,M,OVC,M,M,M,7999.00,M,M,M,-RA,KCNK 011210Z AUTO 12003KT 8SM -RA OVC079 A3015 RMK P0001 VRB03G14KT  MADISHF
CNK,2017-04-01 12:15,-97.6500,39.5500,M,M,M,200.00,4.00,0.01,30.17,M,8.00,M,SCT,OVC,M,M,3300.00,7999.00,M,M,-RA,KCNK 011215Z AUTO 20004KT 8SM -RA SCT033 OVC079 A3017 RMK P0001  LTG DSNT SW! MADISHF
CNK,2017-04-01 12:20,-97.6500,39.5500,M,M,M,200.00,3.00,0.01,30.17,M,7.00,M,BKN,OVC,M,M,3300.00,7999.00,M,M,-RA,KCNK 011220Z AUTO 20003KT 7SM -RA BKN033 OVC079 A3017 RMK P0001  LTG DSNT SW! MADISHF
CNK,2017-04-01 12:25,-97.6500,39.5500,M,M,M,200.00,3.00,0.02,30.17,M,6.00,M,BKN,OVC,M,M,3200.00,7999.00,M,M,-RA BR,KCNK 011225Z AUTO 20003KT 6SM -RA BR BKN032 OVC079 A3017 RMK P0002 MADISHF
CNK,2017-04-01 12:30,-97.6500,39.5500,M,M,M,220.00,3.00,0.03,30.17,M,5.00,M,BKN,OVC,M,M,3399.00,7999.00,M,M,RA BR,KCNK 011230Z AUTO 22003KT 5SM RA BR BKN033 OVC079 A3017 RMK P0003  LTG DSNT S! MADISHF
CNK,2017-04-01 12:35,-97.6500,39.5500,M,M,M,0.00,0.00,0.04,30.17,M,5.00,M,OVC,M,M,M,3399.00,M,M,M,-RA BR,KCNK 011235Z AUTO 00000KT 5SM -RA BR OVC033 A3017 RMK P0004  LTG DSNT S! MADISHF
CNK,2017-04-01 12:40,-97.6500,39.5500,M,M,M,0.00,0.00,0.04,30.17,M,5.00,M,OVC,M,M,M,3399.00,M,M,M,-RA BR,KCNK 011240Z AUTO 00000KT 5SM -RA BR OVC033 A3017 RMK P0004  LTG DSNT S! MADISHF
CNK,2017-04-01 12:45,-97.6500,39.5500,M,M,M,0.00,0.00,0.05,30.17,M,4.00,M,BKN,OVC,M,M,3399.00,7500.00,M,M,-RA BR,KCNK 011245Z AUTO 00000KT 4SM -RA BR BKN033 OVC075 A3017 RMK P0005  LTG DSNT S! MADISHF
CNK,2017-04-01 12:50,-97.6500,39.5500,M,M,M,0.00,0.00,0.06,30.16,M,4.00,M,BKN,OVC,M,M,3399.00,7500.00,M,M,RA BR,KCNK 011250Z AUTO 00000KT 4SM RA BR BKN033 OVC075 A3016 RMK P0006 MADISHF
CNK,2017-04-01 12:55,-97.6500,39.5500,43.00,43.00,100.00,0.00,0.00,0.07,30.17,1021.80,5.00,M,SCT,OVC,M,M,3400.00,7500.00,M,M,RA BR,KCNK 011255Z AUTO 00000KT 5SM RA BR SCT034 OVC075 06/06 A3017 RMK AO2 SLP218 P0007 T00610061
CNK,2017-04-01 13:00,-97.6500,39.5500,M,M,M,20.00,3.00,0.02,30.17,M,5.00,M,FEW,OVC,M,M,3399.00,7500.00,M,M,RA BR,KCNK 011300Z AUTO 02003KT 5SM RA BR FEW033 OVC075 A3017 RMK P0002 MADISHF
CNK,2017-04-01 13:05,-97.6500,39.5500,M,M,M,20.00,4.00,0.03,30.17,M,4.00,M,FEW,OVC,M,M,3600.00,7500.00,M,M,RA BR,KCNK 011305Z AUTO 02004KT 4SM RA BR FEW036 OVC075 A3017 RMK P0003 MADISHF
CNK,2017-04-01 13:10,-97.6500,39.5500,M,M,M,20.00,8.00,0.05,30.15,M,4.00,M,OVC,M,M,M,7500.00,M,M,M,RA BR,KCNK 011310Z AUTO 02008KT 4SM RA BR OVC075 A3015 RMK P0005 MADISHF
CNK,2017-04-01 13:15,-97.6500,39.5500,M,M,M,20.00,9.00,0.06,30.15,M,4.00,M,OVC,M,M,M,7500.00,M,M,M,RA BR,KCNK 011315Z AUTO 02009KT 4SM RA BR OVC075 A3015 RMK P0006 MADISHF
CNK,2017-04-01 13:20,-97.6500,39.5500,M,M,M,20.00,4.00,0.08,30.16,M,3.00,M,OVC,M,M,M,7999.00,M,M,M,RA BR,KCNK 011320Z AUTO 02004KT 3SM RA BR OVC079 A3016 RMK P0008 MADISHF
CNK,2017-04-01 13:25,-97.6500,39.5500,M,M,M,50.00,3.00,0.08,30.16,M,3.00,M,OVC,M,M,M,7999.00,M,M,M,-RA BR,KCNK 011325Z AUTO 05003KT 3SM -RA BR OVC079 A3016 RMK P0008 MADISHF
CNK,2017-04-01 13:30,-97.6500,39.5500,M,M,M,50.00,4.00,0.09,30.16,M,3.00,M,OVC,M,M,M,7999.00,M,M,M,-RA BR,KCNK 011330Z AUTO 05004KT 3SM -RA BR OVC079 A3016 RMK P0009 MADISHF
CNK,2017-04-01 13:35,-97.6500,39.5500,M,M,M,40.00,5.00,0.09,30.15,M,3.50,M,OVC,M,M,M,8500.00,M,M,M,-RA BR,KCNK 011335Z AUTO 04005KT 3SM -RA BR OVC085 A3015 RMK P0009 MADISHF
CNK,2017-04-01 13:40,-97.6500,39.5500,M,M,M,0.00,0.00,0.10,30.16,M,4.00,M,OVC,M,M,M,7999.00,M,M,M,-RA BR,KCNK 011340Z AUTO 00000KT 4SM -RA BR OVC079 A3016 RMK P0010 MADISHF
CNK,2017-04-01 13:45,-97.6500,39.5500,M,M,M,70.00,3.00,0.10,30.17,M,4.00,M,OVC,M,M,M,7999.00,M,M,M,-RA BR,KCNK 011345Z AUTO 07003KT 4SM -RA BR OVC079 A3017 RMK P0010 MADISHF
CNK,2017-04-01 13:50,-97.6500,39.5500,M,M,M,30.00,3.00,0.10,30.17,M,4.00,M,OVC,M,M,M,8500.00,M,M,M,-RA BR,KCNK 011350Z AUTO 03003KT 4SM -RA BR OVC085 A3017 RMK P0010 MADISHF
CNK,2017-04-01 13:55,-97.6500,39.5500,43.00,43.00,100.00,0.00,0.00,0.11,30.19,1022.60,4.00,M,OVC,M,M,M,9000.00,M,M,M,-RA BR,KCNK 011355Z AUTO 00000KT 4SM -RA BR OVC090 06/06 A3019 RMK AO2 PRESRR SLP226 P0011 T00610061
CNK,2017-04-01 14:00,-97.6500,39.5500,M,M,M,250.00,6.00,M,30.21,M,4.00,M,FEW,OVC,M,M,5000.00,8500.00,M,M,-RA BR,KCNK 011400Z AUTO 25006KT 4SM -RA BR FEW050 OVC085 A3021 RMK MADISHF
CNK,2017-04-01 14:05,-97.6500,39.5500,M,M,M,230.00,7.00,0.01,30.23,M,4.00,M,FEW,SCT,OVC,M,3300.00,5000.00,8500.00,M,-RA BR,KCNK 011405Z AUTO 23007KT 4SM -RA BR FEW033 SCT050 OVC085 A3023 RMK P0001 MADISHF
CNK,2017-04-01 14:10,-97.6500,39.5500,M,M,M,230.00,6.00,0.01,30.23,M,4.00,M,FEW,BKN,OVC,M,900.00,5000.00,9000.00,M,-RA BR,KCNK 011410Z AUTO 23006KT 4SM -RA BR FEW009 BKN050 OVC090 A3023 RMK P0001 MADISHF
CNK,2017-04-01 14:12,-97.6500,39.5500,44.10,44.10,100.00,230.00,4.00,0.02,30.22,M,4.00,M,FEW,BKN,OVC,M,900.00,5500.00,8500.00,M,-RA BR,KCNK 011412Z AUTO 23004KT 4SM -RA BR FEW009 BKN055 OVC085 07/07 A3022 RMK AO2 P0002 T00670067
CNK,2017-04-01 14:15,-97.6500,39.5500,M,M,M,0.00,0.00,0.02,30.20,M,3.00,M,FEW,BKN,OVC,M,1100.00,6000.00,9000.00,M,RA BR,KCNK 011415Z AUTO 00000KT 3SM RA BR FEW011 BKN060 OVC090 A3020 RMK P0002 MADISHF
CNK,2017-04-01 14:20,-97.6500,39.5500,M,M,M,0.00,0.00,0.03,30.19,M,2.50,M,FEW,BKN,OVC,M,1100.00,6000.00,8500.00,M,RA BR,KCNK 011420Z AUTO 00000KT 2 1/2SM RA BR FEW011 BKN060 OVC085 A3019 RMK P0003 MADISHF
CNK,2017-04-01 14:22,-97.6500,39.5500,42.80,42.80,100.00,0.00,0.00,0.00,30.19,M,2.00,M,FEW,OVC,M,M,1100.00,6000.00,M,M,RA BR,KCNK 011422Z AUTO 00000KT 2SM RA BR FEW011 OVC060 06/06 A3019
CNK,2017-04-01 14:25,-97.6500,39.5500,M,M,M,0.00,0.00,0.05,30.19,M,2.00,M,FEW,FEW,OVC,M,1100.00,3200.00,6000.00,M,RA BR,KCNK 011425Z AUTO 00000KT 2SM RA BR FEW011 FEW032 OVC060 A3019 RMK P0005 MADISHF
CNK,2017-04-01 14:30,-97.6500,39.5500,M,M,M,50.00,5.00,0.09,30.18,M,1.75,M,FEW,BKN,OVC,M,999.00,6000.00,7999.00,M,RA BR,KCNK 011430Z AUTO 05005KT 2SM RA BR FEW009 BKN060 OVC079 A3018 RMK P0009 MADISHF
CNK,2017-04-01 14:35,-97.6500,39.5500,M,M,M,50.00,5.00,0.10,30.18,M,2.00,M,FEW,BKN,OVC,M,999.00,6000.00,7999.00,M,RA BR,KCNK 011435Z AUTO 05005KT 2SM RA BR FEW009 BKN060 OVC079 A3018 RMK P0010 MADISHF
CNK,2017-04-01 14:40,-97.6500,39.5500,M,M,M,60.00,8.00,0.12,30.16,M,2.00,M,SCT,OVC,M,M,6000.00,8500.00,M,M,-RA BR,KCNK 011440Z AUTO 06008KT 2SM -RA BR SCT060 OVC085 A3016 RMK P0012 MADISHF
CNK,2017-04-01 14:45,-97.6500,39.5500,M,M,M,50.00,9.00,0.12,30.15,M,2.00,M,SCT,OVC,M,M,6000.00,9000.00,M,M,-RA BR,KCNK 011445Z AUTO 05009KT 2SM -RA BR SCT060 OVC090 A3015 RMK P0012 MADISHF
CNK,2017-04-01 14:50,-97.6500,39.5500,M,M,M,M,M,0.13,30.13,M,2.50,M,FEW,OVC,M,M,6000.00,9000.00,M,M,-RA BR,KCNK 011450Z AUTO /////KT 2 1/2SM -RA BR FEW060 OVC090 A3013 RMK P0013 MADISHF
CNK,2017-04-01 14:55,-97.6500,39.5500,43.00,43.00,100.00,30.00,14.00,0.13,30.13,1020.60,3.00,M,FEW,FEW,OVC,M,100.00,6000.00,9000.00,M,-RA BR,KCNK 011455Z AUTO 03014KT 3SM -RA BR FEW001 FEW060 OVC090 06/06 A3013 RMK AO2 PRESFR SLP206 P0013 60031 T00610061 50010
CNK,2017-04-01 15:00,-97.6500,39.5500,M,M,M,M,M,M,30.14,M,3.50,M,FEW,SCT,OVC,M,100.00,6500.00,9000.00,M,-RA BR,KCNK 011500Z AUTO /////KT 3SM -RA BR FEW001 SCT065 OVC090 A3014 RMK MADISHF
CNK,2017-04-01 15:05,-97.6500,39.5500,M,M,M,60.00,5.00,0.01,30.17,M,4.00,M,SCT,SCT,OVC,M,300.00,6500.00,9000.00,M,-RA BR,KCNK 011505Z AUTO 06005KT 4SM -RA BR SCT003 SCT065 OVC090 A3017 RMK P0001 VRB05KT  MADISHF
CNK,2017-04-01 15:10,-97.6500,39.5500,M,M,M,120.00,4.00,0.01,30.18,M,4.00,M,BKN,BKN,OVC,M,300.00,6500.00,9500.00,M,-RA BR,KCNK 011510Z AUTO 12004KT 4SM -RA BR BKN003 BKN065 OVC095 A3018 RMK P0001 MADISHF
CNK,2017-04-01 15:15,-97.6500,39.5500,M,M,M,110.00,3.00,0.01,30.19,M,5.00,M,BKN,BKN,OVC,M,300.00,6500.00,9000.00,M,-RA BR,KCNK 011515Z AUTO 11003KT 5SM -RA BR BKN003 BKN065 OVC090 A3019 RMK P0001 MADISHF
CNK,2017-04-01 15:16,-97.6500,39.5500,44.10,44.10,100.00,100.00,3.00,0.01,30.20,M,6.00,M,BKN,BKN,OVC,M,300.00,6500.00,9000.00,M,-RA BR,KCNK 011516Z AUTO 10003KT 6SM -RA BR BKN003 BKN065 OVC090 07/07 A3020 RMK AO2 PRESRR P0001 T00670067
CNK,2017-04-01 15:20,-97.6500,39.5500,M,M,M,110.00,3.00,0.01,30.20,M,7.00,M,BKN,OVC,M,M,499.00,9000.00,M,M,-RA,KCNK 011520Z AUTO 11003KT 7SM -RA BKN004 OVC090 A3020 RMK P0001 VRB03KT  MADISHF
CNK,2017-04-01 15:23,-97.6500,39.5500,44.10,44.10,100.00,90.00,4.00,0.01,30.20,M,7.00,M,BKN,OVC,M,M,500.00,9000.00,M,M,-RA,KCNK 011523Z AUTO 09004KT 7SM -RA BKN005 OVC090 07/07 A3020 RMK AO2 P0001 T00670067
CNK,2017-04-01 15:25,-97.6500,39.5500,M,M,M,80.00,4.00,0.01,30.20,M,8.00,M,BKN,OVC,M,M,499.00,9000.00,M,M,M,KCNK 011525Z AUTO 08004KT 8SM BKN004 OVC090 A3020 RMK P0001 MADISHF
CNK,2017-04-01 15:30,-97.6500,39.5500,M,M,M,60.00,3.00,0.01,30.20,M,8.00,M,BKN,OVC,M,M,499.00,1200.00,M,M,M,KCNK 011530Z AUTO 06003KT 8SM BKN004 OVC012 A3020 RMK P0001 CIG 3V8  MADISHF
CNK,2017-04-01 15:35,-97.6500,39.5500,M,M,M,90.00,4.00,0.01,30.21,M,8.00,M,OVC,M,M,M,499.00,M,M,M,M,KCNK 011535Z AUTO 09004KT 8SM OVC004 A3021 RMK P0001 CIG 3V8  MADISHF
CNK,2017-04-01 15:40,-97.6500,39.5500,M,M,M,90.00,6.00,0.01,30.20,M,8.00,M,OVC,M,M,M,499.00,M,M,M,M,KCNK 011540Z AUTO 09006KT 8SM OVC004 A3020 RMK P0001 CIG 4V8  MADISHF
CNK,2017-04-01 15:45,-97.6500,39.5500,M,M,M,80.00,7.00,0.01,30.19,M,7.00,M,OVC,M,M,M,499.00,M,M,M,-RA,KCNK 011545Z AUTO 08007KT 7SM -RA OVC004 A3019 RMK P0001 CIG 4V9  MADISHF
CNK,2017-04-01 15:50,-97.6500,39.5500,M,M,M,60.00,6.00,0.01,30.18,M,6.00,M,OVC,M,M,M,600.00,M,M,M,-RA BR,KCNK 011550Z AUTO 06006KT 6SM -RA BR OVC006 A3018 RMK P0001 CIG 4V9  MADISHF
CNK,2017-04-01 15:55,-97.6500,39.5500,44.10,44.10,100.00,60.00,7.00,0.01,30.17,1022.00,5.00,M,OVC,M,M,M,600.00,M,M,M,-RA BR,KCNK 011555Z AUTO 06007KT 5SM -RA BR OVC006 07/07 A3017 RMK AO2 RAE24B45 CIG 004V009 SLP220 P0001 T00670067
CNK,2017-04-01 16:00,-97.6500,39.5500,M,M,M,70.00,10.00,0.01,30.16,M,4.00,M,OVC,M,M,M,600.00,M,M,M,-RA BR,KCNK 011600Z AUTO 07010KT 4SM -RA BR OVC006 A3016 RMK P0001 CIG 4V9  MADISHF
CNK,2017-04-01 16:05,-97.6500,39.5500,M,M,M,100.00,10.00,0.02,30.18,M,3.50,M,OVC,M,M,M,600.00,M,M,M,RA BR,KCNK 011605Z AUTO 10010KT 3SM RA BR OVC006 A3018 RMK P0002 MADISHF
CNK,2017-04-01 16:10,-97.6500,39.5500,M,M,M,80.00,9.00,0.03,30.16,M,3.50,M,OVC,M,M,M,600.00,M,M,M,RA BR,KCNK 011610Z AUTO 08009KT 3SM RA BR OVC006 A3016 RMK P0003 CIG 4V9  MADISHF
CNK,2017-04-01 16:15,-97.6500,39.5500,M,M,M,80.00,9.00,0.04,30.16,M,4.00,M,OVC,M,M,M,600.00,M,M,M,-RA BR,KCNK 011615Z AUTO 08009KT 4SM -RA BR OVC006 A3016 RMK P0004 CIG 4V9  MADISHF
CNK,2017-04-01 16:20,-97.6500,39.5500,M,M,M,80.00,10.00,0.04,30.16,M,5.00,M,BKN,OVC,M,M,600.00,3399.00,M,M,-RA BR,KCNK 011620Z AUTO 08010KT 5SM -RA BR BKN006 OVC033 A3016 RMK P0004 MADISHF
CNK,2017-04-01 16:25,-97.6500,39.5500,M,M,M,80.00,10.00,0.05,30.15,M,8.00,M,BKN,OVC,M,M,600.00,3399.00,M,M,-RA,KCNK 011625Z AUTO 08010KT 8SM -RA BKN006 OVC033 A3015 RMK P0005 MADISHF
CNK,2017-04-01 16:30,-97.6500,39.5500,M,M,M,70.00,12.00,0.05,30.15,M,10.00,M,OVC,M,M,M,600.00,M,M,M,M,KCNK 011630Z AUTO 07012KT 10SM OVC006 A3015 RMK P0005 MADISHF
CNK,2017-04-01 16:35,-97.6500,39.5500,M,M,M,70.00,9.00,0.05,30.14,M,10.00,M,OVC,M,M,M,600.00,M,M,M,M,KCNK 011635Z AUTO 07009KT 10SM OVC006 A3014 RMK P0005 MADISHF
CNK,2017-04-01 16:40,-97.6500,39.5500,M,M,M,70.00,11.00,0.05,30.14,M,10.00,16.00,OVC,M,M,M,600.00,M,M,M,M,KCNK 011640Z AUTO 07011G16KT 10SM OVC006 A3014 RMK P0005 MADISHF
CNK,2017-04-01 16:45,-97.6500,39.5500,M,M,M,70.00,11.00,0.05,30.14,M,10.00,M,OVC,M,M,M,600.00,M,M,M,M,KCNK 011645Z AUTO 07011KT 10SM OVC006 A3014 RMK P0005 MADISHF
CNK,2017-04-01 16:50,-97.6500,39.5500,M,M,M,80.00,10.00,0.05,30.14,M,10.00,M,OVC,M,M,M,600.00,M,M,M,M,KCNK 011650Z AUTO 08010KT 10SM OVC006 A3014 RMK P0005 CIG 4V8  MADISHF
CNK,2017-04-01 16:55,-97.6500,39.5500,44.10,43.00,95.88,80.00,10.00,0.05,30.14,1021.10,10.00,M,OVC,M,M,M,600.00,M,M,M,M,KCNK 011655Z AUTO 08010KT 10SM OVC006 07/06 A3014 RMK AO2 RAE29 CIG 004V009 SLP211 P0005 T00670061
CNK,2017-04-01 17:00,-97.6500,39.5500,M,M,M,80.00,11.00,M,30.15,M,10.00,M,OVC,M,M,M,600.00,M,M,M,M,KCNK 011700Z AUTO 08011KT 10SM OVC006 A3015 RMK CIG 4V10  MADISHF
CNK,2017-04-01 17:05,-97.6500,39.5500,M,M,M,90.00,10.00,M,30.15,M,10.00,M,OVC,M,M,M,600.00,M,M,M,M,KCNK 011705Z AUTO 09010KT 10SM OVC006 A3015 RMK CIG 4V10  MADISHF
CNK,2017-04-01 17:10,-97.6500,39.5500,M,M,M,80.00,11.00,M,30.14,M,10.00,M,OVC,M,M,M,800.00,M,M,M,M,KCNK 011710Z AUTO 08011KT 10SM OVC008 A3014 RMK CIG 5V10  MADISHF
CNK,2017-04-01 17:15,-97.6500,39.5500,M,M,M,80.00,12.00,M,30.14,M,10.00,M,OVC,M,M,M,600.00,M,M,M,M,KCNK 011715Z AUTO 08012KT 10SM OVC006 A3014 RMK CIG 5V10  MADISHF
CNK,2017-04-01 17:20,-97.6500,39.5500,M,M,M,80.00,11.00,M,30.14,M,10.00,M,OVC,M,M,M,600.00,M,M,M,M,KCNK 011720Z AUTO 08011KT 10SM OVC006 A3014 RMK MADISHF
CNK,2017-04-01 17:25,-97.6500,39.5500,M,M,M,80.00,13.00,M,30.15,M,10.00,M,OVC,M,M,M,700.00,M,M,M,M,KCNK 011725Z AUTO 08013KT 10SM OVC007 A3015 RMK MADISHF
CNK,2017-04-01 17:28,-97.6500,39.5500,44.10,43.00,95.88,80.00,12.00,0.00,30.15,M,10.00,M,OVC,M,M,M,700.00,M,M,M,M,KCNK 011728Z AUTO 08012KT 10SM OVC007 07/06 A3015 RMK AO2 CIG 006V009 T00670061
CNK,2017-04-01 17:30,-97.6500,39.5500,M,M,M,90.00,11.00,M,30.15,M,10.00,M,OVC,M,M,M,700.00,M,M,M,M,KCNK 011730Z AUTO 09011KT 10SM OVC007 A3015 RMK MADISHF
CNK,2017-04-01 17:35,-97.6500,39.5500,M,M,M,90.00,9.00,M,30.15,M,10.00,M,BKN,OVC,M,M,700.00,1100.00,M,M,M,KCNK 011735Z AUTO 09009KT 10SM BKN007 OVC011 A3015 RMK MADISHF
CNK,2017-04-01 17:40,-97.6500,39.5500,M,M,M,70.00,8.00,M,30.15,M,10.00,M,BKN,OVC,M,M,700.00,1100.00,M,M,M,KCNK 011740Z AUTO 07008KT 10SM BKN007 OVC011 A3015 RMK MADISHF
CNK,2017-04-01 17:45,-97.6500,39.5500,M,M,M,70.00,9.00,M,30.16,M,10.00,M,OVC,M,M,M,900.00,M,M,M,M,KCNK 011745Z AUTO 07009KT 10SM OVC009 A3016 RMK CIG 6V12  MADISHF
CNK,2017-04-01 17:50,-97.6500,39.5500,M,M,M,70.00,11.00,M,30.15,M,10.00,M,OVC,M,M,M,900.00,M,M,M,M,KCNK 011750Z AUTO 07011KT 10SM OVC009 A3015 RMK CIG 6V12  MADISHF
CNK,2017-04-01 17:55,-97.6500,39.5500,45.00,43.00,92.65,80.00,10.00,0.00,30.15,1021.30,10.00,M,OVC,M,M,M,800.00,M,M,M,M,KCNK 011755Z AUTO 08010KT 10SM OVC008 07/06 A3015 RMK AO2 CIG 006V012 SLP213 60037 T00720061 10072 20061 51007
CNK,2017-04-01 18:00,-97.6500,39.5500,M,M,M,70.00,11.00,M,30.15,M,10.00,M,OVC,M,M,M,800.00,M,M,M,M,KCNK 011800Z AUTO 07011KT 10SM OVC008 A3015 RMK MADISHF
CNK,2017-04-01 18:05,-97.6500,39.5500,M,M,M,80.00,8.00,M,30.15,M,10.00,M,OVC,M,M,M,800.00,M,M,M,M,KCNK 011805Z AUTO 08008KT 10SM OVC008 A3015 RMK MADISHF
CNK,2017-04-01 18:10,-97.6500,39.5500,M,M,M,70.00,7.00,M,30.15,M,10.00,M,BKN,OVC,M,M,800.00,1200.00,M,M,M,KCNK 011810Z AUTO 07007KT 10SM BKN008 OVC012 A3015 RMK MADISHF
CNK,2017-04-01 18:15,-97.6500,39.5500,M,M,M,60.00,6.00,M,30.16,M,10.00,M,OVC,M,M,M,800.00,M,M,M,M,KCNK 011815Z AUTO 06006KT 10SM OVC008 A3016 RMK MADISHF
CNK,2017-04-01 18:20,-97.6500,39.5500,M,M,M,70.00,6.00,M,30.15,M,10.00,M,OVC,M,M,M,800.00,M,M,M,M,KCNK 011820Z AUTO 07006KT 10SM OVC008 A3015 RMK CIG 7V14  MADISHF
CNK,2017-04-01 18:25,-97.6500,39.5500,M,M,M,60.00,9.00,M,30.15,M,10.00,M,BKN,OVC,M,M,800.00,1200.00,M,M,M,KCNK 011825Z AUTO 06009KT 10SM BKN008 OVC012 A3015 RMK MADISHF
CNK,2017-04-01 18:30,-97.6500,39.5500,M,M,M,60.00,10.00,M,30.15,M,10.00,M,OVC,M,M,M,999.00,M,M,M,M,KCNK 011830Z AUTO 06010KT 10SM OVC009 A3015 RMK CIG 7V14  MADISHF
CNK,2017-04-01 18:35,-97.6500,39.5500,M,M,M,50.00,10.00,M,30.14,M,10.00,M,OVC,M,M,M,999.00,M,M,M,M,KCNK 011835Z AUTO 05010KT 10SM OVC009 A3014 RMK CIG 7V13  MADISHF
CNK,2017-04-01 18:36,-97.6500,39.5500,45.00,43.00,92.65,60.00,9.00,0.00,30.14,M,10.00,M,OVC,M,M,M,1000.00,M,M,M,M,KCNK 011836Z AUTO 06009KT 10SM OVC010 07/06 A3014 RMK AO2 CIG 007V013 T00720061
CNK,2017-04-01 18:40,-97.6500,39.5500,M,M,M,60.00,10.00,M,30.14,M,10.00,M,OVC,M,M,M,999.00,M,M,M,M,KCNK 011840Z AUTO 06010KT 10SM OVC009 A3014 RMK MADISHF
CNK,2017-04-01 18:45,-97.6500,39.5500,M,M,M,60.00,7.00,M,30.14,M,10.00,M,OVC,M,M,M,999.00,M,M,M,M,KCNK 011845Z AUTO 06007KT 10SM OVC009 A3014 RMK MADISHF
CNK,2017-04-01 18:50,-97.6500,39.5500,M,M,M,50.00,8.00,M,30.14,M,10.00,M,OVC,M,M,M,1300.00,M,M,M,M,KCNK 011850Z AUTO 05008KT 10SM OVC013 A3014 RMK MADISHF
CNK,2017-04-01 18:55,-97.6500,39.5500,45.00,43.00,92.65,50.00,7.00,0.00,30.15,1021.30,10.00,M,OVC,M,M,M,1300.00,M,M,M,M,KCNK 011855Z AUTO 05007KT 10SM OVC013 07/06 A3015 RMK AO2 SLP213 T00720061
CNK,2017-04-01 19:00,-97.6500,39.5500,M,M,M,60.00,9.00,M,30.15,M,10.00,M,OVC,M,M,M,1300.00,M,M,M,M,KCNK 011900Z AUTO 06009KT 10SM OVC013 A3015 RMK MADISHF
CNK,2017-04-01 19:05,-97.6500,39.5500,M,M,M,40.00,9.00,M,30.14,M,10.00,M,OVC,M,M,M,1300.00,M,M,M,M,KCNK 011905Z AUTO 04009KT 10SM OVC013 A3014 RMK MADISHF
CNK,2017-04-01 19:10,-97.6500,39.5500,M,M,M,40.00,9.00,M,30.14,M,10.00,M,OVC,M,M,M,1300.00,M,M,M,M,KCNK 011910Z AUTO 04009KT 10SM OVC013 A3014 RMK MADISHF
CNK,2017-04-01 19:15,-97.6500,39.5500,M,M,M,50.00,9.00,M,30.14,M,10.00,M,OVC,M,M,M,1200.00,M,M,M,M,KCNK 011915Z AUTO 05009KT 10SM OVC012 A3014 RMK MADISHF
CNK,2017-04-01 19:20,-97.6500,39.5500,M,M,M,70.00,7.00,M,30.15,M,10.00,M,OVC,M,M,M,1200.00,M,M,M,M,KCNK 011920Z AUTO 07007KT 10SM OVC012 A3015 RMK MADISHF
CNK,2017-04-01 19:25,-97.6500,39.5500,M,M,M,50.00,9.00,M,30.15,M,10.00,M,OVC,M,M,M,1300.00,M,M,M,M,KCNK 011925Z AUTO 05009KT 10SM OVC013 A3015 RMK MADISHF
CNK,2017-04-01 19:30,-97.6500,39.5500,M,M,M,40.00,8.00,M,30.15,M,10.00,M,OVC,M,M,M,1300.00,M,M,M,M,KCNK 011930Z AUTO 04008KT 10SM OVC013 A3015 RMK MADISHF
CNK,2017-04-01 19:35,-97.6500,39.5500,M,M,M,50.00,7.00,M,30.15,M,10.00,M,OVC,M,M,M,1300.00,M,M,M,M,KCNK 011935Z AUTO 05007KT 10SM OVC013 A3015 RMK MADISHF
CNK,2017-04-01 19:40,-97.6500,39.5500,M,M,M,50.00,9.00,M,30.14,M,10.00,M,OVC,M,M,M,1300.00,M,M,M,M,KCNK 011940Z AUTO 05009KT 10SM OVC013 A3014 RMK MADISHF
CNK,2017-04-01 19:45,-97.6500,39.5500,M,M,M,50.00,9.00,M,30.14,M,10.00,M,OVC,M,M,M,1300.00,M,M,M,M,KCNK 011945Z AUTO 05009KT 10SM OVC013 A3014 RMK MADISHF
CNK,2017-04-01 19:50,-97.6500,39.5500,M,M,M,50.00,11.00,M,30.14,M,10.00,M,OVC,M,M,M,1300.00,M,M,M,M,KCNK 011950Z AUTO 05011KT 10SM OVC013 A3014 RMK MADISHF
CNK,2017-04-01 19:55,-97.6500,39.5500,46.00,42.10,86.16,50.00,11.00,0.00,30.13,1020.80,10.00,M,OVC,M,M,M,1300.00,M,M,M,M,KCNK 011955Z AUTO 05011KT 10SM OVC013 08/06 A3013 RMK AO2 SLP208 T00780056
CNK,2017-04-01 20:00,-97.6500,39.5500,M,M,M,60.00,12.00,M,30.13,M,10.00,M,OVC,M,M,M,1300.00,M,M,M,M,KCNK 012000Z AUTO 06012KT 10SM OVC013 A3013 RMK MADISHF
CNK,2017-04-01 20:05,-97.6500,39.5500,M,M,M,60.00,9.00,M,30.12,M,10.00,M,OVC,M,M,M,1500.00,M,M,M,M,KCNK 012005Z AUTO 06009KT 10SM OVC015 A3012 RMK MADISHF
CNK,2017-04-01 20:09,-97.6500,39.5500,46.00,42.10,86.16,60.00,11.00,0.00,30.12,M,10.00,M,OVC,M,M,M,1500.00,M,M,M,M,KCNK 012009Z AUTO 06011KT 10SM OVC015 08/06 A3012 RMK AO2 T00780056
CNK,2017-04-01 20:10,-97.6500,39.5500,M,M,M,70.00,11.00,M,30.12,M,10.00,M,OVC,M,M,M,1500.00,M,M,M,M,KCNK 012010Z AUTO 07011KT 10SM OVC015 A3012 RMK MADISHF
CNK,2017-04-01 20:15,-97.6500,39.5500,M,M,M,70.00,11.00,M,30.11,M,10.00,M,OVC,M,M,M,1500.00,M,M,M,M,KCNK 012015Z AUTO 07011KT 10SM OVC015 A3011 RMK MADISHF
CNK,2017-04-01 20:20,-97.6500,39.5500,M,M,M,60.00,10.00,M,30.10,M,10.00,M,OVC,M,M,M,1500.00,M,M,M,M,KCNK 012020Z AUTO 06010KT 10SM OVC015 A3010 RMK MADISHF
CNK,2017-04-01 20:25,-97.6500,39.5500,M,M,M,70.00,11.00,M,30.11,M,10.00,M,OVC,M,M,M,1500.00,M,M,M,M,KCNK 012025Z AUTO 07011KT 10SM OVC015 A3011 RMK MADISHF
CNK,2017-04-01 20:30,-97.6500,39.5500,M,M,M,60.00,12.00,M,30.11,M,10.00,M,OVC,M,M,M,1500.00,M,M,M,M,KCNK 012030Z AUTO 06012KT 10SM OVC015 A3011 RMK MADISHF
CNK,2017-04-01 20:35,-97.6500,39.5500,M,M,M,70.00,9.00,M,30.11,M,10.00,M,OVC,M,M,M,1500.00,M,M,M,M,KCNK 012035Z AUTO 07009KT 10SM OVC015 A3011 RMK MADISHF
CNK,2017-04-01 20:40,-97.6500,39.5500,M,M,M,60.00,12.00,M,30.10,M,10.00,M,OVC,M,M,M,1500.00,M,M,M,M,KCNK 012040Z AUTO 06012KT 10SM OVC015 A3010 RMK MADISHF
CNK,2017-04-01 20:45,-97.6500,39.5500,M,M,M,60.00,9.00,M,30.10,M,10.00,M,OVC,M,M,M,1500.00,M,M,M,M,KCNK 012045Z AUTO 06009KT 10SM OVC015 A3010 RMK MADISHF
CNK,2017-04-01 20:50,-97.6500,39.5500,M,M,M,60.00,8.00,M,30.11,M,10.00,M,OVC,M,M,M,1500.00,M,M,M,M,KCNK 012050Z AUTO 06008KT 10SM OVC015 A3011 RMK MADISHF
CNK,2017-04-01 20:55,-97.6500,39.5500,46.00,42.10,86.16,60.00,9.00,0.00,30.12,1020.20,10.00,M,OVC,M,M,M,1400.00,M,M,M,M,KCNK 012055Z AUTO 06009KT 10SM OVC014 08/06 A3012 RMK AO2 SLP202 T00780056 58010
CNK,2017-04-01 21:00,-97.6500,39.5500,M,M,M,60.00,7.00,M,30.12,M,10.00,M,OVC,M,M,M,1400.00,M,M,M,M,KCNK 012100Z AUTO 06007KT 10SM OVC014 A3012 RMK MADISHF
CNK,2017-04-01 21:05,-97.6500,39.5500,M,M,M,50.00,7.00,M,30.12,M,10.00,M,OVC,M,M,M,1500.00,M,M,M,M,KCNK 012105Z AUTO 05007KT 10SM OVC015 A3012 RMK MADISHF
CNK,2017-04-01 21:10,-97.6500,39.5500,46.00,42.10,86.16,60.00,8.00,0.00,30.12,M,10.00,M,OVC,M,M,M,1500.00,M,M,M,M,KCNK 012110Z AUTO 06008KT 10SM OVC015 08/06 A3012 RMK AO2 T00780056
CNK,2017-04-01 21:15,-97.6500,39.5500,M,M,M,40.00,9.00,M,30.12,M,10.00,M,OVC,M,M,M,1500.00,M,M,M,M,KCNK 012115Z AUTO 04009KT 10SM OVC015 A3012 RMK MADISHF
CNK,2017-04-01 21:20,-97.6500,39.5500,M,M,M,40.00,8.00,M,30.12,M,10.00,M,OVC,M,M,M,1500.00,M,M,M,M,KCNK 012120Z AUTO 04008KT 10SM OVC015 A3012 RMK MADISHF
CNK,2017-04-01 21:25,-97.6500,39.5500,M,M,M,50.00,9.00,M,30.12,M,10.00,M,OVC,M,M,M,1500.00,M,M,M,M,KCNK 012125Z AUTO 05009KT 10SM OVC015 A3012 RMK MADISHF
CNK,2017-04-01 21:30,-97.6500,39.5500,M,M,M,40.00,9.00,M,30.11,M,10.00,M,OVC,M,M,M,1500.00,M,M,M,M,KCNK 012130Z AUTO 04009KT 10SM OVC015 A3011 RMK MADISHF
CNK,2017-04-01 21:35,-97.6500,39.5500,M,M,M,40.00,8.00,M,30.11,M,10.00,M,OVC,M,M,M,1500.00,M,M,M,-RA,KCNK 012135Z AUTO 04008KT 10SM -RA OVC015 A3011 RMK MADISHF
CNK,2017-04-01 21:40,-97.6500,39.5500,M,M,M,30.00,11.00,M,30.10,M,10.00,M,OVC,M,M,M,1500.00,M,M,M,-RA,KCNK 012140Z AUTO 03011KT 10SM -RA OVC015 A3010 RMK MADISHF
CNK,2017-04-01 21:45,-97.6500,39.5500,M,M,M,40.00,10.00,M,30.11,M,10.00,M,OVC,M,M,M,1500.00,M,M,M,-RA,KCNK 012145Z AUTO 04010KT 10SM -RA OVC015 A3011 RMK MADISHF
CNK,2017-04-01 21:50,-97.6500,39.5500,M,M,M,40.00,9.00,M,30.10,M,10.00,M,OVC,M,M,M,1500.00,M,M,M,M,KCNK 012150Z AUTO 04009KT 10SM OVC015 A3010 RMK MADISHF
CNK,2017-04-01 21:55,-97.6500,39.5500,46.00,42.10,86.16,40.00,8.00,0.00,30.10,1019.80,10.00,M,OVC,M,M,M,1500.00,M,M,M,M,KCNK 012155Z AUTO 04008KT 10SM OVC015 08/06 A3010 RMK AO2 RAB33E47 SLP198 P0000 T00780056
CNK,2017-04-01 22:00,-97.6500,39.5500,M,M,M,60.00,7.00,M,30.11,M,10.00,M,OVC,M,M,M,1500.00,M,M,M,M,KCNK 012200Z AUTO 06007KT 10SM OVC015 A3011 RMK MADISHF
CNK,2017-04-01 22:05,-97.6500,39.5500,M,M,M,40.00,11.00,M,30.11,M,10.00,M,OVC,M,M,M,1500.00,M,M,M,M,KCNK 012205Z AUTO 04011KT 10SM OVC015 A3011 RMK MADISHF
CNK,2017-04-01 22:10,-97.6500,39.5500,M,M,M,50.00,10.00,M,30.11,M,10.00,M,OVC,M,M,M,1400.00,M,M,M,M,KCNK 012210Z AUTO 05010KT 10SM OVC014 A3011 RMK MADISHF
CNK,2017-04-01 22:14,-97.6500,39.5500,45.00,41.00,85.77,50.00,10.00,0.00,30.11,M,10.00,M,OVC,M,M,M,1400.00,M,M,M,M,KCNK 012214Z AUTO 05010KT 10SM OVC014 07/05 A3011 RMK AO2 T00720050
CNK,2017-04-01 22:15,-97.6500,39.5500,M,M,M,50.00,9.00,M,30.12,M,10.00,M,OVC,M,M,M,1400.00,M,M,M,M,KCNK 012215Z AUTO 05009KT 10SM OVC014 A3012 RMK MADISHF
CNK,2017-04-01 22:20,-97.6500,39.5500,M,M,M,70.00,7.00,M,30.14,M,10.00,M,OVC,M,M,M,1400.00,M,M,M,M,KCNK 012220Z AUTO 07007KT 10SM OVC014 A3014 RMK MADISHF
CNK,2017-04-01 22:25,-97.6500,39.5500,M,M,M,70.00,8.00,M,30.14,M,10.00,M,OVC,M,M,M,1400.00,M,M,M,M,KCNK 012225Z AUTO 07008KT 10SM OVC014 A3014 RMK MADISHF
CNK,2017-04-01 22:30,-97.6500,39.5500,M,M,M,70.00,6.00,M,30.15,M,10.00,M,OVC,M,M,M,1500.00,M,M,M,M,KCNK 012230Z AUTO 07006KT 10SM OVC015 A3015 RMK MADISHF
CNK,2017-04-01 22:32,-97.6500,39.5500,45.00,41.00,85.77,70.00,6.00,0.00,30.15,M,10.00,M,OVC,M,M,M,1500.00,M,M,M,M,KCNK 012232Z AUTO 07006KT 10SM OVC015 07/05 A3015 RMK AO2 T00720050
CNK,2017-04-01 22:35,-97.6500,39.5500,M,M,M,70.00,7.00,M,30.15,M,10.00,M,OVC,M,M,M,1500.00,M,M,M,M,KCNK 012235Z AUTO 07007KT 10SM OVC015 A3015 RMK MADISHF
CNK,2017-04-01 22:40,-97.6500,39.5500,M,M,M,70.00,8.00,M,30.15,M,10.00,M,OVC,M,M,M,1500.00,M,M,M,-RA,KCNK 012240Z AUTO 07008KT 10SM -RA OVC015 A3015 RMK MADISHF
CNK,2017-04-01 22:45,-97.6500,39.5500,M,M,M,60.00,10.00,M,30.14,M,10.00,M,OVC,M,M,M,1500.00,M,M,M,M,KCNK 012245Z AUTO 06010KT 10SM OVC015 A3014 RMK MADISHF
CNK,2017-04-01 22:50,-97.6500,39.5500,M,M,M,70.00,10.00,M,30.14,M,10.00,M,OVC,M,M,M,1500.00,M,M,M,M,KCNK 012250Z AUTO 07010KT 10SM OVC015 A3014 RMK MADISHF
CNK,2017-04-01 22:55,-97.6500,39.5500,45.00,41.00,85.77,70.00,11.00,0.00,30.13,1020.80,10.00,M,OVC,M,M,M,1500.00,M,M,M,M,KCNK 012255Z AUTO 07011KT 10SM OVC015 07/05 A3013 RMK AO2 RAB36E45 SLP208 P0000 T00720050
CNK,2017-04-01 23:00,-97.6500,39.5500,M,M,M,60.00,10.00,M,30.13,M,10.00,M,OVC,M,M,M,1500.00,M,M,M,M,KCNK 012300Z AUTO 06010KT 10SM OVC015 A3013 RMK MADISHF
CNK,2017-04-01 23:05,-97.6500,39.5500,M,M,M,80.00,9.00,M,30.13,M,10.00,M,OVC,M,M,M,1500.00,M,M,M,M,KCNK 012305Z AUTO 08009KT 10SM OVC015 A3013 RMK MADISHF
CNK,2017-04-01 23:10,-97.6500,39.5500,M,M,M,80.00,10.00,M,30.13,M,10.00,M,OVC,M,M,M,1500.00,M,M,M,M,KCNK 012310Z AUTO 08010KT 10SM OVC015 A3013 RMK MADISHF
CNK,2017-04-01 23:15,-97.6500,39.5500,M,M,M,70.00,9.00,M,30.12,M,10.00,M,OVC,M,M,M,1400.00,M,M,M,M,KCNK 012315Z AUTO 07009KT 10SM OVC014 A3012 RMK MADISHF
CNK,2017-04-01 23:19,-97.6500,39.5500,45.00,41.00,85.77,60.00,11.00,0.00,30.11,M,10.00,M,OVC,M,M,M,1400.00,M,M,M,M,KCNK 012319Z AUTO 06011KT 10SM OVC014 07/05 A3011 RMK AO2 T00720050
CNK,2017-04-01 23:20,-97.6500,39.5500,M,M,M,60.00,12.00,M,30.11,M,10.00,M,OVC,M,M,M,1400.00,M,M,M,M,KCNK 012320Z AUTO 06012KT 10SM OVC014 A3011 RMK MADISHF
CNK,2017-04-01 23:25,-97.6500,39.5500,M,M,M,60.00,10.00,M,30.11,M,10.00,M,OVC,M,M,M,1400.00,M,M,M,M,KCNK 012325Z AUTO 06010KT 10SM OVC014 A3011 RMK MADISHF
CNK,2017-04-01 23:30,-97.6500,39.5500,M,M,M,60.00,13.00,M,30.10,M,10.00,18.00,BKN,BKN,M,M,1400.00,9000.00,M,M,M,KCNK 012330Z AUTO 06013G18KT 10SM BKN014 BKN090 A3010 RMK MADISHF
CNK,2017-04-01 23:35,-97.6500,39.5500,M,M,M,60.00,13.00,M,30.09,M,10.00,M,BKN,BKN,BKN,M,1400.00,9000.00,11000.00,M,M,KCNK 012335Z AUTO 06013KT 10SM BKN014 BKN090 BKN110 A3009 RMK MADISHF
CNK,2017-04-01 23:40,-97.6500,39.5500,M,M,M,60.00,13.00,M,30.09,M,10.00,18.00,FEW,SCT,BKN,M,999.00,1400.00,9000.00,M,M,KCNK 012340Z AUTO 06013G18KT 10SM FEW009 SCT014 BKN090 A3009 RMK MADISHF
CNK,2017-04-01 23:45,-97.6500,39.5500,M,M,M,60.00,12.00,M,30.08,M,10.00,M,SCT,BKN,BKN,M,1200.00,9000.00,12000.00,M,M,KCNK 012345Z AUTO 06012KT 10SM SCT012 BKN090 BKN120 A3008 RMK MADISHF
CNK,2017-04-01 23:50,-97.6500,39.5500,44.60,41.00,87.09,70.00,15.00,0.00,30.08,M,10.00,22.00,FEW,SCT,BKN,M,1200.00,9000.00,11000.00,M,M,KCNK 012350Z AUTO 07015G22KT 10SM FEW012 SCT090 BKN110 07/05 A3008 RMK AO2
CNK,2017-04-01 23:55,-97.6500,39.5500,44.10,41.00,88.77,70.00,16.00,0.00,30.07,1018.90,10.00,22.00,FEW,BKN,M,M,1000.00,11000.00,M,M,M,KCNK 012355Z AUTO 07016G22KT 10SM FEW010 BKN110 07/05 A3007 RMK AO2 SLP189 60000 T00670050 10078 20067 58010
