#DEBUG: Format Typ    -> comma
#DEBUG: Time Period   -> 2017-04-01 00:00:00+00:00 2017-04-02 00:00:00+00:00
#DEBUG: Time Zone     -> Etc/UTC
#DEBUG: Data Contact   -> daryl herzmann akrherz@iastate.edu 515-294-5978
#DEBUG: Entries Found -> -1
station,valid,lon,lat,tmpf, dwpf, relh, drct, sknt, p01i, alti, mslp, vsby, gust, skyc1, skyc2, skyc3, skyc4, skyl1, skyl2, skyl3, skyl4, presentwx, metar
CNM,2017-04-01 00:00,-104.2633,32.3375,M,M,M,M,M,M,M,M,7.00,M,BKN,OVC,M,M,3800.00,4600.00,M,M,M,KCNM 010000Z AUTO /////KT 7SM BKN038 OVC046 RMK MADISHF
CNM,2017-04-01 00:05,-104.2633,32.3375,M,M,M,M,M,M,29.53,M,7.00,M,OVC,M,M,M,4100.00,M,M,M,M,KCNM 010005Z AUTO /////KT 7SM OVC041 A2953 RMK MADISHF
CNM,2017-04-01 00:10,-104.2633,32.3375,M,M,M,M,M,M,29.53,M,7.00,M,OVC,M,M,M,4400.00,M,M,M,M,KCNM 010010Z AUTO /////KT 7SM OVC044 A2953 RMK MADISHF
CNM,2017-04-01 00:15,-104.2633,32.3375,M,M,M,M,M,M,29.53,M,7.00,M,OVC,M,M,M,4400.00,M,M,M,M,KCNM 010015Z AUTO /////KT 7SM OVC044 A2953 RMK MADISHF
CNM,2017-04-01 00:20,-104.2633,32.3375,M,M,M,M,M,M,29.53,M,8.00,M,BKN,OVC,M,M,4400.00,5500.00,M,M,M,KCNM 010020Z AUTO /////KT 8SM BKN044 OVC055 A2953 RMK MADISHF
CNM,2017-04-01 00:25,-104.2633,32.3375,M,M,M,M,M,M,29.53,M,8.00,M,BKN,OVC,M,M,4400.00,5500.00,M,M,M,KCNM 010025Z AUTO /////KT 8SM BKN044 OVC055 A2953 RMK MADISHF
CNM,2017-04-01 00:30,-104.2633,32.3375,M,M,M,M,M,M,29.53,M,8.00,M,BKN,OVC,M,M,4500.00,5500.00,M,M,M,KCNM 010030Z AUTO /////KT 8SM BKN045 OVC055 A2953 RMK MADISHF
CNM,2017-04-01 00:35,-104.2633,32.3375,M,M,M,M,M,M,M,M,8.00,M,BKN,OVC,M,M,4500.00,5500.00,M,M,M,KCNM 010035Z AUTO /////KT 8SM BKN045 OVC055 RMK MADISHF
CNM,2017-04-01 00:40,-104.2633,32.3375,M,M,M,M,M,M,29.54,M,8.00,M,OVC,M,M,M,4600.00,M,M,M,M,KCNM 010040Z AUTO /////KT 8SM OVC046 A2954 RMK MADISHF
CNM,2017-04-01 00:45,-104.2633,32.3375,M,M,M,M,M,M,29.54,M,8.00,M,OVC,M,M,M,4600.00,M,M,M,M,KCNM 010045Z AUTO /////KT 8SM OVC046 A2954 RMK MADISHF
CNM,2017-04-01 00:50,-104.2633,32.3375,M,M,M,M,M,M,29.54,M,8.00,M,OVC,M,M,M,4600.00,M,M,M,M,KCNM 010050Z AUTO /////KT 8SM OVC046 A2954 RMK MADISHF
CNM,2017-04-01 00:53,-104.2633,32.3375,75.90,15.10,9.85,M,M,0.00,29.54,996.60,7.00,M,OVC,M,M,M,4500.00,M,M,M,M,KCNM 010053Z AUTO 7SM OVC045 24/M09 A2954 RMK AO2 SLP966 T02441094 $
CNM,2017-04-01 00:55,-104.2633,32.3375,M,M,M,M,M,M,M,M,7.00,M,OVC,M,M,M,4500.00,M,M,M,M,KCNM 010055Z AUTO /////KT 7SM OVC045 RMK MADISHF
CNM,2017-04-01 01:00,-104.2633,32.3375,M,M,M,M,M,M,29.55,M,6.00,M,OVC,M,M,M,4500.00,M,M,M,HZ,KCNM 010100Z AUTO /////KT 6SM HZ OVC045 A2955 RMK MADISHF
CNM,2017-04-01 01:05,-104.2633,32.3375,M,M,M,M,M,M,M,M,5.00,M,OVC,M,M,M,4400.00,M,M,M,HZ,KCNM 010105Z AUTO /////KT 5SM HZ OVC044 RMK MADISHF
CNM,2017-04-01 01:10,-104.2633,32.3375,M,M,M,M,M,M,29.55,M,5.00,M,OVC,M,M,M,4400.00,M,M,M,HZ,KCNM 010110Z AUTO /////KT 5SM HZ OVC044 A2955 RMK MADISHF
CNM,2017-04-01 01:15,-104.2633,32.3375,M,M,M,M,M,M,29.56,M,5.00,M,OVC,M,M,M,4300.00,M,M,M,HZ,KCNM 010115Z AUTO /////KT 5SM HZ OVC043 A2956 RMK MADISHF
CNM,2017-04-01 01:20,-104.2633,32.3375,M,M,M,M,M,M,29.56,M,5.00,M,OVC,M,M,M,4500.00,M,M,M,HZ,KCNM 010120Z AUTO /////KT 5SM HZ OVC045 A2956 RMK MADISHF
CNM,2017-04-01 01:25,-104.2633,32.3375,M,M,M,M,M,M,29.57,M,6.00,M,OVC,M,M,M,4700.00,M,M,M,HZ,KCNM 010125Z AUTO /////KT 6SM HZ OVC047 A2957 RMK MADISHF
CNM,2017-04-01 01:30,-104.2633,32.3375,M,M,M,M,M,M,29.57,M,6.00,M,OVC,M,M,M,4700.00,M,M,M,HZ,KCNM 010130Z AUTO /////KT 6SM HZ OVC047 A2957 RMK MADISHF
CNM,2017-04-01 01:35,-104.2633,32.3375,M,M,M,M,M,M,29.57,M,7.00,M,OVC,M,M,M,4900.00,M,M,M,M,KCNM 010135Z AUTO /////KT 7SM OVC049 A2957 RMK MADISHF
CNM,2017-04-01 01:40,-104.2633,32.3375,M,M,M,M,M,M,29.58,M,7.00,M,OVC,M,M,M,4900.00,M,M,M,M,KCNM 010140Z AUTO /////KT 7SM OVC049 A2958 RMK MADISHF
CNM,2017-04-01 01:45,-104.2633,32.3375,M,M,M,M,M,M,29.58,M,8.00,M,OVC,M,M,M,5000.00,M,M,M,M,KCNM 010145Z AUTO /////KT 8SM OVC050 A2958 RMK MADISHF
CNM,2017-04-01 01:50,-104.2633,32.3375,M,M,M,M,M,M,29.58,M,8.00,M,OVC,M,M,M,5000.00,M,M,M,M,KCNM 010150Z AUTO /////KT 8SM OVC050 A2958 RMK MADISHF
CNM,2017-04-01 01:53,-104.2633,32.3375,73.90,12.90,9.57,M,M,0.00,29.58,997.60,8.00,M,OVC,M,M,M,5000.00,M,M,M,M,KCNM 010153Z AUTO 8SM OVC050 23/M11 A2958 RMK AO2 SLP976 T02331106 $
CNM,2017-04-01 01:55,-104.2633,32.3375,M,M,M,M,M,M,29.59,M,8.00,M,OVC,M,M,M,5000.00,M,M,M,M,KCNM 010155Z AUTO /////KT 8SM OVC050 A2959 RMK MADISHF
CNM,2017-04-01 02:00,-104.2633,32.3375,M,M,M,M,M,M,29.59,M,8.00,M,OVC,M,M,M,5000.00,M,M,M,M,KCNM 010200Z AUTO /////KT 8SM OVC050 A2959 RMK MADISHF
CNM,2017-04-01 02:05,-104.2633,32.3375,M,M,M,M,M,M,29.59,M,8.00,M,OVC,M,M,M,5000.00,M,M,M,M,KCNM 010205Z AUTO /////KT 8SM OVC050 A2959 RMK MADISHF
CNM,2017-04-01 02:10,-104.2633,32.3375,M,M,M,M,M,M,29.59,M,8.00,M,OVC,M,M,M,5000.00,M,M,M,M,KCNM 010210Z AUTO /////KT 8SM OVC050 A2959 RMK MADISHF
CNM,2017-04-01 02:15,-104.2633,32.3375,M,M,M,M,M,M,29.60,M,8.00,M,OVC,M,M,M,4800.00,M,M,M,M,KCNM 010215Z AUTO /////KT 8SM OVC048 A2960 RMK MADISHF
CNM,2017-04-01 02:20,-104.2633,32.3375,M,M,M,M,M,M,29.61,M,8.00,M,OVC,M,M,M,4600.00,M,M,M,M,KCNM 010220Z AUTO /////KT 8SM OVC046 A2961 RMK MADISHF
CNM,2017-04-01 02:25,-104.2633,32.3375,M,M,M,M,M,M,29.61,M,8.00,M,OVC,M,M,M,4600.00,M,M,M,M,KCNM 010225Z AUTO /////KT 8SM OVC046 A2961 RMK MADISHF
CNM,2017-04-01 02:30,-104.2633,32.3375,M,M,M,M,M,M,29.61,M,8.00,M,OVC,M,M,M,4600.00,M,M,M,M,KCNM 010230Z AUTO /////KT 8SM OVC046 A2961 RMK MADISHF
CNM,2017-04-01 02:35,-104.2633,32.3375,M,M,M,M,M,M,29.62,M,8.00,M,OVC,M,M,M,4500.00,M,M,M,M,KCNM 010235Z AUTO /////KT 8SM OVC045 A2962 RMK MADISHF
CNM,2017-04-01 02:40,-104.2633,32.3375,M,M,M,M,M,M,29.62,M,8.00,M,OVC,M,M,M,4500.00,M,M,M,M,KCNM 010240Z AUTO /////KT 8SM OVC045 A2962 RMK MADISHF
CNM,2017-04-01 02:45,-104.2633,32.3375,M,M,M,M,M,M,29.62,M,8.00,M,OVC,M,M,M,4500.00,M,M,M,M,KCNM 010245Z AUTO /////KT 8SM OVC045 A2962 RMK MADISHF
CNM,2017-04-01 02:50,-104.2633,32.3375,M,M,M,M,M,M,29.62,M,8.00,M,OVC,M,M,M,4500.00,M,M,M,M,KCNM 010250Z AUTO /////KT 8SM OVC045 A2962 RMK MADISHF
CNM,2017-04-01 02:53,-104.2633,32.3375,71.10,14.00,11.04,M,M,0.00,29.62,998.50,8.00,M,OVC,M,M,M,4600.00,M,M,M,M,KCNM 010253Z AUTO 8SM OVC046 22/M10 A2962 RMK AO2 SLP985 T02171100 53030 $
CNM,2017-04-01 02:55,-104.2633,32.3375,M,M,M,M,M,M,29.62,M,8.00,M,OVC,M,M,M,4600.00,M,M,M,M,KCNM 010255Z AUTO /////KT 8SM OVC046 A2962 RMK MADISHF
CNM,2017-04-01 03:00,-104.2633,32.3375,M,M,M,M,M,M,29.62,M,8.00,M,OVC,M,M,M,4600.00,M,M,M,M,KCNM 010300Z AUTO /////KT 8SM OVC046 A2962 RMK MADISHF
CNM,2017-04-01 03:05,-104.2633,32.3375,M,M,M,M,M,M,29.62,M,8.00,M,OVC,M,M,M,4400.00,M,M,M,M,KCNM 010305Z AUTO /////KT 8SM OVC044 A2962 RMK MADISHF
CNM,2017-04-01 03:10,-104.2633,32.3375,M,M,M,M,M,M,29.62,M,8.00,M,OVC,M,M,M,4400.00,M,M,M,M,KCNM 010310Z AUTO /////KT 8SM OVC044 A2962 RMK MADISHF
CNM,2017-04-01 03:15,-104.2633,32.3375,M,M,M,M,M,M,29.62,M,8.00,M,OVC,M,M,M,4400.00,M,M,M,M,KCNM 010315Z AUTO /////KT 8SM OVC044 A2962 RMK MADISHF
CNM,2017-04-01 03:20,-104.2633,32.3375,M,M,M,M,M,M,29.63,M,8.00,M,OVC,M,M,M,4300.00,M,M,M,M,KCNM 010320Z AUTO /////KT 8SM OVC043 A2963 RMK MADISHF
CNM,2017-04-01 03:25,-104.2633,32.3375,M,M,M,M,M,M,29.63,M,8.00,M,OVC,M,M,M,4300.00,M,M,M,M,KCNM 010325Z AUTO /////KT 8SM OVC043 A2963 RMK MADISHF
CNM,2017-04-01 03:30,-104.2633,32.3375,M,M,M,M,M,M,29.64,M,8.00,M,OVC,M,M,M,4300.00,M,M,M,M,KCNM 010330Z AUTO /////KT 8SM OVC043 A2964 RMK MADISHF
CNM,2017-04-01 03:35,-104.2633,32.3375,M,M,M,M,M,M,29.64,M,8.00,M,OVC,M,M,M,4300.00,M,M,M,M,KCNM 010335Z AUTO /////KT 8SM OVC043 A2964 RMK MADISHF
CNM,2017-04-01 03:40,-104.2633,32.3375,M,M,M,M,M,M,29.65,M,8.00,M,OVC,M,M,M,4300.00,M,M,M,M,KCNM 010340Z AUTO /////KT 8SM OVC043 A2965 RMK MADISHF
CNM,2017-04-01 03:45,-104.2633,32.3375,M,M,M,M,M,M,29.65,M,8.00,M,OVC,M,M,M,4200.00,M,M,M,M,KCNM 010345Z AUTO /////KT 8SM OVC042 A2965 RMK MADISHF
CNM,2017-04-01 03:50,-104.2633,32.3375,M,M,M,M,M,M,29.65,M,8.00,M,OVC,M,M,M,4200.00,M,M,M,M,KCNM 010350Z AUTO /////KT 8SM OVC042 A2965 RMK MADISHF
CNM,2017-04-01 03:53,-104.2633,32.3375,68.00,17.10,14.04,M,M,0.00,29.65,999.00,8.00,M,OVC,M,M,M,4100.00,M,M,M,M,KCNM 010353Z AUTO 8SM OVC041 20/M08 A2965 RMK AO2 SLP990 T02001083 $
CNM,2017-04-01 03:55,-104.2633,32.3375,M,M,M,M,M,M,29.65,M,8.00,M,OVC,M,M,M,4100.00,M,M,M,M,KCNM 010355Z AUTO /////KT 8SM OVC041 A2965 RMK MADISHF
CNM,2017-04-01 04:00,-104.2633,32.3375,M,M,M,M,M,M,29.65,M,8.00,M,OVC,M,M,M,4100.00,M,M,M,M,KCNM 010400Z AUTO /////KT 8SM OVC041 A2965 RMK MADISHF
CNM,2017-04-01 04:05,-104.2633,32.3375,M,M,M,M,M,M,29.66,M,8.00,M,OVC,M,M,M,4100.00,M,M,M,M,KCNM 010405Z AUTO /////KT 8SM OVC041 A2966 RMK MADISHF
CNM,2017-04-01 04:10,-104.2633,32.3375,M,M,M,M,M,M,29.66,M,8.00,M,OVC,M,M,M,4100.00,M,M,M,M,KCNM 010410Z AUTO /////KT 8SM OVC041 A2966 RMK MADISHF
CNM,2017-04-01 04:15,-104.2633,32.3375,M,M,M,M,M,M,29.66,M,8.00,M,OVC,M,M,M,4100.00,M,M,M,M,KCNM 010415Z AUTO /////KT 8SM OVC041 A2966 RMK MADISHF
CNM,2017-04-01 04:20,-104.2633,32.3375,M,M,M,M,M,M,29.66,M,8.00,M,OVC,M,M,M,4100.00,M,M,M,M,KCNM 010420Z AUTO /////KT 8SM OVC041 A2966 RMK MADISHF
CNM,2017-04-01 04:25,-104.2633,32.3375,M,M,M,M,M,M,29.67,M,8.00,M,OVC,M,M,M,4100.00,M,M,M,M,KCNM 010425Z AUTO /////KT 8SM OVC041 A2967 RMK MADISHF
CNM,2017-04-01 04:30,-104.2633,32.3375,M,M,M,M,M,M,29.67,M,8.00,M,OVC,M,M,M,4100.00,M,M,M,M,KCNM 010430Z AUTO /////KT 8SM OVC041 A2967 RMK MADISHF
CNM,2017-04-01 04:35,-104.2633,32.3375,M,M,M,M,M,M,29.67,M,8.00,M,OVC,M,M,M,4100.00,M,M,M,M,KCNM 010435Z AUTO /////KT 8SM OVC041 A2967 RMK MADISHF
CNM,2017-04-01 04:40,-104.2633,32.3375,M,M,M,M,M,M,29.67,M,8.00,M,OVC,M,M,M,4100.00,M,M,M,M,KCNM 010440Z AUTO /////KT 8SM OVC041 A2967 RMK MADISHF
CNM,2017-04-01 04:45,-104.2633,32.3375,M,M,M,M,M,M,29.68,M,9.00,M,OVC,M,M,M,4100.00,M,M,M,M,KCNM 010445Z AUTO /////KT 9SM OVC041 A2968 RMK MADISHF
CNM,2017-04-01 04:50,-104.2633,32.3375,M,M,M,M,M,M,29.67,M,9.00,M,BKN,M,M,M,4100.00,M,M,M,M,KCNM 010450Z AUTO /////KT 9SM BKN041 A2967 RMK MADISHF
CNM,2017-04-01 04:53,-104.2633,32.3375,64.00,19.00,17.51,M,M,0.00,29.68,999.80,9.00,M,BKN,M,M,M,4100.00,M,M,M,M,KCNM 010453Z AUTO 9SM BKN041 18/M07 A2968 RMK AO2 SLP998 T01781072 $
CNM,2017-04-01 04:55,-104.2633,32.3375,M,M,M,M,M,M,29.68,M,9.00,M,BKN,M,M,M,4100.00,M,M,M,M,KCNM 010455Z AUTO /////KT 9SM BKN041 A2968 RMK MADISHF
CNM,2017-04-01 05:00,-104.2633,32.3375,M,M,M,M,M,M,29.68,M,9.00,M,BKN,M,M,M,4100.00,M,M,M,M,KCNM 010500Z AUTO /////KT 9SM BKN041 A2968 RMK MADISHF
CNM,2017-04-01 05:05,-104.2633,32.3375,M,M,M,M,M,M,29.68,M,9.00,M,BKN,M,M,M,4100.00,M,M,M,M,KCNM 010505Z AUTO /////KT 9SM BKN041 A2968 RMK MADISHF
CNM,2017-04-01 05:10,-104.2633,32.3375,M,M,M,M,M,M,29.68,M,9.00,M,SCT,M,M,M,4100.00,M,M,M,M,KCNM 010510Z AUTO /////KT 9SM SCT041 A2968 RMK MADISHF
CNM,2017-04-01 05:15,-104.2633,32.3375,M,M,M,M,M,M,29.69,M,9.00,M,SCT,M,M,M,4100.00,M,M,M,M,KCNM 010515Z AUTO /////KT 9SM SCT041 A2969 RMK MADISHF
CNM,2017-04-01 05:20,-104.2633,32.3375,M,M,M,M,M,M,29.70,M,9.00,M,SCT,M,M,M,4100.00,M,M,M,M,KCNM 010520Z AUTO /////KT 9SM SCT041 A2970 RMK MADISHF
CNM,2017-04-01 05:25,-104.2633,32.3375,M,M,M,M,M,M,29.70,M,10.00,M,FEW,M,M,M,4100.00,M,M,M,M,KCNM 010525Z AUTO /////KT 10SM FEW041 A2970 RMK MADISHF
CNM,2017-04-01 05:30,-104.2633,32.3375,M,M,M,M,M,M,29.71,M,10.00,M,FEW,M,M,M,4100.00,M,M,M,M,KCNM 010530Z AUTO /////KT 10SM FEW041 A2971 RMK MADISHF
CNM,2017-04-01 05:35,-104.2633,32.3375,M,M,M,M,M,M,29.71,M,10.00,M,FEW,M,M,M,4100.00,M,M,M,M,KCNM 010535Z AUTO /////KT 10SM FEW041 A2971 RMK MADISHF
CNM,2017-04-01 05:40,-104.2633,32.3375,M,M,M,M,M,M,29.71,M,10.00,M,FEW,M,M,M,4200.00,M,M,M,M,KCNM 010540Z AUTO /////KT 10SM FEW042 A2971 RMK MADISHF
CNM,2017-04-01 05:45,-104.2633,32.3375,M,M,M,M,M,M,29.71,M,10.00,M,CLR,M,M,M,M,M,M,M,M,KCNM 010545Z AUTO /////KT 10SM CLR A2971 RMK MADISHF
CNM,2017-04-01 05:50,-104.2633,32.3375,M,M,M,M,M,M,29.70,M,10.00,M,FEW,M,M,M,3300.00,M,M,M,M,KCNM 010550Z AUTO /////KT 10SM FEW033 A2970 RMK MADISHF
CNM,2017-04-01 05:53,-104.2633,32.3375,63.00,21.90,20.52,M,M,0.00,29.70,1000.50,10.00,M,FEW,M,M,M,3300.00,M,M,M,M,KCNM 010553Z AUTO 10SM FEW033 17/M06 A2970 RMK AO2 SLP005 T01721056 10261 20172 51026 $
CNM,2017-04-01 05:55,-104.2633,32.3375,M,M,M,M,M,M,29.70,M,10.00,M,FEW,M,M,M,3300.00,M,M,M,M,KCNM 010555Z AUTO /////KT 10SM FEW033 A2970 RMK MADISHF
CNM,2017-04-01 06:00,-104.2633,32.3375,M,M,M,M,M,M,29.71,M,10.00,M,FEW,M,M,M,3300.00,M,M,M,M,KCNM 010600Z AUTO /////KT 10SM FEW033 A2971 RMK MADISHF
CNM,2017-04-01 06:05,-104.2633,32.3375,M,M,M,M,M,M,29.71,M,10.00,M,FEW,M,M,M,3300.00,M,M,M,M,KCNM 010605Z AUTO /////KT 10SM FEW033 A2971 RMK MADISHF
CNM,2017-04-01 06:10,-104.2633,32.3375,M,M,M,M,M,M,29.72,M,10.00,M,FEW,M,M,M,3300.00,M,M,M,M,KCNM 010610Z AUTO /////KT 10SM FEW033 A2972 RMK MADISHF
CNM,2017-04-01 06:15,-104.2633,32.3375,M,M,M,M,M,M,29.72,M,10.00,M,FEW,M,M,M,3300.00,M,M,M,M,KCNM 010615Z AUTO /////KT 10SM FEW033 A2972 RMK MADISHF
CNM,2017-04-01 06:20,-104.2633,32.3375,M,M,M,M,M,M,29.72,M,10.00,M,CLR,M,M,M,M,M,M,M,M,KCNM 010620Z AUTO /////KT 10SM CLR A2972 RMK MADISHF
CNM,2017-04-01 06:25,-104.2633,32.3375,M,M,M,M,M,M,29.72,M,10.00,M,CLR,M,M,M,M,M,M,M,M,KCNM 010625Z AUTO /////KT 10SM CLR A2972 RMK MADISHF
CNM,2017-04-01 06:30,-104.2633,32.3375,M,M,M,M,M,M,29.72,M,10.00,M,CLR,M,M,M,M,M,M,M,M,KCNM 010630Z AUTO /////KT 10SM CLR A2972 RMK MADISHF
CNM,2017-04-01 06:35,-104.2633,32.3375,M,M,M,M,M,M,29.73,M,10.00,M,CLR,M,M,M,M,M,M,M,M,KCNM 010635Z AUTO /////KT 10SM CLR A2973 RMK MADISHF
CNM,2017-04-01 06:40,-104.2633,32.3375,M,M,M,M,M,M,29.73,M,10.00,M,CLR,M,M,M,M,M,M,M,M,KCNM 010640Z AUTO /////KT 10SM CLR A2973 RMK MADISHF
CNM,2017-04-01 06:45,-104.2633,32.3375,M,M,M,M,M,M,29.72,M,10.00,M,CLR,M,M,M,M,M,M,M,M,KCNM 010645Z AUTO /////KT 10SM CLR A2972 RMK MADISHF
CNM,2017-04-01 06:50,-104.2633,32.3375,M,M,M,M,M,M,29.72,M,10.00,M,CLR,M,M,M,M,M,M,M,M,KCNM 010650Z AUTO /////KT 10SM CLR A2972 RMK MADISHF
CNM,2017-04-01 06:53,-104.2633,32.3375,62.10,23.00,22.18,M,M,0.00,29.72,1001.20,10.00,M,CLR,M,M,M,M,M,M,M,M,KCNM 010653Z AUTO 10SM CLR 17/M05 A2972 RMK AO2 SLP012 T01671050 403110061 $
CNM,2017-04-01 06:55,-104.2633,32.3375,M,M,M,M,M,M,29.72,M,10.00,M,CLR,M,M,M,M,M,M,M,M,KCNM 010655Z AUTO /////KT 10SM CLR A2972 RMK MADISHF
CNM,2017-04-01 07:00,-104.2633,32.3375,M,M,M,M,M,M,29.73,M,10.00,M,CLR,M,M,M,M,M,M,M,M,KCNM 010700Z AUTO /////KT 10SM CLR A2973 RMK MADISHF
CNM,2017-04-01 07:05,-104.2633,32.3375,M,M,M,M,M,M,29.73,M,10.00,M,CLR,M,M,M,M,M,M,M,M,KCNM 010705Z AUTO /////KT 10SM CLR A2973 RMK MADISHF
CNM,2017-04-01 07:10,-104.2633,32.3375,M,M,M,M,M,M,29.73,M,10.00,M,CLR,M,M,M,M,M,M,M,M,KCNM 010710Z AUTO /////KT 10SM CLR A2973 RMK MADISHF
CNM,2017-04-01 07:15,-104.2633,32.3375,M,M,M,M,M,M,29.73,M,10.00,M,CLR,M,M,M,M,M,M,M,M,KCNM 010715Z AUTO /////KT 10SM CLR A2973 RMK MADISHF
CNM,2017-04-01 07:20,-104.2633,32.3375,M,M,M,M,M,M,29.73,M,10.00,M,CLR,M,M,M,M,M,M,M,M,KCNM 010720Z AUTO /////KT 10SM CLR A2973 RMK MADISHF
CNM,2017-04-01 07:25,-104.2633,32.3375,M,M,M,M,M,M,29.73,M,10.00,M,CLR,M,M,M,M,M,M,M,M,KCNM 010725Z AUTO /////KT 10SM CLR A2973 RMK MADISHF
CNM,2017-04-01 07:30,-104.2633,32.3375,M,M,M,M,M,M,29.73,M,10.00,M,CLR,M,M,M,M,M,M,M,M,KCNM 010730Z AUTO /////KT 10SM CLR A2973 RMK MADISHF
CNM,2017-04-01 07:35,-104.2633,32.3375,M,M,M,M,M,M,29.73,M,10.00,M,CLR,M,M,M,M,M,M,M,M,KCNM 010735Z AUTO /////KT 10SM CLR A2973 RMK MADISHF
CNM,2017-04-01 07:40,-104.2633,32.3375,M,M,M,M,M,M,29.73,M,10.00,M,CLR,M,M,M,M,M,M,M,M,KCNM 010740Z AUTO /////KT 10SM CLR A2973 RMK MADISHF
CNM,2017-04-01 07:45,-104.2633,32.3375,M,M,M,M,M,M,29.74,M,10.00,M,CLR,M,M,M,M,M,M,M,M,KCNM 010745Z AUTO /////KT 10SM CLR A2974 RMK MADISHF
CNM,2017-04-01 07:50,-104.2633,32.3375,M,M,M,M,M,M,29.74,M,10.00,M,CLR,M,M,M,M,M,M,M,M,KCNM 010750Z AUTO /////KT 10SM CLR A2974 RMK MADISHF
CNM,2017-04-01 07:53,-104.2633,32.3375,61.00,39.00,44.10,M,M,0.00,29.75,1002.00,10.00,M,CLR,M,M,M,M,M,M,M,M,KCNM 010753Z AUTO 10SM CLR 16/04 A2975 RMK AO2 SLP020 T01610039 $
CNM,2017-04-01 07:55,-104.2633,32.3375,M,M,M,M,M,M,29.75,M,10.00,M,CLR,M,M,M,M,M,M,M,M,KCNM 010755Z AUTO /////KT 10SM CLR A2975 RMK MADISHF
CNM,2017-04-01 08:00,-104.2633,32.3375,M,M,M,M,M,M,29.75,M,10.00,M,CLR,M,M,M,M,M,M,M,M,KCNM 010800Z AUTO /////KT 10SM CLR A2975 RMK MADISHF
CNM,2017-04-01 08:05,-104.2633,32.3375,M,M,M,M,M,M,29.75,M,10.00,M,CLR,M,M,M,M,M,M,M,M,KCNM 010805Z AUTO /////KT 10SM CLR A2975 RMK MADISHF
CNM,2017-04-01 08:10,-104.2633,32.3375,M,M,M,M,M,M,29.75,M,10.00,M,CLR,M,M,M,M,M,M,M,M,KCNM 010810Z AUTO /////KT 10SM CLR A2975 RMK MADISHF
CNM,2017-04-01 08:15,-104.2633,32.3375,M,M,M,M,M,M,29.75,M,10.00,M,CLR,M,M,M,M,M,M,M,M,KCNM 010815Z AUTO /////KT 10SM CLR A2975 RMK MADISHF
CNM,2017-04-01 08:20,-104.2633,32.3375,M,M,M,M,M,M,29.75,M,10.00,M,CLR,M,M,M,M,M,M,M,M,KCNM 010820Z AUTO /////KT 10SM CLR A2975 RMK MADISHF
CNM,2017-04-01 08:25,-104.2633,32.3375,M,M,M,M,M,M,29.76,M,10.00,M,CLR,M,M,M,M,M,M,M,M,KCNM 010825Z AUTO /////KT 10SM CLR A2976 RMK MADISHF
CNM,2017-04-01 08:30,-104.2633,32.3375,M,M,M,M,M,M,29.76,M,10.00,M,CLR,M,M,M,M,M,M,M,M,KCNM 010830Z AUTO /////KT 10SM CLR A2976 RMK MADISHF
CNM,2017-04-01 08:35,-104.2633,32.3375,M,M,M,M,M,M,29.76,M,10.00,M,CLR,M,M,M,M,M,M,M,M,KCNM 010835Z AUTO /////KT 10SM CLR A2976 RMK MADISHF
CNM,2017-04-01 08:40,-104.2633,32.3375,M,M,M,M,M,M,29.77,M,10.00,M,CLR,M,M,M,M,M,M,M,M,KCNM 010840Z AUTO /////KT 10SM CLR A2977 RMK MADISHF
CNM,2017-04-01 08:45,-104.2633,32.3375,M,M,M,M,M,M,29.77,M,10.00,M,CLR,M,M,M,M,M,M,M,M,KCNM 010845Z AUTO /////KT 10SM CLR A2977 RMK MADISHF
CNM,2017-04-01 08:50,-104.2633,32.3375,M,M,M,M,M,M,29.78,M,10.00,M,CLR,M,M,M,M,M,M,M,M,KCNM 010850Z AUTO /////KT 10SM CLR A2978 RMK MADISHF
CNM,2017-04-01 08:53,-104.2633,32.3375,55.00,45.00,68.93,M,M,0.00,29.78,1003.60,10.00,M,CLR,M,M,M,M,M,M,M,M,KCNM 010853Z AUTO 10SM CLR 13/07 A2978 RMK AO2 SLP036 T01280072 53024 $
CNM,2017-04-01 08:55,-104.2633,32.3375,M,M,M,M,M,M,29.78,M,10.00,M,CLR,M,M,M,M,M,M,M,M,KCNM 010855Z AUTO /////KT 10SM CLR A2978 RMK MADISHF
CNM,2017-04-01 09:00,-104.2633,32.3375,M,M,M,M,M,M,29.78,M,10.00,M,CLR,M,M,M,M,M,M,M,M,KCNM 010900Z AUTO /////KT 10SM CLR A2978 RMK MADISHF
CNM,2017-04-01 09:05,-104.2633,32.3375,M,M,M,M,M,M,29.79,M,10.00,M,CLR,M,M,M,M,M,M,M,M,KCNM 010905Z AUTO /////KT 10SM CLR A2979 RMK MADISHF
CNM,2017-04-01 09:10,-104.2633,32.3375,M,M,M,M,M,M,29.79,M,10.00,M,CLR,M,M,M,M,M,M,M,M,KCNM 010910Z AUTO /////KT 10SM CLR A2979 RMK MADISHF
CNM,2017-04-01 09:15,-104.2633,32.3375,M,M,M,M,M,M,29.79,M,10.00,M,CLR,M,M,M,M,M,M,M,M,KCNM 010915Z AUTO /////KT 10SM CLR A2979 RMK MADISHF
CNM,2017-04-01 09:20,-104.2633,32.3375,M,M,M,M,M,M,29.80,M,10.00,M,CLR,M,M,M,M,M,M,M,M,KCNM 010920Z AUTO /////KT 10SM CLR A2980 RMK MADISHF
CNM,2017-04-01 09:25,-104.2633,32.3375,M,M,M,M,M,M,29.80,M,10.00,M,CLR,M,M,M,M,M,M,M,M,KCNM 010925Z AUTO /////KT 10SM CLR A2980 RMK MADISHF
CNM,2017-04-01 09:30,-104.2633,32.3375,M,M,M,M,M,M,29.80,M,10.00,M,CLR,M,M,M,M,M,M,M,M,KCNM 010930Z AUTO /////KT 10SM CLR A2980 RMK MADISHF
CNM,2017-04-01 09:35,-104.2633,32.3375,M,M,M,M,M,M,29.80,M,10.00,M,CLR,M,M,M,M,M,M,M,M,KCNM 010935Z AUTO /////KT 10SM CLR A2980 RMK MADISHF
CNM,2017-04-01 09:40,-104.2633,32.3375,M,M,M,M,M,M,29.80,M,10.00,M,CLR,M,M,M,M,M,M,M,M,KCNM 010940Z AUTO /////KT 10SM CLR A2980 RMK MADISHF
CNM,2017-04-01 09:45,-104.2633,32.3375,M,M,M,M,M,M,29.80,M,10.00,M,CLR,M,M,M,M,M,M,M,M,KCNM 010945Z AUTO /////KT 10SM CLR A2980 RMK MADISHF
CNM,2017-04-01 09:50,-104.2633,32.3375,M,M,M,M,M,M,29.80,M,10.00,M,CLR,M,M,M,M,M,M,M,M,KCNM 010950Z AUTO /////KT 10SM CLR A2980 RMK MADISHF
CNM,2017-04-01 09:53,-104.2633,32.3375,53.10,45.00,73.89,M,M,0.00,29.81,1004.60,10.00,M,CLR,M,M,M,M,M,M,M,M,KCNM 010953Z AUTO 10SM CLR 12/07 A2981 RMK AO2 SLP046 T01170072 $
CNM,2017-04-01 09:55,-104.2633,32.3375,M,M,M,M,M,M,29.81,M,10.00,M,CLR,M,M,M,M,M,M,M,M,KCNM 010955Z AUTO /////KT 10SM CLR A2981 RMK MADISHF
CNM,2017-04-01 10:00,-104.2633,32.3375,M,M,M,M,M,M,29.81,M,10.00,M,CLR,M,M,M,M,M,M,M,M,KCNM 011000Z AUTO /////KT 10SM CLR A2981 RMK MADISHF
CNM,2017-04-01 10:05,-104.2633,32.3375,M,M,M,M,M,M,29.81,M,10.00,M,CLR,M,M,M,M,M,M,M,M,KCNM 011005Z AUTO /////KT 10SM CLR A2981 RMK MADISHF
CNM,2017-04-01 10:10,-104.2633,32.3375,M,M,M,M,M,M,29.81,M,10.00,M,CLR,M,M,M,M,M,M,M,M,KCNM 011010Z AUTO /////KT 10SM CLR A2981 RMK MADISHF
CNM,2017-04-01 10:15,-104.2633,32.3375,M,M,M,M,M,M,29.81,M,10.00,M,CLR,M,M,M,M,M,M,M,M,KCNM 011015Z AUTO /////KT 10SM CLR A2981 RMK MADISHF
CNM,2017-04-01 10:20,-104.2633,32.3375,M,M,M,M,M,M,29.81,M,10.00,M,CLR,M,M,M,M,M,M,M,M,KCNM 011020Z AUTO /////KT 10SM CLR A2981 RMK MADISHF
CNM,2017-04-01 10:25,-104.2633,32.3375,M,M,M,M,M,M,29.81,M,10.00,M,CLR,M,M,M,M,M,M,M,M,KCNM 011025Z AUTO /////KT 10SM CLR A2981 RMK MADISHF
CNM,2017-04-01 10:30,-104.2633,32.3375,M,M,M,M,M,M,29.82,M,10.00,M,FEW,M,M,M,2800.00,M,M,M,M,KCNM 011030Z AUTO /////KT 10SM FEW028 A2982 RMK MADISHF
CNM,2017-04-01 10:35,-104.2633,32.3375,M,M,M,M,M,M,29.83,M,10.00,M,SCT,M,M,M,2800.00,M,M,M,M,KCNM 011035Z AUTO /////KT 10SM SCT028 A2983 RMK MADISHF
CNM,2017-04-01 10:40,-104.2633,32.3375,M,M,M,M,M,M,29.83,M,10.00,M,BKN,M,M,M,2800.00,M,M,M,M,KCNM 011040Z AUTO /////KT 10SM BKN028 A2983 RMK MADISHF
CNM,2017-04-01 10:45,-104.2633,32.3375,M,M,M,M,M,M,29.83,M,10.00,M,SCT,M,M,M,2800.00,M,M,M,M,KCNM 011045Z AUTO /////KT 10SM SCT028 A2983 RMK MADISHF
CNM,2017-04-01 10:50,-104.2633,32.3375,M,M,M,M,M,M,29.83,M,10.00,M,SCT,M,M,M,2800.00,M,M,M,M,KCNM 011050Z AUTO /////KT 10SM SCT028 A2983 RMK MADISHF
CNM,2017-04-01 10:53,-104.2633,32.3375,53.10,46.00,76.75,M,M,0.00,29.83,1005.30,10.00,M,BKN,M,M,M,2800.00,M,M,M,M,KCNM 011053Z AUTO 10SM BKN028 12/08 A2983 RMK AO2 SLP053 T01170078 $
CNM,2017-04-01 10:55,-104.2633,32.3375,M,M,M,M,M,M,29.83,M,10.00,M,BKN,M,M,M,2800.00,M,M,M,M,KCNM 011055Z AUTO /////KT 10SM BKN028 A2983 RMK MADISHF
CNM,2017-04-01 11:00,-104.2633,32.3375,M,M,M,M,M,M,29.84,M,10.00,M,BKN,M,M,M,2800.00,M,M,M,M,KCNM 011100Z AUTO /////KT 10SM BKN028 A2984 RMK MADISHF
CNM,2017-04-01 11:05,-104.2633,32.3375,M,M,M,M,M,M,29.84,M,10.00,M,BKN,M,M,M,2800.00,M,M,M,M,KCNM 011105Z AUTO /////KT 10SM BKN028 A2984 RMK MADISHF
CNM,2017-04-01 11:10,-104.2633,32.3375,M,M,M,M,M,M,29.84,M,10.00,M,BKN,M,M,M,2700.00,M,M,M,M,KCNM 011110Z AUTO /////KT 10SM BKN027 A2984 RMK MADISHF
CNM,2017-04-01 11:15,-104.2633,32.3375,M,M,M,M,M,M,29.84,M,10.00,M,OVC,M,M,M,2700.00,M,M,M,M,KCNM 011115Z AUTO /////KT 10SM OVC027 A2984 RMK MADISHF
CNM,2017-04-01 11:20,-104.2633,32.3375,M,M,M,M,M,M,29.84,M,10.00,M,OVC,M,M,M,2700.00,M,M,M,M,KCNM 011120Z AUTO /////KT 10SM OVC027 A2984 RMK MADISHF
CNM,2017-04-01 11:25,-104.2633,32.3375,M,M,M,M,M,M,29.84,M,10.00,M,OVC,M,M,M,2700.00,M,M,M,M,KCNM 011125Z AUTO /////KT 10SM OVC027 A2984 RMK MADISHF
CNM,2017-04-01 11:30,-104.2633,32.3375,M,M,M,M,M,M,29.84,M,10.00,M,OVC,M,M,M,2600.00,M,M,M,M,KCNM 011130Z AUTO /////KT 10SM OVC026 A2984 RMK MADISHF
CNM,2017-04-01 11:35,-104.2633,32.3375,M,M,M,M,M,M,29.85,M,10.00,M,OVC,M,M,M,2600.00,M,M,M,M,KCNM 011135Z AUTO /////KT 10SM OVC026 A2985 RMK MADISHF
CNM,2017-04-01 11:40,-104.2633,32.3375,M,M,M,M,M,M,29.85,M,10.00,M,OVC,M,M,M,2600.00,M,M,M,M,KCNM 011140Z AUTO /////KT 10SM OVC026 A2985 RMK MADISHF
CNM,2017-04-01 11:45,-104.2633,32.3375,M,M,M,M,M,M,29.85,M,10.00,M,OVC,M,M,M,2800.00,M,M,M,M,KCNM 011145Z AUTO /////KT 10SM OVC028 A2985 RMK MADISHF
CNM,2017-04-01 11:50,-104.2633,32.3375,M,M,M,M,M,M,29.86,M,10.00,M,BKN,M,M,M,2800.00,M,M,M,M,KCNM 011150Z AUTO /////KT 10SM BKN028 A2986 RMK MADISHF
CNM,2017-04-01 11:53,-104.2633,32.3375,52.00,44.10,74.35,M,M,0.00,29.86,1006.80,10.00,M,BKN,M,M,M,2800.00,M,M,M,M,KCNM 011153Z AUTO 10SM BKN028 11/07 A2986 RMK AO2 SLP068 T01110067 10178 20111 53023 $
CNM,2017-04-01 11:55,-104.2633,32.3375,M,M,M,M,M,M,29.86,M,10.00,M,BKN,M,M,M,2800.00,M,M,M,M,KCNM 011155Z AUTO /////KT 10SM BKN028 A2986 RMK MADISHF
CNM,2017-04-01 12:00,-104.2633,32.3375,M,M,M,M,M,M,29.86,M,10.00,M,BKN,M,M,M,2700.00,M,M,M,M,KCNM 011200Z AUTO /////KT 10SM BKN027 A2986 RMK MADISHF
CNM,2017-04-01 12:05,-104.2633,32.3375,M,M,M,M,M,M,29.86,M,10.00,M,BKN,M,M,M,2700.00,M,M,M,M,KCNM 011205Z AUTO /////KT 10SM BKN027 A2986 RMK MADISHF
CNM,2017-04-01 12:10,-104.2633,32.3375,M,M,M,M,M,M,29.86,M,10.00,M,BKN,M,M,M,2800.00,M,M,M,M,KCNM 011210Z AUTO /////KT 10SM BKN028 A2986 RMK MADISHF
CNM,2017-04-01 12:15,-104.2633,32.3375,M,M,M,M,M,M,29.87,M,10.00,M,BKN,M,M,M,2800.00,M,M,M,M,KCNM 011215Z AUTO /////KT 10SM BKN028 A2987 RMK MADISHF
CNM,2017-04-01 12:20,-104.2633,32.3375,M,M,M,M,M,M,29.87,M,10.00,M,BKN,M,M,M,2800.00,M,M,M,M,KCNM 011220Z AUTO /////KT 10SM BKN028 A2987 RMK MADISHF
CNM,2017-04-01 12:25,-104.2633,32.3375,M,M,M,M,M,M,29.87,M,10.00,M,OVC,M,M,M,2800.00,M,M,M,M,KCNM 011225Z AUTO /////KT 10SM OVC028 A2987 RMK MADISHF
CNM,2017-04-01 12:30,-104.2633,32.3375,M,M,M,M,M,M,29.87,M,10.00,M,OVC,M,M,M,2800.00,M,M,M,M,KCNM 011230Z AUTO /////KT 10SM OVC028 A2987 RMK MADISHF
CNM,2017-04-01 12:35,-104.2633,32.3375,M,M,M,M,M,M,29.88,M,10.00,M,OVC,M,M,M,2800.00,M,M,M,M,KCNM 011235Z AUTO /////KT 10SM OVC028 A2988 RMK MADISHF
CNM,2017-04-01 12:40,-104.2633,32.3375,M,M,M,M,M,M,29.88,M,10.00,M,OVC,M,M,M,2800.00,M,M,M,M,KCNM 011240Z AUTO /////KT 10SM OVC028 A2988 RMK MADISHF
CNM,2017-04-01 12:45,-104.2633,32.3375,M,M,M,M,M,M,29.88,M,10.00,M,OVC,M,M,M,2800.00,M,M,M,M,KCNM 011245Z AUTO /////KT 10SM OVC028 A2988 RMK MADISHF
CNM,2017-04-01 12:50,-104.2633,32.3375,M,M,M,M,M,M,29.88,M,10.00,M,OVC,M,M,M,2800.00,M,M,M,M,KCNM 011250Z AUTO /////KT 10SM OVC028 A2988 RMK MADISHF
CNM,2017-04-01 12:53,-104.2633,32.3375,52.00,44.10,74.35,M,M,0.00,29.89,1008.10,10.00,M,OVC,M,M,M,2800.00,M,M,M,M,KCNM 011253Z AUTO 10SM OVC028 11/07 A2989 RMK AO2 SLP081 T01110067 $
CNM,2017-04-01 12:55,-104.2633,32.3375,M,M,M,M,M,M,29.89,M,10.00,M,OVC,M,M,M,2800.00,M,M,M,M,KCNM 011255Z AUTO /////KT 10SM OVC028 A2989 RMK MADISHF
CNM,2017-04-01 13:00,-104.2633,32.3375,M,M,M,M,M,M,29.89,M,10.00,M,FEW,OVC,M,M,2300.00,3000.00,M,M,M,KCNM 011300Z AUTO /////KT 10SM FEW023 OVC030 A2989 RMK MADISHF
CNM,2017-04-01 13:04,-104.2633,32.3375,51.10,44.10,76.86,M,M,0.00,29.89,M,10.00,M,OVC,M,M,M,3000.00,M,M,M,M,KCNM 011304Z AUTO 10SM OVC030 11/07 A2989 RMK AO2 T01060067 $
CNM,2017-04-01 13:05,-104.2633,32.3375,M,M,M,M,M,M,29.89,M,10.00,M,OVC,M,M,M,3000.00,M,M,M,M,KCNM 011305Z AUTO /////KT 10SM OVC030 A2989 RMK MADISHF
CNM,2017-04-01 13:10,-104.2633,32.3375,M,M,M,M,M,M,29.89,M,10.00,M,OVC,M,M,M,3000.00,M,M,M,M,KCNM 011310Z AUTO /////KT 10SM OVC030 A2989 RMK MADISHF
CNM,2017-04-01 13:15,-104.2633,32.3375,M,M,M,M,M,M,29.89,M,10.00,M,BKN,M,M,M,3000.00,M,M,M,M,KCNM 011315Z AUTO /////KT 10SM BKN030 A2989 RMK MADISHF
CNM,2017-04-01 13:20,-104.2633,32.3375,M,M,M,M,M,M,29.90,M,10.00,M,BKN,M,M,M,3000.00,M,M,M,M,KCNM 011320Z AUTO /////KT 10SM BKN030 A2990 RMK MADISHF
CNM,2017-04-01 13:25,-104.2633,32.3375,M,M,M,M,M,M,29.90,M,10.00,M,BKN,M,M,M,3000.00,M,M,M,M,KCNM 011325Z AUTO /////KT 10SM BKN030 A2990 RMK MADISHF
CNM,2017-04-01 13:30,-104.2633,32.3375,M,M,M,M,M,M,29.90,M,10.00,M,BKN,M,M,M,3100.00,M,M,M,M,KCNM 011330Z AUTO /////KT 10SM BKN031 A2990 RMK MADISHF
CNM,2017-04-01 13:35,-104.2633,32.3375,M,M,M,M,M,M,29.90,M,10.00,M,BKN,M,M,M,3100.00,M,M,M,M,KCNM 011335Z AUTO /////KT 10SM BKN031 A2990 RMK MADISHF
CNM,2017-04-01 13:40,-104.2633,32.3375,M,M,M,M,M,M,29.90,M,10.00,M,BKN,M,M,M,3100.00,M,M,M,M,KCNM 011340Z AUTO /////KT 10SM BKN031 A2990 RMK MADISHF
CNM,2017-04-01 13:45,-104.2633,32.3375,M,M,M,M,M,M,29.90,M,10.00,M,BKN,M,M,M,3100.00,M,M,M,M,KCNM 011345Z AUTO /////KT 10SM BKN031 A2990 RMK MADISHF
CNM,2017-04-01 13:50,-104.2633,32.3375,M,M,M,M,M,M,29.90,M,10.00,M,BKN,M,M,M,3100.00,M,M,M,M,KCNM 011350Z AUTO /////KT 10SM BKN031 A2990 RMK MADISHF
CNM,2017-04-01 13:53,-104.2633,32.3375,52.00,44.10,74.35,M,M,0.00,29.91,1008.90,10.00,M,BKN,M,M,M,3100.00,M,M,M,M,KCNM 011353Z AUTO 10SM BKN031 11/07 A2991 RMK AO2 SLP089 T01110067 $
CNM,2017-04-01 13:55,-104.2633,32.3375,M,M,M,M,M,M,29.91,M,10.00,M,BKN,M,M,M,3100.00,M,M,M,M,KCNM 011355Z AUTO /////KT 10SM BKN031 A2991 RMK MADISHF
CNM,2017-04-01 14:00,-104.2633,32.3375,M,M,M,M,M,M,29.91,M,10.00,M,BKN,M,M,M,3100.00,M,M,M,M,KCNM 011400Z AUTO /////KT 10SM BKN031 A2991 RMK MADISHF
CNM,2017-04-01 14:05,-104.2633,32.3375,M,M,M,M,M,M,29.91,M,10.00,M,OVC,M,M,M,3100.00,M,M,M,M,KCNM 011405Z AUTO /////KT 10SM OVC031 A2991 RMK MADISHF
CNM,2017-04-01 14:10,-104.2633,32.3375,M,M,M,M,M,M,29.92,M,10.00,M,OVC,M,M,M,3100.00,M,M,M,M,KCNM 011410Z AUTO /////KT 10SM OVC031 A2992 RMK MADISHF
CNM,2017-04-01 14:15,-104.2633,32.3375,M,M,M,M,M,M,29.92,M,10.00,M,OVC,M,M,M,3100.00,M,M,M,M,KCNM 011415Z AUTO /////KT 10SM OVC031 A2992 RMK MADISHF
CNM,2017-04-01 14:20,-104.2633,32.3375,M,M,M,M,M,M,29.92,M,10.00,M,OVC,M,M,M,3100.00,M,M,M,M,KCNM 011420Z AUTO /////KT 10SM OVC031 A2992 RMK MADISHF
CNM,2017-04-01 14:25,-104.2633,32.3375,M,M,M,M,M,M,29.92,M,10.00,M,OVC,M,M,M,3100.00,M,M,M,M,KCNM 011425Z AUTO /////KT 10SM OVC031 A2992 RMK MADISHF
CNM,2017-04-01 14:30,-104.2633,32.3375,M,M,M,M,M,M,29.92,M,10.00,M,OVC,M,M,M,3100.00,M,M,M,M,KCNM 011430Z AUTO /////KT 10SM OVC031 A2992 RMK MADISHF
CNM,2017-04-01 14:35,-104.2633,32.3375,M,M,M,M,M,M,29.92,M,10.00,M,OVC,M,M,M,3100.00,M,M,M,M,KCNM 011435Z AUTO /////KT 10SM OVC031 A2992 RMK MADISHF
CNM,2017-04-01 14:40,-104.2633,32.3375,M,M,M,M,M,M,29.92,M,10.00,M,OVC,M,M,M,3200.00,M,M,M,M,KCNM 011440Z AUTO /////KT 10SM OVC032 A2992 RMK MADISHF
CNM,2017-04-01 14:45,-104.2633,32.3375,M,M,M,M,M,M,29.92,M,10.00,M,OVC,M,M,M,3200.00,M,M,M,M,KCNM 011445Z AUTO /////KT 10SM OVC032 A2992 RMK MADISHF
CNM,2017-04-01 14:50,-104.2633,32.3375,M,M,M,M,M,M,29.93,M,10.00,M,OVC,M,M,M,3200.00,M,M,M,M,KCNM 011450Z AUTO /////KT 10SM OVC032 A2993 RMK MADISHF
CNM,2017-04-01 14:53,-104.2633,32.3375,54.00,44.10,69.09,M,M,0.00,29.93,1009.60,10.00,M,OVC,M,M,M,3200.00,M,M,M,M,KCNM 011453Z AUTO 10SM OVC032 12/07 A2993 RMK AO2 SLP096 T01220067 51022 $
CNM,2017-04-01 14:55,-104.2633,32.3375,M,M,M,M,M,M,29.93,M,10.00,M,OVC,M,M,M,3200.00,M,M,M,M,KCNM 011455Z AUTO /////KT 10SM OVC032 A2993 RMK MADISHF
CNM,2017-04-01 15:00,-104.2633,32.3375,M,M,M,M,M,M,29.93,M,10.00,M,BKN,M,M,M,3200.00,M,M,M,M,KCNM 011500Z AUTO /////KT 10SM BKN032 A2993 RMK MADISHF
CNM,2017-04-01 15:05,-104.2633,32.3375,M,M,M,M,M,M,29.93,M,10.00,M,BKN,M,M,M,3300.00,M,M,M,M,KCNM 011505Z AUTO /////KT 10SM BKN033 A2993 RMK MADISHF
CNM,2017-04-01 15:10,-104.2633,32.3375,M,M,M,M,M,M,29.93,M,10.00,M,SCT,M,M,M,3300.00,M,M,M,M,KCNM 011510Z AUTO /////KT 10SM SCT033 A2993 RMK MADISHF
CNM,2017-04-01 15:15,-104.2633,32.3375,M,M,M,M,M,M,29.93,M,10.00,M,SCT,M,M,M,3300.00,M,M,M,M,KCNM 011515Z AUTO /////KT 10SM SCT033 A2993 RMK MADISHF
CNM,2017-04-01 15:20,-104.2633,32.3375,M,M,M,M,M,M,29.93,M,10.00,M,FEW,M,M,M,3300.00,M,M,M,M,KCNM 011520Z AUTO /////KT 10SM FEW033 A2993 RMK MADISHF
CNM,2017-04-01 15:25,-104.2633,32.3375,M,M,M,M,M,M,29.93,M,10.00,M,CLR,M,M,M,M,M,M,M,M,KCNM 011525Z AUTO /////KT 10SM CLR A2993 RMK MADISHF
CNM,2017-04-01 15:30,-104.2633,32.3375,M,M,M,M,M,M,29.93,M,10.00,M,FEW,M,M,M,3300.00,M,M,M,M,KCNM 011530Z AUTO /////KT 10SM FEW033 A2993 RMK MADISHF
CNM,2017-04-01 15:35,-104.2633,32.3375,M,M,M,M,M,M,29.94,M,10.00,M,FEW,M,M,M,3300.00,M,M,M,M,KCNM 011535Z AUTO /////KT 10SM FEW033 A2994 RMK MADISHF
CNM,2017-04-01 15:40,-104.2633,32.3375,M,M,M,M,M,M,29.94,M,10.00,M,SCT,M,M,M,3300.00,M,M,M,M,KCNM 011540Z AUTO /////KT 10SM SCT033 A2994 RMK MADISHF
CNM,2017-04-01 15:45,-104.2633,32.3375,M,M,M,M,M,M,29.94,M,10.00,M,FEW,SCT,M,M,2600.00,3399.00,M,M,M,KCNM 011545Z AUTO /////KT 10SM FEW026 SCT033 A2994 RMK MADISHF
CNM,2017-04-01 15:50,-104.2633,32.3375,M,M,M,M,M,M,29.94,M,10.00,M,BKN,M,M,M,3100.00,M,M,M,M,KCNM 011550Z AUTO /////KT 10SM BKN031 A2994 RMK MADISHF
CNM,2017-04-01 15:53,-104.2633,32.3375,57.00,43.00,59.40,M,M,0.00,29.94,1009.90,10.00,M,BKN,M,M,M,3100.00,M,M,M,M,KCNM 011553Z AUTO 10SM BKN031 14/06 A2994 RMK AO2 SLP099 T01390061 $
CNM,2017-04-01 15:55,-104.2633,32.3375,M,M,M,M,M,M,29.94,M,10.00,M,BKN,M,M,M,3100.00,M,M,M,M,KCNM 011555Z AUTO /////KT 10SM BKN031 A2994 RMK MADISHF
CNM,2017-04-01 16:00,-104.2633,32.3375,M,M,M,M,M,M,29.94,M,10.00,M,BKN,M,M,M,3300.00,M,M,M,M,KCNM 011600Z AUTO /////KT 10SM BKN033 A2994 RMK MADISHF
CNM,2017-04-01 16:05,-104.2633,32.3375,M,M,M,M,M,M,29.94,M,10.00,M,FEW,BKN,M,M,2800.00,3300.00,M,M,M,KCNM 011605Z AUTO /////KT 10SM FEW028 BKN033 A2994 RMK MADISHF
CNM,2017-04-01 16:10,-104.2633,32.3375,M,M,M,M,M,M,29.94,M,10.00,M,BKN,M,M,M,3200.00,M,M,M,M,KCNM 011610Z AUTO /////KT 10SM BKN032 A2994 RMK MADISHF
CNM,2017-04-01 16:15,-104.2633,32.3375,M,M,M,M,M,M,29.94,M,10.00,M,SCT,M,M,M,3399.00,M,M,M,M,KCNM 011615Z AUTO /////KT 10SM SCT033 A2994 RMK MADISHF
CNM,2017-04-01 16:20,-104.2633,32.3375,M,M,M,M,M,M,29.94,M,10.00,M,SCT,M,M,M,3399.00,M,M,M,M,KCNM 011620Z AUTO /////KT 10SM SCT033 A2994 RMK MADISHF
CNM,2017-04-01 16:25,-104.2633,32.3375,M,M,M,M,M,M,29.94,M,10.00,M,SCT,M,M,M,3399.00,M,M,M,M,KCNM 011625Z AUTO /////KT 10SM SCT033 A2994 RMK MADISHF
CNM,2017-04-01 16:30,-104.2633,32.3375,M,M,M,M,M,M,29.94,M,10.00,M,SCT,M,M,M,3399.00,M,M,M,M,KCNM 011630Z AUTO /////KT 10SM SCT033 A2994 RMK MADISHF
CNM,2017-04-01 16:35,-104.2633,32.3375,M,M,M,M,M,M,29.94,M,10.00,M,SCT,M,M,M,3399.00,M,M,M,M,KCNM 011635Z AUTO /////KT 10SM SCT033 A2994 RMK MADISHF
CNM,2017-04-01 16:40,-104.2633,32.3375,M,M,M,M,M,M,29.94,M,10.00,M,SCT,M,M,M,3399.00,M,M,M,M,KCNM 011640Z AUTO /////KT 10SM SCT033 A2994 RMK MADISHF
CNM,2017-04-01 16:45,-104.2633,32.3375,M,M,M,M,M,M,29.94,M,10.00,M,SCT,M,M,M,3399.00,M,M,M,M,KCNM 011645Z AUTO /////KT 10SM SCT033 A2994 RMK MADISHF
CNM,2017-04-01 16:50,-104.2633,32.3375,M,M,M,M,M,M,29.93,M,10.00,M,SCT,M,M,M,3300.00,M,M,M,M,KCNM 011650Z AUTO /////KT 10SM SCT033 A2993 RMK MADISHF
CNM,2017-04-01 16:53,-104.2633,32.3375,57.90,43.00,57.51,M,M,0.00,29.93,1010.10,10.00,M,SCT,M,M,M,3300.00,M,M,M,M,KCNM 011653Z AUTO 10SM SCT033 14/06 A2993 RMK AO2 SLP101 T01440061 $
CNM,2017-04-01 16:55,-104.2633,32.3375,M,M,M,M,M,M,29.93,M,10.00,M,SCT,M,M,M,3300.00,M,M,M,M,KCNM 011655Z AUTO /////KT 10SM SCT033 A2993 RMK MADISHF
CNM,2017-04-01 17:00,-104.2633,32.3375,M,M,M,M,M,M,29.93,M,10.00,M,SCT,M,M,M,3300.00,M,M,M,M,KCNM 011700Z AUTO /////KT 10SM SCT033 A2993 RMK MADISHF
CNM,2017-04-01 17:05,-104.2633,32.3375,M,M,M,M,M,M,29.93,M,10.00,M,SCT,M,M,M,3300.00,M,M,M,M,KCNM 011705Z AUTO /////KT 10SM SCT033 A2993 RMK MADISHF
CNM,2017-04-01 17:10,-104.2633,32.3375,M,M,M,M,M,M,29.93,M,10.00,M,SCT,M,M,M,3100.00,M,M,M,M,KCNM 011710Z AUTO /////KT 10SM SCT031 A2993 RMK MADISHF
CNM,2017-04-01 17:15,-104.2633,32.3375,M,M,M,M,M,M,29.93,M,10.00,M,SCT,M,M,M,3300.00,M,M,M,M,KCNM 011715Z AUTO /////KT 10SM SCT033 A2993 RMK MADISHF
CNM,2017-04-01 17:20,-104.2633,32.3375,M,M,M,M,M,M,29.94,M,10.00,M,SCT,M,M,M,3300.00,M,M,M,M,KCNM 011720Z AUTO /////KT 10SM SCT033 A2994 RMK MADISHF
CNM,2017-04-01 17:25,-104.2633,32.3375,M,M,M,M,M,M,29.94,M,10.00,M,BKN,M,M,M,3300.00,M,M,M,M,KCNM 011725Z AUTO /////KT 10SM BKN033 A2994 RMK MADISHF
CNM,2017-04-01 17:30,-104.2633,32.3375,M,M,M,M,M,M,29.93,M,10.00,M,BKN,M,M,M,3300.00,M,M,M,M,KCNM 011730Z AUTO /////KT 10SM BKN033 A2993 RMK MADISHF
CNM,2017-04-01 17:35,-104.2633,32.3375,M,M,M,M,M,M,29.94,M,10.00,M,SCT,M,M,M,3300.00,M,M,M,M,KCNM 011735Z AUTO /////KT 10SM SCT033 A2994 RMK MADISHF
CNM,2017-04-01 17:40,-104.2633,32.3375,M,M,M,M,M,M,29.94,M,10.00,M,BKN,M,M,M,3300.00,M,M,M,M,KCNM 011740Z AUTO /////KT 10SM BKN033 A2994 RMK MADISHF
CNM,2017-04-01 17:45,-104.2633,32.3375,M,M,M,M,M,M,29.93,M,10.00,M,BKN,M,M,M,3500.00,M,M,M,M,KCNM 011745Z AUTO /////KT 10SM BKN035 A2993 RMK MADISHF
CNM,2017-04-01 17:50,-104.2633,32.3375,M,M,M,M,M,M,29.93,M,10.00,M,BKN,M,M,M,3500.00,M,M,M,M,KCNM 011750Z AUTO /////KT 10SM BKN035 A2993 RMK MADISHF
CNM,2017-04-01 17:53,-104.2633,32.3375,60.10,43.00,53.15,M,M,0.00,29.93,1009.70,10.00,M,BKN,M,M,M,3500.00,M,M,M,M,KCNM 011753Z AUTO 10SM BKN035 16/06 A2993 RMK AO2 SLP097 T01560061 10161 20106 58000 $
CNM,2017-04-01 17:55,-104.2633,32.3375,M,M,M,M,M,M,29.93,M,10.00,M,SCT,M,M,M,3500.00,M,M,M,M,KCNM 011755Z AUTO /////KT 10SM SCT035 A2993 RMK MADISHF
CNM,2017-04-01 18:00,-104.2633,32.3375,M,M,M,M,M,M,29.93,M,10.00,M,SCT,M,M,M,3500.00,M,M,M,M,KCNM 011800Z AUTO /////KT 10SM SCT035 A2993 RMK MADISHF
CNM,2017-04-01 18:05,-104.2633,32.3375,M,M,M,M,M,M,29.93,M,10.00,M,SCT,M,M,M,3500.00,M,M,M,M,KCNM 011805Z AUTO /////KT 10SM SCT035 A2993 RMK MADISHF
CNM,2017-04-01 18:10,-104.2633,32.3375,M,M,M,M,M,M,29.93,M,10.00,M,SCT,M,M,M,3700.00,M,M,M,M,KCNM 011810Z AUTO /////KT 10SM SCT037 A2993 RMK MADISHF
CNM,2017-04-01 18:15,-104.2633,32.3375,M,M,M,M,M,M,29.92,M,10.00,M,FEW,M,M,M,3900.00,M,M,M,M,KCNM 011815Z AUTO /////KT 10SM FEW039 A2992 RMK MADISHF
CNM,2017-04-01 18:20,-104.2633,32.3375,M,M,M,M,M,M,29.92,M,10.00,M,FEW,M,M,M,3900.00,M,M,M,M,KCNM 011820Z AUTO /////KT 10SM FEW039 A2992 RMK MADISHF
CNM,2017-04-01 18:25,-104.2633,32.3375,M,M,M,M,M,M,29.92,M,10.00,M,FEW,M,M,M,3900.00,M,M,M,M,KCNM 011825Z AUTO /////KT 10SM FEW039 A2992 RMK MADISHF
CNM,2017-04-01 18:30,-104.2633,32.3375,M,M,M,M,M,M,29.91,M,10.00,M,FEW,M,M,M,3900.00,M,M,M,M,KCNM 011830Z AUTO /////KT 10SM FEW039 A2991 RMK MADISHF
CNM,2017-04-01 18:35,-104.2633,32.3375,M,M,M,M,M,M,29.91,M,10.00,M,CLR,M,M,M,M,M,M,M,M,KCNM 011835Z AUTO /////KT 10SM CLR A2991 RMK MADISHF
CNM,2017-04-01 18:40,-104.2633,32.3375,M,M,M,M,M,M,29.91,M,10.00,M,CLR,M,M,M,M,M,M,M,M,KCNM 011840Z AUTO /////KT 10SM CLR A2991 RMK MADISHF
CNM,2017-04-01 18:45,-104.2633,32.3375,M,M,M,M,M,M,29.91,M,10.00,M,CLR,M,M,M,M,M,M,M,M,KCNM 011845Z AUTO /////KT 10SM CLR A2991 RMK MADISHF
CNM,2017-04-01 18:50,-104.2633,32.3375,M,M,M,M,M,M,29.90,M,10.00,M,CLR,M,M,M,M,M,M,M,M,KCNM 011850Z AUTO /////KT 10SM CLR A2990 RMK MADISHF
CNM,2017-04-01 18:53,-104.2633,32.3375,63.00,39.90,42.56,M,M,0.00,29.90,1008.80,10.00,M,FEW,M,M,M,4400.00,M,M,M,M,KCNM 011853Z AUTO 10SM FEW044 17/04 A2990 RMK AO2 SLP088 T01720044 $
CNM,2017-04-01 18:55,-104.2633,32.3375,M,M,M,M,M,M,29.91,M,10.00,M,CLR,M,M,M,M,M,M,M,M,KCNM 011855Z AUTO /////KT 10SM CLR A2991 RMK MADISHF
CNM,2017-04-01 19:00,-104.2633,32.3375,M,M,M,M,M,M,29.90,M,10.00,M,CLR,M,M,M,M,M,M,M,M,KCNM 011900Z AUTO /////KT 10SM CLR A2990 RMK MADISHF
CNM,2017-04-01 19:05,-104.2633,32.3375,M,M,M,M,M,M,29.90,M,10.00,M,CLR,M,M,M,M,M,M,M,M,KCNM 011905Z AUTO /////KT 10SM CLR A2990 RMK MADISHF
CNM,2017-04-01 19:10,-104.2633,32.3375,M,M,M,M,M,M,29.90,M,10.00,M,CLR,M,M,M,M,M,M,M,M,KCNM 011910Z AUTO /////KT 10SM CLR A2990 RMK MADISHF
CNM,2017-04-01 19:15,-104.2633,32.3375,M,M,M,M,M,M,29.90,M,10.00,M,CLR,M,M,M,M,M,M,M,M,KCNM 011915Z AUTO /////KT 10SM CLR A2990 RMK MADISHF
CNM,2017-04-01 19:20,-104.2633,32.3375,M,M,M,M,M,M,29.90,M,10.00,M,CLR,M,M,M,M,M,M,M,M,KCNM 011920Z AUTO /////KT 10SM CLR A2990 RMK MADISHF
CNM,2017-04-01 19:25,-104.2633,32.3375,M,M,M,M,M,M,29.90,M,10.00,M,CLR,M,M,M,M,M,M,M,M,KCNM 011925Z AUTO /////KT 10SM CLR A2990 RMK MADISHF
CNM,2017-04-01 19:30,-104.2633,32.3375,M,M,M,M,M,M,29.90,M,10.00,M,CLR,M,M,M,M,M,M,M,M,KCNM 011930Z AUTO /////KT 10SM CLR A2990 RMK MADISHF
CNM,2017-04-01 19:35,-104.2633,32.3375,M,M,M,M,M,M,29.90,M,10.00,M,CLR,M,M,M,M,M,M,M,M,KCNM 011935Z AUTO /////KT 10SM CLR A2990 RMK MADISHF
CNM,2017-04-01 19:40,-104.2633,32.3375,M,M,M,M,M,M,29.90,M,10.00,M,CLR,M,M,M,M,M,M,M,M,KCNM 011940Z AUTO /////KT 10SM CLR A2990 RMK MADISHF
CNM,2017-04-01 19:45,-104.2633,32.3375,M,M,M,M,M,M,29.90,M,10.00,M,CLR,M,M,M,M,M,M,M,M,KCNM 011945Z AUTO /////KT 10SM CLR A2990 RMK MADISHF
CNM,2017-04-01 19:50,-104.2633,32.3375,M,M,M,M,M,M,29.89,M,10.00,M,CLR,M,M,M,M,M,M,M,M,KCNM 011950Z AUTO /////KT 10SM CLR A2989 RMK MADISHF
CNM,2017-04-01 19:53,-104.2633,32.3375,66.90,39.00,35.86,M,M,0.00,29.89,1008.30,10.00,M,CLR,M,M,M,M,M,M,M,M,KCNM 011953Z AUTO 10SM CLR 19/04 A2989 RMK AO2 SLP083 T01940039 $
CNM,2017-04-01 19:55,-104.2633,32.3375,M,M,M,M,M,M,29.89,M,10.00,M,CLR,M,M,M,M,M,M,M,M,KCNM 011955Z AUTO /////KT 10SM CLR A2989 RMK MADISHF
CNM,2017-04-01 20:00,-104.2633,32.3375,M,M,M,M,M,M,29.89,M,10.00,M,CLR,M,M,M,M,M,M,M,M,KCNM 012000Z AUTO /////KT 10SM CLR A2989 RMK MADISHF
CNM,2017-04-01 20:05,-104.2633,32.3375,M,M,M,M,M,M,29.89,M,10.00,M,CLR,M,M,M,M,M,M,M,M,KCNM 012005Z AUTO /////KT 10SM CLR A2989 RMK MADISHF
CNM,2017-04-01 20:10,-104.2633,32.3375,M,M,M,M,M,M,29.89,M,10.00,M,CLR,M,M,M,M,M,M,M,M,KCNM 012010Z AUTO /////KT 10SM CLR A2989 RMK MADISHF
CNM,2017-04-01 20:15,-104.2633,32.3375,M,M,M,M,M,M,29.89,M,10.00,M,CLR,M,M,M,M,M,M,M,M,KCNM 012015Z AUTO /////KT 10SM CLR A2989 RMK MADISHF
CNM,2017-04-01 20:20,-104.2633,32.3375,M,M,M,M,M,M,29.88,M,10.00,M,CLR,M,M,M,M,M,M,M,M,KCNM 012020Z AUTO /////KT 10SM CLR A2988 RMK MADISHF
CNM,2017-04-01 20:25,-104.2633,32.3375,M,M,M,M,M,M,29.88,M,10.00,M,CLR,M,M,M,M,M,M,M,M,KCNM 012025Z AUTO /////KT 10SM CLR A2988 RMK MADISHF
CNM,2017-04-01 20:30,-104.2633,32.3375,M,M,M,M,M,M,29.88,M,10.00,M,CLR,M,M,M,M,M,M,M,M,KCNM 012030Z AUTO /////KT 10SM CLR A2988 RMK MADISHF
CNM,2017-04-01 20:35,-104.2633,32.3375,M,M,M,M,M,M,29.88,M,10.00,M,CLR,M,M,M,M,M,M,M,M,KCNM 012035Z AUTO /////KT 10SM CLR A2988 RMK MADISHF
CNM,2017-04-01 20:40,-104.2633,32.3375,M,M,M,M,M,M,29.88,M,10.00,M,CLR,M,M,M,M,M,M,M,M,KCNM 012040Z AUTO /////KT 10SM CLR A2988 RMK MADISHF
CNM,2017-04-01 20:45,-104.2633,32.3375,M,M,M,M,M,M,29.88,M,10.00,M,CLR,M,M,M,M,M,M,M,M,KCNM 012045Z AUTO /////KT 10SM CLR A2988 RMK MADISHF
CNM,2017-04-01 20:50,-104.2633,32.3375,M,M,M,M,M,M,29.88,M,10.00,M,CLR,M,M,M,M,M,M,M,M,KCNM 012050Z AUTO /////KT 10SM CLR A2988 RMK MADISHF
CNM,2017-04-01 20:53,-104.2633,32.3375,68.00,37.90,33.07,M,M,0.00,29.88,1007.90,10.00,M,CLR,M,M,M,M,M,M,M,M,KCNM 012053Z AUTO 10SM CLR 20/03 A2988 RMK AO2 SLP079 T02000033 56016 $
CNM,2017-04-01 20:55,-104.2633,32.3375,M,M,M,M,M,M,29.87,M,10.00,M,CLR,M,M,M,M,M,M,M,M,KCNM 012055Z AUTO /////KT 10SM CLR A2987 RMK MADISHF
CNM,2017-04-01 21:00,-104.2633,32.3375,M,M,M,M,M,M,29.87,M,10.00,M,CLR,M,M,M,M,M,M,M,M,KCNM 012100Z AUTO /////KT 10SM CLR A2987 RMK MADISHF
CNM,2017-04-01 21:05,-104.2633,32.3375,M,M,M,M,M,M,29.87,M,10.00,M,CLR,M,M,M,M,M,M,M,M,KCNM 012105Z AUTO /////KT 10SM CLR A2987 RMK MADISHF
CNM,2017-04-01 21:10,-104.2633,32.3375,M,M,M,360.00,8.00,M,29.87,M,10.00,M,CLR,M,M,M,M,M,M,M,M,KCNM 012110Z AUTO 36008KT 10SM CLR A2987 RMK WND 33V03  MADISHF
CNM,2017-04-01 21:15,-104.2633,32.3375,M,M,M,340.00,5.00,M,29.87,M,10.00,M,CLR,M,M,M,M,M,M,M,M,KCNM 012115Z AUTO 34005KT 10SM CLR A2987 RMK  LTG DSNT SW! MADISHF
CNM,2017-04-01 21:20,-104.2633,32.3375,M,M,M,360.00,7.00,M,29.87,M,10.00,M,CLR,M,M,M,M,M,M,M,M,KCNM 012120Z AUTO 36007KT 10SM CLR A2987 RMK  LTG DSNT SW! MADISHF
CNM,2017-04-01 21:25,-104.2633,32.3375,M,M,M,40.00,12.00,M,29.87,M,10.00,M,FEW,M,M,M,7000.00,M,M,M,M,KCNM 012125Z AUTO 04012KT 10SM FEW070 A2987 RMK  LTG DSNT SW! MADISHF
CNM,2017-04-01 21:30,-104.2633,32.3375,M,M,M,40.00,6.00,M,29.87,M,10.00,M,FEW,M,M,M,7000.00,M,M,M,M,KCNM 012130Z AUTO 04006KT 10SM FEW070 A2987 RMK VRB06KT  MADISHF
CNM,2017-04-01 21:35,-104.2633,32.3375,M,M,M,40.00,7.00,M,29.87,M,10.00,M,FEW,M,M,M,7000.00,M,M,M,M,KCNM 012135Z AUTO 04007KT 10SM FEW070 A2987 RMK MADISHF
CNM,2017-04-01 21:40,-104.2633,32.3375,M,M,M,350.00,11.00,M,29.87,M,10.00,M,SCT,M,M,M,7000.00,M,M,M,M,KCNM 012140Z AUTO 35011KT 10SM SCT070 A2987 RMK MADISHF
CNM,2017-04-01 21:45,-104.2633,32.3375,M,M,M,330.00,7.00,M,29.87,M,10.00,M,BKN,M,M,M,7500.00,M,M,M,M,KCNM 012145Z AUTO 33007KT 10SM BKN075 A2987 RMK  LTG DSNT SW! MADISHF
CNM,2017-04-01 21:50,-104.2633,32.3375,M,M,M,50.00,6.00,M,29.87,M,10.00,M,BKN,M,M,M,7500.00,M,M,M,M,KCNM 012150Z AUTO 05006KT 10SM BKN075 A2987 RMK VRB06KT  MADISHF
CNM,2017-04-01 21:53,-104.2633,32.3375,66.00,36.00,32.88,40.00,6.00,0.00,29.88,1008.10,10.00,M,SCT,M,M,M,7500.00,M,M,M,M,KCNM 012153Z AUTO 04006KT 10SM SCT075 19/02 A2988 RMK AO2 LTG DSNT SW SLP081 T01890022 $
CNM,2017-04-01 21:55,-104.2633,32.3375,M,M,M,20.00,6.00,M,29.87,M,10.00,M,SCT,M,M,M,7500.00,M,M,M,M,KCNM 012155Z AUTO 02006KT 10SM SCT075 A2987 RMK  LTG DSNT SW! MADISHF
CNM,2017-04-01 22:00,-104.2633,32.3375,M,M,M,360.00,6.00,M,29.87,M,10.00,M,FEW,M,M,M,7500.00,M,M,M,M,KCNM 012200Z AUTO 36006KT 10SM FEW075 A2987 RMK VRB06KT  MADISHF
CNM,2017-04-01 22:05,-104.2633,32.3375,M,M,M,350.00,8.00,M,29.87,M,10.00,M,FEW,M,M,M,7500.00,M,M,M,M,KCNM 012205Z AUTO 35008KT 10SM FEW075 A2987 RMK MADISHF
CNM,2017-04-01 22:10,-104.2633,32.3375,M,M,M,20.00,7.00,M,29.88,M,10.00,M,FEW,M,M,M,7500.00,M,M,M,M,KCNM 012210Z AUTO 02007KT 10SM FEW075 A2988 RMK MADISHF
CNM,2017-04-01 22:15,-104.2633,32.3375,M,M,M,10.00,9.00,M,29.88,M,10.00,M,CLR,M,M,M,M,M,M,M,M,KCNM 012215Z AUTO 01009KT 10SM CLR A2988 RMK MADISHF
CNM,2017-04-01 22:20,-104.2633,32.3375,M,M,M,350.00,12.00,M,29.88,M,10.00,M,CLR,M,M,M,M,M,M,M,M,KCNM 012220Z AUTO 35012KT 10SM CLR A2988 RMK MADISHF
CNM,2017-04-01 22:25,-104.2633,32.3375,M,M,M,360.00,11.00,M,29.88,M,10.00,M,CLR,M,M,M,M,M,M,M,M,KCNM 012225Z AUTO 36011KT 10SM CLR A2988 RMK MADISHF
CNM,2017-04-01 22:30,-104.2633,32.3375,M,M,M,10.00,10.00,M,29.88,M,10.00,M,CLR,M,M,M,M,M,M,M,M,KCNM 012230Z AUTO 01010KT 10SM CLR A2988 RMK MADISHF
CNM,2017-04-01 22:35,-104.2633,32.3375,M,M,M,10.00,8.00,M,29.88,M,10.00,M,SCT,M,M,M,10000.00,M,M,M,M,KCNM 012235Z AUTO 01008KT 10SM SCT100 A2988 RMK MADISHF
CNM,2017-04-01 22:40,-104.2633,32.3375,M,M,M,20.00,6.00,M,29.88,M,10.00,M,SCT,M,M,M,10000.00,M,M,M,M,KCNM 012240Z AUTO 02006KT 10SM SCT100 A2988 RMK MADISHF
CNM,2017-04-01 22:45,-104.2633,32.3375,M,M,M,10.00,4.00,M,29.89,M,10.00,M,BKN,M,M,M,10000.00,M,M,M,M,KCNM 012245Z AUTO 01004KT 10SM BKN100 A2989 RMK VRB04KT  MADISHF
CNM,2017-04-01 22:50,-104.2633,32.3375,M,M,M,350.00,7.00,M,29.88,M,10.00,M,SCT,BKN,M,M,7999.00,10000.00,M,M,M,KCNM 012250Z AUTO 35007KT 10SM SCT079 BKN100 A2988 RMK MADISHF
CNM,2017-04-01 22:53,-104.2633,32.3375,66.00,36.00,32.88,350.00,5.00,0.00,29.88,1008.50,10.00,M,SCT,BKN,M,M,8000.00,10000.00,M,M,M,KCNM 012253Z AUTO 35005KT 10SM SCT080 BKN100 19/02 A2988 RMK AO2 SLP085 T01890022 $
CNM,2017-04-01 22:55,-104.2633,32.3375,M,M,M,340.00,7.00,M,29.89,M,10.00,M,BKN,OVC,M,M,7999.00,10000.00,M,M,M,KCNM 012255Z AUTO 34007KT 10SM BKN079 OVC100 A2989 RMK MADISHF
CNM,2017-04-01 23:00,-104.2633,32.3375,M,M,M,320.00,6.00,M,29.89,M,10.00,M,BKN,OVC,M,M,7000.00,10000.00,M,M,M,KCNM 012300Z AUTO 32006KT 10SM BKN070 OVC100 A2989 RMK MADISHF
CNM,2017-04-01 23:05,-104.2633,32.3375,M,M,M,310.00,7.00,M,29.89,M,10.00,M,BKN,OVC,M,M,7000.00,9500.00,M,M,M,KCNM 012305Z AUTO 31007KT 10SM BKN070 OVC095 A2989 RMK MADISHF
CNM,2017-04-01 23:10,-104.2633,32.3375,M,M,M,360.00,7.00,M,29.89,M,10.00,M,BKN,OVC,M,M,7000.00,9000.00,M,M,M,KCNM 012310Z AUTO 36007KT 10SM BKN070 OVC090 A2989 RMK MADISHF
CNM,2017-04-01 23:15,-104.2633,32.3375,M,M,M,70.00,7.00,M,29.90,M,10.00,M,FEW,BKN,M,M,5500.00,7000.00,M,M,M,KCNM 012315Z AUTO 07007KT 10SM FEW055 BKN070 A2990 RMK WND 04V10  MADISHF
CNM,2017-04-01 23:20,-104.2633,32.3375,M,M,M,80.00,5.00,M,29.89,M,10.00,M,SCT,BKN,M,M,7000.00,7999.00,M,M,M,KCNM 012320Z AUTO 08005KT 10SM SCT070 BKN079 A2989 RMK VRB05KT  MADISHF
CNM,2017-04-01 23:25,-104.2633,32.3375,M,M,M,40.00,6.00,M,29.89,M,10.00,M,SCT,M,M,M,7000.00,M,M,M,M,KCNM 012325Z AUTO 04006KT 10SM SCT070 A2989 RMK MADISHF
CNM,2017-04-01 23:30,-104.2633,32.3375,M,M,M,80.00,6.00,M,29.89,M,10.00,M,FEW,SCT,M,M,7000.00,10000.00,M,M,M,KCNM 012330Z AUTO 08006KT 10SM FEW070 SCT100 A2989 RMK MADISHF
CNM,2017-04-01 23:35,-104.2633,32.3375,M,M,M,60.00,3.00,M,29.89,M,10.00,M,FEW,SCT,M,M,7000.00,10000.00,M,M,M,KCNM 012335Z AUTO 06003KT 10SM FEW070 SCT100 A2989 RMK VRB03KT  MADISHF
CNM,2017-04-01 23:40,-104.2633,32.3375,M,M,M,50.00,7.00,M,29.89,M,10.00,M,FEW,M,M,M,10000.00,M,M,M,M,KCNM 012340Z AUTO 05007KT 10SM FEW100 A2989 RMK MADISHF
CNM,2017-04-01 23:45,-104.2633,32.3375,M,M,M,60.00,10.00,M,29.90,M,10.00,M,FEW,M,M,M,9500.00,M,M,M,M,KCNM 012345Z AUTO 06010KT 10SM FEW095 A2990 RMK MADISHF
CNM,2017-04-01 23:50,-104.2633,32.3375,M,M,M,70.00,13.00,M,29.90,M,10.00,M,FEW,SCT,M,M,7500.00,9500.00,M,M,M,KCNM 012350Z AUTO 07013KT 10SM FEW075 SCT095 A2990 RMK MADISHF
CNM,2017-04-01 23:53,-104.2633,32.3375,66.00,39.90,38.32,70.00,14.00,0.00,29.90,1009.00,10.00,M,FEW,SCT,M,M,7500.00,9500.00,M,M,M,KCNM 012353Z AUTO 07014KT 10SM FEW075 SCT095 19/04 A2990 RMK AO2 SLP090 T01890044 10211 20156 53007 $
CNM,2017-04-01 23:55,-104.2633,32.3375,M,M,M,M,M,M,29.90,M,10.00,M,FEW,SCT,M,M,7500.00,9500.00,M,M,M,KCNM 012355Z AUTO /////KT 10SM FEW075 SCT095 A2990 RMK MADISHF
