#DEBUG: Format Typ    -> comma
#DEBUG: Time Period   -> 2017-04-01 00:00:00+00:00 2017-04-02 00:00:00+00:00
#DEBUG: Time Zone     -> Etc/UTC
#DEBUG: Data Contact   -> daryl herzmann akrherz@iastate.edu 515-294-5978
#DEBUG: Entries Found -> -1
station,valid,lon,lat,tmpf, dwpf, relh, drct, sknt, p01i, alti, mslp, vsby, gust, skyc1, skyc2, skyc3, skyc4, skyl1, skyl2, skyl3, skyl4, presentwx, metar
CNU,2017-04-01 00:00,-95.4842,37.6703,M,M,M,30.00,11.00,M,29.94,M,10.00,M,OVC,M,M,M,2500.00,M,M,M,M,KCNU 010000Z AUTO 03011KT 10SM OVC025 A2994 RMK MADISHF
CNU,2017-04-01 00:05,-95.4842,37.6703,M,M,M,30.00,9.00,M,29.95,M,10.00,M,OVC,M,M,M,2500.00,M,M,M,M,KCNU 010005Z AUTO 03009KT 10SM OVC025 A2995 RMK MADISHF
CNU,2017-04-01 00:10,-95.4842,37.6703,M,M,M,30.00,11.00,M,29.95,M,10.00,M,OVC,M,M,M,2400.00,M,M,M,M,KCNU 010010Z AUTO 03011KT 10SM OVC024 A2995 RMK MADISHF
CNU,2017-04-01 00:15,-95.4842,37.6703,M,M,M,50.00,11.00,M,29.95,M,10.00,M,OVC,M,M,M,2400.00,M,M,M,M,KCNU 010015Z AUTO 05011KT 10SM OVC024 A2995 RMK MADISHF
CNU,2017-04-01 00:20,-95.4842,37.6703,M,M,M,40.00,11.00,M,29.95,M,10.00,M,OVC,M,M,M,2400.00,M,M,M,M,KCNU 010020Z AUTO 04011KT 10SM OVC024 A2995 RMK MADISHF
CNU,2017-04-01 00:25,-95.4842,37.6703,M,M,M,40.00,8.00,M,29.95,M,10.00,M,OVC,M,M,M,2300.00,M,M,M,M,KCNU 010025Z AUTO 04008KT 10SM OVC023 A2995 RMK MADISHF
CNU,2017-04-01 00:30,-95.4842,37.6703,M,M,M,50.00,10.00,M,29.95,M,10.00,M,OVC,M,M,M,2300.00,M,M,M,M,KCNU 010030Z AUTO 05010KT 10SM OVC023 A2995 RMK MADISHF
CNU,2017-04-01 00:35,-95.4842,37.6703,M,M,M,40.00,12.00,M,29.95,M,10.00,M,OVC,M,M,M,2300.00,M,M,M,M,KCNU 010035Z AUTO 04012KT 10SM OVC023 A2995 RMK MADISHF
CNU,2017-04-01 00:40,-95.4842,37.6703,M,M,M,40.00,10.00,M,29.96,M,10.00,M,OVC,M,M,M,2300.00,M,M,M,M,KCNU 010040Z AUTO 04010KT 10SM OVC023 A2996 RMK MADISHF
CNU,2017-04-01 00:45,-95.4842,37.6703,M,M,M,40.00,9.00,M,29.97,M,10.00,M,OVC,M,M,M,2200.00,M,M,M,M,KCNU 010045Z AUTO 04009KT 10SM OVC022 A2997 RMK MADISHF
CNU,2017-04-01 00:50,-95.4842,37.6703,M,M,M,40.00,10.00,M,29.97,M,10.00,M,OVC,M,M,M,2200.00,M,M,M,M,KCNU 010050Z AUTO 04010KT 10SM OVC022 A2997 RMK MADISHF
CNU,2017-04-01 00:52,-95.4842,37.6703,51.10,43.00,73.69,40.00,11.00,0.00,29.97,1014.80,10.00,M,OVC,M,M,M,2200.00,M,M,M,M,KCNU 010052Z AUTO 04011KT 10SM OVC022 11/06 A2997 RMK AO2 SLP148 T01060061
CNU,2017-04-01 00:55,-95.4842,37.6703,M,M,M,50.00,7.00,M,29.97,M,10.00,M,OVC,M,M,M,2200.00,M,M,M,M,KCNU 010055Z AUTO 05007KT 10SM OVC022 A2997 RMK MADISHF
CNU,2017-04-01 01:00,-95.4842,37.6703,M,M,M,40.00,11.00,M,29.98,M,10.00,M,OVC,M,M,M,2300.00,M,M,M,M,KCNU 010100Z AUTO 04011KT 10SM OVC023 A2998 RMK MADISHF
CNU,2017-04-01 01:05,-95.4842,37.6703,M,M,M,40.00,10.00,M,29.98,M,10.00,M,OVC,M,M,M,2300.00,M,M,M,M,KCNU 010105Z AUTO 04010KT 10SM OVC023 A2998 RMK MADISHF
CNU,2017-04-01 01:10,-95.4842,37.6703,M,M,M,40.00,11.00,M,29.98,M,10.00,M,OVC,M,M,M,2200.00,M,M,M,M,KCNU 010110Z AUTO 04011KT 10SM OVC022 A2998 RMK MADISHF
CNU,2017-04-01 01:15,-95.4842,37.6703,M,M,M,40.00,11.00,M,29.98,M,10.00,M,OVC,M,M,M,2200.00,M,M,M,M,KCNU 010115Z AUTO 04011KT 10SM OVC022 A2998 RMK MADISHF
CNU,2017-04-01 01:20,-95.4842,37.6703,M,M,M,40.00,11.00,M,29.98,M,10.00,M,OVC,M,M,M,2200.00,M,M,M,M,KCNU 010120Z AUTO 04011KT 10SM OVC022 A2998 RMK MADISHF
CNU,2017-04-01 01:25,-95.4842,37.6703,M,M,M,40.00,9.00,M,29.98,M,10.00,M,OVC,M,M,M,2200.00,M,M,M,M,KCNU 010125Z AUTO 04009KT 10SM OVC022 A2998 RMK MADISHF
CNU,2017-04-01 01:30,-95.4842,37.6703,M,M,M,50.00,9.00,M,29.98,M,10.00,14.00,OVC,M,M,M,2200.00,M,M,M,M,KCNU 010130Z AUTO 05009G14KT 10SM OVC022 A2998 RMK MADISHF
CNU,2017-04-01 01:35,-95.4842,37.6703,M,M,M,60.00,10.00,M,29.99,M,10.00,M,OVC,M,M,M,2200.00,M,M,M,M,KCNU 010135Z AUTO 06010KT 10SM OVC022 A2999 RMK MADISHF
CNU,2017-04-01 01:40,-95.4842,37.6703,M,M,M,50.00,8.00,M,29.99,M,10.00,M,OVC,M,M,M,1999.00,M,M,M,M,KCNU 010140Z AUTO 05008KT 10SM OVC019 A2999 RMK MADISHF
CNU,2017-04-01 01:45,-95.4842,37.6703,M,M,M,50.00,7.00,M,29.99,M,10.00,M,OVC,M,M,M,1999.00,M,M,M,M,KCNU 010145Z AUTO 05007KT 10SM OVC019 A2999 RMK MADISHF
CNU,2017-04-01 01:50,-95.4842,37.6703,M,M,M,50.00,9.00,M,29.99,M,10.00,M,OVC,M,M,M,1999.00,M,M,M,M,KCNU 010150Z AUTO 05009KT 10SM OVC019 A2999 RMK MADISHF
CNU,2017-04-01 01:52,-95.4842,37.6703,50.00,42.10,74.15,50.00,12.00,0.00,29.99,1015.60,10.00,15.00,OVC,M,M,M,2000.00,M,M,M,M,KCNU 010152Z AUTO 05012G15KT 10SM OVC020 10/06 A2999 RMK AO2 SLP156 T01000056
CNU,2017-04-01 01:55,-95.4842,37.6703,M,M,M,50.00,11.00,M,29.99,M,10.00,M,OVC,M,M,M,1999.00,M,M,M,M,KCNU 010155Z AUTO 05011KT 10SM OVC019 A2999 RMK MADISHF
CNU,2017-04-01 02:00,-95.4842,37.6703,M,M,M,50.00,10.00,M,30.00,M,10.00,M,OVC,M,M,M,1999.00,M,M,M,M,KCNU 010200Z AUTO 05010KT 10SM OVC019 A3000 RMK MADISHF
CNU,2017-04-01 02:05,-95.4842,37.6703,M,M,M,60.00,10.00,M,30.00,M,10.00,M,OVC,M,M,M,1900.00,M,M,M,M,KCNU 010205Z AUTO 06010KT 10SM OVC019 A3000 RMK MADISHF
CNU,2017-04-01 02:10,-95.4842,37.6703,M,M,M,50.00,10.00,M,30.00,M,10.00,M,OVC,M,M,M,1900.00,M,M,M,M,KCNU 010210Z AUTO 05010KT 10SM OVC019 A3000 RMK MADISHF
CNU,2017-04-01 02:15,-95.4842,37.6703,M,M,M,50.00,9.00,M,30.00,M,10.00,M,OVC,M,M,M,1900.00,M,M,M,M,KCNU 010215Z AUTO 05009KT 10SM OVC019 A3000 RMK MADISHF
CNU,2017-04-01 02:20,-95.4842,37.6703,M,M,M,50.00,11.00,M,30.01,M,10.00,M,OVC,M,M,M,1900.00,M,M,M,M,KCNU 010220Z AUTO 05011KT 10SM OVC019 A3001 RMK MADISHF
CNU,2017-04-01 02:25,-95.4842,37.6703,M,M,M,60.00,8.00,M,30.01,M,10.00,M,OVC,M,M,M,1900.00,M,M,M,M,KCNU 010225Z AUTO 06008KT 10SM OVC019 A3001 RMK MADISHF
CNU,2017-04-01 02:30,-95.4842,37.6703,M,M,M,60.00,8.00,M,30.01,M,10.00,M,OVC,M,M,M,1800.00,M,M,M,M,KCNU 010230Z AUTO 06008KT 10SM OVC018 A3001 RMK MADISHF
CNU,2017-04-01 02:35,-95.4842,37.6703,M,M,M,70.00,10.00,M,30.01,M,10.00,M,OVC,M,M,M,1800.00,M,M,M,M,KCNU 010235Z AUTO 07010KT 10SM OVC018 A3001 RMK MADISHF
CNU,2017-04-01 02:40,-95.4842,37.6703,M,M,M,80.00,9.00,M,30.01,M,10.00,M,OVC,M,M,M,1800.00,M,M,M,M,KCNU 010240Z AUTO 08009KT 10SM OVC018 A3001 RMK MADISHF
CNU,2017-04-01 02:45,-95.4842,37.6703,M,M,M,70.00,12.00,M,30.02,M,10.00,M,OVC,M,M,M,1800.00,M,M,M,M,KCNU 010245Z AUTO 07012KT 10SM OVC018 A3002 RMK MADISHF
CNU,2017-04-01 02:50,-95.4842,37.6703,M,M,M,60.00,12.00,M,30.02,M,10.00,M,OVC,M,M,M,1699.00,M,M,M,M,KCNU 010250Z AUTO 06012KT 10SM OVC016 A3002 RMK MADISHF
CNU,2017-04-01 02:52,-95.4842,37.6703,48.90,41.00,74.05,70.00,10.00,0.00,30.02,1016.60,10.00,M,OVC,M,M,M,1700.00,M,M,M,M,KCNU 010252Z AUTO 07010KT 10SM OVC017 09/05 A3002 RMK AO2 SLP166 T00940050 51027
CNU,2017-04-01 02:55,-95.4842,37.6703,M,M,M,M,M,M,30.02,M,10.00,M,OVC,M,M,M,1699.00,M,M,M,M,KCNU 010255Z AUTO /////KT 10SM OVC016 A3002 RMK MADISHF
CNU,2017-04-01 03:00,-95.4842,37.6703,M,M,M,80.00,10.00,M,30.03,M,10.00,M,OVC,M,M,M,1699.00,M,M,M,M,KCNU 010300Z AUTO 08010KT 10SM OVC016 A3003 RMK MADISHF
CNU,2017-04-01 03:05,-95.4842,37.6703,M,M,M,60.00,11.00,M,30.03,M,10.00,M,OVC,M,M,M,1699.00,M,M,M,M,KCNU 010305Z AUTO 06011KT 10SM OVC016 A3003 RMK MADISHF
CNU,2017-04-01 03:10,-95.4842,37.6703,M,M,M,60.00,11.00,M,30.03,M,10.00,M,OVC,M,M,M,1699.00,M,M,M,M,KCNU 010310Z AUTO 06011KT 10SM OVC016 A3003 RMK MADISHF
CNU,2017-04-01 03:15,-95.4842,37.6703,M,M,M,60.00,8.00,M,30.03,M,10.00,M,OVC,M,M,M,1699.00,M,M,M,M,KCNU 010315Z AUTO 06008KT 10SM OVC016 A3003 RMK MADISHF
CNU,2017-04-01 03:20,-95.4842,37.6703,M,M,M,60.00,7.00,M,30.03,M,10.00,M,OVC,M,M,M,1699.00,M,M,M,M,KCNU 010320Z AUTO 06007KT 10SM OVC016 A3003 RMK MADISHF
CNU,2017-04-01 03:25,-95.4842,37.6703,M,M,M,60.00,8.00,M,30.03,M,10.00,M,OVC,M,M,M,1699.00,M,M,M,M,KCNU 010325Z AUTO 06008KT 10SM OVC016 A3003 RMK MADISHF
CNU,2017-04-01 03:30,-95.4842,37.6703,M,M,M,60.00,8.00,M,30.03,M,10.00,M,OVC,M,M,M,1699.00,M,M,M,M,KCNU 010330Z AUTO 06008KT 10SM OVC016 A3003 RMK MADISHF
CNU,2017-04-01 03:35,-95.4842,37.6703,M,M,M,60.00,9.00,M,30.03,M,10.00,M,OVC,M,M,M,1699.00,M,M,M,M,KCNU 010335Z AUTO 06009KT 10SM OVC016 A3003 RMK MADISHF
CNU,2017-04-01 03:40,-95.4842,37.6703,M,M,M,70.00,11.00,M,30.03,M,10.00,M,OVC,M,M,M,1699.00,M,M,M,M,KCNU 010340Z AUTO 07011KT 10SM OVC016 A3003 RMK MADISHF
CNU,2017-04-01 03:45,-95.4842,37.6703,M,M,M,60.00,12.00,M,30.03,M,10.00,M,OVC,M,M,M,1699.00,M,M,M,M,KCNU 010345Z AUTO 06012KT 10SM OVC016 A3003 RMK MADISHF
CNU,2017-04-01 03:50,-95.4842,37.6703,M,M,M,60.00,11.00,M,30.04,M,10.00,M,OVC,M,M,M,1600.00,M,M,M,M,KCNU 010350Z AUTO 06011KT 10SM OVC016 A3004 RMK MADISHF
CNU,2017-04-01 03:52,-95.4842,37.6703,48.00,41.00,76.58,70.00,11.00,0.00,30.04,1017.20,10.00,M,OVC,M,M,M,1600.00,M,M,M,M,KCNU 010352Z AUTO 07011KT 10SM OVC016 09/05 A3004 RMK AO2 SLP172 T00890050
CNU,2017-04-01 03:55,-95.4842,37.6703,M,M,M,60.00,8.00,M,30.04,M,10.00,M,OVC,M,M,M,1600.00,M,M,M,M,KCNU 010355Z AUTO 06008KT 10SM OVC016 A3004 RMK MADISHF
CNU,2017-04-01 04:00,-95.4842,37.6703,M,M,M,50.00,8.00,M,30.04,M,10.00,M,OVC,M,M,M,1600.00,M,M,M,M,KCNU 010400Z AUTO 05008KT 10SM OVC016 A3004 RMK MADISHF
CNU,2017-04-01 04:05,-95.4842,37.6703,M,M,M,70.00,10.00,M,30.04,M,10.00,M,OVC,M,M,M,1600.00,M,M,M,M,KCNU 010405Z AUTO 07010KT 10SM OVC016 A3004 RMK MADISHF
CNU,2017-04-01 04:10,-95.4842,37.6703,M,M,M,50.00,11.00,M,30.04,M,10.00,M,OVC,M,M,M,1600.00,M,M,M,M,KCNU 010410Z AUTO 05011KT 10SM OVC016 A3004 RMK MADISHF
CNU,2017-04-01 04:15,-95.4842,37.6703,M,M,M,50.00,8.00,M,30.05,M,10.00,M,OVC,M,M,M,1600.00,M,M,M,M,KCNU 010415Z AUTO 05008KT 10SM OVC016 A3005 RMK MADISHF
CNU,2017-04-01 04:20,-95.4842,37.6703,M,M,M,80.00,10.00,M,30.04,M,10.00,M,OVC,M,M,M,1600.00,M,M,M,M,KCNU 010420Z AUTO 08010KT 10SM OVC016 A3004 RMK MADISHF
CNU,2017-04-01 04:25,-95.4842,37.6703,M,M,M,70.00,10.00,M,30.04,M,10.00,M,OVC,M,M,M,1600.00,M,M,M,M,KCNU 010425Z AUTO 07010KT 10SM OVC016 A3004 RMK MADISHF
CNU,2017-04-01 04:30,-95.4842,37.6703,M,M,M,70.00,8.00,M,30.04,M,10.00,M,OVC,M,M,M,1600.00,M,M,M,M,KCNU 010430Z AUTO 07008KT 10SM OVC016 A3004 RMK MADISHF
CNU,2017-04-01 04:35,-95.4842,37.6703,M,M,M,80.00,10.00,M,30.05,M,10.00,M,OVC,M,M,M,1600.00,M,M,M,M,KCNU 010435Z AUTO 08010KT 10SM OVC016 A3005 RMK MADISHF
CNU,2017-04-01 04:40,-95.4842,37.6703,M,M,M,70.00,9.00,M,30.05,M,10.00,M,OVC,M,M,M,1500.00,M,M,M,M,KCNU 010440Z AUTO 07009KT 10SM OVC015 A3005 RMK MADISHF
CNU,2017-04-01 04:45,-95.4842,37.6703,M,M,M,60.00,11.00,M,30.05,M,10.00,M,OVC,M,M,M,1500.00,M,M,M,M,KCNU 010445Z AUTO 06011KT 10SM OVC015 A3005 RMK MADISHF
CNU,2017-04-01 04:50,-95.4842,37.6703,M,M,M,60.00,8.00,M,30.05,M,10.00,M,OVC,M,M,M,1500.00,M,M,M,M,KCNU 010450Z AUTO 06008KT 10SM OVC015 A3005 RMK MADISHF
CNU,2017-04-01 04:52,-95.4842,37.6703,48.00,42.10,79.91,70.00,8.00,0.00,30.05,1017.40,10.00,M,OVC,M,M,M,1500.00,M,M,M,M,KCNU 010452Z AUTO 07008KT 10SM OVC015 09/06 A3005 RMK AO2 SLP174 T00890056
CNU,2017-04-01 04:55,-95.4842,37.6703,M,M,M,70.00,9.00,M,30.05,M,10.00,M,OVC,M,M,M,1500.00,M,M,M,M,KCNU 010455Z AUTO 07009KT 10SM OVC015 A3005 RMK MADISHF
CNU,2017-04-01 05:00,-95.4842,37.6703,M,M,M,60.00,7.00,M,30.06,M,10.00,M,OVC,M,M,M,1500.00,M,M,M,M,KCNU 010500Z AUTO 06007KT 10SM OVC015 A3006 RMK MADISHF
CNU,2017-04-01 05:05,-95.4842,37.6703,M,M,M,70.00,12.00,M,30.06,M,10.00,M,OVC,M,M,M,1500.00,M,M,M,M,KCNU 010505Z AUTO 07012KT 10SM OVC015 A3006 RMK MADISHF
CNU,2017-04-01 05:10,-95.4842,37.6703,M,M,M,70.00,11.00,M,30.06,M,10.00,M,OVC,M,M,M,1500.00,M,M,M,M,KCNU 010510Z AUTO 07011KT 10SM OVC015 A3006 RMK MADISHF
CNU,2017-04-01 05:15,-95.4842,37.6703,M,M,M,70.00,10.00,M,30.06,M,10.00,M,OVC,M,M,M,1500.00,M,M,M,M,KCNU 010515Z AUTO 07010KT 10SM OVC015 A3006 RMK MADISHF
CNU,2017-04-01 05:20,-95.4842,37.6703,M,M,M,60.00,10.00,M,30.06,M,10.00,M,OVC,M,M,M,1500.00,M,M,M,M,KCNU 010520Z AUTO 06010KT 10SM OVC015 A3006 RMK MADISHF
CNU,2017-04-01 05:25,-95.4842,37.6703,M,M,M,70.00,10.00,M,30.06,M,10.00,M,OVC,M,M,M,1500.00,M,M,M,M,KCNU 010525Z AUTO 07010KT 10SM OVC015 A3006 RMK MADISHF
CNU,2017-04-01 05:30,-95.4842,37.6703,M,M,M,60.00,11.00,M,30.06,M,10.00,M,OVC,M,M,M,1500.00,M,M,M,M,KCNU 010530Z AUTO 06011KT 10SM OVC015 A3006 RMK MADISHF
CNU,2017-04-01 05:35,-95.4842,37.6703,M,M,M,60.00,8.00,M,30.06,M,10.00,M,OVC,M,M,M,1500.00,M,M,M,M,KCNU 010535Z AUTO 06008KT 10SM OVC015 A3006 RMK MADISHF
CNU,2017-04-01 05:40,-95.4842,37.6703,M,M,M,50.00,12.00,M,30.06,M,10.00,M,OVC,M,M,M,1600.00,M,M,M,M,KCNU 010540Z AUTO 05012KT 10SM OVC016 A3006 RMK MADISHF
CNU,2017-04-01 05:45,-95.4842,37.6703,M,M,M,60.00,12.00,M,30.06,M,10.00,M,OVC,M,M,M,1600.00,M,M,M,M,KCNU 010545Z AUTO 06012KT 10SM OVC016 A3006 RMK MADISHF
CNU,2017-04-01 05:50,-95.4842,37.6703,M,M,M,60.00,11.00,M,30.06,M,10.00,M,OVC,M,M,M,1600.00,M,M,M,M,KCNU 010550Z AUTO 06011KT 10SM OVC016 A3006 RMK MADISHF
CNU,2017-04-01 05:52,-95.4842,37.6703,48.00,41.00,76.58,50.00,9.00,0.00,30.06,1017.90,10.00,18.00,OVC,M,M,M,1600.00,M,M,M,M,KCNU 010552Z AUTO 05009G18KT 10SM OVC016 09/05 A3006 RMK AO2 SLP179 T00890050 10117 20089 401330072 51014
CNU,2017-04-01 05:55,-95.4842,37.6703,M,M,M,60.00,8.00,M,30.06,M,10.00,M,OVC,M,M,M,1600.00,M,M,M,M,KCNU 010555Z AUTO 06008KT 10SM OVC016 A3006 RMK MADISHF
CNU,2017-04-01 06:00,-95.4842,37.6703,M,M,M,70.00,8.00,M,30.06,M,10.00,M,OVC,M,M,M,1600.00,M,M,M,M,KCNU 010600Z AUTO 07008KT 10SM OVC016 A3006 RMK MADISHF
CNU,2017-04-01 06:05,-95.4842,37.6703,M,M,M,60.00,8.00,M,30.06,M,10.00,M,OVC,M,M,M,1600.00,M,M,M,M,KCNU 010605Z AUTO 06008KT 10SM OVC016 A3006 RMK MADISHF
CNU,2017-04-01 06:10,-95.4842,37.6703,M,M,M,60.00,9.00,M,30.06,M,10.00,M,OVC,M,M,M,1600.00,M,M,M,M,KCNU 010610Z AUTO 06009KT 10SM OVC016 A3006 RMK MADISHF
CNU,2017-04-01 06:15,-95.4842,37.6703,M,M,M,70.00,9.00,M,30.06,M,10.00,16.00,OVC,M,M,M,1600.00,M,M,M,M,KCNU 010615Z AUTO 07009G16KT 10SM OVC016 A3006 RMK MADISHF
CNU,2017-04-01 06:20,-95.4842,37.6703,M,M,M,70.00,9.00,M,30.06,M,10.00,M,OVC,M,M,M,1600.00,M,M,M,M,KCNU 010620Z AUTO 07009KT 10SM OVC016 A3006 RMK MADISHF
CNU,2017-04-01 06:25,-95.4842,37.6703,M,M,M,60.00,10.00,M,30.06,M,10.00,M,OVC,M,M,M,1600.00,M,M,M,M,KCNU 010625Z AUTO 06010KT 10SM OVC016 A3006 RMK MADISHF
CNU,2017-04-01 06:30,-95.4842,37.6703,M,M,M,70.00,13.00,M,30.06,M,10.00,M,OVC,M,M,M,1600.00,M,M,M,M,KCNU 010630Z AUTO 07013KT 10SM OVC016 A3006 RMK MADISHF
CNU,2017-04-01 06:35,-95.4842,37.6703,M,M,M,70.00,9.00,M,30.06,M,10.00,M,OVC,M,M,M,1600.00,M,M,M,M,KCNU 010635Z AUTO 07009KT 10SM OVC016 A3006 RMK MADISHF
CNU,2017-04-01 06:40,-95.4842,37.6703,M,M,M,80.00,11.00,M,30.06,M,10.00,M,OVC,M,M,M,1600.00,M,M,M,M,KCNU 010640Z AUTO 08011KT 10SM OVC016 A3006 RMK MADISHF
CNU,2017-04-01 06:45,-95.4842,37.6703,M,M,M,70.00,10.00,M,30.05,M,10.00,M,OVC,M,M,M,1600.00,M,M,M,M,KCNU 010645Z AUTO 07010KT 10SM OVC016 A3005 RMK MADISHF
CNU,2017-04-01 06:50,-95.4842,37.6703,M,M,M,80.00,8.00,M,30.05,M,10.00,M,OVC,M,M,M,1600.00,M,M,M,M,KCNU 010650Z AUTO 08008KT 10SM OVC016 A3005 RMK MADISHF
CNU,2017-04-01 06:52,-95.4842,37.6703,48.00,41.00,76.58,80.00,8.00,0.00,30.05,1017.50,10.00,M,OVC,M,M,M,1600.00,M,M,M,M,KCNU 010652Z AUTO 08008KT 10SM OVC016 09/05 A3005 RMK AO2 SLP175 T00890050
CNU,2017-04-01 06:55,-95.4842,37.6703,M,M,M,80.00,12.00,M,30.05,M,10.00,M,OVC,M,M,M,1600.00,M,M,M,M,KCNU 010655Z AUTO 08012KT 10SM OVC016 A3005 RMK MADISHF
CNU,2017-04-01 07:00,-95.4842,37.6703,M,M,M,70.00,10.00,M,30.05,M,10.00,M,OVC,M,M,M,1600.00,M,M,M,M,KCNU 010700Z AUTO 07010KT 10SM OVC016 A3005 RMK MADISHF
CNU,2017-04-01 07:05,-95.4842,37.6703,M,M,M,80.00,8.00,M,30.05,M,10.00,M,OVC,M,M,M,1600.00,M,M,M,M,KCNU 010705Z AUTO 08008KT 10SM OVC016 A3005 RMK MADISHF
CNU,2017-04-01 07:10,-95.4842,37.6703,M,M,M,70.00,12.00,M,30.05,M,10.00,M,OVC,M,M,M,1500.00,M,M,M,M,KCNU 010710Z AUTO 07012KT 10SM OVC015 A3005 RMK MADISHF
CNU,2017-04-01 07:15,-95.4842,37.6703,M,M,M,80.00,9.00,M,30.05,M,10.00,M,OVC,M,M,M,1500.00,M,M,M,M,KCNU 010715Z AUTO 08009KT 10SM OVC015 A3005 RMK MADISHF
CNU,2017-04-01 07:20,-95.4842,37.6703,M,M,M,80.00,7.00,M,30.05,M,10.00,M,OVC,M,M,M,1500.00,M,M,M,M,KCNU 010720Z AUTO 08007KT 10SM OVC015 A3005 RMK MADISHF
CNU,2017-04-01 07:25,-95.4842,37.6703,M,M,M,80.00,9.00,M,30.05,M,10.00,M,OVC,M,M,M,1500.00,M,M,M,M,KCNU 010725Z AUTO 08009KT 10SM OVC015 A3005 RMK MADISHF
CNU,2017-04-01 07:30,-95.4842,37.6703,M,M,M,70.00,12.00,M,30.05,M,10.00,M,OVC,M,M,M,1500.00,M,M,M,M,KCNU 010730Z AUTO 07012KT 10SM OVC015 A3005 RMK MADISHF
CNU,2017-04-01 07:40,-95.4842,37.6703,M,M,M,70.00,7.00,M,30.05,M,10.00,M,OVC,M,M,M,1500.00,M,M,M,M,KCNU 010740Z AUTO 07007KT 10SM OVC015 A3005 RMK MADISHF
CNU,2017-04-01 07:45,-95.4842,37.6703,M,M,M,70.00,11.00,M,30.05,M,10.00,M,OVC,M,M,M,1500.00,M,M,M,M,KCNU 010745Z AUTO 07011KT 10SM OVC015 A3005 RMK MADISHF
CNU,2017-04-01 07:50,-95.4842,37.6703,M,M,M,60.00,11.00,M,30.05,M,10.00,M,OVC,M,M,M,1500.00,M,M,M,M,KCNU 010750Z AUTO 06011KT 10SM OVC015 A3005 RMK MADISHF
CNU,2017-04-01 07:52,-95.4842,37.6703,48.00,42.10,79.91,60.00,10.00,0.00,30.05,1017.50,10.00,M,OVC,M,M,M,1500.00,M,M,M,M,KCNU 010752Z AUTO 06010KT 10SM OVC015 09/06 A3005 RMK AO2 SLP175 T00890056
CNU,2017-04-01 07:55,-95.4842,37.6703,M,M,M,60.00,8.00,M,30.05,M,10.00,M,OVC,M,M,M,1500.00,M,M,M,M,KCNU 010755Z AUTO 06008KT 10SM OVC015 A3005 RMK MADISHF
CNU,2017-04-01 08:00,-95.4842,37.6703,M,M,M,60.00,11.00,M,30.06,M,10.00,M,OVC,M,M,M,1500.00,M,M,M,M,KCNU 010800Z AUTO 06011KT 10SM OVC015 A3006 RMK MADISHF
CNU,2017-04-01 08:05,-95.4842,37.6703,M,M,M,70.00,9.00,M,30.06,M,10.00,M,OVC,M,M,M,1400.00,M,M,M,M,KCNU 010805Z AUTO 07009KT 10SM OVC014 A3006 RMK MADISHF
CNU,2017-04-01 08:09,-95.4842,37.6703,48.00,42.10,79.91,60.00,10.00,0.00,30.06,M,10.00,M,OVC,M,M,M,1400.00,M,M,M,M,KCNU 010809Z AUTO 06010KT 10SM OVC014 09/06 A3006 RMK AO2 T00890056
CNU,2017-04-01 08:10,-95.4842,37.6703,M,M,M,60.00,11.00,M,30.06,M,10.00,M,OVC,M,M,M,1400.00,M,M,M,M,KCNU 010810Z AUTO 06011KT 10SM OVC014 A3006 RMK MADISHF
CNU,2017-04-01 08:15,-95.4842,37.6703,M,M,M,60.00,13.00,M,30.06,M,10.00,M,OVC,M,M,M,1400.00,M,M,M,M,KCNU 010815Z AUTO 06013KT 10SM OVC014 A3006 RMK MADISHF
CNU,2017-04-01 08:20,-95.4842,37.6703,M,M,M,50.00,13.00,M,30.06,M,10.00,M,OVC,M,M,M,1400.00,M,M,M,M,KCNU 010820Z AUTO 05013KT 10SM OVC014 A3006 RMK MADISHF
CNU,2017-04-01 08:25,-95.4842,37.6703,M,M,M,50.00,12.00,M,30.06,M,10.00,M,OVC,M,M,M,1400.00,M,M,M,M,KCNU 010825Z AUTO 05012KT 10SM OVC014 A3006 RMK MADISHF
CNU,2017-04-01 08:30,-95.4842,37.6703,M,M,M,60.00,11.00,M,30.06,M,10.00,M,OVC,M,M,M,1400.00,M,M,M,M,KCNU 010830Z AUTO 06011KT 10SM OVC014 A3006 RMK MADISHF
CNU,2017-04-01 08:35,-95.4842,37.6703,M,M,M,60.00,10.00,M,30.06,M,10.00,M,OVC,M,M,M,1400.00,M,M,M,M,KCNU 010835Z AUTO 06010KT 10SM OVC014 A3006 RMK MADISHF
CNU,2017-04-01 08:40,-95.4842,37.6703,M,M,M,60.00,12.00,M,30.06,M,10.00,M,OVC,M,M,M,1400.00,M,M,M,M,KCNU 010840Z AUTO 06012KT 10SM OVC014 A3006 RMK MADISHF
CNU,2017-04-01 08:45,-95.4842,37.6703,M,M,M,60.00,10.00,M,30.06,M,10.00,M,OVC,M,M,M,1400.00,M,M,M,M,KCNU 010845Z AUTO 06010KT 10SM OVC014 A3006 RMK MADISHF
CNU,2017-04-01 08:50,-95.4842,37.6703,M,M,M,50.00,12.00,M,30.06,M,10.00,M,OVC,M,M,M,1400.00,M,M,M,M,KCNU 010850Z AUTO 05012KT 10SM OVC014 A3006 RMK MADISHF
CNU,2017-04-01 08:52,-95.4842,37.6703,48.00,41.00,76.58,60.00,10.00,0.00,30.06,1017.70,10.00,M,OVC,M,M,M,1400.00,M,M,M,M,KCNU 010852Z AUTO 06010KT 10SM OVC014 09/05 A3006 RMK AO2 SLP177 T00890050 55002
CNU,2017-04-01 08:55,-95.4842,37.6703,M,M,M,60.00,12.00,M,30.06,M,10.00,M,OVC,M,M,M,1400.00,M,M,M,M,KCNU 010855Z AUTO 06012KT 10SM OVC014 A3006 RMK MADISHF
CNU,2017-04-01 09:00,-95.4842,37.6703,M,M,M,60.00,10.00,M,30.06,M,10.00,M,OVC,M,M,M,1400.00,M,M,M,M,KCNU 010900Z AUTO 06010KT 10SM OVC014 A3006 RMK MADISHF
CNU,2017-04-01 09:05,-95.4842,37.6703,M,M,M,60.00,11.00,M,30.06,M,10.00,M,OVC,M,M,M,1400.00,M,M,M,M,KCNU 010905Z AUTO 06011KT 10SM OVC014 A3006 RMK MADISHF
CNU,2017-04-01 09:10,-95.4842,37.6703,M,M,M,60.00,11.00,M,30.06,M,10.00,M,OVC,M,M,M,1400.00,M,M,M,M,KCNU 010910Z AUTO 06011KT 10SM OVC014 A3006 RMK MADISHF
CNU,2017-04-01 09:15,-95.4842,37.6703,M,M,M,70.00,9.00,M,30.06,M,10.00,M,OVC,M,M,M,1400.00,M,M,M,M,KCNU 010915Z AUTO 07009KT 10SM OVC014 A3006 RMK MADISHF
CNU,2017-04-01 09:20,-95.4842,37.6703,M,M,M,80.00,10.00,M,30.06,M,10.00,M,OVC,M,M,M,1400.00,M,M,M,M,KCNU 010920Z AUTO 08010KT 10SM OVC014 A3006 RMK MADISHF
CNU,2017-04-01 09:25,-95.4842,37.6703,M,M,M,60.00,13.00,M,30.06,M,10.00,M,OVC,M,M,M,1400.00,M,M,M,M,KCNU 010925Z AUTO 06013KT 10SM OVC014 A3006 RMK MADISHF
CNU,2017-04-01 09:30,-95.4842,37.6703,M,M,M,70.00,11.00,M,30.06,M,10.00,M,OVC,M,M,M,1400.00,M,M,M,M,KCNU 010930Z AUTO 07011KT 10SM OVC014 A3006 RMK MADISHF
CNU,2017-04-01 09:35,-95.4842,37.6703,M,M,M,60.00,12.00,M,30.06,M,10.00,M,OVC,M,M,M,1400.00,M,M,M,M,KCNU 010935Z AUTO 06012KT 10SM OVC014 A3006 RMK MADISHF
CNU,2017-04-01 09:40,-95.4842,37.6703,M,M,M,60.00,12.00,M,30.06,M,10.00,17.00,OVC,M,M,M,1400.00,M,M,M,M,KCNU 010940Z AUTO 06012G17KT 10SM OVC014 A3006 RMK MADISHF
CNU,2017-04-01 09:45,-95.4842,37.6703,M,M,M,60.00,13.00,M,30.06,M,10.00,18.00,OVC,M,M,M,1400.00,M,M,M,M,KCNU 010945Z AUTO 06013G18KT 10SM OVC014 A3006 RMK MADISHF
CNU,2017-04-01 09:50,-95.4842,37.6703,M,M,M,60.00,13.00,M,30.06,M,10.00,M,OVC,M,M,M,1400.00,M,M,M,M,KCNU 010950Z AUTO 06013KT 10SM OVC014 A3006 RMK MADISHF
CNU,2017-04-01 09:52,-95.4842,37.6703,46.90,41.00,79.82,70.00,13.00,0.00,30.07,1017.90,10.00,18.00,OVC,M,M,M,1400.00,M,M,M,M,KCNU 010952Z AUTO 07013G18KT 10SM OVC014 08/05 A3007 RMK AO2 SLP179 T00830050
CNU,2017-04-01 09:55,-95.4842,37.6703,M,M,M,60.00,11.00,M,30.07,M,10.00,M,OVC,M,M,M,1400.00,M,M,M,M,KCNU 010955Z AUTO 06011KT 10SM OVC014 A3007 RMK MADISHF
CNU,2017-04-01 10:00,-95.4842,37.6703,M,M,M,60.00,10.00,M,30.07,M,10.00,M,OVC,M,M,M,1400.00,M,M,M,M,KCNU 011000Z AUTO 06010KT 10SM OVC014 A3007 RMK MADISHF
CNU,2017-04-01 10:05,-95.4842,37.6703,M,M,M,60.00,14.00,M,30.07,M,10.00,M,OVC,M,M,M,1400.00,M,M,M,M,KCNU 011005Z AUTO 06014KT 10SM OVC014 A3007 RMK MADISHF
CNU,2017-04-01 10:10,-95.4842,37.6703,M,M,M,60.00,10.00,M,30.07,M,10.00,M,OVC,M,M,M,1400.00,M,M,M,M,KCNU 011010Z AUTO 06010KT 10SM OVC014 A3007 RMK MADISHF
CNU,2017-04-01 10:15,-95.4842,37.6703,M,M,M,70.00,10.00,M,30.07,M,10.00,M,OVC,M,M,M,1300.00,M,M,M,M,KCNU 011015Z AUTO 07010KT 10SM OVC013 A3007 RMK MADISHF
CNU,2017-04-01 10:20,-95.4842,37.6703,M,M,M,60.00,12.00,M,30.07,M,10.00,M,OVC,M,M,M,1300.00,M,M,M,M,KCNU 011020Z AUTO 06012KT 10SM OVC013 A3007 RMK MADISHF
CNU,2017-04-01 10:25,-95.4842,37.6703,M,M,M,70.00,11.00,M,30.07,M,10.00,M,OVC,M,M,M,1300.00,M,M,M,M,KCNU 011025Z AUTO 07011KT 10SM OVC013 A3007 RMK MADISHF
CNU,2017-04-01 10:30,-95.4842,37.6703,M,M,M,60.00,13.00,M,30.08,M,10.00,M,OVC,M,M,M,1300.00,M,M,M,M,KCNU 011030Z AUTO 06013KT 10SM OVC013 A3008 RMK MADISHF
CNU,2017-04-01 10:35,-95.4842,37.6703,M,M,M,60.00,8.00,M,30.08,M,10.00,M,OVC,M,M,M,1300.00,M,M,M,M,KCNU 011035Z AUTO 06008KT 10SM OVC013 A3008 RMK MADISHF
CNU,2017-04-01 10:40,-95.4842,37.6703,M,M,M,60.00,10.00,M,30.08,M,10.00,16.00,OVC,M,M,M,1300.00,M,M,M,M,KCNU 011040Z AUTO 06010G16KT 10SM OVC013 A3008 RMK MADISHF
CNU,2017-04-01 10:45,-95.4842,37.6703,M,M,M,60.00,11.00,M,30.08,M,10.00,16.00,OVC,M,M,M,1300.00,M,M,M,M,KCNU 011045Z AUTO 06011G16KT 10SM OVC013 A3008 RMK MADISHF
CNU,2017-04-01 10:50,-95.4842,37.6703,M,M,M,60.00,12.00,M,30.08,M,10.00,M,OVC,M,M,M,1300.00,M,M,M,M,KCNU 011050Z AUTO 06012KT 10SM OVC013 A3008 RMK MADISHF
CNU,2017-04-01 10:52,-95.4842,37.6703,46.90,41.00,79.82,60.00,10.00,0.00,30.08,1018.60,10.00,M,OVC,M,M,M,1300.00,M,M,M,M,KCNU 011052Z AUTO 06010KT 10SM OVC013 08/05 A3008 RMK AO2 SLP186 T00830050
CNU,2017-04-01 10:55,-95.4842,37.6703,M,M,M,60.00,11.00,M,30.08,M,10.00,M,OVC,M,M,M,1300.00,M,M,M,M,KCNU 011055Z AUTO 06011KT 10SM OVC013 A3008 RMK MADISHF
CNU,2017-04-01 11:00,-95.4842,37.6703,M,M,M,70.00,12.00,M,30.08,M,10.00,M,OVC,M,M,M,1300.00,M,M,M,M,KCNU 011100Z AUTO 07012KT 10SM OVC013 A3008 RMK MADISHF
CNU,2017-04-01 11:05,-95.4842,37.6703,M,M,M,60.00,9.00,M,30.09,M,10.00,M,OVC,M,M,M,1300.00,M,M,M,M,KCNU 011105Z AUTO 06009KT 10SM OVC013 A3009 RMK MADISHF
CNU,2017-04-01 11:10,-95.4842,37.6703,M,M,M,60.00,9.00,M,30.09,M,10.00,M,OVC,M,M,M,1300.00,M,M,M,M,KCNU 011110Z AUTO 06009KT 10SM OVC013 A3009 RMK MADISHF
CNU,2017-04-01 11:15,-95.4842,37.6703,M,M,M,60.00,12.00,M,30.10,M,10.00,M,OVC,M,M,M,1300.00,M,M,M,M,KCNU 011115Z AUTO 06012KT 10SM OVC013 A3010 RMK MADISHF
CNU,2017-04-01 11:20,-95.4842,37.6703,M,M,M,60.00,9.00,M,30.10,M,10.00,M,OVC,M,M,M,1300.00,M,M,M,M,KCNU 011120Z AUTO 06009KT 10SM OVC013 A3010 RMK MADISHF
CNU,2017-04-01 11:25,-95.4842,37.6703,M,M,M,70.00,11.00,M,30.10,M,10.00,M,OVC,M,M,M,1300.00,M,M,M,M,KCNU 011125Z AUTO 07011KT 10SM OVC013 A3010 RMK MADISHF
CNU,2017-04-01 11:30,-95.4842,37.6703,M,M,M,60.00,12.00,M,30.10,M,10.00,M,OVC,M,M,M,1200.00,M,M,M,M,KCNU 011130Z AUTO 06012KT 10SM OVC012 A3010 RMK MADISHF
CNU,2017-04-01 11:35,-95.4842,37.6703,M,M,M,60.00,9.00,M,30.10,M,10.00,M,OVC,M,M,M,1200.00,M,M,M,M,KCNU 011135Z AUTO 06009KT 10SM OVC012 A3010 RMK WND 04V11  MADISHF
CNU,2017-04-01 11:40,-95.4842,37.6703,M,M,M,60.00,13.00,M,30.10,M,10.00,M,OVC,M,M,M,1200.00,M,M,M,M,KCNU 011140Z AUTO 06013KT 10SM OVC012 A3010 RMK MADISHF
CNU,2017-04-01 11:45,-95.4842,37.6703,M,M,M,50.00,10.00,M,30.10,M,10.00,M,OVC,M,M,M,1200.00,M,M,M,M,KCNU 011145Z AUTO 05010KT 10SM OVC012 A3010 RMK MADISHF
CNU,2017-04-01 11:50,-95.4842,37.6703,M,M,M,70.00,9.00,M,30.10,M,10.00,M,OVC,M,M,M,1200.00,M,M,M,M,KCNU 011150Z AUTO 07009KT 10SM OVC012 A3010 RMK MADISHF
CNU,2017-04-01 11:52,-95.4842,37.6703,46.90,41.00,79.82,60.00,13.00,0.00,30.11,1019.40,10.00,19.00,OVC,M,M,M,1200.00,M,M,M,M,KCNU 011152Z AUTO 06013G19KT 10SM OVC012 08/05 A3011 RMK AO2 SLP194 T00830050 10089 20083 53016
CNU,2017-04-01 11:55,-95.4842,37.6703,M,M,M,60.00,13.00,M,30.11,M,10.00,M,OVC,M,M,M,1200.00,M,M,M,M,KCNU 011155Z AUTO 06013KT 10SM OVC012 A3011 RMK MADISHF
CNU,2017-04-01 12:00,-95.4842,37.6703,M,M,M,70.00,11.00,M,30.11,M,10.00,M,OVC,M,M,M,1200.00,M,M,M,M,KCNU 011200Z AUTO 07011KT 10SM OVC012 A3011 RMK MADISHF
CNU,2017-04-01 12:05,-95.4842,37.6703,M,M,M,70.00,9.00,M,30.11,M,10.00,M,OVC,M,M,M,1200.00,M,M,M,M,KCNU 011205Z AUTO 07009KT 10SM OVC012 A3011 RMK MADISHF
CNU,2017-04-01 12:10,-95.4842,37.6703,M,M,M,70.00,10.00,M,30.11,M,10.00,M,OVC,M,M,M,1200.00,M,M,M,M,KCNU 011210Z AUTO 07010KT 10SM OVC012 A3011 RMK MADISHF
CNU,2017-04-01 12:15,-95.4842,37.6703,M,M,M,70.00,11.00,M,30.12,M,10.00,M,OVC,M,M,M,1200.00,M,M,M,M,KCNU 011215Z AUTO 07011KT 10SM OVC012 A3012 RMK MADISHF
CNU,2017-04-01 12:20,-95.4842,37.6703,M,M,M,70.00,12.00,M,30.11,M,10.00,M,OVC,M,M,M,1200.00,M,M,M,M,KCNU 011220Z AUTO 07012KT 10SM OVC012 A3011 RMK MADISHF
CNU,2017-04-01 12:25,-95.4842,37.6703,M,M,M,70.00,11.00,M,30.12,M,10.00,M,OVC,M,M,M,1200.00,M,M,M,M,KCNU 011225Z AUTO 07011KT 10SM OVC012 A3012 RMK MADISHF
CNU,2017-04-01 12:30,-95.4842,37.6703,M,M,M,70.00,8.00,M,30.12,M,10.00,M,OVC,M,M,M,1200.00,M,M,M,M,KCNU 011230Z AUTO 07008KT 10SM OVC012 A3012 RMK MADISHF
CNU,2017-04-01 12:35,-95.4842,37.6703,M,M,M,70.00,12.00,M,30.12,M,10.00,M,OVC,M,M,M,1200.00,M,M,M,M,KCNU 011235Z AUTO 07012KT 10SM OVC012 A3012 RMK MADISHF
CNU,2017-04-01 12:40,-95.4842,37.6703,M,M,M,70.00,12.00,M,30.12,M,10.00,M,OVC,M,M,M,1200.00,M,M,M,M,KCNU 011240Z AUTO 07012KT 10SM OVC012 A3012 RMK MADISHF
CNU,2017-04-01 12:45,-95.4842,37.6703,M,M,M,70.00,11.00,M,30.12,M,10.00,M,OVC,M,M,M,1200.00,M,M,M,M,KCNU 011245Z AUTO 07011KT 10SM OVC012 A3012 RMK MADISHF
CNU,2017-04-01 12:50,-95.4842,37.6703,M,M,M,70.00,8.00,M,30.12,M,10.00,M,OVC,M,M,M,1200.00,M,M,M,M,KCNU 011250Z AUTO 07008KT 10SM OVC012 A3012 RMK MADISHF
CNU,2017-04-01 12:52,-95.4842,37.6703,46.90,41.00,79.82,60.00,10.00,0.00,30.12,1019.90,10.00,M,OVC,M,M,M,1200.00,M,M,M,M,KCNU 011252Z AUTO 06010KT 10SM OVC012 08/05 A3012 RMK AO2 SLP199 T00830050
CNU,2017-04-01 12:55,-95.4842,37.6703,M,M,M,70.00,9.00,M,30.12,M,10.00,M,OVC,M,M,M,1200.00,M,M,M,M,KCNU 011255Z AUTO 07009KT 10SM OVC012 A3012 RMK MADISHF
CNU,2017-04-01 13:00,-95.4842,37.6703,M,M,M,60.00,9.00,M,30.12,M,10.00,M,OVC,M,M,M,1200.00,M,M,M,M,KCNU 011300Z AUTO 06009KT 10SM OVC012 A3012 RMK MADISHF
CNU,2017-04-01 13:05,-95.4842,37.6703,M,M,M,70.00,12.00,M,30.13,M,10.00,M,OVC,M,M,M,1200.00,M,M,M,M,KCNU 011305Z AUTO 07012KT 10SM OVC012 A3013 RMK MADISHF
CNU,2017-04-01 13:10,-95.4842,37.6703,M,M,M,70.00,11.00,M,30.12,M,10.00,M,OVC,M,M,M,1200.00,M,M,M,M,KCNU 011310Z AUTO 07011KT 10SM OVC012 A3012 RMK MADISHF
CNU,2017-04-01 13:15,-95.4842,37.6703,M,M,M,70.00,12.00,M,30.12,M,10.00,M,OVC,M,M,M,1200.00,M,M,M,M,KCNU 011315Z AUTO 07012KT 10SM OVC012 A3012 RMK MADISHF
CNU,2017-04-01 13:20,-95.4842,37.6703,M,M,M,70.00,10.00,M,30.12,M,10.00,M,OVC,M,M,M,1200.00,M,M,M,M,KCNU 011320Z AUTO 07010KT 10SM OVC012 A3012 RMK MADISHF
CNU,2017-04-01 13:25,-95.4842,37.6703,M,M,M,80.00,10.00,M,30.13,M,10.00,M,OVC,M,M,M,1200.00,M,M,M,M,KCNU 011325Z AUTO 08010KT 10SM OVC012 A3013 RMK MADISHF
CNU,2017-04-01 13:30,-95.4842,37.6703,M,M,M,60.00,10.00,M,30.13,M,10.00,M,OVC,M,M,M,1200.00,M,M,M,M,KCNU 011330Z AUTO 06010KT 10SM OVC012 A3013 RMK MADISHF
CNU,2017-04-01 13:35,-95.4842,37.6703,M,M,M,50.00,11.00,M,30.14,M,10.00,M,OVC,M,M,M,1100.00,M,M,M,M,KCNU 011335Z AUTO 05011KT 10SM OVC011 A3014 RMK MADISHF
CNU,2017-04-01 13:40,-95.4842,37.6703,M,M,M,60.00,9.00,M,30.14,M,10.00,M,OVC,M,M,M,1100.00,M,M,M,M,KCNU 011340Z AUTO 06009KT 10SM OVC011 A3014 RMK MADISHF
CNU,2017-04-01 13:45,-95.4842,37.6703,M,M,M,60.00,11.00,M,30.14,M,10.00,M,OVC,M,M,M,1100.00,M,M,M,M,KCNU 011345Z AUTO 06011KT 10SM OVC011 A3014 RMK MADISHF
CNU,2017-04-01 13:50,-95.4842,37.6703,M,M,M,60.00,10.00,M,30.14,M,10.00,M,OVC,M,M,M,1100.00,M,M,M,M,KCNU 011350Z AUTO 06010KT 10SM OVC011 A3014 RMK MADISHF
CNU,2017-04-01 13:52,-95.4842,37.6703,46.90,41.00,79.82,60.00,10.00,0.00,30.14,1020.40,10.00,M,OVC,M,M,M,1100.00,M,M,M,M,KCNU 011352Z AUTO 06010KT 10SM OVC011 08/05 A3014 RMK AO2 SLP204 T00830050
CNU,2017-04-01 13:55,-95.4842,37.6703,M,M,M,60.00,12.00,M,30.14,M,10.00,M,OVC,M,M,M,1100.00,M,M,M,M,KCNU 011355Z AUTO 06012KT 10SM OVC011 A3014 RMK MADISHF
CNU,2017-04-01 14:00,-95.4842,37.6703,M,M,M,60.00,14.00,M,30.14,M,10.00,M,OVC,M,M,M,1100.00,M,M,M,M,KCNU 011400Z AUTO 06014KT 10SM OVC011 A3014 RMK MADISHF
CNU,2017-04-01 14:05,-95.4842,37.6703,M,M,M,60.00,9.00,M,30.14,M,10.00,M,OVC,M,M,M,1100.00,M,M,M,M,KCNU 011405Z AUTO 06009KT 10SM OVC011 A3014 RMK MADISHF
CNU,2017-04-01 14:10,-95.4842,37.6703,M,M,M,60.00,11.00,M,30.14,M,10.00,M,OVC,M,M,M,1100.00,M,M,M,M,KCNU 011410Z AUTO 06011KT 10SM OVC011 A3014 RMK MADISHF
CNU,2017-04-01 14:15,-95.4842,37.6703,M,M,M,50.00,11.00,M,30.14,M,10.00,M,OVC,M,M,M,1100.00,M,M,M,M,KCNU 011415Z AUTO 05011KT 10SM OVC011 A3014 RMK MADISHF
CNU,2017-04-01 14:20,-95.4842,37.6703,M,M,M,50.00,10.00,M,30.15,M,10.00,M,OVC,M,M,M,1100.00,M,M,M,M,KCNU 011420Z AUTO 05010KT 10SM OVC011 A3015 RMK MADISHF
CNU,2017-04-01 14:25,-95.4842,37.6703,M,M,M,70.00,11.00,M,30.15,M,10.00,M,OVC,M,M,M,1100.00,M,M,M,M,KCNU 011425Z AUTO 07011KT 10SM OVC011 A3015 RMK MADISHF
CNU,2017-04-01 14:30,-95.4842,37.6703,M,M,M,50.00,10.00,M,30.15,M,10.00,M,OVC,M,M,M,1100.00,M,M,M,M,KCNU 011430Z AUTO 05010KT 10SM OVC011 A3015 RMK MADISHF
CNU,2017-04-01 14:35,-95.4842,37.6703,M,M,M,70.00,9.00,M,30.15,M,10.00,M,OVC,M,M,M,1100.00,M,M,M,M,KCNU 011435Z AUTO 07009KT 10SM OVC011 A3015 RMK MADISHF
CNU,2017-04-01 14:40,-95.4842,37.6703,M,M,M,70.00,11.00,M,30.15,M,10.00,M,OVC,M,M,M,1100.00,M,M,M,M,KCNU 011440Z AUTO 07011KT 10SM OVC011 A3015 RMK MADISHF
CNU,2017-04-01 14:45,-95.4842,37.6703,M,M,M,60.00,8.00,M,30.15,M,10.00,M,OVC,M,M,M,1100.00,M,M,M,M,KCNU 011445Z AUTO 06008KT 10SM OVC011 A3015 RMK MADISHF
CNU,2017-04-01 14:50,-95.4842,37.6703,M,M,M,70.00,11.00,M,30.14,M,10.00,M,OVC,M,M,M,1100.00,M,M,M,M,KCNU 011450Z AUTO 07011KT 10SM OVC011 A3014 RMK MADISHF
CNU,2017-04-01 14:52,-95.4842,37.6703,46.90,42.10,83.28,60.00,12.00,0.00,30.14,1020.80,10.00,M,OVC,M,M,M,1100.00,M,M,M,M,KCNU 011452Z AUTO 06012KT 10SM OVC011 08/06 A3014 RMK AO2 SLP208 T00830056 51013
CNU,2017-04-01 14:55,-95.4842,37.6703,M,M,M,60.00,12.00,M,30.14,M,10.00,M,OVC,M,M,M,1100.00,M,M,M,M,KCNU 011455Z AUTO 06012KT 10SM OVC011 A3014 RMK MADISHF
CNU,2017-04-01 15:00,-95.4842,37.6703,M,M,M,50.00,11.00,M,30.14,M,10.00,M,OVC,M,M,M,1100.00,M,M,M,M,KCNU 011500Z AUTO 05011KT 10SM OVC011 A3014 RMK MADISHF
CNU,2017-04-01 15:05,-95.4842,37.6703,M,M,M,60.00,11.00,M,30.14,M,10.00,16.00,OVC,M,M,M,1100.00,M,M,M,M,KCNU 011505Z AUTO 06011G16KT 10SM OVC011 A3014 RMK MADISHF
CNU,2017-04-01 15:10,-95.4842,37.6703,M,M,M,60.00,12.00,M,30.15,M,10.00,M,OVC,M,M,M,1100.00,M,M,M,M,KCNU 011510Z AUTO 06012KT 10SM OVC011 A3015 RMK MADISHF
CNU,2017-04-01 15:15,-95.4842,37.6703,M,M,M,60.00,13.00,M,30.15,M,10.00,M,OVC,M,M,M,1100.00,M,M,M,M,KCNU 011515Z AUTO 06013KT 10SM OVC011 A3015 RMK MADISHF
CNU,2017-04-01 15:20,-95.4842,37.6703,M,M,M,60.00,12.00,M,30.15,M,10.00,M,OVC,M,M,M,1100.00,M,M,M,M,KCNU 011520Z AUTO 06012KT 10SM OVC011 A3015 RMK MADISHF
CNU,2017-04-01 15:25,-95.4842,37.6703,M,M,M,60.00,9.00,M,30.15,M,10.00,M,OVC,M,M,M,1100.00,M,M,M,M,KCNU 011525Z AUTO 06009KT 10SM OVC011 A3015 RMK MADISHF
CNU,2017-04-01 15:30,-95.4842,37.6703,M,M,M,70.00,12.00,M,30.14,M,10.00,M,OVC,M,M,M,1100.00,M,M,M,M,KCNU 011530Z AUTO 07012KT 10SM OVC011 A3014 RMK MADISHF
CNU,2017-04-01 15:35,-95.4842,37.6703,M,M,M,M,M,M,30.14,M,10.00,M,OVC,M,M,M,1100.00,M,M,M,M,KCNU 011535Z AUTO /////KT 10SM OVC011 A3014 RMK MADISHF
CNU,2017-04-01 15:40,-95.4842,37.6703,M,M,M,60.00,12.00,M,30.14,M,10.00,M,OVC,M,M,M,1100.00,M,M,M,M,KCNU 011540Z AUTO 06012KT 10SM OVC011 A3014 RMK MADISHF
CNU,2017-04-01 15:45,-95.4842,37.6703,M,M,M,80.00,12.00,M,30.14,M,10.00,M,OVC,M,M,M,1100.00,M,M,M,M,KCNU 011545Z AUTO 08012KT 10SM OVC011 A3014 RMK MADISHF
CNU,2017-04-01 15:50,-95.4842,37.6703,M,M,M,60.00,13.00,M,30.14,M,10.00,M,OVC,M,M,M,1100.00,M,M,M,M,KCNU 011550Z AUTO 06013KT 10SM OVC011 A3014 RMK MADISHF
CNU,2017-04-01 15:52,-95.4842,37.6703,48.00,42.10,79.91,70.00,12.00,0.00,30.14,1020.70,10.00,M,OVC,M,M,M,1100.00,M,M,M,M,KCNU 011552Z AUTO 07012KT 10SM OVC011 09/06 A3014 RMK AO2 SLP207 T00890056
CNU,2017-04-01 15:55,-95.4842,37.6703,M,M,M,70.00,9.00,M,30.14,M,10.00,M,OVC,M,M,M,1100.00,M,M,M,M,KCNU 011555Z AUTO 07009KT 10SM OVC011 A3014 RMK MADISHF
CNU,2017-04-01 16:00,-95.4842,37.6703,M,M,M,60.00,11.00,M,30.14,M,10.00,M,OVC,M,M,M,1100.00,M,M,M,M,KCNU 011600Z AUTO 06011KT 10SM OVC011 A3014 RMK MADISHF
CNU,2017-04-01 16:05,-95.4842,37.6703,M,M,M,70.00,13.00,M,30.14,M,10.00,M,OVC,M,M,M,1100.00,M,M,M,M,KCNU 011605Z AUTO 07013KT 10SM OVC011 A3014 RMK MADISHF
CNU,2017-04-01 16:10,-95.4842,37.6703,M,M,M,70.00,11.00,M,30.14,M,10.00,M,OVC,M,M,M,1100.00,M,M,M,M,KCNU 011610Z AUTO 07011KT 10SM OVC011 A3014 RMK MADISHF
CNU,2017-04-01 16:15,-95.4842,37.6703,M,M,M,70.00,10.00,M,30.14,M,10.00,M,OVC,M,M,M,1100.00,M,M,M,M,KCNU 011615Z AUTO 07010KT 10SM OVC011 A3014 RMK MADISHF
CNU,2017-04-01 16:20,-95.4842,37.6703,M,M,M,70.00,12.00,M,30.14,M,10.00,M,OVC,M,M,M,1100.00,M,M,M,M,KCNU 011620Z AUTO 07012KT 10SM OVC011 A3014 RMK MADISHF
CNU,2017-04-01 16:25,-95.4842,37.6703,M,M,M,90.00,11.00,M,30.14,M,10.00,M,OVC,M,M,M,1100.00,M,M,M,M,KCNU 011625Z AUTO 09011KT 10SM OVC011 A3014 RMK MADISHF
CNU,2017-04-01 16:30,-95.4842,37.6703,M,M,M,80.00,12.00,M,30.13,M,10.00,M,OVC,M,M,M,1100.00,M,M,M,M,KCNU 011630Z AUTO 08012KT 10SM OVC011 A3013 RMK MADISHF
CNU,2017-04-01 16:35,-95.4842,37.6703,M,M,M,70.00,11.00,M,30.13,M,10.00,M,OVC,M,M,M,1200.00,M,M,M,M,KCNU 011635Z AUTO 07011KT 10SM OVC012 A3013 RMK MADISHF
CNU,2017-04-01 16:40,-95.4842,37.6703,M,M,M,70.00,12.00,M,30.14,M,10.00,M,OVC,M,M,M,1200.00,M,M,M,M,KCNU 011640Z AUTO 07012KT 10SM OVC012 A3014 RMK MADISHF
CNU,2017-04-01 16:45,-95.4842,37.6703,M,M,M,70.00,12.00,M,30.14,M,10.00,M,OVC,M,M,M,1200.00,M,M,M,M,KCNU 011645Z AUTO 07012KT 10SM OVC012 A3014 RMK MADISHF
CNU,2017-04-01 16:50,-95.4842,37.6703,M,M,M,70.00,10.00,M,30.13,M,10.00,M,OVC,M,M,M,1200.00,M,M,M,M,KCNU 011650Z AUTO 07010KT 10SM OVC012 A3013 RMK MADISHF
CNU,2017-04-01 16:52,-95.4842,37.6703,50.00,43.00,76.76,70.00,11.00,0.00,30.13,1020.30,10.00,M,OVC,M,M,M,1200.00,M,M,M,M,KCNU 011652Z AUTO 07011KT 10SM OVC012 10/06 A3013 RMK AO2 SLP203 T01000061
CNU,2017-04-01 16:55,-95.4842,37.6703,M,M,M,60.00,11.00,M,30.13,M,10.00,M,OVC,M,M,M,1200.00,M,M,M,M,KCNU 011655Z AUTO 06011KT 10SM OVC012 A3013 RMK MADISHF
CNU,2017-04-01 17:00,-95.4842,37.6703,M,M,M,70.00,12.00,M,30.13,M,10.00,M,OVC,M,M,M,1200.00,M,M,M,M,KCNU 011700Z AUTO 07012KT 10SM OVC012 A3013 RMK MADISHF
CNU,2017-04-01 17:05,-95.4842,37.6703,M,M,M,80.00,10.00,M,30.12,M,10.00,M,OVC,M,M,M,1300.00,M,M,M,M,KCNU 011705Z AUTO 08010KT 10SM OVC013 A3012 RMK MADISHF
CNU,2017-04-01 17:10,-95.4842,37.6703,M,M,M,80.00,11.00,M,30.12,M,10.00,M,OVC,M,M,M,1300.00,M,M,M,M,KCNU 011710Z AUTO 08011KT 10SM OVC013 A3012 RMK MADISHF
CNU,2017-04-01 17:15,-95.4842,37.6703,M,M,M,70.00,12.00,M,30.12,M,10.00,M,OVC,M,M,M,1300.00,M,M,M,M,KCNU 011715Z AUTO 07012KT 10SM OVC013 A3012 RMK MADISHF
CNU,2017-04-01 17:20,-95.4842,37.6703,M,M,M,70.00,13.00,M,30.12,M,10.00,M,OVC,M,M,M,1300.00,M,M,M,M,KCNU 011720Z AUTO 07013KT 10SM OVC013 A3012 RMK MADISHF
CNU,2017-04-01 17:25,-95.4842,37.6703,M,M,M,70.00,11.00,M,30.12,M,10.00,M,OVC,M,M,M,1300.00,M,M,M,M,KCNU 011725Z AUTO 07011KT 10SM OVC013 A3012 RMK MADISHF
CNU,2017-04-01 17:30,-95.4842,37.6703,M,M,M,80.00,14.00,M,30.12,M,10.00,M,OVC,M,M,M,1300.00,M,M,M,M,KCNU 011730Z AUTO 08014KT 10SM OVC013 A3012 RMK MADISHF
CNU,2017-04-01 17:35,-95.4842,37.6703,M,M,M,70.00,10.00,M,30.11,M,10.00,M,OVC,M,M,M,1300.00,M,M,M,M,KCNU 011735Z AUTO 07010KT 10SM OVC013 A3011 RMK MADISHF
CNU,2017-04-01 17:40,-95.4842,37.6703,M,M,M,70.00,12.00,M,30.10,M,10.00,M,OVC,M,M,M,1300.00,M,M,M,M,KCNU 011740Z AUTO 07012KT 10SM OVC013 A3010 RMK MADISHF
CNU,2017-04-01 17:45,-95.4842,37.6703,M,M,M,70.00,14.00,M,30.10,M,10.00,M,OVC,M,M,M,1300.00,M,M,M,M,KCNU 011745Z AUTO 07014KT 10SM OVC013 A3010 RMK MADISHF
CNU,2017-04-01 17:50,-95.4842,37.6703,M,M,M,M,M,M,30.10,M,10.00,M,OVC,M,M,M,1300.00,M,M,M,M,KCNU 011750Z AUTO /////KT 10SM OVC013 A3010 RMK MADISHF
CNU,2017-04-01 17:52,-95.4842,37.6703,51.10,44.10,76.86,80.00,14.00,0.00,30.10,1019.10,10.00,20.00,OVC,M,M,M,1300.00,M,M,M,M,KCNU 011752Z AUTO 08014G20KT 10SM OVC013 11/07 A3010 RMK AO2 SLP191 T01060067 10106 20083 58016
CNU,2017-04-01 17:55,-95.4842,37.6703,M,M,M,80.00,9.00,M,30.10,M,10.00,M,OVC,M,M,M,1300.00,M,M,M,M,KCNU 011755Z AUTO 08009KT 10SM OVC013 A3010 RMK MADISHF
CNU,2017-04-01 18:00,-95.4842,37.6703,M,M,M,60.00,12.00,M,30.10,M,10.00,M,OVC,M,M,M,1300.00,M,M,M,M,KCNU 011800Z AUTO 06012KT 10SM OVC013 A3010 RMK MADISHF
CNU,2017-04-01 18:05,-95.4842,37.6703,M,M,M,70.00,10.00,M,30.10,M,10.00,M,OVC,M,M,M,1400.00,M,M,M,M,KCNU 011805Z AUTO 07010KT 10SM OVC014 A3010 RMK MADISHF
CNU,2017-04-01 18:10,-95.4842,37.6703,M,M,M,70.00,9.00,M,30.10,M,10.00,15.00,OVC,M,M,M,1400.00,M,M,M,M,KCNU 011810Z AUTO 07009G15KT 10SM OVC014 A3010 RMK MADISHF
CNU,2017-04-01 18:15,-95.4842,37.6703,M,M,M,70.00,11.00,M,30.10,M,10.00,M,OVC,M,M,M,1400.00,M,M,M,M,KCNU 011815Z AUTO 07011KT 10SM OVC014 A3010 RMK MADISHF
CNU,2017-04-01 18:20,-95.4842,37.6703,M,M,M,80.00,10.00,M,30.10,M,10.00,M,OVC,M,M,M,1400.00,M,M,M,M,KCNU 011820Z AUTO 08010KT 10SM OVC014 A3010 RMK MADISHF
CNU,2017-04-01 18:25,-95.4842,37.6703,M,M,M,70.00,12.00,M,30.10,M,10.00,M,OVC,M,M,M,1400.00,M,M,M,M,KCNU 011825Z AUTO 07012KT 10SM OVC014 A3010 RMK MADISHF
CNU,2017-04-01 18:30,-95.4842,37.6703,M,M,M,70.00,12.00,M,30.10,M,10.00,M,OVC,M,M,M,1400.00,M,M,M,M,KCNU 011830Z AUTO 07012KT 10SM OVC014 A3010 RMK MADISHF
CNU,2017-04-01 18:35,-95.4842,37.6703,M,M,M,80.00,12.00,M,30.10,M,10.00,M,OVC,M,M,M,1400.00,M,M,M,M,KCNU 011835Z AUTO 08012KT 10SM OVC014 A3010 RMK MADISHF
CNU,2017-04-01 18:40,-95.4842,37.6703,M,M,M,70.00,13.00,M,30.10,M,10.00,M,OVC,M,M,M,1400.00,M,M,M,M,KCNU 011840Z AUTO 07013KT 10SM OVC014 A3010 RMK MADISHF
CNU,2017-04-01 18:45,-95.4842,37.6703,M,M,M,80.00,13.00,M,30.10,M,10.00,M,OVC,M,M,M,1500.00,M,M,M,M,KCNU 011845Z AUTO 08013KT 10SM OVC015 A3010 RMK MADISHF
CNU,2017-04-01 18:49,-95.4842,37.6703,53.60,44.60,71.45,70.00,11.00,0.00,30.09,M,10.00,M,OVC,M,M,M,1500.00,M,M,M,M,KCNU 011849Z AUTO 07011KT 10SM OVC015 12/07 A3009 RMK AO2
CNU,2017-04-01 18:50,-95.4842,37.6703,M,M,M,70.00,11.00,M,30.10,M,10.00,M,OVC,M,M,M,1500.00,M,M,M,M,KCNU 011850Z AUTO 07011KT 10SM OVC015 A3010 RMK MADISHF
CNU,2017-04-01 18:52,-95.4842,37.6703,53.10,45.00,73.89,80.00,11.00,0.00,30.10,1019.00,10.00,M,OVC,M,M,M,1500.00,M,M,M,M,KCNU 011852Z AUTO 08011KT 10SM OVC015 12/07 A3010 RMK AO2 SLP190 T01170072
CNU,2017-04-01 18:55,-95.4842,37.6703,M,M,M,80.00,10.00,M,30.10,M,10.00,16.00,OVC,M,M,M,1500.00,M,M,M,M,KCNU 011855Z AUTO 08010G16KT 10SM OVC015 A3010 RMK MADISHF
CNU,2017-04-01 19:00,-95.4842,37.6703,M,M,M,70.00,12.00,M,30.10,M,10.00,M,OVC,M,M,M,1500.00,M,M,M,M,KCNU 011900Z AUTO 07012KT 10SM OVC015 A3010 RMK MADISHF
CNU,2017-04-01 19:05,-95.4842,37.6703,M,M,M,80.00,11.00,M,30.10,M,10.00,16.00,OVC,M,M,M,1500.00,M,M,M,M,KCNU 011905Z AUTO 08011G16KT 10SM OVC015 A3010 RMK MADISHF
CNU,2017-04-01 19:10,-95.4842,37.6703,M,M,M,60.00,9.00,M,30.10,M,10.00,M,OVC,M,M,M,1500.00,M,M,M,M,KCNU 011910Z AUTO 06009KT 10SM OVC015 A3010 RMK MADISHF
CNU,2017-04-01 19:15,-95.4842,37.6703,M,M,M,80.00,10.00,M,30.10,M,10.00,M,OVC,M,M,M,1500.00,M,M,M,M,KCNU 011915Z AUTO 08010KT 10SM OVC015 A3010 RMK MADISHF
CNU,2017-04-01 19:20,-95.4842,37.6703,M,M,M,60.00,10.00,M,30.09,M,10.00,M,OVC,M,M,M,1500.00,M,M,M,M,KCNU 011920Z AUTO 06010KT 10SM OVC015 A3009 RMK MADISHF
CNU,2017-04-01 19:25,-95.4842,37.6703,M,M,M,60.00,9.00,M,30.09,M,10.00,M,OVC,M,M,M,1600.00,M,M,M,M,KCNU 011925Z AUTO 06009KT 10SM OVC016 A3009 RMK MADISHF
CNU,2017-04-01 19:30,-95.4842,37.6703,M,M,M,60.00,10.00,M,30.09,M,10.00,M,OVC,M,M,M,1600.00,M,M,M,M,KCNU 011930Z AUTO 06010KT 10SM OVC016 A3009 RMK MADISHF
CNU,2017-04-01 19:35,-95.4842,37.6703,M,M,M,60.00,11.00,M,30.09,M,10.00,M,OVC,M,M,M,1600.00,M,M,M,M,KCNU 011935Z AUTO 06011KT 10SM OVC016 A3009 RMK MADISHF
CNU,2017-04-01 19:40,-95.4842,37.6703,M,M,M,60.00,14.00,M,30.08,M,10.00,M,OVC,M,M,M,1600.00,M,M,M,M,KCNU 011940Z AUTO 06014KT 10SM OVC016 A3008 RMK MADISHF
CNU,2017-04-01 19:45,-95.4842,37.6703,M,M,M,60.00,13.00,M,30.08,M,10.00,M,OVC,M,M,M,1600.00,M,M,M,M,KCNU 011945Z AUTO 06013KT 10SM OVC016 A3008 RMK MADISHF
CNU,2017-04-01 19:50,-95.4842,37.6703,M,M,M,70.00,11.00,M,30.08,M,10.00,M,OVC,M,M,M,1600.00,M,M,M,M,KCNU 011950Z AUTO 07011KT 10SM OVC016 A3008 RMK MADISHF
CNU,2017-04-01 19:52,-95.4842,37.6703,53.10,45.00,73.89,80.00,11.00,0.00,30.08,1018.30,10.00,19.00,OVC,M,M,M,1600.00,M,M,M,M,KCNU 011952Z AUTO 08011G19KT 10SM OVC016 12/07 A3008 RMK AO2 SLP183 T01170072
CNU,2017-04-01 19:55,-95.4842,37.6703,M,M,M,60.00,13.00,M,30.08,M,10.00,M,OVC,M,M,M,1600.00,M,M,M,M,KCNU 011955Z AUTO 06013KT 10SM OVC016 A3008 RMK MADISHF
CNU,2017-04-01 20:00,-95.4842,37.6703,M,M,M,60.00,12.00,M,30.07,M,10.00,M,OVC,M,M,M,1600.00,M,M,M,M,KCNU 012000Z AUTO 06012KT 10SM OVC016 A3007 RMK MADISHF
CNU,2017-04-01 20:05,-95.4842,37.6703,M,M,M,60.00,13.00,M,30.07,M,10.00,M,OVC,M,M,M,1600.00,M,M,M,M,KCNU 012005Z AUTO 06013KT 10SM OVC016 A3007 RMK MADISHF
CNU,2017-04-01 20:10,-95.4842,37.6703,M,M,M,50.00,12.00,M,30.07,M,10.00,M,OVC,M,M,M,1600.00,M,M,M,M,KCNU 012010Z AUTO 05012KT 10SM OVC016 A3007 RMK MADISHF
CNU,2017-04-01 20:15,-95.4842,37.6703,M,M,M,60.00,11.00,M,30.06,M,10.00,18.00,OVC,M,M,M,1600.00,M,M,M,M,KCNU 012015Z AUTO 06011G18KT 10SM OVC016 A3006 RMK MADISHF
CNU,2017-04-01 20:20,-95.4842,37.6703,M,M,M,60.00,15.00,M,30.06,M,10.00,M,OVC,M,M,M,1600.00,M,M,M,M,KCNU 012020Z AUTO 06015KT 10SM OVC016 A3006 RMK MADISHF
CNU,2017-04-01 20:25,-95.4842,37.6703,M,M,M,80.00,14.00,M,30.05,M,10.00,M,OVC,M,M,M,1600.00,M,M,M,M,KCNU 012025Z AUTO 08014KT 10SM OVC016 A3005 RMK MADISHF
CNU,2017-04-01 20:30,-95.4842,37.6703,M,M,M,60.00,14.00,M,30.05,M,10.00,M,OVC,M,M,M,1699.00,M,M,M,M,KCNU 012030Z AUTO 06014KT 10SM OVC016 A3005 RMK MADISHF
CNU,2017-04-01 20:35,-95.4842,37.6703,M,M,M,70.00,13.00,M,30.04,M,10.00,M,OVC,M,M,M,1699.00,M,M,M,M,KCNU 012035Z AUTO 07013KT 10SM OVC016 A3004 RMK MADISHF
CNU,2017-04-01 20:40,-95.4842,37.6703,M,M,M,60.00,13.00,M,30.03,M,10.00,19.00,OVC,M,M,M,1699.00,M,M,M,M,KCNU 012040Z AUTO 06013G19KT 10SM OVC016 A3003 RMK MADISHF
CNU,2017-04-01 20:45,-95.4842,37.6703,M,M,M,70.00,12.00,M,30.03,M,10.00,M,OVC,M,M,M,1699.00,M,M,M,M,KCNU 012045Z AUTO 07012KT 10SM OVC016 A3003 RMK MADISHF
CNU,2017-04-01 20:50,-95.4842,37.6703,M,M,M,70.00,14.00,M,30.03,M,10.00,M,BKN,M,M,M,1699.00,M,M,M,M,KCNU 012050Z AUTO 07014KT 10SM BKN016 A3003 RMK MADISHF
CNU,2017-04-01 20:52,-95.4842,37.6703,57.00,46.00,66.59,80.00,13.00,0.00,30.03,1016.70,10.00,M,BKN,M,M,M,1700.00,M,M,M,M,KCNU 012052Z AUTO 08013KT 10SM BKN017 14/08 A3003 RMK AO2 SLP167 T01390078 58021
CNU,2017-04-01 20:55,-95.4842,37.6703,M,M,M,80.00,11.00,M,30.03,M,10.00,M,BKN,M,M,M,1699.00,M,M,M,M,KCNU 012055Z AUTO 08011KT 10SM BKN016 A3003 RMK MADISHF
CNU,2017-04-01 21:00,-95.4842,37.6703,M,M,M,70.00,14.00,M,30.03,M,10.00,M,BKN,M,M,M,1800.00,M,M,M,M,KCNU 012100Z AUTO 07014KT 10SM BKN018 A3003 RMK MADISHF
CNU,2017-04-01 21:05,-95.4842,37.6703,M,M,M,70.00,10.00,M,30.02,M,10.00,M,BKN,M,M,M,1800.00,M,M,M,M,KCNU 012105Z AUTO 07010KT 10SM BKN018 A3002 RMK MADISHF
CNU,2017-04-01 21:10,-95.4842,37.6703,M,M,M,90.00,12.00,M,30.02,M,10.00,M,BKN,M,M,M,1800.00,M,M,M,M,KCNU 012110Z AUTO 09012KT 10SM BKN018 A3002 RMK MADISHF
CNU,2017-04-01 21:15,-95.4842,37.6703,M,M,M,70.00,14.00,M,30.03,M,10.00,M,SCT,M,M,M,1800.00,M,M,M,M,KCNU 012115Z AUTO 07014KT 10SM SCT018 A3003 RMK MADISHF
CNU,2017-04-01 21:20,-95.4842,37.6703,57.00,46.90,68.90,90.00,10.00,0.00,30.04,M,10.00,18.00,SCT,M,M,M,1900.00,M,M,M,M,KCNU 012120Z AUTO 09010G18KT 10SM SCT019 14/08 A3004 RMK AO2 T01390083
CNU,2017-04-01 21:25,-95.4842,37.6703,M,M,M,60.00,8.00,M,30.04,M,10.00,M,SCT,M,M,M,1900.00,M,M,M,M,KCNU 012125Z AUTO 06008KT 10SM SCT019 A3004 RMK MADISHF
CNU,2017-04-01 21:30,-95.4842,37.6703,M,M,M,70.00,10.00,M,30.04,M,10.00,M,SCT,M,M,M,1900.00,M,M,M,M,KCNU 012130Z AUTO 07010KT 10SM SCT019 A3004 RMK MADISHF
CNU,2017-04-01 21:35,-95.4842,37.6703,M,M,M,60.00,13.00,M,30.03,M,10.00,M,FEW,M,M,M,1999.00,M,M,M,M,KCNU 012135Z AUTO 06013KT 10SM FEW019 A3003 RMK MADISHF
CNU,2017-04-01 21:40,-95.4842,37.6703,M,M,M,50.00,11.00,M,30.03,M,10.00,M,FEW,M,M,M,1999.00,M,M,M,M,KCNU 012140Z AUTO 05011KT 10SM FEW019 A3003 RMK MADISHF
CNU,2017-04-01 21:45,-95.4842,37.6703,M,M,M,70.00,7.00,M,30.03,M,10.00,M,FEW,M,M,M,1999.00,M,M,M,M,KCNU 012145Z AUTO 07007KT 10SM FEW019 A3003 RMK MADISHF
CNU,2017-04-01 21:50,-95.4842,37.6703,M,M,M,60.00,11.00,M,30.03,M,10.00,M,FEW,M,M,M,1999.00,M,M,M,M,KCNU 012150Z AUTO 06011KT 10SM FEW019 A3003 RMK MADISHF
CNU,2017-04-01 21:52,-95.4842,37.6703,57.00,46.90,68.90,60.00,12.00,0.00,30.03,1016.70,10.00,M,FEW,M,M,M,2000.00,M,M,M,M,KCNU 012152Z AUTO 06012KT 10SM FEW020 14/08 A3003 RMK AO2 SLP167 T01390083
CNU,2017-04-01 21:55,-95.4842,37.6703,M,M,M,50.00,12.00,M,30.02,M,10.00,17.00,CLR,M,M,M,M,M,M,M,M,KCNU 012155Z AUTO 05012G17KT 10SM CLR A3002 RMK MADISHF
CNU,2017-04-01 22:00,-95.4842,37.6703,M,M,M,60.00,10.00,M,30.02,M,10.00,M,CLR,M,M,M,M,M,M,M,M,KCNU 012200Z AUTO 06010KT 10SM CLR A3002 RMK MADISHF
CNU,2017-04-01 22:05,-95.4842,37.6703,M,M,M,50.00,11.00,M,30.02,M,10.00,M,CLR,M,M,M,M,M,M,M,M,KCNU 012205Z AUTO 05011KT 10SM CLR A3002 RMK MADISHF
CNU,2017-04-01 22:10,-95.4842,37.6703,M,M,M,60.00,12.00,M,30.02,M,10.00,M,CLR,M,M,M,M,M,M,M,M,KCNU 012210Z AUTO 06012KT 10SM CLR A3002 RMK MADISHF
CNU,2017-04-01 22:15,-95.4842,37.6703,M,M,M,50.00,10.00,M,30.02,M,10.00,M,CLR,M,M,M,M,M,M,M,M,KCNU 012215Z AUTO 05010KT 10SM CLR A3002 RMK MADISHF
CNU,2017-04-01 22:20,-95.4842,37.6703,M,M,M,60.00,12.00,M,30.01,M,10.00,17.00,CLR,M,M,M,M,M,M,M,M,KCNU 012220Z AUTO 06012G17KT 10SM CLR A3001 RMK MADISHF
CNU,2017-04-01 22:25,-95.4842,37.6703,M,M,M,60.00,11.00,M,30.02,M,10.00,18.00,CLR,M,M,M,M,M,M,M,M,KCNU 012225Z AUTO 06011G18KT 10SM CLR A3002 RMK MADISHF
CNU,2017-04-01 22:30,-95.4842,37.6703,M,M,M,60.00,11.00,M,30.02,M,10.00,M,FEW,M,M,M,11000.00,M,M,M,M,KCNU 012230Z AUTO 06011KT 10SM FEW110 A3002 RMK MADISHF
CNU,2017-04-01 22:35,-95.4842,37.6703,M,M,M,70.00,11.00,M,30.02,M,10.00,M,SCT,M,M,M,11000.00,M,M,M,M,KCNU 012235Z AUTO 07011KT 10SM SCT110 A3002 RMK MADISHF
CNU,2017-04-01 22:40,-95.4842,37.6703,M,M,M,70.00,9.00,M,30.02,M,10.00,M,SCT,M,M,M,11000.00,M,M,M,M,KCNU 012240Z AUTO 07009KT 10SM SCT110 A3002 RMK MADISHF
CNU,2017-04-01 22:45,-95.4842,37.6703,M,M,M,70.00,12.00,M,30.02,M,10.00,M,SCT,M,M,M,11000.00,M,M,M,M,KCNU 012245Z AUTO 07012KT 10SM SCT110 A3002 RMK MADISHF
CNU,2017-04-01 22:50,-95.4842,37.6703,M,M,M,60.00,8.00,M,30.03,M,10.00,M,BKN,M,M,M,11000.00,M,M,M,M,KCNU 012250Z AUTO 06008KT 10SM BKN110 A3003 RMK MADISHF
CNU,2017-04-01 22:52,-95.4842,37.6703,55.90,46.90,71.69,70.00,10.00,0.00,30.03,1016.70,10.00,M,BKN,M,M,M,11000.00,M,M,M,M,KCNU 012252Z AUTO 07010KT 10SM BKN110 13/08 A3003 RMK AO2 SLP167 T01330083
CNU,2017-04-01 22:55,-95.4842,37.6703,M,M,M,60.00,10.00,M,30.03,M,10.00,M,BKN,M,M,M,11000.00,M,M,M,M,KCNU 012255Z AUTO 06010KT 10SM BKN110 A3003 RMK MADISHF
CNU,2017-04-01 23:00,-95.4842,37.6703,M,M,M,60.00,9.00,M,30.03,M,10.00,M,BKN,M,M,M,11000.00,M,M,M,M,KCNU 012300Z AUTO 06009KT 10SM BKN110 A3003 RMK MADISHF
CNU,2017-04-01 23:05,-95.4842,37.6703,M,M,M,70.00,8.00,M,30.04,M,10.00,M,BKN,M,M,M,11000.00,M,M,M,M,KCNU 012305Z AUTO 07008KT 10SM BKN110 A3004 RMK MADISHF
CNU,2017-04-01 23:10,-95.4842,37.6703,M,M,M,60.00,11.00,M,30.03,M,10.00,M,OVC,M,M,M,11000.00,M,M,M,M,KCNU 012310Z AUTO 06011KT 10SM OVC110 A3003 RMK MADISHF
CNU,2017-04-01 23:15,-95.4842,37.6703,M,M,M,60.00,9.00,M,30.03,M,10.00,M,BKN,M,M,M,11000.00,M,M,M,M,KCNU 012315Z AUTO 06009KT 10SM BKN110 A3003 RMK  LTG DSNT W! MADISHF
CNU,2017-04-01 23:20,-95.4842,37.6703,M,M,M,60.00,9.00,M,30.03,M,10.00,M,BKN,M,M,M,11000.00,M,M,M,M,KCNU 012320Z AUTO 06009KT 10SM BKN110 A3003 RMK  LTG DSNT W! MADISHF
CNU,2017-04-01 23:25,-95.4842,37.6703,M,M,M,50.00,6.00,M,30.04,M,10.00,M,BKN,M,M,M,11000.00,M,M,M,M,KCNU 012325Z AUTO 05006KT 10SM BKN110 A3004 RMK  LTG DSNT W! MADISHF
CNU,2017-04-01 23:30,-95.4842,37.6703,M,M,M,40.00,7.00,M,30.05,M,10.00,M,BKN,M,M,M,11000.00,M,M,M,M,KCNU 012330Z AUTO 04007KT 10SM BKN110 A3005 RMK  LTG DSNT W! MADISHF
CNU,2017-04-01 23:35,-95.4842,37.6703,M,M,M,360.00,6.00,M,30.07,M,10.00,M,BKN,M,M,M,11000.00,M,M,M,M,KCNU 012335Z AUTO 36006KT 10SM BKN110 A3007 RMK MADISHF
CNU,2017-04-01 23:40,-95.4842,37.6703,M,M,M,360.00,8.00,M,30.08,M,10.00,M,BKN,M,M,M,11000.00,M,M,M,M,KCNU 012340Z AUTO 36008KT 10SM BKN110 A3008 RMK MADISHF
CNU,2017-04-01 23:45,-95.4842,37.6703,M,M,M,330.00,8.00,M,30.09,M,10.00,M,OVC,M,M,M,11000.00,M,M,M,M,KCNU 012345Z AUTO 33008KT 10SM OVC110 A3009 RMK MADISHF
CNU,2017-04-01 23:50,-95.4842,37.6703,M,M,M,330.00,8.00,M,30.09,M,10.00,M,OVC,M,M,M,11000.00,M,M,M,M,KCNU 012350Z AUTO 33008KT 10SM OVC110 A3009 RMK MADISHF
CNU,2017-04-01 23:52,-95.4842,37.6703,55.90,46.90,71.69,330.00,8.00,0.00,30.09,1018.80,10.00,M,OVC,M,M,M,11000.00,M,M,M,M,KCNU 012352Z AUTO 33008KT 10SM OVC110 13/08 A3009 RMK AO2 SLP188 T01330083 10150 20106 53020
CNU,2017-04-01 23:55,-95.4842,37.6703,M,M,M,340.00,8.00,M,30.09,M,10.00,M,OVC,M,M,M,11000.00,M,M,M,M,KCNU 012355Z AUTO 34008KT 10SM OVC110 A3009 RMK MADISHF
