#DEBUG: Format Typ    -> comma
#DEBUG: Time Period   -> 2017-04-01 00:00:00+00:00 2017-04-02 00:00:00+00:00
#DEBUG: Time Zone     -> Etc/UTC
#DEBUG: Data Contact   -> daryl herzmann akrherz@iastate.edu 515-294-5978
#DEBUG: Entries Found -> -1
station,valid,lon,lat,tmpf, dwpf, relh, drct, sknt, p01i, alti, mslp, vsby, gust, skyc1, skyc2, skyc3, skyc4, skyl1, skyl2, skyl3, skyl4, presentwx, metar
COE,2017-04-01 00:00,-116.8196,47.7743,M,M,M,260.00,10.00,M,30.18,M,10.00,M,CLR,M,M,M,M,M,M,M,M,KCOE 010000Z AUTO 26010KT 10SM CLR A3018 RMK MADISHF
COE,2017-04-01 00:05,-116.8196,47.7743,M,M,M,250.00,7.00,M,30.18,M,10.00,M,CLR,M,M,M,M,M,M,M,M,KCOE 010005Z AUTO 25007KT 10SM CLR A3018 RMK MADISHF
COE,2017-04-01 00:10,-116.8196,47.7743,M,M,M,250.00,6.00,M,30.18,M,10.00,M,CLR,M,M,M,M,M,M,M,M,KCOE 010010Z AUTO 25006KT 10SM CLR A3018 RMK MADISHF
COE,2017-04-01 00:15,-116.8196,47.7743,M,M,M,230.00,8.00,M,30.18,M,10.00,M,CLR,M,M,M,M,M,M,M,M,KCOE 010015Z AUTO 23008KT 10SM CLR A3018 RMK MADISHF
COE,2017-04-01 00:20,-116.8196,47.7743,M,M,M,240.00,7.00,M,30.18,M,10.00,M,CLR,M,M,M,M,M,M,M,M,KCOE 010020Z AUTO 24007KT 10SM CLR A3018 RMK MADISHF
COE,2017-04-01 00:25,-116.8196,47.7743,M,M,M,250.00,5.00,M,30.18,M,10.00,M,CLR,M,M,M,M,M,M,M,M,KCOE 010025Z AUTO 25005KT 10SM CLR A3018 RMK MADISHF
COE,2017-04-01 00:30,-116.8196,47.7743,M,M,M,270.00,6.00,M,30.18,M,10.00,M,CLR,M,M,M,M,M,M,M,M,KCOE 010030Z AUTO 27006KT 10SM CLR A3018 RMK MADISHF
COE,2017-04-01 00:35,-116.8196,47.7743,M,M,M,230.00,9.00,M,30.18,M,10.00,M,CLR,M,M,M,M,M,M,M,M,KCOE 010035Z AUTO 23009KT 10SM CLR A3018 RMK MADISHF
COE,2017-04-01 00:40,-116.8196,47.7743,M,M,M,230.00,8.00,M,30.17,M,10.00,M,CLR,M,M,M,M,M,M,M,M,KCOE 010040Z AUTO 23008KT 10SM CLR A3017 RMK MADISHF
COE,2017-04-01 00:45,-116.8196,47.7743,M,M,M,240.00,9.00,M,30.17,M,10.00,M,CLR,M,M,M,M,M,M,M,M,KCOE 010045Z AUTO 24009KT 10SM CLR A3017 RMK MADISHF
COE,2017-04-01 00:50,-116.8196,47.7743,M,M,M,240.00,7.00,M,30.18,M,10.00,M,CLR,M,M,M,M,M,M,M,M,KCOE 010050Z AUTO 24007KT 10SM CLR A3018 RMK MADISHF
COE,2017-04-01 00:55,-116.8196,47.7743,M,M,M,240.00,8.00,M,30.18,M,10.00,M,CLR,M,M,M,M,M,M,M,M,KCOE 010055Z AUTO 24008KT 10SM CLR A3018 RMK MADISHF
COE,2017-04-01 00:56,-116.8196,47.7743,55.00,34.00,44.90,240.00,7.00,0.00,30.18,1024.60,10.00,M,CLR,M,M,M,M,M,M,M,M,KCOE 010056Z AUTO 24007KT 10SM CLR 13/01 A3018 RMK AO2 SLP246 T01280011
COE,2017-04-01 01:00,-116.8196,47.7743,M,M,M,250.00,7.00,M,30.17,M,10.00,M,CLR,M,M,M,M,M,M,M,M,KCOE 010100Z AUTO 25007KT 10SM CLR A3017 RMK MADISHF
COE,2017-04-01 01:05,-116.8196,47.7743,M,M,M,240.00,6.00,M,30.18,M,10.00,M,CLR,M,M,M,M,M,M,M,M,KCOE 010105Z AUTO 24006KT 10SM CLR A3018 RMK MADISHF
COE,2017-04-01 01:10,-116.8196,47.7743,M,M,M,240.00,8.00,M,30.18,M,10.00,M,CLR,M,M,M,M,M,M,M,M,KCOE 010110Z AUTO 24008KT 10SM CLR A3018 RMK MADISHF
COE,2017-04-01 01:15,-116.8196,47.7743,M,M,M,250.00,6.00,M,30.18,M,10.00,M,CLR,M,M,M,M,M,M,M,M,KCOE 010115Z AUTO 25006KT 10SM CLR A3018 RMK MADISHF
COE,2017-04-01 01:20,-116.8196,47.7743,M,M,M,240.00,5.00,M,30.17,M,10.00,M,CLR,M,M,M,M,M,M,M,M,KCOE 010120Z AUTO 24005KT 10SM CLR A3017 RMK MADISHF
COE,2017-04-01 01:25,-116.8196,47.7743,M,M,M,250.00,5.00,M,30.17,M,10.00,M,CLR,M,M,M,M,M,M,M,M,KCOE 010125Z AUTO 25005KT 10SM CLR A3017 RMK MADISHF
COE,2017-04-01 01:30,-116.8196,47.7743,M,M,M,250.00,5.00,M,30.17,M,10.00,M,CLR,M,M,M,M,M,M,M,M,KCOE 010130Z AUTO 25005KT 10SM CLR A3017 RMK MADISHF
COE,2017-04-01 01:35,-116.8196,47.7743,M,M,M,250.00,6.00,M,30.17,M,10.00,M,CLR,M,M,M,M,M,M,M,M,KCOE 010135Z AUTO 25006KT 10SM CLR A3017 RMK MADISHF
COE,2017-04-01 01:40,-116.8196,47.7743,M,M,M,250.00,5.00,M,30.17,M,10.00,M,CLR,M,M,M,M,M,M,M,M,KCOE 010140Z AUTO 25005KT 10SM CLR A3017 RMK MADISHF
COE,2017-04-01 01:45,-116.8196,47.7743,M,M,M,250.00,4.00,M,30.17,M,10.00,M,CLR,M,M,M,M,M,M,M,M,KCOE 010145Z AUTO 25004KT 10SM CLR A3017 RMK MADISHF
COE,2017-04-01 01:50,-116.8196,47.7743,M,M,M,250.00,4.00,M,30.17,M,10.00,M,CLR,M,M,M,M,M,M,M,M,KCOE 010150Z AUTO 25004KT 10SM CLR A3017 RMK MADISHF
COE,2017-04-01 01:55,-116.8196,47.7743,M,M,M,250.00,4.00,M,30.17,M,10.00,M,CLR,M,M,M,M,M,M,M,M,KCOE 010155Z AUTO 25004KT 10SM CLR A3017 RMK MADISHF
COE,2017-04-01 01:56,-116.8196,47.7743,51.10,39.00,63.12,250.00,4.00,0.00,30.17,1024.70,10.00,M,CLR,M,M,M,M,M,M,M,M,KCOE 010156Z AUTO 25004KT 10SM CLR 11/04 A3017 RMK AO2 SLP247 T01060039
COE,2017-04-01 02:00,-116.8196,47.7743,M,M,M,260.00,5.00,M,30.18,M,10.00,M,CLR,M,M,M,M,M,M,M,M,KCOE 010200Z AUTO 26005KT 10SM CLR A3018 RMK MADISHF
COE,2017-04-01 02:05,-116.8196,47.7743,M,M,M,250.00,4.00,M,30.18,M,10.00,M,CLR,M,M,M,M,M,M,M,M,KCOE 010205Z AUTO 25004KT 10SM CLR A3018 RMK MADISHF
COE,2017-04-01 02:10,-116.8196,47.7743,M,M,M,0.00,0.00,M,30.18,M,10.00,M,CLR,M,M,M,M,M,M,M,M,KCOE 010210Z AUTO 00000KT 10SM CLR A3018 RMK MADISHF
COE,2017-04-01 02:15,-116.8196,47.7743,M,M,M,0.00,0.00,M,30.18,M,10.00,M,CLR,M,M,M,M,M,M,M,M,KCOE 010215Z AUTO 00000KT 10SM CLR A3018 RMK MADISHF
COE,2017-04-01 02:20,-116.8196,47.7743,M,M,M,0.00,0.00,M,30.18,M,10.00,M,CLR,M,M,M,M,M,M,M,M,KCOE 010220Z AUTO 00000KT 10SM CLR A3018 RMK MADISHF
COE,2017-04-01 02:25,-116.8196,47.7743,M,M,M,0.00,0.00,M,30.18,M,10.00,M,CLR,M,M,M,M,M,M,M,M,KCOE 010225Z AUTO 00000KT 10SM CLR A3018 RMK MADISHF
COE,2017-04-01 02:30,-116.8196,47.7743,M,M,M,0.00,0.00,M,30.18,M,10.00,M,CLR,M,M,M,M,M,M,M,M,KCOE 010230Z AUTO 00000KT 10SM CLR A3018 RMK MADISHF
COE,2017-04-01 02:35,-116.8196,47.7743,M,M,M,0.00,0.00,M,30.18,M,10.00,M,CLR,M,M,M,M,M,M,M,M,KCOE 010235Z AUTO 00000KT 10SM CLR A3018 RMK MADISHF
COE,2017-04-01 02:40,-116.8196,47.7743,M,M,M,170.00,3.00,M,30.18,M,10.00,M,CLR,M,M,M,M,M,M,M,M,KCOE 010240Z AUTO 17003KT 10SM CLR A3018 RMK MADISHF
COE,2017-04-01 02:45,-116.8196,47.7743,M,M,M,160.00,4.00,M,30.18,M,10.00,M,CLR,M,M,M,M,M,M,M,M,KCOE 010245Z AUTO 16004KT 10SM CLR A3018 RMK MADISHF
COE,2017-04-01 02:50,-116.8196,47.7743,M,M,M,150.00,3.00,M,30.18,M,10.00,M,CLR,M,M,M,M,M,M,M,M,KCOE 010250Z AUTO 15003KT 10SM CLR A3018 RMK MADISHF
COE,2017-04-01 02:55,-116.8196,47.7743,M,M,M,150.00,4.00,M,30.18,M,10.00,M,CLR,M,M,M,M,M,M,M,M,KCOE 010255Z AUTO 15004KT 10SM CLR A3018 RMK MADISHF
COE,2017-04-01 02:56,-116.8196,47.7743,48.00,36.00,62.97,150.00,4.00,0.00,30.18,1024.90,10.00,M,CLR,M,M,M,M,M,M,M,M,KCOE 010256Z AUTO 15004KT 10SM CLR 09/02 A3018 RMK AO2 SLP249 T00890022 55002
COE,2017-04-01 03:00,-116.8196,47.7743,M,M,M,160.00,4.00,M,30.18,M,10.00,M,CLR,M,M,M,M,M,M,M,M,KCOE 010300Z AUTO 16004KT 10SM CLR A3018 RMK MADISHF
COE,2017-04-01 03:05,-116.8196,47.7743,M,M,M,150.00,4.00,M,30.18,M,10.00,M,CLR,M,M,M,M,M,M,M,M,KCOE 010305Z AUTO 15004KT 10SM CLR A3018 RMK MADISHF
COE,2017-04-01 03:10,-116.8196,47.7743,M,M,M,140.00,4.00,M,30.18,M,10.00,M,CLR,M,M,M,M,M,M,M,M,KCOE 010310Z AUTO 14004KT 10SM CLR A3018 RMK MADISHF
COE,2017-04-01 03:15,-116.8196,47.7743,M,M,M,150.00,4.00,M,30.18,M,10.00,M,CLR,M,M,M,M,M,M,M,M,KCOE 010315Z AUTO 15004KT 10SM CLR A3018 RMK MADISHF
COE,2017-04-01 03:20,-116.8196,47.7743,M,M,M,130.00,4.00,M,30.19,M,10.00,M,CLR,M,M,M,M,M,M,M,M,KCOE 010320Z AUTO 13004KT 10SM CLR A3019 RMK MADISHF
COE,2017-04-01 03:25,-116.8196,47.7743,M,M,M,140.00,3.00,M,30.19,M,10.00,M,CLR,M,M,M,M,M,M,M,M,KCOE 010325Z AUTO 14003KT 10SM CLR A3019 RMK MADISHF
COE,2017-04-01 03:30,-116.8196,47.7743,M,M,M,130.00,4.00,M,30.18,M,10.00,M,CLR,M,M,M,M,M,M,M,M,KCOE 010330Z AUTO 13004KT 10SM CLR A3018 RMK MADISHF
COE,2017-04-01 03:35,-116.8196,47.7743,M,M,M,140.00,4.00,M,30.18,M,10.00,M,CLR,M,M,M,M,M,M,M,M,KCOE 010335Z AUTO 14004KT 10SM CLR A3018 RMK MADISHF
COE,2017-04-01 03:40,-116.8196,47.7743,M,M,M,140.00,4.00,M,30.18,M,10.00,M,CLR,M,M,M,M,M,M,M,M,KCOE 010340Z AUTO 14004KT 10SM CLR A3018 RMK MADISHF
COE,2017-04-01 03:45,-116.8196,47.7743,M,M,M,140.00,4.00,M,30.18,M,10.00,M,CLR,M,M,M,M,M,M,M,M,KCOE 010345Z AUTO 14004KT 10SM CLR A3018 RMK MADISHF
COE,2017-04-01 03:50,-116.8196,47.7743,M,M,M,190.00,3.00,M,30.18,M,10.00,M,CLR,M,M,M,M,M,M,M,M,KCOE 010350Z AUTO 19003KT 10SM CLR A3018 RMK VRB03KT  MADISHF
COE,2017-04-01 03:55,-116.8196,47.7743,M,M,M,200.00,5.00,M,30.18,M,10.00,M,CLR,M,M,M,M,M,M,M,M,KCOE 010355Z AUTO 20005KT 10SM CLR A3018 RMK MADISHF
COE,2017-04-01 03:56,-116.8196,47.7743,46.00,37.00,70.64,190.00,5.00,0.00,30.18,1025.10,10.00,M,CLR,M,M,M,M,M,M,M,M,KCOE 010356Z AUTO 19005KT 10SM CLR 08/03 A3018 RMK AO2 SLP251 T00780028
COE,2017-04-01 04:00,-116.8196,47.7743,M,M,M,150.00,5.00,M,30.18,M,10.00,M,CLR,M,M,M,M,M,M,M,M,KCOE 010400Z AUTO 15005KT 10SM CLR A3018 RMK MADISHF
COE,2017-04-01 04:05,-116.8196,47.7743,M,M,M,140.00,5.00,M,30.18,M,10.00,M,CLR,M,M,M,M,M,M,M,M,KCOE 010405Z AUTO 14005KT 10SM CLR A3018 RMK MADISHF
COE,2017-04-01 04:10,-116.8196,47.7743,M,M,M,150.00,7.00,M,30.18,M,10.00,M,CLR,M,M,M,M,M,M,M,M,KCOE 010410Z AUTO 15007KT 10SM CLR A3018 RMK MADISHF
COE,2017-04-01 04:15,-116.8196,47.7743,M,M,M,150.00,5.00,M,30.19,M,10.00,M,CLR,M,M,M,M,M,M,M,M,KCOE 010415Z AUTO 15005KT 10SM CLR A3019 RMK MADISHF
COE,2017-04-01 04:20,-116.8196,47.7743,M,M,M,150.00,5.00,M,30.19,M,10.00,M,CLR,M,M,M,M,M,M,M,M,KCOE 010420Z AUTO 15005KT 10SM CLR A3019 RMK MADISHF
COE,2017-04-01 04:25,-116.8196,47.7743,M,M,M,160.00,4.00,M,30.19,M,10.00,M,CLR,M,M,M,M,M,M,M,M,KCOE 010425Z AUTO 16004KT 10SM CLR A3019 RMK MADISHF
COE,2017-04-01 04:30,-116.8196,47.7743,M,M,M,0.00,0.00,M,30.19,M,10.00,M,CLR,M,M,M,M,M,M,M,M,KCOE 010430Z AUTO 00000KT 10SM CLR A3019 RMK MADISHF
COE,2017-04-01 04:35,-116.8196,47.7743,M,M,M,310.00,3.00,M,30.19,M,10.00,M,CLR,M,M,M,M,M,M,M,M,KCOE 010435Z AUTO 31003KT 10SM CLR A3019 RMK VRB03KT  MADISHF
COE,2017-04-01 04:40,-116.8196,47.7743,M,M,M,0.00,0.00,M,30.19,M,10.00,M,CLR,M,M,M,M,M,M,M,M,KCOE 010440Z AUTO 00000KT 10SM CLR A3019 RMK MADISHF
COE,2017-04-01 04:45,-116.8196,47.7743,M,M,M,0.00,0.00,M,30.19,M,10.00,M,CLR,M,M,M,M,M,M,M,M,KCOE 010445Z AUTO 00000KT 10SM CLR A3019 RMK MADISHF
COE,2017-04-01 04:50,-116.8196,47.7743,M,M,M,0.00,0.00,M,30.19,M,10.00,M,CLR,M,M,M,M,M,M,M,M,KCOE 010450Z AUTO 00000KT 10SM CLR A3019 RMK MADISHF
COE,2017-04-01 04:55,-116.8196,47.7743,M,M,M,210.00,4.00,M,30.20,M,10.00,M,CLR,M,M,M,M,M,M,M,M,KCOE 010455Z AUTO 21004KT 10SM CLR A3020 RMK MADISHF
COE,2017-04-01 04:56,-116.8196,47.7743,42.10,37.00,81.98,210.00,4.00,0.00,30.20,1025.50,10.00,M,CLR,M,M,M,M,M,M,M,M,KCOE 010456Z AUTO 21004KT 10SM CLR 06/03 A3020 RMK AO2 SLP255 T00560028
COE,2017-04-01 05:00,-116.8196,47.7743,M,M,M,180.00,5.00,M,30.19,M,10.00,M,CLR,M,M,M,M,M,M,M,M,KCOE 010500Z AUTO 18005KT 10SM CLR A3019 RMK MADISHF
COE,2017-04-01 05:05,-116.8196,47.7743,M,M,M,160.00,5.00,M,30.19,M,10.00,M,CLR,M,M,M,M,M,M,M,M,KCOE 010505Z AUTO 16005KT 10SM CLR A3019 RMK MADISHF
COE,2017-04-01 05:10,-116.8196,47.7743,M,M,M,150.00,5.00,M,30.19,M,10.00,M,CLR,M,M,M,M,M,M,M,M,KCOE 010510Z AUTO 15005KT 10SM CLR A3019 RMK MADISHF
COE,2017-04-01 05:15,-116.8196,47.7743,M,M,M,150.00,6.00,M,30.19,M,10.00,M,CLR,M,M,M,M,M,M,M,M,KCOE 010515Z AUTO 15006KT 10SM CLR A3019 RMK MADISHF
COE,2017-04-01 05:20,-116.8196,47.7743,M,M,M,140.00,4.00,M,30.19,M,10.00,M,CLR,M,M,M,M,M,M,M,M,KCOE 010520Z AUTO 14004KT 10SM CLR A3019 RMK MADISHF
COE,2017-04-01 05:25,-116.8196,47.7743,M,M,M,150.00,4.00,M,30.19,M,10.00,M,CLR,M,M,M,M,M,M,M,M,KCOE 010525Z AUTO 15004KT 10SM CLR A3019 RMK MADISHF
COE,2017-04-01 05:30,-116.8196,47.7743,M,M,M,160.00,4.00,M,30.19,M,10.00,M,CLR,M,M,M,M,M,M,M,M,KCOE 010530Z AUTO 16004KT 10SM CLR A3019 RMK MADISHF
COE,2017-04-01 05:35,-116.8196,47.7743,M,M,M,140.00,3.00,M,30.20,M,10.00,M,CLR,M,M,M,M,M,M,M,M,KCOE 010535Z AUTO 14003KT 10SM CLR A3020 RMK MADISHF
COE,2017-04-01 05:40,-116.8196,47.7743,M,M,M,140.00,4.00,M,30.20,M,10.00,M,CLR,M,M,M,M,M,M,M,M,KCOE 010540Z AUTO 14004KT 10SM CLR A3020 RMK MADISHF
COE,2017-04-01 05:45,-116.8196,47.7743,M,M,M,0.00,0.00,M,30.20,M,10.00,M,CLR,M,M,M,M,M,M,M,M,KCOE 010545Z AUTO 00000KT 10SM CLR A3020 RMK MADISHF
COE,2017-04-01 05:50,-116.8196,47.7743,M,M,M,0.00,0.00,M,30.21,M,10.00,M,CLR,M,M,M,M,M,M,M,M,KCOE 010550Z AUTO 00000KT 10SM CLR A3021 RMK MADISHF
COE,2017-04-01 05:55,-116.8196,47.7743,M,M,M,0.00,0.00,M,30.21,M,10.00,M,CLR,M,M,M,M,M,M,M,M,KCOE 010555Z AUTO 00000KT 10SM CLR A3021 RMK MADISHF
COE,2017-04-01 05:56,-116.8196,47.7743,42.10,37.00,81.98,0.00,0.00,0.00,30.21,1025.60,10.00,M,CLR,M,M,M,M,M,M,M,M,KCOE 010556Z AUTO 00000KT 10SM CLR 06/03 A3021 RMK AO2 SLP256 T00560028 10133 20050 53010
COE,2017-04-01 06:00,-116.8196,47.7743,M,M,M,120.00,3.00,M,30.20,M,10.00,M,CLR,M,M,M,M,M,M,M,M,KCOE 010600Z AUTO 12003KT 10SM CLR A3020 RMK MADISHF
COE,2017-04-01 06:05,-116.8196,47.7743,M,M,M,130.00,3.00,M,30.20,M,10.00,M,CLR,M,M,M,M,M,M,M,M,KCOE 010605Z AUTO 13003KT 10SM CLR A3020 RMK MADISHF
COE,2017-04-01 06:10,-116.8196,47.7743,M,M,M,0.00,0.00,M,30.20,M,10.00,M,CLR,M,M,M,M,M,M,M,M,KCOE 010610Z AUTO 00000KT 10SM CLR A3020 RMK MADISHF
COE,2017-04-01 06:15,-116.8196,47.7743,M,M,M,120.00,4.00,M,30.20,M,10.00,M,CLR,M,M,M,M,M,M,M,M,KCOE 010615Z AUTO 12004KT 10SM CLR A3020 RMK MADISHF
COE,2017-04-01 06:20,-116.8196,47.7743,M,M,M,120.00,4.00,M,30.20,M,10.00,M,CLR,M,M,M,M,M,M,M,M,KCOE 010620Z AUTO 12004KT 10SM CLR A3020 RMK MADISHF
COE,2017-04-01 06:25,-116.8196,47.7743,M,M,M,0.00,0.00,M,30.20,M,10.00,M,CLR,M,M,M,M,M,M,M,M,KCOE 010625Z AUTO 00000KT 10SM CLR A3020 RMK MADISHF
COE,2017-04-01 06:30,-116.8196,47.7743,M,M,M,0.00,0.00,M,30.20,M,10.00,M,CLR,M,M,M,M,M,M,M,M,KCOE 010630Z AUTO 00000KT 10SM CLR A3020 RMK MADISHF
COE,2017-04-01 06:35,-116.8196,47.7743,M,M,M,0.00,0.00,M,30.21,M,10.00,M,CLR,M,M,M,M,M,M,M,M,KCOE 010635Z AUTO 00000KT 10SM CLR A3021 RMK MADISHF
COE,2017-04-01 06:40,-116.8196,47.7743,M,M,M,100.00,3.00,M,30.21,M,10.00,M,CLR,M,M,M,M,M,M,M,M,KCOE 010640Z AUTO 10003KT 10SM CLR A3021 RMK MADISHF
COE,2017-04-01 06:45,-116.8196,47.7743,M,M,M,0.00,0.00,M,30.21,M,10.00,M,CLR,M,M,M,M,M,M,M,M,KCOE 010645Z AUTO 00000KT 10SM CLR A3021 RMK MADISHF
COE,2017-04-01 06:50,-116.8196,47.7743,M,M,M,130.00,4.00,M,30.20,M,10.00,M,CLR,M,M,M,M,M,M,M,M,KCOE 010650Z AUTO 13004KT 10SM CLR A3020 RMK MADISHF
COE,2017-04-01 06:55,-116.8196,47.7743,M,M,M,130.00,5.00,M,30.20,M,10.00,M,CLR,M,M,M,M,M,M,M,M,KCOE 010655Z AUTO 13005KT 10SM CLR A3020 RMK MADISHF
COE,2017-04-01 06:56,-116.8196,47.7743,39.00,36.00,88.87,130.00,5.00,0.00,30.20,1025.50,10.00,M,CLR,M,M,M,M,M,M,M,M,KCOE 010656Z AUTO 13005KT 10SM CLR 04/02 A3020 RMK AO2 SLP255 T00390022
COE,2017-04-01 07:00,-116.8196,47.7743,M,M,M,130.00,5.00,M,30.20,M,10.00,M,CLR,M,M,M,M,M,M,M,M,KCOE 010700Z AUTO 13005KT 10SM CLR A3020 RMK MADISHF
COE,2017-04-01 07:05,-116.8196,47.7743,M,M,M,120.00,4.00,M,30.20,M,10.00,M,CLR,M,M,M,M,M,M,M,M,KCOE 010705Z AUTO 12004KT 10SM CLR A3020 RMK MADISHF
COE,2017-04-01 07:10,-116.8196,47.7743,M,M,M,130.00,6.00,M,30.20,M,10.00,M,CLR,M,M,M,M,M,M,M,M,KCOE 010710Z AUTO 13006KT 10SM CLR A3020 RMK MADISHF
COE,2017-04-01 07:15,-116.8196,47.7743,M,M,M,120.00,6.00,M,30.20,M,10.00,M,CLR,M,M,M,M,M,M,M,M,KCOE 010715Z AUTO 12006KT 10SM CLR A3020 RMK MADISHF
COE,2017-04-01 07:20,-116.8196,47.7743,M,M,M,130.00,7.00,M,30.19,M,10.00,M,CLR,M,M,M,M,M,M,M,M,KCOE 010720Z AUTO 13007KT 10SM CLR A3019 RMK MADISHF
COE,2017-04-01 07:25,-116.8196,47.7743,M,M,M,120.00,8.00,M,30.19,M,10.00,M,CLR,M,M,M,M,M,M,M,M,KCOE 010725Z AUTO 12008KT 10SM CLR A3019 RMK MADISHF
COE,2017-04-01 07:30,-116.8196,47.7743,M,M,M,130.00,6.00,M,30.19,M,10.00,M,CLR,M,M,M,M,M,M,M,M,KCOE 010730Z AUTO 13006KT 10SM CLR A3019 RMK MADISHF
COE,2017-04-01 07:35,-116.8196,47.7743,M,M,M,130.00,5.00,M,30.18,M,10.00,M,CLR,M,M,M,M,M,M,M,M,KCOE 010735Z AUTO 13005KT 10SM CLR A3018 RMK MADISHF
COE,2017-04-01 07:40,-116.8196,47.7743,M,M,M,120.00,6.00,M,30.18,M,10.00,M,CLR,M,M,M,M,M,M,M,M,KCOE 010740Z AUTO 12006KT 10SM CLR A3018 RMK MADISHF
COE,2017-04-01 07:45,-116.8196,47.7743,M,M,M,140.00,5.00,M,30.18,M,10.00,M,CLR,M,M,M,M,M,M,M,M,KCOE 010745Z AUTO 14005KT 10SM CLR A3018 RMK MADISHF
COE,2017-04-01 07:50,-116.8196,47.7743,M,M,M,130.00,3.00,M,30.18,M,10.00,M,CLR,M,M,M,M,M,M,M,M,KCOE 010750Z AUTO 13003KT 10SM CLR A3018 RMK MADISHF
COE,2017-04-01 07:55,-116.8196,47.7743,M,M,M,0.00,0.00,M,30.19,M,10.00,M,CLR,M,M,M,M,M,M,M,M,KCOE 010755Z AUTO 00000KT 10SM CLR A3019 RMK MADISHF
COE,2017-04-01 07:56,-116.8196,47.7743,39.00,36.00,88.87,0.00,0.00,0.00,30.19,1024.80,10.00,M,CLR,M,M,M,M,M,M,M,M,KCOE 010756Z AUTO 00000KT 10SM CLR 04/02 A3019 RMK AO2 SLP248 T00390022 401391017
COE,2017-04-01 08:00,-116.8196,47.7743,M,M,M,0.00,0.00,M,30.19,M,10.00,M,CLR,M,M,M,M,M,M,M,M,KCOE 010800Z AUTO 00000KT 10SM CLR A3019 RMK MADISHF
COE,2017-04-01 08:05,-116.8196,47.7743,M,M,M,340.00,3.00,M,30.19,M,10.00,M,CLR,M,M,M,M,M,M,M,M,KCOE 010805Z AUTO 34003KT 10SM CLR A3019 RMK MADISHF
COE,2017-04-01 08:10,-116.8196,47.7743,M,M,M,360.00,5.00,M,30.19,M,10.00,M,CLR,M,M,M,M,M,M,M,M,KCOE 010810Z AUTO 36005KT 10SM CLR A3019 RMK MADISHF
COE,2017-04-01 08:15,-116.8196,47.7743,M,M,M,360.00,5.00,M,30.19,M,10.00,M,CLR,M,M,M,M,M,M,M,M,KCOE 010815Z AUTO 36005KT 10SM CLR A3019 RMK MADISHF
COE,2017-04-01 08:20,-116.8196,47.7743,M,M,M,10.00,5.00,M,30.19,M,10.00,M,CLR,M,M,M,M,M,M,M,M,KCOE 010820Z AUTO 01005KT 10SM CLR A3019 RMK MADISHF
COE,2017-04-01 08:25,-116.8196,47.7743,M,M,M,0.00,0.00,M,30.19,M,10.00,M,CLR,M,M,M,M,M,M,M,M,KCOE 010825Z AUTO 00000KT 10SM CLR A3019 RMK MADISHF
COE,2017-04-01 08:30,-116.8196,47.7743,M,M,M,60.00,3.00,M,30.19,M,10.00,M,CLR,M,M,M,M,M,M,M,M,KCOE 010830Z AUTO 06003KT 10SM CLR A3019 RMK MADISHF
COE,2017-04-01 08:35,-116.8196,47.7743,M,M,M,40.00,3.00,M,30.19,M,10.00,M,CLR,M,M,M,M,M,M,M,M,KCOE 010835Z AUTO 04003KT 10SM CLR A3019 RMK MADISHF
COE,2017-04-01 08:40,-116.8196,47.7743,M,M,M,0.00,0.00,M,30.19,M,10.00,M,CLR,M,M,M,M,M,M,M,M,KCOE 010840Z AUTO 00000KT 10SM CLR A3019 RMK MADISHF
COE,2017-04-01 08:45,-116.8196,47.7743,M,M,M,70.00,4.00,M,30.19,M,10.00,M,CLR,M,M,M,M,M,M,M,M,KCOE 010845Z AUTO 07004KT 10SM CLR A3019 RMK MADISHF
COE,2017-04-01 08:50,-116.8196,47.7743,M,M,M,90.00,3.00,M,30.19,M,10.00,M,CLR,M,M,M,M,M,M,M,M,KCOE 010850Z AUTO 09003KT 10SM CLR A3019 RMK MADISHF
COE,2017-04-01 08:55,-116.8196,47.7743,M,M,M,110.00,4.00,M,30.18,M,10.00,M,CLR,M,M,M,M,M,M,M,M,KCOE 010855Z AUTO 11004KT 10SM CLR A3018 RMK MADISHF
COE,2017-04-01 08:56,-116.8196,47.7743,35.10,33.10,92.32,110.00,4.00,0.00,30.18,1024.60,10.00,M,CLR,M,M,M,M,M,M,M,M,KCOE 010856Z AUTO 11004KT 10SM CLR 02/01 A3018 RMK AO2 SLP246 T00170006 58009 FZRANO
COE,2017-04-01 09:00,-116.8196,47.7743,M,M,M,100.00,4.00,M,30.17,M,10.00,M,CLR,M,M,M,M,M,M,M,M,KCOE 010900Z AUTO 10004KT 10SM CLR A3017 RMK MADISHF
COE,2017-04-01 09:05,-116.8196,47.7743,M,M,M,110.00,5.00,M,30.17,M,10.00,M,CLR,M,M,M,M,M,M,M,M,KCOE 010905Z AUTO 11005KT 10SM CLR A3017 RMK MADISHF
COE,2017-04-01 09:10,-116.8196,47.7743,M,M,M,120.00,5.00,M,30.16,M,10.00,M,CLR,M,M,M,M,M,M,M,M,KCOE 010910Z AUTO 12005KT 10SM CLR A3016 RMK MADISHF
COE,2017-04-01 09:15,-116.8196,47.7743,M,M,M,130.00,5.00,M,30.16,M,10.00,M,CLR,M,M,M,M,M,M,M,M,KCOE 010915Z AUTO 13005KT 10SM CLR A3016 RMK MADISHF
COE,2017-04-01 09:20,-116.8196,47.7743,M,M,M,150.00,4.00,M,30.16,M,10.00,M,CLR,M,M,M,M,M,M,M,M,KCOE 010920Z AUTO 15004KT 10SM CLR A3016 RMK MADISHF
COE,2017-04-01 09:25,-116.8196,47.7743,M,M,M,160.00,5.00,M,30.15,M,10.00,M,CLR,M,M,M,M,M,M,M,M,KCOE 010925Z AUTO 16005KT 10SM CLR A3015 RMK MADISHF
COE,2017-04-01 09:30,-116.8196,47.7743,M,M,M,160.00,7.00,M,30.14,M,10.00,M,CLR,M,M,M,M,M,M,M,M,KCOE 010930Z AUTO 16007KT 10SM CLR A3014 RMK MADISHF
COE,2017-04-01 09:35,-116.8196,47.7743,M,M,M,160.00,8.00,M,30.13,M,10.00,M,CLR,M,M,M,M,M,M,M,M,KCOE 010935Z AUTO 16008KT 10SM CLR A3013 RMK MADISHF
COE,2017-04-01 09:40,-116.8196,47.7743,M,M,M,170.00,8.00,M,30.14,M,10.00,M,CLR,M,M,M,M,M,M,M,M,KCOE 010940Z AUTO 17008KT 10SM CLR A3014 RMK MADISHF
COE,2017-04-01 09:45,-116.8196,47.7743,M,M,M,170.00,8.00,M,30.14,M,10.00,M,CLR,M,M,M,M,M,M,M,M,KCOE 010945Z AUTO 17008KT 10SM CLR A3014 RMK MADISHF
COE,2017-04-01 09:50,-116.8196,47.7743,M,M,M,180.00,7.00,M,30.14,M,10.00,M,CLR,M,M,M,M,M,M,M,M,KCOE 010950Z AUTO 18007KT 10SM CLR A3014 RMK MADISHF
COE,2017-04-01 09:55,-116.8196,47.7743,M,M,M,180.00,8.00,M,30.14,M,10.00,M,CLR,M,M,M,M,M,M,M,M,KCOE 010955Z AUTO 18008KT 10SM CLR A3014 RMK MADISHF
COE,2017-04-01 09:56,-116.8196,47.7743,37.00,35.10,92.76,190.00,8.00,0.00,30.14,1023.20,10.00,M,CLR,M,M,M,M,M,M,M,M,KCOE 010956Z AUTO 19008KT 10SM CLR 03/02 A3014 RMK AO2 SLP232 T00280017
COE,2017-04-01 10:00,-116.8196,47.7743,M,M,M,190.00,6.00,M,30.15,M,10.00,M,CLR,M,M,M,M,M,M,M,M,KCOE 011000Z AUTO 19006KT 10SM CLR A3015 RMK MADISHF
COE,2017-04-01 10:05,-116.8196,47.7743,M,M,M,0.00,0.00,M,30.15,M,10.00,M,CLR,M,M,M,M,M,M,M,M,KCOE 011005Z AUTO 00000KT 10SM CLR A3015 RMK MADISHF
COE,2017-04-01 10:10,-116.8196,47.7743,M,M,M,320.00,4.00,M,30.15,M,10.00,M,CLR,M,M,M,M,M,M,M,M,KCOE 011010Z AUTO 32004KT 10SM CLR A3015 RMK MADISHF
COE,2017-04-01 10:15,-116.8196,47.7743,M,M,M,0.00,0.00,M,30.15,M,10.00,M,CLR,M,M,M,M,M,M,M,M,KCOE 011015Z AUTO 00000KT 10SM CLR A3015 RMK MADISHF
COE,2017-04-01 10:20,-116.8196,47.7743,M,M,M,0.00,0.00,M,30.15,M,10.00,M,CLR,M,M,M,M,M,M,M,M,KCOE 011020Z AUTO 00000KT 10SM CLR A3015 RMK MADISHF
COE,2017-04-01 10:25,-116.8196,47.7743,M,M,M,0.00,0.00,M,30.15,M,10.00,M,CLR,M,M,M,M,M,M,M,M,KCOE 011025Z AUTO 00000KT 10SM CLR A3015 RMK MADISHF
COE,2017-04-01 10:30,-116.8196,47.7743,M,M,M,50.00,3.00,M,30.15,M,10.00,M,CLR,M,M,M,M,M,M,M,M,KCOE 011030Z AUTO 05003KT 10SM CLR A3015 RMK MADISHF
COE,2017-04-01 10:35,-116.8196,47.7743,M,M,M,0.00,0.00,M,30.15,M,10.00,M,CLR,M,M,M,M,M,M,M,M,KCOE 011035Z AUTO 00000KT 10SM CLR A3015 RMK MADISHF
COE,2017-04-01 10:40,-116.8196,47.7743,M,M,M,0.00,0.00,M,30.16,M,10.00,M,CLR,M,M,M,M,M,M,M,M,KCOE 011040Z AUTO 00000KT 10SM CLR A3016 RMK MADISHF
COE,2017-04-01 10:45,-116.8196,47.7743,M,M,M,80.00,4.00,M,30.15,M,10.00,M,CLR,M,M,M,M,M,M,M,M,KCOE 011045Z AUTO 08004KT 10SM CLR A3015 RMK MADISHF
COE,2017-04-01 10:50,-116.8196,47.7743,M,M,M,80.00,5.00,M,30.15,M,10.00,M,CLR,M,M,M,M,M,M,M,M,KCOE 011050Z AUTO 08005KT 10SM CLR A3015 RMK MADISHF
COE,2017-04-01 10:55,-116.8196,47.7743,M,M,M,70.00,5.00,M,30.15,M,10.00,M,CLR,M,M,M,M,M,M,M,M,KCOE 011055Z AUTO 07005KT 10SM CLR A3015 RMK MADISHF
COE,2017-04-01 10:56,-116.8196,47.7743,34.00,32.00,92.29,70.00,5.00,0.00,30.15,1023.80,10.00,M,CLR,M,M,M,M,M,M,M,M,KCOE 011056Z AUTO 07005KT 10SM CLR 01/00 A3015 RMK AO2 SLP238 T00110000 FZRANO
COE,2017-04-01 11:00,-116.8196,47.7743,M,M,M,80.00,5.00,M,30.15,M,10.00,M,CLR,M,M,M,M,M,M,M,M,KCOE 011100Z AUTO 08005KT 10SM CLR A3015 RMK MADISHF
COE,2017-04-01 11:05,-116.8196,47.7743,M,M,M,100.00,3.00,M,30.16,M,10.00,M,CLR,M,M,M,M,M,M,M,M,KCOE 011105Z AUTO 10003KT 10SM CLR A3016 RMK MADISHF
COE,2017-04-01 11:10,-116.8196,47.7743,M,M,M,120.00,3.00,M,30.16,M,10.00,M,CLR,M,M,M,M,M,M,M,M,KCOE 011110Z AUTO 12003KT 10SM CLR A3016 RMK MADISHF
COE,2017-04-01 11:15,-116.8196,47.7743,M,M,M,0.00,0.00,M,30.16,M,10.00,M,CLR,M,M,M,M,M,M,M,M,KCOE 011115Z AUTO 00000KT 10SM CLR A3016 RMK MADISHF
COE,2017-04-01 11:20,-116.8196,47.7743,M,M,M,0.00,0.00,M,30.16,M,10.00,M,CLR,M,M,M,M,M,M,M,M,KCOE 011120Z AUTO 00000KT 10SM CLR A3016 RMK MADISHF
COE,2017-04-01 11:25,-116.8196,47.7743,M,M,M,0.00,0.00,M,30.15,M,10.00,M,CLR,M,M,M,M,M,M,M,M,KCOE 011125Z AUTO 00000KT 10SM CLR A3015 RMK MADISHF
COE,2017-04-01 11:30,-116.8196,47.7743,M,M,M,130.00,3.00,M,30.15,M,10.00,M,CLR,M,M,M,M,M,M,M,M,KCOE 011130Z AUTO 13003KT 10SM CLR A3015 RMK MADISHF
COE,2017-04-01 11:35,-116.8196,47.7743,M,M,M,140.00,4.00,M,30.15,M,10.00,M,CLR,M,M,M,M,M,M,M,M,KCOE 011135Z AUTO 14004KT 10SM CLR A3015 RMK MADISHF
COE,2017-04-01 11:40,-116.8196,47.7743,M,M,M,150.00,3.00,M,30.15,M,10.00,M,CLR,M,M,M,M,M,M,M,M,KCOE 011140Z AUTO 15003KT 10SM CLR A3015 RMK MADISHF
COE,2017-04-01 11:45,-116.8196,47.7743,M,M,M,140.00,3.00,M,30.16,M,10.00,M,CLR,M,M,M,M,M,M,M,M,KCOE 011145Z AUTO 14003KT 10SM CLR A3016 RMK MADISHF
COE,2017-04-01 11:50,-116.8196,47.7743,M,M,M,150.00,4.00,M,30.15,M,10.00,M,CLR,M,M,M,M,M,M,M,M,KCOE 011150Z AUTO 15004KT 10SM CLR A3015 RMK MADISHF
COE,2017-04-01 11:55,-116.8196,47.7743,M,M,M,150.00,5.00,M,30.15,M,10.00,M,CLR,M,M,M,M,M,M,M,M,KCOE 011155Z AUTO 15005KT 10SM CLR A3015 RMK MADISHF
COE,2017-04-01 11:56,-116.8196,47.7743,35.10,34.00,95.71,150.00,6.00,0.00,30.15,1023.40,10.00,M,CLR,M,M,M,M,M,M,M,M,KCOE 011156Z AUTO 15006KT 10SM CLR 02/01 A3015 RMK AO2 SLP234 T00170011 10056 20006 56010 FZRANO
COE,2017-04-01 12:00,-116.8196,47.7743,M,M,M,150.00,5.00,M,30.15,M,10.00,M,CLR,M,M,M,M,M,M,M,M,KCOE 011200Z AUTO 15005KT 10SM CLR A3015 RMK MADISHF
COE,2017-04-01 12:05,-116.8196,47.7743,M,M,M,150.00,7.00,M,30.14,M,10.00,M,CLR,M,M,M,M,M,M,M,M,KCOE 011205Z AUTO 15007KT 10SM CLR A3014 RMK MADISHF
COE,2017-04-01 12:10,-116.8196,47.7743,M,M,M,150.00,7.00,M,30.14,M,10.00,M,CLR,M,M,M,M,M,M,M,M,KCOE 011210Z AUTO 15007KT 10SM CLR A3014 RMK MADISHF
COE,2017-04-01 12:15,-116.8196,47.7743,M,M,M,160.00,8.00,M,30.14,M,10.00,M,CLR,M,M,M,M,M,M,M,M,KCOE 011215Z AUTO 16008KT 10SM CLR A3014 RMK MADISHF
COE,2017-04-01 12:20,-116.8196,47.7743,M,M,M,160.00,7.00,M,30.14,M,10.00,M,CLR,M,M,M,M,M,M,M,M,KCOE 011220Z AUTO 16007KT 10SM CLR A3014 RMK MADISHF
COE,2017-04-01 12:25,-116.8196,47.7743,M,M,M,170.00,8.00,M,30.14,M,10.00,M,CLR,M,M,M,M,M,M,M,M,KCOE 011225Z AUTO 17008KT 10SM CLR A3014 RMK MADISHF
COE,2017-04-01 12:30,-116.8196,47.7743,M,M,M,160.00,8.00,M,30.14,M,10.00,M,CLR,M,M,M,M,M,M,M,M,KCOE 011230Z AUTO 16008KT 10SM CLR A3014 RMK MADISHF
COE,2017-04-01 12:35,-116.8196,47.7743,M,M,M,170.00,8.00,M,30.14,M,10.00,M,CLR,M,M,M,M,M,M,M,M,KCOE 011235Z AUTO 17008KT 10SM CLR A3014 RMK MADISHF
COE,2017-04-01 12:40,-116.8196,47.7743,M,M,M,160.00,7.00,M,30.13,M,10.00,M,CLR,M,M,M,M,M,M,M,M,KCOE 011240Z AUTO 16007KT 10SM CLR A3013 RMK MADISHF
COE,2017-04-01 12:45,-116.8196,47.7743,M,M,M,170.00,7.00,M,30.13,M,10.00,M,SCT,M,M,M,10000.00,M,M,M,M,KCOE 011245Z AUTO 17007KT 10SM SCT100 A3013 RMK MADISHF
COE,2017-04-01 12:50,-116.8196,47.7743,M,M,M,170.00,8.00,M,30.13,M,10.00,M,BKN,M,M,M,10000.00,M,M,M,M,KCOE 011250Z AUTO 17008KT 10SM BKN100 A3013 RMK MADISHF
COE,2017-04-01 12:55,-116.8196,47.7743,M,M,M,170.00,8.00,M,30.13,M,10.00,M,BKN,M,M,M,10000.00,M,M,M,M,KCOE 011255Z AUTO 17008KT 10SM BKN100 A3013 RMK MADISHF
COE,2017-04-01 12:56,-116.8196,47.7743,37.00,35.10,92.76,170.00,8.00,0.00,30.13,1022.90,10.00,M,BKN,M,M,M,10000.00,M,M,M,M,KCOE 011256Z AUTO 17008KT 10SM BKN100 03/02 A3013 RMK AO2 SLP229 T00280017
COE,2017-04-01 13:00,-116.8196,47.7743,M,M,M,160.00,7.00,M,30.13,M,10.00,M,BKN,M,M,M,10000.00,M,M,M,M,KCOE 011300Z AUTO 16007KT 10SM BKN100 A3013 RMK MADISHF
COE,2017-04-01 13:05,-116.8196,47.7743,M,M,M,150.00,9.00,M,30.13,M,10.00,M,OVC,M,M,M,10000.00,M,M,M,M,KCOE 011305Z AUTO 15009KT 10SM OVC100 A3013 RMK MADISHF
COE,2017-04-01 13:10,-116.8196,47.7743,M,M,M,150.00,4.00,M,30.13,M,10.00,M,OVC,M,M,M,10000.00,M,M,M,M,KCOE 011310Z AUTO 15004KT 10SM OVC100 A3013 RMK MADISHF
COE,2017-04-01 13:15,-116.8196,47.7743,M,M,M,150.00,3.00,M,30.14,M,10.00,M,OVC,M,M,M,10000.00,M,M,M,M,KCOE 011315Z AUTO 15003KT 10SM OVC100 A3014 RMK MADISHF
COE,2017-04-01 13:20,-116.8196,47.7743,M,M,M,0.00,0.00,M,30.14,M,10.00,M,OVC,M,M,M,10000.00,M,M,M,M,KCOE 011320Z AUTO 00000KT 10SM OVC100 A3014 RMK MADISHF
COE,2017-04-01 13:25,-116.8196,47.7743,M,M,M,0.00,0.00,M,30.14,M,10.00,M,OVC,M,M,M,10000.00,M,M,M,M,KCOE 011325Z AUTO 00000KT 10SM OVC100 A3014 RMK MADISHF
COE,2017-04-01 13:30,-116.8196,47.7743,M,M,M,0.00,0.00,M,30.14,M,10.00,M,OVC,M,M,M,10000.00,M,M,M,M,KCOE 011330Z AUTO 00000KT 10SM OVC100 A3014 RMK MADISHF
COE,2017-04-01 13:35,-116.8196,47.7743,M,M,M,0.00,0.00,M,30.14,M,10.00,M,OVC,M,M,M,10000.00,M,M,M,M,KCOE 011335Z AUTO 00000KT 10SM OVC100 A3014 RMK MADISHF
COE,2017-04-01 13:40,-116.8196,47.7743,M,M,M,0.00,0.00,M,30.14,M,10.00,M,OVC,M,M,M,10000.00,M,M,M,M,KCOE 011340Z AUTO 00000KT 10SM OVC100 A3014 RMK MADISHF
COE,2017-04-01 13:45,-116.8196,47.7743,M,M,M,110.00,3.00,M,30.13,M,10.00,M,OVC,M,M,M,10000.00,M,M,M,M,KCOE 011345Z AUTO 11003KT 10SM OVC100 A3013 RMK MADISHF
COE,2017-04-01 13:50,-116.8196,47.7743,M,M,M,0.00,0.00,M,30.14,M,10.00,M,OVC,M,M,M,10000.00,M,M,M,M,KCOE 011350Z AUTO 00000KT 10SM OVC100 A3014 RMK MADISHF
COE,2017-04-01 13:55,-116.8196,47.7743,M,M,M,0.00,0.00,M,30.14,M,10.00,M,OVC,M,M,M,9500.00,M,M,M,M,KCOE 011355Z AUTO 00000KT 10SM OVC095 A3014 RMK MADISHF
COE,2017-04-01 13:56,-116.8196,47.7743,37.00,36.00,96.13,0.00,0.00,0.00,30.13,1023.20,10.00,M,OVC,M,M,M,9500.00,M,M,M,M,KCOE 011356Z AUTO 00000KT 10SM OVC095 03/02 A3013 RMK AO2 SLP232 T00280022
COE,2017-04-01 14:00,-116.8196,47.7743,M,M,M,110.00,3.00,M,30.13,M,10.00,M,OVC,M,M,M,9500.00,M,M,M,M,KCOE 011400Z AUTO 11003KT 10SM OVC095 A3013 RMK MADISHF
COE,2017-04-01 14:05,-116.8196,47.7743,M,M,M,140.00,4.00,M,30.13,M,10.00,M,OVC,M,M,M,9500.00,M,M,M,M,KCOE 011405Z AUTO 14004KT 10SM OVC095 A3013 RMK MADISHF
COE,2017-04-01 14:10,-116.8196,47.7743,M,M,M,140.00,5.00,M,30.13,M,10.00,M,OVC,M,M,M,9500.00,M,M,M,M,KCOE 011410Z AUTO 14005KT 10SM OVC095 A3013 RMK MADISHF
COE,2017-04-01 14:15,-116.8196,47.7743,M,M,M,150.00,6.00,M,30.13,M,10.00,M,OVC,M,M,M,10000.00,M,M,M,M,KCOE 011415Z AUTO 15006KT 10SM OVC100 A3013 RMK MADISHF
COE,2017-04-01 14:20,-116.8196,47.7743,M,M,M,150.00,6.00,M,30.13,M,10.00,M,OVC,M,M,M,9500.00,M,M,M,M,KCOE 011420Z AUTO 15006KT 10SM OVC095 A3013 RMK MADISHF
COE,2017-04-01 14:25,-116.8196,47.7743,M,M,M,150.00,7.00,M,30.13,M,10.00,M,SCT,OVC,M,M,7999.00,10000.00,M,M,M,KCOE 011425Z AUTO 15007KT 10SM SCT079 OVC100 A3013 RMK MADISHF
COE,2017-04-01 14:30,-116.8196,47.7743,M,M,M,160.00,6.00,M,30.13,M,10.00,M,BKN,OVC,M,M,7999.00,10000.00,M,M,M,KCOE 011430Z AUTO 16006KT 10SM BKN079 OVC100 A3013 RMK MADISHF
COE,2017-04-01 14:35,-116.8196,47.7743,M,M,M,160.00,7.00,M,30.12,M,10.00,M,BKN,OVC,M,M,7999.00,10000.00,M,M,M,KCOE 011435Z AUTO 16007KT 10SM BKN079 OVC100 A3012 RMK MADISHF
COE,2017-04-01 14:40,-116.8196,47.7743,M,M,M,160.00,6.00,M,30.12,M,10.00,M,BKN,OVC,M,M,7999.00,10000.00,M,M,M,KCOE 011440Z AUTO 16006KT 10SM BKN079 OVC100 A3012 RMK MADISHF
COE,2017-04-01 14:45,-116.8196,47.7743,M,M,M,160.00,7.00,M,30.12,M,10.00,M,BKN,OVC,M,M,7999.00,10000.00,M,M,M,KCOE 011445Z AUTO 16007KT 10SM BKN079 OVC100 A3012 RMK MADISHF
COE,2017-04-01 14:50,-116.8196,47.7743,M,M,M,160.00,8.00,M,30.12,M,10.00,M,SCT,OVC,M,M,7999.00,10000.00,M,M,M,KCOE 011450Z AUTO 16008KT 10SM SCT079 OVC100 A3012 RMK MADISHF
COE,2017-04-01 14:55,-116.8196,47.7743,M,M,M,160.00,8.00,M,30.11,M,10.00,M,SCT,BKN,M,M,7999.00,10000.00,M,M,M,KCOE 011455Z AUTO 16008KT 10SM SCT079 BKN100 A3011 RMK MADISHF
COE,2017-04-01 14:56,-116.8196,47.7743,39.00,36.00,88.87,160.00,9.00,0.00,30.11,1022.40,10.00,M,SCT,BKN,M,M,8000.00,10000.00,M,M,M,KCOE 011456Z AUTO 16009KT 10SM SCT080 BKN100 04/02 A3011 RMK AO2 SLP224 T00390022 58011
COE,2017-04-01 15:00,-116.8196,47.7743,M,M,M,160.00,10.00,M,30.11,M,10.00,M,SCT,BKN,M,M,7000.00,9500.00,M,M,M,KCOE 011500Z AUTO 16010KT 10SM SCT070 BKN095 A3011 RMK MADISHF
COE,2017-04-01 15:05,-116.8196,47.7743,M,M,M,170.00,9.00,M,30.11,M,10.00,M,SCT,BKN,M,M,7000.00,9500.00,M,M,M,KCOE 011505Z AUTO 17009KT 10SM SCT070 BKN095 A3011 RMK MADISHF
COE,2017-04-01 15:10,-116.8196,47.7743,M,M,M,170.00,10.00,M,30.11,M,10.00,M,FEW,BKN,M,M,7000.00,9500.00,M,M,M,KCOE 011510Z AUTO 17010KT 10SM FEW070 BKN095 A3011 RMK MADISHF
COE,2017-04-01 15:15,-116.8196,47.7743,M,M,M,170.00,9.00,M,30.11,M,10.00,M,FEW,SCT,M,M,7000.00,9500.00,M,M,M,KCOE 011515Z AUTO 17009KT 10SM FEW070 SCT095 A3011 RMK MADISHF
COE,2017-04-01 15:20,-116.8196,47.7743,M,M,M,170.00,9.00,M,30.12,M,10.00,M,SCT,SCT,M,M,7000.00,10000.00,M,M,M,KCOE 011520Z AUTO 17009KT 10SM SCT070 SCT100 A3012 RMK MADISHF
COE,2017-04-01 15:25,-116.8196,47.7743,M,M,M,160.00,8.00,M,30.12,M,10.00,M,BKN,M,M,M,7000.00,M,M,M,M,KCOE 011525Z AUTO 16008KT 10SM BKN070 A3012 RMK MADISHF
COE,2017-04-01 15:30,-116.8196,47.7743,M,M,M,160.00,7.00,M,30.12,M,10.00,M,BKN,M,M,M,7000.00,M,M,M,M,KCOE 011530Z AUTO 16007KT 10SM BKN070 A3012 RMK MADISHF
COE,2017-04-01 15:35,-116.8196,47.7743,M,M,M,170.00,10.00,M,30.11,M,10.00,M,BKN,M,M,M,7000.00,M,M,M,M,KCOE 011535Z AUTO 17010KT 10SM BKN070 A3011 RMK MADISHF
COE,2017-04-01 15:40,-116.8196,47.7743,M,M,M,170.00,10.00,M,30.12,M,10.00,M,BKN,M,M,M,7000.00,M,M,M,M,KCOE 011540Z AUTO 17010KT 10SM BKN070 A3012 RMK MADISHF
COE,2017-04-01 15:45,-116.8196,47.7743,M,M,M,170.00,9.00,M,30.11,M,10.00,M,OVC,M,M,M,6500.00,M,M,M,M,KCOE 011545Z AUTO 17009KT 10SM OVC065 A3011 RMK MADISHF
COE,2017-04-01 15:50,-116.8196,47.7743,M,M,M,170.00,8.00,M,30.11,M,10.00,M,OVC,M,M,M,7000.00,M,M,M,M,KCOE 011550Z AUTO 17008KT 10SM OVC070 A3011 RMK MADISHF
COE,2017-04-01 15:55,-116.8196,47.7743,M,M,M,170.00,10.00,M,30.11,M,10.00,M,OVC,M,M,M,6500.00,M,M,M,M,KCOE 011555Z AUTO 17010KT 10SM OVC065 A3011 RMK MADISHF
COE,2017-04-01 15:56,-116.8196,47.7743,41.00,37.00,85.54,170.00,9.00,0.00,30.11,1022.40,10.00,M,OVC,M,M,M,6500.00,M,M,M,M,KCOE 011556Z AUTO 17009KT 10SM OVC065 05/03 A3011 RMK AO2 SLP224 T00500028
COE,2017-04-01 16:00,-116.8196,47.7743,M,M,M,170.00,8.00,M,30.11,M,10.00,M,OVC,M,M,M,6500.00,M,M,M,M,KCOE 011600Z AUTO 17008KT 10SM OVC065 A3011 RMK MADISHF
COE,2017-04-01 16:05,-116.8196,47.7743,M,M,M,160.00,8.00,M,30.11,M,10.00,M,OVC,M,M,M,6500.00,M,M,M,M,KCOE 011605Z AUTO 16008KT 10SM OVC065 A3011 RMK MADISHF
COE,2017-04-01 16:10,-116.8196,47.7743,M,M,M,160.00,10.00,M,30.11,M,10.00,M,OVC,M,M,M,6500.00,M,M,M,M,KCOE 011610Z AUTO 16010KT 10SM OVC065 A3011 RMK MADISHF
COE,2017-04-01 16:15,-116.8196,47.7743,M,M,M,160.00,10.00,M,30.10,M,10.00,M,OVC,M,M,M,6500.00,M,M,M,M,KCOE 011615Z AUTO 16010KT 10SM OVC065 A3010 RMK MADISHF
COE,2017-04-01 16:20,-116.8196,47.7743,M,M,M,150.00,9.00,M,30.10,M,10.00,M,OVC,M,M,M,6500.00,M,M,M,M,KCOE 011620Z AUTO 15009KT 10SM OVC065 A3010 RMK MADISHF
COE,2017-04-01 16:25,-116.8196,47.7743,M,M,M,150.00,10.00,M,30.10,M,10.00,M,OVC,M,M,M,6500.00,M,M,M,M,KCOE 011625Z AUTO 15010KT 10SM OVC065 A3010 RMK MADISHF
COE,2017-04-01 16:30,-116.8196,47.7743,M,M,M,160.00,10.00,M,30.10,M,10.00,M,OVC,M,M,M,6000.00,M,M,M,M,KCOE 011630Z AUTO 16010KT 10SM OVC060 A3010 RMK MADISHF
COE,2017-04-01 16:35,-116.8196,47.7743,M,M,M,160.00,10.00,M,30.10,M,10.00,M,OVC,M,M,M,6000.00,M,M,M,M,KCOE 011635Z AUTO 16010KT 10SM OVC060 A3010 RMK MADISHF
COE,2017-04-01 16:40,-116.8196,47.7743,M,M,M,160.00,10.00,M,30.10,M,10.00,M,OVC,M,M,M,6000.00,M,M,M,M,KCOE 011640Z AUTO 16010KT 10SM OVC060 A3010 RMK MADISHF
COE,2017-04-01 16:45,-116.8196,47.7743,M,M,M,170.00,10.00,M,30.10,M,10.00,M,OVC,M,M,M,6000.00,M,M,M,M,KCOE 011645Z AUTO 17010KT 10SM OVC060 A3010 RMK MADISHF
COE,2017-04-01 16:50,-116.8196,47.7743,M,M,M,160.00,9.00,M,30.10,M,10.00,M,OVC,M,M,M,6000.00,M,M,M,M,KCOE 011650Z AUTO 16009KT 10SM OVC060 A3010 RMK MADISHF
COE,2017-04-01 16:55,-116.8196,47.7743,M,M,M,160.00,8.00,M,30.10,M,10.00,M,OVC,M,M,M,6000.00,M,M,M,M,KCOE 011655Z AUTO 16008KT 10SM OVC060 A3010 RMK MADISHF
COE,2017-04-01 16:56,-116.8196,47.7743,44.10,37.00,75.93,160.00,8.00,0.00,30.10,1022.20,10.00,M,OVC,M,M,M,6000.00,M,M,M,M,KCOE 011656Z AUTO 16008KT 10SM OVC060 07/03 A3010 RMK AO2 SLP222 T00670028
COE,2017-04-01 17:00,-116.8196,47.7743,M,M,M,160.00,11.00,M,30.10,M,10.00,M,OVC,M,M,M,6000.00,M,M,M,M,KCOE 011700Z AUTO 16011KT 10SM OVC060 A3010 RMK MADISHF
COE,2017-04-01 17:05,-116.8196,47.7743,M,M,M,170.00,9.00,M,30.10,M,10.00,M,OVC,M,M,M,6000.00,M,M,M,M,KCOE 011705Z AUTO 17009KT 10SM OVC060 A3010 RMK MADISHF
COE,2017-04-01 17:10,-116.8196,47.7743,M,M,M,170.00,9.00,M,30.11,M,10.00,M,OVC,M,M,M,6000.00,M,M,M,M,KCOE 011710Z AUTO 17009KT 10SM OVC060 A3011 RMK MADISHF
COE,2017-04-01 17:15,-116.8196,47.7743,M,M,M,160.00,8.00,M,30.10,M,10.00,M,OVC,M,M,M,6000.00,M,M,M,M,KCOE 011715Z AUTO 16008KT 10SM OVC060 A3010 RMK MADISHF
COE,2017-04-01 17:20,-116.8196,47.7743,M,M,M,170.00,8.00,M,30.10,M,10.00,M,OVC,M,M,M,6000.00,M,M,M,M,KCOE 011720Z AUTO 17008KT 10SM OVC060 A3010 RMK MADISHF
COE,2017-04-01 17:25,-116.8196,47.7743,M,M,M,170.00,10.00,M,30.10,M,10.00,M,OVC,M,M,M,6000.00,M,M,M,M,KCOE 011725Z AUTO 17010KT 10SM OVC060 A3010 RMK MADISHF
COE,2017-04-01 17:30,-116.8196,47.7743,M,M,M,170.00,10.00,M,30.10,M,10.00,M,OVC,M,M,M,6000.00,M,M,M,M,KCOE 011730Z AUTO 17010KT 10SM OVC060 A3010 RMK MADISHF
COE,2017-04-01 17:35,-116.8196,47.7743,M,M,M,170.00,10.00,M,30.10,M,10.00,M,OVC,M,M,M,6000.00,M,M,M,M,KCOE 011735Z AUTO 17010KT 10SM OVC060 A3010 RMK MADISHF
COE,2017-04-01 17:40,-116.8196,47.7743,M,M,M,160.00,10.00,M,30.10,M,10.00,M,OVC,M,M,M,6000.00,M,M,M,M,KCOE 011740Z AUTO 16010KT 10SM OVC060 A3010 RMK MADISHF
COE,2017-04-01 17:45,-116.8196,47.7743,M,M,M,170.00,9.00,M,30.09,M,10.00,M,OVC,M,M,M,6000.00,M,M,M,M,KCOE 011745Z AUTO 17009KT 10SM OVC060 A3009 RMK MADISHF
COE,2017-04-01 17:50,-116.8196,47.7743,M,M,M,170.00,9.00,M,30.09,M,10.00,M,OVC,M,M,M,6000.00,M,M,M,M,KCOE 011750Z AUTO 17009KT 10SM OVC060 A3009 RMK MADISHF
COE,2017-04-01 17:55,-116.8196,47.7743,M,M,M,170.00,9.00,M,30.09,M,10.00,M,OVC,M,M,M,6000.00,M,M,M,M,KCOE 011755Z AUTO 17009KT 10SM OVC060 A3009 RMK MADISHF
COE,2017-04-01 17:56,-116.8196,47.7743,46.00,37.90,73.18,170.00,10.00,0.00,30.09,1021.50,10.00,M,OVC,M,M,M,6000.00,M,M,M,M,KCOE 011756Z AUTO 17010KT 10SM OVC060 08/03 A3009 RMK AO2 SLP215 T00780033 10078 20017 58008
COE,2017-04-01 18:00,-116.8196,47.7743,M,M,M,160.00,11.00,M,30.09,M,10.00,M,OVC,M,M,M,6000.00,M,M,M,M,KCOE 011800Z AUTO 16011KT 10SM OVC060 A3009 RMK MADISHF
COE,2017-04-01 18:05,-116.8196,47.7743,M,M,M,160.00,11.00,M,30.08,M,10.00,M,OVC,M,M,M,6000.00,M,M,M,M,KCOE 011805Z AUTO 16011KT 10SM OVC060 A3008 RMK MADISHF
COE,2017-04-01 18:10,-116.8196,47.7743,M,M,M,M,M,M,30.07,M,10.00,M,OVC,M,M,M,6000.00,M,M,M,M,KCOE 011810Z AUTO /////KT 10SM OVC060 A3007 RMK MADISHF
COE,2017-04-01 18:15,-116.8196,47.7743,M,M,M,M,M,M,30.07,M,10.00,M,OVC,M,M,M,6000.00,M,M,M,M,KCOE 011815Z AUTO /////KT 10SM OVC060 A3007 RMK MADISHF
COE,2017-04-01 18:20,-116.8196,47.7743,M,M,M,M,M,M,30.07,M,10.00,M,OVC,M,M,M,6000.00,M,M,M,M,KCOE 011820Z AUTO /////KT 10SM OVC060 A3007 RMK MADISHF
COE,2017-04-01 18:25,-116.8196,47.7743,M,M,M,M,M,M,30.07,M,10.00,M,OVC,M,M,M,6000.00,M,M,M,M,KCOE 011825Z AUTO /////KT 10SM OVC060 A3007 RMK MADISHF
COE,2017-04-01 18:30,-116.8196,47.7743,M,M,M,160.00,10.00,M,30.07,M,10.00,M,OVC,M,M,M,5500.00,M,M,M,M,KCOE 011830Z AUTO 16010KT 10SM OVC055 A3007 RMK MADISHF
COE,2017-04-01 18:35,-116.8196,47.7743,M,M,M,160.00,12.00,M,30.07,M,10.00,17.00,OVC,M,M,M,5500.00,M,M,M,M,KCOE 011835Z AUTO 16012G17KT 10SM OVC055 A3007 RMK MADISHF
COE,2017-04-01 18:40,-116.8196,47.7743,M,M,M,M,M,M,30.07,M,10.00,M,OVC,M,M,M,5500.00,M,M,M,M,KCOE 011840Z AUTO /////KT 10SM OVC055 A3007 RMK MADISHF
COE,2017-04-01 18:45,-116.8196,47.7743,M,M,M,170.00,10.00,M,30.07,M,10.00,M,OVC,M,M,M,5500.00,M,M,M,M,KCOE 011845Z AUTO 17010KT 10SM OVC055 A3007 RMK MADISHF
COE,2017-04-01 18:50,-116.8196,47.7743,M,M,M,170.00,9.00,M,30.07,M,10.00,M,OVC,M,M,M,5500.00,M,M,M,M,KCOE 011850Z AUTO 17009KT 10SM OVC055 A3007 RMK MADISHF
COE,2017-04-01 18:55,-116.8196,47.7743,M,M,M,170.00,10.00,M,30.07,M,10.00,M,OVC,M,M,M,5500.00,M,M,M,M,KCOE 011855Z AUTO 17010KT 10SM OVC055 A3007 RMK MADISHF
COE,2017-04-01 18:56,-116.8196,47.7743,48.00,37.00,65.51,170.00,10.00,0.00,30.07,1021.00,10.00,M,OVC,M,M,M,5500.00,M,M,M,M,KCOE 011856Z AUTO 17010KT 10SM OVC055 09/03 A3007 RMK AO2 SLP210 T00890028
COE,2017-04-01 19:00,-116.8196,47.7743,M,M,M,160.00,11.00,M,30.07,M,10.00,M,OVC,M,M,M,5500.00,M,M,M,M,KCOE 011900Z AUTO 16011KT 10SM OVC055 A3007 RMK MADISHF
COE,2017-04-01 19:05,-116.8196,47.7743,M,M,M,170.00,11.00,M,30.07,M,10.00,M,OVC,M,M,M,5500.00,M,M,M,M,KCOE 011905Z AUTO 17011KT 10SM OVC055 A3007 RMK MADISHF
COE,2017-04-01 19:10,-116.8196,47.7743,M,M,M,170.00,9.00,M,30.07,M,10.00,M,OVC,M,M,M,5500.00,M,M,M,M,KCOE 011910Z AUTO 17009KT 10SM OVC055 A3007 RMK MADISHF
COE,2017-04-01 19:15,-116.8196,47.7743,M,M,M,160.00,8.00,M,30.07,M,10.00,M,OVC,M,M,M,5500.00,M,M,M,M,KCOE 011915Z AUTO 16008KT 10SM OVC055 A3007 RMK MADISHF
COE,2017-04-01 19:20,-116.8196,47.7743,M,M,M,170.00,8.00,M,30.07,M,10.00,M,OVC,M,M,M,5500.00,M,M,M,M,KCOE 011920Z AUTO 17008KT 10SM OVC055 A3007 RMK MADISHF
COE,2017-04-01 19:25,-116.8196,47.7743,M,M,M,170.00,7.00,M,30.07,M,10.00,M,OVC,M,M,M,5500.00,M,M,M,M,KCOE 011925Z AUTO 17007KT 10SM OVC055 A3007 RMK MADISHF
COE,2017-04-01 19:30,-116.8196,47.7743,M,M,M,170.00,7.00,M,30.07,M,10.00,M,OVC,M,M,M,5500.00,M,M,M,M,KCOE 011930Z AUTO 17007KT 10SM OVC055 A3007 RMK MADISHF
COE,2017-04-01 19:35,-116.8196,47.7743,M,M,M,170.00,7.00,M,30.07,M,10.00,M,OVC,M,M,M,5500.00,M,M,M,M,KCOE 011935Z AUTO 17007KT 10SM OVC055 A3007 RMK MADISHF
COE,2017-04-01 19:40,-116.8196,47.7743,M,M,M,160.00,7.00,M,30.07,M,10.00,M,OVC,M,M,M,5500.00,M,M,M,M,KCOE 011940Z AUTO 16007KT 10SM OVC055 A3007 RMK MADISHF
COE,2017-04-01 19:45,-116.8196,47.7743,M,M,M,160.00,8.00,M,30.06,M,10.00,M,OVC,M,M,M,5500.00,M,M,M,M,KCOE 011945Z AUTO 16008KT 10SM OVC055 A3006 RMK MADISHF
COE,2017-04-01 19:50,-116.8196,47.7743,M,M,M,150.00,8.00,M,30.06,M,10.00,M,OVC,M,M,M,5500.00,M,M,M,M,KCOE 011950Z AUTO 15008KT 10SM OVC055 A3006 RMK MADISHF
COE,2017-04-01 19:55,-116.8196,47.7743,M,M,M,150.00,8.00,M,30.06,M,10.00,M,OVC,M,M,M,5500.00,M,M,M,M,KCOE 011955Z AUTO 15008KT 10SM OVC055 A3006 RMK MADISHF
COE,2017-04-01 19:56,-116.8196,47.7743,50.00,37.90,62.98,150.00,8.00,0.00,30.06,1020.50,10.00,M,OVC,M,M,M,5500.00,M,M,M,M,KCOE 011956Z AUTO 15008KT 10SM OVC055 10/03 A3006 RMK AO2 SLP205 T01000033
COE,2017-04-01 20:00,-116.8196,47.7743,M,M,M,160.00,7.00,M,30.06,M,10.00,M,OVC,M,M,M,5500.00,M,M,M,M,KCOE 012000Z AUTO 16007KT 10SM OVC055 A3006 RMK MADISHF
COE,2017-04-01 20:05,-116.8196,47.7743,M,M,M,160.00,8.00,M,30.06,M,10.00,M,OVC,M,M,M,5500.00,M,M,M,M,KCOE 012005Z AUTO 16008KT 10SM OVC055 A3006 RMK MADISHF
COE,2017-04-01 20:10,-116.8196,47.7743,M,M,M,170.00,8.00,M,30.06,M,10.00,M,OVC,M,M,M,5500.00,M,M,M,M,KCOE 012010Z AUTO 17008KT 10SM OVC055 A3006 RMK MADISHF
COE,2017-04-01 20:15,-116.8196,47.7743,M,M,M,170.00,7.00,M,30.06,M,10.00,M,OVC,M,M,M,5000.00,M,M,M,M,KCOE 012015Z AUTO 17007KT 10SM OVC050 A3006 RMK MADISHF
COE,2017-04-01 20:20,-116.8196,47.7743,M,M,M,160.00,8.00,M,30.06,M,10.00,M,OVC,M,M,M,5000.00,M,M,M,M,KCOE 012020Z AUTO 16008KT 10SM OVC050 A3006 RMK MADISHF
COE,2017-04-01 20:25,-116.8196,47.7743,M,M,M,190.00,7.00,M,30.06,M,10.00,M,OVC,M,M,M,5000.00,M,M,M,M,KCOE 012025Z AUTO 19007KT 10SM OVC050 A3006 RMK MADISHF
COE,2017-04-01 20:30,-116.8196,47.7743,M,M,M,170.00,6.00,M,30.05,M,10.00,M,OVC,M,M,M,5000.00,M,M,M,M,KCOE 012030Z AUTO 17006KT 10SM OVC050 A3005 RMK MADISHF
COE,2017-04-01 20:35,-116.8196,47.7743,M,M,M,160.00,6.00,M,30.05,M,10.00,M,OVC,M,M,M,5000.00,M,M,M,M,KCOE 012035Z AUTO 16006KT 10SM OVC050 A3005 RMK MADISHF
COE,2017-04-01 20:40,-116.8196,47.7743,M,M,M,180.00,7.00,M,30.05,M,10.00,M,OVC,M,M,M,5000.00,M,M,M,M,KCOE 012040Z AUTO 18007KT 10SM OVC050 A3005 RMK MADISHF
COE,2017-04-01 20:45,-116.8196,47.7743,M,M,M,180.00,7.00,M,30.05,M,10.00,M,OVC,M,M,M,4800.00,M,M,M,M,KCOE 012045Z AUTO 18007KT 10SM OVC048 A3005 RMK MADISHF
COE,2017-04-01 20:50,-116.8196,47.7743,M,M,M,170.00,8.00,M,30.04,M,10.00,M,OVC,M,M,M,4800.00,M,M,M,M,KCOE 012050Z AUTO 17008KT 10SM OVC048 A3004 RMK MADISHF
COE,2017-04-01 20:55,-116.8196,47.7743,M,M,M,170.00,9.00,M,30.04,M,10.00,M,OVC,M,M,M,4600.00,M,M,M,M,KCOE 012055Z AUTO 17009KT 10SM OVC046 A3004 RMK MADISHF
COE,2017-04-01 20:56,-116.8196,47.7743,52.00,37.90,58.48,180.00,10.00,0.00,30.04,1019.80,10.00,M,OVC,M,M,M,4600.00,M,M,M,M,KCOE 012056Z AUTO 18010KT 10SM OVC046 11/03 A3004 RMK AO2 SLP198 T01110033 58016
COE,2017-04-01 21:00,-116.8196,47.7743,M,M,M,180.00,10.00,M,30.04,M,10.00,M,OVC,M,M,M,4400.00,M,M,M,M,KCOE 012100Z AUTO 18010KT 10SM OVC044 A3004 RMK MADISHF
COE,2017-04-01 21:05,-116.8196,47.7743,M,M,M,230.00,9.00,M,30.04,M,10.00,M,OVC,M,M,M,4400.00,M,M,M,M,KCOE 012105Z AUTO 23009KT 10SM OVC044 A3004 RMK MADISHF
COE,2017-04-01 21:10,-116.8196,47.7743,M,M,M,220.00,9.00,M,30.04,M,10.00,M,OVC,M,M,M,4600.00,M,M,M,M,KCOE 012110Z AUTO 22009KT 10SM OVC046 A3004 RMK MADISHF
COE,2017-04-01 21:15,-116.8196,47.7743,M,M,M,210.00,11.00,M,30.04,M,10.00,M,OVC,M,M,M,4600.00,M,M,M,M,KCOE 012115Z AUTO 21011KT 10SM OVC046 A3004 RMK MADISHF
COE,2017-04-01 21:20,-116.8196,47.7743,M,M,M,190.00,14.00,M,30.03,M,10.00,M,OVC,M,M,M,4600.00,M,M,M,M,KCOE 012120Z AUTO 19014KT 10SM OVC046 A3003 RMK MADISHF
COE,2017-04-01 21:25,-116.8196,47.7743,M,M,M,200.00,13.00,M,30.03,M,10.00,M,OVC,M,M,M,4600.00,M,M,M,M,KCOE 012125Z AUTO 20013KT 10SM OVC046 A3003 RMK MADISHF
COE,2017-04-01 21:30,-116.8196,47.7743,M,M,M,190.00,13.00,M,30.04,M,10.00,M,OVC,M,M,M,4600.00,M,M,M,M,KCOE 012130Z AUTO 19013KT 10SM OVC046 A3004 RMK MADISHF
COE,2017-04-01 21:35,-116.8196,47.7743,M,M,M,M,M,M,30.04,M,10.00,M,OVC,M,M,M,4600.00,M,M,M,M,KCOE 012135Z AUTO /////KT 10SM OVC046 A3004 RMK MADISHF
COE,2017-04-01 21:40,-116.8196,47.7743,M,M,M,190.00,13.00,M,30.04,M,10.00,M,OVC,M,M,M,4600.00,M,M,M,M,KCOE 012140Z AUTO 19013KT 10SM OVC046 A3004 RMK MADISHF
COE,2017-04-01 21:45,-116.8196,47.7743,M,M,M,M,M,M,30.03,M,10.00,M,OVC,M,M,M,4600.00,M,M,M,M,KCOE 012145Z AUTO /////KT 10SM OVC046 A3003 RMK MADISHF
COE,2017-04-01 21:50,-116.8196,47.7743,M,M,M,M,M,M,30.03,M,10.00,M,OVC,M,M,M,4600.00,M,M,M,M,KCOE 012150Z AUTO /////KT 10SM OVC046 A3003 RMK MADISHF
COE,2017-04-01 21:55,-116.8196,47.7743,M,M,M,M,M,M,30.03,M,10.00,M,OVC,M,M,M,4600.00,M,M,M,M,KCOE 012155Z AUTO /////KT 10SM OVC046 A3003 RMK MADISHF
COE,2017-04-01 21:56,-116.8196,47.7743,50.00,37.90,62.98,170.00,13.00,0.00,30.03,1019.50,10.00,M,OVC,M,M,M,4600.00,M,M,M,M,KCOE 012156Z AUTO 17013KT 10SM OVC046 10/03 A3003 RMK AO2 SLP195 T01000033
COE,2017-04-01 22:00,-116.8196,47.7743,M,M,M,M,M,M,30.03,M,10.00,M,OVC,M,M,M,4400.00,M,M,M,M,KCOE 012200Z AUTO /////KT 10SM OVC044 A3003 RMK MADISHF
COE,2017-04-01 22:05,-116.8196,47.7743,M,M,M,180.00,13.00,M,30.03,M,10.00,M,OVC,M,M,M,4400.00,M,M,M,M,KCOE 012205Z AUTO 18013KT 10SM OVC044 A3003 RMK MADISHF
COE,2017-04-01 22:10,-116.8196,47.7743,M,M,M,170.00,11.00,M,30.03,M,10.00,M,OVC,M,M,M,4400.00,M,M,M,M,KCOE 012210Z AUTO 17011KT 10SM OVC044 A3003 RMK MADISHF
COE,2017-04-01 22:15,-116.8196,47.7743,M,M,M,180.00,11.00,M,30.03,M,10.00,M,OVC,M,M,M,4400.00,M,M,M,M,KCOE 012215Z AUTO 18011KT 10SM OVC044 A3003 RMK MADISHF
COE,2017-04-01 22:20,-116.8196,47.7743,M,M,M,190.00,11.00,M,30.03,M,10.00,M,OVC,M,M,M,4400.00,M,M,M,M,KCOE 012220Z AUTO 19011KT 10SM OVC044 A3003 RMK MADISHF
COE,2017-04-01 22:25,-116.8196,47.7743,M,M,M,180.00,9.00,M,30.03,M,10.00,M,OVC,M,M,M,4400.00,M,M,M,M,KCOE 012225Z AUTO 18009KT 10SM OVC044 A3003 RMK MADISHF
COE,2017-04-01 22:30,-116.8196,47.7743,M,M,M,170.00,9.00,M,30.03,M,10.00,M,OVC,M,M,M,4200.00,M,M,M,M,KCOE 012230Z AUTO 17009KT 10SM OVC042 A3003 RMK MADISHF
COE,2017-04-01 22:35,-116.8196,47.7743,M,M,M,180.00,8.00,M,30.04,M,10.00,M,OVC,M,M,M,4200.00,M,M,M,M,KCOE 012235Z AUTO 18008KT 10SM OVC042 A3004 RMK MADISHF
COE,2017-04-01 22:40,-116.8196,47.7743,M,M,M,180.00,9.00,M,30.04,M,10.00,M,OVC,M,M,M,4200.00,M,M,M,M,KCOE 012240Z AUTO 18009KT 10SM OVC042 A3004 RMK MADISHF
COE,2017-04-01 22:45,-116.8196,47.7743,M,M,M,170.00,9.00,M,30.04,M,10.00,M,OVC,M,M,M,4200.00,M,M,M,M,KCOE 012245Z AUTO 17009KT 10SM OVC042 A3004 RMK MADISHF
COE,2017-04-01 22:50,-116.8196,47.7743,M,M,M,170.00,9.00,M,30.04,M,10.00,M,OVC,M,M,M,4200.00,M,M,M,M,KCOE 012250Z AUTO 17009KT 10SM OVC042 A3004 RMK MADISHF
COE,2017-04-01 22:55,-116.8196,47.7743,M,M,M,150.00,9.00,M,30.03,M,10.00,M,OVC,M,M,M,4200.00,M,M,M,M,KCOE 012255Z AUTO 15009KT 10SM OVC042 A3003 RMK MADISHF
COE,2017-04-01 22:56,-116.8196,47.7743,50.00,37.90,62.98,160.00,8.00,0.00,30.04,1020.00,10.00,M,OVC,M,M,M,4200.00,M,M,M,M,KCOE 012256Z AUTO 16008KT 10SM OVC042 10/03 A3004 RMK AO2 SLP200 T01000033
COE,2017-04-01 23:00,-116.8196,47.7743,M,M,M,160.00,9.00,M,30.03,M,10.00,M,OVC,M,M,M,4200.00,M,M,M,M,KCOE 012300Z AUTO 16009KT 10SM OVC042 A3003 RMK MADISHF
COE,2017-04-01 23:05,-116.8196,47.7743,M,M,M,170.00,9.00,M,30.03,M,10.00,M,OVC,M,M,M,4200.00,M,M,M,M,KCOE 012305Z AUTO 17009KT 10SM OVC042 A3003 RMK MADISHF
COE,2017-04-01 23:10,-116.8196,47.7743,M,M,M,170.00,7.00,M,30.03,M,10.00,M,OVC,M,M,M,4200.00,M,M,M,M,KCOE 012310Z AUTO 17007KT 10SM OVC042 A3003 RMK MADISHF
COE,2017-04-01 23:15,-116.8196,47.7743,M,M,M,160.00,8.00,M,30.03,M,10.00,M,OVC,M,M,M,4200.00,M,M,M,M,KCOE 012315Z AUTO 16008KT 10SM OVC042 A3003 RMK MADISHF
COE,2017-04-01 23:20,-116.8196,47.7743,M,M,M,170.00,8.00,M,30.03,M,10.00,M,OVC,M,M,M,4200.00,M,M,M,M,KCOE 012320Z AUTO 17008KT 10SM OVC042 A3003 RMK MADISHF
COE,2017-04-01 23:25,-116.8196,47.7743,M,M,M,170.00,8.00,M,30.03,M,10.00,M,OVC,M,M,M,4200.00,M,M,M,M,KCOE 012325Z AUTO 17008KT 10SM OVC042 A3003 RMK MADISHF
COE,2017-04-01 23:30,-116.8196,47.7743,M,M,M,150.00,9.00,M,30.03,M,10.00,M,OVC,M,M,M,4200.00,M,M,M,M,KCOE 012330Z AUTO 15009KT 10SM OVC042 A3003 RMK MADISHF
COE,2017-04-01 23:35,-116.8196,47.7743,M,M,M,160.00,6.00,M,30.03,M,10.00,M,OVC,M,M,M,4200.00,M,M,M,M,KCOE 012335Z AUTO 16006KT 10SM OVC042 A3003 RMK MADISHF
COE,2017-04-01 23:40,-116.8196,47.7743,M,M,M,140.00,6.00,M,30.03,M,10.00,M,OVC,M,M,M,4200.00,M,M,M,M,KCOE 012340Z AUTO 14006KT 10SM OVC042 A3003 RMK MADISHF
COE,2017-04-01 23:45,-116.8196,47.7743,M,M,M,150.00,6.00,M,30.04,M,10.00,M,OVC,M,M,M,3999.00,M,M,M,M,KCOE 012345Z AUTO 15006KT 10SM OVC039 A3004 RMK MADISHF
COE,2017-04-01 23:50,-116.8196,47.7743,M,M,M,150.00,5.00,M,30.04,M,10.00,M,OVC,M,M,M,3999.00,M,M,M,M,KCOE 012350Z AUTO 15005KT 10SM OVC039 A3004 RMK MADISHF
COE,2017-04-01 23:55,-116.8196,47.7743,M,M,M,140.00,4.00,M,30.04,M,10.00,M,OVC,M,M,M,3999.00,M,M,M,M,KCOE 012355Z AUTO 14004KT 10SM OVC039 A3004 RMK MADISHF
COE,2017-04-01 23:56,-116.8196,47.7743,50.00,39.00,65.75,140.00,4.00,0.00,30.04,1019.90,10.00,M,OVC,M,M,M,4000.00,M,M,M,M,KCOE 012356Z AUTO 14004KT 10SM OVC040 10/04 A3004 RMK AO2 SLP199 T01000039 10111 20078 56000
