#DEBUG: Format Typ    -> comma
#DEBUG: Time Period   -> 2017-04-01 00:00:00+00:00 2017-04-02 00:00:00+00:00
#DEBUG: Time Zone     -> Etc/UTC
#DEBUG: Data Contact   -> daryl herzmann akrherz@iastate.edu 515-294-5978
#DEBUG: Entries Found -> -1
station,valid,lon,lat,tmpf, dwpf, relh, drct, sknt, p01i, alti, mslp, vsby, gust, skyc1, skyc2, skyc3, skyc4, skyl1, skyl2, skyl3, skyl4, presentwx, metar
COQ,2017-04-01 00:15,-92.5036,46.7011,53.60,17.60,23.93,340.00,3.00,0.00,30.04,M,10.00,M,CLR,M,M,M,M,M,M,M,M,KCOQ 010015Z AUTO 34003KT 10SM CLR 12/M08 A3004 RMK AO2
COQ,2017-04-01 00:35,-92.5036,46.7011,51.80,19.40,27.62,0.00,0.00,0.00,30.04,M,10.00,M,CLR,M,M,M,M,M,M,M,M,KCOQ 010035Z AUTO 00000KT 10SM CLR 11/M07 A3004 RMK AO2
COQ,2017-04-01 00:55,-92.5036,46.7011,51.80,19.40,27.62,0.00,0.00,0.00,30.04,M,10.00,M,CLR,M,M,M,M,M,M,M,M,KCOQ 010055Z AUTO 00000KT 10SM CLR 11/M07 A3004 RMK AO2
COQ,2017-04-01 01:15,-92.5036,46.7011,44.60,19.40,36.18,0.00,0.00,0.00,30.05,M,10.00,M,CLR,M,M,M,M,M,M,M,M,KCOQ 010115Z AUTO 00000KT 10SM CLR 07/M07 A3005 RMK AO2
COQ,2017-04-01 01:35,-92.5036,46.7011,42.80,21.20,41.84,0.00,0.00,0.00,30.06,M,10.00,M,CLR,M,M,M,M,M,M,M,M,KCOQ 010135Z AUTO 00000KT 10SM CLR 06/M06 A3006 RMK AO2
COQ,2017-04-01 01:55,-92.5036,46.7011,42.80,21.20,41.84,0.00,0.00,0.00,30.07,M,10.00,M,CLR,M,M,M,M,M,M,M,M,KCOQ 010155Z AUTO 00000KT 10SM CLR 06/M06 A3007 RMK AO2
COQ,2017-04-01 02:15,-92.5036,46.7011,42.80,21.20,41.84,0.00,0.00,0.00,30.07,M,10.00,M,CLR,M,M,M,M,M,M,M,M,KCOQ 010215Z AUTO 00000KT 10SM CLR 06/M06 A3007 RMK AO2
COQ,2017-04-01 02:35,-92.5036,46.7011,39.20,21.20,48.10,0.00,0.00,0.00,30.07,M,10.00,M,CLR,M,M,M,M,M,M,M,M,KCOQ 010235Z AUTO 00000KT 10SM CLR 04/M06 A3007 RMK AO2
COQ,2017-04-01 02:55,-92.5036,46.7011,39.20,21.20,48.10,0.00,0.00,0.00,30.08,M,10.00,M,CLR,M,M,M,M,M,M,M,M,KCOQ 010255Z AUTO 00000KT 10SM CLR 04/M06 A3008 RMK AO2
COQ,2017-04-01 03:15,-92.5036,46.7011,37.40,21.20,51.61,0.00,0.00,0.00,30.08,M,10.00,M,CLR,M,M,M,M,M,M,M,M,KCOQ 010315Z AUTO 00000KT 10SM CLR 03/M06 A3008 RMK AO2
COQ,2017-04-01 03:35,-92.5036,46.7011,35.60,23.00,59.79,0.00,0.00,0.00,30.09,M,10.00,M,CLR,M,M,M,M,M,M,M,M,KCOQ 010335Z AUTO 00000KT 10SM CLR 02/M05 A3009 RMK AO2
COQ,2017-04-01 03:55,-92.5036,46.7011,35.60,21.20,55.41,0.00,0.00,0.00,30.09,M,10.00,M,CLR,M,M,M,M,M,M,M,M,KCOQ 010355Z AUTO 00000KT 10SM CLR 02/M06 A3009 RMK AO2
COQ,2017-04-01 04:15,-92.5036,46.7011,33.80,21.20,59.53,0.00,0.00,0.00,30.09,M,10.00,M,CLR,M,M,M,M,M,M,M,M,KCOQ 010415Z AUTO 00000KT 10SM CLR 01/M06 A3009 RMK AO2
COQ,2017-04-01 04:35,-92.5036,46.7011,33.80,21.20,59.53,0.00,0.00,0.00,30.10,M,10.00,M,CLR,M,M,M,M,M,M,M,M,KCOQ 010435Z AUTO 00000KT 10SM CLR 01/M06 A3010 RMK AO2
COQ,2017-04-01 04:55,-92.5036,46.7011,32.00,23.00,69.04,0.00,0.00,0.00,30.11,M,10.00,M,CLR,M,M,M,M,M,M,M,M,KCOQ 010455Z AUTO 00000KT 10SM CLR 00/M05 A3011 RMK AO2
COQ,2017-04-01 05:14,-92.5036,46.7011,32.00,21.20,63.99,0.00,0.00,0.00,30.11,M,10.00,M,CLR,M,M,M,M,M,M,M,M,KCOQ 010514Z AUTO 00000KT 10SM CLR 00/M06 A3011 RMK AO2
COQ,2017-04-01 05:35,-92.5036,46.7011,30.20,23.00,74.26,290.00,4.00,0.00,30.11,M,10.00,M,CLR,M,M,M,M,M,M,M,M,KCOQ 010535Z AUTO 29004KT 10SM CLR M01/M05 A3011 RMK AO2
COQ,2017-04-01 05:55,-92.5036,46.7011,35.60,24.80,64.46,310.00,3.00,0.00,30.12,M,10.00,M,CLR,M,M,M,M,M,M,M,M,KCOQ 010555Z AUTO 31003KT 10SM CLR 02/M04 A3012 RMK AO2
COQ,2017-04-01 06:14,-92.5036,46.7011,35.60,24.80,64.46,320.00,3.00,0.00,30.12,M,10.00,M,CLR,M,M,M,M,M,M,M,M,KCOQ 010614Z AUTO 32003KT 10SM CLR 02/M04 A3012 RMK AO2
COQ,2017-04-01 06:35,-92.5036,46.7011,30.20,24.80,80.07,0.00,0.00,0.00,30.12,M,10.00,M,CLR,M,M,M,M,M,M,M,M,KCOQ 010635Z AUTO 00000KT 10SM CLR M01/M04 A3012 RMK AO2
COQ,2017-04-01 06:55,-92.5036,46.7011,32.00,24.80,74.44,0.00,0.00,0.00,30.12,M,10.00,M,CLR,M,M,M,M,M,M,M,M,KCOQ 010655Z AUTO 00000KT 10SM CLR 00/M04 A3012 RMK AO2
COQ,2017-04-01 07:15,-92.5036,46.7011,30.20,23.00,74.26,0.00,0.00,0.00,30.12,M,10.00,M,CLR,M,M,M,M,M,M,M,M,KCOQ 010715Z AUTO 00000KT 10SM CLR M01/M05 A3012 RMK AO2
COQ,2017-04-01 07:35,-92.5036,46.7011,30.20,23.00,74.26,0.00,0.00,0.00,30.12,M,10.00,M,CLR,M,M,M,M,M,M,M,M,KCOQ 010735Z AUTO 00000KT 10SM CLR M01/M05 A3012 RMK AO2
COQ,2017-04-01 07:55,-92.5036,46.7011,30.20,24.80,80.07,0.00,0.00,0.00,30.12,M,10.00,M,CLR,M,M,M,M,M,M,M,M,KCOQ 010755Z AUTO 00000KT 10SM CLR M01/M04 A3012 RMK AO2
COQ,2017-04-01 08:15,-92.5036,46.7011,30.20,23.00,74.26,0.00,0.00,0.00,30.12,M,10.00,M,CLR,M,M,M,M,M,M,M,M,KCOQ 010815Z AUTO 00000KT 10SM CLR M01/M05 A3012 RMK AO2
COQ,2017-04-01 08:35,-92.5036,46.7011,30.20,24.80,80.07,0.00,0.00,0.00,30.12,M,10.00,M,CLR,M,M,M,M,M,M,M,M,KCOQ 010835Z AUTO 00000KT 10SM CLR M01/M04 A3012 RMK AO2
COQ,2017-04-01 08:55,-92.5036,46.7011,30.20,24.80,80.07,0.00,0.00,0.00,30.13,M,10.00,M,SCT,M,M,M,9500.00,M,M,M,M,KCOQ 010855Z AUTO 00000KT 10SM SCT095 M01/M04 A3013 RMK AO2
COQ,2017-04-01 09:15,-92.5036,46.7011,30.20,24.80,80.07,340.00,8.00,0.00,30.13,M,10.00,M,BKN,M,M,M,9500.00,M,M,M,M,KCOQ 010915Z AUTO 34008KT 10SM BKN095 M01/M04 A3013 RMK AO2
COQ,2017-04-01 09:35,-92.5036,46.7011,33.80,24.80,69.25,0.00,0.00,0.00,30.13,M,10.00,M,OVC,M,M,M,9500.00,M,M,M,M,KCOQ 010935Z AUTO 00000KT 10SM OVC095 01/M04 A3013 RMK AO2
COQ,2017-04-01 09:55,-92.5036,46.7011,32.00,24.80,74.44,290.00,3.00,0.00,30.13,M,10.00,M,SCT,M,M,M,9500.00,M,M,M,M,KCOQ 010955Z AUTO 29003KT 10SM SCT095 00/M04 A3013 RMK AO2
COQ,2017-04-01 10:15,-92.5036,46.7011,32.00,24.80,74.44,0.00,0.00,0.00,30.13,M,10.00,M,CLR,M,M,M,M,M,M,M,M,KCOQ 011015Z AUTO 00000KT 10SM CLR 00/M04 A3013 RMK AO2
COQ,2017-04-01 10:35,-92.5036,46.7011,32.00,24.80,74.44,0.00,0.00,0.00,30.13,M,10.00,M,CLR,M,M,M,M,M,M,M,M,KCOQ 011035Z AUTO 00000KT 10SM CLR 00/M04 A3013 RMK AO2
COQ,2017-04-01 10:55,-92.5036,46.7011,33.80,24.80,69.25,0.00,0.00,0.00,30.13,M,10.00,M,CLR,M,M,M,M,M,M,M,M,KCOQ 011055Z AUTO 00000KT 10SM CLR 01/M04 A3013 RMK AO2
COQ,2017-04-01 11:15,-92.5036,46.7011,32.00,26.60,80.22,310.00,3.00,0.00,30.13,M,10.00,M,SCT,M,M,M,11000.00,M,M,M,M,KCOQ 011115Z AUTO 31003KT 10SM SCT110 00/M03 A3013 RMK AO2
COQ,2017-04-01 11:35,-92.5036,46.7011,33.80,26.60,74.63,300.00,7.00,0.00,30.14,M,10.00,M,SCT,M,M,M,11000.00,M,M,M,M,KCOQ 011135Z AUTO 30007KT 10SM SCT110 01/M03 A3014 RMK AO2
COQ,2017-04-01 11:55,-92.5036,46.7011,35.60,26.60,69.46,300.00,5.00,0.00,30.14,M,10.00,M,BKN,M,M,M,10000.00,M,M,M,M,KCOQ 011155Z AUTO 30005KT 10SM BKN100 02/M03 A3014 RMK AO2
COQ,2017-04-01 12:15,-92.5036,46.7011,35.60,26.60,69.46,320.00,5.00,0.00,30.15,M,10.00,M,BKN,M,M,M,10000.00,M,M,M,M,KCOQ 011215Z AUTO 32005KT 10SM BKN100 02/M03 A3015 RMK AO2
COQ,2017-04-01 12:35,-92.5036,46.7011,37.40,26.60,64.70,340.00,5.00,0.00,30.15,M,10.00,M,SCT,BKN,OVC,M,6000.00,6500.00,9000.00,M,M,KCOQ 011235Z AUTO 34005KT 10SM SCT060 BKN065 OVC090 03/M03 A3015 RMK AO2
COQ,2017-04-01 12:55,-92.5036,46.7011,37.40,28.40,69.67,310.00,4.00,0.00,30.15,M,10.00,M,SCT,BKN,M,M,4400.00,5000.00,M,M,-RA,KCOQ 011255Z AUTO 31004KT 10SM -RA SCT044 BKN050 03/M02 A3015 RMK AO2
COQ,2017-04-01 13:15,-92.5036,46.7011,37.40,28.40,69.67,320.00,4.00,0.00,30.16,M,10.00,M,SCT,BKN,M,M,4400.00,5000.00,M,M,-RA,KCOQ 011315Z AUTO 32004KT 10SM -RA SCT044 BKN050 03/M02 A3016 RMK AO2
COQ,2017-04-01 13:35,-92.5036,46.7011,39.20,30.20,69.88,300.00,6.00,0.00,30.16,M,10.00,M,SCT,BKN,OVC,M,4300.00,5000.00,6000.00,M,-RA,KCOQ 011335Z AUTO 30006KT 10SM -RA SCT043 BKN050 OVC060 04/M01 A3016 RMK AO2
COQ,2017-04-01 13:55,-92.5036,46.7011,39.20,30.20,69.88,320.00,4.00,0.00,30.16,M,10.00,M,SCT,BKN,OVC,M,4300.00,5000.00,7000.00,M,M,KCOQ 011355Z AUTO 32004KT 10SM SCT043 BKN050 OVC070 04/M01 A3016 RMK AO2
COQ,2017-04-01 14:15,-92.5036,46.7011,39.20,30.20,69.88,0.00,0.00,0.00,30.16,M,10.00,M,OVC,M,M,M,6000.00,M,M,M,M,KCOQ 011415Z AUTO 00000KT 10SM OVC060 04/M01 A3016 RMK AO2
COQ,2017-04-01 14:35,-92.5036,46.7011,39.20,30.20,69.88,0.00,0.00,0.00,30.16,M,10.00,M,OVC,M,M,M,6000.00,M,M,M,M,KCOQ 011435Z AUTO 00000KT 10SM OVC060 04/M01 A3016 RMK AO2
COQ,2017-04-01 14:55,-92.5036,46.7011,41.00,30.20,65.16,0.00,0.00,0.00,30.16,M,10.00,M,OVC,M,M,M,6000.00,M,M,M,M,KCOQ 011455Z AUTO 00000KT 10SM OVC060 05/M01 A3016 RMK AO2
COQ,2017-04-01 15:15,-92.5036,46.7011,42.80,30.20,60.79,230.00,3.00,0.00,30.17,M,10.00,M,BKN,OVC,M,M,6000.00,7500.00,M,M,M,KCOQ 011515Z AUTO 23003KT 10SM BKN060 OVC075 06/M01 A3017 RMK AO2
COQ,2017-04-01 15:35,-92.5036,46.7011,44.60,32.00,61.03,230.00,3.00,0.00,30.18,M,10.00,M,SCT,OVC,M,M,6000.00,7500.00,M,M,M,KCOQ 011535Z AUTO 23003KT 10SM SCT060 OVC075 07/00 A3018 RMK AO2
COQ,2017-04-01 15:55,-92.5036,46.7011,44.60,32.00,61.03,200.00,3.00,0.00,30.18,M,10.00,M,BKN,OVC,M,M,6000.00,7500.00,M,M,M,KCOQ 011555Z AUTO 20003KT 10SM BKN060 OVC075 07/00 A3018 RMK AO2
COQ,2017-04-01 16:15,-92.5036,46.7011,46.40,32.00,57.00,0.00,0.00,0.00,30.19,M,10.00,M,OVC,M,M,M,5000.00,M,M,M,M,KCOQ 011615Z AUTO 00000KT 10SM OVC050 08/00 A3019 RMK AO2
COQ,2017-04-01 16:35,-92.5036,46.7011,48.20,33.80,57.26,270.00,4.00,0.00,30.19,M,10.00,M,OVC,M,M,M,5000.00,M,M,M,M,KCOQ 011635Z AUTO 27004KT 10SM OVC050 09/01 A3019 RMK AO2
COQ,2017-04-01 16:55,-92.5036,46.7011,50.00,33.80,53.54,280.00,3.00,0.00,30.18,M,10.00,M,BKN,OVC,M,M,5000.00,6000.00,M,M,M,KCOQ 011655Z AUTO 28003KT 10SM BKN050 OVC060 10/01 A3018 RMK AO2
COQ,2017-04-01 17:15,-92.5036,46.7011,51.80,33.80,50.08,280.00,5.00,0.00,30.17,M,10.00,M,BKN,M,M,M,5000.00,M,M,M,M,KCOQ 011715Z AUTO 28005KT 10SM BKN050 11/01 A3017 RMK AO2
COQ,2017-04-01 17:35,-92.5036,46.7011,53.60,35.60,50.36,280.00,8.00,0.00,30.16,M,10.00,M,SCT,SCT,M,M,3700.00,5000.00,M,M,M,KCOQ 011735Z AUTO 28008KT 10SM SCT037 SCT050 12/02 A3016 RMK AO2
COQ,2017-04-01 17:55,-92.5036,46.7011,55.40,35.60,47.16,280.00,10.00,0.00,30.16,M,10.00,14.00,BKN,M,M,M,3900.00,M,M,M,M,KCOQ 011755Z AUTO 28010G14KT 10SM BKN039 13/02 A3016 RMK AO2
COQ,2017-04-01 18:15,-92.5036,46.7011,55.40,35.60,47.16,260.00,9.00,0.00,30.15,M,10.00,16.00,SCT,BKN,BKN,M,3900.00,5000.00,9000.00,M,M,KCOQ 011815Z AUTO 26009G16KT 212V302 10SM SCT039 BKN050 BKN090 13/02 A3015 RMK AO2
COQ,2017-04-01 18:35,-92.5036,46.7011,55.40,33.80,43.90,270.00,8.00,0.00,30.16,M,10.00,M,SCT,SCT,BKN,M,4100.00,4800.00,6500.00,M,M,KCOQ 011835Z AUTO 27008KT 10SM SCT041 SCT048 BKN065 13/01 A3016 RMK AO2
COQ,2017-04-01 18:55,-92.5036,46.7011,55.40,35.60,47.16,290.00,10.00,0.00,30.16,M,10.00,14.00,SCT,BKN,OVC,M,4100.00,4900.00,9000.00,M,M,KCOQ 011855Z AUTO 29010G14KT 10SM SCT041 BKN049 OVC090 13/02 A3016 RMK AO2
COQ,2017-04-01 19:15,-92.5036,46.7011,55.40,35.60,47.16,280.00,7.00,0.00,30.15,M,10.00,M,SCT,SCT,BKN,M,4900.00,5500.00,9000.00,M,M,KCOQ 011915Z AUTO 28007KT 10SM SCT049 SCT055 BKN090 13/02 A3015 RMK AO2
COQ,2017-04-01 19:35,-92.5036,46.7011,55.40,35.60,47.16,330.00,6.00,0.00,30.14,M,10.00,M,SCT,BKN,M,M,4900.00,9000.00,M,M,M,KCOQ 011935Z AUTO 33006KT 10SM SCT049 BKN090 13/02 A3014 RMK AO2
COQ,2017-04-01 19:55,-92.5036,46.7011,55.40,33.80,43.90,320.00,6.00,0.00,30.14,M,10.00,M,BKN,BKN,M,M,4700.00,5500.00,M,M,M,KCOQ 011955Z AUTO 32006KT 10SM BKN047 BKN055 13/01 A3014 RMK AO2
COQ,2017-04-01 20:15,-92.5036,46.7011,55.40,33.80,43.90,320.00,9.00,0.00,30.13,M,10.00,15.00,SCT,SCT,M,M,4500.00,5500.00,M,M,M,KCOQ 012015Z AUTO 32009G15KT 10SM SCT045 SCT055 13/01 A3013 RMK AO2
COQ,2017-04-01 20:35,-92.5036,46.7011,57.20,33.80,41.13,310.00,7.00,0.00,30.12,M,10.00,18.00,CLR,M,M,M,M,M,M,M,M,KCOQ 012035Z AUTO 31007G18KT 10SM CLR 14/01 A3012 RMK AO2
COQ,2017-04-01 20:55,-92.5036,46.7011,59.00,33.80,38.56,280.00,7.00,0.00,30.11,M,10.00,17.00,CLR,M,M,M,M,M,M,M,M,KCOQ 012055Z AUTO 28007G17KT 10SM CLR 15/01 A3011 RMK AO2
COQ,2017-04-01 21:15,-92.5036,46.7011,57.20,32.00,38.26,300.00,10.00,0.00,30.11,M,10.00,15.00,SCT,SCT,M,M,5000.00,5500.00,M,M,M,KCOQ 012115Z AUTO 30010G15KT 10SM SCT050 SCT055 14/00 A3011 RMK AO2
COQ,2017-04-01 21:35,-92.5036,46.7011,57.20,32.00,38.26,260.00,6.00,0.00,30.11,M,10.00,M,BKN,M,M,M,5000.00,M,M,M,M,KCOQ 012135Z AUTO 26006KT 10SM BKN050 14/00 A3011 RMK AO2
COQ,2017-04-01 21:55,-92.5036,46.7011,57.20,32.00,38.26,290.00,5.00,0.00,30.11,M,10.00,M,SCT,BKN,BKN,M,5000.00,7000.00,7500.00,M,M,KCOQ 012155Z AUTO 29005KT 10SM SCT050 BKN070 BKN075 14/00 A3011 RMK AO2
COQ,2017-04-01 22:15,-92.5036,46.7011,57.20,33.80,41.13,330.00,8.00,0.00,30.11,M,10.00,M,BKN,BKN,M,M,5000.00,7000.00,M,M,M,KCOQ 012215Z AUTO 33008KT 10SM BKN050 BKN070 14/01 A3011 RMK AO2
COQ,2017-04-01 22:35,-92.5036,46.7011,57.20,32.00,38.26,260.00,7.00,0.00,30.10,M,10.00,M,SCT,M,M,M,5000.00,M,M,M,M,KCOQ 012235Z AUTO 26007KT 10SM SCT050 14/00 A3010 RMK AO2
COQ,2017-04-01 22:55,-92.5036,46.7011,57.20,30.20,35.57,270.00,7.00,0.00,30.10,M,10.00,M,SCT,M,M,M,5000.00,M,M,M,M,KCOQ 012255Z AUTO 27007KT 10SM SCT050 14/M01 A3010 RMK AO2
COQ,2017-04-01 23:15,-92.5036,46.7011,57.20,30.20,35.57,260.00,8.00,0.00,30.10,M,10.00,M,SCT,M,M,M,5000.00,M,M,M,M,KCOQ 012315Z AUTO 26008KT 10SM SCT050 14/M01 A3010 RMK AO2
COQ,2017-04-01 23:35,-92.5036,46.7011,55.40,32.00,40.84,330.00,7.00,0.00,30.10,M,10.00,M,SCT,M,M,M,6000.00,M,M,M,M,KCOQ 012335Z AUTO 33007KT 10SM SCT060 13/00 A3010 RMK AO2
COQ,2017-04-01 23:55,-92.5036,46.7011,55.40,33.80,43.90,330.00,3.00,0.00,30.10,M,10.00,M,SCT,M,M,M,6000.00,M,M,M,M,KCOQ 012355Z AUTO 33003KT 10SM SCT060 13/01 A3010 RMK AO2
