#DEBUG: Format Typ    -> comma
#DEBUG: Time Period   -> 2017-04-01 00:00:00+00:00 2017-04-02 00:00:00+00:00
#DEBUG: Time Zone     -> Etc/UTC
#DEBUG: Data Contact   -> daryl herzmann akrherz@iastate.edu 515-294-5978
#DEBUG: Entries Found -> -1
station,valid,lon,lat,tmpf, dwpf, relh, drct, sknt, p01i, alti, mslp, vsby, gust, skyc1, skyc2, skyc3, skyc4, skyl1, skyl2, skyl3, skyl4, presentwx, metar
COS,2017-04-01 00:00,-104.7008,38.8058,M,M,M,90.00,10.00,M,29.92,M,1.75,M,BKN,OVC,M,M,700.00,1200.00,M,M,-RA BR,KCOS 010000Z AUTO 09010KT 2SM -RA BR BKN007 OVC012 A2992 RMK MADISHF
COS,2017-04-01 00:05,-104.7008,38.8058,M,M,M,100.00,10.00,M,29.92,M,1.75,M,BKN,OVC,M,M,700.00,999.00,M,M,-RA BR,KCOS 010005Z AUTO 10010KT 2SM -RA BR BKN007 OVC009 A2992 RMK MADISHF
COS,2017-04-01 00:10,-104.7008,38.8058,M,M,M,M,M,M,29.92,M,1.75,M,OVC,M,M,M,600.00,M,M,M,-RA BR,KCOS 010010Z AUTO /////KT 2SM -RA BR OVC006 A2992 RMK MADISHF
COS,2017-04-01 00:15,-104.7008,38.8058,M,M,M,90.00,10.00,M,29.92,M,1.75,M,BKN,OVC,M,M,600.00,999.00,M,M,-RA BR,KCOS 010015Z AUTO 09010KT 2SM -RA BR BKN006 OVC009 A2992 RMK MADISHF
COS,2017-04-01 00:20,-104.7008,38.8058,M,M,M,90.00,9.00,M,29.92,M,1.50,M,BKN,OVC,M,M,600.00,999.00,M,M,-DZ BR,KCOS 010020Z AUTO 09009KT 1 1/2SM -DZ BR BKN006 OVC009 A2992 RMK MADISHF
COS,2017-04-01 00:25,-104.7008,38.8058,M,M,M,100.00,9.00,M,29.92,M,1.50,M,BKN,OVC,M,M,600.00,999.00,M,M,-DZ BR,KCOS 010025Z AUTO 10009KT 1 1/2SM -DZ BR BKN006 OVC009 A2992 RMK MADISHF
COS,2017-04-01 00:30,-104.7008,38.8058,M,M,M,80.00,9.00,M,29.92,M,1.50,M,BKN,OVC,M,M,600.00,999.00,M,M,-DZ BR,KCOS 010030Z AUTO 08009KT 1 1/2SM -DZ BR BKN006 OVC009 A2992 RMK MADISHF
COS,2017-04-01 00:35,-104.7008,38.8058,M,M,M,70.00,11.00,M,29.93,M,1.50,M,BKN,OVC,M,M,600.00,999.00,M,M,-DZ BR,KCOS 010035Z AUTO 07011KT 1 1/2SM -DZ BR BKN006 OVC009 A2993 RMK MADISHF
COS,2017-04-01 00:40,-104.7008,38.8058,M,M,M,80.00,9.00,M,29.93,M,3.00,M,BKN,OVC,M,M,600.00,999.00,M,M,-DZ BR,KCOS 010040Z AUTO 08009KT 3SM -DZ BR BKN006 OVC009 A2993 RMK MADISHF
COS,2017-04-01 00:45,-104.7008,38.8058,M,M,M,60.00,10.00,M,29.92,M,5.00,M,BKN,OVC,M,M,600.00,999.00,M,M,BR,KCOS 010045Z AUTO 06010KT 5SM BR BKN006 OVC009 A2992 RMK MADISHF
COS,2017-04-01 00:50,-104.7008,38.8058,M,M,M,90.00,9.00,M,29.93,M,5.00,M,BKN,OVC,M,M,600.00,999.00,M,M,BR,KCOS 010050Z AUTO 09009KT 5SM BR BKN006 OVC009 A2993 RMK MADISHF
COS,2017-04-01 00:54,-104.7008,38.8058,35.10,32.00,88.33,100.00,8.00,0.00,29.94,1014.90,5.00,M,BKN,OVC,M,M,600.00,1000.00,M,M,BR,KCOS 010054Z 10008KT 5SM BR BKN006 OVC010 02/00 A2994 RMK AO2 RAE20DZB20E41 SLP149 P0000 T00170000
COS,2017-04-01 00:55,-104.7008,38.8058,M,M,M,90.00,8.00,M,29.94,M,10.00,M,BKN,OVC,M,M,600.00,1300.00,M,M,M,KCOS 010055Z AUTO 09008KT 10SM BKN006 OVC013 A2994 RMK MADISHF
COS,2017-04-01 01:00,-104.7008,38.8058,M,M,M,80.00,8.00,M,29.94,M,8.00,M,BKN,OVC,M,M,700.00,1300.00,M,M,M,KCOS 010100Z AUTO 08008KT 8SM BKN007 OVC013 A2994 RMK MADISHF
COS,2017-04-01 01:05,-104.7008,38.8058,M,M,M,80.00,10.00,M,29.94,M,8.00,M,BKN,OVC,M,M,700.00,1300.00,M,M,M,KCOS 010105Z AUTO 08010KT 8SM BKN007 OVC013 A2994 RMK CIG 5V9  MADISHF
COS,2017-04-01 01:10,-104.7008,38.8058,M,M,M,100.00,8.00,M,29.95,M,10.00,M,BKN,OVC,M,M,700.00,1300.00,M,M,M,KCOS 010110Z AUTO 10008KT 10SM BKN007 OVC013 A2995 RMK CIG 5V10  MADISHF
COS,2017-04-01 01:15,-104.7008,38.8058,M,M,M,100.00,8.00,M,29.96,M,10.00,M,BKN,OVC,M,M,700.00,1500.00,M,M,M,KCOS 010115Z AUTO 10008KT 10SM BKN007 OVC015 A2996 RMK CIG 5V12  MADISHF
COS,2017-04-01 01:20,-104.7008,38.8058,M,M,M,M,M,M,29.96,M,9.00,M,BKN,OVC,M,M,700.00,1500.00,M,M,M,KCOS 010120Z AUTO /////KT 9SM BKN007 OVC015 A2996 RMK CIG 5V11  MADISHF
COS,2017-04-01 01:25,-104.7008,38.8058,M,M,M,90.00,9.00,M,29.96,M,6.00,M,BKN,BKN,OVC,M,499.00,900.00,1500.00,M,M,KCOS 010125Z AUTO 09009KT 6SM BKN004 BKN009 OVC015 A2996 RMK MADISHF
COS,2017-04-01 01:30,-104.7008,38.8058,M,M,M,90.00,8.00,M,29.95,M,5.00,M,BKN,OVC,M,M,499.00,1100.00,M,M,-SN BR,KCOS 010130Z AUTO 09008KT 5SM -SN BR BKN004 OVC011 A2995 RMK MADISHF
COS,2017-04-01 01:35,-104.7008,38.8058,M,M,M,90.00,7.00,M,29.96,M,6.00,M,BKN,OVC,M,M,499.00,1300.00,M,M,-SN BR,KCOS 010135Z AUTO 09007KT 6SM -SN BR BKN004 OVC013 A2996 RMK CIG 5V9  MADISHF
COS,2017-04-01 01:40,-104.7008,38.8058,M,M,M,100.00,10.00,M,29.96,M,8.00,M,BKN,OVC,M,M,600.00,1400.00,M,M,-SN BR,KCOS 010140Z AUTO 10010KT 8SM -SN BR BKN006 OVC014 A2996 RMK MADISHF
COS,2017-04-01 01:45,-104.7008,38.8058,M,M,M,100.00,10.00,M,29.96,M,7.00,M,BKN,OVC,M,M,600.00,1400.00,M,M,-SN BR,KCOS 010145Z AUTO 10010KT 7SM -SN BR BKN006 OVC014 A2996 RMK CIG 5V10  MADISHF
COS,2017-04-01 01:50,-104.7008,38.8058,M,M,M,90.00,10.00,M,29.96,M,4.00,M,BKN,OVC,M,M,600.00,1400.00,M,M,-SN BR,KCOS 010150Z AUTO 09010KT 4SM -SN BR BKN006 OVC014 A2996 RMK MADISHF
COS,2017-04-01 01:54,-104.7008,38.8058,35.10,33.10,92.32,80.00,9.00,0.00,29.96,1015.80,3.00,M,BKN,BKN,OVC,M,600.00,900.00,1400.00,M,-SN BR,KCOS 010154Z 08009KT 3SM -SN BR BKN006 BKN009 OVC014 02/01 A2996 RMK AO2 SNB30 SLP158 P0000 T00170006
COS,2017-04-01 01:55,-104.7008,38.8058,M,M,M,70.00,8.00,M,29.96,M,4.00,M,BKN,BKN,OVC,M,600.00,900.00,1400.00,M,-SN BR,KCOS 010155Z AUTO 07008KT 4SM -SN BR BKN006 BKN009 OVC014 A2996 RMK MADISHF
COS,2017-04-01 02:00,-104.7008,38.8058,M,M,M,70.00,9.00,M,29.95,M,4.00,M,OVC,M,M,M,600.00,M,M,M,-DZ BR,KCOS 010200Z AUTO 07009KT 4SM -DZ BR OVC006 A2995 RMK MADISHF
COS,2017-04-01 02:05,-104.7008,38.8058,M,M,M,60.00,10.00,M,29.95,M,4.00,M,BKN,OVC,M,M,600.00,1100.00,M,M,-DZ BR,KCOS 010205Z AUTO 06010KT 4SM -DZ BR BKN006 OVC011 A2995 RMK MADISHF
COS,2017-04-01 02:10,-104.7008,38.8058,M,M,M,70.00,9.00,M,29.95,M,5.00,M,BKN,OVC,M,M,600.00,1100.00,M,M,-DZ BR,KCOS 010210Z AUTO 07009KT 5SM -DZ BR BKN006 OVC011 A2995 RMK MADISHF
COS,2017-04-01 02:15,-104.7008,38.8058,M,M,M,70.00,8.00,M,29.96,M,5.00,M,BKN,OVC,M,M,600.00,999.00,M,M,-DZ BR,KCOS 010215Z AUTO 07008KT 5SM -DZ BR BKN006 OVC009 A2996 RMK MADISHF
COS,2017-04-01 02:20,-104.7008,38.8058,M,M,M,90.00,10.00,M,29.97,M,4.00,M,BKN,OVC,M,M,400.00,999.00,M,M,-DZ BR,KCOS 010220Z AUTO 09010KT 4SM -DZ BR BKN004 OVC009 A2997 RMK MADISHF
COS,2017-04-01 02:25,-104.7008,38.8058,M,M,M,90.00,9.00,M,29.98,M,4.00,M,BKN,OVC,M,M,400.00,999.00,M,M,-DZ BR,KCOS 010225Z AUTO 09009KT 4SM -DZ BR BKN004 OVC009 A2998 RMK MADISHF
COS,2017-04-01 02:29,-104.7008,38.8058,35.10,32.00,88.33,100.00,8.00,0.00,29.99,M,8.00,M,BKN,OVC,M,M,400.00,1000.00,M,M,-DZ BR,KCOS 010229Z 10008KT 8SM -DZ BR BKN004 OVC010 02/00 A2999 RMK AO2 DZB0159SNE0159 PRESRR P0000 T00170000
COS,2017-04-01 02:30,-104.7008,38.8058,M,M,M,100.00,8.00,M,30.00,M,9.00,M,BKN,OVC,M,M,400.00,999.00,M,M,-DZ BR,KCOS 010230Z AUTO 10008KT 9SM -DZ BR BKN004 OVC009 A3000 RMK MADISHF
COS,2017-04-01 02:35,-104.7008,38.8058,M,M,M,90.00,8.00,M,30.00,M,10.00,M,BKN,OVC,M,M,400.00,999.00,M,M,-DZ BR,KCOS 010235Z AUTO 09008KT 10SM -DZ BR BKN004 OVC009 A3000 RMK MADISHF
COS,2017-04-01 02:40,-104.7008,38.8058,M,M,M,100.00,10.00,M,30.00,M,9.00,M,BKN,OVC,M,M,400.00,999.00,M,M,-DZ BR,KCOS 010240Z AUTO 10010KT 9SM -DZ BR BKN004 OVC009 A3000 RMK MADISHF
COS,2017-04-01 02:45,-104.7008,38.8058,M,M,M,90.00,10.00,M,29.99,M,9.00,M,BKN,OVC,M,M,400.00,999.00,M,M,-DZ BR,KCOS 010245Z AUTO 09010KT 9SM -DZ BR BKN004 OVC009 A2999 RMK MADISHF
COS,2017-04-01 02:50,-104.7008,38.8058,M,M,M,90.00,8.00,M,30.00,M,8.00,M,BKN,OVC,M,M,400.00,999.00,M,M,-DZ BR,KCOS 010250Z AUTO 09008KT 8SM -DZ BR BKN004 OVC009 A3000 RMK MADISHF
COS,2017-04-01 02:54,-104.7008,38.8058,34.00,32.00,92.29,90.00,8.00,0.00,29.99,1017.00,9.00,M,SCT,BKN,OVC,M,400.00,1000.00,1400.00,M,-DZ BR,KCOS 010254Z 09008KT 9SM -DZ BR SCT004 BKN010 OVC014 01/00 A2999 RMK AO2 DZB0159SNE0159 SLP170 P0000 60000 T00110000 53023
COS,2017-04-01 02:55,-104.7008,38.8058,M,M,M,90.00,8.00,M,30.00,M,9.00,M,BKN,OVC,M,M,700.00,1200.00,M,M,-DZ BR,KCOS 010255Z AUTO 09008KT 9SM -DZ BR BKN007 OVC012 A3000 RMK MADISHF
COS,2017-04-01 03:00,-104.7008,38.8058,M,M,M,100.00,8.00,M,30.00,M,10.00,M,OVC,M,M,M,900.00,M,M,M,-DZ BR,KCOS 010300Z AUTO 10008KT 10SM -DZ BR OVC009 A3000 RMK MADISHF
COS,2017-04-01 03:01,-104.7008,38.8058,35.10,32.00,88.33,100.00,9.00,0.00,30.00,M,10.00,M,BKN,OVC,M,M,700.00,1200.00,M,M,-DZ BR,KCOS 010301Z 10009KT 10SM -DZ BR BKN007 OVC012 02/00 A3000 RMK AO2 P0000 T00170000
COS,2017-04-01 03:05,-104.7008,38.8058,M,M,M,100.00,10.00,M,30.00,M,9.00,M,BKN,OVC,M,M,700.00,1200.00,M,M,M,KCOS 010305Z AUTO 10010KT 9SM BKN007 OVC012 A3000 RMK MADISHF
COS,2017-04-01 03:10,-104.7008,38.8058,M,M,M,100.00,9.00,M,30.01,M,6.00,M,OVC,M,M,M,700.00,M,M,M,BR,KCOS 010310Z AUTO 10009KT 6SM BR OVC007 A3001 RMK MADISHF
COS,2017-04-01 03:15,-104.7008,38.8058,M,M,M,90.00,9.00,M,30.02,M,4.00,M,OVC,M,M,M,700.00,M,M,M,BR,KCOS 010315Z AUTO 09009KT 4SM BR OVC007 A3002 RMK MADISHF
COS,2017-04-01 03:20,-104.7008,38.8058,M,M,M,90.00,7.00,M,30.01,M,5.00,M,OVC,M,M,M,700.00,M,M,M,-DZ BR,KCOS 010320Z AUTO 09007KT 5SM -DZ BR OVC007 A3001 RMK MADISHF
COS,2017-04-01 03:25,-104.7008,38.8058,M,M,M,80.00,9.00,M,30.01,M,5.00,M,BKN,OVC,M,M,499.00,900.00,M,M,-DZ BR,KCOS 010325Z AUTO 08009KT 5SM -DZ BR BKN004 OVC009 A3001 RMK MADISHF
COS,2017-04-01 03:30,-104.7008,38.8058,M,M,M,110.00,11.00,M,30.02,M,5.00,18.00,OVC,M,M,M,700.00,M,M,M,-DZ BR,KCOS 010330Z AUTO 11011G18KT 5SM -DZ BR OVC007 A3002 RMK WND 08V16  MADISHF
COS,2017-04-01 03:35,-104.7008,38.8058,M,M,M,140.00,12.00,M,30.03,M,5.00,M,BKN,OVC,M,M,700.00,1100.00,M,M,-DZ BR,KCOS 010335Z AUTO 14012KT 5SM -DZ BR BKN007 OVC011 A3003 RMK WND 11V19  MADISHF
COS,2017-04-01 03:40,-104.7008,38.8058,M,M,M,M,M,M,30.03,M,5.00,M,BKN,OVC,M,M,700.00,1100.00,M,M,-DZ BR,KCOS 010340Z AUTO /////KT 5SM -DZ BR BKN007 OVC011 A3003 RMK MADISHF
COS,2017-04-01 03:45,-104.7008,38.8058,M,M,M,M,M,M,30.02,M,4.00,M,BKN,OVC,M,M,700.00,1100.00,M,M,-DZ BR,KCOS 010345Z AUTO /////KT 4SM -DZ BR BKN007 OVC011 A3002 RMK MADISHF
COS,2017-04-01 03:50,-104.7008,38.8058,M,M,M,90.00,9.00,M,30.03,M,4.00,M,BKN,OVC,M,M,700.00,1100.00,M,M,-DZ BR,KCOS 010350Z AUTO 09009KT 4SM -DZ BR BKN007 OVC011 A3003 RMK MADISHF
COS,2017-04-01 03:54,-104.7008,38.8058,34.00,32.00,92.29,100.00,10.00,0.00,30.04,1018.60,4.00,M,BKN,OVC,M,M,600.00,1100.00,M,M,-DZ BR,KCOS 010354Z 10010KT 4SM -DZ BR BKN006 OVC011 01/00 A3004 RMK AO2 SLP186 P0000 T00110000
COS,2017-04-01 03:55,-104.7008,38.8058,M,M,M,100.00,10.00,M,30.04,M,3.00,M,BKN,OVC,M,M,600.00,1100.00,M,M,-SN BR,KCOS 010355Z AUTO 10010KT 3SM -SN BR BKN006 OVC011 A3004 RMK MADISHF
COS,2017-04-01 04:00,-104.7008,38.8058,M,M,M,90.00,9.00,0.01,30.04,M,3.00,M,BKN,OVC,M,M,600.00,900.00,M,M,-SN BR,KCOS 010400Z AUTO 09009KT 3SM -SN BR BKN006 OVC009 A3004 RMK P0001 MADISHF
COS,2017-04-01 04:05,-104.7008,38.8058,M,M,M,80.00,8.00,0.01,30.04,M,4.00,M,BKN,OVC,M,M,499.00,1200.00,M,M,-SN BR,KCOS 010405Z AUTO 08008KT 4SM -SN BR BKN004 OVC012 A3004 RMK P0001 MADISHF
COS,2017-04-01 04:10,-104.7008,38.8058,M,M,M,90.00,8.00,0.01,30.05,M,4.00,M,SCT,BKN,OVC,M,499.00,999.00,1400.00,M,-SN BR,KCOS 010410Z AUTO 09008KT 4SM -SN BR SCT004 BKN009 OVC014 A3005 RMK P0001 MADISHF
COS,2017-04-01 04:15,-104.7008,38.8058,M,M,M,120.00,9.00,0.01,30.06,M,4.00,M,BKN,OVC,M,M,499.00,1200.00,M,M,-SN BR,KCOS 010415Z AUTO 12009KT 4SM -SN BR BKN004 OVC012 A3006 RMK P0001 MADISHF
COS,2017-04-01 04:20,-104.7008,38.8058,M,M,M,110.00,11.00,0.01,30.06,M,2.50,M,SCT,OVC,M,M,499.00,999.00,M,M,-SN BR,KCOS 010420Z AUTO 11011KT 2 1/2SM -SN BR SCT004 OVC009 A3006 RMK P0001 MADISHF
COS,2017-04-01 04:24,-104.7008,38.8058,33.80,30.20,86.49,100.00,11.00,0.00,30.05,M,1.75,M,SCT,OVC,M,M,500.00,1000.00,M,M,-SN BR,KCOS 010424Z 10011KT 1 3/4SM -SN BR SCT005 OVC010 01/M01 A3005
COS,2017-04-01 04:25,-104.7008,38.8058,M,M,M,M,M,0.02,30.05,M,1.75,M,FEW,OVC,M,M,499.00,999.00,M,M,-SN BR,KCOS 010425Z AUTO /////KT 2SM -SN BR FEW004 OVC009 A3005 RMK P0002 MADISHF
COS,2017-04-01 04:30,-104.7008,38.8058,M,M,M,100.00,10.00,0.02,30.06,M,1.50,M,FEW,OVC,M,M,499.00,999.00,M,M,-SN BR,KCOS 010430Z AUTO 10010KT 1 1/2SM -SN BR FEW004 OVC009 A3006 RMK P0002 MADISHF
COS,2017-04-01 04:35,-104.7008,38.8058,M,M,M,100.00,9.00,0.02,30.06,M,1.75,M,FEW,OVC,M,M,600.00,999.00,M,M,-SN BR,KCOS 010435Z AUTO 10009KT 2SM -SN BR FEW006 OVC009 A3006 RMK P0002 MADISHF
COS,2017-04-01 04:40,-104.7008,38.8058,M,M,M,90.00,8.00,0.03,30.06,M,1.75,M,FEW,OVC,M,M,600.00,999.00,M,M,-SN BR,KCOS 010440Z AUTO 09008KT 2SM -SN BR FEW006 OVC009 A3006 RMK P0003 MADISHF
COS,2017-04-01 04:45,-104.7008,38.8058,M,M,M,80.00,9.00,0.03,30.05,M,1.75,M,FEW,OVC,M,M,200.00,999.00,M,M,-SN BR,KCOS 010445Z AUTO 08009KT 2SM -SN BR FEW002 OVC009 A3005 RMK P0003 MADISHF
COS,2017-04-01 04:50,-104.7008,38.8058,M,M,M,80.00,8.00,0.03,30.06,M,1.75,M,SCT,OVC,M,M,200.00,999.00,M,M,-SN BR,KCOS 010450Z AUTO 08008KT 2SM -SN BR SCT002 OVC009 A3006 RMK P0003 MADISHF
COS,2017-04-01 04:54,-104.7008,38.8058,32.00,30.90,95.65,60.00,9.00,0.03,30.05,1019.40,1.75,M,SCT,OVC,M,M,200.00,1000.00,M,M,-SN BR,KCOS 010454Z 06009KT 1 3/4SM -SN BR SCT002 OVC010 00/M01 A3005 RMK AO2 DZE0355SNB0355 SLP194 P0003 T00001006
COS,2017-04-01 04:55,-104.7008,38.8058,M,M,M,60.00,9.00,M,30.05,M,1.75,M,SCT,OVC,M,M,200.00,999.00,M,M,-SN BR,KCOS 010455Z AUTO 06009KT 2SM -SN BR SCT002 OVC009 A3005 RMK MADISHF
COS,2017-04-01 05:00,-104.7008,38.8058,M,M,M,50.00,8.00,0.01,30.05,M,1.75,M,SCT,OVC,M,M,200.00,999.00,M,M,-SN BR,KCOS 010500Z AUTO 05008KT 2SM -SN BR SCT002 OVC009 A3005 RMK P0001 MADISHF
COS,2017-04-01 05:05,-104.7008,38.8058,M,M,M,50.00,8.00,0.01,30.04,M,1.75,M,SCT,OVC,M,M,200.00,999.00,M,M,-SN BR,KCOS 010505Z AUTO 05008KT 2SM -SN BR SCT002 OVC009 A3004 RMK P0001 MADISHF
COS,2017-04-01 05:10,-104.7008,38.8058,M,M,M,40.00,7.00,0.02,30.05,M,1.75,M,SCT,OVC,M,M,200.00,999.00,M,M,-SN BR,KCOS 010510Z AUTO 04007KT 2SM -SN BR SCT002 OVC009 A3005 RMK P0002 MADISHF
COS,2017-04-01 05:15,-104.7008,38.8058,M,M,M,30.00,7.00,0.02,30.04,M,1.25,M,SCT,OVC,M,M,200.00,1400.00,M,M,-SN BR,KCOS 010515Z AUTO 03007KT 1 1/2SM -SN BR SCT002 OVC014 A3004 RMK P0002 MADISHF
COS,2017-04-01 05:20,-104.7008,38.8058,M,M,M,40.00,8.00,0.02,30.04,M,1.25,M,SCT,OVC,M,M,200.00,1400.00,M,M,-SN BR,KCOS 010520Z AUTO 04008KT 1 1/2SM -SN BR SCT002 OVC014 A3004 RMK P0002 MADISHF
COS,2017-04-01 05:25,-104.7008,38.8058,M,M,M,40.00,6.00,0.02,30.05,M,1.25,M,SCT,OVC,M,M,200.00,1400.00,M,M,-SN BR,KCOS 010525Z AUTO 04006KT 1 1/2SM -SN BR SCT002 OVC014 A3005 RMK P0002 MADISHF
COS,2017-04-01 05:30,-104.7008,38.8058,M,M,M,30.00,6.00,0.02,30.05,M,1.25,M,SCT,OVC,M,M,200.00,1400.00,M,M,-SN BR,KCOS 010530Z AUTO 03006KT 1 1/2SM -SN BR SCT002 OVC014 A3005 RMK P0002 MADISHF
COS,2017-04-01 05:33,-104.7008,38.8058,32.00,30.00,92.22,30.00,5.00,0.02,30.04,M,2.00,M,BKN,OVC,M,M,2600.00,4200.00,M,M,-SN BR,KCOS 010533Z 03005KT 2SM -SN BR BKN026 OVC042 00/M01 A3004 RMK AO2 P0002 T00001011
COS,2017-04-01 05:35,-104.7008,38.8058,M,M,M,20.00,5.00,0.02,30.05,M,2.00,M,BKN,OVC,M,M,2600.00,4200.00,M,M,-SN BR,KCOS 010535Z AUTO 02005KT 2SM -SN BR BKN026 OVC042 A3005 RMK P0002 MADISHF
COS,2017-04-01 05:39,-104.7008,38.8058,32.00,30.00,92.22,10.00,4.00,0.02,30.05,M,3.00,M,BKN,OVC,M,M,3100.00,4200.00,M,M,-SN BR,KCOS 010539Z 01004KT 3SM -SN BR BKN031 OVC042 00/M01 A3005 RMK AO2 P0002 T00001011
COS,2017-04-01 05:40,-104.7008,38.8058,M,M,M,360.00,4.00,0.02,30.04,M,4.00,M,BKN,OVC,M,M,3300.00,4200.00,M,M,-SN BR,KCOS 010540Z AUTO 36004KT 4SM -SN BR BKN033 OVC042 A3004 RMK P0002 MADISHF
COS,2017-04-01 05:45,-104.7008,38.8058,M,M,M,360.00,4.00,0.02,30.04,M,4.00,M,BKN,OVC,M,M,3100.00,4200.00,M,M,-SN BR,KCOS 010545Z AUTO 36004KT 4SM -SN BR BKN031 OVC042 A3004 RMK P0002 MADISHF
COS,2017-04-01 05:50,-104.7008,38.8058,M,M,M,350.00,3.00,0.02,30.05,M,7.00,M,BKN,OVC,M,M,3100.00,3999.00,M,M,M,KCOS 010550Z AUTO 35003KT 7SM BKN031 OVC039 A3005 RMK P0002 MADISHF
COS,2017-04-01 05:54,-104.7008,38.8058,32.00,30.00,92.22,320.00,4.00,0.02,30.04,1019.10,8.00,M,BKN,OVC,M,M,3100.00,4000.00,M,M,-SN,KCOS 010554Z 32004KT 8SM -SN BKN031 OVC040 00/M01 A3004 RMK AO2 SLP191 PCPN VRY LGT P0002 60005 T00001011 10022 20000 50014
COS,2017-04-01 05:55,-104.7008,38.8058,M,M,M,310.00,4.00,M,30.04,M,8.00,M,OVC,M,M,M,3999.00,M,M,M,-SN,KCOS 010555Z AUTO 31004KT 8SM -SN OVC039 A3004 RMK  PCPN VRY LGT MADISHF
COS,2017-04-01 06:00,-104.7008,38.8058,M,M,M,0.00,0.00,M,30.04,M,8.00,M,OVC,M,M,M,3999.00,M,M,M,-SN,KCOS 010600Z AUTO 00000KT 8SM -SN OVC039 A3004 RMK  PCPN VRY LGT MADISHF
COS,2017-04-01 06:05,-104.7008,38.8058,M,M,M,330.00,3.00,M,30.05,M,8.00,M,OVC,M,M,M,3999.00,M,M,M,-SN,KCOS 010605Z AUTO 33003KT 8SM -SN OVC039 A3005 RMK  PCPN VRY LGT MADISHF
COS,2017-04-01 06:10,-104.7008,38.8058,M,M,M,340.00,3.00,M,30.06,M,8.00,M,OVC,M,M,M,3999.00,M,M,M,-SN,KCOS 010610Z AUTO 34003KT 8SM -SN OVC039 A3006 RMK  PCPN VRY LGT MADISHF
COS,2017-04-01 06:15,-104.7008,38.8058,M,M,M,0.00,0.00,M,30.06,M,8.00,M,OVC,M,M,M,3800.00,M,M,M,-SN,KCOS 010615Z AUTO 00000KT 8SM -SN OVC038 A3006 RMK  PCPN VRY LGT MADISHF
COS,2017-04-01 06:20,-104.7008,38.8058,M,M,M,40.00,3.00,M,30.06,M,8.00,M,OVC,M,M,M,3800.00,M,M,M,-SN,KCOS 010620Z AUTO 04003KT 8SM -SN OVC038 A3006 RMK  PCPN VRY LGT MADISHF
COS,2017-04-01 06:25,-104.7008,38.8058,M,M,M,40.00,3.00,M,30.06,M,6.00,M,OVC,M,M,M,3800.00,M,M,M,-SN BR,KCOS 010625Z AUTO 04003KT 6SM -SN BR OVC038 A3006 RMK MADISHF
COS,2017-04-01 06:30,-104.7008,38.8058,M,M,M,0.00,0.00,M,30.06,M,4.00,M,OVC,M,M,M,3800.00,M,M,M,-SN BR,KCOS 010630Z AUTO 00000KT 4SM -SN BR OVC038 A3006 RMK MADISHF
COS,2017-04-01 06:35,-104.7008,38.8058,M,M,M,0.00,0.00,M,30.06,M,3.50,M,OVC,M,M,M,3600.00,M,M,M,-SN BR,KCOS 010635Z AUTO 00000KT 3SM -SN BR OVC036 A3006 RMK MADISHF
COS,2017-04-01 06:40,-104.7008,38.8058,M,M,M,0.00,0.00,M,30.06,M,3.50,M,SCT,OVC,M,M,3000.00,3700.00,M,M,-SN BR,KCOS 010640Z AUTO 00000KT 3SM -SN BR SCT030 OVC037 A3006 RMK MADISHF
COS,2017-04-01 06:45,-104.7008,38.8058,M,M,M,0.00,0.00,M,30.06,M,4.00,M,FEW,OVC,M,M,3000.00,3700.00,M,M,-SN BR,KCOS 010645Z AUTO 00000KT 4SM -SN BR FEW030 OVC037 A3006 RMK MADISHF
COS,2017-04-01 06:50,-104.7008,38.8058,M,M,M,0.00,0.00,M,30.06,M,5.00,M,OVC,M,M,M,3700.00,M,M,M,-SN BR,KCOS 010650Z AUTO 00000KT 5SM -SN BR OVC037 A3006 RMK MADISHF
COS,2017-04-01 06:54,-104.7008,38.8058,33.10,30.00,88.23,0.00,0.00,0.00,30.07,1020.00,6.00,M,BKN,OVC,M,M,3200.00,3900.00,M,M,-SN BR,KCOS 010654Z 00000KT 6SM -SN BR BKN032 OVC039 01/M01 A3007 RMK AO2 SLP200 P0000 T00061011 400610000
COS,2017-04-01 06:55,-104.7008,38.8058,M,M,M,0.00,0.00,M,30.07,M,6.00,M,BKN,OVC,M,M,3200.00,3900.00,M,M,-SN BR,KCOS 010655Z AUTO 00000KT 6SM -SN BR BKN032 OVC039 A3007 RMK MADISHF
COS,2017-04-01 07:00,-104.7008,38.8058,M,M,M,120.00,4.00,M,30.07,M,6.00,M,FEW,BKN,OVC,M,1400.00,3200.00,3900.00,M,-SN BR,KCOS 010700Z AUTO 12004KT 6SM -SN BR FEW014 BKN032 OVC039 A3007 RMK MADISHF
COS,2017-04-01 07:05,-104.7008,38.8058,M,M,M,130.00,4.00,M,30.08,M,6.00,M,SCT,BKN,OVC,M,1400.00,3200.00,3900.00,M,-SN BR,KCOS 010705Z AUTO 13004KT 6SM -SN BR SCT014 BKN032 OVC039 A3008 RMK MADISHF
COS,2017-04-01 07:10,-104.7008,38.8058,M,M,M,130.00,4.00,M,30.08,M,6.00,M,SCT,BKN,OVC,M,1400.00,3200.00,3900.00,M,-SN BR,KCOS 010710Z AUTO 13004KT 6SM -SN BR SCT014 BKN032 OVC039 A3008 RMK MADISHF
COS,2017-04-01 07:15,-104.7008,38.8058,M,M,M,120.00,4.00,M,30.08,M,6.00,M,SCT,OVC,M,M,1400.00,3200.00,M,M,-SN BR,KCOS 010715Z AUTO 12004KT 6SM -SN BR SCT014 OVC032 A3008 RMK MADISHF
COS,2017-04-01 07:18,-104.7008,38.8058,32.00,30.00,92.22,120.00,4.00,0.00,30.08,M,7.00,M,BKN,OVC,M,M,1400.00,3200.00,M,M,-SN,KCOS 010718Z 12004KT 7SM -SN BKN014 OVC032 00/M01 A3008 RMK AO2 P0000 T00001011
COS,2017-04-01 07:20,-104.7008,38.8058,M,M,M,110.00,3.00,M,30.08,M,7.00,M,BKN,OVC,M,M,1400.00,3200.00,M,M,-SN,KCOS 010720Z AUTO 11003KT 7SM -SN BKN014 OVC032 A3008 RMK MADISHF
COS,2017-04-01 07:25,-104.7008,38.8058,M,M,M,0.00,0.00,M,30.07,M,7.00,M,BKN,BKN,OVC,M,1400.00,1900.00,3000.00,M,-SN,KCOS 010725Z AUTO 00000KT 7SM -SN BKN014 BKN019 OVC030 A3007 RMK MADISHF
COS,2017-04-01 07:30,-104.7008,38.8058,M,M,M,0.00,0.00,M,30.08,M,8.00,M,SCT,SCT,OVC,M,1300.00,1900.00,3000.00,M,-SN,KCOS 010730Z AUTO 00000KT 8SM -SN SCT013 SCT019 OVC030 A3008 RMK MADISHF
COS,2017-04-01 07:35,-104.7008,38.8058,33.10,30.00,88.23,0.00,0.00,0.00,30.08,M,8.00,M,SCT,SCT,OVC,M,1300.00,1800.00,3000.00,M,-SN,KCOS 010735Z 00000KT 8SM -SN SCT013 SCT018 OVC030 01/M01 A3008 RMK AO2 P0000 T00061011
COS,2017-04-01 07:40,-104.7008,38.8058,M,M,M,0.00,0.00,M,30.08,M,9.00,M,SCT,OVC,M,M,1500.00,3000.00,M,M,-SN,KCOS 010740Z AUTO 00000KT 9SM -SN SCT015 OVC030 A3008 RMK MADISHF
COS,2017-04-01 07:45,-104.7008,38.8058,M,M,M,0.00,0.00,M,30.07,M,8.00,M,SCT,SCT,OVC,M,1400.00,1999.00,3000.00,M,-SN,KCOS 010745Z AUTO 00000KT 8SM -SN SCT014 SCT019 OVC030 A3007 RMK MADISHF
COS,2017-04-01 07:50,-104.7008,38.8058,M,M,M,0.00,0.00,M,30.07,M,8.00,M,FEW,BKN,OVC,M,1100.00,1600.00,3000.00,M,-SN,KCOS 010750Z AUTO 00000KT 8SM -SN FEW011 BKN016 OVC030 A3007 RMK MADISHF
COS,2017-04-01 07:54,-104.7008,38.8058,33.10,30.00,88.23,0.00,0.00,0.00,30.07,1020.20,8.00,M,BKN,OVC,M,M,1800.00,3000.00,M,M,-SN,KCOS 010754Z 00000KT 8SM -SN BKN018 OVC030 01/M01 A3007 RMK AO2 SLP202 P0000 T00061011
COS,2017-04-01 07:55,-104.7008,38.8058,M,M,M,0.00,0.00,M,30.07,M,8.00,M,BKN,OVC,M,M,1800.00,3000.00,M,M,-SN,KCOS 010755Z AUTO 00000KT 8SM -SN BKN018 OVC030 A3007 RMK MADISHF
COS,2017-04-01 08:00,-104.7008,38.8058,M,M,M,0.00,0.00,M,30.07,M,6.00,M,FEW,BKN,OVC,M,999.00,1800.00,3000.00,M,-SN BR,KCOS 010800Z AUTO 00000KT 6SM -SN BR FEW009 BKN018 OVC030 A3007 RMK MADISHF
COS,2017-04-01 08:05,-104.7008,38.8058,M,M,M,0.00,0.00,M,30.08,M,6.00,M,SCT,OVC,M,M,800.00,1699.00,M,M,-SN BR,KCOS 010805Z AUTO 00000KT 6SM -SN BR SCT008 OVC016 A3008 RMK MADISHF
COS,2017-04-01 08:09,-104.7008,38.8058,33.10,30.00,88.23,80.00,3.00,0.00,30.08,M,6.00,M,SCT,BKN,OVC,M,800.00,1700.00,3200.00,M,-SN BR,KCOS 010809Z 08003KT 6SM -SN BR SCT008 BKN017 OVC032 01/M01 A3008 RMK AO2 P0000 T00061011
COS,2017-04-01 08:10,-104.7008,38.8058,M,M,M,80.00,3.00,M,30.08,M,6.00,M,SCT,BKN,OVC,M,800.00,1699.00,3200.00,M,-SN BR,KCOS 010810Z AUTO 08003KT 6SM -SN BR SCT008 BKN016 OVC032 A3008 RMK MADISHF
COS,2017-04-01 08:15,-104.7008,38.8058,M,M,M,110.00,5.00,M,30.09,M,7.00,M,SCT,BKN,OVC,M,800.00,1900.00,3200.00,M,-SN,KCOS 010815Z AUTO 11005KT 7SM -SN SCT008 BKN019 OVC032 A3009 RMK MADISHF
COS,2017-04-01 08:20,-104.7008,38.8058,M,M,M,90.00,6.00,M,30.08,M,8.00,M,BKN,BKN,OVC,M,999.00,1699.00,3399.00,M,-SN,KCOS 010820Z AUTO 09006KT 8SM -SN BKN009 BKN016 OVC033 A3008 RMK MADISHF
COS,2017-04-01 08:24,-104.7008,38.8058,33.10,30.00,88.23,90.00,5.00,0.00,30.09,M,8.00,M,BKN,BKN,OVC,M,1000.00,1300.00,3200.00,M,-SN,KCOS 010824Z 09005KT 8SM -SN BKN010 BKN013 OVC032 01/M01 A3009 RMK AO2 P0000 T00061011
COS,2017-04-01 08:25,-104.7008,38.8058,M,M,M,90.00,6.00,M,30.08,M,8.00,M,BKN,BKN,OVC,M,999.00,1300.00,3200.00,M,-SN,KCOS 010825Z AUTO 09006KT 8SM -SN BKN009 BKN013 OVC032 A3008 RMK MADISHF
COS,2017-04-01 08:30,-104.7008,38.8058,M,M,M,80.00,5.00,0.01,30.08,M,6.00,M,SCT,BKN,OVC,M,900.00,1300.00,3200.00,M,-SN BR,KCOS 010830Z AUTO 08005KT 6SM -SN BR SCT009 BKN013 OVC032 A3008 RMK P0001 MADISHF
COS,2017-04-01 08:32,-104.7008,38.8058,32.00,30.00,92.22,80.00,5.00,0.01,30.08,M,6.00,M,BKN,BKN,OVC,M,900.00,1300.00,3200.00,M,-SN BR,KCOS 010832Z 08005KT 6SM -SN BR BKN009 BKN013 OVC032 00/M01 A3008 RMK AO2 P0001 T00001011
COS,2017-04-01 08:35,-104.7008,38.8058,M,M,M,70.00,4.00,0.01,30.08,M,5.00,M,SCT,BKN,OVC,M,900.00,1300.00,3399.00,M,-SN BR,KCOS 010835Z AUTO 07004KT 5SM -SN BR SCT009 BKN013 OVC033 A3008 RMK P0001 MADISHF
COS,2017-04-01 08:40,-104.7008,38.8058,M,M,M,40.00,5.00,0.01,30.08,M,5.00,M,SCT,BKN,OVC,M,900.00,1300.00,3399.00,M,-SN BR,KCOS 010840Z AUTO 04005KT 5SM -SN BR SCT009 BKN013 OVC033 A3008 RMK P0001 MADISHF
COS,2017-04-01 08:45,-104.7008,38.8058,33.10,30.00,88.23,40.00,5.00,0.01,30.07,M,5.00,M,SCT,SCT,OVC,M,1000.00,1400.00,3600.00,M,-SN BR,KCOS 010845Z 04005KT 5SM -SN BR SCT010 SCT014 OVC036 01/M01 A3007 RMK AO2 P0001 T00061011
COS,2017-04-01 08:50,-104.7008,38.8058,M,M,M,50.00,7.00,0.01,30.07,M,5.00,M,SCT,OVC,M,M,1200.00,3600.00,M,M,-SN BR,KCOS 010850Z AUTO 05007KT 5SM -SN BR SCT012 OVC036 A3007 RMK P0001 MADISHF
COS,2017-04-01 08:54,-104.7008,38.8058,33.10,28.90,84.36,40.00,8.00,0.01,30.07,1020.00,4.00,M,FEW,OVC,M,M,1200.00,3800.00,M,M,-SN BR,KCOS 010854Z 04008KT 4SM -SN BR FEW012 OVC038 01/M02 A3007 RMK AO2 SLP200 P0001 60001 T00061017 50007
COS,2017-04-01 08:55,-104.7008,38.8058,M,M,M,40.00,8.00,M,30.07,M,4.00,M,FEW,OVC,M,M,1200.00,3800.00,M,M,-SN BR,KCOS 010855Z AUTO 04008KT 4SM -SN BR FEW012 OVC038 A3007 RMK MADISHF
COS,2017-04-01 09:00,-104.7008,38.8058,M,M,M,40.00,6.00,M,30.07,M,4.00,M,FEW,OVC,M,M,1200.00,3800.00,M,M,-SN BR,KCOS 010900Z AUTO 04006KT 4SM -SN BR FEW012 OVC038 A3007 RMK MADISHF
COS,2017-04-01 09:05,-104.7008,38.8058,M,M,M,40.00,5.00,M,30.08,M,5.00,M,OVC,M,M,M,3800.00,M,M,M,-SN BR,KCOS 010905Z AUTO 04005KT 5SM -SN BR OVC038 A3008 RMK MADISHF
COS,2017-04-01 09:10,-104.7008,38.8058,M,M,M,50.00,5.00,M,30.08,M,6.00,M,FEW,OVC,M,M,2400.00,3800.00,M,M,-SN BR,KCOS 010910Z AUTO 05005KT 6SM -SN BR FEW024 OVC038 A3008 RMK MADISHF
COS,2017-04-01 09:15,-104.7008,38.8058,M,M,M,40.00,6.00,M,30.08,M,7.00,M,SCT,OVC,M,M,2400.00,3800.00,M,M,-SN,KCOS 010915Z AUTO 04006KT 7SM -SN SCT024 OVC038 A3008 RMK MADISHF
COS,2017-04-01 09:20,-104.7008,38.8058,M,M,M,30.00,6.00,M,30.08,M,8.00,M,FEW,OVC,M,M,2400.00,3800.00,M,M,-SN,KCOS 010920Z AUTO 03006KT 8SM -SN FEW024 OVC038 A3008 RMK MADISHF
COS,2017-04-01 09:25,-104.7008,38.8058,M,M,M,40.00,7.00,M,30.08,M,9.00,M,FEW,OVC,M,M,2400.00,3999.00,M,M,-SN,KCOS 010925Z AUTO 04007KT 9SM -SN FEW024 OVC039 A3008 RMK MADISHF
COS,2017-04-01 09:30,-104.7008,38.8058,M,M,M,40.00,7.00,M,30.08,M,9.00,M,FEW,OVC,M,M,2400.00,3999.00,M,M,-SN,KCOS 010930Z AUTO 04007KT 9SM -SN FEW024 OVC039 A3008 RMK MADISHF
COS,2017-04-01 09:35,-104.7008,38.8058,M,M,M,40.00,7.00,M,30.08,M,9.00,M,FEW,OVC,M,M,2400.00,3999.00,M,M,-SN,KCOS 010935Z AUTO 04007KT 9SM -SN FEW024 OVC039 A3008 RMK MADISHF
COS,2017-04-01 09:40,-104.7008,38.8058,M,M,M,40.00,6.00,M,30.09,M,9.00,M,OVC,M,M,M,3999.00,M,M,M,-SN,KCOS 010940Z AUTO 04006KT 9SM -SN OVC039 A3009 RMK MADISHF
COS,2017-04-01 09:45,-104.7008,38.8058,M,M,M,40.00,6.00,M,30.09,M,9.00,M,OVC,M,M,M,3999.00,M,M,M,-SN,KCOS 010945Z AUTO 04006KT 9SM -SN OVC039 A3009 RMK MADISHF
COS,2017-04-01 09:50,-104.7008,38.8058,M,M,M,40.00,6.00,M,30.09,M,9.00,M,FEW,OVC,M,M,2500.00,3999.00,M,M,-SN,KCOS 010950Z AUTO 04006KT 9SM -SN FEW025 OVC039 A3009 RMK MADISHF
COS,2017-04-01 09:54,-104.7008,38.8058,33.10,28.90,84.36,50.00,6.00,0.00,30.09,1020.90,9.00,M,SCT,OVC,M,M,2500.00,4100.00,M,M,-SN,KCOS 010954Z 05006KT 9SM -SN SCT025 OVC041 01/M02 A3009 RMK AO2 SLP209 PCPN VRY LGT P0000 T00061017
COS,2017-04-01 09:55,-104.7008,38.8058,M,M,M,50.00,6.00,M,30.10,M,9.00,M,SCT,OVC,M,M,2500.00,4100.00,M,M,-SN,KCOS 010955Z AUTO 05006KT 9SM -SN SCT025 OVC041 A3010 RMK MADISHF
COS,2017-04-01 10:00,-104.7008,38.8058,M,M,M,70.00,7.00,M,30.10,M,9.00,M,BKN,OVC,M,M,2500.00,4100.00,M,M,-SN,KCOS 011000Z AUTO 07007KT 9SM -SN BKN025 OVC041 A3010 RMK MADISHF
COS,2017-04-01 10:03,-104.7008,38.8058,33.10,28.90,84.36,80.00,8.00,0.00,30.10,M,9.00,M,BKN,OVC,M,M,2300.00,4100.00,M,M,-SN,KCOS 011003Z 08008KT 9SM -SN BKN023 OVC041 01/M02 A3010 RMK AO2 PCPN VRY LGT P0000 T00061017
COS,2017-04-01 10:05,-104.7008,38.8058,M,M,M,80.00,7.00,M,30.10,M,9.00,M,BKN,OVC,M,M,2300.00,4100.00,M,M,-SN,KCOS 011005Z AUTO 08007KT 9SM -SN BKN023 OVC041 A3010 RMK  PCPN VRY LGT MADISHF
COS,2017-04-01 10:10,-104.7008,38.8058,M,M,M,70.00,8.00,M,30.10,M,9.00,M,BKN,OVC,M,M,2300.00,4100.00,M,M,-SN,KCOS 011010Z AUTO 07008KT 9SM -SN BKN023 OVC041 A3010 RMK  PCPN VRY LGT MADISHF
COS,2017-04-01 10:15,-104.7008,38.8058,M,M,M,70.00,8.00,M,30.10,M,9.00,M,OVC,M,M,M,2200.00,M,M,M,-SN,KCOS 011015Z AUTO 07008KT 9SM -SN OVC022 A3010 RMK  PCPN VRY LGT MADISHF
COS,2017-04-01 10:20,-104.7008,38.8058,M,M,M,60.00,8.00,M,30.10,M,9.00,M,OVC,M,M,M,2200.00,M,M,M,-SN,KCOS 011020Z AUTO 06008KT 9SM -SN OVC022 A3010 RMK  PCPN VRY LGT MADISHF
COS,2017-04-01 10:25,-104.7008,38.8058,M,M,M,50.00,7.00,M,30.10,M,9.00,M,OVC,M,M,M,2200.00,M,M,M,-SN,KCOS 011025Z AUTO 05007KT 9SM -SN OVC022 A3010 RMK  PCPN VRY LGT MADISHF
COS,2017-04-01 10:30,-104.7008,38.8058,M,M,M,40.00,8.00,M,30.10,M,9.00,M,OVC,M,M,M,1999.00,M,M,M,-SN,KCOS 011030Z AUTO 04008KT 9SM -SN OVC019 A3010 RMK  PCPN VRY LGT MADISHF
COS,2017-04-01 10:35,-104.7008,38.8058,M,M,M,30.00,7.00,M,30.10,M,9.00,M,OVC,M,M,M,1999.00,M,M,M,-SN,KCOS 011035Z AUTO 03007KT 9SM -SN OVC019 A3010 RMK  PCPN VRY LGT MADISHF
COS,2017-04-01 10:40,-104.7008,38.8058,M,M,M,20.00,7.00,M,30.10,M,9.00,M,OVC,M,M,M,1800.00,M,M,M,-SN,KCOS 011040Z AUTO 02007KT 9SM -SN OVC018 A3010 RMK  PCPN VRY LGT MADISHF
COS,2017-04-01 10:45,-104.7008,38.8058,M,M,M,30.00,8.00,M,30.10,M,9.00,M,OVC,M,M,M,1800.00,M,M,M,-SN,KCOS 011045Z AUTO 03008KT 9SM -SN OVC018 A3010 RMK  PCPN VRY LGT MADISHF
COS,2017-04-01 10:50,-104.7008,38.8058,M,M,M,30.00,9.00,M,30.11,M,9.00,M,OVC,M,M,M,1999.00,M,M,M,-SN,KCOS 011050Z AUTO 03009KT 9SM -SN OVC019 A3011 RMK  PCPN VRY LGT MADISHF
COS,2017-04-01 10:54,-104.7008,38.8058,33.10,28.00,81.30,30.00,9.00,0.00,30.11,1021.40,8.00,M,OVC,M,M,M,2000.00,M,M,M,-SN,KCOS 011054Z 03009KT 8SM -SN OVC020 01/M02 A3011 RMK AO2 SLP214 P0000 T00061022
COS,2017-04-01 10:55,-104.7008,38.8058,M,M,M,20.00,10.00,M,30.11,M,8.00,M,OVC,M,M,M,1999.00,M,M,M,-SN,KCOS 011055Z AUTO 02010KT 8SM -SN OVC019 A3011 RMK MADISHF
COS,2017-04-01 11:00,-104.7008,38.8058,M,M,M,M,M,M,30.11,M,8.00,M,SCT,OVC,M,M,1800.00,2300.00,M,M,-SN,KCOS 011100Z AUTO /////KT 8SM -SN SCT018 OVC023 A3011 RMK MADISHF
COS,2017-04-01 11:05,-104.7008,38.8058,M,M,M,30.00,10.00,M,30.11,M,8.00,M,OVC,M,M,M,2300.00,M,M,M,-SN,KCOS 011105Z AUTO 03010KT 8SM -SN OVC023 A3011 RMK MADISHF
COS,2017-04-01 11:10,-104.7008,38.8058,M,M,M,40.00,9.00,M,30.11,M,8.00,M,FEW,OVC,M,M,1600.00,2300.00,M,M,-SN,KCOS 011110Z AUTO 04009KT 8SM -SN FEW016 OVC023 A3011 RMK MADISHF
COS,2017-04-01 11:15,-104.7008,38.8058,M,M,M,40.00,10.00,M,30.11,M,8.00,M,FEW,OVC,M,M,1600.00,2300.00,M,M,-SN,KCOS 011115Z AUTO 04010KT 8SM -SN FEW016 OVC023 A3011 RMK MADISHF
COS,2017-04-01 11:20,-104.7008,38.8058,M,M,M,40.00,10.00,M,30.11,M,8.00,M,FEW,OVC,M,M,1400.00,2400.00,M,M,-SN,KCOS 011120Z AUTO 04010KT 8SM -SN FEW014 OVC024 A3011 RMK MADISHF
COS,2017-04-01 11:25,-104.7008,38.8058,M,M,M,30.00,11.00,M,30.11,M,8.00,M,FEW,FEW,OVC,M,1400.00,2100.00,2600.00,M,-SN,KCOS 011125Z AUTO 03011KT 8SM -SN FEW014 FEW021 OVC026 A3011 RMK MADISHF
COS,2017-04-01 11:30,-104.7008,38.8058,M,M,M,20.00,10.00,M,30.11,M,8.00,M,FEW,OVC,M,M,1500.00,2800.00,M,M,-SN,KCOS 011130Z AUTO 02010KT 8SM -SN FEW015 OVC028 A3011 RMK MADISHF
COS,2017-04-01 11:35,-104.7008,38.8058,M,M,M,30.00,11.00,M,30.12,M,8.00,M,FEW,OVC,M,M,1500.00,3000.00,M,M,-SN,KCOS 011135Z AUTO 03011KT 8SM -SN FEW015 OVC030 A3012 RMK MADISHF
COS,2017-04-01 11:39,-104.7008,38.8058,33.10,28.00,81.30,30.00,9.00,0.00,30.12,M,8.00,M,OVC,M,M,M,3000.00,M,M,M,-SN,KCOS 011139Z 03009KT 8SM -SN OVC030 01/M02 A3012 RMK AO2 P0000 T00061022
COS,2017-04-01 11:40,-104.7008,38.8058,M,M,M,20.00,9.00,M,30.12,M,8.00,M,OVC,M,M,M,3000.00,M,M,M,-SN,KCOS 011140Z AUTO 02009KT 8SM -SN OVC030 A3012 RMK MADISHF
COS,2017-04-01 11:45,-104.7008,38.8058,M,M,M,20.00,10.00,M,30.12,M,8.00,M,OVC,M,M,M,3000.00,M,M,M,-SN,KCOS 011145Z AUTO 02010KT 8SM -SN OVC030 A3012 RMK MADISHF
COS,2017-04-01 11:50,-104.7008,38.8058,M,M,M,20.00,9.00,M,30.12,M,8.00,M,OVC,M,M,M,3200.00,M,M,M,-SN,KCOS 011150Z AUTO 02009KT 8SM -SN OVC032 A3012 RMK MADISHF
COS,2017-04-01 11:54,-104.7008,38.8058,33.10,28.00,81.30,10.00,7.00,0.00,30.12,1021.90,8.00,M,OVC,M,M,M,3400.00,M,M,M,-SN,KCOS 011154Z 01007KT 8SM -SN OVC034 01/M02 A3012 RMK AO2 SLP219 P0000 60001 70011 T00061022 10006 20000 51015
COS,2017-04-01 11:55,-104.7008,38.8058,M,M,M,10.00,7.00,M,30.12,M,9.00,M,OVC,M,M,M,3399.00,M,M,M,-SN,KCOS 011155Z AUTO 01007KT 9SM -SN OVC033 A3012 RMK MADISHF
COS,2017-04-01 12:00,-104.7008,38.8058,M,M,M,10.00,6.00,M,30.12,M,9.00,M,OVC,M,M,M,3600.00,M,M,M,-SN,KCOS 011200Z AUTO 01006KT 9SM -SN OVC036 A3012 RMK MADISHF
COS,2017-04-01 12:05,-104.7008,38.8058,M,M,M,10.00,5.00,M,30.13,M,9.00,M,OVC,M,M,M,3600.00,M,M,M,-SN,KCOS 011205Z AUTO 01005KT 9SM -SN OVC036 A3013 RMK MADISHF
COS,2017-04-01 12:10,-104.7008,38.8058,M,M,M,360.00,5.00,M,30.13,M,9.00,M,OVC,M,M,M,3600.00,M,M,M,-SN,KCOS 011210Z AUTO 36005KT 9SM -SN OVC036 A3013 RMK MADISHF
COS,2017-04-01 12:15,-104.7008,38.8058,M,M,M,360.00,6.00,M,30.13,M,9.00,M,OVC,M,M,M,3800.00,M,M,M,-SN,KCOS 011215Z AUTO 36006KT 9SM -SN OVC038 A3013 RMK MADISHF
COS,2017-04-01 12:20,-104.7008,38.8058,M,M,M,350.00,6.00,M,30.12,M,9.00,M,OVC,M,M,M,3800.00,M,M,M,-SN,KCOS 011220Z AUTO 35006KT 9SM -SN OVC038 A3012 RMK  PCPN VRY LGT MADISHF
COS,2017-04-01 12:25,-104.7008,38.8058,M,M,M,350.00,7.00,M,30.12,M,9.00,M,OVC,M,M,M,3999.00,M,M,M,-SN,KCOS 011225Z AUTO 35007KT 9SM -SN OVC039 A3012 RMK  PCPN VRY LGT MADISHF
COS,2017-04-01 12:30,-104.7008,38.8058,M,M,M,350.00,7.00,M,30.12,M,9.00,M,OVC,M,M,M,3999.00,M,M,M,-SN,KCOS 011230Z AUTO 35007KT 9SM -SN OVC039 A3012 RMK  PCPN VRY LGT MADISHF
COS,2017-04-01 12:35,-104.7008,38.8058,M,M,M,340.00,5.00,M,30.13,M,9.00,M,OVC,M,M,M,3999.00,M,M,M,-SN,KCOS 011235Z AUTO 34005KT 9SM -SN OVC039 A3013 RMK  PCPN VRY LGT MADISHF
COS,2017-04-01 12:40,-104.7008,38.8058,M,M,M,340.00,5.00,M,30.13,M,9.00,M,OVC,M,M,M,3999.00,M,M,M,-SN,KCOS 011240Z AUTO 34005KT 9SM -SN OVC039 A3013 RMK  PCPN VRY LGT MADISHF
COS,2017-04-01 12:45,-104.7008,38.8058,M,M,M,340.00,6.00,M,30.13,M,9.00,M,OVC,M,M,M,3999.00,M,M,M,-SN,KCOS 011245Z AUTO 34006KT 9SM -SN OVC039 A3013 RMK  PCPN VRY LGT MADISHF
COS,2017-04-01 12:50,-104.7008,38.8058,M,M,M,360.00,5.00,M,30.13,M,9.00,M,OVC,M,M,M,3800.00,M,M,M,-SN,KCOS 011250Z AUTO 36005KT 9SM -SN OVC038 A3013 RMK  PCPN VRY LGT MADISHF
COS,2017-04-01 12:54,-104.7008,38.8058,33.10,28.00,81.30,350.00,5.00,0.00,30.13,1022.70,9.00,M,FEW,OVC,M,M,2000.00,3800.00,M,M,M,KCOS 011254Z 35005KT 9SM FEW020 OVC038 01/M02 A3013 RMK AO2 SNE53 SLP227 P0000 T00061022
COS,2017-04-01 12:55,-104.7008,38.8058,M,M,M,350.00,5.00,M,30.13,M,9.00,M,OVC,M,M,M,3800.00,M,M,M,M,KCOS 011255Z AUTO 35005KT 9SM OVC038 A3013 RMK MADISHF
COS,2017-04-01 13:00,-104.7008,38.8058,M,M,M,340.00,4.00,M,30.14,M,10.00,M,OVC,M,M,M,3600.00,M,M,M,M,KCOS 011300Z AUTO 34004KT 10SM OVC036 A3014 RMK MADISHF
COS,2017-04-01 13:05,-104.7008,38.8058,M,M,M,340.00,8.00,M,30.13,M,10.00,M,OVC,M,M,M,3600.00,M,M,M,M,KCOS 011305Z AUTO 34008KT 10SM OVC036 A3013 RMK MADISHF
COS,2017-04-01 13:10,-104.7008,38.8058,M,M,M,350.00,9.00,M,30.13,M,10.00,M,OVC,M,M,M,3600.00,M,M,M,M,KCOS 011310Z AUTO 35009KT 10SM OVC036 A3013 RMK MADISHF
COS,2017-04-01 13:15,-104.7008,38.8058,M,M,M,350.00,9.00,M,30.13,M,10.00,M,OVC,M,M,M,3600.00,M,M,M,M,KCOS 011315Z AUTO 35009KT 10SM OVC036 A3013 RMK MADISHF
COS,2017-04-01 13:20,-104.7008,38.8058,M,M,M,360.00,10.00,M,30.13,M,10.00,M,OVC,M,M,M,3800.00,M,M,M,M,KCOS 011320Z AUTO 36010KT 10SM OVC038 A3013 RMK MADISHF
COS,2017-04-01 13:25,-104.7008,38.8058,M,M,M,350.00,12.00,M,30.13,M,10.00,M,OVC,M,M,M,3800.00,M,M,M,M,KCOS 011325Z AUTO 35012KT 10SM OVC038 A3013 RMK MADISHF
COS,2017-04-01 13:30,-104.7008,38.8058,M,M,M,360.00,10.00,M,30.13,M,10.00,M,OVC,M,M,M,3800.00,M,M,M,M,KCOS 011330Z AUTO 36010KT 10SM OVC038 A3013 RMK MADISHF
COS,2017-04-01 13:35,-104.7008,38.8058,M,M,M,350.00,8.00,M,30.13,M,10.00,M,OVC,M,M,M,3800.00,M,M,M,M,KCOS 011335Z AUTO 35008KT 10SM OVC038 A3013 RMK MADISHF
COS,2017-04-01 13:40,-104.7008,38.8058,M,M,M,350.00,8.00,M,30.14,M,10.00,M,OVC,M,M,M,3900.00,M,M,M,M,KCOS 011340Z AUTO 35008KT 10SM OVC039 A3014 RMK MADISHF
COS,2017-04-01 13:45,-104.7008,38.8058,M,M,M,350.00,7.00,M,30.14,M,9.00,M,OVC,M,M,M,3900.00,M,M,M,M,KCOS 011345Z AUTO 35007KT 9SM OVC039 A3014 RMK MADISHF
COS,2017-04-01 13:50,-104.7008,38.8058,M,M,M,360.00,8.00,M,30.14,M,7.00,M,OVC,M,M,M,3900.00,M,M,M,-SN,KCOS 011350Z AUTO 36008KT 7SM -SN OVC039 A3014 RMK MADISHF
COS,2017-04-01 13:54,-104.7008,38.8058,33.10,28.00,81.30,350.00,6.00,0.00,30.14,1022.90,5.00,M,FEW,OVC,M,M,1800.00,3900.00,M,M,-SN BR,KCOS 011354Z 35006KT 5SM -SN BR FEW018 OVC039 01/M02 A3014 RMK AO2 SNB48 SLP229 P0000 T00061022
COS,2017-04-01 13:55,-104.7008,38.8058,M,M,M,350.00,6.00,M,30.14,M,5.00,M,FEW,OVC,M,M,1800.00,3900.00,M,M,-SN BR,KCOS 011355Z AUTO 35006KT 5SM -SN BR FEW018 OVC039 A3014 RMK MADISHF
COS,2017-04-01 14:00,-104.7008,38.8058,M,M,M,350.00,7.00,M,30.14,M,5.00,M,FEW,OVC,M,M,1800.00,3900.00,M,M,-SN BR,KCOS 011400Z AUTO 35007KT 5SM -SN BR FEW018 OVC039 A3014 RMK MADISHF
COS,2017-04-01 14:05,-104.7008,38.8058,M,M,M,360.00,6.00,M,30.14,M,5.00,M,FEW,OVC,M,M,1800.00,3900.00,M,M,-SN BR,KCOS 011405Z AUTO 36006KT 5SM -SN BR FEW018 OVC039 A3014 RMK MADISHF
COS,2017-04-01 14:09,-104.7008,38.8058,33.10,28.00,81.30,360.00,6.00,0.00,30.14,M,0.75,M,OVC,M,M,M,2700.00,M,M,M,-SN BR,KCOS 011409Z 36006KT 3/4SM R17L/P6000FT -SN BR OVC027 01/M02 A3014 RMK AO2 TWR VIS 1 1/2 VSBYDR P0000 T00061022
COS,2017-04-01 14:10,-104.7008,38.8058,M,M,M,10.00,6.00,0.01,30.15,M,0.75,M,OVC,M,M,M,2700.00,M,M,M,-SN BR,KCOS 011410Z AUTO 01006KT 1SM -SN BR OVC027 A3015 RMK P0001  VSBYDR MADISHF
COS,2017-04-01 14:15,-104.7008,38.8058,M,M,M,20.00,8.00,0.01,30.15,M,0.75,M,OVC,M,M,M,2300.00,M,M,M,-SN BR,KCOS 011415Z AUTO 02008KT 1SM -SN BR OVC023 A3015 RMK P0001  VSBYDR MADISHF
COS,2017-04-01 14:18,-104.7008,38.8058,33.10,28.00,81.30,10.00,8.00,0.01,30.15,M,1.00,M,OVC,M,M,M,2300.00,M,M,M,-SN BR,KCOS 011418Z 01008KT 1SM R17L/P6000FT -SN BR OVC023 01/M02 A3015 RMK AO2 TWR VIS 1 1/2 P0001 T00061022
COS,2017-04-01 14:20,-104.7008,38.8058,M,M,M,20.00,7.00,0.01,30.15,M,1.50,M,OVC,M,M,M,2100.00,M,M,M,-SN BR,KCOS 011420Z AUTO 02007KT 1 1/2SM -SN BR OVC021 A3015 RMK P0001 MADISHF
COS,2017-04-01 14:25,-104.7008,38.8058,M,M,M,20.00,6.00,0.01,30.15,M,1.50,M,OVC,M,M,M,2100.00,M,M,M,-SN BR,KCOS 011425Z AUTO 02006KT 1 1/2SM -SN BR OVC021 A3015 RMK P0001 MADISHF
COS,2017-04-01 14:30,-104.7008,38.8058,M,M,M,20.00,6.00,0.01,30.15,M,1.00,M,VV ,M,M,M,1900.00,M,M,M,-SN BR,KCOS 011430Z AUTO 02006KT 1SM -SN BR VV019 A3015 RMK P0001 MADISHF
COS,2017-04-01 14:35,-104.7008,38.8058,M,M,M,20.00,7.00,0.01,30.15,M,1.00,M,VV ,M,M,M,1800.00,M,M,M,-SN BR,KCOS 011435Z AUTO 02007KT 1SM -SN BR VV018 A3015 RMK P0001 MADISHF
COS,2017-04-01 14:40,-104.7008,38.8058,M,M,M,20.00,7.00,0.01,30.15,M,1.00,M,VV ,M,M,M,1800.00,M,M,M,-SN BR,KCOS 011440Z AUTO 02007KT 1SM -SN BR VV018 A3015 RMK P0001 MADISHF
COS,2017-04-01 14:45,-104.7008,38.8058,M,M,M,10.00,7.00,0.01,30.16,M,1.00,M,BKN,OVC,M,M,1900.00,5000.00,M,M,-SN BR,KCOS 011445Z AUTO 01007KT 1SM -SN BR BKN019 OVC050 A3016 RMK P0001 MADISHF
COS,2017-04-01 14:50,-104.7008,38.8058,M,M,M,360.00,7.00,0.01,30.16,M,1.50,M,BKN,OVC,M,M,2100.00,5000.00,M,M,-SN BR,KCOS 011450Z AUTO 36007KT 1 1/2SM -SN BR BKN021 OVC050 A3016 RMK P0001 MADISHF
COS,2017-04-01 14:54,-104.7008,38.8058,32.00,28.90,88.17,360.00,7.00,0.02,30.15,1023.70,1.50,M,BKN,BKN,OVC,M,2100.00,4200.00,5000.00,M,-SN BR,KCOS 011454Z 36007KT 1 1/2SM -SN BR BKN021 BKN042 OVC050 00/M02 A3015 RMK AO2 SFC VIS 2 1/2 SLP237 P0002 60002 T00001017 53009
COS,2017-04-01 14:55,-104.7008,38.8058,M,M,M,350.00,8.00,M,30.15,M,2.50,M,BKN,BKN,OVC,M,2100.00,4200.00,5000.00,M,-SN BR,KCOS 011455Z AUTO 35008KT 2 1/2SM -SN BR BKN021 BKN042 OVC050 A3015 RMK MADISHF
COS,2017-04-01 15:00,-104.7008,38.8058,M,M,M,350.00,8.00,M,30.15,M,3.00,M,BKN,BKN,OVC,M,2300.00,4200.00,5000.00,M,-SN BR,KCOS 011500Z AUTO 35008KT 3SM -SN BR BKN023 BKN042 OVC050 A3015 RMK MADISHF
COS,2017-04-01 15:05,-104.7008,38.8058,M,M,M,360.00,7.00,M,30.15,M,2.50,M,BKN,BKN,OVC,M,2300.00,4200.00,5000.00,M,-SN BR,KCOS 011505Z AUTO 36007KT 2 1/2SM -SN BR BKN023 BKN042 OVC050 A3015 RMK MADISHF
COS,2017-04-01 15:10,-104.7008,38.8058,M,M,M,360.00,6.00,M,30.15,M,3.00,M,BKN,BKN,OVC,M,2300.00,4200.00,5000.00,M,-SN BR,KCOS 011510Z AUTO 36006KT 3SM -SN BR BKN023 BKN042 OVC050 A3015 RMK MADISHF
COS,2017-04-01 15:15,-104.7008,38.8058,M,M,M,350.00,5.00,M,30.15,M,3.00,M,BKN,BKN,OVC,M,2300.00,4200.00,5000.00,M,-SN BR,KCOS 011515Z AUTO 35005KT 3SM -SN BR BKN023 BKN042 OVC050 A3015 RMK MADISHF
COS,2017-04-01 15:20,-104.7008,38.8058,M,M,M,340.00,5.00,M,30.15,M,3.00,M,BKN,BKN,OVC,M,2300.00,4200.00,5000.00,M,-SN BR,KCOS 011520Z AUTO 34005KT 3SM -SN BR BKN023 BKN042 OVC050 A3015 RMK MADISHF
COS,2017-04-01 15:25,-104.7008,38.8058,M,M,M,350.00,5.00,M,30.15,M,3.00,M,BKN,BKN,OVC,M,2300.00,4200.00,5000.00,M,-SN BR,KCOS 011525Z AUTO 35005KT 3SM -SN BR BKN023 BKN042 OVC050 A3015 RMK MADISHF
COS,2017-04-01 15:30,-104.7008,38.8058,M,M,M,350.00,6.00,M,30.15,M,4.00,M,BKN,BKN,OVC,M,2300.00,4200.00,5000.00,M,-SN BR,KCOS 011530Z AUTO 35006KT 4SM -SN BR BKN023 BKN042 OVC050 A3015 RMK MADISHF
COS,2017-04-01 15:35,-104.7008,38.8058,M,M,M,330.00,4.00,M,30.15,M,4.00,M,BKN,BKN,OVC,M,2300.00,4200.00,5000.00,M,-SN BR,KCOS 011535Z AUTO 33004KT 4SM -SN BR BKN023 BKN042 OVC050 A3015 RMK MADISHF
COS,2017-04-01 15:40,-104.7008,38.8058,M,M,M,340.00,5.00,M,30.15,M,4.00,M,BKN,BKN,OVC,M,2300.00,4200.00,5000.00,M,-SN BR,KCOS 011540Z AUTO 34005KT 4SM -SN BR BKN023 BKN042 OVC050 A3015 RMK MADISHF
COS,2017-04-01 15:45,-104.7008,38.8058,M,M,M,350.00,5.00,M,30.15,M,4.00,M,BKN,BKN,OVC,M,2300.00,4200.00,5000.00,M,-SN BR,KCOS 011545Z AUTO 35005KT 4SM -SN BR BKN023 BKN042 OVC050 A3015 RMK MADISHF
COS,2017-04-01 15:50,-104.7008,38.8058,M,M,M,340.00,5.00,M,30.15,M,6.00,M,BKN,BKN,OVC,M,1999.00,3999.00,6000.00,M,-SN BR,KCOS 011550Z AUTO 34005KT 6SM -SN BR BKN019 BKN039 OVC060 A3015 RMK MADISHF
COS,2017-04-01 15:54,-104.7008,38.8058,34.00,28.90,81.37,330.00,5.00,0.00,30.15,1023.20,6.00,M,BKN,BKN,OVC,M,2000.00,4000.00,6000.00,M,-SN BR,KCOS 011554Z 33005KT 6SM -SN BR BKN020 BKN040 OVC060 01/M02 A3015 RMK AO2 SLP232 P0000 T00111017
COS,2017-04-01 15:55,-104.7008,38.8058,M,M,M,330.00,5.00,M,30.15,M,6.00,M,BKN,BKN,OVC,M,1999.00,3999.00,6000.00,M,-SN BR,KCOS 011555Z AUTO 33005KT 6SM -SN BR BKN019 BKN039 OVC060 A3015 RMK MADISHF
COS,2017-04-01 16:00,-104.7008,38.8058,M,M,M,340.00,6.00,M,30.15,M,4.00,M,BKN,BKN,OVC,M,1999.00,3999.00,6000.00,M,-SN BR,KCOS 011600Z AUTO 34006KT 4SM -SN BR BKN019 BKN039 OVC060 A3015 RMK MADISHF
COS,2017-04-01 16:05,-104.7008,38.8058,M,M,M,320.00,6.00,M,30.15,M,5.00,M,BKN,BKN,OVC,M,1999.00,3999.00,6000.00,M,-SN BR,KCOS 011605Z AUTO 32006KT 5SM -SN BR BKN019 BKN039 OVC060 A3015 RMK MADISHF
COS,2017-04-01 16:10,-104.7008,38.8058,M,M,M,320.00,7.00,M,30.15,M,5.00,M,BKN,BKN,OVC,M,1999.00,3999.00,6000.00,M,-SN BR,KCOS 011610Z AUTO 32007KT 5SM -SN BR BKN019 BKN039 OVC060 A3015 RMK MADISHF
COS,2017-04-01 16:15,-104.7008,38.8058,M,M,M,320.00,6.00,M,30.15,M,6.00,M,SCT,BKN,OVC,M,1999.00,4600.00,5500.00,M,-SN BR,KCOS 011615Z AUTO 32006KT 6SM -SN BR SCT019 BKN046 OVC055 A3015 RMK MADISHF
COS,2017-04-01 16:17,-104.7008,38.8058,34.00,28.90,81.37,330.00,5.00,0.00,30.15,M,6.00,M,SCT,BKN,OVC,M,2000.00,4600.00,5500.00,M,-SN BR,KCOS 011617Z 33005KT 6SM -SN BR SCT020 BKN046 OVC055 01/M02 A3015 RMK AO2 P0000 T00111017
COS,2017-04-01 16:20,-104.7008,38.8058,M,M,M,310.00,4.00,M,30.15,M,6.00,M,SCT,BKN,OVC,M,1999.00,4600.00,5500.00,M,-SN BR,KCOS 011620Z AUTO 31004KT 6SM -SN BR SCT019 BKN046 OVC055 A3015 RMK MADISHF
COS,2017-04-01 16:25,-104.7008,38.8058,M,M,M,310.00,4.00,M,30.15,M,5.00,M,SCT,BKN,OVC,M,1999.00,4600.00,5500.00,M,-SN BR,KCOS 011625Z AUTO 31004KT 5SM -SN BR SCT019 BKN046 OVC055 A3015 RMK MADISHF
COS,2017-04-01 16:30,-104.7008,38.8058,M,M,M,300.00,4.00,M,30.15,M,5.00,M,SCT,BKN,OVC,M,1999.00,4600.00,5500.00,M,-SN BR,KCOS 011630Z AUTO 30004KT 5SM -SN BR SCT019 BKN046 OVC055 A3015 RMK MADISHF
COS,2017-04-01 16:35,-104.7008,38.8058,M,M,M,330.00,3.00,M,30.15,M,7.00,M,BKN,OVC,M,M,3900.00,5000.00,M,M,-SN BR,KCOS 011635Z AUTO 33003KT 7SM -SN BR BKN039 OVC050 A3015 RMK MADISHF
COS,2017-04-01 16:40,-104.7008,38.8058,M,M,M,310.00,4.00,M,30.15,M,3.00,M,BKN,OVC,M,M,3700.00,5000.00,M,M,-SN BR,KCOS 011640Z AUTO 31004KT 3SM -SN BR BKN037 OVC050 A3015 RMK MADISHF
COS,2017-04-01 16:45,-104.7008,38.8058,M,M,M,280.00,3.00,M,30.15,M,3.00,M,BKN,OVC,M,M,3300.00,4200.00,M,M,-SN BR,KCOS 011645Z AUTO 28003KT 3SM -SN BR BKN033 OVC042 A3015 RMK MADISHF
COS,2017-04-01 16:50,-104.7008,38.8058,M,M,M,290.00,3.00,M,30.15,M,3.00,M,FEW,BKN,OVC,M,1400.00,3300.00,4200.00,M,-SN BR,KCOS 011650Z AUTO 29003KT 3SM -SN BR FEW014 BKN033 OVC042 A3015 RMK MADISHF
COS,2017-04-01 16:54,-104.7008,38.8058,34.00,28.90,81.37,280.00,3.00,0.00,30.15,1023.60,3.00,M,FEW,OVC,M,M,1400.00,3100.00,M,M,-SN BR,KCOS 011654Z 28003KT 3SM -SN BR FEW014 OVC031 01/M02 A3015 RMK AO2 SLP236 P0000 T00111017
COS,2017-04-01 16:55,-104.7008,38.8058,M,M,M,290.00,3.00,M,30.15,M,3.50,M,FEW,OVC,M,M,1400.00,3100.00,M,M,-SN BR,KCOS 011655Z AUTO 29003KT 3SM -SN BR FEW014 OVC031 A3015 RMK MADISHF
COS,2017-04-01 17:00,-104.7008,38.8058,34.00,30.00,85.11,M,3.00,0.00,30.15,M,2.00,M,SCT,OVC,M,M,1400.00,2900.00,M,M,-SN BR,KCOS 011700Z VRB03KT 2SM -SN BR SCT014 OVC029 01/M01 A3015 RMK AO2 SFC VIS 3 P0000 T00111011
COS,2017-04-01 17:05,-104.7008,38.8058,M,M,M,250.00,3.00,M,30.15,M,1.50,M,SCT,OVC,M,M,1400.00,2500.00,M,M,-SN BR,KCOS 011705Z AUTO 25003KT 1 1/2SM -SN BR SCT014 OVC025 A3015 RMK MADISHF
COS,2017-04-01 17:07,-104.7008,38.8058,33.10,30.00,88.23,260.00,4.00,0.00,30.15,M,1.25,M,SCT,OVC,M,M,1400.00,2300.00,M,M,-SN BR,KCOS 011707Z 26004KT 1 1/4SM -SN BR SCT014 OVC023 01/M01 A3015 RMK AO2 TWR VIS 2 P0000 T00061011
COS,2017-04-01 17:10,-104.7008,38.8058,M,M,M,270.00,3.00,0.01,30.15,M,1.00,M,FEW,SCT,OVC,M,999.00,1400.00,2300.00,M,-SN BR,KCOS 011710Z AUTO 27003KT 1SM -SN BR FEW009 SCT014 OVC023 A3015 RMK P0001 MADISHF
COS,2017-04-01 17:15,-104.7008,38.8058,M,M,M,280.00,3.00,0.01,30.16,M,1.00,M,SCT,SCT,OVC,M,999.00,1400.00,2100.00,M,-SN BR,KCOS 011715Z AUTO 28003KT 1SM -SN BR SCT009 SCT014 OVC021 A3016 RMK P0001 MADISHF
COS,2017-04-01 17:18,-104.7008,38.8058,33.10,30.00,88.23,290.00,3.00,0.01,30.15,M,0.50,M,BKN,OVC,M,M,1200.00,2100.00,M,M,-SN BR,KCOS 011718Z 29003KT 1/2SM R17L/5500VP6000FT -SN BR BKN012 OVC021 01/M01 A3015 RMK AO2 SFC VIS 3/4 P0001 T00061011
COS,2017-04-01 17:20,-104.7008,38.8058,M,M,M,290.00,3.00,0.01,30.15,M,0.50,M,BKN,BKN,OVC,M,999.00,1400.00,1900.00,M,-SN BR,KCOS 011720Z AUTO 29003KT 1/2SM -SN BR BKN009 BKN014 OVC019 A3015 RMK P0001 MADISHF
COS,2017-04-01 17:25,-104.7008,38.8058,M,M,M,280.00,3.00,0.02,30.15,M,0.50,M,FEW,BKN,OVC,M,499.00,1200.00,1900.00,M,SN FG,KCOS 011725Z AUTO 28003KT 1/2SM SN FG FEW004 BKN012 OVC019 A3015 RMK P0002 MADISHF
COS,2017-04-01 17:29,-104.7008,38.8058,32.00,30.00,92.22,290.00,3.00,0.02,30.15,M,0.50,M,BKN,BKN,OVC,M,500.00,1000.00,1500.00,M,SN FG,KCOS 011729Z 29003KT 1/2SM R17L/4500V6000FT SN FG BKN005 BKN010 OVC015 00/M01 A3015 RMK AO2 P0002 T00001011
COS,2017-04-01 17:30,-104.7008,38.8058,M,M,M,300.00,3.00,0.02,30.15,M,0.50,M,BKN,BKN,OVC,M,499.00,999.00,1600.00,M,SN FG,KCOS 011730Z AUTO 30003KT 1/2SM SN FG BKN004 BKN009 OVC016 A3015 RMK P0002 MADISHF
COS,2017-04-01 17:35,-104.7008,38.8058,M,M,M,0.00,0.00,0.02,30.15,M,0.50,M,BKN,OVC,M,M,499.00,999.00,M,M,SN FG,KCOS 011735Z AUTO 00000KT 1/2SM SN FG BKN004 OVC009 A3015 RMK P0002 MADISHF
COS,2017-04-01 17:40,-104.7008,38.8058,M,M,M,0.00,0.00,0.03,30.14,M,0.50,M,BKN,OVC,M,M,499.00,999.00,M,M,SN FG,KCOS 011740Z AUTO 00000KT 1/2SM SN FG BKN004 OVC009 A3014 RMK P0003 MADISHF
COS,2017-04-01 17:45,-104.7008,38.8058,M,M,M,0.00,0.00,0.03,30.14,M,0.50,M,OVC,M,M,M,499.00,M,M,M,-SN FG,KCOS 011745Z AUTO 00000KT 1/2SM -SN FG OVC004 A3014 RMK P0003 MADISHF
COS,2017-04-01 17:50,-104.7008,38.8058,M,M,M,0.00,0.00,0.04,30.14,M,0.50,M,OVC,M,M,M,499.00,M,M,M,SN FG,KCOS 011750Z AUTO 00000KT 1/2SM SN FG OVC004 A3014 RMK P0004 CIG 3V7  MADISHF
COS,2017-04-01 17:54,-104.7008,38.8058,33.10,30.90,91.51,0.00,0.00,0.04,30.14,1023.20,0.50,M,OVC,M,M,M,300.00,M,M,M,-SN FG,KCOS 011754Z 00000KT 1/2SM R17L/6000VP6000FT -SN FG OVC003 01/M01 A3014 RMK AO2 SLP232 P0004 60006 T00061006 10011 20000 58004
COS,2017-04-01 17:55,-104.7008,38.8058,M,M,M,0.00,0.00,M,30.14,M,0.50,M,OVC,M,M,M,300.00,M,M,M,-SN FG,KCOS 011755Z AUTO 00000KT 1/2SM -SN FG OVC003 A3014 RMK MADISHF
COS,2017-04-01 18:00,-104.7008,38.8058,M,M,M,0.00,0.00,0.01,30.14,M,0.75,M,OVC,M,M,M,300.00,M,M,M,-SN BR,KCOS 011800Z AUTO 00000KT 1SM -SN BR OVC003 A3014 RMK P0001 MADISHF
COS,2017-04-01 18:05,-104.7008,38.8058,M,M,M,0.00,0.00,0.01,30.13,M,1.00,M,OVC,M,M,M,600.00,M,M,M,-SN BR,KCOS 011805Z AUTO 00000KT 1SM -SN BR OVC006 A3013 RMK P0001 CIG 3V10  MADISHF
COS,2017-04-01 18:10,-104.7008,38.8058,M,M,M,0.00,0.00,0.01,30.13,M,1.00,M,BKN,OVC,M,M,600.00,1400.00,M,M,-SN BR,KCOS 011810Z AUTO 00000KT 1SM -SN BR BKN006 OVC014 A3013 RMK P0001 MADISHF
COS,2017-04-01 18:11,-104.7008,38.8058,33.10,30.90,91.51,0.00,0.00,0.01,30.13,M,0.50,M,BKN,OVC,M,M,600.00,1400.00,M,M,-SN BR,KCOS 011811Z 00000KT 1/2SM R17L/6000VP6000FT -SN BR BKN006 OVC014 01/M01 A3013 RMK AO2 SFC VIS 3/4 P0001 T00061006
COS,2017-04-01 18:15,-104.7008,38.8058,M,M,M,0.00,0.00,0.01,30.13,M,0.75,M,BKN,OVC,M,M,600.00,1400.00,M,M,-SN BR,KCOS 011815Z AUTO 00000KT 1SM -SN BR BKN006 OVC014 A3013 RMK P0001 MADISHF
COS,2017-04-01 18:20,-104.7008,38.8058,M,M,M,310.00,3.00,0.02,30.13,M,0.50,M,BKN,OVC,M,M,800.00,1200.00,M,M,SN FG,KCOS 011820Z AUTO 31003KT 1/2SM SN FG BKN008 OVC012 A3013 RMK P0002 MADISHF
COS,2017-04-01 18:25,-104.7008,38.8058,M,M,M,300.00,4.00,0.03,30.12,M,0.50,M,BKN,OVC,M,M,600.00,999.00,M,M,SN FG,KCOS 011825Z AUTO 30004KT 1/2SM SN FG BKN006 OVC009 A3012 RMK P0003 MADISHF
COS,2017-04-01 18:30,-104.7008,38.8058,M,M,M,300.00,4.00,0.03,30.12,M,0.50,M,BKN,OVC,M,M,600.00,999.00,M,M,SN FG,KCOS 011830Z AUTO 30004KT 1/2SM SN FG BKN006 OVC009 A3012 RMK P0003 MADISHF
COS,2017-04-01 18:35,-104.7008,38.8058,M,M,M,310.00,3.00,0.03,30.12,M,0.50,M,BKN,OVC,M,M,600.00,999.00,M,M,SN FG,KCOS 011835Z AUTO 31003KT 1/2SM SN FG BKN006 OVC009 A3012 RMK P0003 MADISHF
COS,2017-04-01 18:40,-104.7008,38.8058,M,M,M,310.00,3.00,0.04,30.12,M,0.50,M,BKN,OVC,M,M,600.00,999.00,M,M,SN FG,KCOS 011840Z AUTO 31003KT 1/2SM SN FG BKN006 OVC009 A3012 RMK P0004 MADISHF
COS,2017-04-01 18:45,-104.7008,38.8058,M,M,M,0.00,0.00,0.04,30.12,M,0.50,M,BKN,OVC,M,M,600.00,999.00,M,M,SN FG,KCOS 011845Z AUTO 00000KT 1/2SM SN FG BKN006 OVC009 A3012 RMK P0004 MADISHF
COS,2017-04-01 18:50,-104.7008,38.8058,M,M,M,0.00,0.00,0.05,30.12,M,0.50,M,FEW,OVC,M,M,600.00,999.00,M,M,SN FG,KCOS 011850Z AUTO 00000KT 1/2SM SN FG FEW006 OVC009 A3012 RMK P0005 MADISHF
COS,2017-04-01 18:52,-104.7008,38.8058,33.80,30.20,86.49,0.00,0.00,0.05,30.12,M,0.25,M,FEW,OVC,M,M,600.00,1000.00,M,M,+SN FG,KCOS 011852Z 00000KT 1/4SM R17L/2800V4500FT +SN FG FEW006 OVC010 01/M01 A3012 RMK AO2 TWR VIS 1/2 P0005
COS,2017-04-01 18:54,-104.7008,38.8058,32.00,30.90,95.65,0.00,0.00,0.06,30.12,1022.50,0.25,M,SCT,OVC,M,M,400.00,1000.00,M,M,+SN FG,KCOS 011854Z 00000KT 1/4SM R17L/2600V4500FT +SN FG SCT004 OVC010 00/M01 A3012 RMK AO2 TWR VIS 1/2 SLP225 P0006 T00001006
COS,2017-04-01 18:55,-104.7008,38.8058,M,M,M,0.00,0.00,M,30.12,M,0.25,M,SCT,OVC,M,M,400.00,800.00,M,M,+SN FG,KCOS 011855Z AUTO 00000KT 1/4SM +SN FG SCT004 OVC008 A3012 RMK MADISHF
COS,2017-04-01 19:00,-104.7008,38.8058,M,M,M,0.00,0.00,0.01,30.13,M,0.25,M,SCT,OVC,M,M,300.00,600.00,M,M,+SN FG,KCOS 011900Z AUTO 00000KT 1/4SM +SN FG SCT003 OVC006 A3013 RMK P0001 MADISHF
COS,2017-04-01 19:01,-104.7008,38.8058,33.10,30.90,91.51,0.00,0.00,0.01,30.12,M,0.25,M,SCT,OVC,M,M,300.00,600.00,M,M,+SN FG,KCOS 011901Z 00000KT 1/4SM R17L/2400V2800FT +SN FG SCT003 OVC006 01/M01 A3012 RMK AO2 P0001 T00061006
COS,2017-04-01 19:05,-104.7008,38.8058,M,M,M,0.00,0.00,0.02,30.12,M,0.24,M,SCT,OVC,M,M,300.00,600.00,M,M,+SN FG,KCOS 011905Z AUTO 00000KT 1/4SM +SN FG SCT003 OVC006 A3012 RMK P0002 MADISHF
COS,2017-04-01 19:10,-104.7008,38.8058,M,M,M,0.00,0.00,0.04,30.12,M,0.24,M,VV ,M,M,M,400.00,M,M,M,+SN FG,KCOS 011910Z AUTO 00000KT 1/4SM +SN FG VV004 A3012 RMK P0004 MADISHF
COS,2017-04-01 19:15,-104.7008,38.8058,32.00,30.00,92.22,80.00,3.00,0.05,30.13,M,0.25,M,VV ,M,M,M,400.00,M,M,M,+SN FG,KCOS 011915Z 08003KT 1/4SM R17L/1200V2200FT +SN FG VV004 00/M01 A3013 RMK AO2 TWR VIS 1/4 P0005 T00001011
COS,2017-04-01 19:20,-104.7008,38.8058,M,M,M,80.00,3.00,0.07,30.13,M,0.24,M,VV ,M,M,M,300.00,M,M,M,SN FG,KCOS 011920Z AUTO 08003KT 1/4SM SN FG VV003 A3013 RMK P0007 MADISHF
COS,2017-04-01 19:25,-104.7008,38.8058,M,M,M,80.00,3.00,0.07,30.13,M,0.25,M,VV ,M,M,M,400.00,M,M,M,SN FG,KCOS 011925Z AUTO 08003KT 1/4SM SN FG VV004 A3013 RMK P0007 MADISHF
COS,2017-04-01 19:30,-104.7008,38.8058,M,M,M,0.00,0.00,0.08,30.13,M,0.25,M,VV ,M,M,M,400.00,M,M,M,SN FG,KCOS 011930Z AUTO 00000KT 1/4SM SN FG VV004 A3013 RMK P0008 MADISHF
COS,2017-04-01 19:35,-104.7008,38.8058,M,M,M,0.00,0.00,0.08,30.13,M,0.50,M,VV ,M,M,M,400.00,M,M,M,SN FG,KCOS 011935Z AUTO 00000KT 1/2SM SN FG VV004 A3013 RMK P0008 MADISHF
COS,2017-04-01 19:40,-104.7008,38.8058,M,M,M,0.00,0.00,0.08,30.12,M,0.75,M,FEW,BKN,OVC,M,600.00,999.00,2600.00,M,-SN BR,KCOS 011940Z AUTO 00000KT 1SM -SN BR FEW006 BKN009 OVC026 A3012 RMK P0008 MADISHF
COS,2017-04-01 19:41,-104.7008,38.8058,34.00,30.90,88.27,0.00,0.00,0.08,30.12,M,0.50,M,FEW,BKN,OVC,M,600.00,1200.00,2600.00,M,-SN BR,KCOS 011941Z 00000KT 1/2SM R17L/4500VP6000FT -SN BR FEW006 BKN012 OVC026 01/M01 A3012 RMK AO2 SFC VIS 3/4 P0008 T00111006
COS,2017-04-01 19:45,-104.7008,38.8058,M,M,M,0.00,0.00,0.08,30.12,M,0.75,M,SCT,BKN,OVC,M,600.00,1400.00,2600.00,M,-SN BR,KCOS 011945Z AUTO 00000KT 1SM -SN BR SCT006 BKN014 OVC026 A3012 RMK P0008 MADISHF
COS,2017-04-01 19:50,-104.7008,38.8058,M,M,M,0.00,0.00,0.09,30.12,M,0.75,M,FEW,BKN,OVC,M,600.00,1600.00,2400.00,M,-SN BR,KCOS 011950Z AUTO 00000KT 1SM -SN BR FEW006 BKN016 OVC024 A3012 RMK P0009  SNINCR 2/1 MADISHF
COS,2017-04-01 19:54,-104.7008,38.8058,34.00,30.90,88.27,20.00,3.00,0.09,30.12,1022.30,0.50,M,FEW,BKN,OVC,M,400.00,1600.00,2500.00,M,SN FG,KCOS 011954Z 02003KT 1/2SM R17L/4500V5500FT SN FG FEW004 BKN016 OVC025 01/M01 A3012 RMK AO2 SLP223 SNINCR 2/1 P0009 T00111006
COS,2017-04-01 19:55,-104.7008,38.8058,M,M,M,30.00,3.00,M,30.12,M,0.75,M,SCT,BKN,OVC,M,499.00,1600.00,2500.00,M,-SN BR,KCOS 011955Z AUTO 03003KT 1SM -SN BR SCT004 BKN016 OVC025 A3012 RMK MADISHF
COS,2017-04-01 20:00,-104.7008,38.8058,M,M,M,50.00,4.00,M,30.12,M,0.50,M,SCT,BKN,OVC,M,499.00,1600.00,2500.00,M,SN FG,KCOS 012000Z AUTO 05004KT 1/2SM SN FG SCT004 BKN016 OVC025 A3012 RMK MADISHF
COS,2017-04-01 20:05,-104.7008,38.8058,M,M,M,60.00,4.00,M,30.12,M,0.50,M,SCT,BKN,OVC,M,499.00,1600.00,2500.00,M,SN FG,KCOS 012005Z AUTO 06004KT 1/2SM SN FG SCT004 BKN016 OVC025 A3012 RMK MADISHF
COS,2017-04-01 20:10,-104.7008,38.8058,M,M,M,40.00,3.00,M,30.12,M,0.50,M,SCT,BKN,OVC,M,499.00,1600.00,2500.00,M,SN FG,KCOS 012010Z AUTO 04003KT 1/2SM SN FG SCT004 BKN016 OVC025 A3012 RMK MADISHF
COS,2017-04-01 20:15,-104.7008,38.8058,M,M,M,20.00,4.00,0.01,30.12,M,0.50,M,FEW,BKN,OVC,M,400.00,1500.00,2500.00,M,SN FG,KCOS 012015Z AUTO 02004KT 1/2SM SN FG FEW004 BKN015 OVC025 A3012 RMK P0001 MADISHF
COS,2017-04-01 20:20,-104.7008,38.8058,M,M,M,10.00,5.00,0.01,30.11,M,0.50,M,FEW,BKN,OVC,M,400.00,1500.00,2500.00,M,SN FG,KCOS 012020Z AUTO 01005KT 1/2SM SN FG FEW004 BKN015 OVC025 A3011 RMK P0001 MADISHF
COS,2017-04-01 20:25,-104.7008,38.8058,M,M,M,20.00,3.00,0.02,30.11,M,0.75,M,FEW,BKN,OVC,M,400.00,1500.00,2500.00,M,-SN BR,KCOS 012025Z AUTO 02003KT 1SM -SN BR FEW004 BKN015 OVC025 A3011 RMK P0002 MADISHF
COS,2017-04-01 20:30,-104.7008,38.8058,M,M,M,30.00,3.00,0.02,30.11,M,0.75,M,FEW,BKN,OVC,M,400.00,1500.00,2500.00,M,-SN BR,KCOS 012030Z AUTO 03003KT 1SM -SN BR FEW004 BKN015 OVC025 A3011 RMK P0002 MADISHF
COS,2017-04-01 20:35,-104.7008,38.8058,M,M,M,0.00,0.00,0.02,30.11,M,1.00,M,FEW,BKN,OVC,M,400.00,1500.00,2500.00,M,-SN,KCOS 012035Z AUTO 00000KT 1SM -SN FEW004 BKN015 OVC025 A3011 RMK P0002 MADISHF
COS,2017-04-01 20:40,-104.7008,38.8058,M,M,M,0.00,0.00,0.02,30.12,M,1.75,M,FEW,BKN,OVC,M,400.00,1500.00,2500.00,M,-SN,KCOS 012040Z AUTO 00000KT 2SM -SN FEW004 BKN015 OVC025 A3012 RMK P0002 MADISHF
COS,2017-04-01 20:42,-104.7008,38.8058,35.10,30.90,84.49,0.00,0.00,0.02,30.11,M,3.00,M,SCT,BKN,OVC,M,400.00,2500.00,5000.00,M,-SN BR,KCOS 012042Z 00000KT 3SM -SN BR SCT004 BKN025 OVC050 02/M01 A3011 RMK AO2 PCPN VRY LGT P0002 T00171006
COS,2017-04-01 20:45,-104.7008,38.8058,M,M,M,80.00,3.00,0.02,30.11,M,3.00,M,SCT,BKN,OVC,M,400.00,2500.00,5000.00,M,-SN BR,KCOS 012045Z AUTO 08003KT 3SM -SN BR SCT004 BKN025 OVC050 A3011 RMK P0002  PCPN VRY LGT MADISHF
COS,2017-04-01 20:50,-104.7008,38.8058,M,M,M,0.00,0.00,0.02,30.11,M,3.00,M,SCT,BKN,OVC,M,400.00,2500.00,5000.00,M,-SN BR,KCOS 012050Z AUTO 00000KT 3SM -SN BR SCT004 BKN025 OVC050 A3011 RMK P0002  PCPN VRY LGT MADISHF
COS,2017-04-01 20:54,-104.7008,38.8058,35.10,30.90,84.49,0.00,0.00,0.02,30.11,1021.80,3.00,M,SCT,BKN,OVC,M,400.00,3500.00,4500.00,M,-SN BR,KCOS 012054Z 00000KT 3SM -SN BR SCT004 BKN035 OVC045 02/M01 A3011 RMK AO2 SLP218 PCPN VRY LGT P0002 60017 T00171006 56009
COS,2017-04-01 20:55,-104.7008,38.8058,M,M,M,0.00,0.00,M,30.11,M,3.00,M,SCT,BKN,OVC,M,400.00,3500.00,4500.00,M,-SN BR,KCOS 012055Z AUTO 00000KT 3SM -SN BR SCT004 BKN035 OVC045 A3011 RMK MADISHF
COS,2017-04-01 21:00,-104.7008,38.8058,M,M,M,60.00,4.00,M,30.11,M,3.00,M,SCT,BKN,OVC,M,400.00,3500.00,4500.00,M,-SN BR,KCOS 012100Z AUTO 06004KT 3SM -SN BR SCT004 BKN035 OVC045 A3011 RMK MADISHF
COS,2017-04-01 21:05,-104.7008,38.8058,M,M,M,70.00,4.00,M,30.11,M,3.00,M,FEW,BKN,OVC,M,400.00,3500.00,4500.00,M,-SN BR,KCOS 012105Z AUTO 07004KT 3SM -SN BR FEW004 BKN035 OVC045 A3011 RMK MADISHF
COS,2017-04-01 21:10,-104.7008,38.8058,M,M,M,60.00,3.00,M,30.10,M,3.00,M,FEW,BKN,OVC,M,400.00,3500.00,5000.00,M,-SN BR,KCOS 012110Z AUTO 06003KT 3SM -SN BR FEW004 BKN035 OVC050 A3010 RMK MADISHF
COS,2017-04-01 21:15,-104.7008,38.8058,M,M,M,30.00,3.00,M,30.10,M,3.00,M,FEW,BKN,OVC,M,600.00,3500.00,5000.00,M,-SN BR,KCOS 012115Z AUTO 03003KT 3SM -SN BR FEW006 BKN035 OVC050 A3010 RMK MADISHF
COS,2017-04-01 21:20,-104.7008,38.8058,M,M,M,0.00,0.00,M,30.10,M,3.00,M,FEW,BKN,OVC,M,600.00,3500.00,5000.00,M,-SN,KCOS 012120Z AUTO 00000KT 3SM -SN FEW006 BKN035 OVC050 A3010 RMK MADISHF
COS,2017-04-01 21:25,-104.7008,38.8058,M,M,M,40.00,3.00,M,30.10,M,6.00,M,FEW,BKN,OVC,M,600.00,3500.00,5000.00,M,-SN,KCOS 012125Z AUTO 04003KT 6SM -SN FEW006 BKN035 OVC050 A3010 RMK MADISHF
COS,2017-04-01 21:30,-104.7008,38.8058,M,M,M,70.00,3.00,M,30.10,M,8.00,M,FEW,BKN,OVC,M,600.00,3500.00,5000.00,M,M,KCOS 012130Z AUTO 07003KT 8SM FEW006 BKN035 OVC050 A3010 RMK MADISHF
COS,2017-04-01 21:35,-104.7008,38.8058,M,M,M,0.00,0.00,M,30.09,M,10.00,M,FEW,BKN,OVC,M,600.00,3700.00,6000.00,M,M,KCOS 012135Z AUTO 00000KT 10SM FEW006 BKN037 OVC060 A3009 RMK MADISHF
COS,2017-04-01 21:40,-104.7008,38.8058,M,M,M,10.00,3.00,M,30.09,M,10.00,M,FEW,BKN,OVC,M,600.00,3700.00,6000.00,M,M,KCOS 012140Z AUTO 01003KT 10SM FEW006 BKN037 OVC060 A3009 RMK MADISHF
COS,2017-04-01 21:45,-104.7008,38.8058,M,M,M,360.00,3.00,M,30.09,M,10.00,M,FEW,BKN,OVC,M,600.00,3700.00,6000.00,M,M,KCOS 012145Z AUTO 36003KT 10SM FEW006 BKN037 OVC060 A3009 RMK MADISHF
COS,2017-04-01 21:50,-104.7008,38.8058,M,M,M,10.00,3.00,M,30.09,M,10.00,M,FEW,SCT,OVC,M,600.00,3700.00,6000.00,M,M,KCOS 012150Z AUTO 01003KT 10SM FEW006 SCT037 OVC060 A3009 RMK  VCSH NW-NE MADISHF
COS,2017-04-01 21:54,-104.7008,38.8058,36.00,30.00,78.60,20.00,3.00,0.00,30.09,1020.80,10.00,M,SCT,SCT,OVC,M,600.00,3500.00,5500.00,M,M,KCOS 012154Z 02003KT 10SM SCT006 SCT035 OVC055 02/M01 A3009 RMK AO2 SNE26 SLP208 VCSH NW-NE P0000 T00221011
COS,2017-04-01 21:55,-104.7008,38.8058,M,M,M,30.00,3.00,M,30.09,M,10.00,M,FEW,BKN,OVC,M,600.00,5000.00,6000.00,M,M,KCOS 012155Z AUTO 03003KT 10SM FEW006 BKN050 OVC060 A3009 RMK MADISHF
COS,2017-04-01 22:00,-104.7008,38.8058,M,M,M,0.00,0.00,M,30.09,M,10.00,M,SCT,SCT,OVC,M,600.00,3500.00,5500.00,M,M,KCOS 012200Z AUTO 00000KT 10SM SCT006 SCT035 OVC055 A3009 RMK MADISHF
COS,2017-04-01 22:05,-104.7008,38.8058,M,M,M,0.00,0.00,M,30.09,M,8.00,M,SCT,SCT,OVC,M,600.00,3500.00,5500.00,M,M,KCOS 012205Z AUTO 00000KT 8SM SCT006 SCT035 OVC055 A3009 RMK MADISHF
COS,2017-04-01 22:10,-104.7008,38.8058,M,M,M,0.00,0.00,M,30.09,M,4.00,M,SCT,SCT,OVC,M,600.00,3500.00,5500.00,M,-SN,KCOS 012210Z AUTO 00000KT 4SM -SN SCT006 SCT035 OVC055 A3009 RMK MADISHF
COS,2017-04-01 22:15,-104.7008,38.8058,M,M,M,0.00,0.00,M,30.09,M,3.00,M,SCT,SCT,OVC,M,600.00,1900.00,3999.00,M,-SN,KCOS 012215Z AUTO 00000KT 3SM -SN SCT006 SCT019 OVC039 A3009 RMK  PCPN VRY LGT MADISHF
COS,2017-04-01 22:20,-104.7008,38.8058,36.00,30.00,78.60,0.00,0.00,0.00,30.09,M,3.00,M,SCT,BKN,OVC,M,600.00,2500.00,4000.00,M,-SN,KCOS 012220Z 00000KT 3SM -SN SCT006 BKN025 OVC040 02/M01 A3009 RMK AO2 SNB06 PCPN VRY LGT P0000 T00221011
COS,2017-04-01 22:25,-104.7008,38.8058,M,M,M,0.00,0.00,M,30.09,M,3.00,M,SCT,BKN,OVC,M,600.00,2500.00,3999.00,M,-SN,KCOS 012225Z AUTO 00000KT 3SM -SN SCT006 BKN025 OVC039 A3009 RMK  PCPN VRY LGT MADISHF
COS,2017-04-01 22:30,-104.7008,38.8058,M,M,M,0.00,0.00,M,30.09,M,3.00,M,SCT,BKN,OVC,M,600.00,2500.00,3999.00,M,-SN,KCOS 012230Z AUTO 00000KT 3SM -SN SCT006 BKN025 OVC039 A3009 RMK  PCPN VRY LGT MADISHF
COS,2017-04-01 22:35,-104.7008,38.8058,M,M,M,70.00,3.00,M,30.09,M,3.00,M,SCT,BKN,OVC,M,600.00,2500.00,3999.00,M,-SN,KCOS 012235Z AUTO 07003KT 3SM -SN SCT006 BKN025 OVC039 A3009 RMK  PCPN VRY LGT MADISHF
COS,2017-04-01 22:40,-104.7008,38.8058,M,M,M,0.00,0.00,M,30.09,M,5.00,M,SCT,BKN,OVC,M,600.00,2500.00,3999.00,M,-SN BR,KCOS 012240Z AUTO 00000KT 5SM -SN BR SCT006 BKN025 OVC039 A3009 RMK  PCPN VRY LGT MADISHF
COS,2017-04-01 22:45,-104.7008,38.8058,M,M,M,0.00,0.00,M,30.09,M,6.00,M,SCT,BKN,OVC,M,600.00,2500.00,3999.00,M,HZ,KCOS 012245Z AUTO 00000KT 6SM HZ SCT006 BKN025 OVC039 A3009 RMK  PCPN VRY LGT MADISHF
COS,2017-04-01 22:50,-104.7008,38.8058,M,M,M,0.00,0.00,M,30.09,M,8.00,M,FEW,BKN,OVC,M,600.00,2500.00,3999.00,M,-SN,KCOS 012250Z AUTO 00000KT 8SM -SN FEW006 BKN025 OVC039 A3009 RMK  PCPN VRY LGT MADISHF
COS,2017-04-01 22:54,-104.7008,38.8058,36.00,30.90,81.53,0.00,0.00,0.00,30.09,1020.70,6.00,M,FEW,BKN,OVC,M,600.00,4000.00,5000.00,M,-SN BR,KCOS 012254Z 00000KT 6SM -SN BR FEW006 BKN040 OVC050 02/M01 A3009 RMK AO2 SNB06 SLP207 PCPN VRY LGT P0000 T00221006
COS,2017-04-01 22:55,-104.7008,38.8058,M,M,M,0.00,0.00,M,30.09,M,8.00,M,BKN,OVC,M,M,4200.00,5000.00,M,M,-SN BR,KCOS 012255Z AUTO 00000KT 8SM -SN BR BKN042 OVC050 A3009 RMK MADISHF
COS,2017-04-01 23:00,-104.7008,38.8058,M,M,M,290.00,3.00,M,30.08,M,6.00,M,FEW,BKN,OVC,M,600.00,3999.00,5000.00,M,-SN BR,KCOS 012300Z AUTO 29003KT 6SM -SN BR FEW006 BKN039 OVC050 A3008 RMK MADISHF
COS,2017-04-01 23:05,-104.7008,38.8058,M,M,M,0.00,0.00,M,30.08,M,7.00,M,FEW,BKN,OVC,M,600.00,3999.00,5000.00,M,-SN BR,KCOS 012305Z AUTO 00000KT 7SM -SN BR FEW006 BKN039 OVC050 A3008 RMK MADISHF
COS,2017-04-01 23:10,-104.7008,38.8058,M,M,M,280.00,3.00,M,30.08,M,8.00,M,FEW,BKN,OVC,M,600.00,3999.00,5000.00,M,-SN BR,KCOS 012310Z AUTO 28003KT 8SM -SN BR FEW006 BKN039 OVC050 A3008 RMK MADISHF
COS,2017-04-01 23:15,-104.7008,38.8058,M,M,M,0.00,0.00,M,30.08,M,9.00,M,FEW,BKN,OVC,M,600.00,3999.00,5000.00,M,M,KCOS 012315Z AUTO 00000KT 9SM FEW006 BKN039 OVC050 A3008 RMK MADISHF
COS,2017-04-01 23:20,-104.7008,38.8058,M,M,M,0.00,0.00,M,30.08,M,10.00,M,FEW,BKN,OVC,M,600.00,4300.00,5500.00,M,M,KCOS 012320Z AUTO 00000KT 10SM FEW006 BKN043 OVC055 A3008 RMK MADISHF
COS,2017-04-01 23:25,-104.7008,38.8058,M,M,M,230.00,3.00,M,30.08,M,10.00,M,FEW,BKN,OVC,M,600.00,4300.00,5500.00,M,M,KCOS 012325Z AUTO 23003KT 10SM FEW006 BKN043 OVC055 A3008 RMK MADISHF
COS,2017-04-01 23:30,-104.7008,38.8058,M,M,M,0.00,0.00,M,30.08,M,10.00,M,FEW,BKN,OVC,M,600.00,4300.00,5500.00,M,M,KCOS 012330Z AUTO 00000KT 10SM FEW006 BKN043 OVC055 A3008 RMK MADISHF
COS,2017-04-01 23:35,-104.7008,38.8058,M,M,M,0.00,0.00,M,30.08,M,10.00,M,FEW,SCT,OVC,M,600.00,5000.00,7000.00,M,M,KCOS 012335Z AUTO 00000KT 10SM FEW006 SCT050 OVC070 A3008 RMK MADISHF
COS,2017-04-01 23:40,-104.7008,38.8058,M,M,M,0.00,0.00,M,30.08,M,10.00,M,FEW,SCT,OVC,M,600.00,5000.00,7000.00,M,M,KCOS 012340Z AUTO 00000KT 10SM FEW006 SCT050 OVC070 A3008 RMK MADISHF
COS,2017-04-01 23:45,-104.7008,38.8058,M,M,M,0.00,0.00,M,30.08,M,10.00,M,FEW,SCT,OVC,M,600.00,5000.00,7000.00,M,M,KCOS 012345Z AUTO 00000KT 10SM FEW006 SCT050 OVC070 A3008 RMK MADISHF
COS,2017-04-01 23:50,-104.7008,38.8058,M,M,M,0.00,0.00,M,30.08,M,10.00,M,FEW,SCT,BKN,M,600.00,6000.00,8500.00,M,M,KCOS 012350Z AUTO 00000KT 10SM FEW006 SCT060 BKN085 A3008 RMK MADISHF
COS,2017-04-01 23:54,-104.7008,38.8058,36.00,32.00,85.23,0.00,0.00,0.00,30.08,1020.40,10.00,M,FEW,SCT,BKN,BKN,600.00,6000.00,8500.00,20000.00,M,KCOS 012354Z 00000KT 10SM FEW006 SCT060 BKN085 BKN200 02/00 A3008 RMK AO2 SNE11 SLP204 P0000 60017 T00220000 10028 20000 56008
COS,2017-04-01 23:55,-104.7008,38.8058,M,M,M,0.00,0.00,M,30.08,M,10.00,M,FEW,SCT,BKN,M,499.00,6000.00,8500.00,M,M,KCOS 012355Z AUTO 00000KT 10SM FEW004 SCT060 BKN085 A3008 RMK MADISHF
