#DEBUG: Format Typ    -> comma
#DEBUG: Time Period   -> 2017-04-01 00:00:00+00:00 2017-04-02 00:00:00+00:00
#DEBUG: Time Zone     -> Etc/UTC
#DEBUG: Data Contact   -> daryl herzmann akrherz@iastate.edu 515-294-5978
#DEBUG: Entries Found -> -1
station,valid,lon,lat,tmpf, dwpf, relh, drct, sknt, p01i, alti, mslp, vsby, gust, skyc1, skyc2, skyc3, skyc4, skyl1, skyl2, skyl3, skyl4, presentwx, metar
COU,2017-04-01 00:00,-92.2183,38.8169,M,M,M,360.00,7.00,M,30.00,M,10.00,M,OVC,M,M,M,1699.00,M,M,M,M,KCOU 010000Z AUTO 36007KT 10SM OVC016 A3000 RMK MADISHF
COU,2017-04-01 00:05,-92.2183,38.8169,M,M,M,350.00,7.00,M,30.01,M,10.00,M,OVC,M,M,M,1699.00,M,M,M,M,KCOU 010005Z AUTO 35007KT 10SM OVC016 A3001 RMK MADISHF
COU,2017-04-01 00:10,-92.2183,38.8169,M,M,M,360.00,7.00,M,30.01,M,10.00,M,OVC,M,M,M,1900.00,M,M,M,M,KCOU 010010Z AUTO 36007KT 10SM OVC019 A3001 RMK MADISHF
COU,2017-04-01 00:15,-92.2183,38.8169,M,M,M,10.00,6.00,M,30.01,M,10.00,M,OVC,M,M,M,1900.00,M,M,M,M,KCOU 010015Z AUTO 01006KT 10SM OVC019 A3001 RMK MADISHF
COU,2017-04-01 00:20,-92.2183,38.8169,M,M,M,10.00,6.00,M,30.02,M,10.00,M,OVC,M,M,M,1800.00,M,M,M,M,KCOU 010020Z AUTO 01006KT 10SM OVC018 A3002 RMK MADISHF
COU,2017-04-01 00:25,-92.2183,38.8169,M,M,M,20.00,7.00,M,30.02,M,10.00,M,OVC,M,M,M,1800.00,M,M,M,M,KCOU 010025Z AUTO 02007KT 10SM OVC018 A3002 RMK MADISHF
COU,2017-04-01 00:30,-92.2183,38.8169,M,M,M,10.00,7.00,M,30.02,M,10.00,M,OVC,M,M,M,1699.00,M,M,M,M,KCOU 010030Z AUTO 01007KT 10SM OVC016 A3002 RMK MADISHF
COU,2017-04-01 00:35,-92.2183,38.8169,M,M,M,20.00,8.00,M,30.02,M,10.00,M,OVC,M,M,M,1699.00,M,M,M,M,KCOU 010035Z AUTO 02008KT 10SM OVC016 A3002 RMK MADISHF
COU,2017-04-01 00:40,-92.2183,38.8169,M,M,M,20.00,6.00,M,30.02,M,10.00,M,OVC,M,M,M,1699.00,M,M,M,M,KCOU 010040Z AUTO 02006KT 10SM OVC016 A3002 RMK MADISHF
COU,2017-04-01 00:45,-92.2183,38.8169,M,M,M,20.00,7.00,M,30.02,M,10.00,M,OVC,M,M,M,1699.00,M,M,M,M,KCOU 010045Z AUTO 02007KT 10SM OVC016 A3002 RMK MADISHF
COU,2017-04-01 00:50,-92.2183,38.8169,M,M,M,30.00,5.00,M,30.02,M,10.00,M,OVC,M,M,M,1699.00,M,M,M,M,KCOU 010050Z AUTO 03005KT 10SM OVC016 A3002 RMK MADISHF
COU,2017-04-01 00:54,-92.2183,38.8169,46.90,42.10,83.28,30.00,5.00,0.00,30.02,1016.90,10.00,M,OVC,M,M,M,1700.00,M,M,M,M,KCOU 010054Z 03005KT 10SM OVC017 08/06 A3002 RMK AO2 SLP169 T00830056
COU,2017-04-01 00:55,-92.2183,38.8169,M,M,M,30.00,6.00,M,30.02,M,10.00,M,OVC,M,M,M,1699.00,M,M,M,M,KCOU 010055Z AUTO 03006KT 10SM OVC016 A3002 RMK MADISHF
COU,2017-04-01 01:00,-92.2183,38.8169,M,M,M,30.00,9.00,M,30.02,M,10.00,M,OVC,M,M,M,1699.00,M,M,M,M,KCOU 010100Z AUTO 03009KT 10SM OVC016 A3002 RMK MADISHF
COU,2017-04-01 01:05,-92.2183,38.8169,M,M,M,30.00,8.00,M,30.02,M,10.00,M,OVC,M,M,M,1699.00,M,M,M,M,KCOU 010105Z AUTO 03008KT 10SM OVC016 A3002 RMK MADISHF
COU,2017-04-01 01:10,-92.2183,38.8169,M,M,M,30.00,7.00,M,30.02,M,10.00,M,OVC,M,M,M,1699.00,M,M,M,M,KCOU 010110Z AUTO 03007KT 10SM OVC016 A3002 RMK MADISHF
COU,2017-04-01 01:15,-92.2183,38.8169,M,M,M,30.00,8.00,M,30.03,M,10.00,M,OVC,M,M,M,1699.00,M,M,M,M,KCOU 010115Z AUTO 03008KT 10SM OVC016 A3003 RMK MADISHF
COU,2017-04-01 01:20,-92.2183,38.8169,M,M,M,30.00,8.00,M,30.03,M,10.00,M,OVC,M,M,M,1699.00,M,M,M,M,KCOU 010120Z AUTO 03008KT 10SM OVC016 A3003 RMK MADISHF
COU,2017-04-01 01:25,-92.2183,38.8169,M,M,M,40.00,7.00,M,30.03,M,10.00,M,OVC,M,M,M,1900.00,M,M,M,M,KCOU 010125Z AUTO 04007KT 10SM OVC019 A3003 RMK MADISHF
COU,2017-04-01 01:30,-92.2183,38.8169,M,M,M,30.00,8.00,M,30.03,M,10.00,M,OVC,M,M,M,1900.00,M,M,M,M,KCOU 010130Z AUTO 03008KT 10SM OVC019 A3003 RMK MADISHF
COU,2017-04-01 01:35,-92.2183,38.8169,M,M,M,30.00,8.00,M,30.03,M,10.00,M,OVC,M,M,M,1900.00,M,M,M,M,KCOU 010135Z AUTO 03008KT 10SM OVC019 A3003 RMK MADISHF
COU,2017-04-01 01:40,-92.2183,38.8169,M,M,M,30.00,8.00,M,30.04,M,10.00,M,OVC,M,M,M,1900.00,M,M,M,M,KCOU 010140Z AUTO 03008KT 10SM OVC019 A3004 RMK MADISHF
COU,2017-04-01 01:45,-92.2183,38.8169,M,M,M,40.00,6.00,M,30.04,M,10.00,M,OVC,M,M,M,1900.00,M,M,M,M,KCOU 010145Z AUTO 04006KT 10SM OVC019 A3004 RMK MADISHF
COU,2017-04-01 01:50,-92.2183,38.8169,M,M,M,30.00,6.00,M,30.04,M,10.00,M,OVC,M,M,M,1900.00,M,M,M,M,KCOU 010150Z AUTO 03006KT 10SM OVC019 A3004 RMK MADISHF
COU,2017-04-01 01:54,-92.2183,38.8169,46.00,41.00,82.58,30.00,8.00,0.00,30.05,1017.70,10.00,M,OVC,M,M,M,1900.00,M,M,M,M,KCOU 010154Z 03008KT 10SM OVC019 08/05 A3005 RMK AO2 SLP177 T00780050
COU,2017-04-01 01:55,-92.2183,38.8169,M,M,M,40.00,8.00,M,30.05,M,10.00,M,OVC,M,M,M,1900.00,M,M,M,M,KCOU 010155Z AUTO 04008KT 10SM OVC019 A3005 RMK MADISHF
COU,2017-04-01 02:00,-92.2183,38.8169,M,M,M,30.00,8.00,M,30.05,M,10.00,M,OVC,M,M,M,1900.00,M,M,M,M,KCOU 010200Z AUTO 03008KT 10SM OVC019 A3005 RMK MADISHF
COU,2017-04-01 02:05,-92.2183,38.8169,M,M,M,40.00,7.00,M,30.05,M,10.00,M,OVC,M,M,M,1800.00,M,M,M,M,KCOU 010205Z AUTO 04007KT 10SM OVC018 A3005 RMK MADISHF
COU,2017-04-01 02:10,-92.2183,38.8169,M,M,M,40.00,8.00,M,30.06,M,10.00,M,OVC,M,M,M,1800.00,M,M,M,M,KCOU 010210Z AUTO 04008KT 10SM OVC018 A3006 RMK MADISHF
COU,2017-04-01 02:15,-92.2183,38.8169,M,M,M,30.00,7.00,M,30.06,M,10.00,M,OVC,M,M,M,1699.00,M,M,M,M,KCOU 010215Z AUTO 03007KT 10SM OVC016 A3006 RMK MADISHF
COU,2017-04-01 02:20,-92.2183,38.8169,M,M,M,40.00,8.00,M,30.06,M,10.00,M,OVC,M,M,M,1699.00,M,M,M,M,KCOU 010220Z AUTO 04008KT 10SM OVC016 A3006 RMK MADISHF
COU,2017-04-01 02:25,-92.2183,38.8169,M,M,M,40.00,10.00,M,30.06,M,10.00,M,OVC,M,M,M,1699.00,M,M,M,M,KCOU 010225Z AUTO 04010KT 10SM OVC016 A3006 RMK MADISHF
COU,2017-04-01 02:30,-92.2183,38.8169,M,M,M,40.00,9.00,M,30.06,M,10.00,M,OVC,M,M,M,1699.00,M,M,M,M,KCOU 010230Z AUTO 04009KT 10SM OVC016 A3006 RMK MADISHF
COU,2017-04-01 02:35,-92.2183,38.8169,M,M,M,40.00,9.00,M,30.06,M,10.00,M,OVC,M,M,M,1699.00,M,M,M,M,KCOU 010235Z AUTO 04009KT 10SM OVC016 A3006 RMK MADISHF
COU,2017-04-01 02:40,-92.2183,38.8169,M,M,M,40.00,9.00,M,30.06,M,10.00,M,OVC,M,M,M,1699.00,M,M,M,M,KCOU 010240Z AUTO 04009KT 10SM OVC016 A3006 RMK MADISHF
COU,2017-04-01 02:45,-92.2183,38.8169,M,M,M,40.00,8.00,M,30.06,M,10.00,M,OVC,M,M,M,1699.00,M,M,M,M,KCOU 010245Z AUTO 04008KT 10SM OVC016 A3006 RMK MADISHF
COU,2017-04-01 02:50,-92.2183,38.8169,M,M,M,20.00,11.00,M,30.06,M,10.00,M,OVC,M,M,M,1699.00,M,M,M,M,KCOU 010250Z AUTO 02011KT 10SM OVC016 A3006 RMK MADISHF
COU,2017-04-01 02:54,-92.2183,38.8169,46.00,39.90,79.13,30.00,9.00,0.00,30.06,1018.10,10.00,M,OVC,M,M,M,1700.00,M,M,M,M,KCOU 010254Z AUTO 03009KT 10SM OVC017 08/04 A3006 RMK AO2 SLP181 T00780044 51021
COU,2017-04-01 02:55,-92.2183,38.8169,M,M,M,30.00,9.00,M,30.06,M,10.00,M,OVC,M,M,M,1699.00,M,M,M,M,KCOU 010255Z AUTO 03009KT 10SM OVC016 A3006 RMK MADISHF
COU,2017-04-01 03:00,-92.2183,38.8169,M,M,M,30.00,6.00,M,30.06,M,10.00,M,OVC,M,M,M,1600.00,M,M,M,M,KCOU 010300Z AUTO 03006KT 10SM OVC016 A3006 RMK MADISHF
COU,2017-04-01 03:05,-92.2183,38.8169,M,M,M,50.00,6.00,M,30.06,M,10.00,M,OVC,M,M,M,1600.00,M,M,M,M,KCOU 010305Z AUTO 05006KT 10SM OVC016 A3006 RMK MADISHF
COU,2017-04-01 03:10,-92.2183,38.8169,M,M,M,30.00,7.00,M,30.07,M,10.00,M,OVC,M,M,M,1600.00,M,M,M,M,KCOU 010310Z AUTO 03007KT 10SM OVC016 A3007 RMK MADISHF
COU,2017-04-01 03:15,-92.2183,38.8169,M,M,M,30.00,10.00,M,30.07,M,10.00,M,OVC,M,M,M,1600.00,M,M,M,M,KCOU 010315Z AUTO 03010KT 10SM OVC016 A3007 RMK MADISHF
COU,2017-04-01 03:20,-92.2183,38.8169,M,M,M,30.00,7.00,M,30.07,M,10.00,M,OVC,M,M,M,1600.00,M,M,M,M,KCOU 010320Z AUTO 03007KT 10SM OVC016 A3007 RMK MADISHF
COU,2017-04-01 03:25,-92.2183,38.8169,M,M,M,30.00,8.00,M,30.07,M,10.00,M,OVC,M,M,M,1600.00,M,M,M,M,KCOU 010325Z AUTO 03008KT 10SM OVC016 A3007 RMK MADISHF
COU,2017-04-01 03:30,-92.2183,38.8169,M,M,M,50.00,6.00,M,30.08,M,10.00,M,OVC,M,M,M,1600.00,M,M,M,M,KCOU 010330Z AUTO 05006KT 10SM OVC016 A3008 RMK MADISHF
COU,2017-04-01 03:35,-92.2183,38.8169,M,M,M,50.00,7.00,M,30.08,M,10.00,M,OVC,M,M,M,1600.00,M,M,M,M,KCOU 010335Z AUTO 05007KT 10SM OVC016 A3008 RMK MADISHF
COU,2017-04-01 03:40,-92.2183,38.8169,M,M,M,50.00,9.00,M,30.08,M,10.00,M,OVC,M,M,M,1600.00,M,M,M,M,KCOU 010340Z AUTO 05009KT 10SM OVC016 A3008 RMK MADISHF
COU,2017-04-01 03:45,-92.2183,38.8169,M,M,M,50.00,8.00,M,30.08,M,10.00,M,OVC,M,M,M,1600.00,M,M,M,M,KCOU 010345Z AUTO 05008KT 10SM OVC016 A3008 RMK MADISHF
COU,2017-04-01 03:50,-92.2183,38.8169,M,M,M,30.00,8.00,M,30.08,M,10.00,M,OVC,M,M,M,1600.00,M,M,M,M,KCOU 010350Z AUTO 03008KT 10SM OVC016 A3008 RMK MADISHF
COU,2017-04-01 03:54,-92.2183,38.8169,45.00,39.90,82.19,50.00,6.00,0.00,30.08,1018.90,10.00,M,OVC,M,M,M,1600.00,M,M,M,M,KCOU 010354Z AUTO 05006KT 10SM OVC016 07/04 A3008 RMK AO2 SLP189 T00720044
COU,2017-04-01 03:55,-92.2183,38.8169,M,M,M,40.00,6.00,M,30.08,M,10.00,M,OVC,M,M,M,1600.00,M,M,M,M,KCOU 010355Z AUTO 04006KT 10SM OVC016 A3008 RMK MADISHF
COU,2017-04-01 04:00,-92.2183,38.8169,M,M,M,40.00,5.00,M,30.09,M,10.00,M,OVC,M,M,M,1600.00,M,M,M,M,KCOU 010400Z AUTO 04005KT 10SM OVC016 A3009 RMK MADISHF
COU,2017-04-01 04:05,-92.2183,38.8169,M,M,M,50.00,5.00,M,30.09,M,10.00,M,OVC,M,M,M,1600.00,M,M,M,M,KCOU 010405Z AUTO 05005KT 10SM OVC016 A3009 RMK MADISHF
COU,2017-04-01 04:10,-92.2183,38.8169,M,M,M,60.00,6.00,M,30.09,M,10.00,M,OVC,M,M,M,1600.00,M,M,M,M,KCOU 010410Z AUTO 06006KT 10SM OVC016 A3009 RMK MADISHF
COU,2017-04-01 04:15,-92.2183,38.8169,M,M,M,60.00,7.00,M,30.09,M,10.00,M,OVC,M,M,M,1600.00,M,M,M,M,KCOU 010415Z AUTO 06007KT 10SM OVC016 A3009 RMK MADISHF
COU,2017-04-01 04:20,-92.2183,38.8169,M,M,M,50.00,7.00,M,30.09,M,10.00,M,OVC,M,M,M,1500.00,M,M,M,M,KCOU 010420Z AUTO 05007KT 10SM OVC015 A3009 RMK MADISHF
COU,2017-04-01 04:25,-92.2183,38.8169,M,M,M,70.00,7.00,M,30.09,M,10.00,M,OVC,M,M,M,1500.00,M,M,M,M,KCOU 010425Z AUTO 07007KT 10SM OVC015 A3009 RMK MADISHF
COU,2017-04-01 04:30,-92.2183,38.8169,M,M,M,70.00,6.00,M,30.09,M,10.00,M,OVC,M,M,M,1500.00,M,M,M,M,KCOU 010430Z AUTO 07006KT 10SM OVC015 A3009 RMK MADISHF
COU,2017-04-01 04:35,-92.2183,38.8169,M,M,M,70.00,7.00,M,30.10,M,10.00,M,OVC,M,M,M,1500.00,M,M,M,M,KCOU 010435Z AUTO 07007KT 10SM OVC015 A3010 RMK MADISHF
COU,2017-04-01 04:40,-92.2183,38.8169,M,M,M,60.00,6.00,M,30.10,M,10.00,M,OVC,M,M,M,1500.00,M,M,M,M,KCOU 010440Z AUTO 06006KT 10SM OVC015 A3010 RMK MADISHF
COU,2017-04-01 04:45,-92.2183,38.8169,M,M,M,40.00,6.00,M,30.10,M,10.00,M,OVC,M,M,M,1500.00,M,M,M,M,KCOU 010445Z AUTO 04006KT 10SM OVC015 A3010 RMK MADISHF
COU,2017-04-01 04:50,-92.2183,38.8169,M,M,M,40.00,8.00,M,30.11,M,10.00,M,OVC,M,M,M,1500.00,M,M,M,M,KCOU 010450Z AUTO 04008KT 10SM OVC015 A3011 RMK MADISHF
COU,2017-04-01 04:54,-92.2183,38.8169,45.00,39.00,79.36,40.00,7.00,0.00,30.11,1019.80,10.00,M,OVC,M,M,M,1500.00,M,M,M,M,KCOU 010454Z AUTO 04007KT 10SM OVC015 07/04 A3011 RMK AO2 SLP198 T00720039
COU,2017-04-01 04:55,-92.2183,38.8169,M,M,M,50.00,7.00,M,30.11,M,10.00,M,OVC,M,M,M,1500.00,M,M,M,M,KCOU 010455Z AUTO 05007KT 10SM OVC015 A3011 RMK MADISHF
COU,2017-04-01 05:00,-92.2183,38.8169,M,M,M,50.00,5.00,M,30.11,M,10.00,M,OVC,M,M,M,1500.00,M,M,M,M,KCOU 010500Z AUTO 05005KT 10SM OVC015 A3011 RMK MADISHF
COU,2017-04-01 05:05,-92.2183,38.8169,M,M,M,60.00,7.00,M,30.11,M,10.00,M,OVC,M,M,M,1500.00,M,M,M,M,KCOU 010505Z AUTO 06007KT 10SM OVC015 A3011 RMK MADISHF
COU,2017-04-01 05:10,-92.2183,38.8169,M,M,M,80.00,9.00,M,30.11,M,10.00,M,OVC,M,M,M,1500.00,M,M,M,M,KCOU 010510Z AUTO 08009KT 10SM OVC015 A3011 RMK MADISHF
COU,2017-04-01 05:15,-92.2183,38.8169,M,M,M,50.00,8.00,M,30.11,M,10.00,M,OVC,M,M,M,1500.00,M,M,M,M,KCOU 010515Z AUTO 05008KT 10SM OVC015 A3011 RMK MADISHF
COU,2017-04-01 05:20,-92.2183,38.8169,M,M,M,40.00,7.00,M,30.11,M,10.00,M,OVC,M,M,M,1400.00,M,M,M,M,KCOU 010520Z AUTO 04007KT 10SM OVC014 A3011 RMK MADISHF
COU,2017-04-01 05:23,-92.2183,38.8169,44.10,39.90,85.06,50.00,5.00,0.00,30.11,M,10.00,M,OVC,M,M,M,1400.00,M,M,M,M,KCOU 010523Z AUTO 05005KT 10SM OVC014 07/04 A3011 RMK AO2 T00670044
COU,2017-04-01 05:25,-92.2183,38.8169,M,M,M,30.00,5.00,M,30.12,M,10.00,M,OVC,M,M,M,1400.00,M,M,M,M,KCOU 010525Z AUTO 03005KT 10SM OVC014 A3012 RMK MADISHF
COU,2017-04-01 05:30,-92.2183,38.8169,M,M,M,30.00,5.00,M,30.12,M,10.00,M,OVC,M,M,M,1400.00,M,M,M,M,KCOU 010530Z AUTO 03005KT 10SM OVC014 A3012 RMK MADISHF
COU,2017-04-01 05:35,-92.2183,38.8169,M,M,M,40.00,5.00,M,30.11,M,10.00,M,OVC,M,M,M,1400.00,M,M,M,M,KCOU 010535Z AUTO 04005KT 10SM OVC014 A3011 RMK MADISHF
COU,2017-04-01 05:40,-92.2183,38.8169,M,M,M,50.00,5.00,M,30.12,M,10.00,M,OVC,M,M,M,1400.00,M,M,M,M,KCOU 010540Z AUTO 05005KT 10SM OVC014 A3012 RMK MADISHF
COU,2017-04-01 05:45,-92.2183,38.8169,M,M,M,50.00,5.00,M,30.12,M,10.00,M,OVC,M,M,M,1400.00,M,M,M,M,KCOU 010545Z AUTO 05005KT 10SM OVC014 A3012 RMK MADISHF
COU,2017-04-01 05:50,-92.2183,38.8169,M,M,M,50.00,7.00,M,30.11,M,10.00,M,OVC,M,M,M,1400.00,M,M,M,M,KCOU 010550Z AUTO 05007KT 10SM OVC014 A3011 RMK MADISHF
COU,2017-04-01 05:54,-92.2183,38.8169,44.10,39.90,85.06,40.00,9.00,0.00,30.11,1019.90,10.00,M,OVC,M,M,M,1400.00,M,M,M,M,KCOU 010554Z AUTO 04009KT 10SM OVC014 07/04 A3011 RMK AO2 SLP199 T00670044 10089 20067 401000061 51017
COU,2017-04-01 05:55,-92.2183,38.8169,M,M,M,40.00,9.00,M,30.11,M,10.00,M,OVC,M,M,M,1400.00,M,M,M,M,KCOU 010555Z AUTO 04009KT 10SM OVC014 A3011 RMK MADISHF
COU,2017-04-01 06:00,-92.2183,38.8169,M,M,M,50.00,5.00,M,30.11,M,10.00,M,OVC,M,M,M,1300.00,M,M,M,M,KCOU 010600Z AUTO 05005KT 10SM OVC013 A3011 RMK MADISHF
COU,2017-04-01 06:05,-92.2183,38.8169,M,M,M,70.00,7.00,M,30.11,M,10.00,M,OVC,M,M,M,1300.00,M,M,M,M,KCOU 010605Z AUTO 07007KT 10SM OVC013 A3011 RMK MADISHF
COU,2017-04-01 06:10,-92.2183,38.8169,M,M,M,60.00,8.00,M,30.11,M,10.00,M,OVC,M,M,M,1300.00,M,M,M,M,KCOU 010610Z AUTO 06008KT 10SM OVC013 A3011 RMK MADISHF
COU,2017-04-01 06:15,-92.2183,38.8169,M,M,M,60.00,5.00,M,30.12,M,10.00,M,OVC,M,M,M,1300.00,M,M,M,M,KCOU 010615Z AUTO 06005KT 10SM OVC013 A3012 RMK MADISHF
COU,2017-04-01 06:20,-92.2183,38.8169,M,M,M,70.00,8.00,M,30.11,M,10.00,M,OVC,M,M,M,1300.00,M,M,M,M,KCOU 010620Z AUTO 07008KT 10SM OVC013 A3011 RMK MADISHF
COU,2017-04-01 06:25,-92.2183,38.8169,M,M,M,60.00,8.00,M,30.11,M,10.00,M,OVC,M,M,M,1200.00,M,M,M,M,KCOU 010625Z AUTO 06008KT 10SM OVC012 A3011 RMK MADISHF
COU,2017-04-01 06:30,-92.2183,38.8169,M,M,M,50.00,8.00,M,30.12,M,10.00,M,OVC,M,M,M,1200.00,M,M,M,M,KCOU 010630Z AUTO 05008KT 10SM OVC012 A3012 RMK MADISHF
COU,2017-04-01 06:35,-92.2183,38.8169,M,M,M,40.00,8.00,M,30.12,M,10.00,M,OVC,M,M,M,1200.00,M,M,M,M,KCOU 010635Z AUTO 04008KT 10SM OVC012 A3012 RMK MADISHF
COU,2017-04-01 06:40,-92.2183,38.8169,M,M,M,20.00,10.00,M,30.12,M,10.00,M,OVC,M,M,M,1200.00,M,M,M,M,KCOU 010640Z AUTO 02010KT 10SM OVC012 A3012 RMK MADISHF
COU,2017-04-01 06:45,-92.2183,38.8169,M,M,M,40.00,9.00,M,30.12,M,10.00,M,OVC,M,M,M,1200.00,M,M,M,M,KCOU 010645Z AUTO 04009KT 10SM OVC012 A3012 RMK MADISHF
COU,2017-04-01 06:50,-92.2183,38.8169,M,M,M,30.00,9.00,M,30.12,M,10.00,M,OVC,M,M,M,1200.00,M,M,M,M,KCOU 010650Z AUTO 03009KT 10SM OVC012 A3012 RMK MADISHF
COU,2017-04-01 06:54,-92.2183,38.8169,43.00,39.90,88.71,30.00,8.00,0.00,30.12,1020.00,10.00,M,OVC,M,M,M,1200.00,M,M,M,M,KCOU 010654Z AUTO 03008KT 10SM OVC012 06/04 A3012 RMK AO2 SLP200 T00610044
COU,2017-04-01 06:55,-92.2183,38.8169,M,M,M,40.00,8.00,M,30.12,M,10.00,M,OVC,M,M,M,1200.00,M,M,M,M,KCOU 010655Z AUTO 04008KT 10SM OVC012 A3012 RMK MADISHF
COU,2017-04-01 07:00,-92.2183,38.8169,M,M,M,30.00,8.00,M,30.12,M,10.00,M,OVC,M,M,M,1200.00,M,M,M,M,KCOU 010700Z AUTO 03008KT 10SM OVC012 A3012 RMK MADISHF
COU,2017-04-01 07:05,-92.2183,38.8169,M,M,M,40.00,7.00,M,30.12,M,10.00,M,OVC,M,M,M,1200.00,M,M,M,M,KCOU 010705Z AUTO 04007KT 10SM OVC012 A3012 RMK MADISHF
COU,2017-04-01 07:10,-92.2183,38.8169,M,M,M,50.00,4.00,M,30.12,M,10.00,M,OVC,M,M,M,1200.00,M,M,M,M,KCOU 010710Z AUTO 05004KT 10SM OVC012 A3012 RMK MADISHF
COU,2017-04-01 07:15,-92.2183,38.8169,M,M,M,60.00,5.00,M,30.13,M,10.00,M,OVC,M,M,M,1200.00,M,M,M,M,KCOU 010715Z AUTO 06005KT 10SM OVC012 A3013 RMK MADISHF
COU,2017-04-01 07:20,-92.2183,38.8169,M,M,M,80.00,6.00,M,30.13,M,10.00,M,OVC,M,M,M,1200.00,M,M,M,M,KCOU 010720Z AUTO 08006KT 10SM OVC012 A3013 RMK MADISHF
COU,2017-04-01 07:25,-92.2183,38.8169,M,M,M,70.00,8.00,M,30.13,M,10.00,M,OVC,M,M,M,1200.00,M,M,M,M,KCOU 010725Z AUTO 07008KT 10SM OVC012 A3013 RMK MADISHF
COU,2017-04-01 07:30,-92.2183,38.8169,M,M,M,60.00,6.00,M,30.13,M,10.00,M,OVC,M,M,M,1200.00,M,M,M,M,KCOU 010730Z AUTO 06006KT 10SM OVC012 A3013 RMK MADISHF
COU,2017-04-01 07:40,-92.2183,38.8169,M,M,M,70.00,6.00,M,30.13,M,10.00,M,OVC,M,M,M,1200.00,M,M,M,M,KCOU 010740Z AUTO 07006KT 10SM OVC012 A3013 RMK MADISHF
COU,2017-04-01 07:45,-92.2183,38.8169,M,M,M,70.00,7.00,M,30.13,M,10.00,M,OVC,M,M,M,1200.00,M,M,M,M,KCOU 010745Z AUTO 07007KT 10SM OVC012 A3013 RMK MADISHF
COU,2017-04-01 07:50,-92.2183,38.8169,M,M,M,60.00,6.00,M,30.13,M,10.00,M,OVC,M,M,M,1100.00,M,M,M,M,KCOU 010750Z AUTO 06006KT 10SM OVC011 A3013 RMK MADISHF
COU,2017-04-01 07:54,-92.2183,38.8169,42.10,39.00,88.67,50.00,9.00,0.00,30.14,1020.70,10.00,M,OVC,M,M,M,1100.00,M,M,M,M,KCOU 010754Z AUTO 05009KT 10SM OVC011 06/04 A3014 RMK AO2 SLP207 T00560039
COU,2017-04-01 07:55,-92.2183,38.8169,M,M,M,40.00,8.00,M,30.14,M,10.00,M,OVC,M,M,M,1100.00,M,M,M,M,KCOU 010755Z AUTO 04008KT 10SM OVC011 A3014 RMK MADISHF
COU,2017-04-01 08:00,-92.2183,38.8169,M,M,M,60.00,7.00,M,30.14,M,10.00,M,OVC,M,M,M,1100.00,M,M,M,M,KCOU 010800Z AUTO 06007KT 10SM OVC011 A3014 RMK MADISHF
COU,2017-04-01 08:05,-92.2183,38.8169,M,M,M,40.00,8.00,M,30.13,M,10.00,M,OVC,M,M,M,1100.00,M,M,M,M,KCOU 010805Z AUTO 04008KT 10SM OVC011 A3013 RMK MADISHF
COU,2017-04-01 08:10,-92.2183,38.8169,M,M,M,50.00,5.00,M,30.14,M,10.00,M,OVC,M,M,M,1100.00,M,M,M,M,KCOU 010810Z AUTO 05005KT 10SM OVC011 A3014 RMK MADISHF
COU,2017-04-01 08:15,-92.2183,38.8169,M,M,M,50.00,5.00,M,30.14,M,10.00,M,OVC,M,M,M,1100.00,M,M,M,M,KCOU 010815Z AUTO 05005KT 10SM OVC011 A3014 RMK MADISHF
COU,2017-04-01 08:20,-92.2183,38.8169,M,M,M,40.00,6.00,M,30.14,M,10.00,M,OVC,M,M,M,1100.00,M,M,M,M,KCOU 010820Z AUTO 04006KT 10SM OVC011 A3014 RMK MADISHF
COU,2017-04-01 08:25,-92.2183,38.8169,M,M,M,60.00,6.00,M,30.14,M,10.00,M,OVC,M,M,M,1100.00,M,M,M,M,KCOU 010825Z AUTO 06006KT 10SM OVC011 A3014 RMK MADISHF
COU,2017-04-01 08:30,-92.2183,38.8169,M,M,M,50.00,5.00,M,30.14,M,10.00,M,OVC,M,M,M,1100.00,M,M,M,M,KCOU 010830Z AUTO 05005KT 10SM OVC011 A3014 RMK MADISHF
COU,2017-04-01 08:35,-92.2183,38.8169,M,M,M,40.00,5.00,M,30.14,M,10.00,M,OVC,M,M,M,1100.00,M,M,M,M,KCOU 010835Z AUTO 04005KT 10SM OVC011 A3014 RMK MADISHF
COU,2017-04-01 08:40,-92.2183,38.8169,M,M,M,30.00,7.00,M,30.14,M,10.00,M,OVC,M,M,M,999.00,M,M,M,M,KCOU 010840Z AUTO 03007KT 10SM OVC009 A3014 RMK MADISHF
COU,2017-04-01 08:45,-92.2183,38.8169,M,M,M,40.00,7.00,M,30.15,M,10.00,M,OVC,M,M,M,999.00,M,M,M,M,KCOU 010845Z AUTO 04007KT 10SM OVC009 A3015 RMK MADISHF
COU,2017-04-01 08:50,-92.2183,38.8169,M,M,M,20.00,8.00,M,30.15,M,10.00,M,OVC,M,M,M,999.00,M,M,M,M,KCOU 010850Z AUTO 02008KT 10SM OVC009 A3015 RMK MADISHF
COU,2017-04-01 08:54,-92.2183,38.8169,42.10,39.00,88.67,10.00,8.00,0.00,30.15,1021.20,10.00,M,OVC,M,M,M,1000.00,M,M,M,M,KCOU 010854Z AUTO 01008KT 10SM OVC010 06/04 A3015 RMK AO2 SLP212 T00560039 53013
COU,2017-04-01 08:55,-92.2183,38.8169,M,M,M,20.00,6.00,M,30.15,M,10.00,M,OVC,M,M,M,999.00,M,M,M,M,KCOU 010855Z AUTO 02006KT 10SM OVC009 A3015 RMK MADISHF
COU,2017-04-01 09:00,-92.2183,38.8169,M,M,M,20.00,6.00,M,30.15,M,10.00,M,OVC,M,M,M,999.00,M,M,M,M,KCOU 010900Z AUTO 02006KT 10SM OVC009 A3015 RMK MADISHF
COU,2017-04-01 09:05,-92.2183,38.8169,M,M,M,20.00,6.00,M,30.15,M,10.00,M,OVC,M,M,M,999.00,M,M,M,M,KCOU 010905Z AUTO 02006KT 10SM OVC009 A3015 RMK MADISHF
COU,2017-04-01 09:10,-92.2183,38.8169,M,M,M,10.00,8.00,M,30.16,M,10.00,M,OVC,M,M,M,999.00,M,M,M,M,KCOU 010910Z AUTO 01008KT 10SM OVC009 A3016 RMK MADISHF
COU,2017-04-01 09:15,-92.2183,38.8169,M,M,M,30.00,8.00,M,30.16,M,10.00,M,OVC,M,M,M,999.00,M,M,M,M,KCOU 010915Z AUTO 03008KT 10SM OVC009 A3016 RMK MADISHF
COU,2017-04-01 09:20,-92.2183,38.8169,M,M,M,50.00,9.00,M,30.15,M,10.00,M,OVC,M,M,M,999.00,M,M,M,M,KCOU 010920Z AUTO 05009KT 10SM OVC009 A3015 RMK MADISHF
COU,2017-04-01 09:25,-92.2183,38.8169,M,M,M,60.00,8.00,M,30.15,M,10.00,M,OVC,M,M,M,999.00,M,M,M,M,KCOU 010925Z AUTO 06008KT 10SM OVC009 A3015 RMK MADISHF
COU,2017-04-01 09:30,-92.2183,38.8169,M,M,M,30.00,8.00,M,30.15,M,10.00,M,OVC,M,M,M,999.00,M,M,M,M,KCOU 010930Z AUTO 03008KT 10SM OVC009 A3015 RMK MADISHF
COU,2017-04-01 09:35,-92.2183,38.8169,M,M,M,30.00,8.00,M,30.15,M,10.00,M,OVC,M,M,M,999.00,M,M,M,M,KCOU 010935Z AUTO 03008KT 10SM OVC009 A3015 RMK MADISHF
COU,2017-04-01 09:40,-92.2183,38.8169,M,M,M,50.00,7.00,M,30.15,M,10.00,M,OVC,M,M,M,999.00,M,M,M,M,KCOU 010940Z AUTO 05007KT 10SM OVC009 A3015 RMK MADISHF
COU,2017-04-01 09:45,-92.2183,38.8169,M,M,M,70.00,8.00,M,30.14,M,10.00,M,OVC,M,M,M,999.00,M,M,M,M,KCOU 010945Z AUTO 07008KT 10SM OVC009 A3014 RMK MADISHF
COU,2017-04-01 09:50,-92.2183,38.8169,M,M,M,60.00,6.00,M,30.15,M,10.00,M,OVC,M,M,M,999.00,M,M,M,M,KCOU 010950Z AUTO 06006KT 10SM OVC009 A3015 RMK MADISHF
COU,2017-04-01 09:54,-92.2183,38.8169,41.00,37.90,88.62,50.00,6.00,0.00,30.15,1021.20,10.00,M,OVC,M,M,M,1000.00,M,M,M,M,KCOU 010954Z AUTO 05006KT 10SM OVC010 05/03 A3015 RMK AO2 SLP212 T00500033
COU,2017-04-01 09:55,-92.2183,38.8169,M,M,M,60.00,7.00,M,30.15,M,10.00,M,OVC,M,M,M,999.00,M,M,M,M,KCOU 010955Z AUTO 06007KT 10SM OVC009 A3015 RMK MADISHF
COU,2017-04-01 10:00,-92.2183,38.8169,M,M,M,60.00,8.00,M,30.15,M,10.00,M,OVC,M,M,M,999.00,M,M,M,M,KCOU 011000Z AUTO 06008KT 10SM OVC009 A3015 RMK MADISHF
COU,2017-04-01 10:05,-92.2183,38.8169,M,M,M,70.00,6.00,M,30.15,M,10.00,M,OVC,M,M,M,999.00,M,M,M,M,KCOU 011005Z AUTO 07006KT 10SM OVC009 A3015 RMK MADISHF
COU,2017-04-01 10:10,-92.2183,38.8169,M,M,M,70.00,7.00,M,30.16,M,10.00,M,OVC,M,M,M,999.00,M,M,M,M,KCOU 011010Z AUTO 07007KT 10SM OVC009 A3016 RMK MADISHF
COU,2017-04-01 10:15,-92.2183,38.8169,M,M,M,60.00,6.00,M,30.16,M,10.00,M,OVC,M,M,M,999.00,M,M,M,M,KCOU 011015Z AUTO 06006KT 10SM OVC009 A3016 RMK MADISHF
COU,2017-04-01 10:20,-92.2183,38.8169,M,M,M,80.00,5.00,M,30.17,M,10.00,M,OVC,M,M,M,999.00,M,M,M,M,KCOU 011020Z AUTO 08005KT 10SM OVC009 A3017 RMK MADISHF
COU,2017-04-01 10:25,-92.2183,38.8169,M,M,M,80.00,4.00,M,30.17,M,10.00,M,OVC,M,M,M,999.00,M,M,M,M,KCOU 011025Z AUTO 08004KT 10SM OVC009 A3017 RMK MADISHF
COU,2017-04-01 10:30,-92.2183,38.8169,M,M,M,60.00,4.00,M,30.17,M,10.00,M,OVC,M,M,M,999.00,M,M,M,M,KCOU 011030Z AUTO 06004KT 10SM OVC009 A3017 RMK MADISHF
COU,2017-04-01 10:35,-92.2183,38.8169,M,M,M,70.00,6.00,M,30.17,M,10.00,M,OVC,M,M,M,999.00,M,M,M,M,KCOU 011035Z AUTO 07006KT 10SM OVC009 A3017 RMK MADISHF
COU,2017-04-01 10:40,-92.2183,38.8169,M,M,M,80.00,7.00,M,30.17,M,10.00,M,OVC,M,M,M,999.00,M,M,M,M,KCOU 011040Z AUTO 08007KT 10SM OVC009 A3017 RMK MADISHF
COU,2017-04-01 10:45,-92.2183,38.8169,M,M,M,80.00,6.00,M,30.18,M,10.00,M,OVC,M,M,M,999.00,M,M,M,M,KCOU 011045Z AUTO 08006KT 10SM OVC009 A3018 RMK MADISHF
COU,2017-04-01 10:50,-92.2183,38.8169,M,M,M,90.00,7.00,M,30.18,M,10.00,M,OVC,M,M,M,999.00,M,M,M,M,KCOU 011050Z AUTO 09007KT 10SM OVC009 A3018 RMK MADISHF
COU,2017-04-01 10:54,-92.2183,38.8169,41.00,37.90,88.62,100.00,7.00,0.00,30.18,1022.20,10.00,M,OVC,M,M,M,1000.00,M,M,M,M,KCOU 011054Z AUTO 10007KT 10SM OVC010 05/03 A3018 RMK AO2 SLP222 T00500033
COU,2017-04-01 10:55,-92.2183,38.8169,M,M,M,90.00,7.00,M,30.18,M,10.00,M,OVC,M,M,M,999.00,M,M,M,M,KCOU 011055Z AUTO 09007KT 10SM OVC009 A3018 RMK MADISHF
COU,2017-04-01 11:00,-92.2183,38.8169,M,M,M,70.00,7.00,M,30.18,M,10.00,M,OVC,M,M,M,999.00,M,M,M,M,KCOU 011100Z AUTO 07007KT 10SM OVC009 A3018 RMK MADISHF
COU,2017-04-01 11:05,-92.2183,38.8169,M,M,M,60.00,7.00,M,30.17,M,10.00,M,OVC,M,M,M,999.00,M,M,M,M,KCOU 011105Z AUTO 06007KT 10SM OVC009 A3017 RMK MADISHF
COU,2017-04-01 11:10,-92.2183,38.8169,M,M,M,50.00,7.00,M,30.17,M,10.00,M,OVC,M,M,M,999.00,M,M,M,M,KCOU 011110Z AUTO 05007KT 10SM OVC009 A3017 RMK MADISHF
COU,2017-04-01 11:15,-92.2183,38.8169,M,M,M,70.00,7.00,M,30.17,M,10.00,M,OVC,M,M,M,999.00,M,M,M,M,KCOU 011115Z AUTO 07007KT 10SM OVC009 A3017 RMK MADISHF
COU,2017-04-01 11:20,-92.2183,38.8169,M,M,M,80.00,7.00,M,30.17,M,10.00,M,OVC,M,M,M,999.00,M,M,M,M,KCOU 011120Z AUTO 08007KT 10SM OVC009 A3017 RMK MADISHF
COU,2017-04-01 11:25,-92.2183,38.8169,M,M,M,90.00,7.00,M,30.17,M,10.00,M,OVC,M,M,M,999.00,M,M,M,M,KCOU 011125Z AUTO 09007KT 10SM OVC009 A3017 RMK MADISHF
COU,2017-04-01 11:30,-92.2183,38.8169,M,M,M,80.00,7.00,M,30.18,M,10.00,M,OVC,M,M,M,999.00,M,M,M,M,KCOU 011130Z AUTO 08007KT 10SM OVC009 A3018 RMK MADISHF
COU,2017-04-01 11:35,-92.2183,38.8169,M,M,M,60.00,5.00,M,30.18,M,10.00,M,OVC,M,M,M,900.00,M,M,M,M,KCOU 011135Z AUTO 06005KT 10SM OVC009 A3018 RMK MADISHF
COU,2017-04-01 11:40,-92.2183,38.8169,M,M,M,70.00,7.00,M,30.18,M,10.00,M,OVC,M,M,M,900.00,M,M,M,M,KCOU 011140Z AUTO 07007KT 10SM OVC009 A3018 RMK MADISHF
COU,2017-04-01 11:41,-92.2183,38.8169,41.00,37.90,88.62,60.00,7.00,0.00,30.18,M,10.00,M,OVC,M,M,M,900.00,M,M,M,M,KCOU 011141Z 06007KT 10SM OVC009 05/03 A3018 RMK AO2 T00500033
COU,2017-04-01 11:45,-92.2183,38.8169,M,M,M,60.00,6.00,M,30.18,M,10.00,M,OVC,M,M,M,900.00,M,M,M,M,KCOU 011145Z AUTO 06006KT 10SM OVC009 A3018 RMK MADISHF
COU,2017-04-01 11:50,-92.2183,38.8169,M,M,M,60.00,7.00,M,30.19,M,10.00,M,OVC,M,M,M,900.00,M,M,M,M,KCOU 011150Z AUTO 06007KT 10SM OVC009 A3019 RMK MADISHF
COU,2017-04-01 11:54,-92.2183,38.8169,41.00,37.90,88.62,60.00,7.00,0.00,30.19,1022.50,10.00,M,OVC,M,M,M,800.00,M,M,M,M,KCOU 011154Z 06007KT 10SM OVC008 05/03 A3019 RMK AO2 SLP225 T00500033 10067 20050 53012
COU,2017-04-01 11:55,-92.2183,38.8169,M,M,M,70.00,7.00,M,30.19,M,10.00,M,OVC,M,M,M,800.00,M,M,M,M,KCOU 011155Z AUTO 07007KT 10SM OVC008 A3019 RMK MADISHF
COU,2017-04-01 12:00,-92.2183,38.8169,M,M,M,60.00,7.00,M,30.19,M,10.00,M,OVC,M,M,M,800.00,M,M,M,M,KCOU 011200Z AUTO 06007KT 10SM OVC008 A3019 RMK MADISHF
COU,2017-04-01 12:05,-92.2183,38.8169,M,M,M,60.00,7.00,M,30.19,M,10.00,M,OVC,M,M,M,900.00,M,M,M,M,KCOU 011205Z AUTO 06007KT 10SM OVC009 A3019 RMK MADISHF
COU,2017-04-01 12:10,-92.2183,38.8169,M,M,M,70.00,7.00,M,30.19,M,10.00,M,OVC,M,M,M,800.00,M,M,M,M,KCOU 011210Z AUTO 07007KT 10SM OVC008 A3019 RMK MADISHF
COU,2017-04-01 12:15,-92.2183,38.8169,M,M,M,70.00,7.00,M,30.19,M,10.00,M,OVC,M,M,M,800.00,M,M,M,M,KCOU 011215Z AUTO 07007KT 10SM OVC008 A3019 RMK MADISHF
COU,2017-04-01 12:20,-92.2183,38.8169,M,M,M,70.00,6.00,M,30.19,M,9.00,M,OVC,M,M,M,800.00,M,M,M,M,KCOU 011220Z AUTO 07006KT 9SM OVC008 A3019 RMK MADISHF
COU,2017-04-01 12:25,-92.2183,38.8169,M,M,M,80.00,7.00,M,30.19,M,9.00,M,OVC,M,M,M,800.00,M,M,M,M,KCOU 011225Z AUTO 08007KT 9SM OVC008 A3019 RMK MADISHF
COU,2017-04-01 12:30,-92.2183,38.8169,M,M,M,100.00,8.00,M,30.19,M,10.00,M,OVC,M,M,M,800.00,M,M,M,M,KCOU 011230Z AUTO 10008KT 10SM OVC008 A3019 RMK MADISHF
COU,2017-04-01 12:35,-92.2183,38.8169,M,M,M,80.00,7.00,M,30.19,M,10.00,M,OVC,M,M,M,800.00,M,M,M,M,KCOU 011235Z AUTO 08007KT 10SM OVC008 A3019 RMK MADISHF
COU,2017-04-01 12:40,-92.2183,38.8169,M,M,M,80.00,8.00,M,30.20,M,10.00,M,OVC,M,M,M,800.00,M,M,M,M,KCOU 011240Z AUTO 08008KT 10SM OVC008 A3020 RMK MADISHF
COU,2017-04-01 12:45,-92.2183,38.8169,M,M,M,70.00,7.00,M,30.20,M,10.00,M,OVC,M,M,M,800.00,M,M,M,M,KCOU 011245Z AUTO 07007KT 10SM OVC008 A3020 RMK MADISHF
COU,2017-04-01 12:50,-92.2183,38.8169,M,M,M,70.00,10.00,M,30.20,M,10.00,M,OVC,M,M,M,800.00,M,M,M,M,KCOU 011250Z AUTO 07010KT 10SM OVC008 A3020 RMK MADISHF
COU,2017-04-01 12:54,-92.2183,38.8169,41.00,37.90,88.62,70.00,8.00,0.00,30.20,1023.10,10.00,M,OVC,M,M,M,800.00,M,M,M,M,KCOU 011254Z 07008KT 10SM OVC008 05/03 A3020 RMK AO2 SLP231 T00500033
COU,2017-04-01 12:55,-92.2183,38.8169,M,M,M,70.00,7.00,M,30.20,M,10.00,M,OVC,M,M,M,800.00,M,M,M,M,KCOU 011255Z AUTO 07007KT 10SM OVC008 A3020 RMK MADISHF
COU,2017-04-01 13:00,-92.2183,38.8169,M,M,M,70.00,7.00,M,30.21,M,10.00,M,OVC,M,M,M,900.00,M,M,M,M,KCOU 011300Z AUTO 07007KT 10SM OVC009 A3021 RMK MADISHF
COU,2017-04-01 13:05,-92.2183,38.8169,M,M,M,90.00,7.00,M,30.21,M,10.00,M,OVC,M,M,M,800.00,M,M,M,M,KCOU 011305Z AUTO 09007KT 10SM OVC008 A3021 RMK MADISHF
COU,2017-04-01 13:10,-92.2183,38.8169,M,M,M,90.00,10.00,M,30.21,M,10.00,M,OVC,M,M,M,800.00,M,M,M,M,KCOU 011310Z AUTO 09010KT 10SM OVC008 A3021 RMK MADISHF
COU,2017-04-01 13:15,-92.2183,38.8169,M,M,M,80.00,6.00,M,30.22,M,10.00,M,OVC,M,M,M,800.00,M,M,M,M,KCOU 011315Z AUTO 08006KT 10SM OVC008 A3022 RMK MADISHF
COU,2017-04-01 13:20,-92.2183,38.8169,M,M,M,70.00,6.00,M,30.22,M,10.00,M,OVC,M,M,M,800.00,M,M,M,M,KCOU 011320Z AUTO 07006KT 10SM OVC008 A3022 RMK MADISHF
COU,2017-04-01 13:25,-92.2183,38.8169,M,M,M,60.00,8.00,M,30.22,M,10.00,M,OVC,M,M,M,800.00,M,M,M,M,KCOU 011325Z AUTO 06008KT 10SM OVC008 A3022 RMK MADISHF
COU,2017-04-01 13:30,-92.2183,38.8169,M,M,M,70.00,10.00,M,30.22,M,10.00,M,OVC,M,M,M,800.00,M,M,M,M,KCOU 011330Z AUTO 07010KT 10SM OVC008 A3022 RMK MADISHF
COU,2017-04-01 13:35,-92.2183,38.8169,M,M,M,70.00,10.00,M,30.21,M,10.00,M,OVC,M,M,M,800.00,M,M,M,M,KCOU 011335Z AUTO 07010KT 10SM OVC008 A3021 RMK MADISHF
COU,2017-04-01 13:40,-92.2183,38.8169,M,M,M,60.00,8.00,M,30.22,M,10.00,M,OVC,M,M,M,800.00,M,M,M,M,KCOU 011340Z AUTO 06008KT 10SM OVC008 A3022 RMK MADISHF
COU,2017-04-01 13:45,-92.2183,38.8169,M,M,M,60.00,9.00,M,30.22,M,10.00,M,OVC,M,M,M,800.00,M,M,M,M,KCOU 011345Z AUTO 06009KT 10SM OVC008 A3022 RMK MADISHF
COU,2017-04-01 13:50,-92.2183,38.8169,M,M,M,70.00,10.00,M,30.22,M,10.00,M,OVC,M,M,M,800.00,M,M,M,M,KCOU 011350Z AUTO 07010KT 10SM OVC008 A3022 RMK MADISHF
COU,2017-04-01 13:54,-92.2183,38.8169,42.10,37.90,84.93,80.00,6.00,0.00,30.22,1023.70,10.00,M,OVC,M,M,M,800.00,M,M,M,M,KCOU 011354Z 08006KT 10SM OVC008 06/03 A3022 RMK AO2 SLP237 T00560033
COU,2017-04-01 13:55,-92.2183,38.8169,M,M,M,80.00,5.00,M,30.22,M,10.00,M,OVC,M,M,M,1100.00,M,M,M,M,KCOU 011355Z AUTO 08005KT 10SM OVC011 A3022 RMK MADISHF
COU,2017-04-01 14:00,-92.2183,38.8169,M,M,M,90.00,5.00,M,30.22,M,10.00,M,OVC,M,M,M,800.00,M,M,M,M,KCOU 011400Z AUTO 09005KT 10SM OVC008 A3022 RMK MADISHF
COU,2017-04-01 14:05,-92.2183,38.8169,M,M,M,110.00,6.00,M,30.22,M,10.00,M,OVC,M,M,M,800.00,M,M,M,M,KCOU 011405Z AUTO 11006KT 10SM OVC008 A3022 RMK MADISHF
COU,2017-04-01 14:10,-92.2183,38.8169,M,M,M,110.00,5.00,M,30.22,M,10.00,M,OVC,M,M,M,800.00,M,M,M,M,KCOU 011410Z AUTO 11005KT 10SM OVC008 A3022 RMK MADISHF
COU,2017-04-01 14:15,-92.2183,38.8169,M,M,M,110.00,5.00,M,30.23,M,10.00,M,OVC,M,M,M,800.00,M,M,M,M,KCOU 011415Z AUTO 11005KT 10SM OVC008 A3023 RMK MADISHF
COU,2017-04-01 14:20,-92.2183,38.8169,M,M,M,80.00,7.00,M,30.23,M,10.00,M,OVC,M,M,M,800.00,M,M,M,M,KCOU 011420Z AUTO 08007KT 10SM OVC008 A3023 RMK MADISHF
COU,2017-04-01 14:25,-92.2183,38.8169,M,M,M,80.00,6.00,M,30.23,M,10.00,M,OVC,M,M,M,800.00,M,M,M,M,KCOU 011425Z AUTO 08006KT 10SM OVC008 A3023 RMK MADISHF
COU,2017-04-01 14:30,-92.2183,38.8169,M,M,M,100.00,7.00,M,30.23,M,10.00,M,OVC,M,M,M,800.00,M,M,M,M,KCOU 011430Z AUTO 10007KT 10SM OVC008 A3023 RMK MADISHF
COU,2017-04-01 14:35,-92.2183,38.8169,M,M,M,100.00,8.00,M,30.23,M,10.00,M,OVC,M,M,M,800.00,M,M,M,M,KCOU 011435Z AUTO 10008KT 10SM OVC008 A3023 RMK MADISHF
COU,2017-04-01 14:40,-92.2183,38.8169,M,M,M,100.00,9.00,M,30.23,M,10.00,M,OVC,M,M,M,800.00,M,M,M,M,KCOU 011440Z AUTO 10009KT 10SM OVC008 A3023 RMK MADISHF
COU,2017-04-01 14:45,-92.2183,38.8169,M,M,M,90.00,10.00,M,30.23,M,10.00,M,OVC,M,M,M,800.00,M,M,M,M,KCOU 011445Z AUTO 09010KT 10SM OVC008 A3023 RMK MADISHF
COU,2017-04-01 14:50,-92.2183,38.8169,M,M,M,100.00,9.00,M,30.23,M,10.00,M,OVC,M,M,M,1300.00,M,M,M,M,KCOU 011450Z AUTO 10009KT 10SM OVC013 A3023 RMK MADISHF
COU,2017-04-01 14:54,-92.2183,38.8169,43.00,39.00,85.66,90.00,8.00,0.00,30.23,1023.90,10.00,M,OVC,M,M,M,1300.00,M,M,M,M,KCOU 011454Z 09008KT 10SM OVC013 06/04 A3023 RMK AO2 SLP239 T00610039 51013
COU,2017-04-01 14:55,-92.2183,38.8169,M,M,M,90.00,8.00,M,30.23,M,10.00,M,OVC,M,M,M,1300.00,M,M,M,M,KCOU 011455Z AUTO 09008KT 10SM OVC013 A3023 RMK MADISHF
COU,2017-04-01 15:00,-92.2183,38.8169,M,M,M,80.00,9.00,M,30.23,M,10.00,M,OVC,M,M,M,1300.00,M,M,M,M,KCOU 011500Z AUTO 08009KT 10SM OVC013 A3023 RMK MADISHF
COU,2017-04-01 15:05,-92.2183,38.8169,M,M,M,90.00,7.00,M,30.23,M,10.00,M,OVC,M,M,M,1300.00,M,M,M,M,KCOU 011505Z AUTO 09007KT 10SM OVC013 A3023 RMK MADISHF
COU,2017-04-01 15:10,-92.2183,38.8169,M,M,M,110.00,9.00,M,30.23,M,10.00,M,OVC,M,M,M,1300.00,M,M,M,M,KCOU 011510Z AUTO 11009KT 10SM OVC013 A3023 RMK MADISHF
COU,2017-04-01 15:15,-92.2183,38.8169,M,M,M,90.00,9.00,M,30.23,M,10.00,M,OVC,M,M,M,1500.00,M,M,M,M,KCOU 011515Z AUTO 09009KT 10SM OVC015 A3023 RMK MADISHF
COU,2017-04-01 15:17,-92.2183,38.8169,44.10,39.00,82.12,80.00,9.00,0.00,30.24,M,10.00,M,OVC,M,M,M,1500.00,M,M,M,M,KCOU 011517Z 08009KT 10SM OVC015 07/04 A3024 RMK AO2 T00670039
COU,2017-04-01 15:20,-92.2183,38.8169,M,M,M,80.00,9.00,M,30.24,M,10.00,M,OVC,M,M,M,1500.00,M,M,M,M,KCOU 011520Z AUTO 08009KT 10SM OVC015 A3024 RMK MADISHF
COU,2017-04-01 15:25,-92.2183,38.8169,M,M,M,100.00,10.00,M,30.23,M,10.00,M,OVC,M,M,M,1500.00,M,M,M,M,KCOU 011525Z AUTO 10010KT 10SM OVC015 A3023 RMK MADISHF
COU,2017-04-01 15:30,-92.2183,38.8169,M,M,M,90.00,9.00,M,30.23,M,10.00,M,OVC,M,M,M,1500.00,M,M,M,M,KCOU 011530Z AUTO 09009KT 10SM OVC015 A3023 RMK MADISHF
COU,2017-04-01 15:35,-92.2183,38.8169,M,M,M,90.00,10.00,M,30.23,M,10.00,M,OVC,M,M,M,1500.00,M,M,M,M,KCOU 011535Z AUTO 09010KT 10SM OVC015 A3023 RMK MADISHF
COU,2017-04-01 15:40,-92.2183,38.8169,M,M,M,90.00,9.00,M,30.23,M,10.00,M,OVC,M,M,M,1500.00,M,M,M,M,KCOU 011540Z AUTO 09009KT 10SM OVC015 A3023 RMK MADISHF
COU,2017-04-01 15:45,-92.2183,38.8169,M,M,M,90.00,9.00,M,30.23,M,10.00,M,OVC,M,M,M,1500.00,M,M,M,M,KCOU 011545Z AUTO 09009KT 10SM OVC015 A3023 RMK MADISHF
COU,2017-04-01 15:50,-92.2183,38.8169,M,M,M,100.00,10.00,M,30.23,M,10.00,M,OVC,M,M,M,1500.00,M,M,M,M,KCOU 011550Z AUTO 10010KT 10SM OVC015 A3023 RMK MADISHF
COU,2017-04-01 15:54,-92.2183,38.8169,45.00,39.00,79.36,90.00,8.00,0.00,30.23,1024.10,10.00,M,OVC,M,M,M,1500.00,M,M,M,M,KCOU 011554Z 09008KT 10SM OVC015 07/04 A3023 RMK AO2 SLP241 T00720039
COU,2017-04-01 15:55,-92.2183,38.8169,M,M,M,90.00,8.00,M,30.23,M,10.00,M,OVC,M,M,M,1500.00,M,M,M,M,KCOU 011555Z AUTO 09008KT 10SM OVC015 A3023 RMK MADISHF
COU,2017-04-01 16:00,-92.2183,38.8169,M,M,M,90.00,7.00,M,30.24,M,10.00,M,OVC,M,M,M,1500.00,M,M,M,M,KCOU 011600Z AUTO 09007KT 10SM OVC015 A3024 RMK MADISHF
COU,2017-04-01 16:05,-92.2183,38.8169,M,M,M,100.00,8.00,M,30.24,M,10.00,M,OVC,M,M,M,1600.00,M,M,M,M,KCOU 011605Z AUTO 10008KT 10SM OVC016 A3024 RMK MADISHF
COU,2017-04-01 16:10,-92.2183,38.8169,M,M,M,90.00,8.00,M,30.24,M,10.00,M,OVC,M,M,M,1600.00,M,M,M,M,KCOU 011610Z AUTO 09008KT 10SM OVC016 A3024 RMK MADISHF
COU,2017-04-01 16:15,-92.2183,38.8169,M,M,M,80.00,8.00,M,30.24,M,10.00,M,OVC,M,M,M,1600.00,M,M,M,M,KCOU 011615Z AUTO 08008KT 10SM OVC016 A3024 RMK MADISHF
COU,2017-04-01 16:20,-92.2183,38.8169,M,M,M,70.00,8.00,M,30.24,M,10.00,M,OVC,M,M,M,1699.00,M,M,M,M,KCOU 011620Z AUTO 07008KT 10SM OVC016 A3024 RMK MADISHF
COU,2017-04-01 16:25,-92.2183,38.8169,M,M,M,90.00,8.00,M,30.24,M,10.00,M,OVC,M,M,M,1699.00,M,M,M,M,KCOU 011625Z AUTO 09008KT 10SM OVC016 A3024 RMK MADISHF
COU,2017-04-01 16:30,-92.2183,38.8169,M,M,M,90.00,9.00,M,30.24,M,10.00,M,OVC,M,M,M,1699.00,M,M,M,M,KCOU 011630Z AUTO 09009KT 10SM OVC016 A3024 RMK MADISHF
COU,2017-04-01 16:35,-92.2183,38.8169,M,M,M,80.00,6.00,M,30.24,M,10.00,M,OVC,M,M,M,1699.00,M,M,M,M,KCOU 011635Z AUTO 08006KT 10SM OVC016 A3024 RMK MADISHF
COU,2017-04-01 16:40,-92.2183,38.8169,M,M,M,100.00,5.00,M,30.25,M,10.00,M,OVC,M,M,M,1699.00,M,M,M,M,KCOU 011640Z AUTO 10005KT 10SM OVC016 A3025 RMK MADISHF
COU,2017-04-01 16:45,-92.2183,38.8169,M,M,M,110.00,4.00,M,30.25,M,10.00,M,OVC,M,M,M,1699.00,M,M,M,M,KCOU 011645Z AUTO 11004KT 10SM OVC016 A3025 RMK VRB04KT  MADISHF
COU,2017-04-01 16:50,-92.2183,38.8169,M,M,M,120.00,6.00,M,30.24,M,10.00,M,OVC,M,M,M,1900.00,M,M,M,M,KCOU 011650Z AUTO 12006KT 10SM OVC019 A3024 RMK MADISHF
COU,2017-04-01 16:54,-92.2183,38.8169,46.00,39.00,76.40,120.00,8.00,0.00,30.24,1024.20,10.00,M,OVC,M,M,M,1900.00,M,M,M,M,KCOU 011654Z 12008KT 10SM OVC019 08/04 A3024 RMK AO2 SLP242 T00780039
COU,2017-04-01 16:55,-92.2183,38.8169,M,M,M,120.00,7.00,M,30.24,M,10.00,M,OVC,M,M,M,1900.00,M,M,M,M,KCOU 011655Z AUTO 12007KT 10SM OVC019 A3024 RMK MADISHF
COU,2017-04-01 17:00,-92.2183,38.8169,M,M,M,100.00,6.00,M,30.24,M,10.00,M,OVC,M,M,M,1900.00,M,M,M,M,KCOU 011700Z AUTO 10006KT 10SM OVC019 A3024 RMK MADISHF
COU,2017-04-01 17:05,-92.2183,38.8169,M,M,M,100.00,6.00,M,30.23,M,10.00,M,OVC,M,M,M,1900.00,M,M,M,M,KCOU 011705Z AUTO 10006KT 10SM OVC019 A3023 RMK MADISHF
COU,2017-04-01 17:10,-92.2183,38.8169,M,M,M,100.00,8.00,M,30.23,M,10.00,M,OVC,M,M,M,1900.00,M,M,M,M,KCOU 011710Z AUTO 10008KT 10SM OVC019 A3023 RMK MADISHF
COU,2017-04-01 17:15,-92.2183,38.8169,M,M,M,120.00,6.00,M,30.23,M,10.00,M,OVC,M,M,M,1900.00,M,M,M,M,KCOU 011715Z AUTO 12006KT 10SM OVC019 A3023 RMK MADISHF
COU,2017-04-01 17:20,-92.2183,38.8169,M,M,M,100.00,7.00,M,30.22,M,10.00,M,BKN,M,M,M,1900.00,M,M,M,M,KCOU 011720Z AUTO 10007KT 10SM BKN019 A3022 RMK MADISHF
COU,2017-04-01 17:25,-92.2183,38.8169,M,M,M,130.00,7.00,M,30.22,M,10.00,M,BKN,M,M,M,1900.00,M,M,M,M,KCOU 011725Z AUTO 13007KT 10SM BKN019 A3022 RMK MADISHF
COU,2017-04-01 17:30,-92.2183,38.8169,M,M,M,130.00,9.00,M,30.22,M,10.00,M,BKN,M,M,M,1999.00,M,M,M,M,KCOU 011730Z AUTO 13009KT 10SM BKN019 A3022 RMK MADISHF
COU,2017-04-01 17:35,-92.2183,38.8169,M,M,M,120.00,7.00,M,30.21,M,10.00,M,OVC,M,M,M,1999.00,M,M,M,M,KCOU 011735Z AUTO 12007KT 10SM OVC019 A3021 RMK MADISHF
COU,2017-04-01 17:40,-92.2183,38.8169,M,M,M,130.00,9.00,M,30.21,M,10.00,M,OVC,M,M,M,1999.00,M,M,M,M,KCOU 011740Z AUTO 13009KT 10SM OVC019 A3021 RMK MADISHF
COU,2017-04-01 17:45,-92.2183,38.8169,M,M,M,140.00,9.00,M,30.21,M,10.00,M,OVC,M,M,M,1999.00,M,M,M,M,KCOU 011745Z AUTO 14009KT 10SM OVC019 A3021 RMK MADISHF
COU,2017-04-01 17:50,-92.2183,38.8169,M,M,M,130.00,9.00,M,30.20,M,10.00,M,SCT,M,M,M,2300.00,M,M,M,M,KCOU 011750Z AUTO 13009KT 10SM SCT023 A3020 RMK MADISHF
COU,2017-04-01 17:54,-92.2183,38.8169,50.00,39.90,68.10,100.00,7.00,0.00,30.20,1022.80,10.00,M,BKN,M,M,M,2300.00,M,M,M,M,KCOU 011754Z 10007KT 10SM BKN023 10/04 A3020 RMK AO2 SLP228 T01000044 10106 20050 58009
COU,2017-04-01 17:55,-92.2183,38.8169,M,M,M,80.00,6.00,M,30.20,M,10.00,M,BKN,M,M,M,2300.00,M,M,M,M,KCOU 011755Z AUTO 08006KT 10SM BKN023 A3020 RMK VRB06KT  MADISHF
COU,2017-04-01 18:00,-92.2183,38.8169,M,M,M,90.00,9.00,M,30.20,M,10.00,M,BKN,M,M,M,2300.00,M,M,M,M,KCOU 011800Z AUTO 09009KT 10SM BKN023 A3020 RMK MADISHF
COU,2017-04-01 18:05,-92.2183,38.8169,M,M,M,110.00,9.00,M,30.20,M,10.00,M,BKN,M,M,M,2300.00,M,M,M,M,KCOU 011805Z AUTO 11009KT 10SM BKN023 A3020 RMK MADISHF
COU,2017-04-01 18:10,-92.2183,38.8169,M,M,M,100.00,6.00,M,30.20,M,10.00,M,BKN,M,M,M,2300.00,M,M,M,M,KCOU 011810Z AUTO 10006KT 10SM BKN023 A3020 RMK MADISHF
COU,2017-04-01 18:15,-92.2183,38.8169,M,M,M,90.00,4.00,M,30.20,M,10.00,M,SCT,M,M,M,2300.00,M,M,M,M,KCOU 011815Z AUTO 09004KT 10SM SCT023 A3020 RMK VRB04G14KT  MADISHF
COU,2017-04-01 18:20,-92.2183,38.8169,M,M,M,140.00,6.00,M,30.20,M,10.00,M,BKN,M,M,M,2300.00,M,M,M,M,KCOU 011820Z AUTO 14006KT 10SM BKN023 A3020 RMK MADISHF
COU,2017-04-01 18:25,-92.2183,38.8169,M,M,M,110.00,9.00,M,30.20,M,10.00,M,SCT,M,M,M,2400.00,M,M,M,M,KCOU 011825Z AUTO 11009KT 10SM SCT024 A3020 RMK MADISHF
COU,2017-04-01 18:30,-92.2183,38.8169,52.00,41.00,66.00,110.00,6.00,0.00,30.20,M,10.00,M,FEW,M,M,M,2400.00,M,M,M,M,KCOU 011830Z 11006KT 10SM FEW024 11/05 A3020 RMK AO2 T01110050
COU,2017-04-01 18:35,-92.2183,38.8169,M,M,M,130.00,12.00,M,30.19,M,10.00,M,FEW,M,M,M,2400.00,M,M,M,M,KCOU 011835Z AUTO 13012KT 10SM FEW024 A3019 RMK MADISHF
COU,2017-04-01 18:40,-92.2183,38.8169,M,M,M,100.00,10.00,M,30.19,M,10.00,M,FEW,M,M,M,2500.00,M,M,M,M,KCOU 011840Z AUTO 10010KT 10SM FEW025 A3019 RMK MADISHF
COU,2017-04-01 18:45,-92.2183,38.8169,M,M,M,120.00,5.00,M,30.19,M,10.00,M,FEW,M,M,M,2500.00,M,M,M,M,KCOU 011845Z AUTO 12005KT 10SM FEW025 A3019 RMK MADISHF
COU,2017-04-01 18:50,-92.2183,38.8169,M,M,M,80.00,7.00,M,30.19,M,10.00,M,CLR,M,M,M,M,M,M,M,M,KCOU 011850Z AUTO 08007KT 10SM CLR A3019 RMK MADISHF
COU,2017-04-01 18:54,-92.2183,38.8169,53.10,42.10,66.13,110.00,7.00,0.00,30.19,1022.60,10.00,M,CLR,M,M,M,M,M,M,M,M,KCOU 011854Z 11007KT 10SM CLR 12/06 A3019 RMK AO2 SLP226 T01170056
COU,2017-04-01 18:55,-92.2183,38.8169,M,M,M,110.00,6.00,M,30.19,M,10.00,M,CLR,M,M,M,M,M,M,M,M,KCOU 011855Z AUTO 11006KT 10SM CLR A3019 RMK MADISHF
COU,2017-04-01 19:00,-92.2183,38.8169,M,M,M,100.00,9.00,M,30.19,M,10.00,M,CLR,M,M,M,M,M,M,M,M,KCOU 011900Z AUTO 10009KT 10SM CLR A3019 RMK MADISHF
COU,2017-04-01 19:05,-92.2183,38.8169,M,M,M,110.00,7.00,M,30.19,M,10.00,M,CLR,M,M,M,M,M,M,M,M,KCOU 011905Z AUTO 11007KT 10SM CLR A3019 RMK MADISHF
COU,2017-04-01 19:10,-92.2183,38.8169,M,M,M,100.00,6.00,M,30.19,M,10.00,M,CLR,M,M,M,M,M,M,M,M,KCOU 011910Z AUTO 10006KT 10SM CLR A3019 RMK MADISHF
COU,2017-04-01 19:15,-92.2183,38.8169,M,M,M,110.00,8.00,M,30.18,M,10.00,M,CLR,M,M,M,M,M,M,M,M,KCOU 011915Z AUTO 11008KT 10SM CLR A3018 RMK MADISHF
COU,2017-04-01 19:20,-92.2183,38.8169,M,M,M,100.00,7.00,M,30.18,M,10.00,M,CLR,M,M,M,M,M,M,M,M,KCOU 011920Z AUTO 10007KT 10SM CLR A3018 RMK MADISHF
COU,2017-04-01 19:25,-92.2183,38.8169,M,M,M,110.00,4.00,M,30.18,M,10.00,M,CLR,M,M,M,M,M,M,M,M,KCOU 011925Z AUTO 11004KT 10SM CLR A3018 RMK VRB04KT  MADISHF
COU,2017-04-01 19:30,-92.2183,38.8169,M,M,M,60.00,6.00,M,30.18,M,10.00,M,CLR,M,M,M,M,M,M,M,M,KCOU 011930Z AUTO 06006KT 10SM CLR A3018 RMK VRB06KT  MADISHF
COU,2017-04-01 19:35,-92.2183,38.8169,M,M,M,60.00,6.00,M,30.18,M,10.00,M,SCT,M,M,M,6500.00,M,M,M,M,KCOU 011935Z AUTO 06006KT 10SM SCT065 A3018 RMK MADISHF
COU,2017-04-01 19:40,-92.2183,38.8169,M,M,M,90.00,5.00,M,30.18,M,10.00,M,BKN,M,M,M,6500.00,M,M,M,M,KCOU 011940Z AUTO 09005KT 10SM BKN065 A3018 RMK MADISHF
COU,2017-04-01 19:45,-92.2183,38.8169,M,M,M,80.00,4.00,M,30.17,M,10.00,M,BKN,M,M,M,7000.00,M,M,M,M,KCOU 011945Z AUTO 08004KT 10SM BKN070 A3017 RMK VRB04KT  MADISHF
COU,2017-04-01 19:50,-92.2183,38.8169,M,M,M,70.00,8.00,M,30.17,M,10.00,M,BKN,M,M,M,7000.00,M,M,M,M,KCOU 011950Z AUTO 07008KT 10SM BKN070 A3017 RMK WND 03V11  MADISHF
COU,2017-04-01 19:54,-92.2183,38.8169,57.00,43.00,59.40,70.00,7.00,0.00,30.17,1021.80,10.00,M,BKN,M,M,M,7000.00,M,M,M,M,KCOU 011954Z 07007KT 10SM BKN070 14/06 A3017 RMK AO2 SLP218 T01390061
COU,2017-04-01 19:55,-92.2183,38.8169,M,M,M,70.00,6.00,M,30.17,M,10.00,M,OVC,M,M,M,7000.00,M,M,M,M,KCOU 011955Z AUTO 07006KT 10SM OVC070 A3017 RMK MADISHF
COU,2017-04-01 20:00,-92.2183,38.8169,M,M,M,80.00,9.00,M,30.17,M,10.00,14.00,OVC,M,M,M,7000.00,M,M,M,M,KCOU 012000Z AUTO 08009G14KT 10SM OVC070 A3017 RMK WND 05V13  MADISHF
COU,2017-04-01 20:05,-92.2183,38.8169,M,M,M,120.00,5.00,M,30.16,M,10.00,M,OVC,M,M,M,7000.00,M,M,M,M,KCOU 012005Z AUTO 12005KT 10SM OVC070 A3016 RMK MADISHF
COU,2017-04-01 20:10,-92.2183,38.8169,M,M,M,80.00,7.00,M,30.16,M,10.00,M,OVC,M,M,M,7000.00,M,M,M,M,KCOU 012010Z AUTO 08007KT 10SM OVC070 A3016 RMK MADISHF
COU,2017-04-01 20:15,-92.2183,38.8169,M,M,M,70.00,4.00,M,30.15,M,10.00,M,OVC,M,M,M,7000.00,M,M,M,M,KCOU 012015Z AUTO 07004KT 10SM OVC070 A3015 RMK MADISHF
COU,2017-04-01 20:20,-92.2183,38.8169,M,M,M,110.00,8.00,M,30.15,M,10.00,M,OVC,M,M,M,7000.00,M,M,M,M,KCOU 012020Z AUTO 11008KT 10SM OVC070 A3015 RMK MADISHF
COU,2017-04-01 20:25,-92.2183,38.8169,M,M,M,90.00,6.00,M,30.14,M,10.00,M,OVC,M,M,M,7000.00,M,M,M,M,KCOU 012025Z AUTO 09006KT 10SM OVC070 A3014 RMK MADISHF
COU,2017-04-01 20:30,-92.2183,38.8169,M,M,M,110.00,7.00,M,30.14,M,10.00,M,OVC,M,M,M,7000.00,M,M,M,M,KCOU 012030Z AUTO 11007KT 10SM OVC070 A3014 RMK MADISHF
COU,2017-04-01 20:35,-92.2183,38.8169,M,M,M,80.00,7.00,M,30.14,M,10.00,M,OVC,M,M,M,7000.00,M,M,M,M,KCOU 012035Z AUTO 08007KT 10SM OVC070 A3014 RMK MADISHF
COU,2017-04-01 20:40,-92.2183,38.8169,M,M,M,90.00,8.00,M,30.14,M,10.00,M,BKN,M,M,M,7000.00,M,M,M,M,KCOU 012040Z AUTO 09008KT 10SM BKN070 A3014 RMK WND 05V11  MADISHF
COU,2017-04-01 20:45,-92.2183,38.8169,M,M,M,110.00,8.00,M,30.13,M,10.00,M,BKN,M,M,M,7000.00,M,M,M,M,KCOU 012045Z AUTO 11008KT 10SM BKN070 A3013 RMK MADISHF
COU,2017-04-01 20:50,-92.2183,38.8169,M,M,M,110.00,6.00,M,30.13,M,10.00,M,BKN,M,M,M,7000.00,M,M,M,M,KCOU 012050Z AUTO 11006KT 10SM BKN070 A3013 RMK MADISHF
COU,2017-04-01 20:54,-92.2183,38.8169,59.00,43.00,55.28,130.00,8.00,0.00,30.13,1020.30,10.00,M,SCT,M,M,M,7000.00,M,M,M,M,KCOU 012054Z 13008KT 10SM SCT070 15/06 A3013 RMK AO2 SLP203 T01500061 58023
COU,2017-04-01 20:55,-92.2183,38.8169,M,M,M,120.00,9.00,M,30.13,M,10.00,M,SCT,M,M,M,7000.00,M,M,M,M,KCOU 012055Z AUTO 12009KT 10SM SCT070 A3013 RMK MADISHF
COU,2017-04-01 21:00,-92.2183,38.8169,M,M,M,140.00,8.00,M,30.13,M,10.00,M,FEW,M,M,M,7000.00,M,M,M,M,KCOU 012100Z AUTO 14008KT 10SM FEW070 A3013 RMK MADISHF
COU,2017-04-01 21:05,-92.2183,38.8169,M,M,M,110.00,7.00,M,30.13,M,10.00,M,FEW,M,M,M,6500.00,M,M,M,M,KCOU 012105Z AUTO 11007KT 10SM FEW065 A3013 RMK MADISHF
COU,2017-04-01 21:10,-92.2183,38.8169,M,M,M,130.00,7.00,M,30.12,M,10.00,M,FEW,M,M,M,6500.00,M,M,M,M,KCOU 012110Z AUTO 13007KT 10SM FEW065 A3012 RMK MADISHF
COU,2017-04-01 21:15,-92.2183,38.8169,M,M,M,90.00,7.00,M,30.13,M,10.00,M,FEW,M,M,M,6500.00,M,M,M,M,KCOU 012115Z AUTO 09007KT 10SM FEW065 A3013 RMK MADISHF
COU,2017-04-01 21:20,-92.2183,38.8169,M,M,M,60.00,4.00,M,30.13,M,10.00,M,CLR,M,M,M,M,M,M,M,M,KCOU 012120Z AUTO 06004KT 10SM CLR A3013 RMK MADISHF
COU,2017-04-01 21:25,-92.2183,38.8169,M,M,M,90.00,5.00,M,30.12,M,10.00,M,CLR,M,M,M,M,M,M,M,M,KCOU 012125Z AUTO 09005KT 10SM CLR A3012 RMK MADISHF
COU,2017-04-01 21:30,-92.2183,38.8169,M,M,M,80.00,8.00,M,30.13,M,10.00,M,CLR,M,M,M,M,M,M,M,M,KCOU 012130Z AUTO 08008KT 10SM CLR A3013 RMK MADISHF
COU,2017-04-01 21:35,-92.2183,38.8169,M,M,M,80.00,8.00,M,30.12,M,10.00,M,CLR,M,M,M,M,M,M,M,M,KCOU 012135Z AUTO 08008KT 10SM CLR A3012 RMK MADISHF
COU,2017-04-01 21:40,-92.2183,38.8169,M,M,M,100.00,7.00,M,30.12,M,10.00,M,CLR,M,M,M,M,M,M,M,M,KCOU 012140Z AUTO 10007KT 10SM CLR A3012 RMK MADISHF
COU,2017-04-01 21:45,-92.2183,38.8169,M,M,M,100.00,6.00,M,30.12,M,10.00,M,CLR,M,M,M,M,M,M,M,M,KCOU 012145Z AUTO 10006KT 10SM CLR A3012 RMK MADISHF
COU,2017-04-01 21:50,-92.2183,38.8169,M,M,M,100.00,6.00,M,30.12,M,10.00,M,CLR,M,M,M,M,M,M,M,M,KCOU 012150Z AUTO 10006KT 10SM CLR A3012 RMK MADISHF
COU,2017-04-01 21:54,-92.2183,38.8169,60.10,43.00,53.15,130.00,7.00,0.00,30.12,1019.90,10.00,M,CLR,M,M,M,M,M,M,M,M,KCOU 012154Z 13007KT 10SM CLR 16/06 A3012 RMK AO2 SLP199 T01560061
COU,2017-04-01 21:55,-92.2183,38.8169,M,M,M,110.00,7.00,M,30.12,M,10.00,M,CLR,M,M,M,M,M,M,M,M,KCOU 012155Z AUTO 11007KT 10SM CLR A3012 RMK MADISHF
COU,2017-04-01 22:00,-92.2183,38.8169,M,M,M,100.00,6.00,M,30.12,M,10.00,M,CLR,M,M,M,M,M,M,M,M,KCOU 012200Z AUTO 10006KT 10SM CLR A3012 RMK MADISHF
COU,2017-04-01 22:05,-92.2183,38.8169,M,M,M,100.00,9.00,M,30.12,M,10.00,M,CLR,M,M,M,M,M,M,M,M,KCOU 012205Z AUTO 10009KT 10SM CLR A3012 RMK MADISHF
COU,2017-04-01 22:10,-92.2183,38.8169,M,M,M,100.00,8.00,M,30.12,M,10.00,M,CLR,M,M,M,M,M,M,M,M,KCOU 012210Z AUTO 10008KT 10SM CLR A3012 RMK MADISHF
COU,2017-04-01 22:15,-92.2183,38.8169,M,M,M,110.00,10.00,M,30.12,M,10.00,M,CLR,M,M,M,M,M,M,M,M,KCOU 012215Z AUTO 11010KT 10SM CLR A3012 RMK MADISHF
COU,2017-04-01 22:20,-92.2183,38.8169,M,M,M,120.00,6.00,M,30.11,M,10.00,M,CLR,M,M,M,M,M,M,M,M,KCOU 012220Z AUTO 12006KT 10SM CLR A3011 RMK MADISHF
COU,2017-04-01 22:25,-92.2183,38.8169,M,M,M,130.00,9.00,M,30.11,M,10.00,M,CLR,M,M,M,M,M,M,M,M,KCOU 012225Z AUTO 13009KT 10SM CLR A3011 RMK MADISHF
COU,2017-04-01 22:30,-92.2183,38.8169,M,M,M,120.00,8.00,M,30.11,M,10.00,M,CLR,M,M,M,M,M,M,M,M,KCOU 012230Z AUTO 12008KT 10SM CLR A3011 RMK MADISHF
COU,2017-04-01 22:35,-92.2183,38.8169,M,M,M,100.00,7.00,M,30.11,M,10.00,M,CLR,M,M,M,M,M,M,M,M,KCOU 012235Z AUTO 10007KT 10SM CLR A3011 RMK MADISHF
COU,2017-04-01 22:40,-92.2183,38.8169,M,M,M,120.00,6.00,M,30.11,M,10.00,M,CLR,M,M,M,M,M,M,M,M,KCOU 012240Z AUTO 12006KT 10SM CLR A3011 RMK MADISHF
COU,2017-04-01 22:45,-92.2183,38.8169,M,M,M,110.00,6.00,M,30.11,M,10.00,M,CLR,M,M,M,M,M,M,M,M,KCOU 012245Z AUTO 11006KT 10SM CLR A3011 RMK MADISHF
COU,2017-04-01 22:50,-92.2183,38.8169,M,M,M,120.00,7.00,M,30.11,M,10.00,M,CLR,M,M,M,M,M,M,M,M,KCOU 012250Z AUTO 12007KT 10SM CLR A3011 RMK MADISHF
COU,2017-04-01 22:54,-92.2183,38.8169,60.10,43.00,53.15,130.00,5.00,0.00,30.11,1019.60,10.00,M,CLR,M,M,M,M,M,M,M,M,KCOU 012254Z 13005KT 10SM CLR 16/06 A3011 RMK AO2 SLP196 T01560061
COU,2017-04-01 22:55,-92.2183,38.8169,M,M,M,140.00,7.00,M,30.11,M,10.00,M,CLR,M,M,M,M,M,M,M,M,KCOU 012255Z AUTO 14007KT 10SM CLR A3011 RMK MADISHF
COU,2017-04-01 23:00,-92.2183,38.8169,M,M,M,130.00,6.00,M,30.11,M,10.00,M,CLR,M,M,M,M,M,M,M,M,KCOU 012300Z AUTO 13006KT 10SM CLR A3011 RMK MADISHF
COU,2017-04-01 23:05,-92.2183,38.8169,M,M,M,110.00,7.00,M,30.11,M,10.00,M,CLR,M,M,M,M,M,M,M,M,KCOU 012305Z AUTO 11007KT 10SM CLR A3011 RMK MADISHF
COU,2017-04-01 23:10,-92.2183,38.8169,M,M,M,130.00,7.00,M,30.11,M,10.00,M,CLR,M,M,M,M,M,M,M,M,KCOU 012310Z AUTO 13007KT 10SM CLR A3011 RMK MADISHF
COU,2017-04-01 23:15,-92.2183,38.8169,M,M,M,110.00,9.00,M,30.11,M,10.00,M,CLR,M,M,M,M,M,M,M,M,KCOU 012315Z AUTO 11009KT 10SM CLR A3011 RMK MADISHF
COU,2017-04-01 23:20,-92.2183,38.8169,M,M,M,120.00,7.00,M,30.11,M,10.00,M,CLR,M,M,M,M,M,M,M,M,KCOU 012320Z AUTO 12007KT 10SM CLR A3011 RMK MADISHF
COU,2017-04-01 23:25,-92.2183,38.8169,M,M,M,120.00,7.00,M,30.12,M,10.00,M,CLR,M,M,M,M,M,M,M,M,KCOU 012325Z AUTO 12007KT 10SM CLR A3012 RMK MADISHF
COU,2017-04-01 23:30,-92.2183,38.8169,M,M,M,120.00,7.00,M,30.12,M,10.00,M,CLR,M,M,M,M,M,M,M,M,KCOU 012330Z AUTO 12007KT 10SM CLR A3012 RMK MADISHF
COU,2017-04-01 23:35,-92.2183,38.8169,M,M,M,120.00,9.00,M,30.12,M,10.00,M,CLR,M,M,M,M,M,M,M,M,KCOU 012335Z AUTO 12009KT 10SM CLR A3012 RMK MADISHF
COU,2017-04-01 23:40,-92.2183,38.8169,M,M,M,130.00,8.00,M,30.12,M,10.00,M,CLR,M,M,M,M,M,M,M,M,KCOU 012340Z AUTO 13008KT 10SM CLR A3012 RMK MADISHF
COU,2017-04-01 23:45,-92.2183,38.8169,M,M,M,110.00,6.00,M,30.12,M,10.00,M,CLR,M,M,M,M,M,M,M,M,KCOU 012345Z AUTO 11006KT 10SM CLR A3012 RMK MADISHF
COU,2017-04-01 23:50,-92.2183,38.8169,M,M,M,120.00,7.00,M,30.12,M,10.00,M,CLR,M,M,M,M,M,M,M,M,KCOU 012350Z AUTO 12007KT 10SM CLR A3012 RMK MADISHF
COU,2017-04-01 23:54,-92.2183,38.8169,57.90,43.00,57.51,110.00,7.00,0.00,30.12,1020.10,10.00,M,CLR,M,M,M,M,M,M,M,M,KCOU 012354Z 11007KT 10SM CLR 14/06 A3012 RMK AO2 SLP201 T01440061 10161 20100 55002
COU,2017-04-01 23:55,-92.2183,38.8169,M,M,M,110.00,7.00,M,30.12,M,10.00,M,CLR,M,M,M,M,M,M,M,M,KCOU 012355Z AUTO 11007KT 10SM CLR A3012 RMK MADISHF
