#DEBUG: Format Typ    -> comma
#DEBUG: Time Period   -> 2017-04-01 00:00:00+00:00 2017-04-02 00:00:00+00:00
#DEBUG: Time Zone     -> Etc/UTC
#DEBUG: Data Contact   -> daryl herzmann akrherz@iastate.edu 515-294-5978
#DEBUG: Entries Found -> -1
station,valid,lon,lat,tmpf, dwpf, relh, drct, sknt, p01i, alti, mslp, vsby, gust, skyc1, skyc2, skyc3, skyc4, skyl1, skyl2, skyl3, skyl4, presentwx, metar
CPR,2017-04-01 00:00,-106.4644,42.9080,M,M,M,90.00,8.00,M,30.04,M,2.50,M,SCT,BKN,OVC,M,400.00,1400.00,3300.00,M,-SN BR,KCPR 010000Z AUTO 09008KT 2 1/2SM -SN BR SCT004 BKN014 OVC033 A3004 RMK MADISHF
CPR,2017-04-01 00:04,-106.4644,42.9080,33.10,33.10,100.00,90.00,8.00,0.00,30.04,M,2.50,M,SCT,BKN,OVC,M,400.00,1400.00,3500.00,M,-SN BR,KCPR 010004Z 09008KT 2 1/2SM -SN BR SCT004 BKN014 OVC035 01/01 A3004 RMK AO2 P0000 T00060006
CPR,2017-04-01 00:05,-106.4644,42.9080,M,M,M,90.00,8.00,M,30.04,M,3.00,M,SCT,BKN,OVC,M,400.00,1400.00,3500.00,M,-SN BR,KCPR 010005Z AUTO 09008KT 3SM -SN BR SCT004 BKN014 OVC035 A3004 RMK MADISHF
CPR,2017-04-01 00:10,-106.4644,42.9080,M,M,M,80.00,10.00,M,30.05,M,4.00,M,SCT,BKN,OVC,M,400.00,1300.00,4900.00,M,-SN BR,KCPR 010010Z AUTO 08010KT 4SM -SN BR SCT004 BKN013 OVC049 A3005 RMK MADISHF
CPR,2017-04-01 00:11,-106.4644,42.9080,33.10,33.10,100.00,80.00,9.00,0.00,30.05,M,4.00,M,FEW,BKN,OVC,M,400.00,3300.00,4900.00,M,-SN BR,KCPR 010011Z 08009KT 4SM -SN BR FEW004 BKN033 OVC049 01/01 A3005 RMK AO2 P0000 T00060006
CPR,2017-04-01 00:15,-106.4644,42.9080,M,M,M,80.00,10.00,M,30.05,M,5.00,M,FEW,BKN,OVC,M,400.00,3300.00,4700.00,M,-SN BR,KCPR 010015Z AUTO 08010KT 5SM -SN BR FEW004 BKN033 OVC047 A3005 RMK MADISHF
CPR,2017-04-01 00:20,-106.4644,42.9080,M,M,M,80.00,10.00,M,30.05,M,4.00,M,FEW,BKN,OVC,M,400.00,3300.00,4700.00,M,-SN BR,KCPR 010020Z AUTO 08010KT 4SM -SN BR FEW004 BKN033 OVC047 A3005 RMK MADISHF
CPR,2017-04-01 00:25,-106.4644,42.9080,M,M,M,80.00,10.00,M,30.05,M,2.00,M,FEW,BKN,OVC,M,600.00,3300.00,4700.00,M,-SN BR,KCPR 010025Z AUTO 08010KT 2SM -SN BR FEW006 BKN033 OVC047 A3005 RMK MADISHF
CPR,2017-04-01 00:28,-106.4644,42.9080,33.10,33.10,100.00,80.00,10.00,0.00,30.05,M,1.75,M,FEW,BKN,OVC,M,600.00,3500.00,4900.00,M,-SN BR,KCPR 010028Z 08010KT 1 3/4SM -SN BR FEW006 BKN035 OVC049 01/01 A3005 RMK AO2 P0000 T00060006
CPR,2017-04-01 00:30,-106.4644,42.9080,M,M,M,80.00,11.00,M,30.05,M,1.75,M,FEW,BKN,OVC,M,600.00,3300.00,4900.00,M,-SN BR,KCPR 010030Z AUTO 08011KT 2SM -SN BR FEW006 BKN033 OVC049 A3005 RMK MADISHF
CPR,2017-04-01 00:35,-106.4644,42.9080,M,M,M,90.00,11.00,M,30.05,M,2.00,M,FEW,BKN,OVC,M,400.00,3000.00,4900.00,M,-SN BR,KCPR 010035Z AUTO 09011KT 2SM -SN BR FEW004 BKN030 OVC049 A3005 RMK MADISHF
CPR,2017-04-01 00:38,-106.4644,42.9080,33.10,33.10,100.00,90.00,11.00,0.00,30.05,M,3.00,M,FEW,BKN,OVC,M,400.00,3000.00,3900.00,M,-SN BR,KCPR 010038Z 09011KT 3SM -SN BR FEW004 BKN030 OVC039 01/01 A3005 RMK AO2 P0000 T00060006
CPR,2017-04-01 00:40,-106.4644,42.9080,M,M,M,90.00,10.00,M,30.05,M,3.50,M,FEW,BKN,OVC,M,400.00,3000.00,3900.00,M,-SN BR,KCPR 010040Z AUTO 09010KT 3SM -SN BR FEW004 BKN030 OVC039 A3005 RMK MADISHF
CPR,2017-04-01 00:45,-106.4644,42.9080,M,M,M,90.00,10.00,M,30.05,M,5.00,M,FEW,BKN,OVC,M,400.00,3100.00,3800.00,M,-SN BR,KCPR 010045Z AUTO 09010KT 5SM -SN BR FEW004 BKN031 OVC038 A3005 RMK MADISHF
CPR,2017-04-01 00:50,-106.4644,42.9080,M,M,M,90.00,10.00,M,30.06,M,4.00,M,SCT,BKN,OVC,M,300.00,3100.00,3800.00,M,-SN BR,KCPR 010050Z AUTO 09010KT 4SM -SN BR SCT003 BKN031 OVC038 A3006 RMK MADISHF
CPR,2017-04-01 00:53,-106.4644,42.9080,33.10,32.00,95.67,90.00,10.00,0.00,30.06,1018.70,3.00,M,SCT,BKN,OVC,M,300.00,2900.00,3800.00,M,-SN BR,KCPR 010053Z 09010KT 3SM -SN BR SCT003 BKN029 OVC038 01/00 A3006 RMK AO2 SLP187 P0000 T00060000
CPR,2017-04-01 00:55,-106.4644,42.9080,M,M,M,80.00,9.00,M,M,M,3.50,M,SCT,OVC,M,M,300.00,2900.00,M,M,-SN BR,KCPR 010055Z AUTO 08009KT 3SM -SN BR SCT003 OVC029 RMK MADISHF
CPR,2017-04-01 01:00,-106.4644,42.9080,M,M,M,90.00,9.00,0.01,30.06,M,4.00,M,BKN,OVC,M,M,300.00,2900.00,M,M,-SN BR,KCPR 010100Z AUTO 09009KT 4SM -SN BR BKN003 OVC029 A3006 RMK P0001 MADISHF
CPR,2017-04-01 01:03,-106.4644,42.9080,33.10,32.00,95.67,90.00,9.00,0.01,30.06,M,4.00,M,BKN,OVC,M,M,300.00,3300.00,M,M,-SN BR,KCPR 010103Z 09009KT 4SM -SN BR BKN003 OVC033 01/00 A3006 RMK AO2 P0001 T00060000
CPR,2017-04-01 01:05,-106.4644,42.9080,M,M,M,90.00,8.00,0.01,30.06,M,4.00,M,BKN,OVC,M,M,300.00,3300.00,M,M,-SN BR,KCPR 010105Z AUTO 09008KT 4SM -SN BR BKN003 OVC033 A3006 RMK P0001 MADISHF
CPR,2017-04-01 01:10,-106.4644,42.9080,M,M,M,100.00,7.00,0.01,30.06,M,4.00,M,BKN,OVC,M,M,300.00,3100.00,M,M,-SN BR,KCPR 010110Z AUTO 10007KT 4SM -SN BR BKN003 OVC031 A3006 RMK P0001 MADISHF
CPR,2017-04-01 01:15,-106.4644,42.9080,M,M,M,100.00,10.00,0.01,30.06,M,4.00,M,BKN,BKN,OVC,M,300.00,800.00,2900.00,M,-SN BR,KCPR 010115Z AUTO 10010KT 4SM -SN BR BKN003 BKN008 OVC029 A3006 RMK P0001 MADISHF
CPR,2017-04-01 01:20,-106.4644,42.9080,M,M,M,110.00,11.00,0.01,30.06,M,3.50,M,BKN,BKN,OVC,M,300.00,800.00,2900.00,M,-SN BR,KCPR 010120Z AUTO 11011KT 3SM -SN BR BKN003 BKN008 OVC029 A3006 RMK P0001 MADISHF
CPR,2017-04-01 01:25,-106.4644,42.9080,M,M,M,110.00,11.00,0.01,30.07,M,4.00,M,BKN,BKN,OVC,M,300.00,900.00,2900.00,M,-SN BR,KCPR 010125Z AUTO 11011KT 4SM -SN BR BKN003 BKN009 OVC029 A3007 RMK P0001 MADISHF
CPR,2017-04-01 01:30,-106.4644,42.9080,M,M,M,110.00,11.00,0.01,30.07,M,4.00,M,BKN,BKN,OVC,M,300.00,900.00,3000.00,M,-SN BR,KCPR 010130Z AUTO 11011KT 4SM -SN BR BKN003 BKN009 OVC030 A3007 RMK P0001 MADISHF
CPR,2017-04-01 01:35,-106.4644,42.9080,M,M,M,110.00,11.00,0.01,30.07,M,2.50,M,BKN,BKN,OVC,M,200.00,700.00,2800.00,M,-SN BR,KCPR 010135Z AUTO 11011KT 2 1/2SM -SN BR BKN002 BKN007 OVC028 A3007 RMK P0001 MADISHF
CPR,2017-04-01 01:40,-106.4644,42.9080,M,M,M,110.00,10.00,0.01,30.07,M,2.00,M,BKN,BKN,OVC,M,200.00,700.00,2600.00,M,-SN BR,KCPR 010140Z AUTO 11010KT 2SM -SN BR BKN002 BKN007 OVC026 A3007 RMK P0001 MADISHF
CPR,2017-04-01 01:41,-106.4644,42.9080,32.00,32.00,100.00,110.00,10.00,0.01,30.07,M,2.00,M,BKN,BKN,OVC,M,200.00,900.00,2600.00,M,-SN BR,KCPR 010141Z 11010KT 2SM -SN BR BKN002 BKN009 OVC026 00/00 A3007 RMK AO2 P0001 T00000000
CPR,2017-04-01 01:44,-106.4644,42.9080,32.00,32.00,100.00,110.00,11.00,0.01,30.07,M,2.00,M,SCT,OVC,M,M,200.00,2400.00,M,M,-SN BR,KCPR 010144Z 11011KT 2SM -SN BR SCT002 OVC024 00/00 A3007 RMK AO2 P0001 T00000000
CPR,2017-04-01 01:45,-106.4644,42.9080,M,M,M,110.00,11.00,0.01,30.07,M,1.75,M,SCT,OVC,M,M,200.00,2200.00,M,M,-SN BR,KCPR 010145Z AUTO 11011KT 2SM -SN BR SCT002 OVC022 A3007 RMK P0001 MADISHF
CPR,2017-04-01 01:50,-106.4644,42.9080,M,M,M,110.00,10.00,0.01,30.07,M,1.75,M,SCT,OVC,M,M,200.00,1999.00,M,M,-SN BR,KCPR 010150Z AUTO 11010KT 2SM -SN BR SCT002 OVC019 A3007 RMK P0001 MADISHF
CPR,2017-04-01 01:51,-106.4644,42.9080,32.00,32.00,100.00,110.00,11.00,0.01,30.08,M,1.50,M,SCT,OVC,M,M,200.00,2000.00,M,M,-SN BR,KCPR 010151Z 11011KT 1 1/2SM -SN BR SCT002 OVC020 00/00 A3008 RMK AO2 P0001
CPR,2017-04-01 01:53,-106.4644,42.9080,32.00,32.00,100.00,120.00,11.00,0.01,30.08,1019.60,1.50,M,SCT,OVC,M,M,200.00,2000.00,M,M,-SN BR,KCPR 010153Z 12011KT 1 1/2SM -SN BR SCT002 OVC020 00/00 A3008 RMK AO2 SLP196 P0001 T00000000
CPR,2017-04-01 01:55,-106.4644,42.9080,M,M,M,110.00,10.00,0.01,30.08,M,1.50,M,SCT,OVC,M,M,200.00,1800.00,M,M,-SN BR,KCPR 010155Z AUTO 11010KT 1 1/2SM -SN BR SCT002 OVC018 A3008 RMK P0001 MADISHF
CPR,2017-04-01 02:00,-106.4644,42.9080,M,M,M,110.00,12.00,0.01,30.08,M,1.25,M,SCT,OVC,M,M,200.00,1800.00,M,M,-SN BR,KCPR 010200Z AUTO 11012KT 1 1/2SM -SN BR SCT002 OVC018 A3008 RMK P0001 MADISHF
CPR,2017-04-01 02:05,-106.4644,42.9080,M,M,M,110.00,11.00,0.01,30.08,M,1.25,M,SCT,OVC,M,M,200.00,1600.00,M,M,-SN BR,KCPR 010205Z AUTO 11011KT 1 1/2SM -SN BR SCT002 OVC016 A3008 RMK P0001 MADISHF
CPR,2017-04-01 02:10,-106.4644,42.9080,M,M,M,110.00,11.00,0.01,M,M,1.25,M,SCT,OVC,M,M,200.00,1400.00,M,M,-SN BR,KCPR 010210Z AUTO 11011KT 1 1/2SM -SN BR SCT002 OVC014 RMK P0001 MADISHF
CPR,2017-04-01 02:15,-106.4644,42.9080,M,M,M,110.00,11.00,0.02,M,M,1.00,M,SCT,OVC,M,M,200.00,1400.00,M,M,-SN BR,KCPR 010215Z AUTO 11011KT 1SM -SN BR SCT002 OVC014 RMK P0002 MADISHF
CPR,2017-04-01 02:16,-106.4644,42.9080,32.00,32.00,100.00,110.00,11.00,0.02,30.09,M,1.00,M,SCT,OVC,M,M,200.00,1200.00,M,M,-SN BR,KCPR 010216Z 11011KT 1SM R03/P6000FT -SN BR SCT002 OVC012 00/00 A3009 RMK AO2 P0002 T00000000
CPR,2017-04-01 02:20,-106.4644,42.9080,M,M,M,110.00,11.00,0.02,M,M,1.00,M,SCT,OVC,M,M,200.00,1200.00,M,M,-SN BR,KCPR 010220Z AUTO 11011KT 1SM -SN BR SCT002 OVC012 RMK P0002 MADISHF
CPR,2017-04-01 02:25,-106.4644,42.9080,M,M,M,100.00,10.00,0.03,M,M,1.00,M,FEW,OVC,M,M,300.00,999.00,M,M,-SN BR,KCPR 010225Z AUTO 10010KT 1SM -SN BR FEW003 OVC009 RMK P0003 MADISHF
CPR,2017-04-01 02:30,-106.4644,42.9080,M,M,M,110.00,10.00,0.03,30.09,M,1.00,M,FEW,OVC,M,M,300.00,999.00,M,M,-SN BR,KCPR 010230Z AUTO 11010KT 1SM -SN BR FEW003 OVC009 A3009 RMK P0003 MADISHF
CPR,2017-04-01 02:35,-106.4644,42.9080,M,M,M,100.00,10.00,0.04,M,M,1.00,M,FEW,OVC,M,M,300.00,999.00,M,M,-SN BR,KCPR 010235Z AUTO 10010KT 1SM -SN BR FEW003 OVC009 RMK P0004 MADISHF
CPR,2017-04-01 02:40,-106.4644,42.9080,M,M,M,100.00,9.00,0.04,30.10,M,1.00,M,FEW,OVC,M,M,300.00,800.00,M,M,-SN BR,KCPR 010240Z AUTO 10009KT 1SM -SN BR FEW003 OVC008 A3010 RMK P0004 MADISHF
CPR,2017-04-01 02:43,-106.4644,42.9080,32.00,32.00,100.00,110.00,9.00,0.05,30.10,M,1.00,M,FEW,OVC,M,M,300.00,800.00,M,M,-SN BR,KCPR 010243Z 11009KT 1SM R03/P6000FT -SN BR FEW003 OVC008 00/00 A3010 RMK AO2 P0005 T00000000
CPR,2017-04-01 02:45,-106.4644,42.9080,M,M,M,110.00,8.00,0.05,30.10,M,1.00,M,FEW,OVC,M,M,300.00,800.00,M,M,-SN BR,KCPR 010245Z AUTO 11008KT 1SM -SN BR FEW003 OVC008 A3010 RMK P0005 MADISHF
CPR,2017-04-01 02:50,-106.4644,42.9080,M,M,M,110.00,9.00,0.06,30.10,M,0.75,M,FEW,OVC,M,M,300.00,600.00,M,M,-SN BR,KCPR 010250Z AUTO 11009KT 1SM -SN BR FEW003 OVC006 A3010 RMK P0006 MADISHF
CPR,2017-04-01 02:53,-106.4644,42.9080,32.00,32.00,100.00,110.00,10.00,0.07,30.10,1020.80,0.75,M,FEW,OVC,M,M,200.00,600.00,M,M,-SN BR,KCPR 010253Z 11010KT 3/4SM R03/5500VP6000FT -SN BR FEW002 OVC006 00/00 A3010 RMK AO2 SLP208 P0007 60008 T00000000 53012
CPR,2017-04-01 02:55,-106.4644,42.9080,M,M,M,100.00,10.00,M,30.10,M,0.75,M,FEW,OVC,M,M,200.00,600.00,M,M,-SN BR,KCPR 010255Z AUTO 10010KT 1SM -SN BR FEW002 OVC006 A3010 RMK MADISHF
CPR,2017-04-01 03:00,-106.4644,42.9080,M,M,M,110.00,9.00,0.01,30.10,M,0.75,M,VV ,M,M,M,600.00,M,M,M,-SN BR,KCPR 010300Z AUTO 11009KT 1SM -SN BR VV006 A3010 RMK P0001 MADISHF
CPR,2017-04-01 03:05,-106.4644,42.9080,M,M,M,100.00,9.00,0.02,30.10,M,0.75,M,VV ,M,M,M,700.00,M,M,M,-SN BR,KCPR 010305Z AUTO 10009KT 1SM -SN BR VV007 A3010 RMK P0002 MADISHF
CPR,2017-04-01 03:10,-106.4644,42.9080,M,M,M,90.00,9.00,0.03,30.10,M,0.75,M,VV ,M,M,M,700.00,M,M,M,-SN BR,KCPR 010310Z AUTO 09009KT 1SM -SN BR VV007 A3010 RMK P0003 MADISHF
CPR,2017-04-01 03:15,-106.4644,42.9080,M,M,M,90.00,8.00,0.04,30.11,M,1.00,M,VV ,M,M,M,700.00,M,M,M,-SN BR,KCPR 010315Z AUTO 09008KT 1SM -SN BR VV007 A3011 RMK P0004 MADISHF
CPR,2017-04-01 03:18,-106.4644,42.9080,32.00,32.00,100.00,90.00,8.00,0.04,30.11,M,1.00,M,VV ,M,M,M,600.00,M,M,M,-SN BR,KCPR 010318Z AUTO 09008KT 1SM R03/5500VP6000FT -SN BR VV006 00/00 A3011 RMK AO2 P0004 T00000000
CPR,2017-04-01 03:20,-106.4644,42.9080,M,M,M,90.00,7.00,0.05,30.11,M,1.00,M,VV ,M,M,M,600.00,M,M,M,-SN BR,KCPR 010320Z AUTO 09007KT 1SM -SN BR VV006 A3011 RMK P0005 MADISHF
CPR,2017-04-01 03:25,-106.4644,42.9080,M,M,M,100.00,8.00,0.05,30.11,M,1.00,M,FEW,OVC,M,M,200.00,600.00,M,M,-SN BR,KCPR 010325Z AUTO 10008KT 1SM -SN BR FEW002 OVC006 A3011 RMK P0005 MADISHF
CPR,2017-04-01 03:30,-106.4644,42.9080,M,M,M,100.00,7.00,0.06,30.11,M,1.00,M,VV ,M,M,M,499.00,M,M,M,-SN BR,KCPR 010330Z AUTO 10007KT 1SM -SN BR VV004 A3011 RMK P0006 MADISHF
CPR,2017-04-01 03:35,-106.4644,42.9080,M,M,M,80.00,8.00,0.06,30.11,M,1.00,M,VV ,M,M,M,400.00,M,M,M,-SN BR,KCPR 010335Z AUTO 08008KT 1SM -SN BR VV004 A3011 RMK P0006 MADISHF
CPR,2017-04-01 03:40,-106.4644,42.9080,32.00,32.00,100.00,80.00,8.00,0.07,30.12,M,1.00,M,OVC,M,M,M,400.00,M,M,M,-SN BR,KCPR 010340Z AUTO 08008KT 1SM R03/P6000FT -SN BR OVC004 00/00 A3012 RMK AO2 P0007 T00000000
CPR,2017-04-01 03:45,-106.4644,42.9080,M,M,M,70.00,7.00,0.08,30.12,M,1.00,M,OVC,M,M,M,400.00,M,M,M,-SN BR,KCPR 010345Z AUTO 07007KT 1SM -SN BR OVC004 A3012 RMK P0008 MADISHF
CPR,2017-04-01 03:50,-106.4644,42.9080,M,M,M,70.00,7.00,0.08,30.12,M,0.75,M,OVC,M,M,M,300.00,M,M,M,-SN BR,KCPR 010350Z AUTO 07007KT 1SM -SN BR OVC003 A3012 RMK P0008 MADISHF
CPR,2017-04-01 03:53,-106.4644,42.9080,32.00,32.00,100.00,60.00,8.00,0.09,30.12,1021.90,1.00,M,OVC,M,M,M,300.00,M,M,M,-SN BR,KCPR 010353Z AUTO 06008KT 1SM R03/P6000FT -SN BR OVC003 00/00 A3012 RMK AO2 SLP219 P0009 T00000000
CPR,2017-04-01 03:55,-106.4644,42.9080,M,M,M,70.00,7.00,M,M,M,1.00,M,OVC,M,M,M,300.00,M,M,M,-SN BR,KCPR 010355Z AUTO 07007KT 1SM -SN BR OVC003 RMK MADISHF
CPR,2017-04-01 04:00,-106.4644,42.9080,M,M,M,70.00,7.00,M,30.12,M,1.00,M,OVC,M,M,M,200.00,M,M,M,-SN BR,KCPR 010400Z AUTO 07007KT 1SM -SN BR OVC002 A3012 RMK MADISHF
CPR,2017-04-01 04:05,-106.4644,42.9080,M,M,M,80.00,7.00,0.01,30.12,M,1.00,M,BKN,OVC,M,M,200.00,1200.00,M,M,-SN BR,KCPR 010405Z AUTO 08007KT 1SM -SN BR BKN002 OVC012 A3012 RMK P0001 MADISHF
CPR,2017-04-01 04:10,-106.4644,42.9080,M,M,M,80.00,8.00,0.02,30.12,M,1.00,M,BKN,BKN,OVC,M,200.00,900.00,1300.00,M,-SN BR,KCPR 010410Z AUTO 08008KT 1SM -SN BR BKN002 BKN009 OVC013 A3012 RMK P0002 MADISHF
CPR,2017-04-01 04:15,-106.4644,42.9080,M,M,M,80.00,8.00,0.02,30.12,M,1.00,M,BKN,OVC,M,M,200.00,900.00,M,M,-SN BR,KCPR 010415Z AUTO 08008KT 1SM -SN BR BKN002 OVC009 A3012 RMK P0002 MADISHF
CPR,2017-04-01 04:20,-106.4644,42.9080,M,M,M,80.00,8.00,0.02,30.13,M,1.00,M,BKN,OVC,M,M,200.00,900.00,M,M,-SN BR,KCPR 010420Z AUTO 08008KT 1SM -SN BR BKN002 OVC009 A3013 RMK P0002 MADISHF
CPR,2017-04-01 04:25,-106.4644,42.9080,M,M,M,80.00,7.00,0.03,30.13,M,0.75,M,SCT,OVC,M,M,200.00,900.00,M,M,-SN BR,KCPR 010425Z AUTO 08007KT 1SM -SN BR SCT002 OVC009 A3013 RMK P0003 MADISHF
CPR,2017-04-01 04:30,-106.4644,42.9080,M,M,M,90.00,7.00,0.04,30.13,M,0.75,M,FEW,OVC,M,M,300.00,900.00,M,M,-SN BR,KCPR 010430Z AUTO 09007KT 1SM -SN BR FEW003 OVC009 A3013 RMK P0004 MADISHF
CPR,2017-04-01 04:31,-106.4644,42.9080,32.00,32.00,100.00,90.00,7.00,0.04,30.13,M,0.75,M,FEW,OVC,M,M,300.00,900.00,M,M,-SN BR,KCPR 010431Z AUTO 09007KT 3/4SM R03/P6000FT -SN BR FEW003 OVC009 00/00 A3013 RMK AO2 P0004 T00000000
CPR,2017-04-01 04:35,-106.4644,42.9080,M,M,M,90.00,8.00,0.04,M,M,1.00,M,FEW,OVC,M,M,300.00,900.00,M,M,-SN BR,KCPR 010435Z AUTO 09008KT 1SM -SN BR FEW003 OVC009 RMK P0004 MADISHF
CPR,2017-04-01 04:40,-106.4644,42.9080,M,M,M,80.00,7.00,0.05,M,M,1.00,M,FEW,OVC,M,M,300.00,900.00,M,M,-SN BR,KCPR 010440Z AUTO 08007KT 1SM -SN BR FEW003 OVC009 RMK P0005 MADISHF
CPR,2017-04-01 04:41,-106.4644,42.9080,32.00,32.00,100.00,80.00,6.00,0.05,30.13,M,1.00,M,FEW,OVC,M,M,300.00,900.00,M,M,-SN BR,KCPR 010441Z AUTO 08006KT 1SM R03/P6000FT -SN BR FEW003 OVC009 00/00 A3013 RMK AO2 P0005 T00000000
CPR,2017-04-01 04:45,-106.4644,42.9080,M,M,M,70.00,6.00,0.05,30.13,M,1.00,M,FEW,OVC,M,M,300.00,900.00,M,M,-SN BR,KCPR 010445Z AUTO 07006KT 1SM -SN BR FEW003 OVC009 A3013 RMK P0005 MADISHF
CPR,2017-04-01 04:50,-106.4644,42.9080,M,M,M,70.00,6.00,0.06,M,M,1.00,M,FEW,OVC,M,M,300.00,999.00,M,M,-SN BR,KCPR 010450Z AUTO 07006KT 1SM -SN BR FEW003 OVC009 RMK P0006 MADISHF
CPR,2017-04-01 04:53,-106.4644,42.9080,32.00,32.00,100.00,70.00,6.00,0.06,30.13,1022.00,1.00,M,FEW,OVC,M,M,200.00,1200.00,M,M,-SN BR,KCPR 010453Z AUTO 07006KT 1SM R03/P6000FT -SN BR FEW002 OVC012 00/00 A3013 RMK AO2 SLP220 P0006 T00000000
CPR,2017-04-01 04:55,-106.4644,42.9080,M,M,M,70.00,6.00,M,30.13,M,1.25,M,FEW,OVC,M,M,200.00,1200.00,M,M,-SN BR,KCPR 010455Z AUTO 07006KT 1 1/2SM -SN BR FEW002 OVC012 A3013 RMK MADISHF
CPR,2017-04-01 05:00,-106.4644,42.9080,M,M,M,60.00,5.00,M,30.13,M,1.25,M,FEW,BKN,OVC,M,200.00,1400.00,2100.00,M,-SN BR,KCPR 010500Z AUTO 06005KT 1 1/2SM -SN BR FEW002 BKN014 OVC021 A3013 RMK MADISHF
CPR,2017-04-01 05:05,-106.4644,42.9080,M,M,M,50.00,6.00,0.01,30.13,M,1.00,M,FEW,BKN,OVC,M,200.00,1400.00,2100.00,M,-SN BR,KCPR 010505Z AUTO 05006KT 1SM -SN BR FEW002 BKN014 OVC021 A3013 RMK P0001 MADISHF
CPR,2017-04-01 05:10,-106.4644,42.9080,M,M,M,50.00,6.00,0.01,30.13,M,1.00,M,FEW,OVC,M,M,200.00,1200.00,M,M,-SN BR,KCPR 010510Z AUTO 05006KT 1SM -SN BR FEW002 OVC012 A3013 RMK P0001 MADISHF
CPR,2017-04-01 05:15,-106.4644,42.9080,M,M,M,40.00,6.00,0.02,30.13,M,1.00,M,FEW,OVC,M,M,200.00,1200.00,M,M,-SN BR,KCPR 010515Z AUTO 04006KT 1SM -SN BR FEW002 OVC012 A3013 RMK P0002 MADISHF
CPR,2017-04-01 05:20,-106.4644,42.9080,M,M,M,30.00,6.00,0.02,30.14,M,1.00,M,FEW,OVC,M,M,200.00,1200.00,M,M,-SN BR,KCPR 010520Z AUTO 03006KT 1SM -SN BR FEW002 OVC012 A3014 RMK P0002 MADISHF
CPR,2017-04-01 05:25,-106.4644,42.9080,M,M,M,30.00,6.00,0.03,30.14,M,1.25,M,FEW,OVC,M,M,400.00,999.00,M,M,-SN BR,KCPR 010525Z AUTO 03006KT 1 1/2SM -SN BR FEW004 OVC009 A3014 RMK P0003 MADISHF
CPR,2017-04-01 05:30,-106.4644,42.9080,M,M,M,40.00,6.00,0.03,30.14,M,1.00,M,FEW,OVC,M,M,400.00,999.00,M,M,-SN BR,KCPR 010530Z AUTO 04006KT 1SM -SN BR FEW004 OVC009 A3014 RMK P0003 MADISHF
CPR,2017-04-01 05:35,-106.4644,42.9080,M,M,M,40.00,6.00,0.04,30.14,M,1.00,M,SCT,OVC,M,M,400.00,900.00,M,M,-SN BR,KCPR 010535Z AUTO 04006KT 1SM -SN BR SCT004 OVC009 A3014 RMK P0004 MADISHF
CPR,2017-04-01 05:40,-106.4644,42.9080,M,M,M,30.00,7.00,0.05,30.14,M,1.00,M,FEW,OVC,M,M,400.00,900.00,M,M,-SN BR,KCPR 010540Z AUTO 03007KT 1SM -SN BR FEW004 OVC009 A3014 RMK P0005 MADISHF
CPR,2017-04-01 05:41,-106.4644,42.9080,32.00,32.00,100.00,30.00,6.00,0.05,30.14,M,1.00,M,FEW,OVC,M,M,400.00,900.00,M,M,-SN BR,KCPR 010541Z AUTO 03006KT 1SM R03/P6000FT -SN BR FEW004 OVC009 00/00 A3014 RMK AO2 P0005 T00000000
CPR,2017-04-01 05:45,-106.4644,42.9080,M,M,M,30.00,6.00,0.05,30.14,M,1.00,M,VV ,M,M,M,700.00,M,M,M,-SN BR,KCPR 010545Z AUTO 03006KT 1SM -SN BR VV007 A3014 RMK P0005 MADISHF
CPR,2017-04-01 05:50,-106.4644,42.9080,M,M,M,40.00,6.00,0.06,30.14,M,1.00,M,FEW,OVC,M,M,499.00,900.00,M,M,-SN BR,KCPR 010550Z AUTO 04006KT 1SM -SN BR FEW004 OVC009 A3014 RMK P0006 MADISHF
CPR,2017-04-01 05:53,-106.4644,42.9080,32.00,32.00,100.00,40.00,6.00,0.06,30.14,1022.20,1.00,M,FEW,OVC,M,M,500.00,900.00,M,M,-SN BR,KCPR 010553Z AUTO 04006KT 1SM R03/P6000FT -SN BR FEW005 OVC009 00/00 A3014 RMK AO2 SLP222 P0006 60029 T00000000 10006 20000 51011
CPR,2017-04-01 05:55,-106.4644,42.9080,M,M,M,30.00,7.00,M,30.14,M,1.00,M,FEW,OVC,M,M,499.00,900.00,M,M,-SN BR,KCPR 010555Z AUTO 03007KT 1SM -SN BR FEW004 OVC009 A3014 RMK MADISHF
CPR,2017-04-01 06:00,-106.4644,42.9080,M,M,M,30.00,7.00,0.01,30.14,M,1.25,M,FEW,OVC,M,M,499.00,1100.00,M,M,-SN BR,KCPR 010600Z AUTO 03007KT 1 1/2SM -SN BR FEW004 OVC011 A3014 RMK P0001 MADISHF
CPR,2017-04-01 06:02,-106.4644,42.9080,32.00,32.00,100.00,30.00,7.00,0.01,30.14,M,1.25,M,FEW,OVC,M,M,500.00,1100.00,M,M,-SN BR,KCPR 010602Z AUTO 03007KT 1 1/4SM -SN BR FEW005 OVC011 00/00 A3014 RMK AO2 P0001 T00000000
CPR,2017-04-01 06:05,-106.4644,42.9080,M,M,M,20.00,8.00,0.01,30.14,M,1.50,M,FEW,OVC,M,M,499.00,1100.00,M,M,-SN BR,KCPR 010605Z AUTO 02008KT 1 1/2SM -SN BR FEW004 OVC011 A3014 RMK P0001 MADISHF
CPR,2017-04-01 06:10,-106.4644,42.9080,M,M,M,30.00,8.00,0.02,30.14,M,1.50,M,FEW,OVC,M,M,499.00,1100.00,M,M,-SN BR,KCPR 010610Z AUTO 03008KT 1 1/2SM -SN BR FEW004 OVC011 A3014 RMK P0002 MADISHF
CPR,2017-04-01 06:15,-106.4644,42.9080,M,M,M,40.00,7.00,0.02,30.14,M,1.50,M,BKN,OVC,M,M,1100.00,1800.00,M,M,-SN BR,KCPR 010615Z AUTO 04007KT 1 1/2SM -SN BR BKN011 OVC018 A3014 RMK P0002 MADISHF
CPR,2017-04-01 06:20,-106.4644,42.9080,M,M,M,40.00,7.00,0.02,30.14,M,1.50,M,BKN,OVC,M,M,1300.00,1800.00,M,M,-SN BR,KCPR 010620Z AUTO 04007KT 1 1/2SM -SN BR BKN013 OVC018 A3014 RMK P0002 MADISHF
CPR,2017-04-01 06:25,-106.4644,42.9080,M,M,M,40.00,7.00,0.03,30.13,M,1.50,M,OVC,M,M,M,1300.00,M,M,M,-SN BR,KCPR 010625Z AUTO 04007KT 1 1/2SM -SN BR OVC013 A3013 RMK P0003 MADISHF
CPR,2017-04-01 06:30,-106.4644,42.9080,M,M,M,30.00,7.00,0.03,30.14,M,1.50,M,BKN,M,M,M,1300.00,M,M,M,-SN BR,KCPR 010630Z AUTO 03007KT 1 1/2SM -SN BR BKN013 A3014 RMK P0003 MADISHF
CPR,2017-04-01 06:35,-106.4644,42.9080,M,M,M,30.00,8.00,0.03,30.14,M,1.75,M,OVC,M,M,M,1400.00,M,M,M,-SN BR,KCPR 010635Z AUTO 03008KT 2SM -SN BR OVC014 A3014 RMK P0003 MADISHF
CPR,2017-04-01 06:40,-106.4644,42.9080,M,M,M,30.00,7.00,0.03,30.14,M,2.00,M,OVC,M,M,M,1400.00,M,M,M,-SN BR,KCPR 010640Z AUTO 03007KT 2SM -SN BR OVC014 A3014 RMK P0003 MADISHF
CPR,2017-04-01 06:44,-106.4644,42.9080,32.00,32.00,100.00,30.00,7.00,0.03,30.14,M,2.50,M,OVC,M,M,M,1400.00,M,M,M,-SN BR,KCPR 010644Z AUTO 03007KT 2 1/2SM -SN BR OVC014 00/00 A3014 RMK AO2 P0003 T00000000
CPR,2017-04-01 06:45,-106.4644,42.9080,M,M,M,30.00,7.00,0.03,30.14,M,2.50,M,OVC,M,M,M,1300.00,M,M,M,-SN BR,KCPR 010645Z AUTO 03007KT 2 1/2SM -SN BR OVC013 A3014 RMK P0003 MADISHF
CPR,2017-04-01 06:50,-106.4644,42.9080,M,M,M,30.00,7.00,0.03,30.14,M,2.50,M,OVC,M,M,M,1600.00,M,M,M,-SN BR,KCPR 010650Z AUTO 03007KT 2 1/2SM -SN BR OVC016 A3014 RMK P0003 MADISHF
CPR,2017-04-01 06:53,-106.4644,42.9080,32.00,32.00,100.00,30.00,8.00,0.03,30.14,1022.40,3.00,M,OVC,M,M,M,1400.00,M,M,M,-SN BR,KCPR 010653Z AUTO 03008KT 3SM -SN BR OVC014 00/00 A3014 RMK AO2 SLP224 P0003 T00000000 400560000
CPR,2017-04-01 06:55,-106.4644,42.9080,M,M,M,40.00,7.00,M,M,M,3.00,M,OVC,M,M,M,1400.00,M,M,M,-SN BR,KCPR 010655Z AUTO 04007KT 3SM -SN BR OVC014 RMK MADISHF
CPR,2017-04-01 07:00,-106.4644,42.9080,M,M,M,40.00,7.00,0.01,30.13,M,3.00,M,BKN,OVC,M,M,1400.00,1800.00,M,M,-SN BR,KCPR 010700Z AUTO 04007KT 3SM -SN BR BKN014 OVC018 A3013 RMK P0001 MADISHF
CPR,2017-04-01 07:05,-106.4644,42.9080,M,M,M,40.00,6.00,0.01,30.13,M,3.00,M,OVC,M,M,M,1400.00,M,M,M,-SN BR,KCPR 010705Z AUTO 04006KT 3SM -SN BR OVC014 A3013 RMK P0001 MADISHF
CPR,2017-04-01 07:10,-106.4644,42.9080,M,M,M,40.00,6.00,0.01,30.14,M,3.50,M,OVC,M,M,M,1400.00,M,M,M,-SN BR,KCPR 010710Z AUTO 04006KT 3SM -SN BR OVC014 A3014 RMK P0001 MADISHF
CPR,2017-04-01 07:15,-106.4644,42.9080,M,M,M,40.00,6.00,0.01,M,M,4.00,M,OVC,M,M,M,1400.00,M,M,M,-SN BR,KCPR 010715Z AUTO 04006KT 4SM -SN BR OVC014 RMK P0001 MADISHF
CPR,2017-04-01 07:20,-106.4644,42.9080,M,M,M,40.00,6.00,0.01,M,M,4.00,M,OVC,M,M,M,1400.00,M,M,M,-SN BR,KCPR 010720Z AUTO 04006KT 4SM -SN BR OVC014 RMK P0001 MADISHF
CPR,2017-04-01 07:25,-106.4644,42.9080,M,M,M,40.00,5.00,0.01,M,M,6.00,M,OVC,M,M,M,1400.00,M,M,M,BR,KCPR 010725Z AUTO 04005KT 6SM BR OVC014 RMK P0001 MADISHF
CPR,2017-04-01 07:30,-106.4644,42.9080,M,M,M,50.00,5.00,0.01,30.14,M,9.00,M,BKN,OVC,M,M,1300.00,1999.00,M,M,M,KCPR 010730Z AUTO 05005KT 9SM BKN013 OVC019 A3014 RMK P0001 MADISHF
CPR,2017-04-01 07:35,-106.4644,42.9080,M,M,M,40.00,6.00,0.01,M,M,10.00,M,BKN,OVC,M,M,1300.00,1999.00,M,M,M,KCPR 010735Z AUTO 04006KT 10SM BKN013 OVC019 RMK P0001 MADISHF
CPR,2017-04-01 07:40,-106.4644,42.9080,M,M,M,40.00,6.00,0.01,30.14,M,10.00,M,BKN,OVC,M,M,1300.00,1999.00,M,M,M,KCPR 010740Z AUTO 04006KT 10SM BKN013 OVC019 A3014 RMK P0001 MADISHF
CPR,2017-04-01 07:45,-106.4644,42.9080,M,M,M,40.00,6.00,0.01,30.14,M,10.00,M,BKN,BKN,OVC,M,1300.00,1999.00,2900.00,M,M,KCPR 010745Z AUTO 04006KT 10SM BKN013 BKN019 OVC029 A3014 RMK P0001 MADISHF
CPR,2017-04-01 07:50,-106.4644,42.9080,M,M,M,20.00,6.00,0.01,30.14,M,10.00,M,BKN,BKN,OVC,M,1300.00,1999.00,2900.00,M,M,KCPR 010750Z AUTO 02006KT 10SM BKN013 BKN019 OVC029 A3014 RMK P0001 MADISHF
CPR,2017-04-01 07:53,-106.4644,42.9080,32.00,32.00,100.00,10.00,6.00,0.01,30.14,1022.70,10.00,M,BKN,BKN,OVC,M,1300.00,2000.00,2900.00,M,M,KCPR 010753Z AUTO 01006KT 10SM BKN013 BKN020 OVC029 00/00 A3014 RMK AO2 SNE24 SLP227 P0001 T00000000
CPR,2017-04-01 07:55,-106.4644,42.9080,M,M,M,10.00,6.00,M,30.15,M,10.00,M,BKN,OVC,M,M,1300.00,1999.00,M,M,M,KCPR 010755Z AUTO 01006KT 10SM BKN013 OVC019 A3015 RMK MADISHF
CPR,2017-04-01 08:00,-106.4644,42.9080,M,M,M,20.00,6.00,M,30.15,M,10.00,M,BKN,OVC,M,M,1300.00,2900.00,M,M,M,KCPR 010800Z AUTO 02006KT 10SM BKN013 OVC029 A3015 RMK MADISHF
CPR,2017-04-01 08:05,-106.4644,42.9080,M,M,M,10.00,7.00,M,30.15,M,10.00,M,FEW,OVC,M,M,400.00,1300.00,M,M,M,KCPR 010805Z AUTO 01007KT 10SM FEW004 OVC013 A3015 RMK MADISHF
CPR,2017-04-01 08:08,-106.4644,42.9080,32.00,32.00,100.00,20.00,7.00,0.00,30.15,M,10.00,M,SCT,OVC,M,M,400.00,1300.00,M,M,M,KCPR 010808Z AUTO 02007KT 10SM SCT004 OVC013 00/00 A3015 RMK AO2 T00000000
CPR,2017-04-01 08:10,-106.4644,42.9080,M,M,M,30.00,7.00,M,30.15,M,10.00,M,SCT,OVC,M,M,400.00,1300.00,M,M,M,KCPR 010810Z AUTO 03007KT 10SM SCT004 OVC013 A3015 RMK MADISHF
CPR,2017-04-01 08:15,-106.4644,42.9080,M,M,M,40.00,5.00,M,30.15,M,10.00,M,SCT,BKN,OVC,M,499.00,1300.00,1800.00,M,M,KCPR 010815Z AUTO 04005KT 10SM SCT004 BKN013 OVC018 A3015 RMK MADISHF
CPR,2017-04-01 08:20,-106.4644,42.9080,M,M,M,30.00,5.00,M,30.15,M,10.00,M,FEW,BKN,OVC,M,499.00,1300.00,1800.00,M,M,KCPR 010820Z AUTO 03005KT 10SM FEW004 BKN013 OVC018 A3015 RMK MADISHF
CPR,2017-04-01 08:25,-106.4644,42.9080,M,M,M,20.00,5.00,M,30.15,M,10.00,M,FEW,OVC,M,M,499.00,1800.00,M,M,M,KCPR 010825Z AUTO 02005KT 10SM FEW004 OVC018 A3015 RMK MADISHF
CPR,2017-04-01 08:28,-106.4644,42.9080,32.00,32.00,100.00,10.00,6.00,0.00,30.15,M,10.00,M,FEW,OVC,M,M,500.00,1800.00,M,M,M,KCPR 010828Z AUTO 01006KT 10SM FEW005 OVC018 00/00 A3015 RMK AO2 T00000000
CPR,2017-04-01 08:30,-106.4644,42.9080,M,M,M,10.00,6.00,M,30.15,M,10.00,M,FEW,OVC,M,M,499.00,1800.00,M,M,M,KCPR 010830Z AUTO 01006KT 10SM FEW004 OVC018 A3015 RMK MADISHF
CPR,2017-04-01 08:35,-106.4644,42.9080,M,M,M,10.00,6.00,M,30.15,M,10.00,M,FEW,OVC,M,M,499.00,1800.00,M,M,M,KCPR 010835Z AUTO 01006KT 10SM FEW004 OVC018 A3015 RMK MADISHF
CPR,2017-04-01 08:40,-106.4644,42.9080,M,M,M,30.00,6.00,M,30.15,M,10.00,M,OVC,M,M,M,1900.00,M,M,M,M,KCPR 010840Z AUTO 03006KT 10SM OVC019 A3015 RMK MADISHF
CPR,2017-04-01 08:45,-106.4644,42.9080,M,M,M,20.00,5.00,M,30.15,M,10.00,M,BKN,OVC,M,M,1600.00,2100.00,M,M,M,KCPR 010845Z AUTO 02005KT 10SM BKN016 OVC021 A3015 RMK MADISHF
CPR,2017-04-01 08:50,-106.4644,42.9080,M,M,M,40.00,5.00,M,30.15,M,9.00,M,OVC,M,M,M,1800.00,M,M,M,M,KCPR 010850Z AUTO 04005KT 9SM OVC018 A3015 RMK MADISHF
CPR,2017-04-01 08:53,-106.4644,42.9080,32.00,32.00,100.00,40.00,5.00,0.00,30.15,1022.50,9.00,M,OVC,M,M,M,1800.00,M,M,M,M,KCPR 010853Z AUTO 04005KT 9SM OVC018 00/00 A3015 RMK AO2 SLP225 60004 T00000000 53003
CPR,2017-04-01 08:55,-106.4644,42.9080,M,M,M,40.00,5.00,M,M,M,9.00,M,OVC,M,M,M,1800.00,M,M,M,M,KCPR 010855Z AUTO 04005KT 9SM OVC018 RMK MADISHF
CPR,2017-04-01 09:00,-106.4644,42.9080,M,M,M,30.00,5.00,M,30.14,M,9.00,M,OVC,M,M,M,1600.00,M,M,M,M,KCPR 010900Z AUTO 03005KT 9SM OVC016 A3014 RMK MADISHF
CPR,2017-04-01 09:05,-106.4644,42.9080,M,M,M,30.00,5.00,M,30.14,M,9.00,M,OVC,M,M,M,1600.00,M,M,M,M,KCPR 010905Z AUTO 03005KT 9SM OVC016 A3014 RMK MADISHF
CPR,2017-04-01 09:10,-106.4644,42.9080,M,M,M,40.00,5.00,M,30.14,M,9.00,M,OVC,M,M,M,1600.00,M,M,M,M,KCPR 010910Z AUTO 04005KT 9SM OVC016 A3014 RMK MADISHF
CPR,2017-04-01 09:15,-106.4644,42.9080,M,M,M,40.00,5.00,M,30.14,M,9.00,M,OVC,M,M,M,1500.00,M,M,M,M,KCPR 010915Z AUTO 04005KT 9SM OVC015 A3014 RMK MADISHF
CPR,2017-04-01 09:20,-106.4644,42.9080,M,M,M,60.00,3.00,M,30.14,M,8.00,M,OVC,M,M,M,1500.00,M,M,M,M,KCPR 010920Z AUTO 06003KT 8SM OVC015 A3014 RMK MADISHF
CPR,2017-04-01 09:25,-106.4644,42.9080,M,M,M,30.00,3.00,M,30.14,M,8.00,M,OVC,M,M,M,1500.00,M,M,M,M,KCPR 010925Z AUTO 03003KT 8SM OVC015 A3014 RMK MADISHF
CPR,2017-04-01 09:30,-106.4644,42.9080,M,M,M,20.00,3.00,M,30.14,M,8.00,M,OVC,M,M,M,1500.00,M,M,M,M,KCPR 010930Z AUTO 02003KT 8SM OVC015 A3014 RMK MADISHF
CPR,2017-04-01 09:35,-106.4644,42.9080,M,M,M,20.00,3.00,M,30.14,M,7.00,M,OVC,M,M,M,1500.00,M,M,M,M,KCPR 010935Z AUTO 02003KT 7SM OVC015 A3014 RMK MADISHF
CPR,2017-04-01 09:40,-106.4644,42.9080,M,M,M,20.00,3.00,M,30.14,M,7.00,M,OVC,M,M,M,1500.00,M,M,M,M,KCPR 010940Z AUTO 02003KT 7SM OVC015 A3014 RMK MADISHF
CPR,2017-04-01 09:45,-106.4644,42.9080,M,M,M,10.00,3.00,M,30.14,M,7.00,M,OVC,M,M,M,1500.00,M,M,M,M,KCPR 010945Z AUTO 01003KT 7SM OVC015 A3014 RMK MADISHF
CPR,2017-04-01 09:50,-106.4644,42.9080,M,M,M,0.00,0.00,M,30.14,M,7.00,M,OVC,M,M,M,1500.00,M,M,M,M,KCPR 010950Z AUTO 00000KT 7SM OVC015 A3014 RMK MADISHF
CPR,2017-04-01 09:53,-106.4644,42.9080,32.00,32.00,100.00,0.00,0.00,0.00,30.14,1022.20,6.00,M,OVC,M,M,M,1600.00,M,M,M,BR,KCPR 010953Z AUTO 00000KT 6SM BR OVC016 00/00 A3014 RMK AO2 SLP222 T00000000
CPR,2017-04-01 09:55,-106.4644,42.9080,M,M,M,0.00,0.00,M,M,M,6.00,M,OVC,M,M,M,1600.00,M,M,M,BR,KCPR 010955Z AUTO 00000KT 6SM BR OVC016 RMK MADISHF
CPR,2017-04-01 10:00,-106.4644,42.9080,M,M,M,310.00,3.00,M,M,M,6.00,M,OVC,M,M,M,1600.00,M,M,M,BR,KCPR 011000Z AUTO 31003KT 6SM BR OVC016 RMK MADISHF
CPR,2017-04-01 10:05,-106.4644,42.9080,M,M,M,0.00,0.00,M,M,M,5.00,M,OVC,M,M,M,1600.00,M,M,M,BR,KCPR 011005Z AUTO 00000KT 5SM BR OVC016 RMK MADISHF
CPR,2017-04-01 10:10,-106.4644,42.9080,M,M,M,0.00,0.00,M,30.14,M,5.00,M,FEW,OVC,M,M,499.00,1699.00,M,M,BR,KCPR 011010Z AUTO 00000KT 5SM BR FEW004 OVC016 A3014 RMK MADISHF
CPR,2017-04-01 10:15,-106.4644,42.9080,M,M,M,0.00,0.00,M,30.14,M,6.00,M,SCT,OVC,M,M,499.00,1699.00,M,M,BR,KCPR 011015Z AUTO 00000KT 6SM BR SCT004 OVC016 A3014 RMK MADISHF
CPR,2017-04-01 10:16,-106.4644,42.9080,32.00,32.00,100.00,0.00,0.00,0.00,30.14,M,6.00,M,SCT,OVC,M,M,500.00,1700.00,M,M,BR,KCPR 011016Z AUTO 00000KT 6SM BR SCT005 OVC017 00/00 A3014 RMK AO2 T00000000
CPR,2017-04-01 10:20,-106.4644,42.9080,M,M,M,0.00,0.00,M,30.14,M,6.00,M,BKN,OVC,M,M,499.00,1699.00,M,M,BR,KCPR 011020Z AUTO 00000KT 6SM BR BKN004 OVC016 A3014 RMK MADISHF
CPR,2017-04-01 10:25,-106.4644,42.9080,32.00,32.00,100.00,0.00,0.00,0.00,30.14,M,5.00,M,BKN,OVC,M,M,500.00,1700.00,M,M,BR,KCPR 011025Z AUTO 00000KT 5SM BR BKN005 OVC017 00/00 A3014 RMK AO2 T00000000
CPR,2017-04-01 10:30,-106.4644,42.9080,M,M,M,0.00,0.00,M,30.14,M,4.00,M,BKN,OVC,M,M,499.00,1699.00,M,M,-SN BR,KCPR 011030Z AUTO 00000KT 4SM -SN BR BKN004 OVC016 A3014 RMK MADISHF
CPR,2017-04-01 10:35,-106.4644,42.9080,M,M,M,0.00,0.00,M,30.14,M,3.50,M,OVC,M,M,M,400.00,M,M,M,-SN BR,KCPR 011035Z AUTO 00000KT 3SM -SN BR OVC004 A3014 RMK MADISHF
CPR,2017-04-01 10:39,-106.4644,42.9080,32.00,32.00,100.00,0.00,0.00,0.00,30.14,M,4.00,M,OVC,M,M,M,400.00,M,M,M,BR,KCPR 011039Z AUTO 00000KT 4SM BR OVC004 00/00 A3014 RMK AO2 SNB27E39 P0000 T00000000
CPR,2017-04-01 10:40,-106.4644,42.9080,M,M,M,0.00,0.00,M,30.14,M,4.00,M,OVC,M,M,M,400.00,M,M,M,BR,KCPR 011040Z AUTO 00000KT 4SM BR OVC004 A3014 RMK MADISHF
CPR,2017-04-01 10:45,-106.4644,42.9080,M,M,M,0.00,0.00,M,30.14,M,3.50,M,OVC,M,M,M,400.00,M,M,M,-SN BR,KCPR 011045Z AUTO 00000KT 3SM -SN BR OVC004 A3014 RMK MADISHF
CPR,2017-04-01 10:50,-106.4644,42.9080,M,M,M,0.00,0.00,M,M,M,3.00,M,OVC,M,M,M,400.00,M,M,M,-SN BR,KCPR 011050Z AUTO 00000KT 3SM -SN BR OVC004 RMK MADISHF
CPR,2017-04-01 10:53,-106.4644,42.9080,32.00,30.90,95.65,0.00,0.00,0.00,30.13,1022.00,3.00,M,OVC,M,M,M,400.00,M,M,M,-SN BR,KCPR 011053Z AUTO 00000KT 3SM -SN BR OVC004 00/M01 A3013 RMK AO2 SNB27E39B41 SLP220 P0000 T00001006
CPR,2017-04-01 10:55,-106.4644,42.9080,M,M,M,310.00,3.00,M,30.13,M,3.00,M,BKN,OVC,M,M,400.00,2500.00,M,M,-SN BR,KCPR 011055Z AUTO 31003KT 3SM -SN BR BKN004 OVC025 A3013 RMK MADISHF
CPR,2017-04-01 11:00,-106.4644,42.9080,M,M,M,320.00,4.00,M,30.13,M,4.00,M,BKN,OVC,M,M,400.00,2500.00,M,M,BR,KCPR 011100Z AUTO 32004KT 4SM BR BKN004 OVC025 A3013 RMK MADISHF
CPR,2017-04-01 11:05,-106.4644,42.9080,M,M,M,320.00,4.00,M,30.13,M,4.00,M,OVC,M,M,M,400.00,M,M,M,BR,KCPR 011105Z AUTO 32004KT 4SM BR OVC004 A3013 RMK MADISHF
CPR,2017-04-01 11:10,-106.4644,42.9080,M,M,M,330.00,4.00,M,30.13,M,5.00,M,BKN,OVC,M,M,499.00,2600.00,M,M,BR,KCPR 011110Z AUTO 33004KT 5SM BR BKN004 OVC026 A3013 RMK MADISHF
CPR,2017-04-01 11:12,-106.4644,42.9080,32.00,32.00,100.00,330.00,4.00,0.00,30.13,M,6.00,M,BKN,OVC,M,M,500.00,2600.00,M,M,BR,KCPR 011112Z 33004KT 6SM BR BKN005 OVC026 00/00 A3013 RMK AO2 SNE1059 P0000 T00000000
CPR,2017-04-01 11:15,-106.4644,42.9080,M,M,M,330.00,5.00,M,M,M,6.00,M,BKN,OVC,M,M,499.00,2600.00,M,M,BR,KCPR 011115Z AUTO 33005KT 6SM BR BKN004 OVC026 RMK MADISHF
CPR,2017-04-01 11:20,-106.4644,42.9080,M,M,M,340.00,5.00,M,M,M,6.00,M,BKN,OVC,M,M,499.00,2600.00,M,M,BR,KCPR 011120Z AUTO 34005KT 6SM BR BKN004 OVC026 RMK MADISHF
CPR,2017-04-01 11:25,-106.4644,42.9080,M,M,M,340.00,4.00,M,M,M,6.00,M,BKN,OVC,M,M,499.00,2600.00,M,M,BR,KCPR 011125Z AUTO 34004KT 6SM BR BKN004 OVC026 RMK MADISHF
CPR,2017-04-01 11:30,-106.4644,42.9080,M,M,M,0.00,0.00,M,30.13,M,7.00,M,BKN,OVC,M,M,499.00,2800.00,M,M,M,KCPR 011130Z AUTO 00000KT 7SM BKN004 OVC028 A3013 RMK MADISHF
CPR,2017-04-01 11:35,-106.4644,42.9080,M,M,M,340.00,3.00,M,M,M,7.00,M,BKN,OVC,M,M,700.00,2800.00,M,M,M,KCPR 011135Z AUTO 34003KT 7SM BKN007 OVC028 RMK CIG 5V8  MADISHF
CPR,2017-04-01 11:40,-106.4644,42.9080,M,M,M,0.00,0.00,M,M,M,8.00,M,BKN,OVC,M,M,700.00,2800.00,M,M,M,KCPR 011140Z AUTO 00000KT 8SM BKN007 OVC028 RMK CIG 5V9  MADISHF
CPR,2017-04-01 11:45,-106.4644,42.9080,M,M,M,0.00,0.00,M,30.13,M,9.00,M,BKN,OVC,M,M,900.00,2800.00,M,M,M,KCPR 011145Z AUTO 00000KT 9SM BKN009 OVC028 A3013 RMK MADISHF
CPR,2017-04-01 11:50,-106.4644,42.9080,M,M,M,0.00,0.00,M,M,M,9.00,M,OVC,M,M,M,900.00,M,M,M,M,KCPR 011150Z AUTO 00000KT 9SM OVC009 RMK MADISHF
CPR,2017-04-01 11:53,-106.4644,42.9080,32.00,32.00,100.00,0.00,0.00,0.00,30.13,1021.90,9.00,M,OVC,M,M,M,900.00,M,M,M,M,KCPR 011153Z 00000KT 9SM OVC009 00/00 A3013 RMK AO2 SNE1059 SLP219 P0000 60004 70103 T00000000 10000 20000 56005
CPR,2017-04-01 11:55,-106.4644,42.9080,M,M,M,0.00,0.00,M,M,M,9.00,M,OVC,M,M,M,900.00,M,M,M,M,KCPR 011155Z AUTO 00000KT 9SM OVC009 RMK MADISHF
CPR,2017-04-01 12:00,-106.4644,42.9080,M,M,M,10.00,3.00,M,30.12,M,8.00,M,OVC,M,M,M,900.00,M,M,M,M,KCPR 011200Z AUTO 01003KT 8SM OVC009 A3012 RMK MADISHF
CPR,2017-04-01 12:05,-106.4644,42.9080,M,M,M,20.00,4.00,M,30.12,M,6.00,M,OVC,M,M,M,900.00,M,M,M,BR,KCPR 011205Z AUTO 02004KT 6SM BR OVC009 A3012 RMK MADISHF
CPR,2017-04-01 12:10,-106.4644,42.9080,M,M,M,360.00,6.00,M,30.12,M,3.00,M,OVC,M,M,M,900.00,M,M,M,BR,KCPR 011210Z AUTO 36006KT 3SM BR OVC009 A3012 RMK MADISHF
CPR,2017-04-01 12:15,-106.4644,42.9080,M,M,M,20.00,6.00,M,M,M,3.00,M,BKN,M,M,M,900.00,M,M,M,BR,KCPR 011215Z AUTO 02006KT 3SM BR BKN009 RMK MADISHF
CPR,2017-04-01 12:20,-106.4644,42.9080,M,M,M,10.00,6.00,M,M,M,6.00,M,BKN,M,M,M,800.00,M,M,M,BR,KCPR 011220Z AUTO 01006KT 6SM BR BKN008 RMK MADISHF
CPR,2017-04-01 12:25,-106.4644,42.9080,M,M,M,20.00,6.00,M,M,M,8.00,M,SCT,M,M,M,800.00,M,M,M,M,KCPR 011225Z AUTO 02006KT 8SM SCT008 RMK MADISHF
CPR,2017-04-01 12:29,-106.4644,42.9080,26.10,26.10,100.00,40.00,5.00,0.00,30.12,M,8.00,M,SCT,M,M,M,800.00,M,M,M,M,KCPR 011229Z 04005KT 8SM SCT008 M03/M03 A3012 RMK AO2 T10331033
CPR,2017-04-01 12:30,-106.4644,42.9080,M,M,M,40.00,5.00,M,30.12,M,8.00,M,FEW,M,M,M,800.00,M,M,M,M,KCPR 011230Z AUTO 04005KT 8SM FEW008 A3012 RMK MADISHF
CPR,2017-04-01 12:35,-106.4644,42.9080,M,M,M,70.00,4.00,M,M,M,8.00,M,FEW,FEW,SCT,M,800.00,1900.00,2900.00,M,M,KCPR 011235Z AUTO 07004KT 8SM FEW008 FEW019 SCT029 RMK MADISHF
CPR,2017-04-01 12:40,-106.4644,42.9080,M,M,M,150.00,5.00,M,M,M,8.00,M,FEW,SCT,SCT,M,1300.00,1900.00,2900.00,M,M,KCPR 011240Z AUTO 15005KT 8SM FEW013 SCT019 SCT029 RMK MADISHF
CPR,2017-04-01 12:45,-106.4644,42.9080,M,M,M,140.00,4.00,M,M,M,6.00,M,FEW,SCT,BKN,M,400.00,1300.00,1999.00,M,BR,KCPR 011245Z AUTO 14004KT 6SM BR FEW004 SCT013 BKN019 RMK MADISHF
CPR,2017-04-01 12:47,-106.4644,42.9080,30.20,30.20,100.00,130.00,5.00,0.00,30.14,M,6.00,M,SCT,BKN,BKN,M,400.00,1300.00,2900.00,M,BR,KCPR 011247Z 13005KT 6SM BR SCT004 BKN013 BKN029 M01/M01 A3014 RMK AO2
CPR,2017-04-01 12:50,-106.4644,42.9080,M,M,M,130.00,5.00,M,30.14,M,5.00,M,BKN,BKN,BKN,M,400.00,1300.00,2900.00,M,BR,KCPR 011250Z AUTO 13005KT 5SM BR BKN004 BKN013 BKN029 A3014 RMK MADISHF
CPR,2017-04-01 12:53,-106.4644,42.9080,32.00,30.90,95.65,140.00,5.00,0.00,30.14,1022.40,5.00,M,BKN,BKN,BKN,M,400.00,1300.00,2900.00,M,BR,KCPR 011253Z 14005KT 5SM BR BKN004 BKN013 BKN029 00/M01 A3014 RMK AO2 SLP224 T00001006
CPR,2017-04-01 12:55,-106.4644,42.9080,M,M,M,130.00,4.00,M,30.14,M,5.00,M,BKN,BKN,BKN,M,400.00,1300.00,2900.00,M,BR,KCPR 011255Z AUTO 13004KT 5SM BR BKN004 BKN013 BKN029 A3014 RMK MADISHF
CPR,2017-04-01 13:00,-106.4644,42.9080,M,M,M,140.00,6.00,M,30.15,M,4.00,M,BKN,BKN,OVC,M,400.00,1200.00,2900.00,M,BR,KCPR 011300Z AUTO 14006KT 4SM BR BKN004 BKN012 OVC029 A3015 RMK MADISHF
CPR,2017-04-01 13:05,-106.4644,42.9080,M,M,M,150.00,6.00,M,30.15,M,4.00,M,BKN,OVC,M,M,499.00,1200.00,M,M,BR,KCPR 011305Z AUTO 15006KT 4SM BR BKN004 OVC012 A3015 RMK MADISHF
CPR,2017-04-01 13:09,-106.4644,42.9080,32.00,32.00,100.00,150.00,6.00,0.00,30.15,M,3.00,M,OVC,M,M,M,500.00,M,M,M,BR,KCPR 011309Z 15006KT 3SM R03/4000VP6000FT BR OVC005 00/00 A3015 RMK AO2 T00000000
CPR,2017-04-01 13:10,-106.4644,42.9080,M,M,M,160.00,7.00,M,30.15,M,2.00,M,OVC,M,M,M,499.00,M,M,M,BR,KCPR 011310Z AUTO 16007KT 2SM BR OVC004 A3015 RMK MADISHF
CPR,2017-04-01 13:11,-106.4644,42.9080,32.00,32.00,100.00,160.00,9.00,0.00,30.15,M,1.75,M,OVC,M,M,M,500.00,M,M,M,BR,KCPR 011311Z 16009KT 1 3/4SM R03/3000VP6000FT BR OVC005 00/00 A3015 RMK AO2 T00000000
CPR,2017-04-01 13:15,-106.4644,42.9080,32.00,32.00,100.00,170.00,9.00,0.00,30.15,M,0.75,M,OVC,M,M,M,300.00,M,M,M,BR,KCPR 011315Z 17009KT 3/4SM R03/2600VP6000FT BR OVC003 00/00 A3015 RMK AO2 T00000000
CPR,2017-04-01 13:20,-106.4644,42.9080,M,M,M,160.00,7.00,M,30.15,M,0.50,M,OVC,M,M,M,300.00,M,M,M,FG,KCPR 011320Z AUTO 16007KT 1/2SM FG OVC003 A3015 RMK MADISHF
CPR,2017-04-01 13:25,-106.4644,42.9080,M,M,M,170.00,7.00,M,30.16,M,0.50,M,OVC,M,M,M,300.00,M,M,M,FG,KCPR 011325Z AUTO 17007KT 1/2SM FG OVC003 A3016 RMK MADISHF
CPR,2017-04-01 13:30,-106.4644,42.9080,M,M,M,170.00,5.00,M,30.16,M,0.50,M,OVC,M,M,M,300.00,M,M,M,FG,KCPR 011330Z AUTO 17005KT 1/2SM FG OVC003 A3016 RMK MADISHF
CPR,2017-04-01 13:35,-106.4644,42.9080,M,M,M,160.00,6.00,M,M,M,0.50,M,SCT,OVC,M,M,200.00,600.00,M,M,FG,KCPR 011335Z AUTO 16006KT 1/2SM FG SCT002 OVC006 RMK MADISHF
CPR,2017-04-01 13:40,-106.4644,42.9080,M,M,M,160.00,7.00,M,M,M,0.25,M,VV ,M,M,M,400.00,M,M,M,FG,KCPR 011340Z AUTO 16007KT 1/4SM FG VV004 RMK MADISHF
CPR,2017-04-01 13:44,-106.4644,42.9080,32.00,32.00,100.00,150.00,6.00,0.00,30.16,M,0.25,M,VV ,M,M,M,400.00,M,M,M,FG,KCPR 011344Z 15006KT 1/4SM R03/1200V2200FT FG VV004 00/00 A3016 RMK AO2 T00000000
CPR,2017-04-01 13:45,-106.4644,42.9080,M,M,M,150.00,6.00,M,M,M,0.24,M,VV ,M,M,M,400.00,M,M,M,FG,KCPR 011345Z AUTO 15006KT 1/4SM FG VV004 RMK MADISHF
CPR,2017-04-01 13:50,-106.4644,42.9080,M,M,M,150.00,4.00,M,30.16,M,0.24,M,VV ,M,M,M,300.00,M,M,M,FG,KCPR 011350Z AUTO 15004KT 1/4SM FG VV003 A3016 RMK MADISHF
CPR,2017-04-01 13:53,-106.4644,42.9080,32.00,32.00,100.00,140.00,5.00,0.00,30.17,1023.50,0.25,M,VV ,M,M,M,300.00,M,M,M,FG,KCPR 011353Z 14005KT 1/4SM R03/1200V1400FT FG VV003 00/00 A3017 RMK AO2 SLP235 T00000000
CPR,2017-04-01 13:55,-106.4644,42.9080,M,M,M,140.00,5.00,M,M,M,0.24,M,VV ,M,M,M,300.00,M,M,M,FG,KCPR 011355Z AUTO 14005KT 1/4SM FG VV003 RMK MADISHF
CPR,2017-04-01 14:00,-106.4644,42.9080,M,M,M,130.00,4.00,M,M,M,0.24,M,VV ,M,M,M,200.00,M,M,M,FG,KCPR 011400Z AUTO 13004KT 1/4SM FG VV002 RMK MADISHF
CPR,2017-04-01 14:05,-106.4644,42.9080,M,M,M,140.00,3.00,M,M,M,0.24,M,VV ,M,M,M,200.00,M,M,M,FG,KCPR 011405Z AUTO 14003KT 1/4SM FG VV002 RMK MADISHF
CPR,2017-04-01 14:10,-106.4644,42.9080,M,M,M,0.00,0.00,M,30.16,M,0.24,M,VV ,M,M,M,200.00,M,M,M,FG,KCPR 011410Z AUTO 00000KT 1/4SM FG VV002 A3016 RMK MADISHF
CPR,2017-04-01 14:15,-106.4644,42.9080,M,M,M,0.00,0.00,M,M,M,0.25,M,VV ,M,M,M,200.00,M,M,M,FG,KCPR 011415Z AUTO 00000KT 1/4SM FG VV002 RMK MADISHF
CPR,2017-04-01 14:17,-106.4644,42.9080,32.00,32.00,100.00,0.00,0.00,0.00,30.16,M,0.25,M,VV ,M,M,M,200.00,M,M,M,FG,KCPR 011417Z 00000KT 1/4SM R03/1800V2800FT FG VV002 00/00 A3016 RMK AO2 T00000000
CPR,2017-04-01 14:20,-106.4644,42.9080,M,M,M,M,M,M,M,M,0.25,M,VV ,M,M,M,200.00,M,M,M,FG,KCPR 011420Z AUTO /////KT 1/4SM FG VV002 RMK MADISHF
CPR,2017-04-01 14:25,-106.4644,42.9080,M,M,M,0.00,0.00,M,M,M,0.50,M,VV ,M,M,M,300.00,M,M,M,FG,KCPR 011425Z AUTO 00000KT 1/2SM FG VV003 RMK MADISHF
CPR,2017-04-01 14:27,-106.4644,42.9080,32.00,32.00,100.00,0.00,0.00,0.00,30.16,M,0.75,M,VV ,M,M,M,300.00,M,M,M,BR,KCPR 011427Z 00000KT 3/4SM R03/2200V4000FT BR VV003 00/00 A3016 RMK AO2 T00000000
CPR,2017-04-01 14:30,-106.4644,42.9080,M,M,M,0.00,0.00,M,M,M,0.75,M,VV ,M,M,M,300.00,M,M,M,BR,KCPR 011430Z AUTO 00000KT 1SM BR VV003 RMK MADISHF
CPR,2017-04-01 14:35,-106.4644,42.9080,M,M,M,170.00,4.00,M,M,M,0.75,M,VV ,M,M,M,300.00,M,M,M,BR,KCPR 011435Z AUTO 17004KT 1SM BR VV003 RMK MADISHF
CPR,2017-04-01 14:40,-106.4644,42.9080,M,M,M,0.00,0.00,M,M,M,0.50,M,VV ,M,M,M,300.00,M,M,M,FG,KCPR 011440Z AUTO 00000KT 1/2SM FG VV003 RMK MADISHF
CPR,2017-04-01 14:45,-106.4644,42.9080,M,M,M,M,M,M,M,M,0.75,M,VV ,M,M,M,400.00,M,M,M,BR,KCPR 011445Z AUTO /////KT 1SM BR VV004 RMK MADISHF
CPR,2017-04-01 14:50,-106.4644,42.9080,M,M,M,0.00,0.00,M,30.17,M,1.25,M,OVC,M,M,M,400.00,M,M,M,BR,KCPR 011450Z AUTO 00000KT 1 1/2SM BR OVC004 A3017 RMK MADISHF
CPR,2017-04-01 14:53,-106.4644,42.9080,33.10,33.10,100.00,0.00,0.00,0.00,30.16,1023.20,1.75,M,OVC,M,M,M,400.00,M,M,M,BR,KCPR 011453Z 00000KT 1 3/4SM R03/2800VP6000FT BR OVC004 01/01 A3016 RMK AO2 SLP232 T00060006 50011
CPR,2017-04-01 14:55,-106.4644,42.9080,M,M,M,0.00,0.00,M,30.16,M,1.75,M,OVC,M,M,M,400.00,M,M,M,BR,KCPR 011455Z AUTO 00000KT 2SM BR OVC004 A3016 RMK MADISHF
CPR,2017-04-01 15:00,-106.4644,42.9080,M,M,M,0.00,0.00,M,30.16,M,1.75,M,OVC,M,M,M,400.00,M,M,M,BR,KCPR 011500Z AUTO 00000KT 2SM BR OVC004 A3016 RMK MADISHF
CPR,2017-04-01 15:05,-106.4644,42.9080,M,M,M,0.00,0.00,M,30.16,M,1.25,M,OVC,M,M,M,400.00,M,M,M,BR,KCPR 011505Z AUTO 00000KT 1 1/2SM BR OVC004 A3016 RMK MADISHF
CPR,2017-04-01 15:10,-106.4644,42.9080,33.10,33.10,100.00,0.00,0.00,0.00,30.16,M,0.75,M,OVC,M,M,M,500.00,M,M,M,BR,KCPR 011510Z 00000KT 3/4SM R03/3000VP6000FT BR OVC005 01/01 A3016 RMK AO2 T00060006
CPR,2017-04-01 15:15,-106.4644,42.9080,M,M,M,0.00,0.00,M,30.16,M,0.50,M,OVC,M,M,M,499.00,M,M,M,FG,KCPR 011515Z AUTO 00000KT 1/2SM FG OVC004 A3016 RMK MADISHF
CPR,2017-04-01 15:20,-106.4644,42.9080,M,M,M,0.00,0.00,M,30.16,M,1.00,M,OVC,M,M,M,499.00,M,M,M,BR,KCPR 011520Z AUTO 00000KT 1SM BR OVC004 A3016 RMK MADISHF
CPR,2017-04-01 15:25,-106.4644,42.9080,33.10,33.10,100.00,0.00,0.00,0.00,30.16,M,1.75,M,OVC,M,M,M,500.00,M,M,M,BR,KCPR 011525Z 00000KT 1 3/4SM BR OVC005 01/01 A3016 RMK AO2 T00060006
CPR,2017-04-01 15:29,-106.4644,42.9080,33.10,33.10,100.00,0.00,0.00,0.00,30.16,M,3.00,M,OVC,M,M,M,500.00,M,M,M,BR,KCPR 011529Z 00000KT 3SM BR OVC005 01/01 A3016 RMK AO2 T00060006
CPR,2017-04-01 15:30,-106.4644,42.9080,M,M,M,0.00,0.00,M,30.16,M,3.00,M,OVC,M,M,M,499.00,M,M,M,BR,KCPR 011530Z AUTO 00000KT 3SM BR OVC004 A3016 RMK MADISHF
CPR,2017-04-01 15:35,-106.4644,42.9080,M,M,M,0.00,0.00,M,30.16,M,4.00,M,OVC,M,M,M,499.00,M,M,M,BR,KCPR 011535Z AUTO 00000KT 4SM BR OVC004 A3016 RMK MADISHF
CPR,2017-04-01 15:40,-106.4644,42.9080,M,M,M,0.00,0.00,M,30.16,M,6.00,M,OVC,M,M,M,400.00,M,M,M,BR,KCPR 011540Z AUTO 00000KT 6SM BR OVC004 A3016 RMK MADISHF
CPR,2017-04-01 15:43,-106.4644,42.9080,33.10,33.10,100.00,0.00,0.00,0.00,30.16,M,6.00,M,OVC,M,M,M,400.00,M,M,M,BR,KCPR 011543Z 00000KT 6SM BR OVC004 01/01 A3016 RMK AO2 T00060006
CPR,2017-04-01 15:45,-106.4644,42.9080,M,M,M,150.00,3.00,M,30.16,M,6.00,M,OVC,M,M,M,400.00,M,M,M,BR,KCPR 011545Z AUTO 15003KT 6SM BR OVC004 A3016 RMK MADISHF
CPR,2017-04-01 15:50,-106.4644,42.9080,M,M,M,0.00,0.00,M,30.16,M,6.00,M,OVC,M,M,M,400.00,M,M,M,BR,KCPR 011550Z AUTO 00000KT 6SM BR OVC004 A3016 RMK CIG 3V7  MADISHF
CPR,2017-04-01 15:53,-106.4644,42.9080,33.10,33.10,100.00,0.00,0.00,0.00,30.16,1023.00,6.00,M,OVC,M,M,M,500.00,M,M,M,BR,KCPR 011553Z 00000KT 6SM BR OVC005 01/01 A3016 RMK AO2 SLP230 T00060006
CPR,2017-04-01 15:55,-106.4644,42.9080,M,M,M,0.00,0.00,M,M,M,5.00,M,OVC,M,M,M,499.00,M,M,M,BR,KCPR 011555Z AUTO 00000KT 5SM BR OVC004 RMK MADISHF
CPR,2017-04-01 16:00,-106.4644,42.9080,M,M,M,0.00,0.00,M,30.16,M,5.00,M,OVC,M,M,M,499.00,M,M,M,BR,KCPR 011600Z AUTO 00000KT 5SM BR OVC004 A3016 RMK MADISHF
CPR,2017-04-01 16:05,-106.4644,42.9080,M,M,M,140.00,3.00,M,30.16,M,6.00,M,OVC,M,M,M,499.00,M,M,M,BR,KCPR 011605Z AUTO 14003KT 6SM BR OVC004 A3016 RMK MADISHF
CPR,2017-04-01 16:10,-106.4644,42.9080,M,M,M,130.00,4.00,M,30.16,M,6.00,M,OVC,M,M,M,700.00,M,M,M,BR,KCPR 011610Z AUTO 13004KT 6SM BR OVC007 A3016 RMK MADISHF
CPR,2017-04-01 16:15,-106.4644,42.9080,M,M,M,150.00,3.00,M,30.15,M,6.00,M,OVC,M,M,M,700.00,M,M,M,BR,KCPR 011615Z AUTO 15003KT 6SM BR OVC007 A3015 RMK MADISHF
CPR,2017-04-01 16:20,-106.4644,42.9080,M,M,M,0.00,0.00,M,30.15,M,6.00,M,OVC,M,M,M,700.00,M,M,M,BR,KCPR 011620Z AUTO 00000KT 6SM BR OVC007 A3015 RMK MADISHF
CPR,2017-04-01 16:25,-106.4644,42.9080,M,M,M,170.00,3.00,M,M,M,7.00,M,OVC,M,M,M,700.00,M,M,M,M,KCPR 011625Z AUTO 17003KT 7SM OVC007 RMK MADISHF
CPR,2017-04-01 16:30,-106.4644,42.9080,M,M,M,0.00,0.00,M,M,M,7.00,M,OVC,M,M,M,700.00,M,M,M,M,KCPR 011630Z AUTO 00000KT 7SM OVC007 RMK MADISHF
CPR,2017-04-01 16:35,-106.4644,42.9080,M,M,M,0.00,0.00,M,M,M,6.00,M,OVC,M,M,M,700.00,M,M,M,BR,KCPR 011635Z AUTO 00000KT 6SM BR OVC007 RMK MADISHF
CPR,2017-04-01 16:40,-106.4644,42.9080,M,M,M,0.00,0.00,M,30.14,M,7.00,M,OVC,M,M,M,700.00,M,M,M,M,KCPR 011640Z AUTO 00000KT 7SM OVC007 A3014 RMK MADISHF
CPR,2017-04-01 16:45,-106.4644,42.9080,M,M,M,0.00,0.00,M,M,M,8.00,M,OVC,M,M,M,700.00,M,M,M,M,KCPR 011645Z AUTO 00000KT 8SM OVC007 RMK CIG 4V9  MADISHF
CPR,2017-04-01 16:50,-106.4644,42.9080,M,M,M,220.00,3.00,M,30.14,M,9.00,M,OVC,M,M,M,600.00,M,M,M,M,KCPR 011650Z AUTO 22003KT 9SM OVC006 A3014 RMK CIG 4V9  MADISHF
CPR,2017-04-01 16:53,-106.4644,42.9080,33.10,32.00,95.67,0.00,0.00,0.00,30.14,1022.20,10.00,M,OVC,M,M,M,600.00,M,M,M,M,KCPR 011653Z 00000KT 10SM OVC006 01/00 A3014 RMK AO2 CIG 004V009 SLP222 T00060000
CPR,2017-04-01 16:55,-106.4644,42.9080,M,M,M,0.00,0.00,M,30.14,M,10.00,M,OVC,M,M,M,600.00,M,M,M,M,KCPR 011655Z AUTO 00000KT 10SM OVC006 A3014 RMK MADISHF
CPR,2017-04-01 17:00,-106.4644,42.9080,M,M,M,220.00,3.00,M,30.14,M,10.00,M,OVC,M,M,M,600.00,M,M,M,M,KCPR 011700Z AUTO 22003KT 10SM OVC006 A3014 RMK MADISHF
CPR,2017-04-01 17:05,-106.4644,42.9080,M,M,M,210.00,4.00,M,30.14,M,10.00,M,OVC,M,M,M,600.00,M,M,M,M,KCPR 011705Z AUTO 21004KT 10SM OVC006 A3014 RMK MADISHF
CPR,2017-04-01 17:10,-106.4644,42.9080,M,M,M,220.00,3.00,M,30.13,M,10.00,M,OVC,M,M,M,600.00,M,M,M,M,KCPR 011710Z AUTO 22003KT 10SM OVC006 A3013 RMK MADISHF
CPR,2017-04-01 17:15,-106.4644,42.9080,M,M,M,210.00,3.00,M,M,M,10.00,M,OVC,M,M,M,600.00,M,M,M,M,KCPR 011715Z AUTO 21003KT 10SM OVC006 RMK MADISHF
CPR,2017-04-01 17:20,-106.4644,42.9080,M,M,M,0.00,0.00,M,M,M,10.00,M,OVC,M,M,M,600.00,M,M,M,M,KCPR 011720Z AUTO 00000KT 10SM OVC006 RMK MADISHF
CPR,2017-04-01 17:25,-106.4644,42.9080,M,M,M,190.00,3.00,M,M,M,10.00,M,OVC,M,M,M,600.00,M,M,M,M,KCPR 011725Z AUTO 19003KT 10SM OVC006 RMK MADISHF
CPR,2017-04-01 17:30,-106.4644,42.9080,M,M,M,170.00,3.00,M,30.13,M,10.00,M,OVC,M,M,M,600.00,M,M,M,M,KCPR 011730Z AUTO 17003KT 10SM OVC006 A3013 RMK MADISHF
CPR,2017-04-01 17:35,-106.4644,42.9080,M,M,M,0.00,0.00,M,M,M,10.00,M,OVC,M,M,M,600.00,M,M,M,M,KCPR 011735Z AUTO 00000KT 10SM OVC006 RMK MADISHF
CPR,2017-04-01 17:40,-106.4644,42.9080,M,M,M,0.00,0.00,M,30.13,M,10.00,M,OVC,M,M,M,600.00,M,M,M,M,KCPR 011740Z AUTO 00000KT 10SM OVC006 A3013 RMK MADISHF
CPR,2017-04-01 17:45,-106.4644,42.9080,M,M,M,0.00,0.00,M,30.14,M,10.00,M,OVC,M,M,M,600.00,M,M,M,M,KCPR 011745Z AUTO 00000KT 10SM OVC006 A3014 RMK CIG 6V10  MADISHF
CPR,2017-04-01 17:50,-106.4644,42.9080,M,M,M,300.00,4.00,M,30.14,M,10.00,M,OVC,M,M,M,600.00,M,M,M,M,KCPR 011750Z AUTO 30004KT 10SM OVC006 A3014 RMK CIG 6V9  MADISHF
CPR,2017-04-01 17:53,-106.4644,42.9080,37.00,32.00,81.93,320.00,5.00,0.00,30.14,1021.90,10.00,M,OVC,M,M,M,600.00,M,M,M,M,KCPR 011753Z 32005KT 10SM OVC006 03/00 A3014 RMK AO2 CIG 006V010 SLP219 T00280000 10033 21033 55006
CPR,2017-04-01 17:55,-106.4644,42.9080,M,M,M,310.00,4.00,M,30.14,M,10.00,M,OVC,M,M,M,600.00,M,M,M,M,KCPR 011755Z AUTO 31004KT 10SM OVC006 A3014 RMK CIG 6V10  MADISHF
CPR,2017-04-01 18:00,-106.4644,42.9080,M,M,M,M,M,M,30.13,M,9.00,M,OVC,M,M,M,700.00,M,M,M,M,KCPR 011800Z AUTO /////KT 9SM OVC007 A3013 RMK MADISHF
CPR,2017-04-01 18:05,-106.4644,42.9080,M,M,M,300.00,3.00,M,30.13,M,8.00,M,OVC,M,M,M,700.00,M,M,M,M,KCPR 011805Z AUTO 30003KT 8SM OVC007 A3013 RMK MADISHF
CPR,2017-04-01 18:10,-106.4644,42.9080,M,M,M,0.00,0.00,M,30.14,M,8.00,M,OVC,M,M,M,700.00,M,M,M,M,KCPR 011810Z AUTO 00000KT 8SM OVC007 A3014 RMK MADISHF
CPR,2017-04-01 18:15,-106.4644,42.9080,M,M,M,200.00,4.00,M,30.14,M,9.00,M,OVC,M,M,M,700.00,M,M,M,M,KCPR 011815Z AUTO 20004KT 9SM OVC007 A3014 RMK VRB04KT  MADISHF
CPR,2017-04-01 18:20,-106.4644,42.9080,M,M,M,210.00,3.00,M,30.13,M,10.00,M,OVC,M,M,M,700.00,M,M,M,M,KCPR 011820Z AUTO 21003KT 10SM OVC007 A3013 RMK MADISHF
CPR,2017-04-01 18:25,-106.4644,42.9080,M,M,M,260.00,4.00,M,30.14,M,10.00,M,OVC,M,M,M,800.00,M,M,M,M,KCPR 011825Z AUTO 26004KT 10SM OVC008 A3014 RMK MADISHF
CPR,2017-04-01 18:30,-106.4644,42.9080,M,M,M,270.00,3.00,M,30.13,M,9.00,M,OVC,M,M,M,800.00,M,M,M,M,KCPR 011830Z AUTO 27003KT 9SM OVC008 A3013 RMK MADISHF
CPR,2017-04-01 18:35,-106.4644,42.9080,M,M,M,210.00,5.00,M,30.13,M,8.00,M,OVC,M,M,M,800.00,M,M,M,M,KCPR 011835Z AUTO 21005KT 8SM OVC008 A3013 RMK MADISHF
CPR,2017-04-01 18:40,-106.4644,42.9080,M,M,M,210.00,4.00,M,30.12,M,9.00,M,OVC,M,M,M,800.00,M,M,M,M,KCPR 011840Z AUTO 21004KT 9SM OVC008 A3012 RMK MADISHF
CPR,2017-04-01 18:45,-106.4644,42.9080,M,M,M,250.00,3.00,M,30.13,M,10.00,M,OVC,M,M,M,800.00,M,M,M,M,KCPR 011845Z AUTO 25003KT 10SM OVC008 A3013 RMK MADISHF
CPR,2017-04-01 18:50,-106.4644,42.9080,M,M,M,250.00,5.00,M,30.12,M,9.00,M,OVC,M,M,M,800.00,M,M,M,M,KCPR 011850Z AUTO 25005KT 9SM OVC008 A3012 RMK MADISHF
CPR,2017-04-01 18:53,-106.4644,42.9080,35.10,32.00,88.33,M,4.00,0.00,30.12,1021.40,9.00,M,OVC,M,M,M,800.00,M,M,M,M,KCPR 011853Z VRB04KT 9SM OVC008 02/00 A3012 RMK AO2 SLP214 T00170000
CPR,2017-04-01 18:55,-106.4644,42.9080,M,M,M,270.00,5.00,M,M,M,8.00,M,OVC,M,M,M,800.00,M,M,M,M,KCPR 011855Z AUTO 27005KT 8SM OVC008 RMK MADISHF
CPR,2017-04-01 19:00,-106.4644,42.9080,M,M,M,240.00,5.00,M,30.12,M,9.00,M,OVC,M,M,M,800.00,M,M,M,M,KCPR 011900Z AUTO 24005KT 9SM OVC008 A3012 RMK CIG 7V11  MADISHF
CPR,2017-04-01 19:05,-106.4644,42.9080,M,M,M,240.00,5.00,M,30.11,M,10.00,M,OVC,M,M,M,999.00,M,M,M,M,KCPR 011905Z AUTO 24005KT 10SM OVC009 A3011 RMK CIG 7V12  MADISHF
CPR,2017-04-01 19:10,-106.4644,42.9080,M,M,M,240.00,4.00,M,30.11,M,10.00,M,OVC,M,M,M,999.00,M,M,M,M,KCPR 011910Z AUTO 24004KT 10SM OVC009 A3011 RMK CIG 7V12  MADISHF
CPR,2017-04-01 19:11,-106.4644,42.9080,36.00,33.10,89.09,240.00,5.00,0.00,30.11,M,10.00,M,OVC,M,M,M,1000.00,M,M,M,M,KCPR 011911Z 24005KT 10SM OVC010 02/01 A3011 RMK AO2 CIG 007V012 T00220006
CPR,2017-04-01 19:15,-106.4644,42.9080,M,M,M,250.00,5.00,M,30.11,M,10.00,M,OVC,M,M,M,999.00,M,M,M,M,KCPR 011915Z AUTO 25005KT 10SM OVC009 A3011 RMK MADISHF
CPR,2017-04-01 19:20,-106.4644,42.9080,M,M,M,240.00,4.00,M,30.10,M,10.00,M,OVC,M,M,M,999.00,M,M,M,M,KCPR 011920Z AUTO 24004KT 10SM OVC009 A3010 RMK MADISHF
CPR,2017-04-01 19:25,-106.4644,42.9080,M,M,M,240.00,6.00,M,M,M,10.00,M,OVC,M,M,M,1100.00,M,M,M,M,KCPR 011925Z AUTO 24006KT 10SM OVC011 RMK MADISHF
CPR,2017-04-01 19:30,-106.4644,42.9080,M,M,M,240.00,6.00,M,30.10,M,10.00,M,BKN,M,M,M,1100.00,M,M,M,M,KCPR 011930Z AUTO 24006KT 10SM BKN011 A3010 RMK MADISHF
CPR,2017-04-01 19:31,-106.4644,42.9080,36.00,33.10,89.09,240.00,5.00,0.00,30.10,M,10.00,M,BKN,M,M,M,1100.00,M,M,M,M,KCPR 011931Z 24005KT 10SM BKN011 02/01 A3010 RMK AO2 T00220006
CPR,2017-04-01 19:35,-106.4644,42.9080,M,M,M,250.00,7.00,M,M,M,10.00,M,BKN,M,M,M,1200.00,M,M,M,M,KCPR 011935Z AUTO 25007KT 10SM BKN012 RMK MADISHF
CPR,2017-04-01 19:40,-106.4644,42.9080,M,M,M,240.00,6.00,M,30.09,M,10.00,M,SCT,M,M,M,1200.00,M,M,M,M,KCPR 011940Z AUTO 24006KT 10SM SCT012 A3009 RMK MADISHF
CPR,2017-04-01 19:45,-106.4644,42.9080,M,M,M,240.00,7.00,M,30.08,M,10.00,M,SCT,M,M,M,1100.00,M,M,M,M,KCPR 011945Z AUTO 24007KT 10SM SCT011 A3008 RMK MADISHF
CPR,2017-04-01 19:46,-106.4644,42.9080,37.00,33.10,85.64,240.00,7.00,0.00,30.08,M,10.00,M,FEW,M,M,M,1100.00,M,M,M,M,KCPR 011946Z 24007KT 10SM FEW011 03/01 A3008 RMK AO2 T00280006
CPR,2017-04-01 19:50,-106.4644,42.9080,M,M,M,250.00,6.00,M,30.08,M,10.00,M,FEW,M,M,M,1100.00,M,M,M,M,KCPR 011950Z AUTO 25006KT 10SM FEW011 A3008 RMK MADISHF
CPR,2017-04-01 19:53,-106.4644,42.9080,37.00,33.10,85.64,250.00,7.00,0.00,30.08,1019.70,10.00,M,FEW,M,M,M,1100.00,M,M,M,M,KCPR 011953Z 25007KT 10SM FEW011 03/01 A3008 RMK AO2 SLP197 T00280006
CPR,2017-04-01 19:55,-106.4644,42.9080,M,M,M,250.00,7.00,M,M,M,10.00,M,CLR,M,M,M,M,M,M,M,M,KCPR 011955Z AUTO 25007KT 10SM CLR RMK MADISHF
CPR,2017-04-01 20:00,-106.4644,42.9080,M,M,M,250.00,7.00,M,30.08,M,10.00,M,CLR,M,M,M,M,M,M,M,M,KCPR 012000Z AUTO 25007KT 10SM CLR A3008 RMK MADISHF
CPR,2017-04-01 20:05,-106.4644,42.9080,M,M,M,250.00,6.00,M,M,M,10.00,M,CLR,M,M,M,M,M,M,M,M,KCPR 012005Z AUTO 25006KT 10SM CLR RMK MADISHF
CPR,2017-04-01 20:10,-106.4644,42.9080,M,M,M,240.00,6.00,M,30.07,M,10.00,M,CLR,M,M,M,M,M,M,M,M,KCPR 012010Z AUTO 24006KT 10SM CLR A3007 RMK MADISHF
CPR,2017-04-01 20:15,-106.4644,42.9080,M,M,M,260.00,5.00,M,M,M,10.00,M,CLR,M,M,M,M,M,M,M,M,KCPR 012015Z AUTO 26005KT 10SM CLR RMK MADISHF
CPR,2017-04-01 20:20,-106.4644,42.9080,M,M,M,270.00,6.00,M,M,M,10.00,M,CLR,M,M,M,M,M,M,M,M,KCPR 012020Z AUTO 27006KT 10SM CLR RMK MADISHF
CPR,2017-04-01 20:25,-106.4644,42.9080,M,M,M,270.00,5.00,M,30.06,M,9.00,M,CLR,M,M,M,M,M,M,M,M,KCPR 012025Z AUTO 27005KT 9SM CLR A3006 RMK MADISHF
CPR,2017-04-01 20:30,-106.4644,42.9080,M,M,M,270.00,7.00,M,30.06,M,9.00,M,CLR,M,M,M,M,M,M,M,M,KCPR 012030Z AUTO 27007KT 9SM CLR A3006 RMK MADISHF
CPR,2017-04-01 20:35,-106.4644,42.9080,M,M,M,270.00,7.00,M,30.05,M,10.00,M,CLR,M,M,M,M,M,M,M,M,KCPR 012035Z AUTO 27007KT 10SM CLR A3005 RMK MADISHF
CPR,2017-04-01 20:40,-106.4644,42.9080,M,M,M,270.00,6.00,M,M,M,10.00,M,CLR,M,M,M,M,M,M,M,M,KCPR 012040Z AUTO 27006KT 10SM CLR RMK MADISHF
CPR,2017-04-01 20:45,-106.4644,42.9080,M,M,M,270.00,7.00,M,M,M,10.00,M,CLR,M,M,M,M,M,M,M,M,KCPR 012045Z AUTO 27007KT 10SM CLR RMK MADISHF
CPR,2017-04-01 20:50,-106.4644,42.9080,M,M,M,270.00,6.00,M,30.05,M,10.00,M,CLR,M,M,M,M,M,M,M,M,KCPR 012050Z AUTO 27006KT 10SM CLR A3005 RMK MADISHF
CPR,2017-04-01 20:53,-106.4644,42.9080,39.90,34.00,79.25,270.00,6.00,0.00,30.05,1018.20,10.00,M,CLR,M,M,M,M,M,M,M,M,KCPR 012053Z 27006KT 10SM CLR 04/01 A3005 RMK AO2 SLP182 T00440011 58028
CPR,2017-04-01 20:55,-106.4644,42.9080,M,M,M,270.00,7.00,M,30.04,M,10.00,M,CLR,M,M,M,M,M,M,M,M,KCPR 012055Z AUTO 27007KT 10SM CLR A3004 RMK MADISHF
CPR,2017-04-01 21:00,-106.4644,42.9080,M,M,M,260.00,8.00,M,30.04,M,10.00,M,CLR,M,M,M,M,M,M,M,M,KCPR 012100Z AUTO 26008KT 10SM CLR A3004 RMK MADISHF
CPR,2017-04-01 21:05,-106.4644,42.9080,M,M,M,250.00,6.00,M,30.03,M,10.00,M,CLR,M,M,M,M,M,M,M,M,KCPR 012105Z AUTO 25006KT 10SM CLR A3003 RMK MADISHF
CPR,2017-04-01 21:10,-106.4644,42.9080,M,M,M,260.00,6.00,M,30.03,M,10.00,M,CLR,M,M,M,M,M,M,M,M,KCPR 012110Z AUTO 26006KT 10SM CLR A3003 RMK MADISHF
CPR,2017-04-01 21:15,-106.4644,42.9080,M,M,M,240.00,5.00,M,M,M,10.00,M,CLR,M,M,M,M,M,M,M,M,KCPR 012115Z AUTO 24005KT 10SM CLR RMK MADISHF
CPR,2017-04-01 21:20,-106.4644,42.9080,M,M,M,240.00,6.00,M,M,M,10.00,M,CLR,M,M,M,M,M,M,M,M,KCPR 012120Z AUTO 24006KT 10SM CLR RMK MADISHF
CPR,2017-04-01 21:25,-106.4644,42.9080,M,M,M,220.00,6.00,M,30.02,M,10.00,M,CLR,M,M,M,M,M,M,M,M,KCPR 012125Z AUTO 22006KT 10SM CLR A3002 RMK MADISHF
CPR,2017-04-01 21:30,-106.4644,42.9080,M,M,M,210.00,5.00,M,30.02,M,10.00,M,CLR,M,M,M,M,M,M,M,M,KCPR 012130Z AUTO 21005KT 10SM CLR A3002 RMK MADISHF
CPR,2017-04-01 21:35,-106.4644,42.9080,M,M,M,210.00,5.00,M,M,M,10.00,M,CLR,M,M,M,M,M,M,M,M,KCPR 012135Z AUTO 21005KT 10SM CLR RMK MADISHF
CPR,2017-04-01 21:40,-106.4644,42.9080,M,M,M,220.00,4.00,M,30.01,M,10.00,M,CLR,M,M,M,M,M,M,M,M,KCPR 012140Z AUTO 22004KT 10SM CLR A3001 RMK MADISHF
CPR,2017-04-01 21:45,-106.4644,42.9080,M,M,M,210.00,6.00,M,30.01,M,10.00,M,CLR,M,M,M,M,M,M,M,M,KCPR 012145Z AUTO 21006KT 10SM CLR A3001 RMK MADISHF
CPR,2017-04-01 21:50,-106.4644,42.9080,M,M,M,210.00,6.00,M,30.01,M,10.00,M,CLR,M,M,M,M,M,M,M,M,KCPR 012150Z AUTO 21006KT 10SM CLR A3001 RMK MADISHF
CPR,2017-04-01 21:53,-106.4644,42.9080,43.00,34.00,70.30,210.00,7.00,0.00,30.01,1016.40,10.00,M,CLR,M,M,M,M,M,M,M,M,KCPR 012153Z 21007KT 10SM CLR 06/01 A3001 RMK AO2 SLP164 T00610011
CPR,2017-04-01 21:55,-106.4644,42.9080,M,M,M,220.00,7.00,M,30.01,M,10.00,M,CLR,M,M,M,M,M,M,M,M,KCPR 012155Z AUTO 22007KT 10SM CLR A3001 RMK MADISHF
CPR,2017-04-01 22:00,-106.4644,42.9080,M,M,M,220.00,8.00,M,30.01,M,10.00,M,CLR,M,M,M,M,M,M,M,M,KCPR 012200Z AUTO 22008KT 10SM CLR A3001 RMK MADISHF
CPR,2017-04-01 22:05,-106.4644,42.9080,M,M,M,230.00,8.00,M,30.01,M,10.00,M,CLR,M,M,M,M,M,M,M,M,KCPR 012205Z AUTO 23008KT 10SM CLR A3001 RMK MADISHF
CPR,2017-04-01 22:10,-106.4644,42.9080,M,M,M,230.00,8.00,M,30.01,M,10.00,M,CLR,M,M,M,M,M,M,M,M,KCPR 012210Z AUTO 23008KT 10SM CLR A3001 RMK MADISHF
CPR,2017-04-01 22:15,-106.4644,42.9080,M,M,M,230.00,9.00,M,30.01,M,10.00,M,CLR,M,M,M,M,M,M,M,M,KCPR 012215Z AUTO 23009KT 10SM CLR A3001 RMK MADISHF
CPR,2017-04-01 22:20,-106.4644,42.9080,M,M,M,220.00,8.00,M,M,M,10.00,M,CLR,M,M,M,M,M,M,M,M,KCPR 012220Z AUTO 22008KT 10SM CLR RMK MADISHF
CPR,2017-04-01 22:25,-106.4644,42.9080,M,M,M,220.00,7.00,M,30.00,M,10.00,M,CLR,M,M,M,M,M,M,M,M,KCPR 012225Z AUTO 22007KT 10SM CLR A3000 RMK MADISHF
CPR,2017-04-01 22:30,-106.4644,42.9080,M,M,M,230.00,8.00,M,30.00,M,10.00,M,CLR,M,M,M,M,M,M,M,M,KCPR 012230Z AUTO 23008KT 10SM CLR A3000 RMK MADISHF
CPR,2017-04-01 22:35,-106.4644,42.9080,M,M,M,210.00,8.00,M,30.00,M,10.00,M,CLR,M,M,M,M,M,M,M,M,KCPR 012235Z AUTO 21008KT 10SM CLR A3000 RMK MADISHF
CPR,2017-04-01 22:40,-106.4644,42.9080,M,M,M,220.00,7.00,M,30.00,M,10.00,M,CLR,M,M,M,M,M,M,M,M,KCPR 012240Z AUTO 22007KT 10SM CLR A3000 RMK MADISHF
CPR,2017-04-01 22:45,-106.4644,42.9080,M,M,M,230.00,7.00,M,30.00,M,10.00,M,CLR,M,M,M,M,M,M,M,M,KCPR 012245Z AUTO 23007KT 10SM CLR A3000 RMK MADISHF
CPR,2017-04-01 22:50,-106.4644,42.9080,M,M,M,240.00,6.00,M,30.00,M,10.00,M,CLR,M,M,M,M,M,M,M,M,KCPR 012250Z AUTO 24006KT 10SM CLR A3000 RMK MADISHF
CPR,2017-04-01 22:53,-106.4644,42.9080,45.00,30.90,57.50,240.00,5.00,0.00,30.00,1015.90,10.00,M,CLR,M,M,M,M,M,M,M,M,KCPR 012253Z 24005KT 10SM CLR 07/M01 A3000 RMK AO2 SLP159 T00721006
CPR,2017-04-01 22:55,-106.4644,42.9080,M,M,M,220.00,4.00,M,30.00,M,10.00,M,CLR,M,M,M,M,M,M,M,M,KCPR 012255Z AUTO 22004KT 10SM CLR A3000 RMK MADISHF
CPR,2017-04-01 23:00,-106.4644,42.9080,M,M,M,0.00,0.00,M,30.00,M,10.00,M,CLR,M,M,M,M,M,M,M,M,KCPR 012300Z AUTO 00000KT 10SM CLR A3000 RMK MADISHF
CPR,2017-04-01 23:05,-106.4644,42.9080,M,M,M,230.00,4.00,M,30.00,M,10.00,M,CLR,M,M,M,M,M,M,M,M,KCPR 012305Z AUTO 23004KT 10SM CLR A3000 RMK MADISHF
CPR,2017-04-01 23:10,-106.4644,42.9080,M,M,M,250.00,4.00,M,30.00,M,10.00,M,CLR,M,M,M,M,M,M,M,M,KCPR 012310Z AUTO 25004KT 10SM CLR A3000 RMK MADISHF
CPR,2017-04-01 23:15,-106.4644,42.9080,M,M,M,250.00,5.00,M,30.00,M,10.00,M,CLR,M,M,M,M,M,M,M,M,KCPR 012315Z AUTO 25005KT 10SM CLR A3000 RMK MADISHF
CPR,2017-04-01 23:20,-106.4644,42.9080,M,M,M,270.00,4.00,M,30.00,M,10.00,M,CLR,M,M,M,M,M,M,M,M,KCPR 012320Z AUTO 27004KT 10SM CLR A3000 RMK MADISHF
CPR,2017-04-01 23:25,-106.4644,42.9080,M,M,M,260.00,4.00,M,30.00,M,10.00,M,CLR,M,M,M,M,M,M,M,M,KCPR 012325Z AUTO 26004KT 10SM CLR A3000 RMK MADISHF
CPR,2017-04-01 23:30,-106.4644,42.9080,M,M,M,260.00,5.00,M,30.00,M,10.00,M,CLR,M,M,M,M,M,M,M,M,KCPR 012330Z AUTO 26005KT 10SM CLR A3000 RMK MADISHF
CPR,2017-04-01 23:35,-106.4644,42.9080,M,M,M,270.00,5.00,M,30.00,M,10.00,M,CLR,M,M,M,M,M,M,M,M,KCPR 012335Z AUTO 27005KT 10SM CLR A3000 RMK MADISHF
CPR,2017-04-01 23:40,-106.4644,42.9080,M,M,M,270.00,5.00,M,30.00,M,10.00,M,CLR,M,M,M,M,M,M,M,M,KCPR 012340Z AUTO 27005KT 10SM CLR A3000 RMK MADISHF
CPR,2017-04-01 23:45,-106.4644,42.9080,M,M,M,270.00,5.00,M,30.00,M,10.00,M,CLR,M,M,M,M,M,M,M,M,KCPR 012345Z AUTO 27005KT 10SM CLR A3000 RMK MADISHF
CPR,2017-04-01 23:50,-106.4644,42.9080,M,M,M,260.00,5.00,M,29.99,M,10.00,M,CLR,M,M,M,M,M,M,M,M,KCPR 012350Z AUTO 26005KT 10SM CLR A2999 RMK MADISHF
CPR,2017-04-01 23:53,-106.4644,42.9080,45.00,30.90,57.50,260.00,4.00,0.00,29.99,1015.60,10.00,M,CLR,M,M,M,M,M,M,M,M,KCPR 012353Z 26004KT 10SM CLR 07/M01 A2999 RMK AO2 SLP156 T00721006 10078 20017 56016
CPR,2017-04-01 23:55,-106.4644,42.9080,M,M,M,260.00,5.00,M,29.99,M,10.00,M,CLR,M,M,M,M,M,M,M,M,KCPR 012355Z AUTO 26005KT 10SM CLR A2999 RMK MADISHF
