#DEBUG: Format Typ    -> comma
#DEBUG: Time Period   -> 2017-04-01 00:00:00+00:00 2017-04-02 00:00:00+00:00
#DEBUG: Time Zone     -> Etc/UTC
#DEBUG: Data Contact   -> daryl herzmann akrherz@iastate.edu 515-294-5978
#DEBUG: Entries Found -> -1
station,valid,lon,lat,tmpf, dwpf, relh, drct, sknt, p01i, alti, mslp, vsby, gust, skyc1, skyc2, skyc3, skyc4, skyl1, skyl2, skyl3, skyl4, presentwx, metar
CPS,2017-04-01 00:00,-90.1562,38.5707,M,M,M,10.00,8.00,M,29.99,M,10.00,M,OVC,M,M,M,2300.00,M,M,M,M,KCPS 010000Z AUTO 01008KT 10SM OVC023 A2999 RMK MADISHF
CPS,2017-04-01 00:05,-90.1562,38.5707,M,M,M,360.00,9.00,M,30.00,M,10.00,M,OVC,M,M,M,2300.00,M,M,M,M,KCPS 010005Z AUTO 36009KT 10SM OVC023 A3000 RMK MADISHF
CPS,2017-04-01 00:10,-90.1562,38.5707,M,M,M,350.00,10.00,M,29.99,M,10.00,M,OVC,M,M,M,2100.00,M,M,M,M,KCPS 010010Z AUTO 35010KT 10SM OVC021 A2999 RMK MADISHF
CPS,2017-04-01 00:15,-90.1562,38.5707,M,M,M,10.00,9.00,M,30.00,M,10.00,M,OVC,M,M,M,2100.00,M,M,M,M,KCPS 010015Z AUTO 01009KT 10SM OVC021 A3000 RMK MADISHF
CPS,2017-04-01 00:20,-90.1562,38.5707,M,M,M,360.00,9.00,M,30.00,M,10.00,M,OVC,M,M,M,2100.00,M,M,M,M,KCPS 010020Z AUTO 36009KT 10SM OVC021 A3000 RMK MADISHF
CPS,2017-04-01 00:25,-90.1562,38.5707,M,M,M,360.00,10.00,M,30.01,M,10.00,M,OVC,M,M,M,2100.00,M,M,M,M,KCPS 010025Z AUTO 36010KT 10SM OVC021 A3001 RMK MADISHF
CPS,2017-04-01 00:30,-90.1562,38.5707,M,M,M,360.00,10.00,M,30.01,M,10.00,M,OVC,M,M,M,2100.00,M,M,M,M,KCPS 010030Z AUTO 36010KT 10SM OVC021 A3001 RMK MADISHF
CPS,2017-04-01 00:40,-90.1562,38.5707,M,M,M,10.00,9.00,M,30.01,M,10.00,M,OVC,M,M,M,1900.00,M,M,M,M,KCPS 010040Z AUTO 01009KT 10SM OVC019 A3001 RMK MADISHF
CPS,2017-04-01 00:45,-90.1562,38.5707,M,M,M,360.00,8.00,M,30.01,M,10.00,M,OVC,M,M,M,1900.00,M,M,M,M,KCPS 010045Z AUTO 36008KT 10SM OVC019 A3001 RMK MADISHF
CPS,2017-04-01 00:50,-90.1562,38.5707,M,M,M,360.00,9.00,M,30.01,M,10.00,M,OVC,M,M,M,1900.00,M,M,M,M,KCPS 010050Z AUTO 36009KT 10SM OVC019 A3001 RMK MADISHF
CPS,2017-04-01 00:53,-90.1562,38.5707,46.90,41.00,79.82,10.00,11.00,0.00,30.02,1016.60,10.00,M,OVC,M,M,M,1900.00,M,M,M,M,KCPS 010053Z 01011KT 10SM OVC019 08/05 A3002 RMK AO2 SLP166 T00830050
CPS,2017-04-01 00:55,-90.1562,38.5707,M,M,M,10.00,9.00,M,30.02,M,10.00,M,OVC,M,M,M,1800.00,M,M,M,M,KCPS 010055Z AUTO 01009KT 10SM OVC018 A3002 RMK MADISHF
CPS,2017-04-01 01:00,-90.1562,38.5707,M,M,M,360.00,10.00,M,30.02,M,10.00,M,OVC,M,M,M,1800.00,M,M,M,M,KCPS 010100Z AUTO 36010KT 10SM OVC018 A3002 RMK MADISHF
CPS,2017-04-01 01:05,-90.1562,38.5707,M,M,M,360.00,9.00,M,30.02,M,10.00,M,OVC,M,M,M,1999.00,M,M,M,M,KCPS 010105Z AUTO 36009KT 10SM OVC019 A3002 RMK MADISHF
CPS,2017-04-01 01:10,-90.1562,38.5707,M,M,M,360.00,10.00,M,30.03,M,10.00,M,OVC,M,M,M,1999.00,M,M,M,M,KCPS 010110Z AUTO 36010KT 10SM OVC019 A3003 RMK MADISHF
CPS,2017-04-01 01:35,-90.1562,38.5707,M,M,M,350.00,10.00,M,30.04,M,10.00,M,OVC,M,M,M,1900.00,M,M,M,M,KCPS 010135Z AUTO 35010KT 10SM OVC019 A3004 RMK MADISHF
CPS,2017-04-01 01:40,-90.1562,38.5707,M,M,M,360.00,9.00,M,30.04,M,10.00,M,OVC,M,M,M,1900.00,M,M,M,M,KCPS 010140Z AUTO 36009KT 10SM OVC019 A3004 RMK MADISHF
CPS,2017-04-01 01:45,-90.1562,38.5707,M,M,M,10.00,9.00,M,30.04,M,10.00,M,OVC,M,M,M,1900.00,M,M,M,M,KCPS 010145Z AUTO 01009KT 10SM OVC019 A3004 RMK MADISHF
CPS,2017-04-01 01:50,-90.1562,38.5707,M,M,M,360.00,9.00,M,30.04,M,10.00,M,OVC,M,M,M,1900.00,M,M,M,M,KCPS 010150Z AUTO 36009KT 10SM OVC019 A3004 RMK MADISHF
CPS,2017-04-01 01:53,-90.1562,38.5707,46.90,39.00,73.85,360.00,10.00,0.00,30.04,1017.50,10.00,M,OVC,M,M,M,1900.00,M,M,M,M,KCPS 010153Z 36010KT 10SM OVC019 08/04 A3004 RMK AO2 SLP175 T00830039
CPS,2017-04-01 01:55,-90.1562,38.5707,M,M,M,350.00,9.00,M,30.04,M,10.00,M,OVC,M,M,M,1900.00,M,M,M,M,KCPS 010155Z AUTO 35009KT 10SM OVC019 A3004 RMK MADISHF
CPS,2017-04-01 02:05,-90.1562,38.5707,M,M,M,340.00,8.00,M,30.05,M,10.00,M,OVC,M,M,M,1900.00,M,M,M,M,KCPS 010205Z AUTO 34008KT 10SM OVC019 A3005 RMK MADISHF
CPS,2017-04-01 02:10,-90.1562,38.5707,M,M,M,340.00,7.00,M,30.05,M,10.00,M,OVC,M,M,M,1900.00,M,M,M,M,KCPS 010210Z AUTO 34007KT 10SM OVC019 A3005 RMK MADISHF
CPS,2017-04-01 02:15,-90.1562,38.5707,M,M,M,340.00,10.00,M,30.05,M,10.00,M,OVC,M,M,M,1900.00,M,M,M,M,KCPS 010215Z AUTO 34010KT 10SM OVC019 A3005 RMK MADISHF
CPS,2017-04-01 02:20,-90.1562,38.5707,M,M,M,320.00,10.00,M,30.05,M,10.00,M,OVC,M,M,M,1800.00,M,M,M,M,KCPS 010220Z AUTO 32010KT 10SM OVC018 A3005 RMK MADISHF
CPS,2017-04-01 02:25,-90.1562,38.5707,M,M,M,350.00,8.00,M,30.06,M,10.00,M,OVC,M,M,M,1800.00,M,M,M,M,KCPS 010225Z AUTO 35008KT 10SM OVC018 A3006 RMK MADISHF
CPS,2017-04-01 02:30,-90.1562,38.5707,M,M,M,20.00,11.00,M,30.06,M,10.00,M,OVC,M,M,M,1800.00,M,M,M,M,KCPS 010230Z AUTO 02011KT 10SM OVC018 A3006 RMK MADISHF
CPS,2017-04-01 02:35,-90.1562,38.5707,M,M,M,360.00,10.00,M,30.06,M,10.00,M,OVC,M,M,M,1800.00,M,M,M,M,KCPS 010235Z AUTO 36010KT 10SM OVC018 A3006 RMK MADISHF
CPS,2017-04-01 02:53,-90.1562,38.5707,46.00,39.00,76.40,350.00,8.00,0.00,30.07,1018.30,10.00,M,OVC,M,M,M,1800.00,M,M,M,M,KCPS 010253Z 35008KT 10SM OVC018 08/04 A3007 RMK AO2 SLP183 T00780039 51026
CPS,2017-04-01 02:55,-90.1562,38.5707,M,M,M,360.00,9.00,M,30.07,M,10.00,M,OVC,M,M,M,1800.00,M,M,M,M,KCPS 010255Z AUTO 36009KT 10SM OVC018 A3007 RMK MADISHF
CPS,2017-04-01 03:00,-90.1562,38.5707,M,M,M,350.00,8.00,M,30.07,M,10.00,M,OVC,M,M,M,1800.00,M,M,M,M,KCPS 010300Z AUTO 35008KT 10SM OVC018 A3007 RMK MADISHF
CPS,2017-04-01 03:05,-90.1562,38.5707,M,M,M,360.00,7.00,M,30.08,M,10.00,M,OVC,M,M,M,1699.00,M,M,M,M,KCPS 010305Z AUTO 36007KT 10SM OVC016 A3008 RMK MADISHF
CPS,2017-04-01 03:10,-90.1562,38.5707,M,M,M,350.00,7.00,M,30.08,M,10.00,M,OVC,M,M,M,1699.00,M,M,M,M,KCPS 010310Z AUTO 35007KT 10SM OVC016 A3008 RMK MADISHF
CPS,2017-04-01 03:15,-90.1562,38.5707,M,M,M,350.00,7.00,M,30.08,M,10.00,M,OVC,M,M,M,1699.00,M,M,M,M,KCPS 010315Z AUTO 35007KT 10SM OVC016 A3008 RMK MADISHF
CPS,2017-04-01 03:20,-90.1562,38.5707,M,M,M,360.00,6.00,M,30.08,M,10.00,M,OVC,M,M,M,1699.00,M,M,M,M,KCPS 010320Z AUTO 36006KT 10SM OVC016 A3008 RMK MADISHF
CPS,2017-04-01 03:35,-90.1562,38.5707,M,M,M,360.00,9.00,M,30.08,M,10.00,M,OVC,M,M,M,1699.00,M,M,M,M,KCPS 010335Z AUTO 36009KT 10SM OVC016 A3008 RMK MADISHF
CPS,2017-04-01 03:40,-90.1562,38.5707,M,M,M,350.00,8.00,M,30.09,M,10.00,M,OVC,M,M,M,1699.00,M,M,M,M,KCPS 010340Z AUTO 35008KT 10SM OVC016 A3009 RMK MADISHF
CPS,2017-04-01 03:45,-90.1562,38.5707,M,M,M,340.00,7.00,M,30.09,M,10.00,M,OVC,M,M,M,1699.00,M,M,M,M,KCPS 010345Z AUTO 34007KT 10SM OVC016 A3009 RMK MADISHF
CPS,2017-04-01 03:50,-90.1562,38.5707,M,M,M,330.00,9.00,M,30.09,M,10.00,M,OVC,M,M,M,1699.00,M,M,M,M,KCPS 010350Z AUTO 33009KT 10SM OVC016 A3009 RMK MADISHF
CPS,2017-04-01 03:53,-90.1562,38.5707,46.00,37.90,73.18,340.00,10.00,0.00,30.09,1019.20,10.00,M,OVC,M,M,M,1700.00,M,M,M,M,KCPS 010353Z 34010KT 10SM OVC017 08/03 A3009 RMK AO2 SLP192 T00780033
CPS,2017-04-01 03:55,-90.1562,38.5707,M,M,M,340.00,11.00,M,30.09,M,10.00,M,OVC,M,M,M,1699.00,M,M,M,M,KCPS 010355Z AUTO 34011KT 10SM OVC016 A3009 RMK MADISHF
CPS,2017-04-01 04:00,-90.1562,38.5707,M,M,M,340.00,9.00,M,30.09,M,10.00,M,OVC,M,M,M,1699.00,M,M,M,M,KCPS 010400Z AUTO 34009KT 10SM OVC016 A3009 RMK MADISHF
CPS,2017-04-01 04:15,-90.1562,38.5707,M,M,M,340.00,7.00,M,30.09,M,10.00,M,OVC,M,M,M,1600.00,M,M,M,M,KCPS 010415Z AUTO 34007KT 10SM OVC016 A3009 RMK MADISHF
CPS,2017-04-01 04:20,-90.1562,38.5707,M,M,M,350.00,7.00,M,30.09,M,10.00,M,OVC,M,M,M,1600.00,M,M,M,M,KCPS 010420Z AUTO 35007KT 10SM OVC016 A3009 RMK MADISHF
CPS,2017-04-01 04:25,-90.1562,38.5707,M,M,M,20.00,10.00,M,30.09,M,10.00,M,OVC,M,M,M,1600.00,M,M,M,M,KCPS 010425Z AUTO 02010KT 10SM OVC016 A3009 RMK MADISHF
CPS,2017-04-01 04:30,-90.1562,38.5707,M,M,M,30.00,9.00,M,30.09,M,10.00,M,OVC,M,M,M,1600.00,M,M,M,M,KCPS 010430Z AUTO 03009KT 10SM OVC016 A3009 RMK MADISHF
CPS,2017-04-01 04:35,-90.1562,38.5707,M,M,M,20.00,8.00,M,30.09,M,10.00,M,OVC,M,M,M,1600.00,M,M,M,M,KCPS 010435Z AUTO 02008KT 10SM OVC016 A3009 RMK MADISHF
CPS,2017-04-01 04:40,-90.1562,38.5707,M,M,M,10.00,7.00,M,30.09,M,10.00,M,OVC,M,M,M,1600.00,M,M,M,M,KCPS 010440Z AUTO 01007KT 10SM OVC016 A3009 RMK MADISHF
CPS,2017-04-01 04:45,-90.1562,38.5707,M,M,M,350.00,8.00,M,30.10,M,10.00,M,OVC,M,M,M,1600.00,M,M,M,M,KCPS 010445Z AUTO 35008KT 10SM OVC016 A3010 RMK MADISHF
CPS,2017-04-01 04:50,-90.1562,38.5707,M,M,M,330.00,8.00,M,30.10,M,10.00,M,OVC,M,M,M,1600.00,M,M,M,M,KCPS 010450Z AUTO 33008KT 10SM OVC016 A3010 RMK MADISHF
CPS,2017-04-01 04:53,-90.1562,38.5707,45.00,37.90,76.01,350.00,9.00,0.00,30.10,1019.40,10.00,M,OVC,M,M,M,1600.00,M,M,M,M,KCPS 010453Z AUTO 35009KT 10SM OVC016 07/03 A3010 RMK AO2 SLP194 T00720033
CPS,2017-04-01 04:55,-90.1562,38.5707,M,M,M,350.00,7.00,M,30.10,M,10.00,M,OVC,M,M,M,1600.00,M,M,M,M,KCPS 010455Z AUTO 35007KT 10SM OVC016 A3010 RMK MADISHF
CPS,2017-04-01 05:00,-90.1562,38.5707,M,M,M,350.00,9.00,M,30.10,M,10.00,M,OVC,M,M,M,1600.00,M,M,M,M,KCPS 010500Z AUTO 35009KT 10SM OVC016 A3010 RMK MADISHF
CPS,2017-04-01 05:10,-90.1562,38.5707,M,M,M,350.00,9.00,M,30.10,M,10.00,M,OVC,M,M,M,1600.00,M,M,M,M,KCPS 010510Z AUTO 35009KT 10SM OVC016 A3010 RMK MADISHF
CPS,2017-04-01 05:15,-90.1562,38.5707,M,M,M,10.00,6.00,M,30.10,M,10.00,M,OVC,M,M,M,1600.00,M,M,M,M,KCPS 010515Z AUTO 01006KT 10SM OVC016 A3010 RMK MADISHF
CPS,2017-04-01 05:20,-90.1562,38.5707,M,M,M,360.00,6.00,M,30.10,M,10.00,M,OVC,M,M,M,1600.00,M,M,M,M,KCPS 010520Z AUTO 36006KT 10SM OVC016 A3010 RMK MADISHF
CPS,2017-04-01 05:25,-90.1562,38.5707,M,M,M,20.00,5.00,M,30.11,M,10.00,M,OVC,M,M,M,1600.00,M,M,M,M,KCPS 010525Z AUTO 02005KT 10SM OVC016 A3011 RMK MADISHF
CPS,2017-04-01 05:30,-90.1562,38.5707,M,M,M,350.00,5.00,M,30.11,M,10.00,M,OVC,M,M,M,1600.00,M,M,M,M,KCPS 010530Z AUTO 35005KT 10SM OVC016 A3011 RMK MADISHF
CPS,2017-04-01 05:35,-90.1562,38.5707,M,M,M,20.00,6.00,M,30.11,M,10.00,M,OVC,M,M,M,1600.00,M,M,M,M,KCPS 010535Z AUTO 02006KT 10SM OVC016 A3011 RMK MADISHF
CPS,2017-04-01 05:40,-90.1562,38.5707,M,M,M,20.00,5.00,M,30.11,M,10.00,M,OVC,M,M,M,1600.00,M,M,M,M,KCPS 010540Z AUTO 02005KT 10SM OVC016 A3011 RMK MADISHF
CPS,2017-04-01 05:45,-90.1562,38.5707,M,M,M,30.00,7.00,M,30.11,M,10.00,M,OVC,M,M,M,1600.00,M,M,M,M,KCPS 010545Z AUTO 03007KT 10SM OVC016 A3011 RMK MADISHF
CPS,2017-04-01 05:53,-90.1562,38.5707,45.00,37.00,73.37,30.00,7.00,0.00,30.12,1019.90,10.00,M,OVC,M,M,M,1600.00,M,M,M,M,KCPS 010553Z AUTO 03007KT 10SM OVC016 07/03 A3012 RMK AO2 SLP199 T00720028 10089 20072 401060072 51016
CPS,2017-04-01 06:00,-90.1562,38.5707,M,M,M,40.00,5.00,M,30.12,M,10.00,M,OVC,M,M,M,1600.00,M,M,M,M,KCPS 010600Z AUTO 04005KT 10SM OVC016 A3012 RMK MADISHF
CPS,2017-04-01 06:05,-90.1562,38.5707,M,M,M,20.00,4.00,M,30.12,M,10.00,M,OVC,M,M,M,1600.00,M,M,M,M,KCPS 010605Z AUTO 02004KT 10SM OVC016 A3012 RMK MADISHF
CPS,2017-04-01 06:10,-90.1562,38.5707,M,M,M,30.00,6.00,M,30.12,M,10.00,M,OVC,M,M,M,1600.00,M,M,M,M,KCPS 010610Z AUTO 03006KT 10SM OVC016 A3012 RMK MADISHF
CPS,2017-04-01 06:15,-90.1562,38.5707,M,M,M,20.00,4.00,M,30.12,M,10.00,M,OVC,M,M,M,1600.00,M,M,M,M,KCPS 010615Z AUTO 02004KT 10SM OVC016 A3012 RMK MADISHF
CPS,2017-04-01 06:20,-90.1562,38.5707,M,M,M,20.00,4.00,M,30.13,M,10.00,M,OVC,M,M,M,1600.00,M,M,M,M,KCPS 010620Z AUTO 02004KT 10SM OVC016 A3013 RMK MADISHF
CPS,2017-04-01 06:25,-90.1562,38.5707,M,M,M,20.00,6.00,M,30.13,M,10.00,M,OVC,M,M,M,1600.00,M,M,M,M,KCPS 010625Z AUTO 02006KT 10SM OVC016 A3013 RMK MADISHF
CPS,2017-04-01 06:30,-90.1562,38.5707,M,M,M,40.00,6.00,M,30.13,M,10.00,M,OVC,M,M,M,1600.00,M,M,M,M,KCPS 010630Z AUTO 04006KT 10SM OVC016 A3013 RMK MADISHF
CPS,2017-04-01 06:35,-90.1562,38.5707,M,M,M,40.00,5.00,M,30.13,M,10.00,M,OVC,M,M,M,1600.00,M,M,M,M,KCPS 010635Z AUTO 04005KT 10SM OVC016 A3013 RMK MADISHF
CPS,2017-04-01 06:45,-90.1562,38.5707,M,M,M,50.00,3.00,M,30.14,M,10.00,M,OVC,M,M,M,1600.00,M,M,M,M,KCPS 010645Z AUTO 05003KT 10SM OVC016 A3014 RMK MADISHF
CPS,2017-04-01 06:50,-90.1562,38.5707,M,M,M,360.00,5.00,M,30.13,M,10.00,M,OVC,M,M,M,1600.00,M,M,M,M,KCPS 010650Z AUTO 36005KT 10SM OVC016 A3013 RMK MADISHF
CPS,2017-04-01 06:53,-90.1562,38.5707,45.00,37.00,73.37,360.00,4.00,0.00,30.13,1020.50,10.00,M,OVC,M,M,M,1600.00,M,M,M,M,KCPS 010653Z AUTO 36004KT 10SM OVC016 07/03 A3013 RMK AO2 SLP205 T00720028
CPS,2017-04-01 06:55,-90.1562,38.5707,M,M,M,10.00,4.00,M,30.14,M,10.00,M,OVC,M,M,M,1600.00,M,M,M,M,KCPS 010655Z AUTO 01004KT 10SM OVC016 A3014 RMK MADISHF
CPS,2017-04-01 07:00,-90.1562,38.5707,M,M,M,10.00,4.00,M,30.13,M,10.00,M,OVC,M,M,M,1600.00,M,M,M,M,KCPS 010700Z AUTO 01004KT 10SM OVC016 A3013 RMK MADISHF
CPS,2017-04-01 07:05,-90.1562,38.5707,M,M,M,10.00,5.00,M,30.14,M,10.00,M,OVC,M,M,M,1600.00,M,M,M,M,KCPS 010705Z AUTO 01005KT 10SM OVC016 A3014 RMK MADISHF
CPS,2017-04-01 07:15,-90.1562,38.5707,M,M,M,30.00,4.00,M,30.14,M,10.00,M,OVC,M,M,M,1600.00,M,M,M,M,KCPS 010715Z AUTO 03004KT 10SM OVC016 A3014 RMK MADISHF
CPS,2017-04-01 07:20,-90.1562,38.5707,M,M,M,20.00,7.00,M,30.13,M,10.00,M,OVC,M,M,M,1600.00,M,M,M,M,KCPS 010720Z AUTO 02007KT 10SM OVC016 A3013 RMK MADISHF
CPS,2017-04-01 07:25,-90.1562,38.5707,M,M,M,360.00,9.00,M,30.13,M,10.00,M,OVC,M,M,M,1500.00,M,M,M,M,KCPS 010725Z AUTO 36009KT 10SM OVC015 A3013 RMK MADISHF
CPS,2017-04-01 07:30,-90.1562,38.5707,M,M,M,360.00,7.00,M,30.13,M,10.00,M,OVC,M,M,M,1500.00,M,M,M,M,KCPS 010730Z AUTO 36007KT 10SM OVC015 A3013 RMK MADISHF
CPS,2017-04-01 07:35,-90.1562,38.5707,M,M,M,30.00,7.00,M,30.13,M,10.00,M,OVC,M,M,M,1500.00,M,M,M,M,KCPS 010735Z AUTO 03007KT 10SM OVC015 A3013 RMK MADISHF
CPS,2017-04-01 07:40,-90.1562,38.5707,M,M,M,30.00,5.00,M,30.13,M,10.00,M,OVC,M,M,M,1500.00,M,M,M,M,KCPS 010740Z AUTO 03005KT 10SM OVC015 A3013 RMK MADISHF
CPS,2017-04-01 07:45,-90.1562,38.5707,M,M,M,10.00,7.00,M,30.13,M,10.00,M,OVC,M,M,M,1500.00,M,M,M,M,KCPS 010745Z AUTO 01007KT 10SM OVC015 A3013 RMK MADISHF
CPS,2017-04-01 07:53,-90.1562,38.5707,44.10,37.00,75.93,10.00,9.00,0.00,30.13,1020.40,10.00,M,OVC,M,M,M,1500.00,M,M,M,M,KCPS 010753Z AUTO 01009KT 10SM OVC015 07/03 A3013 RMK AO2 SLP204 T00670028
CPS,2017-04-01 07:55,-90.1562,38.5707,M,M,M,20.00,8.00,M,30.13,M,10.00,M,OVC,M,M,M,1500.00,M,M,M,M,KCPS 010755Z AUTO 02008KT 10SM OVC015 A3013 RMK MADISHF
CPS,2017-04-01 08:00,-90.1562,38.5707,M,M,M,20.00,10.00,M,30.13,M,10.00,M,OVC,M,M,M,1500.00,M,M,M,M,KCPS 010800Z AUTO 02010KT 10SM OVC015 A3013 RMK MADISHF
CPS,2017-04-01 08:05,-90.1562,38.5707,M,M,M,20.00,8.00,M,30.13,M,10.00,M,OVC,M,M,M,1500.00,M,M,M,M,KCPS 010805Z AUTO 02008KT 10SM OVC015 A3013 RMK MADISHF
CPS,2017-04-01 08:10,-90.1562,38.5707,M,M,M,10.00,8.00,M,30.14,M,10.00,M,OVC,M,M,M,1500.00,M,M,M,M,KCPS 010810Z AUTO 01008KT 10SM OVC015 A3014 RMK MADISHF
CPS,2017-04-01 08:15,-90.1562,38.5707,M,M,M,360.00,7.00,M,30.14,M,10.00,M,OVC,M,M,M,1500.00,M,M,M,M,KCPS 010815Z AUTO 36007KT 10SM OVC015 A3014 RMK MADISHF
CPS,2017-04-01 08:25,-90.1562,38.5707,M,M,M,30.00,8.00,M,30.14,M,10.00,M,OVC,M,M,M,1500.00,M,M,M,M,KCPS 010825Z AUTO 03008KT 10SM OVC015 A3014 RMK MADISHF
CPS,2017-04-01 08:30,-90.1562,38.5707,M,M,M,20.00,8.00,M,30.14,M,10.00,M,OVC,M,M,M,1500.00,M,M,M,M,KCPS 010830Z AUTO 02008KT 10SM OVC015 A3014 RMK MADISHF
CPS,2017-04-01 08:35,-90.1562,38.5707,M,M,M,20.00,9.00,M,30.14,M,10.00,M,OVC,M,M,M,1500.00,M,M,M,M,KCPS 010835Z AUTO 02009KT 10SM OVC015 A3014 RMK MADISHF
CPS,2017-04-01 08:40,-90.1562,38.5707,M,M,M,10.00,7.00,M,30.14,M,10.00,M,OVC,M,M,M,1500.00,M,M,M,M,KCPS 010840Z AUTO 01007KT 10SM OVC015 A3014 RMK MADISHF
CPS,2017-04-01 08:45,-90.1562,38.5707,M,M,M,10.00,6.00,M,30.14,M,10.00,M,OVC,M,M,M,1500.00,M,M,M,M,KCPS 010845Z AUTO 01006KT 10SM OVC015 A3014 RMK MADISHF
CPS,2017-04-01 08:50,-90.1562,38.5707,M,M,M,350.00,6.00,M,30.14,M,10.00,M,OVC,M,M,M,1500.00,M,M,M,M,KCPS 010850Z AUTO 35006KT 10SM OVC015 A3014 RMK MADISHF
CPS,2017-04-01 08:53,-90.1562,38.5707,44.10,37.00,75.93,350.00,6.00,0.00,30.14,1020.70,10.00,M,OVC,M,M,M,1500.00,M,M,M,M,KCPS 010853Z AUTO 35006KT 10SM OVC015 07/03 A3014 RMK AO2 SLP207 T00670028 51008
CPS,2017-04-01 09:00,-90.1562,38.5707,M,M,M,30.00,5.00,M,30.14,M,10.00,M,OVC,M,M,M,1500.00,M,M,M,M,KCPS 010900Z AUTO 03005KT 10SM OVC015 A3014 RMK MADISHF
CPS,2017-04-01 09:05,-90.1562,38.5707,M,M,M,30.00,7.00,M,30.14,M,10.00,M,OVC,M,M,M,1500.00,M,M,M,M,KCPS 010905Z AUTO 03007KT 10SM OVC015 A3014 RMK MADISHF
CPS,2017-04-01 09:10,-90.1562,38.5707,M,M,M,350.00,5.00,M,30.14,M,10.00,M,OVC,M,M,M,1500.00,M,M,M,M,KCPS 010910Z AUTO 35005KT 10SM OVC015 A3014 RMK MADISHF
CPS,2017-04-01 09:15,-90.1562,38.5707,M,M,M,10.00,6.00,M,30.15,M,10.00,M,OVC,M,M,M,1500.00,M,M,M,M,KCPS 010915Z AUTO 01006KT 10SM OVC015 A3015 RMK MADISHF
CPS,2017-04-01 09:20,-90.1562,38.5707,M,M,M,360.00,6.00,M,30.15,M,10.00,M,OVC,M,M,M,1500.00,M,M,M,M,KCPS 010920Z AUTO 36006KT 10SM OVC015 A3015 RMK MADISHF
CPS,2017-04-01 09:25,-90.1562,38.5707,M,M,M,20.00,5.00,M,30.15,M,10.00,M,OVC,M,M,M,1500.00,M,M,M,M,KCPS 010925Z AUTO 02005KT 10SM OVC015 A3015 RMK MADISHF
CPS,2017-04-01 09:30,-90.1562,38.5707,M,M,M,350.00,5.00,M,30.16,M,10.00,M,OVC,M,M,M,1500.00,M,M,M,M,KCPS 010930Z AUTO 35005KT 10SM OVC015 A3016 RMK MADISHF
CPS,2017-04-01 09:35,-90.1562,38.5707,M,M,M,360.00,5.00,M,30.15,M,10.00,M,OVC,M,M,M,1500.00,M,M,M,M,KCPS 010935Z AUTO 36005KT 10SM OVC015 A3015 RMK MADISHF
CPS,2017-04-01 09:40,-90.1562,38.5707,M,M,M,350.00,4.00,M,30.16,M,10.00,M,OVC,M,M,M,1500.00,M,M,M,M,KCPS 010940Z AUTO 35004KT 10SM OVC015 A3016 RMK MADISHF
CPS,2017-04-01 09:45,-90.1562,38.5707,M,M,M,360.00,4.00,M,30.16,M,10.00,M,OVC,M,M,M,1500.00,M,M,M,M,KCPS 010945Z AUTO 36004KT 10SM OVC015 A3016 RMK MADISHF
CPS,2017-04-01 09:50,-90.1562,38.5707,M,M,M,360.00,4.00,M,30.16,M,10.00,M,OVC,M,M,M,1500.00,M,M,M,M,KCPS 010950Z AUTO 36004KT 10SM OVC015 A3016 RMK MADISHF
CPS,2017-04-01 09:53,-90.1562,38.5707,44.10,37.00,75.93,360.00,4.00,0.00,30.16,1021.40,10.00,M,OVC,M,M,M,1500.00,M,M,M,M,KCPS 010953Z AUTO 36004KT 10SM OVC015 07/03 A3016 RMK AO2 SLP214 T00670028
CPS,2017-04-01 09:55,-90.1562,38.5707,M,M,M,10.00,4.00,M,30.16,M,10.00,M,OVC,M,M,M,1500.00,M,M,M,M,KCPS 010955Z AUTO 01004KT 10SM OVC015 A3016 RMK MADISHF
CPS,2017-04-01 10:00,-90.1562,38.5707,M,M,M,340.00,4.00,M,30.16,M,10.00,M,OVC,M,M,M,1500.00,M,M,M,M,KCPS 011000Z AUTO 34004KT 10SM OVC015 A3016 RMK MADISHF
CPS,2017-04-01 10:05,-90.1562,38.5707,M,M,M,330.00,4.00,M,30.17,M,10.00,M,OVC,M,M,M,1500.00,M,M,M,M,KCPS 011005Z AUTO 33004KT 10SM OVC015 A3017 RMK MADISHF
CPS,2017-04-01 10:15,-90.1562,38.5707,M,M,M,350.00,6.00,M,30.17,M,10.00,M,BKN,OVC,M,M,1500.00,2200.00,M,M,M,KCPS 011015Z AUTO 35006KT 10SM BKN015 OVC022 A3017 RMK MADISHF
CPS,2017-04-01 10:20,-90.1562,38.5707,M,M,M,340.00,5.00,M,30.17,M,10.00,M,BKN,OVC,M,M,1699.00,2200.00,M,M,M,KCPS 011020Z AUTO 34005KT 10SM BKN016 OVC022 A3017 RMK MADISHF
CPS,2017-04-01 10:25,-90.1562,38.5707,M,M,M,350.00,5.00,M,30.17,M,10.00,M,OVC,M,M,M,1699.00,M,M,M,M,KCPS 011025Z AUTO 35005KT 10SM OVC016 A3017 RMK MADISHF
CPS,2017-04-01 10:30,-90.1562,38.5707,M,M,M,360.00,6.00,M,30.17,M,10.00,M,SCT,OVC,M,M,1600.00,2200.00,M,M,M,KCPS 011030Z AUTO 36006KT 10SM SCT016 OVC022 A3017 RMK MADISHF
CPS,2017-04-01 10:35,-90.1562,38.5707,M,M,M,360.00,6.00,M,30.17,M,10.00,M,SCT,OVC,M,M,1600.00,2200.00,M,M,M,KCPS 011035Z AUTO 36006KT 10SM SCT016 OVC022 A3017 RMK MADISHF
CPS,2017-04-01 10:40,-90.1562,38.5707,M,M,M,360.00,6.00,M,30.17,M,10.00,M,OVC,M,M,M,1999.00,M,M,M,M,KCPS 011040Z AUTO 36006KT 10SM OVC019 A3017 RMK MADISHF
CPS,2017-04-01 10:45,-90.1562,38.5707,M,M,M,350.00,5.00,M,30.18,M,10.00,M,OVC,M,M,M,1999.00,M,M,M,M,KCPS 011045Z AUTO 35005KT 10SM OVC019 A3018 RMK MADISHF
CPS,2017-04-01 10:50,-90.1562,38.5707,M,M,M,360.00,5.00,M,30.18,M,10.00,M,OVC,M,M,M,1999.00,M,M,M,M,KCPS 011050Z AUTO 36005KT 10SM OVC019 A3018 RMK MADISHF
CPS,2017-04-01 10:53,-90.1562,38.5707,43.00,37.00,79.19,360.00,5.00,0.00,30.18,1022.20,10.00,M,OVC,M,M,M,2100.00,M,M,M,M,KCPS 011053Z AUTO 36005KT 10SM OVC021 06/03 A3018 RMK AO2 SLP222 T00610028
CPS,2017-04-01 11:05,-90.1562,38.5707,M,M,M,360.00,4.00,M,30.18,M,10.00,M,BKN,M,M,M,2100.00,M,M,M,M,KCPS 011105Z AUTO 36004KT 10SM BKN021 A3018 RMK MADISHF
CPS,2017-04-01 11:10,-90.1562,38.5707,M,M,M,10.00,5.00,M,30.18,M,10.00,M,BKN,M,M,M,2100.00,M,M,M,M,KCPS 011110Z AUTO 01005KT 10SM BKN021 A3018 RMK MADISHF
CPS,2017-04-01 11:15,-90.1562,38.5707,M,M,M,10.00,5.00,M,30.18,M,10.00,M,SCT,M,M,M,2100.00,M,M,M,M,KCPS 011115Z AUTO 01005KT 10SM SCT021 A3018 RMK MADISHF
CPS,2017-04-01 11:19,-90.1562,38.5707,41.00,36.00,82.22,360.00,4.00,0.00,30.19,M,10.00,M,SCT,M,M,M,1900.00,M,M,M,M,KCPS 011119Z AUTO 36004KT 10SM SCT019 05/02 A3019 RMK AO2 T00500022
CPS,2017-04-01 11:20,-90.1562,38.5707,M,M,M,360.00,4.00,M,30.19,M,10.00,M,SCT,M,M,M,1900.00,M,M,M,M,KCPS 011120Z AUTO 36004KT 10SM SCT019 A3019 RMK MADISHF
CPS,2017-04-01 11:25,-90.1562,38.5707,M,M,M,350.00,4.00,M,30.19,M,10.00,M,SCT,M,M,M,1900.00,M,M,M,M,KCPS 011125Z AUTO 35004KT 10SM SCT019 A3019 RMK MADISHF
CPS,2017-04-01 11:30,-90.1562,38.5707,M,M,M,360.00,4.00,M,30.20,M,10.00,M,FEW,M,M,M,1699.00,M,M,M,M,KCPS 011130Z AUTO 36004KT 10SM FEW016 A3020 RMK MADISHF
CPS,2017-04-01 11:45,-90.1562,38.5707,M,M,M,350.00,3.00,M,30.20,M,10.00,M,FEW,M,M,M,1699.00,M,M,M,M,KCPS 011145Z AUTO 35003KT 10SM FEW016 A3020 RMK MADISHF
CPS,2017-04-01 11:50,-90.1562,38.5707,M,M,M,340.00,3.00,M,30.21,M,10.00,M,CLR,M,M,M,M,M,M,M,M,KCPS 011150Z AUTO 34003KT 10SM CLR A3021 RMK MADISHF
CPS,2017-04-01 11:53,-90.1562,38.5707,39.90,35.10,82.80,350.00,3.00,0.00,30.21,1023.00,10.00,M,CLR,M,M,M,M,M,M,M,M,KCPS 011153Z 35003KT 10SM CLR 04/02 A3021 RMK AO2 SLP230 T00440017 10072 20044 53023
CPS,2017-04-01 11:55,-90.1562,38.5707,M,M,M,340.00,3.00,M,30.21,M,10.00,M,CLR,M,M,M,M,M,M,M,M,KCPS 011155Z AUTO 34003KT 10SM CLR A3021 RMK MADISHF
CPS,2017-04-01 12:00,-90.1562,38.5707,M,M,M,350.00,4.00,M,30.21,M,10.00,M,CLR,M,M,M,M,M,M,M,M,KCPS 011200Z AUTO 35004KT 10SM CLR A3021 RMK MADISHF
CPS,2017-04-01 12:05,-90.1562,38.5707,M,M,M,340.00,3.00,M,30.21,M,10.00,M,CLR,M,M,M,M,M,M,M,M,KCPS 011205Z AUTO 34003KT 10SM CLR A3021 RMK MADISHF
CPS,2017-04-01 12:10,-90.1562,38.5707,M,M,M,340.00,3.00,M,30.21,M,10.00,M,CLR,M,M,M,M,M,M,M,M,KCPS 011210Z AUTO 34003KT 10SM CLR A3021 RMK MADISHF
CPS,2017-04-01 12:15,-90.1562,38.5707,M,M,M,350.00,3.00,M,30.22,M,10.00,M,CLR,M,M,M,M,M,M,M,M,KCPS 011215Z AUTO 35003KT 10SM CLR A3022 RMK MADISHF
CPS,2017-04-01 12:25,-90.1562,38.5707,M,M,M,10.00,4.00,M,30.21,M,10.00,M,CLR,M,M,M,M,M,M,M,M,KCPS 011225Z AUTO 01004KT 10SM CLR A3021 RMK MADISHF
CPS,2017-04-01 12:30,-90.1562,38.5707,M,M,M,20.00,3.00,M,30.21,M,10.00,M,CLR,M,M,M,M,M,M,M,M,KCPS 011230Z AUTO 02003KT 10SM CLR A3021 RMK MADISHF
CPS,2017-04-01 12:35,-90.1562,38.5707,M,M,M,20.00,3.00,M,30.22,M,10.00,M,CLR,M,M,M,M,M,M,M,M,KCPS 011235Z AUTO 02003KT 10SM CLR A3022 RMK MADISHF
CPS,2017-04-01 12:40,-90.1562,38.5707,M,M,M,20.00,3.00,M,30.22,M,10.00,M,CLR,M,M,M,M,M,M,M,M,KCPS 011240Z AUTO 02003KT 10SM CLR A3022 RMK MADISHF
CPS,2017-04-01 12:45,-90.1562,38.5707,M,M,M,360.00,4.00,M,30.22,M,10.00,M,CLR,M,M,M,M,M,M,M,M,KCPS 011245Z AUTO 36004KT 10SM CLR A3022 RMK MADISHF
CPS,2017-04-01 12:53,-90.1562,38.5707,43.00,37.00,79.19,350.00,3.00,0.00,30.23,1023.70,10.00,M,CLR,M,M,M,M,M,M,M,M,KCPS 011253Z 35003KT 10SM CLR 06/03 A3023 RMK AO2 SLP237 T00610028
CPS,2017-04-01 12:55,-90.1562,38.5707,M,M,M,350.00,4.00,M,30.23,M,10.00,M,CLR,M,M,M,M,M,M,M,M,KCPS 011255Z AUTO 35004KT 10SM CLR A3023 RMK MADISHF
CPS,2017-04-01 13:00,-90.1562,38.5707,M,M,M,360.00,4.00,M,30.22,M,10.00,M,CLR,M,M,M,M,M,M,M,M,KCPS 011300Z AUTO 36004KT 10SM CLR A3022 RMK MADISHF
CPS,2017-04-01 13:05,-90.1562,38.5707,M,M,M,360.00,5.00,M,30.23,M,10.00,M,CLR,M,M,M,M,M,M,M,M,KCPS 011305Z AUTO 36005KT 10SM CLR A3023 RMK MADISHF
CPS,2017-04-01 13:10,-90.1562,38.5707,M,M,M,360.00,5.00,M,30.23,M,10.00,M,CLR,M,M,M,M,M,M,M,M,KCPS 011310Z AUTO 36005KT 10SM CLR A3023 RMK MADISHF
CPS,2017-04-01 13:15,-90.1562,38.5707,M,M,M,360.00,6.00,M,30.23,M,10.00,M,CLR,M,M,M,M,M,M,M,M,KCPS 011315Z AUTO 36006KT 10SM CLR A3023 RMK MADISHF
CPS,2017-04-01 13:20,-90.1562,38.5707,M,M,M,10.00,5.00,M,30.23,M,10.00,M,CLR,M,M,M,M,M,M,M,M,KCPS 011320Z AUTO 01005KT 10SM CLR A3023 RMK MADISHF
CPS,2017-04-01 13:30,-90.1562,38.5707,M,M,M,30.00,5.00,M,30.23,M,10.00,M,FEW,M,M,M,1500.00,M,M,M,M,KCPS 011330Z AUTO 03005KT 10SM FEW015 A3023 RMK MADISHF
CPS,2017-04-01 13:35,-90.1562,38.5707,M,M,M,360.00,5.00,M,30.23,M,10.00,M,FEW,M,M,M,1500.00,M,M,M,M,KCPS 011335Z AUTO 36005KT 10SM FEW015 A3023 RMK MADISHF
CPS,2017-04-01 13:40,-90.1562,38.5707,M,M,M,20.00,7.00,M,30.23,M,10.00,M,FEW,M,M,M,1699.00,M,M,M,M,KCPS 011340Z AUTO 02007KT 10SM FEW016 A3023 RMK MADISHF
CPS,2017-04-01 13:45,-90.1562,38.5707,M,M,M,20.00,7.00,M,30.23,M,10.00,M,FEW,M,M,M,1699.00,M,M,M,M,KCPS 011345Z AUTO 02007KT 10SM FEW016 A3023 RMK MADISHF
CPS,2017-04-01 13:50,-90.1562,38.5707,M,M,M,30.00,6.00,M,30.23,M,10.00,M,FEW,M,M,M,1699.00,M,M,M,M,KCPS 011350Z AUTO 03006KT 10SM FEW016 A3023 RMK MADISHF
CPS,2017-04-01 13:53,-90.1562,38.5707,46.00,37.00,70.64,30.00,7.00,0.00,30.23,1023.70,10.00,M,FEW,M,M,M,1700.00,M,M,M,M,KCPS 011353Z 03007KT 10SM FEW017 08/03 A3023 RMK AO2 SLP237 T00780028
CPS,2017-04-01 13:55,-90.1562,38.5707,M,M,M,30.00,7.00,M,30.23,M,10.00,M,FEW,M,M,M,1699.00,M,M,M,M,KCPS 011355Z AUTO 03007KT 10SM FEW016 A3023 RMK MADISHF
CPS,2017-04-01 14:00,-90.1562,38.5707,M,M,M,30.00,8.00,M,30.23,M,10.00,M,FEW,M,M,M,1699.00,M,M,M,M,KCPS 011400Z AUTO 03008KT 10SM FEW016 A3023 RMK MADISHF
CPS,2017-04-01 14:05,-90.1562,38.5707,M,M,M,40.00,7.00,M,30.23,M,10.00,M,FEW,M,M,M,1699.00,M,M,M,M,KCPS 011405Z AUTO 04007KT 10SM FEW016 A3023 RMK MADISHF
CPS,2017-04-01 14:20,-90.1562,38.5707,M,M,M,10.00,7.00,M,30.23,M,10.00,M,CLR,M,M,M,M,M,M,M,M,KCPS 011420Z AUTO 01007KT 10SM CLR A3023 RMK MADISHF
CPS,2017-04-01 14:25,-90.1562,38.5707,M,M,M,30.00,6.00,M,30.23,M,10.00,M,CLR,M,M,M,M,M,M,M,M,KCPS 011425Z AUTO 03006KT 10SM CLR A3023 RMK MADISHF
CPS,2017-04-01 14:30,-90.1562,38.5707,M,M,M,30.00,8.00,M,30.23,M,10.00,M,CLR,M,M,M,M,M,M,M,M,KCPS 011430Z AUTO 03008KT 10SM CLR A3023 RMK MADISHF
CPS,2017-04-01 14:35,-90.1562,38.5707,M,M,M,30.00,8.00,M,30.23,M,10.00,M,CLR,M,M,M,M,M,M,M,M,KCPS 011435Z AUTO 03008KT 10SM CLR A3023 RMK MADISHF
CPS,2017-04-01 14:40,-90.1562,38.5707,M,M,M,20.00,6.00,M,30.23,M,10.00,M,CLR,M,M,M,M,M,M,M,M,KCPS 011440Z AUTO 02006KT 10SM CLR A3023 RMK MADISHF
CPS,2017-04-01 14:45,-90.1562,38.5707,M,M,M,30.00,7.00,M,30.23,M,10.00,M,CLR,M,M,M,M,M,M,M,M,KCPS 011445Z AUTO 03007KT 10SM CLR A3023 RMK MADISHF
CPS,2017-04-01 14:50,-90.1562,38.5707,M,M,M,30.00,8.00,M,30.23,M,10.00,M,CLR,M,M,M,M,M,M,M,M,KCPS 011450Z AUTO 03008KT 10SM CLR A3023 RMK MADISHF
CPS,2017-04-01 14:53,-90.1562,38.5707,48.90,37.00,63.34,30.00,9.00,0.00,30.23,1023.90,10.00,M,CLR,M,M,M,M,M,M,M,M,KCPS 011453Z 03009KT 10SM CLR 09/03 A3023 RMK AO2 SLP239 T00940028 51009
CPS,2017-04-01 14:55,-90.1562,38.5707,M,M,M,40.00,8.00,M,30.23,M,10.00,M,CLR,M,M,M,M,M,M,M,M,KCPS 011455Z AUTO 04008KT 10SM CLR A3023 RMK MADISHF
CPS,2017-04-01 15:00,-90.1562,38.5707,M,M,M,50.00,8.00,M,30.24,M,10.00,M,CLR,M,M,M,M,M,M,M,M,KCPS 011500Z AUTO 05008KT 10SM CLR A3024 RMK MADISHF
CPS,2017-04-01 15:10,-90.1562,38.5707,M,M,M,50.00,6.00,M,30.24,M,10.00,M,CLR,M,M,M,M,M,M,M,M,KCPS 011510Z AUTO 05006KT 10SM CLR A3024 RMK MADISHF
CPS,2017-04-01 15:15,-90.1562,38.5707,M,M,M,30.00,9.00,M,30.24,M,10.00,M,CLR,M,M,M,M,M,M,M,M,KCPS 011515Z AUTO 03009KT 10SM CLR A3024 RMK MADISHF
CPS,2017-04-01 15:20,-90.1562,38.5707,M,M,M,30.00,6.00,M,30.24,M,10.00,M,CLR,M,M,M,M,M,M,M,M,KCPS 011520Z AUTO 03006KT 10SM CLR A3024 RMK MADISHF
CPS,2017-04-01 15:25,-90.1562,38.5707,M,M,M,10.00,10.00,M,30.25,M,10.00,M,CLR,M,M,M,M,M,M,M,M,KCPS 011525Z AUTO 01010KT 10SM CLR A3025 RMK MADISHF
CPS,2017-04-01 15:30,-90.1562,38.5707,M,M,M,30.00,6.00,M,30.24,M,10.00,M,FEW,M,M,M,2700.00,M,M,M,M,KCPS 011530Z AUTO 03006KT 10SM FEW027 A3024 RMK MADISHF
CPS,2017-04-01 15:35,-90.1562,38.5707,M,M,M,10.00,9.00,M,30.25,M,10.00,M,SCT,M,M,M,2700.00,M,M,M,M,KCPS 011535Z AUTO 01009KT 10SM SCT027 A3025 RMK MADISHF
CPS,2017-04-01 15:40,-90.1562,38.5707,M,M,M,50.00,7.00,M,30.25,M,10.00,M,SCT,M,M,M,2800.00,M,M,M,M,KCPS 011540Z AUTO 05007KT 10SM SCT028 A3025 RMK MADISHF
CPS,2017-04-01 15:45,-90.1562,38.5707,M,M,M,10.00,8.00,M,30.25,M,10.00,M,BKN,M,M,M,2800.00,M,M,M,M,KCPS 011545Z AUTO 01008KT 10SM BKN028 A3025 RMK WND 34V05  MADISHF
CPS,2017-04-01 15:50,-90.1562,38.5707,M,M,M,360.00,8.00,M,30.25,M,10.00,M,BKN,M,M,M,2800.00,M,M,M,M,KCPS 011550Z AUTO 36008KT 10SM BKN028 A3025 RMK MADISHF
CPS,2017-04-01 15:53,-90.1562,38.5707,51.10,37.00,58.36,360.00,7.00,0.00,30.25,1024.40,10.00,M,BKN,M,M,M,2800.00,M,M,M,M,KCPS 011553Z 36007KT 10SM BKN028 11/03 A3025 RMK AO2 SLP244 T01060028
CPS,2017-04-01 15:55,-90.1562,38.5707,M,M,M,20.00,5.00,M,30.25,M,10.00,M,BKN,M,M,M,2800.00,M,M,M,M,KCPS 011555Z AUTO 02005KT 10SM BKN028 A3025 RMK VRB05KT  MADISHF
CPS,2017-04-01 16:00,-90.1562,38.5707,M,M,M,20.00,7.00,M,30.24,M,10.00,M,BKN,M,M,M,2800.00,M,M,M,M,KCPS 011600Z AUTO 02007KT 10SM BKN028 A3024 RMK MADISHF
CPS,2017-04-01 16:05,-90.1562,38.5707,M,M,M,50.00,8.00,M,30.24,M,10.00,M,SCT,M,M,M,2800.00,M,M,M,M,KCPS 011605Z AUTO 05008KT 10SM SCT028 A3024 RMK MADISHF
CPS,2017-04-01 16:10,-90.1562,38.5707,52.00,37.00,56.45,20.00,7.00,0.00,30.24,M,10.00,M,SCT,M,M,M,2800.00,M,M,M,M,KCPS 011610Z 02007KT 340V060 10SM SCT028 11/03 A3024 RMK AO2 T01110028
CPS,2017-04-01 16:15,-90.1562,38.5707,M,M,M,30.00,4.00,M,30.24,M,10.00,M,SCT,M,M,M,2800.00,M,M,M,M,KCPS 011615Z AUTO 03004KT 10SM SCT028 A3024 RMK VRB04KT  MADISHF
CPS,2017-04-01 16:20,-90.1562,38.5707,M,M,M,30.00,6.00,M,30.24,M,10.00,M,FEW,M,M,M,2800.00,M,M,M,M,KCPS 011620Z AUTO 03006KT 10SM FEW028 A3024 RMK MADISHF
CPS,2017-04-01 16:25,-90.1562,38.5707,M,M,M,50.00,7.00,M,30.24,M,10.00,M,FEW,M,M,M,2800.00,M,M,M,M,KCPS 011625Z AUTO 05007KT 10SM FEW028 A3024 RMK MADISHF
CPS,2017-04-01 16:30,-90.1562,38.5707,M,M,M,10.00,6.00,M,30.24,M,10.00,M,FEW,M,M,M,2900.00,M,M,M,M,KCPS 011630Z AUTO 01006KT 10SM FEW029 A3024 RMK MADISHF
CPS,2017-04-01 16:35,-90.1562,38.5707,M,M,M,10.00,4.00,M,30.24,M,10.00,M,CLR,M,M,M,M,M,M,M,M,KCPS 011635Z AUTO 01004KT 10SM CLR A3024 RMK MADISHF
CPS,2017-04-01 16:45,-90.1562,38.5707,M,M,M,60.00,4.00,M,30.24,M,10.00,M,SCT,M,M,M,3100.00,M,M,M,M,KCPS 011645Z AUTO 06004KT 10SM SCT031 A3024 RMK MADISHF
CPS,2017-04-01 16:50,-90.1562,38.5707,M,M,M,360.00,7.00,M,30.24,M,10.00,M,SCT,M,M,M,3100.00,M,M,M,M,KCPS 011650Z AUTO 36007KT 10SM SCT031 A3024 RMK MADISHF
CPS,2017-04-01 16:53,-90.1562,38.5707,53.10,37.00,54.21,350.00,5.00,0.00,30.24,1024.10,10.00,M,FEW,M,M,M,3100.00,M,M,M,M,KCPS 011653Z 35005KT 10SM FEW031 12/03 A3024 RMK AO2 SLP241 T01170028
CPS,2017-04-01 16:55,-90.1562,38.5707,M,M,M,320.00,4.00,M,30.24,M,10.00,M,FEW,M,M,M,3100.00,M,M,M,M,KCPS 011655Z AUTO 32004KT 10SM FEW031 A3024 RMK MADISHF
CPS,2017-04-01 17:00,-90.1562,38.5707,M,M,M,60.00,3.00,M,30.24,M,10.00,M,FEW,M,M,M,3100.00,M,M,M,M,KCPS 011700Z AUTO 06003KT 10SM FEW031 A3024 RMK VRB03KT  MADISHF
CPS,2017-04-01 17:05,-90.1562,38.5707,M,M,M,340.00,3.00,M,30.24,M,10.00,M,FEW,M,M,M,3100.00,M,M,M,M,KCPS 011705Z AUTO 34003KT 10SM FEW031 A3024 RMK VRB03KT  MADISHF
CPS,2017-04-01 17:10,-90.1562,38.5707,M,M,M,330.00,4.00,M,30.24,M,10.00,M,SCT,M,M,M,3100.00,M,M,M,M,KCPS 011710Z AUTO 33004KT 10SM SCT031 A3024 RMK VRB04KT  MADISHF
CPS,2017-04-01 17:15,-90.1562,38.5707,M,M,M,340.00,5.00,M,30.23,M,10.00,M,FEW,M,M,M,3200.00,M,M,M,M,KCPS 011715Z AUTO 34005KT 10SM FEW032 A3023 RMK MADISHF
CPS,2017-04-01 17:20,-90.1562,38.5707,M,M,M,350.00,6.00,M,30.23,M,10.00,M,FEW,M,M,M,3200.00,M,M,M,M,KCPS 011720Z AUTO 35006KT 10SM FEW032 A3023 RMK VRB06KT  MADISHF
CPS,2017-04-01 17:25,-90.1562,38.5707,M,M,M,20.00,4.00,M,30.23,M,10.00,M,FEW,M,M,M,3200.00,M,M,M,M,KCPS 011725Z AUTO 02004KT 10SM FEW032 A3023 RMK VRB04KT  MADISHF
CPS,2017-04-01 17:30,-90.1562,38.5707,M,M,M,20.00,6.00,M,30.23,M,10.00,M,FEW,M,M,M,3200.00,M,M,M,M,KCPS 011730Z AUTO 02006KT 10SM FEW032 A3023 RMK VRB06KT  MADISHF
CPS,2017-04-01 17:35,-90.1562,38.5707,M,M,M,60.00,5.00,M,30.23,M,10.00,M,FEW,M,M,M,3200.00,M,M,M,M,KCPS 011735Z AUTO 06005KT 10SM FEW032 A3023 RMK VRB05KT  MADISHF
CPS,2017-04-01 17:40,-90.1562,38.5707,M,M,M,50.00,6.00,M,30.23,M,10.00,M,CLR,M,M,M,M,M,M,M,M,KCPS 011740Z AUTO 05006KT 10SM CLR A3023 RMK MADISHF
CPS,2017-04-01 17:45,-90.1562,38.5707,M,M,M,110.00,3.00,M,30.22,M,10.00,M,CLR,M,M,M,M,M,M,M,M,KCPS 011745Z AUTO 11003KT 10SM CLR A3022 RMK VRB03KT  MADISHF
CPS,2017-04-01 17:50,-90.1562,38.5707,M,M,M,0.00,0.00,M,30.22,M,10.00,M,FEW,M,M,M,3300.00,M,M,M,M,KCPS 011750Z AUTO 00000KT 10SM FEW033 A3022 RMK MADISHF
CPS,2017-04-01 17:53,-90.1562,38.5707,55.00,37.90,52.40,M,3.00,0.00,30.22,1023.30,10.00,M,FEW,M,M,M,3300.00,M,M,M,M,KCPS 011753Z VRB03KT 10SM FEW033 13/03 A3022 RMK AO2 SLP233 T01280033 10128 20044 58009
CPS,2017-04-01 17:55,-90.1562,38.5707,M,M,M,20.00,5.00,M,30.22,M,10.00,M,FEW,M,M,M,3300.00,M,M,M,M,KCPS 011755Z AUTO 02005KT 10SM FEW033 A3022 RMK VRB05KT  MADISHF
CPS,2017-04-01 18:00,-90.1562,38.5707,M,M,M,0.00,0.00,M,30.21,M,10.00,M,FEW,M,M,M,3300.00,M,M,M,M,KCPS 011800Z AUTO 00000KT 10SM FEW033 A3021 RMK MADISHF
CPS,2017-04-01 18:05,-90.1562,38.5707,M,M,M,40.00,6.00,M,30.21,M,10.00,M,CLR,M,M,M,M,M,M,M,M,KCPS 011805Z AUTO 04006KT 10SM CLR A3021 RMK MADISHF
CPS,2017-04-01 18:25,-90.1562,38.5707,M,M,M,360.00,6.00,M,30.22,M,10.00,M,CLR,M,M,M,M,M,M,M,M,KCPS 011825Z AUTO 36006KT 10SM CLR A3022 RMK VRB06KT  MADISHF
CPS,2017-04-01 18:30,-90.1562,38.5707,M,M,M,20.00,5.00,M,30.22,M,10.00,M,CLR,M,M,M,M,M,M,M,M,KCPS 011830Z AUTO 02005KT 10SM CLR A3022 RMK MADISHF
CPS,2017-04-01 18:35,-90.1562,38.5707,M,M,M,350.00,3.00,M,30.22,M,10.00,M,CLR,M,M,M,M,M,M,M,M,KCPS 011835Z AUTO 35003KT 10SM CLR A3022 RMK VRB03KT  MADISHF
CPS,2017-04-01 18:40,-90.1562,38.5707,M,M,M,30.00,6.00,M,30.22,M,10.00,M,CLR,M,M,M,M,M,M,M,M,KCPS 011840Z AUTO 03006KT 10SM CLR A3022 RMK MADISHF
CPS,2017-04-01 18:45,-90.1562,38.5707,M,M,M,60.00,8.00,M,30.22,M,10.00,M,CLR,M,M,M,M,M,M,M,M,KCPS 011845Z AUTO 06008KT 10SM CLR A3022 RMK MADISHF
CPS,2017-04-01 18:50,-90.1562,38.5707,M,M,M,90.00,4.00,M,30.22,M,10.00,M,CLR,M,M,M,M,M,M,M,M,KCPS 011850Z AUTO 09004KT 10SM CLR A3022 RMK MADISHF
CPS,2017-04-01 18:53,-90.1562,38.5707,55.90,39.00,52.94,0.00,0.00,0.00,30.21,1023.20,10.00,M,CLR,M,M,M,M,M,M,M,M,KCPS 011853Z 00000KT 10SM CLR 13/04 A3021 RMK AO2 SLP232 T01330039
CPS,2017-04-01 18:55,-90.1562,38.5707,M,M,M,10.00,4.00,M,30.21,M,10.00,M,CLR,M,M,M,M,M,M,M,M,KCPS 011855Z AUTO 01004KT 10SM CLR A3021 RMK MADISHF
CPS,2017-04-01 19:00,-90.1562,38.5707,M,M,M,20.00,5.00,M,30.21,M,10.00,M,CLR,M,M,M,M,M,M,M,M,KCPS 011900Z AUTO 02005KT 10SM CLR A3021 RMK MADISHF
CPS,2017-04-01 19:05,-90.1562,38.5707,M,M,M,0.00,0.00,M,30.21,M,10.00,M,CLR,M,M,M,M,M,M,M,M,KCPS 011905Z AUTO 00000KT 10SM CLR A3021 RMK MADISHF
CPS,2017-04-01 19:10,-90.1562,38.5707,M,M,M,60.00,7.00,M,30.21,M,10.00,M,FEW,M,M,M,3500.00,M,M,M,M,KCPS 011910Z AUTO 06007KT 10SM FEW035 A3021 RMK MADISHF
CPS,2017-04-01 19:15,-90.1562,38.5707,M,M,M,90.00,3.00,M,30.20,M,10.00,M,FEW,M,M,M,3500.00,M,M,M,M,KCPS 011915Z AUTO 09003KT 10SM FEW035 A3020 RMK VRB03KT  MADISHF
CPS,2017-04-01 19:20,-90.1562,38.5707,M,M,M,20.00,4.00,M,30.20,M,10.00,M,FEW,M,M,M,3399.00,M,M,M,M,KCPS 011920Z AUTO 02004KT 10SM FEW033 A3020 RMK VRB04KT  MADISHF
CPS,2017-04-01 19:25,-90.1562,38.5707,M,M,M,30.00,4.00,M,30.20,M,10.00,M,FEW,M,M,M,3399.00,M,M,M,M,KCPS 011925Z AUTO 03004KT 10SM FEW033 A3020 RMK VRB04KT  MADISHF
CPS,2017-04-01 19:30,-90.1562,38.5707,M,M,M,60.00,4.00,M,30.19,M,10.00,M,FEW,M,M,M,3399.00,M,M,M,M,KCPS 011930Z AUTO 06004KT 10SM FEW033 A3019 RMK VRB04KT  MADISHF
CPS,2017-04-01 19:40,-90.1562,38.5707,M,M,M,50.00,7.00,M,30.18,M,10.00,M,CLR,M,M,M,M,M,M,M,M,KCPS 011940Z AUTO 05007KT 10SM CLR A3018 RMK MADISHF
CPS,2017-04-01 19:45,-90.1562,38.5707,M,M,M,10.00,7.00,M,30.18,M,10.00,M,CLR,M,M,M,M,M,M,M,M,KCPS 011945Z AUTO 01007KT 10SM CLR A3018 RMK MADISHF
CPS,2017-04-01 19:50,-90.1562,38.5707,M,M,M,50.00,6.00,M,30.18,M,10.00,M,CLR,M,M,M,M,M,M,M,M,KCPS 011950Z AUTO 05006KT 10SM CLR A3018 RMK VRB06KT  MADISHF
CPS,2017-04-01 19:53,-90.1562,38.5707,57.90,39.90,51.02,50.00,7.00,0.00,30.18,1022.00,10.00,M,CLR,M,M,M,M,M,M,M,M,KCPS 011953Z 05007KT 10SM CLR 14/04 A3018 RMK AO2 SLP220 T01440044
CPS,2017-04-01 19:55,-90.1562,38.5707,M,M,M,30.00,7.00,M,30.18,M,10.00,M,CLR,M,M,M,M,M,M,M,M,KCPS 011955Z AUTO 03007KT 10SM CLR A3018 RMK MADISHF
CPS,2017-04-01 20:00,-90.1562,38.5707,M,M,M,330.00,3.00,M,30.18,M,10.00,M,CLR,M,M,M,M,M,M,M,M,KCPS 012000Z AUTO 33003KT 10SM CLR A3018 RMK VRB03KT  MADISHF
CPS,2017-04-01 20:10,-90.1562,38.5707,M,M,M,30.00,7.00,M,30.18,M,10.00,M,CLR,M,M,M,M,M,M,M,M,KCPS 012010Z AUTO 03007KT 10SM CLR A3018 RMK MADISHF
CPS,2017-04-01 20:15,-90.1562,38.5707,M,M,M,10.00,6.00,M,30.17,M,10.00,M,CLR,M,M,M,M,M,M,M,M,KCPS 012015Z AUTO 01006KT 10SM CLR A3017 RMK MADISHF
CPS,2017-04-01 20:20,-90.1562,38.5707,M,M,M,60.00,8.00,M,30.17,M,10.00,M,CLR,M,M,M,M,M,M,M,M,KCPS 012020Z AUTO 06008KT 10SM CLR A3017 RMK WND 02V10  MADISHF
CPS,2017-04-01 20:25,-90.1562,38.5707,M,M,M,50.00,7.00,M,30.17,M,10.00,M,CLR,M,M,M,M,M,M,M,M,KCPS 012025Z AUTO 05007KT 10SM CLR A3017 RMK MADISHF
CPS,2017-04-01 20:30,-90.1562,38.5707,M,M,M,30.00,6.00,M,30.17,M,10.00,M,CLR,M,M,M,M,M,M,M,M,KCPS 012030Z AUTO 03006KT 10SM CLR A3017 RMK VRB06KT  MADISHF
CPS,2017-04-01 20:45,-90.1562,38.5707,M,M,M,40.00,4.00,M,30.17,M,10.00,M,CLR,M,M,M,M,M,M,M,M,KCPS 012045Z AUTO 04004KT 10SM CLR A3017 RMK MADISHF
CPS,2017-04-01 20:50,-90.1562,38.5707,M,M,M,60.00,6.00,M,30.17,M,10.00,M,CLR,M,M,M,M,M,M,M,M,KCPS 012050Z AUTO 06006KT 10SM CLR A3017 RMK MADISHF
CPS,2017-04-01 20:53,-90.1562,38.5707,60.10,41.00,49.21,60.00,6.00,0.00,30.17,1021.70,10.00,M,CLR,M,M,M,M,M,M,M,M,KCPS 012053Z 06006KT 10SM CLR 16/05 A3017 RMK AO2 SLP217 T01560050 58016
CPS,2017-04-01 20:55,-90.1562,38.5707,M,M,M,70.00,7.00,M,30.17,M,10.00,M,CLR,M,M,M,M,M,M,M,M,KCPS 012055Z AUTO 07007KT 10SM CLR A3017 RMK MADISHF
CPS,2017-04-01 21:00,-90.1562,38.5707,M,M,M,70.00,7.00,M,30.17,M,10.00,M,CLR,M,M,M,M,M,M,M,M,KCPS 012100Z AUTO 07007KT 10SM CLR A3017 RMK MADISHF
CPS,2017-04-01 21:05,-90.1562,38.5707,M,M,M,80.00,7.00,M,30.16,M,10.00,M,CLR,M,M,M,M,M,M,M,M,KCPS 012105Z AUTO 08007KT 10SM CLR A3016 RMK MADISHF
CPS,2017-04-01 21:10,-90.1562,38.5707,M,M,M,70.00,6.00,M,30.16,M,10.00,M,CLR,M,M,M,M,M,M,M,M,KCPS 012110Z AUTO 07006KT 10SM CLR A3016 RMK MADISHF
CPS,2017-04-01 21:20,-90.1562,38.5707,M,M,M,10.00,7.00,M,30.16,M,10.00,M,CLR,M,M,M,M,M,M,M,M,KCPS 012120Z AUTO 01007KT 10SM CLR A3016 RMK MADISHF
CPS,2017-04-01 21:25,-90.1562,38.5707,M,M,M,20.00,5.00,M,30.17,M,10.00,M,CLR,M,M,M,M,M,M,M,M,KCPS 012125Z AUTO 02005KT 10SM CLR A3017 RMK MADISHF
CPS,2017-04-01 21:30,-90.1562,38.5707,M,M,M,60.00,5.00,M,30.16,M,10.00,M,CLR,M,M,M,M,M,M,M,M,KCPS 012130Z AUTO 06005KT 10SM CLR A3016 RMK MADISHF
CPS,2017-04-01 21:35,-90.1562,38.5707,M,M,M,60.00,6.00,M,30.17,M,10.00,M,CLR,M,M,M,M,M,M,M,M,KCPS 012135Z AUTO 06006KT 10SM CLR A3017 RMK VRB06KT  MADISHF
CPS,2017-04-01 21:40,-90.1562,38.5707,M,M,M,40.00,6.00,M,30.17,M,10.00,M,CLR,M,M,M,M,M,M,M,M,KCPS 012140Z AUTO 04006KT 10SM CLR A3017 RMK MADISHF
CPS,2017-04-01 21:45,-90.1562,38.5707,M,M,M,20.00,5.00,M,30.17,M,10.00,M,CLR,M,M,M,M,M,M,M,M,KCPS 012145Z AUTO 02005KT 10SM CLR A3017 RMK VRB05KT  MADISHF
CPS,2017-04-01 21:50,-90.1562,38.5707,M,M,M,40.00,4.00,M,30.17,M,10.00,M,CLR,M,M,M,M,M,M,M,M,KCPS 012150Z AUTO 04004KT 10SM CLR A3017 RMK MADISHF
CPS,2017-04-01 21:53,-90.1562,38.5707,60.10,41.00,49.21,M,4.00,0.00,30.17,1021.60,10.00,M,CLR,M,M,M,M,M,M,M,M,KCPS 012153Z VRB04KT 10SM CLR 16/05 A3017 RMK AO2 SLP216 T01560050
CPS,2017-04-01 21:55,-90.1562,38.5707,M,M,M,50.00,4.00,M,30.17,M,10.00,M,CLR,M,M,M,M,M,M,M,M,KCPS 012155Z AUTO 05004KT 10SM CLR A3017 RMK VRB04KT  MADISHF
CPS,2017-04-01 22:05,-90.1562,38.5707,M,M,M,20.00,6.00,M,30.17,M,10.00,M,FEW,M,M,M,3800.00,M,M,M,M,KCPS 012205Z AUTO 02006KT 10SM FEW038 A3017 RMK VRB06KT  MADISHF
CPS,2017-04-01 22:10,-90.1562,38.5707,M,M,M,30.00,6.00,M,30.17,M,10.00,M,FEW,M,M,M,3800.00,M,M,M,M,KCPS 012210Z AUTO 03006KT 10SM FEW038 A3017 RMK MADISHF
CPS,2017-04-01 22:15,-90.1562,38.5707,M,M,M,50.00,6.00,M,30.17,M,10.00,M,FEW,M,M,M,3800.00,M,M,M,M,KCPS 012215Z AUTO 05006KT 10SM FEW038 A3017 RMK MADISHF
CPS,2017-04-01 22:20,-90.1562,38.5707,M,M,M,50.00,7.00,M,30.16,M,10.00,M,FEW,M,M,M,3800.00,M,M,M,M,KCPS 012220Z AUTO 05007KT 10SM FEW038 A3016 RMK MADISHF
CPS,2017-04-01 22:25,-90.1562,38.5707,M,M,M,0.00,0.00,M,30.16,M,10.00,M,FEW,M,M,M,3900.00,M,M,M,M,KCPS 012225Z AUTO 00000KT 10SM FEW039 A3016 RMK MADISHF
CPS,2017-04-01 22:30,-90.1562,38.5707,M,M,M,60.00,7.00,M,30.16,M,10.00,M,SCT,M,M,M,3900.00,M,M,M,M,KCPS 012230Z AUTO 06007KT 10SM SCT039 A3016 RMK MADISHF
CPS,2017-04-01 22:35,-90.1562,38.5707,M,M,M,110.00,7.00,M,30.16,M,10.00,M,SCT,M,M,M,3900.00,M,M,M,M,KCPS 012235Z AUTO 11007KT 10SM SCT039 A3016 RMK MADISHF
CPS,2017-04-01 22:45,-90.1562,38.5707,M,M,M,50.00,6.00,M,30.15,M,10.00,M,FEW,M,M,M,3800.00,M,M,M,M,KCPS 012245Z AUTO 05006KT 10SM FEW038 A3015 RMK MADISHF
CPS,2017-04-01 22:50,-90.1562,38.5707,M,M,M,90.00,7.00,M,30.16,M,10.00,M,FEW,M,M,M,3800.00,M,M,M,M,KCPS 012250Z AUTO 09007KT 10SM FEW038 A3016 RMK MADISHF
CPS,2017-04-01 22:53,-90.1562,38.5707,57.90,42.10,55.55,100.00,8.00,0.00,30.15,1021.10,10.00,M,FEW,M,M,M,3800.00,M,M,M,M,KCPS 012253Z 10008KT 10SM FEW038 14/06 A3015 RMK AO2 SLP211 T01440056
CPS,2017-04-01 22:55,-90.1562,38.5707,M,M,M,110.00,6.00,M,30.15,M,10.00,M,FEW,M,M,M,3800.00,M,M,M,M,KCPS 012255Z AUTO 11006KT 10SM FEW038 A3015 RMK MADISHF
CPS,2017-04-01 23:00,-90.1562,38.5707,M,M,M,100.00,6.00,M,30.15,M,10.00,M,CLR,M,M,M,M,M,M,M,M,KCPS 012300Z AUTO 10006KT 10SM CLR A3015 RMK MADISHF
CPS,2017-04-01 23:05,-90.1562,38.5707,M,M,M,90.00,8.00,M,30.16,M,10.00,M,CLR,M,M,M,M,M,M,M,M,KCPS 012305Z AUTO 09008KT 10SM CLR A3016 RMK MADISHF
CPS,2017-04-01 23:10,-90.1562,38.5707,M,M,M,80.00,9.00,M,30.16,M,10.00,M,CLR,M,M,M,M,M,M,M,M,KCPS 012310Z AUTO 08009KT 10SM CLR A3016 RMK MADISHF
CPS,2017-04-01 23:15,-90.1562,38.5707,M,M,M,100.00,9.00,M,30.16,M,10.00,M,CLR,M,M,M,M,M,M,M,M,KCPS 012315Z AUTO 10009KT 10SM CLR A3016 RMK MADISHF
CPS,2017-04-01 23:30,-90.1562,38.5707,M,M,M,80.00,7.00,M,30.16,M,10.00,M,CLR,M,M,M,M,M,M,M,M,KCPS 012330Z AUTO 08007KT 10SM CLR A3016 RMK MADISHF
CPS,2017-04-01 23:35,-90.1562,38.5707,M,M,M,80.00,8.00,M,30.16,M,10.00,M,CLR,M,M,M,M,M,M,M,M,KCPS 012335Z AUTO 08008KT 10SM CLR A3016 RMK MADISHF
CPS,2017-04-01 23:40,-90.1562,38.5707,M,M,M,90.00,10.00,M,30.16,M,10.00,M,CLR,M,M,M,M,M,M,M,M,KCPS 012340Z AUTO 09010KT 10SM CLR A3016 RMK MADISHF
CPS,2017-04-01 23:45,-90.1562,38.5707,M,M,M,100.00,10.00,M,30.16,M,10.00,M,CLR,M,M,M,M,M,M,M,M,KCPS 012345Z AUTO 10010KT 10SM CLR A3016 RMK MADISHF
CPS,2017-04-01 23:50,-90.1562,38.5707,M,M,M,90.00,8.00,M,30.16,M,10.00,M,CLR,M,M,M,M,M,M,M,M,KCPS 012350Z AUTO 09008KT 10SM CLR A3016 RMK MADISHF
CPS,2017-04-01 23:53,-90.1562,38.5707,55.00,42.10,61.69,90.00,8.00,0.00,30.15,1021.20,10.00,M,CLR,M,M,M,M,M,M,M,M,KCPS 012353Z 09008KT 10SM CLR 13/06 A3015 RMK AO2 SLP212 T01280056 10156 20128 55005
CPS,2017-04-01 23:55,-90.1562,38.5707,M,M,M,90.00,10.00,M,30.15,M,10.00,M,CLR,M,M,M,M,M,M,M,M,KCPS 012355Z AUTO 09010KT 10SM CLR A3015 RMK MADISHF
