#DEBUG: Format Typ    -> comma
#DEBUG: Time Period   -> 2017-04-01 00:00:00+00:00 2017-04-02 00:00:00+00:00
#DEBUG: Time Zone     -> Etc/UTC
#DEBUG: Data Contact   -> daryl herzmann akrherz@iastate.edu 515-294-5978
#DEBUG: Entries Found -> -1
station,valid,lon,lat,tmpf, dwpf, relh, drct, sknt, p01i, alti, mslp, vsby, gust, skyc1, skyc2, skyc3, skyc4, skyl1, skyl2, skyl3, skyl4, presentwx, metar
CQB,2017-04-01 00:15,-96.8203,35.7238,59.90,47.10,62.56,70.00,10.00,0.00,29.84,M,10.00,M,CLR,M,M,M,M,M,M,M,M,KCQB 010015Z AUTO 07010KT 10SM CLR 16/08 A2984 RMK AO2 T01550084
CQB,2017-04-01 00:35,-96.8203,35.7238,58.80,46.90,64.58,60.00,9.00,0.00,29.85,M,10.00,M,CLR,M,M,M,M,M,M,M,M,KCQB 010035Z AUTO 06009KT 10SM CLR 15/08 A2985 RMK AO2 T01490083
CQB,2017-04-01 00:55,-96.8203,35.7238,57.70,47.10,67.69,60.00,7.00,0.00,29.85,M,10.00,M,CLR,M,M,M,M,M,M,M,M,KCQB 010055Z AUTO 06007KT 10SM CLR 14/08 A2985 RMK AO2 T01430084
CQB,2017-04-01 01:15,-96.8203,35.7238,56.80,47.10,69.92,50.00,7.00,0.00,29.86,M,10.00,M,CLR,M,M,M,M,M,M,M,M,KCQB 010115Z AUTO 05007KT 10SM CLR 14/08 A2986 RMK AO2 T01380084
CQB,2017-04-01 01:35,-96.8203,35.7238,56.30,47.10,71.20,40.00,8.00,0.00,29.86,M,10.00,M,CLR,M,M,M,M,M,M,M,M,KCQB 010135Z AUTO 04008KT 10SM CLR 13/08 A2986 RMK AO2 T01350084
CQB,2017-04-01 01:55,-96.8203,35.7238,55.20,46.90,73.54,40.00,8.00,0.00,29.87,M,10.00,M,CLR,M,M,M,M,M,M,M,M,KCQB 010155Z AUTO 04008KT 10SM CLR 13/08 A2987 RMK AO2 T01290083
CQB,2017-04-01 02:15,-96.8203,35.7238,54.50,46.80,75.15,30.00,7.00,0.00,29.89,M,10.00,M,CLR,M,M,M,M,M,M,M,M,KCQB 010215Z AUTO 03007KT 10SM CLR 12/08 A2989 RMK AO2 T01250082
CQB,2017-04-01 02:35,-96.8203,35.7238,53.80,46.90,77.39,30.00,8.00,0.00,29.90,M,10.00,M,CLR,M,M,M,M,M,M,M,M,KCQB 010235Z AUTO 03008KT 10SM CLR 12/08 A2990 RMK AO2 T01210083
CQB,2017-04-01 02:55,-96.8203,35.7238,53.60,46.40,76.50,30.00,8.00,0.00,29.91,M,10.00,14.00,CLR,M,M,M,M,M,M,M,M,KCQB 010255Z AUTO 03008G14KT 10SM CLR 12/08 A2991 RMK AO2
CQB,2017-04-01 03:15,-96.8203,35.7238,52.50,46.60,80.26,40.00,8.00,0.00,29.92,M,10.00,M,CLR,M,M,M,M,M,M,M,M,KCQB 010315Z AUTO 04008KT 010V070 10SM CLR 11/08 A2992 RMK AO2 T01140081
CQB,2017-04-01 03:35,-96.8203,35.7238,52.20,46.60,81.15,30.00,7.00,0.00,29.92,M,10.00,M,CLR,M,M,M,M,M,M,M,M,KCQB 010335Z AUTO 03007KT 10SM CLR 11/08 A2992 RMK AO2 T01120081
CQB,2017-04-01 03:55,-96.8203,35.7238,51.60,46.60,82.97,40.00,8.00,0.00,29.93,M,10.00,M,CLR,M,M,M,M,M,M,M,M,KCQB 010355Z AUTO 04008KT 10SM CLR 11/08 A2993 RMK AO2 T01090081
CQB,2017-04-01 04:15,-96.8203,35.7238,51.30,46.40,83.26,30.00,8.00,0.00,29.93,M,10.00,M,CLR,M,M,M,M,M,M,M,M,KCQB 010415Z AUTO 03008KT 10SM CLR 11/08 A2993 RMK AO2 T01070080
CQB,2017-04-01 04:35,-96.8203,35.7238,51.10,46.20,83.25,30.00,8.00,0.00,29.93,M,10.00,M,CLR,M,M,M,M,M,M,M,M,KCQB 010435Z AUTO 03008KT 10SM CLR 11/08 A2993 RMK AO2 T01060079
CQB,2017-04-01 04:55,-96.8203,35.7238,50.90,46.00,83.23,30.00,8.00,0.00,29.93,M,10.00,M,CLR,M,M,M,M,M,M,M,M,KCQB 010455Z AUTO 03008KT 10SM CLR 10/08 A2993 RMK AO2 T01050078
CQB,2017-04-01 05:15,-96.8203,35.7238,50.70,46.00,83.85,30.00,10.00,0.00,29.93,M,10.00,M,CLR,M,M,M,M,M,M,M,M,KCQB 010515Z AUTO 03010KT 10SM CLR 10/08 A2993 RMK AO2 T01040078
CQB,2017-04-01 05:35,-96.8203,35.7238,50.70,45.90,83.54,30.00,8.00,0.00,29.93,M,10.00,M,CLR,M,M,M,M,M,M,M,M,KCQB 010535Z AUTO 03008KT 10SM CLR 10/08 A2993 RMK AO2 T01040077
CQB,2017-04-01 05:55,-96.8203,35.7238,50.70,45.70,82.91,40.00,11.00,0.00,29.93,M,10.00,M,CLR,M,M,M,M,M,M,M,M,KCQB 010555Z AUTO 04011KT 10SM CLR 10/08 A2993 RMK AO2 T01040076 10160 20103
CQB,2017-04-01 06:15,-96.8203,35.7238,50.50,45.70,83.52,50.00,8.00,0.00,29.93,M,10.00,14.00,CLR,M,M,M,M,M,M,M,M,KCQB 010615Z AUTO 05008G14KT 10SM CLR 10/08 A2993 RMK AO2 T01030076
CQB,2017-04-01 06:35,-96.8203,35.7238,50.20,45.70,84.46,50.00,9.00,0.00,29.93,M,10.00,15.00,CLR,M,M,M,M,M,M,M,M,KCQB 010635Z AUTO 05009G15KT 10SM CLR 10/08 A2993 RMK AO2 LTG DSNT W T01010076
CQB,2017-04-01 06:55,-96.8203,35.7238,49.60,45.70,86.37,60.00,13.00,0.00,29.92,M,10.00,18.00,CLR,M,M,M,M,M,M,M,M,KCQB 010655Z AUTO 06013G18KT 10SM CLR 10/08 A2992 RMK AO2 T00980076
CQB,2017-04-01 07:15,-96.8203,35.7238,48.90,45.30,87.32,60.00,11.00,0.00,29.92,M,10.00,M,CLR,M,M,M,M,M,M,M,M,KCQB 010715Z AUTO 06011KT 10SM CLR 09/07 A2992 RMK AO2 T00940074
CQB,2017-04-01 07:35,-96.8203,35.7238,48.70,45.30,87.97,60.00,11.00,0.00,29.92,M,10.00,M,CLR,M,M,M,M,M,M,M,M,KCQB 010735Z AUTO 06011KT 10SM CLR 09/07 A2992 RMK AO2 T00930074
CQB,2017-04-01 07:55,-96.8203,35.7238,48.60,45.10,87.63,60.00,10.00,0.00,29.92,M,10.00,16.00,CLR,M,M,M,M,M,M,M,M,KCQB 010755Z AUTO 06010G16KT 10SM CLR 09/07 A2992 RMK AO2 T00920073
CQB,2017-04-01 08:15,-96.8203,35.7238,48.20,44.80,87.95,60.00,10.00,0.00,29.92,M,10.00,M,CLR,M,M,M,M,M,M,M,M,KCQB 010815Z AUTO 06010KT 10SM CLR 09/07 A2992 RMK AO2 T00900071
CQB,2017-04-01 08:35,-96.8203,35.7238,47.70,44.60,88.93,50.00,7.00,0.00,29.93,M,10.00,M,CLR,M,M,M,M,M,M,M,M,KCQB 010835Z AUTO 05007KT 10SM CLR 09/07 A2993 RMK AO2 LTG DSNT N T00870070
CQB,2017-04-01 08:55,-96.8203,35.7238,47.30,44.40,89.60,50.00,9.00,0.00,29.93,M,10.00,M,CLR,M,M,M,M,M,M,M,M,KCQB 010855Z AUTO 05009KT 10SM CLR 08/07 A2993 RMK AO2 LTG DSNT NW T00850069
CQB,2017-04-01 09:15,-96.8203,35.7238,46.90,44.20,90.26,50.00,7.00,0.00,29.94,M,10.00,M,CLR,M,M,M,M,M,M,M,M,KCQB 010915Z AUTO 05007KT 10SM CLR 08/07 A2994 RMK AO2 T00830068
CQB,2017-04-01 09:35,-96.8203,35.7238,46.80,44.10,90.26,50.00,8.00,0.00,29.94,M,10.00,M,CLR,M,M,M,M,M,M,M,M,KCQB 010935Z AUTO 05008KT 10SM CLR 08/07 A2994 RMK AO2 T00820067
CQB,2017-04-01 09:55,-96.8203,35.7238,46.40,43.90,90.94,40.00,8.00,0.00,29.95,M,10.00,M,CLR,M,M,M,M,M,M,M,M,KCQB 010955Z AUTO 04008KT 10SM CLR 08/07 A2995 RMK AO2 T00800066
CQB,2017-04-01 10:15,-96.8203,35.7238,46.20,43.90,91.63,40.00,5.00,0.00,29.95,M,10.00,M,CLR,M,M,M,M,M,M,M,M,KCQB 011015Z AUTO 04005KT 10SM CLR 08/07 A2995 RMK AO2 T00790066
CQB,2017-04-01 10:35,-96.8203,35.7238,46.00,43.70,91.62,40.00,6.00,0.00,29.97,M,10.00,M,CLR,M,M,M,M,M,M,M,M,KCQB 011035Z AUTO 04006KT 10SM CLR 08/06 A2997 RMK AO2 T00780065
CQB,2017-04-01 10:55,-96.8203,35.7238,45.70,43.50,91.96,20.00,5.00,0.00,29.98,M,7.00,M,CLR,M,M,M,M,M,M,M,M,KCQB 011055Z AUTO 02005KT 7SM CLR 08/06 A2998 RMK AO2 T00760064
CQB,2017-04-01 11:15,-96.8203,35.7238,45.10,43.20,93.00,10.00,4.00,0.00,29.99,M,7.00,M,CLR,M,M,M,M,M,M,M,M,KCQB 011115Z AUTO 01004KT 7SM CLR 07/06 A2999 RMK AO2 T00730062
CQB,2017-04-01 11:35,-96.8203,35.7238,44.80,43.20,94.07,20.00,4.00,0.00,29.99,M,7.00,M,CLR,M,M,M,M,M,M,M,M,KCQB 011135Z AUTO 02004KT 7SM CLR 07/06 A2999 RMK AO2 T00710062
CQB,2017-04-01 11:55,-96.8203,35.7238,44.20,43.00,95.51,20.00,5.00,0.00,30.00,M,7.00,M,CLR,M,M,M,M,M,M,M,BR,KCQB 011155Z AUTO 02005KT 7SM BR CLR 07/06 A3000 RMK AO2 T00680061 10104 20068
CQB,2017-04-01 12:15,-96.8203,35.7238,43.90,42.80,95.87,40.00,5.00,0.00,30.00,M,7.00,M,CLR,M,M,M,M,M,M,M,M,KCQB 011215Z AUTO 04005KT 7SM CLR 07/06 A3000 RMK AO2 T00660060
CQB,2017-04-01 12:35,-96.8203,35.7238,44.10,43.00,95.88,40.00,6.00,0.00,30.01,M,7.00,M,CLR,M,M,M,M,M,M,M,M,KCQB 011235Z AUTO 04006KT 7SM CLR 07/06 A3001 RMK AO2 T00670061
CQB,2017-04-01 12:55,-96.8203,35.7238,45.00,43.30,93.72,40.00,6.00,0.00,30.01,M,10.00,M,CLR,M,M,M,M,M,M,M,M,KCQB 011255Z AUTO 04006KT 10SM CLR 07/06 A3001 RMK AO2 LTG DSNT NW T00720063
CQB,2017-04-01 13:15,-96.8203,35.7238,46.40,44.10,91.63,60.00,11.00,0.00,30.01,M,10.00,M,CLR,M,M,M,M,M,M,M,M,KCQB 011315Z AUTO 06011KT 10SM CLR 08/07 A3001 RMK AO2 T00800067
CQB,2017-04-01 13:35,-96.8203,35.7238,48.20,45.00,88.62,60.00,10.00,0.00,30.00,M,10.00,M,CLR,M,M,M,M,M,M,M,M,KCQB 011335Z AUTO 06010KT 10SM CLR 09/07 A3000 RMK AO2 T00900072
CQB,2017-04-01 13:55,-96.8203,35.7238,50.40,46.00,84.79,70.00,13.00,0.00,30.00,M,10.00,M,CLR,M,M,M,M,M,M,M,M,KCQB 011355Z AUTO 07013KT 10SM CLR 10/08 A3000 RMK AO2 T01020078
CQB,2017-04-01 14:15,-96.8203,35.7238,52.70,46.90,80.58,80.00,12.00,0.00,30.00,M,10.00,M,CLR,M,M,M,M,M,M,M,M,KCQB 011415Z AUTO 08012KT 10SM CLR 12/08 A3000 RMK AO2 T01150083
CQB,2017-04-01 14:35,-96.8203,35.7238,54.30,47.50,77.73,90.00,13.00,0.00,30.00,M,10.00,19.00,CLR,M,M,M,M,M,M,M,M,KCQB 011435Z AUTO 09013G19KT 10SM CLR 12/09 A3000 RMK AO2 T01240086
CQB,2017-04-01 14:55,-96.8203,35.7238,55.90,48.00,74.72,90.00,13.00,0.00,30.01,M,10.00,M,CLR,M,M,M,M,M,M,M,M,KCQB 011455Z AUTO 09013KT 10SM CLR 13/09 A3001 RMK AO2 T01330089
CQB,2017-04-01 15:15,-96.8203,35.7238,58.30,48.90,70.88,100.00,12.00,0.00,30.01,M,10.00,M,SCT,M,M,M,9000.00,M,M,M,M,KCQB 011515Z AUTO 10012KT 10SM SCT090 15/09 A3001 RMK AO2 T01460094
CQB,2017-04-01 15:35,-96.8203,35.7238,59.90,49.50,68.45,80.00,13.00,0.00,30.01,M,10.00,M,BKN,M,M,M,9000.00,M,M,M,M,KCQB 011535Z AUTO 08013KT 10SM BKN090 15/10 A3001 RMK AO2 T01550097
CQB,2017-04-01 15:55,-96.8203,35.7238,61.30,50.00,66.35,90.00,13.00,0.00,30.01,M,10.00,M,BKN,M,M,M,9000.00,M,M,M,M,KCQB 011555Z AUTO 09013KT 10SM BKN090 16/10 A3001 RMK AO2 T01630100
CQB,2017-04-01 16:15,-96.8203,35.7238,63.10,50.70,63.91,110.00,11.00,0.00,30.00,M,10.00,M,SCT,M,M,M,9000.00,M,M,M,M,KCQB 011615Z AUTO 11011KT 10SM SCT090 17/10 A3000 RMK AO2 T01730104
CQB,2017-04-01 16:35,-96.8203,35.7238,64.80,51.40,61.80,110.00,11.00,0.00,29.99,M,10.00,M,SCT,M,M,M,200.00,M,M,M,M,KCQB 011635Z AUTO 11011KT 10SM SCT002 18/11 A2999 RMK AO2 T01820108
CQB,2017-04-01 16:55,-96.8203,35.7238,66.60,51.10,57.41,100.00,14.00,0.00,29.98,M,M,M,SCT,M,M,M,200.00,M,M,M,M,KCQB 011655Z AUTO 10014KT SCT002 19/11 A2998 RMK AO2 T01920106
CQB,2017-04-01 17:15,-96.8203,35.7238,68.90,52.20,55.23,110.00,10.00,0.00,29.97,M,10.00,17.00,CLR,M,M,M,M,M,M,M,M,KCQB 011715Z AUTO 11010G17KT 10SM CLR 20/11 A2997 RMK AO2 T02050112
CQB,2017-04-01 17:35,-96.8203,35.7238,70.70,51.60,50.80,110.00,12.00,0.00,29.96,M,10.00,18.00,CLR,M,M,M,M,M,M,M,M,KCQB 011735Z AUTO 11012G18KT 10SM CLR 22/11 A2996 RMK AO2 T02150109
CQB,2017-04-01 17:55,-96.8203,35.7238,72.90,50.50,45.27,130.00,17.00,0.00,29.95,M,10.00,21.00,CLR,M,M,M,M,M,M,M,M,KCQB 011755Z AUTO 13017G21KT 10SM CLR 23/10 A2995 RMK AO2 T02270103 10229 20065
CQB,2017-04-01 18:15,-96.8203,35.7238,74.80,50.90,43.11,130.00,14.00,0.00,29.94,M,10.00,20.00,CLR,M,M,M,M,M,M,M,M,KCQB 011815Z AUTO 13014G20KT 10SM CLR 24/11 A2994 RMK AO2 T02380105
CQB,2017-04-01 18:35,-96.8203,35.7238,76.30,50.70,40.70,130.00,13.00,0.00,29.94,M,10.00,22.00,CLR,M,M,M,M,M,M,M,M,KCQB 011835Z AUTO 13013G22KT 10SM CLR 25/10 A2994 RMK AO2 T02460104
CQB,2017-04-01 18:55,-96.8203,35.7238,74.70,51.30,43.90,130.00,12.00,0.00,29.94,M,10.00,17.00,BKN,M,M,M,9000.00,M,M,M,M,KCQB 011855Z AUTO 13012G17KT 10SM BKN090 24/11 A2994 RMK AO2 T02370107
CQB,2017-04-01 19:15,-96.8203,35.7238,76.60,50.70,40.30,150.00,13.00,0.00,29.93,M,10.00,19.00,BKN,M,M,M,9000.00,M,M,M,M,KCQB 011915Z AUTO 15013G19KT 10SM BKN090 25/10 A2993 RMK AO2 T02480104
CQB,2017-04-01 19:35,-96.8203,35.7238,77.90,49.30,36.64,140.00,11.00,0.00,29.91,M,10.00,19.00,SCT,SCT,M,M,7000.00,9000.00,M,M,M,KCQB 011935Z AUTO 14011G19KT 10SM SCT070 SCT090 25/10 A2991 RMK AO2 T02550096
CQB,2017-04-01 19:55,-96.8203,35.7238,76.30,45.10,32.98,170.00,12.00,0.00,29.91,M,10.00,21.00,SCT,BKN,M,M,7000.00,10000.00,M,M,M,KCQB 011955Z AUTO 17012G21KT 10SM SCT070 BKN100 25/07 A2991 RMK AO2 LTG DSNT W AND NW T02460073
CQB,2017-04-01 20:15,-96.8203,35.7238,76.60,45.30,32.90,160.00,11.00,0.00,29.90,M,10.00,18.00,OVC,M,M,M,10000.00,M,M,M,M,KCQB 012015Z AUTO 16011G18KT 10SM OVC100 25/07 A2990 RMK AO2 LTG DSNT W AND NW T02480074
CQB,2017-04-01 20:35,-96.8203,35.7238,79.20,45.70,30.66,160.00,13.00,0.00,29.89,M,10.00,19.00,BKN,M,M,M,9000.00,M,M,M,M,KCQB 012035Z AUTO 16013G19KT 10SM BKN090 26/08 A2989 RMK AO2 LTG DSNT W AND NW T02620076
CQB,2017-04-01 20:55,-96.8203,35.7238,76.50,45.10,32.76,160.00,9.00,0.00,29.89,M,10.00,M,OVC,M,M,M,9000.00,M,M,M,M,KCQB 012055Z AUTO 16009KT 10SM OVC090 25/07 A2989 RMK AO2 LTG DSNT W AND NW T02470073
CQB,2017-04-01 21:15,-96.8203,35.7238,76.50,45.70,33.52,150.00,9.00,0.00,29.89,M,10.00,15.00,OVC,M,M,M,9000.00,M,M,M,M,KCQB 012115Z AUTO 15009G15KT 10SM OVC090 25/08 A2989 RMK AO2 T02470076
CQB,2017-04-01 21:35,-96.8203,35.7238,76.30,45.90,34.00,170.00,7.00,0.00,29.90,M,10.00,M,OVC,M,M,M,10000.00,M,M,M,M,KCQB 012135Z AUTO 17007KT 10SM OVC100 25/08 A2990 RMK AO2 LTG DSNT SW AND W T02460077
CQB,2017-04-01 21:55,-96.8203,35.7238,75.70,46.90,36.02,160.00,6.00,0.00,29.89,M,10.00,M,OVC,M,M,M,10000.00,M,M,M,M,KCQB 012155Z AUTO 16006KT 10SM OVC100 24/08 A2989 RMK AO2 LTG DSNT SW T02430083
CQB,2017-04-01 22:15,-96.8203,35.7238,74.30,48.60,40.24,190.00,6.00,0.00,29.90,M,10.00,M,OVC,M,M,M,10000.00,M,M,M,VCTS,KCQB 012215Z AUTO 19006KT 10SM VCTS OVC100 24/09 A2990 RMK AO2 LTG DSNT SW AND W T02350092
CQB,2017-04-01 22:35,-96.8203,35.7238,73.20,48.70,41.91,190.00,6.00,0.00,29.89,M,10.00,M,OVC,M,M,M,11000.00,M,M,M,M,KCQB 012235Z AUTO 19006KT 10SM OVC110 23/09 A2989 RMK AO2 LTG DSNT S AND NW T02290093
CQB,2017-04-01 22:55,-96.8203,35.7238,71.60,49.30,45.24,190.00,4.00,0.00,29.92,M,10.00,M,OVC,M,M,M,11000.00,M,M,M,M,KCQB 012255Z AUTO 19004KT 10SM OVC110 22/10 A2992 RMK AO2 LTG DSNT S AND SW T02200096
CQB,2017-04-01 23:15,-96.8203,35.7238,70.30,50.00,48.53,170.00,3.00,0.00,29.92,M,10.00,M,OVC,M,M,M,11000.00,M,M,M,M,KCQB 012315Z AUTO 17003KT 10SM OVC110 21/10 A2992 RMK AO2 T02130100
CQB,2017-04-01 23:35,-96.8203,35.7238,69.60,49.60,48.97,0.00,0.00,0.00,29.93,M,7.00,M,SCT,BKN,OVC,M,7000.00,10000.00,12000.00,M,HZ,KCQB 012335Z AUTO 00000KT 7SM HZ SCT070 BKN100 OVC120 21/10 A2993 RMK AO2 LTG DSNT S AND SW T02090098
CQB,2017-04-01 23:55,-96.8203,35.7238,68.40,52.30,56.40,130.00,5.00,0.00,29.93,M,5.00,M,SCT,OVC,M,M,7000.00,9000.00,M,M,-RA,KCQB 012355Z AUTO 13005KT 5SM -RA SCT070 OVC090 20/11 A2993 RMK AO2 LTG DSNT S AND NW T02020113 10266 20198 402660065
