#DEBUG: Format Typ    -> comma
#DEBUG: Time Period   -> 2017-04-01 00:00:00+00:00 2017-04-02 00:00:00+00:00
#DEBUG: Time Zone     -> Etc/UTC
#DEBUG: Data Contact   -> daryl herzmann akrherz@iastate.edu 515-294-5978
#DEBUG: Entries Found -> -1
station,valid,lon,lat,tmpf, dwpf, relh, drct, sknt, p01i, alti, mslp, vsby, gust, skyc1, skyc2, skyc3, skyc4, skyl1, skyl2, skyl3, skyl4, presentwx, metar
CSV,2017-04-01 00:00,-85.0850,35.9513,M,M,M,290.00,9.00,M,29.91,M,10.00,M,OVC,M,M,M,2300.00,M,M,M,M,KCSV 010000Z AUTO 29009KT 10SM OVC023 A2991 RMK MADISHF
CSV,2017-04-01 00:05,-85.0850,35.9513,M,M,M,280.00,9.00,M,29.91,M,10.00,M,BKN,OVC,M,M,2300.00,3100.00,M,M,M,KCSV 010005Z AUTO 28009KT 10SM BKN023 OVC031 A2991 RMK MADISHF
CSV,2017-04-01 00:10,-85.0850,35.9513,M,M,M,300.00,6.00,M,29.91,M,10.00,M,BKN,OVC,M,M,2300.00,3100.00,M,M,M,KCSV 010010Z AUTO 30006KT 10SM BKN023 OVC031 A2991 RMK MADISHF
CSV,2017-04-01 00:15,-85.0850,35.9513,M,M,M,310.00,7.00,M,29.92,M,10.00,M,BKN,OVC,M,M,2300.00,3100.00,M,M,M,KCSV 010015Z AUTO 31007KT 10SM BKN023 OVC031 A2992 RMK MADISHF
CSV,2017-04-01 00:20,-85.0850,35.9513,M,M,M,310.00,9.00,M,29.92,M,10.00,M,BKN,OVC,M,M,2300.00,3100.00,M,M,M,KCSV 010020Z AUTO 31009KT 10SM BKN023 OVC031 A2992 RMK MADISHF
CSV,2017-04-01 00:25,-85.0850,35.9513,M,M,M,290.00,9.00,M,29.92,M,10.00,M,BKN,OVC,M,M,2400.00,3000.00,M,M,M,KCSV 010025Z AUTO 29009KT 10SM BKN024 OVC030 A2992 RMK MADISHF
CSV,2017-04-01 00:30,-85.0850,35.9513,M,M,M,300.00,8.00,M,29.92,M,10.00,M,OVC,M,M,M,2400.00,M,M,M,M,KCSV 010030Z AUTO 30008KT 10SM OVC024 A2992 RMK MADISHF
CSV,2017-04-01 00:35,-85.0850,35.9513,M,M,M,290.00,7.00,M,29.92,M,10.00,M,OVC,M,M,M,2400.00,M,M,M,M,KCSV 010035Z AUTO 29007KT 10SM OVC024 A2992 RMK MADISHF
CSV,2017-04-01 00:40,-85.0850,35.9513,M,M,M,290.00,7.00,M,29.93,M,10.00,M,OVC,M,M,M,2500.00,M,M,M,M,KCSV 010040Z AUTO 29007KT 10SM OVC025 A2993 RMK MADISHF
CSV,2017-04-01 00:45,-85.0850,35.9513,M,M,M,280.00,7.00,M,29.93,M,10.00,M,OVC,M,M,M,2500.00,M,M,M,M,KCSV 010045Z AUTO 28007KT 10SM OVC025 A2993 RMK MADISHF
CSV,2017-04-01 00:50,-85.0850,35.9513,M,M,M,290.00,8.00,M,29.93,M,10.00,M,OVC,M,M,M,2400.00,M,M,M,M,KCSV 010050Z AUTO 29008KT 10SM OVC024 A2993 RMK MADISHF
CSV,2017-04-01 00:53,-85.0850,35.9513,52.00,45.00,76.94,300.00,8.00,0.00,29.93,1013.10,10.00,M,OVC,M,M,M,2400.00,M,M,M,M,KCSV 010053Z AUTO 30008KT 10SM OVC024 11/07 A2993 RMK AO2 SLP131 T01110072
CSV,2017-04-01 00:55,-85.0850,35.9513,M,M,M,290.00,7.00,M,29.93,M,10.00,M,OVC,M,M,M,2400.00,M,M,M,M,KCSV 010055Z AUTO 29007KT 10SM OVC024 A2993 RMK MADISHF
CSV,2017-04-01 01:00,-85.0850,35.9513,M,M,M,290.00,8.00,M,29.93,M,10.00,M,OVC,M,M,M,2200.00,M,M,M,M,KCSV 010100Z AUTO 29008KT 10SM OVC022 A2993 RMK MADISHF
CSV,2017-04-01 01:05,-85.0850,35.9513,M,M,M,290.00,6.00,M,29.93,M,10.00,M,OVC,M,M,M,2200.00,M,M,M,M,KCSV 010105Z AUTO 29006KT 10SM OVC022 A2993 RMK MADISHF
CSV,2017-04-01 01:10,-85.0850,35.9513,M,M,M,280.00,9.00,M,29.94,M,10.00,M,OVC,M,M,M,2200.00,M,M,M,M,KCSV 010110Z AUTO 28009KT 10SM OVC022 A2994 RMK MADISHF
CSV,2017-04-01 01:15,-85.0850,35.9513,M,M,M,M,M,M,29.94,M,10.00,M,OVC,M,M,M,2200.00,M,M,M,M,KCSV 010115Z AUTO /////KT 10SM OVC022 A2994 RMK MADISHF
CSV,2017-04-01 01:20,-85.0850,35.9513,M,M,M,300.00,9.00,M,29.93,M,10.00,M,OVC,M,M,M,2200.00,M,M,M,M,KCSV 010120Z AUTO 30009KT 10SM OVC022 A2993 RMK MADISHF
CSV,2017-04-01 01:25,-85.0850,35.9513,M,M,M,290.00,11.00,M,29.94,M,10.00,M,OVC,M,M,M,2400.00,M,M,M,M,KCSV 010125Z AUTO 29011KT 10SM OVC024 A2994 RMK MADISHF
CSV,2017-04-01 01:30,-85.0850,35.9513,M,M,M,300.00,13.00,M,29.94,M,10.00,M,OVC,M,M,M,2400.00,M,M,M,M,KCSV 010130Z AUTO 30013KT 10SM OVC024 A2994 RMK MADISHF
CSV,2017-04-01 01:35,-85.0850,35.9513,M,M,M,300.00,8.00,M,29.94,M,10.00,M,OVC,M,M,M,2200.00,M,M,M,M,KCSV 010135Z AUTO 30008KT 10SM OVC022 A2994 RMK MADISHF
CSV,2017-04-01 01:40,-85.0850,35.9513,M,M,M,300.00,7.00,M,29.94,M,10.00,M,BKN,OVC,M,M,2400.00,3000.00,M,M,M,KCSV 010140Z AUTO 30007KT 10SM BKN024 OVC030 A2994 RMK MADISHF
CSV,2017-04-01 01:45,-85.0850,35.9513,M,M,M,300.00,9.00,M,29.94,M,10.00,M,BKN,OVC,M,M,2200.00,2800.00,M,M,M,KCSV 010145Z AUTO 30009KT 10SM BKN022 OVC028 A2994 RMK MADISHF
CSV,2017-04-01 01:50,-85.0850,35.9513,M,M,M,300.00,7.00,M,29.94,M,10.00,M,SCT,OVC,M,M,2100.00,2800.00,M,M,M,KCSV 010150Z AUTO 30007KT 10SM SCT021 OVC028 A2994 RMK MADISHF
CSV,2017-04-01 01:53,-85.0850,35.9513,52.00,45.00,76.94,310.00,5.00,0.00,29.94,1013.50,10.00,M,FEW,OVC,M,M,1900.00,2800.00,M,M,M,KCSV 010153Z AUTO 31005KT 10SM FEW019 OVC028 11/07 A2994 RMK AO2 SLP135 T01110072
CSV,2017-04-01 01:55,-85.0850,35.9513,M,M,M,310.00,5.00,M,29.94,M,10.00,M,FEW,OVC,M,M,1900.00,2800.00,M,M,M,KCSV 010155Z AUTO 31005KT 10SM FEW019 OVC028 A2994 RMK MADISHF
CSV,2017-04-01 02:00,-85.0850,35.9513,M,M,M,310.00,7.00,M,29.94,M,10.00,M,FEW,OVC,M,M,1900.00,2800.00,M,M,M,KCSV 010200Z AUTO 31007KT 10SM FEW019 OVC028 A2994 RMK MADISHF
CSV,2017-04-01 02:05,-85.0850,35.9513,M,M,M,290.00,8.00,M,29.95,M,10.00,M,OVC,M,M,M,2800.00,M,M,M,M,KCSV 010205Z AUTO 29008KT 10SM OVC028 A2995 RMK MADISHF
CSV,2017-04-01 02:10,-85.0850,35.9513,M,M,M,270.00,6.00,M,29.95,M,10.00,M,OVC,M,M,M,2800.00,M,M,M,M,KCSV 010210Z AUTO 27006KT 10SM OVC028 A2995 RMK MADISHF
CSV,2017-04-01 02:15,-85.0850,35.9513,M,M,M,280.00,6.00,M,29.95,M,10.00,M,BKN,OVC,M,M,2600.00,3100.00,M,M,M,KCSV 010215Z AUTO 28006KT 10SM BKN026 OVC031 A2995 RMK MADISHF
CSV,2017-04-01 02:20,-85.0850,35.9513,M,M,M,290.00,7.00,M,29.96,M,10.00,M,OVC,M,M,M,2600.00,M,M,M,M,KCSV 010220Z AUTO 29007KT 10SM OVC026 A2996 RMK MADISHF
CSV,2017-04-01 02:25,-85.0850,35.9513,M,M,M,300.00,4.00,M,29.96,M,10.00,M,OVC,M,M,M,2400.00,M,M,M,M,KCSV 010225Z AUTO 30004KT 10SM OVC024 A2996 RMK MADISHF
CSV,2017-04-01 02:30,-85.0850,35.9513,M,M,M,300.00,7.00,M,29.96,M,10.00,M,OVC,M,M,M,2400.00,M,M,M,M,KCSV 010230Z AUTO 30007KT 10SM OVC024 A2996 RMK MADISHF
CSV,2017-04-01 02:35,-85.0850,35.9513,M,M,M,310.00,6.00,M,29.96,M,10.00,M,OVC,M,M,M,2400.00,M,M,M,M,KCSV 010235Z AUTO 31006KT 10SM OVC024 A2996 RMK MADISHF
CSV,2017-04-01 02:40,-85.0850,35.9513,M,M,M,300.00,8.00,M,29.96,M,10.00,M,OVC,M,M,M,2400.00,M,M,M,M,KCSV 010240Z AUTO 30008KT 10SM OVC024 A2996 RMK MADISHF
CSV,2017-04-01 02:45,-85.0850,35.9513,M,M,M,300.00,7.00,M,29.97,M,10.00,M,OVC,M,M,M,2200.00,M,M,M,M,KCSV 010245Z AUTO 30007KT 10SM OVC022 A2997 RMK MADISHF
CSV,2017-04-01 02:50,-85.0850,35.9513,M,M,M,310.00,9.00,M,29.97,M,10.00,M,OVC,M,M,M,2200.00,M,M,M,M,KCSV 010250Z AUTO 31009KT 10SM OVC022 A2997 RMK MADISHF
CSV,2017-04-01 02:53,-85.0850,35.9513,51.10,45.00,79.54,310.00,9.00,0.00,29.97,1014.30,10.00,M,OVC,M,M,M,2300.00,M,M,M,M,KCSV 010253Z AUTO 31009KT 10SM OVC023 11/07 A2997 RMK AO2 SLP143 T01060072 51020
CSV,2017-04-01 02:55,-85.0850,35.9513,M,M,M,310.00,6.00,M,29.97,M,10.00,M,OVC,M,M,M,2300.00,M,M,M,M,KCSV 010255Z AUTO 31006KT 10SM OVC023 A2997 RMK MADISHF
CSV,2017-04-01 03:00,-85.0850,35.9513,M,M,M,300.00,8.00,M,29.97,M,10.00,M,OVC,M,M,M,2300.00,M,M,M,M,KCSV 010300Z AUTO 30008KT 10SM OVC023 A2997 RMK MADISHF
CSV,2017-04-01 03:05,-85.0850,35.9513,M,M,M,300.00,8.00,M,29.97,M,10.00,M,SCT,OVC,M,M,1800.00,2300.00,M,M,M,KCSV 010305Z AUTO 30008KT 10SM SCT018 OVC023 A2997 RMK MADISHF
CSV,2017-04-01 03:10,-85.0850,35.9513,M,M,M,300.00,6.00,M,29.97,M,10.00,M,BKN,OVC,M,M,1600.00,2300.00,M,M,M,KCSV 010310Z AUTO 30006KT 10SM BKN016 OVC023 A2997 RMK MADISHF
CSV,2017-04-01 03:15,-85.0850,35.9513,M,M,M,300.00,8.00,M,29.97,M,10.00,M,BKN,OVC,M,M,1800.00,2300.00,M,M,M,KCSV 010315Z AUTO 30008KT 10SM BKN018 OVC023 A2997 RMK MADISHF
CSV,2017-04-01 03:20,-85.0850,35.9513,M,M,M,300.00,9.00,M,29.97,M,10.00,M,BKN,OVC,M,M,1800.00,2300.00,M,M,M,KCSV 010320Z AUTO 30009KT 10SM BKN018 OVC023 A2997 RMK MADISHF
CSV,2017-04-01 03:25,-85.0850,35.9513,M,M,M,310.00,6.00,M,29.97,M,10.00,M,OVC,M,M,M,1999.00,M,M,M,M,KCSV 010325Z AUTO 31006KT 10SM OVC019 A2997 RMK MADISHF
CSV,2017-04-01 03:30,-85.0850,35.9513,M,M,M,300.00,8.00,M,29.98,M,10.00,M,OVC,M,M,M,1999.00,M,M,M,M,KCSV 010330Z AUTO 30008KT 10SM OVC019 A2998 RMK MADISHF
CSV,2017-04-01 03:35,-85.0850,35.9513,M,M,M,300.00,7.00,M,29.98,M,10.00,M,OVC,M,M,M,1999.00,M,M,M,M,KCSV 010335Z AUTO 30007KT 10SM OVC019 A2998 RMK MADISHF
CSV,2017-04-01 03:40,-85.0850,35.9513,M,M,M,310.00,7.00,M,29.98,M,10.00,M,OVC,M,M,M,1999.00,M,M,M,M,KCSV 010340Z AUTO 31007KT 10SM OVC019 A2998 RMK MADISHF
CSV,2017-04-01 03:45,-85.0850,35.9513,M,M,M,310.00,8.00,M,29.98,M,10.00,M,OVC,M,M,M,2100.00,M,M,M,M,KCSV 010345Z AUTO 31008KT 10SM OVC021 A2998 RMK MADISHF
CSV,2017-04-01 03:50,-85.0850,35.9513,M,M,M,290.00,9.00,M,29.98,M,10.00,M,OVC,M,M,M,2100.00,M,M,M,M,KCSV 010350Z AUTO 29009KT 10SM OVC021 A2998 RMK MADISHF
CSV,2017-04-01 03:53,-85.0850,35.9513,50.00,44.10,80.06,310.00,8.00,0.00,29.98,1014.80,10.00,M,OVC,M,M,M,2100.00,M,M,M,M,KCSV 010353Z AUTO 31008KT 280V340 10SM OVC021 10/07 A2998 RMK AO2 SLP148 T01000067
CSV,2017-04-01 03:55,-85.0850,35.9513,M,M,M,290.00,6.00,M,29.98,M,10.00,M,OVC,M,M,M,2100.00,M,M,M,M,KCSV 010355Z AUTO 29006KT 10SM OVC021 A2998 RMK MADISHF
CSV,2017-04-01 04:00,-85.0850,35.9513,M,M,M,300.00,7.00,M,29.98,M,10.00,M,OVC,M,M,M,2100.00,M,M,M,M,KCSV 010400Z AUTO 30007KT 10SM OVC021 A2998 RMK MADISHF
CSV,2017-04-01 04:05,-85.0850,35.9513,M,M,M,290.00,8.00,M,29.98,M,10.00,M,OVC,M,M,M,2200.00,M,M,M,M,KCSV 010405Z AUTO 29008KT 10SM OVC022 A2998 RMK MADISHF
CSV,2017-04-01 04:10,-85.0850,35.9513,M,M,M,300.00,8.00,M,29.98,M,10.00,M,OVC,M,M,M,2200.00,M,M,M,M,KCSV 010410Z AUTO 30008KT 10SM OVC022 A2998 RMK MADISHF
CSV,2017-04-01 04:15,-85.0850,35.9513,M,M,M,290.00,6.00,M,29.98,M,10.00,M,OVC,M,M,M,2100.00,M,M,M,M,KCSV 010415Z AUTO 29006KT 10SM OVC021 A2998 RMK MADISHF
CSV,2017-04-01 04:20,-85.0850,35.9513,M,M,M,320.00,8.00,M,29.98,M,10.00,M,OVC,M,M,M,2100.00,M,M,M,M,KCSV 010420Z AUTO 32008KT 10SM OVC021 A2998 RMK MADISHF
CSV,2017-04-01 04:25,-85.0850,35.9513,M,M,M,320.00,7.00,M,29.98,M,10.00,M,OVC,M,M,M,1999.00,M,M,M,M,KCSV 010425Z AUTO 32007KT 10SM OVC019 A2998 RMK MADISHF
CSV,2017-04-01 04:30,-85.0850,35.9513,M,M,M,330.00,8.00,M,29.98,M,10.00,M,BKN,OVC,M,M,1999.00,2600.00,M,M,M,KCSV 010430Z AUTO 33008KT 10SM BKN019 OVC026 A2998 RMK MADISHF
CSV,2017-04-01 04:35,-85.0850,35.9513,M,M,M,310.00,7.00,M,29.98,M,10.00,M,OVC,M,M,M,2300.00,M,M,M,M,KCSV 010435Z AUTO 31007KT 10SM OVC023 A2998 RMK MADISHF
CSV,2017-04-01 04:40,-85.0850,35.9513,M,M,M,320.00,7.00,M,29.98,M,10.00,M,OVC,M,M,M,2300.00,M,M,M,M,KCSV 010440Z AUTO 32007KT 10SM OVC023 A2998 RMK MADISHF
CSV,2017-04-01 04:45,-85.0850,35.9513,M,M,M,320.00,6.00,M,29.98,M,10.00,M,BKN,OVC,M,M,2100.00,2600.00,M,M,M,KCSV 010445Z AUTO 32006KT 10SM BKN021 OVC026 A2998 RMK MADISHF
CSV,2017-04-01 04:50,-85.0850,35.9513,M,M,M,320.00,7.00,M,29.98,M,10.00,M,OVC,M,M,M,2100.00,M,M,M,M,KCSV 010450Z AUTO 32007KT 10SM OVC021 A2998 RMK MADISHF
CSV,2017-04-01 04:53,-85.0850,35.9513,50.00,43.00,76.76,320.00,7.00,0.00,29.98,1014.90,10.00,M,BKN,OVC,M,M,1900.00,2500.00,M,M,M,KCSV 010453Z AUTO 32007KT 10SM BKN019 OVC025 10/06 A2998 RMK AO2 SLP149 T01000061
CSV,2017-04-01 04:55,-85.0850,35.9513,M,M,M,320.00,6.00,M,29.98,M,10.00,M,BKN,OVC,M,M,1900.00,2500.00,M,M,M,KCSV 010455Z AUTO 32006KT 10SM BKN019 OVC025 A2998 RMK MADISHF
CSV,2017-04-01 05:00,-85.0850,35.9513,M,M,M,310.00,10.00,M,29.98,M,10.00,M,BKN,OVC,M,M,1900.00,2500.00,M,M,M,KCSV 010500Z AUTO 31010KT 10SM BKN019 OVC025 A2998 RMK MADISHF
CSV,2017-04-01 05:05,-85.0850,35.9513,M,M,M,310.00,7.00,M,29.98,M,10.00,M,OVC,M,M,M,1900.00,M,M,M,M,KCSV 010505Z AUTO 31007KT 10SM OVC019 A2998 RMK MADISHF
CSV,2017-04-01 05:10,-85.0850,35.9513,M,M,M,310.00,6.00,M,29.98,M,10.00,M,OVC,M,M,M,1900.00,M,M,M,M,KCSV 010510Z AUTO 31006KT 10SM OVC019 A2998 RMK MADISHF
CSV,2017-04-01 05:15,-85.0850,35.9513,M,M,M,310.00,6.00,M,29.99,M,10.00,M,OVC,M,M,M,1900.00,M,M,M,M,KCSV 010515Z AUTO 31006KT 10SM OVC019 A2999 RMK MADISHF
CSV,2017-04-01 05:20,-85.0850,35.9513,M,M,M,310.00,6.00,M,29.99,M,10.00,M,OVC,M,M,M,2100.00,M,M,M,M,KCSV 010520Z AUTO 31006KT 10SM OVC021 A2999 RMK MADISHF
CSV,2017-04-01 05:25,-85.0850,35.9513,M,M,M,320.00,6.00,M,29.99,M,10.00,M,OVC,M,M,M,2100.00,M,M,M,M,KCSV 010525Z AUTO 32006KT 10SM OVC021 A2999 RMK MADISHF
CSV,2017-04-01 05:30,-85.0850,35.9513,M,M,M,320.00,7.00,M,29.99,M,10.00,M,OVC,M,M,M,2100.00,M,M,M,M,KCSV 010530Z AUTO 32007KT 10SM OVC021 A2999 RMK MADISHF
CSV,2017-04-01 05:35,-85.0850,35.9513,M,M,M,320.00,6.00,M,29.99,M,10.00,M,OVC,M,M,M,2100.00,M,M,M,M,KCSV 010535Z AUTO 32006KT 10SM OVC021 A2999 RMK MADISHF
CSV,2017-04-01 05:40,-85.0850,35.9513,M,M,M,320.00,8.00,M,29.99,M,10.00,M,OVC,M,M,M,1900.00,M,M,M,M,KCSV 010540Z AUTO 32008KT 10SM OVC019 A2999 RMK MADISHF
CSV,2017-04-01 05:45,-85.0850,35.9513,M,M,M,330.00,6.00,M,29.99,M,10.00,M,BKN,OVC,M,M,1600.00,2200.00,M,M,M,KCSV 010545Z AUTO 33006KT 10SM BKN016 OVC022 A2999 RMK MADISHF
CSV,2017-04-01 05:50,-85.0850,35.9513,M,M,M,310.00,8.00,M,29.99,M,10.00,M,BKN,OVC,M,M,1600.00,2200.00,M,M,M,KCSV 010550Z AUTO 31008KT 10SM BKN016 OVC022 A2999 RMK MADISHF
CSV,2017-04-01 05:53,-85.0850,35.9513,48.90,43.00,79.98,320.00,9.00,0.00,29.99,1015.10,10.00,M,BKN,OVC,M,M,1600.00,2200.00,M,M,M,KCSV 010553Z AUTO 32009KT 10SM BKN016 OVC022 09/06 A2999 RMK AO2 SLP151 T00940061 10117 20094 401390083 51007
CSV,2017-04-01 05:55,-85.0850,35.9513,M,M,M,330.00,7.00,M,29.99,M,10.00,M,OVC,M,M,M,1600.00,M,M,M,M,KCSV 010555Z AUTO 33007KT 10SM OVC016 A2999 RMK MADISHF
CSV,2017-04-01 06:00,-85.0850,35.9513,M,M,M,330.00,8.00,M,29.99,M,10.00,M,OVC,M,M,M,1600.00,M,M,M,M,KCSV 010600Z AUTO 33008KT 10SM OVC016 A2999 RMK MADISHF
CSV,2017-04-01 06:05,-85.0850,35.9513,M,M,M,330.00,7.00,M,29.99,M,10.00,M,OVC,M,M,M,1400.00,M,M,M,M,KCSV 010605Z AUTO 33007KT 10SM OVC014 A2999 RMK MADISHF
CSV,2017-04-01 06:07,-85.0850,35.9513,48.90,43.00,79.98,320.00,8.00,0.00,29.99,M,10.00,M,OVC,M,M,M,1400.00,M,M,M,M,KCSV 010607Z AUTO 32008KT 10SM OVC014 09/06 A2999 RMK AO2 T00940061
CSV,2017-04-01 06:10,-85.0850,35.9513,M,M,M,340.00,5.00,M,29.99,M,10.00,M,OVC,M,M,M,1400.00,M,M,M,M,KCSV 010610Z AUTO 34005KT 10SM OVC014 A2999 RMK MADISHF
CSV,2017-04-01 06:15,-85.0850,35.9513,M,M,M,320.00,9.00,M,29.99,M,10.00,M,OVC,M,M,M,1400.00,M,M,M,M,KCSV 010615Z AUTO 32009KT 10SM OVC014 A2999 RMK MADISHF
CSV,2017-04-01 06:20,-85.0850,35.9513,M,M,M,330.00,6.00,M,29.99,M,10.00,M,OVC,M,M,M,1400.00,M,M,M,M,KCSV 010620Z AUTO 33006KT 10SM OVC014 A2999 RMK MADISHF
CSV,2017-04-01 06:25,-85.0850,35.9513,M,M,M,310.00,4.00,M,30.00,M,10.00,M,OVC,M,M,M,1400.00,M,M,M,M,KCSV 010625Z AUTO 31004KT 10SM OVC014 A3000 RMK MADISHF
CSV,2017-04-01 06:30,-85.0850,35.9513,M,M,M,330.00,4.00,M,30.00,M,10.00,M,OVC,M,M,M,1400.00,M,M,M,M,KCSV 010630Z AUTO 33004KT 10SM OVC014 A3000 RMK MADISHF
CSV,2017-04-01 06:35,-85.0850,35.9513,M,M,M,330.00,6.00,M,30.00,M,10.00,M,OVC,M,M,M,1400.00,M,M,M,M,KCSV 010635Z AUTO 33006KT 10SM OVC014 A3000 RMK MADISHF
CSV,2017-04-01 06:40,-85.0850,35.9513,M,M,M,330.00,7.00,M,30.00,M,10.00,M,OVC,M,M,M,1400.00,M,M,M,M,KCSV 010640Z AUTO 33007KT 10SM OVC014 A3000 RMK MADISHF
CSV,2017-04-01 06:45,-85.0850,35.9513,M,M,M,320.00,6.00,M,30.00,M,10.00,M,OVC,M,M,M,1400.00,M,M,M,M,KCSV 010645Z AUTO 32006KT 10SM OVC014 A3000 RMK MADISHF
CSV,2017-04-01 06:50,-85.0850,35.9513,M,M,M,320.00,6.00,M,30.00,M,10.00,M,OVC,M,M,M,1400.00,M,M,M,M,KCSV 010650Z AUTO 32006KT 10SM OVC014 A3000 RMK MADISHF
CSV,2017-04-01 06:53,-85.0850,35.9513,48.00,43.00,82.72,310.00,5.00,0.00,30.00,1015.40,10.00,M,OVC,M,M,M,1400.00,M,M,M,M,KCSV 010653Z AUTO 31005KT 10SM OVC014 09/06 A3000 RMK AO2 SLP154 T00890061
CSV,2017-04-01 06:55,-85.0850,35.9513,M,M,M,310.00,6.00,M,30.00,M,10.00,M,OVC,M,M,M,1400.00,M,M,M,M,KCSV 010655Z AUTO 31006KT 10SM OVC014 A3000 RMK MADISHF
CSV,2017-04-01 07:00,-85.0850,35.9513,M,M,M,290.00,9.00,M,30.00,M,10.00,M,OVC,M,M,M,1400.00,M,M,M,M,KCSV 010700Z AUTO 29009KT 10SM OVC014 A3000 RMK MADISHF
CSV,2017-04-01 07:05,-85.0850,35.9513,M,M,M,290.00,7.00,M,30.00,M,10.00,M,OVC,M,M,M,1500.00,M,M,M,M,KCSV 010705Z AUTO 29007KT 10SM OVC015 A3000 RMK MADISHF
CSV,2017-04-01 07:10,-85.0850,35.9513,48.00,42.10,79.91,300.00,6.00,0.00,30.00,M,10.00,M,OVC,M,M,M,1500.00,M,M,M,M,KCSV 010710Z AUTO 30006KT 10SM OVC015 09/06 A3000 RMK AO2 T00890056
CSV,2017-04-01 07:15,-85.0850,35.9513,M,M,M,320.00,6.00,M,30.00,M,10.00,M,OVC,M,M,M,1500.00,M,M,M,M,KCSV 010715Z AUTO 32006KT 10SM OVC015 A3000 RMK MADISHF
CSV,2017-04-01 07:20,-85.0850,35.9513,M,M,M,320.00,6.00,M,30.00,M,10.00,M,OVC,M,M,M,1400.00,M,M,M,M,KCSV 010720Z AUTO 32006KT 10SM OVC014 A3000 RMK MADISHF
CSV,2017-04-01 07:22,-85.0850,35.9513,48.00,42.10,79.91,320.00,4.00,0.00,30.00,M,10.00,M,OVC,M,M,M,1400.00,M,M,M,M,KCSV 010722Z AUTO 32004KT 10SM OVC014 09/06 A3000 RMK AO2 T00890056
CSV,2017-04-01 07:25,-85.0850,35.9513,M,M,M,300.00,5.00,M,30.01,M,10.00,M,OVC,M,M,M,1400.00,M,M,M,M,KCSV 010725Z AUTO 30005KT 10SM OVC014 A3001 RMK MADISHF
CSV,2017-04-01 07:30,-85.0850,35.9513,M,M,M,310.00,6.00,M,30.01,M,10.00,M,OVC,M,M,M,1400.00,M,M,M,M,KCSV 010730Z AUTO 31006KT 10SM OVC014 A3001 RMK MADISHF
CSV,2017-04-01 07:35,-85.0850,35.9513,M,M,M,310.00,6.00,M,30.01,M,10.00,M,OVC,M,M,M,1300.00,M,M,M,M,KCSV 010735Z AUTO 31006KT 10SM OVC013 A3001 RMK MADISHF
CSV,2017-04-01 07:40,-85.0850,35.9513,M,M,M,330.00,6.00,M,30.01,M,10.00,M,OVC,M,M,M,1300.00,M,M,M,M,KCSV 010740Z AUTO 33006KT 10SM OVC013 A3001 RMK MADISHF
CSV,2017-04-01 07:45,-85.0850,35.9513,M,M,M,330.00,4.00,M,30.01,M,10.00,M,OVC,M,M,M,1300.00,M,M,M,M,KCSV 010745Z AUTO 33004KT 10SM OVC013 A3001 RMK MADISHF
CSV,2017-04-01 07:50,-85.0850,35.9513,M,M,M,330.00,8.00,M,30.01,M,10.00,M,OVC,M,M,M,1300.00,M,M,M,M,KCSV 010750Z AUTO 33008KT 10SM OVC013 A3001 RMK MADISHF
CSV,2017-04-01 07:53,-85.0850,35.9513,46.90,42.10,83.28,340.00,6.00,0.00,30.01,1016.00,10.00,M,OVC,M,M,M,1300.00,M,M,M,M,KCSV 010753Z AUTO 34006KT 10SM OVC013 08/06 A3001 RMK AO2 SLP160 T00830056
CSV,2017-04-01 07:55,-85.0850,35.9513,M,M,M,330.00,5.00,M,30.01,M,10.00,M,OVC,M,M,M,1300.00,M,M,M,M,KCSV 010755Z AUTO 33005KT 10SM OVC013 A3001 RMK MADISHF
CSV,2017-04-01 08:00,-85.0850,35.9513,M,M,M,320.00,7.00,M,30.01,M,10.00,M,OVC,M,M,M,1300.00,M,M,M,M,KCSV 010800Z AUTO 32007KT 10SM OVC013 A3001 RMK MADISHF
CSV,2017-04-01 08:05,-85.0850,35.9513,M,M,M,320.00,7.00,M,30.01,M,10.00,M,OVC,M,M,M,1300.00,M,M,M,M,KCSV 010805Z AUTO 32007KT 10SM OVC013 A3001 RMK MADISHF
CSV,2017-04-01 08:10,-85.0850,35.9513,M,M,M,320.00,6.00,M,30.01,M,10.00,M,OVC,M,M,M,1300.00,M,M,M,M,KCSV 010810Z AUTO 32006KT 10SM OVC013 A3001 RMK MADISHF
CSV,2017-04-01 08:15,-85.0850,35.9513,M,M,M,310.00,8.00,M,30.01,M,10.00,M,OVC,M,M,M,1300.00,M,M,M,M,KCSV 010815Z AUTO 31008KT 10SM OVC013 A3001 RMK MADISHF
CSV,2017-04-01 08:20,-85.0850,35.9513,M,M,M,320.00,7.00,M,30.01,M,10.00,M,OVC,M,M,M,1300.00,M,M,M,M,KCSV 010820Z AUTO 32007KT 10SM OVC013 A3001 RMK MADISHF
CSV,2017-04-01 08:25,-85.0850,35.9513,M,M,M,330.00,7.00,M,30.01,M,10.00,M,OVC,M,M,M,1300.00,M,M,M,M,KCSV 010825Z AUTO 33007KT 10SM OVC013 A3001 RMK MADISHF
CSV,2017-04-01 08:30,-85.0850,35.9513,M,M,M,330.00,8.00,M,30.02,M,10.00,M,OVC,M,M,M,1300.00,M,M,M,M,KCSV 010830Z AUTO 33008KT 10SM OVC013 A3002 RMK MADISHF
CSV,2017-04-01 08:35,-85.0850,35.9513,M,M,M,330.00,7.00,M,30.01,M,10.00,M,OVC,M,M,M,1300.00,M,M,M,M,KCSV 010835Z AUTO 33007KT 10SM OVC013 A3001 RMK MADISHF
CSV,2017-04-01 08:40,-85.0850,35.9513,M,M,M,330.00,8.00,M,30.01,M,10.00,M,OVC,M,M,M,1300.00,M,M,M,M,KCSV 010840Z AUTO 33008KT 10SM OVC013 A3001 RMK MADISHF
CSV,2017-04-01 08:45,-85.0850,35.9513,M,M,M,320.00,7.00,M,30.02,M,10.00,M,OVC,M,M,M,1300.00,M,M,M,M,KCSV 010845Z AUTO 32007KT 10SM OVC013 A3002 RMK MADISHF
CSV,2017-04-01 08:50,-85.0850,35.9513,M,M,M,290.00,7.00,M,30.02,M,10.00,M,OVC,M,M,M,1300.00,M,M,M,M,KCSV 010850Z AUTO 29007KT 10SM OVC013 A3002 RMK MADISHF
CSV,2017-04-01 08:53,-85.0850,35.9513,46.90,41.00,79.82,280.00,6.00,0.00,30.02,1016.20,10.00,M,OVC,M,M,M,1300.00,M,M,M,M,KCSV 010853Z AUTO 28006KT 10SM OVC013 08/05 A3002 RMK AO2 SLP162 T00830050 51010
CSV,2017-04-01 08:55,-85.0850,35.9513,M,M,M,280.00,7.00,M,30.02,M,10.00,M,OVC,M,M,M,1300.00,M,M,M,M,KCSV 010855Z AUTO 28007KT 10SM OVC013 A3002 RMK MADISHF
CSV,2017-04-01 09:00,-85.0850,35.9513,M,M,M,310.00,4.00,M,30.02,M,10.00,M,OVC,M,M,M,1300.00,M,M,M,M,KCSV 010900Z AUTO 31004KT 10SM OVC013 A3002 RMK MADISHF
CSV,2017-04-01 09:05,-85.0850,35.9513,M,M,M,290.00,5.00,M,30.03,M,10.00,M,OVC,M,M,M,1300.00,M,M,M,M,KCSV 010905Z AUTO 29005KT 10SM OVC013 A3003 RMK MADISHF
CSV,2017-04-01 09:10,-85.0850,35.9513,M,M,M,290.00,4.00,M,30.03,M,10.00,M,OVC,M,M,M,1300.00,M,M,M,M,KCSV 010910Z AUTO 29004KT 10SM OVC013 A3003 RMK MADISHF
CSV,2017-04-01 09:15,-85.0850,35.9513,M,M,M,320.00,5.00,M,30.03,M,10.00,M,OVC,M,M,M,1300.00,M,M,M,M,KCSV 010915Z AUTO 32005KT 10SM OVC013 A3003 RMK MADISHF
CSV,2017-04-01 09:20,-85.0850,35.9513,M,M,M,350.00,5.00,M,30.03,M,10.00,M,OVC,M,M,M,1300.00,M,M,M,M,KCSV 010920Z AUTO 35005KT 10SM OVC013 A3003 RMK MADISHF
CSV,2017-04-01 09:25,-85.0850,35.9513,M,M,M,350.00,4.00,M,30.03,M,10.00,M,OVC,M,M,M,1300.00,M,M,M,M,KCSV 010925Z AUTO 35004KT 10SM OVC013 A3003 RMK MADISHF
CSV,2017-04-01 09:30,-85.0850,35.9513,M,M,M,350.00,7.00,M,30.03,M,10.00,M,OVC,M,M,M,1200.00,M,M,M,M,KCSV 010930Z AUTO 35007KT 10SM OVC012 A3003 RMK MADISHF
CSV,2017-04-01 09:35,-85.0850,35.9513,M,M,M,350.00,6.00,M,30.03,M,10.00,M,OVC,M,M,M,1200.00,M,M,M,M,KCSV 010935Z AUTO 35006KT 10SM OVC012 A3003 RMK MADISHF
CSV,2017-04-01 09:40,-85.0850,35.9513,M,M,M,330.00,6.00,M,30.04,M,10.00,M,OVC,M,M,M,1200.00,M,M,M,M,KCSV 010940Z AUTO 33006KT 10SM OVC012 A3004 RMK MADISHF
CSV,2017-04-01 09:45,-85.0850,35.9513,M,M,M,350.00,5.00,M,30.04,M,10.00,M,OVC,M,M,M,1200.00,M,M,M,M,KCSV 010945Z AUTO 35005KT 10SM OVC012 A3004 RMK MADISHF
CSV,2017-04-01 09:50,-85.0850,35.9513,M,M,M,330.00,5.00,M,30.04,M,10.00,M,OVC,M,M,M,1200.00,M,M,M,M,KCSV 010950Z AUTO 33005KT 10SM OVC012 A3004 RMK MADISHF
CSV,2017-04-01 09:53,-85.0850,35.9513,46.00,41.00,82.58,330.00,5.00,0.00,30.04,1016.80,10.00,M,OVC,M,M,M,1200.00,M,M,M,M,KCSV 010953Z AUTO 33005KT 10SM OVC012 08/05 A3004 RMK AO2 SLP168 T00780050
CSV,2017-04-01 09:55,-85.0850,35.9513,M,M,M,340.00,6.00,M,30.04,M,10.00,M,OVC,M,M,M,1200.00,M,M,M,M,KCSV 010955Z AUTO 34006KT 10SM OVC012 A3004 RMK MADISHF
CSV,2017-04-01 10:00,-85.0850,35.9513,M,M,M,320.00,5.00,M,30.04,M,10.00,M,OVC,M,M,M,1100.00,M,M,M,M,KCSV 011000Z AUTO 32005KT 10SM OVC011 A3004 RMK MADISHF
CSV,2017-04-01 10:05,-85.0850,35.9513,M,M,M,330.00,7.00,M,30.04,M,10.00,M,OVC,M,M,M,1100.00,M,M,M,M,KCSV 011005Z AUTO 33007KT 10SM OVC011 A3004 RMK MADISHF
CSV,2017-04-01 10:10,-85.0850,35.9513,M,M,M,330.00,6.00,M,30.05,M,10.00,M,OVC,M,M,M,1100.00,M,M,M,M,KCSV 011010Z AUTO 33006KT 10SM OVC011 A3005 RMK MADISHF
CSV,2017-04-01 10:15,-85.0850,35.9513,M,M,M,340.00,7.00,M,30.05,M,10.00,M,OVC,M,M,M,1100.00,M,M,M,M,KCSV 011015Z AUTO 34007KT 10SM OVC011 A3005 RMK MADISHF
CSV,2017-04-01 10:20,-85.0850,35.9513,M,M,M,330.00,4.00,M,30.05,M,10.00,M,OVC,M,M,M,1100.00,M,M,M,M,KCSV 011020Z AUTO 33004KT 10SM OVC011 A3005 RMK MADISHF
CSV,2017-04-01 10:25,-85.0850,35.9513,M,M,M,320.00,7.00,M,30.06,M,10.00,M,OVC,M,M,M,1100.00,M,M,M,M,KCSV 011025Z AUTO 32007KT 10SM OVC011 A3006 RMK MADISHF
CSV,2017-04-01 10:30,-85.0850,35.9513,M,M,M,330.00,8.00,M,30.06,M,10.00,M,OVC,M,M,M,1100.00,M,M,M,M,KCSV 011030Z AUTO 33008KT 10SM OVC011 A3006 RMK MADISHF
CSV,2017-04-01 10:35,-85.0850,35.9513,M,M,M,320.00,7.00,M,30.06,M,10.00,M,OVC,M,M,M,1100.00,M,M,M,M,KCSV 011035Z AUTO 32007KT 10SM OVC011 A3006 RMK MADISHF
CSV,2017-04-01 10:40,-85.0850,35.9513,M,M,M,320.00,6.00,M,30.06,M,10.00,M,OVC,M,M,M,1100.00,M,M,M,M,KCSV 011040Z AUTO 32006KT 10SM OVC011 A3006 RMK MADISHF
CSV,2017-04-01 10:45,-85.0850,35.9513,M,M,M,310.00,5.00,M,30.06,M,10.00,M,OVC,M,M,M,1300.00,M,M,M,M,KCSV 011045Z AUTO 31005KT 10SM OVC013 A3006 RMK MADISHF
CSV,2017-04-01 10:50,-85.0850,35.9513,M,M,M,320.00,5.00,M,30.06,M,10.00,M,OVC,M,M,M,1300.00,M,M,M,M,KCSV 011050Z AUTO 32005KT 10SM OVC013 A3006 RMK MADISHF
CSV,2017-04-01 10:53,-85.0850,35.9513,46.00,41.00,82.58,310.00,5.00,0.00,30.06,1017.70,10.00,M,OVC,M,M,M,1300.00,M,M,M,M,KCSV 011053Z AUTO 31005KT 10SM OVC013 08/05 A3006 RMK AO2 SLP177 T00780050
CSV,2017-04-01 10:55,-85.0850,35.9513,M,M,M,310.00,6.00,M,30.07,M,10.00,M,OVC,M,M,M,1300.00,M,M,M,M,KCSV 011055Z AUTO 31006KT 10SM OVC013 A3007 RMK MADISHF
CSV,2017-04-01 11:00,-85.0850,35.9513,M,M,M,320.00,5.00,M,30.07,M,10.00,M,OVC,M,M,M,1400.00,M,M,M,M,KCSV 011100Z AUTO 32005KT 10SM OVC014 A3007 RMK MADISHF
CSV,2017-04-01 11:05,-85.0850,35.9513,M,M,M,330.00,5.00,M,30.07,M,10.00,M,FEW,OVC,M,M,900.00,1400.00,M,M,M,KCSV 011105Z AUTO 33005KT 10SM FEW009 OVC014 A3007 RMK MADISHF
CSV,2017-04-01 11:06,-85.0850,35.9513,45.00,42.10,89.49,340.00,6.00,0.00,30.07,M,10.00,M,SCT,OVC,M,M,900.00,1600.00,M,M,M,KCSV 011106Z AUTO 34006KT 10SM SCT009 OVC016 07/06 A3007 RMK AO2 T00720056
CSV,2017-04-01 11:10,-85.0850,35.9513,M,M,M,340.00,6.00,M,30.07,M,10.00,M,SCT,OVC,M,M,900.00,1600.00,M,M,M,KCSV 011110Z AUTO 34006KT 10SM SCT009 OVC016 A3007 RMK MADISHF
CSV,2017-04-01 11:15,-85.0850,35.9513,M,M,M,320.00,5.00,M,30.07,M,10.00,M,BKN,OVC,M,M,900.00,1600.00,M,M,M,KCSV 011115Z AUTO 32005KT 10SM BKN009 OVC016 A3007 RMK MADISHF
CSV,2017-04-01 11:19,-85.0850,35.9513,45.00,42.10,89.49,310.00,5.00,0.00,30.08,M,9.00,M,BKN,OVC,M,M,900.00,1600.00,M,M,M,KCSV 011119Z AUTO 31005KT 9SM BKN009 OVC016 07/06 A3008 RMK AO2 CIG 007V012 T00720056
CSV,2017-04-01 11:20,-85.0850,35.9513,M,M,M,310.00,5.00,M,30.08,M,9.00,M,BKN,OVC,M,M,900.00,1600.00,M,M,M,KCSV 011120Z AUTO 31005KT 9SM BKN009 OVC016 A3008 RMK CIG 7V12  MADISHF
CSV,2017-04-01 11:25,-85.0850,35.9513,M,M,M,330.00,6.00,M,30.08,M,8.00,M,BKN,OVC,M,M,900.00,1600.00,M,M,M,KCSV 011125Z AUTO 33006KT 8SM BKN009 OVC016 A3008 RMK CIG 7V12  MADISHF
CSV,2017-04-01 11:30,-85.0850,35.9513,M,M,M,320.00,6.00,M,30.08,M,7.00,M,BKN,OVC,M,M,900.00,1600.00,M,M,M,KCSV 011130Z AUTO 32006KT 7SM BKN009 OVC016 A3008 RMK CIG 7V12  MADISHF
CSV,2017-04-01 11:35,-85.0850,35.9513,M,M,M,320.00,6.00,M,30.08,M,7.00,M,BKN,OVC,M,M,900.00,1600.00,M,M,M,KCSV 011135Z AUTO 32006KT 7SM BKN009 OVC016 A3008 RMK CIG 7V12  MADISHF
CSV,2017-04-01 11:40,-85.0850,35.9513,M,M,M,330.00,6.00,M,30.08,M,7.00,M,BKN,OVC,M,M,700.00,1300.00,M,M,M,KCSV 011140Z AUTO 33006KT 7SM BKN007 OVC013 A3008 RMK CIG 6V10  MADISHF
CSV,2017-04-01 11:45,-85.0850,35.9513,M,M,M,340.00,6.00,M,30.09,M,4.00,M,BKN,OVC,M,M,700.00,1300.00,M,M,BR,KCSV 011145Z AUTO 34006KT 4SM BR BKN007 OVC013 A3009 RMK CIG 5V10  MADISHF
CSV,2017-04-01 11:50,-85.0850,35.9513,M,M,M,350.00,6.00,M,30.09,M,3.50,M,BKN,OVC,M,M,700.00,1300.00,M,M,BR,KCSV 011150Z AUTO 35006KT 3SM BR BKN007 OVC013 A3009 RMK CIG 4V10  MADISHF
CSV,2017-04-01 11:53,-85.0850,35.9513,44.10,42.10,92.62,350.00,5.00,0.00,30.09,1018.60,4.00,M,BKN,OVC,M,M,500.00,1300.00,M,M,BR,KCSV 011153Z AUTO 35005KT 4SM BR BKN005 OVC013 07/06 A3009 RMK AO2 CIG 004V010 SLP186 T00670056 10094 20067 53022
CSV,2017-04-01 11:55,-85.0850,35.9513,M,M,M,360.00,6.00,M,30.09,M,4.00,M,BKN,OVC,M,M,499.00,1300.00,M,M,BR,KCSV 011155Z AUTO 36006KT 4SM BR BKN004 OVC013 A3009 RMK CIG 4V10  MADISHF
CSV,2017-04-01 12:00,-85.0850,35.9513,M,M,M,350.00,8.00,M,30.09,M,4.00,M,BKN,OVC,M,M,499.00,1300.00,M,M,BR,KCSV 011200Z AUTO 35008KT 4SM BR BKN004 OVC013 A3009 RMK CIG 4V10  MADISHF
CSV,2017-04-01 12:05,-85.0850,35.9513,M,M,M,350.00,5.00,M,30.09,M,5.00,M,BKN,OVC,M,M,499.00,1300.00,M,M,BR,KCSV 011205Z AUTO 35005KT 5SM BR BKN004 OVC013 A3009 RMK CIG 4V8  MADISHF
CSV,2017-04-01 12:10,-85.0850,35.9513,M,M,M,350.00,5.00,M,30.09,M,6.00,M,BKN,OVC,M,M,499.00,1500.00,M,M,BR,KCSV 011210Z AUTO 35005KT 6SM BR BKN004 OVC015 A3009 RMK MADISHF
CSV,2017-04-01 12:15,-85.0850,35.9513,M,M,M,350.00,6.00,M,30.09,M,5.00,M,BKN,OVC,M,M,499.00,1500.00,M,M,BR,KCSV 011215Z AUTO 35006KT 5SM BR BKN004 OVC015 A3009 RMK CIG 4V8  MADISHF
CSV,2017-04-01 12:20,-85.0850,35.9513,M,M,M,350.00,7.00,M,30.09,M,6.00,M,BKN,OVC,M,M,499.00,1500.00,M,M,BR,KCSV 011220Z AUTO 35007KT 6SM BR BKN004 OVC015 A3009 RMK CIG 4V8  MADISHF
CSV,2017-04-01 12:23,-85.0850,35.9513,44.10,42.10,92.62,340.00,8.00,0.00,30.10,M,8.00,M,SCT,OVC,M,M,500.00,1500.00,M,M,M,KCSV 011223Z AUTO 34008KT 8SM SCT005 OVC015 07/06 A3010 RMK AO2 T00670056
CSV,2017-04-01 12:25,-85.0850,35.9513,M,M,M,350.00,6.00,M,30.10,M,9.00,M,SCT,OVC,M,M,499.00,1500.00,M,M,M,KCSV 011225Z AUTO 35006KT 9SM SCT004 OVC015 A3010 RMK MADISHF
CSV,2017-04-01 12:30,-85.0850,35.9513,M,M,M,330.00,6.00,M,30.10,M,9.00,M,SCT,BKN,OVC,M,600.00,999.00,1500.00,M,M,KCSV 011230Z AUTO 33006KT 9SM SCT006 BKN009 OVC015 A3010 RMK MADISHF
CSV,2017-04-01 12:31,-85.0850,35.9513,44.10,42.10,92.62,330.00,5.00,0.00,30.10,M,9.00,M,BKN,OVC,M,M,600.00,1500.00,M,M,M,KCSV 011231Z AUTO 33005KT 9SM BKN006 OVC015 07/06 A3010 RMK AO2 CIG 004V009 T00670056
CSV,2017-04-01 12:35,-85.0850,35.9513,M,M,M,340.00,7.00,M,30.10,M,9.00,M,SCT,BKN,OVC,M,600.00,999.00,1500.00,M,M,KCSV 011235Z AUTO 34007KT 9SM SCT006 BKN009 OVC015 A3010 RMK MADISHF
CSV,2017-04-01 12:38,-85.0850,35.9513,44.10,41.00,88.77,340.00,6.00,0.00,30.10,M,9.00,M,SCT,SCT,OVC,M,600.00,1000.00,1500.00,M,M,KCSV 011238Z AUTO 34006KT 9SM SCT006 SCT010 OVC015 07/05 A3010 RMK AO2 T00670050
CSV,2017-04-01 12:40,-85.0850,35.9513,M,M,M,340.00,7.00,M,30.10,M,10.00,M,SCT,SCT,OVC,M,600.00,999.00,1500.00,M,M,KCSV 011240Z AUTO 34007KT 10SM SCT006 SCT009 OVC015 A3010 RMK MADISHF
CSV,2017-04-01 12:45,-85.0850,35.9513,M,M,M,340.00,6.00,M,30.11,M,10.00,M,SCT,OVC,M,M,800.00,1500.00,M,M,M,KCSV 011245Z AUTO 34006KT 10SM SCT008 OVC015 A3011 RMK MADISHF
CSV,2017-04-01 12:50,-85.0850,35.9513,M,M,M,330.00,5.00,M,30.11,M,10.00,M,SCT,OVC,M,M,800.00,1300.00,M,M,M,KCSV 011250Z AUTO 33005KT 10SM SCT008 OVC013 A3011 RMK MADISHF
CSV,2017-04-01 12:53,-85.0850,35.9513,45.00,41.00,85.77,360.00,7.00,0.00,30.11,1019.30,10.00,M,SCT,OVC,M,M,800.00,1300.00,M,M,M,KCSV 011253Z AUTO 36007KT 10SM SCT008 OVC013 07/05 A3011 RMK AO2 SLP193 T00720050
CSV,2017-04-01 12:55,-85.0850,35.9513,M,M,M,350.00,5.00,M,30.11,M,10.00,M,SCT,OVC,M,M,800.00,1300.00,M,M,M,KCSV 011255Z AUTO 35005KT 10SM SCT008 OVC013 A3011 RMK MADISHF
CSV,2017-04-01 13:00,-85.0850,35.9513,M,M,M,360.00,6.00,M,30.11,M,10.00,M,OVC,M,M,M,1300.00,M,M,M,M,KCSV 011300Z AUTO 36006KT 10SM OVC013 A3011 RMK MADISHF
CSV,2017-04-01 13:05,-85.0850,35.9513,M,M,M,360.00,5.00,M,30.11,M,10.00,M,OVC,M,M,M,1100.00,M,M,M,M,KCSV 011305Z AUTO 36005KT 10SM OVC011 A3011 RMK MADISHF
CSV,2017-04-01 13:10,-85.0850,35.9513,M,M,M,340.00,7.00,M,30.11,M,10.00,M,OVC,M,M,M,1100.00,M,M,M,M,KCSV 011310Z AUTO 34007KT 10SM OVC011 A3011 RMK CIG 7V14  MADISHF
CSV,2017-04-01 13:15,-85.0850,35.9513,M,M,M,330.00,6.00,M,30.11,M,10.00,M,OVC,M,M,M,1100.00,M,M,M,M,KCSV 011315Z AUTO 33006KT 10SM OVC011 A3011 RMK CIG 7V13  MADISHF
CSV,2017-04-01 13:20,-85.0850,35.9513,M,M,M,20.00,7.00,M,30.11,M,10.00,M,OVC,M,M,M,999.00,M,M,M,M,KCSV 011320Z AUTO 02007KT 10SM OVC009 A3011 RMK CIG 7V13  MADISHF
CSV,2017-04-01 13:25,-85.0850,35.9513,M,M,M,330.00,9.00,M,30.11,M,10.00,M,OVC,M,M,M,999.00,M,M,M,M,KCSV 011325Z AUTO 33009KT 10SM OVC009 A3011 RMK CIG 7V12  MADISHF
CSV,2017-04-01 13:30,-85.0850,35.9513,M,M,M,340.00,6.00,M,30.11,M,10.00,M,OVC,M,M,M,999.00,M,M,M,M,KCSV 011330Z AUTO 34006KT 10SM OVC009 A3011 RMK CIG 7V12  MADISHF
CSV,2017-04-01 13:35,-85.0850,35.9513,M,M,M,320.00,6.00,M,30.12,M,10.00,M,OVC,M,M,M,800.00,M,M,M,M,KCSV 011335Z AUTO 32006KT 10SM OVC008 A3012 RMK CIG 8V11  MADISHF
CSV,2017-04-01 13:38,-85.0850,35.9513,45.00,41.00,85.77,330.00,7.00,0.00,30.12,M,10.00,M,OVC,M,M,M,800.00,M,M,M,M,KCSV 011338Z AUTO 33007KT 10SM OVC008 07/05 A3012 RMK AO2 T00720050
CSV,2017-04-01 13:40,-85.0850,35.9513,M,M,M,350.00,7.00,M,30.12,M,10.00,M,OVC,M,M,M,800.00,M,M,M,M,KCSV 011340Z AUTO 35007KT 10SM OVC008 A3012 RMK MADISHF
CSV,2017-04-01 13:45,-85.0850,35.9513,M,M,M,340.00,7.00,M,30.12,M,10.00,M,OVC,M,M,M,800.00,M,M,M,M,KCSV 011345Z AUTO 34007KT 10SM OVC008 A3012 RMK MADISHF
CSV,2017-04-01 13:50,-85.0850,35.9513,M,M,M,360.00,6.00,M,30.13,M,10.00,M,OVC,M,M,M,800.00,M,M,M,M,KCSV 011350Z AUTO 36006KT 10SM OVC008 A3013 RMK MADISHF
CSV,2017-04-01 13:53,-85.0850,35.9513,45.00,41.00,85.77,340.00,7.00,0.00,30.13,1020.00,10.00,M,OVC,M,M,M,800.00,M,M,M,M,KCSV 011353Z AUTO 34007KT 10SM OVC008 07/05 A3013 RMK AO2 SLP200 T00720050
CSV,2017-04-01 13:55,-85.0850,35.9513,M,M,M,360.00,6.00,M,30.13,M,10.00,M,OVC,M,M,M,800.00,M,M,M,M,KCSV 011355Z AUTO 36006KT 10SM OVC008 A3013 RMK MADISHF
CSV,2017-04-01 14:00,-85.0850,35.9513,M,M,M,320.00,8.00,M,30.13,M,10.00,M,OVC,M,M,M,800.00,M,M,M,M,KCSV 011400Z AUTO 32008KT 10SM OVC008 A3013 RMK MADISHF
CSV,2017-04-01 14:05,-85.0850,35.9513,M,M,M,320.00,7.00,M,30.13,M,10.00,M,OVC,M,M,M,800.00,M,M,M,M,KCSV 011405Z AUTO 32007KT 10SM OVC008 A3013 RMK MADISHF
CSV,2017-04-01 14:10,-85.0850,35.9513,M,M,M,320.00,6.00,M,30.13,M,10.00,M,OVC,M,M,M,800.00,M,M,M,M,KCSV 011410Z AUTO 32006KT 10SM OVC008 A3013 RMK MADISHF
CSV,2017-04-01 14:15,-85.0850,35.9513,M,M,M,310.00,7.00,M,30.13,M,10.00,M,OVC,M,M,M,800.00,M,M,M,M,KCSV 011415Z AUTO 31007KT 10SM OVC008 A3013 RMK MADISHF
CSV,2017-04-01 14:20,-85.0850,35.9513,M,M,M,10.00,6.00,M,30.14,M,10.00,M,OVC,M,M,M,800.00,M,M,M,M,KCSV 011420Z AUTO 01006KT 10SM OVC008 A3014 RMK MADISHF
CSV,2017-04-01 14:25,-85.0850,35.9513,M,M,M,350.00,7.00,M,30.14,M,10.00,M,OVC,M,M,M,800.00,M,M,M,M,KCSV 011425Z AUTO 35007KT 10SM OVC008 A3014 RMK MADISHF
CSV,2017-04-01 14:30,-85.0850,35.9513,M,M,M,350.00,6.00,M,30.14,M,10.00,M,OVC,M,M,M,800.00,M,M,M,M,KCSV 011430Z AUTO 35006KT 10SM OVC008 A3014 RMK MADISHF
CSV,2017-04-01 14:35,-85.0850,35.9513,M,M,M,350.00,7.00,M,30.14,M,10.00,M,OVC,M,M,M,800.00,M,M,M,M,KCSV 011435Z AUTO 35007KT 10SM OVC008 A3014 RMK MADISHF
CSV,2017-04-01 14:40,-85.0850,35.9513,M,M,M,330.00,7.00,M,30.14,M,10.00,M,OVC,M,M,M,800.00,M,M,M,M,KCSV 011440Z AUTO 33007KT 10SM OVC008 A3014 RMK MADISHF
CSV,2017-04-01 14:45,-85.0850,35.9513,M,M,M,340.00,9.00,M,30.15,M,10.00,M,OVC,M,M,M,800.00,M,M,M,M,KCSV 011445Z AUTO 34009KT 10SM OVC008 A3015 RMK MADISHF
CSV,2017-04-01 14:50,-85.0850,35.9513,M,M,M,340.00,6.00,M,30.15,M,10.00,M,OVC,M,M,M,800.00,M,M,M,M,KCSV 011450Z AUTO 34006KT 10SM OVC008 A3015 RMK CIG 8V11  MADISHF
CSV,2017-04-01 14:53,-85.0850,35.9513,45.00,41.00,85.77,330.00,7.00,0.00,30.15,1020.80,10.00,M,OVC,M,M,M,800.00,M,M,M,M,KCSV 011453Z AUTO 33007KT 10SM OVC008 07/05 A3015 RMK AO2 SLP208 T00720050 53020
CSV,2017-04-01 14:55,-85.0850,35.9513,M,M,M,330.00,5.00,M,30.15,M,10.00,M,OVC,M,M,M,800.00,M,M,M,M,KCSV 011455Z AUTO 33005KT 10SM OVC008 A3015 RMK MADISHF
CSV,2017-04-01 15:00,-85.0850,35.9513,M,M,M,320.00,8.00,M,30.15,M,10.00,M,OVC,M,M,M,800.00,M,M,M,M,KCSV 011500Z AUTO 32008KT 10SM OVC008 A3015 RMK CIG 8V12  MADISHF
CSV,2017-04-01 15:05,-85.0850,35.9513,M,M,M,330.00,5.00,M,30.15,M,10.00,M,OVC,M,M,M,900.00,M,M,M,M,KCSV 011505Z AUTO 33005KT 10SM OVC009 A3015 RMK MADISHF
CSV,2017-04-01 15:10,-85.0850,35.9513,M,M,M,310.00,7.00,M,30.15,M,10.00,M,OVC,M,M,M,900.00,M,M,M,M,KCSV 011510Z AUTO 31007KT 10SM OVC009 A3015 RMK MADISHF
CSV,2017-04-01 15:15,-85.0850,35.9513,M,M,M,340.00,6.00,M,30.15,M,10.00,M,OVC,M,M,M,900.00,M,M,M,M,KCSV 011515Z AUTO 34006KT 10SM OVC009 A3015 RMK MADISHF
CSV,2017-04-01 15:20,-85.0850,35.9513,M,M,M,340.00,5.00,M,30.15,M,10.00,M,OVC,M,M,M,900.00,M,M,M,M,KCSV 011520Z AUTO 34005KT 10SM OVC009 A3015 RMK MADISHF
CSV,2017-04-01 15:25,-85.0850,35.9513,M,M,M,330.00,6.00,M,30.16,M,10.00,M,OVC,M,M,M,999.00,M,M,M,M,KCSV 011525Z AUTO 33006KT 10SM OVC009 A3016 RMK VRB06KT  MADISHF
CSV,2017-04-01 15:28,-85.0850,35.9513,46.00,41.00,82.58,350.00,5.00,0.00,30.16,M,10.00,M,OVC,M,M,M,1000.00,M,M,M,M,KCSV 011528Z AUTO 35005KT 10SM OVC010 08/05 A3016 RMK AO2 T00780050
CSV,2017-04-01 15:30,-85.0850,35.9513,M,M,M,350.00,5.00,M,30.16,M,10.00,M,OVC,M,M,M,999.00,M,M,M,M,KCSV 011530Z AUTO 35005KT 10SM OVC009 A3016 RMK MADISHF
CSV,2017-04-01 15:35,-85.0850,35.9513,M,M,M,350.00,6.00,M,30.15,M,10.00,M,OVC,M,M,M,999.00,M,M,M,M,KCSV 011535Z AUTO 35006KT 10SM OVC009 A3015 RMK MADISHF
CSV,2017-04-01 15:40,-85.0850,35.9513,M,M,M,340.00,6.00,M,30.15,M,10.00,M,OVC,M,M,M,999.00,M,M,M,M,KCSV 011540Z AUTO 34006KT 10SM OVC009 A3015 RMK MADISHF
CSV,2017-04-01 15:45,-85.0850,35.9513,M,M,M,10.00,4.00,M,30.15,M,10.00,M,OVC,M,M,M,999.00,M,M,M,M,KCSV 011545Z AUTO 01004KT 10SM OVC009 A3015 RMK MADISHF
CSV,2017-04-01 15:50,-85.0850,35.9513,M,M,M,40.00,4.00,M,30.15,M,10.00,M,OVC,M,M,M,999.00,M,M,M,M,KCSV 011550Z AUTO 04004KT 10SM OVC009 A3015 RMK MADISHF
CSV,2017-04-01 15:53,-85.0850,35.9513,46.90,41.00,79.82,50.00,5.00,0.00,30.15,1020.80,10.00,M,OVC,M,M,M,1000.00,M,M,M,M,KCSV 011553Z AUTO 05005KT 10SM OVC010 08/05 A3015 RMK AO2 SLP208 T00830050
CSV,2017-04-01 15:55,-85.0850,35.9513,M,M,M,60.00,5.00,M,30.15,M,10.00,M,OVC,M,M,M,999.00,M,M,M,M,KCSV 011555Z AUTO 06005KT 10SM OVC009 A3015 RMK CIG 9V14  MADISHF
CSV,2017-04-01 16:00,-85.0850,35.9513,M,M,M,10.00,6.00,M,30.15,M,10.00,M,OVC,M,M,M,1200.00,M,M,M,M,KCSV 011600Z AUTO 01006KT 10SM OVC012 A3015 RMK MADISHF
CSV,2017-04-01 16:05,-85.0850,35.9513,M,M,M,360.00,4.00,M,30.15,M,10.00,M,OVC,M,M,M,1200.00,M,M,M,M,KCSV 011605Z AUTO 36004KT 10SM OVC012 A3015 RMK VRB04KT  MADISHF
CSV,2017-04-01 16:10,-85.0850,35.9513,M,M,M,340.00,6.00,M,30.15,M,10.00,M,OVC,M,M,M,1200.00,M,M,M,M,KCSV 011610Z AUTO 34006KT 10SM OVC012 A3015 RMK MADISHF
CSV,2017-04-01 16:15,-85.0850,35.9513,M,M,M,10.00,3.00,M,30.15,M,10.00,M,OVC,M,M,M,1200.00,M,M,M,M,KCSV 011615Z AUTO 01003KT 10SM OVC012 A3015 RMK VRB03KT  MADISHF
CSV,2017-04-01 16:20,-85.0850,35.9513,M,M,M,10.00,5.00,M,30.15,M,10.00,M,OVC,M,M,M,1200.00,M,M,M,M,KCSV 011620Z AUTO 01005KT 10SM OVC012 A3015 RMK MADISHF
CSV,2017-04-01 16:25,-85.0850,35.9513,M,M,M,340.00,5.00,M,30.15,M,10.00,M,OVC,M,M,M,1200.00,M,M,M,M,KCSV 011625Z AUTO 34005KT 10SM OVC012 A3015 RMK MADISHF
CSV,2017-04-01 16:30,-85.0850,35.9513,M,M,M,30.00,7.00,M,30.15,M,10.00,M,OVC,M,M,M,999.00,M,M,M,M,KCSV 011630Z AUTO 03007KT 10SM OVC009 A3015 RMK MADISHF
CSV,2017-04-01 16:35,-85.0850,35.9513,M,M,M,20.00,4.00,M,30.15,M,10.00,M,OVC,M,M,M,999.00,M,M,M,M,KCSV 011635Z AUTO 02004KT 10SM OVC009 A3015 RMK MADISHF
CSV,2017-04-01 16:40,-85.0850,35.9513,M,M,M,350.00,4.00,M,30.15,M,10.00,M,OVC,M,M,M,999.00,M,M,M,M,KCSV 011640Z AUTO 35004KT 10SM OVC009 A3015 RMK MADISHF
CSV,2017-04-01 16:45,-85.0850,35.9513,M,M,M,310.00,4.00,M,30.15,M,10.00,M,OVC,M,M,M,999.00,M,M,M,M,KCSV 011645Z AUTO 31004KT 10SM OVC009 A3015 RMK MADISHF
CSV,2017-04-01 16:50,-85.0850,35.9513,M,M,M,310.00,4.00,M,30.15,M,10.00,M,OVC,M,M,M,1100.00,M,M,M,M,KCSV 011650Z AUTO 31004KT 10SM OVC011 A3015 RMK VRB04KT  MADISHF
CSV,2017-04-01 16:53,-85.0850,35.9513,48.00,42.10,79.91,M,4.00,0.00,30.15,1020.70,10.00,M,OVC,M,M,M,1100.00,M,M,M,M,KCSV 011653Z AUTO VRB04KT 10SM OVC011 09/06 A3015 RMK AO2 SLP207 T00890056
CSV,2017-04-01 16:55,-85.0850,35.9513,M,M,M,40.00,7.00,M,30.15,M,10.00,M,OVC,M,M,M,1100.00,M,M,M,M,KCSV 011655Z AUTO 04007KT 10SM OVC011 A3015 RMK MADISHF
CSV,2017-04-01 17:00,-85.0850,35.9513,M,M,M,10.00,5.00,M,30.15,M,10.00,M,OVC,M,M,M,1100.00,M,M,M,M,KCSV 011700Z AUTO 01005KT 10SM OVC011 A3015 RMK VRB05KT  MADISHF
CSV,2017-04-01 17:05,-85.0850,35.9513,M,M,M,360.00,6.00,M,30.14,M,10.00,M,OVC,M,M,M,1300.00,M,M,M,M,KCSV 011705Z AUTO 36006KT 10SM OVC013 A3014 RMK VRB06KT  MADISHF
CSV,2017-04-01 17:10,-85.0850,35.9513,M,M,M,30.00,8.00,M,30.14,M,10.00,M,OVC,M,M,M,1300.00,M,M,M,M,KCSV 011710Z AUTO 03008KT 10SM OVC013 A3014 RMK MADISHF
CSV,2017-04-01 17:15,-85.0850,35.9513,M,M,M,360.00,5.00,M,30.15,M,10.00,M,OVC,M,M,M,1300.00,M,M,M,M,KCSV 011715Z AUTO 36005KT 10SM OVC013 A3015 RMK MADISHF
CSV,2017-04-01 17:20,-85.0850,35.9513,M,M,M,30.00,7.00,M,30.15,M,10.00,M,OVC,M,M,M,1300.00,M,M,M,M,KCSV 011720Z AUTO 03007KT 10SM OVC013 A3015 RMK MADISHF
CSV,2017-04-01 17:25,-85.0850,35.9513,M,M,M,30.00,7.00,M,30.15,M,10.00,M,OVC,M,M,M,1300.00,M,M,M,M,KCSV 011725Z AUTO 03007KT 10SM OVC013 A3015 RMK MADISHF
CSV,2017-04-01 17:30,-85.0850,35.9513,M,M,M,40.00,5.00,M,30.14,M,10.00,M,OVC,M,M,M,1300.00,M,M,M,M,KCSV 011730Z AUTO 04005KT 10SM OVC013 A3014 RMK MADISHF
CSV,2017-04-01 17:35,-85.0850,35.9513,M,M,M,360.00,6.00,M,30.14,M,10.00,M,OVC,M,M,M,1300.00,M,M,M,M,KCSV 011735Z AUTO 36006KT 10SM OVC013 A3014 RMK MADISHF
CSV,2017-04-01 17:40,-85.0850,35.9513,M,M,M,340.00,7.00,M,30.15,M,10.00,M,OVC,M,M,M,1300.00,M,M,M,M,KCSV 011740Z AUTO 34007KT 10SM OVC013 A3015 RMK MADISHF
CSV,2017-04-01 17:45,-85.0850,35.9513,M,M,M,310.00,7.00,M,30.15,M,10.00,M,OVC,M,M,M,1300.00,M,M,M,M,KCSV 011745Z AUTO 31007KT 10SM OVC013 A3015 RMK MADISHF
CSV,2017-04-01 17:50,-85.0850,35.9513,M,M,M,290.00,4.00,M,30.15,M,10.00,M,OVC,M,M,M,1400.00,M,M,M,M,KCSV 011750Z AUTO 29004KT 10SM OVC014 A3015 RMK VRB04KT  MADISHF
CSV,2017-04-01 17:53,-85.0850,35.9513,48.90,41.00,74.05,360.00,4.00,0.00,30.15,1020.70,10.00,M,OVC,M,M,M,1400.00,M,M,M,M,KCSV 011753Z AUTO 36004KT 10SM OVC014 09/05 A3015 RMK AO2 SLP207 T00940050 10094 20067 50000
CSV,2017-04-01 17:55,-85.0850,35.9513,M,M,M,350.00,5.00,M,30.15,M,10.00,M,OVC,M,M,M,1400.00,M,M,M,M,KCSV 011755Z AUTO 35005KT 10SM OVC014 A3015 RMK MADISHF
CSV,2017-04-01 18:00,-85.0850,35.9513,M,M,M,340.00,6.00,M,30.15,M,10.00,M,OVC,M,M,M,1400.00,M,M,M,M,KCSV 011800Z AUTO 34006KT 10SM OVC014 A3015 RMK MADISHF
CSV,2017-04-01 18:05,-85.0850,35.9513,M,M,M,0.00,0.00,M,30.15,M,10.00,M,OVC,M,M,M,1400.00,M,M,M,M,KCSV 011805Z AUTO 00000KT 10SM OVC014 A3015 RMK MADISHF
CSV,2017-04-01 18:10,-85.0850,35.9513,M,M,M,340.00,6.00,M,30.15,M,10.00,M,OVC,M,M,M,1400.00,M,M,M,M,KCSV 011810Z AUTO 34006KT 10SM OVC014 A3015 RMK MADISHF
CSV,2017-04-01 18:15,-85.0850,35.9513,M,M,M,M,M,M,30.15,M,10.00,M,OVC,M,M,M,1400.00,M,M,M,M,KCSV 011815Z AUTO /////KT 10SM OVC014 A3015 RMK MADISHF
CSV,2017-04-01 18:20,-85.0850,35.9513,M,M,M,340.00,3.00,M,30.14,M,10.00,M,OVC,M,M,M,1600.00,M,M,M,M,KCSV 011820Z AUTO 34003KT 10SM OVC016 A3014 RMK VRB03KT  MADISHF
CSV,2017-04-01 18:22,-85.0850,35.9513,51.10,42.10,71.19,M,3.00,0.00,30.14,M,10.00,M,OVC,M,M,M,1600.00,M,M,M,M,KCSV 011822Z AUTO VRB03KT 10SM OVC016 11/06 A3014 RMK AO2 T01060056
CSV,2017-04-01 18:25,-85.0850,35.9513,M,M,M,M,M,M,30.14,M,10.00,M,OVC,M,M,M,1600.00,M,M,M,M,KCSV 011825Z AUTO /////KT 10SM OVC016 A3014 RMK MADISHF
CSV,2017-04-01 18:30,-85.0850,35.9513,M,M,M,340.00,6.00,M,30.14,M,10.00,M,BKN,M,M,M,1699.00,M,M,M,M,KCSV 011830Z AUTO 34006KT 10SM BKN016 A3014 RMK MADISHF
CSV,2017-04-01 18:35,-85.0850,35.9513,M,M,M,10.00,5.00,M,30.14,M,10.00,M,BKN,M,M,M,1699.00,M,M,M,M,KCSV 011835Z AUTO 01005KT 10SM BKN016 A3014 RMK VRB05KT  MADISHF
CSV,2017-04-01 18:40,-85.0850,35.9513,M,M,M,20.00,7.00,M,30.14,M,10.00,M,BKN,M,M,M,1699.00,M,M,M,M,KCSV 011840Z AUTO 02007KT 10SM BKN016 A3014 RMK MADISHF
CSV,2017-04-01 18:45,-85.0850,35.9513,M,M,M,30.00,7.00,M,30.14,M,10.00,M,BKN,M,M,M,1800.00,M,M,M,M,KCSV 011845Z AUTO 03007KT 10SM BKN018 A3014 RMK MADISHF
CSV,2017-04-01 18:50,-85.0850,35.9513,M,M,M,350.00,5.00,M,30.14,M,10.00,M,BKN,M,M,M,1800.00,M,M,M,M,KCSV 011850Z AUTO 35005KT 10SM BKN018 A3014 RMK MADISHF
CSV,2017-04-01 18:53,-85.0850,35.9513,53.10,42.10,66.13,350.00,7.00,0.00,30.14,1020.20,10.00,M,BKN,M,M,M,1800.00,M,M,M,M,KCSV 011853Z AUTO 35007KT 10SM BKN018 12/06 A3014 RMK AO2 SLP202 T01170056
CSV,2017-04-01 18:55,-85.0850,35.9513,M,M,M,350.00,6.00,M,30.14,M,10.00,M,SCT,M,M,M,1900.00,M,M,M,M,KCSV 011855Z AUTO 35006KT 10SM SCT019 A3014 RMK VRB06KT  MADISHF
CSV,2017-04-01 19:00,-85.0850,35.9513,53.10,42.10,66.13,360.00,4.00,0.00,30.14,M,10.00,M,SCT,M,M,M,1900.00,M,M,M,M,KCSV 011900Z AUTO 36004KT 10SM SCT019 12/06 A3014 RMK AO2 T01170056
CSV,2017-04-01 19:05,-85.0850,35.9513,M,M,M,M,M,M,30.13,M,10.00,M,SCT,M,M,M,1900.00,M,M,M,M,KCSV 011905Z AUTO /////KT 10SM SCT019 A3013 RMK MADISHF
CSV,2017-04-01 19:10,-85.0850,35.9513,M,M,M,40.00,8.00,M,30.13,M,10.00,M,FEW,M,M,M,1900.00,M,M,M,M,KCSV 011910Z AUTO 04008KT 10SM FEW019 A3013 RMK MADISHF
CSV,2017-04-01 19:15,-85.0850,35.9513,M,M,M,40.00,6.00,M,30.13,M,10.00,M,FEW,M,M,M,2100.00,M,M,M,M,KCSV 011915Z AUTO 04006KT 10SM FEW021 A3013 RMK MADISHF
CSV,2017-04-01 19:20,-85.0850,35.9513,M,M,M,10.00,4.00,M,30.13,M,10.00,M,FEW,M,M,M,2100.00,M,M,M,M,KCSV 011920Z AUTO 01004KT 10SM FEW021 A3013 RMK VRB04KT  MADISHF
CSV,2017-04-01 19:25,-85.0850,35.9513,M,M,M,20.00,7.00,M,30.13,M,10.00,M,FEW,M,M,M,2300.00,M,M,M,M,KCSV 011925Z AUTO 02007KT 10SM FEW023 A3013 RMK MADISHF
CSV,2017-04-01 19:30,-85.0850,35.9513,M,M,M,10.00,4.00,M,30.13,M,10.00,M,FEW,M,M,M,2300.00,M,M,M,M,KCSV 011930Z AUTO 01004KT 10SM FEW023 A3013 RMK VRB04KT  MADISHF
CSV,2017-04-01 19:35,-85.0850,35.9513,M,M,M,M,M,M,30.12,M,10.00,M,FEW,M,M,M,2300.00,M,M,M,M,KCSV 011935Z AUTO /////KT 10SM FEW023 A3012 RMK MADISHF
CSV,2017-04-01 19:40,-85.0850,35.9513,M,M,M,30.00,8.00,M,30.12,M,10.00,M,FEW,M,M,M,2300.00,M,M,M,M,KCSV 011940Z AUTO 03008KT 10SM FEW023 A3012 RMK MADISHF
CSV,2017-04-01 19:45,-85.0850,35.9513,M,M,M,0.00,0.00,M,30.12,M,10.00,M,FEW,M,M,M,2300.00,M,M,M,M,KCSV 011945Z AUTO 00000KT 10SM FEW023 A3012 RMK MADISHF
CSV,2017-04-01 19:50,-85.0850,35.9513,M,M,M,40.00,8.00,M,30.12,M,10.00,M,FEW,M,M,M,2300.00,M,M,M,M,KCSV 011950Z AUTO 04008KT 10SM FEW023 A3012 RMK MADISHF
CSV,2017-04-01 19:53,-85.0850,35.9513,55.00,43.00,63.86,50.00,7.00,0.00,30.12,1019.50,10.00,M,CLR,M,M,M,M,M,M,M,M,KCSV 011953Z AUTO 05007KT 10SM CLR 13/06 A3012 RMK AO2 SLP195 T01280061
CSV,2017-04-01 19:55,-85.0850,35.9513,M,M,M,50.00,6.00,M,30.12,M,10.00,M,CLR,M,M,M,M,M,M,M,M,KCSV 011955Z AUTO 05006KT 10SM CLR A3012 RMK MADISHF
CSV,2017-04-01 20:00,-85.0850,35.9513,M,M,M,20.00,4.00,M,30.12,M,10.00,M,CLR,M,M,M,M,M,M,M,M,KCSV 012000Z AUTO 02004KT 10SM CLR A3012 RMK VRB04KT  MADISHF
CSV,2017-04-01 20:05,-85.0850,35.9513,M,M,M,10.00,4.00,M,30.12,M,10.00,M,CLR,M,M,M,M,M,M,M,M,KCSV 012005Z AUTO 01004KT 10SM CLR A3012 RMK MADISHF
CSV,2017-04-01 20:10,-85.0850,35.9513,M,M,M,30.00,3.00,M,30.12,M,10.00,M,CLR,M,M,M,M,M,M,M,M,KCSV 012010Z AUTO 03003KT 10SM CLR A3012 RMK MADISHF
CSV,2017-04-01 20:15,-85.0850,35.9513,M,M,M,40.00,6.00,M,30.12,M,10.00,M,CLR,M,M,M,M,M,M,M,M,KCSV 012015Z AUTO 04006KT 10SM CLR A3012 RMK MADISHF
CSV,2017-04-01 20:20,-85.0850,35.9513,M,M,M,20.00,4.00,M,30.12,M,10.00,M,CLR,M,M,M,M,M,M,M,M,KCSV 012020Z AUTO 02004KT 10SM CLR A3012 RMK VRB04KT  MADISHF
CSV,2017-04-01 20:25,-85.0850,35.9513,M,M,M,0.00,0.00,M,30.12,M,10.00,M,CLR,M,M,M,M,M,M,M,M,KCSV 012025Z AUTO 00000KT 10SM CLR A3012 RMK MADISHF
CSV,2017-04-01 20:30,-85.0850,35.9513,M,M,M,360.00,3.00,M,30.12,M,10.00,M,CLR,M,M,M,M,M,M,M,M,KCSV 012030Z AUTO 36003KT 10SM CLR A3012 RMK MADISHF
CSV,2017-04-01 20:35,-85.0850,35.9513,M,M,M,30.00,3.00,M,30.12,M,10.00,M,CLR,M,M,M,M,M,M,M,M,KCSV 012035Z AUTO 03003KT 10SM CLR A3012 RMK VRB03KT  MADISHF
CSV,2017-04-01 20:40,-85.0850,35.9513,M,M,M,40.00,3.00,M,30.12,M,10.00,M,CLR,M,M,M,M,M,M,M,M,KCSV 012040Z AUTO 04003KT 10SM CLR A3012 RMK VRB03KT  MADISHF
CSV,2017-04-01 20:45,-85.0850,35.9513,M,M,M,M,M,M,30.12,M,10.00,M,CLR,M,M,M,M,M,M,M,M,KCSV 012045Z AUTO /////KT 10SM CLR A3012 RMK MADISHF
CSV,2017-04-01 20:50,-85.0850,35.9513,M,M,M,50.00,3.00,M,30.13,M,10.00,M,CLR,M,M,M,M,M,M,M,M,KCSV 012050Z AUTO 05003KT 10SM CLR A3013 RMK VRB03KT  MADISHF
CSV,2017-04-01 20:53,-85.0850,35.9513,57.00,43.00,59.40,M,4.00,0.00,30.13,1019.70,10.00,M,CLR,M,M,M,M,M,M,M,M,KCSV 012053Z AUTO VRB04KT 10SM CLR 14/06 A3013 RMK AO2 SLP197 T01390061 55007
CSV,2017-04-01 20:55,-85.0850,35.9513,M,M,M,30.00,5.00,M,30.13,M,10.00,M,CLR,M,M,M,M,M,M,M,M,KCSV 012055Z AUTO 03005KT 10SM CLR A3013 RMK VRB05KT  MADISHF
CSV,2017-04-01 21:00,-85.0850,35.9513,M,M,M,30.00,5.00,M,30.13,M,10.00,M,CLR,M,M,M,M,M,M,M,M,KCSV 012100Z AUTO 03005KT 10SM CLR A3013 RMK MADISHF
CSV,2017-04-01 21:05,-85.0850,35.9513,M,M,M,360.00,4.00,M,30.13,M,10.00,M,CLR,M,M,M,M,M,M,M,M,KCSV 012105Z AUTO 36004KT 10SM CLR A3013 RMK MADISHF
CSV,2017-04-01 21:10,-85.0850,35.9513,M,M,M,50.00,6.00,M,30.13,M,10.00,M,CLR,M,M,M,M,M,M,M,M,KCSV 012110Z AUTO 05006KT 10SM CLR A3013 RMK MADISHF
CSV,2017-04-01 21:15,-85.0850,35.9513,M,M,M,40.00,7.00,M,30.12,M,10.00,M,CLR,M,M,M,M,M,M,M,M,KCSV 012115Z AUTO 04007KT 10SM CLR A3012 RMK MADISHF
CSV,2017-04-01 21:20,-85.0850,35.9513,M,M,M,20.00,6.00,M,30.12,M,10.00,M,CLR,M,M,M,M,M,M,M,M,KCSV 012120Z AUTO 02006KT 10SM CLR A3012 RMK MADISHF
CSV,2017-04-01 21:25,-85.0850,35.9513,M,M,M,40.00,5.00,M,30.12,M,10.00,M,CLR,M,M,M,M,M,M,M,M,KCSV 012125Z AUTO 04005KT 10SM CLR A3012 RMK MADISHF
CSV,2017-04-01 21:30,-85.0850,35.9513,M,M,M,30.00,7.00,M,30.13,M,10.00,M,CLR,M,M,M,M,M,M,M,M,KCSV 012130Z AUTO 03007KT 10SM CLR A3013 RMK MADISHF
CSV,2017-04-01 21:35,-85.0850,35.9513,M,M,M,30.00,4.00,M,30.13,M,10.00,M,CLR,M,M,M,M,M,M,M,M,KCSV 012135Z AUTO 03004KT 10SM CLR A3013 RMK MADISHF
CSV,2017-04-01 21:40,-85.0850,35.9513,M,M,M,30.00,6.00,M,30.13,M,10.00,M,CLR,M,M,M,M,M,M,M,M,KCSV 012140Z AUTO 03006KT 10SM CLR A3013 RMK MADISHF
CSV,2017-04-01 21:45,-85.0850,35.9513,M,M,M,30.00,6.00,M,30.12,M,10.00,M,CLR,M,M,M,M,M,M,M,M,KCSV 012145Z AUTO 03006KT 10SM CLR A3012 RMK MADISHF
CSV,2017-04-01 21:50,-85.0850,35.9513,M,M,M,20.00,3.00,M,30.13,M,10.00,M,CLR,M,M,M,M,M,M,M,M,KCSV 012150Z AUTO 02003KT 10SM CLR A3013 RMK MADISHF
CSV,2017-04-01 21:53,-85.0850,35.9513,57.90,43.00,57.51,10.00,7.00,0.00,30.13,1019.80,10.00,M,CLR,M,M,M,M,M,M,M,M,KCSV 012153Z AUTO 01007KT 10SM CLR 14/06 A3013 RMK AO2 SLP198 T01440061
CSV,2017-04-01 21:55,-85.0850,35.9513,M,M,M,360.00,5.00,M,30.13,M,10.00,M,CLR,M,M,M,M,M,M,M,M,KCSV 012155Z AUTO 36005KT 10SM CLR A3013 RMK MADISHF
CSV,2017-04-01 22:00,-85.0850,35.9513,M,M,M,20.00,6.00,M,30.13,M,10.00,M,CLR,M,M,M,M,M,M,M,M,KCSV 012200Z AUTO 02006KT 10SM CLR A3013 RMK MADISHF
CSV,2017-04-01 22:05,-85.0850,35.9513,M,M,M,20.00,10.00,M,30.13,M,10.00,M,CLR,M,M,M,M,M,M,M,M,KCSV 012205Z AUTO 02010KT 10SM CLR A3013 RMK MADISHF
CSV,2017-04-01 22:10,-85.0850,35.9513,M,M,M,20.00,7.00,M,30.13,M,10.00,M,CLR,M,M,M,M,M,M,M,M,KCSV 012210Z AUTO 02007KT 10SM CLR A3013 RMK MADISHF
CSV,2017-04-01 22:15,-85.0850,35.9513,M,M,M,10.00,8.00,M,30.13,M,10.00,M,CLR,M,M,M,M,M,M,M,M,KCSV 012215Z AUTO 01008KT 10SM CLR A3013 RMK MADISHF
CSV,2017-04-01 22:20,-85.0850,35.9513,M,M,M,30.00,7.00,M,30.13,M,10.00,M,CLR,M,M,M,M,M,M,M,M,KCSV 012220Z AUTO 03007KT 10SM CLR A3013 RMK MADISHF
CSV,2017-04-01 22:25,-85.0850,35.9513,M,M,M,10.00,6.00,M,30.13,M,10.00,M,CLR,M,M,M,M,M,M,M,M,KCSV 012225Z AUTO 01006KT 10SM CLR A3013 RMK VRB06KT  MADISHF
CSV,2017-04-01 22:30,-85.0850,35.9513,M,M,M,30.00,6.00,M,30.13,M,10.00,M,CLR,M,M,M,M,M,M,M,M,KCSV 012230Z AUTO 03006KT 10SM CLR A3013 RMK MADISHF
CSV,2017-04-01 22:35,-85.0850,35.9513,M,M,M,20.00,7.00,M,30.14,M,10.00,M,CLR,M,M,M,M,M,M,M,M,KCSV 012235Z AUTO 02007KT 10SM CLR A3014 RMK MADISHF
CSV,2017-04-01 22:40,-85.0850,35.9513,M,M,M,20.00,7.00,M,30.14,M,10.00,M,CLR,M,M,M,M,M,M,M,M,KCSV 012240Z AUTO 02007KT 10SM CLR A3014 RMK WND 34V04  MADISHF
CSV,2017-04-01 22:45,-85.0850,35.9513,M,M,M,10.00,4.00,M,30.14,M,10.00,M,CLR,M,M,M,M,M,M,M,M,KCSV 012245Z AUTO 01004KT 10SM CLR A3014 RMK MADISHF
CSV,2017-04-01 22:50,-85.0850,35.9513,M,M,M,20.00,8.00,M,30.14,M,10.00,M,CLR,M,M,M,M,M,M,M,M,KCSV 012250Z AUTO 02008KT 10SM CLR A3014 RMK MADISHF
CSV,2017-04-01 22:53,-85.0850,35.9513,57.00,43.00,59.40,10.00,7.00,0.00,30.14,1020.20,10.00,M,CLR,M,M,M,M,M,M,M,M,KCSV 012253Z AUTO 01007KT 10SM CLR 14/06 A3014 RMK AO2 SLP202 T01390061
CSV,2017-04-01 22:55,-85.0850,35.9513,M,M,M,20.00,7.00,M,30.14,M,10.00,M,CLR,M,M,M,M,M,M,M,M,KCSV 012255Z AUTO 02007KT 10SM CLR A3014 RMK MADISHF
CSV,2017-04-01 23:00,-85.0850,35.9513,M,M,M,30.00,9.00,M,30.14,M,10.00,M,CLR,M,M,M,M,M,M,M,M,KCSV 012300Z AUTO 03009KT 10SM CLR A3014 RMK MADISHF
CSV,2017-04-01 23:05,-85.0850,35.9513,M,M,M,20.00,10.00,M,30.15,M,10.00,M,CLR,M,M,M,M,M,M,M,M,KCSV 012305Z AUTO 02010KT 10SM CLR A3015 RMK MADISHF
CSV,2017-04-01 23:10,-85.0850,35.9513,M,M,M,20.00,9.00,M,30.15,M,10.00,M,CLR,M,M,M,M,M,M,M,M,KCSV 012310Z AUTO 02009KT 10SM CLR A3015 RMK MADISHF
CSV,2017-04-01 23:15,-85.0850,35.9513,M,M,M,20.00,9.00,M,30.15,M,10.00,M,CLR,M,M,M,M,M,M,M,M,KCSV 012315Z AUTO 02009KT 10SM CLR A3015 RMK MADISHF
CSV,2017-04-01 23:20,-85.0850,35.9513,M,M,M,10.00,9.00,M,30.15,M,10.00,M,CLR,M,M,M,M,M,M,M,M,KCSV 012320Z AUTO 01009KT 10SM CLR A3015 RMK MADISHF
CSV,2017-04-01 23:25,-85.0850,35.9513,M,M,M,30.00,10.00,M,30.15,M,10.00,M,CLR,M,M,M,M,M,M,M,M,KCSV 012325Z AUTO 03010KT 10SM CLR A3015 RMK MADISHF
CSV,2017-04-01 23:30,-85.0850,35.9513,M,M,M,20.00,9.00,M,30.15,M,10.00,M,CLR,M,M,M,M,M,M,M,M,KCSV 012330Z AUTO 02009KT 10SM CLR A3015 RMK MADISHF
CSV,2017-04-01 23:35,-85.0850,35.9513,M,M,M,10.00,8.00,M,30.16,M,10.00,M,CLR,M,M,M,M,M,M,M,M,KCSV 012335Z AUTO 01008KT 10SM CLR A3016 RMK MADISHF
CSV,2017-04-01 23:40,-85.0850,35.9513,M,M,M,20.00,8.00,M,30.15,M,10.00,M,CLR,M,M,M,M,M,M,M,M,KCSV 012340Z AUTO 02008KT 10SM CLR A3015 RMK MADISHF
CSV,2017-04-01 23:45,-85.0850,35.9513,M,M,M,20.00,8.00,M,30.15,M,10.00,M,CLR,M,M,M,M,M,M,M,M,KCSV 012345Z AUTO 02008KT 10SM CLR A3015 RMK MADISHF
CSV,2017-04-01 23:50,-85.0850,35.9513,M,M,M,20.00,8.00,M,30.16,M,10.00,M,CLR,M,M,M,M,M,M,M,M,KCSV 012350Z AUTO 02008KT 10SM CLR A3016 RMK MADISHF
CSV,2017-04-01 23:53,-85.0850,35.9513,51.10,42.10,71.19,20.00,8.00,0.00,30.16,1021.10,10.00,M,CLR,M,M,M,M,M,M,M,M,KCSV 012353Z AUTO 02008KT 10SM CLR 11/06 A3016 RMK AO2 SLP211 T01060056 10150 20094 53010
CSV,2017-04-01 23:55,-85.0850,35.9513,M,M,M,10.00,8.00,M,30.16,M,10.00,M,CLR,M,M,M,M,M,M,M,M,KCSV 012355Z AUTO 01008KT 10SM CLR A3016 RMK MADISHF
