#DEBUG: Format Typ    -> comma
#DEBUG: Time Period   -> 2017-04-01 00:00:00+00:00 2017-04-02 00:00:00+00:00
#DEBUG: Time Zone     -> Etc/UTC
#DEBUG: Data Contact   -> daryl herzmann akrherz@iastate.edu 515-294-5978
#DEBUG: Entries Found -> -1
station,valid,lon,lat,tmpf, dwpf, relh, drct, sknt, p01i, alti, mslp, vsby, gust, skyc1, skyc2, skyc3, skyc4, skyl1, skyl2, skyl3, skyl4, presentwx, metar
CUL,2017-04-01 00:15,-88.1231,38.0895,45.30,42.80,90.89,330.00,9.00,0.00,29.98,M,7.00,M,BKN,OVC,M,M,1400.00,2100.00,M,M,M,KCUL 010015Z AUTO 33009KT 7SM BKN014 OVC021 07/06 A2998 RMK AO2 T00740060
CUL,2017-04-01 00:35,-88.1231,38.0895,45.00,42.80,91.94,330.00,10.00,0.00,29.98,M,10.00,M,SCT,BKN,OVC,M,1000.00,1700.00,2300.00,M,M,KCUL 010035Z AUTO 33010KT 10SM SCT010 BKN017 OVC023 07/06 A2998 RMK AO2 T00720060
CUL,2017-04-01 00:55,-88.1231,38.0895,45.00,42.80,91.94,340.00,7.00,0.00,29.99,M,10.00,M,BKN,OVC,M,M,1800.00,2300.00,M,M,M,KCUL 010055Z AUTO 34007KT 10SM BKN018 OVC023 07/06 A2999 RMK AO2 T00720060
CUL,2017-04-01 01:15,-88.1231,38.0895,45.30,42.60,90.20,330.00,7.00,0.00,30.00,M,10.00,M,OVC,M,M,M,1600.00,M,M,M,M,KCUL 010115Z AUTO 33007KT 10SM OVC016 07/06 A3000 RMK AO2 T00740059
CUL,2017-04-01 01:35,-88.1231,38.0895,45.30,42.80,90.89,340.00,6.00,0.00,30.01,M,10.00,M,OVC,M,M,M,1600.00,M,M,M,M,KCUL 010135Z AUTO 34006KT 10SM OVC016 07/06 A3001 RMK AO2 T00740060
CUL,2017-04-01 01:55,-88.1231,38.0895,45.10,42.40,90.19,340.00,7.00,0.00,30.02,M,10.00,M,SCT,OVC,M,M,1300.00,1900.00,M,M,M,KCUL 010155Z AUTO 34007KT 10SM SCT013 OVC019 07/06 A3002 RMK AO2 T00730058
CUL,2017-04-01 02:15,-88.1231,38.0895,45.50,42.40,88.83,350.00,5.00,0.00,30.03,M,10.00,M,BKN,OVC,M,M,1400.00,2000.00,M,M,M,KCUL 010215Z AUTO 35005KT 10SM BKN014 OVC020 08/06 A3003 RMK AO2 T00750058
CUL,2017-04-01 02:35,-88.1231,38.0895,44.80,42.10,90.18,340.00,6.00,0.00,30.04,M,10.00,M,SCT,OVC,M,M,1200.00,2000.00,M,M,M,KCUL 010235Z AUTO 34006KT 10SM SCT012 OVC020 07/06 A3004 RMK AO2 T00710056
CUL,2017-04-01 02:55,-88.1231,38.0895,45.00,42.10,89.49,330.00,5.00,0.00,30.04,M,10.00,M,SCT,OVC,M,M,1600.00,2000.00,M,M,M,KCUL 010255Z AUTO 33005KT 10SM SCT016 OVC020 07/06 A3004 RMK AO2 T00720056
CUL,2017-04-01 03:15,-88.1231,38.0895,44.80,42.30,90.88,320.00,5.00,0.00,30.05,M,7.00,M,SCT,OVC,M,M,1300.00,1900.00,M,M,M,KCUL 010315Z AUTO 32005KT 7SM SCT013 OVC019 07/06 A3005 RMK AO2 T00710057
CUL,2017-04-01 03:35,-88.1231,38.0895,44.60,42.60,92.63,330.00,7.00,0.00,30.05,M,5.00,M,BKN,OVC,M,M,1300.00,1700.00,M,M,BR,KCUL 010335Z AUTO 33007KT 5SM BR BKN013 OVC017 07/06 A3005 RMK AO2 T00700059
CUL,2017-04-01 03:55,-88.1231,38.0895,44.20,42.40,93.34,340.00,6.00,0.00,30.05,M,10.00,M,SCT,BKN,OVC,M,1100.00,2000.00,2700.00,M,M,KCUL 010355Z AUTO 34006KT 10SM SCT011 BKN020 OVC027 07/06 A3005 RMK AO2 T00680058
CUL,2017-04-01 04:15,-88.1231,38.0895,44.60,42.10,90.87,330.00,6.00,0.00,30.06,M,10.00,M,OVC,M,M,M,2900.00,M,M,M,M,KCUL 010415Z AUTO 33006KT 10SM OVC029 07/06 A3006 RMK AO2 T00700056
CUL,2017-04-01 04:35,-88.1231,38.0895,44.60,41.50,88.79,330.00,6.00,0.00,30.07,M,10.00,M,SCT,OVC,M,M,1500.00,2700.00,M,M,M,KCUL 010435Z AUTO 33006KT 10SM SCT015 OVC027 07/05 A3007 RMK AO2 T00700053
CUL,2017-04-01 04:55,-88.1231,38.0895,44.60,41.90,90.17,320.00,6.00,0.00,30.07,M,10.00,M,SCT,OVC,M,M,1500.00,2700.00,M,M,M,KCUL 010455Z AUTO 32006KT 10SM SCT015 OVC027 07/06 A3007 RMK AO2 T00700055
CUL,2017-04-01 05:15,-88.1231,38.0895,44.60,41.90,90.17,330.00,4.00,0.00,30.07,M,10.00,M,SCT,OVC,M,M,1500.00,2700.00,M,M,M,KCUL 010515Z AUTO 33004KT 10SM SCT015 OVC027 07/06 A3007 RMK AO2 T00700055
CUL,2017-04-01 05:35,-88.1231,38.0895,43.90,41.50,91.19,360.00,9.00,0.00,30.08,M,7.00,M,BKN,BKN,OVC,M,1300.00,2000.00,2500.00,M,M,KCUL 010535Z AUTO 36009KT 7SM BKN013 BKN020 OVC025 07/05 A3008 RMK AO2 T00660053
CUL,2017-04-01 05:55,-88.1231,38.0895,43.70,41.90,93.32,350.00,7.00,0.00,30.08,M,10.00,M,SCT,OVC,M,M,1500.00,2000.00,M,M,M,KCUL 010555Z AUTO 35007KT 10SM SCT015 OVC020 07/06 A3008 RMK AO2 T00650055 10076 20065 401200065
CUL,2017-04-01 06:15,-88.1231,38.0895,43.30,40.50,89.77,340.00,6.00,0.00,30.08,M,10.00,M,OVC,M,M,M,2000.00,M,M,M,M,KCUL 010615Z AUTO 34006KT 10SM OVC020 06/05 A3008 RMK AO2 T00630047
CUL,2017-04-01 06:35,-88.1231,38.0895,43.50,41.00,90.83,340.00,6.00,0.00,30.08,M,10.00,M,OVC,M,M,M,2400.00,M,M,M,M,KCUL 010635Z AUTO 34006KT 10SM OVC024 06/05 A3008 RMK AO2 T00640050
CUL,2017-04-01 06:55,-88.1231,38.0895,43.70,40.80,89.44,340.00,6.00,0.00,30.08,M,10.00,M,OVC,M,M,M,2400.00,M,M,M,M,KCUL 010655Z AUTO 34006KT 10SM OVC024 07/05 A3008 RMK AO2 T00650049
CUL,2017-04-01 07:15,-88.1231,38.0895,43.70,40.30,87.72,320.00,4.00,0.00,30.09,M,10.00,M,OVC,M,M,M,2200.00,M,M,M,M,KCUL 010715Z AUTO 32004KT 10SM OVC022 07/05 A3009 RMK AO2 T00650046
CUL,2017-04-01 07:35,-88.1231,38.0895,43.70,40.10,87.04,330.00,6.00,0.00,30.10,M,10.00,M,OVC,M,M,M,2000.00,M,M,M,M,KCUL 010735Z AUTO 33006KT 10SM OVC020 07/05 A3010 RMK AO2 T00650045
CUL,2017-04-01 07:55,-88.1231,38.0895,43.70,40.10,87.04,340.00,4.00,0.00,30.11,M,10.00,M,OVC,M,M,M,2000.00,M,M,M,M,KCUL 010755Z AUTO 34004KT 10SM OVC020 07/05 A3011 RMK AO2 T00650045
CUL,2017-04-01 08:15,-88.1231,38.0895,43.70,39.60,85.36,330.00,5.00,0.00,30.12,M,10.00,M,OVC,M,M,M,2000.00,M,M,M,M,KCUL 010815Z AUTO 33005KT 10SM OVC020 07/04 A3012 RMK AO2 T00650042
CUL,2017-04-01 08:35,-88.1231,38.0895,43.70,39.60,85.36,330.00,6.00,0.00,30.12,M,10.00,M,OVC,M,M,M,1800.00,M,M,M,M,KCUL 010835Z AUTO 33006KT 10SM OVC018 07/04 A3012 RMK AO2 T00650042
CUL,2017-04-01 08:55,-88.1231,38.0895,43.50,39.40,85.35,360.00,8.00,0.00,30.12,M,10.00,M,OVC,M,M,M,1600.00,M,M,M,M,KCUL 010855Z AUTO 36008KT 10SM OVC016 06/04 A3012 RMK AO2 T00640041
CUL,2017-04-01 09:15,-88.1231,38.0895,43.20,39.20,85.67,360.00,6.00,0.00,30.11,M,10.00,M,OVC,M,M,M,1800.00,M,M,M,M,KCUL 010915Z AUTO 36006KT 10SM OVC018 06/04 A3011 RMK AO2 T00620040
CUL,2017-04-01 09:35,-88.1231,38.0895,43.20,38.70,84.01,340.00,7.00,0.00,30.12,M,10.00,M,OVC,M,M,M,1800.00,M,M,M,M,KCUL 010935Z AUTO 34007KT 10SM OVC018 06/04 A3012 RMK AO2 T00620037
CUL,2017-04-01 09:55,-88.1231,38.0895,42.80,38.70,85.31,330.00,4.00,0.00,30.12,M,10.00,M,SCT,OVC,M,M,2000.00,2700.00,M,M,M,KCUL 010955Z AUTO 33004KT 10SM SCT020 OVC027 06/04 A3012 RMK AO2 T00600037
CUL,2017-04-01 10:15,-88.1231,38.0895,42.80,39.20,86.99,330.00,3.00,0.00,30.13,M,10.00,M,OVC,M,M,M,2500.00,M,M,M,M,KCUL 011015Z AUTO 33003KT 10SM OVC025 06/04 A3013 RMK AO2 T00600040
CUL,2017-04-01 10:35,-88.1231,38.0895,43.00,39.00,85.66,330.00,4.00,0.00,30.13,M,10.00,M,OVC,M,M,M,2500.00,M,M,M,M,KCUL 011035Z AUTO 33004KT 10SM OVC025 06/04 A3013 RMK AO2 T00610039
CUL,2017-04-01 10:55,-88.1231,38.0895,43.00,39.40,87.00,310.00,4.00,0.00,30.14,M,10.00,M,OVC,M,M,M,2500.00,M,M,M,M,KCUL 011055Z AUTO 31004KT 10SM OVC025 06/04 A3014 RMK AO2 T00610041
CUL,2017-04-01 11:15,-88.1231,38.0895,43.00,40.10,89.41,310.00,4.00,0.00,30.15,M,10.00,M,OVC,M,M,M,2500.00,M,M,M,M,KCUL 011115Z AUTO 31004KT 10SM OVC025 06/05 A3015 RMK AO2 T00610045
CUL,2017-04-01 11:35,-88.1231,38.0895,43.00,39.60,87.68,310.00,6.00,0.00,30.16,M,10.00,M,SCT,OVC,M,M,1800.00,2700.00,M,M,M,KCUL 011135Z AUTO 31006KT 10SM SCT018 OVC027 06/04 A3016 RMK AO2 T00610042
CUL,2017-04-01 11:55,-88.1231,38.0895,43.20,39.70,87.35,300.00,6.00,0.00,30.18,M,10.00,M,BKN,BKN,OVC,M,1800.00,2400.00,2900.00,M,M,KCUL 011155Z AUTO 30006KT 10SM BKN018 BKN024 OVC029 06/04 A3018 RMK AO2 T00620043 10066 20060
CUL,2017-04-01 12:15,-88.1231,38.0895,43.00,39.70,88.03,310.00,7.00,0.00,30.19,M,10.00,M,SCT,BKN,OVC,M,1600.00,2300.00,2900.00,M,M,KCUL 011215Z AUTO 31007KT 10SM SCT016 BKN023 OVC029 06/04 A3019 RMK AO2 T00610043
CUL,2017-04-01 12:35,-88.1231,38.0895,43.00,39.60,87.68,320.00,9.00,0.00,30.19,M,10.00,M,SCT,OVC,M,M,2000.00,2900.00,M,M,M,KCUL 011235Z AUTO 32009KT 10SM SCT020 OVC029 06/04 A3019 RMK AO2 T00610042
CUL,2017-04-01 12:55,-88.1231,38.0895,43.30,40.30,89.07,320.00,7.00,0.00,30.20,M,7.00,M,SCT,SCT,OVC,M,1200.00,1900.00,2900.00,M,M,KCUL 011255Z AUTO 32007KT 7SM SCT012 SCT019 OVC029 06/05 A3020 RMK AO2 T00630046
CUL,2017-04-01 13:15,-88.1231,38.0895,43.70,39.90,86.37,330.00,7.00,0.00,30.20,M,10.00,M,SCT,OVC,M,M,1200.00,2900.00,M,M,M,KCUL 011315Z AUTO 33007KT 10SM SCT012 OVC029 07/04 A3020 RMK AO2 T00650044
CUL,2017-04-01 13:35,-88.1231,38.0895,43.90,39.90,85.71,350.00,6.00,0.00,30.20,M,10.00,M,SCT,BKN,M,M,1200.00,2900.00,M,M,M,KCUL 011335Z AUTO 35006KT 10SM SCT012 BKN029 07/04 A3020 RMK AO2 T00660044
CUL,2017-04-01 13:55,-88.1231,38.0895,45.10,40.10,82.52,330.00,5.00,0.00,30.21,M,10.00,M,SCT,M,M,M,1200.00,M,M,M,M,KCUL 011355Z AUTO 33005KT 10SM SCT012 07/05 A3021 RMK AO2 T00730045
CUL,2017-04-01 14:15,-88.1231,38.0895,46.40,39.90,77.94,10.00,6.00,0.00,30.20,M,10.00,M,BKN,M,M,M,1400.00,M,M,M,M,KCUL 011415Z AUTO 01006KT 10SM BKN014 08/04 A3020 RMK AO2 T00800044
CUL,2017-04-01 14:35,-88.1231,38.0895,46.80,39.40,75.29,320.00,7.00,0.00,30.21,M,10.00,M,SCT,M,M,M,1600.00,M,M,M,M,KCUL 011435Z AUTO 32007KT 10SM SCT016 08/04 A3021 RMK AO2 T00820041
CUL,2017-04-01 14:55,-88.1231,38.0895,47.50,39.60,73.91,20.00,6.00,0.00,30.22,M,10.00,M,SCT,M,M,M,1800.00,M,M,M,M,KCUL 011455Z AUTO 02006KT 10SM SCT018 09/04 A3022 RMK AO2 T00860042
CUL,2017-04-01 15:15,-88.1231,38.0895,48.20,38.80,69.78,20.00,3.00,0.00,30.22,M,10.00,M,BKN,M,M,M,2000.00,M,M,M,M,KCUL 011515Z AUTO 02003KT 10SM BKN020 09/04 A3022 RMK AO2 T00900038
CUL,2017-04-01 15:35,-88.1231,38.0895,49.10,40.10,70.97,360.00,6.00,0.00,30.23,M,10.00,M,BKN,M,M,M,2200.00,M,M,M,M,KCUL 011535Z AUTO 36006KT 10SM BKN022 10/05 A3023 RMK AO2 T00950045
CUL,2017-04-01 15:55,-88.1231,38.0895,48.60,39.00,69.28,360.00,4.00,0.00,30.22,M,10.00,M,SCT,M,M,M,2200.00,M,M,M,M,KCUL 011555Z AUTO 36004KT 10SM SCT022 09/04 A3022 RMK AO2 T00920039
CUL,2017-04-01 16:15,-88.1231,38.0895,48.40,39.00,69.80,340.00,4.00,0.00,30.22,M,10.00,M,SCT,M,M,M,2400.00,M,M,M,M,KCUL 011615Z AUTO 34004KT 10SM SCT024 09/04 A3022 RMK AO2 T00910039
CUL,2017-04-01 16:35,-88.1231,38.0895,49.60,39.90,69.12,350.00,5.00,0.00,30.22,M,10.00,M,BKN,M,M,M,2400.00,M,M,M,M,KCUL 011635Z AUTO 35005KT 10SM BKN024 10/04 A3022 RMK AO2 T00980044
CUL,2017-04-01 16:55,-88.1231,38.0895,51.40,41.40,68.53,30.00,4.00,0.00,30.21,M,10.00,M,OVC,M,M,M,2600.00,M,M,M,M,KCUL 011655Z AUTO 03004KT 10SM OVC026 11/05 A3021 RMK AO2 T01080052
CUL,2017-04-01 17:15,-88.1231,38.0895,50.50,40.80,69.22,50.00,5.00,0.00,30.21,M,10.00,M,OVC,M,M,M,2600.00,M,M,M,M,KCUL 011715Z AUTO 05005KT 10SM OVC026 10/05 A3021 RMK AO2 T01030049
CUL,2017-04-01 17:35,-88.1231,38.0895,50.90,41.40,69.81,360.00,3.00,0.00,30.20,M,10.00,M,OVC,M,M,M,2600.00,M,M,M,M,KCUL 011735Z AUTO 36003KT 10SM OVC026 11/05 A3020 RMK AO2 T01050052
CUL,2017-04-01 17:55,-88.1231,38.0895,51.10,41.70,70.10,40.00,5.00,0.00,30.20,M,10.00,M,OVC,M,M,M,2600.00,M,M,M,M,KCUL 011755Z AUTO 04005KT 10SM OVC026 11/05 A3020 RMK AO2 T01060054 10108 20061
CUL,2017-04-01 18:15,-88.1231,38.0895,50.90,40.60,67.68,0.00,0.00,0.00,30.21,M,10.00,M,OVC,M,M,M,2600.00,M,M,M,M,KCUL 011815Z AUTO 00000KT 10SM OVC026 11/05 A3021 RMK AO2 T01050048
CUL,2017-04-01 18:35,-88.1231,38.0895,51.40,40.80,66.95,0.00,0.00,0.00,30.21,M,10.00,M,OVC,M,M,M,2600.00,M,M,M,M,KCUL 011835Z AUTO 00000KT 10SM OVC026 11/05 A3021 RMK AO2 T01080049
CUL,2017-04-01 18:55,-88.1231,38.0895,51.10,40.60,67.18,0.00,0.00,0.00,30.21,M,10.00,M,OVC,M,M,M,2800.00,M,M,M,M,KCUL 011855Z AUTO 00000KT 10SM OVC028 11/05 A3021 RMK AO2 T01060048
CUL,2017-04-01 19:15,-88.1231,38.0895,51.80,41.40,67.52,350.00,3.00,0.00,30.21,M,10.00,M,OVC,M,M,M,2800.00,M,M,M,M,KCUL 011915Z AUTO 35003KT 10SM OVC028 11/05 A3021 RMK AO2 T01100052
CUL,2017-04-01 19:35,-88.1231,38.0895,51.80,41.70,68.31,20.00,3.00,0.00,30.21,M,10.00,M,OVC,M,M,M,2800.00,M,M,M,M,KCUL 011935Z AUTO 02003KT 10SM OVC028 11/05 A3021 RMK AO2 T01100054
CUL,2017-04-01 19:55,-88.1231,38.0895,52.70,41.70,66.08,330.00,3.00,0.00,30.21,M,10.00,M,OVC,M,M,M,3000.00,M,M,M,M,KCUL 011955Z AUTO 33003KT 10SM OVC030 12/05 A3021 RMK AO2 T01150054
CUL,2017-04-01 20:15,-88.1231,38.0895,52.70,41.70,66.08,40.00,5.00,0.00,30.20,M,10.00,M,OVC,M,M,M,3000.00,M,M,M,M,KCUL 012015Z AUTO 04005KT 10SM OVC030 12/05 A3020 RMK AO2 T01150054
CUL,2017-04-01 20:35,-88.1231,38.0895,52.90,41.20,64.34,360.00,4.00,0.00,30.20,M,10.00,M,OVC,M,M,M,3000.00,M,M,M,M,KCUL 012035Z AUTO 36004KT 10SM OVC030 12/05 A3020 RMK AO2 T01160051
CUL,2017-04-01 20:55,-88.1231,38.0895,53.10,41.70,65.12,50.00,3.00,0.00,30.19,M,10.00,M,OVC,M,M,M,3000.00,M,M,M,M,KCUL 012055Z AUTO 05003KT 10SM OVC030 12/05 A3019 RMK AO2 T01170054
CUL,2017-04-01 21:15,-88.1231,38.0895,53.40,41.50,63.91,30.00,4.00,0.00,30.19,M,10.00,M,BKN,M,M,M,3000.00,M,M,M,M,KCUL 012115Z AUTO 03004KT 10SM BKN030 12/05 A3019 RMK AO2 T01190053
CUL,2017-04-01 21:35,-88.1231,38.0895,53.10,42.40,66.90,70.00,8.00,0.00,30.18,M,10.00,M,BKN,M,M,M,3000.00,M,M,M,M,KCUL 012135Z AUTO 07008KT 10SM BKN030 12/06 A3018 RMK AO2 T01170058
CUL,2017-04-01 21:55,-88.1231,38.0895,54.10,43.00,66.00,30.00,6.00,0.00,30.19,M,10.00,M,BKN,M,M,M,3000.00,M,M,M,M,KCUL 012155Z AUTO 03006KT 10SM BKN030 12/06 A3019 RMK AO2 T01230061
CUL,2017-04-01 22:15,-88.1231,38.0895,53.60,42.10,64.93,30.00,5.00,0.00,30.19,M,10.00,M,BKN,M,M,M,3000.00,M,M,M,M,KCUL 012215Z AUTO 03005KT 10SM BKN030 12/06 A3019 RMK AO2 T01200056
CUL,2017-04-01 22:35,-88.1231,38.0895,53.60,42.80,66.70,60.00,8.00,0.00,30.19,M,10.00,M,OVC,M,M,M,3000.00,M,M,M,M,KCUL 012235Z AUTO 06008KT 10SM OVC030 12/06 A3019 RMK AO2 T01200060
CUL,2017-04-01 22:55,-88.1231,38.0895,51.80,41.70,68.31,50.00,7.00,0.00,30.19,M,10.00,M,OVC,M,M,M,3000.00,M,M,M,M,KCUL 012255Z AUTO 05007KT 10SM OVC030 11/05 A3019 RMK AO2 T01100054
CUL,2017-04-01 23:15,-88.1231,38.0895,51.80,43.20,72.36,60.00,5.00,0.00,30.19,M,10.00,M,OVC,M,M,M,3000.00,M,M,M,M,KCUL 012315Z AUTO 06005KT 10SM OVC030 11/06 A3019 RMK AO2 T01100062
CUL,2017-04-01 23:35,-88.1231,38.0895,51.30,42.10,70.66,70.00,5.00,0.00,30.20,M,10.00,M,OVC,M,M,M,2800.00,M,M,M,M,KCUL 012335Z AUTO 07005KT 10SM OVC028 11/06 A3020 RMK AO2 T01070056
CUL,2017-04-01 23:55,-88.1231,38.0895,50.90,42.40,72.55,70.00,7.00,0.00,30.20,M,10.00,M,OVC,M,M,M,2800.00,M,M,M,M,KCUL 012355Z AUTO 07007KT 10SM OVC028 11/06 A3020 RMK AO2 T01050058 10127 20103
