#DEBUG: Format Typ    -> comma
#DEBUG: Time Period   -> 2017-04-01 00:00:00+00:00 2017-04-02 00:00:00+00:00
#DEBUG: Time Zone     -> Etc/UTC
#DEBUG: Data Contact   -> daryl herzmann akrherz@iastate.edu 515-294-5978
#DEBUG: Entries Found -> -1
station,valid,lon,lat,tmpf, dwpf, relh, drct, sknt, p01i, alti, mslp, vsby, gust, skyc1, skyc2, skyc3, skyc4, skyl1, skyl2, skyl3, skyl4, presentwx, metar
CUT,2017-04-01 00:00,-103.6114,43.7331,M,M,M,70.00,6.00,M,M,M,10.00,M,FEW,FEW,OVC,M,1100.00,6000.00,7500.00,M,M,KCUT 010000Z AUTO 07006KT 10SM FEW011 FEW060 OVC075 RMK MADISHF
CUT,2017-04-01 00:05,-103.6114,43.7331,M,M,M,100.00,5.00,M,M,M,10.00,M,FEW,OVC,M,M,900.00,7500.00,M,M,M,KCUT 010005Z AUTO 10005KT 10SM FEW009 OVC075 RMK MADISHF
CUT,2017-04-01 00:08,-103.6114,43.7331,35.10,30.00,81.46,110.00,6.00,0.00,30.03,M,10.00,M,SCT,OVC,M,M,900.00,7500.00,M,M,M,KCUT 010008Z AUTO 11006KT 10SM SCT009 OVC075 02/M01 A3003 RMK AO2 T00171011
CUT,2017-04-01 00:10,-103.6114,43.7331,M,M,M,100.00,6.00,M,30.03,M,10.00,M,SCT,OVC,M,M,900.00,7500.00,M,M,M,KCUT 010010Z AUTO 10006KT 10SM SCT009 OVC075 A3003 RMK MADISHF
CUT,2017-04-01 00:15,-103.6114,43.7331,M,M,M,90.00,5.00,M,M,M,10.00,M,BKN,OVC,M,M,900.00,7500.00,M,M,M,KCUT 010015Z AUTO 09005KT 10SM BKN009 OVC075 RMK MADISHF
CUT,2017-04-01 00:20,-103.6114,43.7331,35.10,30.00,81.46,90.00,6.00,0.00,30.04,M,10.00,M,BKN,OVC,M,M,900.00,8000.00,M,M,M,KCUT 010020Z AUTO 09006KT 10SM BKN009 OVC080 02/M01 A3004 RMK AO2 T00171011
CUT,2017-04-01 00:25,-103.6114,43.7331,M,M,M,80.00,6.00,M,M,M,10.00,M,BKN,OVC,M,M,800.00,7999.00,M,M,M,KCUT 010025Z AUTO 08006KT 10SM BKN008 OVC079 RMK MADISHF
CUT,2017-04-01 00:30,-103.6114,43.7331,M,M,M,90.00,5.00,M,30.04,M,10.00,M,OVC,M,M,M,800.00,M,M,M,M,KCUT 010030Z AUTO 09005KT 10SM OVC008 A3004 RMK MADISHF
CUT,2017-04-01 00:35,-103.6114,43.7331,M,M,M,90.00,6.00,M,M,M,10.00,M,OVC,M,M,M,800.00,M,M,M,M,KCUT 010035Z AUTO 09006KT 10SM OVC008 RMK MADISHF
CUT,2017-04-01 00:40,-103.6114,43.7331,M,M,M,100.00,6.00,M,M,M,10.00,M,OVC,M,M,M,700.00,M,M,M,M,KCUT 010040Z AUTO 10006KT 10SM OVC007 RMK MADISHF
CUT,2017-04-01 00:45,-103.6114,43.7331,M,M,M,100.00,6.00,M,M,M,10.00,M,OVC,M,M,M,700.00,M,M,M,M,KCUT 010045Z AUTO 10006KT 10SM OVC007 RMK MADISHF
CUT,2017-04-01 00:50,-103.6114,43.7331,M,M,M,100.00,6.00,M,30.06,M,10.00,M,OVC,M,M,M,700.00,M,M,M,M,KCUT 010050Z AUTO 10006KT 10SM OVC007 A3006 RMK MADISHF
CUT,2017-04-01 00:53,-103.6114,43.7331,34.00,30.00,85.11,100.00,5.00,0.00,30.06,1019.40,10.00,M,OVC,M,M,M,700.00,M,M,M,M,KCUT 010053Z AUTO 10005KT 10SM OVC007 01/M01 A3006 RMK AO2 SLP194 T00111011
CUT,2017-04-01 00:55,-103.6114,43.7331,M,M,M,110.00,6.00,M,M,M,10.00,M,OVC,M,M,M,700.00,M,M,M,M,KCUT 010055Z AUTO 11006KT 10SM OVC007 RMK MADISHF
CUT,2017-04-01 01:00,-103.6114,43.7331,M,M,M,120.00,6.00,M,M,M,10.00,M,OVC,M,M,M,600.00,M,M,M,M,KCUT 010100Z AUTO 12006KT 10SM OVC006 RMK MADISHF
CUT,2017-04-01 01:05,-103.6114,43.7331,M,M,M,100.00,6.00,M,M,M,10.00,M,OVC,M,M,M,600.00,M,M,M,M,KCUT 010105Z AUTO 10006KT 10SM OVC006 RMK MADISHF
CUT,2017-04-01 01:10,-103.6114,43.7331,M,M,M,100.00,5.00,M,30.07,M,10.00,M,OVC,M,M,M,600.00,M,M,M,M,KCUT 010110Z AUTO 10005KT 10SM OVC006 A3007 RMK MADISHF
CUT,2017-04-01 01:15,-103.6114,43.7331,M,M,M,100.00,6.00,M,M,M,10.00,M,OVC,M,M,M,499.00,M,M,M,M,KCUT 010115Z AUTO 10006KT 10SM OVC004 RMK MADISHF
CUT,2017-04-01 01:20,-103.6114,43.7331,M,M,M,90.00,6.00,M,M,M,10.00,M,OVC,M,M,M,300.00,M,M,M,M,KCUT 010120Z AUTO 09006KT 10SM OVC003 RMK MADISHF
CUT,2017-04-01 01:25,-103.6114,43.7331,33.10,30.00,88.23,100.00,5.00,0.00,30.07,M,10.00,M,OVC,M,M,M,300.00,M,M,M,M,KCUT 010125Z AUTO 10005KT 10SM OVC003 01/M01 A3007 RMK AO2 CIG 002V005 T00061011
CUT,2017-04-01 01:30,-103.6114,43.7331,M,M,M,110.00,5.00,M,30.07,M,7.00,M,OVC,M,M,M,300.00,M,M,M,M,KCUT 010130Z AUTO 11005KT 7SM OVC003 A3007 RMK MADISHF
CUT,2017-04-01 01:35,-103.6114,43.7331,M,M,M,90.00,5.00,M,M,M,6.00,M,OVC,M,M,M,300.00,M,M,M,BR,KCUT 010135Z AUTO 09005KT 6SM BR OVC003 RMK MADISHF
CUT,2017-04-01 01:40,-103.6114,43.7331,M,M,M,90.00,5.00,M,M,M,5.00,M,OVC,M,M,M,300.00,M,M,M,BR,KCUT 010140Z AUTO 09005KT 5SM BR OVC003 RMK MADISHF
CUT,2017-04-01 01:45,-103.6114,43.7331,M,M,M,100.00,6.00,M,M,M,2.00,M,OVC,M,M,M,200.00,M,M,M,BR,KCUT 010145Z AUTO 10006KT 2SM BR OVC002 RMK MADISHF
CUT,2017-04-01 01:47,-103.6114,43.7331,32.00,30.20,92.97,100.00,5.00,0.00,30.08,M,1.75,M,OVC,M,M,M,200.00,M,M,M,BR,KCUT 010147Z AUTO 10005KT 1 3/4SM BR OVC002 00/M01 A3008 RMK AO2
CUT,2017-04-01 01:50,-103.6114,43.7331,M,M,M,100.00,6.00,M,30.08,M,1.25,M,OVC,M,M,M,200.00,M,M,M,BR,KCUT 010150Z AUTO 10006KT 1 1/2SM BR OVC002 A3008 RMK MADISHF
CUT,2017-04-01 01:53,-103.6114,43.7331,32.00,28.90,88.17,100.00,5.00,0.00,30.08,1020.60,0.75,M,OVC,M,M,M,200.00,M,M,M,BR,KCUT 010153Z AUTO 10005KT 3/4SM BR OVC002 00/M02 A3008 RMK AO2 SLP206 T00001017
CUT,2017-04-01 01:55,-103.6114,43.7331,M,M,M,100.00,5.00,M,M,M,0.75,M,OVC,M,M,M,200.00,M,M,M,BR,KCUT 010155Z AUTO 10005KT 1SM BR OVC002 RMK MADISHF
CUT,2017-04-01 02:00,-103.6114,43.7331,M,M,M,110.00,6.00,M,M,M,0.50,M,VV ,M,M,M,200.00,M,M,M,FG,KCUT 010200Z AUTO 11006KT 1/2SM FG VV002 RMK MADISHF
CUT,2017-04-01 02:05,-103.6114,43.7331,M,M,M,80.00,6.00,M,30.09,M,0.25,M,VV ,M,M,M,200.00,M,M,M,FZFG,KCUT 010205Z AUTO 08006KT 1/4SM FZFG VV002 A3009 RMK MADISHF
CUT,2017-04-01 02:09,-103.6114,43.7331,32.00,30.00,92.22,90.00,6.00,0.00,30.09,M,0.25,M,VV ,M,M,M,100.00,M,M,M,FG,KCUT 010209Z AUTO 09006KT 1/4SM FG VV001 00/M01 A3009 RMK AO2 T00001011
CUT,2017-04-01 02:10,-103.6114,43.7331,M,M,M,90.00,6.00,M,30.09,M,0.25,M,VV ,M,M,M,100.00,M,M,M,FG,KCUT 010210Z AUTO 09006KT 1/4SM FG VV001 A3009 RMK MADISHF
CUT,2017-04-01 02:15,-103.6114,43.7331,M,M,M,80.00,6.00,M,30.09,M,0.25,M,VV ,M,M,M,100.00,M,M,M,FG,KCUT 010215Z AUTO 08006KT 1/4SM FG VV001 A3009 RMK MADISHF
CUT,2017-04-01 02:20,-103.6114,43.7331,M,M,M,80.00,6.00,M,30.09,M,0.24,M,VV ,M,M,M,100.00,M,M,M,FZFG,KCUT 010220Z AUTO 08006KT 1/4SM FZFG VV001 A3009 RMK MADISHF
CUT,2017-04-01 02:25,-103.6114,43.7331,M,M,M,80.00,4.00,M,30.09,M,0.24,M,VV ,M,M,M,100.00,M,M,M,FZFG,KCUT 010225Z AUTO 08004KT 1/4SM FZFG VV001 A3009 RMK MADISHF
CUT,2017-04-01 02:30,-103.6114,43.7331,M,M,M,100.00,4.00,M,30.10,M,0.25,M,VV ,M,M,M,100.00,M,M,M,FZFG,KCUT 010230Z AUTO 10004KT 1/4SM FZFG VV001 A3010 RMK MADISHF
CUT,2017-04-01 02:35,-103.6114,43.7331,M,M,M,110.00,4.00,M,30.10,M,0.25,M,VV ,M,M,M,100.00,M,M,M,FG,KCUT 010235Z AUTO 11004KT 1/4SM FG VV001 A3010 RMK MADISHF
CUT,2017-04-01 02:40,-103.6114,43.7331,M,M,M,100.00,5.00,M,M,M,0.25,M,VV ,M,M,M,100.00,M,M,M,FZFG,KCUT 010240Z AUTO 10005KT 1/4SM FZFG VV001 RMK MADISHF
CUT,2017-04-01 02:45,-103.6114,43.7331,M,M,M,80.00,5.00,M,M,M,0.24,M,VV ,M,M,M,100.00,M,M,M,FG,KCUT 010245Z AUTO 08005KT 1/4SM FG VV001 RMK MADISHF
CUT,2017-04-01 02:50,-103.6114,43.7331,M,M,M,70.00,6.00,M,30.11,M,0.24,M,VV ,M,M,M,100.00,M,M,M,FZFG,KCUT 010250Z AUTO 07006KT 1/4SM FZFG VV001 A3011 RMK MADISHF
CUT,2017-04-01 02:53,-103.6114,43.7331,30.90,28.90,92.18,60.00,6.00,0.00,30.11,1021.70,0.25,M,VV ,M,M,M,100.00,M,M,M,FZFG,KCUT 010253Z AUTO 06006KT 1/4SM FZFG VV001 M01/M02 A3011 RMK AO2 SLP217 T10061017 51023
CUT,2017-04-01 02:55,-103.6114,43.7331,M,M,M,70.00,7.00,M,30.11,M,0.24,M,VV ,M,M,M,100.00,M,M,M,FZFG,KCUT 010255Z AUTO 07007KT 1/4SM FZFG VV001 A3011 RMK MADISHF
CUT,2017-04-01 03:00,-103.6114,43.7331,M,M,M,90.00,6.00,M,30.11,M,0.24,M,VV ,M,M,M,100.00,M,M,M,FZFG,KCUT 010300Z AUTO 09006KT 1/4SM FZFG VV001 A3011 RMK MADISHF
CUT,2017-04-01 03:05,-103.6114,43.7331,M,M,M,80.00,5.00,M,30.12,M,0.24,M,VV ,M,M,M,100.00,M,M,M,FZFG,KCUT 010305Z AUTO 08005KT 1/4SM FZFG VV001 A3012 RMK MADISHF
CUT,2017-04-01 03:10,-103.6114,43.7331,M,M,M,100.00,6.00,M,30.12,M,0.24,M,VV ,M,M,M,100.00,M,M,M,FZFG,KCUT 010310Z AUTO 10006KT 1/4SM FZFG VV001 A3012 RMK MADISHF
CUT,2017-04-01 03:15,-103.6114,43.7331,M,M,M,90.00,5.00,M,30.12,M,0.24,M,VV ,M,M,M,100.00,M,M,M,FZFG,KCUT 010315Z AUTO 09005KT 1/4SM FZFG VV001 A3012 RMK MADISHF
CUT,2017-04-01 03:20,-103.6114,43.7331,M,M,M,110.00,4.00,M,30.13,M,0.24,M,VV ,M,M,M,100.00,M,M,M,FZFG,KCUT 010320Z AUTO 11004KT 1/4SM FZFG VV001 A3013 RMK MADISHF
CUT,2017-04-01 03:25,-103.6114,43.7331,M,M,M,90.00,5.00,M,30.13,M,0.24,M,VV ,M,M,M,100.00,M,M,M,FZFG,KCUT 010325Z AUTO 09005KT 1/4SM FZFG VV001 A3013 RMK MADISHF
CUT,2017-04-01 03:30,-103.6114,43.7331,M,M,M,90.00,6.00,M,30.13,M,0.24,M,VV ,M,M,M,100.00,M,M,M,FZFG,KCUT 010330Z AUTO 09006KT 1/4SM FZFG VV001 A3013 RMK MADISHF
CUT,2017-04-01 03:35,-103.6114,43.7331,M,M,M,100.00,5.00,M,30.13,M,0.24,M,VV ,M,M,M,100.00,M,M,M,FZFG,KCUT 010335Z AUTO 10005KT 1/4SM FZFG VV001 A3013 RMK MADISHF
CUT,2017-04-01 03:40,-103.6114,43.7331,M,M,M,100.00,4.00,M,30.13,M,0.24,M,VV ,M,M,M,100.00,M,M,M,FZFG,KCUT 010340Z AUTO 10004KT 1/4SM FZFG VV001 A3013 RMK MADISHF
CUT,2017-04-01 03:45,-103.6114,43.7331,M,M,M,50.00,3.00,M,30.13,M,0.24,M,VV ,M,M,M,100.00,M,M,M,FG,KCUT 010345Z AUTO 05003KT 1/4SM FG VV001 A3013 RMK MADISHF
CUT,2017-04-01 03:50,-103.6114,43.7331,M,M,M,60.00,4.00,M,30.14,M,0.24,M,VV ,M,M,M,100.00,M,M,M,-SN FG,KCUT 010350Z AUTO 06004KT 1/4SM -SN FG VV001 A3014 RMK MADISHF
CUT,2017-04-01 03:53,-103.6114,43.7331,32.00,30.00,92.22,90.00,4.00,0.00,30.14,1022.40,0.25,M,VV ,M,M,M,100.00,M,M,M,-SN FG,KCUT 010353Z AUTO 09004KT 1/4SM -SN FG VV001 00/M01 A3014 RMK AO2 SNB48 SLP224 P0000 T00001011
CUT,2017-04-01 03:55,-103.6114,43.7331,M,M,M,90.00,4.00,M,30.14,M,0.24,M,VV ,M,M,M,100.00,M,M,M,-SN FG,KCUT 010355Z AUTO 09004KT 1/4SM -SN FG VV001 A3014 RMK MADISHF
CUT,2017-04-01 04:00,-103.6114,43.7331,M,M,M,60.00,4.00,M,30.14,M,0.24,M,VV ,M,M,M,100.00,M,M,M,-SN FG,KCUT 010400Z AUTO 06004KT 1/4SM -SN FG VV001 A3014 RMK MADISHF
CUT,2017-04-01 04:05,-103.6114,43.7331,M,M,M,90.00,3.00,0.01,30.14,M,0.24,M,VV ,M,M,M,100.00,M,M,M,SN FG,KCUT 010405Z AUTO 09003KT 1/4SM SN FG VV001 A3014 RMK P0001 MADISHF
CUT,2017-04-01 04:10,-103.6114,43.7331,M,M,M,80.00,4.00,0.01,30.14,M,0.25,M,VV ,M,M,M,200.00,M,M,M,SN FG,KCUT 010410Z AUTO 08004KT 1/4SM SN FG VV002 A3014 RMK P0001 MADISHF
CUT,2017-04-01 04:15,-103.6114,43.7331,M,M,M,100.00,3.00,0.01,30.14,M,0.25,M,VV ,M,M,M,200.00,M,M,M,-SN FZFG,KCUT 010415Z AUTO 10003KT 1/4SM -SN FZFG VV002 A3014 RMK P0001 MADISHF
CUT,2017-04-01 04:16,-103.6114,43.7331,30.90,30.00,96.41,100.00,3.00,0.01,30.14,M,0.25,M,VV ,M,M,M,200.00,M,M,M,-SN FZFG,KCUT 010416Z AUTO 10003KT 1/4SM -SN FZFG VV002 M01/M01 A3014 RMK AO2 P0001 T10061011
CUT,2017-04-01 04:20,-103.6114,43.7331,M,M,M,110.00,3.00,0.01,30.14,M,0.25,M,VV ,M,M,M,200.00,M,M,M,-SN FZFG,KCUT 010420Z AUTO 11003KT 1/4SM -SN FZFG VV002 A3014 RMK P0001 MADISHF
CUT,2017-04-01 04:25,-103.6114,43.7331,M,M,M,110.00,3.00,0.01,30.14,M,0.25,M,VV ,M,M,M,200.00,M,M,M,-SN FZFG,KCUT 010425Z AUTO 11003KT 1/4SM -SN FZFG VV002 A3014 RMK P0001 MADISHF
CUT,2017-04-01 04:30,-103.6114,43.7331,M,M,M,0.00,0.00,0.02,30.14,M,0.50,M,VV ,M,M,M,200.00,M,M,M,-SN FZFG,KCUT 010430Z AUTO 00000KT 1/2SM -SN FZFG VV002 A3014 RMK P0002 MADISHF
CUT,2017-04-01 04:33,-103.6114,43.7331,30.90,30.00,96.41,0.00,0.00,0.02,30.14,M,0.50,M,VV ,M,M,M,200.00,M,M,M,-SN FZFG,KCUT 010433Z AUTO 00000KT 1/2SM -SN FZFG VV002 M01/M01 A3014 RMK AO2 P0002 T10061011
CUT,2017-04-01 04:35,-103.6114,43.7331,M,M,M,0.00,0.00,0.02,30.14,M,0.50,M,VV ,M,M,M,200.00,M,M,M,-SN FZFG,KCUT 010435Z AUTO 00000KT 1/2SM -SN FZFG VV002 A3014 RMK P0002 MADISHF
CUT,2017-04-01 04:40,-103.6114,43.7331,M,M,M,0.00,0.00,0.02,30.14,M,0.75,M,VV ,M,M,M,200.00,M,M,M,-SN BR,KCUT 010440Z AUTO 00000KT 1SM -SN BR VV002 A3014 RMK P0002 MADISHF
CUT,2017-04-01 04:45,-103.6114,43.7331,M,M,M,110.00,3.00,0.02,30.14,M,0.75,M,VV ,M,M,M,200.00,M,M,M,-SN BR,KCUT 010445Z AUTO 11003KT 1SM -SN BR VV002 A3014 RMK P0002 MADISHF
CUT,2017-04-01 04:50,-103.6114,43.7331,M,M,M,0.00,0.00,0.02,30.14,M,0.75,M,VV ,M,M,M,200.00,M,M,M,-SN BR,KCUT 010450Z AUTO 00000KT 1SM -SN BR VV002 A3014 RMK P0002 MADISHF
CUT,2017-04-01 04:53,-103.6114,43.7331,30.90,30.00,96.41,0.00,0.00,0.02,30.14,1022.50,1.00,M,VV ,M,M,M,200.00,M,M,M,-SN BR,KCUT 010453Z AUTO 00000KT 1SM -SN BR VV002 M01/M01 A3014 RMK AO2 SLP225 P0002 T10061011
CUT,2017-04-01 04:55,-103.6114,43.7331,M,M,M,0.00,0.00,M,M,M,1.00,M,VV ,M,M,M,200.00,M,M,M,BR,KCUT 010455Z AUTO 00000KT 1SM BR VV002 RMK MADISHF
CUT,2017-04-01 05:00,-103.6114,43.7331,M,M,M,0.00,0.00,M,30.14,M,0.75,M,VV ,M,M,M,200.00,M,M,M,BR,KCUT 010500Z AUTO 00000KT 1SM BR VV002 A3014 RMK MADISHF
CUT,2017-04-01 05:05,-103.6114,43.7331,M,M,M,0.00,0.00,M,30.14,M,0.75,M,VV ,M,M,M,200.00,M,M,M,BR,KCUT 010505Z AUTO 00000KT 1SM BR VV002 A3014 RMK MADISHF
CUT,2017-04-01 05:06,-103.6114,43.7331,30.90,30.00,96.41,0.00,0.00,0.00,30.14,M,0.75,M,VV ,M,M,M,200.00,M,M,M,BR,KCUT 010506Z AUTO 00000KT 3/4SM BR VV002 M01/M01 A3014 RMK AO2 SNE0454 P0000 T10061011
CUT,2017-04-01 05:10,-103.6114,43.7331,M,M,M,0.00,0.00,M,30.14,M,0.75,M,VV ,M,M,M,200.00,M,M,M,BR,KCUT 010510Z AUTO 00000KT 1SM BR VV002 A3014 RMK MADISHF
CUT,2017-04-01 05:15,-103.6114,43.7331,M,M,M,0.00,0.00,M,30.14,M,0.75,M,VV ,M,M,M,200.00,M,M,M,BR,KCUT 010515Z AUTO 00000KT 1SM BR VV002 A3014 RMK MADISHF
CUT,2017-04-01 05:20,-103.6114,43.7331,M,M,M,0.00,0.00,M,30.14,M,0.75,M,VV ,M,M,M,200.00,M,M,M,BR,KCUT 010520Z AUTO 00000KT 1SM BR VV002 A3014 RMK MADISHF
CUT,2017-04-01 05:25,-103.6114,43.7331,M,M,M,0.00,0.00,M,30.14,M,0.75,M,VV ,M,M,M,200.00,M,M,M,BR,KCUT 010525Z AUTO 00000KT 1SM BR VV002 A3014 RMK MADISHF
CUT,2017-04-01 05:30,-103.6114,43.7331,M,M,M,0.00,0.00,M,30.14,M,1.00,M,VV ,M,M,M,200.00,M,M,M,BR,KCUT 010530Z AUTO 00000KT 1SM BR VV002 A3014 RMK MADISHF
CUT,2017-04-01 05:33,-103.6114,43.7331,30.90,28.90,92.18,0.00,0.00,0.00,30.14,M,1.00,M,VV ,M,M,M,200.00,M,M,M,BR,KCUT 010533Z AUTO 00000KT 1SM BR VV002 M01/M02 A3014 RMK AO2 SNE0454 P0000 T10061017
CUT,2017-04-01 05:35,-103.6114,43.7331,M,M,M,0.00,0.00,M,30.14,M,0.75,M,VV ,M,M,M,200.00,M,M,M,BR,KCUT 010535Z AUTO 00000KT 1SM BR VV002 A3014 RMK MADISHF
CUT,2017-04-01 05:40,-103.6114,43.7331,M,M,M,0.00,0.00,M,30.14,M,0.75,M,VV ,M,M,M,300.00,M,M,M,BR,KCUT 010540Z AUTO 00000KT 1SM BR VV003 A3014 RMK MADISHF
CUT,2017-04-01 05:41,-103.6114,43.7331,30.90,28.90,92.18,0.00,0.00,0.00,30.14,M,0.75,M,VV ,M,M,M,300.00,M,M,M,BR,KCUT 010541Z AUTO 00000KT 3/4SM BR VV003 M01/M02 A3014 RMK AO2 SNE0454 P0000 T10061017
CUT,2017-04-01 05:45,-103.6114,43.7331,M,M,M,0.00,0.00,M,30.13,M,1.00,M,VV ,M,M,M,200.00,M,M,M,BR,KCUT 010545Z AUTO 00000KT 1SM BR VV002 A3013 RMK MADISHF
CUT,2017-04-01 05:48,-103.6114,43.7331,30.20,28.40,92.92,0.00,0.00,0.00,30.13,M,1.00,M,VV ,M,M,M,200.00,M,M,M,BR,KCUT 010548Z AUTO 00000KT 1SM BR VV002 M01/M02 A3013 RMK AO2 SNE0454 P0000
CUT,2017-04-01 05:50,-103.6114,43.7331,M,M,M,0.00,0.00,M,M,M,0.75,M,VV ,M,M,M,200.00,M,M,M,BR,KCUT 010550Z AUTO 00000KT 1SM BR VV002 RMK MADISHF
CUT,2017-04-01 05:53,-103.6114,43.7331,30.90,28.90,92.18,0.00,0.00,0.00,30.13,1022.40,0.75,M,VV ,M,M,M,200.00,M,M,M,BR,KCUT 010553Z AUTO 00000KT 3/4SM BR VV002 M01/M02 A3013 RMK AO2 SNE0454 SLP224 P0000 60002 T10061017 10022 21006 58001
CUT,2017-04-01 05:55,-103.6114,43.7331,M,M,M,0.00,0.00,M,M,M,0.75,M,VV ,M,M,M,200.00,M,M,M,BR,KCUT 010555Z AUTO 00000KT 1SM BR VV002 RMK MADISHF
CUT,2017-04-01 06:00,-103.6114,43.7331,M,M,M,50.00,3.00,M,M,M,0.75,M,VV ,M,M,M,200.00,M,M,M,BR,KCUT 010600Z AUTO 05003KT 1SM BR VV002 RMK MADISHF
CUT,2017-04-01 06:05,-103.6114,43.7331,M,M,M,30.00,3.00,M,M,M,0.75,M,VV ,M,M,M,200.00,M,M,M,BR,KCUT 010605Z AUTO 03003KT 1SM BR VV002 RMK MADISHF
CUT,2017-04-01 06:10,-103.6114,43.7331,M,M,M,20.00,3.00,M,30.13,M,0.75,M,VV ,M,M,M,200.00,M,M,M,BR,KCUT 010610Z AUTO 02003KT 1SM BR VV002 A3013 RMK MADISHF
CUT,2017-04-01 06:15,-103.6114,43.7331,M,M,M,0.00,0.00,M,M,M,0.75,M,VV ,M,M,M,200.00,M,M,M,BR,KCUT 010615Z AUTO 00000KT 1SM BR VV002 RMK MADISHF
CUT,2017-04-01 06:20,-103.6114,43.7331,M,M,M,30.00,3.00,M,M,M,0.75,M,VV ,M,M,M,200.00,M,M,M,BR,KCUT 010620Z AUTO 03003KT 1SM BR VV002 RMK MADISHF
CUT,2017-04-01 06:25,-103.6114,43.7331,M,M,M,40.00,4.00,M,M,M,0.75,M,VV ,M,M,M,200.00,M,M,M,BR,KCUT 010625Z AUTO 04004KT 1SM BR VV002 RMK MADISHF
CUT,2017-04-01 06:30,-103.6114,43.7331,M,M,M,50.00,3.00,M,30.13,M,0.50,M,VV ,M,M,M,200.00,M,M,M,FZFG,KCUT 010630Z AUTO 05003KT 1/2SM FZFG VV002 A3013 RMK MADISHF
CUT,2017-04-01 06:35,-103.6114,43.7331,M,M,M,50.00,4.00,M,M,M,0.50,M,VV ,M,M,M,200.00,M,M,M,FG,KCUT 010635Z AUTO 05004KT 1/2SM FG VV002 RMK MADISHF
CUT,2017-04-01 06:40,-103.6114,43.7331,M,M,M,60.00,4.00,M,M,M,0.50,M,VV ,M,M,M,200.00,M,M,M,FZFG,KCUT 010640Z AUTO 06004KT 1/2SM FZFG VV002 RMK MADISHF
CUT,2017-04-01 06:45,-103.6114,43.7331,M,M,M,60.00,4.00,M,M,M,0.25,M,VV ,M,M,M,200.00,M,M,M,FZFG,KCUT 010645Z AUTO 06004KT 1/4SM FZFG VV002 RMK MADISHF
CUT,2017-04-01 06:50,-103.6114,43.7331,M,M,M,60.00,4.00,M,30.13,M,0.25,M,VV ,M,M,M,200.00,M,M,M,FZFG,KCUT 010650Z AUTO 06004KT 1/4SM FZFG VV002 A3013 RMK MADISHF
CUT,2017-04-01 06:51,-103.6114,43.7331,30.20,30.20,100.00,60.00,5.00,0.00,30.13,M,0.25,M,VV ,M,M,M,200.00,M,M,M,FZFG,KCUT 010651Z AUTO 06005KT 1/4SM FZFG VV002 M01/M01 A3013 RMK AO2
CUT,2017-04-01 06:53,-103.6114,43.7331,30.90,28.90,92.18,60.00,4.00,0.00,30.13,1022.30,0.25,M,VV ,M,M,M,200.00,M,M,M,FZFG,KCUT 010653Z AUTO 06004KT 1/4SM FZFG VV002 M01/M02 A3013 RMK AO2 SLP223 T10061017 400441006
CUT,2017-04-01 06:55,-103.6114,43.7331,M,M,M,60.00,3.00,M,M,M,0.25,M,VV ,M,M,M,200.00,M,M,M,FZFG,KCUT 010655Z AUTO 06003KT 1/4SM FZFG VV002 RMK MADISHF
CUT,2017-04-01 07:00,-103.6114,43.7331,M,M,M,80.00,4.00,M,M,M,0.25,M,VV ,M,M,M,200.00,M,M,M,FG,KCUT 010700Z AUTO 08004KT 1/4SM FG VV002 RMK MADISHF
CUT,2017-04-01 07:05,-103.6114,43.7331,M,M,M,80.00,5.00,M,M,M,0.50,M,VV ,M,M,M,200.00,M,M,M,FZFG,KCUT 010705Z AUTO 08005KT 1/2SM FZFG VV002 RMK MADISHF
CUT,2017-04-01 07:10,-103.6114,43.7331,30.90,28.90,92.18,80.00,4.00,0.00,30.13,M,1.00,M,VV ,M,M,M,200.00,M,M,M,BR,KCUT 010710Z AUTO 08004KT 1SM BR VV002 M01/M02 A3013 RMK AO2 T10061017
CUT,2017-04-01 07:15,-103.6114,43.7331,M,M,M,90.00,4.00,M,30.14,M,0.75,M,VV ,M,M,M,200.00,M,M,M,BR,KCUT 010715Z AUTO 09004KT 1SM BR VV002 A3014 RMK MADISHF
CUT,2017-04-01 07:20,-103.6114,43.7331,M,M,M,80.00,3.00,M,30.14,M,0.50,M,VV ,M,M,M,200.00,M,M,M,FZFG,KCUT 010720Z AUTO 08003KT 1/2SM FZFG VV002 A3014 RMK MADISHF
CUT,2017-04-01 07:21,-103.6114,43.7331,30.90,28.90,92.18,80.00,3.00,0.00,30.14,M,0.50,M,VV ,M,M,M,200.00,M,M,M,FZFG,KCUT 010721Z AUTO 08003KT 1/2SM FZFG VV002 M01/M02 A3014 RMK AO2 T10061017
CUT,2017-04-01 07:25,-103.6114,43.7331,M,M,M,60.00,3.00,M,M,M,0.50,M,VV ,M,M,M,200.00,M,M,M,FG,KCUT 010725Z AUTO 06003KT 1/2SM FG VV002 RMK MADISHF
CUT,2017-04-01 07:30,-103.6114,43.7331,M,M,M,60.00,3.00,M,30.14,M,0.50,M,VV ,M,M,M,200.00,M,M,M,FZFG,KCUT 010730Z AUTO 06003KT 1/2SM FZFG VV002 A3014 RMK MADISHF
CUT,2017-04-01 07:35,-103.6114,43.7331,M,M,M,60.00,3.00,M,30.14,M,0.75,M,VV ,M,M,M,200.00,M,M,M,BR,KCUT 010735Z AUTO 06003KT 1SM BR VV002 A3014 RMK MADISHF
CUT,2017-04-01 07:40,-103.6114,43.7331,M,M,M,50.00,3.00,M,M,M,1.25,M,OVC,M,M,M,200.00,M,M,M,BR,KCUT 010740Z AUTO 05003KT 1 1/2SM BR OVC002 RMK MADISHF
CUT,2017-04-01 07:42,-103.6114,43.7331,30.90,28.90,92.18,50.00,4.00,0.00,30.14,M,1.75,M,OVC,M,M,M,200.00,M,M,M,BR,KCUT 010742Z AUTO 05004KT 1 3/4SM BR OVC002 M01/M02 A3014 RMK AO2 VIS 1V3 T10061017
CUT,2017-04-01 07:45,-103.6114,43.7331,M,M,M,40.00,4.00,M,M,M,2.00,M,OVC,M,M,M,200.00,M,M,M,BR,KCUT 010745Z AUTO 04004KT 2SM BR OVC002 RMK MADISHF
CUT,2017-04-01 07:48,-103.6114,43.7331,30.20,28.40,92.92,50.00,3.00,0.00,30.14,M,3.00,M,OVC,M,M,M,200.00,M,M,M,BR,KCUT 010748Z AUTO 05003KT 3SM BR OVC002 M01/M02 A3014 RMK AO2
CUT,2017-04-01 07:50,-103.6114,43.7331,M,M,M,40.00,3.00,M,30.14,M,4.00,M,OVC,M,M,M,200.00,M,M,M,BR,KCUT 010750Z AUTO 04003KT 4SM BR OVC002 A3014 RMK MADISHF
CUT,2017-04-01 07:53,-103.6114,43.7331,30.90,28.90,92.18,0.00,0.00,0.00,30.14,1022.10,4.00,M,OVC,M,M,M,300.00,M,M,M,BR,KCUT 010753Z AUTO 00000KT 4SM BR OVC003 M01/M02 A3014 RMK AO2 SLP221 T10061017
CUT,2017-04-01 07:55,-103.6114,43.7331,M,M,M,0.00,0.00,M,30.15,M,5.00,M,OVC,M,M,M,300.00,M,M,M,BR,KCUT 010755Z AUTO 00000KT 5SM BR OVC003 A3015 RMK MADISHF
CUT,2017-04-01 08:00,-103.6114,43.7331,M,M,M,0.00,0.00,M,30.15,M,7.00,M,OVC,M,M,M,300.00,M,M,M,M,KCUT 010800Z AUTO 00000KT 7SM OVC003 A3015 RMK MADISHF
CUT,2017-04-01 08:05,-103.6114,43.7331,M,M,M,20.00,3.00,M,30.15,M,8.00,M,OVC,M,M,M,400.00,M,M,M,M,KCUT 010805Z AUTO 02003KT 8SM OVC004 A3015 RMK CIG 1V5  MADISHF
CUT,2017-04-01 08:10,-103.6114,43.7331,M,M,M,40.00,3.00,M,30.14,M,9.00,M,OVC,M,M,M,400.00,M,M,M,M,KCUT 010810Z AUTO 04003KT 9SM OVC004 A3014 RMK MADISHF
CUT,2017-04-01 08:15,-103.6114,43.7331,M,M,M,30.00,3.00,M,30.14,M,10.00,M,OVC,M,M,M,400.00,M,M,M,M,KCUT 010815Z AUTO 03003KT 10SM OVC004 A3014 RMK MADISHF
CUT,2017-04-01 08:20,-103.6114,43.7331,M,M,M,0.00,0.00,M,30.14,M,10.00,M,OVC,M,M,M,400.00,M,M,M,M,KCUT 010820Z AUTO 00000KT 10SM OVC004 A3014 RMK MADISHF
CUT,2017-04-01 08:25,-103.6114,43.7331,M,M,M,50.00,3.00,M,M,M,9.00,M,OVC,M,M,M,400.00,M,M,M,M,KCUT 010825Z AUTO 05003KT 9SM OVC004 RMK MADISHF
CUT,2017-04-01 08:30,-103.6114,43.7331,M,M,M,0.00,0.00,M,30.14,M,8.00,M,OVC,M,M,M,400.00,M,M,M,M,KCUT 010830Z AUTO 00000KT 8SM OVC004 A3014 RMK MADISHF
CUT,2017-04-01 08:35,-103.6114,43.7331,M,M,M,0.00,0.00,M,M,M,9.00,M,OVC,M,M,M,400.00,M,M,M,M,KCUT 010835Z AUTO 00000KT 9SM OVC004 RMK MADISHF
CUT,2017-04-01 08:40,-103.6114,43.7331,M,M,M,0.00,0.00,M,M,M,10.00,M,OVC,M,M,M,400.00,M,M,M,M,KCUT 010840Z AUTO 00000KT 10SM OVC004 RMK MADISHF
CUT,2017-04-01 08:45,-103.6114,43.7331,M,M,M,0.00,0.00,M,M,M,10.00,M,OVC,M,M,M,400.00,M,M,M,M,KCUT 010845Z AUTO 00000KT 10SM OVC004 RMK MADISHF
CUT,2017-04-01 08:50,-103.6114,43.7331,M,M,M,0.00,0.00,M,30.14,M,10.00,M,OVC,M,M,M,400.00,M,M,M,M,KCUT 010850Z AUTO 00000KT 10SM OVC004 A3014 RMK MADISHF
CUT,2017-04-01 08:53,-103.6114,43.7331,30.90,28.90,92.18,0.00,0.00,0.00,30.14,1022.10,10.00,M,OVC,M,M,M,300.00,M,M,M,M,KCUT 010853Z AUTO 00000KT 10SM OVC003 M01/M02 A3014 RMK AO2 SLP221 T10061017 51003
CUT,2017-04-01 08:55,-103.6114,43.7331,M,M,M,0.00,0.00,M,30.14,M,10.00,M,OVC,M,M,M,300.00,M,M,M,M,KCUT 010855Z AUTO 00000KT 10SM OVC003 A3014 RMK MADISHF
CUT,2017-04-01 09:00,-103.6114,43.7331,M,M,M,0.00,0.00,M,30.14,M,10.00,M,OVC,M,M,M,300.00,M,M,M,M,KCUT 010900Z AUTO 00000KT 10SM OVC003 A3014 RMK MADISHF
CUT,2017-04-01 09:05,-103.6114,43.7331,M,M,M,0.00,0.00,M,30.14,M,10.00,M,OVC,M,M,M,300.00,M,M,M,M,KCUT 010905Z AUTO 00000KT 10SM OVC003 A3014 RMK MADISHF
CUT,2017-04-01 09:10,-103.6114,43.7331,M,M,M,0.00,0.00,M,30.14,M,10.00,M,OVC,M,M,M,300.00,M,M,M,M,KCUT 010910Z AUTO 00000KT 10SM OVC003 A3014 RMK MADISHF
CUT,2017-04-01 09:15,-103.6114,43.7331,M,M,M,0.00,0.00,M,30.13,M,10.00,M,OVC,M,M,M,200.00,M,M,M,M,KCUT 010915Z AUTO 00000KT 10SM OVC002 A3013 RMK MADISHF
CUT,2017-04-01 09:20,-103.6114,43.7331,M,M,M,0.00,0.00,M,30.13,M,9.00,M,OVC,M,M,M,200.00,M,M,M,M,KCUT 010920Z AUTO 00000KT 9SM OVC002 A3013 RMK MADISHF
CUT,2017-04-01 09:25,-103.6114,43.7331,M,M,M,0.00,0.00,M,30.13,M,9.00,M,OVC,M,M,M,200.00,M,M,M,M,KCUT 010925Z AUTO 00000KT 9SM OVC002 A3013 RMK MADISHF
CUT,2017-04-01 09:30,-103.6114,43.7331,M,M,M,0.00,0.00,M,30.13,M,10.00,M,OVC,M,M,M,200.00,M,M,M,M,KCUT 010930Z AUTO 00000KT 10SM OVC002 A3013 RMK MADISHF
CUT,2017-04-01 09:35,-103.6114,43.7331,M,M,M,0.00,0.00,M,30.13,M,10.00,M,OVC,M,M,M,200.00,M,M,M,M,KCUT 010935Z AUTO 00000KT 10SM OVC002 A3013 RMK MADISHF
CUT,2017-04-01 09:40,-103.6114,43.7331,M,M,M,0.00,0.00,M,30.13,M,10.00,M,OVC,M,M,M,200.00,M,M,M,M,KCUT 010940Z AUTO 00000KT 10SM OVC002 A3013 RMK MADISHF
CUT,2017-04-01 09:45,-103.6114,43.7331,M,M,M,0.00,0.00,M,30.14,M,10.00,M,OVC,M,M,M,200.00,M,M,M,M,KCUT 010945Z AUTO 00000KT 10SM OVC002 A3014 RMK MADISHF
CUT,2017-04-01 09:50,-103.6114,43.7331,M,M,M,0.00,0.00,M,30.14,M,10.00,M,OVC,M,M,M,200.00,M,M,M,M,KCUT 010950Z AUTO 00000KT 10SM OVC002 A3014 RMK MADISHF
CUT,2017-04-01 09:53,-103.6114,43.7331,32.00,30.00,92.22,0.00,0.00,0.00,30.14,1021.50,10.00,M,OVC,M,M,M,200.00,M,M,M,M,KCUT 010953Z AUTO 00000KT 10SM OVC002 00/M01 A3014 RMK AO2 SLP215 T00001011
CUT,2017-04-01 09:55,-103.6114,43.7331,M,M,M,0.00,0.00,M,30.14,M,10.00,M,OVC,M,M,M,200.00,M,M,M,M,KCUT 010955Z AUTO 00000KT 10SM OVC002 A3014 RMK MADISHF
CUT,2017-04-01 10:00,-103.6114,43.7331,M,M,M,0.00,0.00,M,30.14,M,9.00,M,OVC,M,M,M,200.00,M,M,M,M,KCUT 011000Z AUTO 00000KT 9SM OVC002 A3014 RMK MADISHF
CUT,2017-04-01 10:05,-103.6114,43.7331,M,M,M,0.00,0.00,M,30.14,M,9.00,M,OVC,M,M,M,200.00,M,M,M,M,KCUT 011005Z AUTO 00000KT 9SM OVC002 A3014 RMK MADISHF
CUT,2017-04-01 10:10,-103.6114,43.7331,M,M,M,280.00,3.00,M,30.14,M,9.00,M,OVC,M,M,M,200.00,M,M,M,M,KCUT 011010Z AUTO 28003KT 9SM OVC002 A3014 RMK VRB03KT  MADISHF
CUT,2017-04-01 10:15,-103.6114,43.7331,M,M,M,0.00,0.00,M,30.13,M,10.00,M,OVC,M,M,M,200.00,M,M,M,M,KCUT 011015Z AUTO 00000KT 10SM OVC002 A3013 RMK MADISHF
CUT,2017-04-01 10:20,-103.6114,43.7331,M,M,M,0.00,0.00,M,30.13,M,10.00,M,OVC,M,M,M,200.00,M,M,M,M,KCUT 011020Z AUTO 00000KT 10SM OVC002 A3013 RMK MADISHF
CUT,2017-04-01 10:25,-103.6114,43.7331,M,M,M,0.00,0.00,M,30.13,M,10.00,M,OVC,M,M,M,300.00,M,M,M,M,KCUT 011025Z AUTO 00000KT 10SM OVC003 A3013 RMK MADISHF
CUT,2017-04-01 10:30,-103.6114,43.7331,M,M,M,0.00,0.00,M,30.13,M,10.00,M,OVC,M,M,M,300.00,M,M,M,M,KCUT 011030Z AUTO 00000KT 10SM OVC003 A3013 RMK MADISHF
CUT,2017-04-01 10:35,-103.6114,43.7331,M,M,M,0.00,0.00,M,30.13,M,10.00,M,OVC,M,M,M,300.00,M,M,M,M,KCUT 011035Z AUTO 00000KT 10SM OVC003 A3013 RMK MADISHF
CUT,2017-04-01 10:40,-103.6114,43.7331,M,M,M,0.00,0.00,M,30.12,M,10.00,M,OVC,M,M,M,300.00,M,M,M,M,KCUT 011040Z AUTO 00000KT 10SM OVC003 A3012 RMK MADISHF
CUT,2017-04-01 10:45,-103.6114,43.7331,M,M,M,0.00,0.00,M,30.12,M,9.00,M,OVC,M,M,M,300.00,M,M,M,M,KCUT 011045Z AUTO 00000KT 9SM OVC003 A3012 RMK MADISHF
CUT,2017-04-01 10:50,-103.6114,43.7331,M,M,M,0.00,0.00,M,M,M,10.00,M,OVC,M,M,M,300.00,M,M,M,M,KCUT 011050Z AUTO 00000KT 10SM OVC003 RMK MADISHF
CUT,2017-04-01 10:53,-103.6114,43.7331,30.90,30.00,96.41,0.00,0.00,0.00,30.13,1021.50,10.00,M,OVC,M,M,M,300.00,M,M,M,M,KCUT 011053Z AUTO 00000KT 10SM OVC003 M01/M01 A3013 RMK AO2 SLP215 T10061011
CUT,2017-04-01 10:55,-103.6114,43.7331,M,M,M,0.00,0.00,M,M,M,10.00,M,OVC,M,M,M,300.00,M,M,M,M,KCUT 011055Z AUTO 00000KT 10SM OVC003 RMK MADISHF
CUT,2017-04-01 11:00,-103.6114,43.7331,M,M,M,0.00,0.00,M,30.12,M,10.00,M,OVC,M,M,M,300.00,M,M,M,M,KCUT 011100Z AUTO 00000KT 10SM OVC003 A3012 RMK MADISHF
CUT,2017-04-01 11:05,-103.6114,43.7331,M,M,M,0.00,0.00,M,30.12,M,10.00,M,OVC,M,M,M,300.00,M,M,M,M,KCUT 011105Z AUTO 00000KT 10SM OVC003 A3012 RMK MADISHF
CUT,2017-04-01 11:10,-103.6114,43.7331,M,M,M,0.00,0.00,M,30.12,M,10.00,M,OVC,M,M,M,300.00,M,M,M,M,KCUT 011110Z AUTO 00000KT 10SM OVC003 A3012 RMK MADISHF
CUT,2017-04-01 11:15,-103.6114,43.7331,M,M,M,0.00,0.00,M,30.13,M,10.00,M,OVC,M,M,M,300.00,M,M,M,M,KCUT 011115Z AUTO 00000KT 10SM OVC003 A3013 RMK MADISHF
CUT,2017-04-01 11:20,-103.6114,43.7331,M,M,M,290.00,3.00,M,30.12,M,9.00,M,OVC,M,M,M,200.00,M,M,M,M,KCUT 011120Z AUTO 29003KT 9SM OVC002 A3012 RMK MADISHF
CUT,2017-04-01 11:25,-103.6114,43.7331,M,M,M,290.00,3.00,M,M,M,9.00,M,OVC,M,M,M,200.00,M,M,M,M,KCUT 011125Z AUTO 29003KT 9SM OVC002 RMK MADISHF
CUT,2017-04-01 11:30,-103.6114,43.7331,M,M,M,0.00,0.00,M,30.12,M,8.00,M,OVC,M,M,M,200.00,M,M,M,M,KCUT 011130Z AUTO 00000KT 8SM OVC002 A3012 RMK MADISHF
CUT,2017-04-01 11:35,-103.6114,43.7331,M,M,M,0.00,0.00,M,M,M,7.00,M,OVC,M,M,M,200.00,M,M,M,M,KCUT 011135Z AUTO 00000KT 7SM OVC002 RMK MADISHF
CUT,2017-04-01 11:40,-103.6114,43.7331,M,M,M,300.00,3.00,M,M,M,3.50,M,OVC,M,M,M,200.00,M,M,M,BR,KCUT 011140Z AUTO 30003KT 3SM BR OVC002 RMK MADISHF
CUT,2017-04-01 11:45,-103.6114,43.7331,M,M,M,0.00,0.00,M,30.12,M,2.00,M,OVC,M,M,M,200.00,M,M,M,BR,KCUT 011145Z AUTO 00000KT 2SM BR OVC002 A3012 RMK MADISHF
CUT,2017-04-01 11:46,-103.6114,43.7331,30.90,28.90,92.18,0.00,0.00,0.00,30.12,M,1.75,M,OVC,M,M,M,200.00,M,M,M,BR,KCUT 011146Z AUTO 00000KT 1 3/4SM BR OVC002 M01/M02 A3012 RMK AO2 T10061017
CUT,2017-04-01 11:50,-103.6114,43.7331,M,M,M,0.00,0.00,M,M,M,2.50,M,OVC,M,M,M,200.00,M,M,M,BR,KCUT 011150Z AUTO 00000KT 2 1/2SM BR OVC002 RMK MADISHF
CUT,2017-04-01 11:53,-103.6114,43.7331,30.90,28.90,92.18,350.00,3.00,0.00,30.12,1021.50,2.50,M,OVC,M,M,M,200.00,M,M,M,BR,KCUT 011153Z AUTO 35003KT 2 1/2SM BR OVC002 M01/M02 A3012 RMK AO2 VIS 1 1/4V5 SLP215 70002 T10061017 10000 21006 57007
CUT,2017-04-01 11:55,-103.6114,43.7331,M,M,M,340.00,3.00,M,M,M,2.50,M,OVC,M,M,M,200.00,M,M,M,BR,KCUT 011155Z AUTO 34003KT 2 1/2SM BR OVC002 RMK VRB03KT  MADISHF
CUT,2017-04-01 12:00,-103.6114,43.7331,M,M,M,0.00,0.00,M,M,M,1.50,M,OVC,M,M,M,200.00,M,M,M,BR,KCUT 011200Z AUTO 00000KT 1 1/2SM BR OVC002 RMK MADISHF
CUT,2017-04-01 12:04,-103.6114,43.7331,30.90,30.00,96.41,0.00,0.00,0.00,30.13,M,1.25,M,OVC,M,M,M,200.00,M,M,M,BR,KCUT 011204Z AUTO 00000KT 1 1/4SM BR OVC002 M01/M01 A3013 RMK AO2 T10061011
CUT,2017-04-01 12:05,-103.6114,43.7331,M,M,M,0.00,0.00,M,M,M,1.25,M,OVC,M,M,M,200.00,M,M,M,BR,KCUT 011205Z AUTO 00000KT 1 1/2SM BR OVC002 RMK MADISHF
CUT,2017-04-01 12:10,-103.6114,43.7331,M,M,M,0.00,0.00,M,30.14,M,1.25,M,OVC,M,M,M,200.00,M,M,M,BR,KCUT 011210Z AUTO 00000KT 1 1/2SM BR OVC002 A3014 RMK MADISHF
CUT,2017-04-01 12:15,-103.6114,43.7331,M,M,M,0.00,0.00,M,30.14,M,1.25,M,OVC,M,M,M,200.00,M,M,M,BR,KCUT 011215Z AUTO 00000KT 1 1/2SM BR OVC002 A3014 RMK MADISHF
CUT,2017-04-01 12:20,-103.6114,43.7331,M,M,M,0.00,0.00,M,30.14,M,1.00,M,OVC,M,M,M,200.00,M,M,M,BR,KCUT 011220Z AUTO 00000KT 1SM BR OVC002 A3014 RMK MADISHF
CUT,2017-04-01 12:25,-103.6114,43.7331,M,M,M,0.00,0.00,M,30.15,M,0.75,M,OVC,M,M,M,200.00,M,M,M,BR,KCUT 011225Z AUTO 00000KT 1SM BR OVC002 A3015 RMK MADISHF
CUT,2017-04-01 12:28,-103.6114,43.7331,30.90,28.90,92.18,0.00,0.00,0.00,30.15,M,0.50,M,VV ,M,M,M,200.00,M,M,M,FZFG,KCUT 011228Z AUTO 00000KT 1/2SM FZFG VV002 M01/M02 A3015 RMK AO2 T10061017
CUT,2017-04-01 12:30,-103.6114,43.7331,M,M,M,0.00,0.00,M,30.15,M,0.50,M,VV ,M,M,M,200.00,M,M,M,FZFG,KCUT 011230Z AUTO 00000KT 1/2SM FZFG VV002 A3015 RMK MADISHF
CUT,2017-04-01 12:35,-103.6114,43.7331,M,M,M,0.00,0.00,M,30.15,M,0.50,M,VV ,M,M,M,200.00,M,M,M,FZFG,KCUT 011235Z AUTO 00000KT 1/2SM FZFG VV002 A3015 RMK MADISHF
CUT,2017-04-01 12:40,-103.6114,43.7331,M,M,M,0.00,0.00,M,30.15,M,0.50,M,VV ,M,M,M,200.00,M,M,M,FZFG,KCUT 011240Z AUTO 00000KT 1/2SM FZFG VV002 A3015 RMK MADISHF
CUT,2017-04-01 12:45,-103.6114,43.7331,M,M,M,0.00,0.00,M,30.15,M,0.50,M,VV ,M,M,M,200.00,M,M,M,FZFG,KCUT 011245Z AUTO 00000KT 1/2SM FZFG VV002 A3015 RMK MADISHF
CUT,2017-04-01 12:50,-103.6114,43.7331,M,M,M,0.00,0.00,M,30.15,M,0.50,M,VV ,M,M,M,200.00,M,M,M,FZFG,KCUT 011250Z AUTO 00000KT 1/2SM FZFG VV002 A3015 RMK MADISHF
CUT,2017-04-01 12:53,-103.6114,43.7331,30.90,28.90,92.18,0.00,0.00,0.00,30.15,1022.90,0.50,M,VV ,M,M,M,200.00,M,M,M,FZFG,KCUT 011253Z AUTO 00000KT 1/2SM FZFG VV002 M01/M02 A3015 RMK AO2 SLP229 T10061017
CUT,2017-04-01 12:55,-103.6114,43.7331,M,M,M,0.00,0.00,M,30.15,M,0.25,M,VV ,M,M,M,200.00,M,M,M,FZFG,KCUT 011255Z AUTO 00000KT 1/4SM FZFG VV002 A3015 RMK MADISHF
CUT,2017-04-01 13:00,-103.6114,43.7331,M,M,M,0.00,0.00,M,30.15,M,0.25,M,VV ,M,M,M,200.00,M,M,M,FZFG,KCUT 011300Z AUTO 00000KT 1/4SM FZFG VV002 A3015 RMK MADISHF
CUT,2017-04-01 13:01,-103.6114,43.7331,30.90,28.90,92.18,0.00,0.00,0.00,30.15,M,0.25,M,VV ,M,M,M,200.00,M,M,M,FZFG,KCUT 011301Z AUTO 00000KT 1/4SM FZFG VV002 M01/M02 A3015 RMK AO2 T10061017
CUT,2017-04-01 13:05,-103.6114,43.7331,M,M,M,0.00,0.00,M,30.15,M,0.50,M,VV ,M,M,M,200.00,M,M,M,FZFG,KCUT 011305Z AUTO 00000KT 1/2SM FZFG VV002 A3015 RMK MADISHF
CUT,2017-04-01 13:10,-103.6114,43.7331,30.90,28.90,92.18,0.00,0.00,0.00,30.15,M,0.50,M,OVC,M,M,M,200.00,M,M,M,FZFG,KCUT 011310Z AUTO 00000KT 1/2SM FZFG OVC002 M01/M02 A3015 RMK AO2 T10061017
CUT,2017-04-01 13:15,-103.6114,43.7331,M,M,M,0.00,0.00,M,30.15,M,0.75,M,OVC,M,M,M,200.00,M,M,M,BR,KCUT 011315Z AUTO 00000KT 1SM BR OVC002 A3015 RMK MADISHF
CUT,2017-04-01 13:20,-103.6114,43.7331,30.90,30.00,96.41,0.00,0.00,0.00,30.15,M,2.00,M,BKN,OVC,M,M,200.00,700.00,M,M,BR,KCUT 011320Z AUTO 00000KT 2SM BR BKN002 OVC007 M01/M01 A3015 RMK AO2 VIS 1 1/4V4 T10061011
CUT,2017-04-01 13:25,-103.6114,43.7331,M,M,M,0.00,0.00,M,30.15,M,2.50,M,BKN,OVC,M,M,200.00,700.00,M,M,BR,KCUT 011325Z AUTO 00000KT 2 1/2SM BR BKN002 OVC007 A3015 RMK MADISHF
CUT,2017-04-01 13:30,-103.6114,43.7331,M,M,M,0.00,0.00,M,30.15,M,2.00,M,BKN,OVC,M,M,200.00,700.00,M,M,BR,KCUT 011330Z AUTO 00000KT 2SM BR BKN002 OVC007 A3015 RMK MADISHF
CUT,2017-04-01 13:35,-103.6114,43.7331,M,M,M,0.00,0.00,M,30.16,M,3.00,M,BKN,OVC,M,M,200.00,700.00,M,M,BR,KCUT 011335Z AUTO 00000KT 3SM BR BKN002 OVC007 A3016 RMK MADISHF
CUT,2017-04-01 13:40,-103.6114,43.7331,M,M,M,190.00,3.00,M,30.15,M,1.75,M,BKN,OVC,M,M,200.00,700.00,M,M,BR,KCUT 011340Z AUTO 19003KT 2SM BR BKN002 OVC007 A3015 RMK MADISHF
CUT,2017-04-01 13:45,-103.6114,43.7331,M,M,M,0.00,0.00,M,30.15,M,1.00,M,OVC,M,M,M,200.00,M,M,M,BR,KCUT 011345Z AUTO 00000KT 1SM BR OVC002 A3015 RMK MADISHF
CUT,2017-04-01 13:46,-103.6114,43.7331,30.90,30.00,96.41,0.00,0.00,0.00,30.15,M,0.75,M,OVC,M,M,M,200.00,M,M,M,BR,KCUT 011346Z AUTO 00000KT 3/4SM BR OVC002 M01/M01 A3015 RMK AO2 T10061011
CUT,2017-04-01 13:50,-103.6114,43.7331,M,M,M,0.00,0.00,M,30.15,M,1.00,M,OVC,M,M,M,200.00,M,M,M,BR,KCUT 011350Z AUTO 00000KT 1SM BR OVC002 A3015 RMK MADISHF
CUT,2017-04-01 13:53,-103.6114,43.7331,30.90,30.00,96.41,180.00,3.00,0.00,30.15,1023.30,1.25,M,OVC,M,M,M,200.00,M,M,M,BR,KCUT 011353Z AUTO 18003KT 1 1/4SM BR OVC002 M01/M01 A3015 RMK AO2 SLP233 T10061011
CUT,2017-04-01 13:55,-103.6114,43.7331,M,M,M,190.00,4.00,M,30.15,M,1.50,M,OVC,M,M,M,200.00,M,M,M,BR,KCUT 011355Z AUTO 19004KT 1 1/2SM BR OVC002 A3015 RMK MADISHF
CUT,2017-04-01 14:00,-103.6114,43.7331,30.90,30.00,96.41,190.00,5.00,0.00,30.16,M,3.00,M,OVC,M,M,M,200.00,M,M,M,BR,KCUT 011400Z AUTO 19005KT 3SM BR OVC002 M01/M01 A3016 RMK AO2 T10061011
CUT,2017-04-01 14:05,-103.6114,43.7331,M,M,M,190.00,4.00,M,30.15,M,3.00,M,OVC,M,M,M,200.00,M,M,M,BR,KCUT 011405Z AUTO 19004KT 3SM BR OVC002 A3015 RMK MADISHF
CUT,2017-04-01 14:09,-103.6114,43.7331,30.90,28.90,92.18,200.00,6.00,0.00,30.16,M,1.50,M,OVC,M,M,M,200.00,M,M,M,BR,KCUT 011409Z AUTO 20006KT 1 1/2SM BR OVC002 M01/M02 A3016 RMK AO2 VIS 3/4V5 T10061017
CUT,2017-04-01 14:10,-103.6114,43.7331,M,M,M,190.00,6.00,M,30.16,M,1.25,M,OVC,M,M,M,200.00,M,M,M,BR,KCUT 011410Z AUTO 19006KT 1 1/2SM BR OVC002 A3016 RMK MADISHF
CUT,2017-04-01 14:15,-103.6114,43.7331,M,M,M,200.00,3.00,M,30.16,M,0.75,M,OVC,M,M,M,200.00,M,M,M,BR,KCUT 011415Z AUTO 20003KT 1SM BR OVC002 A3016 RMK VRB03KT  MADISHF
CUT,2017-04-01 14:20,-103.6114,43.7331,30.90,30.00,96.41,180.00,5.00,0.00,30.16,M,0.75,M,OVC,M,M,M,200.00,M,M,M,BR,KCUT 011420Z AUTO 18005KT 3/4SM BR OVC002 M01/M01 A3016 RMK AO2 T10061011
CUT,2017-04-01 14:25,-103.6114,43.7331,M,M,M,200.00,4.00,M,30.16,M,0.75,M,OVC,M,M,M,200.00,M,M,M,BR,KCUT 011425Z AUTO 20004KT 1SM BR OVC002 A3016 RMK VRB04KT  MADISHF
CUT,2017-04-01 14:30,-103.6114,43.7331,M,M,M,220.00,4.00,M,30.16,M,0.75,M,OVC,M,M,M,200.00,M,M,M,BR,KCUT 011430Z AUTO 22004KT 1SM BR OVC002 A3016 RMK VRB04KT  MADISHF
CUT,2017-04-01 14:35,-103.6114,43.7331,M,M,M,0.00,0.00,M,30.16,M,0.75,M,OVC,M,M,M,200.00,M,M,M,BR,KCUT 011435Z AUTO 00000KT 1SM BR OVC002 A3016 RMK MADISHF
CUT,2017-04-01 14:40,-103.6114,43.7331,M,M,M,210.00,5.00,M,30.16,M,1.00,M,OVC,M,M,M,200.00,M,M,M,BR,KCUT 011440Z AUTO 21005KT 1SM BR OVC002 A3016 RMK MADISHF
CUT,2017-04-01 14:45,-103.6114,43.7331,M,M,M,210.00,4.00,M,30.16,M,1.50,M,OVC,M,M,M,200.00,M,M,M,BR,KCUT 011445Z AUTO 21004KT 1 1/2SM BR OVC002 A3016 RMK MADISHF
CUT,2017-04-01 14:46,-103.6114,43.7331,30.90,28.90,92.18,210.00,5.00,0.00,30.16,M,1.75,M,OVC,M,M,M,200.00,M,M,M,BR,KCUT 011446Z AUTO 21005KT 1 3/4SM BR OVC002 M01/M02 A3016 RMK AO2 I1000 T10061017
CUT,2017-04-01 14:50,-103.6114,43.7331,M,M,M,200.00,4.00,M,30.16,M,2.50,M,OVC,M,M,M,200.00,M,M,M,BR,KCUT 011450Z AUTO 20004KT 2 1/2SM BR OVC002 A3016 RMK VRB04KT  MADISHF
CUT,2017-04-01 14:53,-103.6114,43.7331,32.00,30.00,92.22,M,4.00,0.00,30.16,1023.70,2.50,M,OVC,M,M,M,200.00,M,M,M,BR,KCUT 011453Z AUTO VRB04KT 2 1/2SM BR OVC002 00/M01 A3016 RMK AO2 SLP237 I1000 I3000 T00001011 51013
CUT,2017-04-01 14:55,-103.6114,43.7331,M,M,M,200.00,4.00,M,30.17,M,2.50,M,OVC,M,M,M,200.00,M,M,M,BR,KCUT 011455Z AUTO 20004KT 2 1/2SM BR OVC002 A3017 RMK MADISHF
CUT,2017-04-01 15:00,-103.6114,43.7331,M,M,M,200.00,4.00,M,30.16,M,2.50,M,OVC,M,M,M,200.00,M,M,M,BR,KCUT 011500Z AUTO 20004KT 2 1/2SM BR OVC002 A3016 RMK MADISHF
CUT,2017-04-01 15:05,-103.6114,43.7331,M,M,M,190.00,4.00,M,30.16,M,3.00,M,OVC,M,M,M,200.00,M,M,M,BR,KCUT 011505Z AUTO 19004KT 3SM BR OVC002 A3016 RMK VRB04KT  MADISHF
CUT,2017-04-01 15:10,-103.6114,43.7331,32.00,30.00,92.22,180.00,4.00,0.00,30.16,M,3.00,M,OVC,M,M,M,200.00,M,M,M,BR,KCUT 011510Z AUTO 18004KT 3SM BR OVC002 00/M01 A3016 RMK AO2 I1000 T00001011
CUT,2017-04-01 15:15,-103.6114,43.7331,M,M,M,180.00,3.00,M,30.16,M,3.50,M,OVC,M,M,M,200.00,M,M,M,BR,KCUT 011515Z AUTO 18003KT 3SM BR OVC002 A3016 RMK VRB03KT  MADISHF
CUT,2017-04-01 15:20,-103.6114,43.7331,M,M,M,180.00,3.00,M,30.16,M,4.00,M,OVC,M,M,M,200.00,M,M,M,BR,KCUT 011520Z AUTO 18003KT 4SM BR OVC002 A3016 RMK VRB03KT  MADISHF
CUT,2017-04-01 15:25,-103.6114,43.7331,M,M,M,180.00,4.00,M,30.16,M,5.00,M,OVC,M,M,M,200.00,M,M,M,BR,KCUT 011525Z AUTO 18004KT 5SM BR OVC002 A3016 RMK VRB04KT  MADISHF
CUT,2017-04-01 15:30,-103.6114,43.7331,M,M,M,180.00,4.00,M,30.16,M,4.00,M,OVC,M,M,M,200.00,M,M,M,-SN BR,KCUT 011530Z AUTO 18004KT 4SM -SN BR OVC002 A3016 RMK VRB04KT  MADISHF
CUT,2017-04-01 15:35,-103.6114,43.7331,M,M,M,180.00,4.00,M,30.16,M,2.50,M,OVC,M,M,M,300.00,M,M,M,-SN BR,KCUT 011535Z AUTO 18004KT 2 1/2SM -SN BR OVC003 A3016 RMK MADISHF
CUT,2017-04-01 15:40,-103.6114,43.7331,32.00,30.00,92.22,190.00,4.00,0.00,30.16,M,1.75,M,OVC,M,M,M,300.00,M,M,M,-SN BR,KCUT 011540Z AUTO 19004KT 1 3/4SM -SN BR OVC003 00/M01 A3016 RMK AO2 SNB26 CIG 002V006 P0000 I1000 T00001011
CUT,2017-04-01 15:45,-103.6114,43.7331,M,M,M,190.00,3.00,M,30.16,M,2.00,M,OVC,M,M,M,300.00,M,M,M,-SN BR,KCUT 011545Z AUTO 19003KT 2SM -SN BR OVC003 A3016 RMK CIG 2V7  MADISHF
CUT,2017-04-01 15:49,-103.6114,43.7331,32.00,30.20,92.97,M,5.00,0.00,30.16,M,3.00,M,OVC,M,M,M,300.00,M,M,M,-SN BR,KCUT 011549Z AUTO VRB05KT 3SM -SN BR OVC003 00/M01 A3016 RMK AO2 SNB26 CIG 002V008 P0000 I1000
CUT,2017-04-01 15:50,-103.6114,43.7331,32.00,30.20,92.97,M,4.00,0.00,30.16,M,3.00,M,OVC,M,M,M,500.00,M,M,M,-SN BR,KCUT 011550Z AUTO VRB04KT 3SM -SN BR OVC005 00/M01 A3016 RMK AO2 SNB26 CIG 002V008 P0000 I1000
CUT,2017-04-01 15:53,-103.6114,43.7331,32.00,30.90,95.65,M,4.00,0.00,30.16,1023.70,4.00,M,OVC,M,M,M,500.00,M,M,M,-SN BR,KCUT 011553Z AUTO VRB04KT 4SM -SN BR OVC005 00/M01 A3016 RMK AO2 SNB26 CIG 003V008 SLP237 P0000 I1000 T00001006
CUT,2017-04-01 15:55,-103.6114,43.7331,M,M,M,200.00,3.00,M,30.16,M,5.00,M,OVC,M,M,M,499.00,M,M,M,-SN BR,KCUT 011555Z AUTO 20003KT 5SM -SN BR OVC004 A3016 RMK VRB03KT CIG 3V8  MADISHF
CUT,2017-04-01 16:00,-103.6114,43.7331,M,M,M,210.00,3.00,M,30.16,M,8.00,M,OVC,M,M,M,499.00,M,M,M,M,KCUT 011600Z AUTO 21003KT 8SM OVC004 A3016 RMK VRB03KT CIG 3V8  MADISHF
CUT,2017-04-01 16:05,-103.6114,43.7331,M,M,M,240.00,4.00,M,30.16,M,9.00,M,BKN,OVC,M,M,499.00,900.00,M,M,M,KCUT 011605Z AUTO 24004KT 9SM BKN004 OVC009 A3016 RMK VRB04KT  MADISHF
CUT,2017-04-01 16:10,-103.6114,43.7331,M,M,M,240.00,5.00,M,30.16,M,7.00,M,OVC,M,M,M,700.00,M,M,M,M,KCUT 011610Z AUTO 24005KT 7SM OVC007 A3016 RMK MADISHF
CUT,2017-04-01 16:15,-103.6114,43.7331,M,M,M,210.00,4.00,M,30.16,M,8.00,M,OVC,M,M,M,700.00,M,M,M,M,KCUT 011615Z AUTO 21004KT 8SM OVC007 A3016 RMK MADISHF
CUT,2017-04-01 16:20,-103.6114,43.7331,M,M,M,210.00,5.00,M,30.15,M,10.00,M,OVC,M,M,M,700.00,M,M,M,M,KCUT 011620Z AUTO 21005KT 10SM OVC007 A3015 RMK MADISHF
CUT,2017-04-01 16:25,-103.6114,43.7331,M,M,M,250.00,5.00,M,30.15,M,10.00,M,OVC,M,M,M,700.00,M,M,M,M,KCUT 011625Z AUTO 25005KT 10SM OVC007 A3015 RMK VRB05KT  MADISHF
CUT,2017-04-01 16:30,-103.6114,43.7331,M,M,M,230.00,6.00,M,30.15,M,10.00,M,OVC,M,M,M,700.00,M,M,M,M,KCUT 011630Z AUTO 23006KT 10SM OVC007 A3015 RMK VRB06KT  MADISHF
CUT,2017-04-01 16:35,-103.6114,43.7331,M,M,M,240.00,7.00,M,30.15,M,10.00,M,BKN,OVC,M,M,900.00,1300.00,M,M,M,KCUT 011635Z AUTO 24007KT 10SM BKN009 OVC013 A3015 RMK MADISHF
CUT,2017-04-01 16:40,-103.6114,43.7331,M,M,M,230.00,7.00,M,30.15,M,10.00,M,BKN,OVC,M,M,900.00,1300.00,M,M,M,KCUT 011640Z AUTO 23007KT 10SM BKN009 OVC013 A3015 RMK CIG 6V11  MADISHF
CUT,2017-04-01 16:45,-103.6114,43.7331,M,M,M,260.00,5.00,M,30.15,M,10.00,M,BKN,BKN,OVC,M,900.00,1300.00,2500.00,M,M,KCUT 011645Z AUTO 26005KT 10SM BKN009 BKN013 OVC025 A3015 RMK VRB05KT CIG 6V11  MADISHF
CUT,2017-04-01 16:50,-103.6114,43.7331,M,M,M,200.00,4.00,M,30.15,M,10.00,M,BKN,OVC,M,M,800.00,2500.00,M,M,M,KCUT 011650Z AUTO 20004KT 10SM BKN008 OVC025 A3015 RMK VRB04KT CIG 6V11  MADISHF
CUT,2017-04-01 16:53,-103.6114,43.7331,35.10,32.00,88.33,M,4.00,0.00,30.15,1022.80,10.00,M,BKN,OVC,M,M,800.00,2500.00,M,M,M,KCUT 011653Z AUTO VRB04KT 10SM BKN008 OVC025 02/00 A3015 RMK AO2 SNE1556 CIG 006V011 SLP228 P0000 T00170000
CUT,2017-04-01 16:55,-103.6114,43.7331,M,M,M,220.00,7.00,M,30.15,M,10.00,M,BKN,OVC,M,M,800.00,2500.00,M,M,M,KCUT 011655Z AUTO 22007KT 10SM BKN008 OVC025 A3015 RMK CIG 6V11  MADISHF
CUT,2017-04-01 17:00,-103.6114,43.7331,M,M,M,210.00,4.00,M,30.15,M,10.00,M,BKN,OVC,M,M,800.00,2500.00,M,M,M,KCUT 011700Z AUTO 21004KT 10SM BKN008 OVC025 A3015 RMK VRB04KT CIG 6V11  MADISHF
CUT,2017-04-01 17:05,-103.6114,43.7331,M,M,M,230.00,6.00,M,30.14,M,10.00,M,BKN,OVC,M,M,800.00,2500.00,M,M,M,KCUT 011705Z AUTO 23006KT 10SM BKN008 OVC025 A3014 RMK CIG 6V11  MADISHF
CUT,2017-04-01 17:10,-103.6114,43.7331,M,M,M,210.00,7.00,M,30.14,M,10.00,M,BKN,OVC,M,M,800.00,2500.00,M,M,M,KCUT 011710Z AUTO 21007KT 10SM BKN008 OVC025 A3014 RMK CIG 6V11  MADISHF
CUT,2017-04-01 17:15,-103.6114,43.7331,M,M,M,230.00,4.00,M,30.13,M,10.00,M,BKN,OVC,M,M,900.00,2500.00,M,M,M,KCUT 011715Z AUTO 23004KT 10SM BKN009 OVC025 A3013 RMK VRB04KT CIG 6V11  MADISHF
CUT,2017-04-01 17:20,-103.6114,43.7331,M,M,M,220.00,6.00,M,30.13,M,10.00,M,BKN,OVC,M,M,900.00,2500.00,M,M,M,KCUT 011720Z AUTO 22006KT 10SM BKN009 OVC025 A3013 RMK CIG 6V13  MADISHF
CUT,2017-04-01 17:25,-103.6114,43.7331,M,M,M,230.00,7.00,M,30.13,M,10.00,M,BKN,OVC,M,M,900.00,2400.00,M,M,M,KCUT 011725Z AUTO 23007KT 10SM BKN009 OVC024 A3013 RMK CIG 7V13  MADISHF
CUT,2017-04-01 17:30,-103.6114,43.7331,M,M,M,280.00,7.00,M,30.13,M,10.00,M,BKN,OVC,M,M,900.00,2400.00,M,M,M,KCUT 011730Z AUTO 28007KT 10SM BKN009 OVC024 A3013 RMK CIG 8V14  MADISHF
CUT,2017-04-01 17:35,-103.6114,43.7331,M,M,M,230.00,6.00,M,30.13,M,10.00,M,BKN,BKN,OVC,M,999.00,1699.00,2400.00,M,M,KCUT 011735Z AUTO 23006KT 10SM BKN009 BKN016 OVC024 A3013 RMK CIG 8V13  MADISHF
CUT,2017-04-01 17:37,-103.6114,43.7331,35.10,30.90,84.49,240.00,9.00,0.00,30.13,M,10.00,M,SCT,BKN,OVC,M,1000.00,1500.00,2200.00,M,M,KCUT 011737Z AUTO 24009KT 10SM SCT010 BKN015 OVC022 02/M01 A3013 RMK AO2 T00171006
CUT,2017-04-01 17:40,-103.6114,43.7331,M,M,M,250.00,8.00,M,30.13,M,10.00,M,SCT,OVC,M,M,999.00,1800.00,M,M,M,KCUT 011740Z AUTO 25008KT 10SM SCT009 OVC018 A3013 RMK MADISHF
CUT,2017-04-01 17:45,-103.6114,43.7331,M,M,M,250.00,8.00,M,30.13,M,10.00,M,SCT,OVC,M,M,999.00,1800.00,M,M,M,KCUT 011745Z AUTO 25008KT 10SM SCT009 OVC018 A3013 RMK MADISHF
CUT,2017-04-01 17:50,-103.6114,43.7331,M,M,M,250.00,6.00,M,30.13,M,10.00,M,FEW,OVC,M,M,999.00,2100.00,M,M,M,KCUT 011750Z AUTO 25006KT 10SM FEW009 OVC021 A3013 RMK VRB06KT  MADISHF
CUT,2017-04-01 17:53,-103.6114,43.7331,35.10,30.00,81.46,240.00,8.00,0.00,30.13,1022.10,10.00,M,FEW,OVC,M,M,1000.00,2100.00,M,M,M,KCUT 011753Z AUTO 24008KT 210V270 10SM FEW010 OVC021 02/M01 A3013 RMK AO2 SLP221 60000 I6000 T00171011 10017 21006 58009
CUT,2017-04-01 17:55,-103.6114,43.7331,M,M,M,240.00,6.00,M,M,M,10.00,M,FEW,OVC,M,M,1300.00,2100.00,M,M,M,KCUT 011755Z AUTO 24006KT 10SM FEW013 OVC021 RMK VRB06KT  MADISHF
CUT,2017-04-01 18:00,-103.6114,43.7331,M,M,M,230.00,6.00,M,30.13,M,10.00,M,OVC,M,M,M,1900.00,M,M,M,M,KCUT 011800Z AUTO 23006KT 10SM OVC019 A3013 RMK MADISHF
CUT,2017-04-01 18:05,-103.6114,43.7331,M,M,M,230.00,7.00,M,30.13,M,10.00,M,OVC,M,M,M,1900.00,M,M,M,M,KCUT 011805Z AUTO 23007KT 10SM OVC019 A3013 RMK MADISHF
CUT,2017-04-01 18:10,-103.6114,43.7331,M,M,M,230.00,4.00,M,30.12,M,10.00,M,OVC,M,M,M,1900.00,M,M,M,M,KCUT 011810Z AUTO 23004KT 10SM OVC019 A3012 RMK VRB04KT  MADISHF
CUT,2017-04-01 18:15,-103.6114,43.7331,M,M,M,210.00,6.00,M,30.12,M,10.00,M,OVC,M,M,M,1900.00,M,M,M,M,KCUT 011815Z AUTO 21006KT 10SM OVC019 A3012 RMK MADISHF
CUT,2017-04-01 18:20,-103.6114,43.7331,M,M,M,230.00,7.00,M,30.12,M,10.00,M,OVC,M,M,M,1900.00,M,M,M,M,KCUT 011820Z AUTO 23007KT 10SM OVC019 A3012 RMK WND 19V28  MADISHF
CUT,2017-04-01 18:25,-103.6114,43.7331,M,M,M,250.00,5.00,M,30.11,M,10.00,M,OVC,M,M,M,1699.00,M,M,M,M,KCUT 011825Z AUTO 25005KT 10SM OVC016 A3011 RMK VRB05KT  MADISHF
CUT,2017-04-01 18:30,-103.6114,43.7331,M,M,M,240.00,9.00,M,30.11,M,10.00,M,OVC,M,M,M,1699.00,M,M,M,M,KCUT 011830Z AUTO 24009KT 10SM OVC016 A3011 RMK MADISHF
CUT,2017-04-01 18:35,-103.6114,43.7331,M,M,M,250.00,5.00,M,30.11,M,10.00,M,OVC,M,M,M,1699.00,M,M,M,M,KCUT 011835Z AUTO 25005KT 10SM OVC016 A3011 RMK VRB05KT  MADISHF
CUT,2017-04-01 18:40,-103.6114,43.7331,M,M,M,270.00,12.00,M,30.10,M,10.00,M,OVC,M,M,M,1500.00,M,M,M,M,KCUT 011840Z AUTO 27012KT 10SM OVC015 A3010 RMK MADISHF
CUT,2017-04-01 18:45,-103.6114,43.7331,M,M,M,260.00,9.00,M,30.10,M,10.00,14.00,OVC,M,M,M,1500.00,M,M,M,M,KCUT 011845Z AUTO 26009G14KT 10SM OVC015 A3010 RMK MADISHF
CUT,2017-04-01 18:50,-103.6114,43.7331,M,M,M,240.00,10.00,M,30.10,M,10.00,M,OVC,M,M,M,1500.00,M,M,M,M,KCUT 011850Z AUTO 24010KT 10SM OVC015 A3010 RMK MADISHF
CUT,2017-04-01 18:53,-103.6114,43.7331,39.00,28.90,66.79,290.00,7.00,0.00,30.10,1020.70,10.00,M,OVC,M,M,M,1500.00,M,M,M,M,KCUT 011853Z AUTO 29007KT 10SM OVC015 04/M02 A3010 RMK AO2 SLP207 T00391017
CUT,2017-04-01 18:55,-103.6114,43.7331,M,M,M,290.00,9.00,M,M,M,10.00,M,OVC,M,M,M,1500.00,M,M,M,M,KCUT 011855Z AUTO 29009KT 10SM OVC015 RMK MADISHF
CUT,2017-04-01 19:00,-103.6114,43.7331,M,M,M,290.00,6.00,M,30.10,M,10.00,M,OVC,M,M,M,1699.00,M,M,M,M,KCUT 011900Z AUTO 29006KT 10SM OVC016 A3010 RMK MADISHF
CUT,2017-04-01 19:05,-103.6114,43.7331,M,M,M,260.00,9.00,M,30.09,M,10.00,M,OVC,M,M,M,1699.00,M,M,M,M,KCUT 011905Z AUTO 26009KT 10SM OVC016 A3009 RMK WND 18V29  MADISHF
CUT,2017-04-01 19:10,-103.6114,43.7331,M,M,M,260.00,4.00,M,30.09,M,10.00,M,OVC,M,M,M,1699.00,M,M,M,M,KCUT 011910Z AUTO 26004KT 10SM OVC016 A3009 RMK VRB04KT  MADISHF
CUT,2017-04-01 19:15,-103.6114,43.7331,M,M,M,240.00,5.00,M,30.09,M,10.00,M,OVC,M,M,M,1699.00,M,M,M,M,KCUT 011915Z AUTO 24005KT 10SM OVC016 A3009 RMK VRB05KT  MADISHF
CUT,2017-04-01 19:20,-103.6114,43.7331,M,M,M,270.00,7.00,M,30.08,M,10.00,M,OVC,M,M,M,1699.00,M,M,M,M,KCUT 011920Z AUTO 27007KT 10SM OVC016 A3008 RMK MADISHF
CUT,2017-04-01 19:25,-103.6114,43.7331,M,M,M,280.00,10.00,M,30.08,M,10.00,M,OVC,M,M,M,1800.00,M,M,M,M,KCUT 011925Z AUTO 28010KT 10SM OVC018 A3008 RMK MADISHF
CUT,2017-04-01 19:30,-103.6114,43.7331,M,M,M,290.00,9.00,M,30.08,M,10.00,M,OVC,M,M,M,1800.00,M,M,M,M,KCUT 011930Z AUTO 29009KT 10SM OVC018 A3008 RMK MADISHF
CUT,2017-04-01 19:35,-103.6114,43.7331,M,M,M,260.00,9.00,M,30.08,M,10.00,M,OVC,M,M,M,1900.00,M,M,M,M,KCUT 011935Z AUTO 26009KT 10SM OVC019 A3008 RMK MADISHF
CUT,2017-04-01 19:40,-103.6114,43.7331,M,M,M,250.00,7.00,M,30.08,M,10.00,M,BKN,M,M,M,1900.00,M,M,M,M,KCUT 011940Z AUTO 25007KT 10SM BKN019 A3008 RMK WND 21V28  MADISHF
CUT,2017-04-01 19:45,-103.6114,43.7331,M,M,M,210.00,8.00,M,30.08,M,10.00,M,SCT,M,M,M,1900.00,M,M,M,M,KCUT 011945Z AUTO 21008KT 10SM SCT019 A3008 RMK WND 16V25  MADISHF
CUT,2017-04-01 19:50,-103.6114,43.7331,M,M,M,190.00,7.00,M,30.07,M,10.00,M,SCT,M,M,M,1900.00,M,M,M,M,KCUT 011950Z AUTO 19007KT 10SM SCT019 A3007 RMK MADISHF
CUT,2017-04-01 19:51,-103.6114,43.7331,42.80,30.20,60.79,190.00,8.00,0.00,30.07,M,10.00,14.00,SCT,M,M,M,1900.00,M,M,M,M,KCUT 011951Z AUTO 19008G14KT 170V230 10SM SCT019 06/M01 A3007 RMK AO2
CUT,2017-04-01 19:53,-103.6114,43.7331,43.00,30.90,62.06,220.00,8.00,0.00,30.07,1018.90,10.00,14.00,SCT,M,M,M,1900.00,M,M,M,M,KCUT 011953Z AUTO 22008G14KT 180V250 10SM SCT019 06/M01 A3007 RMK AO2 SLP189 T00611006
CUT,2017-04-01 19:55,-103.6114,43.7331,M,M,M,220.00,8.00,M,30.07,M,10.00,M,SCT,M,M,M,1900.00,M,M,M,M,KCUT 011955Z AUTO 22008KT 10SM SCT019 A3007 RMK WND 19V26  MADISHF
CUT,2017-04-01 20:00,-103.6114,43.7331,M,M,M,210.00,7.00,M,30.07,M,10.00,M,FEW,M,M,M,1900.00,M,M,M,M,KCUT 012000Z AUTO 21007KT 10SM FEW019 A3007 RMK WND 19V26  MADISHF
CUT,2017-04-01 20:05,-103.6114,43.7331,M,M,M,210.00,5.00,M,30.07,M,10.00,M,FEW,M,M,M,1999.00,M,M,M,M,KCUT 012005Z AUTO 21005KT 10SM FEW019 A3007 RMK VRB05KT  MADISHF
CUT,2017-04-01 20:10,-103.6114,43.7331,M,M,M,240.00,9.00,M,30.06,M,10.00,14.00,SCT,M,M,M,1999.00,M,M,M,M,KCUT 012010Z AUTO 24009G14KT 10SM SCT019 A3006 RMK MADISHF
CUT,2017-04-01 20:15,-103.6114,43.7331,M,M,M,210.00,8.00,M,30.06,M,10.00,M,SCT,M,M,M,1999.00,M,M,M,M,KCUT 012015Z AUTO 21008KT 10SM SCT019 A3006 RMK WND 14V24  MADISHF
CUT,2017-04-01 20:20,-103.6114,43.7331,M,M,M,230.00,6.00,M,30.06,M,10.00,M,SCT,M,M,M,2100.00,M,M,M,M,KCUT 012020Z AUTO 23006KT 10SM SCT021 A3006 RMK VRB06KT  MADISHF
CUT,2017-04-01 20:25,-103.6114,43.7331,M,M,M,210.00,10.00,M,30.06,M,10.00,M,SCT,M,M,M,2100.00,M,M,M,M,KCUT 012025Z AUTO 21010KT 10SM SCT021 A3006 RMK MADISHF
CUT,2017-04-01 20:30,-103.6114,43.7331,M,M,M,230.00,6.00,M,30.06,M,10.00,M,BKN,M,M,M,2100.00,M,M,M,M,KCUT 012030Z AUTO 23006KT 10SM BKN021 A3006 RMK VRB06G16KT  MADISHF
CUT,2017-04-01 20:35,-103.6114,43.7331,M,M,M,170.00,7.00,M,30.06,M,10.00,M,BKN,M,M,M,2100.00,M,M,M,M,KCUT 012035Z AUTO 17007KT 10SM BKN021 A3006 RMK WND 14V21  MADISHF
CUT,2017-04-01 20:36,-103.6114,43.7331,44.10,32.00,62.21,180.00,7.00,0.00,30.05,M,10.00,M,BKN,M,M,M,2100.00,M,M,M,M,KCUT 012036Z AUTO 18007KT 140V210 10SM BKN021 07/00 A3005 RMK AO2 T00670000
CUT,2017-04-01 20:40,-103.6114,43.7331,M,M,M,210.00,8.00,M,30.05,M,10.00,M,BKN,M,M,M,2100.00,M,M,M,M,KCUT 012040Z AUTO 21008KT 10SM BKN021 A3005 RMK MADISHF
CUT,2017-04-01 20:45,-103.6114,43.7331,M,M,M,230.00,8.00,M,30.05,M,10.00,M,BKN,M,M,M,2100.00,M,M,M,M,KCUT 012045Z AUTO 23008KT 10SM BKN021 A3005 RMK MADISHF
CUT,2017-04-01 20:50,-103.6114,43.7331,M,M,M,200.00,8.00,M,30.04,M,10.00,M,BKN,M,M,M,2100.00,M,M,M,M,KCUT 012050Z AUTO 20008KT 10SM BKN021 A3004 RMK MADISHF
CUT,2017-04-01 20:53,-103.6114,43.7331,44.10,30.90,59.50,200.00,10.00,0.00,30.04,1017.60,10.00,M,BKN,M,M,M,2100.00,M,M,M,M,KCUT 012053Z AUTO 20010KT 10SM BKN021 07/M01 A3004 RMK AO2 SLP176 T00671006 58018
CUT,2017-04-01 20:55,-103.6114,43.7331,M,M,M,210.00,8.00,M,30.04,M,10.00,M,BKN,M,M,M,2100.00,M,M,M,M,KCUT 012055Z AUTO 21008KT 10SM BKN021 A3004 RMK WND 17V24  MADISHF
CUT,2017-04-01 21:00,-103.6114,43.7331,M,M,M,220.00,7.00,M,30.04,M,10.00,M,SCT,M,M,M,2100.00,M,M,M,M,KCUT 012100Z AUTO 22007KT 10SM SCT021 A3004 RMK WND 19V26  MADISHF
CUT,2017-04-01 21:05,-103.6114,43.7331,45.00,30.90,57.50,220.00,7.00,0.00,30.03,M,10.00,18.00,SCT,M,M,M,2100.00,M,M,M,M,KCUT 012105Z AUTO 22007G18KT 180V250 10SM SCT021 07/M01 A3003 RMK AO2 T00721006
CUT,2017-04-01 21:10,-103.6114,43.7331,M,M,M,210.00,9.00,M,30.03,M,10.00,M,SCT,M,M,M,2300.00,M,M,M,M,KCUT 012110Z AUTO 21009KT 10SM SCT023 A3003 RMK MADISHF
CUT,2017-04-01 21:15,-103.6114,43.7331,M,M,M,190.00,7.00,M,30.03,M,10.00,M,SCT,M,M,M,2300.00,M,M,M,M,KCUT 012115Z AUTO 19007KT 10SM SCT023 A3003 RMK WND 16V23  MADISHF
CUT,2017-04-01 21:20,-103.6114,43.7331,M,M,M,220.00,9.00,M,30.03,M,10.00,17.00,SCT,M,M,M,2300.00,M,M,M,M,KCUT 012120Z AUTO 22009G17KT 10SM SCT023 A3003 RMK WND 19V26  MADISHF
CUT,2017-04-01 21:25,-103.6114,43.7331,M,M,M,240.00,12.00,M,30.03,M,10.00,M,SCT,M,M,M,2300.00,M,M,M,M,KCUT 012125Z AUTO 24012KT 10SM SCT023 A3003 RMK MADISHF
CUT,2017-04-01 21:30,-103.6114,43.7331,M,M,M,240.00,11.00,M,30.03,M,10.00,M,SCT,M,M,M,2300.00,M,M,M,M,KCUT 012130Z AUTO 24011KT 10SM SCT023 A3003 RMK MADISHF
CUT,2017-04-01 21:35,-103.6114,43.7331,M,M,M,200.00,8.00,M,30.02,M,10.00,M,SCT,M,M,M,2300.00,M,M,M,M,KCUT 012135Z AUTO 20008KT 10SM SCT023 A3002 RMK WND 17V24  MADISHF
CUT,2017-04-01 21:40,-103.6114,43.7331,M,M,M,200.00,8.00,M,30.02,M,10.00,M,BKN,M,M,M,2300.00,M,M,M,M,KCUT 012140Z AUTO 20008KT 10SM BKN023 A3002 RMK WND 16V25  MADISHF
CUT,2017-04-01 21:44,-103.6114,43.7331,44.10,30.90,59.50,M,6.00,0.00,30.02,M,10.00,15.00,BKN,M,M,M,2300.00,M,M,M,M,KCUT 012144Z AUTO VRB06G15KT 10SM BKN023 07/M01 A3002 RMK AO2 T00671006
CUT,2017-04-01 21:45,-103.6114,43.7331,M,M,M,210.00,8.00,M,30.02,M,10.00,M,BKN,M,M,M,2300.00,M,M,M,M,KCUT 012145Z AUTO 21008KT 10SM BKN023 A3002 RMK MADISHF
CUT,2017-04-01 21:50,-103.6114,43.7331,M,M,M,230.00,6.00,M,30.02,M,10.00,M,BKN,M,M,M,2300.00,M,M,M,M,KCUT 012150Z AUTO 23006KT 10SM BKN023 A3002 RMK VRB06G15KT  MADISHF
CUT,2017-04-01 21:53,-103.6114,43.7331,46.00,32.00,57.87,250.00,7.00,0.00,30.02,1016.50,10.00,M,BKN,M,M,M,2300.00,M,M,M,M,KCUT 012153Z AUTO 25007KT 210V270 10SM BKN023 08/00 A3002 RMK AO2 SLP165 T00780000
CUT,2017-04-01 21:55,-103.6114,43.7331,M,M,M,230.00,8.00,M,30.02,M,10.00,M,BKN,M,M,M,2300.00,M,M,M,M,KCUT 012155Z AUTO 23008KT 10SM BKN023 A3002 RMK WND 21V27  MADISHF
CUT,2017-04-01 22:00,-103.6114,43.7331,M,M,M,240.00,11.00,M,30.02,M,10.00,M,SCT,M,M,M,2300.00,M,M,M,M,KCUT 012200Z AUTO 24011KT 10SM SCT023 A3002 RMK MADISHF
CUT,2017-04-01 22:05,-103.6114,43.7331,M,M,M,210.00,8.00,M,30.02,M,10.00,M,SCT,M,M,M,2300.00,M,M,M,M,KCUT 012205Z AUTO 21008KT 10SM SCT023 A3002 RMK WND 18V26  MADISHF
CUT,2017-04-01 22:06,-103.6114,43.7331,43.00,30.90,62.06,200.00,7.00,0.00,30.02,M,10.00,M,SCT,M,M,M,2300.00,M,M,M,M,KCUT 012206Z AUTO 20007KT 150V220 10SM SCT023 06/M01 A3002 RMK AO2 T00611006
CUT,2017-04-01 22:10,-103.6114,43.7331,M,M,M,210.00,7.00,M,30.02,M,10.00,M,SCT,M,M,M,2300.00,M,M,M,M,KCUT 012210Z AUTO 21007KT 10SM SCT023 A3002 RMK MADISHF
CUT,2017-04-01 22:15,-103.6114,43.7331,M,M,M,240.00,10.00,M,30.02,M,10.00,M,FEW,M,M,M,2300.00,M,M,M,M,KCUT 012215Z AUTO 24010KT 10SM FEW023 A3002 RMK MADISHF
CUT,2017-04-01 22:20,-103.6114,43.7331,M,M,M,230.00,9.00,M,30.03,M,10.00,M,FEW,M,M,M,2300.00,M,M,M,M,KCUT 012220Z AUTO 23009KT 10SM FEW023 A3003 RMK MADISHF
CUT,2017-04-01 22:25,-103.6114,43.7331,M,M,M,230.00,10.00,M,30.03,M,10.00,M,FEW,M,M,M,2300.00,M,M,M,M,KCUT 012225Z AUTO 23010KT 10SM FEW023 A3003 RMK WND 21V27  MADISHF
CUT,2017-04-01 22:30,-103.6114,43.7331,M,M,M,250.00,6.00,M,30.03,M,10.00,M,FEW,M,M,M,2300.00,M,M,M,M,KCUT 012230Z AUTO 25006KT 10SM FEW023 A3003 RMK VRB06G16KT  MADISHF
CUT,2017-04-01 22:35,-103.6114,43.7331,M,M,M,230.00,6.00,M,30.02,M,10.00,M,SCT,M,M,M,2300.00,M,M,M,M,KCUT 012235Z AUTO 23006KT 10SM SCT023 A3002 RMK MADISHF
CUT,2017-04-01 22:40,-103.6114,43.7331,M,M,M,240.00,11.00,M,30.02,M,10.00,M,BKN,M,M,M,2300.00,M,M,M,M,KCUT 012240Z AUTO 24011KT 10SM BKN023 A3002 RMK MADISHF
CUT,2017-04-01 22:45,-103.6114,43.7331,M,M,M,210.00,6.00,M,30.02,M,10.00,M,BKN,M,M,M,2300.00,M,M,M,M,KCUT 012245Z AUTO 21006KT 10SM BKN023 A3002 RMK VRB06G15KT  MADISHF
CUT,2017-04-01 22:46,-103.6114,43.7331,43.00,30.90,62.06,220.00,7.00,0.00,30.02,M,10.00,15.00,BKN,M,M,M,2300.00,M,M,M,M,KCUT 012246Z AUTO 22007G15KT 180V250 10SM BKN023 06/M01 A3002 RMK AO2 T00611006
CUT,2017-04-01 22:50,-103.6114,43.7331,M,M,M,210.00,7.00,M,30.02,M,10.00,M,BKN,M,M,M,2200.00,M,M,M,M,KCUT 012250Z AUTO 21007KT 10SM BKN022 A3002 RMK WND 17V25  MADISHF
CUT,2017-04-01 22:53,-103.6114,43.7331,43.00,30.90,62.06,220.00,9.00,0.00,30.02,1017.10,10.00,15.00,BKN,M,M,M,2200.00,M,M,M,M,KCUT 012253Z AUTO 22009G15KT 150V240 10SM BKN022 06/M01 A3002 RMK AO2 SLP171 T00611006
CUT,2017-04-01 22:55,-103.6114,43.7331,M,M,M,200.00,9.00,M,M,M,10.00,16.00,BKN,M,M,M,2200.00,M,M,M,M,KCUT 012255Z AUTO 20009G16KT 10SM BKN022 RMK WND 17V24  MADISHF
CUT,2017-04-01 23:00,-103.6114,43.7331,M,M,M,220.00,7.00,M,30.02,M,10.00,M,OVC,M,M,M,2200.00,M,M,M,M,KCUT 012300Z AUTO 22007KT 10SM OVC022 A3002 RMK MADISHF
CUT,2017-04-01 23:05,-103.6114,43.7331,M,M,M,210.00,9.00,M,30.02,M,10.00,M,OVC,M,M,M,2200.00,M,M,M,M,KCUT 012305Z AUTO 21009KT 10SM OVC022 A3002 RMK MADISHF
CUT,2017-04-01 23:10,-103.6114,43.7331,M,M,M,210.00,9.00,M,30.02,M,10.00,M,OVC,M,M,M,2200.00,M,M,M,M,KCUT 012310Z AUTO 21009KT 10SM OVC022 A3002 RMK MADISHF
CUT,2017-04-01 23:15,-103.6114,43.7331,M,M,M,210.00,8.00,M,30.02,M,10.00,M,OVC,M,M,M,2200.00,M,M,M,M,KCUT 012315Z AUTO 21008KT 10SM OVC022 A3002 RMK MADISHF
CUT,2017-04-01 23:20,-103.6114,43.7331,M,M,M,220.00,6.00,M,30.02,M,10.00,M,OVC,M,M,M,2200.00,M,M,M,M,KCUT 012320Z AUTO 22006KT 10SM OVC022 A3002 RMK MADISHF
CUT,2017-04-01 23:25,-103.6114,43.7331,M,M,M,210.00,9.00,M,30.02,M,10.00,M,OVC,M,M,M,2200.00,M,M,M,M,KCUT 012325Z AUTO 21009KT 10SM OVC022 A3002 RMK MADISHF
CUT,2017-04-01 23:30,-103.6114,43.7331,M,M,M,220.00,7.00,M,30.02,M,10.00,M,OVC,M,M,M,2200.00,M,M,M,M,KCUT 012330Z AUTO 22007KT 10SM OVC022 A3002 RMK MADISHF
CUT,2017-04-01 23:35,-103.6114,43.7331,M,M,M,240.00,8.00,M,30.02,M,10.00,M,OVC,M,M,M,2200.00,M,M,M,M,KCUT 012335Z AUTO 24008KT 10SM OVC022 A3002 RMK MADISHF
CUT,2017-04-01 23:40,-103.6114,43.7331,M,M,M,240.00,8.00,M,30.02,M,10.00,M,OVC,M,M,M,2200.00,M,M,M,M,KCUT 012340Z AUTO 24008KT 10SM OVC022 A3002 RMK MADISHF
CUT,2017-04-01 23:45,-103.6114,43.7331,M,M,M,220.00,8.00,M,30.02,M,10.00,M,OVC,M,M,M,2200.00,M,M,M,M,KCUT 012345Z AUTO 22008KT 10SM OVC022 A3002 RMK WND 18V24  MADISHF
CUT,2017-04-01 23:50,-103.6114,43.7331,M,M,M,220.00,7.00,M,30.02,M,10.00,M,OVC,M,M,M,2200.00,M,M,M,M,KCUT 012350Z AUTO 22007KT 10SM OVC022 A3002 RMK WND 19V28  MADISHF
CUT,2017-04-01 23:53,-103.6114,43.7331,41.00,32.00,70.08,220.00,7.00,0.00,30.02,1017.20,10.00,M,OVC,M,M,M,2200.00,M,M,M,M,KCUT 012353Z AUTO 22007KT 190V250 10SM OVC022 05/00 A3002 RMK AO2 SLP172 T00500000 10078 20017 56007
CUT,2017-04-01 23:55,-103.6114,43.7331,M,M,M,210.00,6.00,M,M,M,10.00,M,OVC,M,M,M,2200.00,M,M,M,M,KCUT 012355Z AUTO 21006KT 10SM OVC022 RMK VRB06KT  MADISHF
