#DEBUG: Format Typ    -> comma
#DEBUG: Time Period   -> 2017-04-01 00:00:00+00:00 2017-04-02 00:00:00+00:00
#DEBUG: Time Zone     -> Etc/UTC
#DEBUG: Data Contact   -> daryl herzmann akrherz@iastate.edu 515-294-5978
#DEBUG: Entries Found -> -1
station,valid,lon,lat,tmpf, dwpf, relh, drct, sknt, p01i, alti, mslp, vsby, gust, skyc1, skyc2, skyc3, skyc4, skyl1, skyl2, skyl3, skyl4, presentwx, metar
CVG,2017-04-01 00:00,-84.6717,39.0431,M,M,M,M,M,M,29.85,M,5.00,M,OVC,M,M,M,800.00,M,M,M,BR,KCVG 010000Z AUTO /////KT 5SM BR OVC008 A2985 RMK MADISHF
CVG,2017-04-01 00:05,-84.6717,39.0431,M,M,M,300.00,15.00,M,29.85,M,7.00,M,OVC,M,M,M,900.00,M,M,M,M,KCVG 010005Z AUTO 30015KT 7SM OVC009 A2985 RMK MADISHF
CVG,2017-04-01 00:10,-84.6717,39.0431,M,M,M,M,M,M,29.85,M,8.00,M,OVC,M,M,M,900.00,M,M,M,M,KCVG 010010Z AUTO /////KT 8SM OVC009 A2985 RMK MADISHF
CVG,2017-04-01 00:15,-84.6717,39.0431,M,M,M,M,M,M,29.86,M,8.00,20.00,BKN,OVC,M,M,800.00,1300.00,M,M,M,KCVG 010015Z AUTO /////G20KT 8SM BKN008 OVC013 A2986 RMK MADISHF
CVG,2017-04-01 00:16,-84.6717,39.0431,46.90,44.10,89.92,300.00,17.00,0.00,29.86,M,8.00,21.00,BKN,OVC,M,M,800.00,1300.00,M,M,M,KCVG 010016Z 30017G21KT 8SM BKN008 OVC013 08/07 A2986 RMK AO2 DZE00 P0000 T00830067
CVG,2017-04-01 00:20,-84.6717,39.0431,M,M,M,M,M,M,29.86,M,9.00,M,BKN,OVC,M,M,800.00,1300.00,M,M,M,KCVG 010020Z AUTO /////KT 9SM BKN008 OVC013 A2986 RMK MADISHF
CVG,2017-04-01 00:25,-84.6717,39.0431,M,M,M,M,M,M,29.87,M,10.00,M,BKN,OVC,M,M,800.00,1300.00,M,M,M,KCVG 010025Z AUTO /////KT 10SM BKN008 OVC013 A2987 RMK MADISHF
CVG,2017-04-01 00:30,-84.6717,39.0431,M,M,M,300.00,17.00,M,29.87,M,10.00,M,BKN,OVC,M,M,800.00,1300.00,M,M,M,KCVG 010030Z AUTO 30017KT 10SM BKN008 OVC013 A2987 RMK MADISHF
CVG,2017-04-01 00:35,-84.6717,39.0431,M,M,M,M,M,M,29.87,M,9.00,M,BKN,OVC,M,M,800.00,1300.00,M,M,M,KCVG 010035Z AUTO /////KT 9SM BKN008 OVC013 A2987 RMK MADISHF
CVG,2017-04-01 00:40,-84.6717,39.0431,M,M,M,300.00,14.00,M,29.88,M,9.00,M,BKN,OVC,M,M,800.00,1300.00,M,M,M,KCVG 010040Z AUTO 30014KT 9SM BKN008 OVC013 A2988 RMK MADISHF
CVG,2017-04-01 00:45,-84.6717,39.0431,M,M,M,300.00,13.00,M,29.88,M,8.00,M,BKN,OVC,M,M,900.00,1500.00,M,M,M,KCVG 010045Z AUTO 30013KT 8SM BKN009 OVC015 A2988 RMK MADISHF
CVG,2017-04-01 00:50,-84.6717,39.0431,M,M,M,300.00,13.00,M,29.88,M,8.00,M,BKN,OVC,M,M,900.00,1400.00,M,M,-DZ,KCVG 010050Z AUTO 30013KT 8SM -DZ BKN009 OVC014 A2988 RMK MADISHF
CVG,2017-04-01 00:52,-84.6717,39.0431,46.00,43.00,89.20,290.00,13.00,0.00,29.88,1011.80,8.00,M,OVC,M,M,M,800.00,M,M,M,-DZ,KCVG 010052Z 29013KT 8SM -DZ OVC008 08/06 A2988 RMK AO2 DZE00B47 SLP118 P0000 T00780061
CVG,2017-04-01 00:55,-84.6717,39.0431,M,M,M,290.00,12.00,M,29.89,M,8.00,M,OVC,M,M,M,900.00,M,M,M,-DZ,KCVG 010055Z AUTO 29012KT 8SM -DZ OVC009 A2989 RMK MADISHF
CVG,2017-04-01 01:00,-84.6717,39.0431,M,M,M,290.00,12.00,M,29.89,M,7.00,M,OVC,M,M,M,900.00,M,M,M,-DZ,KCVG 010100Z AUTO 29012KT 7SM -DZ OVC009 A2989 RMK MADISHF
CVG,2017-04-01 01:05,-84.6717,39.0431,M,M,M,290.00,13.00,M,29.89,M,7.00,M,OVC,M,M,M,900.00,M,M,M,-DZ,KCVG 010105Z AUTO 29013KT 7SM -DZ OVC009 A2989 RMK MADISHF
CVG,2017-04-01 01:10,-84.6717,39.0431,M,M,M,300.00,12.00,M,29.89,M,7.00,M,OVC,M,M,M,900.00,M,M,M,-DZ,KCVG 010110Z AUTO 30012KT 7SM -DZ OVC009 A2989 RMK MADISHF
CVG,2017-04-01 01:15,-84.6717,39.0431,M,M,M,300.00,14.00,M,29.89,M,8.00,M,OVC,M,M,M,900.00,M,M,M,-DZ,KCVG 010115Z AUTO 30014KT 8SM -DZ OVC009 A2989 RMK MADISHF
CVG,2017-04-01 01:20,-84.6717,39.0431,M,M,M,290.00,12.00,M,29.89,M,8.00,M,OVC,M,M,M,900.00,M,M,M,M,KCVG 010120Z AUTO 29012KT 8SM OVC009 A2989 RMK MADISHF
CVG,2017-04-01 01:25,-84.6717,39.0431,M,M,M,300.00,12.00,M,29.90,M,8.00,M,OVC,M,M,M,999.00,M,M,M,-DZ,KCVG 010125Z AUTO 30012KT 8SM -DZ OVC009 A2990 RMK MADISHF
CVG,2017-04-01 01:26,-84.6717,39.0431,45.00,42.10,89.49,290.00,11.00,0.00,29.90,M,8.00,M,OVC,M,M,M,1000.00,M,M,M,-DZ,KCVG 010126Z 29011KT 8SM -DZ OVC010 07/06 A2990 RMK AO2 P0000 T00720056
CVG,2017-04-01 01:30,-84.6717,39.0431,M,M,M,290.00,10.00,M,29.90,M,8.00,16.00,OVC,M,M,M,999.00,M,M,M,-DZ,KCVG 010130Z AUTO 29010G16KT 8SM -DZ OVC009 A2990 RMK MADISHF
CVG,2017-04-01 01:35,-84.6717,39.0431,M,M,M,300.00,13.00,M,29.90,M,8.00,M,OVC,M,M,M,999.00,M,M,M,-DZ,KCVG 010135Z AUTO 30013KT 8SM -DZ OVC009 A2990 RMK MADISHF
CVG,2017-04-01 01:40,-84.6717,39.0431,M,M,M,M,M,M,29.90,M,8.00,M,OVC,M,M,M,999.00,M,M,M,-DZ,KCVG 010140Z AUTO /////KT 8SM -DZ OVC009 A2990 RMK MADISHF
CVG,2017-04-01 01:45,-84.6717,39.0431,M,M,M,M,M,M,29.91,M,8.00,M,OVC,M,M,M,999.00,M,M,M,-DZ,KCVG 010145Z AUTO /////KT 8SM -DZ OVC009 A2991 RMK MADISHF
CVG,2017-04-01 01:50,-84.6717,39.0431,M,M,M,290.00,12.00,M,29.91,M,8.00,M,OVC,M,M,M,999.00,M,M,M,M,KCVG 010150Z AUTO 29012KT 8SM OVC009 A2991 RMK MADISHF
CVG,2017-04-01 01:52,-84.6717,39.0431,44.10,42.10,92.62,290.00,11.00,0.00,29.91,1012.80,8.00,M,OVC,M,M,M,900.00,M,M,M,M,KCVG 010152Z 29011KT 8SM OVC009 07/06 A2991 RMK AO2 DZE46 SLP128 P0000 T00670056
CVG,2017-04-01 01:55,-84.6717,39.0431,M,M,M,M,M,M,29.91,M,8.00,M,OVC,M,M,M,900.00,M,M,M,M,KCVG 010155Z AUTO /////KT 8SM OVC009 A2991 RMK MADISHF
CVG,2017-04-01 02:00,-84.6717,39.0431,M,M,M,M,M,M,29.92,M,8.00,M,OVC,M,M,M,900.00,M,M,M,M,KCVG 010200Z AUTO /////KT 8SM OVC009 A2992 RMK MADISHF
CVG,2017-04-01 02:05,-84.6717,39.0431,M,M,M,290.00,13.00,M,29.92,M,8.00,M,OVC,M,M,M,900.00,M,M,M,M,KCVG 010205Z AUTO 29013KT 8SM OVC009 A2992 RMK MADISHF
CVG,2017-04-01 02:10,-84.6717,39.0431,M,M,M,M,M,M,29.92,M,8.00,M,OVC,M,M,M,800.00,M,M,M,M,KCVG 010210Z AUTO /////KT 8SM OVC008 A2992 RMK MADISHF
CVG,2017-04-01 02:15,-84.6717,39.0431,M,M,M,310.00,12.00,M,29.92,M,8.00,M,OVC,M,M,M,800.00,M,M,M,M,KCVG 010215Z AUTO 31012KT 8SM OVC008 A2992 RMK MADISHF
CVG,2017-04-01 02:20,-84.6717,39.0431,M,M,M,310.00,10.00,M,29.92,M,8.00,M,OVC,M,M,M,800.00,M,M,M,M,KCVG 010220Z AUTO 31010KT 8SM OVC008 A2992 RMK MADISHF
CVG,2017-04-01 02:25,-84.6717,39.0431,M,M,M,300.00,10.00,M,29.92,M,8.00,M,OVC,M,M,M,800.00,M,M,M,M,KCVG 010225Z AUTO 30010KT 8SM OVC008 A2992 RMK MADISHF
CVG,2017-04-01 02:30,-84.6717,39.0431,M,M,M,290.00,12.00,M,29.92,M,7.00,M,OVC,M,M,M,800.00,M,M,M,M,KCVG 010230Z AUTO 29012KT 7SM OVC008 A2992 RMK MADISHF
CVG,2017-04-01 02:35,-84.6717,39.0431,M,M,M,290.00,10.00,M,29.92,M,7.00,M,OVC,M,M,M,800.00,M,M,M,M,KCVG 010235Z AUTO 29010KT 7SM OVC008 A2992 RMK MADISHF
CVG,2017-04-01 02:40,-84.6717,39.0431,M,M,M,M,M,M,29.92,M,8.00,M,OVC,M,M,M,700.00,M,M,M,M,KCVG 010240Z AUTO /////KT 8SM OVC007 A2992 RMK MADISHF
CVG,2017-04-01 02:45,-84.6717,39.0431,M,M,M,300.00,12.00,M,29.92,M,8.00,M,OVC,M,M,M,700.00,M,M,M,M,KCVG 010245Z AUTO 30012KT 8SM OVC007 A2992 RMK MADISHF
CVG,2017-04-01 02:50,-84.6717,39.0431,M,M,M,300.00,12.00,M,29.92,M,8.00,M,OVC,M,M,M,700.00,M,M,M,M,KCVG 010250Z AUTO 30012KT 8SM OVC007 A2992 RMK MADISHF
CVG,2017-04-01 02:52,-84.6717,39.0431,44.10,41.00,88.77,300.00,11.00,0.00,29.92,1013.30,8.00,M,OVC,M,M,M,700.00,M,M,M,M,KCVG 010252Z 30011KT 8SM OVC007 07/05 A2992 RMK AO2 SLP133 60000 T00670050 51026
CVG,2017-04-01 02:55,-84.6717,39.0431,M,M,M,310.00,11.00,M,29.93,M,8.00,M,OVC,M,M,M,700.00,M,M,M,M,KCVG 010255Z AUTO 31011KT 8SM OVC007 A2993 RMK MADISHF
CVG,2017-04-01 03:00,-84.6717,39.0431,M,M,M,300.00,10.00,M,29.93,M,8.00,M,OVC,M,M,M,700.00,M,M,M,M,KCVG 010300Z AUTO 30010KT 8SM OVC007 A2993 RMK MADISHF
CVG,2017-04-01 03:05,-84.6717,39.0431,M,M,M,290.00,9.00,M,29.93,M,8.00,M,OVC,M,M,M,700.00,M,M,M,M,KCVG 010305Z AUTO 29009KT 8SM OVC007 A2993 RMK MADISHF
CVG,2017-04-01 03:10,-84.6717,39.0431,M,M,M,290.00,9.00,M,29.93,M,7.00,M,OVC,M,M,M,700.00,M,M,M,M,KCVG 010310Z AUTO 29009KT 7SM OVC007 A2993 RMK MADISHF
CVG,2017-04-01 03:15,-84.6717,39.0431,M,M,M,290.00,11.00,M,29.93,M,7.00,M,OVC,M,M,M,700.00,M,M,M,M,KCVG 010315Z AUTO 29011KT 7SM OVC007 A2993 RMK MADISHF
CVG,2017-04-01 03:20,-84.6717,39.0431,M,M,M,300.00,10.00,M,29.93,M,7.00,M,OVC,M,M,M,700.00,M,M,M,M,KCVG 010320Z AUTO 30010KT 7SM OVC007 A2993 RMK MADISHF
CVG,2017-04-01 03:25,-84.6717,39.0431,M,M,M,310.00,10.00,M,29.93,M,9.00,M,OVC,M,M,M,800.00,M,M,M,M,KCVG 010325Z AUTO 31010KT 9SM OVC008 A2993 RMK MADISHF
CVG,2017-04-01 03:30,-84.6717,39.0431,M,M,M,310.00,7.00,M,29.94,M,9.00,M,OVC,M,M,M,800.00,M,M,M,M,KCVG 010330Z AUTO 31007KT 9SM OVC008 A2994 RMK MADISHF
CVG,2017-04-01 03:35,-84.6717,39.0431,M,M,M,310.00,10.00,M,29.94,M,9.00,M,OVC,M,M,M,700.00,M,M,M,M,KCVG 010335Z AUTO 31010KT 9SM OVC007 A2994 RMK MADISHF
CVG,2017-04-01 03:40,-84.6717,39.0431,M,M,M,300.00,11.00,M,29.94,M,9.00,M,OVC,M,M,M,800.00,M,M,M,M,KCVG 010340Z AUTO 30011KT 9SM OVC008 A2994 RMK MADISHF
CVG,2017-04-01 03:45,-84.6717,39.0431,M,M,M,300.00,11.00,M,29.94,M,9.00,M,OVC,M,M,M,800.00,M,M,M,M,KCVG 010345Z AUTO 30011KT 9SM OVC008 A2994 RMK MADISHF
CVG,2017-04-01 03:50,-84.6717,39.0431,M,M,M,310.00,10.00,M,29.94,M,8.00,M,OVC,M,M,M,800.00,M,M,M,M,KCVG 010350Z AUTO 31010KT 8SM OVC008 A2994 RMK MADISHF
CVG,2017-04-01 03:52,-84.6717,39.0431,43.00,41.00,92.58,300.00,11.00,0.00,29.94,1013.90,9.00,M,OVC,M,M,M,800.00,M,M,M,M,KCVG 010352Z 30011KT 9SM OVC008 06/05 A2994 RMK AO2 SLP139 T00610050
CVG,2017-04-01 03:55,-84.6717,39.0431,M,M,M,310.00,11.00,M,29.95,M,9.00,M,OVC,M,M,M,800.00,M,M,M,M,KCVG 010355Z AUTO 31011KT 9SM OVC008 A2995 RMK MADISHF
CVG,2017-04-01 04:00,-84.6717,39.0431,M,M,M,300.00,9.00,M,29.95,M,9.00,M,OVC,M,M,M,700.00,M,M,M,M,KCVG 010400Z AUTO 30009KT 9SM OVC007 A2995 RMK MADISHF
CVG,2017-04-01 04:05,-84.6717,39.0431,M,M,M,310.00,9.00,M,29.95,M,9.00,M,OVC,M,M,M,700.00,M,M,M,M,KCVG 010405Z AUTO 31009KT 9SM OVC007 A2995 RMK MADISHF
CVG,2017-04-01 04:10,-84.6717,39.0431,M,M,M,310.00,9.00,M,29.95,M,9.00,M,OVC,M,M,M,700.00,M,M,M,M,KCVG 010410Z AUTO 31009KT 9SM OVC007 A2995 RMK MADISHF
CVG,2017-04-01 04:15,-84.6717,39.0431,M,M,M,300.00,10.00,M,29.95,M,9.00,M,OVC,M,M,M,700.00,M,M,M,M,KCVG 010415Z AUTO 30010KT 9SM OVC007 A2995 RMK MADISHF
CVG,2017-04-01 04:20,-84.6717,39.0431,M,M,M,310.00,8.00,M,29.95,M,8.00,M,OVC,M,M,M,800.00,M,M,M,M,KCVG 010420Z AUTO 31008KT 8SM OVC008 A2995 RMK MADISHF
CVG,2017-04-01 04:25,-84.6717,39.0431,M,M,M,300.00,11.00,M,29.95,M,6.00,M,OVC,M,M,M,700.00,M,M,M,BR,KCVG 010425Z AUTO 30011KT 6SM BR OVC007 A2995 RMK MADISHF
CVG,2017-04-01 04:30,-84.6717,39.0431,M,M,M,300.00,10.00,M,29.96,M,3.50,M,OVC,M,M,M,700.00,M,M,M,BR,KCVG 010430Z AUTO 30010KT 3SM BR OVC007 A2996 RMK MADISHF
CVG,2017-04-01 04:35,-84.6717,39.0431,M,M,M,300.00,11.00,M,29.96,M,3.00,M,OVC,M,M,M,700.00,M,M,M,BR,KCVG 010435Z AUTO 30011KT 3SM BR OVC007 A2996 RMK MADISHF
CVG,2017-04-01 04:40,-84.6717,39.0431,M,M,M,300.00,11.00,M,29.96,M,4.00,M,OVC,M,M,M,700.00,M,M,M,BR,KCVG 010440Z AUTO 30011KT 4SM BR OVC007 A2996 RMK MADISHF
CVG,2017-04-01 04:45,-84.6717,39.0431,M,M,M,300.00,11.00,M,29.96,M,5.00,M,OVC,M,M,M,800.00,M,M,M,BR,KCVG 010445Z AUTO 30011KT 5SM BR OVC008 A2996 RMK MADISHF
CVG,2017-04-01 04:50,-84.6717,39.0431,M,M,M,300.00,9.00,M,29.96,M,5.00,M,OVC,M,M,M,800.00,M,M,M,BR,KCVG 010450Z AUTO 30009KT 5SM BR OVC008 A2996 RMK MADISHF
CVG,2017-04-01 04:52,-84.6717,39.0431,42.10,41.00,95.84,300.00,8.00,0.00,29.96,1014.60,5.00,M,OVC,M,M,M,800.00,M,M,M,BR,KCVG 010452Z 30008KT 5SM BR OVC008 06/05 A2996 RMK AO2 SLP146 T00560050 401440056
CVG,2017-04-01 04:55,-84.6717,39.0431,M,M,M,300.00,8.00,M,29.97,M,6.00,M,OVC,M,M,M,800.00,M,M,M,BR,KCVG 010455Z AUTO 30008KT 6SM BR OVC008 A2997 RMK MADISHF
CVG,2017-04-01 05:00,-84.6717,39.0431,M,M,M,300.00,9.00,M,29.97,M,8.00,M,OVC,M,M,M,800.00,M,M,M,M,KCVG 010500Z AUTO 30009KT 8SM OVC008 A2997 RMK MADISHF
CVG,2017-04-01 05:05,-84.6717,39.0431,M,M,M,310.00,7.00,M,29.97,M,9.00,M,OVC,M,M,M,800.00,M,M,M,M,KCVG 010505Z AUTO 31007KT 9SM OVC008 A2997 RMK MADISHF
CVG,2017-04-01 05:10,-84.6717,39.0431,M,M,M,320.00,9.00,M,29.97,M,9.00,M,OVC,M,M,M,800.00,M,M,M,M,KCVG 010510Z AUTO 32009KT 9SM OVC008 A2997 RMK MADISHF
CVG,2017-04-01 05:15,-84.6717,39.0431,M,M,M,310.00,10.00,M,29.97,M,9.00,M,OVC,M,M,M,800.00,M,M,M,M,KCVG 010515Z AUTO 31010KT 9SM OVC008 A2997 RMK MADISHF
CVG,2017-04-01 05:20,-84.6717,39.0431,M,M,M,310.00,11.00,M,29.98,M,8.00,M,OVC,M,M,M,800.00,M,M,M,M,KCVG 010520Z AUTO 31011KT 8SM OVC008 A2998 RMK MADISHF
CVG,2017-04-01 05:25,-84.6717,39.0431,M,M,M,310.00,10.00,M,29.98,M,8.00,M,OVC,M,M,M,800.00,M,M,M,M,KCVG 010525Z AUTO 31010KT 8SM OVC008 A2998 RMK MADISHF
CVG,2017-04-01 05:30,-84.6717,39.0431,M,M,M,310.00,9.00,M,29.98,M,9.00,M,OVC,M,M,M,800.00,M,M,M,M,KCVG 010530Z AUTO 31009KT 9SM OVC008 A2998 RMK MADISHF
CVG,2017-04-01 05:35,-84.6717,39.0431,M,M,M,310.00,11.00,M,29.98,M,10.00,M,OVC,M,M,M,800.00,M,M,M,M,KCVG 010535Z AUTO 31011KT 10SM OVC008 A2998 RMK MADISHF
CVG,2017-04-01 05:40,-84.6717,39.0431,M,M,M,310.00,10.00,M,29.98,M,10.00,M,OVC,M,M,M,900.00,M,M,M,M,KCVG 010540Z AUTO 31010KT 10SM OVC009 A2998 RMK MADISHF
CVG,2017-04-01 05:45,-84.6717,39.0431,M,M,M,300.00,10.00,M,29.98,M,10.00,M,OVC,M,M,M,900.00,M,M,M,M,KCVG 010545Z AUTO 30010KT 10SM OVC009 A2998 RMK MADISHF
CVG,2017-04-01 05:50,-84.6717,39.0431,M,M,M,300.00,10.00,M,29.98,M,10.00,M,OVC,M,M,M,800.00,M,M,M,M,KCVG 010550Z AUTO 30010KT 10SM OVC008 A2998 RMK MADISHF
CVG,2017-04-01 05:52,-84.6717,39.0431,42.10,39.00,88.67,310.00,9.00,0.00,29.98,1015.20,10.00,M,OVC,M,M,M,1000.00,M,M,M,M,KCVG 010552Z 31009KT 10SM OVC010 06/04 A2998 RMK AO2 SLP152 60000 T00560039 10083 20056 51019
CVG,2017-04-01 05:55,-84.6717,39.0431,M,M,M,310.00,9.00,M,29.98,M,10.00,M,OVC,M,M,M,999.00,M,M,M,M,KCVG 010555Z AUTO 31009KT 10SM OVC009 A2998 RMK MADISHF
CVG,2017-04-01 06:00,-84.6717,39.0431,M,M,M,310.00,10.00,M,29.98,M,10.00,M,OVC,M,M,M,999.00,M,M,M,M,KCVG 010600Z AUTO 31010KT 10SM OVC009 A2998 RMK MADISHF
CVG,2017-04-01 06:05,-84.6717,39.0431,M,M,M,310.00,10.00,M,29.99,M,10.00,15.00,OVC,M,M,M,999.00,M,M,M,M,KCVG 010605Z AUTO 31010G15KT 10SM OVC009 A2999 RMK MADISHF
CVG,2017-04-01 06:10,-84.6717,39.0431,M,M,M,M,M,M,29.99,M,9.00,M,OVC,M,M,M,999.00,M,M,M,M,KCVG 010610Z AUTO /////KT 9SM OVC009 A2999 RMK MADISHF
CVG,2017-04-01 06:15,-84.6717,39.0431,M,M,M,M,M,M,29.99,M,8.00,M,OVC,M,M,M,900.00,M,M,M,M,KCVG 010615Z AUTO /////KT 8SM OVC009 A2999 RMK MADISHF
CVG,2017-04-01 06:20,-84.6717,39.0431,M,M,M,300.00,11.00,M,29.99,M,7.00,M,OVC,M,M,M,999.00,M,M,M,M,KCVG 010620Z AUTO 30011KT 7SM OVC009 A2999 RMK MADISHF
CVG,2017-04-01 06:25,-84.6717,39.0431,M,M,M,300.00,11.00,M,29.99,M,7.00,M,OVC,M,M,M,1100.00,M,M,M,M,KCVG 010625Z AUTO 30011KT 7SM OVC011 A2999 RMK MADISHF
CVG,2017-04-01 06:30,-84.6717,39.0431,M,M,M,300.00,11.00,M,29.99,M,8.00,M,OVC,M,M,M,1100.00,M,M,M,M,KCVG 010630Z AUTO 30011KT 8SM OVC011 A2999 RMK MADISHF
CVG,2017-04-01 06:35,-84.6717,39.0431,M,M,M,300.00,8.00,M,30.00,M,9.00,M,BKN,OVC,M,M,1100.00,1699.00,M,M,M,KCVG 010635Z AUTO 30008KT 9SM BKN011 OVC016 A3000 RMK MADISHF
CVG,2017-04-01 06:40,-84.6717,39.0431,M,M,M,300.00,10.00,M,30.00,M,10.00,M,BKN,OVC,M,M,1100.00,1800.00,M,M,M,KCVG 010640Z AUTO 30010KT 10SM BKN011 OVC018 A3000 RMK MADISHF
CVG,2017-04-01 06:45,-84.6717,39.0431,M,M,M,300.00,10.00,M,30.00,M,10.00,M,BKN,OVC,M,M,1300.00,1900.00,M,M,M,KCVG 010645Z AUTO 30010KT 10SM BKN013 OVC019 A3000 RMK MADISHF
CVG,2017-04-01 06:50,-84.6717,39.0431,M,M,M,300.00,10.00,M,30.00,M,10.00,M,BKN,OVC,M,M,1500.00,1999.00,M,M,M,KCVG 010650Z AUTO 30010KT 10SM BKN015 OVC019 A3000 RMK MADISHF
CVG,2017-04-01 06:52,-84.6717,39.0431,42.10,37.90,84.93,310.00,10.00,0.00,30.00,1015.80,10.00,M,FEW,OVC,M,M,1000.00,1700.00,M,M,M,KCVG 010652Z 31010KT 10SM FEW010 OVC017 06/03 A3000 RMK AO2 CIG 012 36R SLP158 T00560033
CVG,2017-04-01 06:55,-84.6717,39.0431,M,M,M,300.00,10.00,M,30.00,M,10.00,M,FEW,OVC,M,M,1100.00,1900.00,M,M,M,KCVG 010655Z AUTO 30010KT 10SM FEW011 OVC019 A3000 RMK CIG 012 36R  MADISHF
CVG,2017-04-01 07:00,-84.6717,39.0431,M,M,M,300.00,11.00,M,30.00,M,10.00,M,BKN,OVC,M,M,1600.00,2200.00,M,M,M,KCVG 010700Z AUTO 30011KT 10SM BKN016 OVC022 A3000 RMK MADISHF
CVG,2017-04-01 07:05,-84.6717,39.0431,M,M,M,300.00,10.00,M,30.00,M,10.00,M,SCT,OVC,M,M,1300.00,2100.00,M,M,M,KCVG 010705Z AUTO 30010KT 10SM SCT013 OVC021 A3000 RMK CIG 013 36R  MADISHF
CVG,2017-04-01 07:10,-84.6717,39.0431,M,M,M,310.00,10.00,M,30.00,M,10.00,M,FEW,OVC,M,M,1300.00,2100.00,M,M,M,KCVG 010710Z AUTO 31010KT 10SM FEW013 OVC021 A3000 RMK CIG 015 36R  MADISHF
CVG,2017-04-01 07:15,-84.6717,39.0431,M,M,M,310.00,8.00,M,30.00,M,10.00,M,SCT,OVC,M,M,1200.00,2200.00,M,M,M,KCVG 010715Z AUTO 31008KT 10SM SCT012 OVC022 A3000 RMK CIG 013 36R  MADISHF
CVG,2017-04-01 07:20,-84.6717,39.0431,M,M,M,310.00,9.00,M,30.00,M,9.00,M,BKN,BKN,OVC,M,999.00,1600.00,2300.00,M,M,KCVG 010720Z AUTO 31009KT 9SM BKN009 BKN016 OVC023 A3000 RMK MADISHF
CVG,2017-04-01 07:22,-84.6717,39.0431,42.10,37.90,84.93,320.00,8.00,0.00,30.00,M,9.00,M,BKN,BKN,OVC,M,1000.00,1500.00,2200.00,M,M,KCVG 010722Z 32008KT 9SM BKN010 BKN015 OVC022 06/03 A3000 RMK AO2 T00560033
CVG,2017-04-01 07:25,-84.6717,39.0431,M,M,M,310.00,8.00,M,30.01,M,8.00,M,BKN,BKN,OVC,M,999.00,1500.00,2200.00,M,M,KCVG 010725Z AUTO 31008KT 8SM BKN009 BKN015 OVC022 A3001 RMK MADISHF
CVG,2017-04-01 07:30,-84.6717,39.0431,M,M,M,300.00,8.00,M,30.01,M,7.00,M,BKN,OVC,M,M,900.00,2300.00,M,M,M,KCVG 010730Z AUTO 30008KT 7SM BKN009 OVC023 A3001 RMK MADISHF
CVG,2017-04-01 07:35,-84.6717,39.0431,M,M,M,300.00,9.00,M,30.01,M,8.00,M,BKN,OVC,M,M,999.00,2300.00,M,M,M,KCVG 010735Z AUTO 30009KT 8SM BKN009 OVC023 A3001 RMK MADISHF
CVG,2017-04-01 07:40,-84.6717,39.0431,M,M,M,310.00,9.00,M,30.01,M,8.00,M,BKN,OVC,M,M,999.00,2300.00,M,M,M,KCVG 010740Z AUTO 31009KT 8SM BKN009 OVC023 A3001 RMK MADISHF
CVG,2017-04-01 07:45,-84.6717,39.0431,M,M,M,310.00,10.00,M,30.01,M,10.00,M,BKN,OVC,M,M,999.00,2300.00,M,M,M,KCVG 010745Z AUTO 31010KT 10SM BKN009 OVC023 A3001 RMK MADISHF
CVG,2017-04-01 07:50,-84.6717,39.0431,M,M,M,310.00,8.00,M,30.01,M,10.00,M,OVC,M,M,M,999.00,M,M,M,M,KCVG 010750Z AUTO 31008KT 10SM OVC009 A3001 RMK MADISHF
CVG,2017-04-01 07:52,-84.6717,39.0431,41.00,37.90,88.62,310.00,11.00,0.00,30.01,1016.30,10.00,M,OVC,M,M,M,1000.00,M,M,M,M,KCVG 010752Z 31011KT 10SM OVC010 05/03 A3001 RMK AO2 SLP163 T00500033
CVG,2017-04-01 07:55,-84.6717,39.0431,M,M,M,320.00,9.00,M,30.01,M,10.00,M,OVC,M,M,M,999.00,M,M,M,M,KCVG 010755Z AUTO 32009KT 10SM OVC009 A3001 RMK MADISHF
CVG,2017-04-01 08:00,-84.6717,39.0431,M,M,M,310.00,9.00,M,30.01,M,9.00,M,OVC,M,M,M,999.00,M,M,M,M,KCVG 010800Z AUTO 31009KT 9SM OVC009 A3001 RMK MADISHF
CVG,2017-04-01 08:05,-84.6717,39.0431,M,M,M,320.00,10.00,M,30.01,M,7.00,M,OVC,M,M,M,999.00,M,M,M,M,KCVG 010805Z AUTO 32010KT 7SM OVC009 A3001 RMK MADISHF
CVG,2017-04-01 08:10,-84.6717,39.0431,M,M,M,310.00,8.00,M,30.02,M,7.00,M,OVC,M,M,M,999.00,M,M,M,M,KCVG 010810Z AUTO 31008KT 7SM OVC009 A3002 RMK MADISHF
CVG,2017-04-01 08:15,-84.6717,39.0431,M,M,M,310.00,7.00,M,30.02,M,9.00,M,BKN,BKN,OVC,M,900.00,1500.00,1999.00,M,M,KCVG 010815Z AUTO 31007KT 9SM BKN009 BKN015 OVC019 A3002 RMK MADISHF
CVG,2017-04-01 08:20,-84.6717,39.0431,M,M,M,320.00,9.00,M,30.01,M,10.00,M,BKN,BKN,OVC,M,999.00,1500.00,1999.00,M,M,KCVG 010820Z AUTO 32009KT 10SM BKN009 BKN015 OVC019 A3001 RMK  0VC 090V010 MADISHF
CVG,2017-04-01 08:25,-84.6717,39.0431,M,M,M,320.00,8.00,M,30.02,M,10.00,M,BKN,OVC,M,M,999.00,1500.00,M,M,M,KCVG 010825Z AUTO 32008KT 10SM BKN009 OVC015 A3002 RMK MADISHF
CVG,2017-04-01 08:30,-84.6717,39.0431,M,M,M,310.00,6.00,M,30.02,M,10.00,M,BKN,OVC,M,M,999.00,1400.00,M,M,M,KCVG 010830Z AUTO 31006KT 10SM BKN009 OVC014 A3002 RMK MADISHF
CVG,2017-04-01 08:35,-84.6717,39.0431,M,M,M,290.00,6.00,M,30.02,M,9.00,M,BKN,OVC,M,M,999.00,1300.00,M,M,M,KCVG 010835Z AUTO 29006KT 9SM BKN009 OVC013 A3002 RMK  BKN 008V011 MADISHF
CVG,2017-04-01 08:40,-84.6717,39.0431,M,M,M,300.00,8.00,M,30.02,M,8.00,M,BKN,OVC,M,M,999.00,1300.00,M,M,M,KCVG 010840Z AUTO 30008KT 8SM BKN009 OVC013 A3002 RMK  CIG 008V011 MADISHF
CVG,2017-04-01 08:45,-84.6717,39.0431,M,M,M,290.00,7.00,M,30.02,M,7.00,M,BKN,OVC,M,M,999.00,1300.00,M,M,M,KCVG 010845Z AUTO 29007KT 7SM BKN009 OVC013 A3002 RMK  BKN 008V010 MADISHF
CVG,2017-04-01 08:50,-84.6717,39.0431,M,M,M,300.00,7.00,M,30.02,M,8.00,M,BKN,OVC,M,M,999.00,1300.00,M,M,M,KCVG 010850Z AUTO 30007KT 8SM BKN009 OVC013 A3002 RMK  BKN 008V010 MADISHF
CVG,2017-04-01 08:52,-84.6717,39.0431,41.00,39.00,92.52,300.00,6.00,0.00,30.02,1016.60,8.00,M,OVC,M,M,M,1000.00,M,M,M,M,KCVG 010852Z 30006KT 8SM OVC010 05/04 A3002 RMK AO2 SLP166 T00500039 51014 $
CVG,2017-04-01 08:55,-84.6717,39.0431,M,M,M,300.00,9.00,M,30.02,M,9.00,M,OVC,M,M,M,999.00,M,M,M,M,KCVG 010855Z AUTO 30009KT 9SM OVC009 A3002 RMK MADISHF
CVG,2017-04-01 09:00,-84.6717,39.0431,M,M,M,290.00,7.00,M,30.03,M,10.00,M,OVC,M,M,M,1200.00,M,M,M,M,KCVG 010900Z AUTO 29007KT 10SM OVC012 A3003 RMK MADISHF
CVG,2017-04-01 09:05,-84.6717,39.0431,M,M,M,290.00,9.00,M,30.03,M,10.00,M,OVC,M,M,M,1200.00,M,M,M,M,KCVG 010905Z AUTO 29009KT 10SM OVC012 A3003 RMK MADISHF
CVG,2017-04-01 09:10,-84.6717,39.0431,M,M,M,290.00,8.00,M,30.03,M,10.00,M,OVC,M,M,M,999.00,M,M,M,M,KCVG 010910Z AUTO 29008KT 10SM OVC009 A3003 RMK MADISHF
CVG,2017-04-01 09:15,-84.6717,39.0431,M,M,M,300.00,9.00,M,30.03,M,10.00,M,OVC,M,M,M,900.00,M,M,M,M,KCVG 010915Z AUTO 30009KT 10SM OVC009 A3003 RMK MADISHF
CVG,2017-04-01 09:18,-84.6717,39.0431,41.00,37.40,86.89,310.00,6.00,0.00,30.03,M,10.00,M,BKN,OVC,M,M,900.00,1500.00,M,M,M,KCVG 010918Z 31006KT 10SM BKN009 OVC015 05/03 A3003
CVG,2017-04-01 09:20,-84.6717,39.0431,M,M,M,310.00,7.00,M,30.03,M,10.00,M,BKN,OVC,M,M,999.00,1500.00,M,M,M,KCVG 010920Z AUTO 31007KT 10SM BKN009 OVC015 A3003 RMK MADISHF
CVG,2017-04-01 09:25,-84.6717,39.0431,M,M,M,300.00,8.00,M,30.03,M,10.00,M,BKN,OVC,M,M,900.00,1500.00,M,M,M,KCVG 010925Z AUTO 30008KT 10SM BKN009 OVC015 A3003 RMK MADISHF
CVG,2017-04-01 09:30,-84.6717,39.0431,M,M,M,290.00,7.00,M,30.03,M,10.00,M,BKN,OVC,M,M,900.00,1500.00,M,M,M,KCVG 010930Z AUTO 29007KT 10SM BKN009 OVC015 A3003 RMK MADISHF
CVG,2017-04-01 09:35,-84.6717,39.0431,M,M,M,310.00,7.00,M,30.03,M,10.00,M,BKN,OVC,M,M,900.00,1500.00,M,M,M,KCVG 010935Z AUTO 31007KT 10SM BKN009 OVC015 A3003 RMK MADISHF
CVG,2017-04-01 09:40,-84.6717,39.0431,M,M,M,310.00,8.00,M,30.04,M,10.00,M,BKN,OVC,M,M,900.00,1500.00,M,M,M,KCVG 010940Z AUTO 31008KT 10SM BKN009 OVC015 A3004 RMK MADISHF
CVG,2017-04-01 09:45,-84.6717,39.0431,M,M,M,310.00,9.00,M,30.04,M,10.00,M,BKN,OVC,M,M,900.00,1500.00,M,M,M,KCVG 010945Z AUTO 31009KT 10SM BKN009 OVC015 A3004 RMK MADISHF
CVG,2017-04-01 09:50,-84.6717,39.0431,M,M,M,310.00,8.00,M,30.04,M,10.00,M,BKN,OVC,M,M,900.00,1500.00,M,M,M,KCVG 010950Z AUTO 31008KT 10SM BKN009 OVC015 A3004 RMK MADISHF
CVG,2017-04-01 09:52,-84.6717,39.0431,41.00,37.90,88.62,310.00,8.00,0.00,30.04,1017.20,10.00,M,BKN,OVC,M,M,900.00,1500.00,M,M,M,KCVG 010952Z 31008KT 10SM BKN009 OVC015 05/03 A3004 RMK AO2 SLP172 T00500033 $
CVG,2017-04-01 09:55,-84.6717,39.0431,M,M,M,310.00,8.00,M,30.04,M,10.00,M,OVC,M,M,M,900.00,M,M,M,M,KCVG 010955Z AUTO 31008KT 10SM OVC009 A3004 RMK MADISHF
CVG,2017-04-01 10:00,-84.6717,39.0431,M,M,M,300.00,8.00,M,30.05,M,10.00,M,BKN,OVC,M,M,999.00,1699.00,M,M,M,KCVG 011000Z AUTO 30008KT 10SM BKN009 OVC016 A3005 RMK MADISHF
CVG,2017-04-01 10:05,-84.6717,39.0431,M,M,M,300.00,9.00,M,30.05,M,10.00,M,BKN,OVC,M,M,900.00,1699.00,M,M,M,KCVG 011005Z AUTO 30009KT 10SM BKN009 OVC016 A3005 RMK MADISHF
CVG,2017-04-01 10:10,-84.6717,39.0431,41.00,37.90,88.62,300.00,7.00,0.00,30.05,M,10.00,M,SCT,OVC,M,M,900.00,1500.00,M,M,M,KCVG 011010Z 30007KT 10SM SCT009 OVC015 05/03 A3005 RMK AO2 T00500033 $
CVG,2017-04-01 10:15,-84.6717,39.0431,M,M,M,300.00,7.00,M,30.06,M,10.00,M,SCT,OVC,M,M,900.00,1500.00,M,M,M,KCVG 011015Z AUTO 30007KT 10SM SCT009 OVC015 A3006 RMK MADISHF
CVG,2017-04-01 10:20,-84.6717,39.0431,M,M,M,300.00,7.00,M,30.06,M,10.00,M,SCT,OVC,M,M,900.00,1500.00,M,M,M,KCVG 011020Z AUTO 30007KT 10SM SCT009 OVC015 A3006 RMK MADISHF
CVG,2017-04-01 10:25,-84.6717,39.0431,M,M,M,300.00,9.00,M,30.06,M,10.00,M,OVC,M,M,M,1300.00,M,M,M,M,KCVG 011025Z AUTO 30009KT 10SM OVC013 A3006 RMK MADISHF
CVG,2017-04-01 10:28,-84.6717,39.0431,41.00,37.90,88.62,300.00,8.00,0.00,30.06,M,10.00,M,OVC,M,M,M,1300.00,M,M,M,M,KCVG 011028Z 30008KT 10SM OVC013 05/03 A3006 RMK AO2 T00500033 $
CVG,2017-04-01 10:30,-84.6717,39.0431,M,M,M,300.00,9.00,M,30.06,M,10.00,M,OVC,M,M,M,1300.00,M,M,M,M,KCVG 011030Z AUTO 30009KT 10SM OVC013 A3006 RMK MADISHF
CVG,2017-04-01 10:35,-84.6717,39.0431,M,M,M,290.00,8.00,M,30.06,M,10.00,M,OVC,M,M,M,1300.00,M,M,M,M,KCVG 011035Z AUTO 29008KT 10SM OVC013 A3006 RMK MADISHF
CVG,2017-04-01 10:40,-84.6717,39.0431,M,M,M,300.00,7.00,M,30.06,M,10.00,M,OVC,M,M,M,1300.00,M,M,M,M,KCVG 011040Z AUTO 30007KT 10SM OVC013 A3006 RMK MADISHF
CVG,2017-04-01 10:45,-84.6717,39.0431,M,M,M,300.00,7.00,M,30.07,M,10.00,M,OVC,M,M,M,1200.00,M,M,M,M,KCVG 011045Z AUTO 30007KT 10SM OVC012 A3007 RMK MADISHF
CVG,2017-04-01 10:50,-84.6717,39.0431,M,M,M,310.00,6.00,M,30.07,M,10.00,M,OVC,M,M,M,1200.00,M,M,M,M,KCVG 011050Z AUTO 31006KT 10SM OVC012 A3007 RMK MADISHF
CVG,2017-04-01 10:52,-84.6717,39.0431,41.00,37.90,88.62,320.00,7.00,0.00,30.07,1018.30,10.00,M,OVC,M,M,M,1200.00,M,M,M,M,KCVG 011052Z 32007KT 10SM OVC012 05/03 A3007 RMK AO2 SLP183 T00500033 $
CVG,2017-04-01 10:55,-84.6717,39.0431,M,M,M,320.00,8.00,M,30.07,M,10.00,M,OVC,M,M,M,1300.00,M,M,M,M,KCVG 011055Z AUTO 32008KT 10SM OVC013 A3007 RMK MADISHF
CVG,2017-04-01 11:00,-84.6717,39.0431,M,M,M,310.00,8.00,M,30.07,M,10.00,M,OVC,M,M,M,1400.00,M,M,M,M,KCVG 011100Z AUTO 31008KT 10SM OVC014 A3007 RMK MADISHF
CVG,2017-04-01 11:05,-84.6717,39.0431,M,M,M,310.00,8.00,M,30.08,M,10.00,M,OVC,M,M,M,1400.00,M,M,M,M,KCVG 011105Z AUTO 31008KT 10SM OVC014 A3008 RMK MADISHF
CVG,2017-04-01 11:10,-84.6717,39.0431,M,M,M,310.00,9.00,M,30.08,M,10.00,M,OVC,M,M,M,1200.00,M,M,M,M,KCVG 011110Z AUTO 31009KT 10SM OVC012 A3008 RMK MADISHF
CVG,2017-04-01 11:15,-84.6717,39.0431,M,M,M,320.00,8.00,M,30.08,M,10.00,M,OVC,M,M,M,1200.00,M,M,M,M,KCVG 011115Z AUTO 32008KT 10SM OVC012 A3008 RMK MADISHF
CVG,2017-04-01 11:20,-84.6717,39.0431,M,M,M,330.00,8.00,M,30.08,M,10.00,M,OVC,M,M,M,1200.00,M,M,M,M,KCVG 011120Z AUTO 33008KT 10SM OVC012 A3008 RMK MADISHF
CVG,2017-04-01 11:25,-84.6717,39.0431,M,M,M,320.00,8.00,M,30.08,M,10.00,M,OVC,M,M,M,1200.00,M,M,M,M,KCVG 011125Z AUTO 32008KT 10SM OVC012 A3008 RMK MADISHF
CVG,2017-04-01 11:30,-84.6717,39.0431,M,M,M,320.00,8.00,M,30.09,M,10.00,M,OVC,M,M,M,1200.00,M,M,M,M,KCVG 011130Z AUTO 32008KT 10SM OVC012 A3009 RMK MADISHF
CVG,2017-04-01 11:35,-84.6717,39.0431,M,M,M,320.00,7.00,M,30.09,M,10.00,M,OVC,M,M,M,1200.00,M,M,M,M,KCVG 011135Z AUTO 32007KT 10SM OVC012 A3009 RMK MADISHF
CVG,2017-04-01 11:40,-84.6717,39.0431,M,M,M,310.00,7.00,M,30.09,M,10.00,M,OVC,M,M,M,1200.00,M,M,M,M,KCVG 011140Z AUTO 31007KT 10SM OVC012 A3009 RMK MADISHF
CVG,2017-04-01 11:45,-84.6717,39.0431,M,M,M,310.00,7.00,M,30.09,M,10.00,M,OVC,M,M,M,1200.00,M,M,M,M,KCVG 011145Z AUTO 31007KT 10SM OVC012 A3009 RMK MADISHF
CVG,2017-04-01 11:50,-84.6717,39.0431,M,M,M,320.00,6.00,M,30.09,M,10.00,M,OVC,M,M,M,1200.00,M,M,M,M,KCVG 011150Z AUTO 32006KT 10SM OVC012 A3009 RMK MADISHF
CVG,2017-04-01 11:52,-84.6717,39.0431,41.00,37.90,88.62,330.00,7.00,0.00,30.09,1019.10,10.00,M,OVC,M,M,M,900.00,M,M,M,M,KCVG 011152Z 33007KT 10SM OVC009 05/03 A3009 RMK AO2 SLP191 70007 T00500033 10061 20050 53023
CVG,2017-04-01 11:55,-84.6717,39.0431,M,M,M,330.00,8.00,M,30.10,M,10.00,M,OVC,M,M,M,900.00,M,M,M,M,KCVG 011155Z AUTO 33008KT 10SM OVC009 A3010 RMK MADISHF
CVG,2017-04-01 12:00,-84.6717,39.0431,M,M,M,310.00,7.00,M,30.10,M,10.00,M,OVC,M,M,M,900.00,M,M,M,M,KCVG 011200Z AUTO 31007KT 10SM OVC009 A3010 RMK MADISHF
CVG,2017-04-01 12:05,-84.6717,39.0431,M,M,M,320.00,7.00,M,30.10,M,10.00,M,OVC,M,M,M,900.00,M,M,M,M,KCVG 011205Z AUTO 32007KT 10SM OVC009 A3010 RMK MADISHF
CVG,2017-04-01 12:10,-84.6717,39.0431,M,M,M,310.00,6.00,M,30.10,M,10.00,M,OVC,M,M,M,900.00,M,M,M,M,KCVG 011210Z AUTO 31006KT 10SM OVC009 A3010 RMK MADISHF
CVG,2017-04-01 12:15,-84.6717,39.0431,M,M,M,320.00,8.00,M,30.11,M,10.00,M,OVC,M,M,M,900.00,M,M,M,M,KCVG 011215Z AUTO 32008KT 10SM OVC009 A3011 RMK MADISHF
CVG,2017-04-01 12:20,-84.6717,39.0431,M,M,M,320.00,7.00,M,30.12,M,10.00,M,OVC,M,M,M,900.00,M,M,M,M,KCVG 011220Z AUTO 32007KT 10SM OVC009 A3012 RMK MADISHF
CVG,2017-04-01 12:25,-84.6717,39.0431,M,M,M,320.00,8.00,M,30.12,M,10.00,M,OVC,M,M,M,900.00,M,M,M,M,KCVG 011225Z AUTO 32008KT 10SM OVC009 A3012 RMK MADISHF
CVG,2017-04-01 12:30,-84.6717,39.0431,M,M,M,320.00,9.00,M,30.12,M,10.00,M,OVC,M,M,M,900.00,M,M,M,M,KCVG 011230Z AUTO 32009KT 10SM OVC009 A3012 RMK MADISHF
CVG,2017-04-01 12:35,-84.6717,39.0431,M,M,M,330.00,7.00,M,30.12,M,10.00,M,OVC,M,M,M,900.00,M,M,M,M,KCVG 011235Z AUTO 33007KT 10SM OVC009 A3012 RMK MADISHF
CVG,2017-04-01 12:40,-84.6717,39.0431,M,M,M,320.00,7.00,M,30.13,M,10.00,M,OVC,M,M,M,900.00,M,M,M,M,KCVG 011240Z AUTO 32007KT 10SM OVC009 A3013 RMK MADISHF
CVG,2017-04-01 12:45,-84.6717,39.0431,M,M,M,320.00,10.00,M,30.13,M,10.00,M,OVC,M,M,M,900.00,M,M,M,M,KCVG 011245Z AUTO 32010KT 10SM OVC009 A3013 RMK MADISHF
CVG,2017-04-01 12:50,-84.6717,39.0431,M,M,M,320.00,8.00,M,30.13,M,10.00,M,BKN,OVC,M,M,800.00,900.00,M,M,M,KCVG 011250Z AUTO 32008KT 10SM BKN008 OVC009 A3013 RMK MADISHF
CVG,2017-04-01 12:52,-84.6717,39.0431,42.10,37.90,84.93,320.00,7.00,0.00,30.13,1020.50,10.00,M,BKN,OVC,M,M,800.00,900.00,M,M,M,KCVG 011252Z 32007KT 10SM BKN008 OVC009 06/03 A3013 RMK AO2 SLP205 T00560033
CVG,2017-04-01 12:55,-84.6717,39.0431,M,M,M,320.00,10.00,M,30.14,M,10.00,M,OVC,M,M,M,900.00,M,M,M,M,KCVG 011255Z AUTO 32010KT 10SM OVC009 A3014 RMK MADISHF
CVG,2017-04-01 13:00,-84.6717,39.0431,M,M,M,310.00,9.00,M,30.14,M,10.00,M,OVC,M,M,M,900.00,M,M,M,M,KCVG 011300Z AUTO 31009KT 10SM OVC009 A3014 RMK MADISHF
CVG,2017-04-01 13:05,-84.6717,39.0431,M,M,M,330.00,8.00,M,30.14,M,10.00,M,BKN,OVC,M,M,800.00,900.00,M,M,M,KCVG 011305Z AUTO 33008KT 10SM BKN008 OVC009 A3014 RMK MADISHF
CVG,2017-04-01 13:10,-84.6717,39.0431,M,M,M,320.00,9.00,M,30.14,M,10.00,M,BKN,OVC,M,M,800.00,900.00,M,M,M,KCVG 011310Z AUTO 32009KT 10SM BKN008 OVC009 A3014 RMK MADISHF
CVG,2017-04-01 13:15,-84.6717,39.0431,M,M,M,320.00,9.00,M,30.14,M,10.00,M,BKN,OVC,M,M,800.00,900.00,M,M,M,KCVG 011315Z AUTO 32009KT 10SM BKN008 OVC009 A3014 RMK MADISHF
CVG,2017-04-01 13:20,-84.6717,39.0431,M,M,M,320.00,8.00,M,30.14,M,10.00,M,BKN,OVC,M,M,800.00,900.00,M,M,M,KCVG 011320Z AUTO 32008KT 10SM BKN008 OVC009 A3014 RMK MADISHF
CVG,2017-04-01 13:25,-84.6717,39.0431,M,M,M,340.00,7.00,M,30.14,M,10.00,M,BKN,OVC,M,M,800.00,900.00,M,M,M,KCVG 011325Z AUTO 34007KT 10SM BKN008 OVC009 A3014 RMK MADISHF
CVG,2017-04-01 13:30,-84.6717,39.0431,M,M,M,330.00,7.00,M,30.14,M,10.00,M,BKN,OVC,M,M,800.00,900.00,M,M,M,KCVG 011330Z AUTO 33007KT 10SM BKN008 OVC009 A3014 RMK MADISHF
CVG,2017-04-01 13:35,-84.6717,39.0431,M,M,M,360.00,9.00,M,30.14,M,9.00,M,BKN,OVC,M,M,800.00,900.00,M,M,M,KCVG 011335Z AUTO 36009KT 9SM BKN008 OVC009 A3014 RMK MADISHF
CVG,2017-04-01 13:40,-84.6717,39.0431,M,M,M,340.00,8.00,M,30.14,M,9.00,M,BKN,OVC,M,M,800.00,900.00,M,M,M,KCVG 011340Z AUTO 34008KT 9SM BKN008 OVC009 A3014 RMK MADISHF
CVG,2017-04-01 13:45,-84.6717,39.0431,M,M,M,350.00,7.00,M,30.14,M,9.00,M,BKN,OVC,M,M,800.00,900.00,M,M,M,KCVG 011345Z AUTO 35007KT 9SM BKN008 OVC009 A3014 RMK MADISHF
CVG,2017-04-01 13:50,-84.6717,39.0431,M,M,M,350.00,6.00,M,30.14,M,9.00,M,BKN,OVC,M,M,800.00,900.00,M,M,M,KCVG 011350Z AUTO 35006KT 9SM BKN008 OVC009 A3014 RMK MADISHF
CVG,2017-04-01 13:52,-84.6717,39.0431,42.10,39.00,88.67,340.00,6.00,0.00,30.14,1020.80,9.00,M,BKN,OVC,M,M,800.00,1200.00,M,M,M,KCVG 011352Z 34006KT 9SM BKN008 OVC012 06/04 A3014 RMK AO2 SLP208 T00560039
CVG,2017-04-01 13:55,-84.6717,39.0431,M,M,M,340.00,6.00,M,30.14,M,9.00,M,BKN,OVC,M,M,900.00,1600.00,M,M,M,KCVG 011355Z AUTO 34006KT 9SM BKN009 OVC016 A3014 RMK MADISHF
CVG,2017-04-01 14:00,-84.6717,39.0431,M,M,M,340.00,6.00,M,30.14,M,10.00,M,BKN,OVC,M,M,800.00,1200.00,M,M,M,KCVG 011400Z AUTO 34006KT 10SM BKN008 OVC012 A3014 RMK MADISHF
CVG,2017-04-01 14:05,-84.6717,39.0431,M,M,M,320.00,8.00,M,30.14,M,9.00,M,BKN,OVC,M,M,800.00,1200.00,M,M,M,KCVG 011405Z AUTO 32008KT 9SM BKN008 OVC012 A3014 RMK MADISHF
CVG,2017-04-01 14:10,-84.6717,39.0431,M,M,M,320.00,9.00,M,30.15,M,9.00,M,BKN,OVC,M,M,800.00,1200.00,M,M,M,KCVG 011410Z AUTO 32009KT 9SM BKN008 OVC012 A3015 RMK MADISHF
CVG,2017-04-01 14:15,-84.6717,39.0431,M,M,M,310.00,9.00,M,30.15,M,9.00,M,BKN,OVC,M,M,800.00,1200.00,M,M,M,KCVG 011415Z AUTO 31009KT 9SM BKN008 OVC012 A3015 RMK MADISHF
CVG,2017-04-01 14:20,-84.6717,39.0431,M,M,M,330.00,9.00,M,30.15,M,8.00,M,BKN,OVC,M,M,800.00,1200.00,M,M,M,KCVG 011420Z AUTO 33009KT 8SM BKN008 OVC012 A3015 RMK MADISHF
CVG,2017-04-01 14:25,-84.6717,39.0431,M,M,M,330.00,8.00,M,30.15,M,8.00,M,BKN,OVC,M,M,800.00,1200.00,M,M,M,KCVG 011425Z AUTO 33008KT 8SM BKN008 OVC012 A3015 RMK MADISHF
CVG,2017-04-01 14:30,-84.6717,39.0431,M,M,M,330.00,8.00,M,30.16,M,8.00,M,BKN,OVC,M,M,800.00,1200.00,M,M,M,KCVG 011430Z AUTO 33008KT 8SM BKN008 OVC012 A3016 RMK MADISHF
CVG,2017-04-01 14:35,-84.6717,39.0431,M,M,M,320.00,8.00,M,30.16,M,7.00,M,BKN,OVC,M,M,800.00,1200.00,M,M,M,KCVG 011435Z AUTO 32008KT 7SM BKN008 OVC012 A3016 RMK MADISHF
CVG,2017-04-01 14:40,-84.6717,39.0431,M,M,M,330.00,9.00,M,30.16,M,7.00,M,BKN,OVC,M,M,800.00,1200.00,M,M,M,KCVG 011440Z AUTO 33009KT 7SM BKN008 OVC012 A3016 RMK MADISHF
CVG,2017-04-01 14:45,-84.6717,39.0431,M,M,M,340.00,9.00,M,30.16,M,7.00,M,BKN,OVC,M,M,800.00,1200.00,M,M,M,KCVG 011445Z AUTO 34009KT 7SM BKN008 OVC012 A3016 RMK MADISHF
CVG,2017-04-01 14:50,-84.6717,39.0431,M,M,M,330.00,8.00,M,30.16,M,6.00,M,BKN,OVC,M,M,800.00,1200.00,M,M,BR,KCVG 011450Z AUTO 33008KT 6SM BR BKN008 OVC012 A3016 RMK MADISHF
CVG,2017-04-01 14:52,-84.6717,39.0431,42.10,39.00,88.67,340.00,9.00,0.00,30.16,1021.60,6.00,M,BKN,OVC,M,M,800.00,1000.00,M,M,BR,KCVG 011452Z 34009KT 6SM BR BKN008 OVC010 06/04 A3016 RMK AO2 SLP216 T00560039 51023
CVG,2017-04-01 14:55,-84.6717,39.0431,M,M,M,340.00,10.00,M,30.17,M,7.00,M,OVC,M,M,M,800.00,M,M,M,M,KCVG 011455Z AUTO 34010KT 7SM OVC008 A3017 RMK MADISHF
CVG,2017-04-01 15:00,-84.6717,39.0431,M,M,M,350.00,8.00,M,30.17,M,8.00,M,OVC,M,M,M,800.00,M,M,M,M,KCVG 011500Z AUTO 35008KT 8SM OVC008 A3017 RMK MADISHF
CVG,2017-04-01 15:05,-84.6717,39.0431,M,M,M,330.00,7.00,M,30.17,M,8.00,M,BKN,OVC,M,M,800.00,1600.00,M,M,M,KCVG 011505Z AUTO 33007KT 8SM BKN008 OVC016 A3017 RMK MADISHF
CVG,2017-04-01 15:10,-84.6717,39.0431,M,M,M,320.00,6.00,M,30.17,M,10.00,M,BKN,OVC,M,M,800.00,1800.00,M,M,M,KCVG 011510Z AUTO 32006KT 10SM BKN008 OVC018 A3017 RMK MADISHF
CVG,2017-04-01 15:15,-84.6717,39.0431,M,M,M,330.00,8.00,M,30.17,M,10.00,M,BKN,OVC,M,M,800.00,999.00,M,M,M,KCVG 011515Z AUTO 33008KT 10SM BKN008 OVC009 A3017 RMK MADISHF
CVG,2017-04-01 15:20,-84.6717,39.0431,M,M,M,320.00,7.00,M,30.17,M,10.00,M,BKN,OVC,M,M,800.00,999.00,M,M,M,KCVG 011520Z AUTO 32007KT 10SM BKN008 OVC009 A3017 RMK MADISHF
CVG,2017-04-01 15:25,-84.6717,39.0431,M,M,M,310.00,6.00,M,30.17,M,10.00,M,BKN,OVC,M,M,800.00,999.00,M,M,M,KCVG 011525Z AUTO 31006KT 10SM BKN008 OVC009 A3017 RMK MADISHF
CVG,2017-04-01 15:30,-84.6717,39.0431,M,M,M,310.00,7.00,M,30.17,M,10.00,M,BKN,OVC,M,M,800.00,999.00,M,M,M,KCVG 011530Z AUTO 31007KT 10SM BKN008 OVC009 A3017 RMK MADISHF
CVG,2017-04-01 15:35,-84.6717,39.0431,M,M,M,320.00,9.00,M,30.18,M,10.00,M,BKN,OVC,M,M,800.00,999.00,M,M,M,KCVG 011535Z AUTO 32009KT 10SM BKN008 OVC009 A3018 RMK MADISHF
CVG,2017-04-01 15:40,-84.6717,39.0431,M,M,M,310.00,10.00,M,30.18,M,10.00,M,BKN,OVC,M,M,800.00,999.00,M,M,M,KCVG 011540Z AUTO 31010KT 10SM BKN008 OVC009 A3018 RMK MADISHF
CVG,2017-04-01 15:45,-84.6717,39.0431,M,M,M,340.00,11.00,M,30.18,M,10.00,M,BKN,OVC,M,M,800.00,1500.00,M,M,M,KCVG 011545Z AUTO 34011KT 10SM BKN008 OVC015 A3018 RMK MADISHF
CVG,2017-04-01 15:50,-84.6717,39.0431,M,M,M,350.00,10.00,M,30.18,M,10.00,M,BKN,OVC,M,M,800.00,1500.00,M,M,M,KCVG 011550Z AUTO 35010KT 10SM BKN008 OVC015 A3018 RMK MADISHF
CVG,2017-04-01 15:52,-84.6717,39.0431,43.00,37.00,79.19,350.00,8.00,0.00,30.18,1022.30,10.00,M,BKN,OVC,M,M,1200.00,1500.00,M,M,M,KCVG 011552Z 35008KT 10SM BKN012 OVC015 06/03 A3018 RMK AO2 SLP223 T00610028
CVG,2017-04-01 15:55,-84.6717,39.0431,M,M,M,350.00,9.00,M,30.19,M,10.00,M,OVC,M,M,M,1400.00,M,M,M,M,KCVG 011555Z AUTO 35009KT 10SM OVC014 A3019 RMK MADISHF
CVG,2017-04-01 16:00,-84.6717,39.0431,M,M,M,340.00,9.00,M,30.19,M,10.00,M,OVC,M,M,M,1400.00,M,M,M,M,KCVG 011600Z AUTO 34009KT 10SM OVC014 A3019 RMK MADISHF
CVG,2017-04-01 16:05,-84.6717,39.0431,M,M,M,340.00,7.00,M,30.19,M,10.00,M,OVC,M,M,M,1400.00,M,M,M,M,KCVG 011605Z AUTO 34007KT 10SM OVC014 A3019 RMK MADISHF
CVG,2017-04-01 16:10,-84.6717,39.0431,M,M,M,330.00,8.00,M,30.19,M,10.00,M,OVC,M,M,M,1400.00,M,M,M,M,KCVG 011610Z AUTO 33008KT 10SM OVC014 A3019 RMK MADISHF
CVG,2017-04-01 16:15,-84.6717,39.0431,M,M,M,340.00,8.00,M,30.19,M,10.00,M,BKN,OVC,M,M,1200.00,1500.00,M,M,M,KCVG 011615Z AUTO 34008KT 10SM BKN012 OVC015 A3019 RMK MADISHF
CVG,2017-04-01 16:20,-84.6717,39.0431,M,M,M,330.00,7.00,M,30.18,M,10.00,M,BKN,OVC,M,M,1200.00,1500.00,M,M,M,KCVG 011620Z AUTO 33007KT 10SM BKN012 OVC015 A3018 RMK MADISHF
CVG,2017-04-01 16:25,-84.6717,39.0431,M,M,M,320.00,9.00,M,30.18,M,10.00,M,BKN,OVC,M,M,1200.00,1500.00,M,M,M,KCVG 011625Z AUTO 32009KT 10SM BKN012 OVC015 A3018 RMK MADISHF
CVG,2017-04-01 16:30,-84.6717,39.0431,M,M,M,340.00,9.00,M,30.18,M,10.00,M,BKN,OVC,M,M,1200.00,1500.00,M,M,M,KCVG 011630Z AUTO 34009KT 10SM BKN012 OVC015 A3018 RMK MADISHF
CVG,2017-04-01 16:35,-84.6717,39.0431,M,M,M,340.00,6.00,M,30.19,M,10.00,M,BKN,OVC,M,M,1200.00,1500.00,M,M,M,KCVG 011635Z AUTO 34006KT 10SM BKN012 OVC015 A3019 RMK MADISHF
CVG,2017-04-01 16:40,-84.6717,39.0431,M,M,M,340.00,9.00,M,30.19,M,10.00,M,BKN,OVC,M,M,1200.00,1500.00,M,M,M,KCVG 011640Z AUTO 34009KT 10SM BKN012 OVC015 A3019 RMK MADISHF
CVG,2017-04-01 16:45,-84.6717,39.0431,M,M,M,320.00,9.00,M,30.19,M,10.00,M,BKN,OVC,M,M,1200.00,1500.00,M,M,M,KCVG 011645Z AUTO 32009KT 10SM BKN012 OVC015 A3019 RMK MADISHF
CVG,2017-04-01 16:50,-84.6717,39.0431,M,M,M,320.00,5.00,M,30.18,M,10.00,M,BKN,OVC,M,M,1200.00,1500.00,M,M,M,KCVG 011650Z AUTO 32005KT 10SM BKN012 OVC015 A3018 RMK MADISHF
CVG,2017-04-01 16:52,-84.6717,39.0431,43.00,37.00,79.19,340.00,6.00,0.00,30.18,1022.20,10.00,M,BKN,OVC,M,M,1400.00,1600.00,M,M,M,KCVG 011652Z 34006KT 10SM BKN014 OVC016 06/03 A3018 RMK AO2 SLP222 T00610028
CVG,2017-04-01 16:55,-84.6717,39.0431,M,M,M,340.00,7.00,M,30.18,M,10.00,M,BKN,OVC,M,M,1400.00,1600.00,M,M,M,KCVG 011655Z AUTO 34007KT 10SM BKN014 OVC016 A3018 RMK MADISHF
CVG,2017-04-01 17:00,-84.6717,39.0431,M,M,M,320.00,6.00,M,30.18,M,10.00,M,BKN,OVC,M,M,1400.00,1600.00,M,M,M,KCVG 011700Z AUTO 32006KT 10SM BKN014 OVC016 A3018 RMK MADISHF
CVG,2017-04-01 17:05,-84.6717,39.0431,M,M,M,330.00,6.00,M,30.18,M,10.00,M,BKN,OVC,M,M,1400.00,1600.00,M,M,M,KCVG 011705Z AUTO 33006KT 10SM BKN014 OVC016 A3018 RMK MADISHF
CVG,2017-04-01 17:10,-84.6717,39.0431,M,M,M,310.00,6.00,M,30.18,M,10.00,M,BKN,OVC,M,M,1400.00,1600.00,M,M,M,KCVG 011710Z AUTO 31006KT 10SM BKN014 OVC016 A3018 RMK MADISHF
CVG,2017-04-01 17:15,-84.6717,39.0431,M,M,M,290.00,5.00,M,30.18,M,10.00,M,BKN,OVC,M,M,1400.00,1600.00,M,M,M,KCVG 011715Z AUTO 29005KT 10SM BKN014 OVC016 A3018 RMK MADISHF
CVG,2017-04-01 17:20,-84.6717,39.0431,M,M,M,290.00,6.00,M,30.18,M,10.00,M,BKN,OVC,M,M,1400.00,1600.00,M,M,M,KCVG 011720Z AUTO 29006KT 10SM BKN014 OVC016 A3018 RMK VRB06KT  MADISHF
CVG,2017-04-01 17:25,-84.6717,39.0431,M,M,M,290.00,6.00,M,30.18,M,10.00,M,BKN,OVC,M,M,1400.00,1600.00,M,M,M,KCVG 011725Z AUTO 29006KT 10SM BKN014 OVC016 A3018 RMK MADISHF
CVG,2017-04-01 17:30,-84.6717,39.0431,M,M,M,320.00,6.00,M,30.18,M,10.00,M,BKN,OVC,M,M,1400.00,1600.00,M,M,M,KCVG 011730Z AUTO 32006KT 10SM BKN014 OVC016 A3018 RMK MADISHF
CVG,2017-04-01 17:35,-84.6717,39.0431,M,M,M,330.00,7.00,M,30.18,M,10.00,M,BKN,OVC,M,M,1400.00,1600.00,M,M,M,KCVG 011735Z AUTO 33007KT 10SM BKN014 OVC016 A3018 RMK MADISHF
CVG,2017-04-01 17:40,-84.6717,39.0431,M,M,M,300.00,6.00,M,30.18,M,10.00,M,BKN,OVC,M,M,1400.00,1600.00,M,M,M,KCVG 011740Z AUTO 30006KT 10SM BKN014 OVC016 A3018 RMK MADISHF
CVG,2017-04-01 17:45,-84.6717,39.0431,M,M,M,290.00,6.00,M,30.18,M,10.00,M,BKN,OVC,M,M,1400.00,1699.00,M,M,M,KCVG 011745Z AUTO 29006KT 10SM BKN014 OVC016 A3018 RMK MADISHF
CVG,2017-04-01 17:50,-84.6717,39.0431,M,M,M,300.00,6.00,M,30.18,M,10.00,M,BKN,OVC,M,M,1400.00,1699.00,M,M,M,KCVG 011750Z AUTO 30006KT 10SM BKN014 OVC016 A3018 RMK MADISHF
CVG,2017-04-01 17:52,-84.6717,39.0431,45.00,37.90,76.01,280.00,6.00,0.00,30.18,1022.10,10.00,M,BKN,OVC,M,M,1600.00,1700.00,M,M,M,KCVG 011752Z 28006KT 10SM BKN016 OVC017 07/03 A3018 RMK AO2 SLP221 T00720033 10072 20050 50005
CVG,2017-04-01 17:55,-84.6717,39.0431,M,M,M,270.00,5.00,M,30.18,M,10.00,M,BKN,OVC,M,M,1600.00,1699.00,M,M,M,KCVG 011755Z AUTO 27005KT 10SM BKN016 OVC016 A3018 RMK MADISHF
CVG,2017-04-01 18:00,-84.6717,39.0431,M,M,M,290.00,8.00,M,30.18,M,10.00,M,BKN,OVC,M,M,1600.00,1699.00,M,M,M,KCVG 011800Z AUTO 29008KT 10SM BKN016 OVC016 A3018 RMK MADISHF
CVG,2017-04-01 18:05,-84.6717,39.0431,M,M,M,300.00,6.00,M,30.18,M,10.00,M,BKN,OVC,M,M,1600.00,1699.00,M,M,M,KCVG 011805Z AUTO 30006KT 10SM BKN016 OVC016 A3018 RMK MADISHF
CVG,2017-04-01 18:10,-84.6717,39.0431,M,M,M,290.00,8.00,M,30.18,M,10.00,M,BKN,OVC,M,M,1600.00,1699.00,M,M,M,KCVG 011810Z AUTO 29008KT 10SM BKN016 OVC016 A3018 RMK MADISHF
CVG,2017-04-01 18:15,-84.6717,39.0431,M,M,M,300.00,8.00,M,30.18,M,10.00,M,BKN,OVC,M,M,1600.00,1699.00,M,M,M,KCVG 011815Z AUTO 30008KT 10SM BKN016 OVC016 A3018 RMK MADISHF
CVG,2017-04-01 18:20,-84.6717,39.0431,M,M,M,290.00,5.00,M,30.17,M,10.00,M,BKN,OVC,M,M,1600.00,1699.00,M,M,M,KCVG 011820Z AUTO 29005KT 10SM BKN016 OVC016 A3017 RMK MADISHF
CVG,2017-04-01 18:25,-84.6717,39.0431,M,M,M,330.00,5.00,M,30.17,M,10.00,M,BKN,OVC,M,M,1600.00,1699.00,M,M,M,KCVG 011825Z AUTO 33005KT 10SM BKN016 OVC016 A3017 RMK MADISHF
CVG,2017-04-01 18:30,-84.6717,39.0431,M,M,M,290.00,5.00,M,30.17,M,10.00,M,BKN,OVC,M,M,1600.00,1800.00,M,M,M,KCVG 011830Z AUTO 29005KT 10SM BKN016 OVC018 A3017 RMK MADISHF
CVG,2017-04-01 18:35,-84.6717,39.0431,M,M,M,320.00,4.00,M,30.17,M,10.00,M,BKN,OVC,M,M,1600.00,1800.00,M,M,M,KCVG 011835Z AUTO 32004KT 10SM BKN016 OVC018 A3017 RMK MADISHF
CVG,2017-04-01 18:40,-84.6717,39.0431,M,M,M,330.00,7.00,M,30.18,M,10.00,M,BKN,OVC,M,M,1600.00,1800.00,M,M,M,KCVG 011840Z AUTO 33007KT 10SM BKN016 OVC018 A3018 RMK MADISHF
CVG,2017-04-01 18:45,-84.6717,39.0431,M,M,M,330.00,5.00,M,30.17,M,10.00,M,BKN,OVC,M,M,1600.00,1800.00,M,M,M,KCVG 011845Z AUTO 33005KT 10SM BKN016 OVC018 A3017 RMK MADISHF
CVG,2017-04-01 18:50,-84.6717,39.0431,M,M,M,360.00,7.00,M,30.17,M,10.00,M,BKN,OVC,M,M,1600.00,1800.00,M,M,M,KCVG 011850Z AUTO 36007KT 10SM BKN016 OVC018 A3017 RMK MADISHF
CVG,2017-04-01 18:52,-84.6717,39.0431,48.00,39.00,70.85,340.00,7.00,0.00,30.17,1021.80,10.00,M,BKN,OVC,M,M,1600.00,1800.00,M,M,M,KCVG 011852Z 34007KT 10SM BKN016 OVC018 09/04 A3017 RMK AO2 SLP218 T00890039
CVG,2017-04-01 18:55,-84.6717,39.0431,M,M,M,330.00,9.00,M,30.17,M,10.00,M,BKN,BKN,OVC,M,1699.00,2400.00,3000.00,M,M,KCVG 011855Z AUTO 33009KT 10SM BKN016 BKN024 OVC030 A3017 RMK MADISHF
CVG,2017-04-01 19:00,-84.6717,39.0431,M,M,M,340.00,8.00,M,30.17,M,10.00,M,BKN,BKN,OVC,M,1800.00,2400.00,3000.00,M,M,KCVG 011900Z AUTO 34008KT 10SM BKN018 BKN024 OVC030 A3017 RMK MADISHF
CVG,2017-04-01 19:05,-84.6717,39.0431,M,M,M,340.00,7.00,M,30.17,M,10.00,M,BKN,OVC,M,M,2100.00,3000.00,M,M,M,KCVG 011905Z AUTO 34007KT 10SM BKN021 OVC030 A3017 RMK MADISHF
CVG,2017-04-01 19:10,-84.6717,39.0431,M,M,M,10.00,4.00,M,30.17,M,10.00,M,BKN,OVC,M,M,1999.00,3000.00,M,M,M,KCVG 011910Z AUTO 01004KT 10SM BKN019 OVC030 A3017 RMK MADISHF
CVG,2017-04-01 19:15,-84.6717,39.0431,M,M,M,350.00,9.00,M,30.17,M,10.00,M,BKN,OVC,M,M,1999.00,2800.00,M,M,M,KCVG 011915Z AUTO 35009KT 10SM BKN019 OVC028 A3017 RMK MADISHF
CVG,2017-04-01 19:20,-84.6717,39.0431,M,M,M,350.00,9.00,M,30.17,M,10.00,M,SCT,OVC,M,M,1999.00,2700.00,M,M,M,KCVG 011920Z AUTO 35009KT 10SM SCT019 OVC027 A3017 RMK MADISHF
CVG,2017-04-01 19:25,-84.6717,39.0431,M,M,M,360.00,9.00,M,30.17,M,10.00,M,OVC,M,M,M,2400.00,M,M,M,M,KCVG 011925Z AUTO 36009KT 10SM OVC024 A3017 RMK MADISHF
CVG,2017-04-01 19:30,-84.6717,39.0431,M,M,M,350.00,9.00,M,30.17,M,10.00,M,OVC,M,M,M,2400.00,M,M,M,M,KCVG 011930Z AUTO 35009KT 10SM OVC024 A3017 RMK MADISHF
CVG,2017-04-01 19:35,-84.6717,39.0431,M,M,M,350.00,7.00,M,30.17,M,10.00,M,OVC,M,M,M,2300.00,M,M,M,M,KCVG 011935Z AUTO 35007KT 10SM OVC023 A3017 RMK MADISHF
CVG,2017-04-01 19:40,-84.6717,39.0431,M,M,M,360.00,5.00,M,30.17,M,10.00,M,OVC,M,M,M,2400.00,M,M,M,M,KCVG 011940Z AUTO 36005KT 10SM OVC024 A3017 RMK MADISHF
CVG,2017-04-01 19:45,-84.6717,39.0431,M,M,M,360.00,3.00,M,30.17,M,10.00,M,OVC,M,M,M,2300.00,M,M,M,M,KCVG 011945Z AUTO 36003KT 10SM OVC023 A3017 RMK VRB03KT  MADISHF
CVG,2017-04-01 19:50,-84.6717,39.0431,M,M,M,330.00,6.00,M,30.17,M,10.00,M,BKN,OVC,M,M,2300.00,2600.00,M,M,M,KCVG 011950Z AUTO 33006KT 10SM BKN023 OVC026 A3017 RMK MADISHF
CVG,2017-04-01 19:52,-84.6717,39.0431,48.00,37.90,67.87,340.00,8.00,0.00,30.17,1021.70,10.00,M,BKN,OVC,M,M,2300.00,2600.00,M,M,M,KCVG 011952Z 34008KT 10SM BKN023 OVC026 09/03 A3017 RMK AO2 SLP217 T00890033
CVG,2017-04-01 19:55,-84.6717,39.0431,M,M,M,360.00,6.00,M,30.17,M,10.00,M,OVC,M,M,M,2300.00,M,M,M,M,KCVG 011955Z AUTO 36006KT 10SM OVC023 A3017 RMK MADISHF
CVG,2017-04-01 20:00,-84.6717,39.0431,M,M,M,330.00,5.00,M,30.17,M,10.00,M,OVC,M,M,M,2300.00,M,M,M,M,KCVG 012000Z AUTO 33005KT 10SM OVC023 A3017 RMK MADISHF
CVG,2017-04-01 20:05,-84.6717,39.0431,M,M,M,340.00,7.00,M,30.17,M,10.00,M,OVC,M,M,M,2300.00,M,M,M,M,KCVG 012005Z AUTO 34007KT 10SM OVC023 A3017 RMK MADISHF
CVG,2017-04-01 20:10,-84.6717,39.0431,M,M,M,330.00,4.00,M,30.17,M,10.00,M,OVC,M,M,M,2300.00,M,M,M,M,KCVG 012010Z AUTO 33004KT 10SM OVC023 A3017 RMK MADISHF
CVG,2017-04-01 20:15,-84.6717,39.0431,M,M,M,310.00,6.00,M,30.17,M,10.00,M,OVC,M,M,M,2500.00,M,M,M,M,KCVG 012015Z AUTO 31006KT 10SM OVC025 A3017 RMK MADISHF
CVG,2017-04-01 20:20,-84.6717,39.0431,M,M,M,350.00,5.00,M,30.17,M,10.00,M,OVC,M,M,M,2500.00,M,M,M,M,KCVG 012020Z AUTO 35005KT 10SM OVC025 A3017 RMK MADISHF
CVG,2017-04-01 20:25,-84.6717,39.0431,M,M,M,350.00,5.00,M,30.17,M,10.00,M,OVC,M,M,M,2400.00,M,M,M,M,KCVG 012025Z AUTO 35005KT 10SM OVC024 A3017 RMK MADISHF
CVG,2017-04-01 20:35,-84.6717,39.0431,M,M,M,330.00,6.00,M,30.17,M,10.00,M,OVC,M,M,M,2500.00,M,M,M,M,KCVG 012035Z AUTO 33006KT 10SM OVC025 A3017 RMK MADISHF
CVG,2017-04-01 20:40,-84.6717,39.0431,M,M,M,320.00,5.00,M,30.17,M,10.00,M,OVC,M,M,M,2500.00,M,M,M,M,KCVG 012040Z AUTO 32005KT 10SM OVC025 A3017 RMK VRB05KT  MADISHF
CVG,2017-04-01 20:45,-84.6717,39.0431,M,M,M,320.00,3.00,M,30.17,M,10.00,M,OVC,M,M,M,2500.00,M,M,M,M,KCVG 012045Z AUTO 32003KT 10SM OVC025 A3017 RMK MADISHF
CVG,2017-04-01 20:50,-84.6717,39.0431,M,M,M,330.00,5.00,M,30.18,M,10.00,M,OVC,M,M,M,2400.00,M,M,M,M,KCVG 012050Z AUTO 33005KT 10SM OVC024 A3018 RMK MADISHF
CVG,2017-04-01 20:52,-84.6717,39.0431,48.00,37.90,67.87,320.00,5.00,0.00,30.18,1022.00,10.00,M,OVC,M,M,M,2400.00,M,M,M,M,KCVG 012052Z 32005KT 10SM OVC024 09/03 A3018 RMK AO2 SLP220 T00890033 55001
CVG,2017-04-01 20:55,-84.6717,39.0431,M,M,M,310.00,5.00,M,30.18,M,10.00,M,OVC,M,M,M,2400.00,M,M,M,M,KCVG 012055Z AUTO 31005KT 10SM OVC024 A3018 RMK MADISHF
CVG,2017-04-01 21:00,-84.6717,39.0431,M,M,M,310.00,6.00,M,30.18,M,10.00,M,OVC,M,M,M,2400.00,M,M,M,M,KCVG 012100Z AUTO 31006KT 10SM OVC024 A3018 RMK MADISHF
CVG,2017-04-01 21:05,-84.6717,39.0431,M,M,M,310.00,8.00,M,30.18,M,10.00,M,OVC,M,M,M,2400.00,M,M,M,M,KCVG 012105Z AUTO 31008KT 10SM OVC024 A3018 RMK MADISHF
CVG,2017-04-01 21:10,-84.6717,39.0431,M,M,M,320.00,7.00,M,30.18,M,10.00,M,OVC,M,M,M,2400.00,M,M,M,M,KCVG 012110Z AUTO 32007KT 10SM OVC024 A3018 RMK MADISHF
CVG,2017-04-01 21:15,-84.6717,39.0431,M,M,M,340.00,4.00,M,30.19,M,10.00,M,OVC,M,M,M,2500.00,M,M,M,M,KCVG 012115Z AUTO 34004KT 10SM OVC025 A3019 RMK MADISHF
CVG,2017-04-01 21:20,-84.6717,39.0431,M,M,M,320.00,4.00,M,30.19,M,10.00,M,OVC,M,M,M,2500.00,M,M,M,M,KCVG 012120Z AUTO 32004KT 10SM OVC025 A3019 RMK MADISHF
CVG,2017-04-01 21:25,-84.6717,39.0431,M,M,M,320.00,4.00,M,30.19,M,10.00,M,OVC,M,M,M,2500.00,M,M,M,M,KCVG 012125Z AUTO 32004KT 10SM OVC025 A3019 RMK MADISHF
CVG,2017-04-01 21:30,-84.6717,39.0431,M,M,M,320.00,4.00,M,30.19,M,10.00,M,OVC,M,M,M,2500.00,M,M,M,M,KCVG 012130Z AUTO 32004KT 10SM OVC025 A3019 RMK MADISHF
CVG,2017-04-01 21:35,-84.6717,39.0431,M,M,M,320.00,3.00,M,30.19,M,10.00,M,OVC,M,M,M,2600.00,M,M,M,M,KCVG 012135Z AUTO 32003KT 10SM OVC026 A3019 RMK MADISHF
CVG,2017-04-01 21:40,-84.6717,39.0431,M,M,M,0.00,0.00,M,30.19,M,10.00,M,OVC,M,M,M,2700.00,M,M,M,M,KCVG 012140Z AUTO 00000KT 10SM OVC027 A3019 RMK MADISHF
CVG,2017-04-01 21:45,-84.6717,39.0431,M,M,M,350.00,3.00,M,30.19,M,10.00,M,OVC,M,M,M,2700.00,M,M,M,M,KCVG 012145Z AUTO 35003KT 10SM OVC027 A3019 RMK MADISHF
CVG,2017-04-01 21:50,-84.6717,39.0431,M,M,M,320.00,5.00,M,30.20,M,10.00,M,OVC,M,M,M,2800.00,M,M,M,M,KCVG 012150Z AUTO 32005KT 10SM OVC028 A3020 RMK MADISHF
CVG,2017-04-01 21:52,-84.6717,39.0431,48.90,37.90,65.62,320.00,5.00,0.00,30.20,1022.60,10.00,M,OVC,M,M,M,2800.00,M,M,M,M,KCVG 012152Z 32005KT 10SM OVC028 09/03 A3020 RMK AO2 SLP226 T00940033
CVG,2017-04-01 21:55,-84.6717,39.0431,M,M,M,320.00,4.00,M,30.20,M,10.00,M,OVC,M,M,M,2900.00,M,M,M,M,KCVG 012155Z AUTO 32004KT 10SM OVC029 A3020 RMK MADISHF
CVG,2017-04-01 22:00,-84.6717,39.0431,M,M,M,320.00,3.00,M,30.20,M,10.00,M,OVC,M,M,M,2900.00,M,M,M,M,KCVG 012200Z AUTO 32003KT 10SM OVC029 A3020 RMK MADISHF
CVG,2017-04-01 22:05,-84.6717,39.0431,M,M,M,340.00,5.00,M,30.20,M,10.00,M,OVC,M,M,M,2900.00,M,M,M,M,KCVG 012205Z AUTO 34005KT 10SM OVC029 A3020 RMK MADISHF
CVG,2017-04-01 22:10,-84.6717,39.0431,M,M,M,340.00,5.00,M,30.20,M,10.00,M,OVC,M,M,M,2800.00,M,M,M,M,KCVG 012210Z AUTO 34005KT 10SM OVC028 A3020 RMK MADISHF
CVG,2017-04-01 22:15,-84.6717,39.0431,M,M,M,330.00,4.00,M,30.20,M,10.00,M,OVC,M,M,M,2800.00,M,M,M,M,KCVG 012215Z AUTO 33004KT 10SM OVC028 A3020 RMK MADISHF
CVG,2017-04-01 22:20,-84.6717,39.0431,M,M,M,0.00,0.00,M,30.20,M,10.00,M,OVC,M,M,M,2800.00,M,M,M,M,KCVG 012220Z AUTO 00000KT 10SM OVC028 A3020 RMK MADISHF
CVG,2017-04-01 22:25,-84.6717,39.0431,M,M,M,360.00,3.00,M,30.20,M,10.00,M,OVC,M,M,M,2900.00,M,M,M,M,KCVG 012225Z AUTO 36003KT 10SM OVC029 A3020 RMK MADISHF
CVG,2017-04-01 22:30,-84.6717,39.0431,M,M,M,350.00,3.00,M,30.20,M,10.00,M,OVC,M,M,M,2800.00,M,M,M,M,KCVG 012230Z AUTO 35003KT 10SM OVC028 A3020 RMK MADISHF
CVG,2017-04-01 22:35,-84.6717,39.0431,M,M,M,350.00,3.00,M,30.21,M,10.00,M,BKN,OVC,M,M,2700.00,3000.00,M,M,M,KCVG 012235Z AUTO 35003KT 10SM BKN027 OVC030 A3021 RMK MADISHF
CVG,2017-04-01 22:40,-84.6717,39.0431,M,M,M,310.00,3.00,M,30.21,M,10.00,M,BKN,OVC,M,M,2700.00,3000.00,M,M,M,KCVG 012240Z AUTO 31003KT 10SM BKN027 OVC030 A3021 RMK MADISHF
CVG,2017-04-01 22:45,-84.6717,39.0431,M,M,M,350.00,3.00,M,30.20,M,10.00,M,BKN,OVC,M,M,2700.00,3000.00,M,M,M,KCVG 012245Z AUTO 35003KT 10SM BKN027 OVC030 A3020 RMK MADISHF
CVG,2017-04-01 22:50,-84.6717,39.0431,M,M,M,360.00,4.00,M,30.20,M,10.00,M,BKN,OVC,M,M,2700.00,3000.00,M,M,M,KCVG 012250Z AUTO 36004KT 10SM BKN027 OVC030 A3020 RMK MADISHF
CVG,2017-04-01 22:52,-84.6717,39.0431,48.90,39.00,68.51,340.00,4.00,0.00,30.20,1022.80,10.00,M,BKN,OVC,M,M,2700.00,3000.00,M,M,M,KCVG 012252Z 34004KT 10SM BKN027 OVC030 09/04 A3020 RMK AO2 SLP228 T00940039
CVG,2017-04-01 22:55,-84.6717,39.0431,M,M,M,330.00,5.00,M,30.20,M,10.00,M,OVC,M,M,M,2900.00,M,M,M,M,KCVG 012255Z AUTO 33005KT 10SM OVC029 A3020 RMK MADISHF
CVG,2017-04-01 23:00,-84.6717,39.0431,M,M,M,330.00,3.00,M,30.20,M,10.00,M,BKN,OVC,M,M,2900.00,3100.00,M,M,M,KCVG 012300Z AUTO 33003KT 10SM BKN029 OVC031 A3020 RMK MADISHF
CVG,2017-04-01 23:05,-84.6717,39.0431,M,M,M,330.00,5.00,M,30.21,M,10.00,M,BKN,OVC,M,M,2900.00,3100.00,M,M,M,KCVG 012305Z AUTO 33005KT 10SM BKN029 OVC031 A3021 RMK MADISHF
CVG,2017-04-01 23:10,-84.6717,39.0431,M,M,M,340.00,4.00,M,30.21,M,10.00,M,BKN,OVC,M,M,2900.00,3100.00,M,M,M,KCVG 012310Z AUTO 34004KT 10SM BKN029 OVC031 A3021 RMK MADISHF
CVG,2017-04-01 23:15,-84.6717,39.0431,M,M,M,330.00,4.00,M,30.21,M,10.00,M,BKN,OVC,M,M,2900.00,3100.00,M,M,M,KCVG 012315Z AUTO 33004KT 10SM BKN029 OVC031 A3021 RMK MADISHF
CVG,2017-04-01 23:20,-84.6717,39.0431,M,M,M,320.00,3.00,M,30.21,M,10.00,M,BKN,OVC,M,M,2900.00,3100.00,M,M,M,KCVG 012320Z AUTO 32003KT 10SM BKN029 OVC031 A3021 RMK MADISHF
CVG,2017-04-01 23:25,-84.6717,39.0431,M,M,M,310.00,3.00,M,30.21,M,10.00,M,BKN,OVC,M,M,2900.00,3100.00,M,M,M,KCVG 012325Z AUTO 31003KT 10SM BKN029 OVC031 A3021 RMK MADISHF
CVG,2017-04-01 23:30,-84.6717,39.0431,M,M,M,0.00,0.00,M,30.21,M,10.00,M,BKN,OVC,M,M,2900.00,3100.00,M,M,M,KCVG 012330Z AUTO 00000KT 10SM BKN029 OVC031 A3021 RMK MADISHF
CVG,2017-04-01 23:35,-84.6717,39.0431,M,M,M,320.00,3.00,M,30.21,M,10.00,M,BKN,OVC,M,M,2900.00,3100.00,M,M,M,KCVG 012335Z AUTO 32003KT 10SM BKN029 OVC031 A3021 RMK MADISHF
CVG,2017-04-01 23:40,-84.6717,39.0431,M,M,M,0.00,0.00,M,30.21,M,10.00,M,BKN,OVC,M,M,2900.00,3100.00,M,M,M,KCVG 012340Z AUTO 00000KT 10SM BKN029 OVC031 A3021 RMK MADISHF
CVG,2017-04-01 23:45,-84.6717,39.0431,M,M,M,350.00,3.00,M,30.21,M,10.00,M,BKN,OVC,M,M,2900.00,3100.00,M,M,M,KCVG 012345Z AUTO 35003KT 10SM BKN029 OVC031 A3021 RMK MADISHF
CVG,2017-04-01 23:50,-84.6717,39.0431,M,M,M,330.00,3.00,M,30.21,M,10.00,M,BKN,OVC,M,M,2800.00,3200.00,M,M,M,KCVG 012350Z AUTO 33003KT 10SM BKN028 OVC032 A3021 RMK MADISHF
CVG,2017-04-01 23:52,-84.6717,39.0431,48.00,39.00,70.85,0.00,0.00,0.00,30.21,1023.10,10.00,M,BKN,OVC,M,M,2800.00,3200.00,M,M,M,KCVG 012352Z 00000KT 10SM BKN028 OVC032 09/04 A3021 RMK AO2 SLP231 T00890039 10094 20072 51010
CVG,2017-04-01 23:55,-84.6717,39.0431,M,M,M,0.00,0.00,M,30.21,M,10.00,M,OVC,M,M,M,3000.00,M,M,M,M,KCVG 012355Z AUTO 00000KT 10SM OVC030 A3021 RMK MADISHF
