#DEBUG: Format Typ    -> comma
#DEBUG: Time Period   -> 2017-04-01 00:00:00+00:00 2017-04-02 00:00:00+00:00
#DEBUG: Time Zone     -> Etc/UTC
#DEBUG: Data Contact   -> daryl herzmann akrherz@iastate.edu 515-294-5978
#DEBUG: Entries Found -> -1
station,valid,lon,lat,tmpf, dwpf, relh, drct, sknt, p01i, alti, mslp, vsby, gust, skyc1, skyc2, skyc3, skyc4, skyl1, skyl2, skyl3, skyl4, presentwx, metar
CVN,2017-04-01 00:00,-103.0793,34.4251,M,M,M,M,M,M,M,M,10.00,32.00,CLR,M,M,M,M,M,M,M,M,KCVN 010000Z AUTO /////G32KT 10SM CLR RMK MADISHF
CVN,2017-04-01 00:05,-103.0793,34.4251,M,M,M,M,M,M,M,M,10.00,34.00,CLR,M,M,M,M,M,M,M,M,KCVN 010005Z AUTO /////G34KT 10SM CLR RMK MADISHF
CVN,2017-04-01 00:10,-103.0793,34.4251,M,M,M,M,M,M,M,M,10.00,34.00,CLR,M,M,M,M,M,M,M,M,KCVN 010010Z AUTO /////G34KT 10SM CLR RMK MADISHF
CVN,2017-04-01 00:15,-103.0793,34.4251,62.60,48.20,59.26,60.00,16.00,0.00,29.61,M,10.00,26.00,CLR,M,M,M,M,M,M,M,M,KCVN 010015Z AUTO 06016G26KT 10SM CLR 17/09 A2961 RMK AO1
CVN,2017-04-01 00:20,-103.0793,34.4251,M,M,M,50.00,15.00,M,M,M,10.00,24.00,CLR,M,M,M,M,M,M,M,M,KCVN 010020Z AUTO 05015G24KT 10SM CLR RMK MADISHF
CVN,2017-04-01 00:25,-103.0793,34.4251,M,M,M,M,M,M,M,M,10.00,23.00,CLR,M,M,M,M,M,M,M,M,KCVN 010025Z AUTO /////G23KT 10SM CLR RMK MADISHF
CVN,2017-04-01 00:30,-103.0793,34.4251,M,M,M,50.00,20.00,M,M,M,10.00,24.00,CLR,M,M,M,M,M,M,M,M,KCVN 010030Z AUTO 05020G24KT 10SM CLR RMK MADISHF
CVN,2017-04-01 00:35,-103.0793,34.4251,60.80,48.20,63.15,70.00,19.00,0.00,29.63,M,10.00,24.00,CLR,M,M,M,M,M,M,M,M,KCVN 010035Z AUTO 07019G24KT 10SM CLR 16/09 A2963 RMK AO1
CVN,2017-04-01 00:40,-103.0793,34.4251,M,M,M,60.00,22.00,M,M,M,10.00,28.00,CLR,M,M,M,M,M,M,M,M,KCVN 010040Z AUTO 06022G28KT 10SM CLR RMK MADISHF
CVN,2017-04-01 00:45,-103.0793,34.4251,M,M,M,50.00,16.00,M,M,M,10.00,28.00,CLR,M,M,M,M,M,M,M,M,KCVN 010045Z AUTO 05016G28KT 10SM CLR RMK MADISHF
CVN,2017-04-01 00:50,-103.0793,34.4251,M,M,M,50.00,12.00,M,M,M,10.00,M,CLR,M,M,M,M,M,M,M,M,KCVN 010050Z AUTO 05012KT 10SM CLR RMK MADISHF
CVN,2017-04-01 00:55,-103.0793,34.4251,59.00,48.20,67.33,70.00,23.00,0.00,29.62,M,10.00,29.00,CLR,M,M,M,M,M,M,M,M,KCVN 010055Z AUTO 07023G29KT 10SM CLR 15/09 A2962 RMK AO1
CVN,2017-04-01 01:00,-103.0793,34.4251,M,M,M,M,M,M,M,M,10.00,30.00,CLR,M,M,M,M,M,M,M,M,KCVN 010100Z AUTO /////G30KT 10SM CLR RMK MADISHF
CVN,2017-04-01 01:05,-103.0793,34.4251,M,M,M,M,M,M,M,M,10.00,31.00,CLR,M,M,M,M,M,M,M,M,KCVN 010105Z AUTO /////G31KT 10SM CLR RMK MADISHF
CVN,2017-04-01 01:10,-103.0793,34.4251,M,M,M,M,M,M,M,M,10.00,31.00,CLR,M,M,M,M,M,M,M,M,KCVN 010110Z AUTO /////G31KT 10SM CLR RMK MADISHF
CVN,2017-04-01 01:15,-103.0793,34.4251,59.00,46.40,62.92,60.00,19.00,0.00,29.64,M,10.00,M,CLR,M,M,M,M,M,M,M,M,KCVN 010115Z AUTO 06019KT 10SM CLR 15/08 A2964 RMK AO1
CVN,2017-04-01 01:20,-103.0793,34.4251,M,M,M,60.00,15.00,M,M,M,10.00,M,CLR,M,M,M,M,M,M,M,M,KCVN 010120Z AUTO 06015KT 10SM CLR RMK MADISHF
CVN,2017-04-01 01:25,-103.0793,34.4251,M,M,M,60.00,16.00,M,M,M,10.00,20.00,CLR,M,M,M,M,M,M,M,M,KCVN 010125Z AUTO 06016G20KT 10SM CLR RMK MADISHF
CVN,2017-04-01 01:30,-103.0793,34.4251,M,M,M,50.00,18.00,M,M,M,10.00,M,CLR,M,M,M,M,M,M,M,M,KCVN 010130Z AUTO 05018KT 10SM CLR RMK MADISHF
CVN,2017-04-01 01:35,-103.0793,34.4251,57.20,48.20,71.83,60.00,20.00,0.00,29.65,M,10.00,25.00,CLR,M,M,M,M,M,M,M,M,KCVN 010135Z AUTO 06020G25KT 10SM CLR 14/09 A2965 RMK AO1
CVN,2017-04-01 01:40,-103.0793,34.4251,M,M,M,50.00,19.00,M,M,M,10.00,25.00,CLR,M,M,M,M,M,M,M,M,KCVN 010140Z AUTO 05019G25KT 10SM CLR RMK MADISHF
CVN,2017-04-01 01:45,-103.0793,34.4251,M,M,M,50.00,20.00,M,M,M,10.00,23.00,CLR,M,M,M,M,M,M,M,M,KCVN 010145Z AUTO 05020G23KT 10SM CLR RMK MADISHF
CVN,2017-04-01 01:50,-103.0793,34.4251,M,M,M,50.00,15.00,M,M,M,10.00,23.00,CLR,M,M,M,M,M,M,M,M,KCVN 010150Z AUTO 05015G23KT 10SM CLR RMK MADISHF
CVN,2017-04-01 01:55,-103.0793,34.4251,57.20,46.40,67.12,70.00,18.00,0.00,29.67,M,10.00,25.00,CLR,M,M,M,M,M,M,M,M,KCVN 010155Z AUTO 07018G25KT 10SM CLR 14/08 A2967 RMK AO1
CVN,2017-04-01 02:00,-103.0793,34.4251,M,M,M,60.00,22.00,M,M,M,10.00,27.00,CLR,M,M,M,M,M,M,M,M,KCVN 010200Z AUTO 06022G27KT 10SM CLR RMK MADISHF
CVN,2017-04-01 02:05,-103.0793,34.4251,M,M,M,70.00,20.00,M,M,M,10.00,27.00,CLR,M,M,M,M,M,M,M,M,KCVN 010205Z AUTO 07020G27KT 10SM CLR RMK MADISHF
CVN,2017-04-01 02:10,-103.0793,34.4251,M,M,M,70.00,20.00,M,M,M,10.00,25.00,CLR,M,M,M,M,M,M,M,M,KCVN 010210Z AUTO 07020G25KT 10SM CLR RMK MADISHF
CVN,2017-04-01 02:15,-103.0793,34.4251,57.20,46.40,67.12,60.00,18.00,0.00,29.68,M,10.00,25.00,CLR,M,M,M,M,M,M,M,M,KCVN 010215Z AUTO 06018G25KT 10SM CLR 14/08 A2968 RMK AO1
CVN,2017-04-01 02:20,-103.0793,34.4251,M,M,M,60.00,17.00,M,M,M,10.00,25.00,CLR,M,M,M,M,M,M,M,M,KCVN 010220Z AUTO 06017G25KT 10SM CLR RMK MADISHF
CVN,2017-04-01 02:25,-103.0793,34.4251,M,M,M,60.00,16.00,M,M,M,10.00,M,CLR,M,M,M,M,M,M,M,M,KCVN 010225Z AUTO 06016KT 10SM CLR RMK MADISHF
CVN,2017-04-01 02:30,-103.0793,34.4251,M,M,M,60.00,17.00,M,M,M,10.00,22.00,CLR,M,M,M,M,M,M,M,M,KCVN 010230Z AUTO 06017G22KT 10SM CLR RMK MADISHF
CVN,2017-04-01 02:35,-103.0793,34.4251,55.40,46.40,71.64,60.00,21.00,0.00,29.70,M,10.00,26.00,CLR,M,M,M,M,M,M,M,M,KCVN 010235Z AUTO 06021G26KT 10SM CLR 13/08 A2970 RMK AO1
CVN,2017-04-01 02:40,-103.0793,34.4251,M,M,M,50.00,20.00,M,M,M,10.00,26.00,CLR,M,M,M,M,M,M,M,M,KCVN 010240Z AUTO 05020G26KT 10SM CLR RMK MADISHF
CVN,2017-04-01 02:55,-103.0793,34.4251,55.40,46.40,71.64,40.00,15.00,0.00,29.73,M,10.00,23.00,CLR,M,M,M,M,M,M,M,M,KCVN 010255Z AUTO 04015G23KT 10SM CLR 13/08 A2973 RMK AO1 52041
CVN,2017-04-01 03:05,-103.0793,34.4251,M,M,M,20.00,18.00,M,M,M,10.00,M,FEW,M,M,M,3100.00,M,M,M,M,KCVN 010305Z AUTO 02018KT 10SM FEW031 RMK MADISHF
CVN,2017-04-01 03:10,-103.0793,34.4251,M,M,M,10.00,16.00,M,M,M,10.00,M,FEW,FEW,M,M,2300.00,3100.00,M,M,M,KCVN 010310Z AUTO 01016KT 10SM FEW023 FEW031 RMK MADISHF
CVN,2017-04-01 03:15,-103.0793,34.4251,55.40,48.20,76.66,10.00,17.00,0.00,29.77,M,10.00,21.00,SCT,M,M,M,2300.00,M,M,M,M,KCVN 010315Z AUTO 01017G21KT 10SM SCT023 13/09 A2977 RMK AO1
CVN,2017-04-01 03:20,-103.0793,34.4251,M,M,M,M,M,M,M,M,10.00,25.00,BKN,M,M,M,2100.00,M,M,M,M,KCVN 010320Z AUTO /////G25KT 10SM BKN021 RMK MADISHF
CVN,2017-04-01 03:25,-103.0793,34.4251,M,M,M,20.00,17.00,M,M,M,10.00,M,BKN,BKN,M,M,2100.00,2800.00,M,M,M,KCVN 010325Z AUTO 02017KT 10SM BKN021 BKN028 RMK MADISHF
CVN,2017-04-01 03:35,-103.0793,34.4251,51.80,44.60,76.34,10.00,18.00,0.00,29.78,M,10.00,M,SCT,BKN,BKN,M,2100.00,3600.00,4400.00,M,M,KCVN 010335Z AUTO 01018KT 10SM SCT021 BKN036 BKN044 11/07 A2978 RMK AO1
CVN,2017-04-01 03:40,-103.0793,34.4251,M,M,M,10.00,23.00,M,M,M,10.00,26.00,SCT,BKN,OVC,M,2100.00,3100.00,3900.00,M,M,KCVN 010340Z AUTO 01023G26KT 10SM SCT021 BKN031 OVC039 RMK MADISHF
CVN,2017-04-01 03:45,-103.0793,34.4251,M,M,M,20.00,23.00,M,M,M,10.00,26.00,FEW,BKN,OVC,M,2100.00,3100.00,3900.00,M,M,KCVN 010345Z AUTO 02023G26KT 10SM FEW021 BKN031 OVC039 RMK MADISHF
CVN,2017-04-01 03:50,-103.0793,34.4251,M,M,M,20.00,23.00,M,M,M,10.00,28.00,SCT,BKN,OVC,M,2300.00,2800.00,3399.00,M,M,KCVN 010350Z AUTO 02023G28KT 10SM SCT023 BKN028 OVC033 RMK MADISHF
CVN,2017-04-01 03:55,-103.0793,34.4251,50.00,42.80,76.18,10.00,23.00,0.00,29.78,M,10.00,28.00,SCT,BKN,OVC,M,2300.00,3000.00,3400.00,M,M,KCVN 010355Z AUTO 01023G28KT 10SM SCT023 BKN030 OVC034 10/06 A2978 RMK AO1
CVN,2017-04-01 04:00,-103.0793,34.4251,M,M,M,20.00,25.00,M,M,M,10.00,29.00,BKN,BKN,OVC,M,2300.00,2900.00,3399.00,M,M,KCVN 010400Z AUTO 02025G29KT 10SM BKN023 BKN029 OVC033 RMK MADISHF
CVN,2017-04-01 04:15,-103.0793,34.4251,48.20,42.80,81.47,20.00,23.00,0.00,29.79,M,10.00,28.00,BKN,OVC,M,M,2300.00,2900.00,M,M,M,KCVN 010415Z AUTO 02023G28KT 10SM BKN023 OVC029 09/06 A2979 RMK AO1
CVN,2017-04-01 04:20,-103.0793,34.4251,M,M,M,20.00,23.00,M,M,M,10.00,28.00,FEW,BKN,BKN,M,900.00,2300.00,2900.00,M,M,KCVN 010420Z AUTO 02023G28KT 10SM FEW009 BKN023 BKN029 RMK MADISHF
CVN,2017-04-01 04:30,-103.0793,34.4251,M,M,M,30.00,20.00,M,M,M,10.00,29.00,SCT,BKN,BKN,M,700.00,2300.00,2900.00,M,M,KCVN 010430Z AUTO 03020G29KT 10SM SCT007 BKN023 BKN029 RMK MADISHF
CVN,2017-04-01 04:35,-103.0793,34.4251,46.40,41.00,81.34,20.00,23.00,0.00,29.80,M,10.00,29.00,SCT,BKN,BKN,M,700.00,2300.00,2900.00,M,M,KCVN 010435Z AUTO 02023G29KT 10SM SCT007 BKN023 BKN029 08/05 A2980 RMK AO1
CVN,2017-04-01 04:45,-103.0793,34.4251,M,M,M,20.00,25.00,M,M,M,8.00,30.00,BKN,BKN,M,M,700.00,2100.00,M,M,M,KCVN 010445Z AUTO 02025G30KT 8SM BKN007 BKN021 RMK MADISHF
CVN,2017-04-01 04:55,-103.0793,34.4251,48.20,42.80,81.47,20.00,27.00,0.00,29.79,M,7.00,31.00,BKN,OVC,M,M,700.00,1700.00,M,M,M,KCVN 010455Z AUTO 02027G31KT 7SM BKN007 OVC017 09/06 A2979 RMK AO1
CVN,2017-04-01 05:00,-103.0793,34.4251,M,M,M,M,M,M,M,M,7.00,31.00,BKN,OVC,M,M,600.00,1699.00,M,M,M,KCVN 010500Z AUTO /////G31KT 7SM BKN006 OVC016 RMK MADISHF
CVN,2017-04-01 05:10,-103.0793,34.4251,M,M,M,30.00,23.00,M,M,M,7.00,26.00,BKN,OVC,M,M,499.00,1699.00,M,M,M,KCVN 010510Z AUTO 03023G26KT 7SM BKN004 OVC016 RMK MADISHF
CVN,2017-04-01 05:15,-103.0793,34.4251,46.40,41.00,81.34,30.00,22.00,0.00,29.80,M,6.00,27.00,BKN,OVC,M,M,500.00,1500.00,M,M,M,KCVN 010515Z AUTO 03022G27KT 6SM BKN005 OVC015 08/05 A2980 RMK AO1
CVN,2017-04-01 05:25,-103.0793,34.4251,M,M,M,30.00,23.00,M,M,M,6.00,28.00,OVC,M,M,M,499.00,M,M,M,M,KCVN 010525Z AUTO 03023G28KT 6SM OVC004 RMK MADISHF
CVN,2017-04-01 05:30,-103.0793,34.4251,M,M,M,30.00,21.00,M,M,M,5.00,26.00,OVC,M,M,M,499.00,M,M,M,M,KCVN 010530Z AUTO 03021G26KT 5SM OVC004 RMK MADISHF
CVN,2017-04-01 05:35,-103.0793,34.4251,44.60,39.20,81.20,30.00,24.00,0.00,29.81,M,5.00,31.00,OVC,M,M,M,500.00,M,M,M,M,KCVN 010535Z AUTO 03024G31KT 5SM OVC005 07/04 A2981 RMK AO1
CVN,2017-04-01 05:40,-103.0793,34.4251,M,M,M,30.00,16.00,M,M,M,5.00,31.00,OVC,M,M,M,400.00,M,M,M,M,KCVN 010540Z AUTO 03016G31KT 5SM OVC004 RMK MADISHF
CVN,2017-04-01 05:50,-103.0793,34.4251,M,M,M,M,M,M,M,M,5.00,27.00,OVC,M,M,M,400.00,M,M,M,M,KCVN 010550Z AUTO /////G27KT 5SM OVC004 RMK MADISHF
CVN,2017-04-01 05:55,-103.0793,34.4251,44.60,41.00,87.09,20.00,18.00,0.00,29.84,M,5.00,27.00,OVC,M,M,M,400.00,M,M,M,M,KCVN 010555Z AUTO 02018G27KT 5SM OVC004 07/05 A2984 RMK AO1 10180 20070 52037
CVN,2017-04-01 06:00,-103.0793,34.4251,M,M,M,M,M,M,M,M,5.00,28.00,OVC,M,M,M,400.00,M,M,M,M,KCVN 010600Z AUTO /////G28KT 5SM OVC004 RMK MADISHF
CVN,2017-04-01 06:05,-103.0793,34.4251,M,M,M,30.00,21.00,M,M,M,4.00,28.00,OVC,M,M,M,400.00,M,M,M,M,KCVN 010605Z AUTO 03021G28KT 4SM OVC004 RMK MADISHF
CVN,2017-04-01 06:10,-103.0793,34.4251,M,M,M,20.00,18.00,M,M,M,3.00,26.00,OVC,M,M,M,300.00,M,M,M,M,KCVN 010610Z AUTO 02018G26KT 3SM OVC003 RMK MADISHF
CVN,2017-04-01 06:15,-103.0793,34.4251,44.60,39.20,81.20,20.00,21.00,0.00,29.83,M,3.00,26.00,OVC,M,M,M,300.00,M,M,M,M,KCVN 010615Z AUTO 02021G26KT 3SM OVC003 07/04 A2983 RMK AO1
CVN,2017-04-01 06:20,-103.0793,34.4251,M,M,M,30.00,24.00,M,M,M,2.50,30.00,OVC,M,M,M,300.00,M,M,M,M,KCVN 010620Z AUTO 03024G30KT 2 1/2SM OVC003 RMK MADISHF
CVN,2017-04-01 06:25,-103.0793,34.4251,M,M,M,30.00,23.00,M,M,M,2.50,30.00,OVC,M,M,M,300.00,M,M,M,M,KCVN 010625Z AUTO 03023G30KT 2 1/2SM OVC003 RMK MADISHF
CVN,2017-04-01 06:35,-103.0793,34.4251,44.60,39.20,81.20,50.00,25.00,0.00,29.82,M,2.00,32.00,OVC,M,M,M,300.00,M,M,M,M,KCVN 010635Z AUTO 05025G32KT 2SM OVC003 07/04 A2982 RMK AO1
CVN,2017-04-01 06:40,-103.0793,34.4251,M,M,M,40.00,22.00,M,M,M,2.00,32.00,OVC,M,M,M,300.00,M,M,M,M,KCVN 010640Z AUTO 04022G32KT 2SM OVC003 RMK MADISHF
CVN,2017-04-01 06:45,-103.0793,34.4251,M,M,M,10.00,19.00,M,M,M,2.00,32.00,OVC,M,M,M,300.00,M,M,M,M,KCVN 010645Z AUTO 01019G32KT 2SM OVC003 RMK MADISHF
CVN,2017-04-01 06:50,-103.0793,34.4251,M,M,M,360.00,17.00,M,M,M,2.00,23.00,OVC,M,M,M,200.00,M,M,M,M,KCVN 010650Z AUTO 36017G23KT 2SM OVC002 RMK MADISHF
CVN,2017-04-01 06:55,-103.0793,34.4251,44.60,41.00,87.09,10.00,18.00,0.00,29.86,M,2.00,23.00,OVC,M,M,M,300.00,M,M,M,M,KCVN 010655Z AUTO 01018G23KT 2SM OVC003 07/05 A2986 RMK AO1
CVN,2017-04-01 07:00,-103.0793,34.4251,M,M,M,30.00,23.00,M,M,M,2.00,28.00,OVC,M,M,M,300.00,M,M,M,M,KCVN 010700Z AUTO 03023G28KT 2SM OVC003 RMK MADISHF
CVN,2017-04-01 07:05,-103.0793,34.4251,M,M,M,30.00,22.00,M,M,M,2.00,28.00,OVC,M,M,M,300.00,M,M,M,M,KCVN 010705Z AUTO 03022G28KT 2SM OVC003 RMK MADISHF
CVN,2017-04-01 07:10,-103.0793,34.4251,M,M,M,30.00,19.00,M,M,M,2.00,28.00,OVC,M,M,M,300.00,M,M,M,M,KCVN 010710Z AUTO 03019G28KT 2SM OVC003 RMK MADISHF
CVN,2017-04-01 07:15,-103.0793,34.4251,44.60,39.20,81.20,30.00,22.00,0.00,29.85,M,2.00,28.00,OVC,M,M,M,300.00,M,M,M,M,KCVN 010715Z AUTO 03022G28KT 2SM OVC003 07/04 A2985 RMK AO1
CVN,2017-04-01 07:20,-103.0793,34.4251,M,M,M,30.00,21.00,M,M,M,2.50,26.00,OVC,M,M,M,300.00,M,M,M,M,KCVN 010720Z AUTO 03021G26KT 2 1/2SM OVC003 RMK MADISHF
CVN,2017-04-01 07:25,-103.0793,34.4251,M,M,M,20.00,21.00,M,M,M,2.00,26.00,OVC,M,M,M,200.00,M,M,M,M,KCVN 010725Z AUTO 02021G26KT 2SM OVC002 RMK MADISHF
CVN,2017-04-01 07:30,-103.0793,34.4251,M,M,M,20.00,22.00,M,M,M,2.00,27.00,OVC,M,M,M,200.00,M,M,M,M,KCVN 010730Z AUTO 02022G27KT 2SM OVC002 RMK MADISHF
CVN,2017-04-01 07:35,-103.0793,34.4251,44.60,39.20,81.20,30.00,23.00,0.00,29.85,M,2.00,28.00,OVC,M,M,M,300.00,M,M,M,M,KCVN 010735Z AUTO 03023G28KT 2SM OVC003 07/04 A2985 RMK AO1
CVN,2017-04-01 07:40,-103.0793,34.4251,M,M,M,30.00,23.00,M,M,M,2.50,28.00,OVC,M,M,M,300.00,M,M,M,M,KCVN 010740Z AUTO 03023G28KT 2 1/2SM OVC003 RMK MADISHF
CVN,2017-04-01 07:45,-103.0793,34.4251,M,M,M,30.00,17.00,M,M,M,2.50,M,OVC,M,M,M,300.00,M,M,M,M,KCVN 010745Z AUTO 03017KT 2 1/2SM OVC003 RMK MADISHF
CVN,2017-04-01 07:50,-103.0793,34.4251,M,M,M,20.00,18.00,M,M,M,2.50,22.00,OVC,M,M,M,300.00,M,M,M,M,KCVN 010750Z AUTO 02018G22KT 2 1/2SM OVC003 RMK MADISHF
CVN,2017-04-01 07:55,-103.0793,34.4251,44.60,39.20,81.20,30.00,21.00,0.00,29.85,M,2.50,24.00,OVC,M,M,M,300.00,M,M,M,M,KCVN 010755Z AUTO 03021G24KT 2 1/2SM OVC003 07/04 A2985 RMK AO1
CVN,2017-04-01 08:00,-103.0793,34.4251,M,M,M,30.00,19.00,M,M,M,2.50,24.00,OVC,M,M,M,300.00,M,M,M,M,KCVN 010800Z AUTO 03019G24KT 2 1/2SM OVC003 RMK MADISHF
CVN,2017-04-01 08:10,-103.0793,34.4251,M,M,M,30.00,20.00,M,M,M,2.00,25.00,OVC,M,M,M,300.00,M,M,M,M,KCVN 010810Z AUTO 03020G25KT 2SM OVC003 RMK MADISHF
CVN,2017-04-01 08:15,-103.0793,34.4251,44.60,39.20,81.20,30.00,19.00,0.00,29.84,M,2.00,25.00,OVC,M,M,M,200.00,M,M,M,M,KCVN 010815Z AUTO 03019G25KT 2SM OVC002 07/04 A2984 RMK AO1
CVN,2017-04-01 08:25,-103.0793,34.4251,M,M,M,40.00,19.00,M,M,M,1.75,25.00,OVC,M,M,M,200.00,M,M,M,M,KCVN 010825Z AUTO 04019G25KT 2SM OVC002 RMK MADISHF
CVN,2017-04-01 08:30,-103.0793,34.4251,M,M,M,20.00,16.00,M,M,M,2.00,25.00,OVC,M,M,M,300.00,M,M,M,M,KCVN 010830Z AUTO 02016G25KT 2SM OVC003 RMK MADISHF
CVN,2017-04-01 08:35,-103.0793,34.4251,44.60,41.00,87.09,10.00,18.00,0.00,29.88,M,2.00,M,OVC,M,M,M,300.00,M,M,M,M,KCVN 010835Z AUTO 01018KT 2SM OVC003 07/05 A2988 RMK AO1
CVN,2017-04-01 08:40,-103.0793,34.4251,M,M,M,20.00,17.00,M,M,M,2.00,22.00,OVC,M,M,M,300.00,M,M,M,M,KCVN 010840Z AUTO 02017G22KT 2SM OVC003 RMK MADISHF
CVN,2017-04-01 08:45,-103.0793,34.4251,M,M,M,20.00,18.00,M,M,M,2.00,22.00,OVC,M,M,M,300.00,M,M,M,M,KCVN 010845Z AUTO 02018G22KT 2SM OVC003 RMK MADISHF
CVN,2017-04-01 08:50,-103.0793,34.4251,M,M,M,20.00,21.00,M,M,M,2.50,24.00,OVC,M,M,M,300.00,M,M,M,M,KCVN 010850Z AUTO 02021G24KT 2 1/2SM OVC003 RMK MADISHF
CVN,2017-04-01 08:55,-103.0793,34.4251,44.60,39.20,81.20,30.00,21.00,0.00,29.87,M,2.50,26.00,OVC,M,M,M,300.00,M,M,M,M,KCVN 010855Z AUTO 03021G26KT 2 1/2SM OVC003 07/04 A2987 RMK AO1 52010
CVN,2017-04-01 09:00,-103.0793,34.4251,M,M,M,30.00,20.00,M,M,M,3.00,27.00,OVC,M,M,M,300.00,M,M,M,M,KCVN 010900Z AUTO 03020G27KT 3SM OVC003 RMK MADISHF
CVN,2017-04-01 09:05,-103.0793,34.4251,M,M,M,30.00,22.00,M,M,M,3.00,27.00,OVC,M,M,M,300.00,M,M,M,M,KCVN 010905Z AUTO 03022G27KT 3SM OVC003 RMK MADISHF
CVN,2017-04-01 09:10,-103.0793,34.4251,M,M,M,30.00,21.00,M,M,M,3.00,27.00,OVC,M,M,M,300.00,M,M,M,M,KCVN 010910Z AUTO 03021G27KT 3SM OVC003 RMK MADISHF
CVN,2017-04-01 09:15,-103.0793,34.4251,42.80,39.20,86.99,30.00,21.00,0.00,29.88,M,3.00,27.00,OVC,M,M,M,300.00,M,M,M,M,KCVN 010915Z AUTO 03021G27KT 3SM OVC003 06/04 A2988 RMK AO1
CVN,2017-04-01 09:20,-103.0793,34.4251,M,M,M,30.00,20.00,M,M,M,3.00,27.00,OVC,M,M,M,400.00,M,M,M,M,KCVN 010920Z AUTO 03020G27KT 3SM OVC004 RMK MADISHF
CVN,2017-04-01 09:25,-103.0793,34.4251,M,M,M,20.00,21.00,M,M,M,3.00,25.00,OVC,M,M,M,400.00,M,M,M,M,KCVN 010925Z AUTO 02021G25KT 3SM OVC004 RMK MADISHF
CVN,2017-04-01 09:30,-103.0793,34.4251,M,M,M,20.00,19.00,M,M,M,3.00,25.00,OVC,M,M,M,400.00,M,M,M,M,KCVN 010930Z AUTO 02019G25KT 3SM OVC004 RMK MADISHF
CVN,2017-04-01 09:35,-103.0793,34.4251,42.80,39.20,86.99,20.00,19.00,0.00,29.89,M,3.00,24.00,OVC,M,M,M,400.00,M,M,M,M,KCVN 010935Z AUTO 02019G24KT 3SM OVC004 06/04 A2989 RMK AO1
CVN,2017-04-01 09:40,-103.0793,34.4251,M,M,M,20.00,20.00,M,M,M,3.00,24.00,OVC,M,M,M,400.00,M,M,M,M,KCVN 010940Z AUTO 02020G24KT 3SM OVC004 RMK MADISHF
CVN,2017-04-01 09:45,-103.0793,34.4251,M,M,M,20.00,20.00,M,M,M,3.00,23.00,OVC,M,M,M,400.00,M,M,M,M,KCVN 010945Z AUTO 02020G23KT 3SM OVC004 RMK MADISHF
CVN,2017-04-01 09:50,-103.0793,34.4251,M,M,M,20.00,21.00,M,M,M,3.00,M,OVC,M,M,M,400.00,M,M,M,M,KCVN 010950Z AUTO 02021KT 3SM OVC004 RMK MADISHF
CVN,2017-04-01 09:55,-103.0793,34.4251,42.80,39.20,86.99,20.00,23.00,0.00,29.88,M,3.00,26.00,OVC,M,M,M,400.00,M,M,M,M,KCVN 010955Z AUTO 02023G26KT 3SM OVC004 06/04 A2988 RMK AO1
CVN,2017-04-01 10:00,-103.0793,34.4251,M,M,M,30.00,24.00,M,M,M,2.50,30.00,OVC,M,M,M,400.00,M,M,M,M,KCVN 011000Z AUTO 03024G30KT 2 1/2SM OVC004 RMK MADISHF
CVN,2017-04-01 10:05,-103.0793,34.4251,M,M,M,30.00,20.00,M,M,M,2.50,30.00,OVC,M,M,M,400.00,M,M,M,M,KCVN 011005Z AUTO 03020G30KT 2 1/2SM OVC004 RMK MADISHF
CVN,2017-04-01 10:15,-103.0793,34.4251,42.80,39.20,86.99,20.00,24.00,0.00,29.88,M,3.00,29.00,OVC,M,M,M,400.00,M,M,M,M,KCVN 011015Z AUTO 02024G29KT 3SM OVC004 06/04 A2988 RMK AO1
CVN,2017-04-01 10:20,-103.0793,34.4251,M,M,M,M,M,M,M,M,3.00,29.00,OVC,M,M,M,499.00,M,M,M,M,KCVN 011020Z AUTO /////G29KT 3SM OVC004 RMK MADISHF
CVN,2017-04-01 10:25,-103.0793,34.4251,M,M,M,M,M,M,M,M,3.00,31.00,OVC,M,M,M,499.00,M,M,M,M,KCVN 011025Z AUTO /////G31KT 3SM OVC004 RMK MADISHF
CVN,2017-04-01 10:30,-103.0793,34.4251,M,M,M,30.00,25.00,M,M,M,3.00,31.00,OVC,M,M,M,499.00,M,M,M,M,KCVN 011030Z AUTO 03025G31KT 3SM OVC004 RMK MADISHF
CVN,2017-04-01 10:35,-103.0793,34.4251,41.00,37.40,86.89,30.00,21.00,0.00,29.88,M,3.00,31.00,OVC,M,M,M,500.00,M,M,M,M,KCVN 011035Z AUTO 03021G31KT 3SM OVC005 05/03 A2988 RMK AO1
CVN,2017-04-01 10:40,-103.0793,34.4251,M,M,M,30.00,24.00,M,M,M,3.00,31.00,OVC,M,M,M,499.00,M,M,M,M,KCVN 011040Z AUTO 03024G31KT 3SM OVC004 RMK MADISHF
CVN,2017-04-01 10:45,-103.0793,34.4251,M,M,M,30.00,22.00,M,M,M,4.00,31.00,OVC,M,M,M,499.00,M,M,M,M,KCVN 011045Z AUTO 03022G31KT 4SM OVC004 RMK MADISHF
CVN,2017-04-01 10:50,-103.0793,34.4251,M,M,M,40.00,23.00,M,M,M,4.00,31.00,OVC,M,M,M,499.00,M,M,M,M,KCVN 011050Z AUTO 04023G31KT 4SM OVC004 RMK MADISHF
CVN,2017-04-01 10:55,-103.0793,34.4251,41.00,37.40,86.89,30.00,20.00,0.00,29.87,M,5.00,28.00,OVC,M,M,M,500.00,M,M,M,M,KCVN 011055Z AUTO 03020G28KT 5SM OVC005 05/03 A2987 RMK AO1
CVN,2017-04-01 11:00,-103.0793,34.4251,M,M,M,40.00,19.00,M,M,M,4.00,28.00,OVC,M,M,M,400.00,M,M,M,M,KCVN 011100Z AUTO 04019G28KT 4SM OVC004 RMK MADISHF
CVN,2017-04-01 11:10,-103.0793,34.4251,M,M,M,40.00,21.00,M,M,M,5.00,31.00,OVC,M,M,M,499.00,M,M,M,M,KCVN 011110Z AUTO 04021G31KT 5SM OVC004 RMK MADISHF
CVN,2017-04-01 11:15,-103.0793,34.4251,39.20,35.60,86.79,30.00,25.00,0.00,29.88,M,5.00,31.00,OVC,M,M,M,500.00,M,M,M,M,KCVN 011115Z AUTO 03025G31KT 5SM OVC005 04/02 A2988 RMK AO1
CVN,2017-04-01 11:20,-103.0793,34.4251,M,M,M,40.00,21.00,M,M,M,5.00,M,OVC,M,M,M,499.00,M,M,M,M,KCVN 011120Z AUTO 04021KT 5SM OVC004 RMK MADISHF
CVN,2017-04-01 11:25,-103.0793,34.4251,M,M,M,40.00,24.00,M,M,M,5.00,29.00,OVC,M,M,M,499.00,M,M,M,M,KCVN 011125Z AUTO 04024G29KT 5SM OVC004 RMK MADISHF
CVN,2017-04-01 11:30,-103.0793,34.4251,M,M,M,40.00,22.00,M,M,M,5.00,29.00,OVC,M,M,M,499.00,M,M,M,M,KCVN 011130Z AUTO 04022G29KT 5SM OVC004 RMK MADISHF
CVN,2017-04-01 11:35,-103.0793,34.4251,39.20,35.60,86.79,40.00,23.00,0.00,29.88,M,6.00,29.00,OVC,M,M,M,500.00,M,M,M,M,KCVN 011135Z AUTO 04023G29KT 6SM OVC005 04/02 A2988 RMK AO1
CVN,2017-04-01 11:40,-103.0793,34.4251,M,M,M,40.00,22.00,M,M,M,7.00,33.00,OVC,M,M,M,499.00,M,M,M,M,KCVN 011140Z AUTO 04022G33KT 7SM OVC004 RMK MADISHF
CVN,2017-04-01 11:45,-103.0793,34.4251,M,M,M,40.00,25.00,M,M,M,9.00,33.00,OVC,M,M,M,499.00,M,M,M,M,KCVN 011145Z AUTO 04025G33KT 9SM OVC004 RMK MADISHF
CVN,2017-04-01 11:50,-103.0793,34.4251,M,M,M,40.00,23.00,M,M,M,10.00,30.00,BKN,OVC,M,M,499.00,1300.00,M,M,M,KCVN 011150Z AUTO 04023G30KT 10SM BKN004 OVC013 RMK MADISHF
CVN,2017-04-01 11:55,-103.0793,34.4251,39.20,35.60,86.79,30.00,27.00,0.00,29.89,M,10.00,31.00,BKN,OVC,M,M,500.00,1300.00,M,M,M,KCVN 011155Z AUTO 03027G31KT 10SM BKN005 OVC013 04/02 A2989 RMK AO1 10070 20040 52007
CVN,2017-04-01 12:05,-103.0793,34.4251,M,M,M,30.00,19.00,M,M,M,10.00,27.00,OVC,M,M,M,600.00,M,M,M,M,KCVN 011205Z AUTO 03019G27KT 10SM OVC006 RMK MADISHF
CVN,2017-04-01 12:10,-103.0793,34.4251,M,M,M,30.00,21.00,M,M,M,10.00,26.00,OVC,M,M,M,600.00,M,M,M,M,KCVN 011210Z AUTO 03021G26KT 10SM OVC006 RMK MADISHF
CVN,2017-04-01 12:15,-103.0793,34.4251,39.20,35.60,86.79,30.00,22.00,0.00,29.93,M,10.00,25.00,OVC,M,M,M,600.00,M,M,M,M,KCVN 011215Z AUTO 03022G25KT 10SM OVC006 04/02 A2993 RMK AO1
CVN,2017-04-01 12:20,-103.0793,34.4251,M,M,M,30.00,19.00,M,M,M,10.00,25.00,OVC,M,M,M,600.00,M,M,M,M,KCVN 011220Z AUTO 03019G25KT 10SM OVC006 RMK MADISHF
CVN,2017-04-01 12:25,-103.0793,34.4251,M,M,M,30.00,20.00,M,M,M,10.00,25.00,OVC,M,M,M,600.00,M,M,M,M,KCVN 011225Z AUTO 03020G25KT 10SM OVC006 RMK MADISHF
CVN,2017-04-01 12:30,-103.0793,34.4251,M,M,M,30.00,22.00,M,M,M,9.00,25.00,OVC,M,M,M,600.00,M,M,M,M,KCVN 011230Z AUTO 03022G25KT 9SM OVC006 RMK MADISHF
CVN,2017-04-01 12:35,-103.0793,34.4251,39.20,35.60,86.79,30.00,22.00,0.00,29.93,M,8.00,27.00,OVC,M,M,M,600.00,M,M,M,M,KCVN 011235Z AUTO 03022G27KT 8SM OVC006 04/02 A2993 RMK AO1
CVN,2017-04-01 12:40,-103.0793,34.4251,M,M,M,30.00,20.00,M,M,M,9.00,27.00,OVC,M,M,M,600.00,M,M,M,M,KCVN 011240Z AUTO 03020G27KT 9SM OVC006 RMK MADISHF
CVN,2017-04-01 12:45,-103.0793,34.4251,M,M,M,30.00,20.00,M,M,M,8.00,28.00,OVC,M,M,M,600.00,M,M,M,M,KCVN 011245Z AUTO 03020G28KT 8SM OVC006 RMK MADISHF
CVN,2017-04-01 12:50,-103.0793,34.4251,M,M,M,30.00,21.00,M,M,M,7.00,28.00,OVC,M,M,M,600.00,M,M,M,M,KCVN 011250Z AUTO 03021G28KT 7SM OVC006 RMK MADISHF
CVN,2017-04-01 12:55,-103.0793,34.4251,39.20,35.60,86.79,20.00,18.00,0.00,29.94,M,6.00,26.00,OVC,M,M,M,600.00,M,M,M,M,KCVN 011255Z AUTO 02018G26KT 6SM OVC006 04/02 A2994 RMK AO1
CVN,2017-04-01 13:00,-103.0793,34.4251,M,M,M,20.00,19.00,M,M,M,5.00,26.00,OVC,M,M,M,600.00,M,M,M,M,KCVN 011300Z AUTO 02019G26KT 5SM OVC006 RMK MADISHF
CVN,2017-04-01 13:05,-103.0793,34.4251,M,M,M,30.00,20.00,M,M,M,4.00,25.00,OVC,M,M,M,600.00,M,M,M,M,KCVN 011305Z AUTO 03020G25KT 4SM OVC006 RMK MADISHF
CVN,2017-04-01 13:10,-103.0793,34.4251,M,M,M,30.00,18.00,M,M,M,4.00,25.00,OVC,M,M,M,600.00,M,M,M,M,KCVN 011310Z AUTO 03018G25KT 4SM OVC006 RMK MADISHF
CVN,2017-04-01 13:15,-103.0793,34.4251,39.20,35.60,86.79,20.00,18.00,0.00,29.96,M,4.00,24.00,OVC,M,M,M,600.00,M,M,M,M,KCVN 011315Z AUTO 02018G24KT 4SM OVC006 04/02 A2996 RMK AO1
CVN,2017-04-01 13:20,-103.0793,34.4251,M,M,M,20.00,20.00,M,M,M,3.00,27.00,OVC,M,M,M,600.00,M,M,M,M,KCVN 011320Z AUTO 02020G27KT 3SM OVC006 RMK MADISHF
CVN,2017-04-01 13:25,-103.0793,34.4251,M,M,M,20.00,20.00,M,M,M,3.00,27.00,OVC,M,M,M,600.00,M,M,M,M,KCVN 011325Z AUTO 02020G27KT 3SM OVC006 RMK MADISHF
CVN,2017-04-01 13:30,-103.0793,34.4251,M,M,M,20.00,20.00,M,M,M,3.00,24.00,OVC,M,M,M,600.00,M,M,M,M,KCVN 011330Z AUTO 02020G24KT 3SM OVC006 RMK MADISHF
CVN,2017-04-01 13:35,-103.0793,34.4251,39.20,35.60,86.79,20.00,21.00,0.00,29.97,M,3.00,24.00,OVC,M,M,M,600.00,M,M,M,M,KCVN 011335Z AUTO 02021G24KT 3SM OVC006 04/02 A2997 RMK AO1
CVN,2017-04-01 13:40,-103.0793,34.4251,M,M,M,20.00,17.00,M,M,M,3.00,24.00,OVC,M,M,M,600.00,M,M,M,M,KCVN 011340Z AUTO 02017G24KT 3SM OVC006 RMK MADISHF
CVN,2017-04-01 13:45,-103.0793,34.4251,M,M,M,20.00,19.00,M,M,M,3.00,22.00,OVC,M,M,M,600.00,M,M,M,M,KCVN 011345Z AUTO 02019G22KT 3SM OVC006 RMK MADISHF
CVN,2017-04-01 13:50,-103.0793,34.4251,M,M,M,20.00,21.00,M,M,M,3.00,25.00,OVC,M,M,M,600.00,M,M,M,M,KCVN 011350Z AUTO 02021G25KT 3SM OVC006 RMK MADISHF
CVN,2017-04-01 13:55,-103.0793,34.4251,39.20,35.60,86.79,20.00,19.00,0.00,29.98,M,3.00,25.00,OVC,M,M,M,600.00,M,M,M,M,KCVN 011355Z AUTO 02019G25KT 3SM OVC006 04/02 A2998 RMK AO1
CVN,2017-04-01 14:00,-103.0793,34.4251,M,M,M,20.00,23.00,M,M,M,3.00,M,OVC,M,M,M,600.00,M,M,M,M,KCVN 011400Z AUTO 02023KT 3SM OVC006 RMK MADISHF
CVN,2017-04-01 14:05,-103.0793,34.4251,M,M,M,20.00,20.00,M,M,M,3.00,25.00,OVC,M,M,M,600.00,M,M,M,M,KCVN 011405Z AUTO 02020G25KT 3SM OVC006 RMK MADISHF
CVN,2017-04-01 14:10,-103.0793,34.4251,M,M,M,20.00,20.00,M,M,M,3.00,24.00,OVC,M,M,M,800.00,M,M,M,M,KCVN 011410Z AUTO 02020G24KT 3SM OVC008 RMK MADISHF
CVN,2017-04-01 14:15,-103.0793,34.4251,39.20,35.60,86.79,20.00,20.00,0.00,29.98,M,3.00,25.00,OVC,M,M,M,800.00,M,M,M,M,KCVN 011415Z AUTO 02020G25KT 3SM OVC008 04/02 A2998 RMK AO1
CVN,2017-04-01 14:20,-103.0793,34.4251,M,M,M,30.00,21.00,M,M,M,3.00,25.00,OVC,M,M,M,800.00,M,M,M,M,KCVN 011420Z AUTO 03021G25KT 3SM OVC008 RMK MADISHF
CVN,2017-04-01 14:25,-103.0793,34.4251,M,M,M,20.00,15.00,M,M,M,4.00,25.00,OVC,M,M,M,800.00,M,M,M,M,KCVN 011425Z AUTO 02015G25KT 4SM OVC008 RMK MADISHF
CVN,2017-04-01 14:30,-103.0793,34.4251,M,M,M,20.00,21.00,M,M,M,3.00,M,BKN,OVC,M,M,800.00,1100.00,M,M,M,KCVN 011430Z AUTO 02021KT 3SM BKN008 OVC011 RMK MADISHF
CVN,2017-04-01 14:35,-103.0793,34.4251,39.20,35.60,86.79,20.00,18.00,0.00,29.99,M,3.00,24.00,OVC,M,M,M,800.00,M,M,M,M,KCVN 011435Z AUTO 02018G24KT 3SM OVC008 04/02 A2999 RMK AO1
CVN,2017-04-01 14:40,-103.0793,34.4251,M,M,M,20.00,17.00,M,M,M,3.00,24.00,BKN,OVC,M,M,800.00,1200.00,M,M,M,KCVN 011440Z AUTO 02017G24KT 3SM BKN008 OVC012 RMK MADISHF
CVN,2017-04-01 14:45,-103.0793,34.4251,M,M,M,20.00,18.00,M,M,M,4.00,26.00,BKN,OVC,M,M,800.00,1200.00,M,M,M,KCVN 011445Z AUTO 02018G26KT 4SM BKN008 OVC012 RMK MADISHF
CVN,2017-04-01 14:50,-103.0793,34.4251,M,M,M,20.00,21.00,M,M,M,4.00,26.00,BKN,OVC,M,M,600.00,1200.00,M,M,M,KCVN 011450Z AUTO 02021G26KT 4SM BKN006 OVC012 RMK MADISHF
CVN,2017-04-01 14:55,-103.0793,34.4251,39.20,35.60,86.79,20.00,19.00,0.00,29.99,M,4.00,26.00,BKN,OVC,M,M,600.00,1200.00,M,M,M,KCVN 011455Z AUTO 02019G26KT 4SM BKN006 OVC012 04/02 A2999 RMK AO1 52034
CVN,2017-04-01 15:00,-103.0793,34.4251,M,M,M,20.00,20.00,M,M,M,4.00,M,BKN,OVC,M,M,600.00,1200.00,M,M,M,KCVN 011500Z AUTO 02020KT 4SM BKN006 OVC012 RMK MADISHF
CVN,2017-04-01 15:05,-103.0793,34.4251,M,M,M,30.00,20.00,M,M,M,4.00,M,BKN,OVC,M,M,600.00,1200.00,M,M,M,KCVN 011505Z AUTO 03020KT 4SM BKN006 OVC012 RMK MADISHF
CVN,2017-04-01 15:10,-103.0793,34.4251,M,M,M,30.00,21.00,M,M,M,5.00,M,BKN,OVC,M,M,600.00,1400.00,M,M,M,KCVN 011510Z AUTO 03021KT 5SM BKN006 OVC014 RMK MADISHF
CVN,2017-04-01 15:15,-103.0793,34.4251,39.20,35.60,86.79,30.00,21.00,0.00,30.00,M,5.00,26.00,BKN,OVC,M,M,600.00,1400.00,M,M,M,KCVN 011515Z AUTO 03021G26KT 5SM BKN006 OVC014 04/02 A3000 RMK AO1
CVN,2017-04-01 15:20,-103.0793,34.4251,M,M,M,30.00,18.00,M,M,M,5.00,26.00,BKN,OVC,M,M,600.00,1400.00,M,M,M,KCVN 011520Z AUTO 03018G26KT 5SM BKN006 OVC014 RMK MADISHF
CVN,2017-04-01 15:25,-103.0793,34.4251,M,M,M,30.00,22.00,M,M,M,6.00,27.00,BKN,OVC,M,M,600.00,1400.00,M,M,M,KCVN 011525Z AUTO 03022G27KT 6SM BKN006 OVC014 RMK MADISHF
CVN,2017-04-01 15:30,-103.0793,34.4251,M,M,M,30.00,24.00,M,M,M,7.00,27.00,SCT,OVC,M,M,800.00,1400.00,M,M,M,KCVN 011530Z AUTO 03024G27KT 7SM SCT008 OVC014 RMK MADISHF
CVN,2017-04-01 15:35,-103.0793,34.4251,39.20,35.60,86.79,30.00,19.00,0.00,30.00,M,8.00,26.00,SCT,OVC,M,M,800.00,1600.00,M,M,M,KCVN 011535Z AUTO 03019G26KT 8SM SCT008 OVC016 04/02 A3000 RMK AO1
CVN,2017-04-01 15:40,-103.0793,34.4251,M,M,M,30.00,19.00,M,M,M,9.00,24.00,SCT,OVC,M,M,800.00,1600.00,M,M,M,KCVN 011540Z AUTO 03019G24KT 9SM SCT008 OVC016 RMK MADISHF
CVN,2017-04-01 15:45,-103.0793,34.4251,M,M,M,20.00,17.00,M,M,M,7.00,24.00,SCT,OVC,M,M,800.00,1600.00,M,M,M,KCVN 011545Z AUTO 02017G24KT 7SM SCT008 OVC016 RMK MADISHF
CVN,2017-04-01 15:50,-103.0793,34.4251,M,M,M,20.00,21.00,M,M,M,5.00,24.00,BKN,OVC,M,M,600.00,1600.00,M,M,M,KCVN 011550Z AUTO 02021G24KT 5SM BKN006 OVC016 RMK MADISHF
CVN,2017-04-01 15:55,-103.0793,34.4251,39.20,35.60,86.79,20.00,19.00,0.00,30.01,M,5.00,24.00,BKN,OVC,M,M,600.00,1600.00,M,M,M,KCVN 011555Z AUTO 02019G24KT 5SM BKN006 OVC016 04/02 A3001 RMK AO1
CVN,2017-04-01 16:00,-103.0793,34.4251,M,M,M,20.00,18.00,M,M,M,7.00,24.00,BKN,BKN,OVC,M,600.00,1100.00,1800.00,M,M,KCVN 011600Z AUTO 02018G24KT 7SM BKN006 BKN011 OVC018 RMK MADISHF
CVN,2017-04-01 16:05,-103.0793,34.4251,M,M,M,20.00,21.00,M,M,M,8.00,26.00,OVC,M,M,M,800.00,M,M,M,M,KCVN 011605Z AUTO 02021G26KT 8SM OVC008 RMK MADISHF
CVN,2017-04-01 16:10,-103.0793,34.4251,M,M,M,20.00,21.00,M,M,M,9.00,26.00,OVC,M,M,M,800.00,M,M,M,M,KCVN 011610Z AUTO 02021G26KT 9SM OVC008 RMK MADISHF
CVN,2017-04-01 16:15,-103.0793,34.4251,39.20,37.40,93.19,20.00,22.00,0.00,30.01,M,9.00,26.00,OVC,M,M,M,800.00,M,M,M,M,KCVN 011615Z AUTO 02022G26KT 9SM OVC008 04/03 A3001 RMK AO1
CVN,2017-04-01 16:20,-103.0793,34.4251,M,M,M,20.00,21.00,M,M,M,10.00,24.00,OVC,M,M,M,800.00,M,M,M,M,KCVN 011620Z AUTO 02021G24KT 10SM OVC008 RMK MADISHF
CVN,2017-04-01 16:25,-103.0793,34.4251,M,M,M,30.00,20.00,M,M,M,10.00,25.00,OVC,M,M,M,800.00,M,M,M,M,KCVN 011625Z AUTO 03020G25KT 10SM OVC008 RMK MADISHF
CVN,2017-04-01 16:30,-103.0793,34.4251,M,M,M,20.00,20.00,M,M,M,10.00,25.00,OVC,M,M,M,800.00,M,M,M,M,KCVN 011630Z AUTO 02020G25KT 10SM OVC008 RMK MADISHF
CVN,2017-04-01 16:35,-103.0793,34.4251,41.00,37.40,86.89,20.00,22.00,0.00,30.01,M,10.00,25.00,OVC,M,M,M,800.00,M,M,M,M,KCVN 011635Z AUTO 02022G25KT 10SM OVC008 05/03 A3001 RMK AO1
CVN,2017-04-01 16:40,-103.0793,34.4251,M,M,M,20.00,21.00,M,M,M,9.00,24.00,OVC,M,M,M,800.00,M,M,M,M,KCVN 011640Z AUTO 02021G24KT 9SM OVC008 RMK MADISHF
CVN,2017-04-01 16:45,-103.0793,34.4251,M,M,M,20.00,18.00,M,M,M,9.00,23.00,OVC,M,M,M,800.00,M,M,M,M,KCVN 011645Z AUTO 02018G23KT 9SM OVC008 RMK MADISHF
CVN,2017-04-01 16:50,-103.0793,34.4251,M,M,M,20.00,20.00,M,M,M,9.00,23.00,OVC,M,M,M,800.00,M,M,M,M,KCVN 011650Z AUTO 02020G23KT 9SM OVC008 RMK MADISHF
CVN,2017-04-01 16:55,-103.0793,34.4251,41.00,37.40,86.89,30.00,18.00,0.00,30.01,M,9.00,M,OVC,M,M,M,800.00,M,M,M,M,KCVN 011655Z AUTO 03018KT 9SM OVC008 05/03 A3001 RMK AO1
CVN,2017-04-01 17:00,-103.0793,34.4251,M,M,M,20.00,20.00,M,M,M,8.00,M,OVC,M,M,M,800.00,M,M,M,M,KCVN 011700Z AUTO 02020KT 8SM OVC008 RMK MADISHF
CVN,2017-04-01 17:05,-103.0793,34.4251,M,M,M,20.00,22.00,M,M,M,10.00,25.00,OVC,M,M,M,800.00,M,M,M,M,KCVN 011705Z AUTO 02022G25KT 10SM OVC008 RMK MADISHF
CVN,2017-04-01 17:10,-103.0793,34.4251,M,M,M,20.00,21.00,M,M,M,10.00,25.00,OVC,M,M,M,800.00,M,M,M,M,KCVN 011710Z AUTO 02021G25KT 10SM OVC008 RMK MADISHF
CVN,2017-04-01 17:15,-103.0793,34.4251,41.00,37.40,86.89,20.00,20.00,0.00,30.01,M,10.00,27.00,OVC,M,M,M,800.00,M,M,M,M,KCVN 011715Z AUTO 02020G27KT 10SM OVC008 05/03 A3001 RMK AO1
CVN,2017-04-01 17:20,-103.0793,34.4251,M,M,M,30.00,22.00,M,M,M,10.00,27.00,OVC,M,M,M,800.00,M,M,M,M,KCVN 011720Z AUTO 03022G27KT 10SM OVC008 RMK MADISHF
CVN,2017-04-01 17:25,-103.0793,34.4251,M,M,M,20.00,23.00,M,M,M,9.00,27.00,OVC,M,M,M,800.00,M,M,M,M,KCVN 011725Z AUTO 02023G27KT 9SM OVC008 RMK MADISHF
CVN,2017-04-01 17:30,-103.0793,34.4251,M,M,M,20.00,22.00,M,M,M,9.00,26.00,OVC,M,M,M,800.00,M,M,M,M,KCVN 011730Z AUTO 02022G26KT 9SM OVC008 RMK MADISHF
CVN,2017-04-01 17:35,-103.0793,34.4251,42.80,37.40,81.07,30.00,23.00,0.00,30.01,M,10.00,27.00,BKN,OVC,M,M,800.00,1800.00,M,M,M,KCVN 011735Z AUTO 03023G27KT 10SM BKN008 OVC018 06/03 A3001 RMK AO1
CVN,2017-04-01 17:40,-103.0793,34.4251,M,M,M,20.00,20.00,M,M,M,10.00,27.00,BKN,OVC,M,M,800.00,1800.00,M,M,M,KCVN 011740Z AUTO 02020G27KT 10SM BKN008 OVC018 RMK MADISHF
CVN,2017-04-01 17:45,-103.0793,34.4251,M,M,M,20.00,22.00,M,M,M,8.00,25.00,OVC,M,M,M,800.00,M,M,M,M,KCVN 011745Z AUTO 02022G25KT 8SM OVC008 RMK MADISHF
CVN,2017-04-01 17:50,-103.0793,34.4251,M,M,M,30.00,19.00,M,M,M,8.00,25.00,OVC,M,M,M,800.00,M,M,M,M,KCVN 011750Z AUTO 03019G25KT 8SM OVC008 RMK MADISHF
CVN,2017-04-01 17:55,-103.0793,34.4251,42.80,37.40,81.07,30.00,21.00,0.00,30.00,M,10.00,25.00,OVC,M,M,M,800.00,M,M,M,M,KCVN 011755Z AUTO 03021G25KT 10SM OVC008 06/03 A3000 RMK AO1 10060 20040 52003
CVN,2017-04-01 18:00,-103.0793,34.4251,M,M,M,20.00,23.00,M,M,M,10.00,M,OVC,M,M,M,800.00,M,M,M,M,KCVN 011800Z AUTO 02023KT 10SM OVC008 RMK MADISHF
CVN,2017-04-01 18:05,-103.0793,34.4251,M,M,M,20.00,22.00,M,M,M,10.00,26.00,OVC,M,M,M,800.00,M,M,M,M,KCVN 011805Z AUTO 02022G26KT 10SM OVC008 RMK MADISHF
CVN,2017-04-01 18:10,-103.0793,34.4251,M,M,M,30.00,22.00,M,M,M,10.00,26.00,OVC,M,M,M,800.00,M,M,M,M,KCVN 011810Z AUTO 03022G26KT 10SM OVC008 RMK MADISHF
CVN,2017-04-01 18:15,-103.0793,34.4251,42.80,37.40,81.07,30.00,20.00,0.00,30.00,M,10.00,M,OVC,M,M,M,800.00,M,M,M,M,KCVN 011815Z AUTO 03020KT 10SM OVC008 06/03 A3000 RMK AO1
CVN,2017-04-01 18:20,-103.0793,34.4251,M,M,M,20.00,21.00,M,M,M,10.00,24.00,BKN,OVC,M,M,800.00,2300.00,M,M,M,KCVN 011820Z AUTO 02021G24KT 10SM BKN008 OVC023 RMK MADISHF
CVN,2017-04-01 18:25,-103.0793,34.4251,M,M,M,30.00,21.00,M,M,M,10.00,24.00,OVC,M,M,M,800.00,M,M,M,M,KCVN 011825Z AUTO 03021G24KT 10SM OVC008 RMK MADISHF
CVN,2017-04-01 18:30,-103.0793,34.4251,M,M,M,20.00,17.00,M,M,M,10.00,24.00,OVC,M,M,M,800.00,M,M,M,M,KCVN 011830Z AUTO 02017G24KT 10SM OVC008 RMK MADISHF
CVN,2017-04-01 18:35,-103.0793,34.4251,42.80,37.40,81.07,30.00,18.00,0.00,30.01,M,10.00,24.00,OVC,M,M,M,1000.00,M,M,M,M,KCVN 011835Z AUTO 03018G24KT 10SM OVC010 06/03 A3001 RMK AO1
CVN,2017-04-01 18:40,-103.0793,34.4251,M,M,M,20.00,20.00,M,M,M,10.00,24.00,OVC,M,M,M,999.00,M,M,M,M,KCVN 011840Z AUTO 02020G24KT 10SM OVC009 RMK MADISHF
CVN,2017-04-01 18:45,-103.0793,34.4251,M,M,M,20.00,17.00,M,M,M,10.00,24.00,OVC,M,M,M,999.00,M,M,M,M,KCVN 011845Z AUTO 02017G24KT 10SM OVC009 RMK MADISHF
CVN,2017-04-01 18:50,-103.0793,34.4251,M,M,M,30.00,18.00,M,M,M,10.00,22.00,OVC,M,M,M,999.00,M,M,M,M,KCVN 011850Z AUTO 03018G22KT 10SM OVC009 RMK MADISHF
CVN,2017-04-01 18:55,-103.0793,34.4251,42.80,35.60,75.50,20.00,21.00,0.00,30.01,M,10.00,25.00,OVC,M,M,M,1000.00,M,M,M,M,KCVN 011855Z AUTO 02021G25KT 10SM OVC010 06/02 A3001 RMK AO1
CVN,2017-04-01 19:00,-103.0793,34.4251,M,M,M,20.00,19.00,M,M,M,10.00,25.00,OVC,M,M,M,999.00,M,M,M,M,KCVN 011900Z AUTO 02019G25KT 10SM OVC009 RMK MADISHF
CVN,2017-04-01 19:05,-103.0793,34.4251,M,M,M,20.00,19.00,M,M,M,10.00,M,OVC,M,M,M,999.00,M,M,M,M,KCVN 011905Z AUTO 02019KT 10SM OVC009 RMK MADISHF
CVN,2017-04-01 19:10,-103.0793,34.4251,M,M,M,10.00,19.00,M,M,M,10.00,M,OVC,M,M,M,999.00,M,M,M,M,KCVN 011910Z AUTO 01019KT 10SM OVC009 RMK MADISHF
CVN,2017-04-01 19:15,-103.0793,34.4251,42.80,35.60,75.50,20.00,18.00,0.00,30.02,M,10.00,M,OVC,M,M,M,1000.00,M,M,M,M,KCVN 011915Z AUTO 02018KT 10SM OVC010 06/02 A3002 RMK AO1
CVN,2017-04-01 19:20,-103.0793,34.4251,M,M,M,20.00,17.00,M,M,M,10.00,M,OVC,M,M,M,999.00,M,M,M,M,KCVN 011920Z AUTO 02017KT 10SM OVC009 RMK MADISHF
CVN,2017-04-01 19:25,-103.0793,34.4251,M,M,M,20.00,17.00,M,M,M,10.00,M,OVC,M,M,M,999.00,M,M,M,M,KCVN 011925Z AUTO 02017KT 10SM OVC009 RMK MADISHF
CVN,2017-04-01 19:30,-103.0793,34.4251,M,M,M,20.00,16.00,M,M,M,10.00,M,OVC,M,M,M,999.00,M,M,M,M,KCVN 011930Z AUTO 02016KT 10SM OVC009 RMK MADISHF
CVN,2017-04-01 19:35,-103.0793,34.4251,42.80,35.60,75.50,30.00,18.00,0.00,30.02,M,10.00,M,OVC,M,M,M,1000.00,M,M,M,M,KCVN 011935Z AUTO 03018KT 10SM OVC010 06/02 A3002 RMK AO1
CVN,2017-04-01 19:40,-103.0793,34.4251,M,M,M,20.00,20.00,M,M,M,10.00,M,OVC,M,M,M,999.00,M,M,M,M,KCVN 011940Z AUTO 02020KT 10SM OVC009 RMK MADISHF
CVN,2017-04-01 19:45,-103.0793,34.4251,M,M,M,30.00,17.00,M,M,M,10.00,M,OVC,M,M,M,1200.00,M,M,M,M,KCVN 011945Z AUTO 03017KT 10SM OVC012 RMK MADISHF
CVN,2017-04-01 19:50,-103.0793,34.4251,M,M,M,30.00,17.00,M,M,M,10.00,M,OVC,M,M,M,1200.00,M,M,M,M,KCVN 011950Z AUTO 03017KT 10SM OVC012 RMK MADISHF
CVN,2017-04-01 19:55,-103.0793,34.4251,44.60,35.60,70.48,20.00,19.00,0.00,30.02,M,10.00,23.00,OVC,M,M,M,1000.00,M,M,M,M,KCVN 011955Z AUTO 02019G23KT 10SM OVC010 07/02 A3002 RMK AO1
CVN,2017-04-01 20:00,-103.0793,34.4251,M,M,M,20.00,17.00,M,M,M,10.00,23.00,OVC,M,M,M,999.00,M,M,M,M,KCVN 012000Z AUTO 02017G23KT 10SM OVC009 RMK MADISHF
CVN,2017-04-01 20:05,-103.0793,34.4251,M,M,M,30.00,17.00,M,M,M,10.00,21.00,OVC,M,M,M,999.00,M,M,M,M,KCVN 012005Z AUTO 03017G21KT 10SM OVC009 RMK MADISHF
CVN,2017-04-01 20:10,-103.0793,34.4251,M,M,M,30.00,17.00,M,M,M,10.00,21.00,OVC,M,M,M,999.00,M,M,M,M,KCVN 012010Z AUTO 03017G21KT 10SM OVC009 RMK MADISHF
CVN,2017-04-01 20:15,-103.0793,34.4251,42.80,35.60,75.50,10.00,18.00,0.00,30.01,M,10.00,M,OVC,M,M,M,1000.00,M,M,M,M,KCVN 012015Z AUTO 01018KT 10SM OVC010 06/02 A3001 RMK AO1
CVN,2017-04-01 20:20,-103.0793,34.4251,M,M,M,30.00,19.00,M,M,M,10.00,22.00,OVC,M,M,M,999.00,M,M,M,M,KCVN 012020Z AUTO 03019G22KT 10SM OVC009 RMK MADISHF
CVN,2017-04-01 20:25,-103.0793,34.4251,M,M,M,20.00,16.00,M,M,M,10.00,22.00,OVC,M,M,M,999.00,M,M,M,M,KCVN 012025Z AUTO 02016G22KT 10SM OVC009 RMK MADISHF
CVN,2017-04-01 20:30,-103.0793,34.4251,M,M,M,20.00,18.00,M,M,M,10.00,M,OVC,M,M,M,999.00,M,M,M,M,KCVN 012030Z AUTO 02018KT 10SM OVC009 RMK MADISHF
CVN,2017-04-01 20:35,-103.0793,34.4251,44.60,35.60,70.48,30.00,16.00,0.00,30.00,M,10.00,M,OVC,M,M,M,1000.00,M,M,M,M,KCVN 012035Z AUTO 03016KT 10SM OVC010 07/02 A3000 RMK AO1
CVN,2017-04-01 20:40,-103.0793,34.4251,M,M,M,20.00,17.00,M,M,M,10.00,M,OVC,M,M,M,999.00,M,M,M,M,KCVN 012040Z AUTO 02017KT 10SM OVC009 RMK MADISHF
CVN,2017-04-01 20:45,-103.0793,34.4251,M,M,M,10.00,21.00,M,M,M,10.00,M,OVC,M,M,M,999.00,M,M,M,M,KCVN 012045Z AUTO 01021KT 10SM OVC009 RMK MADISHF
CVN,2017-04-01 20:50,-103.0793,34.4251,M,M,M,30.00,16.00,M,M,M,10.00,M,OVC,M,M,M,999.00,M,M,M,M,KCVN 012050Z AUTO 03016KT 10SM OVC009 RMK MADISHF
CVN,2017-04-01 20:55,-103.0793,34.4251,42.80,35.60,75.50,10.00,20.00,0.00,30.01,M,10.00,23.00,OVC,M,M,M,1000.00,M,M,M,M,KCVN 012055Z AUTO 01020G23KT 10SM OVC010 06/02 A3001 RMK AO1 52003
CVN,2017-04-01 21:00,-103.0793,34.4251,M,M,M,30.00,19.00,M,M,M,10.00,23.00,OVC,M,M,M,999.00,M,M,M,M,KCVN 012100Z AUTO 03019G23KT 10SM OVC009 RMK MADISHF
CVN,2017-04-01 21:05,-103.0793,34.4251,M,M,M,20.00,18.00,M,M,M,10.00,M,OVC,M,M,M,999.00,M,M,M,M,KCVN 012105Z AUTO 02018KT 10SM OVC009 RMK MADISHF
CVN,2017-04-01 21:10,-103.0793,34.4251,M,M,M,30.00,18.00,M,M,M,10.00,M,OVC,M,M,M,999.00,M,M,M,M,KCVN 012110Z AUTO 03018KT 10SM OVC009 RMK MADISHF
CVN,2017-04-01 21:15,-103.0793,34.4251,42.80,35.60,75.50,30.00,16.00,0.00,30.00,M,10.00,M,BKN,OVC,M,M,1000.00,1500.00,M,M,M,KCVN 012115Z AUTO 03016KT 10SM BKN010 OVC015 06/02 A3000 RMK AO1
CVN,2017-04-01 21:20,-103.0793,34.4251,M,M,M,20.00,16.00,M,M,M,10.00,M,BKN,OVC,M,M,999.00,1500.00,M,M,M,KCVN 012120Z AUTO 02016KT 10SM BKN009 OVC015 RMK MADISHF
CVN,2017-04-01 21:25,-103.0793,34.4251,M,M,M,20.00,20.00,M,M,M,10.00,M,BKN,OVC,M,M,999.00,1400.00,M,M,M,KCVN 012125Z AUTO 02020KT 10SM BKN009 OVC014 RMK MADISHF
CVN,2017-04-01 21:30,-103.0793,34.4251,M,M,M,30.00,17.00,M,M,M,10.00,M,BKN,OVC,M,M,999.00,1400.00,M,M,M,KCVN 012130Z AUTO 03017KT 10SM BKN009 OVC014 RMK MADISHF
CVN,2017-04-01 21:35,-103.0793,34.4251,42.80,35.60,75.50,30.00,19.00,0.00,30.00,M,10.00,24.00,OVC,M,M,M,1000.00,M,M,M,M,KCVN 012135Z AUTO 03019G24KT 10SM OVC010 06/02 A3000 RMK AO1
CVN,2017-04-01 21:40,-103.0793,34.4251,M,M,M,20.00,17.00,M,M,M,10.00,M,OVC,M,M,M,999.00,M,M,M,M,KCVN 012140Z AUTO 02017KT 10SM OVC009 RMK MADISHF
CVN,2017-04-01 21:45,-103.0793,34.4251,M,M,M,30.00,18.00,M,M,M,10.00,M,OVC,M,M,M,999.00,M,M,M,M,KCVN 012145Z AUTO 03018KT 10SM OVC009 RMK MADISHF
CVN,2017-04-01 21:50,-103.0793,34.4251,M,M,M,30.00,19.00,M,M,M,10.00,M,OVC,M,M,M,999.00,M,M,M,M,KCVN 012150Z AUTO 03019KT 10SM OVC009 RMK MADISHF
CVN,2017-04-01 21:55,-103.0793,34.4251,42.80,37.40,81.07,30.00,21.00,0.00,30.00,M,10.00,M,OVC,M,M,M,1000.00,M,M,M,M,KCVN 012155Z AUTO 03021KT 10SM OVC010 06/03 A3000 RMK AO1
CVN,2017-04-01 22:00,-103.0793,34.4251,M,M,M,30.00,20.00,M,M,M,10.00,23.00,OVC,M,M,M,999.00,M,M,M,M,KCVN 012200Z AUTO 03020G23KT 10SM OVC009 RMK MADISHF
CVN,2017-04-01 22:05,-103.0793,34.4251,M,M,M,30.00,18.00,M,M,M,10.00,M,OVC,M,M,M,999.00,M,M,M,M,KCVN 012205Z AUTO 03018KT 10SM OVC009 RMK MADISHF
CVN,2017-04-01 22:10,-103.0793,34.4251,M,M,M,20.00,16.00,M,M,M,10.00,M,BKN,OVC,M,M,999.00,1600.00,M,M,M,KCVN 012210Z AUTO 02016KT 10SM BKN009 OVC016 RMK MADISHF
CVN,2017-04-01 22:15,-103.0793,34.4251,42.80,35.60,75.50,20.00,17.00,0.00,30.01,M,10.00,23.00,OVC,M,M,M,1000.00,M,M,M,M,KCVN 012215Z AUTO 02017G23KT 10SM OVC010 06/02 A3001 RMK AO1
CVN,2017-04-01 22:20,-103.0793,34.4251,M,M,M,20.00,16.00,M,M,M,10.00,20.00,OVC,M,M,M,999.00,M,M,M,M,KCVN 012220Z AUTO 02016G20KT 10SM OVC009 RMK MADISHF
CVN,2017-04-01 22:25,-103.0793,34.4251,M,M,M,30.00,18.00,M,M,M,10.00,M,OVC,M,M,M,999.00,M,M,M,M,KCVN 012225Z AUTO 03018KT 10SM OVC009 RMK MADISHF
CVN,2017-04-01 22:30,-103.0793,34.4251,M,M,M,20.00,18.00,M,M,M,10.00,M,OVC,M,M,M,999.00,M,M,M,M,KCVN 012230Z AUTO 02018KT 10SM OVC009 RMK MADISHF
CVN,2017-04-01 22:35,-103.0793,34.4251,42.80,35.60,75.50,20.00,17.00,0.00,30.01,M,10.00,M,OVC,M,M,M,1000.00,M,M,M,M,KCVN 012235Z AUTO 02017KT 10SM OVC010 06/02 A3001 RMK AO1
CVN,2017-04-01 22:40,-103.0793,34.4251,M,M,M,30.00,17.00,M,M,M,10.00,M,OVC,M,M,M,999.00,M,M,M,M,KCVN 012240Z AUTO 03017KT 10SM OVC009 RMK MADISHF
CVN,2017-04-01 22:45,-103.0793,34.4251,M,M,M,30.00,16.00,M,M,M,10.00,M,OVC,M,M,M,999.00,M,M,M,M,KCVN 012245Z AUTO 03016KT 10SM OVC009 RMK MADISHF
CVN,2017-04-01 22:50,-103.0793,34.4251,M,M,M,30.00,19.00,M,M,M,10.00,M,OVC,M,M,M,999.00,M,M,M,M,KCVN 012250Z AUTO 03019KT 10SM OVC009 RMK MADISHF
CVN,2017-04-01 22:55,-103.0793,34.4251,44.60,35.60,70.48,30.00,18.00,0.00,30.01,M,10.00,24.00,OVC,M,M,M,1000.00,M,M,M,M,KCVN 012255Z AUTO 03018G24KT 10SM OVC010 07/02 A3001 RMK AO1
CVN,2017-04-01 23:00,-103.0793,34.4251,M,M,M,30.00,19.00,M,M,M,10.00,24.00,OVC,M,M,M,999.00,M,M,M,M,KCVN 012300Z AUTO 03019G24KT 10SM OVC009 RMK MADISHF
CVN,2017-04-01 23:05,-103.0793,34.4251,M,M,M,30.00,18.00,M,M,M,10.00,22.00,OVC,M,M,M,999.00,M,M,M,M,KCVN 012305Z AUTO 03018G22KT 10SM OVC009 RMK MADISHF
CVN,2017-04-01 23:10,-103.0793,34.4251,M,M,M,20.00,19.00,M,M,M,10.00,M,OVC,M,M,M,999.00,M,M,M,M,KCVN 012310Z AUTO 02019KT 10SM OVC009 RMK MADISHF
CVN,2017-04-01 23:15,-103.0793,34.4251,42.80,35.60,75.50,30.00,17.00,0.00,30.02,M,10.00,21.00,OVC,M,M,M,1000.00,M,M,M,M,KCVN 012315Z AUTO 03017G21KT 10SM OVC010 06/02 A3002 RMK AO1
CVN,2017-04-01 23:20,-103.0793,34.4251,M,M,M,20.00,13.00,M,M,M,10.00,21.00,OVC,M,M,M,999.00,M,M,M,M,KCVN 012320Z AUTO 02013G21KT 10SM OVC009 RMK MADISHF
CVN,2017-04-01 23:25,-103.0793,34.4251,M,M,M,30.00,15.00,M,M,M,10.00,18.00,OVC,M,M,M,1200.00,M,M,M,M,KCVN 012325Z AUTO 03015G18KT 10SM OVC012 RMK MADISHF
CVN,2017-04-01 23:30,-103.0793,34.4251,M,M,M,30.00,15.00,M,M,M,10.00,18.00,OVC,M,M,M,1200.00,M,M,M,M,KCVN 012330Z AUTO 03015G18KT 10SM OVC012 RMK MADISHF
CVN,2017-04-01 23:35,-103.0793,34.4251,42.80,35.60,75.50,20.00,14.00,0.00,30.03,M,10.00,M,OVC,M,M,M,1200.00,M,M,M,M,KCVN 012335Z AUTO 02014KT 10SM OVC012 06/02 A3003 RMK AO1
CVN,2017-04-01 23:40,-103.0793,34.4251,M,M,M,10.00,15.00,M,M,M,10.00,M,OVC,M,M,M,1200.00,M,M,M,M,KCVN 012340Z AUTO 01015KT 10SM OVC012 RMK MADISHF
CVN,2017-04-01 23:45,-103.0793,34.4251,M,M,M,30.00,17.00,M,M,M,10.00,20.00,OVC,M,M,M,1200.00,M,M,M,M,KCVN 012345Z AUTO 03017G20KT 10SM OVC012 RMK MADISHF
CVN,2017-04-01 23:50,-103.0793,34.4251,M,M,M,20.00,17.00,M,M,M,10.00,20.00,OVC,M,M,M,1200.00,M,M,M,M,KCVN 012350Z AUTO 02017G20KT 10SM OVC012 RMK MADISHF
CVN,2017-04-01 23:55,-103.0793,34.4251,42.80,35.60,75.50,20.00,13.00,0.00,30.04,M,10.00,M,OVC,M,M,M,1200.00,M,M,M,M,KCVN 012355Z AUTO 02013KT 10SM OVC012 06/02 A3004 RMK AO1 10070 20060 401800040 52010
