#DEBUG: Format Typ    -> comma
#DEBUG: Time Period   -> 2017-04-01 00:00:00+00:00 2017-04-02 00:00:00+00:00
#DEBUG: Time Zone     -> Etc/UTC
#DEBUG: Data Contact   -> daryl herzmann akrherz@iastate.edu 515-294-5978
#DEBUG: Entries Found -> -1
station,valid,lon,lat,tmpf, dwpf, relh, drct, sknt, p01i, alti, mslp, vsby, gust, skyc1, skyc2, skyc3, skyc4, skyl1, skyl2, skyl3, skyl4, presentwx, metar
CVW,2017-04-01 00:10,-93.3000,29.7840,71.60,60.80,68.75,140.00,8.00,0.00,29.86,M,10.00,M,CLR,M,M,M,M,M,M,M,M,KCVW 010010Z AUTO 14008KT 10SM CLR 22/16 A2986 RMK A01
CVW,2017-04-01 00:30,-93.3000,29.7840,71.60,62.60,73.27,140.00,8.00,0.00,29.87,M,10.00,M,CLR,M,M,M,M,M,M,M,M,KCVW 010030Z AUTO 14008KT 10SM CLR 22/17 A2987 RMK A01
CVW,2017-04-01 00:50,-93.3000,29.7840,71.60,62.60,73.27,150.00,8.00,0.00,29.87,M,10.00,M,CLR,M,M,M,M,M,M,M,M,KCVW 010050Z AUTO 15008KT 10SM CLR 22/17 A2987 RMK A01
CVW,2017-04-01 01:10,-93.3000,29.7840,71.60,62.60,73.27,150.00,11.00,0.00,29.87,M,10.00,M,CLR,M,M,M,M,M,M,M,M,KCVW 010110Z AUTO 15011KT 10SM CLR 22/17 A2987 RMK A01
CVW,2017-04-01 01:30,-93.3000,29.7840,71.60,62.60,73.27,150.00,11.00,0.00,29.87,M,10.00,M,CLR,M,M,M,M,M,M,M,M,KCVW 010130Z AUTO 15011KT 10SM CLR 22/17 A2987 RMK A01
CVW,2017-04-01 01:50,-93.3000,29.7840,71.60,62.60,73.27,150.00,10.00,0.00,29.88,M,10.00,15.00,CLR,M,M,M,M,M,M,M,M,KCVW 010150Z AUTO 15010G15KT 10SM CLR 22/17 A2988 RMK A01
CVW,2017-04-01 02:10,-93.3000,29.7840,71.60,62.60,73.27,140.00,11.00,0.00,29.88,M,10.00,M,CLR,M,M,M,M,M,M,M,M,KCVW 010210Z AUTO 14011KT 10SM CLR 22/17 A2988 RMK A01
CVW,2017-04-01 02:30,-93.3000,29.7840,71.60,62.60,73.27,150.00,11.00,0.00,29.89,M,10.00,16.00,CLR,M,M,M,M,M,M,M,M,KCVW 010230Z AUTO 15011G16KT 10SM CLR 22/17 A2989 RMK A01
CVW,2017-04-01 02:50,-93.3000,29.7840,71.60,60.80,68.75,140.00,9.00,0.00,29.89,M,10.00,15.00,CLR,M,M,M,M,M,M,M,M,KCVW 010250Z AUTO 14009G15KT 10SM CLR 22/16 A2989 RMK A01
CVW,2017-04-01 03:10,-93.3000,29.7840,71.60,60.80,68.75,140.00,10.00,0.00,29.90,M,10.00,M,CLR,M,M,M,M,M,M,M,M,KCVW 010310Z AUTO 14010KT 10SM CLR 22/16 A2990 RMK A01
CVW,2017-04-01 03:30,-93.3000,29.7840,71.60,60.80,68.75,140.00,10.00,0.00,29.89,M,10.00,M,CLR,M,M,M,M,M,M,M,M,KCVW 010330Z AUTO 14010KT 10SM CLR 22/16 A2989 RMK A01
CVW,2017-04-01 03:50,-93.3000,29.7840,71.60,60.80,68.75,140.00,13.00,0.00,29.89,M,10.00,M,CLR,M,M,M,M,M,M,M,M,KCVW 010350Z AUTO 14013KT 10SM CLR 22/16 A2989 RMK A01
CVW,2017-04-01 04:10,-93.3000,29.7840,71.60,60.80,68.75,140.00,11.00,0.00,29.90,M,10.00,M,CLR,M,M,M,M,M,M,M,M,KCVW 010410Z AUTO 14011KT 10SM CLR 22/16 A2990 RMK A01
CVW,2017-04-01 04:30,-93.3000,29.7840,71.60,60.80,68.75,150.00,12.00,0.00,29.90,M,10.00,19.00,CLR,M,M,M,M,M,M,M,M,KCVW 010430Z AUTO 15012G19KT 10SM CLR 22/16 A2990 RMK A01
CVW,2017-04-01 04:50,-93.3000,29.7840,71.60,60.80,68.75,150.00,10.00,0.00,29.90,M,10.00,16.00,CLR,M,M,M,M,M,M,M,M,KCVW 010450Z AUTO 15010G16KT 10SM CLR 22/16 A2990 RMK A01
CVW,2017-04-01 05:10,-93.3000,29.7840,71.60,60.80,68.75,140.00,10.00,0.00,29.90,M,10.00,M,CLR,M,M,M,M,M,M,M,M,KCVW 010510Z AUTO 14010KT 10SM CLR 22/16 A2990 RMK A01
CVW,2017-04-01 05:30,-93.3000,29.7840,71.60,59.00,64.48,140.00,10.00,0.00,29.90,M,10.00,16.00,CLR,M,M,M,M,M,M,M,M,KCVW 010530Z AUTO 14010G16KT 10SM CLR 22/15 A2990 RMK A01
CVW,2017-04-01 05:50,-93.3000,29.7840,71.60,59.00,64.48,150.00,13.00,0.00,29.90,M,10.00,M,CLR,M,M,M,M,M,M,M,M,KCVW 010550Z AUTO 15013KT 10SM CLR 22/15 A2990 RMK A01
CVW,2017-04-01 06:10,-93.3000,29.7840,71.60,60.80,68.75,150.00,11.00,0.00,29.89,M,10.00,17.00,CLR,M,M,M,M,M,M,M,M,KCVW 010610Z AUTO 15011G17KT 10SM CLR 22/16 A2989 RMK A01
CVW,2017-04-01 06:30,-93.3000,29.7840,71.60,60.80,68.75,150.00,12.00,0.00,29.89,M,10.00,19.00,CLR,M,M,M,M,M,M,M,M,KCVW 010630Z AUTO 15012G19KT 10SM CLR 22/16 A2989 RMK A01
CVW,2017-04-01 06:50,-93.3000,29.7840,71.60,60.80,68.75,160.00,13.00,0.00,29.89,M,10.00,M,CLR,M,M,M,M,M,M,M,M,KCVW 010650Z AUTO 16013KT 10SM CLR 22/16 A2989 RMK A01
CVW,2017-04-01 07:10,-93.3000,29.7840,71.60,60.80,68.75,150.00,13.00,0.00,29.89,M,10.00,19.00,CLR,M,M,M,M,M,M,M,M,KCVW 010710Z AUTO 15013G19KT 10SM CLR 22/16 A2989 RMK A01
CVW,2017-04-01 07:30,-93.3000,29.7840,71.60,62.60,73.27,150.00,13.00,0.00,29.89,M,10.00,18.00,CLR,M,M,M,M,M,M,M,M,KCVW 010730Z AUTO 15013G18KT 10SM CLR 22/17 A2989 RMK A01
CVW,2017-04-01 07:50,-93.3000,29.7840,71.60,62.60,73.27,150.00,13.00,0.00,29.88,M,10.00,M,CLR,M,M,M,M,M,M,M,M,KCVW 010750Z AUTO 15013KT 10SM CLR 22/17 A2988 RMK A01
CVW,2017-04-01 08:10,-93.3000,29.7840,71.60,62.60,73.27,150.00,12.00,0.00,29.89,M,10.00,M,CLR,M,M,M,M,M,M,M,M,KCVW 010810Z AUTO 15012KT 10SM CLR 22/17 A2989 RMK A01
CVW,2017-04-01 08:30,-93.3000,29.7840,71.60,62.60,73.27,150.00,12.00,0.00,29.88,M,10.00,M,CLR,M,M,M,M,M,M,M,M,KCVW 010830Z AUTO 15012KT 10SM CLR 22/17 A2988 RMK A01
CVW,2017-04-01 08:50,-93.3000,29.7840,71.60,62.60,73.27,140.00,11.00,0.00,29.88,M,10.00,M,CLR,M,M,M,M,M,M,M,M,KCVW 010850Z AUTO 14011KT 10SM CLR 22/17 A2988 RMK A01
CVW,2017-04-01 09:10,-93.3000,29.7840,71.60,64.40,78.04,150.00,10.00,0.00,29.88,M,10.00,16.00,CLR,M,M,M,M,M,M,M,M,KCVW 010910Z AUTO 15010G16KT 10SM CLR 22/18 A2988 RMK A01
CVW,2017-04-01 09:30,-93.3000,29.7840,71.60,62.60,73.27,140.00,14.00,0.00,29.88,M,10.00,M,CLR,M,M,M,M,M,M,M,M,KCVW 010930Z AUTO 14014KT 10SM CLR 22/17 A2988 RMK A01
CVW,2017-04-01 09:50,-93.3000,29.7840,71.60,62.60,73.27,140.00,14.00,0.00,29.88,M,10.00,M,CLR,M,M,M,M,M,M,M,M,KCVW 010950Z AUTO 14014KT 10SM CLR 22/17 A2988 RMK A01
CVW,2017-04-01 10:10,-93.3000,29.7840,71.60,62.60,73.27,140.00,12.00,0.00,29.88,M,10.00,M,CLR,M,M,M,M,M,M,M,M,KCVW 011010Z AUTO 14012KT 10SM CLR 22/17 A2988 RMK A01
CVW,2017-04-01 10:30,-93.3000,29.7840,71.60,62.60,73.27,150.00,10.00,0.00,29.89,M,10.00,17.00,CLR,M,M,M,M,M,M,M,M,KCVW 011030Z AUTO 15010G17KT 10SM CLR 22/17 A2989 RMK A01
CVW,2017-04-01 10:50,-93.3000,29.7840,71.60,62.60,73.27,140.00,14.00,0.00,29.88,M,10.00,M,CLR,M,M,M,M,M,M,M,M,KCVW 011050Z AUTO 14014KT 10SM CLR 22/17 A2988 RMK A01
CVW,2017-04-01 11:10,-93.3000,29.7840,71.60,62.60,73.27,130.00,12.00,0.00,29.89,M,10.00,18.00,CLR,M,M,M,M,M,M,M,M,KCVW 011110Z AUTO 13012G18KT 10SM CLR 22/17 A2989 RMK A01
CVW,2017-04-01 11:30,-93.3000,29.7840,71.60,62.60,73.27,130.00,14.00,0.00,29.90,M,10.00,M,CLR,M,M,M,M,M,M,M,M,KCVW 011130Z AUTO 13014KT 10SM CLR 22/17 A2990 RMK A01
CVW,2017-04-01 11:50,-93.3000,29.7840,71.60,60.80,68.75,130.00,13.00,0.00,29.91,M,10.00,18.00,CLR,M,M,M,M,M,M,M,M,KCVW 011150Z AUTO 13013G18KT 10SM CLR 22/16 A2991 RMK A01
CVW,2017-04-01 12:10,-93.3000,29.7840,71.60,60.80,68.75,140.00,13.00,0.00,29.92,M,10.00,M,CLR,M,M,M,M,M,M,M,M,KCVW 011210Z AUTO 14013KT 10SM CLR 22/16 A2992 RMK A01
CVW,2017-04-01 12:30,-93.3000,29.7840,71.60,62.60,73.27,140.00,13.00,0.00,29.93,M,10.00,M,CLR,M,M,M,M,M,M,M,M,KCVW 011230Z AUTO 14013KT 10SM CLR 22/17 A2993 RMK A01
CVW,2017-04-01 12:50,-93.3000,29.7840,71.60,62.60,73.27,140.00,14.00,0.00,29.94,M,10.00,M,CLR,M,M,M,M,M,M,M,M,KCVW 011250Z AUTO 14014KT 10SM CLR 22/17 A2994 RMK A01
CVW,2017-04-01 13:10,-93.3000,29.7840,73.40,62.60,68.94,140.00,14.00,0.00,29.95,M,10.00,M,CLR,M,M,M,M,M,M,M,M,KCVW 011310Z AUTO 14014KT 10SM CLR 23/17 A2995 RMK A01
CVW,2017-04-01 13:30,-93.3000,29.7840,73.40,62.60,68.94,140.00,14.00,0.00,29.95,M,10.00,M,CLR,M,M,M,M,M,M,M,M,KCVW 011330Z AUTO 14014KT 10SM CLR 23/17 A2995 RMK A01
CVW,2017-04-01 13:45,-93.3000,29.7840,73.40,64.40,73.44,130.00,13.00,0.00,29.95,M,10.00,19.00,CLR,M,M,M,M,M,M,M,M,KCVW 011345Z AUTO 13013G19KT 10SM CLR 23/18 A2995 RMK A01
CVW,2017-04-01 14:50,-93.3000,29.7840,75.20,64.40,69.14,130.00,13.00,0.00,29.96,M,10.00,19.00,CLR,M,M,M,M,M,M,M,M,KCVW 011450Z AUTO 13013G19KT 10SM CLR 24/18 A2996 RMK A01
CVW,2017-04-01 15:10,-93.3000,29.7840,75.20,64.40,69.14,130.00,13.00,0.00,29.96,M,10.00,19.00,CLR,M,M,M,M,M,M,M,M,KCVW 011510Z AUTO 13013G19KT 10SM CLR 24/18 A2996 RMK A01
CVW,2017-04-01 15:30,-93.3000,29.7840,75.20,64.40,69.14,130.00,15.00,0.00,29.97,M,10.00,21.00,CLR,M,M,M,M,M,M,M,M,KCVW 011530Z AUTO 13015G21KT 10SM CLR 24/18 A2997 RMK A01
CVW,2017-04-01 15:50,-93.3000,29.7840,75.20,64.40,69.14,130.00,16.00,0.00,29.97,M,10.00,21.00,CLR,M,M,M,M,M,M,M,M,KCVW 011550Z AUTO 13016G21KT 10SM CLR 24/18 A2997 RMK A01
CVW,2017-04-01 16:10,-93.3000,29.7840,75.20,64.40,69.14,130.00,18.00,0.00,29.96,M,10.00,M,CLR,M,M,M,M,M,M,M,M,KCVW 011610Z AUTO 13018KT 10SM CLR 24/18 A2996 RMK A01
CVW,2017-04-01 16:30,-93.3000,29.7840,75.20,64.40,69.14,140.00,16.00,0.00,29.97,M,10.00,M,CLR,M,M,M,M,M,M,M,M,KCVW 011630Z AUTO 14016KT 10SM CLR 24/18 A2997 RMK A01
CVW,2017-04-01 16:50,-93.3000,29.7840,75.20,66.20,73.61,130.00,14.00,0.00,29.97,M,10.00,20.00,CLR,M,M,M,M,M,M,M,M,KCVW 011650Z AUTO 13014G20KT 10SM CLR 24/19 A2997 RMK A01
CVW,2017-04-01 17:10,-93.3000,29.7840,75.20,64.40,69.14,120.00,17.00,0.00,29.96,M,10.00,M,CLR,M,M,M,M,M,M,M,M,KCVW 011710Z AUTO 12017KT 10SM CLR 24/18 A2996 RMK A01
CVW,2017-04-01 17:30,-93.3000,29.7840,75.20,64.40,69.14,130.00,16.00,0.00,29.96,M,10.00,24.00,CLR,M,M,M,M,M,M,M,M,KCVW 011730Z AUTO 13016G24KT 10SM CLR 24/18 A2996 RMK A01
CVW,2017-04-01 17:50,-93.3000,29.7840,75.20,62.60,64.91,120.00,17.00,0.00,29.95,M,10.00,24.00,CLR,M,M,M,M,M,M,M,M,KCVW 011750Z AUTO 12017G24KT 10SM CLR 24/17 A2995 RMK A01
CVW,2017-04-01 18:10,-93.3000,29.7840,75.20,64.40,69.14,130.00,18.00,0.00,29.95,M,10.00,M,CLR,M,M,M,M,M,M,M,M,KCVW 011810Z AUTO 13018KT 10SM CLR 24/18 A2995 RMK A01
CVW,2017-04-01 18:30,-93.3000,29.7840,75.20,66.20,73.61,130.00,16.00,0.00,29.95,M,10.00,22.00,CLR,M,M,M,M,M,M,M,M,KCVW 011830Z AUTO 13016G22KT 10SM CLR 24/19 A2995 RMK A01
CVW,2017-04-01 18:50,-93.3000,29.7840,75.20,64.40,69.14,130.00,15.00,0.00,29.95,M,10.00,23.00,CLR,M,M,M,M,M,M,M,M,KCVW 011850Z AUTO 13015G23KT 10SM CLR 24/18 A2995 RMK A01
CVW,2017-04-01 19:10,-93.3000,29.7840,75.20,62.60,64.91,130.00,17.00,0.00,29.95,M,10.00,23.00,CLR,M,M,M,M,M,M,M,M,KCVW 011910Z AUTO 13017G23KT 10SM CLR 24/17 A2995 RMK A01
CVW,2017-04-01 19:30,-93.3000,29.7840,77.00,64.40,65.12,130.00,18.00,0.00,29.94,M,10.00,25.00,CLR,M,M,M,M,M,M,M,M,KCVW 011930Z AUTO 13018G25KT 10SM CLR 25/18 A2994 RMK A01
CVW,2017-04-01 19:50,-93.3000,29.7840,77.00,64.40,65.12,130.00,18.00,0.00,29.93,M,10.00,M,CLR,M,M,M,M,M,M,M,M,KCVW 011950Z AUTO 13018KT 10SM CLR 25/18 A2993 RMK A01
CVW,2017-04-01 20:10,-93.3000,29.7840,77.00,64.40,65.12,120.00,20.00,0.00,29.93,M,10.00,27.00,CLR,M,M,M,M,M,M,M,M,KCVW 012010Z AUTO 12020G27KT 10SM CLR 25/18 A2993 RMK A01
CVW,2017-04-01 20:30,-93.3000,29.7840,77.00,64.40,65.12,130.00,17.00,0.00,29.93,M,10.00,23.00,CLR,M,M,M,M,M,M,M,M,KCVW 012030Z AUTO 13017G23KT 10SM CLR 25/18 A2993 RMK A01
CVW,2017-04-01 20:50,-93.3000,29.7840,75.20,64.40,69.14,130.00,17.00,0.00,29.93,M,10.00,23.00,CLR,M,M,M,M,M,M,M,M,KCVW 012050Z AUTO 13017G23KT 10SM CLR 24/18 A2993 RMK A01
CVW,2017-04-01 21:10,-93.3000,29.7840,75.20,64.40,69.14,130.00,19.00,0.00,29.92,M,10.00,25.00,CLR,M,M,M,M,M,M,M,M,KCVW 012110Z AUTO 13019G25KT 10SM CLR 24/18 A2992 RMK A01
CVW,2017-04-01 21:30,-93.3000,29.7840,75.20,64.40,69.14,130.00,18.00,0.00,29.92,M,10.00,M,CLR,M,M,M,M,M,M,M,M,KCVW 012130Z AUTO 13018KT 10SM CLR 24/18 A2992 RMK A01
CVW,2017-04-01 21:50,-93.3000,29.7840,75.20,64.40,69.14,120.00,16.00,0.00,29.91,M,10.00,24.00,CLR,M,M,M,M,M,M,M,M,KCVW 012150Z AUTO 12016G24KT 10SM CLR 24/18 A2991 RMK A01
CVW,2017-04-01 22:10,-93.3000,29.7840,75.20,66.20,73.61,130.00,16.00,0.00,29.92,M,10.00,M,CLR,M,M,M,M,M,M,M,M,KCVW 012210Z AUTO 13016KT 10SM CLR 24/19 A2992 RMK A01
CVW,2017-04-01 22:30,-93.3000,29.7840,75.20,64.40,69.14,120.00,16.00,0.00,29.91,M,10.00,22.00,CLR,M,M,M,M,M,M,M,M,KCVW 012230Z AUTO 12016G22KT 10SM CLR 24/18 A2991 RMK A01
CVW,2017-04-01 22:50,-93.3000,29.7840,75.20,64.40,69.14,120.00,17.00,0.00,29.90,M,10.00,23.00,CLR,M,M,M,M,M,M,M,M,KCVW 012250Z AUTO 12017G23KT 10SM CLR 24/18 A2990 RMK A01
CVW,2017-04-01 23:10,-93.3000,29.7840,75.20,64.40,69.14,120.00,17.00,0.00,29.90,M,10.00,25.00,CLR,M,M,M,M,M,M,M,M,KCVW 012310Z AUTO 12017G25KT 10SM CLR 24/18 A2990 RMK A01
CVW,2017-04-01 23:30,-93.3000,29.7840,75.20,64.40,69.14,120.00,18.00,0.00,29.89,M,10.00,26.00,CLR,M,M,M,M,M,M,M,M,KCVW 012330Z AUTO 12018G26KT 10SM CLR 24/18 A2989 RMK A01
CVW,2017-04-01 23:40,-93.3000,29.7840,75.20,66.20,73.61,120.00,15.00,0.00,29.90,M,10.00,22.00,CLR,M,M,M,M,M,M,M,M,KCVW 012340Z AUTO 12015G22KT 10SM CLR 24/19 A2990 RMK A01
