#DEBUG: Format Typ    -> comma
#DEBUG: Time Period   -> 2017-04-01 00:00:00+00:00 2017-04-02 00:00:00+00:00
#DEBUG: Time Zone     -> Etc/UTC
#DEBUG: Data Contact   -> daryl herzmann akrherz@iastate.edu 515-294-5978
#DEBUG: Entries Found -> -1
station,valid,lon,lat,tmpf, dwpf, relh, drct, sknt, p01i, alti, mslp, vsby, gust, skyc1, skyc2, skyc3, skyc4, skyl1, skyl2, skyl3, skyl4, presentwx, metar
CVX,2017-04-01 00:15,-85.2747,45.3047,36.90,32.00,82.25,0.00,0.00,0.00,30.00,M,10.00,M,SCT,M,M,M,5500.00,M,M,M,M,KCVX 010015Z AUTO 00000KT 10SM SCT055 03/00 A3000 RMK AO2 T00270000
CVX,2017-04-01 00:35,-85.2747,45.3047,36.00,31.80,84.55,300.00,5.00,0.00,30.00,M,10.00,M,CLR,M,M,M,M,M,M,M,M,KCVX 010035Z AUTO 30005KT 10SM CLR 02/00 A3000 RMK AO2 T00221001
CVX,2017-04-01 00:55,-85.2747,45.3047,35.60,32.00,86.59,0.00,0.00,0.00,30.01,M,10.00,M,CLR,M,M,M,M,M,M,M,M,KCVX 010055Z AUTO 00000KT 10SM CLR 02/00 A3001 RMK AO2 T00200000
CVX,2017-04-01 01:15,-85.2747,45.3047,35.10,31.10,85.18,0.00,0.00,0.00,30.01,M,10.00,M,CLR,M,M,M,M,M,M,M,M,KCVX 010115Z AUTO 00000KT 10SM CLR 02/00 A3001 RMK AO2 T00171005
CVX,2017-04-01 01:35,-85.2747,45.3047,35.20,31.60,86.57,0.00,0.00,0.00,30.02,M,10.00,M,CLR,M,M,M,M,M,M,M,M,KCVX 010135Z AUTO 00000KT 10SM CLR 02/00 A3002 RMK AO2 T00181002
CVX,2017-04-01 01:55,-85.2747,45.3047,34.00,31.30,89.72,0.00,0.00,0.00,30.02,M,10.00,M,CLR,M,M,M,M,M,M,M,M,KCVX 010155Z AUTO 00000KT 10SM CLR 01/00 A3002 RMK AO2 T00111004
CVX,2017-04-01 02:15,-85.2747,45.3047,32.00,30.70,94.88,0.00,0.00,0.00,30.02,M,10.00,M,CLR,M,M,M,M,M,M,M,M,KCVX 010215Z AUTO 00000KT 10SM CLR 00/M01 A3002 RMK AO2 T00001007
CVX,2017-04-01 02:35,-85.2747,45.3047,30.90,30.20,97.20,0.00,0.00,0.00,30.03,M,10.00,M,CLR,M,M,M,M,M,M,M,M,KCVX 010235Z AUTO 00000KT 10SM CLR M01/M01 A3003 RMK AO2 T10061010
CVX,2017-04-01 02:55,-85.2747,45.3047,31.50,30.90,97.60,0.00,0.00,0.00,30.03,M,10.00,M,CLR,M,M,M,M,M,M,M,M,KCVX 010255Z AUTO 00000KT 10SM CLR 00/M01 A3003 RMK AO2 T10031006
CVX,2017-04-01 03:15,-85.2747,45.3047,30.20,29.80,98.39,0.00,0.00,0.00,30.03,M,10.00,M,CLR,M,M,M,M,M,M,M,M,KCVX 010315Z AUTO 00000KT 10SM CLR M01/M01 A3003 RMK AO2 T10101012
CVX,2017-04-01 03:35,-85.2747,45.3047,30.60,30.60,100.00,260.00,4.00,0.00,30.04,M,10.00,M,CLR,M,M,M,M,M,M,M,M,KCVX 010335Z AUTO 26004KT 10SM CLR M01/M01 A3004 RMK AO2 T10081008
CVX,2017-04-01 03:55,-85.2747,45.3047,32.00,31.80,99.20,240.00,4.00,0.00,30.04,M,10.00,M,CLR,M,M,M,M,M,M,M,M,KCVX 010355Z AUTO 24004KT 10SM CLR 00/00 A3004 RMK AO2 T00001001 400761012
CVX,2017-04-01 04:15,-85.2747,45.3047,31.80,30.90,96.43,250.00,4.00,0.00,30.04,M,10.00,M,CLR,M,M,M,M,M,M,M,M,KCVX 010415Z AUTO 25004KT 10SM CLR 00/M01 A3004 RMK AO2 T10011006
CVX,2017-04-01 04:35,-85.2747,45.3047,30.20,29.80,98.39,0.00,0.00,0.00,30.05,M,10.00,M,CLR,M,M,M,M,M,M,M,M,KCVX 010435Z AUTO 00000KT 10SM CLR M01/M01 A3005 RMK AO2 T10101012
CVX,2017-04-01 04:54,-85.2747,45.3047,29.80,29.80,100.00,0.00,0.00,0.00,30.05,M,10.00,M,CLR,M,M,M,M,M,M,M,M,KCVX 010454Z AUTO 00000KT 10SM CLR M01/M01 A3005 RMK AO2 T10121012
CVX,2017-04-01 05:15,-85.2747,45.3047,29.70,29.70,100.00,0.00,0.00,0.00,30.04,M,10.00,M,CLR,M,M,M,M,M,M,M,M,KCVX 010515Z AUTO 00000KT 10SM CLR M01/M01 A3004 RMK AO2 T10131013
CVX,2017-04-01 05:35,-85.2747,45.3047,29.30,29.30,100.00,0.00,0.00,0.00,30.05,M,10.00,M,CLR,M,M,M,M,M,M,M,M,KCVX 010535Z AUTO 00000KT 10SM CLR M01/M01 A3005 RMK AO2 T10151015
CVX,2017-04-01 05:55,-85.2747,45.3047,29.10,29.10,100.00,0.00,0.00,0.00,30.07,M,10.00,M,CLR,M,M,M,M,M,M,M,M,KCVX 010555Z AUTO 00000KT 10SM CLR M02/M02 A3007 RMK AO2 T10161016 10030 21016
CVX,2017-04-01 06:15,-85.2747,45.3047,28.40,28.40,100.00,0.00,0.00,0.00,30.07,M,10.00,M,CLR,M,M,M,M,M,M,M,M,KCVX 010615Z AUTO 00000KT 10SM CLR M02/M02 A3007 RMK AO2 T10201020
CVX,2017-04-01 06:35,-85.2747,45.3047,28.80,28.80,100.00,0.00,0.00,0.00,30.07,M,10.00,M,CLR,M,M,M,M,M,M,M,M,KCVX 010635Z AUTO 00000KT 10SM CLR M02/M02 A3007 RMK AO2 T10181018
CVX,2017-04-01 06:55,-85.2747,45.3047,27.50,27.50,100.00,0.00,0.00,0.00,30.07,M,10.00,M,CLR,M,M,M,M,M,M,M,M,KCVX 010655Z AUTO 00000KT 10SM CLR M02/M02 A3007 RMK AO2 T10251025
CVX,2017-04-01 07:15,-85.2747,45.3047,27.10,27.10,100.00,240.00,3.00,0.00,30.08,M,10.00,M,CLR,M,M,M,M,M,M,M,M,KCVX 010715Z AUTO 24003KT 10SM CLR M03/M03 A3008 RMK AO2 T10271027
CVX,2017-04-01 07:35,-85.2747,45.3047,27.00,27.00,100.00,0.00,0.00,0.00,30.08,M,10.00,M,CLR,M,M,M,M,M,M,M,M,KCVX 010735Z AUTO 00000KT 10SM CLR M03/M03 A3008 RMK AO2 T10281028
CVX,2017-04-01 07:55,-85.2747,45.3047,27.70,27.70,100.00,240.00,4.00,0.00,30.08,M,10.00,M,CLR,M,M,M,M,M,M,M,M,KCVX 010755Z AUTO 24004KT 10SM CLR M02/M02 A3008 RMK AO2 T10241024
CVX,2017-04-01 08:15,-85.2747,45.3047,26.60,26.60,100.00,250.00,3.00,0.00,30.09,M,10.00,M,CLR,M,M,M,M,M,M,M,M,KCVX 010815Z AUTO 25003KT 10SM CLR M03/M03 A3009 RMK AO2 T10301030
CVX,2017-04-01 08:35,-85.2747,45.3047,28.00,28.00,100.00,0.00,0.00,0.00,30.10,M,10.00,M,CLR,M,M,M,M,M,M,M,M,KCVX 010835Z AUTO 00000KT 10SM CLR M02/M02 A3010 RMK AO2 T10221022
CVX,2017-04-01 08:55,-85.2747,45.3047,26.80,26.80,100.00,240.00,3.00,0.00,30.10,M,10.00,M,CLR,M,M,M,M,M,M,M,M,KCVX 010855Z AUTO 24003KT 10SM CLR M03/M03 A3010 RMK AO2 T10291029
CVX,2017-04-01 09:15,-85.2747,45.3047,26.80,26.80,100.00,250.00,3.00,0.00,30.11,M,10.00,M,CLR,M,M,M,M,M,M,M,M,KCVX 010915Z AUTO 25003KT 10SM CLR M03/M03 A3011 RMK AO2 T10291029
CVX,2017-04-01 09:35,-85.2747,45.3047,27.00,27.00,100.00,220.00,3.00,0.00,30.12,M,10.00,M,CLR,M,M,M,M,M,M,M,M,KCVX 010935Z AUTO 22003KT 10SM CLR M03/M03 A3012 RMK AO2 T10281028
CVX,2017-04-01 09:55,-85.2747,45.3047,27.30,27.30,100.00,0.00,0.00,0.00,30.12,M,10.00,M,CLR,M,M,M,M,M,M,M,M,KCVX 010955Z AUTO 00000KT 10SM CLR M03/M03 A3012 RMK AO2 T10261026
CVX,2017-04-01 10:15,-85.2747,45.3047,27.50,27.50,100.00,0.00,0.00,0.00,30.12,M,10.00,M,CLR,M,M,M,M,M,M,M,M,KCVX 011015Z AUTO 00000KT 10SM CLR M02/M02 A3012 RMK AO2 T10251025
CVX,2017-04-01 10:35,-85.2747,45.3047,27.70,27.70,100.00,0.00,0.00,0.00,30.13,M,10.00,M,CLR,M,M,M,M,M,M,M,M,KCVX 011035Z AUTO 00000KT 10SM CLR M02/M02 A3013 RMK AO2 T10241024
CVX,2017-04-01 10:55,-85.2747,45.3047,27.70,27.70,100.00,0.00,0.00,0.00,30.14,M,7.00,M,CLR,M,M,M,M,M,M,M,M,KCVX 011055Z AUTO 00000KT 7SM CLR M02/M02 A3014 RMK AO2 T10241024
CVX,2017-04-01 11:15,-85.2747,45.3047,27.50,27.50,100.00,0.00,0.00,0.00,30.15,M,10.00,M,CLR,M,M,M,M,M,M,M,M,KCVX 011115Z AUTO 00000KT 10SM CLR M02/M02 A3015 RMK AO2 T10251025
CVX,2017-04-01 11:35,-85.2747,45.3047,27.50,27.50,100.00,0.00,0.00,0.00,30.15,M,10.00,M,CLR,M,M,M,M,M,M,M,M,KCVX 011135Z AUTO 00000KT 10SM CLR M02/M02 A3015 RMK AO2 T10251025
CVX,2017-04-01 11:55,-85.2747,45.3047,27.50,27.50,100.00,0.00,0.00,0.00,30.15,M,10.00,M,CLR,M,M,M,M,M,M,M,M,KCVX 011155Z AUTO 00000KT 10SM CLR M02/M02 A3015 RMK AO2 T10251025 11017 21030
CVX,2017-04-01 12:15,-85.2747,45.3047,28.40,28.40,100.00,0.00,0.00,0.00,30.16,M,10.00,M,CLR,M,M,M,M,M,M,M,M,KCVX 011215Z AUTO 00000KT 10SM CLR M02/M02 A3016 RMK AO2 T10201020
CVX,2017-04-01 12:35,-85.2747,45.3047,29.80,29.80,100.00,0.00,0.00,0.00,30.15,M,10.00,M,CLR,M,M,M,M,M,M,M,M,KCVX 011235Z AUTO 00000KT 10SM CLR M01/M01 A3015 RMK AO2 T10121012
CVX,2017-04-01 12:55,-85.2747,45.3047,31.30,31.30,100.00,0.00,0.00,0.00,30.16,M,10.00,M,CLR,M,M,M,M,M,M,M,M,KCVX 011255Z AUTO 00000KT 10SM CLR 00/00 A3016 RMK AO2 T10041004
CVX,2017-04-01 13:15,-85.2747,45.3047,32.90,32.00,96.44,0.00,0.00,0.00,30.15,M,10.00,M,CLR,M,M,M,M,M,M,M,M,KCVX 011315Z AUTO 00000KT 10SM CLR 01/00 A3015 RMK AO2 T00050000
CVX,2017-04-01 13:35,-85.2747,45.3047,36.00,34.00,92.35,0.00,0.00,0.00,30.15,M,10.00,M,CLR,M,M,M,M,M,M,M,M,KCVX 011335Z AUTO 00000KT 10SM CLR 02/01 A3015 RMK AO2 T00220011
CVX,2017-04-01 13:55,-85.2747,45.3047,38.80,34.00,82.72,260.00,4.00,0.00,30.16,M,10.00,M,CLR,M,M,M,M,M,M,M,M,KCVX 011355Z AUTO 26004KT 10SM CLR 04/01 A3016 RMK AO2 T00380011
CVX,2017-04-01 14:15,-85.2747,45.3047,40.10,33.10,75.85,280.00,4.00,0.00,30.16,M,10.00,M,CLR,M,M,M,M,M,M,M,M,KCVX 011415Z AUTO 28004KT 10SM CLR 05/01 A3016 RMK AO2 T00450006
CVX,2017-04-01 14:35,-85.2747,45.3047,41.70,33.30,71.87,280.00,4.00,0.00,30.17,M,10.00,M,CLR,M,M,M,M,M,M,M,M,KCVX 011435Z AUTO 28004KT 10SM CLR 05/01 A3017 RMK AO2 T00540007
CVX,2017-04-01 14:54,-85.2747,45.3047,42.40,32.20,66.93,290.00,7.00,0.00,30.17,M,10.00,M,CLR,M,M,M,M,M,M,M,M,KCVX 011454Z AUTO 29007KT 10SM CLR 06/00 A3017 RMK AO2 T00580001
CVX,2017-04-01 15:15,-85.2747,45.3047,42.60,31.80,65.36,270.00,8.00,0.00,30.18,M,10.00,M,CLR,M,M,M,M,M,M,M,M,KCVX 011515Z AUTO 27008KT 10SM CLR 06/00 A3018 RMK AO2 T00591001
CVX,2017-04-01 15:35,-85.2747,45.3047,42.80,31.30,63.56,270.00,9.00,0.00,30.19,M,10.00,M,CLR,M,M,M,M,M,M,M,M,KCVX 011535Z AUTO 27009KT 10SM CLR 06/00 A3019 RMK AO2 T00601004
CVX,2017-04-01 15:54,-85.2747,45.3047,43.00,31.30,63.07,260.00,9.00,0.00,30.20,M,10.00,M,CLR,M,M,M,M,M,M,M,M,KCVX 011554Z AUTO 26009KT 10SM CLR 06/00 A3020 RMK AO2 T00611004
CVX,2017-04-01 16:15,-85.2747,45.3047,42.40,29.80,60.73,260.00,5.00,0.00,30.19,M,10.00,M,CLR,M,M,M,M,M,M,M,M,KCVX 011615Z AUTO 26005KT 10SM CLR 06/M01 A3019 RMK AO2 T00581012
CVX,2017-04-01 16:35,-85.2747,45.3047,43.90,29.80,57.34,260.00,7.00,0.00,30.19,M,10.00,M,CLR,M,M,M,M,M,M,M,M,KCVX 011635Z AUTO 26007KT 10SM CLR 07/M01 A3019 RMK AO2 T00661012
CVX,2017-04-01 16:54,-85.2747,45.3047,44.10,29.50,56.21,270.00,8.00,0.00,30.19,M,10.00,M,CLR,M,M,M,M,M,M,M,M,KCVX 011654Z AUTO 27008KT 10SM CLR 07/M01 A3019 RMK AO2 T00671014
CVX,2017-04-01 17:15,-85.2747,45.3047,43.20,28.80,56.54,260.00,8.00,0.00,30.19,M,10.00,M,CLR,M,M,M,M,M,M,M,M,KCVX 011715Z AUTO 26008KT 10SM CLR 06/M02 A3019 RMK AO2 T00621018
CVX,2017-04-01 17:35,-85.2747,45.3047,43.50,28.80,55.89,250.00,8.00,0.00,30.19,M,10.00,M,CLR,M,M,M,M,M,M,M,M,KCVX 011735Z AUTO 25008KT 10SM CLR 06/M02 A3019 RMK AO2 T00641018
CVX,2017-04-01 17:54,-85.2747,45.3047,44.10,28.60,54.18,260.00,8.00,0.00,30.19,M,10.00,M,SCT,M,M,M,8000.00,M,M,M,M,KCVX 011754Z AUTO 26008KT 10SM SCT080 07/M02 A3019 RMK AO2 T00671019
CVX,2017-04-01 18:15,-85.2747,45.3047,45.50,27.70,49.51,230.00,8.00,0.00,30.19,M,10.00,M,SCT,M,M,M,12000.00,M,M,M,M,KCVX 011815Z AUTO 23008KT 10SM SCT120 08/M02 A3019 RMK AO2 T00751024
CVX,2017-04-01 18:35,-85.2747,45.3047,47.30,27.70,46.25,240.00,6.00,0.00,30.18,M,10.00,M,SCT,M,M,M,12000.00,M,M,M,M,KCVX 011835Z AUTO 24006KT 10SM SCT120 09/M02 A3018 RMK AO2 T00851024
CVX,2017-04-01 18:54,-85.2747,45.3047,50.50,27.00,39.87,240.00,9.00,0.00,30.17,M,10.00,M,CLR,M,M,M,M,M,M,M,M,KCVX 011854Z AUTO 24009KT 10SM CLR 10/M03 A3017 RMK AO2 T01031028
CVX,2017-04-01 19:15,-85.2747,45.3047,52.30,28.20,39.19,230.00,10.00,0.00,30.17,M,10.00,M,CLR,M,M,M,M,M,M,M,M,KCVX 011915Z AUTO 23010KT 10SM CLR 11/M02 A3017 RMK AO2 T01131021
CVX,2017-04-01 19:35,-85.2747,45.3047,52.70,27.30,37.22,230.00,9.00,0.00,30.17,M,10.00,M,SCT,M,M,M,6500.00,M,M,M,M,KCVX 011935Z AUTO 23009KT 10SM SCT065 12/M03 A3017 RMK AO2 T01151026
CVX,2017-04-01 19:54,-85.2747,45.3047,52.30,27.30,37.77,250.00,11.00,0.00,30.17,M,10.00,M,SCT,M,M,M,6500.00,M,M,M,M,KCVX 011954Z AUTO 25011KT 10SM SCT065 11/M03 A3017 RMK AO2 T01131026
CVX,2017-04-01 20:15,-85.2747,45.3047,53.60,27.10,35.71,260.00,13.00,0.00,30.17,M,10.00,20.00,CLR,M,M,M,M,M,M,M,M,KCVX 012015Z AUTO 26013G20KT 10SM CLR 12/M03 A3017 RMK AO2 T01201027
CVX,2017-04-01 20:35,-85.2747,45.3047,53.40,26.10,34.52,260.00,11.00,0.00,30.16,M,10.00,M,CLR,M,M,M,M,M,M,M,M,KCVX 012035Z AUTO 26011KT 10SM CLR 12/M03 A3016 RMK AO2 T01191033
CVX,2017-04-01 20:54,-85.2747,45.3047,53.10,24.80,33.07,250.00,10.00,0.00,30.15,M,10.00,15.00,CLR,M,M,M,M,M,M,M,M,KCVX 012054Z AUTO 25010G15KT 10SM CLR 12/M04 A3015 RMK AO2 T01171040
CVX,2017-04-01 21:15,-85.2747,45.3047,53.80,23.90,31.04,250.00,9.00,0.00,30.15,M,10.00,M,CLR,M,M,M,M,M,M,M,M,KCVX 012115Z AUTO 25009KT 10SM CLR 12/M04 A3015 RMK AO2 T01211045
CVX,2017-04-01 21:35,-85.2747,45.3047,53.20,23.40,31.07,240.00,11.00,0.00,30.15,M,10.00,15.00,CLR,M,M,M,M,M,M,M,M,KCVX 012135Z AUTO 24011G15KT 10SM CLR 12/M05 A3015 RMK AO2 T01181048
CVX,2017-04-01 21:54,-85.2747,45.3047,53.20,23.00,30.55,250.00,11.00,0.00,30.15,M,10.00,M,CLR,M,M,M,M,M,M,M,M,KCVX 012154Z AUTO 25011KT 10SM CLR 12/M05 A3015 RMK AO2 T01181050
CVX,2017-04-01 22:15,-85.2747,45.3047,51.30,22.60,32.22,250.00,8.00,0.00,30.16,M,10.00,M,BKN,M,M,M,10000.00,M,M,M,M,KCVX 012215Z AUTO 25008KT 10SM BKN100 11/M05 A3016 RMK AO2 T01071052
CVX,2017-04-01 22:35,-85.2747,45.3047,50.20,21.90,32.59,260.00,7.00,0.00,30.16,M,10.00,M,OVC,M,M,M,9000.00,M,M,M,M,KCVX 012235Z AUTO 26007KT 10SM OVC090 10/M06 A3016 RMK AO2 T01011056
CVX,2017-04-01 22:54,-85.2747,45.3047,49.30,19.90,30.96,240.00,7.00,0.00,30.16,M,10.00,M,OVC,M,M,M,8000.00,M,M,M,M,KCVX 012254Z AUTO 24007KT 10SM OVC080 10/M07 A3016 RMK AO2 T00961067
CVX,2017-04-01 23:15,-85.2747,45.3047,48.70,20.10,31.93,240.00,7.00,0.00,30.17,M,10.00,M,OVC,M,M,M,8000.00,M,M,M,M,KCVX 012315Z AUTO 24007KT 10SM OVC080 09/M07 A3017 RMK AO2 T00931066
CVX,2017-04-01 23:35,-85.2747,45.3047,48.00,20.30,33.06,230.00,6.00,0.00,30.17,M,10.00,M,SCT,OVC,M,M,7000.00,8000.00,M,M,M,KCVX 012335Z AUTO 23006KT 10SM SCT070 OVC080 09/M06 A3017 RMK AO2 T00891065
CVX,2017-04-01 23:54,-85.2747,45.3047,47.50,21.20,35.00,230.00,5.00,0.00,30.17,M,10.00,M,SCT,OVC,M,M,7000.00,9000.00,M,M,M,KCVX 012354Z AUTO 23005KT 10SM SCT070 OVC090 09/M06 A3017 RMK AO2 T00861060
