#DEBUG: Format Typ    -> comma
#DEBUG: Time Period   -> 2017-04-01 00:00:00+00:00 2017-04-02 00:00:00+00:00
#DEBUG: Time Zone     -> Etc/UTC
#DEBUG: Data Contact   -> daryl herzmann akrherz@iastate.edu 515-294-5978
#DEBUG: Entries Found -> -1
station,valid,lon,lat,tmpf, dwpf, relh, drct, sknt, p01i, alti, mslp, vsby, gust, skyc1, skyc2, skyc3, skyc4, skyl1, skyl2, skyl3, skyl4, presentwx, metar
CWI,2017-04-01 00:00,-90.3328,41.8295,M,M,M,360.00,6.00,M,30.04,M,10.00,M,OVC,M,M,M,2500.00,M,M,M,M,KCWI 010000Z AUTO 36006KT 10SM OVC025 A3004 RMK MADISHF
CWI,2017-04-01 00:05,-90.3328,41.8295,M,M,M,360.00,6.00,M,30.04,M,10.00,M,SCT,OVC,M,M,2200.00,2800.00,M,M,M,KCWI 010005Z AUTO 36006KT 10SM SCT022 OVC028 A3004 RMK MADISHF
CWI,2017-04-01 00:10,-90.3328,41.8295,M,M,M,10.00,8.00,M,30.03,M,10.00,M,OVC,M,M,M,2800.00,M,M,M,M,KCWI 010010Z AUTO 01008KT 10SM OVC028 A3003 RMK MADISHF
CWI,2017-04-01 00:15,-90.3328,41.8295,M,M,M,10.00,8.00,M,30.03,M,10.00,M,OVC,M,M,M,2800.00,M,M,M,M,KCWI 010015Z AUTO 01008KT 10SM OVC028 A3003 RMK MADISHF
CWI,2017-04-01 00:20,-90.3328,41.8295,M,M,M,360.00,8.00,M,30.03,M,10.00,M,OVC,M,M,M,2800.00,M,M,M,M,KCWI 010020Z AUTO 36008KT 10SM OVC028 A3003 RMK MADISHF
CWI,2017-04-01 00:25,-90.3328,41.8295,M,M,M,340.00,6.00,M,30.04,M,10.00,M,OVC,M,M,M,2800.00,M,M,M,M,KCWI 010025Z AUTO 34006KT 10SM OVC028 A3004 RMK MADISHF
CWI,2017-04-01 00:30,-90.3328,41.8295,M,M,M,340.00,5.00,M,30.04,M,10.00,M,OVC,M,M,M,2800.00,M,M,M,M,KCWI 010030Z AUTO 34005KT 10SM OVC028 A3004 RMK MADISHF
CWI,2017-04-01 00:35,-90.3328,41.8295,M,M,M,350.00,5.00,M,30.04,M,10.00,M,OVC,M,M,M,2800.00,M,M,M,M,KCWI 010035Z AUTO 35005KT 10SM OVC028 A3004 RMK MADISHF
CWI,2017-04-01 00:40,-90.3328,41.8295,M,M,M,340.00,6.00,M,30.03,M,10.00,M,OVC,M,M,M,2800.00,M,M,M,M,KCWI 010040Z AUTO 34006KT 10SM OVC028 A3003 RMK MADISHF
CWI,2017-04-01 00:45,-90.3328,41.8295,M,M,M,340.00,5.00,M,30.03,M,10.00,M,OVC,M,M,M,2800.00,M,M,M,M,KCWI 010045Z AUTO 34005KT 10SM OVC028 A3003 RMK MADISHF
CWI,2017-04-01 00:50,-90.3328,41.8295,M,M,M,320.00,5.00,M,30.04,M,10.00,M,OVC,M,M,M,2800.00,M,M,M,M,KCWI 010050Z AUTO 32005KT 10SM OVC028 A3004 RMK MADISHF
CWI,2017-04-01 00:55,-90.3328,41.8295,M,M,M,320.00,6.00,M,30.05,M,10.00,M,BKN,OVC,M,M,2800.00,3399.00,M,M,M,KCWI 010055Z AUTO 32006KT 10SM BKN028 OVC033 A3005 RMK MADISHF
CWI,2017-04-01 00:56,-90.3328,41.8295,41.00,37.00,85.54,320.00,6.00,0.00,30.05,1020.40,10.00,M,BKN,OVC,M,M,2800.00,3400.00,M,M,M,KCWI 010056Z AUTO 32006KT 10SM BKN028 OVC034 05/03 A3005 RMK AO2 SLP204 T00500028
CWI,2017-04-01 01:00,-90.3328,41.8295,M,M,M,310.00,6.00,M,30.05,M,10.00,M,OVC,M,M,M,3100.00,M,M,M,M,KCWI 010100Z AUTO 31006KT 10SM OVC031 A3005 RMK MADISHF
CWI,2017-04-01 01:05,-90.3328,41.8295,M,M,M,310.00,6.00,M,30.05,M,10.00,M,OVC,M,M,M,3100.00,M,M,M,M,KCWI 010105Z AUTO 31006KT 10SM OVC031 A3005 RMK MADISHF
CWI,2017-04-01 01:09,-90.3328,41.8295,39.20,37.40,93.19,310.00,6.00,0.00,30.05,M,10.00,M,BKN,M,M,M,3100.00,M,M,M,M,KCWI 010109Z AUTO 31006KT 10SM BKN031 04/03 A3005 RMK AO2
CWI,2017-04-01 01:10,-90.3328,41.8295,M,M,M,310.00,6.00,M,30.06,M,10.00,M,BKN,M,M,M,3100.00,M,M,M,M,KCWI 010110Z AUTO 31006KT 10SM BKN031 A3006 RMK MADISHF
CWI,2017-04-01 01:15,-90.3328,41.8295,M,M,M,310.00,6.00,M,30.06,M,10.00,M,BKN,M,M,M,3300.00,M,M,M,M,KCWI 010115Z AUTO 31006KT 10SM BKN033 A3006 RMK MADISHF
CWI,2017-04-01 01:20,-90.3328,41.8295,M,M,M,310.00,6.00,M,30.06,M,10.00,M,SCT,M,M,M,3300.00,M,M,M,M,KCWI 010120Z AUTO 31006KT 10SM SCT033 A3006 RMK MADISHF
CWI,2017-04-01 01:25,-90.3328,41.8295,M,M,M,300.00,6.00,M,30.06,M,10.00,M,SCT,M,M,M,3300.00,M,M,M,M,KCWI 010125Z AUTO 30006KT 10SM SCT033 A3006 RMK MADISHF
CWI,2017-04-01 01:30,-90.3328,41.8295,M,M,M,300.00,5.00,M,30.06,M,10.00,M,FEW,M,M,M,3300.00,M,M,M,M,KCWI 010130Z AUTO 30005KT 10SM FEW033 A3006 RMK MADISHF
CWI,2017-04-01 01:35,-90.3328,41.8295,M,M,M,300.00,6.00,M,30.07,M,10.00,M,CLR,M,M,M,M,M,M,M,M,KCWI 010135Z AUTO 30006KT 10SM CLR A3007 RMK MADISHF
CWI,2017-04-01 01:40,-90.3328,41.8295,M,M,M,310.00,5.00,M,30.06,M,10.00,M,CLR,M,M,M,M,M,M,M,M,KCWI 010140Z AUTO 31005KT 10SM CLR A3006 RMK MADISHF
CWI,2017-04-01 01:45,-90.3328,41.8295,M,M,M,310.00,5.00,M,30.07,M,10.00,M,CLR,M,M,M,M,M,M,M,M,KCWI 010145Z AUTO 31005KT 10SM CLR A3007 RMK MADISHF
CWI,2017-04-01 01:50,-90.3328,41.8295,M,M,M,290.00,5.00,M,30.07,M,10.00,M,CLR,M,M,M,M,M,M,M,M,KCWI 010150Z AUTO 29005KT 10SM CLR A3007 RMK MADISHF
CWI,2017-04-01 01:55,-90.3328,41.8295,M,M,M,280.00,5.00,M,30.07,M,10.00,M,CLR,M,M,M,M,M,M,M,M,KCWI 010155Z AUTO 28005KT 10SM CLR A3007 RMK MADISHF
CWI,2017-04-01 01:56,-90.3328,41.8295,37.90,35.10,89.53,280.00,5.00,0.00,30.07,1021.40,10.00,M,CLR,M,M,M,M,M,M,M,M,KCWI 010156Z AUTO 28005KT 10SM CLR 03/02 A3007 RMK AO2 SLP214 T00330017
CWI,2017-04-01 02:00,-90.3328,41.8295,M,M,M,290.00,5.00,M,30.08,M,10.00,M,CLR,M,M,M,M,M,M,M,M,KCWI 010200Z AUTO 29005KT 10SM CLR A3008 RMK MADISHF
CWI,2017-04-01 02:10,-90.3328,41.8295,M,M,M,290.00,5.00,M,30.08,M,10.00,M,CLR,M,M,M,M,M,M,M,M,KCWI 010210Z AUTO 29005KT 10SM CLR A3008 RMK MADISHF
CWI,2017-04-01 02:15,-90.3328,41.8295,M,M,M,300.00,4.00,M,30.08,M,10.00,M,CLR,M,M,M,M,M,M,M,M,KCWI 010215Z AUTO 30004KT 10SM CLR A3008 RMK MADISHF
CWI,2017-04-01 02:20,-90.3328,41.8295,M,M,M,320.00,4.00,M,30.07,M,10.00,M,CLR,M,M,M,M,M,M,M,M,KCWI 010220Z AUTO 32004KT 10SM CLR A3007 RMK MADISHF
CWI,2017-04-01 02:25,-90.3328,41.8295,M,M,M,340.00,3.00,M,30.07,M,10.00,M,CLR,M,M,M,M,M,M,M,M,KCWI 010225Z AUTO 34003KT 10SM CLR A3007 RMK MADISHF
CWI,2017-04-01 02:30,-90.3328,41.8295,M,M,M,330.00,5.00,M,30.07,M,10.00,M,CLR,M,M,M,M,M,M,M,M,KCWI 010230Z AUTO 33005KT 10SM CLR A3007 RMK MADISHF
CWI,2017-04-01 02:35,-90.3328,41.8295,M,M,M,310.00,5.00,M,30.07,M,10.00,M,CLR,M,M,M,M,M,M,M,M,KCWI 010235Z AUTO 31005KT 10SM CLR A3007 RMK MADISHF
CWI,2017-04-01 02:40,-90.3328,41.8295,M,M,M,330.00,4.00,M,30.07,M,10.00,M,CLR,M,M,M,M,M,M,M,M,KCWI 010240Z AUTO 33004KT 10SM CLR A3007 RMK MADISHF
CWI,2017-04-01 02:45,-90.3328,41.8295,M,M,M,330.00,4.00,M,30.07,M,10.00,M,CLR,M,M,M,M,M,M,M,M,KCWI 010245Z AUTO 33004KT 10SM CLR A3007 RMK MADISHF
CWI,2017-04-01 02:50,-90.3328,41.8295,M,M,M,340.00,4.00,M,30.07,M,10.00,M,CLR,M,M,M,M,M,M,M,M,KCWI 010250Z AUTO 34004KT 10SM CLR A3007 RMK MADISHF
CWI,2017-04-01 02:55,-90.3328,41.8295,M,M,M,330.00,4.00,M,30.07,M,10.00,M,CLR,M,M,M,M,M,M,M,M,KCWI 010255Z AUTO 33004KT 10SM CLR A3007 RMK MADISHF
CWI,2017-04-01 02:56,-90.3328,41.8295,35.10,34.00,95.71,330.00,4.00,0.00,30.07,1021.00,10.00,M,CLR,M,M,M,M,M,M,M,M,KCWI 010256Z AUTO 33004KT 10SM CLR 02/01 A3007 RMK AO2 SLP210 T00170011 51012 FZRANO
CWI,2017-04-01 03:00,-90.3328,41.8295,M,M,M,330.00,4.00,M,30.07,M,10.00,M,CLR,M,M,M,M,M,M,M,M,KCWI 010300Z AUTO 33004KT 10SM CLR A3007 RMK MADISHF
CWI,2017-04-01 03:05,-90.3328,41.8295,M,M,M,340.00,3.00,M,30.07,M,10.00,M,CLR,M,M,M,M,M,M,M,M,KCWI 010305Z AUTO 34003KT 10SM CLR A3007 RMK MADISHF
CWI,2017-04-01 03:10,-90.3328,41.8295,M,M,M,340.00,3.00,M,30.07,M,10.00,M,CLR,M,M,M,M,M,M,M,M,KCWI 010310Z AUTO 34003KT 10SM CLR A3007 RMK MADISHF
CWI,2017-04-01 03:15,-90.3328,41.8295,M,M,M,340.00,3.00,M,30.07,M,10.00,M,CLR,M,M,M,M,M,M,M,M,KCWI 010315Z AUTO 34003KT 10SM CLR A3007 RMK MADISHF
CWI,2017-04-01 03:20,-90.3328,41.8295,M,M,M,330.00,4.00,M,30.08,M,10.00,M,CLR,M,M,M,M,M,M,M,M,KCWI 010320Z AUTO 33004KT 10SM CLR A3008 RMK MADISHF
CWI,2017-04-01 03:25,-90.3328,41.8295,M,M,M,330.00,4.00,M,30.07,M,10.00,M,CLR,M,M,M,M,M,M,M,M,KCWI 010325Z AUTO 33004KT 10SM CLR A3007 RMK MADISHF
CWI,2017-04-01 03:30,-90.3328,41.8295,M,M,M,320.00,5.00,M,30.08,M,10.00,M,CLR,M,M,M,M,M,M,M,M,KCWI 010330Z AUTO 32005KT 10SM CLR A3008 RMK MADISHF
CWI,2017-04-01 03:35,-90.3328,41.8295,M,M,M,310.00,6.00,M,30.09,M,10.00,M,CLR,M,M,M,M,M,M,M,M,KCWI 010335Z AUTO 31006KT 10SM CLR A3009 RMK MADISHF
CWI,2017-04-01 03:40,-90.3328,41.8295,M,M,M,300.00,7.00,M,30.09,M,10.00,M,CLR,M,M,M,M,M,M,M,M,KCWI 010340Z AUTO 30007KT 10SM CLR A3009 RMK MADISHF
CWI,2017-04-01 03:45,-90.3328,41.8295,M,M,M,300.00,7.00,M,30.10,M,10.00,M,CLR,M,M,M,M,M,M,M,M,KCWI 010345Z AUTO 30007KT 10SM CLR A3010 RMK MADISHF
CWI,2017-04-01 03:50,-90.3328,41.8295,M,M,M,290.00,5.00,M,30.10,M,10.00,M,CLR,M,M,M,M,M,M,M,M,KCWI 010350Z AUTO 29005KT 10SM CLR A3010 RMK MADISHF
CWI,2017-04-01 03:55,-90.3328,41.8295,M,M,M,290.00,6.00,M,30.10,M,10.00,M,CLR,M,M,M,M,M,M,M,M,KCWI 010355Z AUTO 29006KT 10SM CLR A3010 RMK MADISHF
CWI,2017-04-01 03:56,-90.3328,41.8295,34.00,33.10,96.46,290.00,6.00,0.00,30.10,1022.00,10.00,M,CLR,M,M,M,M,M,M,M,M,KCWI 010356Z AUTO 29006KT 10SM CLR 01/01 A3010 RMK AO2 SLP220 T00110006 FZRANO
CWI,2017-04-01 04:00,-90.3328,41.8295,M,M,M,300.00,7.00,M,30.10,M,10.00,M,CLR,M,M,M,M,M,M,M,M,KCWI 010400Z AUTO 30007KT 10SM CLR A3010 RMK MADISHF
CWI,2017-04-01 04:05,-90.3328,41.8295,M,M,M,300.00,7.00,M,30.10,M,10.00,M,CLR,M,M,M,M,M,M,M,M,KCWI 010405Z AUTO 30007KT 10SM CLR A3010 RMK MADISHF
CWI,2017-04-01 04:15,-90.3328,41.8295,M,M,M,310.00,7.00,M,30.10,M,10.00,M,CLR,M,M,M,M,M,M,M,M,KCWI 010415Z AUTO 31007KT 10SM CLR A3010 RMK MADISHF
CWI,2017-04-01 04:20,-90.3328,41.8295,M,M,M,310.00,7.00,M,30.11,M,10.00,M,CLR,M,M,M,M,M,M,M,M,KCWI 010420Z AUTO 31007KT 10SM CLR A3011 RMK MADISHF
CWI,2017-04-01 04:25,-90.3328,41.8295,M,M,M,300.00,8.00,M,30.11,M,10.00,M,CLR,M,M,M,M,M,M,M,M,KCWI 010425Z AUTO 30008KT 10SM CLR A3011 RMK MADISHF
CWI,2017-04-01 04:30,-90.3328,41.8295,M,M,M,300.00,7.00,M,30.11,M,10.00,M,CLR,M,M,M,M,M,M,M,M,KCWI 010430Z AUTO 30007KT 10SM CLR A3011 RMK MADISHF
CWI,2017-04-01 04:35,-90.3328,41.8295,M,M,M,310.00,7.00,M,30.11,M,10.00,M,CLR,M,M,M,M,M,M,M,M,KCWI 010435Z AUTO 31007KT 10SM CLR A3011 RMK MADISHF
CWI,2017-04-01 04:40,-90.3328,41.8295,M,M,M,320.00,5.00,M,30.11,M,10.00,M,CLR,M,M,M,M,M,M,M,M,KCWI 010440Z AUTO 32005KT 10SM CLR A3011 RMK MADISHF
CWI,2017-04-01 04:45,-90.3328,41.8295,M,M,M,320.00,5.00,M,30.11,M,10.00,M,CLR,M,M,M,M,M,M,M,M,KCWI 010445Z AUTO 32005KT 10SM CLR A3011 RMK MADISHF
CWI,2017-04-01 04:55,-90.3328,41.8295,M,M,M,320.00,5.00,M,30.11,M,10.00,M,CLR,M,M,M,M,M,M,M,M,KCWI 010455Z AUTO 32005KT 10SM CLR A3011 RMK MADISHF
CWI,2017-04-01 04:56,-90.3328,41.8295,33.10,32.00,95.67,330.00,5.00,0.00,30.11,1022.40,10.00,M,CLR,M,M,M,M,M,M,M,M,KCWI 010456Z AUTO 33005KT 10SM CLR 01/00 A3011 RMK AO2 SLP224 T00060000 400610006 FZRANO
CWI,2017-04-01 05:00,-90.3328,41.8295,M,M,M,330.00,5.00,M,30.11,M,10.00,M,CLR,M,M,M,M,M,M,M,M,KCWI 010500Z AUTO 33005KT 10SM CLR A3011 RMK MADISHF
CWI,2017-04-01 05:05,-90.3328,41.8295,M,M,M,310.00,5.00,M,30.12,M,10.00,M,CLR,M,M,M,M,M,M,M,M,KCWI 010505Z AUTO 31005KT 10SM CLR A3012 RMK MADISHF
CWI,2017-04-01 05:10,-90.3328,41.8295,M,M,M,310.00,5.00,M,30.12,M,10.00,M,CLR,M,M,M,M,M,M,M,M,KCWI 010510Z AUTO 31005KT 10SM CLR A3012 RMK MADISHF
CWI,2017-04-01 05:15,-90.3328,41.8295,M,M,M,300.00,5.00,M,30.12,M,10.00,M,CLR,M,M,M,M,M,M,M,M,KCWI 010515Z AUTO 30005KT 10SM CLR A3012 RMK MADISHF
CWI,2017-04-01 05:20,-90.3328,41.8295,M,M,M,300.00,5.00,M,30.12,M,10.00,M,CLR,M,M,M,M,M,M,M,M,KCWI 010520Z AUTO 30005KT 10SM CLR A3012 RMK MADISHF
CWI,2017-04-01 05:25,-90.3328,41.8295,M,M,M,310.00,5.00,M,30.12,M,10.00,M,CLR,M,M,M,M,M,M,M,M,KCWI 010525Z AUTO 31005KT 10SM CLR A3012 RMK MADISHF
CWI,2017-04-01 05:30,-90.3328,41.8295,M,M,M,320.00,5.00,M,30.13,M,10.00,M,CLR,M,M,M,M,M,M,M,M,KCWI 010530Z AUTO 32005KT 10SM CLR A3013 RMK MADISHF
CWI,2017-04-01 05:40,-90.3328,41.8295,M,M,M,320.00,5.00,M,30.13,M,10.00,M,CLR,M,M,M,M,M,M,M,M,KCWI 010540Z AUTO 32005KT 10SM CLR A3013 RMK MADISHF
CWI,2017-04-01 05:45,-90.3328,41.8295,M,M,M,310.00,5.00,M,30.13,M,10.00,M,CLR,M,M,M,M,M,M,M,M,KCWI 010545Z AUTO 31005KT 10SM CLR A3013 RMK MADISHF
CWI,2017-04-01 05:50,-90.3328,41.8295,M,M,M,310.00,5.00,M,30.13,M,10.00,M,CLR,M,M,M,M,M,M,M,M,KCWI 010550Z AUTO 31005KT 10SM CLR A3013 RMK MADISHF
CWI,2017-04-01 05:55,-90.3328,41.8295,M,M,M,310.00,6.00,M,30.13,M,10.00,M,CLR,M,M,M,M,M,M,M,M,KCWI 010555Z AUTO 31006KT 10SM CLR A3013 RMK MADISHF
CWI,2017-04-01 05:56,-90.3328,41.8295,33.10,32.00,95.67,310.00,6.00,0.00,30.13,1023.10,10.00,M,CLR,M,M,M,M,M,M,M,M,KCWI 010556Z AUTO 31006KT 10SM CLR 01/00 A3013 RMK AO2 SLP231 T00060000 10056 20000 51020 FZRANO
CWI,2017-04-01 06:00,-90.3328,41.8295,M,M,M,310.00,6.00,M,30.13,M,10.00,M,CLR,M,M,M,M,M,M,M,M,KCWI 010600Z AUTO 31006KT 10SM CLR A3013 RMK MADISHF
CWI,2017-04-01 06:05,-90.3328,41.8295,M,M,M,310.00,5.00,M,30.13,M,10.00,M,CLR,M,M,M,M,M,M,M,M,KCWI 010605Z AUTO 31005KT 10SM CLR A3013 RMK MADISHF
CWI,2017-04-01 06:10,-90.3328,41.8295,M,M,M,310.00,5.00,M,30.13,M,10.00,M,CLR,M,M,M,M,M,M,M,M,KCWI 010610Z AUTO 31005KT 10SM CLR A3013 RMK MADISHF
CWI,2017-04-01 06:20,-90.3328,41.8295,M,M,M,300.00,6.00,M,30.14,M,10.00,M,CLR,M,M,M,M,M,M,M,M,KCWI 010620Z AUTO 30006KT 10SM CLR A3014 RMK MADISHF
CWI,2017-04-01 06:25,-90.3328,41.8295,M,M,M,290.00,6.00,M,30.14,M,10.00,M,CLR,M,M,M,M,M,M,M,M,KCWI 010625Z AUTO 29006KT 10SM CLR A3014 RMK MADISHF
CWI,2017-04-01 06:30,-90.3328,41.8295,M,M,M,290.00,5.00,M,30.14,M,10.00,M,CLR,M,M,M,M,M,M,M,M,KCWI 010630Z AUTO 29005KT 10SM CLR A3014 RMK MADISHF
CWI,2017-04-01 06:35,-90.3328,41.8295,M,M,M,280.00,6.00,M,30.15,M,10.00,M,CLR,M,M,M,M,M,M,M,M,KCWI 010635Z AUTO 28006KT 10SM CLR A3015 RMK MADISHF
CWI,2017-04-01 06:40,-90.3328,41.8295,M,M,M,280.00,5.00,M,30.15,M,10.00,M,CLR,M,M,M,M,M,M,M,M,KCWI 010640Z AUTO 28005KT 10SM CLR A3015 RMK MADISHF
CWI,2017-04-01 06:45,-90.3328,41.8295,M,M,M,280.00,4.00,M,30.15,M,10.00,M,CLR,M,M,M,M,M,M,M,M,KCWI 010645Z AUTO 28004KT 10SM CLR A3015 RMK MADISHF
CWI,2017-04-01 06:50,-90.3328,41.8295,M,M,M,290.00,4.00,M,30.15,M,10.00,M,CLR,M,M,M,M,M,M,M,M,KCWI 010650Z AUTO 29004KT 10SM CLR A3015 RMK MADISHF
CWI,2017-04-01 06:55,-90.3328,41.8295,M,M,M,300.00,5.00,M,30.15,M,10.00,M,CLR,M,M,M,M,M,M,M,M,KCWI 010655Z AUTO 30005KT 10SM CLR A3015 RMK MADISHF
CWI,2017-04-01 06:56,-90.3328,41.8295,32.00,30.90,95.65,300.00,5.00,0.00,30.15,1023.60,10.00,M,CLR,M,M,M,M,M,M,M,M,KCWI 010656Z AUTO 30005KT 10SM CLR 00/M01 A3015 RMK AO2 SLP236 T00001006 FZRANO
CWI,2017-04-01 07:00,-90.3328,41.8295,M,M,M,310.00,4.00,M,30.15,M,10.00,M,CLR,M,M,M,M,M,M,M,M,KCWI 010700Z AUTO 31004KT 10SM CLR A3015 RMK MADISHF
CWI,2017-04-01 07:05,-90.3328,41.8295,M,M,M,300.00,4.00,M,30.15,M,10.00,M,CLR,M,M,M,M,M,M,M,M,KCWI 010705Z AUTO 30004KT 10SM CLR A3015 RMK MADISHF
CWI,2017-04-01 07:10,-90.3328,41.8295,M,M,M,300.00,4.00,M,30.15,M,10.00,M,CLR,M,M,M,M,M,M,M,M,KCWI 010710Z AUTO 30004KT 10SM CLR A3015 RMK MADISHF
CWI,2017-04-01 07:15,-90.3328,41.8295,M,M,M,320.00,4.00,M,30.14,M,10.00,M,CLR,M,M,M,M,M,M,M,M,KCWI 010715Z AUTO 32004KT 10SM CLR A3014 RMK MADISHF
CWI,2017-04-01 07:20,-90.3328,41.8295,M,M,M,310.00,3.00,M,30.15,M,10.00,M,CLR,M,M,M,M,M,M,M,M,KCWI 010720Z AUTO 31003KT 10SM CLR A3015 RMK MADISHF
CWI,2017-04-01 07:25,-90.3328,41.8295,M,M,M,0.00,0.00,M,30.15,M,10.00,M,CLR,M,M,M,M,M,M,M,M,KCWI 010725Z AUTO 00000KT 10SM CLR A3015 RMK MADISHF
CWI,2017-04-01 07:30,-90.3328,41.8295,M,M,M,320.00,3.00,M,30.15,M,10.00,M,CLR,M,M,M,M,M,M,M,M,KCWI 010730Z AUTO 32003KT 10SM CLR A3015 RMK MADISHF
CWI,2017-04-01 07:35,-90.3328,41.8295,M,M,M,330.00,4.00,M,30.15,M,10.00,M,CLR,M,M,M,M,M,M,M,M,KCWI 010735Z AUTO 33004KT 10SM CLR A3015 RMK MADISHF
CWI,2017-04-01 07:40,-90.3328,41.8295,M,M,M,340.00,5.00,M,30.15,M,10.00,M,CLR,M,M,M,M,M,M,M,M,KCWI 010740Z AUTO 34005KT 10SM CLR A3015 RMK MADISHF
CWI,2017-04-01 07:45,-90.3328,41.8295,M,M,M,330.00,5.00,M,30.15,M,10.00,M,CLR,M,M,M,M,M,M,M,M,KCWI 010745Z AUTO 33005KT 10SM CLR A3015 RMK MADISHF
CWI,2017-04-01 07:50,-90.3328,41.8295,M,M,M,320.00,5.00,M,30.15,M,10.00,M,CLR,M,M,M,M,M,M,M,M,KCWI 010750Z AUTO 32005KT 10SM CLR A3015 RMK MADISHF
CWI,2017-04-01 07:55,-90.3328,41.8295,M,M,M,320.00,5.00,M,30.16,M,10.00,M,CLR,M,M,M,M,M,M,M,M,KCWI 010755Z AUTO 32005KT 10SM CLR A3016 RMK MADISHF
CWI,2017-04-01 07:56,-90.3328,41.8295,33.10,32.00,95.67,330.00,5.00,0.00,30.16,1024.20,10.00,M,CLR,M,M,M,M,M,M,M,M,KCWI 010756Z AUTO 33005KT 10SM CLR 01/00 A3016 RMK AO2 SLP242 T00060000 FZRANO
CWI,2017-04-01 08:05,-90.3328,41.8295,M,M,M,320.00,8.00,M,30.16,M,10.00,M,CLR,M,M,M,M,M,M,M,M,KCWI 010805Z AUTO 32008KT 10SM CLR A3016 RMK MADISHF
CWI,2017-04-01 08:10,-90.3328,41.8295,M,M,M,320.00,7.00,M,30.16,M,10.00,M,CLR,M,M,M,M,M,M,M,M,KCWI 010810Z AUTO 32007KT 10SM CLR A3016 RMK MADISHF
CWI,2017-04-01 08:15,-90.3328,41.8295,M,M,M,320.00,7.00,M,30.16,M,10.00,M,CLR,M,M,M,M,M,M,M,M,KCWI 010815Z AUTO 32007KT 10SM CLR A3016 RMK MADISHF
CWI,2017-04-01 08:20,-90.3328,41.8295,M,M,M,320.00,6.00,M,30.16,M,10.00,M,CLR,M,M,M,M,M,M,M,M,KCWI 010820Z AUTO 32006KT 10SM CLR A3016 RMK MADISHF
CWI,2017-04-01 08:25,-90.3328,41.8295,M,M,M,330.00,5.00,M,30.16,M,10.00,M,CLR,M,M,M,M,M,M,M,M,KCWI 010825Z AUTO 33005KT 10SM CLR A3016 RMK MADISHF
CWI,2017-04-01 08:30,-90.3328,41.8295,M,M,M,330.00,6.00,M,30.16,M,10.00,M,CLR,M,M,M,M,M,M,M,M,KCWI 010830Z AUTO 33006KT 10SM CLR A3016 RMK MADISHF
CWI,2017-04-01 08:35,-90.3328,41.8295,M,M,M,350.00,4.00,M,30.16,M,10.00,M,CLR,M,M,M,M,M,M,M,M,KCWI 010835Z AUTO 35004KT 10SM CLR A3016 RMK MADISHF
CWI,2017-04-01 08:40,-90.3328,41.8295,M,M,M,350.00,3.00,M,30.16,M,10.00,M,CLR,M,M,M,M,M,M,M,M,KCWI 010840Z AUTO 35003KT 10SM CLR A3016 RMK MADISHF
CWI,2017-04-01 08:45,-90.3328,41.8295,M,M,M,0.00,0.00,M,30.16,M,10.00,M,CLR,M,M,M,M,M,M,M,M,KCWI 010845Z AUTO 00000KT 10SM CLR A3016 RMK MADISHF
CWI,2017-04-01 08:50,-90.3328,41.8295,M,M,M,0.00,0.00,M,30.16,M,10.00,M,CLR,M,M,M,M,M,M,M,M,KCWI 010850Z AUTO 00000KT 10SM CLR A3016 RMK MADISHF
CWI,2017-04-01 08:55,-90.3328,41.8295,M,M,M,0.00,0.00,M,30.16,M,10.00,M,CLR,M,M,M,M,M,M,M,M,KCWI 010855Z AUTO 00000KT 10SM CLR A3016 RMK MADISHF
CWI,2017-04-01 08:56,-90.3328,41.8295,32.00,30.90,95.65,260.00,3.00,0.00,30.16,1024.40,10.00,M,CLR,M,M,M,M,M,M,M,M,KCWI 010856Z AUTO 26003KT 10SM CLR 00/M01 A3016 RMK AO2 SLP244 T00001006 51010 FZRANO
CWI,2017-04-01 09:00,-90.3328,41.8295,M,M,M,280.00,3.00,M,30.16,M,10.00,M,CLR,M,M,M,M,M,M,M,M,KCWI 010900Z AUTO 28003KT 10SM CLR A3016 RMK MADISHF
CWI,2017-04-01 09:05,-90.3328,41.8295,M,M,M,300.00,3.00,M,30.16,M,10.00,M,CLR,M,M,M,M,M,M,M,M,KCWI 010905Z AUTO 30003KT 10SM CLR A3016 RMK MADISHF
CWI,2017-04-01 09:15,-90.3328,41.8295,M,M,M,270.00,4.00,M,30.16,M,10.00,M,CLR,M,M,M,M,M,M,M,M,KCWI 010915Z AUTO 27004KT 10SM CLR A3016 RMK MADISHF
CWI,2017-04-01 09:20,-90.3328,41.8295,M,M,M,270.00,5.00,M,30.17,M,10.00,M,CLR,M,M,M,M,M,M,M,M,KCWI 010920Z AUTO 27005KT 10SM CLR A3017 RMK MADISHF
CWI,2017-04-01 09:25,-90.3328,41.8295,M,M,M,290.00,4.00,M,30.17,M,10.00,M,CLR,M,M,M,M,M,M,M,M,KCWI 010925Z AUTO 29004KT 10SM CLR A3017 RMK MADISHF
CWI,2017-04-01 09:30,-90.3328,41.8295,M,M,M,300.00,3.00,M,30.17,M,10.00,M,CLR,M,M,M,M,M,M,M,M,KCWI 010930Z AUTO 30003KT 10SM CLR A3017 RMK MADISHF
CWI,2017-04-01 09:35,-90.3328,41.8295,M,M,M,300.00,3.00,M,30.17,M,10.00,M,CLR,M,M,M,M,M,M,M,M,KCWI 010935Z AUTO 30003KT 10SM CLR A3017 RMK MADISHF
CWI,2017-04-01 09:40,-90.3328,41.8295,M,M,M,290.00,4.00,M,30.17,M,10.00,M,CLR,M,M,M,M,M,M,M,M,KCWI 010940Z AUTO 29004KT 10SM CLR A3017 RMK MADISHF
CWI,2017-04-01 09:45,-90.3328,41.8295,M,M,M,280.00,3.00,M,30.17,M,10.00,M,CLR,M,M,M,M,M,M,M,M,KCWI 010945Z AUTO 28003KT 10SM CLR A3017 RMK MADISHF
CWI,2017-04-01 09:50,-90.3328,41.8295,M,M,M,270.00,4.00,M,30.17,M,10.00,M,CLR,M,M,M,M,M,M,M,M,KCWI 010950Z AUTO 27004KT 10SM CLR A3017 RMK MADISHF
CWI,2017-04-01 09:55,-90.3328,41.8295,M,M,M,270.00,4.00,M,30.17,M,10.00,M,CLR,M,M,M,M,M,M,M,M,KCWI 010955Z AUTO 27004KT 10SM CLR A3017 RMK MADISHF
CWI,2017-04-01 09:56,-90.3328,41.8295,30.90,30.00,96.41,260.00,4.00,0.00,30.17,1024.30,10.00,M,CLR,M,M,M,M,M,M,M,M,KCWI 010956Z AUTO 26004KT 10SM CLR M01/M01 A3017 RMK AO2 SLP243 T10061011 FZRANO
CWI,2017-04-01 10:00,-90.3328,41.8295,M,M,M,260.00,3.00,M,30.17,M,10.00,M,CLR,M,M,M,M,M,M,M,M,KCWI 011000Z AUTO 26003KT 10SM CLR A3017 RMK MADISHF
CWI,2017-04-01 10:05,-90.3328,41.8295,M,M,M,270.00,4.00,M,30.17,M,10.00,M,CLR,M,M,M,M,M,M,M,M,KCWI 011005Z AUTO 27004KT 10SM CLR A3017 RMK MADISHF
CWI,2017-04-01 10:10,-90.3328,41.8295,M,M,M,270.00,4.00,M,30.17,M,10.00,M,CLR,M,M,M,M,M,M,M,M,KCWI 011010Z AUTO 27004KT 10SM CLR A3017 RMK MADISHF
CWI,2017-04-01 10:15,-90.3328,41.8295,M,M,M,280.00,4.00,M,30.17,M,10.00,M,CLR,M,M,M,M,M,M,M,M,KCWI 011015Z AUTO 28004KT 10SM CLR A3017 RMK MADISHF
CWI,2017-04-01 10:20,-90.3328,41.8295,M,M,M,290.00,4.00,M,30.18,M,10.00,M,CLR,M,M,M,M,M,M,M,M,KCWI 011020Z AUTO 29004KT 10SM CLR A3018 RMK MADISHF
CWI,2017-04-01 10:25,-90.3328,41.8295,M,M,M,290.00,3.00,M,30.18,M,10.00,M,CLR,M,M,M,M,M,M,M,M,KCWI 011025Z AUTO 29003KT 10SM CLR A3018 RMK MADISHF
CWI,2017-04-01 10:30,-90.3328,41.8295,M,M,M,280.00,3.00,M,30.18,M,10.00,M,CLR,M,M,M,M,M,M,M,M,KCWI 011030Z AUTO 28003KT 10SM CLR A3018 RMK MADISHF
CWI,2017-04-01 10:35,-90.3328,41.8295,M,M,M,280.00,4.00,M,30.18,M,10.00,M,CLR,M,M,M,M,M,M,M,M,KCWI 011035Z AUTO 28004KT 10SM CLR A3018 RMK MADISHF
CWI,2017-04-01 10:40,-90.3328,41.8295,M,M,M,290.00,4.00,M,30.18,M,10.00,M,CLR,M,M,M,M,M,M,M,M,KCWI 011040Z AUTO 29004KT 10SM CLR A3018 RMK MADISHF
CWI,2017-04-01 10:45,-90.3328,41.8295,M,M,M,290.00,5.00,M,30.19,M,10.00,M,CLR,M,M,M,M,M,M,M,M,KCWI 011045Z AUTO 29005KT 10SM CLR A3019 RMK MADISHF
CWI,2017-04-01 10:50,-90.3328,41.8295,M,M,M,290.00,5.00,M,30.18,M,10.00,M,CLR,M,M,M,M,M,M,M,M,KCWI 011050Z AUTO 29005KT 10SM CLR A3018 RMK MADISHF
CWI,2017-04-01 10:55,-90.3328,41.8295,M,M,M,280.00,5.00,M,30.19,M,10.00,M,CLR,M,M,M,M,M,M,M,M,KCWI 011055Z AUTO 28005KT 10SM CLR A3019 RMK MADISHF
CWI,2017-04-01 10:56,-90.3328,41.8295,30.90,30.00,96.41,280.00,5.00,0.00,30.19,1024.90,10.00,M,CLR,M,M,M,M,M,M,M,M,KCWI 011056Z AUTO 28005KT 10SM CLR M01/M01 A3019 RMK AO2 SLP249 T10061011 FZRANO
CWI,2017-04-01 11:00,-90.3328,41.8295,M,M,M,280.00,5.00,M,30.19,M,10.00,M,CLR,M,M,M,M,M,M,M,M,KCWI 011100Z AUTO 28005KT 10SM CLR A3019 RMK MADISHF
CWI,2017-04-01 11:05,-90.3328,41.8295,M,M,M,280.00,5.00,M,30.19,M,10.00,M,CLR,M,M,M,M,M,M,M,M,KCWI 011105Z AUTO 28005KT 10SM CLR A3019 RMK MADISHF
CWI,2017-04-01 11:10,-90.3328,41.8295,M,M,M,270.00,5.00,M,30.19,M,10.00,M,CLR,M,M,M,M,M,M,M,M,KCWI 011110Z AUTO 27005KT 10SM CLR A3019 RMK MADISHF
CWI,2017-04-01 11:15,-90.3328,41.8295,M,M,M,280.00,5.00,M,30.19,M,10.00,M,CLR,M,M,M,M,M,M,M,M,KCWI 011115Z AUTO 28005KT 10SM CLR A3019 RMK MADISHF
CWI,2017-04-01 11:20,-90.3328,41.8295,M,M,M,280.00,5.00,M,30.19,M,10.00,M,CLR,M,M,M,M,M,M,M,M,KCWI 011120Z AUTO 28005KT 10SM CLR A3019 RMK MADISHF
CWI,2017-04-01 11:25,-90.3328,41.8295,M,M,M,280.00,3.00,M,30.19,M,10.00,M,CLR,M,M,M,M,M,M,M,M,KCWI 011125Z AUTO 28003KT 10SM CLR A3019 RMK MADISHF
CWI,2017-04-01 11:30,-90.3328,41.8295,M,M,M,280.00,3.00,M,30.19,M,10.00,M,CLR,M,M,M,M,M,M,M,M,KCWI 011130Z AUTO 28003KT 10SM CLR A3019 RMK MADISHF
CWI,2017-04-01 11:35,-90.3328,41.8295,M,M,M,280.00,4.00,M,30.19,M,10.00,M,CLR,M,M,M,M,M,M,M,M,KCWI 011135Z AUTO 28004KT 10SM CLR A3019 RMK MADISHF
CWI,2017-04-01 11:40,-90.3328,41.8295,M,M,M,290.00,4.00,M,30.19,M,10.00,M,CLR,M,M,M,M,M,M,M,M,KCWI 011140Z AUTO 29004KT 10SM CLR A3019 RMK MADISHF
CWI,2017-04-01 11:45,-90.3328,41.8295,M,M,M,290.00,5.00,M,30.20,M,10.00,M,CLR,M,M,M,M,M,M,M,M,KCWI 011145Z AUTO 29005KT 10SM CLR A3020 RMK MADISHF
CWI,2017-04-01 11:50,-90.3328,41.8295,M,M,M,290.00,5.00,M,30.20,M,10.00,M,CLR,M,M,M,M,M,M,M,M,KCWI 011150Z AUTO 29005KT 10SM CLR A3020 RMK MADISHF
CWI,2017-04-01 11:55,-90.3328,41.8295,M,M,M,290.00,5.00,M,30.20,M,10.00,M,CLR,M,M,M,M,M,M,M,M,KCWI 011155Z AUTO 29005KT 10SM CLR A3020 RMK MADISHF
CWI,2017-04-01 11:56,-90.3328,41.8295,30.90,30.90,100.00,280.00,5.00,0.00,30.20,1025.50,10.00,M,CLR,M,M,M,M,M,M,M,M,KCWI 011156Z AUTO 28005KT 10SM CLR M01/M01 A3020 RMK AO2 SLP255 T10061006 10011 21006 53013 FZRANO
CWI,2017-04-01 12:00,-90.3328,41.8295,M,M,M,270.00,4.00,M,30.20,M,10.00,M,CLR,M,M,M,M,M,M,M,M,KCWI 011200Z AUTO 27004KT 10SM CLR A3020 RMK MADISHF
CWI,2017-04-01 12:05,-90.3328,41.8295,M,M,M,290.00,3.00,M,30.21,M,10.00,M,CLR,M,M,M,M,M,M,M,M,KCWI 011205Z AUTO 29003KT 10SM CLR A3021 RMK MADISHF
CWI,2017-04-01 12:10,-90.3328,41.8295,M,M,M,290.00,4.00,M,30.21,M,10.00,M,CLR,M,M,M,M,M,M,M,M,KCWI 011210Z AUTO 29004KT 10SM CLR A3021 RMK MADISHF
CWI,2017-04-01 12:15,-90.3328,41.8295,M,M,M,300.00,4.00,M,30.21,M,10.00,M,CLR,M,M,M,M,M,M,M,M,KCWI 011215Z AUTO 30004KT 10SM CLR A3021 RMK MADISHF
CWI,2017-04-01 12:20,-90.3328,41.8295,M,M,M,300.00,4.00,M,30.22,M,10.00,M,CLR,M,M,M,M,M,M,M,M,KCWI 011220Z AUTO 30004KT 10SM CLR A3022 RMK MADISHF
CWI,2017-04-01 12:25,-90.3328,41.8295,M,M,M,300.00,4.00,M,30.22,M,10.00,M,CLR,M,M,M,M,M,M,M,M,KCWI 011225Z AUTO 30004KT 10SM CLR A3022 RMK MADISHF
CWI,2017-04-01 12:30,-90.3328,41.8295,M,M,M,280.00,3.00,M,30.22,M,10.00,M,CLR,M,M,M,M,M,M,M,M,KCWI 011230Z AUTO 28003KT 10SM CLR A3022 RMK MADISHF
CWI,2017-04-01 12:40,-90.3328,41.8295,M,M,M,260.00,3.00,M,30.23,M,10.00,M,CLR,M,M,M,M,M,M,M,M,KCWI 011240Z AUTO 26003KT 10SM CLR A3023 RMK MADISHF
CWI,2017-04-01 12:45,-90.3328,41.8295,M,M,M,270.00,4.00,M,30.24,M,10.00,M,CLR,M,M,M,M,M,M,M,M,KCWI 011245Z AUTO 27004KT 10SM CLR A3024 RMK MADISHF
CWI,2017-04-01 12:50,-90.3328,41.8295,M,M,M,270.00,4.00,M,30.24,M,10.00,M,CLR,M,M,M,M,M,M,M,M,KCWI 011250Z AUTO 27004KT 10SM CLR A3024 RMK MADISHF
CWI,2017-04-01 12:55,-90.3328,41.8295,M,M,M,270.00,3.00,M,30.24,M,9.00,M,CLR,M,M,M,M,M,M,M,M,KCWI 011255Z AUTO 27003KT 9SM CLR A3024 RMK MADISHF
CWI,2017-04-01 12:56,-90.3328,41.8295,36.00,34.00,92.35,280.00,3.00,0.00,30.24,1027.00,9.00,M,CLR,M,M,M,M,M,M,M,M,KCWI 011256Z AUTO 28003KT 9SM CLR 02/01 A3024 RMK AO2 SLP270 T00220011 FZRANO
CWI,2017-04-01 13:00,-90.3328,41.8295,M,M,M,290.00,3.00,M,30.24,M,9.00,M,CLR,M,M,M,M,M,M,M,M,KCWI 011300Z AUTO 29003KT 9SM CLR A3024 RMK MADISHF
CWI,2017-04-01 13:05,-90.3328,41.8295,M,M,M,280.00,3.00,M,30.24,M,10.00,M,CLR,M,M,M,M,M,M,M,M,KCWI 011305Z AUTO 28003KT 10SM CLR A3024 RMK MADISHF
CWI,2017-04-01 13:10,-90.3328,41.8295,M,M,M,280.00,3.00,M,30.25,M,10.00,M,CLR,M,M,M,M,M,M,M,M,KCWI 011310Z AUTO 28003KT 10SM CLR A3025 RMK MADISHF
CWI,2017-04-01 13:15,-90.3328,41.8295,M,M,M,270.00,3.00,M,30.25,M,10.00,M,CLR,M,M,M,M,M,M,M,M,KCWI 011315Z AUTO 27003KT 10SM CLR A3025 RMK MADISHF
CWI,2017-04-01 13:20,-90.3328,41.8295,M,M,M,270.00,3.00,M,30.25,M,10.00,M,CLR,M,M,M,M,M,M,M,M,KCWI 011320Z AUTO 27003KT 10SM CLR A3025 RMK MADISHF
CWI,2017-04-01 13:25,-90.3328,41.8295,M,M,M,260.00,4.00,M,30.25,M,10.00,M,CLR,M,M,M,M,M,M,M,M,KCWI 011325Z AUTO 26004KT 10SM CLR A3025 RMK MADISHF
CWI,2017-04-01 13:30,-90.3328,41.8295,M,M,M,260.00,4.00,M,30.25,M,10.00,M,CLR,M,M,M,M,M,M,M,M,KCWI 011330Z AUTO 26004KT 10SM CLR A3025 RMK MADISHF
CWI,2017-04-01 13:35,-90.3328,41.8295,M,M,M,280.00,4.00,M,30.25,M,10.00,M,CLR,M,M,M,M,M,M,M,M,KCWI 011335Z AUTO 28004KT 10SM CLR A3025 RMK MADISHF
CWI,2017-04-01 13:40,-90.3328,41.8295,M,M,M,270.00,4.00,M,30.25,M,10.00,M,CLR,M,M,M,M,M,M,M,M,KCWI 011340Z AUTO 27004KT 10SM CLR A3025 RMK MADISHF
CWI,2017-04-01 13:45,-90.3328,41.8295,M,M,M,260.00,3.00,M,30.25,M,10.00,M,CLR,M,M,M,M,M,M,M,M,KCWI 011345Z AUTO 26003KT 10SM CLR A3025 RMK MADISHF
CWI,2017-04-01 13:50,-90.3328,41.8295,M,M,M,270.00,3.00,M,30.25,M,10.00,M,CLR,M,M,M,M,M,M,M,M,KCWI 011350Z AUTO 27003KT 10SM CLR A3025 RMK MADISHF
CWI,2017-04-01 13:55,-90.3328,41.8295,M,M,M,260.00,3.00,M,30.25,M,10.00,M,CLR,M,M,M,M,M,M,M,M,KCWI 011355Z AUTO 26003KT 10SM CLR A3025 RMK MADISHF
CWI,2017-04-01 13:56,-90.3328,41.8295,39.00,37.00,92.45,270.00,3.00,0.00,30.25,1027.30,10.00,M,CLR,M,M,M,M,M,M,M,M,KCWI 011356Z AUTO 27003KT 10SM CLR 04/03 A3025 RMK AO2 SLP273 T00390028
CWI,2017-04-01 14:00,-90.3328,41.8295,M,M,M,270.00,3.00,M,30.25,M,10.00,M,CLR,M,M,M,M,M,M,M,M,KCWI 011400Z AUTO 27003KT 10SM CLR A3025 RMK MADISHF
CWI,2017-04-01 14:05,-90.3328,41.8295,M,M,M,280.00,3.00,M,30.25,M,10.00,M,CLR,M,M,M,M,M,M,M,M,KCWI 011405Z AUTO 28003KT 10SM CLR A3025 RMK MADISHF
CWI,2017-04-01 14:10,-90.3328,41.8295,M,M,M,280.00,4.00,M,30.25,M,10.00,M,CLR,M,M,M,M,M,M,M,M,KCWI 011410Z AUTO 28004KT 10SM CLR A3025 RMK MADISHF
CWI,2017-04-01 14:15,-90.3328,41.8295,M,M,M,280.00,4.00,M,30.25,M,10.00,M,CLR,M,M,M,M,M,M,M,M,KCWI 011415Z AUTO 28004KT 10SM CLR A3025 RMK MADISHF
CWI,2017-04-01 14:20,-90.3328,41.8295,M,M,M,280.00,4.00,M,30.25,M,10.00,M,CLR,M,M,M,M,M,M,M,M,KCWI 011420Z AUTO 28004KT 10SM CLR A3025 RMK MADISHF
CWI,2017-04-01 14:25,-90.3328,41.8295,M,M,M,290.00,4.00,M,30.25,M,10.00,M,CLR,M,M,M,M,M,M,M,M,KCWI 011425Z AUTO 29004KT 10SM CLR A3025 RMK MADISHF
CWI,2017-04-01 14:30,-90.3328,41.8295,M,M,M,300.00,3.00,M,30.25,M,10.00,M,CLR,M,M,M,M,M,M,M,M,KCWI 011430Z AUTO 30003KT 10SM CLR A3025 RMK MADISHF
CWI,2017-04-01 14:35,-90.3328,41.8295,M,M,M,310.00,3.00,M,30.24,M,10.00,M,CLR,M,M,M,M,M,M,M,M,KCWI 011435Z AUTO 31003KT 10SM CLR A3024 RMK MADISHF
CWI,2017-04-01 14:40,-90.3328,41.8295,M,M,M,300.00,3.00,M,30.24,M,10.00,M,CLR,M,M,M,M,M,M,M,M,KCWI 011440Z AUTO 30003KT 10SM CLR A3024 RMK MADISHF
CWI,2017-04-01 14:45,-90.3328,41.8295,M,M,M,320.00,3.00,M,30.24,M,10.00,M,CLR,M,M,M,M,M,M,M,M,KCWI 011445Z AUTO 32003KT 10SM CLR A3024 RMK MADISHF
CWI,2017-04-01 14:50,-90.3328,41.8295,M,M,M,300.00,4.00,M,30.24,M,10.00,M,CLR,M,M,M,M,M,M,M,M,KCWI 011450Z AUTO 30004KT 10SM CLR A3024 RMK MADISHF
CWI,2017-04-01 14:55,-90.3328,41.8295,M,M,M,320.00,5.00,M,30.24,M,10.00,M,CLR,M,M,M,M,M,M,M,M,KCWI 011455Z AUTO 32005KT 10SM CLR A3024 RMK MADISHF
CWI,2017-04-01 14:56,-90.3328,41.8295,46.90,41.00,79.82,310.00,6.00,0.00,30.24,1027.00,10.00,M,CLR,M,M,M,M,M,M,M,M,KCWI 011456Z AUTO 31006KT 10SM CLR 08/05 A3024 RMK AO2 SLP270 T00830050 50014
CWI,2017-04-01 15:00,-90.3328,41.8295,M,M,M,310.00,7.00,M,30.24,M,10.00,M,CLR,M,M,M,M,M,M,M,M,KCWI 011500Z AUTO 31007KT 10SM CLR A3024 RMK MADISHF
CWI,2017-04-01 15:05,-90.3328,41.8295,M,M,M,320.00,8.00,M,30.24,M,10.00,M,CLR,M,M,M,M,M,M,M,M,KCWI 011505Z AUTO 32008KT 10SM CLR A3024 RMK MADISHF
CWI,2017-04-01 15:10,-90.3328,41.8295,M,M,M,320.00,6.00,M,30.24,M,10.00,M,CLR,M,M,M,M,M,M,M,M,KCWI 011510Z AUTO 32006KT 10SM CLR A3024 RMK MADISHF
CWI,2017-04-01 15:15,-90.3328,41.8295,M,M,M,310.00,6.00,M,30.25,M,10.00,M,CLR,M,M,M,M,M,M,M,M,KCWI 011515Z AUTO 31006KT 10SM CLR A3025 RMK MADISHF
CWI,2017-04-01 15:20,-90.3328,41.8295,M,M,M,300.00,5.00,M,30.25,M,10.00,M,CLR,M,M,M,M,M,M,M,M,KCWI 011520Z AUTO 30005KT 10SM CLR A3025 RMK MADISHF
CWI,2017-04-01 15:25,-90.3328,41.8295,M,M,M,300.00,4.00,M,30.25,M,10.00,M,CLR,M,M,M,M,M,M,M,M,KCWI 011525Z AUTO 30004KT 10SM CLR A3025 RMK MADISHF
CWI,2017-04-01 15:30,-90.3328,41.8295,M,M,M,280.00,6.00,M,30.25,M,10.00,M,CLR,M,M,M,M,M,M,M,M,KCWI 011530Z AUTO 28006KT 10SM CLR A3025 RMK MADISHF
CWI,2017-04-01 15:35,-90.3328,41.8295,M,M,M,280.00,6.00,M,30.25,M,10.00,M,CLR,M,M,M,M,M,M,M,M,KCWI 011535Z AUTO 28006KT 10SM CLR A3025 RMK MADISHF
CWI,2017-04-01 15:40,-90.3328,41.8295,M,M,M,310.00,6.00,M,30.25,M,10.00,M,CLR,M,M,M,M,M,M,M,M,KCWI 011540Z AUTO 31006KT 10SM CLR A3025 RMK MADISHF
CWI,2017-04-01 15:45,-90.3328,41.8295,M,M,M,280.00,6.00,M,30.25,M,10.00,M,CLR,M,M,M,M,M,M,M,M,KCWI 011545Z AUTO 28006KT 10SM CLR A3025 RMK MADISHF
CWI,2017-04-01 15:50,-90.3328,41.8295,M,M,M,290.00,8.00,M,30.25,M,10.00,M,CLR,M,M,M,M,M,M,M,M,KCWI 011550Z AUTO 29008KT 10SM CLR A3025 RMK MADISHF
CWI,2017-04-01 15:55,-90.3328,41.8295,M,M,M,300.00,8.00,M,30.25,M,10.00,M,CLR,M,M,M,M,M,M,M,M,KCWI 011555Z AUTO 30008KT 10SM CLR A3025 RMK MADISHF
CWI,2017-04-01 15:56,-90.3328,41.8295,51.10,41.00,68.23,300.00,8.00,0.00,30.25,1027.10,10.00,M,CLR,M,M,M,M,M,M,M,M,KCWI 011556Z AUTO 30008KT 10SM CLR 11/05 A3025 RMK AO2 SLP271 T01060050
CWI,2017-04-01 16:00,-90.3328,41.8295,M,M,M,290.00,8.00,M,30.25,M,10.00,M,CLR,M,M,M,M,M,M,M,M,KCWI 011600Z AUTO 29008KT 10SM CLR A3025 RMK MADISHF
CWI,2017-04-01 16:05,-90.3328,41.8295,M,M,M,280.00,7.00,M,30.25,M,10.00,M,CLR,M,M,M,M,M,M,M,M,KCWI 011605Z AUTO 28007KT 10SM CLR A3025 RMK MADISHF
CWI,2017-04-01 16:10,-90.3328,41.8295,M,M,M,280.00,7.00,M,30.25,M,10.00,M,CLR,M,M,M,M,M,M,M,M,KCWI 011610Z AUTO 28007KT 10SM CLR A3025 RMK MADISHF
CWI,2017-04-01 16:15,-90.3328,41.8295,M,M,M,290.00,8.00,M,30.25,M,10.00,M,CLR,M,M,M,M,M,M,M,M,KCWI 011615Z AUTO 29008KT 10SM CLR A3025 RMK MADISHF
CWI,2017-04-01 16:20,-90.3328,41.8295,M,M,M,290.00,6.00,M,30.25,M,10.00,M,CLR,M,M,M,M,M,M,M,M,KCWI 011620Z AUTO 29006KT 10SM CLR A3025 RMK MADISHF
CWI,2017-04-01 16:30,-90.3328,41.8295,M,M,M,300.00,7.00,M,30.25,M,10.00,M,CLR,M,M,M,M,M,M,M,M,KCWI 011630Z AUTO 30007KT 10SM CLR A3025 RMK MADISHF
CWI,2017-04-01 16:35,-90.3328,41.8295,M,M,M,290.00,7.00,M,30.25,M,10.00,M,CLR,M,M,M,M,M,M,M,M,KCWI 011635Z AUTO 29007KT 10SM CLR A3025 RMK MADISHF
CWI,2017-04-01 16:40,-90.3328,41.8295,M,M,M,280.00,8.00,M,30.25,M,10.00,M,CLR,M,M,M,M,M,M,M,M,KCWI 011640Z AUTO 28008KT 10SM CLR A3025 RMK MADISHF
CWI,2017-04-01 16:45,-90.3328,41.8295,M,M,M,310.00,6.00,M,30.25,M,10.00,M,CLR,M,M,M,M,M,M,M,M,KCWI 011645Z AUTO 31006KT 10SM CLR A3025 RMK MADISHF
CWI,2017-04-01 16:50,-90.3328,41.8295,M,M,M,300.00,7.00,M,30.25,M,10.00,M,CLR,M,M,M,M,M,M,M,M,KCWI 011650Z AUTO 30007KT 10SM CLR A3025 RMK MADISHF
CWI,2017-04-01 16:55,-90.3328,41.8295,M,M,M,290.00,7.00,M,30.25,M,10.00,M,CLR,M,M,M,M,M,M,M,M,KCWI 011655Z AUTO 29007KT 10SM CLR A3025 RMK MADISHF
CWI,2017-04-01 16:56,-90.3328,41.8295,53.10,43.00,68.46,280.00,7.00,0.00,30.24,1026.90,10.00,M,CLR,M,M,M,M,M,M,M,M,KCWI 011656Z AUTO 28007KT 10SM CLR 12/06 A3024 RMK AO2 SLP269 T01170061
CWI,2017-04-01 17:00,-90.3328,41.8295,M,M,M,290.00,6.00,M,30.24,M,10.00,M,CLR,M,M,M,M,M,M,M,M,KCWI 011700Z AUTO 29006KT 10SM CLR A3024 RMK MADISHF
CWI,2017-04-01 17:05,-90.3328,41.8295,M,M,M,300.00,5.00,M,30.24,M,10.00,M,CLR,M,M,M,M,M,M,M,M,KCWI 011705Z AUTO 30005KT 10SM CLR A3024 RMK MADISHF
CWI,2017-04-01 17:10,-90.3328,41.8295,M,M,M,300.00,6.00,M,30.24,M,10.00,M,CLR,M,M,M,M,M,M,M,M,KCWI 011710Z AUTO 30006KT 10SM CLR A3024 RMK MADISHF
CWI,2017-04-01 17:15,-90.3328,41.8295,M,M,M,300.00,7.00,M,30.24,M,10.00,M,CLR,M,M,M,M,M,M,M,M,KCWI 011715Z AUTO 30007KT 10SM CLR A3024 RMK MADISHF
CWI,2017-04-01 17:20,-90.3328,41.8295,M,M,M,300.00,6.00,M,30.24,M,10.00,M,CLR,M,M,M,M,M,M,M,M,KCWI 011720Z AUTO 30006KT 10SM CLR A3024 RMK MADISHF
CWI,2017-04-01 17:25,-90.3328,41.8295,M,M,M,300.00,5.00,M,30.24,M,10.00,M,CLR,M,M,M,M,M,M,M,M,KCWI 011725Z AUTO 30005KT 10SM CLR A3024 RMK VRB05KT  MADISHF
CWI,2017-04-01 17:30,-90.3328,41.8295,M,M,M,290.00,8.00,M,30.23,M,10.00,M,CLR,M,M,M,M,M,M,M,M,KCWI 011730Z AUTO 29008KT 10SM CLR A3023 RMK WND 24V33  MADISHF
CWI,2017-04-01 17:35,-90.3328,41.8295,M,M,M,280.00,6.00,M,30.24,M,10.00,M,CLR,M,M,M,M,M,M,M,M,KCWI 011735Z AUTO 28006KT 10SM CLR A3024 RMK MADISHF
CWI,2017-04-01 17:40,-90.3328,41.8295,M,M,M,250.00,7.00,M,30.23,M,10.00,M,CLR,M,M,M,M,M,M,M,M,KCWI 011740Z AUTO 25007KT 10SM CLR A3023 RMK MADISHF
CWI,2017-04-01 17:45,-90.3328,41.8295,M,M,M,310.00,4.00,M,30.23,M,10.00,M,CLR,M,M,M,M,M,M,M,M,KCWI 011745Z AUTO 31004KT 10SM CLR A3023 RMK VRB04KT  MADISHF
CWI,2017-04-01 17:50,-90.3328,41.8295,M,M,M,310.00,5.00,M,30.23,M,10.00,M,CLR,M,M,M,M,M,M,M,M,KCWI 011750Z AUTO 31005KT 10SM CLR A3023 RMK MADISHF
CWI,2017-04-01 17:55,-90.3328,41.8295,M,M,M,270.00,8.00,M,30.23,M,10.00,M,CLR,M,M,M,M,M,M,M,M,KCWI 011755Z AUTO 27008KT 10SM CLR A3023 RMK MADISHF
CWI,2017-04-01 17:56,-90.3328,41.8295,55.00,41.00,59.13,280.00,8.00,0.00,30.23,1026.60,10.00,M,CLR,M,M,M,M,M,M,M,M,KCWI 011756Z AUTO 28008KT 10SM CLR 13/05 A3023 RMK AO2 SLP266 T01280050 10128 21006 58005
CWI,2017-04-01 18:00,-90.3328,41.8295,M,M,M,M,M,M,30.23,M,10.00,M,CLR,M,M,M,M,M,M,M,M,KCWI 011800Z AUTO /////KT 10SM CLR A3023 RMK MADISHF
CWI,2017-04-01 18:05,-90.3328,41.8295,M,M,M,M,M,M,30.23,M,10.00,M,CLR,M,M,M,M,M,M,M,M,KCWI 011805Z AUTO /////KT 10SM CLR A3023 RMK MADISHF
CWI,2017-04-01 18:10,-90.3328,41.8295,M,M,M,220.00,6.00,M,30.23,M,10.00,M,CLR,M,M,M,M,M,M,M,M,KCWI 011810Z AUTO 22006KT 10SM CLR A3023 RMK MADISHF
CWI,2017-04-01 18:15,-90.3328,41.8295,M,M,M,250.00,7.00,M,30.23,M,10.00,M,CLR,M,M,M,M,M,M,M,M,KCWI 011815Z AUTO 25007KT 10SM CLR A3023 RMK MADISHF
CWI,2017-04-01 18:20,-90.3328,41.8295,M,M,M,260.00,6.00,M,30.23,M,10.00,M,CLR,M,M,M,M,M,M,M,M,KCWI 011820Z AUTO 26006KT 10SM CLR A3023 RMK MADISHF
CWI,2017-04-01 18:25,-90.3328,41.8295,M,M,M,260.00,5.00,M,30.23,M,10.00,M,CLR,M,M,M,M,M,M,M,M,KCWI 011825Z AUTO 26005KT 10SM CLR A3023 RMK MADISHF
CWI,2017-04-01 18:30,-90.3328,41.8295,M,M,M,260.00,4.00,M,30.23,M,10.00,M,CLR,M,M,M,M,M,M,M,M,KCWI 011830Z AUTO 26004KT 10SM CLR A3023 RMK MADISHF
CWI,2017-04-01 18:35,-90.3328,41.8295,M,M,M,280.00,6.00,M,30.22,M,10.00,M,CLR,M,M,M,M,M,M,M,M,KCWI 011835Z AUTO 28006KT 10SM CLR A3022 RMK VRB06KT  MADISHF
CWI,2017-04-01 18:40,-90.3328,41.8295,M,M,M,260.00,6.00,M,30.22,M,10.00,M,CLR,M,M,M,M,M,M,M,M,KCWI 011840Z AUTO 26006KT 10SM CLR A3022 RMK MADISHF
CWI,2017-04-01 18:45,-90.3328,41.8295,M,M,M,250.00,4.00,M,30.22,M,10.00,M,CLR,M,M,M,M,M,M,M,M,KCWI 011845Z AUTO 25004KT 10SM CLR A3022 RMK VRB04KT  MADISHF
CWI,2017-04-01 18:50,-90.3328,41.8295,M,M,M,280.00,3.00,M,30.22,M,10.00,M,CLR,M,M,M,M,M,M,M,M,KCWI 011850Z AUTO 28003KT 10SM CLR A3022 RMK VRB03KT  MADISHF
CWI,2017-04-01 18:55,-90.3328,41.8295,M,M,M,250.00,7.00,M,30.22,M,10.00,M,CLR,M,M,M,M,M,M,M,M,KCWI 011855Z AUTO 25007KT 10SM CLR A3022 RMK MADISHF
CWI,2017-04-01 18:56,-90.3328,41.8295,55.90,39.90,54.83,240.00,6.00,0.00,30.22,1026.40,10.00,M,CLR,M,M,M,M,M,M,M,M,KCWI 011856Z AUTO 24006KT 10SM CLR 13/04 A3022 RMK AO2 SLP264 T01330044
CWI,2017-04-01 19:00,-90.3328,41.8295,M,M,M,240.00,6.00,M,30.22,M,10.00,M,CLR,M,M,M,M,M,M,M,M,KCWI 011900Z AUTO 24006KT 10SM CLR A3022 RMK MADISHF
CWI,2017-04-01 19:05,-90.3328,41.8295,M,M,M,0.00,0.00,M,30.22,M,10.00,M,CLR,M,M,M,M,M,M,M,M,KCWI 011905Z AUTO 00000KT 10SM CLR A3022 RMK MADISHF
CWI,2017-04-01 19:10,-90.3328,41.8295,M,M,M,240.00,5.00,M,30.22,M,10.00,M,CLR,M,M,M,M,M,M,M,M,KCWI 011910Z AUTO 24005KT 10SM CLR A3022 RMK VRB05KT  MADISHF
CWI,2017-04-01 19:15,-90.3328,41.8295,M,M,M,0.00,0.00,M,30.21,M,10.00,M,CLR,M,M,M,M,M,M,M,M,KCWI 011915Z AUTO 00000KT 10SM CLR A3021 RMK MADISHF
CWI,2017-04-01 19:20,-90.3328,41.8295,M,M,M,210.00,3.00,M,30.21,M,10.00,M,CLR,M,M,M,M,M,M,M,M,KCWI 011920Z AUTO 21003KT 10SM CLR A3021 RMK VRB03KT  MADISHF
CWI,2017-04-01 19:25,-90.3328,41.8295,M,M,M,M,M,M,30.21,M,10.00,M,CLR,M,M,M,M,M,M,M,M,KCWI 011925Z AUTO /////KT 10SM CLR A3021 RMK MADISHF
CWI,2017-04-01 19:30,-90.3328,41.8295,M,M,M,240.00,7.00,M,30.21,M,10.00,M,CLR,M,M,M,M,M,M,M,M,KCWI 011930Z AUTO 24007KT 10SM CLR A3021 RMK MADISHF
CWI,2017-04-01 19:35,-90.3328,41.8295,M,M,M,250.00,3.00,M,30.21,M,10.00,M,CLR,M,M,M,M,M,M,M,M,KCWI 011935Z AUTO 25003KT 10SM CLR A3021 RMK VRB03KT  MADISHF
CWI,2017-04-01 19:40,-90.3328,41.8295,M,M,M,230.00,8.00,M,30.21,M,10.00,M,CLR,M,M,M,M,M,M,M,M,KCWI 011940Z AUTO 23008KT 10SM CLR A3021 RMK MADISHF
CWI,2017-04-01 19:45,-90.3328,41.8295,M,M,M,230.00,3.00,M,30.21,M,10.00,M,CLR,M,M,M,M,M,M,M,M,KCWI 011945Z AUTO 23003KT 10SM CLR A3021 RMK VRB03KT  MADISHF
CWI,2017-04-01 19:50,-90.3328,41.8295,M,M,M,230.00,7.00,M,30.21,M,10.00,M,CLR,M,M,M,M,M,M,M,M,KCWI 011950Z AUTO 23007KT 10SM CLR A3021 RMK MADISHF
CWI,2017-04-01 19:55,-90.3328,41.8295,M,M,M,210.00,6.00,M,30.21,M,10.00,M,CLR,M,M,M,M,M,M,M,M,KCWI 011955Z AUTO 21006KT 10SM CLR A3021 RMK MADISHF
CWI,2017-04-01 19:56,-90.3328,41.8295,57.90,39.00,49.26,200.00,5.00,0.00,30.21,1025.70,10.00,M,CLR,M,M,M,M,M,M,M,M,KCWI 011956Z AUTO 20005KT 10SM CLR 14/04 A3021 RMK AO2 SLP257 T01440039
CWI,2017-04-01 20:00,-90.3328,41.8295,M,M,M,230.00,5.00,M,30.21,M,10.00,M,CLR,M,M,M,M,M,M,M,M,KCWI 012000Z AUTO 23005KT 10SM CLR A3021 RMK MADISHF
CWI,2017-04-01 20:05,-90.3328,41.8295,M,M,M,270.00,4.00,M,30.20,M,10.00,M,CLR,M,M,M,M,M,M,M,M,KCWI 012005Z AUTO 27004KT 10SM CLR A3020 RMK MADISHF
CWI,2017-04-01 20:10,-90.3328,41.8295,M,M,M,200.00,4.00,M,30.20,M,10.00,M,CLR,M,M,M,M,M,M,M,M,KCWI 012010Z AUTO 20004KT 10SM CLR A3020 RMK MADISHF
CWI,2017-04-01 20:15,-90.3328,41.8295,M,M,M,0.00,0.00,M,30.20,M,10.00,M,CLR,M,M,M,M,M,M,M,M,KCWI 012015Z AUTO 00000KT 10SM CLR A3020 RMK MADISHF
CWI,2017-04-01 20:20,-90.3328,41.8295,M,M,M,210.00,4.00,M,30.20,M,10.00,M,CLR,M,M,M,M,M,M,M,M,KCWI 012020Z AUTO 21004KT 10SM CLR A3020 RMK MADISHF
CWI,2017-04-01 20:25,-90.3328,41.8295,M,M,M,0.00,0.00,M,30.19,M,10.00,M,CLR,M,M,M,M,M,M,M,M,KCWI 012025Z AUTO 00000KT 10SM CLR A3019 RMK MADISHF
CWI,2017-04-01 20:30,-90.3328,41.8295,M,M,M,240.00,4.00,M,30.19,M,10.00,M,CLR,M,M,M,M,M,M,M,M,KCWI 012030Z AUTO 24004KT 10SM CLR A3019 RMK MADISHF
CWI,2017-04-01 20:35,-90.3328,41.8295,M,M,M,0.00,0.00,M,30.19,M,10.00,M,CLR,M,M,M,M,M,M,M,M,KCWI 012035Z AUTO 00000KT 10SM CLR A3019 RMK MADISHF
CWI,2017-04-01 20:40,-90.3328,41.8295,M,M,M,0.00,0.00,M,30.19,M,10.00,M,CLR,M,M,M,M,M,M,M,M,KCWI 012040Z AUTO 00000KT 10SM CLR A3019 RMK MADISHF
CWI,2017-04-01 20:45,-90.3328,41.8295,M,M,M,0.00,0.00,M,30.19,M,10.00,M,CLR,M,M,M,M,M,M,M,M,KCWI 012045Z AUTO 00000KT 10SM CLR A3019 RMK MADISHF
CWI,2017-04-01 20:50,-90.3328,41.8295,M,M,M,240.00,4.00,M,30.19,M,10.00,M,CLR,M,M,M,M,M,M,M,M,KCWI 012050Z AUTO 24004KT 10SM CLR A3019 RMK MADISHF
CWI,2017-04-01 20:55,-90.3328,41.8295,M,M,M,250.00,5.00,M,30.18,M,10.00,M,CLR,M,M,M,M,M,M,M,M,KCWI 012055Z AUTO 25005KT 10SM CLR A3018 RMK MADISHF
CWI,2017-04-01 20:56,-90.3328,41.8295,57.90,37.00,45.54,260.00,5.00,0.00,30.18,1025.10,10.00,M,CLR,M,M,M,M,M,M,M,M,KCWI 012056Z AUTO 26005KT 10SM CLR 14/03 A3018 RMK AO2 SLP251 T01440028 58014
CWI,2017-04-01 21:00,-90.3328,41.8295,M,M,M,260.00,3.00,M,30.19,M,10.00,M,CLR,M,M,M,M,M,M,M,M,KCWI 012100Z AUTO 26003KT 10SM CLR A3019 RMK MADISHF
CWI,2017-04-01 21:05,-90.3328,41.8295,M,M,M,270.00,5.00,M,30.19,M,10.00,M,CLR,M,M,M,M,M,M,M,M,KCWI 012105Z AUTO 27005KT 10SM CLR A3019 RMK MADISHF
CWI,2017-04-01 21:10,-90.3328,41.8295,M,M,M,250.00,3.00,M,30.19,M,10.00,M,CLR,M,M,M,M,M,M,M,M,KCWI 012110Z AUTO 25003KT 10SM CLR A3019 RMK MADISHF
CWI,2017-04-01 21:15,-90.3328,41.8295,M,M,M,220.00,4.00,M,30.19,M,10.00,M,CLR,M,M,M,M,M,M,M,M,KCWI 012115Z AUTO 22004KT 10SM CLR A3019 RMK MADISHF
CWI,2017-04-01 21:20,-90.3328,41.8295,M,M,M,0.00,0.00,M,30.19,M,10.00,M,CLR,M,M,M,M,M,M,M,M,KCWI 012120Z AUTO 00000KT 10SM CLR A3019 RMK MADISHF
CWI,2017-04-01 21:25,-90.3328,41.8295,M,M,M,M,M,M,30.19,M,10.00,M,CLR,M,M,M,M,M,M,M,M,KCWI 012125Z AUTO /////KT 10SM CLR A3019 RMK MADISHF
CWI,2017-04-01 21:30,-90.3328,41.8295,M,M,M,M,M,M,30.19,M,10.00,M,CLR,M,M,M,M,M,M,M,M,KCWI 012130Z AUTO /////KT 10SM CLR A3019 RMK MADISHF
CWI,2017-04-01 21:35,-90.3328,41.8295,M,M,M,0.00,0.00,M,30.19,M,10.00,M,CLR,M,M,M,M,M,M,M,M,KCWI 012135Z AUTO 00000KT 10SM CLR A3019 RMK MADISHF
CWI,2017-04-01 21:40,-90.3328,41.8295,M,M,M,0.00,0.00,M,30.19,M,10.00,M,CLR,M,M,M,M,M,M,M,M,KCWI 012140Z AUTO 00000KT 10SM CLR A3019 RMK MADISHF
CWI,2017-04-01 21:45,-90.3328,41.8295,M,M,M,230.00,4.00,M,30.19,M,10.00,M,CLR,M,M,M,M,M,M,M,M,KCWI 012145Z AUTO 23004KT 10SM CLR A3019 RMK MADISHF
CWI,2017-04-01 21:50,-90.3328,41.8295,M,M,M,0.00,0.00,M,30.19,M,10.00,M,CLR,M,M,M,M,M,M,M,M,KCWI 012150Z AUTO 00000KT 10SM CLR A3019 RMK MADISHF
CWI,2017-04-01 21:55,-90.3328,41.8295,M,M,M,180.00,3.00,M,30.19,M,10.00,M,CLR,M,M,M,M,M,M,M,M,KCWI 012155Z AUTO 18003KT 10SM CLR A3019 RMK MADISHF
CWI,2017-04-01 21:56,-90.3328,41.8295,57.00,36.00,45.22,200.00,4.00,0.00,30.19,1025.20,10.00,M,CLR,M,M,M,M,M,M,M,M,KCWI 012156Z AUTO 20004KT 10SM CLR 14/02 A3019 RMK AO2 SLP252 T01390022
CWI,2017-04-01 22:00,-90.3328,41.8295,M,M,M,190.00,4.00,M,30.19,M,10.00,M,CLR,M,M,M,M,M,M,M,M,KCWI 012200Z AUTO 19004KT 10SM CLR A3019 RMK MADISHF
CWI,2017-04-01 22:05,-90.3328,41.8295,M,M,M,170.00,3.00,M,30.19,M,10.00,M,CLR,M,M,M,M,M,M,M,M,KCWI 012205Z AUTO 17003KT 10SM CLR A3019 RMK MADISHF
CWI,2017-04-01 22:10,-90.3328,41.8295,M,M,M,120.00,3.00,M,30.18,M,10.00,M,CLR,M,M,M,M,M,M,M,M,KCWI 012210Z AUTO 12003KT 10SM CLR A3018 RMK MADISHF
CWI,2017-04-01 22:15,-90.3328,41.8295,M,M,M,0.00,0.00,M,30.18,M,10.00,M,CLR,M,M,M,M,M,M,M,M,KCWI 012215Z AUTO 00000KT 10SM CLR A3018 RMK MADISHF
CWI,2017-04-01 22:20,-90.3328,41.8295,M,M,M,0.00,0.00,M,30.18,M,10.00,M,CLR,M,M,M,M,M,M,M,M,KCWI 012220Z AUTO 00000KT 10SM CLR A3018 RMK MADISHF
CWI,2017-04-01 22:25,-90.3328,41.8295,M,M,M,220.00,4.00,M,30.19,M,10.00,M,CLR,M,M,M,M,M,M,M,M,KCWI 012225Z AUTO 22004KT 10SM CLR A3019 RMK MADISHF
CWI,2017-04-01 22:30,-90.3328,41.8295,M,M,M,210.00,4.00,M,30.19,M,10.00,M,FEW,M,M,M,12000.00,M,M,M,M,KCWI 012230Z AUTO 21004KT 10SM FEW120 A3019 RMK MADISHF
CWI,2017-04-01 22:35,-90.3328,41.8295,M,M,M,220.00,4.00,M,30.19,M,10.00,M,FEW,M,M,M,12000.00,M,M,M,M,KCWI 012235Z AUTO 22004KT 10SM FEW120 A3019 RMK MADISHF
CWI,2017-04-01 22:40,-90.3328,41.8295,M,M,M,210.00,4.00,M,30.19,M,10.00,M,CLR,M,M,M,M,M,M,M,M,KCWI 012240Z AUTO 21004KT 10SM CLR A3019 RMK MADISHF
CWI,2017-04-01 22:45,-90.3328,41.8295,M,M,M,190.00,4.00,M,30.18,M,10.00,M,CLR,M,M,M,M,M,M,M,M,KCWI 012245Z AUTO 19004KT 10SM CLR A3018 RMK MADISHF
CWI,2017-04-01 22:50,-90.3328,41.8295,M,M,M,210.00,5.00,M,30.18,M,10.00,M,CLR,M,M,M,M,M,M,M,M,KCWI 012250Z AUTO 21005KT 10SM CLR A3018 RMK MADISHF
CWI,2017-04-01 22:55,-90.3328,41.8295,M,M,M,220.00,3.00,M,30.18,M,10.00,M,FEW,M,M,M,12000.00,M,M,M,M,KCWI 012255Z AUTO 22003KT 10SM FEW120 A3018 RMK MADISHF
CWI,2017-04-01 22:56,-90.3328,41.8295,55.00,37.90,52.40,220.00,3.00,0.00,30.18,1024.70,10.00,M,FEW,M,M,M,12000.00,M,M,M,M,KCWI 012256Z AUTO 22003KT 10SM FEW120 13/03 A3018 RMK AO2 SLP247 T01280033
CWI,2017-04-01 23:00,-90.3328,41.8295,M,M,M,190.00,3.00,M,30.18,M,10.00,M,CLR,M,M,M,M,M,M,M,M,KCWI 012300Z AUTO 19003KT 10SM CLR A3018 RMK MADISHF
CWI,2017-04-01 23:05,-90.3328,41.8295,M,M,M,180.00,3.00,M,30.18,M,10.00,M,CLR,M,M,M,M,M,M,M,M,KCWI 012305Z AUTO 18003KT 10SM CLR A3018 RMK MADISHF
CWI,2017-04-01 23:10,-90.3328,41.8295,M,M,M,170.00,3.00,M,30.17,M,10.00,M,CLR,M,M,M,M,M,M,M,M,KCWI 012310Z AUTO 17003KT 10SM CLR A3017 RMK MADISHF
CWI,2017-04-01 23:15,-90.3328,41.8295,M,M,M,170.00,3.00,M,30.18,M,10.00,M,FEW,M,M,M,12000.00,M,M,M,M,KCWI 012315Z AUTO 17003KT 10SM FEW120 A3018 RMK MADISHF
CWI,2017-04-01 23:20,-90.3328,41.8295,M,M,M,0.00,0.00,M,30.18,M,10.00,M,SCT,M,M,M,12000.00,M,M,M,M,KCWI 012320Z AUTO 00000KT 10SM SCT120 A3018 RMK MADISHF
CWI,2017-04-01 23:25,-90.3328,41.8295,M,M,M,0.00,0.00,M,30.18,M,10.00,M,SCT,M,M,M,11000.00,M,M,M,M,KCWI 012325Z AUTO 00000KT 10SM SCT110 A3018 RMK MADISHF
CWI,2017-04-01 23:30,-90.3328,41.8295,M,M,M,0.00,0.00,M,30.18,M,10.00,M,BKN,M,M,M,11000.00,M,M,M,M,KCWI 012330Z AUTO 00000KT 10SM BKN110 A3018 RMK MADISHF
CWI,2017-04-01 23:35,-90.3328,41.8295,M,M,M,0.00,0.00,M,30.18,M,10.00,M,BKN,M,M,M,11000.00,M,M,M,M,KCWI 012335Z AUTO 00000KT 10SM BKN110 A3018 RMK MADISHF
CWI,2017-04-01 23:40,-90.3328,41.8295,M,M,M,0.00,0.00,M,30.18,M,10.00,M,BKN,M,M,M,11000.00,M,M,M,M,KCWI 012340Z AUTO 00000KT 10SM BKN110 A3018 RMK MADISHF
CWI,2017-04-01 23:45,-90.3328,41.8295,M,M,M,0.00,0.00,M,30.19,M,10.00,M,BKN,M,M,M,11000.00,M,M,M,M,KCWI 012345Z AUTO 00000KT 10SM BKN110 A3019 RMK MADISHF
CWI,2017-04-01 23:50,-90.3328,41.8295,M,M,M,0.00,0.00,M,30.19,M,10.00,M,BKN,M,M,M,11000.00,M,M,M,M,KCWI 012350Z AUTO 00000KT 10SM BKN110 A3019 RMK MADISHF
CWI,2017-04-01 23:55,-90.3328,41.8295,M,M,M,0.00,0.00,M,30.19,M,10.00,M,BKN,M,M,M,12000.00,M,M,M,M,KCWI 012355Z AUTO 00000KT 10SM BKN120 A3019 RMK MADISHF
CWI,2017-04-01 23:56,-90.3328,41.8295,55.90,34.00,43.46,210.00,3.00,0.00,30.19,1025.30,10.00,M,BKN,M,M,M,12000.00,M,M,M,M,KCWI 012356Z AUTO 21003KT 10SM BKN120 13/01 A3019 RMK AO2 SLP253 T01330011 10144 20122 53001
