#DEBUG: Format Typ    -> comma
#DEBUG: Time Period   -> 2017-04-01 00:00:00+00:00 2017-04-02 00:00:00+00:00
#DEBUG: Time Zone     -> Etc/UTC
#DEBUG: Data Contact   -> daryl herzmann akrherz@iastate.edu 515-294-5978
#DEBUG: Entries Found -> -1
station,valid,lon,lat,tmpf, dwpf, relh, drct, sknt, p01i, alti, mslp, vsby, gust, skyc1, skyc2, skyc3, skyc4, skyl1, skyl2, skyl3, skyl4, presentwx, metar
CXP,2017-04-01 00:15,-119.7326,39.1923,51.80,28.40,40.25,50.00,6.00,0.00,30.09,M,10.00,14.00,FEW,M,M,M,5000.00,M,M,M,M,KCXP 010015Z AUTO 05006G14KT 10SM FEW050 11/M02 A3009 RMK AO2
CXP,2017-04-01 00:35,-119.7326,39.1923,50.00,28.40,43.03,50.00,10.00,0.00,30.10,M,10.00,14.00,FEW,M,M,M,5000.00,M,M,M,M,KCXP 010035Z AUTO 05010G14KT 10SM FEW050 10/M02 A3010 RMK AO2
CXP,2017-04-01 00:55,-119.7326,39.1923,48.20,28.40,46.02,50.00,5.00,0.00,30.10,M,10.00,M,SCT,M,M,M,5000.00,M,M,M,M,KCXP 010055Z AUTO 05005KT 10SM SCT050 09/M02 A3010 RMK AO2
CXP,2017-04-01 01:15,-119.7326,39.1923,48.20,28.40,46.02,60.00,5.00,0.00,30.09,M,10.00,M,BKN,M,M,M,5000.00,M,M,M,M,KCXP 010115Z AUTO 06005KT 10SM BKN050 09/M02 A3009 RMK AO2
CXP,2017-04-01 01:35,-119.7326,39.1923,48.20,26.60,42.73,40.00,9.00,0.00,30.11,M,10.00,M,BKN,M,M,M,5000.00,M,M,M,M,KCXP 010135Z AUTO 04009KT 10SM BKN050 09/M03 A3011 RMK AO2
CXP,2017-04-01 01:55,-119.7326,39.1923,48.20,26.60,42.73,50.00,6.00,0.00,30.11,M,10.00,M,SCT,M,M,M,6000.00,M,M,M,M,KCXP 010155Z AUTO 05006KT 10SM SCT060 09/M03 A3011 RMK AO2
CXP,2017-04-01 02:15,-119.7326,39.1923,48.20,26.60,42.73,30.00,6.00,0.00,30.12,M,10.00,M,SCT,M,M,M,6000.00,M,M,M,M,KCXP 010215Z AUTO 03006KT 10SM SCT060 09/M03 A3012 RMK AO2
CXP,2017-04-01 02:35,-119.7326,39.1923,46.40,28.40,49.24,40.00,4.00,0.00,30.12,M,10.00,M,FEW,M,M,M,6000.00,M,M,M,M,KCXP 010235Z AUTO 04004KT 10SM FEW060 08/M02 A3012 RMK AO2
CXP,2017-04-01 02:55,-119.7326,39.1923,44.60,28.40,52.72,20.00,5.00,0.00,30.13,M,10.00,M,SCT,M,M,M,6000.00,M,M,M,M,KCXP 010255Z AUTO 02005KT 10SM SCT060 07/M02 A3013 RMK AO2
CXP,2017-04-01 03:15,-119.7326,39.1923,44.60,28.40,52.72,30.00,6.00,0.00,30.13,M,10.00,M,FEW,M,M,M,6000.00,M,M,M,M,KCXP 010315Z AUTO 03006KT 10SM FEW060 07/M02 A3013 RMK AO2
CXP,2017-04-01 03:35,-119.7326,39.1923,41.00,28.40,60.54,40.00,4.00,0.00,30.14,M,10.00,M,CLR,M,M,M,M,M,M,M,M,KCXP 010335Z AUTO 04004KT 10SM CLR 05/M02 A3014 RMK AO2
CXP,2017-04-01 03:55,-119.7326,39.1923,44.60,28.40,52.72,0.00,0.00,0.00,30.14,M,10.00,M,CLR,M,M,M,M,M,M,M,M,KCXP 010355Z AUTO 00000KT 10SM CLR 07/M02 A3014 RMK AO2
CXP,2017-04-01 04:15,-119.7326,39.1923,41.00,28.40,60.54,60.00,5.00,0.00,30.15,M,10.00,M,CLR,M,M,M,M,M,M,M,M,KCXP 010415Z AUTO 06005KT 10SM CLR 05/M02 A3015 RMK AO2
CXP,2017-04-01 04:35,-119.7326,39.1923,41.00,28.40,60.54,40.00,4.00,0.00,30.16,M,10.00,M,CLR,M,M,M,M,M,M,M,M,KCXP 010435Z AUTO 04004KT 10SM CLR 05/M02 A3016 RMK AO2
CXP,2017-04-01 04:55,-119.7326,39.1923,39.20,28.40,64.93,0.00,0.00,0.00,30.17,M,10.00,M,SCT,M,M,M,6000.00,M,M,M,M,KCXP 010455Z AUTO 00000KT 10SM SCT060 04/M02 A3017 RMK AO2
CXP,2017-04-01 05:15,-119.7326,39.1923,41.00,28.40,60.54,350.00,10.00,0.00,30.17,M,10.00,M,FEW,M,M,M,6000.00,M,M,M,M,KCXP 010515Z AUTO 35010KT 10SM FEW060 05/M02 A3017 RMK AO2
CXP,2017-04-01 05:35,-119.7326,39.1923,39.20,28.40,64.93,0.00,0.00,0.00,30.18,M,10.00,M,CLR,M,M,M,M,M,M,M,M,KCXP 010535Z AUTO 00000KT 10SM CLR 04/M02 A3018 RMK AO2
CXP,2017-04-01 05:55,-119.7326,39.1923,35.60,30.20,80.51,80.00,6.00,0.00,30.19,M,10.00,M,CLR,M,M,M,M,M,M,M,M,KCXP 010555Z AUTO 08006KT 10SM CLR 02/M01 A3019 RMK AO2
CXP,2017-04-01 06:15,-119.7326,39.1923,35.60,28.40,74.80,50.00,4.00,0.00,30.19,M,10.00,M,CLR,M,M,M,M,M,M,M,M,KCXP 010615Z AUTO 05004KT 10SM CLR 02/M02 A3019 RMK AO2
CXP,2017-04-01 06:35,-119.7326,39.1923,39.20,28.40,64.93,0.00,0.00,0.00,30.20,M,10.00,M,CLR,M,M,M,M,M,M,M,M,KCXP 010635Z AUTO 00000KT 10SM CLR 04/M02 A3020 RMK AO2
CXP,2017-04-01 06:55,-119.7326,39.1923,35.60,28.40,74.80,50.00,3.00,0.00,30.20,M,10.00,M,CLR,M,M,M,M,M,M,M,M,KCXP 010655Z AUTO 05003KT 10SM CLR 02/M02 A3020 RMK AO2
CXP,2017-04-01 07:15,-119.7326,39.1923,35.60,28.40,74.80,0.00,0.00,0.00,30.20,M,10.00,M,CLR,M,M,M,M,M,M,M,M,KCXP 010715Z AUTO 00000KT 10SM CLR 02/M02 A3020 RMK AO2
CXP,2017-04-01 07:35,-119.7326,39.1923,33.80,28.40,80.36,0.00,0.00,0.00,30.20,M,10.00,M,CLR,M,M,M,M,M,M,M,M,KCXP 010735Z AUTO 00000KT 10SM CLR 01/M02 A3020 RMK AO2
CXP,2017-04-01 07:55,-119.7326,39.1923,32.00,28.40,86.39,0.00,0.00,0.00,30.20,M,10.00,M,CLR,M,M,M,M,M,M,M,M,KCXP 010755Z AUTO 00000KT 10SM CLR 00/M02 A3020 RMK AO2
CXP,2017-04-01 08:15,-119.7326,39.1923,35.60,28.40,74.80,0.00,0.00,0.00,30.20,M,10.00,M,CLR,M,M,M,M,M,M,M,M,KCXP 010815Z AUTO 00000KT 10SM CLR 02/M02 A3020 RMK AO2
CXP,2017-04-01 08:35,-119.7326,39.1923,32.00,28.40,86.39,0.00,0.00,0.00,30.22,M,10.00,M,CLR,M,M,M,M,M,M,M,M,KCXP 010835Z AUTO 00000KT 10SM CLR 00/M02 A3022 RMK AO2
CXP,2017-04-01 08:55,-119.7326,39.1923,32.00,26.60,80.22,0.00,0.00,0.00,30.21,M,10.00,M,CLR,M,M,M,M,M,M,M,M,KCXP 010855Z AUTO 00000KT 10SM CLR 00/M03 A3021 RMK AO2
CXP,2017-04-01 09:15,-119.7326,39.1923,32.00,28.40,86.39,0.00,0.00,0.00,30.21,M,10.00,M,CLR,M,M,M,M,M,M,M,M,KCXP 010915Z AUTO 00000KT 10SM CLR 00/M02 A3021 RMK AO2
CXP,2017-04-01 09:35,-119.7326,39.1923,32.00,26.60,80.22,0.00,0.00,0.00,30.22,M,10.00,M,CLR,M,M,M,M,M,M,M,M,KCXP 010935Z AUTO 00000KT 10SM CLR 00/M03 A3022 RMK AO2
CXP,2017-04-01 09:55,-119.7326,39.1923,32.00,28.40,86.39,290.00,3.00,0.00,30.22,M,10.00,M,CLR,M,M,M,M,M,M,M,M,KCXP 010955Z AUTO 29003KT 10SM CLR 00/M02 A3022 RMK AO2
CXP,2017-04-01 10:15,-119.7326,39.1923,32.00,26.60,80.22,0.00,0.00,0.00,30.22,M,10.00,M,CLR,M,M,M,M,M,M,M,M,KCXP 011015Z AUTO 00000KT 10SM CLR 00/M03 A3022 RMK AO2
CXP,2017-04-01 10:35,-119.7326,39.1923,30.20,26.60,86.28,0.00,0.00,0.00,30.22,M,10.00,M,CLR,M,M,M,M,M,M,M,M,KCXP 011035Z AUTO 00000KT 10SM CLR M01/M03 A3022 RMK AO2
CXP,2017-04-01 10:55,-119.7326,39.1923,32.00,26.60,80.22,330.00,3.00,0.00,30.22,M,10.00,M,CLR,M,M,M,M,M,M,M,M,KCXP 011055Z AUTO 33003KT 10SM CLR 00/M03 A3022 RMK AO2
CXP,2017-04-01 11:15,-119.7326,39.1923,32.00,26.60,80.22,0.00,0.00,0.00,30.22,M,10.00,M,CLR,M,M,M,M,M,M,M,M,KCXP 011115Z AUTO 00000KT 10SM CLR 00/M03 A3022 RMK AO2
CXP,2017-04-01 11:35,-119.7326,39.1923,30.20,26.60,86.28,0.00,0.00,0.00,30.22,M,10.00,M,CLR,M,M,M,M,M,M,M,M,KCXP 011135Z AUTO 00000KT 10SM CLR M01/M03 A3022 RMK AO2
CXP,2017-04-01 11:55,-119.7326,39.1923,28.40,26.60,92.86,0.00,0.00,0.00,30.22,M,10.00,M,CLR,M,M,M,M,M,M,M,M,KCXP 011155Z AUTO 00000KT 10SM CLR M02/M03 A3022 RMK AO2
CXP,2017-04-01 12:15,-119.7326,39.1923,30.20,26.60,86.28,0.00,0.00,0.00,30.22,M,10.00,M,CLR,M,M,M,M,M,M,M,M,KCXP 011215Z AUTO 00000KT 10SM CLR M01/M03 A3022 RMK AO2
CXP,2017-04-01 12:35,-119.7326,39.1923,30.20,26.60,86.28,0.00,0.00,0.00,30.22,M,10.00,M,CLR,M,M,M,M,M,M,M,M,KCXP 011235Z AUTO 00000KT 10SM CLR M01/M03 A3022 RMK AO2
CXP,2017-04-01 12:55,-119.7326,39.1923,28.40,24.80,86.18,0.00,0.00,0.00,30.22,M,10.00,M,CLR,M,M,M,M,M,M,M,M,KCXP 011255Z AUTO 00000KT 10SM CLR M02/M04 A3022 RMK AO2
CXP,2017-04-01 13:15,-119.7326,39.1923,28.40,26.60,92.86,0.00,0.00,0.00,30.23,M,10.00,M,CLR,M,M,M,M,M,M,M,M,KCXP 011315Z AUTO 00000KT 10SM CLR M02/M03 A3023 RMK AO2
CXP,2017-04-01 13:35,-119.7326,39.1923,28.40,26.60,92.86,0.00,0.00,0.00,30.23,M,10.00,M,CLR,M,M,M,M,M,M,M,M,KCXP 011335Z AUTO 00000KT 10SM CLR M02/M03 A3023 RMK AO2
CXP,2017-04-01 13:55,-119.7326,39.1923,28.40,26.60,92.86,0.00,0.00,0.00,30.23,M,10.00,M,CLR,M,M,M,M,M,M,M,M,KCXP 011355Z AUTO 00000KT 10SM CLR M02/M03 A3023 RMK AO2
CXP,2017-04-01 14:15,-119.7326,39.1923,28.40,26.60,92.86,0.00,0.00,0.00,30.24,M,10.00,M,CLR,M,M,M,M,M,M,M,M,KCXP 011415Z AUTO 00000KT 10SM CLR M02/M03 A3024 RMK AO2
CXP,2017-04-01 14:35,-119.7326,39.1923,32.00,26.60,80.22,0.00,0.00,0.00,30.24,M,10.00,M,CLR,M,M,M,M,M,M,M,M,KCXP 011435Z AUTO 00000KT 10SM CLR 00/M03 A3024 RMK AO2
CXP,2017-04-01 14:55,-119.7326,39.1923,32.00,28.40,86.39,0.00,0.00,0.00,30.25,M,10.00,M,CLR,M,M,M,M,M,M,M,M,KCXP 011455Z AUTO 00000KT 10SM CLR 00/M02 A3025 RMK AO2
CXP,2017-04-01 15:15,-119.7326,39.1923,35.60,28.40,74.80,0.00,0.00,0.00,30.25,M,10.00,M,CLR,M,M,M,M,M,M,M,M,KCXP 011515Z AUTO 00000KT 10SM CLR 02/M02 A3025 RMK AO2
CXP,2017-04-01 15:35,-119.7326,39.1923,37.40,28.40,69.67,0.00,0.00,0.00,30.24,M,10.00,M,CLR,M,M,M,M,M,M,M,M,KCXP 011535Z AUTO 00000KT 10SM CLR 03/M02 A3024 RMK AO2
CXP,2017-04-01 15:55,-119.7326,39.1923,39.20,28.40,64.93,0.00,0.00,0.00,30.24,M,10.00,M,CLR,M,M,M,M,M,M,M,M,KCXP 011555Z AUTO 00000KT 10SM CLR 04/M02 A3024 RMK AO2
CXP,2017-04-01 16:15,-119.7326,39.1923,41.00,30.20,65.16,0.00,0.00,0.00,30.24,M,10.00,M,CLR,M,M,M,M,M,M,M,M,KCXP 011615Z AUTO 00000KT 10SM CLR 05/M01 A3024 RMK AO2
CXP,2017-04-01 16:35,-119.7326,39.1923,42.80,28.40,56.48,160.00,3.00,0.00,30.24,M,10.00,M,CLR,M,M,M,M,M,M,M,M,KCXP 011635Z AUTO 16003KT 10SM CLR 06/M02 A3024 RMK AO2
CXP,2017-04-01 16:55,-119.7326,39.1923,44.60,28.40,52.72,0.00,0.00,0.00,30.25,M,10.00,M,CLR,M,M,M,M,M,M,M,M,KCXP 011655Z AUTO 00000KT 10SM CLR 07/M02 A3025 RMK AO2
CXP,2017-04-01 17:15,-119.7326,39.1923,46.40,30.20,53.00,0.00,0.00,0.00,30.25,M,10.00,M,CLR,M,M,M,M,M,M,M,M,KCXP 011715Z AUTO 00000KT 10SM CLR 08/M01 A3025 RMK AO2
CXP,2017-04-01 17:35,-119.7326,39.1923,48.20,32.00,53.27,100.00,3.00,0.00,30.25,M,10.00,M,CLR,M,M,M,M,M,M,M,M,KCXP 011735Z AUTO 10003KT 10SM CLR 09/00 A3025 RMK AO2
CXP,2017-04-01 17:55,-119.7326,39.1923,51.80,32.00,46.59,80.00,6.00,0.00,30.24,M,10.00,M,CLR,M,M,M,M,M,M,M,M,KCXP 011755Z AUTO 08006KT 10SM CLR 11/00 A3024 RMK AO2
CXP,2017-04-01 18:15,-119.7326,39.1923,53.60,32.00,43.61,90.00,5.00,0.00,30.24,M,10.00,M,CLR,M,M,M,M,M,M,M,M,KCXP 011815Z AUTO 09005KT 10SM CLR 12/00 A3024 RMK AO2
CXP,2017-04-01 18:35,-119.7326,39.1923,53.60,32.00,43.61,100.00,6.00,0.00,30.23,M,10.00,M,CLR,M,M,M,M,M,M,M,M,KCXP 011835Z AUTO 10006KT 10SM CLR 12/00 A3023 RMK AO2
CXP,2017-04-01 18:55,-119.7326,39.1923,55.40,32.00,40.84,60.00,3.00,0.00,30.23,M,10.00,M,CLR,M,M,M,M,M,M,M,M,KCXP 011855Z AUTO 06003KT 10SM CLR 13/00 A3023 RMK AO2
CXP,2017-04-01 19:15,-119.7326,39.1923,53.60,30.20,40.54,110.00,3.00,0.00,30.22,M,10.00,M,CLR,M,M,M,M,M,M,M,M,KCXP 011915Z AUTO 11003KT 10SM CLR 12/M01 A3022 RMK AO2
CXP,2017-04-01 19:35,-119.7326,39.1923,55.40,32.00,40.84,50.00,5.00,0.00,30.21,M,10.00,M,CLR,M,M,M,M,M,M,M,M,KCXP 011935Z AUTO 05005KT 10SM CLR 13/00 A3021 RMK AO2
CXP,2017-04-01 19:55,-119.7326,39.1923,57.20,32.00,38.26,0.00,0.00,0.00,30.21,M,10.00,M,CLR,M,M,M,M,M,M,M,M,KCXP 011955Z AUTO 00000KT 10SM CLR 14/00 A3021 RMK AO2
CXP,2017-04-01 20:15,-119.7326,39.1923,57.20,32.00,38.26,0.00,0.00,0.00,30.20,M,10.00,M,CLR,M,M,M,M,M,M,M,M,KCXP 012015Z AUTO 00000KT 10SM CLR 14/00 A3020 RMK AO2
CXP,2017-04-01 20:35,-119.7326,39.1923,57.20,32.00,38.26,0.00,0.00,0.00,30.19,M,10.00,M,CLR,M,M,M,M,M,M,M,M,KCXP 012035Z AUTO 00000KT 10SM CLR 14/00 A3019 RMK AO2
CXP,2017-04-01 20:55,-119.7326,39.1923,59.00,32.00,35.87,120.00,5.00,0.00,30.18,M,10.00,M,CLR,M,M,M,M,M,M,M,M,KCXP 012055Z AUTO 12005KT 10SM CLR 15/00 A3018 RMK AO2
CXP,2017-04-01 21:15,-119.7326,39.1923,59.00,32.00,35.87,120.00,4.00,0.00,30.17,M,10.00,M,CLR,M,M,M,M,M,M,M,M,KCXP 012115Z AUTO 12004KT 10SM CLR 15/00 A3017 RMK AO2
CXP,2017-04-01 21:35,-119.7326,39.1923,59.00,32.00,35.87,120.00,5.00,0.00,30.16,M,10.00,M,CLR,M,M,M,M,M,M,M,M,KCXP 012135Z AUTO 12005KT 10SM CLR 15/00 A3016 RMK AO2
CXP,2017-04-01 21:55,-119.7326,39.1923,62.60,32.00,31.56,90.00,5.00,0.00,30.15,M,10.00,M,CLR,M,M,M,M,M,M,M,M,KCXP 012155Z AUTO 09005KT 10SM CLR 17/00 A3015 RMK AO2
CXP,2017-04-01 22:15,-119.7326,39.1923,62.60,32.00,31.56,80.00,5.00,0.00,30.14,M,10.00,M,CLR,M,M,M,M,M,M,M,M,KCXP 012215Z AUTO 08005KT 10SM CLR 17/00 A3014 RMK AO2
CXP,2017-04-01 22:35,-119.7326,39.1923,62.60,26.60,25.32,110.00,3.00,0.00,30.14,M,10.00,M,CLR,M,M,M,M,M,M,M,M,KCXP 012235Z AUTO 11003KT 10SM CLR 17/M03 A3014 RMK AO2
CXP,2017-04-01 22:55,-119.7326,39.1923,64.40,24.80,22.06,0.00,0.00,0.00,30.13,M,10.00,M,CLR,M,M,M,M,M,M,M,M,KCXP 012255Z AUTO 00000KT 10SM CLR 18/M04 A3013 RMK AO2
CXP,2017-04-01 23:15,-119.7326,39.1923,64.40,24.80,22.06,50.00,6.00,0.00,30.13,M,10.00,M,CLR,M,M,M,M,M,M,M,M,KCXP 012315Z AUTO 05006KT 10SM CLR 18/M04 A3013 RMK AO2
CXP,2017-04-01 23:35,-119.7326,39.1923,64.40,26.60,23.77,70.00,5.00,0.00,30.13,M,10.00,M,CLR,M,M,M,M,M,M,M,M,KCXP 012335Z AUTO 07005KT 10SM CLR 18/M03 A3013 RMK AO2
CXP,2017-04-01 23:55,-119.7326,39.1923,64.40,26.60,23.77,70.00,5.00,0.00,30.13,M,10.00,M,CLR,M,M,M,M,M,M,M,M,KCXP 012355Z AUTO 07005KT 10SM CLR 18/M03 A3013 RMK AO2
