#DEBUG: Format Typ    -> comma
#DEBUG: Time Period   -> 2017-04-01 00:00:00+00:00 2017-04-02 00:00:00+00:00
#DEBUG: Time Zone     -> Etc/UTC
#DEBUG: Data Contact   -> daryl herzmann akrherz@iastate.edu 515-294-5978
#DEBUG: Entries Found -> -1
station,valid,lon,lat,tmpf, dwpf, relh, drct, sknt, p01i, alti, mslp, vsby, gust, skyc1, skyc2, skyc3, skyc4, skyl1, skyl2, skyl3, skyl4, presentwx, metar
D57,2017-04-01 00:15,-101.8602,46.8128,50.00,35.60,57.52,30.00,12.00,0.00,30.10,M,10.00,19.00,BKN,M,M,M,6500.00,M,M,M,M,KD57 010015Z AUTO 03012G19KT 10SM BKN065 10/02 A3010 RMK AO2
D57,2017-04-01 00:35,-101.8602,46.8128,48.20,35.60,61.52,30.00,11.00,0.00,30.11,M,10.00,19.00,BKN,BKN,M,M,6000.00,9000.00,M,M,M,KD57 010035Z AUTO 03011G19KT 10SM BKN060 BKN090 09/02 A3011 RMK AO2
D57,2017-04-01 00:55,-101.8602,46.8128,48.20,35.60,61.52,30.00,11.00,0.00,30.11,M,10.00,16.00,FEW,SCT,BKN,M,4200.00,4800.00,6000.00,M,M,KD57 010055Z AUTO 03011G16KT 10SM FEW042 SCT048 BKN060 09/02 A3011 RMK AO2
D57,2017-04-01 01:15,-101.8602,46.8128,46.40,35.60,65.83,30.00,9.00,0.00,30.12,M,10.00,M,SCT,BKN,OVC,M,4300.00,6500.00,8500.00,M,M,KD57 010115Z AUTO 03009KT 10SM SCT043 BKN065 OVC085 08/02 A3012 RMK AO2
D57,2017-04-01 01:35,-101.8602,46.8128,46.40,35.60,65.83,60.00,7.00,0.00,30.13,M,10.00,12.00,SCT,BKN,OVC,M,4900.00,6000.00,7500.00,M,M,KD57 010135Z AUTO 06007G12KT 10SM SCT049 BKN060 OVC075 08/02 A3013 RMK AO2
D57,2017-04-01 01:55,-101.8602,46.8128,44.60,37.40,75.68,30.00,6.00,0.00,30.14,M,10.00,M,BKN,BKN,OVC,M,4200.00,4800.00,5500.00,M,M,KD57 010155Z AUTO 03006KT 10SM BKN042 BKN048 OVC055 07/03 A3014 RMK AO2
D57,2017-04-01 02:15,-101.8602,46.8128,44.60,39.20,81.20,0.00,0.00,0.00,30.15,M,10.00,M,OVC,M,M,M,4200.00,M,M,M,M,KD57 010215Z AUTO 00000KT 10SM OVC042 07/04 A3015 RMK AO2
D57,2017-04-01 02:35,-101.8602,46.8128,44.60,39.20,81.20,0.00,0.00,0.00,30.15,M,10.00,M,OVC,M,M,M,4100.00,M,M,M,M,KD57 010235Z AUTO 00000KT 10SM OVC041 07/04 A3015 RMK AO2
D57,2017-04-01 02:55,-101.8602,46.8128,42.80,39.20,86.99,0.00,0.00,0.00,30.15,M,10.00,M,BKN,BKN,OVC,M,3900.00,4800.00,6000.00,M,M,KD57 010255Z AUTO 00000KT 10SM BKN039 BKN048 OVC060 06/04 A3015 RMK AO2
D57,2017-04-01 03:15,-101.8602,46.8128,42.80,39.20,86.99,0.00,0.00,0.00,30.16,M,10.00,M,FEW,BKN,OVC,M,3800.00,4800.00,5500.00,M,M,KD57 010315Z AUTO 00000KT 10SM FEW038 BKN048 OVC055 06/04 A3016 RMK AO2
D57,2017-04-01 03:35,-101.8602,46.8128,42.80,39.20,86.99,0.00,0.00,0.00,30.17,M,10.00,M,BKN,BKN,OVC,M,3900.00,4800.00,5500.00,M,M,KD57 010335Z AUTO 00000KT 10SM BKN039 BKN048 OVC055 06/04 A3017 RMK AO2
D57,2017-04-01 03:55,-101.8602,46.8128,42.80,39.20,86.99,0.00,0.00,0.00,30.17,M,10.00,M,BKN,OVC,M,M,3800.00,5000.00,M,M,M,KD57 010355Z AUTO 00000KT 10SM BKN038 OVC050 06/04 A3017 RMK AO2
D57,2017-04-01 04:15,-101.8602,46.8128,42.80,39.20,86.99,0.00,0.00,0.00,30.18,M,10.00,M,FEW,OVC,M,M,3700.00,5000.00,M,M,M,KD57 010415Z AUTO 00000KT 10SM FEW037 OVC050 06/04 A3018 RMK AO2
D57,2017-04-01 04:35,-101.8602,46.8128,42.80,39.20,86.99,0.00,0.00,0.00,30.18,M,10.00,M,OVC,M,M,M,5000.00,M,M,M,M,KD57 010435Z AUTO 00000KT 10SM OVC050 06/04 A3018 RMK AO2
D57,2017-04-01 04:55,-101.8602,46.8128,42.80,39.20,86.99,360.00,5.00,0.00,30.18,M,10.00,M,OVC,M,M,M,5000.00,M,M,M,M,KD57 010455Z AUTO 36005KT 10SM OVC050 06/04 A3018 RMK AO2
D57,2017-04-01 05:15,-101.8602,46.8128,42.80,39.20,86.99,0.00,0.00,0.00,30.18,M,10.00,M,OVC,M,M,M,4800.00,M,M,M,M,KD57 010515Z AUTO 00000KT 10SM OVC048 06/04 A3018 RMK AO2
D57,2017-04-01 05:35,-101.8602,46.8128,42.80,39.20,86.99,0.00,0.00,0.00,30.18,M,10.00,M,OVC,M,M,M,4800.00,M,M,M,M,KD57 010535Z AUTO 00000KT 10SM OVC048 06/04 A3018 RMK AO2
D57,2017-04-01 05:55,-101.8602,46.8128,42.80,39.20,86.99,0.00,0.00,0.00,30.18,M,10.00,M,OVC,M,M,M,4900.00,M,M,M,M,KD57 010555Z AUTO 00000KT 10SM OVC049 06/04 A3018 RMK AO2
D57,2017-04-01 06:15,-101.8602,46.8128,42.80,39.20,86.99,0.00,0.00,0.00,30.18,M,10.00,M,OVC,M,M,M,5000.00,M,M,M,M,KD57 010615Z AUTO 00000KT 10SM OVC050 06/04 A3018 RMK AO2
D57,2017-04-01 06:35,-101.8602,46.8128,42.80,39.20,86.99,360.00,6.00,0.00,30.19,M,10.00,M,OVC,M,M,M,4900.00,M,M,M,M,KD57 010635Z AUTO 36006KT 10SM OVC049 06/04 A3019 RMK AO2
D57,2017-04-01 06:55,-101.8602,46.8128,42.80,39.20,86.99,20.00,5.00,0.00,30.20,M,10.00,M,OVC,M,M,M,4900.00,M,M,M,M,KD57 010655Z AUTO 02005KT 10SM OVC049 06/04 A3020 RMK AO2
D57,2017-04-01 07:15,-101.8602,46.8128,41.00,39.20,93.24,350.00,4.00,0.00,30.20,M,10.00,M,OVC,M,M,M,5000.00,M,M,M,M,KD57 010715Z AUTO 35004KT 10SM OVC050 05/04 A3020 RMK AO2
D57,2017-04-01 07:35,-101.8602,46.8128,41.00,39.20,93.24,0.00,0.00,0.00,30.21,M,10.00,M,OVC,M,M,M,5500.00,M,M,M,M,KD57 010735Z AUTO 00000KT 10SM OVC055 05/04 A3021 RMK AO2
D57,2017-04-01 07:55,-101.8602,46.8128,41.00,39.20,93.24,0.00,0.00,0.00,30.21,M,10.00,M,OVC,M,M,M,5500.00,M,M,M,M,KD57 010755Z AUTO 00000KT 10SM OVC055 05/04 A3021 RMK AO2
D57,2017-04-01 08:15,-101.8602,46.8128,41.00,39.20,93.24,0.00,0.00,0.00,30.20,M,8.00,M,BKN,OVC,M,M,6000.00,6500.00,M,M,M,KD57 010815Z AUTO 00000KT 8SM BKN060 OVC065 05/04 A3020 RMK AO2
D57,2017-04-01 08:35,-101.8602,46.8128,39.20,37.40,93.19,0.00,0.00,0.00,30.19,M,8.00,M,OVC,M,M,M,6500.00,M,M,M,M,KD57 010835Z AUTO 00000KT 8SM OVC065 04/03 A3019 RMK AO2
D57,2017-04-01 08:55,-101.8602,46.8128,39.20,37.40,93.19,0.00,0.00,0.00,30.19,M,8.00,M,SCT,OVC,M,M,400.00,6500.00,M,M,M,KD57 010855Z AUTO 00000KT 8SM SCT004 OVC065 04/03 A3019 RMK AO2
D57,2017-04-01 09:15,-101.8602,46.8128,39.20,37.40,93.19,0.00,0.00,0.00,30.18,M,7.00,M,BKN,OVC,M,M,400.00,6000.00,M,M,M,KD57 010915Z AUTO 00000KT 7SM BKN004 OVC060 04/03 A3018 RMK AO2
D57,2017-04-01 09:35,-101.8602,46.8128,39.20,37.40,93.19,0.00,0.00,0.00,30.18,M,6.00,M,OVC,M,M,M,300.00,M,M,M,BR,KD57 010935Z AUTO 00000KT 6SM BR OVC003 04/03 A3018 RMK AO2
D57,2017-04-01 09:55,-101.8602,46.8128,39.20,37.40,93.19,0.00,0.00,0.00,30.18,M,5.00,M,OVC,M,M,M,400.00,M,M,M,BR,KD57 010955Z AUTO 00000KT 5SM BR OVC004 04/03 A3018 RMK AO2
D57,2017-04-01 10:15,-101.8602,46.8128,39.20,37.40,93.19,0.00,0.00,0.00,30.18,M,5.00,M,OVC,M,M,M,300.00,M,M,M,BR,KD57 011015Z AUTO 00000KT 5SM BR OVC003 04/03 A3018 RMK AO2
D57,2017-04-01 10:35,-101.8602,46.8128,39.20,37.40,93.19,0.00,0.00,0.00,30.19,M,4.00,M,OVC,M,M,M,400.00,M,M,M,BR,KD57 011035Z AUTO 00000KT 4SM BR OVC004 04/03 A3019 RMK AO2
D57,2017-04-01 10:55,-101.8602,46.8128,39.20,37.40,93.19,0.00,0.00,0.00,30.18,M,6.00,M,OVC,M,M,M,400.00,M,M,M,BR,KD57 011055Z AUTO 00000KT 6SM BR OVC004 04/03 A3018 RMK AO2
D57,2017-04-01 11:15,-101.8602,46.8128,39.20,37.40,93.19,0.00,0.00,0.00,30.18,M,5.00,M,OVC,M,M,M,300.00,M,M,M,BR,KD57 011115Z AUTO 00000KT 5SM BR OVC003 04/03 A3018 RMK AO2
D57,2017-04-01 11:35,-101.8602,46.8128,39.20,37.40,93.19,0.00,0.00,0.00,30.18,M,3.00,M,OVC,M,M,M,300.00,M,M,M,BR,KD57 011135Z AUTO 00000KT 3SM BR OVC003 04/03 A3018 RMK AO2
D57,2017-04-01 11:55,-101.8602,46.8128,39.20,37.40,93.19,0.00,0.00,0.00,30.18,M,3.00,M,OVC,M,M,M,300.00,M,M,M,BR,KD57 011155Z AUTO 00000KT 3SM BR OVC003 04/03 A3018 RMK AO2
D57,2017-04-01 12:15,-101.8602,46.8128,39.20,37.40,93.19,0.00,0.00,0.00,30.18,M,2.50,M,OVC,M,M,M,200.00,M,M,M,BR,KD57 011215Z AUTO 00000KT 2 1/2SM BR OVC002 04/03 A3018 RMK AO2
D57,2017-04-01 12:35,-101.8602,46.8128,39.20,37.40,93.19,0.00,0.00,0.00,30.18,M,2.00,M,OVC,M,M,M,200.00,M,M,M,BR,KD57 011235Z AUTO 00000KT 2SM BR OVC002 04/03 A3018 RMK AO2
D57,2017-04-01 12:55,-101.8602,46.8128,39.20,37.40,93.19,0.00,0.00,0.00,30.18,M,1.75,M,OVC,M,M,M,200.00,M,M,M,BR,KD57 011255Z AUTO 00000KT 1 3/4SM BR OVC002 04/03 A3018 RMK AO2
D57,2017-04-01 13:15,-101.8602,46.8128,39.20,37.40,93.19,0.00,0.00,0.00,30.18,M,1.50,M,OVC,M,M,M,200.00,M,M,M,BR,KD57 011315Z AUTO 00000KT 1 1/2SM BR OVC002 04/03 A3018 RMK AO2
D57,2017-04-01 13:35,-101.8602,46.8128,39.20,39.20,100.00,0.00,0.00,0.00,30.18,M,2.50,M,FEW,OVC,M,M,200.00,6000.00,M,M,BR,KD57 011335Z AUTO 00000KT 2 1/2SM BR FEW002 OVC060 04/04 A3018 RMK AO2
D57,2017-04-01 13:55,-101.8602,46.8128,41.00,39.20,93.24,0.00,0.00,0.00,30.17,M,4.00,M,OVC,M,M,M,6000.00,M,M,M,BR,KD57 011355Z AUTO 00000KT 4SM BR OVC060 05/04 A3017 RMK AO2
D57,2017-04-01 14:15,-101.8602,46.8128,41.00,39.20,93.24,0.00,0.00,0.00,30.17,M,6.00,M,FEW,OVC,M,M,400.00,6000.00,M,M,BR,KD57 011415Z AUTO 00000KT 6SM BR FEW004 OVC060 05/04 A3017 RMK AO2
D57,2017-04-01 14:35,-101.8602,46.8128,42.80,39.20,86.99,190.00,4.00,0.00,30.17,M,10.00,M,OVC,M,M,M,6000.00,M,M,M,M,KD57 011435Z AUTO 19004KT 10SM OVC060 06/04 A3017 RMK AO2
D57,2017-04-01 14:55,-101.8602,46.8128,44.60,39.20,81.20,210.00,6.00,0.00,30.17,M,10.00,M,OVC,M,M,M,6500.00,M,M,M,M,KD57 011455Z AUTO 21006KT 10SM OVC065 07/04 A3017 RMK AO2
D57,2017-04-01 15:15,-101.8602,46.8128,46.40,39.20,75.84,220.00,6.00,0.00,30.16,M,10.00,M,OVC,M,M,M,6000.00,M,M,M,M,KD57 011515Z AUTO 22006KT 10SM OVC060 08/04 A3016 RMK AO2
D57,2017-04-01 15:35,-101.8602,46.8128,48.20,39.20,70.88,220.00,8.00,0.00,30.17,M,10.00,M,OVC,M,M,M,6500.00,M,M,M,M,KD57 011535Z AUTO 22008KT 10SM OVC065 09/04 A3017 RMK AO2
D57,2017-04-01 15:55,-101.8602,46.8128,51.80,39.20,61.99,230.00,11.00,0.00,30.16,M,10.00,M,BKN,M,M,M,6500.00,M,M,M,M,KD57 011555Z AUTO 23011KT 10SM BKN065 11/04 A3016 RMK AO2
D57,2017-04-01 16:15,-101.8602,46.8128,51.80,35.60,53.81,230.00,10.00,0.00,30.16,M,10.00,16.00,CLR,M,M,M,M,M,M,M,M,KD57 011615Z AUTO 23010G16KT 10SM CLR 11/02 A3016 RMK AO2
D57,2017-04-01 16:35,-101.8602,46.8128,53.60,35.60,50.36,210.00,10.00,0.00,30.15,M,10.00,16.00,CLR,M,M,M,M,M,M,M,M,KD57 011635Z AUTO 21010G16KT 10SM CLR 12/02 A3015 RMK AO2
D57,2017-04-01 16:55,-101.8602,46.8128,55.40,33.80,43.90,210.00,13.00,0.00,30.14,M,10.00,M,CLR,M,M,M,M,M,M,M,M,KD57 011655Z AUTO 21013KT 10SM CLR 13/01 A3014 RMK AO2
D57,2017-04-01 17:15,-101.8602,46.8128,55.40,33.80,43.90,200.00,12.00,0.00,30.13,M,10.00,18.00,CLR,M,M,M,M,M,M,M,M,KD57 011715Z AUTO 20012G18KT 10SM CLR 13/01 A3013 RMK AO2
D57,2017-04-01 17:35,-101.8602,46.8128,57.20,32.00,38.26,200.00,8.00,0.00,30.13,M,10.00,16.00,CLR,M,M,M,M,M,M,M,M,KD57 011735Z AUTO 20008G16KT 10SM CLR 14/00 A3013 RMK AO2
D57,2017-04-01 17:55,-101.8602,46.8128,57.20,32.00,38.26,230.00,12.00,0.00,30.11,M,10.00,18.00,CLR,M,M,M,M,M,M,M,M,KD57 011755Z AUTO 23012G18KT 10SM CLR 14/M00 A3011 RMK AO2
D57,2017-04-01 18:15,-101.8602,46.8128,57.20,32.00,38.26,210.00,11.00,0.00,30.10,M,10.00,19.00,CLR,M,M,M,M,M,M,M,M,KD57 011815Z AUTO 21011G19KT 10SM CLR 14/M00 A3010 RMK AO2
D57,2017-04-01 18:35,-101.8602,46.8128,59.00,32.00,35.87,220.00,10.00,0.00,30.09,M,10.00,17.00,CLR,M,M,M,M,M,M,M,M,KD57 011835Z AUTO 22010G17KT 10SM CLR 15/M00 A3009 RMK AO2
D57,2017-04-01 18:55,-101.8602,46.8128,59.00,30.20,33.35,220.00,11.00,0.00,30.08,M,10.00,17.00,CLR,M,M,M,M,M,M,M,M,KD57 011855Z AUTO 22011G17KT 10SM CLR 15/M01 A3008 RMK AO2
D57,2017-04-01 19:15,-101.8602,46.8128,60.80,30.20,31.28,190.00,15.00,0.00,30.07,M,10.00,M,CLR,M,M,M,M,M,M,M,M,KD57 011915Z AUTO 19015KT 10SM CLR 16/M01 A3007 RMK AO2
D57,2017-04-01 19:35,-101.8602,46.8128,59.00,32.00,35.87,210.00,10.00,0.00,30.06,M,10.00,19.00,FEW,M,M,M,5500.00,M,M,M,M,KD57 011935Z AUTO 21010G19KT 10SM FEW055 15/M00 A3006 RMK AO2
D57,2017-04-01 19:55,-101.8602,46.8128,59.00,32.00,35.87,210.00,11.00,0.00,30.05,M,10.00,21.00,FEW,M,M,M,5500.00,M,M,M,M,KD57 011955Z AUTO 21011G21KT 10SM FEW055 15/M00 A3005 RMK AO2
D57,2017-04-01 20:15,-101.8602,46.8128,60.80,32.00,33.64,210.00,11.00,0.00,30.04,M,10.00,21.00,FEW,M,M,M,5500.00,M,M,M,M,KD57 012015Z AUTO 21011G21KT 10SM FEW055 16/00 A3004 RMK AO2
D57,2017-04-01 20:35,-101.8602,46.8128,60.80,32.00,33.64,190.00,13.00,0.00,30.03,M,10.00,21.00,FEW,M,M,M,5500.00,M,M,M,M,KD57 012035Z AUTO 19013G21KT 10SM FEW055 16/00 A3003 RMK AO2
D57,2017-04-01 20:55,-101.8602,46.8128,60.80,32.00,33.64,200.00,10.00,0.00,30.01,M,10.00,21.00,FEW,M,M,M,5500.00,M,M,M,M,KD57 012055Z AUTO 20010G21KT 10SM FEW055 16/M00 A3001 RMK AO2
D57,2017-04-01 21:15,-101.8602,46.8128,60.80,32.00,33.64,230.00,15.00,0.00,30.00,M,10.00,20.00,FEW,M,M,M,6000.00,M,M,M,M,KD57 012115Z AUTO 23015G20KT 10SM FEW060 16/00 A3000 RMK AO2
D57,2017-04-01 21:35,-101.8602,46.8128,60.80,32.00,33.64,200.00,12.00,0.00,29.99,M,10.00,18.00,CLR,M,M,M,M,M,M,M,M,KD57 012135Z AUTO 20012G18KT 10SM CLR 16/M00 A2999 RMK AO2
D57,2017-04-01 21:55,-101.8602,46.8128,60.80,32.00,33.64,190.00,13.00,0.00,29.98,M,10.00,20.00,CLR,M,M,M,M,M,M,M,M,KD57 012155Z AUTO 19013G20KT 10SM CLR 16/M00 A2998 RMK AO2
D57,2017-04-01 22:15,-101.8602,46.8128,60.80,32.00,33.64,200.00,13.00,0.00,29.97,M,10.00,19.00,FEW,M,M,M,6000.00,M,M,M,M,KD57 012215Z AUTO 20013G19KT 10SM FEW060 16/M00 A2997 RMK AO2
D57,2017-04-01 22:35,-101.8602,46.8128,60.80,30.20,31.28,190.00,14.00,0.00,29.96,M,10.00,20.00,CLR,M,M,M,M,M,M,M,M,KD57 012235Z AUTO 19014G20KT 10SM CLR 16/M01 A2996 RMK AO2
D57,2017-04-01 22:55,-101.8602,46.8128,60.80,30.20,31.28,200.00,15.00,0.00,29.96,M,10.00,M,CLR,M,M,M,M,M,M,M,M,KD57 012255Z AUTO 20015KT 10SM CLR 16/M01 A2996 RMK AO2
D57,2017-04-01 23:15,-101.8602,46.8128,60.80,30.20,31.28,180.00,16.00,0.00,29.95,M,10.00,M,CLR,M,M,M,M,M,M,M,M,KD57 012315Z AUTO 18016KT 10SM CLR 16/M01 A2995 RMK AO2
D57,2017-04-01 23:35,-101.8602,46.8128,59.00,32.00,35.87,180.00,12.00,0.00,29.94,M,10.00,20.00,CLR,M,M,M,M,M,M,M,M,KD57 012335Z AUTO 18012G20KT 10SM CLR 15/M00 A2994 RMK AO2
D57,2017-04-01 23:55,-101.8602,46.8128,59.00,32.00,35.87,180.00,11.00,0.00,29.93,M,10.00,18.00,CLR,M,M,M,M,M,M,M,M,KD57 012355Z AUTO 18011G18KT 10SM CLR 15/00 A2993 RMK AO2
