#DEBUG: Format Typ    -> comma
#DEBUG: Time Period   -> 2017-04-01 00:00:00+00:00 2017-04-02 00:00:00+00:00
#DEBUG: Time Zone     -> Etc/UTC
#DEBUG: Data Contact   -> daryl herzmann akrherz@iastate.edu 515-294-5978
#DEBUG: Entries Found -> -1
station,valid,lon,lat,tmpf, dwpf, relh, drct, sknt, p01i, alti, mslp, vsby, gust, skyc1, skyc2, skyc3, skyc4, skyl1, skyl2, skyl3, skyl4, presentwx, metar
DAW,2017-04-01 00:00,-70.9200,43.2800,M,M,M,40.00,4.00,0.01,30.08,M,1.25,M,SCT,OVC,M,M,600.00,1900.00,M,M,-SN BR,KDAW 010000Z AUTO 04004KT 1 1/2SM -SN BR SCT006 OVC019 A3008 RMK P0001 MADISHF
DAW,2017-04-01 00:05,-70.9200,43.2800,M,M,M,40.00,4.00,0.02,30.08,M,1.25,M,SCT,OVC,M,M,700.00,1699.00,M,M,-SN BR,KDAW 010005Z AUTO 04004KT 1 1/2SM -SN BR SCT007 OVC016 A3008 RMK P0002 MADISHF
DAW,2017-04-01 00:10,-70.9200,43.2800,M,M,M,30.00,4.00,0.02,30.08,M,1.25,M,SCT,OVC,M,M,700.00,1699.00,M,M,-SN BR,KDAW 010010Z AUTO 03004KT 1 1/2SM -SN BR SCT007 OVC016 A3008 RMK P0002 MADISHF
DAW,2017-04-01 00:20,-70.9200,43.2800,M,M,M,30.00,3.00,0.03,30.08,M,1.00,M,SCT,OVC,M,M,700.00,1300.00,M,M,-SN BR,KDAW 010020Z AUTO 03003KT 1SM -SN BR SCT007 OVC013 A3008 RMK P0003 MADISHF
DAW,2017-04-01 00:23,-70.9200,43.2800,30.90,28.00,88.84,20.00,3.00,0.03,30.08,M,1.00,M,SCT,OVC,M,M,700.00,1300.00,M,M,-SN BR,KDAW 010023Z AUTO 02003KT 1SM -SN BR SCT007 OVC013 M01/M02 A3008 RMK AO2 P0003 T10061022
DAW,2017-04-01 00:25,-70.9200,43.2800,M,M,M,40.00,3.00,0.03,30.08,M,1.00,M,SCT,OVC,M,M,700.00,1300.00,M,M,-SN BR,KDAW 010025Z AUTO 04003KT 1SM -SN BR SCT007 OVC013 A3008 RMK P0003 MADISHF
DAW,2017-04-01 00:35,-70.9200,43.2800,M,M,M,30.00,3.00,0.04,30.08,M,1.00,M,SCT,OVC,M,M,700.00,1100.00,M,M,-SN BR,KDAW 010035Z AUTO 03003KT 1SM -SN BR SCT007 OVC011 A3008 RMK P0004 MADISHF
DAW,2017-04-01 00:40,-70.9200,43.2800,M,M,M,30.00,4.00,0.04,30.08,M,1.25,M,SCT,OVC,M,M,700.00,1100.00,M,M,-SN BR,KDAW 010040Z AUTO 03004KT 1 1/2SM -SN BR SCT007 OVC011 A3008 RMK P0004 MADISHF
DAW,2017-04-01 00:45,-70.9200,43.2800,M,M,M,30.00,3.00,0.05,30.08,M,1.25,M,SCT,OVC,M,M,700.00,1200.00,M,M,-SN BR,KDAW 010045Z AUTO 03003KT 1 1/2SM -SN BR SCT007 OVC012 A3008 RMK P0005 MADISHF
DAW,2017-04-01 00:51,-70.9200,43.2800,30.90,28.00,88.84,40.00,4.00,0.05,30.08,1018.50,1.25,M,SCT,OVC,M,M,700.00,1200.00,M,M,-SN BR,KDAW 010051Z AUTO 04004KT 1 1/4SM -SN BR SCT007 OVC012 M01/M02 A3008 RMK AO2 SLP185 P0005 T10061022
DAW,2017-04-01 00:55,-70.9200,43.2800,M,M,M,40.00,3.00,M,30.07,M,1.25,M,SCT,OVC,M,M,700.00,1200.00,M,M,-SN BR,KDAW 010055Z AUTO 04003KT 1 1/2SM -SN BR SCT007 OVC012 A3007 RMK MADISHF
DAW,2017-04-01 01:00,-70.9200,43.2800,M,M,M,50.00,4.00,0.01,30.08,M,1.25,M,BKN,OVC,M,M,700.00,1200.00,M,M,-SN BR,KDAW 010100Z AUTO 05004KT 1 1/2SM -SN BR BKN007 OVC012 A3008 RMK P0001 MADISHF
DAW,2017-04-01 01:03,-70.9200,43.2800,30.90,28.00,88.84,50.00,3.00,0.01,30.08,M,1.25,M,BKN,OVC,M,M,700.00,1200.00,M,M,-SN BR,KDAW 010103Z AUTO 05003KT 1 1/4SM -SN BR BKN007 OVC012 M01/M02 A3008 RMK AO2 P0001 T10061022
DAW,2017-04-01 01:10,-70.9200,43.2800,M,M,M,60.00,3.00,0.01,30.08,M,1.25,M,BKN,OVC,M,M,700.00,1200.00,M,M,-SN BR,KDAW 010110Z AUTO 06003KT 1 1/2SM -SN BR BKN007 OVC012 A3008 RMK P0001 MADISHF
DAW,2017-04-01 01:15,-70.9200,43.2800,M,M,M,70.00,4.00,0.02,30.08,M,1.25,M,BKN,OVC,M,M,600.00,1200.00,M,M,-SN BR,KDAW 010115Z AUTO 07004KT 1 1/2SM -SN BR BKN006 OVC012 A3008 RMK P0002 MADISHF
DAW,2017-04-01 01:20,-70.9200,43.2800,M,M,M,70.00,4.00,0.02,30.08,M,1.00,M,BKN,OVC,M,M,600.00,999.00,M,M,-SN BR,KDAW 010120Z AUTO 07004KT 1SM -SN BR BKN006 OVC009 A3008 RMK P0002 MADISHF
DAW,2017-04-01 01:30,-70.9200,43.2800,M,M,M,70.00,4.00,0.04,30.07,M,0.75,M,BKN,OVC,M,M,499.00,900.00,M,M,-SN BR,KDAW 010130Z AUTO 07004KT 1SM -SN BR BKN004 OVC009 A3007 RMK P0004 MADISHF
DAW,2017-04-01 01:31,-70.9200,43.2800,30.90,28.00,88.84,70.00,5.00,0.04,30.07,M,0.75,M,BKN,OVC,M,M,500.00,900.00,M,M,-SN BR,KDAW 010131Z AUTO 07005KT 3/4SM -SN BR BKN005 OVC009 M01/M02 A3007 RMK AO2 P0004 T10061022
DAW,2017-04-01 01:35,-70.9200,43.2800,M,M,M,60.00,3.00,0.04,30.07,M,1.00,M,BKN,OVC,M,M,499.00,900.00,M,M,-SN BR,KDAW 010135Z AUTO 06003KT 1SM -SN BR BKN004 OVC009 A3007 RMK P0004 MADISHF
DAW,2017-04-01 01:40,-70.9200,43.2800,M,M,M,60.00,4.00,0.05,30.07,M,1.00,M,BKN,OVC,M,M,499.00,900.00,M,M,-SN BR,KDAW 010140Z AUTO 06004KT 1SM -SN BR BKN004 OVC009 A3007 RMK P0005 MADISHF
DAW,2017-04-01 01:41,-70.9200,43.2800,30.90,28.90,92.18,60.00,4.00,0.05,30.07,M,1.00,M,BKN,OVC,M,M,500.00,900.00,M,M,-SN BR,KDAW 010141Z AUTO 06004KT 1SM -SN BR BKN005 OVC009 M01/M02 A3007 RMK AO2 P0005 T10061017
DAW,2017-04-01 01:50,-70.9200,43.2800,M,M,M,60.00,4.00,0.06,30.07,M,0.75,M,OVC,M,M,M,600.00,M,M,M,-SN BR,KDAW 010150Z AUTO 06004KT 1SM -SN BR OVC006 A3007 RMK P0006 MADISHF
DAW,2017-04-01 01:51,-70.9200,43.2800,30.90,28.90,92.18,70.00,4.00,0.06,30.07,1018.30,0.75,M,OVC,M,M,M,600.00,M,M,M,-SN BR,KDAW 010151Z AUTO 07004KT 3/4SM -SN BR OVC006 M01/M02 A3007 RMK AO2 SLP183 P0006 T10061017
DAW,2017-04-01 01:55,-70.9200,43.2800,M,M,M,60.00,3.00,0.01,30.07,M,1.00,M,BKN,OVC,M,M,600.00,900.00,M,M,-SN BR,KDAW 010155Z AUTO 06003KT 1SM -SN BR BKN006 OVC009 A3007 RMK P0001 MADISHF
DAW,2017-04-01 02:00,-70.9200,43.2800,M,M,M,60.00,3.00,0.01,30.06,M,1.00,M,BKN,OVC,M,M,600.00,900.00,M,M,-SN BR,KDAW 010200Z AUTO 06003KT 1SM -SN BR BKN006 OVC009 A3006 RMK P0001 MADISHF
DAW,2017-04-01 02:01,-70.9200,43.2800,30.90,28.90,92.18,50.00,4.00,0.02,30.06,M,1.00,M,BKN,OVC,M,M,600.00,900.00,M,M,-SN BR,KDAW 010201Z AUTO 05004KT 1SM -SN BR BKN006 OVC009 M01/M02 A3006 RMK AO2 P0002 T10061017
DAW,2017-04-01 02:05,-70.9200,43.2800,M,M,M,60.00,3.00,0.02,30.06,M,0.75,M,VV ,M,M,M,700.00,M,M,M,-SN BR,KDAW 010205Z AUTO 06003KT 1SM -SN BR VV007 A3006 RMK P0002 MADISHF
DAW,2017-04-01 02:10,-70.9200,43.2800,M,M,M,60.00,3.00,0.03,30.06,M,1.00,M,SCT,OVC,M,M,400.00,800.00,M,M,-SN BR,KDAW 010210Z AUTO 06003KT 1SM -SN BR SCT004 OVC008 A3006 RMK P0003 MADISHF
DAW,2017-04-01 02:14,-70.9200,43.2800,30.90,28.90,92.18,60.00,4.00,0.03,30.06,M,0.75,M,BKN,OVC,M,M,400.00,800.00,M,M,-SN BR,KDAW 010214Z AUTO 06004KT 3/4SM -SN BR BKN004 OVC008 M01/M02 A3006 RMK AO2 P0003 T10061017
DAW,2017-04-01 02:15,-70.9200,43.2800,M,M,M,50.00,3.00,0.03,30.06,M,0.75,M,BKN,OVC,M,M,400.00,800.00,M,M,-SN BR,KDAW 010215Z AUTO 05003KT 1SM -SN BR BKN004 OVC008 A3006 RMK P0003 MADISHF
DAW,2017-04-01 02:20,-70.9200,43.2800,M,M,M,60.00,4.00,0.04,30.05,M,0.75,M,OVC,M,M,M,400.00,M,M,M,-SN BR,KDAW 010220Z AUTO 06004KT 1SM -SN BR OVC004 A3005 RMK P0004 MADISHF
DAW,2017-04-01 02:25,-70.9200,43.2800,M,M,M,50.00,4.00,0.05,30.05,M,0.75,M,VV ,M,M,M,600.00,M,M,M,-SN BR,KDAW 010225Z AUTO 05004KT 1SM -SN BR VV006 A3005 RMK P0005 MADISHF
DAW,2017-04-01 02:29,-70.9200,43.2800,30.90,28.90,92.18,40.00,4.00,0.06,30.05,M,0.50,M,VV ,M,M,M,500.00,M,M,M,SN FZFG,KDAW 010229Z AUTO 04004KT 1/2SM SN FZFG VV005 M01/M02 A3005 RMK AO2 P0006 T10061017
DAW,2017-04-01 02:35,-70.9200,43.2800,M,M,M,30.00,4.00,0.07,30.04,M,0.50,M,VV ,M,M,M,499.00,M,M,M,SN FZFG,KDAW 010235Z AUTO 03004KT 1/2SM SN FZFG VV004 A3004 RMK P0007 MADISHF
DAW,2017-04-01 02:40,-70.9200,43.2800,M,M,M,50.00,4.00,0.07,30.04,M,0.75,M,VV ,M,M,M,499.00,M,M,M,-SN BR,KDAW 010240Z AUTO 05004KT 1SM -SN BR VV004 A3004 RMK P0007 MADISHF
DAW,2017-04-01 02:45,-70.9200,43.2800,M,M,M,50.00,4.00,0.08,30.04,M,0.75,M,VV ,M,M,M,600.00,M,M,M,-SN BR,KDAW 010245Z AUTO 05004KT 1SM -SN BR VV006 A3004 RMK P0008 MADISHF
DAW,2017-04-01 02:51,-70.9200,43.2800,30.90,28.90,92.18,50.00,4.00,0.09,30.04,1017.10,0.75,M,FEW,OVC,M,M,300.00,700.00,M,M,-SN BR,KDAW 010251Z AUTO 05004KT 3/4SM -SN BR FEW003 OVC007 M01/M02 A3004 RMK AO2 SLP171 P0009 60020 T10061017 58015
DAW,2017-04-01 02:55,-70.9200,43.2800,M,M,M,50.00,5.00,M,30.03,M,0.75,M,VV ,M,M,M,600.00,M,M,M,-SN BR,KDAW 010255Z AUTO 05005KT 1SM -SN BR VV006 A3003 RMK MADISHF
DAW,2017-04-01 03:00,-70.9200,43.2800,M,M,M,50.00,4.00,0.01,30.03,M,0.75,M,VV ,M,M,M,600.00,M,M,M,-SN BR,KDAW 010300Z AUTO 05004KT 1SM -SN BR VV006 A3003 RMK P0001 MADISHF
DAW,2017-04-01 03:10,-70.9200,43.2800,M,M,M,60.00,3.00,0.02,30.03,M,0.75,M,OVC,M,M,M,499.00,M,M,M,-SN BR,KDAW 010310Z AUTO 06003KT 1SM -SN BR OVC004 A3003 RMK P0002 MADISHF
DAW,2017-04-01 03:15,-70.9200,43.2800,M,M,M,50.00,5.00,0.03,30.02,M,0.75,M,OVC,M,M,M,499.00,M,M,M,-SN BR,KDAW 010315Z AUTO 05005KT 1SM -SN BR OVC004 A3002 RMK P0003 MADISHF
DAW,2017-04-01 03:20,-70.9200,43.2800,M,M,M,50.00,5.00,0.04,30.02,M,1.00,M,OVC,M,M,M,499.00,M,M,M,-SN BR,KDAW 010320Z AUTO 05005KT 1SM -SN BR OVC004 A3002 RMK P0004 MADISHF
DAW,2017-04-01 03:25,-70.9200,43.2800,M,M,M,70.00,4.00,0.04,30.02,M,0.75,M,OVC,M,M,M,499.00,M,M,M,-SN BR,KDAW 010325Z AUTO 07004KT 1SM -SN BR OVC004 A3002 RMK P0004 MADISHF
DAW,2017-04-01 03:30,-70.9200,43.2800,M,M,M,50.00,4.00,0.05,30.02,M,0.75,M,OVC,M,M,M,400.00,M,M,M,-SN BR,KDAW 010330Z AUTO 05004KT 1SM -SN BR OVC004 A3002 RMK P0005 MADISHF
DAW,2017-04-01 03:32,-70.9200,43.2800,32.00,28.90,88.17,70.00,4.00,0.05,30.02,M,0.75,M,OVC,M,M,M,400.00,M,M,M,-SN BR,KDAW 010332Z AUTO 07004KT 3/4SM -SN BR OVC004 00/M02 A3002 RMK AO2 P0005 T00001017
DAW,2017-04-01 03:35,-70.9200,43.2800,M,M,M,60.00,4.00,0.06,30.01,M,0.75,M,BKN,OVC,M,M,400.00,800.00,M,M,-SN BR,KDAW 010335Z AUTO 06004KT 1SM -SN BR BKN004 OVC008 A3001 RMK P0006 MADISHF
DAW,2017-04-01 03:45,-70.9200,43.2800,M,M,M,80.00,6.00,0.07,30.01,M,0.75,M,OVC,M,M,M,400.00,M,M,M,-SN BR,KDAW 010345Z AUTO 08006KT 1SM -SN BR OVC004 A3001 RMK P0007 MADISHF
DAW,2017-04-01 03:50,-70.9200,43.2800,M,M,M,90.00,6.00,0.07,30.01,M,0.75,M,OVC,M,M,M,400.00,M,M,M,-SN BR,KDAW 010350Z AUTO 09006KT 1SM -SN BR OVC004 A3001 RMK P0007 MADISHF
DAW,2017-04-01 03:51,-70.9200,43.2800,32.00,30.00,92.22,80.00,7.00,0.08,30.01,1016.20,0.75,M,OVC,M,M,M,400.00,M,M,M,-SN BR,KDAW 010351Z AUTO 08007KT 3/4SM -SN BR OVC004 00/M01 A3001 RMK AO2 SLP162 P0008 T00001011
DAW,2017-04-01 03:55,-70.9200,43.2800,M,M,M,90.00,5.00,M,30.01,M,0.75,M,OVC,M,M,M,400.00,M,M,M,-SN BR,KDAW 010355Z AUTO 09005KT 1SM -SN BR OVC004 A3001 RMK MADISHF
DAW,2017-04-01 04:00,-70.9200,43.2800,M,M,M,80.00,6.00,0.01,30.01,M,0.75,M,OVC,M,M,M,499.00,M,M,M,-SN BR,KDAW 010400Z AUTO 08006KT 1SM -SN BR OVC004 A3001 RMK P0001 MADISHF
DAW,2017-04-01 04:02,-70.9200,43.2800,32.00,30.00,92.22,80.00,6.00,0.01,30.01,M,0.75,M,OVC,M,M,M,500.00,M,M,M,-SN BR,KDAW 010402Z AUTO 08006KT 3/4SM -SN BR OVC005 00/M01 A3001 RMK AO2 P0001 T00001011
DAW,2017-04-01 04:05,-70.9200,43.2800,M,M,M,70.00,7.00,0.02,30.01,M,0.75,M,OVC,M,M,M,499.00,M,M,M,-SN BR,KDAW 010405Z AUTO 07007KT 1SM -SN BR OVC004 A3001 RMK P0002 MADISHF
DAW,2017-04-01 04:10,-70.9200,43.2800,M,M,M,80.00,6.00,0.02,30.01,M,0.75,M,OVC,M,M,M,499.00,M,M,M,-SN BR,KDAW 010410Z AUTO 08006KT 1SM -SN BR OVC004 A3001 RMK P0002 MADISHF
DAW,2017-04-01 04:20,-70.9200,43.2800,M,M,M,80.00,7.00,0.04,30.00,M,0.75,M,OVC,M,M,M,499.00,M,M,M,-SN BR,KDAW 010420Z AUTO 08007KT 1SM -SN BR OVC004 A3000 RMK P0004 MADISHF
DAW,2017-04-01 04:25,-70.9200,43.2800,M,M,M,80.00,5.00,0.05,30.00,M,0.75,M,OVC,M,M,M,499.00,M,M,M,-SN BR,KDAW 010425Z AUTO 08005KT 1SM -SN BR OVC004 A3000 RMK P0005 MADISHF
DAW,2017-04-01 04:30,-70.9200,43.2800,M,M,M,70.00,5.00,0.05,30.00,M,0.75,M,OVC,M,M,M,499.00,M,M,M,-SN BR,KDAW 010430Z AUTO 07005KT 1SM -SN BR OVC004 A3000 RMK P0005 MADISHF
DAW,2017-04-01 04:40,-70.9200,43.2800,M,M,M,70.00,4.00,0.07,30.00,M,0.75,M,VV ,M,M,M,600.00,M,M,M,-SN BR,KDAW 010440Z AUTO 07004KT 1SM -SN BR VV006 A3000 RMK P0007 MADISHF
DAW,2017-04-01 04:45,-70.9200,43.2800,M,M,M,60.00,5.00,0.08,30.00,M,0.75,M,VV ,M,M,M,600.00,M,M,M,-SN BR,KDAW 010445Z AUTO 06005KT 1SM -SN BR VV006 A3000 RMK P0008 MADISHF
DAW,2017-04-01 04:50,-70.9200,43.2800,M,M,M,60.00,6.00,0.09,30.00,M,0.75,M,VV ,M,M,M,600.00,M,M,M,-SN BR,KDAW 010450Z AUTO 06006KT 1SM -SN BR VV006 A3000 RMK P0009 MADISHF
DAW,2017-04-01 04:51,-70.9200,43.2800,32.00,30.00,92.22,60.00,5.00,0.09,30.00,1015.80,0.75,M,VV ,M,M,M,600.00,M,M,M,-SN BR,KDAW 010451Z AUTO 06005KT 3/4SM -SN BR VV006 00/M01 A3000 RMK AO2 SLP158 P0009 T00001011 400441011
DAW,2017-04-01 05:00,-70.9200,43.2800,M,M,M,60.00,5.00,0.01,29.99,M,0.75,M,VV ,M,M,M,600.00,M,M,M,-SN BR,KDAW 010500Z AUTO 06005KT 1SM -SN BR VV006 A2999 RMK P0001 MADISHF
DAW,2017-04-01 05:05,-70.9200,43.2800,M,M,M,70.00,5.00,0.02,29.99,M,0.75,M,VV ,M,M,M,600.00,M,M,M,-SN BR,KDAW 010505Z AUTO 07005KT 1SM -SN BR VV006 A2999 RMK P0002 MADISHF
DAW,2017-04-01 05:15,-70.9200,43.2800,M,M,M,60.00,6.00,0.03,29.99,M,1.00,M,VV ,M,M,M,700.00,M,M,M,-SN BR,KDAW 010515Z AUTO 06006KT 1SM -SN BR VV007 A2999 RMK P0003 MADISHF
DAW,2017-04-01 05:20,-70.9200,43.2800,M,M,M,60.00,6.00,0.04,29.98,M,1.00,M,SCT,OVC,M,M,400.00,800.00,M,M,-SN BR,KDAW 010520Z AUTO 06006KT 1SM -SN BR SCT004 OVC008 A2998 RMK P0004 MADISHF
DAW,2017-04-01 05:21,-70.9200,43.2800,32.00,30.00,92.22,60.00,5.00,0.04,29.98,M,1.00,M,VV ,M,M,M,700.00,M,M,M,-SN BR,KDAW 010521Z AUTO 06005KT 1SM -SN BR VV007 00/M01 A2998 RMK AO2 P0004 T00001011
DAW,2017-04-01 05:30,-70.9200,43.2800,M,M,M,60.00,6.00,0.05,29.98,M,1.00,M,OVC,M,M,M,700.00,M,M,M,-SN BR,KDAW 010530Z AUTO 06006KT 1SM -SN BR OVC007 A2998 RMK P0005 MADISHF
DAW,2017-04-01 05:35,-70.9200,43.2800,M,M,M,70.00,6.00,0.05,29.98,M,1.00,M,OVC,M,M,M,700.00,M,M,M,-SN BR,KDAW 010535Z AUTO 07006KT 1SM -SN BR OVC007 A2998 RMK P0005 MADISHF
DAW,2017-04-01 05:40,-70.9200,43.2800,M,M,M,70.00,6.00,0.06,29.97,M,1.00,M,OVC,M,M,M,700.00,M,M,M,-SN BR,KDAW 010540Z AUTO 07006KT 1SM -SN BR OVC007 A2997 RMK P0006 MADISHF
DAW,2017-04-01 05:50,-70.9200,43.2800,M,M,M,70.00,9.00,0.06,29.97,M,1.25,M,OVC,M,M,M,700.00,M,M,M,-SN BR,KDAW 010550Z AUTO 07009KT 1 1/2SM -SN BR OVC007 A2997 RMK P0006 MADISHF
DAW,2017-04-01 05:51,-70.9200,43.2800,32.00,30.00,92.22,80.00,8.00,0.06,29.97,1014.90,1.25,M,OVC,M,M,M,700.00,M,M,M,-SN BR,KDAW 010551Z AUTO 08008KT 1 1/4SM -SN BR OVC007 00/M01 A2997 RMK AO2 SLP149 P0006 60043 T00001011 10000 21011 58022
DAW,2017-04-01 05:55,-70.9200,43.2800,M,M,M,70.00,7.00,0.01,29.97,M,1.25,M,OVC,M,M,M,700.00,M,M,M,-SN BR,KDAW 010555Z AUTO 07007KT 1 1/2SM -SN BR OVC007 A2997 RMK P0001 MADISHF
DAW,2017-04-01 06:00,-70.9200,43.2800,M,M,M,80.00,6.00,0.01,29.96,M,1.25,M,BKN,OVC,M,M,499.00,999.00,M,M,-SN BR,KDAW 010600Z AUTO 08006KT 1 1/2SM -SN BR BKN004 OVC009 A2996 RMK P0001 MADISHF
DAW,2017-04-01 06:05,-70.9200,43.2800,M,M,M,90.00,8.00,0.01,29.97,M,1.25,M,BKN,OVC,M,M,600.00,999.00,M,M,-SN BR,KDAW 010605Z AUTO 09008KT 1 1/2SM -SN BR BKN006 OVC009 A2997 RMK P0001 MADISHF
DAW,2017-04-01 06:10,-70.9200,43.2800,M,M,M,80.00,8.00,0.01,29.97,M,1.25,M,BKN,OVC,M,M,600.00,999.00,M,M,-SN BR,KDAW 010610Z AUTO 08008KT 1 1/2SM -SN BR BKN006 OVC009 A2997 RMK P0001 MADISHF
DAW,2017-04-01 06:15,-70.9200,43.2800,M,M,M,80.00,7.00,0.02,29.97,M,1.25,M,BKN,OVC,M,M,600.00,999.00,M,M,-SN BR,KDAW 010615Z AUTO 08007KT 1 1/2SM -SN BR BKN006 OVC009 A2997 RMK P0002 MADISHF
DAW,2017-04-01 06:25,-70.9200,43.2800,M,M,M,70.00,8.00,0.02,29.96,M,1.00,M,BKN,OVC,M,M,600.00,999.00,M,M,-SN BR,KDAW 010625Z AUTO 07008KT 1SM -SN BR BKN006 OVC009 A2996 RMK P0002 MADISHF
DAW,2017-04-01 06:30,-70.9200,43.2800,M,M,M,70.00,10.00,0.03,29.96,M,1.00,M,BKN,OVC,M,M,600.00,999.00,M,M,-SN BR,KDAW 010630Z AUTO 07010KT 1SM -SN BR BKN006 OVC009 A2996 RMK P0003 MADISHF
DAW,2017-04-01 06:40,-70.9200,43.2800,M,M,M,70.00,7.00,0.04,29.96,M,0.75,M,BKN,OVC,M,M,600.00,900.00,M,M,-SN BR,KDAW 010640Z AUTO 07007KT 1SM -SN BR BKN006 OVC009 A2996 RMK P0004 MADISHF
DAW,2017-04-01 06:42,-70.9200,43.2800,32.00,30.00,92.22,70.00,7.00,0.04,29.95,M,0.75,17.00,OVC,M,M,M,600.00,M,M,M,-SN BR,KDAW 010642Z AUTO 07007G17KT 3/4SM -SN BR OVC006 00/M01 A2995 RMK AO2 P0004 T00001011
DAW,2017-04-01 06:45,-70.9200,43.2800,M,M,M,60.00,9.00,0.04,29.95,M,0.75,M,OVC,M,M,M,600.00,M,M,M,-SN BR,KDAW 010645Z AUTO 06009KT 1SM -SN BR OVC006 A2995 RMK P0004 MADISHF
DAW,2017-04-01 06:50,-70.9200,43.2800,M,M,M,80.00,8.00,0.05,29.95,M,0.75,M,BKN,OVC,M,M,600.00,999.00,M,M,-SN BR,KDAW 010650Z AUTO 08008KT 1SM -SN BR BKN006 OVC009 A2995 RMK P0005 MADISHF
DAW,2017-04-01 06:51,-70.9200,43.2800,32.00,30.00,92.22,80.00,8.00,0.05,29.95,1014.40,0.75,M,BKN,OVC,M,M,600.00,1000.00,M,M,-SN BR,KDAW 010651Z AUTO 08008KT 3/4SM -SN BR BKN006 OVC010 00/M01 A2995 RMK AO2 SLP144 P0005 T00001011
DAW,2017-04-01 06:58,-70.9200,43.2800,32.00,30.00,92.22,60.00,7.00,0.00,29.95,M,1.00,M,OVC,M,M,M,600.00,M,M,M,-SN BR,KDAW 010658Z AUTO 06007KT 1SM -SN BR OVC006 00/M01 A2995 RMK AO2 P0000 T00001011
DAW,2017-04-01 07:00,-70.9200,43.2800,M,M,M,60.00,6.00,0.01,29.95,M,1.00,M,BKN,OVC,M,M,600.00,900.00,M,M,-SN BR,KDAW 010700Z AUTO 06006KT 1SM -SN BR BKN006 OVC009 A2995 RMK P0001 MADISHF
DAW,2017-04-01 07:05,-70.9200,43.2800,M,M,M,70.00,7.00,0.01,29.95,M,1.00,M,OVC,M,M,M,700.00,M,M,M,-SN BR,KDAW 010705Z AUTO 07007KT 1SM -SN BR OVC007 A2995 RMK P0001 MADISHF
DAW,2017-04-01 07:10,-70.9200,43.2800,M,M,M,60.00,7.00,0.01,29.94,M,1.25,M,OVC,M,M,M,700.00,M,M,M,-SN BR,KDAW 010710Z AUTO 06007KT 1 1/2SM -SN BR OVC007 A2994 RMK P0001 MADISHF
DAW,2017-04-01 07:15,-70.9200,43.2800,M,M,M,70.00,8.00,0.02,29.94,M,1.25,M,BKN,OVC,M,M,700.00,999.00,M,M,-SN BR,KDAW 010715Z AUTO 07008KT 1 1/2SM -SN BR BKN007 OVC009 A2994 RMK P0002 WND 03V10  MADISHF
DAW,2017-04-01 07:20,-70.9200,43.2800,M,M,M,70.00,11.00,0.02,29.94,M,1.25,M,BKN,OVC,M,M,700.00,999.00,M,M,-SN BR,KDAW 010720Z AUTO 07011KT 1 1/2SM -SN BR BKN007 OVC009 A2994 RMK P0002 MADISHF
DAW,2017-04-01 07:25,-70.9200,43.2800,M,M,M,60.00,8.00,0.02,29.93,M,1.00,M,BKN,OVC,M,M,600.00,999.00,M,M,-SN BR,KDAW 010725Z AUTO 06008KT 1SM -SN BR BKN006 OVC009 A2993 RMK P0002 MADISHF
DAW,2017-04-01 07:30,-70.9200,43.2800,M,M,M,60.00,8.00,0.03,29.93,M,1.00,M,OVC,M,M,M,600.00,M,M,M,-SN BR,KDAW 010730Z AUTO 06008KT 1SM -SN BR OVC006 A2993 RMK P0003 MADISHF
DAW,2017-04-01 07:35,-70.9200,43.2800,M,M,M,50.00,6.00,0.03,29.93,M,1.00,M,BKN,OVC,M,M,600.00,999.00,M,M,-SN BR,KDAW 010735Z AUTO 05006KT 1SM -SN BR BKN006 OVC009 A2993 RMK P0003 MADISHF
DAW,2017-04-01 07:40,-70.9200,43.2800,M,M,M,60.00,8.00,0.03,29.93,M,1.00,M,BKN,OVC,M,M,600.00,999.00,M,M,-SN BR,KDAW 010740Z AUTO 06008KT 1SM -SN BR BKN006 OVC009 A2993 RMK P0003 MADISHF
DAW,2017-04-01 07:50,-70.9200,43.2800,M,M,M,70.00,6.00,0.04,29.92,M,1.00,M,BKN,OVC,M,M,600.00,999.00,M,M,-SN BR,KDAW 010750Z AUTO 07006KT 1SM -SN BR BKN006 OVC009 A2992 RMK P0004 MADISHF
DAW,2017-04-01 07:51,-70.9200,43.2800,32.00,30.00,92.22,60.00,6.00,0.04,29.92,1013.30,1.00,M,BKN,OVC,M,M,600.00,1000.00,M,M,-SN BR,KDAW 010751Z AUTO 06006KT 1SM -SN BR BKN006 OVC010 00/M01 A2992 RMK AO2 SLP133 P0004 T00001011
DAW,2017-04-01 07:55,-70.9200,43.2800,M,M,M,50.00,10.00,0.01,29.92,M,1.00,M,OVC,M,M,M,800.00,M,M,M,-SN BR,KDAW 010755Z AUTO 05010KT 1SM -SN BR OVC008 A2992 RMK P0001 MADISHF
DAW,2017-04-01 08:05,-70.9200,43.2800,M,M,M,50.00,9.00,0.02,29.92,M,1.00,M,OVC,M,M,M,600.00,M,M,M,-SN BR,KDAW 010805Z AUTO 05009KT 1SM -SN BR OVC006 A2992 RMK P0002 MADISHF
DAW,2017-04-01 08:10,-70.9200,43.2800,M,M,M,60.00,6.00,0.02,29.92,M,1.00,M,BKN,OVC,M,M,600.00,999.00,M,M,-SN BR,KDAW 010810Z AUTO 06006KT 1SM -SN BR BKN006 OVC009 A2992 RMK P0002 MADISHF
DAW,2017-04-01 08:15,-70.9200,43.2800,M,M,M,50.00,6.00,0.03,29.92,M,1.00,M,OVC,M,M,M,600.00,M,M,M,-SN BR,KDAW 010815Z AUTO 05006KT 1SM -SN BR OVC006 A2992 RMK P0003 MADISHF
DAW,2017-04-01 08:25,-70.9200,43.2800,M,M,M,50.00,8.00,0.04,29.92,M,0.75,M,OVC,M,M,M,600.00,M,M,M,-SN BR,KDAW 010825Z AUTO 05008KT 1SM -SN BR OVC006 A2992 RMK P0004 MADISHF
DAW,2017-04-01 08:30,-70.9200,43.2800,M,M,M,60.00,9.00,0.04,29.91,M,0.75,M,OVC,M,M,M,600.00,M,M,M,-SN BR,KDAW 010830Z AUTO 06009KT 1SM -SN BR OVC006 A2991 RMK P0004 MADISHF
DAW,2017-04-01 08:31,-70.9200,43.2800,32.00,30.00,92.22,60.00,9.00,0.04,29.91,M,0.75,M,OVC,M,M,M,600.00,M,M,M,-SN BR,KDAW 010831Z AUTO 06009KT 3/4SM -SN BR OVC006 00/M01 A2991 RMK AO2 P0004 T00001011
DAW,2017-04-01 08:40,-70.9200,43.2800,M,M,M,50.00,8.00,0.05,29.91,M,0.75,M,OVC,M,M,M,600.00,M,M,M,-SN BR,KDAW 010840Z AUTO 05008KT 1SM -SN BR OVC006 A2991 RMK P0005 MADISHF
DAW,2017-04-01 08:45,-70.9200,43.2800,M,M,M,70.00,8.00,0.06,29.91,M,0.75,M,OVC,M,M,M,600.00,M,M,M,-SN BR,KDAW 010845Z AUTO 07008KT 1SM -SN BR OVC006 A2991 RMK P0006 MADISHF
DAW,2017-04-01 08:50,-70.9200,43.2800,M,M,M,60.00,7.00,0.07,29.90,M,0.75,M,OVC,M,M,M,600.00,M,M,M,-SN BR,KDAW 010850Z AUTO 06007KT 1SM -SN BR OVC006 A2990 RMK P0007 MADISHF
DAW,2017-04-01 08:51,-70.9200,43.2800,32.00,30.00,92.22,50.00,8.00,0.07,29.90,1012.60,0.75,M,OVC,M,M,M,600.00,M,M,M,-SN BR,KDAW 010851Z AUTO 05008KT 3/4SM -SN BR OVC006 00/M01 A2990 RMK AO2 SLP126 P0007 60016 T00001011 58022
DAW,2017-04-01 09:00,-70.9200,43.2800,M,M,M,40.00,10.00,0.01,29.90,M,1.00,M,OVC,M,M,M,600.00,M,M,M,-SN BR,KDAW 010900Z AUTO 04010KT 1SM -SN BR OVC006 A2990 RMK P0001 MADISHF
DAW,2017-04-01 09:02,-70.9200,43.2800,32.00,30.00,92.22,50.00,9.00,0.01,29.90,M,1.00,M,OVC,M,M,M,600.00,M,M,M,-SN BR,KDAW 010902Z AUTO 05009KT 1SM -SN BR OVC006 00/M01 A2990 RMK AO2 P0001 T00001011
DAW,2017-04-01 09:05,-70.9200,43.2800,M,M,M,40.00,9.00,0.01,29.90,M,1.00,M,OVC,M,M,M,600.00,M,M,M,-SN BR,KDAW 010905Z AUTO 04009KT 1SM -SN BR OVC006 A2990 RMK P0001 MADISHF
DAW,2017-04-01 09:10,-70.9200,43.2800,M,M,M,50.00,7.00,0.01,29.90,M,1.00,M,OVC,M,M,M,600.00,M,M,M,-SN BR,KDAW 010910Z AUTO 05007KT 1SM -SN BR OVC006 A2990 RMK P0001 MADISHF
DAW,2017-04-01 09:15,-70.9200,43.2800,M,M,M,40.00,8.00,0.02,29.89,M,1.00,M,BKN,OVC,M,M,600.00,900.00,M,M,-SN BR,KDAW 010915Z AUTO 04008KT 1SM -SN BR BKN006 OVC009 A2989 RMK P0002 MADISHF
DAW,2017-04-01 09:20,-70.9200,43.2800,M,M,M,40.00,9.00,0.02,29.89,M,1.00,M,OVC,M,M,M,600.00,M,M,M,-SN BR,KDAW 010920Z AUTO 04009KT 1SM -SN BR OVC006 A2989 RMK P0002 MADISHF
DAW,2017-04-01 09:25,-70.9200,43.2800,M,M,M,30.00,8.00,0.03,29.89,M,1.25,M,BKN,OVC,M,M,499.00,999.00,M,M,-SN BR,KDAW 010925Z AUTO 03008KT 1 1/2SM -SN BR BKN004 OVC009 A2989 RMK P0003 MADISHF
DAW,2017-04-01 09:30,-70.9200,43.2800,M,M,M,40.00,9.00,0.03,29.89,M,1.50,M,OVC,M,M,M,700.00,M,M,M,-SN BR,KDAW 010930Z AUTO 04009KT 1 1/2SM -SN BR OVC007 A2989 RMK P0003 MADISHF
DAW,2017-04-01 09:40,-70.9200,43.2800,M,M,M,30.00,8.00,0.03,29.89,M,2.00,M,OVC,M,M,M,700.00,M,M,M,-SN BR,KDAW 010940Z AUTO 03008KT 2SM -SN BR OVC007 A2989 RMK P0003 CIG 4V9  MADISHF
DAW,2017-04-01 09:42,-70.9200,43.2800,32.00,30.00,92.22,40.00,9.00,0.03,29.89,M,2.00,M,OVC,M,M,M,700.00,M,M,M,-SN BR,KDAW 010942Z AUTO 04009KT 2SM -SN BR OVC007 00/M01 A2989 RMK AO2 CIG 004V009 P0003 T00001011
DAW,2017-04-01 09:45,-70.9200,43.2800,M,M,M,50.00,9.00,0.03,29.89,M,2.00,14.00,OVC,M,M,M,700.00,M,M,M,-SN BR,KDAW 010945Z AUTO 05009G14KT 2SM -SN BR OVC007 A2989 RMK P0003 CIG 4V9  MADISHF
DAW,2017-04-01 09:51,-70.9200,43.2800,32.00,30.00,92.22,40.00,9.00,0.03,29.90,1012.40,1.50,M,OVC,M,M,M,700.00,M,M,M,-SN BR,KDAW 010951Z AUTO 04009KT 1 1/2SM -SN BR OVC007 00/M01 A2990 RMK AO2 SLP124 P0003 T00001011
DAW,2017-04-01 09:55,-70.9200,43.2800,M,M,M,40.00,10.00,0.01,29.89,M,1.25,M,OVC,M,M,M,700.00,M,M,M,-SN BR,KDAW 010955Z AUTO 04010KT 1 1/2SM -SN BR OVC007 A2989 RMK P0001 MADISHF
DAW,2017-04-01 10:00,-70.9200,43.2800,M,M,M,30.00,8.00,0.01,29.89,M,1.25,M,BKN,OVC,M,M,600.00,1100.00,M,M,-SN BR,KDAW 011000Z AUTO 03008KT 1 1/2SM -SN BR BKN006 OVC011 A2989 RMK P0001 MADISHF
DAW,2017-04-01 10:05,-70.9200,43.2800,M,M,M,40.00,7.00,0.02,29.89,M,1.25,M,BKN,OVC,M,M,600.00,1100.00,M,M,-SN BR,KDAW 011005Z AUTO 04007KT 1 1/2SM -SN BR BKN006 OVC011 A2989 RMK P0002 MADISHF
DAW,2017-04-01 10:10,-70.9200,43.2800,M,M,M,40.00,7.00,0.02,29.89,M,1.75,M,OVC,M,M,M,600.00,M,M,M,-SN BR,KDAW 011010Z AUTO 04007KT 2SM -SN BR OVC006 A2989 RMK P0002 MADISHF
DAW,2017-04-01 10:15,-70.9200,43.2800,M,M,M,40.00,8.00,0.02,29.89,M,2.50,M,OVC,M,M,M,800.00,M,M,M,-SN BR,KDAW 011015Z AUTO 04008KT 2 1/2SM -SN BR OVC008 A2989 RMK P0002 MADISHF
DAW,2017-04-01 10:16,-70.9200,43.2800,32.00,30.00,92.22,30.00,9.00,0.02,29.89,M,3.00,M,BKN,OVC,M,M,600.00,1100.00,M,M,-SN BR,KDAW 011016Z AUTO 03009KT 3SM -SN BR BKN006 OVC011 00/M01 A2989 RMK AO2 P0002 T00001011
DAW,2017-04-01 10:20,-70.9200,43.2800,M,M,M,40.00,8.00,0.02,29.89,M,4.00,M,OVC,M,M,M,600.00,M,M,M,-SN BR,KDAW 011020Z AUTO 04008KT 4SM -SN BR OVC006 A2989 RMK P0002 CIG 4V10  MADISHF
DAW,2017-04-01 10:25,-70.9200,43.2800,M,M,M,40.00,10.00,0.02,29.89,M,4.00,M,OVC,M,M,M,600.00,M,M,M,-SN BR,KDAW 011025Z AUTO 04010KT 4SM -SN BR OVC006 A2989 RMK P0002 CIG 4V10  MADISHF
DAW,2017-04-01 10:30,-70.9200,43.2800,M,M,M,40.00,8.00,0.02,29.89,M,4.00,M,OVC,M,M,M,700.00,M,M,M,-SN BR,KDAW 011030Z AUTO 04008KT 4SM -SN BR OVC007 A2989 RMK P0002 CIG 4V12  MADISHF
DAW,2017-04-01 10:35,-70.9200,43.2800,M,M,M,30.00,7.00,0.02,29.89,M,3.50,M,OVC,M,M,M,700.00,M,M,M,-SN BR,KDAW 011035Z AUTO 03007KT 3SM -SN BR OVC007 A2989 RMK P0002 WND 36V06 CIG 5V10  MADISHF
DAW,2017-04-01 10:45,-70.9200,43.2800,M,M,M,40.00,10.00,0.02,29.89,M,2.50,M,OVC,M,M,M,700.00,M,M,M,-SN BR,KDAW 011045Z AUTO 04010KT 2 1/2SM -SN BR OVC007 A2989 RMK P0002 CIG 5V12  MADISHF
DAW,2017-04-01 10:50,-70.9200,43.2800,M,M,M,50.00,10.00,0.02,29.89,M,2.50,M,OVC,M,M,M,700.00,M,M,M,-SN BR,KDAW 011050Z AUTO 05010KT 2 1/2SM -SN BR OVC007 A2989 RMK P0002 CIG 5V12  MADISHF
DAW,2017-04-01 10:51,-70.9200,43.2800,33.10,30.00,88.23,40.00,9.00,0.02,29.89,1012.30,2.50,M,OVC,M,M,M,700.00,M,M,M,-SN BR,KDAW 011051Z AUTO 04009KT 2 1/2SM -SN BR OVC007 01/M01 A2989 RMK AO2 CIG 005V010 SLP123 P0002 T00061011
DAW,2017-04-01 10:55,-70.9200,43.2800,M,M,M,60.00,7.00,M,29.89,M,2.50,M,OVC,M,M,M,700.00,M,M,M,-SN BR,KDAW 011055Z AUTO 06007KT 2 1/2SM -SN BR OVC007 A2989 RMK WND 02V10 CIG 5V10  MADISHF
DAW,2017-04-01 11:00,-70.9200,43.2800,M,M,M,40.00,8.00,M,29.89,M,2.50,M,OVC,M,M,M,800.00,M,M,M,-SN BR,KDAW 011100Z AUTO 04008KT 2 1/2SM -SN BR OVC008 A2989 RMK WND 01V07 CIG 5V12  MADISHF
DAW,2017-04-01 11:05,-70.9200,43.2800,M,M,M,60.00,8.00,M,29.90,M,2.50,M,OVC,M,M,M,800.00,M,M,M,-SN BR,KDAW 011105Z AUTO 06008KT 2 1/2SM -SN BR OVC008 A2990 RMK CIG 5V12  MADISHF
DAW,2017-04-01 11:10,-70.9200,43.2800,M,M,M,40.00,8.00,M,29.89,M,2.50,M,OVC,M,M,M,800.00,M,M,M,-SN BR,KDAW 011110Z AUTO 04008KT 2 1/2SM -SN BR OVC008 A2989 RMK MADISHF
DAW,2017-04-01 11:20,-70.9200,43.2800,M,M,M,40.00,10.00,M,29.89,M,1.50,M,OVC,M,M,M,800.00,M,M,M,-SN BR,KDAW 011120Z AUTO 04010KT 1 1/2SM -SN BR OVC008 A2989 RMK WND 36V07  MADISHF
DAW,2017-04-01 11:23,-70.9200,43.2800,33.10,30.00,88.23,50.00,11.00,0.00,29.89,M,1.25,21.00,OVC,M,M,M,800.00,M,M,M,-SN BR,KDAW 011123Z AUTO 05011G21KT 1 1/4SM -SN BR OVC008 01/M01 A2989 RMK AO2 P0000 T00061011
DAW,2017-04-01 11:25,-70.9200,43.2800,M,M,M,40.00,11.00,M,29.89,M,1.00,16.00,OVC,M,M,M,800.00,M,M,M,-SN BR,KDAW 011125Z AUTO 04011G16KT 1SM -SN BR OVC008 A2989 RMK MADISHF
DAW,2017-04-01 11:35,-70.9200,43.2800,M,M,M,40.00,10.00,M,29.89,M,1.00,M,OVC,M,M,M,800.00,M,M,M,-SN BR,KDAW 011135Z AUTO 04010KT 1SM -SN BR OVC008 A2989 RMK MADISHF
DAW,2017-04-01 11:40,-70.9200,43.2800,M,M,M,40.00,9.00,0.01,29.89,M,0.75,M,OVC,M,M,M,800.00,M,M,M,-SN BR,KDAW 011140Z AUTO 04009KT 1SM -SN BR OVC008 A2989 RMK P0001 MADISHF
DAW,2017-04-01 11:42,-70.9200,43.2800,33.10,30.00,88.23,50.00,11.00,0.01,29.89,M,0.75,16.00,OVC,M,M,M,800.00,M,M,M,-SN BR,KDAW 011142Z AUTO 05011G16KT 3/4SM -SN BR OVC008 01/M01 A2989 RMK AO2 P0001 T00061011
DAW,2017-04-01 11:45,-70.9200,43.2800,M,M,M,40.00,8.00,0.01,29.89,M,0.75,M,OVC,M,M,M,800.00,M,M,M,-SN BR,KDAW 011145Z AUTO 04008KT 1SM -SN BR OVC008 A2989 RMK P0001 MADISHF
DAW,2017-04-01 11:51,-70.9200,43.2800,33.10,30.00,88.23,40.00,8.00,0.01,29.90,1012.40,0.75,17.00,OVC,M,M,M,800.00,M,M,M,-SN BR,KDAW 011151Z AUTO 04008G17KT 3/4SM -SN BR OVC008 01/M01 A2990 RMK AO2 SLP124 P0001 60022 70066 T00061011 10006 20000 55002
DAW,2017-04-01 11:55,-70.9200,43.2800,M,M,M,40.00,9.00,M,29.90,M,0.75,M,OVC,M,M,M,800.00,M,M,M,-SN BR,KDAW 011155Z AUTO 04009KT 1SM -SN BR OVC008 A2990 RMK MADISHF
DAW,2017-04-01 12:00,-70.9200,43.2800,M,M,M,30.00,10.00,M,29.90,M,0.75,M,OVC,M,M,M,800.00,M,M,M,-SN BR,KDAW 011200Z AUTO 03010KT 1SM -SN BR OVC008 A2990 RMK MADISHF
DAW,2017-04-01 12:05,-70.9200,43.2800,M,M,M,50.00,11.00,M,29.90,M,0.75,19.00,BKN,OVC,M,M,600.00,1100.00,M,M,-SN BR,KDAW 011205Z AUTO 05011G19KT 1SM -SN BR BKN006 OVC011 A2990 RMK MADISHF
DAW,2017-04-01 12:10,-70.9200,43.2800,M,M,M,40.00,10.00,0.01,29.89,M,0.75,15.00,BKN,OVC,M,M,600.00,999.00,M,M,-SN BR,KDAW 011210Z AUTO 04010G15KT 1SM -SN BR BKN006 OVC009 A2989 RMK P0001 MADISHF
DAW,2017-04-01 12:15,-70.9200,43.2800,M,M,M,30.00,10.00,0.01,29.89,M,0.50,M,BKN,OVC,M,M,600.00,999.00,M,M,SN FG,KDAW 011215Z AUTO 03010KT 1/2SM SN FG BKN006 OVC009 A2989 RMK P0001 MADISHF
DAW,2017-04-01 12:20,-70.9200,43.2800,M,M,M,40.00,9.00,0.01,29.89,M,0.50,15.00,OVC,M,M,M,600.00,M,M,M,SN FG,KDAW 011220Z AUTO 04009G15KT 1/2SM SN FG OVC006 A2989 RMK P0001 MADISHF
DAW,2017-04-01 12:25,-70.9200,43.2800,M,M,M,50.00,9.00,0.01,29.89,M,0.50,M,OVC,M,M,M,600.00,M,M,M,SN FG,KDAW 011225Z AUTO 05009KT 1/2SM SN FG OVC006 A2989 RMK P0001 MADISHF
DAW,2017-04-01 12:30,-70.9200,43.2800,M,M,M,40.00,9.00,0.02,29.89,M,0.50,M,BKN,OVC,M,M,600.00,999.00,M,M,SN FG,KDAW 011230Z AUTO 04009KT 1/2SM SN FG BKN006 OVC009 A2989 RMK P0002 MADISHF
DAW,2017-04-01 12:35,-70.9200,43.2800,M,M,M,40.00,11.00,0.02,29.89,M,0.50,16.00,OVC,M,M,M,600.00,M,M,M,SN FG,KDAW 011235Z AUTO 04011G16KT 1/2SM SN FG OVC006 A2989 RMK P0002 MADISHF
DAW,2017-04-01 12:45,-70.9200,43.2800,M,M,M,40.00,8.00,0.02,29.89,M,0.75,M,OVC,M,M,M,800.00,M,M,M,-SN BR,KDAW 011245Z AUTO 04008KT 1SM -SN BR OVC008 A2989 RMK P0002 MADISHF
DAW,2017-04-01 12:50,-70.9200,43.2800,M,M,M,30.00,8.00,0.03,29.89,M,1.00,M,OVC,M,M,M,800.00,M,M,M,-SN BR,KDAW 011250Z AUTO 03008KT 1SM -SN BR OVC008 A2989 RMK P0003 MADISHF
DAW,2017-04-01 12:51,-70.9200,43.2800,33.10,30.00,88.23,30.00,10.00,0.03,29.89,1012.10,1.00,M,OVC,M,M,M,800.00,M,M,M,-SN BR,KDAW 011251Z AUTO 03010KT 1SM -SN BR OVC008 01/M01 A2989 RMK AO2 SLP121 P0003 T00061011
DAW,2017-04-01 12:55,-70.9200,43.2800,M,M,M,20.00,10.00,M,29.89,M,1.00,M,OVC,M,M,M,800.00,M,M,M,-SN BR,KDAW 011255Z AUTO 02010KT 1SM -SN BR OVC008 A2989 RMK WND 34V05  MADISHF
DAW,2017-04-01 13:04,-70.9200,43.2800,33.10,30.00,88.23,30.00,8.00,0.00,29.89,M,0.75,15.00,BKN,OVC,M,M,600.00,1000.00,M,M,-SN BR,KDAW 011304Z AUTO 03008G15KT 3/4SM -SN BR BKN006 OVC010 01/M01 A2989 RMK AO2 P0000 T00061011
DAW,2017-04-01 13:05,-70.9200,43.2800,M,M,M,30.00,7.00,M,29.89,M,0.75,M,OVC,M,M,M,800.00,M,M,M,-SN BR,KDAW 011305Z AUTO 03007KT 1SM -SN BR OVC008 A2989 RMK MADISHF
DAW,2017-04-01 13:10,-70.9200,43.2800,M,M,M,20.00,7.00,M,29.89,M,0.75,M,BKN,OVC,M,M,600.00,999.00,M,M,-SN BR,KDAW 011310Z AUTO 02007KT 1SM -SN BR BKN006 OVC009 A2989 RMK MADISHF
DAW,2017-04-01 13:15,-70.9200,43.2800,M,M,M,20.00,7.00,0.01,29.89,M,0.75,M,BKN,OVC,M,M,600.00,999.00,M,M,-SN BR,KDAW 011315Z AUTO 02007KT 1SM -SN BR BKN006 OVC009 A2989 RMK P0001 MADISHF
DAW,2017-04-01 13:20,-70.9200,43.2800,M,M,M,20.00,7.00,0.01,29.89,M,0.75,M,BKN,OVC,M,M,600.00,999.00,M,M,-SN BR,KDAW 011320Z AUTO 02007KT 1SM -SN BR BKN006 OVC009 A2989 RMK P0001 MADISHF
DAW,2017-04-01 13:25,-70.9200,43.2800,M,M,M,40.00,7.00,0.01,29.90,M,0.75,M,OVC,M,M,M,800.00,M,M,M,-SN BR,KDAW 011325Z AUTO 04007KT 1SM -SN BR OVC008 A2990 RMK P0001 MADISHF
DAW,2017-04-01 13:30,-70.9200,43.2800,M,M,M,40.00,8.00,0.01,29.90,M,0.75,M,BKN,OVC,M,M,600.00,1100.00,M,M,-SN BR,KDAW 011330Z AUTO 04008KT 1SM -SN BR BKN006 OVC011 A2990 RMK P0001 MADISHF
DAW,2017-04-01 13:35,-70.9200,43.2800,M,M,M,40.00,8.00,0.01,29.90,M,0.75,M,BKN,OVC,M,M,600.00,1300.00,M,M,-SN BR,KDAW 011335Z AUTO 04008KT 1SM -SN BR BKN006 OVC013 A2990 RMK P0001 MADISHF
DAW,2017-04-01 13:40,-70.9200,43.2800,M,M,M,30.00,8.00,0.02,29.90,M,0.75,M,BKN,OVC,M,M,600.00,1300.00,M,M,-SN BR,KDAW 011340Z AUTO 03008KT 1SM -SN BR BKN006 OVC013 A2990 RMK P0002 MADISHF
DAW,2017-04-01 13:45,-70.9200,43.2800,M,M,M,40.00,8.00,0.02,29.90,M,0.75,M,OVC,M,M,M,900.00,M,M,M,-SN BR,KDAW 011345Z AUTO 04008KT 1SM -SN BR OVC009 A2990 RMK P0002 MADISHF
DAW,2017-04-01 13:50,-70.9200,43.2800,M,M,M,30.00,8.00,0.02,29.90,M,0.50,M,OVC,M,M,M,900.00,M,M,M,SN FG,KDAW 011350Z AUTO 03008KT 1/2SM SN FG OVC009 A2990 RMK P0002 MADISHF
DAW,2017-04-01 13:51,-70.9200,43.2800,33.10,30.00,88.23,30.00,7.00,0.02,29.90,1012.50,0.50,M,OVC,M,M,M,900.00,M,M,M,SN FG,KDAW 011351Z AUTO 03007KT 1/2SM SN FG OVC009 01/M01 A2990 RMK AO2 SLP125 P0002 T00061011
DAW,2017-04-01 14:00,-70.9200,43.2800,M,M,M,30.00,8.00,0.01,29.90,M,0.50,M,OVC,M,M,M,700.00,M,M,M,SN FG,KDAW 011400Z AUTO 03008KT 1/2SM SN FG OVC007 A2990 RMK P0001 MADISHF
DAW,2017-04-01 14:05,-70.9200,43.2800,M,M,M,30.00,9.00,0.02,29.90,M,0.50,M,OVC,M,M,M,700.00,M,M,M,SN FG,KDAW 011405Z AUTO 03009KT 1/2SM SN FG OVC007 A2990 RMK P0002 MADISHF
DAW,2017-04-01 14:10,-70.9200,43.2800,M,M,M,20.00,9.00,0.02,29.90,M,0.50,M,OVC,M,M,M,700.00,M,M,M,SN FG,KDAW 011410Z AUTO 02009KT 1/2SM SN FG OVC007 A2990 RMK P0002 MADISHF
DAW,2017-04-01 14:20,-70.9200,43.2800,M,M,M,10.00,8.00,0.03,29.91,M,0.50,M,BKN,OVC,M,M,499.00,800.00,M,M,SN FG,KDAW 011420Z AUTO 01008KT 1/2SM SN FG BKN004 OVC008 A2991 RMK P0003 MADISHF
DAW,2017-04-01 14:25,-70.9200,43.2800,M,M,M,20.00,6.00,0.04,29.91,M,0.50,M,OVC,M,M,M,700.00,M,M,M,SN FG,KDAW 011425Z AUTO 02006KT 1/2SM SN FG OVC007 A2991 RMK P0004 MADISHF
DAW,2017-04-01 14:35,-70.9200,43.2800,M,M,M,20.00,7.00,0.04,29.91,M,0.50,M,BKN,OVC,M,M,499.00,900.00,M,M,SN FG,KDAW 011435Z AUTO 02007KT 1/2SM SN FG BKN004 OVC009 A2991 RMK P0004 MADISHF
DAW,2017-04-01 14:40,-70.9200,43.2800,M,M,M,20.00,7.00,0.05,29.91,M,0.50,M,OVC,M,M,M,700.00,M,M,M,SN FG,KDAW 011440Z AUTO 02007KT 1/2SM SN FG OVC007 A2991 RMK P0005 MADISHF
DAW,2017-04-01 14:45,-70.9200,43.2800,M,M,M,10.00,8.00,0.05,29.91,M,0.50,M,OVC,M,M,M,700.00,M,M,M,SN FG,KDAW 011445Z AUTO 01008KT 1/2SM SN FG OVC007 A2991 RMK P0005 MADISHF
DAW,2017-04-01 14:51,-70.9200,43.2800,33.10,30.00,88.23,20.00,8.00,0.06,29.91,1012.70,0.50,M,OVC,M,M,M,700.00,M,M,M,SN FG,KDAW 011451Z AUTO 02008KT 350V050 1/2SM SN FG OVC007 01/M01 A2991 RMK AO2 SLP127 P0006 60011 T00061011 53004
DAW,2017-04-01 14:55,-70.9200,43.2800,M,M,M,20.00,9.00,M,29.91,M,0.50,M,BKN,OVC,M,M,700.00,999.00,M,M,SN FG,KDAW 011455Z AUTO 02009KT 1/2SM SN FG BKN007 OVC009 A2991 RMK MADISHF
DAW,2017-04-01 15:00,-70.9200,43.2800,M,M,M,30.00,9.00,M,29.91,M,0.75,M,BKN,OVC,M,M,700.00,999.00,M,M,-SN BR,KDAW 011500Z AUTO 03009KT 1SM -SN BR BKN007 OVC009 A2991 RMK MADISHF
DAW,2017-04-01 15:05,-70.9200,43.2800,M,M,M,20.00,10.00,M,29.90,M,0.75,M,OVC,M,M,M,900.00,M,M,M,-SN BR,KDAW 011505Z AUTO 02010KT 1SM -SN BR OVC009 A2990 RMK MADISHF
DAW,2017-04-01 15:10,-70.9200,43.2800,M,M,M,20.00,10.00,0.01,29.90,M,0.75,M,OVC,M,M,M,900.00,M,M,M,-SN BR,KDAW 011510Z AUTO 02010KT 1SM -SN BR OVC009 A2990 RMK P0001 MADISHF
DAW,2017-04-01 15:15,-70.9200,43.2800,M,M,M,30.00,8.00,0.01,29.90,M,0.75,M,BKN,OVC,M,M,700.00,1200.00,M,M,-SN BR,KDAW 011515Z AUTO 03008KT 1SM -SN BR BKN007 OVC012 A2990 RMK P0001 MADISHF
DAW,2017-04-01 15:20,-70.9200,43.2800,M,M,M,20.00,9.00,0.01,29.91,M,0.75,M,BKN,OVC,M,M,700.00,1200.00,M,M,-SN BR,KDAW 011520Z AUTO 02009KT 1SM -SN BR BKN007 OVC012 A2991 RMK P0001 MADISHF
DAW,2017-04-01 15:25,-70.9200,43.2800,M,M,M,10.00,9.00,0.01,29.91,M,0.75,M,BKN,OVC,M,M,700.00,1200.00,M,M,-SN BR,KDAW 011525Z AUTO 01009KT 1SM -SN BR BKN007 OVC012 A2991 RMK P0001 MADISHF
DAW,2017-04-01 15:30,-70.9200,43.2800,M,M,M,10.00,9.00,0.01,29.91,M,0.75,M,BKN,OVC,M,M,800.00,1400.00,M,M,-SN BR,KDAW 011530Z AUTO 01009KT 1SM -SN BR BKN008 OVC014 A2991 RMK P0001 MADISHF
DAW,2017-04-01 15:35,-70.9200,43.2800,M,M,M,20.00,8.00,0.02,29.90,M,0.75,M,BKN,OVC,M,M,800.00,1400.00,M,M,-SN BR,KDAW 011535Z AUTO 02008KT 1SM -SN BR BKN008 OVC014 A2990 RMK P0002 WND 35V05  MADISHF
DAW,2017-04-01 15:45,-70.9200,43.2800,M,M,M,20.00,7.00,0.02,29.91,M,0.75,M,BKN,OVC,M,M,800.00,1400.00,M,M,-SN BR,KDAW 011545Z AUTO 02007KT 1SM -SN BR BKN008 OVC014 A2991 RMK P0002 MADISHF
DAW,2017-04-01 15:50,-70.9200,43.2800,M,M,M,10.00,8.00,0.02,29.91,M,0.75,M,BKN,OVC,M,M,800.00,1400.00,M,M,-SN BR,KDAW 011550Z AUTO 01008KT 1SM -SN BR BKN008 OVC014 A2991 RMK P0002 MADISHF
DAW,2017-04-01 15:51,-70.9200,43.2800,33.10,30.00,88.23,20.00,10.00,0.03,29.91,1012.70,0.75,M,BKN,OVC,M,M,600.00,1100.00,M,M,-SN BR,KDAW 011551Z AUTO 02010KT 3/4SM -SN BR BKN006 OVC011 01/M01 A2991 RMK AO2 SLP127 P0003 T00061011
DAW,2017-04-01 15:55,-70.9200,43.2800,M,M,M,20.00,9.00,M,29.90,M,0.75,15.00,BKN,OVC,M,M,800.00,1300.00,M,M,-SN BR,KDAW 011555Z AUTO 02009G15KT 1SM -SN BR BKN008 OVC013 A2990 RMK MADISHF
DAW,2017-04-01 16:00,-70.9200,43.2800,M,M,M,30.00,7.00,M,29.90,M,0.75,M,BKN,OVC,M,M,600.00,1300.00,M,M,-SN BR,KDAW 011600Z AUTO 03007KT 1SM -SN BR BKN006 OVC013 A2990 RMK MADISHF
DAW,2017-04-01 16:05,-70.9200,43.2800,M,M,M,10.00,9.00,M,29.90,M,0.75,M,BKN,OVC,M,M,800.00,1300.00,M,M,-SN BR,KDAW 011605Z AUTO 01009KT 1SM -SN BR BKN008 OVC013 A2990 RMK MADISHF
DAW,2017-04-01 16:10,-70.9200,43.2800,M,M,M,30.00,10.00,M,29.90,M,0.75,15.00,BKN,OVC,M,M,800.00,1300.00,M,M,-SN BR,KDAW 011610Z AUTO 03010G15KT 1SM -SN BR BKN008 OVC013 A2990 RMK MADISHF
DAW,2017-04-01 16:20,-70.9200,43.2800,M,M,M,30.00,11.00,0.01,29.90,M,0.75,M,BKN,OVC,M,M,800.00,1200.00,M,M,-SN BR,KDAW 011620Z AUTO 03011KT 1SM -SN BR BKN008 OVC012 A2990 RMK P0001 WND 35V06  MADISHF
DAW,2017-04-01 16:25,-70.9200,43.2800,M,M,M,30.00,10.00,0.01,29.90,M,0.75,M,BKN,OVC,M,M,800.00,1200.00,M,M,-SN BR,KDAW 011625Z AUTO 03010KT 1SM -SN BR BKN008 OVC012 A2990 RMK P0001 MADISHF
DAW,2017-04-01 16:30,-70.9200,43.2800,M,M,M,30.00,8.00,0.01,29.90,M,0.75,M,BKN,OVC,M,M,800.00,1200.00,M,M,-SN BR,KDAW 011630Z AUTO 03008KT 1SM -SN BR BKN008 OVC012 A2990 RMK P0001 MADISHF
DAW,2017-04-01 16:40,-70.9200,43.2800,M,M,M,30.00,8.00,0.02,29.90,M,0.50,M,BKN,OVC,M,M,600.00,999.00,M,M,SN FG,KDAW 011640Z AUTO 03008KT 1/2SM SN FG BKN006 OVC009 A2990 RMK P0002 MADISHF
DAW,2017-04-01 16:45,-70.9200,43.2800,M,M,M,30.00,8.00,0.02,29.89,M,0.50,M,SCT,OVC,M,M,600.00,999.00,M,M,SN FG,KDAW 011645Z AUTO 03008KT 1/2SM SN FG SCT006 OVC009 A2989 RMK P0002 MADISHF
DAW,2017-04-01 16:50,-70.9200,43.2800,M,M,M,30.00,7.00,0.02,29.90,M,0.75,M,BKN,OVC,M,M,600.00,1200.00,M,M,-SN BR,KDAW 011650Z AUTO 03007KT 1SM -SN BR BKN006 OVC012 A2990 RMK P0002 MADISHF
DAW,2017-04-01 16:51,-70.9200,43.2800,33.10,30.00,88.23,30.00,9.00,0.02,29.90,1012.40,0.75,M,BKN,OVC,M,M,600.00,1200.00,M,M,-SN BR,KDAW 011651Z AUTO 03009KT 3/4SM -SN BR BKN006 OVC012 01/M01 A2990 RMK AO2 SLP124 P0002 T00061011
DAW,2017-04-01 16:55,-70.9200,43.2800,M,M,M,30.00,8.00,M,29.89,M,0.50,M,BKN,OVC,M,M,600.00,1200.00,M,M,SN FG,KDAW 011655Z AUTO 03008KT 1/2SM SN FG BKN006 OVC012 A2989 RMK MADISHF
DAW,2017-04-01 17:00,-70.9200,43.2800,M,M,M,30.00,8.00,0.01,29.89,M,0.50,M,BKN,OVC,M,M,600.00,1200.00,M,M,SN FG,KDAW 011700Z AUTO 03008KT 1/2SM SN FG BKN006 OVC012 A2989 RMK P0001 MADISHF
DAW,2017-04-01 17:05,-70.9200,43.2800,M,M,M,20.00,10.00,0.01,29.89,M,0.50,M,BKN,OVC,M,M,600.00,1100.00,M,M,SN FG,KDAW 011705Z AUTO 02010KT 1/2SM SN FG BKN006 OVC011 A2989 RMK P0001 MADISHF
DAW,2017-04-01 17:15,-70.9200,43.2800,M,M,M,40.00,12.00,0.01,29.89,M,0.75,M,BKN,OVC,M,M,600.00,1100.00,M,M,-SN BR,KDAW 011715Z AUTO 04012KT 1SM -SN BR BKN006 OVC011 A2989 RMK P0001 MADISHF
DAW,2017-04-01 17:20,-70.9200,43.2800,M,M,M,40.00,12.00,0.01,29.89,M,1.00,M,BKN,OVC,M,M,600.00,1600.00,M,M,-SN BR,KDAW 011720Z AUTO 04012KT 1SM -SN BR BKN006 OVC016 A2989 RMK P0001 MADISHF
DAW,2017-04-01 17:23,-70.9200,43.2800,33.10,30.00,88.23,30.00,10.00,0.01,29.89,M,1.00,18.00,BKN,BKN,OVC,M,600.00,1100.00,1600.00,M,-SN BR,KDAW 011723Z AUTO 03010G18KT 1SM -SN BR BKN006 BKN011 OVC016 01/M01 A2989 RMK AO2 P0001 T00061011
DAW,2017-04-01 17:30,-70.9200,43.2800,M,M,M,10.00,9.00,0.01,29.89,M,1.00,M,SCT,OVC,M,M,800.00,1400.00,M,M,-SN BR,KDAW 011730Z AUTO 01009KT 1SM -SN BR SCT008 OVC014 A2989 RMK P0001 MADISHF
DAW,2017-04-01 17:35,-70.9200,43.2800,M,M,M,30.00,9.00,0.02,29.89,M,1.00,M,SCT,OVC,M,M,900.00,1400.00,M,M,-SN BR,KDAW 011735Z AUTO 03009KT 1SM -SN BR SCT009 OVC014 A2989 RMK P0002 MADISHF
DAW,2017-04-01 17:36,-70.9200,43.2800,33.10,30.00,88.23,40.00,7.00,0.02,29.89,M,1.00,17.00,SCT,OVC,M,M,900.00,1400.00,M,M,-SN BR,KDAW 011736Z AUTO 04007G17KT 1SM -SN BR SCT009 OVC014 01/M01 A2989 RMK AO2 P0002 T00061011
DAW,2017-04-01 17:40,-70.9200,43.2800,M,M,M,30.00,8.00,0.02,29.89,M,1.00,M,SCT,OVC,M,M,900.00,1400.00,M,M,-SN BR,KDAW 011740Z AUTO 03008KT 1SM -SN BR SCT009 OVC014 A2989 RMK P0002 WND 36V06  MADISHF
DAW,2017-04-01 17:45,-70.9200,43.2800,M,M,M,30.00,7.00,0.02,29.89,M,1.00,M,BKN,OVC,M,M,900.00,1400.00,M,M,-SN BR,KDAW 011745Z AUTO 03007KT 1SM -SN BR BKN009 OVC014 A2989 RMK P0002 MADISHF
DAW,2017-04-01 17:47,-70.9200,43.2800,33.80,30.20,86.49,20.00,7.00,0.02,29.89,M,1.00,19.00,BKN,OVC,M,M,900.00,1400.00,M,M,-SN BR,KDAW 011747Z AUTO 02007G19KT 1SM -SN BR BKN009 OVC014 01/M01 A2989 RMK AO2 P0002
DAW,2017-04-01 17:50,-70.9200,43.2800,M,M,M,30.00,7.00,0.02,29.89,M,1.00,M,BKN,OVC,M,M,999.00,1400.00,M,M,-SN BR,KDAW 011750Z AUTO 03007KT 1SM -SN BR BKN009 OVC014 A2989 RMK P0002 MADISHF
DAW,2017-04-01 17:51,-70.9200,43.2800,33.10,30.00,88.23,40.00,7.00,0.02,29.89,1012.20,1.00,M,BKN,OVC,M,M,1000.00,1400.00,M,M,-SN BR,KDAW 011751Z AUTO 04007KT 1SM -SN BR BKN010 OVC014 01/M01 A2989 RMK AO2 SLP122 P0002 60018 T00061011 10006 20000 55004
DAW,2017-04-01 17:54,-70.9200,43.2800,33.10,30.00,88.23,40.00,7.00,0.00,29.89,M,0.75,M,BKN,OVC,M,M,700.00,1200.00,M,M,-SN BR,KDAW 011754Z AUTO 04007KT 3/4SM -SN BR BKN007 OVC012 01/M01 A2989 RMK AO2 P0000 T00061011
DAW,2017-04-01 17:55,-70.9200,43.2800,M,M,M,40.00,8.00,M,29.89,M,0.75,M,SCT,OVC,M,M,700.00,1200.00,M,M,-SN BR,KDAW 011755Z AUTO 04008KT 1SM -SN BR SCT007 OVC012 A2989 RMK MADISHF
DAW,2017-04-01 18:04,-70.9200,43.2800,33.10,30.00,88.23,40.00,9.00,0.00,29.89,M,1.00,15.00,SCT,BKN,OVC,M,700.00,1200.00,1800.00,M,-SN BR,KDAW 011804Z AUTO 04009G15KT 1SM -SN BR SCT007 BKN012 OVC018 01/M01 A2989 RMK AO2 P0000 T00061011
DAW,2017-04-01 18:05,-70.9200,43.2800,M,M,M,20.00,9.00,M,29.89,M,1.00,M,BKN,BKN,OVC,M,700.00,1200.00,1800.00,M,-SN BR,KDAW 011805Z AUTO 02009KT 1SM -SN BR BKN007 BKN012 OVC018 A2989 RMK MADISHF
DAW,2017-04-01 18:10,-70.9200,43.2800,M,M,M,30.00,10.00,0.01,29.89,M,1.00,M,BKN,OVC,M,M,700.00,1500.00,M,M,-SN BR,KDAW 011810Z AUTO 03010KT 1SM -SN BR BKN007 OVC015 A2989 RMK P0001 MADISHF
DAW,2017-04-01 18:14,-70.9200,43.2800,33.10,30.00,88.23,30.00,11.00,0.01,29.89,M,1.00,M,BKN,OVC,M,M,700.00,1500.00,M,M,-SN BR,KDAW 011814Z AUTO 03011KT 1SM -SN BR BKN007 OVC015 01/M01 A2989 RMK AO2 P0001 T00061011
DAW,2017-04-01 18:15,-70.9200,43.2800,M,M,M,20.00,10.00,0.01,29.89,M,1.00,M,BKN,OVC,M,M,700.00,1500.00,M,M,-SN BR,KDAW 011815Z AUTO 02010KT 1SM -SN BR BKN007 OVC015 A2989 RMK P0001 MADISHF
DAW,2017-04-01 18:20,-70.9200,43.2800,M,M,M,40.00,12.00,0.01,29.89,M,1.00,17.00,BKN,BKN,OVC,M,800.00,1300.00,1699.00,M,-SN BR,KDAW 011820Z AUTO 04012G17KT 1SM -SN BR BKN008 BKN013 OVC016 A2989 RMK P0001 MADISHF
DAW,2017-04-01 18:24,-70.9200,43.2800,33.10,28.90,84.36,40.00,10.00,0.01,29.89,M,1.00,20.00,SCT,OVC,M,M,600.00,1700.00,M,M,-SN BR,KDAW 011824Z AUTO 04010G20KT 1SM -SN BR SCT006 OVC017 01/M02 A2989 RMK AO2 P0001 T00061017
DAW,2017-04-01 18:25,-70.9200,43.2800,M,M,M,30.00,9.00,0.01,29.89,M,1.00,M,SCT,OVC,M,M,800.00,1699.00,M,M,-SN BR,KDAW 011825Z AUTO 03009KT 1SM -SN BR SCT008 OVC016 A2989 RMK P0001 MADISHF
DAW,2017-04-01 18:30,-70.9200,43.2800,M,M,M,40.00,9.00,0.01,29.89,M,1.00,15.00,FEW,OVC,M,M,800.00,1500.00,M,M,-SN BR,KDAW 011830Z AUTO 04009G15KT 1SM -SN BR FEW008 OVC015 A2989 RMK P0001 MADISHF
DAW,2017-04-01 18:35,-70.9200,43.2800,M,M,M,40.00,9.00,0.01,29.88,M,1.25,M,SCT,BKN,OVC,M,800.00,1300.00,1800.00,M,-SN BR,KDAW 011835Z AUTO 04009KT 1 1/2SM -SN BR SCT008 BKN013 OVC018 A2988 RMK P0001 MADISHF
DAW,2017-04-01 18:38,-70.9200,43.2800,33.10,30.00,88.23,20.00,9.00,0.01,29.88,M,1.25,18.00,FEW,BKN,OVC,M,800.00,1300.00,2000.00,M,-SN BR,KDAW 011838Z AUTO 02009G18KT 1 1/4SM -SN BR FEW008 BKN013 OVC020 01/M01 A2988 RMK AO2 P0001 T00061011
DAW,2017-04-01 18:40,-70.9200,43.2800,M,M,M,30.00,10.00,0.01,29.88,M,1.25,M,FEW,BKN,OVC,M,800.00,1300.00,1999.00,M,-SN BR,KDAW 011840Z AUTO 03010KT 1 1/2SM -SN BR FEW008 BKN013 OVC019 A2988 RMK P0001 MADISHF
DAW,2017-04-01 18:45,-70.9200,43.2800,M,M,M,30.00,9.00,0.01,29.88,M,1.25,M,FEW,BKN,OVC,M,800.00,1300.00,1999.00,M,-SN BR,KDAW 011845Z AUTO 03009KT 1 1/2SM -SN BR FEW008 BKN013 OVC019 A2988 RMK P0001 MADISHF
DAW,2017-04-01 18:51,-70.9200,43.2800,33.10,30.00,88.23,30.00,7.00,0.01,29.88,1011.80,1.00,15.00,SCT,BKN,OVC,M,600.00,1000.00,1800.00,M,-SN BR,KDAW 011851Z AUTO 03007G15KT 1SM -SN BR SCT006 BKN010 OVC018 01/M01 A2988 RMK AO2 SLP118 P0001 T00061011
DAW,2017-04-01 18:55,-70.9200,43.2800,M,M,M,30.00,7.00,M,29.88,M,1.00,M,SCT,BKN,OVC,M,600.00,999.00,2300.00,M,-SN BR,KDAW 011855Z AUTO 03007KT 1SM -SN BR SCT006 BKN009 OVC023 A2988 RMK MADISHF
DAW,2017-04-01 19:00,-70.9200,43.2800,M,M,M,20.00,10.00,M,29.88,M,1.50,M,BKN,BKN,OVC,M,800.00,1100.00,2300.00,M,-SN BR,KDAW 011900Z AUTO 02010KT 1 1/2SM -SN BR BKN008 BKN011 OVC023 A2988 RMK MADISHF
DAW,2017-04-01 19:05,-70.9200,43.2800,M,M,M,20.00,6.00,0.01,29.88,M,1.75,M,BKN,OVC,M,M,800.00,2300.00,M,M,-SN BR,KDAW 011905Z AUTO 02006KT 2SM -SN BR BKN008 OVC023 A2988 RMK P0001 MADISHF
DAW,2017-04-01 19:11,-70.9200,43.2800,33.10,30.00,88.23,20.00,10.00,0.01,29.88,M,1.75,15.00,BKN,OVC,M,M,800.00,1300.00,M,M,-SN BR,KDAW 011911Z AUTO 02010G15KT 1 3/4SM -SN BR BKN008 OVC013 01/M01 A2988 RMK AO2 P0001 T00061011
DAW,2017-04-01 19:15,-70.9200,43.2800,M,M,M,20.00,8.00,0.01,29.88,M,1.75,M,BKN,BKN,OVC,M,800.00,1500.00,2400.00,M,-SN BR,KDAW 011915Z AUTO 02008KT 2SM -SN BR BKN008 BKN015 OVC024 A2988 RMK P0001 MADISHF
DAW,2017-04-01 19:20,-70.9200,43.2800,M,M,M,30.00,8.00,0.01,29.88,M,1.75,M,BKN,BKN,OVC,M,800.00,1400.00,2400.00,M,-SN BR,KDAW 011920Z AUTO 03008KT 2SM -SN BR BKN008 BKN014 OVC024 A2988 RMK P0001 MADISHF
DAW,2017-04-01 19:30,-70.9200,43.2800,M,M,M,50.00,7.00,0.01,29.89,M,1.00,M,BKN,OVC,M,M,800.00,1600.00,M,M,-SN BR,KDAW 011930Z AUTO 05007KT 1SM -SN BR BKN008 OVC016 A2989 RMK P0001 MADISHF
DAW,2017-04-01 19:35,-70.9200,43.2800,M,M,M,40.00,6.00,0.01,29.88,M,1.00,M,SCT,BKN,OVC,M,800.00,1200.00,3600.00,M,-SN BR,KDAW 011935Z AUTO 04006KT 1SM -SN BR SCT008 BKN012 OVC036 A2988 RMK P0001 MADISHF
DAW,2017-04-01 19:45,-70.9200,43.2800,M,M,M,10.00,6.00,0.01,29.88,M,1.75,M,BKN,BKN,OVC,M,900.00,1900.00,3800.00,M,-SN BR,KDAW 011945Z AUTO 01006KT 2SM -SN BR BKN009 BKN019 OVC038 A2988 RMK P0001 MADISHF
DAW,2017-04-01 19:50,-70.9200,43.2800,M,M,M,30.00,8.00,0.01,29.89,M,1.75,M,SCT,BKN,OVC,M,700.00,1100.00,2500.00,M,-SN BR,KDAW 011950Z AUTO 03008KT 2SM -SN BR SCT007 BKN011 OVC025 A2989 RMK P0001 MADISHF
DAW,2017-04-01 19:51,-70.9200,43.2800,34.00,30.00,85.11,20.00,8.00,0.01,29.89,1012.10,1.75,M,BKN,BKN,OVC,M,700.00,1300.00,2500.00,M,-SN BR,KDAW 011951Z AUTO 02008KT 1 3/4SM -SN BR BKN007 BKN013 OVC025 01/M01 A2989 RMK AO2 SLP121 P0001 T00111011
DAW,2017-04-01 19:55,-70.9200,43.2800,M,M,M,20.00,7.00,M,29.89,M,1.50,M,SCT,BKN,OVC,M,700.00,1300.00,2400.00,M,-SN BR,KDAW 011955Z AUTO 02007KT 1 1/2SM -SN BR SCT007 BKN013 OVC024 A2989 RMK WND 35V05  MADISHF
DAW,2017-04-01 19:59,-70.9200,43.2800,34.00,30.00,85.11,10.00,9.00,0.00,29.89,M,1.50,M,SCT,BKN,OVC,M,700.00,1300.00,3700.00,M,-SN BR,KDAW 011959Z AUTO 01009KT 1 1/2SM -SN BR SCT007 BKN013 OVC037 01/M01 A2989 RMK AO2 P0000 T00111011
DAW,2017-04-01 20:00,-70.9200,43.2800,M,M,M,10.00,9.00,M,29.89,M,1.50,18.00,FEW,BKN,OVC,M,700.00,1300.00,3700.00,M,-SN BR,KDAW 012000Z AUTO 01009G18KT 1 1/2SM -SN BR FEW007 BKN013 OVC037 A2989 RMK WND 35V08  MADISHF
DAW,2017-04-01 20:05,-70.9200,43.2800,M,M,M,20.00,12.00,M,29.90,M,1.50,M,FEW,BKN,OVC,M,700.00,1300.00,1900.00,M,-SN BR,KDAW 012005Z AUTO 02012KT 1 1/2SM -SN BR FEW007 BKN013 OVC019 A2990 RMK MADISHF
DAW,2017-04-01 20:10,-70.9200,43.2800,M,M,M,20.00,10.00,M,29.90,M,2.00,M,SCT,BKN,OVC,M,900.00,1400.00,2800.00,M,-SN BR,KDAW 012010Z AUTO 02010KT 2SM -SN BR SCT009 BKN014 OVC028 A2990 RMK MADISHF
DAW,2017-04-01 20:15,-70.9200,43.2800,M,M,M,10.00,7.00,M,29.90,M,2.50,M,SCT,BKN,OVC,M,900.00,1400.00,1800.00,M,-SN BR,KDAW 012015Z AUTO 01007KT 2 1/2SM -SN BR SCT009 BKN014 OVC018 A2990 RMK MADISHF
DAW,2017-04-01 20:16,-70.9200,43.2800,33.10,30.00,88.23,10.00,7.00,0.00,29.91,M,2.50,M,SCT,BKN,OVC,M,900.00,1400.00,1800.00,M,-SN BR,KDAW 012016Z AUTO 01007KT 2 1/2SM -SN BR SCT009 BKN014 OVC018 01/M01 A2991 RMK AO2 P0000 T00061011
DAW,2017-04-01 20:20,-70.9200,43.2800,M,M,M,360.00,8.00,M,29.91,M,2.00,M,BKN,OVC,M,M,1100.00,1800.00,M,M,-SN BR,KDAW 012020Z AUTO 36008KT 2SM -SN BR BKN011 OVC018 A2991 RMK MADISHF
DAW,2017-04-01 20:23,-70.9200,43.2800,33.10,30.00,88.23,20.00,8.00,0.00,29.91,M,1.75,M,BKN,OVC,M,M,900.00,1600.00,M,M,-SN BR,KDAW 012023Z AUTO 02008KT 1 3/4SM -SN BR BKN009 OVC016 01/M01 A2991 RMK AO2 P0000 T00061011
DAW,2017-04-01 20:25,-70.9200,43.2800,M,M,M,30.00,8.00,0.01,29.91,M,1.50,M,BKN,BKN,OVC,M,900.00,1400.00,1999.00,M,-SN BR,KDAW 012025Z AUTO 03008KT 1 1/2SM -SN BR BKN009 BKN014 OVC019 A2991 RMK P0001 MADISHF
DAW,2017-04-01 20:35,-70.9200,43.2800,M,M,M,10.00,7.00,0.01,29.91,M,1.75,M,FEW,BKN,OVC,M,600.00,999.00,2300.00,M,-SN BR,KDAW 012035Z AUTO 01007KT 2SM -SN BR FEW006 BKN009 OVC023 A2991 RMK P0001 MADISHF
DAW,2017-04-01 20:39,-70.9200,43.2800,33.10,30.00,88.23,30.00,6.00,0.01,29.91,M,1.50,M,SCT,BKN,OVC,M,800.00,1300.00,2100.00,M,-SN BR,KDAW 012039Z AUTO 03006KT 1 1/2SM -SN BR SCT008 BKN013 OVC021 01/M01 A2991 RMK AO2 P0001 T00061011
DAW,2017-04-01 20:40,-70.9200,43.2800,M,M,M,40.00,9.00,0.01,29.90,M,1.50,14.00,SCT,BKN,OVC,M,800.00,1300.00,1900.00,M,-SN BR,KDAW 012040Z AUTO 04009G14KT 1 1/2SM -SN BR SCT008 BKN013 OVC019 A2990 RMK P0001 MADISHF
DAW,2017-04-01 20:45,-70.9200,43.2800,M,M,M,40.00,8.00,0.01,29.90,M,1.00,M,FEW,BKN,OVC,M,499.00,999.00,1699.00,M,-SN BR,KDAW 012045Z AUTO 04008KT 1SM -SN BR FEW004 BKN009 OVC016 A2990 RMK P0001 MADISHF
DAW,2017-04-01 20:51,-70.9200,43.2800,33.10,30.00,88.23,40.00,8.00,0.01,29.90,1012.50,0.75,17.00,BKN,BKN,OVC,M,800.00,1200.00,1700.00,M,-SN BR,KDAW 012051Z AUTO 04008G17KT 360V070 3/4SM -SN BR BKN008 BKN012 OVC017 01/M01 A2990 RMK AO2 SLP125 P0001 60003 T00061011 53003
DAW,2017-04-01 20:54,-70.9200,43.2800,33.10,30.00,88.23,30.00,8.00,0.00,29.90,M,1.00,17.00,FEW,SCT,OVC,M,600.00,1000.00,1900.00,M,-SN BR,KDAW 012054Z AUTO 03008G17KT 1SM -SN BR FEW006 SCT010 OVC019 01/M01 A2990 RMK AO2 P0000 T00061011
DAW,2017-04-01 20:55,-70.9200,43.2800,M,M,M,30.00,8.00,M,29.90,M,1.00,M,FEW,SCT,OVC,M,600.00,999.00,1900.00,M,-SN BR,KDAW 012055Z AUTO 03008KT 1SM -SN BR FEW006 SCT009 OVC019 A2990 RMK MADISHF
DAW,2017-04-01 21:00,-70.9200,43.2800,M,M,M,20.00,7.00,M,29.90,M,1.25,M,FEW,BKN,OVC,M,600.00,2400.00,3700.00,M,-SN BR,KDAW 012100Z AUTO 02007KT 1 1/2SM -SN BR FEW006 BKN024 OVC037 A2990 RMK MADISHF
DAW,2017-04-01 21:10,-70.9200,43.2800,M,M,M,360.00,7.00,M,29.91,M,2.50,M,FEW,BKN,OVC,M,800.00,1500.00,3600.00,M,-SN BR,KDAW 012110Z AUTO 36007KT 2 1/2SM -SN BR FEW008 BKN015 OVC036 A2991 RMK MADISHF
DAW,2017-04-01 21:11,-70.9200,43.2800,33.10,30.00,88.23,350.00,7.00,0.00,29.91,M,2.50,M,FEW,BKN,OVC,M,800.00,1500.00,3600.00,M,-SN BR,KDAW 012111Z AUTO 35007KT 2 1/2SM -SN BR FEW008 BKN015 OVC036 01/M01 A2991 RMK AO2 P0000 T00061011
DAW,2017-04-01 21:15,-70.9200,43.2800,M,M,M,360.00,7.00,M,29.92,M,3.00,M,FEW,BKN,OVC,M,800.00,1500.00,3600.00,M,-SN BR,KDAW 012115Z AUTO 36007KT 3SM -SN BR FEW008 BKN015 OVC036 A2992 RMK MADISHF
DAW,2017-04-01 21:18,-70.9200,43.2800,33.10,30.00,88.23,340.00,8.00,0.00,29.92,M,3.00,M,BKN,BKN,OVC,M,1300.00,2800.00,3600.00,M,-SN BR,KDAW 012118Z AUTO 34008KT 3SM -SN BR BKN013 BKN028 OVC036 01/M01 A2992 RMK AO2 P0000 T00061011
DAW,2017-04-01 21:20,-70.9200,43.2800,M,M,M,350.00,8.00,M,29.92,M,4.00,M,FEW,BKN,OVC,M,700.00,1300.00,3600.00,M,-SN BR,KDAW 012120Z AUTO 35008KT 4SM -SN BR FEW007 BKN013 OVC036 A2992 RMK MADISHF
DAW,2017-04-01 21:30,-70.9200,43.2800,M,M,M,350.00,8.00,M,29.93,M,5.00,M,BKN,BKN,OVC,M,1300.00,1699.00,3000.00,M,-SN BR,KDAW 012130Z AUTO 35008KT 5SM -SN BR BKN013 BKN016 OVC030 A2993 RMK MADISHF
DAW,2017-04-01 21:35,-70.9200,43.2800,M,M,M,350.00,7.00,M,29.93,M,7.00,M,BKN,OVC,M,M,1300.00,1900.00,M,M,M,KDAW 012135Z AUTO 35007KT 7SM BKN013 OVC019 A2993 RMK MADISHF
DAW,2017-04-01 21:40,-70.9200,43.2800,M,M,M,350.00,7.00,M,29.93,M,9.00,M,BKN,OVC,M,M,1300.00,2300.00,M,M,M,KDAW 012140Z AUTO 35007KT 9SM BKN013 OVC023 A2993 RMK MADISHF
DAW,2017-04-01 21:45,-70.9200,43.2800,M,M,M,340.00,8.00,M,29.94,M,7.00,M,BKN,BKN,OVC,M,1300.00,1900.00,2300.00,M,-SN,KDAW 012145Z AUTO 34008KT 7SM -SN BKN013 BKN019 OVC023 A2994 RMK MADISHF
DAW,2017-04-01 21:51,-70.9200,43.2800,34.00,30.00,85.11,350.00,7.00,0.00,29.94,1013.80,4.00,M,BKN,BKN,OVC,M,1300.00,1800.00,2300.00,M,-SN BR,KDAW 012151Z AUTO 35007KT 4SM -SN BR BKN013 BKN018 OVC023 01/M01 A2994 RMK AO2 SLP138 P0000 T00111011
DAW,2017-04-01 21:55,-70.9200,43.2800,M,M,M,360.00,6.00,0.01,29.94,M,3.00,M,BKN,OVC,M,M,1300.00,2100.00,M,M,-SN BR,KDAW 012155Z AUTO 36006KT 3SM -SN BR BKN013 OVC021 A2994 RMK P0001 MADISHF
DAW,2017-04-01 21:58,-70.9200,43.2800,34.00,30.00,85.11,350.00,8.00,0.01,29.94,M,2.50,M,SCT,BKN,OVC,M,1300.00,1800.00,2300.00,M,-SN BR,KDAW 012158Z AUTO 35008KT 2 1/2SM -SN BR SCT013 BKN018 OVC023 01/M01 A2994 RMK AO2 P0001 T00111011
DAW,2017-04-01 22:00,-70.9200,43.2800,M,M,M,340.00,8.00,0.01,29.94,M,2.50,M,SCT,OVC,M,M,1300.00,2300.00,M,M,-SN BR,KDAW 012200Z AUTO 34008KT 2 1/2SM -SN BR SCT013 OVC023 A2994 RMK P0001 MADISHF
DAW,2017-04-01 22:09,-70.9200,43.2800,34.00,30.00,85.11,340.00,7.00,0.01,29.95,M,3.00,M,FEW,SCT,OVC,M,900.00,1300.00,2400.00,M,-SN BR,KDAW 012209Z AUTO 34007KT 3SM -SN BR FEW009 SCT013 OVC024 01/M01 A2995 RMK AO2 P0001 T00111011
DAW,2017-04-01 22:10,-70.9200,43.2800,M,M,M,340.00,7.00,0.01,29.95,M,3.50,M,FEW,SCT,OVC,M,900.00,1300.00,2400.00,M,-SN BR,KDAW 012210Z AUTO 34007KT 3SM -SN BR FEW009 SCT013 OVC024 A2995 RMK P0001 MADISHF
DAW,2017-04-01 22:15,-70.9200,43.2800,M,M,M,350.00,7.00,0.01,29.95,M,3.50,M,SCT,SCT,OVC,M,900.00,1400.00,2400.00,M,-SN BR,KDAW 012215Z AUTO 35007KT 3SM -SN BR SCT009 SCT014 OVC024 A2995 RMK P0001 MADISHF
DAW,2017-04-01 22:25,-70.9200,43.2800,M,M,M,350.00,7.00,0.01,29.95,M,4.00,M,SCT,SCT,OVC,M,1100.00,1600.00,2600.00,M,-SN BR,KDAW 012225Z AUTO 35007KT 4SM -SN BR SCT011 SCT016 OVC026 A2995 RMK P0001 MADISHF
DAW,2017-04-01 22:30,-70.9200,43.2800,M,M,M,350.00,7.00,0.01,29.95,M,3.50,M,SCT,BKN,OVC,M,1100.00,1500.00,2800.00,M,-SN BR,KDAW 012230Z AUTO 35007KT 3SM -SN BR SCT011 BKN015 OVC028 A2995 RMK P0001 MADISHF
DAW,2017-04-01 22:35,-70.9200,43.2800,M,M,M,350.00,8.00,0.01,29.95,M,3.00,M,SCT,BKN,OVC,M,1100.00,1500.00,2800.00,M,-SN BR,KDAW 012235Z AUTO 35008KT 3SM -SN BR SCT011 BKN015 OVC028 A2995 RMK P0001 MADISHF
DAW,2017-04-01 22:45,-70.9200,43.2800,M,M,M,360.00,9.00,0.01,29.96,M,2.50,M,SCT,OVC,M,M,1100.00,2800.00,M,M,-SN BR,KDAW 012245Z AUTO 36009KT 2 1/2SM -SN BR SCT011 OVC028 A2996 RMK P0001 MADISHF
DAW,2017-04-01 22:47,-70.9200,43.2800,33.80,30.20,86.49,360.00,9.00,0.01,29.96,M,2.00,M,FEW,OVC,M,M,1100.00,2800.00,M,M,-SN BR,KDAW 012247Z AUTO 36009KT 2SM -SN BR FEW011 OVC028 01/M01 A2996 RMK AO2 P0001
DAW,2017-04-01 22:50,-70.9200,43.2800,M,M,M,360.00,9.00,0.01,29.96,M,2.00,M,FEW,OVC,M,M,1100.00,2800.00,M,M,-SN BR,KDAW 012250Z AUTO 36009KT 2SM -SN BR FEW011 OVC028 A2996 RMK P0001 MADISHF
DAW,2017-04-01 22:51,-70.9200,43.2800,33.10,30.00,88.23,360.00,8.00,0.01,29.96,1014.50,2.00,M,FEW,OVC,M,M,1100.00,2800.00,M,M,-SN BR,KDAW 012251Z AUTO 36008KT 2SM -SN BR FEW011 OVC028 01/M01 A2996 RMK AO2 SLP145 P0001 T00061011
DAW,2017-04-01 22:55,-70.9200,43.2800,M,M,M,350.00,8.00,M,29.96,M,2.50,M,FEW,OVC,M,M,1100.00,2800.00,M,M,-SN BR,KDAW 012255Z AUTO 35008KT 2 1/2SM -SN BR FEW011 OVC028 A2996 RMK MADISHF
DAW,2017-04-01 23:00,-70.9200,43.2800,M,M,M,360.00,7.00,M,29.96,M,3.00,M,FEW,OVC,M,M,1100.00,2800.00,M,M,-SN BR,KDAW 012300Z AUTO 36007KT 3SM -SN BR FEW011 OVC028 A2996 RMK MADISHF
DAW,2017-04-01 23:03,-70.9200,43.2800,33.10,30.00,88.23,10.00,6.00,0.00,29.96,M,3.00,M,FEW,OVC,M,M,1100.00,2800.00,M,M,-SN BR,KDAW 012303Z AUTO 01006KT 3SM -SN BR FEW011 OVC028 01/M01 A2996 RMK AO2 P0000 T00061011
DAW,2017-04-01 23:05,-70.9200,43.2800,M,M,M,10.00,8.00,M,29.96,M,3.00,M,FEW,OVC,M,M,1100.00,2800.00,M,M,-SN BR,KDAW 012305Z AUTO 01008KT 3SM -SN BR FEW011 OVC028 A2996 RMK MADISHF
DAW,2017-04-01 23:10,-70.9200,43.2800,M,M,M,360.00,5.00,M,29.96,M,3.00,M,FEW,FEW,OVC,M,800.00,1300.00,2800.00,M,-SN BR,KDAW 012310Z AUTO 36005KT 3SM -SN BR FEW008 FEW013 OVC028 A2996 RMK MADISHF
DAW,2017-04-01 23:16,-70.9200,43.2800,33.10,30.00,88.23,340.00,7.00,0.00,29.96,M,3.00,M,FEW,SCT,OVC,M,800.00,1300.00,3000.00,M,-SN BR,KDAW 012316Z AUTO 34007KT 3SM -SN BR FEW008 SCT013 OVC030 01/M01 A2996 RMK AO2 P0000 T00061011
DAW,2017-04-01 23:20,-70.9200,43.2800,M,M,M,340.00,7.00,M,29.97,M,5.00,M,SCT,BKN,OVC,M,1300.00,3300.00,7500.00,M,-SN BR,KDAW 012320Z AUTO 34007KT 5SM -SN BR SCT013 BKN033 OVC075 A2997 RMK MADISHF
DAW,2017-04-01 23:25,-70.9200,43.2800,M,M,M,350.00,7.00,M,29.97,M,7.00,M,SCT,BKN,OVC,M,1100.00,3999.00,4800.00,M,-SN,KDAW 012325Z AUTO 35007KT 7SM -SN SCT011 BKN039 OVC048 A2997 RMK MADISHF
DAW,2017-04-01 23:30,-70.9200,43.2800,M,M,M,350.00,9.00,M,29.97,M,9.00,M,FEW,BKN,OVC,M,1100.00,4200.00,5500.00,M,M,KDAW 012330Z AUTO 35009KT 9SM FEW011 BKN042 OVC055 A2997 RMK MADISHF
DAW,2017-04-01 23:40,-70.9200,43.2800,M,M,M,350.00,6.00,M,29.96,M,10.00,M,FEW,OVC,M,M,1200.00,5000.00,M,M,M,KDAW 012340Z AUTO 35006KT 10SM FEW012 OVC050 A2996 RMK MADISHF
DAW,2017-04-01 23:45,-70.9200,43.2800,M,M,M,350.00,7.00,M,29.97,M,10.00,M,FEW,OVC,M,M,1200.00,5000.00,M,M,M,KDAW 012345Z AUTO 35007KT 10SM FEW012 OVC050 A2997 RMK MADISHF
DAW,2017-04-01 23:50,-70.9200,43.2800,M,M,M,360.00,6.00,M,29.97,M,10.00,M,FEW,OVC,M,M,1200.00,5000.00,M,M,M,KDAW 012350Z AUTO 36006KT 10SM FEW012 OVC050 A2997 RMK MADISHF
DAW,2017-04-01 23:51,-70.9200,43.2800,33.10,30.00,88.23,360.00,6.00,0.00,29.97,1014.80,10.00,M,SCT,OVC,M,M,1200.00,5000.00,M,M,M,KDAW 012351Z AUTO 36006KT 10SM SCT012 OVC050 01/M01 A2997 RMK AO2 SNE29 SLP148 P0000 60004 T00061011 10011 20006 51009
DAW,2017-04-01 23:55,-70.9200,43.2800,M,M,M,360.00,6.00,M,29.97,M,9.00,M,SCT,OVC,M,M,1400.00,5000.00,M,M,M,KDAW 012355Z AUTO 36006KT 9SM SCT014 OVC050 A2997 RMK MADISHF
DAW,2017-04-01 23:59,-70.9200,43.2800,33.10,30.00,88.23,360.00,5.00,0.00,29.97,M,7.00,M,FEW,BKN,OVC,M,900.00,1400.00,5000.00,M,-SN,KDAW 012359Z AUTO 36005KT 7SM -SN FEW009 BKN014 OVC050 01/M01 A2997 RMK AO2 SNB58 P0000 T00061011
