#DEBUG: Format Typ    -> comma
#DEBUG: Time Period   -> 2017-04-01 00:00:00+00:00 2017-04-02 00:00:00+00:00
#DEBUG: Time Zone     -> Etc/UTC
#DEBUG: Data Contact   -> daryl herzmann akrherz@iastate.edu 515-294-5978
#DEBUG: Entries Found -> -1
station,valid,lon,lat,tmpf, dwpf, relh, drct, sknt, p01i, alti, mslp, vsby, gust, skyc1, skyc2, skyc3, skyc4, skyl1, skyl2, skyl3, skyl4, presentwx, metar
DBQ,2017-04-01 00:00,-90.7091,42.3984,M,M,M,20.00,3.00,M,30.02,M,10.00,M,FEW,M,M,M,3600.00,M,M,M,M,KDBQ 010000Z AUTO 02003KT 10SM FEW036 A3002 RMK MADISHF
DBQ,2017-04-01 00:05,-90.7091,42.3984,M,M,M,20.00,3.00,M,30.02,M,10.00,M,FEW,M,M,M,3700.00,M,M,M,M,KDBQ 010005Z AUTO 02003KT 10SM FEW037 A3002 RMK MADISHF
DBQ,2017-04-01 00:10,-90.7091,42.3984,M,M,M,30.00,5.00,M,30.02,M,10.00,M,FEW,M,M,M,3700.00,M,M,M,M,KDBQ 010010Z AUTO 03005KT 10SM FEW037 A3002 RMK MADISHF
DBQ,2017-04-01 00:15,-90.7091,42.3984,M,M,M,20.00,4.00,M,30.02,M,10.00,M,FEW,M,M,M,3700.00,M,M,M,M,KDBQ 010015Z AUTO 02004KT 10SM FEW037 A3002 RMK MADISHF
DBQ,2017-04-01 00:20,-90.7091,42.3984,M,M,M,20.00,4.00,M,30.02,M,10.00,M,CLR,M,M,M,M,M,M,M,M,KDBQ 010020Z AUTO 02004KT 10SM CLR A3002 RMK MADISHF
DBQ,2017-04-01 00:25,-90.7091,42.3984,M,M,M,10.00,4.00,M,30.02,M,10.00,M,CLR,M,M,M,M,M,M,M,M,KDBQ 010025Z AUTO 01004KT 10SM CLR A3002 RMK MADISHF
DBQ,2017-04-01 00:30,-90.7091,42.3984,M,M,M,20.00,3.00,M,30.03,M,10.00,M,CLR,M,M,M,M,M,M,M,M,KDBQ 010030Z AUTO 02003KT 10SM CLR A3003 RMK MADISHF
DBQ,2017-04-01 00:35,-90.7091,42.3984,M,M,M,0.00,0.00,M,30.03,M,10.00,M,CLR,M,M,M,M,M,M,M,M,KDBQ 010035Z AUTO 00000KT 10SM CLR A3003 RMK MADISHF
DBQ,2017-04-01 00:40,-90.7091,42.3984,M,M,M,0.00,0.00,M,30.03,M,10.00,M,CLR,M,M,M,M,M,M,M,M,KDBQ 010040Z AUTO 00000KT 10SM CLR A3003 RMK MADISHF
DBQ,2017-04-01 00:45,-90.7091,42.3984,M,M,M,0.00,0.00,M,30.03,M,10.00,M,CLR,M,M,M,M,M,M,M,M,KDBQ 010045Z AUTO 00000KT 10SM CLR A3003 RMK MADISHF
DBQ,2017-04-01 00:50,-90.7091,42.3984,M,M,M,0.00,0.00,M,30.03,M,10.00,M,CLR,M,M,M,M,M,M,M,M,KDBQ 010050Z AUTO 00000KT 10SM CLR A3003 RMK MADISHF
DBQ,2017-04-01 00:53,-90.7091,42.3984,39.00,32.00,75.75,0.00,0.00,0.00,30.03,1017.80,10.00,M,CLR,M,M,M,M,M,M,M,M,KDBQ 010053Z 00000KT 10SM CLR 04/00 A3003 RMK AO2 SLP178 T00390000
DBQ,2017-04-01 00:55,-90.7091,42.3984,M,M,M,0.00,0.00,M,30.03,M,10.00,M,CLR,M,M,M,M,M,M,M,M,KDBQ 010055Z AUTO 00000KT 10SM CLR A3003 RMK MADISHF
DBQ,2017-04-01 01:00,-90.7091,42.3984,M,M,M,0.00,0.00,M,30.03,M,10.00,M,CLR,M,M,M,M,M,M,M,M,KDBQ 010100Z AUTO 00000KT 10SM CLR A3003 RMK MADISHF
DBQ,2017-04-01 01:05,-90.7091,42.3984,M,M,M,290.00,4.00,M,30.04,M,10.00,M,CLR,M,M,M,M,M,M,M,M,KDBQ 010105Z AUTO 29004KT 10SM CLR A3004 RMK MADISHF
DBQ,2017-04-01 01:10,-90.7091,42.3984,M,M,M,280.00,3.00,M,30.04,M,10.00,M,CLR,M,M,M,M,M,M,M,M,KDBQ 010110Z AUTO 28003KT 10SM CLR A3004 RMK MADISHF
DBQ,2017-04-01 01:15,-90.7091,42.3984,M,M,M,0.00,0.00,M,30.04,M,10.00,M,CLR,M,M,M,M,M,M,M,M,KDBQ 010115Z AUTO 00000KT 10SM CLR A3004 RMK MADISHF
DBQ,2017-04-01 01:20,-90.7091,42.3984,M,M,M,0.00,0.00,M,30.04,M,10.00,M,CLR,M,M,M,M,M,M,M,M,KDBQ 010120Z AUTO 00000KT 10SM CLR A3004 RMK MADISHF
DBQ,2017-04-01 01:25,-90.7091,42.3984,M,M,M,0.00,0.00,M,30.04,M,10.00,M,CLR,M,M,M,M,M,M,M,M,KDBQ 010125Z AUTO 00000KT 10SM CLR A3004 RMK MADISHF
DBQ,2017-04-01 01:30,-90.7091,42.3984,M,M,M,0.00,0.00,M,30.04,M,10.00,M,CLR,M,M,M,M,M,M,M,M,KDBQ 010130Z AUTO 00000KT 10SM CLR A3004 RMK MADISHF
DBQ,2017-04-01 01:35,-90.7091,42.3984,M,M,M,0.00,0.00,M,30.04,M,10.00,M,CLR,M,M,M,M,M,M,M,M,KDBQ 010135Z AUTO 00000KT 10SM CLR A3004 RMK MADISHF
DBQ,2017-04-01 01:40,-90.7091,42.3984,M,M,M,0.00,0.00,M,30.04,M,10.00,M,CLR,M,M,M,M,M,M,M,M,KDBQ 010140Z AUTO 00000KT 10SM CLR A3004 RMK MADISHF
DBQ,2017-04-01 01:45,-90.7091,42.3984,M,M,M,0.00,0.00,M,30.05,M,10.00,M,CLR,M,M,M,M,M,M,M,M,KDBQ 010145Z AUTO 00000KT 10SM CLR A3005 RMK MADISHF
DBQ,2017-04-01 01:50,-90.7091,42.3984,M,M,M,0.00,0.00,M,30.05,M,10.00,M,CLR,M,M,M,M,M,M,M,M,KDBQ 010150Z AUTO 00000KT 10SM CLR A3005 RMK MADISHF
DBQ,2017-04-01 01:53,-90.7091,42.3984,35.10,32.00,88.33,0.00,0.00,0.00,30.05,1018.50,10.00,M,CLR,M,M,M,M,M,M,M,M,KDBQ 010153Z AUTO 00000KT 10SM CLR 02/00 A3005 RMK AO2 SLP185 T00170000
DBQ,2017-04-01 01:55,-90.7091,42.3984,M,M,M,0.00,0.00,M,30.05,M,10.00,M,CLR,M,M,M,M,M,M,M,M,KDBQ 010155Z AUTO 00000KT 10SM CLR A3005 RMK MADISHF
DBQ,2017-04-01 02:00,-90.7091,42.3984,M,M,M,0.00,0.00,M,30.05,M,10.00,M,CLR,M,M,M,M,M,M,M,M,KDBQ 010200Z AUTO 00000KT 10SM CLR A3005 RMK MADISHF
DBQ,2017-04-01 02:05,-90.7091,42.3984,M,M,M,0.00,0.00,M,30.05,M,10.00,M,CLR,M,M,M,M,M,M,M,M,KDBQ 010205Z AUTO 00000KT 10SM CLR A3005 RMK MADISHF
DBQ,2017-04-01 02:10,-90.7091,42.3984,M,M,M,0.00,0.00,M,30.05,M,10.00,M,CLR,M,M,M,M,M,M,M,M,KDBQ 010210Z AUTO 00000KT 10SM CLR A3005 RMK MADISHF
DBQ,2017-04-01 02:15,-90.7091,42.3984,M,M,M,200.00,3.00,M,30.05,M,10.00,M,CLR,M,M,M,M,M,M,M,M,KDBQ 010215Z AUTO 20003KT 10SM CLR A3005 RMK MADISHF
DBQ,2017-04-01 02:20,-90.7091,42.3984,M,M,M,0.00,0.00,M,30.05,M,10.00,M,CLR,M,M,M,M,M,M,M,M,KDBQ 010220Z AUTO 00000KT 10SM CLR A3005 RMK MADISHF
DBQ,2017-04-01 02:25,-90.7091,42.3984,M,M,M,0.00,0.00,M,30.05,M,10.00,M,CLR,M,M,M,M,M,M,M,M,KDBQ 010225Z AUTO 00000KT 10SM CLR A3005 RMK MADISHF
DBQ,2017-04-01 02:30,-90.7091,42.3984,M,M,M,0.00,0.00,M,30.05,M,10.00,M,CLR,M,M,M,M,M,M,M,M,KDBQ 010230Z AUTO 00000KT 10SM CLR A3005 RMK MADISHF
DBQ,2017-04-01 02:35,-90.7091,42.3984,M,M,M,0.00,0.00,M,30.05,M,10.00,M,CLR,M,M,M,M,M,M,M,M,KDBQ 010235Z AUTO 00000KT 10SM CLR A3005 RMK MADISHF
DBQ,2017-04-01 02:40,-90.7091,42.3984,M,M,M,0.00,0.00,M,30.05,M,10.00,M,CLR,M,M,M,M,M,M,M,M,KDBQ 010240Z AUTO 00000KT 10SM CLR A3005 RMK MADISHF
DBQ,2017-04-01 02:45,-90.7091,42.3984,M,M,M,0.00,0.00,M,30.05,M,10.00,M,CLR,M,M,M,M,M,M,M,M,KDBQ 010245Z AUTO 00000KT 10SM CLR A3005 RMK MADISHF
DBQ,2017-04-01 02:50,-90.7091,42.3984,M,M,M,0.00,0.00,M,30.06,M,10.00,M,CLR,M,M,M,M,M,M,M,M,KDBQ 010250Z AUTO 00000KT 10SM CLR A3006 RMK MADISHF
DBQ,2017-04-01 02:53,-90.7091,42.3984,35.10,30.90,84.49,0.00,0.00,0.00,30.06,1019.00,10.00,M,CLR,M,M,M,M,M,M,M,M,KDBQ 010253Z AUTO 00000KT 10SM CLR 02/M01 A3006 RMK AO2 SLP190 T00171006 53013
DBQ,2017-04-01 02:55,-90.7091,42.3984,M,M,M,0.00,0.00,M,30.06,M,10.00,M,CLR,M,M,M,M,M,M,M,M,KDBQ 010255Z AUTO 00000KT 10SM CLR A3006 RMK MADISHF
DBQ,2017-04-01 03:00,-90.7091,42.3984,M,M,M,0.00,0.00,M,30.06,M,10.00,M,CLR,M,M,M,M,M,M,M,M,KDBQ 010300Z AUTO 00000KT 10SM CLR A3006 RMK MADISHF
DBQ,2017-04-01 03:05,-90.7091,42.3984,M,M,M,0.00,0.00,M,30.06,M,10.00,M,CLR,M,M,M,M,M,M,M,M,KDBQ 010305Z AUTO 00000KT 10SM CLR A3006 RMK MADISHF
DBQ,2017-04-01 03:10,-90.7091,42.3984,M,M,M,0.00,0.00,M,30.07,M,10.00,M,CLR,M,M,M,M,M,M,M,M,KDBQ 010310Z AUTO 00000KT 10SM CLR A3007 RMK MADISHF
DBQ,2017-04-01 03:15,-90.7091,42.3984,M,M,M,230.00,3.00,M,30.07,M,10.00,M,CLR,M,M,M,M,M,M,M,M,KDBQ 010315Z AUTO 23003KT 10SM CLR A3007 RMK MADISHF
DBQ,2017-04-01 03:20,-90.7091,42.3984,M,M,M,240.00,3.00,M,30.07,M,10.00,M,CLR,M,M,M,M,M,M,M,M,KDBQ 010320Z AUTO 24003KT 10SM CLR A3007 RMK MADISHF
DBQ,2017-04-01 03:25,-90.7091,42.3984,M,M,M,0.00,0.00,M,30.07,M,10.00,M,CLR,M,M,M,M,M,M,M,M,KDBQ 010325Z AUTO 00000KT 10SM CLR A3007 RMK MADISHF
DBQ,2017-04-01 03:30,-90.7091,42.3984,M,M,M,0.00,0.00,M,30.07,M,10.00,M,CLR,M,M,M,M,M,M,M,M,KDBQ 010330Z AUTO 00000KT 10SM CLR A3007 RMK MADISHF
DBQ,2017-04-01 03:35,-90.7091,42.3984,M,M,M,0.00,0.00,M,30.08,M,10.00,M,CLR,M,M,M,M,M,M,M,M,KDBQ 010335Z AUTO 00000KT 10SM CLR A3008 RMK MADISHF
DBQ,2017-04-01 03:40,-90.7091,42.3984,M,M,M,250.00,3.00,M,30.08,M,10.00,M,CLR,M,M,M,M,M,M,M,M,KDBQ 010340Z AUTO 25003KT 10SM CLR A3008 RMK MADISHF
DBQ,2017-04-01 03:45,-90.7091,42.3984,M,M,M,250.00,4.00,M,30.09,M,10.00,M,CLR,M,M,M,M,M,M,M,M,KDBQ 010345Z AUTO 25004KT 10SM CLR A3009 RMK MADISHF
DBQ,2017-04-01 03:50,-90.7091,42.3984,M,M,M,260.00,3.00,M,30.09,M,10.00,M,CLR,M,M,M,M,M,M,M,M,KDBQ 010350Z AUTO 26003KT 10SM CLR A3009 RMK MADISHF
DBQ,2017-04-01 03:53,-90.7091,42.3984,34.00,32.00,92.29,270.00,3.00,0.00,30.09,1020.00,10.00,M,CLR,M,M,M,M,M,M,M,M,KDBQ 010353Z AUTO 27003KT 10SM CLR 01/00 A3009 RMK AO2 SLP200 T00110000
DBQ,2017-04-01 03:55,-90.7091,42.3984,M,M,M,270.00,3.00,M,30.09,M,10.00,M,CLR,M,M,M,M,M,M,M,M,KDBQ 010355Z AUTO 27003KT 10SM CLR A3009 RMK MADISHF
DBQ,2017-04-01 04:00,-90.7091,42.3984,M,M,M,280.00,3.00,M,30.09,M,10.00,M,CLR,M,M,M,M,M,M,M,M,KDBQ 010400Z AUTO 28003KT 10SM CLR A3009 RMK MADISHF
DBQ,2017-04-01 04:05,-90.7091,42.3984,M,M,M,290.00,3.00,M,30.09,M,10.00,M,CLR,M,M,M,M,M,M,M,M,KDBQ 010405Z AUTO 29003KT 10SM CLR A3009 RMK MADISHF
DBQ,2017-04-01 04:10,-90.7091,42.3984,M,M,M,280.00,4.00,M,30.10,M,10.00,M,CLR,M,M,M,M,M,M,M,M,KDBQ 010410Z AUTO 28004KT 10SM CLR A3010 RMK MADISHF
DBQ,2017-04-01 04:15,-90.7091,42.3984,M,M,M,280.00,3.00,M,30.09,M,10.00,M,CLR,M,M,M,M,M,M,M,M,KDBQ 010415Z AUTO 28003KT 10SM CLR A3009 RMK MADISHF
DBQ,2017-04-01 04:20,-90.7091,42.3984,M,M,M,0.00,0.00,M,30.09,M,10.00,M,CLR,M,M,M,M,M,M,M,M,KDBQ 010420Z AUTO 00000KT 10SM CLR A3009 RMK MADISHF
DBQ,2017-04-01 04:25,-90.7091,42.3984,M,M,M,300.00,3.00,M,30.09,M,10.00,M,CLR,M,M,M,M,M,M,M,M,KDBQ 010425Z AUTO 30003KT 10SM CLR A3009 RMK MADISHF
DBQ,2017-04-01 04:30,-90.7091,42.3984,M,M,M,0.00,0.00,M,30.09,M,10.00,M,CLR,M,M,M,M,M,M,M,M,KDBQ 010430Z AUTO 00000KT 10SM CLR A3009 RMK MADISHF
DBQ,2017-04-01 04:35,-90.7091,42.3984,M,M,M,280.00,3.00,M,30.09,M,10.00,M,CLR,M,M,M,M,M,M,M,M,KDBQ 010435Z AUTO 28003KT 10SM CLR A3009 RMK MADISHF
DBQ,2017-04-01 04:40,-90.7091,42.3984,M,M,M,270.00,3.00,M,30.10,M,10.00,M,CLR,M,M,M,M,M,M,M,M,KDBQ 010440Z AUTO 27003KT 10SM CLR A3010 RMK MADISHF
DBQ,2017-04-01 04:45,-90.7091,42.3984,M,M,M,0.00,0.00,M,30.10,M,10.00,M,CLR,M,M,M,M,M,M,M,M,KDBQ 010445Z AUTO 00000KT 10SM CLR A3010 RMK MADISHF
DBQ,2017-04-01 04:50,-90.7091,42.3984,M,M,M,0.00,0.00,M,30.10,M,10.00,M,CLR,M,M,M,M,M,M,M,M,KDBQ 010450Z AUTO 00000KT 10SM CLR A3010 RMK MADISHF
DBQ,2017-04-01 04:53,-90.7091,42.3984,34.00,30.90,88.27,0.00,0.00,0.00,30.10,1020.20,10.00,M,CLR,M,M,M,M,M,M,M,M,KDBQ 010453Z AUTO 00000KT 10SM CLR 01/M01 A3010 RMK AO2 SLP202 T00111006
DBQ,2017-04-01 04:55,-90.7091,42.3984,M,M,M,0.00,0.00,M,30.10,M,10.00,M,CLR,M,M,M,M,M,M,M,M,KDBQ 010455Z AUTO 00000KT 10SM CLR A3010 RMK MADISHF
DBQ,2017-04-01 05:00,-90.7091,42.3984,M,M,M,0.00,0.00,M,30.10,M,10.00,M,CLR,M,M,M,M,M,M,M,M,KDBQ 010500Z AUTO 00000KT 10SM CLR A3010 RMK MADISHF
DBQ,2017-04-01 05:05,-90.7091,42.3984,M,M,M,220.00,3.00,M,30.10,M,10.00,M,CLR,M,M,M,M,M,M,M,M,KDBQ 010505Z AUTO 22003KT 10SM CLR A3010 RMK MADISHF
DBQ,2017-04-01 05:10,-90.7091,42.3984,M,M,M,230.00,3.00,M,30.10,M,10.00,M,CLR,M,M,M,M,M,M,M,M,KDBQ 010510Z AUTO 23003KT 10SM CLR A3010 RMK MADISHF
DBQ,2017-04-01 05:15,-90.7091,42.3984,M,M,M,220.00,4.00,M,30.10,M,10.00,M,CLR,M,M,M,M,M,M,M,M,KDBQ 010515Z AUTO 22004KT 10SM CLR A3010 RMK MADISHF
DBQ,2017-04-01 05:20,-90.7091,42.3984,M,M,M,220.00,3.00,M,30.11,M,10.00,M,CLR,M,M,M,M,M,M,M,M,KDBQ 010520Z AUTO 22003KT 10SM CLR A3011 RMK MADISHF
DBQ,2017-04-01 05:25,-90.7091,42.3984,M,M,M,220.00,3.00,M,30.11,M,10.00,M,CLR,M,M,M,M,M,M,M,M,KDBQ 010525Z AUTO 22003KT 10SM CLR A3011 RMK MADISHF
DBQ,2017-04-01 05:30,-90.7091,42.3984,M,M,M,210.00,3.00,M,30.11,M,10.00,M,CLR,M,M,M,M,M,M,M,M,KDBQ 010530Z AUTO 21003KT 10SM CLR A3011 RMK MADISHF
DBQ,2017-04-01 05:35,-90.7091,42.3984,M,M,M,210.00,3.00,M,30.11,M,10.00,M,CLR,M,M,M,M,M,M,M,M,KDBQ 010535Z AUTO 21003KT 10SM CLR A3011 RMK MADISHF
DBQ,2017-04-01 05:40,-90.7091,42.3984,M,M,M,220.00,3.00,M,30.11,M,10.00,M,CLR,M,M,M,M,M,M,M,M,KDBQ 010540Z AUTO 22003KT 10SM CLR A3011 RMK MADISHF
DBQ,2017-04-01 05:45,-90.7091,42.3984,M,M,M,210.00,3.00,M,30.11,M,10.00,M,CLR,M,M,M,M,M,M,M,M,KDBQ 010545Z AUTO 21003KT 10SM CLR A3011 RMK MADISHF
DBQ,2017-04-01 05:50,-90.7091,42.3984,M,M,M,220.00,3.00,M,30.11,M,10.00,M,CLR,M,M,M,M,M,M,M,M,KDBQ 010550Z AUTO 22003KT 10SM CLR A3011 RMK MADISHF
DBQ,2017-04-01 05:53,-90.7091,42.3984,32.00,30.00,92.22,230.00,3.00,0.00,30.11,1020.60,10.00,M,CLR,M,M,M,M,M,M,M,M,KDBQ 010553Z AUTO 23003KT 10SM CLR 00/M01 A3011 RMK AO2 SLP206 T00001011 10067 20000 400670000 51016
DBQ,2017-04-01 05:55,-90.7091,42.3984,M,M,M,230.00,3.00,M,30.11,M,10.00,M,CLR,M,M,M,M,M,M,M,M,KDBQ 010555Z AUTO 23003KT 10SM CLR A3011 RMK MADISHF
DBQ,2017-04-01 06:00,-90.7091,42.3984,M,M,M,230.00,4.00,M,30.11,M,10.00,M,CLR,M,M,M,M,M,M,M,M,KDBQ 010600Z AUTO 23004KT 10SM CLR A3011 RMK MADISHF
DBQ,2017-04-01 06:05,-90.7091,42.3984,M,M,M,240.00,4.00,M,30.12,M,10.00,M,CLR,M,M,M,M,M,M,M,M,KDBQ 010605Z AUTO 24004KT 10SM CLR A3012 RMK MADISHF
DBQ,2017-04-01 06:10,-90.7091,42.3984,M,M,M,0.00,0.00,M,30.12,M,10.00,M,CLR,M,M,M,M,M,M,M,M,KDBQ 010610Z AUTO 00000KT 10SM CLR A3012 RMK MADISHF
DBQ,2017-04-01 06:15,-90.7091,42.3984,M,M,M,0.00,0.00,M,30.12,M,10.00,M,CLR,M,M,M,M,M,M,M,M,KDBQ 010615Z AUTO 00000KT 10SM CLR A3012 RMK MADISHF
DBQ,2017-04-01 06:20,-90.7091,42.3984,M,M,M,0.00,0.00,M,30.12,M,10.00,M,CLR,M,M,M,M,M,M,M,M,KDBQ 010620Z AUTO 00000KT 10SM CLR A3012 RMK MADISHF
DBQ,2017-04-01 06:25,-90.7091,42.3984,M,M,M,230.00,3.00,M,30.13,M,10.00,M,CLR,M,M,M,M,M,M,M,M,KDBQ 010625Z AUTO 23003KT 10SM CLR A3013 RMK MADISHF
DBQ,2017-04-01 06:30,-90.7091,42.3984,M,M,M,0.00,0.00,M,30.13,M,10.00,M,CLR,M,M,M,M,M,M,M,M,KDBQ 010630Z AUTO 00000KT 10SM CLR A3013 RMK MADISHF
DBQ,2017-04-01 06:35,-90.7091,42.3984,M,M,M,0.00,0.00,M,30.13,M,10.00,M,CLR,M,M,M,M,M,M,M,M,KDBQ 010635Z AUTO 00000KT 10SM CLR A3013 RMK MADISHF
DBQ,2017-04-01 06:40,-90.7091,42.3984,M,M,M,0.00,0.00,M,30.13,M,10.00,M,CLR,M,M,M,M,M,M,M,M,KDBQ 010640Z AUTO 00000KT 10SM CLR A3013 RMK MADISHF
DBQ,2017-04-01 06:45,-90.7091,42.3984,M,M,M,0.00,0.00,M,30.13,M,10.00,M,CLR,M,M,M,M,M,M,M,M,KDBQ 010645Z AUTO 00000KT 10SM CLR A3013 RMK MADISHF
DBQ,2017-04-01 06:50,-90.7091,42.3984,M,M,M,0.00,0.00,M,30.13,M,10.00,M,CLR,M,M,M,M,M,M,M,M,KDBQ 010650Z AUTO 00000KT 10SM CLR A3013 RMK MADISHF
DBQ,2017-04-01 06:53,-90.7091,42.3984,34.00,30.90,88.27,0.00,0.00,0.00,30.13,1021.30,10.00,M,CLR,M,M,M,M,M,M,M,M,KDBQ 010653Z AUTO 00000KT 10SM CLR 01/M01 A3013 RMK AO2 SLP213 T00111006
DBQ,2017-04-01 06:55,-90.7091,42.3984,M,M,M,0.00,0.00,M,30.13,M,10.00,M,CLR,M,M,M,M,M,M,M,M,KDBQ 010655Z AUTO 00000KT 10SM CLR A3013 RMK MADISHF
DBQ,2017-04-01 07:00,-90.7091,42.3984,M,M,M,0.00,0.00,M,30.13,M,10.00,M,CLR,M,M,M,M,M,M,M,M,KDBQ 010700Z AUTO 00000KT 10SM CLR A3013 RMK MADISHF
DBQ,2017-04-01 07:05,-90.7091,42.3984,M,M,M,0.00,0.00,M,30.13,M,10.00,M,CLR,M,M,M,M,M,M,M,M,KDBQ 010705Z AUTO 00000KT 10SM CLR A3013 RMK MADISHF
DBQ,2017-04-01 07:10,-90.7091,42.3984,M,M,M,0.00,0.00,M,30.13,M,10.00,M,CLR,M,M,M,M,M,M,M,M,KDBQ 010710Z AUTO 00000KT 10SM CLR A3013 RMK MADISHF
DBQ,2017-04-01 07:15,-90.7091,42.3984,M,M,M,0.00,0.00,M,30.13,M,10.00,M,CLR,M,M,M,M,M,M,M,M,KDBQ 010715Z AUTO 00000KT 10SM CLR A3013 RMK MADISHF
DBQ,2017-04-01 07:20,-90.7091,42.3984,M,M,M,0.00,0.00,M,30.13,M,10.00,M,CLR,M,M,M,M,M,M,M,M,KDBQ 010720Z AUTO 00000KT 10SM CLR A3013 RMK MADISHF
DBQ,2017-04-01 07:25,-90.7091,42.3984,M,M,M,0.00,0.00,M,30.13,M,10.00,M,CLR,M,M,M,M,M,M,M,M,KDBQ 010725Z AUTO 00000KT 10SM CLR A3013 RMK MADISHF
DBQ,2017-04-01 07:30,-90.7091,42.3984,M,M,M,0.00,0.00,M,30.13,M,10.00,M,CLR,M,M,M,M,M,M,M,M,KDBQ 010730Z AUTO 00000KT 10SM CLR A3013 RMK MADISHF
DBQ,2017-04-01 07:35,-90.7091,42.3984,M,M,M,0.00,0.00,M,30.13,M,10.00,M,CLR,M,M,M,M,M,M,M,M,KDBQ 010735Z AUTO 00000KT 10SM CLR A3013 RMK MADISHF
DBQ,2017-04-01 07:40,-90.7091,42.3984,M,M,M,0.00,0.00,M,30.14,M,10.00,M,CLR,M,M,M,M,M,M,M,M,KDBQ 010740Z AUTO 00000KT 10SM CLR A3014 RMK MADISHF
DBQ,2017-04-01 07:45,-90.7091,42.3984,M,M,M,0.00,0.00,M,30.14,M,10.00,M,CLR,M,M,M,M,M,M,M,M,KDBQ 010745Z AUTO 00000KT 10SM CLR A3014 RMK MADISHF
DBQ,2017-04-01 07:50,-90.7091,42.3984,M,M,M,230.00,3.00,M,30.14,M,10.00,M,CLR,M,M,M,M,M,M,M,M,KDBQ 010750Z AUTO 23003KT 10SM CLR A3014 RMK MADISHF
DBQ,2017-04-01 07:53,-90.7091,42.3984,34.00,32.00,92.29,230.00,3.00,0.00,30.14,1021.40,10.00,M,CLR,M,M,M,M,M,M,M,M,KDBQ 010753Z AUTO 23003KT 10SM CLR 01/00 A3014 RMK AO2 SLP214 T00110000
DBQ,2017-04-01 07:55,-90.7091,42.3984,M,M,M,0.00,0.00,M,30.13,M,10.00,M,CLR,M,M,M,M,M,M,M,M,KDBQ 010755Z AUTO 00000KT 10SM CLR A3013 RMK MADISHF
DBQ,2017-04-01 08:00,-90.7091,42.3984,M,M,M,220.00,3.00,M,30.14,M,10.00,M,CLR,M,M,M,M,M,M,M,M,KDBQ 010800Z AUTO 22003KT 10SM CLR A3014 RMK MADISHF
DBQ,2017-04-01 08:05,-90.7091,42.3984,M,M,M,220.00,3.00,M,30.14,M,10.00,M,CLR,M,M,M,M,M,M,M,M,KDBQ 010805Z AUTO 22003KT 10SM CLR A3014 RMK MADISHF
DBQ,2017-04-01 08:10,-90.7091,42.3984,M,M,M,220.00,3.00,M,30.14,M,10.00,M,CLR,M,M,M,M,M,M,M,M,KDBQ 010810Z AUTO 22003KT 10SM CLR A3014 RMK MADISHF
DBQ,2017-04-01 08:15,-90.7091,42.3984,M,M,M,230.00,3.00,M,30.14,M,10.00,M,CLR,M,M,M,M,M,M,M,M,KDBQ 010815Z AUTO 23003KT 10SM CLR A3014 RMK MADISHF
DBQ,2017-04-01 08:20,-90.7091,42.3984,M,M,M,0.00,0.00,M,30.14,M,10.00,M,CLR,M,M,M,M,M,M,M,M,KDBQ 010820Z AUTO 00000KT 10SM CLR A3014 RMK MADISHF
DBQ,2017-04-01 08:25,-90.7091,42.3984,M,M,M,0.00,0.00,M,30.14,M,10.00,M,CLR,M,M,M,M,M,M,M,M,KDBQ 010825Z AUTO 00000KT 10SM CLR A3014 RMK MADISHF
DBQ,2017-04-01 08:30,-90.7091,42.3984,M,M,M,0.00,0.00,M,30.14,M,10.00,M,CLR,M,M,M,M,M,M,M,M,KDBQ 010830Z AUTO 00000KT 10SM CLR A3014 RMK MADISHF
DBQ,2017-04-01 08:35,-90.7091,42.3984,M,M,M,230.00,3.00,M,30.14,M,10.00,M,CLR,M,M,M,M,M,M,M,M,KDBQ 010835Z AUTO 23003KT 10SM CLR A3014 RMK MADISHF
DBQ,2017-04-01 08:40,-90.7091,42.3984,M,M,M,220.00,3.00,M,30.14,M,10.00,M,CLR,M,M,M,M,M,M,M,M,KDBQ 010840Z AUTO 22003KT 10SM CLR A3014 RMK MADISHF
DBQ,2017-04-01 08:45,-90.7091,42.3984,M,M,M,0.00,0.00,M,30.14,M,10.00,M,CLR,M,M,M,M,M,M,M,M,KDBQ 010845Z AUTO 00000KT 10SM CLR A3014 RMK MADISHF
DBQ,2017-04-01 08:50,-90.7091,42.3984,M,M,M,0.00,0.00,M,30.14,M,10.00,M,CLR,M,M,M,M,M,M,M,M,KDBQ 010850Z AUTO 00000KT 10SM CLR A3014 RMK MADISHF
DBQ,2017-04-01 08:53,-90.7091,42.3984,33.10,30.90,91.51,230.00,3.00,0.00,30.14,1021.50,10.00,M,CLR,M,M,M,M,M,M,M,M,KDBQ 010853Z AUTO 23003KT 10SM CLR 01/M01 A3014 RMK AO2 SLP215 T00061006 51009
DBQ,2017-04-01 08:55,-90.7091,42.3984,M,M,M,230.00,4.00,M,30.14,M,10.00,M,CLR,M,M,M,M,M,M,M,M,KDBQ 010855Z AUTO 23004KT 10SM CLR A3014 RMK MADISHF
DBQ,2017-04-01 09:00,-90.7091,42.3984,M,M,M,230.00,3.00,M,30.14,M,10.00,M,CLR,M,M,M,M,M,M,M,M,KDBQ 010900Z AUTO 23003KT 10SM CLR A3014 RMK MADISHF
DBQ,2017-04-01 09:05,-90.7091,42.3984,M,M,M,0.00,0.00,M,30.14,M,10.00,M,CLR,M,M,M,M,M,M,M,M,KDBQ 010905Z AUTO 00000KT 10SM CLR A3014 RMK MADISHF
DBQ,2017-04-01 09:10,-90.7091,42.3984,M,M,M,0.00,0.00,M,30.14,M,10.00,M,CLR,M,M,M,M,M,M,M,M,KDBQ 010910Z AUTO 00000KT 10SM CLR A3014 RMK MADISHF
DBQ,2017-04-01 09:15,-90.7091,42.3984,M,M,M,0.00,0.00,M,30.14,M,10.00,M,CLR,M,M,M,M,M,M,M,M,KDBQ 010915Z AUTO 00000KT 10SM CLR A3014 RMK MADISHF
DBQ,2017-04-01 09:20,-90.7091,42.3984,M,M,M,220.00,3.00,M,30.15,M,10.00,M,CLR,M,M,M,M,M,M,M,M,KDBQ 010920Z AUTO 22003KT 10SM CLR A3015 RMK MADISHF
DBQ,2017-04-01 09:25,-90.7091,42.3984,M,M,M,230.00,4.00,M,30.14,M,10.00,M,CLR,M,M,M,M,M,M,M,M,KDBQ 010925Z AUTO 23004KT 10SM CLR A3014 RMK MADISHF
DBQ,2017-04-01 09:30,-90.7091,42.3984,M,M,M,230.00,4.00,M,30.15,M,10.00,M,CLR,M,M,M,M,M,M,M,M,KDBQ 010930Z AUTO 23004KT 10SM CLR A3015 RMK MADISHF
DBQ,2017-04-01 09:35,-90.7091,42.3984,M,M,M,240.00,3.00,M,30.15,M,10.00,M,CLR,M,M,M,M,M,M,M,M,KDBQ 010935Z AUTO 24003KT 10SM CLR A3015 RMK MADISHF
DBQ,2017-04-01 09:40,-90.7091,42.3984,M,M,M,230.00,3.00,M,30.15,M,10.00,M,CLR,M,M,M,M,M,M,M,M,KDBQ 010940Z AUTO 23003KT 10SM CLR A3015 RMK MADISHF
DBQ,2017-04-01 09:45,-90.7091,42.3984,M,M,M,0.00,0.00,M,30.15,M,10.00,M,CLR,M,M,M,M,M,M,M,M,KDBQ 010945Z AUTO 00000KT 10SM CLR A3015 RMK MADISHF
DBQ,2017-04-01 09:50,-90.7091,42.3984,M,M,M,0.00,0.00,M,30.15,M,10.00,M,CLR,M,M,M,M,M,M,M,M,KDBQ 010950Z AUTO 00000KT 10SM CLR A3015 RMK MADISHF
DBQ,2017-04-01 09:53,-90.7091,42.3984,34.00,32.00,92.29,0.00,0.00,0.00,30.15,1021.70,10.00,M,CLR,M,M,M,M,M,M,M,M,KDBQ 010953Z AUTO 00000KT 10SM CLR 01/00 A3015 RMK AO2 SLP217 T00110000
DBQ,2017-04-01 09:55,-90.7091,42.3984,M,M,M,0.00,0.00,M,30.15,M,10.00,M,CLR,M,M,M,M,M,M,M,M,KDBQ 010955Z AUTO 00000KT 10SM CLR A3015 RMK MADISHF
DBQ,2017-04-01 10:00,-90.7091,42.3984,M,M,M,250.00,3.00,M,30.14,M,10.00,M,CLR,M,M,M,M,M,M,M,M,KDBQ 011000Z AUTO 25003KT 10SM CLR A3014 RMK MADISHF
DBQ,2017-04-01 10:05,-90.7091,42.3984,M,M,M,270.00,3.00,M,30.14,M,10.00,M,CLR,M,M,M,M,M,M,M,M,KDBQ 011005Z AUTO 27003KT 10SM CLR A3014 RMK MADISHF
DBQ,2017-04-01 10:10,-90.7091,42.3984,M,M,M,280.00,4.00,M,30.14,M,10.00,M,CLR,M,M,M,M,M,M,M,M,KDBQ 011010Z AUTO 28004KT 10SM CLR A3014 RMK MADISHF
DBQ,2017-04-01 10:15,-90.7091,42.3984,M,M,M,280.00,5.00,M,30.14,M,10.00,M,CLR,M,M,M,M,M,M,M,M,KDBQ 011015Z AUTO 28005KT 10SM CLR A3014 RMK MADISHF
DBQ,2017-04-01 10:20,-90.7091,42.3984,M,M,M,270.00,5.00,M,30.14,M,10.00,M,CLR,M,M,M,M,M,M,M,M,KDBQ 011020Z AUTO 27005KT 10SM CLR A3014 RMK MADISHF
DBQ,2017-04-01 10:25,-90.7091,42.3984,M,M,M,250.00,6.00,M,30.15,M,10.00,M,CLR,M,M,M,M,M,M,M,M,KDBQ 011025Z AUTO 25006KT 10SM CLR A3015 RMK MADISHF
DBQ,2017-04-01 10:30,-90.7091,42.3984,M,M,M,250.00,4.00,M,30.16,M,10.00,M,CLR,M,M,M,M,M,M,M,M,KDBQ 011030Z AUTO 25004KT 10SM CLR A3016 RMK MADISHF
DBQ,2017-04-01 10:35,-90.7091,42.3984,M,M,M,270.00,4.00,M,30.16,M,10.00,M,CLR,M,M,M,M,M,M,M,M,KDBQ 011035Z AUTO 27004KT 10SM CLR A3016 RMK MADISHF
DBQ,2017-04-01 10:40,-90.7091,42.3984,M,M,M,280.00,4.00,M,30.16,M,10.00,M,CLR,M,M,M,M,M,M,M,M,KDBQ 011040Z AUTO 28004KT 10SM CLR A3016 RMK MADISHF
DBQ,2017-04-01 10:45,-90.7091,42.3984,M,M,M,280.00,4.00,M,30.16,M,10.00,M,CLR,M,M,M,M,M,M,M,M,KDBQ 011045Z AUTO 28004KT 10SM CLR A3016 RMK MADISHF
DBQ,2017-04-01 10:50,-90.7091,42.3984,M,M,M,240.00,3.00,M,30.16,M,10.00,M,CLR,M,M,M,M,M,M,M,M,KDBQ 011050Z AUTO 24003KT 10SM CLR A3016 RMK MADISHF
DBQ,2017-04-01 10:53,-90.7091,42.3984,34.00,30.90,88.27,0.00,0.00,0.00,30.16,1022.30,10.00,M,CLR,M,M,M,M,M,M,M,M,KDBQ 011053Z 00000KT 10SM CLR 01/M01 A3016 RMK AO2 SLP223 T00111006
DBQ,2017-04-01 10:55,-90.7091,42.3984,M,M,M,210.00,3.00,M,30.16,M,10.00,M,CLR,M,M,M,M,M,M,M,M,KDBQ 011055Z AUTO 21003KT 10SM CLR A3016 RMK MADISHF
DBQ,2017-04-01 11:00,-90.7091,42.3984,M,M,M,240.00,3.00,M,30.16,M,10.00,M,CLR,M,M,M,M,M,M,M,M,KDBQ 011100Z AUTO 24003KT 10SM CLR A3016 RMK MADISHF
DBQ,2017-04-01 11:05,-90.7091,42.3984,M,M,M,230.00,3.00,M,30.16,M,10.00,M,CLR,M,M,M,M,M,M,M,M,KDBQ 011105Z AUTO 23003KT 10SM CLR A3016 RMK MADISHF
DBQ,2017-04-01 11:10,-90.7091,42.3984,M,M,M,250.00,3.00,M,30.17,M,10.00,M,CLR,M,M,M,M,M,M,M,M,KDBQ 011110Z AUTO 25003KT 10SM CLR A3017 RMK MADISHF
DBQ,2017-04-01 11:15,-90.7091,42.3984,M,M,M,0.00,0.00,M,30.17,M,10.00,M,CLR,M,M,M,M,M,M,M,M,KDBQ 011115Z AUTO 00000KT 10SM CLR A3017 RMK MADISHF
DBQ,2017-04-01 11:20,-90.7091,42.3984,M,M,M,0.00,0.00,M,30.16,M,10.00,M,CLR,M,M,M,M,M,M,M,M,KDBQ 011120Z AUTO 00000KT 10SM CLR A3016 RMK MADISHF
DBQ,2017-04-01 11:25,-90.7091,42.3984,M,M,M,0.00,0.00,M,30.17,M,10.00,M,CLR,M,M,M,M,M,M,M,M,KDBQ 011125Z AUTO 00000KT 10SM CLR A3017 RMK MADISHF
DBQ,2017-04-01 11:30,-90.7091,42.3984,M,M,M,0.00,0.00,M,30.17,M,10.00,M,CLR,M,M,M,M,M,M,M,M,KDBQ 011130Z AUTO 00000KT 10SM CLR A3017 RMK MADISHF
DBQ,2017-04-01 11:35,-90.7091,42.3984,M,M,M,220.00,3.00,M,30.17,M,10.00,M,CLR,M,M,M,M,M,M,M,M,KDBQ 011135Z AUTO 22003KT 10SM CLR A3017 RMK MADISHF
DBQ,2017-04-01 11:40,-90.7091,42.3984,M,M,M,230.00,3.00,M,30.17,M,10.00,M,CLR,M,M,M,M,M,M,M,M,KDBQ 011140Z AUTO 23003KT 10SM CLR A3017 RMK MADISHF
DBQ,2017-04-01 11:45,-90.7091,42.3984,M,M,M,230.00,3.00,M,30.18,M,10.00,M,CLR,M,M,M,M,M,M,M,M,KDBQ 011145Z AUTO 23003KT 10SM CLR A3018 RMK MADISHF
DBQ,2017-04-01 11:50,-90.7091,42.3984,M,M,M,230.00,3.00,M,30.18,M,10.00,M,CLR,M,M,M,M,M,M,M,M,KDBQ 011150Z AUTO 23003KT 10SM CLR A3018 RMK MADISHF
DBQ,2017-04-01 11:53,-90.7091,42.3984,32.00,30.90,95.65,230.00,3.00,0.00,30.18,1023.00,10.00,M,CLR,M,M,M,M,M,M,M,M,KDBQ 011153Z 23003KT 10SM CLR 00/M01 A3018 RMK AO2 SLP230 T00001006 10022 20000 53015
DBQ,2017-04-01 11:55,-90.7091,42.3984,M,M,M,230.00,3.00,M,30.18,M,10.00,M,CLR,M,M,M,M,M,M,M,M,KDBQ 011155Z AUTO 23003KT 10SM CLR A3018 RMK MADISHF
DBQ,2017-04-01 12:00,-90.7091,42.3984,M,M,M,210.00,3.00,M,30.18,M,10.00,M,CLR,M,M,M,M,M,M,M,M,KDBQ 011200Z AUTO 21003KT 10SM CLR A3018 RMK MADISHF
DBQ,2017-04-01 12:05,-90.7091,42.3984,M,M,M,220.00,3.00,M,30.18,M,10.00,M,CLR,M,M,M,M,M,M,M,M,KDBQ 011205Z AUTO 22003KT 10SM CLR A3018 RMK MADISHF
DBQ,2017-04-01 12:10,-90.7091,42.3984,M,M,M,230.00,3.00,M,30.19,M,10.00,M,CLR,M,M,M,M,M,M,M,M,KDBQ 011210Z AUTO 23003KT 10SM CLR A3019 RMK MADISHF
DBQ,2017-04-01 12:15,-90.7091,42.3984,M,M,M,230.00,3.00,M,30.19,M,10.00,M,CLR,M,M,M,M,M,M,M,M,KDBQ 011215Z AUTO 23003KT 10SM CLR A3019 RMK MADISHF
DBQ,2017-04-01 12:20,-90.7091,42.3984,M,M,M,230.00,4.00,M,30.19,M,10.00,M,CLR,M,M,M,M,M,M,M,M,KDBQ 011220Z AUTO 23004KT 10SM CLR A3019 RMK MADISHF
DBQ,2017-04-01 12:25,-90.7091,42.3984,M,M,M,230.00,5.00,M,30.20,M,9.00,M,CLR,M,M,M,M,M,M,M,M,KDBQ 011225Z AUTO 23005KT 9SM CLR A3020 RMK MADISHF
DBQ,2017-04-01 12:30,-90.7091,42.3984,M,M,M,230.00,4.00,M,30.20,M,8.00,M,CLR,M,M,M,M,M,M,M,M,KDBQ 011230Z AUTO 23004KT 8SM CLR A3020 RMK MADISHF
DBQ,2017-04-01 12:35,-90.7091,42.3984,M,M,M,230.00,3.00,M,30.20,M,7.00,M,CLR,M,M,M,M,M,M,M,M,KDBQ 011235Z AUTO 23003KT 7SM CLR A3020 RMK MADISHF
DBQ,2017-04-01 12:40,-90.7091,42.3984,M,M,M,220.00,3.00,M,30.20,M,8.00,M,CLR,M,M,M,M,M,M,M,M,KDBQ 011240Z AUTO 22003KT 8SM CLR A3020 RMK MADISHF
DBQ,2017-04-01 12:45,-90.7091,42.3984,M,M,M,0.00,0.00,M,30.21,M,9.00,M,CLR,M,M,M,M,M,M,M,M,KDBQ 011245Z AUTO 00000KT 9SM CLR A3021 RMK MADISHF
DBQ,2017-04-01 12:50,-90.7091,42.3984,M,M,M,0.00,0.00,M,30.21,M,9.00,M,CLR,M,M,M,M,M,M,M,M,KDBQ 011250Z AUTO 00000KT 9SM CLR A3021 RMK MADISHF
DBQ,2017-04-01 12:53,-90.7091,42.3984,33.10,32.00,95.67,0.00,0.00,0.00,30.21,1024.10,10.00,M,CLR,M,M,M,M,M,M,M,M,KDBQ 011253Z 00000KT 10SM CLR 01/00 A3021 RMK AO2 SLP241 T00060000
DBQ,2017-04-01 12:55,-90.7091,42.3984,M,M,M,0.00,0.00,M,30.21,M,9.00,M,CLR,M,M,M,M,M,M,M,M,KDBQ 011255Z AUTO 00000KT 9SM CLR A3021 RMK MADISHF
DBQ,2017-04-01 13:00,-90.7091,42.3984,M,M,M,0.00,0.00,M,30.22,M,9.00,M,CLR,M,M,M,M,M,M,M,M,KDBQ 011300Z AUTO 00000KT 9SM CLR A3022 RMK MADISHF
DBQ,2017-04-01 13:05,-90.7091,42.3984,M,M,M,0.00,0.00,M,30.22,M,10.00,M,CLR,M,M,M,M,M,M,M,M,KDBQ 011305Z AUTO 00000KT 10SM CLR A3022 RMK MADISHF
DBQ,2017-04-01 13:10,-90.7091,42.3984,M,M,M,0.00,0.00,M,30.22,M,9.00,M,CLR,M,M,M,M,M,M,M,M,KDBQ 011310Z AUTO 00000KT 9SM CLR A3022 RMK MADISHF
DBQ,2017-04-01 13:15,-90.7091,42.3984,M,M,M,210.00,3.00,M,30.22,M,10.00,M,CLR,M,M,M,M,M,M,M,M,KDBQ 011315Z AUTO 21003KT 10SM CLR A3022 RMK MADISHF
DBQ,2017-04-01 13:20,-90.7091,42.3984,M,M,M,0.00,0.00,M,30.22,M,10.00,M,CLR,M,M,M,M,M,M,M,M,KDBQ 011320Z AUTO 00000KT 10SM CLR A3022 RMK MADISHF
DBQ,2017-04-01 13:25,-90.7091,42.3984,M,M,M,210.00,3.00,M,30.22,M,10.00,M,CLR,M,M,M,M,M,M,M,M,KDBQ 011325Z AUTO 21003KT 10SM CLR A3022 RMK MADISHF
DBQ,2017-04-01 13:30,-90.7091,42.3984,M,M,M,210.00,3.00,M,30.22,M,10.00,M,CLR,M,M,M,M,M,M,M,M,KDBQ 011330Z AUTO 21003KT 10SM CLR A3022 RMK MADISHF
DBQ,2017-04-01 13:35,-90.7091,42.3984,M,M,M,220.00,4.00,M,30.22,M,10.00,M,CLR,M,M,M,M,M,M,M,M,KDBQ 011335Z AUTO 22004KT 10SM CLR A3022 RMK MADISHF
DBQ,2017-04-01 13:40,-90.7091,42.3984,M,M,M,220.00,4.00,M,30.22,M,10.00,M,CLR,M,M,M,M,M,M,M,M,KDBQ 011340Z AUTO 22004KT 10SM CLR A3022 RMK MADISHF
DBQ,2017-04-01 13:45,-90.7091,42.3984,M,M,M,230.00,4.00,M,30.22,M,10.00,M,CLR,M,M,M,M,M,M,M,M,KDBQ 011345Z AUTO 23004KT 10SM CLR A3022 RMK MADISHF
DBQ,2017-04-01 13:50,-90.7091,42.3984,M,M,M,230.00,4.00,M,30.22,M,10.00,M,CLR,M,M,M,M,M,M,M,M,KDBQ 011350Z AUTO 23004KT 10SM CLR A3022 RMK MADISHF
DBQ,2017-04-01 13:53,-90.7091,42.3984,37.00,35.10,92.76,220.00,4.00,0.00,30.22,1024.50,10.00,M,CLR,M,M,M,M,M,M,M,M,KDBQ 011353Z 22004KT 10SM CLR 03/02 A3022 RMK AO2 SLP245 T00280017
DBQ,2017-04-01 13:55,-90.7091,42.3984,M,M,M,220.00,4.00,M,30.22,M,10.00,M,CLR,M,M,M,M,M,M,M,M,KDBQ 011355Z AUTO 22004KT 10SM CLR A3022 RMK MADISHF
DBQ,2017-04-01 14:00,-90.7091,42.3984,M,M,M,220.00,4.00,M,30.22,M,10.00,M,CLR,M,M,M,M,M,M,M,M,KDBQ 011400Z AUTO 22004KT 10SM CLR A3022 RMK MADISHF
DBQ,2017-04-01 14:05,-90.7091,42.3984,M,M,M,220.00,4.00,M,30.22,M,10.00,M,CLR,M,M,M,M,M,M,M,M,KDBQ 011405Z AUTO 22004KT 10SM CLR A3022 RMK MADISHF
DBQ,2017-04-01 14:10,-90.7091,42.3984,M,M,M,230.00,4.00,M,30.22,M,10.00,M,CLR,M,M,M,M,M,M,M,M,KDBQ 011410Z AUTO 23004KT 10SM CLR A3022 RMK MADISHF
DBQ,2017-04-01 14:15,-90.7091,42.3984,M,M,M,250.00,3.00,M,30.22,M,10.00,M,CLR,M,M,M,M,M,M,M,M,KDBQ 011415Z AUTO 25003KT 10SM CLR A3022 RMK MADISHF
DBQ,2017-04-01 14:20,-90.7091,42.3984,M,M,M,240.00,3.00,M,30.22,M,10.00,M,CLR,M,M,M,M,M,M,M,M,KDBQ 011420Z AUTO 24003KT 10SM CLR A3022 RMK MADISHF
DBQ,2017-04-01 14:25,-90.7091,42.3984,M,M,M,230.00,3.00,M,30.22,M,10.00,M,CLR,M,M,M,M,M,M,M,M,KDBQ 011425Z AUTO 23003KT 10SM CLR A3022 RMK MADISHF
DBQ,2017-04-01 14:30,-90.7091,42.3984,M,M,M,220.00,3.00,M,30.22,M,10.00,M,CLR,M,M,M,M,M,M,M,M,KDBQ 011430Z AUTO 22003KT 10SM CLR A3022 RMK MADISHF
DBQ,2017-04-01 14:35,-90.7091,42.3984,M,M,M,210.00,3.00,M,30.22,M,10.00,M,CLR,M,M,M,M,M,M,M,M,KDBQ 011435Z AUTO 21003KT 10SM CLR A3022 RMK MADISHF
DBQ,2017-04-01 14:40,-90.7091,42.3984,M,M,M,0.00,0.00,M,30.22,M,10.00,M,CLR,M,M,M,M,M,M,M,M,KDBQ 011440Z AUTO 00000KT 10SM CLR A3022 RMK MADISHF
DBQ,2017-04-01 14:45,-90.7091,42.3984,M,M,M,0.00,0.00,M,30.22,M,10.00,M,CLR,M,M,M,M,M,M,M,M,KDBQ 011445Z AUTO 00000KT 10SM CLR A3022 RMK MADISHF
DBQ,2017-04-01 14:50,-90.7091,42.3984,M,M,M,0.00,0.00,M,30.22,M,10.00,M,CLR,M,M,M,M,M,M,M,M,KDBQ 011450Z AUTO 00000KT 10SM CLR A3022 RMK MADISHF
DBQ,2017-04-01 14:53,-90.7091,42.3984,43.00,37.90,82.04,0.00,0.00,0.00,30.22,1024.20,10.00,M,CLR,M,M,M,M,M,M,M,M,KDBQ 011453Z 00000KT 10SM CLR 06/03 A3022 RMK AO2 SLP242 T00610033 50012
DBQ,2017-04-01 14:55,-90.7091,42.3984,M,M,M,0.00,0.00,M,30.22,M,10.00,M,CLR,M,M,M,M,M,M,M,M,KDBQ 011455Z AUTO 00000KT 10SM CLR A3022 RMK MADISHF
DBQ,2017-04-01 15:00,-90.7091,42.3984,M,M,M,0.00,0.00,M,30.22,M,10.00,M,CLR,M,M,M,M,M,M,M,M,KDBQ 011500Z AUTO 00000KT 10SM CLR A3022 RMK MADISHF
DBQ,2017-04-01 15:05,-90.7091,42.3984,M,M,M,0.00,0.00,M,30.22,M,10.00,M,CLR,M,M,M,M,M,M,M,M,KDBQ 011505Z AUTO 00000KT 10SM CLR A3022 RMK MADISHF
DBQ,2017-04-01 15:10,-90.7091,42.3984,M,M,M,0.00,0.00,M,30.22,M,10.00,M,CLR,M,M,M,M,M,M,M,M,KDBQ 011510Z AUTO 00000KT 10SM CLR A3022 RMK MADISHF
DBQ,2017-04-01 15:15,-90.7091,42.3984,M,M,M,0.00,0.00,M,30.23,M,10.00,M,CLR,M,M,M,M,M,M,M,M,KDBQ 011515Z AUTO 00000KT 10SM CLR A3023 RMK MADISHF
DBQ,2017-04-01 15:20,-90.7091,42.3984,M,M,M,0.00,0.00,M,30.23,M,10.00,M,CLR,M,M,M,M,M,M,M,M,KDBQ 011520Z AUTO 00000KT 10SM CLR A3023 RMK MADISHF
DBQ,2017-04-01 15:25,-90.7091,42.3984,M,M,M,0.00,0.00,M,30.23,M,10.00,M,CLR,M,M,M,M,M,M,M,M,KDBQ 011525Z AUTO 00000KT 10SM CLR A3023 RMK MADISHF
DBQ,2017-04-01 15:30,-90.7091,42.3984,M,M,M,10.00,3.00,M,30.23,M,10.00,M,CLR,M,M,M,M,M,M,M,M,KDBQ 011530Z AUTO 01003KT 10SM CLR A3023 RMK MADISHF
DBQ,2017-04-01 15:35,-90.7091,42.3984,M,M,M,280.00,3.00,M,30.23,M,10.00,M,CLR,M,M,M,M,M,M,M,M,KDBQ 011535Z AUTO 28003KT 10SM CLR A3023 RMK MADISHF
DBQ,2017-04-01 15:40,-90.7091,42.3984,M,M,M,310.00,5.00,M,30.23,M,10.00,M,CLR,M,M,M,M,M,M,M,M,KDBQ 011540Z AUTO 31005KT 10SM CLR A3023 RMK MADISHF
DBQ,2017-04-01 15:45,-90.7091,42.3984,M,M,M,310.00,4.00,M,30.23,M,10.00,M,CLR,M,M,M,M,M,M,M,M,KDBQ 011545Z AUTO 31004KT 10SM CLR A3023 RMK MADISHF
DBQ,2017-04-01 15:50,-90.7091,42.3984,M,M,M,310.00,3.00,M,30.23,M,10.00,M,CLR,M,M,M,M,M,M,M,M,KDBQ 011550Z AUTO 31003KT 10SM CLR A3023 RMK VRB03KT  MADISHF
DBQ,2017-04-01 15:53,-90.7091,42.3984,48.90,36.00,60.88,310.00,3.00,0.00,30.23,1024.50,10.00,M,CLR,M,M,M,M,M,M,M,M,KDBQ 011553Z 31003KT 10SM CLR 09/02 A3023 RMK AO2 SLP245 T00940022
DBQ,2017-04-01 15:55,-90.7091,42.3984,M,M,M,0.00,0.00,M,30.23,M,10.00,M,CLR,M,M,M,M,M,M,M,M,KDBQ 011555Z AUTO 00000KT 10SM CLR A3023 RMK MADISHF
DBQ,2017-04-01 16:00,-90.7091,42.3984,M,M,M,240.00,3.00,M,30.23,M,10.00,M,CLR,M,M,M,M,M,M,M,M,KDBQ 011600Z AUTO 24003KT 10SM CLR A3023 RMK MADISHF
DBQ,2017-04-01 16:05,-90.7091,42.3984,M,M,M,300.00,3.00,M,30.23,M,10.00,M,CLR,M,M,M,M,M,M,M,M,KDBQ 011605Z AUTO 30003KT 10SM CLR A3023 RMK MADISHF
DBQ,2017-04-01 16:10,-90.7091,42.3984,M,M,M,280.00,3.00,M,30.23,M,10.00,M,CLR,M,M,M,M,M,M,M,M,KDBQ 011610Z AUTO 28003KT 10SM CLR A3023 RMK VRB03KT  MADISHF
DBQ,2017-04-01 16:15,-90.7091,42.3984,M,M,M,340.00,4.00,M,30.23,M,10.00,M,CLR,M,M,M,M,M,M,M,M,KDBQ 011615Z AUTO 34004KT 10SM CLR A3023 RMK MADISHF
DBQ,2017-04-01 16:20,-90.7091,42.3984,M,M,M,290.00,4.00,M,30.23,M,10.00,M,CLR,M,M,M,M,M,M,M,M,KDBQ 011620Z AUTO 29004KT 10SM CLR A3023 RMK MADISHF
DBQ,2017-04-01 16:25,-90.7091,42.3984,M,M,M,310.00,5.00,M,30.23,M,10.00,M,CLR,M,M,M,M,M,M,M,M,KDBQ 011625Z AUTO 31005KT 10SM CLR A3023 RMK MADISHF
DBQ,2017-04-01 16:30,-90.7091,42.3984,M,M,M,0.00,0.00,M,30.23,M,10.00,M,CLR,M,M,M,M,M,M,M,M,KDBQ 011630Z AUTO 00000KT 10SM CLR A3023 RMK MADISHF
DBQ,2017-04-01 16:35,-90.7091,42.3984,M,M,M,290.00,4.00,M,30.23,M,10.00,M,CLR,M,M,M,M,M,M,M,M,KDBQ 011635Z AUTO 29004KT 10SM CLR A3023 RMK MADISHF
DBQ,2017-04-01 16:40,-90.7091,42.3984,M,M,M,320.00,3.00,M,30.23,M,10.00,M,CLR,M,M,M,M,M,M,M,M,KDBQ 011640Z AUTO 32003KT 10SM CLR A3023 RMK MADISHF
DBQ,2017-04-01 16:45,-90.7091,42.3984,M,M,M,0.00,0.00,M,30.22,M,10.00,M,CLR,M,M,M,M,M,M,M,M,KDBQ 011645Z AUTO 00000KT 10SM CLR A3022 RMK MADISHF
DBQ,2017-04-01 16:50,-90.7091,42.3984,M,M,M,320.00,3.00,M,30.22,M,10.00,M,CLR,M,M,M,M,M,M,M,M,KDBQ 011650Z AUTO 32003KT 10SM CLR A3022 RMK MADISHF
DBQ,2017-04-01 16:53,-90.7091,42.3984,53.10,36.00,52.11,310.00,4.00,0.00,30.22,1024.20,10.00,M,CLR,M,M,M,M,M,M,M,M,KDBQ 011653Z 31004KT 10SM CLR 12/02 A3022 RMK AO2 SLP242 T01170022
DBQ,2017-04-01 16:55,-90.7091,42.3984,M,M,M,0.00,0.00,M,30.22,M,10.00,M,CLR,M,M,M,M,M,M,M,M,KDBQ 011655Z AUTO 00000KT 10SM CLR A3022 RMK MADISHF
DBQ,2017-04-01 17:00,-90.7091,42.3984,M,M,M,0.00,0.00,M,30.22,M,10.00,M,CLR,M,M,M,M,M,M,M,M,KDBQ 011700Z AUTO 00000KT 10SM CLR A3022 RMK MADISHF
DBQ,2017-04-01 17:05,-90.7091,42.3984,M,M,M,330.00,3.00,M,30.22,M,10.00,M,CLR,M,M,M,M,M,M,M,M,KDBQ 011705Z AUTO 33003KT 10SM CLR A3022 RMK VRB03KT  MADISHF
DBQ,2017-04-01 17:10,-90.7091,42.3984,M,M,M,0.00,0.00,M,30.22,M,10.00,M,CLR,M,M,M,M,M,M,M,M,KDBQ 011710Z AUTO 00000KT 10SM CLR A3022 RMK MADISHF
DBQ,2017-04-01 17:15,-90.7091,42.3984,M,M,M,0.00,0.00,M,30.22,M,10.00,M,CLR,M,M,M,M,M,M,M,M,KDBQ 011715Z AUTO 00000KT 10SM CLR A3022 RMK MADISHF
DBQ,2017-04-01 17:20,-90.7091,42.3984,M,M,M,0.00,0.00,M,30.22,M,10.00,M,CLR,M,M,M,M,M,M,M,M,KDBQ 011720Z AUTO 00000KT 10SM CLR A3022 RMK MADISHF
DBQ,2017-04-01 17:25,-90.7091,42.3984,M,M,M,360.00,3.00,M,30.22,M,10.00,M,CLR,M,M,M,M,M,M,M,M,KDBQ 011725Z AUTO 36003KT 10SM CLR A3022 RMK MADISHF
DBQ,2017-04-01 17:30,-90.7091,42.3984,M,M,M,40.00,5.00,M,30.22,M,10.00,M,CLR,M,M,M,M,M,M,M,M,KDBQ 011730Z AUTO 04005KT 10SM CLR A3022 RMK MADISHF
DBQ,2017-04-01 17:35,-90.7091,42.3984,M,M,M,30.00,3.00,M,30.22,M,10.00,M,CLR,M,M,M,M,M,M,M,M,KDBQ 011735Z AUTO 03003KT 10SM CLR A3022 RMK MADISHF
DBQ,2017-04-01 17:40,-90.7091,42.3984,M,M,M,80.00,3.00,M,30.22,M,10.00,M,CLR,M,M,M,M,M,M,M,M,KDBQ 011740Z AUTO 08003KT 10SM CLR A3022 RMK VRB03KT  MADISHF
DBQ,2017-04-01 17:45,-90.7091,42.3984,M,M,M,0.00,0.00,M,30.22,M,10.00,M,CLR,M,M,M,M,M,M,M,M,KDBQ 011745Z AUTO 00000KT 10SM CLR A3022 RMK MADISHF
DBQ,2017-04-01 17:50,-90.7091,42.3984,M,M,M,40.00,4.00,M,30.21,M,10.00,M,CLR,M,M,M,M,M,M,M,M,KDBQ 011750Z AUTO 04004KT 10SM CLR A3021 RMK MADISHF
DBQ,2017-04-01 17:53,-90.7091,42.3984,55.90,37.00,48.95,20.00,4.00,0.00,30.21,1023.80,10.00,M,CLR,M,M,M,M,M,M,M,M,KDBQ 011753Z 02004KT 10SM CLR 13/03 A3021 RMK AO2 SLP238 T01330028 10133 21011 58002
DBQ,2017-04-01 17:55,-90.7091,42.3984,M,M,M,20.00,4.00,M,30.21,M,10.00,M,CLR,M,M,M,M,M,M,M,M,KDBQ 011755Z AUTO 02004KT 10SM CLR A3021 RMK MADISHF
DBQ,2017-04-01 18:00,-90.7091,42.3984,M,M,M,0.00,0.00,M,30.21,M,10.00,M,CLR,M,M,M,M,M,M,M,M,KDBQ 011800Z AUTO 00000KT 10SM CLR A3021 RMK MADISHF
DBQ,2017-04-01 18:05,-90.7091,42.3984,M,M,M,340.00,4.00,M,30.21,M,10.00,M,CLR,M,M,M,M,M,M,M,M,KDBQ 011805Z AUTO 34004KT 10SM CLR A3021 RMK MADISHF
DBQ,2017-04-01 18:10,-90.7091,42.3984,M,M,M,300.00,3.00,M,30.21,M,10.00,M,CLR,M,M,M,M,M,M,M,M,KDBQ 011810Z AUTO 30003KT 10SM CLR A3021 RMK MADISHF
DBQ,2017-04-01 18:15,-90.7091,42.3984,M,M,M,50.00,3.00,M,30.21,M,10.00,M,CLR,M,M,M,M,M,M,M,M,KDBQ 011815Z AUTO 05003KT 10SM CLR A3021 RMK MADISHF
DBQ,2017-04-01 18:20,-90.7091,42.3984,M,M,M,350.00,6.00,M,30.21,M,10.00,M,CLR,M,M,M,M,M,M,M,M,KDBQ 011820Z AUTO 35006KT 10SM CLR A3021 RMK MADISHF
DBQ,2017-04-01 18:25,-90.7091,42.3984,M,M,M,350.00,6.00,M,30.21,M,10.00,M,CLR,M,M,M,M,M,M,M,M,KDBQ 011825Z AUTO 35006KT 10SM CLR A3021 RMK MADISHF
DBQ,2017-04-01 18:30,-90.7091,42.3984,M,M,M,360.00,5.00,M,30.21,M,10.00,M,CLR,M,M,M,M,M,M,M,M,KDBQ 011830Z AUTO 36005KT 10SM CLR A3021 RMK MADISHF
DBQ,2017-04-01 18:35,-90.7091,42.3984,M,M,M,340.00,5.00,M,30.21,M,10.00,M,CLR,M,M,M,M,M,M,M,M,KDBQ 011835Z AUTO 34005KT 10SM CLR A3021 RMK MADISHF
DBQ,2017-04-01 18:40,-90.7091,42.3984,M,M,M,340.00,4.00,M,30.21,M,10.00,M,CLR,M,M,M,M,M,M,M,M,KDBQ 011840Z AUTO 34004KT 10SM CLR A3021 RMK MADISHF
DBQ,2017-04-01 18:45,-90.7091,42.3984,M,M,M,360.00,3.00,M,30.20,M,10.00,M,CLR,M,M,M,M,M,M,M,M,KDBQ 011845Z AUTO 36003KT 10SM CLR A3020 RMK MADISHF
DBQ,2017-04-01 18:50,-90.7091,42.3984,M,M,M,0.00,0.00,M,30.20,M,10.00,M,CLR,M,M,M,M,M,M,M,M,KDBQ 011850Z AUTO 00000KT 10SM CLR A3020 RMK MADISHF
DBQ,2017-04-01 18:53,-90.7091,42.3984,55.00,28.00,35.21,0.00,0.00,0.00,30.20,1023.30,10.00,M,CLR,M,M,M,M,M,M,M,M,KDBQ 011853Z 00000KT 10SM CLR 13/M02 A3020 RMK AO2 SLP233 T01281022
DBQ,2017-04-01 18:55,-90.7091,42.3984,M,M,M,0.00,0.00,M,30.20,M,10.00,M,CLR,M,M,M,M,M,M,M,M,KDBQ 011855Z AUTO 00000KT 10SM CLR A3020 RMK MADISHF
DBQ,2017-04-01 19:00,-90.7091,42.3984,M,M,M,90.00,3.00,M,30.20,M,10.00,M,CLR,M,M,M,M,M,M,M,M,KDBQ 011900Z AUTO 09003KT 10SM CLR A3020 RMK MADISHF
DBQ,2017-04-01 19:05,-90.7091,42.3984,M,M,M,0.00,0.00,M,30.20,M,10.00,M,CLR,M,M,M,M,M,M,M,M,KDBQ 011905Z AUTO 00000KT 10SM CLR A3020 RMK MADISHF
DBQ,2017-04-01 19:10,-90.7091,42.3984,M,M,M,50.00,5.00,M,30.20,M,10.00,M,CLR,M,M,M,M,M,M,M,M,KDBQ 011910Z AUTO 05005KT 10SM CLR A3020 RMK VRB05KT  MADISHF
DBQ,2017-04-01 19:15,-90.7091,42.3984,M,M,M,0.00,0.00,M,30.19,M,10.00,M,CLR,M,M,M,M,M,M,M,M,KDBQ 011915Z AUTO 00000KT 10SM CLR A3019 RMK MADISHF
DBQ,2017-04-01 19:20,-90.7091,42.3984,M,M,M,70.00,3.00,M,30.19,M,10.00,M,CLR,M,M,M,M,M,M,M,M,KDBQ 011920Z AUTO 07003KT 10SM CLR A3019 RMK MADISHF
DBQ,2017-04-01 19:25,-90.7091,42.3984,M,M,M,0.00,0.00,M,30.19,M,10.00,M,CLR,M,M,M,M,M,M,M,M,KDBQ 011925Z AUTO 00000KT 10SM CLR A3019 RMK MADISHF
DBQ,2017-04-01 19:30,-90.7091,42.3984,M,M,M,30.00,3.00,M,30.19,M,10.00,M,CLR,M,M,M,M,M,M,M,M,KDBQ 011930Z AUTO 03003KT 10SM CLR A3019 RMK MADISHF
DBQ,2017-04-01 19:35,-90.7091,42.3984,M,M,M,0.00,0.00,M,30.19,M,10.00,M,CLR,M,M,M,M,M,M,M,M,KDBQ 011935Z AUTO 00000KT 10SM CLR A3019 RMK MADISHF
DBQ,2017-04-01 19:40,-90.7091,42.3984,M,M,M,10.00,3.00,M,30.19,M,10.00,M,CLR,M,M,M,M,M,M,M,M,KDBQ 011940Z AUTO 01003KT 10SM CLR A3019 RMK VRB03KT  MADISHF
DBQ,2017-04-01 19:45,-90.7091,42.3984,M,M,M,0.00,0.00,M,30.19,M,10.00,M,CLR,M,M,M,M,M,M,M,M,KDBQ 011945Z AUTO 00000KT 10SM CLR A3019 RMK MADISHF
DBQ,2017-04-01 19:50,-90.7091,42.3984,M,M,M,0.00,0.00,M,30.19,M,10.00,M,CLR,M,M,M,M,M,M,M,M,KDBQ 011950Z AUTO 00000KT 10SM CLR A3019 RMK MADISHF
DBQ,2017-04-01 19:53,-90.7091,42.3984,57.00,30.90,36.86,M,4.00,0.00,30.19,1022.80,10.00,M,CLR,M,M,M,M,M,M,M,M,KDBQ 011953Z VRB04KT 10SM CLR 14/M01 A3019 RMK AO2 SLP228 T01391006
DBQ,2017-04-01 19:55,-90.7091,42.3984,M,M,M,0.00,0.00,M,30.19,M,10.00,M,CLR,M,M,M,M,M,M,M,M,KDBQ 011955Z AUTO 00000KT 10SM CLR A3019 RMK MADISHF
DBQ,2017-04-01 20:00,-90.7091,42.3984,M,M,M,0.00,0.00,M,30.18,M,10.00,M,CLR,M,M,M,M,M,M,M,M,KDBQ 012000Z AUTO 00000KT 10SM CLR A3018 RMK MADISHF
DBQ,2017-04-01 20:05,-90.7091,42.3984,M,M,M,320.00,4.00,M,30.18,M,10.00,M,CLR,M,M,M,M,M,M,M,M,KDBQ 012005Z AUTO 32004KT 10SM CLR A3018 RMK MADISHF
DBQ,2017-04-01 20:10,-90.7091,42.3984,M,M,M,0.00,0.00,M,30.18,M,10.00,M,CLR,M,M,M,M,M,M,M,M,KDBQ 012010Z AUTO 00000KT 10SM CLR A3018 RMK MADISHF
DBQ,2017-04-01 20:15,-90.7091,42.3984,M,M,M,170.00,3.00,M,30.18,M,10.00,M,CLR,M,M,M,M,M,M,M,M,KDBQ 012015Z AUTO 17003KT 10SM CLR A3018 RMK MADISHF
DBQ,2017-04-01 20:20,-90.7091,42.3984,M,M,M,150.00,3.00,M,30.18,M,10.00,M,CLR,M,M,M,M,M,M,M,M,KDBQ 012020Z AUTO 15003KT 10SM CLR A3018 RMK VRB03KT  MADISHF
DBQ,2017-04-01 20:25,-90.7091,42.3984,M,M,M,0.00,0.00,M,30.18,M,10.00,M,CLR,M,M,M,M,M,M,M,M,KDBQ 012025Z AUTO 00000KT 10SM CLR A3018 RMK MADISHF
DBQ,2017-04-01 20:30,-90.7091,42.3984,M,M,M,0.00,0.00,M,30.18,M,10.00,M,CLR,M,M,M,M,M,M,M,M,KDBQ 012030Z AUTO 00000KT 10SM CLR A3018 RMK MADISHF
DBQ,2017-04-01 20:35,-90.7091,42.3984,M,M,M,210.00,3.00,M,30.18,M,10.00,M,CLR,M,M,M,M,M,M,M,M,KDBQ 012035Z AUTO 21003KT 10SM CLR A3018 RMK VRB03KT  MADISHF
DBQ,2017-04-01 20:40,-90.7091,42.3984,M,M,M,190.00,4.00,M,30.17,M,10.00,M,CLR,M,M,M,M,M,M,M,M,KDBQ 012040Z AUTO 19004KT 10SM CLR A3017 RMK MADISHF
DBQ,2017-04-01 20:45,-90.7091,42.3984,M,M,M,200.00,4.00,M,30.18,M,10.00,M,CLR,M,M,M,M,M,M,M,M,KDBQ 012045Z AUTO 20004KT 10SM CLR A3018 RMK MADISHF
DBQ,2017-04-01 20:50,-90.7091,42.3984,M,M,M,180.00,3.00,M,30.18,M,10.00,M,CLR,M,M,M,M,M,M,M,M,KDBQ 012050Z AUTO 18003KT 10SM CLR A3018 RMK MADISHF
DBQ,2017-04-01 20:53,-90.7091,42.3984,55.90,27.00,32.71,0.00,0.00,0.00,30.18,1022.50,10.00,M,CLR,M,M,M,M,M,M,M,M,KDBQ 012053Z 00000KT 10SM CLR 13/M03 A3018 RMK AO2 SLP225 T01331028 56012
DBQ,2017-04-01 20:55,-90.7091,42.3984,M,M,M,0.00,0.00,M,30.18,M,10.00,M,CLR,M,M,M,M,M,M,M,M,KDBQ 012055Z AUTO 00000KT 10SM CLR A3018 RMK MADISHF
DBQ,2017-04-01 21:00,-90.7091,42.3984,M,M,M,180.00,4.00,M,30.18,M,10.00,M,CLR,M,M,M,M,M,M,M,M,KDBQ 012100Z AUTO 18004KT 10SM CLR A3018 RMK MADISHF
DBQ,2017-04-01 21:05,-90.7091,42.3984,M,M,M,0.00,0.00,M,30.17,M,10.00,M,CLR,M,M,M,M,M,M,M,M,KDBQ 012105Z AUTO 00000KT 10SM CLR A3017 RMK MADISHF
DBQ,2017-04-01 21:10,-90.7091,42.3984,M,M,M,220.00,6.00,M,30.17,M,10.00,M,CLR,M,M,M,M,M,M,M,M,KDBQ 012110Z AUTO 22006KT 10SM CLR A3017 RMK MADISHF
DBQ,2017-04-01 21:15,-90.7091,42.3984,M,M,M,250.00,5.00,M,30.17,M,10.00,M,CLR,M,M,M,M,M,M,M,M,KDBQ 012115Z AUTO 25005KT 10SM CLR A3017 RMK MADISHF
DBQ,2017-04-01 21:20,-90.7091,42.3984,M,M,M,220.00,5.00,M,30.17,M,10.00,M,CLR,M,M,M,M,M,M,M,M,KDBQ 012120Z AUTO 22005KT 10SM CLR A3017 RMK MADISHF
DBQ,2017-04-01 21:25,-90.7091,42.3984,M,M,M,230.00,7.00,M,30.17,M,10.00,M,CLR,M,M,M,M,M,M,M,M,KDBQ 012125Z AUTO 23007KT 10SM CLR A3017 RMK MADISHF
DBQ,2017-04-01 21:30,-90.7091,42.3984,M,M,M,230.00,6.00,M,30.17,M,10.00,M,CLR,M,M,M,M,M,M,M,M,KDBQ 012130Z AUTO 23006KT 10SM CLR A3017 RMK MADISHF
DBQ,2017-04-01 21:35,-90.7091,42.3984,M,M,M,230.00,5.00,M,30.17,M,10.00,M,CLR,M,M,M,M,M,M,M,M,KDBQ 012135Z AUTO 23005KT 10SM CLR A3017 RMK MADISHF
DBQ,2017-04-01 21:40,-90.7091,42.3984,M,M,M,240.00,5.00,M,30.17,M,10.00,M,CLR,M,M,M,M,M,M,M,M,KDBQ 012140Z AUTO 24005KT 10SM CLR A3017 RMK MADISHF
DBQ,2017-04-01 21:45,-90.7091,42.3984,M,M,M,220.00,6.00,M,30.17,M,10.00,M,CLR,M,M,M,M,M,M,M,M,KDBQ 012145Z AUTO 22006KT 10SM CLR A3017 RMK MADISHF
DBQ,2017-04-01 21:50,-90.7091,42.3984,M,M,M,230.00,7.00,M,30.17,M,10.00,M,CLR,M,M,M,M,M,M,M,M,KDBQ 012150Z AUTO 23007KT 10SM CLR A3017 RMK MADISHF
DBQ,2017-04-01 21:53,-90.7091,42.3984,55.00,33.10,43.31,240.00,7.00,0.00,30.17,1022.30,10.00,M,CLR,M,M,M,M,M,M,M,M,KDBQ 012153Z 24007KT 10SM CLR 13/01 A3017 RMK AO2 SLP223 T01280006
DBQ,2017-04-01 21:55,-90.7091,42.3984,M,M,M,220.00,7.00,M,30.17,M,10.00,M,CLR,M,M,M,M,M,M,M,M,KDBQ 012155Z AUTO 22007KT 10SM CLR A3017 RMK MADISHF
DBQ,2017-04-01 22:00,-90.7091,42.3984,M,M,M,240.00,6.00,M,30.17,M,10.00,M,CLR,M,M,M,M,M,M,M,M,KDBQ 012200Z AUTO 24006KT 10SM CLR A3017 RMK MADISHF
DBQ,2017-04-01 22:05,-90.7091,42.3984,M,M,M,240.00,5.00,M,30.17,M,10.00,M,CLR,M,M,M,M,M,M,M,M,KDBQ 012205Z AUTO 24005KT 10SM CLR A3017 RMK MADISHF
DBQ,2017-04-01 22:10,-90.7091,42.3984,M,M,M,230.00,6.00,M,30.18,M,10.00,M,CLR,M,M,M,M,M,M,M,M,KDBQ 012210Z AUTO 23006KT 10SM CLR A3018 RMK MADISHF
DBQ,2017-04-01 22:15,-90.7091,42.3984,M,M,M,240.00,6.00,M,30.18,M,10.00,M,CLR,M,M,M,M,M,M,M,M,KDBQ 012215Z AUTO 24006KT 10SM CLR A3018 RMK MADISHF
DBQ,2017-04-01 22:20,-90.7091,42.3984,M,M,M,240.00,5.00,M,30.18,M,10.00,M,CLR,M,M,M,M,M,M,M,M,KDBQ 012220Z AUTO 24005KT 10SM CLR A3018 RMK MADISHF
DBQ,2017-04-01 22:25,-90.7091,42.3984,M,M,M,240.00,5.00,M,30.18,M,10.00,M,CLR,M,M,M,M,M,M,M,M,KDBQ 012225Z AUTO 24005KT 10SM CLR A3018 RMK MADISHF
DBQ,2017-04-01 22:30,-90.7091,42.3984,M,M,M,230.00,4.00,M,30.18,M,10.00,M,CLR,M,M,M,M,M,M,M,M,KDBQ 012230Z AUTO 23004KT 10SM CLR A3018 RMK MADISHF
DBQ,2017-04-01 22:35,-90.7091,42.3984,M,M,M,230.00,3.00,M,30.17,M,10.00,M,CLR,M,M,M,M,M,M,M,M,KDBQ 012235Z AUTO 23003KT 10SM CLR A3017 RMK MADISHF
DBQ,2017-04-01 22:40,-90.7091,42.3984,M,M,M,230.00,4.00,M,30.18,M,10.00,M,CLR,M,M,M,M,M,M,M,M,KDBQ 012240Z AUTO 23004KT 10SM CLR A3018 RMK MADISHF
DBQ,2017-04-01 22:45,-90.7091,42.3984,M,M,M,230.00,3.00,M,30.17,M,10.00,M,CLR,M,M,M,M,M,M,M,M,KDBQ 012245Z AUTO 23003KT 10SM CLR A3017 RMK MADISHF
DBQ,2017-04-01 22:50,-90.7091,42.3984,M,M,M,0.00,0.00,M,30.17,M,10.00,M,CLR,M,M,M,M,M,M,M,M,KDBQ 012250Z AUTO 00000KT 10SM CLR A3017 RMK MADISHF
DBQ,2017-04-01 22:53,-90.7091,42.3984,53.10,35.10,50.28,0.00,0.00,0.00,30.17,1022.40,10.00,M,CLR,M,M,M,M,M,M,M,M,KDBQ 012253Z 00000KT 10SM CLR 12/02 A3017 RMK AO2 SLP224 T01170017
DBQ,2017-04-01 22:55,-90.7091,42.3984,M,M,M,0.00,0.00,M,30.17,M,10.00,M,CLR,M,M,M,M,M,M,M,M,KDBQ 012255Z AUTO 00000KT 10SM CLR A3017 RMK MADISHF
DBQ,2017-04-01 23:00,-90.7091,42.3984,M,M,M,0.00,0.00,M,30.17,M,10.00,M,CLR,M,M,M,M,M,M,M,M,KDBQ 012300Z AUTO 00000KT 10SM CLR A3017 RMK MADISHF
DBQ,2017-04-01 23:05,-90.7091,42.3984,M,M,M,0.00,0.00,M,30.17,M,10.00,M,CLR,M,M,M,M,M,M,M,M,KDBQ 012305Z AUTO 00000KT 10SM CLR A3017 RMK MADISHF
DBQ,2017-04-01 23:10,-90.7091,42.3984,M,M,M,220.00,3.00,M,30.17,M,10.00,M,CLR,M,M,M,M,M,M,M,M,KDBQ 012310Z AUTO 22003KT 10SM CLR A3017 RMK MADISHF
DBQ,2017-04-01 23:15,-90.7091,42.3984,M,M,M,0.00,0.00,M,30.17,M,10.00,M,CLR,M,M,M,M,M,M,M,M,KDBQ 012315Z AUTO 00000KT 10SM CLR A3017 RMK MADISHF
DBQ,2017-04-01 23:20,-90.7091,42.3984,M,M,M,230.00,3.00,M,30.18,M,10.00,M,CLR,M,M,M,M,M,M,M,M,KDBQ 012320Z AUTO 23003KT 10SM CLR A3018 RMK MADISHF
DBQ,2017-04-01 23:25,-90.7091,42.3984,M,M,M,250.00,3.00,M,30.18,M,10.00,M,CLR,M,M,M,M,M,M,M,M,KDBQ 012325Z AUTO 25003KT 10SM CLR A3018 RMK MADISHF
DBQ,2017-04-01 23:30,-90.7091,42.3984,M,M,M,0.00,0.00,M,30.18,M,10.00,M,CLR,M,M,M,M,M,M,M,M,KDBQ 012330Z AUTO 00000KT 10SM CLR A3018 RMK MADISHF
DBQ,2017-04-01 23:35,-90.7091,42.3984,M,M,M,0.00,0.00,M,30.18,M,10.00,M,CLR,M,M,M,M,M,M,M,M,KDBQ 012335Z AUTO 00000KT 10SM CLR A3018 RMK MADISHF
DBQ,2017-04-01 23:40,-90.7091,42.3984,M,M,M,0.00,0.00,M,30.18,M,10.00,M,CLR,M,M,M,M,M,M,M,M,KDBQ 012340Z AUTO 00000KT 10SM CLR A3018 RMK MADISHF
DBQ,2017-04-01 23:45,-90.7091,42.3984,M,M,M,0.00,0.00,M,30.18,M,10.00,M,CLR,M,M,M,M,M,M,M,M,KDBQ 012345Z AUTO 00000KT 10SM CLR A3018 RMK MADISHF
DBQ,2017-04-01 23:50,-90.7091,42.3984,M,M,M,0.00,0.00,M,30.18,M,10.00,M,CLR,M,M,M,M,M,M,M,M,KDBQ 012350Z AUTO 00000KT 10SM CLR A3018 RMK MADISHF
DBQ,2017-04-01 23:53,-90.7091,42.3984,53.10,36.00,52.11,0.00,0.00,0.00,30.18,1022.70,10.00,M,CLR,M,M,M,M,M,M,M,M,KDBQ 012353Z 00000KT 10SM CLR 12/02 A3018 RMK AO2 SLP227 T01170022 10144 20117 53001
DBQ,2017-04-01 23:55,-90.7091,42.3984,M,M,M,0.00,0.00,M,30.18,M,10.00,M,CLR,M,M,M,M,M,M,M,M,KDBQ 012355Z AUTO 00000KT 10SM CLR A3018 RMK MADISHF
