#DEBUG: Format Typ    -> comma
#DEBUG: Time Period   -> 2017-04-01 00:00:00+00:00 2017-04-02 00:00:00+00:00
#DEBUG: Time Zone     -> Etc/UTC
#DEBUG: Data Contact   -> daryl herzmann akrherz@iastate.edu 515-294-5978
#DEBUG: Entries Found -> -1
station,valid,lon,lat,tmpf, dwpf, relh, drct, sknt, p01i, alti, mslp, vsby, gust, skyc1, skyc2, skyc3, skyc4, skyl1, skyl2, skyl3, skyl4, presentwx, metar
DCU,2017-04-01 00:00,-86.9453,34.6525,M,M,M,320.00,4.00,M,29.90,M,10.00,M,CLR,M,M,M,M,M,M,M,M,KDCU 010000Z AUTO 32004KT 10SM CLR A2990 RMK MADISHF
DCU,2017-04-01 00:05,-86.9453,34.6525,M,M,M,320.00,4.00,M,29.90,M,10.00,M,CLR,M,M,M,M,M,M,M,M,KDCU 010005Z AUTO 32004KT 10SM CLR A2990 RMK MADISHF
DCU,2017-04-01 00:10,-86.9453,34.6525,M,M,M,310.00,4.00,M,29.90,M,10.00,M,CLR,M,M,M,M,M,M,M,M,KDCU 010010Z AUTO 31004KT 10SM CLR A2990 RMK MADISHF
DCU,2017-04-01 00:15,-86.9453,34.6525,M,M,M,310.00,4.00,M,29.90,M,10.00,M,CLR,M,M,M,M,M,M,M,M,KDCU 010015Z AUTO 31004KT 10SM CLR A2990 RMK MADISHF
DCU,2017-04-01 00:20,-86.9453,34.6525,M,M,M,310.00,5.00,M,29.90,M,10.00,M,CLR,M,M,M,M,M,M,M,M,KDCU 010020Z AUTO 31005KT 10SM CLR A2990 RMK MADISHF
DCU,2017-04-01 00:25,-86.9453,34.6525,M,M,M,310.00,4.00,M,29.90,M,10.00,M,CLR,M,M,M,M,M,M,M,M,KDCU 010025Z AUTO 31004KT 10SM CLR A2990 RMK MADISHF
DCU,2017-04-01 00:30,-86.9453,34.6525,M,M,M,300.00,4.00,M,29.91,M,10.00,M,CLR,M,M,M,M,M,M,M,M,KDCU 010030Z AUTO 30004KT 10SM CLR A2991 RMK MADISHF
DCU,2017-04-01 00:35,-86.9453,34.6525,M,M,M,290.00,4.00,M,29.91,M,10.00,M,CLR,M,M,M,M,M,M,M,M,KDCU 010035Z AUTO 29004KT 10SM CLR A2991 RMK MADISHF
DCU,2017-04-01 00:40,-86.9453,34.6525,M,M,M,300.00,4.00,M,29.91,M,10.00,M,CLR,M,M,M,M,M,M,M,M,KDCU 010040Z AUTO 30004KT 10SM CLR A2991 RMK MADISHF
DCU,2017-04-01 00:45,-86.9453,34.6525,M,M,M,310.00,3.00,M,29.91,M,10.00,M,CLR,M,M,M,M,M,M,M,M,KDCU 010045Z AUTO 31003KT 10SM CLR A2991 RMK MADISHF
DCU,2017-04-01 00:50,-86.9453,34.6525,M,M,M,310.00,3.00,M,29.91,M,10.00,M,CLR,M,M,M,M,M,M,M,M,KDCU 010050Z AUTO 31003KT 10SM CLR A2991 RMK MADISHF
DCU,2017-04-01 00:53,-86.9453,34.6525,62.10,48.90,61.91,310.00,4.00,0.00,29.91,1012.60,10.00,M,CLR,M,M,M,M,M,M,M,M,KDCU 010053Z AUTO 31004KT 10SM CLR 17/09 A2991 RMK AO2 SLP126 T01670094
DCU,2017-04-01 00:55,-86.9453,34.6525,M,M,M,310.00,3.00,M,29.91,M,10.00,M,CLR,M,M,M,M,M,M,M,M,KDCU 010055Z AUTO 31003KT 10SM CLR A2991 RMK MADISHF
DCU,2017-04-01 01:00,-86.9453,34.6525,M,M,M,300.00,3.00,M,29.91,M,10.00,M,CLR,M,M,M,M,M,M,M,M,KDCU 010100Z AUTO 30003KT 10SM CLR A2991 RMK MADISHF
DCU,2017-04-01 01:05,-86.9453,34.6525,M,M,M,310.00,3.00,M,29.92,M,10.00,M,CLR,M,M,M,M,M,M,M,M,KDCU 010105Z AUTO 31003KT 10SM CLR A2992 RMK MADISHF
DCU,2017-04-01 01:10,-86.9453,34.6525,M,M,M,320.00,3.00,M,29.92,M,10.00,M,CLR,M,M,M,M,M,M,M,M,KDCU 010110Z AUTO 32003KT 10SM CLR A2992 RMK MADISHF
DCU,2017-04-01 01:15,-86.9453,34.6525,M,M,M,320.00,3.00,M,29.92,M,10.00,M,CLR,M,M,M,M,M,M,M,M,KDCU 010115Z AUTO 32003KT 10SM CLR A2992 RMK MADISHF
DCU,2017-04-01 01:20,-86.9453,34.6525,M,M,M,320.00,3.00,M,29.92,M,10.00,M,CLR,M,M,M,M,M,M,M,M,KDCU 010120Z AUTO 32003KT 10SM CLR A2992 RMK MADISHF
DCU,2017-04-01 01:25,-86.9453,34.6525,M,M,M,330.00,3.00,M,29.92,M,10.00,M,CLR,M,M,M,M,M,M,M,M,KDCU 010125Z AUTO 33003KT 10SM CLR A2992 RMK MADISHF
DCU,2017-04-01 01:30,-86.9453,34.6525,M,M,M,330.00,3.00,M,29.92,M,10.00,M,CLR,M,M,M,M,M,M,M,M,KDCU 010130Z AUTO 33003KT 10SM CLR A2992 RMK MADISHF
DCU,2017-04-01 01:35,-86.9453,34.6525,M,M,M,320.00,3.00,M,29.92,M,10.00,M,CLR,M,M,M,M,M,M,M,M,KDCU 010135Z AUTO 32003KT 10SM CLR A2992 RMK MADISHF
DCU,2017-04-01 01:40,-86.9453,34.6525,M,M,M,330.00,3.00,M,29.93,M,10.00,M,CLR,M,M,M,M,M,M,M,M,KDCU 010140Z AUTO 33003KT 10SM CLR A2993 RMK MADISHF
DCU,2017-04-01 01:45,-86.9453,34.6525,M,M,M,330.00,3.00,M,29.93,M,10.00,M,CLR,M,M,M,M,M,M,M,M,KDCU 010145Z AUTO 33003KT 10SM CLR A2993 RMK MADISHF
DCU,2017-04-01 01:50,-86.9453,34.6525,M,M,M,340.00,3.00,M,29.93,M,10.00,M,CLR,M,M,M,M,M,M,M,M,KDCU 010150Z AUTO 34003KT 10SM CLR A2993 RMK MADISHF
DCU,2017-04-01 01:53,-86.9453,34.6525,57.00,50.00,77.38,350.00,3.00,0.00,29.93,1013.30,10.00,M,CLR,M,M,M,M,M,M,M,M,KDCU 010153Z AUTO 35003KT 10SM CLR 14/10 A2993 RMK AO2 SLP133 T01390100
DCU,2017-04-01 01:55,-86.9453,34.6525,M,M,M,350.00,3.00,M,29.93,M,10.00,M,CLR,M,M,M,M,M,M,M,M,KDCU 010155Z AUTO 35003KT 10SM CLR A2993 RMK MADISHF
DCU,2017-04-01 02:00,-86.9453,34.6525,M,M,M,350.00,3.00,M,29.93,M,10.00,M,CLR,M,M,M,M,M,M,M,M,KDCU 010200Z AUTO 35003KT 10SM CLR A2993 RMK MADISHF
DCU,2017-04-01 02:05,-86.9453,34.6525,M,M,M,350.00,3.00,M,29.93,M,10.00,M,CLR,M,M,M,M,M,M,M,M,KDCU 010205Z AUTO 35003KT 10SM CLR A2993 RMK MADISHF
DCU,2017-04-01 02:10,-86.9453,34.6525,M,M,M,360.00,4.00,M,29.94,M,10.00,M,CLR,M,M,M,M,M,M,M,M,KDCU 010210Z AUTO 36004KT 10SM CLR A2994 RMK MADISHF
DCU,2017-04-01 02:15,-86.9453,34.6525,M,M,M,360.00,5.00,M,29.94,M,10.00,M,CLR,M,M,M,M,M,M,M,M,KDCU 010215Z AUTO 36005KT 10SM CLR A2994 RMK MADISHF
DCU,2017-04-01 02:20,-86.9453,34.6525,M,M,M,360.00,5.00,M,29.94,M,10.00,M,CLR,M,M,M,M,M,M,M,M,KDCU 010220Z AUTO 36005KT 10SM CLR A2994 RMK MADISHF
DCU,2017-04-01 02:25,-86.9453,34.6525,M,M,M,350.00,5.00,M,29.94,M,10.00,M,CLR,M,M,M,M,M,M,M,M,KDCU 010225Z AUTO 35005KT 10SM CLR A2994 RMK MADISHF
DCU,2017-04-01 02:30,-86.9453,34.6525,M,M,M,360.00,5.00,M,29.94,M,10.00,M,CLR,M,M,M,M,M,M,M,M,KDCU 010230Z AUTO 36005KT 10SM CLR A2994 RMK MADISHF
DCU,2017-04-01 02:35,-86.9453,34.6525,M,M,M,360.00,5.00,M,29.95,M,10.00,M,CLR,M,M,M,M,M,M,M,M,KDCU 010235Z AUTO 36005KT 10SM CLR A2995 RMK MADISHF
DCU,2017-04-01 02:40,-86.9453,34.6525,M,M,M,10.00,6.00,M,29.95,M,10.00,M,CLR,M,M,M,M,M,M,M,M,KDCU 010240Z AUTO 01006KT 10SM CLR A2995 RMK MADISHF
DCU,2017-04-01 02:45,-86.9453,34.6525,M,M,M,10.00,6.00,M,29.95,M,10.00,M,CLR,M,M,M,M,M,M,M,M,KDCU 010245Z AUTO 01006KT 10SM CLR A2995 RMK MADISHF
DCU,2017-04-01 02:50,-86.9453,34.6525,M,M,M,10.00,6.00,M,29.95,M,10.00,M,CLR,M,M,M,M,M,M,M,M,KDCU 010250Z AUTO 01006KT 10SM CLR A2995 RMK MADISHF
DCU,2017-04-01 02:53,-86.9453,34.6525,55.90,51.10,83.88,10.00,6.00,0.00,29.95,1014.00,10.00,M,CLR,M,M,M,M,M,M,M,M,KDCU 010253Z AUTO 01006KT 10SM CLR 13/11 A2995 RMK AO2 SLP140 T01330106 53018
DCU,2017-04-01 02:55,-86.9453,34.6525,M,M,M,10.00,6.00,M,29.95,M,10.00,M,CLR,M,M,M,M,M,M,M,M,KDCU 010255Z AUTO 01006KT 10SM CLR A2995 RMK MADISHF
DCU,2017-04-01 03:00,-86.9453,34.6525,M,M,M,10.00,7.00,M,29.95,M,10.00,M,CLR,M,M,M,M,M,M,M,M,KDCU 010300Z AUTO 01007KT 10SM CLR A2995 RMK MADISHF
DCU,2017-04-01 03:05,-86.9453,34.6525,M,M,M,10.00,6.00,M,29.95,M,10.00,M,CLR,M,M,M,M,M,M,M,M,KDCU 010305Z AUTO 01006KT 10SM CLR A2995 RMK MADISHF
DCU,2017-04-01 03:10,-86.9453,34.6525,M,M,M,10.00,7.00,M,29.96,M,10.00,M,CLR,M,M,M,M,M,M,M,M,KDCU 010310Z AUTO 01007KT 10SM CLR A2996 RMK MADISHF
DCU,2017-04-01 03:15,-86.9453,34.6525,M,M,M,10.00,7.00,M,29.96,M,10.00,M,CLR,M,M,M,M,M,M,M,M,KDCU 010315Z AUTO 01007KT 10SM CLR A2996 RMK MADISHF
DCU,2017-04-01 03:20,-86.9453,34.6525,M,M,M,10.00,8.00,M,29.96,M,10.00,M,CLR,M,M,M,M,M,M,M,M,KDCU 010320Z AUTO 01008KT 10SM CLR A2996 RMK MADISHF
DCU,2017-04-01 03:25,-86.9453,34.6525,M,M,M,10.00,7.00,M,29.96,M,10.00,M,CLR,M,M,M,M,M,M,M,M,KDCU 010325Z AUTO 01007KT 10SM CLR A2996 RMK MADISHF
DCU,2017-04-01 03:30,-86.9453,34.6525,M,M,M,20.00,9.00,M,29.96,M,10.00,M,CLR,M,M,M,M,M,M,M,M,KDCU 010330Z AUTO 02009KT 10SM CLR A2996 RMK MADISHF
DCU,2017-04-01 03:35,-86.9453,34.6525,M,M,M,10.00,9.00,M,29.97,M,10.00,M,CLR,M,M,M,M,M,M,M,M,KDCU 010335Z AUTO 01009KT 10SM CLR A2997 RMK MADISHF
DCU,2017-04-01 03:40,-86.9453,34.6525,M,M,M,20.00,9.00,M,29.97,M,10.00,M,CLR,M,M,M,M,M,M,M,M,KDCU 010340Z AUTO 02009KT 10SM CLR A2997 RMK MADISHF
DCU,2017-04-01 03:45,-86.9453,34.6525,M,M,M,20.00,9.00,M,29.97,M,10.00,M,CLR,M,M,M,M,M,M,M,M,KDCU 010345Z AUTO 02009KT 10SM CLR A2997 RMK MADISHF
DCU,2017-04-01 03:50,-86.9453,34.6525,M,M,M,20.00,8.00,M,29.97,M,10.00,M,CLR,M,M,M,M,M,M,M,M,KDCU 010350Z AUTO 02008KT 10SM CLR A2997 RMK MADISHF
DCU,2017-04-01 03:53,-86.9453,34.6525,57.00,48.90,74.27,20.00,9.00,0.00,29.97,1014.50,10.00,M,CLR,M,M,M,M,M,M,M,M,KDCU 010353Z AUTO 02009KT 10SM CLR 14/09 A2997 RMK AO2 SLP145 T01390094
DCU,2017-04-01 03:55,-86.9453,34.6525,M,M,M,20.00,9.00,M,29.97,M,10.00,M,CLR,M,M,M,M,M,M,M,M,KDCU 010355Z AUTO 02009KT 10SM CLR A2997 RMK MADISHF
DCU,2017-04-01 04:00,-86.9453,34.6525,M,M,M,20.00,8.00,M,29.97,M,10.00,M,CLR,M,M,M,M,M,M,M,M,KDCU 010400Z AUTO 02008KT 10SM CLR A2997 RMK MADISHF
DCU,2017-04-01 04:05,-86.9453,34.6525,M,M,M,20.00,9.00,M,29.97,M,10.00,M,CLR,M,M,M,M,M,M,M,M,KDCU 010405Z AUTO 02009KT 10SM CLR A2997 RMK MADISHF
DCU,2017-04-01 04:10,-86.9453,34.6525,M,M,M,20.00,9.00,M,29.97,M,10.00,M,CLR,M,M,M,M,M,M,M,M,KDCU 010410Z AUTO 02009KT 10SM CLR A2997 RMK MADISHF
DCU,2017-04-01 04:15,-86.9453,34.6525,M,M,M,20.00,8.00,M,29.97,M,10.00,M,CLR,M,M,M,M,M,M,M,M,KDCU 010415Z AUTO 02008KT 10SM CLR A2997 RMK MADISHF
DCU,2017-04-01 04:20,-86.9453,34.6525,M,M,M,10.00,7.00,M,29.98,M,10.00,M,CLR,M,M,M,M,M,M,M,M,KDCU 010420Z AUTO 01007KT 10SM CLR A2998 RMK MADISHF
DCU,2017-04-01 04:25,-86.9453,34.6525,M,M,M,10.00,7.00,M,29.98,M,10.00,M,CLR,M,M,M,M,M,M,M,M,KDCU 010425Z AUTO 01007KT 10SM CLR A2998 RMK MADISHF
DCU,2017-04-01 04:30,-86.9453,34.6525,M,M,M,10.00,6.00,M,29.98,M,10.00,M,CLR,M,M,M,M,M,M,M,M,KDCU 010430Z AUTO 01006KT 10SM CLR A2998 RMK MADISHF
DCU,2017-04-01 04:35,-86.9453,34.6525,M,M,M,10.00,7.00,M,29.98,M,10.00,M,CLR,M,M,M,M,M,M,M,M,KDCU 010435Z AUTO 01007KT 10SM CLR A2998 RMK MADISHF
DCU,2017-04-01 04:40,-86.9453,34.6525,M,M,M,10.00,6.00,M,29.99,M,10.00,M,CLR,M,M,M,M,M,M,M,M,KDCU 010440Z AUTO 01006KT 10SM CLR A2999 RMK MADISHF
DCU,2017-04-01 04:45,-86.9453,34.6525,M,M,M,10.00,7.00,M,29.99,M,10.00,M,CLR,M,M,M,M,M,M,M,M,KDCU 010445Z AUTO 01007KT 10SM CLR A2999 RMK MADISHF
DCU,2017-04-01 04:50,-86.9453,34.6525,M,M,M,20.00,7.00,M,29.99,M,10.00,M,CLR,M,M,M,M,M,M,M,M,KDCU 010450Z AUTO 02007KT 10SM CLR A2999 RMK MADISHF
DCU,2017-04-01 04:53,-86.9453,34.6525,55.00,48.90,79.85,10.00,6.00,0.00,29.99,1015.20,10.00,M,CLR,M,M,M,M,M,M,M,M,KDCU 010453Z AUTO 01006KT 10SM CLR 13/09 A2999 RMK AO2 SLP152 T01280094
DCU,2017-04-01 04:55,-86.9453,34.6525,M,M,M,20.00,6.00,M,29.99,M,10.00,M,CLR,M,M,M,M,M,M,M,M,KDCU 010455Z AUTO 02006KT 10SM CLR A2999 RMK MADISHF
DCU,2017-04-01 05:00,-86.9453,34.6525,M,M,M,20.00,6.00,M,29.99,M,10.00,M,CLR,M,M,M,M,M,M,M,M,KDCU 010500Z AUTO 02006KT 10SM CLR A2999 RMK MADISHF
DCU,2017-04-01 05:05,-86.9453,34.6525,M,M,M,10.00,6.00,M,29.99,M,10.00,M,CLR,M,M,M,M,M,M,M,M,KDCU 010505Z AUTO 01006KT 10SM CLR A2999 RMK MADISHF
DCU,2017-04-01 05:10,-86.9453,34.6525,M,M,M,10.00,6.00,M,29.99,M,10.00,M,CLR,M,M,M,M,M,M,M,M,KDCU 010510Z AUTO 01006KT 10SM CLR A2999 RMK MADISHF
DCU,2017-04-01 05:15,-86.9453,34.6525,M,M,M,10.00,5.00,M,29.99,M,10.00,M,CLR,M,M,M,M,M,M,M,M,KDCU 010515Z AUTO 01005KT 10SM CLR A2999 RMK MADISHF
DCU,2017-04-01 05:20,-86.9453,34.6525,M,M,M,10.00,4.00,M,30.00,M,10.00,M,CLR,M,M,M,M,M,M,M,M,KDCU 010520Z AUTO 01004KT 10SM CLR A3000 RMK MADISHF
DCU,2017-04-01 05:25,-86.9453,34.6525,M,M,M,10.00,4.00,M,30.00,M,10.00,M,CLR,M,M,M,M,M,M,M,M,KDCU 010525Z AUTO 01004KT 10SM CLR A3000 RMK MADISHF
DCU,2017-04-01 05:30,-86.9453,34.6525,M,M,M,10.00,4.00,M,30.00,M,10.00,M,CLR,M,M,M,M,M,M,M,M,KDCU 010530Z AUTO 01004KT 10SM CLR A3000 RMK MADISHF
DCU,2017-04-01 05:35,-86.9453,34.6525,M,M,M,360.00,3.00,M,30.00,M,10.00,M,CLR,M,M,M,M,M,M,M,M,KDCU 010535Z AUTO 36003KT 10SM CLR A3000 RMK MADISHF
DCU,2017-04-01 05:40,-86.9453,34.6525,M,M,M,360.00,3.00,M,30.00,M,10.00,M,CLR,M,M,M,M,M,M,M,M,KDCU 010540Z AUTO 36003KT 10SM CLR A3000 RMK MADISHF
DCU,2017-04-01 05:45,-86.9453,34.6525,M,M,M,360.00,3.00,M,30.00,M,10.00,M,CLR,M,M,M,M,M,M,M,M,KDCU 010545Z AUTO 36003KT 10SM CLR A3000 RMK MADISHF
DCU,2017-04-01 05:50,-86.9453,34.6525,M,M,M,350.00,3.00,M,30.00,M,10.00,M,CLR,M,M,M,M,M,M,M,M,KDCU 010550Z AUTO 35003KT 10SM CLR A3000 RMK MADISHF
DCU,2017-04-01 05:53,-86.9453,34.6525,52.00,48.00,86.17,360.00,3.00,0.00,30.00,1015.70,10.00,M,CLR,M,M,M,M,M,M,M,M,KDCU 010553Z AUTO 36003KT 10SM CLR 11/09 A3000 RMK AO2 SLP157 T01110089 10183 20111 402000106 51016
DCU,2017-04-01 05:55,-86.9453,34.6525,M,M,M,360.00,3.00,M,30.00,M,10.00,M,CLR,M,M,M,M,M,M,M,M,KDCU 010555Z AUTO 36003KT 10SM CLR A3000 RMK MADISHF
DCU,2017-04-01 06:00,-86.9453,34.6525,M,M,M,350.00,3.00,M,30.00,M,10.00,M,CLR,M,M,M,M,M,M,M,M,KDCU 010600Z AUTO 35003KT 10SM CLR A3000 RMK MADISHF
DCU,2017-04-01 06:05,-86.9453,34.6525,M,M,M,320.00,3.00,M,30.00,M,10.00,M,CLR,M,M,M,M,M,M,M,M,KDCU 010605Z AUTO 32003KT 10SM CLR A3000 RMK MADISHF
DCU,2017-04-01 06:10,-86.9453,34.6525,M,M,M,320.00,3.00,M,30.00,M,10.00,M,CLR,M,M,M,M,M,M,M,M,KDCU 010610Z AUTO 32003KT 10SM CLR A3000 RMK MADISHF
DCU,2017-04-01 06:15,-86.9453,34.6525,M,M,M,320.00,3.00,M,30.01,M,10.00,M,CLR,M,M,M,M,M,M,M,M,KDCU 010615Z AUTO 32003KT 10SM CLR A3001 RMK MADISHF
DCU,2017-04-01 06:20,-86.9453,34.6525,M,M,M,320.00,3.00,M,30.01,M,10.00,M,CLR,M,M,M,M,M,M,M,M,KDCU 010620Z AUTO 32003KT 10SM CLR A3001 RMK MADISHF
DCU,2017-04-01 06:25,-86.9453,34.6525,M,M,M,0.00,0.00,M,30.01,M,10.00,M,CLR,M,M,M,M,M,M,M,M,KDCU 010625Z AUTO 00000KT 10SM CLR A3001 RMK MADISHF
DCU,2017-04-01 06:30,-86.9453,34.6525,M,M,M,0.00,0.00,M,30.01,M,10.00,M,CLR,M,M,M,M,M,M,M,M,KDCU 010630Z AUTO 00000KT 10SM CLR A3001 RMK MADISHF
DCU,2017-04-01 06:35,-86.9453,34.6525,M,M,M,0.00,0.00,M,30.01,M,10.00,M,CLR,M,M,M,M,M,M,M,M,KDCU 010635Z AUTO 00000KT 10SM CLR A3001 RMK MADISHF
DCU,2017-04-01 06:40,-86.9453,34.6525,M,M,M,0.00,0.00,M,30.01,M,10.00,M,CLR,M,M,M,M,M,M,M,M,KDCU 010640Z AUTO 00000KT 10SM CLR A3001 RMK MADISHF
DCU,2017-04-01 06:45,-86.9453,34.6525,M,M,M,0.00,0.00,M,30.01,M,10.00,M,CLR,M,M,M,M,M,M,M,M,KDCU 010645Z AUTO 00000KT 10SM CLR A3001 RMK MADISHF
DCU,2017-04-01 06:50,-86.9453,34.6525,M,M,M,0.00,0.00,M,30.01,M,10.00,M,CLR,M,M,M,M,M,M,M,M,KDCU 010650Z AUTO 00000KT 10SM CLR A3001 RMK MADISHF
DCU,2017-04-01 06:53,-86.9453,34.6525,51.10,48.00,89.09,0.00,0.00,0.00,30.01,1015.90,10.00,M,CLR,M,M,M,M,M,M,M,M,KDCU 010653Z AUTO 00000KT 10SM CLR 11/09 A3001 RMK AO2 SLP159 T01060089
DCU,2017-04-01 06:55,-86.9453,34.6525,M,M,M,0.00,0.00,M,30.01,M,10.00,M,CLR,M,M,M,M,M,M,M,M,KDCU 010655Z AUTO 00000KT 10SM CLR A3001 RMK MADISHF
DCU,2017-04-01 07:00,-86.9453,34.6525,M,M,M,0.00,0.00,M,30.01,M,10.00,M,CLR,M,M,M,M,M,M,M,M,KDCU 010700Z AUTO 00000KT 10SM CLR A3001 RMK MADISHF
DCU,2017-04-01 07:05,-86.9453,34.6525,M,M,M,0.00,0.00,M,30.01,M,10.00,M,CLR,M,M,M,M,M,M,M,M,KDCU 010705Z AUTO 00000KT 10SM CLR A3001 RMK MADISHF
DCU,2017-04-01 07:10,-86.9453,34.6525,M,M,M,0.00,0.00,M,30.01,M,10.00,M,CLR,M,M,M,M,M,M,M,M,KDCU 010710Z AUTO 00000KT 10SM CLR A3001 RMK MADISHF
DCU,2017-04-01 07:15,-86.9453,34.6525,M,M,M,0.00,0.00,M,30.01,M,10.00,M,CLR,M,M,M,M,M,M,M,M,KDCU 010715Z AUTO 00000KT 10SM CLR A3001 RMK MADISHF
DCU,2017-04-01 07:20,-86.9453,34.6525,M,M,M,0.00,0.00,M,30.02,M,10.00,M,CLR,M,M,M,M,M,M,M,M,KDCU 010720Z AUTO 00000KT 10SM CLR A3002 RMK MADISHF
DCU,2017-04-01 07:25,-86.9453,34.6525,M,M,M,0.00,0.00,M,30.02,M,10.00,M,CLR,M,M,M,M,M,M,M,M,KDCU 010725Z AUTO 00000KT 10SM CLR A3002 RMK MADISHF
DCU,2017-04-01 07:30,-86.9453,34.6525,M,M,M,0.00,0.00,M,30.02,M,10.00,M,CLR,M,M,M,M,M,M,M,M,KDCU 010730Z AUTO 00000KT 10SM CLR A3002 RMK MADISHF
DCU,2017-04-01 07:35,-86.9453,34.6525,M,M,M,0.00,0.00,M,30.02,M,10.00,M,CLR,M,M,M,M,M,M,M,M,KDCU 010735Z AUTO 00000KT 10SM CLR A3002 RMK MADISHF
DCU,2017-04-01 07:40,-86.9453,34.6525,M,M,M,0.00,0.00,M,30.02,M,10.00,M,CLR,M,M,M,M,M,M,M,M,KDCU 010740Z AUTO 00000KT 10SM CLR A3002 RMK MADISHF
DCU,2017-04-01 07:45,-86.9453,34.6525,M,M,M,0.00,0.00,M,30.02,M,10.00,M,CLR,M,M,M,M,M,M,M,M,KDCU 010745Z AUTO 00000KT 10SM CLR A3002 RMK MADISHF
DCU,2017-04-01 07:50,-86.9453,34.6525,M,M,M,0.00,0.00,M,30.02,M,10.00,M,CLR,M,M,M,M,M,M,M,M,KDCU 010750Z AUTO 00000KT 10SM CLR A3002 RMK MADISHF
DCU,2017-04-01 07:53,-86.9453,34.6525,48.00,46.90,95.95,0.00,0.00,0.00,30.03,1016.60,10.00,M,CLR,M,M,M,M,M,M,M,M,KDCU 010753Z AUTO 00000KT 10SM CLR 09/08 A3003 RMK AO2 SLP166 T00890083
DCU,2017-04-01 07:55,-86.9453,34.6525,M,M,M,0.00,0.00,M,30.03,M,10.00,M,CLR,M,M,M,M,M,M,M,M,KDCU 010755Z AUTO 00000KT 10SM CLR A3003 RMK MADISHF
DCU,2017-04-01 08:00,-86.9453,34.6525,M,M,M,0.00,0.00,M,30.03,M,10.00,M,CLR,M,M,M,M,M,M,M,M,KDCU 010800Z AUTO 00000KT 10SM CLR A3003 RMK MADISHF
DCU,2017-04-01 08:05,-86.9453,34.6525,M,M,M,0.00,0.00,M,30.03,M,10.00,M,CLR,M,M,M,M,M,M,M,M,KDCU 010805Z AUTO 00000KT 10SM CLR A3003 RMK MADISHF
DCU,2017-04-01 08:10,-86.9453,34.6525,M,M,M,0.00,0.00,M,30.03,M,10.00,M,CLR,M,M,M,M,M,M,M,M,KDCU 010810Z AUTO 00000KT 10SM CLR A3003 RMK MADISHF
DCU,2017-04-01 08:15,-86.9453,34.6525,M,M,M,0.00,0.00,M,30.04,M,10.00,M,CLR,M,M,M,M,M,M,M,M,KDCU 010815Z AUTO 00000KT 10SM CLR A3004 RMK MADISHF
DCU,2017-04-01 08:20,-86.9453,34.6525,M,M,M,0.00,0.00,M,30.04,M,10.00,M,CLR,M,M,M,M,M,M,M,M,KDCU 010820Z AUTO 00000KT 10SM CLR A3004 RMK MADISHF
DCU,2017-04-01 08:25,-86.9453,34.6525,M,M,M,0.00,0.00,M,30.04,M,10.00,M,CLR,M,M,M,M,M,M,M,M,KDCU 010825Z AUTO 00000KT 10SM CLR A3004 RMK MADISHF
DCU,2017-04-01 08:30,-86.9453,34.6525,M,M,M,0.00,0.00,M,30.04,M,10.00,M,CLR,M,M,M,M,M,M,M,M,KDCU 010830Z AUTO 00000KT 10SM CLR A3004 RMK MADISHF
DCU,2017-04-01 08:35,-86.9453,34.6525,M,M,M,0.00,0.00,M,30.04,M,10.00,M,CLR,M,M,M,M,M,M,M,M,KDCU 010835Z AUTO 00000KT 10SM CLR A3004 RMK MADISHF
DCU,2017-04-01 08:40,-86.9453,34.6525,M,M,M,0.00,0.00,M,30.04,M,10.00,M,CLR,M,M,M,M,M,M,M,M,KDCU 010840Z AUTO 00000KT 10SM CLR A3004 RMK MADISHF
DCU,2017-04-01 08:45,-86.9453,34.6525,M,M,M,0.00,0.00,M,30.04,M,10.00,M,CLR,M,M,M,M,M,M,M,M,KDCU 010845Z AUTO 00000KT 10SM CLR A3004 RMK MADISHF
DCU,2017-04-01 08:50,-86.9453,34.6525,M,M,M,0.00,0.00,M,30.05,M,10.00,M,CLR,M,M,M,M,M,M,M,M,KDCU 010850Z AUTO 00000KT 10SM CLR A3005 RMK MADISHF
DCU,2017-04-01 08:53,-86.9453,34.6525,46.90,46.00,96.66,0.00,0.00,0.00,30.05,1017.30,10.00,M,CLR,M,M,M,M,M,M,M,M,KDCU 010853Z AUTO 00000KT 10SM CLR 08/08 A3005 RMK AO2 SLP173 T00830078 53016
DCU,2017-04-01 08:55,-86.9453,34.6525,M,M,M,0.00,0.00,M,30.05,M,10.00,M,CLR,M,M,M,M,M,M,M,M,KDCU 010855Z AUTO 00000KT 10SM CLR A3005 RMK MADISHF
DCU,2017-04-01 09:00,-86.9453,34.6525,M,M,M,0.00,0.00,M,30.05,M,10.00,M,CLR,M,M,M,M,M,M,M,M,KDCU 010900Z AUTO 00000KT 10SM CLR A3005 RMK MADISHF
DCU,2017-04-01 09:05,-86.9453,34.6525,M,M,M,0.00,0.00,M,30.05,M,10.00,M,CLR,M,M,M,M,M,M,M,M,KDCU 010905Z AUTO 00000KT 10SM CLR A3005 RMK MADISHF
DCU,2017-04-01 09:10,-86.9453,34.6525,M,M,M,350.00,3.00,M,30.05,M,10.00,M,CLR,M,M,M,M,M,M,M,M,KDCU 010910Z AUTO 35003KT 10SM CLR A3005 RMK MADISHF
DCU,2017-04-01 09:15,-86.9453,34.6525,M,M,M,360.00,3.00,M,30.05,M,10.00,M,CLR,M,M,M,M,M,M,M,M,KDCU 010915Z AUTO 36003KT 10SM CLR A3005 RMK MADISHF
DCU,2017-04-01 09:20,-86.9453,34.6525,M,M,M,360.00,4.00,M,30.05,M,10.00,M,CLR,M,M,M,M,M,M,M,M,KDCU 010920Z AUTO 36004KT 10SM CLR A3005 RMK MADISHF
DCU,2017-04-01 09:25,-86.9453,34.6525,M,M,M,10.00,4.00,M,30.05,M,10.00,M,CLR,M,M,M,M,M,M,M,M,KDCU 010925Z AUTO 01004KT 10SM CLR A3005 RMK MADISHF
DCU,2017-04-01 09:30,-86.9453,34.6525,M,M,M,10.00,4.00,M,30.05,M,10.00,M,CLR,M,M,M,M,M,M,M,M,KDCU 010930Z AUTO 01004KT 10SM CLR A3005 RMK MADISHF
DCU,2017-04-01 09:35,-86.9453,34.6525,M,M,M,10.00,4.00,M,30.06,M,10.00,M,CLR,M,M,M,M,M,M,M,M,KDCU 010935Z AUTO 01004KT 10SM CLR A3006 RMK MADISHF
DCU,2017-04-01 09:40,-86.9453,34.6525,M,M,M,10.00,4.00,M,30.06,M,10.00,M,CLR,M,M,M,M,M,M,M,M,KDCU 010940Z AUTO 01004KT 10SM CLR A3006 RMK MADISHF
DCU,2017-04-01 09:45,-86.9453,34.6525,M,M,M,360.00,3.00,M,30.06,M,10.00,M,CLR,M,M,M,M,M,M,M,M,KDCU 010945Z AUTO 36003KT 10SM CLR A3006 RMK MADISHF
DCU,2017-04-01 09:50,-86.9453,34.6525,M,M,M,10.00,4.00,M,30.06,M,10.00,M,CLR,M,M,M,M,M,M,M,M,KDCU 010950Z AUTO 01004KT 10SM CLR A3006 RMK MADISHF
DCU,2017-04-01 09:53,-86.9453,34.6525,46.00,46.00,100.00,10.00,5.00,0.00,30.06,1017.70,10.00,M,CLR,M,M,M,M,M,M,M,M,KDCU 010953Z AUTO 01005KT 10SM CLR 08/08 A3006 RMK AO2 SLP177 T00780078
DCU,2017-04-01 09:55,-86.9453,34.6525,M,M,M,360.00,5.00,M,30.06,M,10.00,M,CLR,M,M,M,M,M,M,M,M,KDCU 010955Z AUTO 36005KT 10SM CLR A3006 RMK MADISHF
DCU,2017-04-01 10:00,-86.9453,34.6525,M,M,M,360.00,5.00,M,30.06,M,10.00,M,CLR,M,M,M,M,M,M,M,M,KDCU 011000Z AUTO 36005KT 10SM CLR A3006 RMK MADISHF
DCU,2017-04-01 10:05,-86.9453,34.6525,M,M,M,10.00,5.00,M,30.07,M,10.00,M,CLR,M,M,M,M,M,M,M,M,KDCU 011005Z AUTO 01005KT 10SM CLR A3007 RMK MADISHF
DCU,2017-04-01 10:10,-86.9453,34.6525,M,M,M,10.00,4.00,M,30.07,M,10.00,M,CLR,M,M,M,M,M,M,M,M,KDCU 011010Z AUTO 01004KT 10SM CLR A3007 RMK MADISHF
DCU,2017-04-01 10:15,-86.9453,34.6525,M,M,M,10.00,4.00,M,30.07,M,10.00,M,CLR,M,M,M,M,M,M,M,M,KDCU 011015Z AUTO 01004KT 10SM CLR A3007 RMK MADISHF
DCU,2017-04-01 10:20,-86.9453,34.6525,M,M,M,360.00,4.00,M,30.07,M,10.00,M,CLR,M,M,M,M,M,M,M,M,KDCU 011020Z AUTO 36004KT 10SM CLR A3007 RMK MADISHF
DCU,2017-04-01 10:25,-86.9453,34.6525,M,M,M,360.00,4.00,M,30.07,M,10.00,M,CLR,M,M,M,M,M,M,M,M,KDCU 011025Z AUTO 36004KT 10SM CLR A3007 RMK MADISHF
DCU,2017-04-01 10:30,-86.9453,34.6525,M,M,M,360.00,5.00,M,30.08,M,10.00,M,CLR,M,M,M,M,M,M,M,M,KDCU 011030Z AUTO 36005KT 10SM CLR A3008 RMK MADISHF
DCU,2017-04-01 10:35,-86.9453,34.6525,M,M,M,360.00,5.00,M,30.08,M,10.00,M,CLR,M,M,M,M,M,M,M,M,KDCU 011035Z AUTO 36005KT 10SM CLR A3008 RMK MADISHF
DCU,2017-04-01 10:40,-86.9453,34.6525,M,M,M,360.00,4.00,M,30.08,M,10.00,M,CLR,M,M,M,M,M,M,M,M,KDCU 011040Z AUTO 36004KT 10SM CLR A3008 RMK MADISHF
DCU,2017-04-01 10:45,-86.9453,34.6525,M,M,M,10.00,5.00,M,30.08,M,10.00,M,CLR,M,M,M,M,M,M,M,M,KDCU 011045Z AUTO 01005KT 10SM CLR A3008 RMK MADISHF
DCU,2017-04-01 10:50,-86.9453,34.6525,M,M,M,10.00,5.00,M,30.08,M,10.00,M,CLR,M,M,M,M,M,M,M,M,KDCU 011050Z AUTO 01005KT 10SM CLR A3008 RMK MADISHF
DCU,2017-04-01 10:53,-86.9453,34.6525,46.90,46.00,96.66,10.00,5.00,0.00,30.08,1018.30,10.00,M,CLR,M,M,M,M,M,M,M,M,KDCU 011053Z AUTO 01005KT 10SM CLR 08/08 A3008 RMK AO2 SLP183 T00830078
DCU,2017-04-01 10:55,-86.9453,34.6525,M,M,M,10.00,4.00,M,30.08,M,10.00,M,CLR,M,M,M,M,M,M,M,M,KDCU 011055Z AUTO 01004KT 10SM CLR A3008 RMK MADISHF
DCU,2017-04-01 11:00,-86.9453,34.6525,M,M,M,10.00,4.00,M,30.08,M,10.00,M,CLR,M,M,M,M,M,M,M,M,KDCU 011100Z AUTO 01004KT 10SM CLR A3008 RMK MADISHF
DCU,2017-04-01 11:05,-86.9453,34.6525,M,M,M,10.00,4.00,M,30.08,M,10.00,M,CLR,M,M,M,M,M,M,M,M,KDCU 011105Z AUTO 01004KT 10SM CLR A3008 RMK MADISHF
DCU,2017-04-01 11:10,-86.9453,34.6525,M,M,M,10.00,4.00,M,30.09,M,10.00,M,CLR,M,M,M,M,M,M,M,M,KDCU 011110Z AUTO 01004KT 10SM CLR A3009 RMK MADISHF
DCU,2017-04-01 11:15,-86.9453,34.6525,M,M,M,10.00,4.00,M,30.09,M,10.00,M,CLR,M,M,M,M,M,M,M,M,KDCU 011115Z AUTO 01004KT 10SM CLR A3009 RMK MADISHF
DCU,2017-04-01 11:20,-86.9453,34.6525,M,M,M,10.00,5.00,M,30.09,M,10.00,M,CLR,M,M,M,M,M,M,M,M,KDCU 011120Z AUTO 01005KT 10SM CLR A3009 RMK MADISHF
DCU,2017-04-01 11:25,-86.9453,34.6525,M,M,M,20.00,5.00,M,30.09,M,10.00,M,CLR,M,M,M,M,M,M,M,M,KDCU 011125Z AUTO 02005KT 10SM CLR A3009 RMK MADISHF
DCU,2017-04-01 11:30,-86.9453,34.6525,M,M,M,20.00,5.00,M,30.09,M,10.00,M,CLR,M,M,M,M,M,M,M,M,KDCU 011130Z AUTO 02005KT 10SM CLR A3009 RMK MADISHF
DCU,2017-04-01 11:35,-86.9453,34.6525,M,M,M,30.00,4.00,M,30.09,M,10.00,M,CLR,M,M,M,M,M,M,M,M,KDCU 011135Z AUTO 03004KT 10SM CLR A3009 RMK MADISHF
DCU,2017-04-01 11:40,-86.9453,34.6525,M,M,M,30.00,5.00,M,30.09,M,10.00,M,CLR,M,M,M,M,M,M,M,M,KDCU 011140Z AUTO 03005KT 10SM CLR A3009 RMK MADISHF
DCU,2017-04-01 11:45,-86.9453,34.6525,M,M,M,30.00,6.00,M,30.10,M,10.00,M,CLR,M,M,M,M,M,M,M,M,KDCU 011145Z AUTO 03006KT 10SM CLR A3010 RMK MADISHF
DCU,2017-04-01 11:50,-86.9453,34.6525,M,M,M,20.00,4.00,M,30.10,M,10.00,M,CLR,M,M,M,M,M,M,M,M,KDCU 011150Z AUTO 02004KT 10SM CLR A3010 RMK MADISHF
DCU,2017-04-01 11:53,-86.9453,34.6525,48.90,46.00,89.67,20.00,5.00,0.00,30.10,1019.20,10.00,M,CLR,M,M,M,M,M,M,M,M,KDCU 011153Z AUTO 02005KT 10SM CLR 09/08 A3010 RMK AO2 SLP192 T00940078 10117 20072 53018
DCU,2017-04-01 11:55,-86.9453,34.6525,M,M,M,30.00,5.00,M,30.10,M,10.00,M,CLR,M,M,M,M,M,M,M,M,KDCU 011155Z AUTO 03005KT 10SM CLR A3010 RMK MADISHF
DCU,2017-04-01 12:00,-86.9453,34.6525,M,M,M,20.00,5.00,M,30.10,M,10.00,M,CLR,M,M,M,M,M,M,M,M,KDCU 011200Z AUTO 02005KT 10SM CLR A3010 RMK MADISHF
DCU,2017-04-01 12:05,-86.9453,34.6525,M,M,M,20.00,5.00,M,30.11,M,10.00,M,CLR,M,M,M,M,M,M,M,M,KDCU 011205Z AUTO 02005KT 10SM CLR A3011 RMK MADISHF
DCU,2017-04-01 12:10,-86.9453,34.6525,M,M,M,20.00,5.00,M,30.11,M,10.00,M,CLR,M,M,M,M,M,M,M,M,KDCU 011210Z AUTO 02005KT 10SM CLR A3011 RMK MADISHF
DCU,2017-04-01 12:15,-86.9453,34.6525,M,M,M,20.00,5.00,M,30.11,M,10.00,M,CLR,M,M,M,M,M,M,M,M,KDCU 011215Z AUTO 02005KT 10SM CLR A3011 RMK MADISHF
DCU,2017-04-01 12:20,-86.9453,34.6525,M,M,M,20.00,5.00,M,30.11,M,10.00,M,CLR,M,M,M,M,M,M,M,M,KDCU 011220Z AUTO 02005KT 10SM CLR A3011 RMK MADISHF
DCU,2017-04-01 12:25,-86.9453,34.6525,M,M,M,10.00,4.00,M,30.12,M,10.00,M,CLR,M,M,M,M,M,M,M,M,KDCU 011225Z AUTO 01004KT 10SM CLR A3012 RMK MADISHF
DCU,2017-04-01 12:30,-86.9453,34.6525,M,M,M,10.00,4.00,M,30.12,M,10.00,M,CLR,M,M,M,M,M,M,M,M,KDCU 011230Z AUTO 01004KT 10SM CLR A3012 RMK MADISHF
DCU,2017-04-01 12:35,-86.9453,34.6525,M,M,M,20.00,5.00,M,30.12,M,10.00,M,CLR,M,M,M,M,M,M,M,M,KDCU 011235Z AUTO 02005KT 10SM CLR A3012 RMK MADISHF
DCU,2017-04-01 12:40,-86.9453,34.6525,M,M,M,10.00,5.00,M,30.12,M,10.00,M,CLR,M,M,M,M,M,M,M,M,KDCU 011240Z AUTO 01005KT 10SM CLR A3012 RMK MADISHF
DCU,2017-04-01 12:45,-86.9453,34.6525,M,M,M,20.00,7.00,M,30.12,M,10.00,M,CLR,M,M,M,M,M,M,M,M,KDCU 011245Z AUTO 02007KT 10SM CLR A3012 RMK MADISHF
DCU,2017-04-01 12:50,-86.9453,34.6525,M,M,M,20.00,6.00,M,30.12,M,10.00,M,CLR,M,M,M,M,M,M,M,M,KDCU 011250Z AUTO 02006KT 10SM CLR A3012 RMK MADISHF
DCU,2017-04-01 12:53,-86.9453,34.6525,52.00,46.90,82.68,40.00,7.00,0.00,30.12,1019.90,10.00,M,CLR,M,M,M,M,M,M,M,M,KDCU 011253Z AUTO 04007KT 10SM CLR 11/08 A3012 RMK AO2 SLP199 T01110083
DCU,2017-04-01 12:55,-86.9453,34.6525,M,M,M,40.00,8.00,M,30.13,M,10.00,M,CLR,M,M,M,M,M,M,M,M,KDCU 011255Z AUTO 04008KT 10SM CLR A3013 RMK MADISHF
DCU,2017-04-01 13:00,-86.9453,34.6525,M,M,M,30.00,7.00,M,30.13,M,10.00,M,CLR,M,M,M,M,M,M,M,M,KDCU 011300Z AUTO 03007KT 10SM CLR A3013 RMK MADISHF
DCU,2017-04-01 13:05,-86.9453,34.6525,M,M,M,20.00,10.00,M,30.13,M,10.00,M,CLR,M,M,M,M,M,M,M,M,KDCU 011305Z AUTO 02010KT 10SM CLR A3013 RMK MADISHF
DCU,2017-04-01 13:10,-86.9453,34.6525,M,M,M,30.00,10.00,M,30.13,M,10.00,M,CLR,M,M,M,M,M,M,M,M,KDCU 011310Z AUTO 03010KT 10SM CLR A3013 RMK MADISHF
DCU,2017-04-01 13:15,-86.9453,34.6525,M,M,M,20.00,8.00,M,30.13,M,10.00,M,CLR,M,M,M,M,M,M,M,M,KDCU 011315Z AUTO 02008KT 10SM CLR A3013 RMK MADISHF
DCU,2017-04-01 13:20,-86.9453,34.6525,M,M,M,20.00,10.00,M,30.13,M,10.00,M,CLR,M,M,M,M,M,M,M,M,KDCU 011320Z AUTO 02010KT 10SM CLR A3013 RMK MADISHF
DCU,2017-04-01 13:25,-86.9453,34.6525,M,M,M,20.00,8.00,M,30.13,M,10.00,M,FEW,M,M,M,1400.00,M,M,M,M,KDCU 011325Z AUTO 02008KT 10SM FEW014 A3013 RMK MADISHF
DCU,2017-04-01 13:30,-86.9453,34.6525,M,M,M,20.00,10.00,M,30.13,M,10.00,M,CLR,M,M,M,M,M,M,M,M,KDCU 011330Z AUTO 02010KT 10SM CLR A3013 RMK MADISHF
DCU,2017-04-01 13:35,-86.9453,34.6525,M,M,M,30.00,8.00,M,30.13,M,10.00,M,CLR,M,M,M,M,M,M,M,M,KDCU 011335Z AUTO 03008KT 10SM CLR A3013 RMK MADISHF
DCU,2017-04-01 13:40,-86.9453,34.6525,M,M,M,30.00,8.00,M,30.13,M,10.00,M,CLR,M,M,M,M,M,M,M,M,KDCU 011340Z AUTO 03008KT 10SM CLR A3013 RMK MADISHF
DCU,2017-04-01 13:45,-86.9453,34.6525,M,M,M,20.00,8.00,M,30.13,M,10.00,M,CLR,M,M,M,M,M,M,M,M,KDCU 011345Z AUTO 02008KT 10SM CLR A3013 RMK MADISHF
DCU,2017-04-01 13:50,-86.9453,34.6525,M,M,M,20.00,9.00,M,30.13,M,10.00,M,CLR,M,M,M,M,M,M,M,M,KDCU 011350Z AUTO 02009KT 10SM CLR A3013 RMK MADISHF
DCU,2017-04-01 13:53,-86.9453,34.6525,52.00,46.00,79.92,30.00,7.00,0.00,30.13,1020.10,10.00,M,CLR,M,M,M,M,M,M,M,M,KDCU 011353Z AUTO 03007KT 10SM CLR 11/08 A3013 RMK AO2 SLP201 T01110078
DCU,2017-04-01 13:55,-86.9453,34.6525,M,M,M,20.00,7.00,M,30.13,M,10.00,M,CLR,M,M,M,M,M,M,M,M,KDCU 011355Z AUTO 02007KT 10SM CLR A3013 RMK MADISHF
DCU,2017-04-01 14:00,-86.9453,34.6525,M,M,M,40.00,7.00,M,30.13,M,10.00,M,CLR,M,M,M,M,M,M,M,M,KDCU 011400Z AUTO 04007KT 10SM CLR A3013 RMK MADISHF
DCU,2017-04-01 14:05,-86.9453,34.6525,M,M,M,20.00,8.00,M,30.13,M,10.00,M,CLR,M,M,M,M,M,M,M,M,KDCU 011405Z AUTO 02008KT 10SM CLR A3013 RMK MADISHF
DCU,2017-04-01 14:10,-86.9453,34.6525,M,M,M,40.00,8.00,M,30.13,M,10.00,M,CLR,M,M,M,M,M,M,M,M,KDCU 011410Z AUTO 04008KT 10SM CLR A3013 RMK MADISHF
DCU,2017-04-01 14:15,-86.9453,34.6525,M,M,M,350.00,8.00,M,30.13,M,10.00,M,FEW,M,M,M,1800.00,M,M,M,M,KDCU 011415Z AUTO 35008KT 10SM FEW018 A3013 RMK MADISHF
DCU,2017-04-01 14:20,-86.9453,34.6525,M,M,M,10.00,8.00,M,30.14,M,10.00,M,SCT,M,M,M,1800.00,M,M,M,M,KDCU 011420Z AUTO 01008KT 10SM SCT018 A3014 RMK MADISHF
DCU,2017-04-01 14:25,-86.9453,34.6525,M,M,M,10.00,7.00,M,30.14,M,10.00,M,FEW,M,M,M,1800.00,M,M,M,M,KDCU 011425Z AUTO 01007KT 10SM FEW018 A3014 RMK MADISHF
DCU,2017-04-01 14:30,-86.9453,34.6525,M,M,M,20.00,5.00,M,30.14,M,10.00,M,SCT,M,M,M,1800.00,M,M,M,M,KDCU 011430Z AUTO 02005KT 10SM SCT018 A3014 RMK MADISHF
DCU,2017-04-01 14:35,-86.9453,34.6525,M,M,M,350.00,8.00,M,30.15,M,10.00,M,SCT,M,M,M,1800.00,M,M,M,M,KDCU 011435Z AUTO 35008KT 10SM SCT018 A3015 RMK MADISHF
DCU,2017-04-01 14:40,-86.9453,34.6525,M,M,M,350.00,9.00,M,30.15,M,10.00,M,SCT,M,M,M,1900.00,M,M,M,M,KDCU 011440Z AUTO 35009KT 10SM SCT019 A3015 RMK MADISHF
DCU,2017-04-01 14:45,-86.9453,34.6525,M,M,M,340.00,6.00,M,30.15,M,10.00,M,SCT,M,M,M,1900.00,M,M,M,M,KDCU 011445Z AUTO 34006KT 10SM SCT019 A3015 RMK MADISHF
DCU,2017-04-01 14:50,-86.9453,34.6525,M,M,M,340.00,6.00,M,30.15,M,10.00,M,BKN,M,M,M,1900.00,M,M,M,M,KDCU 011450Z AUTO 34006KT 10SM BKN019 A3015 RMK MADISHF
DCU,2017-04-01 14:53,-86.9453,34.6525,55.90,46.90,71.69,330.00,8.00,0.00,30.15,1020.80,10.00,M,BKN,M,M,M,2000.00,M,M,M,M,KDCU 011453Z AUTO 33008KT 10SM BKN020 13/08 A3015 RMK AO2 SLP208 T01330083 51016
DCU,2017-04-01 14:55,-86.9453,34.6525,M,M,M,330.00,9.00,M,30.15,M,10.00,M,BKN,M,M,M,1999.00,M,M,M,M,KDCU 011455Z AUTO 33009KT 10SM BKN019 A3015 RMK MADISHF
DCU,2017-04-01 15:00,-86.9453,34.6525,M,M,M,340.00,9.00,M,30.15,M,10.00,M,BKN,M,M,M,1999.00,M,M,M,M,KDCU 011500Z AUTO 34009KT 10SM BKN019 A3015 RMK MADISHF
DCU,2017-04-01 15:05,-86.9453,34.6525,M,M,M,350.00,10.00,M,30.15,M,10.00,M,SCT,M,M,M,1999.00,M,M,M,M,KDCU 011505Z AUTO 35010KT 10SM SCT019 A3015 RMK MADISHF
DCU,2017-04-01 15:07,-86.9453,34.6525,55.90,46.90,71.69,340.00,9.00,0.00,30.15,M,10.00,M,SCT,M,M,M,2000.00,M,M,M,M,KDCU 011507Z AUTO 34009KT 10SM SCT020 13/08 A3015 RMK AO2 T01330083
DCU,2017-04-01 15:10,-86.9453,34.6525,M,M,M,10.00,5.00,M,30.15,M,10.00,M,SCT,M,M,M,1999.00,M,M,M,M,KDCU 011510Z AUTO 01005KT 10SM SCT019 A3015 RMK MADISHF
DCU,2017-04-01 15:15,-86.9453,34.6525,M,M,M,10.00,9.00,M,30.15,M,10.00,M,SCT,M,M,M,1999.00,M,M,M,M,KDCU 011515Z AUTO 01009KT 10SM SCT019 A3015 RMK MADISHF
DCU,2017-04-01 15:20,-86.9453,34.6525,M,M,M,10.00,10.00,M,30.15,M,10.00,M,FEW,M,M,M,2100.00,M,M,M,M,KDCU 011520Z AUTO 01010KT 10SM FEW021 A3015 RMK MADISHF
DCU,2017-04-01 15:25,-86.9453,34.6525,M,M,M,360.00,8.00,M,30.15,M,10.00,M,CLR,M,M,M,M,M,M,M,M,KDCU 011525Z AUTO 36008KT 10SM CLR A3015 RMK MADISHF
DCU,2017-04-01 15:30,-86.9453,34.6525,M,M,M,10.00,8.00,M,30.15,M,10.00,M,CLR,M,M,M,M,M,M,M,M,KDCU 011530Z AUTO 01008KT 10SM CLR A3015 RMK MADISHF
DCU,2017-04-01 15:35,-86.9453,34.6525,M,M,M,20.00,8.00,M,30.15,M,10.00,M,CLR,M,M,M,M,M,M,M,M,KDCU 011535Z AUTO 02008KT 10SM CLR A3015 RMK MADISHF
DCU,2017-04-01 15:40,-86.9453,34.6525,M,M,M,20.00,8.00,M,30.15,M,10.00,M,CLR,M,M,M,M,M,M,M,M,KDCU 011540Z AUTO 02008KT 10SM CLR A3015 RMK MADISHF
DCU,2017-04-01 15:45,-86.9453,34.6525,M,M,M,20.00,11.00,M,30.15,M,10.00,M,CLR,M,M,M,M,M,M,M,M,KDCU 011545Z AUTO 02011KT 10SM CLR A3015 RMK MADISHF
DCU,2017-04-01 15:50,-86.9453,34.6525,M,M,M,20.00,9.00,M,30.15,M,10.00,M,CLR,M,M,M,M,M,M,M,M,KDCU 011550Z AUTO 02009KT 10SM CLR A3015 RMK WND 35V05  MADISHF
DCU,2017-04-01 15:53,-86.9453,34.6525,59.00,48.00,66.83,360.00,9.00,0.00,30.15,1020.70,10.00,M,CLR,M,M,M,M,M,M,M,M,KDCU 011553Z AUTO 36009KT 10SM CLR 15/09 A3015 RMK AO2 SLP207 T01500089
DCU,2017-04-01 15:55,-86.9453,34.6525,M,M,M,20.00,10.00,M,30.15,M,10.00,M,CLR,M,M,M,M,M,M,M,M,KDCU 011555Z AUTO 02010KT 10SM CLR A3015 RMK MADISHF
DCU,2017-04-01 16:00,-86.9453,34.6525,M,M,M,360.00,9.00,M,30.15,M,10.00,M,CLR,M,M,M,M,M,M,M,M,KDCU 011600Z AUTO 36009KT 10SM CLR A3015 RMK MADISHF
DCU,2017-04-01 16:05,-86.9453,34.6525,M,M,M,360.00,8.00,M,30.15,M,10.00,M,CLR,M,M,M,M,M,M,M,M,KDCU 011605Z AUTO 36008KT 10SM CLR A3015 RMK MADISHF
DCU,2017-04-01 16:10,-86.9453,34.6525,M,M,M,360.00,10.00,M,30.15,M,10.00,M,CLR,M,M,M,M,M,M,M,M,KDCU 011610Z AUTO 36010KT 10SM CLR A3015 RMK MADISHF
DCU,2017-04-01 16:15,-86.9453,34.6525,M,M,M,20.00,7.00,M,30.15,M,10.00,M,CLR,M,M,M,M,M,M,M,M,KDCU 011615Z AUTO 02007KT 10SM CLR A3015 RMK MADISHF
DCU,2017-04-01 16:20,-86.9453,34.6525,M,M,M,10.00,8.00,M,30.15,M,10.00,M,CLR,M,M,M,M,M,M,M,M,KDCU 011620Z AUTO 01008KT 10SM CLR A3015 RMK MADISHF
DCU,2017-04-01 16:25,-86.9453,34.6525,M,M,M,30.00,8.00,M,30.15,M,10.00,M,CLR,M,M,M,M,M,M,M,M,KDCU 011625Z AUTO 03008KT 10SM CLR A3015 RMK MADISHF
DCU,2017-04-01 16:30,-86.9453,34.6525,M,M,M,330.00,5.00,M,30.15,M,10.00,M,CLR,M,M,M,M,M,M,M,M,KDCU 011630Z AUTO 33005KT 10SM CLR A3015 RMK MADISHF
DCU,2017-04-01 16:35,-86.9453,34.6525,M,M,M,360.00,7.00,M,30.15,M,10.00,M,CLR,M,M,M,M,M,M,M,M,KDCU 011635Z AUTO 36007KT 10SM CLR A3015 RMK MADISHF
DCU,2017-04-01 16:40,-86.9453,34.6525,M,M,M,360.00,5.00,M,30.15,M,10.00,M,CLR,M,M,M,M,M,M,M,M,KDCU 011640Z AUTO 36005KT 10SM CLR A3015 RMK MADISHF
DCU,2017-04-01 16:45,-86.9453,34.6525,M,M,M,360.00,5.00,M,30.15,M,10.00,M,CLR,M,M,M,M,M,M,M,M,KDCU 011645Z AUTO 36005KT 10SM CLR A3015 RMK MADISHF
DCU,2017-04-01 16:50,-86.9453,34.6525,M,M,M,20.00,7.00,M,30.15,M,10.00,M,CLR,M,M,M,M,M,M,M,M,KDCU 011650Z AUTO 02007KT 10SM CLR A3015 RMK WND 34V06  MADISHF
DCU,2017-04-01 16:53,-86.9453,34.6525,62.10,48.00,59.86,M,3.00,0.00,30.15,1020.60,10.00,M,CLR,M,M,M,M,M,M,M,M,KDCU 011653Z AUTO VRB03KT 10SM CLR 17/09 A3015 RMK AO2 SLP206 T01670089
DCU,2017-04-01 16:55,-86.9453,34.6525,M,M,M,0.00,0.00,M,30.14,M,10.00,M,CLR,M,M,M,M,M,M,M,M,KDCU 011655Z AUTO 00000KT 10SM CLR A3014 RMK MADISHF
DCU,2017-04-01 17:00,-86.9453,34.6525,M,M,M,10.00,7.00,M,30.14,M,10.00,M,CLR,M,M,M,M,M,M,M,M,KDCU 011700Z AUTO 01007KT 10SM CLR A3014 RMK MADISHF
DCU,2017-04-01 17:05,-86.9453,34.6525,M,M,M,30.00,5.00,M,30.14,M,10.00,M,CLR,M,M,M,M,M,M,M,M,KDCU 011705Z AUTO 03005KT 10SM CLR A3014 RMK VRB05KT  MADISHF
DCU,2017-04-01 17:10,-86.9453,34.6525,M,M,M,M,M,M,30.14,M,10.00,M,CLR,M,M,M,M,M,M,M,M,KDCU 011710Z AUTO /////KT 10SM CLR A3014 RMK MADISHF
DCU,2017-04-01 17:15,-86.9453,34.6525,M,M,M,340.00,4.00,M,30.14,M,10.00,M,CLR,M,M,M,M,M,M,M,M,KDCU 011715Z AUTO 34004KT 10SM CLR A3014 RMK MADISHF
DCU,2017-04-01 17:20,-86.9453,34.6525,M,M,M,10.00,7.00,M,30.14,M,10.00,M,CLR,M,M,M,M,M,M,M,M,KDCU 011720Z AUTO 01007KT 10SM CLR A3014 RMK MADISHF
DCU,2017-04-01 17:25,-86.9453,34.6525,M,M,M,40.00,4.00,M,30.14,M,10.00,M,CLR,M,M,M,M,M,M,M,M,KDCU 011725Z AUTO 04004KT 10SM CLR A3014 RMK VRB04KT  MADISHF
DCU,2017-04-01 17:30,-86.9453,34.6525,M,M,M,M,M,M,30.14,M,10.00,M,CLR,M,M,M,M,M,M,M,M,KDCU 011730Z AUTO /////KT 10SM CLR A3014 RMK MADISHF
DCU,2017-04-01 17:35,-86.9453,34.6525,M,M,M,350.00,7.00,M,30.13,M,10.00,M,CLR,M,M,M,M,M,M,M,M,KDCU 011735Z AUTO 35007KT 10SM CLR A3013 RMK MADISHF
DCU,2017-04-01 17:40,-86.9453,34.6525,M,M,M,340.00,4.00,M,30.13,M,10.00,M,CLR,M,M,M,M,M,M,M,M,KDCU 011740Z AUTO 34004KT 10SM CLR A3013 RMK MADISHF
DCU,2017-04-01 17:45,-86.9453,34.6525,M,M,M,10.00,8.00,M,30.13,M,10.00,M,CLR,M,M,M,M,M,M,M,M,KDCU 011745Z AUTO 01008KT 10SM CLR A3013 RMK MADISHF
DCU,2017-04-01 17:50,-86.9453,34.6525,M,M,M,0.00,0.00,M,30.13,M,10.00,M,CLR,M,M,M,M,M,M,M,M,KDCU 011750Z AUTO 00000KT 10SM CLR A3013 RMK MADISHF
DCU,2017-04-01 17:53,-86.9453,34.6525,64.00,48.00,55.99,M,M,0.00,30.13,1020.00,10.00,M,CLR,M,M,M,M,M,M,M,M,KDCU 011753Z AUTO 10SM CLR 18/09 A3013 RMK AO2 SLP200 T01780089 10178 20094 58007
DCU,2017-04-01 17:55,-86.9453,34.6525,M,M,M,M,M,M,30.13,M,10.00,M,CLR,M,M,M,M,M,M,M,M,KDCU 011755Z AUTO /////KT 10SM CLR A3013 RMK MADISHF
DCU,2017-04-01 18:00,-86.9453,34.6525,M,M,M,50.00,7.00,M,30.12,M,10.00,M,CLR,M,M,M,M,M,M,M,M,KDCU 011800Z AUTO 05007KT 10SM CLR A3012 RMK MADISHF
DCU,2017-04-01 18:05,-86.9453,34.6525,M,M,M,40.00,7.00,M,30.12,M,10.00,M,CLR,M,M,M,M,M,M,M,M,KDCU 011805Z AUTO 04007KT 10SM CLR A3012 RMK WND 36V07  MADISHF
DCU,2017-04-01 18:10,-86.9453,34.6525,M,M,M,30.00,6.00,M,30.12,M,10.00,M,CLR,M,M,M,M,M,M,M,M,KDCU 011810Z AUTO 03006KT 10SM CLR A3012 RMK MADISHF
DCU,2017-04-01 18:15,-86.9453,34.6525,M,M,M,40.00,5.00,M,30.12,M,10.00,M,CLR,M,M,M,M,M,M,M,M,KDCU 011815Z AUTO 04005KT 10SM CLR A3012 RMK MADISHF
DCU,2017-04-01 18:20,-86.9453,34.6525,M,M,M,340.00,6.00,M,30.12,M,10.00,M,CLR,M,M,M,M,M,M,M,M,KDCU 011820Z AUTO 34006KT 10SM CLR A3012 RMK MADISHF
DCU,2017-04-01 18:25,-86.9453,34.6525,M,M,M,360.00,7.00,M,30.12,M,10.00,M,CLR,M,M,M,M,M,M,M,M,KDCU 011825Z AUTO 36007KT 10SM CLR A3012 RMK MADISHF
DCU,2017-04-01 18:30,-86.9453,34.6525,M,M,M,350.00,5.00,M,30.12,M,10.00,M,CLR,M,M,M,M,M,M,M,M,KDCU 011830Z AUTO 35005KT 10SM CLR A3012 RMK VRB05KT  MADISHF
DCU,2017-04-01 18:35,-86.9453,34.6525,M,M,M,350.00,8.00,M,30.12,M,10.00,M,CLR,M,M,M,M,M,M,M,M,KDCU 011835Z AUTO 35008KT 10SM CLR A3012 RMK MADISHF
DCU,2017-04-01 18:40,-86.9453,34.6525,M,M,M,320.00,3.00,M,30.12,M,10.00,M,CLR,M,M,M,M,M,M,M,M,KDCU 011840Z AUTO 32003KT 10SM CLR A3012 RMK VRB03KT  MADISHF
DCU,2017-04-01 18:45,-86.9453,34.6525,M,M,M,330.00,6.00,M,30.12,M,10.00,M,CLR,M,M,M,M,M,M,M,M,KDCU 011845Z AUTO 33006KT 10SM CLR A3012 RMK MADISHF
DCU,2017-04-01 18:50,-86.9453,34.6525,M,M,M,360.00,5.00,M,30.12,M,10.00,M,CLR,M,M,M,M,M,M,M,M,KDCU 011850Z AUTO 36005KT 10SM CLR A3012 RMK VRB05KT  MADISHF
DCU,2017-04-01 18:53,-86.9453,34.6525,66.00,48.00,52.22,20.00,9.00,0.00,30.12,1019.60,10.00,M,CLR,M,M,M,M,M,M,M,M,KDCU 011853Z AUTO 02009KT 10SM CLR 19/09 A3012 RMK AO2 SLP196 T01890089
DCU,2017-04-01 18:55,-86.9453,34.6525,M,M,M,350.00,8.00,M,30.12,M,10.00,M,CLR,M,M,M,M,M,M,M,M,KDCU 011855Z AUTO 35008KT 10SM CLR A3012 RMK MADISHF
DCU,2017-04-01 19:00,-86.9453,34.6525,M,M,M,20.00,4.00,M,30.12,M,10.00,M,CLR,M,M,M,M,M,M,M,M,KDCU 011900Z AUTO 02004KT 10SM CLR A3012 RMK VRB04KT  MADISHF
DCU,2017-04-01 19:05,-86.9453,34.6525,M,M,M,M,M,M,30.12,M,10.00,M,CLR,M,M,M,M,M,M,M,M,KDCU 011905Z AUTO /////KT 10SM CLR A3012 RMK MADISHF
DCU,2017-04-01 19:10,-86.9453,34.6525,M,M,M,10.00,6.00,M,30.12,M,10.00,M,CLR,M,M,M,M,M,M,M,M,KDCU 011910Z AUTO 01006KT 10SM CLR A3012 RMK VRB06KT  MADISHF
DCU,2017-04-01 19:15,-86.9453,34.6525,M,M,M,360.00,7.00,M,30.12,M,10.00,M,CLR,M,M,M,M,M,M,M,M,KDCU 011915Z AUTO 36007KT 10SM CLR A3012 RMK MADISHF
DCU,2017-04-01 19:20,-86.9453,34.6525,M,M,M,360.00,4.00,M,30.12,M,10.00,M,CLR,M,M,M,M,M,M,M,M,KDCU 011920Z AUTO 36004KT 10SM CLR A3012 RMK VRB04KT  MADISHF
DCU,2017-04-01 19:25,-86.9453,34.6525,M,M,M,30.00,5.00,M,30.12,M,10.00,M,CLR,M,M,M,M,M,M,M,M,KDCU 011925Z AUTO 03005KT 10SM CLR A3012 RMK VRB05KT  MADISHF
DCU,2017-04-01 19:30,-86.9453,34.6525,M,M,M,330.00,7.00,M,30.11,M,10.00,M,CLR,M,M,M,M,M,M,M,M,KDCU 011930Z AUTO 33007KT 10SM CLR A3011 RMK MADISHF
DCU,2017-04-01 19:35,-86.9453,34.6525,M,M,M,10.00,6.00,M,30.11,M,10.00,M,CLR,M,M,M,M,M,M,M,M,KDCU 011935Z AUTO 01006KT 10SM CLR A3011 RMK MADISHF
DCU,2017-04-01 19:40,-86.9453,34.6525,M,M,M,40.00,6.00,M,30.11,M,10.00,M,CLR,M,M,M,M,M,M,M,M,KDCU 011940Z AUTO 04006KT 10SM CLR A3011 RMK MADISHF
DCU,2017-04-01 19:45,-86.9453,34.6525,M,M,M,360.00,7.00,M,30.11,M,10.00,M,CLR,M,M,M,M,M,M,M,M,KDCU 011945Z AUTO 36007KT 10SM CLR A3011 RMK MADISHF
DCU,2017-04-01 19:50,-86.9453,34.6525,M,M,M,20.00,7.00,M,30.11,M,10.00,M,CLR,M,M,M,M,M,M,M,M,KDCU 011950Z AUTO 02007KT 10SM CLR A3011 RMK MADISHF
DCU,2017-04-01 19:53,-86.9453,34.6525,68.00,48.90,50.40,350.00,7.00,0.00,30.10,1019.10,10.00,M,CLR,M,M,M,M,M,M,M,M,KDCU 011953Z AUTO 35007KT 320V050 10SM CLR 20/09 A3010 RMK AO2 SLP191 T02000094
DCU,2017-04-01 19:55,-86.9453,34.6525,M,M,M,10.00,6.00,M,30.10,M,10.00,M,CLR,M,M,M,M,M,M,M,M,KDCU 011955Z AUTO 01006KT 10SM CLR A3010 RMK MADISHF
DCU,2017-04-01 20:00,-86.9453,34.6525,M,M,M,10.00,6.00,M,30.10,M,10.00,M,CLR,M,M,M,M,M,M,M,M,KDCU 012000Z AUTO 01006KT 10SM CLR A3010 RMK MADISHF
DCU,2017-04-01 20:05,-86.9453,34.6525,M,M,M,10.00,9.00,M,30.10,M,10.00,M,CLR,M,M,M,M,M,M,M,M,KDCU 012005Z AUTO 01009KT 10SM CLR A3010 RMK MADISHF
DCU,2017-04-01 20:10,-86.9453,34.6525,M,M,M,350.00,5.00,M,30.10,M,10.00,M,CLR,M,M,M,M,M,M,M,M,KDCU 012010Z AUTO 35005KT 10SM CLR A3010 RMK MADISHF
DCU,2017-04-01 20:15,-86.9453,34.6525,M,M,M,30.00,8.00,M,30.10,M,10.00,M,CLR,M,M,M,M,M,M,M,M,KDCU 012015Z AUTO 03008KT 10SM CLR A3010 RMK MADISHF
DCU,2017-04-01 20:20,-86.9453,34.6525,M,M,M,20.00,6.00,M,30.10,M,10.00,M,CLR,M,M,M,M,M,M,M,M,KDCU 012020Z AUTO 02006KT 10SM CLR A3010 RMK MADISHF
DCU,2017-04-01 20:25,-86.9453,34.6525,M,M,M,330.00,6.00,M,30.10,M,10.00,M,CLR,M,M,M,M,M,M,M,M,KDCU 012025Z AUTO 33006KT 10SM CLR A3010 RMK MADISHF
DCU,2017-04-01 20:30,-86.9453,34.6525,M,M,M,20.00,6.00,M,30.10,M,10.00,M,CLR,M,M,M,M,M,M,M,M,KDCU 012030Z AUTO 02006KT 10SM CLR A3010 RMK MADISHF
DCU,2017-04-01 20:35,-86.9453,34.6525,M,M,M,320.00,5.00,M,30.10,M,10.00,M,CLR,M,M,M,M,M,M,M,M,KDCU 012035Z AUTO 32005KT 10SM CLR A3010 RMK MADISHF
DCU,2017-04-01 20:40,-86.9453,34.6525,M,M,M,340.00,8.00,M,30.10,M,10.00,M,CLR,M,M,M,M,M,M,M,M,KDCU 012040Z AUTO 34008KT 10SM CLR A3010 RMK MADISHF
DCU,2017-04-01 20:45,-86.9453,34.6525,M,M,M,330.00,6.00,M,30.10,M,10.00,M,CLR,M,M,M,M,M,M,M,M,KDCU 012045Z AUTO 33006KT 10SM CLR A3010 RMK MADISHF
DCU,2017-04-01 20:50,-86.9453,34.6525,M,M,M,320.00,4.00,M,30.10,M,10.00,M,CLR,M,M,M,M,M,M,M,M,KDCU 012050Z AUTO 32004KT 10SM CLR A3010 RMK MADISHF
DCU,2017-04-01 20:53,-86.9453,34.6525,69.10,48.90,48.53,10.00,5.00,0.00,30.10,1018.80,10.00,M,CLR,M,M,M,M,M,M,M,M,KDCU 012053Z AUTO 01005KT 10SM CLR 21/09 A3010 RMK AO2 SLP188 T02060094 56011
DCU,2017-04-01 20:55,-86.9453,34.6525,M,M,M,340.00,7.00,M,30.10,M,10.00,M,CLR,M,M,M,M,M,M,M,M,KDCU 012055Z AUTO 34007KT 10SM CLR A3010 RMK MADISHF
DCU,2017-04-01 21:00,-86.9453,34.6525,M,M,M,350.00,8.00,M,30.10,M,10.00,M,CLR,M,M,M,M,M,M,M,M,KDCU 012100Z AUTO 35008KT 10SM CLR A3010 RMK MADISHF
DCU,2017-04-01 21:05,-86.9453,34.6525,M,M,M,10.00,6.00,M,30.10,M,10.00,M,CLR,M,M,M,M,M,M,M,M,KDCU 012105Z AUTO 01006KT 10SM CLR A3010 RMK MADISHF
DCU,2017-04-01 21:10,-86.9453,34.6525,M,M,M,300.00,4.00,M,30.10,M,10.00,M,CLR,M,M,M,M,M,M,M,M,KDCU 012110Z AUTO 30004KT 10SM CLR A3010 RMK VRB04KT  MADISHF
DCU,2017-04-01 21:15,-86.9453,34.6525,M,M,M,350.00,4.00,M,30.10,M,10.00,M,CLR,M,M,M,M,M,M,M,M,KDCU 012115Z AUTO 35004KT 10SM CLR A3010 RMK MADISHF
DCU,2017-04-01 21:20,-86.9453,34.6525,M,M,M,340.00,6.00,M,30.10,M,10.00,M,CLR,M,M,M,M,M,M,M,M,KDCU 012120Z AUTO 34006KT 10SM CLR A3010 RMK MADISHF
DCU,2017-04-01 21:25,-86.9453,34.6525,M,M,M,350.00,5.00,M,30.10,M,10.00,M,CLR,M,M,M,M,M,M,M,M,KDCU 012125Z AUTO 35005KT 10SM CLR A3010 RMK MADISHF
DCU,2017-04-01 21:30,-86.9453,34.6525,M,M,M,350.00,7.00,M,30.10,M,10.00,M,CLR,M,M,M,M,M,M,M,M,KDCU 012130Z AUTO 35007KT 10SM CLR A3010 RMK MADISHF
DCU,2017-04-01 21:35,-86.9453,34.6525,M,M,M,350.00,6.00,M,30.10,M,10.00,M,CLR,M,M,M,M,M,M,M,M,KDCU 012135Z AUTO 35006KT 10SM CLR A3010 RMK MADISHF
DCU,2017-04-01 21:40,-86.9453,34.6525,M,M,M,20.00,4.00,M,30.10,M,10.00,M,CLR,M,M,M,M,M,M,M,M,KDCU 012140Z AUTO 02004KT 10SM CLR A3010 RMK VRB04KT  MADISHF
DCU,2017-04-01 21:45,-86.9453,34.6525,M,M,M,40.00,4.00,M,30.10,M,10.00,M,CLR,M,M,M,M,M,M,M,M,KDCU 012145Z AUTO 04004KT 10SM CLR A3010 RMK MADISHF
DCU,2017-04-01 21:50,-86.9453,34.6525,M,M,M,360.00,7.00,M,30.10,M,10.00,M,CLR,M,M,M,M,M,M,M,M,KDCU 012150Z AUTO 36007KT 10SM CLR A3010 RMK MADISHF
DCU,2017-04-01 21:53,-86.9453,34.6525,70.00,48.90,47.06,340.00,5.00,0.00,30.10,1019.10,10.00,M,CLR,M,M,M,M,M,M,M,M,KDCU 012153Z AUTO 34005KT 10SM CLR 21/09 A3010 RMK AO2 SLP191 T02110094
DCU,2017-04-01 21:55,-86.9453,34.6525,M,M,M,330.00,8.00,M,30.10,M,10.00,M,CLR,M,M,M,M,M,M,M,M,KDCU 012155Z AUTO 33008KT 10SM CLR A3010 RMK MADISHF
DCU,2017-04-01 22:00,-86.9453,34.6525,M,M,M,340.00,4.00,M,30.10,M,10.00,M,CLR,M,M,M,M,M,M,M,M,KDCU 012200Z AUTO 34004KT 10SM CLR A3010 RMK MADISHF
DCU,2017-04-01 22:05,-86.9453,34.6525,M,M,M,0.00,0.00,M,30.10,M,10.00,M,CLR,M,M,M,M,M,M,M,M,KDCU 012205Z AUTO 00000KT 10SM CLR A3010 RMK MADISHF
DCU,2017-04-01 22:10,-86.9453,34.6525,M,M,M,30.00,6.00,M,30.10,M,10.00,M,CLR,M,M,M,M,M,M,M,M,KDCU 012210Z AUTO 03006KT 10SM CLR A3010 RMK MADISHF
DCU,2017-04-01 22:15,-86.9453,34.6525,M,M,M,360.00,5.00,M,30.10,M,10.00,M,CLR,M,M,M,M,M,M,M,M,KDCU 012215Z AUTO 36005KT 10SM CLR A3010 RMK VRB05KT  MADISHF
DCU,2017-04-01 22:20,-86.9453,34.6525,M,M,M,10.00,8.00,M,30.10,M,10.00,M,CLR,M,M,M,M,M,M,M,M,KDCU 012220Z AUTO 01008KT 10SM CLR A3010 RMK MADISHF
DCU,2017-04-01 22:25,-86.9453,34.6525,M,M,M,330.00,5.00,M,30.10,M,10.00,M,CLR,M,M,M,M,M,M,M,M,KDCU 012225Z AUTO 33005KT 10SM CLR A3010 RMK MADISHF
DCU,2017-04-01 22:30,-86.9453,34.6525,M,M,M,350.00,6.00,M,30.10,M,10.00,M,CLR,M,M,M,M,M,M,M,M,KDCU 012230Z AUTO 35006KT 10SM CLR A3010 RMK MADISHF
DCU,2017-04-01 22:35,-86.9453,34.6525,M,M,M,20.00,6.00,M,30.10,M,10.00,M,CLR,M,M,M,M,M,M,M,M,KDCU 012235Z AUTO 02006KT 10SM CLR A3010 RMK MADISHF
DCU,2017-04-01 22:40,-86.9453,34.6525,M,M,M,10.00,5.00,M,30.10,M,10.00,M,CLR,M,M,M,M,M,M,M,M,KDCU 012240Z AUTO 01005KT 10SM CLR A3010 RMK MADISHF
DCU,2017-04-01 22:45,-86.9453,34.6525,M,M,M,350.00,5.00,M,30.10,M,10.00,M,CLR,M,M,M,M,M,M,M,M,KDCU 012245Z AUTO 35005KT 10SM CLR A3010 RMK MADISHF
DCU,2017-04-01 22:50,-86.9453,34.6525,M,M,M,20.00,5.00,M,30.10,M,10.00,M,CLR,M,M,M,M,M,M,M,M,KDCU 012250Z AUTO 02005KT 10SM CLR A3010 RMK VRB05KT  MADISHF
DCU,2017-04-01 22:53,-86.9453,34.6525,70.00,50.00,49.03,20.00,8.00,0.00,30.10,1019.00,10.00,M,CLR,M,M,M,M,M,M,M,M,KDCU 012253Z AUTO 02008KT 10SM CLR 21/10 A3010 RMK AO2 SLP190 T02110100
DCU,2017-04-01 22:55,-86.9453,34.6525,M,M,M,20.00,8.00,M,30.10,M,10.00,M,CLR,M,M,M,M,M,M,M,M,KDCU 012255Z AUTO 02008KT 10SM CLR A3010 RMK MADISHF
DCU,2017-04-01 23:00,-86.9453,34.6525,M,M,M,10.00,7.00,M,30.10,M,10.00,M,CLR,M,M,M,M,M,M,M,M,KDCU 012300Z AUTO 01007KT 10SM CLR A3010 RMK MADISHF
DCU,2017-04-01 23:05,-86.9453,34.6525,M,M,M,20.00,7.00,M,30.10,M,10.00,M,CLR,M,M,M,M,M,M,M,M,KDCU 012305Z AUTO 02007KT 10SM CLR A3010 RMK MADISHF
DCU,2017-04-01 23:10,-86.9453,34.6525,M,M,M,10.00,8.00,M,30.10,M,10.00,M,CLR,M,M,M,M,M,M,M,M,KDCU 012310Z AUTO 01008KT 10SM CLR A3010 RMK MADISHF
DCU,2017-04-01 23:15,-86.9453,34.6525,M,M,M,360.00,8.00,M,30.10,M,10.00,M,CLR,M,M,M,M,M,M,M,M,KDCU 012315Z AUTO 36008KT 10SM CLR A3010 RMK MADISHF
DCU,2017-04-01 23:20,-86.9453,34.6525,M,M,M,10.00,7.00,M,30.11,M,10.00,M,CLR,M,M,M,M,M,M,M,M,KDCU 012320Z AUTO 01007KT 10SM CLR A3011 RMK MADISHF
DCU,2017-04-01 23:25,-86.9453,34.6525,M,M,M,20.00,7.00,M,30.11,M,10.00,M,CLR,M,M,M,M,M,M,M,M,KDCU 012325Z AUTO 02007KT 10SM CLR A3011 RMK MADISHF
DCU,2017-04-01 23:30,-86.9453,34.6525,M,M,M,360.00,9.00,M,30.11,M,10.00,M,CLR,M,M,M,M,M,M,M,M,KDCU 012330Z AUTO 36009KT 10SM CLR A3011 RMK MADISHF
DCU,2017-04-01 23:35,-86.9453,34.6525,M,M,M,360.00,8.00,M,30.11,M,10.00,M,CLR,M,M,M,M,M,M,M,M,KDCU 012335Z AUTO 36008KT 10SM CLR A3011 RMK MADISHF
DCU,2017-04-01 23:40,-86.9453,34.6525,M,M,M,10.00,7.00,M,30.11,M,10.00,M,CLR,M,M,M,M,M,M,M,M,KDCU 012340Z AUTO 01007KT 10SM CLR A3011 RMK MADISHF
DCU,2017-04-01 23:45,-86.9453,34.6525,M,M,M,10.00,7.00,M,30.11,M,10.00,M,CLR,M,M,M,M,M,M,M,M,KDCU 012345Z AUTO 01007KT 10SM CLR A3011 RMK MADISHF
DCU,2017-04-01 23:50,-86.9453,34.6525,M,M,M,10.00,7.00,M,30.11,M,10.00,M,CLR,M,M,M,M,M,M,M,M,KDCU 012350Z AUTO 01007KT 10SM CLR A3011 RMK MADISHF
DCU,2017-04-01 23:53,-86.9453,34.6525,66.00,48.90,54.01,10.00,7.00,0.00,30.11,1019.40,10.00,M,CLR,M,M,M,M,M,M,M,M,KDCU 012353Z AUTO 01007KT 10SM CLR 19/09 A3011 RMK AO2 SLP194 T01890094 10217 20178 53005
DCU,2017-04-01 23:55,-86.9453,34.6525,M,M,M,10.00,7.00,M,30.11,M,10.00,M,CLR,M,M,M,M,M,M,M,M,KDCU 012355Z AUTO 01007KT 10SM CLR A3011 RMK MADISHF
