#DEBUG: Format Typ    -> comma
#DEBUG: Time Period   -> 2017-04-01 00:00:00+00:00 2017-04-02 00:00:00+00:00
#DEBUG: Time Zone     -> Etc/UTC
#DEBUG: Data Contact   -> daryl herzmann akrherz@iastate.edu 515-294-5978
#DEBUG: Entries Found -> -1
station,valid,lon,lat,tmpf, dwpf, relh, drct, sknt, p01i, alti, mslp, vsby, gust, skyc1, skyc2, skyc3, skyc4, skyl1, skyl2, skyl3, skyl4, presentwx, metar
DDH,2017-04-01 00:00,-73.2461,42.8912,M,M,M,M,M,0.01,29.88,M,4.00,18.00,FEW,BKN,OVC,M,2300.00,3500.00,4400.00,M,RA,KDDH 010000Z AUTO /////G18KT 4SM RA FEW023 BKN035 OVC044 A2988 RMK P0001 MADISHF
DDH,2017-04-01 00:05,-73.2461,42.8912,M,M,M,110.00,10.00,0.02,29.87,M,4.00,15.00,FEW,BKN,OVC,M,2300.00,3500.00,4600.00,M,RA,KDDH 010005Z AUTO 11010G15KT 4SM RA FEW023 BKN035 OVC046 A2987 RMK P0002 MADISHF
DDH,2017-04-01 00:10,-73.2461,42.8912,M,M,M,110.00,7.00,0.03,29.87,M,4.00,M,FEW,BKN,OVC,M,2300.00,3500.00,4400.00,M,RA,KDDH 010010Z AUTO 11007KT 4SM RA FEW023 BKN035 OVC044 A2987 RMK P0003 MADISHF
DDH,2017-04-01 00:15,-73.2461,42.8912,M,M,M,M,M,0.04,29.87,M,4.00,M,FEW,SCT,OVC,M,2300.00,3300.00,4300.00,M,RA,KDDH 010015Z AUTO /////KT 4SM RA FEW023 SCT033 OVC043 A2987 RMK P0004 MADISHF
DDH,2017-04-01 00:20,-73.2461,42.8912,M,M,M,100.00,7.00,0.04,29.86,M,5.00,M,FEW,BKN,OVC,M,2300.00,3500.00,4500.00,M,-RA,KDDH 010020Z AUTO 10007KT 5SM -RA FEW023 BKN035 OVC045 A2986 RMK P0004 WND 07V15  MADISHF
DDH,2017-04-01 00:25,-73.2461,42.8912,M,M,M,110.00,12.00,0.04,29.86,M,5.00,M,FEW,BKN,OVC,M,2300.00,3500.00,5000.00,M,-RA,KDDH 010025Z AUTO 11012KT 5SM -RA FEW023 BKN035 OVC050 A2986 RMK P0004 MADISHF
DDH,2017-04-01 00:30,-73.2461,42.8912,M,M,M,110.00,9.00,0.05,29.86,M,6.00,17.00,FEW,BKN,OVC,M,2400.00,3500.00,5000.00,M,-RA,KDDH 010030Z AUTO 11009G17KT 6SM -RA FEW024 BKN035 OVC050 A2986 RMK P0005 WND 07V16  MADISHF
DDH,2017-04-01 00:35,-73.2461,42.8912,M,M,M,100.00,9.00,0.06,29.87,M,5.00,M,FEW,BKN,OVC,M,2400.00,3500.00,5500.00,M,-RA,KDDH 010035Z AUTO 10009KT 5SM -RA FEW024 BKN035 OVC055 A2987 RMK P0006 WND 05V14  MADISHF
DDH,2017-04-01 00:40,-73.2461,42.8912,M,M,M,100.00,12.00,0.06,29.86,M,5.00,19.00,FEW,BKN,OVC,M,2400.00,3500.00,4400.00,M,RA,KDDH 010040Z AUTO 10012G19KT 5SM RA FEW024 BKN035 OVC044 A2986 RMK P0006 WND 05V14  MADISHF
DDH,2017-04-01 00:45,-73.2461,42.8912,M,M,M,M,M,0.07,29.86,M,5.00,M,FEW,BKN,OVC,M,2400.00,3500.00,4400.00,M,-RA,KDDH 010045Z AUTO /////KT 5SM -RA FEW024 BKN035 OVC044 A2986 RMK P0007 WND 08V15  MADISHF
DDH,2017-04-01 00:50,-73.2461,42.8912,M,M,M,100.00,11.00,0.07,29.86,M,6.00,17.00,FEW,SCT,OVC,M,2400.00,3500.00,4700.00,M,-RA,KDDH 010050Z AUTO 10011G17KT 6SM -RA FEW024 SCT035 OVC047 A2986 RMK P0007 WND 08V14  MADISHF
DDH,2017-04-01 00:54,-73.2461,42.8912,35.10,27.00,72.04,120.00,12.00,0.07,29.86,1011.70,6.00,25.00,FEW,SCT,OVC,M,2400.00,3500.00,4700.00,M,-RA,KDDH 010054Z AUTO 12012G25KT 100V160 6SM -RA FEW024 SCT035 OVC047 02/M03 A2986 RMK AO2 SLP117 P0007 T00171028
DDH,2017-04-01 00:55,-73.2461,42.8912,M,M,M,100.00,10.00,0.01,29.86,M,6.00,M,FEW,SCT,OVC,M,2400.00,3500.00,4700.00,M,-RA,KDDH 010055Z AUTO 10010KT 6SM -RA FEW024 SCT035 OVC047 A2986 RMK P0001 WND 07V13  MADISHF
DDH,2017-04-01 01:00,-73.2461,42.8912,M,M,M,M,M,0.01,29.86,M,7.00,22.00,FEW,BKN,OVC,M,2400.00,4700.00,6000.00,M,-RA,KDDH 010100Z AUTO /////G22KT 7SM -RA FEW024 BKN047 OVC060 A2986 RMK P0001 WND 08V17  MADISHF
DDH,2017-04-01 01:05,-73.2461,42.8912,M,M,M,100.00,12.00,0.01,29.85,M,6.00,18.00,FEW,BKN,OVC,M,3700.00,4900.00,6500.00,M,-RA,KDDH 010105Z AUTO 10012G18KT 6SM -RA FEW037 BKN049 OVC065 A2985 RMK P0001 WND 04V13  MADISHF
DDH,2017-04-01 01:10,-73.2461,42.8912,M,M,M,M,M,0.01,29.86,M,7.00,M,FEW,BKN,OVC,M,3700.00,4900.00,6500.00,M,-RA,KDDH 010110Z AUTO /////KT 7SM -RA FEW037 BKN049 OVC065 A2986 RMK P0001 MADISHF
DDH,2017-04-01 01:15,-73.2461,42.8912,M,M,M,110.00,10.00,0.01,29.85,M,7.00,M,FEW,BKN,OVC,M,3900.00,4900.00,6000.00,M,-RA,KDDH 010115Z AUTO 11010KT 7SM -RA FEW039 BKN049 OVC060 A2985 RMK P0001 WND 05V14  MADISHF
DDH,2017-04-01 01:20,-73.2461,42.8912,M,M,M,90.00,12.00,0.01,29.86,M,8.00,M,FEW,BKN,OVC,M,3999.00,4900.00,6000.00,M,-RA,KDDH 010120Z AUTO 09012KT 8SM -RA FEW039 BKN049 OVC060 A2986 RMK P0001 WND 06V15  MADISHF
DDH,2017-04-01 01:25,-73.2461,42.8912,M,M,M,110.00,10.00,0.02,29.86,M,8.00,18.00,FEW,BKN,OVC,M,4200.00,4900.00,6500.00,M,-RA,KDDH 010125Z AUTO 11010G18KT 8SM -RA FEW042 BKN049 OVC065 A2986 RMK P0002 MADISHF
DDH,2017-04-01 01:30,-73.2461,42.8912,M,M,M,M,M,0.02,29.86,M,6.00,M,FEW,BKN,OVC,M,4300.00,5000.00,6500.00,M,-RA,KDDH 010130Z AUTO /////KT 6SM -RA FEW043 BKN050 OVC065 A2986 RMK P0002 WND 07V13  MADISHF
DDH,2017-04-01 01:35,-73.2461,42.8912,M,M,M,M,M,0.03,29.86,M,5.00,M,FEW,OVC,M,M,3999.00,5000.00,M,M,-RA,KDDH 010135Z AUTO /////KT 5SM -RA FEW039 OVC050 A2986 RMK P0003 MADISHF
DDH,2017-04-01 01:40,-73.2461,42.8912,M,M,M,M,M,0.04,29.86,M,5.00,25.00,FEW,SCT,OVC,M,2400.00,3500.00,5000.00,M,-RA,KDDH 010140Z AUTO /////G25KT 5SM -RA FEW024 SCT035 OVC050 A2986 RMK P0004 MADISHF
DDH,2017-04-01 01:45,-73.2461,42.8912,M,M,M,100.00,8.00,0.04,29.86,M,5.00,M,SCT,BKN,OVC,M,3100.00,4900.00,5500.00,M,-RA,KDDH 010145Z AUTO 10008KT 5SM -RA SCT031 BKN049 OVC055 A2986 RMK P0004 MADISHF
DDH,2017-04-01 01:50,-73.2461,42.8912,M,M,M,M,M,0.05,29.85,M,5.00,M,FEW,BKN,OVC,M,2500.00,4900.00,5500.00,M,-RA,KDDH 010150Z AUTO /////KT 5SM -RA FEW025 BKN049 OVC055 A2985 RMK P0005 MADISHF
DDH,2017-04-01 01:54,-73.2461,42.8912,35.10,27.00,72.04,100.00,10.00,0.05,29.85,1011.50,5.00,20.00,FEW,SCT,OVC,M,2500.00,3500.00,5000.00,M,-RA,KDDH 010154Z AUTO 10010G20KT 5SM -RA FEW025 SCT035 OVC050 02/M03 A2985 RMK AO2 PK WND 12031/0139 SLP115 P0005 T00171028
DDH,2017-04-01 01:55,-73.2461,42.8912,M,M,M,100.00,8.00,M,29.85,M,5.00,M,FEW,SCT,OVC,M,2500.00,3500.00,5000.00,M,-RA,KDDH 010155Z AUTO 10008KT 5SM -RA FEW025 SCT035 OVC050 A2985 RMK WND 07V14  MADISHF
DDH,2017-04-01 02:00,-73.2461,42.8912,M,M,M,90.00,9.00,0.01,29.85,M,5.00,14.00,FEW,SCT,OVC,M,2500.00,3500.00,5000.00,M,-RA,KDDH 010200Z AUTO 09009G14KT 5SM -RA FEW025 SCT035 OVC050 A2985 RMK P0001 WND 05V13  MADISHF
DDH,2017-04-01 02:05,-73.2461,42.8912,M,M,M,M,M,0.02,29.84,M,5.00,20.00,FEW,SCT,OVC,M,2500.00,3500.00,5000.00,M,-RA,KDDH 010205Z AUTO /////G20KT 5SM -RA FEW025 SCT035 OVC050 A2984 RMK P0002 WND 07V15  MADISHF
DDH,2017-04-01 02:10,-73.2461,42.8912,M,M,M,90.00,8.00,0.02,29.84,M,5.00,M,FEW,FEW,OVC,M,2500.00,3600.00,5000.00,M,-RA,KDDH 010210Z AUTO 09008KT 5SM -RA FEW025 FEW036 OVC050 A2984 RMK P0002 WND 06V13  MADISHF
DDH,2017-04-01 02:15,-73.2461,42.8912,M,M,M,90.00,11.00,0.03,29.83,M,5.00,17.00,FEW,OVC,M,M,2500.00,5000.00,M,M,RA,KDDH 010215Z AUTO 09011G17KT 5SM RA FEW025 OVC050 A2983 RMK P0003 WND 06V13  MADISHF
DDH,2017-04-01 02:20,-73.2461,42.8912,M,M,M,M,M,0.04,29.83,M,4.00,M,FEW,OVC,M,M,2500.00,5000.00,M,M,RA,KDDH 010220Z AUTO /////KT 4SM RA FEW025 OVC050 A2983 RMK P0004 WND 09V18  MADISHF
DDH,2017-04-01 02:25,-73.2461,42.8912,M,M,M,M,M,0.05,29.83,M,4.00,21.00,FEW,OVC,M,M,2300.00,5000.00,M,M,-RA,KDDH 010225Z AUTO /////G21KT 4SM -RA FEW023 OVC050 A2983 RMK P0005 WND 05V13  MADISHF
DDH,2017-04-01 02:30,-73.2461,42.8912,M,M,M,M,M,0.06,29.83,M,5.00,M,FEW,OVC,M,M,2300.00,5500.00,M,M,-RA,KDDH 010230Z AUTO /////KT 5SM -RA FEW023 OVC055 A2983 RMK P0006 MADISHF
DDH,2017-04-01 02:35,-73.2461,42.8912,M,M,M,110.00,10.00,0.06,29.83,M,5.00,16.00,OVC,M,M,M,5500.00,M,M,M,-RA,KDDH 010235Z AUTO 11010G16KT 5SM -RA OVC055 A2983 RMK P0006 WND 08V15  MADISHF
DDH,2017-04-01 02:40,-73.2461,42.8912,M,M,M,M,M,0.07,29.83,M,5.00,22.00,FEW,OVC,M,M,5000.00,6000.00,M,M,-RA,KDDH 010240Z AUTO /////G22KT 5SM -RA FEW050 OVC060 A2983 RMK P0007 MADISHF
DDH,2017-04-01 02:45,-73.2461,42.8912,M,M,M,M,M,0.07,29.82,M,6.00,M,OVC,M,M,M,6000.00,M,M,M,-RA,KDDH 010245Z AUTO /////KT 6SM -RA OVC060 A2982 RMK P0007 MADISHF
DDH,2017-04-01 02:50,-73.2461,42.8912,M,M,M,M,M,0.07,29.82,M,6.00,18.00,OVC,M,M,M,6000.00,M,M,M,-RA,KDDH 010250Z AUTO /////G18KT 6SM -RA OVC060 A2982 RMK P0007 WND 06V12  MADISHF
DDH,2017-04-01 02:54,-73.2461,42.8912,35.10,26.10,69.41,110.00,15.00,0.08,29.82,1010.30,6.00,26.00,OVC,M,M,M,6000.00,M,M,M,-RA,KDDH 010254Z AUTO 11015G26KT 080V140 6SM -RA OVC060 02/M03 A2982 RMK AO2 PK WND 12027/0228 SLP103 P0008 60020 T00171033 58020
DDH,2017-04-01 02:55,-73.2461,42.8912,M,M,M,M,M,M,29.82,M,6.00,M,OVC,M,M,M,6000.00,M,M,M,-RA,KDDH 010255Z AUTO /////KT 6SM -RA OVC060 A2982 RMK WND 08V14  MADISHF
DDH,2017-04-01 03:00,-73.2461,42.8912,M,M,M,100.00,8.00,M,29.81,M,6.00,M,OVC,M,M,M,6500.00,M,M,M,-RA,KDDH 010300Z AUTO 10008KT 6SM -RA OVC065 A2981 RMK WND 07V13  MADISHF
DDH,2017-04-01 03:05,-73.2461,42.8912,M,M,M,M,M,0.01,29.81,M,6.00,25.00,OVC,M,M,M,6500.00,M,M,M,-RA,KDDH 010305Z AUTO /////G25KT 6SM -RA OVC065 A2981 RMK P0001 MADISHF
DDH,2017-04-01 03:10,-73.2461,42.8912,M,M,M,M,M,0.01,29.80,M,6.00,M,OVC,M,M,M,6500.00,M,M,M,-RA,KDDH 010310Z AUTO /////KT 6SM -RA OVC065 A2980 RMK P0001 MADISHF
DDH,2017-04-01 03:15,-73.2461,42.8912,M,M,M,110.00,9.00,0.02,29.80,M,5.00,18.00,OVC,M,M,M,6000.00,M,M,M,RA,KDDH 010315Z AUTO 11009G18KT 5SM RA OVC060 A2980 RMK P0002 MADISHF
DDH,2017-04-01 03:20,-73.2461,42.8912,M,M,M,M,M,0.03,29.81,M,5.00,M,OVC,M,M,M,6000.00,M,M,M,-RA,KDDH 010320Z AUTO /////KT 5SM -RA OVC060 A2981 RMK P0003 MADISHF
DDH,2017-04-01 03:25,-73.2461,42.8912,M,M,M,M,M,0.04,29.81,M,5.00,M,FEW,OVC,M,M,4400.00,6000.00,M,M,FZRA,KDDH 010325Z AUTO /////KT 5SM FZRA FEW044 OVC060 A2981 RMK P0004 WND 08V16  MADISHF
DDH,2017-04-01 03:30,-73.2461,42.8912,M,M,M,80.00,6.00,0.05,29.82,M,4.00,M,FEW,FEW,OVC,M,3999.00,4700.00,6000.00,M,FZRA,KDDH 010330Z AUTO 08006KT 4SM FZRA FEW039 FEW047 OVC060 A2982 RMK P0005 MADISHF
DDH,2017-04-01 03:31,-73.2461,42.8912,34.00,27.00,75.26,90.00,8.00,0.06,29.82,M,4.00,21.00,FEW,SCT,OVC,M,4000.00,4700.00,6000.00,M,FZRA,KDDH 010331Z AUTO 09008G21KT 060V130 4SM FZRA FEW040 SCT047 OVC060 01/M03 A2982 RMK AO2 PK WND 10031/0309 RAE25FZRAB25 P0006 I1001 T00111028
DDH,2017-04-01 03:35,-73.2461,42.8912,M,M,M,120.00,7.00,0.07,29.81,M,3.00,M,FEW,OVC,M,M,3999.00,5500.00,M,M,FZRA,KDDH 010335Z AUTO 12007KT 3SM FZRA FEW039 OVC055 A2981 RMK P0007 WND 07V16  MADISHF
DDH,2017-04-01 03:40,-73.2461,42.8912,M,M,M,100.00,7.00,0.09,29.81,M,3.00,M,FEW,OVC,M,M,3999.00,5500.00,M,M,FZRA,KDDH 010340Z AUTO 10007KT 3SM FZRA FEW039 OVC055 A2981 RMK P0009 WND 07V13  MADISHF
DDH,2017-04-01 03:45,-73.2461,42.8912,M,M,M,110.00,14.00,0.10,29.81,M,3.00,20.00,FEW,OVC,M,M,4300.00,5500.00,M,M,FZRA,KDDH 010345Z AUTO 11014G20KT 3SM FZRA FEW043 OVC055 A2981 RMK P0010 MADISHF
DDH,2017-04-01 03:50,-73.2461,42.8912,M,M,M,M,M,0.12,29.82,M,3.00,M,FEW,OVC,M,M,4300.00,5500.00,M,M,FZRA,KDDH 010350Z AUTO /////KT 3SM FZRA FEW043 OVC055 A2982 RMK P0012 MADISHF
DDH,2017-04-01 03:54,-73.2461,42.8912,35.10,27.00,72.04,110.00,9.00,0.13,29.82,1010.30,3.00,24.00,FEW,BKN,OVC,M,2500.00,4900.00,5500.00,M,FZRA,KDDH 010354Z AUTO 11009G24KT 3SM FZRA FEW025 BKN049 OVC055 02/M03 A2982 RMK AO2 PK WND 10031/0309 RAE25FZRAB25 SLP103 P0013 I1002 T00171028
DDH,2017-04-01 03:55,-73.2461,42.8912,M,M,M,100.00,8.00,0.01,29.82,M,3.00,M,FEW,BKN,OVC,M,2500.00,4900.00,5500.00,M,FZRA,KDDH 010355Z AUTO 10008KT 3SM FZRA FEW025 BKN049 OVC055 A2982 RMK P0001 MADISHF
DDH,2017-04-01 04:00,-73.2461,42.8912,M,M,M,M,M,0.02,29.82,M,3.50,M,FEW,BKN,OVC,M,2700.00,4400.00,5500.00,M,FZRA,KDDH 010400Z AUTO /////KT 3SM FZRA FEW027 BKN044 OVC055 A2982 RMK P0002 MADISHF
DDH,2017-04-01 04:05,-73.2461,42.8912,M,M,M,M,M,0.03,29.82,M,4.00,M,FEW,BKN,OVC,M,2500.00,4400.00,5500.00,M,FZRA,KDDH 010405Z AUTO /////KT 4SM FZRA FEW025 BKN044 OVC055 A2982 RMK P0003 MADISHF
DDH,2017-04-01 04:10,-73.2461,42.8912,M,M,M,M,M,0.04,29.82,M,4.00,M,FEW,BKN,OVC,M,2700.00,4200.00,5500.00,M,FZRA,KDDH 010410Z AUTO /////KT 4SM FZRA FEW027 BKN042 OVC055 A2982 RMK P0004 MADISHF
DDH,2017-04-01 04:15,-73.2461,42.8912,M,M,M,M,M,0.04,29.82,M,5.00,18.00,FEW,BKN,OVC,M,2500.00,4200.00,4900.00,M,-FZRA,KDDH 010415Z AUTO /////G18KT 5SM -FZRA FEW025 BKN042 OVC049 A2982 RMK P0004 MADISHF
DDH,2017-04-01 04:17,-73.2461,42.8912,35.10,27.00,72.04,120.00,14.00,0.04,29.83,M,5.00,25.00,SCT,BKN,OVC,M,2800.00,4200.00,5500.00,M,-FZRA,KDDH 010417Z AUTO 12014G25KT 070V130 5SM -FZRA SCT028 BKN042 OVC055 02/M03 A2983 RMK AO2 PK WND 14026/0406 P0004 I1001 T00171028
DDH,2017-04-01 04:20,-73.2461,42.8912,M,M,M,M,M,0.05,29.82,M,5.00,M,SCT,OVC,M,M,2800.00,3999.00,M,M,-FZRA,KDDH 010420Z AUTO /////KT 5SM -FZRA SCT028 OVC039 A2982 RMK P0005 MADISHF
DDH,2017-04-01 04:25,-73.2461,42.8912,M,M,M,M,M,0.05,29.82,M,5.00,19.00,SCT,OVC,M,M,2800.00,3999.00,M,M,-FZRA,KDDH 010425Z AUTO /////G19KT 5SM -FZRA SCT028 OVC039 A2982 RMK P0005 WND 08V16  MADISHF
DDH,2017-04-01 04:30,-73.2461,42.8912,M,M,M,M,M,0.06,29.82,M,5.00,M,FEW,BKN,OVC,M,2800.00,3500.00,4200.00,M,-FZRA,KDDH 010430Z AUTO /////KT 5SM -FZRA FEW028 BKN035 OVC042 A2982 RMK P0006 MADISHF
DDH,2017-04-01 04:35,-73.2461,42.8912,M,M,M,M,M,0.06,29.82,M,5.00,M,SCT,OVC,M,M,3000.00,3900.00,M,M,FZRA,KDDH 010435Z AUTO /////KT 5SM FZRA SCT030 OVC039 A2982 RMK P0006 MADISHF
DDH,2017-04-01 04:39,-73.2461,42.8912,35.10,27.00,72.04,120.00,11.00,0.07,29.82,M,4.00,18.00,SCT,OVC,M,M,2800.00,3900.00,M,M,FZRA,KDDH 010439Z AUTO 12011G18KT 4SM FZRA SCT028 OVC039 02/M03 A2982 RMK AO2 PK WND 14026/0406 P0007 I1001 T00171028
DDH,2017-04-01 04:40,-73.2461,42.8912,M,M,M,130.00,9.00,0.07,29.82,M,4.00,M,SCT,BKN,OVC,M,2800.00,3900.00,4700.00,M,FZRA,KDDH 010440Z AUTO 13009KT 4SM FZRA SCT028 BKN039 OVC047 A2982 RMK P0007 MADISHF
DDH,2017-04-01 04:45,-73.2461,42.8912,M,M,M,130.00,9.00,0.08,29.82,M,4.00,M,SCT,BKN,OVC,M,2800.00,3900.00,4600.00,M,FZRA,KDDH 010445Z AUTO 13009KT 4SM FZRA SCT028 BKN039 OVC046 A2982 RMK P0008 MADISHF
DDH,2017-04-01 04:50,-73.2461,42.8912,M,M,M,110.00,7.00,0.09,29.82,M,4.00,M,SCT,SCT,OVC,M,2800.00,3500.00,4300.00,M,FZRA,KDDH 010450Z AUTO 11007KT 4SM FZRA SCT028 SCT035 OVC043 A2982 RMK P0009 MADISHF
DDH,2017-04-01 04:54,-73.2461,42.8912,35.10,27.00,72.04,110.00,11.00,0.09,29.82,1010.30,5.00,M,SCT,OVC,M,M,2800.00,4300.00,M,M,-FZRA,KDDH 010454Z AUTO 11011KT 5SM -FZRA SCT028 OVC043 02/M03 A2982 RMK AO2 PK WND 14026/0406 SLP103 P0009 I1001 T00171028 400280006
DDH,2017-04-01 04:55,-73.2461,42.8912,M,M,M,M,M,M,29.82,M,5.00,M,SCT,OVC,M,M,2800.00,4300.00,M,M,-FZRA,KDDH 010455Z AUTO /////KT 5SM -FZRA SCT028 OVC043 A2982 RMK MADISHF
DDH,2017-04-01 05:00,-73.2461,42.8912,M,M,M,100.00,8.00,0.02,29.82,M,5.00,M,SCT,OVC,M,M,2800.00,4300.00,M,M,FZRA,KDDH 010500Z AUTO 10008KT 5SM FZRA SCT028 OVC043 A2982 RMK P0002 MADISHF
DDH,2017-04-01 05:02,-73.2461,42.8912,35.10,28.00,75.06,110.00,7.00,0.02,29.82,M,5.00,17.00,SCT,OVC,M,M,2800.00,4300.00,M,M,FZRA,KDDH 010502Z AUTO 11007G17KT 5SM FZRA SCT028 OVC043 02/M02 A2982 RMK AO2 P0002 I1000 T00171022
DDH,2017-04-01 05:05,-73.2461,42.8912,M,M,M,M,M,0.02,29.82,M,4.00,19.00,FEW,OVC,M,M,2800.00,4300.00,M,M,FZRA,KDDH 010505Z AUTO /////G19KT 4SM FZRA FEW028 OVC043 A2982 RMK P0002 MADISHF
DDH,2017-04-01 05:10,-73.2461,42.8912,M,M,M,100.00,7.00,0.03,29.82,M,4.00,M,FEW,OVC,M,M,2800.00,4300.00,M,M,FZRA,KDDH 010510Z AUTO 10007KT 4SM FZRA FEW028 OVC043 A2982 RMK P0003 WND 05V13  MADISHF
DDH,2017-04-01 05:15,-73.2461,42.8912,M,M,M,110.00,6.00,0.04,29.82,M,4.00,M,FEW,OVC,M,M,2800.00,4300.00,M,M,FZRA,KDDH 010515Z AUTO 11006KT 4SM FZRA FEW028 OVC043 A2982 RMK P0004 MADISHF
DDH,2017-04-01 05:20,-73.2461,42.8912,M,M,M,M,M,0.05,29.81,M,4.00,16.00,FEW,OVC,M,M,2800.00,4400.00,M,M,FZRA,KDDH 010520Z AUTO /////G16KT 4SM FZRA FEW028 OVC044 A2981 RMK P0005 MADISHF
DDH,2017-04-01 05:25,-73.2461,42.8912,M,M,M,100.00,4.00,0.06,29.81,M,4.00,M,SCT,OVC,M,M,2800.00,4400.00,M,M,FZRA,KDDH 010525Z AUTO 10004KT 4SM FZRA SCT028 OVC044 A2981 RMK P0006 VRB04G16KT  MADISHF
DDH,2017-04-01 05:30,-73.2461,42.8912,M,M,M,120.00,5.00,0.06,29.81,M,4.00,M,SCT,OVC,M,M,2800.00,4400.00,M,M,-FZRA,KDDH 010530Z AUTO 12005KT 4SM -FZRA SCT028 OVC044 A2981 RMK P0006 MADISHF
DDH,2017-04-01 05:32,-73.2461,42.8912,34.00,28.00,78.43,M,6.00,0.06,29.81,M,4.00,M,SCT,OVC,M,M,2800.00,4400.00,M,M,-FZRA,KDDH 010532Z AUTO VRB06KT 4SM -FZRA SCT028 OVC044 01/M02 A2981 RMK AO2 P0006 I1001 T00111022
DDH,2017-04-01 05:35,-73.2461,42.8912,M,M,M,110.00,7.00,0.06,29.81,M,5.00,M,SCT,OVC,M,M,2800.00,4400.00,M,M,-FZRA,KDDH 010535Z AUTO 11007KT 5SM -FZRA SCT028 OVC044 A2981 RMK P0006 MADISHF
DDH,2017-04-01 05:40,-73.2461,42.8912,M,M,M,150.00,4.00,0.07,29.81,M,6.00,M,SCT,OVC,M,M,2800.00,4200.00,M,M,-RA,KDDH 010540Z AUTO 15004KT 6SM -RA SCT028 OVC042 A2981 RMK P0007 VRB04KT  MADISHF
DDH,2017-04-01 05:42,-73.2461,42.8912,34.00,28.00,78.43,M,4.00,0.07,29.81,M,7.00,M,SCT,OVC,M,M,2800.00,4200.00,M,M,-RA,KDDH 010542Z AUTO VRB04KT 7SM -RA SCT028 OVC042 01/M02 A2981 RMK AO2 RAB36FZRAE36 P0007 I1001 T00111022
DDH,2017-04-01 05:45,-73.2461,42.8912,M,M,M,110.00,3.00,0.07,29.81,M,9.00,M,SCT,OVC,M,M,2800.00,4200.00,M,M,-RA,KDDH 010545Z AUTO 11003KT 9SM -RA SCT028 OVC042 A2981 RMK P0007 VRB03KT  MADISHF
DDH,2017-04-01 05:50,-73.2461,42.8912,M,M,M,0.00,0.00,0.07,29.81,M,10.00,M,SCT,OVC,M,M,2800.00,4200.00,M,M,UP,KDDH 010550Z AUTO 00000KT 10SM UP SCT028 OVC042 A2981 RMK P0007 MADISHF
DDH,2017-04-01 05:54,-73.2461,42.8912,35.10,28.00,75.06,M,M,0.07,29.81,1010.00,10.00,M,SCT,OVC,M,M,2800.00,4200.00,M,M,UP,KDDH 010554Z AUTO 10SM UP SCT028 OVC042 02/M02 A2981 RMK AO2 RAB36E48UPB48FZRAE36 SLP100 P0007 60049 I1001 I6004 T00171022 10017 20011 58003
DDH,2017-04-01 05:55,-73.2461,42.8912,M,M,M,M,M,0.00,29.81,M,10.00,M,SCT,OVC,M,M,2800.00,4200.00,M,M,UP,KDDH 010555Z AUTO /////KT 10SM UP SCT028 OVC042 A2981 RMK P0000 MADISHF
DDH,2017-04-01 06:00,-73.2461,42.8912,M,M,M,90.00,5.00,0.00,29.81,M,10.00,M,SCT,OVC,M,M,2800.00,4200.00,M,M,UP,KDDH 010600Z AUTO 09005KT 10SM UP SCT028 OVC042 A2981 RMK P0000 VRB05KT  MADISHF
DDH,2017-04-01 06:05,-73.2461,42.8912,M,M,M,90.00,5.00,0.00,29.80,M,10.00,M,SCT,OVC,M,M,2800.00,4200.00,M,M,UP,KDDH 010605Z AUTO 09005KT 10SM UP SCT028 OVC042 A2980 RMK P0000 VRB05KT  MADISHF
DDH,2017-04-01 06:10,-73.2461,42.8912,M,M,M,130.00,3.00,M,29.80,M,10.00,M,SCT,OVC,M,M,2800.00,4200.00,M,M,-RA,KDDH 010610Z AUTO 13003KT 10SM -RA SCT028 OVC042 A2980 RMK VRB03KT  MADISHF
DDH,2017-04-01 06:15,-73.2461,42.8912,M,M,M,110.00,5.00,M,29.80,M,10.00,M,SCT,BKN,OVC,M,2800.00,3399.00,4200.00,M,-RA,KDDH 010615Z AUTO 11005KT 10SM -RA SCT028 BKN033 OVC042 A2980 RMK MADISHF
DDH,2017-04-01 06:20,-73.2461,42.8912,M,M,M,110.00,5.00,M,29.80,M,10.00,M,SCT,BKN,OVC,M,2800.00,3300.00,4200.00,M,-RA,KDDH 010620Z AUTO 11005KT 10SM -RA SCT028 BKN033 OVC042 A2980 RMK VRB05KT  MADISHF
DDH,2017-04-01 06:25,-73.2461,42.8912,M,M,M,120.00,8.00,M,29.80,M,10.00,M,SCT,BKN,OVC,M,2800.00,3300.00,4200.00,M,-RA,KDDH 010625Z AUTO 12008KT 10SM -RA SCT028 BKN033 OVC042 A2980 RMK WND 08V15  MADISHF
DDH,2017-04-01 06:30,-73.2461,42.8912,M,M,M,80.00,5.00,M,29.79,M,10.00,M,FEW,BKN,OVC,M,2800.00,3200.00,4200.00,M,-RA,KDDH 010630Z AUTO 08005KT 10SM -RA FEW028 BKN032 OVC042 A2979 RMK VRB05KT  MADISHF
DDH,2017-04-01 06:35,-73.2461,42.8912,M,M,M,100.00,4.00,M,29.80,M,10.00,M,BKN,BKN,OVC,M,3000.00,3500.00,4200.00,M,-RA,KDDH 010635Z AUTO 10004KT 10SM -RA BKN030 BKN035 OVC042 A2980 RMK VRB04KT  MADISHF
DDH,2017-04-01 06:40,-73.2461,42.8912,M,M,M,120.00,8.00,0.00,29.80,M,10.00,M,SCT,BKN,OVC,M,3000.00,3500.00,4200.00,M,UP,KDDH 010640Z AUTO 12008KT 10SM UP SCT030 BKN035 OVC042 A2980 RMK P0000 MADISHF
DDH,2017-04-01 06:45,-73.2461,42.8912,M,M,M,90.00,10.00,M,29.80,M,10.00,M,SCT,OVC,M,M,2900.00,4200.00,M,M,-RA,KDDH 010645Z AUTO 09010KT 10SM -RA SCT029 OVC042 A2980 RMK MADISHF
DDH,2017-04-01 06:50,-73.2461,42.8912,M,M,M,100.00,7.00,M,29.80,M,10.00,M,SCT,OVC,M,M,2900.00,4200.00,M,M,-RA,KDDH 010650Z AUTO 10007KT 10SM -RA SCT029 OVC042 A2980 RMK MADISHF
DDH,2017-04-01 06:54,-73.2461,42.8912,35.10,27.00,72.04,M,4.00,0.00,29.80,1009.60,10.00,M,SCT,OVC,M,M,2900.00,4200.00,M,M,M,KDDH 010654Z AUTO VRB04KT 10SM SCT029 OVC042 02/M03 A2980 RMK AO2 UPE09B37E41RAB09E51 SLP096 P0000 T00171028
DDH,2017-04-01 06:55,-73.2461,42.8912,M,M,M,90.00,4.00,0.00,29.79,M,10.00,M,SCT,OVC,M,M,2900.00,4200.00,M,M,UP,KDDH 010655Z AUTO 09004KT 10SM UP SCT029 OVC042 A2979 RMK P0000 VRB04KT  MADISHF
DDH,2017-04-01 07:00,-73.2461,42.8912,M,M,M,M,M,0.00,29.79,M,10.00,M,SCT,OVC,M,M,2900.00,4200.00,M,M,UP,KDDH 010700Z AUTO /////KT 10SM UP SCT029 OVC042 A2979 RMK P0000 MADISHF
DDH,2017-04-01 07:05,-73.2461,42.8912,M,M,M,100.00,5.00,0.00,29.79,M,10.00,M,SCT,SCT,OVC,M,2900.00,3399.00,4200.00,M,UP,KDDH 010705Z AUTO 10005KT 10SM UP SCT029 SCT033 OVC042 A2979 RMK P0000 MADISHF
DDH,2017-04-01 07:10,-73.2461,42.8912,M,M,M,110.00,5.00,0.00,29.79,M,10.00,M,SCT,OVC,M,M,2900.00,4100.00,M,M,UP,KDDH 010710Z AUTO 11005KT 10SM UP SCT029 OVC041 A2979 RMK P0000 VRB05G17KT  MADISHF
DDH,2017-04-01 07:15,-73.2461,42.8912,M,M,M,100.00,11.00,M,29.79,M,10.00,18.00,SCT,OVC,M,M,2900.00,4100.00,M,M,M,KDDH 010715Z AUTO 10011G18KT 10SM SCT029 OVC041 A2979 RMK MADISHF
DDH,2017-04-01 07:20,-73.2461,42.8912,M,M,M,100.00,6.00,M,29.79,M,10.00,M,SCT,OVC,M,M,2900.00,3900.00,M,M,M,KDDH 010720Z AUTO 10006KT 10SM SCT029 OVC039 A2979 RMK MADISHF
DDH,2017-04-01 07:25,-73.2461,42.8912,M,M,M,110.00,6.00,M,29.79,M,10.00,M,SCT,OVC,M,M,2900.00,3900.00,M,M,M,KDDH 010725Z AUTO 11006KT 10SM SCT029 OVC039 A2979 RMK VRB06G15KT  MADISHF
DDH,2017-04-01 07:30,-73.2461,42.8912,M,M,M,90.00,7.00,M,29.79,M,10.00,M,FEW,OVC,M,M,2800.00,3900.00,M,M,M,KDDH 010730Z AUTO 09007KT 10SM FEW028 OVC039 A2979 RMK WND 05V12  MADISHF
DDH,2017-04-01 07:35,-73.2461,42.8912,M,M,M,120.00,6.00,M,29.79,M,10.00,M,SCT,OVC,M,M,2800.00,3900.00,M,M,M,KDDH 010735Z AUTO 12006KT 10SM SCT028 OVC039 A2979 RMK MADISHF
DDH,2017-04-01 07:40,-73.2461,42.8912,M,M,M,80.00,3.00,M,29.78,M,10.00,M,SCT,OVC,M,M,2800.00,3900.00,M,M,M,KDDH 010740Z AUTO 08003KT 10SM SCT028 OVC039 A2978 RMK VRB03G15KT  MADISHF
DDH,2017-04-01 07:45,-73.2461,42.8912,M,M,M,130.00,5.00,M,29.78,M,10.00,M,SCT,OVC,M,M,2800.00,3900.00,M,M,M,KDDH 010745Z AUTO 13005KT 10SM SCT028 OVC039 A2978 RMK MADISHF
DDH,2017-04-01 07:50,-73.2461,42.8912,M,M,M,120.00,7.00,M,29.78,M,10.00,M,BKN,OVC,M,M,2800.00,3900.00,M,M,M,KDDH 010750Z AUTO 12007KT 10SM BKN028 OVC039 A2978 RMK WND 09V15  MADISHF
DDH,2017-04-01 07:54,-73.2461,42.8912,36.00,27.00,69.51,130.00,9.00,0.00,29.78,1009.10,10.00,M,BKN,OVC,M,M,2800.00,3900.00,M,M,M,KDDH 010754Z AUTO 13009KT 050V170 10SM BKN028 OVC039 02/M03 A2978 RMK AO2 UPB0655E13 SLP091 P0000 T00221028
DDH,2017-04-01 07:55,-73.2461,42.8912,M,M,M,110.00,7.00,M,29.78,M,10.00,M,BKN,OVC,M,M,2800.00,3900.00,M,M,M,KDDH 010755Z AUTO 11007KT 10SM BKN028 OVC039 A2978 RMK WND 05V14  MADISHF
DDH,2017-04-01 08:00,-73.2461,42.8912,M,M,M,110.00,9.00,M,29.78,M,10.00,M,BKN,OVC,M,M,2800.00,3900.00,M,M,-RA,KDDH 010800Z AUTO 11009KT 10SM -RA BKN028 OVC039 A2978 RMK MADISHF
DDH,2017-04-01 08:05,-73.2461,42.8912,M,M,M,140.00,6.00,M,29.78,M,10.00,M,BKN,OVC,M,M,2800.00,3700.00,M,M,-RA,KDDH 010805Z AUTO 14006KT 10SM -RA BKN028 OVC037 A2978 RMK MADISHF
DDH,2017-04-01 08:10,-73.2461,42.8912,M,M,M,0.00,0.00,M,29.78,M,10.00,M,BKN,OVC,M,M,2800.00,3900.00,M,M,M,KDDH 010810Z AUTO 00000KT 10SM BKN028 OVC039 A2978 RMK MADISHF
DDH,2017-04-01 08:15,-73.2461,42.8912,M,M,M,140.00,3.00,M,29.78,M,10.00,M,BKN,OVC,M,M,2800.00,3900.00,M,M,M,KDDH 010815Z AUTO 14003KT 10SM BKN028 OVC039 A2978 RMK VRB03KT  MADISHF
DDH,2017-04-01 08:20,-73.2461,42.8912,M,M,M,140.00,3.00,M,29.78,M,10.00,M,BKN,OVC,M,M,2800.00,3900.00,M,M,-RA,KDDH 010820Z AUTO 14003KT 10SM -RA BKN028 OVC039 A2978 RMK VRB03KT  MADISHF
DDH,2017-04-01 08:25,-73.2461,42.8912,M,M,M,150.00,3.00,M,29.78,M,10.00,M,BKN,OVC,M,M,2800.00,3900.00,M,M,-RA,KDDH 010825Z AUTO 15003KT 10SM -RA BKN028 OVC039 A2978 RMK VRB03KT  MADISHF
DDH,2017-04-01 08:30,-73.2461,42.8912,M,M,M,130.00,4.00,M,29.78,M,10.00,M,SCT,OVC,M,M,2800.00,3900.00,M,M,-RA,KDDH 010830Z AUTO 13004KT 10SM -RA SCT028 OVC039 A2978 RMK MADISHF
DDH,2017-04-01 08:35,-73.2461,42.8912,35.10,28.00,75.06,M,3.00,0.00,29.78,M,10.00,M,SCT,OVC,M,M,2800.00,3900.00,M,M,-RA,KDDH 010835Z AUTO VRB03KT 10SM -RA SCT028 OVC039 02/M02 A2978 RMK AO2 RAB0759 P0000 T00171022
DDH,2017-04-01 08:40,-73.2461,42.8912,M,M,M,0.00,0.00,M,29.78,M,10.00,M,SCT,OVC,M,M,2800.00,3900.00,M,M,M,KDDH 010840Z AUTO 00000KT 10SM SCT028 OVC039 A2978 RMK MADISHF
DDH,2017-04-01 08:45,-73.2461,42.8912,M,M,M,0.00,0.00,M,29.78,M,10.00,M,SCT,OVC,M,M,2700.00,3900.00,M,M,M,KDDH 010845Z AUTO 00000KT 10SM SCT027 OVC039 A2978 RMK MADISHF
DDH,2017-04-01 08:50,-73.2461,42.8912,M,M,M,310.00,3.00,M,29.78,M,10.00,M,FEW,OVC,M,M,2700.00,3900.00,M,M,M,KDDH 010850Z AUTO 31003KT 10SM FEW027 OVC039 A2978 RMK MADISHF
DDH,2017-04-01 08:54,-73.2461,42.8912,34.00,28.90,81.37,0.00,0.00,0.00,29.78,1009.10,10.00,M,SCT,OVC,M,M,2700.00,3900.00,M,M,M,KDDH 010854Z AUTO 00000KT 10SM SCT027 OVC039 01/M02 A2978 RMK AO2 RAB0759E38 SLP091 P0000 60000 T00111017 56009
DDH,2017-04-01 08:55,-73.2461,42.8912,M,M,M,0.00,0.00,M,29.78,M,10.00,M,SCT,OVC,M,M,2700.00,3999.00,M,M,M,KDDH 010855Z AUTO 00000KT 10SM SCT027 OVC039 A2978 RMK MADISHF
DDH,2017-04-01 09:00,-73.2461,42.8912,M,M,M,0.00,0.00,M,29.78,M,10.00,M,SCT,OVC,M,M,2700.00,3999.00,M,M,M,KDDH 010900Z AUTO 00000KT 10SM SCT027 OVC039 A2978 RMK MADISHF
DDH,2017-04-01 09:05,-73.2461,42.8912,M,M,M,360.00,3.00,M,29.78,M,10.00,M,SCT,OVC,M,M,2700.00,4200.00,M,M,M,KDDH 010905Z AUTO 36003KT 10SM SCT027 OVC042 A2978 RMK MADISHF
DDH,2017-04-01 09:10,-73.2461,42.8912,M,M,M,0.00,0.00,M,29.78,M,10.00,M,SCT,OVC,M,M,2700.00,4200.00,M,M,M,KDDH 010910Z AUTO 00000KT 10SM SCT027 OVC042 A2978 RMK MADISHF
DDH,2017-04-01 09:15,-73.2461,42.8912,M,M,M,0.00,0.00,M,29.79,M,10.00,M,SCT,OVC,M,M,2700.00,4200.00,M,M,M,KDDH 010915Z AUTO 00000KT 10SM SCT027 OVC042 A2979 RMK MADISHF
DDH,2017-04-01 09:20,-73.2461,42.8912,M,M,M,0.00,0.00,M,29.79,M,10.00,M,BKN,OVC,M,M,2700.00,3999.00,M,M,M,KDDH 010920Z AUTO 00000KT 10SM BKN027 OVC039 A2979 RMK MADISHF
DDH,2017-04-01 09:25,-73.2461,42.8912,M,M,M,360.00,3.00,M,29.79,M,10.00,M,SCT,OVC,M,M,2700.00,4200.00,M,M,M,KDDH 010925Z AUTO 36003KT 10SM SCT027 OVC042 A2979 RMK VRB03KT  MADISHF
DDH,2017-04-01 09:30,-73.2461,42.8912,M,M,M,350.00,3.00,M,29.79,M,10.00,M,SCT,BKN,OVC,M,2700.00,3200.00,4200.00,M,M,KDDH 010930Z AUTO 35003KT 10SM SCT027 BKN032 OVC042 A2979 RMK VRB03KT  MADISHF
DDH,2017-04-01 09:35,-73.2461,42.8912,M,M,M,0.00,0.00,M,29.79,M,10.00,M,BKN,OVC,M,M,2700.00,4200.00,M,M,M,KDDH 010935Z AUTO 00000KT 10SM BKN027 OVC042 A2979 RMK MADISHF
DDH,2017-04-01 09:40,-73.2461,42.8912,M,M,M,0.00,0.00,M,29.79,M,10.00,M,BKN,OVC,M,M,2800.00,4200.00,M,M,M,KDDH 010940Z AUTO 00000KT 10SM BKN028 OVC042 A2979 RMK MADISHF
DDH,2017-04-01 09:41,-73.2461,42.8912,34.00,30.00,85.11,0.00,0.00,0.00,29.79,M,10.00,M,BKN,OVC,M,M,2800.00,4200.00,M,M,M,KDDH 010941Z AUTO 00000KT 10SM BKN028 OVC042 01/M01 A2979 RMK AO2 T00111011
DDH,2017-04-01 09:45,-73.2461,42.8912,M,M,M,360.00,3.00,0.00,29.79,M,10.00,M,BKN,OVC,M,M,2800.00,4200.00,M,M,UP,KDDH 010945Z AUTO 36003KT 10SM UP BKN028 OVC042 A2979 RMK P0000 VRB03KT  MADISHF
DDH,2017-04-01 09:50,-73.2461,42.8912,M,M,M,330.00,4.00,M,29.79,M,10.00,M,BKN,OVC,M,M,2800.00,4200.00,M,M,-RA,KDDH 010950Z AUTO 33004KT 10SM -RA BKN028 OVC042 A2979 RMK MADISHF
DDH,2017-04-01 09:54,-73.2461,42.8912,34.00,28.90,81.37,0.00,0.00,0.00,29.79,1009.50,10.00,M,BKN,OVC,M,M,2800.00,4300.00,M,M,-RA,KDDH 010954Z AUTO 00000KT 10SM -RA BKN028 OVC043 01/M02 A2979 RMK AO2 UPB42E47RAB47 SLP095 P0000 T00111017
DDH,2017-04-01 09:55,-73.2461,42.8912,M,M,M,340.00,3.00,M,29.79,M,10.00,M,BKN,OVC,M,M,2800.00,4300.00,M,M,-RA,KDDH 010955Z AUTO 34003KT 10SM -RA BKN028 OVC043 A2979 RMK VRB03KT  MADISHF
DDH,2017-04-01 10:00,-73.2461,42.8912,M,M,M,0.00,0.00,M,29.80,M,10.00,M,BKN,OVC,M,M,2800.00,4100.00,M,M,-RA,KDDH 011000Z AUTO 00000KT 10SM -RA BKN028 OVC041 A2980 RMK MADISHF
DDH,2017-04-01 10:05,-73.2461,42.8912,M,M,M,0.00,0.00,0.01,29.80,M,9.00,M,BKN,OVC,M,M,2800.00,4100.00,M,M,-RA,KDDH 011005Z AUTO 00000KT 9SM -RA BKN028 OVC041 A2980 RMK P0001 MADISHF
DDH,2017-04-01 10:10,-73.2461,42.8912,M,M,M,0.00,0.00,0.01,29.80,M,7.00,M,BKN,OVC,M,M,2800.00,4100.00,M,M,-RA,KDDH 011010Z AUTO 00000KT 7SM -RA BKN028 OVC041 A2980 RMK P0001 MADISHF
DDH,2017-04-01 10:15,-73.2461,42.8912,M,M,M,0.00,0.00,0.01,29.80,M,6.00,M,BKN,OVC,M,M,2800.00,4100.00,M,M,-RA BR,KDDH 011015Z AUTO 00000KT 6SM -RA BR BKN028 OVC041 A2980 RMK P0001 MADISHF
DDH,2017-04-01 10:20,-73.2461,42.8912,M,M,M,0.00,0.00,0.01,29.80,M,6.00,M,BKN,OVC,M,M,2800.00,4100.00,M,M,-RA BR,KDDH 011020Z AUTO 00000KT 6SM -RA BR BKN028 OVC041 A2980 RMK P0001 MADISHF
DDH,2017-04-01 10:25,-73.2461,42.8912,M,M,M,0.00,0.00,0.01,29.80,M,7.00,M,SCT,OVC,M,M,2800.00,4300.00,M,M,-RA,KDDH 011025Z AUTO 00000KT 7SM -RA SCT028 OVC043 A2980 RMK P0001 MADISHF
DDH,2017-04-01 10:30,-73.2461,42.8912,33.10,30.00,88.23,0.00,0.00,0.01,29.80,M,6.00,M,SCT,OVC,M,M,2800.00,4400.00,M,M,-SN BR,KDDH 011030Z AUTO 00000KT 6SM -SN BR SCT028 OVC044 01/M01 A2980 RMK AO2 RAE26SNB26 P0001 T00061011
DDH,2017-04-01 10:35,-73.2461,42.8912,M,M,M,290.00,3.00,0.01,29.80,M,5.00,M,SCT,OVC,M,M,2800.00,3999.00,M,M,-SN BR,KDDH 011035Z AUTO 29003KT 5SM -SN BR SCT028 OVC039 A2980 RMK P0001 VRB03KT  MADISHF
DDH,2017-04-01 10:40,-73.2461,42.8912,M,M,M,290.00,3.00,0.01,29.81,M,6.00,M,BKN,OVC,M,M,2800.00,3999.00,M,M,-SN BR,KDDH 011040Z AUTO 29003KT 6SM -SN BR BKN028 OVC039 A2981 RMK P0001 MADISHF
DDH,2017-04-01 10:43,-73.2461,42.8912,33.10,30.90,91.51,0.00,0.00,0.01,29.81,M,7.00,M,BKN,OVC,M,M,2800.00,4200.00,M,M,-SN,KDDH 011043Z AUTO 00000KT 7SM -SN BKN028 OVC042 01/M01 A2981 RMK AO2 RAE26SNB26 P0001 T00061006
DDH,2017-04-01 10:45,-73.2461,42.8912,M,M,M,330.00,4.00,0.01,29.81,M,8.00,M,BKN,OVC,M,M,2800.00,4500.00,M,M,-SN,KDDH 011045Z AUTO 33004KT 8SM -SN BKN028 OVC045 A2981 RMK P0001 VRB04KT  MADISHF
DDH,2017-04-01 10:50,-73.2461,42.8912,M,M,M,350.00,3.00,0.01,29.81,M,9.00,M,BKN,OVC,M,M,2800.00,4500.00,M,M,M,KDDH 011050Z AUTO 35003KT 9SM BKN028 OVC045 A2981 RMK P0001 MADISHF
DDH,2017-04-01 10:54,-73.2461,42.8912,33.10,30.90,91.51,350.00,3.00,0.01,29.81,1010.30,10.00,M,BKN,OVC,M,M,2800.00,4300.00,M,M,M,KDDH 011054Z AUTO 35003KT 10SM BKN028 OVC043 01/M01 A2981 RMK AO2 RAE26SNB26E48 SLP103 P0001 T00061006
DDH,2017-04-01 10:55,-73.2461,42.8912,M,M,M,360.00,3.00,M,29.81,M,10.00,M,BKN,OVC,M,M,2800.00,4300.00,M,M,M,KDDH 011055Z AUTO 36003KT 10SM BKN028 OVC043 A2981 RMK MADISHF
DDH,2017-04-01 11:00,-73.2461,42.8912,M,M,M,0.00,0.00,M,29.82,M,9.00,M,BKN,OVC,M,M,3000.00,4300.00,M,M,-SN,KDDH 011100Z AUTO 00000KT 9SM -SN BKN030 OVC043 A2982 RMK MADISHF
DDH,2017-04-01 11:05,-73.2461,42.8912,M,M,M,0.00,0.00,M,29.82,M,7.00,M,BKN,BKN,OVC,M,2800.00,3300.00,4500.00,M,-SN,KDDH 011105Z AUTO 00000KT 7SM -SN BKN028 BKN033 OVC045 A2982 RMK MADISHF
DDH,2017-04-01 11:10,-73.2461,42.8912,M,M,M,350.00,3.00,M,29.82,M,7.00,M,BKN,OVC,M,M,2800.00,4500.00,M,M,-SN,KDDH 011110Z AUTO 35003KT 7SM -SN BKN028 OVC045 A2982 RMK VRB03KT  MADISHF
DDH,2017-04-01 11:15,-73.2461,42.8912,M,M,M,330.00,3.00,M,29.82,M,8.00,M,BKN,OVC,M,M,2800.00,4500.00,M,M,-SN,KDDH 011115Z AUTO 33003KT 8SM -SN BKN028 OVC045 A2982 RMK MADISHF
DDH,2017-04-01 11:20,-73.2461,42.8912,M,M,M,0.00,0.00,0.00,29.83,M,8.00,M,BKN,OVC,M,M,2800.00,4500.00,M,M,UP,KDDH 011120Z AUTO 00000KT 8SM UP BKN028 OVC045 A2983 RMK P0000 MADISHF
DDH,2017-04-01 11:25,-73.2461,42.8912,M,M,M,0.00,0.00,0.01,29.83,M,7.00,M,BKN,OVC,M,M,2800.00,4300.00,M,M,-SN,KDDH 011125Z AUTO 00000KT 7SM -SN BKN028 OVC043 A2983 RMK P0001 MADISHF
DDH,2017-04-01 11:30,-73.2461,42.8912,M,M,M,0.00,0.00,0.01,29.83,M,5.00,M,BKN,OVC,M,M,3000.00,4300.00,M,M,-SN BR,KDDH 011130Z AUTO 00000KT 5SM -SN BR BKN030 OVC043 A2983 RMK P0001 MADISHF
DDH,2017-04-01 11:32,-73.2461,42.8912,33.10,30.90,91.51,0.00,0.00,0.01,29.83,M,5.00,M,BKN,OVC,M,M,3000.00,4300.00,M,M,-SN BR,KDDH 011132Z AUTO 00000KT 5SM -SN BR BKN030 OVC043 01/M01 A2983 RMK AO2 UPB16E24SNB1059E16B24 P0001 T00061006
DDH,2017-04-01 11:35,-73.2461,42.8912,M,M,M,0.00,0.00,0.01,29.83,M,4.00,M,BKN,OVC,M,M,3000.00,4100.00,M,M,-SN BR,KDDH 011135Z AUTO 00000KT 4SM -SN BR BKN030 OVC041 A2983 RMK P0001 MADISHF
DDH,2017-04-01 11:40,-73.2461,42.8912,M,M,M,0.00,0.00,0.01,29.84,M,5.00,M,BKN,OVC,M,M,3000.00,4100.00,M,M,-SN BR,KDDH 011140Z AUTO 00000KT 5SM -SN BR BKN030 OVC041 A2984 RMK P0001 MADISHF
DDH,2017-04-01 11:45,-73.2461,42.8912,M,M,M,0.00,0.00,0.01,29.84,M,5.00,M,BKN,OVC,M,M,3000.00,3500.00,M,M,-SN BR,KDDH 011145Z AUTO 00000KT 5SM -SN BR BKN030 OVC035 A2984 RMK P0001 MADISHF
DDH,2017-04-01 11:50,-73.2461,42.8912,M,M,M,0.00,0.00,0.01,29.84,M,5.00,M,FEW,BKN,OVC,M,600.00,3000.00,3900.00,M,-SN BR,KDDH 011150Z AUTO 00000KT 5SM -SN BR FEW006 BKN030 OVC039 A2984 RMK P0001 MADISHF
DDH,2017-04-01 11:52,-73.2461,42.8912,33.80,30.20,86.49,0.00,0.00,0.01,29.84,M,5.00,M,FEW,BKN,OVC,M,600.00,3000.00,4100.00,M,-SN BR,KDDH 011152Z AUTO 00000KT 5SM -SN BR FEW006 BKN030 OVC041 01/M01 A2984 RMK AO2 UPB16E24SNB1059E16B24 P0001
DDH,2017-04-01 11:54,-73.2461,42.8912,33.10,30.00,88.23,0.00,0.00,0.01,29.84,1011.30,5.00,M,FEW,BKN,OVC,M,600.00,3000.00,4100.00,M,-SN BR,KDDH 011154Z AUTO 00000KT 5SM -SN BR FEW006 BKN030 OVC041 01/M01 A2984 RMK AO2 UPB16E24SNB1059E16B24 SLP113 P0001 60002 70107 T00061011 10028 20006 51016
DDH,2017-04-01 11:55,-73.2461,42.8912,M,M,M,0.00,0.00,M,29.84,M,5.00,M,BKN,OVC,M,M,3000.00,4100.00,M,M,-SN BR,KDDH 011155Z AUTO 00000KT 5SM -SN BR BKN030 OVC041 A2984 RMK MADISHF
DDH,2017-04-01 12:00,-73.2461,42.8912,M,M,M,0.00,0.00,M,29.85,M,5.00,M,FEW,BKN,OVC,M,600.00,3000.00,4100.00,M,-SN BR,KDDH 011200Z AUTO 00000KT 5SM -SN BR FEW006 BKN030 OVC041 A2985 RMK MADISHF
DDH,2017-04-01 12:05,-73.2461,42.8912,M,M,M,0.00,0.00,M,29.85,M,5.00,M,FEW,BKN,OVC,M,600.00,3000.00,3900.00,M,BR,KDDH 011205Z AUTO 00000KT 5SM BR FEW006 BKN030 OVC039 A2985 RMK MADISHF
DDH,2017-04-01 12:10,-73.2461,42.8912,M,M,M,0.00,0.00,M,29.84,M,5.00,M,FEW,BKN,OVC,M,600.00,3000.00,3700.00,M,-SN BR,KDDH 011210Z AUTO 00000KT 5SM -SN BR FEW006 BKN030 OVC037 A2984 RMK MADISHF
DDH,2017-04-01 12:15,-73.2461,42.8912,M,M,M,0.00,0.00,M,29.84,M,4.00,M,FEW,BKN,OVC,M,600.00,2900.00,4600.00,M,-SN BR,KDDH 011215Z AUTO 00000KT 4SM -SN BR FEW006 BKN029 OVC046 A2984 RMK MADISHF
DDH,2017-04-01 12:20,-73.2461,42.8912,33.10,30.90,91.51,0.00,0.00,0.00,29.85,M,5.00,M,FEW,BKN,OVC,M,600.00,2900.00,4600.00,M,-SN BR,KDDH 011220Z AUTO 00000KT 5SM -SN BR FEW006 BKN029 OVC046 01/M01 A2985 RMK AO2 P0000 T00061006
DDH,2017-04-01 12:25,-73.2461,42.8912,M,M,M,0.00,0.00,M,29.85,M,5.00,M,FEW,BKN,OVC,M,600.00,2900.00,4300.00,M,-SN BR,KDDH 011225Z AUTO 00000KT 5SM -SN BR FEW006 BKN029 OVC043 A2985 RMK MADISHF
DDH,2017-04-01 12:30,-73.2461,42.8912,M,M,M,0.00,0.00,M,29.85,M,5.00,M,BKN,BKN,OVC,M,2900.00,3700.00,4600.00,M,-SN BR,KDDH 011230Z AUTO 00000KT 5SM -SN BR BKN029 BKN037 OVC046 A2985 RMK MADISHF
DDH,2017-04-01 12:35,-73.2461,42.8912,M,M,M,0.00,0.00,M,29.85,M,6.00,M,BKN,BKN,OVC,M,2900.00,3700.00,4600.00,M,-SN BR,KDDH 011235Z AUTO 00000KT 6SM -SN BR BKN029 BKN037 OVC046 A2985 RMK MADISHF
DDH,2017-04-01 12:40,-73.2461,42.8912,M,M,M,330.00,3.00,M,29.85,M,8.00,M,BKN,OVC,M,M,2900.00,4300.00,M,M,M,KDDH 011240Z AUTO 33003KT 8SM BKN029 OVC043 A2985 RMK MADISHF
DDH,2017-04-01 12:45,-73.2461,42.8912,M,M,M,0.00,0.00,M,29.85,M,8.00,M,SCT,BKN,OVC,M,2600.00,3100.00,4300.00,M,M,KDDH 011245Z AUTO 00000KT 8SM SCT026 BKN031 OVC043 A2985 RMK MADISHF
DDH,2017-04-01 12:50,-73.2461,42.8912,M,M,M,0.00,0.00,M,29.86,M,9.00,M,SCT,BKN,OVC,M,2700.00,3200.00,4600.00,M,M,KDDH 011250Z AUTO 00000KT 9SM SCT027 BKN032 OVC046 A2986 RMK MADISHF
DDH,2017-04-01 12:54,-73.2461,42.8912,33.10,30.90,91.51,0.00,0.00,0.00,29.86,1011.80,9.00,M,SCT,OVC,M,M,2900.00,4400.00,M,M,M,KDDH 011254Z AUTO 00000KT 9SM SCT029 OVC044 01/M01 A2986 RMK AO2 SNE39 SLP118 P0000 T00061006
DDH,2017-04-01 12:55,-73.2461,42.8912,M,M,M,0.00,0.00,M,29.86,M,9.00,M,SCT,OVC,M,M,2900.00,4400.00,M,M,M,KDDH 011255Z AUTO 00000KT 9SM SCT029 OVC044 A2986 RMK MADISHF
DDH,2017-04-01 13:00,-73.2461,42.8912,M,M,M,330.00,3.00,M,29.86,M,8.00,M,FEW,SCT,OVC,M,2600.00,3300.00,4400.00,M,M,KDDH 011300Z AUTO 33003KT 8SM FEW026 SCT033 OVC044 A2986 RMK MADISHF
DDH,2017-04-01 13:05,-73.2461,42.8912,M,M,M,330.00,3.00,M,29.86,M,8.00,M,SCT,OVC,M,M,3300.00,4600.00,M,M,-SN,KDDH 011305Z AUTO 33003KT 8SM -SN SCT033 OVC046 A2986 RMK MADISHF
DDH,2017-04-01 13:10,-73.2461,42.8912,M,M,M,350.00,3.00,M,29.86,M,8.00,M,SCT,OVC,M,M,3300.00,4400.00,M,M,-SN,KDDH 011310Z AUTO 35003KT 8SM -SN SCT033 OVC044 A2986 RMK MADISHF
DDH,2017-04-01 13:15,-73.2461,42.8912,M,M,M,0.00,0.00,M,29.86,M,7.00,M,SCT,OVC,M,M,3200.00,4400.00,M,M,-SN,KDDH 011315Z AUTO 00000KT 7SM -SN SCT032 OVC044 A2986 RMK MADISHF
DDH,2017-04-01 13:20,-73.2461,42.8912,M,M,M,350.00,3.00,M,29.86,M,6.00,M,SCT,OVC,M,M,3200.00,4200.00,M,M,-SN BR,KDDH 011320Z AUTO 35003KT 6SM -SN BR SCT032 OVC042 A2986 RMK MADISHF
DDH,2017-04-01 13:25,-73.2461,42.8912,M,M,M,330.00,3.00,M,29.86,M,5.00,M,SCT,BKN,OVC,M,3000.00,3600.00,4600.00,M,-SN BR,KDDH 011325Z AUTO 33003KT 5SM -SN BR SCT030 BKN036 OVC046 A2986 RMK MADISHF
DDH,2017-04-01 13:30,-73.2461,42.8912,M,M,M,350.00,3.00,M,29.86,M,4.00,M,SCT,BKN,OVC,M,3000.00,3600.00,4600.00,M,-SN BR,KDDH 011330Z AUTO 35003KT 4SM -SN BR SCT030 BKN036 OVC046 A2986 RMK MADISHF
DDH,2017-04-01 13:35,-73.2461,42.8912,M,M,M,350.00,5.00,M,29.86,M,4.00,M,SCT,BKN,OVC,M,3000.00,3800.00,4600.00,M,-SN,KDDH 011335Z AUTO 35005KT 4SM -SN SCT030 BKN038 OVC046 A2986 RMK MADISHF
DDH,2017-04-01 13:40,-73.2461,42.8912,M,M,M,10.00,5.00,M,29.86,M,3.50,M,BKN,OVC,M,M,3200.00,4400.00,M,M,-SN,KDDH 011340Z AUTO 01005KT 3SM -SN BKN032 OVC044 A2986 RMK MADISHF
DDH,2017-04-01 13:45,-73.2461,42.8912,M,M,M,350.00,4.00,M,29.87,M,3.00,M,FEW,BKN,OVC,M,3000.00,3600.00,4600.00,M,-SN,KDDH 011345Z AUTO 35004KT 3SM -SN FEW030 BKN036 OVC046 A2987 RMK MADISHF
DDH,2017-04-01 13:50,-73.2461,42.8912,M,M,M,340.00,4.00,M,29.87,M,4.00,M,FEW,BKN,OVC,M,3000.00,3600.00,4600.00,M,-SN,KDDH 011350Z AUTO 34004KT 4SM -SN FEW030 BKN036 OVC046 A2987 RMK MADISHF
DDH,2017-04-01 13:54,-73.2461,42.8912,35.10,30.00,81.46,340.00,5.00,0.00,29.87,1012.20,4.00,M,FEW,BKN,OVC,M,2900.00,3600.00,4500.00,M,-SN,KDDH 011354Z AUTO 34005KT 4SM -SN FEW029 BKN036 OVC045 02/M01 A2987 RMK AO2 SNB02 SLP122 P0000 T00171011
DDH,2017-04-01 13:55,-73.2461,42.8912,M,M,M,340.00,5.00,0.01,29.87,M,4.00,M,FEW,BKN,OVC,M,2900.00,3600.00,4500.00,M,-SN,KDDH 011355Z AUTO 34005KT 4SM -SN FEW029 BKN036 OVC045 A2987 RMK P0001 MADISHF
DDH,2017-04-01 14:00,-73.2461,42.8912,M,M,M,340.00,6.00,0.01,29.87,M,4.00,M,SCT,BKN,OVC,M,2900.00,3600.00,4500.00,M,-SN,KDDH 011400Z AUTO 34006KT 4SM -SN SCT029 BKN036 OVC045 A2987 RMK P0001 MADISHF
DDH,2017-04-01 14:05,-73.2461,42.8912,M,M,M,350.00,5.00,0.01,29.87,M,4.00,M,FEW,BKN,OVC,M,2700.00,3600.00,4500.00,M,-SN,KDDH 011405Z AUTO 35005KT 4SM -SN FEW027 BKN036 OVC045 A2987 RMK P0001 MADISHF
DDH,2017-04-01 14:10,-73.2461,42.8912,M,M,M,350.00,5.00,0.01,29.88,M,4.00,M,SCT,BKN,OVC,M,2700.00,3600.00,4500.00,M,-SN,KDDH 011410Z AUTO 35005KT 4SM -SN SCT027 BKN036 OVC045 A2988 RMK P0001 MADISHF
DDH,2017-04-01 14:15,-73.2461,42.8912,M,M,M,350.00,4.00,0.01,29.88,M,4.00,M,SCT,BKN,OVC,M,2700.00,3600.00,4500.00,M,-SN,KDDH 011415Z AUTO 35004KT 4SM -SN SCT027 BKN036 OVC045 A2988 RMK P0001 MADISHF
DDH,2017-04-01 14:20,-73.2461,42.8912,M,M,M,340.00,4.00,0.01,29.88,M,5.00,M,SCT,BKN,OVC,M,2700.00,3700.00,4500.00,M,-SN,KDDH 011420Z AUTO 34004KT 5SM -SN SCT027 BKN037 OVC045 A2988 RMK P0001 MADISHF
DDH,2017-04-01 14:25,-73.2461,42.8912,M,M,M,330.00,5.00,0.01,29.88,M,5.00,M,BKN,BKN,OVC,M,2700.00,3700.00,4500.00,M,-SN,KDDH 011425Z AUTO 33005KT 5SM -SN BKN027 BKN037 OVC045 A2988 RMK P0001 MADISHF
DDH,2017-04-01 14:27,-73.2461,42.8912,35.10,30.00,81.46,330.00,5.00,0.01,29.88,M,6.00,M,BKN,BKN,OVC,M,2700.00,3700.00,4500.00,M,-SN,KDDH 011427Z AUTO 33005KT 6SM -SN BKN027 BKN037 OVC045 02/M01 A2988 RMK AO2 P0001 T00171011
DDH,2017-04-01 14:30,-73.2461,42.8912,M,M,M,340.00,6.00,0.01,29.88,M,6.00,M,BKN,BKN,OVC,M,2700.00,3700.00,4500.00,M,-SN,KDDH 011430Z AUTO 34006KT 6SM -SN BKN027 BKN037 OVC045 A2988 RMK P0001 MADISHF
DDH,2017-04-01 14:35,-73.2461,42.8912,M,M,M,340.00,5.00,0.01,29.88,M,6.00,M,BKN,OVC,M,M,2700.00,3700.00,M,M,-SN,KDDH 011435Z AUTO 34005KT 6SM -SN BKN027 OVC037 A2988 RMK P0001 MADISHF
DDH,2017-04-01 14:40,-73.2461,42.8912,M,M,M,340.00,3.00,0.01,29.88,M,6.00,M,BKN,OVC,M,M,2800.00,3500.00,M,M,-SN,KDDH 011440Z AUTO 34003KT 6SM -SN BKN028 OVC035 A2988 RMK P0001 MADISHF
DDH,2017-04-01 14:45,-73.2461,42.8912,M,M,M,350.00,6.00,0.01,29.88,M,8.00,M,OVC,M,M,M,2800.00,M,M,M,-SN,KDDH 011445Z AUTO 35006KT 8SM -SN OVC028 A2988 RMK P0001 MADISHF
DDH,2017-04-01 14:50,-73.2461,42.8912,M,M,M,340.00,5.00,0.01,29.88,M,9.00,M,OVC,M,M,M,2800.00,M,M,M,-SN,KDDH 011450Z AUTO 34005KT 9SM -SN OVC028 A2988 RMK P0001 MADISHF
DDH,2017-04-01 14:54,-73.2461,42.8912,36.00,30.90,81.53,360.00,5.00,0.01,29.88,1012.50,9.00,M,OVC,M,M,M,2900.00,M,M,M,-SN,KDDH 011454Z AUTO 36005KT 9SM -SN OVC029 02/M01 A2988 RMK AO2 SLP125 P0001 60001 T00221006 51013
DDH,2017-04-01 14:55,-73.2461,42.8912,M,M,M,350.00,5.00,M,29.88,M,9.00,M,BKN,OVC,M,M,2900.00,3500.00,M,M,-SN,KDDH 011455Z AUTO 35005KT 9SM -SN BKN029 OVC035 A2988 RMK VRB05KT  MADISHF
DDH,2017-04-01 15:00,-73.2461,42.8912,M,M,M,360.00,7.00,M,29.88,M,9.00,M,BKN,OVC,M,M,2900.00,3500.00,M,M,-SN,KDDH 011500Z AUTO 36007KT 9SM -SN BKN029 OVC035 A2988 RMK MADISHF
DDH,2017-04-01 15:05,-73.2461,42.8912,M,M,M,350.00,6.00,M,29.88,M,9.00,M,OVC,M,M,M,3100.00,M,M,M,-SN,KDDH 011505Z AUTO 35006KT 9SM -SN OVC031 A2988 RMK MADISHF
DDH,2017-04-01 15:07,-73.2461,42.8912,36.00,30.00,78.60,350.00,5.00,0.00,29.88,M,9.00,M,OVC,M,M,M,3100.00,M,M,M,-SN,KDDH 011507Z AUTO 35005KT 9SM -SN OVC031 02/M01 A2988 RMK AO2 P0000 T00221011
DDH,2017-04-01 15:10,-73.2461,42.8912,M,M,M,350.00,7.00,M,29.88,M,9.00,M,OVC,M,M,M,3100.00,M,M,M,-SN,KDDH 011510Z AUTO 35007KT 9SM -SN OVC031 A2988 RMK MADISHF
DDH,2017-04-01 15:15,-73.2461,42.8912,M,M,M,340.00,6.00,M,29.88,M,9.00,M,OVC,M,M,M,3100.00,M,M,M,-SN,KDDH 011515Z AUTO 34006KT 9SM -SN OVC031 A2988 RMK MADISHF
DDH,2017-04-01 15:20,-73.2461,42.8912,M,M,M,360.00,6.00,M,29.88,M,9.00,M,OVC,M,M,M,3100.00,M,M,M,-SN,KDDH 011520Z AUTO 36006KT 9SM -SN OVC031 A2988 RMK MADISHF
DDH,2017-04-01 15:25,-73.2461,42.8912,M,M,M,320.00,5.00,M,29.88,M,9.00,M,BKN,OVC,M,M,3100.00,3500.00,M,M,-SN,KDDH 011525Z AUTO 32005KT 9SM -SN BKN031 OVC035 A2988 RMK MADISHF
DDH,2017-04-01 15:30,-73.2461,42.8912,M,M,M,330.00,5.00,M,29.88,M,9.00,M,OVC,M,M,M,3100.00,M,M,M,M,KDDH 011530Z AUTO 33005KT 9SM OVC031 A2988 RMK MADISHF
DDH,2017-04-01 15:35,-73.2461,42.8912,M,M,M,320.00,5.00,M,29.88,M,10.00,M,OVC,M,M,M,3200.00,M,M,M,-RA,KDDH 011535Z AUTO 32005KT 10SM -RA OVC032 A2988 RMK MADISHF
DDH,2017-04-01 15:40,-73.2461,42.8912,M,M,M,310.00,3.00,M,29.88,M,10.00,M,OVC,M,M,M,3200.00,M,M,M,-RA,KDDH 011540Z AUTO 31003KT 10SM -RA OVC032 A2988 RMK MADISHF
DDH,2017-04-01 15:45,-73.2461,42.8912,M,M,M,360.00,5.00,M,29.88,M,10.00,M,OVC,M,M,M,3200.00,M,M,M,M,KDDH 011545Z AUTO 36005KT 10SM OVC032 A2988 RMK MADISHF
DDH,2017-04-01 15:50,-73.2461,42.8912,M,M,M,360.00,7.00,M,29.88,M,10.00,M,OVC,M,M,M,3200.00,M,M,M,M,KDDH 011550Z AUTO 36007KT 10SM OVC032 A2988 RMK MADISHF
DDH,2017-04-01 15:54,-73.2461,42.8912,37.00,30.00,75.56,340.00,5.00,0.00,29.88,1012.50,10.00,M,OVC,M,M,M,3200.00,M,M,M,M,KDDH 011554Z AUTO 34005KT 10SM OVC032 03/M01 A2988 RMK AO2 RAB33E43SNE30 SLP125 P0000 T00281011
DDH,2017-04-01 15:55,-73.2461,42.8912,M,M,M,350.00,4.00,M,29.88,M,10.00,M,OVC,M,M,M,3200.00,M,M,M,M,KDDH 011555Z AUTO 35004KT 10SM OVC032 A2988 RMK MADISHF
DDH,2017-04-01 16:00,-73.2461,42.8912,M,M,M,10.00,6.00,M,29.88,M,10.00,M,OVC,M,M,M,3200.00,M,M,M,M,KDDH 011600Z AUTO 01006KT 10SM OVC032 A2988 RMK MADISHF
DDH,2017-04-01 16:05,-73.2461,42.8912,M,M,M,330.00,4.00,M,29.88,M,10.00,M,OVC,M,M,M,3200.00,M,M,M,M,KDDH 011605Z AUTO 33004KT 10SM OVC032 A2988 RMK MADISHF
DDH,2017-04-01 16:10,-73.2461,42.8912,M,M,M,350.00,5.00,M,29.88,M,10.00,M,SCT,OVC,M,M,2800.00,3399.00,M,M,M,KDDH 011610Z AUTO 35005KT 10SM SCT028 OVC033 A2988 RMK MADISHF
DDH,2017-04-01 16:15,-73.2461,42.8912,M,M,M,330.00,3.00,M,29.88,M,10.00,M,OVC,M,M,M,3200.00,M,M,M,M,KDDH 011615Z AUTO 33003KT 10SM OVC032 A2988 RMK MADISHF
DDH,2017-04-01 16:20,-73.2461,42.8912,M,M,M,350.00,8.00,M,29.88,M,10.00,M,OVC,M,M,M,3200.00,M,M,M,M,KDDH 011620Z AUTO 35008KT 10SM OVC032 A2988 RMK MADISHF
DDH,2017-04-01 16:25,-73.2461,42.8912,M,M,M,340.00,8.00,M,29.89,M,10.00,M,OVC,M,M,M,3200.00,M,M,M,M,KDDH 011625Z AUTO 34008KT 10SM OVC032 A2989 RMK MADISHF
DDH,2017-04-01 16:30,-73.2461,42.8912,M,M,M,350.00,7.00,M,29.89,M,10.00,M,OVC,M,M,M,3200.00,M,M,M,M,KDDH 011630Z AUTO 35007KT 10SM OVC032 A2989 RMK MADISHF
DDH,2017-04-01 16:35,-73.2461,42.8912,M,M,M,340.00,8.00,M,29.89,M,10.00,M,OVC,M,M,M,3200.00,M,M,M,M,KDDH 011635Z AUTO 34008KT 10SM OVC032 A2989 RMK MADISHF
DDH,2017-04-01 16:40,-73.2461,42.8912,M,M,M,350.00,9.00,M,29.89,M,10.00,M,OVC,M,M,M,3300.00,M,M,M,M,KDDH 011640Z AUTO 35009KT 10SM OVC033 A2989 RMK MADISHF
DDH,2017-04-01 16:45,-73.2461,42.8912,M,M,M,350.00,7.00,M,29.89,M,10.00,M,OVC,M,M,M,3300.00,M,M,M,M,KDDH 011645Z AUTO 35007KT 10SM OVC033 A2989 RMK MADISHF
DDH,2017-04-01 16:50,-73.2461,42.8912,M,M,M,360.00,8.00,M,29.89,M,10.00,M,OVC,M,M,M,3300.00,M,M,M,M,KDDH 011650Z AUTO 36008KT 10SM OVC033 A2989 RMK MADISHF
DDH,2017-04-01 16:54,-73.2461,42.8912,37.90,28.90,69.73,360.00,7.00,0.00,29.89,1012.70,10.00,M,OVC,M,M,M,3300.00,M,M,M,M,KDDH 011654Z AUTO 36007KT 10SM OVC033 03/M02 A2989 RMK AO2 SLP127 T00331017
DDH,2017-04-01 16:55,-73.2461,42.8912,M,M,M,10.00,8.00,M,29.89,M,10.00,M,OVC,M,M,M,3300.00,M,M,M,M,KDDH 011655Z AUTO 01008KT 10SM OVC033 A2989 RMK MADISHF
DDH,2017-04-01 17:00,-73.2461,42.8912,M,M,M,360.00,8.00,M,29.89,M,10.00,M,OVC,M,M,M,3300.00,M,M,M,M,KDDH 011700Z AUTO 36008KT 10SM OVC033 A2989 RMK MADISHF
DDH,2017-04-01 17:05,-73.2461,42.8912,M,M,M,360.00,7.00,M,29.89,M,10.00,M,FEW,OVC,M,M,3000.00,3600.00,M,M,M,KDDH 011705Z AUTO 36007KT 10SM FEW030 OVC036 A2989 RMK MADISHF
DDH,2017-04-01 17:10,-73.2461,42.8912,M,M,M,30.00,5.00,M,29.89,M,10.00,M,OVC,M,M,M,3399.00,M,M,M,M,KDDH 011710Z AUTO 03005KT 10SM OVC033 A2989 RMK VRB05KT  MADISHF
DDH,2017-04-01 17:15,-73.2461,42.8912,M,M,M,30.00,7.00,M,29.89,M,10.00,M,SCT,OVC,M,M,3000.00,3600.00,M,M,M,KDDH 011715Z AUTO 03007KT 10SM SCT030 OVC036 A2989 RMK MADISHF
DDH,2017-04-01 17:20,-73.2461,42.8912,M,M,M,10.00,9.00,M,29.89,M,10.00,M,FEW,OVC,M,M,3000.00,3800.00,M,M,M,KDDH 011720Z AUTO 01009KT 10SM FEW030 OVC038 A2989 RMK MADISHF
DDH,2017-04-01 17:25,-73.2461,42.8912,M,M,M,360.00,8.00,M,29.89,M,10.00,M,FEW,OVC,M,M,3000.00,3800.00,M,M,M,KDDH 011725Z AUTO 36008KT 10SM FEW030 OVC038 A2989 RMK MADISHF
DDH,2017-04-01 17:30,-73.2461,42.8912,M,M,M,360.00,9.00,M,29.90,M,10.00,M,FEW,OVC,M,M,3000.00,3800.00,M,M,M,KDDH 011730Z AUTO 36009KT 10SM FEW030 OVC038 A2990 RMK MADISHF
DDH,2017-04-01 17:35,-73.2461,42.8912,M,M,M,20.00,8.00,M,29.89,M,10.00,M,SCT,OVC,M,M,3000.00,3800.00,M,M,M,KDDH 011735Z AUTO 02008KT 10SM SCT030 OVC038 A2989 RMK MADISHF
DDH,2017-04-01 17:40,-73.2461,42.8912,M,M,M,10.00,5.00,M,29.89,M,10.00,M,FEW,OVC,M,M,2700.00,3600.00,M,M,M,KDDH 011740Z AUTO 01005KT 10SM FEW027 OVC036 A2989 RMK MADISHF
DDH,2017-04-01 17:45,-73.2461,42.8912,M,M,M,20.00,6.00,M,29.89,M,10.00,M,FEW,BKN,OVC,M,2700.00,3700.00,4900.00,M,M,KDDH 011745Z AUTO 02006KT 10SM FEW027 BKN037 OVC049 A2989 RMK MADISHF
DDH,2017-04-01 17:50,-73.2461,42.8912,M,M,M,10.00,6.00,M,29.89,M,10.00,M,FEW,BKN,OVC,M,2700.00,4500.00,5500.00,M,M,KDDH 011750Z AUTO 01006KT 10SM FEW027 BKN045 OVC055 A2989 RMK MADISHF
DDH,2017-04-01 17:54,-73.2461,42.8912,37.90,30.00,72.93,10.00,7.00,0.00,29.89,1012.60,10.00,M,FEW,BKN,OVC,M,2700.00,4500.00,5000.00,M,M,KDDH 011754Z AUTO 01007KT 10SM FEW027 BKN045 OVC050 03/M01 A2989 RMK AO2 SLP126 60001 T00331011 10033 20006 50002
DDH,2017-04-01 17:55,-73.2461,42.8912,M,M,M,20.00,7.00,M,29.89,M,10.00,M,FEW,BKN,OVC,M,2700.00,4500.00,6000.00,M,M,KDDH 011755Z AUTO 02007KT 10SM FEW027 BKN045 OVC060 A2989 RMK MADISHF
DDH,2017-04-01 18:00,-73.2461,42.8912,M,M,M,20.00,8.00,M,29.89,M,10.00,M,FEW,BKN,OVC,M,3399.00,4500.00,5000.00,M,M,KDDH 011800Z AUTO 02008KT 10SM FEW033 BKN045 OVC050 A2989 RMK MADISHF
DDH,2017-04-01 18:05,-73.2461,42.8912,M,M,M,30.00,7.00,M,29.88,M,10.00,M,FEW,BKN,OVC,M,3200.00,4600.00,5500.00,M,M,KDDH 011805Z AUTO 03007KT 10SM FEW032 BKN046 OVC055 A2988 RMK WND 36V06  MADISHF
DDH,2017-04-01 18:10,-73.2461,42.8912,M,M,M,10.00,6.00,M,29.88,M,10.00,M,BKN,OVC,M,M,5000.00,6000.00,M,M,M,KDDH 011810Z AUTO 01006KT 10SM BKN050 OVC060 A2988 RMK MADISHF
DDH,2017-04-01 18:15,-73.2461,42.8912,M,M,M,20.00,7.00,M,29.87,M,10.00,M,FEW,BKN,OVC,M,3700.00,4800.00,5500.00,M,M,KDDH 011815Z AUTO 02007KT 10SM FEW037 BKN048 OVC055 A2987 RMK MADISHF
DDH,2017-04-01 18:20,-73.2461,42.8912,M,M,M,10.00,6.00,M,29.87,M,10.00,M,BKN,M,M,M,5000.00,M,M,M,M,KDDH 011820Z AUTO 01006KT 10SM BKN050 A2987 RMK VRB06KT  MADISHF
DDH,2017-04-01 18:25,-73.2461,42.8912,M,M,M,20.00,7.00,M,29.88,M,10.00,M,FEW,OVC,M,M,3200.00,5000.00,M,M,M,KDDH 011825Z AUTO 02007KT 10SM FEW032 OVC050 A2988 RMK MADISHF
DDH,2017-04-01 18:30,-73.2461,42.8912,M,M,M,360.00,6.00,M,29.88,M,10.00,M,SCT,OVC,M,M,3200.00,5000.00,M,M,M,KDDH 011830Z AUTO 36006KT 10SM SCT032 OVC050 A2988 RMK VRB06KT  MADISHF
DDH,2017-04-01 18:35,-73.2461,42.8912,M,M,M,340.00,6.00,M,29.88,M,10.00,M,SCT,OVC,M,M,3200.00,5000.00,M,M,M,KDDH 011835Z AUTO 34006KT 10SM SCT032 OVC050 A2988 RMK MADISHF
DDH,2017-04-01 18:40,-73.2461,42.8912,M,M,M,10.00,6.00,M,29.88,M,10.00,M,BKN,OVC,M,M,3200.00,5000.00,M,M,M,KDDH 011840Z AUTO 01006KT 10SM BKN032 OVC050 A2988 RMK VRB06KT  MADISHF
DDH,2017-04-01 18:45,-73.2461,42.8912,M,M,M,350.00,7.00,M,29.89,M,10.00,M,BKN,OVC,M,M,3399.00,5000.00,M,M,M,KDDH 011845Z AUTO 35007KT 10SM BKN033 OVC050 A2989 RMK MADISHF
DDH,2017-04-01 18:50,-73.2461,42.8912,M,M,M,360.00,7.00,M,29.89,M,10.00,M,BKN,OVC,M,M,3399.00,5000.00,M,M,M,KDDH 011850Z AUTO 36007KT 10SM BKN033 OVC050 A2989 RMK MADISHF
DDH,2017-04-01 18:54,-73.2461,42.8912,39.00,30.00,69.85,340.00,5.00,0.00,29.89,1012.80,10.00,M,OVC,M,M,M,3300.00,M,M,M,M,KDDH 011854Z AUTO 34005KT 10SM OVC033 04/M01 A2989 RMK AO2 SLP128 T00391011
DDH,2017-04-01 18:55,-73.2461,42.8912,M,M,M,350.00,6.00,M,M,M,10.00,M,OVC,M,M,M,3300.00,M,M,M,M,KDDH 011855Z AUTO 35006KT 10SM OVC033 RMK MADISHF
DDH,2017-04-01 19:00,-73.2461,42.8912,M,M,M,340.00,6.00,M,29.90,M,10.00,M,OVC,M,M,M,3300.00,M,M,M,M,KDDH 011900Z AUTO 34006KT 10SM OVC033 A2990 RMK MADISHF
DDH,2017-04-01 19:05,-73.2461,42.8912,M,M,M,10.00,5.00,M,29.90,M,10.00,M,OVC,M,M,M,3300.00,M,M,M,M,KDDH 011905Z AUTO 01005KT 10SM OVC033 A2990 RMK VRB05KT  MADISHF
DDH,2017-04-01 19:10,-73.2461,42.8912,M,M,M,20.00,5.00,M,29.90,M,10.00,M,OVC,M,M,M,3100.00,M,M,M,M,KDDH 011910Z AUTO 02005KT 10SM OVC031 A2990 RMK MADISHF
DDH,2017-04-01 19:15,-73.2461,42.8912,M,M,M,10.00,4.00,M,29.90,M,10.00,M,OVC,M,M,M,3100.00,M,M,M,M,KDDH 011915Z AUTO 01004KT 10SM OVC031 A2990 RMK MADISHF
DDH,2017-04-01 19:20,-73.2461,42.8912,M,M,M,20.00,5.00,M,29.90,M,10.00,M,OVC,M,M,M,3100.00,M,M,M,M,KDDH 011920Z AUTO 02005KT 10SM OVC031 A2990 RMK MADISHF
DDH,2017-04-01 19:25,-73.2461,42.8912,M,M,M,360.00,4.00,M,29.91,M,10.00,M,OVC,M,M,M,3100.00,M,M,M,M,KDDH 011925Z AUTO 36004KT 10SM OVC031 A2991 RMK MADISHF
DDH,2017-04-01 19:30,-73.2461,42.8912,M,M,M,360.00,4.00,M,29.91,M,10.00,M,BKN,OVC,M,M,2800.00,3300.00,M,M,M,KDDH 011930Z AUTO 36004KT 10SM BKN028 OVC033 A2991 RMK VRB04KT  MADISHF
DDH,2017-04-01 19:34,-73.2461,42.8912,39.00,30.00,69.85,350.00,6.00,0.00,29.90,M,10.00,M,OVC,M,M,M,2800.00,M,M,M,M,KDDH 011934Z AUTO 35006KT 10SM OVC028 04/M01 A2990 RMK AO2 T00391011
DDH,2017-04-01 19:35,-73.2461,42.8912,M,M,M,350.00,6.00,M,29.90,M,10.00,M,OVC,M,M,M,2800.00,M,M,M,M,KDDH 011935Z AUTO 35006KT 10SM OVC028 A2990 RMK MADISHF
DDH,2017-04-01 19:40,-73.2461,42.8912,M,M,M,10.00,3.00,M,29.90,M,9.00,M,OVC,M,M,M,2800.00,M,M,M,M,KDDH 011940Z AUTO 01003KT 9SM OVC028 A2990 RMK VRB03KT  MADISHF
DDH,2017-04-01 19:45,-73.2461,42.8912,M,M,M,330.00,5.00,M,29.90,M,7.00,M,OVC,M,M,M,2600.00,M,M,M,M,KDDH 011945Z AUTO 33005KT 7SM OVC026 A2990 RMK MADISHF
DDH,2017-04-01 19:50,-73.2461,42.8912,M,M,M,320.00,6.00,M,29.91,M,6.00,M,FEW,BKN,OVC,M,1400.00,2300.00,2800.00,M,-RA,KDDH 011950Z AUTO 32006KT 6SM -RA FEW014 BKN023 OVC028 A2991 RMK MADISHF
DDH,2017-04-01 19:54,-73.2461,42.8912,37.90,32.00,79.08,320.00,6.00,0.00,29.91,1013.40,5.00,M,SCT,OVC,M,M,1600.00,2500.00,M,M,-RA,KDDH 011954Z AUTO 32006KT 5SM -RA SCT016 OVC025 03/00 A2991 RMK AO2 RAB46 SLP134 P0000 T00330000
DDH,2017-04-01 19:55,-73.2461,42.8912,M,M,M,320.00,6.00,M,29.91,M,5.00,M,SCT,OVC,M,M,1600.00,2500.00,M,M,-RA,KDDH 011955Z AUTO 32006KT 5SM -RA SCT016 OVC025 A2991 RMK MADISHF
DDH,2017-04-01 20:00,-73.2461,42.8912,M,M,M,330.00,5.00,M,29.91,M,6.00,M,BKN,OVC,M,M,1600.00,2300.00,M,M,-RA,KDDH 012000Z AUTO 33005KT 6SM -RA BKN016 OVC023 A2991 RMK MADISHF
DDH,2017-04-01 20:05,-73.2461,42.8912,M,M,M,320.00,5.00,M,29.92,M,10.00,M,FEW,BKN,OVC,M,1300.00,1800.00,2400.00,M,-RA,KDDH 012005Z AUTO 32005KT 10SM -RA FEW013 BKN018 OVC024 A2992 RMK MADISHF
DDH,2017-04-01 20:10,-73.2461,42.8912,M,M,M,320.00,4.00,M,29.92,M,10.00,M,FEW,BKN,OVC,M,1300.00,1900.00,3800.00,M,M,KDDH 012010Z AUTO 32004KT 10SM FEW013 BKN019 OVC038 A2992 RMK MADISHF
DDH,2017-04-01 20:15,-73.2461,42.8912,M,M,M,340.00,4.00,M,29.92,M,10.00,M,SCT,SCT,OVC,M,1600.00,2300.00,3500.00,M,M,KDDH 012015Z AUTO 34004KT 10SM SCT016 SCT023 OVC035 A2992 RMK MADISHF
DDH,2017-04-01 20:20,-73.2461,42.8912,M,M,M,340.00,4.00,M,29.92,M,10.00,M,SCT,BKN,OVC,M,1600.00,2500.00,3500.00,M,M,KDDH 012020Z AUTO 34004KT 10SM SCT016 BKN025 OVC035 A2992 RMK MADISHF
DDH,2017-04-01 20:25,-73.2461,42.8912,M,M,M,320.00,6.00,M,29.92,M,10.00,M,FEW,BKN,OVC,M,1400.00,2300.00,3300.00,M,M,KDDH 012025Z AUTO 32006KT 10SM FEW014 BKN023 OVC033 A2992 RMK MADISHF
DDH,2017-04-01 20:30,-73.2461,42.8912,M,M,M,320.00,4.00,M,29.92,M,10.00,M,SCT,BKN,OVC,M,1999.00,2500.00,3300.00,M,M,KDDH 012030Z AUTO 32004KT 10SM SCT019 BKN025 OVC033 A2992 RMK MADISHF
DDH,2017-04-01 20:35,-73.2461,42.8912,M,M,M,320.00,7.00,M,29.92,M,10.00,M,SCT,BKN,OVC,M,1900.00,2400.00,3300.00,M,M,KDDH 012035Z AUTO 32007KT 10SM SCT019 BKN024 OVC033 A2992 RMK WND 29V35  MADISHF
DDH,2017-04-01 20:40,-73.2461,42.8912,M,M,M,310.00,5.00,M,29.93,M,10.00,M,BKN,BKN,OVC,M,1800.00,2300.00,3200.00,M,M,KDDH 012040Z AUTO 31005KT 10SM BKN018 BKN023 OVC032 A2993 RMK MADISHF
DDH,2017-04-01 20:45,-73.2461,42.8912,M,M,M,290.00,5.00,M,29.93,M,10.00,M,FEW,BKN,OVC,M,1600.00,2100.00,4700.00,M,M,KDDH 012045Z AUTO 29005KT 10SM FEW016 BKN021 OVC047 A2993 RMK MADISHF
DDH,2017-04-01 20:50,-73.2461,42.8912,M,M,M,300.00,5.00,M,29.93,M,10.00,M,FEW,BKN,OVC,M,1600.00,2100.00,4700.00,M,M,KDDH 012050Z AUTO 30005KT 10SM FEW016 BKN021 OVC047 A2993 RMK MADISHF
DDH,2017-04-01 20:54,-73.2461,42.8912,39.00,33.10,79.17,M,5.00,0.00,29.94,1014.30,10.00,M,FEW,SCT,OVC,M,1600.00,2100.00,4700.00,M,M,KDDH 012054Z AUTO VRB05KT 10SM FEW016 SCT021 OVC047 04/01 A2994 RMK AO2 RAE07 SLP143 P0000 60000 T00390006 53017
DDH,2017-04-01 20:55,-73.2461,42.8912,M,M,M,290.00,5.00,M,M,M,10.00,M,FEW,SCT,OVC,M,1600.00,2100.00,4500.00,M,M,KDDH 012055Z AUTO 29005KT 10SM FEW016 SCT021 OVC045 RMK VRB05KT  MADISHF
DDH,2017-04-01 21:00,-73.2461,42.8912,M,M,M,310.00,3.00,M,29.94,M,10.00,M,SCT,SCT,OVC,M,1400.00,2100.00,4500.00,M,M,KDDH 012100Z AUTO 31003KT 10SM SCT014 SCT021 OVC045 A2994 RMK VRB03KT  MADISHF
DDH,2017-04-01 21:05,-73.2461,42.8912,M,M,M,310.00,6.00,M,29.94,M,10.00,M,SCT,OVC,M,M,1400.00,4500.00,M,M,M,KDDH 012105Z AUTO 31006KT 10SM SCT014 OVC045 A2994 RMK MADISHF
DDH,2017-04-01 21:10,-73.2461,42.8912,M,M,M,300.00,6.00,M,29.94,M,10.00,M,BKN,OVC,M,M,1400.00,4500.00,M,M,M,KDDH 012110Z AUTO 30006KT 10SM BKN014 OVC045 A2994 RMK MADISHF
DDH,2017-04-01 21:12,-73.2461,42.8912,37.90,33.10,82.66,310.00,6.00,0.00,29.94,M,10.00,M,BKN,OVC,M,M,1400.00,4500.00,M,M,M,KDDH 012112Z AUTO 31006KT 10SM BKN014 OVC045 03/01 A2994 RMK AO2 T00330006
DDH,2017-04-01 21:15,-73.2461,42.8912,M,M,M,310.00,5.00,M,29.94,M,10.00,M,BKN,OVC,M,M,1400.00,4500.00,M,M,M,KDDH 012115Z AUTO 31005KT 10SM BKN014 OVC045 A2994 RMK MADISHF
DDH,2017-04-01 21:20,-73.2461,42.8912,M,M,M,320.00,9.00,M,29.95,M,10.00,M,BKN,OVC,M,M,1400.00,4300.00,M,M,M,KDDH 012120Z AUTO 32009KT 10SM BKN014 OVC043 A2995 RMK MADISHF
DDH,2017-04-01 21:25,-73.2461,42.8912,M,M,M,330.00,5.00,M,29.95,M,10.00,M,BKN,OVC,M,M,1400.00,1999.00,M,M,M,KDDH 012125Z AUTO 33005KT 10SM BKN014 OVC019 A2995 RMK MADISHF
DDH,2017-04-01 21:30,-73.2461,42.8912,M,M,M,340.00,7.00,M,29.95,M,10.00,M,BKN,OVC,M,M,1400.00,4400.00,M,M,M,KDDH 012130Z AUTO 34007KT 10SM BKN014 OVC044 A2995 RMK MADISHF
DDH,2017-04-01 21:35,-73.2461,42.8912,M,M,M,350.00,9.00,M,29.95,M,10.00,M,BKN,OVC,M,M,1400.00,4400.00,M,M,M,KDDH 012135Z AUTO 35009KT 10SM BKN014 OVC044 A2995 RMK MADISHF
DDH,2017-04-01 21:40,-73.2461,42.8912,M,M,M,340.00,8.00,M,29.95,M,10.00,M,SCT,SCT,OVC,M,1200.00,1800.00,4400.00,M,M,KDDH 012140Z AUTO 34008KT 10SM SCT012 SCT018 OVC044 A2995 RMK MADISHF
DDH,2017-04-01 21:44,-73.2461,42.8912,37.90,32.00,79.08,340.00,7.00,0.00,29.95,M,10.00,M,SCT,OVC,M,M,1200.00,4400.00,M,M,M,KDDH 012144Z AUTO 34007KT 10SM SCT012 OVC044 03/00 A2995 RMK AO2 T00330000
DDH,2017-04-01 21:45,-73.2461,42.8912,M,M,M,350.00,8.00,M,29.95,M,10.00,M,FEW,SCT,OVC,M,1200.00,2500.00,4400.00,M,M,KDDH 012145Z AUTO 35008KT 10SM FEW012 SCT025 OVC044 A2995 RMK MADISHF
DDH,2017-04-01 21:50,-73.2461,42.8912,M,M,M,350.00,5.00,M,M,M,10.00,M,FEW,BKN,OVC,M,1200.00,2300.00,4300.00,M,M,KDDH 012150Z AUTO 35005KT 10SM FEW012 BKN023 OVC043 RMK MADISHF
DDH,2017-04-01 21:54,-73.2461,42.8912,37.90,32.00,79.08,330.00,3.00,0.00,29.95,1014.90,10.00,M,FEW,BKN,OVC,M,1200.00,2300.00,4300.00,M,M,KDDH 012154Z AUTO 33003KT 10SM FEW012 BKN023 OVC043 03/00 A2995 RMK AO2 SLP149 T00330000
DDH,2017-04-01 21:55,-73.2461,42.8912,M,M,M,340.00,4.00,M,29.95,M,10.00,M,BKN,OVC,M,M,2300.00,4300.00,M,M,M,KDDH 012155Z AUTO 34004KT 10SM BKN023 OVC043 A2995 RMK MADISHF
DDH,2017-04-01 22:00,-73.2461,42.8912,M,M,M,350.00,5.00,M,29.95,M,10.00,M,SCT,OVC,M,M,2300.00,4300.00,M,M,M,KDDH 012200Z AUTO 35005KT 10SM SCT023 OVC043 A2995 RMK MADISHF
DDH,2017-04-01 22:05,-73.2461,42.8912,M,M,M,350.00,4.00,M,29.95,M,10.00,M,SCT,OVC,M,M,2400.00,4300.00,M,M,M,KDDH 012205Z AUTO 35004KT 10SM SCT024 OVC043 A2995 RMK VRB04KT  MADISHF
DDH,2017-04-01 22:06,-73.2461,42.8912,37.90,32.00,79.08,350.00,5.00,0.00,29.95,M,10.00,M,SCT,OVC,M,M,2400.00,4300.00,M,M,M,KDDH 012206Z AUTO 35005KT 10SM SCT024 OVC043 03/00 A2995 RMK AO2 T00330000
DDH,2017-04-01 22:10,-73.2461,42.8912,M,M,M,360.00,5.00,M,29.95,M,10.00,M,FEW,SCT,OVC,M,2400.00,2800.00,4300.00,M,M,KDDH 012210Z AUTO 36005KT 10SM FEW024 SCT028 OVC043 A2995 RMK MADISHF
DDH,2017-04-01 22:15,-73.2461,42.8912,M,M,M,360.00,4.00,M,29.95,M,10.00,M,FEW,SCT,OVC,M,2200.00,2800.00,4200.00,M,M,KDDH 012215Z AUTO 36004KT 10SM FEW022 SCT028 OVC042 A2995 RMK MADISHF
DDH,2017-04-01 22:20,-73.2461,42.8912,M,M,M,350.00,4.00,M,29.95,M,10.00,M,FEW,BKN,OVC,M,2500.00,4200.00,7000.00,M,M,KDDH 012220Z AUTO 35004KT 10SM FEW025 BKN042 OVC070 A2995 RMK MADISHF
DDH,2017-04-01 22:25,-73.2461,42.8912,M,M,M,330.00,4.00,M,29.95,M,10.00,M,BKN,OVC,M,M,4200.00,7000.00,M,M,M,KDDH 012225Z AUTO 33004KT 10SM BKN042 OVC070 A2995 RMK MADISHF
DDH,2017-04-01 22:30,-73.2461,42.8912,M,M,M,330.00,4.00,M,29.95,M,10.00,M,BKN,OVC,M,M,4200.00,7000.00,M,M,M,KDDH 012230Z AUTO 33004KT 10SM BKN042 OVC070 A2995 RMK MADISHF
DDH,2017-04-01 22:35,-73.2461,42.8912,M,M,M,330.00,4.00,M,29.96,M,10.00,M,BKN,OVC,M,M,4200.00,7000.00,M,M,M,KDDH 012235Z AUTO 33004KT 10SM BKN042 OVC070 A2996 RMK MADISHF
DDH,2017-04-01 22:40,-73.2461,42.8912,M,M,M,340.00,5.00,M,29.96,M,10.00,M,BKN,OVC,M,M,4100.00,7000.00,M,M,M,KDDH 012240Z AUTO 34005KT 10SM BKN041 OVC070 A2996 RMK MADISHF
DDH,2017-04-01 22:45,-73.2461,42.8912,M,M,M,340.00,4.00,M,29.96,M,10.00,M,BKN,OVC,M,M,4100.00,7000.00,M,M,M,KDDH 012245Z AUTO 34004KT 10SM BKN041 OVC070 A2996 RMK MADISHF
DDH,2017-04-01 22:50,-73.2461,42.8912,M,M,M,330.00,4.00,M,29.96,M,10.00,M,BKN,OVC,M,M,4100.00,7000.00,M,M,M,KDDH 012250Z AUTO 33004KT 10SM BKN041 OVC070 A2996 RMK MADISHF
DDH,2017-04-01 22:54,-73.2461,42.8912,37.90,32.00,79.08,330.00,4.00,0.00,29.97,1015.40,10.00,M,OVC,M,M,M,4000.00,M,M,M,M,KDDH 012254Z AUTO 33004KT 10SM OVC040 03/00 A2997 RMK AO2 SLP154 T00330000
DDH,2017-04-01 22:55,-73.2461,42.8912,M,M,M,340.00,4.00,M,29.97,M,10.00,M,OVC,M,M,M,3999.00,M,M,M,M,KDDH 012255Z AUTO 34004KT 10SM OVC039 A2997 RMK MADISHF
DDH,2017-04-01 23:00,-73.2461,42.8912,M,M,M,320.00,4.00,M,29.97,M,10.00,M,OVC,M,M,M,3999.00,M,M,M,M,KDDH 012300Z AUTO 32004KT 10SM OVC039 A2997 RMK MADISHF
DDH,2017-04-01 23:05,-73.2461,42.8912,M,M,M,320.00,3.00,M,29.97,M,10.00,M,OVC,M,M,M,3999.00,M,M,M,M,KDDH 012305Z AUTO 32003KT 10SM OVC039 A2997 RMK MADISHF
DDH,2017-04-01 23:10,-73.2461,42.8912,M,M,M,330.00,4.00,M,29.97,M,10.00,M,OVC,M,M,M,4100.00,M,M,M,M,KDDH 012310Z AUTO 33004KT 10SM OVC041 A2997 RMK MADISHF
DDH,2017-04-01 23:15,-73.2461,42.8912,M,M,M,310.00,3.00,M,29.97,M,10.00,M,OVC,M,M,M,4100.00,M,M,M,M,KDDH 012315Z AUTO 31003KT 10SM OVC041 A2997 RMK MADISHF
DDH,2017-04-01 23:20,-73.2461,42.8912,M,M,M,310.00,3.00,M,29.97,M,10.00,M,OVC,M,M,M,4100.00,M,M,M,M,KDDH 012320Z AUTO 31003KT 10SM OVC041 A2997 RMK MADISHF
DDH,2017-04-01 23:25,-73.2461,42.8912,M,M,M,310.00,4.00,M,29.97,M,10.00,M,OVC,M,M,M,4100.00,M,M,M,M,KDDH 012325Z AUTO 31004KT 10SM OVC041 A2997 RMK MADISHF
DDH,2017-04-01 23:30,-73.2461,42.8912,M,M,M,320.00,3.00,M,29.97,M,10.00,M,OVC,M,M,M,4100.00,M,M,M,M,KDDH 012330Z AUTO 32003KT 10SM OVC041 A2997 RMK MADISHF
DDH,2017-04-01 23:35,-73.2461,42.8912,M,M,M,0.00,0.00,M,29.97,M,10.00,M,OVC,M,M,M,4100.00,M,M,M,M,KDDH 012335Z AUTO 00000KT 10SM OVC041 A2997 RMK MADISHF
DDH,2017-04-01 23:40,-73.2461,42.8912,M,M,M,0.00,0.00,M,29.97,M,10.00,M,OVC,M,M,M,4100.00,M,M,M,M,KDDH 012340Z AUTO 00000KT 10SM OVC041 A2997 RMK MADISHF
DDH,2017-04-01 23:45,-73.2461,42.8912,M,M,M,300.00,3.00,M,29.97,M,10.00,M,OVC,M,M,M,4100.00,M,M,M,M,KDDH 012345Z AUTO 30003KT 10SM OVC041 A2997 RMK MADISHF
DDH,2017-04-01 23:50,-73.2461,42.8912,M,M,M,0.00,0.00,M,29.97,M,10.00,M,OVC,M,M,M,4100.00,M,M,M,M,KDDH 012350Z AUTO 00000KT 10SM OVC041 A2997 RMK MADISHF
DDH,2017-04-01 23:54,-73.2461,42.8912,37.00,30.90,78.37,0.00,0.00,0.00,29.97,1015.70,10.00,M,OVC,M,M,M,4100.00,M,M,M,M,KDDH 012354Z AUTO 00000KT 10SM OVC041 03/M01 A2997 RMK AO2 SLP157 60000 T00281006 10044 20028 51012
DDH,2017-04-01 23:55,-73.2461,42.8912,M,M,M,0.00,0.00,M,M,M,10.00,M,FEW,OVC,M,M,2400.00,4100.00,M,M,M,KDDH 012355Z AUTO 00000KT 10SM FEW024 OVC041 RMK MADISHF
