#DEBUG: Format Typ    -> comma
#DEBUG: Time Period   -> 2017-04-01 00:00:00+00:00 2017-04-02 00:00:00+00:00
#DEBUG: Time Zone     -> Etc/UTC
#DEBUG: Data Contact   -> daryl herzmann akrherz@iastate.edu 515-294-5978
#DEBUG: Entries Found -> -1
station,valid,lon,lat,tmpf, dwpf, relh, drct, sknt, p01i, alti, mslp, vsby, gust, skyc1, skyc2, skyc3, skyc4, skyl1, skyl2, skyl3, skyl4, presentwx, metar
DEW,2017-04-01 00:00,-117.4211,47.9689,M,M,M,170.00,7.00,M,30.18,M,10.00,M,CLR,M,M,M,M,M,M,M,M,KDEW 010000Z AUTO 17007KT 10SM CLR A3018 RMK MADISHF
DEW,2017-04-01 00:05,-117.4211,47.9689,M,M,M,210.00,8.00,M,30.18,M,10.00,M,CLR,M,M,M,M,M,M,M,M,KDEW 010005Z AUTO 21008KT 10SM CLR A3018 RMK MADISHF
DEW,2017-04-01 00:10,-117.4211,47.9689,M,M,M,220.00,6.00,M,30.17,M,10.00,M,CLR,M,M,M,M,M,M,M,M,KDEW 010010Z AUTO 22006KT 10SM CLR A3017 RMK MADISHF
DEW,2017-04-01 00:15,-117.4211,47.9689,M,M,M,230.00,9.00,M,30.18,M,10.00,M,CLR,M,M,M,M,M,M,M,M,KDEW 010015Z AUTO 23009KT 10SM CLR A3018 RMK MADISHF
DEW,2017-04-01 00:20,-117.4211,47.9689,M,M,M,220.00,5.00,M,30.17,M,10.00,M,CLR,M,M,M,M,M,M,M,M,KDEW 010020Z AUTO 22005KT 10SM CLR A3017 RMK MADISHF
DEW,2017-04-01 00:25,-117.4211,47.9689,M,M,M,230.00,6.00,M,30.17,M,10.00,M,CLR,M,M,M,M,M,M,M,M,KDEW 010025Z AUTO 23006KT 10SM CLR A3017 RMK MADISHF
DEW,2017-04-01 00:30,-117.4211,47.9689,M,M,M,180.00,5.00,M,30.17,M,10.00,M,CLR,M,M,M,M,M,M,M,M,KDEW 010030Z AUTO 18005KT 10SM CLR A3017 RMK MADISHF
DEW,2017-04-01 00:35,-117.4211,47.9689,M,M,M,190.00,7.00,M,30.18,M,10.00,M,CLR,M,M,M,M,M,M,M,M,KDEW 010035Z AUTO 19007KT 10SM CLR A3018 RMK MADISHF
DEW,2017-04-01 00:40,-117.4211,47.9689,M,M,M,200.00,8.00,M,30.17,M,10.00,M,CLR,M,M,M,M,M,M,M,M,KDEW 010040Z AUTO 20008KT 10SM CLR A3017 RMK MADISHF
DEW,2017-04-01 00:45,-117.4211,47.9689,M,M,M,210.00,6.00,M,30.17,M,10.00,M,CLR,M,M,M,M,M,M,M,M,KDEW 010045Z AUTO 21006KT 10SM CLR A3017 RMK MADISHF
DEW,2017-04-01 00:50,-117.4211,47.9689,M,M,M,220.00,5.00,M,30.17,M,10.00,M,CLR,M,M,M,M,M,M,M,M,KDEW 010050Z AUTO 22005KT 10SM CLR A3017 RMK MADISHF
DEW,2017-04-01 00:53,-117.4211,47.9689,55.90,32.00,40.10,200.00,7.00,0.00,30.17,1022.90,10.00,M,CLR,M,M,M,M,M,M,M,M,KDEW 010053Z AUTO 20007KT 10SM CLR 13/00 A3017 RMK AO2 SLP229 T01330000
DEW,2017-04-01 00:55,-117.4211,47.9689,M,M,M,210.00,5.00,M,30.17,M,10.00,M,CLR,M,M,M,M,M,M,M,M,KDEW 010055Z AUTO 21005KT 10SM CLR A3017 RMK MADISHF
DEW,2017-04-01 01:00,-117.4211,47.9689,M,M,M,210.00,6.00,M,30.17,M,10.00,M,CLR,M,M,M,M,M,M,M,M,KDEW 010100Z AUTO 21006KT 10SM CLR A3017 RMK MADISHF
DEW,2017-04-01 01:05,-117.4211,47.9689,M,M,M,200.00,5.00,M,30.16,M,10.00,M,CLR,M,M,M,M,M,M,M,M,KDEW 010105Z AUTO 20005KT 10SM CLR A3016 RMK MADISHF
DEW,2017-04-01 01:10,-117.4211,47.9689,M,M,M,230.00,6.00,M,30.16,M,10.00,M,CLR,M,M,M,M,M,M,M,M,KDEW 010110Z AUTO 23006KT 10SM CLR A3016 RMK MADISHF
DEW,2017-04-01 01:15,-117.4211,47.9689,M,M,M,230.00,6.00,M,30.16,M,10.00,M,CLR,M,M,M,M,M,M,M,M,KDEW 010115Z AUTO 23006KT 10SM CLR A3016 RMK MADISHF
DEW,2017-04-01 01:20,-117.4211,47.9689,M,M,M,230.00,6.00,M,30.16,M,10.00,M,CLR,M,M,M,M,M,M,M,M,KDEW 010120Z AUTO 23006KT 10SM CLR A3016 RMK MADISHF
DEW,2017-04-01 01:25,-117.4211,47.9689,M,M,M,220.00,6.00,M,30.17,M,10.00,M,CLR,M,M,M,M,M,M,M,M,KDEW 010125Z AUTO 22006KT 10SM CLR A3017 RMK MADISHF
DEW,2017-04-01 01:30,-117.4211,47.9689,M,M,M,230.00,6.00,M,30.16,M,10.00,M,CLR,M,M,M,M,M,M,M,M,KDEW 010130Z AUTO 23006KT 10SM CLR A3016 RMK MADISHF
DEW,2017-04-01 01:35,-117.4211,47.9689,M,M,M,230.00,5.00,M,30.17,M,10.00,M,CLR,M,M,M,M,M,M,M,M,KDEW 010135Z AUTO 23005KT 10SM CLR A3017 RMK MADISHF
DEW,2017-04-01 01:40,-117.4211,47.9689,M,M,M,210.00,4.00,M,30.17,M,10.00,M,CLR,M,M,M,M,M,M,M,M,KDEW 010140Z AUTO 21004KT 10SM CLR A3017 RMK MADISHF
DEW,2017-04-01 01:45,-117.4211,47.9689,M,M,M,200.00,5.00,M,30.17,M,10.00,M,CLR,M,M,M,M,M,M,M,M,KDEW 010145Z AUTO 20005KT 10SM CLR A3017 RMK MADISHF
DEW,2017-04-01 01:50,-117.4211,47.9689,M,M,M,210.00,4.00,M,30.17,M,10.00,M,CLR,M,M,M,M,M,M,M,M,KDEW 010150Z AUTO 21004KT 10SM CLR A3017 RMK MADISHF
DEW,2017-04-01 01:53,-117.4211,47.9689,53.10,33.10,46.42,210.00,4.00,0.00,30.17,1022.80,10.00,M,CLR,M,M,M,M,M,M,M,M,KDEW 010153Z AUTO 21004KT 10SM CLR 12/01 A3017 RMK AO2 SLP228 T01170006
DEW,2017-04-01 01:55,-117.4211,47.9689,M,M,M,210.00,3.00,M,30.17,M,10.00,M,CLR,M,M,M,M,M,M,M,M,KDEW 010155Z AUTO 21003KT 10SM CLR A3017 RMK MADISHF
DEW,2017-04-01 02:00,-117.4211,47.9689,M,M,M,210.00,4.00,M,30.17,M,10.00,M,CLR,M,M,M,M,M,M,M,M,KDEW 010200Z AUTO 21004KT 10SM CLR A3017 RMK MADISHF
DEW,2017-04-01 02:05,-117.4211,47.9689,M,M,M,180.00,3.00,M,30.17,M,10.00,M,CLR,M,M,M,M,M,M,M,M,KDEW 010205Z AUTO 18003KT 10SM CLR A3017 RMK MADISHF
DEW,2017-04-01 02:10,-117.4211,47.9689,M,M,M,170.00,3.00,M,30.17,M,10.00,M,CLR,M,M,M,M,M,M,M,M,KDEW 010210Z AUTO 17003KT 10SM CLR A3017 RMK MADISHF
DEW,2017-04-01 02:15,-117.4211,47.9689,M,M,M,180.00,4.00,M,30.17,M,10.00,M,CLR,M,M,M,M,M,M,M,M,KDEW 010215Z AUTO 18004KT 10SM CLR A3017 RMK MADISHF
DEW,2017-04-01 02:20,-117.4211,47.9689,M,M,M,210.00,4.00,M,30.17,M,10.00,M,CLR,M,M,M,M,M,M,M,M,KDEW 010220Z AUTO 21004KT 10SM CLR A3017 RMK MADISHF
DEW,2017-04-01 02:25,-117.4211,47.9689,M,M,M,210.00,5.00,M,30.17,M,10.00,M,CLR,M,M,M,M,M,M,M,M,KDEW 010225Z AUTO 21005KT 10SM CLR A3017 RMK MADISHF
DEW,2017-04-01 02:30,-117.4211,47.9689,M,M,M,210.00,6.00,M,30.17,M,10.00,M,CLR,M,M,M,M,M,M,M,M,KDEW 010230Z AUTO 21006KT 10SM CLR A3017 RMK MADISHF
DEW,2017-04-01 02:35,-117.4211,47.9689,M,M,M,210.00,5.00,M,30.16,M,10.00,M,CLR,M,M,M,M,M,M,M,M,KDEW 010235Z AUTO 21005KT 10SM CLR A3016 RMK MADISHF
DEW,2017-04-01 02:40,-117.4211,47.9689,M,M,M,200.00,3.00,M,30.17,M,10.00,M,CLR,M,M,M,M,M,M,M,M,KDEW 010240Z AUTO 20003KT 10SM CLR A3017 RMK MADISHF
DEW,2017-04-01 02:45,-117.4211,47.9689,M,M,M,200.00,3.00,M,30.17,M,10.00,M,CLR,M,M,M,M,M,M,M,M,KDEW 010245Z AUTO 20003KT 10SM CLR A3017 RMK MADISHF
DEW,2017-04-01 02:50,-117.4211,47.9689,M,M,M,0.00,0.00,M,30.17,M,10.00,M,CLR,M,M,M,M,M,M,M,M,KDEW 010250Z AUTO 00000KT 10SM CLR A3017 RMK MADISHF
DEW,2017-04-01 02:53,-117.4211,47.9689,43.00,34.00,70.30,0.00,0.00,0.00,30.17,1023.30,10.00,M,CLR,M,M,M,M,M,M,M,M,KDEW 010253Z AUTO 00000KT 10SM CLR 06/01 A3017 RMK AO2 SLP233 T00610011 55001
DEW,2017-04-01 02:55,-117.4211,47.9689,M,M,M,0.00,0.00,M,30.17,M,10.00,M,CLR,M,M,M,M,M,M,M,M,KDEW 010255Z AUTO 00000KT 10SM CLR A3017 RMK MADISHF
DEW,2017-04-01 03:00,-117.4211,47.9689,M,M,M,0.00,0.00,M,30.17,M,10.00,M,CLR,M,M,M,M,M,M,M,M,KDEW 010300Z AUTO 00000KT 10SM CLR A3017 RMK MADISHF
DEW,2017-04-01 03:05,-117.4211,47.9689,M,M,M,0.00,0.00,M,30.17,M,10.00,M,CLR,M,M,M,M,M,M,M,M,KDEW 010305Z AUTO 00000KT 10SM CLR A3017 RMK MADISHF
DEW,2017-04-01 03:10,-117.4211,47.9689,M,M,M,160.00,3.00,M,30.17,M,10.00,M,CLR,M,M,M,M,M,M,M,M,KDEW 010310Z AUTO 16003KT 10SM CLR A3017 RMK MADISHF
DEW,2017-04-01 03:15,-117.4211,47.9689,M,M,M,160.00,3.00,M,30.17,M,10.00,M,CLR,M,M,M,M,M,M,M,M,KDEW 010315Z AUTO 16003KT 10SM CLR A3017 RMK MADISHF
DEW,2017-04-01 03:20,-117.4211,47.9689,M,M,M,170.00,3.00,M,30.17,M,10.00,M,CLR,M,M,M,M,M,M,M,M,KDEW 010320Z AUTO 17003KT 10SM CLR A3017 RMK MADISHF
DEW,2017-04-01 03:25,-117.4211,47.9689,M,M,M,190.00,3.00,M,30.17,M,10.00,M,CLR,M,M,M,M,M,M,M,M,KDEW 010325Z AUTO 19003KT 10SM CLR A3017 RMK MADISHF
DEW,2017-04-01 03:30,-117.4211,47.9689,M,M,M,0.00,0.00,M,30.18,M,10.00,M,CLR,M,M,M,M,M,M,M,M,KDEW 010330Z AUTO 00000KT 10SM CLR A3018 RMK MADISHF
DEW,2017-04-01 03:35,-117.4211,47.9689,M,M,M,0.00,0.00,M,30.17,M,10.00,M,CLR,M,M,M,M,M,M,M,M,KDEW 010335Z AUTO 00000KT 10SM CLR A3017 RMK MADISHF
DEW,2017-04-01 03:40,-117.4211,47.9689,M,M,M,0.00,0.00,M,30.17,M,10.00,M,CLR,M,M,M,M,M,M,M,M,KDEW 010340Z AUTO 00000KT 10SM CLR A3017 RMK MADISHF
DEW,2017-04-01 03:45,-117.4211,47.9689,M,M,M,0.00,0.00,M,30.17,M,10.00,M,CLR,M,M,M,M,M,M,M,M,KDEW 010345Z AUTO 00000KT 10SM CLR A3017 RMK MADISHF
DEW,2017-04-01 03:50,-117.4211,47.9689,M,M,M,220.00,3.00,M,30.18,M,10.00,M,CLR,M,M,M,M,M,M,M,M,KDEW 010350Z AUTO 22003KT 10SM CLR A3018 RMK MADISHF
DEW,2017-04-01 03:53,-117.4211,47.9689,39.90,33.10,76.44,210.00,3.00,0.00,30.18,1023.30,10.00,M,CLR,M,M,M,M,M,M,M,M,KDEW 010353Z AUTO 21003KT 10SM CLR 04/01 A3018 RMK AO2 SLP233 T00440006
DEW,2017-04-01 03:55,-117.4211,47.9689,M,M,M,210.00,3.00,M,30.18,M,10.00,M,CLR,M,M,M,M,M,M,M,M,KDEW 010355Z AUTO 21003KT 10SM CLR A3018 RMK MADISHF
DEW,2017-04-01 04:00,-117.4211,47.9689,M,M,M,0.00,0.00,M,30.18,M,10.00,M,CLR,M,M,M,M,M,M,M,M,KDEW 010400Z AUTO 00000KT 10SM CLR A3018 RMK MADISHF
DEW,2017-04-01 04:05,-117.4211,47.9689,M,M,M,0.00,0.00,M,30.18,M,10.00,M,CLR,M,M,M,M,M,M,M,M,KDEW 010405Z AUTO 00000KT 10SM CLR A3018 RMK MADISHF
DEW,2017-04-01 04:10,-117.4211,47.9689,M,M,M,270.00,3.00,M,30.18,M,10.00,M,CLR,M,M,M,M,M,M,M,M,KDEW 010410Z AUTO 27003KT 10SM CLR A3018 RMK MADISHF
DEW,2017-04-01 04:15,-117.4211,47.9689,M,M,M,0.00,0.00,M,30.18,M,10.00,M,CLR,M,M,M,M,M,M,M,M,KDEW 010415Z AUTO 00000KT 10SM CLR A3018 RMK MADISHF
DEW,2017-04-01 04:20,-117.4211,47.9689,M,M,M,0.00,0.00,M,30.18,M,10.00,M,CLR,M,M,M,M,M,M,M,M,KDEW 010420Z AUTO 00000KT 10SM CLR A3018 RMK MADISHF
DEW,2017-04-01 04:25,-117.4211,47.9689,M,M,M,0.00,0.00,M,30.18,M,10.00,M,CLR,M,M,M,M,M,M,M,M,KDEW 010425Z AUTO 00000KT 10SM CLR A3018 RMK MADISHF
DEW,2017-04-01 04:30,-117.4211,47.9689,M,M,M,0.00,0.00,M,30.18,M,10.00,M,CLR,M,M,M,M,M,M,M,M,KDEW 010430Z AUTO 00000KT 10SM CLR A3018 RMK MADISHF
DEW,2017-04-01 04:35,-117.4211,47.9689,M,M,M,0.00,0.00,M,30.18,M,10.00,M,CLR,M,M,M,M,M,M,M,M,KDEW 010435Z AUTO 00000KT 10SM CLR A3018 RMK MADISHF
DEW,2017-04-01 04:40,-117.4211,47.9689,M,M,M,140.00,3.00,M,30.18,M,10.00,M,CLR,M,M,M,M,M,M,M,M,KDEW 010440Z AUTO 14003KT 10SM CLR A3018 RMK MADISHF
DEW,2017-04-01 04:45,-117.4211,47.9689,M,M,M,0.00,0.00,M,30.18,M,10.00,M,CLR,M,M,M,M,M,M,M,M,KDEW 010445Z AUTO 00000KT 10SM CLR A3018 RMK MADISHF
DEW,2017-04-01 04:50,-117.4211,47.9689,M,M,M,0.00,0.00,M,30.18,M,10.00,M,CLR,M,M,M,M,M,M,M,M,KDEW 010450Z AUTO 00000KT 10SM CLR A3018 RMK MADISHF
DEW,2017-04-01 04:53,-117.4211,47.9689,35.10,30.90,84.49,130.00,3.00,0.00,30.18,1023.30,10.00,M,CLR,M,M,M,M,M,M,M,M,KDEW 010453Z AUTO 13003KT 10SM CLR 02/M01 A3018 RMK AO2 SLP233 T00171006
DEW,2017-04-01 04:55,-117.4211,47.9689,M,M,M,130.00,3.00,M,30.18,M,10.00,M,CLR,M,M,M,M,M,M,M,M,KDEW 010455Z AUTO 13003KT 10SM CLR A3018 RMK MADISHF
DEW,2017-04-01 05:00,-117.4211,47.9689,M,M,M,130.00,3.00,M,30.18,M,10.00,M,CLR,M,M,M,M,M,M,M,M,KDEW 010500Z AUTO 13003KT 10SM CLR A3018 RMK MADISHF
DEW,2017-04-01 05:05,-117.4211,47.9689,M,M,M,0.00,0.00,M,30.18,M,10.00,M,CLR,M,M,M,M,M,M,M,M,KDEW 010505Z AUTO 00000KT 10SM CLR A3018 RMK MADISHF
DEW,2017-04-01 05:10,-117.4211,47.9689,M,M,M,0.00,0.00,M,30.19,M,10.00,M,CLR,M,M,M,M,M,M,M,M,KDEW 010510Z AUTO 00000KT 10SM CLR A3019 RMK MADISHF
DEW,2017-04-01 05:15,-117.4211,47.9689,M,M,M,0.00,0.00,M,30.19,M,10.00,M,CLR,M,M,M,M,M,M,M,M,KDEW 010515Z AUTO 00000KT 10SM CLR A3019 RMK MADISHF
DEW,2017-04-01 05:20,-117.4211,47.9689,M,M,M,0.00,0.00,M,30.19,M,10.00,M,CLR,M,M,M,M,M,M,M,M,KDEW 010520Z AUTO 00000KT 10SM CLR A3019 RMK MADISHF
DEW,2017-04-01 05:25,-117.4211,47.9689,M,M,M,0.00,0.00,M,30.19,M,10.00,M,CLR,M,M,M,M,M,M,M,M,KDEW 010525Z AUTO 00000KT 10SM CLR A3019 RMK MADISHF
DEW,2017-04-01 05:30,-117.4211,47.9689,M,M,M,0.00,0.00,M,30.20,M,10.00,M,CLR,M,M,M,M,M,M,M,M,KDEW 010530Z AUTO 00000KT 10SM CLR A3020 RMK MADISHF
DEW,2017-04-01 05:35,-117.4211,47.9689,M,M,M,330.00,4.00,M,30.19,M,10.00,M,CLR,M,M,M,M,M,M,M,M,KDEW 010535Z AUTO 33004KT 10SM CLR A3019 RMK MADISHF
DEW,2017-04-01 05:40,-117.4211,47.9689,M,M,M,340.00,3.00,M,30.20,M,10.00,M,CLR,M,M,M,M,M,M,M,M,KDEW 010540Z AUTO 34003KT 10SM CLR A3020 RMK MADISHF
DEW,2017-04-01 05:45,-117.4211,47.9689,M,M,M,0.00,0.00,M,30.19,M,10.00,M,CLR,M,M,M,M,M,M,M,M,KDEW 010545Z AUTO 00000KT 10SM CLR A3019 RMK MADISHF
DEW,2017-04-01 05:50,-117.4211,47.9689,M,M,M,0.00,0.00,M,30.19,M,10.00,M,CLR,M,M,M,M,M,M,M,M,KDEW 010550Z AUTO 00000KT 10SM CLR A3019 RMK MADISHF
DEW,2017-04-01 05:53,-117.4211,47.9689,36.00,30.90,81.53,0.00,0.00,0.00,30.19,1023.50,10.00,M,CLR,M,M,M,M,M,M,M,M,KDEW 010553Z AUTO 00000KT 10SM CLR 02/M01 A3019 RMK AO2 SLP235 T00221006 10139 20011 53005
DEW,2017-04-01 05:55,-117.4211,47.9689,M,M,M,0.00,0.00,M,30.19,M,10.00,M,CLR,M,M,M,M,M,M,M,M,KDEW 010555Z AUTO 00000KT 10SM CLR A3019 RMK MADISHF
DEW,2017-04-01 06:00,-117.4211,47.9689,M,M,M,0.00,0.00,M,30.19,M,10.00,M,CLR,M,M,M,M,M,M,M,M,KDEW 010600Z AUTO 00000KT 10SM CLR A3019 RMK MADISHF
DEW,2017-04-01 06:05,-117.4211,47.9689,M,M,M,0.00,0.00,M,30.19,M,10.00,M,CLR,M,M,M,M,M,M,M,M,KDEW 010605Z AUTO 00000KT 10SM CLR A3019 RMK MADISHF
DEW,2017-04-01 06:10,-117.4211,47.9689,M,M,M,0.00,0.00,M,30.19,M,10.00,M,CLR,M,M,M,M,M,M,M,M,KDEW 010610Z AUTO 00000KT 10SM CLR A3019 RMK MADISHF
DEW,2017-04-01 06:15,-117.4211,47.9689,M,M,M,0.00,0.00,M,30.19,M,10.00,M,CLR,M,M,M,M,M,M,M,M,KDEW 010615Z AUTO 00000KT 10SM CLR A3019 RMK MADISHF
DEW,2017-04-01 06:20,-117.4211,47.9689,M,M,M,0.00,0.00,M,30.19,M,10.00,M,CLR,M,M,M,M,M,M,M,M,KDEW 010620Z AUTO 00000KT 10SM CLR A3019 RMK MADISHF
DEW,2017-04-01 06:25,-117.4211,47.9689,M,M,M,0.00,0.00,M,30.19,M,10.00,M,CLR,M,M,M,M,M,M,M,M,KDEW 010625Z AUTO 00000KT 10SM CLR A3019 RMK MADISHF
DEW,2017-04-01 06:30,-117.4211,47.9689,M,M,M,0.00,0.00,M,30.19,M,10.00,M,CLR,M,M,M,M,M,M,M,M,KDEW 010630Z AUTO 00000KT 10SM CLR A3019 RMK MADISHF
DEW,2017-04-01 06:35,-117.4211,47.9689,M,M,M,130.00,4.00,M,30.19,M,10.00,M,CLR,M,M,M,M,M,M,M,M,KDEW 010635Z AUTO 13004KT 10SM CLR A3019 RMK MADISHF
DEW,2017-04-01 06:40,-117.4211,47.9689,M,M,M,130.00,4.00,M,30.19,M,10.00,M,CLR,M,M,M,M,M,M,M,M,KDEW 010640Z AUTO 13004KT 10SM CLR A3019 RMK MADISHF
DEW,2017-04-01 06:45,-117.4211,47.9689,M,M,M,130.00,4.00,M,30.18,M,10.00,M,CLR,M,M,M,M,M,M,M,M,KDEW 010645Z AUTO 13004KT 10SM CLR A3018 RMK MADISHF
DEW,2017-04-01 06:50,-117.4211,47.9689,M,M,M,130.00,4.00,M,30.18,M,10.00,M,CLR,M,M,M,M,M,M,M,M,KDEW 010650Z AUTO 13004KT 10SM CLR A3018 RMK MADISHF
DEW,2017-04-01 06:53,-117.4211,47.9689,33.10,30.00,88.23,130.00,4.00,0.00,30.18,1023.30,10.00,M,CLR,M,M,M,M,M,M,M,M,KDEW 010653Z AUTO 13004KT 10SM CLR 01/M01 A3018 RMK AO2 SLP233 T00061011
DEW,2017-04-01 06:55,-117.4211,47.9689,M,M,M,130.00,4.00,M,30.18,M,10.00,M,CLR,M,M,M,M,M,M,M,M,KDEW 010655Z AUTO 13004KT 10SM CLR A3018 RMK MADISHF
DEW,2017-04-01 07:00,-117.4211,47.9689,M,M,M,130.00,4.00,M,30.18,M,10.00,M,CLR,M,M,M,M,M,M,M,M,KDEW 010700Z AUTO 13004KT 10SM CLR A3018 RMK MADISHF
DEW,2017-04-01 07:05,-117.4211,47.9689,M,M,M,120.00,4.00,M,30.18,M,10.00,M,CLR,M,M,M,M,M,M,M,M,KDEW 010705Z AUTO 12004KT 10SM CLR A3018 RMK MADISHF
DEW,2017-04-01 07:10,-117.4211,47.9689,M,M,M,130.00,4.00,M,30.18,M,10.00,M,CLR,M,M,M,M,M,M,M,M,KDEW 010710Z AUTO 13004KT 10SM CLR A3018 RMK MADISHF
DEW,2017-04-01 07:15,-117.4211,47.9689,M,M,M,120.00,4.00,M,30.18,M,10.00,M,CLR,M,M,M,M,M,M,M,M,KDEW 010715Z AUTO 12004KT 10SM CLR A3018 RMK MADISHF
DEW,2017-04-01 07:20,-117.4211,47.9689,M,M,M,0.00,0.00,M,30.18,M,10.00,M,CLR,M,M,M,M,M,M,M,M,KDEW 010720Z AUTO 00000KT 10SM CLR A3018 RMK MADISHF
DEW,2017-04-01 07:25,-117.4211,47.9689,M,M,M,0.00,0.00,M,30.18,M,10.00,M,CLR,M,M,M,M,M,M,M,M,KDEW 010725Z AUTO 00000KT 10SM CLR A3018 RMK MADISHF
DEW,2017-04-01 07:30,-117.4211,47.9689,M,M,M,0.00,0.00,M,30.18,M,10.00,M,CLR,M,M,M,M,M,M,M,M,KDEW 010730Z AUTO 00000KT 10SM CLR A3018 RMK MADISHF
DEW,2017-04-01 07:35,-117.4211,47.9689,M,M,M,0.00,0.00,M,30.18,M,10.00,M,CLR,M,M,M,M,M,M,M,M,KDEW 010735Z AUTO 00000KT 10SM CLR A3018 RMK MADISHF
DEW,2017-04-01 07:40,-117.4211,47.9689,M,M,M,0.00,0.00,M,30.18,M,10.00,M,CLR,M,M,M,M,M,M,M,M,KDEW 010740Z AUTO 00000KT 10SM CLR A3018 RMK MADISHF
DEW,2017-04-01 07:45,-117.4211,47.9689,M,M,M,0.00,0.00,M,30.18,M,10.00,M,CLR,M,M,M,M,M,M,M,M,KDEW 010745Z AUTO 00000KT 10SM CLR A3018 RMK MADISHF
DEW,2017-04-01 07:50,-117.4211,47.9689,M,M,M,0.00,0.00,M,30.18,M,10.00,M,CLR,M,M,M,M,M,M,M,M,KDEW 010750Z AUTO 00000KT 10SM CLR A3018 RMK MADISHF
DEW,2017-04-01 07:53,-117.4211,47.9689,34.00,30.90,88.27,0.00,0.00,0.00,30.18,1023.10,10.00,M,CLR,M,M,M,M,M,M,M,M,KDEW 010753Z AUTO 00000KT 10SM CLR 01/M01 A3018 RMK AO2 SLP231 T00111006 401391028
DEW,2017-04-01 07:55,-117.4211,47.9689,M,M,M,0.00,0.00,M,30.18,M,10.00,M,CLR,M,M,M,M,M,M,M,M,KDEW 010755Z AUTO 00000KT 10SM CLR A3018 RMK MADISHF
DEW,2017-04-01 08:00,-117.4211,47.9689,M,M,M,0.00,0.00,M,30.19,M,10.00,M,CLR,M,M,M,M,M,M,M,M,KDEW 010800Z AUTO 00000KT 10SM CLR A3019 RMK MADISHF
DEW,2017-04-01 08:05,-117.4211,47.9689,M,M,M,0.00,0.00,M,30.19,M,10.00,M,CLR,M,M,M,M,M,M,M,M,KDEW 010805Z AUTO 00000KT 10SM CLR A3019 RMK MADISHF
DEW,2017-04-01 08:10,-117.4211,47.9689,M,M,M,0.00,0.00,M,30.19,M,10.00,M,CLR,M,M,M,M,M,M,M,M,KDEW 010810Z AUTO 00000KT 10SM CLR A3019 RMK MADISHF
DEW,2017-04-01 08:15,-117.4211,47.9689,M,M,M,0.00,0.00,M,30.18,M,10.00,M,CLR,M,M,M,M,M,M,M,M,KDEW 010815Z AUTO 00000KT 10SM CLR A3018 RMK MADISHF
DEW,2017-04-01 08:20,-117.4211,47.9689,M,M,M,0.00,0.00,M,30.18,M,10.00,M,CLR,M,M,M,M,M,M,M,M,KDEW 010820Z AUTO 00000KT 10SM CLR A3018 RMK MADISHF
DEW,2017-04-01 08:25,-117.4211,47.9689,M,M,M,0.00,0.00,M,30.18,M,10.00,M,CLR,M,M,M,M,M,M,M,M,KDEW 010825Z AUTO 00000KT 10SM CLR A3018 RMK MADISHF
DEW,2017-04-01 08:30,-117.4211,47.9689,M,M,M,0.00,0.00,M,30.17,M,10.00,M,CLR,M,M,M,M,M,M,M,M,KDEW 010830Z AUTO 00000KT 10SM CLR A3017 RMK MADISHF
DEW,2017-04-01 08:35,-117.4211,47.9689,M,M,M,0.00,0.00,M,30.17,M,10.00,M,CLR,M,M,M,M,M,M,M,M,KDEW 010835Z AUTO 00000KT 10SM CLR A3017 RMK MADISHF
DEW,2017-04-01 08:40,-117.4211,47.9689,M,M,M,0.00,0.00,M,30.17,M,10.00,M,CLR,M,M,M,M,M,M,M,M,KDEW 010840Z AUTO 00000KT 10SM CLR A3017 RMK MADISHF
DEW,2017-04-01 08:45,-117.4211,47.9689,M,M,M,0.00,0.00,M,30.17,M,10.00,M,CLR,M,M,M,M,M,M,M,M,KDEW 010845Z AUTO 00000KT 10SM CLR A3017 RMK MADISHF
DEW,2017-04-01 08:50,-117.4211,47.9689,M,M,M,120.00,3.00,M,30.16,M,10.00,M,CLR,M,M,M,M,M,M,M,M,KDEW 010850Z AUTO 12003KT 10SM CLR A3016 RMK MADISHF
DEW,2017-04-01 08:53,-117.4211,47.9689,32.00,30.00,92.22,130.00,4.00,0.00,30.16,1022.20,10.00,M,CLR,M,M,M,M,M,M,M,M,KDEW 010853Z AUTO 13004KT 10SM CLR 00/M01 A3016 RMK AO2 SLP222 T00001011 58011
DEW,2017-04-01 08:55,-117.4211,47.9689,M,M,M,130.00,5.00,M,30.15,M,10.00,M,CLR,M,M,M,M,M,M,M,M,KDEW 010855Z AUTO 13005KT 10SM CLR A3015 RMK MADISHF
DEW,2017-04-01 09:00,-117.4211,47.9689,M,M,M,140.00,5.00,M,30.15,M,10.00,M,CLR,M,M,M,M,M,M,M,M,KDEW 010900Z AUTO 14005KT 10SM CLR A3015 RMK MADISHF
DEW,2017-04-01 09:05,-117.4211,47.9689,M,M,M,140.00,4.00,M,30.14,M,10.00,M,CLR,M,M,M,M,M,M,M,M,KDEW 010905Z AUTO 14004KT 10SM CLR A3014 RMK MADISHF
DEW,2017-04-01 09:10,-117.4211,47.9689,M,M,M,150.00,3.00,M,30.14,M,10.00,M,CLR,M,M,M,M,M,M,M,M,KDEW 010910Z AUTO 15003KT 10SM CLR A3014 RMK MADISHF
DEW,2017-04-01 09:15,-117.4211,47.9689,M,M,M,150.00,3.00,M,30.14,M,10.00,M,CLR,M,M,M,M,M,M,M,M,KDEW 010915Z AUTO 15003KT 10SM CLR A3014 RMK MADISHF
DEW,2017-04-01 09:20,-117.4211,47.9689,M,M,M,0.00,0.00,M,30.14,M,10.00,M,CLR,M,M,M,M,M,M,M,M,KDEW 010920Z AUTO 00000KT 10SM CLR A3014 RMK MADISHF
DEW,2017-04-01 09:25,-117.4211,47.9689,M,M,M,140.00,3.00,M,30.14,M,10.00,M,CLR,M,M,M,M,M,M,M,M,KDEW 010925Z AUTO 14003KT 10SM CLR A3014 RMK MADISHF
DEW,2017-04-01 09:30,-117.4211,47.9689,M,M,M,140.00,3.00,M,30.14,M,10.00,M,CLR,M,M,M,M,M,M,M,M,KDEW 010930Z AUTO 14003KT 10SM CLR A3014 RMK MADISHF
DEW,2017-04-01 09:35,-117.4211,47.9689,M,M,M,130.00,3.00,M,30.14,M,10.00,M,CLR,M,M,M,M,M,M,M,M,KDEW 010935Z AUTO 13003KT 10SM CLR A3014 RMK MADISHF
DEW,2017-04-01 09:40,-117.4211,47.9689,M,M,M,0.00,0.00,M,30.15,M,10.00,M,CLR,M,M,M,M,M,M,M,M,KDEW 010940Z AUTO 00000KT 10SM CLR A3015 RMK MADISHF
DEW,2017-04-01 09:45,-117.4211,47.9689,M,M,M,0.00,0.00,M,30.15,M,10.00,M,CLR,M,M,M,M,M,M,M,M,KDEW 010945Z AUTO 00000KT 10SM CLR A3015 RMK MADISHF
DEW,2017-04-01 09:50,-117.4211,47.9689,M,M,M,0.00,0.00,M,30.14,M,10.00,M,CLR,M,M,M,M,M,M,M,M,KDEW 010950Z AUTO 00000KT 10SM CLR A3014 RMK MADISHF
DEW,2017-04-01 09:53,-117.4211,47.9689,33.10,30.00,88.23,0.00,0.00,0.00,30.14,1021.70,10.00,M,CLR,M,M,M,M,M,M,M,M,KDEW 010953Z AUTO 00000KT 10SM CLR 01/M01 A3014 RMK AO2 SLP217 T00061011
DEW,2017-04-01 09:55,-117.4211,47.9689,M,M,M,0.00,0.00,M,30.14,M,10.00,M,CLR,M,M,M,M,M,M,M,M,KDEW 010955Z AUTO 00000KT 10SM CLR A3014 RMK MADISHF
DEW,2017-04-01 10:00,-117.4211,47.9689,M,M,M,0.00,0.00,M,30.14,M,10.00,M,CLR,M,M,M,M,M,M,M,M,KDEW 011000Z AUTO 00000KT 10SM CLR A3014 RMK MADISHF
DEW,2017-04-01 10:05,-117.4211,47.9689,M,M,M,0.00,0.00,M,30.14,M,10.00,M,CLR,M,M,M,M,M,M,M,M,KDEW 011005Z AUTO 00000KT 10SM CLR A3014 RMK MADISHF
DEW,2017-04-01 10:10,-117.4211,47.9689,M,M,M,0.00,0.00,M,30.14,M,10.00,M,CLR,M,M,M,M,M,M,M,M,KDEW 011010Z AUTO 00000KT 10SM CLR A3014 RMK MADISHF
DEW,2017-04-01 10:15,-117.4211,47.9689,M,M,M,0.00,0.00,M,30.14,M,10.00,M,CLR,M,M,M,M,M,M,M,M,KDEW 011015Z AUTO 00000KT 10SM CLR A3014 RMK MADISHF
DEW,2017-04-01 10:20,-117.4211,47.9689,M,M,M,310.00,3.00,M,30.14,M,10.00,M,CLR,M,M,M,M,M,M,M,M,KDEW 011020Z AUTO 31003KT 10SM CLR A3014 RMK MADISHF
DEW,2017-04-01 10:25,-117.4211,47.9689,M,M,M,320.00,4.00,M,30.15,M,10.00,M,CLR,M,M,M,M,M,M,M,M,KDEW 011025Z AUTO 32004KT 10SM CLR A3015 RMK MADISHF
DEW,2017-04-01 10:30,-117.4211,47.9689,M,M,M,330.00,4.00,M,30.15,M,10.00,M,CLR,M,M,M,M,M,M,M,M,KDEW 011030Z AUTO 33004KT 10SM CLR A3015 RMK MADISHF
DEW,2017-04-01 10:35,-117.4211,47.9689,M,M,M,330.00,4.00,M,30.15,M,10.00,M,CLR,M,M,M,M,M,M,M,M,KDEW 011035Z AUTO 33004KT 10SM CLR A3015 RMK MADISHF
DEW,2017-04-01 10:40,-117.4211,47.9689,M,M,M,340.00,3.00,M,30.15,M,10.00,M,CLR,M,M,M,M,M,M,M,M,KDEW 011040Z AUTO 34003KT 10SM CLR A3015 RMK MADISHF
DEW,2017-04-01 10:45,-117.4211,47.9689,M,M,M,0.00,0.00,M,30.15,M,10.00,M,CLR,M,M,M,M,M,M,M,M,KDEW 011045Z AUTO 00000KT 10SM CLR A3015 RMK MADISHF
DEW,2017-04-01 10:50,-117.4211,47.9689,M,M,M,0.00,0.00,M,30.15,M,10.00,M,CLR,M,M,M,M,M,M,M,M,KDEW 011050Z AUTO 00000KT 10SM CLR A3015 RMK MADISHF
DEW,2017-04-01 10:53,-117.4211,47.9689,30.90,28.90,92.18,0.00,0.00,0.00,30.15,1021.80,10.00,M,CLR,M,M,M,M,M,M,M,M,KDEW 011053Z AUTO 00000KT 10SM CLR M01/M02 A3015 RMK AO2 SLP218 T10061017
DEW,2017-04-01 10:55,-117.4211,47.9689,M,M,M,0.00,0.00,M,30.15,M,10.00,M,CLR,M,M,M,M,M,M,M,M,KDEW 011055Z AUTO 00000KT 10SM CLR A3015 RMK MADISHF
DEW,2017-04-01 11:00,-117.4211,47.9689,M,M,M,0.00,0.00,M,30.15,M,10.00,M,CLR,M,M,M,M,M,M,M,M,KDEW 011100Z AUTO 00000KT 10SM CLR A3015 RMK MADISHF
DEW,2017-04-01 11:05,-117.4211,47.9689,M,M,M,0.00,0.00,M,30.14,M,10.00,M,FEW,M,M,M,11000.00,M,M,M,M,KDEW 011105Z AUTO 00000KT 10SM FEW110 A3014 RMK MADISHF
DEW,2017-04-01 11:10,-117.4211,47.9689,M,M,M,0.00,0.00,M,30.14,M,10.00,M,SCT,M,M,M,11000.00,M,M,M,M,KDEW 011110Z AUTO 00000KT 10SM SCT110 A3014 RMK MADISHF
DEW,2017-04-01 11:15,-117.4211,47.9689,M,M,M,0.00,0.00,M,30.14,M,10.00,M,BKN,M,M,M,11000.00,M,M,M,M,KDEW 011115Z AUTO 00000KT 10SM BKN110 A3014 RMK MADISHF
DEW,2017-04-01 11:20,-117.4211,47.9689,M,M,M,0.00,0.00,M,30.14,M,10.00,M,BKN,M,M,M,11000.00,M,M,M,M,KDEW 011120Z AUTO 00000KT 10SM BKN110 A3014 RMK MADISHF
DEW,2017-04-01 11:25,-117.4211,47.9689,M,M,M,120.00,3.00,M,30.13,M,10.00,M,BKN,M,M,M,10000.00,M,M,M,M,KDEW 011125Z AUTO 12003KT 10SM BKN100 A3013 RMK MADISHF
DEW,2017-04-01 11:30,-117.4211,47.9689,M,M,M,120.00,3.00,M,30.14,M,10.00,M,OVC,M,M,M,10000.00,M,M,M,M,KDEW 011130Z AUTO 12003KT 10SM OVC100 A3014 RMK MADISHF
DEW,2017-04-01 11:35,-117.4211,47.9689,M,M,M,110.00,3.00,M,30.13,M,10.00,M,OVC,M,M,M,10000.00,M,M,M,M,KDEW 011135Z AUTO 11003KT 10SM OVC100 A3013 RMK MADISHF
DEW,2017-04-01 11:40,-117.4211,47.9689,M,M,M,110.00,3.00,M,30.13,M,10.00,M,OVC,M,M,M,10000.00,M,M,M,M,KDEW 011140Z AUTO 11003KT 10SM OVC100 A3013 RMK MADISHF
DEW,2017-04-01 11:45,-117.4211,47.9689,M,M,M,120.00,4.00,M,30.13,M,10.00,M,OVC,M,M,M,10000.00,M,M,M,M,KDEW 011145Z AUTO 12004KT 10SM OVC100 A3013 RMK MADISHF
DEW,2017-04-01 11:50,-117.4211,47.9689,M,M,M,120.00,4.00,M,30.13,M,10.00,M,OVC,M,M,M,10000.00,M,M,M,M,KDEW 011150Z AUTO 12004KT 10SM OVC100 A3013 RMK MADISHF
DEW,2017-04-01 11:53,-117.4211,47.9689,33.10,30.90,91.51,110.00,4.00,0.00,30.13,1021.20,10.00,M,OVC,M,M,M,10000.00,M,M,M,M,KDEW 011153Z AUTO 11004KT 10SM OVC100 01/M01 A3013 RMK AO2 SLP212 7//// T00061006 10039 21017 58008
DEW,2017-04-01 11:55,-117.4211,47.9689,M,M,M,110.00,4.00,M,30.13,M,10.00,M,OVC,M,M,M,10000.00,M,M,M,M,KDEW 011155Z AUTO 11004KT 10SM OVC100 A3013 RMK MADISHF
DEW,2017-04-01 12:00,-117.4211,47.9689,M,M,M,120.00,3.00,M,30.13,M,10.00,M,OVC,M,M,M,10000.00,M,M,M,M,KDEW 011200Z AUTO 12003KT 10SM OVC100 A3013 RMK MADISHF
DEW,2017-04-01 12:05,-117.4211,47.9689,M,M,M,130.00,3.00,M,30.14,M,10.00,M,OVC,M,M,M,10000.00,M,M,M,M,KDEW 011205Z AUTO 13003KT 10SM OVC100 A3014 RMK MADISHF
DEW,2017-04-01 12:10,-117.4211,47.9689,M,M,M,0.00,0.00,M,30.14,M,10.00,M,OVC,M,M,M,10000.00,M,M,M,M,KDEW 011210Z AUTO 00000KT 10SM OVC100 A3014 RMK MADISHF
DEW,2017-04-01 12:15,-117.4211,47.9689,M,M,M,0.00,0.00,M,30.13,M,10.00,M,OVC,M,M,M,10000.00,M,M,M,M,KDEW 011215Z AUTO 00000KT 10SM OVC100 A3013 RMK MADISHF
DEW,2017-04-01 12:20,-117.4211,47.9689,M,M,M,0.00,0.00,M,30.13,M,10.00,M,OVC,M,M,M,10000.00,M,M,M,M,KDEW 011220Z AUTO 00000KT 10SM OVC100 A3013 RMK MADISHF
DEW,2017-04-01 12:25,-117.4211,47.9689,M,M,M,290.00,3.00,M,30.13,M,10.00,M,OVC,M,M,M,10000.00,M,M,M,M,KDEW 011225Z AUTO 29003KT 10SM OVC100 A3013 RMK MADISHF
DEW,2017-04-01 12:30,-117.4211,47.9689,M,M,M,300.00,3.00,M,30.13,M,10.00,M,OVC,M,M,M,10000.00,M,M,M,M,KDEW 011230Z AUTO 30003KT 10SM OVC100 A3013 RMK MADISHF
DEW,2017-04-01 12:35,-117.4211,47.9689,M,M,M,300.00,4.00,M,30.13,M,10.00,M,OVC,M,M,M,10000.00,M,M,M,M,KDEW 011235Z AUTO 30004KT 10SM OVC100 A3013 RMK MADISHF
DEW,2017-04-01 12:40,-117.4211,47.9689,M,M,M,320.00,3.00,M,30.13,M,10.00,M,OVC,M,M,M,10000.00,M,M,M,M,KDEW 011240Z AUTO 32003KT 10SM OVC100 A3013 RMK MADISHF
DEW,2017-04-01 12:45,-117.4211,47.9689,M,M,M,0.00,0.00,M,30.13,M,10.00,M,OVC,M,M,M,10000.00,M,M,M,M,KDEW 011245Z AUTO 00000KT 10SM OVC100 A3013 RMK MADISHF
DEW,2017-04-01 12:50,-117.4211,47.9689,M,M,M,310.00,3.00,M,30.13,M,10.00,M,OVC,M,M,M,10000.00,M,M,M,M,KDEW 011250Z AUTO 31003KT 10SM OVC100 A3013 RMK MADISHF
DEW,2017-04-01 12:53,-117.4211,47.9689,35.10,32.00,88.33,310.00,3.00,0.00,30.13,1021.10,10.00,M,OVC,M,M,M,9500.00,M,M,M,M,KDEW 011253Z AUTO 31003KT 10SM OVC095 02/00 A3013 RMK AO2 SLP211 T00170000
DEW,2017-04-01 12:55,-117.4211,47.9689,M,M,M,320.00,3.00,M,30.13,M,10.00,M,BKN,OVC,M,M,9000.00,10000.00,M,M,M,KDEW 011255Z AUTO 32003KT 10SM BKN090 OVC100 A3013 RMK MADISHF
DEW,2017-04-01 13:00,-117.4211,47.9689,M,M,M,350.00,3.00,M,30.13,M,10.00,M,BKN,OVC,M,M,8500.00,10000.00,M,M,M,KDEW 011300Z AUTO 35003KT 10SM BKN085 OVC100 A3013 RMK MADISHF
DEW,2017-04-01 13:05,-117.4211,47.9689,M,M,M,0.00,0.00,M,30.13,M,10.00,M,BKN,OVC,M,M,8500.00,10000.00,M,M,M,KDEW 011305Z AUTO 00000KT 10SM BKN085 OVC100 A3013 RMK MADISHF
DEW,2017-04-01 13:10,-117.4211,47.9689,M,M,M,0.00,0.00,M,30.13,M,10.00,M,OVC,M,M,M,8500.00,M,M,M,M,KDEW 011310Z AUTO 00000KT 10SM OVC085 A3013 RMK MADISHF
DEW,2017-04-01 13:15,-117.4211,47.9689,M,M,M,0.00,0.00,M,30.13,M,10.00,M,OVC,M,M,M,7999.00,M,M,M,M,KDEW 011315Z AUTO 00000KT 10SM OVC079 A3013 RMK MADISHF
DEW,2017-04-01 13:20,-117.4211,47.9689,M,M,M,0.00,0.00,M,30.13,M,10.00,M,OVC,M,M,M,7999.00,M,M,M,M,KDEW 011320Z AUTO 00000KT 10SM OVC079 A3013 RMK MADISHF
DEW,2017-04-01 13:25,-117.4211,47.9689,M,M,M,M,M,M,30.12,M,10.00,M,OVC,M,M,M,8500.00,M,M,M,M,KDEW 011325Z AUTO /////KT 10SM OVC085 A3012 RMK MADISHF
DEW,2017-04-01 13:30,-117.4211,47.9689,M,M,M,M,M,M,30.12,M,10.00,M,OVC,M,M,M,9000.00,M,M,M,M,KDEW 011330Z AUTO /////KT 10SM OVC090 A3012 RMK MADISHF
DEW,2017-04-01 13:35,-117.4211,47.9689,M,M,M,M,M,M,30.12,M,10.00,M,OVC,M,M,M,9000.00,M,M,M,M,KDEW 011335Z AUTO /////KT 10SM OVC090 A3012 RMK MADISHF
DEW,2017-04-01 13:40,-117.4211,47.9689,M,M,M,M,M,M,30.11,M,10.00,M,OVC,M,M,M,9000.00,M,M,M,M,KDEW 011340Z AUTO /////KT 10SM OVC090 A3011 RMK MADISHF
DEW,2017-04-01 13:45,-117.4211,47.9689,M,M,M,0.00,0.00,M,30.12,M,10.00,M,BKN,OVC,M,M,7999.00,9500.00,M,M,M,KDEW 011345Z AUTO 00000KT 10SM BKN079 OVC095 A3012 RMK MADISHF
DEW,2017-04-01 13:50,-117.4211,47.9689,M,M,M,0.00,0.00,M,30.12,M,10.00,M,FEW,OVC,M,M,7500.00,9000.00,M,M,M,KDEW 011350Z AUTO 00000KT 10SM FEW075 OVC090 A3012 RMK MADISHF
DEW,2017-04-01 13:53,-117.4211,47.9689,36.00,33.10,89.09,0.00,0.00,0.00,30.12,1020.70,10.00,M,FEW,OVC,M,M,7500.00,9000.00,M,M,M,KDEW 011353Z AUTO 00000KT 10SM FEW075 OVC090 02/01 A3012 RMK AO2 SLP207 T00220006
DEW,2017-04-01 13:55,-117.4211,47.9689,M,M,M,0.00,0.00,M,30.12,M,10.00,M,FEW,OVC,M,M,7000.00,9000.00,M,M,M,KDEW 011355Z AUTO 00000KT 10SM FEW070 OVC090 A3012 RMK MADISHF
DEW,2017-04-01 14:00,-117.4211,47.9689,M,M,M,0.00,0.00,M,30.12,M,10.00,M,FEW,OVC,M,M,7000.00,9000.00,M,M,M,KDEW 011400Z AUTO 00000KT 10SM FEW070 OVC090 A3012 RMK MADISHF
DEW,2017-04-01 14:05,-117.4211,47.9689,M,M,M,0.00,0.00,M,30.11,M,10.00,M,FEW,OVC,M,M,7000.00,8500.00,M,M,M,KDEW 011405Z AUTO 00000KT 10SM FEW070 OVC085 A3011 RMK MADISHF
DEW,2017-04-01 14:10,-117.4211,47.9689,M,M,M,0.00,0.00,M,30.12,M,10.00,M,FEW,OVC,M,M,7000.00,8500.00,M,M,M,KDEW 011410Z AUTO 00000KT 10SM FEW070 OVC085 A3012 RMK MADISHF
DEW,2017-04-01 14:15,-117.4211,47.9689,M,M,M,0.00,0.00,M,30.11,M,10.00,M,SCT,OVC,M,M,7000.00,8500.00,M,M,M,KDEW 011415Z AUTO 00000KT 10SM SCT070 OVC085 A3011 RMK MADISHF
DEW,2017-04-01 14:20,-117.4211,47.9689,M,M,M,0.00,0.00,M,30.11,M,10.00,M,OVC,M,M,M,7500.00,M,M,M,M,KDEW 011420Z AUTO 00000KT 10SM OVC075 A3011 RMK MADISHF
DEW,2017-04-01 14:25,-117.4211,47.9689,M,M,M,0.00,0.00,M,30.11,M,10.00,M,OVC,M,M,M,7500.00,M,M,M,M,KDEW 011425Z AUTO 00000KT 10SM OVC075 A3011 RMK MADISHF
DEW,2017-04-01 14:30,-117.4211,47.9689,M,M,M,0.00,0.00,M,30.11,M,10.00,M,OVC,M,M,M,7500.00,M,M,M,M,KDEW 011430Z AUTO 00000KT 10SM OVC075 A3011 RMK MADISHF
DEW,2017-04-01 14:35,-117.4211,47.9689,M,M,M,0.00,0.00,M,30.11,M,10.00,M,OVC,M,M,M,7500.00,M,M,M,M,KDEW 011435Z AUTO 00000KT 10SM OVC075 A3011 RMK MADISHF
DEW,2017-04-01 14:40,-117.4211,47.9689,M,M,M,0.00,0.00,M,30.11,M,10.00,M,OVC,M,M,M,7000.00,M,M,M,M,KDEW 011440Z AUTO 00000KT 10SM OVC070 A3011 RMK MADISHF
DEW,2017-04-01 14:45,-117.4211,47.9689,M,M,M,0.00,0.00,M,30.11,M,10.00,M,OVC,M,M,M,7000.00,M,M,M,M,KDEW 011445Z AUTO 00000KT 10SM OVC070 A3011 RMK MADISHF
DEW,2017-04-01 14:50,-117.4211,47.9689,M,M,M,0.00,0.00,M,30.11,M,10.00,M,OVC,M,M,M,7000.00,M,M,M,M,KDEW 011450Z AUTO 00000KT 10SM OVC070 A3011 RMK MADISHF
DEW,2017-04-01 14:53,-117.4211,47.9689,39.90,35.10,82.80,0.00,0.00,0.00,30.10,1020.60,10.00,M,OVC,M,M,M,6500.00,M,M,M,M,KDEW 011453Z AUTO 00000KT 10SM OVC065 04/02 A3010 RMK AO2 SLP206 T00440017 58008
DEW,2017-04-01 14:55,-117.4211,47.9689,M,M,M,0.00,0.00,M,30.11,M,10.00,M,BKN,OVC,M,M,6000.00,7500.00,M,M,M,KDEW 011455Z AUTO 00000KT 10SM BKN060 OVC075 A3011 RMK MADISHF
DEW,2017-04-01 15:00,-117.4211,47.9689,M,M,M,0.00,0.00,M,30.11,M,10.00,M,BKN,OVC,M,M,6000.00,7500.00,M,M,M,KDEW 011500Z AUTO 00000KT 10SM BKN060 OVC075 A3011 RMK MADISHF
DEW,2017-04-01 15:05,-117.4211,47.9689,M,M,M,0.00,0.00,M,30.11,M,10.00,M,OVC,M,M,M,6000.00,M,M,M,M,KDEW 011505Z AUTO 00000KT 10SM OVC060 A3011 RMK MADISHF
DEW,2017-04-01 15:10,-117.4211,47.9689,M,M,M,0.00,0.00,M,30.11,M,10.00,M,OVC,M,M,M,6000.00,M,M,M,M,KDEW 011510Z AUTO 00000KT 10SM OVC060 A3011 RMK MADISHF
DEW,2017-04-01 15:15,-117.4211,47.9689,M,M,M,310.00,3.00,M,30.11,M,10.00,M,OVC,M,M,M,6000.00,M,M,M,M,KDEW 011515Z AUTO 31003KT 10SM OVC060 A3011 RMK MADISHF
DEW,2017-04-01 15:20,-117.4211,47.9689,M,M,M,310.00,4.00,M,30.12,M,10.00,M,OVC,M,M,M,6000.00,M,M,M,M,KDEW 011520Z AUTO 31004KT 10SM OVC060 A3012 RMK MADISHF
DEW,2017-04-01 15:25,-117.4211,47.9689,M,M,M,310.00,3.00,M,30.12,M,10.00,M,OVC,M,M,M,6000.00,M,M,M,M,KDEW 011525Z AUTO 31003KT 10SM OVC060 A3012 RMK MADISHF
DEW,2017-04-01 15:30,-117.4211,47.9689,M,M,M,310.00,3.00,M,30.12,M,10.00,M,OVC,M,M,M,6000.00,M,M,M,M,KDEW 011530Z AUTO 31003KT 10SM OVC060 A3012 RMK MADISHF
DEW,2017-04-01 15:35,-117.4211,47.9689,M,M,M,320.00,3.00,M,30.12,M,10.00,M,OVC,M,M,M,6000.00,M,M,M,M,KDEW 011535Z AUTO 32003KT 10SM OVC060 A3012 RMK MADISHF
DEW,2017-04-01 15:40,-117.4211,47.9689,M,M,M,0.00,0.00,M,30.11,M,10.00,M,OVC,M,M,M,6000.00,M,M,M,M,KDEW 011540Z AUTO 00000KT 10SM OVC060 A3011 RMK MADISHF
DEW,2017-04-01 15:45,-117.4211,47.9689,M,M,M,0.00,0.00,M,30.11,M,10.00,M,OVC,M,M,M,6000.00,M,M,M,M,KDEW 011545Z AUTO 00000KT 10SM OVC060 A3011 RMK MADISHF
DEW,2017-04-01 15:50,-117.4211,47.9689,M,M,M,0.00,0.00,M,30.11,M,10.00,M,OVC,M,M,M,6000.00,M,M,M,M,KDEW 011550Z AUTO 00000KT 10SM OVC060 A3011 RMK MADISHF
DEW,2017-04-01 15:53,-117.4211,47.9689,42.10,35.10,76.04,0.00,0.00,0.00,30.11,1020.70,10.00,M,OVC,M,M,M,6000.00,M,M,M,M,KDEW 011553Z AUTO 00000KT 10SM OVC060 06/02 A3011 RMK AO2 SLP207 T00560017
DEW,2017-04-01 15:55,-117.4211,47.9689,M,M,M,0.00,0.00,M,30.11,M,10.00,M,OVC,M,M,M,6000.00,M,M,M,M,KDEW 011555Z AUTO 00000KT 10SM OVC060 A3011 RMK MADISHF
DEW,2017-04-01 16:00,-117.4211,47.9689,M,M,M,0.00,0.00,M,30.10,M,10.00,M,OVC,M,M,M,6000.00,M,M,M,M,KDEW 011600Z AUTO 00000KT 10SM OVC060 A3010 RMK MADISHF
DEW,2017-04-01 16:05,-117.4211,47.9689,M,M,M,140.00,3.00,M,30.10,M,10.00,M,OVC,M,M,M,6000.00,M,M,M,M,KDEW 011605Z AUTO 14003KT 10SM OVC060 A3010 RMK MADISHF
DEW,2017-04-01 16:10,-117.4211,47.9689,M,M,M,0.00,0.00,M,30.10,M,10.00,M,OVC,M,M,M,6000.00,M,M,M,M,KDEW 011610Z AUTO 00000KT 10SM OVC060 A3010 RMK MADISHF
DEW,2017-04-01 16:15,-117.4211,47.9689,M,M,M,0.00,0.00,M,30.10,M,10.00,M,OVC,M,M,M,6000.00,M,M,M,M,KDEW 011615Z AUTO 00000KT 10SM OVC060 A3010 RMK MADISHF
DEW,2017-04-01 16:20,-117.4211,47.9689,M,M,M,0.00,0.00,M,30.10,M,10.00,M,OVC,M,M,M,6000.00,M,M,M,M,KDEW 011620Z AUTO 00000KT 10SM OVC060 A3010 RMK MADISHF
DEW,2017-04-01 16:25,-117.4211,47.9689,M,M,M,0.00,0.00,M,30.10,M,10.00,M,OVC,M,M,M,6000.00,M,M,M,M,KDEW 011625Z AUTO 00000KT 10SM OVC060 A3010 RMK MADISHF
DEW,2017-04-01 16:30,-117.4211,47.9689,M,M,M,190.00,6.00,M,30.10,M,10.00,M,OVC,M,M,M,6000.00,M,M,M,M,KDEW 011630Z AUTO 19006KT 10SM OVC060 A3010 RMK MADISHF
DEW,2017-04-01 16:35,-117.4211,47.9689,M,M,M,170.00,6.00,M,30.10,M,10.00,M,OVC,M,M,M,6000.00,M,M,M,M,KDEW 011635Z AUTO 17006KT 10SM OVC060 A3010 RMK MADISHF
DEW,2017-04-01 16:40,-117.4211,47.9689,M,M,M,160.00,6.00,M,30.10,M,10.00,M,OVC,M,M,M,6000.00,M,M,M,M,KDEW 011640Z AUTO 16006KT 10SM OVC060 A3010 RMK MADISHF
DEW,2017-04-01 16:45,-117.4211,47.9689,M,M,M,160.00,5.00,M,30.10,M,10.00,M,OVC,M,M,M,6000.00,M,M,M,M,KDEW 011645Z AUTO 16005KT 10SM OVC060 A3010 RMK MADISHF
DEW,2017-04-01 16:50,-117.4211,47.9689,M,M,M,150.00,6.00,M,30.10,M,10.00,M,OVC,M,M,M,6000.00,M,M,M,M,KDEW 011650Z AUTO 15006KT 10SM OVC060 A3010 RMK MADISHF
DEW,2017-04-01 16:53,-117.4211,47.9689,45.00,35.10,68.05,150.00,6.00,0.00,30.09,1020.40,10.00,M,OVC,M,M,M,6000.00,M,M,M,M,KDEW 011653Z AUTO 15006KT 10SM OVC060 07/02 A3009 RMK AO2 SLP204 T00720017
DEW,2017-04-01 16:55,-117.4211,47.9689,M,M,M,150.00,6.00,M,30.09,M,10.00,M,OVC,M,M,M,6000.00,M,M,M,M,KDEW 011655Z AUTO 15006KT 10SM OVC060 A3009 RMK MADISHF
DEW,2017-04-01 17:00,-117.4211,47.9689,M,M,M,160.00,6.00,M,30.09,M,10.00,M,OVC,M,M,M,6000.00,M,M,M,M,KDEW 011700Z AUTO 16006KT 10SM OVC060 A3009 RMK MADISHF
DEW,2017-04-01 17:05,-117.4211,47.9689,M,M,M,160.00,7.00,M,30.09,M,10.00,M,OVC,M,M,M,6000.00,M,M,M,M,KDEW 011705Z AUTO 16007KT 10SM OVC060 A3009 RMK MADISHF
DEW,2017-04-01 17:10,-117.4211,47.9689,M,M,M,140.00,7.00,M,30.09,M,10.00,M,OVC,M,M,M,6000.00,M,M,M,M,KDEW 011710Z AUTO 14007KT 10SM OVC060 A3009 RMK MADISHF
DEW,2017-04-01 17:15,-117.4211,47.9689,M,M,M,160.00,5.00,M,30.09,M,10.00,M,OVC,M,M,M,5500.00,M,M,M,M,KDEW 011715Z AUTO 16005KT 10SM OVC055 A3009 RMK MADISHF
DEW,2017-04-01 17:20,-117.4211,47.9689,M,M,M,140.00,5.00,M,30.09,M,10.00,M,OVC,M,M,M,5500.00,M,M,M,M,KDEW 011720Z AUTO 14005KT 10SM OVC055 A3009 RMK MADISHF
DEW,2017-04-01 17:25,-117.4211,47.9689,M,M,M,170.00,5.00,M,30.09,M,10.00,M,OVC,M,M,M,5500.00,M,M,M,M,KDEW 011725Z AUTO 17005KT 10SM OVC055 A3009 RMK MADISHF
DEW,2017-04-01 17:30,-117.4211,47.9689,M,M,M,150.00,6.00,M,30.08,M,10.00,M,OVC,M,M,M,5500.00,M,M,M,M,KDEW 011730Z AUTO 15006KT 10SM OVC055 A3008 RMK MADISHF
DEW,2017-04-01 17:35,-117.4211,47.9689,M,M,M,150.00,5.00,M,30.08,M,10.00,M,OVC,M,M,M,5500.00,M,M,M,M,KDEW 011735Z AUTO 15005KT 10SM OVC055 A3008 RMK MADISHF
DEW,2017-04-01 17:40,-117.4211,47.9689,M,M,M,160.00,6.00,M,30.08,M,10.00,M,OVC,M,M,M,5500.00,M,M,M,M,KDEW 011740Z AUTO 16006KT 10SM OVC055 A3008 RMK MADISHF
DEW,2017-04-01 17:45,-117.4211,47.9689,M,M,M,160.00,6.00,M,30.07,M,10.00,M,OVC,M,M,M,5500.00,M,M,M,M,KDEW 011745Z AUTO 16006KT 10SM OVC055 A3007 RMK MADISHF
DEW,2017-04-01 17:50,-117.4211,47.9689,M,M,M,160.00,7.00,M,30.07,M,10.00,M,OVC,M,M,M,5500.00,M,M,M,M,KDEW 011750Z AUTO 16007KT 10SM OVC055 A3007 RMK MADISHF
DEW,2017-04-01 17:53,-117.4211,47.9689,46.90,36.00,65.63,170.00,7.00,0.00,30.07,1019.40,10.00,M,OVC,M,M,M,5500.00,M,M,M,M,KDEW 011753Z AUTO 17007KT 10SM OVC055 08/02 A3007 RMK AO2 SLP194 T00830022 10083 20006 58011
DEW,2017-04-01 17:55,-117.4211,47.9689,M,M,M,170.00,7.00,M,30.07,M,10.00,M,OVC,M,M,M,5500.00,M,M,M,M,KDEW 011755Z AUTO 17007KT 10SM OVC055 A3007 RMK MADISHF
DEW,2017-04-01 18:00,-117.4211,47.9689,M,M,M,150.00,6.00,M,30.07,M,10.00,M,OVC,M,M,M,5500.00,M,M,M,M,KDEW 011800Z AUTO 15006KT 10SM OVC055 A3007 RMK MADISHF
DEW,2017-04-01 18:05,-117.4211,47.9689,M,M,M,180.00,8.00,M,30.07,M,10.00,M,OVC,M,M,M,5500.00,M,M,M,M,KDEW 011805Z AUTO 18008KT 10SM OVC055 A3007 RMK MADISHF
DEW,2017-04-01 18:10,-117.4211,47.9689,M,M,M,160.00,7.00,M,30.07,M,10.00,M,OVC,M,M,M,5000.00,M,M,M,M,KDEW 011810Z AUTO 16007KT 10SM OVC050 A3007 RMK MADISHF
DEW,2017-04-01 18:15,-117.4211,47.9689,M,M,M,160.00,5.00,M,30.07,M,10.00,M,OVC,M,M,M,5000.00,M,M,M,M,KDEW 011815Z AUTO 16005KT 10SM OVC050 A3007 RMK MADISHF
DEW,2017-04-01 18:20,-117.4211,47.9689,M,M,M,170.00,6.00,M,30.07,M,10.00,M,OVC,M,M,M,5000.00,M,M,M,M,KDEW 011820Z AUTO 17006KT 10SM OVC050 A3007 RMK MADISHF
DEW,2017-04-01 18:25,-117.4211,47.9689,M,M,M,150.00,6.00,M,30.07,M,10.00,M,OVC,M,M,M,5000.00,M,M,M,M,KDEW 011825Z AUTO 15006KT 10SM OVC050 A3007 RMK MADISHF
DEW,2017-04-01 18:30,-117.4211,47.9689,M,M,M,180.00,6.00,M,30.08,M,10.00,M,OVC,M,M,M,5000.00,M,M,M,M,KDEW 011830Z AUTO 18006KT 10SM OVC050 A3008 RMK MADISHF
DEW,2017-04-01 18:35,-117.4211,47.9689,M,M,M,180.00,7.00,M,30.07,M,10.00,M,OVC,M,M,M,5000.00,M,M,M,M,KDEW 011835Z AUTO 18007KT 10SM OVC050 A3007 RMK MADISHF
DEW,2017-04-01 18:40,-117.4211,47.9689,M,M,M,190.00,9.00,M,30.08,M,10.00,M,OVC,M,M,M,5500.00,M,M,M,M,KDEW 011840Z AUTO 19009KT 10SM OVC055 A3008 RMK MADISHF
DEW,2017-04-01 18:45,-117.4211,47.9689,M,M,M,180.00,8.00,M,30.07,M,10.00,M,OVC,M,M,M,5500.00,M,M,M,M,KDEW 011845Z AUTO 18008KT 10SM OVC055 A3007 RMK MADISHF
DEW,2017-04-01 18:50,-117.4211,47.9689,M,M,M,180.00,8.00,M,30.07,M,10.00,M,OVC,M,M,M,5500.00,M,M,M,M,KDEW 011850Z AUTO 18008KT 10SM OVC055 A3007 RMK MADISHF
DEW,2017-04-01 18:53,-117.4211,47.9689,48.90,36.00,60.88,160.00,7.00,0.00,30.07,1019.60,10.00,M,OVC,M,M,M,5500.00,M,M,M,M,KDEW 011853Z AUTO 16007KT 10SM OVC055 09/02 A3007 RMK AO2 SLP196 T00940022
DEW,2017-04-01 18:55,-117.4211,47.9689,M,M,M,170.00,7.00,M,30.07,M,10.00,M,OVC,M,M,M,5500.00,M,M,M,M,KDEW 011855Z AUTO 17007KT 10SM OVC055 A3007 RMK MADISHF
DEW,2017-04-01 19:00,-117.4211,47.9689,M,M,M,160.00,7.00,M,30.07,M,10.00,M,OVC,M,M,M,5500.00,M,M,M,M,KDEW 011900Z AUTO 16007KT 10SM OVC055 A3007 RMK MADISHF
DEW,2017-04-01 19:05,-117.4211,47.9689,M,M,M,160.00,6.00,M,30.07,M,10.00,M,OVC,M,M,M,5500.00,M,M,M,M,KDEW 011905Z AUTO 16006KT 10SM OVC055 A3007 RMK MADISHF
DEW,2017-04-01 19:10,-117.4211,47.9689,M,M,M,160.00,6.00,M,30.07,M,10.00,M,OVC,M,M,M,5000.00,M,M,M,M,KDEW 011910Z AUTO 16006KT 10SM OVC050 A3007 RMK MADISHF
DEW,2017-04-01 19:15,-117.4211,47.9689,M,M,M,140.00,5.00,M,30.07,M,10.00,M,OVC,M,M,M,5000.00,M,M,M,M,KDEW 011915Z AUTO 14005KT 10SM OVC050 A3007 RMK MADISHF
DEW,2017-04-01 19:20,-117.4211,47.9689,M,M,M,160.00,4.00,M,30.07,M,10.00,M,BKN,OVC,M,M,5000.00,6000.00,M,M,M,KDEW 011920Z AUTO 16004KT 10SM BKN050 OVC060 A3007 RMK MADISHF
DEW,2017-04-01 19:25,-117.4211,47.9689,M,M,M,150.00,6.00,M,30.06,M,10.00,M,OVC,M,M,M,4800.00,M,M,M,M,KDEW 011925Z AUTO 15006KT 10SM OVC048 A3006 RMK MADISHF
DEW,2017-04-01 19:30,-117.4211,47.9689,M,M,M,170.00,5.00,M,30.06,M,10.00,M,OVC,M,M,M,4800.00,M,M,M,M,KDEW 011930Z AUTO 17005KT 10SM OVC048 A3006 RMK MADISHF
DEW,2017-04-01 19:35,-117.4211,47.9689,M,M,M,160.00,3.00,M,30.06,M,10.00,M,OVC,M,M,M,4800.00,M,M,M,M,KDEW 011935Z AUTO 16003KT 10SM OVC048 A3006 RMK MADISHF
DEW,2017-04-01 19:40,-117.4211,47.9689,M,M,M,180.00,4.00,M,30.06,M,10.00,M,OVC,M,M,M,4800.00,M,M,M,M,KDEW 011940Z AUTO 18004KT 10SM OVC048 A3006 RMK MADISHF
DEW,2017-04-01 19:45,-117.4211,47.9689,M,M,M,170.00,4.00,M,30.05,M,10.00,M,OVC,M,M,M,4800.00,M,M,M,M,KDEW 011945Z AUTO 17004KT 10SM OVC048 A3005 RMK MADISHF
DEW,2017-04-01 19:50,-117.4211,47.9689,M,M,M,160.00,5.00,M,30.05,M,10.00,M,OVC,M,M,M,4700.00,M,M,M,M,KDEW 011950Z AUTO 16005KT 10SM OVC047 A3005 RMK MADISHF
DEW,2017-04-01 19:53,-117.4211,47.9689,50.00,36.00,58.44,160.00,5.00,0.00,30.05,1018.80,10.00,M,OVC,M,M,M,4700.00,M,M,M,M,KDEW 011953Z AUTO 16005KT 10SM OVC047 10/02 A3005 RMK AO2 SLP188 T01000022
DEW,2017-04-01 19:55,-117.4211,47.9689,M,M,M,180.00,6.00,M,30.05,M,10.00,M,OVC,M,M,M,4700.00,M,M,M,M,KDEW 011955Z AUTO 18006KT 10SM OVC047 A3005 RMK MADISHF
DEW,2017-04-01 20:00,-117.4211,47.9689,M,M,M,180.00,4.00,M,30.05,M,10.00,M,OVC,M,M,M,4500.00,M,M,M,M,KDEW 012000Z AUTO 18004KT 10SM OVC045 A3005 RMK MADISHF
DEW,2017-04-01 20:05,-117.4211,47.9689,M,M,M,180.00,5.00,M,30.05,M,10.00,M,OVC,M,M,M,4500.00,M,M,M,M,KDEW 012005Z AUTO 18005KT 10SM OVC045 A3005 RMK MADISHF
DEW,2017-04-01 20:10,-117.4211,47.9689,M,M,M,200.00,5.00,M,30.04,M,10.00,M,OVC,M,M,M,4500.00,M,M,M,M,KDEW 012010Z AUTO 20005KT 10SM OVC045 A3004 RMK MADISHF
DEW,2017-04-01 20:15,-117.4211,47.9689,M,M,M,180.00,4.00,M,30.04,M,10.00,M,OVC,M,M,M,4300.00,M,M,M,M,KDEW 012015Z AUTO 18004KT 10SM OVC043 A3004 RMK MADISHF
DEW,2017-04-01 20:20,-117.4211,47.9689,M,M,M,180.00,5.00,M,30.04,M,10.00,M,OVC,M,M,M,4300.00,M,M,M,M,KDEW 012020Z AUTO 18005KT 10SM OVC043 A3004 RMK MADISHF
DEW,2017-04-01 20:25,-117.4211,47.9689,M,M,M,180.00,4.00,M,30.04,M,10.00,M,OVC,M,M,M,4300.00,M,M,M,M,KDEW 012025Z AUTO 18004KT 10SM OVC043 A3004 RMK MADISHF
DEW,2017-04-01 20:30,-117.4211,47.9689,M,M,M,190.00,5.00,M,30.04,M,10.00,M,OVC,M,M,M,4300.00,M,M,M,M,KDEW 012030Z AUTO 19005KT 10SM OVC043 A3004 RMK MADISHF
DEW,2017-04-01 20:35,-117.4211,47.9689,M,M,M,190.00,6.00,M,30.04,M,10.00,M,OVC,M,M,M,4300.00,M,M,M,M,KDEW 012035Z AUTO 19006KT 10SM OVC043 A3004 RMK MADISHF
DEW,2017-04-01 20:40,-117.4211,47.9689,M,M,M,190.00,8.00,M,30.04,M,10.00,M,OVC,M,M,M,4300.00,M,M,M,M,KDEW 012040Z AUTO 19008KT 10SM OVC043 A3004 RMK MADISHF
DEW,2017-04-01 20:45,-117.4211,47.9689,M,M,M,220.00,8.00,M,30.04,M,10.00,M,OVC,M,M,M,4300.00,M,M,M,M,KDEW 012045Z AUTO 22008KT 10SM OVC043 A3004 RMK MADISHF
DEW,2017-04-01 20:50,-117.4211,47.9689,M,M,M,210.00,8.00,M,30.03,M,10.00,M,OVC,M,M,M,4300.00,M,M,M,M,KDEW 012050Z AUTO 21008KT 10SM OVC043 A3003 RMK MADISHF
DEW,2017-04-01 20:53,-117.4211,47.9689,52.00,34.00,50.12,210.00,9.00,0.00,30.03,1018.00,10.00,M,OVC,M,M,M,4300.00,M,M,M,M,KDEW 012053Z AUTO 21009KT 10SM OVC043 11/01 A3003 RMK AO2 SLP180 T01110011 58013
DEW,2017-04-01 20:55,-117.4211,47.9689,M,M,M,200.00,11.00,M,30.03,M,10.00,M,OVC,M,M,M,4300.00,M,M,M,M,KDEW 012055Z AUTO 20011KT 10SM OVC043 A3003 RMK MADISHF
DEW,2017-04-01 21:00,-117.4211,47.9689,M,M,M,200.00,11.00,M,30.03,M,10.00,M,OVC,M,M,M,4300.00,M,M,M,M,KDEW 012100Z AUTO 20011KT 10SM OVC043 A3003 RMK MADISHF
DEW,2017-04-01 21:05,-117.4211,47.9689,M,M,M,190.00,12.00,M,30.02,M,10.00,M,OVC,M,M,M,4300.00,M,M,M,M,KDEW 012105Z AUTO 19012KT 10SM OVC043 A3002 RMK MADISHF
DEW,2017-04-01 21:10,-117.4211,47.9689,M,M,M,190.00,11.00,M,30.02,M,10.00,16.00,BKN,OVC,M,M,4300.00,5000.00,M,M,M,KDEW 012110Z AUTO 19011G16KT 10SM BKN043 OVC050 A3002 RMK MADISHF
DEW,2017-04-01 21:15,-117.4211,47.9689,M,M,M,200.00,12.00,M,30.01,M,10.00,M,SCT,BKN,OVC,M,4300.00,5000.00,6000.00,M,M,KDEW 012115Z AUTO 20012KT 10SM SCT043 BKN050 OVC060 A3001 RMK MADISHF
DEW,2017-04-01 21:20,-117.4211,47.9689,M,M,M,180.00,12.00,M,30.01,M,10.00,M,SCT,SCT,OVC,M,4300.00,5000.00,6000.00,M,M,KDEW 012120Z AUTO 18012KT 10SM SCT043 SCT050 OVC060 A3001 RMK MADISHF
DEW,2017-04-01 21:25,-117.4211,47.9689,M,M,M,170.00,11.00,M,30.02,M,10.00,M,SCT,BKN,M,M,4600.00,6000.00,M,M,M,KDEW 012125Z AUTO 17011KT 10SM SCT046 BKN060 A3002 RMK MADISHF
DEW,2017-04-01 21:30,-117.4211,47.9689,M,M,M,180.00,9.00,M,30.02,M,10.00,M,FEW,BKN,M,M,4800.00,6000.00,M,M,M,KDEW 012130Z AUTO 18009KT 10SM FEW048 BKN060 A3002 RMK MADISHF
DEW,2017-04-01 21:35,-117.4211,47.9689,M,M,M,160.00,10.00,M,30.02,M,10.00,M,BKN,M,M,M,5500.00,M,M,M,M,KDEW 012135Z AUTO 16010KT 10SM BKN055 A3002 RMK MADISHF
DEW,2017-04-01 21:40,-117.4211,47.9689,M,M,M,170.00,11.00,M,30.02,M,10.00,M,FEW,BKN,M,M,4300.00,5500.00,M,M,M,KDEW 012140Z AUTO 17011KT 10SM FEW043 BKN055 A3002 RMK MADISHF
DEW,2017-04-01 21:45,-117.4211,47.9689,M,M,M,170.00,9.00,M,30.02,M,10.00,M,SCT,BKN,M,M,4300.00,5500.00,M,M,M,KDEW 012145Z AUTO 17009KT 10SM SCT043 BKN055 A3002 RMK MADISHF
DEW,2017-04-01 21:50,-117.4211,47.9689,M,M,M,160.00,12.00,M,30.02,M,10.00,M,BKN,BKN,M,M,4300.00,5500.00,M,M,M,KDEW 012150Z AUTO 16012KT 10SM BKN043 BKN055 A3002 RMK MADISHF
DEW,2017-04-01 21:53,-117.4211,47.9689,54.00,34.00,46.57,160.00,9.00,0.00,30.02,1017.40,10.00,M,BKN,OVC,M,M,4300.00,5500.00,M,M,M,KDEW 012153Z AUTO 16009KT 10SM BKN043 OVC055 12/01 A3002 RMK AO2 SLP174 T01220011
DEW,2017-04-01 21:55,-117.4211,47.9689,M,M,M,170.00,7.00,M,30.02,M,10.00,M,BKN,OVC,M,M,4300.00,5500.00,M,M,M,KDEW 012155Z AUTO 17007KT 10SM BKN043 OVC055 A3002 RMK MADISHF
DEW,2017-04-01 22:00,-117.4211,47.9689,M,M,M,190.00,8.00,M,30.02,M,10.00,M,BKN,OVC,M,M,4300.00,5500.00,M,M,M,KDEW 012200Z AUTO 19008KT 10SM BKN043 OVC055 A3002 RMK MADISHF
DEW,2017-04-01 22:05,-117.4211,47.9689,M,M,M,190.00,9.00,M,30.03,M,10.00,M,OVC,M,M,M,4300.00,M,M,M,M,KDEW 012205Z AUTO 19009KT 10SM OVC043 A3003 RMK MADISHF
DEW,2017-04-01 22:10,-117.4211,47.9689,M,M,M,190.00,9.00,M,30.03,M,10.00,M,OVC,M,M,M,4300.00,M,M,M,M,KDEW 012210Z AUTO 19009KT 10SM OVC043 A3003 RMK MADISHF
DEW,2017-04-01 22:15,-117.4211,47.9689,M,M,M,190.00,6.00,M,30.03,M,10.00,M,BKN,OVC,M,M,4300.00,5000.00,M,M,M,KDEW 012215Z AUTO 19006KT 10SM BKN043 OVC050 A3003 RMK MADISHF
DEW,2017-04-01 22:20,-117.4211,47.9689,M,M,M,180.00,8.00,M,30.03,M,10.00,M,OVC,M,M,M,4500.00,M,M,M,M,KDEW 012220Z AUTO 18008KT 10SM OVC045 A3003 RMK MADISHF
DEW,2017-04-01 22:25,-117.4211,47.9689,M,M,M,190.00,7.00,M,30.02,M,10.00,M,OVC,M,M,M,4500.00,M,M,M,M,KDEW 012225Z AUTO 19007KT 10SM OVC045 A3002 RMK MADISHF
DEW,2017-04-01 22:30,-117.4211,47.9689,M,M,M,170.00,9.00,M,30.02,M,10.00,M,OVC,M,M,M,4500.00,M,M,M,M,KDEW 012230Z AUTO 17009KT 10SM OVC045 A3002 RMK MADISHF
DEW,2017-04-01 22:35,-117.4211,47.9689,M,M,M,180.00,9.00,M,30.02,M,10.00,M,OVC,M,M,M,4300.00,M,M,M,M,KDEW 012235Z AUTO 18009KT 10SM OVC043 A3002 RMK MADISHF
DEW,2017-04-01 22:40,-117.4211,47.9689,M,M,M,190.00,8.00,M,30.02,M,10.00,M,OVC,M,M,M,4300.00,M,M,M,M,KDEW 012240Z AUTO 19008KT 10SM OVC043 A3002 RMK MADISHF
DEW,2017-04-01 22:45,-117.4211,47.9689,M,M,M,190.00,8.00,M,30.02,M,10.00,M,OVC,M,M,M,4300.00,M,M,M,M,KDEW 012245Z AUTO 19008KT 10SM OVC043 A3002 RMK MADISHF
DEW,2017-04-01 22:50,-117.4211,47.9689,M,M,M,160.00,8.00,M,30.02,M,10.00,M,OVC,M,M,M,4300.00,M,M,M,M,KDEW 012250Z AUTO 16008KT 10SM OVC043 A3002 RMK MADISHF
DEW,2017-04-01 22:53,-117.4211,47.9689,54.00,37.00,52.45,180.00,6.00,0.00,30.02,1017.50,10.00,M,OVC,M,M,M,4500.00,M,M,M,M,KDEW 012253Z AUTO 18006KT 10SM OVC045 12/03 A3002 RMK AO2 SLP175 T01220028
DEW,2017-04-01 22:55,-117.4211,47.9689,M,M,M,170.00,8.00,M,30.02,M,10.00,M,OVC,M,M,M,4500.00,M,M,M,M,KDEW 012255Z AUTO 17008KT 10SM OVC045 A3002 RMK MADISHF
DEW,2017-04-01 23:00,-117.4211,47.9689,M,M,M,170.00,7.00,M,30.02,M,10.00,M,OVC,M,M,M,4500.00,M,M,M,M,KDEW 012300Z AUTO 17007KT 10SM OVC045 A3002 RMK MADISHF
DEW,2017-04-01 23:05,-117.4211,47.9689,M,M,M,170.00,7.00,M,30.02,M,10.00,M,OVC,M,M,M,4500.00,M,M,M,M,KDEW 012305Z AUTO 17007KT 10SM OVC045 A3002 RMK MADISHF
DEW,2017-04-01 23:10,-117.4211,47.9689,M,M,M,160.00,8.00,M,30.02,M,10.00,M,OVC,M,M,M,4400.00,M,M,M,M,KDEW 012310Z AUTO 16008KT 10SM OVC044 A3002 RMK MADISHF
DEW,2017-04-01 23:15,-117.4211,47.9689,M,M,M,170.00,7.00,M,30.02,M,10.00,M,OVC,M,M,M,4400.00,M,M,M,M,KDEW 012315Z AUTO 17007KT 10SM OVC044 A3002 RMK MADISHF
DEW,2017-04-01 23:20,-117.4211,47.9689,M,M,M,140.00,7.00,M,30.02,M,10.00,M,OVC,M,M,M,4400.00,M,M,M,M,KDEW 012320Z AUTO 14007KT 10SM OVC044 A3002 RMK MADISHF
DEW,2017-04-01 23:25,-117.4211,47.9689,M,M,M,130.00,7.00,M,30.02,M,10.00,M,OVC,M,M,M,4200.00,M,M,M,M,KDEW 012325Z AUTO 13007KT 10SM OVC042 A3002 RMK MADISHF
DEW,2017-04-01 23:30,-117.4211,47.9689,M,M,M,130.00,6.00,M,30.02,M,10.00,M,OVC,M,M,M,4200.00,M,M,M,M,KDEW 012330Z AUTO 13006KT 10SM OVC042 A3002 RMK MADISHF
DEW,2017-04-01 23:35,-117.4211,47.9689,M,M,M,140.00,8.00,M,30.02,M,10.00,M,OVC,M,M,M,4200.00,M,M,M,M,KDEW 012335Z AUTO 14008KT 10SM OVC042 A3002 RMK MADISHF
DEW,2017-04-01 23:40,-117.4211,47.9689,M,M,M,140.00,7.00,M,30.02,M,10.00,M,OVC,M,M,M,4200.00,M,M,M,M,KDEW 012340Z AUTO 14007KT 10SM OVC042 A3002 RMK MADISHF
DEW,2017-04-01 23:45,-117.4211,47.9689,M,M,M,140.00,8.00,M,30.01,M,10.00,M,BKN,OVC,M,M,4200.00,4900.00,M,M,M,KDEW 012345Z AUTO 14008KT 10SM BKN042 OVC049 A3001 RMK MADISHF
DEW,2017-04-01 23:50,-117.4211,47.9689,M,M,M,130.00,8.00,M,30.01,M,10.00,M,BKN,OVC,M,M,4100.00,4900.00,M,M,M,KDEW 012350Z AUTO 13008KT 10SM BKN041 OVC049 A3001 RMK MADISHF
DEW,2017-04-01 23:53,-117.4211,47.9689,55.00,37.00,50.58,130.00,8.00,0.00,30.01,1017.20,10.00,M,SCT,BKN,M,M,4100.00,4900.00,M,M,M,KDEW 012353Z AUTO 13008KT 10SM SCT041 BKN049 13/03 A3001 RMK AO2 SLP172 T01280028 10128 20083 56006
DEW,2017-04-01 23:55,-117.4211,47.9689,M,M,M,130.00,8.00,M,30.01,M,10.00,M,SCT,BKN,M,M,4100.00,5000.00,M,M,M,KDEW 012355Z AUTO 13008KT 10SM SCT041 BKN050 A3001 RMK MADISHF
