#DEBUG: Format Typ    -> comma
#DEBUG: Time Period   -> 2017-04-01 00:00:00+00:00 2017-04-02 00:00:00+00:00
#DEBUG: Time Zone     -> Etc/UTC
#DEBUG: Data Contact   -> daryl herzmann akrherz@iastate.edu 515-294-5978
#DEBUG: Entries Found -> -1
station,valid,lon,lat,tmpf, dwpf, relh, drct, sknt, p01i, alti, mslp, vsby, gust, skyc1, skyc2, skyc3, skyc4, skyl1, skyl2, skyl3, skyl4, presentwx, metar
DIJ,2017-04-01 00:00,-111.0979,43.7419,M,M,M,M,M,M,M,M,M,M,M,M,M,M,M,M,M,M,M,KDIJ 010000Z AUTO /////KT RMK MADISHF
DIJ,2017-04-01 00:05,-111.0979,43.7419,M,M,M,M,M,M,M,M,M,M,M,M,M,M,M,M,M,M,M,KDIJ 010005Z AUTO /////KT RMK MADISHF
DIJ,2017-04-01 00:10,-111.0979,43.7419,M,M,M,M,M,M,M,M,M,M,M,M,M,M,M,M,M,M,M,KDIJ 010010Z AUTO /////KT RMK MADISHF
DIJ,2017-04-01 00:15,-111.0979,43.7419,M,M,M,M,M,M,M,M,M,M,M,M,M,M,M,M,M,M,M,KDIJ 010015Z AUTO /////KT RMK MADISHF
DIJ,2017-04-01 00:20,-111.0979,43.7419,M,M,M,M,M,M,M,M,M,M,M,M,M,M,M,M,M,M,M,KDIJ 010020Z AUTO /////KT RMK MADISHF
DIJ,2017-04-01 00:25,-111.0979,43.7419,M,M,M,M,M,M,M,M,M,M,M,M,M,M,M,M,M,M,M,KDIJ 010025Z AUTO /////KT RMK MADISHF
DIJ,2017-04-01 00:35,-111.0979,43.7419,M,M,M,M,M,M,M,M,M,M,M,M,M,M,M,M,M,M,M,KDIJ 010035Z AUTO /////KT RMK MADISHF
DIJ,2017-04-01 00:40,-111.0979,43.7419,M,M,M,M,M,M,M,M,M,M,M,M,M,M,M,M,M,M,M,KDIJ 010040Z AUTO /////KT RMK MADISHF
DIJ,2017-04-01 00:45,-111.0979,43.7419,M,M,M,M,M,M,M,M,M,M,M,M,M,M,M,M,M,M,M,KDIJ 010045Z AUTO /////KT RMK MADISHF
DIJ,2017-04-01 00:50,-111.0979,43.7419,M,M,M,M,M,M,M,M,M,M,M,M,M,M,M,M,M,M,M,KDIJ 010050Z AUTO /////KT RMK MADISHF
DIJ,2017-04-01 00:55,-111.0979,43.7419,M,M,M,M,M,M,M,M,M,M,M,M,M,M,M,M,M,M,M,KDIJ 010055Z AUTO /////KT RMK MADISHF
DIJ,2017-04-01 00:56,-111.0979,43.7419,M,M,M,M,M,0.00,M,M,M,M,M,M,M,M,M,M,M,M,M,KDIJ 010056Z AUTO RMK AO2 SLPNO PWINO FZRANO $
DIJ,2017-04-01 01:00,-111.0979,43.7419,M,M,M,M,M,M,M,M,M,M,M,M,M,M,M,M,M,M,M,KDIJ 010100Z AUTO /////KT RMK MADISHF
DIJ,2017-04-01 01:05,-111.0979,43.7419,M,M,M,M,M,M,M,M,M,M,M,M,M,M,M,M,M,M,M,KDIJ 010105Z AUTO /////KT RMK MADISHF
DIJ,2017-04-01 01:10,-111.0979,43.7419,M,M,M,M,M,M,M,M,M,M,M,M,M,M,M,M,M,M,M,KDIJ 010110Z AUTO /////KT RMK MADISHF
DIJ,2017-04-01 01:15,-111.0979,43.7419,M,M,M,M,M,M,M,M,M,M,M,M,M,M,M,M,M,M,M,KDIJ 010115Z AUTO /////KT RMK MADISHF
DIJ,2017-04-01 01:20,-111.0979,43.7419,M,M,M,M,M,M,M,M,M,M,M,M,M,M,M,M,M,M,M,KDIJ 010120Z AUTO /////KT RMK MADISHF
DIJ,2017-04-01 01:25,-111.0979,43.7419,M,M,M,M,M,M,M,M,M,M,M,M,M,M,M,M,M,M,M,KDIJ 010125Z AUTO /////KT RMK MADISHF
DIJ,2017-04-01 01:30,-111.0979,43.7419,M,M,M,M,M,M,M,M,M,M,M,M,M,M,M,M,M,M,M,KDIJ 010130Z AUTO /////KT RMK MADISHF
DIJ,2017-04-01 01:35,-111.0979,43.7419,M,M,M,M,M,M,M,M,M,M,M,M,M,M,M,M,M,M,M,KDIJ 010135Z AUTO /////KT RMK MADISHF
DIJ,2017-04-01 01:40,-111.0979,43.7419,M,M,M,M,M,M,M,M,M,M,M,M,M,M,M,M,M,M,M,KDIJ 010140Z AUTO /////KT RMK MADISHF
DIJ,2017-04-01 01:45,-111.0979,43.7419,M,M,M,M,M,M,M,M,M,M,M,M,M,M,M,M,M,M,M,KDIJ 010145Z AUTO /////KT RMK MADISHF
DIJ,2017-04-01 01:50,-111.0979,43.7419,M,M,M,M,M,M,M,M,M,M,M,M,M,M,M,M,M,M,M,KDIJ 010150Z AUTO /////KT RMK MADISHF
DIJ,2017-04-01 01:55,-111.0979,43.7419,M,M,M,M,M,M,M,M,M,M,M,M,M,M,M,M,M,M,M,KDIJ 010155Z AUTO /////KT RMK MADISHF
DIJ,2017-04-01 01:56,-111.0979,43.7419,M,M,M,M,M,0.00,M,M,M,M,M,M,M,M,M,M,M,M,M,KDIJ 010156Z AUTO RMK AO2 SLPNO PWINO FZRANO $
DIJ,2017-04-01 02:00,-111.0979,43.7419,M,M,M,M,M,M,M,M,M,M,M,M,M,M,M,M,M,M,M,KDIJ 010200Z AUTO /////KT RMK MADISHF
DIJ,2017-04-01 02:05,-111.0979,43.7419,M,M,M,M,M,M,M,M,M,M,M,M,M,M,M,M,M,M,M,KDIJ 010205Z AUTO /////KT RMK MADISHF
DIJ,2017-04-01 02:10,-111.0979,43.7419,M,M,M,M,M,M,M,M,M,M,M,M,M,M,M,M,M,M,M,KDIJ 010210Z AUTO /////KT RMK MADISHF
DIJ,2017-04-01 02:15,-111.0979,43.7419,M,M,M,M,M,M,M,M,M,M,M,M,M,M,M,M,M,M,M,KDIJ 010215Z AUTO /////KT RMK MADISHF
DIJ,2017-04-01 02:20,-111.0979,43.7419,M,M,M,M,M,M,M,M,M,M,M,M,M,M,M,M,M,M,M,KDIJ 010220Z AUTO /////KT RMK MADISHF
DIJ,2017-04-01 02:25,-111.0979,43.7419,M,M,M,M,M,M,M,M,M,M,M,M,M,M,M,M,M,M,M,KDIJ 010225Z AUTO /////KT RMK MADISHF
DIJ,2017-04-01 02:30,-111.0979,43.7419,M,M,M,M,M,M,M,M,M,M,M,M,M,M,M,M,M,M,M,KDIJ 010230Z AUTO /////KT RMK MADISHF
DIJ,2017-04-01 02:35,-111.0979,43.7419,M,M,M,M,M,M,M,M,M,M,M,M,M,M,M,M,M,M,M,KDIJ 010235Z AUTO /////KT RMK MADISHF
DIJ,2017-04-01 02:40,-111.0979,43.7419,M,M,M,M,M,M,M,M,M,M,M,M,M,M,M,M,M,M,M,KDIJ 010240Z AUTO /////KT RMK MADISHF
DIJ,2017-04-01 02:45,-111.0979,43.7419,M,M,M,M,M,M,M,M,M,M,M,M,M,M,M,M,M,M,M,KDIJ 010245Z AUTO /////KT RMK MADISHF
DIJ,2017-04-01 02:50,-111.0979,43.7419,M,M,M,M,M,M,M,M,M,M,M,M,M,M,M,M,M,M,M,KDIJ 010250Z AUTO /////KT RMK MADISHF
DIJ,2017-04-01 02:55,-111.0979,43.7419,M,M,M,M,M,M,M,M,M,M,M,M,M,M,M,M,M,M,M,KDIJ 010255Z AUTO /////KT RMK MADISHF
DIJ,2017-04-01 02:56,-111.0979,43.7419,M,M,M,M,M,0.00,M,M,M,M,M,M,M,M,M,M,M,M,M,KDIJ 010256Z AUTO RMK AO2 SLPNO 6//// PWINO FZRANO $
DIJ,2017-04-01 03:00,-111.0979,43.7419,M,M,M,M,M,M,M,M,M,M,M,M,M,M,M,M,M,M,M,KDIJ 010300Z AUTO /////KT RMK MADISHF
DIJ,2017-04-01 03:05,-111.0979,43.7419,M,M,M,M,M,M,M,M,M,M,M,M,M,M,M,M,M,M,M,KDIJ 010305Z AUTO /////KT RMK MADISHF
DIJ,2017-04-01 03:10,-111.0979,43.7419,M,M,M,M,M,M,M,M,M,M,M,M,M,M,M,M,M,M,M,KDIJ 010310Z AUTO /////KT RMK MADISHF
DIJ,2017-04-01 03:15,-111.0979,43.7419,M,M,M,M,M,M,M,M,M,M,M,M,M,M,M,M,M,M,M,KDIJ 010315Z AUTO /////KT RMK MADISHF
DIJ,2017-04-01 03:20,-111.0979,43.7419,M,M,M,M,M,M,M,M,M,M,M,M,M,M,M,M,M,M,M,KDIJ 010320Z AUTO /////KT RMK MADISHF
DIJ,2017-04-01 03:25,-111.0979,43.7419,M,M,M,M,M,M,M,M,M,M,M,M,M,M,M,M,M,M,M,KDIJ 010325Z AUTO /////KT RMK MADISHF
DIJ,2017-04-01 03:30,-111.0979,43.7419,M,M,M,M,M,M,M,M,M,M,M,M,M,M,M,M,M,M,M,KDIJ 010330Z AUTO /////KT RMK MADISHF
DIJ,2017-04-01 03:35,-111.0979,43.7419,M,M,M,M,M,M,M,M,M,M,M,M,M,M,M,M,M,M,M,KDIJ 010335Z AUTO /////KT RMK MADISHF
DIJ,2017-04-01 03:40,-111.0979,43.7419,M,M,M,M,M,M,M,M,M,M,M,M,M,M,M,M,M,M,M,KDIJ 010340Z AUTO /////KT RMK MADISHF
DIJ,2017-04-01 03:45,-111.0979,43.7419,M,M,M,M,M,M,M,M,M,M,M,M,M,M,M,M,M,M,M,KDIJ 010345Z AUTO /////KT RMK MADISHF
DIJ,2017-04-01 03:50,-111.0979,43.7419,M,M,M,M,M,M,M,M,M,M,M,M,M,M,M,M,M,M,M,KDIJ 010350Z AUTO /////KT RMK MADISHF
DIJ,2017-04-01 03:55,-111.0979,43.7419,M,M,M,M,M,M,M,M,M,M,M,M,M,M,M,M,M,M,M,KDIJ 010355Z AUTO /////KT RMK MADISHF
DIJ,2017-04-01 03:56,-111.0979,43.7419,M,M,M,M,M,0.00,M,M,M,M,M,M,M,M,M,M,M,M,M,KDIJ 010356Z AUTO RMK AO2 SLPNO PWINO FZRANO $
DIJ,2017-04-01 04:00,-111.0979,43.7419,M,M,M,M,M,M,M,M,M,M,M,M,M,M,M,M,M,M,M,KDIJ 010400Z AUTO /////KT RMK MADISHF
DIJ,2017-04-01 04:05,-111.0979,43.7419,M,M,M,M,M,M,M,M,M,M,M,M,M,M,M,M,M,M,M,KDIJ 010405Z AUTO /////KT RMK MADISHF
DIJ,2017-04-01 04:10,-111.0979,43.7419,M,M,M,M,M,M,M,M,M,M,M,M,M,M,M,M,M,M,M,KDIJ 010410Z AUTO /////KT RMK MADISHF
DIJ,2017-04-01 04:15,-111.0979,43.7419,M,M,M,M,M,M,M,M,M,M,M,M,M,M,M,M,M,M,M,KDIJ 010415Z AUTO /////KT RMK MADISHF
DIJ,2017-04-01 04:20,-111.0979,43.7419,M,M,M,M,M,M,M,M,M,M,M,M,M,M,M,M,M,M,M,KDIJ 010420Z AUTO /////KT RMK MADISHF
DIJ,2017-04-01 04:25,-111.0979,43.7419,M,M,M,M,M,M,M,M,M,M,M,M,M,M,M,M,M,M,M,KDIJ 010425Z AUTO /////KT RMK MADISHF
DIJ,2017-04-01 04:30,-111.0979,43.7419,M,M,M,M,M,M,M,M,M,M,M,M,M,M,M,M,M,M,M,KDIJ 010430Z AUTO /////KT RMK MADISHF
DIJ,2017-04-01 04:35,-111.0979,43.7419,M,M,M,M,M,M,M,M,M,M,M,M,M,M,M,M,M,M,M,KDIJ 010435Z AUTO /////KT RMK MADISHF
DIJ,2017-04-01 04:40,-111.0979,43.7419,M,M,M,M,M,M,M,M,M,M,M,M,M,M,M,M,M,M,M,KDIJ 010440Z AUTO /////KT RMK MADISHF
DIJ,2017-04-01 04:45,-111.0979,43.7419,M,M,M,M,M,M,M,M,M,M,M,M,M,M,M,M,M,M,M,KDIJ 010445Z AUTO /////KT RMK MADISHF
DIJ,2017-04-01 04:50,-111.0979,43.7419,M,M,M,M,M,M,M,M,M,M,M,M,M,M,M,M,M,M,M,KDIJ 010450Z AUTO /////KT RMK MADISHF
DIJ,2017-04-01 04:55,-111.0979,43.7419,M,M,M,M,M,M,M,M,M,M,M,M,M,M,M,M,M,M,M,KDIJ 010455Z AUTO /////KT RMK MADISHF
DIJ,2017-04-01 04:56,-111.0979,43.7419,M,M,M,M,M,0.00,M,M,M,M,M,M,M,M,M,M,M,M,M,KDIJ 010456Z AUTO RMK AO2 SLPNO PWINO FZRANO TSNO $
DIJ,2017-04-01 05:00,-111.0979,43.7419,M,M,M,M,M,M,M,M,M,M,M,M,M,M,M,M,M,M,M,KDIJ 010500Z AUTO /////KT RMK MADISHF
DIJ,2017-04-01 05:05,-111.0979,43.7419,M,M,M,M,M,M,M,M,M,M,M,M,M,M,M,M,M,M,M,KDIJ 010505Z AUTO /////KT RMK MADISHF
DIJ,2017-04-01 05:10,-111.0979,43.7419,M,M,M,M,M,M,M,M,M,M,M,M,M,M,M,M,M,M,M,KDIJ 010510Z AUTO /////KT RMK MADISHF
DIJ,2017-04-01 05:15,-111.0979,43.7419,M,M,M,M,M,M,M,M,M,M,M,M,M,M,M,M,M,M,M,KDIJ 010515Z AUTO /////KT RMK MADISHF
DIJ,2017-04-01 05:20,-111.0979,43.7419,M,M,M,M,M,M,M,M,M,M,M,M,M,M,M,M,M,M,M,KDIJ 010520Z AUTO /////KT RMK MADISHF
DIJ,2017-04-01 05:25,-111.0979,43.7419,M,M,M,M,M,M,M,M,M,M,M,M,M,M,M,M,M,M,M,KDIJ 010525Z AUTO /////KT RMK MADISHF
DIJ,2017-04-01 05:30,-111.0979,43.7419,M,M,M,150.00,8.00,M,30.06,M,M,M,M,M,M,M,M,M,M,M,M,KDIJ 010530Z AUTO 15008KT A3006 RMK MADISHF
DIJ,2017-04-01 05:35,-111.0979,43.7419,M,M,M,160.00,7.00,M,30.06,M,10.00,M,M,M,M,M,M,M,M,M,M,KDIJ 010535Z AUTO 16007KT 10SM A3006 RMK MADISHF
DIJ,2017-04-01 05:40,-111.0979,43.7419,M,M,M,160.00,5.00,M,30.06,M,10.00,M,M,M,M,M,M,M,M,M,M,KDIJ 010540Z AUTO 16005KT 10SM A3006 RMK MADISHF
DIJ,2017-04-01 05:45,-111.0979,43.7419,M,M,M,160.00,6.00,M,30.06,M,10.00,M,M,M,M,M,M,M,M,M,M,KDIJ 010545Z AUTO 16006KT 10SM A3006 RMK MADISHF
DIJ,2017-04-01 05:50,-111.0979,43.7419,M,M,M,150.00,6.00,M,30.06,M,10.00,M,M,M,M,M,M,M,M,M,M,KDIJ 010550Z AUTO 15006KT 10SM A3006 RMK MADISHF
DIJ,2017-04-01 05:55,-111.0979,43.7419,M,M,M,150.00,7.00,M,30.06,M,10.00,M,M,M,M,M,M,M,M,M,M,KDIJ 010555Z AUTO 15007KT 10SM A3006 RMK MADISHF
DIJ,2017-04-01 05:56,-111.0979,43.7419,32.00,27.00,81.55,160.00,7.00,0.00,30.06,1017.80,10.00,M,M,M,M,M,M,M,M,M,M,KDIJ 010556Z AUTO 16007KT 10SM 00/M03 A3006 RMK AO2 SLP178 6//// T00001028
DIJ,2017-04-01 06:00,-111.0979,43.7419,M,M,M,150.00,7.00,M,30.07,M,10.00,M,CLR,M,M,M,M,M,M,M,M,KDIJ 010600Z AUTO 15007KT 10SM CLR A3007 RMK MADISHF
DIJ,2017-04-01 06:05,-111.0979,43.7419,M,M,M,160.00,6.00,M,30.07,M,10.00,M,CLR,M,M,M,M,M,M,M,M,KDIJ 010605Z AUTO 16006KT 10SM CLR A3007 RMK MADISHF
DIJ,2017-04-01 06:10,-111.0979,43.7419,M,M,M,180.00,7.00,M,30.07,M,10.00,M,CLR,M,M,M,M,M,M,M,M,KDIJ 010610Z AUTO 18007KT 10SM CLR A3007 RMK MADISHF
DIJ,2017-04-01 06:15,-111.0979,43.7419,M,M,M,170.00,7.00,M,30.07,M,10.00,M,CLR,M,M,M,M,M,M,M,M,KDIJ 010615Z AUTO 17007KT 10SM CLR A3007 RMK MADISHF
DIJ,2017-04-01 06:20,-111.0979,43.7419,M,M,M,180.00,5.00,M,30.07,M,10.00,M,CLR,M,M,M,M,M,M,M,M,KDIJ 010620Z AUTO 18005KT 10SM CLR A3007 RMK MADISHF
DIJ,2017-04-01 06:25,-111.0979,43.7419,M,M,M,150.00,7.00,M,30.07,M,10.00,M,CLR,M,M,M,M,M,M,M,M,KDIJ 010625Z AUTO 15007KT 10SM CLR A3007 RMK MADISHF
DIJ,2017-04-01 06:30,-111.0979,43.7419,M,M,M,180.00,6.00,M,30.08,M,10.00,M,CLR,M,M,M,M,M,M,M,M,KDIJ 010630Z AUTO 18006KT 10SM CLR A3008 RMK MADISHF
DIJ,2017-04-01 06:35,-111.0979,43.7419,M,M,M,180.00,5.00,M,30.08,M,10.00,M,CLR,M,M,M,M,M,M,M,M,KDIJ 010635Z AUTO 18005KT 10SM CLR A3008 RMK MADISHF
DIJ,2017-04-01 06:40,-111.0979,43.7419,M,M,M,170.00,6.00,M,30.08,M,10.00,M,CLR,M,M,M,M,M,M,M,M,KDIJ 010640Z AUTO 17006KT 10SM CLR A3008 RMK MADISHF
DIJ,2017-04-01 06:45,-111.0979,43.7419,M,M,M,180.00,5.00,M,30.08,M,10.00,M,CLR,M,M,M,M,M,M,M,M,KDIJ 010645Z AUTO 18005KT 10SM CLR A3008 RMK MADISHF
DIJ,2017-04-01 06:50,-111.0979,43.7419,M,M,M,180.00,5.00,M,30.09,M,10.00,M,CLR,M,M,M,M,M,M,M,M,KDIJ 010650Z AUTO 18005KT 10SM CLR A3009 RMK MADISHF
DIJ,2017-04-01 06:55,-111.0979,43.7419,M,M,M,160.00,5.00,M,30.09,M,10.00,M,CLR,M,M,M,M,M,M,M,M,KDIJ 010655Z AUTO 16005KT 10SM CLR A3009 RMK MADISHF
DIJ,2017-04-01 06:56,-111.0979,43.7419,32.00,26.10,78.58,160.00,6.00,0.00,30.09,1018.10,10.00,M,CLR,M,M,M,M,M,M,M,M,KDIJ 010656Z AUTO 16006KT 10SM CLR 00/M03 A3009 RMK AO2 SLP181 T00001033 401171006
DIJ,2017-04-01 07:00,-111.0979,43.7419,M,M,M,160.00,5.00,M,30.09,M,10.00,M,CLR,M,M,M,M,M,M,M,M,KDIJ 010700Z AUTO 16005KT 10SM CLR A3009 RMK MADISHF
DIJ,2017-04-01 07:05,-111.0979,43.7419,M,M,M,170.00,6.00,M,30.09,M,10.00,M,CLR,M,M,M,M,M,M,M,M,KDIJ 010705Z AUTO 17006KT 10SM CLR A3009 RMK MADISHF
DIJ,2017-04-01 07:10,-111.0979,43.7419,M,M,M,180.00,5.00,M,30.09,M,10.00,M,CLR,M,M,M,M,M,M,M,M,KDIJ 010710Z AUTO 18005KT 10SM CLR A3009 RMK MADISHF
DIJ,2017-04-01 07:15,-111.0979,43.7419,M,M,M,200.00,6.00,M,30.09,M,10.00,M,CLR,M,M,M,M,M,M,M,M,KDIJ 010715Z AUTO 20006KT 10SM CLR A3009 RMK MADISHF
DIJ,2017-04-01 07:20,-111.0979,43.7419,M,M,M,200.00,5.00,M,30.09,M,10.00,M,CLR,M,M,M,M,M,M,M,M,KDIJ 010720Z AUTO 20005KT 10SM CLR A3009 RMK MADISHF
DIJ,2017-04-01 07:25,-111.0979,43.7419,M,M,M,190.00,5.00,M,30.09,M,10.00,M,CLR,M,M,M,M,M,M,M,M,KDIJ 010725Z AUTO 19005KT 10SM CLR A3009 RMK MADISHF
DIJ,2017-04-01 07:30,-111.0979,43.7419,M,M,M,160.00,5.00,M,30.09,M,10.00,M,CLR,M,M,M,M,M,M,M,M,KDIJ 010730Z AUTO 16005KT 10SM CLR A3009 RMK MADISHF
DIJ,2017-04-01 07:35,-111.0979,43.7419,M,M,M,180.00,5.00,M,30.09,M,10.00,M,CLR,M,M,M,M,M,M,M,M,KDIJ 010735Z AUTO 18005KT 10SM CLR A3009 RMK MADISHF
DIJ,2017-04-01 07:40,-111.0979,43.7419,M,M,M,170.00,5.00,M,30.09,M,10.00,M,CLR,M,M,M,M,M,M,M,M,KDIJ 010740Z AUTO 17005KT 10SM CLR A3009 RMK MADISHF
DIJ,2017-04-01 07:45,-111.0979,43.7419,M,M,M,160.00,5.00,M,30.09,M,10.00,M,CLR,M,M,M,M,M,M,M,M,KDIJ 010745Z AUTO 16005KT 10SM CLR A3009 RMK MADISHF
DIJ,2017-04-01 07:50,-111.0979,43.7419,M,M,M,180.00,5.00,M,30.09,M,10.00,M,CLR,M,M,M,M,M,M,M,M,KDIJ 010750Z AUTO 18005KT 10SM CLR A3009 RMK MADISHF
DIJ,2017-04-01 07:55,-111.0979,43.7419,M,M,M,170.00,4.00,M,30.09,M,10.00,M,CLR,M,M,M,M,M,M,M,M,KDIJ 010755Z AUTO 17004KT 10SM CLR A3009 RMK MADISHF
DIJ,2017-04-01 07:56,-111.0979,43.7419,32.00,27.00,81.55,170.00,4.00,0.00,30.09,1018.50,10.00,M,CLR,M,M,M,M,M,M,M,M,KDIJ 010756Z AUTO 17004KT 10SM CLR 00/M03 A3009 RMK AO2 SLP185 T00001028
DIJ,2017-04-01 08:00,-111.0979,43.7419,M,M,M,180.00,4.00,M,30.09,M,10.00,M,CLR,M,M,M,M,M,M,M,M,KDIJ 010800Z AUTO 18004KT 10SM CLR A3009 RMK MADISHF
DIJ,2017-04-01 08:10,-111.0979,43.7419,M,M,M,210.00,4.00,M,30.09,M,10.00,M,CLR,M,M,M,M,M,M,M,M,KDIJ 010810Z AUTO 21004KT 10SM CLR A3009 RMK MADISHF
DIJ,2017-04-01 08:15,-111.0979,43.7419,M,M,M,210.00,4.00,M,30.09,M,10.00,M,CLR,M,M,M,M,M,M,M,M,KDIJ 010815Z AUTO 21004KT 10SM CLR A3009 RMK MADISHF
DIJ,2017-04-01 08:20,-111.0979,43.7419,M,M,M,220.00,6.00,M,30.09,M,10.00,M,CLR,M,M,M,M,M,M,M,M,KDIJ 010820Z AUTO 22006KT 10SM CLR A3009 RMK MADISHF
DIJ,2017-04-01 08:25,-111.0979,43.7419,M,M,M,220.00,5.00,M,30.09,M,10.00,M,CLR,M,M,M,M,M,M,M,M,KDIJ 010825Z AUTO 22005KT 10SM CLR A3009 RMK MADISHF
DIJ,2017-04-01 08:30,-111.0979,43.7419,M,M,M,210.00,4.00,M,30.08,M,10.00,M,CLR,M,M,M,M,M,M,M,M,KDIJ 010830Z AUTO 21004KT 10SM CLR A3008 RMK MADISHF
DIJ,2017-04-01 08:35,-111.0979,43.7419,M,M,M,0.00,0.00,M,30.09,M,10.00,M,CLR,M,M,M,M,M,M,M,M,KDIJ 010835Z AUTO 00000KT 10SM CLR A3009 RMK MADISHF
DIJ,2017-04-01 08:40,-111.0979,43.7419,M,M,M,0.00,0.00,M,30.09,M,10.00,M,CLR,M,M,M,M,M,M,M,M,KDIJ 010840Z AUTO 00000KT 10SM CLR A3009 RMK MADISHF
DIJ,2017-04-01 08:45,-111.0979,43.7419,M,M,M,130.00,3.00,M,30.09,M,10.00,M,CLR,M,M,M,M,M,M,M,M,KDIJ 010845Z AUTO 13003KT 10SM CLR A3009 RMK MADISHF
DIJ,2017-04-01 08:50,-111.0979,43.7419,M,M,M,100.00,4.00,M,30.09,M,10.00,M,CLR,M,M,M,M,M,M,M,M,KDIJ 010850Z AUTO 10004KT 10SM CLR A3009 RMK MADISHF
DIJ,2017-04-01 08:55,-111.0979,43.7419,M,M,M,0.00,0.00,M,30.09,M,10.00,M,CLR,M,M,M,M,M,M,M,M,KDIJ 010855Z AUTO 00000KT 10SM CLR A3009 RMK MADISHF
DIJ,2017-04-01 08:56,-111.0979,43.7419,30.00,27.00,88.44,0.00,0.00,0.00,30.09,1018.70,10.00,M,CLR,M,M,M,M,M,M,M,M,KDIJ 010856Z AUTO 00000KT 10SM CLR M01/M03 A3009 RMK AO2 SLP187 T10111028 50007
DIJ,2017-04-01 09:00,-111.0979,43.7419,M,M,M,0.00,0.00,M,30.09,M,10.00,M,CLR,M,M,M,M,M,M,M,M,KDIJ 010900Z AUTO 00000KT 10SM CLR A3009 RMK MADISHF
DIJ,2017-04-01 09:05,-111.0979,43.7419,M,M,M,110.00,4.00,M,30.09,M,10.00,M,CLR,M,M,M,M,M,M,M,M,KDIJ 010905Z AUTO 11004KT 10SM CLR A3009 RMK MADISHF
DIJ,2017-04-01 09:10,-111.0979,43.7419,M,M,M,100.00,5.00,M,30.09,M,10.00,M,CLR,M,M,M,M,M,M,M,M,KDIJ 010910Z AUTO 10005KT 10SM CLR A3009 RMK MADISHF
DIJ,2017-04-01 09:15,-111.0979,43.7419,M,M,M,110.00,4.00,M,30.09,M,10.00,M,CLR,M,M,M,M,M,M,M,M,KDIJ 010915Z AUTO 11004KT 10SM CLR A3009 RMK MADISHF
DIJ,2017-04-01 09:20,-111.0979,43.7419,M,M,M,100.00,3.00,M,30.09,M,10.00,M,CLR,M,M,M,M,M,M,M,M,KDIJ 010920Z AUTO 10003KT 10SM CLR A3009 RMK MADISHF
DIJ,2017-04-01 09:30,-111.0979,43.7419,M,M,M,140.00,5.00,M,30.08,M,10.00,M,CLR,M,M,M,M,M,M,M,M,KDIJ 010930Z AUTO 14005KT 10SM CLR A3008 RMK MADISHF
DIJ,2017-04-01 09:35,-111.0979,43.7419,M,M,M,130.00,5.00,M,30.08,M,10.00,M,CLR,M,M,M,M,M,M,M,M,KDIJ 010935Z AUTO 13005KT 10SM CLR A3008 RMK MADISHF
DIJ,2017-04-01 09:45,-111.0979,43.7419,M,M,M,100.00,5.00,M,30.08,M,10.00,M,CLR,M,M,M,M,M,M,M,M,KDIJ 010945Z AUTO 10005KT 10SM CLR A3008 RMK MADISHF
DIJ,2017-04-01 09:50,-111.0979,43.7419,M,M,M,110.00,5.00,M,30.08,M,10.00,M,CLR,M,M,M,M,M,M,M,M,KDIJ 010950Z AUTO 11005KT 10SM CLR A3008 RMK MADISHF
DIJ,2017-04-01 09:55,-111.0979,43.7419,M,M,M,100.00,4.00,M,30.08,M,10.00,M,CLR,M,M,M,M,M,M,M,M,KDIJ 010955Z AUTO 10004KT 10SM CLR A3008 RMK MADISHF
DIJ,2017-04-01 09:56,-111.0979,43.7419,30.90,26.10,82.15,100.00,4.00,0.00,30.08,1018.20,10.00,M,CLR,M,M,M,M,M,M,M,M,KDIJ 010956Z AUTO 10004KT 10SM CLR M01/M03 A3008 RMK AO2 SLP182 T10061033
DIJ,2017-04-01 10:00,-111.0979,43.7419,M,M,M,90.00,3.00,M,30.08,M,10.00,M,CLR,M,M,M,M,M,M,M,M,KDIJ 011000Z AUTO 09003KT 10SM CLR A3008 RMK MADISHF
DIJ,2017-04-01 10:05,-111.0979,43.7419,M,M,M,70.00,5.00,M,30.09,M,10.00,M,CLR,M,M,M,M,M,M,M,M,KDIJ 011005Z AUTO 07005KT 10SM CLR A3009 RMK MADISHF
DIJ,2017-04-01 10:10,-111.0979,43.7419,M,M,M,70.00,6.00,M,30.09,M,10.00,M,CLR,M,M,M,M,M,M,M,M,KDIJ 011010Z AUTO 07006KT 10SM CLR A3009 RMK MADISHF
DIJ,2017-04-01 10:15,-111.0979,43.7419,M,M,M,70.00,5.00,M,30.09,M,10.00,M,CLR,M,M,M,M,M,M,M,M,KDIJ 011015Z AUTO 07005KT 10SM CLR A3009 RMK MADISHF
DIJ,2017-04-01 10:20,-111.0979,43.7419,M,M,M,70.00,6.00,M,30.09,M,10.00,M,CLR,M,M,M,M,M,M,M,M,KDIJ 011020Z AUTO 07006KT 10SM CLR A3009 RMK MADISHF
DIJ,2017-04-01 10:25,-111.0979,43.7419,M,M,M,60.00,6.00,M,30.10,M,10.00,M,CLR,M,M,M,M,M,M,M,M,KDIJ 011025Z AUTO 06006KT 10SM CLR A3010 RMK MADISHF
DIJ,2017-04-01 10:30,-111.0979,43.7419,M,M,M,80.00,6.00,M,30.10,M,10.00,M,CLR,M,M,M,M,M,M,M,M,KDIJ 011030Z AUTO 08006KT 10SM CLR A3010 RMK MADISHF
DIJ,2017-04-01 10:35,-111.0979,43.7419,M,M,M,80.00,7.00,M,30.10,M,10.00,M,CLR,M,M,M,M,M,M,M,M,KDIJ 011035Z AUTO 08007KT 10SM CLR A3010 RMK MADISHF
DIJ,2017-04-01 10:40,-111.0979,43.7419,M,M,M,90.00,6.00,M,30.10,M,10.00,M,CLR,M,M,M,M,M,M,M,M,KDIJ 011040Z AUTO 09006KT 10SM CLR A3010 RMK MADISHF
DIJ,2017-04-01 10:50,-111.0979,43.7419,M,M,M,90.00,6.00,M,30.10,M,10.00,M,CLR,M,M,M,M,M,M,M,M,KDIJ 011050Z AUTO 09006KT 10SM CLR A3010 RMK MADISHF
DIJ,2017-04-01 10:55,-111.0979,43.7419,M,M,M,90.00,4.00,M,30.10,M,10.00,M,CLR,M,M,M,M,M,M,M,M,KDIJ 011055Z AUTO 09004KT 10SM CLR A3010 RMK MADISHF
DIJ,2017-04-01 10:56,-111.0979,43.7419,30.00,26.10,85.21,100.00,3.00,0.00,30.10,1019.20,10.00,M,CLR,M,M,M,M,M,M,M,M,KDIJ 011056Z AUTO 10003KT 10SM CLR M01/M03 A3010 RMK AO2 SLP192 T10111033
DIJ,2017-04-01 11:00,-111.0979,43.7419,M,M,M,80.00,5.00,M,30.10,M,10.00,M,CLR,M,M,M,M,M,M,M,M,KDIJ 011100Z AUTO 08005KT 10SM CLR A3010 RMK MADISHF
DIJ,2017-04-01 11:05,-111.0979,43.7419,M,M,M,90.00,3.00,M,30.11,M,10.00,M,CLR,M,M,M,M,M,M,M,M,KDIJ 011105Z AUTO 09003KT 10SM CLR A3011 RMK MADISHF
DIJ,2017-04-01 11:10,-111.0979,43.7419,M,M,M,80.00,3.00,M,30.11,M,10.00,M,CLR,M,M,M,M,M,M,M,M,KDIJ 011110Z AUTO 08003KT 10SM CLR A3011 RMK MADISHF
DIJ,2017-04-01 11:15,-111.0979,43.7419,M,M,M,80.00,3.00,M,30.11,M,10.00,M,CLR,M,M,M,M,M,M,M,M,KDIJ 011115Z AUTO 08003KT 10SM CLR A3011 RMK MADISHF
DIJ,2017-04-01 11:20,-111.0979,43.7419,M,M,M,70.00,4.00,M,30.11,M,10.00,M,CLR,M,M,M,M,M,M,M,M,KDIJ 011120Z AUTO 07004KT 10SM CLR A3011 RMK MADISHF
DIJ,2017-04-01 11:25,-111.0979,43.7419,M,M,M,70.00,5.00,M,30.11,M,10.00,M,CLR,M,M,M,M,M,M,M,M,KDIJ 011125Z AUTO 07005KT 10SM CLR A3011 RMK MADISHF
DIJ,2017-04-01 11:30,-111.0979,43.7419,M,M,M,100.00,5.00,M,30.11,M,10.00,M,CLR,M,M,M,M,M,M,M,M,KDIJ 011130Z AUTO 10005KT 10SM CLR A3011 RMK MADISHF
DIJ,2017-04-01 11:35,-111.0979,43.7419,M,M,M,120.00,3.00,M,30.11,M,10.00,M,CLR,M,M,M,M,M,M,M,M,KDIJ 011135Z AUTO 12003KT 10SM CLR A3011 RMK MADISHF
DIJ,2017-04-01 11:40,-111.0979,43.7419,M,M,M,110.00,3.00,M,30.11,M,10.00,M,CLR,M,M,M,M,M,M,M,M,KDIJ 011140Z AUTO 11003KT 10SM CLR A3011 RMK MADISHF
DIJ,2017-04-01 11:45,-111.0979,43.7419,M,M,M,110.00,5.00,M,30.12,M,10.00,M,CLR,M,M,M,M,M,M,M,M,KDIJ 011145Z AUTO 11005KT 10SM CLR A3012 RMK MADISHF
DIJ,2017-04-01 11:50,-111.0979,43.7419,M,M,M,110.00,5.00,M,30.12,M,10.00,M,CLR,M,M,M,M,M,M,M,M,KDIJ 011150Z AUTO 11005KT 10SM CLR A3012 RMK MADISHF
DIJ,2017-04-01 11:55,-111.0979,43.7419,M,M,M,120.00,5.00,M,30.12,M,10.00,M,CLR,M,M,M,M,M,M,M,M,KDIJ 011155Z AUTO 12005KT 10SM CLR A3012 RMK MADISHF
DIJ,2017-04-01 11:56,-111.0979,43.7419,28.90,25.00,85.14,120.00,5.00,0.00,30.12,M,10.00,M,CLR,M,M,M,M,M,M,M,M,KDIJ 011156Z AUTO 12005KT 10SM CLR M02/M04 A3012 RMK AO2 SLPNO 7//// T10171039 10022 21022 53009
DIJ,2017-04-01 12:00,-111.0979,43.7419,M,M,M,130.00,5.00,M,30.12,M,10.00,M,CLR,M,M,M,M,M,M,M,M,KDIJ 011200Z AUTO 13005KT 10SM CLR A3012 RMK MADISHF
DIJ,2017-04-01 12:05,-111.0979,43.7419,M,M,M,250.00,4.00,M,30.12,M,10.00,M,CLR,M,M,M,M,M,M,M,M,KDIJ 011205Z AUTO 25004KT 10SM CLR A3012 RMK VRB04KT  MADISHF
DIJ,2017-04-01 12:10,-111.0979,43.7419,M,M,M,0.00,0.00,M,30.12,M,10.00,M,CLR,M,M,M,M,M,M,M,M,KDIJ 011210Z AUTO 00000KT 10SM CLR A3012 RMK MADISHF
DIJ,2017-04-01 12:15,-111.0979,43.7419,M,M,M,0.00,0.00,M,30.13,M,10.00,M,CLR,M,M,M,M,M,M,M,M,KDIJ 011215Z AUTO 00000KT 10SM CLR A3013 RMK MADISHF
DIJ,2017-04-01 12:20,-111.0979,43.7419,M,M,M,180.00,3.00,M,30.12,M,10.00,M,CLR,M,M,M,M,M,M,M,M,KDIJ 011220Z AUTO 18003KT 10SM CLR A3012 RMK MADISHF
DIJ,2017-04-01 12:25,-111.0979,43.7419,M,M,M,0.00,0.00,M,30.12,M,10.00,M,CLR,M,M,M,M,M,M,M,M,KDIJ 011225Z AUTO 00000KT 10SM CLR A3012 RMK MADISHF
DIJ,2017-04-01 12:30,-111.0979,43.7419,M,M,M,0.00,0.00,M,30.13,M,10.00,M,CLR,M,M,M,M,M,M,M,M,KDIJ 011230Z AUTO 00000KT 10SM CLR A3013 RMK MADISHF
DIJ,2017-04-01 12:35,-111.0979,43.7419,M,M,M,0.00,0.00,M,30.13,M,10.00,M,CLR,M,M,M,M,M,M,M,M,KDIJ 011235Z AUTO 00000KT 10SM CLR A3013 RMK MADISHF
DIJ,2017-04-01 12:40,-111.0979,43.7419,M,M,M,0.00,0.00,M,30.13,M,10.00,M,CLR,M,M,M,M,M,M,M,M,KDIJ 011240Z AUTO 00000KT 10SM CLR A3013 RMK MADISHF
DIJ,2017-04-01 12:45,-111.0979,43.7419,M,M,M,0.00,0.00,M,30.13,M,10.00,M,CLR,M,M,M,M,M,M,M,M,KDIJ 011245Z AUTO 00000KT 10SM CLR A3013 RMK MADISHF
DIJ,2017-04-01 12:50,-111.0979,43.7419,M,M,M,0.00,0.00,M,30.13,M,10.00,M,CLR,M,M,M,M,M,M,M,M,KDIJ 011250Z AUTO 00000KT 10SM CLR A3013 RMK MADISHF
DIJ,2017-04-01 12:55,-111.0979,43.7419,M,M,M,0.00,0.00,M,30.13,M,10.00,M,CLR,M,M,M,M,M,M,M,M,KDIJ 011255Z AUTO 00000KT 10SM CLR A3013 RMK MADISHF
DIJ,2017-04-01 12:56,-111.0979,43.7419,27.00,24.10,88.65,0.00,0.00,0.00,30.13,M,10.00,M,CLR,M,M,M,M,M,M,M,M,KDIJ 011256Z AUTO 00000KT 10SM CLR M03/M04 A3013 RMK AO2 SLPNO T10281044
DIJ,2017-04-01 13:00,-111.0979,43.7419,M,M,M,0.00,0.00,M,30.13,M,10.00,M,CLR,M,M,M,M,M,M,M,M,KDIJ 011300Z AUTO 00000KT 10SM CLR A3013 RMK MADISHF
DIJ,2017-04-01 13:05,-111.0979,43.7419,M,M,M,0.00,0.00,M,30.13,M,10.00,M,CLR,M,M,M,M,M,M,M,M,KDIJ 011305Z AUTO 00000KT 10SM CLR A3013 RMK MADISHF
DIJ,2017-04-01 13:10,-111.0979,43.7419,M,M,M,0.00,0.00,M,30.13,M,10.00,M,CLR,M,M,M,M,M,M,M,M,KDIJ 011310Z AUTO 00000KT 10SM CLR A3013 RMK MADISHF
DIJ,2017-04-01 13:15,-111.0979,43.7419,M,M,M,0.00,0.00,M,30.13,M,10.00,M,CLR,M,M,M,M,M,M,M,M,KDIJ 011315Z AUTO 00000KT 10SM CLR A3013 RMK MADISHF
DIJ,2017-04-01 13:20,-111.0979,43.7419,M,M,M,0.00,0.00,M,30.13,M,10.00,M,CLR,M,M,M,M,M,M,M,M,KDIJ 011320Z AUTO 00000KT 10SM CLR A3013 RMK MADISHF
DIJ,2017-04-01 13:25,-111.0979,43.7419,M,M,M,0.00,0.00,M,30.13,M,10.00,M,CLR,M,M,M,M,M,M,M,M,KDIJ 011325Z AUTO 00000KT 10SM CLR A3013 RMK MADISHF
DIJ,2017-04-01 13:30,-111.0979,43.7419,M,M,M,0.00,0.00,M,30.13,M,10.00,M,CLR,M,M,M,M,M,M,M,M,KDIJ 011330Z AUTO 00000KT 10SM CLR A3013 RMK MADISHF
DIJ,2017-04-01 13:35,-111.0979,43.7419,M,M,M,150.00,3.00,M,30.13,M,10.00,M,CLR,M,M,M,M,M,M,M,M,KDIJ 011335Z AUTO 15003KT 10SM CLR A3013 RMK MADISHF
DIJ,2017-04-01 13:40,-111.0979,43.7419,M,M,M,160.00,3.00,M,30.13,M,10.00,M,CLR,M,M,M,M,M,M,M,M,KDIJ 011340Z AUTO 16003KT 10SM CLR A3013 RMK MADISHF
DIJ,2017-04-01 13:45,-111.0979,43.7419,M,M,M,160.00,5.00,M,30.13,M,10.00,M,CLR,M,M,M,M,M,M,M,M,KDIJ 011345Z AUTO 16005KT 10SM CLR A3013 RMK MADISHF
DIJ,2017-04-01 13:50,-111.0979,43.7419,M,M,M,150.00,5.00,M,30.13,M,10.00,M,CLR,M,M,M,M,M,M,M,M,KDIJ 011350Z AUTO 15005KT 10SM CLR A3013 RMK MADISHF
DIJ,2017-04-01 13:55,-111.0979,43.7419,M,M,M,120.00,5.00,M,30.13,M,10.00,M,CLR,M,M,M,M,M,M,M,M,KDIJ 011355Z AUTO 12005KT 10SM CLR A3013 RMK MADISHF
DIJ,2017-04-01 13:56,-111.0979,43.7419,30.90,26.10,82.15,110.00,5.00,0.00,30.13,M,10.00,M,CLR,M,M,M,M,M,M,M,M,KDIJ 011356Z AUTO 11005KT 10SM CLR M01/M03 A3013 RMK AO2 SLPNO T10061033
DIJ,2017-04-01 14:00,-111.0979,43.7419,M,M,M,100.00,6.00,M,30.13,M,10.00,M,CLR,M,M,M,M,M,M,M,M,KDIJ 011400Z AUTO 10006KT 10SM CLR A3013 RMK MADISHF
DIJ,2017-04-01 14:05,-111.0979,43.7419,M,M,M,100.00,6.00,M,30.13,M,10.00,M,CLR,M,M,M,M,M,M,M,M,KDIJ 011405Z AUTO 10006KT 10SM CLR A3013 RMK MADISHF
DIJ,2017-04-01 14:10,-111.0979,43.7419,M,M,M,100.00,4.00,M,30.13,M,10.00,M,CLR,M,M,M,M,M,M,M,M,KDIJ 011410Z AUTO 10004KT 10SM CLR A3013 RMK MADISHF
DIJ,2017-04-01 14:15,-111.0979,43.7419,M,M,M,90.00,4.00,M,30.13,M,10.00,M,CLR,M,M,M,M,M,M,M,M,KDIJ 011415Z AUTO 09004KT 10SM CLR A3013 RMK MADISHF
DIJ,2017-04-01 14:20,-111.0979,43.7419,M,M,M,100.00,5.00,M,30.13,M,10.00,M,CLR,M,M,M,M,M,M,M,M,KDIJ 011420Z AUTO 10005KT 10SM CLR A3013 RMK MADISHF
DIJ,2017-04-01 14:25,-111.0979,43.7419,M,M,M,100.00,4.00,M,30.13,M,10.00,M,CLR,M,M,M,M,M,M,M,M,KDIJ 011425Z AUTO 10004KT 10SM CLR A3013 RMK MADISHF
DIJ,2017-04-01 14:30,-111.0979,43.7419,M,M,M,90.00,3.00,M,30.13,M,10.00,M,CLR,M,M,M,M,M,M,M,M,KDIJ 011430Z AUTO 09003KT 10SM CLR A3013 RMK MADISHF
DIJ,2017-04-01 14:35,-111.0979,43.7419,M,M,M,0.00,0.00,M,30.13,M,10.00,M,CLR,M,M,M,M,M,M,M,M,KDIJ 011435Z AUTO 00000KT 10SM CLR A3013 RMK MADISHF
DIJ,2017-04-01 14:40,-111.0979,43.7419,M,M,M,0.00,0.00,M,30.13,M,10.00,M,CLR,M,M,M,M,M,M,M,M,KDIJ 011440Z AUTO 00000KT 10SM CLR A3013 RMK MADISHF
DIJ,2017-04-01 14:45,-111.0979,43.7419,M,M,M,290.00,5.00,M,30.13,M,10.00,M,CLR,M,M,M,M,M,M,M,M,KDIJ 011445Z AUTO 29005KT 10SM CLR A3013 RMK MADISHF
DIJ,2017-04-01 14:50,-111.0979,43.7419,M,M,M,290.00,5.00,M,30.13,M,10.00,M,CLR,M,M,M,M,M,M,M,M,KDIJ 011450Z AUTO 29005KT 10SM CLR A3013 RMK MADISHF
DIJ,2017-04-01 14:55,-111.0979,43.7419,M,M,M,280.00,5.00,M,30.13,M,10.00,M,CLR,M,M,M,M,M,M,M,M,KDIJ 011455Z AUTO 28005KT 10SM CLR A3013 RMK MADISHF
DIJ,2017-04-01 14:56,-111.0979,43.7419,37.00,30.00,75.56,290.00,5.00,0.00,30.13,M,10.00,M,CLR,M,M,M,M,M,M,M,M,KDIJ 011456Z AUTO 29005KT 10SM CLR 03/M01 A3013 RMK AO2 SLPNO T00281011 51003
DIJ,2017-04-01 15:00,-111.0979,43.7419,M,M,M,290.00,4.00,M,30.13,M,10.00,M,CLR,M,M,M,M,M,M,M,M,KDIJ 011500Z AUTO 29004KT 10SM CLR A3013 RMK MADISHF
DIJ,2017-04-01 15:05,-111.0979,43.7419,M,M,M,0.00,0.00,M,30.13,M,10.00,M,CLR,M,M,M,M,M,M,M,M,KDIJ 011505Z AUTO 00000KT 10SM CLR A3013 RMK MADISHF
DIJ,2017-04-01 15:10,-111.0979,43.7419,M,M,M,290.00,3.00,M,30.13,M,10.00,M,CLR,M,M,M,M,M,M,M,M,KDIJ 011510Z AUTO 29003KT 10SM CLR A3013 RMK MADISHF
DIJ,2017-04-01 15:15,-111.0979,43.7419,M,M,M,300.00,3.00,M,30.13,M,10.00,M,CLR,M,M,M,M,M,M,M,M,KDIJ 011515Z AUTO 30003KT 10SM CLR A3013 RMK MADISHF
DIJ,2017-04-01 15:20,-111.0979,43.7419,M,M,M,300.00,3.00,M,30.13,M,10.00,M,CLR,M,M,M,M,M,M,M,M,KDIJ 011520Z AUTO 30003KT 10SM CLR A3013 RMK MADISHF
DIJ,2017-04-01 15:25,-111.0979,43.7419,M,M,M,0.00,0.00,M,30.13,M,10.00,M,CLR,M,M,M,M,M,M,M,M,KDIJ 011525Z AUTO 00000KT 10SM CLR A3013 RMK MADISHF
DIJ,2017-04-01 15:30,-111.0979,43.7419,M,M,M,0.00,0.00,M,30.13,M,10.00,M,CLR,M,M,M,M,M,M,M,M,KDIJ 011530Z AUTO 00000KT 10SM CLR A3013 RMK MADISHF
DIJ,2017-04-01 15:35,-111.0979,43.7419,M,M,M,300.00,3.00,M,30.13,M,10.00,M,CLR,M,M,M,M,M,M,M,M,KDIJ 011535Z AUTO 30003KT 10SM CLR A3013 RMK MADISHF
DIJ,2017-04-01 15:40,-111.0979,43.7419,M,M,M,280.00,3.00,M,30.14,M,10.00,M,CLR,M,M,M,M,M,M,M,M,KDIJ 011540Z AUTO 28003KT 10SM CLR A3014 RMK MADISHF
DIJ,2017-04-01 15:45,-111.0979,43.7419,M,M,M,310.00,3.00,M,30.14,M,10.00,M,CLR,M,M,M,M,M,M,M,M,KDIJ 011545Z AUTO 31003KT 10SM CLR A3014 RMK MADISHF
DIJ,2017-04-01 15:50,-111.0979,43.7419,M,M,M,300.00,5.00,M,30.15,M,10.00,M,CLR,M,M,M,M,M,M,M,M,KDIJ 011550Z AUTO 30005KT 10SM CLR A3015 RMK VRB05KT  MADISHF
DIJ,2017-04-01 15:55,-111.0979,43.7419,M,M,M,300.00,4.00,M,30.15,M,10.00,M,CLR,M,M,M,M,M,M,M,M,KDIJ 011555Z AUTO 30004KT 10SM CLR A3015 RMK MADISHF
DIJ,2017-04-01 15:56,-111.0979,43.7419,42.10,28.90,59.22,300.00,5.00,0.00,30.16,M,10.00,M,CLR,M,M,M,M,M,M,M,M,KDIJ 011556Z AUTO 30005KT 10SM CLR 06/M02 A3016 RMK AO2 SLPNO T00561017
DIJ,2017-04-01 16:00,-111.0979,43.7419,M,M,M,300.00,3.00,M,30.16,M,10.00,M,CLR,M,M,M,M,M,M,M,M,KDIJ 011600Z AUTO 30003KT 10SM CLR A3016 RMK MADISHF
DIJ,2017-04-01 16:05,-111.0979,43.7419,M,M,M,0.00,0.00,M,30.16,M,10.00,M,CLR,M,M,M,M,M,M,M,M,KDIJ 011605Z AUTO 00000KT 10SM CLR A3016 RMK MADISHF
DIJ,2017-04-01 16:10,-111.0979,43.7419,M,M,M,200.00,3.00,M,30.16,M,10.00,M,CLR,M,M,M,M,M,M,M,M,KDIJ 011610Z AUTO 20003KT 10SM CLR A3016 RMK VRB03KT  MADISHF
DIJ,2017-04-01 16:15,-111.0979,43.7419,M,M,M,210.00,4.00,M,30.16,M,10.00,M,CLR,M,M,M,M,M,M,M,M,KDIJ 011615Z AUTO 21004KT 10SM CLR A3016 RMK VRB04KT  MADISHF
DIJ,2017-04-01 16:20,-111.0979,43.7419,M,M,M,190.00,3.00,M,30.16,M,10.00,M,CLR,M,M,M,M,M,M,M,M,KDIJ 011620Z AUTO 19003KT 10SM CLR A3016 RMK MADISHF
DIJ,2017-04-01 16:25,-111.0979,43.7419,M,M,M,190.00,3.00,M,30.17,M,10.00,M,CLR,M,M,M,M,M,M,M,M,KDIJ 011625Z AUTO 19003KT 10SM CLR A3017 RMK VRB03KT  MADISHF
DIJ,2017-04-01 16:30,-111.0979,43.7419,M,M,M,170.00,6.00,M,30.17,M,10.00,M,CLR,M,M,M,M,M,M,M,M,KDIJ 011630Z AUTO 17006KT 10SM CLR A3017 RMK MADISHF
DIJ,2017-04-01 16:35,-111.0979,43.7419,M,M,M,190.00,6.00,M,30.17,M,10.00,M,CLR,M,M,M,M,M,M,M,M,KDIJ 011635Z AUTO 19006KT 10SM CLR A3017 RMK MADISHF
DIJ,2017-04-01 16:40,-111.0979,43.7419,M,M,M,200.00,6.00,M,30.17,M,10.00,M,CLR,M,M,M,M,M,M,M,M,KDIJ 011640Z AUTO 20006KT 10SM CLR A3017 RMK MADISHF
DIJ,2017-04-01 16:45,-111.0979,43.7419,M,M,M,180.00,7.00,M,30.17,M,10.00,M,CLR,M,M,M,M,M,M,M,M,KDIJ 011645Z AUTO 18007KT 10SM CLR A3017 RMK MADISHF
DIJ,2017-04-01 16:50,-111.0979,43.7419,M,M,M,200.00,6.00,M,30.17,M,10.00,M,CLR,M,M,M,M,M,M,M,M,KDIJ 011650Z AUTO 20006KT 10SM CLR A3017 RMK MADISHF
DIJ,2017-04-01 16:55,-111.0979,43.7419,M,M,M,230.00,3.00,M,30.17,M,10.00,M,CLR,M,M,M,M,M,M,M,M,KDIJ 011655Z AUTO 23003KT 10SM CLR A3017 RMK MADISHF
DIJ,2017-04-01 16:56,-111.0979,43.7419,44.10,28.00,52.86,220.00,5.00,0.00,30.17,M,10.00,M,CLR,M,M,M,M,M,M,M,M,KDIJ 011656Z AUTO 22005KT 10SM CLR 07/M02 A3017 RMK AO2 SLPNO T00671022
DIJ,2017-04-01 17:00,-111.0979,43.7419,M,M,M,230.00,4.00,M,30.17,M,10.00,M,CLR,M,M,M,M,M,M,M,M,KDIJ 011700Z AUTO 23004KT 10SM CLR A3017 RMK MADISHF
DIJ,2017-04-01 17:05,-111.0979,43.7419,M,M,M,190.00,5.00,M,30.17,M,10.00,M,CLR,M,M,M,M,M,M,M,M,KDIJ 011705Z AUTO 19005KT 10SM CLR A3017 RMK MADISHF
DIJ,2017-04-01 17:10,-111.0979,43.7419,M,M,M,180.00,6.00,M,30.17,M,10.00,M,CLR,M,M,M,M,M,M,M,M,KDIJ 011710Z AUTO 18006KT 10SM CLR A3017 RMK MADISHF
DIJ,2017-04-01 17:15,-111.0979,43.7419,M,M,M,230.00,3.00,M,30.17,M,10.00,M,CLR,M,M,M,M,M,M,M,M,KDIJ 011715Z AUTO 23003KT 10SM CLR A3017 RMK MADISHF
DIJ,2017-04-01 17:20,-111.0979,43.7419,M,M,M,200.00,4.00,M,30.17,M,10.00,M,CLR,M,M,M,M,M,M,M,M,KDIJ 011720Z AUTO 20004KT 10SM CLR A3017 RMK VRB04KT  MADISHF
DIJ,2017-04-01 17:25,-111.0979,43.7419,M,M,M,230.00,4.00,M,30.17,M,10.00,M,CLR,M,M,M,M,M,M,M,M,KDIJ 011725Z AUTO 23004KT 10SM CLR A3017 RMK MADISHF
DIJ,2017-04-01 17:30,-111.0979,43.7419,M,M,M,280.00,5.00,M,30.17,M,10.00,M,CLR,M,M,M,M,M,M,M,M,KDIJ 011730Z AUTO 28005KT 10SM CLR A3017 RMK MADISHF
DIJ,2017-04-01 17:35,-111.0979,43.7419,M,M,M,260.00,3.00,M,30.16,M,10.00,M,CLR,M,M,M,M,M,M,M,M,KDIJ 011735Z AUTO 26003KT 10SM CLR A3016 RMK VRB03KT  MADISHF
DIJ,2017-04-01 17:40,-111.0979,43.7419,M,M,M,300.00,5.00,M,30.16,M,10.00,M,CLR,M,M,M,M,M,M,M,M,KDIJ 011740Z AUTO 30005KT 10SM CLR A3016 RMK VRB05KT  MADISHF
DIJ,2017-04-01 17:45,-111.0979,43.7419,M,M,M,260.00,4.00,M,30.16,M,10.00,M,CLR,M,M,M,M,M,M,M,M,KDIJ 011745Z AUTO 26004KT 10SM CLR A3016 RMK VRB04KT  MADISHF
DIJ,2017-04-01 17:50,-111.0979,43.7419,M,M,M,230.00,4.00,M,30.16,M,10.00,M,CLR,M,M,M,M,M,M,M,M,KDIJ 011750Z AUTO 23004KT 10SM CLR A3016 RMK MADISHF
DIJ,2017-04-01 17:55,-111.0979,43.7419,M,M,M,0.00,0.00,M,30.15,M,10.00,M,CLR,M,M,M,M,M,M,M,M,KDIJ 011755Z AUTO 00000KT 10SM CLR A3015 RMK MADISHF
DIJ,2017-04-01 17:56,-111.0979,43.7419,46.90,28.00,47.54,M,3.00,0.00,30.15,1021.30,10.00,M,CLR,M,M,M,M,M,M,M,M,KDIJ 011756Z AUTO VRB03KT 10SM CLR 08/M02 A3015 RMK AO2 SLP213 T00831022 10089 21028 50006
DIJ,2017-04-01 18:00,-111.0979,43.7419,M,M,M,240.00,4.00,M,30.15,M,10.00,M,FEW,M,M,M,3900.00,M,M,M,M,KDIJ 011800Z AUTO 24004KT 10SM FEW039 A3015 RMK MADISHF
DIJ,2017-04-01 18:05,-111.0979,43.7419,M,M,M,240.00,3.00,M,30.15,M,10.00,M,FEW,M,M,M,3900.00,M,M,M,M,KDIJ 011805Z AUTO 24003KT 10SM FEW039 A3015 RMK VRB03KT  MADISHF
DIJ,2017-04-01 18:10,-111.0979,43.7419,M,M,M,0.00,0.00,M,30.15,M,10.00,M,FEW,M,M,M,3900.00,M,M,M,M,KDIJ 011810Z AUTO 00000KT 10SM FEW039 A3015 RMK MADISHF
DIJ,2017-04-01 18:15,-111.0979,43.7419,M,M,M,290.00,3.00,M,30.15,M,10.00,M,FEW,M,M,M,3900.00,M,M,M,M,KDIJ 011815Z AUTO 29003KT 10SM FEW039 A3015 RMK VRB03KT  MADISHF
DIJ,2017-04-01 18:20,-111.0979,43.7419,M,M,M,280.00,5.00,M,30.15,M,10.00,M,FEW,M,M,M,3900.00,M,M,M,M,KDIJ 011820Z AUTO 28005KT 10SM FEW039 A3015 RMK MADISHF
DIJ,2017-04-01 18:25,-111.0979,43.7419,M,M,M,310.00,4.00,M,30.15,M,10.00,M,SCT,M,M,M,3900.00,M,M,M,M,KDIJ 011825Z AUTO 31004KT 10SM SCT039 A3015 RMK MADISHF
DIJ,2017-04-01 18:30,-111.0979,43.7419,M,M,M,0.00,0.00,M,30.14,M,10.00,M,SCT,M,M,M,3900.00,M,M,M,M,KDIJ 011830Z AUTO 00000KT 10SM SCT039 A3014 RMK MADISHF
DIJ,2017-04-01 18:35,-111.0979,43.7419,M,M,M,200.00,4.00,M,30.14,M,10.00,M,SCT,M,M,M,3900.00,M,M,M,M,KDIJ 011835Z AUTO 20004KT 10SM SCT039 A3014 RMK VRB04KT  MADISHF
DIJ,2017-04-01 18:40,-111.0979,43.7419,M,M,M,0.00,0.00,M,30.14,M,10.00,M,FEW,M,M,M,3900.00,M,M,M,M,KDIJ 011840Z AUTO 00000KT 10SM FEW039 A3014 RMK MADISHF
DIJ,2017-04-01 18:45,-111.0979,43.7419,M,M,M,0.00,0.00,M,30.13,M,10.00,M,SCT,M,M,M,4100.00,M,M,M,M,KDIJ 011845Z AUTO 00000KT 10SM SCT041 A3013 RMK MADISHF
DIJ,2017-04-01 18:50,-111.0979,43.7419,M,M,M,10.00,4.00,M,30.13,M,10.00,M,BKN,M,M,M,4100.00,M,M,M,M,KDIJ 011850Z AUTO 01004KT 10SM BKN041 A3013 RMK VRB04KT  MADISHF
DIJ,2017-04-01 18:55,-111.0979,43.7419,M,M,M,350.00,5.00,M,30.13,M,10.00,M,BKN,M,M,M,4100.00,M,M,M,M,KDIJ 011855Z AUTO 35005KT 10SM BKN041 A3013 RMK VRB05KT  MADISHF
DIJ,2017-04-01 18:56,-111.0979,43.7419,50.00,30.00,45.93,M,5.00,0.00,30.13,1020.00,10.00,M,BKN,M,M,M,4100.00,M,M,M,M,KDIJ 011856Z AUTO VRB05KT 10SM BKN041 10/M01 A3013 RMK AO2 SLP200 T01001011
DIJ,2017-04-01 19:00,-111.0979,43.7419,M,M,M,310.00,6.00,M,30.13,M,10.00,M,SCT,M,M,M,4100.00,M,M,M,M,KDIJ 011900Z AUTO 31006KT 10SM SCT041 A3013 RMK MADISHF
DIJ,2017-04-01 19:05,-111.0979,43.7419,M,M,M,290.00,5.00,M,30.13,M,10.00,M,FEW,M,M,M,4100.00,M,M,M,M,KDIJ 011905Z AUTO 29005KT 10SM FEW041 A3013 RMK VRB05KT  MADISHF
DIJ,2017-04-01 19:10,-111.0979,43.7419,M,M,M,300.00,6.00,M,30.13,M,10.00,M,FEW,M,M,M,4100.00,M,M,M,M,KDIJ 011910Z AUTO 30006KT 10SM FEW041 A3013 RMK MADISHF
DIJ,2017-04-01 19:15,-111.0979,43.7419,M,M,M,20.00,4.00,M,30.12,M,10.00,M,FEW,M,M,M,4100.00,M,M,M,M,KDIJ 011915Z AUTO 02004KT 10SM FEW041 A3012 RMK VRB04KT  MADISHF
DIJ,2017-04-01 19:20,-111.0979,43.7419,M,M,M,280.00,7.00,M,30.12,M,10.00,M,FEW,M,M,M,4300.00,M,M,M,M,KDIJ 011920Z AUTO 28007KT 10SM FEW043 A3012 RMK MADISHF
DIJ,2017-04-01 19:25,-111.0979,43.7419,M,M,M,340.00,5.00,M,30.12,M,10.00,M,CLR,M,M,M,M,M,M,M,M,KDIJ 011925Z AUTO 34005KT 10SM CLR A3012 RMK MADISHF
DIJ,2017-04-01 19:30,-111.0979,43.7419,M,M,M,280.00,7.00,M,30.12,M,10.00,M,CLR,M,M,M,M,M,M,M,M,KDIJ 011930Z AUTO 28007KT 10SM CLR A3012 RMK MADISHF
DIJ,2017-04-01 19:35,-111.0979,43.7419,M,M,M,220.00,7.00,M,30.12,M,10.00,M,CLR,M,M,M,M,M,M,M,M,KDIJ 011935Z AUTO 22007KT 10SM CLR A3012 RMK MADISHF
DIJ,2017-04-01 19:40,-111.0979,43.7419,M,M,M,0.00,0.00,M,30.12,M,10.00,M,CLR,M,M,M,M,M,M,M,M,KDIJ 011940Z AUTO 00000KT 10SM CLR A3012 RMK MADISHF
DIJ,2017-04-01 19:45,-111.0979,43.7419,M,M,M,300.00,7.00,M,30.12,M,10.00,M,CLR,M,M,M,M,M,M,M,M,KDIJ 011945Z AUTO 30007KT 10SM CLR A3012 RMK MADISHF
DIJ,2017-04-01 19:50,-111.0979,43.7419,M,M,M,10.00,3.00,M,30.12,M,10.00,M,CLR,M,M,M,M,M,M,M,M,KDIJ 011950Z AUTO 01003KT 10SM CLR A3012 RMK MADISHF
DIJ,2017-04-01 19:55,-111.0979,43.7419,M,M,M,0.00,0.00,M,30.12,M,10.00,M,CLR,M,M,M,M,M,M,M,M,KDIJ 011955Z AUTO 00000KT 10SM CLR A3012 RMK MADISHF
DIJ,2017-04-01 19:56,-111.0979,43.7419,50.00,28.90,43.92,M,3.00,0.00,30.12,1019.70,10.00,M,CLR,M,M,M,M,M,M,M,M,KDIJ 011956Z AUTO VRB03KT 10SM CLR 10/M02 A3012 RMK AO2 SLP197 T01001017
DIJ,2017-04-01 20:00,-111.0979,43.7419,M,M,M,330.00,6.00,M,30.12,M,10.00,M,FEW,M,M,M,4500.00,M,M,M,M,KDIJ 012000Z AUTO 33006KT 10SM FEW045 A3012 RMK VRB06KT  MADISHF
DIJ,2017-04-01 20:10,-111.0979,43.7419,M,M,M,0.00,0.00,M,30.11,M,10.00,M,SCT,M,M,M,4500.00,M,M,M,M,KDIJ 012010Z AUTO 00000KT 10SM SCT045 A3011 RMK MADISHF
DIJ,2017-04-01 20:15,-111.0979,43.7419,M,M,M,20.00,8.00,M,30.11,M,10.00,M,SCT,M,M,M,4500.00,M,M,M,M,KDIJ 012015Z AUTO 02008KT 10SM SCT045 A3011 RMK MADISHF
DIJ,2017-04-01 20:20,-111.0979,43.7419,M,M,M,M,M,M,30.11,M,10.00,M,BKN,M,M,M,4300.00,M,M,M,M,KDIJ 012020Z AUTO /////KT 10SM BKN043 A3011 RMK WND 35V07  MADISHF
DIJ,2017-04-01 20:25,-111.0979,43.7419,M,M,M,M,M,M,30.11,M,10.00,M,BKN,M,M,M,4500.00,M,M,M,M,KDIJ 012025Z AUTO /////KT 10SM BKN045 A3011 RMK MADISHF
DIJ,2017-04-01 20:30,-111.0979,43.7419,M,M,M,M,M,M,30.10,M,10.00,19.00,BKN,M,M,M,4500.00,M,M,M,M,KDIJ 012030Z AUTO /////G19KT 10SM BKN045 A3010 RMK MADISHF
DIJ,2017-04-01 20:35,-111.0979,43.7419,M,M,M,360.00,9.00,M,30.11,M,10.00,M,BKN,M,M,M,4700.00,M,M,M,M,KDIJ 012035Z AUTO 36009KT 10SM BKN047 A3011 RMK MADISHF
DIJ,2017-04-01 20:40,-111.0979,43.7419,M,M,M,360.00,10.00,M,30.10,M,10.00,M,OVC,M,M,M,4700.00,M,M,M,M,KDIJ 012040Z AUTO 36010KT 10SM OVC047 A3010 RMK MADISHF
DIJ,2017-04-01 20:45,-111.0979,43.7419,M,M,M,M,M,M,30.10,M,10.00,M,OVC,M,M,M,4700.00,M,M,M,M,KDIJ 012045Z AUTO /////KT 10SM OVC047 A3010 RMK MADISHF
DIJ,2017-04-01 20:50,-111.0979,43.7419,M,M,M,360.00,10.00,M,30.10,M,10.00,M,OVC,M,M,M,4700.00,M,M,M,M,KDIJ 012050Z AUTO 36010KT 10SM OVC047 A3010 RMK MADISHF
DIJ,2017-04-01 20:55,-111.0979,43.7419,M,M,M,330.00,10.00,M,30.10,M,10.00,M,OVC,M,M,M,4700.00,M,M,M,M,KDIJ 012055Z AUTO 33010KT 10SM OVC047 A3010 RMK MADISHF
DIJ,2017-04-01 20:56,-111.0979,43.7419,52.00,32.00,46.25,330.00,9.00,0.00,30.10,1019.10,10.00,M,OVC,M,M,M,4700.00,M,M,M,M,KDIJ 012056Z AUTO 33009KT 10SM OVC047 11/00 A3010 RMK AO2 SLP191 T01110000 56015
DIJ,2017-04-01 21:00,-111.0979,43.7419,M,M,M,M,M,M,30.10,M,10.00,M,OVC,M,M,M,4700.00,M,M,M,M,KDIJ 012100Z AUTO /////KT 10SM OVC047 A3010 RMK MADISHF
DIJ,2017-04-01 21:10,-111.0979,43.7419,M,M,M,M,M,M,30.10,M,10.00,19.00,OVC,M,M,M,4900.00,M,M,M,M,KDIJ 012110Z AUTO /////G19KT 10SM OVC049 A3010 RMK MADISHF
DIJ,2017-04-01 21:15,-111.0979,43.7419,M,M,M,M,M,M,30.10,M,10.00,M,BKN,OVC,M,M,4900.00,6000.00,M,M,M,KDIJ 012115Z AUTO /////KT 10SM BKN049 OVC060 A3010 RMK MADISHF
DIJ,2017-04-01 21:20,-111.0979,43.7419,M,M,M,M,M,M,30.10,M,10.00,M,OVC,M,M,M,5500.00,M,M,M,M,KDIJ 012120Z AUTO /////KT 10SM OVC055 A3010 RMK MADISHF
DIJ,2017-04-01 21:25,-111.0979,43.7419,M,M,M,320.00,14.00,M,30.10,M,10.00,M,OVC,M,M,M,5500.00,M,M,M,M,KDIJ 012125Z AUTO 32014KT 10SM OVC055 A3010 RMK MADISHF
DIJ,2017-04-01 21:30,-111.0979,43.7419,M,M,M,320.00,12.00,M,30.10,M,10.00,M,OVC,M,M,M,5500.00,M,M,M,M,KDIJ 012130Z AUTO 32012KT 10SM OVC055 A3010 RMK MADISHF
DIJ,2017-04-01 21:35,-111.0979,43.7419,M,M,M,M,M,M,30.10,M,10.00,M,BKN,M,M,M,5500.00,M,M,M,M,KDIJ 012135Z AUTO /////KT 10SM BKN055 A3010 RMK MADISHF
DIJ,2017-04-01 21:40,-111.0979,43.7419,M,M,M,340.00,11.00,M,30.10,M,10.00,M,OVC,M,M,M,6000.00,M,M,M,M,KDIJ 012140Z AUTO 34011KT 10SM OVC060 A3010 RMK MADISHF
DIJ,2017-04-01 21:45,-111.0979,43.7419,M,M,M,320.00,10.00,M,30.10,M,10.00,M,BKN,M,M,M,5500.00,M,M,M,M,KDIJ 012145Z AUTO 32010KT 10SM BKN055 A3010 RMK MADISHF
DIJ,2017-04-01 21:50,-111.0979,43.7419,M,M,M,330.00,10.00,M,30.09,M,10.00,M,BKN,M,M,M,5500.00,M,M,M,M,KDIJ 012150Z AUTO 33010KT 10SM BKN055 A3009 RMK MADISHF
DIJ,2017-04-01 21:55,-111.0979,43.7419,M,M,M,M,M,M,30.09,M,10.00,M,BKN,M,M,M,5500.00,M,M,M,M,KDIJ 012155Z AUTO /////KT 10SM BKN055 A3009 RMK MADISHF
DIJ,2017-04-01 21:56,-111.0979,43.7419,51.10,30.00,44.09,360.00,10.00,0.00,30.09,1018.80,10.00,M,BKN,M,M,M,5500.00,M,M,M,M,KDIJ 012156Z AUTO 36010KT 10SM BKN055 11/M01 A3009 RMK AO2 SLP188 T01061011
DIJ,2017-04-01 22:00,-111.0979,43.7419,M,M,M,340.00,11.00,M,30.09,M,10.00,M,SCT,M,M,M,5500.00,M,M,M,M,KDIJ 012200Z AUTO 34011KT 10SM SCT055 A3009 RMK MADISHF
DIJ,2017-04-01 22:05,-111.0979,43.7419,M,M,M,320.00,11.00,M,30.09,M,10.00,M,SCT,M,M,M,5500.00,M,M,M,M,KDIJ 012205Z AUTO 32011KT 10SM SCT055 A3009 RMK MADISHF
DIJ,2017-04-01 22:10,-111.0979,43.7419,M,M,M,340.00,9.00,M,30.09,M,10.00,M,FEW,M,M,M,5500.00,M,M,M,M,KDIJ 012210Z AUTO 34009KT 10SM FEW055 A3009 RMK MADISHF
DIJ,2017-04-01 22:15,-111.0979,43.7419,M,M,M,320.00,9.00,M,30.08,M,10.00,14.00,FEW,M,M,M,5500.00,M,M,M,M,KDIJ 012215Z AUTO 32009G14KT 10SM FEW055 A3008 RMK MADISHF
DIJ,2017-04-01 22:20,-111.0979,43.7419,M,M,M,360.00,10.00,M,30.08,M,10.00,M,CLR,M,M,M,M,M,M,M,M,KDIJ 012220Z AUTO 36010KT 10SM CLR A3008 RMK MADISHF
DIJ,2017-04-01 22:25,-111.0979,43.7419,M,M,M,330.00,9.00,M,30.08,M,10.00,M,CLR,M,M,M,M,M,M,M,M,KDIJ 012225Z AUTO 33009KT 10SM CLR A3008 RMK MADISHF
DIJ,2017-04-01 22:30,-111.0979,43.7419,M,M,M,330.00,8.00,M,30.08,M,10.00,M,CLR,M,M,M,M,M,M,M,M,KDIJ 012230Z AUTO 33008KT 10SM CLR A3008 RMK MADISHF
DIJ,2017-04-01 22:35,-111.0979,43.7419,M,M,M,350.00,8.00,M,30.07,M,10.00,M,CLR,M,M,M,M,M,M,M,M,KDIJ 012235Z AUTO 35008KT 10SM CLR A3007 RMK MADISHF
DIJ,2017-04-01 22:40,-111.0979,43.7419,M,M,M,360.00,8.00,M,30.07,M,10.00,M,SCT,M,M,M,5500.00,M,M,M,M,KDIJ 012240Z AUTO 36008KT 10SM SCT055 A3007 RMK MADISHF
DIJ,2017-04-01 22:45,-111.0979,43.7419,M,M,M,10.00,9.00,M,30.07,M,10.00,M,SCT,M,M,M,5500.00,M,M,M,M,KDIJ 012245Z AUTO 01009KT 10SM SCT055 A3007 RMK MADISHF
DIJ,2017-04-01 22:50,-111.0979,43.7419,M,M,M,20.00,9.00,M,30.06,M,10.00,M,SCT,M,M,M,5500.00,M,M,M,M,KDIJ 012250Z AUTO 02009KT 10SM SCT055 A3006 RMK MADISHF
DIJ,2017-04-01 22:55,-111.0979,43.7419,M,M,M,40.00,6.00,M,30.06,M,10.00,M,SCT,M,M,M,5500.00,M,M,M,M,KDIJ 012255Z AUTO 04006KT 10SM SCT055 A3006 RMK MADISHF
DIJ,2017-04-01 22:56,-111.0979,43.7419,50.00,28.90,43.92,20.00,7.00,0.00,30.06,1018.00,10.00,M,SCT,M,M,M,5500.00,M,M,M,M,KDIJ 012256Z AUTO 02007KT 10SM SCT055 10/M02 A3006 RMK AO2 SLP180 T01001017
DIJ,2017-04-01 23:00,-111.0979,43.7419,M,M,M,30.00,7.00,M,30.06,M,10.00,M,SCT,M,M,M,5500.00,M,M,M,M,KDIJ 012300Z AUTO 03007KT 10SM SCT055 A3006 RMK MADISHF
DIJ,2017-04-01 23:05,-111.0979,43.7419,M,M,M,40.00,4.00,M,30.06,M,10.00,M,BKN,M,M,M,5500.00,M,M,M,M,KDIJ 012305Z AUTO 04004KT 10SM BKN055 A3006 RMK MADISHF
DIJ,2017-04-01 23:10,-111.0979,43.7419,M,M,M,M,M,M,30.06,M,10.00,M,SCT,M,M,M,5500.00,M,M,M,M,KDIJ 012310Z AUTO /////KT 10SM SCT055 A3006 RMK MADISHF
DIJ,2017-04-01 23:15,-111.0979,43.7419,M,M,M,30.00,7.00,M,30.06,M,10.00,M,FEW,M,M,M,5500.00,M,M,M,M,KDIJ 012315Z AUTO 03007KT 10SM FEW055 A3006 RMK MADISHF
DIJ,2017-04-01 23:20,-111.0979,43.7419,M,M,M,M,M,M,30.06,M,10.00,M,SCT,M,M,M,5500.00,M,M,M,M,KDIJ 012320Z AUTO /////KT 10SM SCT055 A3006 RMK MADISHF
DIJ,2017-04-01 23:30,-111.0979,43.7419,M,M,M,M,M,M,30.06,M,10.00,M,BKN,M,M,M,5500.00,M,M,M,M,KDIJ 012330Z AUTO /////KT 10SM BKN055 A3006 RMK MADISHF
DIJ,2017-04-01 23:35,-111.0979,43.7419,M,M,M,M,M,M,30.06,M,10.00,M,SCT,M,M,M,5500.00,M,M,M,M,KDIJ 012335Z AUTO /////KT 10SM SCT055 A3006 RMK MADISHF
DIJ,2017-04-01 23:40,-111.0979,43.7419,M,M,M,20.00,6.00,M,30.06,M,10.00,M,SCT,M,M,M,5500.00,M,M,M,M,KDIJ 012340Z AUTO 02006KT 10SM SCT055 A3006 RMK MADISHF
DIJ,2017-04-01 23:45,-111.0979,43.7419,M,M,M,30.00,4.00,M,30.06,M,10.00,M,SCT,M,M,M,5500.00,M,M,M,M,KDIJ 012345Z AUTO 03004KT 10SM SCT055 A3006 RMK MADISHF
DIJ,2017-04-01 23:50,-111.0979,43.7419,M,M,M,M,M,M,30.06,M,10.00,M,SCT,M,M,M,5500.00,M,M,M,M,KDIJ 012350Z AUTO /////KT 10SM SCT055 A3006 RMK MADISHF
DIJ,2017-04-01 23:55,-111.0979,43.7419,M,M,M,M,M,M,30.06,M,10.00,M,FEW,M,M,M,5500.00,M,M,M,M,KDIJ 012355Z AUTO /////KT 10SM FEW055 A3006 RMK MADISHF
DIJ,2017-04-01 23:56,-111.0979,43.7419,51.10,30.00,44.09,40.00,8.00,0.00,30.06,1017.90,10.00,M,FEW,M,M,M,5500.00,M,M,M,M,KDIJ 012356Z AUTO 04008KT 10SM FEW055 11/M01 A3006 RMK AO2 SLP179 T01061011 10117 20083 56012
