#DEBUG: Format Typ    -> comma
#DEBUG: Time Period   -> 2017-04-01 00:00:00+00:00 2017-04-02 00:00:00+00:00
#DEBUG: Time Zone     -> Etc/UTC
#DEBUG: Data Contact   -> daryl herzmann akrherz@iastate.edu 515-294-5978
#DEBUG: Entries Found -> -1
station,valid,lon,lat,tmpf, dwpf, relh, drct, sknt, p01i, alti, mslp, vsby, gust, skyc1, skyc2, skyc3, skyc4, skyl1, skyl2, skyl3, skyl4, presentwx, metar
DKK,2017-04-01 00:00,-79.2720,42.4933,41.00,41.00,100.00,320.00,4.00,0.00,29.68,M,2.50,M,OVC,M,M,M,200.00,M,M,M,-RA BR,KDKK 010000Z AUTO 32004KT 2 1/2SM -RA BR OVC002 05/05 A2968 RMK AO2 P0000 T00500050
DKK,2017-04-01 00:05,-79.2720,42.4933,M,M,M,320.00,5.00,M,29.68,M,2.00,M,OVC,M,M,M,200.00,M,M,M,-RA BR,KDKK 010005Z AUTO 32005KT 2SM -RA BR OVC002 A2968 RMK MADISHF
DKK,2017-04-01 00:10,-79.2720,42.4933,M,M,M,340.00,6.00,M,29.69,M,2.50,M,OVC,M,M,M,200.00,M,M,M,-RA BR,KDKK 010010Z AUTO 34006KT 2 1/2SM -RA BR OVC002 A2969 RMK MADISHF
DKK,2017-04-01 00:15,-79.2720,42.4933,M,M,M,350.00,6.00,M,29.69,M,3.00,M,OVC,M,M,M,200.00,M,M,M,-RA BR,KDKK 010015Z AUTO 35006KT 3SM -RA BR OVC002 A2969 RMK MADISHF
DKK,2017-04-01 00:20,-79.2720,42.4933,M,M,M,340.00,7.00,0.01,29.69,M,3.00,M,OVC,M,M,M,200.00,M,M,M,-RA BR,KDKK 010020Z AUTO 34007KT 3SM -RA BR OVC002 A2969 RMK P0001 MADISHF
DKK,2017-04-01 00:21,-79.2720,42.4933,41.00,39.90,95.82,340.00,6.00,0.01,29.69,M,3.00,M,OVC,M,M,M,200.00,M,M,M,-RA BR,KDKK 010021Z AUTO 34006KT 3SM -RA BR OVC002 05/04 A2969 RMK AO2 P0001 T00500044
DKK,2017-04-01 00:25,-79.2720,42.4933,M,M,M,340.00,3.00,0.01,29.69,M,3.50,M,OVC,M,M,M,200.00,M,M,M,-RA BR,KDKK 010025Z AUTO 34003KT 3SM -RA BR OVC002 A2969 RMK P0001 MADISHF
DKK,2017-04-01 00:30,-79.2720,42.4933,M,M,M,300.00,3.00,0.01,29.69,M,3.00,M,OVC,M,M,M,200.00,M,M,M,-RA BR,KDKK 010030Z AUTO 30003KT 3SM -RA BR OVC002 A2969 RMK P0001 VRB03KT  MADISHF
DKK,2017-04-01 00:35,-79.2720,42.4933,M,M,M,330.00,4.00,0.01,29.69,M,3.00,M,OVC,M,M,M,200.00,M,M,M,-RA BR,KDKK 010035Z AUTO 33004KT 3SM -RA BR OVC002 A2969 RMK P0001 VRB04KT  MADISHF
DKK,2017-04-01 00:40,-79.2720,42.4933,M,M,M,320.00,3.00,0.01,29.70,M,3.00,M,OVC,M,M,M,200.00,M,M,M,-RA BR,KDKK 010040Z AUTO 32003KT 3SM -RA BR OVC002 A2970 RMK P0001 MADISHF
DKK,2017-04-01 00:45,-79.2720,42.4933,M,M,M,310.00,3.00,0.02,29.70,M,3.00,M,OVC,M,M,M,200.00,M,M,M,-RA BR,KDKK 010045Z AUTO 31003KT 3SM -RA BR OVC002 A2970 RMK P0002 VRB03KT  MADISHF
DKK,2017-04-01 00:50,-79.2720,42.4933,M,M,M,310.00,3.00,0.02,29.70,M,3.00,M,OVC,M,M,M,200.00,M,M,M,-RA BR,KDKK 010050Z AUTO 31003KT 3SM -RA BR OVC002 A2970 RMK P0002 VRB03KT  MADISHF
DKK,2017-04-01 00:53,-79.2720,42.4933,39.00,39.00,100.00,0.00,0.00,0.02,29.70,1006.20,2.50,M,OVC,M,M,M,200.00,M,M,M,-RA BR,KDKK 010053Z AUTO 00000KT 2 1/2SM -RA BR OVC002 04/04 A2970 RMK AO2 SLP062 P0002 T00390039
DKK,2017-04-01 00:55,-79.2720,42.4933,M,M,M,320.00,3.00,M,29.70,M,2.50,M,OVC,M,M,M,100.00,M,M,M,-RA BR,KDKK 010055Z AUTO 32003KT 2 1/2SM -RA BR OVC001 A2970 RMK VRB03KT  MADISHF
DKK,2017-04-01 01:00,-79.2720,42.4933,M,M,M,0.00,0.00,M,29.70,M,2.50,M,OVC,M,M,M,100.00,M,M,M,-RA BR,KDKK 010100Z AUTO 00000KT 2 1/2SM -RA BR OVC001 A2970 RMK MADISHF
DKK,2017-04-01 01:05,-79.2720,42.4933,M,M,M,0.00,0.00,M,29.70,M,2.50,M,OVC,M,M,M,100.00,M,M,M,-RA BR,KDKK 010105Z AUTO 00000KT 2 1/2SM -RA BR OVC001 A2970 RMK MADISHF
DKK,2017-04-01 01:10,-79.2720,42.4933,M,M,M,0.00,0.00,M,29.70,M,3.00,M,OVC,M,M,M,100.00,M,M,M,-RA BR,KDKK 010110Z AUTO 00000KT 3SM -RA BR OVC001 A2970 RMK MADISHF
DKK,2017-04-01 01:13,-79.2720,42.4933,39.00,39.00,100.00,0.00,0.00,0.00,29.70,M,3.00,M,OVC,M,M,M,100.00,M,M,M,-RA BR,KDKK 010113Z AUTO 00000KT 3SM -RA BR OVC001 04/04 A2970 RMK AO2 P0000 T00390039
DKK,2017-04-01 01:15,-79.2720,42.4933,M,M,M,0.00,0.00,M,29.71,M,3.00,M,OVC,M,M,M,100.00,M,M,M,-RA BR,KDKK 010115Z AUTO 00000KT 3SM -RA BR OVC001 A2971 RMK MADISHF
DKK,2017-04-01 01:20,-79.2720,42.4933,M,M,M,290.00,3.00,M,29.71,M,3.00,M,OVC,M,M,M,100.00,M,M,M,-RA BR,KDKK 010120Z AUTO 29003KT 3SM -RA BR OVC001 A2971 RMK VRB03KT  MADISHF
DKK,2017-04-01 01:25,-79.2720,42.4933,M,M,M,0.00,0.00,M,29.71,M,3.00,M,OVC,M,M,M,200.00,M,M,M,-RA BR,KDKK 010125Z AUTO 00000KT 3SM -RA BR OVC002 A2971 RMK MADISHF
DKK,2017-04-01 01:30,-79.2720,42.4933,M,M,M,0.00,0.00,M,29.71,M,3.00,M,OVC,M,M,M,200.00,M,M,M,-RA BR,KDKK 010130Z AUTO 00000KT 3SM -RA BR OVC002 A2971 RMK MADISHF
DKK,2017-04-01 01:35,-79.2720,42.4933,M,M,M,0.00,0.00,M,29.71,M,3.00,M,OVC,M,M,M,200.00,M,M,M,-RA BR,KDKK 010135Z AUTO 00000KT 3SM -RA BR OVC002 A2971 RMK MADISHF
DKK,2017-04-01 01:40,-79.2720,42.4933,M,M,M,350.00,3.00,M,29.71,M,3.00,M,OVC,M,M,M,200.00,M,M,M,-RA BR,KDKK 010140Z AUTO 35003KT 3SM -RA BR OVC002 A2971 RMK VRB03KT  MADISHF
DKK,2017-04-01 01:45,-79.2720,42.4933,M,M,M,0.00,0.00,M,29.71,M,3.00,M,OVC,M,M,M,200.00,M,M,M,-RA BR,KDKK 010145Z AUTO 00000KT 3SM -RA BR OVC002 A2971 RMK MADISHF
DKK,2017-04-01 01:50,-79.2720,42.4933,M,M,M,320.00,3.00,M,29.71,M,2.50,M,OVC,M,M,M,200.00,M,M,M,-RA BR,KDKK 010150Z AUTO 32003KT 2 1/2SM -RA BR OVC002 A2971 RMK VRB03KT  MADISHF
DKK,2017-04-01 01:53,-79.2720,42.4933,39.00,37.90,95.78,0.00,0.00,0.00,29.71,1006.70,2.50,M,OVC,M,M,M,200.00,M,M,M,-RA BR,KDKK 010153Z AUTO 00000KT 2 1/2SM -RA BR OVC002 04/03 A2971 RMK AO2 SLP067 P0000 T00390033
DKK,2017-04-01 01:55,-79.2720,42.4933,M,M,M,0.00,0.00,M,29.71,M,2.50,M,OVC,M,M,M,200.00,M,M,M,-RA BR,KDKK 010155Z AUTO 00000KT 2 1/2SM -RA BR OVC002 A2971 RMK MADISHF
DKK,2017-04-01 02:00,-79.2720,42.4933,M,M,M,0.00,0.00,M,29.72,M,3.00,M,OVC,M,M,M,200.00,M,M,M,-RA BR,KDKK 010200Z AUTO 00000KT 3SM -RA BR OVC002 A2972 RMK MADISHF
DKK,2017-04-01 02:03,-79.2720,42.4933,39.00,39.00,100.00,0.00,0.00,0.00,29.72,M,3.00,M,OVC,M,M,M,200.00,M,M,M,-RA BR,KDKK 010203Z AUTO 00000KT 3SM -RA BR OVC002 04/04 A2972 RMK AO2 P0000 T00390039
DKK,2017-04-01 02:05,-79.2720,42.4933,M,M,M,320.00,3.00,M,29.72,M,3.00,M,OVC,M,M,M,200.00,M,M,M,-RA BR,KDKK 010205Z AUTO 32003KT 3SM -RA BR OVC002 A2972 RMK MADISHF
DKK,2017-04-01 02:10,-79.2720,42.4933,M,M,M,0.00,0.00,M,29.72,M,4.00,M,OVC,M,M,M,200.00,M,M,M,-RA BR,KDKK 010210Z AUTO 00000KT 4SM -RA BR OVC002 A2972 RMK MADISHF
DKK,2017-04-01 02:15,-79.2720,42.4933,M,M,M,0.00,0.00,M,29.72,M,5.00,M,OVC,M,M,M,200.00,M,M,M,-RA BR,KDKK 010215Z AUTO 00000KT 5SM -RA BR OVC002 A2972 RMK MADISHF
DKK,2017-04-01 02:20,-79.2720,42.4933,M,M,M,290.00,3.00,M,29.72,M,5.00,M,OVC,M,M,M,200.00,M,M,M,-RA BR,KDKK 010220Z AUTO 29003KT 5SM -RA BR OVC002 A2972 RMK MADISHF
DKK,2017-04-01 02:25,-79.2720,42.4933,M,M,M,320.00,3.00,M,29.72,M,5.00,M,OVC,M,M,M,200.00,M,M,M,-RA BR,KDKK 010225Z AUTO 32003KT 5SM -RA BR OVC002 A2972 RMK MADISHF
DKK,2017-04-01 02:30,-79.2720,42.4933,M,M,M,310.00,3.00,M,29.72,M,5.00,M,OVC,M,M,M,200.00,M,M,M,-RA BR,KDKK 010230Z AUTO 31003KT 5SM -RA BR OVC002 A2972 RMK MADISHF
DKK,2017-04-01 02:35,-79.2720,42.4933,M,M,M,350.00,4.00,M,29.72,M,4.00,M,OVC,M,M,M,200.00,M,M,M,-RA BR,KDKK 010235Z AUTO 35004KT 4SM -RA BR OVC002 A2972 RMK MADISHF
DKK,2017-04-01 02:40,-79.2720,42.4933,M,M,M,340.00,4.00,M,29.72,M,4.00,M,OVC,M,M,M,200.00,M,M,M,-RA BR,KDKK 010240Z AUTO 34004KT 4SM -RA BR OVC002 A2972 RMK MADISHF
DKK,2017-04-01 02:45,-79.2720,42.4933,M,M,M,310.00,5.00,M,29.73,M,3.50,M,OVC,M,M,M,200.00,M,M,M,-RA BR,KDKK 010245Z AUTO 31005KT 3SM -RA BR OVC002 A2973 RMK MADISHF
DKK,2017-04-01 02:50,-79.2720,42.4933,M,M,M,330.00,4.00,M,29.73,M,3.50,M,OVC,M,M,M,300.00,M,M,M,-RA BR,KDKK 010250Z AUTO 33004KT 3SM -RA BR OVC003 A2973 RMK MADISHF
DKK,2017-04-01 02:53,-79.2720,42.4933,39.00,37.90,95.78,M,3.00,0.00,29.73,1007.00,4.00,M,OVC,M,M,M,300.00,M,M,M,-RA BR,KDKK 010253Z AUTO VRB03KT 4SM -RA BR OVC003 04/03 A2973 RMK AO2 SLP070 P0000 60002 T00390033 51009
DKK,2017-04-01 02:55,-79.2720,42.4933,M,M,M,0.00,0.00,M,29.73,M,4.00,M,OVC,M,M,M,300.00,M,M,M,-RA BR,KDKK 010255Z AUTO 00000KT 4SM -RA BR OVC003 A2973 RMK MADISHF
DKK,2017-04-01 03:00,-79.2720,42.4933,M,M,M,280.00,3.00,M,29.73,M,5.00,M,OVC,M,M,M,300.00,M,M,M,-RA BR,KDKK 010300Z AUTO 28003KT 5SM -RA BR OVC003 A2973 RMK VRB03KT  MADISHF
DKK,2017-04-01 03:05,-79.2720,42.4933,M,M,M,310.00,4.00,M,29.73,M,5.00,M,OVC,M,M,M,300.00,M,M,M,-RA BR,KDKK 010305Z AUTO 31004KT 5SM -RA BR OVC003 A2973 RMK MADISHF
DKK,2017-04-01 03:10,-79.2720,42.4933,M,M,M,290.00,6.00,M,29.73,M,4.00,M,OVC,M,M,M,200.00,M,M,M,-RA BR,KDKK 010310Z AUTO 29006KT 4SM -RA BR OVC002 A2973 RMK VRB06KT  MADISHF
DKK,2017-04-01 03:15,-79.2720,42.4933,M,M,M,350.00,4.00,M,29.73,M,3.50,M,OVC,M,M,M,200.00,M,M,M,-RA BR,KDKK 010315Z AUTO 35004KT 3SM -RA BR OVC002 A2973 RMK MADISHF
DKK,2017-04-01 03:20,-79.2720,42.4933,M,M,M,310.00,3.00,M,29.73,M,3.00,M,OVC,M,M,M,200.00,M,M,M,-RA BR,KDKK 010320Z AUTO 31003KT 3SM -RA BR OVC002 A2973 RMK VRB03KT  MADISHF
DKK,2017-04-01 03:25,-79.2720,42.4933,M,M,M,300.00,3.00,M,29.74,M,2.50,M,OVC,M,M,M,200.00,M,M,M,BR,KDKK 010325Z AUTO 30003KT 2 1/2SM BR OVC002 A2974 RMK VRB03KT  MADISHF
DKK,2017-04-01 03:27,-79.2720,42.4933,37.90,37.90,100.00,300.00,3.00,0.00,29.74,M,2.00,M,OVC,M,M,M,200.00,M,M,M,BR,KDKK 010327Z AUTO 30003KT 2SM BR OVC002 03/03 A2974 RMK AO2 RAE22 P0000 T00330033
DKK,2017-04-01 03:30,-79.2720,42.4933,M,M,M,320.00,4.00,M,29.74,M,2.00,M,OVC,M,M,M,200.00,M,M,M,BR,KDKK 010330Z AUTO 32004KT 2SM BR OVC002 A2974 RMK VRB04KT  MADISHF
DKK,2017-04-01 03:35,-79.2720,42.4933,M,M,M,330.00,5.00,M,29.74,M,2.00,M,OVC,M,M,M,200.00,M,M,M,BR,KDKK 010335Z AUTO 33005KT 2SM BR OVC002 A2974 RMK MADISHF
DKK,2017-04-01 03:40,-79.2720,42.4933,M,M,M,300.00,4.00,M,29.74,M,2.00,M,OVC,M,M,M,200.00,M,M,M,BR,KDKK 010340Z AUTO 30004KT 2SM BR OVC002 A2974 RMK MADISHF
DKK,2017-04-01 03:45,-79.2720,42.4933,M,M,M,300.00,6.00,M,29.74,M,2.50,M,OVC,M,M,M,200.00,M,M,M,BR,KDKK 010345Z AUTO 30006KT 2 1/2SM BR OVC002 A2974 RMK MADISHF
DKK,2017-04-01 03:50,-79.2720,42.4933,M,M,M,290.00,4.00,M,29.75,M,2.50,M,OVC,M,M,M,200.00,M,M,M,BR,KDKK 010350Z AUTO 29004KT 2 1/2SM BR OVC002 A2975 RMK MADISHF
DKK,2017-04-01 03:53,-79.2720,42.4933,37.90,37.00,96.52,330.00,4.00,0.00,29.75,1007.80,2.50,M,OVC,M,M,M,200.00,M,M,M,BR,KDKK 010353Z AUTO 33004KT 2 1/2SM BR OVC002 03/03 A2975 RMK AO2 RAE22 SLP078 P0000 T00330028
DKK,2017-04-01 03:55,-79.2720,42.4933,M,M,M,310.00,6.00,M,29.75,M,2.50,M,OVC,M,M,M,200.00,M,M,M,BR,KDKK 010355Z AUTO 31006KT 2 1/2SM BR OVC002 A2975 RMK MADISHF
DKK,2017-04-01 04:00,-79.2720,42.4933,M,M,M,300.00,3.00,M,29.75,M,2.00,M,OVC,M,M,M,200.00,M,M,M,BR,KDKK 010400Z AUTO 30003KT 2SM BR OVC002 A2975 RMK VRB03KT  MADISHF
DKK,2017-04-01 04:05,-79.2720,42.4933,M,M,M,300.00,4.00,M,29.75,M,1.75,M,OVC,M,M,M,200.00,M,M,M,BR,KDKK 010405Z AUTO 30004KT 2SM BR OVC002 A2975 RMK MADISHF
DKK,2017-04-01 04:10,-79.2720,42.4933,37.00,37.00,100.00,320.00,4.00,0.00,29.75,M,1.75,M,OVC,M,M,M,200.00,M,M,M,BR,KDKK 010410Z AUTO 32004KT 1 3/4SM BR OVC002 03/03 A2975 RMK AO2 T00280028
DKK,2017-04-01 04:15,-79.2720,42.4933,M,M,M,320.00,5.00,M,29.75,M,2.00,M,OVC,M,M,M,200.00,M,M,M,BR,KDKK 010415Z AUTO 32005KT 2SM BR OVC002 A2975 RMK MADISHF
DKK,2017-04-01 04:18,-79.2720,42.4933,37.00,37.00,100.00,M,3.00,0.00,29.75,M,2.00,M,OVC,M,M,M,200.00,M,M,M,UP BR,KDKK 010418Z AUTO VRB03KT 2SM UP BR OVC002 03/03 A2975 RMK AO2 UPB16 P0000 T00280028
DKK,2017-04-01 04:20,-79.2720,42.4933,M,M,M,320.00,3.00,0.00,29.75,M,2.00,M,OVC,M,M,M,200.00,M,M,M,UP BR,KDKK 010420Z AUTO 32003KT 2SM UP BR OVC002 A2975 RMK P0000 MADISHF
DKK,2017-04-01 04:25,-79.2720,42.4933,M,M,M,300.00,3.00,0.00,29.76,M,2.00,M,OVC,M,M,M,200.00,M,M,M,UP BR,KDKK 010425Z AUTO 30003KT 2SM UP BR OVC002 A2976 RMK P0000 MADISHF
DKK,2017-04-01 04:30,-79.2720,42.4933,M,M,M,320.00,5.00,M,29.76,M,2.50,M,OVC,M,M,M,200.00,M,M,M,BR,KDKK 010430Z AUTO 32005KT 2 1/2SM BR OVC002 A2976 RMK MADISHF
DKK,2017-04-01 04:35,-79.2720,42.4933,M,M,M,310.00,6.00,M,29.76,M,2.50,M,OVC,M,M,M,200.00,M,M,M,BR,KDKK 010435Z AUTO 31006KT 2 1/2SM BR OVC002 A2976 RMK MADISHF
DKK,2017-04-01 04:40,-79.2720,42.4933,M,M,M,300.00,6.00,M,29.77,M,2.50,M,OVC,M,M,M,200.00,M,M,M,BR,KDKK 010440Z AUTO 30006KT 2 1/2SM BR OVC002 A2977 RMK MADISHF
DKK,2017-04-01 04:45,-79.2720,42.4933,M,M,M,310.00,6.00,M,29.77,M,3.00,M,OVC,M,M,M,200.00,M,M,M,BR,KDKK 010445Z AUTO 31006KT 3SM BR OVC002 A2977 RMK MADISHF
DKK,2017-04-01 04:50,-79.2720,42.4933,M,M,M,320.00,7.00,M,29.77,M,3.00,M,OVC,M,M,M,200.00,M,M,M,BR,KDKK 010450Z AUTO 32007KT 3SM BR OVC002 A2977 RMK MADISHF
DKK,2017-04-01 04:51,-79.2720,42.4933,35.60,35.60,100.00,310.00,7.00,0.00,29.77,M,3.00,M,OVC,M,M,M,200.00,M,M,M,BR,KDKK 010451Z AUTO 31007KT 3SM BR OVC002 02/02 A2977 RMK AO2 UPB16E27 P0000
DKK,2017-04-01 04:53,-79.2720,42.4933,36.00,36.00,100.00,330.00,8.00,0.00,29.77,1008.50,3.00,M,OVC,M,M,M,200.00,M,M,M,BR,KDKK 010453Z AUTO 33008KT 3SM BR OVC002 02/02 A2977 RMK AO2 UPB16E27 SLP085 P0000 T00220022 400940022
DKK,2017-04-01 04:55,-79.2720,42.4933,M,M,M,320.00,6.00,M,29.77,M,3.00,M,OVC,M,M,M,200.00,M,M,M,BR,KDKK 010455Z AUTO 32006KT 3SM BR OVC002 A2977 RMK MADISHF
DKK,2017-04-01 05:00,-79.2720,42.4933,M,M,M,330.00,6.00,M,29.77,M,2.50,M,OVC,M,M,M,200.00,M,M,M,BR,KDKK 010500Z AUTO 33006KT 2 1/2SM BR OVC002 A2977 RMK MADISHF
DKK,2017-04-01 05:05,-79.2720,42.4933,M,M,M,320.00,5.00,M,29.77,M,2.50,M,OVC,M,M,M,200.00,M,M,M,BR,KDKK 010505Z AUTO 32005KT 2 1/2SM BR OVC002 A2977 RMK MADISHF
DKK,2017-04-01 05:06,-79.2720,42.4933,36.00,36.00,100.00,320.00,6.00,0.00,29.77,M,2.50,M,OVC,M,M,M,200.00,M,M,M,BR,KDKK 010506Z AUTO 32006KT 2 1/2SM BR OVC002 02/02 A2977 RMK AO2 I1000 T00220022
DKK,2017-04-01 05:10,-79.2720,42.4933,M,M,M,320.00,5.00,M,29.77,M,2.50,M,OVC,M,M,M,200.00,M,M,M,BR,KDKK 010510Z AUTO 32005KT 2 1/2SM BR OVC002 A2977 RMK MADISHF
DKK,2017-04-01 05:15,-79.2720,42.4933,M,M,M,330.00,6.00,M,29.78,M,2.50,M,OVC,M,M,M,200.00,M,M,M,BR,KDKK 010515Z AUTO 33006KT 2 1/2SM BR OVC002 A2978 RMK MADISHF
DKK,2017-04-01 05:20,-79.2720,42.4933,M,M,M,350.00,5.00,M,29.78,M,2.50,M,OVC,M,M,M,200.00,M,M,M,BR,KDKK 010520Z AUTO 35005KT 2 1/2SM BR OVC002 A2978 RMK MADISHF
DKK,2017-04-01 05:25,-79.2720,42.4933,M,M,M,330.00,5.00,M,29.78,M,2.50,M,OVC,M,M,M,200.00,M,M,M,BR,KDKK 010525Z AUTO 33005KT 2 1/2SM BR OVC002 A2978 RMK MADISHF
DKK,2017-04-01 05:30,-79.2720,42.4933,M,M,M,330.00,6.00,M,29.78,M,2.50,M,OVC,M,M,M,200.00,M,M,M,BR,KDKK 010530Z AUTO 33006KT 2 1/2SM BR OVC002 A2978 RMK MADISHF
DKK,2017-04-01 05:35,-79.2720,42.4933,M,M,M,340.00,5.00,M,29.78,M,2.50,M,OVC,M,M,M,200.00,M,M,M,BR,KDKK 010535Z AUTO 34005KT 2 1/2SM BR OVC002 A2978 RMK MADISHF
DKK,2017-04-01 05:40,-79.2720,42.4933,M,M,M,340.00,6.00,M,29.79,M,2.50,M,OVC,M,M,M,200.00,M,M,M,BR,KDKK 010540Z AUTO 34006KT 2 1/2SM BR OVC002 A2979 RMK MADISHF
DKK,2017-04-01 05:45,-79.2720,42.4933,M,M,M,340.00,6.00,M,29.79,M,2.50,M,OVC,M,M,M,200.00,M,M,M,BR,KDKK 010545Z AUTO 34006KT 2 1/2SM BR OVC002 A2979 RMK MADISHF
DKK,2017-04-01 05:50,-79.2720,42.4933,M,M,M,330.00,5.00,M,29.79,M,2.50,M,OVC,M,M,M,200.00,M,M,M,BR,KDKK 010550Z AUTO 33005KT 2 1/2SM BR OVC002 A2979 RMK MADISHF
DKK,2017-04-01 05:53,-79.2720,42.4933,36.00,36.00,100.00,330.00,5.00,0.00,29.79,1009.20,2.50,M,OVC,M,M,M,200.00,M,M,M,BR,KDKK 010553Z AUTO 33005KT 2 1/2SM BR OVC002 02/02 A2979 RMK AO2 SLP092 60002 I1000 I6000 T00220022 10050 20022 51014
DKK,2017-04-01 05:55,-79.2720,42.4933,M,M,M,330.00,5.00,M,29.79,M,2.50,M,OVC,M,M,M,200.00,M,M,M,BR,KDKK 010555Z AUTO 33005KT 2 1/2SM BR OVC002 A2979 RMK MADISHF
DKK,2017-04-01 06:00,-79.2720,42.4933,M,M,M,320.00,5.00,M,29.79,M,2.50,M,OVC,M,M,M,200.00,M,M,M,BR,KDKK 010600Z AUTO 32005KT 2 1/2SM BR OVC002 A2979 RMK MADISHF
DKK,2017-04-01 06:05,-79.2720,42.4933,M,M,M,310.00,5.00,M,29.80,M,2.50,M,OVC,M,M,M,200.00,M,M,M,BR,KDKK 010605Z AUTO 31005KT 2 1/2SM BR OVC002 A2980 RMK MADISHF
DKK,2017-04-01 06:10,-79.2720,42.4933,M,M,M,300.00,5.00,0.01,29.80,M,2.00,M,OVC,M,M,M,200.00,M,M,M,-SN BR,KDKK 010610Z AUTO 30005KT 2SM -SN BR OVC002 A2980 RMK P0001 MADISHF
DKK,2017-04-01 06:15,-79.2720,42.4933,M,M,M,300.00,5.00,0.01,29.80,M,2.00,M,OVC,M,M,M,200.00,M,M,M,-SN BR,KDKK 010615Z AUTO 30005KT 2SM -SN BR OVC002 A2980 RMK P0001 MADISHF
DKK,2017-04-01 06:20,-79.2720,42.4933,M,M,M,300.00,5.00,0.01,29.81,M,1.75,M,OVC,M,M,M,200.00,M,M,M,-SN BR,KDKK 010620Z AUTO 30005KT 2SM -SN BR OVC002 A2981 RMK P0001 MADISHF
DKK,2017-04-01 06:25,-79.2720,42.4933,36.00,36.00,100.00,310.00,6.00,0.01,29.81,M,1.75,M,OVC,M,M,M,200.00,M,M,M,-SN BR,KDKK 010625Z AUTO 31006KT 1 3/4SM -SN BR OVC002 02/02 A2981 RMK AO2 SNB09 P0001 T00220022
DKK,2017-04-01 06:30,-79.2720,42.4933,M,M,M,310.00,6.00,0.01,29.81,M,1.75,M,OVC,M,M,M,200.00,M,M,M,-SN BR,KDKK 010630Z AUTO 31006KT 2SM -SN BR OVC002 A2981 RMK P0001 MADISHF
DKK,2017-04-01 06:35,-79.2720,42.4933,M,M,M,310.00,6.00,0.01,29.81,M,1.75,M,OVC,M,M,M,200.00,M,M,M,-SN BR,KDKK 010635Z AUTO 31006KT 2SM -SN BR OVC002 A2981 RMK P0001 MADISHF
DKK,2017-04-01 06:40,-79.2720,42.4933,M,M,M,320.00,7.00,0.01,29.82,M,1.75,M,OVC,M,M,M,200.00,M,M,M,-SN BR,KDKK 010640Z AUTO 32007KT 2SM -SN BR OVC002 A2982 RMK P0001 MADISHF
DKK,2017-04-01 06:45,-79.2720,42.4933,M,M,M,320.00,9.00,0.01,29.82,M,1.75,M,OVC,M,M,M,200.00,M,M,M,-SN BR,KDKK 010645Z AUTO 32009KT 2SM -SN BR OVC002 A2982 RMK P0001 MADISHF
DKK,2017-04-01 06:50,-79.2720,42.4933,M,M,M,330.00,8.00,0.02,29.82,M,1.75,M,OVC,M,M,M,200.00,M,M,M,-SN BR,KDKK 010650Z AUTO 33008KT 2SM -SN BR OVC002 A2982 RMK P0002 MADISHF
DKK,2017-04-01 06:53,-79.2720,42.4933,36.00,35.10,96.49,320.00,8.00,0.02,29.82,1010.20,1.50,M,OVC,M,M,M,200.00,M,M,M,-SN BR,KDKK 010653Z AUTO 32008KT 1 1/2SM -SN BR OVC002 02/02 A2982 RMK AO2 SNB09 SLP102 P0002 T00220017
DKK,2017-04-01 06:55,-79.2720,42.4933,M,M,M,320.00,8.00,M,29.82,M,1.50,M,OVC,M,M,M,200.00,M,M,M,-SN BR,KDKK 010655Z AUTO 32008KT 1 1/2SM -SN BR OVC002 A2982 RMK MADISHF
DKK,2017-04-01 07:00,-79.2720,42.4933,M,M,M,330.00,7.00,0.00,29.82,M,1.75,M,OVC,M,M,M,200.00,M,M,M,UP BR,KDKK 010700Z AUTO 33007KT 2SM UP BR OVC002 A2982 RMK P0000 MADISHF
DKK,2017-04-01 07:05,-79.2720,42.4933,M,M,M,340.00,8.00,0.00,29.82,M,2.50,M,OVC,M,M,M,200.00,M,M,M,UP BR,KDKK 010705Z AUTO 34008KT 2 1/2SM UP BR OVC002 A2982 RMK P0000 MADISHF
DKK,2017-04-01 07:08,-79.2720,42.4933,36.00,35.10,96.49,330.00,9.00,0.00,29.83,M,3.00,M,OVC,M,M,M,200.00,M,M,M,BR,KDKK 010708Z AUTO 33009KT 3SM BR OVC002 02/02 A2983 RMK AO2 UPB0659E06SNE0659 P0000 T00220017
DKK,2017-04-01 07:10,-79.2720,42.4933,M,M,M,330.00,9.00,M,29.83,M,3.00,M,OVC,M,M,M,200.00,M,M,M,BR,KDKK 010710Z AUTO 33009KT 3SM BR OVC002 A2983 RMK MADISHF
DKK,2017-04-01 07:15,-79.2720,42.4933,M,M,M,330.00,9.00,M,29.83,M,4.00,M,OVC,M,M,M,200.00,M,M,M,BR,KDKK 010715Z AUTO 33009KT 4SM BR OVC002 A2983 RMK MADISHF
DKK,2017-04-01 07:20,-79.2720,42.4933,M,M,M,330.00,8.00,M,29.83,M,5.00,M,OVC,M,M,M,200.00,M,M,M,BR,KDKK 010720Z AUTO 33008KT 5SM BR OVC002 A2983 RMK MADISHF
DKK,2017-04-01 07:25,-79.2720,42.4933,M,M,M,340.00,10.00,M,29.83,M,5.00,M,OVC,M,M,M,200.00,M,M,M,BR,KDKK 010725Z AUTO 34010KT 5SM BR OVC002 A2983 RMK MADISHF
DKK,2017-04-01 07:30,-79.2720,42.4933,M,M,M,340.00,11.00,M,29.84,M,5.00,M,OVC,M,M,M,200.00,M,M,M,BR,KDKK 010730Z AUTO 34011KT 5SM BR OVC002 A2984 RMK MADISHF
DKK,2017-04-01 07:35,-79.2720,42.4933,M,M,M,340.00,8.00,M,29.84,M,5.00,M,OVC,M,M,M,200.00,M,M,M,BR,KDKK 010735Z AUTO 34008KT 5SM BR OVC002 A2984 RMK MADISHF
DKK,2017-04-01 07:40,-79.2720,42.4933,M,M,M,340.00,9.00,M,29.84,M,5.00,M,OVC,M,M,M,200.00,M,M,M,BR,KDKK 010740Z AUTO 34009KT 5SM BR OVC002 A2984 RMK MADISHF
DKK,2017-04-01 07:45,-79.2720,42.4933,M,M,M,340.00,9.00,M,29.84,M,6.00,M,OVC,M,M,M,200.00,M,M,M,BR,KDKK 010745Z AUTO 34009KT 6SM BR OVC002 A2984 RMK MADISHF
DKK,2017-04-01 07:50,-79.2720,42.4933,M,M,M,340.00,10.00,M,29.84,M,7.00,M,OVC,M,M,M,200.00,M,M,M,M,KDKK 010750Z AUTO 34010KT 7SM OVC002 A2984 RMK MADISHF
DKK,2017-04-01 07:53,-79.2720,42.4933,36.00,35.10,96.49,340.00,9.00,0.00,29.85,1011.10,7.00,M,OVC,M,M,M,200.00,M,M,M,M,KDKK 010753Z AUTO 34009KT 7SM OVC002 02/02 A2985 RMK AO2 UPB0659E06SNE0659 SLP111 P0000 T00220017
DKK,2017-04-01 07:55,-79.2720,42.4933,M,M,M,340.00,9.00,M,29.85,M,7.00,M,OVC,M,M,M,200.00,M,M,M,M,KDKK 010755Z AUTO 34009KT 7SM OVC002 A2985 RMK MADISHF
DKK,2017-04-01 08:00,-79.2720,42.4933,M,M,M,340.00,8.00,M,29.85,M,7.00,M,OVC,M,M,M,200.00,M,M,M,M,KDKK 010800Z AUTO 34008KT 7SM OVC002 A2985 RMK MADISHF
DKK,2017-04-01 08:05,-79.2720,42.4933,M,M,M,340.00,9.00,M,29.85,M,8.00,M,OVC,M,M,M,300.00,M,M,M,M,KDKK 010805Z AUTO 34009KT 8SM OVC003 A2985 RMK MADISHF
DKK,2017-04-01 08:10,-79.2720,42.4933,M,M,M,350.00,9.00,M,29.86,M,9.00,M,OVC,M,M,M,300.00,M,M,M,M,KDKK 010810Z AUTO 35009KT 9SM OVC003 A2986 RMK MADISHF
DKK,2017-04-01 08:15,-79.2720,42.4933,M,M,M,350.00,11.00,M,29.86,M,10.00,M,OVC,M,M,M,300.00,M,M,M,M,KDKK 010815Z AUTO 35011KT 10SM OVC003 A2986 RMK MADISHF
DKK,2017-04-01 08:20,-79.2720,42.4933,M,M,M,350.00,10.00,M,29.86,M,10.00,M,OVC,M,M,M,300.00,M,M,M,M,KDKK 010820Z AUTO 35010KT 10SM OVC003 A2986 RMK MADISHF
DKK,2017-04-01 08:25,-79.2720,42.4933,M,M,M,360.00,10.00,M,29.86,M,10.00,M,OVC,M,M,M,300.00,M,M,M,M,KDKK 010825Z AUTO 36010KT 10SM OVC003 A2986 RMK MADISHF
DKK,2017-04-01 08:30,-79.2720,42.4933,M,M,M,350.00,10.00,M,29.87,M,10.00,M,OVC,M,M,M,400.00,M,M,M,M,KDKK 010830Z AUTO 35010KT 10SM OVC004 A2987 RMK MADISHF
DKK,2017-04-01 08:35,-79.2720,42.4933,36.00,35.10,96.49,360.00,11.00,0.00,29.87,M,10.00,M,OVC,M,M,M,400.00,M,M,M,M,KDKK 010835Z AUTO 36011KT 10SM OVC004 02/02 A2987 RMK AO2 T00220017
DKK,2017-04-01 08:40,-79.2720,42.4933,M,M,M,350.00,10.00,M,29.88,M,10.00,M,OVC,M,M,M,400.00,M,M,M,M,KDKK 010840Z AUTO 35010KT 10SM OVC004 A2988 RMK MADISHF
DKK,2017-04-01 08:45,-79.2720,42.4933,M,M,M,350.00,9.00,M,29.88,M,10.00,M,OVC,M,M,M,400.00,M,M,M,M,KDKK 010845Z AUTO 35009KT 10SM OVC004 A2988 RMK MADISHF
DKK,2017-04-01 08:50,-79.2720,42.4933,M,M,M,350.00,9.00,M,29.88,M,10.00,M,OVC,M,M,M,400.00,M,M,M,M,KDKK 010850Z AUTO 35009KT 10SM OVC004 A2988 RMK MADISHF
DKK,2017-04-01 08:53,-79.2720,42.4933,36.00,35.10,96.49,340.00,8.00,0.00,29.88,1012.40,10.00,M,OVC,M,M,M,400.00,M,M,M,M,KDKK 010853Z AUTO 34008KT 10SM OVC004 02/02 A2988 RMK AO2 SLP124 60002 T00220017 53031
DKK,2017-04-01 08:55,-79.2720,42.4933,M,M,M,340.00,12.00,M,29.89,M,10.00,M,OVC,M,M,M,400.00,M,M,M,M,KDKK 010855Z AUTO 34012KT 10SM OVC004 A2989 RMK MADISHF
DKK,2017-04-01 09:00,-79.2720,42.4933,M,M,M,340.00,10.00,M,29.89,M,10.00,M,OVC,M,M,M,400.00,M,M,M,M,KDKK 010900Z AUTO 34010KT 10SM OVC004 A2989 RMK MADISHF
DKK,2017-04-01 09:05,-79.2720,42.4933,M,M,M,340.00,9.00,M,29.89,M,10.00,M,OVC,M,M,M,400.00,M,M,M,M,KDKK 010905Z AUTO 34009KT 10SM OVC004 A2989 RMK MADISHF
DKK,2017-04-01 09:10,-79.2720,42.4933,M,M,M,350.00,10.00,M,29.89,M,10.00,M,OVC,M,M,M,400.00,M,M,M,M,KDKK 010910Z AUTO 35010KT 10SM OVC004 A2989 RMK CIG 3V8  MADISHF
DKK,2017-04-01 09:15,-79.2720,42.4933,M,M,M,350.00,8.00,M,29.90,M,10.00,M,OVC,M,M,M,400.00,M,M,M,M,KDKK 010915Z AUTO 35008KT 10SM OVC004 A2990 RMK CIG 3V8  MADISHF
DKK,2017-04-01 09:20,-79.2720,42.4933,M,M,M,340.00,9.00,M,29.90,M,10.00,M,OVC,M,M,M,499.00,M,M,M,M,KDKK 010920Z AUTO 34009KT 10SM OVC004 A2990 RMK CIG 3V8  MADISHF
DKK,2017-04-01 09:25,-79.2720,42.4933,M,M,M,340.00,10.00,M,29.90,M,10.00,M,OVC,M,M,M,499.00,M,M,M,M,KDKK 010925Z AUTO 34010KT 10SM OVC004 A2990 RMK CIG 4V8  MADISHF
DKK,2017-04-01 09:26,-79.2720,42.4933,35.10,35.10,100.00,340.00,10.00,0.00,29.90,M,10.00,M,OVC,M,M,M,500.00,M,M,M,M,KDKK 010926Z AUTO 34010KT 10SM OVC005 02/02 A2990 RMK AO2 CIG 004V008 T00170017
DKK,2017-04-01 09:30,-79.2720,42.4933,M,M,M,340.00,9.00,M,29.91,M,10.00,M,OVC,M,M,M,499.00,M,M,M,M,KDKK 010930Z AUTO 34009KT 10SM OVC004 A2991 RMK MADISHF
DKK,2017-04-01 09:35,-79.2720,42.4933,M,M,M,340.00,8.00,M,29.91,M,10.00,M,OVC,M,M,M,499.00,M,M,M,M,KDKK 010935Z AUTO 34008KT 10SM OVC004 A2991 RMK MADISHF
DKK,2017-04-01 09:40,-79.2720,42.4933,M,M,M,340.00,9.00,M,29.91,M,10.00,M,OVC,M,M,M,600.00,M,M,M,M,KDKK 010940Z AUTO 34009KT 10SM OVC006 A2991 RMK MADISHF
DKK,2017-04-01 09:45,-79.2720,42.4933,M,M,M,350.00,7.00,M,29.91,M,10.00,M,OVC,M,M,M,600.00,M,M,M,M,KDKK 010945Z AUTO 35007KT 10SM OVC006 A2991 RMK MADISHF
DKK,2017-04-01 09:50,-79.2720,42.4933,M,M,M,350.00,8.00,M,29.91,M,10.00,M,OVC,M,M,M,600.00,M,M,M,M,KDKK 010950Z AUTO 35008KT 10SM OVC006 A2991 RMK MADISHF
DKK,2017-04-01 09:53,-79.2720,42.4933,35.10,34.00,95.71,350.00,8.00,0.00,29.92,1013.50,10.00,M,OVC,M,M,M,600.00,M,M,M,M,KDKK 010953Z AUTO 35008KT 10SM OVC006 02/01 A2992 RMK AO2 SLP135 T00170011
DKK,2017-04-01 09:55,-79.2720,42.4933,M,M,M,350.00,9.00,M,29.92,M,10.00,M,OVC,M,M,M,600.00,M,M,M,M,KDKK 010955Z AUTO 35009KT 10SM OVC006 A2992 RMK MADISHF
DKK,2017-04-01 10:00,-79.2720,42.4933,M,M,M,340.00,6.00,M,29.92,M,10.00,M,OVC,M,M,M,600.00,M,M,M,M,KDKK 011000Z AUTO 34006KT 10SM OVC006 A2992 RMK MADISHF
DKK,2017-04-01 10:05,-79.2720,42.4933,M,M,M,340.00,8.00,M,29.93,M,10.00,M,OVC,M,M,M,600.00,M,M,M,M,KDKK 011005Z AUTO 34008KT 10SM OVC006 A2993 RMK MADISHF
DKK,2017-04-01 10:10,-79.2720,42.4933,M,M,M,340.00,8.00,M,29.93,M,10.00,M,OVC,M,M,M,600.00,M,M,M,M,KDKK 011010Z AUTO 34008KT 10SM OVC006 A2993 RMK MADISHF
DKK,2017-04-01 10:15,-79.2720,42.4933,M,M,M,340.00,7.00,M,29.93,M,10.00,M,OVC,M,M,M,600.00,M,M,M,M,KDKK 011015Z AUTO 34007KT 10SM OVC006 A2993 RMK MADISHF
DKK,2017-04-01 10:20,-79.2720,42.4933,M,M,M,330.00,7.00,M,29.94,M,10.00,M,OVC,M,M,M,600.00,M,M,M,M,KDKK 011020Z AUTO 33007KT 10SM OVC006 A2994 RMK MADISHF
DKK,2017-04-01 10:25,-79.2720,42.4933,M,M,M,320.00,7.00,M,29.94,M,10.00,M,OVC,M,M,M,600.00,M,M,M,M,KDKK 011025Z AUTO 32007KT 10SM OVC006 A2994 RMK MADISHF
DKK,2017-04-01 10:30,-79.2720,42.4933,M,M,M,330.00,8.00,M,29.94,M,10.00,M,OVC,M,M,M,600.00,M,M,M,M,KDKK 011030Z AUTO 33008KT 10SM OVC006 A2994 RMK CIG 4V10  MADISHF
DKK,2017-04-01 10:35,-79.2720,42.4933,M,M,M,330.00,7.00,M,29.94,M,10.00,M,BKN,OVC,M,M,600.00,900.00,M,M,M,KDKK 011035Z AUTO 33007KT 10SM BKN006 OVC009 A2994 RMK CIG 4V7  MADISHF
DKK,2017-04-01 10:40,-79.2720,42.4933,M,M,M,330.00,6.00,M,29.94,M,10.00,M,OVC,M,M,M,499.00,M,M,M,M,KDKK 011040Z AUTO 33006KT 10SM OVC004 A2994 RMK CIG 4V8  MADISHF
DKK,2017-04-01 10:45,-79.2720,42.4933,M,M,M,330.00,7.00,M,29.94,M,9.00,M,OVC,M,M,M,499.00,M,M,M,M,KDKK 011045Z AUTO 33007KT 9SM OVC004 A2994 RMK CIG 3V7  MADISHF
DKK,2017-04-01 10:50,-79.2720,42.4933,M,M,M,330.00,6.00,M,29.95,M,6.00,M,OVC,M,M,M,499.00,M,M,M,BR,KDKK 011050Z AUTO 33006KT 6SM BR OVC004 A2995 RMK MADISHF
DKK,2017-04-01 10:53,-79.2720,42.4933,35.10,35.10,100.00,340.00,6.00,0.00,29.95,1014.70,6.00,M,OVC,M,M,M,500.00,M,M,M,BR,KDKK 011053Z AUTO 34006KT 6SM BR OVC005 02/02 A2995 RMK AO2 SLP147 T00170017
DKK,2017-04-01 10:55,-79.2720,42.4933,M,M,M,330.00,8.00,M,29.95,M,5.00,M,OVC,M,M,M,499.00,M,M,M,BR,KDKK 011055Z AUTO 33008KT 5SM BR OVC004 A2995 RMK MADISHF
DKK,2017-04-01 11:00,-79.2720,42.4933,M,M,M,350.00,7.00,M,29.95,M,6.00,M,OVC,M,M,M,400.00,M,M,M,BR,KDKK 011100Z AUTO 35007KT 6SM BR OVC004 A2995 RMK MADISHF
DKK,2017-04-01 11:03,-79.2720,42.4933,35.10,35.10,100.00,340.00,8.00,0.00,29.95,M,6.00,M,OVC,M,M,M,400.00,M,M,M,BR,KDKK 011103Z AUTO 34008KT 6SM BR OVC004 02/02 A2995 RMK AO2 I1000 T00170017
DKK,2017-04-01 11:05,-79.2720,42.4933,M,M,M,350.00,8.00,M,29.95,M,6.00,M,OVC,M,M,M,400.00,M,M,M,BR,KDKK 011105Z AUTO 35008KT 6SM BR OVC004 A2995 RMK MADISHF
DKK,2017-04-01 11:10,-79.2720,42.4933,M,M,M,330.00,7.00,M,29.96,M,6.00,M,OVC,M,M,M,400.00,M,M,M,BR,KDKK 011110Z AUTO 33007KT 6SM BR OVC004 A2996 RMK MADISHF
DKK,2017-04-01 11:15,-79.2720,42.4933,M,M,M,330.00,7.00,M,29.96,M,6.00,M,OVC,M,M,M,400.00,M,M,M,BR,KDKK 011115Z AUTO 33007KT 6SM BR OVC004 A2996 RMK MADISHF
DKK,2017-04-01 11:20,-79.2720,42.4933,M,M,M,330.00,7.00,M,29.96,M,5.00,M,OVC,M,M,M,400.00,M,M,M,BR,KDKK 011120Z AUTO 33007KT 5SM BR OVC004 A2996 RMK MADISHF
DKK,2017-04-01 11:25,-79.2720,42.4933,M,M,M,340.00,7.00,M,29.97,M,5.00,M,OVC,M,M,M,400.00,M,M,M,BR,KDKK 011125Z AUTO 34007KT 5SM BR OVC004 A2997 RMK MADISHF
DKK,2017-04-01 11:30,-79.2720,42.4933,M,M,M,330.00,7.00,M,29.97,M,6.00,M,OVC,M,M,M,400.00,M,M,M,BR,KDKK 011130Z AUTO 33007KT 6SM BR OVC004 A2997 RMK MADISHF
DKK,2017-04-01 11:35,-79.2720,42.4933,M,M,M,340.00,7.00,M,29.97,M,6.00,M,OVC,M,M,M,400.00,M,M,M,BR,KDKK 011135Z AUTO 34007KT 6SM BR OVC004 A2997 RMK MADISHF
DKK,2017-04-01 11:40,-79.2720,42.4933,M,M,M,340.00,8.00,M,29.98,M,6.00,M,OVC,M,M,M,400.00,M,M,M,BR,KDKK 011140Z AUTO 34008KT 6SM BR OVC004 A2998 RMK CIG 3V8  MADISHF
DKK,2017-04-01 11:45,-79.2720,42.4933,M,M,M,340.00,7.00,M,29.98,M,5.00,M,OVC,M,M,M,400.00,M,M,M,BR,KDKK 011145Z AUTO 34007KT 5SM BR OVC004 A2998 RMK CIG 3V8  MADISHF
DKK,2017-04-01 11:50,-79.2720,42.4933,M,M,M,330.00,6.00,M,29.98,M,4.00,M,OVC,M,M,M,400.00,M,M,M,BR,KDKK 011150Z AUTO 33006KT 4SM BR OVC004 A2998 RMK MADISHF
DKK,2017-04-01 11:53,-79.2720,42.4933,35.10,35.10,100.00,340.00,6.00,0.00,29.98,1015.80,4.00,M,OVC,M,M,M,400.00,M,M,M,BR,KDKK 011153Z AUTO 34006KT 4SM BR OVC004 02/02 A2998 RMK AO2 SLP158 60002 70018 I1000 I6000 T00170017 10022 20017 51031
DKK,2017-04-01 11:55,-79.2720,42.4933,M,M,M,330.00,8.00,M,29.98,M,4.00,M,OVC,M,M,M,400.00,M,M,M,BR,KDKK 011155Z AUTO 33008KT 4SM BR OVC004 A2998 RMK MADISHF
DKK,2017-04-01 12:00,-79.2720,42.4933,M,M,M,340.00,7.00,M,29.98,M,4.00,M,OVC,M,M,M,300.00,M,M,M,BR,KDKK 011200Z AUTO 34007KT 4SM BR OVC003 A2998 RMK MADISHF
DKK,2017-04-01 12:04,-79.2720,42.4933,35.10,34.00,95.71,330.00,8.00,0.00,29.99,M,3.00,M,OVC,M,M,M,300.00,M,M,M,BR,KDKK 011204Z AUTO 33008KT 3SM BR OVC003 02/01 A2999 RMK AO2 T00170011
DKK,2017-04-01 12:05,-79.2720,42.4933,M,M,M,330.00,8.00,M,29.99,M,3.00,M,OVC,M,M,M,300.00,M,M,M,BR,KDKK 011205Z AUTO 33008KT 3SM BR OVC003 A2999 RMK MADISHF
DKK,2017-04-01 12:10,-79.2720,42.4933,M,M,M,330.00,7.00,M,29.99,M,3.00,M,OVC,M,M,M,300.00,M,M,M,BR,KDKK 011210Z AUTO 33007KT 3SM BR OVC003 A2999 RMK MADISHF
DKK,2017-04-01 12:15,-79.2720,42.4933,M,M,M,330.00,6.00,M,29.99,M,4.00,M,OVC,M,M,M,300.00,M,M,M,BR,KDKK 011215Z AUTO 33006KT 4SM BR OVC003 A2999 RMK MADISHF
DKK,2017-04-01 12:20,-79.2720,42.4933,M,M,M,330.00,7.00,M,29.99,M,4.00,M,OVC,M,M,M,300.00,M,M,M,BR,KDKK 011220Z AUTO 33007KT 4SM BR OVC003 A2999 RMK MADISHF
DKK,2017-04-01 12:25,-79.2720,42.4933,M,M,M,330.00,6.00,M,30.00,M,5.00,M,OVC,M,M,M,300.00,M,M,M,BR,KDKK 011225Z AUTO 33006KT 5SM BR OVC003 A3000 RMK MADISHF
DKK,2017-04-01 12:30,-79.2720,42.4933,M,M,M,330.00,6.00,0.00,30.00,M,4.00,M,OVC,M,M,M,300.00,M,M,M,UP BR,KDKK 011230Z AUTO 33006KT 4SM UP BR OVC003 A3000 RMK P0000 MADISHF
DKK,2017-04-01 12:35,-79.2720,42.4933,M,M,M,330.00,6.00,0.00,30.00,M,4.00,M,OVC,M,M,M,300.00,M,M,M,UP BR,KDKK 011235Z AUTO 33006KT 4SM UP BR OVC003 A3000 RMK P0000 MADISHF
DKK,2017-04-01 12:40,-79.2720,42.4933,M,M,M,330.00,5.00,M,30.00,M,4.00,M,OVC,M,M,M,300.00,M,M,M,BR,KDKK 011240Z AUTO 33005KT 4SM BR OVC003 A3000 RMK MADISHF
DKK,2017-04-01 12:45,-79.2720,42.4933,M,M,M,330.00,8.00,M,30.00,M,4.00,M,OVC,M,M,M,300.00,M,M,M,BR,KDKK 011245Z AUTO 33008KT 4SM BR OVC003 A3000 RMK CIG 3V8  MADISHF
DKK,2017-04-01 12:50,-79.2720,42.4933,M,M,M,320.00,7.00,M,30.01,M,5.00,M,OVC,M,M,M,300.00,M,M,M,BR,KDKK 011250Z AUTO 32007KT 5SM BR OVC003 A3001 RMK CIG 3V8  MADISHF
DKK,2017-04-01 12:53,-79.2720,42.4933,35.10,35.10,100.00,320.00,7.00,0.00,30.01,1016.80,5.00,M,OVC,M,M,M,300.00,M,M,M,BR,KDKK 011253Z AUTO 32007KT 5SM BR OVC003 02/02 A3001 RMK AO2 UPB28E38 CIG 003V008 SLP168 P0000 T00170017
DKK,2017-04-01 12:55,-79.2720,42.4933,M,M,M,320.00,6.00,M,30.01,M,5.00,M,OVC,M,M,M,300.00,M,M,M,BR,KDKK 011255Z AUTO 32006KT 5SM BR OVC003 A3001 RMK CIG 3V8  MADISHF
DKK,2017-04-01 13:00,-79.2720,42.4933,M,M,M,330.00,6.00,M,30.01,M,4.00,M,OVC,M,M,M,300.00,M,M,M,BR,KDKK 011300Z AUTO 33006KT 4SM BR OVC003 A3001 RMK CIG 3V8  MADISHF
DKK,2017-04-01 13:05,-79.2720,42.4933,M,M,M,330.00,5.00,M,30.01,M,3.00,M,OVC,M,M,M,300.00,M,M,M,-SN BR,KDKK 011305Z AUTO 33005KT 3SM -SN BR OVC003 A3001 RMK MADISHF
DKK,2017-04-01 13:10,-79.2720,42.4933,M,M,M,320.00,5.00,M,30.02,M,3.00,M,OVC,M,M,M,300.00,M,M,M,-SN BR,KDKK 011310Z AUTO 32005KT 3SM -SN BR OVC003 A3002 RMK MADISHF
DKK,2017-04-01 13:15,-79.2720,42.4933,M,M,M,330.00,6.00,M,30.02,M,3.00,M,OVC,M,M,M,300.00,M,M,M,BR,KDKK 011315Z AUTO 33006KT 3SM BR OVC003 A3002 RMK CIG 2V6  MADISHF
DKK,2017-04-01 13:20,-79.2720,42.4933,M,M,M,320.00,5.00,M,30.02,M,3.00,M,OVC,M,M,M,300.00,M,M,M,BR,KDKK 011320Z AUTO 32005KT 3SM BR OVC003 A3002 RMK CIG 2V6  MADISHF
DKK,2017-04-01 13:25,-79.2720,42.4933,M,M,M,310.00,6.00,M,30.02,M,2.50,M,OVC,M,M,M,300.00,M,M,M,BR,KDKK 011325Z AUTO 31006KT 2 1/2SM BR OVC003 A3002 RMK MADISHF
DKK,2017-04-01 13:30,-79.2720,42.4933,35.10,35.10,100.00,310.00,7.00,0.00,30.02,M,2.00,M,OVC,M,M,M,300.00,M,M,M,-SN BR,KDKK 011330Z AUTO 31007KT 2SM -SN BR OVC003 02/02 A3002 RMK AO2 UPB27E30SNB02E13B30 CIG 002V007 P0000 T00170017
DKK,2017-04-01 13:35,-79.2720,42.4933,M,M,M,310.00,5.00,M,30.03,M,2.00,M,OVC,M,M,M,300.00,M,M,M,-SN BR,KDKK 011335Z AUTO 31005KT 2SM -SN BR OVC003 A3003 RMK CIG 2V7  MADISHF
DKK,2017-04-01 13:40,-79.2720,42.4933,M,M,M,300.00,7.00,M,30.03,M,2.00,M,OVC,M,M,M,300.00,M,M,M,-SN BR,KDKK 011340Z AUTO 30007KT 2SM -SN BR OVC003 A3003 RMK CIG 2V7  MADISHF
DKK,2017-04-01 13:45,-79.2720,42.4933,M,M,M,300.00,7.00,M,30.03,M,2.50,M,OVC,M,M,M,300.00,M,M,M,-SN BR,KDKK 011345Z AUTO 30007KT 2 1/2SM -SN BR OVC003 A3003 RMK MADISHF
DKK,2017-04-01 13:50,-79.2720,42.4933,M,M,M,310.00,8.00,0.00,30.04,M,2.50,M,OVC,M,M,M,300.00,M,M,M,UP BR,KDKK 011350Z AUTO 31008KT 2 1/2SM UP BR OVC003 A3004 RMK P0000 MADISHF
DKK,2017-04-01 13:53,-79.2720,42.4933,35.10,34.00,95.71,320.00,6.00,0.00,30.04,1017.80,2.50,M,OVC,M,M,M,300.00,M,M,M,UP BR,KDKK 011353Z AUTO 32006KT 2 1/2SM UP BR OVC003 02/01 A3004 RMK AO2 UPB27E30B50SNB02E13B30E50 SLP178 P0000 T00170011
DKK,2017-04-01 13:55,-79.2720,42.4933,M,M,M,310.00,6.00,0.00,30.04,M,2.50,M,OVC,M,M,M,300.00,M,M,M,UP BR,KDKK 011355Z AUTO 31006KT 2 1/2SM UP BR OVC003 A3004 RMK P0000 MADISHF
DKK,2017-04-01 14:00,-79.2720,42.4933,M,M,M,330.00,8.00,M,30.04,M,2.50,M,OVC,M,M,M,300.00,M,M,M,BR,KDKK 011400Z AUTO 33008KT 2 1/2SM BR OVC003 A3004 RMK MADISHF
DKK,2017-04-01 14:05,-79.2720,42.4933,M,M,M,320.00,9.00,M,30.04,M,2.00,M,OVC,M,M,M,300.00,M,M,M,BR,KDKK 011405Z AUTO 32009KT 2SM BR OVC003 A3004 RMK MADISHF
DKK,2017-04-01 14:10,-79.2720,42.4933,M,M,M,310.00,8.00,M,30.05,M,1.75,M,OVC,M,M,M,300.00,M,M,M,BR,KDKK 011410Z AUTO 31008KT 2SM BR OVC003 A3005 RMK MADISHF
DKK,2017-04-01 14:15,-79.2720,42.4933,M,M,M,310.00,9.00,M,30.05,M,2.00,M,OVC,M,M,M,300.00,M,M,M,BR,KDKK 011415Z AUTO 31009KT 2SM BR OVC003 A3005 RMK MADISHF
DKK,2017-04-01 14:20,-79.2720,42.4933,M,M,M,310.00,8.00,M,30.06,M,2.50,M,OVC,M,M,M,300.00,M,M,M,BR,KDKK 011420Z AUTO 31008KT 2 1/2SM BR OVC003 A3006 RMK MADISHF
DKK,2017-04-01 14:25,-79.2720,42.4933,M,M,M,310.00,6.00,M,30.06,M,2.00,M,OVC,M,M,M,300.00,M,M,M,-SN BR,KDKK 011425Z AUTO 31006KT 2SM -SN BR OVC003 A3006 RMK MADISHF
DKK,2017-04-01 14:30,-79.2720,42.4933,M,M,M,300.00,8.00,M,30.06,M,1.75,M,OVC,M,M,M,300.00,M,M,M,-SN BR,KDKK 011430Z AUTO 30008KT 2SM -SN BR OVC003 A3006 RMK MADISHF
DKK,2017-04-01 14:35,-79.2720,42.4933,M,M,M,320.00,8.00,M,30.06,M,1.75,M,OVC,M,M,M,300.00,M,M,M,-SN BR,KDKK 011435Z AUTO 32008KT 2SM -SN BR OVC003 A3006 RMK MADISHF
DKK,2017-04-01 14:36,-79.2720,42.4933,34.00,34.00,100.00,320.00,7.00,0.00,30.06,M,1.75,M,OVC,M,M,M,300.00,M,M,M,-SN BR,KDKK 011436Z AUTO 32007KT 1 3/4SM -SN BR OVC003 01/01 A3006 RMK AO2 UPE00SNB25 P0000 I1000 T00110011
DKK,2017-04-01 14:40,-79.2720,42.4933,M,M,M,320.00,5.00,M,30.06,M,2.00,M,OVC,M,M,M,300.00,M,M,M,-SN BR,KDKK 011440Z AUTO 32005KT 2SM -SN BR OVC003 A3006 RMK MADISHF
DKK,2017-04-01 14:43,-79.2720,42.4933,35.10,34.00,95.71,320.00,8.00,0.00,30.06,M,2.00,M,OVC,M,M,M,300.00,M,M,M,-SN BR,KDKK 011443Z AUTO 32008KT 2SM -SN BR OVC003 02/01 A3006 RMK AO2 UPE00SNB25 P0000 I1000 T00170011
DKK,2017-04-01 14:45,-79.2720,42.4933,M,M,M,320.00,7.00,M,30.06,M,2.50,M,OVC,M,M,M,300.00,M,M,M,-SN BR,KDKK 011445Z AUTO 32007KT 2 1/2SM -SN BR OVC003 A3006 RMK MADISHF
DKK,2017-04-01 14:50,-79.2720,42.4933,M,M,M,320.00,8.00,M,30.06,M,2.50,M,OVC,M,M,M,300.00,M,M,M,BR,KDKK 011450Z AUTO 32008KT 2 1/2SM BR OVC003 A3006 RMK MADISHF
DKK,2017-04-01 14:53,-79.2720,42.4933,35.10,34.00,95.71,320.00,7.00,0.00,30.06,1018.50,3.00,M,OVC,M,M,M,300.00,M,M,M,BR,KDKK 011453Z AUTO 32007KT 3SM BR OVC003 02/01 A3006 RMK AO2 UPE00SNB25E47 SLP185 P0000 60000 I1000 I3000 T00170011 51026
DKK,2017-04-01 14:55,-79.2720,42.4933,M,M,M,310.00,7.00,M,30.06,M,3.00,M,OVC,M,M,M,300.00,M,M,M,BR,KDKK 011455Z AUTO 31007KT 3SM BR OVC003 A3006 RMK MADISHF
DKK,2017-04-01 15:00,-79.2720,42.4933,M,M,M,310.00,8.00,M,30.06,M,3.00,M,OVC,M,M,M,300.00,M,M,M,BR,KDKK 011500Z AUTO 31008KT 3SM BR OVC003 A3006 RMK MADISHF
DKK,2017-04-01 15:05,-79.2720,42.4933,M,M,M,300.00,7.00,M,30.05,M,4.00,M,OVC,M,M,M,300.00,M,M,M,BR,KDKK 011505Z AUTO 30007KT 4SM BR OVC003 A3005 RMK CIG 3V7  MADISHF
DKK,2017-04-01 15:10,-79.2720,42.4933,M,M,M,310.00,5.00,M,30.05,M,5.00,M,BKN,OVC,M,M,300.00,900.00,M,M,BR,KDKK 011510Z AUTO 31005KT 5SM BR BKN003 OVC009 A3005 RMK MADISHF
DKK,2017-04-01 15:15,-79.2720,42.4933,M,M,M,300.00,7.00,M,30.05,M,5.00,M,BKN,OVC,M,M,499.00,900.00,M,M,BR,KDKK 011515Z AUTO 30007KT 5SM BR BKN004 OVC009 A3005 RMK CIG 3V8  MADISHF
DKK,2017-04-01 15:19,-79.2720,42.4933,35.10,35.10,100.00,310.00,7.00,0.00,30.06,M,6.00,M,BKN,OVC,M,M,500.00,1100.00,M,M,BR,KDKK 011519Z AUTO 31007KT 6SM BR BKN005 OVC011 02/02 A3006 RMK AO2 CIG 003V007 T00170017
DKK,2017-04-01 15:20,-79.2720,42.4933,M,M,M,300.00,7.00,M,30.06,M,6.00,M,BKN,OVC,M,M,499.00,1100.00,M,M,BR,KDKK 011520Z AUTO 30007KT 6SM BR BKN004 OVC011 A3006 RMK CIG 3V8  MADISHF
DKK,2017-04-01 15:25,-79.2720,42.4933,M,M,M,290.00,6.00,M,30.06,M,7.00,M,BKN,OVC,M,M,499.00,1100.00,M,M,M,KDKK 011525Z AUTO 29006KT 7SM BKN004 OVC011 A3006 RMK CIG 3V8  MADISHF
DKK,2017-04-01 15:30,-79.2720,42.4933,M,M,M,290.00,7.00,M,30.06,M,7.00,M,BKN,OVC,M,M,499.00,1100.00,M,M,M,KDKK 011530Z AUTO 29007KT 7SM BKN004 OVC011 A3006 RMK CIG 3V8  MADISHF
DKK,2017-04-01 15:35,-79.2720,42.4933,M,M,M,280.00,6.00,M,30.06,M,8.00,M,SCT,OVC,M,M,499.00,1100.00,M,M,M,KDKK 011535Z AUTO 28006KT 8SM SCT004 OVC011 A3006 RMK MADISHF
DKK,2017-04-01 15:39,-79.2720,42.4933,36.00,35.10,96.49,300.00,5.00,0.00,30.06,M,9.00,M,SCT,OVC,M,M,500.00,1100.00,M,M,M,KDKK 011539Z AUTO 30005KT 9SM SCT005 OVC011 02/02 A3006 RMK AO2 T00220017
DKK,2017-04-01 15:40,-79.2720,42.4933,M,M,M,290.00,5.00,M,30.06,M,9.00,M,SCT,OVC,M,M,499.00,1100.00,M,M,M,KDKK 011540Z AUTO 29005KT 9SM SCT004 OVC011 A3006 RMK MADISHF
DKK,2017-04-01 15:45,-79.2720,42.4933,M,M,M,300.00,7.00,M,30.06,M,9.00,M,SCT,OVC,M,M,499.00,1100.00,M,M,M,KDKK 011545Z AUTO 30007KT 9SM SCT004 OVC011 A3006 RMK MADISHF
DKK,2017-04-01 15:50,-79.2720,42.4933,M,M,M,300.00,5.00,M,30.06,M,10.00,M,SCT,OVC,M,M,499.00,1100.00,M,M,M,KDKK 011550Z AUTO 30005KT 10SM SCT004 OVC011 A3006 RMK MADISHF
DKK,2017-04-01 15:53,-79.2720,42.4933,36.00,35.10,96.49,280.00,6.00,0.00,30.06,1018.60,10.00,M,OVC,M,M,M,900.00,M,M,M,M,KDKK 011553Z AUTO 28006KT 10SM OVC009 02/02 A3006 RMK AO2 CIG 004V013 SLP186 T00220017
DKK,2017-04-01 15:55,-79.2720,42.4933,M,M,M,290.00,6.00,M,30.06,M,10.00,M,OVC,M,M,M,900.00,M,M,M,M,KDKK 011555Z AUTO 29006KT 10SM OVC009 A3006 RMK CIG 4V13  MADISHF
DKK,2017-04-01 16:00,-79.2720,42.4933,M,M,M,320.00,6.00,M,30.06,M,10.00,M,OVC,M,M,M,900.00,M,M,M,M,KDKK 011600Z AUTO 32006KT 10SM OVC009 A3006 RMK CIG 4V12  MADISHF
DKK,2017-04-01 16:05,-79.2720,42.4933,M,M,M,320.00,5.00,M,30.06,M,10.00,M,OVC,M,M,M,900.00,M,M,M,M,KDKK 011605Z AUTO 32005KT 10SM OVC009 A3006 RMK CIG 5V11  MADISHF
DKK,2017-04-01 16:10,-79.2720,42.4933,M,M,M,300.00,6.00,M,30.06,M,10.00,M,OVC,M,M,M,900.00,M,M,M,M,KDKK 011610Z AUTO 30006KT 10SM OVC009 A3006 RMK CIG 5V11  MADISHF
DKK,2017-04-01 16:15,-79.2720,42.4933,M,M,M,300.00,6.00,M,30.06,M,10.00,M,OVC,M,M,M,900.00,M,M,M,M,KDKK 011615Z AUTO 30006KT 10SM OVC009 A3006 RMK CIG 5V11  MADISHF
DKK,2017-04-01 16:20,-79.2720,42.4933,M,M,M,280.00,7.00,M,30.06,M,10.00,M,OVC,M,M,M,900.00,M,M,M,M,KDKK 011620Z AUTO 28007KT 10SM OVC009 A3006 RMK CIG 5V11  MADISHF
DKK,2017-04-01 16:25,-79.2720,42.4933,M,M,M,290.00,5.00,M,30.07,M,10.00,M,OVC,M,M,M,900.00,M,M,M,M,KDKK 011625Z AUTO 29005KT 10SM OVC009 A3007 RMK CIG 5V11  MADISHF
DKK,2017-04-01 16:30,-79.2720,42.4933,M,M,M,290.00,5.00,M,30.07,M,10.00,M,OVC,M,M,M,900.00,M,M,M,M,KDKK 011630Z AUTO 29005KT 10SM OVC009 A3007 RMK CIG 6V11  MADISHF
DKK,2017-04-01 16:35,-79.2720,42.4933,M,M,M,290.00,5.00,M,30.06,M,10.00,M,OVC,M,M,M,900.00,M,M,M,M,KDKK 011635Z AUTO 29005KT 10SM OVC009 A3006 RMK CIG 6V13  MADISHF
DKK,2017-04-01 16:40,-79.2720,42.4933,M,M,M,280.00,5.00,M,30.06,M,10.00,M,OVC,M,M,M,900.00,M,M,M,M,KDKK 011640Z AUTO 28005KT 10SM OVC009 A3006 RMK CIG 6V13  MADISHF
DKK,2017-04-01 16:45,-79.2720,42.4933,M,M,M,270.00,5.00,M,30.06,M,10.00,M,BKN,OVC,M,M,700.00,1100.00,M,M,M,KDKK 011645Z AUTO 27005KT 10SM BKN007 OVC011 A3006 RMK CIG 6V9  MADISHF
DKK,2017-04-01 16:50,-79.2720,42.4933,M,M,M,290.00,5.00,M,30.06,M,10.00,M,BKN,OVC,M,M,700.00,1100.00,M,M,M,KDKK 011650Z AUTO 29005KT 10SM BKN007 OVC011 A3006 RMK CIG 6V9  MADISHF
DKK,2017-04-01 16:53,-79.2720,42.4933,37.00,35.10,92.76,280.00,5.00,0.00,30.06,1018.60,10.00,M,OVC,M,M,M,700.00,M,M,M,M,KDKK 011653Z AUTO 28005KT 10SM OVC007 03/02 A3006 RMK AO2 CIG 006V009 SLP186 T00280017
DKK,2017-04-01 16:55,-79.2720,42.4933,M,M,M,280.00,6.00,M,30.06,M,10.00,M,BKN,OVC,M,M,700.00,1100.00,M,M,M,KDKK 011655Z AUTO 28006KT 10SM BKN007 OVC011 A3006 RMK MADISHF
DKK,2017-04-01 17:00,-79.2720,42.4933,M,M,M,280.00,5.00,M,30.06,M,10.00,M,BKN,OVC,M,M,700.00,1100.00,M,M,M,KDKK 011700Z AUTO 28005KT 10SM BKN007 OVC011 A3006 RMK MADISHF
DKK,2017-04-01 17:05,-79.2720,42.4933,M,M,M,270.00,5.00,M,30.07,M,10.00,M,BKN,OVC,M,M,700.00,1100.00,M,M,M,KDKK 011705Z AUTO 27005KT 10SM BKN007 OVC011 A3007 RMK MADISHF
DKK,2017-04-01 17:10,-79.2720,42.4933,M,M,M,290.00,6.00,M,30.07,M,10.00,M,BKN,OVC,M,M,700.00,1200.00,M,M,M,KDKK 011710Z AUTO 29006KT 10SM BKN007 OVC012 A3007 RMK MADISHF
DKK,2017-04-01 17:15,-79.2720,42.4933,M,M,M,300.00,7.00,M,30.07,M,10.00,M,BKN,OVC,M,M,700.00,1400.00,M,M,M,KDKK 011715Z AUTO 30007KT 10SM BKN007 OVC014 A3007 RMK CIG 6V12  MADISHF
DKK,2017-04-01 17:20,-79.2720,42.4933,M,M,M,290.00,6.00,M,30.07,M,10.00,M,SCT,OVC,M,M,700.00,1400.00,M,M,M,KDKK 011720Z AUTO 29006KT 10SM SCT007 OVC014 A3007 RMK MADISHF
DKK,2017-04-01 17:25,-79.2720,42.4933,M,M,M,290.00,8.00,M,30.08,M,10.00,M,SCT,OVC,M,M,900.00,1400.00,M,M,M,KDKK 011725Z AUTO 29008KT 10SM SCT009 OVC014 A3008 RMK MADISHF
DKK,2017-04-01 17:26,-79.2720,42.4933,37.90,35.10,89.53,290.00,8.00,0.00,30.08,M,10.00,M,SCT,OVC,M,M,900.00,1400.00,M,M,M,KDKK 011726Z AUTO 29008KT 10SM SCT009 OVC014 03/02 A3008 RMK AO2 T00330017
DKK,2017-04-01 17:30,-79.2720,42.4933,M,M,M,280.00,6.00,M,30.08,M,10.00,M,SCT,OVC,M,M,900.00,1400.00,M,M,M,KDKK 011730Z AUTO 28006KT 10SM SCT009 OVC014 A3008 RMK MADISHF
DKK,2017-04-01 17:35,-79.2720,42.4933,M,M,M,260.00,8.00,M,30.08,M,10.00,M,SCT,OVC,M,M,900.00,1400.00,M,M,M,KDKK 011735Z AUTO 26008KT 10SM SCT009 OVC014 A3008 RMK MADISHF
DKK,2017-04-01 17:40,-79.2720,42.4933,M,M,M,270.00,8.00,M,30.08,M,10.00,M,FEW,OVC,M,M,900.00,1400.00,M,M,M,KDKK 011740Z AUTO 27008KT 10SM FEW009 OVC014 A3008 RMK MADISHF
DKK,2017-04-01 17:45,-79.2720,42.4933,M,M,M,260.00,8.00,M,30.08,M,10.00,M,FEW,OVC,M,M,900.00,1500.00,M,M,M,KDKK 011745Z AUTO 26008KT 10SM FEW009 OVC015 A3008 RMK MADISHF
DKK,2017-04-01 17:49,-79.2720,42.4933,37.40,33.80,86.69,270.00,8.00,0.00,30.08,M,10.00,M,FEW,OVC,M,M,900.00,1500.00,M,M,M,KDKK 011749Z AUTO 27008KT 10SM FEW009 OVC015 03/01 A3008 RMK AO2
DKK,2017-04-01 17:50,-79.2720,42.4933,M,M,M,270.00,8.00,M,30.08,M,10.00,M,FEW,OVC,M,M,900.00,1500.00,M,M,M,KDKK 011750Z AUTO 27008KT 10SM FEW009 OVC015 A3008 RMK MADISHF
DKK,2017-04-01 17:53,-79.2720,42.4933,37.00,34.00,88.78,270.00,7.00,0.00,30.08,1019.30,10.00,M,FEW,OVC,M,M,900.00,1700.00,M,M,M,KDKK 011753Z AUTO 27007KT 10SM FEW009 OVC017 03/01 A3008 RMK AO2 SLP193 60000 I6000 T00280011 10033 20011 52007
DKK,2017-04-01 17:55,-79.2720,42.4933,M,M,M,270.00,7.00,M,30.08,M,10.00,M,FEW,OVC,M,M,900.00,1699.00,M,M,M,KDKK 011755Z AUTO 27007KT 10SM FEW009 OVC016 A3008 RMK MADISHF
DKK,2017-04-01 18:00,-79.2720,42.4933,M,M,M,280.00,6.00,M,30.08,M,10.00,M,FEW,OVC,M,M,900.00,1699.00,M,M,M,KDKK 011800Z AUTO 28006KT 10SM FEW009 OVC016 A3008 RMK MADISHF
DKK,2017-04-01 18:05,-79.2720,42.4933,M,M,M,270.00,7.00,M,30.08,M,10.00,M,OVC,M,M,M,1699.00,M,M,M,M,KDKK 011805Z AUTO 27007KT 10SM OVC016 A3008 RMK MADISHF
DKK,2017-04-01 18:10,-79.2720,42.4933,M,M,M,280.00,6.00,M,30.08,M,10.00,M,OVC,M,M,M,1800.00,M,M,M,M,KDKK 011810Z AUTO 28006KT 10SM OVC018 A3008 RMK MADISHF
DKK,2017-04-01 18:15,-79.2720,42.4933,M,M,M,270.00,5.00,M,30.08,M,10.00,M,OVC,M,M,M,1800.00,M,M,M,M,KDKK 011815Z AUTO 27005KT 10SM OVC018 A3008 RMK MADISHF
DKK,2017-04-01 18:20,-79.2720,42.4933,M,M,M,260.00,7.00,M,30.07,M,10.00,M,OVC,M,M,M,1800.00,M,M,M,M,KDKK 011820Z AUTO 26007KT 10SM OVC018 A3007 RMK MADISHF
DKK,2017-04-01 18:25,-79.2720,42.4933,M,M,M,260.00,6.00,M,30.08,M,10.00,M,OVC,M,M,M,1900.00,M,M,M,M,KDKK 011825Z AUTO 26006KT 10SM OVC019 A3008 RMK MADISHF
DKK,2017-04-01 18:30,-79.2720,42.4933,M,M,M,290.00,6.00,M,30.08,M,10.00,M,OVC,M,M,M,1900.00,M,M,M,M,KDKK 011830Z AUTO 29006KT 10SM OVC019 A3008 RMK MADISHF
DKK,2017-04-01 18:35,-79.2720,42.4933,M,M,M,280.00,7.00,M,30.08,M,10.00,M,OVC,M,M,M,1900.00,M,M,M,M,KDKK 011835Z AUTO 28007KT 10SM OVC019 A3008 RMK MADISHF
DKK,2017-04-01 18:40,-79.2720,42.4933,M,M,M,260.00,7.00,M,30.08,M,10.00,M,OVC,M,M,M,1900.00,M,M,M,M,KDKK 011840Z AUTO 26007KT 10SM OVC019 A3008 RMK MADISHF
DKK,2017-04-01 18:45,-79.2720,42.4933,M,M,M,270.00,7.00,M,30.08,M,10.00,M,OVC,M,M,M,1900.00,M,M,M,M,KDKK 011845Z AUTO 27007KT 10SM OVC019 A3008 RMK MADISHF
DKK,2017-04-01 18:50,-79.2720,42.4933,M,M,M,270.00,8.00,M,30.08,M,10.00,M,OVC,M,M,M,1900.00,M,M,M,M,KDKK 011850Z AUTO 27008KT 10SM OVC019 A3008 RMK MADISHF
DKK,2017-04-01 18:53,-79.2720,42.4933,37.90,34.00,85.69,260.00,6.00,0.00,30.08,1019.30,10.00,M,OVC,M,M,M,1900.00,M,M,M,M,KDKK 011853Z AUTO 26006KT 10SM OVC019 03/01 A3008 RMK AO2 SLP193 T00330011
DKK,2017-04-01 18:55,-79.2720,42.4933,M,M,M,270.00,8.00,M,30.08,M,10.00,M,OVC,M,M,M,1800.00,M,M,M,M,KDKK 011855Z AUTO 27008KT 10SM OVC018 A3008 RMK MADISHF
DKK,2017-04-01 19:00,-79.2720,42.4933,M,M,M,250.00,5.00,M,30.08,M,10.00,M,OVC,M,M,M,1800.00,M,M,M,M,KDKK 011900Z AUTO 25005KT 10SM OVC018 A3008 RMK MADISHF
DKK,2017-04-01 19:05,-79.2720,42.4933,M,M,M,270.00,7.00,M,30.08,M,10.00,M,OVC,M,M,M,1800.00,M,M,M,M,KDKK 011905Z AUTO 27007KT 10SM OVC018 A3008 RMK MADISHF
DKK,2017-04-01 19:10,-79.2720,42.4933,M,M,M,270.00,6.00,M,30.08,M,10.00,M,OVC,M,M,M,1800.00,M,M,M,M,KDKK 011910Z AUTO 27006KT 10SM OVC018 A3008 RMK MADISHF
DKK,2017-04-01 19:15,-79.2720,42.4933,M,M,M,270.00,8.00,M,30.08,M,10.00,M,OVC,M,M,M,1900.00,M,M,M,M,KDKK 011915Z AUTO 27008KT 10SM OVC019 A3008 RMK MADISHF
DKK,2017-04-01 19:20,-79.2720,42.4933,M,M,M,260.00,6.00,M,30.08,M,10.00,M,OVC,M,M,M,1900.00,M,M,M,M,KDKK 011920Z AUTO 26006KT 10SM OVC019 A3008 RMK MADISHF
DKK,2017-04-01 19:25,-79.2720,42.4933,M,M,M,270.00,6.00,M,30.08,M,10.00,M,OVC,M,M,M,1900.00,M,M,M,M,KDKK 011925Z AUTO 27006KT 10SM OVC019 A3008 RMK MADISHF
DKK,2017-04-01 19:30,-79.2720,42.4933,M,M,M,260.00,6.00,M,30.08,M,10.00,M,OVC,M,M,M,1900.00,M,M,M,M,KDKK 011930Z AUTO 26006KT 10SM OVC019 A3008 RMK MADISHF
DKK,2017-04-01 19:35,-79.2720,42.4933,M,M,M,250.00,6.00,M,30.08,M,10.00,M,OVC,M,M,M,1900.00,M,M,M,M,KDKK 011935Z AUTO 25006KT 10SM OVC019 A3008 RMK MADISHF
DKK,2017-04-01 19:40,-79.2720,42.4933,M,M,M,270.00,7.00,M,30.09,M,10.00,M,OVC,M,M,M,1900.00,M,M,M,M,KDKK 011940Z AUTO 27007KT 10SM OVC019 A3009 RMK MADISHF
DKK,2017-04-01 19:45,-79.2720,42.4933,M,M,M,260.00,8.00,M,30.08,M,10.00,M,OVC,M,M,M,1900.00,M,M,M,M,KDKK 011945Z AUTO 26008KT 10SM OVC019 A3008 RMK MADISHF
DKK,2017-04-01 19:50,-79.2720,42.4933,M,M,M,260.00,7.00,M,30.08,M,10.00,M,OVC,M,M,M,1900.00,M,M,M,M,KDKK 011950Z AUTO 26007KT 10SM OVC019 A3008 RMK MADISHF
DKK,2017-04-01 19:53,-79.2720,42.4933,37.90,34.00,85.69,260.00,8.00,0.00,30.08,1019.30,10.00,M,OVC,M,M,M,1900.00,M,M,M,M,KDKK 011953Z AUTO 26008KT 10SM OVC019 03/01 A3008 RMK AO2 SLP193 T00330011
DKK,2017-04-01 19:55,-79.2720,42.4933,M,M,M,270.00,7.00,M,30.08,M,10.00,M,OVC,M,M,M,1900.00,M,M,M,M,KDKK 011955Z AUTO 27007KT 10SM OVC019 A3008 RMK MADISHF
DKK,2017-04-01 20:00,-79.2720,42.4933,M,M,M,260.00,6.00,M,30.09,M,10.00,M,OVC,M,M,M,1900.00,M,M,M,M,KDKK 012000Z AUTO 26006KT 10SM OVC019 A3009 RMK MADISHF
DKK,2017-04-01 20:05,-79.2720,42.4933,M,M,M,270.00,6.00,M,30.09,M,10.00,M,OVC,M,M,M,1900.00,M,M,M,M,KDKK 012005Z AUTO 27006KT 10SM OVC019 A3009 RMK MADISHF
DKK,2017-04-01 20:10,-79.2720,42.4933,M,M,M,240.00,6.00,M,30.09,M,10.00,M,OVC,M,M,M,1999.00,M,M,M,M,KDKK 012010Z AUTO 24006KT 10SM OVC019 A3009 RMK MADISHF
DKK,2017-04-01 20:15,-79.2720,42.4933,M,M,M,270.00,6.00,M,30.09,M,10.00,M,OVC,M,M,M,1999.00,M,M,M,M,KDKK 012015Z AUTO 27006KT 10SM OVC019 A3009 RMK MADISHF
DKK,2017-04-01 20:20,-79.2720,42.4933,M,M,M,250.00,7.00,M,30.10,M,10.00,M,OVC,M,M,M,1999.00,M,M,M,M,KDKK 012020Z AUTO 25007KT 10SM OVC019 A3010 RMK MADISHF
DKK,2017-04-01 20:25,-79.2720,42.4933,M,M,M,260.00,6.00,M,30.10,M,10.00,M,OVC,M,M,M,2200.00,M,M,M,M,KDKK 012025Z AUTO 26006KT 10SM OVC022 A3010 RMK MADISHF
DKK,2017-04-01 20:30,-79.2720,42.4933,M,M,M,250.00,7.00,M,30.10,M,10.00,M,OVC,M,M,M,2200.00,M,M,M,M,KDKK 012030Z AUTO 25007KT 10SM OVC022 A3010 RMK MADISHF
DKK,2017-04-01 20:35,-79.2720,42.4933,M,M,M,250.00,5.00,M,30.10,M,10.00,M,OVC,M,M,M,2200.00,M,M,M,M,KDKK 012035Z AUTO 25005KT 10SM OVC022 A3010 RMK MADISHF
DKK,2017-04-01 20:40,-79.2720,42.4933,M,M,M,240.00,4.00,M,30.11,M,10.00,M,OVC,M,M,M,2400.00,M,M,M,M,KDKK 012040Z AUTO 24004KT 10SM OVC024 A3011 RMK MADISHF
DKK,2017-04-01 20:45,-79.2720,42.4933,M,M,M,280.00,7.00,M,30.11,M,10.00,M,OVC,M,M,M,2400.00,M,M,M,M,KDKK 012045Z AUTO 28007KT 10SM OVC024 A3011 RMK MADISHF
DKK,2017-04-01 20:50,-79.2720,42.4933,M,M,M,250.00,7.00,M,30.12,M,10.00,M,OVC,M,M,M,2400.00,M,M,M,M,KDKK 012050Z AUTO 25007KT 10SM OVC024 A3012 RMK MADISHF
DKK,2017-04-01 20:53,-79.2720,42.4933,39.00,34.00,82.08,250.00,6.00,0.00,30.12,1020.50,10.00,M,OVC,M,M,M,2400.00,M,M,M,M,KDKK 012053Z AUTO 25006KT 10SM OVC024 04/01 A3012 RMK AO2 SLP205 T00390011 53012
DKK,2017-04-01 20:55,-79.2720,42.4933,M,M,M,260.00,7.00,M,30.12,M,10.00,M,OVC,M,M,M,2500.00,M,M,M,M,KDKK 012055Z AUTO 26007KT 10SM OVC025 A3012 RMK MADISHF
DKK,2017-04-01 21:00,-79.2720,42.4933,M,M,M,240.00,5.00,M,30.12,M,10.00,M,OVC,M,M,M,2500.00,M,M,M,M,KDKK 012100Z AUTO 24005KT 10SM OVC025 A3012 RMK MADISHF
DKK,2017-04-01 21:05,-79.2720,42.4933,M,M,M,240.00,7.00,M,30.12,M,10.00,M,OVC,M,M,M,2500.00,M,M,M,M,KDKK 012105Z AUTO 24007KT 10SM OVC025 A3012 RMK MADISHF
DKK,2017-04-01 21:10,-79.2720,42.4933,M,M,M,230.00,5.00,M,30.12,M,10.00,M,OVC,M,M,M,2700.00,M,M,M,M,KDKK 012110Z AUTO 23005KT 10SM OVC027 A3012 RMK MADISHF
DKK,2017-04-01 21:15,-79.2720,42.4933,M,M,M,240.00,6.00,M,30.12,M,10.00,M,OVC,M,M,M,2700.00,M,M,M,M,KDKK 012115Z AUTO 24006KT 10SM OVC027 A3012 RMK MADISHF
DKK,2017-04-01 21:20,-79.2720,42.4933,M,M,M,250.00,5.00,M,30.12,M,10.00,M,OVC,M,M,M,2700.00,M,M,M,M,KDKK 012120Z AUTO 25005KT 10SM OVC027 A3012 RMK MADISHF
DKK,2017-04-01 21:25,-79.2720,42.4933,M,M,M,230.00,5.00,M,30.12,M,10.00,M,OVC,M,M,M,2900.00,M,M,M,M,KDKK 012125Z AUTO 23005KT 10SM OVC029 A3012 RMK MADISHF
DKK,2017-04-01 21:30,-79.2720,42.4933,M,M,M,230.00,5.00,M,30.12,M,10.00,M,OVC,M,M,M,2900.00,M,M,M,M,KDKK 012130Z AUTO 23005KT 10SM OVC029 A3012 RMK MADISHF
DKK,2017-04-01 21:35,-79.2720,42.4933,M,M,M,250.00,5.00,M,30.12,M,10.00,M,OVC,M,M,M,2900.00,M,M,M,M,KDKK 012135Z AUTO 25005KT 10SM OVC029 A3012 RMK VRB05KT  MADISHF
DKK,2017-04-01 21:40,-79.2720,42.4933,M,M,M,230.00,7.00,M,30.12,M,10.00,M,OVC,M,M,M,3100.00,M,M,M,M,KDKK 012140Z AUTO 23007KT 10SM OVC031 A3012 RMK MADISHF
DKK,2017-04-01 21:44,-79.2720,42.4933,39.90,34.00,79.25,240.00,6.00,0.00,30.12,M,10.00,M,OVC,M,M,M,3100.00,M,M,M,M,KDKK 012144Z AUTO 24006KT 10SM OVC031 04/01 A3012 RMK AO2 T00440011
DKK,2017-04-01 21:45,-79.2720,42.4933,M,M,M,240.00,5.00,M,30.12,M,10.00,M,OVC,M,M,M,3100.00,M,M,M,M,KDKK 012145Z AUTO 24005KT 10SM OVC031 A3012 RMK MADISHF
DKK,2017-04-01 21:50,-79.2720,42.4933,M,M,M,200.00,7.00,M,30.12,M,10.00,M,OVC,M,M,M,3100.00,M,M,M,M,KDKK 012150Z AUTO 20007KT 10SM OVC031 A3012 RMK MADISHF
DKK,2017-04-01 21:53,-79.2720,42.4933,41.00,34.00,75.94,210.00,6.00,0.00,30.12,1020.70,10.00,M,BKN,M,M,M,3300.00,M,M,M,M,KDKK 012153Z AUTO 21006KT 10SM BKN033 05/01 A3012 RMK AO2 SLP207 T00500011
DKK,2017-04-01 21:55,-79.2720,42.4933,M,M,M,200.00,6.00,M,30.12,M,10.00,M,BKN,M,M,M,3300.00,M,M,M,M,KDKK 012155Z AUTO 20006KT 10SM BKN033 A3012 RMK MADISHF
DKK,2017-04-01 22:00,-79.2720,42.4933,M,M,M,210.00,8.00,M,30.12,M,10.00,M,BKN,M,M,M,3300.00,M,M,M,M,KDKK 012200Z AUTO 21008KT 10SM BKN033 A3012 RMK MADISHF
DKK,2017-04-01 22:05,-79.2720,42.4933,M,M,M,210.00,8.00,M,30.12,M,10.00,M,SCT,M,M,M,3300.00,M,M,M,M,KDKK 012205Z AUTO 21008KT 10SM SCT033 A3012 RMK MADISHF
DKK,2017-04-01 22:10,-79.2720,42.4933,M,M,M,210.00,7.00,M,30.12,M,10.00,M,FEW,M,M,M,3300.00,M,M,M,M,KDKK 012210Z AUTO 21007KT 10SM FEW033 A3012 RMK MADISHF
DKK,2017-04-01 22:15,-79.2720,42.4933,M,M,M,230.00,7.00,M,30.12,M,10.00,M,FEW,M,M,M,3300.00,M,M,M,M,KDKK 012215Z AUTO 23007KT 10SM FEW033 A3012 RMK MADISHF
DKK,2017-04-01 22:20,-79.2720,42.4933,M,M,M,240.00,7.00,M,30.11,M,10.00,M,CLR,M,M,M,M,M,M,M,M,KDKK 012220Z AUTO 24007KT 10SM CLR A3011 RMK MADISHF
DKK,2017-04-01 22:25,-79.2720,42.4933,M,M,M,230.00,7.00,M,30.11,M,10.00,M,CLR,M,M,M,M,M,M,M,M,KDKK 012225Z AUTO 23007KT 10SM CLR A3011 RMK MADISHF
DKK,2017-04-01 22:30,-79.2720,42.4933,M,M,M,210.00,8.00,M,30.11,M,10.00,M,CLR,M,M,M,M,M,M,M,M,KDKK 012230Z AUTO 21008KT 10SM CLR A3011 RMK MADISHF
DKK,2017-04-01 22:35,-79.2720,42.4933,M,M,M,220.00,6.00,M,30.11,M,10.00,M,CLR,M,M,M,M,M,M,M,M,KDKK 012235Z AUTO 22006KT 10SM CLR A3011 RMK MADISHF
DKK,2017-04-01 22:40,-79.2720,42.4933,M,M,M,220.00,7.00,M,30.11,M,10.00,M,CLR,M,M,M,M,M,M,M,M,KDKK 012240Z AUTO 22007KT 10SM CLR A3011 RMK MADISHF
DKK,2017-04-01 22:45,-79.2720,42.4933,M,M,M,220.00,7.00,M,30.11,M,10.00,M,CLR,M,M,M,M,M,M,M,M,KDKK 012245Z AUTO 22007KT 10SM CLR A3011 RMK MADISHF
DKK,2017-04-01 22:50,-79.2720,42.4933,M,M,M,220.00,7.00,M,30.11,M,10.00,M,CLR,M,M,M,M,M,M,M,M,KDKK 012250Z AUTO 22007KT 10SM CLR A3011 RMK MADISHF
DKK,2017-04-01 22:53,-79.2720,42.4933,41.00,34.00,75.94,240.00,5.00,0.00,30.11,1020.30,10.00,M,CLR,M,M,M,M,M,M,M,M,KDKK 012253Z AUTO 24005KT 10SM CLR 05/01 A3011 RMK AO2 SLP203 T00500011
DKK,2017-04-01 22:55,-79.2720,42.4933,M,M,M,230.00,6.00,M,30.11,M,10.00,M,CLR,M,M,M,M,M,M,M,M,KDKK 012255Z AUTO 23006KT 10SM CLR A3011 RMK MADISHF
DKK,2017-04-01 23:00,-79.2720,42.4933,M,M,M,250.00,7.00,M,30.11,M,10.00,M,CLR,M,M,M,M,M,M,M,M,KDKK 012300Z AUTO 25007KT 10SM CLR A3011 RMK MADISHF
DKK,2017-04-01 23:05,-79.2720,42.4933,M,M,M,260.00,8.00,M,30.12,M,10.00,M,CLR,M,M,M,M,M,M,M,M,KDKK 012305Z AUTO 26008KT 10SM CLR A3012 RMK MADISHF
DKK,2017-04-01 23:10,-79.2720,42.4933,M,M,M,260.00,9.00,M,30.13,M,10.00,M,CLR,M,M,M,M,M,M,M,M,KDKK 012310Z AUTO 26009KT 10SM CLR A3013 RMK MADISHF
DKK,2017-04-01 23:15,-79.2720,42.4933,M,M,M,250.00,6.00,M,30.12,M,10.00,M,CLR,M,M,M,M,M,M,M,M,KDKK 012315Z AUTO 25006KT 10SM CLR A3012 RMK MADISHF
DKK,2017-04-01 23:20,-79.2720,42.4933,M,M,M,260.00,8.00,M,30.13,M,10.00,M,CLR,M,M,M,M,M,M,M,M,KDKK 012320Z AUTO 26008KT 10SM CLR A3013 RMK MADISHF
DKK,2017-04-01 23:25,-79.2720,42.4933,M,M,M,250.00,9.00,M,30.13,M,10.00,M,CLR,M,M,M,M,M,M,M,M,KDKK 012325Z AUTO 25009KT 10SM CLR A3013 RMK MADISHF
DKK,2017-04-01 23:30,-79.2720,42.4933,M,M,M,250.00,7.00,M,30.13,M,10.00,M,CLR,M,M,M,M,M,M,M,M,KDKK 012330Z AUTO 25007KT 10SM CLR A3013 RMK MADISHF
DKK,2017-04-01 23:35,-79.2720,42.4933,M,M,M,250.00,8.00,M,30.13,M,10.00,M,CLR,M,M,M,M,M,M,M,M,KDKK 012335Z AUTO 25008KT 10SM CLR A3013 RMK MADISHF
DKK,2017-04-01 23:40,-79.2720,42.4933,M,M,M,250.00,8.00,M,30.13,M,10.00,M,CLR,M,M,M,M,M,M,M,M,KDKK 012340Z AUTO 25008KT 10SM CLR A3013 RMK MADISHF
DKK,2017-04-01 23:45,-79.2720,42.4933,M,M,M,250.00,8.00,M,30.13,M,10.00,M,CLR,M,M,M,M,M,M,M,M,KDKK 012345Z AUTO 25008KT 10SM CLR A3013 RMK MADISHF
DKK,2017-04-01 23:50,-79.2720,42.4933,M,M,M,250.00,7.00,M,30.13,M,10.00,M,CLR,M,M,M,M,M,M,M,M,KDKK 012350Z AUTO 25007KT 10SM CLR A3013 RMK MADISHF
DKK,2017-04-01 23:53,-79.2720,42.4933,37.00,33.10,85.64,250.00,7.00,0.00,30.13,1021.00,10.00,M,CLR,M,M,M,M,M,M,M,M,KDKK 012353Z AUTO 25007KT 10SM CLR 03/01 A3013 RMK AO2 SLP210 T00280006 10056 20028 53004
DKK,2017-04-01 23:55,-79.2720,42.4933,M,M,M,240.00,7.00,M,30.13,M,10.00,M,CLR,M,M,M,M,M,M,M,M,KDKK 012355Z AUTO 24007KT 10SM CLR A3013 RMK MADISHF
