#DEBUG: Format Typ    -> comma
#DEBUG: Time Period   -> 2017-04-01 00:00:00+00:00 2017-04-02 00:00:00+00:00
#DEBUG: Time Zone     -> Etc/UTC
#DEBUG: Data Contact   -> daryl herzmann akrherz@iastate.edu 515-294-5978
#DEBUG: Entries Found -> -1
station,valid,lon,lat,tmpf, dwpf, relh, drct, sknt, p01i, alti, mslp, vsby, gust, skyc1, skyc2, skyc3, skyc4, skyl1, skyl2, skyl3, skyl4, presentwx, metar
DLN,2017-04-01 00:00,-112.5525,45.2554,M,M,M,30.00,12.00,M,30.08,M,10.00,M,SCT,OVC,M,M,5000.00,6500.00,M,M,M,KDLN 010000Z AUTO 03012KT 10SM SCT050 OVC065 A3008 RMK MADISHF
DLN,2017-04-01 00:05,-112.5525,45.2554,M,M,M,30.00,12.00,M,30.07,M,10.00,M,SCT,OVC,M,M,5000.00,7000.00,M,M,M,KDLN 010005Z AUTO 03012KT 10SM SCT050 OVC070 A3007 RMK MADISHF
DLN,2017-04-01 00:10,-112.5525,45.2554,M,M,M,40.00,13.00,M,30.08,M,10.00,M,FEW,OVC,M,M,5000.00,6500.00,M,M,M,KDLN 010010Z AUTO 04013KT 10SM FEW050 OVC065 A3008 RMK MADISHF
DLN,2017-04-01 00:15,-112.5525,45.2554,M,M,M,30.00,14.00,M,30.07,M,10.00,M,FEW,OVC,M,M,5000.00,6500.00,M,M,M,KDLN 010015Z AUTO 03014KT 10SM FEW050 OVC065 A3007 RMK MADISHF
DLN,2017-04-01 00:20,-112.5525,45.2554,M,M,M,30.00,17.00,M,30.08,M,10.00,M,OVC,M,M,M,7000.00,M,M,M,M,KDLN 010020Z AUTO 03017KT 10SM OVC070 A3008 RMK MADISHF
DLN,2017-04-01 00:25,-112.5525,45.2554,M,M,M,20.00,17.00,M,30.08,M,10.00,M,OVC,M,M,M,7000.00,M,M,M,M,KDLN 010025Z AUTO 02017KT 10SM OVC070 A3008 RMK MADISHF
DLN,2017-04-01 00:30,-112.5525,45.2554,M,M,M,30.00,18.00,M,30.08,M,10.00,M,OVC,M,M,M,7000.00,M,M,M,M,KDLN 010030Z AUTO 03018KT 10SM OVC070 A3008 RMK MADISHF
DLN,2017-04-01 00:35,-112.5525,45.2554,M,M,M,30.00,17.00,M,30.08,M,10.00,M,OVC,M,M,M,7000.00,M,M,M,M,KDLN 010035Z AUTO 03017KT 10SM OVC070 A3008 RMK MADISHF
DLN,2017-04-01 00:40,-112.5525,45.2554,M,M,M,30.00,16.00,M,30.08,M,10.00,M,OVC,M,M,M,7000.00,M,M,M,M,KDLN 010040Z AUTO 03016KT 10SM OVC070 A3008 RMK MADISHF
DLN,2017-04-01 00:45,-112.5525,45.2554,M,M,M,30.00,16.00,M,30.08,M,10.00,M,OVC,M,M,M,7000.00,M,M,M,M,KDLN 010045Z AUTO 03016KT 10SM OVC070 A3008 RMK MADISHF
DLN,2017-04-01 00:50,-112.5525,45.2554,M,M,M,20.00,17.00,M,30.08,M,10.00,M,OVC,M,M,M,7000.00,M,M,M,M,KDLN 010050Z AUTO 02017KT 10SM OVC070 A3008 RMK MADISHF
DLN,2017-04-01 00:53,-112.5525,45.2554,48.00,30.00,49.49,20.00,16.00,0.00,30.08,1017.70,10.00,M,BKN,M,M,M,7000.00,M,M,M,M,KDLN 010053Z AUTO 02016KT 10SM BKN070 09/M01 A3008 RMK AO2 SLP177 T00891011 $
DLN,2017-04-01 00:55,-112.5525,45.2554,M,M,M,30.00,17.00,M,30.08,M,10.00,M,BKN,M,M,M,7000.00,M,M,M,M,KDLN 010055Z AUTO 03017KT 10SM BKN070 A3008 RMK MADISHF
DLN,2017-04-01 01:00,-112.5525,45.2554,M,M,M,20.00,16.00,M,30.08,M,10.00,M,BKN,M,M,M,7500.00,M,M,M,M,KDLN 010100Z AUTO 02016KT 10SM BKN075 A3008 RMK MADISHF
DLN,2017-04-01 01:05,-112.5525,45.2554,M,M,M,20.00,14.00,M,30.08,M,10.00,M,BKN,M,M,M,7000.00,M,M,M,M,KDLN 010105Z AUTO 02014KT 10SM BKN070 A3008 RMK MADISHF
DLN,2017-04-01 01:10,-112.5525,45.2554,M,M,M,30.00,15.00,M,30.08,M,10.00,M,OVC,M,M,M,7000.00,M,M,M,M,KDLN 010110Z AUTO 03015KT 10SM OVC070 A3008 RMK MADISHF
DLN,2017-04-01 01:15,-112.5525,45.2554,M,M,M,30.00,14.00,M,30.08,M,10.00,M,FEW,OVC,M,M,5000.00,7000.00,M,M,M,KDLN 010115Z AUTO 03014KT 10SM FEW050 OVC070 A3008 RMK MADISHF
DLN,2017-04-01 01:25,-112.5525,45.2554,M,M,M,40.00,10.00,M,30.08,M,10.00,M,BKN,M,M,M,7000.00,M,M,M,M,KDLN 010125Z AUTO 04010KT 10SM BKN070 A3008 RMK MADISHF
DLN,2017-04-01 01:30,-112.5525,45.2554,M,M,M,50.00,8.00,M,30.08,M,10.00,M,BKN,M,M,M,7000.00,M,M,M,M,KDLN 010130Z AUTO 05008KT 10SM BKN070 A3008 RMK MADISHF
DLN,2017-04-01 01:35,-112.5525,45.2554,M,M,M,60.00,9.00,M,30.09,M,10.00,M,BKN,M,M,M,7000.00,M,M,M,M,KDLN 010135Z AUTO 06009KT 10SM BKN070 A3009 RMK MADISHF
DLN,2017-04-01 01:40,-112.5525,45.2554,M,M,M,50.00,7.00,M,30.09,M,10.00,M,BKN,M,M,M,7000.00,M,M,M,M,KDLN 010140Z AUTO 05007KT 10SM BKN070 A3009 RMK MADISHF
DLN,2017-04-01 01:45,-112.5525,45.2554,M,M,M,70.00,6.00,M,30.09,M,10.00,M,OVC,M,M,M,7000.00,M,M,M,M,KDLN 010145Z AUTO 07006KT 10SM OVC070 A3009 RMK MADISHF
DLN,2017-04-01 01:50,-112.5525,45.2554,M,M,M,60.00,6.00,M,30.09,M,10.00,M,OVC,M,M,M,7000.00,M,M,M,M,KDLN 010150Z AUTO 06006KT 10SM OVC070 A3009 RMK MADISHF
DLN,2017-04-01 01:53,-112.5525,45.2554,46.00,30.00,53.37,60.00,8.00,0.00,30.09,1018.50,10.00,M,OVC,M,M,M,7000.00,M,M,M,M,KDLN 010153Z AUTO 06008KT 10SM OVC070 08/M01 A3009 RMK AO2 SLP185 T00781011 $
DLN,2017-04-01 01:55,-112.5525,45.2554,M,M,M,50.00,7.00,M,30.09,M,10.00,M,OVC,M,M,M,7000.00,M,M,M,M,KDLN 010155Z AUTO 05007KT 10SM OVC070 A3009 RMK MADISHF
DLN,2017-04-01 02:00,-112.5525,45.2554,M,M,M,30.00,6.00,M,30.09,M,10.00,M,OVC,M,M,M,7000.00,M,M,M,M,KDLN 010200Z AUTO 03006KT 10SM OVC070 A3009 RMK MADISHF
DLN,2017-04-01 02:05,-112.5525,45.2554,M,M,M,30.00,9.00,M,30.09,M,10.00,M,OVC,M,M,M,7000.00,M,M,M,M,KDLN 010205Z AUTO 03009KT 10SM OVC070 A3009 RMK MADISHF
DLN,2017-04-01 02:10,-112.5525,45.2554,M,M,M,30.00,10.00,M,30.09,M,10.00,M,OVC,M,M,M,6500.00,M,M,M,M,KDLN 010210Z AUTO 03010KT 10SM OVC065 A3009 RMK MADISHF
DLN,2017-04-01 02:20,-112.5525,45.2554,M,M,M,30.00,9.00,M,30.09,M,10.00,M,OVC,M,M,M,6500.00,M,M,M,M,KDLN 010220Z AUTO 03009KT 10SM OVC065 A3009 RMK MADISHF
DLN,2017-04-01 02:25,-112.5525,45.2554,M,M,M,40.00,8.00,M,30.09,M,10.00,M,OVC,M,M,M,6500.00,M,M,M,M,KDLN 010225Z AUTO 04008KT 10SM OVC065 A3009 RMK MADISHF
DLN,2017-04-01 02:30,-112.5525,45.2554,M,M,M,40.00,8.00,M,30.10,M,10.00,M,OVC,M,M,M,6500.00,M,M,M,M,KDLN 010230Z AUTO 04008KT 10SM OVC065 A3010 RMK MADISHF
DLN,2017-04-01 02:35,-112.5525,45.2554,M,M,M,50.00,8.00,M,30.10,M,10.00,M,OVC,M,M,M,6500.00,M,M,M,M,KDLN 010235Z AUTO 05008KT 10SM OVC065 A3010 RMK MADISHF
DLN,2017-04-01 02:40,-112.5525,45.2554,M,M,M,50.00,7.00,M,30.10,M,10.00,M,OVC,M,M,M,6500.00,M,M,M,M,KDLN 010240Z AUTO 05007KT 10SM OVC065 A3010 RMK MADISHF
DLN,2017-04-01 02:45,-112.5525,45.2554,M,M,M,50.00,7.00,M,30.10,M,10.00,M,OVC,M,M,M,6500.00,M,M,M,M,KDLN 010245Z AUTO 05007KT 10SM OVC065 A3010 RMK MADISHF
DLN,2017-04-01 02:50,-112.5525,45.2554,M,M,M,50.00,8.00,M,30.10,M,10.00,M,OVC,M,M,M,7000.00,M,M,M,M,KDLN 010250Z AUTO 05008KT 10SM OVC070 A3010 RMK MADISHF
DLN,2017-04-01 02:53,-112.5525,45.2554,45.00,30.90,57.50,50.00,6.00,0.00,30.10,1018.80,10.00,M,OVC,M,M,M,7000.00,M,M,M,M,KDLN 010253Z AUTO 05006KT 10SM OVC070 07/M01 A3010 RMK AO2 SLP188 T00721006 53007 $
DLN,2017-04-01 02:55,-112.5525,45.2554,M,M,M,40.00,6.00,M,30.10,M,10.00,M,OVC,M,M,M,7000.00,M,M,M,M,KDLN 010255Z AUTO 04006KT 10SM OVC070 A3010 RMK MADISHF
DLN,2017-04-01 03:00,-112.5525,45.2554,M,M,M,40.00,6.00,M,30.10,M,10.00,M,OVC,M,M,M,7000.00,M,M,M,M,KDLN 010300Z AUTO 04006KT 10SM OVC070 A3010 RMK MADISHF
DLN,2017-04-01 03:05,-112.5525,45.2554,M,M,M,40.00,6.00,M,30.10,M,10.00,M,OVC,M,M,M,7000.00,M,M,M,M,KDLN 010305Z AUTO 04006KT 10SM OVC070 A3010 RMK MADISHF
DLN,2017-04-01 03:10,-112.5525,45.2554,M,M,M,40.00,7.00,M,30.11,M,10.00,M,OVC,M,M,M,7000.00,M,M,M,M,KDLN 010310Z AUTO 04007KT 10SM OVC070 A3011 RMK MADISHF
DLN,2017-04-01 03:15,-112.5525,45.2554,M,M,M,40.00,6.00,M,30.11,M,10.00,M,OVC,M,M,M,7000.00,M,M,M,M,KDLN 010315Z AUTO 04006KT 10SM OVC070 A3011 RMK MADISHF
DLN,2017-04-01 03:25,-112.5525,45.2554,M,M,M,40.00,6.00,M,30.11,M,10.00,M,OVC,M,M,M,7000.00,M,M,M,M,KDLN 010325Z AUTO 04006KT 10SM OVC070 A3011 RMK MADISHF
DLN,2017-04-01 03:30,-112.5525,45.2554,M,M,M,40.00,5.00,M,30.11,M,10.00,M,OVC,M,M,M,7000.00,M,M,M,M,KDLN 010330Z AUTO 04005KT 10SM OVC070 A3011 RMK MADISHF
DLN,2017-04-01 03:35,-112.5525,45.2554,M,M,M,50.00,5.00,M,30.11,M,10.00,M,OVC,M,M,M,7000.00,M,M,M,M,KDLN 010335Z AUTO 05005KT 10SM OVC070 A3011 RMK MADISHF
DLN,2017-04-01 03:40,-112.5525,45.2554,M,M,M,60.00,4.00,M,30.11,M,10.00,M,OVC,M,M,M,7000.00,M,M,M,M,KDLN 010340Z AUTO 06004KT 10SM OVC070 A3011 RMK MADISHF
DLN,2017-04-01 03:45,-112.5525,45.2554,M,M,M,40.00,3.00,M,30.11,M,10.00,M,OVC,M,M,M,7000.00,M,M,M,M,KDLN 010345Z AUTO 04003KT 10SM OVC070 A3011 RMK MADISHF
DLN,2017-04-01 03:50,-112.5525,45.2554,M,M,M,0.00,0.00,M,30.12,M,10.00,M,OVC,M,M,M,7000.00,M,M,M,M,KDLN 010350Z AUTO 00000KT 10SM OVC070 A3012 RMK MADISHF
DLN,2017-04-01 03:53,-112.5525,45.2554,41.00,30.90,67.03,0.00,0.00,0.00,30.12,1019.70,10.00,M,OVC,M,M,M,7000.00,M,M,M,M,KDLN 010353Z AUTO 00000KT 10SM OVC070 05/M01 A3012 RMK AO2 SLP197 T00501006 $
DLN,2017-04-01 03:55,-112.5525,45.2554,M,M,M,0.00,0.00,M,30.12,M,10.00,M,OVC,M,M,M,7000.00,M,M,M,M,KDLN 010355Z AUTO 00000KT 10SM OVC070 A3012 RMK MADISHF
DLN,2017-04-01 04:05,-112.5525,45.2554,M,M,M,220.00,3.00,M,30.12,M,10.00,M,OVC,M,M,M,6500.00,M,M,M,M,KDLN 010405Z AUTO 22003KT 10SM OVC065 A3012 RMK MADISHF
DLN,2017-04-01 04:10,-112.5525,45.2554,M,M,M,220.00,3.00,M,30.12,M,10.00,M,OVC,M,M,M,6500.00,M,M,M,M,KDLN 010410Z AUTO 22003KT 10SM OVC065 A3012 RMK MADISHF
DLN,2017-04-01 04:15,-112.5525,45.2554,M,M,M,0.00,0.00,M,30.12,M,10.00,M,OVC,M,M,M,6500.00,M,M,M,M,KDLN 010415Z AUTO 00000KT 10SM OVC065 A3012 RMK MADISHF
DLN,2017-04-01 04:20,-112.5525,45.2554,M,M,M,0.00,0.00,M,30.13,M,10.00,M,OVC,M,M,M,6500.00,M,M,M,M,KDLN 010420Z AUTO 00000KT 10SM OVC065 A3013 RMK MADISHF
DLN,2017-04-01 04:25,-112.5525,45.2554,M,M,M,0.00,0.00,M,30.13,M,10.00,M,OVC,M,M,M,6500.00,M,M,M,M,KDLN 010425Z AUTO 00000KT 10SM OVC065 A3013 RMK MADISHF
DLN,2017-04-01 04:35,-112.5525,45.2554,M,M,M,0.00,0.00,M,30.13,M,10.00,M,BKN,M,M,M,6500.00,M,M,M,M,KDLN 010435Z AUTO 00000KT 10SM BKN065 A3013 RMK MADISHF
DLN,2017-04-01 04:40,-112.5525,45.2554,M,M,M,0.00,0.00,M,30.13,M,10.00,M,BKN,M,M,M,6500.00,M,M,M,M,KDLN 010440Z AUTO 00000KT 10SM BKN065 A3013 RMK MADISHF
DLN,2017-04-01 04:50,-112.5525,45.2554,M,M,M,240.00,4.00,M,30.13,M,10.00,M,SCT,M,M,M,6500.00,M,M,M,M,KDLN 010450Z AUTO 24004KT 10SM SCT065 A3013 RMK MADISHF
DLN,2017-04-01 04:53,-112.5525,45.2554,37.00,28.90,72.24,230.00,4.00,0.00,30.13,1020.50,10.00,M,FEW,M,M,M,6500.00,M,M,M,M,KDLN 010453Z AUTO 23004KT 10SM FEW065 03/M02 A3013 RMK AO2 SLP205 T00281017 $
DLN,2017-04-01 04:55,-112.5525,45.2554,M,M,M,220.00,4.00,M,30.13,M,10.00,M,FEW,M,M,M,6500.00,M,M,M,M,KDLN 010455Z AUTO 22004KT 10SM FEW065 A3013 RMK MADISHF
DLN,2017-04-01 05:00,-112.5525,45.2554,M,M,M,210.00,3.00,M,30.14,M,10.00,M,CLR,M,M,M,M,M,M,M,M,KDLN 010500Z AUTO 21003KT 10SM CLR A3014 RMK MADISHF
DLN,2017-04-01 05:05,-112.5525,45.2554,M,M,M,0.00,0.00,M,30.14,M,10.00,M,CLR,M,M,M,M,M,M,M,M,KDLN 010505Z AUTO 00000KT 10SM CLR A3014 RMK MADISHF
DLN,2017-04-01 05:15,-112.5525,45.2554,M,M,M,80.00,3.00,M,30.14,M,10.00,M,CLR,M,M,M,M,M,M,M,M,KDLN 010515Z AUTO 08003KT 10SM CLR A3014 RMK MADISHF
DLN,2017-04-01 05:20,-112.5525,45.2554,M,M,M,80.00,5.00,M,30.14,M,10.00,M,CLR,M,M,M,M,M,M,M,M,KDLN 010520Z AUTO 08005KT 10SM CLR A3014 RMK MADISHF
DLN,2017-04-01 05:25,-112.5525,45.2554,M,M,M,60.00,4.00,M,30.14,M,10.00,M,CLR,M,M,M,M,M,M,M,M,KDLN 010525Z AUTO 06004KT 10SM CLR A3014 RMK MADISHF
DLN,2017-04-01 05:30,-112.5525,45.2554,M,M,M,70.00,4.00,M,30.14,M,10.00,M,CLR,M,M,M,M,M,M,M,M,KDLN 010530Z AUTO 07004KT 10SM CLR A3014 RMK MADISHF
DLN,2017-04-01 05:40,-112.5525,45.2554,M,M,M,110.00,3.00,M,30.14,M,10.00,M,CLR,M,M,M,M,M,M,M,M,KDLN 010540Z AUTO 11003KT 10SM CLR A3014 RMK MADISHF
DLN,2017-04-01 05:45,-112.5525,45.2554,M,M,M,150.00,3.00,M,30.14,M,10.00,M,CLR,M,M,M,M,M,M,M,M,KDLN 010545Z AUTO 15003KT 10SM CLR A3014 RMK MADISHF
DLN,2017-04-01 05:50,-112.5525,45.2554,M,M,M,170.00,5.00,M,30.14,M,10.00,M,CLR,M,M,M,M,M,M,M,M,KDLN 010550Z AUTO 17005KT 10SM CLR A3014 RMK MADISHF
DLN,2017-04-01 05:53,-112.5525,45.2554,36.00,30.00,78.60,160.00,6.00,0.00,30.14,1020.40,10.00,M,CLR,M,M,M,M,M,M,M,M,KDLN 010553Z AUTO 16006KT 10SM CLR 02/M01 A3014 RMK AO2 SLP204 T00221011 10106 20017 51011 $
DLN,2017-04-01 05:55,-112.5525,45.2554,M,M,M,160.00,5.00,M,30.14,M,10.00,M,CLR,M,M,M,M,M,M,M,M,KDLN 010555Z AUTO 16005KT 10SM CLR A3014 RMK MADISHF
DLN,2017-04-01 06:05,-112.5525,45.2554,M,M,M,110.00,6.00,M,30.13,M,10.00,M,CLR,M,M,M,M,M,M,M,M,KDLN 010605Z AUTO 11006KT 10SM CLR A3013 RMK MADISHF
DLN,2017-04-01 06:10,-112.5525,45.2554,M,M,M,110.00,6.00,M,30.13,M,10.00,M,CLR,M,M,M,M,M,M,M,M,KDLN 010610Z AUTO 11006KT 10SM CLR A3013 RMK MADISHF
DLN,2017-04-01 06:20,-112.5525,45.2554,M,M,M,120.00,7.00,M,30.13,M,10.00,M,CLR,M,M,M,M,M,M,M,M,KDLN 010620Z AUTO 12007KT 10SM CLR A3013 RMK MADISHF
DLN,2017-04-01 06:25,-112.5525,45.2554,M,M,M,130.00,7.00,M,30.13,M,10.00,M,CLR,M,M,M,M,M,M,M,M,KDLN 010625Z AUTO 13007KT 10SM CLR A3013 RMK MADISHF
DLN,2017-04-01 06:35,-112.5525,45.2554,M,M,M,120.00,7.00,M,30.13,M,10.00,M,CLR,M,M,M,M,M,M,M,M,KDLN 010635Z AUTO 12007KT 10SM CLR A3013 RMK MADISHF
DLN,2017-04-01 06:40,-112.5525,45.2554,M,M,M,120.00,7.00,M,30.13,M,10.00,M,CLR,M,M,M,M,M,M,M,M,KDLN 010640Z AUTO 12007KT 10SM CLR A3013 RMK MADISHF
DLN,2017-04-01 06:45,-112.5525,45.2554,M,M,M,130.00,6.00,M,30.13,M,10.00,M,CLR,M,M,M,M,M,M,M,M,KDLN 010645Z AUTO 13006KT 10SM CLR A3013 RMK MADISHF
DLN,2017-04-01 06:50,-112.5525,45.2554,M,M,M,120.00,6.00,M,30.13,M,10.00,M,CLR,M,M,M,M,M,M,M,M,KDLN 010650Z AUTO 12006KT 10SM CLR A3013 RMK MADISHF
DLN,2017-04-01 06:53,-112.5525,45.2554,34.00,28.90,81.37,120.00,6.00,0.00,30.13,1019.90,10.00,M,CLR,M,M,M,M,M,M,M,M,KDLN 010653Z AUTO 12006KT 10SM CLR 01/M02 A3013 RMK AO2 SLP199 T00111017 401170006 $
DLN,2017-04-01 06:55,-112.5525,45.2554,M,M,M,120.00,6.00,M,30.13,M,10.00,M,CLR,M,M,M,M,M,M,M,M,KDLN 010655Z AUTO 12006KT 10SM CLR A3013 RMK MADISHF
DLN,2017-04-01 07:00,-112.5525,45.2554,M,M,M,110.00,6.00,M,30.14,M,10.00,M,CLR,M,M,M,M,M,M,M,M,KDLN 010700Z AUTO 11006KT 10SM CLR A3014 RMK MADISHF
DLN,2017-04-01 07:05,-112.5525,45.2554,M,M,M,110.00,5.00,M,30.14,M,10.00,M,CLR,M,M,M,M,M,M,M,M,KDLN 010705Z AUTO 11005KT 10SM CLR A3014 RMK MADISHF
DLN,2017-04-01 07:10,-112.5525,45.2554,M,M,M,130.00,6.00,M,30.13,M,10.00,M,CLR,M,M,M,M,M,M,M,M,KDLN 010710Z AUTO 13006KT 10SM CLR A3013 RMK MADISHF
DLN,2017-04-01 07:15,-112.5525,45.2554,M,M,M,130.00,5.00,M,30.13,M,10.00,M,CLR,M,M,M,M,M,M,M,M,KDLN 010715Z AUTO 13005KT 10SM CLR A3013 RMK MADISHF
DLN,2017-04-01 07:20,-112.5525,45.2554,M,M,M,120.00,5.00,M,30.13,M,10.00,M,CLR,M,M,M,M,M,M,M,M,KDLN 010720Z AUTO 12005KT 10SM CLR A3013 RMK MADISHF
DLN,2017-04-01 07:25,-112.5525,45.2554,M,M,M,130.00,7.00,M,30.13,M,10.00,M,CLR,M,M,M,M,M,M,M,M,KDLN 010725Z AUTO 13007KT 10SM CLR A3013 RMK MADISHF
DLN,2017-04-01 07:35,-112.5525,45.2554,M,M,M,170.00,4.00,M,30.13,M,10.00,M,CLR,M,M,M,M,M,M,M,M,KDLN 010735Z AUTO 17004KT 10SM CLR A3013 RMK MADISHF
DLN,2017-04-01 07:40,-112.5525,45.2554,M,M,M,180.00,4.00,M,30.13,M,10.00,M,CLR,M,M,M,M,M,M,M,M,KDLN 010740Z AUTO 18004KT 10SM CLR A3013 RMK MADISHF
DLN,2017-04-01 07:45,-112.5525,45.2554,M,M,M,190.00,6.00,M,30.13,M,10.00,M,CLR,M,M,M,M,M,M,M,M,KDLN 010745Z AUTO 19006KT 10SM CLR A3013 RMK MADISHF
DLN,2017-04-01 07:50,-112.5525,45.2554,M,M,M,200.00,6.00,M,30.13,M,10.00,M,CLR,M,M,M,M,M,M,M,M,KDLN 010750Z AUTO 20006KT 10SM CLR A3013 RMK MADISHF
DLN,2017-04-01 07:53,-112.5525,45.2554,33.10,28.00,81.30,190.00,6.00,0.00,30.13,1020.10,10.00,M,CLR,M,M,M,M,M,M,M,M,KDLN 010753Z AUTO 19006KT 10SM CLR 01/M02 A3013 RMK AO2 SLP201 T00061022 $
DLN,2017-04-01 07:55,-112.5525,45.2554,M,M,M,190.00,7.00,M,30.13,M,10.00,M,CLR,M,M,M,M,M,M,M,M,KDLN 010755Z AUTO 19007KT 10SM CLR A3013 RMK MADISHF
DLN,2017-04-01 08:00,-112.5525,45.2554,M,M,M,190.00,6.00,M,30.14,M,10.00,M,CLR,M,M,M,M,M,M,M,M,KDLN 010800Z AUTO 19006KT 10SM CLR A3014 RMK MADISHF
DLN,2017-04-01 08:05,-112.5525,45.2554,M,M,M,200.00,6.00,M,30.13,M,10.00,M,CLR,M,M,M,M,M,M,M,M,KDLN 010805Z AUTO 20006KT 10SM CLR A3013 RMK MADISHF
DLN,2017-04-01 08:15,-112.5525,45.2554,M,M,M,170.00,4.00,M,30.13,M,10.00,M,CLR,M,M,M,M,M,M,M,M,KDLN 010815Z AUTO 17004KT 10SM CLR A3013 RMK MADISHF
DLN,2017-04-01 08:20,-112.5525,45.2554,M,M,M,190.00,4.00,M,30.13,M,10.00,M,CLR,M,M,M,M,M,M,M,M,KDLN 010820Z AUTO 19004KT 10SM CLR A3013 RMK MADISHF
DLN,2017-04-01 08:25,-112.5525,45.2554,M,M,M,190.00,6.00,M,30.13,M,10.00,M,CLR,M,M,M,M,M,M,M,M,KDLN 010825Z AUTO 19006KT 10SM CLR A3013 RMK MADISHF
DLN,2017-04-01 08:30,-112.5525,45.2554,M,M,M,200.00,5.00,M,30.14,M,10.00,M,CLR,M,M,M,M,M,M,M,M,KDLN 010830Z AUTO 20005KT 10SM CLR A3014 RMK MADISHF
DLN,2017-04-01 08:35,-112.5525,45.2554,M,M,M,200.00,4.00,M,30.14,M,10.00,M,CLR,M,M,M,M,M,M,M,M,KDLN 010835Z AUTO 20004KT 10SM CLR A3014 RMK MADISHF
DLN,2017-04-01 08:40,-112.5525,45.2554,M,M,M,200.00,4.00,M,30.14,M,10.00,M,CLR,M,M,M,M,M,M,M,M,KDLN 010840Z AUTO 20004KT 10SM CLR A3014 RMK MADISHF
DLN,2017-04-01 08:45,-112.5525,45.2554,M,M,M,210.00,4.00,M,30.14,M,10.00,M,CLR,M,M,M,M,M,M,M,M,KDLN 010845Z AUTO 21004KT 10SM CLR A3014 RMK MADISHF
DLN,2017-04-01 08:50,-112.5525,45.2554,M,M,M,190.00,4.00,M,30.14,M,10.00,M,CLR,M,M,M,M,M,M,M,M,KDLN 010850Z AUTO 19004KT 10SM CLR A3014 RMK MADISHF
DLN,2017-04-01 08:53,-112.5525,45.2554,35.10,28.90,77.88,180.00,4.00,0.00,30.14,1020.10,10.00,M,CLR,M,M,M,M,M,M,M,M,KDLN 010853Z AUTO 18004KT 10SM CLR 02/M02 A3014 RMK AO2 SLP201 T00171017 55000 $
DLN,2017-04-01 08:55,-112.5525,45.2554,M,M,M,170.00,4.00,M,30.14,M,10.00,M,CLR,M,M,M,M,M,M,M,M,KDLN 010855Z AUTO 17004KT 10SM CLR A3014 RMK MADISHF
DLN,2017-04-01 09:05,-112.5525,45.2554,M,M,M,140.00,5.00,M,30.14,M,10.00,M,CLR,M,M,M,M,M,M,M,M,KDLN 010905Z AUTO 14005KT 10SM CLR A3014 RMK MADISHF
DLN,2017-04-01 09:10,-112.5525,45.2554,M,M,M,150.00,5.00,M,30.13,M,10.00,M,CLR,M,M,M,M,M,M,M,M,KDLN 010910Z AUTO 15005KT 10SM CLR A3013 RMK MADISHF
DLN,2017-04-01 09:15,-112.5525,45.2554,M,M,M,150.00,5.00,M,30.13,M,10.00,M,CLR,M,M,M,M,M,M,M,M,KDLN 010915Z AUTO 15005KT 10SM CLR A3013 RMK MADISHF
DLN,2017-04-01 09:20,-112.5525,45.2554,M,M,M,140.00,6.00,M,30.13,M,10.00,M,CLR,M,M,M,M,M,M,M,M,KDLN 010920Z AUTO 14006KT 10SM CLR A3013 RMK MADISHF
DLN,2017-04-01 09:30,-112.5525,45.2554,M,M,M,130.00,6.00,M,30.13,M,10.00,M,CLR,M,M,M,M,M,M,M,M,KDLN 010930Z AUTO 13006KT 10SM CLR A3013 RMK MADISHF
DLN,2017-04-01 09:35,-112.5525,45.2554,M,M,M,160.00,5.00,M,30.12,M,10.00,M,CLR,M,M,M,M,M,M,M,M,KDLN 010935Z AUTO 16005KT 10SM CLR A3012 RMK MADISHF
DLN,2017-04-01 09:45,-112.5525,45.2554,M,M,M,180.00,6.00,M,30.12,M,10.00,M,CLR,M,M,M,M,M,M,M,M,KDLN 010945Z AUTO 18006KT 10SM CLR A3012 RMK MADISHF
DLN,2017-04-01 09:50,-112.5525,45.2554,M,M,M,170.00,6.00,M,30.12,M,10.00,M,CLR,M,M,M,M,M,M,M,M,KDLN 010950Z AUTO 17006KT 10SM CLR A3012 RMK MADISHF
DLN,2017-04-01 09:53,-112.5525,45.2554,32.00,28.00,84.98,160.00,5.00,0.00,30.12,1019.30,10.00,M,CLR,M,M,M,M,M,M,M,M,KDLN 010953Z AUTO 16005KT 10SM CLR 00/M02 A3012 RMK AO2 SLP193 T00001022 $
DLN,2017-04-01 09:55,-112.5525,45.2554,M,M,M,160.00,5.00,M,30.12,M,10.00,M,CLR,M,M,M,M,M,M,M,M,KDLN 010955Z AUTO 16005KT 10SM CLR A3012 RMK MADISHF
DLN,2017-04-01 10:00,-112.5525,45.2554,M,M,M,170.00,3.00,M,30.13,M,10.00,M,CLR,M,M,M,M,M,M,M,M,KDLN 011000Z AUTO 17003KT 10SM CLR A3013 RMK MADISHF
DLN,2017-04-01 10:10,-112.5525,45.2554,M,M,M,200.00,4.00,M,30.13,M,10.00,M,CLR,M,M,M,M,M,M,M,M,KDLN 011010Z AUTO 20004KT 10SM CLR A3013 RMK MADISHF
DLN,2017-04-01 10:15,-112.5525,45.2554,M,M,M,200.00,4.00,M,30.13,M,10.00,M,CLR,M,M,M,M,M,M,M,M,KDLN 011015Z AUTO 20004KT 10SM CLR A3013 RMK MADISHF
DLN,2017-04-01 10:25,-112.5525,45.2554,M,M,M,210.00,5.00,M,30.13,M,10.00,M,CLR,M,M,M,M,M,M,M,M,KDLN 011025Z AUTO 21005KT 10SM CLR A3013 RMK MADISHF
DLN,2017-04-01 10:35,-112.5525,45.2554,M,M,M,210.00,5.00,M,30.14,M,10.00,M,CLR,M,M,M,M,M,M,M,M,KDLN 011035Z AUTO 21005KT 10SM CLR A3014 RMK MADISHF
DLN,2017-04-01 10:40,-112.5525,45.2554,M,M,M,210.00,5.00,M,30.14,M,10.00,M,CLR,M,M,M,M,M,M,M,M,KDLN 011040Z AUTO 21005KT 10SM CLR A3014 RMK MADISHF
DLN,2017-04-01 10:45,-112.5525,45.2554,M,M,M,210.00,6.00,M,30.14,M,10.00,M,CLR,M,M,M,M,M,M,M,M,KDLN 011045Z AUTO 21006KT 10SM CLR A3014 RMK MADISHF
DLN,2017-04-01 10:50,-112.5525,45.2554,M,M,M,200.00,6.00,M,30.13,M,10.00,M,CLR,M,M,M,M,M,M,M,M,KDLN 011050Z AUTO 20006KT 10SM CLR A3013 RMK MADISHF
DLN,2017-04-01 10:53,-112.5525,45.2554,30.90,26.10,82.15,200.00,6.00,0.00,30.14,1020.00,10.00,M,CLR,M,M,M,M,M,M,M,M,KDLN 011053Z AUTO 20006KT 10SM CLR M01/M03 A3014 RMK AO2 SLP200 T10061033 $
DLN,2017-04-01 10:55,-112.5525,45.2554,M,M,M,210.00,6.00,M,30.14,M,10.00,M,CLR,M,M,M,M,M,M,M,M,KDLN 011055Z AUTO 21006KT 10SM CLR A3014 RMK MADISHF
DLN,2017-04-01 11:00,-112.5525,45.2554,M,M,M,210.00,6.00,M,30.14,M,10.00,M,CLR,M,M,M,M,M,M,M,M,KDLN 011100Z AUTO 21006KT 10SM CLR A3014 RMK MADISHF
DLN,2017-04-01 11:10,-112.5525,45.2554,M,M,M,210.00,5.00,M,30.13,M,10.00,M,CLR,M,M,M,M,M,M,M,M,KDLN 011110Z AUTO 21005KT 10SM CLR A3013 RMK MADISHF
DLN,2017-04-01 11:15,-112.5525,45.2554,M,M,M,210.00,5.00,M,30.13,M,10.00,M,CLR,M,M,M,M,M,M,M,M,KDLN 011115Z AUTO 21005KT 10SM CLR A3013 RMK MADISHF
DLN,2017-04-01 11:20,-112.5525,45.2554,M,M,M,210.00,5.00,M,30.13,M,10.00,M,CLR,M,M,M,M,M,M,M,M,KDLN 011120Z AUTO 21005KT 10SM CLR A3013 RMK MADISHF
DLN,2017-04-01 11:25,-112.5525,45.2554,M,M,M,180.00,4.00,M,30.13,M,10.00,M,CLR,M,M,M,M,M,M,M,M,KDLN 011125Z AUTO 18004KT 10SM CLR A3013 RMK MADISHF
DLN,2017-04-01 11:30,-112.5525,45.2554,M,M,M,140.00,3.00,M,30.13,M,10.00,M,CLR,M,M,M,M,M,M,M,M,KDLN 011130Z AUTO 14003KT 10SM CLR A3013 RMK MADISHF
DLN,2017-04-01 11:35,-112.5525,45.2554,M,M,M,120.00,3.00,M,30.13,M,10.00,M,CLR,M,M,M,M,M,M,M,M,KDLN 011135Z AUTO 12003KT 10SM CLR A3013 RMK MADISHF
DLN,2017-04-01 11:40,-112.5525,45.2554,M,M,M,120.00,3.00,M,30.12,M,10.00,M,CLR,M,M,M,M,M,M,M,M,KDLN 011140Z AUTO 12003KT 10SM CLR A3012 RMK MADISHF
DLN,2017-04-01 11:45,-112.5525,45.2554,M,M,M,130.00,3.00,M,30.13,M,10.00,M,CLR,M,M,M,M,M,M,M,M,KDLN 011145Z AUTO 13003KT 10SM CLR A3013 RMK MADISHF
DLN,2017-04-01 11:50,-112.5525,45.2554,M,M,M,0.00,0.00,M,30.13,M,10.00,M,CLR,M,M,M,M,M,M,M,M,KDLN 011150Z AUTO 00000KT 10SM CLR A3013 RMK MADISHF
DLN,2017-04-01 11:53,-112.5525,45.2554,28.00,24.10,85.08,0.00,0.00,0.00,30.13,1020.50,10.00,M,CLR,M,M,M,M,M,M,M,M,KDLN 011153Z AUTO 00000KT 10SM CLR M02/M04 A3013 RMK AO2 SLP205 T10221044 10022 21022 56004 $
DLN,2017-04-01 11:55,-112.5525,45.2554,M,M,M,0.00,0.00,M,30.13,M,10.00,M,CLR,M,M,M,M,M,M,M,M,KDLN 011155Z AUTO 00000KT 10SM CLR A3013 RMK MADISHF
DLN,2017-04-01 12:00,-112.5525,45.2554,M,M,M,0.00,0.00,M,30.12,M,10.00,M,CLR,M,M,M,M,M,M,M,M,KDLN 011200Z AUTO 00000KT 10SM CLR A3012 RMK MADISHF
DLN,2017-04-01 12:05,-112.5525,45.2554,M,M,M,220.00,5.00,M,30.12,M,10.00,M,CLR,M,M,M,M,M,M,M,M,KDLN 011205Z AUTO 22005KT 10SM CLR A3012 RMK MADISHF
DLN,2017-04-01 12:15,-112.5525,45.2554,M,M,M,240.00,6.00,M,30.13,M,10.00,M,CLR,M,M,M,M,M,M,M,M,KDLN 011215Z AUTO 24006KT 10SM CLR A3013 RMK MADISHF
DLN,2017-04-01 12:20,-112.5525,45.2554,M,M,M,240.00,6.00,M,30.13,M,10.00,M,CLR,M,M,M,M,M,M,M,M,KDLN 011220Z AUTO 24006KT 10SM CLR A3013 RMK MADISHF
DLN,2017-04-01 12:25,-112.5525,45.2554,M,M,M,230.00,6.00,M,30.13,M,10.00,M,CLR,M,M,M,M,M,M,M,M,KDLN 011225Z AUTO 23006KT 10SM CLR A3013 RMK MADISHF
DLN,2017-04-01 12:30,-112.5525,45.2554,M,M,M,230.00,6.00,M,30.13,M,10.00,M,CLR,M,M,M,M,M,M,M,M,KDLN 011230Z AUTO 23006KT 10SM CLR A3013 RMK MADISHF
DLN,2017-04-01 12:35,-112.5525,45.2554,M,M,M,200.00,6.00,M,30.13,M,10.00,M,CLR,M,M,M,M,M,M,M,M,KDLN 011235Z AUTO 20006KT 10SM CLR A3013 RMK MADISHF
DLN,2017-04-01 12:40,-112.5525,45.2554,M,M,M,180.00,6.00,M,30.12,M,10.00,M,CLR,M,M,M,M,M,M,M,M,KDLN 011240Z AUTO 18006KT 10SM CLR A3012 RMK MADISHF
DLN,2017-04-01 12:45,-112.5525,45.2554,M,M,M,180.00,8.00,M,30.11,M,10.00,M,CLR,M,M,M,M,M,M,M,M,KDLN 011245Z AUTO 18008KT 10SM CLR A3011 RMK MADISHF
DLN,2017-04-01 12:50,-112.5525,45.2554,M,M,M,170.00,8.00,M,30.11,M,10.00,M,CLR,M,M,M,M,M,M,M,M,KDLN 011250Z AUTO 17008KT 10SM CLR A3011 RMK MADISHF
DLN,2017-04-01 12:53,-112.5525,45.2554,28.00,24.10,85.08,170.00,8.00,0.00,30.11,1020.00,10.00,M,CLR,M,M,M,M,M,M,M,M,KDLN 011253Z AUTO 17008KT 10SM CLR M02/M04 A3011 RMK AO2 SLP200 T10221044 $
DLN,2017-04-01 12:55,-112.5525,45.2554,M,M,M,170.00,7.00,M,30.11,M,10.00,M,CLR,M,M,M,M,M,M,M,M,KDLN 011255Z AUTO 17007KT 10SM CLR A3011 RMK MADISHF
DLN,2017-04-01 13:00,-112.5525,45.2554,M,M,M,180.00,6.00,M,30.10,M,10.00,M,CLR,M,M,M,M,M,M,M,M,KDLN 011300Z AUTO 18006KT 10SM CLR A3010 RMK MADISHF
DLN,2017-04-01 13:05,-112.5525,45.2554,M,M,M,180.00,6.00,M,30.10,M,10.00,M,CLR,M,M,M,M,M,M,M,M,KDLN 011305Z AUTO 18006KT 10SM CLR A3010 RMK MADISHF
DLN,2017-04-01 13:15,-112.5525,45.2554,M,M,M,190.00,5.00,M,30.09,M,10.00,M,CLR,M,M,M,M,M,M,M,M,KDLN 011315Z AUTO 19005KT 10SM CLR A3009 RMK MADISHF
DLN,2017-04-01 13:20,-112.5525,45.2554,M,M,M,180.00,4.00,M,30.09,M,10.00,M,CLR,M,M,M,M,M,M,M,M,KDLN 011320Z AUTO 18004KT 10SM CLR A3009 RMK MADISHF
DLN,2017-04-01 13:25,-112.5525,45.2554,M,M,M,210.00,5.00,M,30.09,M,10.00,M,CLR,M,M,M,M,M,M,M,M,KDLN 011325Z AUTO 21005KT 10SM CLR A3009 RMK MADISHF
DLN,2017-04-01 13:30,-112.5525,45.2554,M,M,M,220.00,6.00,M,30.09,M,10.00,M,CLR,M,M,M,M,M,M,M,M,KDLN 011330Z AUTO 22006KT 10SM CLR A3009 RMK MADISHF
DLN,2017-04-01 13:35,-112.5525,45.2554,M,M,M,210.00,4.00,M,30.09,M,10.00,M,CLR,M,M,M,M,M,M,M,M,KDLN 011335Z AUTO 21004KT 10SM CLR A3009 RMK MADISHF
DLN,2017-04-01 13:40,-112.5525,45.2554,M,M,M,220.00,5.00,M,30.09,M,10.00,M,CLR,M,M,M,M,M,M,M,M,KDLN 011340Z AUTO 22005KT 10SM CLR A3009 RMK MADISHF
DLN,2017-04-01 13:45,-112.5525,45.2554,M,M,M,200.00,5.00,M,30.09,M,10.00,M,CLR,M,M,M,M,M,M,M,M,KDLN 011345Z AUTO 20005KT 10SM CLR A3009 RMK MADISHF
DLN,2017-04-01 13:53,-112.5525,45.2554,30.00,26.10,85.21,200.00,6.00,0.00,30.09,1019.40,10.00,M,CLR,M,M,M,M,M,M,M,M,KDLN 011353Z AUTO 20006KT 10SM CLR M01/M03 A3009 RMK AO2 SLP194 T10111033 $
DLN,2017-04-01 13:55,-112.5525,45.2554,M,M,M,200.00,6.00,M,30.09,M,10.00,M,CLR,M,M,M,M,M,M,M,M,KDLN 011355Z AUTO 20006KT 10SM CLR A3009 RMK MADISHF
DLN,2017-04-01 14:00,-112.5525,45.2554,M,M,M,220.00,6.00,M,30.09,M,10.00,M,CLR,M,M,M,M,M,M,M,M,KDLN 011400Z AUTO 22006KT 10SM CLR A3009 RMK MADISHF
DLN,2017-04-01 14:05,-112.5525,45.2554,M,M,M,220.00,6.00,M,30.09,M,10.00,M,CLR,M,M,M,M,M,M,M,M,KDLN 011405Z AUTO 22006KT 10SM CLR A3009 RMK MADISHF
DLN,2017-04-01 14:10,-112.5525,45.2554,M,M,M,220.00,7.00,M,30.09,M,10.00,M,CLR,M,M,M,M,M,M,M,M,KDLN 011410Z AUTO 22007KT 10SM CLR A3009 RMK MADISHF
DLN,2017-04-01 14:20,-112.5525,45.2554,M,M,M,220.00,8.00,M,30.10,M,10.00,M,CLR,M,M,M,M,M,M,M,M,KDLN 011420Z AUTO 22008KT 10SM CLR A3010 RMK MADISHF
DLN,2017-04-01 14:25,-112.5525,45.2554,M,M,M,220.00,8.00,M,30.11,M,10.00,M,CLR,M,M,M,M,M,M,M,M,KDLN 011425Z AUTO 22008KT 10SM CLR A3011 RMK MADISHF
DLN,2017-04-01 14:35,-112.5525,45.2554,M,M,M,210.00,8.00,M,30.11,M,10.00,M,CLR,M,M,M,M,M,M,M,M,KDLN 011435Z AUTO 21008KT 10SM CLR A3011 RMK MADISHF
DLN,2017-04-01 14:40,-112.5525,45.2554,M,M,M,210.00,8.00,M,30.12,M,10.00,M,CLR,M,M,M,M,M,M,M,M,KDLN 011440Z AUTO 21008KT 10SM CLR A3012 RMK MADISHF
DLN,2017-04-01 14:45,-112.5525,45.2554,M,M,M,190.00,8.00,M,30.12,M,10.00,M,CLR,M,M,M,M,M,M,M,M,KDLN 011445Z AUTO 19008KT 10SM CLR A3012 RMK MADISHF
DLN,2017-04-01 14:50,-112.5525,45.2554,M,M,M,180.00,7.00,M,30.12,M,10.00,M,CLR,M,M,M,M,M,M,M,M,KDLN 011450Z AUTO 18007KT 10SM CLR A3012 RMK MADISHF
DLN,2017-04-01 14:53,-112.5525,45.2554,33.10,28.00,81.30,180.00,6.00,0.00,30.12,1020.20,10.00,M,CLR,M,M,M,M,M,M,M,M,KDLN 011453Z AUTO 18006KT 10SM CLR 01/M02 A3012 RMK AO2 SLP202 T00061022 55002 $
DLN,2017-04-01 15:00,-112.5525,45.2554,M,M,M,180.00,7.00,M,30.12,M,10.00,M,CLR,M,M,M,M,M,M,M,M,KDLN 011500Z AUTO 18007KT 10SM CLR A3012 RMK MADISHF
DLN,2017-04-01 15:05,-112.5525,45.2554,M,M,M,180.00,7.00,M,30.12,M,10.00,M,CLR,M,M,M,M,M,M,M,M,KDLN 011505Z AUTO 18007KT 10SM CLR A3012 RMK MADISHF
DLN,2017-04-01 15:15,-112.5525,45.2554,M,M,M,180.00,6.00,M,30.13,M,10.00,M,CLR,M,M,M,M,M,M,M,M,KDLN 011515Z AUTO 18006KT 10SM CLR A3013 RMK MADISHF
DLN,2017-04-01 15:20,-112.5525,45.2554,M,M,M,200.00,8.00,M,30.13,M,10.00,M,CLR,M,M,M,M,M,M,M,M,KDLN 011520Z AUTO 20008KT 10SM CLR A3013 RMK MADISHF
DLN,2017-04-01 15:30,-112.5525,45.2554,M,M,M,190.00,6.00,M,30.13,M,10.00,M,CLR,M,M,M,M,M,M,M,M,KDLN 011530Z AUTO 19006KT 10SM CLR A3013 RMK MADISHF
DLN,2017-04-01 15:35,-112.5525,45.2554,M,M,M,170.00,6.00,M,30.13,M,10.00,M,CLR,M,M,M,M,M,M,M,M,KDLN 011535Z AUTO 17006KT 10SM CLR A3013 RMK MADISHF
DLN,2017-04-01 15:40,-112.5525,45.2554,M,M,M,180.00,3.00,M,30.13,M,10.00,M,CLR,M,M,M,M,M,M,M,M,KDLN 011540Z AUTO 18003KT 10SM CLR A3013 RMK MADISHF
DLN,2017-04-01 15:45,-112.5525,45.2554,M,M,M,180.00,3.00,M,30.13,M,10.00,M,CLR,M,M,M,M,M,M,M,M,KDLN 011545Z AUTO 18003KT 10SM CLR A3013 RMK VRB03KT  MADISHF
DLN,2017-04-01 15:50,-112.5525,45.2554,M,M,M,200.00,5.00,M,30.13,M,10.00,M,CLR,M,M,M,M,M,M,M,M,KDLN 011550Z AUTO 20005KT 10SM CLR A3013 RMK MADISHF
DLN,2017-04-01 15:53,-112.5525,45.2554,39.00,30.90,72.45,210.00,6.00,0.00,30.12,1020.10,10.00,M,CLR,M,M,M,M,M,M,M,M,KDLN 011553Z AUTO 21006KT 10SM CLR 04/M01 A3012 RMK AO2 SLP201 T00391006 $
DLN,2017-04-01 15:55,-112.5525,45.2554,M,M,M,200.00,5.00,M,30.12,M,10.00,M,CLR,M,M,M,M,M,M,M,M,KDLN 011555Z AUTO 20005KT 10SM CLR A3012 RMK MADISHF
DLN,2017-04-01 16:00,-112.5525,45.2554,M,M,M,190.00,6.00,M,30.12,M,10.00,M,CLR,M,M,M,M,M,M,M,M,KDLN 011600Z AUTO 19006KT 10SM CLR A3012 RMK MADISHF
DLN,2017-04-01 16:10,-112.5525,45.2554,M,M,M,180.00,4.00,M,30.12,M,10.00,M,CLR,M,M,M,M,M,M,M,M,KDLN 011610Z AUTO 18004KT 10SM CLR A3012 RMK MADISHF
DLN,2017-04-01 16:15,-112.5525,45.2554,M,M,M,190.00,5.00,M,30.12,M,10.00,M,CLR,M,M,M,M,M,M,M,M,KDLN 011615Z AUTO 19005KT 10SM CLR A3012 RMK MADISHF
DLN,2017-04-01 16:25,-112.5525,45.2554,M,M,M,190.00,7.00,M,30.11,M,10.00,M,CLR,M,M,M,M,M,M,M,M,KDLN 011625Z AUTO 19007KT 10SM CLR A3011 RMK MADISHF
DLN,2017-04-01 16:30,-112.5525,45.2554,M,M,M,200.00,7.00,M,30.10,M,10.00,M,CLR,M,M,M,M,M,M,M,M,KDLN 011630Z AUTO 20007KT 10SM CLR A3010 RMK MADISHF
DLN,2017-04-01 16:40,-112.5525,45.2554,M,M,M,180.00,7.00,M,30.09,M,10.00,M,CLR,M,M,M,M,M,M,M,M,KDLN 011640Z AUTO 18007KT 10SM CLR A3009 RMK MADISHF
DLN,2017-04-01 16:45,-112.5525,45.2554,M,M,M,200.00,7.00,M,30.09,M,10.00,M,CLR,M,M,M,M,M,M,M,M,KDLN 011645Z AUTO 20007KT 10SM CLR A3009 RMK MADISHF
DLN,2017-04-01 16:50,-112.5525,45.2554,M,M,M,210.00,7.00,M,30.09,M,10.00,M,CLR,M,M,M,M,M,M,M,M,KDLN 011650Z AUTO 21007KT 10SM CLR A3009 RMK MADISHF
DLN,2017-04-01 16:53,-112.5525,45.2554,44.10,30.90,59.50,210.00,7.00,0.00,30.09,1018.80,10.00,M,CLR,M,M,M,M,M,M,M,M,KDLN 011653Z AUTO 21007KT 10SM CLR 07/M01 A3009 RMK AO2 SLP188 T00671006 $
DLN,2017-04-01 16:55,-112.5525,45.2554,M,M,M,230.00,7.00,M,30.09,M,10.00,M,CLR,M,M,M,M,M,M,M,M,KDLN 011655Z AUTO 23007KT 10SM CLR A3009 RMK MADISHF
DLN,2017-04-01 17:05,-112.5525,45.2554,M,M,M,220.00,4.00,M,30.09,M,10.00,M,CLR,M,M,M,M,M,M,M,M,KDLN 011705Z AUTO 22004KT 10SM CLR A3009 RMK MADISHF
DLN,2017-04-01 17:10,-112.5525,45.2554,M,M,M,230.00,5.00,M,30.09,M,10.00,M,CLR,M,M,M,M,M,M,M,M,KDLN 011710Z AUTO 23005KT 10SM CLR A3009 RMK MADISHF
DLN,2017-04-01 17:20,-112.5525,45.2554,M,M,M,230.00,4.00,M,30.09,M,10.00,M,CLR,M,M,M,M,M,M,M,M,KDLN 011720Z AUTO 23004KT 10SM CLR A3009 RMK MADISHF
DLN,2017-04-01 17:25,-112.5525,45.2554,M,M,M,210.00,3.00,M,30.09,M,10.00,M,CLR,M,M,M,M,M,M,M,M,KDLN 011725Z AUTO 21003KT 10SM CLR A3009 RMK VRB03KT  MADISHF
DLN,2017-04-01 17:30,-112.5525,45.2554,M,M,M,230.00,8.00,M,30.09,M,10.00,M,CLR,M,M,M,M,M,M,M,M,KDLN 011730Z AUTO 23008KT 10SM CLR A3009 RMK MADISHF
DLN,2017-04-01 17:35,-112.5525,45.2554,M,M,M,230.00,4.00,M,30.09,M,10.00,M,CLR,M,M,M,M,M,M,M,M,KDLN 011735Z AUTO 23004KT 10SM CLR A3009 RMK VRB04KT  MADISHF
DLN,2017-04-01 17:40,-112.5525,45.2554,M,M,M,220.00,7.00,M,30.09,M,10.00,M,CLR,M,M,M,M,M,M,M,M,KDLN 011740Z AUTO 22007KT 10SM CLR A3009 RMK MADISHF
DLN,2017-04-01 17:50,-112.5525,45.2554,M,M,M,220.00,9.00,M,30.07,M,10.00,M,CLR,M,M,M,M,M,M,M,M,KDLN 011750Z AUTO 22009KT 10SM CLR A3007 RMK MADISHF
DLN,2017-04-01 17:53,-112.5525,45.2554,48.00,30.00,49.49,230.00,10.00,0.00,30.07,1017.80,10.00,M,CLR,M,M,M,M,M,M,M,M,KDLN 011753Z AUTO 23010KT 10SM CLR 09/M01 A3007 RMK AO2 SLP178 T00891011 10089 21033 58014 $
DLN,2017-04-01 17:55,-112.5525,45.2554,M,M,M,210.00,5.00,M,30.07,M,10.00,M,CLR,M,M,M,M,M,M,M,M,KDLN 011755Z AUTO 21005KT 10SM CLR A3007 RMK MADISHF
DLN,2017-04-01 18:00,-112.5525,45.2554,M,M,M,220.00,6.00,M,30.07,M,10.00,M,CLR,M,M,M,M,M,M,M,M,KDLN 011800Z AUTO 22006KT 10SM CLR A3007 RMK MADISHF
DLN,2017-04-01 18:05,-112.5525,45.2554,M,M,M,220.00,9.00,M,30.07,M,10.00,M,CLR,M,M,M,M,M,M,M,M,KDLN 011805Z AUTO 22009KT 10SM CLR A3007 RMK MADISHF
DLN,2017-04-01 18:10,-112.5525,45.2554,M,M,M,220.00,8.00,M,30.06,M,10.00,M,CLR,M,M,M,M,M,M,M,M,KDLN 011810Z AUTO 22008KT 10SM CLR A3006 RMK MADISHF
DLN,2017-04-01 18:15,-112.5525,45.2554,M,M,M,190.00,10.00,M,30.06,M,10.00,M,CLR,M,M,M,M,M,M,M,M,KDLN 011815Z AUTO 19010KT 10SM CLR A3006 RMK MADISHF
DLN,2017-04-01 18:25,-112.5525,45.2554,M,M,M,230.00,8.00,M,30.06,M,10.00,M,CLR,M,M,M,M,M,M,M,M,KDLN 011825Z AUTO 23008KT 10SM CLR A3006 RMK MADISHF
DLN,2017-04-01 18:30,-112.5525,45.2554,M,M,M,190.00,9.00,M,30.05,M,10.00,14.00,CLR,M,M,M,M,M,M,M,M,KDLN 011830Z AUTO 19009G14KT 10SM CLR A3005 RMK MADISHF
DLN,2017-04-01 18:35,-112.5525,45.2554,M,M,M,220.00,9.00,M,30.05,M,10.00,M,CLR,M,M,M,M,M,M,M,M,KDLN 011835Z AUTO 22009KT 10SM CLR A3005 RMK MADISHF
DLN,2017-04-01 18:40,-112.5525,45.2554,M,M,M,240.00,11.00,M,30.05,M,10.00,M,CLR,M,M,M,M,M,M,M,M,KDLN 011840Z AUTO 24011KT 10SM CLR A3005 RMK MADISHF
DLN,2017-04-01 18:50,-112.5525,45.2554,M,M,M,200.00,12.00,M,30.05,M,10.00,M,CLR,M,M,M,M,M,M,M,M,KDLN 011850Z AUTO 20012KT 10SM CLR A3005 RMK MADISHF
DLN,2017-04-01 18:53,-112.5525,45.2554,52.00,28.00,39.30,210.00,13.00,0.00,30.05,1016.70,10.00,17.00,CLR,M,M,M,M,M,M,M,M,KDLN 011853Z AUTO 21013G17KT 10SM CLR 11/M02 A3005 RMK AO2 SLP167 T01111022 $
DLN,2017-04-01 18:55,-112.5525,45.2554,M,M,M,210.00,10.00,M,30.05,M,10.00,M,CLR,M,M,M,M,M,M,M,M,KDLN 011855Z AUTO 21010KT 10SM CLR A3005 RMK WND 18V25  MADISHF
DLN,2017-04-01 19:00,-112.5525,45.2554,M,M,M,190.00,9.00,M,30.04,M,10.00,M,CLR,M,M,M,M,M,M,M,M,KDLN 011900Z AUTO 19009KT 10SM CLR A3004 RMK MADISHF
DLN,2017-04-01 19:05,-112.5525,45.2554,M,M,M,240.00,8.00,M,30.04,M,10.00,M,CLR,M,M,M,M,M,M,M,M,KDLN 011905Z AUTO 24008KT 10SM CLR A3004 RMK MADISHF
DLN,2017-04-01 19:10,-112.5525,45.2554,M,M,M,240.00,9.00,M,30.04,M,10.00,M,CLR,M,M,M,M,M,M,M,M,KDLN 011910Z AUTO 24009KT 10SM CLR A3004 RMK MADISHF
DLN,2017-04-01 19:15,-112.5525,45.2554,M,M,M,210.00,8.00,M,30.04,M,10.00,M,CLR,M,M,M,M,M,M,M,M,KDLN 011915Z AUTO 21008KT 10SM CLR A3004 RMK MADISHF
DLN,2017-04-01 19:20,-112.5525,45.2554,M,M,M,220.00,6.00,M,30.04,M,10.00,M,CLR,M,M,M,M,M,M,M,M,KDLN 011920Z AUTO 22006KT 10SM CLR A3004 RMK MADISHF
DLN,2017-04-01 19:25,-112.5525,45.2554,M,M,M,200.00,13.00,M,30.04,M,10.00,M,CLR,M,M,M,M,M,M,M,M,KDLN 011925Z AUTO 20013KT 10SM CLR A3004 RMK MADISHF
DLN,2017-04-01 19:30,-112.5525,45.2554,M,M,M,210.00,7.00,M,30.03,M,10.00,M,CLR,M,M,M,M,M,M,M,M,KDLN 011930Z AUTO 21007KT 10SM CLR A3003 RMK MADISHF
DLN,2017-04-01 19:35,-112.5525,45.2554,M,M,M,200.00,11.00,M,30.03,M,10.00,M,CLR,M,M,M,M,M,M,M,M,KDLN 011935Z AUTO 20011KT 10SM CLR A3003 RMK MADISHF
DLN,2017-04-01 19:40,-112.5525,45.2554,M,M,M,210.00,13.00,M,30.03,M,10.00,M,CLR,M,M,M,M,M,M,M,M,KDLN 011940Z AUTO 21013KT 10SM CLR A3003 RMK MADISHF
DLN,2017-04-01 19:45,-112.5525,45.2554,M,M,M,190.00,13.00,M,30.02,M,10.00,M,CLR,M,M,M,M,M,M,M,M,KDLN 011945Z AUTO 19013KT 10SM CLR A3002 RMK MADISHF
DLN,2017-04-01 19:53,-112.5525,45.2554,55.00,26.10,32.56,210.00,9.00,0.00,30.02,1015.50,10.00,19.00,CLR,M,M,M,M,M,M,M,M,KDLN 011953Z AUTO 21009G19KT 10SM CLR 13/M03 A3002 RMK AO2 SLP155 T01281033 $
DLN,2017-04-01 19:55,-112.5525,45.2554,M,M,M,200.00,9.00,M,30.02,M,10.00,M,CLR,M,M,M,M,M,M,M,M,KDLN 011955Z AUTO 20009KT 10SM CLR A3002 RMK MADISHF
DLN,2017-04-01 20:00,-112.5525,45.2554,M,M,M,220.00,9.00,M,30.01,M,10.00,M,CLR,M,M,M,M,M,M,M,M,KDLN 012000Z AUTO 22009KT 10SM CLR A3001 RMK MADISHF
DLN,2017-04-01 20:05,-112.5525,45.2554,M,M,M,220.00,14.00,M,30.02,M,10.00,M,CLR,M,M,M,M,M,M,M,M,KDLN 012005Z AUTO 22014KT 10SM CLR A3002 RMK MADISHF
DLN,2017-04-01 20:10,-112.5525,45.2554,M,M,M,210.00,10.00,M,30.02,M,10.00,M,CLR,M,M,M,M,M,M,M,M,KDLN 012010Z AUTO 21010KT 10SM CLR A3002 RMK MADISHF
DLN,2017-04-01 20:20,-112.5525,45.2554,M,M,M,190.00,10.00,M,30.01,M,10.00,M,CLR,M,M,M,M,M,M,M,M,KDLN 012020Z AUTO 19010KT 10SM CLR A3001 RMK MADISHF
DLN,2017-04-01 20:25,-112.5525,45.2554,M,M,M,210.00,16.00,M,30.01,M,10.00,M,CLR,M,M,M,M,M,M,M,M,KDLN 012025Z AUTO 21016KT 10SM CLR A3001 RMK MADISHF
DLN,2017-04-01 20:30,-112.5525,45.2554,M,M,M,200.00,11.00,M,30.00,M,10.00,M,CLR,M,M,M,M,M,M,M,M,KDLN 012030Z AUTO 20011KT 10SM CLR A3000 RMK MADISHF
DLN,2017-04-01 20:35,-112.5525,45.2554,M,M,M,220.00,13.00,M,30.01,M,10.00,M,CLR,M,M,M,M,M,M,M,M,KDLN 012035Z AUTO 22013KT 10SM CLR A3001 RMK MADISHF
DLN,2017-04-01 20:40,-112.5525,45.2554,M,M,M,190.00,13.00,M,30.00,M,10.00,M,CLR,M,M,M,M,M,M,M,M,KDLN 012040Z AUTO 19013KT 10SM CLR A3000 RMK MADISHF
DLN,2017-04-01 20:45,-112.5525,45.2554,M,M,M,200.00,11.00,M,30.00,M,10.00,M,CLR,M,M,M,M,M,M,M,M,KDLN 012045Z AUTO 20011KT 10SM CLR A3000 RMK MADISHF
DLN,2017-04-01 20:50,-112.5525,45.2554,M,M,M,200.00,14.00,M,29.99,M,10.00,M,CLR,M,M,M,M,M,M,M,M,KDLN 012050Z AUTO 20014KT 10SM CLR A2999 RMK MADISHF
DLN,2017-04-01 20:53,-112.5525,45.2554,57.90,27.00,30.43,200.00,15.00,0.00,29.99,1013.90,10.00,19.00,CLR,M,M,M,M,M,M,M,M,KDLN 012053Z AUTO 20015G19KT 10SM CLR 14/M03 A2999 RMK AO2 SLP139 T01441028 57024 $
DLN,2017-04-01 20:55,-112.5525,45.2554,M,M,M,200.00,10.00,M,29.99,M,10.00,M,CLR,M,M,M,M,M,M,M,M,KDLN 012055Z AUTO 20010KT 10SM CLR A2999 RMK MADISHF
DLN,2017-04-01 21:00,-112.5525,45.2554,M,M,M,210.00,11.00,M,29.99,M,10.00,M,CLR,M,M,M,M,M,M,M,M,KDLN 012100Z AUTO 21011KT 10SM CLR A2999 RMK MADISHF
DLN,2017-04-01 21:05,-112.5525,45.2554,M,M,M,210.00,12.00,M,29.98,M,10.00,18.00,CLR,M,M,M,M,M,M,M,M,KDLN 012105Z AUTO 21012G18KT 10SM CLR A2998 RMK MADISHF
DLN,2017-04-01 21:10,-112.5525,45.2554,M,M,M,M,M,M,29.98,M,10.00,M,CLR,M,M,M,M,M,M,M,M,KDLN 012110Z AUTO /////KT 10SM CLR A2998 RMK MADISHF
DLN,2017-04-01 21:15,-112.5525,45.2554,M,M,M,M,M,M,29.97,M,10.00,18.00,CLR,M,M,M,M,M,M,M,M,KDLN 012115Z AUTO /////G18KT 10SM CLR A2997 RMK MADISHF
DLN,2017-04-01 21:20,-112.5525,45.2554,M,M,M,200.00,11.00,M,29.97,M,10.00,M,CLR,M,M,M,M,M,M,M,M,KDLN 012120Z AUTO 20011KT 10SM CLR A2997 RMK MADISHF
DLN,2017-04-01 21:25,-112.5525,45.2554,M,M,M,200.00,13.00,M,29.97,M,10.00,M,CLR,M,M,M,M,M,M,M,M,KDLN 012125Z AUTO 20013KT 10SM CLR A2997 RMK MADISHF
DLN,2017-04-01 21:35,-112.5525,45.2554,M,M,M,220.00,12.00,M,29.96,M,10.00,M,CLR,M,M,M,M,M,M,M,M,KDLN 012135Z AUTO 22012KT 10SM CLR A2996 RMK MADISHF
DLN,2017-04-01 21:40,-112.5525,45.2554,M,M,M,230.00,11.00,M,29.96,M,10.00,M,CLR,M,M,M,M,M,M,M,M,KDLN 012140Z AUTO 23011KT 10SM CLR A2996 RMK MADISHF
DLN,2017-04-01 21:45,-112.5525,45.2554,M,M,M,M,M,M,29.96,M,10.00,M,CLR,M,M,M,M,M,M,M,M,KDLN 012145Z AUTO /////KT 10SM CLR A2996 RMK MADISHF
DLN,2017-04-01 21:50,-112.5525,45.2554,M,M,M,240.00,15.00,M,29.96,M,10.00,M,CLR,M,M,M,M,M,M,M,M,KDLN 012150Z AUTO 24015KT 10SM CLR A2996 RMK MADISHF
DLN,2017-04-01 21:53,-112.5525,45.2554,60.10,24.10,24.93,210.00,16.00,0.00,29.96,1012.90,10.00,24.00,CLR,M,M,M,M,M,M,M,M,KDLN 012153Z AUTO 21016G24KT 10SM CLR 16/M04 A2996 RMK AO2 SLP129 T01561044 $
DLN,2017-04-01 21:55,-112.5525,45.2554,M,M,M,220.00,15.00,M,29.96,M,10.00,M,CLR,M,M,M,M,M,M,M,M,KDLN 012155Z AUTO 22015KT 10SM CLR A2996 RMK MADISHF
DLN,2017-04-01 22:00,-112.5525,45.2554,M,M,M,230.00,14.00,M,29.96,M,10.00,M,CLR,M,M,M,M,M,M,M,M,KDLN 012200Z AUTO 23014KT 10SM CLR A2996 RMK MADISHF
DLN,2017-04-01 22:05,-112.5525,45.2554,M,M,M,220.00,14.00,M,29.95,M,10.00,M,CLR,M,M,M,M,M,M,M,M,KDLN 012205Z AUTO 22014KT 10SM CLR A2995 RMK MADISHF
DLN,2017-04-01 22:10,-112.5525,45.2554,M,M,M,230.00,16.00,M,29.95,M,10.00,M,CLR,M,M,M,M,M,M,M,M,KDLN 012210Z AUTO 23016KT 10SM CLR A2995 RMK MADISHF
DLN,2017-04-01 22:15,-112.5525,45.2554,M,M,M,240.00,16.00,M,29.95,M,10.00,21.00,CLR,M,M,M,M,M,M,M,M,KDLN 012215Z AUTO 24016G21KT 10SM CLR A2995 RMK MADISHF
DLN,2017-04-01 22:25,-112.5525,45.2554,M,M,M,210.00,15.00,M,29.95,M,10.00,M,CLR,M,M,M,M,M,M,M,M,KDLN 012225Z AUTO 21015KT 10SM CLR A2995 RMK MADISHF
DLN,2017-04-01 22:30,-112.5525,45.2554,M,M,M,220.00,17.00,M,29.95,M,10.00,M,CLR,M,M,M,M,M,M,M,M,KDLN 012230Z AUTO 22017KT 10SM CLR A2995 RMK MADISHF
DLN,2017-04-01 22:35,-112.5525,45.2554,M,M,M,M,M,M,29.95,M,10.00,M,CLR,M,M,M,M,M,M,M,M,KDLN 012235Z AUTO /////KT 10SM CLR A2995 RMK MADISHF
DLN,2017-04-01 22:40,-112.5525,45.2554,M,M,M,200.00,17.00,M,29.95,M,10.00,M,CLR,M,M,M,M,M,M,M,M,KDLN 012240Z AUTO 20017KT 10SM CLR A2995 RMK MADISHF
DLN,2017-04-01 22:50,-112.5525,45.2554,M,M,M,210.00,15.00,M,29.95,M,10.00,M,CLR,M,M,M,M,M,M,M,M,KDLN 012250Z AUTO 21015KT 10SM CLR A2995 RMK MADISHF
DLN,2017-04-01 22:53,-112.5525,45.2554,59.00,27.00,29.25,210.00,15.00,0.00,29.95,1012.70,10.00,M,CLR,M,M,M,M,M,M,M,M,KDLN 012253Z AUTO 21015KT 10SM CLR 15/M03 A2995 RMK AO2 SLP127 T01501028 $
DLN,2017-04-01 22:55,-112.5525,45.2554,M,M,M,M,M,M,29.95,M,10.00,M,CLR,M,M,M,M,M,M,M,M,KDLN 012255Z AUTO /////KT 10SM CLR A2995 RMK MADISHF
DLN,2017-04-01 23:00,-112.5525,45.2554,M,M,M,M,M,M,29.94,M,10.00,M,CLR,M,M,M,M,M,M,M,M,KDLN 012300Z AUTO /////KT 10SM CLR A2994 RMK MADISHF
DLN,2017-04-01 23:05,-112.5525,45.2554,M,M,M,M,M,M,29.94,M,10.00,M,CLR,M,M,M,M,M,M,M,M,KDLN 012305Z AUTO /////KT 10SM CLR A2994 RMK MADISHF
DLN,2017-04-01 23:15,-112.5525,45.2554,M,M,M,210.00,16.00,M,29.94,M,10.00,M,CLR,M,M,M,M,M,M,M,M,KDLN 012315Z AUTO 21016KT 10SM CLR A2994 RMK MADISHF
DLN,2017-04-01 23:20,-112.5525,45.2554,M,M,M,M,M,M,29.94,M,10.00,M,CLR,M,M,M,M,M,M,M,M,KDLN 012320Z AUTO /////KT 10SM CLR A2994 RMK MADISHF
DLN,2017-04-01 23:30,-112.5525,45.2554,M,M,M,210.00,16.00,M,29.94,M,10.00,M,CLR,M,M,M,M,M,M,M,M,KDLN 012330Z AUTO 21016KT 10SM CLR A2994 RMK MADISHF
DLN,2017-04-01 23:40,-112.5525,45.2554,M,M,M,220.00,14.00,M,29.94,M,10.00,M,CLR,M,M,M,M,M,M,M,M,KDLN 012340Z AUTO 22014KT 10SM CLR A2994 RMK MADISHF
DLN,2017-04-01 23:45,-112.5525,45.2554,M,M,M,230.00,13.00,M,29.94,M,10.00,M,CLR,M,M,M,M,M,M,M,M,KDLN 012345Z AUTO 23013KT 10SM CLR A2994 RMK MADISHF
DLN,2017-04-01 23:53,-112.5525,45.2554,57.90,25.00,28.01,250.00,15.00,0.00,29.94,1012.90,10.00,M,CLR,M,M,M,M,M,M,M,M,KDLN 012353Z AUTO 25015KT 10SM CLR 14/M04 A2994 RMK AO2 SLP129 T01441039 10156 20089 56015 $
DLN,2017-04-01 23:55,-112.5525,45.2554,M,M,M,250.00,17.00,M,29.94,M,10.00,M,CLR,M,M,M,M,M,M,M,M,KDLN 012355Z AUTO 25017KT 10SM CLR A2994 RMK MADISHF
