#DEBUG: Format Typ    -> comma
#DEBUG: Time Period   -> 2017-04-01 00:00:00+00:00 2017-04-02 00:00:00+00:00
#DEBUG: Time Zone     -> Etc/UTC
#DEBUG: Data Contact   -> daryl herzmann akrherz@iastate.edu 515-294-5978
#DEBUG: Entries Found -> -1
station,valid,lon,lat,tmpf, dwpf, relh, drct, sknt, p01i, alti, mslp, vsby, gust, skyc1, skyc2, skyc3, skyc4, skyl1, skyl2, skyl3, skyl4, presentwx, metar
DMN,2017-04-01 00:00,-107.7206,32.2623,M,M,M,M,M,M,29.66,M,10.00,31.00,CLR,M,M,M,M,M,M,M,M,KDMN 010000Z AUTO /////G31KT 10SM CLR A2966 RMK MADISHF
DMN,2017-04-01 00:05,-107.7206,32.2623,M,M,M,M,M,M,29.66,M,10.00,M,CLR,M,M,M,M,M,M,M,M,KDMN 010005Z AUTO /////KT 10SM CLR A2966 RMK MADISHF
DMN,2017-04-01 00:10,-107.7206,32.2623,M,M,M,280.00,23.00,M,29.66,M,10.00,28.00,CLR,M,M,M,M,M,M,M,M,KDMN 010010Z AUTO 28023G28KT 10SM CLR A2966 RMK MADISHF
DMN,2017-04-01 00:15,-107.7206,32.2623,M,M,M,M,M,M,M,M,10.00,M,CLR,M,M,M,M,M,M,M,M,KDMN 010015Z AUTO /////KT 10SM CLR RMK MADISHF
DMN,2017-04-01 00:20,-107.7206,32.2623,M,M,M,M,M,M,M,M,10.00,M,CLR,M,M,M,M,M,M,M,M,KDMN 010020Z AUTO /////KT 10SM CLR RMK MADISHF
DMN,2017-04-01 00:25,-107.7206,32.2623,M,M,M,M,M,M,M,M,10.00,M,CLR,M,M,M,M,M,M,M,M,KDMN 010025Z AUTO /////KT 10SM CLR RMK MADISHF
DMN,2017-04-01 00:30,-107.7206,32.2623,M,M,M,280.00,21.00,M,29.67,M,10.00,M,CLR,M,M,M,M,M,M,M,M,KDMN 010030Z AUTO 28021KT 10SM CLR A2967 RMK MADISHF
DMN,2017-04-01 00:35,-107.7206,32.2623,M,M,M,M,M,M,M,M,10.00,M,CLR,M,M,M,M,M,M,M,M,KDMN 010035Z AUTO /////KT 10SM CLR RMK MADISHF
DMN,2017-04-01 00:40,-107.7206,32.2623,M,M,M,M,M,M,M,M,10.00,M,CLR,M,M,M,M,M,M,M,M,KDMN 010040Z AUTO /////KT 10SM CLR RMK MADISHF
DMN,2017-04-01 00:45,-107.7206,32.2623,M,M,M,M,M,M,29.68,M,10.00,M,CLR,M,M,M,M,M,M,M,M,KDMN 010045Z AUTO /////KT 10SM CLR A2968 RMK MADISHF
DMN,2017-04-01 00:50,-107.7206,32.2623,M,M,M,290.00,18.00,M,29.68,M,10.00,24.00,CLR,M,M,M,M,M,M,M,M,KDMN 010050Z AUTO 29018G24KT 10SM CLR A2968 RMK MADISHF
DMN,2017-04-01 00:53,-107.7206,32.2623,60.10,15.10,16.98,290.00,19.00,0.00,29.68,1001.20,10.00,29.00,CLR,M,M,M,M,M,M,M,M,KDMN 010053Z AUTO 29019G29KT 10SM CLR 16/M09 A2968 RMK AO2 PK WND 27035/2359 SLP012 T01561094
DMN,2017-04-01 00:55,-107.7206,32.2623,M,M,M,M,M,M,29.68,M,10.00,24.00,CLR,M,M,M,M,M,M,M,M,KDMN 010055Z AUTO /////G24KT 10SM CLR A2968 RMK MADISHF
DMN,2017-04-01 01:00,-107.7206,32.2623,M,M,M,M,M,M,29.68,M,10.00,M,CLR,M,M,M,M,M,M,M,M,KDMN 010100Z AUTO /////KT 10SM CLR A2968 RMK MADISHF
DMN,2017-04-01 01:05,-107.7206,32.2623,M,M,M,M,M,M,29.69,M,10.00,24.00,CLR,M,M,M,M,M,M,M,M,KDMN 010105Z AUTO /////G24KT 10SM CLR A2969 RMK MADISHF
DMN,2017-04-01 01:10,-107.7206,32.2623,M,M,M,M,M,M,29.69,M,10.00,M,CLR,M,M,M,M,M,M,M,M,KDMN 010110Z AUTO /////KT 10SM CLR A2969 RMK MADISHF
DMN,2017-04-01 01:15,-107.7206,32.2623,M,M,M,M,M,M,29.69,M,10.00,M,CLR,M,M,M,M,M,M,M,M,KDMN 010115Z AUTO /////KT 10SM CLR A2969 RMK MADISHF
DMN,2017-04-01 01:20,-107.7206,32.2623,M,M,M,M,M,M,29.70,M,10.00,M,CLR,M,M,M,M,M,M,M,M,KDMN 010120Z AUTO /////KT 10SM CLR A2970 RMK MADISHF
DMN,2017-04-01 01:25,-107.7206,32.2623,M,M,M,M,M,M,29.70,M,10.00,M,CLR,M,M,M,M,M,M,M,M,KDMN 010125Z AUTO /////KT 10SM CLR A2970 RMK MADISHF
DMN,2017-04-01 01:30,-107.7206,32.2623,M,M,M,M,M,M,29.70,M,10.00,M,CLR,M,M,M,M,M,M,M,M,KDMN 010130Z AUTO /////KT 10SM CLR A2970 RMK MADISHF
DMN,2017-04-01 01:35,-107.7206,32.2623,M,M,M,290.00,14.00,M,29.71,M,10.00,M,CLR,M,M,M,M,M,M,M,M,KDMN 010135Z AUTO 29014KT 10SM CLR A2971 RMK MADISHF
DMN,2017-04-01 01:40,-107.7206,32.2623,M,M,M,310.00,14.00,M,29.71,M,10.00,M,CLR,M,M,M,M,M,M,M,M,KDMN 010140Z AUTO 31014KT 10SM CLR A2971 RMK MADISHF
DMN,2017-04-01 01:45,-107.7206,32.2623,M,M,M,310.00,15.00,M,29.71,M,10.00,M,CLR,M,M,M,M,M,M,M,M,KDMN 010145Z AUTO 31015KT 10SM CLR A2971 RMK MADISHF
DMN,2017-04-01 01:50,-107.7206,32.2623,M,M,M,310.00,14.00,M,29.72,M,10.00,M,CLR,M,M,M,M,M,M,M,M,KDMN 010150Z AUTO 31014KT 10SM CLR A2972 RMK MADISHF
DMN,2017-04-01 01:53,-107.7206,32.2623,55.90,12.00,17.23,310.00,16.00,0.00,29.72,1002.30,10.00,M,CLR,M,M,M,M,M,M,M,M,KDMN 010153Z AUTO 31016KT 10SM CLR 13/M11 A2972 RMK AO2 SLP023 T01331111
DMN,2017-04-01 01:55,-107.7206,32.2623,M,M,M,310.00,15.00,M,M,M,10.00,M,CLR,M,M,M,M,M,M,M,M,KDMN 010155Z AUTO 31015KT 10SM CLR RMK MADISHF
DMN,2017-04-01 02:00,-107.7206,32.2623,M,M,M,300.00,14.00,M,29.72,M,10.00,M,CLR,M,M,M,M,M,M,M,M,KDMN 010200Z AUTO 30014KT 10SM CLR A2972 RMK MADISHF
DMN,2017-04-01 02:05,-107.7206,32.2623,M,M,M,300.00,12.00,M,29.72,M,10.00,M,CLR,M,M,M,M,M,M,M,M,KDMN 010205Z AUTO 30012KT 10SM CLR A2972 RMK MADISHF
DMN,2017-04-01 02:10,-107.7206,32.2623,M,M,M,300.00,12.00,M,29.73,M,10.00,M,CLR,M,M,M,M,M,M,M,M,KDMN 010210Z AUTO 30012KT 10SM CLR A2973 RMK MADISHF
DMN,2017-04-01 02:15,-107.7206,32.2623,M,M,M,300.00,12.00,M,29.73,M,10.00,M,CLR,M,M,M,M,M,M,M,M,KDMN 010215Z AUTO 30012KT 10SM CLR A2973 RMK MADISHF
DMN,2017-04-01 02:20,-107.7206,32.2623,M,M,M,300.00,14.00,M,29.73,M,10.00,M,CLR,M,M,M,M,M,M,M,M,KDMN 010220Z AUTO 30014KT 10SM CLR A2973 RMK MADISHF
DMN,2017-04-01 02:25,-107.7206,32.2623,M,M,M,300.00,14.00,M,29.73,M,10.00,M,CLR,M,M,M,M,M,M,M,M,KDMN 010225Z AUTO 30014KT 10SM CLR A2973 RMK MADISHF
DMN,2017-04-01 02:30,-107.7206,32.2623,M,M,M,290.00,15.00,M,29.73,M,10.00,M,CLR,M,M,M,M,M,M,M,M,KDMN 010230Z AUTO 29015KT 10SM CLR A2973 RMK MADISHF
DMN,2017-04-01 02:35,-107.7206,32.2623,M,M,M,300.00,12.00,M,M,M,10.00,M,CLR,M,M,M,M,M,M,M,M,KDMN 010235Z AUTO 30012KT 10SM CLR RMK MADISHF
DMN,2017-04-01 02:40,-107.7206,32.2623,M,M,M,300.00,13.00,M,29.74,M,10.00,M,CLR,M,M,M,M,M,M,M,M,KDMN 010240Z AUTO 30013KT 10SM CLR A2974 RMK MADISHF
DMN,2017-04-01 02:45,-107.7206,32.2623,M,M,M,300.00,13.00,M,29.74,M,10.00,M,CLR,M,M,M,M,M,M,M,M,KDMN 010245Z AUTO 30013KT 10SM CLR A2974 RMK MADISHF
DMN,2017-04-01 02:50,-107.7206,32.2623,M,M,M,290.00,14.00,M,29.74,M,10.00,M,CLR,M,M,M,M,M,M,M,M,KDMN 010250Z AUTO 29014KT 10SM CLR A2974 RMK MADISHF
DMN,2017-04-01 02:53,-107.7206,32.2623,53.10,10.90,18.17,300.00,13.00,0.00,29.74,1002.30,10.00,M,CLR,M,M,M,M,M,M,M,M,KDMN 010253Z AUTO 30013KT 10SM CLR 12/M12 A2974 RMK AO2 SLP023 T01171117 51024
DMN,2017-04-01 02:55,-107.7206,32.2623,M,M,M,300.00,13.00,M,M,M,10.00,M,CLR,M,M,M,M,M,M,M,M,KDMN 010255Z AUTO 30013KT 10SM CLR RMK MADISHF
DMN,2017-04-01 03:00,-107.7206,32.2623,M,M,M,290.00,14.00,M,M,M,10.00,M,CLR,M,M,M,M,M,M,M,M,KDMN 010300Z AUTO 29014KT 10SM CLR RMK MADISHF
DMN,2017-04-01 03:05,-107.7206,32.2623,M,M,M,290.00,12.00,M,29.75,M,10.00,M,CLR,M,M,M,M,M,M,M,M,KDMN 010305Z AUTO 29012KT 10SM CLR A2975 RMK MADISHF
DMN,2017-04-01 03:10,-107.7206,32.2623,M,M,M,300.00,13.00,M,29.75,M,10.00,M,CLR,M,M,M,M,M,M,M,M,KDMN 010310Z AUTO 30013KT 10SM CLR A2975 RMK MADISHF
DMN,2017-04-01 03:15,-107.7206,32.2623,M,M,M,300.00,13.00,M,29.75,M,10.00,M,CLR,M,M,M,M,M,M,M,M,KDMN 010315Z AUTO 30013KT 10SM CLR A2975 RMK MADISHF
DMN,2017-04-01 03:20,-107.7206,32.2623,M,M,M,300.00,13.00,M,29.75,M,10.00,M,CLR,M,M,M,M,M,M,M,M,KDMN 010320Z AUTO 30013KT 10SM CLR A2975 RMK MADISHF
DMN,2017-04-01 03:25,-107.7206,32.2623,M,M,M,300.00,13.00,M,29.76,M,10.00,M,CLR,M,M,M,M,M,M,M,M,KDMN 010325Z AUTO 30013KT 10SM CLR A2976 RMK MADISHF
DMN,2017-04-01 03:30,-107.7206,32.2623,M,M,M,300.00,13.00,M,29.76,M,10.00,M,CLR,M,M,M,M,M,M,M,M,KDMN 010330Z AUTO 30013KT 10SM CLR A2976 RMK MADISHF
DMN,2017-04-01 03:35,-107.7206,32.2623,M,M,M,300.00,13.00,M,29.76,M,10.00,M,CLR,M,M,M,M,M,M,M,M,KDMN 010335Z AUTO 30013KT 10SM CLR A2976 RMK MADISHF
DMN,2017-04-01 03:40,-107.7206,32.2623,M,M,M,290.00,13.00,M,29.76,M,10.00,M,CLR,M,M,M,M,M,M,M,M,KDMN 010340Z AUTO 29013KT 10SM CLR A2976 RMK MADISHF
DMN,2017-04-01 03:45,-107.7206,32.2623,M,M,M,290.00,11.00,M,29.77,M,10.00,M,CLR,M,M,M,M,M,M,M,M,KDMN 010345Z AUTO 29011KT 10SM CLR A2977 RMK MADISHF
DMN,2017-04-01 03:50,-107.7206,32.2623,M,M,M,280.00,10.00,M,M,M,10.00,M,CLR,M,M,M,M,M,M,M,M,KDMN 010350Z AUTO 28010KT 10SM CLR RMK MADISHF
DMN,2017-04-01 03:53,-107.7206,32.2623,50.00,15.10,24.52,290.00,9.00,0.00,29.77,1003.30,10.00,M,CLR,M,M,M,M,M,M,M,M,KDMN 010353Z AUTO 29009KT 10SM CLR 10/M09 A2977 RMK AO2 SLP033 T01001094
DMN,2017-04-01 03:55,-107.7206,32.2623,M,M,M,290.00,11.00,M,M,M,10.00,M,CLR,M,M,M,M,M,M,M,M,KDMN 010355Z AUTO 29011KT 10SM CLR RMK MADISHF
DMN,2017-04-01 04:00,-107.7206,32.2623,M,M,M,290.00,8.00,M,29.78,M,10.00,M,CLR,M,M,M,M,M,M,M,M,KDMN 010400Z AUTO 29008KT 10SM CLR A2978 RMK MADISHF
DMN,2017-04-01 04:05,-107.7206,32.2623,M,M,M,290.00,8.00,M,29.78,M,10.00,M,CLR,M,M,M,M,M,M,M,M,KDMN 010405Z AUTO 29008KT 10SM CLR A2978 RMK MADISHF
DMN,2017-04-01 04:10,-107.7206,32.2623,M,M,M,290.00,7.00,M,29.79,M,10.00,M,CLR,M,M,M,M,M,M,M,M,KDMN 010410Z AUTO 29007KT 10SM CLR A2979 RMK MADISHF
DMN,2017-04-01 04:15,-107.7206,32.2623,M,M,M,290.00,8.00,M,29.79,M,10.00,M,CLR,M,M,M,M,M,M,M,M,KDMN 010415Z AUTO 29008KT 10SM CLR A2979 RMK MADISHF
DMN,2017-04-01 04:20,-107.7206,32.2623,M,M,M,300.00,10.00,M,29.79,M,10.00,M,CLR,M,M,M,M,M,M,M,M,KDMN 010420Z AUTO 30010KT 10SM CLR A2979 RMK MADISHF
DMN,2017-04-01 04:25,-107.7206,32.2623,M,M,M,290.00,8.00,M,29.79,M,10.00,M,CLR,M,M,M,M,M,M,M,M,KDMN 010425Z AUTO 29008KT 10SM CLR A2979 RMK MADISHF
DMN,2017-04-01 04:30,-107.7206,32.2623,M,M,M,300.00,9.00,M,29.79,M,10.00,M,CLR,M,M,M,M,M,M,M,M,KDMN 010430Z AUTO 30009KT 10SM CLR A2979 RMK MADISHF
DMN,2017-04-01 04:35,-107.7206,32.2623,M,M,M,300.00,7.00,M,29.80,M,10.00,M,CLR,M,M,M,M,M,M,M,M,KDMN 010435Z AUTO 30007KT 10SM CLR A2980 RMK MADISHF
DMN,2017-04-01 04:40,-107.7206,32.2623,M,M,M,300.00,7.00,M,29.80,M,10.00,M,CLR,M,M,M,M,M,M,M,M,KDMN 010440Z AUTO 30007KT 10SM CLR A2980 RMK MADISHF
DMN,2017-04-01 04:45,-107.7206,32.2623,M,M,M,300.00,7.00,M,29.80,M,10.00,M,CLR,M,M,M,M,M,M,M,M,KDMN 010445Z AUTO 30007KT 10SM CLR A2980 RMK MADISHF
DMN,2017-04-01 04:50,-107.7206,32.2623,M,M,M,300.00,8.00,M,M,M,10.00,M,CLR,M,M,M,M,M,M,M,M,KDMN 010450Z AUTO 30008KT 10SM CLR RMK MADISHF
DMN,2017-04-01 04:53,-107.7206,32.2623,48.00,16.00,27.48,300.00,7.00,0.00,29.80,1004.20,10.00,M,CLR,M,M,M,M,M,M,M,M,KDMN 010453Z AUTO 30007KT 10SM CLR 09/M09 A2980 RMK AO2 SLP042 T00891089
DMN,2017-04-01 04:55,-107.7206,32.2623,M,M,M,300.00,7.00,M,M,M,10.00,M,CLR,M,M,M,M,M,M,M,M,KDMN 010455Z AUTO 30007KT 10SM CLR RMK MADISHF
DMN,2017-04-01 05:00,-107.7206,32.2623,M,M,M,300.00,6.00,M,M,M,10.00,M,CLR,M,M,M,M,M,M,M,M,KDMN 010500Z AUTO 30006KT 10SM CLR RMK MADISHF
DMN,2017-04-01 05:05,-107.7206,32.2623,M,M,M,290.00,6.00,M,M,M,10.00,M,CLR,M,M,M,M,M,M,M,M,KDMN 010505Z AUTO 29006KT 10SM CLR RMK MADISHF
DMN,2017-04-01 05:10,-107.7206,32.2623,M,M,M,290.00,7.00,M,29.80,M,10.00,M,CLR,M,M,M,M,M,M,M,M,KDMN 010510Z AUTO 29007KT 10SM CLR A2980 RMK MADISHF
DMN,2017-04-01 05:15,-107.7206,32.2623,M,M,M,290.00,7.00,M,M,M,10.00,M,CLR,M,M,M,M,M,M,M,M,KDMN 010515Z AUTO 29007KT 10SM CLR RMK MADISHF
DMN,2017-04-01 05:20,-107.7206,32.2623,M,M,M,290.00,7.00,M,M,M,10.00,M,CLR,M,M,M,M,M,M,M,M,KDMN 010520Z AUTO 29007KT 10SM CLR RMK MADISHF
DMN,2017-04-01 05:25,-107.7206,32.2623,M,M,M,290.00,6.00,M,M,M,10.00,M,CLR,M,M,M,M,M,M,M,M,KDMN 010525Z AUTO 29006KT 10SM CLR RMK MADISHF
DMN,2017-04-01 05:30,-107.7206,32.2623,M,M,M,290.00,7.00,M,29.81,M,10.00,M,CLR,M,M,M,M,M,M,M,M,KDMN 010530Z AUTO 29007KT 10SM CLR A2981 RMK MADISHF
DMN,2017-04-01 05:35,-107.7206,32.2623,M,M,M,300.00,6.00,M,M,M,10.00,M,CLR,M,M,M,M,M,M,M,M,KDMN 010535Z AUTO 30006KT 10SM CLR RMK MADISHF
DMN,2017-04-01 05:40,-107.7206,32.2623,M,M,M,300.00,6.00,M,M,M,10.00,M,CLR,M,M,M,M,M,M,M,M,KDMN 010540Z AUTO 30006KT 10SM CLR RMK MADISHF
DMN,2017-04-01 05:45,-107.7206,32.2623,M,M,M,290.00,7.00,M,29.82,M,10.00,M,CLR,M,M,M,M,M,M,M,M,KDMN 010545Z AUTO 29007KT 10SM CLR A2982 RMK MADISHF
DMN,2017-04-01 05:50,-107.7206,32.2623,M,M,M,290.00,6.00,M,M,M,10.00,M,CLR,M,M,M,M,M,M,M,M,KDMN 010550Z AUTO 29006KT 10SM CLR RMK MADISHF
DMN,2017-04-01 05:53,-107.7206,32.2623,45.00,18.00,33.55,280.00,5.00,0.00,29.82,1005.40,10.00,M,CLR,M,M,M,M,M,M,M,M,KDMN 010553Z AUTO 28005KT 10SM CLR 07/M08 A2982 RMK AO2 SLP054 T00721078 10172 20072 51024
DMN,2017-04-01 05:55,-107.7206,32.2623,M,M,M,290.00,4.00,M,M,M,10.00,M,CLR,M,M,M,M,M,M,M,M,KDMN 010555Z AUTO 29004KT 10SM CLR RMK MADISHF
DMN,2017-04-01 06:00,-107.7206,32.2623,M,M,M,290.00,5.00,M,M,M,10.00,M,CLR,M,M,M,M,M,M,M,M,KDMN 010600Z AUTO 29005KT 10SM CLR RMK MADISHF
DMN,2017-04-01 06:05,-107.7206,32.2623,M,M,M,290.00,6.00,M,M,M,10.00,M,CLR,M,M,M,M,M,M,M,M,KDMN 010605Z AUTO 29006KT 10SM CLR RMK MADISHF
DMN,2017-04-01 06:10,-107.7206,32.2623,M,M,M,300.00,6.00,M,29.83,M,10.00,M,CLR,M,M,M,M,M,M,M,M,KDMN 010610Z AUTO 30006KT 10SM CLR A2983 RMK MADISHF
DMN,2017-04-01 06:15,-107.7206,32.2623,M,M,M,290.00,7.00,M,M,M,10.00,M,CLR,M,M,M,M,M,M,M,M,KDMN 010615Z AUTO 29007KT 10SM CLR RMK MADISHF
DMN,2017-04-01 06:20,-107.7206,32.2623,M,M,M,290.00,7.00,M,M,M,10.00,M,CLR,M,M,M,M,M,M,M,M,KDMN 010620Z AUTO 29007KT 10SM CLR RMK MADISHF
DMN,2017-04-01 06:25,-107.7206,32.2623,M,M,M,300.00,8.00,M,M,M,10.00,M,CLR,M,M,M,M,M,M,M,M,KDMN 010625Z AUTO 30008KT 10SM CLR RMK MADISHF
DMN,2017-04-01 06:30,-107.7206,32.2623,M,M,M,300.00,8.00,M,29.83,M,10.00,M,CLR,M,M,M,M,M,M,M,M,KDMN 010630Z AUTO 30008KT 10SM CLR A2983 RMK MADISHF
DMN,2017-04-01 06:35,-107.7206,32.2623,M,M,M,310.00,9.00,M,M,M,10.00,M,CLR,M,M,M,M,M,M,M,M,KDMN 010635Z AUTO 31009KT 10SM CLR RMK MADISHF
DMN,2017-04-01 06:40,-107.7206,32.2623,M,M,M,320.00,8.00,M,M,M,10.00,M,CLR,M,M,M,M,M,M,M,M,KDMN 010640Z AUTO 32008KT 10SM CLR RMK MADISHF
DMN,2017-04-01 06:45,-107.7206,32.2623,M,M,M,320.00,6.00,M,M,M,10.00,M,CLR,M,M,M,M,M,M,M,M,KDMN 010645Z AUTO 32006KT 10SM CLR RMK MADISHF
DMN,2017-04-01 06:50,-107.7206,32.2623,M,M,M,320.00,7.00,M,29.84,M,10.00,M,CLR,M,M,M,M,M,M,M,M,KDMN 010650Z AUTO 32007KT 10SM CLR A2984 RMK MADISHF
DMN,2017-04-01 06:53,-107.7206,32.2623,43.00,19.00,37.81,330.00,6.00,0.00,29.84,1006.30,10.00,M,CLR,M,M,M,M,M,M,M,M,KDMN 010653Z AUTO 33006KT 10SM CLR 06/M07 A2984 RMK AO2 SLP063 T00611072 402060061
DMN,2017-04-01 06:55,-107.7206,32.2623,M,M,M,320.00,6.00,M,29.84,M,10.00,M,CLR,M,M,M,M,M,M,M,M,KDMN 010655Z AUTO 32006KT 10SM CLR A2984 RMK MADISHF
DMN,2017-04-01 07:00,-107.7206,32.2623,M,M,M,310.00,7.00,M,29.84,M,10.00,M,CLR,M,M,M,M,M,M,M,M,KDMN 010700Z AUTO 31007KT 10SM CLR A2984 RMK MADISHF
DMN,2017-04-01 07:05,-107.7206,32.2623,M,M,M,310.00,7.00,M,29.84,M,10.00,M,FEW,M,M,M,9500.00,M,M,M,M,KDMN 010705Z AUTO 31007KT 10SM FEW095 A2984 RMK MADISHF
DMN,2017-04-01 07:10,-107.7206,32.2623,M,M,M,310.00,7.00,M,29.84,M,10.00,M,SCT,M,M,M,9500.00,M,M,M,M,KDMN 010710Z AUTO 31007KT 10SM SCT095 A2984 RMK MADISHF
DMN,2017-04-01 07:15,-107.7206,32.2623,M,M,M,310.00,6.00,M,29.84,M,10.00,M,SCT,M,M,M,9500.00,M,M,M,M,KDMN 010715Z AUTO 31006KT 10SM SCT095 A2984 RMK MADISHF
DMN,2017-04-01 07:20,-107.7206,32.2623,M,M,M,300.00,7.00,M,29.83,M,10.00,M,FEW,M,M,M,9500.00,M,M,M,M,KDMN 010720Z AUTO 30007KT 10SM FEW095 A2983 RMK MADISHF
DMN,2017-04-01 07:25,-107.7206,32.2623,M,M,M,310.00,6.00,M,29.83,M,10.00,M,FEW,M,M,M,9500.00,M,M,M,M,KDMN 010725Z AUTO 31006KT 10SM FEW095 A2983 RMK MADISHF
DMN,2017-04-01 07:30,-107.7206,32.2623,M,M,M,290.00,5.00,M,29.84,M,10.00,M,FEW,M,M,M,9500.00,M,M,M,M,KDMN 010730Z AUTO 29005KT 10SM FEW095 A2984 RMK MADISHF
DMN,2017-04-01 07:35,-107.7206,32.2623,M,M,M,300.00,5.00,M,29.83,M,10.00,M,FEW,M,M,M,9500.00,M,M,M,M,KDMN 010735Z AUTO 30005KT 10SM FEW095 A2983 RMK MADISHF
DMN,2017-04-01 07:40,-107.7206,32.2623,M,M,M,300.00,6.00,M,29.84,M,10.00,M,FEW,M,M,M,9500.00,M,M,M,M,KDMN 010740Z AUTO 30006KT 10SM FEW095 A2984 RMK MADISHF
DMN,2017-04-01 07:45,-107.7206,32.2623,M,M,M,310.00,7.00,M,29.84,M,10.00,M,FEW,M,M,M,9000.00,M,M,M,M,KDMN 010745Z AUTO 31007KT 10SM FEW090 A2984 RMK MADISHF
DMN,2017-04-01 07:50,-107.7206,32.2623,M,M,M,300.00,6.00,M,29.84,M,10.00,M,FEW,M,M,M,9000.00,M,M,M,M,KDMN 010750Z AUTO 30006KT 10SM FEW090 A2984 RMK MADISHF
DMN,2017-04-01 07:53,-107.7206,32.2623,42.10,19.90,40.67,310.00,6.00,0.00,29.84,1006.30,10.00,M,SCT,M,M,M,9000.00,M,M,M,M,KDMN 010753Z AUTO 31006KT 10SM SCT090 06/M07 A2984 RMK AO2 SLP063 T00561067
DMN,2017-04-01 07:55,-107.7206,32.2623,M,M,M,300.00,6.00,M,29.84,M,10.00,M,SCT,M,M,M,9000.00,M,M,M,M,KDMN 010755Z AUTO 30006KT 10SM SCT090 A2984 RMK MADISHF
DMN,2017-04-01 08:00,-107.7206,32.2623,M,M,M,300.00,6.00,M,29.84,M,10.00,M,BKN,M,M,M,9000.00,M,M,M,M,KDMN 010800Z AUTO 30006KT 10SM BKN090 A2984 RMK MADISHF
DMN,2017-04-01 08:05,-107.7206,32.2623,M,M,M,310.00,5.00,M,29.84,M,10.00,M,BKN,M,M,M,9000.00,M,M,M,M,KDMN 010805Z AUTO 31005KT 10SM BKN090 A2984 RMK MADISHF
DMN,2017-04-01 08:10,-107.7206,32.2623,M,M,M,310.00,6.00,M,29.84,M,10.00,M,BKN,M,M,M,9000.00,M,M,M,M,KDMN 010810Z AUTO 31006KT 10SM BKN090 A2984 RMK MADISHF
DMN,2017-04-01 08:15,-107.7206,32.2623,M,M,M,310.00,7.00,M,29.84,M,10.00,M,BKN,M,M,M,9000.00,M,M,M,M,KDMN 010815Z AUTO 31007KT 10SM BKN090 A2984 RMK MADISHF
DMN,2017-04-01 08:20,-107.7206,32.2623,M,M,M,320.00,6.00,M,29.84,M,10.00,M,OVC,M,M,M,9000.00,M,M,M,M,KDMN 010820Z AUTO 32006KT 10SM OVC090 A2984 RMK MADISHF
DMN,2017-04-01 08:25,-107.7206,32.2623,M,M,M,300.00,6.00,M,29.85,M,10.00,M,OVC,M,M,M,9000.00,M,M,M,M,KDMN 010825Z AUTO 30006KT 10SM OVC090 A2985 RMK MADISHF
DMN,2017-04-01 08:30,-107.7206,32.2623,M,M,M,310.00,6.00,M,29.84,M,10.00,M,OVC,M,M,M,9000.00,M,M,M,M,KDMN 010830Z AUTO 31006KT 10SM OVC090 A2984 RMK MADISHF
DMN,2017-04-01 08:35,-107.7206,32.2623,M,M,M,310.00,6.00,M,29.84,M,10.00,M,OVC,M,M,M,9000.00,M,M,M,M,KDMN 010835Z AUTO 31006KT 10SM OVC090 A2984 RMK MADISHF
DMN,2017-04-01 08:40,-107.7206,32.2623,M,M,M,290.00,7.00,M,29.84,M,10.00,M,OVC,M,M,M,9000.00,M,M,M,M,KDMN 010840Z AUTO 29007KT 10SM OVC090 A2984 RMK MADISHF
DMN,2017-04-01 08:45,-107.7206,32.2623,M,M,M,300.00,7.00,M,29.84,M,10.00,M,OVC,M,M,M,9000.00,M,M,M,M,KDMN 010845Z AUTO 30007KT 10SM OVC090 A2984 RMK MADISHF
DMN,2017-04-01 08:50,-107.7206,32.2623,M,M,M,310.00,10.00,M,29.84,M,10.00,M,OVC,M,M,M,9000.00,M,M,M,M,KDMN 010850Z AUTO 31010KT 10SM OVC090 A2984 RMK MADISHF
DMN,2017-04-01 08:53,-107.7206,32.2623,42.10,21.00,42.62,320.00,9.00,0.00,29.84,1006.30,10.00,M,OVC,M,M,M,9000.00,M,M,M,M,KDMN 010853Z AUTO 32009KT 10SM OVC090 06/M06 A2984 RMK AO2 SLP063 T00561061 50005
DMN,2017-04-01 08:55,-107.7206,32.2623,M,M,M,310.00,9.00,M,29.84,M,10.00,M,OVC,M,M,M,9000.00,M,M,M,M,KDMN 010855Z AUTO 31009KT 10SM OVC090 A2984 RMK MADISHF
DMN,2017-04-01 09:00,-107.7206,32.2623,M,M,M,300.00,8.00,M,29.84,M,10.00,M,OVC,M,M,M,9000.00,M,M,M,M,KDMN 010900Z AUTO 30008KT 10SM OVC090 A2984 RMK MADISHF
DMN,2017-04-01 09:05,-107.7206,32.2623,M,M,M,300.00,8.00,M,29.84,M,10.00,M,OVC,M,M,M,9000.00,M,M,M,M,KDMN 010905Z AUTO 30008KT 10SM OVC090 A2984 RMK MADISHF
DMN,2017-04-01 09:10,-107.7206,32.2623,M,M,M,300.00,7.00,M,29.84,M,10.00,M,BKN,OVC,M,M,9000.00,10000.00,M,M,M,KDMN 010910Z AUTO 30007KT 10SM BKN090 OVC100 A2984 RMK MADISHF
DMN,2017-04-01 09:15,-107.7206,32.2623,M,M,M,310.00,8.00,M,29.84,M,10.00,M,OVC,M,M,M,8500.00,M,M,M,M,KDMN 010915Z AUTO 31008KT 10SM OVC085 A2984 RMK MADISHF
DMN,2017-04-01 09:20,-107.7206,32.2623,M,M,M,320.00,6.00,M,29.84,M,10.00,M,BKN,OVC,M,M,7999.00,10000.00,M,M,M,KDMN 010920Z AUTO 32006KT 10SM BKN079 OVC100 A2984 RMK MADISHF
DMN,2017-04-01 09:25,-107.7206,32.2623,M,M,M,40.00,5.00,M,29.85,M,10.00,M,OVC,M,M,M,7999.00,M,M,M,M,KDMN 010925Z AUTO 04005KT 10SM OVC079 A2985 RMK MADISHF
DMN,2017-04-01 09:30,-107.7206,32.2623,M,M,M,310.00,5.00,M,29.85,M,10.00,M,OVC,M,M,M,7999.00,M,M,M,M,KDMN 010930Z AUTO 31005KT 10SM OVC079 A2985 RMK VRB05KT  MADISHF
DMN,2017-04-01 09:35,-107.7206,32.2623,M,M,M,60.00,4.00,M,29.85,M,10.00,M,OVC,M,M,M,7999.00,M,M,M,M,KDMN 010935Z AUTO 06004KT 10SM OVC079 A2985 RMK VRB04KT  MADISHF
DMN,2017-04-01 09:40,-107.7206,32.2623,M,M,M,330.00,7.00,M,29.84,M,10.00,M,OVC,M,M,M,7999.00,M,M,M,M,KDMN 010940Z AUTO 33007KT 10SM OVC079 A2984 RMK MADISHF
DMN,2017-04-01 09:45,-107.7206,32.2623,M,M,M,320.00,4.00,M,29.85,M,10.00,M,OVC,M,M,M,7999.00,M,M,M,M,KDMN 010945Z AUTO 32004KT 10SM OVC079 A2985 RMK VRB04KT  MADISHF
DMN,2017-04-01 09:50,-107.7206,32.2623,M,M,M,220.00,5.00,M,29.85,M,10.00,M,OVC,M,M,M,7999.00,M,M,M,M,KDMN 010950Z AUTO 22005KT 10SM OVC079 A2985 RMK MADISHF
DMN,2017-04-01 09:53,-107.7206,32.2623,44.10,19.90,37.67,M,4.00,0.00,29.86,1006.90,10.00,M,OVC,M,M,M,8000.00,M,M,M,M,KDMN 010953Z AUTO VRB04KT 10SM OVC080 07/M07 A2986 RMK AO2 SLP069 T00671067
DMN,2017-04-01 09:55,-107.7206,32.2623,M,M,M,160.00,3.00,M,29.86,M,10.00,M,FEW,OVC,M,M,6500.00,7999.00,M,M,M,KDMN 010955Z AUTO 16003KT 10SM FEW065 OVC079 A2986 RMK VRB03KT  MADISHF
DMN,2017-04-01 10:00,-107.7206,32.2623,M,M,M,280.00,5.00,M,29.86,M,10.00,M,SCT,OVC,M,M,6000.00,7999.00,M,M,M,KDMN 011000Z AUTO 28005KT 10SM SCT060 OVC079 A2986 RMK MADISHF
DMN,2017-04-01 10:05,-107.7206,32.2623,M,M,M,340.00,5.00,M,29.86,M,10.00,M,BKN,OVC,M,M,6000.00,7999.00,M,M,M,KDMN 011005Z AUTO 34005KT 10SM BKN060 OVC079 A2986 RMK MADISHF
DMN,2017-04-01 10:10,-107.7206,32.2623,M,M,M,310.00,3.00,M,29.87,M,10.00,M,OVC,M,M,M,7000.00,M,M,M,M,KDMN 011010Z AUTO 31003KT 10SM OVC070 A2987 RMK MADISHF
DMN,2017-04-01 10:15,-107.7206,32.2623,M,M,M,290.00,6.00,M,29.87,M,10.00,M,BKN,OVC,M,M,6500.00,7999.00,M,M,M,KDMN 011015Z AUTO 29006KT 10SM BKN065 OVC079 A2987 RMK MADISHF
DMN,2017-04-01 10:20,-107.7206,32.2623,M,M,M,270.00,4.00,M,29.87,M,10.00,M,BKN,OVC,M,M,6000.00,7500.00,M,M,M,KDMN 011020Z AUTO 27004KT 10SM BKN060 OVC075 A2987 RMK MADISHF
DMN,2017-04-01 10:25,-107.7206,32.2623,M,M,M,180.00,6.00,M,29.87,M,10.00,M,BKN,OVC,M,M,5500.00,7000.00,M,M,-RA,KDMN 011025Z AUTO 18006KT 10SM -RA BKN055 OVC070 A2987 RMK VRB06G17KT  MADISHF
DMN,2017-04-01 10:30,-107.7206,32.2623,M,M,M,0.00,0.00,M,29.87,M,10.00,M,BKN,OVC,M,M,6000.00,7500.00,M,M,-RA,KDMN 011030Z AUTO 00000KT 10SM -RA BKN060 OVC075 A2987 RMK MADISHF
DMN,2017-04-01 10:35,-107.7206,32.2623,M,M,M,130.00,5.00,M,29.87,M,10.00,M,BKN,OVC,M,M,6000.00,7500.00,M,M,M,KDMN 011035Z AUTO 13005KT 10SM BKN060 OVC075 A2987 RMK MADISHF
DMN,2017-04-01 10:40,-107.7206,32.2623,M,M,M,260.00,4.00,M,29.87,M,10.00,M,BKN,OVC,M,M,6000.00,7000.00,M,M,M,KDMN 011040Z AUTO 26004KT 10SM BKN060 OVC070 A2987 RMK VRB04KT  MADISHF
DMN,2017-04-01 10:45,-107.7206,32.2623,M,M,M,250.00,4.00,M,29.87,M,10.00,M,OVC,M,M,M,6500.00,M,M,M,M,KDMN 011045Z AUTO 25004KT 10SM OVC065 A2987 RMK MADISHF
DMN,2017-04-01 10:50,-107.7206,32.2623,M,M,M,0.00,0.00,M,29.87,M,10.00,M,OVC,M,M,M,6500.00,M,M,M,M,KDMN 011050Z AUTO 00000KT 10SM OVC065 A2987 RMK MADISHF
DMN,2017-04-01 10:53,-107.7206,32.2623,48.00,24.10,38.80,0.00,0.00,0.00,29.87,1007.20,10.00,M,OVC,M,M,M,6500.00,M,M,M,M,KDMN 011053Z AUTO 00000KT 10SM OVC065 09/M04 A2987 RMK AO2 RAB25E34 SLP072 P0000 T00891044
DMN,2017-04-01 10:55,-107.7206,32.2623,M,M,M,0.00,0.00,M,29.87,M,10.00,M,OVC,M,M,M,7000.00,M,M,M,M,KDMN 011055Z AUTO 00000KT 10SM OVC070 A2987 RMK MADISHF
DMN,2017-04-01 11:00,-107.7206,32.2623,M,M,M,0.00,0.00,M,29.87,M,10.00,M,OVC,M,M,M,7000.00,M,M,M,M,KDMN 011100Z AUTO 00000KT 10SM OVC070 A2987 RMK MADISHF
DMN,2017-04-01 11:05,-107.7206,32.2623,M,M,M,0.00,0.00,M,29.88,M,10.00,M,BKN,OVC,M,M,7000.00,7999.00,M,M,M,KDMN 011105Z AUTO 00000KT 10SM BKN070 OVC079 A2988 RMK MADISHF
DMN,2017-04-01 11:10,-107.7206,32.2623,M,M,M,0.00,0.00,M,29.88,M,10.00,M,OVC,M,M,M,7500.00,M,M,M,M,KDMN 011110Z AUTO 00000KT 10SM OVC075 A2988 RMK MADISHF
DMN,2017-04-01 11:15,-107.7206,32.2623,M,M,M,0.00,0.00,M,29.88,M,10.00,M,OVC,M,M,M,7000.00,M,M,M,M,KDMN 011115Z AUTO 00000KT 10SM OVC070 A2988 RMK MADISHF
DMN,2017-04-01 11:20,-107.7206,32.2623,M,M,M,320.00,4.00,M,29.88,M,10.00,M,OVC,M,M,M,7500.00,M,M,M,M,KDMN 011120Z AUTO 32004KT 10SM OVC075 A2988 RMK MADISHF
DMN,2017-04-01 11:25,-107.7206,32.2623,M,M,M,0.00,0.00,M,29.88,M,10.00,M,OVC,M,M,M,7500.00,M,M,M,M,KDMN 011125Z AUTO 00000KT 10SM OVC075 A2988 RMK MADISHF
DMN,2017-04-01 11:30,-107.7206,32.2623,M,M,M,340.00,3.00,M,29.89,M,10.00,M,OVC,M,M,M,7999.00,M,M,M,M,KDMN 011130Z AUTO 34003KT 10SM OVC079 A2989 RMK MADISHF
DMN,2017-04-01 11:35,-107.7206,32.2623,M,M,M,10.00,4.00,M,29.89,M,10.00,M,OVC,M,M,M,7500.00,M,M,M,M,KDMN 011135Z AUTO 01004KT 10SM OVC075 A2989 RMK MADISHF
DMN,2017-04-01 11:40,-107.7206,32.2623,M,M,M,20.00,3.00,M,29.89,M,10.00,M,OVC,M,M,M,7999.00,M,M,M,M,KDMN 011140Z AUTO 02003KT 10SM OVC079 A2989 RMK MADISHF
DMN,2017-04-01 11:45,-107.7206,32.2623,M,M,M,40.00,3.00,M,29.89,M,10.00,M,OVC,M,M,M,7999.00,M,M,M,M,KDMN 011145Z AUTO 04003KT 10SM OVC079 A2989 RMK MADISHF
DMN,2017-04-01 11:50,-107.7206,32.2623,M,M,M,0.00,0.00,M,29.89,M,10.00,M,OVC,M,M,M,7500.00,M,M,M,M,KDMN 011150Z AUTO 00000KT 10SM OVC075 A2989 RMK MADISHF
DMN,2017-04-01 11:53,-107.7206,32.2623,46.90,23.00,38.62,0.00,0.00,0.00,29.89,1008.00,10.00,M,OVC,M,M,M,7500.00,M,M,M,M,KDMN 011153Z AUTO 00000KT 10SM OVC075 08/M05 A2989 RMK AO2 SLP080 60000 T00831050 10094 20050 53016
DMN,2017-04-01 11:55,-107.7206,32.2623,M,M,M,0.00,0.00,M,29.89,M,10.00,M,OVC,M,M,M,7500.00,M,M,M,M,KDMN 011155Z AUTO 00000KT 10SM OVC075 A2989 RMK MADISHF
DMN,2017-04-01 12:00,-107.7206,32.2623,M,M,M,0.00,0.00,M,29.90,M,10.00,M,OVC,M,M,M,7500.00,M,M,M,M,KDMN 011200Z AUTO 00000KT 10SM OVC075 A2990 RMK MADISHF
DMN,2017-04-01 12:05,-107.7206,32.2623,M,M,M,0.00,0.00,M,29.90,M,10.00,M,OVC,M,M,M,7500.00,M,M,M,M,KDMN 011205Z AUTO 00000KT 10SM OVC075 A2990 RMK MADISHF
DMN,2017-04-01 12:10,-107.7206,32.2623,M,M,M,120.00,3.00,M,29.90,M,10.00,M,OVC,M,M,M,7500.00,M,M,M,M,KDMN 011210Z AUTO 12003KT 10SM OVC075 A2990 RMK MADISHF
DMN,2017-04-01 12:15,-107.7206,32.2623,M,M,M,140.00,3.00,M,29.90,M,10.00,M,OVC,M,M,M,7500.00,M,M,M,M,KDMN 011215Z AUTO 14003KT 10SM OVC075 A2990 RMK MADISHF
DMN,2017-04-01 12:20,-107.7206,32.2623,M,M,M,M,M,M,29.91,M,10.00,19.00,OVC,M,M,M,7500.00,M,M,M,M,KDMN 011220Z AUTO /////G19KT 10SM OVC075 A2991 RMK MADISHF
DMN,2017-04-01 12:25,-107.7206,32.2623,M,M,M,30.00,8.00,M,29.91,M,10.00,M,FEW,BKN,OVC,M,5000.00,7000.00,7999.00,M,M,KDMN 011225Z AUTO 03008KT 10SM FEW050 BKN070 OVC079 A2991 RMK MADISHF
DMN,2017-04-01 12:30,-107.7206,32.2623,M,M,M,60.00,5.00,M,29.91,M,10.00,M,FEW,BKN,OVC,M,5000.00,7000.00,7999.00,M,M,KDMN 011230Z AUTO 06005KT 10SM FEW050 BKN070 OVC079 A2991 RMK MADISHF
DMN,2017-04-01 12:35,-107.7206,32.2623,M,M,M,50.00,7.00,M,29.91,M,10.00,M,FEW,SCT,OVC,M,5000.00,7000.00,7999.00,M,M,KDMN 011235Z AUTO 05007KT 10SM FEW050 SCT070 OVC079 A2991 RMK MADISHF
DMN,2017-04-01 12:40,-107.7206,32.2623,M,M,M,40.00,6.00,M,29.91,M,10.00,M,FEW,FEW,OVC,M,5000.00,6500.00,7999.00,M,M,KDMN 011240Z AUTO 04006KT 10SM FEW050 FEW065 OVC079 A2991 RMK MADISHF
DMN,2017-04-01 12:45,-107.7206,32.2623,M,M,M,50.00,6.00,M,29.92,M,10.00,M,FEW,OVC,M,M,5000.00,7999.00,M,M,M,KDMN 011245Z AUTO 05006KT 10SM FEW050 OVC079 A2992 RMK MADISHF
DMN,2017-04-01 12:50,-107.7206,32.2623,M,M,M,40.00,8.00,M,29.92,M,10.00,M,FEW,OVC,M,M,5000.00,7999.00,M,M,M,KDMN 011250Z AUTO 04008KT 10SM FEW050 OVC079 A2992 RMK MADISHF
DMN,2017-04-01 12:53,-107.7206,32.2623,45.00,30.90,57.50,40.00,8.00,0.00,29.92,1009.20,10.00,M,OVC,M,M,M,8000.00,M,M,M,M,KDMN 011253Z AUTO 04008KT 10SM OVC080 07/M01 A2992 RMK AO2 SLP092 T00721006
DMN,2017-04-01 12:55,-107.7206,32.2623,M,M,M,40.00,6.00,M,M,M,10.00,M,OVC,M,M,M,7999.00,M,M,M,M,KDMN 011255Z AUTO 04006KT 10SM OVC079 RMK MADISHF
DMN,2017-04-01 13:00,-107.7206,32.2623,M,M,M,40.00,8.00,M,29.92,M,10.00,M,OVC,M,M,M,7999.00,M,M,M,M,KDMN 011300Z AUTO 04008KT 10SM OVC079 A2992 RMK MADISHF
DMN,2017-04-01 13:05,-107.7206,32.2623,M,M,M,40.00,9.00,M,29.92,M,10.00,M,OVC,M,M,M,7999.00,M,M,M,M,KDMN 011305Z AUTO 04009KT 10SM OVC079 A2992 RMK MADISHF
DMN,2017-04-01 13:10,-107.7206,32.2623,M,M,M,40.00,8.00,M,29.92,M,10.00,M,OVC,M,M,M,7999.00,M,M,M,M,KDMN 011310Z AUTO 04008KT 10SM OVC079 A2992 RMK MADISHF
DMN,2017-04-01 13:15,-107.7206,32.2623,M,M,M,40.00,7.00,M,29.92,M,10.00,M,OVC,M,M,M,7999.00,M,M,M,M,KDMN 011315Z AUTO 04007KT 10SM OVC079 A2992 RMK MADISHF
DMN,2017-04-01 13:20,-107.7206,32.2623,M,M,M,40.00,6.00,M,29.92,M,10.00,M,OVC,M,M,M,7999.00,M,M,M,M,KDMN 011320Z AUTO 04006KT 10SM OVC079 A2992 RMK MADISHF
DMN,2017-04-01 13:25,-107.7206,32.2623,M,M,M,50.00,7.00,M,29.93,M,10.00,M,OVC,M,M,M,7999.00,M,M,M,M,KDMN 011325Z AUTO 05007KT 10SM OVC079 A2993 RMK MADISHF
DMN,2017-04-01 13:30,-107.7206,32.2623,M,M,M,50.00,5.00,M,29.93,M,10.00,M,FEW,BKN,OVC,M,7000.00,7999.00,9500.00,M,M,KDMN 011330Z AUTO 05005KT 10SM FEW070 BKN079 OVC095 A2993 RMK MADISHF
DMN,2017-04-01 13:35,-107.7206,32.2623,M,M,M,40.00,5.00,M,29.93,M,10.00,M,OVC,M,M,M,8500.00,M,M,M,M,KDMN 011335Z AUTO 04005KT 10SM OVC085 A2993 RMK MADISHF
DMN,2017-04-01 13:40,-107.7206,32.2623,M,M,M,30.00,4.00,M,29.93,M,10.00,M,OVC,M,M,M,8500.00,M,M,M,M,KDMN 011340Z AUTO 03004KT 10SM OVC085 A2993 RMK MADISHF
DMN,2017-04-01 13:45,-107.7206,32.2623,M,M,M,20.00,6.00,M,29.93,M,10.00,M,OVC,M,M,M,9000.00,M,M,M,M,KDMN 011345Z AUTO 02006KT 10SM OVC090 A2993 RMK MADISHF
DMN,2017-04-01 13:50,-107.7206,32.2623,M,M,M,30.00,4.00,M,29.93,M,10.00,M,SCT,OVC,M,M,7999.00,9500.00,M,M,M,KDMN 011350Z AUTO 03004KT 10SM SCT079 OVC095 A2993 RMK MADISHF
DMN,2017-04-01 13:53,-107.7206,32.2623,45.00,30.90,57.50,30.00,5.00,0.00,29.93,1009.90,10.00,M,OVC,M,M,M,9000.00,M,M,M,M,KDMN 011353Z AUTO 03005KT 10SM OVC090 07/M01 A2993 RMK AO2 SLP099 T00721006
DMN,2017-04-01 13:55,-107.7206,32.2623,M,M,M,30.00,5.00,M,29.93,M,10.00,M,OVC,M,M,M,9000.00,M,M,M,M,KDMN 011355Z AUTO 03005KT 10SM OVC090 A2993 RMK MADISHF
DMN,2017-04-01 14:00,-107.7206,32.2623,M,M,M,20.00,4.00,M,29.93,M,10.00,M,OVC,M,M,M,9000.00,M,M,M,M,KDMN 011400Z AUTO 02004KT 10SM OVC090 A2993 RMK MADISHF
DMN,2017-04-01 14:05,-107.7206,32.2623,M,M,M,360.00,4.00,M,29.93,M,10.00,M,OVC,M,M,M,9000.00,M,M,M,M,KDMN 011405Z AUTO 36004KT 10SM OVC090 A2993 RMK MADISHF
DMN,2017-04-01 14:10,-107.7206,32.2623,M,M,M,10.00,3.00,M,29.93,M,10.00,M,OVC,M,M,M,9000.00,M,M,M,M,KDMN 011410Z AUTO 01003KT 10SM OVC090 A2993 RMK MADISHF
DMN,2017-04-01 14:15,-107.7206,32.2623,M,M,M,360.00,3.00,M,29.93,M,10.00,M,OVC,M,M,M,9000.00,M,M,M,M,KDMN 011415Z AUTO 36003KT 10SM OVC090 A2993 RMK MADISHF
DMN,2017-04-01 14:20,-107.7206,32.2623,M,M,M,0.00,0.00,M,29.93,M,10.00,M,OVC,M,M,M,9000.00,M,M,M,M,KDMN 011420Z AUTO 00000KT 10SM OVC090 A2993 RMK MADISHF
DMN,2017-04-01 14:25,-107.7206,32.2623,M,M,M,0.00,0.00,M,29.94,M,10.00,M,OVC,M,M,M,9000.00,M,M,M,M,KDMN 011425Z AUTO 00000KT 10SM OVC090 A2994 RMK MADISHF
DMN,2017-04-01 14:30,-107.7206,32.2623,M,M,M,90.00,3.00,M,29.94,M,10.00,M,OVC,M,M,M,8500.00,M,M,M,M,KDMN 011430Z AUTO 09003KT 10SM OVC085 A2994 RMK MADISHF
DMN,2017-04-01 14:35,-107.7206,32.2623,M,M,M,0.00,0.00,M,29.94,M,10.00,M,OVC,M,M,M,8500.00,M,M,M,M,KDMN 011435Z AUTO 00000KT 10SM OVC085 A2994 RMK MADISHF
DMN,2017-04-01 14:40,-107.7206,32.2623,M,M,M,0.00,0.00,M,29.94,M,10.00,M,BKN,M,M,M,8500.00,M,M,M,M,KDMN 011440Z AUTO 00000KT 10SM BKN085 A2994 RMK MADISHF
DMN,2017-04-01 14:45,-107.7206,32.2623,M,M,M,0.00,0.00,M,29.94,M,10.00,M,BKN,M,M,M,8500.00,M,M,M,M,KDMN 011445Z AUTO 00000KT 10SM BKN085 A2994 RMK MADISHF
DMN,2017-04-01 14:50,-107.7206,32.2623,M,M,M,0.00,0.00,M,29.94,M,10.00,M,SCT,M,M,M,8500.00,M,M,M,M,KDMN 011450Z AUTO 00000KT 10SM SCT085 A2994 RMK MADISHF
DMN,2017-04-01 14:53,-107.7206,32.2623,46.90,30.90,53.50,40.00,4.00,0.00,29.94,1010.60,10.00,M,SCT,M,M,M,8500.00,M,M,M,M,KDMN 011453Z AUTO 04004KT 10SM SCT085 08/M01 A2994 RMK AO2 SLP106 T00831006 51014
DMN,2017-04-01 14:55,-107.7206,32.2623,M,M,M,30.00,3.00,M,29.94,M,10.00,M,SCT,M,M,M,8500.00,M,M,M,M,KDMN 011455Z AUTO 03003KT 10SM SCT085 A2994 RMK MADISHF
DMN,2017-04-01 15:00,-107.7206,32.2623,M,M,M,30.00,3.00,M,29.94,M,10.00,M,FEW,M,M,M,8500.00,M,M,M,M,KDMN 011500Z AUTO 03003KT 10SM FEW085 A2994 RMK MADISHF
DMN,2017-04-01 15:05,-107.7206,32.2623,M,M,M,50.00,3.00,M,29.94,M,10.00,M,FEW,M,M,M,7999.00,M,M,M,M,KDMN 011505Z AUTO 05003KT 10SM FEW079 A2994 RMK MADISHF
DMN,2017-04-01 15:10,-107.7206,32.2623,M,M,M,30.00,3.00,M,29.94,M,10.00,M,FEW,M,M,M,7999.00,M,M,M,M,KDMN 011510Z AUTO 03003KT 10SM FEW079 A2994 RMK MADISHF
DMN,2017-04-01 15:15,-107.7206,32.2623,M,M,M,60.00,3.00,M,29.94,M,10.00,M,FEW,M,M,M,7999.00,M,M,M,M,KDMN 011515Z AUTO 06003KT 10SM FEW079 A2994 RMK MADISHF
DMN,2017-04-01 15:20,-107.7206,32.2623,M,M,M,50.00,4.00,M,29.94,M,10.00,M,FEW,M,M,M,7999.00,M,M,M,M,KDMN 011520Z AUTO 05004KT 10SM FEW079 A2994 RMK MADISHF
DMN,2017-04-01 15:25,-107.7206,32.2623,M,M,M,80.00,3.00,M,29.95,M,10.00,M,SCT,M,M,M,7999.00,M,M,M,M,KDMN 011525Z AUTO 08003KT 10SM SCT079 A2995 RMK MADISHF
DMN,2017-04-01 15:30,-107.7206,32.2623,M,M,M,80.00,4.00,M,29.95,M,10.00,M,BKN,M,M,M,7999.00,M,M,M,M,KDMN 011530Z AUTO 08004KT 10SM BKN079 A2995 RMK MADISHF
DMN,2017-04-01 15:35,-107.7206,32.2623,M,M,M,110.00,3.00,M,29.95,M,10.00,M,BKN,M,M,M,7999.00,M,M,M,M,KDMN 011535Z AUTO 11003KT 10SM BKN079 A2995 RMK MADISHF
DMN,2017-04-01 15:40,-107.7206,32.2623,M,M,M,70.00,3.00,M,29.95,M,10.00,M,SCT,M,M,M,7999.00,M,M,M,M,KDMN 011540Z AUTO 07003KT 10SM SCT079 A2995 RMK MADISHF
DMN,2017-04-01 15:45,-107.7206,32.2623,M,M,M,40.00,3.00,M,29.95,M,10.00,M,BKN,M,M,M,7999.00,M,M,M,M,KDMN 011545Z AUTO 04003KT 10SM BKN079 A2995 RMK MADISHF
DMN,2017-04-01 15:50,-107.7206,32.2623,M,M,M,50.00,3.00,M,29.95,M,10.00,M,BKN,M,M,M,7999.00,M,M,M,M,KDMN 011550Z AUTO 05003KT 10SM BKN079 A2995 RMK VRB03KT  MADISHF
DMN,2017-04-01 15:53,-107.7206,32.2623,48.90,30.00,47.85,30.00,4.00,0.00,29.95,1010.90,10.00,M,BKN,M,M,M,8000.00,M,M,M,M,KDMN 011553Z AUTO 03004KT 10SM BKN080 09/M01 A2995 RMK AO2 SLP109 T00941011
DMN,2017-04-01 15:55,-107.7206,32.2623,M,M,M,20.00,5.00,M,29.95,M,10.00,M,BKN,M,M,M,7999.00,M,M,M,M,KDMN 011555Z AUTO 02005KT 10SM BKN079 A2995 RMK MADISHF
DMN,2017-04-01 16:00,-107.7206,32.2623,M,M,M,0.00,0.00,M,29.95,M,10.00,M,BKN,M,M,M,7999.00,M,M,M,M,KDMN 011600Z AUTO 00000KT 10SM BKN079 A2995 RMK MADISHF
DMN,2017-04-01 16:05,-107.7206,32.2623,M,M,M,0.00,0.00,M,29.95,M,10.00,M,SCT,M,M,M,7999.00,M,M,M,M,KDMN 011605Z AUTO 00000KT 10SM SCT079 A2995 RMK MADISHF
DMN,2017-04-01 16:10,-107.7206,32.2623,M,M,M,0.00,0.00,M,29.95,M,10.00,M,SCT,M,M,M,7999.00,M,M,M,M,KDMN 011610Z AUTO 00000KT 10SM SCT079 A2995 RMK MADISHF
DMN,2017-04-01 16:15,-107.7206,32.2623,M,M,M,0.00,0.00,M,29.95,M,10.00,M,FEW,M,M,M,7999.00,M,M,M,M,KDMN 011615Z AUTO 00000KT 10SM FEW079 A2995 RMK MADISHF
DMN,2017-04-01 16:20,-107.7206,32.2623,M,M,M,210.00,3.00,M,29.95,M,10.00,M,FEW,M,M,M,7999.00,M,M,M,M,KDMN 011620Z AUTO 21003KT 10SM FEW079 A2995 RMK VRB03KT  MADISHF
DMN,2017-04-01 16:25,-107.7206,32.2623,M,M,M,0.00,0.00,M,29.95,M,10.00,M,CLR,M,M,M,M,M,M,M,M,KDMN 011625Z AUTO 00000KT 10SM CLR A2995 RMK MADISHF
DMN,2017-04-01 16:30,-107.7206,32.2623,M,M,M,0.00,0.00,M,29.95,M,10.00,M,CLR,M,M,M,M,M,M,M,M,KDMN 011630Z AUTO 00000KT 10SM CLR A2995 RMK MADISHF
DMN,2017-04-01 16:35,-107.7206,32.2623,M,M,M,0.00,0.00,M,29.95,M,10.00,M,CLR,M,M,M,M,M,M,M,M,KDMN 011635Z AUTO 00000KT 10SM CLR A2995 RMK MADISHF
DMN,2017-04-01 16:40,-107.7206,32.2623,M,M,M,0.00,0.00,M,29.95,M,10.00,M,CLR,M,M,M,M,M,M,M,M,KDMN 011640Z AUTO 00000KT 10SM CLR A2995 RMK MADISHF
DMN,2017-04-01 16:45,-107.7206,32.2623,M,M,M,30.00,3.00,M,29.95,M,10.00,M,CLR,M,M,M,M,M,M,M,M,KDMN 011645Z AUTO 03003KT 10SM CLR A2995 RMK VRB03KT  MADISHF
DMN,2017-04-01 16:50,-107.7206,32.2623,M,M,M,50.00,4.00,M,29.95,M,10.00,M,CLR,M,M,M,M,M,M,M,M,KDMN 011650Z AUTO 05004KT 10SM CLR A2995 RMK MADISHF
DMN,2017-04-01 16:53,-107.7206,32.2623,52.00,30.00,42.65,90.00,3.00,0.00,29.95,1010.90,10.00,M,CLR,M,M,M,M,M,M,M,M,KDMN 011653Z AUTO 09003KT 10SM CLR 11/M01 A2995 RMK AO2 SLP109 T01111011
DMN,2017-04-01 16:55,-107.7206,32.2623,M,M,M,0.00,0.00,M,29.95,M,10.00,M,CLR,M,M,M,M,M,M,M,M,KDMN 011655Z AUTO 00000KT 10SM CLR A2995 RMK MADISHF
DMN,2017-04-01 17:00,-107.7206,32.2623,M,M,M,320.00,4.00,M,29.95,M,10.00,M,FEW,M,M,M,7999.00,M,M,M,M,KDMN 011700Z AUTO 32004KT 10SM FEW079 A2995 RMK MADISHF
DMN,2017-04-01 17:05,-107.7206,32.2623,M,M,M,330.00,4.00,M,29.95,M,10.00,M,FEW,M,M,M,7999.00,M,M,M,M,KDMN 011705Z AUTO 33004KT 10SM FEW079 A2995 RMK MADISHF
DMN,2017-04-01 17:10,-107.7206,32.2623,M,M,M,350.00,4.00,M,29.95,M,10.00,M,FEW,SCT,M,M,6500.00,7999.00,M,M,M,KDMN 011710Z AUTO 35004KT 10SM FEW065 SCT079 A2995 RMK MADISHF
DMN,2017-04-01 17:15,-107.7206,32.2623,M,M,M,360.00,3.00,M,29.95,M,10.00,M,FEW,M,M,M,7000.00,M,M,M,M,KDMN 011715Z AUTO 36003KT 10SM FEW070 A2995 RMK VRB03KT  MADISHF
DMN,2017-04-01 17:20,-107.7206,32.2623,M,M,M,110.00,4.00,M,29.95,M,10.00,M,SCT,M,M,M,7000.00,M,M,M,M,KDMN 011720Z AUTO 11004KT 10SM SCT070 A2995 RMK VRB04KT  MADISHF
DMN,2017-04-01 17:25,-107.7206,32.2623,M,M,M,180.00,3.00,M,29.95,M,10.00,M,SCT,M,M,M,7000.00,M,M,M,M,KDMN 011725Z AUTO 18003KT 10SM SCT070 A2995 RMK VRB03KT  MADISHF
DMN,2017-04-01 17:30,-107.7206,32.2623,M,M,M,160.00,5.00,M,29.95,M,10.00,M,SCT,M,M,M,7000.00,M,M,M,M,KDMN 011730Z AUTO 16005KT 10SM SCT070 A2995 RMK MADISHF
DMN,2017-04-01 17:35,-107.7206,32.2623,M,M,M,300.00,4.00,M,29.95,M,10.00,M,SCT,M,M,M,6500.00,M,M,M,M,KDMN 011735Z AUTO 30004KT 10SM SCT065 A2995 RMK VRB04KT  MADISHF
DMN,2017-04-01 17:40,-107.7206,32.2623,M,M,M,260.00,4.00,M,29.95,M,10.00,M,SCT,M,M,M,6000.00,M,M,M,M,KDMN 011740Z AUTO 26004KT 10SM SCT060 A2995 RMK VRB04KT  MADISHF
DMN,2017-04-01 17:45,-107.7206,32.2623,M,M,M,260.00,5.00,M,29.95,M,10.00,M,SCT,M,M,M,7000.00,M,M,M,M,KDMN 011745Z AUTO 26005KT 10SM SCT070 A2995 RMK VRB05KT  MADISHF
DMN,2017-04-01 17:50,-107.7206,32.2623,M,M,M,280.00,4.00,M,29.95,M,10.00,M,FEW,SCT,M,M,5500.00,7000.00,M,M,M,KDMN 011750Z AUTO 28004KT 10SM FEW055 SCT070 A2995 RMK MADISHF
DMN,2017-04-01 17:53,-107.7206,32.2623,55.00,27.00,33.79,280.00,7.00,0.00,29.95,1010.80,10.00,M,FEW,SCT,M,M,5500.00,7000.00,M,M,M,KDMN 011753Z AUTO 28007KT 10SM FEW055 SCT070 13/M03 A2995 RMK AO2 SLP108 T01281028 10128 20067 50002
DMN,2017-04-01 17:55,-107.7206,32.2623,M,M,M,260.00,6.00,M,29.95,M,10.00,M,FEW,BKN,M,M,6000.00,7500.00,M,M,M,KDMN 011755Z AUTO 26006KT 10SM FEW060 BKN075 A2995 RMK MADISHF
DMN,2017-04-01 18:00,-107.7206,32.2623,M,M,M,240.00,9.00,M,29.95,M,10.00,M,BKN,M,M,M,7000.00,M,M,M,M,KDMN 011800Z AUTO 24009KT 10SM BKN070 A2995 RMK MADISHF
DMN,2017-04-01 18:05,-107.7206,32.2623,M,M,M,270.00,4.00,M,29.95,M,10.00,M,BKN,M,M,M,7000.00,M,M,M,M,KDMN 011805Z AUTO 27004KT 10SM BKN070 A2995 RMK VRB04KT  MADISHF
DMN,2017-04-01 18:10,-107.7206,32.2623,M,M,M,280.00,5.00,M,29.94,M,10.00,M,BKN,M,M,M,7000.00,M,M,M,M,KDMN 011810Z AUTO 28005KT 10SM BKN070 A2994 RMK VRB05KT  MADISHF
DMN,2017-04-01 18:15,-107.7206,32.2623,M,M,M,200.00,6.00,M,29.94,M,10.00,M,BKN,M,M,M,7000.00,M,M,M,M,KDMN 011815Z AUTO 20006KT 10SM BKN070 A2994 RMK MADISHF
DMN,2017-04-01 18:20,-107.7206,32.2623,M,M,M,10.00,5.00,M,29.94,M,10.00,M,BKN,M,M,M,7000.00,M,M,M,M,KDMN 011820Z AUTO 01005KT 10SM BKN070 A2994 RMK VRB05KT  MADISHF
DMN,2017-04-01 18:25,-107.7206,32.2623,M,M,M,220.00,6.00,M,M,M,10.00,M,BKN,M,M,M,7000.00,M,M,M,M,KDMN 011825Z AUTO 22006KT 10SM BKN070 RMK VRB06KT  MADISHF
DMN,2017-04-01 18:30,-107.7206,32.2623,M,M,M,250.00,7.00,M,29.94,M,10.00,M,BKN,M,M,M,6500.00,M,M,M,M,KDMN 011830Z AUTO 25007KT 10SM BKN065 A2994 RMK MADISHF
DMN,2017-04-01 18:35,-107.7206,32.2623,M,M,M,290.00,9.00,M,M,M,10.00,M,BKN,M,M,M,6500.00,M,M,M,M,KDMN 011835Z AUTO 29009KT 10SM BKN065 RMK MADISHF
DMN,2017-04-01 18:40,-107.7206,32.2623,M,M,M,300.00,8.00,M,29.94,M,10.00,M,SCT,M,M,M,6500.00,M,M,M,M,KDMN 011840Z AUTO 30008KT 10SM SCT065 A2994 RMK MADISHF
DMN,2017-04-01 18:45,-107.7206,32.2623,M,M,M,300.00,5.00,M,29.94,M,10.00,M,SCT,M,M,M,6500.00,M,M,M,M,KDMN 011845Z AUTO 30005KT 10SM SCT065 A2994 RMK VRB05KT  MADISHF
DMN,2017-04-01 18:50,-107.7206,32.2623,M,M,M,280.00,7.00,M,29.94,M,10.00,M,SCT,M,M,M,7000.00,M,M,M,M,KDMN 011850Z AUTO 28007KT 10SM SCT070 A2994 RMK MADISHF
DMN,2017-04-01 18:53,-107.7206,32.2623,55.90,26.10,31.51,320.00,4.00,0.00,29.93,1010.30,10.00,M,BKN,M,M,M,7000.00,M,M,M,M,KDMN 011853Z AUTO 32004KT 10SM BKN070 13/M03 A2993 RMK AO2 SLP103 T01331033
DMN,2017-04-01 18:55,-107.7206,32.2623,M,M,M,330.00,3.00,M,29.93,M,10.00,M,BKN,M,M,M,7000.00,M,M,M,M,KDMN 011855Z AUTO 33003KT 10SM BKN070 A2993 RMK MADISHF
DMN,2017-04-01 19:00,-107.7206,32.2623,M,M,M,0.00,0.00,M,29.93,M,10.00,M,BKN,M,M,M,6500.00,M,M,M,M,KDMN 011900Z AUTO 00000KT 10SM BKN065 A2993 RMK MADISHF
DMN,2017-04-01 19:05,-107.7206,32.2623,M,M,M,270.00,3.00,M,29.93,M,10.00,M,BKN,M,M,M,7000.00,M,M,M,M,KDMN 011905Z AUTO 27003KT 10SM BKN070 A2993 RMK VRB03KT  MADISHF
DMN,2017-04-01 19:10,-107.7206,32.2623,M,M,M,M,M,M,29.93,M,10.00,M,BKN,M,M,M,7000.00,M,M,M,M,KDMN 011910Z AUTO /////KT 10SM BKN070 A2993 RMK MADISHF
DMN,2017-04-01 19:15,-107.7206,32.2623,M,M,M,300.00,11.00,M,29.93,M,10.00,M,BKN,M,M,M,7000.00,M,M,M,M,KDMN 011915Z AUTO 30011KT 10SM BKN070 A2993 RMK MADISHF
DMN,2017-04-01 19:20,-107.7206,32.2623,M,M,M,280.00,3.00,M,29.93,M,10.00,M,BKN,M,M,M,7000.00,M,M,M,M,KDMN 011920Z AUTO 28003KT 10SM BKN070 A2993 RMK VRB03KT  MADISHF
DMN,2017-04-01 19:25,-107.7206,32.2623,M,M,M,200.00,7.00,M,29.93,M,10.00,M,BKN,M,M,M,7000.00,M,M,M,M,KDMN 011925Z AUTO 20007KT 10SM BKN070 A2993 RMK MADISHF
DMN,2017-04-01 19:30,-107.7206,32.2623,M,M,M,270.00,7.00,M,29.93,M,10.00,M,BKN,M,M,M,7000.00,M,M,M,M,KDMN 011930Z AUTO 27007KT 10SM BKN070 A2993 RMK WND 24V30  MADISHF
DMN,2017-04-01 19:35,-107.7206,32.2623,M,M,M,260.00,4.00,M,29.92,M,10.00,M,BKN,M,M,M,7500.00,M,M,M,M,KDMN 011935Z AUTO 26004KT 10SM BKN075 A2992 RMK VRB04KT  MADISHF
DMN,2017-04-01 19:40,-107.7206,32.2623,M,M,M,240.00,5.00,M,29.93,M,10.00,M,SCT,M,M,M,7000.00,M,M,M,M,KDMN 011940Z AUTO 24005KT 10SM SCT070 A2993 RMK VRB05KT  MADISHF
DMN,2017-04-01 19:45,-107.7206,32.2623,M,M,M,280.00,6.00,M,29.92,M,10.00,M,BKN,M,M,M,7000.00,M,M,M,M,KDMN 011945Z AUTO 28006KT 10SM BKN070 A2992 RMK MADISHF
DMN,2017-04-01 19:50,-107.7206,32.2623,M,M,M,260.00,6.00,M,29.92,M,10.00,M,BKN,M,M,M,7000.00,M,M,M,M,KDMN 011950Z AUTO 26006KT 10SM BKN070 A2992 RMK VRB06KT  MADISHF
DMN,2017-04-01 19:53,-107.7206,32.2623,57.90,24.10,26.98,270.00,7.00,0.00,29.92,1009.90,10.00,M,SCT,M,M,M,7000.00,M,M,M,M,KDMN 011953Z AUTO 27007KT 10SM SCT070 14/M04 A2992 RMK AO2 SLP099 T01441044
DMN,2017-04-01 19:55,-107.7206,32.2623,M,M,M,260.00,6.00,M,M,M,10.00,M,SCT,M,M,M,7000.00,M,M,M,M,KDMN 011955Z AUTO 26006KT 10SM SCT070 RMK VRB06KT  MADISHF
DMN,2017-04-01 20:00,-107.7206,32.2623,M,M,M,240.00,6.00,M,29.92,M,10.00,M,SCT,M,M,M,7000.00,M,M,M,M,KDMN 012000Z AUTO 24006KT 10SM SCT070 A2992 RMK VRB06KT  MADISHF
DMN,2017-04-01 20:05,-107.7206,32.2623,M,M,M,230.00,10.00,M,29.92,M,10.00,M,FEW,M,M,M,7000.00,M,M,M,M,KDMN 012005Z AUTO 23010KT 10SM FEW070 A2992 RMK MADISHF
DMN,2017-04-01 20:10,-107.7206,32.2623,M,M,M,250.00,10.00,M,29.92,M,10.00,M,FEW,M,M,M,7000.00,M,M,M,M,KDMN 012010Z AUTO 25010KT 10SM FEW070 A2992 RMK MADISHF
DMN,2017-04-01 20:15,-107.7206,32.2623,M,M,M,240.00,11.00,M,29.92,M,10.00,M,FEW,M,M,M,7000.00,M,M,M,M,KDMN 012015Z AUTO 24011KT 10SM FEW070 A2992 RMK MADISHF
DMN,2017-04-01 20:20,-107.7206,32.2623,M,M,M,240.00,10.00,M,29.92,M,10.00,M,FEW,M,M,M,7000.00,M,M,M,M,KDMN 012020Z AUTO 24010KT 10SM FEW070 A2992 RMK MADISHF
DMN,2017-04-01 20:25,-107.7206,32.2623,M,M,M,210.00,9.00,M,29.91,M,10.00,M,CLR,M,M,M,M,M,M,M,M,KDMN 012025Z AUTO 21009KT 10SM CLR A2991 RMK MADISHF
DMN,2017-04-01 20:30,-107.7206,32.2623,M,M,M,270.00,10.00,M,29.91,M,10.00,M,CLR,M,M,M,M,M,M,M,M,KDMN 012030Z AUTO 27010KT 10SM CLR A2991 RMK MADISHF
DMN,2017-04-01 20:35,-107.7206,32.2623,M,M,M,210.00,11.00,M,29.91,M,10.00,19.00,CLR,M,M,M,M,M,M,M,M,KDMN 012035Z AUTO 21011G19KT 10SM CLR A2991 RMK WND 18V24  MADISHF
DMN,2017-04-01 20:40,-107.7206,32.2623,M,M,M,210.00,9.00,M,29.91,M,10.00,M,FEW,M,M,M,8500.00,M,M,M,M,KDMN 012040Z AUTO 21009KT 10SM FEW085 A2991 RMK MADISHF
DMN,2017-04-01 20:45,-107.7206,32.2623,M,M,M,M,M,M,29.91,M,10.00,M,SCT,M,M,M,9000.00,M,M,M,M,KDMN 012045Z AUTO /////KT 10SM SCT090 A2991 RMK MADISHF
DMN,2017-04-01 20:50,-107.7206,32.2623,M,M,M,240.00,8.00,M,29.91,M,10.00,M,SCT,M,M,M,9000.00,M,M,M,M,KDMN 012050Z AUTO 24008KT 10SM SCT090 A2991 RMK MADISHF
DMN,2017-04-01 20:53,-107.7206,32.2623,60.10,23.00,23.81,260.00,10.00,0.00,29.91,1009.30,10.00,M,SCT,M,M,M,9000.00,M,M,M,M,KDMN 012053Z AUTO 26010KT 10SM SCT090 16/M05 A2991 RMK AO2 SLP093 T01561050 57011
DMN,2017-04-01 20:55,-107.7206,32.2623,M,M,M,250.00,9.00,M,29.91,M,10.00,M,FEW,M,M,M,8500.00,M,M,M,M,KDMN 012055Z AUTO 25009KT 10SM FEW085 A2991 RMK MADISHF
DMN,2017-04-01 21:00,-107.7206,32.2623,M,M,M,230.00,9.00,M,29.91,M,10.00,M,SCT,M,M,M,9000.00,M,M,M,M,KDMN 012100Z AUTO 23009KT 10SM SCT090 A2991 RMK MADISHF
DMN,2017-04-01 21:05,-107.7206,32.2623,M,M,M,0.00,0.00,M,29.91,M,10.00,M,BKN,M,M,M,9000.00,M,M,M,M,KDMN 012105Z AUTO 00000KT 10SM BKN090 A2991 RMK MADISHF
DMN,2017-04-01 21:10,-107.7206,32.2623,M,M,M,200.00,5.00,M,29.90,M,10.00,M,BKN,M,M,M,9000.00,M,M,M,M,KDMN 012110Z AUTO 20005KT 10SM BKN090 A2990 RMK MADISHF
DMN,2017-04-01 21:15,-107.7206,32.2623,M,M,M,M,M,M,29.91,M,10.00,M,BKN,M,M,M,9000.00,M,M,M,M,KDMN 012115Z AUTO /////KT 10SM BKN090 A2991 RMK MADISHF
DMN,2017-04-01 21:20,-107.7206,32.2623,M,M,M,220.00,5.00,M,29.90,M,10.00,M,BKN,M,M,M,9000.00,M,M,M,M,KDMN 012120Z AUTO 22005KT 10SM BKN090 A2990 RMK MADISHF
DMN,2017-04-01 21:25,-107.7206,32.2623,M,M,M,0.00,0.00,M,29.90,M,10.00,M,BKN,M,M,M,9000.00,M,M,M,M,KDMN 012125Z AUTO 00000KT 10SM BKN090 A2990 RMK MADISHF
DMN,2017-04-01 21:30,-107.7206,32.2623,M,M,M,240.00,3.00,M,29.90,M,10.00,M,BKN,M,M,M,9000.00,M,M,M,M,KDMN 012130Z AUTO 24003KT 10SM BKN090 A2990 RMK VRB03KT  MADISHF
DMN,2017-04-01 21:35,-107.7206,32.2623,M,M,M,280.00,4.00,M,29.90,M,10.00,M,BKN,M,M,M,9000.00,M,M,M,M,KDMN 012135Z AUTO 28004KT 10SM BKN090 A2990 RMK VRB04KT  MADISHF
DMN,2017-04-01 21:40,-107.7206,32.2623,M,M,M,250.00,7.00,M,29.89,M,10.00,M,SCT,M,M,M,9000.00,M,M,M,M,KDMN 012140Z AUTO 25007KT 10SM SCT090 A2989 RMK MADISHF
DMN,2017-04-01 21:45,-107.7206,32.2623,M,M,M,230.00,5.00,M,29.89,M,10.00,M,FEW,M,M,M,9000.00,M,M,M,M,KDMN 012145Z AUTO 23005KT 10SM FEW090 A2989 RMK VRB05KT  MADISHF
DMN,2017-04-01 21:50,-107.7206,32.2623,M,M,M,0.00,0.00,M,29.89,M,10.00,M,FEW,M,M,M,8500.00,M,M,M,M,KDMN 012150Z AUTO 00000KT 10SM FEW085 A2989 RMK MADISHF
DMN,2017-04-01 21:53,-107.7206,32.2623,61.00,21.90,22.02,M,4.00,0.00,29.89,1008.40,10.00,M,FEW,M,M,M,9000.00,M,M,M,M,KDMN 012153Z AUTO VRB04KT 10SM FEW090 16/M06 A2989 RMK AO2 SLP084 T01611056
DMN,2017-04-01 21:55,-107.7206,32.2623,M,M,M,M,M,M,M,M,10.00,M,FEW,M,M,M,9000.00,M,M,M,M,KDMN 012155Z AUTO /////KT 10SM FEW090 RMK MADISHF
DMN,2017-04-01 22:00,-107.7206,32.2623,M,M,M,300.00,4.00,M,29.89,M,10.00,M,SCT,M,M,M,9000.00,M,M,M,M,KDMN 012200Z AUTO 30004KT 10SM SCT090 A2989 RMK MADISHF
DMN,2017-04-01 22:05,-107.7206,32.2623,M,M,M,0.00,0.00,M,29.90,M,10.00,M,BKN,M,M,M,9000.00,M,M,M,M,KDMN 012205Z AUTO 00000KT 10SM BKN090 A2990 RMK MADISHF
DMN,2017-04-01 22:10,-107.7206,32.2623,M,M,M,290.00,6.00,M,29.90,M,10.00,M,BKN,M,M,M,9000.00,M,M,M,M,KDMN 012210Z AUTO 29006KT 10SM BKN090 A2990 RMK VRB06KT  MADISHF
DMN,2017-04-01 22:15,-107.7206,32.2623,M,M,M,310.00,6.00,M,29.90,M,10.00,M,BKN,M,M,M,9000.00,M,M,M,M,KDMN 012215Z AUTO 31006KT 10SM BKN090 A2990 RMK VRB06KT  MADISHF
DMN,2017-04-01 22:20,-107.7206,32.2623,M,M,M,0.00,0.00,M,29.89,M,10.00,M,OVC,M,M,M,9000.00,M,M,M,M,KDMN 012220Z AUTO 00000KT 10SM OVC090 A2989 RMK MADISHF
DMN,2017-04-01 22:25,-107.7206,32.2623,M,M,M,M,M,M,29.90,M,10.00,M,OVC,M,M,M,9000.00,M,M,M,M,KDMN 012225Z AUTO /////KT 10SM OVC090 A2990 RMK MADISHF
DMN,2017-04-01 22:30,-107.7206,32.2623,M,M,M,280.00,9.00,M,29.90,M,10.00,M,BKN,M,M,M,9000.00,M,M,M,M,KDMN 012230Z AUTO 28009KT 10SM BKN090 A2990 RMK MADISHF
DMN,2017-04-01 22:35,-107.7206,32.2623,M,M,M,280.00,4.00,M,29.90,M,10.00,M,BKN,M,M,M,9000.00,M,M,M,M,KDMN 012235Z AUTO 28004KT 10SM BKN090 A2990 RMK VRB04KT  MADISHF
DMN,2017-04-01 22:40,-107.7206,32.2623,M,M,M,190.00,6.00,M,29.90,M,10.00,M,OVC,M,M,M,9000.00,M,M,M,M,KDMN 012240Z AUTO 19006KT 10SM OVC090 A2990 RMK VRB06KT  MADISHF
DMN,2017-04-01 22:45,-107.7206,32.2623,M,M,M,290.00,10.00,M,29.90,M,10.00,M,BKN,M,M,M,9000.00,M,M,M,M,KDMN 012245Z AUTO 29010KT 10SM BKN090 A2990 RMK MADISHF
DMN,2017-04-01 22:50,-107.7206,32.2623,M,M,M,300.00,10.00,M,29.90,M,10.00,M,BKN,M,M,M,9500.00,M,M,M,M,KDMN 012250Z AUTO 30010KT 10SM BKN095 A2990 RMK MADISHF
DMN,2017-04-01 22:53,-107.7206,32.2623,61.00,21.90,22.02,280.00,7.00,0.00,29.90,1008.20,10.00,M,BKN,M,M,M,9500.00,M,M,M,M,KDMN 012253Z AUTO 28007KT 10SM BKN095 16/M06 A2990 RMK AO2 SLP082 T01611056
DMN,2017-04-01 22:55,-107.7206,32.2623,M,M,M,270.00,4.00,M,29.90,M,10.00,M,BKN,M,M,M,9500.00,M,M,M,M,KDMN 012255Z AUTO 27004KT 10SM BKN095 A2990 RMK MADISHF
DMN,2017-04-01 23:00,-107.7206,32.2623,M,M,M,M,M,M,29.90,M,10.00,M,SCT,M,M,M,9500.00,M,M,M,M,KDMN 012300Z AUTO /////KT 10SM SCT095 A2990 RMK MADISHF
DMN,2017-04-01 23:05,-107.7206,32.2623,M,M,M,260.00,6.00,M,29.90,M,10.00,M,SCT,M,M,M,9500.00,M,M,M,M,KDMN 012305Z AUTO 26006KT 10SM SCT095 A2990 RMK MADISHF
DMN,2017-04-01 23:10,-107.7206,32.2623,M,M,M,270.00,9.00,M,29.90,M,10.00,M,SCT,M,M,M,9500.00,M,M,M,M,KDMN 012310Z AUTO 27009KT 10SM SCT095 A2990 RMK MADISHF
DMN,2017-04-01 23:15,-107.7206,32.2623,M,M,M,290.00,5.00,M,29.90,M,10.00,M,SCT,M,M,M,9500.00,M,M,M,M,KDMN 012315Z AUTO 29005KT 10SM SCT095 A2990 RMK MADISHF
DMN,2017-04-01 23:20,-107.7206,32.2623,M,M,M,320.00,6.00,M,29.90,M,10.00,M,FEW,M,M,M,9500.00,M,M,M,M,KDMN 012320Z AUTO 32006KT 10SM FEW095 A2990 RMK MADISHF
DMN,2017-04-01 23:25,-107.7206,32.2623,M,M,M,300.00,7.00,M,29.91,M,10.00,M,SCT,M,M,M,10000.00,M,M,M,M,KDMN 012325Z AUTO 30007KT 10SM SCT100 A2991 RMK WND 26V34  MADISHF
DMN,2017-04-01 23:30,-107.7206,32.2623,M,M,M,350.00,6.00,M,29.91,M,10.00,M,BKN,M,M,M,10000.00,M,M,M,M,KDMN 012330Z AUTO 35006KT 10SM BKN100 A2991 RMK MADISHF
DMN,2017-04-01 23:35,-107.7206,32.2623,M,M,M,320.00,11.00,M,29.91,M,10.00,M,BKN,M,M,M,10000.00,M,M,M,M,KDMN 012335Z AUTO 32011KT 10SM BKN100 A2991 RMK MADISHF
DMN,2017-04-01 23:40,-107.7206,32.2623,M,M,M,300.00,10.00,M,29.91,M,10.00,M,BKN,M,M,M,10000.00,M,M,M,M,KDMN 012340Z AUTO 30010KT 10SM BKN100 A2991 RMK MADISHF
DMN,2017-04-01 23:45,-107.7206,32.2623,M,M,M,300.00,9.00,M,29.91,M,10.00,15.00,OVC,M,M,M,10000.00,M,M,M,M,KDMN 012345Z AUTO 30009G15KT 10SM OVC100 A2991 RMK MADISHF
DMN,2017-04-01 23:50,-107.7206,32.2623,M,M,M,330.00,7.00,M,29.91,M,10.00,M,OVC,M,M,M,10000.00,M,M,M,M,KDMN 012350Z AUTO 33007KT 10SM OVC100 A2991 RMK MADISHF
DMN,2017-04-01 23:53,-107.7206,32.2623,60.10,21.00,21.88,300.00,8.00,0.00,29.92,1009.00,10.00,16.00,OVC,M,M,M,10000.00,M,M,M,M,KDMN 012353Z AUTO 30008G16KT 10SM OVC100 16/M06 A2992 RMK AO2 SLP090 T01561061 10167 20122 53002
DMN,2017-04-01 23:55,-107.7206,32.2623,M,M,M,300.00,7.00,M,M,M,10.00,M,OVC,M,M,M,10000.00,M,M,M,M,KDMN 012355Z AUTO 30007KT 10SM OVC100 RMK MADISHF
