#DEBUG: Format Typ    -> comma
#DEBUG: Time Period   -> 2017-04-01 00:00:00+00:00 2017-04-02 00:00:00+00:00
#DEBUG: Time Zone     -> Etc/UTC
#DEBUG: Data Contact   -> daryl herzmann akrherz@iastate.edu 515-294-5978
#DEBUG: Entries Found -> -1
station,valid,lon,lat,tmpf, dwpf, relh, drct, sknt, p01i, alti, mslp, vsby, gust, skyc1, skyc2, skyc3, skyc4, skyl1, skyl2, skyl3, skyl4, presentwx, metar
DNL,2017-04-01 00:00,-82.0382,33.4669,M,M,M,290.00,6.00,M,29.79,M,10.00,M,CLR,M,M,M,M,M,M,M,M,KDNL 010000Z AUTO 29006KT 10SM CLR A2979 RMK MADISHF
DNL,2017-04-01 00:05,-82.0382,33.4669,M,M,M,280.00,5.00,M,29.79,M,10.00,M,CLR,M,M,M,M,M,M,M,M,KDNL 010005Z AUTO 28005KT 10SM CLR A2979 RMK MADISHF
DNL,2017-04-01 00:10,-82.0382,33.4669,M,M,M,270.00,8.00,M,29.80,M,10.00,M,CLR,M,M,M,M,M,M,M,M,KDNL 010010Z AUTO 27008KT 10SM CLR A2980 RMK MADISHF
DNL,2017-04-01 00:15,-82.0382,33.4669,M,M,M,280.00,5.00,M,29.80,M,10.00,M,CLR,M,M,M,M,M,M,M,M,KDNL 010015Z AUTO 28005KT 10SM CLR A2980 RMK MADISHF
DNL,2017-04-01 00:20,-82.0382,33.4669,M,M,M,290.00,6.00,M,29.80,M,10.00,M,CLR,M,M,M,M,M,M,M,M,KDNL 010020Z AUTO 29006KT 10SM CLR A2980 RMK MADISHF
DNL,2017-04-01 00:25,-82.0382,33.4669,M,M,M,280.00,6.00,M,29.80,M,10.00,M,CLR,M,M,M,M,M,M,M,M,KDNL 010025Z AUTO 28006KT 10SM CLR A2980 RMK MADISHF
DNL,2017-04-01 00:30,-82.0382,33.4669,M,M,M,290.00,6.00,M,29.80,M,10.00,M,CLR,M,M,M,M,M,M,M,M,KDNL 010030Z AUTO 29006KT 10SM CLR A2980 RMK MADISHF
DNL,2017-04-01 00:35,-82.0382,33.4669,M,M,M,290.00,7.00,M,29.81,M,10.00,M,CLR,M,M,M,M,M,M,M,M,KDNL 010035Z AUTO 29007KT 10SM CLR A2981 RMK MADISHF
DNL,2017-04-01 00:40,-82.0382,33.4669,M,M,M,300.00,6.00,M,29.81,M,10.00,M,CLR,M,M,M,M,M,M,M,M,KDNL 010040Z AUTO 30006KT 10SM CLR A2981 RMK MADISHF
DNL,2017-04-01 00:45,-82.0382,33.4669,M,M,M,290.00,6.00,M,29.81,M,10.00,M,CLR,M,M,M,M,M,M,M,M,KDNL 010045Z AUTO 29006KT 10SM CLR A2981 RMK MADISHF
DNL,2017-04-01 00:50,-82.0382,33.4669,M,M,M,290.00,7.00,M,29.81,M,10.00,M,CLR,M,M,M,M,M,M,M,M,KDNL 010050Z AUTO 29007KT 10SM CLR A2981 RMK MADISHF
DNL,2017-04-01 00:53,-82.0382,33.4669,72.00,43.00,35.16,290.00,6.00,0.00,29.81,1009.20,10.00,M,CLR,M,M,M,M,M,M,M,M,KDNL 010053Z AUTO 29006KT 10SM CLR 22/06 A2981 RMK AO2 SLP092 T02220061
DNL,2017-04-01 00:55,-82.0382,33.4669,M,M,M,290.00,6.00,M,29.82,M,10.00,M,CLR,M,M,M,M,M,M,M,M,KDNL 010055Z AUTO 29006KT 10SM CLR A2982 RMK MADISHF
DNL,2017-04-01 01:00,-82.0382,33.4669,M,M,M,290.00,6.00,M,29.82,M,10.00,M,CLR,M,M,M,M,M,M,M,M,KDNL 010100Z AUTO 29006KT 10SM CLR A2982 RMK MADISHF
DNL,2017-04-01 01:05,-82.0382,33.4669,M,M,M,290.00,6.00,M,29.82,M,10.00,M,CLR,M,M,M,M,M,M,M,M,KDNL 010105Z AUTO 29006KT 10SM CLR A2982 RMK MADISHF
DNL,2017-04-01 01:10,-82.0382,33.4669,M,M,M,290.00,7.00,M,29.82,M,10.00,M,CLR,M,M,M,M,M,M,M,M,KDNL 010110Z AUTO 29007KT 10SM CLR A2982 RMK MADISHF
DNL,2017-04-01 01:15,-82.0382,33.4669,M,M,M,290.00,6.00,M,29.83,M,10.00,M,CLR,M,M,M,M,M,M,M,M,KDNL 010115Z AUTO 29006KT 10SM CLR A2983 RMK MADISHF
DNL,2017-04-01 01:20,-82.0382,33.4669,M,M,M,290.00,5.00,M,29.83,M,10.00,M,CLR,M,M,M,M,M,M,M,M,KDNL 010120Z AUTO 29005KT 10SM CLR A2983 RMK MADISHF
DNL,2017-04-01 01:25,-82.0382,33.4669,M,M,M,290.00,6.00,M,29.83,M,10.00,M,CLR,M,M,M,M,M,M,M,M,KDNL 010125Z AUTO 29006KT 10SM CLR A2983 RMK MADISHF
DNL,2017-04-01 01:30,-82.0382,33.4669,M,M,M,290.00,6.00,M,29.83,M,10.00,M,CLR,M,M,M,M,M,M,M,M,KDNL 010130Z AUTO 29006KT 10SM CLR A2983 RMK MADISHF
DNL,2017-04-01 01:35,-82.0382,33.4669,M,M,M,290.00,6.00,M,29.84,M,10.00,M,CLR,M,M,M,M,M,M,M,M,KDNL 010135Z AUTO 29006KT 10SM CLR A2984 RMK MADISHF
DNL,2017-04-01 01:40,-82.0382,33.4669,M,M,M,300.00,5.00,M,29.84,M,10.00,M,CLR,M,M,M,M,M,M,M,M,KDNL 010140Z AUTO 30005KT 10SM CLR A2984 RMK MADISHF
DNL,2017-04-01 01:45,-82.0382,33.4669,M,M,M,300.00,5.00,M,29.84,M,10.00,M,CLR,M,M,M,M,M,M,M,M,KDNL 010145Z AUTO 30005KT 10SM CLR A2984 RMK MADISHF
DNL,2017-04-01 01:50,-82.0382,33.4669,M,M,M,300.00,5.00,M,29.84,M,10.00,M,CLR,M,M,M,M,M,M,M,M,KDNL 010150Z AUTO 30005KT 10SM CLR A2984 RMK MADISHF
DNL,2017-04-01 01:53,-82.0382,33.4669,70.00,44.10,39.26,300.00,6.00,0.00,29.84,1010.20,10.00,M,CLR,M,M,M,M,M,M,M,M,KDNL 010153Z AUTO 30006KT 10SM CLR 21/07 A2984 RMK AO2 SLP102 T02110067
DNL,2017-04-01 01:55,-82.0382,33.4669,M,M,M,300.00,6.00,M,29.85,M,10.00,M,CLR,M,M,M,M,M,M,M,M,KDNL 010155Z AUTO 30006KT 10SM CLR A2985 RMK MADISHF
DNL,2017-04-01 02:00,-82.0382,33.4669,M,M,M,290.00,6.00,M,29.85,M,10.00,M,CLR,M,M,M,M,M,M,M,M,KDNL 010200Z AUTO 29006KT 10SM CLR A2985 RMK MADISHF
DNL,2017-04-01 02:05,-82.0382,33.4669,M,M,M,290.00,6.00,M,29.85,M,10.00,M,CLR,M,M,M,M,M,M,M,M,KDNL 010205Z AUTO 29006KT 10SM CLR A2985 RMK MADISHF
DNL,2017-04-01 02:10,-82.0382,33.4669,M,M,M,300.00,6.00,M,29.85,M,10.00,M,CLR,M,M,M,M,M,M,M,M,KDNL 010210Z AUTO 30006KT 10SM CLR A2985 RMK MADISHF
DNL,2017-04-01 02:15,-82.0382,33.4669,M,M,M,300.00,6.00,M,29.86,M,10.00,M,CLR,M,M,M,M,M,M,M,M,KDNL 010215Z AUTO 30006KT 10SM CLR A2986 RMK MADISHF
DNL,2017-04-01 02:20,-82.0382,33.4669,M,M,M,300.00,6.00,M,29.86,M,10.00,M,CLR,M,M,M,M,M,M,M,M,KDNL 010220Z AUTO 30006KT 10SM CLR A2986 RMK MADISHF
DNL,2017-04-01 02:25,-82.0382,33.4669,M,M,M,300.00,6.00,M,29.86,M,10.00,M,CLR,M,M,M,M,M,M,M,M,KDNL 010225Z AUTO 30006KT 10SM CLR A2986 RMK MADISHF
DNL,2017-04-01 02:30,-82.0382,33.4669,M,M,M,310.00,7.00,M,29.86,M,10.00,M,CLR,M,M,M,M,M,M,M,M,KDNL 010230Z AUTO 31007KT 10SM CLR A2986 RMK MADISHF
DNL,2017-04-01 02:35,-82.0382,33.4669,M,M,M,310.00,7.00,M,29.87,M,10.00,M,CLR,M,M,M,M,M,M,M,M,KDNL 010235Z AUTO 31007KT 10SM CLR A2987 RMK MADISHF
DNL,2017-04-01 02:40,-82.0382,33.4669,M,M,M,300.00,7.00,M,29.87,M,10.00,M,CLR,M,M,M,M,M,M,M,M,KDNL 010240Z AUTO 30007KT 10SM CLR A2987 RMK MADISHF
DNL,2017-04-01 02:45,-82.0382,33.4669,M,M,M,300.00,7.00,M,29.87,M,10.00,M,CLR,M,M,M,M,M,M,M,M,KDNL 010245Z AUTO 30007KT 10SM CLR A2987 RMK MADISHF
DNL,2017-04-01 02:50,-82.0382,33.4669,M,M,M,290.00,8.00,M,29.87,M,10.00,M,CLR,M,M,M,M,M,M,M,M,KDNL 010250Z AUTO 29008KT 10SM CLR A2987 RMK MADISHF
DNL,2017-04-01 02:53,-82.0382,33.4669,68.00,44.10,42.04,300.00,7.00,0.00,29.87,1011.10,10.00,M,CLR,M,M,M,M,M,M,M,M,KDNL 010253Z AUTO 30007KT 10SM CLR 20/07 A2987 RMK AO2 SLP111 T02000067 51028
DNL,2017-04-01 02:55,-82.0382,33.4669,M,M,M,300.00,8.00,M,29.87,M,10.00,M,CLR,M,M,M,M,M,M,M,M,KDNL 010255Z AUTO 30008KT 10SM CLR A2987 RMK MADISHF
DNL,2017-04-01 03:00,-82.0382,33.4669,M,M,M,300.00,6.00,M,29.87,M,10.00,M,CLR,M,M,M,M,M,M,M,M,KDNL 010300Z AUTO 30006KT 10SM CLR A2987 RMK MADISHF
DNL,2017-04-01 03:05,-82.0382,33.4669,M,M,M,300.00,6.00,M,29.88,M,10.00,M,CLR,M,M,M,M,M,M,M,M,KDNL 010305Z AUTO 30006KT 10SM CLR A2988 RMK MADISHF
DNL,2017-04-01 03:10,-82.0382,33.4669,M,M,M,310.00,6.00,M,29.88,M,10.00,M,CLR,M,M,M,M,M,M,M,M,KDNL 010310Z AUTO 31006KT 10SM CLR A2988 RMK MADISHF
DNL,2017-04-01 03:15,-82.0382,33.4669,M,M,M,300.00,6.00,M,29.87,M,10.00,M,CLR,M,M,M,M,M,M,M,M,KDNL 010315Z AUTO 30006KT 10SM CLR A2987 RMK MADISHF
DNL,2017-04-01 03:20,-82.0382,33.4669,M,M,M,290.00,7.00,M,29.87,M,10.00,M,CLR,M,M,M,M,M,M,M,M,KDNL 010320Z AUTO 29007KT 10SM CLR A2987 RMK MADISHF
DNL,2017-04-01 03:25,-82.0382,33.4669,M,M,M,290.00,6.00,M,29.87,M,10.00,M,CLR,M,M,M,M,M,M,M,M,KDNL 010325Z AUTO 29006KT 10SM CLR A2987 RMK MADISHF
DNL,2017-04-01 03:30,-82.0382,33.4669,M,M,M,300.00,6.00,M,29.88,M,10.00,M,CLR,M,M,M,M,M,M,M,M,KDNL 010330Z AUTO 30006KT 10SM CLR A2988 RMK MADISHF
DNL,2017-04-01 03:35,-82.0382,33.4669,M,M,M,310.00,5.00,M,29.88,M,10.00,M,CLR,M,M,M,M,M,M,M,M,KDNL 010335Z AUTO 31005KT 10SM CLR A2988 RMK MADISHF
DNL,2017-04-01 03:40,-82.0382,33.4669,M,M,M,320.00,6.00,M,29.88,M,10.00,M,CLR,M,M,M,M,M,M,M,M,KDNL 010340Z AUTO 32006KT 10SM CLR A2988 RMK MADISHF
DNL,2017-04-01 03:45,-82.0382,33.4669,M,M,M,300.00,6.00,M,29.88,M,10.00,M,CLR,M,M,M,M,M,M,M,M,KDNL 010345Z AUTO 30006KT 10SM CLR A2988 RMK MADISHF
DNL,2017-04-01 03:50,-82.0382,33.4669,M,M,M,290.00,7.00,M,29.88,M,10.00,M,CLR,M,M,M,M,M,M,M,M,KDNL 010350Z AUTO 29007KT 10SM CLR A2988 RMK MADISHF
DNL,2017-04-01 03:53,-82.0382,33.4669,66.00,44.10,45.05,290.00,7.00,0.00,29.88,1011.40,10.00,M,CLR,M,M,M,M,M,M,M,M,KDNL 010353Z AUTO 29007KT 10SM CLR 19/07 A2988 RMK AO2 SLP114 T01890067
DNL,2017-04-01 03:55,-82.0382,33.4669,M,M,M,300.00,6.00,M,29.88,M,10.00,M,CLR,M,M,M,M,M,M,M,M,KDNL 010355Z AUTO 30006KT 10SM CLR A2988 RMK MADISHF
DNL,2017-04-01 04:00,-82.0382,33.4669,M,M,M,300.00,6.00,M,29.89,M,10.00,M,CLR,M,M,M,M,M,M,M,M,KDNL 010400Z AUTO 30006KT 10SM CLR A2989 RMK MADISHF
DNL,2017-04-01 04:05,-82.0382,33.4669,M,M,M,300.00,7.00,M,29.89,M,10.00,M,CLR,M,M,M,M,M,M,M,M,KDNL 010405Z AUTO 30007KT 10SM CLR A2989 RMK MADISHF
DNL,2017-04-01 04:10,-82.0382,33.4669,M,M,M,290.00,6.00,M,29.89,M,10.00,M,CLR,M,M,M,M,M,M,M,M,KDNL 010410Z AUTO 29006KT 10SM CLR A2989 RMK MADISHF
DNL,2017-04-01 04:15,-82.0382,33.4669,M,M,M,280.00,5.00,M,29.89,M,10.00,M,CLR,M,M,M,M,M,M,M,M,KDNL 010415Z AUTO 28005KT 10SM CLR A2989 RMK MADISHF
DNL,2017-04-01 04:20,-82.0382,33.4669,M,M,M,290.00,5.00,M,29.89,M,10.00,M,CLR,M,M,M,M,M,M,M,M,KDNL 010420Z AUTO 29005KT 10SM CLR A2989 RMK MADISHF
DNL,2017-04-01 04:25,-82.0382,33.4669,M,M,M,280.00,6.00,M,29.89,M,10.00,M,CLR,M,M,M,M,M,M,M,M,KDNL 010425Z AUTO 28006KT 10SM CLR A2989 RMK MADISHF
DNL,2017-04-01 04:30,-82.0382,33.4669,M,M,M,290.00,5.00,M,29.89,M,10.00,M,CLR,M,M,M,M,M,M,M,M,KDNL 010430Z AUTO 29005KT 10SM CLR A2989 RMK MADISHF
DNL,2017-04-01 04:35,-82.0382,33.4669,M,M,M,300.00,5.00,M,29.90,M,10.00,M,CLR,M,M,M,M,M,M,M,M,KDNL 010435Z AUTO 30005KT 10SM CLR A2990 RMK MADISHF
DNL,2017-04-01 04:40,-82.0382,33.4669,M,M,M,300.00,6.00,M,29.90,M,10.00,M,CLR,M,M,M,M,M,M,M,M,KDNL 010440Z AUTO 30006KT 10SM CLR A2990 RMK MADISHF
DNL,2017-04-01 04:45,-82.0382,33.4669,M,M,M,290.00,6.00,M,29.89,M,10.00,M,CLR,M,M,M,M,M,M,M,M,KDNL 010445Z AUTO 29006KT 10SM CLR A2989 RMK MADISHF
DNL,2017-04-01 04:50,-82.0382,33.4669,M,M,M,300.00,7.00,M,29.90,M,10.00,M,CLR,M,M,M,M,M,M,M,M,KDNL 010450Z AUTO 30007KT 10SM CLR A2990 RMK MADISHF
DNL,2017-04-01 04:53,-82.0382,33.4669,64.00,44.10,48.31,310.00,6.00,0.00,29.90,1011.90,10.00,M,CLR,M,M,M,M,M,M,M,M,KDNL 010453Z AUTO 31006KT 10SM CLR 18/07 A2990 RMK AO2 SLP119 T01780067 402780178
DNL,2017-04-01 04:55,-82.0382,33.4669,M,M,M,310.00,7.00,M,29.90,M,10.00,M,CLR,M,M,M,M,M,M,M,M,KDNL 010455Z AUTO 31007KT 10SM CLR A2990 RMK MADISHF
DNL,2017-04-01 05:00,-82.0382,33.4669,M,M,M,310.00,6.00,M,29.90,M,10.00,M,CLR,M,M,M,M,M,M,M,M,KDNL 010500Z AUTO 31006KT 10SM CLR A2990 RMK MADISHF
DNL,2017-04-01 05:05,-82.0382,33.4669,M,M,M,300.00,6.00,M,29.90,M,10.00,M,CLR,M,M,M,M,M,M,M,M,KDNL 010505Z AUTO 30006KT 10SM CLR A2990 RMK MADISHF
DNL,2017-04-01 05:10,-82.0382,33.4669,M,M,M,300.00,6.00,M,29.90,M,10.00,M,CLR,M,M,M,M,M,M,M,M,KDNL 010510Z AUTO 30006KT 10SM CLR A2990 RMK MADISHF
DNL,2017-04-01 05:15,-82.0382,33.4669,M,M,M,300.00,5.00,M,29.90,M,10.00,M,CLR,M,M,M,M,M,M,M,M,KDNL 010515Z AUTO 30005KT 10SM CLR A2990 RMK MADISHF
DNL,2017-04-01 05:20,-82.0382,33.4669,M,M,M,290.00,5.00,M,29.90,M,10.00,M,CLR,M,M,M,M,M,M,M,M,KDNL 010520Z AUTO 29005KT 10SM CLR A2990 RMK MADISHF
DNL,2017-04-01 05:25,-82.0382,33.4669,M,M,M,310.00,4.00,M,29.90,M,10.00,M,CLR,M,M,M,M,M,M,M,M,KDNL 010525Z AUTO 31004KT 10SM CLR A2990 RMK MADISHF
DNL,2017-04-01 05:30,-82.0382,33.4669,M,M,M,310.00,6.00,M,29.90,M,10.00,M,CLR,M,M,M,M,M,M,M,M,KDNL 010530Z AUTO 31006KT 10SM CLR A2990 RMK MADISHF
DNL,2017-04-01 05:35,-82.0382,33.4669,M,M,M,310.00,6.00,M,29.90,M,10.00,M,CLR,M,M,M,M,M,M,M,M,KDNL 010535Z AUTO 31006KT 10SM CLR A2990 RMK MADISHF
DNL,2017-04-01 05:40,-82.0382,33.4669,M,M,M,300.00,7.00,M,29.90,M,10.00,M,CLR,M,M,M,M,M,M,M,M,KDNL 010540Z AUTO 30007KT 10SM CLR A2990 RMK MADISHF
DNL,2017-04-01 05:45,-82.0382,33.4669,M,M,M,300.00,6.00,M,29.90,M,10.00,M,CLR,M,M,M,M,M,M,M,M,KDNL 010545Z AUTO 30006KT 10SM CLR A2990 RMK MADISHF
DNL,2017-04-01 05:50,-82.0382,33.4669,M,M,M,310.00,7.00,M,29.90,M,10.00,M,CLR,M,M,M,M,M,M,M,M,KDNL 010550Z AUTO 31007KT 10SM CLR A2990 RMK MADISHF
DNL,2017-04-01 05:53,-82.0382,33.4669,63.00,44.10,50.03,310.00,5.00,0.00,29.90,1012.10,10.00,M,CLR,M,M,M,M,M,M,M,M,KDNL 010553Z AUTO 31005KT 10SM CLR 17/07 A2990 RMK AO2 SLP121 T01720067 10239 20172 51010
DNL,2017-04-01 05:55,-82.0382,33.4669,M,M,M,300.00,6.00,M,29.90,M,10.00,M,CLR,M,M,M,M,M,M,M,M,KDNL 010555Z AUTO 30006KT 10SM CLR A2990 RMK MADISHF
DNL,2017-04-01 06:00,-82.0382,33.4669,M,M,M,300.00,6.00,M,29.90,M,10.00,M,CLR,M,M,M,M,M,M,M,M,KDNL 010600Z AUTO 30006KT 10SM CLR A2990 RMK MADISHF
DNL,2017-04-01 06:05,-82.0382,33.4669,M,M,M,300.00,6.00,M,29.90,M,10.00,M,CLR,M,M,M,M,M,M,M,M,KDNL 010605Z AUTO 30006KT 10SM CLR A2990 RMK MADISHF
DNL,2017-04-01 06:10,-82.0382,33.4669,M,M,M,300.00,7.00,M,29.90,M,10.00,M,CLR,M,M,M,M,M,M,M,M,KDNL 010610Z AUTO 30007KT 10SM CLR A2990 RMK MADISHF
DNL,2017-04-01 06:15,-82.0382,33.4669,M,M,M,300.00,8.00,M,29.90,M,10.00,M,CLR,M,M,M,M,M,M,M,M,KDNL 010615Z AUTO 30008KT 10SM CLR A2990 RMK MADISHF
DNL,2017-04-01 06:20,-82.0382,33.4669,M,M,M,300.00,7.00,M,29.90,M,10.00,M,CLR,M,M,M,M,M,M,M,M,KDNL 010620Z AUTO 30007KT 10SM CLR A2990 RMK MADISHF
DNL,2017-04-01 06:25,-82.0382,33.4669,M,M,M,300.00,6.00,M,29.90,M,10.00,M,CLR,M,M,M,M,M,M,M,M,KDNL 010625Z AUTO 30006KT 10SM CLR A2990 RMK MADISHF
DNL,2017-04-01 06:30,-82.0382,33.4669,M,M,M,300.00,5.00,M,29.90,M,10.00,M,CLR,M,M,M,M,M,M,M,M,KDNL 010630Z AUTO 30005KT 10SM CLR A2990 RMK MADISHF
DNL,2017-04-01 06:35,-82.0382,33.4669,M,M,M,300.00,6.00,M,29.90,M,10.00,M,CLR,M,M,M,M,M,M,M,M,KDNL 010635Z AUTO 30006KT 10SM CLR A2990 RMK MADISHF
DNL,2017-04-01 06:40,-82.0382,33.4669,M,M,M,290.00,5.00,M,29.90,M,10.00,M,CLR,M,M,M,M,M,M,M,M,KDNL 010640Z AUTO 29005KT 10SM CLR A2990 RMK MADISHF
DNL,2017-04-01 06:45,-82.0382,33.4669,M,M,M,290.00,5.00,M,29.90,M,10.00,M,CLR,M,M,M,M,M,M,M,M,KDNL 010645Z AUTO 29005KT 10SM CLR A2990 RMK MADISHF
DNL,2017-04-01 06:50,-82.0382,33.4669,M,M,M,290.00,5.00,M,29.90,M,10.00,M,CLR,M,M,M,M,M,M,M,M,KDNL 010650Z AUTO 29005KT 10SM CLR A2990 RMK MADISHF
DNL,2017-04-01 06:53,-82.0382,33.4669,63.00,44.10,50.03,280.00,6.00,0.00,29.90,1012.10,10.00,M,CLR,M,M,M,M,M,M,M,M,KDNL 010653Z AUTO 28006KT 10SM CLR 17/07 A2990 RMK AO2 SLP121 T01720067
DNL,2017-04-01 06:55,-82.0382,33.4669,M,M,M,290.00,6.00,M,29.90,M,10.00,M,CLR,M,M,M,M,M,M,M,M,KDNL 010655Z AUTO 29006KT 10SM CLR A2990 RMK MADISHF
DNL,2017-04-01 07:00,-82.0382,33.4669,M,M,M,280.00,6.00,M,29.91,M,10.00,M,CLR,M,M,M,M,M,M,M,M,KDNL 010700Z AUTO 28006KT 10SM CLR A2991 RMK MADISHF
DNL,2017-04-01 07:05,-82.0382,33.4669,M,M,M,290.00,7.00,M,29.91,M,10.00,M,CLR,M,M,M,M,M,M,M,M,KDNL 010705Z AUTO 29007KT 10SM CLR A2991 RMK MADISHF
DNL,2017-04-01 07:10,-82.0382,33.4669,M,M,M,290.00,6.00,M,29.91,M,10.00,M,CLR,M,M,M,M,M,M,M,M,KDNL 010710Z AUTO 29006KT 10SM CLR A2991 RMK MADISHF
DNL,2017-04-01 07:15,-82.0382,33.4669,M,M,M,300.00,5.00,M,29.91,M,10.00,M,CLR,M,M,M,M,M,M,M,M,KDNL 010715Z AUTO 30005KT 10SM CLR A2991 RMK MADISHF
DNL,2017-04-01 07:20,-82.0382,33.4669,M,M,M,300.00,6.00,M,29.91,M,10.00,M,CLR,M,M,M,M,M,M,M,M,KDNL 010720Z AUTO 30006KT 10SM CLR A2991 RMK MADISHF
DNL,2017-04-01 07:25,-82.0382,33.4669,M,M,M,300.00,5.00,M,29.91,M,10.00,M,CLR,M,M,M,M,M,M,M,M,KDNL 010725Z AUTO 30005KT 10SM CLR A2991 RMK MADISHF
DNL,2017-04-01 07:30,-82.0382,33.4669,M,M,M,300.00,6.00,M,29.91,M,10.00,M,CLR,M,M,M,M,M,M,M,M,KDNL 010730Z AUTO 30006KT 10SM CLR A2991 RMK MADISHF
DNL,2017-04-01 07:35,-82.0382,33.4669,M,M,M,300.00,6.00,M,29.91,M,10.00,M,CLR,M,M,M,M,M,M,M,M,KDNL 010735Z AUTO 30006KT 10SM CLR A2991 RMK MADISHF
DNL,2017-04-01 07:40,-82.0382,33.4669,M,M,M,300.00,6.00,M,29.91,M,10.00,M,CLR,M,M,M,M,M,M,M,M,KDNL 010740Z AUTO 30006KT 10SM CLR A2991 RMK MADISHF
DNL,2017-04-01 07:45,-82.0382,33.4669,M,M,M,290.00,5.00,M,29.91,M,10.00,M,CLR,M,M,M,M,M,M,M,M,KDNL 010745Z AUTO 29005KT 10SM CLR A2991 RMK MADISHF
DNL,2017-04-01 07:50,-82.0382,33.4669,M,M,M,290.00,6.00,M,29.91,M,10.00,M,CLR,M,M,M,M,M,M,M,M,KDNL 010750Z AUTO 29006KT 10SM CLR A2991 RMK MADISHF
DNL,2017-04-01 07:53,-82.0382,33.4669,61.00,44.10,53.69,290.00,5.00,0.00,29.91,1012.50,10.00,M,CLR,M,M,M,M,M,M,M,M,KDNL 010753Z AUTO 29005KT 10SM CLR 16/07 A2991 RMK AO2 SLP125 T01610067
DNL,2017-04-01 07:55,-82.0382,33.4669,M,M,M,290.00,6.00,M,29.91,M,10.00,M,CLR,M,M,M,M,M,M,M,M,KDNL 010755Z AUTO 29006KT 10SM CLR A2991 RMK MADISHF
DNL,2017-04-01 08:00,-82.0382,33.4669,M,M,M,290.00,8.00,M,29.92,M,10.00,M,CLR,M,M,M,M,M,M,M,M,KDNL 010800Z AUTO 29008KT 10SM CLR A2992 RMK MADISHF
DNL,2017-04-01 08:05,-82.0382,33.4669,M,M,M,290.00,5.00,M,29.92,M,10.00,M,CLR,M,M,M,M,M,M,M,M,KDNL 010805Z AUTO 29005KT 10SM CLR A2992 RMK MADISHF
DNL,2017-04-01 08:10,-82.0382,33.4669,M,M,M,290.00,6.00,M,29.92,M,10.00,M,CLR,M,M,M,M,M,M,M,M,KDNL 010810Z AUTO 29006KT 10SM CLR A2992 RMK MADISHF
DNL,2017-04-01 08:15,-82.0382,33.4669,M,M,M,290.00,7.00,M,29.92,M,10.00,M,CLR,M,M,M,M,M,M,M,M,KDNL 010815Z AUTO 29007KT 10SM CLR A2992 RMK MADISHF
DNL,2017-04-01 08:20,-82.0382,33.4669,M,M,M,290.00,7.00,M,29.92,M,10.00,M,CLR,M,M,M,M,M,M,M,M,KDNL 010820Z AUTO 29007KT 10SM CLR A2992 RMK MADISHF
DNL,2017-04-01 08:25,-82.0382,33.4669,M,M,M,290.00,6.00,M,29.92,M,10.00,M,CLR,M,M,M,M,M,M,M,M,KDNL 010825Z AUTO 29006KT 10SM CLR A2992 RMK MADISHF
DNL,2017-04-01 08:30,-82.0382,33.4669,M,M,M,290.00,5.00,M,29.92,M,10.00,M,CLR,M,M,M,M,M,M,M,M,KDNL 010830Z AUTO 29005KT 10SM CLR A2992 RMK MADISHF
DNL,2017-04-01 08:35,-82.0382,33.4669,M,M,M,290.00,5.00,M,29.93,M,10.00,M,CLR,M,M,M,M,M,M,M,M,KDNL 010835Z AUTO 29005KT 10SM CLR A2993 RMK MADISHF
DNL,2017-04-01 08:40,-82.0382,33.4669,M,M,M,290.00,6.00,M,29.93,M,10.00,M,CLR,M,M,M,M,M,M,M,M,KDNL 010840Z AUTO 29006KT 10SM CLR A2993 RMK MADISHF
DNL,2017-04-01 08:45,-82.0382,33.4669,M,M,M,290.00,6.00,M,29.93,M,10.00,M,CLR,M,M,M,M,M,M,M,M,KDNL 010845Z AUTO 29006KT 10SM CLR A2993 RMK MADISHF
DNL,2017-04-01 08:50,-82.0382,33.4669,M,M,M,290.00,6.00,M,29.93,M,10.00,M,CLR,M,M,M,M,M,M,M,M,KDNL 010850Z AUTO 29006KT 10SM CLR A2993 RMK MADISHF
DNL,2017-04-01 08:53,-82.0382,33.4669,60.10,44.10,55.44,290.00,7.00,0.00,29.93,1012.90,10.00,M,CLR,M,M,M,M,M,M,M,M,KDNL 010853Z AUTO 29007KT 10SM CLR 16/07 A2993 RMK AO2 SLP129 T01560067 53008
DNL,2017-04-01 08:55,-82.0382,33.4669,M,M,M,290.00,6.00,M,29.92,M,10.00,M,CLR,M,M,M,M,M,M,M,M,KDNL 010855Z AUTO 29006KT 10SM CLR A2992 RMK MADISHF
DNL,2017-04-01 09:00,-82.0382,33.4669,M,M,M,290.00,7.00,M,29.93,M,10.00,M,CLR,M,M,M,M,M,M,M,M,KDNL 010900Z AUTO 29007KT 10SM CLR A2993 RMK MADISHF
DNL,2017-04-01 09:05,-82.0382,33.4669,M,M,M,290.00,6.00,M,29.93,M,10.00,M,CLR,M,M,M,M,M,M,M,M,KDNL 010905Z AUTO 29006KT 10SM CLR A2993 RMK MADISHF
DNL,2017-04-01 09:10,-82.0382,33.4669,M,M,M,290.00,6.00,M,29.93,M,10.00,M,CLR,M,M,M,M,M,M,M,M,KDNL 010910Z AUTO 29006KT 10SM CLR A2993 RMK MADISHF
DNL,2017-04-01 09:15,-82.0382,33.4669,M,M,M,300.00,6.00,M,29.93,M,10.00,M,CLR,M,M,M,M,M,M,M,M,KDNL 010915Z AUTO 30006KT 10SM CLR A2993 RMK MADISHF
DNL,2017-04-01 09:20,-82.0382,33.4669,M,M,M,290.00,5.00,M,29.93,M,10.00,M,CLR,M,M,M,M,M,M,M,M,KDNL 010920Z AUTO 29005KT 10SM CLR A2993 RMK MADISHF
DNL,2017-04-01 09:25,-82.0382,33.4669,M,M,M,290.00,6.00,M,29.93,M,10.00,M,CLR,M,M,M,M,M,M,M,M,KDNL 010925Z AUTO 29006KT 10SM CLR A2993 RMK MADISHF
DNL,2017-04-01 09:30,-82.0382,33.4669,M,M,M,290.00,7.00,M,29.93,M,10.00,M,CLR,M,M,M,M,M,M,M,M,KDNL 010930Z AUTO 29007KT 10SM CLR A2993 RMK MADISHF
DNL,2017-04-01 09:35,-82.0382,33.4669,M,M,M,290.00,7.00,M,29.94,M,10.00,M,CLR,M,M,M,M,M,M,M,M,KDNL 010935Z AUTO 29007KT 10SM CLR A2994 RMK MADISHF
DNL,2017-04-01 09:40,-82.0382,33.4669,M,M,M,290.00,7.00,M,29.94,M,10.00,M,CLR,M,M,M,M,M,M,M,M,KDNL 010940Z AUTO 29007KT 10SM CLR A2994 RMK MADISHF
DNL,2017-04-01 09:45,-82.0382,33.4669,M,M,M,290.00,5.00,M,29.94,M,10.00,M,CLR,M,M,M,M,M,M,M,M,KDNL 010945Z AUTO 29005KT 10SM CLR A2994 RMK MADISHF
DNL,2017-04-01 09:50,-82.0382,33.4669,M,M,M,290.00,7.00,M,29.94,M,10.00,M,CLR,M,M,M,M,M,M,M,M,KDNL 010950Z AUTO 29007KT 10SM CLR A2994 RMK MADISHF
DNL,2017-04-01 09:53,-82.0382,33.4669,60.10,44.10,55.44,290.00,6.00,0.00,29.94,1013.30,10.00,M,CLR,M,M,M,M,M,M,M,M,KDNL 010953Z AUTO 29006KT 10SM CLR 16/07 A2994 RMK AO2 SLP133 T01560067
DNL,2017-04-01 09:55,-82.0382,33.4669,M,M,M,290.00,6.00,M,29.94,M,10.00,M,CLR,M,M,M,M,M,M,M,M,KDNL 010955Z AUTO 29006KT 10SM CLR A2994 RMK MADISHF
DNL,2017-04-01 10:00,-82.0382,33.4669,M,M,M,290.00,7.00,M,29.94,M,10.00,M,CLR,M,M,M,M,M,M,M,M,KDNL 011000Z AUTO 29007KT 10SM CLR A2994 RMK MADISHF
DNL,2017-04-01 10:05,-82.0382,33.4669,M,M,M,290.00,6.00,M,29.94,M,10.00,M,CLR,M,M,M,M,M,M,M,M,KDNL 011005Z AUTO 29006KT 10SM CLR A2994 RMK MADISHF
DNL,2017-04-01 10:10,-82.0382,33.4669,M,M,M,290.00,7.00,M,29.94,M,10.00,M,CLR,M,M,M,M,M,M,M,M,KDNL 011010Z AUTO 29007KT 10SM CLR A2994 RMK MADISHF
DNL,2017-04-01 10:15,-82.0382,33.4669,M,M,M,290.00,7.00,M,29.94,M,10.00,M,CLR,M,M,M,M,M,M,M,M,KDNL 011015Z AUTO 29007KT 10SM CLR A2994 RMK MADISHF
DNL,2017-04-01 10:20,-82.0382,33.4669,M,M,M,290.00,7.00,M,29.94,M,10.00,M,CLR,M,M,M,M,M,M,M,M,KDNL 011020Z AUTO 29007KT 10SM CLR A2994 RMK MADISHF
DNL,2017-04-01 10:25,-82.0382,33.4669,M,M,M,290.00,7.00,M,29.94,M,10.00,M,CLR,M,M,M,M,M,M,M,M,KDNL 011025Z AUTO 29007KT 10SM CLR A2994 RMK MADISHF
DNL,2017-04-01 10:30,-82.0382,33.4669,M,M,M,290.00,8.00,M,29.95,M,10.00,M,CLR,M,M,M,M,M,M,M,M,KDNL 011030Z AUTO 29008KT 10SM CLR A2995 RMK MADISHF
DNL,2017-04-01 10:35,-82.0382,33.4669,M,M,M,290.00,7.00,M,29.95,M,10.00,M,CLR,M,M,M,M,M,M,M,M,KDNL 011035Z AUTO 29007KT 10SM CLR A2995 RMK MADISHF
DNL,2017-04-01 10:40,-82.0382,33.4669,M,M,M,290.00,7.00,M,29.95,M,10.00,M,CLR,M,M,M,M,M,M,M,M,KDNL 011040Z AUTO 29007KT 10SM CLR A2995 RMK MADISHF
DNL,2017-04-01 10:45,-82.0382,33.4669,M,M,M,290.00,8.00,M,29.95,M,10.00,M,CLR,M,M,M,M,M,M,M,M,KDNL 011045Z AUTO 29008KT 10SM CLR A2995 RMK MADISHF
DNL,2017-04-01 10:50,-82.0382,33.4669,M,M,M,290.00,8.00,M,29.95,M,10.00,M,CLR,M,M,M,M,M,M,M,M,KDNL 011050Z AUTO 29008KT 10SM CLR A2995 RMK MADISHF
DNL,2017-04-01 10:53,-82.0382,33.4669,59.00,44.10,57.66,300.00,7.00,0.00,29.96,1014.00,10.00,M,CLR,M,M,M,M,M,M,M,M,KDNL 011053Z AUTO 30007KT 10SM CLR 15/07 A2996 RMK AO2 SLP140 T01500067
DNL,2017-04-01 10:55,-82.0382,33.4669,M,M,M,300.00,7.00,M,29.96,M,10.00,M,CLR,M,M,M,M,M,M,M,M,KDNL 011055Z AUTO 30007KT 10SM CLR A2996 RMK MADISHF
DNL,2017-04-01 11:00,-82.0382,33.4669,M,M,M,290.00,6.00,M,29.96,M,10.00,M,CLR,M,M,M,M,M,M,M,M,KDNL 011100Z AUTO 29006KT 10SM CLR A2996 RMK MADISHF
DNL,2017-04-01 11:05,-82.0382,33.4669,M,M,M,290.00,8.00,M,29.96,M,10.00,M,CLR,M,M,M,M,M,M,M,M,KDNL 011105Z AUTO 29008KT 10SM CLR A2996 RMK MADISHF
DNL,2017-04-01 11:10,-82.0382,33.4669,M,M,M,300.00,7.00,M,29.96,M,10.00,M,CLR,M,M,M,M,M,M,M,M,KDNL 011110Z AUTO 30007KT 10SM CLR A2996 RMK MADISHF
DNL,2017-04-01 11:15,-82.0382,33.4669,M,M,M,300.00,8.00,M,29.96,M,10.00,M,CLR,M,M,M,M,M,M,M,M,KDNL 011115Z AUTO 30008KT 10SM CLR A2996 RMK MADISHF
DNL,2017-04-01 11:20,-82.0382,33.4669,M,M,M,300.00,8.00,M,29.97,M,10.00,M,CLR,M,M,M,M,M,M,M,M,KDNL 011120Z AUTO 30008KT 10SM CLR A2997 RMK MADISHF
DNL,2017-04-01 11:25,-82.0382,33.4669,M,M,M,300.00,8.00,M,29.97,M,10.00,M,CLR,M,M,M,M,M,M,M,M,KDNL 011125Z AUTO 30008KT 10SM CLR A2997 RMK MADISHF
DNL,2017-04-01 11:30,-82.0382,33.4669,M,M,M,300.00,7.00,M,29.97,M,10.00,M,CLR,M,M,M,M,M,M,M,M,KDNL 011130Z AUTO 30007KT 10SM CLR A2997 RMK MADISHF
DNL,2017-04-01 11:35,-82.0382,33.4669,M,M,M,310.00,6.00,M,29.97,M,10.00,M,CLR,M,M,M,M,M,M,M,M,KDNL 011135Z AUTO 31006KT 10SM CLR A2997 RMK MADISHF
DNL,2017-04-01 11:40,-82.0382,33.4669,M,M,M,300.00,8.00,M,29.97,M,10.00,M,CLR,M,M,M,M,M,M,M,M,KDNL 011140Z AUTO 30008KT 10SM CLR A2997 RMK MADISHF
DNL,2017-04-01 11:45,-82.0382,33.4669,M,M,M,300.00,8.00,M,29.98,M,10.00,M,CLR,M,M,M,M,M,M,M,M,KDNL 011145Z AUTO 30008KT 10SM CLR A2998 RMK MADISHF
DNL,2017-04-01 11:50,-82.0382,33.4669,M,M,M,300.00,7.00,M,29.98,M,10.00,M,CLR,M,M,M,M,M,M,M,M,KDNL 011150Z AUTO 30007KT 10SM CLR A2998 RMK MADISHF
DNL,2017-04-01 11:53,-82.0382,33.4669,59.00,45.00,59.67,310.00,7.00,0.00,29.98,1014.80,10.00,M,CLR,M,M,M,M,M,M,M,M,KDNL 011153Z AUTO 31007KT 10SM CLR 15/07 A2998 RMK AO2 SLP148 T01500072 10178 20144 53018
DNL,2017-04-01 11:55,-82.0382,33.4669,M,M,M,310.00,7.00,M,29.98,M,10.00,M,CLR,M,M,M,M,M,M,M,M,KDNL 011155Z AUTO 31007KT 10SM CLR A2998 RMK MADISHF
DNL,2017-04-01 12:00,-82.0382,33.4669,M,M,M,310.00,7.00,M,29.98,M,10.00,M,CLR,M,M,M,M,M,M,M,M,KDNL 011200Z AUTO 31007KT 10SM CLR A2998 RMK MADISHF
DNL,2017-04-01 12:05,-82.0382,33.4669,M,M,M,300.00,7.00,M,29.99,M,10.00,M,CLR,M,M,M,M,M,M,M,M,KDNL 011205Z AUTO 30007KT 10SM CLR A2999 RMK MADISHF
DNL,2017-04-01 12:10,-82.0382,33.4669,M,M,M,310.00,7.00,M,29.99,M,10.00,M,CLR,M,M,M,M,M,M,M,M,KDNL 011210Z AUTO 31007KT 10SM CLR A2999 RMK MADISHF
DNL,2017-04-01 12:15,-82.0382,33.4669,M,M,M,310.00,8.00,M,29.99,M,10.00,M,CLR,M,M,M,M,M,M,M,M,KDNL 011215Z AUTO 31008KT 10SM CLR A2999 RMK MADISHF
DNL,2017-04-01 12:20,-82.0382,33.4669,M,M,M,310.00,8.00,M,29.99,M,10.00,M,CLR,M,M,M,M,M,M,M,M,KDNL 011220Z AUTO 31008KT 10SM CLR A2999 RMK MADISHF
DNL,2017-04-01 12:25,-82.0382,33.4669,M,M,M,330.00,7.00,M,30.00,M,10.00,M,CLR,M,M,M,M,M,M,M,M,KDNL 011225Z AUTO 33007KT 10SM CLR A3000 RMK MADISHF
DNL,2017-04-01 12:30,-82.0382,33.4669,M,M,M,310.00,6.00,M,30.00,M,10.00,M,CLR,M,M,M,M,M,M,M,M,KDNL 011230Z AUTO 31006KT 10SM CLR A3000 RMK MADISHF
DNL,2017-04-01 12:35,-82.0382,33.4669,M,M,M,320.00,6.00,M,30.00,M,10.00,M,CLR,M,M,M,M,M,M,M,M,KDNL 011235Z AUTO 32006KT 10SM CLR A3000 RMK MADISHF
DNL,2017-04-01 12:40,-82.0382,33.4669,M,M,M,310.00,7.00,M,30.00,M,10.00,M,CLR,M,M,M,M,M,M,M,M,KDNL 011240Z AUTO 31007KT 10SM CLR A3000 RMK MADISHF
DNL,2017-04-01 12:45,-82.0382,33.4669,M,M,M,320.00,9.00,M,30.00,M,10.00,M,CLR,M,M,M,M,M,M,M,M,KDNL 011245Z AUTO 32009KT 10SM CLR A3000 RMK MADISHF
DNL,2017-04-01 12:50,-82.0382,33.4669,M,M,M,310.00,7.00,M,30.00,M,10.00,M,CLR,M,M,M,M,M,M,M,M,KDNL 011250Z AUTO 31007KT 10SM CLR A3000 RMK MADISHF
DNL,2017-04-01 12:53,-82.0382,33.4669,62.10,46.00,55.51,320.00,7.00,0.00,30.00,1015.60,10.00,M,CLR,M,M,M,M,M,M,M,M,KDNL 011253Z AUTO 32007KT 10SM CLR 17/08 A3000 RMK AO2 SLP156 T01670078
DNL,2017-04-01 12:55,-82.0382,33.4669,M,M,M,320.00,11.00,M,30.00,M,10.00,M,CLR,M,M,M,M,M,M,M,M,KDNL 011255Z AUTO 32011KT 10SM CLR A3000 RMK MADISHF
DNL,2017-04-01 13:00,-82.0382,33.4669,M,M,M,310.00,9.00,M,30.00,M,10.00,M,CLR,M,M,M,M,M,M,M,M,KDNL 011300Z AUTO 31009KT 10SM CLR A3000 RMK MADISHF
DNL,2017-04-01 13:05,-82.0382,33.4669,M,M,M,310.00,7.00,M,30.00,M,10.00,M,CLR,M,M,M,M,M,M,M,M,KDNL 011305Z AUTO 31007KT 10SM CLR A3000 RMK MADISHF
DNL,2017-04-01 13:10,-82.0382,33.4669,M,M,M,320.00,9.00,M,30.00,M,10.00,M,CLR,M,M,M,M,M,M,M,M,KDNL 011310Z AUTO 32009KT 10SM CLR A3000 RMK MADISHF
DNL,2017-04-01 13:15,-82.0382,33.4669,M,M,M,310.00,8.00,M,30.00,M,10.00,M,CLR,M,M,M,M,M,M,M,M,KDNL 011315Z AUTO 31008KT 10SM CLR A3000 RMK MADISHF
DNL,2017-04-01 13:20,-82.0382,33.4669,M,M,M,320.00,8.00,M,30.00,M,10.00,M,CLR,M,M,M,M,M,M,M,M,KDNL 011320Z AUTO 32008KT 10SM CLR A3000 RMK MADISHF
DNL,2017-04-01 13:25,-82.0382,33.4669,M,M,M,M,M,M,30.00,M,10.00,M,CLR,M,M,M,M,M,M,M,M,KDNL 011325Z AUTO /////KT 10SM CLR A3000 RMK MADISHF
DNL,2017-04-01 13:30,-82.0382,33.4669,M,M,M,310.00,9.00,M,30.00,M,10.00,15.00,CLR,M,M,M,M,M,M,M,M,KDNL 011330Z AUTO 31009G15KT 10SM CLR A3000 RMK MADISHF
DNL,2017-04-01 13:35,-82.0382,33.4669,M,M,M,M,M,M,30.00,M,10.00,M,CLR,M,M,M,M,M,M,M,M,KDNL 011335Z AUTO /////KT 10SM CLR A3000 RMK MADISHF
DNL,2017-04-01 13:40,-82.0382,33.4669,M,M,M,310.00,9.00,M,30.00,M,10.00,M,CLR,M,M,M,M,M,M,M,M,KDNL 011340Z AUTO 31009KT 10SM CLR A3000 RMK MADISHF
DNL,2017-04-01 13:45,-82.0382,33.4669,M,M,M,320.00,11.00,M,30.00,M,10.00,M,CLR,M,M,M,M,M,M,M,M,KDNL 011345Z AUTO 32011KT 10SM CLR A3000 RMK MADISHF
DNL,2017-04-01 13:50,-82.0382,33.4669,M,M,M,320.00,11.00,M,30.00,M,10.00,M,CLR,M,M,M,M,M,M,M,M,KDNL 011350Z AUTO 32011KT 10SM CLR A3000 RMK MADISHF
DNL,2017-04-01 13:53,-82.0382,33.4669,66.00,46.00,48.43,330.00,9.00,0.00,30.00,1015.50,10.00,M,CLR,M,M,M,M,M,M,M,M,KDNL 011353Z AUTO 33009KT 10SM CLR 19/08 A3000 RMK AO2 SLP155 T01890078
DNL,2017-04-01 13:55,-82.0382,33.4669,M,M,M,330.00,8.00,M,30.00,M,10.00,M,CLR,M,M,M,M,M,M,M,M,KDNL 011355Z AUTO 33008KT 10SM CLR A3000 RMK MADISHF
DNL,2017-04-01 14:00,-82.0382,33.4669,M,M,M,320.00,10.00,M,30.00,M,10.00,M,CLR,M,M,M,M,M,M,M,M,KDNL 011400Z AUTO 32010KT 10SM CLR A3000 RMK MADISHF
DNL,2017-04-01 14:05,-82.0382,33.4669,M,M,M,320.00,11.00,M,30.01,M,10.00,M,CLR,M,M,M,M,M,M,M,M,KDNL 011405Z AUTO 32011KT 10SM CLR A3001 RMK MADISHF
DNL,2017-04-01 14:10,-82.0382,33.4669,M,M,M,320.00,9.00,M,30.01,M,10.00,M,CLR,M,M,M,M,M,M,M,M,KDNL 011410Z AUTO 32009KT 10SM CLR A3001 RMK MADISHF
DNL,2017-04-01 14:15,-82.0382,33.4669,M,M,M,340.00,10.00,M,30.01,M,10.00,M,CLR,M,M,M,M,M,M,M,M,KDNL 011415Z AUTO 34010KT 10SM CLR A3001 RMK MADISHF
DNL,2017-04-01 14:20,-82.0382,33.4669,M,M,M,320.00,10.00,M,30.01,M,10.00,M,CLR,M,M,M,M,M,M,M,M,KDNL 011420Z AUTO 32010KT 10SM CLR A3001 RMK MADISHF
DNL,2017-04-01 14:25,-82.0382,33.4669,M,M,M,310.00,9.00,M,30.01,M,10.00,M,CLR,M,M,M,M,M,M,M,M,KDNL 011425Z AUTO 31009KT 10SM CLR A3001 RMK MADISHF
DNL,2017-04-01 14:30,-82.0382,33.4669,M,M,M,320.00,9.00,M,30.01,M,10.00,M,CLR,M,M,M,M,M,M,M,M,KDNL 011430Z AUTO 32009KT 10SM CLR A3001 RMK MADISHF
DNL,2017-04-01 14:35,-82.0382,33.4669,M,M,M,320.00,11.00,M,30.02,M,10.00,M,CLR,M,M,M,M,M,M,M,M,KDNL 011435Z AUTO 32011KT 10SM CLR A3002 RMK MADISHF
DNL,2017-04-01 14:40,-82.0382,33.4669,M,M,M,330.00,8.00,M,30.02,M,10.00,M,CLR,M,M,M,M,M,M,M,M,KDNL 011440Z AUTO 33008KT 10SM CLR A3002 RMK MADISHF
DNL,2017-04-01 14:45,-82.0382,33.4669,M,M,M,310.00,8.00,M,30.02,M,10.00,M,CLR,M,M,M,M,M,M,M,M,KDNL 011445Z AUTO 31008KT 10SM CLR A3002 RMK WND 28V36  MADISHF
DNL,2017-04-01 14:50,-82.0382,33.4669,M,M,M,320.00,11.00,M,30.02,M,10.00,M,CLR,M,M,M,M,M,M,M,M,KDNL 011450Z AUTO 32011KT 10SM CLR A3002 RMK MADISHF
DNL,2017-04-01 14:53,-82.0382,33.4669,68.00,46.00,45.19,320.00,8.00,0.00,30.02,1016.10,10.00,M,CLR,M,M,M,M,M,M,M,M,KDNL 011453Z AUTO 32008KT 10SM CLR 20/08 A3002 RMK AO2 SLP161 T02000078 51012
DNL,2017-04-01 14:55,-82.0382,33.4669,M,M,M,300.00,10.00,M,30.02,M,10.00,M,CLR,M,M,M,M,M,M,M,M,KDNL 011455Z AUTO 30010KT 10SM CLR A3002 RMK MADISHF
DNL,2017-04-01 15:00,-82.0382,33.4669,M,M,M,300.00,9.00,M,30.02,M,10.00,M,CLR,M,M,M,M,M,M,M,M,KDNL 011500Z AUTO 30009KT 10SM CLR A3002 RMK MADISHF
DNL,2017-04-01 15:05,-82.0382,33.4669,M,M,M,300.00,8.00,M,30.02,M,10.00,M,CLR,M,M,M,M,M,M,M,M,KDNL 011505Z AUTO 30008KT 10SM CLR A3002 RMK MADISHF
DNL,2017-04-01 15:10,-82.0382,33.4669,M,M,M,340.00,7.00,M,30.02,M,10.00,M,CLR,M,M,M,M,M,M,M,M,KDNL 011510Z AUTO 34007KT 10SM CLR A3002 RMK MADISHF
DNL,2017-04-01 15:15,-82.0382,33.4669,M,M,M,360.00,7.00,M,30.02,M,10.00,M,CLR,M,M,M,M,M,M,M,M,KDNL 011515Z AUTO 36007KT 10SM CLR A3002 RMK MADISHF
DNL,2017-04-01 15:20,-82.0382,33.4669,M,M,M,320.00,5.00,M,30.02,M,10.00,M,CLR,M,M,M,M,M,M,M,M,KDNL 011520Z AUTO 32005KT 10SM CLR A3002 RMK MADISHF
DNL,2017-04-01 15:25,-82.0382,33.4669,M,M,M,350.00,6.00,M,30.02,M,10.00,M,CLR,M,M,M,M,M,M,M,M,KDNL 011525Z AUTO 35006KT 10SM CLR A3002 RMK VRB06KT  MADISHF
DNL,2017-04-01 15:30,-82.0382,33.4669,M,M,M,330.00,8.00,M,30.02,M,10.00,M,CLR,M,M,M,M,M,M,M,M,KDNL 011530Z AUTO 33008KT 10SM CLR A3002 RMK MADISHF
DNL,2017-04-01 15:35,-82.0382,33.4669,M,M,M,350.00,5.00,M,30.02,M,10.00,M,CLR,M,M,M,M,M,M,M,M,KDNL 011535Z AUTO 35005KT 10SM CLR A3002 RMK MADISHF
DNL,2017-04-01 15:40,-82.0382,33.4669,M,M,M,320.00,8.00,M,30.02,M,10.00,M,CLR,M,M,M,M,M,M,M,M,KDNL 011540Z AUTO 32008KT 10SM CLR A3002 RMK MADISHF
DNL,2017-04-01 15:45,-82.0382,33.4669,M,M,M,320.00,8.00,M,30.02,M,10.00,M,CLR,M,M,M,M,M,M,M,M,KDNL 011545Z AUTO 32008KT 10SM CLR A3002 RMK MADISHF
DNL,2017-04-01 15:50,-82.0382,33.4669,M,M,M,350.00,8.00,M,30.02,M,10.00,M,CLR,M,M,M,M,M,M,M,M,KDNL 011550Z AUTO 35008KT 10SM CLR A3002 RMK MADISHF
DNL,2017-04-01 15:53,-82.0382,33.4669,72.00,46.00,39.42,330.00,7.00,0.00,30.02,1016.20,10.00,M,CLR,M,M,M,M,M,M,M,M,KDNL 011553Z AUTO 33007KT 10SM CLR 22/08 A3002 RMK AO2 SLP162 T02220078
DNL,2017-04-01 15:55,-82.0382,33.4669,M,M,M,320.00,7.00,M,30.02,M,10.00,M,CLR,M,M,M,M,M,M,M,M,KDNL 011555Z AUTO 32007KT 10SM CLR A3002 RMK MADISHF
DNL,2017-04-01 16:00,-82.0382,33.4669,M,M,M,340.00,7.00,M,30.02,M,10.00,M,CLR,M,M,M,M,M,M,M,M,KDNL 011600Z AUTO 34007KT 10SM CLR A3002 RMK MADISHF
DNL,2017-04-01 16:05,-82.0382,33.4669,M,M,M,320.00,5.00,M,30.02,M,10.00,M,CLR,M,M,M,M,M,M,M,M,KDNL 011605Z AUTO 32005KT 10SM CLR A3002 RMK VRB05KT  MADISHF
DNL,2017-04-01 16:10,-82.0382,33.4669,M,M,M,300.00,6.00,M,30.02,M,10.00,M,CLR,M,M,M,M,M,M,M,M,KDNL 011610Z AUTO 30006KT 10SM CLR A3002 RMK MADISHF
DNL,2017-04-01 16:15,-82.0382,33.4669,M,M,M,0.00,0.00,M,30.02,M,10.00,M,CLR,M,M,M,M,M,M,M,M,KDNL 011615Z AUTO 00000KT 10SM CLR A3002 RMK MADISHF
DNL,2017-04-01 16:20,-82.0382,33.4669,M,M,M,0.00,0.00,M,30.02,M,10.00,M,CLR,M,M,M,M,M,M,M,M,KDNL 011620Z AUTO 00000KT 10SM CLR A3002 RMK MADISHF
DNL,2017-04-01 16:25,-82.0382,33.4669,M,M,M,M,M,M,30.02,M,10.00,M,CLR,M,M,M,M,M,M,M,M,KDNL 011625Z AUTO /////KT 10SM CLR A3002 RMK MADISHF
DNL,2017-04-01 16:30,-82.0382,33.4669,M,M,M,290.00,4.00,M,30.02,M,10.00,M,CLR,M,M,M,M,M,M,M,M,KDNL 011630Z AUTO 29004KT 10SM CLR A3002 RMK VRB04KT  MADISHF
DNL,2017-04-01 16:35,-82.0382,33.4669,M,M,M,0.00,0.00,M,30.01,M,10.00,M,CLR,M,M,M,M,M,M,M,M,KDNL 011635Z AUTO 00000KT 10SM CLR A3001 RMK MADISHF
DNL,2017-04-01 16:40,-82.0382,33.4669,M,M,M,250.00,5.00,M,30.01,M,10.00,M,CLR,M,M,M,M,M,M,M,M,KDNL 011640Z AUTO 25005KT 10SM CLR A3001 RMK VRB05KT  MADISHF
DNL,2017-04-01 16:45,-82.0382,33.4669,M,M,M,260.00,4.00,M,30.01,M,10.00,M,CLR,M,M,M,M,M,M,M,M,KDNL 011645Z AUTO 26004KT 10SM CLR A3001 RMK VRB04KT  MADISHF
DNL,2017-04-01 16:50,-82.0382,33.4669,M,M,M,270.00,7.00,M,30.01,M,10.00,M,CLR,M,M,M,M,M,M,M,M,KDNL 011650Z AUTO 27007KT 10SM CLR A3001 RMK WND 23V29  MADISHF
DNL,2017-04-01 16:53,-82.0382,33.4669,73.00,46.00,38.11,290.00,7.00,0.00,30.01,1015.90,10.00,M,CLR,M,M,M,M,M,M,M,M,KDNL 011653Z AUTO 29007KT 250V310 10SM CLR 23/08 A3001 RMK AO2 SLP159 T02280078
DNL,2017-04-01 16:55,-82.0382,33.4669,M,M,M,290.00,7.00,M,30.01,M,10.00,M,CLR,M,M,M,M,M,M,M,M,KDNL 011655Z AUTO 29007KT 10SM CLR A3001 RMK WND 27V34  MADISHF
DNL,2017-04-01 17:00,-82.0382,33.4669,M,M,M,310.00,5.00,M,30.01,M,10.00,M,CLR,M,M,M,M,M,M,M,M,KDNL 011700Z AUTO 31005KT 10SM CLR A3001 RMK VRB05KT  MADISHF
DNL,2017-04-01 17:05,-82.0382,33.4669,M,M,M,310.00,7.00,M,30.01,M,10.00,M,CLR,M,M,M,M,M,M,M,M,KDNL 011705Z AUTO 31007KT 10SM CLR A3001 RMK WND 27V34  MADISHF
DNL,2017-04-01 17:10,-82.0382,33.4669,M,M,M,290.00,7.00,M,30.01,M,10.00,M,CLR,M,M,M,M,M,M,M,M,KDNL 011710Z AUTO 29007KT 10SM CLR A3001 RMK MADISHF
DNL,2017-04-01 17:15,-82.0382,33.4669,M,M,M,290.00,5.00,M,30.01,M,10.00,M,CLR,M,M,M,M,M,M,M,M,KDNL 011715Z AUTO 29005KT 10SM CLR A3001 RMK MADISHF
DNL,2017-04-01 17:20,-82.0382,33.4669,M,M,M,320.00,5.00,M,30.01,M,10.00,M,CLR,M,M,M,M,M,M,M,M,KDNL 011720Z AUTO 32005KT 10SM CLR A3001 RMK VRB05KT  MADISHF
DNL,2017-04-01 17:25,-82.0382,33.4669,M,M,M,310.00,8.00,M,30.00,M,10.00,M,CLR,M,M,M,M,M,M,M,M,KDNL 011725Z AUTO 31008KT 10SM CLR A3000 RMK MADISHF
DNL,2017-04-01 17:30,-82.0382,33.4669,M,M,M,330.00,6.00,M,30.01,M,10.00,M,CLR,M,M,M,M,M,M,M,M,KDNL 011730Z AUTO 33006KT 10SM CLR A3001 RMK MADISHF
DNL,2017-04-01 17:35,-82.0382,33.4669,M,M,M,0.00,0.00,M,30.01,M,10.00,M,CLR,M,M,M,M,M,M,M,M,KDNL 011735Z AUTO 00000KT 10SM CLR A3001 RMK MADISHF
DNL,2017-04-01 17:40,-82.0382,33.4669,M,M,M,M,M,M,30.00,M,10.00,M,CLR,M,M,M,M,M,M,M,M,KDNL 011740Z AUTO /////KT 10SM CLR A3000 RMK MADISHF
DNL,2017-04-01 17:45,-82.0382,33.4669,M,M,M,280.00,5.00,M,30.00,M,10.00,M,CLR,M,M,M,M,M,M,M,M,KDNL 011745Z AUTO 28005KT 10SM CLR A3000 RMK VRB05KT  MADISHF
DNL,2017-04-01 17:50,-82.0382,33.4669,M,M,M,320.00,4.00,M,30.00,M,10.00,M,CLR,M,M,M,M,M,M,M,M,KDNL 011750Z AUTO 32004KT 10SM CLR A3000 RMK VRB04KT  MADISHF
DNL,2017-04-01 17:53,-82.0382,33.4669,75.90,45.00,33.30,M,3.00,0.00,30.00,1015.40,10.00,M,CLR,M,M,M,M,M,M,M,M,KDNL 011753Z AUTO VRB03KT 10SM CLR 24/07 A3000 RMK AO2 SLP154 T02440072 10250 20150 58005
DNL,2017-04-01 17:55,-82.0382,33.4669,M,M,M,290.00,7.00,M,30.00,M,10.00,M,CLR,M,M,M,M,M,M,M,M,KDNL 011755Z AUTO 29007KT 10SM CLR A3000 RMK WND 26V32  MADISHF
DNL,2017-04-01 18:00,-82.0382,33.4669,M,M,M,240.00,4.00,M,30.00,M,10.00,M,CLR,M,M,M,M,M,M,M,M,KDNL 011800Z AUTO 24004KT 10SM CLR A3000 RMK VRB04KT  MADISHF
DNL,2017-04-01 18:05,-82.0382,33.4669,M,M,M,310.00,6.00,M,30.00,M,10.00,M,CLR,M,M,M,M,M,M,M,M,KDNL 011805Z AUTO 31006KT 10SM CLR A3000 RMK MADISHF
DNL,2017-04-01 18:10,-82.0382,33.4669,M,M,M,310.00,6.00,M,30.00,M,10.00,M,CLR,M,M,M,M,M,M,M,M,KDNL 011810Z AUTO 31006KT 10SM CLR A3000 RMK VRB06KT  MADISHF
DNL,2017-04-01 18:15,-82.0382,33.4669,M,M,M,310.00,3.00,M,30.00,M,10.00,M,CLR,M,M,M,M,M,M,M,M,KDNL 011815Z AUTO 31003KT 10SM CLR A3000 RMK VRB03KT  MADISHF
DNL,2017-04-01 18:20,-82.0382,33.4669,M,M,M,350.00,6.00,M,30.00,M,10.00,M,CLR,M,M,M,M,M,M,M,M,KDNL 011820Z AUTO 35006KT 10SM CLR A3000 RMK MADISHF
DNL,2017-04-01 18:25,-82.0382,33.4669,M,M,M,M,M,M,29.99,M,10.00,M,CLR,M,M,M,M,M,M,M,M,KDNL 011825Z AUTO /////KT 10SM CLR A2999 RMK MADISHF
DNL,2017-04-01 18:30,-82.0382,33.4669,M,M,M,0.00,0.00,M,29.99,M,10.00,M,CLR,M,M,M,M,M,M,M,M,KDNL 011830Z AUTO 00000KT 10SM CLR A2999 RMK MADISHF
DNL,2017-04-01 18:35,-82.0382,33.4669,M,M,M,M,M,M,29.99,M,10.00,M,CLR,M,M,M,M,M,M,M,M,KDNL 011835Z AUTO /////KT 10SM CLR A2999 RMK MADISHF
DNL,2017-04-01 18:40,-82.0382,33.4669,M,M,M,310.00,8.00,M,29.99,M,10.00,M,CLR,M,M,M,M,M,M,M,M,KDNL 011840Z AUTO 31008KT 10SM CLR A2999 RMK MADISHF
DNL,2017-04-01 18:45,-82.0382,33.4669,M,M,M,280.00,5.00,M,29.99,M,10.00,M,CLR,M,M,M,M,M,M,M,M,KDNL 011845Z AUTO 28005KT 10SM CLR A2999 RMK VRB05KT  MADISHF
DNL,2017-04-01 18:50,-82.0382,33.4669,M,M,M,340.00,3.00,M,29.98,M,10.00,M,CLR,M,M,M,M,M,M,M,M,KDNL 011850Z AUTO 34003KT 10SM CLR A2998 RMK VRB03KT  MADISHF
DNL,2017-04-01 18:53,-82.0382,33.4669,79.00,46.90,32.29,350.00,6.00,0.00,29.98,1014.80,10.00,M,CLR,M,M,M,M,M,M,M,M,KDNL 011853Z AUTO 35006KT 10SM CLR 26/08 A2998 RMK AO2 SLP148 T02610083
DNL,2017-04-01 18:55,-82.0382,33.4669,M,M,M,30.00,5.00,M,29.98,M,10.00,M,CLR,M,M,M,M,M,M,M,M,KDNL 011855Z AUTO 03005KT 10SM CLR A2998 RMK MADISHF
DNL,2017-04-01 19:00,-82.0382,33.4669,M,M,M,310.00,7.00,M,29.98,M,10.00,M,CLR,M,M,M,M,M,M,M,M,KDNL 011900Z AUTO 31007KT 10SM CLR A2998 RMK MADISHF
DNL,2017-04-01 19:05,-82.0382,33.4669,M,M,M,340.00,7.00,M,29.98,M,10.00,M,CLR,M,M,M,M,M,M,M,M,KDNL 011905Z AUTO 34007KT 10SM CLR A2998 RMK MADISHF
DNL,2017-04-01 19:10,-82.0382,33.4669,M,M,M,300.00,4.00,M,29.98,M,10.00,M,CLR,M,M,M,M,M,M,M,M,KDNL 011910Z AUTO 30004KT 10SM CLR A2998 RMK VRB04KT  MADISHF
DNL,2017-04-01 19:15,-82.0382,33.4669,M,M,M,290.00,6.00,M,29.97,M,10.00,M,CLR,M,M,M,M,M,M,M,M,KDNL 011915Z AUTO 29006KT 10SM CLR A2997 RMK MADISHF
DNL,2017-04-01 19:20,-82.0382,33.4669,M,M,M,280.00,4.00,M,29.97,M,10.00,M,CLR,M,M,M,M,M,M,M,M,KDNL 011920Z AUTO 28004KT 10SM CLR A2997 RMK MADISHF
DNL,2017-04-01 19:25,-82.0382,33.4669,M,M,M,330.00,8.00,M,29.97,M,10.00,M,CLR,M,M,M,M,M,M,M,M,KDNL 011925Z AUTO 33008KT 10SM CLR A2997 RMK MADISHF
DNL,2017-04-01 19:30,-82.0382,33.4669,M,M,M,330.00,6.00,M,29.97,M,10.00,M,CLR,M,M,M,M,M,M,M,M,KDNL 011930Z AUTO 33006KT 10SM CLR A2997 RMK VRB06KT  MADISHF
DNL,2017-04-01 19:35,-82.0382,33.4669,M,M,M,350.00,8.00,M,29.97,M,10.00,M,CLR,M,M,M,M,M,M,M,M,KDNL 011935Z AUTO 35008KT 10SM CLR A2997 RMK MADISHF
DNL,2017-04-01 19:40,-82.0382,33.4669,M,M,M,20.00,6.00,M,29.97,M,10.00,M,CLR,M,M,M,M,M,M,M,M,KDNL 011940Z AUTO 02006KT 10SM CLR A2997 RMK MADISHF
DNL,2017-04-01 19:45,-82.0382,33.4669,M,M,M,10.00,5.00,M,29.97,M,10.00,M,CLR,M,M,M,M,M,M,M,M,KDNL 011945Z AUTO 01005KT 10SM CLR A2997 RMK MADISHF
DNL,2017-04-01 19:50,-82.0382,33.4669,M,M,M,340.00,8.00,M,29.96,M,10.00,M,CLR,M,M,M,M,M,M,M,M,KDNL 011950Z AUTO 34008KT 10SM CLR A2996 RMK MADISHF
DNL,2017-04-01 19:53,-82.0382,33.4669,81.00,46.90,30.24,350.00,8.00,0.00,29.97,1014.20,10.00,M,CLR,M,M,M,M,M,M,M,M,KDNL 011953Z AUTO 35008KT 10SM CLR 27/08 A2997 RMK AO2 SLP142 T02720083
DNL,2017-04-01 19:55,-82.0382,33.4669,M,M,M,350.00,7.00,M,29.96,M,10.00,M,CLR,M,M,M,M,M,M,M,M,KDNL 011955Z AUTO 35007KT 10SM CLR A2996 RMK MADISHF
DNL,2017-04-01 20:00,-82.0382,33.4669,M,M,M,300.00,9.00,M,29.96,M,10.00,M,CLR,M,M,M,M,M,M,M,M,KDNL 012000Z AUTO 30009KT 10SM CLR A2996 RMK MADISHF
DNL,2017-04-01 20:05,-82.0382,33.4669,M,M,M,280.00,5.00,M,29.96,M,10.00,M,CLR,M,M,M,M,M,M,M,M,KDNL 012005Z AUTO 28005KT 10SM CLR A2996 RMK VRB05KT  MADISHF
DNL,2017-04-01 20:10,-82.0382,33.4669,M,M,M,340.00,3.00,M,29.96,M,10.00,M,CLR,M,M,M,M,M,M,M,M,KDNL 012010Z AUTO 34003KT 10SM CLR A2996 RMK VRB03KT  MADISHF
DNL,2017-04-01 20:15,-82.0382,33.4669,M,M,M,M,M,M,29.96,M,10.00,M,CLR,M,M,M,M,M,M,M,M,KDNL 012015Z AUTO /////KT 10SM CLR A2996 RMK MADISHF
DNL,2017-04-01 20:20,-82.0382,33.4669,M,M,M,M,M,M,29.96,M,10.00,16.00,CLR,M,M,M,M,M,M,M,M,KDNL 012020Z AUTO /////G16KT 10SM CLR A2996 RMK MADISHF
DNL,2017-04-01 20:25,-82.0382,33.4669,M,M,M,270.00,5.00,M,29.96,M,10.00,M,CLR,M,M,M,M,M,M,M,M,KDNL 012025Z AUTO 27005KT 10SM CLR A2996 RMK MADISHF
DNL,2017-04-01 20:30,-82.0382,33.4669,M,M,M,310.00,6.00,M,29.96,M,10.00,M,CLR,M,M,M,M,M,M,M,M,KDNL 012030Z AUTO 31006KT 10SM CLR A2996 RMK VRB06KT  MADISHF
DNL,2017-04-01 20:35,-82.0382,33.4669,M,M,M,320.00,8.00,M,29.96,M,10.00,M,CLR,M,M,M,M,M,M,M,M,KDNL 012035Z AUTO 32008KT 10SM CLR A2996 RMK MADISHF
DNL,2017-04-01 20:40,-82.0382,33.4669,M,M,M,320.00,4.00,M,29.96,M,10.00,M,CLR,M,M,M,M,M,M,M,M,KDNL 012040Z AUTO 32004KT 10SM CLR A2996 RMK VRB04KT  MADISHF
DNL,2017-04-01 20:45,-82.0382,33.4669,M,M,M,0.00,0.00,M,29.96,M,10.00,M,CLR,M,M,M,M,M,M,M,M,KDNL 012045Z AUTO 00000KT 10SM CLR A2996 RMK MADISHF
DNL,2017-04-01 20:50,-82.0382,33.4669,M,M,M,0.00,0.00,M,29.96,M,10.00,M,CLR,M,M,M,M,M,M,M,M,KDNL 012050Z AUTO 00000KT 10SM CLR A2996 RMK MADISHF
DNL,2017-04-01 20:53,-82.0382,33.4669,82.90,46.90,28.43,M,M,0.00,29.96,1013.90,10.00,M,CLR,M,M,M,M,M,M,M,M,KDNL 012053Z AUTO 10SM CLR 28/08 A2996 RMK AO2 SLP139 T02830083 56015
DNL,2017-04-01 20:55,-82.0382,33.4669,M,M,M,M,M,M,29.96,M,10.00,M,CLR,M,M,M,M,M,M,M,M,KDNL 012055Z AUTO /////KT 10SM CLR A2996 RMK MADISHF
DNL,2017-04-01 21:00,-82.0382,33.4669,M,M,M,0.00,0.00,M,29.95,M,10.00,M,CLR,M,M,M,M,M,M,M,M,KDNL 012100Z AUTO 00000KT 10SM CLR A2995 RMK MADISHF
DNL,2017-04-01 21:05,-82.0382,33.4669,M,M,M,M,M,M,29.95,M,10.00,M,CLR,M,M,M,M,M,M,M,M,KDNL 012105Z AUTO /////KT 10SM CLR A2995 RMK MADISHF
DNL,2017-04-01 21:10,-82.0382,33.4669,M,M,M,320.00,5.00,M,29.96,M,10.00,M,CLR,M,M,M,M,M,M,M,M,KDNL 012110Z AUTO 32005KT 10SM CLR A2996 RMK MADISHF
DNL,2017-04-01 21:15,-82.0382,33.4669,M,M,M,260.00,3.00,M,29.95,M,10.00,M,CLR,M,M,M,M,M,M,M,M,KDNL 012115Z AUTO 26003KT 10SM CLR A2995 RMK MADISHF
DNL,2017-04-01 21:20,-82.0382,33.4669,M,M,M,330.00,7.00,M,29.95,M,10.00,M,CLR,M,M,M,M,M,M,M,M,KDNL 012120Z AUTO 33007KT 10SM CLR A2995 RMK MADISHF
DNL,2017-04-01 21:25,-82.0382,33.4669,M,M,M,310.00,5.00,M,29.95,M,10.00,M,CLR,M,M,M,M,M,M,M,M,KDNL 012125Z AUTO 31005KT 10SM CLR A2995 RMK VRB05KT  MADISHF
DNL,2017-04-01 21:30,-82.0382,33.4669,M,M,M,320.00,5.00,M,29.96,M,10.00,M,CLR,M,M,M,M,M,M,M,M,KDNL 012130Z AUTO 32005KT 10SM CLR A2996 RMK MADISHF
DNL,2017-04-01 21:35,-82.0382,33.4669,M,M,M,310.00,5.00,M,29.96,M,10.00,M,CLR,M,M,M,M,M,M,M,M,KDNL 012135Z AUTO 31005KT 10SM CLR A2996 RMK MADISHF
DNL,2017-04-01 21:40,-82.0382,33.4669,M,M,M,320.00,4.00,M,29.96,M,10.00,M,CLR,M,M,M,M,M,M,M,M,KDNL 012140Z AUTO 32004KT 10SM CLR A2996 RMK MADISHF
DNL,2017-04-01 21:45,-82.0382,33.4669,M,M,M,320.00,8.00,M,29.96,M,10.00,M,CLR,M,M,M,M,M,M,M,M,KDNL 012145Z AUTO 32008KT 10SM CLR A2996 RMK MADISHF
DNL,2017-04-01 21:50,-82.0382,33.4669,M,M,M,280.00,6.00,M,29.96,M,10.00,M,CLR,M,M,M,M,M,M,M,M,KDNL 012150Z AUTO 28006KT 10SM CLR A2996 RMK MADISHF
DNL,2017-04-01 21:53,-82.0382,33.4669,82.00,44.10,26.33,300.00,8.00,0.00,29.96,1014.00,10.00,M,CLR,M,M,M,M,M,M,M,M,KDNL 012153Z AUTO 30008KT 10SM CLR 28/07 A2996 RMK AO2 SLP140 T02780067
DNL,2017-04-01 21:55,-82.0382,33.4669,M,M,M,300.00,8.00,M,29.96,M,10.00,M,CLR,M,M,M,M,M,M,M,M,KDNL 012155Z AUTO 30008KT 10SM CLR A2996 RMK MADISHF
DNL,2017-04-01 22:00,-82.0382,33.4669,M,M,M,300.00,8.00,M,29.96,M,10.00,M,CLR,M,M,M,M,M,M,M,M,KDNL 012200Z AUTO 30008KT 10SM CLR A2996 RMK MADISHF
DNL,2017-04-01 22:05,-82.0382,33.4669,M,M,M,320.00,8.00,M,29.96,M,10.00,M,CLR,M,M,M,M,M,M,M,M,KDNL 012205Z AUTO 32008KT 10SM CLR A2996 RMK MADISHF
DNL,2017-04-01 22:10,-82.0382,33.4669,M,M,M,330.00,6.00,M,29.96,M,10.00,M,CLR,M,M,M,M,M,M,M,M,KDNL 012210Z AUTO 33006KT 10SM CLR A2996 RMK MADISHF
DNL,2017-04-01 22:15,-82.0382,33.4669,M,M,M,320.00,7.00,M,29.96,M,10.00,M,CLR,M,M,M,M,M,M,M,M,KDNL 012215Z AUTO 32007KT 10SM CLR A2996 RMK MADISHF
DNL,2017-04-01 22:20,-82.0382,33.4669,M,M,M,330.00,8.00,M,29.96,M,10.00,M,CLR,M,M,M,M,M,M,M,M,KDNL 012220Z AUTO 33008KT 10SM CLR A2996 RMK MADISHF
DNL,2017-04-01 22:25,-82.0382,33.4669,M,M,M,350.00,4.00,M,29.96,M,10.00,M,CLR,M,M,M,M,M,M,M,M,KDNL 012225Z AUTO 35004KT 10SM CLR A2996 RMK MADISHF
DNL,2017-04-01 22:30,-82.0382,33.4669,M,M,M,330.00,8.00,M,29.96,M,10.00,M,CLR,M,M,M,M,M,M,M,M,KDNL 012230Z AUTO 33008KT 10SM CLR A2996 RMK MADISHF
DNL,2017-04-01 22:35,-82.0382,33.4669,M,M,M,300.00,5.00,M,29.97,M,10.00,M,CLR,M,M,M,M,M,M,M,M,KDNL 012235Z AUTO 30005KT 10SM CLR A2997 RMK MADISHF
DNL,2017-04-01 22:40,-82.0382,33.4669,M,M,M,310.00,5.00,M,29.97,M,10.00,M,CLR,M,M,M,M,M,M,M,M,KDNL 012240Z AUTO 31005KT 10SM CLR A2997 RMK VRB05KT  MADISHF
DNL,2017-04-01 22:45,-82.0382,33.4669,M,M,M,350.00,6.00,M,29.97,M,10.00,M,CLR,M,M,M,M,M,M,M,M,KDNL 012245Z AUTO 35006KT 10SM CLR A2997 RMK MADISHF
DNL,2017-04-01 22:50,-82.0382,33.4669,M,M,M,330.00,4.00,M,29.97,M,10.00,M,CLR,M,M,M,M,M,M,M,M,KDNL 012250Z AUTO 33004KT 10SM CLR A2997 RMK MADISHF
DNL,2017-04-01 22:53,-82.0382,33.4669,82.00,46.00,28.30,320.00,6.00,0.00,29.97,1014.40,10.00,M,CLR,M,M,M,M,M,M,M,M,KDNL 012253Z AUTO 32006KT 10SM CLR 28/08 A2997 RMK AO2 SLP144 T02780078
DNL,2017-04-01 22:55,-82.0382,33.4669,M,M,M,330.00,4.00,M,29.97,M,10.00,M,CLR,M,M,M,M,M,M,M,M,KDNL 012255Z AUTO 33004KT 10SM CLR A2997 RMK MADISHF
DNL,2017-04-01 23:00,-82.0382,33.4669,M,M,M,320.00,4.00,M,29.97,M,10.00,M,CLR,M,M,M,M,M,M,M,M,KDNL 012300Z AUTO 32004KT 10SM CLR A2997 RMK MADISHF
DNL,2017-04-01 23:05,-82.0382,33.4669,M,M,M,350.00,6.00,M,29.97,M,10.00,M,CLR,M,M,M,M,M,M,M,M,KDNL 012305Z AUTO 35006KT 10SM CLR A2997 RMK MADISHF
DNL,2017-04-01 23:10,-82.0382,33.4669,M,M,M,350.00,4.00,M,29.97,M,10.00,M,CLR,M,M,M,M,M,M,M,M,KDNL 012310Z AUTO 35004KT 10SM CLR A2997 RMK MADISHF
DNL,2017-04-01 23:15,-82.0382,33.4669,M,M,M,340.00,5.00,M,29.98,M,10.00,M,CLR,M,M,M,M,M,M,M,M,KDNL 012315Z AUTO 34005KT 10SM CLR A2998 RMK MADISHF
DNL,2017-04-01 23:20,-82.0382,33.4669,M,M,M,340.00,4.00,M,29.98,M,10.00,M,CLR,M,M,M,M,M,M,M,M,KDNL 012320Z AUTO 34004KT 10SM CLR A2998 RMK MADISHF
DNL,2017-04-01 23:25,-82.0382,33.4669,M,M,M,350.00,4.00,M,29.98,M,10.00,M,CLR,M,M,M,M,M,M,M,M,KDNL 012325Z AUTO 35004KT 10SM CLR A2998 RMK MADISHF
DNL,2017-04-01 23:30,-82.0382,33.4669,M,M,M,350.00,4.00,M,29.98,M,10.00,M,CLR,M,M,M,M,M,M,M,M,KDNL 012330Z AUTO 35004KT 10SM CLR A2998 RMK MADISHF
DNL,2017-04-01 23:35,-82.0382,33.4669,M,M,M,340.00,4.00,M,29.98,M,10.00,M,CLR,M,M,M,M,M,M,M,M,KDNL 012335Z AUTO 34004KT 10SM CLR A2998 RMK MADISHF
DNL,2017-04-01 23:40,-82.0382,33.4669,M,M,M,340.00,5.00,M,29.98,M,10.00,M,CLR,M,M,M,M,M,M,M,M,KDNL 012340Z AUTO 34005KT 10SM CLR A2998 RMK MADISHF
DNL,2017-04-01 23:45,-82.0382,33.4669,M,M,M,340.00,4.00,M,29.99,M,10.00,M,CLR,M,M,M,M,M,M,M,M,KDNL 012345Z AUTO 34004KT 10SM CLR A2999 RMK MADISHF
DNL,2017-04-01 23:50,-82.0382,33.4669,M,M,M,340.00,3.00,M,29.99,M,10.00,M,CLR,M,M,M,M,M,M,M,M,KDNL 012350Z AUTO 34003KT 10SM CLR A2999 RMK MADISHF
DNL,2017-04-01 23:53,-82.0382,33.4669,78.10,46.00,32.15,350.00,3.00,0.00,29.99,1015.10,10.00,M,CLR,M,M,M,M,M,M,M,M,KDNL 012353Z AUTO 35003KT 10SM CLR 26/08 A2999 RMK AO2 SLP151 T02560078 10283 20244 53010
DNL,2017-04-01 23:55,-82.0382,33.4669,M,M,M,350.00,3.00,M,29.99,M,10.00,M,CLR,M,M,M,M,M,M,M,M,KDNL 012355Z AUTO 35003KT 10SM CLR A2999 RMK MADISHF
