#DEBUG: Format Typ    -> comma
#DEBUG: Time Period   -> 2017-04-01 00:00:00+00:00 2017-04-02 00:00:00+00:00
#DEBUG: Time Zone     -> Etc/UTC
#DEBUG: Data Contact   -> daryl herzmann akrherz@iastate.edu 515-294-5978
#DEBUG: Entries Found -> -1
station,valid,lon,lat,tmpf, dwpf, relh, drct, sknt, p01i, alti, mslp, vsby, gust, skyc1, skyc2, skyc3, skyc4, skyl1, skyl2, skyl3, skyl4, presentwx, metar
DPA,2017-04-01 00:00,-88.2486,41.9078,M,M,M,M,M,M,29.96,M,10.00,M,OVC,M,M,M,4100.00,M,M,M,M,KDPA 010000Z AUTO /////KT 10SM OVC041 A2996 RMK MADISHF
DPA,2017-04-01 00:05,-88.2486,41.9078,M,M,M,360.00,15.00,M,29.97,M,10.00,M,OVC,M,M,M,4100.00,M,M,M,M,KDPA 010005Z AUTO 36015KT 10SM OVC041 A2997 RMK MADISHF
DPA,2017-04-01 00:10,-88.2486,41.9078,M,M,M,360.00,14.00,M,29.97,M,10.00,M,OVC,M,M,M,4100.00,M,M,M,M,KDPA 010010Z AUTO 36014KT 10SM OVC041 A2997 RMK MADISHF
DPA,2017-04-01 00:15,-88.2486,41.9078,M,M,M,M,M,M,29.97,M,10.00,M,OVC,M,M,M,4100.00,M,M,M,M,KDPA 010015Z AUTO /////KT 10SM OVC041 A2997 RMK MADISHF
DPA,2017-04-01 00:20,-88.2486,41.9078,M,M,M,10.00,13.00,M,29.97,M,10.00,M,OVC,M,M,M,4100.00,M,M,M,M,KDPA 010020Z AUTO 01013KT 10SM OVC041 A2997 RMK MADISHF
DPA,2017-04-01 00:25,-88.2486,41.9078,M,M,M,10.00,11.00,M,29.97,M,10.00,M,OVC,M,M,M,4200.00,M,M,M,M,KDPA 010025Z AUTO 01011KT 10SM OVC042 A2997 RMK MADISHF
DPA,2017-04-01 00:30,-88.2486,41.9078,M,M,M,10.00,9.00,M,29.97,M,10.00,M,OVC,M,M,M,4200.00,M,M,M,M,KDPA 010030Z AUTO 01009KT 10SM OVC042 A2997 RMK MADISHF
DPA,2017-04-01 00:35,-88.2486,41.9078,M,M,M,10.00,9.00,M,29.97,M,10.00,M,OVC,M,M,M,4200.00,M,M,M,M,KDPA 010035Z AUTO 01009KT 10SM OVC042 A2997 RMK MADISHF
DPA,2017-04-01 00:40,-88.2486,41.9078,M,M,M,10.00,9.00,M,29.98,M,10.00,M,OVC,M,M,M,4200.00,M,M,M,M,KDPA 010040Z AUTO 01009KT 10SM OVC042 A2998 RMK MADISHF
DPA,2017-04-01 00:45,-88.2486,41.9078,M,M,M,360.00,10.00,M,29.98,M,10.00,M,OVC,M,M,M,4300.00,M,M,M,M,KDPA 010045Z AUTO 36010KT 10SM OVC043 A2998 RMK MADISHF
DPA,2017-04-01 00:50,-88.2486,41.9078,M,M,M,360.00,8.00,M,29.98,M,10.00,M,OVC,M,M,M,4300.00,M,M,M,M,KDPA 010050Z AUTO 36008KT 10SM OVC043 A2998 RMK MADISHF
DPA,2017-04-01 00:52,-88.2486,41.9078,42.10,33.10,70.20,360.00,9.00,0.00,29.98,1015.70,10.00,M,OVC,M,M,M,4400.00,M,M,M,M,KDPA 010052Z 36009KT 10SM OVC044 06/01 A2998 RMK AO2 SLP157 T00560006
DPA,2017-04-01 00:55,-88.2486,41.9078,M,M,M,360.00,8.00,M,29.98,M,10.00,M,OVC,M,M,M,4400.00,M,M,M,M,KDPA 010055Z AUTO 36008KT 10SM OVC044 A2998 RMK MADISHF
DPA,2017-04-01 01:00,-88.2486,41.9078,M,M,M,360.00,8.00,M,29.98,M,10.00,M,OVC,M,M,M,4400.00,M,M,M,M,KDPA 010100Z AUTO 36008KT 10SM OVC044 A2998 RMK MADISHF
DPA,2017-04-01 01:05,-88.2486,41.9078,M,M,M,360.00,7.00,M,29.99,M,10.00,M,OVC,M,M,M,4400.00,M,M,M,M,KDPA 010105Z AUTO 36007KT 10SM OVC044 A2999 RMK MADISHF
DPA,2017-04-01 01:10,-88.2486,41.9078,M,M,M,360.00,6.00,M,29.99,M,10.00,M,OVC,M,M,M,4400.00,M,M,M,M,KDPA 010110Z AUTO 36006KT 10SM OVC044 A2999 RMK MADISHF
DPA,2017-04-01 01:15,-88.2486,41.9078,M,M,M,360.00,6.00,M,29.99,M,10.00,M,OVC,M,M,M,4400.00,M,M,M,M,KDPA 010115Z AUTO 36006KT 10SM OVC044 A2999 RMK MADISHF
DPA,2017-04-01 01:20,-88.2486,41.9078,M,M,M,10.00,6.00,M,29.99,M,10.00,M,OVC,M,M,M,4600.00,M,M,M,M,KDPA 010120Z AUTO 01006KT 10SM OVC046 A2999 RMK MADISHF
DPA,2017-04-01 01:25,-88.2486,41.9078,M,M,M,10.00,6.00,M,29.99,M,10.00,M,OVC,M,M,M,4600.00,M,M,M,M,KDPA 010125Z AUTO 01006KT 10SM OVC046 A2999 RMK MADISHF
DPA,2017-04-01 01:30,-88.2486,41.9078,M,M,M,10.00,6.00,M,29.99,M,10.00,M,OVC,M,M,M,4600.00,M,M,M,M,KDPA 010130Z AUTO 01006KT 10SM OVC046 A2999 RMK MADISHF
DPA,2017-04-01 01:35,-88.2486,41.9078,M,M,M,20.00,7.00,M,30.00,M,10.00,M,OVC,M,M,M,4800.00,M,M,M,M,KDPA 010135Z AUTO 02007KT 10SM OVC048 A3000 RMK MADISHF
DPA,2017-04-01 01:40,-88.2486,41.9078,M,M,M,20.00,6.00,M,30.00,M,10.00,M,OVC,M,M,M,4800.00,M,M,M,M,KDPA 010140Z AUTO 02006KT 10SM OVC048 A3000 RMK MADISHF
DPA,2017-04-01 01:45,-88.2486,41.9078,M,M,M,20.00,7.00,M,30.00,M,10.00,M,OVC,M,M,M,4800.00,M,M,M,M,KDPA 010145Z AUTO 02007KT 10SM OVC048 A3000 RMK MADISHF
DPA,2017-04-01 01:50,-88.2486,41.9078,M,M,M,20.00,8.00,M,30.00,M,10.00,M,OVC,M,M,M,4800.00,M,M,M,M,KDPA 010150Z AUTO 02008KT 10SM OVC048 A3000 RMK MADISHF
DPA,2017-04-01 01:52,-88.2486,41.9078,41.00,34.00,75.94,20.00,8.00,0.00,30.00,1016.50,10.00,M,OVC,M,M,M,4800.00,M,M,M,M,KDPA 010152Z 02008KT 10SM OVC048 05/01 A3000 RMK AO2 SLP165 T00500011
DPA,2017-04-01 01:55,-88.2486,41.9078,M,M,M,10.00,7.00,M,30.00,M,10.00,M,OVC,M,M,M,4800.00,M,M,M,M,KDPA 010155Z AUTO 01007KT 10SM OVC048 A3000 RMK MADISHF
DPA,2017-04-01 02:00,-88.2486,41.9078,M,M,M,10.00,8.00,M,30.00,M,10.00,M,OVC,M,M,M,4800.00,M,M,M,M,KDPA 010200Z AUTO 01008KT 10SM OVC048 A3000 RMK MADISHF
DPA,2017-04-01 02:05,-88.2486,41.9078,M,M,M,360.00,9.00,M,30.01,M,10.00,M,OVC,M,M,M,4800.00,M,M,M,M,KDPA 010205Z AUTO 36009KT 10SM OVC048 A3001 RMK MADISHF
DPA,2017-04-01 02:10,-88.2486,41.9078,M,M,M,360.00,9.00,M,30.01,M,10.00,M,OVC,M,M,M,4800.00,M,M,M,M,KDPA 010210Z AUTO 36009KT 10SM OVC048 A3001 RMK MADISHF
DPA,2017-04-01 02:15,-88.2486,41.9078,M,M,M,350.00,10.00,M,30.01,M,10.00,M,OVC,M,M,M,4900.00,M,M,M,M,KDPA 010215Z AUTO 35010KT 10SM OVC049 A3001 RMK MADISHF
DPA,2017-04-01 02:20,-88.2486,41.9078,M,M,M,350.00,11.00,M,30.01,M,10.00,M,OVC,M,M,M,4900.00,M,M,M,M,KDPA 010220Z AUTO 35011KT 10SM OVC049 A3001 RMK MADISHF
DPA,2017-04-01 02:25,-88.2486,41.9078,M,M,M,350.00,9.00,M,30.01,M,10.00,M,OVC,M,M,M,4900.00,M,M,M,M,KDPA 010225Z AUTO 35009KT 10SM OVC049 A3001 RMK MADISHF
DPA,2017-04-01 02:30,-88.2486,41.9078,M,M,M,350.00,9.00,M,30.02,M,10.00,M,OVC,M,M,M,5000.00,M,M,M,M,KDPA 010230Z AUTO 35009KT 10SM OVC050 A3002 RMK MADISHF
DPA,2017-04-01 02:35,-88.2486,41.9078,M,M,M,350.00,9.00,M,30.02,M,10.00,M,OVC,M,M,M,5000.00,M,M,M,M,KDPA 010235Z AUTO 35009KT 10SM OVC050 A3002 RMK MADISHF
DPA,2017-04-01 02:40,-88.2486,41.9078,M,M,M,360.00,9.00,M,30.02,M,10.00,M,OVC,M,M,M,5000.00,M,M,M,M,KDPA 010240Z AUTO 36009KT 10SM OVC050 A3002 RMK MADISHF
DPA,2017-04-01 02:45,-88.2486,41.9078,M,M,M,350.00,9.00,M,30.03,M,10.00,M,OVC,M,M,M,5500.00,M,M,M,M,KDPA 010245Z AUTO 35009KT 10SM OVC055 A3003 RMK MADISHF
DPA,2017-04-01 02:50,-88.2486,41.9078,M,M,M,350.00,9.00,M,30.03,M,10.00,M,OVC,M,M,M,5500.00,M,M,M,M,KDPA 010250Z AUTO 35009KT 10SM OVC055 A3003 RMK MADISHF
DPA,2017-04-01 02:52,-88.2486,41.9078,41.00,33.10,73.25,350.00,9.00,0.00,30.03,1017.40,10.00,M,OVC,M,M,M,5500.00,M,M,M,M,KDPA 010252Z 35009KT 10SM OVC055 05/01 A3003 RMK AO2 SLP174 T00500006 53022
DPA,2017-04-01 02:55,-88.2486,41.9078,M,M,M,350.00,10.00,M,30.03,M,10.00,M,OVC,M,M,M,5500.00,M,M,M,M,KDPA 010255Z AUTO 35010KT 10SM OVC055 A3003 RMK MADISHF
DPA,2017-04-01 03:00,-88.2486,41.9078,M,M,M,350.00,9.00,M,30.03,M,10.00,M,BKN,M,M,M,5500.00,M,M,M,M,KDPA 010300Z AUTO 35009KT 10SM BKN055 A3003 RMK MADISHF
DPA,2017-04-01 03:05,-88.2486,41.9078,M,M,M,350.00,9.00,M,30.04,M,10.00,M,BKN,M,M,M,5500.00,M,M,M,M,KDPA 010305Z AUTO 35009KT 10SM BKN055 A3004 RMK MADISHF
DPA,2017-04-01 03:10,-88.2486,41.9078,M,M,M,350.00,9.00,M,30.04,M,10.00,M,SCT,M,M,M,5500.00,M,M,M,M,KDPA 010310Z AUTO 35009KT 10SM SCT055 A3004 RMK MADISHF
DPA,2017-04-01 03:15,-88.2486,41.9078,M,M,M,360.00,9.00,M,30.03,M,10.00,M,FEW,SCT,M,M,4700.00,5500.00,M,M,M,KDPA 010315Z AUTO 36009KT 10SM FEW047 SCT055 A3003 RMK MADISHF
DPA,2017-04-01 03:20,-88.2486,41.9078,M,M,M,360.00,8.00,M,30.03,M,10.00,M,SCT,BKN,M,M,4700.00,5500.00,M,M,M,KDPA 010320Z AUTO 36008KT 10SM SCT047 BKN055 A3003 RMK MADISHF
DPA,2017-04-01 03:25,-88.2486,41.9078,M,M,M,360.00,8.00,M,30.03,M,10.00,M,BKN,M,M,M,4700.00,M,M,M,M,KDPA 010325Z AUTO 36008KT 10SM BKN047 A3003 RMK MADISHF
DPA,2017-04-01 03:30,-88.2486,41.9078,M,M,M,360.00,8.00,M,30.04,M,10.00,M,BKN,M,M,M,4700.00,M,M,M,M,KDPA 010330Z AUTO 36008KT 10SM BKN047 A3004 RMK MADISHF
DPA,2017-04-01 03:35,-88.2486,41.9078,M,M,M,350.00,8.00,M,30.04,M,10.00,M,SCT,M,M,M,4700.00,M,M,M,M,KDPA 010335Z AUTO 35008KT 10SM SCT047 A3004 RMK MADISHF
DPA,2017-04-01 03:40,-88.2486,41.9078,M,M,M,350.00,9.00,M,30.04,M,10.00,M,SCT,M,M,M,4700.00,M,M,M,M,KDPA 010340Z AUTO 35009KT 10SM SCT047 A3004 RMK MADISHF
DPA,2017-04-01 03:45,-88.2486,41.9078,M,M,M,340.00,8.00,M,30.05,M,10.00,M,BKN,M,M,M,4700.00,M,M,M,M,KDPA 010345Z AUTO 34008KT 10SM BKN047 A3005 RMK MADISHF
DPA,2017-04-01 03:50,-88.2486,41.9078,M,M,M,340.00,8.00,M,30.05,M,10.00,M,BKN,M,M,M,4700.00,M,M,M,M,KDPA 010350Z AUTO 34008KT 10SM BKN047 A3005 RMK MADISHF
DPA,2017-04-01 03:52,-88.2486,41.9078,39.00,32.00,75.75,340.00,7.00,0.00,30.05,1018.30,10.00,M,BKN,M,M,M,4700.00,M,M,M,M,KDPA 010352Z 34007KT 10SM BKN047 04/00 A3005 RMK AO2 SLP183 T00390000
DPA,2017-04-01 03:55,-88.2486,41.9078,M,M,M,330.00,8.00,M,30.05,M,10.00,M,BKN,M,M,M,4700.00,M,M,M,M,KDPA 010355Z AUTO 33008KT 10SM BKN047 A3005 RMK MADISHF
DPA,2017-04-01 04:00,-88.2486,41.9078,M,M,M,350.00,7.00,M,30.05,M,10.00,M,BKN,M,M,M,4700.00,M,M,M,M,KDPA 010400Z AUTO 35007KT 10SM BKN047 A3005 RMK MADISHF
DPA,2017-04-01 04:05,-88.2486,41.9078,M,M,M,350.00,7.00,M,30.05,M,10.00,M,OVC,M,M,M,4800.00,M,M,M,M,KDPA 010405Z AUTO 35007KT 10SM OVC048 A3005 RMK MADISHF
DPA,2017-04-01 04:10,-88.2486,41.9078,M,M,M,10.00,9.00,M,30.04,M,10.00,M,OVC,M,M,M,4800.00,M,M,M,M,KDPA 010410Z AUTO 01009KT 10SM OVC048 A3004 RMK MADISHF
DPA,2017-04-01 04:15,-88.2486,41.9078,M,M,M,20.00,8.00,M,30.04,M,10.00,M,BKN,M,M,M,4800.00,M,M,M,M,KDPA 010415Z AUTO 02008KT 10SM BKN048 A3004 RMK MADISHF
DPA,2017-04-01 04:20,-88.2486,41.9078,M,M,M,20.00,7.00,M,30.03,M,10.00,M,BKN,M,M,M,4900.00,M,M,M,M,KDPA 010420Z AUTO 02007KT 10SM BKN049 A3003 RMK MADISHF
DPA,2017-04-01 04:25,-88.2486,41.9078,M,M,M,30.00,7.00,M,30.02,M,10.00,M,SCT,M,M,M,4900.00,M,M,M,M,KDPA 010425Z AUTO 03007KT 10SM SCT049 A3002 RMK MADISHF
DPA,2017-04-01 04:30,-88.2486,41.9078,M,M,M,20.00,7.00,M,30.03,M,10.00,M,FEW,M,M,M,4900.00,M,M,M,M,KDPA 010430Z AUTO 02007KT 10SM FEW049 A3003 RMK MADISHF
DPA,2017-04-01 04:35,-88.2486,41.9078,M,M,M,10.00,6.00,M,30.03,M,10.00,M,FEW,M,M,M,4900.00,M,M,M,M,KDPA 010435Z AUTO 01006KT 10SM FEW049 A3003 RMK MADISHF
DPA,2017-04-01 04:40,-88.2486,41.9078,M,M,M,360.00,7.00,M,30.04,M,10.00,M,CLR,M,M,M,M,M,M,M,M,KDPA 010440Z AUTO 36007KT 10SM CLR A3004 RMK MADISHF
DPA,2017-04-01 04:45,-88.2486,41.9078,M,M,M,360.00,7.00,M,30.04,M,10.00,M,CLR,M,M,M,M,M,M,M,M,KDPA 010445Z AUTO 36007KT 10SM CLR A3004 RMK MADISHF
DPA,2017-04-01 04:50,-88.2486,41.9078,M,M,M,360.00,6.00,M,30.04,M,10.00,M,CLR,M,M,M,M,M,M,M,M,KDPA 010450Z AUTO 36006KT 10SM CLR A3004 RMK MADISHF
DPA,2017-04-01 04:52,-88.2486,41.9078,36.00,32.00,85.23,360.00,6.00,0.00,30.04,1017.90,10.00,M,CLR,M,M,M,M,M,M,M,M,KDPA 010452Z 36006KT 10SM CLR 02/00 A3004 RMK AO2 SLP179 T00220000
DPA,2017-04-01 04:55,-88.2486,41.9078,M,M,M,360.00,6.00,M,30.05,M,10.00,M,CLR,M,M,M,M,M,M,M,M,KDPA 010455Z AUTO 36006KT 10SM CLR A3005 RMK MADISHF
DPA,2017-04-01 05:00,-88.2486,41.9078,M,M,M,350.00,6.00,M,30.05,M,10.00,M,CLR,M,M,M,M,M,M,M,M,KDPA 010500Z AUTO 35006KT 10SM CLR A3005 RMK MADISHF
DPA,2017-04-01 05:05,-88.2486,41.9078,M,M,M,340.00,6.00,M,30.05,M,10.00,M,CLR,M,M,M,M,M,M,M,M,KDPA 010505Z AUTO 34006KT 10SM CLR A3005 RMK MADISHF
DPA,2017-04-01 05:10,-88.2486,41.9078,M,M,M,340.00,7.00,M,30.06,M,10.00,M,CLR,M,M,M,M,M,M,M,M,KDPA 010510Z AUTO 34007KT 10SM CLR A3006 RMK MADISHF
DPA,2017-04-01 05:15,-88.2486,41.9078,M,M,M,340.00,6.00,M,30.06,M,10.00,M,CLR,M,M,M,M,M,M,M,M,KDPA 010515Z AUTO 34006KT 10SM CLR A3006 RMK MADISHF
DPA,2017-04-01 05:20,-88.2486,41.9078,M,M,M,340.00,7.00,M,30.06,M,10.00,M,CLR,M,M,M,M,M,M,M,M,KDPA 010520Z AUTO 34007KT 10SM CLR A3006 RMK MADISHF
DPA,2017-04-01 05:25,-88.2486,41.9078,M,M,M,330.00,6.00,M,30.07,M,10.00,M,CLR,M,M,M,M,M,M,M,M,KDPA 010525Z AUTO 33006KT 10SM CLR A3007 RMK MADISHF
DPA,2017-04-01 05:30,-88.2486,41.9078,M,M,M,320.00,6.00,M,30.08,M,10.00,M,CLR,M,M,M,M,M,M,M,M,KDPA 010530Z AUTO 32006KT 10SM CLR A3008 RMK MADISHF
DPA,2017-04-01 05:35,-88.2486,41.9078,M,M,M,320.00,6.00,M,30.08,M,10.00,M,CLR,M,M,M,M,M,M,M,M,KDPA 010535Z AUTO 32006KT 10SM CLR A3008 RMK MADISHF
DPA,2017-04-01 05:40,-88.2486,41.9078,M,M,M,320.00,7.00,M,30.08,M,10.00,M,CLR,M,M,M,M,M,M,M,M,KDPA 010540Z AUTO 32007KT 10SM CLR A3008 RMK MADISHF
DPA,2017-04-01 05:45,-88.2486,41.9078,M,M,M,330.00,6.00,M,30.08,M,10.00,M,CLR,M,M,M,M,M,M,M,M,KDPA 010545Z AUTO 33006KT 10SM CLR A3008 RMK MADISHF
DPA,2017-04-01 05:50,-88.2486,41.9078,M,M,M,340.00,6.00,M,30.08,M,10.00,M,CLR,M,M,M,M,M,M,M,M,KDPA 010550Z AUTO 34006KT 10SM CLR A3008 RMK MADISHF
DPA,2017-04-01 05:52,-88.2486,41.9078,37.00,32.00,81.93,340.00,7.00,0.00,30.08,1019.20,10.00,M,CLR,M,M,M,M,M,M,M,M,KDPA 010552Z 34007KT 10SM CLR 03/00 A3008 RMK AO2 SLP192 T00280000 10056 20017 400610017 53017
DPA,2017-04-01 05:55,-88.2486,41.9078,M,M,M,340.00,6.00,M,30.08,M,10.00,M,CLR,M,M,M,M,M,M,M,M,KDPA 010555Z AUTO 34006KT 10SM CLR A3008 RMK MADISHF
DPA,2017-04-01 06:00,-88.2486,41.9078,M,M,M,340.00,6.00,M,30.08,M,10.00,M,CLR,M,M,M,M,M,M,M,M,KDPA 010600Z AUTO 34006KT 10SM CLR A3008 RMK MADISHF
DPA,2017-04-01 06:05,-88.2486,41.9078,M,M,M,330.00,6.00,M,30.08,M,10.00,M,CLR,M,M,M,M,M,M,M,M,KDPA 010605Z AUTO 33006KT 10SM CLR A3008 RMK MADISHF
DPA,2017-04-01 06:10,-88.2486,41.9078,M,M,M,330.00,6.00,M,30.09,M,10.00,M,CLR,M,M,M,M,M,M,M,M,KDPA 010610Z AUTO 33006KT 10SM CLR A3009 RMK MADISHF
DPA,2017-04-01 06:15,-88.2486,41.9078,M,M,M,330.00,6.00,M,30.09,M,10.00,M,CLR,M,M,M,M,M,M,M,M,KDPA 010615Z AUTO 33006KT 10SM CLR A3009 RMK MADISHF
DPA,2017-04-01 06:20,-88.2486,41.9078,M,M,M,340.00,5.00,M,30.08,M,10.00,M,CLR,M,M,M,M,M,M,M,M,KDPA 010620Z AUTO 34005KT 10SM CLR A3008 RMK MADISHF
DPA,2017-04-01 06:25,-88.2486,41.9078,M,M,M,340.00,7.00,M,30.08,M,10.00,M,CLR,M,M,M,M,M,M,M,M,KDPA 010625Z AUTO 34007KT 10SM CLR A3008 RMK MADISHF
DPA,2017-04-01 06:30,-88.2486,41.9078,M,M,M,340.00,6.00,M,30.08,M,10.00,M,CLR,M,M,M,M,M,M,M,M,KDPA 010630Z AUTO 34006KT 10SM CLR A3008 RMK MADISHF
DPA,2017-04-01 06:35,-88.2486,41.9078,M,M,M,350.00,3.00,M,30.09,M,10.00,M,CLR,M,M,M,M,M,M,M,M,KDPA 010635Z AUTO 35003KT 10SM CLR A3009 RMK MADISHF
DPA,2017-04-01 06:40,-88.2486,41.9078,M,M,M,340.00,4.00,M,30.08,M,10.00,M,CLR,M,M,M,M,M,M,M,M,KDPA 010640Z AUTO 34004KT 10SM CLR A3008 RMK MADISHF
DPA,2017-04-01 06:45,-88.2486,41.9078,M,M,M,340.00,5.00,M,30.08,M,10.00,M,CLR,M,M,M,M,M,M,M,M,KDPA 010645Z AUTO 34005KT 10SM CLR A3008 RMK MADISHF
DPA,2017-04-01 06:50,-88.2486,41.9078,M,M,M,340.00,5.00,M,30.08,M,10.00,M,CLR,M,M,M,M,M,M,M,M,KDPA 010650Z AUTO 34005KT 10SM CLR A3008 RMK MADISHF
DPA,2017-04-01 06:52,-88.2486,41.9078,34.00,30.90,88.27,340.00,4.00,0.00,30.08,1019.30,10.00,M,CLR,M,M,M,M,M,M,M,M,KDPA 010652Z 34004KT 10SM CLR 01/M01 A3008 RMK AO2 SLP193 T00111006
DPA,2017-04-01 06:55,-88.2486,41.9078,M,M,M,340.00,5.00,M,30.08,M,10.00,M,CLR,M,M,M,M,M,M,M,M,KDPA 010655Z AUTO 34005KT 10SM CLR A3008 RMK MADISHF
DPA,2017-04-01 07:00,-88.2486,41.9078,M,M,M,330.00,6.00,M,30.09,M,10.00,M,CLR,M,M,M,M,M,M,M,M,KDPA 010700Z AUTO 33006KT 10SM CLR A3009 RMK MADISHF
DPA,2017-04-01 07:05,-88.2486,41.9078,M,M,M,330.00,5.00,M,30.09,M,10.00,M,CLR,M,M,M,M,M,M,M,M,KDPA 010705Z AUTO 33005KT 10SM CLR A3009 RMK MADISHF
DPA,2017-04-01 07:10,-88.2486,41.9078,M,M,M,330.00,6.00,M,30.09,M,10.00,M,CLR,M,M,M,M,M,M,M,M,KDPA 010710Z AUTO 33006KT 10SM CLR A3009 RMK MADISHF
DPA,2017-04-01 07:15,-88.2486,41.9078,M,M,M,340.00,5.00,M,30.09,M,10.00,M,CLR,M,M,M,M,M,M,M,M,KDPA 010715Z AUTO 34005KT 10SM CLR A3009 RMK MADISHF
DPA,2017-04-01 07:20,-88.2486,41.9078,M,M,M,340.00,5.00,M,30.09,M,10.00,M,CLR,M,M,M,M,M,M,M,M,KDPA 010720Z AUTO 34005KT 10SM CLR A3009 RMK MADISHF
DPA,2017-04-01 07:25,-88.2486,41.9078,M,M,M,350.00,3.00,M,30.09,M,10.00,M,CLR,M,M,M,M,M,M,M,M,KDPA 010725Z AUTO 35003KT 10SM CLR A3009 RMK MADISHF
DPA,2017-04-01 07:30,-88.2486,41.9078,M,M,M,340.00,4.00,M,30.10,M,10.00,M,CLR,M,M,M,M,M,M,M,M,KDPA 010730Z AUTO 34004KT 10SM CLR A3010 RMK MADISHF
DPA,2017-04-01 07:35,-88.2486,41.9078,M,M,M,330.00,5.00,M,30.10,M,10.00,M,CLR,M,M,M,M,M,M,M,M,KDPA 010735Z AUTO 33005KT 10SM CLR A3010 RMK MADISHF
DPA,2017-04-01 07:40,-88.2486,41.9078,M,M,M,330.00,4.00,M,30.10,M,10.00,M,CLR,M,M,M,M,M,M,M,M,KDPA 010740Z AUTO 33004KT 10SM CLR A3010 RMK MADISHF
DPA,2017-04-01 07:45,-88.2486,41.9078,M,M,M,320.00,4.00,M,30.11,M,10.00,M,CLR,M,M,M,M,M,M,M,M,KDPA 010745Z AUTO 32004KT 10SM CLR A3011 RMK MADISHF
DPA,2017-04-01 07:50,-88.2486,41.9078,M,M,M,330.00,4.00,M,30.10,M,10.00,M,CLR,M,M,M,M,M,M,M,M,KDPA 010750Z AUTO 33004KT 10SM CLR A3010 RMK MADISHF
DPA,2017-04-01 07:52,-88.2486,41.9078,35.10,30.90,84.49,340.00,4.00,0.00,30.10,1020.00,10.00,M,CLR,M,M,M,M,M,M,M,M,KDPA 010752Z 34004KT 10SM CLR 02/M01 A3010 RMK AO2 SLP200 T00171006
DPA,2017-04-01 07:55,-88.2486,41.9078,M,M,M,330.00,5.00,M,30.10,M,10.00,M,CLR,M,M,M,M,M,M,M,M,KDPA 010755Z AUTO 33005KT 10SM CLR A3010 RMK MADISHF
DPA,2017-04-01 08:00,-88.2486,41.9078,M,M,M,330.00,5.00,M,30.11,M,10.00,M,CLR,M,M,M,M,M,M,M,M,KDPA 010800Z AUTO 33005KT 10SM CLR A3011 RMK MADISHF
DPA,2017-04-01 08:05,-88.2486,41.9078,M,M,M,320.00,5.00,M,30.11,M,10.00,M,CLR,M,M,M,M,M,M,M,M,KDPA 010805Z AUTO 32005KT 10SM CLR A3011 RMK MADISHF
DPA,2017-04-01 08:10,-88.2486,41.9078,M,M,M,310.00,5.00,M,30.12,M,10.00,M,CLR,M,M,M,M,M,M,M,M,KDPA 010810Z AUTO 31005KT 10SM CLR A3012 RMK MADISHF
DPA,2017-04-01 08:15,-88.2486,41.9078,M,M,M,310.00,5.00,M,30.12,M,10.00,M,CLR,M,M,M,M,M,M,M,M,KDPA 010815Z AUTO 31005KT 10SM CLR A3012 RMK MADISHF
DPA,2017-04-01 08:20,-88.2486,41.9078,M,M,M,320.00,5.00,M,30.12,M,10.00,M,CLR,M,M,M,M,M,M,M,M,KDPA 010820Z AUTO 32005KT 10SM CLR A3012 RMK MADISHF
DPA,2017-04-01 08:25,-88.2486,41.9078,M,M,M,330.00,4.00,M,30.12,M,10.00,M,CLR,M,M,M,M,M,M,M,M,KDPA 010825Z AUTO 33004KT 10SM CLR A3012 RMK MADISHF
DPA,2017-04-01 08:30,-88.2486,41.9078,M,M,M,0.00,0.00,M,30.12,M,10.00,M,CLR,M,M,M,M,M,M,M,M,KDPA 010830Z AUTO 00000KT 10SM CLR A3012 RMK MADISHF
DPA,2017-04-01 08:35,-88.2486,41.9078,M,M,M,0.00,0.00,M,30.12,M,10.00,M,CLR,M,M,M,M,M,M,M,M,KDPA 010835Z AUTO 00000KT 10SM CLR A3012 RMK MADISHF
DPA,2017-04-01 08:40,-88.2486,41.9078,M,M,M,0.00,0.00,M,30.13,M,10.00,M,CLR,M,M,M,M,M,M,M,M,KDPA 010840Z AUTO 00000KT 10SM CLR A3013 RMK MADISHF
DPA,2017-04-01 08:45,-88.2486,41.9078,M,M,M,0.00,0.00,M,30.12,M,10.00,M,CLR,M,M,M,M,M,M,M,M,KDPA 010845Z AUTO 00000KT 10SM CLR A3012 RMK MADISHF
DPA,2017-04-01 08:50,-88.2486,41.9078,M,M,M,0.00,0.00,M,30.13,M,10.00,M,CLR,M,M,M,M,M,M,M,M,KDPA 010850Z AUTO 00000KT 10SM CLR A3013 RMK MADISHF
DPA,2017-04-01 08:52,-88.2486,41.9078,34.00,30.90,88.27,0.00,0.00,0.00,30.13,1020.90,10.00,M,CLR,M,M,M,M,M,M,M,M,KDPA 010852Z 00000KT 10SM CLR 01/M01 A3013 RMK AO2 SLP209 T00111006 53016
DPA,2017-04-01 08:55,-88.2486,41.9078,M,M,M,0.00,0.00,M,30.13,M,10.00,M,CLR,M,M,M,M,M,M,M,M,KDPA 010855Z AUTO 00000KT 10SM CLR A3013 RMK MADISHF
DPA,2017-04-01 09:00,-88.2486,41.9078,M,M,M,0.00,0.00,M,30.13,M,10.00,M,CLR,M,M,M,M,M,M,M,M,KDPA 010900Z AUTO 00000KT 10SM CLR A3013 RMK MADISHF
DPA,2017-04-01 09:05,-88.2486,41.9078,M,M,M,0.00,0.00,M,30.13,M,10.00,M,CLR,M,M,M,M,M,M,M,M,KDPA 010905Z AUTO 00000KT 10SM CLR A3013 RMK MADISHF
DPA,2017-04-01 09:10,-88.2486,41.9078,M,M,M,0.00,0.00,M,30.13,M,10.00,M,CLR,M,M,M,M,M,M,M,M,KDPA 010910Z AUTO 00000KT 10SM CLR A3013 RMK MADISHF
DPA,2017-04-01 09:15,-88.2486,41.9078,M,M,M,320.00,3.00,M,30.13,M,10.00,M,CLR,M,M,M,M,M,M,M,M,KDPA 010915Z AUTO 32003KT 10SM CLR A3013 RMK MADISHF
DPA,2017-04-01 09:20,-88.2486,41.9078,M,M,M,330.00,3.00,M,30.13,M,10.00,M,CLR,M,M,M,M,M,M,M,M,KDPA 010920Z AUTO 33003KT 10SM CLR A3013 RMK MADISHF
DPA,2017-04-01 09:25,-88.2486,41.9078,M,M,M,340.00,3.00,M,30.13,M,10.00,M,CLR,M,M,M,M,M,M,M,M,KDPA 010925Z AUTO 34003KT 10SM CLR A3013 RMK MADISHF
DPA,2017-04-01 09:30,-88.2486,41.9078,M,M,M,360.00,3.00,M,30.13,M,10.00,M,CLR,M,M,M,M,M,M,M,M,KDPA 010930Z AUTO 36003KT 10SM CLR A3013 RMK MADISHF
DPA,2017-04-01 09:35,-88.2486,41.9078,M,M,M,10.00,4.00,M,30.12,M,10.00,M,CLR,M,M,M,M,M,M,M,M,KDPA 010935Z AUTO 01004KT 10SM CLR A3012 RMK MADISHF
DPA,2017-04-01 09:40,-88.2486,41.9078,M,M,M,10.00,4.00,M,30.12,M,10.00,M,CLR,M,M,M,M,M,M,M,M,KDPA 010940Z AUTO 01004KT 10SM CLR A3012 RMK MADISHF
DPA,2017-04-01 09:45,-88.2486,41.9078,M,M,M,10.00,3.00,M,30.12,M,10.00,M,CLR,M,M,M,M,M,M,M,M,KDPA 010945Z AUTO 01003KT 10SM CLR A3012 RMK MADISHF
DPA,2017-04-01 09:50,-88.2486,41.9078,M,M,M,0.00,0.00,M,30.12,M,10.00,M,CLR,M,M,M,M,M,M,M,M,KDPA 010950Z AUTO 00000KT 10SM CLR A3012 RMK MADISHF
DPA,2017-04-01 09:52,-88.2486,41.9078,33.10,30.90,91.51,0.00,0.00,0.00,30.12,1020.70,10.00,M,CLR,M,M,M,M,M,M,M,M,KDPA 010952Z 00000KT 10SM CLR 01/M01 A3012 RMK AO2 SLP207 T00061006
DPA,2017-04-01 09:55,-88.2486,41.9078,M,M,M,0.00,0.00,M,30.12,M,10.00,M,CLR,M,M,M,M,M,M,M,M,KDPA 010955Z AUTO 00000KT 10SM CLR A3012 RMK MADISHF
DPA,2017-04-01 10:00,-88.2486,41.9078,M,M,M,0.00,0.00,M,30.12,M,10.00,M,CLR,M,M,M,M,M,M,M,M,KDPA 011000Z AUTO 00000KT 10SM CLR A3012 RMK MADISHF
DPA,2017-04-01 10:05,-88.2486,41.9078,M,M,M,0.00,0.00,M,30.12,M,10.00,M,CLR,M,M,M,M,M,M,M,M,KDPA 011005Z AUTO 00000KT 10SM CLR A3012 RMK MADISHF
DPA,2017-04-01 10:10,-88.2486,41.9078,M,M,M,0.00,0.00,M,30.13,M,10.00,M,CLR,M,M,M,M,M,M,M,M,KDPA 011010Z AUTO 00000KT 10SM CLR A3013 RMK MADISHF
DPA,2017-04-01 10:15,-88.2486,41.9078,M,M,M,300.00,3.00,M,30.13,M,10.00,M,CLR,M,M,M,M,M,M,M,M,KDPA 011015Z AUTO 30003KT 10SM CLR A3013 RMK MADISHF
DPA,2017-04-01 10:20,-88.2486,41.9078,M,M,M,300.00,3.00,M,30.13,M,10.00,M,CLR,M,M,M,M,M,M,M,M,KDPA 011020Z AUTO 30003KT 10SM CLR A3013 RMK MADISHF
DPA,2017-04-01 10:25,-88.2486,41.9078,M,M,M,330.00,3.00,M,30.13,M,10.00,M,CLR,M,M,M,M,M,M,M,M,KDPA 011025Z AUTO 33003KT 10SM CLR A3013 RMK MADISHF
DPA,2017-04-01 10:30,-88.2486,41.9078,M,M,M,340.00,3.00,M,30.13,M,10.00,M,CLR,M,M,M,M,M,M,M,M,KDPA 011030Z AUTO 34003KT 10SM CLR A3013 RMK MADISHF
DPA,2017-04-01 10:35,-88.2486,41.9078,M,M,M,350.00,3.00,M,30.12,M,10.00,M,CLR,M,M,M,M,M,M,M,M,KDPA 011035Z AUTO 35003KT 10SM CLR A3012 RMK MADISHF
DPA,2017-04-01 10:40,-88.2486,41.9078,M,M,M,0.00,0.00,M,30.13,M,10.00,M,CLR,M,M,M,M,M,M,M,M,KDPA 011040Z AUTO 00000KT 10SM CLR A3013 RMK MADISHF
DPA,2017-04-01 10:45,-88.2486,41.9078,M,M,M,0.00,0.00,M,30.13,M,10.00,M,CLR,M,M,M,M,M,M,M,M,KDPA 011045Z AUTO 00000KT 10SM CLR A3013 RMK MADISHF
DPA,2017-04-01 10:50,-88.2486,41.9078,M,M,M,0.00,0.00,M,30.13,M,10.00,M,CLR,M,M,M,M,M,M,M,M,KDPA 011050Z AUTO 00000KT 10SM CLR A3013 RMK MADISHF
DPA,2017-04-01 10:52,-88.2486,41.9078,32.00,30.90,95.65,300.00,3.00,0.00,30.13,1021.00,10.00,M,CLR,M,M,M,M,M,M,M,M,KDPA 011052Z 30003KT 10SM CLR 00/M01 A3013 RMK AO2 SLP210 T00001006
DPA,2017-04-01 10:55,-88.2486,41.9078,M,M,M,300.00,3.00,M,30.14,M,10.00,M,CLR,M,M,M,M,M,M,M,M,KDPA 011055Z AUTO 30003KT 10SM CLR A3014 RMK MADISHF
DPA,2017-04-01 11:00,-88.2486,41.9078,M,M,M,310.00,4.00,M,30.14,M,10.00,M,CLR,M,M,M,M,M,M,M,M,KDPA 011100Z AUTO 31004KT 10SM CLR A3014 RMK MADISHF
DPA,2017-04-01 11:05,-88.2486,41.9078,M,M,M,330.00,3.00,M,30.14,M,10.00,M,CLR,M,M,M,M,M,M,M,M,KDPA 011105Z AUTO 33003KT 10SM CLR A3014 RMK MADISHF
DPA,2017-04-01 11:10,-88.2486,41.9078,M,M,M,320.00,4.00,M,30.15,M,10.00,M,CLR,M,M,M,M,M,M,M,M,KDPA 011110Z AUTO 32004KT 10SM CLR A3015 RMK MADISHF
DPA,2017-04-01 11:15,-88.2486,41.9078,M,M,M,320.00,3.00,M,30.15,M,10.00,M,CLR,M,M,M,M,M,M,M,M,KDPA 011115Z AUTO 32003KT 10SM CLR A3015 RMK MADISHF
DPA,2017-04-01 11:20,-88.2486,41.9078,M,M,M,320.00,3.00,M,30.15,M,10.00,M,CLR,M,M,M,M,M,M,M,M,KDPA 011120Z AUTO 32003KT 10SM CLR A3015 RMK MADISHF
DPA,2017-04-01 11:25,-88.2486,41.9078,M,M,M,310.00,4.00,M,30.16,M,10.00,M,CLR,M,M,M,M,M,M,M,M,KDPA 011125Z AUTO 31004KT 10SM CLR A3016 RMK MADISHF
DPA,2017-04-01 11:30,-88.2486,41.9078,M,M,M,310.00,5.00,M,30.16,M,10.00,M,CLR,M,M,M,M,M,M,M,M,KDPA 011130Z AUTO 31005KT 10SM CLR A3016 RMK MADISHF
DPA,2017-04-01 11:35,-88.2486,41.9078,M,M,M,310.00,4.00,M,30.17,M,10.00,M,CLR,M,M,M,M,M,M,M,M,KDPA 011135Z AUTO 31004KT 10SM CLR A3017 RMK MADISHF
DPA,2017-04-01 11:40,-88.2486,41.9078,M,M,M,310.00,4.00,M,30.17,M,10.00,M,CLR,M,M,M,M,M,M,M,M,KDPA 011140Z AUTO 31004KT 10SM CLR A3017 RMK MADISHF
DPA,2017-04-01 11:45,-88.2486,41.9078,M,M,M,320.00,3.00,M,30.17,M,10.00,M,CLR,M,M,M,M,M,M,M,M,KDPA 011145Z AUTO 32003KT 10SM CLR A3017 RMK MADISHF
DPA,2017-04-01 11:50,-88.2486,41.9078,M,M,M,310.00,3.00,M,30.18,M,10.00,M,CLR,M,M,M,M,M,M,M,M,KDPA 011150Z AUTO 31003KT 10SM CLR A3018 RMK MADISHF
DPA,2017-04-01 11:52,-88.2486,41.9078,33.10,30.90,91.51,310.00,3.00,0.00,30.18,1022.50,10.00,M,CLR,M,M,M,M,M,M,M,M,KDPA 011152Z 31003KT 10SM CLR 01/M01 A3018 RMK AO2 SLP225 T00061006 10028 20000 53016
DPA,2017-04-01 11:55,-88.2486,41.9078,M,M,M,310.00,3.00,M,30.18,M,10.00,M,CLR,M,M,M,M,M,M,M,M,KDPA 011155Z AUTO 31003KT 10SM CLR A3018 RMK MADISHF
DPA,2017-04-01 12:00,-88.2486,41.9078,M,M,M,0.00,0.00,M,30.18,M,10.00,M,CLR,M,M,M,M,M,M,M,M,KDPA 011200Z AUTO 00000KT 10SM CLR A3018 RMK MADISHF
DPA,2017-04-01 12:05,-88.2486,41.9078,M,M,M,0.00,0.00,M,30.18,M,10.00,M,CLR,M,M,M,M,M,M,M,M,KDPA 011205Z AUTO 00000KT 10SM CLR A3018 RMK MADISHF
DPA,2017-04-01 12:10,-88.2486,41.9078,M,M,M,0.00,0.00,M,30.18,M,10.00,M,CLR,M,M,M,M,M,M,M,M,KDPA 011210Z AUTO 00000KT 10SM CLR A3018 RMK MADISHF
DPA,2017-04-01 12:15,-88.2486,41.9078,M,M,M,0.00,0.00,M,30.18,M,10.00,M,CLR,M,M,M,M,M,M,M,M,KDPA 011215Z AUTO 00000KT 10SM CLR A3018 RMK MADISHF
DPA,2017-04-01 12:20,-88.2486,41.9078,M,M,M,0.00,0.00,M,30.19,M,10.00,M,CLR,M,M,M,M,M,M,M,M,KDPA 011220Z AUTO 00000KT 10SM CLR A3019 RMK MADISHF
DPA,2017-04-01 12:25,-88.2486,41.9078,M,M,M,0.00,0.00,M,30.19,M,10.00,M,CLR,M,M,M,M,M,M,M,M,KDPA 011225Z AUTO 00000KT 10SM CLR A3019 RMK MADISHF
DPA,2017-04-01 12:30,-88.2486,41.9078,M,M,M,0.00,0.00,M,30.19,M,10.00,M,CLR,M,M,M,M,M,M,M,M,KDPA 011230Z AUTO 00000KT 10SM CLR A3019 RMK MADISHF
DPA,2017-04-01 12:35,-88.2486,41.9078,M,M,M,0.00,0.00,M,30.19,M,10.00,M,CLR,M,M,M,M,M,M,M,M,KDPA 011235Z AUTO 00000KT 10SM CLR A3019 RMK MADISHF
DPA,2017-04-01 12:40,-88.2486,41.9078,M,M,M,0.00,0.00,M,30.19,M,10.00,M,CLR,M,M,M,M,M,M,M,M,KDPA 011240Z AUTO 00000KT 10SM CLR A3019 RMK MADISHF
DPA,2017-04-01 12:45,-88.2486,41.9078,M,M,M,0.00,0.00,M,30.19,M,10.00,M,CLR,M,M,M,M,M,M,M,M,KDPA 011245Z AUTO 00000KT 10SM CLR A3019 RMK MADISHF
DPA,2017-04-01 12:50,-88.2486,41.9078,M,M,M,0.00,0.00,M,30.19,M,10.00,M,CLR,M,M,M,M,M,M,M,M,KDPA 011250Z AUTO 00000KT 10SM CLR A3019 RMK MADISHF
DPA,2017-04-01 12:52,-88.2486,41.9078,36.00,32.00,85.23,0.00,0.00,0.00,30.19,1023.10,10.00,M,CLR,M,M,M,M,M,M,M,M,KDPA 011252Z 00000KT 10SM CLR 02/00 A3019 RMK AO2 SLP231 T00220000
DPA,2017-04-01 12:55,-88.2486,41.9078,M,M,M,20.00,3.00,M,30.19,M,10.00,M,CLR,M,M,M,M,M,M,M,M,KDPA 011255Z AUTO 02003KT 10SM CLR A3019 RMK MADISHF
DPA,2017-04-01 13:00,-88.2486,41.9078,M,M,M,0.00,0.00,M,30.19,M,10.00,M,CLR,M,M,M,M,M,M,M,M,KDPA 011300Z AUTO 00000KT 10SM CLR A3019 RMK MADISHF
DPA,2017-04-01 13:05,-88.2486,41.9078,M,M,M,0.00,0.00,M,30.19,M,10.00,M,CLR,M,M,M,M,M,M,M,M,KDPA 011305Z AUTO 00000KT 10SM CLR A3019 RMK MADISHF
DPA,2017-04-01 13:10,-88.2486,41.9078,M,M,M,0.00,0.00,M,30.19,M,10.00,M,CLR,M,M,M,M,M,M,M,M,KDPA 011310Z AUTO 00000KT 10SM CLR A3019 RMK MADISHF
DPA,2017-04-01 13:15,-88.2486,41.9078,M,M,M,0.00,0.00,M,30.20,M,10.00,M,CLR,M,M,M,M,M,M,M,M,KDPA 011315Z AUTO 00000KT 10SM CLR A3020 RMK MADISHF
DPA,2017-04-01 13:20,-88.2486,41.9078,M,M,M,0.00,0.00,M,30.20,M,10.00,M,CLR,M,M,M,M,M,M,M,M,KDPA 011320Z AUTO 00000KT 10SM CLR A3020 RMK MADISHF
DPA,2017-04-01 13:25,-88.2486,41.9078,M,M,M,360.00,3.00,M,30.20,M,10.00,M,CLR,M,M,M,M,M,M,M,M,KDPA 011325Z AUTO 36003KT 10SM CLR A3020 RMK MADISHF
DPA,2017-04-01 13:30,-88.2486,41.9078,M,M,M,360.00,4.00,M,30.20,M,10.00,M,CLR,M,M,M,M,M,M,M,M,KDPA 011330Z AUTO 36004KT 10SM CLR A3020 RMK MADISHF
DPA,2017-04-01 13:35,-88.2486,41.9078,M,M,M,360.00,4.00,M,30.20,M,10.00,M,CLR,M,M,M,M,M,M,M,M,KDPA 011335Z AUTO 36004KT 10SM CLR A3020 RMK MADISHF
DPA,2017-04-01 13:40,-88.2486,41.9078,M,M,M,360.00,5.00,M,30.20,M,10.00,M,CLR,M,M,M,M,M,M,M,M,KDPA 011340Z AUTO 36005KT 10SM CLR A3020 RMK MADISHF
DPA,2017-04-01 13:45,-88.2486,41.9078,M,M,M,360.00,5.00,M,30.21,M,10.00,M,CLR,M,M,M,M,M,M,M,M,KDPA 011345Z AUTO 36005KT 10SM CLR A3021 RMK MADISHF
DPA,2017-04-01 13:50,-88.2486,41.9078,M,M,M,360.00,5.00,M,30.21,M,10.00,M,CLR,M,M,M,M,M,M,M,M,KDPA 011350Z AUTO 36005KT 10SM CLR A3021 RMK MADISHF
DPA,2017-04-01 13:52,-88.2486,41.9078,42.10,30.90,64.24,10.00,5.00,0.00,30.21,1023.50,10.00,M,CLR,M,M,M,M,M,M,M,M,KDPA 011352Z 01005KT 10SM CLR 06/M01 A3021 RMK AO2 SLP235 T00561006
DPA,2017-04-01 13:55,-88.2486,41.9078,M,M,M,360.00,5.00,M,30.21,M,10.00,M,CLR,M,M,M,M,M,M,M,M,KDPA 011355Z AUTO 36005KT 10SM CLR A3021 RMK MADISHF
DPA,2017-04-01 14:00,-88.2486,41.9078,M,M,M,340.00,5.00,M,30.21,M,10.00,M,CLR,M,M,M,M,M,M,M,M,KDPA 011400Z AUTO 34005KT 10SM CLR A3021 RMK MADISHF
DPA,2017-04-01 14:05,-88.2486,41.9078,M,M,M,360.00,4.00,M,30.22,M,10.00,M,CLR,M,M,M,M,M,M,M,M,KDPA 011405Z AUTO 36004KT 10SM CLR A3022 RMK MADISHF
DPA,2017-04-01 14:10,-88.2486,41.9078,M,M,M,360.00,5.00,M,30.21,M,10.00,M,CLR,M,M,M,M,M,M,M,M,KDPA 011410Z AUTO 36005KT 10SM CLR A3021 RMK MADISHF
DPA,2017-04-01 14:15,-88.2486,41.9078,M,M,M,10.00,4.00,M,30.21,M,10.00,M,CLR,M,M,M,M,M,M,M,M,KDPA 011415Z AUTO 01004KT 10SM CLR A3021 RMK MADISHF
DPA,2017-04-01 14:20,-88.2486,41.9078,M,M,M,360.00,4.00,M,30.22,M,10.00,M,CLR,M,M,M,M,M,M,M,M,KDPA 011420Z AUTO 36004KT 10SM CLR A3022 RMK MADISHF
DPA,2017-04-01 14:25,-88.2486,41.9078,M,M,M,360.00,4.00,M,30.22,M,10.00,M,CLR,M,M,M,M,M,M,M,M,KDPA 011425Z AUTO 36004KT 10SM CLR A3022 RMK MADISHF
DPA,2017-04-01 14:30,-88.2486,41.9078,M,M,M,0.00,0.00,M,30.22,M,10.00,M,CLR,M,M,M,M,M,M,M,M,KDPA 011430Z AUTO 00000KT 10SM CLR A3022 RMK MADISHF
DPA,2017-04-01 14:35,-88.2486,41.9078,M,M,M,0.00,0.00,M,30.22,M,10.00,M,CLR,M,M,M,M,M,M,M,M,KDPA 011435Z AUTO 00000KT 10SM CLR A3022 RMK MADISHF
DPA,2017-04-01 14:40,-88.2486,41.9078,M,M,M,10.00,3.00,M,30.22,M,10.00,M,CLR,M,M,M,M,M,M,M,M,KDPA 011440Z AUTO 01003KT 10SM CLR A3022 RMK MADISHF
DPA,2017-04-01 14:45,-88.2486,41.9078,M,M,M,310.00,3.00,M,30.22,M,10.00,M,CLR,M,M,M,M,M,M,M,M,KDPA 011445Z AUTO 31003KT 10SM CLR A3022 RMK MADISHF
DPA,2017-04-01 14:50,-88.2486,41.9078,M,M,M,0.00,0.00,M,30.22,M,10.00,M,CLR,M,M,M,M,M,M,M,M,KDPA 011450Z AUTO 00000KT 10SM CLR A3022 RMK MADISHF
DPA,2017-04-01 14:52,-88.2486,41.9078,46.90,30.00,51.58,0.00,0.00,0.00,30.22,1023.90,10.00,M,CLR,M,M,M,M,M,M,M,M,KDPA 011452Z 00000KT 10SM CLR 08/M01 A3022 RMK AO2 SLP239 T00831011 53016
DPA,2017-04-01 14:55,-88.2486,41.9078,M,M,M,0.00,0.00,M,30.23,M,10.00,M,CLR,M,M,M,M,M,M,M,M,KDPA 011455Z AUTO 00000KT 10SM CLR A3023 RMK MADISHF
DPA,2017-04-01 15:00,-88.2486,41.9078,M,M,M,0.00,0.00,M,30.23,M,10.00,M,CLR,M,M,M,M,M,M,M,M,KDPA 011500Z AUTO 00000KT 10SM CLR A3023 RMK MADISHF
DPA,2017-04-01 15:05,-88.2486,41.9078,M,M,M,320.00,3.00,M,30.23,M,10.00,M,CLR,M,M,M,M,M,M,M,M,KDPA 011505Z AUTO 32003KT 10SM CLR A3023 RMK VRB03KT  MADISHF
DPA,2017-04-01 15:10,-88.2486,41.9078,M,M,M,0.00,0.00,M,30.23,M,10.00,M,CLR,M,M,M,M,M,M,M,M,KDPA 011510Z AUTO 00000KT 10SM CLR A3023 RMK MADISHF
DPA,2017-04-01 15:15,-88.2486,41.9078,M,M,M,0.00,0.00,M,30.22,M,10.00,M,CLR,M,M,M,M,M,M,M,M,KDPA 011515Z AUTO 00000KT 10SM CLR A3022 RMK MADISHF
DPA,2017-04-01 15:20,-88.2486,41.9078,M,M,M,0.00,0.00,M,30.23,M,10.00,M,CLR,M,M,M,M,M,M,M,M,KDPA 011520Z AUTO 00000KT 10SM CLR A3023 RMK MADISHF
DPA,2017-04-01 15:25,-88.2486,41.9078,M,M,M,300.00,5.00,M,30.23,M,10.00,M,CLR,M,M,M,M,M,M,M,M,KDPA 011525Z AUTO 30005KT 10SM CLR A3023 RMK MADISHF
DPA,2017-04-01 15:30,-88.2486,41.9078,M,M,M,0.00,0.00,M,30.23,M,10.00,M,CLR,M,M,M,M,M,M,M,M,KDPA 011530Z AUTO 00000KT 10SM CLR A3023 RMK MADISHF
DPA,2017-04-01 15:35,-88.2486,41.9078,M,M,M,340.00,3.00,M,30.23,M,10.00,M,CLR,M,M,M,M,M,M,M,M,KDPA 011535Z AUTO 34003KT 10SM CLR A3023 RMK VRB03KT  MADISHF
DPA,2017-04-01 15:40,-88.2486,41.9078,M,M,M,0.00,0.00,M,30.23,M,10.00,M,CLR,M,M,M,M,M,M,M,M,KDPA 011540Z AUTO 00000KT 10SM CLR A3023 RMK MADISHF
DPA,2017-04-01 15:45,-88.2486,41.9078,M,M,M,0.00,0.00,M,30.23,M,10.00,M,CLR,M,M,M,M,M,M,M,M,KDPA 011545Z AUTO 00000KT 10SM CLR A3023 RMK MADISHF
DPA,2017-04-01 15:50,-88.2486,41.9078,M,M,M,320.00,5.00,M,30.23,M,10.00,M,CLR,M,M,M,M,M,M,M,M,KDPA 011550Z AUTO 32005KT 10SM CLR A3023 RMK VRB05KT  MADISHF
DPA,2017-04-01 15:52,-88.2486,41.9078,51.10,25.00,35.89,240.00,3.00,0.00,30.23,1024.10,10.00,M,CLR,M,M,M,M,M,M,M,M,KDPA 011552Z 24003KT 10SM CLR 11/M04 A3023 RMK AO2 SLP241 T01061039
DPA,2017-04-01 15:55,-88.2486,41.9078,M,M,M,0.00,0.00,M,30.23,M,10.00,M,CLR,M,M,M,M,M,M,M,M,KDPA 011555Z AUTO 00000KT 10SM CLR A3023 RMK MADISHF
DPA,2017-04-01 16:00,-88.2486,41.9078,M,M,M,340.00,4.00,M,30.23,M,10.00,M,CLR,M,M,M,M,M,M,M,M,KDPA 011600Z AUTO 34004KT 10SM CLR A3023 RMK MADISHF
DPA,2017-04-01 16:05,-88.2486,41.9078,M,M,M,300.00,7.00,M,30.23,M,10.00,M,CLR,M,M,M,M,M,M,M,M,KDPA 011605Z AUTO 30007KT 10SM CLR A3023 RMK MADISHF
DPA,2017-04-01 16:10,-88.2486,41.9078,M,M,M,290.00,5.00,M,30.23,M,10.00,M,CLR,M,M,M,M,M,M,M,M,KDPA 011610Z AUTO 29005KT 10SM CLR A3023 RMK MADISHF
DPA,2017-04-01 16:15,-88.2486,41.9078,M,M,M,310.00,4.00,M,30.23,M,10.00,M,CLR,M,M,M,M,M,M,M,M,KDPA 011615Z AUTO 31004KT 10SM CLR A3023 RMK MADISHF
DPA,2017-04-01 16:20,-88.2486,41.9078,M,M,M,310.00,7.00,M,30.23,M,10.00,M,CLR,M,M,M,M,M,M,M,M,KDPA 011620Z AUTO 31007KT 10SM CLR A3023 RMK WND 28V35  MADISHF
DPA,2017-04-01 16:25,-88.2486,41.9078,M,M,M,340.00,6.00,M,30.23,M,10.00,M,CLR,M,M,M,M,M,M,M,M,KDPA 011625Z AUTO 34006KT 10SM CLR A3023 RMK MADISHF
DPA,2017-04-01 16:30,-88.2486,41.9078,M,M,M,330.00,5.00,M,30.23,M,10.00,M,CLR,M,M,M,M,M,M,M,M,KDPA 011630Z AUTO 33005KT 10SM CLR A3023 RMK VRB05KT  MADISHF
DPA,2017-04-01 16:35,-88.2486,41.9078,M,M,M,320.00,6.00,M,30.23,M,10.00,M,CLR,M,M,M,M,M,M,M,M,KDPA 011635Z AUTO 32006KT 10SM CLR A3023 RMK MADISHF
DPA,2017-04-01 16:40,-88.2486,41.9078,M,M,M,330.00,7.00,M,30.23,M,10.00,M,CLR,M,M,M,M,M,M,M,M,KDPA 011640Z AUTO 33007KT 10SM CLR A3023 RMK MADISHF
DPA,2017-04-01 16:45,-88.2486,41.9078,M,M,M,340.00,5.00,M,30.23,M,10.00,M,CLR,M,M,M,M,M,M,M,M,KDPA 011645Z AUTO 34005KT 10SM CLR A3023 RMK MADISHF
DPA,2017-04-01 16:50,-88.2486,41.9078,M,M,M,300.00,5.00,M,30.22,M,10.00,M,CLR,M,M,M,M,M,M,M,M,KDPA 011650Z AUTO 30005KT 10SM CLR A3022 RMK VRB05KT  MADISHF
DPA,2017-04-01 16:52,-88.2486,41.9078,54.00,28.00,36.52,350.00,8.00,0.00,30.23,1024.00,10.00,M,CLR,M,M,M,M,M,M,M,M,KDPA 011652Z 35008KT 10SM CLR 12/M02 A3023 RMK AO2 SLP240 T01221022
DPA,2017-04-01 16:55,-88.2486,41.9078,M,M,M,340.00,6.00,M,30.22,M,10.00,M,CLR,M,M,M,M,M,M,M,M,KDPA 011655Z AUTO 34006KT 10SM CLR A3022 RMK MADISHF
DPA,2017-04-01 17:00,-88.2486,41.9078,M,M,M,280.00,5.00,M,30.23,M,10.00,M,CLR,M,M,M,M,M,M,M,M,KDPA 011700Z AUTO 28005KT 10SM CLR A3023 RMK MADISHF
DPA,2017-04-01 17:05,-88.2486,41.9078,M,M,M,290.00,9.00,M,30.22,M,10.00,M,CLR,M,M,M,M,M,M,M,M,KDPA 011705Z AUTO 29009KT 10SM CLR A3022 RMK MADISHF
DPA,2017-04-01 17:10,-88.2486,41.9078,M,M,M,320.00,4.00,M,30.22,M,10.00,M,CLR,M,M,M,M,M,M,M,M,KDPA 011710Z AUTO 32004KT 10SM CLR A3022 RMK VRB04KT  MADISHF
DPA,2017-04-01 17:15,-88.2486,41.9078,M,M,M,320.00,8.00,M,30.22,M,10.00,M,CLR,M,M,M,M,M,M,M,M,KDPA 011715Z AUTO 32008KT 10SM CLR A3022 RMK MADISHF
DPA,2017-04-01 17:20,-88.2486,41.9078,M,M,M,320.00,6.00,M,30.22,M,10.00,M,CLR,M,M,M,M,M,M,M,M,KDPA 011720Z AUTO 32006KT 10SM CLR A3022 RMK MADISHF
DPA,2017-04-01 17:25,-88.2486,41.9078,M,M,M,300.00,6.00,M,30.21,M,10.00,M,CLR,M,M,M,M,M,M,M,M,KDPA 011725Z AUTO 30006KT 10SM CLR A3021 RMK VRB06KT  MADISHF
DPA,2017-04-01 17:30,-88.2486,41.9078,M,M,M,330.00,4.00,M,30.21,M,10.00,M,CLR,M,M,M,M,M,M,M,M,KDPA 011730Z AUTO 33004KT 10SM CLR A3021 RMK MADISHF
DPA,2017-04-01 17:35,-88.2486,41.9078,M,M,M,M,M,M,30.21,M,10.00,M,CLR,M,M,M,M,M,M,M,M,KDPA 011735Z AUTO /////KT 10SM CLR A3021 RMK MADISHF
DPA,2017-04-01 17:40,-88.2486,41.9078,M,M,M,280.00,3.00,M,30.21,M,10.00,M,CLR,M,M,M,M,M,M,M,M,KDPA 011740Z AUTO 28003KT 10SM CLR A3021 RMK VRB03KT  MADISHF
DPA,2017-04-01 17:45,-88.2486,41.9078,M,M,M,320.00,6.00,M,30.21,M,10.00,M,CLR,M,M,M,M,M,M,M,M,KDPA 011745Z AUTO 32006KT 10SM CLR A3021 RMK MADISHF
DPA,2017-04-01 17:50,-88.2486,41.9078,M,M,M,280.00,3.00,M,30.21,M,10.00,M,CLR,M,M,M,M,M,M,M,M,KDPA 011750Z AUTO 28003KT 10SM CLR A3021 RMK VRB03KT  MADISHF
DPA,2017-04-01 17:52,-88.2486,41.9078,55.00,23.00,28.61,0.00,0.00,0.00,30.21,1023.30,10.00,M,CLR,M,M,M,M,M,M,M,M,KDPA 011752Z 00000KT 10SM CLR 13/M05 A3021 RMK AO2 SLP233 T01281050 10128 20000 58005
DPA,2017-04-01 17:55,-88.2486,41.9078,M,M,M,M,M,M,30.21,M,10.00,M,CLR,M,M,M,M,M,M,M,M,KDPA 011755Z AUTO /////KT 10SM CLR A3021 RMK MADISHF
DPA,2017-04-01 18:00,-88.2486,41.9078,M,M,M,310.00,7.00,M,30.21,M,10.00,M,CLR,M,M,M,M,M,M,M,M,KDPA 011800Z AUTO 31007KT 10SM CLR A3021 RMK WND 25V36  MADISHF
DPA,2017-04-01 18:05,-88.2486,41.9078,M,M,M,310.00,8.00,M,30.21,M,10.00,M,CLR,M,M,M,M,M,M,M,M,KDPA 011805Z AUTO 31008KT 10SM CLR A3021 RMK MADISHF
DPA,2017-04-01 18:10,-88.2486,41.9078,M,M,M,360.00,3.00,M,30.21,M,10.00,M,CLR,M,M,M,M,M,M,M,M,KDPA 011810Z AUTO 36003KT 10SM CLR A3021 RMK MADISHF
DPA,2017-04-01 18:15,-88.2486,41.9078,M,M,M,10.00,5.00,M,30.21,M,10.00,M,CLR,M,M,M,M,M,M,M,M,KDPA 011815Z AUTO 01005KT 10SM CLR A3021 RMK MADISHF
DPA,2017-04-01 18:20,-88.2486,41.9078,M,M,M,340.00,6.00,M,30.21,M,10.00,M,CLR,M,M,M,M,M,M,M,M,KDPA 011820Z AUTO 34006KT 10SM CLR A3021 RMK MADISHF
DPA,2017-04-01 18:25,-88.2486,41.9078,M,M,M,340.00,8.00,M,30.21,M,10.00,M,CLR,M,M,M,M,M,M,M,M,KDPA 011825Z AUTO 34008KT 10SM CLR A3021 RMK MADISHF
DPA,2017-04-01 18:30,-88.2486,41.9078,M,M,M,350.00,5.00,M,30.20,M,10.00,M,CLR,M,M,M,M,M,M,M,M,KDPA 011830Z AUTO 35005KT 10SM CLR A3020 RMK MADISHF
DPA,2017-04-01 18:35,-88.2486,41.9078,M,M,M,310.00,4.00,M,30.20,M,10.00,M,CLR,M,M,M,M,M,M,M,M,KDPA 011835Z AUTO 31004KT 10SM CLR A3020 RMK MADISHF
DPA,2017-04-01 18:40,-88.2486,41.9078,M,M,M,280.00,3.00,M,30.20,M,10.00,M,CLR,M,M,M,M,M,M,M,M,KDPA 011840Z AUTO 28003KT 10SM CLR A3020 RMK VRB03KT  MADISHF
DPA,2017-04-01 18:45,-88.2486,41.9078,M,M,M,350.00,5.00,M,30.20,M,10.00,M,CLR,M,M,M,M,M,M,M,M,KDPA 011845Z AUTO 35005KT 10SM CLR A3020 RMK MADISHF
DPA,2017-04-01 18:50,-88.2486,41.9078,M,M,M,70.00,4.00,M,30.19,M,10.00,M,CLR,M,M,M,M,M,M,M,M,KDPA 011850Z AUTO 07004KT 10SM CLR A3019 RMK MADISHF
DPA,2017-04-01 18:52,-88.2486,41.9078,57.00,24.10,27.86,0.00,0.00,0.00,30.19,1022.70,10.00,M,CLR,M,M,M,M,M,M,M,M,KDPA 011852Z 00000KT 10SM CLR 14/M04 A3019 RMK AO2 SLP227 T01391044
DPA,2017-04-01 18:55,-88.2486,41.9078,M,M,M,310.00,4.00,M,30.19,M,10.00,M,CLR,M,M,M,M,M,M,M,M,KDPA 011855Z AUTO 31004KT 10SM CLR A3019 RMK MADISHF
DPA,2017-04-01 19:00,-88.2486,41.9078,M,M,M,340.00,4.00,M,30.19,M,10.00,M,CLR,M,M,M,M,M,M,M,M,KDPA 011900Z AUTO 34004KT 10SM CLR A3019 RMK VRB04KT  MADISHF
DPA,2017-04-01 19:05,-88.2486,41.9078,M,M,M,30.00,6.00,M,30.19,M,10.00,M,CLR,M,M,M,M,M,M,M,M,KDPA 011905Z AUTO 03006KT 10SM CLR A3019 RMK MADISHF
DPA,2017-04-01 19:10,-88.2486,41.9078,M,M,M,330.00,3.00,M,30.19,M,10.00,M,CLR,M,M,M,M,M,M,M,M,KDPA 011910Z AUTO 33003KT 10SM CLR A3019 RMK VRB03KT  MADISHF
DPA,2017-04-01 19:15,-88.2486,41.9078,M,M,M,340.00,7.00,M,30.19,M,10.00,M,CLR,M,M,M,M,M,M,M,M,KDPA 011915Z AUTO 34007KT 10SM CLR A3019 RMK WND 30V01  MADISHF
DPA,2017-04-01 19:20,-88.2486,41.9078,M,M,M,340.00,6.00,M,30.19,M,10.00,M,CLR,M,M,M,M,M,M,M,M,KDPA 011920Z AUTO 34006KT 10SM CLR A3019 RMK MADISHF
DPA,2017-04-01 19:25,-88.2486,41.9078,M,M,M,20.00,5.00,M,30.19,M,10.00,M,CLR,M,M,M,M,M,M,M,M,KDPA 011925Z AUTO 02005KT 10SM CLR A3019 RMK MADISHF
DPA,2017-04-01 19:30,-88.2486,41.9078,M,M,M,20.00,4.00,M,30.19,M,10.00,M,CLR,M,M,M,M,M,M,M,M,KDPA 011930Z AUTO 02004KT 10SM CLR A3019 RMK VRB04KT  MADISHF
DPA,2017-04-01 19:35,-88.2486,41.9078,M,M,M,20.00,6.00,M,30.19,M,10.00,M,CLR,M,M,M,M,M,M,M,M,KDPA 011935Z AUTO 02006KT 10SM CLR A3019 RMK VRB06KT  MADISHF
DPA,2017-04-01 19:40,-88.2486,41.9078,M,M,M,60.00,3.00,M,30.19,M,10.00,M,CLR,M,M,M,M,M,M,M,M,KDPA 011940Z AUTO 06003KT 10SM CLR A3019 RMK VRB03KT  MADISHF
DPA,2017-04-01 19:45,-88.2486,41.9078,M,M,M,360.00,4.00,M,30.19,M,10.00,M,CLR,M,M,M,M,M,M,M,M,KDPA 011945Z AUTO 36004KT 10SM CLR A3019 RMK MADISHF
DPA,2017-04-01 19:50,-88.2486,41.9078,M,M,M,330.00,5.00,M,30.18,M,10.00,M,CLR,M,M,M,M,M,M,M,M,KDPA 011950Z AUTO 33005KT 10SM CLR A3018 RMK MADISHF
DPA,2017-04-01 19:52,-88.2486,41.9078,59.00,21.00,22.76,320.00,5.00,0.00,30.18,1022.50,10.00,M,CLR,M,M,M,M,M,M,M,M,KDPA 011952Z 32005KT 10SM CLR 15/M06 A3018 RMK AO2 SLP225 T01501061
DPA,2017-04-01 19:55,-88.2486,41.9078,M,M,M,10.00,3.00,M,30.18,M,10.00,M,CLR,M,M,M,M,M,M,M,M,KDPA 011955Z AUTO 01003KT 10SM CLR A3018 RMK VRB03KT  MADISHF
DPA,2017-04-01 20:00,-88.2486,41.9078,M,M,M,0.00,0.00,M,30.18,M,10.00,M,CLR,M,M,M,M,M,M,M,M,KDPA 012000Z AUTO 00000KT 10SM CLR A3018 RMK MADISHF
DPA,2017-04-01 20:05,-88.2486,41.9078,M,M,M,260.00,4.00,M,30.18,M,10.00,M,CLR,M,M,M,M,M,M,M,M,KDPA 012005Z AUTO 26004KT 10SM CLR A3018 RMK VRB04KT  MADISHF
DPA,2017-04-01 20:10,-88.2486,41.9078,M,M,M,340.00,4.00,M,30.18,M,10.00,M,CLR,M,M,M,M,M,M,M,M,KDPA 012010Z AUTO 34004KT 10SM CLR A3018 RMK VRB04KT  MADISHF
DPA,2017-04-01 20:15,-88.2486,41.9078,M,M,M,310.00,4.00,M,30.17,M,10.00,M,CLR,M,M,M,M,M,M,M,M,KDPA 012015Z AUTO 31004KT 10SM CLR A3017 RMK MADISHF
DPA,2017-04-01 20:20,-88.2486,41.9078,M,M,M,310.00,4.00,M,30.17,M,10.00,M,CLR,M,M,M,M,M,M,M,M,KDPA 012020Z AUTO 31004KT 10SM CLR A3017 RMK MADISHF
DPA,2017-04-01 20:25,-88.2486,41.9078,M,M,M,350.00,4.00,M,30.17,M,10.00,M,CLR,M,M,M,M,M,M,M,M,KDPA 012025Z AUTO 35004KT 10SM CLR A3017 RMK MADISHF
DPA,2017-04-01 20:30,-88.2486,41.9078,M,M,M,0.00,0.00,M,30.17,M,10.00,M,CLR,M,M,M,M,M,M,M,M,KDPA 012030Z AUTO 00000KT 10SM CLR A3017 RMK MADISHF
DPA,2017-04-01 20:35,-88.2486,41.9078,M,M,M,330.00,4.00,M,30.17,M,10.00,M,CLR,M,M,M,M,M,M,M,M,KDPA 012035Z AUTO 33004KT 10SM CLR A3017 RMK MADISHF
DPA,2017-04-01 20:40,-88.2486,41.9078,M,M,M,320.00,5.00,M,30.17,M,10.00,M,CLR,M,M,M,M,M,M,M,M,KDPA 012040Z AUTO 32005KT 10SM CLR A3017 RMK MADISHF
DPA,2017-04-01 20:45,-88.2486,41.9078,M,M,M,320.00,5.00,M,30.17,M,10.00,M,CLR,M,M,M,M,M,M,M,M,KDPA 012045Z AUTO 32005KT 10SM CLR A3017 RMK MADISHF
DPA,2017-04-01 20:50,-88.2486,41.9078,M,M,M,340.00,5.00,M,30.17,M,10.00,M,CLR,M,M,M,M,M,M,M,M,KDPA 012050Z AUTO 34005KT 10SM CLR A3017 RMK MADISHF
DPA,2017-04-01 20:52,-88.2486,41.9078,59.00,18.00,20.02,M,4.00,0.00,30.17,1021.90,10.00,M,CLR,M,M,M,M,M,M,M,M,KDPA 012052Z VRB04KT 10SM CLR 15/M08 A3017 RMK AO2 SLP219 T01501078 56014
DPA,2017-04-01 20:55,-88.2486,41.9078,M,M,M,0.00,0.00,M,30.17,M,10.00,M,CLR,M,M,M,M,M,M,M,M,KDPA 012055Z AUTO 00000KT 10SM CLR A3017 RMK MADISHF
DPA,2017-04-01 21:00,-88.2486,41.9078,M,M,M,90.00,6.00,M,30.17,M,10.00,M,CLR,M,M,M,M,M,M,M,M,KDPA 012100Z AUTO 09006KT 10SM CLR A3017 RMK MADISHF
DPA,2017-04-01 21:05,-88.2486,41.9078,M,M,M,110.00,4.00,M,30.17,M,10.00,M,CLR,M,M,M,M,M,M,M,M,KDPA 012105Z AUTO 11004KT 10SM CLR A3017 RMK MADISHF
DPA,2017-04-01 21:10,-88.2486,41.9078,M,M,M,70.00,4.00,M,30.17,M,10.00,M,CLR,M,M,M,M,M,M,M,M,KDPA 012110Z AUTO 07004KT 10SM CLR A3017 RMK MADISHF
DPA,2017-04-01 21:15,-88.2486,41.9078,M,M,M,60.00,3.00,M,30.17,M,10.00,M,CLR,M,M,M,M,M,M,M,M,KDPA 012115Z AUTO 06003KT 10SM CLR A3017 RMK MADISHF
DPA,2017-04-01 21:20,-88.2486,41.9078,M,M,M,0.00,0.00,M,30.17,M,10.00,M,CLR,M,M,M,M,M,M,M,M,KDPA 012120Z AUTO 00000KT 10SM CLR A3017 RMK MADISHF
DPA,2017-04-01 21:25,-88.2486,41.9078,M,M,M,0.00,0.00,M,30.17,M,10.00,M,CLR,M,M,M,M,M,M,M,M,KDPA 012125Z AUTO 00000KT 10SM CLR A3017 RMK MADISHF
DPA,2017-04-01 21:30,-88.2486,41.9078,M,M,M,0.00,0.00,M,30.17,M,10.00,M,CLR,M,M,M,M,M,M,M,M,KDPA 012130Z AUTO 00000KT 10SM CLR A3017 RMK MADISHF
DPA,2017-04-01 21:35,-88.2486,41.9078,M,M,M,0.00,0.00,M,30.17,M,10.00,M,CLR,M,M,M,M,M,M,M,M,KDPA 012135Z AUTO 00000KT 10SM CLR A3017 RMK MADISHF
DPA,2017-04-01 21:40,-88.2486,41.9078,M,M,M,0.00,0.00,M,30.17,M,10.00,M,CLR,M,M,M,M,M,M,M,M,KDPA 012140Z AUTO 00000KT 10SM CLR A3017 RMK MADISHF
DPA,2017-04-01 21:45,-88.2486,41.9078,M,M,M,0.00,0.00,M,30.17,M,10.00,M,CLR,M,M,M,M,M,M,M,M,KDPA 012145Z AUTO 00000KT 10SM CLR A3017 RMK MADISHF
DPA,2017-04-01 21:50,-88.2486,41.9078,M,M,M,0.00,0.00,M,30.17,M,10.00,M,CLR,M,M,M,M,M,M,M,M,KDPA 012150Z AUTO 00000KT 10SM CLR A3017 RMK MADISHF
DPA,2017-04-01 21:52,-88.2486,41.9078,57.90,17.10,20.03,0.00,0.00,0.00,30.17,1022.00,10.00,M,CLR,M,M,M,M,M,M,M,M,KDPA 012152Z 00000KT 10SM CLR 14/M08 A3017 RMK AO2 SLP220 T01441083
DPA,2017-04-01 21:55,-88.2486,41.9078,M,M,M,150.00,3.00,M,30.17,M,10.00,M,CLR,M,M,M,M,M,M,M,M,KDPA 012155Z AUTO 15003KT 10SM CLR A3017 RMK MADISHF
DPA,2017-04-01 22:00,-88.2486,41.9078,M,M,M,0.00,0.00,M,30.17,M,10.00,M,CLR,M,M,M,M,M,M,M,M,KDPA 012200Z AUTO 00000KT 10SM CLR A3017 RMK MADISHF
DPA,2017-04-01 22:05,-88.2486,41.9078,M,M,M,130.00,3.00,M,30.17,M,10.00,M,CLR,M,M,M,M,M,M,M,M,KDPA 012205Z AUTO 13003KT 10SM CLR A3017 RMK MADISHF
DPA,2017-04-01 22:10,-88.2486,41.9078,M,M,M,0.00,0.00,M,30.17,M,10.00,M,CLR,M,M,M,M,M,M,M,M,KDPA 012210Z AUTO 00000KT 10SM CLR A3017 RMK MADISHF
DPA,2017-04-01 22:15,-88.2486,41.9078,M,M,M,0.00,0.00,M,30.17,M,10.00,M,CLR,M,M,M,M,M,M,M,M,KDPA 012215Z AUTO 00000KT 10SM CLR A3017 RMK MADISHF
DPA,2017-04-01 22:20,-88.2486,41.9078,M,M,M,170.00,5.00,M,30.17,M,10.00,M,CLR,M,M,M,M,M,M,M,M,KDPA 012220Z AUTO 17005KT 10SM CLR A3017 RMK MADISHF
DPA,2017-04-01 22:25,-88.2486,41.9078,M,M,M,0.00,0.00,M,30.17,M,10.00,M,CLR,M,M,M,M,M,M,M,M,KDPA 012225Z AUTO 00000KT 10SM CLR A3017 RMK MADISHF
DPA,2017-04-01 22:30,-88.2486,41.9078,M,M,M,200.00,3.00,M,30.17,M,10.00,M,CLR,M,M,M,M,M,M,M,M,KDPA 012230Z AUTO 20003KT 10SM CLR A3017 RMK MADISHF
DPA,2017-04-01 22:35,-88.2486,41.9078,M,M,M,0.00,0.00,M,30.17,M,10.00,M,CLR,M,M,M,M,M,M,M,M,KDPA 012235Z AUTO 00000KT 10SM CLR A3017 RMK MADISHF
DPA,2017-04-01 22:40,-88.2486,41.9078,M,M,M,0.00,0.00,M,30.17,M,10.00,M,CLR,M,M,M,M,M,M,M,M,KDPA 012240Z AUTO 00000KT 10SM CLR A3017 RMK MADISHF
DPA,2017-04-01 22:45,-88.2486,41.9078,M,M,M,0.00,0.00,M,30.17,M,10.00,M,CLR,M,M,M,M,M,M,M,M,KDPA 012245Z AUTO 00000KT 10SM CLR A3017 RMK MADISHF
DPA,2017-04-01 22:50,-88.2486,41.9078,M,M,M,0.00,0.00,M,30.17,M,10.00,M,CLR,M,M,M,M,M,M,M,M,KDPA 012250Z AUTO 00000KT 10SM CLR A3017 RMK MADISHF
DPA,2017-04-01 22:52,-88.2486,41.9078,57.90,17.10,20.03,0.00,0.00,0.00,30.17,1022.10,10.00,M,CLR,M,M,M,M,M,M,M,M,KDPA 012252Z 00000KT 10SM CLR 14/M08 A3017 RMK AO2 SLP221 T01441083
DPA,2017-04-01 22:55,-88.2486,41.9078,M,M,M,0.00,0.00,M,30.17,M,10.00,M,CLR,M,M,M,M,M,M,M,M,KDPA 012255Z AUTO 00000KT 10SM CLR A3017 RMK MADISHF
DPA,2017-04-01 23:00,-88.2486,41.9078,M,M,M,0.00,0.00,M,30.17,M,10.00,M,CLR,M,M,M,M,M,M,M,M,KDPA 012300Z AUTO 00000KT 10SM CLR A3017 RMK MADISHF
DPA,2017-04-01 23:05,-88.2486,41.9078,M,M,M,0.00,0.00,M,30.17,M,10.00,M,CLR,M,M,M,M,M,M,M,M,KDPA 012305Z AUTO 00000KT 10SM CLR A3017 RMK MADISHF
DPA,2017-04-01 23:10,-88.2486,41.9078,M,M,M,0.00,0.00,M,30.17,M,10.00,M,CLR,M,M,M,M,M,M,M,M,KDPA 012310Z AUTO 00000KT 10SM CLR A3017 RMK MADISHF
DPA,2017-04-01 23:15,-88.2486,41.9078,M,M,M,0.00,0.00,M,30.17,M,10.00,M,CLR,M,M,M,M,M,M,M,M,KDPA 012315Z AUTO 00000KT 10SM CLR A3017 RMK MADISHF
DPA,2017-04-01 23:20,-88.2486,41.9078,M,M,M,0.00,0.00,M,30.17,M,10.00,M,CLR,M,M,M,M,M,M,M,M,KDPA 012320Z AUTO 00000KT 10SM CLR A3017 RMK MADISHF
DPA,2017-04-01 23:25,-88.2486,41.9078,M,M,M,220.00,3.00,M,30.18,M,10.00,M,CLR,M,M,M,M,M,M,M,M,KDPA 012325Z AUTO 22003KT 10SM CLR A3018 RMK MADISHF
DPA,2017-04-01 23:30,-88.2486,41.9078,M,M,M,280.00,5.00,M,30.18,M,10.00,M,CLR,M,M,M,M,M,M,M,M,KDPA 012330Z AUTO 28005KT 10SM CLR A3018 RMK MADISHF
DPA,2017-04-01 23:35,-88.2486,41.9078,M,M,M,270.00,6.00,M,30.18,M,10.00,M,CLR,M,M,M,M,M,M,M,M,KDPA 012335Z AUTO 27006KT 10SM CLR A3018 RMK MADISHF
DPA,2017-04-01 23:40,-88.2486,41.9078,M,M,M,280.00,6.00,M,30.18,M,10.00,M,CLR,M,M,M,M,M,M,M,M,KDPA 012340Z AUTO 28006KT 10SM CLR A3018 RMK MADISHF
DPA,2017-04-01 23:45,-88.2486,41.9078,M,M,M,280.00,6.00,M,30.18,M,10.00,M,CLR,M,M,M,M,M,M,M,M,KDPA 012345Z AUTO 28006KT 10SM CLR A3018 RMK MADISHF
DPA,2017-04-01 23:50,-88.2486,41.9078,M,M,M,270.00,6.00,M,30.18,M,10.00,M,CLR,M,M,M,M,M,M,M,M,KDPA 012350Z AUTO 27006KT 10SM CLR A3018 RMK MADISHF
DPA,2017-04-01 23:52,-88.2486,41.9078,54.00,35.10,48.65,270.00,6.00,0.00,30.18,1022.50,10.00,M,CLR,M,M,M,M,M,M,M,M,KDPA 012352Z 27006KT 10SM CLR 12/02 A3018 RMK AO2 SLP225 T01220017 10156 20122 53005
DPA,2017-04-01 23:55,-88.2486,41.9078,M,M,M,260.00,5.00,M,30.18,M,10.00,M,CLR,M,M,M,M,M,M,M,M,KDPA 012355Z AUTO 26005KT 10SM CLR A3018 RMK MADISHF
