#DEBUG: Format Typ    -> comma
#DEBUG: Time Period   -> 2017-04-01 00:00:00+00:00 2017-04-02 00:00:00+00:00
#DEBUG: Time Zone     -> Etc/UTC
#DEBUG: Data Contact   -> daryl herzmann akrherz@iastate.edu 515-294-5978
#DEBUG: Entries Found -> -1
station,valid,lon,lat,tmpf, dwpf, relh, drct, sknt, p01i, alti, mslp, vsby, gust, skyc1, skyc2, skyc3, skyc4, skyl1, skyl2, skyl3, skyl4, presentwx, metar
DSM,2017-04-01 00:00,-93.6531,41.5339,M,M,M,50.00,7.00,M,30.05,M,10.00,M,OVC,M,M,M,1800.00,M,M,M,M,KDSM 010000Z AUTO 05007KT 10SM OVC018 A3005 RMK MADISHF
DSM,2017-04-01 00:05,-93.6531,41.5339,M,M,M,40.00,7.00,M,30.05,M,10.00,M,OVC,M,M,M,1800.00,M,M,M,M,KDSM 010005Z AUTO 04007KT 10SM OVC018 A3005 RMK MADISHF
DSM,2017-04-01 00:10,-93.6531,41.5339,M,M,M,40.00,7.00,M,30.05,M,10.00,M,OVC,M,M,M,1800.00,M,M,M,M,KDSM 010010Z AUTO 04007KT 10SM OVC018 A3005 RMK MADISHF
DSM,2017-04-01 00:15,-93.6531,41.5339,M,M,M,30.00,7.00,M,30.05,M,10.00,M,OVC,M,M,M,1699.00,M,M,M,M,KDSM 010015Z AUTO 03007KT 10SM OVC016 A3005 RMK MADISHF
DSM,2017-04-01 00:20,-93.6531,41.5339,M,M,M,60.00,7.00,M,30.06,M,10.00,M,OVC,M,M,M,1699.00,M,M,M,M,KDSM 010020Z AUTO 06007KT 10SM OVC016 A3006 RMK MADISHF
DSM,2017-04-01 00:25,-93.6531,41.5339,M,M,M,40.00,9.00,M,30.06,M,10.00,M,OVC,M,M,M,1699.00,M,M,M,M,KDSM 010025Z AUTO 04009KT 10SM OVC016 A3006 RMK MADISHF
DSM,2017-04-01 00:30,-93.6531,41.5339,M,M,M,60.00,8.00,M,30.06,M,10.00,M,OVC,M,M,M,1699.00,M,M,M,M,KDSM 010030Z AUTO 06008KT 10SM OVC016 A3006 RMK MADISHF
DSM,2017-04-01 00:35,-93.6531,41.5339,M,M,M,50.00,6.00,M,30.07,M,10.00,M,OVC,M,M,M,1699.00,M,M,M,M,KDSM 010035Z AUTO 05006KT 10SM OVC016 A3007 RMK MADISHF
DSM,2017-04-01 00:40,-93.6531,41.5339,M,M,M,30.00,7.00,M,30.07,M,10.00,M,OVC,M,M,M,1699.00,M,M,M,M,KDSM 010040Z AUTO 03007KT 10SM OVC016 A3007 RMK MADISHF
DSM,2017-04-01 00:45,-93.6531,41.5339,M,M,M,360.00,7.00,M,30.07,M,10.00,M,OVC,M,M,M,1699.00,M,M,M,M,KDSM 010045Z AUTO 36007KT 10SM OVC016 A3007 RMK MADISHF
DSM,2017-04-01 00:50,-93.6531,41.5339,M,M,M,30.00,5.00,M,30.07,M,10.00,M,OVC,M,M,M,1699.00,M,M,M,M,KDSM 010050Z AUTO 03005KT 10SM OVC016 A3007 RMK MADISHF
DSM,2017-04-01 00:54,-93.6531,41.5339,44.10,37.00,75.93,30.00,5.00,0.00,30.08,1019.00,10.00,M,OVC,M,M,M,1700.00,M,M,M,M,KDSM 010054Z 03005KT 10SM OVC017 07/03 A3008 RMK AO2 SLP190 T00670028
DSM,2017-04-01 00:55,-93.6531,41.5339,M,M,M,30.00,5.00,M,30.08,M,10.00,M,OVC,M,M,M,1699.00,M,M,M,M,KDSM 010055Z AUTO 03005KT 10SM OVC016 A3008 RMK MADISHF
DSM,2017-04-01 01:00,-93.6531,41.5339,M,M,M,40.00,9.00,M,30.07,M,10.00,M,OVC,M,M,M,1699.00,M,M,M,M,KDSM 010100Z AUTO 04009KT 10SM OVC016 A3007 RMK MADISHF
DSM,2017-04-01 01:05,-93.6531,41.5339,M,M,M,30.00,7.00,M,30.07,M,10.00,M,OVC,M,M,M,1699.00,M,M,M,M,KDSM 010105Z AUTO 03007KT 10SM OVC016 A3007 RMK MADISHF
DSM,2017-04-01 01:10,-93.6531,41.5339,M,M,M,40.00,6.00,M,30.07,M,10.00,M,OVC,M,M,M,1699.00,M,M,M,M,KDSM 010110Z AUTO 04006KT 10SM OVC016 A3007 RMK MADISHF
DSM,2017-04-01 01:15,-93.6531,41.5339,M,M,M,30.00,6.00,M,30.08,M,10.00,M,OVC,M,M,M,1699.00,M,M,M,M,KDSM 010115Z AUTO 03006KT 10SM OVC016 A3008 RMK MADISHF
DSM,2017-04-01 01:20,-93.6531,41.5339,M,M,M,10.00,7.00,M,30.08,M,10.00,M,OVC,M,M,M,1699.00,M,M,M,M,KDSM 010120Z AUTO 01007KT 10SM OVC016 A3008 RMK MADISHF
DSM,2017-04-01 01:25,-93.6531,41.5339,M,M,M,20.00,8.00,M,30.08,M,10.00,M,OVC,M,M,M,1800.00,M,M,M,M,KDSM 010125Z AUTO 02008KT 10SM OVC018 A3008 RMK MADISHF
DSM,2017-04-01 01:30,-93.6531,41.5339,M,M,M,40.00,7.00,M,30.08,M,10.00,M,OVC,M,M,M,1800.00,M,M,M,M,KDSM 010130Z AUTO 04007KT 10SM OVC018 A3008 RMK MADISHF
DSM,2017-04-01 01:35,-93.6531,41.5339,M,M,M,40.00,5.00,M,30.08,M,10.00,M,OVC,M,M,M,1800.00,M,M,M,M,KDSM 010135Z AUTO 04005KT 10SM OVC018 A3008 RMK MADISHF
DSM,2017-04-01 01:40,-93.6531,41.5339,M,M,M,40.00,7.00,M,30.08,M,10.00,M,OVC,M,M,M,1800.00,M,M,M,M,KDSM 010140Z AUTO 04007KT 10SM OVC018 A3008 RMK MADISHF
DSM,2017-04-01 01:45,-93.6531,41.5339,M,M,M,40.00,8.00,M,30.09,M,10.00,M,OVC,M,M,M,1800.00,M,M,M,M,KDSM 010145Z AUTO 04008KT 10SM OVC018 A3009 RMK MADISHF
DSM,2017-04-01 01:50,-93.6531,41.5339,M,M,M,20.00,6.00,M,30.09,M,10.00,M,OVC,M,M,M,1699.00,M,M,M,M,KDSM 010150Z AUTO 02006KT 10SM OVC016 A3009 RMK MADISHF
DSM,2017-04-01 01:54,-93.6531,41.5339,44.10,37.00,75.93,40.00,7.00,0.00,30.09,1019.50,10.00,M,OVC,M,M,M,1700.00,M,M,M,M,KDSM 010154Z 04007KT 10SM OVC017 07/03 A3009 RMK AO2 SLP195 T00670028
DSM,2017-04-01 01:55,-93.6531,41.5339,M,M,M,40.00,7.00,M,30.09,M,10.00,M,OVC,M,M,M,1699.00,M,M,M,M,KDSM 010155Z AUTO 04007KT 10SM OVC016 A3009 RMK MADISHF
DSM,2017-04-01 02:00,-93.6531,41.5339,M,M,M,20.00,8.00,M,30.09,M,10.00,M,OVC,M,M,M,1699.00,M,M,M,M,KDSM 010200Z AUTO 02008KT 10SM OVC016 A3009 RMK MADISHF
DSM,2017-04-01 02:05,-93.6531,41.5339,M,M,M,40.00,11.00,M,30.09,M,10.00,M,OVC,M,M,M,1699.00,M,M,M,M,KDSM 010205Z AUTO 04011KT 10SM OVC016 A3009 RMK MADISHF
DSM,2017-04-01 02:10,-93.6531,41.5339,M,M,M,40.00,5.00,M,30.10,M,10.00,M,OVC,M,M,M,1699.00,M,M,M,M,KDSM 010210Z AUTO 04005KT 10SM OVC016 A3010 RMK MADISHF
DSM,2017-04-01 02:15,-93.6531,41.5339,M,M,M,30.00,7.00,M,30.11,M,10.00,M,OVC,M,M,M,1699.00,M,M,M,M,KDSM 010215Z AUTO 03007KT 10SM OVC016 A3011 RMK MADISHF
DSM,2017-04-01 02:20,-93.6531,41.5339,M,M,M,40.00,6.00,M,30.11,M,10.00,M,OVC,M,M,M,1699.00,M,M,M,M,KDSM 010220Z AUTO 04006KT 10SM OVC016 A3011 RMK MADISHF
DSM,2017-04-01 02:25,-93.6531,41.5339,M,M,M,60.00,9.00,M,30.11,M,10.00,M,OVC,M,M,M,1800.00,M,M,M,M,KDSM 010225Z AUTO 06009KT 10SM OVC018 A3011 RMK MADISHF
DSM,2017-04-01 02:30,-93.6531,41.5339,M,M,M,50.00,6.00,M,30.11,M,10.00,M,OVC,M,M,M,1800.00,M,M,M,M,KDSM 010230Z AUTO 05006KT 10SM OVC018 A3011 RMK MADISHF
DSM,2017-04-01 02:35,-93.6531,41.5339,M,M,M,30.00,6.00,M,30.11,M,10.00,M,OVC,M,M,M,1800.00,M,M,M,M,KDSM 010235Z AUTO 03006KT 10SM OVC018 A3011 RMK MADISHF
DSM,2017-04-01 02:40,-93.6531,41.5339,M,M,M,40.00,8.00,M,30.11,M,10.00,M,OVC,M,M,M,1800.00,M,M,M,M,KDSM 010240Z AUTO 04008KT 10SM OVC018 A3011 RMK MADISHF
DSM,2017-04-01 02:45,-93.6531,41.5339,M,M,M,40.00,6.00,M,30.11,M,10.00,M,OVC,M,M,M,1800.00,M,M,M,M,KDSM 010245Z AUTO 04006KT 10SM OVC018 A3011 RMK MADISHF
DSM,2017-04-01 02:50,-93.6531,41.5339,M,M,M,60.00,8.00,M,30.11,M,10.00,M,OVC,M,M,M,1800.00,M,M,M,M,KDSM 010250Z AUTO 06008KT 10SM OVC018 A3011 RMK MADISHF
DSM,2017-04-01 02:54,-93.6531,41.5339,44.10,36.00,72.99,60.00,7.00,0.00,30.11,1020.10,10.00,M,OVC,M,M,M,1800.00,M,M,M,M,KDSM 010254Z 06007KT 10SM OVC018 07/02 A3011 RMK AO2 SLP201 T00670022 51020
DSM,2017-04-01 02:55,-93.6531,41.5339,M,M,M,60.00,7.00,M,30.11,M,10.00,M,OVC,M,M,M,1800.00,M,M,M,M,KDSM 010255Z AUTO 06007KT 10SM OVC018 A3011 RMK MADISHF
DSM,2017-04-01 03:00,-93.6531,41.5339,M,M,M,40.00,8.00,M,30.11,M,10.00,M,OVC,M,M,M,1800.00,M,M,M,M,KDSM 010300Z AUTO 04008KT 10SM OVC018 A3011 RMK MADISHF
DSM,2017-04-01 03:05,-93.6531,41.5339,M,M,M,50.00,7.00,M,30.12,M,10.00,M,OVC,M,M,M,1800.00,M,M,M,M,KDSM 010305Z AUTO 05007KT 10SM OVC018 A3012 RMK MADISHF
DSM,2017-04-01 03:10,-93.6531,41.5339,M,M,M,60.00,9.00,M,30.12,M,10.00,M,OVC,M,M,M,1800.00,M,M,M,M,KDSM 010310Z AUTO 06009KT 10SM OVC018 A3012 RMK MADISHF
DSM,2017-04-01 03:15,-93.6531,41.5339,M,M,M,50.00,6.00,M,30.12,M,10.00,M,OVC,M,M,M,1800.00,M,M,M,M,KDSM 010315Z AUTO 05006KT 10SM OVC018 A3012 RMK MADISHF
DSM,2017-04-01 03:20,-93.6531,41.5339,M,M,M,50.00,8.00,M,30.12,M,10.00,M,OVC,M,M,M,1800.00,M,M,M,M,KDSM 010320Z AUTO 05008KT 10SM OVC018 A3012 RMK MADISHF
DSM,2017-04-01 03:25,-93.6531,41.5339,M,M,M,60.00,7.00,M,30.12,M,10.00,M,OVC,M,M,M,1800.00,M,M,M,M,KDSM 010325Z AUTO 06007KT 10SM OVC018 A3012 RMK MADISHF
DSM,2017-04-01 03:30,-93.6531,41.5339,M,M,M,30.00,7.00,M,30.12,M,10.00,M,OVC,M,M,M,1800.00,M,M,M,M,KDSM 010330Z AUTO 03007KT 10SM OVC018 A3012 RMK MADISHF
DSM,2017-04-01 03:35,-93.6531,41.5339,M,M,M,30.00,8.00,M,30.12,M,10.00,M,OVC,M,M,M,1800.00,M,M,M,M,KDSM 010335Z AUTO 03008KT 10SM OVC018 A3012 RMK MADISHF
DSM,2017-04-01 03:40,-93.6531,41.5339,M,M,M,50.00,8.00,M,30.12,M,10.00,M,OVC,M,M,M,1800.00,M,M,M,M,KDSM 010340Z AUTO 05008KT 10SM OVC018 A3012 RMK MADISHF
DSM,2017-04-01 03:45,-93.6531,41.5339,M,M,M,70.00,8.00,M,30.12,M,10.00,M,OVC,M,M,M,1800.00,M,M,M,M,KDSM 010345Z AUTO 07008KT 10SM OVC018 A3012 RMK MADISHF
DSM,2017-04-01 03:50,-93.6531,41.5339,M,M,M,50.00,6.00,M,30.12,M,10.00,M,OVC,M,M,M,1800.00,M,M,M,M,KDSM 010350Z AUTO 05006KT 10SM OVC018 A3012 RMK MADISHF
DSM,2017-04-01 03:54,-93.6531,41.5339,43.00,36.00,76.12,60.00,8.00,0.00,30.12,1020.30,10.00,M,OVC,M,M,M,1700.00,M,M,M,M,KDSM 010354Z 06008KT 10SM OVC017 06/02 A3012 RMK AO2 SLP203 T00610022
DSM,2017-04-01 03:55,-93.6531,41.5339,M,M,M,50.00,6.00,M,30.12,M,10.00,M,OVC,M,M,M,1699.00,M,M,M,M,KDSM 010355Z AUTO 05006KT 10SM OVC016 A3012 RMK MADISHF
DSM,2017-04-01 04:00,-93.6531,41.5339,M,M,M,50.00,8.00,M,30.12,M,10.00,M,OVC,M,M,M,1699.00,M,M,M,M,KDSM 010400Z AUTO 05008KT 10SM OVC016 A3012 RMK MADISHF
DSM,2017-04-01 04:05,-93.6531,41.5339,M,M,M,50.00,6.00,M,30.12,M,10.00,M,OVC,M,M,M,1699.00,M,M,M,M,KDSM 010405Z AUTO 05006KT 10SM OVC016 A3012 RMK MADISHF
DSM,2017-04-01 04:10,-93.6531,41.5339,M,M,M,50.00,5.00,M,30.12,M,10.00,M,OVC,M,M,M,1699.00,M,M,M,M,KDSM 010410Z AUTO 05005KT 10SM OVC016 A3012 RMK MADISHF
DSM,2017-04-01 04:15,-93.6531,41.5339,M,M,M,70.00,5.00,M,30.12,M,10.00,M,OVC,M,M,M,1699.00,M,M,M,M,KDSM 010415Z AUTO 07005KT 10SM OVC016 A3012 RMK MADISHF
DSM,2017-04-01 04:20,-93.6531,41.5339,M,M,M,60.00,5.00,M,30.13,M,10.00,M,OVC,M,M,M,1699.00,M,M,M,M,KDSM 010420Z AUTO 06005KT 10SM OVC016 A3013 RMK MADISHF
DSM,2017-04-01 04:25,-93.6531,41.5339,M,M,M,60.00,5.00,M,30.13,M,10.00,M,OVC,M,M,M,1699.00,M,M,M,M,KDSM 010425Z AUTO 06005KT 10SM OVC016 A3013 RMK MADISHF
DSM,2017-04-01 04:30,-93.6531,41.5339,M,M,M,70.00,7.00,M,30.13,M,10.00,M,OVC,M,M,M,1699.00,M,M,M,M,KDSM 010430Z AUTO 07007KT 10SM OVC016 A3013 RMK MADISHF
DSM,2017-04-01 04:35,-93.6531,41.5339,M,M,M,70.00,7.00,M,30.13,M,10.00,M,OVC,M,M,M,1699.00,M,M,M,M,KDSM 010435Z AUTO 07007KT 10SM OVC016 A3013 RMK MADISHF
DSM,2017-04-01 04:40,-93.6531,41.5339,M,M,M,60.00,6.00,M,30.13,M,10.00,M,OVC,M,M,M,1699.00,M,M,M,M,KDSM 010440Z AUTO 06006KT 10SM OVC016 A3013 RMK MADISHF
DSM,2017-04-01 04:45,-93.6531,41.5339,M,M,M,50.00,5.00,M,30.13,M,10.00,M,OVC,M,M,M,1699.00,M,M,M,M,KDSM 010445Z AUTO 05005KT 10SM OVC016 A3013 RMK MADISHF
DSM,2017-04-01 04:50,-93.6531,41.5339,M,M,M,80.00,4.00,M,30.13,M,10.00,M,OVC,M,M,M,1699.00,M,M,M,M,KDSM 010450Z AUTO 08004KT 10SM OVC016 A3013 RMK MADISHF
DSM,2017-04-01 04:54,-93.6531,41.5339,43.00,35.10,73.45,90.00,4.00,0.00,30.13,1020.90,10.00,M,OVC,M,M,M,1700.00,M,M,M,M,KDSM 010454Z 09004KT 10SM OVC017 06/02 A3013 RMK AO2 SLP209 T00610017
DSM,2017-04-01 04:55,-93.6531,41.5339,M,M,M,80.00,4.00,M,30.13,M,10.00,M,OVC,M,M,M,1699.00,M,M,M,M,KDSM 010455Z AUTO 08004KT 10SM OVC016 A3013 RMK MADISHF
DSM,2017-04-01 05:00,-93.6531,41.5339,M,M,M,60.00,4.00,M,30.14,M,10.00,M,OVC,M,M,M,1699.00,M,M,M,M,KDSM 010500Z AUTO 06004KT 10SM OVC016 A3014 RMK MADISHF
DSM,2017-04-01 05:05,-93.6531,41.5339,M,M,M,70.00,4.00,M,30.14,M,10.00,M,OVC,M,M,M,1699.00,M,M,M,M,KDSM 010505Z AUTO 07004KT 10SM OVC016 A3014 RMK MADISHF
DSM,2017-04-01 05:10,-93.6531,41.5339,M,M,M,60.00,4.00,M,30.14,M,10.00,M,OVC,M,M,M,1699.00,M,M,M,M,KDSM 010510Z AUTO 06004KT 10SM OVC016 A3014 RMK MADISHF
DSM,2017-04-01 05:15,-93.6531,41.5339,M,M,M,60.00,3.00,M,30.14,M,10.00,M,OVC,M,M,M,1699.00,M,M,M,M,KDSM 010515Z AUTO 06003KT 10SM OVC016 A3014 RMK MADISHF
DSM,2017-04-01 05:20,-93.6531,41.5339,M,M,M,60.00,3.00,M,30.14,M,10.00,M,OVC,M,M,M,1699.00,M,M,M,M,KDSM 010520Z AUTO 06003KT 10SM OVC016 A3014 RMK MADISHF
DSM,2017-04-01 05:25,-93.6531,41.5339,M,M,M,70.00,3.00,M,30.14,M,10.00,M,BKN,M,M,M,1699.00,M,M,M,M,KDSM 010525Z AUTO 07003KT 10SM BKN016 A3014 RMK MADISHF
DSM,2017-04-01 05:30,-93.6531,41.5339,M,M,M,70.00,3.00,M,30.15,M,10.00,M,OVC,M,M,M,1699.00,M,M,M,M,KDSM 010530Z AUTO 07003KT 10SM OVC016 A3015 RMK MADISHF
DSM,2017-04-01 05:35,-93.6531,41.5339,M,M,M,0.00,0.00,M,30.15,M,10.00,M,OVC,M,M,M,1699.00,M,M,M,M,KDSM 010535Z AUTO 00000KT 10SM OVC016 A3015 RMK MADISHF
DSM,2017-04-01 05:40,-93.6531,41.5339,M,M,M,0.00,0.00,M,30.15,M,10.00,M,BKN,M,M,M,1699.00,M,M,M,M,KDSM 010540Z AUTO 00000KT 10SM BKN016 A3015 RMK MADISHF
DSM,2017-04-01 05:45,-93.6531,41.5339,M,M,M,0.00,0.00,M,30.15,M,10.00,M,BKN,M,M,M,1699.00,M,M,M,M,KDSM 010545Z AUTO 00000KT 10SM BKN016 A3015 RMK MADISHF
DSM,2017-04-01 05:50,-93.6531,41.5339,M,M,M,0.00,0.00,M,30.15,M,10.00,M,SCT,M,M,M,1699.00,M,M,M,M,KDSM 010550Z AUTO 00000KT 10SM SCT016 A3015 RMK MADISHF
DSM,2017-04-01 05:54,-93.6531,41.5339,42.10,35.10,76.04,0.00,0.00,0.00,30.15,1021.40,10.00,M,SCT,BKN,OVC,M,1700.00,23000.00,26000.00,M,M,KDSM 010554Z 00000KT 10SM SCT017 BKN230 OVC260 06/02 A3015 RMK AO2 SLP214 T00560017 10072 20056 400830050 53013
DSM,2017-04-01 05:55,-93.6531,41.5339,M,M,M,0.00,0.00,M,30.15,M,10.00,M,SCT,M,M,M,1699.00,M,M,M,M,KDSM 010555Z AUTO 00000KT 10SM SCT016 A3015 RMK MADISHF
DSM,2017-04-01 06:00,-93.6531,41.5339,M,M,M,0.00,0.00,M,30.15,M,10.00,M,FEW,M,M,M,1699.00,M,M,M,M,KDSM 010600Z AUTO 00000KT 10SM FEW016 A3015 RMK MADISHF
DSM,2017-04-01 06:05,-93.6531,41.5339,M,M,M,50.00,3.00,M,30.15,M,10.00,M,CLR,M,M,M,M,M,M,M,M,KDSM 010605Z AUTO 05003KT 10SM CLR A3015 RMK MADISHF
DSM,2017-04-01 06:10,-93.6531,41.5339,M,M,M,50.00,3.00,M,30.15,M,10.00,M,CLR,M,M,M,M,M,M,M,M,KDSM 010610Z AUTO 05003KT 10SM CLR A3015 RMK MADISHF
DSM,2017-04-01 06:15,-93.6531,41.5339,M,M,M,50.00,4.00,M,30.15,M,10.00,M,CLR,M,M,M,M,M,M,M,M,KDSM 010615Z AUTO 05004KT 10SM CLR A3015 RMK MADISHF
DSM,2017-04-01 06:20,-93.6531,41.5339,M,M,M,70.00,3.00,M,30.15,M,10.00,M,CLR,M,M,M,M,M,M,M,M,KDSM 010620Z AUTO 07003KT 10SM CLR A3015 RMK MADISHF
DSM,2017-04-01 06:25,-93.6531,41.5339,M,M,M,0.00,0.00,M,30.16,M,10.00,M,CLR,M,M,M,M,M,M,M,M,KDSM 010625Z AUTO 00000KT 10SM CLR A3016 RMK MADISHF
DSM,2017-04-01 06:30,-93.6531,41.5339,M,M,M,0.00,0.00,M,30.16,M,10.00,M,CLR,M,M,M,M,M,M,M,M,KDSM 010630Z AUTO 00000KT 10SM CLR A3016 RMK MADISHF
DSM,2017-04-01 06:35,-93.6531,41.5339,M,M,M,0.00,0.00,M,30.16,M,10.00,M,CLR,M,M,M,M,M,M,M,M,KDSM 010635Z AUTO 00000KT 10SM CLR A3016 RMK MADISHF
DSM,2017-04-01 06:40,-93.6531,41.5339,M,M,M,0.00,0.00,M,30.16,M,10.00,M,CLR,M,M,M,M,M,M,M,M,KDSM 010640Z AUTO 00000KT 10SM CLR A3016 RMK MADISHF
DSM,2017-04-01 06:45,-93.6531,41.5339,M,M,M,0.00,0.00,M,30.17,M,10.00,M,CLR,M,M,M,M,M,M,M,M,KDSM 010645Z AUTO 00000KT 10SM CLR A3017 RMK MADISHF
DSM,2017-04-01 06:50,-93.6531,41.5339,M,M,M,0.00,0.00,M,30.17,M,10.00,M,CLR,M,M,M,M,M,M,M,M,KDSM 010650Z AUTO 00000KT 10SM CLR A3017 RMK MADISHF
DSM,2017-04-01 06:54,-93.6531,41.5339,41.00,35.10,79.34,0.00,0.00,0.00,30.17,1022.20,10.00,M,FEW,SCT,BKN,M,1700.00,18000.00,23000.00,M,M,KDSM 010654Z 00000KT 10SM FEW017 SCT180 BKN230 05/02 A3017 RMK AO2 SLP222 T00500017
DSM,2017-04-01 06:55,-93.6531,41.5339,M,M,M,0.00,0.00,M,30.17,M,10.00,M,CLR,M,M,M,M,M,M,M,M,KDSM 010655Z AUTO 00000KT 10SM CLR A3017 RMK MADISHF
DSM,2017-04-01 07:00,-93.6531,41.5339,M,M,M,0.00,0.00,M,30.17,M,10.00,M,CLR,M,M,M,M,M,M,M,M,KDSM 010700Z AUTO 00000KT 10SM CLR A3017 RMK MADISHF
DSM,2017-04-01 07:05,-93.6531,41.5339,M,M,M,0.00,0.00,M,30.17,M,10.00,M,CLR,M,M,M,M,M,M,M,M,KDSM 010705Z AUTO 00000KT 10SM CLR A3017 RMK MADISHF
DSM,2017-04-01 07:10,-93.6531,41.5339,M,M,M,0.00,0.00,M,30.18,M,10.00,M,CLR,M,M,M,M,M,M,M,M,KDSM 010710Z AUTO 00000KT 10SM CLR A3018 RMK MADISHF
DSM,2017-04-01 07:15,-93.6531,41.5339,M,M,M,0.00,0.00,M,30.18,M,10.00,M,CLR,M,M,M,M,M,M,M,M,KDSM 010715Z AUTO 00000KT 10SM CLR A3018 RMK MADISHF
DSM,2017-04-01 07:20,-93.6531,41.5339,M,M,M,0.00,0.00,M,30.18,M,10.00,M,CLR,M,M,M,M,M,M,M,M,KDSM 010720Z AUTO 00000KT 10SM CLR A3018 RMK MADISHF
DSM,2017-04-01 07:25,-93.6531,41.5339,M,M,M,0.00,0.00,M,30.18,M,10.00,M,CLR,M,M,M,M,M,M,M,M,KDSM 010725Z AUTO 00000KT 10SM CLR A3018 RMK MADISHF
DSM,2017-04-01 07:30,-93.6531,41.5339,M,M,M,0.00,0.00,M,30.18,M,10.00,M,CLR,M,M,M,M,M,M,M,M,KDSM 010730Z AUTO 00000KT 10SM CLR A3018 RMK MADISHF
DSM,2017-04-01 07:35,-93.6531,41.5339,M,M,M,0.00,0.00,M,30.18,M,10.00,M,CLR,M,M,M,M,M,M,M,M,KDSM 010735Z AUTO 00000KT 10SM CLR A3018 RMK MADISHF
DSM,2017-04-01 07:40,-93.6531,41.5339,M,M,M,0.00,0.00,M,30.18,M,10.00,M,CLR,M,M,M,M,M,M,M,M,KDSM 010740Z AUTO 00000KT 10SM CLR A3018 RMK MADISHF
DSM,2017-04-01 07:45,-93.6531,41.5339,M,M,M,0.00,0.00,M,30.18,M,10.00,M,M,M,M,M,M,M,M,M,M,KDSM 010745Z AUTO 00000KT 10SM A3018 RMK MADISHF
DSM,2017-04-01 07:50,-93.6531,41.5339,M,M,M,0.00,0.00,M,30.18,M,10.00,M,M,M,M,M,M,M,M,M,M,KDSM 010750Z AUTO 00000KT 10SM A3018 RMK MADISHF
DSM,2017-04-01 07:54,-93.6531,41.5339,39.00,35.10,85.76,0.00,0.00,0.00,30.18,1022.60,10.00,M,FEW,FEW,SCT,M,15000.00,17000.00,23000.00,M,M,KDSM 010754Z 00000KT 10SM FEW150 FEW170 SCT230 04/02 A3018 RMK AO2 SLP226 T00390017
DSM,2017-04-01 07:55,-93.6531,41.5339,M,M,M,0.00,0.00,M,30.18,M,10.00,M,CLR,M,M,M,M,M,M,M,M,KDSM 010755Z AUTO 00000KT 10SM CLR A3018 RMK MADISHF
DSM,2017-04-01 08:00,-93.6531,41.5339,M,M,M,0.00,0.00,M,30.18,M,10.00,M,CLR,M,M,M,M,M,M,M,M,KDSM 010800Z AUTO 00000KT 10SM CLR A3018 RMK MADISHF
DSM,2017-04-01 08:05,-93.6531,41.5339,M,M,M,0.00,0.00,M,30.18,M,10.00,M,CLR,M,M,M,M,M,M,M,M,KDSM 010805Z AUTO 00000KT 10SM CLR A3018 RMK MADISHF
DSM,2017-04-01 08:10,-93.6531,41.5339,M,M,M,0.00,0.00,M,30.18,M,10.00,M,CLR,M,M,M,M,M,M,M,M,KDSM 010810Z AUTO 00000KT 10SM CLR A3018 RMK MADISHF
DSM,2017-04-01 08:15,-93.6531,41.5339,M,M,M,0.00,0.00,M,30.18,M,10.00,M,CLR,M,M,M,M,M,M,M,M,KDSM 010815Z AUTO 00000KT 10SM CLR A3018 RMK MADISHF
DSM,2017-04-01 08:20,-93.6531,41.5339,M,M,M,0.00,0.00,M,30.17,M,10.00,M,CLR,M,M,M,M,M,M,M,M,KDSM 010820Z AUTO 00000KT 10SM CLR A3017 RMK MADISHF
DSM,2017-04-01 08:25,-93.6531,41.5339,M,M,M,0.00,0.00,M,30.17,M,10.00,M,CLR,M,M,M,M,M,M,M,M,KDSM 010825Z AUTO 00000KT 10SM CLR A3017 RMK MADISHF
DSM,2017-04-01 08:30,-93.6531,41.5339,M,M,M,70.00,4.00,M,30.16,M,10.00,M,CLR,M,M,M,M,M,M,M,M,KDSM 010830Z AUTO 07004KT 10SM CLR A3016 RMK MADISHF
DSM,2017-04-01 08:35,-93.6531,41.5339,M,M,M,0.00,0.00,M,30.16,M,10.00,M,FEW,M,M,M,12000.00,M,M,M,M,KDSM 010835Z AUTO 00000KT 10SM FEW120 A3016 RMK MADISHF
DSM,2017-04-01 08:40,-93.6531,41.5339,M,M,M,0.00,0.00,M,30.16,M,10.00,M,FEW,M,M,M,12000.00,M,M,M,M,KDSM 010840Z AUTO 00000KT 10SM FEW120 A3016 RMK MADISHF
DSM,2017-04-01 08:45,-93.6531,41.5339,M,M,M,0.00,0.00,M,30.16,M,10.00,M,FEW,M,M,M,12000.00,M,M,M,M,KDSM 010845Z AUTO 00000KT 10SM FEW120 A3016 RMK MADISHF
DSM,2017-04-01 08:50,-93.6531,41.5339,M,M,M,0.00,0.00,M,30.17,M,10.00,M,FEW,M,M,M,12000.00,M,M,M,M,KDSM 010850Z AUTO 00000KT 10SM FEW120 A3017 RMK MADISHF
DSM,2017-04-01 08:54,-93.6531,41.5339,39.00,34.00,82.08,0.00,0.00,0.00,30.17,1022.30,10.00,M,FEW,FEW,BKN,M,12000.00,18000.00,25000.00,M,M,KDSM 010854Z 00000KT 10SM FEW120 FEW180 BKN250 04/01 A3017 RMK AO2 SLP223 T00390011 50007
DSM,2017-04-01 08:55,-93.6531,41.5339,M,M,M,0.00,0.00,M,30.17,M,10.00,M,FEW,M,M,M,12000.00,M,M,M,M,KDSM 010855Z AUTO 00000KT 10SM FEW120 A3017 RMK MADISHF
DSM,2017-04-01 09:00,-93.6531,41.5339,M,M,M,0.00,0.00,M,30.17,M,10.00,M,CLR,M,M,M,M,M,M,M,M,KDSM 010900Z AUTO 00000KT 10SM CLR A3017 RMK MADISHF
DSM,2017-04-01 09:05,-93.6531,41.5339,M,M,M,0.00,0.00,M,30.17,M,10.00,M,CLR,M,M,M,M,M,M,M,M,KDSM 010905Z AUTO 00000KT 10SM CLR A3017 RMK MADISHF
DSM,2017-04-01 09:10,-93.6531,41.5339,M,M,M,0.00,0.00,M,30.17,M,10.00,M,CLR,M,M,M,M,M,M,M,M,KDSM 010910Z AUTO 00000KT 10SM CLR A3017 RMK MADISHF
DSM,2017-04-01 09:15,-93.6531,41.5339,M,M,M,0.00,0.00,M,30.18,M,10.00,M,CLR,M,M,M,M,M,M,M,M,KDSM 010915Z AUTO 00000KT 10SM CLR A3018 RMK MADISHF
DSM,2017-04-01 09:20,-93.6531,41.5339,M,M,M,0.00,0.00,M,30.18,M,10.00,M,CLR,M,M,M,M,M,M,M,M,KDSM 010920Z AUTO 00000KT 10SM CLR A3018 RMK MADISHF
DSM,2017-04-01 09:25,-93.6531,41.5339,M,M,M,0.00,0.00,M,30.18,M,10.00,M,CLR,M,M,M,M,M,M,M,M,KDSM 010925Z AUTO 00000KT 10SM CLR A3018 RMK MADISHF
DSM,2017-04-01 09:30,-93.6531,41.5339,M,M,M,0.00,0.00,M,30.18,M,10.00,M,CLR,M,M,M,M,M,M,M,M,KDSM 010930Z AUTO 00000KT 10SM CLR A3018 RMK MADISHF
DSM,2017-04-01 09:35,-93.6531,41.5339,M,M,M,0.00,0.00,M,30.18,M,10.00,M,CLR,M,M,M,M,M,M,M,M,KDSM 010935Z AUTO 00000KT 10SM CLR A3018 RMK MADISHF
DSM,2017-04-01 09:40,-93.6531,41.5339,M,M,M,0.00,0.00,M,30.18,M,10.00,M,CLR,M,M,M,M,M,M,M,M,KDSM 010940Z AUTO 00000KT 10SM CLR A3018 RMK MADISHF
DSM,2017-04-01 09:45,-93.6531,41.5339,M,M,M,0.00,0.00,M,30.18,M,10.00,M,CLR,M,M,M,M,M,M,M,M,KDSM 010945Z AUTO 00000KT 10SM CLR A3018 RMK MADISHF
DSM,2017-04-01 09:50,-93.6531,41.5339,M,M,M,0.00,0.00,M,30.19,M,10.00,M,CLR,M,M,M,M,M,M,M,M,KDSM 010950Z AUTO 00000KT 10SM CLR A3019 RMK MADISHF
DSM,2017-04-01 09:54,-93.6531,41.5339,37.90,34.00,85.69,0.00,0.00,0.00,30.18,1022.70,10.00,M,FEW,BKN,OVC,M,12000.00,18000.00,25000.00,M,M,KDSM 010954Z 00000KT 10SM FEW120 BKN180 OVC250 03/01 A3018 RMK AO2 SLP227 T00330011
DSM,2017-04-01 09:55,-93.6531,41.5339,M,M,M,0.00,0.00,M,30.18,M,10.00,M,CLR,M,M,M,M,M,M,M,M,KDSM 010955Z AUTO 00000KT 10SM CLR A3018 RMK MADISHF
DSM,2017-04-01 10:00,-93.6531,41.5339,M,M,M,0.00,0.00,M,30.19,M,10.00,M,CLR,M,M,M,M,M,M,M,M,KDSM 011000Z AUTO 00000KT 10SM CLR A3019 RMK MADISHF
DSM,2017-04-01 10:05,-93.6531,41.5339,M,M,M,0.00,0.00,M,30.18,M,10.00,M,CLR,M,M,M,M,M,M,M,M,KDSM 011005Z AUTO 00000KT 10SM CLR A3018 RMK MADISHF
DSM,2017-04-01 10:10,-93.6531,41.5339,M,M,M,0.00,0.00,M,30.18,M,10.00,M,CLR,M,M,M,M,M,M,M,M,KDSM 011010Z AUTO 00000KT 10SM CLR A3018 RMK MADISHF
DSM,2017-04-01 10:15,-93.6531,41.5339,M,M,M,30.00,3.00,M,30.18,M,10.00,M,CLR,M,M,M,M,M,M,M,M,KDSM 011015Z AUTO 03003KT 10SM CLR A3018 RMK MADISHF
DSM,2017-04-01 10:20,-93.6531,41.5339,M,M,M,40.00,3.00,M,30.18,M,10.00,M,CLR,M,M,M,M,M,M,M,M,KDSM 011020Z AUTO 04003KT 10SM CLR A3018 RMK MADISHF
DSM,2017-04-01 10:25,-93.6531,41.5339,M,M,M,20.00,3.00,M,30.19,M,10.00,M,CLR,M,M,M,M,M,M,M,M,KDSM 011025Z AUTO 02003KT 10SM CLR A3019 RMK MADISHF
DSM,2017-04-01 10:30,-93.6531,41.5339,M,M,M,360.00,3.00,M,30.19,M,10.00,M,CLR,M,M,M,M,M,M,M,M,KDSM 011030Z AUTO 36003KT 10SM CLR A3019 RMK MADISHF
DSM,2017-04-01 10:35,-93.6531,41.5339,M,M,M,0.00,0.00,M,30.20,M,10.00,M,CLR,M,M,M,M,M,M,M,M,KDSM 011035Z AUTO 00000KT 10SM CLR A3020 RMK MADISHF
DSM,2017-04-01 10:40,-93.6531,41.5339,M,M,M,290.00,3.00,M,30.20,M,10.00,M,CLR,M,M,M,M,M,M,M,M,KDSM 011040Z AUTO 29003KT 10SM CLR A3020 RMK MADISHF
DSM,2017-04-01 10:45,-93.6531,41.5339,M,M,M,300.00,3.00,M,30.21,M,10.00,M,M,M,M,M,M,M,M,M,M,KDSM 011045Z AUTO 30003KT 10SM A3021 RMK MADISHF
DSM,2017-04-01 10:50,-93.6531,41.5339,M,M,M,300.00,4.00,M,30.21,M,10.00,M,M,M,M,M,M,M,M,M,M,KDSM 011050Z AUTO 30004KT 10SM A3021 RMK MADISHF
DSM,2017-04-01 10:54,-93.6531,41.5339,36.00,33.10,89.09,310.00,3.00,0.00,30.21,1023.60,10.00,M,BKN,OVC,M,M,18000.00,20000.00,M,M,M,KDSM 011054Z 31003KT 10SM BKN180 OVC200 02/01 A3021 RMK AO2 SLP236 T00220006
DSM,2017-04-01 10:55,-93.6531,41.5339,M,M,M,310.00,3.00,M,30.21,M,10.00,M,CLR,M,M,M,M,M,M,M,M,KDSM 011055Z AUTO 31003KT 10SM CLR A3021 RMK MADISHF
DSM,2017-04-01 11:00,-93.6531,41.5339,M,M,M,310.00,3.00,M,30.21,M,10.00,M,CLR,M,M,M,M,M,M,M,M,KDSM 011100Z AUTO 31003KT 10SM CLR A3021 RMK MADISHF
DSM,2017-04-01 11:05,-93.6531,41.5339,M,M,M,0.00,0.00,M,30.21,M,10.00,M,CLR,M,M,M,M,M,M,M,M,KDSM 011105Z AUTO 00000KT 10SM CLR A3021 RMK MADISHF
DSM,2017-04-01 11:10,-93.6531,41.5339,M,M,M,0.00,0.00,M,30.21,M,10.00,M,CLR,M,M,M,M,M,M,M,M,KDSM 011110Z AUTO 00000KT 10SM CLR A3021 RMK MADISHF
DSM,2017-04-01 11:15,-93.6531,41.5339,M,M,M,0.00,0.00,M,30.22,M,10.00,M,CLR,M,M,M,M,M,M,M,M,KDSM 011115Z AUTO 00000KT 10SM CLR A3022 RMK MADISHF
DSM,2017-04-01 11:20,-93.6531,41.5339,M,M,M,0.00,0.00,M,30.22,M,10.00,M,CLR,M,M,M,M,M,M,M,M,KDSM 011120Z AUTO 00000KT 10SM CLR A3022 RMK MADISHF
DSM,2017-04-01 11:25,-93.6531,41.5339,M,M,M,0.00,0.00,M,30.22,M,10.00,M,CLR,M,M,M,M,M,M,M,M,KDSM 011125Z AUTO 00000KT 10SM CLR A3022 RMK MADISHF
DSM,2017-04-01 11:30,-93.6531,41.5339,M,M,M,0.00,0.00,M,30.23,M,10.00,M,CLR,M,M,M,M,M,M,M,M,KDSM 011130Z AUTO 00000KT 10SM CLR A3023 RMK MADISHF
DSM,2017-04-01 11:35,-93.6531,41.5339,M,M,M,0.00,0.00,M,30.23,M,10.00,M,CLR,M,M,M,M,M,M,M,M,KDSM 011135Z AUTO 00000KT 10SM CLR A3023 RMK MADISHF
DSM,2017-04-01 11:40,-93.6531,41.5339,M,M,M,0.00,0.00,M,30.23,M,10.00,M,CLR,M,M,M,M,M,M,M,M,KDSM 011140Z AUTO 00000KT 10SM CLR A3023 RMK MADISHF
DSM,2017-04-01 11:45,-93.6531,41.5339,M,M,M,0.00,0.00,M,30.23,M,10.00,M,CLR,M,M,M,M,M,M,M,M,KDSM 011145Z AUTO 00000KT 10SM CLR A3023 RMK MADISHF
DSM,2017-04-01 11:50,-93.6531,41.5339,M,M,M,0.00,0.00,M,30.23,M,10.00,M,M,M,M,M,M,M,M,M,M,KDSM 011150Z AUTO 00000KT 10SM A3023 RMK MADISHF
DSM,2017-04-01 11:54,-93.6531,41.5339,37.90,35.10,89.53,0.00,0.00,0.00,30.23,1024.10,10.00,M,BKN,BKN,OVC,M,17000.00,20000.00,25000.00,M,M,KDSM 011154Z 00000KT 10SM BKN170 BKN200 OVC250 03/02 A3023 RMK AO2 SLP241 T00330017 10056 20022 53017
DSM,2017-04-01 11:55,-93.6531,41.5339,M,M,M,20.00,3.00,M,30.23,M,10.00,M,CLR,M,M,M,M,M,M,M,M,KDSM 011155Z AUTO 02003KT 10SM CLR A3023 RMK MADISHF
DSM,2017-04-01 12:00,-93.6531,41.5339,M,M,M,10.00,3.00,M,30.23,M,10.00,M,CLR,M,M,M,M,M,M,M,M,KDSM 011200Z AUTO 01003KT 10SM CLR A3023 RMK MADISHF
DSM,2017-04-01 12:05,-93.6531,41.5339,M,M,M,20.00,3.00,M,30.23,M,10.00,M,CLR,M,M,M,M,M,M,M,M,KDSM 011205Z AUTO 02003KT 10SM CLR A3023 RMK MADISHF
DSM,2017-04-01 12:10,-93.6531,41.5339,M,M,M,10.00,3.00,M,30.23,M,10.00,M,CLR,M,M,M,M,M,M,M,M,KDSM 011210Z AUTO 01003KT 10SM CLR A3023 RMK MADISHF
DSM,2017-04-01 12:15,-93.6531,41.5339,M,M,M,30.00,3.00,M,30.23,M,10.00,M,CLR,M,M,M,M,M,M,M,M,KDSM 011215Z AUTO 03003KT 10SM CLR A3023 RMK MADISHF
DSM,2017-04-01 12:20,-93.6531,41.5339,M,M,M,30.00,3.00,M,30.23,M,10.00,M,CLR,M,M,M,M,M,M,M,M,KDSM 011220Z AUTO 03003KT 10SM CLR A3023 RMK MADISHF
DSM,2017-04-01 12:25,-93.6531,41.5339,M,M,M,40.00,5.00,M,30.23,M,10.00,M,CLR,M,M,M,M,M,M,M,M,KDSM 011225Z AUTO 04005KT 10SM CLR A3023 RMK MADISHF
DSM,2017-04-01 12:30,-93.6531,41.5339,M,M,M,40.00,5.00,M,30.23,M,10.00,M,CLR,M,M,M,M,M,M,M,M,KDSM 011230Z AUTO 04005KT 10SM CLR A3023 RMK MADISHF
DSM,2017-04-01 12:35,-93.6531,41.5339,M,M,M,30.00,5.00,M,30.24,M,10.00,M,CLR,M,M,M,M,M,M,M,M,KDSM 011235Z AUTO 03005KT 10SM CLR A3024 RMK MADISHF
DSM,2017-04-01 12:40,-93.6531,41.5339,M,M,M,30.00,5.00,M,30.24,M,10.00,M,CLR,M,M,M,M,M,M,M,M,KDSM 011240Z AUTO 03005KT 10SM CLR A3024 RMK MADISHF
DSM,2017-04-01 12:45,-93.6531,41.5339,M,M,M,30.00,4.00,M,30.24,M,10.00,M,M,M,M,M,M,M,M,M,M,KDSM 011245Z AUTO 03004KT 10SM A3024 RMK MADISHF
DSM,2017-04-01 12:50,-93.6531,41.5339,M,M,M,30.00,4.00,M,30.24,M,10.00,M,M,M,M,M,M,M,M,M,M,KDSM 011250Z AUTO 03004KT 10SM A3024 RMK MADISHF
DSM,2017-04-01 12:54,-93.6531,41.5339,39.90,36.00,85.81,30.00,4.00,0.00,30.24,1024.60,10.00,M,BKN,BKN,OVC,M,17000.00,19000.00,25000.00,M,M,KDSM 011254Z 03004KT 10SM BKN170 BKN190 OVC250 04/02 A3024 RMK AO2 SLP246 T00440022
DSM,2017-04-01 12:55,-93.6531,41.5339,M,M,M,30.00,4.00,M,30.24,M,10.00,M,CLR,M,M,M,M,M,M,M,M,KDSM 011255Z AUTO 03004KT 10SM CLR A3024 RMK MADISHF
DSM,2017-04-01 13:00,-93.6531,41.5339,M,M,M,30.00,4.00,M,30.24,M,10.00,M,CLR,M,M,M,M,M,M,M,M,KDSM 011300Z AUTO 03004KT 10SM CLR A3024 RMK MADISHF
DSM,2017-04-01 13:05,-93.6531,41.5339,M,M,M,30.00,4.00,M,30.24,M,10.00,M,CLR,M,M,M,M,M,M,M,M,KDSM 011305Z AUTO 03004KT 10SM CLR A3024 RMK MADISHF
DSM,2017-04-01 13:10,-93.6531,41.5339,M,M,M,40.00,3.00,M,30.24,M,10.00,M,CLR,M,M,M,M,M,M,M,M,KDSM 011310Z AUTO 04003KT 10SM CLR A3024 RMK MADISHF
DSM,2017-04-01 13:15,-93.6531,41.5339,M,M,M,40.00,4.00,M,30.24,M,10.00,M,CLR,M,M,M,M,M,M,M,M,KDSM 011315Z AUTO 04004KT 10SM CLR A3024 RMK MADISHF
DSM,2017-04-01 13:20,-93.6531,41.5339,M,M,M,40.00,4.00,M,30.24,M,10.00,M,CLR,M,M,M,M,M,M,M,M,KDSM 011320Z AUTO 04004KT 10SM CLR A3024 RMK MADISHF
DSM,2017-04-01 13:25,-93.6531,41.5339,M,M,M,40.00,4.00,M,30.24,M,10.00,M,CLR,M,M,M,M,M,M,M,M,KDSM 011325Z AUTO 04004KT 10SM CLR A3024 RMK MADISHF
DSM,2017-04-01 13:30,-93.6531,41.5339,M,M,M,40.00,4.00,M,30.24,M,10.00,M,CLR,M,M,M,M,M,M,M,M,KDSM 011330Z AUTO 04004KT 10SM CLR A3024 RMK MADISHF
DSM,2017-04-01 13:35,-93.6531,41.5339,M,M,M,0.00,0.00,M,30.24,M,10.00,M,CLR,M,M,M,M,M,M,M,M,KDSM 011335Z AUTO 00000KT 10SM CLR A3024 RMK MADISHF
DSM,2017-04-01 13:40,-93.6531,41.5339,M,M,M,40.00,4.00,M,30.25,M,10.00,M,CLR,M,M,M,M,M,M,M,M,KDSM 011340Z AUTO 04004KT 10SM CLR A3025 RMK MADISHF
DSM,2017-04-01 13:45,-93.6531,41.5339,M,M,M,50.00,4.00,M,30.25,M,10.00,M,CLR,M,M,M,M,M,M,M,M,KDSM 011345Z AUTO 05004KT 10SM CLR A3025 RMK MADISHF
DSM,2017-04-01 13:50,-93.6531,41.5339,M,M,M,40.00,6.00,M,30.24,M,10.00,M,FEW,M,M,M,12000.00,M,M,M,M,KDSM 011350Z AUTO 04006KT 10SM FEW120 A3024 RMK MADISHF
DSM,2017-04-01 13:54,-93.6531,41.5339,44.10,37.00,75.93,40.00,6.00,0.00,30.24,1024.50,10.00,M,FEW,BKN,OVC,M,12000.00,20000.00,30000.00,M,M,KDSM 011354Z 04006KT 10SM FEW120 BKN200 OVC300 07/03 A3024 RMK AO2 SLP245 T00670028
DSM,2017-04-01 13:55,-93.6531,41.5339,M,M,M,40.00,6.00,M,30.24,M,10.00,M,CLR,M,M,M,M,M,M,M,M,KDSM 011355Z AUTO 04006KT 10SM CLR A3024 RMK MADISHF
DSM,2017-04-01 14:00,-93.6531,41.5339,M,M,M,30.00,5.00,M,30.24,M,10.00,M,CLR,M,M,M,M,M,M,M,M,KDSM 011400Z AUTO 03005KT 10SM CLR A3024 RMK MADISHF
DSM,2017-04-01 14:05,-93.6531,41.5339,M,M,M,40.00,5.00,M,30.24,M,10.00,M,CLR,M,M,M,M,M,M,M,M,KDSM 011405Z AUTO 04005KT 10SM CLR A3024 RMK MADISHF
DSM,2017-04-01 14:10,-93.6531,41.5339,M,M,M,30.00,5.00,M,30.23,M,10.00,M,CLR,M,M,M,M,M,M,M,M,KDSM 011410Z AUTO 03005KT 10SM CLR A3023 RMK MADISHF
DSM,2017-04-01 14:15,-93.6531,41.5339,M,M,M,30.00,5.00,M,30.24,M,10.00,M,CLR,M,M,M,M,M,M,M,M,KDSM 011415Z AUTO 03005KT 10SM CLR A3024 RMK MADISHF
DSM,2017-04-01 14:20,-93.6531,41.5339,M,M,M,20.00,3.00,M,30.24,M,10.00,M,CLR,M,M,M,M,M,M,M,M,KDSM 011420Z AUTO 02003KT 10SM CLR A3024 RMK MADISHF
DSM,2017-04-01 14:25,-93.6531,41.5339,M,M,M,30.00,3.00,M,30.24,M,10.00,M,CLR,M,M,M,M,M,M,M,M,KDSM 011425Z AUTO 03003KT 10SM CLR A3024 RMK MADISHF
DSM,2017-04-01 14:30,-93.6531,41.5339,M,M,M,30.00,4.00,M,30.24,M,10.00,M,CLR,M,M,M,M,M,M,M,M,KDSM 011430Z AUTO 03004KT 10SM CLR A3024 RMK MADISHF
DSM,2017-04-01 14:35,-93.6531,41.5339,M,M,M,40.00,3.00,M,30.24,M,10.00,M,CLR,M,M,M,M,M,M,M,M,KDSM 011435Z AUTO 04003KT 10SM CLR A3024 RMK MADISHF
DSM,2017-04-01 14:40,-93.6531,41.5339,M,M,M,30.00,4.00,M,30.24,M,10.00,M,CLR,M,M,M,M,M,M,M,M,KDSM 011440Z AUTO 03004KT 10SM CLR A3024 RMK MADISHF
DSM,2017-04-01 14:45,-93.6531,41.5339,M,M,M,40.00,3.00,M,30.24,M,10.00,M,CLR,M,M,M,M,M,M,M,M,KDSM 011445Z AUTO 04003KT 10SM CLR A3024 RMK MADISHF
DSM,2017-04-01 14:50,-93.6531,41.5339,M,M,M,30.00,4.00,M,30.24,M,10.00,M,CLR,M,M,M,M,M,M,M,M,KDSM 011450Z AUTO 03004KT 10SM CLR A3024 RMK MADISHF
DSM,2017-04-01 14:54,-93.6531,41.5339,46.90,36.00,65.63,50.00,4.00,0.00,30.24,1024.60,10.00,M,FEW,SCT,OVC,M,12000.00,20000.00,30000.00,M,M,KDSM 011454Z 05004KT 10SM FEW120 SCT200 OVC300 08/02 A3024 RMK AO2 SLP246 T00830022 51006
DSM,2017-04-01 14:55,-93.6531,41.5339,M,M,M,40.00,4.00,M,30.24,M,10.00,M,CLR,M,M,M,M,M,M,M,M,KDSM 011455Z AUTO 04004KT 10SM CLR A3024 RMK MADISHF
DSM,2017-04-01 15:00,-93.6531,41.5339,M,M,M,30.00,4.00,M,30.25,M,10.00,M,CLR,M,M,M,M,M,M,M,M,KDSM 011500Z AUTO 03004KT 10SM CLR A3025 RMK MADISHF
DSM,2017-04-01 15:05,-93.6531,41.5339,M,M,M,40.00,3.00,M,30.24,M,10.00,M,CLR,M,M,M,M,M,M,M,M,KDSM 011505Z AUTO 04003KT 10SM CLR A3024 RMK MADISHF
DSM,2017-04-01 15:10,-93.6531,41.5339,M,M,M,60.00,4.00,M,30.25,M,10.00,M,CLR,M,M,M,M,M,M,M,M,KDSM 011510Z AUTO 06004KT 10SM CLR A3025 RMK MADISHF
DSM,2017-04-01 15:15,-93.6531,41.5339,M,M,M,80.00,4.00,M,30.25,M,10.00,M,CLR,M,M,M,M,M,M,M,M,KDSM 011515Z AUTO 08004KT 10SM CLR A3025 RMK MADISHF
DSM,2017-04-01 15:20,-93.6531,41.5339,M,M,M,50.00,3.00,M,30.25,M,10.00,M,CLR,M,M,M,M,M,M,M,M,KDSM 011520Z AUTO 05003KT 10SM CLR A3025 RMK VRB03KT  MADISHF
DSM,2017-04-01 15:25,-93.6531,41.5339,M,M,M,50.00,4.00,M,30.26,M,10.00,M,CLR,M,M,M,M,M,M,M,M,KDSM 011525Z AUTO 05004KT 10SM CLR A3026 RMK MADISHF
DSM,2017-04-01 15:30,-93.6531,41.5339,M,M,M,0.00,0.00,M,30.26,M,10.00,M,CLR,M,M,M,M,M,M,M,M,KDSM 011530Z AUTO 00000KT 10SM CLR A3026 RMK MADISHF
DSM,2017-04-01 15:35,-93.6531,41.5339,M,M,M,0.00,0.00,M,30.26,M,10.00,M,CLR,M,M,M,M,M,M,M,M,KDSM 011535Z AUTO 00000KT 10SM CLR A3026 RMK MADISHF
DSM,2017-04-01 15:40,-93.6531,41.5339,M,M,M,0.00,0.00,M,30.26,M,10.00,M,CLR,M,M,M,M,M,M,M,M,KDSM 011540Z AUTO 00000KT 10SM CLR A3026 RMK MADISHF
DSM,2017-04-01 15:45,-93.6531,41.5339,M,M,M,50.00,3.00,M,30.26,M,10.00,M,CLR,M,M,M,M,M,M,M,M,KDSM 011545Z AUTO 05003KT 10SM CLR A3026 RMK MADISHF
DSM,2017-04-01 15:50,-93.6531,41.5339,M,M,M,0.00,0.00,M,30.26,M,10.00,M,CLR,M,M,M,M,M,M,M,M,KDSM 011550Z AUTO 00000KT 10SM CLR A3026 RMK MADISHF
DSM,2017-04-01 15:54,-93.6531,41.5339,48.90,36.00,60.88,0.00,0.00,0.00,30.26,1025.30,10.00,M,FEW,SCT,OVC,M,19000.00,25000.00,30000.00,M,M,KDSM 011554Z 00000KT 10SM FEW190 SCT250 OVC300 09/02 A3026 RMK AO2 SLP253 T00940022
DSM,2017-04-01 15:55,-93.6531,41.5339,M,M,M,0.00,0.00,M,30.26,M,10.00,M,CLR,M,M,M,M,M,M,M,M,KDSM 011555Z AUTO 00000KT 10SM CLR A3026 RMK MADISHF
DSM,2017-04-01 16:00,-93.6531,41.5339,M,M,M,0.00,0.00,M,30.26,M,10.00,M,CLR,M,M,M,M,M,M,M,M,KDSM 011600Z AUTO 00000KT 10SM CLR A3026 RMK MADISHF
DSM,2017-04-01 16:05,-93.6531,41.5339,M,M,M,0.00,0.00,M,30.26,M,10.00,M,CLR,M,M,M,M,M,M,M,M,KDSM 011605Z AUTO 00000KT 10SM CLR A3026 RMK MADISHF
DSM,2017-04-01 16:10,-93.6531,41.5339,M,M,M,0.00,0.00,M,30.26,M,10.00,M,CLR,M,M,M,M,M,M,M,M,KDSM 011610Z AUTO 00000KT 10SM CLR A3026 RMK MADISHF
DSM,2017-04-01 16:15,-93.6531,41.5339,M,M,M,90.00,3.00,M,30.26,M,10.00,M,CLR,M,M,M,M,M,M,M,M,KDSM 011615Z AUTO 09003KT 10SM CLR A3026 RMK MADISHF
DSM,2017-04-01 16:20,-93.6531,41.5339,M,M,M,110.00,3.00,M,30.26,M,10.00,M,CLR,M,M,M,M,M,M,M,M,KDSM 011620Z AUTO 11003KT 10SM CLR A3026 RMK VRB03KT  MADISHF
DSM,2017-04-01 16:25,-93.6531,41.5339,M,M,M,0.00,0.00,M,30.26,M,10.00,M,CLR,M,M,M,M,M,M,M,M,KDSM 011625Z AUTO 00000KT 10SM CLR A3026 RMK MADISHF
DSM,2017-04-01 16:30,-93.6531,41.5339,M,M,M,0.00,0.00,M,30.25,M,10.00,M,CLR,M,M,M,M,M,M,M,M,KDSM 011630Z AUTO 00000KT 10SM CLR A3025 RMK MADISHF
DSM,2017-04-01 16:35,-93.6531,41.5339,M,M,M,140.00,3.00,M,30.26,M,10.00,M,CLR,M,M,M,M,M,M,M,M,KDSM 011635Z AUTO 14003KT 10SM CLR A3026 RMK MADISHF
DSM,2017-04-01 16:40,-93.6531,41.5339,M,M,M,180.00,3.00,M,30.26,M,10.00,M,FEW,M,M,M,12000.00,M,M,M,M,KDSM 011640Z AUTO 18003KT 10SM FEW120 A3026 RMK MADISHF
DSM,2017-04-01 16:45,-93.6531,41.5339,M,M,M,160.00,4.00,M,30.26,M,10.00,M,FEW,M,M,M,12000.00,M,M,M,M,KDSM 011645Z AUTO 16004KT 10SM FEW120 A3026 RMK MADISHF
DSM,2017-04-01 16:50,-93.6531,41.5339,M,M,M,150.00,5.00,M,30.26,M,10.00,M,FEW,M,M,M,12000.00,M,M,M,M,KDSM 011650Z AUTO 15005KT 10SM FEW120 A3026 RMK MADISHF
DSM,2017-04-01 16:54,-93.6531,41.5339,50.00,35.10,56.39,160.00,5.00,0.00,30.26,1025.00,10.00,M,FEW,BKN,OVC,M,12000.00,20000.00,25000.00,M,M,KDSM 011654Z 16005KT 10SM FEW120 BKN200 OVC250 10/02 A3026 RMK AO2 SLP250 T01000017
DSM,2017-04-01 16:55,-93.6531,41.5339,M,M,M,160.00,5.00,M,30.26,M,10.00,M,CLR,M,M,M,M,M,M,M,M,KDSM 011655Z AUTO 16005KT 10SM CLR A3026 RMK MADISHF
DSM,2017-04-01 17:00,-93.6531,41.5339,M,M,M,160.00,5.00,M,30.26,M,10.00,M,CLR,M,M,M,M,M,M,M,M,KDSM 011700Z AUTO 16005KT 10SM CLR A3026 RMK MADISHF
DSM,2017-04-01 17:05,-93.6531,41.5339,M,M,M,150.00,5.00,M,30.25,M,10.00,M,CLR,M,M,M,M,M,M,M,M,KDSM 011705Z AUTO 15005KT 10SM CLR A3025 RMK MADISHF
DSM,2017-04-01 17:10,-93.6531,41.5339,M,M,M,120.00,6.00,M,30.25,M,10.00,M,CLR,M,M,M,M,M,M,M,M,KDSM 011710Z AUTO 12006KT 10SM CLR A3025 RMK MADISHF
DSM,2017-04-01 17:15,-93.6531,41.5339,M,M,M,140.00,5.00,M,30.25,M,10.00,M,CLR,M,M,M,M,M,M,M,M,KDSM 011715Z AUTO 14005KT 10SM CLR A3025 RMK MADISHF
DSM,2017-04-01 17:20,-93.6531,41.5339,M,M,M,110.00,4.00,M,30.24,M,10.00,M,CLR,M,M,M,M,M,M,M,M,KDSM 011720Z AUTO 11004KT 10SM CLR A3024 RMK MADISHF
DSM,2017-04-01 17:25,-93.6531,41.5339,M,M,M,130.00,5.00,M,30.24,M,10.00,M,CLR,M,M,M,M,M,M,M,M,KDSM 011725Z AUTO 13005KT 10SM CLR A3024 RMK MADISHF
DSM,2017-04-01 17:30,-93.6531,41.5339,M,M,M,120.00,4.00,M,30.24,M,10.00,M,CLR,M,M,M,M,M,M,M,M,KDSM 011730Z AUTO 12004KT 10SM CLR A3024 RMK MADISHF
DSM,2017-04-01 17:35,-93.6531,41.5339,M,M,M,110.00,4.00,M,30.23,M,10.00,M,CLR,M,M,M,M,M,M,M,M,KDSM 011735Z AUTO 11004KT 10SM CLR A3023 RMK VRB04KT  MADISHF
DSM,2017-04-01 17:40,-93.6531,41.5339,M,M,M,130.00,4.00,M,30.23,M,10.00,M,CLR,M,M,M,M,M,M,M,M,KDSM 011740Z AUTO 13004KT 10SM CLR A3023 RMK MADISHF
DSM,2017-04-01 17:45,-93.6531,41.5339,M,M,M,150.00,6.00,M,30.23,M,10.00,M,CLR,M,M,M,M,M,M,M,M,KDSM 011745Z AUTO 15006KT 10SM CLR A3023 RMK MADISHF
DSM,2017-04-01 17:50,-93.6531,41.5339,M,M,M,140.00,6.00,M,30.23,M,10.00,M,FEW,M,M,M,12000.00,M,M,M,M,KDSM 011750Z AUTO 14006KT 10SM FEW120 A3023 RMK MADISHF
DSM,2017-04-01 17:54,-93.6531,41.5339,52.00,35.10,52.36,130.00,8.00,0.00,30.24,1024.20,10.00,M,FEW,BKN,OVC,M,12000.00,20000.00,25000.00,M,M,KDSM 011754Z 13008KT 10SM FEW120 BKN200 OVC250 11/02 A3024 RMK AO2 SLP242 T01110017 10111 20033 58003
DSM,2017-04-01 17:55,-93.6531,41.5339,M,M,M,120.00,6.00,M,30.23,M,10.00,M,CLR,M,M,M,M,M,M,M,M,KDSM 011755Z AUTO 12006KT 10SM CLR A3023 RMK MADISHF
DSM,2017-04-01 18:00,-93.6531,41.5339,M,M,M,120.00,6.00,M,30.23,M,10.00,M,CLR,M,M,M,M,M,M,M,M,KDSM 011800Z AUTO 12006KT 10SM CLR A3023 RMK MADISHF
DSM,2017-04-01 18:05,-93.6531,41.5339,M,M,M,130.00,6.00,M,30.23,M,10.00,M,CLR,M,M,M,M,M,M,M,M,KDSM 011805Z AUTO 13006KT 10SM CLR A3023 RMK MADISHF
DSM,2017-04-01 18:10,-93.6531,41.5339,M,M,M,140.00,6.00,M,30.22,M,10.00,M,CLR,M,M,M,M,M,M,M,M,KDSM 011810Z AUTO 14006KT 10SM CLR A3022 RMK MADISHF
DSM,2017-04-01 18:15,-93.6531,41.5339,M,M,M,150.00,5.00,M,30.23,M,10.00,M,CLR,M,M,M,M,M,M,M,M,KDSM 011815Z AUTO 15005KT 10SM CLR A3023 RMK MADISHF
DSM,2017-04-01 18:20,-93.6531,41.5339,M,M,M,130.00,5.00,M,30.23,M,10.00,M,CLR,M,M,M,M,M,M,M,M,KDSM 011820Z AUTO 13005KT 10SM CLR A3023 RMK MADISHF
DSM,2017-04-01 18:25,-93.6531,41.5339,M,M,M,100.00,5.00,M,30.23,M,10.00,M,CLR,M,M,M,M,M,M,M,M,KDSM 011825Z AUTO 10005KT 10SM CLR A3023 RMK MADISHF
DSM,2017-04-01 18:30,-93.6531,41.5339,M,M,M,100.00,5.00,M,30.23,M,10.00,M,CLR,M,M,M,M,M,M,M,M,KDSM 011830Z AUTO 10005KT 10SM CLR A3023 RMK MADISHF
DSM,2017-04-01 18:35,-93.6531,41.5339,M,M,M,0.00,0.00,M,30.23,M,10.00,M,CLR,M,M,M,M,M,M,M,M,KDSM 011835Z AUTO 00000KT 10SM CLR A3023 RMK MADISHF
DSM,2017-04-01 18:40,-93.6531,41.5339,M,M,M,120.00,5.00,M,30.23,M,10.00,M,CLR,M,M,M,M,M,M,M,M,KDSM 011840Z AUTO 12005KT 10SM CLR A3023 RMK MADISHF
DSM,2017-04-01 18:45,-93.6531,41.5339,M,M,M,150.00,6.00,M,30.23,M,10.00,M,CLR,M,M,M,M,M,M,M,M,KDSM 011845Z AUTO 15006KT 10SM CLR A3023 RMK MADISHF
DSM,2017-04-01 18:50,-93.6531,41.5339,M,M,M,140.00,4.00,M,30.23,M,10.00,M,FEW,M,M,M,12000.00,M,M,M,M,KDSM 011850Z AUTO 14004KT 10SM FEW120 A3023 RMK MADISHF
DSM,2017-04-01 18:54,-93.6531,41.5339,52.00,35.10,52.36,0.00,0.00,0.00,30.22,1023.80,10.00,M,FEW,OVC,M,M,12000.00,25000.00,M,M,M,KDSM 011854Z 00000KT 10SM FEW120 OVC250 11/02 A3022 RMK AO2 SLP238 T01110017
DSM,2017-04-01 18:55,-93.6531,41.5339,M,M,M,150.00,3.00,M,30.22,M,10.00,M,CLR,M,M,M,M,M,M,M,M,KDSM 011855Z AUTO 15003KT 10SM CLR A3022 RMK MADISHF
DSM,2017-04-01 19:00,-93.6531,41.5339,M,M,M,130.00,6.00,M,30.22,M,10.00,M,CLR,M,M,M,M,M,M,M,M,KDSM 011900Z AUTO 13006KT 10SM CLR A3022 RMK MADISHF
DSM,2017-04-01 19:05,-93.6531,41.5339,M,M,M,110.00,4.00,M,30.21,M,10.00,M,CLR,M,M,M,M,M,M,M,M,KDSM 011905Z AUTO 11004KT 10SM CLR A3021 RMK MADISHF
DSM,2017-04-01 19:10,-93.6531,41.5339,M,M,M,120.00,6.00,M,30.21,M,10.00,M,CLR,M,M,M,M,M,M,M,M,KDSM 011910Z AUTO 12006KT 10SM CLR A3021 RMK MADISHF
DSM,2017-04-01 19:15,-93.6531,41.5339,M,M,M,110.00,5.00,M,30.21,M,10.00,M,CLR,M,M,M,M,M,M,M,M,KDSM 011915Z AUTO 11005KT 10SM CLR A3021 RMK MADISHF
DSM,2017-04-01 19:20,-93.6531,41.5339,M,M,M,160.00,5.00,M,30.21,M,10.00,M,CLR,M,M,M,M,M,M,M,M,KDSM 011920Z AUTO 16005KT 10SM CLR A3021 RMK MADISHF
DSM,2017-04-01 19:25,-93.6531,41.5339,M,M,M,100.00,5.00,M,30.21,M,10.00,M,FEW,M,M,M,12000.00,M,M,M,M,KDSM 011925Z AUTO 10005KT 10SM FEW120 A3021 RMK VRB05KT  MADISHF
DSM,2017-04-01 19:30,-93.6531,41.5339,M,M,M,130.00,3.00,M,30.21,M,10.00,M,SCT,M,M,M,12000.00,M,M,M,M,KDSM 011930Z AUTO 13003KT 10SM SCT120 A3021 RMK MADISHF
DSM,2017-04-01 19:35,-93.6531,41.5339,M,M,M,150.00,4.00,M,30.21,M,10.00,M,SCT,M,M,M,12000.00,M,M,M,M,KDSM 011935Z AUTO 15004KT 10SM SCT120 A3021 RMK MADISHF
DSM,2017-04-01 19:40,-93.6531,41.5339,M,M,M,150.00,5.00,M,30.21,M,10.00,M,BKN,M,M,M,11000.00,M,M,M,M,KDSM 011940Z AUTO 15005KT 10SM BKN110 A3021 RMK MADISHF
DSM,2017-04-01 19:45,-93.6531,41.5339,M,M,M,70.00,3.00,M,30.20,M,10.00,M,BKN,M,M,M,11000.00,M,M,M,M,KDSM 011945Z AUTO 07003KT 10SM BKN110 A3020 RMK VRB03KT  MADISHF
DSM,2017-04-01 19:50,-93.6531,41.5339,M,M,M,60.00,4.00,M,30.20,M,10.00,M,BKN,M,M,M,11000.00,M,M,M,M,KDSM 011950Z AUTO 06004KT 10SM BKN110 A3020 RMK MADISHF
DSM,2017-04-01 19:54,-93.6531,41.5339,53.10,35.10,50.28,80.00,3.00,0.00,30.20,1023.10,10.00,M,BKN,OVC,M,M,11000.00,20000.00,M,M,M,KDSM 011954Z 08003KT 10SM BKN110 OVC200 12/02 A3020 RMK AO2 SLP231 T01170017
DSM,2017-04-01 19:55,-93.6531,41.5339,M,M,M,90.00,3.00,M,30.20,M,10.00,M,BKN,M,M,M,11000.00,M,M,M,M,KDSM 011955Z AUTO 09003KT 10SM BKN110 A3020 RMK MADISHF
DSM,2017-04-01 20:00,-93.6531,41.5339,M,M,M,90.00,3.00,M,30.20,M,10.00,M,BKN,M,M,M,11000.00,M,M,M,M,KDSM 012000Z AUTO 09003KT 10SM BKN110 A3020 RMK MADISHF
DSM,2017-04-01 20:05,-93.6531,41.5339,M,M,M,0.00,0.00,M,30.20,M,10.00,M,OVC,M,M,M,10000.00,M,M,M,M,KDSM 012005Z AUTO 00000KT 10SM OVC100 A3020 RMK MADISHF
DSM,2017-04-01 20:10,-93.6531,41.5339,M,M,M,90.00,3.00,M,30.19,M,10.00,M,OVC,M,M,M,10000.00,M,M,M,M,KDSM 012010Z AUTO 09003KT 10SM OVC100 A3019 RMK MADISHF
DSM,2017-04-01 20:15,-93.6531,41.5339,M,M,M,60.00,4.00,M,30.19,M,10.00,M,BKN,OVC,M,M,10000.00,11000.00,M,M,M,KDSM 012015Z AUTO 06004KT 10SM BKN100 OVC110 A3019 RMK MADISHF
DSM,2017-04-01 20:20,-93.6531,41.5339,M,M,M,60.00,6.00,M,30.19,M,10.00,M,OVC,M,M,M,10000.00,M,M,M,M,KDSM 012020Z AUTO 06006KT 10SM OVC100 A3019 RMK MADISHF
DSM,2017-04-01 20:25,-93.6531,41.5339,M,M,M,50.00,7.00,M,30.18,M,10.00,M,OVC,M,M,M,9500.00,M,M,M,M,KDSM 012025Z AUTO 05007KT 10SM OVC095 A3018 RMK MADISHF
DSM,2017-04-01 20:30,-93.6531,41.5339,M,M,M,30.00,6.00,M,30.17,M,10.00,M,OVC,M,M,M,9500.00,M,M,M,M,KDSM 012030Z AUTO 03006KT 10SM OVC095 A3017 RMK MADISHF
DSM,2017-04-01 20:35,-93.6531,41.5339,M,M,M,50.00,7.00,M,30.17,M,10.00,M,OVC,M,M,M,9500.00,M,M,M,M,KDSM 012035Z AUTO 05007KT 10SM OVC095 A3017 RMK MADISHF
DSM,2017-04-01 20:40,-93.6531,41.5339,M,M,M,70.00,6.00,M,30.18,M,10.00,M,OVC,M,M,M,9500.00,M,M,M,M,KDSM 012040Z AUTO 07006KT 10SM OVC095 A3018 RMK MADISHF
DSM,2017-04-01 20:45,-93.6531,41.5339,M,M,M,80.00,4.00,M,30.18,M,10.00,M,OVC,M,M,M,9500.00,M,M,M,M,KDSM 012045Z AUTO 08004KT 10SM OVC095 A3018 RMK MADISHF
DSM,2017-04-01 20:50,-93.6531,41.5339,M,M,M,70.00,6.00,M,30.18,M,10.00,M,BKN,M,M,M,9500.00,M,M,M,M,KDSM 012050Z AUTO 07006KT 10SM BKN095 A3018 RMK MADISHF
DSM,2017-04-01 20:54,-93.6531,41.5339,54.00,35.10,48.65,M,3.00,0.00,30.19,1022.60,10.00,M,BKN,OVC,M,M,9500.00,20000.00,M,M,M,KDSM 012054Z VRB03KT 10SM BKN095 OVC200 12/02 A3019 RMK AO2 SLP226 T01220017 56016
DSM,2017-04-01 20:55,-93.6531,41.5339,M,M,M,0.00,0.00,M,30.19,M,10.00,M,OVC,M,M,M,9500.00,M,M,M,M,KDSM 012055Z AUTO 00000KT 10SM OVC095 A3019 RMK MADISHF
DSM,2017-04-01 21:00,-93.6531,41.5339,M,M,M,90.00,3.00,M,30.19,M,10.00,M,OVC,M,M,M,9000.00,M,M,M,M,KDSM 012100Z AUTO 09003KT 10SM OVC090 A3019 RMK VRB03KT  MADISHF
DSM,2017-04-01 21:05,-93.6531,41.5339,M,M,M,130.00,4.00,M,30.19,M,10.00,M,BKN,M,M,M,9000.00,M,M,M,M,KDSM 012105Z AUTO 13004KT 10SM BKN090 A3019 RMK MADISHF
DSM,2017-04-01 21:10,-93.6531,41.5339,M,M,M,80.00,5.00,M,30.19,M,10.00,M,BKN,BKN,M,M,9000.00,11000.00,M,M,M,KDSM 012110Z AUTO 08005KT 10SM BKN090 BKN110 A3019 RMK MADISHF
DSM,2017-04-01 21:15,-93.6531,41.5339,M,M,M,80.00,3.00,M,30.19,M,10.00,M,BKN,M,M,M,10000.00,M,M,M,M,KDSM 012115Z AUTO 08003KT 10SM BKN100 A3019 RMK MADISHF
DSM,2017-04-01 21:20,-93.6531,41.5339,M,M,M,80.00,5.00,M,30.19,M,10.00,M,BKN,M,M,M,9500.00,M,M,M,M,KDSM 012120Z AUTO 08005KT 10SM BKN095 A3019 RMK MADISHF
DSM,2017-04-01 21:25,-93.6531,41.5339,M,M,M,130.00,6.00,M,30.19,M,10.00,M,BKN,M,M,M,9500.00,M,M,M,M,KDSM 012125Z AUTO 13006KT 10SM BKN095 A3019 RMK VRB06KT  MADISHF
DSM,2017-04-01 21:30,-93.6531,41.5339,M,M,M,100.00,5.00,M,30.18,M,10.00,M,OVC,M,M,M,10000.00,M,M,M,M,KDSM 012130Z AUTO 10005KT 10SM OVC100 A3018 RMK MADISHF
DSM,2017-04-01 21:35,-93.6531,41.5339,M,M,M,80.00,5.00,M,30.18,M,10.00,M,OVC,M,M,M,10000.00,M,M,M,M,KDSM 012135Z AUTO 08005KT 10SM OVC100 A3018 RMK MADISHF
DSM,2017-04-01 21:40,-93.6531,41.5339,M,M,M,110.00,6.00,M,30.18,M,10.00,M,OVC,M,M,M,10000.00,M,M,M,M,KDSM 012140Z AUTO 11006KT 10SM OVC100 A3018 RMK MADISHF
DSM,2017-04-01 21:45,-93.6531,41.5339,M,M,M,70.00,3.00,M,30.19,M,10.00,M,OVC,M,M,M,10000.00,M,M,M,M,KDSM 012145Z AUTO 07003KT 10SM OVC100 A3019 RMK MADISHF
DSM,2017-04-01 21:50,-93.6531,41.5339,M,M,M,50.00,8.00,M,30.19,M,10.00,M,OVC,M,M,M,10000.00,M,M,M,M,KDSM 012150Z AUTO 05008KT 10SM OVC100 A3019 RMK MADISHF
DSM,2017-04-01 21:54,-93.6531,41.5339,54.00,35.10,48.65,60.00,5.00,0.00,30.18,1022.60,10.00,M,FEW,BKN,OVC,M,8500.00,10000.00,20000.00,M,M,KDSM 012154Z 06005KT 10SM FEW085 BKN100 OVC200 12/02 A3018 RMK AO2 SLP226 T01220017
DSM,2017-04-01 21:55,-93.6531,41.5339,M,M,M,60.00,5.00,M,30.18,M,10.00,M,OVC,M,M,M,10000.00,M,M,M,M,KDSM 012155Z AUTO 06005KT 10SM OVC100 A3018 RMK MADISHF
DSM,2017-04-01 22:00,-93.6531,41.5339,M,M,M,80.00,6.00,M,30.18,M,10.00,M,OVC,M,M,M,10000.00,M,M,M,M,KDSM 012200Z AUTO 08006KT 10SM OVC100 A3018 RMK MADISHF
DSM,2017-04-01 22:05,-93.6531,41.5339,M,M,M,90.00,7.00,M,30.18,M,10.00,M,OVC,M,M,M,10000.00,M,M,M,M,KDSM 012205Z AUTO 09007KT 10SM OVC100 A3018 RMK WND 05V11  MADISHF
DSM,2017-04-01 22:10,-93.6531,41.5339,M,M,M,90.00,6.00,M,30.18,M,10.00,M,OVC,M,M,M,10000.00,M,M,M,M,KDSM 012210Z AUTO 09006KT 10SM OVC100 A3018 RMK MADISHF
DSM,2017-04-01 22:15,-93.6531,41.5339,M,M,M,70.00,7.00,M,30.18,M,10.00,M,OVC,M,M,M,10000.00,M,M,M,M,KDSM 012215Z AUTO 07007KT 10SM OVC100 A3018 RMK MADISHF
DSM,2017-04-01 22:20,-93.6531,41.5339,M,M,M,90.00,6.00,M,30.17,M,10.00,M,OVC,M,M,M,10000.00,M,M,M,M,KDSM 012220Z AUTO 09006KT 10SM OVC100 A3017 RMK MADISHF
DSM,2017-04-01 22:25,-93.6531,41.5339,M,M,M,70.00,8.00,M,30.17,M,10.00,M,OVC,M,M,M,10000.00,M,M,M,M,KDSM 012225Z AUTO 07008KT 10SM OVC100 A3017 RMK MADISHF
DSM,2017-04-01 22:30,-93.6531,41.5339,M,M,M,70.00,7.00,M,30.17,M,10.00,M,OVC,M,M,M,9500.00,M,M,M,M,KDSM 012230Z AUTO 07007KT 10SM OVC095 A3017 RMK MADISHF
DSM,2017-04-01 22:35,-93.6531,41.5339,M,M,M,90.00,6.00,M,30.17,M,10.00,M,OVC,M,M,M,9500.00,M,M,M,M,KDSM 012235Z AUTO 09006KT 10SM OVC095 A3017 RMK MADISHF
DSM,2017-04-01 22:40,-93.6531,41.5339,M,M,M,80.00,7.00,M,30.17,M,10.00,M,OVC,M,M,M,9500.00,M,M,M,M,KDSM 012240Z AUTO 08007KT 10SM OVC095 A3017 RMK MADISHF
DSM,2017-04-01 22:45,-93.6531,41.5339,M,M,M,80.00,6.00,M,30.17,M,10.00,M,OVC,M,M,M,9500.00,M,M,M,M,KDSM 012245Z AUTO 08006KT 10SM OVC095 A3017 RMK MADISHF
DSM,2017-04-01 22:50,-93.6531,41.5339,M,M,M,70.00,6.00,M,30.17,M,10.00,M,OVC,M,M,M,9500.00,M,M,M,M,KDSM 012250Z AUTO 07006KT 10SM OVC095 A3017 RMK MADISHF
DSM,2017-04-01 22:54,-93.6531,41.5339,54.00,35.10,48.65,70.00,6.00,0.00,30.17,1022.20,10.00,M,OVC,M,M,M,9500.00,M,M,M,M,KDSM 012254Z 07006KT 10SM OVC095 12/02 A3017 RMK AO2 SLP222 T01220017
DSM,2017-04-01 22:55,-93.6531,41.5339,M,M,M,70.00,6.00,M,30.17,M,10.00,M,OVC,M,M,M,9500.00,M,M,M,M,KDSM 012255Z AUTO 07006KT 10SM OVC095 A3017 RMK MADISHF
DSM,2017-04-01 23:00,-93.6531,41.5339,M,M,M,80.00,6.00,M,30.17,M,10.00,M,OVC,M,M,M,9500.00,M,M,M,M,KDSM 012300Z AUTO 08006KT 10SM OVC095 A3017 RMK MADISHF
DSM,2017-04-01 23:05,-93.6531,41.5339,M,M,M,70.00,4.00,M,30.17,M,10.00,M,OVC,M,M,M,9500.00,M,M,M,M,KDSM 012305Z AUTO 07004KT 10SM OVC095 A3017 RMK MADISHF
DSM,2017-04-01 23:10,-93.6531,41.5339,M,M,M,90.00,5.00,M,30.16,M,10.00,M,OVC,M,M,M,9500.00,M,M,M,M,KDSM 012310Z AUTO 09005KT 10SM OVC095 A3016 RMK MADISHF
DSM,2017-04-01 23:15,-93.6531,41.5339,M,M,M,60.00,5.00,M,30.16,M,10.00,M,OVC,M,M,M,9500.00,M,M,M,M,KDSM 012315Z AUTO 06005KT 10SM OVC095 A3016 RMK MADISHF
DSM,2017-04-01 23:20,-93.6531,41.5339,M,M,M,70.00,6.00,M,30.16,M,10.00,M,OVC,M,M,M,9500.00,M,M,M,M,KDSM 012320Z AUTO 07006KT 10SM OVC095 A3016 RMK MADISHF
DSM,2017-04-01 23:25,-93.6531,41.5339,M,M,M,60.00,6.00,M,30.16,M,10.00,M,OVC,M,M,M,9500.00,M,M,M,M,KDSM 012325Z AUTO 06006KT 10SM OVC095 A3016 RMK MADISHF
DSM,2017-04-01 23:30,-93.6531,41.5339,M,M,M,60.00,7.00,M,30.16,M,10.00,M,OVC,M,M,M,9500.00,M,M,M,M,KDSM 012330Z AUTO 06007KT 10SM OVC095 A3016 RMK MADISHF
DSM,2017-04-01 23:35,-93.6531,41.5339,M,M,M,60.00,7.00,M,30.16,M,10.00,M,OVC,M,M,M,9500.00,M,M,M,M,KDSM 012335Z AUTO 06007KT 10SM OVC095 A3016 RMK MADISHF
DSM,2017-04-01 23:40,-93.6531,41.5339,M,M,M,50.00,5.00,M,30.17,M,10.00,M,OVC,M,M,M,9500.00,M,M,M,M,KDSM 012340Z AUTO 05005KT 10SM OVC095 A3017 RMK MADISHF
DSM,2017-04-01 23:45,-93.6531,41.5339,M,M,M,50.00,4.00,M,30.17,M,10.00,M,OVC,M,M,M,9000.00,M,M,M,M,KDSM 012345Z AUTO 05004KT 10SM OVC090 A3017 RMK MADISHF
DSM,2017-04-01 23:50,-93.6531,41.5339,M,M,M,80.00,4.00,M,30.17,M,10.00,M,OVC,M,M,M,9000.00,M,M,M,M,KDSM 012350Z AUTO 08004KT 10SM OVC090 A3017 RMK MADISHF
DSM,2017-04-01 23:54,-93.6531,41.5339,53.10,36.00,52.11,70.00,4.00,0.00,30.17,1022.20,10.00,M,BKN,OVC,M,M,9000.00,20000.00,M,M,M,KDSM 012354Z 07004KT 10SM BKN090 OVC200 12/02 A3017 RMK AO2 SLP222 T01170022 10128 20111 55005
DSM,2017-04-01 23:55,-93.6531,41.5339,M,M,M,70.00,5.00,M,30.17,M,10.00,M,OVC,M,M,M,9000.00,M,M,M,M,KDSM 012355Z AUTO 07005KT 10SM OVC090 A3017 RMK MADISHF
