#DEBUG: Format Typ    -> comma
#DEBUG: Time Period   -> 2017-04-01 00:00:00+00:00 2017-04-02 00:00:00+00:00
#DEBUG: Time Zone     -> Etc/UTC
#DEBUG: Data Contact   -> daryl herzmann akrherz@iastate.edu 515-294-5978
#DEBUG: Entries Found -> -1
station,valid,lon,lat,tmpf, dwpf, relh, drct, sknt, p01i, alti, mslp, vsby, gust, skyc1, skyc2, skyc3, skyc4, skyl1, skyl2, skyl3, skyl4, presentwx, metar
DUJ,2017-04-01 00:00,-78.9000,41.1800,M,M,M,40.00,3.00,M,29.63,M,6.00,M,OVC,M,M,M,600.00,M,M,M,-RA BR,KDUJ 010000Z AUTO 04003KT 6SM -RA BR OVC006 A2963 RMK CIG 3V8  MADISHF
DUJ,2017-04-01 00:05,-78.9000,41.1800,M,M,M,50.00,4.00,M,29.63,M,6.00,M,OVC,M,M,M,600.00,M,M,M,-RA BR,KDUJ 010005Z AUTO 05004KT 6SM -RA BR OVC006 A2963 RMK MADISHF
DUJ,2017-04-01 00:10,-78.9000,41.1800,M,M,M,60.00,4.00,M,29.63,M,6.00,M,OVC,M,M,M,700.00,M,M,M,-RA BR,KDUJ 010010Z AUTO 06004KT 6SM -RA BR OVC007 A2963 RMK MADISHF
DUJ,2017-04-01 00:15,-78.9000,41.1800,M,M,M,50.00,3.00,M,29.64,M,6.00,M,OVC,M,M,M,700.00,M,M,M,-RA BR,KDUJ 010015Z AUTO 05003KT 6SM -RA BR OVC007 A2964 RMK MADISHF
DUJ,2017-04-01 00:20,-78.9000,41.1800,M,M,M,50.00,3.00,0.01,29.64,M,6.00,M,OVC,M,M,M,700.00,M,M,M,-RA BR,KDUJ 010020Z AUTO 05003KT 6SM -RA BR OVC007 A2964 RMK P0001 MADISHF
DUJ,2017-04-01 00:25,-78.9000,41.1800,M,M,M,30.00,3.00,0.01,29.64,M,6.00,M,OVC,M,M,M,700.00,M,M,M,-RA BR,KDUJ 010025Z AUTO 03003KT 6SM -RA BR OVC007 A2964 RMK P0001 MADISHF
DUJ,2017-04-01 00:30,-78.9000,41.1800,M,M,M,30.00,3.00,0.01,29.64,M,7.00,M,OVC,M,M,M,700.00,M,M,M,M,KDUJ 010030Z AUTO 03003KT 7SM OVC007 A2964 RMK P0001 MADISHF
DUJ,2017-04-01 00:35,-78.9000,41.1800,M,M,M,50.00,3.00,0.02,29.64,M,6.00,M,OVC,M,M,M,700.00,M,M,M,-RA BR,KDUJ 010035Z AUTO 05003KT 6SM -RA BR OVC007 A2964 RMK P0002 MADISHF
DUJ,2017-04-01 00:40,-78.9000,41.1800,M,M,M,40.00,3.00,0.02,29.64,M,6.00,M,OVC,M,M,M,800.00,M,M,M,-RA BR,KDUJ 010040Z AUTO 04003KT 6SM -RA BR OVC008 A2964 RMK P0002 MADISHF
DUJ,2017-04-01 00:45,-78.9000,41.1800,M,M,M,0.00,0.00,0.02,29.64,M,6.00,M,OVC,M,M,M,800.00,M,M,M,-RA BR,KDUJ 010045Z AUTO 00000KT 6SM -RA BR OVC008 A2964 RMK P0002 MADISHF
DUJ,2017-04-01 00:50,-78.9000,41.1800,M,M,M,40.00,3.00,0.02,29.64,M,5.00,M,OVC,M,M,M,800.00,M,M,M,-RA BR,KDUJ 010050Z AUTO 04003KT 5SM -RA BR OVC008 A2964 RMK P0002 MADISHF
DUJ,2017-04-01 00:53,-78.9000,41.1800,39.00,37.00,92.45,40.00,3.00,0.03,29.64,1004.70,5.00,M,OVC,M,M,M,1000.00,M,M,M,-RA BR,KDUJ 010053Z AUTO 04003KT 5SM -RA BR OVC010 04/03 A2964 RMK AO2 RAB2358 SLP047 P0003 T00390028
DUJ,2017-04-01 00:55,-78.9000,41.1800,M,M,M,40.00,3.00,M,29.64,M,5.00,M,OVC,M,M,M,999.00,M,M,M,-RA BR,KDUJ 010055Z AUTO 04003KT 5SM -RA BR OVC009 A2964 RMK MADISHF
DUJ,2017-04-01 01:00,-78.9000,41.1800,M,M,M,50.00,3.00,M,29.64,M,6.00,M,OVC,M,M,M,999.00,M,M,M,-RA BR,KDUJ 010100Z AUTO 05003KT 6SM -RA BR OVC009 A2964 RMK MADISHF
DUJ,2017-04-01 01:05,-78.9000,41.1800,M,M,M,50.00,3.00,M,29.64,M,6.00,M,BKN,OVC,M,M,999.00,1300.00,M,M,-RA BR,KDUJ 010105Z AUTO 05003KT 6SM -RA BR BKN009 OVC013 A2964 RMK MADISHF
DUJ,2017-04-01 01:10,-78.9000,41.1800,M,M,M,30.00,3.00,0.01,29.64,M,6.00,M,OVC,M,M,M,999.00,M,M,M,-RA BR,KDUJ 010110Z AUTO 03003KT 6SM -RA BR OVC009 A2964 RMK P0001 MADISHF
DUJ,2017-04-01 01:15,-78.9000,41.1800,M,M,M,20.00,4.00,0.01,29.65,M,6.00,M,OVC,M,M,M,1100.00,M,M,M,-RA BR,KDUJ 010115Z AUTO 02004KT 6SM -RA BR OVC011 A2965 RMK P0001 MADISHF
DUJ,2017-04-01 01:20,-78.9000,41.1800,M,M,M,20.00,3.00,0.01,29.65,M,6.00,M,SCT,OVC,M,M,600.00,1100.00,M,M,-RA BR,KDUJ 010120Z AUTO 02003KT 6SM -RA BR SCT006 OVC011 A2965 RMK P0001 MADISHF
DUJ,2017-04-01 01:22,-78.9000,41.1800,39.00,37.00,92.45,20.00,4.00,0.01,29.65,M,6.00,M,FEW,OVC,M,M,400.00,1100.00,M,M,-RA BR,KDUJ 010122Z AUTO 02004KT 6SM -RA BR FEW004 OVC011 04/03 A2965 RMK AO2 P0001 T00390028
DUJ,2017-04-01 01:25,-78.9000,41.1800,M,M,M,10.00,3.00,0.01,29.65,M,6.00,M,FEW,BKN,OVC,M,400.00,900.00,1300.00,M,-RA BR,KDUJ 010125Z AUTO 01003KT 6SM -RA BR FEW004 BKN009 OVC013 A2965 RMK P0001 MADISHF
DUJ,2017-04-01 01:30,-78.9000,41.1800,M,M,M,10.00,5.00,0.02,29.65,M,6.00,M,FEW,OVC,M,M,400.00,1100.00,M,M,-RA BR,KDUJ 010130Z AUTO 01005KT 6SM -RA BR FEW004 OVC011 A2965 RMK P0002 MADISHF
DUJ,2017-04-01 01:35,-78.9000,41.1800,M,M,M,10.00,4.00,0.02,29.65,M,6.00,M,BKN,OVC,M,M,600.00,1100.00,M,M,-RA BR,KDUJ 010135Z AUTO 01004KT 6SM -RA BR BKN006 OVC011 A2965 RMK P0002 MADISHF
DUJ,2017-04-01 01:40,-78.9000,41.1800,M,M,M,10.00,5.00,0.02,29.66,M,6.00,M,BKN,OVC,M,M,600.00,1100.00,M,M,BR,KDUJ 010140Z AUTO 01005KT 6SM BR BKN006 OVC011 A2966 RMK P0002 MADISHF
DUJ,2017-04-01 01:41,-78.9000,41.1800,39.00,37.00,92.45,10.00,5.00,0.02,29.66,M,6.00,M,BKN,OVC,M,M,600.00,1100.00,M,M,-RA BR,KDUJ 010141Z AUTO 01005KT 6SM -RA BR BKN006 OVC011 04/03 A2966 RMK AO2 P0002 T00390028
DUJ,2017-04-01 01:45,-78.9000,41.1800,M,M,M,10.00,5.00,0.02,29.66,M,6.00,M,BKN,OVC,M,M,600.00,1100.00,M,M,-RA BR,KDUJ 010145Z AUTO 01005KT 6SM -RA BR BKN006 OVC011 A2966 RMK P0002 MADISHF
DUJ,2017-04-01 01:50,-78.9000,41.1800,M,M,M,10.00,4.00,0.02,29.66,M,6.00,M,BKN,OVC,M,M,400.00,1100.00,M,M,-RA BR,KDUJ 010150Z AUTO 01004KT 6SM -RA BR BKN004 OVC011 A2966 RMK P0002 MADISHF
DUJ,2017-04-01 01:53,-78.9000,41.1800,39.00,37.00,92.45,20.00,4.00,0.02,29.66,1005.30,6.00,M,BKN,OVC,M,M,400.00,1100.00,M,M,-RA BR,KDUJ 010153Z AUTO 02004KT 6SM -RA BR BKN004 OVC011 04/03 A2966 RMK AO2 SLP053 P0002 T00390028
DUJ,2017-04-01 01:55,-78.9000,41.1800,M,M,M,10.00,4.00,0.01,29.66,M,6.00,M,BKN,OVC,M,M,400.00,900.00,M,M,-RA BR,KDUJ 010155Z AUTO 01004KT 6SM -RA BR BKN004 OVC009 A2966 RMK P0001 MADISHF
DUJ,2017-04-01 02:00,-78.9000,41.1800,M,M,M,10.00,4.00,0.01,29.66,M,6.00,M,OVC,M,M,M,499.00,M,M,M,-RA BR,KDUJ 010200Z AUTO 01004KT 6SM -RA BR OVC004 A2966 RMK P0001 MADISHF
DUJ,2017-04-01 02:05,-78.9000,41.1800,M,M,M,10.00,4.00,0.01,29.66,M,7.00,M,BKN,OVC,M,M,499.00,900.00,M,M,-RA,KDUJ 010205Z AUTO 01004KT 7SM -RA BKN004 OVC009 A2966 RMK P0001 MADISHF
DUJ,2017-04-01 02:06,-78.9000,41.1800,39.00,37.00,92.45,10.00,4.00,0.01,29.66,M,7.00,M,BKN,OVC,M,M,500.00,900.00,M,M,M,KDUJ 010206Z AUTO 01004KT 7SM BKN005 OVC009 04/03 A2966 RMK AO2 RAE06 P0001 T00390028
DUJ,2017-04-01 02:10,-78.9000,41.1800,M,M,M,10.00,4.00,0.01,29.66,M,6.00,M,BKN,OVC,M,M,499.00,900.00,M,M,-RA BR,KDUJ 010210Z AUTO 01004KT 6SM -RA BR BKN004 OVC009 A2966 RMK P0001 MADISHF
DUJ,2017-04-01 02:15,-78.9000,41.1800,M,M,M,10.00,4.00,0.01,29.66,M,6.00,M,BKN,OVC,M,M,600.00,999.00,M,M,-RA BR,KDUJ 010215Z AUTO 01004KT 6SM -RA BR BKN006 OVC009 A2966 RMK P0001 MADISHF
DUJ,2017-04-01 02:20,-78.9000,41.1800,M,M,M,20.00,4.00,0.01,29.66,M,7.00,M,OVC,M,M,M,800.00,M,M,M,M,KDUJ 010220Z AUTO 02004KT 7SM OVC008 A2966 RMK P0001 MADISHF
DUJ,2017-04-01 02:25,-78.9000,41.1800,M,M,M,20.00,4.00,0.01,29.66,M,7.00,M,BKN,OVC,M,M,800.00,1100.00,M,M,M,KDUJ 010225Z AUTO 02004KT 7SM BKN008 OVC011 A2966 RMK P0001 MADISHF
DUJ,2017-04-01 02:30,-78.9000,41.1800,M,M,M,10.00,3.00,0.01,29.67,M,8.00,M,OVC,M,M,M,1100.00,M,M,M,M,KDUJ 010230Z AUTO 01003KT 8SM OVC011 A2967 RMK P0001 MADISHF
DUJ,2017-04-01 02:32,-78.9000,41.1800,39.00,37.00,92.45,10.00,3.00,0.01,29.67,M,9.00,M,OVC,M,M,M,1100.00,M,M,M,M,KDUJ 010232Z AUTO 01003KT 9SM OVC011 04/03 A2967 RMK AO2 RAE06B08E20 P0001 T00390028
DUJ,2017-04-01 02:35,-78.9000,41.1800,M,M,M,10.00,3.00,0.01,29.67,M,9.00,M,OVC,M,M,M,999.00,M,M,M,M,KDUJ 010235Z AUTO 01003KT 9SM OVC009 A2967 RMK P0001 MADISHF
DUJ,2017-04-01 02:40,-78.9000,41.1800,M,M,M,360.00,3.00,0.02,29.67,M,7.00,M,FEW,OVC,M,M,400.00,999.00,M,M,M,KDUJ 010240Z AUTO 36003KT 7SM FEW004 OVC009 A2967 RMK P0002 MADISHF
DUJ,2017-04-01 02:44,-78.9000,41.1800,39.00,37.00,92.45,360.00,3.00,0.02,29.67,M,5.00,M,FEW,BKN,OVC,M,400.00,1000.00,1300.00,M,BR,KDUJ 010244Z AUTO 36003KT 5SM BR FEW004 BKN010 OVC013 04/03 A2967 RMK AO2 RAE06B08E20 P0002 T00390028
DUJ,2017-04-01 02:45,-78.9000,41.1800,M,M,M,360.00,3.00,0.02,29.67,M,5.00,M,SCT,BKN,OVC,M,400.00,999.00,1300.00,M,BR,KDUJ 010245Z AUTO 36003KT 5SM BR SCT004 BKN009 OVC013 A2967 RMK P0002 MADISHF
DUJ,2017-04-01 02:50,-78.9000,41.1800,M,M,M,360.00,4.00,0.02,29.67,M,4.00,M,SCT,BKN,OVC,M,400.00,1100.00,1400.00,M,-RA BR,KDUJ 010250Z AUTO 36004KT 4SM -RA BR SCT004 BKN011 OVC014 A2967 RMK P0002 MADISHF
DUJ,2017-04-01 02:53,-78.9000,41.1800,39.00,37.00,92.45,360.00,4.00,0.02,29.67,1005.60,5.00,M,SCT,BKN,OVC,M,400.00,1100.00,1400.00,M,-RA BR,KDUJ 010253Z AUTO 36004KT 5SM -RA BR SCT004 BKN011 OVC014 04/03 A2967 RMK AO2 RAE06B08E20B46 SLP056 P0002 60007 T00390028 51012
DUJ,2017-04-01 02:55,-78.9000,41.1800,M,M,M,360.00,3.00,M,29.67,M,5.00,M,SCT,BKN,OVC,M,400.00,1100.00,1600.00,M,-RA BR,KDUJ 010255Z AUTO 36003KT 5SM -RA BR SCT004 BKN011 OVC016 A2967 RMK MADISHF
DUJ,2017-04-01 03:00,-78.9000,41.1800,M,M,M,10.00,3.00,M,29.67,M,6.00,M,FEW,BKN,OVC,M,400.00,999.00,1600.00,M,-RA BR,KDUJ 010300Z AUTO 01003KT 6SM -RA BR FEW004 BKN009 OVC016 A2967 RMK MADISHF
DUJ,2017-04-01 03:05,-78.9000,41.1800,M,M,M,360.00,3.00,M,29.67,M,6.00,M,BKN,OVC,M,M,800.00,1600.00,M,M,BR,KDUJ 010305Z AUTO 36003KT 6SM BR BKN008 OVC016 A2967 RMK MADISHF
DUJ,2017-04-01 03:08,-78.9000,41.1800,39.00,37.00,92.45,360.00,3.00,0.00,29.67,M,6.00,M,BKN,OVC,M,M,800.00,1600.00,M,M,BR,KDUJ 010308Z AUTO 36003KT 6SM BR BKN008 OVC016 04/03 A2967 RMK AO2 RAE01 P0000 T00390028
DUJ,2017-04-01 03:10,-78.9000,41.1800,M,M,M,360.00,3.00,M,29.67,M,6.00,M,BKN,OVC,M,M,800.00,1600.00,M,M,BR,KDUJ 010310Z AUTO 36003KT 6SM BR BKN008 OVC016 A2967 RMK MADISHF
DUJ,2017-04-01 03:15,-78.9000,41.1800,M,M,M,360.00,3.00,0.01,29.67,M,6.00,M,BKN,OVC,M,M,800.00,1600.00,M,M,BR,KDUJ 010315Z AUTO 36003KT 6SM BR BKN008 OVC016 A2967 RMK P0001 MADISHF
DUJ,2017-04-01 03:20,-78.9000,41.1800,M,M,M,360.00,3.00,0.01,29.67,M,6.00,M,FEW,BKN,OVC,M,499.00,800.00,4400.00,M,-RA BR,KDUJ 010320Z AUTO 36003KT 6SM -RA BR FEW004 BKN008 OVC044 A2967 RMK P0001 MADISHF
DUJ,2017-04-01 03:25,-78.9000,41.1800,M,M,M,10.00,3.00,0.01,29.67,M,6.00,M,BKN,OVC,M,M,800.00,4400.00,M,M,-RA BR,KDUJ 010325Z AUTO 01003KT 6SM -RA BR BKN008 OVC044 A2967 RMK P0001 MADISHF
DUJ,2017-04-01 03:30,-78.9000,41.1800,M,M,M,360.00,3.00,0.01,29.67,M,6.00,M,BKN,OVC,M,M,800.00,4200.00,M,M,-RA BR,KDUJ 010330Z AUTO 36003KT 6SM -RA BR BKN008 OVC042 A2967 RMK P0001 MADISHF
DUJ,2017-04-01 03:35,-78.9000,41.1800,M,M,M,360.00,3.00,0.01,29.67,M,6.00,M,BKN,OVC,M,M,800.00,4200.00,M,M,BR,KDUJ 010335Z AUTO 36003KT 6SM BR BKN008 OVC042 A2967 RMK P0001 MADISHF
DUJ,2017-04-01 03:40,-78.9000,41.1800,M,M,M,360.00,3.00,0.01,29.67,M,6.00,M,BKN,OVC,M,M,800.00,4200.00,M,M,BR,KDUJ 010340Z AUTO 36003KT 6SM BR BKN008 OVC042 A2967 RMK P0001 MADISHF
DUJ,2017-04-01 03:45,-78.9000,41.1800,M,M,M,350.00,3.00,0.01,29.68,M,6.00,M,BKN,OVC,M,M,600.00,4300.00,M,M,BR,KDUJ 010345Z AUTO 35003KT 6SM BR BKN006 OVC043 A2968 RMK P0001 MADISHF
DUJ,2017-04-01 03:50,-78.9000,41.1800,M,M,M,360.00,3.00,0.01,29.68,M,6.00,M,OVC,M,M,M,600.00,M,M,M,BR,KDUJ 010350Z AUTO 36003KT 6SM BR OVC006 A2968 RMK P0001 MADISHF
DUJ,2017-04-01 03:53,-78.9000,41.1800,39.00,37.00,92.45,0.00,0.00,0.02,29.68,1006.00,5.00,M,OVC,M,M,M,600.00,M,M,M,BR,KDUJ 010353Z AUTO 00000KT 5SM BR OVC006 04/03 A2968 RMK AO2 RAE01B19E31 SLP060 P0002 T00390028
DUJ,2017-04-01 03:55,-78.9000,41.1800,M,M,M,340.00,3.00,M,29.68,M,5.00,M,OVC,M,M,M,600.00,M,M,M,BR,KDUJ 010355Z AUTO 34003KT 5SM BR OVC006 A2968 RMK MADISHF
DUJ,2017-04-01 04:00,-78.9000,41.1800,M,M,M,340.00,3.00,M,29.68,M,6.00,M,OVC,M,M,M,600.00,M,M,M,BR,KDUJ 010400Z AUTO 34003KT 6SM BR OVC006 A2968 RMK MADISHF
DUJ,2017-04-01 04:05,-78.9000,41.1800,M,M,M,330.00,3.00,M,29.68,M,6.00,M,OVC,M,M,M,600.00,M,M,M,BR,KDUJ 010405Z AUTO 33003KT 6SM BR OVC006 A2968 RMK MADISHF
DUJ,2017-04-01 04:10,-78.9000,41.1800,M,M,M,0.00,0.00,M,29.68,M,5.00,M,OVC,M,M,M,600.00,M,M,M,BR,KDUJ 010410Z AUTO 00000KT 5SM BR OVC006 A2968 RMK MADISHF
DUJ,2017-04-01 04:15,-78.9000,41.1800,M,M,M,0.00,0.00,M,29.68,M,4.00,M,OVC,M,M,M,600.00,M,M,M,BR,KDUJ 010415Z AUTO 00000KT 4SM BR OVC006 A2968 RMK MADISHF
DUJ,2017-04-01 04:20,-78.9000,41.1800,M,M,M,0.00,0.00,M,29.69,M,4.00,M,OVC,M,M,M,400.00,M,M,M,BR,KDUJ 010420Z AUTO 00000KT 4SM BR OVC004 A2969 RMK MADISHF
DUJ,2017-04-01 04:25,-78.9000,41.1800,M,M,M,280.00,3.00,M,29.69,M,3.00,M,OVC,M,M,M,400.00,M,M,M,BR,KDUJ 010425Z AUTO 28003KT 3SM BR OVC004 A2969 RMK MADISHF
DUJ,2017-04-01 04:26,-78.9000,41.1800,39.00,37.00,92.45,280.00,3.00,0.00,29.69,M,3.00,M,OVC,M,M,M,400.00,M,M,M,BR,KDUJ 010426Z AUTO 28003KT 3SM BR OVC004 04/03 A2969 RMK AO2 T00390028
DUJ,2017-04-01 04:30,-78.9000,41.1800,M,M,M,280.00,3.00,M,29.69,M,3.00,M,BKN,OVC,M,M,400.00,900.00,M,M,BR,KDUJ 010430Z AUTO 28003KT 3SM BR BKN004 OVC009 A2969 RMK MADISHF
DUJ,2017-04-01 04:35,-78.9000,41.1800,M,M,M,280.00,3.00,M,29.69,M,4.00,M,BKN,OVC,M,M,400.00,900.00,M,M,BR,KDUJ 010435Z AUTO 28003KT 4SM BR BKN004 OVC009 A2969 RMK MADISHF
DUJ,2017-04-01 04:40,-78.9000,41.1800,M,M,M,280.00,3.00,M,29.69,M,6.00,M,BKN,OVC,M,M,400.00,1200.00,M,M,BR,KDUJ 010440Z AUTO 28003KT 6SM BR BKN004 OVC012 A2969 RMK MADISHF
DUJ,2017-04-01 04:45,-78.9000,41.1800,M,M,M,290.00,4.00,M,29.69,M,6.00,M,BKN,OVC,M,M,400.00,1200.00,M,M,BR,KDUJ 010445Z AUTO 29004KT 6SM BR BKN004 OVC012 A2969 RMK MADISHF
DUJ,2017-04-01 04:50,-78.9000,41.1800,M,M,M,290.00,4.00,M,29.69,M,6.00,M,BKN,OVC,M,M,400.00,1200.00,M,M,BR,KDUJ 010450Z AUTO 29004KT 6SM BR BKN004 OVC012 A2969 RMK MADISHF
DUJ,2017-04-01 04:53,-78.9000,41.1800,39.00,37.00,92.45,290.00,3.00,0.00,29.69,1006.50,6.00,M,BKN,OVC,M,M,400.00,1200.00,M,M,BR,KDUJ 010453Z AUTO 29003KT 6SM BR BKN004 OVC012 04/03 A2969 RMK AO2 SLP065 T00390028 400500033
DUJ,2017-04-01 04:55,-78.9000,41.1800,M,M,M,290.00,3.00,M,29.70,M,5.00,M,BKN,OVC,M,M,400.00,1200.00,M,M,BR,KDUJ 010455Z AUTO 29003KT 5SM BR BKN004 OVC012 A2970 RMK MADISHF
DUJ,2017-04-01 05:00,-78.9000,41.1800,M,M,M,290.00,4.00,M,29.70,M,5.00,M,BKN,OVC,M,M,400.00,1200.00,M,M,BR,KDUJ 010500Z AUTO 29004KT 5SM BR BKN004 OVC012 A2970 RMK MADISHF
DUJ,2017-04-01 05:05,-78.9000,41.1800,M,M,M,300.00,3.00,M,29.70,M,5.00,M,BKN,OVC,M,M,400.00,1200.00,M,M,BR,KDUJ 010505Z AUTO 30003KT 5SM BR BKN004 OVC012 A2970 RMK MADISHF
DUJ,2017-04-01 05:10,-78.9000,41.1800,M,M,M,290.00,4.00,M,29.70,M,5.00,M,BKN,OVC,M,M,400.00,900.00,M,M,BR,KDUJ 010510Z AUTO 29004KT 5SM BR BKN004 OVC009 A2970 RMK MADISHF
DUJ,2017-04-01 05:15,-78.9000,41.1800,M,M,M,280.00,3.00,M,29.70,M,6.00,M,BKN,OVC,M,M,400.00,900.00,M,M,BR,KDUJ 010515Z AUTO 28003KT 6SM BR BKN004 OVC009 A2970 RMK MADISHF
DUJ,2017-04-01 05:20,-78.9000,41.1800,M,M,M,280.00,3.00,M,29.70,M,6.00,M,OVC,M,M,M,300.00,M,M,M,BR,KDUJ 010520Z AUTO 28003KT 6SM BR OVC003 A2970 RMK MADISHF
DUJ,2017-04-01 05:25,-78.9000,41.1800,M,M,M,280.00,4.00,M,29.70,M,6.00,M,OVC,M,M,M,300.00,M,M,M,BR,KDUJ 010525Z AUTO 28004KT 6SM BR OVC003 A2970 RMK MADISHF
DUJ,2017-04-01 05:30,-78.9000,41.1800,M,M,M,280.00,4.00,M,29.70,M,5.00,M,OVC,M,M,M,300.00,M,M,M,BR,KDUJ 010530Z AUTO 28004KT 5SM BR OVC003 A2970 RMK MADISHF
DUJ,2017-04-01 05:35,-78.9000,41.1800,M,M,M,270.00,5.00,M,29.70,M,4.00,M,OVC,M,M,M,300.00,M,M,M,BR,KDUJ 010535Z AUTO 27005KT 4SM BR OVC003 A2970 RMK MADISHF
DUJ,2017-04-01 05:40,-78.9000,41.1800,M,M,M,270.00,4.00,M,29.70,M,4.00,M,OVC,M,M,M,300.00,M,M,M,BR,KDUJ 010540Z AUTO 27004KT 4SM BR OVC003 A2970 RMK MADISHF
DUJ,2017-04-01 05:45,-78.9000,41.1800,M,M,M,270.00,4.00,M,29.70,M,3.00,M,OVC,M,M,M,300.00,M,M,M,BR,KDUJ 010545Z AUTO 27004KT 3SM BR OVC003 A2970 RMK MADISHF
DUJ,2017-04-01 05:50,-78.9000,41.1800,M,M,M,270.00,5.00,M,29.71,M,3.00,M,OVC,M,M,M,300.00,M,M,M,BR,KDUJ 010550Z AUTO 27005KT 3SM BR OVC003 A2971 RMK MADISHF
DUJ,2017-04-01 05:53,-78.9000,41.1800,39.00,37.00,92.45,270.00,5.00,0.00,29.71,1006.90,3.00,M,OVC,M,M,M,300.00,M,M,M,BR,KDUJ 010553Z AUTO 27005KT 3SM BR OVC003 04/03 A2971 RMK AO2 SLP069 60009 T00390028 10039 20039 52013
DUJ,2017-04-01 05:55,-78.9000,41.1800,M,M,M,270.00,6.00,M,29.71,M,3.00,M,OVC,M,M,M,300.00,M,M,M,BR,KDUJ 010555Z AUTO 27006KT 3SM BR OVC003 A2971 RMK MADISHF
DUJ,2017-04-01 06:00,-78.9000,41.1800,M,M,M,270.00,6.00,M,29.71,M,2.50,M,OVC,M,M,M,300.00,M,M,M,BR,KDUJ 010600Z AUTO 27006KT 2 1/2SM BR OVC003 A2971 RMK MADISHF
DUJ,2017-04-01 06:03,-78.9000,41.1800,39.00,37.00,92.45,270.00,6.00,0.00,29.71,M,1.75,M,OVC,M,M,M,300.00,M,M,M,BR,KDUJ 010603Z AUTO 27006KT 1 3/4SM BR OVC003 04/03 A2971 RMK AO2 T00390028
DUJ,2017-04-01 06:05,-78.9000,41.1800,M,M,M,270.00,6.00,M,29.71,M,1.50,M,OVC,M,M,M,300.00,M,M,M,BR,KDUJ 010605Z AUTO 27006KT 1 1/2SM BR OVC003 A2971 RMK MADISHF
DUJ,2017-04-01 06:10,-78.9000,41.1800,M,M,M,280.00,6.00,M,29.71,M,1.00,M,VV ,M,M,M,300.00,M,M,M,BR,KDUJ 010610Z AUTO 28006KT 1SM BR VV003 A2971 RMK MADISHF
DUJ,2017-04-01 06:15,-78.9000,41.1800,M,M,M,280.00,5.00,M,29.71,M,1.00,M,VV ,M,M,M,300.00,M,M,M,BR,KDUJ 010615Z AUTO 28005KT 1SM BR VV003 A2971 RMK MADISHF
DUJ,2017-04-01 06:20,-78.9000,41.1800,M,M,M,270.00,5.00,M,29.72,M,1.25,M,OVC,M,M,M,300.00,M,M,M,BR,KDUJ 010620Z AUTO 27005KT 1 1/2SM BR OVC003 A2972 RMK MADISHF
DUJ,2017-04-01 06:25,-78.9000,41.1800,M,M,M,270.00,6.00,M,29.72,M,1.25,M,OVC,M,M,M,300.00,M,M,M,BR,KDUJ 010625Z AUTO 27006KT 1 1/2SM BR OVC003 A2972 RMK MADISHF
DUJ,2017-04-01 06:30,-78.9000,41.1800,M,M,M,280.00,6.00,M,29.72,M,1.50,M,OVC,M,M,M,300.00,M,M,M,BR,KDUJ 010630Z AUTO 28006KT 1 1/2SM BR OVC003 A2972 RMK MADISHF
DUJ,2017-04-01 06:35,-78.9000,41.1800,M,M,M,270.00,6.00,M,29.72,M,1.25,M,OVC,M,M,M,300.00,M,M,M,BR,KDUJ 010635Z AUTO 27006KT 1 1/2SM BR OVC003 A2972 RMK MADISHF
DUJ,2017-04-01 06:40,-78.9000,41.1800,M,M,M,280.00,6.00,M,29.72,M,1.00,M,VV ,M,M,M,300.00,M,M,M,BR,KDUJ 010640Z AUTO 28006KT 1SM BR VV003 A2972 RMK MADISHF
DUJ,2017-04-01 06:45,-78.9000,41.1800,M,M,M,270.00,6.00,M,29.72,M,0.75,M,VV ,M,M,M,300.00,M,M,M,BR,KDUJ 010645Z AUTO 27006KT 1SM BR VV003 A2972 RMK MADISHF
DUJ,2017-04-01 06:50,-78.9000,41.1800,M,M,M,270.00,7.00,M,29.72,M,0.50,M,VV ,M,M,M,300.00,M,M,M,FG,KDUJ 010650Z AUTO 27007KT 1/2SM FG VV003 A2972 RMK MADISHF
DUJ,2017-04-01 06:51,-78.9000,41.1800,39.20,37.40,93.19,270.00,6.00,0.00,29.72,M,0.50,M,VV ,M,M,M,300.00,M,M,M,FG,KDUJ 010651Z AUTO 27006KT 1/2SM FG VV003 04/03 A2972 RMK AO2
DUJ,2017-04-01 06:53,-78.9000,41.1800,39.90,37.90,92.48,280.00,8.00,0.00,29.72,1007.50,0.50,M,VV ,M,M,M,300.00,M,M,M,FG,KDUJ 010653Z AUTO 28008KT 1/2SM FG VV003 04/03 A2972 RMK AO2 SLP075 T00440033
DUJ,2017-04-01 06:55,-78.9000,41.1800,M,M,M,280.00,7.00,M,29.72,M,0.50,M,VV ,M,M,M,300.00,M,M,M,FG,KDUJ 010655Z AUTO 28007KT 1/2SM FG VV003 A2972 RMK MADISHF
DUJ,2017-04-01 07:00,-78.9000,41.1800,M,M,M,280.00,7.00,M,29.73,M,0.50,M,VV ,M,M,M,300.00,M,M,M,FG,KDUJ 010700Z AUTO 28007KT 1/2SM FG VV003 A2973 RMK MADISHF
DUJ,2017-04-01 07:05,-78.9000,41.1800,M,M,M,280.00,7.00,M,29.73,M,0.75,M,VV ,M,M,M,300.00,M,M,M,BR,KDUJ 010705Z AUTO 28007KT 1SM BR VV003 A2973 RMK MADISHF
DUJ,2017-04-01 07:10,-78.9000,41.1800,M,M,M,270.00,6.00,M,29.73,M,1.25,M,OVC,M,M,M,300.00,M,M,M,BR,KDUJ 010710Z AUTO 27006KT 1 1/2SM BR OVC003 A2973 RMK MADISHF
DUJ,2017-04-01 07:12,-78.9000,41.1800,39.90,39.00,96.55,280.00,6.00,0.00,29.73,M,1.50,M,OVC,M,M,M,300.00,M,M,M,BR,KDUJ 010712Z AUTO 28006KT 1 1/2SM BR OVC003 04/04 A2973 RMK AO2 T00440039
DUJ,2017-04-01 07:15,-78.9000,41.1800,M,M,M,280.00,7.00,M,29.73,M,2.00,M,OVC,M,M,M,300.00,M,M,M,BR,KDUJ 010715Z AUTO 28007KT 2SM BR OVC003 A2973 RMK MADISHF
DUJ,2017-04-01 07:18,-78.9000,41.1800,39.90,39.00,96.55,290.00,7.00,0.00,29.73,M,3.00,M,OVC,M,M,M,300.00,M,M,M,BR,KDUJ 010718Z AUTO 29007KT 3SM BR OVC003 04/04 A2973 RMK AO2 T00440039
DUJ,2017-04-01 07:20,-78.9000,41.1800,M,M,M,280.00,7.00,M,29.73,M,4.00,M,OVC,M,M,M,300.00,M,M,M,BR,KDUJ 010720Z AUTO 28007KT 4SM BR OVC003 A2973 RMK MADISHF
DUJ,2017-04-01 07:25,-78.9000,41.1800,M,M,M,290.00,8.00,M,29.73,M,9.00,M,OVC,M,M,M,200.00,M,M,M,M,KDUJ 010725Z AUTO 29008KT 9SM OVC002 A2973 RMK MADISHF
DUJ,2017-04-01 07:30,-78.9000,41.1800,M,M,M,290.00,9.00,M,29.74,M,10.00,M,OVC,M,M,M,400.00,M,M,M,M,KDUJ 010730Z AUTO 29009KT 10SM OVC004 A2974 RMK MADISHF
DUJ,2017-04-01 07:35,-78.9000,41.1800,M,M,M,300.00,8.00,M,29.74,M,10.00,M,OVC,M,M,M,400.00,M,M,M,M,KDUJ 010735Z AUTO 30008KT 10SM OVC004 A2974 RMK MADISHF
DUJ,2017-04-01 07:40,-78.9000,41.1800,M,M,M,300.00,7.00,M,29.74,M,10.00,M,OVC,M,M,M,400.00,M,M,M,M,KDUJ 010740Z AUTO 30007KT 10SM OVC004 A2974 RMK CIG 2V9  MADISHF
DUJ,2017-04-01 07:45,-78.9000,41.1800,M,M,M,300.00,8.00,M,29.74,M,10.00,M,OVC,M,M,M,499.00,M,M,M,M,KDUJ 010745Z AUTO 30008KT 10SM OVC004 A2974 RMK CIG 2V7  MADISHF
DUJ,2017-04-01 07:50,-78.9000,41.1800,41.00,37.40,86.89,300.00,11.00,0.00,29.74,M,10.00,M,BKN,OVC,M,M,500.00,1000.00,M,M,M,KDUJ 010750Z AUTO 30011KT 10SM BKN005 OVC010 05/03 A2974 RMK AO2 CIG 004V009
DUJ,2017-04-01 07:53,-78.9000,41.1800,41.00,37.90,88.62,310.00,11.00,0.00,29.75,1008.10,10.00,M,OVC,M,M,M,700.00,M,M,M,M,KDUJ 010753Z AUTO 31011KT 10SM OVC007 05/03 A2975 RMK AO2 CIG 004V011 SLP081 T00500033
DUJ,2017-04-01 07:55,-78.9000,41.1800,M,M,M,300.00,9.00,M,29.75,M,10.00,M,OVC,M,M,M,700.00,M,M,M,M,KDUJ 010755Z AUTO 30009KT 10SM OVC007 A2975 RMK CIG 4V12  MADISHF
DUJ,2017-04-01 08:00,-78.9000,41.1800,M,M,M,310.00,8.00,M,29.75,M,10.00,M,OVC,M,M,M,700.00,M,M,M,M,KDUJ 010800Z AUTO 31008KT 10SM OVC007 A2975 RMK CIG 4V11  MADISHF
DUJ,2017-04-01 08:05,-78.9000,41.1800,M,M,M,290.00,8.00,M,29.75,M,10.00,M,OVC,M,M,M,700.00,M,M,M,M,KDUJ 010805Z AUTO 29008KT 10SM OVC007 A2975 RMK CIG 4V12  MADISHF
DUJ,2017-04-01 08:10,-78.9000,41.1800,M,M,M,290.00,10.00,M,29.76,M,10.00,M,OVC,M,M,M,700.00,M,M,M,M,KDUJ 010810Z AUTO 29010KT 10SM OVC007 A2976 RMK CIG 5V12  MADISHF
DUJ,2017-04-01 08:15,-78.9000,41.1800,M,M,M,M,M,M,29.76,M,10.00,18.00,BKN,OVC,M,M,700.00,1200.00,M,M,M,KDUJ 010815Z AUTO /////G18KT 10SM BKN007 OVC012 A2976 RMK CIG 5V10  MADISHF
DUJ,2017-04-01 08:20,-78.9000,41.1800,M,M,M,M,M,M,29.76,M,10.00,M,OVC,M,M,M,700.00,M,M,M,M,KDUJ 010820Z AUTO /////KT 10SM OVC007 A2976 RMK CIG 5V10  MADISHF
DUJ,2017-04-01 08:25,-78.9000,41.1800,M,M,M,310.00,9.00,M,29.76,M,10.00,M,OVC,M,M,M,700.00,M,M,M,M,KDUJ 010825Z AUTO 31009KT 10SM OVC007 A2976 RMK CIG 5V11  MADISHF
DUJ,2017-04-01 08:30,-78.9000,41.1800,M,M,M,300.00,10.00,M,29.77,M,10.00,M,OVC,M,M,M,700.00,M,M,M,M,KDUJ 010830Z AUTO 30010KT 10SM OVC007 A2977 RMK CIG 5V12  MADISHF
DUJ,2017-04-01 08:35,-78.9000,41.1800,M,M,M,300.00,8.00,M,29.77,M,10.00,M,OVC,M,M,M,700.00,M,M,M,M,KDUJ 010835Z AUTO 30008KT 10SM OVC007 A2977 RMK CIG 5V12  MADISHF
DUJ,2017-04-01 08:40,-78.9000,41.1800,M,M,M,300.00,8.00,M,29.77,M,10.00,M,OVC,M,M,M,700.00,M,M,M,M,KDUJ 010840Z AUTO 30008KT 10SM OVC007 A2977 RMK CIG 5V10  MADISHF
DUJ,2017-04-01 08:45,-78.9000,41.1800,M,M,M,280.00,9.00,M,29.78,M,10.00,M,OVC,M,M,M,700.00,M,M,M,M,KDUJ 010845Z AUTO 28009KT 10SM OVC007 A2978 RMK CIG 5V10  MADISHF
DUJ,2017-04-01 08:50,-78.9000,41.1800,M,M,M,300.00,10.00,M,29.78,M,10.00,M,BKN,OVC,M,M,499.00,999.00,M,M,M,KDUJ 010850Z AUTO 30010KT 10SM BKN004 OVC009 A2978 RMK MADISHF
DUJ,2017-04-01 08:53,-78.9000,41.1800,37.90,35.10,89.53,300.00,10.00,0.00,29.78,1009.50,10.00,M,OVC,M,M,M,700.00,M,M,M,M,KDUJ 010853Z AUTO 30010KT 10SM OVC007 03/02 A2978 RMK AO2 CIG 005V010 SLP095 T00330017 53018
DUJ,2017-04-01 08:55,-78.9000,41.1800,M,M,M,290.00,9.00,M,29.78,M,10.00,M,OVC,M,M,M,700.00,M,M,M,M,KDUJ 010855Z AUTO 29009KT 10SM OVC007 A2978 RMK CIG 4V10  MADISHF
DUJ,2017-04-01 09:00,-78.9000,41.1800,M,M,M,300.00,7.00,M,29.78,M,10.00,M,OVC,M,M,M,499.00,M,M,M,M,KDUJ 010900Z AUTO 30007KT 10SM OVC004 A2978 RMK CIG 3V10  MADISHF
DUJ,2017-04-01 09:05,-78.9000,41.1800,M,M,M,300.00,8.00,M,29.78,M,10.00,M,OVC,M,M,M,499.00,M,M,M,M,KDUJ 010905Z AUTO 30008KT 10SM OVC004 A2978 RMK CIG 3V7  MADISHF
DUJ,2017-04-01 09:10,-78.9000,41.1800,M,M,M,310.00,9.00,M,29.78,M,10.00,M,OVC,M,M,M,499.00,M,M,M,M,KDUJ 010910Z AUTO 31009KT 10SM OVC004 A2978 RMK MADISHF
DUJ,2017-04-01 09:15,-78.9000,41.1800,M,M,M,300.00,8.00,M,29.79,M,10.00,M,OVC,M,M,M,499.00,M,M,M,M,KDUJ 010915Z AUTO 30008KT 10SM OVC004 A2979 RMK MADISHF
DUJ,2017-04-01 09:20,-78.9000,41.1800,M,M,M,290.00,9.00,M,29.79,M,10.00,M,OVC,M,M,M,499.00,M,M,M,M,KDUJ 010920Z AUTO 29009KT 10SM OVC004 A2979 RMK CIG 3V8  MADISHF
DUJ,2017-04-01 09:25,-78.9000,41.1800,M,M,M,290.00,10.00,M,29.80,M,10.00,M,OVC,M,M,M,499.00,M,M,M,M,KDUJ 010925Z AUTO 29010KT 10SM OVC004 A2980 RMK MADISHF
DUJ,2017-04-01 09:30,-78.9000,41.1800,M,M,M,290.00,11.00,M,29.80,M,10.00,M,OVC,M,M,M,499.00,M,M,M,M,KDUJ 010930Z AUTO 29011KT 10SM OVC004 A2980 RMK MADISHF
DUJ,2017-04-01 09:35,-78.9000,41.1800,M,M,M,290.00,8.00,M,29.80,M,10.00,M,OVC,M,M,M,400.00,M,M,M,M,KDUJ 010935Z AUTO 29008KT 10SM OVC004 A2980 RMK MADISHF
DUJ,2017-04-01 09:37,-78.9000,41.1800,37.00,34.00,88.78,300.00,8.00,0.00,29.81,M,10.00,16.00,OVC,M,M,M,400.00,M,M,M,M,KDUJ 010937Z AUTO 30008G16KT 10SM OVC004 03/01 A2981 RMK AO2 T00280011
DUJ,2017-04-01 09:40,-78.9000,41.1800,M,M,M,300.00,9.00,M,29.81,M,10.00,M,OVC,M,M,M,400.00,M,M,M,M,KDUJ 010940Z AUTO 30009KT 10SM OVC004 A2981 RMK MADISHF
DUJ,2017-04-01 09:45,-78.9000,41.1800,M,M,M,280.00,10.00,M,29.81,M,10.00,M,OVC,M,M,M,400.00,M,M,M,M,KDUJ 010945Z AUTO 28010KT 10SM OVC004 A2981 RMK MADISHF
DUJ,2017-04-01 09:50,-78.9000,41.1800,M,M,M,300.00,11.00,M,29.82,M,10.00,16.00,OVC,M,M,M,499.00,M,M,M,M,KDUJ 010950Z AUTO 30011G16KT 10SM OVC004 A2982 RMK MADISHF
DUJ,2017-04-01 09:53,-78.9000,41.1800,36.00,34.00,92.35,290.00,9.00,0.00,29.82,1010.90,10.00,M,OVC,M,M,M,500.00,M,M,M,M,KDUJ 010953Z AUTO 29009KT 10SM OVC005 02/01 A2982 RMK AO2 SLP109 T00220011
DUJ,2017-04-01 09:55,-78.9000,41.1800,M,M,M,300.00,11.00,M,29.82,M,10.00,M,OVC,M,M,M,499.00,M,M,M,M,KDUJ 010955Z AUTO 30011KT 10SM OVC004 A2982 RMK MADISHF
DUJ,2017-04-01 10:00,-78.9000,41.1800,M,M,M,290.00,11.00,M,29.82,M,10.00,16.00,OVC,M,M,M,499.00,M,M,M,M,KDUJ 011000Z AUTO 29011G16KT 10SM OVC004 A2982 RMK MADISHF
DUJ,2017-04-01 10:05,-78.9000,41.1800,M,M,M,300.00,10.00,M,29.83,M,10.00,M,OVC,M,M,M,499.00,M,M,M,M,KDUJ 011005Z AUTO 30010KT 10SM OVC004 A2983 RMK MADISHF
DUJ,2017-04-01 10:10,-78.9000,41.1800,M,M,M,310.00,12.00,M,29.83,M,10.00,M,OVC,M,M,M,499.00,M,M,M,M,KDUJ 011010Z AUTO 31012KT 10SM OVC004 A2983 RMK MADISHF
DUJ,2017-04-01 10:15,-78.9000,41.1800,M,M,M,300.00,9.00,M,29.84,M,10.00,M,OVC,M,M,M,499.00,M,M,M,M,KDUJ 011015Z AUTO 30009KT 10SM OVC004 A2984 RMK MADISHF
DUJ,2017-04-01 10:20,-78.9000,41.1800,M,M,M,300.00,9.00,M,29.84,M,10.00,M,OVC,M,M,M,499.00,M,M,M,M,KDUJ 011020Z AUTO 30009KT 10SM OVC004 A2984 RMK MADISHF
DUJ,2017-04-01 10:25,-78.9000,41.1800,M,M,M,290.00,10.00,M,29.84,M,10.00,M,OVC,M,M,M,499.00,M,M,M,M,KDUJ 011025Z AUTO 29010KT 10SM OVC004 A2984 RMK MADISHF
DUJ,2017-04-01 10:30,-78.9000,41.1800,M,M,M,290.00,10.00,M,29.84,M,10.00,M,OVC,M,M,M,499.00,M,M,M,M,KDUJ 011030Z AUTO 29010KT 10SM OVC004 A2984 RMK MADISHF
DUJ,2017-04-01 10:35,-78.9000,41.1800,M,M,M,290.00,11.00,M,29.85,M,10.00,M,OVC,M,M,M,499.00,M,M,M,M,KDUJ 011035Z AUTO 29011KT 10SM OVC004 A2985 RMK MADISHF
DUJ,2017-04-01 10:40,-78.9000,41.1800,M,M,M,290.00,10.00,M,29.85,M,10.00,M,OVC,M,M,M,499.00,M,M,M,M,KDUJ 011040Z AUTO 29010KT 10SM OVC004 A2985 RMK MADISHF
DUJ,2017-04-01 10:45,-78.9000,41.1800,M,M,M,300.00,11.00,M,29.85,M,10.00,M,OVC,M,M,M,499.00,M,M,M,M,KDUJ 011045Z AUTO 30011KT 10SM OVC004 A2985 RMK MADISHF
DUJ,2017-04-01 10:50,-78.9000,41.1800,M,M,M,280.00,9.00,M,29.85,M,10.00,M,OVC,M,M,M,499.00,M,M,M,M,KDUJ 011050Z AUTO 28009KT 10SM OVC004 A2985 RMK MADISHF
DUJ,2017-04-01 10:53,-78.9000,41.1800,35.10,33.10,92.32,290.00,11.00,0.00,29.85,1012.20,10.00,16.00,OVC,M,M,M,400.00,M,M,M,M,KDUJ 011053Z AUTO 29011G16KT 10SM OVC004 02/01 A2985 RMK AO2 SLP122 T00170006
DUJ,2017-04-01 10:55,-78.9000,41.1800,M,M,M,290.00,9.00,M,29.85,M,10.00,M,OVC,M,M,M,400.00,M,M,M,M,KDUJ 011055Z AUTO 29009KT 10SM OVC004 A2985 RMK MADISHF
DUJ,2017-04-01 11:00,-78.9000,41.1800,M,M,M,290.00,9.00,M,29.86,M,10.00,14.00,OVC,M,M,M,400.00,M,M,M,M,KDUJ 011100Z AUTO 29009G14KT 10SM OVC004 A2986 RMK MADISHF
DUJ,2017-04-01 11:05,-78.9000,41.1800,M,M,M,290.00,10.00,M,29.86,M,10.00,M,OVC,M,M,M,400.00,M,M,M,M,KDUJ 011105Z AUTO 29010KT 10SM OVC004 A2986 RMK MADISHF
DUJ,2017-04-01 11:10,-78.9000,41.1800,M,M,M,290.00,11.00,M,29.87,M,10.00,M,OVC,M,M,M,400.00,M,M,M,M,KDUJ 011110Z AUTO 29011KT 10SM OVC004 A2987 RMK MADISHF
DUJ,2017-04-01 11:15,-78.9000,41.1800,M,M,M,290.00,10.00,M,29.87,M,10.00,M,OVC,M,M,M,400.00,M,M,M,M,KDUJ 011115Z AUTO 29010KT 10SM OVC004 A2987 RMK MADISHF
DUJ,2017-04-01 11:20,-78.9000,41.1800,M,M,M,290.00,9.00,M,29.87,M,10.00,M,OVC,M,M,M,400.00,M,M,M,M,KDUJ 011120Z AUTO 29009KT 10SM OVC004 A2987 RMK MADISHF
DUJ,2017-04-01 11:25,-78.9000,41.1800,M,M,M,300.00,10.00,M,29.87,M,10.00,M,OVC,M,M,M,400.00,M,M,M,M,KDUJ 011125Z AUTO 30010KT 10SM OVC004 A2987 RMK MADISHF
DUJ,2017-04-01 11:30,-78.9000,41.1800,M,M,M,280.00,11.00,M,29.88,M,10.00,M,OVC,M,M,M,400.00,M,M,M,M,KDUJ 011130Z AUTO 28011KT 10SM OVC004 A2988 RMK MADISHF
DUJ,2017-04-01 11:35,-78.9000,41.1800,M,M,M,300.00,7.00,M,29.88,M,10.00,M,OVC,M,M,M,499.00,M,M,M,M,KDUJ 011135Z AUTO 30007KT 10SM OVC004 A2988 RMK MADISHF
DUJ,2017-04-01 11:38,-78.9000,41.1800,35.10,32.00,88.33,300.00,10.00,0.00,29.88,M,10.00,16.00,OVC,M,M,M,500.00,M,M,M,M,KDUJ 011138Z AUTO 30010G16KT 10SM OVC005 02/00 A2988 RMK AO2 T00170000
DUJ,2017-04-01 11:40,-78.9000,41.1800,M,M,M,290.00,9.00,M,29.88,M,10.00,M,OVC,M,M,M,499.00,M,M,M,M,KDUJ 011140Z AUTO 29009KT 10SM OVC004 A2988 RMK MADISHF
DUJ,2017-04-01 11:45,-78.9000,41.1800,M,M,M,290.00,8.00,M,29.89,M,10.00,M,OVC,M,M,M,499.00,M,M,M,M,KDUJ 011145Z AUTO 29008KT 10SM OVC004 A2989 RMK MADISHF
DUJ,2017-04-01 11:50,-78.9000,41.1800,M,M,M,300.00,8.00,M,29.89,M,10.00,M,OVC,M,M,M,499.00,M,M,M,M,KDUJ 011150Z AUTO 30008KT 10SM OVC004 A2989 RMK MADISHF
DUJ,2017-04-01 11:53,-78.9000,41.1800,35.10,32.00,88.33,290.00,9.00,0.00,29.89,1013.40,10.00,M,OVC,M,M,M,500.00,M,M,M,M,KDUJ 011153Z AUTO 29009KT 10SM OVC005 02/00 A2989 RMK AO2 SLP134 70076 T00170000 10050 20017 52035
DUJ,2017-04-01 11:55,-78.9000,41.1800,M,M,M,290.00,9.00,M,29.89,M,10.00,M,OVC,M,M,M,499.00,M,M,M,M,KDUJ 011155Z AUTO 29009KT 10SM OVC004 A2989 RMK MADISHF
DUJ,2017-04-01 12:00,-78.9000,41.1800,M,M,M,290.00,8.00,M,29.89,M,10.00,M,OVC,M,M,M,499.00,M,M,M,M,KDUJ 011200Z AUTO 29008KT 10SM OVC004 A2989 RMK MADISHF
DUJ,2017-04-01 12:05,-78.9000,41.1800,M,M,M,300.00,10.00,M,29.90,M,10.00,M,OVC,M,M,M,499.00,M,M,M,M,KDUJ 011205Z AUTO 30010KT 10SM OVC004 A2990 RMK MADISHF
DUJ,2017-04-01 12:10,-78.9000,41.1800,M,M,M,300.00,8.00,M,29.90,M,10.00,M,OVC,M,M,M,499.00,M,M,M,M,KDUJ 011210Z AUTO 30008KT 10SM OVC004 A2990 RMK MADISHF
DUJ,2017-04-01 12:15,-78.9000,41.1800,M,M,M,290.00,9.00,M,29.90,M,10.00,M,OVC,M,M,M,499.00,M,M,M,M,KDUJ 011215Z AUTO 29009KT 10SM OVC004 A2990 RMK MADISHF
DUJ,2017-04-01 12:20,-78.9000,41.1800,M,M,M,290.00,12.00,M,29.91,M,10.00,M,OVC,M,M,M,499.00,M,M,M,M,KDUJ 011220Z AUTO 29012KT 10SM OVC004 A2991 RMK MADISHF
DUJ,2017-04-01 12:25,-78.9000,41.1800,M,M,M,300.00,6.00,M,29.90,M,10.00,M,OVC,M,M,M,499.00,M,M,M,M,KDUJ 011225Z AUTO 30006KT 10SM OVC004 A2990 RMK MADISHF
DUJ,2017-04-01 12:30,-78.9000,41.1800,M,M,M,300.00,10.00,M,29.90,M,10.00,M,OVC,M,M,M,499.00,M,M,M,M,KDUJ 011230Z AUTO 30010KT 10SM OVC004 A2990 RMK MADISHF
DUJ,2017-04-01 12:35,-78.9000,41.1800,M,M,M,300.00,11.00,M,29.90,M,10.00,M,OVC,M,M,M,499.00,M,M,M,M,KDUJ 011235Z AUTO 30011KT 10SM OVC004 A2990 RMK CIG 4V8  MADISHF
DUJ,2017-04-01 12:40,-78.9000,41.1800,M,M,M,300.00,9.00,M,29.91,M,10.00,M,OVC,M,M,M,499.00,M,M,M,M,KDUJ 011240Z AUTO 30009KT 10SM OVC004 A2991 RMK MADISHF
DUJ,2017-04-01 12:45,-78.9000,41.1800,M,M,M,300.00,8.00,M,29.91,M,10.00,M,OVC,M,M,M,499.00,M,M,M,M,KDUJ 011245Z AUTO 30008KT 10SM OVC004 A2991 RMK MADISHF
DUJ,2017-04-01 12:50,-78.9000,41.1800,M,M,M,300.00,10.00,M,29.92,M,10.00,M,OVC,M,M,M,600.00,M,M,M,M,KDUJ 011250Z AUTO 30010KT 10SM OVC006 A2992 RMK MADISHF
DUJ,2017-04-01 12:53,-78.9000,41.1800,35.10,32.00,88.33,300.00,9.00,0.00,29.92,1014.40,10.00,M,OVC,M,M,M,600.00,M,M,M,M,KDUJ 011253Z AUTO 30009KT 10SM OVC006 02/00 A2992 RMK AO2 SLP144 T00170000
DUJ,2017-04-01 12:55,-78.9000,41.1800,M,M,M,300.00,11.00,M,29.92,M,10.00,16.00,OVC,M,M,M,600.00,M,M,M,M,KDUJ 011255Z AUTO 30011G16KT 10SM OVC006 A2992 RMK MADISHF
DUJ,2017-04-01 13:00,-78.9000,41.1800,M,M,M,300.00,10.00,M,29.92,M,10.00,M,OVC,M,M,M,600.00,M,M,M,M,KDUJ 011300Z AUTO 30010KT 10SM OVC006 A2992 RMK MADISHF
DUJ,2017-04-01 13:05,-78.9000,41.1800,M,M,M,310.00,9.00,M,29.92,M,10.00,M,OVC,M,M,M,600.00,M,M,M,M,KDUJ 011305Z AUTO 31009KT 10SM OVC006 A2992 RMK MADISHF
DUJ,2017-04-01 13:10,-78.9000,41.1800,M,M,M,310.00,7.00,M,29.92,M,10.00,M,OVC,M,M,M,600.00,M,M,M,M,KDUJ 011310Z AUTO 31007KT 10SM OVC006 A2992 RMK MADISHF
DUJ,2017-04-01 13:15,-78.9000,41.1800,M,M,M,300.00,11.00,M,29.92,M,10.00,M,OVC,M,M,M,600.00,M,M,M,M,KDUJ 011315Z AUTO 30011KT 10SM OVC006 A2992 RMK MADISHF
DUJ,2017-04-01 13:20,-78.9000,41.1800,M,M,M,300.00,8.00,M,29.92,M,10.00,M,OVC,M,M,M,600.00,M,M,M,M,KDUJ 011320Z AUTO 30008KT 10SM OVC006 A2992 RMK MADISHF
DUJ,2017-04-01 13:25,-78.9000,41.1800,M,M,M,290.00,8.00,M,29.92,M,10.00,M,OVC,M,M,M,600.00,M,M,M,M,KDUJ 011325Z AUTO 29008KT 10SM OVC006 A2992 RMK MADISHF
DUJ,2017-04-01 13:30,-78.9000,41.1800,M,M,M,290.00,8.00,M,29.92,M,10.00,M,OVC,M,M,M,600.00,M,M,M,M,KDUJ 011330Z AUTO 29008KT 10SM OVC006 A2992 RMK MADISHF
DUJ,2017-04-01 13:35,-78.9000,41.1800,M,M,M,300.00,11.00,M,29.93,M,10.00,M,OVC,M,M,M,600.00,M,M,M,M,KDUJ 011335Z AUTO 30011KT 10SM OVC006 A2993 RMK MADISHF
DUJ,2017-04-01 13:40,-78.9000,41.1800,M,M,M,300.00,12.00,M,29.93,M,10.00,M,OVC,M,M,M,600.00,M,M,M,M,KDUJ 011340Z AUTO 30012KT 10SM OVC006 A2993 RMK MADISHF
DUJ,2017-04-01 13:45,-78.9000,41.1800,M,M,M,310.00,10.00,M,29.93,M,10.00,M,OVC,M,M,M,600.00,M,M,M,M,KDUJ 011345Z AUTO 31010KT 10SM OVC006 A2993 RMK MADISHF
DUJ,2017-04-01 13:50,-78.9000,41.1800,M,M,M,300.00,7.00,M,29.94,M,10.00,M,OVC,M,M,M,600.00,M,M,M,M,KDUJ 011350Z AUTO 30007KT 10SM OVC006 A2994 RMK MADISHF
DUJ,2017-04-01 13:53,-78.9000,41.1800,35.10,32.00,88.33,290.00,8.00,0.00,29.94,1015.20,10.00,M,OVC,M,M,M,600.00,M,M,M,M,KDUJ 011353Z AUTO 29008KT 10SM OVC006 02/00 A2994 RMK AO2 SLP152 T00170000
DUJ,2017-04-01 13:55,-78.9000,41.1800,M,M,M,290.00,8.00,M,29.94,M,10.00,M,OVC,M,M,M,600.00,M,M,M,M,KDUJ 011355Z AUTO 29008KT 10SM OVC006 A2994 RMK MADISHF
DUJ,2017-04-01 14:00,-78.9000,41.1800,M,M,M,300.00,7.00,M,29.95,M,10.00,M,OVC,M,M,M,600.00,M,M,M,M,KDUJ 011400Z AUTO 30007KT 10SM OVC006 A2995 RMK MADISHF
DUJ,2017-04-01 14:05,-78.9000,41.1800,M,M,M,300.00,10.00,M,29.95,M,10.00,M,OVC,M,M,M,600.00,M,M,M,M,KDUJ 011405Z AUTO 30010KT 10SM OVC006 A2995 RMK MADISHF
DUJ,2017-04-01 14:10,-78.9000,41.1800,M,M,M,310.00,9.00,M,29.95,M,10.00,M,OVC,M,M,M,600.00,M,M,M,M,KDUJ 011410Z AUTO 31009KT 10SM OVC006 A2995 RMK MADISHF
DUJ,2017-04-01 14:15,-78.9000,41.1800,M,M,M,310.00,7.00,M,29.95,M,10.00,M,OVC,M,M,M,600.00,M,M,M,M,KDUJ 011415Z AUTO 31007KT 10SM OVC006 A2995 RMK MADISHF
DUJ,2017-04-01 14:20,-78.9000,41.1800,M,M,M,300.00,7.00,M,29.96,M,10.00,M,OVC,M,M,M,600.00,M,M,M,M,KDUJ 011420Z AUTO 30007KT 10SM OVC006 A2996 RMK MADISHF
DUJ,2017-04-01 14:25,-78.9000,41.1800,M,M,M,300.00,12.00,M,29.96,M,10.00,M,OVC,M,M,M,600.00,M,M,M,M,KDUJ 011425Z AUTO 30012KT 10SM OVC006 A2996 RMK MADISHF
DUJ,2017-04-01 14:30,-78.9000,41.1800,M,M,M,310.00,10.00,M,29.96,M,10.00,M,OVC,M,M,M,600.00,M,M,M,M,KDUJ 011430Z AUTO 31010KT 10SM OVC006 A2996 RMK MADISHF
DUJ,2017-04-01 14:35,-78.9000,41.1800,M,M,M,300.00,9.00,M,29.96,M,10.00,M,OVC,M,M,M,600.00,M,M,M,M,KDUJ 011435Z AUTO 30009KT 10SM OVC006 A2996 RMK MADISHF
DUJ,2017-04-01 14:40,-78.9000,41.1800,M,M,M,300.00,10.00,M,29.97,M,10.00,M,OVC,M,M,M,700.00,M,M,M,M,KDUJ 011440Z AUTO 30010KT 10SM OVC007 A2997 RMK MADISHF
DUJ,2017-04-01 14:45,-78.9000,41.1800,M,M,M,310.00,10.00,M,29.97,M,10.00,M,OVC,M,M,M,700.00,M,M,M,M,KDUJ 011445Z AUTO 31010KT 10SM OVC007 A2997 RMK MADISHF
DUJ,2017-04-01 14:50,-78.9000,41.1800,M,M,M,310.00,11.00,M,29.97,M,10.00,M,OVC,M,M,M,700.00,M,M,M,M,KDUJ 011450Z AUTO 31011KT 10SM OVC007 A2997 RMK MADISHF
DUJ,2017-04-01 14:53,-78.9000,41.1800,36.00,32.00,85.23,290.00,13.00,0.00,29.97,1016.10,10.00,18.00,OVC,M,M,M,700.00,M,M,M,M,KDUJ 011453Z AUTO 29013G18KT 10SM OVC007 02/00 A2997 RMK AO2 SLP161 T00220000 53026
DUJ,2017-04-01 14:55,-78.9000,41.1800,M,M,M,310.00,11.00,M,29.97,M,10.00,M,OVC,M,M,M,700.00,M,M,M,M,KDUJ 011455Z AUTO 31011KT 10SM OVC007 A2997 RMK MADISHF
DUJ,2017-04-01 15:00,-78.9000,41.1800,M,M,M,290.00,11.00,M,29.97,M,10.00,M,OVC,M,M,M,700.00,M,M,M,M,KDUJ 011500Z AUTO 29011KT 10SM OVC007 A2997 RMK MADISHF
DUJ,2017-04-01 15:05,-78.9000,41.1800,M,M,M,310.00,11.00,M,29.97,M,10.00,M,OVC,M,M,M,700.00,M,M,M,M,KDUJ 011505Z AUTO 31011KT 10SM OVC007 A2997 RMK MADISHF
DUJ,2017-04-01 15:10,-78.9000,41.1800,M,M,M,320.00,10.00,M,29.97,M,10.00,M,OVC,M,M,M,800.00,M,M,M,M,KDUJ 011510Z AUTO 32010KT 10SM OVC008 A2997 RMK WND 29V35  MADISHF
DUJ,2017-04-01 15:15,-78.9000,41.1800,M,M,M,300.00,10.00,M,29.97,M,9.00,M,OVC,M,M,M,800.00,M,M,M,M,KDUJ 011515Z AUTO 30010KT 9SM OVC008 A2997 RMK MADISHF
DUJ,2017-04-01 15:20,-78.9000,41.1800,M,M,M,310.00,9.00,M,29.98,M,9.00,M,OVC,M,M,M,800.00,M,M,M,M,KDUJ 011520Z AUTO 31009KT 9SM OVC008 A2998 RMK MADISHF
DUJ,2017-04-01 15:25,-78.9000,41.1800,M,M,M,310.00,9.00,M,29.98,M,10.00,M,OVC,M,M,M,800.00,M,M,M,M,KDUJ 011525Z AUTO 31009KT 10SM OVC008 A2998 RMK MADISHF
DUJ,2017-04-01 15:30,-78.9000,41.1800,M,M,M,300.00,9.00,M,29.97,M,10.00,M,OVC,M,M,M,800.00,M,M,M,M,KDUJ 011530Z AUTO 30009KT 10SM OVC008 A2997 RMK MADISHF
DUJ,2017-04-01 15:35,-78.9000,41.1800,M,M,M,300.00,8.00,M,29.97,M,10.00,M,OVC,M,M,M,800.00,M,M,M,M,KDUJ 011535Z AUTO 30008KT 10SM OVC008 A2997 RMK MADISHF
DUJ,2017-04-01 15:40,-78.9000,41.1800,M,M,M,300.00,9.00,M,29.97,M,10.00,14.00,OVC,M,M,M,700.00,M,M,M,M,KDUJ 011540Z AUTO 30009G14KT 10SM OVC007 A2997 RMK MADISHF
DUJ,2017-04-01 15:45,-78.9000,41.1800,M,M,M,300.00,12.00,M,29.97,M,10.00,M,OVC,M,M,M,700.00,M,M,M,M,KDUJ 011545Z AUTO 30012KT 10SM OVC007 A2997 RMK MADISHF
DUJ,2017-04-01 15:50,-78.9000,41.1800,M,M,M,300.00,10.00,M,29.96,M,10.00,M,OVC,M,M,M,700.00,M,M,M,M,KDUJ 011550Z AUTO 30010KT 10SM OVC007 A2996 RMK MADISHF
DUJ,2017-04-01 15:53,-78.9000,41.1800,37.00,33.10,85.64,310.00,9.00,0.00,29.96,1015.90,10.00,M,OVC,M,M,M,700.00,M,M,M,M,KDUJ 011553Z AUTO 31009KT 10SM OVC007 03/01 A2996 RMK AO2 SLP159 T00280006
DUJ,2017-04-01 15:55,-78.9000,41.1800,M,M,M,M,M,M,29.96,M,10.00,M,OVC,M,M,M,700.00,M,M,M,M,KDUJ 011555Z AUTO /////KT 10SM OVC007 A2996 RMK MADISHF
DUJ,2017-04-01 16:00,-78.9000,41.1800,M,M,M,320.00,11.00,M,29.96,M,10.00,M,OVC,M,M,M,800.00,M,M,M,M,KDUJ 011600Z AUTO 32011KT 10SM OVC008 A2996 RMK MADISHF
DUJ,2017-04-01 16:05,-78.9000,41.1800,M,M,M,320.00,10.00,M,29.97,M,10.00,M,OVC,M,M,M,800.00,M,M,M,M,KDUJ 011605Z AUTO 32010KT 10SM OVC008 A2997 RMK MADISHF
DUJ,2017-04-01 16:10,-78.9000,41.1800,M,M,M,320.00,8.00,M,29.96,M,10.00,M,OVC,M,M,M,900.00,M,M,M,M,KDUJ 011610Z AUTO 32008KT 10SM OVC009 A2996 RMK MADISHF
DUJ,2017-04-01 16:15,-78.9000,41.1800,M,M,M,320.00,8.00,M,29.97,M,10.00,M,OVC,M,M,M,900.00,M,M,M,M,KDUJ 011615Z AUTO 32008KT 10SM OVC009 A2997 RMK MADISHF
DUJ,2017-04-01 16:20,-78.9000,41.1800,M,M,M,300.00,9.00,M,29.97,M,10.00,M,OVC,M,M,M,900.00,M,M,M,M,KDUJ 011620Z AUTO 30009KT 10SM OVC009 A2997 RMK CIG 8V12  MADISHF
DUJ,2017-04-01 16:25,-78.9000,41.1800,M,M,M,310.00,8.00,M,29.97,M,10.00,M,OVC,M,M,M,900.00,M,M,M,M,KDUJ 011625Z AUTO 31008KT 10SM OVC009 A2997 RMK CIG 9V14  MADISHF
DUJ,2017-04-01 16:30,-78.9000,41.1800,M,M,M,310.00,10.00,M,29.97,M,10.00,M,OVC,M,M,M,900.00,M,M,M,M,KDUJ 011630Z AUTO 31010KT 10SM OVC009 A2997 RMK CIG 9V14  MADISHF
DUJ,2017-04-01 16:35,-78.9000,41.1800,M,M,M,310.00,10.00,M,29.97,M,10.00,M,OVC,M,M,M,1100.00,M,M,M,M,KDUJ 011635Z AUTO 31010KT 10SM OVC011 A2997 RMK MADISHF
DUJ,2017-04-01 16:40,-78.9000,41.1800,37.90,32.00,79.08,300.00,11.00,0.00,29.98,M,10.00,M,OVC,M,M,M,1100.00,M,M,M,M,KDUJ 011640Z AUTO 30011KT 10SM OVC011 03/00 A2998 RMK AO2 T00330000
DUJ,2017-04-01 16:45,-78.9000,41.1800,M,M,M,300.00,11.00,M,29.97,M,10.00,M,OVC,M,M,M,1100.00,M,M,M,M,KDUJ 011645Z AUTO 30011KT 10SM OVC011 A2997 RMK MADISHF
DUJ,2017-04-01 16:50,-78.9000,41.1800,M,M,M,290.00,10.00,M,29.97,M,10.00,M,OVC,M,M,M,1100.00,M,M,M,M,KDUJ 011650Z AUTO 29010KT 10SM OVC011 A2997 RMK MADISHF
DUJ,2017-04-01 16:53,-78.9000,41.1800,37.90,33.10,82.66,300.00,12.00,0.00,29.97,1015.90,10.00,M,OVC,M,M,M,1100.00,M,M,M,M,KDUJ 011653Z AUTO 30012KT 10SM OVC011 03/01 A2997 RMK AO2 SLP159 T00330006
DUJ,2017-04-01 16:55,-78.9000,41.1800,M,M,M,300.00,11.00,M,29.97,M,10.00,M,OVC,M,M,M,1100.00,M,M,M,M,KDUJ 011655Z AUTO 30011KT 10SM OVC011 A2997 RMK CIG 10V13  MADISHF
DUJ,2017-04-01 17:00,-78.9000,41.1800,M,M,M,290.00,11.00,M,29.97,M,10.00,M,OVC,M,M,M,1100.00,M,M,M,M,KDUJ 011700Z AUTO 29011KT 10SM OVC011 A2997 RMK CIG 10V13  MADISHF
DUJ,2017-04-01 17:05,-78.9000,41.1800,M,M,M,290.00,8.00,M,29.97,M,10.00,M,OVC,M,M,M,1100.00,M,M,M,M,KDUJ 011705Z AUTO 29008KT 10SM OVC011 A2997 RMK CIG 10V14  MADISHF
DUJ,2017-04-01 17:10,-78.9000,41.1800,M,M,M,300.00,11.00,M,29.97,M,10.00,M,OVC,M,M,M,1100.00,M,M,M,M,KDUJ 011710Z AUTO 30011KT 10SM OVC011 A2997 RMK MADISHF
DUJ,2017-04-01 17:15,-78.9000,41.1800,M,M,M,300.00,12.00,M,29.97,M,10.00,M,OVC,M,M,M,1100.00,M,M,M,M,KDUJ 011715Z AUTO 30012KT 10SM OVC011 A2997 RMK MADISHF
DUJ,2017-04-01 17:20,-78.9000,41.1800,M,M,M,310.00,12.00,M,29.98,M,10.00,17.00,OVC,M,M,M,1100.00,M,M,M,M,KDUJ 011720Z AUTO 31012G17KT 10SM OVC011 A2998 RMK MADISHF
DUJ,2017-04-01 17:25,-78.9000,41.1800,M,M,M,290.00,10.00,M,29.98,M,10.00,M,OVC,M,M,M,1100.00,M,M,M,M,KDUJ 011725Z AUTO 29010KT 10SM OVC011 A2998 RMK MADISHF
DUJ,2017-04-01 17:30,-78.9000,41.1800,M,M,M,290.00,11.00,M,29.98,M,10.00,M,OVC,M,M,M,1100.00,M,M,M,M,KDUJ 011730Z AUTO 29011KT 10SM OVC011 A2998 RMK MADISHF
DUJ,2017-04-01 17:35,-78.9000,41.1800,M,M,M,290.00,10.00,M,29.99,M,10.00,M,OVC,M,M,M,1200.00,M,M,M,M,KDUJ 011735Z AUTO 29010KT 10SM OVC012 A2999 RMK MADISHF
DUJ,2017-04-01 17:40,-78.9000,41.1800,M,M,M,300.00,11.00,M,29.99,M,10.00,M,OVC,M,M,M,1200.00,M,M,M,M,KDUJ 011740Z AUTO 30011KT 10SM OVC012 A2999 RMK MADISHF
DUJ,2017-04-01 17:45,-78.9000,41.1800,M,M,M,320.00,10.00,M,29.99,M,10.00,M,OVC,M,M,M,1200.00,M,M,M,M,KDUJ 011745Z AUTO 32010KT 10SM OVC012 A2999 RMK MADISHF
DUJ,2017-04-01 17:50,-78.9000,41.1800,M,M,M,300.00,13.00,M,29.99,M,10.00,M,OVC,M,M,M,1200.00,M,M,M,M,KDUJ 011750Z AUTO 30013KT 10SM OVC012 A2999 RMK MADISHF
DUJ,2017-04-01 17:53,-78.9000,41.1800,39.00,33.10,79.17,310.00,13.00,0.00,29.99,1016.80,10.00,M,OVC,M,M,M,1200.00,M,M,M,M,KDUJ 011753Z AUTO 31013KT 10SM OVC012 04/01 A2999 RMK AO2 SLP168 T00390006 10044 20017 53007
DUJ,2017-04-01 17:55,-78.9000,41.1800,M,M,M,290.00,12.00,M,29.99,M,10.00,M,OVC,M,M,M,1200.00,M,M,M,M,KDUJ 011755Z AUTO 29012KT 10SM OVC012 A2999 RMK MADISHF
DUJ,2017-04-01 18:00,-78.9000,41.1800,M,M,M,290.00,11.00,M,29.99,M,10.00,M,OVC,M,M,M,1200.00,M,M,M,M,KDUJ 011800Z AUTO 29011KT 10SM OVC012 A2999 RMK MADISHF
DUJ,2017-04-01 18:05,-78.9000,41.1800,M,M,M,310.00,10.00,M,29.99,M,10.00,M,OVC,M,M,M,1200.00,M,M,M,M,KDUJ 011805Z AUTO 31010KT 10SM OVC012 A2999 RMK MADISHF
DUJ,2017-04-01 18:10,-78.9000,41.1800,M,M,M,300.00,10.00,M,29.99,M,10.00,M,OVC,M,M,M,1200.00,M,M,M,M,KDUJ 011810Z AUTO 30010KT 10SM OVC012 A2999 RMK MADISHF
DUJ,2017-04-01 18:15,-78.9000,41.1800,M,M,M,290.00,10.00,M,29.99,M,10.00,M,OVC,M,M,M,1200.00,M,M,M,M,KDUJ 011815Z AUTO 29010KT 10SM OVC012 A2999 RMK MADISHF
DUJ,2017-04-01 18:20,-78.9000,41.1800,M,M,M,310.00,11.00,M,29.99,M,10.00,M,OVC,M,M,M,1200.00,M,M,M,M,KDUJ 011820Z AUTO 31011KT 10SM OVC012 A2999 RMK MADISHF
DUJ,2017-04-01 18:25,-78.9000,41.1800,M,M,M,310.00,9.00,M,29.99,M,10.00,M,OVC,M,M,M,1200.00,M,M,M,M,KDUJ 011825Z AUTO 31009KT 10SM OVC012 A2999 RMK MADISHF
DUJ,2017-04-01 18:30,-78.9000,41.1800,M,M,M,300.00,9.00,M,29.99,M,10.00,M,OVC,M,M,M,1300.00,M,M,M,M,KDUJ 011830Z AUTO 30009KT 10SM OVC013 A2999 RMK MADISHF
DUJ,2017-04-01 18:35,-78.9000,41.1800,M,M,M,290.00,9.00,M,29.99,M,10.00,M,OVC,M,M,M,1300.00,M,M,M,M,KDUJ 011835Z AUTO 29009KT 10SM OVC013 A2999 RMK MADISHF
DUJ,2017-04-01 18:40,-78.9000,41.1800,M,M,M,310.00,11.00,M,29.99,M,10.00,M,OVC,M,M,M,1300.00,M,M,M,M,KDUJ 011840Z AUTO 31011KT 10SM OVC013 A2999 RMK MADISHF
DUJ,2017-04-01 18:45,-78.9000,41.1800,M,M,M,300.00,11.00,M,29.99,M,10.00,M,OVC,M,M,M,1300.00,M,M,M,M,KDUJ 011845Z AUTO 30011KT 10SM OVC013 A2999 RMK MADISHF
DUJ,2017-04-01 18:50,-78.9000,41.1800,M,M,M,300.00,8.00,M,29.99,M,10.00,M,OVC,M,M,M,1300.00,M,M,M,M,KDUJ 011850Z AUTO 30008KT 10SM OVC013 A2999 RMK MADISHF
DUJ,2017-04-01 18:53,-78.9000,41.1800,39.00,32.00,75.75,300.00,11.00,0.00,29.99,1016.70,10.00,M,OVC,M,M,M,1400.00,M,M,M,M,KDUJ 011853Z AUTO 30011KT 10SM OVC014 04/00 A2999 RMK AO2 SLP167 T00390000
DUJ,2017-04-01 18:55,-78.9000,41.1800,M,M,M,290.00,11.00,M,30.00,M,10.00,M,OVC,M,M,M,1400.00,M,M,M,M,KDUJ 011855Z AUTO 29011KT 10SM OVC014 A3000 RMK MADISHF
DUJ,2017-04-01 19:00,-78.9000,41.1800,M,M,M,310.00,11.00,M,30.00,M,10.00,M,OVC,M,M,M,1400.00,M,M,M,M,KDUJ 011900Z AUTO 31011KT 10SM OVC014 A3000 RMK MADISHF
DUJ,2017-04-01 19:05,-78.9000,41.1800,M,M,M,300.00,8.00,M,30.00,M,10.00,M,OVC,M,M,M,1500.00,M,M,M,M,KDUJ 011905Z AUTO 30008KT 10SM OVC015 A3000 RMK MADISHF
DUJ,2017-04-01 19:09,-78.9000,41.1800,39.00,32.00,75.75,290.00,8.00,0.00,30.00,M,10.00,M,OVC,M,M,M,1500.00,M,M,M,M,KDUJ 011909Z AUTO 29008KT 10SM OVC015 04/00 A3000 RMK AO2 T00390000
DUJ,2017-04-01 19:10,-78.9000,41.1800,M,M,M,280.00,10.00,M,30.00,M,10.00,M,OVC,M,M,M,1500.00,M,M,M,M,KDUJ 011910Z AUTO 28010KT 10SM OVC015 A3000 RMK MADISHF
DUJ,2017-04-01 19:15,-78.9000,41.1800,M,M,M,290.00,13.00,M,30.00,M,10.00,M,OVC,M,M,M,1500.00,M,M,M,M,KDUJ 011915Z AUTO 29013KT 10SM OVC015 A3000 RMK MADISHF
DUJ,2017-04-01 19:20,-78.9000,41.1800,M,M,M,290.00,8.00,M,30.00,M,10.00,M,OVC,M,M,M,1400.00,M,M,M,M,KDUJ 011920Z AUTO 29008KT 10SM OVC014 A3000 RMK MADISHF
DUJ,2017-04-01 19:24,-78.9000,41.1800,39.00,32.00,75.75,310.00,9.00,0.00,30.00,M,10.00,M,OVC,M,M,M,1400.00,M,M,M,M,KDUJ 011924Z AUTO 31009KT 10SM OVC014 04/00 A3000 RMK AO2 T00390000
DUJ,2017-04-01 19:25,-78.9000,41.1800,M,M,M,300.00,8.00,M,30.00,M,10.00,M,OVC,M,M,M,1400.00,M,M,M,M,KDUJ 011925Z AUTO 30008KT 10SM OVC014 A3000 RMK MADISHF
DUJ,2017-04-01 19:30,-78.9000,41.1800,M,M,M,320.00,7.00,M,30.00,M,10.00,M,OVC,M,M,M,1400.00,M,M,M,M,KDUJ 011930Z AUTO 32007KT 10SM OVC014 A3000 RMK MADISHF
DUJ,2017-04-01 19:35,-78.9000,41.1800,M,M,M,320.00,9.00,M,30.00,M,10.00,M,OVC,M,M,M,1400.00,M,M,M,M,KDUJ 011935Z AUTO 32009KT 10SM OVC014 A3000 RMK MADISHF
DUJ,2017-04-01 19:40,-78.9000,41.1800,M,M,M,310.00,7.00,M,30.00,M,10.00,M,OVC,M,M,M,1400.00,M,M,M,M,KDUJ 011940Z AUTO 31007KT 10SM OVC014 A3000 RMK MADISHF
DUJ,2017-04-01 19:45,-78.9000,41.1800,M,M,M,310.00,10.00,M,30.00,M,10.00,M,OVC,M,M,M,1300.00,M,M,M,M,KDUJ 011945Z AUTO 31010KT 10SM OVC013 A3000 RMK MADISHF
DUJ,2017-04-01 19:50,-78.9000,41.1800,M,M,M,290.00,9.00,M,30.00,M,10.00,M,OVC,M,M,M,1300.00,M,M,M,M,KDUJ 011950Z AUTO 29009KT 10SM OVC013 A3000 RMK MADISHF
DUJ,2017-04-01 19:53,-78.9000,41.1800,39.00,32.00,75.75,280.00,9.00,0.00,30.00,1017.00,10.00,M,OVC,M,M,M,1300.00,M,M,M,M,KDUJ 011953Z AUTO 28009KT 10SM OVC013 04/00 A3000 RMK AO2 SLP170 T00390000
DUJ,2017-04-01 19:55,-78.9000,41.1800,M,M,M,290.00,9.00,M,30.00,M,10.00,M,OVC,M,M,M,1300.00,M,M,M,M,KDUJ 011955Z AUTO 29009KT 10SM OVC013 A3000 RMK MADISHF
DUJ,2017-04-01 20:00,-78.9000,41.1800,M,M,M,290.00,9.00,M,30.00,M,10.00,M,OVC,M,M,M,1300.00,M,M,M,M,KDUJ 012000Z AUTO 29009KT 10SM OVC013 A3000 RMK MADISHF
DUJ,2017-04-01 20:05,-78.9000,41.1800,M,M,M,270.00,11.00,M,30.01,M,10.00,M,OVC,M,M,M,1300.00,M,M,M,M,KDUJ 012005Z AUTO 27011KT 10SM OVC013 A3001 RMK MADISHF
DUJ,2017-04-01 20:10,-78.9000,41.1800,M,M,M,300.00,9.00,M,30.01,M,10.00,M,OVC,M,M,M,1300.00,M,M,M,M,KDUJ 012010Z AUTO 30009KT 10SM OVC013 A3001 RMK MADISHF
DUJ,2017-04-01 20:15,-78.9000,41.1800,M,M,M,300.00,10.00,M,30.01,M,10.00,M,OVC,M,M,M,1200.00,M,M,M,M,KDUJ 012015Z AUTO 30010KT 10SM OVC012 A3001 RMK MADISHF
DUJ,2017-04-01 20:20,-78.9000,41.1800,M,M,M,300.00,8.00,M,30.01,M,10.00,M,OVC,M,M,M,1200.00,M,M,M,M,KDUJ 012020Z AUTO 30008KT 10SM OVC012 A3001 RMK MADISHF
DUJ,2017-04-01 20:25,-78.9000,41.1800,M,M,M,280.00,7.00,M,30.01,M,10.00,M,OVC,M,M,M,1200.00,M,M,M,M,KDUJ 012025Z AUTO 28007KT 10SM OVC012 A3001 RMK MADISHF
DUJ,2017-04-01 20:30,-78.9000,41.1800,M,M,M,300.00,9.00,M,30.02,M,10.00,M,OVC,M,M,M,1200.00,M,M,M,M,KDUJ 012030Z AUTO 30009KT 10SM OVC012 A3002 RMK MADISHF
DUJ,2017-04-01 20:35,-78.9000,41.1800,M,M,M,290.00,8.00,M,30.02,M,10.00,M,OVC,M,M,M,1200.00,M,M,M,M,KDUJ 012035Z AUTO 29008KT 10SM OVC012 A3002 RMK MADISHF
DUJ,2017-04-01 20:40,-78.9000,41.1800,M,M,M,310.00,9.00,M,30.02,M,10.00,M,OVC,M,M,M,1200.00,M,M,M,M,KDUJ 012040Z AUTO 31009KT 10SM OVC012 A3002 RMK MADISHF
DUJ,2017-04-01 20:45,-78.9000,41.1800,M,M,M,300.00,6.00,M,30.02,M,10.00,M,OVC,M,M,M,1300.00,M,M,M,M,KDUJ 012045Z AUTO 30006KT 10SM OVC013 A3002 RMK MADISHF
DUJ,2017-04-01 20:50,-78.9000,41.1800,M,M,M,290.00,8.00,M,30.02,M,10.00,M,OVC,M,M,M,1300.00,M,M,M,M,KDUJ 012050Z AUTO 29008KT 10SM OVC013 A3002 RMK MADISHF
DUJ,2017-04-01 20:53,-78.9000,41.1800,39.00,33.10,79.17,300.00,8.00,0.00,30.02,1017.80,10.00,14.00,OVC,M,M,M,1300.00,M,M,M,M,KDUJ 012053Z AUTO 30008G14KT 10SM OVC013 04/01 A3002 RMK AO2 SLP178 T00390006 53009
DUJ,2017-04-01 20:55,-78.9000,41.1800,M,M,M,300.00,8.00,M,30.02,M,10.00,M,OVC,M,M,M,1300.00,M,M,M,M,KDUJ 012055Z AUTO 30008KT 10SM OVC013 A3002 RMK MADISHF
DUJ,2017-04-01 21:00,-78.9000,41.1800,M,M,M,300.00,8.00,M,30.03,M,10.00,M,OVC,M,M,M,1300.00,M,M,M,M,KDUJ 012100Z AUTO 30008KT 10SM OVC013 A3003 RMK MADISHF
DUJ,2017-04-01 21:05,-78.9000,41.1800,M,M,M,290.00,11.00,M,30.04,M,10.00,M,OVC,M,M,M,1300.00,M,M,M,M,KDUJ 012105Z AUTO 29011KT 10SM OVC013 A3004 RMK MADISHF
DUJ,2017-04-01 21:10,-78.9000,41.1800,M,M,M,290.00,10.00,M,30.04,M,10.00,M,OVC,M,M,M,1300.00,M,M,M,M,KDUJ 012110Z AUTO 29010KT 10SM OVC013 A3004 RMK MADISHF
DUJ,2017-04-01 21:15,-78.9000,41.1800,M,M,M,300.00,10.00,M,30.05,M,10.00,15.00,OVC,M,M,M,1300.00,M,M,M,M,KDUJ 012115Z AUTO 30010G15KT 10SM OVC013 A3005 RMK MADISHF
DUJ,2017-04-01 21:20,-78.9000,41.1800,M,M,M,310.00,10.00,M,30.05,M,10.00,M,OVC,M,M,M,1300.00,M,M,M,M,KDUJ 012120Z AUTO 31010KT 10SM OVC013 A3005 RMK MADISHF
DUJ,2017-04-01 21:25,-78.9000,41.1800,M,M,M,290.00,9.00,M,30.06,M,10.00,M,OVC,M,M,M,1400.00,M,M,M,M,KDUJ 012125Z AUTO 29009KT 10SM OVC014 A3006 RMK MADISHF
DUJ,2017-04-01 21:30,-78.9000,41.1800,M,M,M,290.00,9.00,M,30.06,M,10.00,M,OVC,M,M,M,1400.00,M,M,M,M,KDUJ 012130Z AUTO 29009KT 10SM OVC014 A3006 RMK MADISHF
DUJ,2017-04-01 21:35,-78.9000,41.1800,M,M,M,300.00,11.00,M,30.07,M,10.00,M,OVC,M,M,M,1400.00,M,M,M,M,KDUJ 012135Z AUTO 30011KT 10SM OVC014 A3007 RMK MADISHF
DUJ,2017-04-01 21:40,-78.9000,41.1800,M,M,M,310.00,11.00,M,30.06,M,10.00,M,OVC,M,M,M,1400.00,M,M,M,M,KDUJ 012140Z AUTO 31011KT 10SM OVC014 A3006 RMK MADISHF
DUJ,2017-04-01 21:45,-78.9000,41.1800,M,M,M,300.00,12.00,M,30.07,M,10.00,M,OVC,M,M,M,1400.00,M,M,M,M,KDUJ 012145Z AUTO 30012KT 10SM OVC014 A3007 RMK MADISHF
DUJ,2017-04-01 21:50,-78.9000,41.1800,M,M,M,310.00,11.00,M,30.08,M,10.00,M,OVC,M,M,M,1400.00,M,M,M,M,KDUJ 012150Z AUTO 31011KT 10SM OVC014 A3008 RMK MADISHF
DUJ,2017-04-01 21:53,-78.9000,41.1800,37.90,32.00,79.08,310.00,11.00,0.00,30.08,1020.00,10.00,M,OVC,M,M,M,1400.00,M,M,M,M,KDUJ 012153Z AUTO 31011KT 10SM OVC014 03/00 A3008 RMK AO2 SLP200 T00330000
DUJ,2017-04-01 21:55,-78.9000,41.1800,M,M,M,300.00,11.00,M,30.08,M,10.00,M,OVC,M,M,M,1400.00,M,M,M,M,KDUJ 012155Z AUTO 30011KT 10SM OVC014 A3008 RMK MADISHF
DUJ,2017-04-01 22:00,-78.9000,41.1800,M,M,M,310.00,14.00,M,30.08,M,10.00,M,OVC,M,M,M,1400.00,M,M,M,M,KDUJ 012200Z AUTO 31014KT 10SM OVC014 A3008 RMK MADISHF
DUJ,2017-04-01 22:05,-78.9000,41.1800,M,M,M,300.00,11.00,M,30.08,M,10.00,17.00,OVC,M,M,M,1400.00,M,M,M,M,KDUJ 012205Z AUTO 30011G17KT 10SM OVC014 A3008 RMK MADISHF
DUJ,2017-04-01 22:10,-78.9000,41.1800,M,M,M,310.00,10.00,M,30.08,M,10.00,15.00,OVC,M,M,M,1400.00,M,M,M,M,KDUJ 012210Z AUTO 31010G15KT 10SM OVC014 A3008 RMK MADISHF
DUJ,2017-04-01 22:15,-78.9000,41.1800,M,M,M,310.00,11.00,M,30.08,M,10.00,16.00,OVC,M,M,M,1400.00,M,M,M,M,KDUJ 012215Z AUTO 31011G16KT 10SM OVC014 A3008 RMK MADISHF
DUJ,2017-04-01 22:20,-78.9000,41.1800,M,M,M,310.00,9.00,M,30.09,M,10.00,M,OVC,M,M,M,1300.00,M,M,M,M,KDUJ 012220Z AUTO 31009KT 10SM OVC013 A3009 RMK MADISHF
DUJ,2017-04-01 22:25,-78.9000,41.1800,M,M,M,300.00,10.00,M,30.09,M,10.00,M,OVC,M,M,M,1300.00,M,M,M,M,KDUJ 012225Z AUTO 30010KT 10SM OVC013 A3009 RMK MADISHF
DUJ,2017-04-01 22:30,-78.9000,41.1800,M,M,M,320.00,10.00,M,30.09,M,10.00,M,OVC,M,M,M,1300.00,M,M,M,M,KDUJ 012230Z AUTO 32010KT 10SM OVC013 A3009 RMK MADISHF
DUJ,2017-04-01 22:35,-78.9000,41.1800,M,M,M,310.00,10.00,M,30.09,M,10.00,M,OVC,M,M,M,1300.00,M,M,M,M,KDUJ 012235Z AUTO 31010KT 10SM OVC013 A3009 RMK MADISHF
DUJ,2017-04-01 22:40,-78.9000,41.1800,M,M,M,310.00,10.00,M,30.09,M,10.00,M,OVC,M,M,M,1300.00,M,M,M,M,KDUJ 012240Z AUTO 31010KT 10SM OVC013 A3009 RMK MADISHF
DUJ,2017-04-01 22:45,-78.9000,41.1800,M,M,M,310.00,9.00,M,30.09,M,10.00,M,BKN,OVC,M,M,1300.00,1900.00,M,M,M,KDUJ 012245Z AUTO 31009KT 10SM BKN013 OVC019 A3009 RMK MADISHF
DUJ,2017-04-01 22:50,-78.9000,41.1800,M,M,M,310.00,6.00,M,30.09,M,10.00,M,OVC,M,M,M,1500.00,M,M,M,M,KDUJ 012250Z AUTO 31006KT 10SM OVC015 A3009 RMK MADISHF
DUJ,2017-04-01 22:53,-78.9000,41.1800,37.00,32.00,81.93,310.00,6.00,0.00,30.09,1020.50,10.00,M,BKN,OVC,M,M,1300.00,1900.00,M,M,M,KDUJ 012253Z AUTO 31006KT 10SM BKN013 OVC019 03/00 A3009 RMK AO2 SLP205 T00280000
DUJ,2017-04-01 22:55,-78.9000,41.1800,M,M,M,300.00,7.00,M,30.09,M,10.00,M,BKN,OVC,M,M,1300.00,1900.00,M,M,M,KDUJ 012255Z AUTO 30007KT 10SM BKN013 OVC019 A3009 RMK MADISHF
DUJ,2017-04-01 23:00,-78.9000,41.1800,M,M,M,320.00,7.00,M,30.09,M,10.00,M,OVC,M,M,M,1300.00,M,M,M,M,KDUJ 012300Z AUTO 32007KT 10SM OVC013 A3009 RMK MADISHF
DUJ,2017-04-01 23:05,-78.9000,41.1800,M,M,M,310.00,7.00,M,30.10,M,10.00,M,OVC,M,M,M,1300.00,M,M,M,M,KDUJ 012305Z AUTO 31007KT 10SM OVC013 A3010 RMK WND 28V35  MADISHF
DUJ,2017-04-01 23:10,-78.9000,41.1800,M,M,M,310.00,5.00,M,30.09,M,10.00,M,OVC,M,M,M,1300.00,M,M,M,M,KDUJ 012310Z AUTO 31005KT 10SM OVC013 A3009 RMK MADISHF
DUJ,2017-04-01 23:15,-78.9000,41.1800,M,M,M,310.00,6.00,M,30.09,M,10.00,M,OVC,M,M,M,1300.00,M,M,M,M,KDUJ 012315Z AUTO 31006KT 10SM OVC013 A3009 RMK MADISHF
DUJ,2017-04-01 23:20,-78.9000,41.1800,M,M,M,280.00,9.00,M,30.09,M,10.00,M,OVC,M,M,M,1100.00,M,M,M,M,KDUJ 012320Z AUTO 28009KT 10SM OVC011 A3009 RMK MADISHF
DUJ,2017-04-01 23:25,-78.9000,41.1800,M,M,M,290.00,8.00,M,30.09,M,10.00,M,OVC,M,M,M,1100.00,M,M,M,M,KDUJ 012325Z AUTO 29008KT 10SM OVC011 A3009 RMK MADISHF
DUJ,2017-04-01 23:30,-78.9000,41.1800,M,M,M,280.00,7.00,M,30.09,M,10.00,M,BKN,OVC,M,M,999.00,1400.00,M,M,M,KDUJ 012330Z AUTO 28007KT 10SM BKN009 OVC014 A3009 RMK MADISHF
DUJ,2017-04-01 23:35,-78.9000,41.1800,M,M,M,280.00,7.00,M,30.09,M,10.00,M,OVC,M,M,M,1200.00,M,M,M,M,KDUJ 012335Z AUTO 28007KT 10SM OVC012 A3009 RMK MADISHF
DUJ,2017-04-01 23:40,-78.9000,41.1800,M,M,M,270.00,6.00,M,30.08,M,10.00,M,OVC,M,M,M,1200.00,M,M,M,M,KDUJ 012340Z AUTO 27006KT 10SM OVC012 A3008 RMK MADISHF
DUJ,2017-04-01 23:45,-78.9000,41.1800,M,M,M,280.00,7.00,M,30.08,M,10.00,M,OVC,M,M,M,1200.00,M,M,M,M,KDUJ 012345Z AUTO 28007KT 10SM OVC012 A3008 RMK MADISHF
DUJ,2017-04-01 23:50,-78.9000,41.1800,M,M,M,280.00,7.00,M,30.08,M,10.00,M,BKN,OVC,M,M,1200.00,1699.00,M,M,M,KDUJ 012350Z AUTO 28007KT 10SM BKN012 OVC016 A3008 RMK MADISHF
DUJ,2017-04-01 23:53,-78.9000,41.1800,36.00,32.00,85.23,290.00,8.00,0.00,30.08,1020.20,10.00,M,OVC,M,M,M,1400.00,M,M,M,M,KDUJ 012353Z AUTO 29008KT 10SM OVC014 02/00 A3008 RMK AO2 SLP202 T00220000 10039 20022 50001
DUJ,2017-04-01 23:55,-78.9000,41.1800,M,M,M,280.00,6.00,M,30.08,M,10.00,M,OVC,M,M,M,1400.00,M,M,M,M,KDUJ 012355Z AUTO 28006KT 10SM OVC014 A3008 RMK MADISHF
