#DEBUG: Format Typ    -> comma
#DEBUG: Time Period   -> 2017-04-01 00:00:00+00:00 2017-04-02 00:00:00+00:00
#DEBUG: Time Zone     -> Etc/UTC
#DEBUG: Data Contact   -> daryl herzmann akrherz@iastate.edu 515-294-5978
#DEBUG: Entries Found -> -1
station,valid,lon,lat,tmpf, dwpf, relh, drct, sknt, p01i, alti, mslp, vsby, gust, skyc1, skyc2, skyc3, skyc4, skyl1, skyl2, skyl3, skyl4, presentwx, metar
DVL,2017-04-01 00:00,-98.9083,48.1146,M,M,M,350.00,9.00,M,30.15,M,10.00,M,OVC,M,M,M,499.00,M,M,M,-RA,KDVL 010000Z AUTO 35009KT 10SM -RA OVC004 A3015 RMK MADISHF
DVL,2017-04-01 00:05,-98.9083,48.1146,M,M,M,350.00,8.00,M,30.15,M,10.00,M,OVC,M,M,M,499.00,M,M,M,M,KDVL 010005Z AUTO 35008KT 10SM OVC004 A3015 RMK CIG 4V8  MADISHF
DVL,2017-04-01 00:10,-98.9083,48.1146,M,M,M,350.00,8.00,M,30.15,M,10.00,M,BKN,OVC,M,M,499.00,999.00,M,M,-RA,KDVL 010010Z AUTO 35008KT 10SM -RA BKN004 OVC009 A3015 RMK CIG 4V8  MADISHF
DVL,2017-04-01 00:15,-98.9083,48.1146,M,M,M,360.00,8.00,M,30.15,M,10.00,M,BKN,BKN,OVC,M,499.00,999.00,4400.00,M,-RA,KDVL 010015Z AUTO 36008KT 10SM -RA BKN004 BKN009 OVC044 A3015 RMK CIG 4V8  MADISHF
DVL,2017-04-01 00:20,-98.9083,48.1146,M,M,M,360.00,8.00,M,30.15,M,10.00,M,BKN,OVC,M,M,700.00,4600.00,M,M,-RA,KDVL 010020Z AUTO 36008KT 10SM -RA BKN007 OVC046 A3015 RMK CIG 4V10  MADISHF
DVL,2017-04-01 00:23,-98.9083,48.1146,42.80,39.20,86.99,360.00,8.00,0.00,30.15,M,10.00,M,BKN,OVC,M,M,700.00,4600.00,M,M,-RA,KDVL 010023Z AUTO 36008KT 10SM -RA BKN007 OVC046 06/04 A3015 RMK AO2 CIG 004V010 P0000
DVL,2017-04-01 00:25,-98.9083,48.1146,M,M,M,360.00,9.00,M,30.15,M,10.00,M,BKN,OVC,M,M,700.00,4600.00,M,M,-RA,KDVL 010025Z AUTO 36009KT 10SM -RA BKN007 OVC046 A3015 RMK CIG 4V10  MADISHF
DVL,2017-04-01 00:30,-98.9083,48.1146,M,M,M,360.00,9.00,M,30.15,M,10.00,M,BKN,OVC,M,M,700.00,4600.00,M,M,M,KDVL 010030Z AUTO 36009KT 10SM BKN007 OVC046 A3015 RMK MADISHF
DVL,2017-04-01 00:35,-98.9083,48.1146,M,M,M,360.00,8.00,M,30.16,M,10.00,M,BKN,OVC,M,M,700.00,4600.00,M,M,M,KDVL 010035Z AUTO 36008KT 10SM BKN007 OVC046 A3016 RMK MADISHF
DVL,2017-04-01 00:40,-98.9083,48.1146,M,M,M,360.00,8.00,M,30.16,M,10.00,M,OVC,M,M,M,700.00,M,M,M,M,KDVL 010040Z AUTO 36008KT 10SM OVC007 A3016 RMK MADISHF
DVL,2017-04-01 00:45,-98.9083,48.1146,M,M,M,10.00,10.00,M,30.16,M,10.00,M,OVC,M,M,M,700.00,M,M,M,M,KDVL 010045Z AUTO 01010KT 10SM OVC007 A3016 RMK MADISHF
DVL,2017-04-01 00:50,-98.9083,48.1146,M,M,M,10.00,9.00,M,30.16,M,10.00,M,OVC,M,M,M,700.00,M,M,M,M,KDVL 010050Z AUTO 01009KT 10SM OVC007 A3016 RMK MADISHF
DVL,2017-04-01 00:55,-98.9083,48.1146,M,M,M,10.00,8.00,M,30.16,M,10.00,M,OVC,M,M,M,700.00,M,M,M,M,KDVL 010055Z AUTO 01008KT 10SM OVC007 A3016 RMK MADISHF
DVL,2017-04-01 00:56,-98.9083,48.1146,41.00,39.00,92.52,10.00,7.00,0.00,30.16,1024.50,10.00,M,OVC,M,M,M,700.00,M,M,M,M,KDVL 010056Z AUTO 01007KT 10SM OVC007 05/04 A3016 RMK AO2 RAE28 SLP245 P0000 T00500039
DVL,2017-04-01 01:00,-98.9083,48.1146,M,M,M,10.00,7.00,M,30.16,M,10.00,M,OVC,M,M,M,700.00,M,M,M,M,KDVL 010100Z AUTO 01007KT 10SM OVC007 A3016 RMK MADISHF
DVL,2017-04-01 01:05,-98.9083,48.1146,M,M,M,10.00,6.00,M,30.16,M,10.00,M,OVC,M,M,M,700.00,M,M,M,M,KDVL 010105Z AUTO 01006KT 10SM OVC007 A3016 RMK MADISHF
DVL,2017-04-01 01:10,-98.9083,48.1146,M,M,M,10.00,7.00,M,30.16,M,10.00,M,OVC,M,M,M,700.00,M,M,M,-RA,KDVL 010110Z AUTO 01007KT 10SM -RA OVC007 A3016 RMK MADISHF
DVL,2017-04-01 01:15,-98.9083,48.1146,M,M,M,10.00,7.00,M,30.16,M,10.00,M,OVC,M,M,M,700.00,M,M,M,-RA,KDVL 010115Z AUTO 01007KT 10SM -RA OVC007 A3016 RMK MADISHF
DVL,2017-04-01 01:20,-98.9083,48.1146,M,M,M,20.00,8.00,M,30.16,M,10.00,M,OVC,M,M,M,700.00,M,M,M,-RA,KDVL 010120Z AUTO 02008KT 10SM -RA OVC007 A3016 RMK MADISHF
DVL,2017-04-01 01:25,-98.9083,48.1146,M,M,M,30.00,8.00,M,30.16,M,10.00,M,OVC,M,M,M,700.00,M,M,M,-RA,KDVL 010125Z AUTO 03008KT 10SM -RA OVC007 A3016 RMK MADISHF
DVL,2017-04-01 01:30,-98.9083,48.1146,M,M,M,30.00,8.00,M,30.16,M,10.00,M,OVC,M,M,M,700.00,M,M,M,-RA,KDVL 010130Z AUTO 03008KT 10SM -RA OVC007 A3016 RMK MADISHF
DVL,2017-04-01 01:35,-98.9083,48.1146,M,M,M,20.00,7.00,M,30.16,M,10.00,M,OVC,M,M,M,700.00,M,M,M,-RA,KDVL 010135Z AUTO 02007KT 10SM -RA OVC007 A3016 RMK MADISHF
DVL,2017-04-01 01:40,-98.9083,48.1146,M,M,M,20.00,9.00,M,30.16,M,10.00,M,OVC,M,M,M,700.00,M,M,M,M,KDVL 010140Z AUTO 02009KT 10SM OVC007 A3016 RMK MADISHF
DVL,2017-04-01 01:45,-98.9083,48.1146,M,M,M,20.00,8.00,M,30.16,M,10.00,M,OVC,M,M,M,700.00,M,M,M,M,KDVL 010145Z AUTO 02008KT 10SM OVC007 A3016 RMK MADISHF
DVL,2017-04-01 01:50,-98.9083,48.1146,M,M,M,30.00,7.00,M,30.17,M,10.00,M,OVC,M,M,M,700.00,M,M,M,M,KDVL 010150Z AUTO 03007KT 10SM OVC007 A3017 RMK MADISHF
DVL,2017-04-01 01:55,-98.9083,48.1146,M,M,M,20.00,9.00,M,30.17,M,10.00,M,OVC,M,M,M,700.00,M,M,M,M,KDVL 010155Z AUTO 02009KT 10SM OVC007 A3017 RMK MADISHF
DVL,2017-04-01 01:56,-98.9083,48.1146,39.90,37.90,92.48,30.00,8.00,0.00,30.17,1024.50,10.00,M,OVC,M,M,M,700.00,M,M,M,M,KDVL 010156Z AUTO 03008KT 10SM OVC007 04/03 A3017 RMK AO2 RAB10E37 SLP245 P0000 T00440033
DVL,2017-04-01 02:00,-98.9083,48.1146,M,M,M,30.00,8.00,M,30.17,M,10.00,M,OVC,M,M,M,700.00,M,M,M,M,KDVL 010200Z AUTO 03008KT 10SM OVC007 A3017 RMK MADISHF
DVL,2017-04-01 02:05,-98.9083,48.1146,M,M,M,20.00,8.00,M,30.17,M,10.00,M,OVC,M,M,M,700.00,M,M,M,M,KDVL 010205Z AUTO 02008KT 10SM OVC007 A3017 RMK MADISHF
DVL,2017-04-01 02:15,-98.9083,48.1146,M,M,M,20.00,8.00,M,30.17,M,10.00,M,OVC,M,M,M,700.00,M,M,M,M,KDVL 010215Z AUTO 02008KT 10SM OVC007 A3017 RMK MADISHF
DVL,2017-04-01 02:20,-98.9083,48.1146,M,M,M,20.00,8.00,M,30.18,M,10.00,M,OVC,M,M,M,700.00,M,M,M,M,KDVL 010220Z AUTO 02008KT 10SM OVC007 A3018 RMK MADISHF
DVL,2017-04-01 02:25,-98.9083,48.1146,M,M,M,10.00,9.00,M,30.18,M,10.00,M,OVC,M,M,M,700.00,M,M,M,M,KDVL 010225Z AUTO 01009KT 10SM OVC007 A3018 RMK MADISHF
DVL,2017-04-01 02:35,-98.9083,48.1146,M,M,M,20.00,9.00,M,30.18,M,10.00,M,OVC,M,M,M,700.00,M,M,M,M,KDVL 010235Z AUTO 02009KT 10SM OVC007 A3018 RMK MADISHF
DVL,2017-04-01 02:40,-98.9083,48.1146,M,M,M,20.00,10.00,M,30.18,M,10.00,M,OVC,M,M,M,700.00,M,M,M,M,KDVL 010240Z AUTO 02010KT 10SM OVC007 A3018 RMK MADISHF
DVL,2017-04-01 02:45,-98.9083,48.1146,M,M,M,20.00,9.00,M,30.18,M,10.00,M,OVC,M,M,M,700.00,M,M,M,M,KDVL 010245Z AUTO 02009KT 10SM OVC007 A3018 RMK MADISHF
DVL,2017-04-01 02:50,-98.9083,48.1146,M,M,M,10.00,9.00,M,30.18,M,10.00,M,OVC,M,M,M,700.00,M,M,M,M,KDVL 010250Z AUTO 01009KT 10SM OVC007 A3018 RMK MADISHF
DVL,2017-04-01 02:55,-98.9083,48.1146,M,M,M,20.00,9.00,M,30.19,M,10.00,M,OVC,M,M,M,700.00,M,M,M,M,KDVL 010255Z AUTO 02009KT 10SM OVC007 A3019 RMK MADISHF
DVL,2017-04-01 02:56,-98.9083,48.1146,39.00,37.00,92.45,20.00,9.00,0.00,30.19,1025.00,10.00,M,OVC,M,M,M,700.00,M,M,M,M,KDVL 010256Z AUTO 02009KT 10SM OVC007 04/03 A3019 RMK AO2 SLP250 60000 T00390028 53014
DVL,2017-04-01 03:00,-98.9083,48.1146,M,M,M,20.00,10.00,M,30.19,M,10.00,M,OVC,M,M,M,700.00,M,M,M,M,KDVL 010300Z AUTO 02010KT 10SM OVC007 A3019 RMK MADISHF
DVL,2017-04-01 03:05,-98.9083,48.1146,M,M,M,20.00,9.00,M,30.19,M,10.00,M,OVC,M,M,M,700.00,M,M,M,M,KDVL 010305Z AUTO 02009KT 10SM OVC007 A3019 RMK MADISHF
DVL,2017-04-01 03:10,-98.9083,48.1146,M,M,M,10.00,8.00,M,30.19,M,10.00,M,OVC,M,M,M,700.00,M,M,M,M,KDVL 010310Z AUTO 01008KT 10SM OVC007 A3019 RMK MADISHF
DVL,2017-04-01 03:15,-98.9083,48.1146,M,M,M,20.00,8.00,M,30.19,M,10.00,M,OVC,M,M,M,700.00,M,M,M,M,KDVL 010315Z AUTO 02008KT 10SM OVC007 A3019 RMK MADISHF
DVL,2017-04-01 03:20,-98.9083,48.1146,M,M,M,20.00,8.00,M,30.19,M,10.00,M,OVC,M,M,M,700.00,M,M,M,M,KDVL 010320Z AUTO 02008KT 10SM OVC007 A3019 RMK MADISHF
DVL,2017-04-01 03:25,-98.9083,48.1146,M,M,M,20.00,7.00,M,30.19,M,10.00,M,OVC,M,M,M,700.00,M,M,M,M,KDVL 010325Z AUTO 02007KT 10SM OVC007 A3019 RMK MADISHF
DVL,2017-04-01 03:30,-98.9083,48.1146,M,M,M,10.00,8.00,M,30.20,M,10.00,M,OVC,M,M,M,700.00,M,M,M,M,KDVL 010330Z AUTO 01008KT 10SM OVC007 A3020 RMK MADISHF
DVL,2017-04-01 03:35,-98.9083,48.1146,M,M,M,30.00,6.00,M,30.20,M,10.00,M,BKN,OVC,M,M,700.00,1400.00,M,M,M,KDVL 010335Z AUTO 03006KT 10SM BKN007 OVC014 A3020 RMK MADISHF
DVL,2017-04-01 03:40,-98.9083,48.1146,M,M,M,20.00,6.00,M,30.20,M,10.00,M,BKN,OVC,M,M,700.00,1400.00,M,M,M,KDVL 010340Z AUTO 02006KT 10SM BKN007 OVC014 A3020 RMK MADISHF
DVL,2017-04-01 03:45,-98.9083,48.1146,M,M,M,20.00,5.00,M,30.20,M,10.00,M,SCT,OVC,M,M,700.00,1400.00,M,M,M,KDVL 010345Z AUTO 02005KT 10SM SCT007 OVC014 A3020 RMK MADISHF
DVL,2017-04-01 03:48,-98.9083,48.1146,37.40,37.40,100.00,30.00,6.00,0.00,30.20,M,10.00,M,SCT,OVC,M,M,700.00,1400.00,M,M,M,KDVL 010348Z AUTO 03006KT 10SM SCT007 OVC014 03/03 A3020 RMK AO2
DVL,2017-04-01 03:50,-98.9083,48.1146,M,M,M,30.00,6.00,M,30.20,M,10.00,M,FEW,OVC,M,M,700.00,1400.00,M,M,M,KDVL 010350Z AUTO 03006KT 10SM FEW007 OVC014 A3020 RMK MADISHF
DVL,2017-04-01 03:55,-98.9083,48.1146,M,M,M,30.00,7.00,M,30.19,M,10.00,M,FEW,OVC,M,M,700.00,1400.00,M,M,M,KDVL 010355Z AUTO 03007KT 10SM FEW007 OVC014 A3019 RMK MADISHF
DVL,2017-04-01 03:56,-98.9083,48.1146,37.90,37.00,96.52,30.00,6.00,0.00,30.19,1025.20,10.00,M,FEW,OVC,M,M,700.00,1400.00,M,M,M,KDVL 010356Z AUTO 03006KT 10SM FEW007 OVC014 03/03 A3019 RMK AO2 SLP252 T00330028
DVL,2017-04-01 04:00,-98.9083,48.1146,M,M,M,20.00,7.00,M,30.20,M,10.00,M,OVC,M,M,M,1400.00,M,M,M,M,KDVL 010400Z AUTO 02007KT 10SM OVC014 A3020 RMK MADISHF
DVL,2017-04-01 04:05,-98.9083,48.1146,M,M,M,20.00,6.00,M,30.20,M,10.00,M,OVC,M,M,M,1400.00,M,M,M,M,KDVL 010405Z AUTO 02006KT 10SM OVC014 A3020 RMK MADISHF
DVL,2017-04-01 04:10,-98.9083,48.1146,M,M,M,20.00,7.00,M,30.20,M,10.00,M,OVC,M,M,M,1400.00,M,M,M,M,KDVL 010410Z AUTO 02007KT 10SM OVC014 A3020 RMK MADISHF
DVL,2017-04-01 04:15,-98.9083,48.1146,M,M,M,20.00,6.00,M,30.20,M,10.00,M,OVC,M,M,M,1400.00,M,M,M,M,KDVL 010415Z AUTO 02006KT 10SM OVC014 A3020 RMK MADISHF
DVL,2017-04-01 04:20,-98.9083,48.1146,M,M,M,30.00,6.00,M,30.20,M,10.00,M,OVC,M,M,M,1400.00,M,M,M,M,KDVL 010420Z AUTO 03006KT 10SM OVC014 A3020 RMK MADISHF
DVL,2017-04-01 04:25,-98.9083,48.1146,M,M,M,30.00,5.00,M,30.20,M,10.00,M,OVC,M,M,M,1600.00,M,M,M,M,KDVL 010425Z AUTO 03005KT 10SM OVC016 A3020 RMK MADISHF
DVL,2017-04-01 04:28,-98.9083,48.1146,37.40,35.60,93.14,30.00,6.00,0.00,30.20,M,10.00,M,OVC,M,M,M,1600.00,M,M,M,M,KDVL 010428Z AUTO 03006KT 10SM OVC016 03/02 A3020 RMK AO2
DVL,2017-04-01 04:30,-98.9083,48.1146,M,M,M,30.00,6.00,M,30.20,M,10.00,M,OVC,M,M,M,1600.00,M,M,M,M,KDVL 010430Z AUTO 03006KT 10SM OVC016 A3020 RMK MADISHF
DVL,2017-04-01 04:35,-98.9083,48.1146,M,M,M,40.00,5.00,M,30.20,M,10.00,M,OVC,M,M,M,1600.00,M,M,M,M,KDVL 010435Z AUTO 04005KT 10SM OVC016 A3020 RMK MADISHF
DVL,2017-04-01 04:40,-98.9083,48.1146,M,M,M,40.00,5.00,M,30.20,M,10.00,M,OVC,M,M,M,1600.00,M,M,M,M,KDVL 010440Z AUTO 04005KT 10SM OVC016 A3020 RMK MADISHF
DVL,2017-04-01 04:45,-98.9083,48.1146,M,M,M,40.00,6.00,M,30.20,M,10.00,M,OVC,M,M,M,1600.00,M,M,M,M,KDVL 010445Z AUTO 04006KT 10SM OVC016 A3020 RMK MADISHF
DVL,2017-04-01 04:50,-98.9083,48.1146,M,M,M,40.00,5.00,M,30.20,M,10.00,M,OVC,M,M,M,1600.00,M,M,M,M,KDVL 010450Z AUTO 04005KT 10SM OVC016 A3020 RMK MADISHF
DVL,2017-04-01 04:55,-98.9083,48.1146,M,M,M,30.00,6.00,M,30.21,M,10.00,M,OVC,M,M,M,1600.00,M,M,M,M,KDVL 010455Z AUTO 03006KT 10SM OVC016 A3021 RMK MADISHF
DVL,2017-04-01 04:56,-98.9083,48.1146,37.90,36.00,92.78,30.00,6.00,0.00,30.21,1025.50,10.00,M,OVC,M,M,M,1600.00,M,M,M,M,KDVL 010456Z AUTO 03006KT 10SM OVC016 03/02 A3021 RMK AO2 SLP255 T00330022 400891006
DVL,2017-04-01 05:00,-98.9083,48.1146,M,M,M,40.00,5.00,M,30.21,M,10.00,M,OVC,M,M,M,1800.00,M,M,M,M,KDVL 010500Z AUTO 04005KT 10SM OVC018 A3021 RMK MADISHF
DVL,2017-04-01 05:05,-98.9083,48.1146,M,M,M,40.00,5.00,M,30.21,M,10.00,M,OVC,M,M,M,1800.00,M,M,M,M,KDVL 010505Z AUTO 04005KT 10SM OVC018 A3021 RMK MADISHF
DVL,2017-04-01 05:10,-98.9083,48.1146,M,M,M,40.00,6.00,M,30.21,M,10.00,M,OVC,M,M,M,1800.00,M,M,M,M,KDVL 010510Z AUTO 04006KT 10SM OVC018 A3021 RMK MADISHF
DVL,2017-04-01 05:15,-98.9083,48.1146,M,M,M,30.00,6.00,M,30.21,M,10.00,M,OVC,M,M,M,1800.00,M,M,M,M,KDVL 010515Z AUTO 03006KT 10SM OVC018 A3021 RMK MADISHF
DVL,2017-04-01 05:20,-98.9083,48.1146,M,M,M,40.00,5.00,M,30.21,M,10.00,M,OVC,M,M,M,1800.00,M,M,M,M,KDVL 010520Z AUTO 04005KT 10SM OVC018 A3021 RMK MADISHF
DVL,2017-04-01 05:25,-98.9083,48.1146,M,M,M,30.00,5.00,M,30.21,M,10.00,M,OVC,M,M,M,1800.00,M,M,M,M,KDVL 010525Z AUTO 03005KT 10SM OVC018 A3021 RMK MADISHF
DVL,2017-04-01 05:30,-98.9083,48.1146,M,M,M,20.00,5.00,M,30.21,M,10.00,M,OVC,M,M,M,1800.00,M,M,M,M,KDVL 010530Z AUTO 02005KT 10SM OVC018 A3021 RMK MADISHF
DVL,2017-04-01 05:35,-98.9083,48.1146,M,M,M,10.00,5.00,M,30.22,M,10.00,M,OVC,M,M,M,1800.00,M,M,M,M,KDVL 010535Z AUTO 01005KT 10SM OVC018 A3022 RMK MADISHF
DVL,2017-04-01 05:40,-98.9083,48.1146,M,M,M,10.00,4.00,M,30.22,M,10.00,M,OVC,M,M,M,1800.00,M,M,M,M,KDVL 010540Z AUTO 01004KT 10SM OVC018 A3022 RMK MADISHF
DVL,2017-04-01 05:45,-98.9083,48.1146,M,M,M,360.00,4.00,M,30.22,M,10.00,M,OVC,M,M,M,1800.00,M,M,M,M,KDVL 010545Z AUTO 36004KT 10SM OVC018 A3022 RMK MADISHF
DVL,2017-04-01 05:50,-98.9083,48.1146,M,M,M,10.00,4.00,M,30.22,M,10.00,M,OVC,M,M,M,1800.00,M,M,M,M,KDVL 010550Z AUTO 01004KT 10SM OVC018 A3022 RMK MADISHF
DVL,2017-04-01 05:55,-98.9083,48.1146,M,M,M,20.00,3.00,M,30.22,M,10.00,M,OVC,M,M,M,1800.00,M,M,M,M,KDVL 010555Z AUTO 02003KT 10SM OVC018 A3022 RMK MADISHF
DVL,2017-04-01 05:56,-98.9083,48.1146,37.90,35.10,89.53,30.00,3.00,0.00,30.22,1025.90,10.00,M,OVC,M,M,M,1800.00,M,M,M,M,KDVL 010556Z AUTO 03003KT 10SM OVC018 03/02 A3022 RMK AO2 SLP259 60000 T00330017 10056 20033 53010
DVL,2017-04-01 06:00,-98.9083,48.1146,M,M,M,20.00,3.00,M,30.22,M,10.00,M,OVC,M,M,M,1800.00,M,M,M,M,KDVL 010600Z AUTO 02003KT 10SM OVC018 A3022 RMK MADISHF
DVL,2017-04-01 06:05,-98.9083,48.1146,M,M,M,20.00,3.00,M,30.22,M,10.00,M,OVC,M,M,M,1800.00,M,M,M,M,KDVL 010605Z AUTO 02003KT 10SM OVC018 A3022 RMK MADISHF
DVL,2017-04-01 06:10,-98.9083,48.1146,M,M,M,0.00,0.00,M,30.22,M,10.00,M,OVC,M,M,M,1800.00,M,M,M,M,KDVL 010610Z AUTO 00000KT 10SM OVC018 A3022 RMK MADISHF
DVL,2017-04-01 06:15,-98.9083,48.1146,M,M,M,0.00,0.00,M,30.22,M,10.00,M,OVC,M,M,M,1999.00,M,M,M,M,KDVL 010615Z AUTO 00000KT 10SM OVC019 A3022 RMK MADISHF
DVL,2017-04-01 06:20,-98.9083,48.1146,M,M,M,30.00,5.00,M,30.22,M,10.00,M,OVC,M,M,M,1999.00,M,M,M,M,KDVL 010620Z AUTO 03005KT 10SM OVC019 A3022 RMK MADISHF
DVL,2017-04-01 06:25,-98.9083,48.1146,M,M,M,10.00,3.00,M,30.22,M,10.00,M,OVC,M,M,M,1999.00,M,M,M,M,KDVL 010625Z AUTO 01003KT 10SM OVC019 A3022 RMK MADISHF
DVL,2017-04-01 06:30,-98.9083,48.1146,M,M,M,360.00,3.00,M,30.22,M,10.00,M,OVC,M,M,M,1999.00,M,M,M,M,KDVL 010630Z AUTO 36003KT 10SM OVC019 A3022 RMK MADISHF
DVL,2017-04-01 06:35,-98.9083,48.1146,M,M,M,360.00,3.00,M,30.22,M,10.00,M,OVC,M,M,M,1999.00,M,M,M,M,KDVL 010635Z AUTO 36003KT 10SM OVC019 A3022 RMK MADISHF
DVL,2017-04-01 06:40,-98.9083,48.1146,M,M,M,350.00,4.00,M,30.22,M,10.00,M,OVC,M,M,M,1999.00,M,M,M,M,KDVL 010640Z AUTO 35004KT 10SM OVC019 A3022 RMK MADISHF
DVL,2017-04-01 06:45,-98.9083,48.1146,M,M,M,350.00,4.00,M,30.23,M,10.00,M,OVC,M,M,M,1999.00,M,M,M,M,KDVL 010645Z AUTO 35004KT 10SM OVC019 A3023 RMK MADISHF
DVL,2017-04-01 06:50,-98.9083,48.1146,M,M,M,360.00,5.00,M,30.23,M,10.00,M,OVC,M,M,M,1999.00,M,M,M,M,KDVL 010650Z AUTO 36005KT 10SM OVC019 A3023 RMK MADISHF
DVL,2017-04-01 06:55,-98.9083,48.1146,M,M,M,10.00,4.00,M,30.23,M,10.00,M,OVC,M,M,M,1999.00,M,M,M,M,KDVL 010655Z AUTO 01004KT 10SM OVC019 A3023 RMK MADISHF
DVL,2017-04-01 06:56,-98.9083,48.1146,37.00,35.10,92.76,10.00,4.00,0.00,30.23,1026.20,10.00,M,OVC,M,M,M,2000.00,M,M,M,M,KDVL 010656Z AUTO 01004KT 10SM OVC020 03/02 A3023 RMK AO2 SLP262 T00280017
DVL,2017-04-01 07:00,-98.9083,48.1146,M,M,M,360.00,5.00,M,30.23,M,10.00,M,OVC,M,M,M,2200.00,M,M,M,M,KDVL 010700Z AUTO 36005KT 10SM OVC022 A3023 RMK MADISHF
DVL,2017-04-01 07:05,-98.9083,48.1146,M,M,M,360.00,4.00,M,30.23,M,10.00,M,OVC,M,M,M,2200.00,M,M,M,M,KDVL 010705Z AUTO 36004KT 10SM OVC022 A3023 RMK MADISHF
DVL,2017-04-01 07:15,-98.9083,48.1146,M,M,M,360.00,3.00,M,30.23,M,10.00,M,OVC,M,M,M,2200.00,M,M,M,-RA,KDVL 010715Z AUTO 36003KT 10SM -RA OVC022 A3023 RMK MADISHF
DVL,2017-04-01 07:20,-98.9083,48.1146,M,M,M,10.00,4.00,M,30.22,M,10.00,M,OVC,M,M,M,2200.00,M,M,M,-RA,KDVL 010720Z AUTO 01004KT 10SM -RA OVC022 A3022 RMK MADISHF
DVL,2017-04-01 07:25,-98.9083,48.1146,M,M,M,20.00,3.00,M,30.22,M,10.00,M,OVC,M,M,M,2200.00,M,M,M,M,KDVL 010725Z AUTO 02003KT 10SM OVC022 A3022 RMK MADISHF
DVL,2017-04-01 07:30,-98.9083,48.1146,M,M,M,10.00,3.00,M,30.23,M,10.00,M,OVC,M,M,M,2200.00,M,M,M,M,KDVL 010730Z AUTO 01003KT 10SM OVC022 A3023 RMK MADISHF
DVL,2017-04-01 07:35,-98.9083,48.1146,M,M,M,10.00,4.00,M,30.23,M,10.00,M,OVC,M,M,M,2200.00,M,M,M,M,KDVL 010735Z AUTO 01004KT 10SM OVC022 A3023 RMK MADISHF
DVL,2017-04-01 07:40,-98.9083,48.1146,M,M,M,20.00,4.00,M,30.23,M,10.00,M,OVC,M,M,M,2200.00,M,M,M,M,KDVL 010740Z AUTO 02004KT 10SM OVC022 A3023 RMK MADISHF
DVL,2017-04-01 07:45,-98.9083,48.1146,M,M,M,10.00,4.00,M,30.23,M,10.00,M,OVC,M,M,M,2200.00,M,M,M,M,KDVL 010745Z AUTO 01004KT 10SM OVC022 A3023 RMK MADISHF
DVL,2017-04-01 07:50,-98.9083,48.1146,M,M,M,20.00,3.00,M,30.23,M,10.00,M,OVC,M,M,M,2200.00,M,M,M,M,KDVL 010750Z AUTO 02003KT 10SM OVC022 A3023 RMK MADISHF
DVL,2017-04-01 07:55,-98.9083,48.1146,M,M,M,0.00,0.00,M,30.22,M,10.00,M,OVC,M,M,M,2400.00,M,M,M,M,KDVL 010755Z AUTO 00000KT 10SM OVC024 A3022 RMK MADISHF
DVL,2017-04-01 07:56,-98.9083,48.1146,37.00,35.10,92.76,0.00,0.00,0.00,30.22,1026.20,10.00,M,OVC,M,M,M,2400.00,M,M,M,M,KDVL 010756Z AUTO 00000KT 10SM OVC024 03/02 A3022 RMK AO2 RAB14E25 SLP262 P0000 T00280017
DVL,2017-04-01 08:00,-98.9083,48.1146,M,M,M,0.00,0.00,M,30.23,M,10.00,M,OVC,M,M,M,2400.00,M,M,M,M,KDVL 010800Z AUTO 00000KT 10SM OVC024 A3023 RMK MADISHF
DVL,2017-04-01 08:05,-98.9083,48.1146,M,M,M,0.00,0.00,M,30.23,M,10.00,M,OVC,M,M,M,2400.00,M,M,M,M,KDVL 010805Z AUTO 00000KT 10SM OVC024 A3023 RMK MADISHF
DVL,2017-04-01 08:10,-98.9083,48.1146,M,M,M,0.00,0.00,M,30.23,M,10.00,M,OVC,M,M,M,2400.00,M,M,M,M,KDVL 010810Z AUTO 00000KT 10SM OVC024 A3023 RMK MADISHF
DVL,2017-04-01 08:15,-98.9083,48.1146,M,M,M,0.00,0.00,M,30.23,M,10.00,M,OVC,M,M,M,2400.00,M,M,M,M,KDVL 010815Z AUTO 00000KT 10SM OVC024 A3023 RMK MADISHF
DVL,2017-04-01 08:20,-98.9083,48.1146,M,M,M,0.00,0.00,M,30.22,M,10.00,M,OVC,M,M,M,2400.00,M,M,M,M,KDVL 010820Z AUTO 00000KT 10SM OVC024 A3022 RMK MADISHF
DVL,2017-04-01 08:30,-98.9083,48.1146,M,M,M,0.00,0.00,M,30.22,M,10.00,M,OVC,M,M,M,2400.00,M,M,M,M,KDVL 010830Z AUTO 00000KT 10SM OVC024 A3022 RMK MADISHF
DVL,2017-04-01 08:40,-98.9083,48.1146,M,M,M,0.00,0.00,M,30.22,M,10.00,M,OVC,M,M,M,2400.00,M,M,M,M,KDVL 010840Z AUTO 00000KT 10SM OVC024 A3022 RMK MADISHF
DVL,2017-04-01 08:45,-98.9083,48.1146,M,M,M,0.00,0.00,M,30.22,M,10.00,M,OVC,M,M,M,2400.00,M,M,M,M,KDVL 010845Z AUTO 00000KT 10SM OVC024 A3022 RMK MADISHF
DVL,2017-04-01 08:50,-98.9083,48.1146,M,M,M,0.00,0.00,M,30.22,M,10.00,M,OVC,M,M,M,2200.00,M,M,M,M,KDVL 010850Z AUTO 00000KT 10SM OVC022 A3022 RMK MADISHF
DVL,2017-04-01 08:55,-98.9083,48.1146,M,M,M,0.00,0.00,M,30.22,M,10.00,M,OVC,M,M,M,2200.00,M,M,M,M,KDVL 010855Z AUTO 00000KT 10SM OVC022 A3022 RMK MADISHF
DVL,2017-04-01 08:56,-98.9083,48.1146,37.00,34.00,88.78,0.00,0.00,0.00,30.22,1026.20,10.00,M,OVC,M,M,M,2200.00,M,M,M,M,KDVL 010856Z AUTO 00000KT 10SM OVC022 03/01 A3022 RMK AO2 SLP262 60000 T00280011 50001
DVL,2017-04-01 09:00,-98.9083,48.1146,M,M,M,270.00,3.00,M,30.22,M,10.00,M,OVC,M,M,M,2200.00,M,M,M,M,KDVL 010900Z AUTO 27003KT 10SM OVC022 A3022 RMK MADISHF
DVL,2017-04-01 09:05,-98.9083,48.1146,M,M,M,0.00,0.00,M,30.22,M,10.00,M,OVC,M,M,M,2200.00,M,M,M,M,KDVL 010905Z AUTO 00000KT 10SM OVC022 A3022 RMK MADISHF
DVL,2017-04-01 09:10,-98.9083,48.1146,M,M,M,270.00,3.00,M,30.22,M,10.00,M,OVC,M,M,M,2200.00,M,M,M,M,KDVL 010910Z AUTO 27003KT 10SM OVC022 A3022 RMK MADISHF
DVL,2017-04-01 09:15,-98.9083,48.1146,M,M,M,0.00,0.00,M,30.22,M,10.00,M,OVC,M,M,M,2200.00,M,M,M,M,KDVL 010915Z AUTO 00000KT 10SM OVC022 A3022 RMK MADISHF
DVL,2017-04-01 09:20,-98.9083,48.1146,M,M,M,0.00,0.00,M,30.22,M,10.00,M,OVC,M,M,M,2200.00,M,M,M,M,KDVL 010920Z AUTO 00000KT 10SM OVC022 A3022 RMK MADISHF
DVL,2017-04-01 09:25,-98.9083,48.1146,M,M,M,0.00,0.00,M,30.22,M,10.00,M,OVC,M,M,M,2200.00,M,M,M,M,KDVL 010925Z AUTO 00000KT 10SM OVC022 A3022 RMK MADISHF
DVL,2017-04-01 09:30,-98.9083,48.1146,M,M,M,0.00,0.00,M,30.22,M,10.00,M,OVC,M,M,M,2400.00,M,M,M,M,KDVL 010930Z AUTO 00000KT 10SM OVC024 A3022 RMK MADISHF
DVL,2017-04-01 09:35,-98.9083,48.1146,M,M,M,0.00,0.00,M,30.22,M,10.00,M,OVC,M,M,M,2400.00,M,M,M,M,KDVL 010935Z AUTO 00000KT 10SM OVC024 A3022 RMK MADISHF
DVL,2017-04-01 09:40,-98.9083,48.1146,M,M,M,360.00,3.00,M,30.22,M,10.00,M,OVC,M,M,M,2400.00,M,M,M,M,KDVL 010940Z AUTO 36003KT 10SM OVC024 A3022 RMK MADISHF
DVL,2017-04-01 09:45,-98.9083,48.1146,M,M,M,10.00,4.00,M,30.22,M,10.00,M,OVC,M,M,M,2200.00,M,M,M,M,KDVL 010945Z AUTO 01004KT 10SM OVC022 A3022 RMK MADISHF
DVL,2017-04-01 09:50,-98.9083,48.1146,M,M,M,10.00,4.00,M,30.21,M,10.00,M,OVC,M,M,M,2200.00,M,M,M,M,KDVL 010950Z AUTO 01004KT 10SM OVC022 A3021 RMK MADISHF
DVL,2017-04-01 09:55,-98.9083,48.1146,M,M,M,10.00,3.00,M,30.21,M,10.00,M,OVC,M,M,M,2200.00,M,M,M,M,KDVL 010955Z AUTO 01003KT 10SM OVC022 A3021 RMK MADISHF
DVL,2017-04-01 09:56,-98.9083,48.1146,36.00,35.10,96.49,360.00,3.00,0.00,30.21,1026.00,10.00,M,OVC,M,M,M,2200.00,M,M,M,M,KDVL 010956Z AUTO 36003KT 10SM OVC022 02/02 A3021 RMK AO2 SLP260 T00220017 FZRANO
DVL,2017-04-01 10:00,-98.9083,48.1146,M,M,M,350.00,3.00,M,30.21,M,10.00,M,OVC,M,M,M,2200.00,M,M,M,M,KDVL 011000Z AUTO 35003KT 10SM OVC022 A3021 RMK MADISHF
DVL,2017-04-01 10:05,-98.9083,48.1146,M,M,M,360.00,3.00,M,30.21,M,10.00,M,OVC,M,M,M,2200.00,M,M,M,M,KDVL 011005Z AUTO 36003KT 10SM OVC022 A3021 RMK MADISHF
DVL,2017-04-01 10:10,-98.9083,48.1146,M,M,M,0.00,0.00,M,30.21,M,10.00,M,OVC,M,M,M,2200.00,M,M,M,M,KDVL 011010Z AUTO 00000KT 10SM OVC022 A3021 RMK MADISHF
DVL,2017-04-01 10:15,-98.9083,48.1146,M,M,M,10.00,3.00,M,30.21,M,10.00,M,OVC,M,M,M,2200.00,M,M,M,M,KDVL 011015Z AUTO 01003KT 10SM OVC022 A3021 RMK MADISHF
DVL,2017-04-01 10:20,-98.9083,48.1146,M,M,M,10.00,3.00,M,30.21,M,10.00,M,OVC,M,M,M,2200.00,M,M,M,M,KDVL 011020Z AUTO 01003KT 10SM OVC022 A3021 RMK MADISHF
DVL,2017-04-01 10:25,-98.9083,48.1146,M,M,M,0.00,0.00,M,30.21,M,10.00,M,OVC,M,M,M,1999.00,M,M,M,M,KDVL 011025Z AUTO 00000KT 10SM OVC019 A3021 RMK MADISHF
DVL,2017-04-01 10:30,-98.9083,48.1146,M,M,M,10.00,4.00,M,30.21,M,10.00,M,OVC,M,M,M,1999.00,M,M,M,M,KDVL 011030Z AUTO 01004KT 10SM OVC019 A3021 RMK MADISHF
DVL,2017-04-01 10:35,-98.9083,48.1146,M,M,M,20.00,3.00,M,30.21,M,10.00,M,OVC,M,M,M,1999.00,M,M,M,M,KDVL 011035Z AUTO 02003KT 10SM OVC019 A3021 RMK MADISHF
DVL,2017-04-01 10:40,-98.9083,48.1146,M,M,M,0.00,0.00,M,30.21,M,10.00,M,OVC,M,M,M,1999.00,M,M,M,M,KDVL 011040Z AUTO 00000KT 10SM OVC019 A3021 RMK MADISHF
DVL,2017-04-01 10:45,-98.9083,48.1146,M,M,M,0.00,0.00,M,30.21,M,10.00,M,OVC,M,M,M,1999.00,M,M,M,M,KDVL 011045Z AUTO 00000KT 10SM OVC019 A3021 RMK MADISHF
DVL,2017-04-01 10:50,-98.9083,48.1146,M,M,M,0.00,0.00,M,30.21,M,10.00,M,OVC,M,M,M,1999.00,M,M,M,M,KDVL 011050Z AUTO 00000KT 10SM OVC019 A3021 RMK MADISHF
DVL,2017-04-01 10:55,-98.9083,48.1146,M,M,M,0.00,0.00,M,30.22,M,10.00,M,OVC,M,M,M,1999.00,M,M,M,M,KDVL 011055Z AUTO 00000KT 10SM OVC019 A3022 RMK MADISHF
DVL,2017-04-01 10:56,-98.9083,48.1146,36.00,34.00,92.35,0.00,0.00,0.00,30.22,1026.10,10.00,M,OVC,M,M,M,2000.00,M,M,M,M,KDVL 011056Z AUTO 00000KT 10SM OVC020 02/01 A3022 RMK AO2 SLP261 T00220011 FZRANO
DVL,2017-04-01 11:00,-98.9083,48.1146,M,M,M,0.00,0.00,M,30.22,M,10.00,M,OVC,M,M,M,1999.00,M,M,M,M,KDVL 011100Z AUTO 00000KT 10SM OVC019 A3022 RMK MADISHF
DVL,2017-04-01 11:05,-98.9083,48.1146,M,M,M,290.00,3.00,M,30.22,M,10.00,M,OVC,M,M,M,1999.00,M,M,M,M,KDVL 011105Z AUTO 29003KT 10SM OVC019 A3022 RMK MADISHF
DVL,2017-04-01 11:10,-98.9083,48.1146,M,M,M,300.00,3.00,M,30.22,M,10.00,M,OVC,M,M,M,1999.00,M,M,M,M,KDVL 011110Z AUTO 30003KT 10SM OVC019 A3022 RMK MADISHF
DVL,2017-04-01 11:15,-98.9083,48.1146,M,M,M,0.00,0.00,M,30.22,M,10.00,M,OVC,M,M,M,1999.00,M,M,M,M,KDVL 011115Z AUTO 00000KT 10SM OVC019 A3022 RMK MADISHF
DVL,2017-04-01 11:20,-98.9083,48.1146,M,M,M,270.00,3.00,M,30.22,M,10.00,M,OVC,M,M,M,1999.00,M,M,M,M,KDVL 011120Z AUTO 27003KT 10SM OVC019 A3022 RMK MADISHF
DVL,2017-04-01 11:25,-98.9083,48.1146,M,M,M,0.00,0.00,M,30.22,M,10.00,M,OVC,M,M,M,1999.00,M,M,M,M,KDVL 011125Z AUTO 00000KT 10SM OVC019 A3022 RMK MADISHF
DVL,2017-04-01 11:30,-98.9083,48.1146,M,M,M,260.00,3.00,M,30.22,M,10.00,M,OVC,M,M,M,1999.00,M,M,M,M,KDVL 011130Z AUTO 26003KT 10SM OVC019 A3022 RMK MADISHF
DVL,2017-04-01 11:35,-98.9083,48.1146,M,M,M,250.00,3.00,M,30.22,M,10.00,M,OVC,M,M,M,1999.00,M,M,M,M,KDVL 011135Z AUTO 25003KT 10SM OVC019 A3022 RMK MADISHF
DVL,2017-04-01 11:40,-98.9083,48.1146,M,M,M,0.00,0.00,M,30.22,M,10.00,M,OVC,M,M,M,1999.00,M,M,M,M,KDVL 011140Z AUTO 00000KT 10SM OVC019 A3022 RMK MADISHF
DVL,2017-04-01 11:45,-98.9083,48.1146,M,M,M,240.00,3.00,M,30.22,M,10.00,M,OVC,M,M,M,1999.00,M,M,M,M,KDVL 011145Z AUTO 24003KT 10SM OVC019 A3022 RMK MADISHF
DVL,2017-04-01 11:50,-98.9083,48.1146,M,M,M,0.00,0.00,M,30.22,M,10.00,M,OVC,M,M,M,1999.00,M,M,M,M,KDVL 011150Z AUTO 00000KT 10SM OVC019 A3022 RMK MADISHF
DVL,2017-04-01 11:55,-98.9083,48.1146,M,M,M,0.00,0.00,M,30.22,M,10.00,M,OVC,M,M,M,1999.00,M,M,M,M,KDVL 011155Z AUTO 00000KT 10SM OVC019 A3022 RMK MADISHF
DVL,2017-04-01 11:56,-98.9083,48.1146,36.00,34.00,92.35,0.00,0.00,0.00,30.22,1026.30,10.00,M,OVC,M,M,M,2000.00,M,M,M,M,KDVL 011156Z AUTO 00000KT 10SM OVC020 02/01 A3022 RMK AO2 SLP263 60000 T00220011 10033 20022 55000 FZRANO
DVL,2017-04-01 12:00,-98.9083,48.1146,M,M,M,0.00,0.00,M,30.22,M,10.00,M,OVC,M,M,M,1999.00,M,M,M,M,KDVL 011200Z AUTO 00000KT 10SM OVC019 A3022 RMK MADISHF
DVL,2017-04-01 12:05,-98.9083,48.1146,M,M,M,0.00,0.00,M,30.22,M,10.00,M,OVC,M,M,M,1999.00,M,M,M,M,KDVL 011205Z AUTO 00000KT 10SM OVC019 A3022 RMK MADISHF
DVL,2017-04-01 12:10,-98.9083,48.1146,M,M,M,0.00,0.00,M,30.22,M,10.00,M,OVC,M,M,M,1999.00,M,M,M,M,KDVL 011210Z AUTO 00000KT 10SM OVC019 A3022 RMK MADISHF
DVL,2017-04-01 12:15,-98.9083,48.1146,M,M,M,0.00,0.00,M,30.23,M,10.00,M,OVC,M,M,M,1999.00,M,M,M,M,KDVL 011215Z AUTO 00000KT 10SM OVC019 A3023 RMK MADISHF
DVL,2017-04-01 12:20,-98.9083,48.1146,M,M,M,0.00,0.00,M,30.22,M,10.00,M,OVC,M,M,M,1999.00,M,M,M,M,KDVL 011220Z AUTO 00000KT 10SM OVC019 A3022 RMK MADISHF
DVL,2017-04-01 12:25,-98.9083,48.1146,M,M,M,0.00,0.00,M,30.22,M,10.00,M,OVC,M,M,M,1999.00,M,M,M,M,KDVL 011225Z AUTO 00000KT 10SM OVC019 A3022 RMK MADISHF
DVL,2017-04-01 12:30,-98.9083,48.1146,M,M,M,0.00,0.00,M,30.22,M,10.00,M,BKN,OVC,M,M,1999.00,3999.00,M,M,M,KDVL 011230Z AUTO 00000KT 10SM BKN019 OVC039 A3022 RMK MADISHF
DVL,2017-04-01 12:35,-98.9083,48.1146,M,M,M,320.00,3.00,M,30.22,M,10.00,M,BKN,OVC,M,M,1999.00,3999.00,M,M,M,KDVL 011235Z AUTO 32003KT 10SM BKN019 OVC039 A3022 RMK MADISHF
DVL,2017-04-01 12:40,-98.9083,48.1146,M,M,M,320.00,4.00,M,30.22,M,10.00,M,SCT,OVC,M,M,1999.00,3999.00,M,M,M,KDVL 011240Z AUTO 32004KT 10SM SCT019 OVC039 A3022 RMK MADISHF
DVL,2017-04-01 12:45,-98.9083,48.1146,M,M,M,0.00,0.00,M,30.22,M,10.00,M,SCT,BKN,OVC,M,1999.00,4200.00,7000.00,M,M,KDVL 011245Z AUTO 00000KT 10SM SCT019 BKN042 OVC070 A3022 RMK MADISHF
DVL,2017-04-01 12:46,-98.9083,48.1146,35.60,33.80,93.08,0.00,0.00,0.00,30.22,M,10.00,M,SCT,BKN,OVC,M,2000.00,4200.00,7000.00,M,M,KDVL 011246Z AUTO 00000KT 10SM SCT020 BKN042 OVC070 02/01 A3022 RMK AO2 FZRANO
DVL,2017-04-01 12:50,-98.9083,48.1146,M,M,M,0.00,0.00,M,30.22,M,10.00,M,FEW,SCT,OVC,M,1999.00,4200.00,7000.00,M,M,KDVL 011250Z AUTO 00000KT 10SM FEW019 SCT042 OVC070 A3022 RMK MADISHF
DVL,2017-04-01 12:55,-98.9083,48.1146,M,M,M,0.00,0.00,M,30.23,M,10.00,M,BKN,OVC,M,M,3999.00,7000.00,M,M,M,KDVL 011255Z AUTO 00000KT 10SM BKN039 OVC070 A3023 RMK MADISHF
DVL,2017-04-01 12:56,-98.9083,48.1146,36.00,34.00,92.35,0.00,0.00,0.00,30.23,1026.50,10.00,M,BKN,OVC,M,M,4000.00,7000.00,M,M,M,KDVL 011256Z AUTO 00000KT 10SM BKN040 OVC070 02/01 A3023 RMK AO2 SLP265 T00220011 FZRANO
DVL,2017-04-01 13:00,-98.9083,48.1146,M,M,M,0.00,0.00,M,30.22,M,10.00,M,BKN,OVC,M,M,3999.00,7000.00,M,M,M,KDVL 011300Z AUTO 00000KT 10SM BKN039 OVC070 A3022 RMK MADISHF
DVL,2017-04-01 13:05,-98.9083,48.1146,M,M,M,0.00,0.00,M,30.22,M,10.00,M,BKN,OVC,M,M,3800.00,7000.00,M,M,M,KDVL 011305Z AUTO 00000KT 10SM BKN038 OVC070 A3022 RMK MADISHF
DVL,2017-04-01 13:10,-98.9083,48.1146,M,M,M,0.00,0.00,M,30.22,M,10.00,M,BKN,OVC,M,M,3800.00,7000.00,M,M,M,KDVL 011310Z AUTO 00000KT 10SM BKN038 OVC070 A3022 RMK MADISHF
DVL,2017-04-01 13:15,-98.9083,48.1146,M,M,M,0.00,0.00,M,30.23,M,10.00,M,BKN,OVC,M,M,3800.00,7000.00,M,M,M,KDVL 011315Z AUTO 00000KT 10SM BKN038 OVC070 A3023 RMK MADISHF
DVL,2017-04-01 13:20,-98.9083,48.1146,M,M,M,0.00,0.00,M,30.23,M,10.00,M,SCT,OVC,M,M,2900.00,3800.00,M,M,M,KDVL 011320Z AUTO 00000KT 10SM SCT029 OVC038 A3023 RMK MADISHF
DVL,2017-04-01 13:25,-98.9083,48.1146,M,M,M,0.00,0.00,M,30.23,M,10.00,M,SCT,OVC,M,M,2900.00,3600.00,M,M,M,KDVL 011325Z AUTO 00000KT 10SM SCT029 OVC036 A3023 RMK MADISHF
DVL,2017-04-01 13:30,-98.9083,48.1146,M,M,M,0.00,0.00,M,30.23,M,10.00,M,SCT,OVC,M,M,2900.00,3600.00,M,M,M,KDVL 011330Z AUTO 00000KT 10SM SCT029 OVC036 A3023 RMK MADISHF
DVL,2017-04-01 13:35,-98.9083,48.1146,M,M,M,0.00,0.00,M,30.22,M,10.00,M,SCT,OVC,M,M,2900.00,3600.00,M,M,M,KDVL 011335Z AUTO 00000KT 10SM SCT029 OVC036 A3022 RMK MADISHF
DVL,2017-04-01 13:40,-98.9083,48.1146,M,M,M,0.00,0.00,M,30.22,M,10.00,M,FEW,OVC,M,M,2900.00,3399.00,M,M,M,KDVL 011340Z AUTO 00000KT 10SM FEW029 OVC033 A3022 RMK MADISHF
DVL,2017-04-01 13:45,-98.9083,48.1146,M,M,M,0.00,0.00,M,30.22,M,10.00,M,FEW,OVC,M,M,2900.00,3399.00,M,M,M,KDVL 011345Z AUTO 00000KT 10SM FEW029 OVC033 A3022 RMK MADISHF
DVL,2017-04-01 13:50,-98.9083,48.1146,M,M,M,0.00,0.00,M,30.22,M,10.00,M,OVC,M,M,M,3399.00,M,M,M,M,KDVL 011350Z AUTO 00000KT 10SM OVC033 A3022 RMK MADISHF
DVL,2017-04-01 13:55,-98.9083,48.1146,M,M,M,0.00,0.00,M,30.22,M,10.00,M,OVC,M,M,M,3399.00,M,M,M,M,KDVL 011355Z AUTO 00000KT 10SM OVC033 A3022 RMK MADISHF
DVL,2017-04-01 13:56,-98.9083,48.1146,37.00,35.10,92.76,0.00,0.00,0.00,30.22,1026.40,10.00,M,OVC,M,M,M,3400.00,M,M,M,M,KDVL 011356Z AUTO 00000KT 10SM OVC034 03/02 A3022 RMK AO2 SLP264 T00280017
DVL,2017-04-01 14:00,-98.9083,48.1146,M,M,M,0.00,0.00,M,30.22,M,10.00,M,OVC,M,M,M,3200.00,M,M,M,M,KDVL 011400Z AUTO 00000KT 10SM OVC032 A3022 RMK MADISHF
DVL,2017-04-01 14:05,-98.9083,48.1146,M,M,M,0.00,0.00,M,30.22,M,10.00,M,OVC,M,M,M,3200.00,M,M,M,M,KDVL 011405Z AUTO 00000KT 10SM OVC032 A3022 RMK MADISHF
DVL,2017-04-01 14:10,-98.9083,48.1146,M,M,M,0.00,0.00,M,30.22,M,10.00,M,OVC,M,M,M,3000.00,M,M,M,M,KDVL 011410Z AUTO 00000KT 10SM OVC030 A3022 RMK MADISHF
DVL,2017-04-01 14:15,-98.9083,48.1146,M,M,M,0.00,0.00,M,30.22,M,10.00,M,OVC,M,M,M,3000.00,M,M,M,M,KDVL 011415Z AUTO 00000KT 10SM OVC030 A3022 RMK MADISHF
DVL,2017-04-01 14:20,-98.9083,48.1146,M,M,M,0.00,0.00,M,30.22,M,10.00,M,OVC,M,M,M,2800.00,M,M,M,M,KDVL 011420Z AUTO 00000KT 10SM OVC028 A3022 RMK MADISHF
DVL,2017-04-01 14:22,-98.9083,48.1146,37.40,33.80,86.69,0.00,0.00,0.00,30.22,M,10.00,M,OVC,M,M,M,2800.00,M,M,M,M,KDVL 011422Z AUTO 00000KT 10SM OVC028 03/01 A3022 RMK AO2
DVL,2017-04-01 14:25,-98.9083,48.1146,M,M,M,0.00,0.00,M,30.23,M,10.00,M,OVC,M,M,M,2800.00,M,M,M,M,KDVL 011425Z AUTO 00000KT 10SM OVC028 A3023 RMK MADISHF
DVL,2017-04-01 14:30,-98.9083,48.1146,M,M,M,0.00,0.00,M,30.23,M,10.00,M,OVC,M,M,M,2600.00,M,M,M,M,KDVL 011430Z AUTO 00000KT 10SM OVC026 A3023 RMK MADISHF
DVL,2017-04-01 14:35,-98.9083,48.1146,M,M,M,0.00,0.00,M,30.22,M,10.00,M,OVC,M,M,M,2600.00,M,M,M,M,KDVL 011435Z AUTO 00000KT 10SM OVC026 A3022 RMK MADISHF
DVL,2017-04-01 14:40,-98.9083,48.1146,M,M,M,0.00,0.00,M,30.22,M,10.00,M,OVC,M,M,M,2600.00,M,M,M,M,KDVL 011440Z AUTO 00000KT 10SM OVC026 A3022 RMK MADISHF
DVL,2017-04-01 14:45,-98.9083,48.1146,M,M,M,170.00,3.00,M,30.22,M,10.00,M,OVC,M,M,M,2600.00,M,M,M,M,KDVL 011445Z AUTO 17003KT 10SM OVC026 A3022 RMK MADISHF
DVL,2017-04-01 14:50,-98.9083,48.1146,M,M,M,0.00,0.00,M,30.22,M,10.00,M,OVC,M,M,M,2400.00,M,M,M,M,KDVL 011450Z AUTO 00000KT 10SM OVC024 A3022 RMK MADISHF
DVL,2017-04-01 14:55,-98.9083,48.1146,M,M,M,130.00,3.00,M,30.21,M,10.00,M,OVC,M,M,M,2400.00,M,M,M,M,KDVL 011455Z AUTO 13003KT 10SM OVC024 A3021 RMK MADISHF
DVL,2017-04-01 14:56,-98.9083,48.1146,39.00,35.10,85.76,130.00,3.00,0.00,30.21,1026.10,10.00,M,OVC,M,M,M,2400.00,M,M,M,M,KDVL 011456Z AUTO 13003KT 10SM OVC024 04/02 A3021 RMK AO2 SLP261 T00390017 58002
DVL,2017-04-01 15:00,-98.9083,48.1146,M,M,M,130.00,4.00,M,30.21,M,10.00,M,OVC,M,M,M,2400.00,M,M,M,M,KDVL 011500Z AUTO 13004KT 10SM OVC024 A3021 RMK MADISHF
DVL,2017-04-01 15:05,-98.9083,48.1146,M,M,M,120.00,4.00,M,30.21,M,10.00,M,OVC,M,M,M,2400.00,M,M,M,M,KDVL 011505Z AUTO 12004KT 10SM OVC024 A3021 RMK MADISHF
DVL,2017-04-01 15:10,-98.9083,48.1146,M,M,M,130.00,4.00,M,30.21,M,10.00,M,OVC,M,M,M,2400.00,M,M,M,M,KDVL 011510Z AUTO 13004KT 10SM OVC024 A3021 RMK MADISHF
DVL,2017-04-01 15:15,-98.9083,48.1146,M,M,M,130.00,4.00,M,30.21,M,10.00,M,OVC,M,M,M,2400.00,M,M,M,M,KDVL 011515Z AUTO 13004KT 10SM OVC024 A3021 RMK MADISHF
DVL,2017-04-01 15:20,-98.9083,48.1146,M,M,M,150.00,4.00,M,30.21,M,10.00,M,OVC,M,M,M,2400.00,M,M,M,M,KDVL 011520Z AUTO 15004KT 10SM OVC024 A3021 RMK MADISHF
DVL,2017-04-01 15:25,-98.9083,48.1146,M,M,M,150.00,5.00,M,30.21,M,10.00,M,OVC,M,M,M,2400.00,M,M,M,M,KDVL 011525Z AUTO 15005KT 10SM OVC024 A3021 RMK MADISHF
DVL,2017-04-01 15:30,-98.9083,48.1146,M,M,M,150.00,5.00,M,30.21,M,10.00,M,OVC,M,M,M,2400.00,M,M,M,M,KDVL 011530Z AUTO 15005KT 10SM OVC024 A3021 RMK MADISHF
DVL,2017-04-01 15:35,-98.9083,48.1146,M,M,M,140.00,5.00,M,30.21,M,10.00,M,OVC,M,M,M,2400.00,M,M,M,M,KDVL 011535Z AUTO 14005KT 10SM OVC024 A3021 RMK MADISHF
DVL,2017-04-01 15:40,-98.9083,48.1146,M,M,M,150.00,6.00,M,30.21,M,10.00,M,OVC,M,M,M,2400.00,M,M,M,M,KDVL 011540Z AUTO 15006KT 10SM OVC024 A3021 RMK MADISHF
DVL,2017-04-01 15:45,-98.9083,48.1146,M,M,M,150.00,5.00,M,30.22,M,10.00,M,OVC,M,M,M,2400.00,M,M,M,M,KDVL 011545Z AUTO 15005KT 10SM OVC024 A3022 RMK MADISHF
DVL,2017-04-01 15:50,-98.9083,48.1146,M,M,M,150.00,6.00,M,30.22,M,10.00,M,OVC,M,M,M,2400.00,M,M,M,M,KDVL 011550Z AUTO 15006KT 10SM OVC024 A3022 RMK MADISHF
DVL,2017-04-01 15:55,-98.9083,48.1146,M,M,M,140.00,6.00,M,30.21,M,10.00,M,OVC,M,M,M,2400.00,M,M,M,M,KDVL 011555Z AUTO 14006KT 10SM OVC024 A3021 RMK MADISHF
DVL,2017-04-01 15:56,-98.9083,48.1146,39.00,34.00,82.08,140.00,6.00,0.00,30.21,1026.10,10.00,M,OVC,M,M,M,2400.00,M,M,M,M,KDVL 011556Z AUTO 14006KT 10SM OVC024 04/01 A3021 RMK AO2 SLP261 T00390011
DVL,2017-04-01 16:00,-98.9083,48.1146,M,M,M,130.00,6.00,M,30.21,M,10.00,M,OVC,M,M,M,2400.00,M,M,M,M,KDVL 011600Z AUTO 13006KT 10SM OVC024 A3021 RMK MADISHF
DVL,2017-04-01 16:05,-98.9083,48.1146,M,M,M,130.00,7.00,M,30.21,M,10.00,M,OVC,M,M,M,2400.00,M,M,M,M,KDVL 011605Z AUTO 13007KT 10SM OVC024 A3021 RMK MADISHF
DVL,2017-04-01 16:10,-98.9083,48.1146,M,M,M,130.00,7.00,M,30.21,M,10.00,M,OVC,M,M,M,2400.00,M,M,M,M,KDVL 011610Z AUTO 13007KT 10SM OVC024 A3021 RMK MADISHF
DVL,2017-04-01 16:15,-98.9083,48.1146,M,M,M,130.00,7.00,M,30.21,M,10.00,M,OVC,M,M,M,2400.00,M,M,M,M,KDVL 011615Z AUTO 13007KT 10SM OVC024 A3021 RMK MADISHF
DVL,2017-04-01 16:20,-98.9083,48.1146,M,M,M,130.00,7.00,M,30.21,M,10.00,M,OVC,M,M,M,2400.00,M,M,M,M,KDVL 011620Z AUTO 13007KT 10SM OVC024 A3021 RMK MADISHF
DVL,2017-04-01 16:25,-98.9083,48.1146,M,M,M,M,M,M,30.21,M,10.00,M,OVC,M,M,M,2400.00,M,M,M,M,KDVL 011625Z AUTO /////KT 10SM OVC024 A3021 RMK MADISHF
DVL,2017-04-01 16:35,-98.9083,48.1146,M,M,M,140.00,6.00,M,30.21,M,10.00,M,OVC,M,M,M,2400.00,M,M,M,M,KDVL 011635Z AUTO 14006KT 10SM OVC024 A3021 RMK MADISHF
DVL,2017-04-01 16:40,-98.9083,48.1146,M,M,M,130.00,7.00,M,30.21,M,10.00,M,OVC,M,M,M,2400.00,M,M,M,M,KDVL 011640Z AUTO 13007KT 10SM OVC024 A3021 RMK MADISHF
DVL,2017-04-01 16:45,-98.9083,48.1146,M,M,M,140.00,9.00,M,30.21,M,10.00,M,OVC,M,M,M,2400.00,M,M,M,M,KDVL 011645Z AUTO 14009KT 10SM OVC024 A3021 RMK MADISHF
DVL,2017-04-01 16:50,-98.9083,48.1146,M,M,M,140.00,8.00,M,30.21,M,10.00,M,OVC,M,M,M,2400.00,M,M,M,M,KDVL 011650Z AUTO 14008KT 10SM OVC024 A3021 RMK MADISHF
DVL,2017-04-01 16:55,-98.9083,48.1146,M,M,M,130.00,9.00,M,30.21,M,10.00,M,OVC,M,M,M,2400.00,M,M,M,M,KDVL 011655Z AUTO 13009KT 10SM OVC024 A3021 RMK MADISHF
DVL,2017-04-01 16:56,-98.9083,48.1146,42.10,33.10,70.20,130.00,9.00,0.00,30.21,1025.70,10.00,M,OVC,M,M,M,2400.00,M,M,M,M,KDVL 011656Z AUTO 13009KT 10SM OVC024 06/01 A3021 RMK AO2 SLP257 T00560006
DVL,2017-04-01 17:00,-98.9083,48.1146,M,M,M,130.00,9.00,M,30.20,M,10.00,M,OVC,M,M,M,2400.00,M,M,M,M,KDVL 011700Z AUTO 13009KT 10SM OVC024 A3020 RMK MADISHF
DVL,2017-04-01 17:05,-98.9083,48.1146,M,M,M,130.00,8.00,M,30.20,M,10.00,M,OVC,M,M,M,2400.00,M,M,M,M,KDVL 011705Z AUTO 13008KT 10SM OVC024 A3020 RMK MADISHF
DVL,2017-04-01 17:10,-98.9083,48.1146,M,M,M,130.00,9.00,M,30.20,M,10.00,M,OVC,M,M,M,2400.00,M,M,M,M,KDVL 011710Z AUTO 13009KT 10SM OVC024 A3020 RMK MADISHF
DVL,2017-04-01 17:15,-98.9083,48.1146,M,M,M,140.00,10.00,M,30.19,M,10.00,M,OVC,M,M,M,2400.00,M,M,M,M,KDVL 011715Z AUTO 14010KT 10SM OVC024 A3019 RMK MADISHF
DVL,2017-04-01 17:20,-98.9083,48.1146,M,M,M,140.00,8.00,M,30.19,M,10.00,M,OVC,M,M,M,2400.00,M,M,M,M,KDVL 011720Z AUTO 14008KT 10SM OVC024 A3019 RMK MADISHF
DVL,2017-04-01 17:25,-98.9083,48.1146,M,M,M,140.00,8.00,M,30.19,M,10.00,M,OVC,M,M,M,2400.00,M,M,M,M,KDVL 011725Z AUTO 14008KT 10SM OVC024 A3019 RMK MADISHF
DVL,2017-04-01 17:30,-98.9083,48.1146,M,M,M,130.00,9.00,M,30.19,M,10.00,M,OVC,M,M,M,2400.00,M,M,M,M,KDVL 011730Z AUTO 13009KT 10SM OVC024 A3019 RMK MADISHF
DVL,2017-04-01 17:35,-98.9083,48.1146,M,M,M,120.00,7.00,M,30.19,M,10.00,M,OVC,M,M,M,2400.00,M,M,M,M,KDVL 011735Z AUTO 12007KT 10SM OVC024 A3019 RMK MADISHF
DVL,2017-04-01 17:40,-98.9083,48.1146,M,M,M,130.00,8.00,M,30.18,M,10.00,M,OVC,M,M,M,2400.00,M,M,M,M,KDVL 011740Z AUTO 13008KT 10SM OVC024 A3018 RMK MADISHF
DVL,2017-04-01 17:45,-98.9083,48.1146,M,M,M,130.00,7.00,M,30.18,M,10.00,M,OVC,M,M,M,2400.00,M,M,M,M,KDVL 011745Z AUTO 13007KT 10SM OVC024 A3018 RMK MADISHF
DVL,2017-04-01 17:50,-98.9083,48.1146,M,M,M,120.00,7.00,M,30.18,M,10.00,M,OVC,M,M,M,2400.00,M,M,M,M,KDVL 011750Z AUTO 12007KT 10SM OVC024 A3018 RMK MADISHF
DVL,2017-04-01 17:55,-98.9083,48.1146,M,M,M,130.00,7.00,M,30.18,M,10.00,M,OVC,M,M,M,2400.00,M,M,M,M,KDVL 011755Z AUTO 13007KT 10SM OVC024 A3018 RMK MADISHF
DVL,2017-04-01 17:56,-98.9083,48.1146,45.00,36.00,70.53,130.00,8.00,0.00,30.18,1024.60,10.00,M,OVC,M,M,M,2400.00,M,M,M,M,KDVL 011756Z AUTO 13008KT 10SM OVC024 07/02 A3018 RMK AO2 SLP246 T00720022 10072 20022 58013
DVL,2017-04-01 18:00,-98.9083,48.1146,M,M,M,140.00,8.00,M,30.17,M,10.00,M,OVC,M,M,M,2400.00,M,M,M,M,KDVL 011800Z AUTO 14008KT 10SM OVC024 A3017 RMK MADISHF
DVL,2017-04-01 18:05,-98.9083,48.1146,M,M,M,120.00,8.00,M,30.17,M,10.00,M,OVC,M,M,M,2400.00,M,M,M,M,KDVL 011805Z AUTO 12008KT 10SM OVC024 A3017 RMK MADISHF
DVL,2017-04-01 18:10,-98.9083,48.1146,M,M,M,120.00,8.00,M,30.17,M,10.00,M,BKN,OVC,M,M,2400.00,4900.00,M,M,M,KDVL 011810Z AUTO 12008KT 10SM BKN024 OVC049 A3017 RMK MADISHF
DVL,2017-04-01 18:15,-98.9083,48.1146,M,M,M,130.00,9.00,M,30.16,M,10.00,M,SCT,OVC,M,M,2400.00,4900.00,M,M,M,KDVL 011815Z AUTO 13009KT 10SM SCT024 OVC049 A3016 RMK MADISHF
DVL,2017-04-01 18:20,-98.9083,48.1146,M,M,M,140.00,8.00,M,30.16,M,10.00,M,SCT,BKN,M,M,2400.00,4900.00,M,M,M,KDVL 011820Z AUTO 14008KT 10SM SCT024 BKN049 A3016 RMK MADISHF
DVL,2017-04-01 18:21,-98.9083,48.1146,46.40,37.40,70.68,140.00,8.00,0.00,30.16,M,10.00,M,SCT,BKN,M,M,2400.00,4900.00,M,M,M,KDVL 011821Z AUTO 14008KT 10SM SCT024 BKN049 08/03 A3016 RMK AO2
DVL,2017-04-01 18:25,-98.9083,48.1146,M,M,M,130.00,7.00,M,30.16,M,10.00,M,FEW,BKN,M,M,2400.00,4900.00,M,M,M,KDVL 011825Z AUTO 13007KT 10SM FEW024 BKN049 A3016 RMK MADISHF
DVL,2017-04-01 18:35,-98.9083,48.1146,M,M,M,120.00,9.00,M,30.16,M,10.00,M,SCT,M,M,M,4900.00,M,M,M,M,KDVL 011835Z AUTO 12009KT 10SM SCT049 A3016 RMK MADISHF
DVL,2017-04-01 18:40,-98.9083,48.1146,M,M,M,120.00,7.00,M,30.15,M,10.00,M,FEW,M,M,M,4900.00,M,M,M,M,KDVL 011840Z AUTO 12007KT 10SM FEW049 A3015 RMK MADISHF
DVL,2017-04-01 18:45,-98.9083,48.1146,M,M,M,140.00,8.00,M,30.15,M,10.00,M,CLR,M,M,M,M,M,M,M,M,KDVL 011845Z AUTO 14008KT 10SM CLR A3015 RMK MADISHF
DVL,2017-04-01 18:50,-98.9083,48.1146,M,M,M,140.00,8.00,M,30.15,M,10.00,M,CLR,M,M,M,M,M,M,M,M,KDVL 011850Z AUTO 14008KT 10SM CLR A3015 RMK MADISHF
DVL,2017-04-01 18:55,-98.9083,48.1146,M,M,M,140.00,8.00,M,30.15,M,10.00,M,CLR,M,M,M,M,M,M,M,M,KDVL 011855Z AUTO 14008KT 10SM CLR A3015 RMK MADISHF
DVL,2017-04-01 18:56,-98.9083,48.1146,46.90,37.90,70.73,140.00,9.00,0.00,30.15,1023.70,10.00,M,CLR,M,M,M,M,M,M,M,M,KDVL 011856Z AUTO 14009KT 10SM CLR 08/03 A3015 RMK AO2 SLP237 T00830033
DVL,2017-04-01 19:00,-98.9083,48.1146,M,M,M,130.00,8.00,M,30.15,M,10.00,M,CLR,M,M,M,M,M,M,M,M,KDVL 011900Z AUTO 13008KT 10SM CLR A3015 RMK MADISHF
DVL,2017-04-01 19:05,-98.9083,48.1146,M,M,M,130.00,7.00,M,30.14,M,10.00,M,CLR,M,M,M,M,M,M,M,M,KDVL 011905Z AUTO 13007KT 10SM CLR A3014 RMK MADISHF
DVL,2017-04-01 19:10,-98.9083,48.1146,M,M,M,130.00,8.00,M,30.14,M,10.00,M,CLR,M,M,M,M,M,M,M,M,KDVL 011910Z AUTO 13008KT 10SM CLR A3014 RMK MADISHF
DVL,2017-04-01 19:15,-98.9083,48.1146,M,M,M,120.00,9.00,M,30.13,M,10.00,M,CLR,M,M,M,M,M,M,M,M,KDVL 011915Z AUTO 12009KT 10SM CLR A3013 RMK MADISHF
DVL,2017-04-01 19:20,-98.9083,48.1146,M,M,M,130.00,8.00,M,30.13,M,10.00,M,CLR,M,M,M,M,M,M,M,M,KDVL 011920Z AUTO 13008KT 10SM CLR A3013 RMK MADISHF
DVL,2017-04-01 19:25,-98.9083,48.1146,M,M,M,130.00,8.00,M,30.13,M,10.00,M,CLR,M,M,M,M,M,M,M,M,KDVL 011925Z AUTO 13008KT 10SM CLR A3013 RMK MADISHF
DVL,2017-04-01 19:35,-98.9083,48.1146,M,M,M,130.00,8.00,M,30.13,M,10.00,M,CLR,M,M,M,M,M,M,M,M,KDVL 011935Z AUTO 13008KT 10SM CLR A3013 RMK MADISHF
DVL,2017-04-01 19:40,-98.9083,48.1146,M,M,M,130.00,8.00,M,30.12,M,10.00,M,CLR,M,M,M,M,M,M,M,M,KDVL 011940Z AUTO 13008KT 10SM CLR A3012 RMK MADISHF
DVL,2017-04-01 19:45,-98.9083,48.1146,M,M,M,130.00,8.00,M,30.12,M,10.00,M,CLR,M,M,M,M,M,M,M,M,KDVL 011945Z AUTO 13008KT 10SM CLR A3012 RMK MADISHF
DVL,2017-04-01 19:55,-98.9083,48.1146,M,M,M,130.00,9.00,M,30.11,M,10.00,M,FEW,M,M,M,2800.00,M,M,M,M,KDVL 011955Z AUTO 13009KT 10SM FEW028 A3011 RMK MADISHF
DVL,2017-04-01 19:56,-98.9083,48.1146,51.10,39.90,65.38,130.00,8.00,0.00,30.11,1022.20,10.00,M,FEW,M,M,M,2800.00,M,M,M,M,KDVL 011956Z AUTO 13008KT 10SM FEW028 11/04 A3011 RMK AO2 SLP222 T01060044
DVL,2017-04-01 20:00,-98.9083,48.1146,M,M,M,130.00,9.00,M,30.11,M,10.00,M,FEW,M,M,M,2800.00,M,M,M,M,KDVL 012000Z AUTO 13009KT 10SM FEW028 A3011 RMK MADISHF
DVL,2017-04-01 20:05,-98.9083,48.1146,M,M,M,120.00,9.00,M,30.11,M,10.00,M,SCT,M,M,M,2800.00,M,M,M,M,KDVL 012005Z AUTO 12009KT 10SM SCT028 A3011 RMK MADISHF
DVL,2017-04-01 20:10,-98.9083,48.1146,M,M,M,130.00,9.00,M,30.10,M,10.00,M,SCT,M,M,M,2800.00,M,M,M,M,KDVL 012010Z AUTO 13009KT 10SM SCT028 A3010 RMK MADISHF
DVL,2017-04-01 20:15,-98.9083,48.1146,M,M,M,130.00,7.00,M,30.10,M,10.00,M,BKN,M,M,M,2800.00,M,M,M,M,KDVL 012015Z AUTO 13007KT 10SM BKN028 A3010 RMK MADISHF
DVL,2017-04-01 20:19,-98.9083,48.1146,51.80,39.20,61.99,140.00,6.00,0.00,30.10,M,10.00,M,BKN,M,M,M,2800.00,M,M,M,M,KDVL 012019Z AUTO 14006KT 10SM BKN028 11/04 A3010 RMK AO2
DVL,2017-04-01 20:20,-98.9083,48.1146,M,M,M,140.00,6.00,M,30.10,M,10.00,M,BKN,M,M,M,2800.00,M,M,M,M,KDVL 012020Z AUTO 14006KT 10SM BKN028 A3010 RMK MADISHF
DVL,2017-04-01 20:25,-98.9083,48.1146,M,M,M,190.00,8.00,M,30.09,M,10.00,M,BKN,M,M,M,2800.00,M,M,M,M,KDVL 012025Z AUTO 19008KT 10SM BKN028 A3009 RMK WND 14V23  MADISHF
DVL,2017-04-01 20:30,-98.9083,48.1146,M,M,M,210.00,7.00,M,30.09,M,10.00,M,BKN,M,M,M,2800.00,M,M,M,M,KDVL 012030Z AUTO 21007KT 10SM BKN028 A3009 RMK WND 16V23  MADISHF
DVL,2017-04-01 20:35,-98.9083,48.1146,M,M,M,200.00,7.00,M,30.09,M,10.00,M,BKN,M,M,M,2800.00,M,M,M,M,KDVL 012035Z AUTO 20007KT 10SM BKN028 A3009 RMK MADISHF
DVL,2017-04-01 20:40,-98.9083,48.1146,M,M,M,210.00,7.00,M,30.08,M,10.00,M,BKN,M,M,M,2800.00,M,M,M,M,KDVL 012040Z AUTO 21007KT 10SM BKN028 A3008 RMK MADISHF
DVL,2017-04-01 20:45,-98.9083,48.1146,M,M,M,220.00,8.00,M,30.08,M,10.00,M,SCT,M,M,M,2800.00,M,M,M,M,KDVL 012045Z AUTO 22008KT 10SM SCT028 A3008 RMK MADISHF
DVL,2017-04-01 20:50,-98.9083,48.1146,M,M,M,210.00,10.00,M,30.08,M,10.00,M,SCT,M,M,M,2800.00,M,M,M,M,KDVL 012050Z AUTO 21010KT 10SM SCT028 A3008 RMK MADISHF
DVL,2017-04-01 20:51,-98.9083,48.1146,53.60,41.00,62.23,220.00,11.00,0.00,30.08,M,10.00,M,SCT,M,M,M,2800.00,M,M,M,M,KDVL 012051Z AUTO 22011KT 10SM SCT028 12/05 A3008 RMK AO2
DVL,2017-04-01 20:55,-98.9083,48.1146,M,M,M,220.00,9.00,M,30.08,M,10.00,M,FEW,M,M,M,2800.00,M,M,M,M,KDVL 012055Z AUTO 22009KT 10SM FEW028 A3008 RMK MADISHF
DVL,2017-04-01 20:56,-98.9083,48.1146,53.10,41.00,63.38,220.00,9.00,0.00,30.08,1020.90,10.00,M,FEW,M,M,M,2800.00,M,M,M,M,KDVL 012056Z AUTO 22009KT 10SM FEW028 12/05 A3008 RMK AO2 SLP209 T01170050 55024
DVL,2017-04-01 21:05,-98.9083,48.1146,M,M,M,210.00,8.00,M,30.07,M,10.00,M,CLR,M,M,M,M,M,M,M,M,KDVL 012105Z AUTO 21008KT 10SM CLR A3007 RMK MADISHF
DVL,2017-04-01 21:10,-98.9083,48.1146,M,M,M,220.00,9.00,M,30.07,M,10.00,M,CLR,M,M,M,M,M,M,M,M,KDVL 012110Z AUTO 22009KT 10SM CLR A3007 RMK MADISHF
DVL,2017-04-01 21:15,-98.9083,48.1146,M,M,M,210.00,8.00,M,30.07,M,10.00,M,CLR,M,M,M,M,M,M,M,M,KDVL 012115Z AUTO 21008KT 10SM CLR A3007 RMK MADISHF
DVL,2017-04-01 21:20,-98.9083,48.1146,M,M,M,200.00,6.00,M,30.06,M,10.00,M,CLR,M,M,M,M,M,M,M,M,KDVL 012120Z AUTO 20006KT 10SM CLR A3006 RMK MADISHF
DVL,2017-04-01 21:25,-98.9083,48.1146,M,M,M,190.00,7.00,M,30.06,M,10.00,M,CLR,M,M,M,M,M,M,M,M,KDVL 012125Z AUTO 19007KT 10SM CLR A3006 RMK MADISHF
DVL,2017-04-01 21:30,-98.9083,48.1146,M,M,M,190.00,7.00,M,30.06,M,10.00,M,CLR,M,M,M,M,M,M,M,M,KDVL 012130Z AUTO 19007KT 10SM CLR A3006 RMK MADISHF
DVL,2017-04-01 21:35,-98.9083,48.1146,M,M,M,200.00,7.00,M,30.06,M,10.00,M,CLR,M,M,M,M,M,M,M,M,KDVL 012135Z AUTO 20007KT 10SM CLR A3006 RMK MADISHF
DVL,2017-04-01 21:40,-98.9083,48.1146,M,M,M,190.00,7.00,M,30.06,M,10.00,M,CLR,M,M,M,M,M,M,M,M,KDVL 012140Z AUTO 19007KT 10SM CLR A3006 RMK MADISHF
DVL,2017-04-01 21:45,-98.9083,48.1146,M,M,M,150.00,7.00,M,30.05,M,10.00,M,CLR,M,M,M,M,M,M,M,M,KDVL 012145Z AUTO 15007KT 10SM CLR A3005 RMK MADISHF
DVL,2017-04-01 21:50,-98.9083,48.1146,M,M,M,140.00,7.00,M,30.05,M,10.00,M,CLR,M,M,M,M,M,M,M,M,KDVL 012150Z AUTO 14007KT 10SM CLR A3005 RMK MADISHF
DVL,2017-04-01 21:55,-98.9083,48.1146,M,M,M,120.00,7.00,M,30.04,M,10.00,M,CLR,M,M,M,M,M,M,M,M,KDVL 012155Z AUTO 12007KT 10SM CLR A3004 RMK MADISHF
DVL,2017-04-01 21:56,-98.9083,48.1146,54.00,42.10,63.98,130.00,7.00,0.00,30.04,1019.80,10.00,M,CLR,M,M,M,M,M,M,M,M,KDVL 012156Z AUTO 13007KT 10SM CLR 12/06 A3004 RMK AO2 SLP198 T01220056
DVL,2017-04-01 22:00,-98.9083,48.1146,M,M,M,130.00,7.00,M,30.04,M,10.00,M,CLR,M,M,M,M,M,M,M,M,KDVL 012200Z AUTO 13007KT 10SM CLR A3004 RMK MADISHF
DVL,2017-04-01 22:05,-98.9083,48.1146,M,M,M,130.00,6.00,M,30.04,M,10.00,M,CLR,M,M,M,M,M,M,M,M,KDVL 012205Z AUTO 13006KT 10SM CLR A3004 RMK MADISHF
DVL,2017-04-01 22:15,-98.9083,48.1146,M,M,M,140.00,6.00,M,30.04,M,10.00,M,CLR,M,M,M,M,M,M,M,M,KDVL 012215Z AUTO 14006KT 10SM CLR A3004 RMK MADISHF
DVL,2017-04-01 22:20,-98.9083,48.1146,M,M,M,130.00,7.00,M,30.03,M,10.00,M,CLR,M,M,M,M,M,M,M,M,KDVL 012220Z AUTO 13007KT 10SM CLR A3003 RMK MADISHF
DVL,2017-04-01 22:25,-98.9083,48.1146,M,M,M,130.00,7.00,M,30.03,M,10.00,M,CLR,M,M,M,M,M,M,M,M,KDVL 012225Z AUTO 13007KT 10SM CLR A3003 RMK MADISHF
DVL,2017-04-01 22:30,-98.9083,48.1146,M,M,M,140.00,7.00,M,30.03,M,10.00,M,CLR,M,M,M,M,M,M,M,M,KDVL 012230Z AUTO 14007KT 10SM CLR A3003 RMK MADISHF
DVL,2017-04-01 22:35,-98.9083,48.1146,M,M,M,130.00,7.00,M,30.03,M,10.00,M,CLR,M,M,M,M,M,M,M,M,KDVL 012235Z AUTO 13007KT 10SM CLR A3003 RMK MADISHF
DVL,2017-04-01 22:40,-98.9083,48.1146,M,M,M,130.00,5.00,M,30.03,M,10.00,M,CLR,M,M,M,M,M,M,M,M,KDVL 012240Z AUTO 13005KT 10SM CLR A3003 RMK MADISHF
DVL,2017-04-01 22:45,-98.9083,48.1146,M,M,M,130.00,6.00,M,30.03,M,10.00,M,CLR,M,M,M,M,M,M,M,M,KDVL 012245Z AUTO 13006KT 10SM CLR A3003 RMK MADISHF
DVL,2017-04-01 22:50,-98.9083,48.1146,M,M,M,130.00,7.00,M,30.02,M,10.00,M,CLR,M,M,M,M,M,M,M,M,KDVL 012250Z AUTO 13007KT 10SM CLR A3002 RMK MADISHF
DVL,2017-04-01 22:55,-98.9083,48.1146,M,M,M,120.00,6.00,M,30.02,M,10.00,M,CLR,M,M,M,M,M,M,M,M,KDVL 012255Z AUTO 12006KT 10SM CLR A3002 RMK MADISHF
DVL,2017-04-01 22:56,-98.9083,48.1146,53.10,41.00,63.38,130.00,6.00,0.00,30.02,1019.00,10.00,M,CLR,M,M,M,M,M,M,M,M,KDVL 012256Z AUTO 13006KT 10SM CLR 12/05 A3002 RMK AO2 SLP190 T01170050
DVL,2017-04-01 23:00,-98.9083,48.1146,M,M,M,130.00,6.00,M,30.02,M,10.00,M,CLR,M,M,M,M,M,M,M,M,KDVL 012300Z AUTO 13006KT 10SM CLR A3002 RMK MADISHF
DVL,2017-04-01 23:05,-98.9083,48.1146,M,M,M,130.00,5.00,M,30.02,M,10.00,M,CLR,M,M,M,M,M,M,M,M,KDVL 012305Z AUTO 13005KT 10SM CLR A3002 RMK MADISHF
DVL,2017-04-01 23:10,-98.9083,48.1146,M,M,M,140.00,6.00,M,30.02,M,10.00,M,CLR,M,M,M,M,M,M,M,M,KDVL 012310Z AUTO 14006KT 10SM CLR A3002 RMK MADISHF
DVL,2017-04-01 23:15,-98.9083,48.1146,M,M,M,140.00,6.00,M,30.02,M,10.00,M,CLR,M,M,M,M,M,M,M,M,KDVL 012315Z AUTO 14006KT 10SM CLR A3002 RMK MADISHF
DVL,2017-04-01 23:25,-98.9083,48.1146,M,M,M,130.00,5.00,M,30.01,M,10.00,M,CLR,M,M,M,M,M,M,M,M,KDVL 012325Z AUTO 13005KT 10SM CLR A3001 RMK MADISHF
DVL,2017-04-01 23:30,-98.9083,48.1146,M,M,M,130.00,5.00,M,30.01,M,10.00,M,CLR,M,M,M,M,M,M,M,M,KDVL 012330Z AUTO 13005KT 10SM CLR A3001 RMK MADISHF
DVL,2017-04-01 23:35,-98.9083,48.1146,M,M,M,130.00,5.00,M,30.01,M,10.00,M,CLR,M,M,M,M,M,M,M,M,KDVL 012335Z AUTO 13005KT 10SM CLR A3001 RMK MADISHF
DVL,2017-04-01 23:40,-98.9083,48.1146,M,M,M,130.00,5.00,M,30.01,M,10.00,M,CLR,M,M,M,M,M,M,M,M,KDVL 012340Z AUTO 13005KT 10SM CLR A3001 RMK MADISHF
DVL,2017-04-01 23:45,-98.9083,48.1146,M,M,M,130.00,5.00,M,30.00,M,10.00,M,CLR,M,M,M,M,M,M,M,M,KDVL 012345Z AUTO 13005KT 10SM CLR A3000 RMK MADISHF
DVL,2017-04-01 23:50,-98.9083,48.1146,M,M,M,140.00,8.00,M,30.00,M,10.00,M,FEW,M,M,M,6000.00,M,M,M,M,KDVL 012350Z AUTO 14008KT 10SM FEW060 A3000 RMK MADISHF
DVL,2017-04-01 23:55,-98.9083,48.1146,M,M,M,140.00,7.00,M,30.00,M,10.00,M,FEW,M,M,M,6000.00,M,M,M,M,KDVL 012355Z AUTO 14007KT 10SM FEW060 A3000 RMK MADISHF
DVL,2017-04-01 23:56,-98.9083,48.1146,48.90,39.90,70.95,140.00,7.00,0.00,30.00,1018.50,10.00,M,SCT,M,M,M,6000.00,M,M,M,M,KDVL 012356Z AUTO 14007KT 10SM SCT060 09/04 A3000 RMK AO2 SLP185 T00940044 10128 20072 56025 TSNO
