#DEBUG: Format Typ    -> comma
#DEBUG: Time Period   -> 2017-04-01 00:00:00+00:00 2017-04-02 00:00:00+00:00
#DEBUG: Time Zone     -> Etc/UTC
#DEBUG: Data Contact   -> daryl herzmann akrherz@iastate.edu 515-294-5978
#DEBUG: Entries Found -> -1
station,valid,lon,lat,tmpf, dwpf, relh, drct, sknt, p01i, alti, mslp, vsby, gust, skyc1, skyc2, skyc3, skyc4, skyl1, skyl2, skyl3, skyl4, presentwx, metar
DVN,2017-04-01 00:00,-90.5948,41.6133,M,M,M,30.00,10.00,M,30.03,M,10.00,M,OVC,M,M,M,2300.00,M,M,M,M,KDVN 010000Z AUTO 03010KT 10SM OVC023 A3003 RMK MADISHF
DVN,2017-04-01 00:05,-90.5948,41.6133,M,M,M,30.00,9.00,M,30.03,M,10.00,M,OVC,M,M,M,2300.00,M,M,M,M,KDVN 010005Z AUTO 03009KT 10SM OVC023 A3003 RMK MADISHF
DVN,2017-04-01 00:10,-90.5948,41.6133,M,M,M,40.00,8.00,M,30.03,M,10.00,M,OVC,M,M,M,2300.00,M,M,M,M,KDVN 010010Z AUTO 04008KT 10SM OVC023 A3003 RMK MADISHF
DVN,2017-04-01 00:15,-90.5948,41.6133,M,M,M,40.00,6.00,M,30.03,M,10.00,M,OVC,M,M,M,2300.00,M,M,M,M,KDVN 010015Z AUTO 04006KT 10SM OVC023 A3003 RMK MADISHF
DVN,2017-04-01 00:20,-90.5948,41.6133,M,M,M,30.00,7.00,M,30.03,M,10.00,M,OVC,M,M,M,2400.00,M,M,M,M,KDVN 010020Z AUTO 03007KT 10SM OVC024 A3003 RMK MADISHF
DVN,2017-04-01 00:25,-90.5948,41.6133,M,M,M,40.00,8.00,M,30.03,M,10.00,M,OVC,M,M,M,2400.00,M,M,M,M,KDVN 010025Z AUTO 04008KT 10SM OVC024 A3003 RMK MADISHF
DVN,2017-04-01 00:30,-90.5948,41.6133,M,M,M,40.00,9.00,M,30.04,M,10.00,M,OVC,M,M,M,2400.00,M,M,M,M,KDVN 010030Z AUTO 04009KT 10SM OVC024 A3004 RMK MADISHF
DVN,2017-04-01 00:35,-90.5948,41.6133,M,M,M,40.00,9.00,M,30.04,M,10.00,M,OVC,M,M,M,2400.00,M,M,M,M,KDVN 010035Z AUTO 04009KT 10SM OVC024 A3004 RMK MADISHF
DVN,2017-04-01 00:40,-90.5948,41.6133,M,M,M,30.00,8.00,M,30.05,M,10.00,M,OVC,M,M,M,2400.00,M,M,M,M,KDVN 010040Z AUTO 03008KT 10SM OVC024 A3005 RMK MADISHF
DVN,2017-04-01 00:45,-90.5948,41.6133,M,M,M,30.00,7.00,M,30.05,M,10.00,M,OVC,M,M,M,2400.00,M,M,M,M,KDVN 010045Z AUTO 03007KT 10SM OVC024 A3005 RMK MADISHF
DVN,2017-04-01 00:50,-90.5948,41.6133,M,M,M,20.00,6.00,M,30.05,M,10.00,M,OVC,M,M,M,2400.00,M,M,M,M,KDVN 010050Z AUTO 02006KT 10SM OVC024 A3005 RMK MADISHF
DVN,2017-04-01 00:52,-90.5948,41.6133,42.10,36.00,78.80,30.00,6.00,0.00,30.05,1018.10,10.00,M,OVC,M,M,M,2400.00,M,M,M,M,KDVN 010052Z AUTO 03006KT 10SM OVC024 06/02 A3005 RMK AO2 SLP181 T00560022
DVN,2017-04-01 00:55,-90.5948,41.6133,M,M,M,20.00,6.00,M,30.05,M,10.00,M,OVC,M,M,M,2500.00,M,M,M,M,KDVN 010055Z AUTO 02006KT 10SM OVC025 A3005 RMK MADISHF
DVN,2017-04-01 01:00,-90.5948,41.6133,M,M,M,30.00,5.00,M,30.05,M,10.00,M,OVC,M,M,M,2500.00,M,M,M,M,KDVN 010100Z AUTO 03005KT 10SM OVC025 A3005 RMK MADISHF
DVN,2017-04-01 01:05,-90.5948,41.6133,M,M,M,20.00,5.00,M,30.06,M,10.00,M,OVC,M,M,M,2500.00,M,M,M,M,KDVN 010105Z AUTO 02005KT 10SM OVC025 A3006 RMK MADISHF
DVN,2017-04-01 01:10,-90.5948,41.6133,M,M,M,20.00,5.00,M,30.06,M,10.00,M,OVC,M,M,M,2500.00,M,M,M,M,KDVN 010110Z AUTO 02005KT 10SM OVC025 A3006 RMK MADISHF
DVN,2017-04-01 01:15,-90.5948,41.6133,M,M,M,30.00,5.00,M,30.06,M,10.00,M,OVC,M,M,M,2500.00,M,M,M,M,KDVN 010115Z AUTO 03005KT 10SM OVC025 A3006 RMK MADISHF
DVN,2017-04-01 01:20,-90.5948,41.6133,M,M,M,30.00,5.00,M,30.07,M,10.00,M,OVC,M,M,M,2700.00,M,M,M,M,KDVN 010120Z AUTO 03005KT 10SM OVC027 A3007 RMK MADISHF
DVN,2017-04-01 01:25,-90.5948,41.6133,M,M,M,30.00,4.00,M,30.06,M,10.00,M,OVC,M,M,M,2700.00,M,M,M,M,KDVN 010125Z AUTO 03004KT 10SM OVC027 A3006 RMK MADISHF
DVN,2017-04-01 01:30,-90.5948,41.6133,M,M,M,0.00,0.00,M,30.06,M,10.00,M,OVC,M,M,M,2700.00,M,M,M,M,KDVN 010130Z AUTO 00000KT 10SM OVC027 A3006 RMK MADISHF
DVN,2017-04-01 01:35,-90.5948,41.6133,M,M,M,0.00,0.00,M,30.07,M,10.00,M,BKN,M,M,M,2700.00,M,M,M,M,KDVN 010135Z AUTO 00000KT 10SM BKN027 A3007 RMK MADISHF
DVN,2017-04-01 01:40,-90.5948,41.6133,M,M,M,350.00,3.00,M,30.07,M,10.00,M,SCT,M,M,M,2700.00,M,M,M,M,KDVN 010140Z AUTO 35003KT 10SM SCT027 A3007 RMK MADISHF
DVN,2017-04-01 01:45,-90.5948,41.6133,M,M,M,360.00,3.00,M,30.06,M,10.00,M,SCT,M,M,M,2800.00,M,M,M,M,KDVN 010145Z AUTO 36003KT 10SM SCT028 A3006 RMK MADISHF
DVN,2017-04-01 01:50,-90.5948,41.6133,M,M,M,360.00,3.00,M,30.07,M,10.00,M,FEW,M,M,M,2800.00,M,M,M,M,KDVN 010150Z AUTO 36003KT 10SM FEW028 A3007 RMK MADISHF
DVN,2017-04-01 01:52,-90.5948,41.6133,39.90,35.10,82.80,10.00,4.00,0.00,30.07,1018.80,10.00,M,FEW,M,M,M,2800.00,M,M,M,M,KDVN 010152Z AUTO 01004KT 10SM FEW028 04/02 A3007 RMK AO2 SLP188 T00440017
DVN,2017-04-01 01:55,-90.5948,41.6133,M,M,M,10.00,4.00,M,30.07,M,10.00,M,FEW,M,M,M,2800.00,M,M,M,M,KDVN 010155Z AUTO 01004KT 10SM FEW028 A3007 RMK MADISHF
DVN,2017-04-01 02:00,-90.5948,41.6133,M,M,M,20.00,4.00,M,30.07,M,10.00,M,CLR,M,M,M,M,M,M,M,M,KDVN 010200Z AUTO 02004KT 10SM CLR A3007 RMK MADISHF
DVN,2017-04-01 02:05,-90.5948,41.6133,M,M,M,20.00,3.00,M,30.07,M,10.00,M,CLR,M,M,M,M,M,M,M,M,KDVN 010205Z AUTO 02003KT 10SM CLR A3007 RMK MADISHF
DVN,2017-04-01 02:10,-90.5948,41.6133,M,M,M,30.00,3.00,M,30.06,M,10.00,M,CLR,M,M,M,M,M,M,M,M,KDVN 010210Z AUTO 03003KT 10SM CLR A3006 RMK MADISHF
DVN,2017-04-01 02:15,-90.5948,41.6133,M,M,M,0.00,0.00,M,30.06,M,10.00,M,CLR,M,M,M,M,M,M,M,M,KDVN 010215Z AUTO 00000KT 10SM CLR A3006 RMK MADISHF
DVN,2017-04-01 02:20,-90.5948,41.6133,M,M,M,0.00,0.00,M,30.07,M,10.00,M,CLR,M,M,M,M,M,M,M,M,KDVN 010220Z AUTO 00000KT 10SM CLR A3007 RMK MADISHF
DVN,2017-04-01 02:25,-90.5948,41.6133,M,M,M,0.00,0.00,M,30.06,M,10.00,M,CLR,M,M,M,M,M,M,M,M,KDVN 010225Z AUTO 00000KT 10SM CLR A3006 RMK MADISHF
DVN,2017-04-01 02:30,-90.5948,41.6133,M,M,M,30.00,3.00,M,30.06,M,10.00,M,CLR,M,M,M,M,M,M,M,M,KDVN 010230Z AUTO 03003KT 10SM CLR A3006 RMK MADISHF
DVN,2017-04-01 02:35,-90.5948,41.6133,M,M,M,10.00,4.00,M,30.07,M,10.00,M,CLR,M,M,M,M,M,M,M,M,KDVN 010235Z AUTO 01004KT 10SM CLR A3007 RMK MADISHF
DVN,2017-04-01 02:40,-90.5948,41.6133,M,M,M,20.00,3.00,M,30.07,M,10.00,M,CLR,M,M,M,M,M,M,M,M,KDVN 010240Z AUTO 02003KT 10SM CLR A3007 RMK MADISHF
DVN,2017-04-01 02:45,-90.5948,41.6133,M,M,M,0.00,0.00,M,30.07,M,10.00,M,CLR,M,M,M,M,M,M,M,M,KDVN 010245Z AUTO 00000KT 10SM CLR A3007 RMK MADISHF
DVN,2017-04-01 02:50,-90.5948,41.6133,M,M,M,0.00,0.00,M,30.07,M,10.00,M,CLR,M,M,M,M,M,M,M,M,KDVN 010250Z AUTO 00000KT 10SM CLR A3007 RMK MADISHF
DVN,2017-04-01 02:52,-90.5948,41.6133,37.00,33.10,85.64,0.00,0.00,0.00,30.07,1018.80,10.00,M,CLR,M,M,M,M,M,M,M,M,KDVN 010252Z AUTO 00000KT 10SM CLR 03/01 A3007 RMK AO2 SLP188 T00280006 51013
DVN,2017-04-01 02:55,-90.5948,41.6133,M,M,M,0.00,0.00,M,30.07,M,10.00,M,CLR,M,M,M,M,M,M,M,M,KDVN 010255Z AUTO 00000KT 10SM CLR A3007 RMK MADISHF
DVN,2017-04-01 03:00,-90.5948,41.6133,M,M,M,0.00,0.00,M,30.08,M,10.00,M,CLR,M,M,M,M,M,M,M,M,KDVN 010300Z AUTO 00000KT 10SM CLR A3008 RMK MADISHF
DVN,2017-04-01 03:05,-90.5948,41.6133,M,M,M,220.00,3.00,M,30.08,M,10.00,M,CLR,M,M,M,M,M,M,M,M,KDVN 010305Z AUTO 22003KT 10SM CLR A3008 RMK MADISHF
DVN,2017-04-01 03:10,-90.5948,41.6133,M,M,M,230.00,5.00,M,30.08,M,10.00,M,CLR,M,M,M,M,M,M,M,M,KDVN 010310Z AUTO 23005KT 10SM CLR A3008 RMK MADISHF
DVN,2017-04-01 03:15,-90.5948,41.6133,M,M,M,240.00,5.00,M,30.09,M,10.00,M,CLR,M,M,M,M,M,M,M,M,KDVN 010315Z AUTO 24005KT 10SM CLR A3009 RMK MADISHF
DVN,2017-04-01 03:20,-90.5948,41.6133,M,M,M,240.00,5.00,M,30.09,M,10.00,M,CLR,M,M,M,M,M,M,M,M,KDVN 010320Z AUTO 24005KT 10SM CLR A3009 RMK MADISHF
DVN,2017-04-01 03:25,-90.5948,41.6133,M,M,M,250.00,5.00,M,30.09,M,10.00,M,CLR,M,M,M,M,M,M,M,M,KDVN 010325Z AUTO 25005KT 10SM CLR A3009 RMK MADISHF
DVN,2017-04-01 03:30,-90.5948,41.6133,M,M,M,250.00,5.00,M,30.09,M,10.00,M,CLR,M,M,M,M,M,M,M,M,KDVN 010330Z AUTO 25005KT 10SM CLR A3009 RMK MADISHF
DVN,2017-04-01 03:35,-90.5948,41.6133,M,M,M,260.00,4.00,M,30.10,M,10.00,M,CLR,M,M,M,M,M,M,M,M,KDVN 010335Z AUTO 26004KT 10SM CLR A3010 RMK MADISHF
DVN,2017-04-01 03:40,-90.5948,41.6133,M,M,M,260.00,4.00,M,30.10,M,10.00,M,CLR,M,M,M,M,M,M,M,M,KDVN 010340Z AUTO 26004KT 10SM CLR A3010 RMK MADISHF
DVN,2017-04-01 03:45,-90.5948,41.6133,M,M,M,260.00,5.00,M,30.10,M,10.00,M,CLR,M,M,M,M,M,M,M,M,KDVN 010345Z AUTO 26005KT 10SM CLR A3010 RMK MADISHF
DVN,2017-04-01 03:50,-90.5948,41.6133,M,M,M,270.00,5.00,M,30.10,M,10.00,M,CLR,M,M,M,M,M,M,M,M,KDVN 010350Z AUTO 27005KT 10SM CLR A3010 RMK MADISHF
DVN,2017-04-01 03:52,-90.5948,41.6133,35.10,33.10,92.32,270.00,5.00,0.00,30.10,1019.80,10.00,M,CLR,M,M,M,M,M,M,M,M,KDVN 010352Z AUTO 27005KT 10SM CLR 02/01 A3010 RMK AO2 SLP198 T00170006
DVN,2017-04-01 03:55,-90.5948,41.6133,M,M,M,270.00,5.00,M,30.10,M,10.00,M,CLR,M,M,M,M,M,M,M,M,KDVN 010355Z AUTO 27005KT 10SM CLR A3010 RMK MADISHF
DVN,2017-04-01 04:00,-90.5948,41.6133,M,M,M,260.00,6.00,M,30.10,M,10.00,M,CLR,M,M,M,M,M,M,M,M,KDVN 010400Z AUTO 26006KT 10SM CLR A3010 RMK MADISHF
DVN,2017-04-01 04:05,-90.5948,41.6133,M,M,M,270.00,6.00,M,30.10,M,10.00,M,CLR,M,M,M,M,M,M,M,M,KDVN 010405Z AUTO 27006KT 10SM CLR A3010 RMK MADISHF
DVN,2017-04-01 04:10,-90.5948,41.6133,M,M,M,270.00,6.00,M,30.11,M,10.00,M,CLR,M,M,M,M,M,M,M,M,KDVN 010410Z AUTO 27006KT 10SM CLR A3011 RMK MADISHF
DVN,2017-04-01 04:15,-90.5948,41.6133,M,M,M,280.00,5.00,M,30.11,M,10.00,M,CLR,M,M,M,M,M,M,M,M,KDVN 010415Z AUTO 28005KT 10SM CLR A3011 RMK MADISHF
DVN,2017-04-01 04:20,-90.5948,41.6133,M,M,M,290.00,5.00,M,30.10,M,10.00,M,CLR,M,M,M,M,M,M,M,M,KDVN 010420Z AUTO 29005KT 10SM CLR A3010 RMK MADISHF
DVN,2017-04-01 04:25,-90.5948,41.6133,M,M,M,290.00,6.00,M,30.11,M,10.00,M,CLR,M,M,M,M,M,M,M,M,KDVN 010425Z AUTO 29006KT 10SM CLR A3011 RMK MADISHF
DVN,2017-04-01 04:30,-90.5948,41.6133,M,M,M,300.00,6.00,M,30.11,M,10.00,M,CLR,M,M,M,M,M,M,M,M,KDVN 010430Z AUTO 30006KT 10SM CLR A3011 RMK MADISHF
DVN,2017-04-01 04:35,-90.5948,41.6133,M,M,M,290.00,6.00,M,30.11,M,10.00,M,CLR,M,M,M,M,M,M,M,M,KDVN 010435Z AUTO 29006KT 10SM CLR A3011 RMK MADISHF
DVN,2017-04-01 04:40,-90.5948,41.6133,M,M,M,300.00,4.00,M,30.11,M,10.00,M,CLR,M,M,M,M,M,M,M,M,KDVN 010440Z AUTO 30004KT 10SM CLR A3011 RMK MADISHF
DVN,2017-04-01 04:45,-90.5948,41.6133,M,M,M,290.00,4.00,M,30.11,M,10.00,M,CLR,M,M,M,M,M,M,M,M,KDVN 010445Z AUTO 29004KT 10SM CLR A3011 RMK MADISHF
DVN,2017-04-01 04:50,-90.5948,41.6133,M,M,M,300.00,4.00,M,30.11,M,10.00,M,CLR,M,M,M,M,M,M,M,M,KDVN 010450Z AUTO 30004KT 10SM CLR A3011 RMK MADISHF
DVN,2017-04-01 04:52,-90.5948,41.6133,34.00,33.10,96.46,300.00,4.00,0.00,30.11,1020.40,10.00,M,CLR,M,M,M,M,M,M,M,M,KDVN 010452Z AUTO 30004KT 10SM CLR 01/01 A3011 RMK AO2 SLP204 T00110006
DVN,2017-04-01 04:55,-90.5948,41.6133,M,M,M,300.00,4.00,M,30.12,M,10.00,M,CLR,M,M,M,M,M,M,M,M,KDVN 010455Z AUTO 30004KT 10SM CLR A3012 RMK MADISHF
DVN,2017-04-01 05:00,-90.5948,41.6133,M,M,M,310.00,5.00,M,30.12,M,10.00,M,CLR,M,M,M,M,M,M,M,M,KDVN 010500Z AUTO 31005KT 10SM CLR A3012 RMK MADISHF
DVN,2017-04-01 05:05,-90.5948,41.6133,M,M,M,310.00,6.00,M,30.11,M,10.00,M,CLR,M,M,M,M,M,M,M,M,KDVN 010505Z AUTO 31006KT 10SM CLR A3011 RMK MADISHF
DVN,2017-04-01 05:10,-90.5948,41.6133,M,M,M,300.00,5.00,M,30.11,M,10.00,M,CLR,M,M,M,M,M,M,M,M,KDVN 010510Z AUTO 30005KT 10SM CLR A3011 RMK MADISHF
DVN,2017-04-01 05:15,-90.5948,41.6133,M,M,M,310.00,5.00,M,30.12,M,10.00,M,CLR,M,M,M,M,M,M,M,M,KDVN 010515Z AUTO 31005KT 10SM CLR A3012 RMK MADISHF
DVN,2017-04-01 05:20,-90.5948,41.6133,M,M,M,300.00,5.00,M,30.12,M,10.00,M,CLR,M,M,M,M,M,M,M,M,KDVN 010520Z AUTO 30005KT 10SM CLR A3012 RMK MADISHF
DVN,2017-04-01 05:25,-90.5948,41.6133,M,M,M,300.00,4.00,M,30.12,M,10.00,M,CLR,M,M,M,M,M,M,M,M,KDVN 010525Z AUTO 30004KT 10SM CLR A3012 RMK MADISHF
DVN,2017-04-01 05:30,-90.5948,41.6133,M,M,M,300.00,4.00,M,30.12,M,10.00,M,CLR,M,M,M,M,M,M,M,M,KDVN 010530Z AUTO 30004KT 10SM CLR A3012 RMK MADISHF
DVN,2017-04-01 05:35,-90.5948,41.6133,M,M,M,300.00,5.00,M,30.13,M,10.00,M,CLR,M,M,M,M,M,M,M,M,KDVN 010535Z AUTO 30005KT 10SM CLR A3013 RMK MADISHF
DVN,2017-04-01 05:40,-90.5948,41.6133,M,M,M,300.00,5.00,M,30.13,M,10.00,M,CLR,M,M,M,M,M,M,M,M,KDVN 010540Z AUTO 30005KT 10SM CLR A3013 RMK MADISHF
DVN,2017-04-01 05:45,-90.5948,41.6133,M,M,M,300.00,5.00,M,30.13,M,10.00,M,CLR,M,M,M,M,M,M,M,M,KDVN 010545Z AUTO 30005KT 10SM CLR A3013 RMK MADISHF
DVN,2017-04-01 05:50,-90.5948,41.6133,M,M,M,300.00,6.00,M,30.13,M,10.00,M,CLR,M,M,M,M,M,M,M,M,KDVN 010550Z AUTO 30006KT 10SM CLR A3013 RMK MADISHF
DVN,2017-04-01 05:52,-90.5948,41.6133,35.10,33.10,92.32,300.00,6.00,0.00,30.13,1021.00,10.00,M,CLR,M,M,M,M,M,M,M,M,KDVN 010552Z AUTO 30006KT 10SM CLR 02/01 A3013 RMK AO2 SLP210 T00170006 10056 20011 400670011 51021
DVN,2017-04-01 05:55,-90.5948,41.6133,M,M,M,300.00,6.00,M,30.13,M,10.00,M,CLR,M,M,M,M,M,M,M,M,KDVN 010555Z AUTO 30006KT 10SM CLR A3013 RMK MADISHF
DVN,2017-04-01 06:00,-90.5948,41.6133,M,M,M,300.00,7.00,M,30.13,M,10.00,M,CLR,M,M,M,M,M,M,M,M,KDVN 010600Z AUTO 30007KT 10SM CLR A3013 RMK MADISHF
DVN,2017-04-01 06:05,-90.5948,41.6133,M,M,M,300.00,7.00,M,30.14,M,10.00,M,CLR,M,M,M,M,M,M,M,M,KDVN 010605Z AUTO 30007KT 10SM CLR A3014 RMK MADISHF
DVN,2017-04-01 06:10,-90.5948,41.6133,M,M,M,300.00,7.00,M,30.14,M,10.00,M,CLR,M,M,M,M,M,M,M,M,KDVN 010610Z AUTO 30007KT 10SM CLR A3014 RMK MADISHF
DVN,2017-04-01 06:15,-90.5948,41.6133,M,M,M,310.00,6.00,M,30.14,M,10.00,M,CLR,M,M,M,M,M,M,M,M,KDVN 010615Z AUTO 31006KT 10SM CLR A3014 RMK MADISHF
DVN,2017-04-01 06:20,-90.5948,41.6133,M,M,M,310.00,6.00,M,30.14,M,10.00,M,CLR,M,M,M,M,M,M,M,M,KDVN 010620Z AUTO 31006KT 10SM CLR A3014 RMK MADISHF
DVN,2017-04-01 06:25,-90.5948,41.6133,M,M,M,310.00,4.00,M,30.14,M,10.00,M,CLR,M,M,M,M,M,M,M,M,KDVN 010625Z AUTO 31004KT 10SM CLR A3014 RMK MADISHF
DVN,2017-04-01 06:30,-90.5948,41.6133,M,M,M,310.00,5.00,M,30.14,M,10.00,M,CLR,M,M,M,M,M,M,M,M,KDVN 010630Z AUTO 31005KT 10SM CLR A3014 RMK MADISHF
DVN,2017-04-01 06:35,-90.5948,41.6133,M,M,M,320.00,6.00,M,30.14,M,10.00,M,CLR,M,M,M,M,M,M,M,M,KDVN 010635Z AUTO 32006KT 10SM CLR A3014 RMK MADISHF
DVN,2017-04-01 06:40,-90.5948,41.6133,M,M,M,320.00,6.00,M,30.14,M,10.00,M,CLR,M,M,M,M,M,M,M,M,KDVN 010640Z AUTO 32006KT 10SM CLR A3014 RMK MADISHF
DVN,2017-04-01 06:45,-90.5948,41.6133,M,M,M,320.00,5.00,M,30.14,M,10.00,M,CLR,M,M,M,M,M,M,M,M,KDVN 010645Z AUTO 32005KT 10SM CLR A3014 RMK MADISHF
DVN,2017-04-01 06:50,-90.5948,41.6133,M,M,M,330.00,4.00,M,30.14,M,10.00,M,CLR,M,M,M,M,M,M,M,M,KDVN 010650Z AUTO 33004KT 10SM CLR A3014 RMK MADISHF
DVN,2017-04-01 06:52,-90.5948,41.6133,32.00,30.90,95.65,330.00,4.00,0.00,30.14,1021.20,10.00,M,CLR,M,M,M,M,M,M,M,M,KDVN 010652Z AUTO 33004KT 10SM CLR 00/M01 A3014 RMK AO2 SLP212 T00001006
DVN,2017-04-01 06:55,-90.5948,41.6133,M,M,M,330.00,4.00,M,30.14,M,10.00,M,CLR,M,M,M,M,M,M,M,M,KDVN 010655Z AUTO 33004KT 10SM CLR A3014 RMK MADISHF
DVN,2017-04-01 07:00,-90.5948,41.6133,M,M,M,330.00,5.00,M,30.14,M,10.00,M,CLR,M,M,M,M,M,M,M,M,KDVN 010700Z AUTO 33005KT 10SM CLR A3014 RMK MADISHF
DVN,2017-04-01 07:05,-90.5948,41.6133,M,M,M,320.00,5.00,M,30.14,M,10.00,M,CLR,M,M,M,M,M,M,M,M,KDVN 010705Z AUTO 32005KT 10SM CLR A3014 RMK MADISHF
DVN,2017-04-01 07:10,-90.5948,41.6133,M,M,M,320.00,5.00,M,30.14,M,10.00,M,CLR,M,M,M,M,M,M,M,M,KDVN 010710Z AUTO 32005KT 10SM CLR A3014 RMK MADISHF
DVN,2017-04-01 07:15,-90.5948,41.6133,M,M,M,320.00,5.00,M,30.14,M,10.00,M,CLR,M,M,M,M,M,M,M,M,KDVN 010715Z AUTO 32005KT 10SM CLR A3014 RMK MADISHF
DVN,2017-04-01 07:20,-90.5948,41.6133,M,M,M,320.00,5.00,M,30.14,M,10.00,M,CLR,M,M,M,M,M,M,M,M,KDVN 010720Z AUTO 32005KT 10SM CLR A3014 RMK MADISHF
DVN,2017-04-01 07:25,-90.5948,41.6133,M,M,M,320.00,5.00,M,30.15,M,10.00,M,CLR,M,M,M,M,M,M,M,M,KDVN 010725Z AUTO 32005KT 10SM CLR A3015 RMK MADISHF
DVN,2017-04-01 07:30,-90.5948,41.6133,M,M,M,310.00,5.00,M,30.15,M,10.00,M,CLR,M,M,M,M,M,M,M,M,KDVN 010730Z AUTO 31005KT 10SM CLR A3015 RMK MADISHF
DVN,2017-04-01 07:35,-90.5948,41.6133,M,M,M,310.00,6.00,M,30.15,M,10.00,M,CLR,M,M,M,M,M,M,M,M,KDVN 010735Z AUTO 31006KT 10SM CLR A3015 RMK MADISHF
DVN,2017-04-01 07:40,-90.5948,41.6133,M,M,M,310.00,5.00,M,30.16,M,10.00,M,CLR,M,M,M,M,M,M,M,M,KDVN 010740Z AUTO 31005KT 10SM CLR A3016 RMK MADISHF
DVN,2017-04-01 07:45,-90.5948,41.6133,M,M,M,300.00,5.00,M,30.16,M,10.00,M,CLR,M,M,M,M,M,M,M,M,KDVN 010745Z AUTO 30005KT 10SM CLR A3016 RMK MADISHF
DVN,2017-04-01 07:50,-90.5948,41.6133,M,M,M,300.00,5.00,M,30.16,M,10.00,M,CLR,M,M,M,M,M,M,M,M,KDVN 010750Z AUTO 30005KT 10SM CLR A3016 RMK MADISHF
DVN,2017-04-01 07:52,-90.5948,41.6133,33.10,32.00,95.67,310.00,5.00,0.00,30.16,1022.00,10.00,M,CLR,M,M,M,M,M,M,M,M,KDVN 010752Z AUTO 31005KT 10SM CLR 01/00 A3016 RMK AO2 SLP220 T00060000
DVN,2017-04-01 07:55,-90.5948,41.6133,M,M,M,310.00,5.00,M,30.16,M,10.00,M,CLR,M,M,M,M,M,M,M,M,KDVN 010755Z AUTO 31005KT 10SM CLR A3016 RMK MADISHF
DVN,2017-04-01 08:00,-90.5948,41.6133,M,M,M,310.00,5.00,M,30.16,M,10.00,M,CLR,M,M,M,M,M,M,M,M,KDVN 010800Z AUTO 31005KT 10SM CLR A3016 RMK MADISHF
DVN,2017-04-01 08:05,-90.5948,41.6133,M,M,M,310.00,4.00,M,30.16,M,10.00,M,CLR,M,M,M,M,M,M,M,M,KDVN 010805Z AUTO 31004KT 10SM CLR A3016 RMK MADISHF
DVN,2017-04-01 08:10,-90.5948,41.6133,M,M,M,330.00,5.00,M,30.16,M,10.00,M,CLR,M,M,M,M,M,M,M,M,KDVN 010810Z AUTO 33005KT 10SM CLR A3016 RMK MADISHF
DVN,2017-04-01 08:15,-90.5948,41.6133,M,M,M,320.00,5.00,M,30.16,M,10.00,M,CLR,M,M,M,M,M,M,M,M,KDVN 010815Z AUTO 32005KT 10SM CLR A3016 RMK MADISHF
DVN,2017-04-01 08:20,-90.5948,41.6133,M,M,M,330.00,4.00,M,30.15,M,10.00,M,CLR,M,M,M,M,M,M,M,M,KDVN 010820Z AUTO 33004KT 10SM CLR A3015 RMK MADISHF
DVN,2017-04-01 08:25,-90.5948,41.6133,M,M,M,320.00,4.00,M,30.15,M,10.00,M,CLR,M,M,M,M,M,M,M,M,KDVN 010825Z AUTO 32004KT 10SM CLR A3015 RMK MADISHF
DVN,2017-04-01 08:30,-90.5948,41.6133,M,M,M,320.00,5.00,M,30.16,M,10.00,M,CLR,M,M,M,M,M,M,M,M,KDVN 010830Z AUTO 32005KT 10SM CLR A3016 RMK MADISHF
DVN,2017-04-01 08:35,-90.5948,41.6133,M,M,M,320.00,5.00,M,30.16,M,10.00,M,CLR,M,M,M,M,M,M,M,M,KDVN 010835Z AUTO 32005KT 10SM CLR A3016 RMK MADISHF
DVN,2017-04-01 08:40,-90.5948,41.6133,M,M,M,320.00,5.00,M,30.16,M,10.00,M,CLR,M,M,M,M,M,M,M,M,KDVN 010840Z AUTO 32005KT 10SM CLR A3016 RMK MADISHF
DVN,2017-04-01 08:45,-90.5948,41.6133,M,M,M,310.00,6.00,M,30.16,M,10.00,M,CLR,M,M,M,M,M,M,M,M,KDVN 010845Z AUTO 31006KT 10SM CLR A3016 RMK MADISHF
DVN,2017-04-01 08:50,-90.5948,41.6133,M,M,M,320.00,6.00,M,30.16,M,10.00,M,CLR,M,M,M,M,M,M,M,M,KDVN 010850Z AUTO 32006KT 10SM CLR A3016 RMK MADISHF
DVN,2017-04-01 08:52,-90.5948,41.6133,34.00,32.00,92.29,320.00,6.00,0.00,30.16,1022.00,10.00,M,CLR,M,M,M,M,M,M,M,M,KDVN 010852Z AUTO 32006KT 10SM CLR 01/00 A3016 RMK AO2 SLP220 T00110000 51010
DVN,2017-04-01 08:55,-90.5948,41.6133,M,M,M,320.00,6.00,M,30.16,M,10.00,M,CLR,M,M,M,M,M,M,M,M,KDVN 010855Z AUTO 32006KT 10SM CLR A3016 RMK MADISHF
DVN,2017-04-01 09:00,-90.5948,41.6133,M,M,M,310.00,6.00,M,30.16,M,10.00,M,CLR,M,M,M,M,M,M,M,M,KDVN 010900Z AUTO 31006KT 10SM CLR A3016 RMK MADISHF
DVN,2017-04-01 09:05,-90.5948,41.6133,M,M,M,320.00,6.00,M,30.16,M,10.00,M,CLR,M,M,M,M,M,M,M,M,KDVN 010905Z AUTO 32006KT 10SM CLR A3016 RMK MADISHF
DVN,2017-04-01 09:10,-90.5948,41.6133,M,M,M,310.00,6.00,M,30.16,M,10.00,M,CLR,M,M,M,M,M,M,M,M,KDVN 010910Z AUTO 31006KT 10SM CLR A3016 RMK MADISHF
DVN,2017-04-01 09:15,-90.5948,41.6133,M,M,M,310.00,6.00,M,30.16,M,10.00,M,CLR,M,M,M,M,M,M,M,M,KDVN 010915Z AUTO 31006KT 10SM CLR A3016 RMK MADISHF
DVN,2017-04-01 09:20,-90.5948,41.6133,M,M,M,310.00,5.00,M,30.16,M,10.00,M,CLR,M,M,M,M,M,M,M,M,KDVN 010920Z AUTO 31005KT 10SM CLR A3016 RMK MADISHF
DVN,2017-04-01 09:25,-90.5948,41.6133,M,M,M,310.00,5.00,M,30.17,M,10.00,M,CLR,M,M,M,M,M,M,M,M,KDVN 010925Z AUTO 31005KT 10SM CLR A3017 RMK MADISHF
DVN,2017-04-01 09:30,-90.5948,41.6133,M,M,M,310.00,5.00,M,30.17,M,10.00,M,CLR,M,M,M,M,M,M,M,M,KDVN 010930Z AUTO 31005KT 10SM CLR A3017 RMK MADISHF
DVN,2017-04-01 09:35,-90.5948,41.6133,M,M,M,300.00,5.00,M,30.17,M,10.00,M,CLR,M,M,M,M,M,M,M,M,KDVN 010935Z AUTO 30005KT 10SM CLR A3017 RMK MADISHF
DVN,2017-04-01 09:40,-90.5948,41.6133,M,M,M,290.00,4.00,M,30.17,M,10.00,M,CLR,M,M,M,M,M,M,M,M,KDVN 010940Z AUTO 29004KT 10SM CLR A3017 RMK MADISHF
DVN,2017-04-01 09:45,-90.5948,41.6133,M,M,M,290.00,5.00,M,30.17,M,10.00,M,CLR,M,M,M,M,M,M,M,M,KDVN 010945Z AUTO 29005KT 10SM CLR A3017 RMK MADISHF
DVN,2017-04-01 09:50,-90.5948,41.6133,M,M,M,280.00,4.00,M,30.17,M,10.00,M,CLR,M,M,M,M,M,M,M,M,KDVN 010950Z AUTO 28004KT 10SM CLR A3017 RMK MADISHF
DVN,2017-04-01 09:52,-90.5948,41.6133,32.00,30.90,95.65,280.00,4.00,0.00,30.17,1022.20,10.00,M,CLR,M,M,M,M,M,M,M,M,KDVN 010952Z AUTO 28004KT 10SM CLR 00/M01 A3017 RMK AO2 SLP222 T00001006
DVN,2017-04-01 09:55,-90.5948,41.6133,M,M,M,280.00,5.00,M,30.17,M,10.00,M,CLR,M,M,M,M,M,M,M,M,KDVN 010955Z AUTO 28005KT 10SM CLR A3017 RMK MADISHF
DVN,2017-04-01 10:00,-90.5948,41.6133,M,M,M,280.00,5.00,M,30.17,M,10.00,M,CLR,M,M,M,M,M,M,M,M,KDVN 011000Z AUTO 28005KT 10SM CLR A3017 RMK MADISHF
DVN,2017-04-01 10:05,-90.5948,41.6133,M,M,M,290.00,5.00,M,30.17,M,10.00,M,CLR,M,M,M,M,M,M,M,M,KDVN 011005Z AUTO 29005KT 10SM CLR A3017 RMK MADISHF
DVN,2017-04-01 10:10,-90.5948,41.6133,M,M,M,290.00,4.00,M,30.17,M,10.00,M,CLR,M,M,M,M,M,M,M,M,KDVN 011010Z AUTO 29004KT 10SM CLR A3017 RMK MADISHF
DVN,2017-04-01 10:15,-90.5948,41.6133,M,M,M,290.00,3.00,M,30.17,M,10.00,M,CLR,M,M,M,M,M,M,M,M,KDVN 011015Z AUTO 29003KT 10SM CLR A3017 RMK MADISHF
DVN,2017-04-01 10:20,-90.5948,41.6133,M,M,M,290.00,4.00,M,30.18,M,10.00,M,CLR,M,M,M,M,M,M,M,M,KDVN 011020Z AUTO 29004KT 10SM CLR A3018 RMK MADISHF
DVN,2017-04-01 10:25,-90.5948,41.6133,M,M,M,280.00,4.00,M,30.18,M,10.00,M,CLR,M,M,M,M,M,M,M,M,KDVN 011025Z AUTO 28004KT 10SM CLR A3018 RMK MADISHF
DVN,2017-04-01 10:30,-90.5948,41.6133,M,M,M,280.00,4.00,M,30.18,M,10.00,M,CLR,M,M,M,M,M,M,M,M,KDVN 011030Z AUTO 28004KT 10SM CLR A3018 RMK MADISHF
DVN,2017-04-01 10:35,-90.5948,41.6133,M,M,M,280.00,5.00,M,30.18,M,10.00,M,CLR,M,M,M,M,M,M,M,M,KDVN 011035Z AUTO 28005KT 10SM CLR A3018 RMK MADISHF
DVN,2017-04-01 10:40,-90.5948,41.6133,M,M,M,280.00,5.00,M,30.18,M,10.00,M,CLR,M,M,M,M,M,M,M,M,KDVN 011040Z AUTO 28005KT 10SM CLR A3018 RMK MADISHF
DVN,2017-04-01 10:45,-90.5948,41.6133,M,M,M,290.00,5.00,M,30.18,M,10.00,M,CLR,M,M,M,M,M,M,M,M,KDVN 011045Z AUTO 29005KT 10SM CLR A3018 RMK MADISHF
DVN,2017-04-01 10:50,-90.5948,41.6133,M,M,M,300.00,4.00,M,30.18,M,10.00,M,CLR,M,M,M,M,M,M,M,M,KDVN 011050Z AUTO 30004KT 10SM CLR A3018 RMK MADISHF
DVN,2017-04-01 10:52,-90.5948,41.6133,32.00,30.90,95.65,300.00,4.00,0.00,30.18,1022.70,10.00,M,CLR,M,M,M,M,M,M,M,M,KDVN 011052Z AUTO 30004KT 10SM CLR 00/M01 A3018 RMK AO2 SLP227 T00001006
DVN,2017-04-01 10:55,-90.5948,41.6133,M,M,M,310.00,4.00,M,30.18,M,10.00,M,CLR,M,M,M,M,M,M,M,M,KDVN 011055Z AUTO 31004KT 10SM CLR A3018 RMK MADISHF
DVN,2017-04-01 11:00,-90.5948,41.6133,M,M,M,300.00,3.00,M,30.19,M,10.00,M,CLR,M,M,M,M,M,M,M,M,KDVN 011100Z AUTO 30003KT 10SM CLR A3019 RMK MADISHF
DVN,2017-04-01 11:05,-90.5948,41.6133,M,M,M,300.00,4.00,M,30.19,M,10.00,M,CLR,M,M,M,M,M,M,M,M,KDVN 011105Z AUTO 30004KT 10SM CLR A3019 RMK MADISHF
DVN,2017-04-01 11:10,-90.5948,41.6133,M,M,M,300.00,4.00,M,30.19,M,9.00,M,CLR,M,M,M,M,M,M,M,M,KDVN 011110Z AUTO 30004KT 9SM CLR A3019 RMK MADISHF
DVN,2017-04-01 11:15,-90.5948,41.6133,M,M,M,310.00,4.00,M,30.19,M,9.00,M,CLR,M,M,M,M,M,M,M,M,KDVN 011115Z AUTO 31004KT 9SM CLR A3019 RMK MADISHF
DVN,2017-04-01 11:20,-90.5948,41.6133,M,M,M,310.00,3.00,M,30.19,M,9.00,M,CLR,M,M,M,M,M,M,M,M,KDVN 011120Z AUTO 31003KT 9SM CLR A3019 RMK MADISHF
DVN,2017-04-01 11:25,-90.5948,41.6133,M,M,M,300.00,3.00,M,30.19,M,9.00,M,CLR,M,M,M,M,M,M,M,M,KDVN 011125Z AUTO 30003KT 9SM CLR A3019 RMK MADISHF
DVN,2017-04-01 11:30,-90.5948,41.6133,M,M,M,300.00,3.00,M,30.19,M,9.00,M,CLR,M,M,M,M,M,M,M,M,KDVN 011130Z AUTO 30003KT 9SM CLR A3019 RMK MADISHF
DVN,2017-04-01 11:35,-90.5948,41.6133,M,M,M,0.00,0.00,M,30.19,M,9.00,M,CLR,M,M,M,M,M,M,M,M,KDVN 011135Z AUTO 00000KT 9SM CLR A3019 RMK MADISHF
DVN,2017-04-01 11:40,-90.5948,41.6133,M,M,M,0.00,0.00,M,30.19,M,8.00,M,CLR,M,M,M,M,M,M,M,M,KDVN 011140Z AUTO 00000KT 8SM CLR A3019 RMK MADISHF
DVN,2017-04-01 11:45,-90.5948,41.6133,M,M,M,320.00,3.00,M,30.20,M,8.00,M,CLR,M,M,M,M,M,M,M,M,KDVN 011145Z AUTO 32003KT 8SM CLR A3020 RMK MADISHF
DVN,2017-04-01 11:50,-90.5948,41.6133,M,M,M,0.00,0.00,M,30.20,M,7.00,M,CLR,M,M,M,M,M,M,M,M,KDVN 011150Z AUTO 00000KT 7SM CLR A3020 RMK MADISHF
DVN,2017-04-01 11:52,-90.5948,41.6133,30.90,30.00,96.41,0.00,0.00,0.00,30.20,1023.20,7.00,M,CLR,M,M,M,M,M,M,M,M,KDVN 011152Z AUTO 00000KT 7SM CLR M01/M01 A3020 RMK AO2 SLP232 T10061011 10017 21006 53012
DVN,2017-04-01 11:55,-90.5948,41.6133,M,M,M,330.00,3.00,M,30.20,M,7.00,M,CLR,M,M,M,M,M,M,M,M,KDVN 011155Z AUTO 33003KT 7SM CLR A3020 RMK MADISHF
DVN,2017-04-01 12:00,-90.5948,41.6133,M,M,M,320.00,3.00,M,30.20,M,7.00,M,CLR,M,M,M,M,M,M,M,M,KDVN 011200Z AUTO 32003KT 7SM CLR A3020 RMK MADISHF
DVN,2017-04-01 12:05,-90.5948,41.6133,M,M,M,300.00,3.00,M,30.21,M,7.00,M,CLR,M,M,M,M,M,M,M,M,KDVN 011205Z AUTO 30003KT 7SM CLR A3021 RMK MADISHF
DVN,2017-04-01 12:10,-90.5948,41.6133,M,M,M,0.00,0.00,M,30.21,M,7.00,M,CLR,M,M,M,M,M,M,M,M,KDVN 011210Z AUTO 00000KT 7SM CLR A3021 RMK MADISHF
DVN,2017-04-01 12:15,-90.5948,41.6133,M,M,M,290.00,4.00,M,30.21,M,7.00,M,CLR,M,M,M,M,M,M,M,M,KDVN 011215Z AUTO 29004KT 7SM CLR A3021 RMK MADISHF
DVN,2017-04-01 12:20,-90.5948,41.6133,M,M,M,280.00,3.00,M,30.22,M,7.00,M,CLR,M,M,M,M,M,M,M,M,KDVN 011220Z AUTO 28003KT 7SM CLR A3022 RMK MADISHF
DVN,2017-04-01 12:25,-90.5948,41.6133,M,M,M,280.00,4.00,M,30.22,M,7.00,M,CLR,M,M,M,M,M,M,M,M,KDVN 011225Z AUTO 28004KT 7SM CLR A3022 RMK MADISHF
DVN,2017-04-01 12:30,-90.5948,41.6133,M,M,M,280.00,5.00,M,30.22,M,7.00,M,CLR,M,M,M,M,M,M,M,M,KDVN 011230Z AUTO 28005KT 7SM CLR A3022 RMK MADISHF
DVN,2017-04-01 12:35,-90.5948,41.6133,M,M,M,280.00,5.00,M,30.23,M,7.00,M,CLR,M,M,M,M,M,M,M,M,KDVN 011235Z AUTO 28005KT 7SM CLR A3023 RMK MADISHF
DVN,2017-04-01 12:40,-90.5948,41.6133,M,M,M,270.00,5.00,M,30.23,M,7.00,M,CLR,M,M,M,M,M,M,M,M,KDVN 011240Z AUTO 27005KT 7SM CLR A3023 RMK MADISHF
DVN,2017-04-01 12:45,-90.5948,41.6133,M,M,M,270.00,5.00,M,30.24,M,6.00,M,CLR,M,M,M,M,M,M,M,BR,KDVN 011245Z AUTO 27005KT 6SM BR CLR A3024 RMK MADISHF
DVN,2017-04-01 12:50,-90.5948,41.6133,M,M,M,270.00,5.00,M,30.24,M,6.00,M,CLR,M,M,M,M,M,M,M,BR,KDVN 011250Z AUTO 27005KT 6SM BR CLR A3024 RMK MADISHF
DVN,2017-04-01 12:52,-90.5948,41.6133,34.00,32.00,92.29,270.00,5.00,0.00,30.24,1024.80,6.00,M,CLR,M,M,M,M,M,M,M,BR,KDVN 011252Z AUTO 27005KT 6SM BR CLR 01/00 A3024 RMK AO2 SLP248 T00110000
DVN,2017-04-01 12:55,-90.5948,41.6133,M,M,M,260.00,5.00,M,30.24,M,6.00,M,CLR,M,M,M,M,M,M,M,BR,KDVN 011255Z AUTO 26005KT 6SM BR CLR A3024 RMK MADISHF
DVN,2017-04-01 13:00,-90.5948,41.6133,M,M,M,260.00,4.00,M,30.25,M,6.00,M,CLR,M,M,M,M,M,M,M,BR,KDVN 011300Z AUTO 26004KT 6SM BR CLR A3025 RMK MADISHF
DVN,2017-04-01 13:05,-90.5948,41.6133,M,M,M,270.00,4.00,M,30.25,M,6.00,M,CLR,M,M,M,M,M,M,M,BR,KDVN 011305Z AUTO 27004KT 6SM BR CLR A3025 RMK MADISHF
DVN,2017-04-01 13:10,-90.5948,41.6133,M,M,M,280.00,4.00,M,30.24,M,7.00,M,CLR,M,M,M,M,M,M,M,M,KDVN 011310Z AUTO 28004KT 7SM CLR A3024 RMK MADISHF
DVN,2017-04-01 13:15,-90.5948,41.6133,M,M,M,290.00,3.00,M,30.25,M,7.00,M,CLR,M,M,M,M,M,M,M,M,KDVN 011315Z AUTO 29003KT 7SM CLR A3025 RMK MADISHF
DVN,2017-04-01 13:20,-90.5948,41.6133,M,M,M,300.00,3.00,M,30.25,M,7.00,M,CLR,M,M,M,M,M,M,M,M,KDVN 011320Z AUTO 30003KT 7SM CLR A3025 RMK MADISHF
DVN,2017-04-01 13:25,-90.5948,41.6133,M,M,M,310.00,4.00,M,30.25,M,8.00,M,CLR,M,M,M,M,M,M,M,M,KDVN 011325Z AUTO 31004KT 8SM CLR A3025 RMK MADISHF
DVN,2017-04-01 13:30,-90.5948,41.6133,M,M,M,300.00,4.00,M,30.25,M,9.00,M,CLR,M,M,M,M,M,M,M,M,KDVN 011330Z AUTO 30004KT 9SM CLR A3025 RMK MADISHF
DVN,2017-04-01 13:35,-90.5948,41.6133,M,M,M,290.00,5.00,M,30.25,M,10.00,M,CLR,M,M,M,M,M,M,M,M,KDVN 011335Z AUTO 29005KT 10SM CLR A3025 RMK MADISHF
DVN,2017-04-01 13:40,-90.5948,41.6133,M,M,M,290.00,5.00,M,30.26,M,10.00,M,CLR,M,M,M,M,M,M,M,M,KDVN 011340Z AUTO 29005KT 10SM CLR A3026 RMK MADISHF
DVN,2017-04-01 13:45,-90.5948,41.6133,M,M,M,300.00,6.00,M,30.26,M,10.00,M,CLR,M,M,M,M,M,M,M,M,KDVN 011345Z AUTO 30006KT 10SM CLR A3026 RMK MADISHF
DVN,2017-04-01 13:50,-90.5948,41.6133,M,M,M,300.00,5.00,M,30.25,M,10.00,M,CLR,M,M,M,M,M,M,M,M,KDVN 011350Z AUTO 30005KT 10SM CLR A3025 RMK MADISHF
DVN,2017-04-01 13:52,-90.5948,41.6133,39.00,36.00,88.87,310.00,5.00,0.00,30.25,1024.90,10.00,M,CLR,M,M,M,M,M,M,M,M,KDVN 011352Z AUTO 31005KT 10SM CLR 04/02 A3025 RMK AO2 SLP249 T00390022
DVN,2017-04-01 13:55,-90.5948,41.6133,M,M,M,310.00,5.00,M,30.25,M,10.00,M,CLR,M,M,M,M,M,M,M,M,KDVN 011355Z AUTO 31005KT 10SM CLR A3025 RMK MADISHF
DVN,2017-04-01 14:00,-90.5948,41.6133,M,M,M,310.00,5.00,M,30.25,M,10.00,M,CLR,M,M,M,M,M,M,M,M,KDVN 011400Z AUTO 31005KT 10SM CLR A3025 RMK MADISHF
DVN,2017-04-01 14:05,-90.5948,41.6133,M,M,M,320.00,4.00,M,30.25,M,10.00,M,CLR,M,M,M,M,M,M,M,M,KDVN 011405Z AUTO 32004KT 10SM CLR A3025 RMK MADISHF
DVN,2017-04-01 14:10,-90.5948,41.6133,M,M,M,310.00,4.00,M,30.25,M,10.00,M,CLR,M,M,M,M,M,M,M,M,KDVN 011410Z AUTO 31004KT 10SM CLR A3025 RMK MADISHF
DVN,2017-04-01 14:15,-90.5948,41.6133,M,M,M,320.00,5.00,M,30.24,M,10.00,M,CLR,M,M,M,M,M,M,M,M,KDVN 011415Z AUTO 32005KT 10SM CLR A3024 RMK MADISHF
DVN,2017-04-01 14:20,-90.5948,41.6133,M,M,M,330.00,5.00,M,30.24,M,10.00,M,CLR,M,M,M,M,M,M,M,M,KDVN 011420Z AUTO 33005KT 10SM CLR A3024 RMK MADISHF
DVN,2017-04-01 14:25,-90.5948,41.6133,M,M,M,320.00,6.00,M,30.24,M,10.00,M,CLR,M,M,M,M,M,M,M,M,KDVN 011425Z AUTO 32006KT 10SM CLR A3024 RMK MADISHF
DVN,2017-04-01 14:30,-90.5948,41.6133,M,M,M,320.00,6.00,M,30.24,M,10.00,M,CLR,M,M,M,M,M,M,M,M,KDVN 011430Z AUTO 32006KT 10SM CLR A3024 RMK MADISHF
DVN,2017-04-01 14:35,-90.5948,41.6133,M,M,M,330.00,5.00,M,30.24,M,10.00,M,CLR,M,M,M,M,M,M,M,M,KDVN 011435Z AUTO 33005KT 10SM CLR A3024 RMK MADISHF
DVN,2017-04-01 14:40,-90.5948,41.6133,M,M,M,330.00,5.00,M,30.24,M,10.00,M,CLR,M,M,M,M,M,M,M,M,KDVN 011440Z AUTO 33005KT 10SM CLR A3024 RMK MADISHF
DVN,2017-04-01 14:45,-90.5948,41.6133,M,M,M,340.00,4.00,M,30.24,M,10.00,M,CLR,M,M,M,M,M,M,M,M,KDVN 011445Z AUTO 34004KT 10SM CLR A3024 RMK MADISHF
DVN,2017-04-01 14:50,-90.5948,41.6133,M,M,M,320.00,6.00,M,30.24,M,10.00,M,CLR,M,M,M,M,M,M,M,M,KDVN 011450Z AUTO 32006KT 10SM CLR A3024 RMK MADISHF
DVN,2017-04-01 14:52,-90.5948,41.6133,46.00,37.90,73.18,320.00,6.00,0.00,30.24,1024.50,10.00,M,CLR,M,M,M,M,M,M,M,M,KDVN 011452Z AUTO 32006KT 10SM CLR 08/03 A3024 RMK AO2 SLP245 T00780033 50014
DVN,2017-04-01 14:55,-90.5948,41.6133,M,M,M,320.00,6.00,M,30.24,M,10.00,M,CLR,M,M,M,M,M,M,M,M,KDVN 011455Z AUTO 32006KT 10SM CLR A3024 RMK MADISHF
DVN,2017-04-01 15:00,-90.5948,41.6133,M,M,M,330.00,6.00,M,30.24,M,10.00,M,CLR,M,M,M,M,M,M,M,M,KDVN 011500Z AUTO 33006KT 10SM CLR A3024 RMK MADISHF
DVN,2017-04-01 15:05,-90.5948,41.6133,M,M,M,310.00,6.00,M,30.24,M,10.00,M,CLR,M,M,M,M,M,M,M,M,KDVN 011505Z AUTO 31006KT 10SM CLR A3024 RMK MADISHF
DVN,2017-04-01 15:10,-90.5948,41.6133,M,M,M,310.00,6.00,M,30.25,M,10.00,M,CLR,M,M,M,M,M,M,M,M,KDVN 011510Z AUTO 31006KT 10SM CLR A3025 RMK MADISHF
DVN,2017-04-01 15:15,-90.5948,41.6133,M,M,M,320.00,6.00,M,30.25,M,10.00,M,CLR,M,M,M,M,M,M,M,M,KDVN 011515Z AUTO 32006KT 10SM CLR A3025 RMK MADISHF
DVN,2017-04-01 15:20,-90.5948,41.6133,M,M,M,320.00,6.00,M,30.25,M,10.00,M,CLR,M,M,M,M,M,M,M,M,KDVN 011520Z AUTO 32006KT 10SM CLR A3025 RMK MADISHF
DVN,2017-04-01 15:25,-90.5948,41.6133,M,M,M,300.00,6.00,M,30.25,M,10.00,M,CLR,M,M,M,M,M,M,M,M,KDVN 011525Z AUTO 30006KT 10SM CLR A3025 RMK MADISHF
DVN,2017-04-01 15:30,-90.5948,41.6133,M,M,M,310.00,5.00,M,30.25,M,10.00,M,CLR,M,M,M,M,M,M,M,M,KDVN 011530Z AUTO 31005KT 10SM CLR A3025 RMK MADISHF
DVN,2017-04-01 15:35,-90.5948,41.6133,M,M,M,300.00,6.00,M,30.25,M,10.00,M,CLR,M,M,M,M,M,M,M,M,KDVN 011535Z AUTO 30006KT 10SM CLR A3025 RMK MADISHF
DVN,2017-04-01 15:40,-90.5948,41.6133,M,M,M,290.00,5.00,M,30.25,M,10.00,M,CLR,M,M,M,M,M,M,M,M,KDVN 011540Z AUTO 29005KT 10SM CLR A3025 RMK MADISHF
DVN,2017-04-01 15:45,-90.5948,41.6133,M,M,M,300.00,7.00,M,30.25,M,10.00,M,CLR,M,M,M,M,M,M,M,M,KDVN 011545Z AUTO 30007KT 10SM CLR A3025 RMK MADISHF
DVN,2017-04-01 15:50,-90.5948,41.6133,M,M,M,290.00,6.00,M,30.25,M,10.00,M,CLR,M,M,M,M,M,M,M,M,KDVN 011550Z AUTO 29006KT 10SM CLR A3025 RMK MADISHF
DVN,2017-04-01 15:52,-90.5948,41.6133,50.00,39.90,68.10,300.00,4.00,0.00,30.25,1024.80,10.00,M,CLR,M,M,M,M,M,M,M,M,KDVN 011552Z AUTO 30004KT 10SM CLR 10/04 A3025 RMK AO2 SLP248 T01000044
DVN,2017-04-01 15:55,-90.5948,41.6133,M,M,M,280.00,5.00,M,30.25,M,10.00,M,CLR,M,M,M,M,M,M,M,M,KDVN 011555Z AUTO 28005KT 10SM CLR A3025 RMK MADISHF
DVN,2017-04-01 16:00,-90.5948,41.6133,M,M,M,270.00,5.00,M,30.25,M,10.00,M,CLR,M,M,M,M,M,M,M,M,KDVN 011600Z AUTO 27005KT 10SM CLR A3025 RMK MADISHF
DVN,2017-04-01 16:05,-90.5948,41.6133,M,M,M,290.00,5.00,M,30.25,M,10.00,M,CLR,M,M,M,M,M,M,M,M,KDVN 011605Z AUTO 29005KT 10SM CLR A3025 RMK MADISHF
DVN,2017-04-01 16:10,-90.5948,41.6133,M,M,M,320.00,5.00,M,30.25,M,10.00,M,CLR,M,M,M,M,M,M,M,M,KDVN 011610Z AUTO 32005KT 10SM CLR A3025 RMK MADISHF
DVN,2017-04-01 16:15,-90.5948,41.6133,M,M,M,300.00,5.00,M,30.25,M,10.00,M,CLR,M,M,M,M,M,M,M,M,KDVN 011615Z AUTO 30005KT 10SM CLR A3025 RMK MADISHF
DVN,2017-04-01 16:20,-90.5948,41.6133,M,M,M,300.00,6.00,M,30.25,M,10.00,M,CLR,M,M,M,M,M,M,M,M,KDVN 011620Z AUTO 30006KT 10SM CLR A3025 RMK VRB06KT  MADISHF
DVN,2017-04-01 16:25,-90.5948,41.6133,M,M,M,280.00,7.00,M,30.25,M,10.00,M,CLR,M,M,M,M,M,M,M,M,KDVN 011625Z AUTO 28007KT 10SM CLR A3025 RMK MADISHF
DVN,2017-04-01 16:30,-90.5948,41.6133,M,M,M,300.00,4.00,M,30.25,M,10.00,M,CLR,M,M,M,M,M,M,M,M,KDVN 011630Z AUTO 30004KT 10SM CLR A3025 RMK MADISHF
DVN,2017-04-01 16:35,-90.5948,41.6133,M,M,M,280.00,6.00,M,30.25,M,10.00,M,CLR,M,M,M,M,M,M,M,M,KDVN 011635Z AUTO 28006KT 10SM CLR A3025 RMK MADISHF
DVN,2017-04-01 16:40,-90.5948,41.6133,M,M,M,330.00,4.00,M,30.25,M,10.00,M,CLR,M,M,M,M,M,M,M,M,KDVN 011640Z AUTO 33004KT 10SM CLR A3025 RMK VRB04KT  MADISHF
DVN,2017-04-01 16:45,-90.5948,41.6133,M,M,M,310.00,4.00,M,30.25,M,10.00,M,CLR,M,M,M,M,M,M,M,M,KDVN 011645Z AUTO 31004KT 10SM CLR A3025 RMK MADISHF
DVN,2017-04-01 16:50,-90.5948,41.6133,M,M,M,300.00,6.00,M,30.25,M,10.00,M,CLR,M,M,M,M,M,M,M,M,KDVN 011650Z AUTO 30006KT 10SM CLR A3025 RMK MADISHF
DVN,2017-04-01 16:52,-90.5948,41.6133,53.10,39.90,60.73,310.00,6.00,0.00,30.24,1024.60,10.00,M,CLR,M,M,M,M,M,M,M,M,KDVN 011652Z AUTO 31006KT 10SM CLR 12/04 A3024 RMK AO2 SLP246 T01170044
DVN,2017-04-01 16:55,-90.5948,41.6133,M,M,M,330.00,5.00,M,30.24,M,10.00,M,CLR,M,M,M,M,M,M,M,M,KDVN 011655Z AUTO 33005KT 10SM CLR A3024 RMK MADISHF
DVN,2017-04-01 17:00,-90.5948,41.6133,M,M,M,350.00,5.00,M,30.24,M,10.00,M,CLR,M,M,M,M,M,M,M,M,KDVN 011700Z AUTO 35005KT 10SM CLR A3024 RMK MADISHF
DVN,2017-04-01 17:05,-90.5948,41.6133,M,M,M,330.00,5.00,M,30.24,M,10.00,M,CLR,M,M,M,M,M,M,M,M,KDVN 011705Z AUTO 33005KT 10SM CLR A3024 RMK VRB05KT  MADISHF
DVN,2017-04-01 17:10,-90.5948,41.6133,M,M,M,310.00,6.00,M,30.24,M,10.00,M,CLR,M,M,M,M,M,M,M,M,KDVN 011710Z AUTO 31006KT 10SM CLR A3024 RMK MADISHF
DVN,2017-04-01 17:15,-90.5948,41.6133,M,M,M,280.00,5.00,M,30.24,M,10.00,M,CLR,M,M,M,M,M,M,M,M,KDVN 011715Z AUTO 28005KT 10SM CLR A3024 RMK MADISHF
DVN,2017-04-01 17:20,-90.5948,41.6133,M,M,M,280.00,5.00,M,30.24,M,10.00,M,CLR,M,M,M,M,M,M,M,M,KDVN 011720Z AUTO 28005KT 10SM CLR A3024 RMK MADISHF
DVN,2017-04-01 17:25,-90.5948,41.6133,M,M,M,290.00,4.00,M,30.24,M,10.00,M,CLR,M,M,M,M,M,M,M,M,KDVN 011725Z AUTO 29004KT 10SM CLR A3024 RMK MADISHF
DVN,2017-04-01 17:30,-90.5948,41.6133,M,M,M,330.00,3.00,M,30.24,M,10.00,M,CLR,M,M,M,M,M,M,M,M,KDVN 011730Z AUTO 33003KT 10SM CLR A3024 RMK VRB03KT  MADISHF
DVN,2017-04-01 17:35,-90.5948,41.6133,M,M,M,280.00,5.00,M,30.24,M,10.00,M,CLR,M,M,M,M,M,M,M,M,KDVN 011735Z AUTO 28005KT 10SM CLR A3024 RMK MADISHF
DVN,2017-04-01 17:40,-90.5948,41.6133,M,M,M,290.00,6.00,M,30.24,M,10.00,M,CLR,M,M,M,M,M,M,M,M,KDVN 011740Z AUTO 29006KT 10SM CLR A3024 RMK MADISHF
DVN,2017-04-01 17:45,-90.5948,41.6133,M,M,M,290.00,6.00,M,30.24,M,10.00,M,CLR,M,M,M,M,M,M,M,M,KDVN 011745Z AUTO 29006KT 10SM CLR A3024 RMK MADISHF
DVN,2017-04-01 17:50,-90.5948,41.6133,M,M,M,310.00,3.00,M,30.24,M,10.00,M,CLR,M,M,M,M,M,M,M,M,KDVN 011750Z AUTO 31003KT 10SM CLR A3024 RMK MADISHF
DVN,2017-04-01 17:52,-90.5948,41.6133,55.00,39.00,54.70,0.00,0.00,0.00,30.24,1024.30,10.00,M,CLR,M,M,M,M,M,M,M,M,KDVN 011752Z AUTO 00000KT 10SM CLR 13/04 A3024 RMK AO2 SLP243 T01280039 10128 21011 58001
DVN,2017-04-01 17:55,-90.5948,41.6133,M,M,M,0.00,0.00,M,30.24,M,10.00,M,CLR,M,M,M,M,M,M,M,M,KDVN 011755Z AUTO 00000KT 10SM CLR A3024 RMK MADISHF
DVN,2017-04-01 18:00,-90.5948,41.6133,M,M,M,340.00,3.00,M,30.23,M,10.00,M,CLR,M,M,M,M,M,M,M,M,KDVN 011800Z AUTO 34003KT 10SM CLR A3023 RMK VRB03KT  MADISHF
DVN,2017-04-01 18:05,-90.5948,41.6133,M,M,M,290.00,6.00,M,30.23,M,10.00,M,CLR,M,M,M,M,M,M,M,M,KDVN 011805Z AUTO 29006KT 10SM CLR A3023 RMK MADISHF
DVN,2017-04-01 18:10,-90.5948,41.6133,M,M,M,0.00,0.00,M,30.23,M,10.00,M,CLR,M,M,M,M,M,M,M,M,KDVN 011810Z AUTO 00000KT 10SM CLR A3023 RMK MADISHF
DVN,2017-04-01 18:15,-90.5948,41.6133,M,M,M,260.00,6.00,M,30.23,M,10.00,M,CLR,M,M,M,M,M,M,M,M,KDVN 011815Z AUTO 26006KT 10SM CLR A3023 RMK MADISHF
DVN,2017-04-01 18:20,-90.5948,41.6133,M,M,M,290.00,7.00,M,30.23,M,10.00,M,CLR,M,M,M,M,M,M,M,M,KDVN 011820Z AUTO 29007KT 10SM CLR A3023 RMK MADISHF
DVN,2017-04-01 18:25,-90.5948,41.6133,M,M,M,0.00,0.00,M,30.23,M,10.00,M,CLR,M,M,M,M,M,M,M,M,KDVN 011825Z AUTO 00000KT 10SM CLR A3023 RMK MADISHF
DVN,2017-04-01 18:30,-90.5948,41.6133,M,M,M,250.00,6.00,M,30.23,M,10.00,M,CLR,M,M,M,M,M,M,M,M,KDVN 011830Z AUTO 25006KT 10SM CLR A3023 RMK VRB06KT  MADISHF
DVN,2017-04-01 18:35,-90.5948,41.6133,M,M,M,220.00,6.00,M,30.23,M,10.00,M,FEW,M,M,M,3600.00,M,M,M,M,KDVN 011835Z AUTO 22006KT 10SM FEW036 A3023 RMK MADISHF
DVN,2017-04-01 18:40,-90.5948,41.6133,M,M,M,250.00,7.00,M,30.23,M,10.00,M,FEW,M,M,M,3600.00,M,M,M,M,KDVN 011840Z AUTO 25007KT 10SM FEW036 A3023 RMK MADISHF
DVN,2017-04-01 18:45,-90.5948,41.6133,M,M,M,270.00,6.00,M,30.23,M,10.00,M,FEW,M,M,M,3600.00,M,M,M,M,KDVN 011845Z AUTO 27006KT 10SM FEW036 A3023 RMK MADISHF
DVN,2017-04-01 18:50,-90.5948,41.6133,M,M,M,280.00,3.00,M,30.22,M,10.00,M,FEW,M,M,M,3600.00,M,M,M,M,KDVN 011850Z AUTO 28003KT 10SM FEW036 A3022 RMK VRB03KT  MADISHF
DVN,2017-04-01 18:52,-90.5948,41.6133,54.00,37.90,54.34,0.00,0.00,0.00,30.22,1023.90,10.00,M,FEW,M,M,M,3600.00,M,M,M,M,KDVN 011852Z AUTO 00000KT 10SM FEW036 12/03 A3022 RMK AO2 SLP239 T01220033
DVN,2017-04-01 18:55,-90.5948,41.6133,M,M,M,260.00,3.00,M,30.22,M,10.00,M,FEW,M,M,M,3600.00,M,M,M,M,KDVN 011855Z AUTO 26003KT 10SM FEW036 A3022 RMK MADISHF
DVN,2017-04-01 19:00,-90.5948,41.6133,M,M,M,290.00,4.00,M,30.22,M,10.00,M,FEW,M,M,M,3600.00,M,M,M,M,KDVN 011900Z AUTO 29004KT 10SM FEW036 A3022 RMK MADISHF
DVN,2017-04-01 19:05,-90.5948,41.6133,M,M,M,0.00,0.00,M,30.22,M,10.00,M,CLR,M,M,M,M,M,M,M,M,KDVN 011905Z AUTO 00000KT 10SM CLR A3022 RMK MADISHF
DVN,2017-04-01 19:10,-90.5948,41.6133,M,M,M,220.00,4.00,M,30.22,M,10.00,M,CLR,M,M,M,M,M,M,M,M,KDVN 011910Z AUTO 22004KT 10SM CLR A3022 RMK MADISHF
DVN,2017-04-01 19:15,-90.5948,41.6133,M,M,M,260.00,4.00,M,30.22,M,10.00,M,CLR,M,M,M,M,M,M,M,M,KDVN 011915Z AUTO 26004KT 10SM CLR A3022 RMK MADISHF
DVN,2017-04-01 19:20,-90.5948,41.6133,M,M,M,280.00,5.00,M,30.22,M,10.00,M,CLR,M,M,M,M,M,M,M,M,KDVN 011920Z AUTO 28005KT 10SM CLR A3022 RMK MADISHF
DVN,2017-04-01 19:25,-90.5948,41.6133,M,M,M,290.00,3.00,M,30.22,M,10.00,M,CLR,M,M,M,M,M,M,M,M,KDVN 011925Z AUTO 29003KT 10SM CLR A3022 RMK VRB03KT  MADISHF
DVN,2017-04-01 19:30,-90.5948,41.6133,M,M,M,0.00,0.00,M,30.21,M,10.00,M,CLR,M,M,M,M,M,M,M,M,KDVN 011930Z AUTO 00000KT 10SM CLR A3021 RMK MADISHF
DVN,2017-04-01 19:35,-90.5948,41.6133,M,M,M,0.00,0.00,M,30.21,M,10.00,M,CLR,M,M,M,M,M,M,M,M,KDVN 011935Z AUTO 00000KT 10SM CLR A3021 RMK MADISHF
DVN,2017-04-01 19:40,-90.5948,41.6133,M,M,M,330.00,5.00,M,30.21,M,10.00,M,CLR,M,M,M,M,M,M,M,M,KDVN 011940Z AUTO 33005KT 10SM CLR A3021 RMK MADISHF
DVN,2017-04-01 19:45,-90.5948,41.6133,M,M,M,310.00,4.00,M,30.21,M,10.00,M,CLR,M,M,M,M,M,M,M,M,KDVN 011945Z AUTO 31004KT 10SM CLR A3021 RMK VRB04KT  MADISHF
DVN,2017-04-01 19:50,-90.5948,41.6133,M,M,M,260.00,4.00,M,30.21,M,10.00,M,CLR,M,M,M,M,M,M,M,M,KDVN 011950Z AUTO 26004KT 10SM CLR A3021 RMK MADISHF
DVN,2017-04-01 19:52,-90.5948,41.6133,55.90,37.00,48.95,250.00,3.00,0.00,30.21,1023.30,10.00,M,CLR,M,M,M,M,M,M,M,M,KDVN 011952Z AUTO 25003KT 10SM CLR 13/03 A3021 RMK AO2 SLP233 T01330028
DVN,2017-04-01 19:55,-90.5948,41.6133,M,M,M,0.00,0.00,M,30.20,M,10.00,M,CLR,M,M,M,M,M,M,M,M,KDVN 011955Z AUTO 00000KT 10SM CLR A3020 RMK MADISHF
DVN,2017-04-01 20:00,-90.5948,41.6133,M,M,M,330.00,3.00,M,30.20,M,10.00,M,CLR,M,M,M,M,M,M,M,M,KDVN 012000Z AUTO 33003KT 10SM CLR A3020 RMK MADISHF
DVN,2017-04-01 20:05,-90.5948,41.6133,M,M,M,0.00,0.00,M,30.20,M,10.00,M,CLR,M,M,M,M,M,M,M,M,KDVN 012005Z AUTO 00000KT 10SM CLR A3020 RMK MADISHF
DVN,2017-04-01 20:10,-90.5948,41.6133,M,M,M,0.00,0.00,M,30.20,M,10.00,M,CLR,M,M,M,M,M,M,M,M,KDVN 012010Z AUTO 00000KT 10SM CLR A3020 RMK MADISHF
DVN,2017-04-01 20:15,-90.5948,41.6133,M,M,M,0.00,0.00,M,30.20,M,10.00,M,CLR,M,M,M,M,M,M,M,M,KDVN 012015Z AUTO 00000KT 10SM CLR A3020 RMK MADISHF
DVN,2017-04-01 20:20,-90.5948,41.6133,M,M,M,340.00,3.00,M,30.19,M,10.00,M,CLR,M,M,M,M,M,M,M,M,KDVN 012020Z AUTO 34003KT 10SM CLR A3019 RMK VRB03KT  MADISHF
DVN,2017-04-01 20:25,-90.5948,41.6133,M,M,M,60.00,3.00,M,30.19,M,10.00,M,CLR,M,M,M,M,M,M,M,M,KDVN 012025Z AUTO 06003KT 10SM CLR A3019 RMK VRB03KT  MADISHF
DVN,2017-04-01 20:30,-90.5948,41.6133,M,M,M,0.00,0.00,M,30.19,M,10.00,M,CLR,M,M,M,M,M,M,M,M,KDVN 012030Z AUTO 00000KT 10SM CLR A3019 RMK MADISHF
DVN,2017-04-01 20:35,-90.5948,41.6133,M,M,M,210.00,3.00,M,30.19,M,10.00,M,CLR,M,M,M,M,M,M,M,M,KDVN 012035Z AUTO 21003KT 10SM CLR A3019 RMK VRB03KT  MADISHF
DVN,2017-04-01 20:40,-90.5948,41.6133,M,M,M,160.00,3.00,M,30.19,M,10.00,M,CLR,M,M,M,M,M,M,M,M,KDVN 012040Z AUTO 16003KT 10SM CLR A3019 RMK MADISHF
DVN,2017-04-01 20:45,-90.5948,41.6133,M,M,M,0.00,0.00,M,30.19,M,10.00,M,CLR,M,M,M,M,M,M,M,M,KDVN 012045Z AUTO 00000KT 10SM CLR A3019 RMK MADISHF
DVN,2017-04-01 20:50,-90.5948,41.6133,M,M,M,180.00,3.00,M,30.19,M,10.00,M,CLR,M,M,M,M,M,M,M,M,KDVN 012050Z AUTO 18003KT 10SM CLR A3019 RMK VRB03KT  MADISHF
DVN,2017-04-01 20:52,-90.5948,41.6133,57.00,36.00,45.22,200.00,4.00,0.00,30.19,1022.50,10.00,M,CLR,M,M,M,M,M,M,M,M,KDVN 012052Z AUTO 20004KT 10SM CLR 14/02 A3019 RMK AO2 SLP225 T01390022 58016
DVN,2017-04-01 20:55,-90.5948,41.6133,M,M,M,0.00,0.00,M,30.19,M,10.00,M,CLR,M,M,M,M,M,M,M,M,KDVN 012055Z AUTO 00000KT 10SM CLR A3019 RMK MADISHF
DVN,2017-04-01 21:00,-90.5948,41.6133,M,M,M,180.00,3.00,M,30.19,M,10.00,M,CLR,M,M,M,M,M,M,M,M,KDVN 012100Z AUTO 18003KT 10SM CLR A3019 RMK MADISHF
DVN,2017-04-01 21:05,-90.5948,41.6133,M,M,M,190.00,4.00,M,30.19,M,10.00,M,CLR,M,M,M,M,M,M,M,M,KDVN 012105Z AUTO 19004KT 10SM CLR A3019 RMK MADISHF
DVN,2017-04-01 21:10,-90.5948,41.6133,M,M,M,0.00,0.00,M,30.19,M,10.00,M,CLR,M,M,M,M,M,M,M,M,KDVN 012110Z AUTO 00000KT 10SM CLR A3019 RMK MADISHF
DVN,2017-04-01 21:15,-90.5948,41.6133,M,M,M,0.00,0.00,M,30.20,M,10.00,M,CLR,M,M,M,M,M,M,M,M,KDVN 012115Z AUTO 00000KT 10SM CLR A3020 RMK MADISHF
DVN,2017-04-01 21:20,-90.5948,41.6133,M,M,M,80.00,3.00,M,30.19,M,10.00,M,CLR,M,M,M,M,M,M,M,M,KDVN 012120Z AUTO 08003KT 10SM CLR A3019 RMK MADISHF
DVN,2017-04-01 21:25,-90.5948,41.6133,M,M,M,0.00,0.00,M,30.19,M,10.00,M,CLR,M,M,M,M,M,M,M,M,KDVN 012125Z AUTO 00000KT 10SM CLR A3019 RMK MADISHF
DVN,2017-04-01 21:30,-90.5948,41.6133,M,M,M,0.00,0.00,M,30.18,M,10.00,M,CLR,M,M,M,M,M,M,M,M,KDVN 012130Z AUTO 00000KT 10SM CLR A3018 RMK MADISHF
DVN,2017-04-01 21:35,-90.5948,41.6133,M,M,M,0.00,0.00,M,30.19,M,10.00,M,CLR,M,M,M,M,M,M,M,M,KDVN 012135Z AUTO 00000KT 10SM CLR A3019 RMK MADISHF
DVN,2017-04-01 21:40,-90.5948,41.6133,M,M,M,230.00,3.00,M,30.19,M,10.00,M,CLR,M,M,M,M,M,M,M,M,KDVN 012140Z AUTO 23003KT 10SM CLR A3019 RMK VRB03KT  MADISHF
DVN,2017-04-01 21:45,-90.5948,41.6133,M,M,M,250.00,3.00,M,30.19,M,10.00,M,CLR,M,M,M,M,M,M,M,M,KDVN 012145Z AUTO 25003KT 10SM CLR A3019 RMK MADISHF
DVN,2017-04-01 21:50,-90.5948,41.6133,M,M,M,0.00,0.00,M,30.19,M,10.00,M,CLR,M,M,M,M,M,M,M,M,KDVN 012150Z AUTO 00000KT 10SM CLR A3019 RMK MADISHF
DVN,2017-04-01 21:52,-90.5948,41.6133,57.90,32.00,37.31,0.00,0.00,0.00,30.19,1022.60,10.00,M,CLR,M,M,M,M,M,M,M,M,KDVN 012152Z AUTO 00000KT 10SM CLR 14/00 A3019 RMK AO2 SLP226 T01440000
DVN,2017-04-01 21:55,-90.5948,41.6133,M,M,M,0.00,0.00,M,30.19,M,10.00,M,CLR,M,M,M,M,M,M,M,M,KDVN 012155Z AUTO 00000KT 10SM CLR A3019 RMK MADISHF
DVN,2017-04-01 22:00,-90.5948,41.6133,M,M,M,0.00,0.00,M,30.19,M,10.00,M,CLR,M,M,M,M,M,M,M,M,KDVN 012200Z AUTO 00000KT 10SM CLR A3019 RMK MADISHF
DVN,2017-04-01 22:05,-90.5948,41.6133,M,M,M,0.00,0.00,M,30.18,M,10.00,M,CLR,M,M,M,M,M,M,M,M,KDVN 012205Z AUTO 00000KT 10SM CLR A3018 RMK MADISHF
DVN,2017-04-01 22:10,-90.5948,41.6133,M,M,M,0.00,0.00,M,30.18,M,10.00,M,CLR,M,M,M,M,M,M,M,M,KDVN 012210Z AUTO 00000KT 10SM CLR A3018 RMK MADISHF
DVN,2017-04-01 22:15,-90.5948,41.6133,M,M,M,0.00,0.00,M,30.19,M,10.00,M,CLR,M,M,M,M,M,M,M,M,KDVN 012215Z AUTO 00000KT 10SM CLR A3019 RMK MADISHF
DVN,2017-04-01 22:20,-90.5948,41.6133,M,M,M,0.00,0.00,M,30.19,M,10.00,M,CLR,M,M,M,M,M,M,M,M,KDVN 012220Z AUTO 00000KT 10SM CLR A3019 RMK MADISHF
DVN,2017-04-01 22:25,-90.5948,41.6133,M,M,M,0.00,0.00,M,30.19,M,10.00,M,CLR,M,M,M,M,M,M,M,M,KDVN 012225Z AUTO 00000KT 10SM CLR A3019 RMK MADISHF
DVN,2017-04-01 22:30,-90.5948,41.6133,M,M,M,0.00,0.00,M,30.19,M,10.00,M,CLR,M,M,M,M,M,M,M,M,KDVN 012230Z AUTO 00000KT 10SM CLR A3019 RMK MADISHF
DVN,2017-04-01 22:35,-90.5948,41.6133,M,M,M,0.00,0.00,M,30.19,M,10.00,M,CLR,M,M,M,M,M,M,M,M,KDVN 012235Z AUTO 00000KT 10SM CLR A3019 RMK MADISHF
DVN,2017-04-01 22:40,-90.5948,41.6133,M,M,M,0.00,0.00,M,30.18,M,10.00,M,CLR,M,M,M,M,M,M,M,M,KDVN 012240Z AUTO 00000KT 10SM CLR A3018 RMK MADISHF
DVN,2017-04-01 22:45,-90.5948,41.6133,M,M,M,0.00,0.00,M,30.18,M,10.00,M,CLR,M,M,M,M,M,M,M,M,KDVN 012245Z AUTO 00000KT 10SM CLR A3018 RMK MADISHF
DVN,2017-04-01 22:50,-90.5948,41.6133,M,M,M,0.00,0.00,M,30.18,M,10.00,M,CLR,M,M,M,M,M,M,M,M,KDVN 012250Z AUTO 00000KT 10SM CLR A3018 RMK MADISHF
DVN,2017-04-01 22:52,-90.5948,41.6133,55.90,36.00,47.05,0.00,0.00,0.00,30.18,1022.30,10.00,M,FEW,M,M,M,12000.00,M,M,M,M,KDVN 012252Z AUTO 00000KT 10SM FEW120 13/02 A3018 RMK AO2 SLP223 T01330022
DVN,2017-04-01 22:55,-90.5948,41.6133,M,M,M,0.00,0.00,M,30.18,M,10.00,M,FEW,M,M,M,12000.00,M,M,M,M,KDVN 012255Z AUTO 00000KT 10SM FEW120 A3018 RMK MADISHF
DVN,2017-04-01 23:00,-90.5948,41.6133,M,M,M,0.00,0.00,M,30.18,M,10.00,M,FEW,M,M,M,12000.00,M,M,M,M,KDVN 012300Z AUTO 00000KT 10SM FEW120 A3018 RMK MADISHF
DVN,2017-04-01 23:05,-90.5948,41.6133,M,M,M,0.00,0.00,M,30.17,M,10.00,M,SCT,M,M,M,12000.00,M,M,M,M,KDVN 012305Z AUTO 00000KT 10SM SCT120 A3017 RMK MADISHF
DVN,2017-04-01 23:10,-90.5948,41.6133,M,M,M,0.00,0.00,M,30.17,M,10.00,M,BKN,M,M,M,12000.00,M,M,M,M,KDVN 012310Z AUTO 00000KT 10SM BKN120 A3017 RMK MADISHF
DVN,2017-04-01 23:15,-90.5948,41.6133,M,M,M,0.00,0.00,M,30.18,M,10.00,M,BKN,M,M,M,12000.00,M,M,M,M,KDVN 012315Z AUTO 00000KT 10SM BKN120 A3018 RMK MADISHF
DVN,2017-04-01 23:20,-90.5948,41.6133,M,M,M,0.00,0.00,M,30.18,M,10.00,M,BKN,M,M,M,12000.00,M,M,M,M,KDVN 012320Z AUTO 00000KT 10SM BKN120 A3018 RMK MADISHF
DVN,2017-04-01 23:25,-90.5948,41.6133,M,M,M,0.00,0.00,M,30.18,M,10.00,M,BKN,M,M,M,12000.00,M,M,M,M,KDVN 012325Z AUTO 00000KT 10SM BKN120 A3018 RMK MADISHF
DVN,2017-04-01 23:30,-90.5948,41.6133,M,M,M,280.00,4.00,M,30.19,M,10.00,M,BKN,M,M,M,11000.00,M,M,M,M,KDVN 012330Z AUTO 28004KT 10SM BKN110 A3019 RMK MADISHF
DVN,2017-04-01 23:35,-90.5948,41.6133,M,M,M,280.00,3.00,M,30.19,M,10.00,M,BKN,M,M,M,11000.00,M,M,M,M,KDVN 012335Z AUTO 28003KT 10SM BKN110 A3019 RMK MADISHF
DVN,2017-04-01 23:40,-90.5948,41.6133,M,M,M,0.00,0.00,M,30.18,M,10.00,M,OVC,M,M,M,11000.00,M,M,M,M,KDVN 012340Z AUTO 00000KT 10SM OVC110 A3018 RMK MADISHF
DVN,2017-04-01 23:45,-90.5948,41.6133,M,M,M,0.00,0.00,M,30.19,M,10.00,M,OVC,M,M,M,11000.00,M,M,M,M,KDVN 012345Z AUTO 00000KT 10SM OVC110 A3019 RMK MADISHF
DVN,2017-04-01 23:50,-90.5948,41.6133,M,M,M,0.00,0.00,M,30.19,M,10.00,M,OVC,M,M,M,11000.00,M,M,M,M,KDVN 012350Z AUTO 00000KT 10SM OVC110 A3019 RMK MADISHF
DVN,2017-04-01 23:52,-90.5948,41.6133,55.00,39.90,56.66,0.00,0.00,0.00,30.19,1022.70,10.00,M,OVC,M,M,M,11000.00,M,M,M,M,KDVN 012352Z AUTO 00000KT 10SM OVC110 13/04 A3019 RMK AO2 SLP227 T01280044 10144 20122 55000
DVN,2017-04-01 23:55,-90.5948,41.6133,M,M,M,0.00,0.00,M,30.19,M,10.00,M,OVC,M,M,M,11000.00,M,M,M,M,KDVN 012355Z AUTO 00000KT 10SM OVC110 A3019 RMK MADISHF
