#DEBUG: Format Typ    -> comma
#DEBUG: Time Period   -> 2017-04-01 00:00:00+00:00 2017-04-02 00:00:00+00:00
#DEBUG: Time Zone     -> Etc/UTC
#DEBUG: Data Contact   -> daryl herzmann akrherz@iastate.edu 515-294-5978
#DEBUG: Entries Found -> -1
station,valid,lon,lat,tmpf, dwpf, relh, drct, sknt, p01i, alti, mslp, vsby, gust, skyc1, skyc2, skyc3, skyc4, skyl1, skyl2, skyl3, skyl4, presentwx, metar
DVT,2017-04-01 00:00,-112.0826,33.6883,M,M,M,280.00,6.00,M,29.74,M,10.00,M,SCT,BKN,OVC,M,7000.00,7999.00,9500.00,M,M,KDVT 010000Z AUTO 28006KT 10SM SCT070 BKN079 OVC095 A2974 RMK MADISHF
DVT,2017-04-01 00:05,-112.0826,33.6883,M,M,M,260.00,4.00,M,29.74,M,10.00,M,SCT,OVC,M,M,7000.00,9000.00,M,M,M,KDVT 010005Z AUTO 26004KT 10SM SCT070 OVC090 A2974 RMK VRB04KT  MADISHF
DVT,2017-04-01 00:10,-112.0826,33.6883,M,M,M,0.00,0.00,M,29.74,M,10.00,M,BKN,OVC,M,M,7999.00,9500.00,M,M,M,KDVT 010010Z AUTO 00000KT 10SM BKN079 OVC095 A2974 RMK MADISHF
DVT,2017-04-01 00:15,-112.0826,33.6883,M,M,M,300.00,3.00,M,29.75,M,10.00,M,OVC,M,M,M,8500.00,M,M,M,M,KDVT 010015Z AUTO 30003KT 10SM OVC085 A2975 RMK MADISHF
DVT,2017-04-01 00:20,-112.0826,33.6883,M,M,M,0.00,0.00,M,29.75,M,10.00,M,FEW,OVC,M,M,7000.00,8500.00,M,M,M,KDVT 010020Z AUTO 00000KT 10SM FEW070 OVC085 A2975 RMK MADISHF
DVT,2017-04-01 00:25,-112.0826,33.6883,M,M,M,20.00,4.00,M,29.75,M,10.00,M,BKN,OVC,M,M,8500.00,10000.00,M,M,M,KDVT 010025Z AUTO 02004KT 10SM BKN085 OVC100 A2975 RMK VRB04KT  MADISHF
DVT,2017-04-01 00:30,-112.0826,33.6883,M,M,M,330.00,5.00,M,29.75,M,10.00,M,OVC,M,M,M,9000.00,M,M,M,M,KDVT 010030Z AUTO 33005KT 10SM OVC090 A2975 RMK MADISHF
DVT,2017-04-01 00:35,-112.0826,33.6883,M,M,M,340.00,3.00,M,29.75,M,10.00,M,OVC,M,M,M,9500.00,M,M,M,M,KDVT 010035Z AUTO 34003KT 10SM OVC095 A2975 RMK MADISHF
DVT,2017-04-01 00:40,-112.0826,33.6883,M,M,M,330.00,3.00,M,29.75,M,10.00,M,FEW,OVC,M,M,7999.00,10000.00,M,M,M,KDVT 010040Z AUTO 33003KT 10SM FEW079 OVC100 A2975 RMK MADISHF
DVT,2017-04-01 00:45,-112.0826,33.6883,M,M,M,280.00,5.00,M,29.75,M,10.00,M,FEW,BKN,M,M,7999.00,10000.00,M,M,M,KDVT 010045Z AUTO 28005KT 10SM FEW079 BKN100 A2975 RMK MADISHF
DVT,2017-04-01 00:50,-112.0826,33.6883,M,M,M,270.00,3.00,M,29.75,M,10.00,M,BKN,M,M,M,10000.00,M,M,M,M,KDVT 010050Z AUTO 27003KT 10SM BKN100 A2975 RMK VRB03KT  MADISHF
DVT,2017-04-01 00:53,-112.0826,33.6883,60.10,30.00,31.80,M,4.00,0.00,29.75,1006.40,10.00,M,BKN,M,M,M,10000.00,M,M,M,M,KDVT 010053Z AUTO VRB04KT 10SM BKN100 16/M01 A2975 RMK AO2 SLP064 T01561011
DVT,2017-04-01 00:55,-112.0826,33.6883,M,M,M,310.00,4.00,M,29.75,M,10.00,M,SCT,M,M,M,9500.00,M,M,M,M,KDVT 010055Z AUTO 31004KT 10SM SCT095 A2975 RMK MADISHF
DVT,2017-04-01 01:00,-112.0826,33.6883,M,M,M,310.00,7.00,M,29.76,M,10.00,M,SCT,M,M,M,9500.00,M,M,M,M,KDVT 010100Z AUTO 31007KT 10SM SCT095 A2976 RMK MADISHF
DVT,2017-04-01 01:05,-112.0826,33.6883,M,M,M,310.00,7.00,M,29.76,M,10.00,M,FEW,M,M,M,9500.00,M,M,M,M,KDVT 010105Z AUTO 31007KT 10SM FEW095 A2976 RMK MADISHF
DVT,2017-04-01 01:10,-112.0826,33.6883,M,M,M,320.00,6.00,M,29.76,M,10.00,M,CLR,M,M,M,M,M,M,M,M,KDVT 010110Z AUTO 32006KT 10SM CLR A2976 RMK MADISHF
DVT,2017-04-01 01:15,-112.0826,33.6883,M,M,M,330.00,8.00,M,29.76,M,10.00,M,CLR,M,M,M,M,M,M,M,M,KDVT 010115Z AUTO 33008KT 10SM CLR A2976 RMK MADISHF
DVT,2017-04-01 01:20,-112.0826,33.6883,M,M,M,330.00,7.00,M,29.76,M,10.00,M,CLR,M,M,M,M,M,M,M,M,KDVT 010120Z AUTO 33007KT 10SM CLR A2976 RMK MADISHF
DVT,2017-04-01 01:25,-112.0826,33.6883,M,M,M,320.00,8.00,M,29.77,M,10.00,M,CLR,M,M,M,M,M,M,M,M,KDVT 010125Z AUTO 32008KT 10SM CLR A2977 RMK MADISHF
DVT,2017-04-01 01:30,-112.0826,33.6883,M,M,M,320.00,9.00,M,29.77,M,10.00,M,CLR,M,M,M,M,M,M,M,M,KDVT 010130Z AUTO 32009KT 10SM CLR A2977 RMK MADISHF
DVT,2017-04-01 01:35,-112.0826,33.6883,M,M,M,330.00,6.00,M,29.77,M,10.00,M,CLR,M,M,M,M,M,M,M,M,KDVT 010135Z AUTO 33006KT 10SM CLR A2977 RMK MADISHF
DVT,2017-04-01 01:40,-112.0826,33.6883,M,M,M,330.00,7.00,M,29.77,M,10.00,M,FEW,M,M,M,11000.00,M,M,M,M,KDVT 010140Z AUTO 33007KT 10SM FEW110 A2977 RMK MADISHF
DVT,2017-04-01 01:45,-112.0826,33.6883,M,M,M,330.00,8.00,M,29.77,M,10.00,M,FEW,M,M,M,11000.00,M,M,M,M,KDVT 010145Z AUTO 33008KT 10SM FEW110 A2977 RMK MADISHF
DVT,2017-04-01 01:50,-112.0826,33.6883,M,M,M,330.00,7.00,M,29.77,M,10.00,M,FEW,M,M,M,11000.00,M,M,M,M,KDVT 010150Z AUTO 33007KT 10SM FEW110 A2977 RMK MADISHF
DVT,2017-04-01 01:53,-112.0826,33.6883,59.00,33.10,37.49,330.00,6.00,0.00,29.77,1007.20,10.00,M,FEW,M,M,M,11000.00,M,M,M,M,KDVT 010153Z AUTO 33006KT 10SM FEW110 15/01 A2977 RMK AO2 SLP072 T01500006
DVT,2017-04-01 01:55,-112.0826,33.6883,M,M,M,340.00,5.00,M,29.78,M,10.00,M,FEW,M,M,M,11000.00,M,M,M,M,KDVT 010155Z AUTO 34005KT 10SM FEW110 A2978 RMK MADISHF
DVT,2017-04-01 02:00,-112.0826,33.6883,M,M,M,340.00,5.00,M,29.78,M,10.00,M,FEW,M,M,M,11000.00,M,M,M,M,KDVT 010200Z AUTO 34005KT 10SM FEW110 A2978 RMK MADISHF
DVT,2017-04-01 02:05,-112.0826,33.6883,M,M,M,340.00,5.00,M,29.78,M,10.00,M,FEW,M,M,M,11000.00,M,M,M,M,KDVT 010205Z AUTO 34005KT 10SM FEW110 A2978 RMK MADISHF
DVT,2017-04-01 02:10,-112.0826,33.6883,M,M,M,340.00,4.00,M,29.78,M,10.00,M,CLR,M,M,M,M,M,M,M,M,KDVT 010210Z AUTO 34004KT 10SM CLR A2978 RMK MADISHF
DVT,2017-04-01 02:15,-112.0826,33.6883,M,M,M,350.00,5.00,M,29.78,M,10.00,M,CLR,M,M,M,M,M,M,M,M,KDVT 010215Z AUTO 35005KT 10SM CLR A2978 RMK MADISHF
DVT,2017-04-01 02:20,-112.0826,33.6883,M,M,M,350.00,4.00,M,29.79,M,10.00,M,FEW,M,M,M,11000.00,M,M,M,M,KDVT 010220Z AUTO 35004KT 10SM FEW110 A2979 RMK MADISHF
DVT,2017-04-01 02:25,-112.0826,33.6883,M,M,M,10.00,3.00,M,29.79,M,10.00,M,SCT,M,M,M,11000.00,M,M,M,M,KDVT 010225Z AUTO 01003KT 10SM SCT110 A2979 RMK MADISHF
DVT,2017-04-01 02:30,-112.0826,33.6883,M,M,M,360.00,4.00,M,29.79,M,10.00,M,SCT,M,M,M,11000.00,M,M,M,M,KDVT 010230Z AUTO 36004KT 10SM SCT110 A2979 RMK MADISHF
DVT,2017-04-01 02:35,-112.0826,33.6883,M,M,M,360.00,4.00,M,29.79,M,10.00,M,FEW,M,M,M,11000.00,M,M,M,M,KDVT 010235Z AUTO 36004KT 10SM FEW110 A2979 RMK MADISHF
DVT,2017-04-01 02:40,-112.0826,33.6883,M,M,M,10.00,4.00,M,29.79,M,10.00,M,FEW,M,M,M,11000.00,M,M,M,M,KDVT 010240Z AUTO 01004KT 10SM FEW110 A2979 RMK MADISHF
DVT,2017-04-01 02:45,-112.0826,33.6883,M,M,M,10.00,4.00,M,29.80,M,10.00,M,FEW,M,M,M,11000.00,M,M,M,M,KDVT 010245Z AUTO 01004KT 10SM FEW110 A2980 RMK MADISHF
DVT,2017-04-01 02:50,-112.0826,33.6883,M,M,M,20.00,4.00,M,29.80,M,10.00,M,FEW,M,M,M,11000.00,M,M,M,M,KDVT 010250Z AUTO 02004KT 10SM FEW110 A2980 RMK MADISHF
DVT,2017-04-01 02:53,-112.0826,33.6883,57.00,33.10,40.28,20.00,4.00,0.00,29.80,1008.00,10.00,M,CLR,M,M,M,M,M,M,M,M,KDVT 010253Z AUTO 02004KT 10SM CLR 14/01 A2980 RMK AO2 SLP080 T01390006 53017
DVT,2017-04-01 02:55,-112.0826,33.6883,M,M,M,20.00,4.00,M,29.80,M,10.00,M,CLR,M,M,M,M,M,M,M,M,KDVT 010255Z AUTO 02004KT 10SM CLR A2980 RMK MADISHF
DVT,2017-04-01 03:00,-112.0826,33.6883,M,M,M,20.00,4.00,M,29.80,M,10.00,M,CLR,M,M,M,M,M,M,M,M,KDVT 010300Z AUTO 02004KT 10SM CLR A2980 RMK MADISHF
DVT,2017-04-01 03:05,-112.0826,33.6883,M,M,M,30.00,3.00,M,29.80,M,10.00,M,CLR,M,M,M,M,M,M,M,M,KDVT 010305Z AUTO 03003KT 10SM CLR A2980 RMK MADISHF
DVT,2017-04-01 03:10,-112.0826,33.6883,M,M,M,30.00,3.00,M,29.80,M,10.00,M,FEW,M,M,M,7000.00,M,M,M,M,KDVT 010310Z AUTO 03003KT 10SM FEW070 A2980 RMK MADISHF
DVT,2017-04-01 03:15,-112.0826,33.6883,M,M,M,50.00,4.00,M,29.80,M,10.00,M,FEW,M,M,M,7000.00,M,M,M,M,KDVT 010315Z AUTO 05004KT 10SM FEW070 A2980 RMK MADISHF
DVT,2017-04-01 03:20,-112.0826,33.6883,M,M,M,50.00,3.00,M,29.80,M,10.00,M,FEW,M,M,M,7000.00,M,M,M,M,KDVT 010320Z AUTO 05003KT 10SM FEW070 A2980 RMK MADISHF
DVT,2017-04-01 03:25,-112.0826,33.6883,M,M,M,40.00,3.00,M,29.80,M,10.00,M,FEW,M,M,M,7000.00,M,M,M,M,KDVT 010325Z AUTO 04003KT 10SM FEW070 A2980 RMK MADISHF
DVT,2017-04-01 03:30,-112.0826,33.6883,M,M,M,40.00,3.00,M,29.80,M,10.00,M,FEW,M,M,M,7000.00,M,M,M,M,KDVT 010330Z AUTO 04003KT 10SM FEW070 A2980 RMK MADISHF
DVT,2017-04-01 03:35,-112.0826,33.6883,M,M,M,30.00,4.00,M,29.80,M,10.00,M,FEW,M,M,M,7000.00,M,M,M,M,KDVT 010335Z AUTO 03004KT 10SM FEW070 A2980 RMK MADISHF
DVT,2017-04-01 03:40,-112.0826,33.6883,M,M,M,40.00,4.00,M,29.80,M,10.00,M,CLR,M,M,M,M,M,M,M,M,KDVT 010340Z AUTO 04004KT 10SM CLR A2980 RMK MADISHF
DVT,2017-04-01 03:45,-112.0826,33.6883,M,M,M,30.00,3.00,M,29.80,M,10.00,M,CLR,M,M,M,M,M,M,M,M,KDVT 010345Z AUTO 03003KT 10SM CLR A2980 RMK MADISHF
DVT,2017-04-01 03:50,-112.0826,33.6883,M,M,M,20.00,4.00,M,29.80,M,10.00,M,CLR,M,M,M,M,M,M,M,M,KDVT 010350Z AUTO 02004KT 10SM CLR A2980 RMK MADISHF
DVT,2017-04-01 03:53,-112.0826,33.6883,55.00,34.00,44.90,30.00,4.00,0.00,29.80,1008.20,10.00,M,CLR,M,M,M,M,M,M,M,M,KDVT 010353Z AUTO 03004KT 10SM CLR 13/01 A2980 RMK AO2 SLP082 T01280011
DVT,2017-04-01 03:55,-112.0826,33.6883,M,M,M,40.00,3.00,M,29.80,M,10.00,M,CLR,M,M,M,M,M,M,M,M,KDVT 010355Z AUTO 04003KT 10SM CLR A2980 RMK MADISHF
DVT,2017-04-01 04:00,-112.0826,33.6883,M,M,M,20.00,3.00,M,29.81,M,10.00,M,CLR,M,M,M,M,M,M,M,M,KDVT 010400Z AUTO 02003KT 10SM CLR A2981 RMK MADISHF
DVT,2017-04-01 04:05,-112.0826,33.6883,M,M,M,20.00,4.00,M,29.81,M,10.00,M,CLR,M,M,M,M,M,M,M,M,KDVT 010405Z AUTO 02004KT 10SM CLR A2981 RMK MADISHF
DVT,2017-04-01 04:10,-112.0826,33.6883,M,M,M,30.00,3.00,M,29.81,M,10.00,M,CLR,M,M,M,M,M,M,M,M,KDVT 010410Z AUTO 03003KT 10SM CLR A2981 RMK MADISHF
DVT,2017-04-01 04:15,-112.0826,33.6883,M,M,M,20.00,3.00,M,29.81,M,10.00,M,CLR,M,M,M,M,M,M,M,M,KDVT 010415Z AUTO 02003KT 10SM CLR A2981 RMK MADISHF
DVT,2017-04-01 04:20,-112.0826,33.6883,M,M,M,350.00,3.00,M,29.81,M,10.00,M,CLR,M,M,M,M,M,M,M,M,KDVT 010420Z AUTO 35003KT 10SM CLR A2981 RMK MADISHF
DVT,2017-04-01 04:25,-112.0826,33.6883,M,M,M,330.00,3.00,M,29.81,M,10.00,M,CLR,M,M,M,M,M,M,M,M,KDVT 010425Z AUTO 33003KT 10SM CLR A2981 RMK MADISHF
DVT,2017-04-01 04:30,-112.0826,33.6883,M,M,M,340.00,4.00,M,29.81,M,10.00,M,CLR,M,M,M,M,M,M,M,M,KDVT 010430Z AUTO 34004KT 10SM CLR A2981 RMK MADISHF
DVT,2017-04-01 04:35,-112.0826,33.6883,M,M,M,350.00,4.00,M,29.81,M,10.00,M,CLR,M,M,M,M,M,M,M,M,KDVT 010435Z AUTO 35004KT 10SM CLR A2981 RMK MADISHF
DVT,2017-04-01 04:40,-112.0826,33.6883,M,M,M,340.00,3.00,M,29.80,M,10.00,M,CLR,M,M,M,M,M,M,M,M,KDVT 010440Z AUTO 34003KT 10SM CLR A2980 RMK MADISHF
DVT,2017-04-01 04:45,-112.0826,33.6883,M,M,M,0.00,0.00,M,29.80,M,10.00,M,CLR,M,M,M,M,M,M,M,M,KDVT 010445Z AUTO 00000KT 10SM CLR A2980 RMK MADISHF
DVT,2017-04-01 04:50,-112.0826,33.6883,M,M,M,350.00,3.00,M,29.81,M,10.00,M,CLR,M,M,M,M,M,M,M,M,KDVT 010450Z AUTO 35003KT 10SM CLR A2981 RMK MADISHF
DVT,2017-04-01 04:53,-112.0826,33.6883,53.10,34.00,48.13,360.00,3.00,0.00,29.81,1008.20,10.00,M,CLR,M,M,M,M,M,M,M,M,KDVT 010453Z AUTO 36003KT 10SM CLR 12/01 A2981 RMK AO2 SLP082 T01170011
DVT,2017-04-01 04:55,-112.0826,33.6883,M,M,M,350.00,3.00,M,29.81,M,10.00,M,CLR,M,M,M,M,M,M,M,M,KDVT 010455Z AUTO 35003KT 10SM CLR A2981 RMK MADISHF
DVT,2017-04-01 05:00,-112.0826,33.6883,M,M,M,350.00,4.00,M,29.81,M,10.00,M,CLR,M,M,M,M,M,M,M,M,KDVT 010500Z AUTO 35004KT 10SM CLR A2981 RMK MADISHF
DVT,2017-04-01 05:05,-112.0826,33.6883,M,M,M,340.00,5.00,M,29.81,M,10.00,M,CLR,M,M,M,M,M,M,M,M,KDVT 010505Z AUTO 34005KT 10SM CLR A2981 RMK MADISHF
DVT,2017-04-01 05:10,-112.0826,33.6883,M,M,M,350.00,5.00,M,29.81,M,10.00,M,CLR,M,M,M,M,M,M,M,M,KDVT 010510Z AUTO 35005KT 10SM CLR A2981 RMK MADISHF
DVT,2017-04-01 05:15,-112.0826,33.6883,M,M,M,340.00,5.00,M,29.81,M,10.00,M,CLR,M,M,M,M,M,M,M,M,KDVT 010515Z AUTO 34005KT 10SM CLR A2981 RMK MADISHF
DVT,2017-04-01 05:20,-112.0826,33.6883,M,M,M,350.00,5.00,M,29.81,M,10.00,M,CLR,M,M,M,M,M,M,M,M,KDVT 010520Z AUTO 35005KT 10SM CLR A2981 RMK MADISHF
DVT,2017-04-01 05:25,-112.0826,33.6883,M,M,M,350.00,4.00,M,29.81,M,10.00,M,CLR,M,M,M,M,M,M,M,M,KDVT 010525Z AUTO 35004KT 10SM CLR A2981 RMK MADISHF
DVT,2017-04-01 05:30,-112.0826,33.6883,M,M,M,350.00,5.00,M,29.81,M,10.00,M,CLR,M,M,M,M,M,M,M,M,KDVT 010530Z AUTO 35005KT 10SM CLR A2981 RMK MADISHF
DVT,2017-04-01 05:35,-112.0826,33.6883,M,M,M,350.00,6.00,M,29.82,M,10.00,M,CLR,M,M,M,M,M,M,M,M,KDVT 010535Z AUTO 35006KT 10SM CLR A2982 RMK MADISHF
DVT,2017-04-01 05:40,-112.0826,33.6883,M,M,M,350.00,6.00,M,29.82,M,10.00,M,CLR,M,M,M,M,M,M,M,M,KDVT 010540Z AUTO 35006KT 10SM CLR A2982 RMK MADISHF
DVT,2017-04-01 05:45,-112.0826,33.6883,M,M,M,350.00,6.00,M,29.82,M,10.00,M,CLR,M,M,M,M,M,M,M,M,KDVT 010545Z AUTO 35006KT 10SM CLR A2982 RMK MADISHF
DVT,2017-04-01 05:50,-112.0826,33.6883,M,M,M,330.00,6.00,M,29.82,M,10.00,M,CLR,M,M,M,M,M,M,M,M,KDVT 010550Z AUTO 33006KT 10SM CLR A2982 RMK MADISHF
DVT,2017-04-01 05:53,-112.0826,33.6883,53.10,36.00,52.11,350.00,6.00,0.00,29.82,1008.80,10.00,M,CLR,M,M,M,M,M,M,M,M,KDVT 010553Z AUTO 35006KT 10SM CLR 12/02 A2982 RMK AO2 SLP088 T01170022 10167 20117 53008
DVT,2017-04-01 05:55,-112.0826,33.6883,M,M,M,350.00,6.00,M,29.82,M,10.00,M,CLR,M,M,M,M,M,M,M,M,KDVT 010555Z AUTO 35006KT 10SM CLR A2982 RMK MADISHF
DVT,2017-04-01 06:00,-112.0826,33.6883,M,M,M,350.00,5.00,M,29.82,M,10.00,M,CLR,M,M,M,M,M,M,M,M,KDVT 010600Z AUTO 35005KT 10SM CLR A2982 RMK MADISHF
DVT,2017-04-01 06:05,-112.0826,33.6883,M,M,M,350.00,6.00,M,29.82,M,10.00,M,CLR,M,M,M,M,M,M,M,M,KDVT 010605Z AUTO 35006KT 10SM CLR A2982 RMK MADISHF
DVT,2017-04-01 06:10,-112.0826,33.6883,M,M,M,340.00,7.00,M,29.82,M,10.00,M,CLR,M,M,M,M,M,M,M,M,KDVT 010610Z AUTO 34007KT 10SM CLR A2982 RMK MADISHF
DVT,2017-04-01 06:15,-112.0826,33.6883,M,M,M,340.00,6.00,M,29.82,M,10.00,M,CLR,M,M,M,M,M,M,M,M,KDVT 010615Z AUTO 34006KT 10SM CLR A2982 RMK MADISHF
DVT,2017-04-01 06:20,-112.0826,33.6883,M,M,M,350.00,5.00,M,29.82,M,10.00,M,CLR,M,M,M,M,M,M,M,M,KDVT 010620Z AUTO 35005KT 10SM CLR A2982 RMK MADISHF
DVT,2017-04-01 06:25,-112.0826,33.6883,M,M,M,350.00,4.00,M,29.82,M,10.00,M,CLR,M,M,M,M,M,M,M,M,KDVT 010625Z AUTO 35004KT 10SM CLR A2982 RMK MADISHF
DVT,2017-04-01 06:30,-112.0826,33.6883,M,M,M,10.00,4.00,M,29.83,M,10.00,M,CLR,M,M,M,M,M,M,M,M,KDVT 010630Z AUTO 01004KT 10SM CLR A2983 RMK MADISHF
DVT,2017-04-01 06:35,-112.0826,33.6883,M,M,M,20.00,5.00,M,29.83,M,10.00,M,CLR,M,M,M,M,M,M,M,M,KDVT 010635Z AUTO 02005KT 10SM CLR A2983 RMK MADISHF
DVT,2017-04-01 06:40,-112.0826,33.6883,M,M,M,20.00,5.00,M,29.83,M,10.00,M,CLR,M,M,M,M,M,M,M,M,KDVT 010640Z AUTO 02005KT 10SM CLR A2983 RMK MADISHF
DVT,2017-04-01 06:45,-112.0826,33.6883,M,M,M,20.00,6.00,M,29.83,M,10.00,M,CLR,M,M,M,M,M,M,M,M,KDVT 010645Z AUTO 02006KT 10SM CLR A2983 RMK MADISHF
DVT,2017-04-01 06:50,-112.0826,33.6883,M,M,M,10.00,6.00,M,29.83,M,10.00,M,CLR,M,M,M,M,M,M,M,M,KDVT 010650Z AUTO 01006KT 10SM CLR A2983 RMK MADISHF
DVT,2017-04-01 06:53,-112.0826,33.6883,52.00,36.00,54.26,10.00,7.00,0.00,29.83,1008.90,10.00,M,CLR,M,M,M,M,M,M,M,M,KDVT 010653Z AUTO 01007KT 10SM CLR 11/02 A2983 RMK AO2 SLP089 T01110022 401780106
DVT,2017-04-01 06:55,-112.0826,33.6883,M,M,M,20.00,7.00,M,29.83,M,10.00,M,CLR,M,M,M,M,M,M,M,M,KDVT 010655Z AUTO 02007KT 10SM CLR A2983 RMK MADISHF
DVT,2017-04-01 07:00,-112.0826,33.6883,M,M,M,20.00,8.00,M,29.83,M,10.00,M,CLR,M,M,M,M,M,M,M,M,KDVT 010700Z AUTO 02008KT 10SM CLR A2983 RMK MADISHF
DVT,2017-04-01 07:05,-112.0826,33.6883,M,M,M,20.00,7.00,M,29.83,M,10.00,M,CLR,M,M,M,M,M,M,M,M,KDVT 010705Z AUTO 02007KT 10SM CLR A2983 RMK MADISHF
DVT,2017-04-01 07:10,-112.0826,33.6883,M,M,M,10.00,7.00,M,29.83,M,10.00,M,CLR,M,M,M,M,M,M,M,M,KDVT 010710Z AUTO 01007KT 10SM CLR A2983 RMK MADISHF
DVT,2017-04-01 07:15,-112.0826,33.6883,M,M,M,10.00,8.00,M,29.83,M,10.00,M,CLR,M,M,M,M,M,M,M,M,KDVT 010715Z AUTO 01008KT 10SM CLR A2983 RMK MADISHF
DVT,2017-04-01 07:20,-112.0826,33.6883,M,M,M,10.00,7.00,M,29.83,M,10.00,M,CLR,M,M,M,M,M,M,M,M,KDVT 010720Z AUTO 01007KT 10SM CLR A2983 RMK MADISHF
DVT,2017-04-01 07:25,-112.0826,33.6883,M,M,M,360.00,6.00,M,29.84,M,10.00,M,CLR,M,M,M,M,M,M,M,M,KDVT 010725Z AUTO 36006KT 10SM CLR A2984 RMK MADISHF
DVT,2017-04-01 07:30,-112.0826,33.6883,M,M,M,360.00,6.00,M,29.84,M,10.00,M,CLR,M,M,M,M,M,M,M,M,KDVT 010730Z AUTO 36006KT 10SM CLR A2984 RMK MADISHF
DVT,2017-04-01 07:35,-112.0826,33.6883,M,M,M,350.00,5.00,M,29.84,M,10.00,M,CLR,M,M,M,M,M,M,M,M,KDVT 010735Z AUTO 35005KT 10SM CLR A2984 RMK MADISHF
DVT,2017-04-01 07:40,-112.0826,33.6883,M,M,M,320.00,4.00,M,29.84,M,10.00,M,CLR,M,M,M,M,M,M,M,M,KDVT 010740Z AUTO 32004KT 10SM CLR A2984 RMK MADISHF
DVT,2017-04-01 07:45,-112.0826,33.6883,M,M,M,330.00,4.00,M,29.84,M,10.00,M,CLR,M,M,M,M,M,M,M,M,KDVT 010745Z AUTO 33004KT 10SM CLR A2984 RMK MADISHF
DVT,2017-04-01 07:50,-112.0826,33.6883,M,M,M,360.00,3.00,M,29.84,M,10.00,M,CLR,M,M,M,M,M,M,M,M,KDVT 010750Z AUTO 36003KT 10SM CLR A2984 RMK MADISHF
DVT,2017-04-01 07:53,-112.0826,33.6883,52.00,36.00,54.26,340.00,4.00,0.00,29.84,1009.40,10.00,M,CLR,M,M,M,M,M,M,M,M,KDVT 010753Z AUTO 34004KT 10SM CLR 11/02 A2984 RMK AO2 SLP094 T01110022
DVT,2017-04-01 07:55,-112.0826,33.6883,M,M,M,340.00,4.00,M,29.84,M,10.00,M,CLR,M,M,M,M,M,M,M,M,KDVT 010755Z AUTO 34004KT 10SM CLR A2984 RMK MADISHF
DVT,2017-04-01 08:00,-112.0826,33.6883,M,M,M,340.00,5.00,M,29.84,M,10.00,M,CLR,M,M,M,M,M,M,M,M,KDVT 010800Z AUTO 34005KT 10SM CLR A2984 RMK MADISHF
DVT,2017-04-01 08:05,-112.0826,33.6883,M,M,M,0.00,0.00,M,29.84,M,10.00,M,FEW,M,M,M,12000.00,M,M,M,M,KDVT 010805Z AUTO 00000KT 10SM FEW120 A2984 RMK MADISHF
DVT,2017-04-01 08:10,-112.0826,33.6883,M,M,M,60.00,3.00,M,29.84,M,10.00,M,FEW,M,M,M,12000.00,M,M,M,M,KDVT 010810Z AUTO 06003KT 10SM FEW120 A2984 RMK MADISHF
DVT,2017-04-01 08:15,-112.0826,33.6883,M,M,M,50.00,3.00,M,29.84,M,10.00,M,CLR,M,M,M,M,M,M,M,M,KDVT 010815Z AUTO 05003KT 10SM CLR A2984 RMK VRB03KT  MADISHF
DVT,2017-04-01 08:20,-112.0826,33.6883,M,M,M,50.00,4.00,M,29.84,M,10.00,M,CLR,M,M,M,M,M,M,M,M,KDVT 010820Z AUTO 05004KT 10SM CLR A2984 RMK MADISHF
DVT,2017-04-01 08:25,-112.0826,33.6883,M,M,M,60.00,4.00,M,29.84,M,10.00,M,CLR,M,M,M,M,M,M,M,M,KDVT 010825Z AUTO 06004KT 10SM CLR A2984 RMK MADISHF
DVT,2017-04-01 08:30,-112.0826,33.6883,M,M,M,40.00,4.00,M,29.84,M,10.00,M,CLR,M,M,M,M,M,M,M,M,KDVT 010830Z AUTO 04004KT 10SM CLR A2984 RMK MADISHF
DVT,2017-04-01 08:35,-112.0826,33.6883,M,M,M,30.00,4.00,M,29.84,M,10.00,M,CLR,M,M,M,M,M,M,M,M,KDVT 010835Z AUTO 03004KT 10SM CLR A2984 RMK MADISHF
DVT,2017-04-01 08:40,-112.0826,33.6883,M,M,M,30.00,3.00,M,29.84,M,10.00,M,CLR,M,M,M,M,M,M,M,M,KDVT 010840Z AUTO 03003KT 10SM CLR A2984 RMK MADISHF
DVT,2017-04-01 08:45,-112.0826,33.6883,M,M,M,20.00,3.00,M,29.84,M,10.00,M,CLR,M,M,M,M,M,M,M,M,KDVT 010845Z AUTO 02003KT 10SM CLR A2984 RMK MADISHF
DVT,2017-04-01 08:50,-112.0826,33.6883,M,M,M,30.00,4.00,M,29.84,M,10.00,M,CLR,M,M,M,M,M,M,M,M,KDVT 010850Z AUTO 03004KT 10SM CLR A2984 RMK MADISHF
DVT,2017-04-01 08:53,-112.0826,33.6883,51.10,36.00,56.10,30.00,4.00,0.00,29.84,1009.50,10.00,M,CLR,M,M,M,M,M,M,M,M,KDVT 010853Z AUTO 03004KT 10SM CLR 11/02 A2984 RMK AO2 SLP095 T01060022 51007
DVT,2017-04-01 08:55,-112.0826,33.6883,M,M,M,30.00,4.00,M,29.85,M,10.00,M,CLR,M,M,M,M,M,M,M,M,KDVT 010855Z AUTO 03004KT 10SM CLR A2985 RMK MADISHF
DVT,2017-04-01 09:00,-112.0826,33.6883,M,M,M,40.00,3.00,M,29.85,M,10.00,M,CLR,M,M,M,M,M,M,M,M,KDVT 010900Z AUTO 04003KT 10SM CLR A2985 RMK MADISHF
DVT,2017-04-01 09:05,-112.0826,33.6883,M,M,M,40.00,3.00,M,29.85,M,10.00,M,CLR,M,M,M,M,M,M,M,M,KDVT 010905Z AUTO 04003KT 10SM CLR A2985 RMK MADISHF
DVT,2017-04-01 09:10,-112.0826,33.6883,M,M,M,0.00,0.00,M,29.85,M,10.00,M,CLR,M,M,M,M,M,M,M,M,KDVT 010910Z AUTO 00000KT 10SM CLR A2985 RMK MADISHF
DVT,2017-04-01 09:15,-112.0826,33.6883,M,M,M,360.00,3.00,M,29.85,M,10.00,M,CLR,M,M,M,M,M,M,M,M,KDVT 010915Z AUTO 36003KT 10SM CLR A2985 RMK MADISHF
DVT,2017-04-01 09:20,-112.0826,33.6883,M,M,M,10.00,5.00,M,29.85,M,10.00,M,CLR,M,M,M,M,M,M,M,M,KDVT 010920Z AUTO 01005KT 10SM CLR A2985 RMK MADISHF
DVT,2017-04-01 09:25,-112.0826,33.6883,M,M,M,20.00,6.00,M,29.85,M,10.00,M,CLR,M,M,M,M,M,M,M,M,KDVT 010925Z AUTO 02006KT 10SM CLR A2985 RMK MADISHF
DVT,2017-04-01 09:30,-112.0826,33.6883,M,M,M,20.00,7.00,M,29.85,M,10.00,M,CLR,M,M,M,M,M,M,M,M,KDVT 010930Z AUTO 02007KT 10SM CLR A2985 RMK MADISHF
DVT,2017-04-01 09:35,-112.0826,33.6883,M,M,M,30.00,5.00,M,29.85,M,10.00,M,CLR,M,M,M,M,M,M,M,M,KDVT 010935Z AUTO 03005KT 10SM CLR A2985 RMK MADISHF
DVT,2017-04-01 09:40,-112.0826,33.6883,M,M,M,30.00,5.00,M,29.85,M,10.00,M,CLR,M,M,M,M,M,M,M,M,KDVT 010940Z AUTO 03005KT 10SM CLR A2985 RMK MADISHF
DVT,2017-04-01 09:45,-112.0826,33.6883,M,M,M,30.00,5.00,M,29.85,M,10.00,M,CLR,M,M,M,M,M,M,M,M,KDVT 010945Z AUTO 03005KT 10SM CLR A2985 RMK MADISHF
DVT,2017-04-01 09:50,-112.0826,33.6883,M,M,M,40.00,4.00,M,29.85,M,10.00,M,CLR,M,M,M,M,M,M,M,M,KDVT 010950Z AUTO 04004KT 10SM CLR A2985 RMK MADISHF
DVT,2017-04-01 09:53,-112.0826,33.6883,50.00,36.00,58.44,50.00,4.00,0.00,29.85,1009.70,10.00,M,CLR,M,M,M,M,M,M,M,M,KDVT 010953Z AUTO 05004KT 10SM CLR 10/02 A2985 RMK AO2 SLP097 T01000022
DVT,2017-04-01 09:55,-112.0826,33.6883,M,M,M,40.00,3.00,M,29.85,M,10.00,M,CLR,M,M,M,M,M,M,M,M,KDVT 010955Z AUTO 04003KT 10SM CLR A2985 RMK MADISHF
DVT,2017-04-01 10:00,-112.0826,33.6883,M,M,M,40.00,4.00,M,29.85,M,10.00,M,CLR,M,M,M,M,M,M,M,M,KDVT 011000Z AUTO 04004KT 10SM CLR A2985 RMK MADISHF
DVT,2017-04-01 10:05,-112.0826,33.6883,M,M,M,0.00,0.00,M,29.85,M,10.00,M,CLR,M,M,M,M,M,M,M,M,KDVT 011005Z AUTO 00000KT 10SM CLR A2985 RMK MADISHF
DVT,2017-04-01 10:10,-112.0826,33.6883,M,M,M,0.00,0.00,M,29.85,M,10.00,M,CLR,M,M,M,M,M,M,M,M,KDVT 011010Z AUTO 00000KT 10SM CLR A2985 RMK MADISHF
DVT,2017-04-01 10:15,-112.0826,33.6883,M,M,M,0.00,0.00,M,29.85,M,10.00,M,CLR,M,M,M,M,M,M,M,M,KDVT 011015Z AUTO 00000KT 10SM CLR A2985 RMK MADISHF
DVT,2017-04-01 10:20,-112.0826,33.6883,M,M,M,0.00,0.00,M,29.85,M,10.00,M,CLR,M,M,M,M,M,M,M,M,KDVT 011020Z AUTO 00000KT 10SM CLR A2985 RMK MADISHF
DVT,2017-04-01 10:25,-112.0826,33.6883,M,M,M,360.00,4.00,M,29.85,M,10.00,M,CLR,M,M,M,M,M,M,M,M,KDVT 011025Z AUTO 36004KT 10SM CLR A2985 RMK MADISHF
DVT,2017-04-01 10:30,-112.0826,33.6883,M,M,M,10.00,5.00,M,29.85,M,10.00,M,FEW,M,M,M,9000.00,M,M,M,M,KDVT 011030Z AUTO 01005KT 10SM FEW090 A2985 RMK MADISHF
DVT,2017-04-01 10:35,-112.0826,33.6883,M,M,M,20.00,6.00,M,29.85,M,10.00,M,FEW,M,M,M,9000.00,M,M,M,M,KDVT 011035Z AUTO 02006KT 10SM FEW090 A2985 RMK MADISHF
DVT,2017-04-01 10:40,-112.0826,33.6883,M,M,M,10.00,5.00,M,29.85,M,10.00,M,FEW,M,M,M,9000.00,M,M,M,M,KDVT 011040Z AUTO 01005KT 10SM FEW090 A2985 RMK MADISHF
DVT,2017-04-01 10:45,-112.0826,33.6883,M,M,M,20.00,6.00,M,29.85,M,10.00,M,FEW,M,M,M,9000.00,M,M,M,M,KDVT 011045Z AUTO 02006KT 10SM FEW090 A2985 RMK MADISHF
DVT,2017-04-01 10:50,-112.0826,33.6883,M,M,M,10.00,4.00,M,29.85,M,10.00,M,FEW,M,M,M,9000.00,M,M,M,M,KDVT 011050Z AUTO 01004KT 10SM FEW090 A2985 RMK MADISHF
DVT,2017-04-01 10:53,-112.0826,33.6883,50.00,35.10,56.39,20.00,4.00,0.00,29.85,1009.80,10.00,M,FEW,M,M,M,9000.00,M,M,M,M,KDVT 011053Z AUTO 02004KT 10SM FEW090 10/02 A2985 RMK AO2 SLP098 T01000017
DVT,2017-04-01 10:55,-112.0826,33.6883,M,M,M,20.00,5.00,M,29.85,M,10.00,M,FEW,M,M,M,9000.00,M,M,M,M,KDVT 011055Z AUTO 02005KT 10SM FEW090 A2985 RMK MADISHF
DVT,2017-04-01 11:00,-112.0826,33.6883,M,M,M,20.00,5.00,M,29.85,M,10.00,M,CLR,M,M,M,M,M,M,M,M,KDVT 011100Z AUTO 02005KT 10SM CLR A2985 RMK MADISHF
DVT,2017-04-01 11:05,-112.0826,33.6883,M,M,M,30.00,4.00,M,29.85,M,10.00,M,CLR,M,M,M,M,M,M,M,M,KDVT 011105Z AUTO 03004KT 10SM CLR A2985 RMK MADISHF
DVT,2017-04-01 11:10,-112.0826,33.6883,M,M,M,40.00,3.00,M,29.85,M,10.00,M,CLR,M,M,M,M,M,M,M,M,KDVT 011110Z AUTO 04003KT 10SM CLR A2985 RMK MADISHF
DVT,2017-04-01 11:15,-112.0826,33.6883,M,M,M,40.00,5.00,M,29.85,M,10.00,M,CLR,M,M,M,M,M,M,M,M,KDVT 011115Z AUTO 04005KT 10SM CLR A2985 RMK MADISHF
DVT,2017-04-01 11:20,-112.0826,33.6883,M,M,M,40.00,6.00,M,29.85,M,10.00,M,CLR,M,M,M,M,M,M,M,M,KDVT 011120Z AUTO 04006KT 10SM CLR A2985 RMK MADISHF
DVT,2017-04-01 11:25,-112.0826,33.6883,M,M,M,30.00,6.00,M,29.85,M,10.00,M,CLR,M,M,M,M,M,M,M,M,KDVT 011125Z AUTO 03006KT 10SM CLR A2985 RMK MADISHF
DVT,2017-04-01 11:30,-112.0826,33.6883,M,M,M,30.00,4.00,M,29.85,M,10.00,M,CLR,M,M,M,M,M,M,M,M,KDVT 011130Z AUTO 03004KT 10SM CLR A2985 RMK MADISHF
DVT,2017-04-01 11:35,-112.0826,33.6883,M,M,M,20.00,4.00,M,29.85,M,10.00,M,CLR,M,M,M,M,M,M,M,M,KDVT 011135Z AUTO 02004KT 10SM CLR A2985 RMK MADISHF
DVT,2017-04-01 11:40,-112.0826,33.6883,M,M,M,10.00,5.00,M,29.85,M,10.00,M,CLR,M,M,M,M,M,M,M,M,KDVT 011140Z AUTO 01005KT 10SM CLR A2985 RMK MADISHF
DVT,2017-04-01 11:45,-112.0826,33.6883,M,M,M,30.00,4.00,M,29.85,M,10.00,M,CLR,M,M,M,M,M,M,M,M,KDVT 011145Z AUTO 03004KT 10SM CLR A2985 RMK MADISHF
DVT,2017-04-01 11:50,-112.0826,33.6883,M,M,M,50.00,5.00,M,29.85,M,10.00,M,CLR,M,M,M,M,M,M,M,M,KDVT 011150Z AUTO 05005KT 10SM CLR A2985 RMK MADISHF
DVT,2017-04-01 11:53,-112.0826,33.6883,48.90,34.00,56.23,40.00,5.00,0.00,29.85,1009.90,10.00,M,CLR,M,M,M,M,M,M,M,M,KDVT 011153Z AUTO 04005KT 10SM CLR 09/01 A2985 RMK AO2 SLP099 T00940011 10117 20094 50002
DVT,2017-04-01 11:55,-112.0826,33.6883,M,M,M,30.00,6.00,M,29.85,M,10.00,M,CLR,M,M,M,M,M,M,M,M,KDVT 011155Z AUTO 03006KT 10SM CLR A2985 RMK MADISHF
DVT,2017-04-01 12:00,-112.0826,33.6883,M,M,M,20.00,6.00,M,29.85,M,10.00,M,CLR,M,M,M,M,M,M,M,M,KDVT 011200Z AUTO 02006KT 10SM CLR A2985 RMK MADISHF
DVT,2017-04-01 12:05,-112.0826,33.6883,M,M,M,30.00,7.00,M,29.85,M,10.00,M,CLR,M,M,M,M,M,M,M,M,KDVT 011205Z AUTO 03007KT 10SM CLR A2985 RMK MADISHF
DVT,2017-04-01 12:10,-112.0826,33.6883,M,M,M,30.00,6.00,M,29.85,M,10.00,M,CLR,M,M,M,M,M,M,M,M,KDVT 011210Z AUTO 03006KT 10SM CLR A2985 RMK MADISHF
DVT,2017-04-01 12:15,-112.0826,33.6883,M,M,M,50.00,5.00,M,29.86,M,10.00,M,CLR,M,M,M,M,M,M,M,M,KDVT 011215Z AUTO 05005KT 10SM CLR A2986 RMK MADISHF
DVT,2017-04-01 12:20,-112.0826,33.6883,M,M,M,80.00,5.00,M,29.86,M,10.00,M,CLR,M,M,M,M,M,M,M,M,KDVT 011220Z AUTO 08005KT 10SM CLR A2986 RMK MADISHF
DVT,2017-04-01 12:25,-112.0826,33.6883,M,M,M,60.00,4.00,M,29.86,M,10.00,M,CLR,M,M,M,M,M,M,M,M,KDVT 011225Z AUTO 06004KT 10SM CLR A2986 RMK MADISHF
DVT,2017-04-01 12:30,-112.0826,33.6883,M,M,M,60.00,5.00,M,29.86,M,10.00,M,CLR,M,M,M,M,M,M,M,M,KDVT 011230Z AUTO 06005KT 10SM CLR A2986 RMK MADISHF
DVT,2017-04-01 12:35,-112.0826,33.6883,M,M,M,60.00,6.00,M,29.86,M,10.00,M,CLR,M,M,M,M,M,M,M,M,KDVT 011235Z AUTO 06006KT 10SM CLR A2986 RMK MADISHF
DVT,2017-04-01 12:40,-112.0826,33.6883,M,M,M,50.00,5.00,M,29.87,M,10.00,M,CLR,M,M,M,M,M,M,M,M,KDVT 011240Z AUTO 05005KT 10SM CLR A2987 RMK MADISHF
DVT,2017-04-01 12:45,-112.0826,33.6883,M,M,M,40.00,3.00,M,29.87,M,10.00,M,CLR,M,M,M,M,M,M,M,M,KDVT 011245Z AUTO 04003KT 10SM CLR A2987 RMK MADISHF
DVT,2017-04-01 12:50,-112.0826,33.6883,M,M,M,30.00,3.00,M,29.87,M,10.00,M,CLR,M,M,M,M,M,M,M,M,KDVT 011250Z AUTO 03003KT 10SM CLR A2987 RMK MADISHF
DVT,2017-04-01 12:53,-112.0826,33.6883,48.00,33.10,56.10,20.00,5.00,0.00,29.87,1010.50,10.00,M,CLR,M,M,M,M,M,M,M,M,KDVT 011253Z AUTO 02005KT 10SM CLR 09/01 A2987 RMK AO2 SLP105 T00890006
DVT,2017-04-01 12:55,-112.0826,33.6883,M,M,M,20.00,5.00,M,29.87,M,10.00,M,CLR,M,M,M,M,M,M,M,M,KDVT 011255Z AUTO 02005KT 10SM CLR A2987 RMK MADISHF
DVT,2017-04-01 13:00,-112.0826,33.6883,M,M,M,30.00,6.00,M,29.87,M,10.00,M,CLR,M,M,M,M,M,M,M,M,KDVT 011300Z AUTO 03006KT 10SM CLR A2987 RMK MADISHF
DVT,2017-04-01 13:05,-112.0826,33.6883,M,M,M,20.00,5.00,M,29.87,M,10.00,M,CLR,M,M,M,M,M,M,M,M,KDVT 011305Z AUTO 02005KT 10SM CLR A2987 RMK MADISHF
DVT,2017-04-01 13:10,-112.0826,33.6883,M,M,M,20.00,6.00,M,29.87,M,10.00,M,CLR,M,M,M,M,M,M,M,M,KDVT 011310Z AUTO 02006KT 10SM CLR A2987 RMK MADISHF
DVT,2017-04-01 13:15,-112.0826,33.6883,M,M,M,20.00,5.00,M,29.87,M,10.00,M,CLR,M,M,M,M,M,M,M,M,KDVT 011315Z AUTO 02005KT 10SM CLR A2987 RMK MADISHF
DVT,2017-04-01 13:20,-112.0826,33.6883,M,M,M,20.00,5.00,M,29.87,M,10.00,M,CLR,M,M,M,M,M,M,M,M,KDVT 011320Z AUTO 02005KT 10SM CLR A2987 RMK MADISHF
DVT,2017-04-01 13:25,-112.0826,33.6883,M,M,M,20.00,5.00,M,29.88,M,10.00,M,CLR,M,M,M,M,M,M,M,M,KDVT 011325Z AUTO 02005KT 10SM CLR A2988 RMK MADISHF
DVT,2017-04-01 13:30,-112.0826,33.6883,M,M,M,30.00,7.00,M,29.88,M,10.00,M,CLR,M,M,M,M,M,M,M,M,KDVT 011330Z AUTO 03007KT 10SM CLR A2988 RMK MADISHF
DVT,2017-04-01 13:35,-112.0826,33.6883,M,M,M,30.00,6.00,M,29.88,M,10.00,M,CLR,M,M,M,M,M,M,M,M,KDVT 011335Z AUTO 03006KT 10SM CLR A2988 RMK MADISHF
DVT,2017-04-01 13:40,-112.0826,33.6883,M,M,M,30.00,5.00,M,29.88,M,10.00,M,CLR,M,M,M,M,M,M,M,M,KDVT 011340Z AUTO 03005KT 10SM CLR A2988 RMK MADISHF
DVT,2017-04-01 13:45,-112.0826,33.6883,M,M,M,30.00,4.00,M,29.89,M,10.00,M,CLR,M,M,M,M,M,M,M,M,KDVT 011345Z AUTO 03004KT 10SM CLR A2989 RMK MADISHF
DVT,2017-04-01 13:50,-112.0826,33.6883,M,M,M,40.00,3.00,M,29.89,M,10.00,M,CLR,M,M,M,M,M,M,M,M,KDVT 011350Z AUTO 04003KT 10SM CLR A2989 RMK MADISHF
DVT,2017-04-01 13:53,-112.0826,33.6883,51.10,33.10,49.98,20.00,3.00,0.00,29.89,1011.20,10.00,M,CLR,M,M,M,M,M,M,M,M,KDVT 011353Z 02003KT 10SM CLR 11/01 A2989 RMK AO2 SLP112 T01060006
DVT,2017-04-01 13:55,-112.0826,33.6883,M,M,M,20.00,4.00,M,29.89,M,10.00,M,CLR,M,M,M,M,M,M,M,M,KDVT 011355Z AUTO 02004KT 10SM CLR A2989 RMK MADISHF
DVT,2017-04-01 14:00,-112.0826,33.6883,M,M,M,70.00,5.00,M,29.89,M,10.00,M,CLR,M,M,M,M,M,M,M,M,KDVT 011400Z AUTO 07005KT 10SM CLR A2989 RMK MADISHF
DVT,2017-04-01 14:05,-112.0826,33.6883,M,M,M,60.00,5.00,M,29.89,M,10.00,M,CLR,M,M,M,M,M,M,M,M,KDVT 011405Z AUTO 06005KT 10SM CLR A2989 RMK MADISHF
DVT,2017-04-01 14:10,-112.0826,33.6883,M,M,M,50.00,4.00,M,29.90,M,10.00,M,CLR,M,M,M,M,M,M,M,M,KDVT 011410Z AUTO 05004KT 10SM CLR A2990 RMK MADISHF
DVT,2017-04-01 14:15,-112.0826,33.6883,M,M,M,10.00,3.00,M,29.90,M,10.00,M,CLR,M,M,M,M,M,M,M,M,KDVT 011415Z AUTO 01003KT 10SM CLR A2990 RMK MADISHF
DVT,2017-04-01 14:20,-112.0826,33.6883,M,M,M,10.00,5.00,M,29.90,M,10.00,M,CLR,M,M,M,M,M,M,M,M,KDVT 011420Z AUTO 01005KT 10SM CLR A2990 RMK MADISHF
DVT,2017-04-01 14:25,-112.0826,33.6883,M,M,M,10.00,5.00,M,29.90,M,10.00,M,CLR,M,M,M,M,M,M,M,M,KDVT 011425Z AUTO 01005KT 10SM CLR A2990 RMK MADISHF
DVT,2017-04-01 14:30,-112.0826,33.6883,M,M,M,20.00,5.00,M,29.90,M,10.00,M,CLR,M,M,M,M,M,M,M,M,KDVT 011430Z AUTO 02005KT 10SM CLR A2990 RMK MADISHF
DVT,2017-04-01 14:35,-112.0826,33.6883,M,M,M,20.00,6.00,M,29.90,M,10.00,M,CLR,M,M,M,M,M,M,M,M,KDVT 011435Z AUTO 02006KT 10SM CLR A2990 RMK MADISHF
DVT,2017-04-01 14:40,-112.0826,33.6883,M,M,M,20.00,6.00,M,29.90,M,10.00,M,CLR,M,M,M,M,M,M,M,M,KDVT 011440Z AUTO 02006KT 10SM CLR A2990 RMK MADISHF
DVT,2017-04-01 14:45,-112.0826,33.6883,M,M,M,30.00,8.00,M,29.90,M,10.00,M,CLR,M,M,M,M,M,M,M,M,KDVT 011445Z AUTO 03008KT 10SM CLR A2990 RMK MADISHF
DVT,2017-04-01 14:50,-112.0826,33.6883,M,M,M,30.00,6.00,M,29.91,M,10.00,M,CLR,M,M,M,M,M,M,M,M,KDVT 011450Z AUTO 03006KT 10SM CLR A2991 RMK MADISHF
DVT,2017-04-01 14:53,-112.0826,33.6883,55.00,34.00,44.90,40.00,6.00,0.00,29.91,1011.70,10.00,M,CLR,M,M,M,M,M,M,M,M,KDVT 011453Z 04006KT 10SM CLR 13/01 A2991 RMK AO2 SLP117 T01280011 51019
DVT,2017-04-01 14:55,-112.0826,33.6883,M,M,M,40.00,6.00,M,29.91,M,10.00,M,CLR,M,M,M,M,M,M,M,M,KDVT 011455Z AUTO 04006KT 10SM CLR A2991 RMK MADISHF
DVT,2017-04-01 15:00,-112.0826,33.6883,M,M,M,40.00,5.00,M,29.91,M,10.00,M,CLR,M,M,M,M,M,M,M,M,KDVT 011500Z AUTO 04005KT 10SM CLR A2991 RMK MADISHF
DVT,2017-04-01 15:05,-112.0826,33.6883,M,M,M,20.00,5.00,M,29.91,M,10.00,M,CLR,M,M,M,M,M,M,M,M,KDVT 011505Z AUTO 02005KT 10SM CLR A2991 RMK MADISHF
DVT,2017-04-01 15:10,-112.0826,33.6883,M,M,M,20.00,3.00,M,29.91,M,10.00,M,CLR,M,M,M,M,M,M,M,M,KDVT 011510Z AUTO 02003KT 10SM CLR A2991 RMK MADISHF
DVT,2017-04-01 15:15,-112.0826,33.6883,M,M,M,0.00,0.00,M,29.91,M,10.00,M,CLR,M,M,M,M,M,M,M,M,KDVT 011515Z AUTO 00000KT 10SM CLR A2991 RMK MADISHF
DVT,2017-04-01 15:20,-112.0826,33.6883,M,M,M,0.00,0.00,M,29.91,M,10.00,M,CLR,M,M,M,M,M,M,M,M,KDVT 011520Z AUTO 00000KT 10SM CLR A2991 RMK MADISHF
DVT,2017-04-01 15:25,-112.0826,33.6883,M,M,M,10.00,3.00,M,29.92,M,10.00,M,CLR,M,M,M,M,M,M,M,M,KDVT 011525Z AUTO 01003KT 10SM CLR A2992 RMK MADISHF
DVT,2017-04-01 15:30,-112.0826,33.6883,M,M,M,360.00,4.00,M,29.91,M,10.00,M,CLR,M,M,M,M,M,M,M,M,KDVT 011530Z AUTO 36004KT 10SM CLR A2991 RMK MADISHF
DVT,2017-04-01 15:35,-112.0826,33.6883,M,M,M,30.00,5.00,M,29.91,M,10.00,M,CLR,M,M,M,M,M,M,M,M,KDVT 011535Z AUTO 03005KT 10SM CLR A2991 RMK MADISHF
DVT,2017-04-01 15:40,-112.0826,33.6883,M,M,M,30.00,5.00,M,29.91,M,10.00,M,CLR,M,M,M,M,M,M,M,M,KDVT 011540Z AUTO 03005KT 10SM CLR A2991 RMK MADISHF
DVT,2017-04-01 15:45,-112.0826,33.6883,M,M,M,20.00,4.00,M,29.92,M,10.00,M,CLR,M,M,M,M,M,M,M,M,KDVT 011545Z AUTO 02004KT 10SM CLR A2992 RMK MADISHF
DVT,2017-04-01 15:50,-112.0826,33.6883,M,M,M,10.00,4.00,M,29.92,M,10.00,M,CLR,M,M,M,M,M,M,M,M,KDVT 011550Z AUTO 01004KT 10SM CLR A2992 RMK MADISHF
DVT,2017-04-01 15:53,-112.0826,33.6883,57.90,33.10,39.00,350.00,4.00,0.00,29.92,1012.10,10.00,M,CLR,M,M,M,M,M,M,M,M,KDVT 011553Z 35004KT 10SM CLR 14/01 A2992 RMK AO2 SLP121 T01440006
DVT,2017-04-01 15:55,-112.0826,33.6883,M,M,M,350.00,3.00,M,29.92,M,10.00,M,CLR,M,M,M,M,M,M,M,M,KDVT 011555Z AUTO 35003KT 10SM CLR A2992 RMK MADISHF
DVT,2017-04-01 16:00,-112.0826,33.6883,M,M,M,350.00,3.00,M,29.92,M,10.00,M,CLR,M,M,M,M,M,M,M,M,KDVT 011600Z AUTO 35003KT 10SM CLR A2992 RMK VRB03KT  MADISHF
DVT,2017-04-01 16:05,-112.0826,33.6883,M,M,M,310.00,3.00,M,29.92,M,10.00,M,CLR,M,M,M,M,M,M,M,M,KDVT 011605Z AUTO 31003KT 10SM CLR A2992 RMK MADISHF
DVT,2017-04-01 16:10,-112.0826,33.6883,M,M,M,0.00,0.00,M,29.93,M,10.00,M,CLR,M,M,M,M,M,M,M,M,KDVT 011610Z AUTO 00000KT 10SM CLR A2993 RMK MADISHF
DVT,2017-04-01 16:15,-112.0826,33.6883,M,M,M,0.00,0.00,M,29.93,M,10.00,M,CLR,M,M,M,M,M,M,M,M,KDVT 011615Z AUTO 00000KT 10SM CLR A2993 RMK MADISHF
DVT,2017-04-01 16:20,-112.0826,33.6883,M,M,M,270.00,3.00,M,29.93,M,10.00,M,CLR,M,M,M,M,M,M,M,M,KDVT 011620Z AUTO 27003KT 10SM CLR A2993 RMK MADISHF
DVT,2017-04-01 16:25,-112.0826,33.6883,M,M,M,0.00,0.00,M,29.93,M,10.00,M,CLR,M,M,M,M,M,M,M,M,KDVT 011625Z AUTO 00000KT 10SM CLR A2993 RMK MADISHF
DVT,2017-04-01 16:30,-112.0826,33.6883,M,M,M,M,M,M,29.93,M,10.00,M,CLR,M,M,M,M,M,M,M,M,KDVT 011630Z AUTO /////KT 10SM CLR A2993 RMK MADISHF
DVT,2017-04-01 16:35,-112.0826,33.6883,M,M,M,90.00,8.00,M,29.94,M,10.00,M,CLR,M,M,M,M,M,M,M,M,KDVT 011635Z AUTO 09008KT 10SM CLR A2994 RMK MADISHF
DVT,2017-04-01 16:40,-112.0826,33.6883,M,M,M,80.00,7.00,M,29.94,M,10.00,M,CLR,M,M,M,M,M,M,M,M,KDVT 011640Z AUTO 08007KT 10SM CLR A2994 RMK MADISHF
DVT,2017-04-01 16:45,-112.0826,33.6883,M,M,M,90.00,6.00,M,29.94,M,10.00,M,CLR,M,M,M,M,M,M,M,M,KDVT 011645Z AUTO 09006KT 10SM CLR A2994 RMK MADISHF
DVT,2017-04-01 16:50,-112.0826,33.6883,M,M,M,80.00,3.00,M,29.94,M,10.00,M,CLR,M,M,M,M,M,M,M,M,KDVT 011650Z AUTO 08003KT 10SM CLR A2994 RMK VRB03KT  MADISHF
DVT,2017-04-01 16:53,-112.0826,33.6883,62.10,30.90,30.73,M,3.00,0.00,29.94,1012.80,10.00,M,CLR,M,M,M,M,M,M,M,M,KDVT 011653Z VRB03KT 10SM CLR 17/M01 A2994 RMK AO2 SLP128 T01671006
DVT,2017-04-01 16:55,-112.0826,33.6883,M,M,M,160.00,4.00,M,29.94,M,10.00,M,CLR,M,M,M,M,M,M,M,M,KDVT 011655Z AUTO 16004KT 10SM CLR A2994 RMK VRB04KT  MADISHF
DVT,2017-04-01 17:00,-112.0826,33.6883,M,M,M,150.00,5.00,M,29.94,M,10.00,M,CLR,M,M,M,M,M,M,M,M,KDVT 011700Z AUTO 15005KT 10SM CLR A2994 RMK MADISHF
DVT,2017-04-01 17:05,-112.0826,33.6883,M,M,M,120.00,6.00,M,29.94,M,10.00,M,CLR,M,M,M,M,M,M,M,M,KDVT 011705Z AUTO 12006KT 10SM CLR A2994 RMK VRB06KT  MADISHF
DVT,2017-04-01 17:10,-112.0826,33.6883,M,M,M,150.00,10.00,M,29.93,M,10.00,M,CLR,M,M,M,M,M,M,M,M,KDVT 011710Z AUTO 15010KT 10SM CLR A2993 RMK MADISHF
DVT,2017-04-01 17:15,-112.0826,33.6883,M,M,M,150.00,6.00,M,29.93,M,10.00,M,CLR,M,M,M,M,M,M,M,M,KDVT 011715Z AUTO 15006KT 10SM CLR A2993 RMK MADISHF
DVT,2017-04-01 17:20,-112.0826,33.6883,M,M,M,130.00,8.00,M,29.93,M,10.00,M,CLR,M,M,M,M,M,M,M,M,KDVT 011720Z AUTO 13008KT 10SM CLR A2993 RMK MADISHF
DVT,2017-04-01 17:25,-112.0826,33.6883,M,M,M,140.00,9.00,M,29.93,M,10.00,M,CLR,M,M,M,M,M,M,M,M,KDVT 011725Z AUTO 14009KT 10SM CLR A2993 RMK MADISHF
DVT,2017-04-01 17:30,-112.0826,33.6883,M,M,M,130.00,7.00,M,29.93,M,10.00,M,CLR,M,M,M,M,M,M,M,M,KDVT 011730Z AUTO 13007KT 10SM CLR A2993 RMK MADISHF
DVT,2017-04-01 17:35,-112.0826,33.6883,M,M,M,140.00,7.00,M,29.93,M,10.00,M,CLR,M,M,M,M,M,M,M,M,KDVT 011735Z AUTO 14007KT 10SM CLR A2993 RMK MADISHF
DVT,2017-04-01 17:40,-112.0826,33.6883,M,M,M,130.00,10.00,M,29.93,M,10.00,M,CLR,M,M,M,M,M,M,M,M,KDVT 011740Z AUTO 13010KT 10SM CLR A2993 RMK MADISHF
DVT,2017-04-01 17:45,-112.0826,33.6883,M,M,M,150.00,8.00,M,29.93,M,10.00,M,CLR,M,M,M,M,M,M,M,M,KDVT 011745Z AUTO 15008KT 10SM CLR A2993 RMK MADISHF
DVT,2017-04-01 17:50,-112.0826,33.6883,M,M,M,90.00,5.00,M,29.94,M,10.00,M,CLR,M,M,M,M,M,M,M,M,KDVT 011750Z AUTO 09005KT 10SM CLR A2994 RMK VRB05KT  MADISHF
DVT,2017-04-01 17:53,-112.0826,33.6883,64.00,30.00,27.71,M,5.00,0.00,29.94,1012.50,10.00,M,CLR,M,M,M,M,M,M,M,M,KDVT 011753Z VRB05KT 10SM CLR 18/M01 A2994 RMK AO2 SLP125 T01781011 10178 20083 50009
DVT,2017-04-01 17:55,-112.0826,33.6883,M,M,M,150.00,8.00,M,29.93,M,10.00,M,CLR,M,M,M,M,M,M,M,M,KDVT 011755Z AUTO 15008KT 10SM CLR A2993 RMK MADISHF
DVT,2017-04-01 18:00,-112.0826,33.6883,M,M,M,130.00,10.00,M,29.93,M,10.00,M,CLR,M,M,M,M,M,M,M,M,KDVT 011800Z AUTO 13010KT 10SM CLR A2993 RMK MADISHF
DVT,2017-04-01 18:05,-112.0826,33.6883,M,M,M,130.00,5.00,M,29.94,M,10.00,M,CLR,M,M,M,M,M,M,M,M,KDVT 011805Z AUTO 13005KT 10SM CLR A2994 RMK VRB05KT  MADISHF
DVT,2017-04-01 18:10,-112.0826,33.6883,M,M,M,130.00,8.00,M,29.94,M,10.00,M,CLR,M,M,M,M,M,M,M,M,KDVT 011810Z AUTO 13008KT 10SM CLR A2994 RMK MADISHF
DVT,2017-04-01 18:15,-112.0826,33.6883,M,M,M,100.00,7.00,M,29.94,M,10.00,M,CLR,M,M,M,M,M,M,M,M,KDVT 011815Z AUTO 10007KT 10SM CLR A2994 RMK MADISHF
DVT,2017-04-01 18:20,-112.0826,33.6883,M,M,M,70.00,5.00,M,29.93,M,10.00,M,CLR,M,M,M,M,M,M,M,M,KDVT 011820Z AUTO 07005KT 10SM CLR A2993 RMK VRB05KT  MADISHF
DVT,2017-04-01 18:25,-112.0826,33.6883,M,M,M,80.00,4.00,M,29.94,M,10.00,M,CLR,M,M,M,M,M,M,M,M,KDVT 011825Z AUTO 08004KT 10SM CLR A2994 RMK VRB04KT  MADISHF
DVT,2017-04-01 18:30,-112.0826,33.6883,M,M,M,0.00,0.00,M,29.93,M,10.00,M,CLR,M,M,M,M,M,M,M,M,KDVT 011830Z AUTO 00000KT 10SM CLR A2993 RMK MADISHF
DVT,2017-04-01 18:35,-112.0826,33.6883,M,M,M,220.00,3.00,M,29.94,M,10.00,M,CLR,M,M,M,M,M,M,M,M,KDVT 011835Z AUTO 22003KT 10SM CLR A2994 RMK MADISHF
DVT,2017-04-01 18:40,-112.0826,33.6883,M,M,M,130.00,7.00,M,29.94,M,10.00,M,CLR,M,M,M,M,M,M,M,M,KDVT 011840Z AUTO 13007KT 10SM CLR A2994 RMK MADISHF
DVT,2017-04-01 18:45,-112.0826,33.6883,M,M,M,180.00,6.00,M,29.94,M,10.00,M,CLR,M,M,M,M,M,M,M,M,KDVT 011845Z AUTO 18006KT 10SM CLR A2994 RMK MADISHF
DVT,2017-04-01 18:50,-112.0826,33.6883,M,M,M,0.00,0.00,M,29.94,M,10.00,M,CLR,M,M,M,M,M,M,M,M,KDVT 011850Z AUTO 00000KT 10SM CLR A2994 RMK MADISHF
DVT,2017-04-01 18:53,-112.0826,33.6883,64.00,28.00,25.54,170.00,9.00,0.00,29.94,1012.70,10.00,M,CLR,M,M,M,M,M,M,M,M,KDVT 011853Z 17009KT 10SM CLR 18/M02 A2994 RMK AO2 SLP127 T01781022
DVT,2017-04-01 18:55,-112.0826,33.6883,M,M,M,190.00,3.00,M,29.94,M,10.00,M,CLR,M,M,M,M,M,M,M,M,KDVT 011855Z AUTO 19003KT 10SM CLR A2994 RMK VRB03KT  MADISHF
DVT,2017-04-01 19:00,-112.0826,33.6883,M,M,M,40.00,5.00,M,29.93,M,10.00,M,FEW,M,M,M,12000.00,M,M,M,M,KDVT 011900Z AUTO 04005KT 10SM FEW120 A2993 RMK VRB05KT  MADISHF
DVT,2017-04-01 19:05,-112.0826,33.6883,M,M,M,360.00,5.00,M,29.93,M,10.00,M,SCT,M,M,M,12000.00,M,M,M,M,KDVT 011905Z AUTO 36005KT 10SM SCT120 A2993 RMK MADISHF
DVT,2017-04-01 19:10,-112.0826,33.6883,M,M,M,30.00,5.00,M,29.93,M,10.00,M,SCT,M,M,M,12000.00,M,M,M,M,KDVT 011910Z AUTO 03005KT 10SM SCT120 A2993 RMK MADISHF
DVT,2017-04-01 19:15,-112.0826,33.6883,M,M,M,0.00,0.00,M,29.93,M,10.00,M,FEW,M,M,M,12000.00,M,M,M,M,KDVT 011915Z AUTO 00000KT 10SM FEW120 A2993 RMK MADISHF
DVT,2017-04-01 19:20,-112.0826,33.6883,M,M,M,0.00,0.00,M,29.92,M,10.00,M,FEW,M,M,M,12000.00,M,M,M,M,KDVT 011920Z AUTO 00000KT 10SM FEW120 A2992 RMK MADISHF
DVT,2017-04-01 19:25,-112.0826,33.6883,M,M,M,160.00,3.00,M,29.91,M,10.00,M,FEW,M,M,M,12000.00,M,M,M,M,KDVT 011925Z AUTO 16003KT 10SM FEW120 A2991 RMK MADISHF
DVT,2017-04-01 19:30,-112.0826,33.6883,M,M,M,180.00,4.00,M,29.91,M,10.00,M,FEW,M,M,M,12000.00,M,M,M,M,KDVT 011930Z AUTO 18004KT 10SM FEW120 A2991 RMK VRB04KT  MADISHF
DVT,2017-04-01 19:35,-112.0826,33.6883,M,M,M,160.00,6.00,M,29.91,M,10.00,M,CLR,M,M,M,M,M,M,M,M,KDVT 011935Z AUTO 16006KT 10SM CLR A2991 RMK MADISHF
DVT,2017-04-01 19:40,-112.0826,33.6883,M,M,M,110.00,3.00,M,29.92,M,10.00,M,CLR,M,M,M,M,M,M,M,M,KDVT 011940Z AUTO 11003KT 10SM CLR A2992 RMK VRB03KT  MADISHF
DVT,2017-04-01 19:45,-112.0826,33.6883,M,M,M,10.00,3.00,M,29.92,M,10.00,M,CLR,M,M,M,M,M,M,M,M,KDVT 011945Z AUTO 01003KT 10SM CLR A2992 RMK MADISHF
DVT,2017-04-01 19:50,-112.0826,33.6883,M,M,M,0.00,0.00,M,29.92,M,10.00,M,CLR,M,M,M,M,M,M,M,M,KDVT 011950Z AUTO 00000KT 10SM CLR A2992 RMK MADISHF
DVT,2017-04-01 19:53,-112.0826,33.6883,66.00,27.00,22.86,0.00,0.00,0.00,29.92,1011.90,10.00,M,CLR,M,M,M,M,M,M,M,M,KDVT 011953Z 00000KT 10SM CLR 19/M03 A2992 RMK AO2 SLP119 T01891028
DVT,2017-04-01 19:55,-112.0826,33.6883,M,M,M,360.00,4.00,M,29.92,M,10.00,M,CLR,M,M,M,M,M,M,M,M,KDVT 011955Z AUTO 36004KT 10SM CLR A2992 RMK MADISHF
DVT,2017-04-01 20:00,-112.0826,33.6883,M,M,M,70.00,5.00,M,29.92,M,10.00,M,CLR,M,M,M,M,M,M,M,M,KDVT 012000Z AUTO 07005KT 10SM CLR A2992 RMK VRB05KT  MADISHF
DVT,2017-04-01 20:05,-112.0826,33.6883,M,M,M,60.00,3.00,M,29.91,M,10.00,M,CLR,M,M,M,M,M,M,M,M,KDVT 012005Z AUTO 06003KT 10SM CLR A2991 RMK VRB03KT  MADISHF
DVT,2017-04-01 20:10,-112.0826,33.6883,M,M,M,260.00,6.00,M,29.92,M,10.00,M,CLR,M,M,M,M,M,M,M,M,KDVT 012010Z AUTO 26006KT 10SM CLR A2992 RMK MADISHF
DVT,2017-04-01 20:15,-112.0826,33.6883,M,M,M,M,M,M,29.92,M,10.00,M,CLR,M,M,M,M,M,M,M,M,KDVT 012015Z AUTO /////KT 10SM CLR A2992 RMK MADISHF
DVT,2017-04-01 20:20,-112.0826,33.6883,M,M,M,270.00,3.00,M,29.92,M,10.00,M,CLR,M,M,M,M,M,M,M,M,KDVT 012020Z AUTO 27003KT 10SM CLR A2992 RMK VRB03G14KT  MADISHF
DVT,2017-04-01 20:25,-112.0826,33.6883,M,M,M,250.00,5.00,M,29.92,M,10.00,M,CLR,M,M,M,M,M,M,M,M,KDVT 012025Z AUTO 25005KT 10SM CLR A2992 RMK VRB05KT  MADISHF
DVT,2017-04-01 20:30,-112.0826,33.6883,M,M,M,260.00,4.00,M,29.91,M,10.00,M,CLR,M,M,M,M,M,M,M,M,KDVT 012030Z AUTO 26004KT 10SM CLR A2991 RMK VRB04KT  MADISHF
DVT,2017-04-01 20:35,-112.0826,33.6883,M,M,M,M,M,M,29.92,M,10.00,M,CLR,M,M,M,M,M,M,M,M,KDVT 012035Z AUTO /////KT 10SM CLR A2992 RMK MADISHF
DVT,2017-04-01 20:40,-112.0826,33.6883,M,M,M,10.00,7.00,M,29.91,M,10.00,M,CLR,M,M,M,M,M,M,M,M,KDVT 012040Z AUTO 01007KT 10SM CLR A2991 RMK WND 33V08  MADISHF
DVT,2017-04-01 20:45,-112.0826,33.6883,M,M,M,330.00,5.00,M,29.91,M,10.00,M,CLR,M,M,M,M,M,M,M,M,KDVT 012045Z AUTO 33005KT 10SM CLR A2991 RMK VRB05KT  MADISHF
DVT,2017-04-01 20:50,-112.0826,33.6883,M,M,M,310.00,4.00,M,29.91,M,10.00,M,CLR,M,M,M,M,M,M,M,M,KDVT 012050Z AUTO 31004KT 10SM CLR A2991 RMK VRB04KT  MADISHF
DVT,2017-04-01 20:53,-112.0826,33.6883,68.00,28.00,22.23,320.00,8.00,0.00,29.91,1011.70,10.00,M,CLR,M,M,M,M,M,M,M,M,KDVT 012053Z 32008KT 10SM CLR 20/M02 A2991 RMK AO2 SLP117 T02001022 58008
DVT,2017-04-01 20:55,-112.0826,33.6883,M,M,M,270.00,8.00,M,29.91,M,10.00,M,CLR,M,M,M,M,M,M,M,M,KDVT 012055Z AUTO 27008KT 10SM CLR A2991 RMK WND 24V34  MADISHF
DVT,2017-04-01 21:00,-112.0826,33.6883,M,M,M,240.00,7.00,M,29.91,M,10.00,M,FEW,M,M,M,9000.00,M,M,M,M,KDVT 012100Z AUTO 24007KT 10SM FEW090 A2991 RMK MADISHF
DVT,2017-04-01 21:05,-112.0826,33.6883,M,M,M,260.00,8.00,M,29.91,M,10.00,M,FEW,M,M,M,9000.00,M,M,M,M,KDVT 012105Z AUTO 26008KT 10SM FEW090 A2991 RMK WND 21V29  MADISHF
DVT,2017-04-01 21:10,-112.0826,33.6883,M,M,M,260.00,8.00,M,29.90,M,10.00,M,FEW,M,M,M,9000.00,M,M,M,M,KDVT 012110Z AUTO 26008KT 10SM FEW090 A2990 RMK MADISHF
DVT,2017-04-01 21:15,-112.0826,33.6883,M,M,M,250.00,5.00,M,29.90,M,10.00,M,FEW,M,M,M,9000.00,M,M,M,M,KDVT 012115Z AUTO 25005KT 10SM FEW090 A2990 RMK VRB05KT  MADISHF
DVT,2017-04-01 21:20,-112.0826,33.6883,M,M,M,240.00,3.00,M,29.90,M,10.00,M,FEW,M,M,M,9000.00,M,M,M,M,KDVT 012120Z AUTO 24003KT 10SM FEW090 A2990 RMK VRB03KT  MADISHF
DVT,2017-04-01 21:25,-112.0826,33.6883,M,M,M,290.00,6.00,M,29.90,M,10.00,M,FEW,M,M,M,9000.00,M,M,M,M,KDVT 012125Z AUTO 29006KT 10SM FEW090 A2990 RMK MADISHF
DVT,2017-04-01 21:30,-112.0826,33.6883,M,M,M,290.00,5.00,M,29.90,M,10.00,M,CLR,M,M,M,M,M,M,M,M,KDVT 012130Z AUTO 29005KT 10SM CLR A2990 RMK VRB05KT  MADISHF
DVT,2017-04-01 21:35,-112.0826,33.6883,M,M,M,340.00,4.00,M,29.90,M,10.00,M,CLR,M,M,M,M,M,M,M,M,KDVT 012135Z AUTO 34004KT 10SM CLR A2990 RMK VRB04KT  MADISHF
DVT,2017-04-01 21:40,-112.0826,33.6883,M,M,M,340.00,7.00,M,29.90,M,10.00,M,CLR,M,M,M,M,M,M,M,M,KDVT 012140Z AUTO 34007KT 10SM CLR A2990 RMK MADISHF
DVT,2017-04-01 21:45,-112.0826,33.6883,M,M,M,270.00,6.00,M,29.90,M,10.00,M,CLR,M,M,M,M,M,M,M,M,KDVT 012145Z AUTO 27006KT 10SM CLR A2990 RMK MADISHF
DVT,2017-04-01 21:50,-112.0826,33.6883,M,M,M,220.00,10.00,M,29.89,M,10.00,M,CLR,M,M,M,M,M,M,M,M,KDVT 012150Z AUTO 22010KT 10SM CLR A2989 RMK MADISHF
DVT,2017-04-01 21:53,-112.0826,33.6883,69.10,28.90,22.21,220.00,6.00,0.00,29.89,1011.10,10.00,14.00,CLR,M,M,M,M,M,M,M,M,KDVT 012153Z 22006G14KT 10SM CLR 21/M02 A2989 RMK AO2 SLP111 T02061017
DVT,2017-04-01 21:55,-112.0826,33.6883,M,M,M,170.00,5.00,M,29.89,M,10.00,M,FEW,M,M,M,9000.00,M,M,M,M,KDVT 012155Z AUTO 17005KT 10SM FEW090 A2989 RMK VRB05G14KT  MADISHF
DVT,2017-04-01 22:00,-112.0826,33.6883,M,M,M,120.00,5.00,M,29.89,M,10.00,M,SCT,M,M,M,9000.00,M,M,M,M,KDVT 012200Z AUTO 12005KT 10SM SCT090 A2989 RMK MADISHF
DVT,2017-04-01 22:05,-112.0826,33.6883,M,M,M,130.00,4.00,M,29.90,M,10.00,M,SCT,M,M,M,9000.00,M,M,M,M,KDVT 012205Z AUTO 13004KT 10SM SCT090 A2990 RMK VRB04KT  MADISHF
DVT,2017-04-01 22:10,-112.0826,33.6883,M,M,M,210.00,8.00,M,29.90,M,10.00,M,SCT,M,M,M,9000.00,M,M,M,M,KDVT 012210Z AUTO 21008KT 10SM SCT090 A2990 RMK MADISHF
DVT,2017-04-01 22:15,-112.0826,33.6883,M,M,M,290.00,6.00,M,29.90,M,10.00,M,FEW,M,M,M,9000.00,M,M,M,M,KDVT 012215Z AUTO 29006KT 10SM FEW090 A2990 RMK VRB06KT  MADISHF
DVT,2017-04-01 22:20,-112.0826,33.6883,M,M,M,320.00,6.00,M,29.89,M,10.00,M,FEW,M,M,M,9000.00,M,M,M,M,KDVT 012220Z AUTO 32006KT 10SM FEW090 A2989 RMK VRB06KT  MADISHF
DVT,2017-04-01 22:25,-112.0826,33.6883,M,M,M,40.00,5.00,M,29.89,M,10.00,M,FEW,M,M,M,9500.00,M,M,M,M,KDVT 012225Z AUTO 04005KT 10SM FEW095 A2989 RMK VRB05KT  MADISHF
DVT,2017-04-01 22:30,-112.0826,33.6883,M,M,M,M,M,M,29.89,M,10.00,M,FEW,M,M,M,9500.00,M,M,M,M,KDVT 012230Z AUTO /////KT 10SM FEW095 A2989 RMK MADISHF
DVT,2017-04-01 22:35,-112.0826,33.6883,M,M,M,0.00,0.00,M,29.89,M,10.00,M,CLR,M,M,M,M,M,M,M,M,KDVT 012235Z AUTO 00000KT 10SM CLR A2989 RMK MADISHF
DVT,2017-04-01 22:40,-112.0826,33.6883,M,M,M,360.00,3.00,M,29.89,M,10.00,M,CLR,M,M,M,M,M,M,M,M,KDVT 012240Z AUTO 36003KT 10SM CLR A2989 RMK VRB03KT  MADISHF
DVT,2017-04-01 22:45,-112.0826,33.6883,M,M,M,0.00,0.00,M,29.89,M,10.00,M,CLR,M,M,M,M,M,M,M,M,KDVT 012245Z AUTO 00000KT 10SM CLR A2989 RMK MADISHF
DVT,2017-04-01 22:50,-112.0826,33.6883,M,M,M,30.00,4.00,M,29.89,M,10.00,M,CLR,M,M,M,M,M,M,M,M,KDVT 012250Z AUTO 03004KT 10SM CLR A2989 RMK VRB04KT  MADISHF
DVT,2017-04-01 22:53,-112.0826,33.6883,70.00,27.00,19.92,M,4.00,0.00,29.89,1011.10,10.00,M,CLR,M,M,M,M,M,M,M,M,KDVT 012253Z VRB04KT 10SM CLR 21/M03 A2989 RMK AO2 SLP111 T02111028
DVT,2017-04-01 22:55,-112.0826,33.6883,M,M,M,90.00,3.00,M,29.89,M,10.00,M,CLR,M,M,M,M,M,M,M,M,KDVT 012255Z AUTO 09003KT 10SM CLR A2989 RMK VRB03KT  MADISHF
DVT,2017-04-01 23:00,-112.0826,33.6883,M,M,M,20.00,5.00,M,29.89,M,10.00,M,CLR,M,M,M,M,M,M,M,M,KDVT 012300Z AUTO 02005KT 10SM CLR A2989 RMK VRB05KT  MADISHF
DVT,2017-04-01 23:05,-112.0826,33.6883,M,M,M,0.00,0.00,M,29.89,M,10.00,M,CLR,M,M,M,M,M,M,M,M,KDVT 012305Z AUTO 00000KT 10SM CLR A2989 RMK MADISHF
DVT,2017-04-01 23:10,-112.0826,33.6883,M,M,M,0.00,0.00,M,29.89,M,10.00,M,CLR,M,M,M,M,M,M,M,M,KDVT 012310Z AUTO 00000KT 10SM CLR A2989 RMK MADISHF
DVT,2017-04-01 23:15,-112.0826,33.6883,M,M,M,20.00,5.00,M,29.89,M,10.00,M,CLR,M,M,M,M,M,M,M,M,KDVT 012315Z AUTO 02005KT 10SM CLR A2989 RMK MADISHF
DVT,2017-04-01 23:20,-112.0826,33.6883,M,M,M,0.00,0.00,M,29.89,M,10.00,M,CLR,M,M,M,M,M,M,M,M,KDVT 012320Z AUTO 00000KT 10SM CLR A2989 RMK MADISHF
DVT,2017-04-01 23:25,-112.0826,33.6883,M,M,M,0.00,0.00,M,29.89,M,10.00,M,CLR,M,M,M,M,M,M,M,M,KDVT 012325Z AUTO 00000KT 10SM CLR A2989 RMK MADISHF
DVT,2017-04-01 23:30,-112.0826,33.6883,M,M,M,190.00,5.00,M,29.89,M,10.00,M,FEW,M,M,M,11000.00,M,M,M,M,KDVT 012330Z AUTO 19005KT 10SM FEW110 A2989 RMK VRB05KT  MADISHF
DVT,2017-04-01 23:35,-112.0826,33.6883,M,M,M,240.00,7.00,M,29.89,M,10.00,M,FEW,M,M,M,11000.00,M,M,M,M,KDVT 012335Z AUTO 24007KT 10SM FEW110 A2989 RMK MADISHF
DVT,2017-04-01 23:40,-112.0826,33.6883,M,M,M,270.00,7.00,M,29.89,M,10.00,M,FEW,M,M,M,12000.00,M,M,M,M,KDVT 012340Z AUTO 27007KT 10SM FEW120 A2989 RMK MADISHF
DVT,2017-04-01 23:45,-112.0826,33.6883,M,M,M,260.00,5.00,M,29.89,M,10.00,M,FEW,M,M,M,12000.00,M,M,M,M,KDVT 012345Z AUTO 26005KT 10SM FEW120 A2989 RMK MADISHF
DVT,2017-04-01 23:50,-112.0826,33.6883,M,M,M,260.00,6.00,M,29.89,M,10.00,M,FEW,M,M,M,11000.00,M,M,M,M,KDVT 012350Z AUTO 26006KT 10SM FEW110 A2989 RMK MADISHF
DVT,2017-04-01 23:53,-112.0826,33.6883,70.00,27.00,19.92,350.00,4.00,0.00,29.89,1011.10,10.00,M,FEW,M,M,M,11000.00,M,M,M,M,KDVT 012353Z 35004KT 10SM FEW110 21/M03 A2989 RMK AO2 SLP111 T02111028 10217 20172 56005
DVT,2017-04-01 23:55,-112.0826,33.6883,M,M,M,280.00,3.00,M,29.90,M,10.00,M,FEW,M,M,M,11000.00,M,M,M,M,KDVT 012355Z AUTO 28003KT 10SM FEW110 A2990 RMK VRB03KT  MADISHF
