#DEBUG: Format Typ    -> comma
#DEBUG: Time Period   -> 2017-04-01 00:00:00+00:00 2017-04-02 00:00:00+00:00
#DEBUG: Time Zone     -> Etc/UTC
#DEBUG: Data Contact   -> daryl herzmann akrherz@iastate.edu 515-294-5978
#DEBUG: Entries Found -> -1
station,valid,lon,lat,tmpf, dwpf, relh, drct, sknt, p01i, alti, mslp, vsby, gust, skyc1, skyc2, skyc3, skyc4, skyl1, skyl2, skyl3, skyl4, presentwx, metar
DXR,2017-04-01 00:00,-73.4800,41.3700,M,M,M,90.00,14.00,M,29.85,M,2.50,M,OVC,M,M,M,1200.00,M,M,M,-RA BR,KDXR 010000Z AUTO 09014KT 2 1/2SM -RA BR OVC012 A2985 RMK MADISHF
DXR,2017-04-01 00:05,-73.4800,41.3700,M,M,M,M,M,0.01,29.85,M,2.50,M,OVC,M,M,M,1200.00,M,M,M,-RA BR,KDXR 010005Z AUTO /////KT 2 1/2SM -RA BR OVC012 A2985 RMK P0001 MADISHF
DXR,2017-04-01 00:10,-73.4800,41.3700,M,M,M,90.00,14.00,0.01,29.85,M,2.50,M,OVC,M,M,M,1200.00,M,M,M,-RA BR,KDXR 010010Z AUTO 09014KT 2 1/2SM -RA BR OVC012 A2985 RMK P0001 MADISHF
DXR,2017-04-01 00:15,-73.4800,41.3700,M,M,M,90.00,13.00,0.01,29.85,M,2.50,M,OVC,M,M,M,1200.00,M,M,M,-RA BR,KDXR 010015Z AUTO 09013KT 2 1/2SM -RA BR OVC012 A2985 RMK P0001 MADISHF
DXR,2017-04-01 00:20,-73.4800,41.3700,M,M,M,M,M,0.01,29.85,M,2.50,M,OVC,M,M,M,1200.00,M,M,M,-RA BR,KDXR 010020Z AUTO /////KT 2 1/2SM -RA BR OVC012 A2985 RMK P0001 MADISHF
DXR,2017-04-01 00:25,-73.4800,41.3700,M,M,M,80.00,16.00,0.01,29.84,M,2.50,M,OVC,M,M,M,1200.00,M,M,M,-RA BR,KDXR 010025Z AUTO 08016KT 2 1/2SM -RA BR OVC012 A2984 RMK P0001 MADISHF
DXR,2017-04-01 00:30,-73.4800,41.3700,M,M,M,M,M,0.01,29.84,M,2.50,M,OVC,M,M,M,1200.00,M,M,M,-RA BR,KDXR 010030Z AUTO /////KT 2 1/2SM -RA BR OVC012 A2984 RMK P0001 MADISHF
DXR,2017-04-01 00:35,-73.4800,41.3700,M,M,M,M,M,0.01,29.84,M,2.50,M,OVC,M,M,M,1200.00,M,M,M,-RA BR,KDXR 010035Z AUTO /////KT 2 1/2SM -RA BR OVC012 A2984 RMK P0001 MADISHF
DXR,2017-04-01 00:40,-73.4800,41.3700,M,M,M,M,M,0.01,29.84,M,2.50,M,OVC,M,M,M,1100.00,M,M,M,-RA BR,KDXR 010040Z AUTO /////KT 2 1/2SM -RA BR OVC011 A2984 RMK P0001 MADISHF
DXR,2017-04-01 00:45,-73.4800,41.3700,M,M,M,90.00,13.00,0.01,29.84,M,2.50,M,OVC,M,M,M,1100.00,M,M,M,-RA BR,KDXR 010045Z AUTO 09013KT 2 1/2SM -RA BR OVC011 A2984 RMK P0001 MADISHF
DXR,2017-04-01 00:50,-73.4800,41.3700,M,M,M,M,M,0.01,29.84,M,2.50,M,OVC,M,M,M,1100.00,M,M,M,-RA BR,KDXR 010050Z AUTO /////KT 2 1/2SM -RA BR OVC011 A2984 RMK P0001 MADISHF
DXR,2017-04-01 00:53,-73.4800,41.3700,36.00,34.00,92.35,90.00,16.00,0.01,29.84,1010.70,2.50,25.00,OVC,M,M,M,1100.00,M,M,M,-RA BR,KDXR 010053Z 09016G25KT 2 1/2SM -RA BR OVC011 02/01 A2984 RMK AO2 PK WND 09026/0019 SLP107 P0001 T00220011
DXR,2017-04-01 00:55,-73.4800,41.3700,M,M,M,M,M,M,29.84,M,2.50,23.00,OVC,M,M,M,1100.00,M,M,M,-RA BR,KDXR 010055Z AUTO /////G23KT 2 1/2SM -RA BR OVC011 A2984 RMK MADISHF
DXR,2017-04-01 01:00,-73.4800,41.3700,M,M,M,90.00,14.00,0.01,29.84,M,2.50,20.00,OVC,M,M,M,1100.00,M,M,M,-RA BR,KDXR 010100Z AUTO 09014G20KT 2 1/2SM -RA BR OVC011 A2984 RMK P0001 MADISHF
DXR,2017-04-01 01:05,-73.4800,41.3700,M,M,M,80.00,13.00,0.01,29.84,M,2.50,M,OVC,M,M,M,1100.00,M,M,M,-RA BR,KDXR 010105Z AUTO 08013KT 2 1/2SM -RA BR OVC011 A2984 RMK P0001 MADISHF
DXR,2017-04-01 01:10,-73.4800,41.3700,M,M,M,80.00,15.00,0.01,29.84,M,2.50,M,OVC,M,M,M,1100.00,M,M,M,-RA BR,KDXR 010110Z AUTO 08015KT 2 1/2SM -RA BR OVC011 A2984 RMK P0001 MADISHF
DXR,2017-04-01 01:15,-73.4800,41.3700,M,M,M,M,M,0.02,29.83,M,2.50,M,OVC,M,M,M,1100.00,M,M,M,-RA BR,KDXR 010115Z AUTO /////KT 2 1/2SM -RA BR OVC011 A2983 RMK P0002 MADISHF
DXR,2017-04-01 01:20,-73.4800,41.3700,M,M,M,90.00,12.00,0.02,29.83,M,2.50,17.00,OVC,M,M,M,1100.00,M,M,M,RA BR,KDXR 010120Z AUTO 09012G17KT 2 1/2SM RA BR OVC011 A2983 RMK P0002 MADISHF
DXR,2017-04-01 01:25,-73.4800,41.3700,M,M,M,80.00,14.00,0.03,29.83,M,2.50,20.00,OVC,M,M,M,1100.00,M,M,M,RA BR,KDXR 010125Z AUTO 08014G20KT 2 1/2SM RA BR OVC011 A2983 RMK P0003 MADISHF
DXR,2017-04-01 01:30,-73.4800,41.3700,M,M,M,90.00,12.00,0.03,29.83,M,2.50,M,OVC,M,M,M,1200.00,M,M,M,-RA BR,KDXR 010130Z AUTO 09012KT 2 1/2SM -RA BR OVC012 A2983 RMK P0003 MADISHF
DXR,2017-04-01 01:35,-73.4800,41.3700,M,M,M,M,M,0.03,29.83,M,2.50,M,OVC,M,M,M,1200.00,M,M,M,-RA BR,KDXR 010135Z AUTO /////KT 2 1/2SM -RA BR OVC012 A2983 RMK P0003 MADISHF
DXR,2017-04-01 01:40,-73.4800,41.3700,M,M,M,90.00,14.00,0.04,29.83,M,2.50,M,OVC,M,M,M,1200.00,M,M,M,-RA BR,KDXR 010140Z AUTO 09014KT 2 1/2SM -RA BR OVC012 A2983 RMK P0004 MADISHF
DXR,2017-04-01 01:45,-73.4800,41.3700,M,M,M,M,M,0.04,29.82,M,2.50,M,OVC,M,M,M,1200.00,M,M,M,-RA BR,KDXR 010145Z AUTO /////KT 2 1/2SM -RA BR OVC012 A2982 RMK P0004 MADISHF
DXR,2017-04-01 01:50,-73.4800,41.3700,M,M,M,90.00,14.00,0.04,29.82,M,2.50,M,OVC,M,M,M,1200.00,M,M,M,-RA BR,KDXR 010150Z AUTO 09014KT 2 1/2SM -RA BR OVC012 A2982 RMK P0004 MADISHF
DXR,2017-04-01 01:53,-73.4800,41.3700,36.00,34.00,92.35,90.00,15.00,0.05,29.82,1009.90,2.50,23.00,BKN,OVC,M,M,1200.00,1900.00,M,M,-RA BR,KDXR 010153Z 09015G23KT 2 1/2SM -RA BR BKN012 OVC019 02/01 A2982 RMK AO2 SLP099 P0005 T00220011
DXR,2017-04-01 01:55,-73.4800,41.3700,M,M,M,80.00,15.00,M,29.82,M,5.00,M,OVC,M,M,M,1200.00,M,M,M,-RA BR,KDXR 010155Z AUTO 08015KT 5SM -RA BR OVC012 A2982 RMK MADISHF
DXR,2017-04-01 02:00,-73.4800,41.3700,35.10,33.10,92.32,90.00,16.00,0.00,29.81,M,5.00,25.00,OVC,M,M,M,1200.00,M,M,M,-RA BR,KDXR 010200Z AUTO 09016G25KT 5SM -RA BR OVC012 02/01 A2981 RMK AO2 P0000 T00170006
DXR,2017-04-01 02:05,-73.4800,41.3700,M,M,M,80.00,14.00,M,29.81,M,4.00,M,OVC,M,M,M,1200.00,M,M,M,-RA BR,KDXR 010205Z AUTO 08014KT 4SM -RA BR OVC012 A2981 RMK MADISHF
DXR,2017-04-01 02:10,-73.4800,41.3700,M,M,M,90.00,14.00,0.01,29.81,M,4.00,M,OVC,M,M,M,1300.00,M,M,M,-RA BR,KDXR 010210Z AUTO 09014KT 4SM -RA BR OVC013 A2981 RMK P0001 MADISHF
DXR,2017-04-01 02:15,-73.4800,41.3700,M,M,M,M,M,0.01,29.80,M,4.00,M,OVC,M,M,M,1300.00,M,M,M,-RA BR,KDXR 010215Z AUTO /////KT 4SM -RA BR OVC013 A2980 RMK P0001 MADISHF
DXR,2017-04-01 02:20,-73.4800,41.3700,M,M,M,M,M,0.01,29.80,M,3.50,24.00,OVC,M,M,M,1300.00,M,M,M,-RA BR,KDXR 010220Z AUTO /////G24KT 3SM -RA BR OVC013 A2980 RMK P0001 MADISHF
DXR,2017-04-01 02:25,-73.4800,41.3700,M,M,M,M,M,0.02,29.80,M,3.00,20.00,OVC,M,M,M,1300.00,M,M,M,RA BR,KDXR 010225Z AUTO /////G20KT 3SM RA BR OVC013 A2980 RMK P0002 MADISHF
DXR,2017-04-01 02:30,-73.4800,41.3700,M,M,M,80.00,12.00,0.02,29.80,M,3.00,M,OVC,M,M,M,1200.00,M,M,M,-RA BR,KDXR 010230Z AUTO 08012KT 3SM -RA BR OVC012 A2980 RMK P0002 MADISHF
DXR,2017-04-01 02:35,-73.4800,41.3700,M,M,M,70.00,11.00,0.02,29.80,M,3.50,M,OVC,M,M,M,1200.00,M,M,M,-RA BR,KDXR 010235Z AUTO 07011KT 3SM -RA BR OVC012 A2980 RMK P0002 MADISHF
DXR,2017-04-01 02:40,-73.4800,41.3700,M,M,M,70.00,13.00,0.02,29.79,M,4.00,M,OVC,M,M,M,1200.00,M,M,M,-RA BR,KDXR 010240Z AUTO 07013KT 4SM -RA BR OVC012 A2979 RMK P0002 MADISHF
DXR,2017-04-01 02:45,-73.4800,41.3700,M,M,M,80.00,10.00,0.03,29.80,M,4.00,M,BKN,OVC,M,M,999.00,1400.00,M,M,-RA BR,KDXR 010245Z AUTO 08010KT 4SM -RA BR BKN009 OVC014 A2980 RMK P0003 WND 04V10  MADISHF
DXR,2017-04-01 02:50,-73.4800,41.3700,M,M,M,70.00,10.00,0.03,29.80,M,3.00,M,BKN,OVC,M,M,999.00,1500.00,M,M,-RA BR,KDXR 010250Z AUTO 07010KT 3SM -RA BR BKN009 OVC015 A2980 RMK P0003 MADISHF
DXR,2017-04-01 02:53,-73.4800,41.3700,35.10,34.00,95.71,70.00,12.00,0.04,29.80,1009.20,3.00,17.00,BKN,OVC,M,M,1000.00,1500.00,M,M,RA BR,KDXR 010253Z AUTO 07012G17KT 3SM RA BR BKN010 OVC015 02/01 A2980 RMK AO2 SLP092 P0004 60010 T00170011 58019
DXR,2017-04-01 02:55,-73.4800,41.3700,M,M,M,70.00,11.00,M,29.80,M,3.00,M,OVC,M,M,M,999.00,M,M,M,RA BR,KDXR 010255Z AUTO 07011KT 3SM RA BR OVC009 A2980 RMK MADISHF
DXR,2017-04-01 03:00,-73.4800,41.3700,M,M,M,80.00,13.00,M,29.79,M,4.00,M,OVC,M,M,M,999.00,M,M,M,-RA BR,KDXR 010300Z AUTO 08013KT 4SM -RA BR OVC009 A2979 RMK WND 05V13  MADISHF
DXR,2017-04-01 03:05,-73.4800,41.3700,M,M,M,70.00,9.00,0.01,29.79,M,4.00,M,OVC,M,M,M,999.00,M,M,M,-RA BR,KDXR 010305Z AUTO 07009KT 4SM -RA BR OVC009 A2979 RMK P0001 MADISHF
DXR,2017-04-01 03:10,-73.4800,41.3700,M,M,M,70.00,10.00,0.02,29.79,M,4.00,M,OVC,M,M,M,999.00,M,M,M,-RA BR,KDXR 010310Z AUTO 07010KT 4SM -RA BR OVC009 A2979 RMK P0002 MADISHF
DXR,2017-04-01 03:15,-73.4800,41.3700,M,M,M,60.00,12.00,0.03,29.79,M,3.00,M,OVC,M,M,M,999.00,M,M,M,RA BR,KDXR 010315Z AUTO 06012KT 3SM RA BR OVC009 A2979 RMK P0003 MADISHF
DXR,2017-04-01 03:20,-73.4800,41.3700,M,M,M,60.00,11.00,0.03,29.79,M,3.00,M,OVC,M,M,M,1200.00,M,M,M,-RA BR,KDXR 010320Z AUTO 06011KT 3SM -RA BR OVC012 A2979 RMK P0003 MADISHF
DXR,2017-04-01 03:25,-73.4800,41.3700,M,M,M,70.00,9.00,0.03,29.79,M,4.00,M,OVC,M,M,M,999.00,M,M,M,-RA BR,KDXR 010325Z AUTO 07009KT 4SM -RA BR OVC009 A2979 RMK P0003 MADISHF
DXR,2017-04-01 03:30,-73.4800,41.3700,M,M,M,70.00,10.00,0.04,29.79,M,4.00,M,OVC,M,M,M,999.00,M,M,M,-RA BR,KDXR 010330Z AUTO 07010KT 4SM -RA BR OVC009 A2979 RMK P0004 MADISHF
DXR,2017-04-01 03:35,-73.4800,41.3700,M,M,M,60.00,7.00,0.04,29.79,M,3.50,M,OVC,M,M,M,999.00,M,M,M,-RA BR,KDXR 010335Z AUTO 06007KT 3SM -RA BR OVC009 A2979 RMK P0004 MADISHF
DXR,2017-04-01 03:40,-73.4800,41.3700,M,M,M,70.00,8.00,0.04,29.79,M,3.50,M,OVC,M,M,M,999.00,M,M,M,-RA BR,KDXR 010340Z AUTO 07008KT 3SM -RA BR OVC009 A2979 RMK P0004 MADISHF
DXR,2017-04-01 03:45,-73.4800,41.3700,M,M,M,80.00,10.00,0.04,29.79,M,3.00,M,OVC,M,M,M,1100.00,M,M,M,-RA BR,KDXR 010345Z AUTO 08010KT 3SM -RA BR OVC011 A2979 RMK P0004 MADISHF
DXR,2017-04-01 03:50,-73.4800,41.3700,M,M,M,70.00,13.00,0.05,29.79,M,3.50,M,BKN,OVC,M,M,1100.00,1699.00,M,M,-RA BR,KDXR 010350Z AUTO 07013KT 3SM -RA BR BKN011 OVC016 A2979 RMK P0005 MADISHF
DXR,2017-04-01 03:53,-73.4800,41.3700,35.10,33.10,92.32,70.00,10.00,0.05,29.79,1008.90,4.00,M,BKN,OVC,M,M,1100.00,1700.00,M,M,-RA BR,KDXR 010353Z AUTO 07010KT 4SM -RA BR BKN011 OVC017 02/01 A2979 RMK AO2 SLP089 P0005 T00170006
DXR,2017-04-01 03:55,-73.4800,41.3700,M,M,M,70.00,9.00,M,29.78,M,4.00,M,BKN,OVC,M,M,1100.00,1699.00,M,M,-RA BR,KDXR 010355Z AUTO 07009KT 4SM -RA BR BKN011 OVC016 A2978 RMK MADISHF
DXR,2017-04-01 04:00,-73.4800,41.3700,M,M,M,70.00,10.00,M,29.78,M,4.00,M,BKN,OVC,M,M,1100.00,1699.00,M,M,-RA BR,KDXR 010400Z AUTO 07010KT 4SM -RA BR BKN011 OVC016 A2978 RMK MADISHF
DXR,2017-04-01 04:05,-73.4800,41.3700,M,M,M,70.00,10.00,M,29.78,M,4.00,M,BKN,OVC,M,M,1100.00,1699.00,M,M,-RA BR,KDXR 010405Z AUTO 07010KT 4SM -RA BR BKN011 OVC016 A2978 RMK MADISHF
DXR,2017-04-01 04:10,-73.4800,41.3700,M,M,M,70.00,14.00,M,29.77,M,3.50,M,SCT,OVC,M,M,800.00,1400.00,M,M,-RA BR,KDXR 010410Z AUTO 07014KT 3SM -RA BR SCT008 OVC014 A2977 RMK MADISHF
DXR,2017-04-01 04:12,-73.4800,41.3700,34.00,33.10,96.46,70.00,13.00,0.00,29.77,M,4.00,M,SCT,OVC,M,M,800.00,1400.00,M,M,-RA BR,KDXR 010412Z AUTO 07013KT 4SM -RA BR SCT008 OVC014 01/01 A2977 RMK AO2 P0000 T00110006
DXR,2017-04-01 04:15,-73.4800,41.3700,M,M,M,70.00,11.00,M,29.77,M,4.00,M,BKN,OVC,M,M,999.00,1400.00,M,M,-RA BR,KDXR 010415Z AUTO 07011KT 4SM -RA BR BKN009 OVC014 A2977 RMK MADISHF
DXR,2017-04-01 04:20,-73.4800,41.3700,M,M,M,70.00,13.00,M,29.77,M,4.00,M,BKN,OVC,M,M,999.00,1600.00,M,M,-RA BR,KDXR 010420Z AUTO 07013KT 4SM -RA BR BKN009 OVC016 A2977 RMK MADISHF
DXR,2017-04-01 04:25,-73.4800,41.3700,M,M,M,70.00,12.00,M,29.77,M,4.00,M,OVC,M,M,M,1200.00,M,M,M,-RA BR,KDXR 010425Z AUTO 07012KT 4SM -RA BR OVC012 A2977 RMK MADISHF
DXR,2017-04-01 04:30,-73.4800,41.3700,M,M,M,70.00,10.00,M,29.77,M,3.50,M,BKN,OVC,M,M,999.00,1400.00,M,M,-RA BR,KDXR 010430Z AUTO 07010KT 3SM -RA BR BKN009 OVC014 A2977 RMK MADISHF
DXR,2017-04-01 04:35,-73.4800,41.3700,M,M,M,70.00,11.00,M,29.77,M,4.00,M,BKN,OVC,M,M,999.00,1400.00,M,M,-RA BR,KDXR 010435Z AUTO 07011KT 4SM -RA BR BKN009 OVC014 A2977 RMK MADISHF
DXR,2017-04-01 04:40,-73.4800,41.3700,M,M,M,70.00,9.00,M,29.77,M,4.00,M,BKN,OVC,M,M,999.00,1400.00,M,M,-RA BR,KDXR 010440Z AUTO 07009KT 4SM -RA BR BKN009 OVC014 A2977 RMK MADISHF
DXR,2017-04-01 04:45,-73.4800,41.3700,M,M,M,60.00,8.00,M,29.76,M,4.00,M,BKN,OVC,M,M,999.00,1500.00,M,M,-RA BR,KDXR 010445Z AUTO 06008KT 4SM -RA BR BKN009 OVC015 A2976 RMK MADISHF
DXR,2017-04-01 04:50,-73.4800,41.3700,M,M,M,50.00,10.00,M,29.76,M,4.00,M,BKN,OVC,M,M,999.00,1500.00,M,M,-RA BR,KDXR 010450Z AUTO 05010KT 4SM -RA BR BKN009 OVC015 A2976 RMK MADISHF
DXR,2017-04-01 04:53,-73.4800,41.3700,34.00,33.10,96.46,60.00,10.00,0.00,29.76,1008.00,4.00,M,OVC,M,M,M,800.00,M,M,M,-RA BR,KDXR 010453Z AUTO 06010KT 4SM -RA BR OVC008 01/01 A2976 RMK AO2 SLP080 P0000 T00110006 400560011
DXR,2017-04-01 04:55,-73.4800,41.3700,M,M,M,60.00,10.00,M,29.76,M,4.00,M,OVC,M,M,M,800.00,M,M,M,-RA BR,KDXR 010455Z AUTO 06010KT 4SM -RA BR OVC008 A2976 RMK MADISHF
DXR,2017-04-01 05:00,-73.4800,41.3700,M,M,M,60.00,10.00,M,29.76,M,3.50,M,BKN,OVC,M,M,800.00,1300.00,M,M,-RA BR,KDXR 010500Z AUTO 06010KT 3SM -RA BR BKN008 OVC013 A2976 RMK MADISHF
DXR,2017-04-01 05:05,-73.4800,41.3700,M,M,M,60.00,9.00,M,29.76,M,3.50,M,BKN,OVC,M,M,800.00,1300.00,M,M,-RA BR,KDXR 010505Z AUTO 06009KT 3SM -RA BR BKN008 OVC013 A2976 RMK MADISHF
DXR,2017-04-01 05:10,-73.4800,41.3700,M,M,M,70.00,12.00,M,29.75,M,3.50,M,OVC,M,M,M,800.00,M,M,M,-RA BR,KDXR 010510Z AUTO 07012KT 3SM -RA BR OVC008 A2975 RMK MADISHF
DXR,2017-04-01 05:15,-73.4800,41.3700,M,M,M,60.00,12.00,M,29.75,M,4.00,M,OVC,M,M,M,800.00,M,M,M,-RA BR,KDXR 010515Z AUTO 06012KT 4SM -RA BR OVC008 A2975 RMK CIG 5V10  MADISHF
DXR,2017-04-01 05:20,-73.4800,41.3700,M,M,M,60.00,11.00,M,29.74,M,4.00,M,OVC,M,M,M,800.00,M,M,M,-RA BR,KDXR 010520Z AUTO 06011KT 4SM -RA BR OVC008 A2974 RMK CIG 5V12  MADISHF
DXR,2017-04-01 05:25,-73.4800,41.3700,M,M,M,60.00,10.00,M,29.74,M,5.00,M,BKN,OVC,M,M,800.00,1200.00,M,M,-RA BR,KDXR 010525Z AUTO 06010KT 5SM -RA BR BKN008 OVC012 A2974 RMK CIG 5V10  MADISHF
DXR,2017-04-01 05:30,-73.4800,41.3700,M,M,M,70.00,11.00,M,29.74,M,5.00,M,OVC,M,M,M,800.00,M,M,M,-RA BR,KDXR 010530Z AUTO 07011KT 5SM -RA BR OVC008 A2974 RMK CIG 6V12  MADISHF
DXR,2017-04-01 05:35,-73.4800,41.3700,M,M,M,70.00,12.00,M,29.74,M,5.00,M,OVC,M,M,M,800.00,M,M,M,-RA BR,KDXR 010535Z AUTO 07012KT 5SM -RA BR OVC008 A2974 RMK CIG 6V12  MADISHF
DXR,2017-04-01 05:40,-73.4800,41.3700,M,M,M,70.00,11.00,M,29.73,M,5.00,M,OVC,M,M,M,800.00,M,M,M,-RA BR,KDXR 010540Z AUTO 07011KT 5SM -RA BR OVC008 A2973 RMK CIG 6V12  MADISHF
DXR,2017-04-01 05:45,-73.4800,41.3700,M,M,M,60.00,13.00,M,29.73,M,5.00,M,OVC,M,M,M,800.00,M,M,M,-RA BR,KDXR 010545Z AUTO 06013KT 5SM -RA BR OVC008 A2973 RMK CIG 6V12  MADISHF
DXR,2017-04-01 05:50,-73.4800,41.3700,M,M,M,70.00,12.00,M,29.72,M,5.00,M,OVC,M,M,M,900.00,M,M,M,BR,KDXR 010550Z AUTO 07012KT 5SM BR OVC009 A2972 RMK MADISHF
DXR,2017-04-01 05:53,-73.4800,41.3700,34.00,33.10,96.46,60.00,10.00,0.00,29.72,1006.70,5.00,M,OVC,M,M,M,900.00,M,M,M,BR,KDXR 010553Z AUTO 06010KT 5SM BR OVC009 01/01 A2972 RMK AO2 RAE50UPB32E33 SLP067 P0000 60015 T00110006 10022 20011 58025
DXR,2017-04-01 05:55,-73.4800,41.3700,M,M,M,60.00,11.00,M,29.72,M,5.00,M,OVC,M,M,M,900.00,M,M,M,BR,KDXR 010555Z AUTO 06011KT 5SM BR OVC009 A2972 RMK MADISHF
DXR,2017-04-01 06:00,-73.4800,41.3700,M,M,M,60.00,12.00,M,29.72,M,5.00,M,OVC,M,M,M,900.00,M,M,M,BR,KDXR 010600Z AUTO 06012KT 5SM BR OVC009 A2972 RMK MADISHF
DXR,2017-04-01 06:05,-73.4800,41.3700,M,M,M,M,M,M,29.72,M,4.00,M,OVC,M,M,M,900.00,M,M,M,BR,KDXR 010605Z AUTO /////KT 4SM BR OVC009 A2972 RMK MADISHF
DXR,2017-04-01 06:10,-73.4800,41.3700,M,M,M,50.00,12.00,M,29.72,M,4.00,M,OVC,M,M,M,900.00,M,M,M,BR,KDXR 010610Z AUTO 05012KT 4SM BR OVC009 A2972 RMK MADISHF
DXR,2017-04-01 06:15,-73.4800,41.3700,M,M,M,50.00,13.00,M,29.72,M,4.00,M,BKN,OVC,M,M,900.00,1400.00,M,M,BR,KDXR 010615Z AUTO 05013KT 4SM BR BKN009 OVC014 A2972 RMK MADISHF
DXR,2017-04-01 06:20,-73.4800,41.3700,M,M,M,50.00,12.00,M,29.72,M,4.00,M,OVC,M,M,M,900.00,M,M,M,BR,KDXR 010620Z AUTO 05012KT 4SM BR OVC009 A2972 RMK CIG 7V13  MADISHF
DXR,2017-04-01 06:25,-73.4800,41.3700,M,M,M,60.00,11.00,M,29.72,M,5.00,M,OVC,M,M,M,900.00,M,M,M,-RA BR,KDXR 010625Z AUTO 06011KT 5SM -RA BR OVC009 A2972 RMK CIG 7V13  MADISHF
DXR,2017-04-01 06:30,-73.4800,41.3700,M,M,M,60.00,8.00,0.01,29.72,M,5.00,M,OVC,M,M,M,900.00,M,M,M,-RA BR,KDXR 010630Z AUTO 06008KT 5SM -RA BR OVC009 A2972 RMK P0001 MADISHF
DXR,2017-04-01 06:35,-73.4800,41.3700,M,M,M,50.00,8.00,0.01,29.72,M,5.00,M,OVC,M,M,M,900.00,M,M,M,-RA BR,KDXR 010635Z AUTO 05008KT 5SM -RA BR OVC009 A2972 RMK P0001 MADISHF
DXR,2017-04-01 06:40,-73.4800,41.3700,M,M,M,50.00,10.00,0.01,29.72,M,5.00,M,OVC,M,M,M,900.00,M,M,M,-RA BR,KDXR 010640Z AUTO 05010KT 5SM -RA BR OVC009 A2972 RMK P0001 MADISHF
DXR,2017-04-01 06:45,-73.4800,41.3700,M,M,M,60.00,11.00,0.02,29.72,M,4.00,16.00,OVC,M,M,M,900.00,M,M,M,-RA BR,KDXR 010645Z AUTO 06011G16KT 4SM -RA BR OVC009 A2972 RMK P0002 MADISHF
DXR,2017-04-01 06:50,-73.4800,41.3700,M,M,M,50.00,10.00,0.02,29.71,M,4.00,15.00,OVC,M,M,M,900.00,M,M,M,-RA BR,KDXR 010650Z AUTO 05010G15KT 4SM -RA BR OVC009 A2971 RMK P0002 MADISHF
DXR,2017-04-01 06:53,-73.4800,41.3700,34.00,33.10,96.46,40.00,13.00,0.03,29.71,1006.40,4.00,17.00,OVC,M,M,M,900.00,M,M,M,RA BR,KDXR 010653Z AUTO 04013G17KT 4SM RA BR OVC009 01/01 A2971 RMK AO2 RAB23 SLP064 P0003 T00110006
DXR,2017-04-01 06:55,-73.4800,41.3700,M,M,M,50.00,10.00,M,29.71,M,3.50,M,OVC,M,M,M,900.00,M,M,M,RA BR,KDXR 010655Z AUTO 05010KT 3SM RA BR OVC009 A2971 RMK MADISHF
DXR,2017-04-01 07:00,-73.4800,41.3700,M,M,M,50.00,11.00,M,29.71,M,3.50,M,OVC,M,M,M,900.00,M,M,M,-RA BR,KDXR 010700Z AUTO 05011KT 3SM -RA BR OVC009 A2971 RMK CIG 7V12  MADISHF
DXR,2017-04-01 07:05,-73.4800,41.3700,M,M,M,50.00,12.00,0.01,29.71,M,4.00,17.00,OVC,M,M,M,900.00,M,M,M,-RA BR,KDXR 010705Z AUTO 05012G17KT 4SM -RA BR OVC009 A2971 RMK P0001 CIG 7V12  MADISHF
DXR,2017-04-01 07:10,-73.4800,41.3700,M,M,M,60.00,11.00,0.01,29.71,M,4.00,M,OVC,M,M,M,900.00,M,M,M,-RA BR,KDXR 010710Z AUTO 06011KT 4SM -RA BR OVC009 A2971 RMK P0001 CIG 7V12  MADISHF
DXR,2017-04-01 07:15,-73.4800,41.3700,M,M,M,50.00,10.00,0.01,29.71,M,4.00,M,OVC,M,M,M,900.00,M,M,M,-RA BR,KDXR 010715Z AUTO 05010KT 4SM -RA BR OVC009 A2971 RMK P0001 CIG 7V12  MADISHF
DXR,2017-04-01 07:20,-73.4800,41.3700,M,M,M,50.00,12.00,0.01,29.70,M,4.00,M,BKN,OVC,M,M,900.00,1200.00,M,M,-RA BR,KDXR 010720Z AUTO 05012KT 4SM -RA BR BKN009 OVC012 A2970 RMK P0001 MADISHF
DXR,2017-04-01 07:25,-73.4800,41.3700,M,M,M,40.00,9.00,0.02,29.70,M,4.00,M,BKN,OVC,M,M,900.00,1200.00,M,M,-RA BR,KDXR 010725Z AUTO 04009KT 4SM -RA BR BKN009 OVC012 A2970 RMK P0002 CIG 6V10  MADISHF
DXR,2017-04-01 07:30,-73.4800,41.3700,M,M,M,40.00,9.00,0.02,29.70,M,4.00,16.00,OVC,M,M,M,900.00,M,M,M,-RA BR,KDXR 010730Z AUTO 04009G16KT 4SM -RA BR OVC009 A2970 RMK P0002 CIG 6V13  MADISHF
DXR,2017-04-01 07:35,-73.4800,41.3700,M,M,M,40.00,10.00,0.02,29.69,M,4.00,M,BKN,OVC,M,M,900.00,1200.00,M,M,-RA BR,KDXR 010735Z AUTO 04010KT 4SM -RA BR BKN009 OVC012 A2969 RMK P0002 MADISHF
DXR,2017-04-01 07:40,-73.4800,41.3700,M,M,M,50.00,10.00,0.02,29.69,M,5.00,M,OVC,M,M,M,900.00,M,M,M,-RA BR,KDXR 010740Z AUTO 05010KT 5SM -RA BR OVC009 A2969 RMK P0002 MADISHF
DXR,2017-04-01 07:45,-73.4800,41.3700,M,M,M,40.00,10.00,0.02,29.69,M,5.00,M,OVC,M,M,M,900.00,M,M,M,-RA BR,KDXR 010745Z AUTO 04010KT 5SM -RA BR OVC009 A2969 RMK P0002 MADISHF
DXR,2017-04-01 07:50,-73.4800,41.3700,M,M,M,40.00,10.00,0.02,29.69,M,5.00,M,BKN,OVC,M,M,900.00,1400.00,M,M,-RA BR,KDXR 010750Z AUTO 04010KT 5SM -RA BR BKN009 OVC014 A2969 RMK P0002 MADISHF
DXR,2017-04-01 07:53,-73.4800,41.3700,34.00,33.10,96.46,40.00,12.00,0.02,29.69,1005.70,5.00,17.00,OVC,M,M,M,900.00,M,M,M,-RA BR,KDXR 010753Z AUTO 04012G17KT 5SM -RA BR OVC009 01/01 A2969 RMK AO2 SLP057 P0002 T00110006
DXR,2017-04-01 07:55,-73.4800,41.3700,M,M,M,50.00,9.00,M,29.69,M,5.00,M,OVC,M,M,M,900.00,M,M,M,-RA BR,KDXR 010755Z AUTO 05009KT 5SM -RA BR OVC009 A2969 RMK MADISHF
DXR,2017-04-01 08:00,-73.4800,41.3700,M,M,M,M,M,M,29.69,M,5.00,M,OVC,M,M,M,900.00,M,M,M,BR,KDXR 010800Z AUTO /////KT 5SM BR OVC009 A2969 RMK MADISHF
DXR,2017-04-01 08:05,-73.4800,41.3700,M,M,M,40.00,10.00,M,29.69,M,5.00,15.00,OVC,M,M,M,1100.00,M,M,M,BR,KDXR 010805Z AUTO 04010G15KT 5SM BR OVC011 A2969 RMK MADISHF
DXR,2017-04-01 08:07,-73.4800,41.3700,34.00,33.10,96.46,40.00,9.00,0.00,29.69,M,5.00,17.00,OVC,M,M,M,1100.00,M,M,M,BR,KDXR 010807Z AUTO 04009G17KT 5SM BR OVC011 01/01 A2969 RMK AO2 RAE0756 P0000 T00110006
DXR,2017-04-01 08:10,-73.4800,41.3700,M,M,M,50.00,8.00,M,29.70,M,4.00,M,OVC,M,M,M,1100.00,M,M,M,BR,KDXR 010810Z AUTO 05008KT 4SM BR OVC011 A2970 RMK MADISHF
DXR,2017-04-01 08:15,-73.4800,41.3700,M,M,M,30.00,8.00,M,29.70,M,4.00,M,OVC,M,M,M,1100.00,M,M,M,BR,KDXR 010815Z AUTO 03008KT 4SM BR OVC011 A2970 RMK MADISHF
DXR,2017-04-01 08:20,-73.4800,41.3700,M,M,M,30.00,7.00,M,29.70,M,4.00,M,OVC,M,M,M,1100.00,M,M,M,BR,KDXR 010820Z AUTO 03007KT 4SM BR OVC011 A2970 RMK MADISHF
DXR,2017-04-01 08:25,-73.4800,41.3700,M,M,M,30.00,6.00,M,29.69,M,4.00,M,OVC,M,M,M,1100.00,M,M,M,BR,KDXR 010825Z AUTO 03006KT 4SM BR OVC011 A2969 RMK CIG 8V14  MADISHF
DXR,2017-04-01 08:30,-73.4800,41.3700,M,M,M,30.00,9.00,M,29.69,M,4.00,15.00,OVC,M,M,M,1100.00,M,M,M,BR,KDXR 010830Z AUTO 03009G15KT 4SM BR OVC011 A2969 RMK WND 35V07 CIG 7V14  MADISHF
DXR,2017-04-01 08:35,-73.4800,41.3700,M,M,M,40.00,9.00,M,29.70,M,4.00,M,OVC,M,M,M,999.00,M,M,M,BR,KDXR 010835Z AUTO 04009KT 4SM BR OVC009 A2970 RMK MADISHF
DXR,2017-04-01 08:40,-73.4800,41.3700,M,M,M,40.00,9.00,M,29.69,M,4.00,15.00,OVC,M,M,M,999.00,M,M,M,BR,KDXR 010840Z AUTO 04009G15KT 4SM BR OVC009 A2969 RMK MADISHF
DXR,2017-04-01 08:45,-73.4800,41.3700,M,M,M,40.00,9.00,M,29.69,M,4.00,M,OVC,M,M,M,999.00,M,M,M,BR,KDXR 010845Z AUTO 04009KT 4SM BR OVC009 A2969 RMK MADISHF
DXR,2017-04-01 08:50,-73.4800,41.3700,M,M,M,40.00,11.00,M,29.69,M,4.00,16.00,OVC,M,M,M,999.00,M,M,M,BR,KDXR 010850Z AUTO 04011G16KT 4SM BR OVC009 A2969 RMK CIG 7V13  MADISHF
DXR,2017-04-01 08:53,-73.4800,41.3700,34.00,33.10,96.46,50.00,12.00,0.00,29.69,1005.80,4.00,17.00,OVC,M,M,M,1000.00,M,M,M,BR,KDXR 010853Z AUTO 05012G17KT 4SM BR OVC010 01/01 A2969 RMK AO2 RAE0756 SLP058 P0000 60005 T00110006 55009
DXR,2017-04-01 08:55,-73.4800,41.3700,M,M,M,30.00,10.00,M,29.70,M,4.00,M,OVC,M,M,M,999.00,M,M,M,BR,KDXR 010855Z AUTO 03010KT 4SM BR OVC009 A2970 RMK MADISHF
DXR,2017-04-01 09:00,-73.4800,41.3700,M,M,M,M,M,M,29.70,M,4.00,17.00,OVC,M,M,M,1200.00,M,M,M,BR,KDXR 010900Z AUTO /////G17KT 4SM BR OVC012 A2970 RMK WND 35V06  MADISHF
DXR,2017-04-01 09:05,-73.4800,41.3700,M,M,M,40.00,9.00,M,29.70,M,4.00,14.00,OVC,M,M,M,999.00,M,M,M,BR,KDXR 010905Z AUTO 04009G14KT 4SM BR OVC009 A2970 RMK CIG 8V15  MADISHF
DXR,2017-04-01 09:10,-73.4800,41.3700,M,M,M,40.00,8.00,M,29.70,M,4.00,M,OVC,M,M,M,999.00,M,M,M,BR,KDXR 010910Z AUTO 04008KT 4SM BR OVC009 A2970 RMK CIG 8V15  MADISHF
DXR,2017-04-01 09:15,-73.4800,41.3700,M,M,M,30.00,9.00,M,29.70,M,5.00,M,OVC,M,M,M,999.00,M,M,M,BR,KDXR 010915Z AUTO 03009KT 5SM BR OVC009 A2970 RMK MADISHF
DXR,2017-04-01 09:20,-73.4800,41.3700,M,M,M,30.00,8.00,M,29.70,M,5.00,M,BKN,OVC,M,M,999.00,1400.00,M,M,BR,KDXR 010920Z AUTO 03008KT 5SM BR BKN009 OVC014 A2970 RMK MADISHF
DXR,2017-04-01 09:25,-73.4800,41.3700,M,M,M,30.00,9.00,M,29.71,M,5.00,M,OVC,M,M,M,999.00,M,M,M,BR,KDXR 010925Z AUTO 03009KT 5SM BR OVC009 A2971 RMK MADISHF
DXR,2017-04-01 09:30,-73.4800,41.3700,M,M,M,40.00,8.00,M,29.71,M,6.00,M,OVC,M,M,M,999.00,M,M,M,BR,KDXR 010930Z AUTO 04008KT 6SM BR OVC009 A2971 RMK MADISHF
DXR,2017-04-01 09:35,-73.4800,41.3700,M,M,M,30.00,8.00,M,29.71,M,6.00,M,OVC,M,M,M,1100.00,M,M,M,BR,KDXR 010935Z AUTO 03008KT 6SM BR OVC011 A2971 RMK MADISHF
DXR,2017-04-01 09:40,-73.4800,41.3700,M,M,M,50.00,5.00,M,29.71,M,6.00,M,OVC,M,M,M,1100.00,M,M,M,BR,KDXR 010940Z AUTO 05005KT 6SM BR OVC011 A2971 RMK MADISHF
DXR,2017-04-01 09:45,-73.4800,41.3700,M,M,M,30.00,8.00,M,29.71,M,6.00,M,OVC,M,M,M,1100.00,M,M,M,BR,KDXR 010945Z AUTO 03008KT 6SM BR OVC011 A2971 RMK MADISHF
DXR,2017-04-01 09:50,-73.4800,41.3700,M,M,M,30.00,8.00,M,29.71,M,6.00,M,OVC,M,M,M,1100.00,M,M,M,BR,KDXR 010950Z AUTO 03008KT 6SM BR OVC011 A2971 RMK MADISHF
DXR,2017-04-01 09:53,-73.4800,41.3700,35.10,33.10,92.32,30.00,8.00,0.00,29.71,1006.40,5.00,M,OVC,M,M,M,1100.00,M,M,M,BR,KDXR 010953Z AUTO 03008KT 5SM BR OVC011 02/01 A2971 RMK AO2 SLP064 T00170006
DXR,2017-04-01 09:55,-73.4800,41.3700,M,M,M,20.00,7.00,M,29.71,M,5.00,M,OVC,M,M,M,1100.00,M,M,M,BR,KDXR 010955Z AUTO 02007KT 5SM BR OVC011 A2971 RMK MADISHF
DXR,2017-04-01 10:00,-73.4800,41.3700,M,M,M,20.00,9.00,M,29.72,M,4.00,M,OVC,M,M,M,1100.00,M,M,M,BR,KDXR 011000Z AUTO 02009KT 4SM BR OVC011 A2972 RMK MADISHF
DXR,2017-04-01 10:05,-73.4800,41.3700,M,M,M,30.00,6.00,M,29.72,M,4.00,M,OVC,M,M,M,1100.00,M,M,M,BR,KDXR 011005Z AUTO 03006KT 4SM BR OVC011 A2972 RMK MADISHF
DXR,2017-04-01 10:10,-73.4800,41.3700,M,M,M,30.00,6.00,M,29.72,M,3.50,M,OVC,M,M,M,1100.00,M,M,M,BR,KDXR 011010Z AUTO 03006KT 3SM BR OVC011 A2972 RMK MADISHF
DXR,2017-04-01 10:15,-73.4800,41.3700,M,M,M,20.00,8.00,M,29.72,M,3.50,M,OVC,M,M,M,1100.00,M,M,M,BR,KDXR 011015Z AUTO 02008KT 3SM BR OVC011 A2972 RMK MADISHF
DXR,2017-04-01 10:20,-73.4800,41.3700,M,M,M,20.00,10.00,M,29.72,M,3.50,M,OVC,M,M,M,1100.00,M,M,M,BR,KDXR 011020Z AUTO 02010KT 3SM BR OVC011 A2972 RMK MADISHF
DXR,2017-04-01 10:25,-73.4800,41.3700,M,M,M,20.00,8.00,0.00,29.73,M,3.00,M,OVC,M,M,M,1100.00,M,M,M,UP BR,KDXR 011025Z AUTO 02008KT 3SM UP BR OVC011 A2973 RMK P0000 MADISHF
DXR,2017-04-01 10:30,-73.4800,41.3700,M,M,M,20.00,10.00,0.00,29.73,M,3.00,M,OVC,M,M,M,1100.00,M,M,M,UP BR,KDXR 011030Z AUTO 02010KT 3SM UP BR OVC011 A2973 RMK P0000 MADISHF
DXR,2017-04-01 10:35,-73.4800,41.3700,M,M,M,20.00,8.00,0.00,29.73,M,3.50,M,OVC,M,M,M,1100.00,M,M,M,UP BR,KDXR 011035Z AUTO 02008KT 3SM UP BR OVC011 A2973 RMK P0000 WND 35V05  MADISHF
DXR,2017-04-01 10:40,-73.4800,41.3700,M,M,M,20.00,9.00,0.00,29.73,M,3.50,M,OVC,M,M,M,1200.00,M,M,M,UP BR,KDXR 011040Z AUTO 02009KT 3SM UP BR OVC012 A2973 RMK P0000 MADISHF
DXR,2017-04-01 10:45,-73.4800,41.3700,M,M,M,20.00,7.00,0.00,29.73,M,3.00,M,OVC,M,M,M,1200.00,M,M,M,UP BR,KDXR 011045Z AUTO 02007KT 3SM UP BR OVC012 A2973 RMK P0000 MADISHF
DXR,2017-04-01 10:50,-73.4800,41.3700,M,M,M,20.00,10.00,M,29.73,M,3.00,M,OVC,M,M,M,1200.00,M,M,M,-RA BR,KDXR 011050Z AUTO 02010KT 3SM -RA BR OVC012 A2973 RMK MADISHF
DXR,2017-04-01 10:53,-73.4800,41.3700,35.10,34.00,95.71,10.00,9.00,0.00,29.73,1007.00,3.00,M,OVC,M,M,M,1200.00,M,M,M,-RA BR,KDXR 011053Z AUTO 01009KT 3SM -RA BR OVC012 02/01 A2973 RMK AO2 UPB22E49RAB49 SLP070 P0000 T00170011
DXR,2017-04-01 10:55,-73.4800,41.3700,M,M,M,20.00,9.00,M,29.73,M,3.50,M,OVC,M,M,M,1200.00,M,M,M,-RA BR,KDXR 011055Z AUTO 02009KT 3SM -RA BR OVC012 A2973 RMK MADISHF
DXR,2017-04-01 11:00,-73.4800,41.3700,M,M,M,360.00,9.00,M,29.73,M,3.00,M,OVC,M,M,M,999.00,M,M,M,-RA BR,KDXR 011100Z AUTO 36009KT 3SM -RA BR OVC009 A2973 RMK MADISHF
DXR,2017-04-01 11:05,-73.4800,41.3700,M,M,M,10.00,9.00,M,29.74,M,2.50,M,OVC,M,M,M,999.00,M,M,M,-RA BR,KDXR 011105Z AUTO 01009KT 2 1/2SM -RA BR OVC009 A2974 RMK MADISHF
DXR,2017-04-01 11:07,-73.4800,41.3700,35.10,34.00,95.71,10.00,10.00,0.00,29.74,M,2.50,M,OVC,M,M,M,1000.00,M,M,M,-RA BR,KDXR 011107Z 01010KT 2 1/2SM -RA BR OVC010 02/01 A2974 RMK AO2 P0000 T00170011
DXR,2017-04-01 11:10,-73.4800,41.3700,M,M,M,10.00,9.00,M,29.74,M,2.50,M,OVC,M,M,M,1100.00,M,M,M,-RA BR,KDXR 011110Z AUTO 01009KT 2 1/2SM -RA BR OVC011 A2974 RMK MADISHF
DXR,2017-04-01 11:15,-73.4800,41.3700,M,M,M,10.00,8.00,M,29.74,M,2.00,M,OVC,M,M,M,1100.00,M,M,M,-RA BR,KDXR 011115Z AUTO 01008KT 2SM -RA BR OVC011 A2974 RMK MADISHF
DXR,2017-04-01 11:20,-73.4800,41.3700,M,M,M,10.00,10.00,M,29.75,M,2.00,M,OVC,M,M,M,1100.00,M,M,M,-RA BR,KDXR 011120Z AUTO 01010KT 2SM -RA BR OVC011 A2975 RMK MADISHF
DXR,2017-04-01 11:25,-73.4800,41.3700,M,M,M,10.00,9.00,M,29.75,M,2.00,M,BKN,OVC,M,M,1100.00,1400.00,M,M,-RA BR,KDXR 011125Z AUTO 01009KT 2SM -RA BR BKN011 OVC014 A2975 RMK MADISHF
DXR,2017-04-01 11:30,-73.4800,41.3700,M,M,M,360.00,9.00,M,29.75,M,2.50,M,OVC,M,M,M,999.00,M,M,M,-RA BR,KDXR 011130Z AUTO 36009KT 2 1/2SM -RA BR OVC009 A2975 RMK MADISHF
DXR,2017-04-01 11:35,-73.4800,41.3700,M,M,M,10.00,9.00,M,29.75,M,2.50,M,OVC,M,M,M,999.00,M,M,M,-RA BR,KDXR 011135Z AUTO 01009KT 2 1/2SM -RA BR OVC009 A2975 RMK MADISHF
DXR,2017-04-01 11:40,-73.4800,41.3700,M,M,M,10.00,9.00,M,29.75,M,2.50,M,OVC,M,M,M,999.00,M,M,M,-RA BR,KDXR 011140Z AUTO 01009KT 2 1/2SM -RA BR OVC009 A2975 RMK MADISHF
DXR,2017-04-01 11:45,-73.4800,41.3700,M,M,M,M,M,M,29.75,M,2.50,M,OVC,M,M,M,999.00,M,M,M,-RA BR,KDXR 011145Z AUTO /////KT 2 1/2SM -RA BR OVC009 A2975 RMK MADISHF
DXR,2017-04-01 11:50,-73.4800,41.3700,M,M,M,M,M,M,29.76,M,2.50,16.00,OVC,M,M,M,1300.00,M,M,M,-RA BR,KDXR 011150Z AUTO /////G16KT 2 1/2SM -RA BR OVC013 A2976 RMK MADISHF
DXR,2017-04-01 11:53,-73.4800,41.3700,36.00,34.00,92.35,10.00,9.00,0.00,29.76,1007.90,2.50,M,OVC,M,M,M,1300.00,M,M,M,-RA BR,KDXR 011153Z 01009KT 2 1/2SM -RA BR OVC013 02/01 A2976 RMK AO2 SLP079 P0000 60005 70062 T00220011 10022 20011 53021
DXR,2017-04-01 11:55,-73.4800,41.3700,M,M,M,10.00,9.00,M,29.76,M,2.50,M,OVC,M,M,M,1300.00,M,M,M,-RA BR,KDXR 011155Z AUTO 01009KT 2 1/2SM -RA BR OVC013 A2976 RMK MADISHF
DXR,2017-04-01 12:00,-73.4800,41.3700,M,M,M,10.00,10.00,M,29.76,M,3.00,M,OVC,M,M,M,1300.00,M,M,M,-RA BR,KDXR 011200Z AUTO 01010KT 3SM -RA BR OVC013 A2976 RMK MADISHF
DXR,2017-04-01 12:02,-73.4800,41.3700,36.00,34.00,92.35,360.00,12.00,0.00,29.76,M,3.00,M,BKN,OVC,M,M,1300.00,1800.00,M,M,UP BR,KDXR 011202Z 36012KT 3SM UP BR BKN013 OVC018 02/01 A2976 RMK AO2 RAE01UPB01 P0000 T00220011
DXR,2017-04-01 12:05,-73.4800,41.3700,M,M,M,10.00,11.00,0.00,29.76,M,2.50,17.00,BKN,OVC,M,M,1300.00,1800.00,M,M,UP BR,KDXR 011205Z AUTO 01011G17KT 2 1/2SM UP BR BKN013 OVC018 A2976 RMK P0000 MADISHF
DXR,2017-04-01 12:09,-73.4800,41.3700,36.00,34.00,92.35,10.00,9.00,0.00,29.76,M,2.50,17.00,BKN,OVC,M,M,1300.00,1800.00,M,M,BR,KDXR 011209Z 01009G17KT 2 1/2SM BR BKN013 OVC018 02/01 A2976 RMK AO2 RAE01UPB01E07 P0000 T00220011
DXR,2017-04-01 12:10,-73.4800,41.3700,M,M,M,10.00,11.00,M,29.76,M,2.50,20.00,BKN,OVC,M,M,1200.00,1800.00,M,M,BR,KDXR 011210Z AUTO 01011G20KT 2 1/2SM BR BKN012 OVC018 A2976 RMK MADISHF
DXR,2017-04-01 12:15,-73.4800,41.3700,M,M,M,10.00,11.00,M,29.76,M,2.50,M,OVC,M,M,M,1400.00,M,M,M,BR,KDXR 011215Z AUTO 01011KT 2 1/2SM BR OVC014 A2976 RMK MADISHF
DXR,2017-04-01 12:20,-73.4800,41.3700,M,M,M,10.00,10.00,M,29.76,M,2.50,M,BKN,OVC,M,M,1200.00,1699.00,M,M,BR,KDXR 011220Z AUTO 01010KT 2 1/2SM BR BKN012 OVC016 A2976 RMK MADISHF
DXR,2017-04-01 12:25,-73.4800,41.3700,M,M,M,10.00,9.00,M,29.76,M,2.50,M,BKN,OVC,M,M,1200.00,1699.00,M,M,BR,KDXR 011225Z AUTO 01009KT 2 1/2SM BR BKN012 OVC016 A2976 RMK MADISHF
DXR,2017-04-01 12:30,-73.4800,41.3700,M,M,M,10.00,9.00,M,29.76,M,2.50,M,BKN,OVC,M,M,1200.00,1699.00,M,M,BR,KDXR 011230Z AUTO 01009KT 2 1/2SM BR BKN012 OVC016 A2976 RMK MADISHF
DXR,2017-04-01 12:35,-73.4800,41.3700,M,M,M,10.00,11.00,M,29.76,M,2.50,M,OVC,M,M,M,1400.00,M,M,M,BR,KDXR 011235Z AUTO 01011KT 2 1/2SM BR OVC014 A2976 RMK MADISHF
DXR,2017-04-01 12:40,-73.4800,41.3700,M,M,M,10.00,9.00,M,29.76,M,2.50,M,OVC,M,M,M,1200.00,M,M,M,BR,KDXR 011240Z AUTO 01009KT 2 1/2SM BR OVC012 A2976 RMK MADISHF
DXR,2017-04-01 12:45,-73.4800,41.3700,M,M,M,10.00,11.00,M,29.77,M,2.50,16.00,OVC,M,M,M,1200.00,M,M,M,BR,KDXR 011245Z AUTO 01011G16KT 2 1/2SM BR OVC012 A2977 RMK MADISHF
DXR,2017-04-01 12:50,-73.4800,41.3700,M,M,M,10.00,13.00,M,29.77,M,2.50,M,OVC,M,M,M,1200.00,M,M,M,BR,KDXR 011250Z AUTO 01013KT 2 1/2SM BR OVC012 A2977 RMK MADISHF
DXR,2017-04-01 12:53,-73.4800,41.3700,36.00,34.00,92.35,10.00,10.00,0.00,29.77,1008.20,4.00,19.00,OVC,M,M,M,1200.00,M,M,M,BR,KDXR 011253Z 01010G19KT 4SM BR OVC012 02/01 A2977 RMK AO2 RAE01UPB01E07 SLP082 P0000 T00220011
DXR,2017-04-01 12:55,-73.4800,41.3700,M,M,M,M,M,M,29.77,M,5.00,M,OVC,M,M,M,1200.00,M,M,M,BR,KDXR 011255Z AUTO /////KT 5SM BR OVC012 A2977 RMK MADISHF
DXR,2017-04-01 13:00,-73.4800,41.3700,M,M,M,360.00,9.00,M,29.77,M,5.00,M,OVC,M,M,M,1200.00,M,M,M,BR,KDXR 011300Z AUTO 36009KT 5SM BR OVC012 A2977 RMK MADISHF
DXR,2017-04-01 13:05,-73.4800,41.3700,M,M,M,20.00,9.00,M,29.77,M,6.00,M,OVC,M,M,M,1400.00,M,M,M,BR,KDXR 011305Z AUTO 02009KT 6SM BR OVC014 A2977 RMK MADISHF
DXR,2017-04-01 13:10,-73.4800,41.3700,M,M,M,360.00,9.00,M,29.77,M,8.00,M,OVC,M,M,M,1400.00,M,M,M,M,KDXR 011310Z AUTO 36009KT 8SM OVC014 A2977 RMK MADISHF
DXR,2017-04-01 13:15,-73.4800,41.3700,M,M,M,M,M,M,29.77,M,8.00,M,OVC,M,M,M,1400.00,M,M,M,M,KDXR 011315Z AUTO /////KT 8SM OVC014 A2977 RMK MADISHF
DXR,2017-04-01 13:20,-73.4800,41.3700,M,M,M,M,M,M,29.78,M,8.00,M,OVC,M,M,M,1400.00,M,M,M,M,KDXR 011320Z AUTO /////KT 8SM OVC014 A2978 RMK MADISHF
DXR,2017-04-01 13:25,-73.4800,41.3700,M,M,M,M,M,M,29.78,M,7.00,M,OVC,M,M,M,1400.00,M,M,M,M,KDXR 011325Z AUTO /////KT 7SM OVC014 A2978 RMK MADISHF
DXR,2017-04-01 13:30,-73.4800,41.3700,M,M,M,360.00,9.00,M,29.78,M,8.00,16.00,OVC,M,M,M,1600.00,M,M,M,M,KDXR 011330Z AUTO 36009G16KT 8SM OVC016 A2978 RMK MADISHF
DXR,2017-04-01 13:33,-73.4800,41.3700,37.00,34.00,88.78,10.00,12.00,0.00,29.78,M,8.00,21.00,OVC,M,M,M,1600.00,M,M,M,M,KDXR 011333Z 01012G21KT 8SM OVC016 03/01 A2978 RMK AO2 T00280011
DXR,2017-04-01 13:35,-73.4800,41.3700,M,M,M,10.00,10.00,M,29.78,M,8.00,M,OVC,M,M,M,1600.00,M,M,M,M,KDXR 011335Z AUTO 01010KT 8SM OVC016 A2978 RMK WND 34V04  MADISHF
DXR,2017-04-01 13:40,-73.4800,41.3700,M,M,M,360.00,9.00,M,29.79,M,9.00,M,OVC,M,M,M,1600.00,M,M,M,M,KDXR 011340Z AUTO 36009KT 9SM OVC016 A2979 RMK MADISHF
DXR,2017-04-01 13:45,-73.4800,41.3700,M,M,M,350.00,9.00,M,29.79,M,9.00,M,OVC,M,M,M,1600.00,M,M,M,M,KDXR 011345Z AUTO 35009KT 9SM OVC016 A2979 RMK MADISHF
DXR,2017-04-01 13:50,-73.4800,41.3700,M,M,M,350.00,8.00,M,29.79,M,10.00,M,OVC,M,M,M,1600.00,M,M,M,M,KDXR 011350Z AUTO 35008KT 10SM OVC016 A2979 RMK MADISHF
DXR,2017-04-01 13:53,-73.4800,41.3700,37.90,35.10,89.53,350.00,8.00,0.00,29.79,1009.00,10.00,M,OVC,M,M,M,1600.00,M,M,M,M,KDXR 011353Z 35008KT 10SM OVC016 03/02 A2979 RMK AO2 SLP090 T00330017
DXR,2017-04-01 13:55,-73.4800,41.3700,M,M,M,360.00,9.00,M,29.79,M,9.00,M,OVC,M,M,M,1600.00,M,M,M,M,KDXR 011355Z AUTO 36009KT 9SM OVC016 A2979 RMK MADISHF
DXR,2017-04-01 14:00,-73.4800,41.3700,M,M,M,350.00,9.00,M,29.79,M,9.00,M,OVC,M,M,M,1699.00,M,M,M,M,KDXR 011400Z AUTO 35009KT 9SM OVC016 A2979 RMK MADISHF
DXR,2017-04-01 14:05,-73.4800,41.3700,M,M,M,360.00,8.00,M,29.80,M,8.00,M,OVC,M,M,M,1699.00,M,M,M,M,KDXR 011405Z AUTO 36008KT 8SM OVC016 A2980 RMK MADISHF
DXR,2017-04-01 14:10,-73.4800,41.3700,M,M,M,360.00,10.00,M,29.80,M,6.00,M,OVC,M,M,M,1699.00,M,M,M,BR,KDXR 011410Z AUTO 36010KT 6SM BR OVC016 A2980 RMK MADISHF
DXR,2017-04-01 14:15,-73.4800,41.3700,M,M,M,360.00,11.00,M,29.80,M,6.00,M,OVC,M,M,M,1699.00,M,M,M,BR,KDXR 011415Z AUTO 36011KT 6SM BR OVC016 A2980 RMK MADISHF
DXR,2017-04-01 14:20,-73.4800,41.3700,M,M,M,350.00,10.00,M,29.80,M,5.00,M,OVC,M,M,M,1699.00,M,M,M,BR,KDXR 011420Z AUTO 35010KT 5SM BR OVC016 A2980 RMK MADISHF
DXR,2017-04-01 14:25,-73.4800,41.3700,M,M,M,360.00,8.00,M,29.80,M,4.00,M,OVC,M,M,M,1699.00,M,M,M,BR,KDXR 011425Z AUTO 36008KT 4SM BR OVC016 A2980 RMK MADISHF
DXR,2017-04-01 14:30,-73.4800,41.3700,M,M,M,10.00,10.00,M,29.81,M,4.00,M,BKN,OVC,M,M,1500.00,2100.00,M,M,BR,KDXR 011430Z AUTO 01010KT 4SM BR BKN015 OVC021 A2981 RMK MADISHF
DXR,2017-04-01 14:35,-73.4800,41.3700,M,M,M,360.00,9.00,M,29.81,M,4.00,15.00,BKN,OVC,M,M,1500.00,2100.00,M,M,BR,KDXR 011435Z AUTO 36009G15KT 4SM BR BKN015 OVC021 A2981 RMK MADISHF
DXR,2017-04-01 14:40,-73.4800,41.3700,M,M,M,10.00,8.00,M,29.81,M,4.00,M,BKN,OVC,M,M,1500.00,2100.00,M,M,BR,KDXR 011440Z AUTO 01008KT 4SM BR BKN015 OVC021 A2981 RMK MADISHF
DXR,2017-04-01 14:45,-73.4800,41.3700,M,M,M,340.00,11.00,M,29.81,M,5.00,M,BKN,OVC,M,M,1500.00,2100.00,M,M,BR,KDXR 011445Z AUTO 34011KT 5SM BR BKN015 OVC021 A2981 RMK MADISHF
DXR,2017-04-01 14:50,-73.4800,41.3700,M,M,M,360.00,9.00,M,29.81,M,7.00,M,BKN,OVC,M,M,1500.00,2100.00,M,M,M,KDXR 011450Z AUTO 36009KT 7SM BKN015 OVC021 A2981 RMK MADISHF
DXR,2017-04-01 14:53,-73.4800,41.3700,37.90,35.10,89.53,360.00,10.00,0.00,29.81,1009.70,8.00,M,OVC,M,M,M,1700.00,M,M,M,M,KDXR 011453Z 36010KT 8SM OVC017 03/02 A2981 RMK AO2 SLP097 60000 T00330017 53017
DXR,2017-04-01 14:55,-73.4800,41.3700,M,M,M,M,M,M,29.81,M,8.00,M,BKN,OVC,M,M,1699.00,2200.00,M,M,M,KDXR 011455Z AUTO /////KT 8SM BKN016 OVC022 A2981 RMK MADISHF
DXR,2017-04-01 15:00,-73.4800,41.3700,M,M,M,M,M,M,29.81,M,7.00,M,BKN,OVC,M,M,1699.00,2200.00,M,M,M,KDXR 011500Z AUTO /////KT 7SM BKN016 OVC022 A2981 RMK MADISHF
DXR,2017-04-01 15:05,-73.4800,41.3700,M,M,M,M,M,M,29.81,M,6.00,M,BKN,OVC,M,M,1699.00,2200.00,M,M,BR,KDXR 011505Z AUTO /////KT 6SM BR BKN016 OVC022 A2981 RMK MADISHF
DXR,2017-04-01 15:10,-73.4800,41.3700,M,M,M,360.00,11.00,M,29.81,M,5.00,17.00,OVC,M,M,M,1699.00,M,M,M,BR,KDXR 011510Z AUTO 36011G17KT 5SM BR OVC016 A2981 RMK MADISHF
DXR,2017-04-01 15:15,-73.4800,41.3700,M,M,M,M,M,M,29.81,M,5.00,M,OVC,M,M,M,1699.00,M,M,M,BR,KDXR 011515Z AUTO /////KT 5SM BR OVC016 A2981 RMK MADISHF
DXR,2017-04-01 15:20,-73.4800,41.3700,M,M,M,360.00,11.00,M,29.81,M,5.00,M,OVC,M,M,M,1699.00,M,M,M,BR,KDXR 011520Z AUTO 36011KT 5SM BR OVC016 A2981 RMK MADISHF
DXR,2017-04-01 15:25,-73.4800,41.3700,M,M,M,360.00,12.00,M,29.82,M,6.00,M,BKN,OVC,M,M,1500.00,2200.00,M,M,BR,KDXR 011525Z AUTO 36012KT 6SM BR BKN015 OVC022 A2982 RMK MADISHF
DXR,2017-04-01 15:30,-73.4800,41.3700,M,M,M,10.00,13.00,M,29.82,M,7.00,18.00,BKN,OVC,M,M,1500.00,2200.00,M,M,M,KDXR 011530Z AUTO 01013G18KT 7SM BKN015 OVC022 A2982 RMK MADISHF
DXR,2017-04-01 15:35,-73.4800,41.3700,M,M,M,10.00,12.00,M,29.82,M,7.00,M,BKN,OVC,M,M,1699.00,2200.00,M,M,M,KDXR 011535Z AUTO 01012KT 7SM BKN016 OVC022 A2982 RMK MADISHF
DXR,2017-04-01 15:40,-73.4800,41.3700,M,M,M,10.00,10.00,M,29.82,M,8.00,M,OVC,M,M,M,1699.00,M,M,M,M,KDXR 011540Z AUTO 01010KT 8SM OVC016 A2982 RMK MADISHF
DXR,2017-04-01 15:45,-73.4800,41.3700,M,M,M,M,M,M,29.82,M,10.00,M,BKN,OVC,M,M,1699.00,2300.00,M,M,M,KDXR 011545Z AUTO /////KT 10SM BKN016 OVC023 A2982 RMK MADISHF
DXR,2017-04-01 15:50,-73.4800,41.3700,M,M,M,10.00,12.00,M,29.82,M,9.00,M,BKN,OVC,M,M,1699.00,2300.00,M,M,M,KDXR 011550Z AUTO 01012KT 9SM BKN016 OVC023 A2982 RMK MADISHF
DXR,2017-04-01 15:53,-73.4800,41.3700,39.00,35.10,85.76,350.00,14.00,0.00,29.82,1010.00,9.00,20.00,BKN,OVC,M,M,1700.00,2300.00,M,M,M,KDXR 011553Z 35014G20KT 9SM BKN017 OVC023 04/02 A2982 RMK AO2 SLP100 T00390017
DXR,2017-04-01 15:55,-73.4800,41.3700,M,M,M,360.00,11.00,M,29.82,M,9.00,16.00,BKN,OVC,M,M,1699.00,2300.00,M,M,M,KDXR 011555Z AUTO 36011G16KT 9SM BKN016 OVC023 A2982 RMK MADISHF
DXR,2017-04-01 16:00,-73.4800,41.3700,M,M,M,M,M,M,29.82,M,10.00,M,BKN,OVC,M,M,1699.00,2300.00,M,M,M,KDXR 011600Z AUTO /////KT 10SM BKN016 OVC023 A2982 RMK MADISHF
DXR,2017-04-01 16:05,-73.4800,41.3700,M,M,M,10.00,8.00,M,29.82,M,10.00,M,BKN,OVC,M,M,1699.00,2400.00,M,M,M,KDXR 011605Z AUTO 01008KT 10SM BKN016 OVC024 A2982 RMK WND 32V03  MADISHF
DXR,2017-04-01 16:10,-73.4800,41.3700,M,M,M,M,M,M,29.82,M,10.00,M,BKN,OVC,M,M,1900.00,2400.00,M,M,M,KDXR 011610Z AUTO /////KT 10SM BKN019 OVC024 A2982 RMK MADISHF
DXR,2017-04-01 16:15,-73.4800,41.3700,M,M,M,M,M,M,29.82,M,9.00,M,BKN,OVC,M,M,1900.00,2400.00,M,M,M,KDXR 011615Z AUTO /////KT 9SM BKN019 OVC024 A2982 RMK MADISHF
DXR,2017-04-01 16:20,-73.4800,41.3700,M,M,M,M,M,M,29.82,M,10.00,M,BKN,OVC,M,M,1800.00,2300.00,M,M,M,KDXR 011620Z AUTO /////KT 10SM BKN018 OVC023 A2982 RMK MADISHF
DXR,2017-04-01 16:25,-73.4800,41.3700,M,M,M,M,M,M,29.82,M,10.00,M,OVC,M,M,M,2100.00,M,M,M,M,KDXR 011625Z AUTO /////KT 10SM OVC021 A2982 RMK MADISHF
DXR,2017-04-01 16:30,-73.4800,41.3700,M,M,M,M,M,M,29.83,M,10.00,M,OVC,M,M,M,2100.00,M,M,M,M,KDXR 011630Z AUTO /////KT 10SM OVC021 A2983 RMK MADISHF
DXR,2017-04-01 16:35,-73.4800,41.3700,M,M,M,360.00,10.00,M,29.83,M,10.00,M,OVC,M,M,M,2100.00,M,M,M,M,KDXR 011635Z AUTO 36010KT 10SM OVC021 A2983 RMK MADISHF
DXR,2017-04-01 16:40,-73.4800,41.3700,M,M,M,M,M,M,29.83,M,10.00,18.00,OVC,M,M,M,2300.00,M,M,M,M,KDXR 011640Z AUTO /////G18KT 10SM OVC023 A2983 RMK MADISHF
DXR,2017-04-01 16:45,-73.4800,41.3700,M,M,M,360.00,12.00,M,29.83,M,10.00,M,OVC,M,M,M,2300.00,M,M,M,M,KDXR 011645Z AUTO 36012KT 10SM OVC023 A2983 RMK MADISHF
DXR,2017-04-01 16:50,-73.4800,41.3700,M,M,M,360.00,11.00,M,29.83,M,10.00,M,BKN,OVC,M,M,2300.00,2700.00,M,M,M,KDXR 011650Z AUTO 36011KT 10SM BKN023 OVC027 A2983 RMK MADISHF
DXR,2017-04-01 16:53,-73.4800,41.3700,41.00,34.00,75.94,20.00,12.00,0.00,29.84,1010.60,10.00,18.00,OVC,M,M,M,2300.00,M,M,M,M,KDXR 011653Z 02012G18KT 10SM OVC023 05/01 A2984 RMK AO2 SLP106 T00500011
DXR,2017-04-01 16:55,-73.4800,41.3700,M,M,M,360.00,11.00,M,29.84,M,10.00,M,OVC,M,M,M,2300.00,M,M,M,M,KDXR 011655Z AUTO 36011KT 10SM OVC023 A2984 RMK WND 34V04  MADISHF
DXR,2017-04-01 17:00,-73.4800,41.3700,M,M,M,350.00,12.00,M,29.84,M,10.00,M,OVC,M,M,M,2300.00,M,M,M,M,KDXR 011700Z AUTO 35012KT 10SM OVC023 A2984 RMK MADISHF
DXR,2017-04-01 17:05,-73.4800,41.3700,M,M,M,M,M,M,29.84,M,10.00,M,OVC,M,M,M,2300.00,M,M,M,M,KDXR 011705Z AUTO /////KT 10SM OVC023 A2984 RMK MADISHF
DXR,2017-04-01 17:10,-73.4800,41.3700,M,M,M,350.00,10.00,M,29.84,M,10.00,M,OVC,M,M,M,2400.00,M,M,M,M,KDXR 011710Z AUTO 35010KT 10SM OVC024 A2984 RMK MADISHF
DXR,2017-04-01 17:15,-73.4800,41.3700,M,M,M,10.00,10.00,M,29.84,M,10.00,M,OVC,M,M,M,2400.00,M,M,M,M,KDXR 011715Z AUTO 01010KT 10SM OVC024 A2984 RMK MADISHF
DXR,2017-04-01 17:20,-73.4800,41.3700,M,M,M,M,M,M,29.84,M,10.00,M,OVC,M,M,M,2400.00,M,M,M,M,KDXR 011720Z AUTO /////KT 10SM OVC024 A2984 RMK MADISHF
DXR,2017-04-01 17:25,-73.4800,41.3700,M,M,M,M,M,M,29.84,M,10.00,M,OVC,M,M,M,2400.00,M,M,M,M,KDXR 011725Z AUTO /////KT 10SM OVC024 A2984 RMK MADISHF
DXR,2017-04-01 17:30,-73.4800,41.3700,M,M,M,350.00,10.00,M,29.85,M,10.00,M,OVC,M,M,M,2500.00,M,M,M,M,KDXR 011730Z AUTO 35010KT 10SM OVC025 A2985 RMK MADISHF
DXR,2017-04-01 17:35,-73.4800,41.3700,M,M,M,M,M,M,29.84,M,8.00,M,OVC,M,M,M,2500.00,M,M,M,M,KDXR 011735Z AUTO /////KT 8SM OVC025 A2984 RMK MADISHF
DXR,2017-04-01 17:40,-73.4800,41.3700,M,M,M,M,M,M,29.84,M,6.00,M,OVC,M,M,M,2500.00,M,M,M,-RA,KDXR 011740Z AUTO /////KT 6SM -RA OVC025 A2984 RMK MADISHF
DXR,2017-04-01 17:45,-73.4800,41.3700,M,M,M,M,M,M,29.84,M,8.00,20.00,BKN,OVC,M,M,2400.00,3100.00,M,M,-RA,KDXR 011745Z AUTO /////G20KT 8SM -RA BKN024 OVC031 A2984 RMK MADISHF
DXR,2017-04-01 17:50,-73.4800,41.3700,M,M,M,360.00,12.00,M,29.84,M,10.00,M,BKN,OVC,M,M,2200.00,2900.00,M,M,M,KDXR 011750Z AUTO 36012KT 10SM BKN022 OVC029 A2984 RMK MADISHF
DXR,2017-04-01 17:53,-73.4800,41.3700,41.00,35.10,79.34,10.00,13.00,0.00,29.84,1010.60,10.00,20.00,BKN,OVC,M,M,2200.00,2900.00,M,M,M,KDXR 011753Z 01013G20KT 10SM BKN022 OVC029 05/02 A2984 RMK AO2 RAB36E49 SLP106 P0000 60000 T00500017 10050 20022 51009
DXR,2017-04-01 17:55,-73.4800,41.3700,M,M,M,M,M,M,29.84,M,8.00,M,BKN,OVC,M,M,2200.00,2900.00,M,M,M,KDXR 011755Z AUTO /////KT 8SM BKN022 OVC029 A2984 RMK MADISHF
DXR,2017-04-01 18:00,-73.4800,41.3700,M,M,M,M,M,M,29.84,M,7.00,M,BKN,BKN,OVC,M,2200.00,2700.00,3300.00,M,M,KDXR 011800Z AUTO /////KT 7SM BKN022 BKN027 OVC033 A2984 RMK MADISHF
DXR,2017-04-01 18:05,-73.4800,41.3700,M,M,M,M,M,M,29.84,M,8.00,M,BKN,OVC,M,M,2200.00,3300.00,M,M,M,KDXR 011805Z AUTO /////KT 8SM BKN022 OVC033 A2984 RMK MADISHF
DXR,2017-04-01 18:10,-73.4800,41.3700,M,M,M,M,M,M,29.84,M,9.00,20.00,SCT,BKN,OVC,M,2200.00,2700.00,3300.00,M,M,KDXR 011810Z AUTO /////G20KT 9SM SCT022 BKN027 OVC033 A2984 RMK MADISHF
DXR,2017-04-01 18:15,-73.4800,41.3700,M,M,M,M,M,M,29.84,M,9.00,M,BKN,BKN,OVC,M,1999.00,2700.00,3300.00,M,M,KDXR 011815Z AUTO /////KT 9SM BKN019 BKN027 OVC033 A2984 RMK MADISHF
DXR,2017-04-01 18:20,-73.4800,41.3700,M,M,M,M,M,M,29.84,M,10.00,M,SCT,BKN,OVC,M,1999.00,2600.00,3300.00,M,M,KDXR 011820Z AUTO /////KT 10SM SCT019 BKN026 OVC033 A2984 RMK MADISHF
DXR,2017-04-01 18:25,-73.4800,41.3700,M,M,M,M,M,M,29.84,M,10.00,M,BKN,BKN,OVC,M,1999.00,2600.00,3300.00,M,M,KDXR 011825Z AUTO /////KT 10SM BKN019 BKN026 OVC033 A2984 RMK MADISHF
DXR,2017-04-01 18:30,-73.4800,41.3700,M,M,M,10.00,13.00,M,29.85,M,10.00,19.00,BKN,OVC,M,M,2200.00,2800.00,M,M,M,KDXR 011830Z AUTO 01013G19KT 10SM BKN022 OVC028 A2985 RMK MADISHF
DXR,2017-04-01 18:35,-73.4800,41.3700,M,M,M,M,M,M,29.85,M,10.00,18.00,OVC,M,M,M,2200.00,M,M,M,M,KDXR 011835Z AUTO /////G18KT 10SM OVC022 A2985 RMK MADISHF
DXR,2017-04-01 18:40,-73.4800,41.3700,M,M,M,M,M,M,29.85,M,10.00,M,OVC,M,M,M,2400.00,M,M,M,M,KDXR 011840Z AUTO /////KT 10SM OVC024 A2985 RMK MADISHF
DXR,2017-04-01 18:45,-73.4800,41.3700,M,M,M,M,M,M,29.85,M,10.00,M,OVC,M,M,M,2400.00,M,M,M,M,KDXR 011845Z AUTO /////KT 10SM OVC024 A2985 RMK MADISHF
DXR,2017-04-01 18:50,-73.4800,41.3700,M,M,M,M,M,M,29.85,M,10.00,M,BKN,OVC,M,M,2400.00,2900.00,M,M,M,KDXR 011850Z AUTO /////KT 10SM BKN024 OVC029 A2985 RMK MADISHF
DXR,2017-04-01 18:53,-73.4800,41.3700,41.00,33.10,73.25,340.00,13.00,0.00,29.85,1011.00,10.00,21.00,BKN,OVC,M,M,2400.00,2900.00,M,M,M,KDXR 011853Z 34013G21KT 10SM BKN024 OVC029 05/01 A2985 RMK AO2 SLP110 T00500006
DXR,2017-04-01 18:55,-73.4800,41.3700,M,M,M,350.00,10.00,M,29.85,M,10.00,15.00,OVC,M,M,M,2400.00,M,M,M,M,KDXR 011855Z AUTO 35010G15KT 10SM OVC024 A2985 RMK MADISHF
DXR,2017-04-01 19:00,-73.4800,41.3700,M,M,M,340.00,12.00,M,29.86,M,10.00,M,BKN,OVC,M,M,2400.00,2900.00,M,M,M,KDXR 011900Z AUTO 34012KT 10SM BKN024 OVC029 A2986 RMK MADISHF
DXR,2017-04-01 19:05,-73.4800,41.3700,M,M,M,330.00,10.00,M,29.86,M,10.00,M,OVC,M,M,M,2400.00,M,M,M,M,KDXR 011905Z AUTO 33010KT 10SM OVC024 A2986 RMK MADISHF
DXR,2017-04-01 19:10,-73.4800,41.3700,M,M,M,M,M,M,29.86,M,9.00,M,BKN,OVC,M,M,2300.00,2900.00,M,M,M,KDXR 011910Z AUTO /////KT 9SM BKN023 OVC029 A2986 RMK MADISHF
DXR,2017-04-01 19:15,-73.4800,41.3700,M,M,M,360.00,9.00,M,29.87,M,9.00,M,BKN,OVC,M,M,2300.00,2900.00,M,M,M,KDXR 011915Z AUTO 36009KT 9SM BKN023 OVC029 A2987 RMK MADISHF
DXR,2017-04-01 19:20,-73.4800,41.3700,M,M,M,360.00,10.00,M,29.87,M,10.00,M,BKN,OVC,M,M,2300.00,2900.00,M,M,M,KDXR 011920Z AUTO 36010KT 10SM BKN023 OVC029 A2987 RMK MADISHF
DXR,2017-04-01 19:25,-73.4800,41.3700,M,M,M,350.00,10.00,M,29.87,M,10.00,M,BKN,OVC,M,M,2300.00,2900.00,M,M,M,KDXR 011925Z AUTO 35010KT 10SM BKN023 OVC029 A2987 RMK MADISHF
DXR,2017-04-01 19:30,-73.4800,41.3700,M,M,M,360.00,9.00,M,29.87,M,10.00,M,BKN,OVC,M,M,2300.00,2900.00,M,M,M,KDXR 011930Z AUTO 36009KT 10SM BKN023 OVC029 A2987 RMK MADISHF
DXR,2017-04-01 19:35,-73.4800,41.3700,M,M,M,350.00,10.00,M,29.87,M,10.00,M,BKN,OVC,M,M,2300.00,3000.00,M,M,M,KDXR 011935Z AUTO 35010KT 10SM BKN023 OVC030 A2987 RMK MADISHF
DXR,2017-04-01 19:40,-73.4800,41.3700,M,M,M,340.00,12.00,M,29.87,M,9.00,M,BKN,OVC,M,M,2500.00,3000.00,M,M,-RA,KDXR 011940Z AUTO 34012KT 9SM -RA BKN025 OVC030 A2987 RMK MADISHF
DXR,2017-04-01 19:45,-73.4800,41.3700,M,M,M,330.00,7.00,M,29.87,M,9.00,M,BKN,OVC,M,M,2300.00,3000.00,M,M,-RA,KDXR 011945Z AUTO 33007KT 9SM -RA BKN023 OVC030 A2987 RMK MADISHF
DXR,2017-04-01 19:50,-73.4800,41.3700,M,M,M,350.00,13.00,M,29.88,M,7.00,M,BKN,BKN,OVC,M,2100.00,2700.00,3200.00,M,-RA,KDXR 011950Z AUTO 35013KT 7SM -RA BKN021 BKN027 OVC032 A2988 RMK MADISHF
DXR,2017-04-01 19:53,-73.4800,41.3700,41.00,35.10,79.34,350.00,11.00,0.00,29.88,1012.00,6.00,17.00,BKN,OVC,M,M,2100.00,2900.00,M,M,-RA,KDXR 011953Z 35011G17KT 6SM -RA BKN021 OVC029 05/02 A2988 RMK AO2 RAB39 SLP120 P0000 T00500017
DXR,2017-04-01 19:55,-73.4800,41.3700,M,M,M,360.00,10.00,M,29.88,M,5.00,M,BKN,BKN,OVC,M,2100.00,2600.00,3200.00,M,-RA,KDXR 011955Z AUTO 36010KT 5SM -RA BKN021 BKN026 OVC032 A2988 RMK MADISHF
DXR,2017-04-01 20:00,-73.4800,41.3700,M,M,M,10.00,11.00,M,29.88,M,6.00,M,FEW,BKN,OVC,M,1900.00,2500.00,3399.00,M,-RA,KDXR 012000Z AUTO 01011KT 6SM -RA FEW019 BKN025 OVC033 A2988 RMK MADISHF
DXR,2017-04-01 20:05,-73.4800,41.3700,M,M,M,M,M,M,29.89,M,7.00,M,SCT,BKN,OVC,M,1699.00,2300.00,3800.00,M,M,KDXR 012005Z AUTO /////KT 7SM SCT016 BKN023 OVC038 A2989 RMK MADISHF
DXR,2017-04-01 20:10,-73.4800,41.3700,M,M,M,350.00,7.00,M,29.89,M,7.00,M,SCT,BKN,OVC,M,1500.00,2100.00,3500.00,M,M,KDXR 012010Z AUTO 35007KT 7SM SCT015 BKN021 OVC035 A2989 RMK MADISHF
DXR,2017-04-01 20:15,-73.4800,41.3700,M,M,M,350.00,10.00,M,29.89,M,5.00,M,BKN,BKN,OVC,M,1500.00,1900.00,3500.00,M,-RA BR,KDXR 012015Z AUTO 35010KT 5SM -RA BR BKN015 BKN019 OVC035 A2989 RMK MADISHF
DXR,2017-04-01 20:20,-73.4800,41.3700,M,M,M,360.00,7.00,M,29.90,M,4.00,M,BKN,BKN,OVC,M,1300.00,2700.00,3900.00,M,-RA BR,KDXR 012020Z AUTO 36007KT 4SM -RA BR BKN013 BKN027 OVC039 A2990 RMK MADISHF
DXR,2017-04-01 20:24,-73.4800,41.3700,42.10,39.00,88.67,350.00,7.00,0.00,29.90,M,6.00,M,BKN,BKN,OVC,M,1300.00,3500.00,5000.00,M,-RA BR,KDXR 012024Z 35007KT 6SM -RA BR BKN013 BKN035 OVC050 06/04 A2990 RMK AO2 P0000 T00560039
DXR,2017-04-01 20:25,-73.4800,41.3700,M,M,M,350.00,7.00,M,29.90,M,6.00,M,BKN,OVC,M,M,1300.00,5000.00,M,M,-RA BR,KDXR 012025Z AUTO 35007KT 6SM -RA BR BKN013 OVC050 A2990 RMK MADISHF
DXR,2017-04-01 20:30,-73.4800,41.3700,M,M,M,360.00,9.00,M,29.90,M,10.00,M,BKN,BKN,OVC,M,1300.00,1900.00,5000.00,M,M,KDXR 012030Z AUTO 36009KT 10SM BKN013 BKN019 OVC050 A2990 RMK MADISHF
DXR,2017-04-01 20:35,-73.4800,41.3700,M,M,M,350.00,11.00,M,29.90,M,10.00,M,BKN,OVC,M,M,1300.00,1900.00,M,M,-RA,KDXR 012035Z AUTO 35011KT 10SM -RA BKN013 OVC019 A2990 RMK MADISHF
DXR,2017-04-01 20:40,-73.4800,41.3700,M,M,M,340.00,9.00,M,29.91,M,10.00,M,BKN,BKN,OVC,M,1300.00,1800.00,5500.00,M,-RA,KDXR 012040Z AUTO 34009KT 10SM -RA BKN013 BKN018 OVC055 A2991 RMK MADISHF
DXR,2017-04-01 20:45,-73.4800,41.3700,M,M,M,10.00,9.00,M,29.91,M,10.00,M,SCT,BKN,OVC,M,1300.00,1999.00,5000.00,M,-RA,KDXR 012045Z AUTO 01009KT 10SM -RA SCT013 BKN019 OVC050 A2991 RMK MADISHF
DXR,2017-04-01 20:50,-73.4800,41.3700,M,M,M,360.00,10.00,M,29.90,M,8.00,M,SCT,BKN,OVC,M,1300.00,1800.00,4900.00,M,-RA,KDXR 012050Z AUTO 36010KT 8SM -RA SCT013 BKN018 OVC049 A2990 RMK MADISHF
DXR,2017-04-01 20:53,-73.4800,41.3700,41.00,37.00,85.54,360.00,10.00,0.00,29.90,1012.90,8.00,M,FEW,BKN,OVC,M,1300.00,1800.00,5500.00,M,-RA,KDXR 012053Z 36010KT 8SM -RA FEW013 BKN018 OVC055 05/03 A2990 RMK AO2 SLP129 P0000 60000 T00500028 53023
DXR,2017-04-01 20:55,-73.4800,41.3700,M,M,M,M,M,M,29.91,M,8.00,M,FEW,BKN,OVC,M,1300.00,1800.00,5500.00,M,-RA,KDXR 012055Z AUTO /////KT 8SM -RA FEW013 BKN018 OVC055 A2991 RMK MADISHF
DXR,2017-04-01 21:00,-73.4800,41.3700,M,M,M,360.00,10.00,M,29.91,M,8.00,M,SCT,BKN,OVC,M,1600.00,3000.00,5500.00,M,-RA,KDXR 012100Z AUTO 36010KT 8SM -RA SCT016 BKN030 OVC055 A2991 RMK MADISHF
DXR,2017-04-01 21:05,-73.4800,41.3700,M,M,M,340.00,10.00,M,29.91,M,9.00,M,FEW,BKN,OVC,M,1300.00,1800.00,5500.00,M,-RA,KDXR 012105Z AUTO 34010KT 9SM -RA FEW013 BKN018 OVC055 A2991 RMK MADISHF
DXR,2017-04-01 21:10,-73.4800,41.3700,M,M,M,360.00,11.00,M,29.92,M,10.00,M,FEW,BKN,OVC,M,1300.00,1800.00,5500.00,M,-RA,KDXR 012110Z AUTO 36011KT 10SM -RA FEW013 BKN018 OVC055 A2992 RMK MADISHF
DXR,2017-04-01 21:15,-73.4800,41.3700,M,M,M,350.00,8.00,M,29.92,M,10.00,M,FEW,BKN,OVC,M,1300.00,1800.00,5500.00,M,-RA,KDXR 012115Z AUTO 35008KT 10SM -RA FEW013 BKN018 OVC055 A2992 RMK MADISHF
DXR,2017-04-01 21:20,-73.4800,41.3700,M,M,M,360.00,10.00,M,29.92,M,10.00,M,FEW,BKN,OVC,M,1300.00,1800.00,5500.00,M,-RA,KDXR 012120Z AUTO 36010KT 10SM -RA FEW013 BKN018 OVC055 A2992 RMK MADISHF
DXR,2017-04-01 21:25,-73.4800,41.3700,M,M,M,10.00,7.00,M,29.92,M,10.00,M,FEW,BKN,OVC,M,1300.00,1800.00,5500.00,M,M,KDXR 012125Z AUTO 01007KT 10SM FEW013 BKN018 OVC055 A2992 RMK MADISHF
DXR,2017-04-01 21:30,-73.4800,41.3700,M,M,M,10.00,9.00,M,29.92,M,10.00,M,FEW,BKN,OVC,M,1300.00,1800.00,5500.00,M,M,KDXR 012130Z AUTO 01009KT 10SM FEW013 BKN018 OVC055 A2992 RMK MADISHF
DXR,2017-04-01 21:35,-73.4800,41.3700,M,M,M,20.00,10.00,M,29.92,M,10.00,M,FEW,BKN,OVC,M,1300.00,1800.00,5500.00,M,M,KDXR 012135Z AUTO 02010KT 10SM FEW013 BKN018 OVC055 A2992 RMK MADISHF
DXR,2017-04-01 21:40,-73.4800,41.3700,M,M,M,20.00,10.00,M,29.93,M,10.00,M,FEW,BKN,OVC,M,1300.00,1800.00,5500.00,M,M,KDXR 012140Z AUTO 02010KT 10SM FEW013 BKN018 OVC055 A2993 RMK MADISHF
DXR,2017-04-01 21:45,-73.4800,41.3700,M,M,M,20.00,10.00,M,29.93,M,10.00,M,FEW,BKN,OVC,M,1300.00,1800.00,5500.00,M,M,KDXR 012145Z AUTO 02010KT 10SM FEW013 BKN018 OVC055 A2993 RMK MADISHF
DXR,2017-04-01 21:50,-73.4800,41.3700,M,M,M,10.00,8.00,M,29.93,M,10.00,M,FEW,BKN,OVC,M,1300.00,1800.00,5500.00,M,M,KDXR 012150Z AUTO 01008KT 10SM FEW013 BKN018 OVC055 A2993 RMK MADISHF
DXR,2017-04-01 21:53,-73.4800,41.3700,41.00,36.00,82.22,10.00,8.00,0.00,29.93,1013.90,7.00,M,FEW,BKN,OVC,M,1300.00,1800.00,5500.00,M,M,KDXR 012153Z 01008KT 7SM FEW013 BKN018 OVC055 05/02 A2993 RMK AO2 RAE24 SLP139 P0000 T00500022
DXR,2017-04-01 21:55,-73.4800,41.3700,M,M,M,360.00,7.00,M,29.94,M,7.00,M,FEW,BKN,OVC,M,1800.00,2500.00,4200.00,M,M,KDXR 012155Z AUTO 36007KT 7SM FEW018 BKN025 OVC042 A2994 RMK MADISHF
DXR,2017-04-01 22:00,-73.4800,41.3700,M,M,M,10.00,11.00,M,29.94,M,7.00,M,SCT,BKN,OVC,M,2200.00,2700.00,4400.00,M,M,KDXR 012200Z AUTO 01011KT 7SM SCT022 BKN027 OVC044 A2994 RMK MADISHF
DXR,2017-04-01 22:05,-73.4800,41.3700,M,M,M,10.00,10.00,M,29.94,M,10.00,M,FEW,BKN,OVC,M,1900.00,2900.00,4400.00,M,M,KDXR 012205Z AUTO 01010KT 10SM FEW019 BKN029 OVC044 A2994 RMK MADISHF
DXR,2017-04-01 22:10,-73.4800,41.3700,M,M,M,350.00,9.00,M,29.95,M,10.00,M,BKN,BKN,OVC,M,2400.00,2900.00,4500.00,M,M,KDXR 012210Z AUTO 35009KT 10SM BKN024 BKN029 OVC045 A2995 RMK MADISHF
DXR,2017-04-01 22:15,-73.4800,41.3700,M,M,M,360.00,11.00,M,29.95,M,10.00,M,BKN,BKN,OVC,M,2400.00,2900.00,4500.00,M,M,KDXR 012215Z AUTO 36011KT 10SM BKN024 BKN029 OVC045 A2995 RMK WND 33V03  MADISHF
DXR,2017-04-01 22:20,-73.4800,41.3700,M,M,M,M,M,M,29.95,M,10.00,16.00,SCT,BKN,OVC,M,2300.00,2900.00,4500.00,M,M,KDXR 012220Z AUTO /////G16KT 10SM SCT023 BKN029 OVC045 A2995 RMK MADISHF
DXR,2017-04-01 22:25,-73.4800,41.3700,M,M,M,M,M,M,29.96,M,10.00,M,FEW,BKN,OVC,M,1300.00,1800.00,4500.00,M,M,KDXR 012225Z AUTO /////KT 10SM FEW013 BKN018 OVC045 A2996 RMK MADISHF
DXR,2017-04-01 22:30,-73.4800,41.3700,M,M,M,360.00,8.00,M,29.96,M,10.00,M,FEW,BKN,OVC,M,1300.00,1800.00,4500.00,M,M,KDXR 012230Z AUTO 36008KT 10SM FEW013 BKN018 OVC045 A2996 RMK MADISHF
DXR,2017-04-01 22:35,-73.4800,41.3700,M,M,M,360.00,7.00,M,29.96,M,10.00,M,FEW,BKN,OVC,M,1300.00,1800.00,4500.00,M,M,KDXR 012235Z AUTO 36007KT 10SM FEW013 BKN018 OVC045 A2996 RMK MADISHF
DXR,2017-04-01 22:40,-73.4800,41.3700,M,M,M,350.00,9.00,M,29.96,M,10.00,M,FEW,BKN,OVC,M,1300.00,1800.00,4500.00,M,M,KDXR 012240Z AUTO 35009KT 10SM FEW013 BKN018 OVC045 A2996 RMK MADISHF
DXR,2017-04-01 22:45,-73.4800,41.3700,M,M,M,20.00,9.00,M,29.95,M,10.00,M,FEW,BKN,OVC,M,1300.00,1800.00,4500.00,M,M,KDXR 012245Z AUTO 02009KT 10SM FEW013 BKN018 OVC045 A2995 RMK MADISHF
DXR,2017-04-01 22:50,-73.4800,41.3700,M,M,M,20.00,10.00,M,29.95,M,10.00,M,OVC,M,M,M,4500.00,M,M,M,M,KDXR 012250Z AUTO 02010KT 10SM OVC045 A2995 RMK MADISHF
DXR,2017-04-01 22:53,-73.4800,41.3700,41.00,34.00,75.94,30.00,8.00,0.00,29.96,1014.60,10.00,M,BKN,OVC,M,M,4300.00,8500.00,M,M,M,KDXR 012253Z 03008KT 10SM BKN043 OVC085 05/01 A2996 RMK AO2 SLP146 T00500011
DXR,2017-04-01 22:55,-73.4800,41.3700,M,M,M,10.00,11.00,M,29.96,M,10.00,M,BKN,OVC,M,M,4300.00,8500.00,M,M,M,KDXR 012255Z AUTO 01011KT 10SM BKN043 OVC085 A2996 RMK MADISHF
DXR,2017-04-01 23:00,-73.4800,41.3700,M,M,M,M,M,M,29.96,M,10.00,M,BKN,OVC,M,M,4300.00,8500.00,M,M,M,KDXR 012300Z AUTO /////KT 10SM BKN043 OVC085 A2996 RMK MADISHF
DXR,2017-04-01 23:05,-73.4800,41.3700,M,M,M,350.00,10.00,M,29.96,M,10.00,M,SCT,OVC,M,M,4300.00,8500.00,M,M,M,KDXR 012305Z AUTO 35010KT 10SM SCT043 OVC085 A2996 RMK MADISHF
DXR,2017-04-01 23:10,-73.4800,41.3700,M,M,M,350.00,12.00,M,29.97,M,10.00,M,SCT,OVC,M,M,4300.00,7999.00,M,M,M,KDXR 012310Z AUTO 35012KT 10SM SCT043 OVC079 A2997 RMK MADISHF
DXR,2017-04-01 23:15,-73.4800,41.3700,M,M,M,350.00,10.00,M,29.97,M,10.00,M,SCT,OVC,M,M,4500.00,7999.00,M,M,M,KDXR 012315Z AUTO 35010KT 10SM SCT045 OVC079 A2997 RMK MADISHF
DXR,2017-04-01 23:20,-73.4800,41.3700,M,M,M,350.00,9.00,M,29.97,M,10.00,M,FEW,OVC,M,M,4500.00,7999.00,M,M,M,KDXR 012320Z AUTO 35009KT 10SM FEW045 OVC079 A2997 RMK MADISHF
DXR,2017-04-01 23:25,-73.4800,41.3700,M,M,M,340.00,11.00,M,29.98,M,10.00,M,FEW,OVC,M,M,4500.00,7999.00,M,M,M,KDXR 012325Z AUTO 34011KT 10SM FEW045 OVC079 A2998 RMK MADISHF
DXR,2017-04-01 23:30,-73.4800,41.3700,M,M,M,350.00,7.00,M,29.98,M,10.00,M,SCT,OVC,M,M,4500.00,7999.00,M,M,M,KDXR 012330Z AUTO 35007KT 10SM SCT045 OVC079 A2998 RMK MADISHF
DXR,2017-04-01 23:35,-73.4800,41.3700,M,M,M,340.00,8.00,M,29.98,M,10.00,M,BKN,OVC,M,M,4500.00,7999.00,M,M,M,KDXR 012335Z AUTO 34008KT 10SM BKN045 OVC079 A2998 RMK MADISHF
DXR,2017-04-01 23:40,-73.4800,41.3700,M,M,M,350.00,7.00,M,29.98,M,10.00,M,BKN,OVC,M,M,4500.00,7999.00,M,M,M,KDXR 012340Z AUTO 35007KT 10SM BKN045 OVC079 A2998 RMK MADISHF
DXR,2017-04-01 23:45,-73.4800,41.3700,M,M,M,340.00,7.00,M,29.98,M,10.00,M,BKN,OVC,M,M,4700.00,7999.00,M,M,M,KDXR 012345Z AUTO 34007KT 10SM BKN047 OVC079 A2998 RMK MADISHF
DXR,2017-04-01 23:50,-73.4800,41.3700,M,M,M,340.00,7.00,M,29.98,M,10.00,M,BKN,OVC,M,M,4700.00,7999.00,M,M,M,KDXR 012350Z AUTO 34007KT 10SM BKN047 OVC079 A2998 RMK MADISHF
DXR,2017-04-01 23:53,-73.4800,41.3700,41.00,33.10,73.25,350.00,8.00,0.00,29.98,1015.40,10.00,M,BKN,OVC,M,M,4700.00,8000.00,M,M,M,KDXR 012353Z 35008KT 10SM BKN047 OVC080 05/01 A2998 RMK AO2 SLP154 60000 T00500006 10056 20044 51025
DXR,2017-04-01 23:55,-73.4800,41.3700,M,M,M,350.00,9.00,M,29.98,M,10.00,M,SCT,OVC,M,M,4700.00,7999.00,M,M,M,KDXR 012355Z AUTO 35009KT 10SM SCT047 OVC079 A2998 RMK MADISHF
