#DEBUG: Format Typ    -> comma
#DEBUG: Time Period   -> 2017-04-01 00:00:00+00:00 2017-04-02 00:00:00+00:00
#DEBUG: Time Zone     -> Etc/UTC
#DEBUG: Data Contact   -> daryl herzmann akrherz@iastate.edu 515-294-5978
#DEBUG: Entries Found -> -1
station,valid,lon,lat,tmpf, dwpf, relh, drct, sknt, p01i, alti, mslp, vsby, gust, skyc1, skyc2, skyc3, skyc4, skyl1, skyl2, skyl3, skyl4, presentwx, metar
DYL,2017-04-01 00:00,-75.1223,40.3331,M,M,M,70.00,6.00,0.01,29.67,M,10.00,M,OVC,M,M,M,600.00,M,M,M,M,KDYL 010000Z AUTO 07006KT 10SM OVC006 A2967 RMK P0001 VRB06KT  MADISHF
DYL,2017-04-01 00:05,-75.1223,40.3331,M,M,M,60.00,8.00,0.01,29.67,M,10.00,M,OVC,M,M,M,600.00,M,M,M,M,KDYL 010005Z AUTO 06008KT 10SM OVC006 A2967 RMK P0001 WND 02V11  MADISHF
DYL,2017-04-01 00:10,-75.1223,40.3331,M,M,M,50.00,6.00,0.01,29.67,M,10.00,M,OVC,M,M,M,600.00,M,M,M,M,KDYL 010010Z AUTO 05006KT 10SM OVC006 A2967 RMK P0001 VRB06KT  MADISHF
DYL,2017-04-01 00:15,-75.1223,40.3331,M,M,M,60.00,5.00,0.01,29.67,M,10.00,M,OVC,M,M,M,600.00,M,M,M,-RA,KDYL 010015Z AUTO 06005KT 10SM -RA OVC006 A2967 RMK P0001 VRB05KT  MADISHF
DYL,2017-04-01 00:20,-75.1223,40.3331,M,M,M,60.00,8.00,0.01,29.67,M,9.00,M,OVC,M,M,M,600.00,M,M,M,-RA,KDYL 010020Z AUTO 06008KT 9SM -RA OVC006 A2967 RMK P0001 WND 04V10  MADISHF
DYL,2017-04-01 00:25,-75.1223,40.3331,M,M,M,60.00,5.00,0.02,29.67,M,8.00,M,OVC,M,M,M,600.00,M,M,M,-RA,KDYL 010025Z AUTO 06005KT 8SM -RA OVC006 A2967 RMK P0002 VRB05KT  MADISHF
DYL,2017-04-01 00:30,-75.1223,40.3331,M,M,M,50.00,6.00,0.04,29.67,M,6.00,M,OVC,M,M,M,600.00,M,M,M,RA BR,KDYL 010030Z AUTO 05006KT 6SM RA BR OVC006 A2967 RMK P0004 VRB06KT  MADISHF
DYL,2017-04-01 00:35,-75.1223,40.3331,M,M,M,70.00,5.00,0.05,29.66,M,5.00,M,OVC,M,M,M,600.00,M,M,M,RA BR,KDYL 010035Z AUTO 07005KT 5SM RA BR OVC006 A2966 RMK P0005 VRB05KT  MADISHF
DYL,2017-04-01 00:40,-75.1223,40.3331,M,M,M,50.00,7.00,0.06,29.66,M,5.00,M,OVC,M,M,M,600.00,M,M,M,RA BR,KDYL 010040Z AUTO 05007KT 5SM RA BR OVC006 A2966 RMK P0006 WND 02V08  MADISHF
DYL,2017-04-01 00:45,-75.1223,40.3331,M,M,M,40.00,6.00,0.07,29.66,M,5.00,M,OVC,M,M,M,600.00,M,M,M,RA BR,KDYL 010045Z AUTO 04006KT 5SM RA BR OVC006 A2966 RMK P0007 VRB06KT  MADISHF
DYL,2017-04-01 00:50,-75.1223,40.3331,M,M,M,50.00,5.00,0.07,29.67,M,6.00,M,OVC,M,M,M,600.00,M,M,M,-RA BR,KDYL 010050Z AUTO 05005KT 6SM -RA BR OVC006 A2967 RMK P0007 VRB05KT  MADISHF
DYL,2017-04-01 00:54,-75.1223,40.3331,41.00,41.00,100.00,60.00,9.00,0.07,29.67,1005.10,8.00,17.00,OVC,M,M,M,600.00,M,M,M,-RA,KDYL 010054Z AUTO 06009G17KT 030V130 8SM -RA OVC006 05/05 A2967 RMK AO2 RAB15 SLP051 P0007 T00500050 $
DYL,2017-04-01 00:55,-75.1223,40.3331,M,M,M,50.00,8.00,M,29.67,M,9.00,M,OVC,M,M,M,600.00,M,M,M,-RA,KDYL 010055Z AUTO 05008KT 9SM -RA OVC006 A2967 RMK WND 02V08  MADISHF
DYL,2017-04-01 01:00,-75.1223,40.3331,M,M,M,50.00,8.00,0.01,29.67,M,10.00,M,OVC,M,M,M,600.00,M,M,M,-RA,KDYL 010100Z AUTO 05008KT 10SM -RA OVC006 A2967 RMK P0001 MADISHF
DYL,2017-04-01 01:05,-75.1223,40.3331,M,M,M,50.00,8.00,0.01,29.67,M,10.00,M,OVC,M,M,M,600.00,M,M,M,M,KDYL 010105Z AUTO 05008KT 10SM OVC006 A2967 RMK P0001 WND 02V09  MADISHF
DYL,2017-04-01 01:10,-75.1223,40.3331,M,M,M,60.00,7.00,0.01,29.67,M,10.00,M,OVC,M,M,M,600.00,M,M,M,M,KDYL 010110Z AUTO 06007KT 10SM OVC006 A2967 RMK P0001 MADISHF
DYL,2017-04-01 01:15,-75.1223,40.3331,M,M,M,50.00,8.00,0.01,29.67,M,10.00,M,OVC,M,M,M,600.00,M,M,M,-RA,KDYL 010115Z AUTO 05008KT 10SM -RA OVC006 A2967 RMK P0001 MADISHF
DYL,2017-04-01 01:20,-75.1223,40.3331,M,M,M,50.00,7.00,0.01,29.67,M,10.00,M,OVC,M,M,M,600.00,M,M,M,-RA,KDYL 010120Z AUTO 05007KT 10SM -RA OVC006 A2967 RMK P0001 WND 02V11  MADISHF
DYL,2017-04-01 01:25,-75.1223,40.3331,M,M,M,40.00,9.00,0.01,29.67,M,10.00,14.00,OVC,M,M,M,600.00,M,M,M,-RA,KDYL 010125Z AUTO 04009G14KT 10SM -RA OVC006 A2967 RMK P0001 WND 02V08  MADISHF
DYL,2017-04-01 01:30,-75.1223,40.3331,M,M,M,40.00,9.00,0.01,29.68,M,9.00,M,OVC,M,M,M,600.00,M,M,M,-RA,KDYL 010130Z AUTO 04009KT 9SM -RA OVC006 A2968 RMK P0001 MADISHF
DYL,2017-04-01 01:35,-75.1223,40.3331,M,M,M,50.00,9.00,0.01,29.68,M,7.00,M,OVC,M,M,M,600.00,M,M,M,-RA,KDYL 010135Z AUTO 05009KT 7SM -RA OVC006 A2968 RMK P0001 MADISHF
DYL,2017-04-01 01:40,-75.1223,40.3331,M,M,M,40.00,11.00,0.01,29.68,M,6.00,M,OVC,M,M,M,600.00,M,M,M,-RA BR,KDYL 010140Z AUTO 04011KT 6SM -RA BR OVC006 A2968 RMK P0001 MADISHF
DYL,2017-04-01 01:45,-75.1223,40.3331,M,M,M,30.00,9.00,0.02,29.68,M,6.00,M,OVC,M,M,M,600.00,M,M,M,-RA BR,KDYL 010145Z AUTO 03009KT 6SM -RA BR OVC006 A2968 RMK P0002 MADISHF
DYL,2017-04-01 01:50,-75.1223,40.3331,M,M,M,40.00,10.00,0.02,29.67,M,7.00,M,OVC,M,M,M,600.00,M,M,M,-RA,KDYL 010150Z AUTO 04010KT 7SM -RA OVC006 A2967 RMK P0002 MADISHF
DYL,2017-04-01 01:54,-75.1223,40.3331,39.90,39.90,100.00,40.00,6.00,0.02,29.67,1005.30,6.00,M,OVC,M,M,M,600.00,M,M,M,-RA BR,KDYL 010154Z AUTO 04006KT 6SM -RA BR OVC006 04/04 A2967 RMK AO2 SLP053 P0002 T00440044 $
DYL,2017-04-01 01:55,-75.1223,40.3331,M,M,M,50.00,9.00,M,29.67,M,6.00,16.00,OVC,M,M,M,600.00,M,M,M,-RA BR,KDYL 010155Z AUTO 05009G16KT 6SM -RA BR OVC006 A2967 RMK MADISHF
DYL,2017-04-01 02:00,-75.1223,40.3331,M,M,M,30.00,8.00,M,29.66,M,6.00,M,OVC,M,M,M,600.00,M,M,M,-RA BR,KDYL 010200Z AUTO 03008KT 6SM -RA BR OVC006 A2966 RMK MADISHF
DYL,2017-04-01 02:05,-75.1223,40.3331,M,M,M,50.00,10.00,M,29.66,M,7.00,18.00,OVC,M,M,M,600.00,M,M,M,-RA,KDYL 010205Z AUTO 05010G18KT 7SM -RA OVC006 A2966 RMK MADISHF
DYL,2017-04-01 02:10,-75.1223,40.3331,M,M,M,50.00,6.00,M,29.66,M,9.00,M,OVC,M,M,M,499.00,M,M,M,-RA,KDYL 010210Z AUTO 05006KT 9SM -RA OVC004 A2966 RMK VRB06G19KT  MADISHF
DYL,2017-04-01 02:15,-75.1223,40.3331,M,M,M,60.00,6.00,M,29.66,M,10.00,M,OVC,M,M,M,499.00,M,M,M,M,KDYL 010215Z AUTO 06006KT 10SM OVC004 A2966 RMK MADISHF
DYL,2017-04-01 02:20,-75.1223,40.3331,M,M,M,60.00,5.00,M,29.66,M,10.00,M,OVC,M,M,M,499.00,M,M,M,M,KDYL 010220Z AUTO 06005KT 10SM OVC004 A2966 RMK VRB05KT  MADISHF
DYL,2017-04-01 02:25,-75.1223,40.3331,M,M,M,50.00,8.00,M,29.66,M,9.00,M,OVC,M,M,M,499.00,M,M,M,M,KDYL 010225Z AUTO 05008KT 9SM OVC004 A2966 RMK MADISHF
DYL,2017-04-01 02:30,-75.1223,40.3331,M,M,M,50.00,8.00,M,29.65,M,8.00,M,OVC,M,M,M,499.00,M,M,M,M,KDYL 010230Z AUTO 05008KT 8SM OVC004 A2965 RMK MADISHF
DYL,2017-04-01 02:35,-75.1223,40.3331,M,M,M,40.00,8.00,M,29.65,M,8.00,M,OVC,M,M,M,499.00,M,M,M,M,KDYL 010235Z AUTO 04008KT 8SM OVC004 A2965 RMK WND 01V07  MADISHF
DYL,2017-04-01 02:40,-75.1223,40.3331,M,M,M,50.00,8.00,M,29.65,M,7.00,M,OVC,M,M,M,499.00,M,M,M,M,KDYL 010240Z AUTO 05008KT 7SM OVC004 A2965 RMK MADISHF
DYL,2017-04-01 02:45,-75.1223,40.3331,M,M,M,40.00,10.00,M,29.65,M,7.00,M,OVC,M,M,M,499.00,M,M,M,M,KDYL 010245Z AUTO 04010KT 7SM OVC004 A2965 RMK MADISHF
DYL,2017-04-01 02:50,-75.1223,40.3331,M,M,M,40.00,9.00,M,29.65,M,7.00,M,OVC,M,M,M,499.00,M,M,M,M,KDYL 010250Z AUTO 04009KT 7SM OVC004 A2965 RMK MADISHF
DYL,2017-04-01 02:54,-75.1223,40.3331,39.90,39.90,100.00,50.00,11.00,0.00,29.65,1004.60,8.00,18.00,OVC,M,M,M,500.00,M,M,M,M,KDYL 010254Z AUTO 05011G18KT 030V090 8SM OVC005 04/04 A2965 RMK AO2 RAE13 SLP046 P0000 60009 T00440044 58005 $
DYL,2017-04-01 02:55,-75.1223,40.3331,M,M,M,50.00,10.00,M,29.65,M,8.00,M,OVC,M,M,M,499.00,M,M,M,M,KDYL 010255Z AUTO 05010KT 8SM OVC004 A2965 RMK WND 02V09  MADISHF
DYL,2017-04-01 03:00,-75.1223,40.3331,M,M,M,60.00,8.00,M,29.65,M,7.00,M,OVC,M,M,M,499.00,M,M,M,M,KDYL 010300Z AUTO 06008KT 7SM OVC004 A2965 RMK MADISHF
DYL,2017-04-01 03:05,-75.1223,40.3331,M,M,M,40.00,11.00,0.01,29.65,M,7.00,M,OVC,M,M,M,499.00,M,M,M,M,KDYL 010305Z AUTO 04011KT 7SM OVC004 A2965 RMK P0001 MADISHF
DYL,2017-04-01 03:10,-75.1223,40.3331,M,M,M,40.00,10.00,0.01,29.64,M,7.00,M,OVC,M,M,M,499.00,M,M,M,M,KDYL 010310Z AUTO 04010KT 7SM OVC004 A2964 RMK P0001 WND 01V08  MADISHF
DYL,2017-04-01 03:15,-75.1223,40.3331,M,M,M,40.00,8.00,0.01,29.64,M,8.00,M,OVC,M,M,M,499.00,M,M,M,M,KDYL 010315Z AUTO 04008KT 8SM OVC004 A2964 RMK P0001 MADISHF
DYL,2017-04-01 03:20,-75.1223,40.3331,M,M,M,40.00,10.00,0.01,29.64,M,8.00,M,OVC,M,M,M,499.00,M,M,M,M,KDYL 010320Z AUTO 04010KT 8SM OVC004 A2964 RMK P0001 MADISHF
DYL,2017-04-01 03:25,-75.1223,40.3331,M,M,M,40.00,9.00,0.01,29.64,M,8.00,14.00,OVC,M,M,M,499.00,M,M,M,M,KDYL 010325Z AUTO 04009G14KT 8SM OVC004 A2964 RMK P0001 MADISHF
DYL,2017-04-01 03:30,-75.1223,40.3331,M,M,M,40.00,9.00,0.01,29.64,M,9.00,M,OVC,M,M,M,499.00,M,M,M,M,KDYL 010330Z AUTO 04009KT 9SM OVC004 A2964 RMK P0001 MADISHF
DYL,2017-04-01 03:35,-75.1223,40.3331,M,M,M,30.00,11.00,0.01,29.64,M,10.00,M,OVC,M,M,M,499.00,M,M,M,M,KDYL 010335Z AUTO 03011KT 10SM OVC004 A2964 RMK P0001 MADISHF
DYL,2017-04-01 03:40,-75.1223,40.3331,M,M,M,40.00,10.00,0.01,29.64,M,10.00,M,OVC,M,M,M,499.00,M,M,M,M,KDYL 010340Z AUTO 04010KT 10SM OVC004 A2964 RMK P0001 MADISHF
DYL,2017-04-01 03:45,-75.1223,40.3331,M,M,M,40.00,10.00,0.01,29.64,M,10.00,M,OVC,M,M,M,499.00,M,M,M,M,KDYL 010345Z AUTO 04010KT 10SM OVC004 A2964 RMK P0001 MADISHF
DYL,2017-04-01 03:50,-75.1223,40.3331,M,M,M,40.00,11.00,0.01,29.64,M,10.00,16.00,OVC,M,M,M,499.00,M,M,M,M,KDYL 010350Z AUTO 04011G16KT 10SM OVC004 A2964 RMK P0001 MADISHF
DYL,2017-04-01 03:54,-75.1223,40.3331,39.00,39.00,100.00,40.00,9.00,0.01,29.64,1004.20,10.00,17.00,OVC,M,M,M,500.00,M,M,M,M,KDYL 010354Z AUTO 04009G17KT 10SM OVC005 04/04 A2964 RMK AO2 SLP042 P0001 T00390039 $
DYL,2017-04-01 03:55,-75.1223,40.3331,M,M,M,40.00,7.00,M,29.64,M,10.00,M,OVC,M,M,M,499.00,M,M,M,M,KDYL 010355Z AUTO 04007KT 10SM OVC004 A2964 RMK MADISHF
DYL,2017-04-01 04:00,-75.1223,40.3331,M,M,M,40.00,11.00,M,29.64,M,10.00,M,OVC,M,M,M,499.00,M,M,M,M,KDYL 010400Z AUTO 04011KT 10SM OVC004 A2964 RMK MADISHF
DYL,2017-04-01 04:05,-75.1223,40.3331,M,M,M,40.00,10.00,M,29.64,M,10.00,M,OVC,M,M,M,499.00,M,M,M,M,KDYL 010405Z AUTO 04010KT 10SM OVC004 A2964 RMK MADISHF
DYL,2017-04-01 04:10,-75.1223,40.3331,M,M,M,40.00,10.00,M,29.64,M,10.00,M,OVC,M,M,M,499.00,M,M,M,M,KDYL 010410Z AUTO 04010KT 10SM OVC004 A2964 RMK MADISHF
DYL,2017-04-01 04:15,-75.1223,40.3331,M,M,M,30.00,10.00,M,29.64,M,10.00,M,OVC,M,M,M,499.00,M,M,M,M,KDYL 010415Z AUTO 03010KT 10SM OVC004 A2964 RMK MADISHF
DYL,2017-04-01 04:20,-75.1223,40.3331,M,M,M,M,M,M,29.64,M,10.00,M,OVC,M,M,M,499.00,M,M,M,M,KDYL 010420Z AUTO /////KT 10SM OVC004 A2964 RMK MADISHF
DYL,2017-04-01 04:25,-75.1223,40.3331,M,M,M,30.00,10.00,M,29.64,M,10.00,M,OVC,M,M,M,499.00,M,M,M,M,KDYL 010425Z AUTO 03010KT 10SM OVC004 A2964 RMK MADISHF
DYL,2017-04-01 04:30,-75.1223,40.3331,M,M,M,30.00,11.00,M,29.65,M,10.00,M,OVC,M,M,M,499.00,M,M,M,M,KDYL 010430Z AUTO 03011KT 10SM OVC004 A2965 RMK MADISHF
DYL,2017-04-01 04:35,-75.1223,40.3331,M,M,M,20.00,9.00,M,29.65,M,10.00,M,OVC,M,M,M,499.00,M,M,M,M,KDYL 010435Z AUTO 02009KT 10SM OVC004 A2965 RMK MADISHF
DYL,2017-04-01 04:40,-75.1223,40.3331,M,M,M,30.00,7.00,M,29.65,M,10.00,M,OVC,M,M,M,499.00,M,M,M,M,KDYL 010440Z AUTO 03007KT 10SM OVC004 A2965 RMK MADISHF
DYL,2017-04-01 04:45,-75.1223,40.3331,M,M,M,30.00,10.00,M,29.65,M,10.00,M,OVC,M,M,M,499.00,M,M,M,M,KDYL 010445Z AUTO 03010KT 10SM OVC004 A2965 RMK MADISHF
DYL,2017-04-01 04:50,-75.1223,40.3331,M,M,M,40.00,9.00,M,29.65,M,10.00,M,OVC,M,M,M,499.00,M,M,M,M,KDYL 010450Z AUTO 04009KT 10SM OVC004 A2965 RMK MADISHF
DYL,2017-04-01 04:54,-75.1223,40.3331,37.90,37.90,100.00,30.00,7.00,0.00,29.65,1004.50,9.00,17.00,OVC,M,M,M,500.00,M,M,M,M,KDYL 010454Z AUTO 03007G17KT 9SM OVC005 03/03 A2965 RMK AO2 SLP045 T00330033 400500022 $
DYL,2017-04-01 04:55,-75.1223,40.3331,M,M,M,20.00,7.00,M,29.65,M,9.00,M,OVC,M,M,M,499.00,M,M,M,M,KDYL 010455Z AUTO 02007KT 9SM OVC004 A2965 RMK MADISHF
DYL,2017-04-01 05:00,-75.1223,40.3331,M,M,M,30.00,8.00,M,29.66,M,7.00,M,OVC,M,M,M,499.00,M,M,M,-RA,KDYL 010500Z AUTO 03008KT 7SM -RA OVC004 A2966 RMK MADISHF
DYL,2017-04-01 05:05,-75.1223,40.3331,M,M,M,M,M,M,29.65,M,6.00,M,OVC,M,M,M,499.00,M,M,M,-RA BR,KDYL 010505Z AUTO /////KT 6SM -RA BR OVC004 A2965 RMK MADISHF
DYL,2017-04-01 05:10,-75.1223,40.3331,M,M,M,40.00,10.00,M,29.65,M,6.00,M,OVC,M,M,M,499.00,M,M,M,-RA BR,KDYL 010510Z AUTO 04010KT 6SM -RA BR OVC004 A2965 RMK MADISHF
DYL,2017-04-01 05:15,-75.1223,40.3331,M,M,M,30.00,9.00,M,29.65,M,5.00,M,OVC,M,M,M,499.00,M,M,M,-RA BR,KDYL 010515Z AUTO 03009KT 5SM -RA BR OVC004 A2965 RMK MADISHF
DYL,2017-04-01 05:20,-75.1223,40.3331,M,M,M,30.00,8.00,0.01,29.64,M,6.00,M,OVC,M,M,M,499.00,M,M,M,-RA BR,KDYL 010520Z AUTO 03008KT 6SM -RA BR OVC004 A2964 RMK P0001 CIG 3V8  MADISHF
DYL,2017-04-01 05:25,-75.1223,40.3331,M,M,M,30.00,8.00,0.01,29.65,M,6.00,M,OVC,M,M,M,499.00,M,M,M,-RA BR,KDYL 010525Z AUTO 03008KT 6SM -RA BR OVC004 A2965 RMK P0001 CIG 3V9  MADISHF
DYL,2017-04-01 05:30,-75.1223,40.3331,M,M,M,30.00,9.00,0.01,29.65,M,6.00,14.00,OVC,M,M,M,499.00,M,M,M,-RA BR,KDYL 010530Z AUTO 03009G14KT 6SM -RA BR OVC004 A2965 RMK P0001 CIG 3V9  MADISHF
DYL,2017-04-01 05:35,-75.1223,40.3331,M,M,M,30.00,8.00,0.01,29.65,M,6.00,M,OVC,M,M,M,499.00,M,M,M,-RA BR,KDYL 010535Z AUTO 03008KT 6SM -RA BR OVC004 A2965 RMK P0001 CIG 3V9  MADISHF
DYL,2017-04-01 05:40,-75.1223,40.3331,M,M,M,30.00,9.00,0.01,29.65,M,7.00,M,OVC,M,M,M,499.00,M,M,M,-RA,KDYL 010540Z AUTO 03009KT 7SM -RA OVC004 A2965 RMK P0001 CIG 3V9  MADISHF
DYL,2017-04-01 05:45,-75.1223,40.3331,M,M,M,30.00,7.00,0.01,29.65,M,7.00,M,OVC,M,M,M,499.00,M,M,M,M,KDYL 010545Z AUTO 03007KT 7SM OVC004 A2965 RMK P0001 CIG 3V9  MADISHF
DYL,2017-04-01 05:50,-75.1223,40.3331,M,M,M,M,M,0.01,29.65,M,6.00,M,OVC,M,M,M,499.00,M,M,M,BR,KDYL 010550Z AUTO /////KT 6SM BR OVC004 A2965 RMK P0001 CIG 4V9  MADISHF
DYL,2017-04-01 05:54,-75.1223,40.3331,37.00,37.00,100.00,20.00,10.00,0.01,29.65,1004.40,6.00,M,OVC,M,M,M,500.00,M,M,M,BR,KDYL 010554Z AUTO 02010KT 6SM BR OVC005 03/03 A2965 RMK AO2 RAB0458E42 SLP044 P0001 60011 T00280028 10050 20028 56002 $
DYL,2017-04-01 05:55,-75.1223,40.3331,M,M,M,20.00,9.00,M,29.65,M,6.00,M,OVC,M,M,M,499.00,M,M,M,BR,KDYL 010555Z AUTO 02009KT 6SM BR OVC004 A2965 RMK MADISHF
DYL,2017-04-01 06:00,-75.1223,40.3331,M,M,M,30.00,8.00,M,29.65,M,6.00,M,OVC,M,M,M,600.00,M,M,M,BR,KDYL 010600Z AUTO 03008KT 6SM BR OVC006 A2965 RMK CIG 4V8  MADISHF
DYL,2017-04-01 06:05,-75.1223,40.3331,M,M,M,30.00,11.00,M,29.64,M,6.00,M,OVC,M,M,M,600.00,M,M,M,BR,KDYL 010605Z AUTO 03011KT 6SM BR OVC006 A2964 RMK CIG 4V8  MADISHF
DYL,2017-04-01 06:10,-75.1223,40.3331,M,M,M,20.00,8.00,M,29.65,M,6.00,M,OVC,M,M,M,600.00,M,M,M,BR,KDYL 010610Z AUTO 02008KT 6SM BR OVC006 A2965 RMK CIG 4V9  MADISHF
DYL,2017-04-01 06:15,-75.1223,40.3331,M,M,M,20.00,9.00,M,29.64,M,6.00,15.00,OVC,M,M,M,600.00,M,M,M,BR,KDYL 010615Z AUTO 02009G15KT 6SM BR OVC006 A2964 RMK CIG 5V11  MADISHF
DYL,2017-04-01 06:20,-75.1223,40.3331,M,M,M,20.00,9.00,M,29.65,M,6.00,M,OVC,M,M,M,600.00,M,M,M,BR,KDYL 010620Z AUTO 02009KT 6SM BR OVC006 A2965 RMK MADISHF
DYL,2017-04-01 06:25,-75.1223,40.3331,M,M,M,20.00,12.00,M,29.65,M,7.00,M,OVC,M,M,M,600.00,M,M,M,M,KDYL 010625Z AUTO 02012KT 7SM OVC006 A2965 RMK MADISHF
DYL,2017-04-01 06:30,-75.1223,40.3331,M,M,M,10.00,10.00,M,29.64,M,7.00,M,OVC,M,M,M,700.00,M,M,M,M,KDYL 010630Z AUTO 01010KT 7SM OVC007 A2964 RMK MADISHF
DYL,2017-04-01 06:35,-75.1223,40.3331,M,M,M,20.00,10.00,0.01,29.65,M,8.00,M,OVC,M,M,M,700.00,M,M,M,M,KDYL 010635Z AUTO 02010KT 8SM OVC007 A2965 RMK P0001 MADISHF
DYL,2017-04-01 06:40,-75.1223,40.3331,M,M,M,M,M,0.01,29.65,M,9.00,M,OVC,M,M,M,700.00,M,M,M,M,KDYL 010640Z AUTO /////KT 9SM OVC007 A2965 RMK P0001 MADISHF
DYL,2017-04-01 06:45,-75.1223,40.3331,M,M,M,10.00,9.00,0.01,29.65,M,10.00,M,OVC,M,M,M,800.00,M,M,M,M,KDYL 010645Z AUTO 01009KT 10SM OVC008 A2965 RMK P0001 MADISHF
DYL,2017-04-01 06:50,-75.1223,40.3331,M,M,M,10.00,9.00,0.01,29.66,M,10.00,15.00,OVC,M,M,M,800.00,M,M,M,M,KDYL 010650Z AUTO 01009G15KT 10SM OVC008 A2966 RMK P0001 CIG 6V12  MADISHF
DYL,2017-04-01 06:54,-75.1223,40.3331,37.00,37.00,100.00,20.00,7.00,0.01,29.66,1004.90,10.00,M,OVC,M,M,M,800.00,M,M,M,M,KDYL 010654Z AUTO 02007KT 10SM OVC008 03/03 A2966 RMK AO2 CIG 006V012 SLP049 P0001 T00280028 $
DYL,2017-04-01 06:55,-75.1223,40.3331,M,M,M,20.00,7.00,M,29.66,M,10.00,M,OVC,M,M,M,800.00,M,M,M,M,KDYL 010655Z AUTO 02007KT 10SM OVC008 A2966 RMK CIG 6V12  MADISHF
DYL,2017-04-01 07:00,-75.1223,40.3331,M,M,M,20.00,7.00,M,29.66,M,10.00,M,OVC,M,M,M,800.00,M,M,M,M,KDYL 010700Z AUTO 02007KT 10SM OVC008 A2966 RMK CIG 6V12  MADISHF
DYL,2017-04-01 07:05,-75.1223,40.3331,M,M,M,20.00,7.00,M,29.66,M,9.00,M,OVC,M,M,M,800.00,M,M,M,M,KDYL 010705Z AUTO 02007KT 9SM OVC008 A2966 RMK CIG 5V12  MADISHF
DYL,2017-04-01 07:10,-75.1223,40.3331,M,M,M,20.00,7.00,M,29.66,M,8.00,M,OVC,M,M,M,600.00,M,M,M,M,KDYL 010710Z AUTO 02007KT 8SM OVC006 A2966 RMK CIG 5V9  MADISHF
DYL,2017-04-01 07:15,-75.1223,40.3331,M,M,M,20.00,6.00,M,29.66,M,7.00,M,OVC,M,M,M,600.00,M,M,M,M,KDYL 010715Z AUTO 02006KT 7SM OVC006 A2966 RMK CIG 5V10  MADISHF
DYL,2017-04-01 07:20,-75.1223,40.3331,M,M,M,10.00,8.00,M,29.66,M,6.00,M,OVC,M,M,M,600.00,M,M,M,BR,KDYL 010720Z AUTO 01008KT 6SM BR OVC006 A2966 RMK CIG 5V10  MADISHF
DYL,2017-04-01 07:25,-75.1223,40.3331,M,M,M,20.00,8.00,M,29.66,M,6.00,M,OVC,M,M,M,600.00,M,M,M,BR,KDYL 010725Z AUTO 02008KT 6SM BR OVC006 A2966 RMK CIG 5V10  MADISHF
DYL,2017-04-01 07:30,-75.1223,40.3331,M,M,M,10.00,8.00,M,29.67,M,5.00,M,OVC,M,M,M,600.00,M,M,M,BR,KDYL 010730Z AUTO 01008KT 5SM BR OVC006 A2967 RMK CIG 5V10  MADISHF
DYL,2017-04-01 07:35,-75.1223,40.3331,M,M,M,10.00,7.00,M,29.67,M,5.00,M,OVC,M,M,M,600.00,M,M,M,BR,KDYL 010735Z AUTO 01007KT 5SM BR OVC006 A2967 RMK MADISHF
DYL,2017-04-01 07:40,-75.1223,40.3331,M,M,M,10.00,7.00,M,29.67,M,6.00,M,BKN,OVC,M,M,600.00,999.00,M,M,BR,KDYL 010740Z AUTO 01007KT 6SM BR BKN006 OVC009 A2967 RMK MADISHF
DYL,2017-04-01 07:45,-75.1223,40.3331,M,M,M,360.00,8.00,M,29.67,M,6.00,M,OVC,M,M,M,600.00,M,M,M,BR,KDYL 010745Z AUTO 36008KT 6SM BR OVC006 A2967 RMK MADISHF
DYL,2017-04-01 07:50,-75.1223,40.3331,M,M,M,10.00,9.00,M,29.67,M,6.00,M,OVC,M,M,M,600.00,M,M,M,BR,KDYL 010750Z AUTO 01009KT 6SM BR OVC006 A2967 RMK MADISHF
DYL,2017-04-01 07:54,-75.1223,40.3331,37.00,37.00,100.00,10.00,9.00,0.00,29.67,1005.30,6.00,M,OVC,M,M,M,600.00,M,M,M,BR,KDYL 010754Z AUTO 01009KT 6SM BR OVC006 03/03 A2967 RMK AO2 SLP053 T00280028 $
DYL,2017-04-01 07:55,-75.1223,40.3331,M,M,M,10.00,8.00,M,29.67,M,6.00,M,BKN,OVC,M,M,600.00,1300.00,M,M,BR,KDYL 010755Z AUTO 01008KT 6SM BR BKN006 OVC013 A2967 RMK MADISHF
DYL,2017-04-01 08:00,-75.1223,40.3331,M,M,M,10.00,8.00,M,29.67,M,6.00,M,BKN,OVC,M,M,700.00,1100.00,M,M,BR,KDYL 010800Z AUTO 01008KT 6SM BR BKN007 OVC011 A2967 RMK MADISHF
DYL,2017-04-01 08:05,-75.1223,40.3331,M,M,M,360.00,8.00,M,29.67,M,6.00,M,BKN,OVC,M,M,700.00,1300.00,M,M,BR,KDYL 010805Z AUTO 36008KT 6SM BR BKN007 OVC013 A2967 RMK MADISHF
DYL,2017-04-01 08:10,-75.1223,40.3331,M,M,M,360.00,8.00,M,29.67,M,6.00,M,BKN,OVC,M,M,700.00,1300.00,M,M,BR,KDYL 010810Z AUTO 36008KT 6SM BR BKN007 OVC013 A2967 RMK MADISHF
DYL,2017-04-01 08:15,-75.1223,40.3331,M,M,M,350.00,7.00,M,29.67,M,7.00,M,BKN,OVC,M,M,700.00,1300.00,M,M,M,KDYL 010815Z AUTO 35007KT 7SM BKN007 OVC013 A2967 RMK MADISHF
DYL,2017-04-01 08:20,-75.1223,40.3331,M,M,M,350.00,6.00,M,29.67,M,7.00,M,BKN,OVC,M,M,700.00,1300.00,M,M,M,KDYL 010820Z AUTO 35006KT 7SM BKN007 OVC013 A2967 RMK VRB06KT  MADISHF
DYL,2017-04-01 08:25,-75.1223,40.3331,M,M,M,10.00,8.00,M,29.68,M,7.00,M,BKN,OVC,M,M,700.00,1300.00,M,M,M,KDYL 010825Z AUTO 01008KT 7SM BKN007 OVC013 A2968 RMK MADISHF
DYL,2017-04-01 08:30,-75.1223,40.3331,M,M,M,360.00,8.00,M,29.68,M,8.00,M,BKN,OVC,M,M,600.00,1400.00,M,M,M,KDYL 010830Z AUTO 36008KT 8SM BKN006 OVC014 A2968 RMK MADISHF
DYL,2017-04-01 08:35,-75.1223,40.3331,M,M,M,360.00,8.00,M,29.68,M,9.00,M,BKN,OVC,M,M,600.00,1600.00,M,M,M,KDYL 010835Z AUTO 36008KT 9SM BKN006 OVC016 A2968 RMK MADISHF
DYL,2017-04-01 08:40,-75.1223,40.3331,M,M,M,360.00,7.00,M,29.68,M,10.00,M,BKN,BKN,OVC,M,600.00,1100.00,1600.00,M,M,KDYL 010840Z AUTO 36007KT 10SM BKN006 BKN011 OVC016 A2968 RMK MADISHF
DYL,2017-04-01 08:45,-75.1223,40.3331,M,M,M,360.00,7.00,M,29.68,M,10.00,M,BKN,BKN,OVC,M,700.00,1100.00,1600.00,M,M,KDYL 010845Z AUTO 36007KT 10SM BKN007 BKN011 OVC016 A2968 RMK MADISHF
DYL,2017-04-01 08:50,-75.1223,40.3331,M,M,M,350.00,6.00,M,29.69,M,10.00,M,BKN,OVC,M,M,900.00,1500.00,M,M,M,KDYL 010850Z AUTO 35006KT 10SM BKN009 OVC015 A2969 RMK MADISHF
DYL,2017-04-01 08:54,-75.1223,40.3331,37.00,37.00,100.00,350.00,9.00,0.00,29.69,1005.80,10.00,M,BKN,OVC,M,M,900.00,1500.00,M,M,M,KDYL 010854Z AUTO 35009KT 10SM BKN009 OVC015 03/03 A2969 RMK AO2 SLP058 60001 T00280028 53014 $
DYL,2017-04-01 08:55,-75.1223,40.3331,M,M,M,350.00,8.00,M,29.69,M,10.00,M,BKN,OVC,M,M,900.00,1500.00,M,M,M,KDYL 010855Z AUTO 35008KT 10SM BKN009 OVC015 A2969 RMK MADISHF
DYL,2017-04-01 09:00,-75.1223,40.3331,M,M,M,350.00,9.00,M,29.69,M,10.00,M,BKN,OVC,M,M,900.00,1699.00,M,M,M,KDYL 010900Z AUTO 35009KT 10SM BKN009 OVC016 A2969 RMK MADISHF
DYL,2017-04-01 09:05,-75.1223,40.3331,M,M,M,350.00,6.00,M,29.69,M,10.00,M,BKN,OVC,M,M,900.00,1500.00,M,M,M,KDYL 010905Z AUTO 35006KT 10SM BKN009 OVC015 A2969 RMK MADISHF
DYL,2017-04-01 09:10,-75.1223,40.3331,M,M,M,350.00,9.00,M,29.70,M,10.00,M,BKN,OVC,M,M,900.00,1500.00,M,M,M,KDYL 010910Z AUTO 35009KT 10SM BKN009 OVC015 A2970 RMK MADISHF
DYL,2017-04-01 09:15,-75.1223,40.3331,M,M,M,340.00,7.00,M,29.70,M,10.00,M,BKN,OVC,M,M,700.00,1300.00,M,M,M,KDYL 010915Z AUTO 34007KT 10SM BKN007 OVC013 A2970 RMK MADISHF
DYL,2017-04-01 09:20,-75.1223,40.3331,M,M,M,350.00,7.00,M,29.70,M,9.00,M,BKN,OVC,M,M,700.00,1300.00,M,M,M,KDYL 010920Z AUTO 35007KT 9SM BKN007 OVC013 A2970 RMK MADISHF
DYL,2017-04-01 09:25,-75.1223,40.3331,M,M,M,340.00,9.00,M,29.71,M,9.00,M,BKN,OVC,M,M,700.00,1300.00,M,M,M,KDYL 010925Z AUTO 34009KT 9SM BKN007 OVC013 A2971 RMK MADISHF
DYL,2017-04-01 09:30,-75.1223,40.3331,M,M,M,330.00,8.00,M,29.71,M,10.00,M,BKN,OVC,M,M,700.00,1300.00,M,M,M,KDYL 010930Z AUTO 33008KT 10SM BKN007 OVC013 A2971 RMK MADISHF
DYL,2017-04-01 09:35,-75.1223,40.3331,M,M,M,340.00,8.00,M,29.71,M,10.00,M,BKN,OVC,M,M,700.00,1300.00,M,M,M,KDYL 010935Z AUTO 34008KT 10SM BKN007 OVC013 A2971 RMK MADISHF
DYL,2017-04-01 09:40,-75.1223,40.3331,M,M,M,340.00,7.00,M,29.71,M,10.00,M,OVC,M,M,M,700.00,M,M,M,M,KDYL 010940Z AUTO 34007KT 10SM OVC007 A2971 RMK MADISHF
DYL,2017-04-01 09:45,-75.1223,40.3331,M,M,M,340.00,7.00,M,29.72,M,10.00,M,OVC,M,M,M,700.00,M,M,M,M,KDYL 010945Z AUTO 34007KT 10SM OVC007 A2972 RMK MADISHF
DYL,2017-04-01 09:50,-75.1223,40.3331,M,M,M,340.00,8.00,M,29.72,M,10.00,M,OVC,M,M,M,700.00,M,M,M,M,KDYL 010950Z AUTO 34008KT 10SM OVC007 A2972 RMK MADISHF
DYL,2017-04-01 09:54,-75.1223,40.3331,35.10,35.10,100.00,350.00,8.00,0.00,29.72,1007.00,10.00,15.00,OVC,M,M,M,700.00,M,M,M,M,KDYL 010954Z AUTO 35008G15KT 10SM OVC007 02/02 A2972 RMK AO2 SLP070 T00170017 $
DYL,2017-04-01 09:55,-75.1223,40.3331,M,M,M,340.00,8.00,M,29.72,M,10.00,M,OVC,M,M,M,700.00,M,M,M,M,KDYL 010955Z AUTO 34008KT 10SM OVC007 A2972 RMK CIG 5V11  MADISHF
DYL,2017-04-01 10:00,-75.1223,40.3331,M,M,M,350.00,7.00,M,29.73,M,10.00,M,BKN,OVC,M,M,700.00,1200.00,M,M,M,KDYL 011000Z AUTO 35007KT 10SM BKN007 OVC012 A2973 RMK CIG 5V10  MADISHF
DYL,2017-04-01 10:05,-75.1223,40.3331,M,M,M,350.00,7.00,M,29.73,M,10.00,M,BKN,OVC,M,M,700.00,1200.00,M,M,M,KDYL 011005Z AUTO 35007KT 10SM BKN007 OVC012 A2973 RMK MADISHF
DYL,2017-04-01 10:10,-75.1223,40.3331,M,M,M,350.00,9.00,M,29.73,M,10.00,M,BKN,OVC,M,M,700.00,1200.00,M,M,M,KDYL 011010Z AUTO 35009KT 10SM BKN007 OVC012 A2973 RMK MADISHF
DYL,2017-04-01 10:15,-75.1223,40.3331,M,M,M,350.00,8.00,M,29.73,M,10.00,M,BKN,BKN,OVC,M,700.00,1400.00,2100.00,M,M,KDYL 011015Z AUTO 35008KT 10SM BKN007 BKN014 OVC021 A2973 RMK MADISHF
DYL,2017-04-01 10:20,-75.1223,40.3331,M,M,M,350.00,9.00,M,29.74,M,10.00,M,BKN,BKN,OVC,M,900.00,1400.00,2300.00,M,M,KDYL 011020Z AUTO 35009KT 10SM BKN009 BKN014 OVC023 A2974 RMK MADISHF
DYL,2017-04-01 10:25,-75.1223,40.3331,M,M,M,350.00,8.00,M,29.74,M,10.00,M,SCT,BKN,OVC,M,900.00,1400.00,2300.00,M,M,KDYL 011025Z AUTO 35008KT 10SM SCT009 BKN014 OVC023 A2974 RMK MADISHF
DYL,2017-04-01 10:30,-75.1223,40.3331,M,M,M,340.00,7.00,M,29.74,M,10.00,M,BKN,BKN,OVC,M,900.00,1400.00,2300.00,M,M,KDYL 011030Z AUTO 34007KT 10SM BKN009 BKN014 OVC023 A2974 RMK MADISHF
DYL,2017-04-01 10:35,-75.1223,40.3331,M,M,M,340.00,8.00,M,29.74,M,10.00,M,BKN,BKN,OVC,M,900.00,1400.00,2300.00,M,M,KDYL 011035Z AUTO 34008KT 10SM BKN009 BKN014 OVC023 A2974 RMK MADISHF
DYL,2017-04-01 10:40,-75.1223,40.3331,M,M,M,340.00,8.00,M,29.75,M,10.00,M,BKN,BKN,OVC,M,900.00,1400.00,2300.00,M,M,KDYL 011040Z AUTO 34008KT 10SM BKN009 BKN014 OVC023 A2975 RMK MADISHF
DYL,2017-04-01 10:45,-75.1223,40.3331,M,M,M,350.00,10.00,M,29.75,M,10.00,M,BKN,BKN,OVC,M,900.00,1300.00,2300.00,M,M,KDYL 011045Z AUTO 35010KT 10SM BKN009 BKN013 OVC023 A2975 RMK MADISHF
DYL,2017-04-01 10:50,-75.1223,40.3331,M,M,M,340.00,7.00,M,29.75,M,10.00,M,OVC,M,M,M,900.00,M,M,M,M,KDYL 011050Z AUTO 34007KT 10SM OVC009 A2975 RMK MADISHF
DYL,2017-04-01 10:54,-75.1223,40.3331,35.10,35.10,100.00,350.00,8.00,0.00,29.75,1008.00,10.00,M,OVC,M,M,M,900.00,M,M,M,M,KDYL 011054Z AUTO 35008KT 10SM OVC009 02/02 A2975 RMK AO2 CIG 006V013 SLP080 T00170017 $
DYL,2017-04-01 10:55,-75.1223,40.3331,M,M,M,340.00,8.00,M,29.75,M,10.00,M,OVC,M,M,M,900.00,M,M,M,M,KDYL 011055Z AUTO 34008KT 10SM OVC009 A2975 RMK CIG 6V13  MADISHF
DYL,2017-04-01 11:00,-75.1223,40.3331,M,M,M,350.00,8.00,M,29.75,M,10.00,M,BKN,OVC,M,M,900.00,1200.00,M,M,M,KDYL 011100Z AUTO 35008KT 10SM BKN009 OVC012 A2975 RMK MADISHF
DYL,2017-04-01 11:05,-75.1223,40.3331,M,M,M,350.00,7.00,M,29.76,M,10.00,M,OVC,M,M,M,900.00,M,M,M,M,KDYL 011105Z AUTO 35007KT 10SM OVC009 A2976 RMK MADISHF
DYL,2017-04-01 11:10,-75.1223,40.3331,M,M,M,340.00,8.00,M,29.76,M,10.00,M,BKN,BKN,OVC,M,999.00,1400.00,2400.00,M,M,KDYL 011110Z AUTO 34008KT 10SM BKN009 BKN014 OVC024 A2976 RMK MADISHF
DYL,2017-04-01 11:13,-75.1223,40.3331,36.00,36.00,100.00,340.00,7.00,0.00,29.76,M,10.00,M,BKN,BKN,OVC,M,1000.00,1400.00,2400.00,M,M,KDYL 011113Z AUTO 34007KT 10SM BKN010 BKN014 OVC024 02/02 A2976 RMK AO2 T00220022 $
DYL,2017-04-01 11:15,-75.1223,40.3331,M,M,M,350.00,9.00,0.00,29.76,M,10.00,14.00,BKN,BKN,OVC,M,999.00,1400.00,2400.00,M,UP,KDYL 011115Z AUTO 35009G14KT 10SM UP BKN009 BKN014 OVC024 A2976 RMK P0000 MADISHF
DYL,2017-04-01 11:20,-75.1223,40.3331,M,M,M,350.00,9.00,0.00,29.76,M,10.00,M,BKN,BKN,OVC,M,999.00,1400.00,2400.00,M,UP,KDYL 011120Z AUTO 35009KT 10SM UP BKN009 BKN014 OVC024 A2976 RMK P0000 MADISHF
DYL,2017-04-01 11:25,-75.1223,40.3331,M,M,M,340.00,6.00,M,29.76,M,10.00,M,SCT,BKN,OVC,M,999.00,1400.00,2700.00,M,M,KDYL 011125Z AUTO 34006KT 10SM SCT009 BKN014 OVC027 A2976 RMK VRB06KT  MADISHF
DYL,2017-04-01 11:30,-75.1223,40.3331,M,M,M,340.00,8.00,M,29.77,M,10.00,M,BKN,OVC,M,M,1200.00,2900.00,M,M,M,KDYL 011130Z AUTO 34008KT 10SM BKN012 OVC029 A2977 RMK MADISHF
DYL,2017-04-01 11:35,-75.1223,40.3331,M,M,M,340.00,8.00,M,29.77,M,10.00,M,SCT,SCT,OVC,M,999.00,1400.00,2900.00,M,M,KDYL 011135Z AUTO 34008KT 10SM SCT009 SCT014 OVC029 A2977 RMK MADISHF
DYL,2017-04-01 11:40,-75.1223,40.3331,36.00,36.00,100.00,350.00,8.00,0.00,29.77,M,10.00,M,FEW,SCT,OVC,M,1000.00,1400.00,2900.00,M,M,KDYL 011140Z AUTO 35008KT 10SM FEW010 SCT014 OVC029 02/02 A2977 RMK AO2 RAB14E25UPB15E24 P0000 T00220022 $
DYL,2017-04-01 11:45,-75.1223,40.3331,M,M,M,330.00,7.00,M,29.78,M,10.00,M,SCT,OVC,M,M,999.00,2900.00,M,M,M,KDYL 011145Z AUTO 33007KT 10SM SCT009 OVC029 A2978 RMK MADISHF
DYL,2017-04-01 11:50,-75.1223,40.3331,M,M,M,350.00,10.00,M,29.78,M,10.00,M,SCT,OVC,M,M,1100.00,3000.00,M,M,M,KDYL 011150Z AUTO 35010KT 10SM SCT011 OVC030 A2978 RMK MADISHF
DYL,2017-04-01 11:54,-75.1223,40.3331,36.00,36.00,100.00,340.00,7.00,0.00,29.78,1008.80,10.00,M,SCT,OVC,M,M,1100.00,3000.00,M,M,M,KDYL 011154Z AUTO 34007KT 10SM SCT011 OVC030 02/02 A2978 RMK AO2 RAB14E25UPB15E24 SLP088 P0000 60001 70095 T00220022 10028 20017 51030 $
DYL,2017-04-01 11:55,-75.1223,40.3331,M,M,M,340.00,8.00,M,29.78,M,10.00,M,SCT,OVC,M,M,1100.00,3000.00,M,M,M,KDYL 011155Z AUTO 34008KT 10SM SCT011 OVC030 A2978 RMK MADISHF
DYL,2017-04-01 12:00,-75.1223,40.3331,M,M,M,330.00,10.00,M,29.78,M,10.00,M,FEW,BKN,OVC,M,1100.00,2700.00,3200.00,M,M,KDYL 011200Z AUTO 33010KT 10SM FEW011 BKN027 OVC032 A2978 RMK MADISHF
DYL,2017-04-01 12:03,-75.1223,40.3331,36.00,36.00,100.00,340.00,9.00,0.00,29.78,M,10.00,M,FEW,BKN,OVC,M,900.00,2700.00,3200.00,M,M,KDYL 011203Z AUTO 34009KT 10SM FEW009 BKN027 OVC032 02/02 A2978 RMK AO2 T00220022 $
DYL,2017-04-01 12:05,-75.1223,40.3331,M,M,M,340.00,7.00,M,29.78,M,10.00,M,FEW,BKN,OVC,M,900.00,2700.00,3200.00,M,M,KDYL 011205Z AUTO 34007KT 10SM FEW009 BKN027 OVC032 A2978 RMK MADISHF
DYL,2017-04-01 12:10,-75.1223,40.3331,M,M,M,340.00,8.00,M,29.78,M,10.00,M,FEW,BKN,OVC,M,900.00,2700.00,3200.00,M,M,KDYL 011210Z AUTO 34008KT 10SM FEW009 BKN027 OVC032 A2978 RMK MADISHF
DYL,2017-04-01 12:15,-75.1223,40.3331,M,M,M,350.00,6.00,M,29.78,M,10.00,M,FEW,BKN,OVC,M,900.00,3200.00,6500.00,M,M,KDYL 011215Z AUTO 35006KT 10SM FEW009 BKN032 OVC065 A2978 RMK MADISHF
DYL,2017-04-01 12:18,-75.1223,40.3331,37.00,36.00,96.13,340.00,8.00,0.00,29.79,M,10.00,M,FEW,BKN,OVC,M,900.00,3200.00,6500.00,M,M,KDYL 011218Z AUTO 34008KT 10SM FEW009 BKN032 OVC065 03/02 A2979 RMK AO2 T00280022 $
DYL,2017-04-01 12:20,-75.1223,40.3331,M,M,M,350.00,8.00,M,29.79,M,10.00,M,FEW,BKN,OVC,M,900.00,3200.00,6500.00,M,M,KDYL 011220Z AUTO 35008KT 10SM FEW009 BKN032 OVC065 A2979 RMK MADISHF
DYL,2017-04-01 12:25,-75.1223,40.3331,M,M,M,340.00,8.00,M,29.79,M,10.00,M,FEW,BKN,OVC,M,900.00,3200.00,6500.00,M,M,KDYL 011225Z AUTO 34008KT 10SM FEW009 BKN032 OVC065 A2979 RMK MADISHF
DYL,2017-04-01 12:30,-75.1223,40.3331,M,M,M,340.00,6.00,M,29.79,M,10.00,M,FEW,BKN,OVC,M,999.00,3200.00,6500.00,M,M,KDYL 011230Z AUTO 34006KT 10SM FEW009 BKN032 OVC065 A2979 RMK MADISHF
DYL,2017-04-01 12:35,-75.1223,40.3331,M,M,M,350.00,9.00,M,29.79,M,10.00,M,FEW,BKN,OVC,M,999.00,3200.00,6500.00,M,M,KDYL 011235Z AUTO 35009KT 10SM FEW009 BKN032 OVC065 A2979 RMK MADISHF
DYL,2017-04-01 12:40,-75.1223,40.3331,M,M,M,350.00,9.00,M,29.79,M,10.00,M,FEW,SCT,OVC,M,999.00,3200.00,6500.00,M,M,KDYL 011240Z AUTO 35009KT 10SM FEW009 SCT032 OVC065 A2979 RMK MADISHF
DYL,2017-04-01 12:45,-75.1223,40.3331,M,M,M,350.00,10.00,M,29.79,M,10.00,M,FEW,SCT,OVC,M,999.00,3200.00,6500.00,M,M,KDYL 011245Z AUTO 35010KT 10SM FEW009 SCT032 OVC065 A2979 RMK MADISHF
DYL,2017-04-01 12:50,-75.1223,40.3331,M,M,M,340.00,10.00,M,29.80,M,10.00,M,FEW,BKN,OVC,M,1300.00,3200.00,6500.00,M,M,KDYL 011250Z AUTO 34010KT 10SM FEW013 BKN032 OVC065 A2980 RMK MADISHF
DYL,2017-04-01 12:54,-75.1223,40.3331,39.00,37.00,92.45,350.00,8.00,0.00,29.80,1009.50,10.00,16.00,FEW,BKN,OVC,M,1500.00,3000.00,6500.00,M,M,KDYL 011254Z AUTO 35008G16KT 10SM FEW015 BKN030 OVC065 04/03 A2980 RMK AO2 SLP095 T00390028 $
DYL,2017-04-01 12:55,-75.1223,40.3331,M,M,M,350.00,9.00,M,29.79,M,10.00,M,FEW,BKN,OVC,M,1500.00,3000.00,6500.00,M,M,KDYL 011255Z AUTO 35009KT 10SM FEW015 BKN030 OVC065 A2979 RMK MADISHF
DYL,2017-04-01 13:00,-75.1223,40.3331,M,M,M,350.00,6.00,M,29.79,M,10.00,M,SCT,BKN,OVC,M,1500.00,3000.00,6500.00,M,M,KDYL 011300Z AUTO 35006KT 10SM SCT015 BKN030 OVC065 A2979 RMK MADISHF
DYL,2017-04-01 13:05,-75.1223,40.3331,M,M,M,340.00,6.00,M,29.80,M,10.00,M,BKN,BKN,OVC,M,1500.00,3000.00,6500.00,M,M,KDYL 011305Z AUTO 34006KT 10SM BKN015 BKN030 OVC065 A2980 RMK MADISHF
DYL,2017-04-01 13:09,-75.1223,40.3331,39.00,37.00,92.45,350.00,9.00,0.00,29.80,M,10.00,16.00,BKN,OVC,M,M,1500.00,3000.00,M,M,M,KDYL 011309Z AUTO 35009G16KT 10SM BKN015 OVC030 04/03 A2980 RMK AO2 T00390028 $
DYL,2017-04-01 13:10,-75.1223,40.3331,M,M,M,350.00,10.00,M,29.80,M,10.00,M,BKN,OVC,M,M,1500.00,3000.00,M,M,M,KDYL 011310Z AUTO 35010KT 10SM BKN015 OVC030 A2980 RMK MADISHF
DYL,2017-04-01 13:15,-75.1223,40.3331,M,M,M,350.00,13.00,M,29.80,M,10.00,M,BKN,OVC,M,M,1500.00,3000.00,M,M,M,KDYL 011315Z AUTO 35013KT 10SM BKN015 OVC030 A2980 RMK MADISHF
DYL,2017-04-01 13:20,-75.1223,40.3331,M,M,M,340.00,7.00,M,29.80,M,10.00,M,OVC,M,M,M,1500.00,M,M,M,M,KDYL 011320Z AUTO 34007KT 10SM OVC015 A2980 RMK MADISHF
DYL,2017-04-01 13:25,-75.1223,40.3331,M,M,M,330.00,10.00,M,29.80,M,10.00,M,OVC,M,M,M,1500.00,M,M,M,M,KDYL 011325Z AUTO 33010KT 10SM OVC015 A2980 RMK MADISHF
DYL,2017-04-01 13:30,-75.1223,40.3331,M,M,M,340.00,12.00,M,29.80,M,10.00,19.00,OVC,M,M,M,1500.00,M,M,M,M,KDYL 011330Z AUTO 34012G19KT 10SM OVC015 A2980 RMK MADISHF
DYL,2017-04-01 13:35,-75.1223,40.3331,M,M,M,360.00,12.00,M,29.80,M,10.00,M,OVC,M,M,M,1500.00,M,M,M,M,KDYL 011335Z AUTO 36012KT 10SM OVC015 A2980 RMK MADISHF
DYL,2017-04-01 13:40,-75.1223,40.3331,M,M,M,340.00,14.00,M,29.81,M,10.00,M,OVC,M,M,M,1500.00,M,M,M,M,KDYL 011340Z AUTO 34014KT 10SM OVC015 A2981 RMK MADISHF
DYL,2017-04-01 13:45,-75.1223,40.3331,M,M,M,360.00,13.00,M,29.81,M,10.00,18.00,OVC,M,M,M,1600.00,M,M,M,M,KDYL 011345Z AUTO 36013G18KT 10SM OVC016 A2981 RMK MADISHF
DYL,2017-04-01 13:50,-75.1223,40.3331,M,M,M,350.00,10.00,M,29.81,M,10.00,M,OVC,M,M,M,1600.00,M,M,M,M,KDYL 011350Z AUTO 35010KT 10SM OVC016 A2981 RMK MADISHF
DYL,2017-04-01 13:54,-75.1223,40.3331,39.90,36.00,85.81,350.00,9.00,0.00,29.82,1010.20,10.00,18.00,OVC,M,M,M,1600.00,M,M,M,M,KDYL 011354Z AUTO 35009G18KT 320V020 10SM OVC016 04/02 A2982 RMK AO2 SLP102 T00440022 $
DYL,2017-04-01 13:55,-75.1223,40.3331,M,M,M,350.00,7.00,M,29.82,M,10.00,M,OVC,M,M,M,1600.00,M,M,M,M,KDYL 011355Z AUTO 35007KT 10SM OVC016 A2982 RMK MADISHF
DYL,2017-04-01 14:00,-75.1223,40.3331,M,M,M,350.00,11.00,M,29.82,M,10.00,M,OVC,M,M,M,1600.00,M,M,M,M,KDYL 011400Z AUTO 35011KT 10SM OVC016 A2982 RMK MADISHF
DYL,2017-04-01 14:05,-75.1223,40.3331,M,M,M,350.00,8.00,M,29.82,M,10.00,M,BKN,OVC,M,M,1600.00,2200.00,M,M,M,KDYL 011405Z AUTO 35008KT 10SM BKN016 OVC022 A2982 RMK MADISHF
DYL,2017-04-01 14:10,-75.1223,40.3331,M,M,M,360.00,7.00,M,29.82,M,10.00,M,BKN,OVC,M,M,1800.00,2900.00,M,M,M,KDYL 011410Z AUTO 36007KT 10SM BKN018 OVC029 A2982 RMK MADISHF
DYL,2017-04-01 14:15,-75.1223,40.3331,M,M,M,350.00,8.00,M,29.83,M,10.00,M,BKN,OVC,M,M,1800.00,2900.00,M,M,M,KDYL 011415Z AUTO 35008KT 10SM BKN018 OVC029 A2983 RMK MADISHF
DYL,2017-04-01 14:20,-75.1223,40.3331,M,M,M,350.00,7.00,M,29.83,M,10.00,M,BKN,OVC,M,M,1999.00,3100.00,M,M,M,KDYL 011420Z AUTO 35007KT 10SM BKN019 OVC031 A2983 RMK MADISHF
DYL,2017-04-01 14:25,-75.1223,40.3331,M,M,M,350.00,7.00,M,29.83,M,10.00,M,BKN,OVC,M,M,1999.00,3100.00,M,M,M,KDYL 011425Z AUTO 35007KT 10SM BKN019 OVC031 A2983 RMK MADISHF
DYL,2017-04-01 14:30,-75.1223,40.3331,M,M,M,360.00,9.00,M,29.83,M,10.00,M,BKN,OVC,M,M,2200.00,2600.00,M,M,M,KDYL 011430Z AUTO 36009KT 10SM BKN022 OVC026 A2983 RMK MADISHF
DYL,2017-04-01 14:35,-75.1223,40.3331,M,M,M,350.00,8.00,M,29.83,M,10.00,M,OVC,M,M,M,2200.00,M,M,M,M,KDYL 011435Z AUTO 35008KT 10SM OVC022 A2983 RMK MADISHF
DYL,2017-04-01 14:40,-75.1223,40.3331,M,M,M,360.00,11.00,M,29.83,M,10.00,16.00,OVC,M,M,M,2200.00,M,M,M,M,KDYL 011440Z AUTO 36011G16KT 10SM OVC022 A2983 RMK MADISHF
DYL,2017-04-01 14:45,-75.1223,40.3331,M,M,M,350.00,9.00,M,29.83,M,10.00,M,OVC,M,M,M,2200.00,M,M,M,M,KDYL 011445Z AUTO 35009KT 10SM OVC022 A2983 RMK MADISHF
DYL,2017-04-01 14:50,-75.1223,40.3331,M,M,M,340.00,9.00,M,29.84,M,10.00,M,OVC,M,M,M,2200.00,M,M,M,M,KDYL 011450Z AUTO 34009KT 10SM OVC022 A2984 RMK MADISHF
DYL,2017-04-01 14:54,-75.1223,40.3331,43.00,36.00,76.12,350.00,8.00,0.00,29.84,1010.70,10.00,14.00,OVC,M,M,M,2200.00,M,M,M,M,KDYL 011454Z AUTO 35008G14KT 10SM OVC022 06/02 A2984 RMK AO2 SLP107 T00610022 52020 $
DYL,2017-04-01 14:55,-75.1223,40.3331,M,M,M,350.00,10.00,M,29.84,M,10.00,M,OVC,M,M,M,2200.00,M,M,M,M,KDYL 011455Z AUTO 35010KT 10SM OVC022 A2984 RMK MADISHF
DYL,2017-04-01 15:00,-75.1223,40.3331,M,M,M,10.00,7.00,M,29.84,M,10.00,M,OVC,M,M,M,2200.00,M,M,M,M,KDYL 011500Z AUTO 01007KT 10SM OVC022 A2984 RMK MADISHF
DYL,2017-04-01 15:05,-75.1223,40.3331,M,M,M,360.00,8.00,M,29.84,M,10.00,M,OVC,M,M,M,2400.00,M,M,M,M,KDYL 011505Z AUTO 36008KT 10SM OVC024 A2984 RMK MADISHF
DYL,2017-04-01 15:10,-75.1223,40.3331,M,M,M,10.00,6.00,M,29.84,M,10.00,M,BKN,OVC,M,M,2400.00,3000.00,M,M,M,KDYL 011510Z AUTO 01006KT 10SM BKN024 OVC030 A2984 RMK MADISHF
DYL,2017-04-01 15:15,-75.1223,40.3331,M,M,M,10.00,10.00,M,29.84,M,10.00,M,OVC,M,M,M,2400.00,M,M,M,M,KDYL 011515Z AUTO 01010KT 10SM OVC024 A2984 RMK MADISHF
DYL,2017-04-01 15:20,-75.1223,40.3331,M,M,M,10.00,9.00,M,29.84,M,10.00,14.00,OVC,M,M,M,2400.00,M,M,M,M,KDYL 011520Z AUTO 01009G14KT 10SM OVC024 A2984 RMK MADISHF
DYL,2017-04-01 15:25,-75.1223,40.3331,M,M,M,360.00,9.00,M,29.84,M,10.00,M,OVC,M,M,M,2400.00,M,M,M,M,KDYL 011525Z AUTO 36009KT 10SM OVC024 A2984 RMK MADISHF
DYL,2017-04-01 15:30,-75.1223,40.3331,M,M,M,360.00,10.00,M,29.84,M,10.00,15.00,OVC,M,M,M,2400.00,M,M,M,M,KDYL 011530Z AUTO 36010G15KT 10SM OVC024 A2984 RMK MADISHF
DYL,2017-04-01 15:35,-75.1223,40.3331,M,M,M,340.00,7.00,M,29.84,M,10.00,M,OVC,M,M,M,2400.00,M,M,M,M,KDYL 011535Z AUTO 34007KT 10SM OVC024 A2984 RMK MADISHF
DYL,2017-04-01 15:40,-75.1223,40.3331,M,M,M,340.00,6.00,M,29.84,M,10.00,M,OVC,M,M,M,2400.00,M,M,M,M,KDYL 011540Z AUTO 34006KT 10SM OVC024 A2984 RMK MADISHF
DYL,2017-04-01 15:45,-75.1223,40.3331,M,M,M,330.00,8.00,M,29.84,M,10.00,M,OVC,M,M,M,2400.00,M,M,M,M,KDYL 011545Z AUTO 33008KT 10SM OVC024 A2984 RMK MADISHF
DYL,2017-04-01 15:50,-75.1223,40.3331,M,M,M,330.00,7.00,M,29.84,M,10.00,M,OVC,M,M,M,2400.00,M,M,M,M,KDYL 011550Z AUTO 33007KT 10SM OVC024 A2984 RMK MADISHF
DYL,2017-04-01 15:54,-75.1223,40.3331,44.10,37.00,75.93,330.00,7.00,0.00,29.83,1010.70,10.00,M,OVC,M,M,M,2400.00,M,M,M,M,KDYL 011554Z AUTO 33007KT 10SM OVC024 07/03 A2983 RMK AO2 SLP107 T00670028 $
DYL,2017-04-01 15:55,-75.1223,40.3331,M,M,M,330.00,7.00,M,29.83,M,10.00,M,OVC,M,M,M,2400.00,M,M,M,M,KDYL 011555Z AUTO 33007KT 10SM OVC024 A2983 RMK MADISHF
DYL,2017-04-01 16:00,-75.1223,40.3331,M,M,M,330.00,6.00,M,29.83,M,10.00,M,OVC,M,M,M,2600.00,M,M,M,M,KDYL 011600Z AUTO 33006KT 10SM OVC026 A2983 RMK MADISHF
DYL,2017-04-01 16:05,-75.1223,40.3331,M,M,M,330.00,9.00,M,29.83,M,10.00,M,OVC,M,M,M,2600.00,M,M,M,M,KDYL 011605Z AUTO 33009KT 10SM OVC026 A2983 RMK MADISHF
DYL,2017-04-01 16:10,-75.1223,40.3331,M,M,M,330.00,7.00,M,29.83,M,10.00,M,OVC,M,M,M,2800.00,M,M,M,M,KDYL 011610Z AUTO 33007KT 10SM OVC028 A2983 RMK MADISHF
DYL,2017-04-01 16:15,-75.1223,40.3331,M,M,M,340.00,8.00,M,29.83,M,10.00,M,OVC,M,M,M,2800.00,M,M,M,M,KDYL 011615Z AUTO 34008KT 10SM OVC028 A2983 RMK MADISHF
DYL,2017-04-01 16:20,-75.1223,40.3331,M,M,M,330.00,5.00,M,29.84,M,10.00,M,OVC,M,M,M,2800.00,M,M,M,M,KDYL 011620Z AUTO 33005KT 10SM OVC028 A2984 RMK MADISHF
DYL,2017-04-01 16:25,-75.1223,40.3331,M,M,M,350.00,8.00,M,29.84,M,10.00,M,OVC,M,M,M,2900.00,M,M,M,M,KDYL 011625Z AUTO 35008KT 10SM OVC029 A2984 RMK MADISHF
DYL,2017-04-01 16:30,-75.1223,40.3331,M,M,M,330.00,4.00,M,29.84,M,10.00,M,OVC,M,M,M,2900.00,M,M,M,M,KDYL 011630Z AUTO 33004KT 10SM OVC029 A2984 RMK MADISHF
DYL,2017-04-01 16:35,-75.1223,40.3331,M,M,M,320.00,6.00,M,29.84,M,10.00,M,OVC,M,M,M,2900.00,M,M,M,M,KDYL 011635Z AUTO 32006KT 10SM OVC029 A2984 RMK MADISHF
DYL,2017-04-01 16:40,-75.1223,40.3331,M,M,M,310.00,9.00,M,29.84,M,10.00,16.00,OVC,M,M,M,2800.00,M,M,M,M,KDYL 011640Z AUTO 31009G16KT 10SM OVC028 A2984 RMK MADISHF
DYL,2017-04-01 16:45,-75.1223,40.3331,M,M,M,330.00,9.00,M,29.84,M,10.00,M,OVC,M,M,M,2800.00,M,M,M,M,KDYL 011645Z AUTO 33009KT 10SM OVC028 A2984 RMK MADISHF
DYL,2017-04-01 16:50,-75.1223,40.3331,M,M,M,310.00,10.00,M,29.84,M,10.00,M,OVC,M,M,M,2800.00,M,M,M,M,KDYL 011650Z AUTO 31010KT 10SM OVC028 A2984 RMK MADISHF
DYL,2017-04-01 16:54,-75.1223,40.3331,46.00,37.00,70.64,330.00,8.00,0.00,29.84,1010.80,10.00,16.00,OVC,M,M,M,2800.00,M,M,M,M,KDYL 011654Z AUTO 33008G16KT 10SM OVC028 08/03 A2984 RMK AO2 SLP108 T00780028 $
DYL,2017-04-01 16:55,-75.1223,40.3331,M,M,M,330.00,10.00,M,29.84,M,10.00,18.00,OVC,M,M,M,2800.00,M,M,M,M,KDYL 011655Z AUTO 33010G18KT 10SM OVC028 A2984 RMK MADISHF
DYL,2017-04-01 17:00,-75.1223,40.3331,M,M,M,320.00,12.00,M,29.84,M,10.00,M,OVC,M,M,M,3000.00,M,M,M,M,KDYL 011700Z AUTO 32012KT 10SM OVC030 A2984 RMK MADISHF
DYL,2017-04-01 17:03,-75.1223,40.3331,46.00,36.00,67.90,320.00,9.00,0.00,29.84,M,10.00,19.00,OVC,M,M,M,3000.00,M,M,M,M,KDYL 011703Z AUTO 32009G19KT 10SM OVC030 08/02 A2984 RMK AO2 T00780022 $
DYL,2017-04-01 17:05,-75.1223,40.3331,M,M,M,310.00,11.00,M,29.84,M,10.00,M,OVC,M,M,M,3000.00,M,M,M,M,KDYL 011705Z AUTO 31011KT 10SM OVC030 A2984 RMK MADISHF
DYL,2017-04-01 17:10,-75.1223,40.3331,M,M,M,340.00,8.00,M,29.84,M,10.00,M,OVC,M,M,M,3000.00,M,M,M,M,KDYL 011710Z AUTO 34008KT 10SM OVC030 A2984 RMK MADISHF
DYL,2017-04-01 17:15,-75.1223,40.3331,M,M,M,340.00,8.00,M,29.84,M,10.00,M,OVC,M,M,M,3000.00,M,M,M,M,KDYL 011715Z AUTO 34008KT 10SM OVC030 A2984 RMK MADISHF
DYL,2017-04-01 17:20,-75.1223,40.3331,M,M,M,340.00,8.00,M,29.84,M,10.00,M,OVC,M,M,M,3000.00,M,M,M,M,KDYL 011720Z AUTO 34008KT 10SM OVC030 A2984 RMK WND 29V36  MADISHF
DYL,2017-04-01 17:25,-75.1223,40.3331,M,M,M,320.00,11.00,M,29.84,M,10.00,M,OVC,M,M,M,3000.00,M,M,M,M,KDYL 011725Z AUTO 32011KT 10SM OVC030 A2984 RMK MADISHF
DYL,2017-04-01 17:30,-75.1223,40.3331,M,M,M,310.00,10.00,M,29.84,M,10.00,15.00,OVC,M,M,M,3000.00,M,M,M,M,KDYL 011730Z AUTO 31010G15KT 10SM OVC030 A2984 RMK WND 26V34  MADISHF
DYL,2017-04-01 17:35,-75.1223,40.3331,M,M,M,300.00,11.00,M,29.85,M,10.00,16.00,OVC,M,M,M,3000.00,M,M,M,M,KDYL 011735Z AUTO 30011G16KT 10SM OVC030 A2985 RMK MADISHF
DYL,2017-04-01 17:40,-75.1223,40.3331,M,M,M,310.00,9.00,M,29.85,M,10.00,M,OVC,M,M,M,3000.00,M,M,M,M,KDYL 011740Z AUTO 31009KT 10SM OVC030 A2985 RMK MADISHF
DYL,2017-04-01 17:45,-75.1223,40.3331,M,M,M,310.00,8.00,M,29.85,M,10.00,M,OVC,M,M,M,3000.00,M,M,M,M,KDYL 011745Z AUTO 31008KT 10SM OVC030 A2985 RMK MADISHF
DYL,2017-04-01 17:50,-75.1223,40.3331,M,M,M,310.00,6.00,M,29.85,M,10.00,M,OVC,M,M,M,2900.00,M,M,M,M,KDYL 011750Z AUTO 31006KT 10SM OVC029 A2985 RMK MADISHF
DYL,2017-04-01 17:54,-75.1223,40.3331,46.90,37.00,68.27,320.00,11.00,0.00,29.85,1011.30,10.00,16.00,OVC,M,M,M,2900.00,M,M,M,M,KDYL 011754Z AUTO 32011G16KT 10SM OVC029 08/03 A2985 RMK AO2 SLP113 T00830028 10083 20022 53006 $
DYL,2017-04-01 17:55,-75.1223,40.3331,M,M,M,320.00,12.00,M,29.86,M,10.00,17.00,OVC,M,M,M,2900.00,M,M,M,M,KDYL 011755Z AUTO 32012G17KT 10SM OVC029 A2986 RMK MADISHF
DYL,2017-04-01 18:00,-75.1223,40.3331,M,M,M,310.00,11.00,M,29.86,M,10.00,16.00,OVC,M,M,M,2900.00,M,M,M,M,KDYL 011800Z AUTO 31011G16KT 10SM OVC029 A2986 RMK MADISHF
DYL,2017-04-01 18:05,-75.1223,40.3331,M,M,M,M,M,M,29.87,M,10.00,18.00,OVC,M,M,M,2900.00,M,M,M,M,KDYL 011805Z AUTO /////G18KT 10SM OVC029 A2987 RMK MADISHF
DYL,2017-04-01 18:10,-75.1223,40.3331,M,M,M,M,M,M,29.87,M,10.00,M,OVC,M,M,M,2900.00,M,M,M,M,KDYL 011810Z AUTO /////KT 10SM OVC029 A2987 RMK MADISHF
DYL,2017-04-01 18:15,-75.1223,40.3331,M,M,M,330.00,11.00,M,29.87,M,10.00,M,OVC,M,M,M,3000.00,M,M,M,M,KDYL 011815Z AUTO 33011KT 10SM OVC030 A2987 RMK MADISHF
DYL,2017-04-01 18:17,-75.1223,40.3331,48.00,37.00,65.51,330.00,10.00,0.00,29.86,M,10.00,18.00,OVC,M,M,M,3000.00,M,M,M,M,KDYL 011817Z AUTO 33010G18KT 10SM OVC030 09/03 A2986 RMK AO2 T00890028 $
DYL,2017-04-01 18:20,-75.1223,40.3331,M,M,M,320.00,9.00,M,29.87,M,10.00,M,OVC,M,M,M,3000.00,M,M,M,M,KDYL 011820Z AUTO 32009KT 10SM OVC030 A2987 RMK MADISHF
DYL,2017-04-01 18:25,-75.1223,40.3331,M,M,M,330.00,9.00,M,29.86,M,10.00,14.00,OVC,M,M,M,3100.00,M,M,M,M,KDYL 011825Z AUTO 33009G14KT 10SM OVC031 A2986 RMK MADISHF
DYL,2017-04-01 18:30,-75.1223,40.3331,M,M,M,330.00,11.00,M,29.86,M,10.00,M,OVC,M,M,M,3100.00,M,M,M,M,KDYL 011830Z AUTO 33011KT 10SM OVC031 A2986 RMK MADISHF
DYL,2017-04-01 18:35,-75.1223,40.3331,M,M,M,M,M,M,29.85,M,10.00,M,OVC,M,M,M,3100.00,M,M,M,M,KDYL 011835Z AUTO /////KT 10SM OVC031 A2985 RMK MADISHF
DYL,2017-04-01 18:40,-75.1223,40.3331,M,M,M,320.00,11.00,M,29.85,M,10.00,M,OVC,M,M,M,3100.00,M,M,M,M,KDYL 011840Z AUTO 32011KT 10SM OVC031 A2985 RMK MADISHF
DYL,2017-04-01 18:45,-75.1223,40.3331,M,M,M,330.00,12.00,M,29.85,M,10.00,19.00,OVC,M,M,M,3100.00,M,M,M,M,KDYL 011845Z AUTO 33012G19KT 10SM OVC031 A2985 RMK MADISHF
DYL,2017-04-01 18:50,-75.1223,40.3331,M,M,M,330.00,13.00,M,29.85,M,10.00,M,OVC,M,M,M,3100.00,M,M,M,M,KDYL 011850Z AUTO 33013KT 10SM OVC031 A2985 RMK MADISHF
DYL,2017-04-01 18:54,-75.1223,40.3331,48.90,37.00,63.34,330.00,12.00,0.00,29.85,1011.20,10.00,21.00,OVC,M,M,M,3300.00,M,M,M,M,KDYL 011854Z AUTO 33012G21KT 10SM OVC033 09/03 A2985 RMK AO2 SLP112 T00940028 $
DYL,2017-04-01 18:55,-75.1223,40.3331,M,M,M,330.00,10.00,M,29.85,M,10.00,M,OVC,M,M,M,3300.00,M,M,M,M,KDYL 011855Z AUTO 33010KT 10SM OVC033 A2985 RMK MADISHF
DYL,2017-04-01 19:00,-75.1223,40.3331,M,M,M,320.00,11.00,M,29.85,M,10.00,19.00,BKN,M,M,M,3300.00,M,M,M,M,KDYL 011900Z AUTO 32011G19KT 10SM BKN033 A2985 RMK WND 29V35  MADISHF
DYL,2017-04-01 19:05,-75.1223,40.3331,M,M,M,320.00,11.00,M,29.86,M,10.00,16.00,BKN,M,M,M,3300.00,M,M,M,M,KDYL 011905Z AUTO 32011G16KT 10SM BKN033 A2986 RMK MADISHF
DYL,2017-04-01 19:10,-75.1223,40.3331,M,M,M,330.00,10.00,M,29.86,M,10.00,15.00,OVC,M,M,M,3500.00,M,M,M,M,KDYL 011910Z AUTO 33010G15KT 10SM OVC035 A2986 RMK MADISHF
DYL,2017-04-01 19:15,-75.1223,40.3331,M,M,M,310.00,11.00,M,29.87,M,10.00,M,OVC,M,M,M,3500.00,M,M,M,M,KDYL 011915Z AUTO 31011KT 10SM OVC035 A2987 RMK MADISHF
DYL,2017-04-01 19:20,-75.1223,40.3331,M,M,M,320.00,11.00,M,29.87,M,10.00,M,OVC,M,M,M,3500.00,M,M,M,M,KDYL 011920Z AUTO 32011KT 10SM OVC035 A2987 RMK MADISHF
DYL,2017-04-01 19:25,-75.1223,40.3331,M,M,M,310.00,12.00,M,29.88,M,10.00,M,OVC,M,M,M,3500.00,M,M,M,M,KDYL 011925Z AUTO 31012KT 10SM OVC035 A2988 RMK MADISHF
DYL,2017-04-01 19:30,-75.1223,40.3331,M,M,M,310.00,12.00,M,29.88,M,10.00,M,OVC,M,M,M,3500.00,M,M,M,M,KDYL 011930Z AUTO 31012KT 10SM OVC035 A2988 RMK MADISHF
DYL,2017-04-01 19:35,-75.1223,40.3331,M,M,M,M,M,M,29.88,M,10.00,M,OVC,M,M,M,3500.00,M,M,M,M,KDYL 011935Z AUTO /////KT 10SM OVC035 A2988 RMK MADISHF
DYL,2017-04-01 19:40,-75.1223,40.3331,M,M,M,M,M,M,29.88,M,10.00,M,OVC,M,M,M,3500.00,M,M,M,M,KDYL 011940Z AUTO /////KT 10SM OVC035 A2988 RMK MADISHF
DYL,2017-04-01 19:45,-75.1223,40.3331,M,M,M,330.00,12.00,M,29.88,M,10.00,17.00,OVC,M,M,M,3500.00,M,M,M,M,KDYL 011945Z AUTO 33012G17KT 10SM OVC035 A2988 RMK MADISHF
DYL,2017-04-01 19:50,-75.1223,40.3331,M,M,M,M,M,M,29.88,M,10.00,M,OVC,M,M,M,3500.00,M,M,M,M,KDYL 011950Z AUTO /////KT 10SM OVC035 A2988 RMK MADISHF
DYL,2017-04-01 19:54,-75.1223,40.3331,48.00,37.00,65.51,300.00,13.00,0.00,29.88,1012.40,10.00,23.00,OVC,M,M,M,3500.00,M,M,M,M,KDYL 011954Z AUTO 30013G23KT 10SM OVC035 09/03 A2988 RMK AO2 SLP124 T00890028 $
DYL,2017-04-01 19:55,-75.1223,40.3331,M,M,M,310.00,12.00,M,29.89,M,10.00,20.00,OVC,M,M,M,3500.00,M,M,M,M,KDYL 011955Z AUTO 31012G20KT 10SM OVC035 A2989 RMK MADISHF
DYL,2017-04-01 20:00,-75.1223,40.3331,M,M,M,M,M,M,29.89,M,10.00,M,OVC,M,M,M,3500.00,M,M,M,M,KDYL 012000Z AUTO /////KT 10SM OVC035 A2989 RMK MADISHF
DYL,2017-04-01 20:05,-75.1223,40.3331,M,M,M,320.00,10.00,M,29.89,M,10.00,M,OVC,M,M,M,3600.00,M,M,M,M,KDYL 012005Z AUTO 32010KT 10SM OVC036 A2989 RMK MADISHF
DYL,2017-04-01 20:10,-75.1223,40.3331,M,M,M,330.00,13.00,M,29.89,M,10.00,20.00,OVC,M,M,M,3600.00,M,M,M,M,KDYL 012010Z AUTO 33013G20KT 10SM OVC036 A2989 RMK MADISHF
DYL,2017-04-01 20:15,-75.1223,40.3331,M,M,M,330.00,13.00,M,29.89,M,10.00,M,OVC,M,M,M,3600.00,M,M,M,M,KDYL 012015Z AUTO 33013KT 10SM OVC036 A2989 RMK MADISHF
DYL,2017-04-01 20:20,-75.1223,40.3331,M,M,M,320.00,13.00,M,29.89,M,10.00,M,OVC,M,M,M,3700.00,M,M,M,M,KDYL 012020Z AUTO 32013KT 10SM OVC037 A2989 RMK MADISHF
DYL,2017-04-01 20:25,-75.1223,40.3331,M,M,M,M,M,M,29.90,M,10.00,M,OVC,M,M,M,3700.00,M,M,M,M,KDYL 012025Z AUTO /////KT 10SM OVC037 A2990 RMK MADISHF
DYL,2017-04-01 20:30,-75.1223,40.3331,M,M,M,M,M,M,29.90,M,10.00,M,OVC,M,M,M,3700.00,M,M,M,M,KDYL 012030Z AUTO /////KT 10SM OVC037 A2990 RMK MADISHF
DYL,2017-04-01 20:35,-75.1223,40.3331,M,M,M,320.00,12.00,M,29.90,M,10.00,M,OVC,M,M,M,3600.00,M,M,M,M,KDYL 012035Z AUTO 32012KT 10SM OVC036 A2990 RMK MADISHF
DYL,2017-04-01 20:40,-75.1223,40.3331,M,M,M,M,M,M,29.90,M,10.00,20.00,OVC,M,M,M,3600.00,M,M,M,M,KDYL 012040Z AUTO /////G20KT 10SM OVC036 A2990 RMK MADISHF
DYL,2017-04-01 20:45,-75.1223,40.3331,M,M,M,320.00,11.00,M,29.91,M,10.00,17.00,OVC,M,M,M,3600.00,M,M,M,M,KDYL 012045Z AUTO 32011G17KT 10SM OVC036 A2991 RMK MADISHF
DYL,2017-04-01 20:50,-75.1223,40.3331,M,M,M,330.00,11.00,M,29.91,M,10.00,M,OVC,M,M,M,3600.00,M,M,M,M,KDYL 012050Z AUTO 33011KT 10SM OVC036 A2991 RMK MADISHF
DYL,2017-04-01 20:54,-75.1223,40.3331,46.90,37.00,68.27,320.00,13.00,0.00,29.91,1013.20,10.00,21.00,OVC,M,M,M,3600.00,M,M,M,M,KDYL 012054Z AUTO 32013G21KT 10SM OVC036 08/03 A2991 RMK AO2 SLP132 T00830028 53018 $
DYL,2017-04-01 20:55,-75.1223,40.3331,M,M,M,M,M,M,29.91,M,10.00,21.00,OVC,M,M,M,3600.00,M,M,M,M,KDYL 012055Z AUTO /////G21KT 10SM OVC036 A2991 RMK MADISHF
DYL,2017-04-01 21:00,-75.1223,40.3331,M,M,M,330.00,12.00,M,29.91,M,10.00,M,OVC,M,M,M,3600.00,M,M,M,M,KDYL 012100Z AUTO 33012KT 10SM OVC036 A2991 RMK MADISHF
DYL,2017-04-01 21:05,-75.1223,40.3331,M,M,M,330.00,11.00,M,29.91,M,10.00,17.00,OVC,M,M,M,3600.00,M,M,M,M,KDYL 012105Z AUTO 33011G17KT 10SM OVC036 A2991 RMK MADISHF
DYL,2017-04-01 21:10,-75.1223,40.3331,M,M,M,330.00,11.00,M,29.91,M,10.00,M,BKN,M,M,M,3600.00,M,M,M,M,KDYL 012110Z AUTO 33011KT 10SM BKN036 A2991 RMK MADISHF
DYL,2017-04-01 21:15,-75.1223,40.3331,M,M,M,320.00,12.00,M,29.91,M,10.00,17.00,BKN,M,M,M,3600.00,M,M,M,M,KDYL 012115Z AUTO 32012G17KT 10SM BKN036 A2991 RMK MADISHF
DYL,2017-04-01 21:20,-75.1223,40.3331,M,M,M,340.00,10.00,M,29.92,M,10.00,M,BKN,M,M,M,3500.00,M,M,M,M,KDYL 012120Z AUTO 34010KT 10SM BKN035 A2992 RMK MADISHF
DYL,2017-04-01 21:25,-75.1223,40.3331,M,M,M,340.00,11.00,M,29.92,M,10.00,M,BKN,M,M,M,3300.00,M,M,M,M,KDYL 012125Z AUTO 34011KT 10SM BKN033 A2992 RMK MADISHF
DYL,2017-04-01 21:30,-75.1223,40.3331,M,M,M,330.00,10.00,M,29.92,M,10.00,M,BKN,M,M,M,3300.00,M,M,M,M,KDYL 012130Z AUTO 33010KT 10SM BKN033 A2992 RMK MADISHF
DYL,2017-04-01 21:35,-75.1223,40.3331,M,M,M,320.00,9.00,M,29.92,M,10.00,14.00,OVC,M,M,M,3300.00,M,M,M,M,KDYL 012135Z AUTO 32009G14KT 10SM OVC033 A2992 RMK WND 29V36  MADISHF
DYL,2017-04-01 21:40,-75.1223,40.3331,M,M,M,M,M,M,29.93,M,10.00,M,OVC,M,M,M,3300.00,M,M,M,M,KDYL 012140Z AUTO /////KT 10SM OVC033 A2993 RMK MADISHF
DYL,2017-04-01 21:45,-75.1223,40.3331,M,M,M,320.00,10.00,M,29.93,M,10.00,M,OVC,M,M,M,3100.00,M,M,M,M,KDYL 012145Z AUTO 32010KT 10SM OVC031 A2993 RMK MADISHF
DYL,2017-04-01 21:50,-75.1223,40.3331,M,M,M,320.00,10.00,M,29.93,M,10.00,M,OVC,M,M,M,3100.00,M,M,M,M,KDYL 012150Z AUTO 32010KT 10SM OVC031 A2993 RMK MADISHF
DYL,2017-04-01 21:54,-75.1223,40.3331,46.90,37.00,68.27,350.00,10.00,0.00,29.93,1014.00,10.00,15.00,OVC,M,M,M,3100.00,M,M,M,M,KDYL 012154Z AUTO 35010G15KT 10SM OVC031 08/03 A2993 RMK AO2 SLP140 T00830028 $
DYL,2017-04-01 21:55,-75.1223,40.3331,M,M,M,340.00,10.00,M,29.94,M,10.00,M,OVC,M,M,M,3100.00,M,M,M,M,KDYL 012155Z AUTO 34010KT 10SM OVC031 A2994 RMK MADISHF
DYL,2017-04-01 22:00,-75.1223,40.3331,M,M,M,330.00,7.00,M,29.94,M,10.00,M,OVC,M,M,M,3100.00,M,M,M,M,KDYL 012200Z AUTO 33007KT 10SM OVC031 A2994 RMK MADISHF
DYL,2017-04-01 22:05,-75.1223,40.3331,M,M,M,350.00,12.00,M,29.94,M,10.00,M,OVC,M,M,M,3100.00,M,M,M,M,KDYL 012205Z AUTO 35012KT 10SM OVC031 A2994 RMK MADISHF
DYL,2017-04-01 22:10,-75.1223,40.3331,M,M,M,340.00,10.00,M,29.94,M,10.00,20.00,OVC,M,M,M,3100.00,M,M,M,M,KDYL 012210Z AUTO 34010G20KT 10SM OVC031 A2994 RMK MADISHF
DYL,2017-04-01 22:15,-75.1223,40.3331,M,M,M,350.00,10.00,M,29.94,M,10.00,M,OVC,M,M,M,3100.00,M,M,M,M,KDYL 012215Z AUTO 35010KT 10SM OVC031 A2994 RMK MADISHF
DYL,2017-04-01 22:20,-75.1223,40.3331,M,M,M,340.00,8.00,M,29.94,M,10.00,M,OVC,M,M,M,3100.00,M,M,M,M,KDYL 012220Z AUTO 34008KT 10SM OVC031 A2994 RMK MADISHF
DYL,2017-04-01 22:25,-75.1223,40.3331,M,M,M,340.00,9.00,M,29.95,M,10.00,15.00,OVC,M,M,M,3100.00,M,M,M,M,KDYL 012225Z AUTO 34009G15KT 10SM OVC031 A2995 RMK MADISHF
DYL,2017-04-01 22:30,-75.1223,40.3331,M,M,M,330.00,10.00,M,29.95,M,10.00,16.00,OVC,M,M,M,3100.00,M,M,M,M,KDYL 012230Z AUTO 33010G16KT 10SM OVC031 A2995 RMK MADISHF
DYL,2017-04-01 22:35,-75.1223,40.3331,M,M,M,340.00,8.00,M,29.96,M,10.00,M,OVC,M,M,M,3100.00,M,M,M,M,KDYL 012235Z AUTO 34008KT 10SM OVC031 A2996 RMK MADISHF
DYL,2017-04-01 22:40,-75.1223,40.3331,M,M,M,340.00,7.00,M,29.96,M,10.00,M,OVC,M,M,M,3100.00,M,M,M,M,KDYL 012240Z AUTO 34007KT 10SM OVC031 A2996 RMK MADISHF
DYL,2017-04-01 22:45,-75.1223,40.3331,M,M,M,320.00,8.00,M,29.97,M,10.00,M,OVC,M,M,M,3100.00,M,M,M,M,KDYL 012245Z AUTO 32008KT 10SM OVC031 A2997 RMK MADISHF
DYL,2017-04-01 22:50,-75.1223,40.3331,M,M,M,330.00,5.00,M,29.97,M,10.00,M,OVC,M,M,M,3100.00,M,M,M,M,KDYL 012250Z AUTO 33005KT 10SM OVC031 A2997 RMK MADISHF
DYL,2017-04-01 22:54,-75.1223,40.3331,46.90,37.00,68.27,330.00,7.00,0.00,29.98,1015.60,10.00,M,OVC,M,M,M,3100.00,M,M,M,M,KDYL 012254Z AUTO 33007KT 10SM OVC031 08/03 A2998 RMK AO2 SLP156 T00830028 $
DYL,2017-04-01 22:55,-75.1223,40.3331,M,M,M,330.00,7.00,M,29.98,M,10.00,M,OVC,M,M,M,3100.00,M,M,M,M,KDYL 012255Z AUTO 33007KT 10SM OVC031 A2998 RMK MADISHF
DYL,2017-04-01 23:00,-75.1223,40.3331,M,M,M,330.00,9.00,M,29.98,M,10.00,M,OVC,M,M,M,3100.00,M,M,M,M,KDYL 012300Z AUTO 33009KT 10SM OVC031 A2998 RMK MADISHF
DYL,2017-04-01 23:05,-75.1223,40.3331,M,M,M,320.00,8.00,M,29.98,M,10.00,M,OVC,M,M,M,3000.00,M,M,M,M,KDYL 012305Z AUTO 32008KT 10SM OVC030 A2998 RMK MADISHF
DYL,2017-04-01 23:10,-75.1223,40.3331,M,M,M,330.00,8.00,M,29.99,M,10.00,M,OVC,M,M,M,3000.00,M,M,M,M,KDYL 012310Z AUTO 33008KT 10SM OVC030 A2999 RMK MADISHF
DYL,2017-04-01 23:15,-75.1223,40.3331,M,M,M,M,M,M,29.99,M,10.00,M,OVC,M,M,M,3000.00,M,M,M,M,KDYL 012315Z AUTO /////KT 10SM OVC030 A2999 RMK MADISHF
DYL,2017-04-01 23:20,-75.1223,40.3331,M,M,M,330.00,11.00,M,29.99,M,10.00,M,OVC,M,M,M,3000.00,M,M,M,M,KDYL 012320Z AUTO 33011KT 10SM OVC030 A2999 RMK MADISHF
DYL,2017-04-01 23:25,-75.1223,40.3331,M,M,M,320.00,10.00,M,30.00,M,10.00,M,OVC,M,M,M,3000.00,M,M,M,M,KDYL 012325Z AUTO 32010KT 10SM OVC030 A3000 RMK MADISHF
DYL,2017-04-01 23:30,-75.1223,40.3331,M,M,M,330.00,12.00,M,30.00,M,10.00,18.00,OVC,M,M,M,3200.00,M,M,M,M,KDYL 012330Z AUTO 33012G18KT 10SM OVC032 A3000 RMK MADISHF
DYL,2017-04-01 23:35,-75.1223,40.3331,M,M,M,330.00,11.00,M,30.00,M,10.00,M,OVC,M,M,M,3200.00,M,M,M,M,KDYL 012335Z AUTO 33011KT 10SM OVC032 A3000 RMK MADISHF
DYL,2017-04-01 23:40,-75.1223,40.3331,M,M,M,340.00,7.00,M,30.01,M,10.00,M,OVC,M,M,M,3200.00,M,M,M,M,KDYL 012340Z AUTO 34007KT 10SM OVC032 A3001 RMK MADISHF
DYL,2017-04-01 23:45,-75.1223,40.3331,M,M,M,350.00,12.00,M,30.01,M,10.00,18.00,OVC,M,M,M,3399.00,M,M,M,M,KDYL 012345Z AUTO 35012G18KT 10SM OVC033 A3001 RMK MADISHF
DYL,2017-04-01 23:50,-75.1223,40.3331,M,M,M,340.00,10.00,M,30.01,M,10.00,M,OVC,M,M,M,3399.00,M,M,M,M,KDYL 012350Z AUTO 34010KT 10SM OVC033 A3001 RMK MADISHF
DYL,2017-04-01 23:54,-75.1223,40.3331,45.00,35.10,68.05,340.00,10.00,0.00,30.00,1016.40,10.00,19.00,OVC,M,M,M,3400.00,M,M,M,M,KDYL 012354Z AUTO 34010G19KT 10SM OVC034 07/02 A3000 RMK AO2 SLP164 T00720017 10106 20072 52032 $
DYL,2017-04-01 23:55,-75.1223,40.3331,M,M,M,340.00,8.00,M,30.00,M,10.00,M,OVC,M,M,M,3399.00,M,M,M,M,KDYL 012355Z AUTO 34008KT 10SM OVC033 A3000 RMK MADISHF
