#DEBUG: Format Typ    -> comma
#DEBUG: Time Period   -> 2017-04-01 00:00:00+00:00 2017-04-02 00:00:00+00:00
#DEBUG: Time Zone     -> Etc/UTC
#DEBUG: Data Contact   -> daryl herzmann akrherz@iastate.edu 515-294-5978
#DEBUG: Entries Found -> -1
station,valid,lon,lat,tmpf, dwpf, relh, drct, sknt, p01i, alti, mslp, vsby, gust, skyc1, skyc2, skyc3, skyc4, skyl1, skyl2, skyl3, skyl4, presentwx, metar
E11,2017-04-01 00:15,-102.5295,32.3311,86.50,9.30,5.40,210.00,11.00,0.00,29.54,M,10.00,17.00,CLR,M,M,M,M,M,M,M,M,KE11 010015Z AUTO 21011G17KT 10SM CLR 30/M13 A2954 RMK AO2 T03031126
E11,2017-04-01 00:35,-102.5295,32.3311,84.20,7.20,5.29,250.00,11.00,0.00,29.54,M,10.00,17.00,CLR,M,M,M,M,M,M,M,M,KE11 010035Z AUTO 25011G17KT 10SM CLR 29/M14 A2954 RMK AO2 T02901138
E11,2017-04-01 00:55,-102.5295,32.3311,81.50,9.50,6.40,240.00,8.00,0.00,29.56,M,10.00,M,CLR,M,M,M,M,M,M,M,M,KE11 010055Z AUTO 24008KT 10SM CLR 28/M12 A2956 RMK AO2 T02751125
E11,2017-04-01 01:15,-102.5295,32.3311,79.50,9.10,6.71,230.00,8.00,0.00,29.56,M,10.00,M,CLR,M,M,M,M,M,M,M,M,KE11 010115Z AUTO 23008KT 10SM CLR 26/M13 A2956 RMK AO2 T02641127
E11,2017-04-01 01:35,-102.5295,32.3311,77.20,10.90,7.84,230.00,5.00,0.00,29.57,M,10.00,M,CLR,M,M,M,M,M,M,M,M,KE11 010135Z AUTO 23005KT 10SM CLR 25/M12 A2957 RMK AO2 T02511117
E11,2017-04-01 01:55,-102.5295,32.3311,77.40,24.80,14.18,180.00,12.00,0.00,29.58,M,10.00,18.00,CLR,M,M,M,M,M,M,M,M,KE11 010155Z AUTO 18012G18KT 10SM CLR 25/M04 A2958 RMK AO2 T02521040
E11,2017-04-01 02:15,-102.5295,32.3311,77.90,30.60,17.70,170.00,11.00,0.00,29.59,M,10.00,21.00,CLR,M,M,M,M,M,M,M,M,KE11 010215Z AUTO 17011G21KT 10SM CLR 26/M01 A2959 RMK AO2 T02551008
E11,2017-04-01 02:35,-102.5295,32.3311,76.50,32.20,19.78,170.00,14.00,0.00,29.59,M,10.00,18.00,CLR,M,M,M,M,M,M,M,M,KE11 010235Z AUTO 17014G18KT 10SM CLR 25/00 A2959 RMK AO2 T02470001
E11,2017-04-01 02:55,-102.5295,32.3311,75.20,33.10,21.41,160.00,11.00,0.00,29.60,M,10.00,17.00,CLR,M,M,M,M,M,M,M,M,KE11 010255Z AUTO 16011G17KT 10SM CLR 24/01 A2960 RMK AO2 T02400006
E11,2017-04-01 03:15,-102.5295,32.3311,74.50,34.20,22.91,280.00,11.00,0.00,29.64,M,10.00,M,CLR,M,M,M,M,M,M,M,M,KE11 010315Z AUTO 28011KT 10SM CLR 24/01 A2964 RMK AO2 T02360012
E11,2017-04-01 03:35,-102.5295,32.3311,76.60,32.40,19.87,210.00,11.00,0.00,29.67,M,10.00,18.00,CLR,M,M,M,M,M,M,M,M,KE11 010335Z AUTO 21011G18KT 10SM CLR 25/00 A2967 RMK AO2 T02480002
E11,2017-04-01 03:55,-102.5295,32.3311,76.60,36.50,23.40,210.00,14.00,0.00,29.67,M,10.00,31.00,CLR,M,M,M,M,M,M,M,M,KE11 010355Z AUTO 21014G31KT 10SM CLR 25/03 A2967 RMK AO2 T02480025
E11,2017-04-01 04:15,-102.5295,32.3311,75.20,37.80,25.81,210.00,11.00,0.00,29.69,M,10.00,20.00,CLR,M,M,M,M,M,M,M,M,KE11 010415Z AUTO 21011G20KT 10SM CLR 24/03 A2969 RMK AO2 T02400032
E11,2017-04-01 04:35,-102.5295,32.3311,74.10,37.60,26.56,210.00,7.00,0.00,29.69,M,10.00,M,SCT,M,M,M,9000.00,M,M,M,M,KE11 010435Z AUTO 21007KT 10SM SCT090 23/03 A2969 RMK AO2 T02340031
E11,2017-04-01 04:55,-102.5295,32.3311,73.20,38.80,28.70,190.00,7.00,0.00,29.69,M,10.00,M,SCT,M,M,M,9000.00,M,M,M,M,KE11 010455Z AUTO 19007KT 10SM SCT090 23/04 A2969 RMK AO2 T02290038 403090089
E11,2017-04-01 05:15,-102.5295,32.3311,72.00,39.60,30.83,190.00,8.00,0.00,29.69,M,10.00,M,SCT,M,M,M,9000.00,M,M,M,M,KE11 010515Z AUTO 19008KT 10SM SCT090 22/04 A2969 RMK AO2 T02220042
E11,2017-04-01 05:35,-102.5295,32.3311,70.20,40.30,33.68,180.00,7.00,0.00,29.69,M,10.00,M,CLR,M,M,M,M,M,M,M,M,KE11 010535Z AUTO 18007KT 10SM CLR 21/05 A2969 RMK AO2 T02120046
E11,2017-04-01 05:55,-102.5295,32.3311,69.60,40.50,34.65,180.00,7.00,0.00,29.68,M,10.00,M,CLR,M,M,M,M,M,M,M,M,KE11 010555Z AUTO 18007KT 10SM CLR 21/05 A2968 RMK AO2 T02090047 10305 20209
E11,2017-04-01 06:15,-102.5295,32.3311,69.80,41.70,36.05,220.00,9.00,0.00,29.69,M,10.00,M,CLR,M,M,M,M,M,M,M,M,KE11 010615Z AUTO 22009KT 10SM CLR 21/05 A2969 RMK AO2 T02100054
E11,2017-04-01 06:35,-102.5295,32.3311,70.70,40.80,33.76,250.00,7.00,0.00,29.69,M,10.00,M,BKN,M,M,M,8000.00,M,M,M,M,KE11 010635Z AUTO 25007KT 10SM BKN080 22/05 A2969 RMK AO2 LTG DSNT N T02150049
E11,2017-04-01 06:55,-102.5295,32.3311,69.10,33.30,26.54,0.00,0.00,0.00,29.69,M,10.00,M,OVC,M,M,M,9000.00,M,M,M,M,KE11 010655Z AUTO 00000KT 10SM OVC090 21/01 A2969 RMK AO2 T02060007
E11,2017-04-01 07:15,-102.5295,32.3311,72.00,19.90,13.82,280.00,7.00,0.00,29.70,M,7.00,18.00,OVC,M,M,M,9000.00,M,M,M,M,KE11 010715Z AUTO 28007G18KT 7SM OVC090 22/M07 A2970 RMK AO2 T02221067
E11,2017-04-01 07:35,-102.5295,32.3311,70.30,22.50,16.34,310.00,4.00,0.00,29.70,M,7.00,M,SCT,SCT,OVC,M,4200.00,8000.00,9000.00,M,M,KE11 010735Z AUTO 31004KT 7SM SCT042 SCT080 OVC090 21/M05 A2970 RMK AO2 T02131053
E11,2017-04-01 07:55,-102.5295,32.3311,68.70,23.00,17.63,0.00,0.00,0.00,29.71,M,7.00,M,BKN,BKN,OVC,M,4000.00,8000.00,9000.00,M,M,KE11 010755Z AUTO 00000KT 7SM BKN040 BKN080 OVC090 20/M05 A2971 RMK AO2 T02041050
E11,2017-04-01 08:15,-102.5295,32.3311,68.40,21.90,17.00,0.00,0.00,0.00,29.71,M,7.00,M,OVC,M,M,M,4200.00,M,M,M,M,KE11 010815Z AUTO 00000KT 7SM OVC042 20/M06 A2971 RMK AO2 T02021056
E11,2017-04-01 08:35,-102.5295,32.3311,64.90,24.60,21.50,330.00,3.00,0.00,29.71,M,7.00,M,OVC,M,M,M,4400.00,M,M,M,M,KE11 010835Z AUTO 33003KT 7SM OVC044 18/M04 A2971 RMK AO2 T01831041
E11,2017-04-01 08:55,-102.5295,32.3311,61.30,27.50,27.51,320.00,5.00,0.00,29.71,M,10.00,M,OVC,M,M,M,4800.00,M,M,M,M,KE11 010855Z AUTO 32005KT 10SM OVC048 16/M02 A2971 RMK AO2 T01631025
E11,2017-04-01 09:15,-102.5295,32.3311,63.70,23.50,21.41,320.00,7.00,0.00,29.71,M,10.00,M,OVC,M,M,M,5000.00,M,M,M,M,KE11 010915Z AUTO 32007KT 10SM OVC050 18/M05 A2971 RMK AO2 T01761047
E11,2017-04-01 09:35,-102.5295,32.3311,59.90,28.80,30.50,320.00,9.00,0.00,29.71,M,10.00,M,OVC,M,M,M,5000.00,M,M,M,M,KE11 010935Z AUTO 32009KT 10SM OVC050 16/M02 A2971 RMK AO2 T01551018
E11,2017-04-01 09:55,-102.5295,32.3311,57.20,35.10,43.32,340.00,11.00,0.00,29.72,M,10.00,M,BKN,OVC,M,M,4200.00,5000.00,M,M,M,KE11 010955Z AUTO 34011KT 10SM BKN042 OVC050 14/02 A2972 RMK AO2 T01400017
E11,2017-04-01 10:15,-102.5295,32.3311,55.40,39.20,54.34,330.00,10.00,0.00,29.72,M,10.00,M,OVC,M,M,M,4000.00,M,M,M,M,KE11 011015Z AUTO 33010KT 10SM OVC040 13/04 A2972 RMK AO2 T01300040
E11,2017-04-01 10:35,-102.5295,32.3311,54.50,45.10,70.47,330.00,9.00,0.00,29.74,M,10.00,M,SCT,OVC,M,M,3400.00,4200.00,M,M,M,KE11 011035Z AUTO 33009KT 10SM SCT034 OVC042 13/07 A2974 RMK AO2 T01250073
E11,2017-04-01 10:55,-102.5295,32.3311,53.20,45.90,76.18,340.00,9.00,0.00,29.75,M,10.00,M,OVC,M,M,M,4200.00,M,M,M,M,KE11 011055Z AUTO 34009KT 10SM OVC042 12/08 A2975 RMK AO2 T01180077
E11,2017-04-01 11:15,-102.5295,32.3311,52.70,46.20,78.48,340.00,11.00,0.00,29.76,M,10.00,M,OVC,M,M,M,4200.00,M,M,M,M,KE11 011115Z AUTO 34011KT 10SM OVC042 12/08 A2976 RMK AO2 T01150079
E11,2017-04-01 11:35,-102.5295,32.3311,51.80,45.90,80.21,330.00,10.00,0.00,29.76,M,10.00,M,OVC,M,M,M,4400.00,M,M,M,M,KE11 011135Z AUTO 33010KT 10SM OVC044 11/08 A2976 RMK AO2 T01100077
E11,2017-04-01 11:55,-102.5295,32.3311,51.30,46.00,82.01,340.00,12.00,0.00,29.77,M,10.00,18.00,OVC,M,M,M,4400.00,M,M,M,M,KE11 011155Z AUTO 34012G18KT 10SM OVC044 11/08 A2977 RMK AO2 T01070078 10227 20107
E11,2017-04-01 12:15,-102.5295,32.3311,50.50,45.90,84.16,340.00,16.00,0.00,29.78,M,10.00,M,OVC,M,M,M,4600.00,M,M,M,M,KE11 011215Z AUTO 34016KT 10SM OVC046 10/08 A2978 RMK AO2 T01030077
E11,2017-04-01 12:35,-102.5295,32.3311,50.00,45.90,85.74,340.00,14.00,0.00,29.80,M,10.00,M,OVC,M,M,M,4400.00,M,M,M,M,KE11 011235Z AUTO 34014KT 10SM OVC044 10/08 A2980 RMK AO2 T01000077
E11,2017-04-01 12:55,-102.5295,32.3311,49.50,46.40,89.02,340.00,15.00,0.00,29.81,M,10.00,20.00,SCT,SCT,M,M,4600.00,6000.00,M,M,M,KE11 011255Z AUTO 34015G20KT 10SM SCT046 SCT060 10/08 A2981 RMK AO2 T00970080
E11,2017-04-01 13:15,-102.5295,32.3311,50.00,46.60,88.04,350.00,14.00,0.00,29.82,M,10.00,M,CLR,M,M,M,M,M,M,M,M,KE11 011315Z AUTO 35014KT 10SM CLR 10/08 A2982 RMK AO2 T01000081
E11,2017-04-01 13:35,-102.5295,32.3311,50.90,46.80,85.79,360.00,13.00,0.00,29.83,M,10.00,19.00,CLR,M,M,M,M,M,M,M,M,KE11 011335Z AUTO 36013G19KT 10SM CLR 11/08 A2983 RMK AO2 T01050082
E11,2017-04-01 13:55,-102.5295,32.3311,52.20,47.30,83.32,10.00,15.00,0.00,29.83,M,10.00,21.00,CLR,M,M,M,M,M,M,M,M,KE11 011355Z AUTO 01015G21KT 10SM CLR 11/09 A2983 RMK AO2 T01120085
E11,2017-04-01 14:15,-102.5295,32.3311,54.00,47.70,79.18,360.00,16.00,0.00,29.85,M,10.00,M,BKN,M,M,M,1100.00,M,M,M,M,KE11 011415Z AUTO 36016KT 10SM BKN011 12/09 A2985 RMK AO2 T01220087
E11,2017-04-01 14:35,-102.5295,32.3311,55.60,48.20,76.11,10.00,18.00,0.00,29.85,M,10.00,23.00,OVC,M,M,M,1100.00,M,M,M,M,KE11 011435Z AUTO 01018G23KT 10SM OVC011 13/09 A2985 RMK AO2 T01310090
E11,2017-04-01 14:55,-102.5295,32.3311,56.50,48.60,74.78,10.00,19.00,0.00,29.86,M,10.00,22.00,OVC,M,M,M,1300.00,M,M,M,M,KE11 011455Z AUTO 01019G22KT 10SM OVC013 14/09 A2986 RMK AO2 T01360092
E11,2017-04-01 15:15,-102.5295,32.3311,56.70,48.60,74.24,360.00,15.00,0.00,29.87,M,10.00,M,OVC,M,M,M,1300.00,M,M,M,M,KE11 011515Z AUTO 36015KT 10SM OVC013 14/09 A2987 RMK AO2 T01370092
E11,2017-04-01 15:35,-102.5295,32.3311,56.10,48.20,74.74,360.00,15.00,0.00,29.88,M,10.00,21.00,OVC,M,M,M,1300.00,M,M,M,M,KE11 011535Z AUTO 36015G21KT 10SM OVC013 13/09 A2988 RMK AO2 T01340090
E11,2017-04-01 15:55,-102.5295,32.3311,56.30,48.20,74.20,350.00,16.00,0.00,29.90,M,7.00,21.00,OVC,M,M,M,1300.00,M,M,M,M,KE11 011555Z AUTO 35016G21KT 7SM OVC013 14/09 A2990 RMK AO2 T01350090
E11,2017-04-01 16:15,-102.5295,32.3311,55.20,48.20,77.22,10.00,16.00,0.00,29.90,M,7.00,25.00,OVC,M,M,M,1300.00,M,M,M,M,KE11 011615Z AUTO 01016G25KT 7SM OVC013 13/09 A2990 RMK AO2 T01290090
E11,2017-04-01 16:35,-102.5295,32.3311,56.30,48.20,74.20,10.00,15.00,0.00,29.90,M,10.00,20.00,OVC,M,M,M,1300.00,M,M,M,M,KE11 011635Z AUTO 01015G20KT 10SM OVC013 14/09 A2990 RMK AO2 T01350090
E11,2017-04-01 16:55,-102.5295,32.3311,56.50,48.20,73.67,360.00,16.00,0.00,29.91,M,7.00,M,OVC,M,M,M,1300.00,M,M,M,M,KE11 011655Z AUTO 36016KT 7SM OVC013 14/09 A2991 RMK AO2 T01360090
E11,2017-04-01 17:15,-102.5295,32.3311,55.80,48.00,74.99,360.00,16.00,0.00,29.92,M,7.00,20.00,OVC,M,M,M,1300.00,M,M,M,M,KE11 011715Z AUTO 36016G20KT 7SM OVC013 13/09 A2992 RMK AO2 T01320089
E11,2017-04-01 17:35,-102.5295,32.3311,55.40,47.70,75.24,360.00,14.00,0.00,29.92,M,7.00,M,OVC,M,M,M,1300.00,M,M,M,M,KE11 011735Z AUTO 36014KT 7SM OVC013 13/09 A2992 RMK AO2 T01300087
E11,2017-04-01 17:55,-102.5295,32.3311,56.70,47.80,72.05,350.00,15.00,0.00,29.92,M,10.00,19.00,OVC,M,M,M,1300.00,M,M,M,M,KE11 011755Z AUTO 35015G19KT 10SM OVC013 14/09 A2992 RMK AO2 T01370088 10140 20097
E11,2017-04-01 18:15,-102.5295,32.3311,56.30,47.70,72.82,10.00,17.00,0.00,29.91,M,7.00,21.00,OVC,M,M,M,1300.00,M,M,M,M,KE11 011815Z AUTO 01017G21KT 7SM OVC013 14/09 A2991 RMK AO2 T01350087
E11,2017-04-01 18:35,-102.5295,32.3311,56.30,47.70,72.82,360.00,17.00,0.00,29.91,M,7.00,21.00,OVC,M,M,M,1300.00,M,M,M,M,KE11 011835Z AUTO 36017G21KT 7SM OVC013 14/09 A2991 RMK AO2 T01350087
E11,2017-04-01 18:55,-102.5295,32.3311,55.40,47.30,74.12,10.00,15.00,0.00,29.92,M,10.00,19.00,OVC,M,M,M,1300.00,M,M,M,M,KE11 011855Z AUTO 01015G19KT 10SM OVC013 13/09 A2992 RMK AO2 T01300085
E11,2017-04-01 19:15,-102.5295,32.3311,55.40,47.10,73.56,360.00,13.00,0.00,29.92,M,10.00,M,OVC,M,M,M,1300.00,M,M,M,M,KE11 011915Z AUTO 36013KT 10SM OVC013 13/08 A2992 RMK AO2 T01300084
E11,2017-04-01 19:35,-102.5295,32.3311,56.70,47.50,71.24,10.00,14.00,0.00,29.93,M,10.00,20.00,OVC,M,M,M,1500.00,M,M,M,M,KE11 011935Z AUTO 01014G20KT 10SM OVC015 14/09 A2993 RMK AO2 T01370086
E11,2017-04-01 19:55,-102.5295,32.3311,57.70,47.30,68.20,360.00,14.00,0.00,29.92,M,10.00,18.00,OVC,M,M,M,1500.00,M,M,M,M,KE11 011955Z AUTO 36014G18KT 10SM OVC015 14/09 A2992 RMK AO2 T01430085
E11,2017-04-01 20:15,-102.5295,32.3311,57.70,46.90,67.18,10.00,17.00,0.00,29.91,M,10.00,20.00,OVC,M,M,M,1700.00,M,M,M,M,KE11 012015Z AUTO 01017G20KT 10SM OVC017 14/08 A2991 RMK AO2 T01430083
E11,2017-04-01 20:35,-102.5295,32.3311,59.20,46.80,63.42,10.00,14.00,0.00,29.91,M,10.00,18.00,OVC,M,M,M,1700.00,M,M,M,M,KE11 012035Z AUTO 01014G18KT 10SM OVC017 15/08 A2991 RMK AO2 T01510082
E11,2017-04-01 20:55,-102.5295,32.3311,59.70,46.80,62.30,20.00,16.00,0.00,29.91,M,10.00,23.00,OVC,M,M,M,1900.00,M,M,M,M,KE11 012055Z AUTO 02016G23KT 10SM OVC019 15/08 A2991 RMK AO2 T01540082
E11,2017-04-01 21:15,-102.5295,32.3311,59.90,46.40,60.93,20.00,15.00,0.00,29.91,M,10.00,23.00,OVC,M,M,M,1900.00,M,M,M,M,KE11 012115Z AUTO 02015G23KT 10SM OVC019 16/08 A2991 RMK AO2 T01550080
E11,2017-04-01 21:35,-102.5295,32.3311,59.20,46.20,62.00,20.00,15.00,0.00,29.91,M,10.00,21.00,BKN,M,M,M,2100.00,M,M,M,M,KE11 012135Z AUTO 02015G21KT 10SM BKN021 15/08 A2991 RMK AO2 T01510079
E11,2017-04-01 21:55,-102.5295,32.3311,59.40,46.20,61.56,10.00,16.00,0.00,29.90,M,10.00,19.00,BKN,M,M,M,2100.00,M,M,M,M,KE11 012155Z AUTO 01016G19KT 10SM BKN021 15/08 A2990 RMK AO2 T01520079
E11,2017-04-01 22:15,-102.5295,32.3311,59.20,46.00,61.54,10.00,18.00,0.00,29.91,M,10.00,21.00,SCT,M,M,M,2100.00,M,M,M,M,KE11 012215Z AUTO 01018G21KT 10SM SCT021 15/08 A2991 RMK AO2 T01510078
E11,2017-04-01 22:35,-102.5295,32.3311,59.00,45.90,61.74,20.00,17.00,0.00,29.91,M,10.00,22.00,SCT,M,M,M,2100.00,M,M,M,M,KE11 012235Z AUTO 02017G22KT 10SM SCT021 15/08 A2991 RMK AO2 T01500077
E11,2017-04-01 22:55,-102.5295,32.3311,57.70,45.50,63.72,10.00,17.00,0.00,29.91,M,10.00,22.00,CLR,M,M,M,M,M,M,M,M,KE11 012255Z AUTO 01017G22KT 10SM CLR 14/08 A2991 RMK AO2 T01430075
E11,2017-04-01 23:15,-102.5295,32.3311,57.90,45.30,62.78,20.00,15.00,0.00,29.92,M,10.00,21.00,CLR,M,M,M,M,M,M,M,M,KE11 012315Z AUTO 02015G21KT 10SM CLR 14/07 A2992 RMK AO2 T01440074
E11,2017-04-01 23:35,-102.5295,32.3311,57.20,45.00,63.65,40.00,14.00,0.00,29.93,M,10.00,19.00,CLR,M,M,M,M,M,M,M,M,KE11 012335Z AUTO 04014G19KT 10SM CLR 14/07 A2993 RMK AO2 T01400072
E11,2017-04-01 23:55,-102.5295,32.3311,56.10,44.40,64.74,20.00,14.00,0.00,29.94,M,10.00,20.00,CLR,M,M,M,M,M,M,M,M,KE11 012355Z AUTO 02014G20KT 10SM CLR 13/07 A2994 RMK AO2 T01340069 10158 20129
