#DEBUG: Format Typ    -> comma
#DEBUG: Time Period   -> 2017-04-01 00:00:00+00:00 2017-04-02 00:00:00+00:00
#DEBUG: Time Zone     -> Etc/UTC
#DEBUG: Data Contact   -> daryl herzmann akrherz@iastate.edu 515-294-5978
#DEBUG: Entries Found -> -1
station,valid,lon,lat,tmpf, dwpf, relh, drct, sknt, p01i, alti, mslp, vsby, gust, skyc1, skyc2, skyc3, skyc4, skyl1, skyl2, skyl3, skyl4, presentwx, metar
E38,2017-04-01 00:15,-103.6840,30.3840,81.90,0.10,4.10,210.00,18.00,0.00,29.69,M,10.00,23.00,CLR,M,M,M,M,M,M,M,M,KE38 010015Z AUTO 21018G23KT 10SM CLR 28/M18 A2969 RMK AO2 T02771177
E38,2017-04-01 00:35,-103.6840,30.3840,81.10,-2.90,3.66,210.00,24.00,0.00,29.69,M,10.00,32.00,CLR,M,M,M,M,M,M,M,M,KE38 010035Z AUTO 21024G32KT 10SM CLR 27/M19 A2969 RMK AO2 T02731194
E38,2017-04-01 00:55,-103.6840,30.3840,79.90,-3.50,3.70,210.00,19.00,0.00,29.69,M,10.00,28.00,CLR,M,M,M,M,M,M,M,M,KE38 010055Z AUTO 21019G28KT 10SM CLR 27/M20 A2969 RMK AO2 T02661197
E38,2017-04-01 01:15,-103.6840,30.3840,79.00,-3.60,3.79,200.00,18.00,0.00,29.70,M,10.00,29.00,CLR,M,M,M,M,M,M,M,M,KE38 010115Z AUTO 20018G29KT 10SM CLR 26/M20 A2970 RMK AO2 T02611198
E38,2017-04-01 01:35,-103.6840,30.3840,78.30,-4.00,3.80,200.00,20.00,0.00,29.71,M,10.00,28.00,CLR,M,M,M,M,M,M,M,M,KE38 010135Z AUTO 20020G28KT 10SM CLR 26/M20 A2971 RMK AO2 T02571200
E38,2017-04-01 01:55,-103.6840,30.3840,78.60,-4.40,3.69,210.00,16.00,0.00,29.71,M,10.00,30.00,CLR,M,M,M,M,M,M,M,M,KE38 010155Z AUTO 21016G30KT 10SM CLR 26/M20 A2971 RMK AO2 T02591202
E38,2017-04-01 02:15,-103.6840,30.3840,77.20,-4.00,3.94,210.00,18.00,0.00,29.72,M,10.00,23.00,CLR,M,M,M,M,M,M,M,M,KE38 010215Z AUTO 21018G23KT 10SM CLR 25/M20 A2972 RMK AO2 T02511200
E38,2017-04-01 02:35,-103.6840,30.3840,76.60,-4.00,4.02,220.00,16.00,0.00,29.73,M,10.00,24.00,CLR,M,M,M,M,M,M,M,M,KE38 010235Z AUTO 22016G24KT 10SM CLR 25/M20 A2973 RMK AO2 T02481200
E38,2017-04-01 02:55,-103.6840,30.3840,75.70,-3.30,4.29,220.00,14.00,0.00,29.73,M,10.00,20.00,CLR,M,M,M,M,M,M,M,M,KE38 010255Z AUTO 22014G20KT 10SM CLR 24/M20 A2973 RMK AO2 T02431196
E38,2017-04-01 03:15,-103.6840,30.3840,74.70,-2.60,4.58,220.00,14.00,0.00,29.74,M,10.00,19.00,CLR,M,M,M,M,M,M,M,M,KE38 010315Z AUTO 22014G19KT 10SM CLR 24/M19 A2974 RMK AO2 T02371192
E38,2017-04-01 03:35,-103.6840,30.3840,74.50,-1.70,4.81,220.00,14.00,0.00,29.75,M,10.00,20.00,CLR,M,M,M,M,M,M,M,M,KE38 010335Z AUTO 22014G20KT 10SM CLR 24/M19 A2975 RMK AO2 T02361187
E38,2017-04-01 03:55,-103.6840,30.3840,73.40,-0.90,5.19,220.00,13.00,0.00,29.75,M,10.00,M,CLR,M,M,M,M,M,M,M,M,KE38 010355Z AUTO 22013KT 10SM CLR 23/M18 A2975 RMK AO2 T02301183
E38,2017-04-01 04:15,-103.6840,30.3840,72.00,-0.20,5.62,230.00,13.00,0.00,29.75,M,10.00,M,CLR,M,M,M,M,M,M,M,M,KE38 010415Z AUTO 23013KT 10SM CLR 22/M18 A2975 RMK AO2 T02221179
E38,2017-04-01 04:35,-103.6840,30.3840,70.70,3.00,6.82,260.00,16.00,0.00,29.76,M,10.00,21.00,SCT,SCT,M,M,1700.00,3000.00,M,M,M,KE38 010435Z AUTO 26016G21KT 10SM SCT017 SCT030 22/M16 A2976 RMK AO2 T02151161
E38,2017-04-01 04:55,-103.6840,30.3840,69.30,10.90,10.23,330.00,4.00,0.00,29.79,M,4.00,8.00,BKN,OVC,M,M,1500.00,3200.00,M,M,M,KE38 010455Z AUTO 33004G08KT 4SM BKN015 OVC032 21/M12 A2979 RMK AO2 T02071117
E38,2017-04-01 05:15,-103.6840,30.3840,67.60,14.20,12.55,50.00,9.00,0.00,29.81,M,3.00,M,OVC,M,M,M,1500.00,M,M,M,M,KE38 010515Z AUTO 05009KT 3SM OVC015 20/M10 A2981 RMK AO2 T01981099
E38,2017-04-01 05:35,-103.6840,30.3840,67.10,14.90,13.17,70.00,4.00,0.00,29.82,M,3.00,M,OVC,M,M,M,1500.00,M,M,M,M,KE38 010535Z AUTO 07004KT 3SM OVC015 20/M09 A2982 RMK AO2 T01951095
E38,2017-04-01 05:55,-103.6840,30.3840,64.00,14.70,14.54,0.00,0.00,0.00,29.83,M,3.00,M,BKN,OVC,M,M,1500.00,2500.00,M,M,M,KE38 010555Z AUTO 00000KT 3SM BKN015 OVC025 18/M10 A2983 RMK AO2 T01781096 10280 20178 402920152
E38,2017-04-01 06:15,-103.6840,30.3840,63.50,14.90,14.92,0.00,0.00,0.00,29.83,M,3.00,M,OVC,M,M,M,1700.00,M,M,M,M,KE38 010615Z AUTO 00000KT 3SM OVC017 18/M09 A2983 RMK AO2 T01751095
E38,2017-04-01 06:35,-103.6840,30.3840,63.50,14.70,14.80,30.00,3.00,0.00,29.84,M,3.00,M,BKN,OVC,M,M,1900.00,3700.00,M,M,M,KE38 010635Z AUTO 03003KT 3SM BKN019 OVC037 18/M10 A2984 RMK AO2 T01751096
E38,2017-04-01 06:55,-103.6840,30.3840,63.10,14.50,14.87,0.00,0.00,0.00,29.85,M,3.00,M,BKN,OVC,M,M,1900.00,3700.00,M,M,M,KE38 010655Z AUTO 00000KT 3SM BKN019 OVC037 17/M10 A2985 RMK AO2 T01731097
E38,2017-04-01 07:15,-103.6840,30.3840,63.00,14.20,14.73,0.00,0.00,0.00,29.85,M,3.00,M,OVC,M,M,M,1900.00,M,M,M,M,KE38 010715Z AUTO 00000KT 3SM OVC019 17/M10 A2985 RMK AO2 T01721099
E38,2017-04-01 07:35,-103.6840,30.3840,55.00,14.70,20.05,220.00,4.00,0.00,29.85,M,3.00,M,OVC,M,M,M,1900.00,M,M,M,M,KE38 010735Z AUTO 22004KT 3SM OVC019 13/M10 A2985 RMK AO2 T01281096
E38,2017-04-01 07:55,-103.6840,30.3840,54.90,14.90,20.30,240.00,4.00,0.00,29.85,M,3.00,M,BKN,OVC,M,M,1900.00,3600.00,M,M,M,KE38 010755Z AUTO 24004KT 3SM BKN019 OVC036 13/M09 A2985 RMK AO2 T01271095
E38,2017-04-01 08:15,-103.6840,30.3840,54.10,14.90,20.90,250.00,6.00,0.00,29.85,M,3.00,M,BKN,OVC,M,M,1900.00,3400.00,M,M,M,KE38 010815Z AUTO 25006KT 3SM BKN019 OVC034 12/M09 A2985 RMK AO2 T01231095
E38,2017-04-01 08:35,-103.6840,30.3840,52.20,14.90,22.41,190.00,5.00,0.00,29.85,M,3.00,M,BKN,OVC,M,M,1900.00,3600.00,M,M,M,KE38 010835Z AUTO 19005KT 3SM BKN019 OVC036 11/M09 A2985 RMK AO2 T01121095
E38,2017-04-01 08:55,-103.6840,30.3840,50.40,15.40,24.48,230.00,7.00,0.00,29.86,M,4.00,M,OVC,M,M,M,1900.00,M,M,M,M,KE38 010855Z AUTO 23007KT 4SM OVC019 10/M09 A2986 RMK AO2 T01021092
E38,2017-04-01 09:15,-103.6840,30.3840,51.30,14.90,23.16,260.00,8.00,0.00,29.87,M,4.00,M,OVC,M,M,M,1900.00,M,M,M,M,KE38 010915Z AUTO 26008KT 4SM OVC019 11/M09 A2987 RMK AO2 T01071095
E38,2017-04-01 09:35,-103.6840,30.3840,52.20,14.90,22.41,260.00,8.00,0.00,29.86,M,4.00,M,OVC,M,M,M,1900.00,M,M,M,M,KE38 010935Z AUTO 26008KT 4SM OVC019 11/M09 A2986 RMK AO2 T01121095
E38,2017-04-01 09:55,-103.6840,30.3840,50.90,14.90,23.51,170.00,5.00,0.00,29.87,M,4.00,M,OVC,M,M,M,1900.00,M,M,M,M,KE38 010955Z AUTO 17005KT 4SM OVC019 11/M09 A2987 RMK AO2 T01051095
E38,2017-04-01 10:15,-103.6840,30.3840,51.10,15.30,23.75,210.00,7.00,0.00,29.87,M,4.00,M,OVC,M,M,M,1900.00,M,M,M,M,KE38 011015Z AUTO 21007KT 4SM OVC019 11/M09 A2987 RMK AO2 T01061093
E38,2017-04-01 10:35,-103.6840,30.3840,49.80,14.70,24.28,230.00,5.00,0.00,29.87,M,4.00,M,BKN,OVC,M,M,1700.00,3100.00,M,M,M,KE38 011035Z AUTO 23005KT 4SM BKN017 OVC031 10/M10 A2987 RMK AO2 T00991096
E38,2017-04-01 10:55,-103.6840,30.3840,48.60,14.90,25.61,220.00,7.00,0.00,29.87,M,4.00,M,BKN,OVC,M,M,1700.00,3100.00,M,M,M,KE38 011055Z AUTO 22007KT 4SM BKN017 OVC031 09/M09 A2987 RMK AO2 T00921095
E38,2017-04-01 11:15,-103.6840,30.3840,48.20,14.90,26.00,250.00,8.00,0.00,29.87,M,4.00,M,BKN,OVC,M,M,1700.00,3100.00,M,M,M,KE38 011115Z AUTO 25008KT 4SM BKN017 OVC031 09/M09 A2987 RMK AO2 T00901095
E38,2017-04-01 11:35,-103.6840,30.3840,49.30,14.70,24.73,190.00,5.00,0.00,29.88,M,4.00,M,SCT,OVC,M,M,1500.00,2900.00,M,M,M,KE38 011135Z AUTO 19005KT 4SM SCT015 OVC029 10/M10 A2988 RMK AO2 T00961096
E38,2017-04-01 11:55,-103.6840,30.3840,49.30,14.90,24.95,220.00,4.00,0.00,29.89,M,4.00,M,SCT,BKN,OVC,M,1500.00,3100.00,3700.00,M,M,KE38 011155Z AUTO 22004KT 4SM SCT015 BKN031 OVC037 10/M09 A2989 RMK AO2 T00961095 10183 20089
E38,2017-04-01 12:15,-103.6840,30.3840,46.90,15.30,27.78,270.00,5.00,0.00,29.91,M,4.00,M,BKN,BKN,OVC,M,1300.00,2300.00,3700.00,M,M,KE38 011215Z AUTO 27005KT 4SM BKN013 BKN023 OVC037 08/M09 A2991 RMK AO2 T00831093
E38,2017-04-01 12:35,-103.6840,30.3840,50.40,14.50,23.53,0.00,0.00,0.00,29.92,M,4.00,M,BKN,OVC,M,M,1500.00,2500.00,M,M,M,KE38 011235Z AUTO 00000KT 4SM BKN015 OVC025 10/M10 A2992 RMK AO2 T01021097
E38,2017-04-01 12:55,-103.6840,30.3840,46.00,14.90,28.24,0.00,0.00,0.00,29.93,M,3.00,M,SCT,OVC,M,M,1500.00,2500.00,M,M,M,KE38 011255Z AUTO 00000KT 3SM SCT015 OVC025 08/M09 A2993 RMK AO2 T00781095
E38,2017-04-01 13:15,-103.6840,30.3840,46.60,15.40,28.22,190.00,5.00,0.00,29.94,M,2.50,M,BKN,OVC,M,M,1500.00,2700.00,M,M,M,KE38 011315Z AUTO 19005KT 2 1/2SM BKN015 OVC027 08/M09 A2994 RMK AO2 T00811092
E38,2017-04-01 13:35,-103.6840,30.3840,47.70,16.20,28.03,190.00,5.00,0.00,29.95,M,3.00,M,M,M,M,M,M,M,M,M,M,KE38 011335Z AUTO 19005KT 3SM 09/M09 A2995 RMK AO2 SKY OBSCURED T00871088
E38,2017-04-01 13:55,-103.6840,30.3840,51.40,16.90,25.17,170.00,4.00,0.00,29.96,M,3.00,M,M,M,M,M,M,M,M,M,M,KE38 011355Z AUTO 17004KT 3SM 11/M08 A2996 RMK AO2 SKY OBSCURED T01081084
E38,2017-04-01 14:15,-103.6840,30.3840,56.70,16.70,20.56,160.00,3.00,0.00,29.96,M,3.00,M,M,M,M,M,M,M,M,M,M,KE38 011415Z AUTO 16003KT 3SM 14/M08 A2996 RMK AO2 SKY OBSCURED T01371085
E38,2017-04-01 14:35,-103.6840,30.3840,59.70,17.20,18.87,0.00,0.00,0.00,29.96,M,4.00,M,CLR,M,M,M,M,M,M,M,M,KE38 011435Z AUTO 00000KT 4SM CLR 15/M08 A2996 RMK AO2 T01541082
E38,2017-04-01 14:55,-103.6840,30.3840,61.90,19.20,19.01,360.00,3.00,0.00,29.95,M,4.00,M,CLR,M,M,M,M,M,M,M,M,KE38 011455Z AUTO 36003KT 4SM CLR 17/M07 A2995 RMK AO2 T01661071
E38,2017-04-01 15:15,-103.6840,30.3840,63.00,19.00,18.14,90.00,4.00,0.00,29.97,M,5.00,M,CLR,M,M,M,M,M,M,M,M,KE38 011515Z AUTO 09004KT 5SM CLR 17/M07 A2997 RMK AO2 T01721072
E38,2017-04-01 15:35,-103.6840,30.3840,63.00,24.80,23.17,80.00,9.00,0.00,29.97,M,5.00,M,SCT,SCT,M,M,9500.00,12000.00,M,M,M,KE38 011535Z AUTO 08009KT 5SM SCT095 SCT120 17/M04 A2997 RMK AO2 T01721040
E38,2017-04-01 15:55,-103.6840,30.3840,62.80,23.70,22.29,80.00,9.00,0.00,29.98,M,7.00,M,CLR,M,M,M,M,M,M,M,M,KE38 011555Z AUTO 08009KT 7SM CLR 17/M05 A2998 RMK AO2 T01711046
E38,2017-04-01 16:15,-103.6840,30.3840,63.10,34.00,33.61,100.00,11.00,0.00,29.98,M,10.00,M,CLR,M,M,M,M,M,M,M,M,KE38 011615Z AUTO 10011KT 10SM CLR 17/01 A2998 RMK AO2 T01730011
E38,2017-04-01 16:35,-103.6840,30.3840,63.10,35.80,36.10,70.00,9.00,0.00,29.98,M,10.00,M,CLR,M,M,M,M,M,M,M,M,KE38 011635Z AUTO 07009KT 10SM CLR 17/02 A2998 RMK AO2 T01730021
E38,2017-04-01 16:55,-103.6840,30.3840,64.80,36.50,34.97,70.00,10.00,0.00,29.98,M,10.00,M,CLR,M,M,M,M,M,M,M,M,KE38 011655Z AUTO 07010KT 10SM CLR 18/03 A2998 RMK AO2 T01820025
E38,2017-04-01 17:15,-103.6840,30.3840,64.80,36.90,35.53,70.00,9.00,0.00,29.97,M,10.00,M,CLR,M,M,M,M,M,M,M,M,KE38 011715Z AUTO 07009KT 050V110 10SM CLR 18/03 A2997 RMK AO2 T01820027
E38,2017-04-01 17:35,-103.6840,30.3840,65.80,38.10,35.97,70.00,10.00,0.00,29.96,M,10.00,14.00,CLR,M,M,M,M,M,M,M,M,KE38 011735Z AUTO 07010G14KT 10SM CLR 19/03 A2996 RMK AO2 T01880034
E38,2017-04-01 17:55,-103.6840,30.3840,66.60,38.30,35.26,50.00,7.00,0.00,29.96,M,10.00,14.00,CLR,M,M,M,M,M,M,M,M,KE38 011755Z AUTO 05007G14KT 10SM CLR 19/04 A2996 RMK AO2 T01920035 10194 20074
E38,2017-04-01 18:15,-103.6840,30.3840,67.50,38.50,34.45,60.00,11.00,0.00,29.95,M,10.00,M,CLR,M,M,M,M,M,M,M,M,KE38 011815Z AUTO 06011KT 030V090 10SM CLR 20/04 A2995 RMK AO2 T01970036
E38,2017-04-01 18:35,-103.6840,30.3840,68.70,36.30,30.31,70.00,10.00,0.00,29.94,M,10.00,M,CLR,M,M,M,M,M,M,M,M,KE38 011835Z AUTO 07010KT 10SM CLR 20/02 A2994 RMK AO2 T02040024
E38,2017-04-01 18:55,-103.6840,30.3840,70.30,38.10,30.81,70.00,14.00,0.00,29.93,M,10.00,18.00,CLR,M,M,M,M,M,M,M,M,KE38 011855Z AUTO 07014G18KT 10SM CLR 21/03 A2993 RMK AO2 T02130034
E38,2017-04-01 19:15,-103.6840,30.3840,70.70,37.20,29.33,80.00,14.00,0.00,29.92,M,10.00,18.00,CLR,M,M,M,M,M,M,M,M,KE38 011915Z AUTO 08014G18KT 10SM CLR 22/03 A2992 RMK AO2 T02150029
E38,2017-04-01 19:35,-103.6840,30.3840,70.20,35.80,28.23,80.00,14.00,0.00,29.91,M,10.00,20.00,CLR,M,M,M,M,M,M,M,M,KE38 011935Z AUTO 08014G20KT 10SM CLR 21/02 A2991 RMK AO2 T02120021
E38,2017-04-01 19:55,-103.6840,30.3840,70.70,35.60,27.54,80.00,9.00,0.00,29.92,M,10.00,M,SCT,SCT,M,M,9000.00,12000.00,M,M,M,KE38 011955Z AUTO 08009KT 10SM SCT090 SCT120 22/02 A2992 RMK AO2 T02150020
E38,2017-04-01 20:15,-103.6840,30.3840,69.10,36.50,30.14,60.00,6.00,0.00,29.91,M,10.00,16.00,SCT,BKN,M,M,9000.00,11000.00,M,M,M,KE38 012015Z AUTO 06006G16KT 030V090 10SM SCT090 BKN110 21/03 A2991 RMK AO2 T02060025
E38,2017-04-01 20:35,-103.6840,30.3840,68.70,36.00,29.96,40.00,8.00,0.00,29.91,M,10.00,17.00,SCT,SCT,SCT,M,8000.00,9500.00,11000.00,M,M,KE38 012035Z AUTO 04008G17KT 10SM SCT080 SCT095 SCT110 20/02 A2991 RMK AO2 T02040022
E38,2017-04-01 20:55,-103.6840,30.3840,72.10,34.20,24.84,20.00,7.00,0.00,29.91,M,10.00,M,CLR,M,M,M,M,M,M,M,M,KE38 012055Z AUTO 02007KT 10SM CLR 22/01 A2991 RMK AO2 T02230012
E38,2017-04-01 21:15,-103.6840,30.3840,69.80,34.90,27.62,40.00,10.00,0.00,29.90,M,10.00,15.00,SCT,M,M,M,12000.00,M,M,M,M,KE38 012115Z AUTO 04010G15KT 10SM SCT120 21/02 A2990 RMK AO2 T02100016
E38,2017-04-01 21:35,-103.6840,30.3840,70.00,34.90,27.43,20.00,9.00,0.00,29.91,M,10.00,16.00,SCT,M,M,M,12000.00,M,M,M,M,KE38 012135Z AUTO 02009G16KT 10SM SCT120 21/02 A2991 RMK AO2 T02110016
E38,2017-04-01 21:55,-103.6840,30.3840,68.40,33.80,27.73,50.00,9.00,0.00,29.91,M,10.00,14.00,BKN,BKN,M,M,8500.00,12000.00,M,M,M,KE38 012155Z AUTO 05009G14KT 10SM BKN085 BKN120 20/01 A2991 RMK AO2 T02020010
E38,2017-04-01 22:15,-103.6840,30.3840,69.30,35.40,28.66,40.00,12.00,0.00,29.92,M,10.00,16.00,BKN,BKN,M,M,8500.00,12000.00,M,M,M,KE38 012215Z AUTO 04012G16KT 10SM BKN085 BKN120 21/02 A2992 RMK AO2 T02070019
E38,2017-04-01 22:35,-103.6840,30.3840,67.30,35.60,30.94,40.00,13.00,0.00,29.92,M,10.00,M,SCT,SCT,M,M,8500.00,12000.00,M,M,M,KE38 012235Z AUTO 04013KT 10SM SCT085 SCT120 20/02 A2992 RMK AO2 T01960020
E38,2017-04-01 22:55,-103.6840,30.3840,67.30,35.60,30.94,40.00,11.00,0.00,29.92,M,10.00,17.00,CLR,M,M,M,M,M,M,M,M,KE38 012255Z AUTO 04011G17KT 10SM CLR 20/02 A2992 RMK AO2 T01960020
E38,2017-04-01 23:15,-103.6840,30.3840,66.60,36.70,33.11,40.00,13.00,0.00,29.93,M,10.00,M,CLR,M,M,M,M,M,M,M,M,KE38 012315Z AUTO 04013KT 10SM CLR 19/03 A2993 RMK AO2 T01920026
E38,2017-04-01 23:35,-103.6840,30.3840,66.20,37.60,34.78,30.00,12.00,0.00,29.93,M,10.00,19.00,CLR,M,M,M,M,M,M,M,M,KE38 012335Z AUTO 03012G19KT 10SM CLR 19/03 A2993 RMK AO2 T01900031
E38,2017-04-01 23:55,-103.6840,30.3840,65.50,37.90,36.06,40.00,11.00,0.00,29.93,M,10.00,17.00,CLR,M,M,M,M,M,M,M,M,KE38 012355Z AUTO 04011G17KT 10SM CLR 19/03 A2993 RMK AO2 T01860033 10229 20186
