#DEBUG: Format Typ    -> comma
#DEBUG: Time Period   -> 2017-04-01 00:00:00+00:00 2017-04-02 00:00:00+00:00
#DEBUG: Time Zone     -> Etc/UTC
#DEBUG: Data Contact   -> daryl herzmann akrherz@iastate.edu 515-294-5978
#DEBUG: Entries Found -> -1
station,valid,lon,lat,tmpf, dwpf, relh, drct, sknt, p01i, alti, mslp, vsby, gust, skyc1, skyc2, skyc3, skyc4, skyl1, skyl2, skyl3, skyl4, presentwx, metar
EKN,2017-04-01 00:00,-79.8528,38.8853,M,M,M,270.00,6.00,M,29.72,M,10.00,M,SCT,BKN,OVC,M,1900.00,3100.00,3800.00,M,-RA,KEKN 010000Z AUTO 27006KT 10SM -RA SCT019 BKN031 OVC038 A2972 RMK MADISHF
EKN,2017-04-01 00:05,-79.8528,38.8853,M,M,M,270.00,8.00,M,29.72,M,10.00,M,SCT,BKN,OVC,M,1900.00,2900.00,3500.00,M,-RA,KEKN 010005Z AUTO 27008KT 10SM -RA SCT019 BKN029 OVC035 A2972 RMK MADISHF
EKN,2017-04-01 00:10,-79.8528,38.8853,M,M,M,270.00,10.00,M,29.72,M,10.00,M,SCT,BKN,OVC,M,1900.00,2800.00,3500.00,M,-RA,KEKN 010010Z AUTO 27010KT 10SM -RA SCT019 BKN028 OVC035 A2972 RMK MADISHF
EKN,2017-04-01 00:11,-79.8528,38.8853,50.00,44.10,80.06,270.00,9.00,0.00,29.72,M,10.00,17.00,SCT,BKN,OVC,M,1900.00,2500.00,3500.00,M,-RA,KEKN 010011Z AUTO 27009G17KT 10SM -RA SCT019 BKN025 OVC035 10/07 A2972 RMK AO2 P0000 T01000067
EKN,2017-04-01 00:15,-79.8528,38.8853,M,M,M,260.00,9.00,M,29.73,M,10.00,M,SCT,BKN,OVC,M,1900.00,2700.00,3200.00,M,-RA,KEKN 010015Z AUTO 26009KT 10SM -RA SCT019 BKN027 OVC032 A2973 RMK MADISHF
EKN,2017-04-01 00:20,-79.8528,38.8853,M,M,M,270.00,10.00,M,29.73,M,10.00,M,SCT,BKN,OVC,M,1699.00,2500.00,3200.00,M,-RA,KEKN 010020Z AUTO 27010KT 10SM -RA SCT016 BKN025 OVC032 A2973 RMK MADISHF
EKN,2017-04-01 00:25,-79.8528,38.8853,M,M,M,280.00,12.00,M,29.73,M,10.00,M,SCT,OVC,M,M,1699.00,2500.00,M,M,M,KEKN 010025Z AUTO 28012KT 10SM SCT016 OVC025 A2973 RMK MADISHF
EKN,2017-04-01 00:30,-79.8528,38.8853,M,M,M,270.00,9.00,M,29.73,M,10.00,14.00,SCT,OVC,M,M,1699.00,2500.00,M,M,M,KEKN 010030Z AUTO 27009G14KT 10SM SCT016 OVC025 A2973 RMK MADISHF
EKN,2017-04-01 00:35,-79.8528,38.8853,M,M,M,270.00,7.00,M,29.73,M,10.00,M,SCT,OVC,M,M,1699.00,2500.00,M,M,M,KEKN 010035Z AUTO 27007KT 10SM SCT016 OVC025 A2973 RMK MADISHF
EKN,2017-04-01 00:40,-79.8528,38.8853,M,M,M,270.00,12.00,M,29.74,M,10.00,M,SCT,OVC,M,M,1699.00,2500.00,M,M,M,KEKN 010040Z AUTO 27012KT 10SM SCT016 OVC025 A2974 RMK MADISHF
EKN,2017-04-01 00:45,-79.8528,38.8853,M,M,M,280.00,8.00,M,29.74,M,10.00,M,BKN,OVC,M,M,1600.00,2500.00,M,M,M,KEKN 010045Z AUTO 28008KT 10SM BKN016 OVC025 A2974 RMK MADISHF
EKN,2017-04-01 00:50,-79.8528,38.8853,M,M,M,260.00,6.00,M,29.74,M,9.00,M,BKN,OVC,M,M,1600.00,2500.00,M,M,-RA,KEKN 010050Z AUTO 26006KT 9SM -RA BKN016 OVC025 A2974 RMK MADISHF
EKN,2017-04-01 00:51,-79.8528,38.8853,50.00,44.10,80.06,260.00,5.00,0.00,29.74,1007.40,9.00,19.00,BKN,OVC,M,M,1600.00,2500.00,M,M,-RA,KEKN 010051Z AUTO 26005G19KT 9SM -RA BKN016 OVC025 10/07 A2974 RMK AO2 RAE25B49 SLP074 P0000 T01000067
EKN,2017-04-01 00:55,-79.8528,38.8853,M,M,M,260.00,7.00,M,29.74,M,9.00,M,BKN,OVC,M,M,1600.00,2500.00,M,M,-RA,KEKN 010055Z AUTO 26007KT 9SM -RA BKN016 OVC025 A2974 RMK MADISHF
EKN,2017-04-01 01:00,-79.8528,38.8853,M,M,M,260.00,7.00,M,29.74,M,9.00,M,BKN,OVC,M,M,1600.00,2700.00,M,M,-RA,KEKN 010100Z AUTO 26007KT 9SM -RA BKN016 OVC027 A2974 RMK MADISHF
EKN,2017-04-01 01:05,-79.8528,38.8853,M,M,M,260.00,6.00,M,29.74,M,10.00,M,BKN,OVC,M,M,1600.00,2500.00,M,M,-RA,KEKN 010105Z AUTO 26006KT 10SM -RA BKN016 OVC025 A2974 RMK VRB06KT  MADISHF
EKN,2017-04-01 01:10,-79.8528,38.8853,M,M,M,260.00,8.00,M,29.75,M,10.00,M,BKN,OVC,M,M,1600.00,2500.00,M,M,-RA,KEKN 010110Z AUTO 26008KT 10SM -RA BKN016 OVC025 A2975 RMK MADISHF
EKN,2017-04-01 01:15,-79.8528,38.8853,M,M,M,260.00,8.00,M,29.75,M,10.00,M,BKN,OVC,M,M,1600.00,2500.00,M,M,-RA,KEKN 010115Z AUTO 26008KT 10SM -RA BKN016 OVC025 A2975 RMK MADISHF
EKN,2017-04-01 01:20,-79.8528,38.8853,M,M,M,260.00,5.00,M,29.75,M,10.00,M,BKN,BKN,OVC,M,1600.00,1999.00,2500.00,M,-RA,KEKN 010120Z AUTO 26005KT 10SM -RA BKN016 BKN019 OVC025 A2975 RMK MADISHF
EKN,2017-04-01 01:25,-79.8528,38.8853,M,M,M,250.00,11.00,M,29.75,M,9.00,M,BKN,BKN,OVC,M,1600.00,1999.00,2500.00,M,-RA,KEKN 010125Z AUTO 25011KT 9SM -RA BKN016 BKN019 OVC025 A2975 RMK MADISHF
EKN,2017-04-01 01:30,-79.8528,38.8853,M,M,M,250.00,11.00,M,29.75,M,9.00,M,BKN,BKN,OVC,M,1500.00,1999.00,2500.00,M,-RA,KEKN 010130Z AUTO 25011KT 9SM -RA BKN015 BKN019 OVC025 A2975 RMK MADISHF
EKN,2017-04-01 01:35,-79.8528,38.8853,M,M,M,260.00,8.00,M,29.75,M,9.00,M,BKN,OVC,M,M,1500.00,2100.00,M,M,-RA,KEKN 010135Z AUTO 26008KT 9SM -RA BKN015 OVC021 A2975 RMK MADISHF
EKN,2017-04-01 01:40,-79.8528,38.8853,M,M,M,270.00,8.00,M,29.76,M,9.00,M,BKN,OVC,M,M,1500.00,2100.00,M,M,-RA,KEKN 010140Z AUTO 27008KT 9SM -RA BKN015 OVC021 A2976 RMK MADISHF
EKN,2017-04-01 01:45,-79.8528,38.8853,M,M,M,260.00,5.00,M,29.76,M,7.00,M,BKN,OVC,M,M,1500.00,2100.00,M,M,-RA,KEKN 010145Z AUTO 26005KT 7SM -RA BKN015 OVC021 A2976 RMK MADISHF
EKN,2017-04-01 01:50,-79.8528,38.8853,M,M,M,250.00,5.00,0.01,29.76,M,7.00,M,BKN,OVC,M,M,1500.00,2100.00,M,M,-RA,KEKN 010150Z AUTO 25005KT 7SM -RA BKN015 OVC021 A2976 RMK P0001 MADISHF
EKN,2017-04-01 01:51,-79.8528,38.8853,48.90,44.10,83.42,250.00,6.00,0.01,29.76,1008.20,7.00,M,BKN,OVC,M,M,1500.00,2100.00,M,M,-RA,KEKN 010151Z AUTO 25006KT 7SM -RA BKN015 OVC021 09/07 A2976 RMK AO2 SLP082 P0001 T00940067
EKN,2017-04-01 01:55,-79.8528,38.8853,M,M,M,250.00,8.00,M,29.76,M,8.00,M,BKN,OVC,M,M,1500.00,2100.00,M,M,-RA,KEKN 010155Z AUTO 25008KT 8SM -RA BKN015 OVC021 A2976 RMK MADISHF
EKN,2017-04-01 02:00,-79.8528,38.8853,M,M,M,250.00,6.00,M,29.76,M,7.00,M,BKN,OVC,M,M,1500.00,2100.00,M,M,-RA,KEKN 010200Z AUTO 25006KT 7SM -RA BKN015 OVC021 A2976 RMK MADISHF
EKN,2017-04-01 02:05,-79.8528,38.8853,M,M,M,260.00,8.00,M,29.76,M,6.00,M,BKN,OVC,M,M,1500.00,2100.00,M,M,-RA,KEKN 010205Z AUTO 26008KT 6SM -RA BKN015 OVC021 A2976 RMK MADISHF
EKN,2017-04-01 02:10,-79.8528,38.8853,M,M,M,270.00,5.00,M,29.76,M,5.00,M,BKN,OVC,M,M,1500.00,2100.00,M,M,-RA,KEKN 010210Z AUTO 27005KT 5SM -RA BKN015 OVC021 A2976 RMK MADISHF
EKN,2017-04-01 02:15,-79.8528,38.8853,M,M,M,260.00,6.00,M,29.76,M,6.00,M,BKN,OVC,M,M,1500.00,2100.00,M,M,-RA,KEKN 010215Z AUTO 26006KT 6SM -RA BKN015 OVC021 A2976 RMK MADISHF
EKN,2017-04-01 02:20,-79.8528,38.8853,M,M,M,250.00,7.00,M,29.76,M,6.00,M,OVC,M,M,M,1500.00,M,M,M,-RA,KEKN 010220Z AUTO 25007KT 6SM -RA OVC015 A2976 RMK MADISHF
EKN,2017-04-01 02:25,-79.8528,38.8853,M,M,M,250.00,7.00,M,29.77,M,5.00,M,OVC,M,M,M,1400.00,M,M,M,-RA,KEKN 010225Z AUTO 25007KT 5SM -RA OVC014 A2977 RMK MADISHF
EKN,2017-04-01 02:28,-79.8528,38.8853,48.90,44.10,83.42,260.00,6.00,0.00,29.76,M,5.00,M,OVC,M,M,M,1400.00,M,M,M,-RA,KEKN 010228Z AUTO 26006KT 5SM -RA OVC014 09/07 A2976 RMK AO2 P0000 T00940067
EKN,2017-04-01 02:30,-79.8528,38.8853,M,M,M,280.00,6.00,M,29.76,M,5.00,M,OVC,M,M,M,1400.00,M,M,M,-RA,KEKN 010230Z AUTO 28006KT 5SM -RA OVC014 A2976 RMK MADISHF
EKN,2017-04-01 02:35,-79.8528,38.8853,M,M,M,270.00,8.00,M,29.76,M,5.00,M,OVC,M,M,M,1400.00,M,M,M,-RA,KEKN 010235Z AUTO 27008KT 5SM -RA OVC014 A2976 RMK MADISHF
EKN,2017-04-01 02:40,-79.8528,38.8853,M,M,M,270.00,7.00,M,29.76,M,7.00,M,OVC,M,M,M,1200.00,M,M,M,-RA,KEKN 010240Z AUTO 27007KT 7SM -RA OVC012 A2976 RMK WND 23V31  MADISHF
EKN,2017-04-01 02:45,-79.8528,38.8853,M,M,M,270.00,10.00,M,29.76,M,7.00,M,OVC,M,M,M,1200.00,M,M,M,-RA,KEKN 010245Z AUTO 27010KT 7SM -RA OVC012 A2976 RMK MADISHF
EKN,2017-04-01 02:50,-79.8528,38.8853,M,M,M,270.00,4.00,M,29.76,M,7.00,M,OVC,M,M,M,1200.00,M,M,M,M,KEKN 010250Z AUTO 27004KT 7SM OVC012 A2976 RMK VRB04G17KT  MADISHF
EKN,2017-04-01 02:51,-79.8528,38.8853,48.90,44.10,83.42,M,4.00,0.00,29.77,1008.30,7.00,17.00,OVC,M,M,M,1200.00,M,M,M,M,KEKN 010251Z AUTO VRB04G17KT 7SM OVC012 09/07 A2977 RMK AO2 RAE46 SLP083 P0000 60001 T00940067 51014
EKN,2017-04-01 02:55,-79.8528,38.8853,M,M,M,270.00,9.00,M,29.76,M,8.00,M,OVC,M,M,M,1200.00,M,M,M,M,KEKN 010255Z AUTO 27009KT 8SM OVC012 A2976 RMK MADISHF
EKN,2017-04-01 03:00,-79.8528,38.8853,M,M,M,270.00,9.00,M,29.77,M,8.00,14.00,OVC,M,M,M,999.00,M,M,M,M,KEKN 010300Z AUTO 27009G14KT 8SM OVC009 A2977 RMK CIG 8V15  MADISHF
EKN,2017-04-01 03:05,-79.8528,38.8853,M,M,M,270.00,6.00,M,29.77,M,8.00,M,OVC,M,M,M,999.00,M,M,M,M,KEKN 010305Z AUTO 27006KT 8SM OVC009 A2977 RMK CIG 8V12  MADISHF
EKN,2017-04-01 03:10,-79.8528,38.8853,M,M,M,260.00,11.00,M,29.77,M,7.00,M,OVC,M,M,M,999.00,M,M,M,M,KEKN 010310Z AUTO 26011KT 7SM OVC009 A2977 RMK CIG 8V13  MADISHF
EKN,2017-04-01 03:15,-79.8528,38.8853,M,M,M,270.00,7.00,M,29.77,M,7.00,M,OVC,M,M,M,999.00,M,M,M,-RA,KEKN 010315Z AUTO 27007KT 7SM -RA OVC009 A2977 RMK MADISHF
EKN,2017-04-01 03:20,-79.8528,38.8853,M,M,M,270.00,8.00,M,29.77,M,7.00,M,OVC,M,M,M,900.00,M,M,M,-RA,KEKN 010320Z AUTO 27008KT 7SM -RA OVC009 A2977 RMK CIG 8V13  MADISHF
EKN,2017-04-01 03:23,-79.8528,38.8853,48.90,45.00,86.33,250.00,8.00,0.00,29.77,M,7.00,M,OVC,M,M,M,900.00,M,M,M,M,KEKN 010323Z AUTO 25008KT 7SM OVC009 09/07 A2977 RMK AO2 RAB13E21 CIG 007V013 P0000 T00940072
EKN,2017-04-01 03:25,-79.8528,38.8853,M,M,M,250.00,11.00,M,29.77,M,6.00,M,OVC,M,M,M,900.00,M,M,M,BR,KEKN 010325Z AUTO 25011KT 6SM BR OVC009 A2977 RMK CIG 7V13  MADISHF
EKN,2017-04-01 03:30,-79.8528,38.8853,M,M,M,270.00,10.00,M,29.77,M,6.00,M,OVC,M,M,M,900.00,M,M,M,BR,KEKN 010330Z AUTO 27010KT 6SM BR OVC009 A2977 RMK WND 23V30 CIG 7V13  MADISHF
EKN,2017-04-01 03:35,-79.8528,38.8853,M,M,M,270.00,9.00,M,29.77,M,6.00,M,OVC,M,M,M,900.00,M,M,M,BR,KEKN 010335Z AUTO 27009KT 6SM BR OVC009 A2977 RMK CIG 7V13  MADISHF
EKN,2017-04-01 03:40,-79.8528,38.8853,M,M,M,250.00,9.00,M,29.77,M,8.00,M,OVC,M,M,M,1100.00,M,M,M,M,KEKN 010340Z AUTO 25009KT 8SM OVC011 A2977 RMK MADISHF
EKN,2017-04-01 03:43,-79.8528,38.8853,48.90,44.10,83.42,270.00,8.00,0.00,29.77,M,8.00,M,OVC,M,M,M,1100.00,M,M,M,M,KEKN 010343Z AUTO 27008KT 8SM OVC011 09/07 A2977 RMK AO2 RAB13E21 P0000 T00940067
EKN,2017-04-01 03:45,-79.8528,38.8853,M,M,M,280.00,6.00,M,29.77,M,9.00,M,OVC,M,M,M,1100.00,M,M,M,M,KEKN 010345Z AUTO 28006KT 9SM OVC011 A2977 RMK VRB06G14KT  MADISHF
EKN,2017-04-01 03:50,-79.8528,38.8853,M,M,M,280.00,11.00,M,29.77,M,10.00,16.00,OVC,M,M,M,1100.00,M,M,M,M,KEKN 010350Z AUTO 28011G16KT 10SM OVC011 A2977 RMK MADISHF
EKN,2017-04-01 03:51,-79.8528,38.8853,48.90,44.10,83.42,280.00,10.00,0.00,29.77,1008.40,10.00,16.00,OVC,M,M,M,1100.00,M,M,M,M,KEKN 010351Z AUTO 28010G16KT 10SM OVC011 09/07 A2977 RMK AO2 RAB13E21 SLP084 P0000 T00940067
EKN,2017-04-01 03:55,-79.8528,38.8853,M,M,M,260.00,10.00,M,29.77,M,10.00,M,OVC,M,M,M,1100.00,M,M,M,M,KEKN 010355Z AUTO 26010KT 10SM OVC011 A2977 RMK MADISHF
EKN,2017-04-01 04:00,-79.8528,38.8853,M,M,M,260.00,7.00,M,29.77,M,10.00,M,OVC,M,M,M,1100.00,M,M,M,M,KEKN 010400Z AUTO 26007KT 10SM OVC011 A2977 RMK MADISHF
EKN,2017-04-01 04:05,-79.8528,38.8853,M,M,M,270.00,9.00,M,29.77,M,10.00,M,OVC,M,M,M,1200.00,M,M,M,M,KEKN 010405Z AUTO 27009KT 10SM OVC012 A2977 RMK MADISHF
EKN,2017-04-01 04:10,-79.8528,38.8853,M,M,M,270.00,7.00,M,29.77,M,10.00,M,OVC,M,M,M,1200.00,M,M,M,M,KEKN 010410Z AUTO 27007KT 10SM OVC012 A2977 RMK WND 23V31  MADISHF
EKN,2017-04-01 04:15,-79.8528,38.8853,M,M,M,270.00,12.00,M,29.77,M,9.00,M,OVC,M,M,M,1100.00,M,M,M,M,KEKN 010415Z AUTO 27012KT 9SM OVC011 A2977 RMK WND 25V31  MADISHF
EKN,2017-04-01 04:20,-79.8528,38.8853,M,M,M,280.00,9.00,M,29.77,M,8.00,M,OVC,M,M,M,1100.00,M,M,M,-RA,KEKN 010420Z AUTO 28009KT 8SM -RA OVC011 A2977 RMK MADISHF
EKN,2017-04-01 04:25,-79.8528,38.8853,M,M,M,270.00,12.00,M,29.77,M,9.00,M,OVC,M,M,M,1100.00,M,M,M,-RA,KEKN 010425Z AUTO 27012KT 9SM -RA OVC011 A2977 RMK MADISHF
EKN,2017-04-01 04:30,-79.8528,38.8853,M,M,M,280.00,11.00,M,29.77,M,9.00,M,OVC,M,M,M,1100.00,M,M,M,-RA,KEKN 010430Z AUTO 28011KT 9SM -RA OVC011 A2977 RMK MADISHF
EKN,2017-04-01 04:35,-79.8528,38.8853,M,M,M,260.00,9.00,M,29.77,M,8.00,M,OVC,M,M,M,1100.00,M,M,M,-RA,KEKN 010435Z AUTO 26009KT 8SM -RA OVC011 A2977 RMK MADISHF
EKN,2017-04-01 04:40,-79.8528,38.8853,M,M,M,270.00,9.00,M,29.77,M,6.00,M,BKN,OVC,M,M,1100.00,1800.00,M,M,-RA BR,KEKN 010440Z AUTO 27009KT 6SM -RA BR BKN011 OVC018 A2977 RMK MADISHF
EKN,2017-04-01 04:45,-79.8528,38.8853,M,M,M,270.00,7.00,M,29.77,M,5.00,M,BKN,BKN,OVC,M,1100.00,1800.00,2700.00,M,-RA BR,KEKN 010445Z AUTO 27007KT 5SM -RA BR BKN011 BKN018 OVC027 A2977 RMK MADISHF
EKN,2017-04-01 04:50,-79.8528,38.8853,M,M,M,260.00,6.00,M,29.77,M,5.00,M,BKN,BKN,OVC,M,1100.00,1800.00,2500.00,M,-RA BR,KEKN 010450Z AUTO 26006KT 5SM -RA BR BKN011 BKN018 OVC025 A2977 RMK VRB06KT  MADISHF
EKN,2017-04-01 04:51,-79.8528,38.8853,48.90,45.00,86.33,270.00,7.00,0.00,29.77,1008.50,5.00,M,BKN,BKN,OVC,M,1300.00,1800.00,2500.00,M,-RA BR,KEKN 010451Z AUTO 27007KT 5SM -RA BR BKN013 BKN018 OVC025 09/07 A2977 RMK AO2 RAB17 SLP085 P0000 T00940072 401720094
EKN,2017-04-01 04:55,-79.8528,38.8853,M,M,M,270.00,10.00,M,29.77,M,4.00,M,SCT,BKN,OVC,M,1300.00,1800.00,3200.00,M,-RA BR,KEKN 010455Z AUTO 27010KT 4SM -RA BR SCT013 BKN018 OVC032 A2977 RMK MADISHF
EKN,2017-04-01 05:00,-79.8528,38.8853,M,M,M,260.00,8.00,M,29.77,M,4.00,M,BKN,BKN,OVC,M,1500.00,2300.00,3200.00,M,-RA BR,KEKN 010500Z AUTO 26008KT 4SM -RA BR BKN015 BKN023 OVC032 A2977 RMK MADISHF
EKN,2017-04-01 05:05,-79.8528,38.8853,M,M,M,280.00,6.00,0.01,29.78,M,4.00,M,BKN,BKN,OVC,M,1500.00,2300.00,3000.00,M,-RA BR,KEKN 010505Z AUTO 28006KT 4SM -RA BR BKN015 BKN023 OVC030 A2978 RMK P0001 VRB06G17KT  MADISHF
EKN,2017-04-01 05:09,-79.8528,38.8853,48.90,45.00,86.33,260.00,5.00,0.01,29.77,M,5.00,M,BKN,BKN,OVC,M,1500.00,2300.00,3000.00,M,-RA BR,KEKN 010509Z AUTO 26005KT 5SM -RA BR BKN015 BKN023 OVC030 09/07 A2977 RMK AO2 P0001 T00940072
EKN,2017-04-01 05:10,-79.8528,38.8853,M,M,M,270.00,5.00,0.01,29.77,M,5.00,M,BKN,BKN,OVC,M,1500.00,2300.00,3000.00,M,-RA BR,KEKN 010510Z AUTO 27005KT 5SM -RA BR BKN015 BKN023 OVC030 A2977 RMK P0001 MADISHF
EKN,2017-04-01 05:15,-79.8528,38.8853,M,M,M,250.00,4.00,0.01,29.77,M,8.00,M,BKN,BKN,OVC,M,1500.00,2200.00,3300.00,M,M,KEKN 010515Z AUTO 25004KT 8SM BKN015 BKN022 OVC033 A2977 RMK P0001 MADISHF
EKN,2017-04-01 05:20,-79.8528,38.8853,M,M,M,270.00,7.00,0.01,29.78,M,10.00,M,BKN,BKN,OVC,M,1500.00,2300.00,3000.00,M,M,KEKN 010520Z AUTO 27007KT 10SM BKN015 BKN023 OVC030 A2978 RMK P0001 MADISHF
EKN,2017-04-01 05:25,-79.8528,38.8853,M,M,M,280.00,6.00,0.01,29.78,M,8.00,M,BKN,OVC,M,M,1500.00,2100.00,M,M,M,KEKN 010525Z AUTO 28006KT 8SM BKN015 OVC021 A2978 RMK P0001 MADISHF
EKN,2017-04-01 05:30,-79.8528,38.8853,M,M,M,280.00,7.00,0.01,29.78,M,6.00,M,BKN,OVC,M,M,1500.00,2100.00,M,M,-RA BR,KEKN 010530Z AUTO 28007KT 6SM -RA BR BKN015 OVC021 A2978 RMK P0001 MADISHF
EKN,2017-04-01 05:35,-79.8528,38.8853,M,M,M,250.00,8.00,0.01,29.78,M,7.00,M,BKN,OVC,M,M,1300.00,1800.00,M,M,-RA,KEKN 010535Z AUTO 25008KT 7SM -RA BKN013 OVC018 A2978 RMK P0001 MADISHF
EKN,2017-04-01 05:40,-79.8528,38.8853,M,M,M,270.00,6.00,0.01,29.78,M,8.00,M,OVC,M,M,M,1500.00,M,M,M,-RA,KEKN 010540Z AUTO 27006KT 8SM -RA OVC015 A2978 RMK P0001 MADISHF
EKN,2017-04-01 05:45,-79.8528,38.8853,M,M,M,290.00,7.00,0.01,29.78,M,6.00,M,OVC,M,M,M,1500.00,M,M,M,BR,KEKN 010545Z AUTO 29007KT 6SM BR OVC015 A2978 RMK P0001 MADISHF
EKN,2017-04-01 05:50,-79.8528,38.8853,M,M,M,300.00,4.00,0.01,29.78,M,5.00,M,OVC,M,M,M,1500.00,M,M,M,-RA BR,KEKN 010550Z AUTO 30004KT 5SM -RA BR OVC015 A2978 RMK P0001 MADISHF
EKN,2017-04-01 05:51,-79.8528,38.8853,48.90,45.00,86.33,300.00,3.00,0.01,29.78,1008.90,5.00,M,OVC,M,M,M,1400.00,M,M,M,-RA BR,KEKN 010551Z AUTO 30003KT 5SM -RA BR OVC014 09/07 A2978 RMK AO2 SLP089 P0001 60002 T00940072 10106 20094 53005
EKN,2017-04-01 05:55,-79.8528,38.8853,M,M,M,300.00,3.00,M,29.78,M,4.00,M,BKN,OVC,M,M,1400.00,1900.00,M,M,-RA BR,KEKN 010555Z AUTO 30003KT 4SM -RA BR BKN014 OVC019 A2978 RMK MADISHF
EKN,2017-04-01 06:00,-79.8528,38.8853,M,M,M,0.00,0.00,M,29.79,M,4.00,M,OVC,M,M,M,1400.00,M,M,M,-RA BR,KEKN 010600Z AUTO 00000KT 4SM -RA BR OVC014 A2979 RMK MADISHF
EKN,2017-04-01 06:05,-79.8528,38.8853,M,M,M,0.00,0.00,M,29.79,M,4.00,M,OVC,M,M,M,1400.00,M,M,M,-RA BR,KEKN 010605Z AUTO 00000KT 4SM -RA BR OVC014 A2979 RMK MADISHF
EKN,2017-04-01 06:10,-79.8528,38.8853,M,M,M,290.00,10.00,0.01,29.79,M,6.00,18.00,OVC,M,M,M,1400.00,M,M,M,-RA BR,KEKN 010610Z AUTO 29010G18KT 6SM -RA BR OVC014 A2979 RMK P0001 WND 26V34  MADISHF
EKN,2017-04-01 06:15,-79.8528,38.8853,M,M,M,300.00,9.00,0.01,29.79,M,10.00,M,BKN,OVC,M,M,1200.00,1699.00,M,M,M,KEKN 010615Z AUTO 30009KT 10SM BKN012 OVC016 A2979 RMK P0001 MADISHF
EKN,2017-04-01 06:20,-79.8528,38.8853,M,M,M,280.00,7.00,0.01,29.79,M,10.00,M,OVC,M,M,M,1200.00,M,M,M,-RA,KEKN 010620Z AUTO 28007KT 10SM -RA OVC012 A2979 RMK P0001 MADISHF
EKN,2017-04-01 06:25,-79.8528,38.8853,M,M,M,300.00,10.00,0.01,29.79,M,9.00,16.00,BKN,OVC,M,M,1200.00,2100.00,M,M,-RA,KEKN 010625Z AUTO 30010G16KT 9SM -RA BKN012 OVC021 A2979 RMK P0001 MADISHF
EKN,2017-04-01 06:30,-79.8528,38.8853,M,M,M,290.00,7.00,0.01,29.79,M,9.00,M,OVC,M,M,M,1200.00,M,M,M,-RA,KEKN 010630Z AUTO 29007KT 9SM -RA OVC012 A2979 RMK P0001 MADISHF
EKN,2017-04-01 06:35,-79.8528,38.8853,M,M,M,290.00,9.00,0.01,29.80,M,10.00,M,OVC,M,M,M,1300.00,M,M,M,-RA,KEKN 010635Z AUTO 29009KT 10SM -RA OVC013 A2980 RMK P0001 MADISHF
EKN,2017-04-01 06:40,-79.8528,38.8853,M,M,M,260.00,5.00,0.01,29.80,M,10.00,M,OVC,M,M,M,1300.00,M,M,M,M,KEKN 010640Z AUTO 26005KT 10SM OVC013 A2980 RMK P0001 MADISHF
EKN,2017-04-01 06:45,-79.8528,38.8853,M,M,M,290.00,7.00,0.01,29.80,M,9.00,M,OVC,M,M,M,1300.00,M,M,M,-RA,KEKN 010645Z AUTO 29007KT 9SM -RA OVC013 A2980 RMK P0001 MADISHF
EKN,2017-04-01 06:50,-79.8528,38.8853,M,M,M,290.00,8.00,0.01,29.80,M,7.00,M,OVC,M,M,M,1200.00,M,M,M,-RA,KEKN 010650Z AUTO 29008KT 7SM -RA OVC012 A2980 RMK P0001 MADISHF
EKN,2017-04-01 06:51,-79.8528,38.8853,48.90,44.10,83.42,290.00,7.00,0.01,29.80,1009.50,7.00,M,OVC,M,M,M,1200.00,M,M,M,-RA,KEKN 010651Z AUTO 29007KT 7SM -RA OVC012 09/07 A2980 RMK AO2 SLP095 P0001 T00940067
EKN,2017-04-01 06:55,-79.8528,38.8853,M,M,M,280.00,8.00,M,29.81,M,8.00,M,OVC,M,M,M,1200.00,M,M,M,-RA,KEKN 010655Z AUTO 28008KT 8SM -RA OVC012 A2981 RMK WND 24V33  MADISHF
EKN,2017-04-01 07:00,-79.8528,38.8853,M,M,M,300.00,11.00,M,29.81,M,9.00,M,OVC,M,M,M,900.00,M,M,M,-RA,KEKN 010700Z AUTO 30011KT 9SM -RA OVC009 A2981 RMK CIG 7V14  MADISHF
EKN,2017-04-01 07:04,-79.8528,38.8853,48.00,44.10,86.28,300.00,9.00,0.00,29.81,M,8.00,M,OVC,M,M,M,900.00,M,M,M,-RA,KEKN 010704Z AUTO 30009KT 8SM -RA OVC009 09/07 A2981 RMK AO2 CIG 006V013 P0000 T00890067
EKN,2017-04-01 07:05,-79.8528,38.8853,M,M,M,300.00,8.00,M,29.81,M,7.00,M,OVC,M,M,M,900.00,M,M,M,-RA,KEKN 010705Z AUTO 30008KT 7SM -RA OVC009 A2981 RMK CIG 6V13  MADISHF
EKN,2017-04-01 07:10,-79.8528,38.8853,M,M,M,310.00,10.00,M,29.82,M,7.00,M,OVC,M,M,M,900.00,M,M,M,-RA,KEKN 010710Z AUTO 31010KT 7SM -RA OVC009 A2982 RMK CIG 5V12  MADISHF
EKN,2017-04-01 07:15,-79.8528,38.8853,M,M,M,320.00,10.00,M,29.82,M,6.00,M,OVC,M,M,M,700.00,M,M,M,-RA BR,KEKN 010715Z AUTO 32010KT 6SM -RA BR OVC007 A2982 RMK CIG 5V11  MADISHF
EKN,2017-04-01 07:20,-79.8528,38.8853,M,M,M,300.00,7.00,M,29.82,M,6.00,M,OVC,M,M,M,700.00,M,M,M,-RA BR,KEKN 010720Z AUTO 30007KT 6SM -RA BR OVC007 A2982 RMK CIG 5V10  MADISHF
EKN,2017-04-01 07:25,-79.8528,38.8853,M,M,M,290.00,8.00,M,29.82,M,6.00,M,OVC,M,M,M,700.00,M,M,M,-RA BR,KEKN 010725Z AUTO 29008KT 6SM -RA BR OVC007 A2982 RMK CIG 5V9  MADISHF
EKN,2017-04-01 07:30,-79.8528,38.8853,M,M,M,290.00,8.00,M,29.82,M,7.00,M,OVC,M,M,M,700.00,M,M,M,M,KEKN 010730Z AUTO 29008KT 7SM OVC007 A2982 RMK CIG 5V9  MADISHF
EKN,2017-04-01 07:35,-79.8528,38.8853,M,M,M,270.00,9.00,M,29.83,M,7.00,M,OVC,M,M,M,700.00,M,M,M,M,KEKN 010735Z AUTO 27009KT 7SM OVC007 A2983 RMK MADISHF
EKN,2017-04-01 07:40,-79.8528,38.8853,M,M,M,290.00,6.00,M,29.83,M,6.00,M,OVC,M,M,M,800.00,M,M,M,BR,KEKN 010740Z AUTO 29006KT 6SM BR OVC008 A2983 RMK MADISHF
EKN,2017-04-01 07:45,-79.8528,38.8853,M,M,M,260.00,8.00,M,29.83,M,6.00,M,OVC,M,M,M,800.00,M,M,M,-RA BR,KEKN 010745Z AUTO 26008KT 6SM -RA BR OVC008 A2983 RMK WND 24V32  MADISHF
EKN,2017-04-01 07:50,-79.8528,38.8853,M,M,M,280.00,6.00,M,29.84,M,6.00,M,OVC,M,M,M,800.00,M,M,M,-RA BR,KEKN 010750Z AUTO 28006KT 6SM -RA BR OVC008 A2984 RMK MADISHF
EKN,2017-04-01 07:51,-79.8528,38.8853,46.90,43.00,86.21,290.00,8.00,0.00,29.84,1010.70,6.00,M,OVC,M,M,M,800.00,M,M,M,-RA BR,KEKN 010751Z AUTO 29008KT 6SM -RA BR OVC008 08/06 A2984 RMK AO2 SLP107 P0000 T00830061
EKN,2017-04-01 07:55,-79.8528,38.8853,M,M,M,280.00,8.00,M,29.84,M,6.00,M,OVC,M,M,M,800.00,M,M,M,-RA BR,KEKN 010755Z AUTO 28008KT 6SM -RA BR OVC008 A2984 RMK CIG 7V11  MADISHF
EKN,2017-04-01 08:00,-79.8528,38.8853,M,M,M,280.00,6.00,M,29.84,M,5.00,M,OVC,M,M,M,999.00,M,M,M,-RA BR,KEKN 010800Z AUTO 28006KT 5SM -RA BR OVC009 A2984 RMK CIG 7V12  MADISHF
EKN,2017-04-01 08:05,-79.8528,38.8853,M,M,M,280.00,4.00,M,29.84,M,5.00,M,BKN,OVC,M,M,800.00,1200.00,M,M,-RA BR,KEKN 010805Z AUTO 28004KT 5SM -RA BR BKN008 OVC012 A2984 RMK CIG 7V11  MADISHF
EKN,2017-04-01 08:10,-79.8528,38.8853,M,M,M,320.00,4.00,M,29.85,M,5.00,M,OVC,M,M,M,999.00,M,M,M,-RA BR,KEKN 010810Z AUTO 32004KT 5SM -RA BR OVC009 A2985 RMK CIG 6V14  MADISHF
EKN,2017-04-01 08:15,-79.8528,38.8853,M,M,M,300.00,12.00,M,29.85,M,4.00,M,OVC,M,M,M,999.00,M,M,M,-RA BR,KEKN 010815Z AUTO 30012KT 4SM -RA BR OVC009 A2985 RMK CIG 6V14  MADISHF
EKN,2017-04-01 08:18,-79.8528,38.8853,46.00,42.10,86.16,290.00,13.00,0.00,29.85,M,3.00,16.00,OVC,M,M,M,1000.00,M,M,M,-RA BR,KEKN 010818Z AUTO 29013G16KT 3SM -RA BR OVC010 08/06 A2985 RMK AO2 CIG 006V014 P0000 T00780056
EKN,2017-04-01 08:20,-79.8528,38.8853,M,M,M,290.00,9.00,M,29.86,M,3.50,M,OVC,M,M,M,999.00,M,M,M,-RA BR,KEKN 010820Z AUTO 29009KT 3SM -RA BR OVC009 A2986 RMK CIG 6V14  MADISHF
EKN,2017-04-01 08:25,-79.8528,38.8853,M,M,M,290.00,12.00,M,29.86,M,4.00,17.00,OVC,M,M,M,999.00,M,M,M,-RA BR,KEKN 010825Z AUTO 29012G17KT 4SM -RA BR OVC009 A2986 RMK CIG 6V14  MADISHF
EKN,2017-04-01 08:30,-79.8528,38.8853,M,M,M,300.00,13.00,0.01,29.87,M,6.00,M,BKN,OVC,M,M,800.00,1200.00,M,M,-RA,KEKN 010830Z AUTO 30013KT 6SM -RA BKN008 OVC012 A2987 RMK P0001 CIG 6V11  MADISHF
EKN,2017-04-01 08:33,-79.8528,38.8853,45.00,41.00,85.77,280.00,15.00,0.01,29.87,M,5.00,M,BKN,OVC,M,M,800.00,1200.00,M,M,-RA BR,KEKN 010833Z AUTO 28015KT 5SM -RA BR BKN008 OVC012 07/05 A2987 RMK AO2 CIG 006V010 P0001 T00720050
EKN,2017-04-01 08:35,-79.8528,38.8853,M,M,M,290.00,14.00,0.01,29.87,M,5.00,M,OVC,M,M,M,800.00,M,M,M,-RA BR,KEKN 010835Z AUTO 29014KT 5SM -RA BR OVC008 A2987 RMK P0001 CIG 6V11  MADISHF
EKN,2017-04-01 08:40,-79.8528,38.8853,M,M,M,280.00,12.00,0.01,29.88,M,5.00,17.00,BKN,OVC,M,M,800.00,1100.00,M,M,-RA BR,KEKN 010840Z AUTO 28012G17KT 5SM -RA BR BKN008 OVC011 A2988 RMK P0001 CIG 6V10  MADISHF
EKN,2017-04-01 08:45,-79.8528,38.8853,M,M,M,270.00,12.00,0.01,29.88,M,5.00,M,OVC,M,M,M,800.00,M,M,M,-RA BR,KEKN 010845Z AUTO 27012KT 5SM -RA BR OVC008 A2988 RMK P0001 CIG 6V10  MADISHF
EKN,2017-04-01 08:50,-79.8528,38.8853,M,M,M,280.00,12.00,0.01,29.88,M,5.00,M,OVC,M,M,M,800.00,M,M,M,-RA,KEKN 010850Z AUTO 28012KT 5SM -RA OVC008 A2988 RMK P0001 CIG 6V10  MADISHF
EKN,2017-04-01 08:51,-79.8528,38.8853,44.10,39.90,85.06,270.00,13.00,0.01,29.89,1012.70,5.00,21.00,OVC,M,M,M,800.00,M,M,M,-RA BR,KEKN 010851Z AUTO 27013G21KT 5SM -RA BR OVC008 07/04 A2989 RMK AO2 CIG 006V010 SLP127 P0001 60002 T00670044 53033
EKN,2017-04-01 08:55,-79.8528,38.8853,M,M,M,280.00,12.00,M,29.89,M,4.00,M,OVC,M,M,M,800.00,M,M,M,-RA BR,KEKN 010855Z AUTO 28012KT 4SM -RA BR OVC008 A2989 RMK CIG 6V13  MADISHF
EKN,2017-04-01 09:00,-79.8528,38.8853,M,M,M,290.00,11.00,M,29.89,M,4.00,M,BKN,OVC,M,M,800.00,1400.00,M,M,-RA BR,KEKN 010900Z AUTO 29011KT 4SM -RA BR BKN008 OVC014 A2989 RMK CIG 6V11  MADISHF
EKN,2017-04-01 09:05,-79.8528,38.8853,M,M,M,290.00,8.00,M,29.89,M,4.00,M,BKN,OVC,M,M,800.00,1400.00,M,M,-RA BR,KEKN 010905Z AUTO 29008KT 4SM -RA BR BKN008 OVC014 A2989 RMK CIG 6V11  MADISHF
EKN,2017-04-01 09:10,-79.8528,38.8853,M,M,M,300.00,8.00,M,29.89,M,5.00,M,BKN,BKN,OVC,M,800.00,1400.00,2300.00,M,-RA BR,KEKN 010910Z AUTO 30008KT 5SM -RA BR BKN008 BKN014 OVC023 A2989 RMK CIG 6V12  MADISHF
EKN,2017-04-01 09:15,-79.8528,38.8853,M,M,M,310.00,7.00,0.01,29.90,M,5.00,M,SCT,BKN,OVC,M,800.00,1400.00,2500.00,M,-RA BR,KEKN 010915Z AUTO 31007KT 5SM -RA BR SCT008 BKN014 OVC025 A2990 RMK P0001 MADISHF
EKN,2017-04-01 09:18,-79.8528,38.8853,44.10,39.90,85.06,310.00,8.00,0.01,29.90,M,5.00,M,SCT,BKN,OVC,M,800.00,1400.00,2500.00,M,-RA BR,KEKN 010918Z AUTO 31008KT 5SM -RA BR SCT008 BKN014 OVC025 07/04 A2990 RMK AO2 P0001 T00670044
EKN,2017-04-01 09:20,-79.8528,38.8853,M,M,M,300.00,8.00,0.01,29.90,M,6.00,M,SCT,BKN,OVC,M,800.00,1400.00,2500.00,M,-RA BR,KEKN 010920Z AUTO 30008KT 6SM -RA BR SCT008 BKN014 OVC025 A2990 RMK P0001 MADISHF
EKN,2017-04-01 09:25,-79.8528,38.8853,M,M,M,300.00,7.00,0.01,29.90,M,7.00,M,SCT,BKN,OVC,M,1100.00,1600.00,2500.00,M,-RA,KEKN 010925Z AUTO 30007KT 7SM -RA SCT011 BKN016 OVC025 A2990 RMK P0001 MADISHF
EKN,2017-04-01 09:30,-79.8528,38.8853,M,M,M,310.00,8.00,0.02,29.90,M,7.00,M,FEW,BKN,OVC,M,900.00,1500.00,2500.00,M,-RA,KEKN 010930Z AUTO 31008KT 7SM -RA FEW009 BKN015 OVC025 A2990 RMK P0002 MADISHF
EKN,2017-04-01 09:35,-79.8528,38.8853,M,M,M,300.00,6.00,0.02,29.91,M,6.00,M,BKN,OVC,M,M,1300.00,2100.00,M,M,-RA,KEKN 010935Z AUTO 30006KT 6SM -RA BKN013 OVC021 A2991 RMK P0002 MADISHF
EKN,2017-04-01 09:40,-79.8528,38.8853,M,M,M,310.00,8.00,0.02,29.91,M,6.00,M,BKN,OVC,M,M,1300.00,1900.00,M,M,-RA BR,KEKN 010940Z AUTO 31008KT 6SM -RA BR BKN013 OVC019 A2991 RMK P0002 MADISHF
EKN,2017-04-01 09:45,-79.8528,38.8853,M,M,M,300.00,7.00,0.02,29.91,M,9.00,M,BKN,OVC,M,M,1300.00,1999.00,M,M,-RA,KEKN 010945Z AUTO 30007KT 9SM -RA BKN013 OVC019 A2991 RMK P0002 MADISHF
EKN,2017-04-01 09:50,-79.8528,38.8853,M,M,M,300.00,5.00,0.02,29.91,M,10.00,M,BKN,OVC,M,M,1300.00,2200.00,M,M,-RA,KEKN 010950Z AUTO 30005KT 10SM -RA BKN013 OVC022 A2991 RMK P0002 MADISHF
EKN,2017-04-01 09:51,-79.8528,38.8853,44.10,39.00,82.12,310.00,5.00,0.02,29.91,1013.80,10.00,M,BKN,OVC,M,M,1300.00,2000.00,M,M,-RA,KEKN 010951Z AUTO 31005KT 10SM -RA BKN013 OVC020 07/04 A2991 RMK AO2 SLP138 P0002 T00670039
EKN,2017-04-01 09:55,-79.8528,38.8853,M,M,M,320.00,5.00,M,29.92,M,9.00,M,BKN,OVC,M,M,1300.00,2200.00,M,M,-RA,KEKN 010955Z AUTO 32005KT 9SM -RA BKN013 OVC022 A2992 RMK MADISHF
EKN,2017-04-01 10:00,-79.8528,38.8853,M,M,M,330.00,5.00,M,29.92,M,9.00,M,OVC,M,M,M,1300.00,M,M,M,-RA,KEKN 011000Z AUTO 33005KT 9SM -RA OVC013 A2992 RMK VRB05KT  MADISHF
EKN,2017-04-01 10:05,-79.8528,38.8853,M,M,M,320.00,6.00,M,29.92,M,7.00,M,OVC,M,M,M,1300.00,M,M,M,-RA,KEKN 011005Z AUTO 32006KT 7SM -RA OVC013 A2992 RMK MADISHF
EKN,2017-04-01 10:10,-79.8528,38.8853,M,M,M,330.00,6.00,0.01,29.93,M,4.00,M,OVC,M,M,M,1100.00,M,M,M,-RA BR,KEKN 011010Z AUTO 33006KT 4SM -RA BR OVC011 A2993 RMK P0001 MADISHF
EKN,2017-04-01 10:15,-79.8528,38.8853,M,M,M,320.00,6.00,0.01,29.93,M,4.00,M,OVC,M,M,M,1100.00,M,M,M,-RA BR,KEKN 011015Z AUTO 32006KT 4SM -RA BR OVC011 A2993 RMK P0001 MADISHF
EKN,2017-04-01 10:20,-79.8528,38.8853,M,M,M,320.00,8.00,0.01,29.94,M,3.50,M,OVC,M,M,M,1300.00,M,M,M,-RA BR,KEKN 011020Z AUTO 32008KT 3SM -RA BR OVC013 A2994 RMK P0001 MADISHF
EKN,2017-04-01 10:25,-79.8528,38.8853,M,M,M,310.00,7.00,0.01,29.94,M,3.00,M,OVC,M,M,M,1300.00,M,M,M,-RA BR,KEKN 011025Z AUTO 31007KT 3SM -RA BR OVC013 A2994 RMK P0001 MADISHF
EKN,2017-04-01 10:30,-79.8528,38.8853,M,M,M,320.00,4.00,0.01,29.94,M,3.00,M,OVC,M,M,M,1300.00,M,M,M,-RA BR,KEKN 011030Z AUTO 32004KT 3SM -RA BR OVC013 A2994 RMK P0001 MADISHF
EKN,2017-04-01 10:34,-79.8528,38.8853,43.00,39.00,85.66,310.00,6.00,0.01,29.95,M,2.50,M,FEW,OVC,M,M,900.00,1500.00,M,M,-RA BR,KEKN 011034Z AUTO 31006KT 2 1/2SM -RA BR FEW009 OVC015 06/04 A2995 RMK AO2 P0001 T00610039
EKN,2017-04-01 10:35,-79.8528,38.8853,M,M,M,320.00,6.00,0.01,29.95,M,2.50,M,FEW,OVC,M,M,900.00,1500.00,M,M,-RA BR,KEKN 011035Z AUTO 32006KT 2 1/2SM -RA BR FEW009 OVC015 A2995 RMK P0001 MADISHF
EKN,2017-04-01 10:40,-79.8528,38.8853,M,M,M,330.00,4.00,0.02,29.95,M,2.50,M,SCT,OVC,M,M,700.00,1500.00,M,M,-RA BR,KEKN 011040Z AUTO 33004KT 2 1/2SM -RA BR SCT007 OVC015 A2995 RMK P0002 VRB04KT  MADISHF
EKN,2017-04-01 10:45,-79.8528,38.8853,M,M,M,340.00,4.00,0.02,29.95,M,3.00,M,SCT,OVC,M,M,900.00,1500.00,M,M,-RA BR,KEKN 011045Z AUTO 34004KT 3SM -RA BR SCT009 OVC015 A2995 RMK P0002 MADISHF
EKN,2017-04-01 10:49,-79.8528,38.8853,42.80,39.20,86.99,340.00,7.00,0.02,29.96,M,3.00,M,FEW,OVC,M,M,900.00,1500.00,M,M,-RA BR,KEKN 011049Z AUTO 34007KT 3SM -RA BR FEW009 OVC015 06/04 A2996 RMK AO2 P0002
EKN,2017-04-01 10:50,-79.8528,38.8853,M,M,M,330.00,7.00,0.02,29.96,M,3.00,M,BKN,OVC,M,M,900.00,1500.00,M,M,-RA BR,KEKN 011050Z AUTO 33007KT 3SM -RA BR BKN009 OVC015 A2996 RMK P0002 MADISHF
EKN,2017-04-01 10:51,-79.8528,38.8853,43.00,39.00,85.66,340.00,6.00,0.02,29.96,1015.30,3.00,M,BKN,OVC,M,M,900.00,1500.00,M,M,-RA BR,KEKN 011051Z AUTO 34006KT 3SM -RA BR BKN009 OVC015 06/04 A2996 RMK AO2 SLP153 P0002 T00610039
EKN,2017-04-01 10:55,-79.8528,38.8853,M,M,M,350.00,9.00,M,29.96,M,3.00,M,BKN,OVC,M,M,900.00,1500.00,M,M,-RA BR,KEKN 011055Z AUTO 35009KT 3SM -RA BR BKN009 OVC015 A2996 RMK MADISHF
EKN,2017-04-01 11:00,-79.8528,38.8853,M,M,M,320.00,9.00,0.01,29.96,M,3.50,M,BKN,OVC,M,M,999.00,1500.00,M,M,-RA BR,KEKN 011100Z AUTO 32009KT 3SM -RA BR BKN009 OVC015 A2996 RMK P0001 CIG 7V13  MADISHF
EKN,2017-04-01 11:01,-79.8528,38.8853,42.10,39.00,88.67,320.00,9.00,0.01,29.96,M,3.00,M,SCT,OVC,M,M,1000.00,1500.00,M,M,-RA BR,KEKN 011101Z AUTO 32009KT 3SM -RA BR SCT010 OVC015 06/04 A2996 RMK AO2 P0001 T00560039
EKN,2017-04-01 11:05,-79.8528,38.8853,M,M,M,320.00,10.00,0.01,29.97,M,4.00,M,SCT,OVC,M,M,999.00,1500.00,M,M,-RA BR,KEKN 011105Z AUTO 32010KT 4SM -RA BR SCT009 OVC015 A2997 RMK P0001 MADISHF
EKN,2017-04-01 11:10,-79.8528,38.8853,M,M,M,320.00,10.00,0.01,29.97,M,4.00,M,FEW,OVC,M,M,999.00,1699.00,M,M,-RA BR,KEKN 011110Z AUTO 32010KT 4SM -RA BR FEW009 OVC016 A2997 RMK P0001 MADISHF
EKN,2017-04-01 11:15,-79.8528,38.8853,M,M,M,320.00,8.00,0.01,29.97,M,5.00,M,FEW,OVC,M,M,999.00,1500.00,M,M,-RA BR,KEKN 011115Z AUTO 32008KT 5SM -RA BR FEW009 OVC015 A2997 RMK P0001 MADISHF
EKN,2017-04-01 11:20,-79.8528,38.8853,M,M,M,330.00,7.00,0.01,29.98,M,6.00,M,OVC,M,M,M,1500.00,M,M,M,-RA BR,KEKN 011120Z AUTO 33007KT 6SM -RA BR OVC015 A2998 RMK P0001 MADISHF
EKN,2017-04-01 11:25,-79.8528,38.8853,M,M,M,330.00,7.00,0.01,29.98,M,5.00,M,BKN,OVC,M,M,1300.00,1800.00,M,M,-RA BR,KEKN 011125Z AUTO 33007KT 5SM -RA BR BKN013 OVC018 A2998 RMK P0001 MADISHF
EKN,2017-04-01 11:28,-79.8528,38.8853,42.80,37.40,81.07,320.00,8.00,0.00,29.98,M,5.00,M,BKN,OVC,M,M,1100.00,1800.00,M,M,-RA BR,KEKN 011128Z AUTO 32008KT 5SM -RA BR BKN011 OVC018 06/03 A2998
EKN,2017-04-01 11:30,-79.8528,38.8853,M,M,M,330.00,7.00,0.01,29.98,M,4.00,M,OVC,M,M,M,1300.00,M,M,M,-RA BR,KEKN 011130Z AUTO 33007KT 4SM -RA BR OVC013 A2998 RMK P0001 MADISHF
EKN,2017-04-01 11:35,-79.8528,38.8853,M,M,M,330.00,6.00,0.01,29.98,M,2.50,M,BKN,OVC,M,M,1300.00,1900.00,M,M,-RA BR,KEKN 011135Z AUTO 33006KT 2 1/2SM -RA BR BKN013 OVC019 A2998 RMK P0001 MADISHF
EKN,2017-04-01 11:40,-79.8528,38.8853,42.10,37.90,84.93,340.00,5.00,0.02,29.98,M,2.00,M,BKN,OVC,M,M,1300.00,1900.00,M,M,-RA BR,KEKN 011140Z AUTO 34005KT 2SM -RA BR BKN013 OVC019 06/03 A2998 RMK AO2 P0002 T00560033
EKN,2017-04-01 11:45,-79.8528,38.8853,M,M,M,20.00,3.00,0.02,29.98,M,2.50,M,BKN,OVC,M,M,1300.00,1900.00,M,M,-RA BR,KEKN 011145Z AUTO 02003KT 2 1/2SM -RA BR BKN013 OVC019 A2998 RMK P0002 MADISHF
EKN,2017-04-01 11:50,-79.8528,38.8853,M,M,M,360.00,3.00,0.02,29.98,M,2.50,M,BKN,OVC,M,M,1300.00,1699.00,M,M,-RA BR,KEKN 011150Z AUTO 36003KT 2 1/2SM -RA BR BKN013 OVC016 A2998 RMK P0002 MADISHF
EKN,2017-04-01 11:51,-79.8528,38.8853,42.10,39.00,88.67,350.00,4.00,0.02,29.98,1016.10,2.50,M,SCT,OVC,M,M,900.00,1500.00,M,M,-RA BR,KEKN 011151Z AUTO 35004KT 2 1/2SM -RA BR SCT009 OVC015 06/04 A2998 RMK AO2 SLP161 P0002 60008 70057 T00560039 10094 20056 51021
EKN,2017-04-01 11:55,-79.8528,38.8853,M,M,M,350.00,5.00,M,29.98,M,2.50,M,SCT,OVC,M,M,900.00,1500.00,M,M,-RA BR,KEKN 011155Z AUTO 35005KT 2 1/2SM -RA BR SCT009 OVC015 A2998 RMK MADISHF
EKN,2017-04-01 12:00,-79.8528,38.8853,M,M,M,360.00,5.00,M,29.98,M,2.50,M,FEW,OVC,M,M,900.00,1500.00,M,M,-RA BR,KEKN 011200Z AUTO 36005KT 2 1/2SM -RA BR FEW009 OVC015 A2998 RMK MADISHF
EKN,2017-04-01 12:05,-79.8528,38.8853,M,M,M,360.00,4.00,M,29.97,M,3.00,M,FEW,BKN,OVC,M,900.00,1500.00,1900.00,M,-RA BR,KEKN 011205Z AUTO 36004KT 3SM -RA BR FEW009 BKN015 OVC019 A2997 RMK MADISHF
EKN,2017-04-01 12:08,-79.8528,38.8853,42.10,37.90,84.93,360.00,4.00,0.00,29.97,M,3.00,M,FEW,OVC,M,M,900.00,1400.00,M,M,BR,KEKN 011208Z AUTO 36004KT 3SM BR FEW009 OVC014 06/03 A2997 RMK AO2 RAE08 P0000 T00560033
EKN,2017-04-01 12:10,-79.8528,38.8853,M,M,M,20.00,4.00,M,29.97,M,3.50,M,FEW,OVC,M,M,900.00,1400.00,M,M,BR,KEKN 011210Z AUTO 02004KT 3SM BR FEW009 OVC014 A2997 RMK MADISHF
EKN,2017-04-01 12:15,-79.8528,38.8853,M,M,M,10.00,3.00,M,29.97,M,3.00,M,FEW,OVC,M,M,900.00,1400.00,M,M,BR,KEKN 011215Z AUTO 01003KT 3SM BR FEW009 OVC014 A2997 RMK VRB03KT  MADISHF
EKN,2017-04-01 12:20,-79.8528,38.8853,M,M,M,360.00,3.00,M,29.97,M,3.00,M,FEW,OVC,M,M,900.00,1400.00,M,M,BR,KEKN 011220Z AUTO 36003KT 3SM BR FEW009 OVC014 A2997 RMK MADISHF
EKN,2017-04-01 12:25,-79.8528,38.8853,M,M,M,350.00,5.00,M,29.97,M,3.50,M,OVC,M,M,M,1400.00,M,M,M,BR,KEKN 011225Z AUTO 35005KT 3SM BR OVC014 A2997 RMK MADISHF
EKN,2017-04-01 12:30,-79.8528,38.8853,M,M,M,350.00,4.00,0.01,29.98,M,3.00,M,OVC,M,M,M,1400.00,M,M,M,BR,KEKN 011230Z AUTO 35004KT 3SM BR OVC014 A2998 RMK P0001 MADISHF
EKN,2017-04-01 12:35,-79.8528,38.8853,M,M,M,350.00,3.00,0.01,29.98,M,3.00,M,OVC,M,M,M,1400.00,M,M,M,BR,KEKN 011235Z AUTO 35003KT 3SM BR OVC014 A2998 RMK P0001 MADISHF
EKN,2017-04-01 12:40,-79.8528,38.8853,M,M,M,340.00,5.00,0.01,29.98,M,2.50,M,OVC,M,M,M,1400.00,M,M,M,BR,KEKN 011240Z AUTO 34005KT 2 1/2SM BR OVC014 A2998 RMK P0001 MADISHF
EKN,2017-04-01 12:45,-79.8528,38.8853,M,M,M,340.00,4.00,0.01,29.98,M,2.50,M,OVC,M,M,M,1300.00,M,M,M,BR,KEKN 011245Z AUTO 34004KT 2 1/2SM BR OVC013 A2998 RMK P0001 MADISHF
EKN,2017-04-01 12:46,-79.8528,38.8853,42.80,39.20,86.99,340.00,4.00,0.01,29.98,M,2.50,M,OVC,M,M,M,1300.00,M,M,M,BR,KEKN 011246Z AUTO 34004KT 2 1/2SM BR OVC013 06/04 A2998 RMK AO2 RAE08 P0001
EKN,2017-04-01 12:50,-79.8528,38.8853,M,M,M,340.00,5.00,0.01,29.98,M,2.50,M,OVC,M,M,M,1300.00,M,M,M,-RA BR,KEKN 011250Z AUTO 34005KT 2 1/2SM -RA BR OVC013 A2998 RMK P0001 MADISHF
EKN,2017-04-01 12:51,-79.8528,38.8853,42.10,39.00,88.67,340.00,5.00,0.01,29.98,1016.30,2.50,M,OVC,M,M,M,1300.00,M,M,M,-RA BR,KEKN 011251Z AUTO 34005KT 2 1/2SM -RA BR OVC013 06/04 A2998 RMK AO2 RAE08B47 SLP163 P0001 T00560039
EKN,2017-04-01 12:55,-79.8528,38.8853,M,M,M,340.00,4.00,M,29.98,M,2.50,M,OVC,M,M,M,1200.00,M,M,M,-RA BR,KEKN 011255Z AUTO 34004KT 2 1/2SM -RA BR OVC012 A2998 RMK MADISHF
EKN,2017-04-01 13:00,-79.8528,38.8853,M,M,M,330.00,4.00,M,29.98,M,2.50,M,OVC,M,M,M,1200.00,M,M,M,-RA BR,KEKN 011300Z AUTO 33004KT 2 1/2SM -RA BR OVC012 A2998 RMK MADISHF
EKN,2017-04-01 13:05,-79.8528,38.8853,M,M,M,340.00,4.00,M,29.99,M,2.00,M,OVC,M,M,M,1100.00,M,M,M,-RA BR,KEKN 011305Z AUTO 34004KT 2SM -RA BR OVC011 A2999 RMK MADISHF
EKN,2017-04-01 13:10,-79.8528,38.8853,M,M,M,330.00,3.00,M,29.99,M,2.00,M,BKN,OVC,M,M,900.00,1300.00,M,M,-RA BR,KEKN 011310Z AUTO 33003KT 2SM -RA BR BKN009 OVC013 A2999 RMK CIG 5V12  MADISHF
EKN,2017-04-01 13:11,-79.8528,38.8853,42.10,39.00,88.67,330.00,3.00,0.00,29.99,M,1.75,M,BKN,OVC,M,M,900.00,1300.00,M,M,-RA BR,KEKN 011311Z AUTO 33003KT 1 3/4SM -RA BR BKN009 OVC013 06/04 A2999 RMK AO2 CIG 005V010 P0000 T00560039
EKN,2017-04-01 13:15,-79.8528,38.8853,M,M,M,330.00,6.00,M,29.99,M,2.00,M,BKN,OVC,M,M,900.00,1300.00,M,M,-RA BR,KEKN 011315Z AUTO 33006KT 2SM -RA BR BKN009 OVC013 A2999 RMK CIG 5V10  MADISHF
EKN,2017-04-01 13:18,-79.8528,38.8853,42.10,39.00,88.67,340.00,6.00,0.00,29.99,M,2.00,M,BKN,OVC,M,M,900.00,1300.00,M,M,-RA BR,KEKN 011318Z AUTO 34006KT 2SM -RA BR BKN009 OVC013 06/04 A2999 RMK AO2 CIG 005V012 P0000 T00560039
EKN,2017-04-01 13:20,-79.8528,38.8853,M,M,M,330.00,6.00,M,29.99,M,2.50,M,OVC,M,M,M,900.00,M,M,M,-RA BR,KEKN 011320Z AUTO 33006KT 2 1/2SM -RA BR OVC009 A2999 RMK CIG 5V12  MADISHF
EKN,2017-04-01 13:25,-79.8528,38.8853,M,M,M,330.00,6.00,M,29.99,M,2.50,M,BKN,OVC,M,M,900.00,1300.00,M,M,BR,KEKN 011325Z AUTO 33006KT 2 1/2SM BR BKN009 OVC013 A2999 RMK CIG 5V12  MADISHF
EKN,2017-04-01 13:30,-79.8528,38.8853,M,M,M,330.00,7.00,M,29.99,M,2.50,M,OVC,M,M,M,900.00,M,M,M,BR,KEKN 011330Z AUTO 33007KT 2 1/2SM BR OVC009 A2999 RMK CIG 5V14  MADISHF
EKN,2017-04-01 13:35,-79.8528,38.8853,M,M,M,320.00,6.00,M,30.00,M,2.50,M,BKN,OVC,M,M,900.00,1200.00,M,M,-RA BR,KEKN 011335Z AUTO 32006KT 2 1/2SM -RA BR BKN009 OVC012 A3000 RMK CIG 6V11  MADISHF
EKN,2017-04-01 13:40,-79.8528,38.8853,M,M,M,320.00,7.00,M,30.00,M,2.50,M,OVC,M,M,M,999.00,M,M,M,-RA BR,KEKN 011340Z AUTO 32007KT 2 1/2SM -RA BR OVC009 A3000 RMK CIG 6V14  MADISHF
EKN,2017-04-01 13:44,-79.8528,38.8853,42.10,39.00,88.67,320.00,6.00,0.00,30.00,M,2.50,M,OVC,M,M,M,1000.00,M,M,M,-RA BR,KEKN 011344Z AUTO 32006KT 2 1/2SM -RA BR OVC010 06/04 A3000 RMK AO2 CIG 006V014 P0000 T00560039
EKN,2017-04-01 13:45,-79.8528,38.8853,M,M,M,320.00,6.00,M,30.00,M,2.50,M,OVC,M,M,M,999.00,M,M,M,-RA BR,KEKN 011345Z AUTO 32006KT 2 1/2SM -RA BR OVC009 A3000 RMK CIG 6V14  MADISHF
EKN,2017-04-01 13:50,-79.8528,38.8853,M,M,M,300.00,7.00,0.01,30.00,M,2.50,M,BKN,OVC,M,M,800.00,1200.00,M,M,-RA BR,KEKN 011350Z AUTO 30007KT 2 1/2SM -RA BR BKN008 OVC012 A3000 RMK P0001 CIG 6V10  MADISHF
EKN,2017-04-01 13:51,-79.8528,38.8853,42.10,37.90,84.93,310.00,7.00,0.01,30.00,1017.00,2.50,M,BKN,OVC,M,M,800.00,1200.00,M,M,-RA BR,KEKN 011351Z AUTO 31007KT 2 1/2SM -RA BR BKN008 OVC012 06/03 A3000 RMK AO2 CIG 006V010 SLP170 P0001 T00560033
EKN,2017-04-01 13:55,-79.8528,38.8853,M,M,M,320.00,5.00,M,30.00,M,2.50,M,BKN,OVC,M,M,800.00,1400.00,M,M,-RA BR,KEKN 011355Z AUTO 32005KT 2 1/2SM -RA BR BKN008 OVC014 A3000 RMK MADISHF
EKN,2017-04-01 14:00,-79.8528,38.8853,M,M,M,310.00,6.00,M,30.01,M,3.00,M,BKN,OVC,M,M,800.00,1500.00,M,M,-RA BR,KEKN 011400Z AUTO 31006KT 3SM -RA BR BKN008 OVC015 A3001 RMK MADISHF
EKN,2017-04-01 14:03,-79.8528,38.8853,42.10,39.00,88.67,330.00,7.00,0.00,30.01,M,3.00,M,BKN,OVC,M,M,1000.00,1500.00,M,M,-RA BR,KEKN 011403Z AUTO 33007KT 3SM -RA BR BKN010 OVC015 06/04 A3001 RMK AO2 P0000 T00560039
EKN,2017-04-01 14:05,-79.8528,38.8853,M,M,M,330.00,6.00,M,30.01,M,3.00,M,BKN,BKN,OVC,M,999.00,1500.00,1999.00,M,-RA BR,KEKN 011405Z AUTO 33006KT 3SM -RA BR BKN009 BKN015 OVC019 A3001 RMK MADISHF
EKN,2017-04-01 14:10,-79.8528,38.8853,M,M,M,320.00,5.00,M,30.01,M,3.50,M,BKN,BKN,OVC,M,999.00,1500.00,1999.00,M,BR,KEKN 011410Z AUTO 32005KT 3SM BR BKN009 BKN015 OVC019 A3001 RMK MADISHF
EKN,2017-04-01 14:15,-79.8528,38.8853,M,M,M,330.00,6.00,M,30.01,M,3.00,M,BKN,OVC,M,M,1400.00,1999.00,M,M,BR,KEKN 011415Z AUTO 33006KT 3SM BR BKN014 OVC019 A3001 RMK MADISHF
EKN,2017-04-01 14:20,-79.8528,38.8853,M,M,M,330.00,7.00,M,30.02,M,3.00,M,BKN,OVC,M,M,1100.00,1999.00,M,M,BR,KEKN 011420Z AUTO 33007KT 3SM BR BKN011 OVC019 A3002 RMK MADISHF
EKN,2017-04-01 14:25,-79.8528,38.8853,M,M,M,320.00,6.00,M,30.02,M,3.00,M,FEW,BKN,OVC,M,900.00,1400.00,1999.00,M,BR,KEKN 011425Z AUTO 32006KT 3SM BR FEW009 BKN014 OVC019 A3002 RMK MADISHF
EKN,2017-04-01 14:27,-79.8528,38.8853,42.10,39.00,88.67,330.00,7.00,0.00,30.02,M,2.50,M,BKN,OVC,M,M,1200.00,2000.00,M,M,BR,KEKN 011427Z AUTO 33007KT 2 1/2SM BR BKN012 OVC020 06/04 A3002 RMK AO2 RAE08 P0000 T00560039
EKN,2017-04-01 14:30,-79.8528,38.8853,M,M,M,310.00,6.00,M,30.03,M,2.50,M,BKN,OVC,M,M,1200.00,1999.00,M,M,BR,KEKN 011430Z AUTO 31006KT 2 1/2SM BR BKN012 OVC019 A3003 RMK MADISHF
EKN,2017-04-01 14:35,-79.8528,38.8853,M,M,M,300.00,6.00,M,30.03,M,2.50,M,BKN,OVC,M,M,1200.00,1999.00,M,M,-RA BR,KEKN 011435Z AUTO 30006KT 2 1/2SM -RA BR BKN012 OVC019 A3003 RMK MADISHF
EKN,2017-04-01 14:40,-79.8528,38.8853,M,M,M,310.00,8.00,M,30.04,M,2.00,M,OVC,M,M,M,1400.00,M,M,M,-RA BR,KEKN 011440Z AUTO 31008KT 2SM -RA BR OVC014 A3004 RMK MADISHF
EKN,2017-04-01 14:45,-79.8528,38.8853,M,M,M,310.00,7.00,M,30.04,M,2.00,M,FEW,OVC,M,M,700.00,1400.00,M,M,-RA BR,KEKN 011445Z AUTO 31007KT 2SM -RA BR FEW007 OVC014 A3004 RMK MADISHF
EKN,2017-04-01 14:50,-79.8528,38.8853,M,M,M,310.00,6.00,0.01,30.04,M,2.00,M,FEW,BKN,OVC,M,700.00,1400.00,1900.00,M,-RA BR,KEKN 011450Z AUTO 31006KT 2SM -RA BR FEW007 BKN014 OVC019 A3004 RMK P0001 MADISHF
EKN,2017-04-01 14:51,-79.8528,38.8853,43.00,39.00,85.66,M,6.00,0.01,30.04,1018.10,2.00,M,SCT,OVC,M,M,1000.00,1600.00,M,M,-RA BR,KEKN 011451Z AUTO VRB06KT 2SM -RA BR SCT010 OVC016 06/04 A3004 RMK AO2 RAE08B32 SLP181 P0001 60003 T00610039 53017
EKN,2017-04-01 14:55,-79.8528,38.8853,M,M,M,320.00,7.00,M,30.04,M,2.50,M,SCT,OVC,M,M,999.00,1600.00,M,M,-RA BR,KEKN 011455Z AUTO 32007KT 2 1/2SM -RA BR SCT009 OVC016 A3004 RMK WND 27V34  MADISHF
EKN,2017-04-01 15:00,-79.8528,38.8853,M,M,M,330.00,8.00,M,30.04,M,2.50,M,FEW,OVC,M,M,700.00,1500.00,M,M,-RA BR,KEKN 011500Z AUTO 33008KT 2 1/2SM -RA BR FEW007 OVC015 A3004 RMK MADISHF
EKN,2017-04-01 15:01,-79.8528,38.8853,42.10,37.90,84.93,330.00,7.00,0.00,30.04,M,3.00,M,FEW,OVC,M,M,700.00,1500.00,M,M,-RA BR,KEKN 011501Z AUTO 33007KT 3SM -RA BR FEW007 OVC015 06/03 A3004 RMK AO2 P0000 T00560033
EKN,2017-04-01 15:05,-79.8528,38.8853,M,M,M,320.00,7.00,M,30.04,M,3.00,M,FEW,OVC,M,M,700.00,1500.00,M,M,-RA BR,KEKN 011505Z AUTO 32007KT 3SM -RA BR FEW007 OVC015 A3004 RMK MADISHF
EKN,2017-04-01 15:10,-79.8528,38.8853,M,M,M,320.00,7.00,M,30.04,M,2.50,M,FEW,OVC,M,M,700.00,1500.00,M,M,-RA BR,KEKN 011510Z AUTO 32007KT 2 1/2SM -RA BR FEW007 OVC015 A3004 RMK MADISHF
EKN,2017-04-01 15:14,-79.8528,38.8853,43.00,39.00,85.66,330.00,9.00,0.00,30.04,M,2.50,M,FEW,OVC,M,M,700.00,1300.00,M,M,-RA BR,KEKN 011514Z AUTO 33009KT 2 1/2SM -RA BR FEW007 OVC013 06/04 A3004 RMK AO2 P0000 T00610039
EKN,2017-04-01 15:15,-79.8528,38.8853,M,M,M,320.00,8.00,0.01,30.04,M,2.50,M,FEW,OVC,M,M,700.00,1300.00,M,M,-RA BR,KEKN 011515Z AUTO 32008KT 2 1/2SM -RA BR FEW007 OVC013 A3004 RMK P0001 MADISHF
EKN,2017-04-01 15:20,-79.8528,38.8853,M,M,M,340.00,7.00,0.01,30.04,M,2.50,M,OVC,M,M,M,1500.00,M,M,M,-RA BR,KEKN 011520Z AUTO 34007KT 2 1/2SM -RA BR OVC015 A3004 RMK P0001 MADISHF
EKN,2017-04-01 15:24,-79.8528,38.8853,43.00,39.00,85.66,330.00,8.00,0.01,30.04,M,2.50,M,OVC,M,M,M,1500.00,M,M,M,-RA BR,KEKN 011524Z AUTO 33008KT 2 1/2SM -RA BR OVC015 06/04 A3004 RMK AO2 P0001 T00610039
EKN,2017-04-01 15:25,-79.8528,38.8853,M,M,M,320.00,7.00,0.01,30.04,M,2.50,M,OVC,M,M,M,1500.00,M,M,M,-RA BR,KEKN 011525Z AUTO 32007KT 2 1/2SM -RA BR OVC015 A3004 RMK P0001 MADISHF
EKN,2017-04-01 15:30,-79.8528,38.8853,M,M,M,320.00,10.00,0.01,30.04,M,2.50,M,OVC,M,M,M,1500.00,M,M,M,-RA,KEKN 011530Z AUTO 32010KT 2 1/2SM -RA OVC015 A3004 RMK P0001 MADISHF
EKN,2017-04-01 15:35,-79.8528,38.8853,M,M,M,310.00,8.00,0.01,30.04,M,2.50,M,OVC,M,M,M,1500.00,M,M,M,-RA BR,KEKN 011535Z AUTO 31008KT 2 1/2SM -RA BR OVC015 A3004 RMK P0001 MADISHF
EKN,2017-04-01 15:37,-79.8528,38.8853,43.00,39.00,85.66,320.00,7.00,0.01,30.03,M,3.00,M,OVC,M,M,M,1400.00,M,M,M,-RA BR,KEKN 011537Z AUTO 32007KT 3SM -RA BR OVC014 06/04 A3003 RMK AO2 P0001 T00610039
EKN,2017-04-01 15:40,-79.8528,38.8853,M,M,M,320.00,8.00,0.01,30.04,M,3.00,M,OVC,M,M,M,1400.00,M,M,M,-RA BR,KEKN 011540Z AUTO 32008KT 3SM -RA BR OVC014 A3004 RMK P0001 MADISHF
EKN,2017-04-01 15:45,-79.8528,38.8853,M,M,M,310.00,9.00,0.01,30.03,M,3.00,M,OVC,M,M,M,1400.00,M,M,M,-RA BR,KEKN 011545Z AUTO 31009KT 3SM -RA BR OVC014 A3003 RMK P0001 MADISHF
EKN,2017-04-01 15:50,-79.8528,38.8853,M,M,M,300.00,7.00,0.01,30.03,M,3.00,M,FEW,OVC,M,M,999.00,1500.00,M,M,-RA BR,KEKN 011550Z AUTO 30007KT 3SM -RA BR FEW009 OVC015 A3003 RMK P0001 MADISHF
EKN,2017-04-01 15:51,-79.8528,38.8853,43.00,39.00,85.66,310.00,8.00,0.01,30.03,1018.00,3.00,M,OVC,M,M,M,1500.00,M,M,M,-RA BR,KEKN 011551Z AUTO 31008KT 3SM -RA BR OVC015 06/04 A3003 RMK AO2 SLP180 P0001 T00610039
EKN,2017-04-01 15:55,-79.8528,38.8853,M,M,M,320.00,7.00,M,30.03,M,4.00,M,OVC,M,M,M,1500.00,M,M,M,-RA BR,KEKN 011555Z AUTO 32007KT 4SM -RA BR OVC015 A3003 RMK MADISHF
EKN,2017-04-01 16:00,-79.8528,38.8853,M,M,M,330.00,8.00,M,30.03,M,5.00,M,FEW,OVC,M,M,999.00,1500.00,M,M,BR,KEKN 011600Z AUTO 33008KT 5SM BR FEW009 OVC015 A3003 RMK MADISHF
EKN,2017-04-01 16:05,-79.8528,38.8853,M,M,M,320.00,10.00,M,30.03,M,5.00,M,OVC,M,M,M,1699.00,M,M,M,BR,KEKN 011605Z AUTO 32010KT 5SM BR OVC016 A3003 RMK MADISHF
EKN,2017-04-01 16:10,-79.8528,38.8853,M,M,M,320.00,8.00,M,30.03,M,4.00,M,OVC,M,M,M,1699.00,M,M,M,HZ,KEKN 011610Z AUTO 32008KT 4SM HZ OVC016 A3003 RMK MADISHF
EKN,2017-04-01 16:15,-79.8528,38.8853,M,M,M,310.00,7.00,M,30.03,M,3.00,M,BKN,OVC,M,M,1300.00,1800.00,M,M,-RA BR,KEKN 011615Z AUTO 31007KT 3SM -RA BR BKN013 OVC018 A3003 RMK MADISHF
EKN,2017-04-01 16:19,-79.8528,38.8853,43.00,39.00,85.66,310.00,7.00,0.00,30.03,M,3.00,M,BKN,OVC,M,M,1300.00,1800.00,M,M,-RA BR,KEKN 011619Z AUTO 31007KT 3SM -RA BR BKN013 OVC018 06/04 A3003 RMK AO2 RAE1556B12 P0000 T00610039
EKN,2017-04-01 16:20,-79.8528,38.8853,M,M,M,310.00,6.00,M,30.03,M,3.00,M,BKN,OVC,M,M,1300.00,1800.00,M,M,-RA BR,KEKN 011620Z AUTO 31006KT 3SM -RA BR BKN013 OVC018 A3003 RMK MADISHF
EKN,2017-04-01 16:25,-79.8528,38.8853,43.00,39.00,85.66,310.00,5.00,0.00,30.03,M,2.50,M,FEW,OVC,M,M,800.00,1300.00,M,M,-RA BR,KEKN 011625Z AUTO 31005KT 2 1/2SM -RA BR FEW008 OVC013 06/04 A3003 RMK AO2 RAE1556B12 P0000 T00610039
EKN,2017-04-01 16:30,-79.8528,38.8853,M,M,M,320.00,6.00,M,30.03,M,2.50,M,OVC,M,M,M,1300.00,M,M,M,-RA BR,KEKN 011630Z AUTO 32006KT 2 1/2SM -RA BR OVC013 A3003 RMK MADISHF
EKN,2017-04-01 16:35,-79.8528,38.8853,M,M,M,320.00,6.00,0.01,30.04,M,2.50,M,OVC,M,M,M,1300.00,M,M,M,-RA BR,KEKN 011635Z AUTO 32006KT 2 1/2SM -RA BR OVC013 A3004 RMK P0001 MADISHF
EKN,2017-04-01 16:40,-79.8528,38.8853,M,M,M,300.00,6.00,0.01,30.03,M,3.00,M,OVC,M,M,M,1300.00,M,M,M,-RA BR,KEKN 011640Z AUTO 30006KT 3SM -RA BR OVC013 A3003 RMK P0001 MADISHF
EKN,2017-04-01 16:43,-79.8528,38.8853,43.00,39.00,85.66,280.00,6.00,0.01,30.03,M,3.00,M,BKN,OVC,M,M,1000.00,1600.00,M,M,-RA BR,KEKN 011643Z AUTO 28006KT 3SM -RA BR BKN010 OVC016 06/04 A3003 RMK AO2 RAE1556B12 P0001 T00610039
EKN,2017-04-01 16:45,-79.8528,38.8853,M,M,M,260.00,6.00,0.01,30.03,M,3.50,M,BKN,OVC,M,M,999.00,1600.00,M,M,-RA BR,KEKN 011645Z AUTO 26006KT 3SM -RA BR BKN009 OVC016 A3003 RMK P0001 MADISHF
EKN,2017-04-01 16:50,-79.8528,38.8853,M,M,M,280.00,9.00,0.01,30.03,M,4.00,M,OVC,M,M,M,1400.00,M,M,M,-RA,KEKN 011650Z AUTO 28009KT 4SM -RA OVC014 A3003 RMK P0001 MADISHF
EKN,2017-04-01 16:51,-79.8528,38.8853,43.00,39.00,85.66,290.00,9.00,0.01,30.04,1018.10,5.00,M,BKN,OVC,M,M,1200.00,1700.00,M,M,-RA BR,KEKN 011651Z AUTO 29009KT 5SM -RA BR BKN012 OVC017 06/04 A3004 RMK AO2 RAE1556B12 SLP181 P0001 T00610039
EKN,2017-04-01 16:55,-79.8528,38.8853,M,M,M,280.00,8.00,M,30.04,M,5.00,M,BKN,OVC,M,M,1100.00,1800.00,M,M,-RA,KEKN 011655Z AUTO 28008KT 5SM -RA BKN011 OVC018 A3004 RMK MADISHF
EKN,2017-04-01 17:00,-79.8528,38.8853,M,M,M,290.00,9.00,M,30.04,M,5.00,M,SCT,OVC,M,M,1100.00,1800.00,M,M,-RA BR,KEKN 011700Z AUTO 29009KT 5SM -RA BR SCT011 OVC018 A3004 RMK MADISHF
EKN,2017-04-01 17:03,-79.8528,38.8853,43.00,37.90,82.04,270.00,8.00,0.00,30.04,M,7.00,M,FEW,OVC,M,M,900.00,1600.00,M,M,M,KEKN 011703Z AUTO 27008KT 7SM FEW009 OVC016 06/03 A3004 RMK AO2 RAE01 P0000 T00610033
EKN,2017-04-01 17:05,-79.8528,38.8853,M,M,M,290.00,8.00,M,30.04,M,8.00,M,FEW,OVC,M,M,900.00,1600.00,M,M,M,KEKN 011705Z AUTO 29008KT 8SM FEW009 OVC016 A3004 RMK MADISHF
EKN,2017-04-01 17:10,-79.8528,38.8853,M,M,M,280.00,8.00,M,30.04,M,9.00,M,FEW,OVC,M,M,900.00,1600.00,M,M,M,KEKN 011710Z AUTO 28008KT 9SM FEW009 OVC016 A3004 RMK MADISHF
EKN,2017-04-01 17:15,-79.8528,38.8853,M,M,M,300.00,9.00,M,30.04,M,9.00,M,OVC,M,M,M,1800.00,M,M,M,M,KEKN 011715Z AUTO 30009KT 9SM OVC018 A3004 RMK MADISHF
EKN,2017-04-01 17:20,-79.8528,38.8853,M,M,M,280.00,8.00,M,30.05,M,10.00,M,OVC,M,M,M,1800.00,M,M,M,M,KEKN 011720Z AUTO 28008KT 10SM OVC018 A3005 RMK MADISHF
EKN,2017-04-01 17:25,-79.8528,38.8853,M,M,M,270.00,6.00,M,30.05,M,10.00,M,OVC,M,M,M,1800.00,M,M,M,M,KEKN 011725Z AUTO 27006KT 10SM OVC018 A3005 RMK MADISHF
EKN,2017-04-01 17:30,-79.8528,38.8853,M,M,M,290.00,7.00,M,30.05,M,10.00,M,OVC,M,M,M,1800.00,M,M,M,M,KEKN 011730Z AUTO 29007KT 10SM OVC018 A3005 RMK MADISHF
EKN,2017-04-01 17:35,-79.8528,38.8853,M,M,M,310.00,7.00,M,30.05,M,10.00,M,OVC,M,M,M,1800.00,M,M,M,M,KEKN 011735Z AUTO 31007KT 10SM OVC018 A3005 RMK MADISHF
EKN,2017-04-01 17:40,-79.8528,38.8853,M,M,M,250.00,4.00,M,30.05,M,7.00,M,BKN,OVC,M,M,1600.00,2100.00,M,M,-RA,KEKN 011740Z AUTO 25004KT 7SM -RA BKN016 OVC021 A3005 RMK MADISHF
EKN,2017-04-01 17:45,-79.8528,38.8853,M,M,M,270.00,5.00,M,30.05,M,6.00,M,BKN,OVC,M,M,1400.00,1900.00,M,M,-RA BR,KEKN 011745Z AUTO 27005KT 6SM -RA BR BKN014 OVC019 A3005 RMK MADISHF
EKN,2017-04-01 17:47,-79.8528,38.8853,44.60,39.20,81.20,M,6.00,0.00,30.05,M,5.00,M,BKN,OVC,M,M,1200.00,1900.00,M,M,-RA,KEKN 011747Z AUTO VRB06KT 5SM -RA BKN012 OVC019 07/04 A3005 RMK AO2 RAE01B40 P0000
EKN,2017-04-01 17:50,-79.8528,38.8853,M,M,M,300.00,3.00,M,30.05,M,6.00,M,BKN,OVC,M,M,1200.00,1900.00,M,M,-RA,KEKN 011750Z AUTO 30003KT 6SM -RA BKN012 OVC019 A3005 RMK MADISHF
EKN,2017-04-01 17:51,-79.8528,38.8853,44.10,39.00,82.12,290.00,4.00,0.00,30.05,1018.60,7.00,M,BKN,OVC,M,M,1200.00,1900.00,M,M,-RA,KEKN 011751Z AUTO 29004KT 7SM -RA BKN012 OVC019 07/04 A3005 RMK AO2 RAE01B40 SLP186 P0000 60005 T00670039 10067 20056 52005
EKN,2017-04-01 17:55,-79.8528,38.8853,M,M,M,270.00,3.00,M,30.05,M,6.00,M,BKN,OVC,M,M,1200.00,2100.00,M,M,HZ,KEKN 011755Z AUTO 27003KT 6SM HZ BKN012 OVC021 A3005 RMK VRB03KT  MADISHF
EKN,2017-04-01 18:00,-79.8528,38.8853,M,M,M,270.00,4.00,M,30.05,M,6.00,M,BKN,OVC,M,M,1300.00,2100.00,M,M,-RA,KEKN 011800Z AUTO 27004KT 6SM -RA BKN013 OVC021 A3005 RMK MADISHF
EKN,2017-04-01 18:05,-79.8528,38.8853,M,M,M,280.00,7.00,M,30.06,M,7.00,M,BKN,OVC,M,M,1300.00,2100.00,M,M,-RA,KEKN 011805Z AUTO 28007KT 7SM -RA BKN013 OVC021 A3006 RMK MADISHF
EKN,2017-04-01 18:10,-79.8528,38.8853,M,M,M,290.00,8.00,M,30.06,M,8.00,M,BKN,OVC,M,M,1300.00,2100.00,M,M,-RA,KEKN 011810Z AUTO 29008KT 8SM -RA BKN013 OVC021 A3006 RMK MADISHF
EKN,2017-04-01 18:15,-79.8528,38.8853,M,M,M,280.00,7.00,M,30.06,M,10.00,M,BKN,OVC,M,M,1300.00,2100.00,M,M,M,KEKN 011815Z AUTO 28007KT 10SM BKN013 OVC021 A3006 RMK MADISHF
EKN,2017-04-01 18:20,-79.8528,38.8853,M,M,M,290.00,9.00,M,30.06,M,10.00,M,BKN,OVC,M,M,1400.00,2100.00,M,M,M,KEKN 011820Z AUTO 29009KT 10SM BKN014 OVC021 A3006 RMK MADISHF
EKN,2017-04-01 18:25,-79.8528,38.8853,M,M,M,300.00,7.00,M,30.06,M,9.00,M,BKN,OVC,M,M,1600.00,2400.00,M,M,-RA,KEKN 011825Z AUTO 30007KT 9SM -RA BKN016 OVC024 A3006 RMK MADISHF
EKN,2017-04-01 18:30,-79.8528,38.8853,44.10,37.90,78.66,300.00,7.00,0.00,30.06,M,9.00,M,BKN,OVC,M,M,1600.00,2400.00,M,M,-RA,KEKN 011830Z AUTO 30007KT 9SM -RA BKN016 OVC024 07/03 A3006 RMK AO2 P0000 T00670033
EKN,2017-04-01 18:35,-79.8528,38.8853,M,M,M,290.00,7.00,M,30.06,M,7.00,M,BKN,OVC,M,M,1600.00,2400.00,M,M,-RA,KEKN 011835Z AUTO 29007KT 7SM -RA BKN016 OVC024 A3006 RMK MADISHF
EKN,2017-04-01 18:40,-79.8528,38.8853,M,M,M,310.00,6.00,M,30.06,M,7.00,M,BKN,OVC,M,M,1600.00,2400.00,M,M,-RA,KEKN 011840Z AUTO 31006KT 7SM -RA BKN016 OVC024 A3006 RMK MADISHF
EKN,2017-04-01 18:45,-79.8528,38.8853,M,M,M,290.00,6.00,M,30.06,M,8.00,M,BKN,OVC,M,M,1600.00,2100.00,M,M,M,KEKN 011845Z AUTO 29006KT 8SM BKN016 OVC021 A3006 RMK VRB06KT  MADISHF
EKN,2017-04-01 18:50,-79.8528,38.8853,M,M,M,300.00,7.00,M,30.06,M,7.00,M,BKN,OVC,M,M,1600.00,2100.00,M,M,M,KEKN 011850Z AUTO 30007KT 7SM BKN016 OVC021 A3006 RMK MADISHF
EKN,2017-04-01 18:51,-79.8528,38.8853,44.10,37.90,78.66,300.00,8.00,0.00,30.06,1018.90,7.00,M,OVC,M,M,M,1600.00,M,M,M,M,KEKN 011851Z AUTO 30008KT 7SM OVC016 07/03 A3006 RMK AO2 RAE44 SLP189 P0000 T00670033
EKN,2017-04-01 18:55,-79.8528,38.8853,M,M,M,300.00,6.00,M,30.06,M,7.00,M,BKN,OVC,M,M,1600.00,2100.00,M,M,-RA,KEKN 011855Z AUTO 30006KT 7SM -RA BKN016 OVC021 A3006 RMK MADISHF
EKN,2017-04-01 19:00,-79.8528,38.8853,M,M,M,300.00,6.00,M,30.06,M,8.00,M,BKN,OVC,M,M,1600.00,2200.00,M,M,-RA,KEKN 011900Z AUTO 30006KT 8SM -RA BKN016 OVC022 A3006 RMK MADISHF
EKN,2017-04-01 19:05,-79.8528,38.8853,M,M,M,290.00,6.00,M,30.06,M,5.00,M,BKN,OVC,M,M,1400.00,2100.00,M,M,-RA,KEKN 011905Z AUTO 29006KT 5SM -RA BKN014 OVC021 A3006 RMK MADISHF
EKN,2017-04-01 19:10,-79.8528,38.8853,M,M,M,290.00,6.00,M,30.07,M,4.00,M,BKN,OVC,M,M,1400.00,2100.00,M,M,-RA,KEKN 011910Z AUTO 29006KT 4SM -RA BKN014 OVC021 A3007 RMK MADISHF
EKN,2017-04-01 19:11,-79.8528,38.8853,44.10,39.00,82.12,300.00,6.00,0.00,30.07,M,4.00,M,BKN,OVC,M,M,1400.00,1900.00,M,M,-RA,KEKN 011911Z AUTO 30006KT 4SM -RA BKN014 OVC019 07/04 A3007 RMK AO2 RAB1855 P0000 T00670039
EKN,2017-04-01 19:15,-79.8528,38.8853,M,M,M,280.00,6.00,M,30.07,M,6.00,M,BKN,OVC,M,M,1400.00,1900.00,M,M,-RA,KEKN 011915Z AUTO 28006KT 6SM -RA BKN014 OVC019 A3007 RMK MADISHF
EKN,2017-04-01 19:20,-79.8528,38.8853,M,M,M,270.00,7.00,M,30.07,M,6.00,M,BKN,OVC,M,M,1500.00,1900.00,M,M,-RA,KEKN 011920Z AUTO 27007KT 6SM -RA BKN015 OVC019 A3007 RMK MADISHF
EKN,2017-04-01 19:24,-79.8528,38.8853,42.80,37.40,81.07,250.00,5.00,0.00,30.07,M,5.00,M,OVC,M,M,M,1500.00,M,M,M,-RA,KEKN 011924Z AUTO 25005KT 5SM -RA OVC015 06/03 A3007
EKN,2017-04-01 19:25,-79.8528,38.8853,M,M,M,250.00,5.00,M,30.07,M,5.00,M,OVC,M,M,M,1500.00,M,M,M,-RA,KEKN 011925Z AUTO 25005KT 5SM -RA OVC015 A3007 RMK MADISHF
EKN,2017-04-01 19:30,-79.8528,38.8853,M,M,M,260.00,6.00,M,30.06,M,3.50,M,BKN,OVC,M,M,1300.00,1800.00,M,M,-RA BR,KEKN 011930Z AUTO 26006KT 3SM -RA BR BKN013 OVC018 A3006 RMK MADISHF
EKN,2017-04-01 19:32,-79.8528,38.8853,43.00,37.90,82.04,280.00,7.00,0.00,30.07,M,3.00,M,BKN,OVC,M,M,1300.00,1800.00,M,M,-RA,KEKN 011932Z AUTO 28007KT 3SM -RA BKN013 OVC018 06/03 A3007 RMK AO2 RAB1855 P0000 T00610033
EKN,2017-04-01 19:35,-79.8528,38.8853,M,M,M,290.00,4.00,M,30.07,M,3.00,M,OVC,M,M,M,1500.00,M,M,M,-RA BR,KEKN 011935Z AUTO 29004KT 3SM -RA BR OVC015 A3007 RMK VRB04KT  MADISHF
EKN,2017-04-01 19:38,-79.8528,38.8853,43.00,39.00,85.66,270.00,5.00,0.00,30.07,M,4.00,M,FEW,OVC,M,M,900.00,1500.00,M,M,-RA BR,KEKN 011938Z AUTO 27005KT 4SM -RA BR FEW009 OVC015 06/04 A3007 RMK AO2 RAB1855 P0000 T00610039
EKN,2017-04-01 19:40,-79.8528,38.8853,M,M,M,280.00,6.00,M,30.07,M,4.00,M,FEW,OVC,M,M,900.00,1500.00,M,M,-RA BR,KEKN 011940Z AUTO 28006KT 4SM -RA BR FEW009 OVC015 A3007 RMK MADISHF
EKN,2017-04-01 19:45,-79.8528,38.8853,M,M,M,270.00,5.00,M,30.07,M,4.00,M,FEW,OVC,M,M,900.00,1500.00,M,M,-RA BR,KEKN 011945Z AUTO 27005KT 4SM -RA BR FEW009 OVC015 A3007 RMK MADISHF
EKN,2017-04-01 19:50,-79.8528,38.8853,M,M,M,300.00,4.00,M,30.06,M,5.00,M,SCT,OVC,M,M,1300.00,1800.00,M,M,-RA BR,KEKN 011950Z AUTO 30004KT 5SM -RA BR SCT013 OVC018 A3006 RMK MADISHF
EKN,2017-04-01 19:51,-79.8528,38.8853,44.10,39.00,82.12,300.00,5.00,0.00,30.06,1019.10,5.00,M,SCT,OVC,M,M,1300.00,1800.00,M,M,-RA,KEKN 011951Z AUTO 30005KT 5SM -RA SCT013 OVC018 07/04 A3006 RMK AO2 RAB1855 SLP191 P0000 T00670039
EKN,2017-04-01 19:55,-79.8528,38.8853,M,M,M,290.00,6.00,M,30.07,M,8.00,M,SCT,BKN,OVC,M,1200.00,1699.00,2200.00,M,-RA,KEKN 011955Z AUTO 29006KT 8SM -RA SCT012 BKN016 OVC022 A3007 RMK MADISHF
EKN,2017-04-01 20:00,-79.8528,38.8853,M,M,M,290.00,7.00,M,30.07,M,7.00,M,FEW,BKN,OVC,M,900.00,1600.00,2100.00,M,-RA,KEKN 012000Z AUTO 29007KT 7SM -RA FEW009 BKN016 OVC021 A3007 RMK MADISHF
EKN,2017-04-01 20:05,-79.8528,38.8853,M,M,M,290.00,6.00,M,30.07,M,5.00,M,BKN,OVC,M,M,1600.00,2100.00,M,M,-RA,KEKN 012005Z AUTO 29006KT 5SM -RA BKN016 OVC021 A3007 RMK MADISHF
EKN,2017-04-01 20:10,-79.8528,38.8853,M,M,M,290.00,7.00,M,30.07,M,5.00,M,BKN,OVC,M,M,1500.00,2100.00,M,M,-RA,KEKN 012010Z AUTO 29007KT 5SM -RA BKN015 OVC021 A3007 RMK MADISHF
EKN,2017-04-01 20:15,-79.8528,38.8853,M,M,M,300.00,6.00,M,30.07,M,6.00,M,BKN,OVC,M,M,1600.00,2100.00,M,M,-RA,KEKN 012015Z AUTO 30006KT 6SM -RA BKN016 OVC021 A3007 RMK MADISHF
EKN,2017-04-01 20:20,-79.8528,38.8853,M,M,M,300.00,6.00,M,30.07,M,6.00,M,SCT,OVC,M,M,1300.00,2100.00,M,M,-RA,KEKN 012020Z AUTO 30006KT 6SM -RA SCT013 OVC021 A3007 RMK MADISHF
EKN,2017-04-01 20:25,-79.8528,38.8853,M,M,M,290.00,4.00,M,30.07,M,4.00,M,BKN,OVC,M,M,1300.00,1900.00,M,M,-RA,KEKN 012025Z AUTO 29004KT 4SM -RA BKN013 OVC019 A3007 RMK MADISHF
EKN,2017-04-01 20:30,-79.8528,38.8853,M,M,M,310.00,4.00,M,30.07,M,5.00,M,BKN,OVC,M,M,1300.00,1900.00,M,M,-RA,KEKN 012030Z AUTO 31004KT 5SM -RA BKN013 OVC019 A3007 RMK MADISHF
EKN,2017-04-01 20:31,-79.8528,38.8853,44.10,39.00,82.12,320.00,5.00,0.00,30.07,M,5.00,M,BKN,OVC,M,M,1300.00,1900.00,M,M,-RA,KEKN 012031Z AUTO 32005KT 5SM -RA BKN013 OVC019 07/04 A3007 RMK AO2 P0000 T00670039
EKN,2017-04-01 20:35,-79.8528,38.8853,M,M,M,290.00,5.00,M,30.08,M,6.00,M,BKN,OVC,M,M,1300.00,1900.00,M,M,-RA BR,KEKN 012035Z AUTO 29005KT 6SM -RA BR BKN013 OVC019 A3008 RMK MADISHF
EKN,2017-04-01 20:40,-79.8528,38.8853,M,M,M,290.00,6.00,M,30.08,M,4.00,M,BKN,OVC,M,M,1300.00,1900.00,M,M,-RA BR,KEKN 012040Z AUTO 29006KT 4SM -RA BR BKN013 OVC019 A3008 RMK MADISHF
EKN,2017-04-01 20:45,-79.8528,38.8853,M,M,M,290.00,6.00,0.01,30.08,M,3.00,M,OVC,M,M,M,1300.00,M,M,M,-RA BR,KEKN 012045Z AUTO 29006KT 3SM -RA BR OVC013 A3008 RMK P0001 MADISHF
EKN,2017-04-01 20:50,-79.8528,38.8853,M,M,M,290.00,6.00,0.01,30.09,M,3.00,M,BKN,OVC,M,M,1100.00,1699.00,M,M,-RA BR,KEKN 012050Z AUTO 29006KT 3SM -RA BR BKN011 OVC016 A3009 RMK P0001 MADISHF
EKN,2017-04-01 20:51,-79.8528,38.8853,43.00,39.00,85.66,290.00,6.00,0.01,30.09,1020.10,3.00,M,OVC,M,M,M,1400.00,M,M,M,-RA BR,KEKN 012051Z AUTO 29006KT 3SM -RA BR OVC014 06/04 A3009 RMK AO2 SLP201 P0001 60001 T00610039 53012
EKN,2017-04-01 20:55,-79.8528,38.8853,M,M,M,290.00,5.00,M,30.09,M,3.50,M,OVC,M,M,M,1400.00,M,M,M,-RA BR,KEKN 012055Z AUTO 29005KT 3SM -RA BR OVC014 A3009 RMK MADISHF
EKN,2017-04-01 21:00,-79.8528,38.8853,M,M,M,290.00,6.00,M,30.09,M,3.00,M,OVC,M,M,M,1400.00,M,M,M,-RA BR,KEKN 012100Z AUTO 29006KT 3SM -RA BR OVC014 A3009 RMK MADISHF
EKN,2017-04-01 21:05,-79.8528,38.8853,M,M,M,290.00,5.00,0.01,30.09,M,2.50,M,OVC,M,M,M,1300.00,M,M,M,-RA BR,KEKN 012105Z AUTO 29005KT 2 1/2SM -RA BR OVC013 A3009 RMK P0001 MADISHF
EKN,2017-04-01 21:10,-79.8528,38.8853,43.00,39.90,88.71,290.00,7.00,0.01,30.09,M,2.00,M,BKN,OVC,M,M,1100.00,1700.00,M,M,-RA BR,KEKN 012110Z AUTO 29007KT 2SM -RA BR BKN011 OVC017 06/04 A3009 RMK AO2 P0001 T00610044
EKN,2017-04-01 21:15,-79.8528,38.8853,M,M,M,300.00,6.00,0.01,30.10,M,3.00,M,BKN,OVC,M,M,1400.00,1800.00,M,M,-RA BR,KEKN 012115Z AUTO 30006KT 3SM -RA BR BKN014 OVC018 A3010 RMK P0001 MADISHF
EKN,2017-04-01 21:18,-79.8528,38.8853,43.00,39.00,85.66,290.00,5.00,0.01,30.10,M,3.00,M,SCT,OVC,M,M,1200.00,1800.00,M,M,-RA BR,KEKN 012118Z AUTO 29005KT 3SM -RA BR SCT012 OVC018 06/04 A3010 RMK AO2 P0001 T00610039
EKN,2017-04-01 21:20,-79.8528,38.8853,M,M,M,290.00,6.00,0.01,30.10,M,3.00,M,BKN,OVC,M,M,1200.00,1999.00,M,M,-RA BR,KEKN 012120Z AUTO 29006KT 3SM -RA BR BKN012 OVC019 A3010 RMK P0001 MADISHF
EKN,2017-04-01 21:25,-79.8528,38.8853,43.00,39.00,85.66,300.00,9.00,0.01,30.10,M,2.50,M,BKN,OVC,M,M,1200.00,1900.00,M,M,-RA BR,KEKN 012125Z AUTO 30009KT 2 1/2SM -RA BR BKN012 OVC019 06/04 A3010 RMK AO2 P0001 T00610039
EKN,2017-04-01 21:30,-79.8528,38.8853,M,M,M,310.00,9.00,0.02,30.11,M,2.50,M,BKN,OVC,M,M,1200.00,1900.00,M,M,-RA,KEKN 012130Z AUTO 31009KT 2 1/2SM -RA BKN012 OVC019 A3011 RMK P0002 MADISHF
EKN,2017-04-01 21:35,-79.8528,38.8853,M,M,M,310.00,7.00,0.02,30.11,M,2.50,M,BKN,OVC,M,M,1200.00,1699.00,M,M,-RA,KEKN 012135Z AUTO 31007KT 2 1/2SM -RA BKN012 OVC016 A3011 RMK P0002 MADISHF
EKN,2017-04-01 21:40,-79.8528,38.8853,M,M,M,300.00,7.00,0.02,30.11,M,2.50,M,BKN,OVC,M,M,1200.00,1699.00,M,M,-RA,KEKN 012140Z AUTO 30007KT 2 1/2SM -RA BKN012 OVC016 A3011 RMK P0002 MADISHF
EKN,2017-04-01 21:45,-79.8528,38.8853,M,M,M,300.00,8.00,0.02,30.11,M,3.00,M,OVC,M,M,M,1500.00,M,M,M,-RA,KEKN 012145Z AUTO 30008KT 3SM -RA OVC015 A3011 RMK P0002 MADISHF
EKN,2017-04-01 21:47,-79.8528,38.8853,42.80,37.40,81.07,300.00,8.00,0.02,30.11,M,3.00,M,OVC,M,M,M,1500.00,M,M,M,-RA,KEKN 012147Z AUTO 30008KT 3SM -RA OVC015 06/03 A3011 RMK AO2 P0002
EKN,2017-04-01 21:50,-79.8528,38.8853,M,M,M,300.00,6.00,0.02,30.11,M,3.00,M,OVC,M,M,M,1500.00,M,M,M,-RA,KEKN 012150Z AUTO 30006KT 3SM -RA OVC015 A3011 RMK P0002 MADISHF
EKN,2017-04-01 21:51,-79.8528,38.8853,43.00,37.90,82.04,300.00,7.00,0.02,30.11,1021.10,3.00,M,BKN,OVC,M,M,1500.00,1900.00,M,M,-RA,KEKN 012151Z AUTO 30007KT 3SM -RA BKN015 OVC019 06/03 A3011 RMK AO2 SLP211 P0002 T00610033
EKN,2017-04-01 21:55,-79.8528,38.8853,M,M,M,290.00,8.00,M,30.12,M,5.00,M,BKN,OVC,M,M,1500.00,1900.00,M,M,-RA,KEKN 012155Z AUTO 29008KT 5SM -RA BKN015 OVC019 A3012 RMK MADISHF
EKN,2017-04-01 22:00,-79.8528,38.8853,M,M,M,300.00,7.00,M,30.12,M,5.00,M,BKN,OVC,M,M,1300.00,1699.00,M,M,-RA,KEKN 012200Z AUTO 30007KT 5SM -RA BKN013 OVC016 A3012 RMK MADISHF
EKN,2017-04-01 22:05,-79.8528,38.8853,42.10,37.90,84.93,310.00,6.00,0.01,30.12,M,2.50,M,OVC,M,M,M,1300.00,M,M,M,-RA BR,KEKN 012205Z AUTO 31006KT 2 1/2SM -RA BR OVC013 06/03 A3012 RMK AO2 P0001 T00560033
EKN,2017-04-01 22:10,-79.8528,38.8853,M,M,M,320.00,6.00,0.01,30.13,M,2.50,M,OVC,M,M,M,1300.00,M,M,M,-RA BR,KEKN 012210Z AUTO 32006KT 2 1/2SM -RA BR OVC013 A3013 RMK P0001 MADISHF
EKN,2017-04-01 22:15,-79.8528,38.8853,M,M,M,320.00,7.00,0.01,30.13,M,4.00,M,OVC,M,M,M,1400.00,M,M,M,-RA BR,KEKN 012215Z AUTO 32007KT 4SM -RA BR OVC014 A3013 RMK P0001 MADISHF
EKN,2017-04-01 22:17,-79.8528,38.8853,42.10,37.90,84.93,320.00,11.00,0.01,30.13,M,4.00,15.00,OVC,M,M,M,1400.00,M,M,M,-RA BR,KEKN 012217Z AUTO 32011G15KT 4SM -RA BR OVC014 06/03 A3013 RMK AO2 P0001 T00560033
EKN,2017-04-01 22:20,-79.8528,38.8853,M,M,M,320.00,9.00,0.01,30.13,M,4.00,M,OVC,M,M,M,1400.00,M,M,M,-RA BR,KEKN 012220Z AUTO 32009KT 4SM -RA BR OVC014 A3013 RMK P0001 MADISHF
EKN,2017-04-01 22:25,-79.8528,38.8853,M,M,M,300.00,7.00,0.01,30.13,M,5.00,M,BKN,OVC,M,M,1400.00,1800.00,M,M,-RA BR,KEKN 012225Z AUTO 30007KT 5SM -RA BR BKN014 OVC018 A3013 RMK P0001 MADISHF
EKN,2017-04-01 22:30,-79.8528,38.8853,M,M,M,310.00,8.00,0.01,30.14,M,7.00,M,BKN,BKN,OVC,M,1200.00,1699.00,2400.00,M,M,KEKN 012230Z AUTO 31008KT 7SM BKN012 BKN016 OVC024 A3014 RMK P0001 MADISHF
EKN,2017-04-01 22:35,-79.8528,38.8853,M,M,M,320.00,9.00,0.01,30.14,M,7.00,M,BKN,BKN,OVC,M,1200.00,1699.00,2700.00,M,M,KEKN 012235Z AUTO 32009KT 7SM BKN012 BKN016 OVC027 A3014 RMK P0001 MADISHF
EKN,2017-04-01 22:40,-79.8528,38.8853,M,M,M,310.00,7.00,0.01,30.14,M,7.00,M,BKN,BKN,OVC,M,1400.00,1900.00,3100.00,M,M,KEKN 012240Z AUTO 31007KT 7SM BKN014 BKN019 OVC031 A3014 RMK P0001 MADISHF
EKN,2017-04-01 22:45,-79.8528,38.8853,M,M,M,310.00,6.00,0.01,30.14,M,6.00,M,BKN,OVC,M,M,1400.00,3200.00,M,M,-RA BR,KEKN 012245Z AUTO 31006KT 6SM -RA BR BKN014 OVC032 A3014 RMK P0001 MADISHF
EKN,2017-04-01 22:50,-79.8528,38.8853,M,M,M,310.00,8.00,0.01,30.15,M,6.00,M,BKN,BKN,OVC,M,1400.00,1900.00,3200.00,M,-RA BR,KEKN 012250Z AUTO 31008KT 6SM -RA BR BKN014 BKN019 OVC032 A3015 RMK P0001 MADISHF
EKN,2017-04-01 22:51,-79.8528,38.8853,42.10,37.90,84.93,310.00,8.00,0.01,30.15,1022.20,6.00,M,BKN,BKN,OVC,M,1400.00,1900.00,3200.00,M,-RA BR,KEKN 012251Z AUTO 31008KT 6SM -RA BR BKN014 BKN019 OVC032 06/03 A3015 RMK AO2 SLP222 P0001 T00560033
EKN,2017-04-01 22:55,-79.8528,38.8853,M,M,M,310.00,7.00,M,30.15,M,6.00,M,BKN,BKN,OVC,M,1400.00,1900.00,3200.00,M,-RA,KEKN 012255Z AUTO 31007KT 6SM -RA BKN014 BKN019 OVC032 A3015 RMK MADISHF
EKN,2017-04-01 23:00,-79.8528,38.8853,M,M,M,310.00,7.00,M,30.15,M,7.00,M,BKN,BKN,OVC,M,1400.00,2100.00,3000.00,M,-RA,KEKN 012300Z AUTO 31007KT 7SM -RA BKN014 BKN021 OVC030 A3015 RMK MADISHF
EKN,2017-04-01 23:05,-79.8528,38.8853,M,M,M,300.00,5.00,M,30.15,M,10.00,M,SCT,OVC,M,M,1400.00,3000.00,M,M,M,KEKN 012305Z AUTO 30005KT 10SM SCT014 OVC030 A3015 RMK MADISHF
EKN,2017-04-01 23:10,-79.8528,38.8853,42.10,37.00,81.98,300.00,6.00,0.00,30.15,M,10.00,M,SCT,OVC,M,M,1400.00,3000.00,M,M,M,KEKN 012310Z AUTO 30006KT 10SM SCT014 OVC030 06/03 A3015 RMK AO2 RAE03 P0000 T00560028
EKN,2017-04-01 23:15,-79.8528,38.8853,M,M,M,310.00,6.00,M,30.15,M,10.00,M,SCT,SCT,OVC,M,1400.00,1999.00,3000.00,M,M,KEKN 012315Z AUTO 31006KT 10SM SCT014 SCT019 OVC030 A3015 RMK MADISHF
EKN,2017-04-01 23:20,-79.8528,38.8853,M,M,M,300.00,6.00,M,30.15,M,10.00,M,SCT,OVC,M,M,1600.00,3000.00,M,M,M,KEKN 012320Z AUTO 30006KT 10SM SCT016 OVC030 A3015 RMK MADISHF
EKN,2017-04-01 23:25,-79.8528,38.8853,M,M,M,310.00,6.00,M,30.15,M,10.00,M,SCT,BKN,OVC,M,1600.00,2500.00,3000.00,M,M,KEKN 012325Z AUTO 31006KT 10SM SCT016 BKN025 OVC030 A3015 RMK MADISHF
EKN,2017-04-01 23:28,-79.8528,38.8853,42.10,37.00,81.98,300.00,7.00,0.00,30.15,M,10.00,M,FEW,BKN,OVC,M,1600.00,2300.00,3000.00,M,M,KEKN 012328Z AUTO 30007KT 10SM FEW016 BKN023 OVC030 06/03 A3015 RMK AO2 RAE03 P0000 T00560028
EKN,2017-04-01 23:30,-79.8528,38.8853,M,M,M,300.00,6.00,M,30.15,M,10.00,M,FEW,BKN,OVC,M,1600.00,2300.00,3000.00,M,M,KEKN 012330Z AUTO 30006KT 10SM FEW016 BKN023 OVC030 A3015 RMK MADISHF
EKN,2017-04-01 23:35,-79.8528,38.8853,M,M,M,310.00,7.00,M,30.16,M,10.00,M,FEW,OVC,M,M,1600.00,2500.00,M,M,M,KEKN 012335Z AUTO 31007KT 10SM FEW016 OVC025 A3016 RMK MADISHF
EKN,2017-04-01 23:40,-79.8528,38.8853,M,M,M,320.00,5.00,M,30.16,M,9.00,M,FEW,OVC,M,M,1600.00,2300.00,M,M,M,KEKN 012340Z AUTO 32005KT 9SM FEW016 OVC023 A3016 RMK MADISHF
EKN,2017-04-01 23:45,-79.8528,38.8853,M,M,M,310.00,5.00,M,30.16,M,9.00,M,BKN,OVC,M,M,1800.00,2300.00,M,M,M,KEKN 012345Z AUTO 31005KT 9SM BKN018 OVC023 A3016 RMK MADISHF
EKN,2017-04-01 23:50,-79.8528,38.8853,M,M,M,320.00,8.00,M,30.16,M,8.00,M,SCT,OVC,M,M,1300.00,2300.00,M,M,-RA,KEKN 012350Z AUTO 32008KT 8SM -RA SCT013 OVC023 A3016 RMK MADISHF
EKN,2017-04-01 23:51,-79.8528,38.8853,41.00,37.00,85.54,320.00,8.00,0.00,30.16,1023.00,8.00,M,SCT,OVC,M,M,1500.00,2300.00,M,M,-RA,KEKN 012351Z AUTO 32008KT 8SM -RA SCT015 OVC023 05/03 A3016 RMK AO2 RAE03B49 SLP230 P0000 60004 T00500028 10067 20050 53016
EKN,2017-04-01 23:55,-79.8528,38.8853,M,M,M,320.00,8.00,M,30.17,M,7.00,M,BKN,OVC,M,M,1300.00,2300.00,M,M,-RA,KEKN 012355Z AUTO 32008KT 7SM -RA BKN013 OVC023 A3017 RMK MADISHF
