#DEBUG: Format Typ    -> comma
#DEBUG: Time Period   -> 2017-04-01 00:00:00+00:00 2017-04-02 00:00:00+00:00
#DEBUG: Time Zone     -> Etc/UTC
#DEBUG: Data Contact   -> daryl herzmann akrherz@iastate.edu 515-294-5978
#DEBUG: Entries Found -> -1
station,valid,lon,lat,tmpf, dwpf, relh, drct, sknt, p01i, alti, mslp, vsby, gust, skyc1, skyc2, skyc3, skyc4, skyl1, skyl2, skyl3, skyl4, presentwx, metar
ELD,2017-04-01 00:00,-92.8133,33.2210,M,M,M,110.00,5.00,M,29.84,M,10.00,M,CLR,M,M,M,M,M,M,M,M,KELD 010000Z AUTO 11005KT 10SM CLR A2984 RMK MADISHF
ELD,2017-04-01 00:05,-92.8133,33.2210,M,M,M,100.00,5.00,M,29.84,M,10.00,M,CLR,M,M,M,M,M,M,M,M,KELD 010005Z AUTO 10005KT 10SM CLR A2984 RMK MADISHF
ELD,2017-04-01 00:10,-92.8133,33.2210,M,M,M,100.00,6.00,M,29.84,M,10.00,M,CLR,M,M,M,M,M,M,M,M,KELD 010010Z AUTO 10006KT 10SM CLR A2984 RMK MADISHF
ELD,2017-04-01 00:15,-92.8133,33.2210,M,M,M,110.00,6.00,M,29.84,M,10.00,M,CLR,M,M,M,M,M,M,M,M,KELD 010015Z AUTO 11006KT 10SM CLR A2984 RMK MADISHF
ELD,2017-04-01 00:20,-92.8133,33.2210,M,M,M,110.00,6.00,M,29.84,M,10.00,M,CLR,M,M,M,M,M,M,M,M,KELD 010020Z AUTO 11006KT 10SM CLR A2984 RMK MADISHF
ELD,2017-04-01 00:25,-92.8133,33.2210,M,M,M,110.00,5.00,M,29.84,M,10.00,M,CLR,M,M,M,M,M,M,M,M,KELD 010025Z AUTO 11005KT 10SM CLR A2984 RMK MADISHF
ELD,2017-04-01 00:30,-92.8133,33.2210,M,M,M,110.00,4.00,M,29.84,M,10.00,M,CLR,M,M,M,M,M,M,M,M,KELD 010030Z AUTO 11004KT 10SM CLR A2984 RMK MADISHF
ELD,2017-04-01 00:35,-92.8133,33.2210,M,M,M,110.00,4.00,M,29.84,M,10.00,M,CLR,M,M,M,M,M,M,M,M,KELD 010035Z AUTO 11004KT 10SM CLR A2984 RMK MADISHF
ELD,2017-04-01 00:40,-92.8133,33.2210,M,M,M,100.00,4.00,M,29.85,M,10.00,M,CLR,M,M,M,M,M,M,M,M,KELD 010040Z AUTO 10004KT 10SM CLR A2985 RMK MADISHF
ELD,2017-04-01 00:45,-92.8133,33.2210,M,M,M,100.00,4.00,M,29.85,M,10.00,M,CLR,M,M,M,M,M,M,M,M,KELD 010045Z AUTO 10004KT 10SM CLR A2985 RMK MADISHF
ELD,2017-04-01 00:50,-92.8133,33.2210,M,M,M,100.00,3.00,M,29.85,M,10.00,M,CLR,M,M,M,M,M,M,M,M,KELD 010050Z AUTO 10003KT 10SM CLR A2985 RMK MADISHF
ELD,2017-04-01 00:53,-92.8133,33.2210,70.00,55.90,60.89,70.00,3.00,0.00,29.85,1010.60,10.00,M,CLR,M,M,M,M,M,M,M,M,KELD 010053Z AUTO 07003KT 10SM CLR 21/13 A2985 RMK AO2 SLP106 T02110133
ELD,2017-04-01 00:55,-92.8133,33.2210,M,M,M,0.00,0.00,M,29.85,M,10.00,M,CLR,M,M,M,M,M,M,M,M,KELD 010055Z AUTO 00000KT 10SM CLR A2985 RMK MADISHF
ELD,2017-04-01 01:00,-92.8133,33.2210,M,M,M,0.00,0.00,M,29.85,M,10.00,M,CLR,M,M,M,M,M,M,M,M,KELD 010100Z AUTO 00000KT 10SM CLR A2985 RMK MADISHF
ELD,2017-04-01 01:05,-92.8133,33.2210,M,M,M,0.00,0.00,M,29.85,M,10.00,M,CLR,M,M,M,M,M,M,M,M,KELD 010105Z AUTO 00000KT 10SM CLR A2985 RMK MADISHF
ELD,2017-04-01 01:10,-92.8133,33.2210,M,M,M,0.00,0.00,M,29.86,M,10.00,M,CLR,M,M,M,M,M,M,M,M,KELD 010110Z AUTO 00000KT 10SM CLR A2986 RMK MADISHF
ELD,2017-04-01 01:15,-92.8133,33.2210,M,M,M,0.00,0.00,M,29.86,M,10.00,M,CLR,M,M,M,M,M,M,M,M,KELD 010115Z AUTO 00000KT 10SM CLR A2986 RMK MADISHF
ELD,2017-04-01 01:20,-92.8133,33.2210,M,M,M,0.00,0.00,M,29.86,M,10.00,M,CLR,M,M,M,M,M,M,M,M,KELD 010120Z AUTO 00000KT 10SM CLR A2986 RMK MADISHF
ELD,2017-04-01 01:25,-92.8133,33.2210,M,M,M,0.00,0.00,M,29.86,M,10.00,M,CLR,M,M,M,M,M,M,M,M,KELD 010125Z AUTO 00000KT 10SM CLR A2986 RMK MADISHF
ELD,2017-04-01 01:30,-92.8133,33.2210,M,M,M,0.00,0.00,M,29.86,M,10.00,M,CLR,M,M,M,M,M,M,M,M,KELD 010130Z AUTO 00000KT 10SM CLR A2986 RMK MADISHF
ELD,2017-04-01 01:35,-92.8133,33.2210,M,M,M,0.00,0.00,M,29.86,M,10.00,M,CLR,M,M,M,M,M,M,M,M,KELD 010135Z AUTO 00000KT 10SM CLR A2986 RMK MADISHF
ELD,2017-04-01 01:40,-92.8133,33.2210,M,M,M,0.00,0.00,M,29.86,M,10.00,M,CLR,M,M,M,M,M,M,M,M,KELD 010140Z AUTO 00000KT 10SM CLR A2986 RMK MADISHF
ELD,2017-04-01 01:45,-92.8133,33.2210,M,M,M,0.00,0.00,M,29.87,M,10.00,M,CLR,M,M,M,M,M,M,M,M,KELD 010145Z AUTO 00000KT 10SM CLR A2987 RMK MADISHF
ELD,2017-04-01 01:50,-92.8133,33.2210,M,M,M,100.00,4.00,M,29.87,M,10.00,M,CLR,M,M,M,M,M,M,M,M,KELD 010150Z AUTO 10004KT 10SM CLR A2987 RMK MADISHF
ELD,2017-04-01 01:53,-92.8133,33.2210,64.00,55.90,74.93,110.00,4.00,0.00,29.87,1011.20,10.00,M,CLR,M,M,M,M,M,M,M,M,KELD 010153Z AUTO 11004KT 10SM CLR 18/13 A2987 RMK AO2 SLP112 T01780133
ELD,2017-04-01 01:55,-92.8133,33.2210,M,M,M,100.00,4.00,M,29.87,M,10.00,M,CLR,M,M,M,M,M,M,M,M,KELD 010155Z AUTO 10004KT 10SM CLR A2987 RMK MADISHF
ELD,2017-04-01 02:00,-92.8133,33.2210,M,M,M,100.00,4.00,M,29.87,M,10.00,M,CLR,M,M,M,M,M,M,M,M,KELD 010200Z AUTO 10004KT 10SM CLR A2987 RMK MADISHF
ELD,2017-04-01 02:05,-92.8133,33.2210,M,M,M,100.00,5.00,M,29.87,M,10.00,M,CLR,M,M,M,M,M,M,M,M,KELD 010205Z AUTO 10005KT 10SM CLR A2987 RMK MADISHF
ELD,2017-04-01 02:10,-92.8133,33.2210,M,M,M,100.00,5.00,M,29.87,M,10.00,M,CLR,M,M,M,M,M,M,M,M,KELD 010210Z AUTO 10005KT 10SM CLR A2987 RMK MADISHF
ELD,2017-04-01 02:15,-92.8133,33.2210,M,M,M,100.00,4.00,M,29.87,M,10.00,M,CLR,M,M,M,M,M,M,M,M,KELD 010215Z AUTO 10004KT 10SM CLR A2987 RMK MADISHF
ELD,2017-04-01 02:20,-92.8133,33.2210,M,M,M,110.00,5.00,M,29.88,M,10.00,M,CLR,M,M,M,M,M,M,M,M,KELD 010220Z AUTO 11005KT 10SM CLR A2988 RMK MADISHF
ELD,2017-04-01 02:25,-92.8133,33.2210,M,M,M,100.00,5.00,M,29.88,M,10.00,M,CLR,M,M,M,M,M,M,M,M,KELD 010225Z AUTO 10005KT 10SM CLR A2988 RMK MADISHF
ELD,2017-04-01 02:30,-92.8133,33.2210,M,M,M,100.00,4.00,M,29.88,M,10.00,M,CLR,M,M,M,M,M,M,M,M,KELD 010230Z AUTO 10004KT 10SM CLR A2988 RMK MADISHF
ELD,2017-04-01 02:35,-92.8133,33.2210,M,M,M,100.00,4.00,M,29.88,M,10.00,M,CLR,M,M,M,M,M,M,M,M,KELD 010235Z AUTO 10004KT 10SM CLR A2988 RMK MADISHF
ELD,2017-04-01 02:40,-92.8133,33.2210,M,M,M,100.00,4.00,M,29.88,M,10.00,M,CLR,M,M,M,M,M,M,M,M,KELD 010240Z AUTO 10004KT 10SM CLR A2988 RMK MADISHF
ELD,2017-04-01 02:45,-92.8133,33.2210,M,M,M,100.00,4.00,M,29.88,M,10.00,M,CLR,M,M,M,M,M,M,M,M,KELD 010245Z AUTO 10004KT 10SM CLR A2988 RMK MADISHF
ELD,2017-04-01 02:50,-92.8133,33.2210,M,M,M,100.00,4.00,M,29.89,M,10.00,M,CLR,M,M,M,M,M,M,M,M,KELD 010250Z AUTO 10004KT 10SM CLR A2989 RMK MADISHF
ELD,2017-04-01 02:53,-92.8133,33.2210,64.90,55.00,70.28,110.00,4.00,0.00,29.89,1011.80,10.00,M,CLR,M,M,M,M,M,M,M,M,KELD 010253Z AUTO 11004KT 10SM CLR 18/13 A2989 RMK AO2 SLP118 T01830128 52018
ELD,2017-04-01 02:55,-92.8133,33.2210,M,M,M,110.00,4.00,M,29.89,M,10.00,M,CLR,M,M,M,M,M,M,M,M,KELD 010255Z AUTO 11004KT 10SM CLR A2989 RMK MADISHF
ELD,2017-04-01 03:00,-92.8133,33.2210,M,M,M,110.00,4.00,M,29.89,M,10.00,M,CLR,M,M,M,M,M,M,M,M,KELD 010300Z AUTO 11004KT 10SM CLR A2989 RMK MADISHF
ELD,2017-04-01 03:05,-92.8133,33.2210,M,M,M,110.00,5.00,M,29.89,M,10.00,M,CLR,M,M,M,M,M,M,M,M,KELD 010305Z AUTO 11005KT 10SM CLR A2989 RMK MADISHF
ELD,2017-04-01 03:10,-92.8133,33.2210,M,M,M,110.00,5.00,M,29.89,M,10.00,M,CLR,M,M,M,M,M,M,M,M,KELD 010310Z AUTO 11005KT 10SM CLR A2989 RMK MADISHF
ELD,2017-04-01 03:15,-92.8133,33.2210,M,M,M,110.00,5.00,M,29.89,M,10.00,M,CLR,M,M,M,M,M,M,M,M,KELD 010315Z AUTO 11005KT 10SM CLR A2989 RMK MADISHF
ELD,2017-04-01 03:20,-92.8133,33.2210,M,M,M,100.00,5.00,M,29.89,M,10.00,M,CLR,M,M,M,M,M,M,M,M,KELD 010320Z AUTO 10005KT 10SM CLR A2989 RMK MADISHF
ELD,2017-04-01 03:25,-92.8133,33.2210,M,M,M,100.00,5.00,M,29.89,M,10.00,M,CLR,M,M,M,M,M,M,M,M,KELD 010325Z AUTO 10005KT 10SM CLR A2989 RMK MADISHF
ELD,2017-04-01 03:30,-92.8133,33.2210,M,M,M,110.00,5.00,M,29.89,M,10.00,M,CLR,M,M,M,M,M,M,M,M,KELD 010330Z AUTO 11005KT 10SM CLR A2989 RMK MADISHF
ELD,2017-04-01 03:35,-92.8133,33.2210,M,M,M,110.00,4.00,M,29.89,M,10.00,M,CLR,M,M,M,M,M,M,M,M,KELD 010335Z AUTO 11004KT 10SM CLR A2989 RMK MADISHF
ELD,2017-04-01 03:40,-92.8133,33.2210,M,M,M,110.00,5.00,M,29.90,M,10.00,M,CLR,M,M,M,M,M,M,M,M,KELD 010340Z AUTO 11005KT 10SM CLR A2990 RMK MADISHF
ELD,2017-04-01 03:45,-92.8133,33.2210,M,M,M,110.00,4.00,M,29.90,M,10.00,M,CLR,M,M,M,M,M,M,M,M,KELD 010345Z AUTO 11004KT 10SM CLR A2990 RMK MADISHF
ELD,2017-04-01 03:50,-92.8133,33.2210,M,M,M,110.00,4.00,M,29.90,M,10.00,M,CLR,M,M,M,M,M,M,M,M,KELD 010350Z AUTO 11004KT 10SM CLR A2990 RMK MADISHF
ELD,2017-04-01 03:53,-92.8133,33.2210,64.90,55.00,70.28,110.00,4.00,0.00,29.90,1012.20,10.00,M,CLR,M,M,M,M,M,M,M,M,KELD 010353Z AUTO 11004KT 10SM CLR 18/13 A2990 RMK AO2 SLP122 T01830128
ELD,2017-04-01 03:55,-92.8133,33.2210,M,M,M,100.00,3.00,M,29.90,M,10.00,M,CLR,M,M,M,M,M,M,M,M,KELD 010355Z AUTO 10003KT 10SM CLR A2990 RMK MADISHF
ELD,2017-04-01 04:00,-92.8133,33.2210,M,M,M,100.00,3.00,M,29.90,M,10.00,M,CLR,M,M,M,M,M,M,M,M,KELD 010400Z AUTO 10003KT 10SM CLR A2990 RMK MADISHF
ELD,2017-04-01 04:05,-92.8133,33.2210,M,M,M,100.00,3.00,M,29.90,M,10.00,M,CLR,M,M,M,M,M,M,M,M,KELD 010405Z AUTO 10003KT 10SM CLR A2990 RMK MADISHF
ELD,2017-04-01 04:10,-92.8133,33.2210,M,M,M,90.00,3.00,M,29.90,M,10.00,M,CLR,M,M,M,M,M,M,M,M,KELD 010410Z AUTO 09003KT 10SM CLR A2990 RMK MADISHF
ELD,2017-04-01 04:15,-92.8133,33.2210,M,M,M,90.00,3.00,M,29.90,M,10.00,M,CLR,M,M,M,M,M,M,M,M,KELD 010415Z AUTO 09003KT 10SM CLR A2990 RMK MADISHF
ELD,2017-04-01 04:20,-92.8133,33.2210,M,M,M,0.00,0.00,M,29.90,M,10.00,M,CLR,M,M,M,M,M,M,M,M,KELD 010420Z AUTO 00000KT 10SM CLR A2990 RMK MADISHF
ELD,2017-04-01 04:25,-92.8133,33.2210,M,M,M,90.00,3.00,M,29.90,M,10.00,M,CLR,M,M,M,M,M,M,M,M,KELD 010425Z AUTO 09003KT 10SM CLR A2990 RMK MADISHF
ELD,2017-04-01 04:30,-92.8133,33.2210,M,M,M,90.00,3.00,M,29.91,M,10.00,M,CLR,M,M,M,M,M,M,M,M,KELD 010430Z AUTO 09003KT 10SM CLR A2991 RMK MADISHF
ELD,2017-04-01 04:35,-92.8133,33.2210,M,M,M,100.00,3.00,M,29.91,M,10.00,M,CLR,M,M,M,M,M,M,M,M,KELD 010435Z AUTO 10003KT 10SM CLR A2991 RMK MADISHF
ELD,2017-04-01 04:40,-92.8133,33.2210,M,M,M,100.00,3.00,M,29.91,M,10.00,M,CLR,M,M,M,M,M,M,M,M,KELD 010440Z AUTO 10003KT 10SM CLR A2991 RMK MADISHF
ELD,2017-04-01 04:45,-92.8133,33.2210,M,M,M,90.00,3.00,M,29.91,M,10.00,M,CLR,M,M,M,M,M,M,M,M,KELD 010445Z AUTO 09003KT 10SM CLR A2991 RMK MADISHF
ELD,2017-04-01 04:50,-92.8133,33.2210,M,M,M,0.00,0.00,M,29.91,M,10.00,M,CLR,M,M,M,M,M,M,M,M,KELD 010450Z AUTO 00000KT 10SM CLR A2991 RMK MADISHF
ELD,2017-04-01 04:53,-92.8133,33.2210,61.00,55.00,80.61,0.00,0.00,0.00,29.91,1012.50,10.00,M,CLR,M,M,M,M,M,M,M,M,KELD 010453Z AUTO 00000KT 10SM CLR 16/13 A2991 RMK AO2 SLP125 T01610128
ELD,2017-04-01 04:55,-92.8133,33.2210,M,M,M,0.00,0.00,M,29.91,M,10.00,M,CLR,M,M,M,M,M,M,M,M,KELD 010455Z AUTO 00000KT 10SM CLR A2991 RMK MADISHF
ELD,2017-04-01 05:00,-92.8133,33.2210,M,M,M,0.00,0.00,M,29.91,M,10.00,M,CLR,M,M,M,M,M,M,M,M,KELD 010500Z AUTO 00000KT 10SM CLR A2991 RMK MADISHF
ELD,2017-04-01 05:05,-92.8133,33.2210,M,M,M,0.00,0.00,M,29.91,M,10.00,M,CLR,M,M,M,M,M,M,M,M,KELD 010505Z AUTO 00000KT 10SM CLR A2991 RMK MADISHF
ELD,2017-04-01 05:10,-92.8133,33.2210,M,M,M,0.00,0.00,M,29.91,M,10.00,M,CLR,M,M,M,M,M,M,M,M,KELD 010510Z AUTO 00000KT 10SM CLR A2991 RMK MADISHF
ELD,2017-04-01 05:15,-92.8133,33.2210,M,M,M,0.00,0.00,M,29.91,M,10.00,M,CLR,M,M,M,M,M,M,M,M,KELD 010515Z AUTO 00000KT 10SM CLR A2991 RMK MADISHF
ELD,2017-04-01 05:20,-92.8133,33.2210,M,M,M,0.00,0.00,M,29.91,M,10.00,M,CLR,M,M,M,M,M,M,M,M,KELD 010520Z AUTO 00000KT 10SM CLR A2991 RMK MADISHF
ELD,2017-04-01 05:25,-92.8133,33.2210,M,M,M,0.00,0.00,M,29.91,M,10.00,M,CLR,M,M,M,M,M,M,M,M,KELD 010525Z AUTO 00000KT 10SM CLR A2991 RMK MADISHF
ELD,2017-04-01 05:30,-92.8133,33.2210,M,M,M,0.00,0.00,M,29.92,M,10.00,M,CLR,M,M,M,M,M,M,M,M,KELD 010530Z AUTO 00000KT 10SM CLR A2992 RMK MADISHF
ELD,2017-04-01 05:35,-92.8133,33.2210,M,M,M,0.00,0.00,M,29.92,M,10.00,M,CLR,M,M,M,M,M,M,M,M,KELD 010535Z AUTO 00000KT 10SM CLR A2992 RMK MADISHF
ELD,2017-04-01 05:40,-92.8133,33.2210,M,M,M,0.00,0.00,M,29.92,M,10.00,M,CLR,M,M,M,M,M,M,M,M,KELD 010540Z AUTO 00000KT 10SM CLR A2992 RMK MADISHF
ELD,2017-04-01 05:45,-92.8133,33.2210,M,M,M,0.00,0.00,M,29.92,M,10.00,M,CLR,M,M,M,M,M,M,M,M,KELD 010545Z AUTO 00000KT 10SM CLR A2992 RMK MADISHF
ELD,2017-04-01 05:50,-92.8133,33.2210,M,M,M,0.00,0.00,M,29.92,M,10.00,M,CLR,M,M,M,M,M,M,M,M,KELD 010550Z AUTO 00000KT 10SM CLR A2992 RMK MADISHF
ELD,2017-04-01 05:53,-92.8133,33.2210,60.10,55.00,83.23,0.00,0.00,0.00,29.93,1013.00,10.00,M,CLR,M,M,M,M,M,M,M,M,KELD 010553Z AUTO 00000KT 10SM CLR 16/13 A2993 RMK AO2 SLP130 T01560128 10261 20150 402780072 53013
ELD,2017-04-01 05:55,-92.8133,33.2210,M,M,M,0.00,0.00,M,29.93,M,10.00,M,CLR,M,M,M,M,M,M,M,M,KELD 010555Z AUTO 00000KT 10SM CLR A2993 RMK MADISHF
ELD,2017-04-01 06:00,-92.8133,33.2210,M,M,M,110.00,3.00,M,29.93,M,10.00,M,CLR,M,M,M,M,M,M,M,M,KELD 010600Z AUTO 11003KT 10SM CLR A2993 RMK MADISHF
ELD,2017-04-01 06:05,-92.8133,33.2210,M,M,M,0.00,0.00,M,29.93,M,10.00,M,CLR,M,M,M,M,M,M,M,M,KELD 010605Z AUTO 00000KT 10SM CLR A2993 RMK MADISHF
ELD,2017-04-01 06:10,-92.8133,33.2210,M,M,M,0.00,0.00,M,29.93,M,10.00,M,CLR,M,M,M,M,M,M,M,M,KELD 010610Z AUTO 00000KT 10SM CLR A2993 RMK MADISHF
ELD,2017-04-01 06:15,-92.8133,33.2210,M,M,M,0.00,0.00,M,29.93,M,10.00,M,CLR,M,M,M,M,M,M,M,M,KELD 010615Z AUTO 00000KT 10SM CLR A2993 RMK MADISHF
ELD,2017-04-01 06:20,-92.8133,33.2210,M,M,M,0.00,0.00,M,29.93,M,10.00,M,CLR,M,M,M,M,M,M,M,M,KELD 010620Z AUTO 00000KT 10SM CLR A2993 RMK MADISHF
ELD,2017-04-01 06:25,-92.8133,33.2210,M,M,M,0.00,0.00,M,29.93,M,10.00,M,CLR,M,M,M,M,M,M,M,M,KELD 010625Z AUTO 00000KT 10SM CLR A2993 RMK MADISHF
ELD,2017-04-01 06:30,-92.8133,33.2210,M,M,M,0.00,0.00,M,29.93,M,10.00,M,CLR,M,M,M,M,M,M,M,M,KELD 010630Z AUTO 00000KT 10SM CLR A2993 RMK MADISHF
ELD,2017-04-01 06:35,-92.8133,33.2210,M,M,M,0.00,0.00,M,29.93,M,10.00,M,CLR,M,M,M,M,M,M,M,M,KELD 010635Z AUTO 00000KT 10SM CLR A2993 RMK MADISHF
ELD,2017-04-01 06:40,-92.8133,33.2210,M,M,M,0.00,0.00,M,29.93,M,10.00,M,CLR,M,M,M,M,M,M,M,M,KELD 010640Z AUTO 00000KT 10SM CLR A2993 RMK MADISHF
ELD,2017-04-01 06:45,-92.8133,33.2210,M,M,M,0.00,0.00,M,29.94,M,10.00,M,CLR,M,M,M,M,M,M,M,M,KELD 010645Z AUTO 00000KT 10SM CLR A2994 RMK MADISHF
ELD,2017-04-01 06:50,-92.8133,33.2210,M,M,M,0.00,0.00,M,29.94,M,10.00,M,CLR,M,M,M,M,M,M,M,M,KELD 010650Z AUTO 00000KT 10SM CLR A2994 RMK MADISHF
ELD,2017-04-01 06:53,-92.8133,33.2210,59.00,54.00,83.46,0.00,0.00,0.00,29.94,1013.50,10.00,M,CLR,M,M,M,M,M,M,M,M,KELD 010653Z AUTO 00000KT 10SM CLR 15/12 A2994 RMK AO2 SLP135 T01500122
ELD,2017-04-01 06:55,-92.8133,33.2210,M,M,M,0.00,0.00,M,29.94,M,10.00,M,CLR,M,M,M,M,M,M,M,M,KELD 010655Z AUTO 00000KT 10SM CLR A2994 RMK MADISHF
ELD,2017-04-01 07:00,-92.8133,33.2210,M,M,M,0.00,0.00,M,29.94,M,10.00,M,CLR,M,M,M,M,M,M,M,M,KELD 010700Z AUTO 00000KT 10SM CLR A2994 RMK MADISHF
ELD,2017-04-01 07:05,-92.8133,33.2210,M,M,M,0.00,0.00,M,29.94,M,10.00,M,CLR,M,M,M,M,M,M,M,M,KELD 010705Z AUTO 00000KT 10SM CLR A2994 RMK MADISHF
ELD,2017-04-01 07:10,-92.8133,33.2210,M,M,M,0.00,0.00,M,29.94,M,10.00,M,CLR,M,M,M,M,M,M,M,M,KELD 010710Z AUTO 00000KT 10SM CLR A2994 RMK MADISHF
ELD,2017-04-01 07:15,-92.8133,33.2210,M,M,M,0.00,0.00,M,29.94,M,10.00,M,CLR,M,M,M,M,M,M,M,M,KELD 010715Z AUTO 00000KT 10SM CLR A2994 RMK MADISHF
ELD,2017-04-01 07:20,-92.8133,33.2210,M,M,M,0.00,0.00,M,29.95,M,10.00,M,CLR,M,M,M,M,M,M,M,M,KELD 010720Z AUTO 00000KT 10SM CLR A2995 RMK MADISHF
ELD,2017-04-01 07:25,-92.8133,33.2210,M,M,M,0.00,0.00,M,29.94,M,10.00,M,CLR,M,M,M,M,M,M,M,M,KELD 010725Z AUTO 00000KT 10SM CLR A2994 RMK MADISHF
ELD,2017-04-01 07:30,-92.8133,33.2210,M,M,M,0.00,0.00,M,29.94,M,10.00,M,CLR,M,M,M,M,M,M,M,M,KELD 010730Z AUTO 00000KT 10SM CLR A2994 RMK MADISHF
ELD,2017-04-01 07:35,-92.8133,33.2210,M,M,M,0.00,0.00,M,29.94,M,10.00,M,CLR,M,M,M,M,M,M,M,M,KELD 010735Z AUTO 00000KT 10SM CLR A2994 RMK MADISHF
ELD,2017-04-01 07:40,-92.8133,33.2210,M,M,M,0.00,0.00,M,29.94,M,10.00,M,CLR,M,M,M,M,M,M,M,M,KELD 010740Z AUTO 00000KT 10SM CLR A2994 RMK MADISHF
ELD,2017-04-01 07:45,-92.8133,33.2210,M,M,M,0.00,0.00,M,29.94,M,10.00,M,CLR,M,M,M,M,M,M,M,M,KELD 010745Z AUTO 00000KT 10SM CLR A2994 RMK MADISHF
ELD,2017-04-01 07:50,-92.8133,33.2210,M,M,M,0.00,0.00,M,29.94,M,10.00,M,CLR,M,M,M,M,M,M,M,M,KELD 010750Z AUTO 00000KT 10SM CLR A2994 RMK MADISHF
ELD,2017-04-01 07:53,-92.8133,33.2210,55.90,54.00,93.32,0.00,0.00,0.00,29.94,1013.60,10.00,M,CLR,M,M,M,M,M,M,M,M,KELD 010753Z AUTO 00000KT 10SM CLR 13/12 A2994 RMK AO2 SLP136 T01330122
ELD,2017-04-01 07:55,-92.8133,33.2210,M,M,M,0.00,0.00,M,29.94,M,10.00,M,CLR,M,M,M,M,M,M,M,M,KELD 010755Z AUTO 00000KT 10SM CLR A2994 RMK MADISHF
ELD,2017-04-01 08:00,-92.8133,33.2210,M,M,M,0.00,0.00,M,29.95,M,10.00,M,CLR,M,M,M,M,M,M,M,M,KELD 010800Z AUTO 00000KT 10SM CLR A2995 RMK MADISHF
ELD,2017-04-01 08:05,-92.8133,33.2210,M,M,M,0.00,0.00,M,29.95,M,10.00,M,CLR,M,M,M,M,M,M,M,M,KELD 010805Z AUTO 00000KT 10SM CLR A2995 RMK MADISHF
ELD,2017-04-01 08:10,-92.8133,33.2210,M,M,M,0.00,0.00,M,29.95,M,10.00,M,CLR,M,M,M,M,M,M,M,M,KELD 010810Z AUTO 00000KT 10SM CLR A2995 RMK MADISHF
ELD,2017-04-01 08:15,-92.8133,33.2210,M,M,M,0.00,0.00,M,29.95,M,10.00,M,CLR,M,M,M,M,M,M,M,M,KELD 010815Z AUTO 00000KT 10SM CLR A2995 RMK MADISHF
ELD,2017-04-01 08:20,-92.8133,33.2210,M,M,M,0.00,0.00,M,29.95,M,10.00,M,CLR,M,M,M,M,M,M,M,M,KELD 010820Z AUTO 00000KT 10SM CLR A2995 RMK MADISHF
ELD,2017-04-01 08:25,-92.8133,33.2210,M,M,M,0.00,0.00,M,29.95,M,10.00,M,CLR,M,M,M,M,M,M,M,M,KELD 010825Z AUTO 00000KT 10SM CLR A2995 RMK MADISHF
ELD,2017-04-01 08:30,-92.8133,33.2210,M,M,M,0.00,0.00,M,29.95,M,10.00,M,CLR,M,M,M,M,M,M,M,M,KELD 010830Z AUTO 00000KT 10SM CLR A2995 RMK MADISHF
ELD,2017-04-01 08:35,-92.8133,33.2210,M,M,M,0.00,0.00,M,29.95,M,10.00,M,CLR,M,M,M,M,M,M,M,M,KELD 010835Z AUTO 00000KT 10SM CLR A2995 RMK MADISHF
ELD,2017-04-01 08:40,-92.8133,33.2210,M,M,M,0.00,0.00,M,29.95,M,10.00,M,CLR,M,M,M,M,M,M,M,M,KELD 010840Z AUTO 00000KT 10SM CLR A2995 RMK MADISHF
ELD,2017-04-01 08:45,-92.8133,33.2210,M,M,M,0.00,0.00,M,29.95,M,10.00,M,CLR,M,M,M,M,M,M,M,M,KELD 010845Z AUTO 00000KT 10SM CLR A2995 RMK MADISHF
ELD,2017-04-01 08:50,-92.8133,33.2210,M,M,M,60.00,3.00,M,29.95,M,10.00,M,CLR,M,M,M,M,M,M,M,M,KELD 010850Z AUTO 06003KT 10SM CLR A2995 RMK MADISHF
ELD,2017-04-01 08:53,-92.8133,33.2210,55.00,53.10,93.29,0.00,0.00,0.00,29.95,1014.00,10.00,M,CLR,M,M,M,M,M,M,M,M,KELD 010853Z AUTO 00000KT 10SM CLR 13/12 A2995 RMK AO2 SLP140 T01280117 52009
ELD,2017-04-01 08:55,-92.8133,33.2210,M,M,M,0.00,0.00,M,29.95,M,10.00,M,CLR,M,M,M,M,M,M,M,M,KELD 010855Z AUTO 00000KT 10SM CLR A2995 RMK MADISHF
ELD,2017-04-01 09:00,-92.8133,33.2210,M,M,M,0.00,0.00,M,29.96,M,10.00,M,CLR,M,M,M,M,M,M,M,M,KELD 010900Z AUTO 00000KT 10SM CLR A2996 RMK MADISHF
ELD,2017-04-01 09:05,-92.8133,33.2210,M,M,M,0.00,0.00,M,29.96,M,10.00,M,CLR,M,M,M,M,M,M,M,M,KELD 010905Z AUTO 00000KT 10SM CLR A2996 RMK MADISHF
ELD,2017-04-01 09:10,-92.8133,33.2210,M,M,M,0.00,0.00,M,29.96,M,10.00,M,CLR,M,M,M,M,M,M,M,M,KELD 010910Z AUTO 00000KT 10SM CLR A2996 RMK MADISHF
ELD,2017-04-01 09:15,-92.8133,33.2210,M,M,M,0.00,0.00,M,29.96,M,10.00,M,CLR,M,M,M,M,M,M,M,M,KELD 010915Z AUTO 00000KT 10SM CLR A2996 RMK MADISHF
ELD,2017-04-01 09:20,-92.8133,33.2210,M,M,M,0.00,0.00,M,29.96,M,10.00,M,CLR,M,M,M,M,M,M,M,M,KELD 010920Z AUTO 00000KT 10SM CLR A2996 RMK MADISHF
ELD,2017-04-01 09:25,-92.8133,33.2210,M,M,M,0.00,0.00,M,29.96,M,10.00,M,CLR,M,M,M,M,M,M,M,M,KELD 010925Z AUTO 00000KT 10SM CLR A2996 RMK MADISHF
ELD,2017-04-01 09:30,-92.8133,33.2210,M,M,M,0.00,0.00,M,29.96,M,10.00,M,CLR,M,M,M,M,M,M,M,M,KELD 010930Z AUTO 00000KT 10SM CLR A2996 RMK MADISHF
ELD,2017-04-01 09:35,-92.8133,33.2210,M,M,M,0.00,0.00,M,29.96,M,10.00,M,CLR,M,M,M,M,M,M,M,M,KELD 010935Z AUTO 00000KT 10SM CLR A2996 RMK MADISHF
ELD,2017-04-01 09:40,-92.8133,33.2210,M,M,M,0.00,0.00,M,29.97,M,10.00,M,CLR,M,M,M,M,M,M,M,M,KELD 010940Z AUTO 00000KT 10SM CLR A2997 RMK MADISHF
ELD,2017-04-01 09:45,-92.8133,33.2210,M,M,M,0.00,0.00,M,29.97,M,10.00,M,CLR,M,M,M,M,M,M,M,M,KELD 010945Z AUTO 00000KT 10SM CLR A2997 RMK MADISHF
ELD,2017-04-01 09:50,-92.8133,33.2210,M,M,M,0.00,0.00,M,29.97,M,10.00,M,CLR,M,M,M,M,M,M,M,M,KELD 010950Z AUTO 00000KT 10SM CLR A2997 RMK MADISHF
ELD,2017-04-01 09:53,-92.8133,33.2210,55.00,53.10,93.29,0.00,0.00,0.00,29.97,1014.50,10.00,M,CLR,M,M,M,M,M,M,M,M,KELD 010953Z AUTO 00000KT 10SM CLR 13/12 A2997 RMK AO2 SLP145 T01280117
ELD,2017-04-01 09:55,-92.8133,33.2210,M,M,M,0.00,0.00,M,29.97,M,10.00,M,CLR,M,M,M,M,M,M,M,M,KELD 010955Z AUTO 00000KT 10SM CLR A2997 RMK MADISHF
ELD,2017-04-01 10:00,-92.8133,33.2210,M,M,M,50.00,3.00,M,29.97,M,10.00,M,CLR,M,M,M,M,M,M,M,M,KELD 011000Z AUTO 05003KT 10SM CLR A2997 RMK MADISHF
ELD,2017-04-01 10:05,-92.8133,33.2210,M,M,M,60.00,3.00,M,29.97,M,10.00,M,CLR,M,M,M,M,M,M,M,M,KELD 011005Z AUTO 06003KT 10SM CLR A2997 RMK MADISHF
ELD,2017-04-01 10:10,-92.8133,33.2210,M,M,M,40.00,3.00,M,29.97,M,10.00,M,CLR,M,M,M,M,M,M,M,M,KELD 011010Z AUTO 04003KT 10SM CLR A2997 RMK MADISHF
ELD,2017-04-01 10:15,-92.8133,33.2210,M,M,M,10.00,3.00,M,29.97,M,10.00,M,CLR,M,M,M,M,M,M,M,M,KELD 011015Z AUTO 01003KT 10SM CLR A2997 RMK MADISHF
ELD,2017-04-01 10:20,-92.8133,33.2210,M,M,M,30.00,3.00,M,29.97,M,10.00,M,CLR,M,M,M,M,M,M,M,M,KELD 011020Z AUTO 03003KT 10SM CLR A2997 RMK MADISHF
ELD,2017-04-01 10:25,-92.8133,33.2210,M,M,M,40.00,4.00,M,29.97,M,10.00,M,CLR,M,M,M,M,M,M,M,M,KELD 011025Z AUTO 04004KT 10SM CLR A2997 RMK MADISHF
ELD,2017-04-01 10:30,-92.8133,33.2210,M,M,M,50.00,5.00,M,29.97,M,10.00,M,CLR,M,M,M,M,M,M,M,M,KELD 011030Z AUTO 05005KT 10SM CLR A2997 RMK MADISHF
ELD,2017-04-01 10:35,-92.8133,33.2210,M,M,M,40.00,5.00,M,29.97,M,10.00,M,CLR,M,M,M,M,M,M,M,M,KELD 011035Z AUTO 04005KT 10SM CLR A2997 RMK MADISHF
ELD,2017-04-01 10:40,-92.8133,33.2210,M,M,M,50.00,5.00,M,29.98,M,10.00,M,CLR,M,M,M,M,M,M,M,M,KELD 011040Z AUTO 05005KT 10SM CLR A2998 RMK MADISHF
ELD,2017-04-01 10:45,-92.8133,33.2210,M,M,M,50.00,5.00,M,29.98,M,10.00,M,CLR,M,M,M,M,M,M,M,M,KELD 011045Z AUTO 05005KT 10SM CLR A2998 RMK MADISHF
ELD,2017-04-01 10:50,-92.8133,33.2210,M,M,M,70.00,5.00,M,29.98,M,10.00,M,CLR,M,M,M,M,M,M,M,M,KELD 011050Z AUTO 07005KT 10SM CLR A2998 RMK MADISHF
ELD,2017-04-01 10:53,-92.8133,33.2210,54.00,53.10,96.76,60.00,5.00,0.00,29.98,1015.00,10.00,M,CLR,M,M,M,M,M,M,M,M,KELD 011053Z AUTO 06005KT 10SM CLR 12/12 A2998 RMK AO2 SLP150 T01220117
ELD,2017-04-01 10:55,-92.8133,33.2210,M,M,M,50.00,6.00,M,29.99,M,10.00,M,CLR,M,M,M,M,M,M,M,M,KELD 011055Z AUTO 05006KT 10SM CLR A2999 RMK MADISHF
ELD,2017-04-01 11:00,-92.8133,33.2210,M,M,M,50.00,5.00,M,29.98,M,10.00,M,CLR,M,M,M,M,M,M,M,M,KELD 011100Z AUTO 05005KT 10SM CLR A2998 RMK MADISHF
ELD,2017-04-01 11:05,-92.8133,33.2210,M,M,M,40.00,6.00,M,29.98,M,10.00,M,CLR,M,M,M,M,M,M,M,M,KELD 011105Z AUTO 04006KT 10SM CLR A2998 RMK MADISHF
ELD,2017-04-01 11:10,-92.8133,33.2210,M,M,M,40.00,6.00,M,29.98,M,10.00,M,CLR,M,M,M,M,M,M,M,M,KELD 011110Z AUTO 04006KT 10SM CLR A2998 RMK MADISHF
ELD,2017-04-01 11:15,-92.8133,33.2210,M,M,M,40.00,6.00,M,29.98,M,10.00,M,CLR,M,M,M,M,M,M,M,M,KELD 011115Z AUTO 04006KT 10SM CLR A2998 RMK MADISHF
ELD,2017-04-01 11:20,-92.8133,33.2210,M,M,M,50.00,5.00,M,29.99,M,10.00,M,CLR,M,M,M,M,M,M,M,M,KELD 011120Z AUTO 05005KT 10SM CLR A2999 RMK MADISHF
ELD,2017-04-01 11:25,-92.8133,33.2210,M,M,M,60.00,5.00,M,29.99,M,10.00,M,CLR,M,M,M,M,M,M,M,M,KELD 011125Z AUTO 06005KT 10SM CLR A2999 RMK MADISHF
ELD,2017-04-01 11:30,-92.8133,33.2210,M,M,M,60.00,4.00,M,29.99,M,10.00,M,CLR,M,M,M,M,M,M,M,M,KELD 011130Z AUTO 06004KT 10SM CLR A2999 RMK MADISHF
ELD,2017-04-01 11:35,-92.8133,33.2210,M,M,M,50.00,4.00,M,29.99,M,10.00,M,CLR,M,M,M,M,M,M,M,M,KELD 011135Z AUTO 05004KT 10SM CLR A2999 RMK MADISHF
ELD,2017-04-01 11:40,-92.8133,33.2210,M,M,M,60.00,5.00,M,29.99,M,10.00,M,CLR,M,M,M,M,M,M,M,M,KELD 011140Z AUTO 06005KT 10SM CLR A2999 RMK MADISHF
ELD,2017-04-01 11:45,-92.8133,33.2210,M,M,M,50.00,4.00,M,29.99,M,10.00,M,CLR,M,M,M,M,M,M,M,M,KELD 011145Z AUTO 05004KT 10SM CLR A2999 RMK MADISHF
ELD,2017-04-01 11:50,-92.8133,33.2210,M,M,M,40.00,4.00,M,30.00,M,10.00,M,CLR,M,M,M,M,M,M,M,M,KELD 011150Z AUTO 04004KT 10SM CLR A3000 RMK MADISHF
ELD,2017-04-01 11:53,-92.8133,33.2210,54.00,53.10,96.76,50.00,3.00,0.00,30.00,1015.60,10.00,M,CLR,M,M,M,M,M,M,M,M,KELD 011153Z AUTO 05003KT 10SM CLR 12/12 A3000 RMK AO2 SLP156 T01220117 10156 20122 52015
ELD,2017-04-01 11:55,-92.8133,33.2210,M,M,M,50.00,3.00,M,30.00,M,10.00,M,CLR,M,M,M,M,M,M,M,M,KELD 011155Z AUTO 05003KT 10SM CLR A3000 RMK MADISHF
ELD,2017-04-01 12:00,-92.8133,33.2210,M,M,M,40.00,4.00,M,30.00,M,10.00,M,CLR,M,M,M,M,M,M,M,M,KELD 011200Z AUTO 04004KT 10SM CLR A3000 RMK MADISHF
ELD,2017-04-01 12:05,-92.8133,33.2210,M,M,M,40.00,4.00,M,30.00,M,10.00,M,CLR,M,M,M,M,M,M,M,M,KELD 011205Z AUTO 04004KT 10SM CLR A3000 RMK MADISHF
ELD,2017-04-01 12:10,-92.8133,33.2210,M,M,M,50.00,4.00,M,30.01,M,10.00,M,CLR,M,M,M,M,M,M,M,M,KELD 011210Z AUTO 05004KT 10SM CLR A3001 RMK MADISHF
ELD,2017-04-01 12:15,-92.8133,33.2210,M,M,M,40.00,5.00,M,30.01,M,10.00,M,CLR,M,M,M,M,M,M,M,M,KELD 011215Z AUTO 04005KT 10SM CLR A3001 RMK MADISHF
ELD,2017-04-01 12:20,-92.8133,33.2210,M,M,M,40.00,6.00,M,30.01,M,10.00,M,CLR,M,M,M,M,M,M,M,M,KELD 011220Z AUTO 04006KT 10SM CLR A3001 RMK MADISHF
ELD,2017-04-01 12:25,-92.8133,33.2210,M,M,M,40.00,5.00,M,30.01,M,10.00,M,CLR,M,M,M,M,M,M,M,M,KELD 011225Z AUTO 04005KT 10SM CLR A3001 RMK MADISHF
ELD,2017-04-01 12:30,-92.8133,33.2210,M,M,M,50.00,5.00,M,30.01,M,10.00,M,CLR,M,M,M,M,M,M,M,M,KELD 011230Z AUTO 05005KT 10SM CLR A3001 RMK MADISHF
ELD,2017-04-01 12:35,-92.8133,33.2210,M,M,M,50.00,5.00,M,30.02,M,10.00,M,CLR,M,M,M,M,M,M,M,M,KELD 011235Z AUTO 05005KT 10SM CLR A3002 RMK MADISHF
ELD,2017-04-01 12:40,-92.8133,33.2210,M,M,M,50.00,4.00,M,30.02,M,10.00,M,CLR,M,M,M,M,M,M,M,M,KELD 011240Z AUTO 05004KT 10SM CLR A3002 RMK MADISHF
ELD,2017-04-01 12:45,-92.8133,33.2210,M,M,M,60.00,5.00,M,30.02,M,10.00,M,CLR,M,M,M,M,M,M,M,M,KELD 011245Z AUTO 06005KT 10SM CLR A3002 RMK MADISHF
ELD,2017-04-01 12:50,-92.8133,33.2210,M,M,M,60.00,4.00,M,30.03,M,10.00,M,CLR,M,M,M,M,M,M,M,M,KELD 011250Z AUTO 06004KT 10SM CLR A3003 RMK MADISHF
ELD,2017-04-01 12:53,-92.8133,33.2210,57.00,55.00,93.01,60.00,5.00,0.00,30.03,1016.60,10.00,M,CLR,M,M,M,M,M,M,M,M,KELD 011253Z AUTO 06005KT 10SM CLR 14/13 A3003 RMK AO2 SLP166 T01390128
ELD,2017-04-01 12:55,-92.8133,33.2210,M,M,M,50.00,6.00,M,30.03,M,10.00,M,CLR,M,M,M,M,M,M,M,M,KELD 011255Z AUTO 05006KT 10SM CLR A3003 RMK MADISHF
ELD,2017-04-01 13:00,-92.8133,33.2210,M,M,M,50.00,6.00,M,30.03,M,10.00,M,CLR,M,M,M,M,M,M,M,M,KELD 011300Z AUTO 05006KT 10SM CLR A3003 RMK MADISHF
ELD,2017-04-01 13:05,-92.8133,33.2210,M,M,M,50.00,6.00,M,30.03,M,10.00,M,CLR,M,M,M,M,M,M,M,M,KELD 011305Z AUTO 05006KT 10SM CLR A3003 RMK MADISHF
ELD,2017-04-01 13:10,-92.8133,33.2210,M,M,M,50.00,7.00,M,30.04,M,10.00,M,CLR,M,M,M,M,M,M,M,M,KELD 011310Z AUTO 05007KT 10SM CLR A3004 RMK MADISHF
ELD,2017-04-01 13:15,-92.8133,33.2210,M,M,M,50.00,6.00,M,30.04,M,10.00,M,CLR,M,M,M,M,M,M,M,M,KELD 011315Z AUTO 05006KT 10SM CLR A3004 RMK MADISHF
ELD,2017-04-01 13:20,-92.8133,33.2210,M,M,M,40.00,7.00,M,30.04,M,10.00,M,CLR,M,M,M,M,M,M,M,M,KELD 011320Z AUTO 04007KT 10SM CLR A3004 RMK MADISHF
ELD,2017-04-01 13:25,-92.8133,33.2210,M,M,M,40.00,7.00,M,30.04,M,10.00,M,CLR,M,M,M,M,M,M,M,M,KELD 011325Z AUTO 04007KT 10SM CLR A3004 RMK MADISHF
ELD,2017-04-01 13:30,-92.8133,33.2210,M,M,M,50.00,8.00,M,30.05,M,10.00,M,CLR,M,M,M,M,M,M,M,M,KELD 011330Z AUTO 05008KT 10SM CLR A3005 RMK MADISHF
ELD,2017-04-01 13:35,-92.8133,33.2210,M,M,M,50.00,7.00,M,30.05,M,10.00,M,CLR,M,M,M,M,M,M,M,M,KELD 011335Z AUTO 05007KT 10SM CLR A3005 RMK MADISHF
ELD,2017-04-01 13:40,-92.8133,33.2210,M,M,M,50.00,7.00,M,30.05,M,10.00,M,CLR,M,M,M,M,M,M,M,M,KELD 011340Z AUTO 05007KT 10SM CLR A3005 RMK MADISHF
ELD,2017-04-01 13:45,-92.8133,33.2210,M,M,M,50.00,6.00,M,30.05,M,10.00,M,CLR,M,M,M,M,M,M,M,M,KELD 011345Z AUTO 05006KT 10SM CLR A3005 RMK MADISHF
ELD,2017-04-01 13:50,-92.8133,33.2210,M,M,M,50.00,9.00,M,30.06,M,10.00,M,CLR,M,M,M,M,M,M,M,M,KELD 011350Z AUTO 05009KT 10SM CLR A3006 RMK MADISHF
ELD,2017-04-01 13:53,-92.8133,33.2210,61.00,55.00,80.61,50.00,8.00,0.00,30.06,1017.60,10.00,M,CLR,M,M,M,M,M,M,M,M,KELD 011353Z AUTO 05008KT 10SM CLR 16/13 A3006 RMK AO2 SLP176 T01610128
ELD,2017-04-01 13:55,-92.8133,33.2210,M,M,M,50.00,9.00,M,30.06,M,10.00,M,CLR,M,M,M,M,M,M,M,M,KELD 011355Z AUTO 05009KT 10SM CLR A3006 RMK MADISHF
ELD,2017-04-01 14:00,-92.8133,33.2210,M,M,M,50.00,8.00,M,30.06,M,10.00,M,CLR,M,M,M,M,M,M,M,M,KELD 011400Z AUTO 05008KT 10SM CLR A3006 RMK MADISHF
ELD,2017-04-01 14:05,-92.8133,33.2210,M,M,M,50.00,7.00,M,30.06,M,10.00,M,CLR,M,M,M,M,M,M,M,M,KELD 011405Z AUTO 05007KT 10SM CLR A3006 RMK MADISHF
ELD,2017-04-01 14:10,-92.8133,33.2210,M,M,M,50.00,4.00,M,30.06,M,10.00,M,CLR,M,M,M,M,M,M,M,M,KELD 011410Z AUTO 05004KT 10SM CLR A3006 RMK MADISHF
ELD,2017-04-01 14:15,-92.8133,33.2210,M,M,M,40.00,5.00,M,30.06,M,10.00,M,CLR,M,M,M,M,M,M,M,M,KELD 011415Z AUTO 04005KT 10SM CLR A3006 RMK MADISHF
ELD,2017-04-01 14:20,-92.8133,33.2210,M,M,M,60.00,5.00,M,30.06,M,10.00,M,CLR,M,M,M,M,M,M,M,M,KELD 011420Z AUTO 06005KT 10SM CLR A3006 RMK MADISHF
ELD,2017-04-01 14:25,-92.8133,33.2210,M,M,M,60.00,6.00,M,30.06,M,10.00,M,CLR,M,M,M,M,M,M,M,M,KELD 011425Z AUTO 06006KT 10SM CLR A3006 RMK MADISHF
ELD,2017-04-01 14:30,-92.8133,33.2210,M,M,M,50.00,7.00,M,30.06,M,10.00,M,CLR,M,M,M,M,M,M,M,M,KELD 011430Z AUTO 05007KT 10SM CLR A3006 RMK MADISHF
ELD,2017-04-01 14:35,-92.8133,33.2210,M,M,M,40.00,7.00,M,30.06,M,10.00,M,CLR,M,M,M,M,M,M,M,M,KELD 011435Z AUTO 04007KT 10SM CLR A3006 RMK MADISHF
ELD,2017-04-01 14:40,-92.8133,33.2210,M,M,M,50.00,8.00,M,30.06,M,10.00,M,CLR,M,M,M,M,M,M,M,M,KELD 011440Z AUTO 05008KT 10SM CLR A3006 RMK MADISHF
ELD,2017-04-01 14:45,-92.8133,33.2210,M,M,M,50.00,8.00,M,30.06,M,10.00,M,CLR,M,M,M,M,M,M,M,M,KELD 011445Z AUTO 05008KT 10SM CLR A3006 RMK MADISHF
ELD,2017-04-01 14:50,-92.8133,33.2210,M,M,M,60.00,7.00,M,30.06,M,10.00,M,CLR,M,M,M,M,M,M,M,M,KELD 011450Z AUTO 06007KT 10SM CLR A3006 RMK MADISHF
ELD,2017-04-01 14:53,-92.8133,33.2210,64.90,55.00,70.28,40.00,8.00,0.00,30.06,1017.80,10.00,M,CLR,M,M,M,M,M,M,M,M,KELD 011453Z AUTO 04008KT 10SM CLR 18/13 A3006 RMK AO2 SLP178 T01830128 51021
ELD,2017-04-01 14:55,-92.8133,33.2210,M,M,M,40.00,9.00,M,30.06,M,10.00,M,CLR,M,M,M,M,M,M,M,M,KELD 011455Z AUTO 04009KT 10SM CLR A3006 RMK MADISHF
ELD,2017-04-01 15:00,-92.8133,33.2210,M,M,M,60.00,8.00,M,30.06,M,10.00,M,CLR,M,M,M,M,M,M,M,M,KELD 011500Z AUTO 06008KT 10SM CLR A3006 RMK MADISHF
ELD,2017-04-01 15:05,-92.8133,33.2210,M,M,M,50.00,9.00,M,30.06,M,10.00,M,CLR,M,M,M,M,M,M,M,M,KELD 011505Z AUTO 05009KT 10SM CLR A3006 RMK MADISHF
ELD,2017-04-01 15:10,-92.8133,33.2210,M,M,M,80.00,7.00,M,30.06,M,10.00,M,CLR,M,M,M,M,M,M,M,M,KELD 011510Z AUTO 08007KT 10SM CLR A3006 RMK MADISHF
ELD,2017-04-01 15:15,-92.8133,33.2210,M,M,M,70.00,8.00,M,30.07,M,10.00,M,CLR,M,M,M,M,M,M,M,M,KELD 011515Z AUTO 07008KT 10SM CLR A3007 RMK MADISHF
ELD,2017-04-01 15:20,-92.8133,33.2210,M,M,M,80.00,8.00,M,30.06,M,10.00,M,CLR,M,M,M,M,M,M,M,M,KELD 011520Z AUTO 08008KT 10SM CLR A3006 RMK MADISHF
ELD,2017-04-01 15:25,-92.8133,33.2210,M,M,M,80.00,9.00,M,30.06,M,10.00,M,CLR,M,M,M,M,M,M,M,M,KELD 011525Z AUTO 08009KT 10SM CLR A3006 RMK MADISHF
ELD,2017-04-01 15:30,-92.8133,33.2210,M,M,M,80.00,10.00,M,30.06,M,10.00,M,CLR,M,M,M,M,M,M,M,M,KELD 011530Z AUTO 08010KT 10SM CLR A3006 RMK MADISHF
ELD,2017-04-01 15:35,-92.8133,33.2210,M,M,M,60.00,9.00,M,30.06,M,10.00,M,CLR,M,M,M,M,M,M,M,M,KELD 011535Z AUTO 06009KT 10SM CLR A3006 RMK MADISHF
ELD,2017-04-01 15:40,-92.8133,33.2210,M,M,M,70.00,9.00,M,30.06,M,10.00,M,CLR,M,M,M,M,M,M,M,M,KELD 011540Z AUTO 07009KT 10SM CLR A3006 RMK MADISHF
ELD,2017-04-01 15:45,-92.8133,33.2210,M,M,M,70.00,7.00,M,30.06,M,10.00,M,CLR,M,M,M,M,M,M,M,M,KELD 011545Z AUTO 07007KT 10SM CLR A3006 RMK MADISHF
ELD,2017-04-01 15:50,-92.8133,33.2210,M,M,M,70.00,10.00,M,30.06,M,10.00,M,CLR,M,M,M,M,M,M,M,M,KELD 011550Z AUTO 07010KT 10SM CLR A3006 RMK MADISHF
ELD,2017-04-01 15:53,-92.8133,33.2210,70.00,55.90,60.89,70.00,8.00,0.00,30.06,1017.50,10.00,M,CLR,M,M,M,M,M,M,M,M,KELD 011553Z AUTO 07008KT 10SM CLR 21/13 A3006 RMK AO2 SLP175 T02110133
ELD,2017-04-01 15:55,-92.8133,33.2210,M,M,M,70.00,6.00,M,30.06,M,10.00,M,CLR,M,M,M,M,M,M,M,M,KELD 011555Z AUTO 07006KT 10SM CLR A3006 RMK MADISHF
ELD,2017-04-01 16:00,-92.8133,33.2210,M,M,M,60.00,8.00,M,30.06,M,10.00,M,CLR,M,M,M,M,M,M,M,M,KELD 011600Z AUTO 06008KT 10SM CLR A3006 RMK MADISHF
ELD,2017-04-01 16:05,-92.8133,33.2210,M,M,M,80.00,7.00,M,30.06,M,10.00,M,CLR,M,M,M,M,M,M,M,M,KELD 011605Z AUTO 08007KT 10SM CLR A3006 RMK MADISHF
ELD,2017-04-01 16:10,-92.8133,33.2210,M,M,M,60.00,8.00,M,30.06,M,10.00,M,CLR,M,M,M,M,M,M,M,M,KELD 011610Z AUTO 06008KT 10SM CLR A3006 RMK MADISHF
ELD,2017-04-01 16:15,-92.8133,33.2210,M,M,M,60.00,8.00,M,30.06,M,10.00,M,CLR,M,M,M,M,M,M,M,M,KELD 011615Z AUTO 06008KT 10SM CLR A3006 RMK MADISHF
ELD,2017-04-01 16:20,-92.8133,33.2210,M,M,M,60.00,8.00,M,30.06,M,10.00,M,CLR,M,M,M,M,M,M,M,M,KELD 011620Z AUTO 06008KT 10SM CLR A3006 RMK MADISHF
ELD,2017-04-01 16:25,-92.8133,33.2210,M,M,M,70.00,9.00,M,30.06,M,10.00,M,CLR,M,M,M,M,M,M,M,M,KELD 011625Z AUTO 07009KT 10SM CLR A3006 RMK WND 02V11  MADISHF
ELD,2017-04-01 16:30,-92.8133,33.2210,M,M,M,50.00,7.00,M,30.06,M,10.00,M,CLR,M,M,M,M,M,M,M,M,KELD 011630Z AUTO 05007KT 10SM CLR A3006 RMK MADISHF
ELD,2017-04-01 16:35,-92.8133,33.2210,M,M,M,60.00,8.00,M,30.06,M,10.00,M,CLR,M,M,M,M,M,M,M,M,KELD 011635Z AUTO 06008KT 10SM CLR A3006 RMK MADISHF
ELD,2017-04-01 16:40,-92.8133,33.2210,M,M,M,50.00,11.00,M,30.05,M,10.00,M,CLR,M,M,M,M,M,M,M,M,KELD 011640Z AUTO 05011KT 10SM CLR A3005 RMK MADISHF
ELD,2017-04-01 16:45,-92.8133,33.2210,M,M,M,60.00,6.00,M,30.05,M,10.00,M,CLR,M,M,M,M,M,M,M,M,KELD 011645Z AUTO 06006KT 10SM CLR A3005 RMK MADISHF
ELD,2017-04-01 16:50,-92.8133,33.2210,M,M,M,70.00,9.00,M,30.05,M,10.00,M,CLR,M,M,M,M,M,M,M,M,KELD 011650Z AUTO 07009KT 10SM CLR A3005 RMK MADISHF
ELD,2017-04-01 16:53,-92.8133,33.2210,73.90,55.90,53.36,50.00,10.00,0.00,30.05,1017.30,10.00,M,CLR,M,M,M,M,M,M,M,M,KELD 011653Z AUTO 05010KT 10SM CLR 23/13 A3005 RMK AO2 SLP173 T02330133
ELD,2017-04-01 16:55,-92.8133,33.2210,M,M,M,50.00,11.00,M,30.05,M,10.00,M,CLR,M,M,M,M,M,M,M,M,KELD 011655Z AUTO 05011KT 10SM CLR A3005 RMK MADISHF
ELD,2017-04-01 17:00,-92.8133,33.2210,M,M,M,50.00,8.00,M,30.05,M,10.00,M,CLR,M,M,M,M,M,M,M,M,KELD 011700Z AUTO 05008KT 10SM CLR A3005 RMK MADISHF
ELD,2017-04-01 17:05,-92.8133,33.2210,M,M,M,70.00,9.00,M,30.05,M,10.00,M,CLR,M,M,M,M,M,M,M,M,KELD 011705Z AUTO 07009KT 10SM CLR A3005 RMK MADISHF
ELD,2017-04-01 17:10,-92.8133,33.2210,M,M,M,60.00,10.00,M,30.05,M,10.00,M,CLR,M,M,M,M,M,M,M,M,KELD 011710Z AUTO 06010KT 10SM CLR A3005 RMK MADISHF
ELD,2017-04-01 17:15,-92.8133,33.2210,M,M,M,50.00,6.00,M,30.05,M,10.00,M,CLR,M,M,M,M,M,M,M,M,KELD 011715Z AUTO 05006KT 10SM CLR A3005 RMK MADISHF
ELD,2017-04-01 17:20,-92.8133,33.2210,M,M,M,80.00,10.00,M,30.05,M,10.00,M,CLR,M,M,M,M,M,M,M,M,KELD 011720Z AUTO 08010KT 10SM CLR A3005 RMK MADISHF
ELD,2017-04-01 17:25,-92.8133,33.2210,M,M,M,90.00,8.00,M,30.05,M,10.00,M,CLR,M,M,M,M,M,M,M,M,KELD 011725Z AUTO 09008KT 10SM CLR A3005 RMK WND 05V13  MADISHF
ELD,2017-04-01 17:30,-92.8133,33.2210,M,M,M,30.00,10.00,M,30.05,M,10.00,M,CLR,M,M,M,M,M,M,M,M,KELD 011730Z AUTO 03010KT 10SM CLR A3005 RMK MADISHF
ELD,2017-04-01 17:35,-92.8133,33.2210,M,M,M,70.00,8.00,M,30.04,M,10.00,M,CLR,M,M,M,M,M,M,M,M,KELD 011735Z AUTO 07008KT 10SM CLR A3004 RMK MADISHF
ELD,2017-04-01 17:40,-92.8133,33.2210,M,M,M,60.00,8.00,M,30.04,M,10.00,M,CLR,M,M,M,M,M,M,M,M,KELD 011740Z AUTO 06008KT 10SM CLR A3004 RMK MADISHF
ELD,2017-04-01 17:45,-92.8133,33.2210,M,M,M,90.00,7.00,M,30.04,M,10.00,M,CLR,M,M,M,M,M,M,M,M,KELD 011745Z AUTO 09007KT 10SM CLR A3004 RMK MADISHF
ELD,2017-04-01 17:50,-92.8133,33.2210,M,M,M,50.00,9.00,M,30.04,M,10.00,M,CLR,M,M,M,M,M,M,M,M,KELD 011750Z AUTO 05009KT 10SM CLR A3004 RMK MADISHF
ELD,2017-04-01 17:53,-92.8133,33.2210,78.10,55.90,46.40,50.00,8.00,0.00,30.04,1016.90,10.00,M,CLR,M,M,M,M,M,M,M,M,KELD 011753Z AUTO 05008KT 10SM CLR 26/13 A3004 RMK AO2 SLP169 T02560133 10256 20122 58008
ELD,2017-04-01 17:55,-92.8133,33.2210,M,M,M,70.00,8.00,M,30.04,M,10.00,M,CLR,M,M,M,M,M,M,M,M,KELD 011755Z AUTO 07008KT 10SM CLR A3004 RMK MADISHF
ELD,2017-04-01 18:00,-92.8133,33.2210,M,M,M,50.00,9.00,M,30.03,M,10.00,M,CLR,M,M,M,M,M,M,M,M,KELD 011800Z AUTO 05009KT 10SM CLR A3003 RMK WND 03V11  MADISHF
ELD,2017-04-01 18:05,-92.8133,33.2210,M,M,M,90.00,8.00,M,30.03,M,10.00,M,CLR,M,M,M,M,M,M,M,M,KELD 011805Z AUTO 09008KT 10SM CLR A3003 RMK MADISHF
ELD,2017-04-01 18:10,-92.8133,33.2210,M,M,M,90.00,9.00,M,30.03,M,10.00,M,CLR,M,M,M,M,M,M,M,M,KELD 011810Z AUTO 09009KT 10SM CLR A3003 RMK MADISHF
ELD,2017-04-01 18:15,-92.8133,33.2210,M,M,M,90.00,7.00,M,30.03,M,10.00,M,CLR,M,M,M,M,M,M,M,M,KELD 011815Z AUTO 09007KT 10SM CLR A3003 RMK MADISHF
ELD,2017-04-01 18:20,-92.8133,33.2210,M,M,M,70.00,11.00,M,30.03,M,10.00,M,CLR,M,M,M,M,M,M,M,M,KELD 011820Z AUTO 07011KT 10SM CLR A3003 RMK MADISHF
ELD,2017-04-01 18:25,-92.8133,33.2210,M,M,M,90.00,5.00,M,30.03,M,10.00,M,CLR,M,M,M,M,M,M,M,M,KELD 011825Z AUTO 09005KT 10SM CLR A3003 RMK VRB05G16KT  MADISHF
ELD,2017-04-01 18:30,-92.8133,33.2210,M,M,M,100.00,12.00,M,30.03,M,10.00,M,CLR,M,M,M,M,M,M,M,M,KELD 011830Z AUTO 10012KT 10SM CLR A3003 RMK MADISHF
ELD,2017-04-01 18:35,-92.8133,33.2210,M,M,M,70.00,7.00,M,30.02,M,10.00,M,CLR,M,M,M,M,M,M,M,M,KELD 011835Z AUTO 07007KT 10SM CLR A3002 RMK WND 02V14  MADISHF
ELD,2017-04-01 18:40,-92.8133,33.2210,M,M,M,60.00,9.00,M,30.02,M,10.00,M,CLR,M,M,M,M,M,M,M,M,KELD 011840Z AUTO 06009KT 10SM CLR A3002 RMK MADISHF
ELD,2017-04-01 18:45,-92.8133,33.2210,M,M,M,120.00,6.00,M,30.02,M,10.00,M,CLR,M,M,M,M,M,M,M,M,KELD 011845Z AUTO 12006KT 10SM CLR A3002 RMK VRB06G15KT  MADISHF
ELD,2017-04-01 18:50,-92.8133,33.2210,M,M,M,70.00,9.00,M,30.02,M,10.00,M,CLR,M,M,M,M,M,M,M,M,KELD 011850Z AUTO 07009KT 10SM CLR A3002 RMK MADISHF
ELD,2017-04-01 18:53,-92.8133,33.2210,81.00,55.90,42.19,70.00,10.00,0.00,30.02,1016.30,10.00,M,CLR,M,M,M,M,M,M,M,M,KELD 011853Z AUTO 07010KT 10SM CLR 27/13 A3002 RMK AO2 SLP163 T02720133
ELD,2017-04-01 18:55,-92.8133,33.2210,M,M,M,70.00,8.00,M,30.02,M,10.00,M,CLR,M,M,M,M,M,M,M,M,KELD 011855Z AUTO 07008KT 10SM CLR A3002 RMK MADISHF
ELD,2017-04-01 19:00,-92.8133,33.2210,M,M,M,70.00,12.00,M,30.02,M,10.00,M,CLR,M,M,M,M,M,M,M,M,KELD 011900Z AUTO 07012KT 10SM CLR A3002 RMK MADISHF
ELD,2017-04-01 19:05,-92.8133,33.2210,M,M,M,90.00,7.00,M,30.02,M,10.00,M,CLR,M,M,M,M,M,M,M,M,KELD 011905Z AUTO 09007KT 10SM CLR A3002 RMK MADISHF
ELD,2017-04-01 19:10,-92.8133,33.2210,M,M,M,120.00,7.00,M,30.01,M,10.00,M,CLR,M,M,M,M,M,M,M,M,KELD 011910Z AUTO 12007KT 10SM CLR A3001 RMK MADISHF
ELD,2017-04-01 19:15,-92.8133,33.2210,M,M,M,100.00,9.00,M,30.01,M,10.00,14.00,CLR,M,M,M,M,M,M,M,M,KELD 011915Z AUTO 10009G14KT 10SM CLR A3001 RMK MADISHF
ELD,2017-04-01 19:20,-92.8133,33.2210,M,M,M,80.00,9.00,M,30.01,M,10.00,M,CLR,M,M,M,M,M,M,M,M,KELD 011920Z AUTO 08009KT 10SM CLR A3001 RMK MADISHF
ELD,2017-04-01 19:25,-92.8133,33.2210,M,M,M,100.00,8.00,M,30.01,M,10.00,M,CLR,M,M,M,M,M,M,M,M,KELD 011925Z AUTO 10008KT 10SM CLR A3001 RMK MADISHF
ELD,2017-04-01 19:30,-92.8133,33.2210,M,M,M,80.00,7.00,M,30.00,M,10.00,M,CLR,M,M,M,M,M,M,M,M,KELD 011930Z AUTO 08007KT 10SM CLR A3000 RMK MADISHF
ELD,2017-04-01 19:35,-92.8133,33.2210,M,M,M,110.00,11.00,M,30.00,M,10.00,M,CLR,M,M,M,M,M,M,M,M,KELD 011935Z AUTO 11011KT 10SM CLR A3000 RMK MADISHF
ELD,2017-04-01 19:40,-92.8133,33.2210,M,M,M,80.00,11.00,M,30.00,M,10.00,M,CLR,M,M,M,M,M,M,M,M,KELD 011940Z AUTO 08011KT 10SM CLR A3000 RMK MADISHF
ELD,2017-04-01 19:45,-92.8133,33.2210,M,M,M,100.00,11.00,M,30.00,M,10.00,M,CLR,M,M,M,M,M,M,M,M,KELD 011945Z AUTO 10011KT 10SM CLR A3000 RMK MADISHF
ELD,2017-04-01 19:50,-92.8133,33.2210,M,M,M,110.00,9.00,M,29.99,M,10.00,M,CLR,M,M,M,M,M,M,M,M,KELD 011950Z AUTO 11009KT 10SM CLR A2999 RMK MADISHF
ELD,2017-04-01 19:53,-92.8133,33.2210,81.00,55.90,42.19,70.00,10.00,0.00,29.99,1015.30,10.00,M,CLR,M,M,M,M,M,M,M,M,KELD 011953Z AUTO 07010KT 10SM CLR 27/13 A2999 RMK AO2 SLP153 T02720133
ELD,2017-04-01 19:55,-92.8133,33.2210,M,M,M,70.00,9.00,M,29.99,M,10.00,M,CLR,M,M,M,M,M,M,M,M,KELD 011955Z AUTO 07009KT 10SM CLR A2999 RMK WND 05V12  MADISHF
ELD,2017-04-01 20:00,-92.8133,33.2210,M,M,M,130.00,12.00,M,29.99,M,10.00,M,CLR,M,M,M,M,M,M,M,M,KELD 012000Z AUTO 13012KT 10SM CLR A2999 RMK MADISHF
ELD,2017-04-01 20:05,-92.8133,33.2210,M,M,M,110.00,10.00,M,29.99,M,10.00,M,CLR,M,M,M,M,M,M,M,M,KELD 012005Z AUTO 11010KT 10SM CLR A2999 RMK MADISHF
ELD,2017-04-01 20:10,-92.8133,33.2210,M,M,M,100.00,11.00,M,29.99,M,10.00,M,CLR,M,M,M,M,M,M,M,M,KELD 012010Z AUTO 10011KT 10SM CLR A2999 RMK MADISHF
ELD,2017-04-01 20:15,-92.8133,33.2210,M,M,M,100.00,10.00,M,29.98,M,10.00,M,CLR,M,M,M,M,M,M,M,M,KELD 012015Z AUTO 10010KT 10SM CLR A2998 RMK MADISHF
ELD,2017-04-01 20:20,-92.8133,33.2210,M,M,M,100.00,9.00,M,29.98,M,10.00,M,CLR,M,M,M,M,M,M,M,M,KELD 012020Z AUTO 10009KT 10SM CLR A2998 RMK MADISHF
ELD,2017-04-01 20:25,-92.8133,33.2210,M,M,M,100.00,7.00,M,29.98,M,10.00,M,CLR,M,M,M,M,M,M,M,M,KELD 012025Z AUTO 10007KT 10SM CLR A2998 RMK MADISHF
ELD,2017-04-01 20:30,-92.8133,33.2210,M,M,M,90.00,6.00,M,29.98,M,10.00,M,CLR,M,M,M,M,M,M,M,M,KELD 012030Z AUTO 09006KT 10SM CLR A2998 RMK VRB06G15KT  MADISHF
ELD,2017-04-01 20:35,-92.8133,33.2210,M,M,M,80.00,10.00,M,29.98,M,10.00,M,CLR,M,M,M,M,M,M,M,M,KELD 012035Z AUTO 08010KT 10SM CLR A2998 RMK MADISHF
ELD,2017-04-01 20:40,-92.8133,33.2210,M,M,M,100.00,11.00,M,29.98,M,10.00,M,CLR,M,M,M,M,M,M,M,M,KELD 012040Z AUTO 10011KT 10SM CLR A2998 RMK MADISHF
ELD,2017-04-01 20:45,-92.8133,33.2210,M,M,M,100.00,6.00,M,29.97,M,10.00,M,CLR,M,M,M,M,M,M,M,M,KELD 012045Z AUTO 10006KT 10SM CLR A2997 RMK MADISHF
ELD,2017-04-01 20:50,-92.8133,33.2210,M,M,M,80.00,7.00,M,29.97,M,10.00,M,CLR,M,M,M,M,M,M,M,M,KELD 012050Z AUTO 08007KT 10SM CLR A2997 RMK MADISHF
ELD,2017-04-01 20:53,-92.8133,33.2210,82.90,55.00,38.38,80.00,14.00,0.00,29.97,1014.50,10.00,18.00,CLR,M,M,M,M,M,M,M,M,KELD 012053Z AUTO 08014G18KT 10SM CLR 28/13 A2997 RMK AO2 SLP145 T02830128 58024
ELD,2017-04-01 20:55,-92.8133,33.2210,M,M,M,90.00,14.00,M,29.97,M,10.00,M,CLR,M,M,M,M,M,M,M,M,KELD 012055Z AUTO 09014KT 10SM CLR A2997 RMK MADISHF
ELD,2017-04-01 21:00,-92.8133,33.2210,M,M,M,110.00,7.00,M,29.97,M,10.00,M,CLR,M,M,M,M,M,M,M,M,KELD 012100Z AUTO 11007KT 10SM CLR A2997 RMK MADISHF
ELD,2017-04-01 21:05,-92.8133,33.2210,M,M,M,120.00,12.00,M,29.97,M,10.00,17.00,CLR,M,M,M,M,M,M,M,M,KELD 012105Z AUTO 12012G17KT 10SM CLR A2997 RMK MADISHF
ELD,2017-04-01 21:10,-92.8133,33.2210,M,M,M,130.00,11.00,M,29.97,M,10.00,M,CLR,M,M,M,M,M,M,M,M,KELD 012110Z AUTO 13011KT 10SM CLR A2997 RMK MADISHF
ELD,2017-04-01 21:15,-92.8133,33.2210,M,M,M,130.00,9.00,M,29.97,M,10.00,M,CLR,M,M,M,M,M,M,M,M,KELD 012115Z AUTO 13009KT 10SM CLR A2997 RMK MADISHF
ELD,2017-04-01 21:20,-92.8133,33.2210,M,M,M,110.00,12.00,M,29.97,M,10.00,M,CLR,M,M,M,M,M,M,M,M,KELD 012120Z AUTO 11012KT 10SM CLR A2997 RMK MADISHF
ELD,2017-04-01 21:25,-92.8133,33.2210,M,M,M,120.00,12.00,M,29.96,M,10.00,M,CLR,M,M,M,M,M,M,M,M,KELD 012125Z AUTO 12012KT 10SM CLR A2996 RMK MADISHF
ELD,2017-04-01 21:30,-92.8133,33.2210,M,M,M,110.00,9.00,M,29.96,M,10.00,M,CLR,M,M,M,M,M,M,M,M,KELD 012130Z AUTO 11009KT 10SM CLR A2996 RMK MADISHF
ELD,2017-04-01 21:35,-92.8133,33.2210,M,M,M,110.00,11.00,M,29.96,M,10.00,M,CLR,M,M,M,M,M,M,M,M,KELD 012135Z AUTO 11011KT 10SM CLR A2996 RMK MADISHF
ELD,2017-04-01 21:40,-92.8133,33.2210,M,M,M,110.00,13.00,M,29.96,M,10.00,M,CLR,M,M,M,M,M,M,M,M,KELD 012140Z AUTO 11013KT 10SM CLR A2996 RMK MADISHF
ELD,2017-04-01 21:45,-92.8133,33.2210,M,M,M,100.00,10.00,M,29.96,M,10.00,M,CLR,M,M,M,M,M,M,M,M,KELD 012145Z AUTO 10010KT 10SM CLR A2996 RMK MADISHF
ELD,2017-04-01 21:50,-92.8133,33.2210,M,M,M,90.00,11.00,M,29.96,M,10.00,17.00,CLR,M,M,M,M,M,M,M,M,KELD 012150Z AUTO 09011G17KT 10SM CLR A2996 RMK MADISHF
ELD,2017-04-01 21:53,-92.8133,33.2210,82.90,53.10,35.81,100.00,11.00,0.00,29.96,1014.30,10.00,M,CLR,M,M,M,M,M,M,M,M,KELD 012153Z AUTO 10011KT 10SM CLR 28/12 A2996 RMK AO2 SLP143 T02830117
ELD,2017-04-01 21:55,-92.8133,33.2210,M,M,M,100.00,12.00,M,29.96,M,10.00,M,CLR,M,M,M,M,M,M,M,M,KELD 012155Z AUTO 10012KT 10SM CLR A2996 RMK MADISHF
ELD,2017-04-01 22:00,-92.8133,33.2210,M,M,M,80.00,11.00,M,29.96,M,10.00,M,CLR,M,M,M,M,M,M,M,M,KELD 012200Z AUTO 08011KT 10SM CLR A2996 RMK MADISHF
ELD,2017-04-01 22:05,-92.8133,33.2210,M,M,M,90.00,12.00,M,29.96,M,10.00,M,CLR,M,M,M,M,M,M,M,M,KELD 012205Z AUTO 09012KT 10SM CLR A2996 RMK MADISHF
ELD,2017-04-01 22:10,-92.8133,33.2210,M,M,M,100.00,14.00,M,29.96,M,10.00,20.00,CLR,M,M,M,M,M,M,M,M,KELD 012210Z AUTO 10014G20KT 10SM CLR A2996 RMK MADISHF
ELD,2017-04-01 22:15,-92.8133,33.2210,M,M,M,90.00,12.00,M,29.95,M,10.00,M,CLR,M,M,M,M,M,M,M,M,KELD 012215Z AUTO 09012KT 10SM CLR A2995 RMK MADISHF
ELD,2017-04-01 22:20,-92.8133,33.2210,M,M,M,100.00,14.00,M,29.95,M,10.00,M,CLR,M,M,M,M,M,M,M,M,KELD 012220Z AUTO 10014KT 10SM CLR A2995 RMK MADISHF
ELD,2017-04-01 22:25,-92.8133,33.2210,M,M,M,80.00,12.00,M,29.95,M,10.00,M,CLR,M,M,M,M,M,M,M,M,KELD 012225Z AUTO 08012KT 10SM CLR A2995 RMK MADISHF
ELD,2017-04-01 22:30,-92.8133,33.2210,M,M,M,100.00,13.00,M,29.95,M,10.00,18.00,CLR,M,M,M,M,M,M,M,M,KELD 012230Z AUTO 10013G18KT 10SM CLR A2995 RMK WND 07V13  MADISHF
ELD,2017-04-01 22:35,-92.8133,33.2210,M,M,M,100.00,12.00,M,29.95,M,10.00,M,CLR,M,M,M,M,M,M,M,M,KELD 012235Z AUTO 10012KT 10SM CLR A2995 RMK MADISHF
ELD,2017-04-01 22:40,-92.8133,33.2210,M,M,M,120.00,13.00,M,29.95,M,10.00,M,CLR,M,M,M,M,M,M,M,M,KELD 012240Z AUTO 12013KT 10SM CLR A2995 RMK MADISHF
ELD,2017-04-01 22:45,-92.8133,33.2210,M,M,M,100.00,10.00,M,29.95,M,10.00,M,CLR,M,M,M,M,M,M,M,M,KELD 012245Z AUTO 10010KT 10SM CLR A2995 RMK MADISHF
ELD,2017-04-01 22:50,-92.8133,33.2210,M,M,M,100.00,11.00,M,29.94,M,10.00,M,CLR,M,M,M,M,M,M,M,M,KELD 012250Z AUTO 10011KT 10SM CLR A2994 RMK MADISHF
ELD,2017-04-01 22:53,-92.8133,33.2210,81.00,54.00,39.37,110.00,11.00,0.00,29.94,1013.60,10.00,M,CLR,M,M,M,M,M,M,M,M,KELD 012253Z AUTO 11011KT 10SM CLR 27/12 A2994 RMK AO2 SLP136 T02720122
ELD,2017-04-01 22:55,-92.8133,33.2210,M,M,M,100.00,10.00,M,29.94,M,10.00,M,CLR,M,M,M,M,M,M,M,M,KELD 012255Z AUTO 10010KT 10SM CLR A2994 RMK MADISHF
ELD,2017-04-01 23:00,-92.8133,33.2210,M,M,M,100.00,8.00,M,29.94,M,10.00,M,CLR,M,M,M,M,M,M,M,M,KELD 012300Z AUTO 10008KT 10SM CLR A2994 RMK MADISHF
ELD,2017-04-01 23:05,-92.8133,33.2210,M,M,M,110.00,10.00,M,29.94,M,10.00,M,CLR,M,M,M,M,M,M,M,M,KELD 012305Z AUTO 11010KT 10SM CLR A2994 RMK MADISHF
ELD,2017-04-01 23:10,-92.8133,33.2210,M,M,M,110.00,10.00,M,29.95,M,10.00,M,CLR,M,M,M,M,M,M,M,M,KELD 012310Z AUTO 11010KT 10SM CLR A2995 RMK MADISHF
ELD,2017-04-01 23:15,-92.8133,33.2210,M,M,M,110.00,8.00,M,29.95,M,10.00,M,CLR,M,M,M,M,M,M,M,M,KELD 012315Z AUTO 11008KT 10SM CLR A2995 RMK MADISHF
ELD,2017-04-01 23:20,-92.8133,33.2210,M,M,M,100.00,13.00,M,29.95,M,10.00,M,CLR,M,M,M,M,M,M,M,M,KELD 012320Z AUTO 10013KT 10SM CLR A2995 RMK MADISHF
ELD,2017-04-01 23:25,-92.8133,33.2210,M,M,M,100.00,10.00,M,29.95,M,10.00,M,CLR,M,M,M,M,M,M,M,M,KELD 012325Z AUTO 10010KT 10SM CLR A2995 RMK MADISHF
ELD,2017-04-01 23:30,-92.8133,33.2210,M,M,M,100.00,8.00,M,29.95,M,10.00,M,CLR,M,M,M,M,M,M,M,M,KELD 012330Z AUTO 10008KT 10SM CLR A2995 RMK MADISHF
ELD,2017-04-01 23:35,-92.8133,33.2210,M,M,M,100.00,11.00,M,29.95,M,10.00,M,CLR,M,M,M,M,M,M,M,M,KELD 012335Z AUTO 10011KT 10SM CLR A2995 RMK MADISHF
ELD,2017-04-01 23:40,-92.8133,33.2210,M,M,M,110.00,12.00,M,29.96,M,10.00,M,CLR,M,M,M,M,M,M,M,M,KELD 012340Z AUTO 11012KT 10SM CLR A2996 RMK MADISHF
ELD,2017-04-01 23:45,-92.8133,33.2210,M,M,M,100.00,11.00,M,29.96,M,10.00,M,CLR,M,M,M,M,M,M,M,M,KELD 012345Z AUTO 10011KT 10SM CLR A2996 RMK MADISHF
ELD,2017-04-01 23:50,-92.8133,33.2210,M,M,M,100.00,10.00,M,29.96,M,10.00,M,CLR,M,M,M,M,M,M,M,M,KELD 012350Z AUTO 10010KT 10SM CLR A2996 RMK MADISHF
ELD,2017-04-01 23:53,-92.8133,33.2210,78.10,54.00,43.30,100.00,10.00,0.00,29.96,1014.30,10.00,M,CLR,M,M,M,M,M,M,M,M,KELD 012353Z AUTO 10010KT 10SM CLR 26/12 A2996 RMK AO2 SLP143 T02560122 10289 20256 55002
ELD,2017-04-01 23:55,-92.8133,33.2210,M,M,M,100.00,9.00,M,29.96,M,10.00,M,CLR,M,M,M,M,M,M,M,M,KELD 012355Z AUTO 10009KT 10SM CLR A2996 RMK MADISHF
