#DEBUG: Format Typ    -> comma
#DEBUG: Time Period   -> 2017-04-01 00:00:00+00:00 2017-04-02 00:00:00+00:00
#DEBUG: Time Zone     -> Etc/UTC
#DEBUG: Data Contact   -> daryl herzmann akrherz@iastate.edu 515-294-5978
#DEBUG: Entries Found -> -1
station,valid,lon,lat,tmpf, dwpf, relh, drct, sknt, p01i, alti, mslp, vsby, gust, skyc1, skyc2, skyc3, skyc4, skyl1, skyl2, skyl3, skyl4, presentwx, metar
ELM,2017-04-01 00:00,-76.8916,42.1599,M,M,M,80.00,7.00,0.01,29.70,M,9.00,M,BKN,OVC,M,M,1300.00,1900.00,M,M,-RA,KELM 010000Z AUTO 08007KT 9SM -RA BKN013 OVC019 A2970 RMK P0001 MADISHF
ELM,2017-04-01 00:05,-76.8916,42.1599,M,M,M,80.00,7.00,0.01,29.70,M,10.00,M,BKN,OVC,M,M,1300.00,1900.00,M,M,-RA,KELM 010005Z AUTO 08007KT 10SM -RA BKN013 OVC019 A2970 RMK P0001 MADISHF
ELM,2017-04-01 00:10,-76.8916,42.1599,M,M,M,70.00,8.00,0.01,29.70,M,10.00,M,BKN,OVC,M,M,1300.00,1900.00,M,M,-RA,KELM 010010Z AUTO 07008KT 10SM -RA BKN013 OVC019 A2970 RMK P0001 MADISHF
ELM,2017-04-01 00:15,-76.8916,42.1599,M,M,M,100.00,9.00,0.01,29.71,M,10.00,M,BKN,OVC,M,M,1300.00,1800.00,M,M,-RA,KELM 010015Z AUTO 10009KT 10SM -RA BKN013 OVC018 A2971 RMK P0001 MADISHF
ELM,2017-04-01 00:20,-76.8916,42.1599,M,M,M,70.00,6.00,0.02,29.71,M,10.00,M,OVC,M,M,M,1500.00,M,M,M,-RA,KELM 010020Z AUTO 07006KT 10SM -RA OVC015 A2971 RMK P0002 MADISHF
ELM,2017-04-01 00:22,-76.8916,42.1599,39.90,36.00,85.81,40.00,5.00,0.02,29.71,M,10.00,M,OVC,M,M,M,1500.00,M,M,M,-RA,KELM 010022Z 04005KT 10SM -RA OVC015 04/02 A2971 RMK AO2 P0002 T00440022
ELM,2017-04-01 00:25,-76.8916,42.1599,M,M,M,40.00,5.00,0.02,29.71,M,10.00,M,OVC,M,M,M,1300.00,M,M,M,-RA,KELM 010025Z AUTO 04005KT 10SM -RA OVC013 A2971 RMK P0002 MADISHF
ELM,2017-04-01 00:29,-76.8916,42.1599,39.90,36.00,85.81,30.00,6.00,0.02,29.71,M,10.00,M,OVC,M,M,M,1300.00,M,M,M,-RA,KELM 010029Z 03006KT 10SM -RA OVC013 04/02 A2971 RMK AO2 P0002 T00440022
ELM,2017-04-01 00:30,-76.8916,42.1599,M,M,M,50.00,6.00,0.02,29.71,M,10.00,M,OVC,M,M,M,1300.00,M,M,M,-RA,KELM 010030Z AUTO 05006KT 10SM -RA OVC013 A2971 RMK P0002 VRB06KT  MADISHF
ELM,2017-04-01 00:35,-76.8916,42.1599,M,M,M,80.00,7.00,0.02,29.71,M,10.00,M,OVC,M,M,M,1300.00,M,M,M,-RA,KELM 010035Z AUTO 08007KT 10SM -RA OVC013 A2971 RMK P0002 MADISHF
ELM,2017-04-01 00:40,-76.8916,42.1599,M,M,M,80.00,6.00,0.03,29.71,M,9.00,M,OVC,M,M,M,1300.00,M,M,M,RA,KELM 010040Z AUTO 08006KT 9SM RA OVC013 A2971 RMK P0003 MADISHF
ELM,2017-04-01 00:45,-76.8916,42.1599,M,M,M,80.00,9.00,0.03,29.71,M,8.00,M,OVC,M,M,M,1300.00,M,M,M,RA,KELM 010045Z AUTO 08009KT 8SM RA OVC013 A2971 RMK P0003 MADISHF
ELM,2017-04-01 00:50,-76.8916,42.1599,M,M,M,90.00,8.00,0.04,29.71,M,8.00,M,OVC,M,M,M,1300.00,M,M,M,RA,KELM 010050Z AUTO 09008KT 8SM RA OVC013 A2971 RMK P0004 MADISHF
ELM,2017-04-01 00:53,-76.8916,42.1599,39.90,35.10,82.80,90.00,7.00,0.05,29.71,1006.80,7.00,M,OVC,M,M,M,1500.00,M,M,M,RA,KELM 010053Z 09007KT 7SM RA OVC015 04/02 A2971 RMK AO2 SLP068 P0005 T00440017
ELM,2017-04-01 00:55,-76.8916,42.1599,M,M,M,90.00,7.00,M,29.71,M,7.00,M,OVC,M,M,M,1500.00,M,M,M,RA,KELM 010055Z AUTO 09007KT 7SM RA OVC015 A2971 RMK MADISHF
ELM,2017-04-01 01:00,-76.8916,42.1599,M,M,M,90.00,8.00,M,29.71,M,7.00,M,OVC,M,M,M,1500.00,M,M,M,-RA,KELM 010100Z AUTO 09008KT 7SM -RA OVC015 A2971 RMK MADISHF
ELM,2017-04-01 01:05,-76.8916,42.1599,M,M,M,90.00,7.00,0.01,29.71,M,9.00,M,OVC,M,M,M,1500.00,M,M,M,-RA,KELM 010105Z AUTO 09007KT 9SM -RA OVC015 A2971 RMK P0001 MADISHF
ELM,2017-04-01 01:10,-76.8916,42.1599,M,M,M,80.00,7.00,0.02,29.71,M,7.00,M,BKN,OVC,M,M,1699.00,2300.00,M,M,RA,KELM 010110Z AUTO 08007KT 7SM RA BKN016 OVC023 A2971 RMK P0002 MADISHF
ELM,2017-04-01 01:15,-76.8916,42.1599,M,M,M,80.00,6.00,0.03,29.72,M,6.00,M,BKN,OVC,M,M,1699.00,2500.00,M,M,RA BR,KELM 010115Z AUTO 08006KT 6SM RA BR BKN016 OVC025 A2972 RMK P0003 MADISHF
ELM,2017-04-01 01:20,-76.8916,42.1599,M,M,M,50.00,6.00,0.04,29.72,M,7.00,M,BKN,OVC,M,M,1600.00,2700.00,M,M,RA,KELM 010120Z AUTO 05006KT 7SM RA BKN016 OVC027 A2972 RMK P0004 MADISHF
ELM,2017-04-01 01:25,-76.8916,42.1599,M,M,M,40.00,5.00,0.04,29.72,M,9.00,M,BKN,OVC,M,M,1600.00,2400.00,M,M,-RA,KELM 010125Z AUTO 04005KT 9SM -RA BKN016 OVC024 A2972 RMK P0004 MADISHF
ELM,2017-04-01 01:30,-76.8916,42.1599,M,M,M,60.00,6.00,0.04,29.72,M,10.00,M,BKN,OVC,M,M,1600.00,2400.00,M,M,-RA,KELM 010130Z AUTO 06006KT 10SM -RA BKN016 OVC024 A2972 RMK P0004 MADISHF
ELM,2017-04-01 01:35,-76.8916,42.1599,M,M,M,50.00,6.00,0.04,29.72,M,10.00,M,BKN,OVC,M,M,1600.00,2400.00,M,M,-RA,KELM 010135Z AUTO 05006KT 10SM -RA BKN016 OVC024 A2972 RMK P0004 MADISHF
ELM,2017-04-01 01:40,-76.8916,42.1599,M,M,M,60.00,6.00,0.04,29.72,M,10.00,M,BKN,OVC,M,M,1600.00,2400.00,M,M,-RA,KELM 010140Z AUTO 06006KT 10SM -RA BKN016 OVC024 A2972 RMK P0004 MADISHF
ELM,2017-04-01 01:45,-76.8916,42.1599,M,M,M,60.00,6.00,0.04,29.72,M,10.00,M,OVC,M,M,M,1500.00,M,M,M,-RA,KELM 010145Z AUTO 06006KT 10SM -RA OVC015 A2972 RMK P0004 MADISHF
ELM,2017-04-01 01:50,-76.8916,42.1599,M,M,M,60.00,7.00,0.04,29.72,M,10.00,M,OVC,M,M,M,1500.00,M,M,M,-RA,KELM 010150Z AUTO 06007KT 10SM -RA OVC015 A2972 RMK P0004 MADISHF
ELM,2017-04-01 01:53,-76.8916,42.1599,39.00,36.00,88.87,60.00,6.00,0.04,29.72,1007.10,10.00,M,OVC,M,M,M,1500.00,M,M,M,-RA,KELM 010153Z 06006KT 10SM -RA OVC015 04/02 A2972 RMK AO2 SLP071 P0004 T00390022
ELM,2017-04-01 01:55,-76.8916,42.1599,M,M,M,60.00,7.00,M,29.72,M,10.00,M,OVC,M,M,M,1500.00,M,M,M,-RA,KELM 010155Z AUTO 06007KT 10SM -RA OVC015 A2972 RMK MADISHF
ELM,2017-04-01 02:00,-76.8916,42.1599,M,M,M,60.00,6.00,M,29.72,M,10.00,M,OVC,M,M,M,1500.00,M,M,M,-RA,KELM 010200Z AUTO 06006KT 10SM -RA OVC015 A2972 RMK MADISHF
ELM,2017-04-01 02:05,-76.8916,42.1599,M,M,M,60.00,6.00,M,29.72,M,10.00,M,OVC,M,M,M,1400.00,M,M,M,-RA,KELM 010205Z AUTO 06006KT 10SM -RA OVC014 A2972 RMK MADISHF
ELM,2017-04-01 02:08,-76.8916,42.1599,39.90,35.10,82.80,70.00,6.00,0.00,29.72,M,10.00,M,OVC,M,M,M,1400.00,M,M,M,-RA,KELM 010208Z 07006KT 10SM -RA OVC014 04/02 A2972 RMK AO2 P0000 T00440017
ELM,2017-04-01 02:10,-76.8916,42.1599,M,M,M,60.00,6.00,M,29.72,M,10.00,M,OVC,M,M,M,1400.00,M,M,M,-RA,KELM 010210Z AUTO 06006KT 10SM -RA OVC014 A2972 RMK MADISHF
ELM,2017-04-01 02:15,-76.8916,42.1599,M,M,M,80.00,7.00,M,29.72,M,10.00,M,OVC,M,M,M,1400.00,M,M,M,-RA,KELM 010215Z AUTO 08007KT 10SM -RA OVC014 A2972 RMK MADISHF
ELM,2017-04-01 02:20,-76.8916,42.1599,M,M,M,80.00,7.00,M,29.72,M,10.00,M,OVC,M,M,M,1400.00,M,M,M,-RA,KELM 010220Z AUTO 08007KT 10SM -RA OVC014 A2972 RMK MADISHF
ELM,2017-04-01 02:25,-76.8916,42.1599,M,M,M,70.00,6.00,0.01,29.72,M,10.00,M,OVC,M,M,M,1600.00,M,M,M,-RA,KELM 010225Z AUTO 07006KT 10SM -RA OVC016 A2972 RMK P0001 MADISHF
ELM,2017-04-01 02:30,-76.8916,42.1599,M,M,M,90.00,4.00,0.01,29.72,M,10.00,M,OVC,M,M,M,1600.00,M,M,M,-RA,KELM 010230Z AUTO 09004KT 10SM -RA OVC016 A2972 RMK P0001 MADISHF
ELM,2017-04-01 02:34,-76.8916,42.1599,39.00,35.10,85.76,70.00,5.00,0.01,29.72,M,10.00,M,BKN,OVC,M,M,1600.00,2200.00,M,M,-RA,KELM 010234Z 07005KT 10SM -RA BKN016 OVC022 04/02 A2972 RMK AO2 P0001 T00390017
ELM,2017-04-01 02:35,-76.8916,42.1599,M,M,M,70.00,5.00,0.01,29.72,M,10.00,M,OVC,M,M,M,1600.00,M,M,M,-RA,KELM 010235Z AUTO 07005KT 10SM -RA OVC016 A2972 RMK P0001 MADISHF
ELM,2017-04-01 02:40,-76.8916,42.1599,M,M,M,80.00,6.00,0.01,29.72,M,10.00,M,BKN,OVC,M,M,1600.00,2100.00,M,M,-RA,KELM 010240Z AUTO 08006KT 10SM -RA BKN016 OVC021 A2972 RMK P0001 MADISHF
ELM,2017-04-01 02:45,-76.8916,42.1599,M,M,M,90.00,6.00,0.02,29.72,M,10.00,M,BKN,OVC,M,M,1600.00,1999.00,M,M,-RA,KELM 010245Z AUTO 09006KT 10SM -RA BKN016 OVC019 A2972 RMK P0002 MADISHF
ELM,2017-04-01 02:50,-76.8916,42.1599,M,M,M,80.00,6.00,0.02,29.72,M,10.00,M,OVC,M,M,M,1600.00,M,M,M,-RA,KELM 010250Z AUTO 08006KT 10SM -RA OVC016 A2972 RMK P0002 MADISHF
ELM,2017-04-01 02:53,-76.8916,42.1599,39.00,35.10,85.76,80.00,5.00,0.02,29.72,1006.90,10.00,M,OVC,M,M,M,1600.00,M,M,M,-RA,KELM 010253Z 08005KT 10SM -RA OVC016 04/02 A2972 RMK AO2 SLP069 P0002 60011 T00390017 50005
ELM,2017-04-01 02:55,-76.8916,42.1599,M,M,M,70.00,5.00,M,29.72,M,10.00,M,BKN,BKN,OVC,M,1600.00,2100.00,3100.00,M,-RA,KELM 010255Z AUTO 07005KT 10SM -RA BKN016 BKN021 OVC031 A2972 RMK MADISHF
ELM,2017-04-01 03:00,-76.8916,42.1599,M,M,M,90.00,6.00,M,29.72,M,10.00,M,BKN,OVC,M,M,1600.00,2100.00,M,M,-RA,KELM 010300Z AUTO 09006KT 10SM -RA BKN016 OVC021 A2972 RMK MADISHF
ELM,2017-04-01 03:05,-76.8916,42.1599,M,M,M,90.00,7.00,M,29.72,M,10.00,M,BKN,OVC,M,M,1600.00,3200.00,M,M,-RA,KELM 010305Z AUTO 09007KT 10SM -RA BKN016 OVC032 A2972 RMK MADISHF
ELM,2017-04-01 03:10,-76.8916,42.1599,M,M,M,100.00,8.00,M,29.72,M,10.00,M,BKN,OVC,M,M,1600.00,3200.00,M,M,-RA,KELM 010310Z AUTO 10008KT 10SM -RA BKN016 OVC032 A2972 RMK MADISHF
ELM,2017-04-01 03:15,-76.8916,42.1599,M,M,M,100.00,8.00,M,29.72,M,10.00,M,SCT,OVC,M,M,1600.00,3200.00,M,M,-RA,KELM 010315Z AUTO 10008KT 10SM -RA SCT016 OVC032 A2972 RMK MADISHF
ELM,2017-04-01 03:20,-76.8916,42.1599,39.00,34.00,82.08,100.00,7.00,0.00,29.72,M,10.00,M,SCT,OVC,M,M,1600.00,3400.00,M,M,-RA,KELM 010320Z AUTO 10007KT 10SM -RA SCT016 OVC034 04/01 A2972 RMK AO2 P0000 T00390011
ELM,2017-04-01 03:25,-76.8916,42.1599,M,M,M,80.00,5.00,0.01,29.72,M,10.00,M,SCT,OVC,M,M,1600.00,3399.00,M,M,-RA,KELM 010325Z AUTO 08005KT 10SM -RA SCT016 OVC033 A2972 RMK P0001 MADISHF
ELM,2017-04-01 03:30,-76.8916,42.1599,M,M,M,100.00,7.00,0.01,29.71,M,10.00,M,FEW,OVC,M,M,1600.00,3399.00,M,M,-RA,KELM 010330Z AUTO 10007KT 10SM -RA FEW016 OVC033 A2971 RMK P0001 MADISHF
ELM,2017-04-01 03:35,-76.8916,42.1599,M,M,M,90.00,7.00,0.01,29.71,M,10.00,M,FEW,SCT,OVC,M,1600.00,2800.00,3399.00,M,-RA,KELM 010335Z AUTO 09007KT 10SM -RA FEW016 SCT028 OVC033 A2971 RMK P0001 MADISHF
ELM,2017-04-01 03:40,-76.8916,42.1599,M,M,M,100.00,6.00,0.01,29.71,M,10.00,M,FEW,BKN,OVC,M,1600.00,2800.00,3300.00,M,-RA,KELM 010340Z AUTO 10006KT 10SM -RA FEW016 BKN028 OVC033 A2971 RMK P0001 MADISHF
ELM,2017-04-01 03:45,-76.8916,42.1599,M,M,M,90.00,6.00,0.01,29.71,M,10.00,M,FEW,OVC,M,M,1600.00,3100.00,M,M,-RA,KELM 010345Z AUTO 09006KT 10SM -RA FEW016 OVC031 A2971 RMK P0001 MADISHF
ELM,2017-04-01 03:50,-76.8916,42.1599,M,M,M,70.00,4.00,0.01,29.71,M,10.00,M,FEW,OVC,M,M,1600.00,3100.00,M,M,-RA,KELM 010350Z AUTO 07004KT 10SM -RA FEW016 OVC031 A2971 RMK P0001 MADISHF
ELM,2017-04-01 03:53,-76.8916,42.1599,37.90,34.00,85.69,60.00,4.00,0.01,29.71,1006.80,10.00,M,FEW,OVC,M,M,1600.00,3000.00,M,M,-RA,KELM 010353Z AUTO 06004KT 10SM -RA FEW016 OVC030 03/01 A2971 RMK AO2 SLP068 P0001 T00330011
ELM,2017-04-01 03:55,-76.8916,42.1599,M,M,M,50.00,3.00,M,29.71,M,10.00,M,FEW,OVC,M,M,1600.00,3000.00,M,M,-RA,KELM 010355Z AUTO 05003KT 10SM -RA FEW016 OVC030 A2971 RMK MADISHF
ELM,2017-04-01 04:00,-76.8916,42.1599,M,M,M,30.00,3.00,0.01,29.72,M,10.00,M,FEW,SCT,OVC,M,999.00,1600.00,3000.00,M,-RA,KELM 010400Z AUTO 03003KT 10SM -RA FEW009 SCT016 OVC030 A2972 RMK P0001 MADISHF
ELM,2017-04-01 04:05,-76.8916,42.1599,37.90,35.10,89.53,30.00,3.00,0.01,29.72,M,10.00,M,BKN,OVC,M,M,1400.00,2900.00,M,M,-RA,KELM 010405Z AUTO 03003KT 10SM -RA BKN014 OVC029 03/02 A2972 RMK AO2 P0001 T00330017
ELM,2017-04-01 04:10,-76.8916,42.1599,M,M,M,20.00,4.00,0.01,29.72,M,10.00,M,BKN,OVC,M,M,1400.00,2900.00,M,M,-RA,KELM 010410Z AUTO 02004KT 10SM -RA BKN014 OVC029 A2972 RMK P0001 MADISHF
ELM,2017-04-01 04:15,-76.8916,42.1599,M,M,M,0.00,0.00,0.01,29.72,M,10.00,M,BKN,BKN,OVC,M,1400.00,2400.00,2900.00,M,-RA,KELM 010415Z AUTO 00000KT 10SM -RA BKN014 BKN024 OVC029 A2972 RMK P0001 MADISHF
ELM,2017-04-01 04:20,-76.8916,42.1599,M,M,M,40.00,3.00,0.01,29.72,M,10.00,M,BKN,OVC,M,M,1400.00,2200.00,M,M,-RA,KELM 010420Z AUTO 04003KT 10SM -RA BKN014 OVC022 A2972 RMK P0001 VRB03KT  MADISHF
ELM,2017-04-01 04:25,-76.8916,42.1599,M,M,M,30.00,3.00,0.01,29.72,M,10.00,M,BKN,OVC,M,M,1400.00,2200.00,M,M,-RA,KELM 010425Z AUTO 03003KT 10SM -RA BKN014 OVC022 A2972 RMK P0001 MADISHF
ELM,2017-04-01 04:30,-76.8916,42.1599,M,M,M,20.00,4.00,0.01,29.72,M,10.00,M,BKN,OVC,M,M,1400.00,2200.00,M,M,-RA,KELM 010430Z AUTO 02004KT 10SM -RA BKN014 OVC022 A2972 RMK P0001 MADISHF
ELM,2017-04-01 04:35,-76.8916,42.1599,M,M,M,30.00,3.00,0.01,29.72,M,10.00,M,BKN,OVC,M,M,1400.00,2200.00,M,M,-RA,KELM 010435Z AUTO 03003KT 10SM -RA BKN014 OVC022 A2972 RMK P0001 MADISHF
ELM,2017-04-01 04:40,-76.8916,42.1599,M,M,M,30.00,4.00,0.01,29.72,M,10.00,M,BKN,OVC,M,M,1400.00,2200.00,M,M,-RA,KELM 010440Z AUTO 03004KT 10SM -RA BKN014 OVC022 A2972 RMK P0001 MADISHF
ELM,2017-04-01 04:45,-76.8916,42.1599,M,M,M,40.00,4.00,0.01,29.72,M,10.00,M,BKN,OVC,M,M,1400.00,2200.00,M,M,-RA,KELM 010445Z AUTO 04004KT 10SM -RA BKN014 OVC022 A2972 RMK P0001 VRB04KT  MADISHF
ELM,2017-04-01 04:50,-76.8916,42.1599,M,M,M,20.00,3.00,0.01,29.72,M,10.00,M,BKN,OVC,M,M,1400.00,2200.00,M,M,-RA,KELM 010450Z AUTO 02003KT 10SM -RA BKN014 OVC022 A2972 RMK P0001 MADISHF
ELM,2017-04-01 04:53,-76.8916,42.1599,37.90,35.10,89.53,30.00,4.00,0.01,29.73,1007.20,10.00,M,BKN,OVC,M,M,1400.00,2200.00,M,M,-RA,KELM 010453Z AUTO 03004KT 10SM -RA BKN014 OVC022 03/02 A2973 RMK AO2 SLP072 P0001 T00330017 400560033
ELM,2017-04-01 04:55,-76.8916,42.1599,M,M,M,20.00,4.00,M,29.73,M,10.00,M,BKN,OVC,M,M,1400.00,2200.00,M,M,-RA,KELM 010455Z AUTO 02004KT 10SM -RA BKN014 OVC022 A2973 RMK MADISHF
ELM,2017-04-01 05:00,-76.8916,42.1599,M,M,M,30.00,5.00,M,29.73,M,10.00,M,BKN,OVC,M,M,1300.00,2200.00,M,M,-RA,KELM 010500Z AUTO 03005KT 10SM -RA BKN013 OVC022 A2973 RMK MADISHF
ELM,2017-04-01 05:05,-76.8916,42.1599,M,M,M,20.00,4.00,M,29.73,M,10.00,M,BKN,OVC,M,M,1300.00,2200.00,M,M,-RA,KELM 010505Z AUTO 02004KT 10SM -RA BKN013 OVC022 A2973 RMK MADISHF
ELM,2017-04-01 05:10,-76.8916,42.1599,M,M,M,40.00,4.00,M,29.73,M,10.00,M,OVC,M,M,M,1300.00,M,M,M,-RA,KELM 010510Z AUTO 04004KT 10SM -RA OVC013 A2973 RMK MADISHF
ELM,2017-04-01 05:15,-76.8916,42.1599,M,M,M,40.00,3.00,M,29.73,M,10.00,M,OVC,M,M,M,1300.00,M,M,M,-RA,KELM 010515Z AUTO 04003KT 10SM -RA OVC013 A2973 RMK MADISHF
ELM,2017-04-01 05:20,-76.8916,42.1599,M,M,M,20.00,4.00,M,29.73,M,10.00,M,OVC,M,M,M,1300.00,M,M,M,-RA,KELM 010520Z AUTO 02004KT 10SM -RA OVC013 A2973 RMK MADISHF
ELM,2017-04-01 05:25,-76.8916,42.1599,M,M,M,40.00,3.00,M,29.73,M,10.00,M,OVC,M,M,M,1300.00,M,M,M,-RA,KELM 010525Z AUTO 04003KT 10SM -RA OVC013 A2973 RMK MADISHF
ELM,2017-04-01 05:30,-76.8916,42.1599,M,M,M,50.00,3.00,M,29.73,M,10.00,M,OVC,M,M,M,1300.00,M,M,M,-RA,KELM 010530Z AUTO 05003KT 10SM -RA OVC013 A2973 RMK MADISHF
ELM,2017-04-01 05:35,-76.8916,42.1599,M,M,M,30.00,3.00,M,29.73,M,10.00,M,OVC,M,M,M,1300.00,M,M,M,-RA,KELM 010535Z AUTO 03003KT 10SM -RA OVC013 A2973 RMK MADISHF
ELM,2017-04-01 05:40,-76.8916,42.1599,M,M,M,30.00,3.00,M,29.73,M,10.00,M,OVC,M,M,M,1300.00,M,M,M,-RA,KELM 010540Z AUTO 03003KT 10SM -RA OVC013 A2973 RMK MADISHF
ELM,2017-04-01 05:45,-76.8916,42.1599,M,M,M,10.00,3.00,0.01,29.73,M,10.00,M,OVC,M,M,M,1300.00,M,M,M,-RA,KELM 010545Z AUTO 01003KT 10SM -RA OVC013 A2973 RMK P0001 MADISHF
ELM,2017-04-01 05:50,-76.8916,42.1599,M,M,M,10.00,3.00,0.01,29.73,M,10.00,M,OVC,M,M,M,1100.00,M,M,M,-RA,KELM 010550Z AUTO 01003KT 10SM -RA OVC011 A2973 RMK P0001 CIG 8V13  MADISHF
ELM,2017-04-01 05:53,-76.8916,42.1599,37.90,34.00,85.69,20.00,3.00,0.01,29.73,1007.40,10.00,M,BKN,OVC,M,M,1100.00,1400.00,M,M,-RA,KELM 010553Z AUTO 02003KT 10SM -RA BKN011 OVC014 03/01 A2973 RMK AO2 CIG 008V012 SLP074 P0001 60014 T00330011 10044 20033 53005
ELM,2017-04-01 05:55,-76.8916,42.1599,M,M,M,0.00,0.00,M,29.73,M,10.00,M,BKN,OVC,M,M,1100.00,1400.00,M,M,-RA,KELM 010555Z AUTO 00000KT 10SM -RA BKN011 OVC014 A2973 RMK CIG 8V12  MADISHF
ELM,2017-04-01 06:00,-76.8916,42.1599,M,M,M,30.00,3.00,M,29.73,M,10.00,M,OVC,M,M,M,900.00,M,M,M,-RA,KELM 010600Z AUTO 03003KT 10SM -RA OVC009 A2973 RMK CIG 8V12  MADISHF
ELM,2017-04-01 06:02,-76.8916,42.1599,37.00,34.00,88.78,20.00,3.00,0.00,29.73,M,10.00,M,OVC,M,M,M,900.00,M,M,M,-RA,KELM 010602Z AUTO 02003KT 10SM -RA OVC009 03/01 A2973 RMK AO2 CIG 008V012 P0000 T00280011
ELM,2017-04-01 06:05,-76.8916,42.1599,M,M,M,20.00,3.00,M,29.73,M,10.00,M,OVC,M,M,M,900.00,M,M,M,-RA,KELM 010605Z AUTO 02003KT 10SM -RA OVC009 A2973 RMK MADISHF
ELM,2017-04-01 06:10,-76.8916,42.1599,M,M,M,20.00,3.00,M,29.73,M,10.00,M,OVC,M,M,M,900.00,M,M,M,-RA,KELM 010610Z AUTO 02003KT 10SM -RA OVC009 A2973 RMK MADISHF
ELM,2017-04-01 06:15,-76.8916,42.1599,M,M,M,20.00,3.00,M,29.73,M,10.00,M,OVC,M,M,M,800.00,M,M,M,-RA,KELM 010615Z AUTO 02003KT 10SM -RA OVC008 A2973 RMK MADISHF
ELM,2017-04-01 06:20,-76.8916,42.1599,M,M,M,10.00,3.00,M,29.74,M,10.00,M,OVC,M,M,M,800.00,M,M,M,-RA,KELM 010620Z AUTO 01003KT 10SM -RA OVC008 A2974 RMK MADISHF
ELM,2017-04-01 06:25,-76.8916,42.1599,M,M,M,20.00,4.00,M,29.74,M,10.00,M,OVC,M,M,M,800.00,M,M,M,M,KELM 010625Z AUTO 02004KT 10SM OVC008 A2974 RMK MADISHF
ELM,2017-04-01 06:30,-76.8916,42.1599,M,M,M,20.00,4.00,M,29.74,M,10.00,M,OVC,M,M,M,800.00,M,M,M,M,KELM 010630Z AUTO 02004KT 10SM OVC008 A2974 RMK MADISHF
ELM,2017-04-01 06:35,-76.8916,42.1599,M,M,M,10.00,3.00,M,29.74,M,10.00,M,OVC,M,M,M,900.00,M,M,M,-RA,KELM 010635Z AUTO 01003KT 10SM -RA OVC009 A2974 RMK MADISHF
ELM,2017-04-01 06:40,-76.8916,42.1599,M,M,M,10.00,3.00,M,29.74,M,10.00,M,OVC,M,M,M,900.00,M,M,M,-RA,KELM 010640Z AUTO 01003KT 10SM -RA OVC009 A2974 RMK MADISHF
ELM,2017-04-01 06:45,-76.8916,42.1599,M,M,M,30.00,3.00,M,29.74,M,10.00,M,OVC,M,M,M,900.00,M,M,M,-RA,KELM 010645Z AUTO 03003KT 10SM -RA OVC009 A2974 RMK MADISHF
ELM,2017-04-01 06:50,-76.8916,42.1599,M,M,M,30.00,3.00,M,29.74,M,10.00,M,OVC,M,M,M,900.00,M,M,M,-RA,KELM 010650Z AUTO 03003KT 10SM -RA OVC009 A2974 RMK MADISHF
ELM,2017-04-01 06:53,-76.8916,42.1599,37.00,34.00,88.78,30.00,3.00,0.00,29.74,1007.80,10.00,M,OVC,M,M,M,900.00,M,M,M,-RA,KELM 010653Z AUTO 03003KT 10SM -RA OVC009 03/01 A2974 RMK AO2 SLP078 P0000 T00280011
ELM,2017-04-01 06:55,-76.8916,42.1599,M,M,M,20.00,3.00,M,29.74,M,10.00,M,OVC,M,M,M,900.00,M,M,M,-RA,KELM 010655Z AUTO 02003KT 10SM -RA OVC009 A2974 RMK MADISHF
ELM,2017-04-01 07:00,-76.8916,42.1599,M,M,M,0.00,0.00,M,29.74,M,10.00,M,OVC,M,M,M,900.00,M,M,M,-RA,KELM 010700Z AUTO 00000KT 10SM -RA OVC009 A2974 RMK MADISHF
ELM,2017-04-01 07:05,-76.8916,42.1599,M,M,M,0.00,0.00,M,29.74,M,10.00,M,OVC,M,M,M,900.00,M,M,M,-RA,KELM 010705Z AUTO 00000KT 10SM -RA OVC009 A2974 RMK MADISHF
ELM,2017-04-01 07:10,-76.8916,42.1599,M,M,M,0.00,0.00,M,29.74,M,10.00,M,OVC,M,M,M,900.00,M,M,M,-RA,KELM 010710Z AUTO 00000KT 10SM -RA OVC009 A2974 RMK MADISHF
ELM,2017-04-01 07:15,-76.8916,42.1599,M,M,M,0.00,0.00,0.01,29.74,M,9.00,M,OVC,M,M,M,900.00,M,M,M,-RA,KELM 010715Z AUTO 00000KT 9SM -RA OVC009 A2974 RMK P0001 MADISHF
ELM,2017-04-01 07:20,-76.8916,42.1599,M,M,M,0.00,0.00,0.01,29.74,M,9.00,M,OVC,M,M,M,900.00,M,M,M,-RA,KELM 010720Z AUTO 00000KT 9SM -RA OVC009 A2974 RMK P0001 MADISHF
ELM,2017-04-01 07:25,-76.8916,42.1599,M,M,M,0.00,0.00,0.01,29.74,M,10.00,M,OVC,M,M,M,900.00,M,M,M,-RA,KELM 010725Z AUTO 00000KT 10SM -RA OVC009 A2974 RMK P0001 MADISHF
ELM,2017-04-01 07:30,-76.8916,42.1599,M,M,M,0.00,0.00,0.01,29.74,M,10.00,M,OVC,M,M,M,800.00,M,M,M,-RA,KELM 010730Z AUTO 00000KT 10SM -RA OVC008 A2974 RMK P0001 MADISHF
ELM,2017-04-01 07:35,-76.8916,42.1599,M,M,M,0.00,0.00,0.01,29.75,M,10.00,M,OVC,M,M,M,800.00,M,M,M,-RA,KELM 010735Z AUTO 00000KT 10SM -RA OVC008 A2975 RMK P0001 MADISHF
ELM,2017-04-01 07:40,-76.8916,42.1599,M,M,M,0.00,0.00,0.01,29.75,M,10.00,M,OVC,M,M,M,800.00,M,M,M,-RA,KELM 010740Z AUTO 00000KT 10SM -RA OVC008 A2975 RMK P0001 MADISHF
ELM,2017-04-01 07:45,-76.8916,42.1599,M,M,M,0.00,0.00,0.01,29.75,M,10.00,M,OVC,M,M,M,700.00,M,M,M,-RA,KELM 010745Z AUTO 00000KT 10SM -RA OVC007 A2975 RMK P0001 MADISHF
ELM,2017-04-01 07:50,-76.8916,42.1599,M,M,M,30.00,4.00,0.01,29.75,M,10.00,M,OVC,M,M,M,700.00,M,M,M,-RA,KELM 010750Z AUTO 03004KT 10SM -RA OVC007 A2975 RMK P0001 MADISHF
ELM,2017-04-01 07:53,-76.8916,42.1599,36.00,33.10,89.09,30.00,4.00,0.01,29.75,1008.20,10.00,M,OVC,M,M,M,700.00,M,M,M,-RA,KELM 010753Z AUTO 03004KT 10SM -RA OVC007 02/01 A2975 RMK AO2 SLP082 P0001 T00220006
ELM,2017-04-01 07:55,-76.8916,42.1599,M,M,M,30.00,4.00,M,29.75,M,10.00,M,OVC,M,M,M,700.00,M,M,M,-RA,KELM 010755Z AUTO 03004KT 10SM -RA OVC007 A2975 RMK MADISHF
ELM,2017-04-01 08:00,-76.8916,42.1599,M,M,M,30.00,3.00,M,29.76,M,10.00,M,OVC,M,M,M,800.00,M,M,M,-RA,KELM 010800Z AUTO 03003KT 10SM -RA OVC008 A2976 RMK MADISHF
ELM,2017-04-01 08:05,-76.8916,42.1599,M,M,M,40.00,4.00,M,29.76,M,10.00,M,OVC,M,M,M,800.00,M,M,M,-RA,KELM 010805Z AUTO 04004KT 10SM -RA OVC008 A2976 RMK MADISHF
ELM,2017-04-01 08:10,-76.8916,42.1599,M,M,M,30.00,5.00,0.01,29.76,M,10.00,M,OVC,M,M,M,800.00,M,M,M,-RA,KELM 010810Z AUTO 03005KT 10SM -RA OVC008 A2976 RMK P0001 MADISHF
ELM,2017-04-01 08:15,-76.8916,42.1599,M,M,M,30.00,4.00,0.01,29.76,M,10.00,M,OVC,M,M,M,800.00,M,M,M,-RA,KELM 010815Z AUTO 03004KT 10SM -RA OVC008 A2976 RMK P0001 MADISHF
ELM,2017-04-01 08:20,-76.8916,42.1599,M,M,M,30.00,4.00,0.01,29.76,M,10.00,M,OVC,M,M,M,800.00,M,M,M,-RA,KELM 010820Z AUTO 03004KT 10SM -RA OVC008 A2976 RMK P0001 MADISHF
ELM,2017-04-01 08:25,-76.8916,42.1599,M,M,M,30.00,3.00,0.01,29.77,M,10.00,M,OVC,M,M,M,900.00,M,M,M,-RA,KELM 010825Z AUTO 03003KT 10SM -RA OVC009 A2977 RMK P0001 MADISHF
ELM,2017-04-01 08:30,-76.8916,42.1599,M,M,M,30.00,3.00,0.01,29.77,M,10.00,M,BKN,OVC,M,M,900.00,1300.00,M,M,-RA,KELM 010830Z AUTO 03003KT 10SM -RA BKN009 OVC013 A2977 RMK P0001 MADISHF
ELM,2017-04-01 08:35,-76.8916,42.1599,M,M,M,40.00,3.00,0.01,29.77,M,10.00,M,OVC,M,M,M,1300.00,M,M,M,-RA,KELM 010835Z AUTO 04003KT 10SM -RA OVC013 A2977 RMK P0001 MADISHF
ELM,2017-04-01 08:36,-76.8916,42.1599,36.00,32.00,85.23,40.00,3.00,0.01,29.77,M,10.00,M,SCT,OVC,M,M,1000.00,1500.00,M,M,-RA,KELM 010836Z AUTO 04003KT 10SM -RA SCT010 OVC015 02/00 A2977 RMK AO2 P0001 T00220000
ELM,2017-04-01 08:40,-76.8916,42.1599,M,M,M,40.00,4.00,0.01,29.77,M,10.00,M,SCT,OVC,M,M,999.00,1500.00,M,M,-RA,KELM 010840Z AUTO 04004KT 10SM -RA SCT009 OVC015 A2977 RMK P0001 MADISHF
ELM,2017-04-01 08:45,-76.8916,42.1599,M,M,M,50.00,3.00,0.01,29.77,M,10.00,M,OVC,M,M,M,1500.00,M,M,M,-RA,KELM 010845Z AUTO 05003KT 10SM -RA OVC015 A2977 RMK P0001 MADISHF
ELM,2017-04-01 08:50,-76.8916,42.1599,M,M,M,50.00,4.00,0.01,29.77,M,10.00,M,OVC,M,M,M,1500.00,M,M,M,-SN,KELM 010850Z AUTO 05004KT 10SM -SN OVC015 A2977 RMK P0001 MADISHF
ELM,2017-04-01 08:53,-76.8916,42.1599,35.10,32.00,88.33,50.00,3.00,0.01,29.78,1009.00,10.00,M,OVC,M,M,M,1300.00,M,M,M,-SN,KELM 010853Z AUTO 05003KT 10SM -SN OVC013 02/00 A2978 RMK AO2 RAE49SNB49 SLP090 P0001 60002 T00170000 53014
ELM,2017-04-01 08:55,-76.8916,42.1599,M,M,M,50.00,3.00,M,29.78,M,9.00,M,OVC,M,M,M,1300.00,M,M,M,-SN,KELM 010855Z AUTO 05003KT 9SM -SN OVC013 A2978 RMK MADISHF
ELM,2017-04-01 09:00,-76.8916,42.1599,M,M,M,60.00,3.00,M,29.78,M,7.00,M,OVC,M,M,M,1300.00,M,M,M,-SN,KELM 010900Z AUTO 06003KT 7SM -SN OVC013 A2978 RMK MADISHF
ELM,2017-04-01 09:05,-76.8916,42.1599,M,M,M,0.00,0.00,0.01,29.78,M,6.00,M,OVC,M,M,M,1300.00,M,M,M,-SN BR,KELM 010905Z AUTO 00000KT 6SM -SN BR OVC013 A2978 RMK P0001 MADISHF
ELM,2017-04-01 09:10,-76.8916,42.1599,M,M,M,50.00,3.00,0.01,29.78,M,6.00,M,BKN,OVC,M,M,1100.00,1800.00,M,M,-SN BR,KELM 010910Z AUTO 05003KT 6SM -SN BR BKN011 OVC018 A2978 RMK P0001 MADISHF
ELM,2017-04-01 09:15,-76.8916,42.1599,M,M,M,70.00,3.00,0.01,29.78,M,7.00,M,SCT,OVC,M,M,1100.00,2600.00,M,M,-SN,KELM 010915Z AUTO 07003KT 7SM -SN SCT011 OVC026 A2978 RMK P0001 MADISHF
ELM,2017-04-01 09:19,-76.8916,42.1599,35.10,32.00,88.33,80.00,3.00,0.01,29.78,M,8.00,M,SCT,OVC,M,M,1100.00,2800.00,M,M,-SN,KELM 010919Z AUTO 08003KT 8SM -SN SCT011 OVC028 02/00 A2978 RMK AO2 P0001 T00170000
ELM,2017-04-01 09:20,-76.8916,42.1599,M,M,M,80.00,3.00,0.01,29.79,M,8.00,M,SCT,OVC,M,M,1100.00,2800.00,M,M,-SN,KELM 010920Z AUTO 08003KT 8SM -SN SCT011 OVC028 A2979 RMK P0001 MADISHF
ELM,2017-04-01 09:25,-76.8916,42.1599,M,M,M,80.00,3.00,0.01,29.79,M,9.00,M,BKN,OVC,M,M,1100.00,2600.00,M,M,-RA,KELM 010925Z AUTO 08003KT 9SM -RA BKN011 OVC026 A2979 RMK P0001 MADISHF
ELM,2017-04-01 09:30,-76.8916,42.1599,34.00,32.00,92.29,0.00,0.00,0.01,29.79,M,10.00,M,BKN,OVC,M,M,1100.00,2600.00,M,M,-RA,KELM 010930Z AUTO 00000KT 10SM -RA BKN011 OVC026 01/00 A2979 RMK AO2 RAB25SNE25 P0001 T00110000
ELM,2017-04-01 09:35,-76.8916,42.1599,M,M,M,90.00,3.00,0.01,29.79,M,10.00,M,BKN,OVC,M,M,1100.00,2800.00,M,M,-RA,KELM 010935Z AUTO 09003KT 10SM -RA BKN011 OVC028 A2979 RMK P0001 MADISHF
ELM,2017-04-01 09:40,-76.8916,42.1599,M,M,M,90.00,3.00,0.01,29.80,M,10.00,M,BKN,BKN,OVC,M,1100.00,2100.00,3200.00,M,-RA,KELM 010940Z AUTO 09003KT 10SM -RA BKN011 BKN021 OVC032 A2980 RMK P0001 MADISHF
ELM,2017-04-01 09:45,-76.8916,42.1599,M,M,M,0.00,0.00,0.01,29.80,M,10.00,M,BKN,OVC,M,M,1100.00,2100.00,M,M,-RA,KELM 010945Z AUTO 00000KT 10SM -RA BKN011 OVC021 A2980 RMK P0001 MADISHF
ELM,2017-04-01 09:50,-76.8916,42.1599,M,M,M,0.00,0.00,0.01,29.80,M,10.00,M,OVC,M,M,M,1100.00,M,M,M,-RA,KELM 010950Z AUTO 00000KT 10SM -RA OVC011 A2980 RMK P0001 MADISHF
ELM,2017-04-01 09:53,-76.8916,42.1599,35.10,33.10,92.32,0.00,0.00,0.01,29.81,1010.10,10.00,M,OVC,M,M,M,1100.00,M,M,M,-RA,KELM 010953Z 00000KT 10SM -RA OVC011 02/01 A2981 RMK AO2 RAB25SNE25 SLP101 P0001 T00170006
ELM,2017-04-01 09:55,-76.8916,42.1599,M,M,M,0.00,0.00,M,29.81,M,10.00,M,OVC,M,M,M,1100.00,M,M,M,-RA,KELM 010955Z AUTO 00000KT 10SM -RA OVC011 A2981 RMK MADISHF
ELM,2017-04-01 10:00,-76.8916,42.1599,M,M,M,0.00,0.00,M,29.81,M,10.00,M,BKN,OVC,M,M,1100.00,1900.00,M,M,M,KELM 011000Z AUTO 00000KT 10SM BKN011 OVC019 A2981 RMK MADISHF
ELM,2017-04-01 10:05,-76.8916,42.1599,M,M,M,0.00,0.00,M,29.81,M,10.00,M,SCT,OVC,M,M,1100.00,1900.00,M,M,M,KELM 011005Z AUTO 00000KT 10SM SCT011 OVC019 A2981 RMK MADISHF
ELM,2017-04-01 10:10,-76.8916,42.1599,35.10,32.00,88.33,0.00,0.00,0.00,29.81,M,10.00,M,SCT,OVC,M,M,1100.00,1900.00,M,M,M,KELM 011010Z 00000KT 10SM SCT011 OVC019 02/00 A2981 RMK AO2 RAE0956 P0000 T00170000
ELM,2017-04-01 10:15,-76.8916,42.1599,M,M,M,0.00,0.00,M,29.82,M,8.00,M,SCT,OVC,M,M,1100.00,1900.00,M,M,M,KELM 011015Z AUTO 00000KT 8SM SCT011 OVC019 A2982 RMK MADISHF
ELM,2017-04-01 10:20,-76.8916,42.1599,M,M,M,0.00,0.00,M,29.82,M,7.00,M,FEW,OVC,M,M,1100.00,1900.00,M,M,M,KELM 011020Z AUTO 00000KT 7SM FEW011 OVC019 A2982 RMK MADISHF
ELM,2017-04-01 10:25,-76.8916,42.1599,M,M,M,0.00,0.00,M,29.82,M,7.00,M,FEW,OVC,M,M,1200.00,1999.00,M,M,M,KELM 011025Z AUTO 00000KT 7SM FEW012 OVC019 A2982 RMK MADISHF
ELM,2017-04-01 10:30,-76.8916,42.1599,M,M,M,0.00,0.00,M,29.82,M,8.00,M,FEW,SCT,OVC,M,499.00,1800.00,2500.00,M,M,KELM 011030Z AUTO 00000KT 8SM FEW004 SCT018 OVC025 A2982 RMK MADISHF
ELM,2017-04-01 10:35,-76.8916,42.1599,M,M,M,0.00,0.00,M,29.82,M,6.00,M,SCT,BKN,OVC,M,499.00,1800.00,2700.00,M,BR,KELM 011035Z AUTO 00000KT 6SM BR SCT004 BKN018 OVC027 A2982 RMK MADISHF
ELM,2017-04-01 10:36,-76.8916,42.1599,35.10,33.10,92.32,0.00,0.00,0.00,29.82,M,6.00,M,SCT,BKN,OVC,M,500.00,1800.00,2700.00,M,BR,KELM 011036Z 00000KT 6SM BR SCT005 BKN018 OVC027 02/01 A2982 RMK AO2 RAE0956 P0000 T00170006
ELM,2017-04-01 10:40,-76.8916,42.1599,M,M,M,0.00,0.00,M,29.82,M,5.00,M,SCT,BKN,OVC,M,400.00,1800.00,2700.00,M,BR,KELM 011040Z AUTO 00000KT 5SM BR SCT004 BKN018 OVC027 A2982 RMK MADISHF
ELM,2017-04-01 10:45,-76.8916,42.1599,M,M,M,0.00,0.00,M,29.83,M,5.00,M,BKN,BKN,OVC,M,400.00,1600.00,2700.00,M,BR,KELM 011045Z AUTO 00000KT 5SM BR BKN004 BKN016 OVC027 A2983 RMK MADISHF
ELM,2017-04-01 10:50,-76.8916,42.1599,35.60,33.80,93.08,0.00,0.00,0.00,29.83,M,6.00,M,BKN,OVC,M,M,400.00,2800.00,M,M,BR,KELM 011050Z 00000KT 6SM BR BKN004 OVC028 02/01 A2983 RMK AO2 RAE0956 P0000
ELM,2017-04-01 10:53,-76.8916,42.1599,35.10,33.10,92.32,0.00,0.00,0.00,29.83,1010.80,7.00,M,BKN,BKN,OVC,M,400.00,2500.00,3000.00,M,M,KELM 011053Z 00000KT 7SM BKN004 BKN025 OVC030 02/01 A2983 RMK AO2 RAE0956 SLP108 P0000 T00170006
ELM,2017-04-01 10:55,-76.8916,42.1599,M,M,M,0.00,0.00,M,29.83,M,7.00,M,BKN,BKN,OVC,M,400.00,2500.00,3100.00,M,M,KELM 011055Z AUTO 00000KT 7SM BKN004 BKN025 OVC031 A2983 RMK MADISHF
ELM,2017-04-01 11:00,-76.8916,42.1599,M,M,M,0.00,0.00,M,29.83,M,7.00,M,BKN,BKN,OVC,M,400.00,1500.00,2600.00,M,M,KELM 011100Z AUTO 00000KT 7SM BKN004 BKN015 OVC026 A2983 RMK MADISHF
ELM,2017-04-01 11:05,-76.8916,42.1599,M,M,M,0.00,0.00,M,29.83,M,8.00,M,SCT,BKN,OVC,M,400.00,999.00,2600.00,M,M,KELM 011105Z AUTO 00000KT 8SM SCT004 BKN009 OVC026 A2983 RMK MADISHF
ELM,2017-04-01 11:09,-76.8916,42.1599,35.10,33.10,92.32,220.00,3.00,0.00,29.83,M,8.00,M,SCT,BKN,OVC,M,400.00,1300.00,2600.00,M,M,KELM 011109Z 22003KT 8SM SCT004 BKN013 OVC026 02/01 A2983 RMK AO2 T00170006
ELM,2017-04-01 11:10,-76.8916,42.1599,M,M,M,220.00,3.00,M,29.84,M,8.00,M,SCT,BKN,OVC,M,400.00,1699.00,2600.00,M,M,KELM 011110Z AUTO 22003KT 8SM SCT004 BKN016 OVC026 A2984 RMK MADISHF
ELM,2017-04-01 11:15,-76.8916,42.1599,M,M,M,230.00,3.00,M,29.84,M,8.00,M,SCT,BKN,OVC,M,200.00,600.00,2600.00,M,M,KELM 011115Z AUTO 23003KT 8SM SCT002 BKN006 OVC026 A2984 RMK MADISHF
ELM,2017-04-01 11:16,-76.8916,42.1599,35.10,33.10,92.32,230.00,3.00,0.00,29.84,M,8.00,M,SCT,BKN,OVC,M,200.00,600.00,2600.00,M,M,KELM 011116Z 23003KT 8SM SCT002 BKN006 OVC026 02/01 A2984 RMK AO2 T00170006
ELM,2017-04-01 11:20,-76.8916,42.1599,M,M,M,230.00,3.00,M,29.84,M,8.00,M,BKN,BKN,OVC,M,200.00,1699.00,2600.00,M,M,KELM 011120Z AUTO 23003KT 8SM BKN002 BKN016 OVC026 A2984 RMK MADISHF
ELM,2017-04-01 11:24,-76.8916,42.1599,35.10,33.10,92.32,0.00,0.00,0.00,29.84,M,8.00,M,BKN,BKN,OVC,M,200.00,1300.00,2600.00,M,M,KELM 011124Z 00000KT 8SM BKN002 BKN013 OVC026 02/01 A2984 RMK AO2 T00170006
ELM,2017-04-01 11:25,-76.8916,42.1599,M,M,M,0.00,0.00,M,29.84,M,8.00,M,BKN,BKN,OVC,M,200.00,1300.00,2600.00,M,M,KELM 011125Z AUTO 00000KT 8SM BKN002 BKN013 OVC026 A2984 RMK MADISHF
ELM,2017-04-01 11:30,-76.8916,42.1599,M,M,M,0.00,0.00,M,29.85,M,7.00,M,BKN,BKN,OVC,M,200.00,700.00,1600.00,M,M,KELM 011130Z AUTO 00000KT 7SM BKN002 BKN007 OVC016 A2985 RMK MADISHF
ELM,2017-04-01 11:35,-76.8916,42.1599,M,M,M,0.00,0.00,M,29.85,M,7.00,M,BKN,OVC,M,M,200.00,1600.00,M,M,M,KELM 011135Z AUTO 00000KT 7SM BKN002 OVC016 A2985 RMK MADISHF
ELM,2017-04-01 11:40,-76.8916,42.1599,M,M,M,0.00,0.00,M,29.85,M,7.00,M,OVC,M,M,M,200.00,M,M,M,M,KELM 011140Z AUTO 00000KT 7SM OVC002 A2985 RMK MADISHF
ELM,2017-04-01 11:45,-76.8916,42.1599,M,M,M,0.00,0.00,M,29.85,M,7.00,M,OVC,M,M,M,200.00,M,M,M,M,KELM 011145Z AUTO 00000KT 7SM OVC002 A2985 RMK MADISHF
ELM,2017-04-01 11:50,-76.8916,42.1599,M,M,M,0.00,0.00,M,29.85,M,7.00,M,OVC,M,M,M,200.00,M,M,M,M,KELM 011150Z AUTO 00000KT 7SM OVC002 A2985 RMK MADISHF
ELM,2017-04-01 11:53,-76.8916,42.1599,36.00,33.10,89.09,230.00,3.00,0.00,29.86,1011.70,7.00,M,OVC,M,M,M,200.00,M,M,M,M,KELM 011153Z 23003KT 7SM OVC002 02/01 A2986 RMK AO2 SLP117 60003 70030 T00220006 10033 20011 53016
ELM,2017-04-01 11:55,-76.8916,42.1599,M,M,M,240.00,3.00,M,29.86,M,8.00,M,OVC,M,M,M,200.00,M,M,M,M,KELM 011155Z AUTO 24003KT 8SM OVC002 A2986 RMK MADISHF
ELM,2017-04-01 12:00,-76.8916,42.1599,M,M,M,0.00,0.00,M,29.86,M,8.00,M,BKN,OVC,M,M,200.00,1100.00,M,M,M,KELM 011200Z AUTO 00000KT 8SM BKN002 OVC011 A2986 RMK MADISHF
ELM,2017-04-01 12:05,-76.8916,42.1599,M,M,M,0.00,0.00,M,29.86,M,9.00,M,BKN,OVC,M,M,300.00,1100.00,M,M,M,KELM 011205Z AUTO 00000KT 9SM BKN003 OVC011 A2986 RMK MADISHF
ELM,2017-04-01 12:10,-76.8916,42.1599,M,M,M,0.00,0.00,M,29.87,M,10.00,M,BKN,OVC,M,M,300.00,999.00,M,M,M,KELM 011210Z AUTO 00000KT 10SM BKN003 OVC009 A2987 RMK MADISHF
ELM,2017-04-01 12:15,-76.8916,42.1599,M,M,M,0.00,0.00,M,29.87,M,10.00,M,BKN,OVC,M,M,300.00,999.00,M,M,M,KELM 011215Z AUTO 00000KT 10SM BKN003 OVC009 A2987 RMK MADISHF
ELM,2017-04-01 12:20,-76.8916,42.1599,M,M,M,0.00,0.00,M,29.88,M,10.00,M,BKN,OVC,M,M,499.00,999.00,M,M,M,KELM 011220Z AUTO 00000KT 10SM BKN004 OVC009 A2988 RMK MADISHF
ELM,2017-04-01 12:24,-76.8916,42.1599,37.00,34.00,88.78,0.00,0.00,0.00,29.88,M,10.00,M,BKN,OVC,M,M,500.00,1000.00,M,M,M,KELM 011224Z 00000KT 10SM BKN005 OVC010 03/01 A2988 RMK AO2 T00280011
ELM,2017-04-01 12:25,-76.8916,42.1599,M,M,M,0.00,0.00,M,29.88,M,10.00,M,BKN,OVC,M,M,499.00,999.00,M,M,M,KELM 011225Z AUTO 00000KT 10SM BKN004 OVC009 A2988 RMK MADISHF
ELM,2017-04-01 12:30,-76.8916,42.1599,M,M,M,0.00,0.00,M,29.88,M,10.00,M,OVC,M,M,M,700.00,M,M,M,M,KELM 011230Z AUTO 00000KT 10SM OVC007 A2988 RMK CIG 3V11  MADISHF
ELM,2017-04-01 12:35,-76.8916,42.1599,M,M,M,0.00,0.00,M,29.88,M,10.00,M,OVC,M,M,M,700.00,M,M,M,M,KELM 011235Z AUTO 00000KT 10SM OVC007 A2988 RMK CIG 3V11  MADISHF
ELM,2017-04-01 12:40,-76.8916,42.1599,M,M,M,0.00,0.00,M,29.88,M,10.00,M,SCT,OVC,M,M,499.00,999.00,M,M,M,KELM 011240Z AUTO 00000KT 10SM SCT004 OVC009 A2988 RMK MADISHF
ELM,2017-04-01 12:45,-76.8916,42.1599,M,M,M,0.00,0.00,M,29.88,M,10.00,M,SCT,OVC,M,M,499.00,999.00,M,M,M,KELM 011245Z AUTO 00000KT 10SM SCT004 OVC009 A2988 RMK MADISHF
ELM,2017-04-01 12:50,-76.8916,42.1599,M,M,M,20.00,4.00,M,29.88,M,10.00,M,FEW,OVC,M,M,499.00,999.00,M,M,M,KELM 011250Z AUTO 02004KT 10SM FEW004 OVC009 A2988 RMK MADISHF
ELM,2017-04-01 12:53,-76.8916,42.1599,37.90,33.10,82.66,10.00,4.00,0.00,29.88,1012.70,10.00,M,OVC,M,M,M,1000.00,M,M,M,M,KELM 011253Z 01004KT 10SM OVC010 03/01 A2988 RMK AO2 CIG 005V012 SLP127 T00330006
ELM,2017-04-01 12:55,-76.8916,42.1599,M,M,M,340.00,3.00,M,29.89,M,10.00,M,OVC,M,M,M,999.00,M,M,M,M,KELM 011255Z AUTO 34003KT 10SM OVC009 A2989 RMK MADISHF
ELM,2017-04-01 13:00,-76.8916,42.1599,M,M,M,80.00,3.00,M,29.88,M,10.00,M,OVC,M,M,M,999.00,M,M,M,M,KELM 011300Z AUTO 08003KT 10SM OVC009 A2988 RMK MADISHF
ELM,2017-04-01 13:05,-76.8916,42.1599,M,M,M,0.00,0.00,M,29.88,M,10.00,M,OVC,M,M,M,999.00,M,M,M,M,KELM 011305Z AUTO 00000KT 10SM OVC009 A2988 RMK MADISHF
ELM,2017-04-01 13:10,-76.8916,42.1599,M,M,M,0.00,0.00,M,29.89,M,10.00,M,OVC,M,M,M,999.00,M,M,M,M,KELM 011310Z AUTO 00000KT 10SM OVC009 A2989 RMK MADISHF
ELM,2017-04-01 13:15,-76.8916,42.1599,M,M,M,0.00,0.00,M,29.89,M,10.00,M,OVC,M,M,M,900.00,M,M,M,M,KELM 011315Z AUTO 00000KT 10SM OVC009 A2989 RMK MADISHF
ELM,2017-04-01 13:19,-76.8916,42.1599,37.90,34.00,85.69,M,3.00,0.00,29.89,M,10.00,M,OVC,M,M,M,900.00,M,M,M,M,KELM 011319Z VRB03KT 10SM OVC009 03/01 A2989 RMK AO2 T00330011
ELM,2017-04-01 13:20,-76.8916,42.1599,M,M,M,310.00,4.00,M,29.89,M,10.00,M,OVC,M,M,M,900.00,M,M,M,M,KELM 011320Z AUTO 31004KT 10SM OVC009 A2989 RMK MADISHF
ELM,2017-04-01 13:25,-76.8916,42.1599,M,M,M,320.00,3.00,M,29.90,M,10.00,M,OVC,M,M,M,900.00,M,M,M,M,KELM 011325Z AUTO 32003KT 10SM OVC009 A2990 RMK VRB03KT  MADISHF
ELM,2017-04-01 13:30,-76.8916,42.1599,M,M,M,340.00,3.00,M,29.90,M,10.00,M,OVC,M,M,M,900.00,M,M,M,M,KELM 011330Z AUTO 34003KT 10SM OVC009 A2990 RMK MADISHF
ELM,2017-04-01 13:35,-76.8916,42.1599,M,M,M,0.00,0.00,M,29.90,M,10.00,M,OVC,M,M,M,900.00,M,M,M,M,KELM 011335Z AUTO 00000KT 10SM OVC009 A2990 RMK CIG 7V13  MADISHF
ELM,2017-04-01 13:40,-76.8916,42.1599,M,M,M,330.00,4.00,M,29.90,M,10.00,M,OVC,M,M,M,900.00,M,M,M,M,KELM 011340Z AUTO 33004KT 10SM OVC009 A2990 RMK CIG 8V13  MADISHF
ELM,2017-04-01 13:45,-76.8916,42.1599,M,M,M,360.00,6.00,M,29.90,M,10.00,M,BKN,OVC,M,M,900.00,1400.00,M,M,M,KELM 011345Z AUTO 36006KT 10SM BKN009 OVC014 A2990 RMK CIG 8V12  MADISHF
ELM,2017-04-01 13:50,-76.8916,42.1599,M,M,M,350.00,5.00,M,29.91,M,10.00,M,OVC,M,M,M,1100.00,M,M,M,M,KELM 011350Z AUTO 35005KT 10SM OVC011 A2991 RMK MADISHF
ELM,2017-04-01 13:53,-76.8916,42.1599,39.90,34.00,79.25,320.00,5.00,0.00,29.91,1013.40,10.00,M,OVC,M,M,M,1100.00,M,M,M,M,KELM 011353Z 32005KT 10SM OVC011 04/01 A2991 RMK AO2 SLP134 T00440011
ELM,2017-04-01 13:55,-76.8916,42.1599,M,M,M,0.00,0.00,M,29.91,M,10.00,M,OVC,M,M,M,1300.00,M,M,M,M,KELM 011355Z AUTO 00000KT 10SM OVC013 A2991 RMK MADISHF
ELM,2017-04-01 14:00,-76.8916,42.1599,M,M,M,350.00,8.00,M,29.91,M,10.00,M,OVC,M,M,M,1300.00,M,M,M,M,KELM 011400Z AUTO 35008KT 10SM OVC013 A2991 RMK MADISHF
ELM,2017-04-01 14:05,-76.8916,42.1599,M,M,M,340.00,5.00,M,29.91,M,10.00,M,OVC,M,M,M,1300.00,M,M,M,M,KELM 011405Z AUTO 34005KT 10SM OVC013 A2991 RMK MADISHF
ELM,2017-04-01 14:10,-76.8916,42.1599,M,M,M,310.00,4.00,M,29.91,M,10.00,M,OVC,M,M,M,1300.00,M,M,M,M,KELM 011410Z AUTO 31004KT 10SM OVC013 A2991 RMK VRB04KT  MADISHF
ELM,2017-04-01 14:15,-76.8916,42.1599,M,M,M,360.00,3.00,M,29.91,M,10.00,M,OVC,M,M,M,1300.00,M,M,M,M,KELM 011415Z AUTO 36003KT 10SM OVC013 A2991 RMK VRB03KT  MADISHF
ELM,2017-04-01 14:20,-76.8916,42.1599,M,M,M,10.00,6.00,M,29.91,M,10.00,M,OVC,M,M,M,1300.00,M,M,M,M,KELM 011420Z AUTO 01006KT 10SM OVC013 A2991 RMK MADISHF
ELM,2017-04-01 14:25,-76.8916,42.1599,M,M,M,340.00,5.00,M,29.92,M,10.00,M,OVC,M,M,M,1300.00,M,M,M,M,KELM 011425Z AUTO 34005KT 10SM OVC013 A2992 RMK VRB05KT  MADISHF
ELM,2017-04-01 14:30,-76.8916,42.1599,M,M,M,340.00,7.00,M,29.92,M,10.00,M,OVC,M,M,M,1300.00,M,M,M,M,KELM 011430Z AUTO 34007KT 10SM OVC013 A2992 RMK MADISHF
ELM,2017-04-01 14:35,-76.8916,42.1599,M,M,M,340.00,5.00,M,29.92,M,10.00,M,OVC,M,M,M,1300.00,M,M,M,M,KELM 011435Z AUTO 34005KT 10SM OVC013 A2992 RMK MADISHF
ELM,2017-04-01 14:40,-76.8916,42.1599,M,M,M,340.00,6.00,M,29.93,M,10.00,M,OVC,M,M,M,1300.00,M,M,M,M,KELM 011440Z AUTO 34006KT 10SM OVC013 A2993 RMK VRB06KT  MADISHF
ELM,2017-04-01 14:45,-76.8916,42.1599,M,M,M,320.00,7.00,M,29.93,M,10.00,M,OVC,M,M,M,1300.00,M,M,M,M,KELM 011445Z AUTO 32007KT 10SM OVC013 A2993 RMK MADISHF
ELM,2017-04-01 14:50,-76.8916,42.1599,M,M,M,360.00,10.00,M,29.93,M,10.00,M,OVC,M,M,M,1300.00,M,M,M,M,KELM 011450Z AUTO 36010KT 10SM OVC013 A2993 RMK MADISHF
ELM,2017-04-01 14:53,-76.8916,42.1599,39.00,33.10,79.17,330.00,8.00,0.00,29.93,1014.40,10.00,M,OVC,M,M,M,1300.00,M,M,M,M,KELM 011453Z 33008KT 10SM OVC013 04/01 A2993 RMK AO2 SLP144 T00390006 53018
ELM,2017-04-01 14:55,-76.8916,42.1599,M,M,M,350.00,7.00,M,29.94,M,10.00,M,OVC,M,M,M,1300.00,M,M,M,M,KELM 011455Z AUTO 35007KT 10SM OVC013 A2994 RMK MADISHF
ELM,2017-04-01 15:00,-76.8916,42.1599,M,M,M,350.00,5.00,M,29.93,M,10.00,M,OVC,M,M,M,1300.00,M,M,M,M,KELM 011500Z AUTO 35005KT 10SM OVC013 A2993 RMK MADISHF
ELM,2017-04-01 15:05,-76.8916,42.1599,M,M,M,320.00,3.00,M,29.94,M,10.00,M,OVC,M,M,M,1200.00,M,M,M,M,KELM 011505Z AUTO 32003KT 10SM OVC012 A2994 RMK VRB03KT  MADISHF
ELM,2017-04-01 15:10,-76.8916,42.1599,M,M,M,360.00,4.00,M,29.93,M,10.00,M,OVC,M,M,M,1200.00,M,M,M,M,KELM 011510Z AUTO 36004KT 10SM OVC012 A2993 RMK VRB04KT  MADISHF
ELM,2017-04-01 15:15,-76.8916,42.1599,M,M,M,360.00,4.00,M,29.94,M,10.00,M,OVC,M,M,M,1200.00,M,M,M,M,KELM 011515Z AUTO 36004KT 10SM OVC012 A2994 RMK VRB04KT  MADISHF
ELM,2017-04-01 15:20,-76.8916,42.1599,M,M,M,340.00,9.00,M,29.94,M,10.00,M,OVC,M,M,M,1200.00,M,M,M,M,KELM 011520Z AUTO 34009KT 10SM OVC012 A2994 RMK WND 31V01  MADISHF
ELM,2017-04-01 15:25,-76.8916,42.1599,M,M,M,340.00,9.00,M,29.94,M,10.00,M,OVC,M,M,M,1200.00,M,M,M,M,KELM 011525Z AUTO 34009KT 10SM OVC012 A2994 RMK MADISHF
ELM,2017-04-01 15:30,-76.8916,42.1599,M,M,M,340.00,6.00,M,29.95,M,10.00,M,OVC,M,M,M,1400.00,M,M,M,M,KELM 011530Z AUTO 34006KT 10SM OVC014 A2995 RMK VRB06KT  MADISHF
ELM,2017-04-01 15:35,-76.8916,42.1599,M,M,M,350.00,9.00,M,29.95,M,10.00,14.00,OVC,M,M,M,1400.00,M,M,M,M,KELM 011535Z AUTO 35009G14KT 10SM OVC014 A2995 RMK MADISHF
ELM,2017-04-01 15:40,-76.8916,42.1599,M,M,M,340.00,9.00,M,29.95,M,10.00,M,OVC,M,M,M,1400.00,M,M,M,M,KELM 011540Z AUTO 34009KT 10SM OVC014 A2995 RMK MADISHF
ELM,2017-04-01 15:45,-76.8916,42.1599,M,M,M,330.00,7.00,M,29.95,M,10.00,M,OVC,M,M,M,1400.00,M,M,M,M,KELM 011545Z AUTO 33007KT 10SM OVC014 A2995 RMK MADISHF
ELM,2017-04-01 15:50,-76.8916,42.1599,M,M,M,310.00,10.00,M,29.95,M,9.00,M,BKN,OVC,M,M,1400.00,2200.00,M,M,M,KELM 011550Z AUTO 31010KT 9SM BKN014 OVC022 A2995 RMK MADISHF
ELM,2017-04-01 15:53,-76.8916,42.1599,39.00,33.10,79.17,M,5.00,0.00,29.95,1015.10,9.00,16.00,BKN,OVC,M,M,1400.00,2200.00,M,M,M,KELM 011553Z VRB05G16KT 9SM BKN014 OVC022 04/01 A2995 RMK AO2 SLP151 T00390006
ELM,2017-04-01 15:55,-76.8916,42.1599,M,M,M,310.00,7.00,M,29.95,M,9.00,M,BKN,OVC,M,M,1400.00,2200.00,M,M,M,KELM 011555Z AUTO 31007KT 9SM BKN014 OVC022 A2995 RMK MADISHF
ELM,2017-04-01 16:00,-76.8916,42.1599,M,M,M,320.00,5.00,M,29.95,M,10.00,M,OVC,M,M,M,1699.00,M,M,M,M,KELM 011600Z AUTO 32005KT 10SM OVC016 A2995 RMK MADISHF
ELM,2017-04-01 16:05,-76.8916,42.1599,M,M,M,330.00,8.00,M,29.95,M,10.00,M,OVC,M,M,M,1699.00,M,M,M,M,KELM 011605Z AUTO 33008KT 10SM OVC016 A2995 RMK MADISHF
ELM,2017-04-01 16:06,-76.8916,42.1599,39.90,33.10,76.44,340.00,8.00,0.00,29.95,M,10.00,M,OVC,M,M,M,1700.00,M,M,M,M,KELM 011606Z 34008KT 10SM OVC017 04/01 A2995 RMK AO2 T00440006
ELM,2017-04-01 16:10,-76.8916,42.1599,M,M,M,350.00,6.00,M,29.95,M,10.00,M,OVC,M,M,M,1699.00,M,M,M,M,KELM 011610Z AUTO 35006KT 10SM OVC016 A2995 RMK MADISHF
ELM,2017-04-01 16:15,-76.8916,42.1599,M,M,M,360.00,9.00,M,29.95,M,10.00,14.00,OVC,M,M,M,1699.00,M,M,M,M,KELM 011615Z AUTO 36009G14KT 10SM OVC016 A2995 RMK MADISHF
ELM,2017-04-01 16:20,-76.8916,42.1599,M,M,M,360.00,9.00,M,29.95,M,10.00,M,OVC,M,M,M,1699.00,M,M,M,M,KELM 011620Z AUTO 36009KT 10SM OVC016 A2995 RMK MADISHF
ELM,2017-04-01 16:25,-76.8916,42.1599,M,M,M,350.00,9.00,M,29.95,M,10.00,M,OVC,M,M,M,1699.00,M,M,M,M,KELM 011625Z AUTO 35009KT 10SM OVC016 A2995 RMK MADISHF
ELM,2017-04-01 16:30,-76.8916,42.1599,M,M,M,350.00,8.00,M,29.95,M,10.00,M,OVC,M,M,M,1699.00,M,M,M,M,KELM 011630Z AUTO 35008KT 10SM OVC016 A2995 RMK MADISHF
ELM,2017-04-01 16:35,-76.8916,42.1599,M,M,M,350.00,6.00,M,29.96,M,10.00,M,OVC,M,M,M,1699.00,M,M,M,M,KELM 011635Z AUTO 35006KT 10SM OVC016 A2996 RMK MADISHF
ELM,2017-04-01 16:40,-76.8916,42.1599,M,M,M,360.00,8.00,M,29.96,M,10.00,M,OVC,M,M,M,1699.00,M,M,M,M,KELM 011640Z AUTO 36008KT 10SM OVC016 A2996 RMK MADISHF
ELM,2017-04-01 16:45,-76.8916,42.1599,M,M,M,360.00,9.00,M,29.95,M,10.00,M,OVC,M,M,M,1699.00,M,M,M,M,KELM 011645Z AUTO 36009KT 10SM OVC016 A2995 RMK MADISHF
ELM,2017-04-01 16:50,-76.8916,42.1599,M,M,M,10.00,7.00,M,29.96,M,10.00,M,OVC,M,M,M,1699.00,M,M,M,M,KELM 011650Z AUTO 01007KT 10SM OVC016 A2996 RMK MADISHF
ELM,2017-04-01 16:53,-76.8916,42.1599,39.90,33.10,76.44,10.00,8.00,0.00,29.96,1015.20,10.00,M,BKN,OVC,M,M,1700.00,2300.00,M,M,M,KELM 011653Z 01008KT 10SM BKN017 OVC023 04/01 A2996 RMK AO2 SLP152 T00440006
ELM,2017-04-01 16:55,-76.8916,42.1599,M,M,M,350.00,10.00,M,29.96,M,10.00,M,BKN,OVC,M,M,1699.00,2300.00,M,M,M,KELM 011655Z AUTO 35010KT 10SM BKN016 OVC023 A2996 RMK MADISHF
ELM,2017-04-01 17:00,-76.8916,42.1599,M,M,M,20.00,6.00,M,29.96,M,10.00,M,OVC,M,M,M,1999.00,M,M,M,M,KELM 011700Z AUTO 02006KT 10SM OVC019 A2996 RMK MADISHF
ELM,2017-04-01 17:05,-76.8916,42.1599,M,M,M,330.00,8.00,M,29.96,M,10.00,M,OVC,M,M,M,1999.00,M,M,M,M,KELM 011705Z AUTO 33008KT 10SM OVC019 A2996 RMK MADISHF
ELM,2017-04-01 17:10,-76.8916,42.1599,M,M,M,360.00,7.00,M,29.96,M,10.00,M,OVC,M,M,M,1999.00,M,M,M,M,KELM 011710Z AUTO 36007KT 10SM OVC019 A2996 RMK WND 31V04  MADISHF
ELM,2017-04-01 17:15,-76.8916,42.1599,M,M,M,20.00,5.00,M,29.96,M,10.00,M,OVC,M,M,M,1800.00,M,M,M,M,KELM 011715Z AUTO 02005KT 10SM OVC018 A2996 RMK MADISHF
ELM,2017-04-01 17:20,-76.8916,42.1599,M,M,M,10.00,5.00,M,29.96,M,10.00,M,BKN,OVC,M,M,1800.00,2400.00,M,M,M,KELM 011720Z AUTO 01005KT 10SM BKN018 OVC024 A2996 RMK VRB05KT  MADISHF
ELM,2017-04-01 17:25,-76.8916,42.1599,M,M,M,350.00,6.00,M,29.96,M,10.00,M,OVC,M,M,M,1999.00,M,M,M,M,KELM 011725Z AUTO 35006KT 10SM OVC019 A2996 RMK VRB06KT  MADISHF
ELM,2017-04-01 17:30,-76.8916,42.1599,M,M,M,340.00,6.00,M,29.96,M,10.00,M,BKN,OVC,M,M,1800.00,2400.00,M,M,M,KELM 011730Z AUTO 34006KT 10SM BKN018 OVC024 A2996 RMK MADISHF
ELM,2017-04-01 17:35,-76.8916,42.1599,M,M,M,340.00,4.00,M,29.96,M,10.00,M,SCT,OVC,M,M,1699.00,2300.00,M,M,M,KELM 011735Z AUTO 34004KT 10SM SCT016 OVC023 A2996 RMK MADISHF
ELM,2017-04-01 17:40,-76.8916,42.1599,M,M,M,330.00,9.00,M,29.96,M,10.00,M,BKN,OVC,M,M,1800.00,2400.00,M,M,M,KELM 011740Z AUTO 33009KT 10SM BKN018 OVC024 A2996 RMK WND 30V01  MADISHF
ELM,2017-04-01 17:45,-76.8916,42.1599,M,M,M,340.00,7.00,M,29.97,M,10.00,M,BKN,OVC,M,M,1900.00,2400.00,M,M,M,KELM 011745Z AUTO 34007KT 10SM BKN019 OVC024 A2997 RMK MADISHF
ELM,2017-04-01 17:50,-76.8916,42.1599,M,M,M,10.00,6.00,M,29.96,M,10.00,M,BKN,OVC,M,M,2200.00,2900.00,M,M,M,KELM 011750Z AUTO 01006KT 10SM BKN022 OVC029 A2996 RMK MADISHF
ELM,2017-04-01 17:53,-76.8916,42.1599,42.10,33.10,70.20,30.00,8.00,0.00,29.96,1015.30,10.00,M,SCT,OVC,M,M,2000.00,2600.00,M,M,M,KELM 011753Z 03008KT 10SM SCT020 OVC026 06/01 A2996 RMK AO2 SLP153 T00560006 10056 20022 51009
ELM,2017-04-01 17:55,-76.8916,42.1599,M,M,M,30.00,10.00,M,29.96,M,10.00,M,SCT,OVC,M,M,1999.00,2800.00,M,M,M,KELM 011755Z AUTO 03010KT 10SM SCT019 OVC028 A2996 RMK MADISHF
ELM,2017-04-01 18:00,-76.8916,42.1599,M,M,M,30.00,9.00,M,29.96,M,10.00,M,SCT,OVC,M,M,1999.00,2600.00,M,M,M,KELM 011800Z AUTO 03009KT 10SM SCT019 OVC026 A2996 RMK MADISHF
ELM,2017-04-01 18:05,-76.8916,42.1599,M,M,M,20.00,9.00,M,29.97,M,10.00,M,FEW,OVC,M,M,1999.00,2600.00,M,M,M,KELM 011805Z AUTO 02009KT 10SM FEW019 OVC026 A2997 RMK MADISHF
ELM,2017-04-01 18:10,-76.8916,42.1599,M,M,M,20.00,8.00,M,29.97,M,10.00,M,OVC,M,M,M,2600.00,M,M,M,M,KELM 011810Z AUTO 02008KT 10SM OVC026 A2997 RMK MADISHF
ELM,2017-04-01 18:15,-76.8916,42.1599,M,M,M,350.00,6.00,M,29.97,M,10.00,M,BKN,OVC,M,M,2400.00,2900.00,M,M,M,KELM 011815Z AUTO 35006KT 10SM BKN024 OVC029 A2997 RMK MADISHF
ELM,2017-04-01 18:20,-76.8916,42.1599,M,M,M,350.00,8.00,M,29.97,M,10.00,M,OVC,M,M,M,2400.00,M,M,M,M,KELM 011820Z AUTO 35008KT 10SM OVC024 A2997 RMK MADISHF
ELM,2017-04-01 18:25,-76.8916,42.1599,M,M,M,340.00,7.00,M,29.97,M,10.00,M,OVC,M,M,M,2400.00,M,M,M,M,KELM 011825Z AUTO 34007KT 10SM OVC024 A2997 RMK MADISHF
ELM,2017-04-01 18:30,-76.8916,42.1599,M,M,M,350.00,10.00,M,29.97,M,10.00,M,BKN,OVC,M,M,2400.00,3000.00,M,M,M,KELM 011830Z AUTO 35010KT 10SM BKN024 OVC030 A2997 RMK MADISHF
ELM,2017-04-01 18:35,-76.8916,42.1599,M,M,M,20.00,7.00,M,29.97,M,10.00,M,BKN,OVC,M,M,2400.00,3000.00,M,M,M,KELM 011835Z AUTO 02007KT 10SM BKN024 OVC030 A2997 RMK MADISHF
ELM,2017-04-01 18:40,-76.8916,42.1599,M,M,M,10.00,7.00,M,29.97,M,10.00,M,BKN,OVC,M,M,2400.00,3000.00,M,M,M,KELM 011840Z AUTO 01007KT 10SM BKN024 OVC030 A2997 RMK MADISHF
ELM,2017-04-01 18:45,-76.8916,42.1599,M,M,M,10.00,6.00,M,29.97,M,10.00,M,OVC,M,M,M,2600.00,M,M,M,M,KELM 011845Z AUTO 01006KT 10SM OVC026 A2997 RMK MADISHF
ELM,2017-04-01 18:50,-76.8916,42.1599,M,M,M,350.00,5.00,M,29.97,M,10.00,M,OVC,M,M,M,2600.00,M,M,M,M,KELM 011850Z AUTO 35005KT 10SM OVC026 A2997 RMK VRB05KT  MADISHF
ELM,2017-04-01 18:53,-76.8916,42.1599,42.10,33.10,70.20,360.00,9.00,0.00,29.97,1015.60,10.00,M,BKN,OVC,M,M,2500.00,3000.00,M,M,M,KELM 011853Z AUTO 36009KT 10SM BKN025 OVC030 06/01 A2997 RMK AO2 SLP156 T00560006
ELM,2017-04-01 18:55,-76.8916,42.1599,M,M,M,360.00,8.00,M,29.97,M,10.00,M,OVC,M,M,M,2700.00,M,M,M,M,KELM 011855Z AUTO 36008KT 10SM OVC027 A2997 RMK MADISHF
ELM,2017-04-01 19:00,-76.8916,42.1599,M,M,M,360.00,8.00,M,29.97,M,10.00,M,SCT,OVC,M,M,2200.00,2700.00,M,M,M,KELM 011900Z AUTO 36008KT 10SM SCT022 OVC027 A2997 RMK MADISHF
ELM,2017-04-01 19:05,-76.8916,42.1599,M,M,M,320.00,5.00,M,29.97,M,10.00,M,SCT,OVC,M,M,2200.00,2900.00,M,M,M,KELM 011905Z AUTO 32005KT 10SM SCT022 OVC029 A2997 RMK VRB05KT  MADISHF
ELM,2017-04-01 19:10,-76.8916,42.1599,M,M,M,310.00,7.00,M,29.98,M,10.00,M,BKN,OVC,M,M,1999.00,2900.00,M,M,M,KELM 011910Z AUTO 31007KT 10SM BKN019 OVC029 A2998 RMK MADISHF
ELM,2017-04-01 19:15,-76.8916,42.1599,M,M,M,320.00,10.00,M,29.98,M,9.00,M,BKN,OVC,M,M,1999.00,2900.00,M,M,-RA,KELM 011915Z AUTO 32010KT 9SM -RA BKN019 OVC029 A2998 RMK MADISHF
ELM,2017-04-01 19:20,-76.8916,42.1599,M,M,M,310.00,6.00,M,29.98,M,9.00,M,BKN,BKN,OVC,M,1999.00,2500.00,3200.00,M,-RA,KELM 011920Z AUTO 31006KT 9SM -RA BKN019 BKN025 OVC032 A2998 RMK MADISHF
ELM,2017-04-01 19:25,-76.8916,42.1599,M,M,M,340.00,3.00,M,29.98,M,10.00,M,BKN,BKN,OVC,M,1999.00,2500.00,3200.00,M,-RA,KELM 011925Z AUTO 34003KT 10SM -RA BKN019 BKN025 OVC032 A2998 RMK MADISHF
ELM,2017-04-01 19:30,-76.8916,42.1599,M,M,M,300.00,5.00,M,29.98,M,10.00,M,BKN,BKN,OVC,M,1999.00,2500.00,3100.00,M,M,KELM 011930Z AUTO 30005KT 10SM BKN019 BKN025 OVC031 A2998 RMK MADISHF
ELM,2017-04-01 19:35,-76.8916,42.1599,M,M,M,340.00,8.00,M,29.98,M,10.00,M,BKN,OVC,M,M,1999.00,3100.00,M,M,M,KELM 011935Z AUTO 34008KT 10SM BKN019 OVC031 A2998 RMK MADISHF
ELM,2017-04-01 19:40,-76.8916,42.1599,M,M,M,330.00,10.00,M,29.99,M,7.00,M,BKN,OVC,M,M,1999.00,3100.00,M,M,-RA,KELM 011940Z AUTO 33010KT 7SM -RA BKN019 OVC031 A2999 RMK MADISHF
ELM,2017-04-01 19:45,-76.8916,42.1599,M,M,M,350.00,5.00,M,29.99,M,6.00,M,BKN,BKN,OVC,M,2200.00,2900.00,3399.00,M,-RA,KELM 011945Z AUTO 35005KT 6SM -RA BKN022 BKN029 OVC033 A2999 RMK MADISHF
ELM,2017-04-01 19:50,-76.8916,42.1599,M,M,M,340.00,8.00,M,29.99,M,9.00,M,FEW,BKN,OVC,M,1999.00,2500.00,3200.00,M,-RA,KELM 011950Z AUTO 34008KT 9SM -RA FEW019 BKN025 OVC032 A2999 RMK MADISHF
ELM,2017-04-01 19:53,-76.8916,42.1599,42.10,34.00,72.78,10.00,7.00,0.00,29.99,1016.10,10.00,M,FEW,SCT,OVC,M,2000.00,2500.00,3200.00,M,M,KELM 011953Z AUTO 01007KT 10SM FEW020 SCT025 OVC032 06/01 A2999 RMK AO2 RAB14E53 SLP161 P0000 T00560011
ELM,2017-04-01 19:55,-76.8916,42.1599,M,M,M,350.00,10.00,M,29.98,M,10.00,M,FEW,SCT,OVC,M,1999.00,2500.00,3200.00,M,M,KELM 011955Z AUTO 35010KT 10SM FEW019 SCT025 OVC032 A2998 RMK MADISHF
ELM,2017-04-01 20:00,-76.8916,42.1599,M,M,M,340.00,6.00,M,29.99,M,9.00,M,FEW,SCT,OVC,M,1900.00,2500.00,3200.00,M,-RA,KELM 012000Z AUTO 34006KT 9SM -RA FEW019 SCT025 OVC032 A2999 RMK MADISHF
ELM,2017-04-01 20:05,-76.8916,42.1599,M,M,M,360.00,9.00,M,29.99,M,9.00,M,FEW,OVC,M,M,2500.00,3200.00,M,M,-RA,KELM 012005Z AUTO 36009KT 9SM -RA FEW025 OVC032 A2999 RMK MADISHF
ELM,2017-04-01 20:10,-76.8916,42.1599,M,M,M,340.00,7.00,M,29.99,M,10.00,M,OVC,M,M,M,3200.00,M,M,M,-RA,KELM 012010Z AUTO 34007KT 10SM -RA OVC032 A2999 RMK MADISHF
ELM,2017-04-01 20:15,-76.8916,42.1599,M,M,M,340.00,9.00,M,30.00,M,9.00,M,OVC,M,M,M,3200.00,M,M,M,-RA,KELM 012015Z AUTO 34009KT 9SM -RA OVC032 A3000 RMK MADISHF
ELM,2017-04-01 20:20,-76.8916,42.1599,M,M,M,340.00,8.00,M,30.00,M,6.00,M,FEW,OVC,M,M,2200.00,3200.00,M,M,-RA,KELM 012020Z AUTO 34008KT 6SM -RA FEW022 OVC032 A3000 RMK MADISHF
ELM,2017-04-01 20:25,-76.8916,42.1599,M,M,M,350.00,9.00,M,30.00,M,7.00,M,FEW,OVC,M,M,2200.00,3000.00,M,M,-RA,KELM 012025Z AUTO 35009KT 7SM -RA FEW022 OVC030 A3000 RMK MADISHF
ELM,2017-04-01 20:30,-76.8916,42.1599,M,M,M,360.00,7.00,M,30.00,M,10.00,M,FEW,BKN,OVC,M,1800.00,2700.00,3300.00,M,M,KELM 012030Z AUTO 36007KT 10SM FEW018 BKN027 OVC033 A3000 RMK MADISHF
ELM,2017-04-01 20:34,-76.8916,42.1599,41.00,35.10,79.34,350.00,7.00,0.00,30.00,M,10.00,M,SCT,BKN,OVC,M,1800.00,2700.00,3300.00,M,M,KELM 012034Z AUTO 35007KT 10SM SCT018 BKN027 OVC033 05/02 A3000 RMK AO2 RAB1956E28 P0000 T00500017
ELM,2017-04-01 20:35,-76.8916,42.1599,M,M,M,350.00,7.00,M,30.00,M,10.00,M,SCT,BKN,OVC,M,1800.00,2300.00,3000.00,M,M,KELM 012035Z AUTO 35007KT 10SM SCT018 BKN023 OVC030 A3000 RMK MADISHF
ELM,2017-04-01 20:40,-76.8916,42.1599,M,M,M,340.00,6.00,M,30.01,M,10.00,M,BKN,BKN,OVC,M,1800.00,2600.00,3300.00,M,M,KELM 012040Z AUTO 34006KT 10SM BKN018 BKN026 OVC033 A3001 RMK MADISHF
ELM,2017-04-01 20:45,-76.8916,42.1599,M,M,M,340.00,6.00,M,30.01,M,10.00,M,BKN,BKN,OVC,M,1800.00,2600.00,3100.00,M,M,KELM 012045Z AUTO 34006KT 10SM BKN018 BKN026 OVC031 A3001 RMK MADISHF
ELM,2017-04-01 20:50,-76.8916,42.1599,M,M,M,360.00,4.00,M,30.01,M,10.00,M,BKN,OVC,M,M,1800.00,2800.00,M,M,M,KELM 012050Z AUTO 36004KT 10SM BKN018 OVC028 A3001 RMK MADISHF
ELM,2017-04-01 20:53,-76.8916,42.1599,41.00,33.10,73.25,M,5.00,0.00,30.01,1017.00,10.00,M,OVC,M,M,M,1900.00,M,M,M,M,KELM 012053Z AUTO VRB05KT 10SM OVC019 05/01 A3001 RMK AO2 RAB1956E28 SLP170 P0000 60000 T00500006 53015
ELM,2017-04-01 20:55,-76.8916,42.1599,M,M,M,10.00,7.00,M,30.01,M,10.00,M,OVC,M,M,M,1900.00,M,M,M,M,KELM 012055Z AUTO 01007KT 10SM OVC019 A3001 RMK WND 33V05  MADISHF
ELM,2017-04-01 21:00,-76.8916,42.1599,M,M,M,350.00,3.00,M,30.01,M,10.00,M,OVC,M,M,M,1900.00,M,M,M,M,KELM 012100Z AUTO 35003KT 10SM OVC019 A3001 RMK MADISHF
ELM,2017-04-01 21:05,-76.8916,42.1599,M,M,M,330.00,6.00,M,30.01,M,10.00,M,OVC,M,M,M,1900.00,M,M,M,M,KELM 012105Z AUTO 33006KT 10SM OVC019 A3001 RMK MADISHF
ELM,2017-04-01 21:10,-76.8916,42.1599,M,M,M,360.00,7.00,M,30.02,M,10.00,M,OVC,M,M,M,1900.00,M,M,M,M,KELM 012110Z AUTO 36007KT 10SM OVC019 A3002 RMK MADISHF
ELM,2017-04-01 21:15,-76.8916,42.1599,M,M,M,350.00,9.00,M,30.02,M,10.00,M,OVC,M,M,M,1699.00,M,M,M,M,KELM 012115Z AUTO 35009KT 10SM OVC016 A3002 RMK MADISHF
ELM,2017-04-01 21:20,-76.8916,42.1599,M,M,M,340.00,6.00,M,30.03,M,10.00,M,OVC,M,M,M,1699.00,M,M,M,M,KELM 012120Z AUTO 34006KT 10SM OVC016 A3003 RMK MADISHF
ELM,2017-04-01 21:25,-76.8916,42.1599,M,M,M,350.00,9.00,M,30.03,M,10.00,M,OVC,M,M,M,1699.00,M,M,M,M,KELM 012125Z AUTO 35009KT 10SM OVC016 A3003 RMK MADISHF
ELM,2017-04-01 21:30,-76.8916,42.1599,M,M,M,340.00,8.00,M,30.03,M,10.00,M,OVC,M,M,M,1699.00,M,M,M,M,KELM 012130Z AUTO 34008KT 10SM OVC016 A3003 RMK MADISHF
ELM,2017-04-01 21:35,-76.8916,42.1599,M,M,M,360.00,7.00,M,30.04,M,10.00,M,OVC,M,M,M,1699.00,M,M,M,M,KELM 012135Z AUTO 36007KT 10SM OVC016 A3004 RMK MADISHF
ELM,2017-04-01 21:40,-76.8916,42.1599,M,M,M,320.00,7.00,M,30.04,M,10.00,M,OVC,M,M,M,1699.00,M,M,M,M,KELM 012140Z AUTO 32007KT 10SM OVC016 A3004 RMK MADISHF
ELM,2017-04-01 21:45,-76.8916,42.1599,M,M,M,310.00,9.00,M,30.05,M,10.00,M,OVC,M,M,M,1699.00,M,M,M,M,KELM 012145Z AUTO 31009KT 10SM OVC016 A3005 RMK MADISHF
ELM,2017-04-01 21:50,-76.8916,42.1599,M,M,M,320.00,7.00,M,30.05,M,10.00,M,OVC,M,M,M,1699.00,M,M,M,M,KELM 012150Z AUTO 32007KT 10SM OVC016 A3005 RMK MADISHF
ELM,2017-04-01 21:53,-76.8916,42.1599,39.90,33.10,76.44,340.00,7.00,0.00,30.05,1018.40,10.00,M,OVC,M,M,M,1700.00,M,M,M,M,KELM 012153Z AUTO 34007KT 10SM OVC017 04/01 A3005 RMK AO2 SLP184 T00440006
ELM,2017-04-01 21:55,-76.8916,42.1599,M,M,M,330.00,8.00,M,30.05,M,10.00,M,OVC,M,M,M,1699.00,M,M,M,M,KELM 012155Z AUTO 33008KT 10SM OVC016 A3005 RMK MADISHF
ELM,2017-04-01 22:00,-76.8916,42.1599,M,M,M,300.00,9.00,M,30.05,M,10.00,M,OVC,M,M,M,1699.00,M,M,M,M,KELM 012200Z AUTO 30009KT 10SM OVC016 A3005 RMK MADISHF
ELM,2017-04-01 22:05,-76.8916,42.1599,M,M,M,330.00,7.00,M,30.05,M,10.00,M,OVC,M,M,M,1600.00,M,M,M,M,KELM 012205Z AUTO 33007KT 10SM OVC016 A3005 RMK MADISHF
ELM,2017-04-01 22:10,-76.8916,42.1599,M,M,M,320.00,4.00,M,30.05,M,10.00,M,OVC,M,M,M,1600.00,M,M,M,M,KELM 012210Z AUTO 32004KT 10SM OVC016 A3005 RMK MADISHF
ELM,2017-04-01 22:15,-76.8916,42.1599,M,M,M,320.00,6.00,M,30.06,M,10.00,M,OVC,M,M,M,1600.00,M,M,M,M,KELM 012215Z AUTO 32006KT 10SM OVC016 A3006 RMK MADISHF
ELM,2017-04-01 22:20,-76.8916,42.1599,M,M,M,310.00,5.00,M,30.06,M,10.00,M,OVC,M,M,M,1500.00,M,M,M,M,KELM 012220Z AUTO 31005KT 10SM OVC015 A3006 RMK MADISHF
ELM,2017-04-01 22:25,-76.8916,42.1599,M,M,M,300.00,8.00,M,30.06,M,10.00,M,OVC,M,M,M,1500.00,M,M,M,M,KELM 012225Z AUTO 30008KT 10SM OVC015 A3006 RMK MADISHF
ELM,2017-04-01 22:30,-76.8916,42.1599,M,M,M,330.00,6.00,M,30.06,M,10.00,M,OVC,M,M,M,1400.00,M,M,M,M,KELM 012230Z AUTO 33006KT 10SM OVC014 A3006 RMK MADISHF
ELM,2017-04-01 22:32,-76.8916,42.1599,39.90,33.10,76.44,330.00,5.00,0.00,30.06,M,10.00,M,OVC,M,M,M,1400.00,M,M,M,M,KELM 012232Z AUTO 33005KT 10SM OVC014 04/01 A3006 RMK AO2 T00440006
ELM,2017-04-01 22:35,-76.8916,42.1599,M,M,M,300.00,9.00,M,30.06,M,10.00,M,OVC,M,M,M,1600.00,M,M,M,-RA,KELM 012235Z AUTO 30009KT 10SM -RA OVC016 A3006 RMK MADISHF
ELM,2017-04-01 22:39,-76.8916,42.1599,39.00,33.10,79.17,320.00,7.00,0.00,30.07,M,10.00,M,OVC,M,M,M,1600.00,M,M,M,-RA,KELM 012239Z AUTO 32007KT 10SM -RA OVC016 04/01 A3007 RMK AO2 RAB35 P0000 T00390006
ELM,2017-04-01 22:40,-76.8916,42.1599,M,M,M,310.00,6.00,M,30.07,M,10.00,M,OVC,M,M,M,1600.00,M,M,M,-RA,KELM 012240Z AUTO 31006KT 10SM -RA OVC016 A3007 RMK MADISHF
ELM,2017-04-01 22:45,-76.8916,42.1599,M,M,M,320.00,4.00,M,30.07,M,10.00,M,OVC,M,M,M,1600.00,M,M,M,-RA,KELM 012245Z AUTO 32004KT 10SM -RA OVC016 A3007 RMK MADISHF
ELM,2017-04-01 22:50,-76.8916,42.1599,M,M,M,300.00,4.00,M,30.06,M,9.00,M,OVC,M,M,M,1600.00,M,M,M,-RA,KELM 012250Z AUTO 30004KT 9SM -RA OVC016 A3006 RMK MADISHF
ELM,2017-04-01 22:53,-76.8916,42.1599,39.00,33.10,79.17,0.00,0.00,0.00,30.07,1018.90,7.00,M,OVC,M,M,M,1700.00,M,M,M,-RA,KELM 012253Z AUTO 00000KT 7SM -RA OVC017 04/01 A3007 RMK AO2 RAB35 SLP189 P0000 T00390006
ELM,2017-04-01 22:55,-76.8916,42.1599,M,M,M,0.00,0.00,M,30.07,M,6.00,M,OVC,M,M,M,1699.00,M,M,M,-RA,KELM 012255Z AUTO 00000KT 6SM -RA OVC016 A3007 RMK MADISHF
ELM,2017-04-01 23:00,-76.8916,42.1599,M,M,M,320.00,4.00,M,30.07,M,6.00,M,OVC,M,M,M,1699.00,M,M,M,-RA,KELM 012300Z AUTO 32004KT 6SM -RA OVC016 A3007 RMK MADISHF
ELM,2017-04-01 23:05,-76.8916,42.1599,M,M,M,320.00,4.00,M,30.07,M,10.00,M,OVC,M,M,M,1500.00,M,M,M,-RA,KELM 012305Z AUTO 32004KT 10SM -RA OVC015 A3007 RMK MADISHF
ELM,2017-04-01 23:10,-76.8916,42.1599,M,M,M,290.00,5.00,M,30.07,M,10.00,M,OVC,M,M,M,1500.00,M,M,M,-RA,KELM 012310Z AUTO 29005KT 10SM -RA OVC015 A3007 RMK MADISHF
ELM,2017-04-01 23:15,-76.8916,42.1599,M,M,M,320.00,6.00,M,30.07,M,10.00,M,OVC,M,M,M,1300.00,M,M,M,-RA,KELM 012315Z AUTO 32006KT 10SM -RA OVC013 A3007 RMK MADISHF
ELM,2017-04-01 23:17,-76.8916,42.1599,39.00,33.10,79.17,330.00,7.00,0.00,30.07,M,10.00,M,OVC,M,M,M,1300.00,M,M,M,-RA,KELM 012317Z AUTO 33007KT 10SM -RA OVC013 04/01 A3007 RMK AO2 P0000 T00390006
ELM,2017-04-01 23:20,-76.8916,42.1599,M,M,M,320.00,7.00,M,30.07,M,10.00,M,OVC,M,M,M,1300.00,M,M,M,-RA,KELM 012320Z AUTO 32007KT 10SM -RA OVC013 A3007 RMK MADISHF
ELM,2017-04-01 23:25,-76.8916,42.1599,M,M,M,310.00,5.00,M,30.07,M,10.00,M,OVC,M,M,M,1300.00,M,M,M,M,KELM 012325Z AUTO 31005KT 10SM OVC013 A3007 RMK MADISHF
ELM,2017-04-01 23:30,-76.8916,42.1599,M,M,M,320.00,3.00,M,30.07,M,10.00,M,OVC,M,M,M,1300.00,M,M,M,M,KELM 012330Z AUTO 32003KT 10SM OVC013 A3007 RMK MADISHF
ELM,2017-04-01 23:35,-76.8916,42.1599,M,M,M,310.00,5.00,M,30.07,M,10.00,M,OVC,M,M,M,1100.00,M,M,M,M,KELM 012335Z AUTO 31005KT 10SM OVC011 A3007 RMK MADISHF
ELM,2017-04-01 23:40,-76.8916,42.1599,M,M,M,310.00,7.00,M,30.07,M,10.00,M,OVC,M,M,M,1100.00,M,M,M,M,KELM 012340Z AUTO 31007KT 10SM OVC011 A3007 RMK MADISHF
ELM,2017-04-01 23:45,-76.8916,42.1599,M,M,M,300.00,11.00,M,30.07,M,10.00,M,OVC,M,M,M,1100.00,M,M,M,M,KELM 012345Z AUTO 30011KT 10SM OVC011 A3007 RMK MADISHF
ELM,2017-04-01 23:50,-76.8916,42.1599,M,M,M,320.00,8.00,M,30.07,M,10.00,M,OVC,M,M,M,1100.00,M,M,M,M,KELM 012350Z AUTO 32008KT 10SM OVC011 A3007 RMK MADISHF
ELM,2017-04-01 23:53,-76.8916,42.1599,37.90,33.10,82.66,310.00,5.00,0.00,30.07,1019.10,10.00,15.00,OVC,M,M,M,1100.00,M,M,M,M,KELM 012353Z AUTO 31005G15KT 10SM OVC011 03/01 A3007 RMK AO2 RAE22 SLP191 P0000 60000 T00330006 10061 20033 51021
ELM,2017-04-01 23:55,-76.8916,42.1599,M,M,M,320.00,3.00,M,30.07,M,10.00,M,OVC,M,M,M,1100.00,M,M,M,M,KELM 012355Z AUTO 32003KT 10SM OVC011 A3007 RMK MADISHF
