#DEBUG: Format Typ    -> comma
#DEBUG: Time Period   -> 2017-04-01 00:00:00+00:00 2017-04-02 00:00:00+00:00
#DEBUG: Time Zone     -> Etc/UTC
#DEBUG: Data Contact   -> daryl herzmann akrherz@iastate.edu 515-294-5978
#DEBUG: Entries Found -> -1
station,valid,lon,lat,tmpf, dwpf, relh, drct, sknt, p01i, alti, mslp, vsby, gust, skyc1, skyc2, skyc3, skyc4, skyl1, skyl2, skyl3, skyl4, presentwx, metar
ERI,2017-04-01 00:00,-80.1800,42.0800,M,M,M,30.00,8.00,0.01,29.70,M,6.00,M,OVC,M,M,M,300.00,M,M,M,-RA BR,KERI 010000Z AUTO 03008KT 6SM -RA BR OVC003 A2970 RMK P0001 MADISHF
ERI,2017-04-01 00:05,-80.1800,42.0800,M,M,M,20.00,8.00,0.01,29.71,M,6.00,M,OVC,M,M,M,300.00,M,M,M,-RA BR,KERI 010005Z AUTO 02008KT 6SM -RA BR OVC003 A2971 RMK P0001 MADISHF
ERI,2017-04-01 00:10,-80.1800,42.0800,M,M,M,20.00,9.00,0.02,29.71,M,6.00,M,OVC,M,M,M,300.00,M,M,M,-RA BR,KERI 010010Z AUTO 02009KT 6SM -RA BR OVC003 A2971 RMK P0002 MADISHF
ERI,2017-04-01 00:15,-80.1800,42.0800,M,M,M,20.00,8.00,0.02,29.71,M,6.00,M,OVC,M,M,M,300.00,M,M,M,-RA BR,KERI 010015Z AUTO 02008KT 6SM -RA BR OVC003 A2971 RMK P0002 MADISHF
ERI,2017-04-01 00:20,-80.1800,42.0800,M,M,M,30.00,8.00,0.02,29.71,M,5.00,M,OVC,M,M,M,300.00,M,M,M,-RA BR,KERI 010020Z AUTO 03008KT 5SM -RA BR OVC003 A2971 RMK P0002 MADISHF
ERI,2017-04-01 00:25,-80.1800,42.0800,M,M,M,30.00,9.00,0.02,29.71,M,5.00,M,OVC,M,M,M,300.00,M,M,M,-RA BR,KERI 010025Z AUTO 03009KT 5SM -RA BR OVC003 A2971 RMK P0002 MADISHF
ERI,2017-04-01 00:30,-80.1800,42.0800,M,M,M,40.00,9.00,0.03,29.71,M,5.00,M,OVC,M,M,M,300.00,M,M,M,-RA BR,KERI 010030Z AUTO 04009KT 5SM -RA BR OVC003 A2971 RMK P0003 MADISHF
ERI,2017-04-01 00:35,-80.1800,42.0800,M,M,M,40.00,7.00,0.03,29.72,M,5.00,M,OVC,M,M,M,300.00,M,M,M,-RA BR,KERI 010035Z AUTO 04007KT 5SM -RA BR OVC003 A2972 RMK P0003 MADISHF
ERI,2017-04-01 00:40,-80.1800,42.0800,M,M,M,30.00,8.00,0.03,29.72,M,5.00,M,OVC,M,M,M,300.00,M,M,M,-RA BR,KERI 010040Z AUTO 03008KT 5SM -RA BR OVC003 A2972 RMK P0003 MADISHF
ERI,2017-04-01 00:45,-80.1800,42.0800,M,M,M,30.00,9.00,0.03,29.72,M,5.00,M,OVC,M,M,M,400.00,M,M,M,-RA BR,KERI 010045Z AUTO 03009KT 5SM -RA BR OVC004 A2972 RMK P0003 MADISHF
ERI,2017-04-01 00:50,-80.1800,42.0800,M,M,M,40.00,7.00,0.04,29.72,M,6.00,M,OVC,M,M,M,400.00,M,M,M,-RA BR,KERI 010050Z AUTO 04007KT 6SM -RA BR OVC004 A2972 RMK P0004 MADISHF
ERI,2017-04-01 00:51,-80.1800,42.0800,37.90,37.00,96.52,40.00,7.00,0.04,29.72,1006.80,5.00,M,OVC,M,M,M,400.00,M,M,M,-RA BR,KERI 010051Z 04007KT 5SM -RA BR OVC004 03/03 A2972 RMK AO2 SLP068 P0004 T00330028
ERI,2017-04-01 00:55,-80.1800,42.0800,M,M,M,40.00,8.00,M,29.72,M,5.00,M,OVC,M,M,M,400.00,M,M,M,-RA BR,KERI 010055Z AUTO 04008KT 5SM -RA BR OVC004 A2972 RMK MADISHF
ERI,2017-04-01 01:00,-80.1800,42.0800,M,M,M,40.00,7.00,M,29.72,M,5.00,M,OVC,M,M,M,400.00,M,M,M,-RA BR,KERI 010100Z AUTO 04007KT 5SM -RA BR OVC004 A2972 RMK MADISHF
ERI,2017-04-01 01:05,-80.1800,42.0800,M,M,M,30.00,6.00,0.01,29.72,M,6.00,M,OVC,M,M,M,400.00,M,M,M,-RA BR,KERI 010105Z AUTO 03006KT 6SM -RA BR OVC004 A2972 RMK P0001 MADISHF
ERI,2017-04-01 01:10,-80.1800,42.0800,M,M,M,30.00,6.00,0.01,29.72,M,6.00,M,OVC,M,M,M,400.00,M,M,M,-RA BR,KERI 010110Z AUTO 03006KT 6SM -RA BR OVC004 A2972 RMK P0001 MADISHF
ERI,2017-04-01 01:15,-80.1800,42.0800,M,M,M,20.00,6.00,0.01,29.73,M,6.00,M,OVC,M,M,M,400.00,M,M,M,-RA BR,KERI 010115Z AUTO 02006KT 6SM -RA BR OVC004 A2973 RMK P0001 MADISHF
ERI,2017-04-01 01:20,-80.1800,42.0800,M,M,M,30.00,7.00,0.01,29.73,M,7.00,M,OVC,M,M,M,400.00,M,M,M,-RA,KERI 010120Z AUTO 03007KT 7SM -RA OVC004 A2973 RMK P0001 MADISHF
ERI,2017-04-01 01:25,-80.1800,42.0800,M,M,M,40.00,6.00,0.02,29.73,M,7.00,M,OVC,M,M,M,400.00,M,M,M,-RA,KERI 010125Z AUTO 04006KT 7SM -RA OVC004 A2973 RMK P0002 MADISHF
ERI,2017-04-01 01:30,-80.1800,42.0800,M,M,M,40.00,6.00,0.02,29.73,M,8.00,M,OVC,M,M,M,400.00,M,M,M,-RA,KERI 010130Z AUTO 04006KT 8SM -RA OVC004 A2973 RMK P0002 MADISHF
ERI,2017-04-01 01:35,-80.1800,42.0800,M,M,M,20.00,6.00,0.02,29.73,M,8.00,M,OVC,M,M,M,400.00,M,M,M,-RA,KERI 010135Z AUTO 02006KT 8SM -RA OVC004 A2973 RMK P0002 MADISHF
ERI,2017-04-01 01:40,-80.1800,42.0800,M,M,M,20.00,6.00,0.02,29.74,M,8.00,M,OVC,M,M,M,400.00,M,M,M,-RA,KERI 010140Z AUTO 02006KT 8SM -RA OVC004 A2974 RMK P0002 MADISHF
ERI,2017-04-01 01:45,-80.1800,42.0800,M,M,M,360.00,6.00,0.02,29.74,M,8.00,M,OVC,M,M,M,499.00,M,M,M,-RA,KERI 010145Z AUTO 36006KT 8SM -RA OVC004 A2974 RMK P0002 MADISHF
ERI,2017-04-01 01:47,-80.1800,42.0800,37.40,37.40,100.00,350.00,6.00,0.02,29.74,M,8.00,M,OVC,M,M,M,500.00,M,M,M,-RA,KERI 010147Z 35006KT 8SM -RA OVC005 03/03 A2974 RMK AO2 P0002
ERI,2017-04-01 01:50,-80.1800,42.0800,M,M,M,360.00,7.00,0.02,29.74,M,8.00,M,OVC,M,M,M,499.00,M,M,M,-RA,KERI 010150Z AUTO 36007KT 8SM -RA OVC004 A2974 RMK P0002 MADISHF
ERI,2017-04-01 01:51,-80.1800,42.0800,37.90,37.00,96.52,360.00,7.00,0.02,29.74,1007.60,8.00,M,OVC,M,M,M,400.00,M,M,M,-RA,KERI 010151Z 36007KT 8SM -RA OVC004 03/03 A2974 RMK AO2 SLP076 P0002 T00330028
ERI,2017-04-01 01:55,-80.1800,42.0800,M,M,M,350.00,6.00,M,29.75,M,8.00,M,OVC,M,M,M,400.00,M,M,M,-RA,KERI 010155Z AUTO 35006KT 8SM -RA OVC004 A2975 RMK MADISHF
ERI,2017-04-01 02:00,-80.1800,42.0800,M,M,M,350.00,8.00,M,29.75,M,7.00,M,OVC,M,M,M,400.00,M,M,M,M,KERI 010200Z AUTO 35008KT 7SM OVC004 A2975 RMK MADISHF
ERI,2017-04-01 02:05,-80.1800,42.0800,M,M,M,360.00,8.00,M,29.75,M,5.00,M,OVC,M,M,M,400.00,M,M,M,BR,KERI 010205Z AUTO 36008KT 5SM BR OVC004 A2975 RMK MADISHF
ERI,2017-04-01 02:10,-80.1800,42.0800,M,M,M,10.00,7.00,M,29.75,M,4.00,M,OVC,M,M,M,400.00,M,M,M,BR,KERI 010210Z AUTO 01007KT 4SM BR OVC004 A2975 RMK MADISHF
ERI,2017-04-01 02:15,-80.1800,42.0800,M,M,M,360.00,7.00,M,29.75,M,2.50,M,OVC,M,M,M,400.00,M,M,M,BR,KERI 010215Z AUTO 36007KT 2 1/2SM BR OVC004 A2975 RMK MADISHF
ERI,2017-04-01 02:20,-80.1800,42.0800,M,M,M,10.00,6.00,M,29.75,M,2.00,M,OVC,M,M,M,400.00,M,M,M,BR,KERI 010220Z AUTO 01006KT 2SM BR OVC004 A2975 RMK MADISHF
ERI,2017-04-01 02:21,-80.1800,42.0800,37.00,36.00,96.13,360.00,6.00,0.00,29.75,M,2.00,M,OVC,M,M,M,400.00,M,M,M,BR,KERI 010221Z 36006KT 2SM BR OVC004 03/02 A2975 RMK AO2 RAE00 P0000 T00280022
ERI,2017-04-01 02:25,-80.1800,42.0800,M,M,M,360.00,6.00,M,29.76,M,2.00,M,OVC,M,M,M,400.00,M,M,M,BR,KERI 010225Z AUTO 36006KT 2SM BR OVC004 A2976 RMK MADISHF
ERI,2017-04-01 02:30,-80.1800,42.0800,M,M,M,10.00,7.00,M,29.76,M,2.00,M,OVC,M,M,M,300.00,M,M,M,BR,KERI 010230Z AUTO 01007KT 2SM BR OVC003 A2976 RMK MADISHF
ERI,2017-04-01 02:35,-80.1800,42.0800,M,M,M,350.00,6.00,M,29.76,M,2.00,M,OVC,M,M,M,300.00,M,M,M,BR,KERI 010235Z AUTO 35006KT 2SM BR OVC003 A2976 RMK MADISHF
ERI,2017-04-01 02:40,-80.1800,42.0800,M,M,M,350.00,6.00,M,29.76,M,2.00,M,OVC,M,M,M,300.00,M,M,M,BR,KERI 010240Z AUTO 35006KT 2SM BR OVC003 A2976 RMK MADISHF
ERI,2017-04-01 02:45,-80.1800,42.0800,M,M,M,350.00,5.00,M,29.76,M,2.00,M,OVC,M,M,M,300.00,M,M,M,BR,KERI 010245Z AUTO 35005KT 2SM BR OVC003 A2976 RMK MADISHF
ERI,2017-04-01 02:50,-80.1800,42.0800,M,M,M,360.00,5.00,M,29.76,M,2.00,M,OVC,M,M,M,300.00,M,M,M,BR,KERI 010250Z AUTO 36005KT 2SM BR OVC003 A2976 RMK MADISHF
ERI,2017-04-01 02:51,-80.1800,42.0800,37.00,36.00,96.13,350.00,5.00,0.00,29.76,1008.30,2.00,M,OVC,M,M,M,300.00,M,M,M,BR,KERI 010251Z 35005KT 2SM BR OVC003 03/02 A2976 RMK AO2 RAE00 SLP083 P0000 60006 T00280022 53015
ERI,2017-04-01 02:55,-80.1800,42.0800,M,M,M,350.00,5.00,M,29.77,M,2.00,M,OVC,M,M,M,300.00,M,M,M,BR,KERI 010255Z AUTO 35005KT 2SM BR OVC003 A2977 RMK MADISHF
ERI,2017-04-01 03:00,-80.1800,42.0800,M,M,M,340.00,5.00,M,29.77,M,2.00,M,OVC,M,M,M,300.00,M,M,M,BR,KERI 010300Z AUTO 34005KT 2SM BR OVC003 A2977 RMK MADISHF
ERI,2017-04-01 03:05,-80.1800,42.0800,M,M,M,360.00,5.00,M,29.77,M,1.75,M,OVC,M,M,M,300.00,M,M,M,BR,KERI 010305Z AUTO 36005KT 2SM BR OVC003 A2977 RMK MADISHF
ERI,2017-04-01 03:10,-80.1800,42.0800,37.00,36.00,96.13,350.00,6.00,0.00,29.77,M,1.75,M,OVC,M,M,M,300.00,M,M,M,BR,KERI 010310Z 35006KT 1 3/4SM BR OVC003 03/02 A2977 RMK AO2 T00280022
ERI,2017-04-01 03:15,-80.1800,42.0800,M,M,M,330.00,5.00,M,29.77,M,1.75,M,OVC,M,M,M,300.00,M,M,M,BR,KERI 010315Z AUTO 33005KT 2SM BR OVC003 A2977 RMK MADISHF
ERI,2017-04-01 03:20,-80.1800,42.0800,M,M,M,330.00,4.00,M,29.77,M,1.75,M,OVC,M,M,M,300.00,M,M,M,BR,KERI 010320Z AUTO 33004KT 2SM BR OVC003 A2977 RMK MADISHF
ERI,2017-04-01 03:25,-80.1800,42.0800,M,M,M,320.00,4.00,M,29.78,M,2.00,M,OVC,M,M,M,300.00,M,M,M,BR,KERI 010325Z AUTO 32004KT 2SM BR OVC003 A2978 RMK MADISHF
ERI,2017-04-01 03:27,-80.1800,42.0800,37.00,36.00,96.13,320.00,5.00,0.00,29.78,M,2.00,M,OVC,M,M,M,300.00,M,M,M,BR,KERI 010327Z 32005KT 2SM BR OVC003 03/02 A2978 RMK AO2 T00280022
ERI,2017-04-01 03:30,-80.1800,42.0800,M,M,M,350.00,5.00,M,29.78,M,1.75,M,OVC,M,M,M,300.00,M,M,M,BR,KERI 010330Z AUTO 35005KT 2SM BR OVC003 A2978 RMK MADISHF
ERI,2017-04-01 03:35,-80.1800,42.0800,37.00,36.00,96.13,320.00,6.00,0.00,29.78,M,1.75,M,OVC,M,M,M,300.00,M,M,M,BR,KERI 010335Z 32006KT 1 3/4SM BR OVC003 03/02 A2978 RMK AO2 T00280022
ERI,2017-04-01 03:40,-80.1800,42.0800,M,M,M,320.00,5.00,M,29.78,M,2.00,M,OVC,M,M,M,300.00,M,M,M,BR,KERI 010340Z AUTO 32005KT 2SM BR OVC003 A2978 RMK MADISHF
ERI,2017-04-01 03:44,-80.1800,42.0800,37.00,36.00,96.13,320.00,7.00,0.00,29.79,M,2.00,M,OVC,M,M,M,300.00,M,M,M,BR,KERI 010344Z 32007KT 2SM BR OVC003 03/02 A2979 RMK AO2 T00280022
ERI,2017-04-01 03:45,-80.1800,42.0800,M,M,M,330.00,6.00,M,29.79,M,2.00,M,OVC,M,M,M,300.00,M,M,M,BR,KERI 010345Z AUTO 33006KT 2SM BR OVC003 A2979 RMK MADISHF
ERI,2017-04-01 03:50,-80.1800,42.0800,M,M,M,320.00,5.00,M,29.79,M,2.00,M,OVC,M,M,M,300.00,M,M,M,BR,KERI 010350Z AUTO 32005KT 2SM BR OVC003 A2979 RMK MADISHF
ERI,2017-04-01 03:51,-80.1800,42.0800,37.00,36.00,96.13,330.00,5.00,0.00,29.79,1009.10,2.00,M,OVC,M,M,M,300.00,M,M,M,BR,KERI 010351Z 33005KT 2SM BR OVC003 03/02 A2979 RMK AO2 SLP091 T00280022
ERI,2017-04-01 03:55,-80.1800,42.0800,M,M,M,320.00,6.00,M,M,M,2.00,M,OVC,M,M,M,300.00,M,M,M,BR,KERI 010355Z AUTO 32006KT 2SM BR OVC003 RMK MADISHF
ERI,2017-04-01 04:00,-80.1800,42.0800,M,M,M,340.00,7.00,0.00,29.79,M,2.00,M,OVC,M,M,M,200.00,M,M,M,UP BR,KERI 010400Z AUTO 34007KT 2SM UP BR OVC002 A2979 RMK P0000 MADISHF
ERI,2017-04-01 04:05,-80.1800,42.0800,37.00,36.00,96.13,330.00,6.00,0.01,29.80,M,2.00,M,OVC,M,M,M,200.00,M,M,M,UP BR,KERI 010405Z 33006KT 2SM UP BR OVC002 03/02 A2980 RMK AO2 UPB00 P0001 T00280022
ERI,2017-04-01 04:10,-80.1800,42.0800,M,M,M,340.00,6.00,0.01,29.80,M,2.50,M,OVC,M,M,M,200.00,M,M,M,-RA BR,KERI 010410Z AUTO 34006KT 2 1/2SM -RA BR OVC002 A2980 RMK P0001 MADISHF
ERI,2017-04-01 04:15,-80.1800,42.0800,M,M,M,340.00,6.00,0.01,29.80,M,2.50,M,OVC,M,M,M,200.00,M,M,M,-RA BR,KERI 010415Z AUTO 34006KT 2 1/2SM -RA BR OVC002 A2980 RMK P0001 MADISHF
ERI,2017-04-01 04:20,-80.1800,42.0800,M,M,M,350.00,5.00,0.01,29.80,M,2.50,M,OVC,M,M,M,200.00,M,M,M,-RA BR,KERI 010420Z AUTO 35005KT 2 1/2SM -RA BR OVC002 A2980 RMK P0001 MADISHF
ERI,2017-04-01 04:25,-80.1800,42.0800,M,M,M,360.00,6.00,0.01,29.80,M,2.50,M,OVC,M,M,M,200.00,M,M,M,-RA BR,KERI 010425Z AUTO 36006KT 2 1/2SM -RA BR OVC002 A2980 RMK P0001 MADISHF
ERI,2017-04-01 04:30,-80.1800,42.0800,M,M,M,350.00,6.00,0.01,29.80,M,2.50,M,OVC,M,M,M,200.00,M,M,M,-RA BR,KERI 010430Z AUTO 35006KT 2 1/2SM -RA BR OVC002 A2980 RMK P0001 MADISHF
ERI,2017-04-01 04:35,-80.1800,42.0800,M,M,M,350.00,6.00,0.02,29.81,M,2.50,M,OVC,M,M,M,200.00,M,M,M,-RA BR,KERI 010435Z AUTO 35006KT 2 1/2SM -RA BR OVC002 A2981 RMK P0002 MADISHF
ERI,2017-04-01 04:40,-80.1800,42.0800,M,M,M,360.00,8.00,0.02,29.81,M,2.50,M,OVC,M,M,M,300.00,M,M,M,-RA BR,KERI 010440Z AUTO 36008KT 2 1/2SM -RA BR OVC003 A2981 RMK P0002 MADISHF
ERI,2017-04-01 04:43,-80.1800,42.0800,37.00,36.00,96.13,350.00,9.00,0.02,29.81,M,2.50,M,OVC,M,M,M,300.00,M,M,M,-RA BR,KERI 010443Z 35009KT 2 1/2SM -RA BR OVC003 03/02 A2981 RMK AO2 UPB00E06RAB06 P0002 T00280022
ERI,2017-04-01 04:45,-80.1800,42.0800,M,M,M,360.00,8.00,0.02,29.81,M,3.00,M,OVC,M,M,M,300.00,M,M,M,-RA BR,KERI 010445Z AUTO 36008KT 3SM -RA BR OVC003 A2981 RMK P0002 MADISHF
ERI,2017-04-01 04:50,-80.1800,42.0800,M,M,M,10.00,8.00,0.02,29.81,M,3.00,M,OVC,M,M,M,300.00,M,M,M,-RA BR,KERI 010450Z AUTO 01008KT 3SM -RA BR OVC003 A2981 RMK P0002 MADISHF
ERI,2017-04-01 04:51,-80.1800,42.0800,37.00,35.10,92.76,10.00,8.00,0.02,29.81,1009.90,3.00,M,OVC,M,M,M,300.00,M,M,M,-RA BR,KERI 010451Z 01008KT 3SM -RA BR OVC003 03/02 A2981 RMK AO2 UPB00E06B48E50RAB06 SLP099 P0002 T00280017 401000028
ERI,2017-04-01 04:55,-80.1800,42.0800,M,M,M,10.00,8.00,M,29.82,M,3.00,M,OVC,M,M,M,300.00,M,M,M,-RA BR,KERI 010455Z AUTO 01008KT 3SM -RA BR OVC003 A2982 RMK MADISHF
ERI,2017-04-01 05:00,-80.1800,42.0800,M,M,M,350.00,6.00,0.01,29.82,M,3.00,M,OVC,M,M,M,300.00,M,M,M,-RA BR,KERI 010500Z AUTO 35006KT 3SM -RA BR OVC003 A2982 RMK P0001 MADISHF
ERI,2017-04-01 05:05,-80.1800,42.0800,M,M,M,360.00,7.00,0.01,29.83,M,3.00,M,OVC,M,M,M,300.00,M,M,M,UP BR,KERI 010505Z AUTO 36007KT 3SM UP BR OVC003 A2983 RMK P0001 MADISHF
ERI,2017-04-01 05:10,-80.1800,42.0800,M,M,M,350.00,6.00,0.01,29.83,M,2.50,M,OVC,M,M,M,300.00,M,M,M,-RA BR,KERI 010510Z AUTO 35006KT 2 1/2SM -RA BR OVC003 A2983 RMK P0001 MADISHF
ERI,2017-04-01 05:15,-80.1800,42.0800,M,M,M,340.00,7.00,0.01,29.83,M,3.00,M,OVC,M,M,M,300.00,M,M,M,-RA BR,KERI 010515Z AUTO 34007KT 3SM -RA BR OVC003 A2983 RMK P0001 MADISHF
ERI,2017-04-01 05:20,-80.1800,42.0800,M,M,M,340.00,7.00,0.01,29.83,M,3.00,M,OVC,M,M,M,300.00,M,M,M,-RA BR,KERI 010520Z AUTO 34007KT 3SM -RA BR OVC003 A2983 RMK P0001 MADISHF
ERI,2017-04-01 05:25,-80.1800,42.0800,M,M,M,340.00,7.00,0.02,29.83,M,3.00,M,OVC,M,M,M,300.00,M,M,M,-RA BR,KERI 010525Z AUTO 34007KT 3SM -RA BR OVC003 A2983 RMK P0002 MADISHF
ERI,2017-04-01 05:30,-80.1800,42.0800,M,M,M,330.00,7.00,0.02,29.84,M,3.00,M,OVC,M,M,M,300.00,M,M,M,-RA BR,KERI 010530Z AUTO 33007KT 3SM -RA BR OVC003 A2984 RMK P0002 MADISHF
ERI,2017-04-01 05:35,-80.1800,42.0800,M,M,M,330.00,8.00,0.02,29.84,M,3.00,M,OVC,M,M,M,300.00,M,M,M,-RA BR,KERI 010535Z AUTO 33008KT 3SM -RA BR OVC003 A2984 RMK P0002 MADISHF
ERI,2017-04-01 05:40,-80.1800,42.0800,M,M,M,330.00,6.00,0.03,29.84,M,3.00,M,OVC,M,M,M,200.00,M,M,M,-RA BR,KERI 010540Z AUTO 33006KT 3SM -RA BR OVC002 A2984 RMK P0003 MADISHF
ERI,2017-04-01 05:42,-80.1800,42.0800,35.60,35.60,100.00,340.00,7.00,0.00,29.84,M,2.50,M,OVC,M,M,M,200.00,M,M,M,-RA BR,KERI 010542Z 34007KT 2 1/2SM -RA BR OVC002 02/02 A2984
ERI,2017-04-01 05:45,-80.1800,42.0800,M,M,M,330.00,8.00,0.03,29.84,M,2.50,M,OVC,M,M,M,200.00,M,M,M,-RA BR,KERI 010545Z AUTO 33008KT 2 1/2SM -RA BR OVC002 A2984 RMK P0003 MADISHF
ERI,2017-04-01 05:50,-80.1800,42.0800,M,M,M,340.00,6.00,0.03,29.84,M,2.50,M,OVC,M,M,M,200.00,M,M,M,-RA BR,KERI 010550Z AUTO 34006KT 2 1/2SM -RA BR OVC002 A2984 RMK P0003 MADISHF
ERI,2017-04-01 05:51,-80.1800,42.0800,36.00,35.10,96.49,340.00,7.00,0.03,29.84,1011.00,2.50,M,OVC,M,M,M,200.00,M,M,M,-RA BR,KERI 010551Z 34007KT 2 1/2SM -RA BR OVC002 02/02 A2984 RMK AO2 UPB01E07B44E45 SLP110 P0003 60011 T00220017 10039 20022 53017
ERI,2017-04-01 05:55,-80.1800,42.0800,M,M,M,350.00,6.00,M,29.84,M,2.00,M,OVC,M,M,M,200.00,M,M,M,-RA BR,KERI 010555Z AUTO 35006KT 2SM -RA BR OVC002 A2984 RMK MADISHF
ERI,2017-04-01 06:00,-80.1800,42.0800,M,M,M,350.00,8.00,M,29.84,M,2.50,M,OVC,M,M,M,200.00,M,M,M,-RA BR,KERI 010600Z AUTO 35008KT 2 1/2SM -RA BR OVC002 A2984 RMK MADISHF
ERI,2017-04-01 06:05,-80.1800,42.0800,M,M,M,340.00,7.00,0.01,29.85,M,3.00,M,OVC,M,M,M,200.00,M,M,M,-RA BR,KERI 010605Z AUTO 34007KT 3SM -RA BR OVC002 A2985 RMK P0001 MADISHF
ERI,2017-04-01 06:10,-80.1800,42.0800,M,M,M,330.00,7.00,0.01,29.85,M,3.00,M,OVC,M,M,M,200.00,M,M,M,BR,KERI 010610Z AUTO 33007KT 3SM BR OVC002 A2985 RMK P0001 MADISHF
ERI,2017-04-01 06:11,-80.1800,42.0800,36.00,35.10,96.49,330.00,8.00,0.01,29.85,M,3.00,M,OVC,M,M,M,200.00,M,M,M,BR,KERI 010611Z 33008KT 3SM BR OVC002 02/02 A2985 RMK AO2 RAE06UPB06E08 P0001 T00220017
ERI,2017-04-01 06:15,-80.1800,42.0800,M,M,M,350.00,7.00,0.01,29.85,M,3.00,M,OVC,M,M,M,200.00,M,M,M,BR,KERI 010615Z AUTO 35007KT 3SM BR OVC002 A2985 RMK P0001 MADISHF
ERI,2017-04-01 06:20,-80.1800,42.0800,M,M,M,340.00,9.00,0.01,29.85,M,3.00,M,OVC,M,M,M,200.00,M,M,M,BR,KERI 010620Z AUTO 34009KT 3SM BR OVC002 A2985 RMK P0001 MADISHF
ERI,2017-04-01 06:25,-80.1800,42.0800,M,M,M,360.00,8.00,0.01,29.85,M,4.00,M,OVC,M,M,M,200.00,M,M,M,BR,KERI 010625Z AUTO 36008KT 4SM BR OVC002 A2985 RMK P0001 MADISHF
ERI,2017-04-01 06:30,-80.1800,42.0800,M,M,M,360.00,7.00,0.01,29.85,M,4.00,M,OVC,M,M,M,200.00,M,M,M,BR,KERI 010630Z AUTO 36007KT 4SM BR OVC002 A2985 RMK P0001 MADISHF
ERI,2017-04-01 06:35,-80.1800,42.0800,M,M,M,350.00,8.00,0.01,29.85,M,3.50,M,OVC,M,M,M,200.00,M,M,M,BR,KERI 010635Z AUTO 35008KT 3SM BR OVC002 A2985 RMK P0001 MADISHF
ERI,2017-04-01 06:40,-80.1800,42.0800,M,M,M,340.00,6.00,0.01,29.86,M,3.00,M,OVC,M,M,M,200.00,M,M,M,BR,KERI 010640Z AUTO 34006KT 3SM BR OVC002 A2986 RMK P0001 MADISHF
ERI,2017-04-01 06:45,-80.1800,42.0800,M,M,M,340.00,7.00,0.01,29.86,M,3.00,M,OVC,M,M,M,200.00,M,M,M,BR,KERI 010645Z AUTO 34007KT 3SM BR OVC002 A2986 RMK P0001 MADISHF
ERI,2017-04-01 06:50,-80.1800,42.0800,M,M,M,350.00,6.00,0.01,29.86,M,3.50,M,OVC,M,M,M,200.00,M,M,M,BR,KERI 010650Z AUTO 35006KT 3SM BR OVC002 A2986 RMK P0001 MADISHF
ERI,2017-04-01 06:51,-80.1800,42.0800,36.00,35.10,96.49,350.00,6.00,0.01,29.86,1011.60,3.00,M,OVC,M,M,M,200.00,M,M,M,BR,KERI 010651Z 35006KT 3SM BR OVC002 02/02 A2986 RMK AO2 RAE06UPB06E08 SLP116 P0001 T00220017
ERI,2017-04-01 06:55,-80.1800,42.0800,M,M,M,340.00,6.00,M,29.86,M,3.00,M,OVC,M,M,M,200.00,M,M,M,BR,KERI 010655Z AUTO 34006KT 3SM BR OVC002 A2986 RMK MADISHF
ERI,2017-04-01 07:00,-80.1800,42.0800,M,M,M,360.00,7.00,M,29.86,M,2.50,M,OVC,M,M,M,200.00,M,M,M,BR,KERI 010700Z AUTO 36007KT 2 1/2SM BR OVC002 A2986 RMK MADISHF
ERI,2017-04-01 07:03,-80.1800,42.0800,36.00,35.10,96.49,360.00,6.00,0.00,29.86,M,2.50,M,OVC,M,M,M,200.00,M,M,M,BR,KERI 010703Z 36006KT 2 1/2SM BR OVC002 02/02 A2986 RMK AO2 T00220017
ERI,2017-04-01 07:05,-80.1800,42.0800,M,M,M,360.00,7.00,M,29.86,M,2.50,M,OVC,M,M,M,200.00,M,M,M,BR,KERI 010705Z AUTO 36007KT 2 1/2SM BR OVC002 A2986 RMK MADISHF
ERI,2017-04-01 07:10,-80.1800,42.0800,M,M,M,360.00,6.00,M,29.86,M,2.50,M,OVC,M,M,M,200.00,M,M,M,BR,KERI 010710Z AUTO 36006KT 2 1/2SM BR OVC002 A2986 RMK MADISHF
ERI,2017-04-01 07:15,-80.1800,42.0800,M,M,M,340.00,8.00,M,29.86,M,2.50,M,OVC,M,M,M,200.00,M,M,M,BR,KERI 010715Z AUTO 34008KT 2 1/2SM BR OVC002 A2986 RMK MADISHF
ERI,2017-04-01 07:20,-80.1800,42.0800,M,M,M,340.00,5.00,M,29.86,M,2.50,M,OVC,M,M,M,200.00,M,M,M,BR,KERI 010720Z AUTO 34005KT 2 1/2SM BR OVC002 A2986 RMK MADISHF
ERI,2017-04-01 07:25,-80.1800,42.0800,M,M,M,340.00,5.00,M,29.87,M,3.00,M,OVC,M,M,M,200.00,M,M,M,BR,KERI 010725Z AUTO 34005KT 3SM BR OVC002 A2987 RMK MADISHF
ERI,2017-04-01 07:27,-80.1800,42.0800,36.00,35.10,96.49,340.00,5.00,0.00,29.87,M,3.00,M,OVC,M,M,M,200.00,M,M,M,BR,KERI 010727Z 34005KT 3SM BR OVC002 02/02 A2987 RMK AO2 T00220017
ERI,2017-04-01 07:30,-80.1800,42.0800,M,M,M,330.00,5.00,M,29.87,M,2.50,M,OVC,M,M,M,200.00,M,M,M,BR,KERI 010730Z AUTO 33005KT 2 1/2SM BR OVC002 A2987 RMK MADISHF
ERI,2017-04-01 07:35,-80.1800,42.0800,M,M,M,340.00,5.00,M,29.87,M,2.50,M,OVC,M,M,M,200.00,M,M,M,BR,KERI 010735Z AUTO 34005KT 2 1/2SM BR OVC002 A2987 RMK MADISHF
ERI,2017-04-01 07:40,-80.1800,42.0800,M,M,M,340.00,5.00,M,29.87,M,3.00,M,OVC,M,M,M,200.00,M,M,M,BR,KERI 010740Z AUTO 34005KT 3SM BR OVC002 A2987 RMK MADISHF
ERI,2017-04-01 07:45,-80.1800,42.0800,M,M,M,340.00,7.00,M,29.87,M,2.50,M,OVC,M,M,M,200.00,M,M,M,BR,KERI 010745Z AUTO 34007KT 2 1/2SM BR OVC002 A2987 RMK MADISHF
ERI,2017-04-01 07:47,-80.1800,42.0800,35.60,35.60,100.00,340.00,6.00,0.00,29.88,M,2.00,M,OVC,M,M,M,200.00,M,M,M,BR,KERI 010747Z 34006KT 2SM BR OVC002 02/02 A2988 RMK AO2
ERI,2017-04-01 07:50,-80.1800,42.0800,M,M,M,330.00,7.00,M,29.88,M,2.00,M,OVC,M,M,M,200.00,M,M,M,BR,KERI 010750Z AUTO 33007KT 2SM BR OVC002 A2988 RMK MADISHF
ERI,2017-04-01 07:51,-80.1800,42.0800,36.00,35.10,96.49,320.00,8.00,0.00,29.88,1012.30,2.50,M,OVC,M,M,M,200.00,M,M,M,BR,KERI 010751Z 32008KT 2 1/2SM BR OVC002 02/02 A2988 RMK AO2 SLP123 T00220017
ERI,2017-04-01 07:55,-80.1800,42.0800,M,M,M,340.00,6.00,M,29.88,M,3.00,M,OVC,M,M,M,200.00,M,M,M,BR,KERI 010755Z AUTO 34006KT 3SM BR OVC002 A2988 RMK MADISHF
ERI,2017-04-01 08:00,-80.1800,42.0800,M,M,M,330.00,6.00,M,29.89,M,4.00,M,OVC,M,M,M,200.00,M,M,M,BR,KERI 010800Z AUTO 33006KT 4SM BR OVC002 A2989 RMK MADISHF
ERI,2017-04-01 08:01,-80.1800,42.0800,36.00,35.10,96.49,340.00,5.00,0.00,29.89,M,4.00,M,OVC,M,M,M,200.00,M,M,M,BR,KERI 010801Z 34005KT 4SM BR OVC002 02/02 A2989 RMK AO2 T00220017
ERI,2017-04-01 08:05,-80.1800,42.0800,M,M,M,340.00,7.00,M,29.89,M,3.00,M,OVC,M,M,M,200.00,M,M,M,BR,KERI 010805Z AUTO 34007KT 3SM BR OVC002 A2989 RMK MADISHF
ERI,2017-04-01 08:10,-80.1800,42.0800,M,M,M,330.00,7.00,M,29.89,M,3.00,M,OVC,M,M,M,200.00,M,M,M,BR,KERI 010810Z AUTO 33007KT 3SM BR OVC002 A2989 RMK MADISHF
ERI,2017-04-01 08:15,-80.1800,42.0800,M,M,M,340.00,5.00,M,29.89,M,4.00,M,OVC,M,M,M,200.00,M,M,M,BR,KERI 010815Z AUTO 34005KT 4SM BR OVC002 A2989 RMK MADISHF
ERI,2017-04-01 08:20,-80.1800,42.0800,M,M,M,330.00,6.00,M,29.90,M,4.00,M,OVC,M,M,M,200.00,M,M,M,BR,KERI 010820Z AUTO 33006KT 4SM BR OVC002 A2990 RMK MADISHF
ERI,2017-04-01 08:25,-80.1800,42.0800,M,M,M,340.00,6.00,M,29.90,M,4.00,M,OVC,M,M,M,200.00,M,M,M,BR,KERI 010825Z AUTO 34006KT 4SM BR OVC002 A2990 RMK MADISHF
ERI,2017-04-01 08:30,-80.1800,42.0800,M,M,M,340.00,7.00,M,29.90,M,3.00,M,OVC,M,M,M,200.00,M,M,M,BR,KERI 010830Z AUTO 34007KT 3SM BR OVC002 A2990 RMK MADISHF
ERI,2017-04-01 08:35,-80.1800,42.0800,M,M,M,330.00,7.00,M,29.91,M,3.00,M,OVC,M,M,M,200.00,M,M,M,BR,KERI 010835Z AUTO 33007KT 3SM BR OVC002 A2991 RMK MADISHF
ERI,2017-04-01 08:40,-80.1800,42.0800,M,M,M,330.00,6.00,M,29.91,M,3.00,M,OVC,M,M,M,200.00,M,M,M,BR,KERI 010840Z AUTO 33006KT 3SM BR OVC002 A2991 RMK MADISHF
ERI,2017-04-01 08:45,-80.1800,42.0800,M,M,M,330.00,6.00,M,29.91,M,3.00,M,OVC,M,M,M,200.00,M,M,M,BR,KERI 010845Z AUTO 33006KT 3SM BR OVC002 A2991 RMK MADISHF
ERI,2017-04-01 08:50,-80.1800,42.0800,M,M,M,330.00,6.00,0.00,29.91,M,2.50,M,OVC,M,M,M,200.00,M,M,M,UP BR,KERI 010850Z AUTO 33006KT 2 1/2SM UP BR OVC002 A2991 RMK P0000 MADISHF
ERI,2017-04-01 08:51,-80.1800,42.0800,36.00,35.10,96.49,330.00,5.00,0.00,29.91,1013.50,2.50,M,OVC,M,M,M,200.00,M,M,M,UP BR,KERI 010851Z 33005KT 2 1/2SM UP BR OVC002 02/02 A2991 RMK AO2 UPB50 SLP135 P0000 60001 T00220017 53019
ERI,2017-04-01 08:55,-80.1800,42.0800,M,M,M,320.00,6.00,0.00,29.92,M,2.50,M,OVC,M,M,M,200.00,M,M,M,UP BR,KERI 010855Z AUTO 32006KT 2 1/2SM UP BR OVC002 A2992 RMK P0000 MADISHF
ERI,2017-04-01 09:00,-80.1800,42.0800,M,M,M,330.00,6.00,0.01,29.92,M,2.00,M,OVC,M,M,M,200.00,M,M,M,BR,KERI 010900Z AUTO 33006KT 2SM BR OVC002 A2992 RMK P0001 MADISHF
ERI,2017-04-01 09:05,-80.1800,42.0800,M,M,M,330.00,6.00,0.01,29.92,M,2.00,M,OVC,M,M,M,200.00,M,M,M,BR,KERI 010905Z AUTO 33006KT 2SM BR OVC002 A2992 RMK P0001 MADISHF
ERI,2017-04-01 09:10,-80.1800,42.0800,M,M,M,320.00,5.00,0.01,29.92,M,2.50,M,OVC,M,M,M,200.00,M,M,M,BR,KERI 010910Z AUTO 32005KT 2 1/2SM BR OVC002 A2992 RMK P0001 MADISHF
ERI,2017-04-01 09:15,-80.1800,42.0800,M,M,M,320.00,5.00,0.01,29.92,M,2.50,M,OVC,M,M,M,200.00,M,M,M,BR,KERI 010915Z AUTO 32005KT 2 1/2SM BR OVC002 A2992 RMK P0001 MADISHF
ERI,2017-04-01 09:20,-80.1800,42.0800,M,M,M,320.00,5.00,0.01,29.91,M,2.50,M,OVC,M,M,M,200.00,M,M,M,BR,KERI 010920Z AUTO 32005KT 2 1/2SM BR OVC002 A2991 RMK P0001 MADISHF
ERI,2017-04-01 09:25,-80.1800,42.0800,M,M,M,330.00,4.00,0.01,29.91,M,2.50,M,OVC,M,M,M,200.00,M,M,M,BR,KERI 010925Z AUTO 33004KT 2 1/2SM BR OVC002 A2991 RMK P0001 MADISHF
ERI,2017-04-01 09:30,-80.1800,42.0800,M,M,M,340.00,6.00,0.01,29.92,M,3.00,M,OVC,M,M,M,200.00,M,M,M,BR,KERI 010930Z AUTO 34006KT 3SM BR OVC002 A2992 RMK P0001 MADISHF
ERI,2017-04-01 09:35,-80.1800,42.0800,36.00,35.10,96.49,330.00,7.00,0.01,29.93,M,4.00,M,OVC,M,M,M,200.00,M,M,M,BR,KERI 010935Z 33007KT 4SM BR OVC002 02/02 A2993 RMK AO2 UPE00 P0001 T00220017
ERI,2017-04-01 09:40,-80.1800,42.0800,M,M,M,330.00,5.00,0.01,29.93,M,4.00,M,OVC,M,M,M,200.00,M,M,M,BR,KERI 010940Z AUTO 33005KT 4SM BR OVC002 A2993 RMK P0001 MADISHF
ERI,2017-04-01 09:45,-80.1800,42.0800,M,M,M,330.00,5.00,0.01,29.93,M,3.50,M,OVC,M,M,M,200.00,M,M,M,BR,KERI 010945Z AUTO 33005KT 3SM BR OVC002 A2993 RMK P0001 MADISHF
ERI,2017-04-01 09:50,-80.1800,42.0800,M,M,M,350.00,6.00,0.01,29.93,M,4.00,M,OVC,M,M,M,200.00,M,M,M,BR,KERI 010950Z AUTO 35006KT 4SM BR OVC002 A2993 RMK P0001 MADISHF
ERI,2017-04-01 09:51,-80.1800,42.0800,36.00,35.10,96.49,330.00,7.00,0.01,29.93,1014.20,4.00,M,OVC,M,M,M,200.00,M,M,M,BR,KERI 010951Z 33007KT 4SM BR OVC002 02/02 A2993 RMK AO2 UPE00 SLP142 P0001 T00220017
ERI,2017-04-01 09:55,-80.1800,42.0800,M,M,M,330.00,5.00,M,29.94,M,4.00,M,OVC,M,M,M,200.00,M,M,M,BR,KERI 010955Z AUTO 33005KT 4SM BR OVC002 A2994 RMK MADISHF
ERI,2017-04-01 10:00,-80.1800,42.0800,M,M,M,350.00,7.00,M,29.93,M,5.00,M,OVC,M,M,M,200.00,M,M,M,BR,KERI 011000Z AUTO 35007KT 5SM BR OVC002 A2993 RMK MADISHF
ERI,2017-04-01 10:05,-80.1800,42.0800,M,M,M,340.00,6.00,M,29.94,M,6.00,M,OVC,M,M,M,200.00,M,M,M,BR,KERI 011005Z AUTO 34006KT 6SM BR OVC002 A2994 RMK MADISHF
ERI,2017-04-01 10:10,-80.1800,42.0800,M,M,M,350.00,5.00,M,29.94,M,7.00,M,OVC,M,M,M,200.00,M,M,M,M,KERI 011010Z AUTO 35005KT 7SM OVC002 A2994 RMK MADISHF
ERI,2017-04-01 10:15,-80.1800,42.0800,M,M,M,340.00,6.00,M,29.95,M,7.00,M,OVC,M,M,M,200.00,M,M,M,M,KERI 011015Z AUTO 34006KT 7SM OVC002 A2995 RMK MADISHF
ERI,2017-04-01 10:20,-80.1800,42.0800,M,M,M,340.00,4.00,M,29.95,M,8.00,M,OVC,M,M,M,300.00,M,M,M,M,KERI 011020Z AUTO 34004KT 8SM OVC003 A2995 RMK MADISHF
ERI,2017-04-01 10:22,-80.1800,42.0800,36.00,35.10,96.49,330.00,5.00,0.00,29.95,M,8.00,M,OVC,M,M,M,300.00,M,M,M,M,KERI 011022Z 33005KT 8SM OVC003 02/02 A2995 RMK AO2 T00220017
ERI,2017-04-01 10:25,-80.1800,42.0800,M,M,M,340.00,5.00,M,29.96,M,8.00,M,OVC,M,M,M,300.00,M,M,M,M,KERI 011025Z AUTO 34005KT 8SM OVC003 A2996 RMK MADISHF
ERI,2017-04-01 10:30,-80.1800,42.0800,M,M,M,340.00,5.00,M,29.96,M,9.00,M,OVC,M,M,M,300.00,M,M,M,M,KERI 011030Z AUTO 34005KT 9SM OVC003 A2996 RMK MADISHF
ERI,2017-04-01 10:35,-80.1800,42.0800,M,M,M,330.00,5.00,M,29.96,M,9.00,M,BKN,OVC,M,M,300.00,800.00,M,M,M,KERI 011035Z AUTO 33005KT 9SM BKN003 OVC008 A2996 RMK MADISHF
ERI,2017-04-01 10:40,-80.1800,42.0800,M,M,M,320.00,5.00,M,29.96,M,9.00,M,OVC,M,M,M,499.00,M,M,M,M,KERI 011040Z AUTO 32005KT 9SM OVC004 A2996 RMK MADISHF
ERI,2017-04-01 10:43,-80.1800,42.0800,36.00,35.10,96.49,330.00,4.00,0.00,29.96,M,9.00,M,OVC,M,M,M,500.00,M,M,M,M,KERI 011043Z 33004KT 9SM OVC005 02/02 A2996 RMK AO2 T00220017
ERI,2017-04-01 10:45,-80.1800,42.0800,M,M,M,330.00,3.00,M,29.96,M,9.00,M,BKN,OVC,M,M,300.00,800.00,M,M,M,KERI 011045Z AUTO 33003KT 9SM BKN003 OVC008 A2996 RMK MADISHF
ERI,2017-04-01 10:50,-80.1800,42.0800,M,M,M,320.00,4.00,M,29.97,M,6.00,M,OVC,M,M,M,499.00,M,M,M,BR,KERI 011050Z AUTO 32004KT 6SM BR OVC004 A2997 RMK MADISHF
ERI,2017-04-01 10:51,-80.1800,42.0800,36.00,35.10,96.49,320.00,4.00,0.00,29.97,1015.40,6.00,M,OVC,M,M,M,500.00,M,M,M,BR,KERI 011051Z 32004KT 6SM BR OVC005 02/02 A2997 RMK AO2 SLP154 T00220017
ERI,2017-04-01 10:55,-80.1800,42.0800,M,M,M,320.00,5.00,M,29.98,M,5.00,M,OVC,M,M,M,499.00,M,M,M,BR,KERI 011055Z AUTO 32005KT 5SM BR OVC004 A2998 RMK MADISHF
ERI,2017-04-01 11:00,-80.1800,42.0800,M,M,M,320.00,4.00,M,29.98,M,4.00,M,OVC,M,M,M,499.00,M,M,M,BR,KERI 011100Z AUTO 32004KT 4SM BR OVC004 A2998 RMK MADISHF
ERI,2017-04-01 11:05,-80.1800,42.0800,M,M,M,320.00,4.00,M,29.98,M,4.00,M,OVC,M,M,M,499.00,M,M,M,BR,KERI 011105Z AUTO 32004KT 4SM BR OVC004 A2998 RMK MADISHF
ERI,2017-04-01 11:10,-80.1800,42.0800,M,M,M,320.00,5.00,M,29.98,M,3.50,M,OVC,M,M,M,499.00,M,M,M,BR,KERI 011110Z AUTO 32005KT 3SM BR OVC004 A2998 RMK MADISHF
ERI,2017-04-01 11:15,-80.1800,42.0800,M,M,M,330.00,4.00,M,29.98,M,3.00,M,OVC,M,M,M,400.00,M,M,M,BR,KERI 011115Z AUTO 33004KT 3SM BR OVC004 A2998 RMK MADISHF
ERI,2017-04-01 11:19,-80.1800,42.0800,36.00,35.10,96.49,330.00,4.00,0.00,29.98,M,3.00,M,OVC,M,M,M,400.00,M,M,M,BR,KERI 011119Z 33004KT 3SM BR OVC004 02/02 A2998 RMK AO2 T00220017
ERI,2017-04-01 11:20,-80.1800,42.0800,M,M,M,330.00,4.00,M,29.98,M,3.00,M,OVC,M,M,M,400.00,M,M,M,BR,KERI 011120Z AUTO 33004KT 3SM BR OVC004 A2998 RMK MADISHF
ERI,2017-04-01 11:25,-80.1800,42.0800,M,M,M,320.00,5.00,M,29.99,M,2.50,M,OVC,M,M,M,400.00,M,M,M,BR,KERI 011125Z AUTO 32005KT 2 1/2SM BR OVC004 A2999 RMK MADISHF
ERI,2017-04-01 11:30,-80.1800,42.0800,36.00,35.10,96.49,330.00,4.00,0.00,29.99,M,2.50,M,OVC,M,M,M,400.00,M,M,M,BR,KERI 011130Z 33004KT 2 1/2SM BR OVC004 02/02 A2999 RMK AO2 T00220017
ERI,2017-04-01 11:35,-80.1800,42.0800,M,M,M,320.00,4.00,M,29.99,M,2.00,M,OVC,M,M,M,400.00,M,M,M,BR,KERI 011135Z AUTO 32004KT 2SM BR OVC004 A2999 RMK MADISHF
ERI,2017-04-01 11:40,-80.1800,42.0800,M,M,M,320.00,5.00,M,29.99,M,2.50,M,OVC,M,M,M,400.00,M,M,M,BR,KERI 011140Z AUTO 32005KT 2 1/2SM BR OVC004 A2999 RMK MADISHF
ERI,2017-04-01 11:45,-80.1800,42.0800,M,M,M,330.00,6.00,M,29.99,M,2.50,M,OVC,M,M,M,300.00,M,M,M,BR,KERI 011145Z AUTO 33006KT 2 1/2SM BR OVC003 A2999 RMK MADISHF
ERI,2017-04-01 11:50,-80.1800,42.0800,M,M,M,340.00,4.00,M,M,M,3.00,M,OVC,M,M,M,300.00,M,M,M,BR,KERI 011150Z AUTO 34004KT 3SM BR OVC003 RMK MADISHF
ERI,2017-04-01 11:51,-80.1800,42.0800,36.00,35.10,96.49,340.00,4.00,0.00,29.99,1016.20,3.00,M,OVC,M,M,M,300.00,M,M,M,BR,KERI 011151Z 34004KT 3SM BR OVC003 02/02 A2999 RMK AO2 SLP162 60002 70070 T00220017 10022 20022 53026
ERI,2017-04-01 11:55,-80.1800,42.0800,M,M,M,320.00,5.00,M,M,M,3.00,M,OVC,M,M,M,300.00,M,M,M,BR,KERI 011155Z AUTO 32005KT 3SM BR OVC003 RMK MADISHF
ERI,2017-04-01 12:00,-80.1800,42.0800,M,M,M,320.00,5.00,M,30.00,M,3.00,M,OVC,M,M,M,300.00,M,M,M,BR,KERI 011200Z AUTO 32005KT 3SM BR OVC003 A3000 RMK MADISHF
ERI,2017-04-01 12:05,-80.1800,42.0800,M,M,M,330.00,4.00,M,30.00,M,3.50,M,OVC,M,M,M,300.00,M,M,M,BR,KERI 011205Z AUTO 33004KT 3SM BR OVC003 A3000 RMK MADISHF
ERI,2017-04-01 12:10,-80.1800,42.0800,M,M,M,340.00,5.00,M,30.00,M,2.50,M,OVC,M,M,M,300.00,M,M,M,BR,KERI 011210Z AUTO 34005KT 2 1/2SM BR OVC003 A3000 RMK MADISHF
ERI,2017-04-01 12:15,-80.1800,42.0800,M,M,M,340.00,4.00,M,30.01,M,2.50,M,OVC,M,M,M,300.00,M,M,M,BR,KERI 011215Z AUTO 34004KT 2 1/2SM BR OVC003 A3001 RMK MADISHF
ERI,2017-04-01 12:16,-80.1800,42.0800,36.00,35.10,96.49,340.00,4.00,0.00,30.01,M,2.50,M,OVC,M,M,M,300.00,M,M,M,BR,KERI 011216Z 34004KT 2 1/2SM BR OVC003 02/02 A3001 RMK AO2 T00220017
ERI,2017-04-01 12:20,-80.1800,42.0800,M,M,M,330.00,4.00,M,30.01,M,3.00,M,OVC,M,M,M,300.00,M,M,M,BR,KERI 011220Z AUTO 33004KT 3SM BR OVC003 A3001 RMK MADISHF
ERI,2017-04-01 12:25,-80.1800,42.0800,M,M,M,340.00,5.00,M,30.01,M,2.50,M,OVC,M,M,M,300.00,M,M,M,BR,KERI 011225Z AUTO 34005KT 2 1/2SM BR OVC003 A3001 RMK MADISHF
ERI,2017-04-01 12:30,-80.1800,42.0800,M,M,M,330.00,5.00,M,30.02,M,2.50,M,OVC,M,M,M,300.00,M,M,M,BR,KERI 011230Z AUTO 33005KT 2 1/2SM BR OVC003 A3002 RMK MADISHF
ERI,2017-04-01 12:35,-80.1800,42.0800,M,M,M,330.00,5.00,M,30.02,M,2.00,M,OVC,M,M,M,300.00,M,M,M,BR,KERI 011235Z AUTO 33005KT 2SM BR OVC003 A3002 RMK MADISHF
ERI,2017-04-01 12:40,-80.1800,42.0800,M,M,M,330.00,6.00,M,30.02,M,2.00,M,OVC,M,M,M,300.00,M,M,M,BR,KERI 011240Z AUTO 33006KT 2SM BR OVC003 A3002 RMK MADISHF
ERI,2017-04-01 12:45,-80.1800,42.0800,M,M,M,330.00,5.00,M,30.03,M,2.00,M,OVC,M,M,M,300.00,M,M,M,BR,KERI 011245Z AUTO 33005KT 2SM BR OVC003 A3003 RMK MADISHF
ERI,2017-04-01 12:50,-80.1800,42.0800,M,M,M,340.00,6.00,M,30.03,M,2.00,M,OVC,M,M,M,300.00,M,M,M,BR,KERI 011250Z AUTO 34006KT 2SM BR OVC003 A3003 RMK MADISHF
ERI,2017-04-01 12:51,-80.1800,42.0800,36.00,35.10,96.49,340.00,5.00,0.00,30.03,1017.60,2.00,M,OVC,M,M,M,300.00,M,M,M,BR,KERI 011251Z 34005KT 2SM BR OVC003 02/02 A3003 RMK AO2 SLP176 T00220017
ERI,2017-04-01 12:55,-80.1800,42.0800,M,M,M,340.00,6.00,M,30.03,M,2.50,M,BKN,OVC,M,M,300.00,800.00,M,M,BR,KERI 011255Z AUTO 34006KT 2 1/2SM BR BKN003 OVC008 A3003 RMK MADISHF
ERI,2017-04-01 13:00,-80.1800,42.0800,M,M,M,330.00,6.00,M,30.03,M,2.50,M,OVC,M,M,M,300.00,M,M,M,BR,KERI 011300Z AUTO 33006KT 2 1/2SM BR OVC003 A3003 RMK MADISHF
ERI,2017-04-01 13:05,-80.1800,42.0800,M,M,M,320.00,5.00,M,30.03,M,2.50,M,OVC,M,M,M,300.00,M,M,M,BR,KERI 011305Z AUTO 32005KT 2 1/2SM BR OVC003 A3003 RMK MADISHF
ERI,2017-04-01 13:10,-80.1800,42.0800,M,M,M,320.00,6.00,M,30.03,M,2.50,M,OVC,M,M,M,300.00,M,M,M,-RA BR,KERI 011310Z AUTO 32006KT 2 1/2SM -RA BR OVC003 A3003 RMK MADISHF
ERI,2017-04-01 13:15,-80.1800,42.0800,M,M,M,320.00,5.00,M,30.03,M,2.00,M,OVC,M,M,M,300.00,M,M,M,-RA BR,KERI 011315Z AUTO 32005KT 2SM -RA BR OVC003 A3003 RMK MADISHF
ERI,2017-04-01 13:20,-80.1800,42.0800,M,M,M,330.00,5.00,0.01,30.04,M,2.00,M,OVC,M,M,M,300.00,M,M,M,-RA BR,KERI 011320Z AUTO 33005KT 2SM -RA BR OVC003 A3004 RMK P0001 MADISHF
ERI,2017-04-01 13:25,-80.1800,42.0800,M,M,M,320.00,5.00,0.01,30.04,M,2.50,M,OVC,M,M,M,300.00,M,M,M,-RA BR,KERI 011325Z AUTO 32005KT 2 1/2SM -RA BR OVC003 A3004 RMK P0001 MADISHF
ERI,2017-04-01 13:30,-80.1800,42.0800,M,M,M,310.00,6.00,0.01,30.05,M,3.00,M,OVC,M,M,M,300.00,M,M,M,-RA BR,KERI 011330Z AUTO 31006KT 3SM -RA BR OVC003 A3005 RMK P0001 MADISHF
ERI,2017-04-01 13:33,-80.1800,42.0800,36.00,35.10,96.49,310.00,4.00,0.01,30.05,M,3.00,M,BKN,OVC,M,M,300.00,800.00,M,M,-RA BR,KERI 011333Z 31004KT 3SM -RA BR BKN003 OVC008 02/02 A3005 RMK AO2 RAB08 P0001 T00220017
ERI,2017-04-01 13:35,-80.1800,42.0800,M,M,M,340.00,5.00,0.01,30.05,M,3.50,M,OVC,M,M,M,300.00,M,M,M,-RA BR,KERI 011335Z AUTO 34005KT 3SM -RA BR OVC003 A3005 RMK P0001 MADISHF
ERI,2017-04-01 13:40,-80.1800,42.0800,M,M,M,310.00,4.00,0.02,30.05,M,3.50,M,BKN,OVC,M,M,300.00,700.00,M,M,UP BR,KERI 011340Z AUTO 31004KT 3SM UP BR BKN003 OVC007 A3005 RMK P0002 MADISHF
ERI,2017-04-01 13:45,-80.1800,42.0800,M,M,M,310.00,6.00,0.02,30.05,M,3.50,M,BKN,OVC,M,M,300.00,700.00,M,M,-RA BR,KERI 011345Z AUTO 31006KT 3SM -RA BR BKN003 OVC007 A3005 RMK P0002 MADISHF
ERI,2017-04-01 13:50,-80.1800,42.0800,M,M,M,330.00,5.00,0.02,30.05,M,4.00,M,OVC,M,M,M,300.00,M,M,M,-RA BR,KERI 011350Z AUTO 33005KT 4SM -RA BR OVC003 A3005 RMK P0002 MADISHF
ERI,2017-04-01 13:51,-80.1800,42.0800,36.00,35.10,96.49,330.00,5.00,0.02,30.05,1018.40,4.00,M,OVC,M,M,M,300.00,M,M,M,-RA BR,KERI 011351Z 33005KT 4SM -RA BR OVC003 02/02 A3005 RMK AO2 RAB08UPB37E43 SLP184 P0002 T00220017
ERI,2017-04-01 13:55,-80.1800,42.0800,M,M,M,310.00,6.00,M,30.06,M,4.00,M,BKN,OVC,M,M,300.00,700.00,M,M,-RA BR,KERI 011355Z AUTO 31006KT 4SM -RA BR BKN003 OVC007 A3006 RMK MADISHF
ERI,2017-04-01 14:00,-80.1800,42.0800,M,M,M,300.00,7.00,M,30.06,M,4.00,M,OVC,M,M,M,300.00,M,M,M,-RA BR,KERI 011400Z AUTO 30007KT 4SM -RA BR OVC003 A3006 RMK MADISHF
ERI,2017-04-01 14:05,-80.1800,42.0800,M,M,M,310.00,7.00,M,30.06,M,4.00,M,OVC,M,M,M,300.00,M,M,M,-RA BR,KERI 011405Z AUTO 31007KT 4SM -RA BR OVC003 A3006 RMK MADISHF
ERI,2017-04-01 14:10,-80.1800,42.0800,M,M,M,310.00,6.00,M,30.06,M,5.00,M,OVC,M,M,M,400.00,M,M,M,BR,KERI 011410Z AUTO 31006KT 5SM BR OVC004 A3006 RMK MADISHF
ERI,2017-04-01 14:15,-80.1800,42.0800,M,M,M,310.00,5.00,M,30.06,M,5.00,M,BKN,OVC,M,M,400.00,999.00,M,M,BR,KERI 011415Z AUTO 31005KT 5SM BR BKN004 OVC009 A3006 RMK VRB05KT  MADISHF
ERI,2017-04-01 14:20,-80.1800,42.0800,M,M,M,310.00,7.00,M,30.06,M,5.00,M,BKN,BKN,OVC,M,300.00,999.00,1600.00,M,BR,KERI 011420Z AUTO 31007KT 5SM BR BKN003 BKN009 OVC016 A3006 RMK MADISHF
ERI,2017-04-01 14:25,-80.1800,42.0800,M,M,M,320.00,6.00,M,30.07,M,5.00,M,BKN,BKN,OVC,M,300.00,999.00,1600.00,M,BR,KERI 011425Z AUTO 32006KT 5SM BR BKN003 BKN009 OVC016 A3007 RMK MADISHF
ERI,2017-04-01 14:30,-80.1800,42.0800,M,M,M,310.00,7.00,0.00,30.07,M,5.00,M,BKN,OVC,M,M,400.00,1200.00,M,M,UP BR,KERI 011430Z AUTO 31007KT 5SM UP BR BKN004 OVC012 A3007 RMK P0000 MADISHF
ERI,2017-04-01 14:35,-80.1800,42.0800,M,M,M,320.00,6.00,0.00,30.06,M,5.00,M,SCT,OVC,M,M,400.00,1200.00,M,M,UP BR,KERI 011435Z AUTO 32006KT 5SM UP BR SCT004 OVC012 A3006 RMK P0000 CIG 003 NE  MADISHF
ERI,2017-04-01 14:40,-80.1800,42.0800,37.90,36.00,92.78,330.00,6.00,0.00,30.06,M,6.00,M,FEW,BKN,OVC,M,400.00,1000.00,1600.00,M,BR,KERI 011440Z 33006KT 6SM BR FEW004 BKN010 OVC016 03/02 A3006 RMK AO2 RAE07UPB1354E1355B30E38 P0000 T00330022
ERI,2017-04-01 14:45,-80.1800,42.0800,M,M,M,340.00,7.00,M,30.07,M,7.00,M,FEW,BKN,OVC,M,400.00,999.00,1600.00,M,M,KERI 011445Z AUTO 34007KT 7SM FEW004 BKN009 OVC016 A3007 RMK MADISHF
ERI,2017-04-01 14:50,-80.1800,42.0800,M,M,M,330.00,5.00,M,30.07,M,7.00,M,FEW,BKN,OVC,M,400.00,999.00,1800.00,M,M,KERI 011450Z AUTO 33005KT 7SM FEW004 BKN009 OVC018 A3007 RMK MADISHF
ERI,2017-04-01 14:51,-80.1800,42.0800,37.90,35.10,89.53,330.00,5.00,0.00,30.06,1018.70,7.00,M,FEW,BKN,OVC,M,400.00,1000.00,1800.00,M,M,KERI 011451Z 33005KT 7SM FEW004 BKN010 OVC018 03/02 A3006 RMK AO2 RAE07UPB1354E1355B30E38 SLP187 P0000 60002 T00330017 51024
ERI,2017-04-01 14:55,-80.1800,42.0800,M,M,M,360.00,5.00,0.01,30.06,M,7.00,M,FEW,BKN,OVC,M,600.00,999.00,2100.00,M,M,KERI 011455Z AUTO 36005KT 7SM FEW006 BKN009 OVC021 A3006 RMK P0001 MADISHF
ERI,2017-04-01 15:00,-80.1800,42.0800,M,M,M,350.00,6.00,0.01,30.06,M,8.00,M,FEW,BKN,OVC,M,600.00,999.00,2100.00,M,M,KERI 011500Z AUTO 35006KT 8SM FEW006 BKN009 OVC021 A3006 RMK P0001 MADISHF
ERI,2017-04-01 15:05,-80.1800,42.0800,M,M,M,330.00,5.00,0.01,30.06,M,9.00,M,BKN,OVC,M,M,999.00,1800.00,M,M,M,KERI 011505Z AUTO 33005KT 9SM BKN009 OVC018 A3006 RMK P0001 MADISHF
ERI,2017-04-01 15:10,-80.1800,42.0800,M,M,M,360.00,7.00,0.01,30.06,M,10.00,M,BKN,OVC,M,M,900.00,1800.00,M,M,M,KERI 011510Z AUTO 36007KT 10SM BKN009 OVC018 A3006 RMK P0001 MADISHF
ERI,2017-04-01 15:15,-80.1800,42.0800,M,M,M,340.00,6.00,0.01,30.07,M,10.00,M,BKN,OVC,M,M,900.00,1800.00,M,M,M,KERI 011515Z AUTO 34006KT 10SM BKN009 OVC018 A3007 RMK P0001 MADISHF
ERI,2017-04-01 15:16,-80.1800,42.0800,39.00,35.10,85.76,350.00,6.00,0.01,30.07,M,10.00,M,BKN,OVC,M,M,900.00,1800.00,M,M,M,KERI 011516Z 35006KT 10SM BKN009 OVC018 04/02 A3007 RMK AO2 P0001 T00390017
ERI,2017-04-01 15:20,-80.1800,42.0800,M,M,M,320.00,5.00,0.01,30.07,M,10.00,M,BKN,OVC,M,M,900.00,1800.00,M,M,M,KERI 011520Z AUTO 32005KT 10SM BKN009 OVC018 A3007 RMK P0001 MADISHF
ERI,2017-04-01 15:25,-80.1800,42.0800,M,M,M,330.00,5.00,0.01,30.07,M,10.00,M,SCT,BKN,OVC,M,700.00,1100.00,1699.00,M,M,KERI 011525Z AUTO 33005KT 10SM SCT007 BKN011 OVC016 A3007 RMK P0001 MADISHF
ERI,2017-04-01 15:30,-80.1800,42.0800,M,M,M,330.00,5.00,0.01,30.07,M,10.00,M,BKN,OVC,M,M,700.00,1699.00,M,M,M,KERI 011530Z AUTO 33005KT 10SM BKN007 OVC016 A3007 RMK P0001 MADISHF
ERI,2017-04-01 15:35,-80.1800,42.0800,M,M,M,300.00,8.00,0.01,30.07,M,10.00,M,BKN,OVC,M,M,700.00,1699.00,M,M,M,KERI 011535Z AUTO 30008KT 10SM BKN007 OVC016 A3007 RMK P0001 MADISHF
ERI,2017-04-01 15:40,-80.1800,42.0800,M,M,M,300.00,8.00,0.01,30.07,M,10.00,M,BKN,OVC,M,M,800.00,1699.00,M,M,M,KERI 011540Z AUTO 30008KT 10SM BKN008 OVC016 A3007 RMK P0001 MADISHF
ERI,2017-04-01 15:42,-80.1800,42.0800,39.00,35.10,85.76,300.00,7.00,0.01,30.07,M,10.00,M,SCT,OVC,M,M,800.00,1700.00,M,M,M,KERI 011542Z 30007KT 10SM SCT008 OVC017 04/02 A3007 RMK AO2 P0001 T00390017
ERI,2017-04-01 15:45,-80.1800,42.0800,M,M,M,300.00,7.00,0.01,30.08,M,10.00,M,SCT,OVC,M,M,800.00,1500.00,M,M,M,KERI 011545Z AUTO 30007KT 10SM SCT008 OVC015 A3008 RMK P0001 MADISHF
ERI,2017-04-01 15:50,-80.1800,42.0800,M,M,M,310.00,6.00,0.01,30.08,M,10.00,M,FEW,OVC,M,M,800.00,1500.00,M,M,M,KERI 011550Z AUTO 31006KT 10SM FEW008 OVC015 A3008 RMK P0001 VRB06KT  MADISHF
ERI,2017-04-01 15:51,-80.1800,42.0800,37.90,34.00,85.69,310.00,6.00,0.01,30.08,1019.10,10.00,M,FEW,OVC,M,M,800.00,1500.00,M,M,M,KERI 011551Z 31006KT 10SM FEW008 OVC015 03/01 A3008 RMK AO2 SLP191 P0001 T00330011
ERI,2017-04-01 15:55,-80.1800,42.0800,M,M,M,310.00,7.00,M,30.08,M,10.00,M,FEW,OVC,M,M,800.00,1500.00,M,M,M,KERI 011555Z AUTO 31007KT 10SM FEW008 OVC015 A3008 RMK MADISHF
ERI,2017-04-01 16:00,-80.1800,42.0800,M,M,M,320.00,6.00,M,30.08,M,10.00,M,FEW,OVC,M,M,700.00,1500.00,M,M,M,KERI 011600Z AUTO 32006KT 10SM FEW007 OVC015 A3008 RMK MADISHF
ERI,2017-04-01 16:05,-80.1800,42.0800,M,M,M,330.00,5.00,M,30.08,M,10.00,M,FEW,OVC,M,M,700.00,1400.00,M,M,M,KERI 011605Z AUTO 33005KT 10SM FEW007 OVC014 A3008 RMK MADISHF
ERI,2017-04-01 16:10,-80.1800,42.0800,M,M,M,300.00,7.00,M,30.08,M,10.00,M,FEW,OVC,M,M,700.00,1600.00,M,M,M,KERI 011610Z AUTO 30007KT 10SM FEW007 OVC016 A3008 RMK MADISHF
ERI,2017-04-01 16:15,-80.1800,42.0800,M,M,M,300.00,6.00,M,30.07,M,10.00,M,FEW,BKN,OVC,M,700.00,1400.00,1900.00,M,M,KERI 011615Z AUTO 30006KT 10SM FEW007 BKN014 OVC019 A3007 RMK MADISHF
ERI,2017-04-01 16:17,-80.1800,42.0800,37.90,34.00,85.69,M,4.00,0.00,30.07,M,10.00,M,SCT,BKN,OVC,M,700.00,1400.00,1900.00,M,M,KERI 011617Z VRB04KT 10SM SCT007 BKN014 OVC019 03/01 A3007 RMK AO2 T00330011
ERI,2017-04-01 16:20,-80.1800,42.0800,M,M,M,300.00,5.00,M,30.07,M,10.00,M,SCT,BKN,OVC,M,700.00,1400.00,2100.00,M,M,KERI 011620Z AUTO 30005KT 10SM SCT007 BKN014 OVC021 A3007 RMK MADISHF
ERI,2017-04-01 16:25,-80.1800,42.0800,M,M,M,310.00,6.00,M,30.07,M,10.00,M,FEW,SCT,OVC,M,700.00,1200.00,1800.00,M,M,KERI 011625Z AUTO 31006KT 10SM FEW007 SCT012 OVC018 A3007 RMK MADISHF
ERI,2017-04-01 16:28,-80.1800,42.0800,39.00,35.10,85.76,310.00,6.00,0.00,30.07,M,10.00,M,SCT,OVC,M,M,800.00,1800.00,M,M,M,KERI 011628Z 31006KT 10SM SCT008 OVC018 04/02 A3007 RMK AO2 T00390017
ERI,2017-04-01 16:30,-80.1800,42.0800,M,M,M,310.00,6.00,M,30.07,M,10.00,M,FEW,SCT,OVC,M,800.00,1200.00,1800.00,M,M,KERI 011630Z AUTO 31006KT 10SM FEW008 SCT012 OVC018 A3007 RMK MADISHF
ERI,2017-04-01 16:35,-80.1800,42.0800,M,M,M,300.00,6.00,M,30.07,M,10.00,M,FEW,SCT,OVC,M,800.00,1200.00,1900.00,M,M,KERI 011635Z AUTO 30006KT 10SM FEW008 SCT012 OVC019 A3007 RMK MADISHF
ERI,2017-04-01 16:40,-80.1800,42.0800,M,M,M,300.00,6.00,M,30.08,M,10.00,M,FEW,SCT,OVC,M,800.00,1200.00,1900.00,M,M,KERI 011640Z AUTO 30006KT 10SM FEW008 SCT012 OVC019 A3008 RMK MADISHF
ERI,2017-04-01 16:45,-80.1800,42.0800,M,M,M,300.00,6.00,M,30.08,M,10.00,M,FEW,BKN,OVC,M,800.00,1200.00,1699.00,M,M,KERI 011645Z AUTO 30006KT 10SM FEW008 BKN012 OVC016 A3008 RMK MADISHF
ERI,2017-04-01 16:50,-80.1800,42.0800,M,M,M,290.00,7.00,M,30.08,M,10.00,M,FEW,BKN,OVC,M,600.00,1300.00,1900.00,M,M,KERI 011650Z AUTO 29007KT 10SM FEW006 BKN013 OVC019 A3008 RMK MADISHF
ERI,2017-04-01 16:51,-80.1800,42.0800,37.90,35.10,89.53,290.00,7.00,0.00,30.08,1019.10,10.00,M,FEW,OVC,M,M,600.00,1500.00,M,M,M,KERI 011651Z 29007KT 10SM FEW006 OVC015 03/02 A3008 RMK AO2 SLP191 T00330017
ERI,2017-04-01 16:55,-80.1800,42.0800,M,M,M,310.00,7.00,M,30.08,M,10.00,M,FEW,OVC,M,M,600.00,1500.00,M,M,M,KERI 011655Z AUTO 31007KT 10SM FEW006 OVC015 A3008 RMK MADISHF
ERI,2017-04-01 17:00,-80.1800,42.0800,M,M,M,310.00,7.00,M,30.09,M,10.00,M,FEW,OVC,M,M,600.00,1500.00,M,M,M,KERI 011700Z AUTO 31007KT 10SM FEW006 OVC015 A3009 RMK MADISHF
ERI,2017-04-01 17:05,-80.1800,42.0800,M,M,M,310.00,8.00,M,30.09,M,10.00,M,FEW,OVC,M,M,600.00,1500.00,M,M,M,KERI 011705Z AUTO 31008KT 10SM FEW006 OVC015 A3009 RMK MADISHF
ERI,2017-04-01 17:10,-80.1800,42.0800,M,M,M,290.00,7.00,M,30.09,M,10.00,M,FEW,OVC,M,M,600.00,1400.00,M,M,M,KERI 011710Z AUTO 29007KT 10SM FEW006 OVC014 A3009 RMK MADISHF
ERI,2017-04-01 17:12,-80.1800,42.0800,37.90,35.10,89.53,290.00,7.00,0.00,30.10,M,10.00,M,FEW,OVC,M,M,600.00,1400.00,M,M,M,KERI 011712Z 29007KT 10SM FEW006 OVC014 03/02 A3010 RMK AO2 T00330017
ERI,2017-04-01 17:15,-80.1800,42.0800,M,M,M,300.00,6.00,M,30.09,M,10.00,M,OVC,M,M,M,1400.00,M,M,M,M,KERI 011715Z AUTO 30006KT 10SM OVC014 A3009 RMK MADISHF
ERI,2017-04-01 17:20,-80.1800,42.0800,M,M,M,310.00,6.00,M,30.10,M,10.00,M,OVC,M,M,M,1400.00,M,M,M,M,KERI 011720Z AUTO 31006KT 10SM OVC014 A3010 RMK MADISHF
ERI,2017-04-01 17:25,-80.1800,42.0800,M,M,M,300.00,7.00,M,30.10,M,10.00,M,OVC,M,M,M,1400.00,M,M,M,M,KERI 011725Z AUTO 30007KT 10SM OVC014 A3010 RMK MADISHF
ERI,2017-04-01 17:30,-80.1800,42.0800,M,M,M,290.00,6.00,M,30.10,M,10.00,M,OVC,M,M,M,1400.00,M,M,M,M,KERI 011730Z AUTO 29006KT 10SM OVC014 A3010 RMK MADISHF
ERI,2017-04-01 17:35,-80.1800,42.0800,M,M,M,290.00,6.00,M,30.10,M,10.00,M,OVC,M,M,M,1500.00,M,M,M,M,KERI 011735Z AUTO 29006KT 10SM OVC015 A3010 RMK MADISHF
ERI,2017-04-01 17:40,-80.1800,42.0800,M,M,M,280.00,8.00,M,30.10,M,10.00,M,OVC,M,M,M,1500.00,M,M,M,M,KERI 011740Z AUTO 28008KT 10SM OVC015 A3010 RMK MADISHF
ERI,2017-04-01 17:41,-80.1800,42.0800,39.00,33.10,79.17,290.00,8.00,0.00,30.10,M,10.00,M,OVC,M,M,M,1500.00,M,M,M,M,KERI 011741Z 29008KT 10SM OVC015 04/01 A3010 RMK AO2 T00390006
ERI,2017-04-01 17:45,-80.1800,42.0800,M,M,M,290.00,9.00,M,30.10,M,10.00,M,OVC,M,M,M,1500.00,M,M,M,M,KERI 011745Z AUTO 29009KT 10SM OVC015 A3010 RMK MADISHF
ERI,2017-04-01 17:50,-80.1800,42.0800,M,M,M,280.00,8.00,M,30.10,M,10.00,M,OVC,M,M,M,1500.00,M,M,M,M,KERI 011750Z AUTO 28008KT 10SM OVC015 A3010 RMK MADISHF
ERI,2017-04-01 17:51,-80.1800,42.0800,37.90,33.10,82.66,280.00,7.00,0.00,30.10,1019.90,10.00,M,OVC,M,M,M,1500.00,M,M,M,M,KERI 011751Z 28007KT 10SM OVC015 03/01 A3010 RMK AO2 SLP199 60003 T00330006 10039 20022 53011
ERI,2017-04-01 17:55,-80.1800,42.0800,M,M,M,270.00,7.00,M,30.10,M,10.00,M,OVC,M,M,M,1500.00,M,M,M,M,KERI 011755Z AUTO 27007KT 10SM OVC015 A3010 RMK MADISHF
ERI,2017-04-01 18:00,-80.1800,42.0800,M,M,M,280.00,8.00,M,30.10,M,10.00,M,OVC,M,M,M,1500.00,M,M,M,M,KERI 011800Z AUTO 28008KT 10SM OVC015 A3010 RMK MADISHF
ERI,2017-04-01 18:05,-80.1800,42.0800,M,M,M,280.00,8.00,M,30.10,M,10.00,M,OVC,M,M,M,1500.00,M,M,M,M,KERI 011805Z AUTO 28008KT 10SM OVC015 A3010 RMK MADISHF
ERI,2017-04-01 18:10,-80.1800,42.0800,M,M,M,290.00,8.00,M,30.10,M,10.00,M,OVC,M,M,M,1500.00,M,M,M,M,KERI 011810Z AUTO 29008KT 10SM OVC015 A3010 RMK MADISHF
ERI,2017-04-01 18:15,-80.1800,42.0800,M,M,M,280.00,7.00,M,30.10,M,10.00,M,OVC,M,M,M,1500.00,M,M,M,M,KERI 011815Z AUTO 28007KT 10SM OVC015 A3010 RMK MADISHF
ERI,2017-04-01 18:20,-80.1800,42.0800,M,M,M,280.00,7.00,M,30.09,M,10.00,M,OVC,M,M,M,1500.00,M,M,M,M,KERI 011820Z AUTO 28007KT 10SM OVC015 A3009 RMK MADISHF
ERI,2017-04-01 18:25,-80.1800,42.0800,M,M,M,280.00,8.00,M,30.09,M,10.00,M,OVC,M,M,M,1600.00,M,M,M,M,KERI 011825Z AUTO 28008KT 10SM OVC016 A3009 RMK MADISHF
ERI,2017-04-01 18:30,-80.1800,42.0800,M,M,M,270.00,8.00,M,30.09,M,10.00,M,OVC,M,M,M,1600.00,M,M,M,M,KERI 011830Z AUTO 27008KT 10SM OVC016 A3009 RMK MADISHF
ERI,2017-04-01 18:35,-80.1800,42.0800,M,M,M,280.00,8.00,M,30.09,M,10.00,M,OVC,M,M,M,1600.00,M,M,M,M,KERI 011835Z AUTO 28008KT 10SM OVC016 A3009 RMK MADISHF
ERI,2017-04-01 18:40,-80.1800,42.0800,M,M,M,270.00,8.00,M,30.09,M,10.00,M,OVC,M,M,M,1600.00,M,M,M,M,KERI 011840Z AUTO 27008KT 10SM OVC016 A3009 RMK MADISHF
ERI,2017-04-01 18:45,-80.1800,42.0800,M,M,M,260.00,9.00,M,30.09,M,10.00,M,OVC,M,M,M,1500.00,M,M,M,M,KERI 011845Z AUTO 26009KT 10SM OVC015 A3009 RMK MADISHF
ERI,2017-04-01 18:50,-80.1800,42.0800,M,M,M,270.00,8.00,M,30.09,M,10.00,M,OVC,M,M,M,1500.00,M,M,M,M,KERI 011850Z AUTO 27008KT 10SM OVC015 A3009 RMK MADISHF
ERI,2017-04-01 18:51,-80.1800,42.0800,37.90,34.00,85.69,270.00,8.00,0.00,30.09,1019.60,10.00,M,OVC,M,M,M,1500.00,M,M,M,M,KERI 011851Z 27008KT 10SM OVC015 03/01 A3009 RMK AO2 SLP196 T00330011
ERI,2017-04-01 18:55,-80.1800,42.0800,M,M,M,290.00,8.00,M,30.09,M,10.00,M,OVC,M,M,M,1500.00,M,M,M,M,KERI 011855Z AUTO 29008KT 10SM OVC015 A3009 RMK MADISHF
ERI,2017-04-01 19:00,-80.1800,42.0800,M,M,M,290.00,7.00,M,30.09,M,10.00,M,OVC,M,M,M,1500.00,M,M,M,M,KERI 011900Z AUTO 29007KT 10SM OVC015 A3009 RMK MADISHF
ERI,2017-04-01 19:05,-80.1800,42.0800,M,M,M,280.00,6.00,M,30.09,M,10.00,M,OVC,M,M,M,1500.00,M,M,M,M,KERI 011905Z AUTO 28006KT 10SM OVC015 A3009 RMK MADISHF
ERI,2017-04-01 19:10,-80.1800,42.0800,M,M,M,280.00,8.00,M,30.09,M,10.00,M,OVC,M,M,M,1500.00,M,M,M,M,KERI 011910Z AUTO 28008KT 10SM OVC015 A3009 RMK MADISHF
ERI,2017-04-01 19:15,-80.1800,42.0800,M,M,M,270.00,7.00,M,30.09,M,10.00,M,OVC,M,M,M,1500.00,M,M,M,M,KERI 011915Z AUTO 27007KT 10SM OVC015 A3009 RMK MADISHF
ERI,2017-04-01 19:20,-80.1800,42.0800,M,M,M,290.00,7.00,M,30.10,M,10.00,M,OVC,M,M,M,1600.00,M,M,M,M,KERI 011920Z AUTO 29007KT 10SM OVC016 A3010 RMK MADISHF
ERI,2017-04-01 19:25,-80.1800,42.0800,M,M,M,290.00,7.00,M,30.10,M,10.00,M,OVC,M,M,M,1600.00,M,M,M,M,KERI 011925Z AUTO 29007KT 10SM OVC016 A3010 RMK MADISHF
ERI,2017-04-01 19:30,-80.1800,42.0800,M,M,M,280.00,6.00,M,30.10,M,10.00,M,OVC,M,M,M,1600.00,M,M,M,M,KERI 011930Z AUTO 28006KT 10SM OVC016 A3010 RMK MADISHF
ERI,2017-04-01 19:35,-80.1800,42.0800,M,M,M,270.00,6.00,M,30.10,M,10.00,M,OVC,M,M,M,1600.00,M,M,M,M,KERI 011935Z AUTO 27006KT 10SM OVC016 A3010 RMK MADISHF
ERI,2017-04-01 19:40,-80.1800,42.0800,M,M,M,280.00,8.00,M,30.10,M,10.00,M,OVC,M,M,M,1600.00,M,M,M,M,KERI 011940Z AUTO 28008KT 10SM OVC016 A3010 RMK MADISHF
ERI,2017-04-01 19:45,-80.1800,42.0800,M,M,M,280.00,8.00,M,30.10,M,10.00,M,OVC,M,M,M,1699.00,M,M,M,M,KERI 011945Z AUTO 28008KT 10SM OVC016 A3010 RMK MADISHF
ERI,2017-04-01 19:50,-80.1800,42.0800,M,M,M,270.00,7.00,M,30.10,M,10.00,M,OVC,M,M,M,1699.00,M,M,M,M,KERI 011950Z AUTO 27007KT 10SM OVC016 A3010 RMK MADISHF
ERI,2017-04-01 19:51,-80.1800,42.0800,39.00,33.10,79.17,270.00,7.00,0.00,30.10,1019.80,10.00,M,OVC,M,M,M,1700.00,M,M,M,M,KERI 011951Z 27007KT 10SM OVC017 04/01 A3010 RMK AO2 SLP198 T00390006
ERI,2017-04-01 19:55,-80.1800,42.0800,M,M,M,280.00,6.00,M,30.10,M,10.00,M,OVC,M,M,M,1699.00,M,M,M,M,KERI 011955Z AUTO 28006KT 10SM OVC016 A3010 RMK MADISHF
ERI,2017-04-01 20:00,-80.1800,42.0800,M,M,M,280.00,6.00,M,30.10,M,10.00,M,OVC,M,M,M,1699.00,M,M,M,M,KERI 012000Z AUTO 28006KT 10SM OVC016 A3010 RMK MADISHF
ERI,2017-04-01 20:05,-80.1800,42.0800,M,M,M,300.00,6.00,M,30.10,M,10.00,M,OVC,M,M,M,1900.00,M,M,M,M,KERI 012005Z AUTO 30006KT 10SM OVC019 A3010 RMK MADISHF
ERI,2017-04-01 20:10,-80.1800,42.0800,M,M,M,270.00,4.00,M,30.10,M,10.00,M,OVC,M,M,M,1900.00,M,M,M,M,KERI 012010Z AUTO 27004KT 10SM OVC019 A3010 RMK MADISHF
ERI,2017-04-01 20:15,-80.1800,42.0800,M,M,M,270.00,5.00,M,30.11,M,10.00,M,OVC,M,M,M,2200.00,M,M,M,M,KERI 012015Z AUTO 27005KT 10SM OVC022 A3011 RMK MADISHF
ERI,2017-04-01 20:20,-80.1800,42.0800,M,M,M,290.00,8.00,M,30.12,M,10.00,M,OVC,M,M,M,2200.00,M,M,M,M,KERI 012020Z AUTO 29008KT 10SM OVC022 A3012 RMK MADISHF
ERI,2017-04-01 20:25,-80.1800,42.0800,M,M,M,270.00,7.00,M,30.12,M,10.00,M,OVC,M,M,M,2200.00,M,M,M,M,KERI 012025Z AUTO 27007KT 10SM OVC022 A3012 RMK MADISHF
ERI,2017-04-01 20:30,-80.1800,42.0800,M,M,M,270.00,9.00,M,30.13,M,10.00,M,OVC,M,M,M,2400.00,M,M,M,M,KERI 012030Z AUTO 27009KT 10SM OVC024 A3013 RMK MADISHF
ERI,2017-04-01 20:35,-80.1800,42.0800,M,M,M,270.00,9.00,M,30.13,M,10.00,M,OVC,M,M,M,2400.00,M,M,M,M,KERI 012035Z AUTO 27009KT 10SM OVC024 A3013 RMK MADISHF
ERI,2017-04-01 20:40,-80.1800,42.0800,M,M,M,270.00,9.00,M,30.13,M,10.00,M,OVC,M,M,M,2600.00,M,M,M,M,KERI 012040Z AUTO 27009KT 10SM OVC026 A3013 RMK MADISHF
ERI,2017-04-01 20:45,-80.1800,42.0800,M,M,M,270.00,8.00,M,30.13,M,10.00,M,OVC,M,M,M,2600.00,M,M,M,M,KERI 012045Z AUTO 27008KT 10SM OVC026 A3013 RMK MADISHF
ERI,2017-04-01 20:50,-80.1800,42.0800,M,M,M,270.00,7.00,M,30.14,M,10.00,M,OVC,M,M,M,2800.00,M,M,M,M,KERI 012050Z AUTO 27007KT 10SM OVC028 A3014 RMK MADISHF
ERI,2017-04-01 20:51,-80.1800,42.0800,39.90,33.10,76.44,260.00,7.00,0.00,30.14,1021.10,10.00,M,OVC,M,M,M,2800.00,M,M,M,M,KERI 012051Z 26007KT 10SM OVC028 04/01 A3014 RMK AO2 SLP211 T00440006 53013
ERI,2017-04-01 20:55,-80.1800,42.0800,M,M,M,260.00,10.00,M,30.14,M,10.00,M,OVC,M,M,M,2800.00,M,M,M,M,KERI 012055Z AUTO 26010KT 10SM OVC028 A3014 RMK MADISHF
ERI,2017-04-01 21:00,-80.1800,42.0800,M,M,M,260.00,9.00,M,30.14,M,10.00,M,OVC,M,M,M,3000.00,M,M,M,M,KERI 012100Z AUTO 26009KT 10SM OVC030 A3014 RMK MADISHF
ERI,2017-04-01 21:03,-80.1800,42.0800,39.00,33.10,79.17,250.00,7.00,0.00,30.15,M,10.00,M,OVC,M,M,M,3000.00,M,M,M,M,KERI 012103Z 25007KT 10SM OVC030 04/01 A3015 RMK AO2 T00390006
ERI,2017-04-01 21:05,-80.1800,42.0800,M,M,M,250.00,6.00,M,30.15,M,10.00,M,OVC,M,M,M,3000.00,M,M,M,M,KERI 012105Z AUTO 25006KT 10SM OVC030 A3015 RMK MADISHF
ERI,2017-04-01 21:10,-80.1800,42.0800,M,M,M,250.00,8.00,M,30.14,M,10.00,M,OVC,M,M,M,3200.00,M,M,M,M,KERI 012110Z AUTO 25008KT 10SM OVC032 A3014 RMK MADISHF
ERI,2017-04-01 21:15,-80.1800,42.0800,M,M,M,260.00,7.00,M,30.14,M,10.00,M,OVC,M,M,M,3200.00,M,M,M,M,KERI 012115Z AUTO 26007KT 10SM OVC032 A3014 RMK MADISHF
ERI,2017-04-01 21:20,-80.1800,42.0800,M,M,M,250.00,9.00,M,30.14,M,10.00,M,OVC,M,M,M,3200.00,M,M,M,M,KERI 012120Z AUTO 25009KT 10SM OVC032 A3014 RMK MADISHF
ERI,2017-04-01 21:25,-80.1800,42.0800,M,M,M,250.00,8.00,M,30.14,M,10.00,M,OVC,M,M,M,3200.00,M,M,M,M,KERI 012125Z AUTO 25008KT 10SM OVC032 A3014 RMK MADISHF
ERI,2017-04-01 21:30,-80.1800,42.0800,M,M,M,240.00,8.00,M,30.14,M,10.00,M,OVC,M,M,M,3399.00,M,M,M,M,KERI 012130Z AUTO 24008KT 10SM OVC033 A3014 RMK MADISHF
ERI,2017-04-01 21:35,-80.1800,42.0800,M,M,M,250.00,8.00,M,30.14,M,10.00,M,BKN,M,M,M,3399.00,M,M,M,M,KERI 012135Z AUTO 25008KT 10SM BKN033 A3014 RMK MADISHF
ERI,2017-04-01 21:40,-80.1800,42.0800,M,M,M,260.00,8.00,M,30.14,M,10.00,M,BKN,M,M,M,3399.00,M,M,M,M,KERI 012140Z AUTO 26008KT 10SM BKN033 A3014 RMK MADISHF
ERI,2017-04-01 21:45,-80.1800,42.0800,M,M,M,240.00,6.00,M,30.15,M,10.00,M,SCT,M,M,M,3399.00,M,M,M,M,KERI 012145Z AUTO 24006KT 10SM SCT033 A3015 RMK MADISHF
ERI,2017-04-01 21:50,-80.1800,42.0800,M,M,M,240.00,7.00,M,30.15,M,10.00,M,FEW,SCT,M,M,1699.00,3399.00,M,M,M,KERI 012150Z AUTO 24007KT 10SM FEW016 SCT033 A3015 RMK MADISHF
ERI,2017-04-01 21:51,-80.1800,42.0800,41.00,33.10,73.25,230.00,8.00,0.00,30.15,1021.50,10.00,M,FEW,SCT,M,M,1700.00,3400.00,M,M,M,KERI 012151Z 23008KT 10SM FEW017 SCT034 05/01 A3015 RMK AO2 SLP215 T00500006
ERI,2017-04-01 21:55,-80.1800,42.0800,M,M,M,240.00,6.00,M,30.14,M,10.00,M,FEW,FEW,M,M,1699.00,3600.00,M,M,M,KERI 012155Z AUTO 24006KT 10SM FEW016 FEW036 A3014 RMK MADISHF
ERI,2017-04-01 22:00,-80.1800,42.0800,M,M,M,230.00,7.00,M,30.14,M,10.00,M,CLR,M,M,M,M,M,M,M,M,KERI 012200Z AUTO 23007KT 10SM CLR A3014 RMK MADISHF
ERI,2017-04-01 22:05,-80.1800,42.0800,M,M,M,250.00,6.00,M,30.14,M,10.00,M,CLR,M,M,M,M,M,M,M,M,KERI 012205Z AUTO 25006KT 10SM CLR A3014 RMK MADISHF
ERI,2017-04-01 22:10,-80.1800,42.0800,M,M,M,230.00,6.00,M,30.14,M,10.00,M,CLR,M,M,M,M,M,M,M,M,KERI 012210Z AUTO 23006KT 10SM CLR A3014 RMK MADISHF
ERI,2017-04-01 22:15,-80.1800,42.0800,M,M,M,250.00,5.00,M,30.14,M,10.00,M,CLR,M,M,M,M,M,M,M,M,KERI 012215Z AUTO 25005KT 10SM CLR A3014 RMK MADISHF
ERI,2017-04-01 22:20,-80.1800,42.0800,M,M,M,240.00,7.00,M,30.13,M,10.00,M,CLR,M,M,M,M,M,M,M,M,KERI 012220Z AUTO 24007KT 10SM CLR A3013 RMK MADISHF
ERI,2017-04-01 22:25,-80.1800,42.0800,M,M,M,240.00,5.00,M,30.13,M,10.00,M,CLR,M,M,M,M,M,M,M,M,KERI 012225Z AUTO 24005KT 10SM CLR A3013 RMK MADISHF
ERI,2017-04-01 22:30,-80.1800,42.0800,M,M,M,220.00,6.00,M,30.13,M,10.00,M,CLR,M,M,M,M,M,M,M,M,KERI 012230Z AUTO 22006KT 10SM CLR A3013 RMK MADISHF
ERI,2017-04-01 22:35,-80.1800,42.0800,M,M,M,250.00,4.00,M,30.13,M,10.00,M,CLR,M,M,M,M,M,M,M,M,KERI 012235Z AUTO 25004KT 10SM CLR A3013 RMK MADISHF
ERI,2017-04-01 22:40,-80.1800,42.0800,M,M,M,230.00,6.00,M,30.13,M,10.00,M,CLR,M,M,M,M,M,M,M,M,KERI 012240Z AUTO 23006KT 10SM CLR A3013 RMK MADISHF
ERI,2017-04-01 22:45,-80.1800,42.0800,M,M,M,230.00,6.00,M,30.13,M,10.00,M,CLR,M,M,M,M,M,M,M,M,KERI 012245Z AUTO 23006KT 10SM CLR A3013 RMK MADISHF
ERI,2017-04-01 22:50,-80.1800,42.0800,M,M,M,230.00,5.00,M,30.13,M,10.00,M,CLR,M,M,M,M,M,M,M,M,KERI 012250Z AUTO 23005KT 10SM CLR A3013 RMK MADISHF
ERI,2017-04-01 22:51,-80.1800,42.0800,41.00,34.00,75.94,230.00,6.00,0.00,30.13,1020.90,10.00,M,CLR,M,M,M,M,M,M,M,M,KERI 012251Z 23006KT 10SM CLR 05/01 A3013 RMK AO2 SLP209 T00500011
ERI,2017-04-01 22:55,-80.1800,42.0800,M,M,M,230.00,6.00,M,30.13,M,10.00,M,CLR,M,M,M,M,M,M,M,M,KERI 012255Z AUTO 23006KT 10SM CLR A3013 RMK MADISHF
ERI,2017-04-01 23:00,-80.1800,42.0800,M,M,M,230.00,5.00,M,30.13,M,10.00,M,CLR,M,M,M,M,M,M,M,M,KERI 012300Z AUTO 23005KT 10SM CLR A3013 RMK MADISHF
ERI,2017-04-01 23:05,-80.1800,42.0800,M,M,M,230.00,6.00,M,30.13,M,10.00,M,FEW,M,M,M,3500.00,M,M,M,M,KERI 012305Z AUTO 23006KT 10SM FEW035 A3013 RMK MADISHF
ERI,2017-04-01 23:10,-80.1800,42.0800,M,M,M,260.00,6.00,M,30.14,M,10.00,M,SCT,M,M,M,3500.00,M,M,M,M,KERI 012310Z AUTO 26006KT 10SM SCT035 A3014 RMK MADISHF
ERI,2017-04-01 23:15,-80.1800,42.0800,M,M,M,240.00,5.00,M,30.14,M,10.00,M,BKN,M,M,M,3300.00,M,M,M,M,KERI 012315Z AUTO 24005KT 10SM BKN033 A3014 RMK MADISHF
ERI,2017-04-01 23:20,-80.1800,42.0800,M,M,M,260.00,4.00,M,30.14,M,10.00,M,BKN,M,M,M,3300.00,M,M,M,M,KERI 012320Z AUTO 26004KT 10SM BKN033 A3014 RMK MADISHF
ERI,2017-04-01 23:25,-80.1800,42.0800,M,M,M,260.00,4.00,M,30.14,M,10.00,M,BKN,M,M,M,3300.00,M,M,M,M,KERI 012325Z AUTO 26004KT 10SM BKN033 A3014 RMK MADISHF
ERI,2017-04-01 23:30,-80.1800,42.0800,M,M,M,250.00,5.00,M,30.14,M,10.00,M,OVC,M,M,M,3300.00,M,M,M,M,KERI 012330Z AUTO 25005KT 10SM OVC033 A3014 RMK MADISHF
ERI,2017-04-01 23:35,-80.1800,42.0800,M,M,M,250.00,4.00,M,30.14,M,10.00,M,OVC,M,M,M,3200.00,M,M,M,M,KERI 012335Z AUTO 25004KT 10SM OVC032 A3014 RMK MADISHF
ERI,2017-04-01 23:40,-80.1800,42.0800,M,M,M,240.00,4.00,M,30.14,M,10.00,M,OVC,M,M,M,3200.00,M,M,M,M,KERI 012340Z AUTO 24004KT 10SM OVC032 A3014 RMK MADISHF
ERI,2017-04-01 23:45,-80.1800,42.0800,M,M,M,230.00,4.00,M,30.14,M,10.00,M,OVC,M,M,M,3200.00,M,M,M,M,KERI 012345Z AUTO 23004KT 10SM OVC032 A3014 RMK MADISHF
ERI,2017-04-01 23:50,-80.1800,42.0800,M,M,M,260.00,4.00,M,30.14,M,10.00,M,OVC,M,M,M,3100.00,M,M,M,M,KERI 012350Z AUTO 26004KT 10SM OVC031 A3014 RMK MADISHF
ERI,2017-04-01 23:51,-80.1800,42.0800,41.00,34.00,75.94,270.00,4.00,0.00,30.14,1021.30,10.00,M,OVC,M,M,M,3100.00,M,M,M,M,KERI 012351Z 27004KT 10SM OVC031 05/01 A3014 RMK AO2 SLP213 T00500011 10056 20033 53002
ERI,2017-04-01 23:55,-80.1800,42.0800,M,M,M,270.00,4.00,M,30.14,M,10.00,M,OVC,M,M,M,3100.00,M,M,M,M,KERI 012355Z AUTO 27004KT 10SM OVC031 A3014 RMK MADISHF
