#DEBUG: Format Typ    -> comma
#DEBUG: Time Period   -> 2017-04-01 00:00:00+00:00 2017-04-02 00:00:00+00:00
#DEBUG: Time Zone     -> Etc/UTC
#DEBUG: Data Contact   -> daryl herzmann akrherz@iastate.edu 515-294-5978
#DEBUG: Entries Found -> -1
station,valid,lon,lat,tmpf, dwpf, relh, drct, sknt, p01i, alti, mslp, vsby, gust, skyc1, skyc2, skyc3, skyc4, skyl1, skyl2, skyl3, skyl4, presentwx, metar
ESF,2017-04-01 00:00,-92.2958,31.3949,M,M,M,160.00,4.00,M,29.86,M,10.00,M,CLR,M,M,M,M,M,M,M,M,KESF 010000Z AUTO 16004KT 10SM CLR A2986 RMK MADISHF
ESF,2017-04-01 00:05,-92.2958,31.3949,M,M,M,160.00,4.00,M,29.86,M,10.00,M,CLR,M,M,M,M,M,M,M,M,KESF 010005Z AUTO 16004KT 10SM CLR A2986 RMK MADISHF
ESF,2017-04-01 00:10,-92.2958,31.3949,M,M,M,150.00,4.00,M,29.86,M,10.00,M,CLR,M,M,M,M,M,M,M,M,KESF 010010Z AUTO 15004KT 10SM CLR A2986 RMK MADISHF
ESF,2017-04-01 00:15,-92.2958,31.3949,M,M,M,160.00,4.00,M,29.86,M,10.00,M,CLR,M,M,M,M,M,M,M,M,KESF 010015Z AUTO 16004KT 10SM CLR A2986 RMK MADISHF
ESF,2017-04-01 00:20,-92.2958,31.3949,M,M,M,150.00,3.00,M,29.86,M,10.00,M,CLR,M,M,M,M,M,M,M,M,KESF 010020Z AUTO 15003KT 10SM CLR A2986 RMK MADISHF
ESF,2017-04-01 00:25,-92.2958,31.3949,M,M,M,150.00,4.00,M,29.86,M,10.00,M,CLR,M,M,M,M,M,M,M,M,KESF 010025Z AUTO 15004KT 10SM CLR A2986 RMK MADISHF
ESF,2017-04-01 00:30,-92.2958,31.3949,M,M,M,150.00,3.00,M,29.87,M,10.00,M,CLR,M,M,M,M,M,M,M,M,KESF 010030Z AUTO 15003KT 10SM CLR A2987 RMK MADISHF
ESF,2017-04-01 00:35,-92.2958,31.3949,M,M,M,0.00,0.00,M,29.87,M,10.00,M,CLR,M,M,M,M,M,M,M,M,KESF 010035Z AUTO 00000KT 10SM CLR A2987 RMK MADISHF
ESF,2017-04-01 00:40,-92.2958,31.3949,M,M,M,0.00,0.00,M,29.87,M,10.00,M,CLR,M,M,M,M,M,M,M,M,KESF 010040Z AUTO 00000KT 10SM CLR A2987 RMK MADISHF
ESF,2017-04-01 00:45,-92.2958,31.3949,M,M,M,0.00,0.00,M,29.87,M,10.00,M,CLR,M,M,M,M,M,M,M,M,KESF 010045Z AUTO 00000KT 10SM CLR A2987 RMK MADISHF
ESF,2017-04-01 00:50,-92.2958,31.3949,M,M,M,0.00,0.00,M,29.87,M,10.00,M,CLR,M,M,M,M,M,M,M,M,KESF 010050Z AUTO 00000KT 10SM CLR A2987 RMK MADISHF
ESF,2017-04-01 00:53,-92.2958,31.3949,68.00,59.00,72.92,0.00,0.00,0.00,29.87,1011.30,10.00,M,CLR,M,M,M,M,M,M,M,M,KESF 010053Z AUTO 00000KT 10SM CLR 20/15 A2987 RMK AO2 SLP113 T02000150
ESF,2017-04-01 00:55,-92.2958,31.3949,M,M,M,0.00,0.00,M,29.87,M,10.00,M,CLR,M,M,M,M,M,M,M,M,KESF 010055Z AUTO 00000KT 10SM CLR A2987 RMK MADISHF
ESF,2017-04-01 01:00,-92.2958,31.3949,M,M,M,0.00,0.00,M,29.87,M,10.00,M,CLR,M,M,M,M,M,M,M,M,KESF 010100Z AUTO 00000KT 10SM CLR A2987 RMK MADISHF
ESF,2017-04-01 01:05,-92.2958,31.3949,M,M,M,0.00,0.00,M,29.87,M,10.00,M,CLR,M,M,M,M,M,M,M,M,KESF 010105Z AUTO 00000KT 10SM CLR A2987 RMK MADISHF
ESF,2017-04-01 01:10,-92.2958,31.3949,M,M,M,0.00,0.00,M,29.87,M,10.00,M,CLR,M,M,M,M,M,M,M,M,KESF 010110Z AUTO 00000KT 10SM CLR A2987 RMK MADISHF
ESF,2017-04-01 01:15,-92.2958,31.3949,M,M,M,0.00,0.00,M,29.87,M,10.00,M,CLR,M,M,M,M,M,M,M,M,KESF 010115Z AUTO 00000KT 10SM CLR A2987 RMK MADISHF
ESF,2017-04-01 01:20,-92.2958,31.3949,M,M,M,0.00,0.00,M,29.88,M,10.00,M,CLR,M,M,M,M,M,M,M,M,KESF 010120Z AUTO 00000KT 10SM CLR A2988 RMK MADISHF
ESF,2017-04-01 01:25,-92.2958,31.3949,M,M,M,0.00,0.00,M,29.88,M,10.00,M,CLR,M,M,M,M,M,M,M,M,KESF 010125Z AUTO 00000KT 10SM CLR A2988 RMK MADISHF
ESF,2017-04-01 01:30,-92.2958,31.3949,M,M,M,0.00,0.00,M,29.88,M,10.00,M,CLR,M,M,M,M,M,M,M,M,KESF 010130Z AUTO 00000KT 10SM CLR A2988 RMK MADISHF
ESF,2017-04-01 01:35,-92.2958,31.3949,M,M,M,0.00,0.00,M,29.88,M,10.00,M,CLR,M,M,M,M,M,M,M,M,KESF 010135Z AUTO 00000KT 10SM CLR A2988 RMK MADISHF
ESF,2017-04-01 01:40,-92.2958,31.3949,M,M,M,0.00,0.00,M,29.88,M,10.00,M,CLR,M,M,M,M,M,M,M,M,KESF 010140Z AUTO 00000KT 10SM CLR A2988 RMK MADISHF
ESF,2017-04-01 01:45,-92.2958,31.3949,M,M,M,0.00,0.00,M,29.88,M,10.00,M,CLR,M,M,M,M,M,M,M,M,KESF 010145Z AUTO 00000KT 10SM CLR A2988 RMK MADISHF
ESF,2017-04-01 01:50,-92.2958,31.3949,M,M,M,0.00,0.00,M,29.89,M,10.00,M,CLR,M,M,M,M,M,M,M,M,KESF 010150Z AUTO 00000KT 10SM CLR A2989 RMK MADISHF
ESF,2017-04-01 01:53,-92.2958,31.3949,63.00,59.00,86.77,0.00,0.00,0.00,29.89,1011.90,10.00,M,CLR,M,M,M,M,M,M,M,M,KESF 010153Z AUTO 00000KT 10SM CLR 17/15 A2989 RMK AO2 SLP119 T01720150
ESF,2017-04-01 01:55,-92.2958,31.3949,M,M,M,0.00,0.00,M,29.89,M,10.00,M,CLR,M,M,M,M,M,M,M,M,KESF 010155Z AUTO 00000KT 10SM CLR A2989 RMK MADISHF
ESF,2017-04-01 02:00,-92.2958,31.3949,M,M,M,0.00,0.00,M,29.89,M,10.00,M,CLR,M,M,M,M,M,M,M,M,KESF 010200Z AUTO 00000KT 10SM CLR A2989 RMK MADISHF
ESF,2017-04-01 02:05,-92.2958,31.3949,M,M,M,0.00,0.00,M,29.89,M,10.00,M,CLR,M,M,M,M,M,M,M,M,KESF 010205Z AUTO 00000KT 10SM CLR A2989 RMK MADISHF
ESF,2017-04-01 02:10,-92.2958,31.3949,M,M,M,0.00,0.00,M,29.89,M,10.00,M,CLR,M,M,M,M,M,M,M,M,KESF 010210Z AUTO 00000KT 10SM CLR A2989 RMK MADISHF
ESF,2017-04-01 02:15,-92.2958,31.3949,M,M,M,0.00,0.00,M,29.89,M,10.00,M,CLR,M,M,M,M,M,M,M,M,KESF 010215Z AUTO 00000KT 10SM CLR A2989 RMK MADISHF
ESF,2017-04-01 02:20,-92.2958,31.3949,M,M,M,0.00,0.00,M,29.90,M,10.00,M,CLR,M,M,M,M,M,M,M,M,KESF 010220Z AUTO 00000KT 10SM CLR A2990 RMK MADISHF
ESF,2017-04-01 02:25,-92.2958,31.3949,M,M,M,0.00,0.00,M,29.90,M,10.00,M,CLR,M,M,M,M,M,M,M,M,KESF 010225Z AUTO 00000KT 10SM CLR A2990 RMK MADISHF
ESF,2017-04-01 02:30,-92.2958,31.3949,M,M,M,0.00,0.00,M,29.90,M,10.00,M,CLR,M,M,M,M,M,M,M,M,KESF 010230Z AUTO 00000KT 10SM CLR A2990 RMK MADISHF
ESF,2017-04-01 02:35,-92.2958,31.3949,M,M,M,0.00,0.00,M,29.90,M,10.00,M,CLR,M,M,M,M,M,M,M,M,KESF 010235Z AUTO 00000KT 10SM CLR A2990 RMK MADISHF
ESF,2017-04-01 02:40,-92.2958,31.3949,M,M,M,0.00,0.00,M,29.91,M,10.00,M,CLR,M,M,M,M,M,M,M,M,KESF 010240Z AUTO 00000KT 10SM CLR A2991 RMK MADISHF
ESF,2017-04-01 02:45,-92.2958,31.3949,M,M,M,0.00,0.00,M,29.91,M,10.00,M,CLR,M,M,M,M,M,M,M,M,KESF 010245Z AUTO 00000KT 10SM CLR A2991 RMK MADISHF
ESF,2017-04-01 02:50,-92.2958,31.3949,M,M,M,0.00,0.00,M,29.91,M,10.00,M,CLR,M,M,M,M,M,M,M,M,KESF 010250Z AUTO 00000KT 10SM CLR A2991 RMK MADISHF
ESF,2017-04-01 02:53,-92.2958,31.3949,61.00,57.90,89.52,0.00,0.00,0.00,29.91,1012.70,10.00,M,CLR,M,M,M,M,M,M,M,M,KESF 010253Z AUTO 00000KT 10SM CLR 16/14 A2991 RMK AO2 SLP127 T01610144 53017
ESF,2017-04-01 02:55,-92.2958,31.3949,M,M,M,0.00,0.00,M,29.91,M,10.00,M,CLR,M,M,M,M,M,M,M,M,KESF 010255Z AUTO 00000KT 10SM CLR A2991 RMK MADISHF
ESF,2017-04-01 03:00,-92.2958,31.3949,M,M,M,0.00,0.00,M,29.91,M,10.00,M,CLR,M,M,M,M,M,M,M,M,KESF 010300Z AUTO 00000KT 10SM CLR A2991 RMK MADISHF
ESF,2017-04-01 03:05,-92.2958,31.3949,M,M,M,0.00,0.00,M,29.91,M,10.00,M,CLR,M,M,M,M,M,M,M,M,KESF 010305Z AUTO 00000KT 10SM CLR A2991 RMK MADISHF
ESF,2017-04-01 03:10,-92.2958,31.3949,M,M,M,0.00,0.00,M,29.91,M,10.00,M,CLR,M,M,M,M,M,M,M,M,KESF 010310Z AUTO 00000KT 10SM CLR A2991 RMK MADISHF
ESF,2017-04-01 03:15,-92.2958,31.3949,M,M,M,0.00,0.00,M,29.92,M,10.00,M,CLR,M,M,M,M,M,M,M,M,KESF 010315Z AUTO 00000KT 10SM CLR A2992 RMK MADISHF
ESF,2017-04-01 03:20,-92.2958,31.3949,M,M,M,0.00,0.00,M,29.92,M,10.00,M,CLR,M,M,M,M,M,M,M,M,KESF 010320Z AUTO 00000KT 10SM CLR A2992 RMK MADISHF
ESF,2017-04-01 03:25,-92.2958,31.3949,M,M,M,0.00,0.00,M,29.92,M,10.00,M,CLR,M,M,M,M,M,M,M,M,KESF 010325Z AUTO 00000KT 10SM CLR A2992 RMK MADISHF
ESF,2017-04-01 03:30,-92.2958,31.3949,M,M,M,0.00,0.00,M,29.92,M,10.00,M,CLR,M,M,M,M,M,M,M,M,KESF 010330Z AUTO 00000KT 10SM CLR A2992 RMK MADISHF
ESF,2017-04-01 03:35,-92.2958,31.3949,M,M,M,0.00,0.00,M,29.91,M,10.00,M,CLR,M,M,M,M,M,M,M,M,KESF 010335Z AUTO 00000KT 10SM CLR A2991 RMK MADISHF
ESF,2017-04-01 03:40,-92.2958,31.3949,M,M,M,0.00,0.00,M,29.92,M,10.00,M,CLR,M,M,M,M,M,M,M,M,KESF 010340Z AUTO 00000KT 10SM CLR A2992 RMK MADISHF
ESF,2017-04-01 03:45,-92.2958,31.3949,M,M,M,0.00,0.00,M,29.92,M,10.00,M,CLR,M,M,M,M,M,M,M,M,KESF 010345Z AUTO 00000KT 10SM CLR A2992 RMK MADISHF
ESF,2017-04-01 03:50,-92.2958,31.3949,M,M,M,0.00,0.00,M,29.92,M,10.00,M,CLR,M,M,M,M,M,M,M,M,KESF 010350Z AUTO 00000KT 10SM CLR A2992 RMK MADISHF
ESF,2017-04-01 03:53,-92.2958,31.3949,60.10,59.00,96.15,0.00,0.00,0.00,29.92,1012.90,10.00,M,CLR,M,M,M,M,M,M,M,M,KESF 010353Z AUTO 00000KT 10SM CLR 16/15 A2992 RMK AO2 SLP129 T01560150
ESF,2017-04-01 03:55,-92.2958,31.3949,M,M,M,0.00,0.00,M,29.92,M,10.00,M,CLR,M,M,M,M,M,M,M,M,KESF 010355Z AUTO 00000KT 10SM CLR A2992 RMK MADISHF
ESF,2017-04-01 04:00,-92.2958,31.3949,M,M,M,0.00,0.00,M,29.92,M,10.00,M,CLR,M,M,M,M,M,M,M,M,KESF 010400Z AUTO 00000KT 10SM CLR A2992 RMK MADISHF
ESF,2017-04-01 04:05,-92.2958,31.3949,M,M,M,0.00,0.00,M,29.92,M,10.00,M,CLR,M,M,M,M,M,M,M,M,KESF 010405Z AUTO 00000KT 10SM CLR A2992 RMK MADISHF
ESF,2017-04-01 04:10,-92.2958,31.3949,M,M,M,0.00,0.00,M,29.92,M,10.00,M,CLR,M,M,M,M,M,M,M,M,KESF 010410Z AUTO 00000KT 10SM CLR A2992 RMK MADISHF
ESF,2017-04-01 04:15,-92.2958,31.3949,M,M,M,0.00,0.00,M,29.92,M,10.00,M,CLR,M,M,M,M,M,M,M,M,KESF 010415Z AUTO 00000KT 10SM CLR A2992 RMK MADISHF
ESF,2017-04-01 04:20,-92.2958,31.3949,M,M,M,0.00,0.00,M,29.92,M,10.00,M,CLR,M,M,M,M,M,M,M,M,KESF 010420Z AUTO 00000KT 10SM CLR A2992 RMK MADISHF
ESF,2017-04-01 04:25,-92.2958,31.3949,M,M,M,0.00,0.00,M,29.92,M,10.00,M,CLR,M,M,M,M,M,M,M,M,KESF 010425Z AUTO 00000KT 10SM CLR A2992 RMK MADISHF
ESF,2017-04-01 04:30,-92.2958,31.3949,M,M,M,0.00,0.00,M,29.92,M,10.00,M,CLR,M,M,M,M,M,M,M,M,KESF 010430Z AUTO 00000KT 10SM CLR A2992 RMK MADISHF
ESF,2017-04-01 04:35,-92.2958,31.3949,M,M,M,0.00,0.00,M,29.92,M,10.00,M,CLR,M,M,M,M,M,M,M,M,KESF 010435Z AUTO 00000KT 10SM CLR A2992 RMK MADISHF
ESF,2017-04-01 04:40,-92.2958,31.3949,M,M,M,0.00,0.00,M,29.92,M,10.00,M,CLR,M,M,M,M,M,M,M,M,KESF 010440Z AUTO 00000KT 10SM CLR A2992 RMK MADISHF
ESF,2017-04-01 04:45,-92.2958,31.3949,M,M,M,0.00,0.00,M,29.92,M,10.00,M,CLR,M,M,M,M,M,M,M,M,KESF 010445Z AUTO 00000KT 10SM CLR A2992 RMK MADISHF
ESF,2017-04-01 04:50,-92.2958,31.3949,M,M,M,0.00,0.00,M,29.92,M,10.00,M,CLR,M,M,M,M,M,M,M,M,KESF 010450Z AUTO 00000KT 10SM CLR A2992 RMK MADISHF
ESF,2017-04-01 04:53,-92.2958,31.3949,57.90,57.00,96.81,0.00,0.00,0.00,29.92,1013.00,10.00,M,CLR,M,M,M,M,M,M,M,M,KESF 010453Z AUTO 00000KT 10SM CLR 14/14 A2992 RMK AO2 SLP130 T01440139
ESF,2017-04-01 04:55,-92.2958,31.3949,M,M,M,0.00,0.00,M,29.92,M,10.00,M,CLR,M,M,M,M,M,M,M,M,KESF 010455Z AUTO 00000KT 10SM CLR A2992 RMK MADISHF
ESF,2017-04-01 05:00,-92.2958,31.3949,M,M,M,0.00,0.00,M,29.92,M,9.00,M,CLR,M,M,M,M,M,M,M,M,KESF 010500Z AUTO 00000KT 9SM CLR A2992 RMK MADISHF
ESF,2017-04-01 05:05,-92.2958,31.3949,M,M,M,0.00,0.00,M,29.92,M,4.00,M,CLR,M,M,M,M,M,M,M,BR,KESF 010505Z AUTO 00000KT 4SM BR CLR A2992 RMK MADISHF
ESF,2017-04-01 05:10,-92.2958,31.3949,M,M,M,0.00,0.00,M,29.92,M,4.00,M,CLR,M,M,M,M,M,M,M,BR,KESF 010510Z AUTO 00000KT 4SM BR CLR A2992 RMK MADISHF
ESF,2017-04-01 05:15,-92.2958,31.3949,M,M,M,0.00,0.00,M,29.92,M,6.00,M,CLR,M,M,M,M,M,M,M,BR,KESF 010515Z AUTO 00000KT 6SM BR CLR A2992 RMK MADISHF
ESF,2017-04-01 05:20,-92.2958,31.3949,M,M,M,0.00,0.00,M,29.92,M,8.00,M,CLR,M,M,M,M,M,M,M,M,KESF 010520Z AUTO 00000KT 8SM CLR A2992 RMK MADISHF
ESF,2017-04-01 05:25,-92.2958,31.3949,M,M,M,0.00,0.00,M,29.92,M,8.00,M,CLR,M,M,M,M,M,M,M,M,KESF 010525Z AUTO 00000KT 8SM CLR A2992 RMK MADISHF
ESF,2017-04-01 05:30,-92.2958,31.3949,M,M,M,0.00,0.00,M,29.92,M,8.00,M,CLR,M,M,M,M,M,M,M,M,KESF 010530Z AUTO 00000KT 8SM CLR A2992 RMK MADISHF
ESF,2017-04-01 05:35,-92.2958,31.3949,M,M,M,0.00,0.00,M,29.92,M,8.00,M,CLR,M,M,M,M,M,M,M,M,KESF 010535Z AUTO 00000KT 8SM CLR A2992 RMK MADISHF
ESF,2017-04-01 05:40,-92.2958,31.3949,M,M,M,0.00,0.00,M,29.92,M,8.00,M,CLR,M,M,M,M,M,M,M,M,KESF 010540Z AUTO 00000KT 8SM CLR A2992 RMK MADISHF
ESF,2017-04-01 05:45,-92.2958,31.3949,M,M,M,0.00,0.00,M,29.92,M,9.00,M,CLR,M,M,M,M,M,M,M,M,KESF 010545Z AUTO 00000KT 9SM CLR A2992 RMK MADISHF
ESF,2017-04-01 05:50,-92.2958,31.3949,M,M,M,0.00,0.00,M,29.92,M,9.00,M,CLR,M,M,M,M,M,M,M,M,KESF 010550Z AUTO 00000KT 9SM CLR A2992 RMK MADISHF
ESF,2017-04-01 05:53,-92.2958,31.3949,57.00,55.90,96.10,0.00,0.00,0.00,29.92,1013.20,8.00,M,CLR,M,M,M,M,M,M,M,M,KESF 010553Z AUTO 00000KT 8SM CLR 14/13 A2992 RMK AO2 SLP132 T01390133 10250 20133 402830089 53005
ESF,2017-04-01 05:55,-92.2958,31.3949,M,M,M,0.00,0.00,M,29.92,M,2.50,M,CLR,M,M,M,M,M,M,M,BR,KESF 010555Z AUTO 00000KT 2 1/2SM BR CLR A2992 RMK MADISHF
ESF,2017-04-01 05:56,-92.2958,31.3949,57.00,55.90,96.10,0.00,0.00,0.00,29.92,M,1.75,M,CLR,M,M,M,M,M,M,M,BR,KESF 010556Z AUTO 00000KT 1 3/4SM BR CLR 14/13 A2992 RMK AO2 T01390133
ESF,2017-04-01 06:00,-92.2958,31.3949,M,M,M,0.00,0.00,M,29.93,M,1.25,M,CLR,M,M,M,M,M,M,M,BR,KESF 010600Z AUTO 00000KT 1 1/2SM BR CLR A2993 RMK MADISHF
ESF,2017-04-01 06:05,-92.2958,31.3949,M,M,M,0.00,0.00,M,29.92,M,1.50,M,CLR,M,M,M,M,M,M,M,BR,KESF 010605Z AUTO 00000KT 1 1/2SM BR CLR A2992 RMK MADISHF
ESF,2017-04-01 06:10,-92.2958,31.3949,M,M,M,0.00,0.00,M,29.93,M,2.50,M,CLR,M,M,M,M,M,M,M,BR,KESF 010610Z AUTO 00000KT 2 1/2SM BR CLR A2993 RMK MADISHF
ESF,2017-04-01 06:12,-92.2958,31.3949,55.90,55.90,100.00,0.00,0.00,0.00,29.93,M,2.50,M,CLR,M,M,M,M,M,M,M,BR,KESF 010612Z AUTO 00000KT 2 1/2SM BR CLR 13/13 A2993 RMK AO2 VIS 1 1/4V5 T01330133
ESF,2017-04-01 06:15,-92.2958,31.3949,M,M,M,0.00,0.00,M,29.93,M,3.00,M,CLR,M,M,M,M,M,M,M,BR,KESF 010615Z AUTO 00000KT 3SM BR CLR A2993 RMK MADISHF
ESF,2017-04-01 06:20,-92.2958,31.3949,M,M,M,0.00,0.00,M,29.93,M,1.75,M,CLR,M,M,M,M,M,M,M,BR,KESF 010620Z AUTO 00000KT 2SM BR CLR A2993 RMK MADISHF
ESF,2017-04-01 06:24,-92.2958,31.3949,55.90,55.90,100.00,0.00,0.00,0.00,29.93,M,1.25,M,CLR,M,M,M,M,M,M,M,BR,KESF 010624Z AUTO 00000KT 1 1/4SM BR CLR 13/13 A2993 RMK AO2 VIS 3/4V2 1/2 T01330133
ESF,2017-04-01 06:25,-92.2958,31.3949,M,M,M,0.00,0.00,M,29.93,M,1.25,M,CLR,M,M,M,M,M,M,M,BR,KESF 010625Z AUTO 00000KT 1 1/2SM BR CLR A2993 RMK MADISHF
ESF,2017-04-01 06:30,-92.2958,31.3949,M,M,M,0.00,0.00,M,29.93,M,1.25,M,CLR,M,M,M,M,M,M,M,BR,KESF 010630Z AUTO 00000KT 1 1/2SM BR CLR A2993 RMK MADISHF
ESF,2017-04-01 06:35,-92.2958,31.3949,M,M,M,0.00,0.00,M,29.93,M,0.75,M,CLR,M,M,M,M,M,M,M,BR,KESF 010635Z AUTO 00000KT 1SM BR CLR A2993 RMK MADISHF
ESF,2017-04-01 06:39,-92.2958,31.3949,55.00,55.00,100.00,0.00,0.00,0.00,29.93,M,0.75,M,CLR,M,M,M,M,M,M,M,BR,KESF 010639Z AUTO 00000KT 3/4SM BR CLR 13/13 A2993 RMK AO2 T01280128
ESF,2017-04-01 06:40,-92.2958,31.3949,M,M,M,0.00,0.00,M,29.93,M,0.75,M,CLR,M,M,M,M,M,M,M,BR,KESF 010640Z AUTO 00000KT 1SM BR CLR A2993 RMK MADISHF
ESF,2017-04-01 06:45,-92.2958,31.3949,M,M,M,0.00,0.00,M,29.93,M,0.75,M,CLR,M,M,M,M,M,M,M,BR,KESF 010645Z AUTO 00000KT 1SM BR CLR A2993 RMK MADISHF
ESF,2017-04-01 06:50,-92.2958,31.3949,M,M,M,0.00,0.00,M,29.92,M,0.50,M,CLR,M,M,M,M,M,M,M,FG,KESF 010650Z AUTO 00000KT 1/2SM FG CLR A2992 RMK MADISHF
ESF,2017-04-01 06:53,-92.2958,31.3949,55.00,55.00,100.00,0.00,0.00,0.00,29.92,1013.20,0.50,M,CLR,M,M,M,M,M,M,M,FG,KESF 010653Z AUTO 00000KT 1/2SM FG CLR 13/13 A2992 RMK AO2 SLP132 T01280128
ESF,2017-04-01 06:55,-92.2958,31.3949,M,M,M,0.00,0.00,M,29.92,M,0.75,M,CLR,M,M,M,M,M,M,M,BR,KESF 010655Z AUTO 00000KT 1SM BR CLR A2992 RMK MADISHF
ESF,2017-04-01 07:00,-92.2958,31.3949,M,M,M,0.00,0.00,M,29.92,M,1.25,M,CLR,M,M,M,M,M,M,M,BR,KESF 010700Z AUTO 00000KT 1 1/2SM BR CLR A2992 RMK MADISHF
ESF,2017-04-01 07:02,-92.2958,31.3949,55.00,55.00,100.00,0.00,0.00,0.00,29.93,M,2.50,M,CLR,M,M,M,M,M,M,M,BR,KESF 010702Z AUTO 00000KT 2 1/2SM BR CLR 13/13 A2993 RMK AO2 T01280128
ESF,2017-04-01 07:05,-92.2958,31.3949,M,M,M,0.00,0.00,M,29.93,M,5.00,M,CLR,M,M,M,M,M,M,M,BR,KESF 010705Z AUTO 00000KT 5SM BR CLR A2993 RMK MADISHF
ESF,2017-04-01 07:10,-92.2958,31.3949,M,M,M,0.00,0.00,M,29.93,M,1.50,M,CLR,M,M,M,M,M,M,M,BR,KESF 010710Z AUTO 00000KT 1 1/2SM BR CLR A2993 RMK MADISHF
ESF,2017-04-01 07:15,-92.2958,31.3949,M,M,M,0.00,0.00,M,29.93,M,1.00,M,CLR,M,M,M,M,M,M,M,BR,KESF 010715Z AUTO 00000KT 1SM BR CLR A2993 RMK MADISHF
ESF,2017-04-01 07:16,-92.2958,31.3949,55.00,55.00,100.00,0.00,0.00,0.00,29.93,M,1.00,M,CLR,M,M,M,M,M,M,M,BR,KESF 010716Z AUTO 00000KT 1SM BR CLR 13/13 A2993 RMK AO2 T01280128
ESF,2017-04-01 07:20,-92.2958,31.3949,M,M,M,0.00,0.00,M,29.93,M,1.50,M,CLR,M,M,M,M,M,M,M,BR,KESF 010720Z AUTO 00000KT 1 1/2SM BR CLR A2993 RMK MADISHF
ESF,2017-04-01 07:22,-92.2958,31.3949,55.00,55.00,100.00,0.00,0.00,0.00,29.93,M,3.00,M,CLR,M,M,M,M,M,M,M,BR,KESF 010722Z AUTO 00000KT 3SM BR CLR 13/13 A2993 RMK AO2 T01280128
ESF,2017-04-01 07:25,-92.2958,31.3949,M,M,M,0.00,0.00,M,29.93,M,5.00,M,CLR,M,M,M,M,M,M,M,BR,KESF 010725Z AUTO 00000KT 5SM BR CLR A2993 RMK MADISHF
ESF,2017-04-01 07:27,-92.2958,31.3949,55.00,55.00,100.00,0.00,0.00,0.00,29.93,M,1.75,M,CLR,M,M,M,M,M,M,M,BR,KESF 010727Z AUTO 00000KT 1 3/4SM BR CLR 13/13 A2993 RMK AO2 T01280128
ESF,2017-04-01 07:30,-92.2958,31.3949,M,M,M,0.00,0.00,M,29.93,M,1.00,M,CLR,M,M,M,M,M,M,M,BR,KESF 010730Z AUTO 00000KT 1SM BR CLR A2993 RMK MADISHF
ESF,2017-04-01 07:35,-92.2958,31.3949,M,M,M,0.00,0.00,M,29.93,M,0.75,M,CLR,M,M,M,M,M,M,M,BR,KESF 010735Z AUTO 00000KT 1SM BR CLR A2993 RMK MADISHF
ESF,2017-04-01 07:40,-92.2958,31.3949,M,M,M,0.00,0.00,M,29.93,M,1.50,M,CLR,M,M,M,M,M,M,M,BR,KESF 010740Z AUTO 00000KT 1 1/2SM BR CLR A2993 RMK MADISHF
ESF,2017-04-01 07:43,-92.2958,31.3949,55.00,55.00,100.00,0.00,0.00,0.00,29.93,M,3.00,M,CLR,M,M,M,M,M,M,M,BR,KESF 010743Z AUTO 00000KT 3SM BR CLR 13/13 A2993 RMK AO2 T01280128
ESF,2017-04-01 07:45,-92.2958,31.3949,M,M,M,0.00,0.00,M,29.93,M,5.00,M,CLR,M,M,M,M,M,M,M,BR,KESF 010745Z AUTO 00000KT 5SM BR CLR A2993 RMK MADISHF
ESF,2017-04-01 07:50,-92.2958,31.3949,M,M,M,0.00,0.00,M,29.93,M,3.00,M,CLR,M,M,M,M,M,M,M,BR,KESF 010750Z AUTO 00000KT 3SM BR CLR A2993 RMK MADISHF
ESF,2017-04-01 07:53,-92.2958,31.3949,54.00,54.00,100.00,0.00,0.00,0.00,29.93,1013.50,2.00,M,CLR,M,M,M,M,M,M,M,BR,KESF 010753Z AUTO 00000KT 2SM BR CLR 12/12 A2993 RMK AO2 SLP135 T01220122
ESF,2017-04-01 07:55,-92.2958,31.3949,M,M,M,0.00,0.00,M,29.94,M,2.00,M,CLR,M,M,M,M,M,M,M,BR,KESF 010755Z AUTO 00000KT 2SM BR CLR A2994 RMK MADISHF
ESF,2017-04-01 08:00,-92.2958,31.3949,M,M,M,0.00,0.00,M,29.94,M,3.00,M,CLR,M,M,M,M,M,M,M,BR,KESF 010800Z AUTO 00000KT 3SM BR CLR A2994 RMK MADISHF
ESF,2017-04-01 08:05,-92.2958,31.3949,M,M,M,0.00,0.00,M,29.94,M,7.00,M,CLR,M,M,M,M,M,M,M,M,KESF 010805Z AUTO 00000KT 7SM CLR A2994 RMK MADISHF
ESF,2017-04-01 08:06,-92.2958,31.3949,53.10,53.10,100.00,0.00,0.00,0.00,29.94,M,8.00,M,CLR,M,M,M,M,M,M,M,M,KESF 010806Z AUTO 00000KT 8SM CLR 12/12 A2994 RMK AO2 T01170117
ESF,2017-04-01 08:10,-92.2958,31.3949,M,M,M,0.00,0.00,M,29.94,M,7.00,M,CLR,M,M,M,M,M,M,M,M,KESF 010810Z AUTO 00000KT 7SM CLR A2994 RMK MADISHF
ESF,2017-04-01 08:15,-92.2958,31.3949,M,M,M,0.00,0.00,M,29.94,M,4.00,M,CLR,M,M,M,M,M,M,M,BR,KESF 010815Z AUTO 00000KT 4SM BR CLR A2994 RMK MADISHF
ESF,2017-04-01 08:19,-92.2958,31.3949,54.00,54.00,100.00,0.00,0.00,0.00,29.94,M,1.50,M,CLR,M,M,M,M,M,M,M,BR,KESF 010819Z AUTO 00000KT 1 1/2SM BR CLR 12/12 A2994 RMK AO2 VIS 1/2V4 T01220122
ESF,2017-04-01 08:20,-92.2958,31.3949,M,M,M,0.00,0.00,M,29.94,M,1.25,M,CLR,M,M,M,M,M,M,M,BR,KESF 010820Z AUTO 00000KT 1 1/2SM BR CLR A2994 RMK MADISHF
ESF,2017-04-01 08:25,-92.2958,31.3949,M,M,M,0.00,0.00,M,29.94,M,1.25,M,CLR,M,M,M,M,M,M,M,BR,KESF 010825Z AUTO 00000KT 1 1/2SM BR CLR A2994 RMK MADISHF
ESF,2017-04-01 08:30,-92.2958,31.3949,54.00,54.00,100.00,0.00,0.00,0.00,29.94,M,4.00,M,CLR,M,M,M,M,M,M,M,BR,KESF 010830Z AUTO 00000KT 4SM BR CLR 12/12 A2994 RMK AO2 T01220122
ESF,2017-04-01 08:35,-92.2958,31.3949,M,M,M,0.00,0.00,M,29.94,M,7.00,M,CLR,M,M,M,M,M,M,M,M,KESF 010835Z AUTO 00000KT 7SM CLR A2994 RMK MADISHF
ESF,2017-04-01 08:40,-92.2958,31.3949,M,M,M,0.00,0.00,M,29.94,M,8.00,M,CLR,M,M,M,M,M,M,M,M,KESF 010840Z AUTO 00000KT 8SM CLR A2994 RMK MADISHF
ESF,2017-04-01 08:45,-92.2958,31.3949,M,M,M,0.00,0.00,M,29.95,M,8.00,M,CLR,M,M,M,M,M,M,M,M,KESF 010845Z AUTO 00000KT 8SM CLR A2995 RMK MADISHF
ESF,2017-04-01 08:50,-92.2958,31.3949,M,M,M,0.00,0.00,M,29.95,M,7.00,M,CLR,M,M,M,M,M,M,M,M,KESF 010850Z AUTO 00000KT 7SM CLR A2995 RMK MADISHF
ESF,2017-04-01 08:53,-92.2958,31.3949,53.10,53.10,100.00,0.00,0.00,0.00,29.95,1013.90,6.00,M,CLR,M,M,M,M,M,M,M,BR,KESF 010853Z AUTO 00000KT 6SM BR CLR 12/12 A2995 RMK AO2 SLP139 T01170117 53007
ESF,2017-04-01 08:55,-92.2958,31.3949,M,M,M,0.00,0.00,M,29.95,M,6.00,M,CLR,M,M,M,M,M,M,M,BR,KESF 010855Z AUTO 00000KT 6SM BR CLR A2995 RMK MADISHF
ESF,2017-04-01 09:00,-92.2958,31.3949,M,M,M,0.00,0.00,M,29.95,M,7.00,M,CLR,M,M,M,M,M,M,M,M,KESF 010900Z AUTO 00000KT 7SM CLR A2995 RMK MADISHF
ESF,2017-04-01 09:05,-92.2958,31.3949,M,M,M,0.00,0.00,M,29.95,M,6.00,M,CLR,M,M,M,M,M,M,M,BR,KESF 010905Z AUTO 00000KT 6SM BR CLR A2995 RMK MADISHF
ESF,2017-04-01 09:10,-92.2958,31.3949,M,M,M,0.00,0.00,M,29.95,M,5.00,M,CLR,M,M,M,M,M,M,M,BR,KESF 010910Z AUTO 00000KT 5SM BR CLR A2995 RMK MADISHF
ESF,2017-04-01 09:15,-92.2958,31.3949,M,M,M,0.00,0.00,M,29.95,M,7.00,M,CLR,M,M,M,M,M,M,M,M,KESF 010915Z AUTO 00000KT 7SM CLR A2995 RMK MADISHF
ESF,2017-04-01 09:20,-92.2958,31.3949,M,M,M,0.00,0.00,M,29.95,M,8.00,M,CLR,M,M,M,M,M,M,M,M,KESF 010920Z AUTO 00000KT 8SM CLR A2995 RMK MADISHF
ESF,2017-04-01 09:25,-92.2958,31.3949,M,M,M,0.00,0.00,M,29.95,M,7.00,M,CLR,M,M,M,M,M,M,M,M,KESF 010925Z AUTO 00000KT 7SM CLR A2995 RMK MADISHF
ESF,2017-04-01 09:30,-92.2958,31.3949,M,M,M,0.00,0.00,M,29.95,M,7.00,M,CLR,M,M,M,M,M,M,M,M,KESF 010930Z AUTO 00000KT 7SM CLR A2995 RMK MADISHF
ESF,2017-04-01 09:35,-92.2958,31.3949,M,M,M,0.00,0.00,M,29.95,M,8.00,M,CLR,M,M,M,M,M,M,M,M,KESF 010935Z AUTO 00000KT 8SM CLR A2995 RMK MADISHF
ESF,2017-04-01 09:40,-92.2958,31.3949,M,M,M,0.00,0.00,M,29.95,M,8.00,M,CLR,M,M,M,M,M,M,M,M,KESF 010940Z AUTO 00000KT 8SM CLR A2995 RMK MADISHF
ESF,2017-04-01 09:45,-92.2958,31.3949,M,M,M,0.00,0.00,M,29.95,M,8.00,M,CLR,M,M,M,M,M,M,M,M,KESF 010945Z AUTO 00000KT 8SM CLR A2995 RMK MADISHF
ESF,2017-04-01 09:50,-92.2958,31.3949,M,M,M,0.00,0.00,M,29.95,M,9.00,M,CLR,M,M,M,M,M,M,M,M,KESF 010950Z AUTO 00000KT 9SM CLR A2995 RMK MADISHF
ESF,2017-04-01 09:53,-92.2958,31.3949,51.10,51.10,100.00,0.00,0.00,0.00,29.95,1014.10,10.00,M,CLR,M,M,M,M,M,M,M,M,KESF 010953Z AUTO 00000KT 10SM CLR 11/11 A2995 RMK AO2 SLP141 T01060106
ESF,2017-04-01 09:55,-92.2958,31.3949,M,M,M,0.00,0.00,M,29.95,M,10.00,M,CLR,M,M,M,M,M,M,M,M,KESF 010955Z AUTO 00000KT 10SM CLR A2995 RMK MADISHF
ESF,2017-04-01 10:00,-92.2958,31.3949,M,M,M,0.00,0.00,M,29.95,M,9.00,M,CLR,M,M,M,M,M,M,M,M,KESF 011000Z AUTO 00000KT 9SM CLR A2995 RMK MADISHF
ESF,2017-04-01 10:05,-92.2958,31.3949,M,M,M,0.00,0.00,M,29.95,M,10.00,M,CLR,M,M,M,M,M,M,M,M,KESF 011005Z AUTO 00000KT 10SM CLR A2995 RMK MADISHF
ESF,2017-04-01 10:10,-92.2958,31.3949,M,M,M,0.00,0.00,M,29.96,M,10.00,M,CLR,M,M,M,M,M,M,M,M,KESF 011010Z AUTO 00000KT 10SM CLR A2996 RMK MADISHF
ESF,2017-04-01 10:15,-92.2958,31.3949,M,M,M,0.00,0.00,M,29.96,M,10.00,M,CLR,M,M,M,M,M,M,M,M,KESF 011015Z AUTO 00000KT 10SM CLR A2996 RMK MADISHF
ESF,2017-04-01 10:20,-92.2958,31.3949,M,M,M,0.00,0.00,M,29.96,M,9.00,M,CLR,M,M,M,M,M,M,M,M,KESF 011020Z AUTO 00000KT 9SM CLR A2996 RMK MADISHF
ESF,2017-04-01 10:25,-92.2958,31.3949,M,M,M,0.00,0.00,M,29.96,M,8.00,M,CLR,M,M,M,M,M,M,M,M,KESF 011025Z AUTO 00000KT 8SM CLR A2996 RMK MADISHF
ESF,2017-04-01 10:30,-92.2958,31.3949,M,M,M,0.00,0.00,M,29.96,M,8.00,M,CLR,M,M,M,M,M,M,M,M,KESF 011030Z AUTO 00000KT 8SM CLR A2996 RMK MADISHF
ESF,2017-04-01 10:35,-92.2958,31.3949,M,M,M,0.00,0.00,M,29.96,M,9.00,M,CLR,M,M,M,M,M,M,M,M,KESF 011035Z AUTO 00000KT 9SM CLR A2996 RMK MADISHF
ESF,2017-04-01 10:40,-92.2958,31.3949,M,M,M,0.00,0.00,M,29.96,M,10.00,M,CLR,M,M,M,M,M,M,M,M,KESF 011040Z AUTO 00000KT 10SM CLR A2996 RMK MADISHF
ESF,2017-04-01 10:45,-92.2958,31.3949,M,M,M,0.00,0.00,M,29.96,M,10.00,M,CLR,M,M,M,M,M,M,M,M,KESF 011045Z AUTO 00000KT 10SM CLR A2996 RMK MADISHF
ESF,2017-04-01 10:50,-92.2958,31.3949,M,M,M,0.00,0.00,M,29.96,M,10.00,M,CLR,M,M,M,M,M,M,M,M,KESF 011050Z AUTO 00000KT 10SM CLR A2996 RMK MADISHF
ESF,2017-04-01 10:53,-92.2958,31.3949,51.10,51.10,100.00,0.00,0.00,0.00,29.96,1014.30,10.00,M,CLR,M,M,M,M,M,M,M,M,KESF 011053Z AUTO 00000KT 10SM CLR 11/11 A2996 RMK AO2 SLP143 T01060106
ESF,2017-04-01 10:55,-92.2958,31.3949,M,M,M,0.00,0.00,M,29.96,M,10.00,M,CLR,M,M,M,M,M,M,M,M,KESF 011055Z AUTO 00000KT 10SM CLR A2996 RMK MADISHF
ESF,2017-04-01 11:00,-92.2958,31.3949,M,M,M,0.00,0.00,M,29.96,M,10.00,M,CLR,M,M,M,M,M,M,M,M,KESF 011100Z AUTO 00000KT 10SM CLR A2996 RMK MADISHF
ESF,2017-04-01 11:05,-92.2958,31.3949,M,M,M,0.00,0.00,M,29.96,M,10.00,M,CLR,M,M,M,M,M,M,M,M,KESF 011105Z AUTO 00000KT 10SM CLR A2996 RMK MADISHF
ESF,2017-04-01 11:10,-92.2958,31.3949,M,M,M,0.00,0.00,M,29.96,M,10.00,M,CLR,M,M,M,M,M,M,M,M,KESF 011110Z AUTO 00000KT 10SM CLR A2996 RMK MADISHF
ESF,2017-04-01 11:15,-92.2958,31.3949,M,M,M,0.00,0.00,M,29.96,M,10.00,M,CLR,M,M,M,M,M,M,M,M,KESF 011115Z AUTO 00000KT 10SM CLR A2996 RMK MADISHF
ESF,2017-04-01 11:20,-92.2958,31.3949,M,M,M,0.00,0.00,M,29.96,M,10.00,M,CLR,M,M,M,M,M,M,M,M,KESF 011120Z AUTO 00000KT 10SM CLR A2996 RMK MADISHF
ESF,2017-04-01 11:25,-92.2958,31.3949,M,M,M,0.00,0.00,M,29.97,M,10.00,M,CLR,M,M,M,M,M,M,M,M,KESF 011125Z AUTO 00000KT 10SM CLR A2997 RMK MADISHF
ESF,2017-04-01 11:30,-92.2958,31.3949,M,M,M,0.00,0.00,M,29.97,M,10.00,M,CLR,M,M,M,M,M,M,M,M,KESF 011130Z AUTO 00000KT 10SM CLR A2997 RMK MADISHF
ESF,2017-04-01 11:35,-92.2958,31.3949,M,M,M,0.00,0.00,M,29.97,M,9.00,M,CLR,M,M,M,M,M,M,M,M,KESF 011135Z AUTO 00000KT 9SM CLR A2997 RMK MADISHF
ESF,2017-04-01 11:40,-92.2958,31.3949,M,M,M,0.00,0.00,M,29.97,M,4.00,M,CLR,M,M,M,M,M,M,M,BR,KESF 011140Z AUTO 00000KT 4SM BR CLR A2997 RMK MADISHF
ESF,2017-04-01 11:45,-92.2958,31.3949,M,M,M,0.00,0.00,M,29.97,M,3.50,M,CLR,M,M,M,M,M,M,M,BR,KESF 011145Z AUTO 00000KT 3SM BR CLR A2997 RMK MADISHF
ESF,2017-04-01 11:50,-92.2958,31.3949,M,M,M,0.00,0.00,M,29.98,M,6.00,M,CLR,M,M,M,M,M,M,M,BR,KESF 011150Z AUTO 00000KT 6SM BR CLR A2998 RMK MADISHF
ESF,2017-04-01 11:53,-92.2958,31.3949,50.00,50.00,100.00,0.00,0.00,0.00,29.98,1015.00,9.00,M,CLR,M,M,M,M,M,M,M,M,KESF 011153Z AUTO 00000KT 9SM CLR 10/10 A2998 RMK AO2 SLP150 T01000100 10139 20100 53010
ESF,2017-04-01 11:55,-92.2958,31.3949,M,M,M,0.00,0.00,M,29.98,M,9.00,M,CLR,M,M,M,M,M,M,M,M,KESF 011155Z AUTO 00000KT 9SM CLR A2998 RMK MADISHF
ESF,2017-04-01 12:00,-92.2958,31.3949,M,M,M,0.00,0.00,M,29.98,M,8.00,M,CLR,M,M,M,M,M,M,M,M,KESF 011200Z AUTO 00000KT 8SM CLR A2998 RMK MADISHF
ESF,2017-04-01 12:05,-92.2958,31.3949,M,M,M,0.00,0.00,M,29.98,M,4.00,M,CLR,M,M,M,M,M,M,M,BR,KESF 011205Z AUTO 00000KT 4SM BR CLR A2998 RMK MADISHF
ESF,2017-04-01 12:10,-92.2958,31.3949,M,M,M,0.00,0.00,M,29.98,M,3.50,M,CLR,M,M,M,M,M,M,M,BR,KESF 011210Z AUTO 00000KT 3SM BR CLR A2998 RMK MADISHF
ESF,2017-04-01 12:15,-92.2958,31.3949,M,M,M,0.00,0.00,M,29.98,M,5.00,M,CLR,M,M,M,M,M,M,M,BR,KESF 011215Z AUTO 00000KT 5SM BR CLR A2998 RMK MADISHF
ESF,2017-04-01 12:20,-92.2958,31.3949,M,M,M,0.00,0.00,M,29.98,M,8.00,M,CLR,M,M,M,M,M,M,M,M,KESF 011220Z AUTO 00000KT 8SM CLR A2998 RMK MADISHF
ESF,2017-04-01 12:25,-92.2958,31.3949,M,M,M,0.00,0.00,M,29.98,M,9.00,M,CLR,M,M,M,M,M,M,M,M,KESF 011225Z AUTO 00000KT 9SM CLR A2998 RMK MADISHF
ESF,2017-04-01 12:30,-92.2958,31.3949,M,M,M,0.00,0.00,M,29.99,M,9.00,M,CLR,M,M,M,M,M,M,M,M,KESF 011230Z AUTO 00000KT 9SM CLR A2999 RMK MADISHF
ESF,2017-04-01 12:35,-92.2958,31.3949,M,M,M,0.00,0.00,M,29.99,M,10.00,M,CLR,M,M,M,M,M,M,M,M,KESF 011235Z AUTO 00000KT 10SM CLR A2999 RMK MADISHF
ESF,2017-04-01 12:40,-92.2958,31.3949,M,M,M,0.00,0.00,M,29.99,M,10.00,M,CLR,M,M,M,M,M,M,M,M,KESF 011240Z AUTO 00000KT 10SM CLR A2999 RMK MADISHF
ESF,2017-04-01 12:45,-92.2958,31.3949,M,M,M,0.00,0.00,M,29.99,M,10.00,M,CLR,M,M,M,M,M,M,M,M,KESF 011245Z AUTO 00000KT 10SM CLR A2999 RMK MADISHF
ESF,2017-04-01 12:50,-92.2958,31.3949,M,M,M,0.00,0.00,M,29.99,M,10.00,M,CLR,M,M,M,M,M,M,M,M,KESF 011250Z AUTO 00000KT 10SM CLR A2999 RMK MADISHF
ESF,2017-04-01 12:53,-92.2958,31.3949,55.00,55.00,100.00,0.00,0.00,0.00,29.99,1015.50,10.00,M,CLR,M,M,M,M,M,M,M,M,KESF 011253Z AUTO 00000KT 10SM CLR 13/13 A2999 RMK AO2 SLP155 T01280128
ESF,2017-04-01 12:55,-92.2958,31.3949,M,M,M,0.00,0.00,M,29.99,M,10.00,M,CLR,M,M,M,M,M,M,M,M,KESF 011255Z AUTO 00000KT 10SM CLR A2999 RMK MADISHF
ESF,2017-04-01 13:00,-92.2958,31.3949,M,M,M,70.00,3.00,M,29.99,M,10.00,M,CLR,M,M,M,M,M,M,M,M,KESF 011300Z AUTO 07003KT 10SM CLR A2999 RMK MADISHF
ESF,2017-04-01 13:05,-92.2958,31.3949,M,M,M,0.00,0.00,M,29.99,M,10.00,M,CLR,M,M,M,M,M,M,M,M,KESF 011305Z AUTO 00000KT 10SM CLR A2999 RMK MADISHF
ESF,2017-04-01 13:10,-92.2958,31.3949,M,M,M,0.00,0.00,M,30.00,M,10.00,M,CLR,M,M,M,M,M,M,M,M,KESF 011310Z AUTO 00000KT 10SM CLR A3000 RMK MADISHF
ESF,2017-04-01 13:15,-92.2958,31.3949,M,M,M,90.00,3.00,M,29.99,M,10.00,M,CLR,M,M,M,M,M,M,M,M,KESF 011315Z AUTO 09003KT 10SM CLR A2999 RMK MADISHF
ESF,2017-04-01 13:20,-92.2958,31.3949,M,M,M,100.00,4.00,M,30.00,M,10.00,M,CLR,M,M,M,M,M,M,M,M,KESF 011320Z AUTO 10004KT 10SM CLR A3000 RMK MADISHF
ESF,2017-04-01 13:25,-92.2958,31.3949,M,M,M,0.00,0.00,M,30.00,M,10.00,M,CLR,M,M,M,M,M,M,M,M,KESF 011325Z AUTO 00000KT 10SM CLR A3000 RMK MADISHF
ESF,2017-04-01 13:30,-92.2958,31.3949,M,M,M,0.00,0.00,M,30.00,M,10.00,M,CLR,M,M,M,M,M,M,M,M,KESF 011330Z AUTO 00000KT 10SM CLR A3000 RMK MADISHF
ESF,2017-04-01 13:35,-92.2958,31.3949,M,M,M,90.00,3.00,M,30.00,M,10.00,M,CLR,M,M,M,M,M,M,M,M,KESF 011335Z AUTO 09003KT 10SM CLR A3000 RMK MADISHF
ESF,2017-04-01 13:40,-92.2958,31.3949,M,M,M,100.00,4.00,M,30.00,M,10.00,M,CLR,M,M,M,M,M,M,M,M,KESF 011340Z AUTO 10004KT 10SM CLR A3000 RMK MADISHF
ESF,2017-04-01 13:45,-92.2958,31.3949,M,M,M,90.00,3.00,M,30.00,M,10.00,M,CLR,M,M,M,M,M,M,M,M,KESF 011345Z AUTO 09003KT 10SM CLR A3000 RMK MADISHF
ESF,2017-04-01 13:50,-92.2958,31.3949,M,M,M,100.00,4.00,M,30.00,M,10.00,M,CLR,M,M,M,M,M,M,M,M,KESF 011350Z AUTO 10004KT 10SM CLR A3000 RMK MADISHF
ESF,2017-04-01 13:53,-92.2958,31.3949,64.90,61.00,87.18,110.00,3.00,0.00,30.00,1015.90,10.00,M,CLR,M,M,M,M,M,M,M,M,KESF 011353Z AUTO 11003KT 10SM CLR 18/16 A3000 RMK AO2 SLP159 T01830161
ESF,2017-04-01 13:55,-92.2958,31.3949,M,M,M,110.00,4.00,M,30.00,M,10.00,M,CLR,M,M,M,M,M,M,M,M,KESF 011355Z AUTO 11004KT 10SM CLR A3000 RMK MADISHF
ESF,2017-04-01 14:00,-92.2958,31.3949,M,M,M,110.00,3.00,M,30.00,M,10.00,M,CLR,M,M,M,M,M,M,M,M,KESF 011400Z AUTO 11003KT 10SM CLR A3000 RMK MADISHF
ESF,2017-04-01 14:05,-92.2958,31.3949,M,M,M,110.00,4.00,M,30.00,M,10.00,M,CLR,M,M,M,M,M,M,M,M,KESF 011405Z AUTO 11004KT 10SM CLR A3000 RMK MADISHF
ESF,2017-04-01 14:10,-92.2958,31.3949,M,M,M,90.00,3.00,M,30.01,M,10.00,M,CLR,M,M,M,M,M,M,M,M,KESF 011410Z AUTO 09003KT 10SM CLR A3001 RMK MADISHF
ESF,2017-04-01 14:15,-92.2958,31.3949,M,M,M,M,M,M,30.01,M,10.00,M,CLR,M,M,M,M,M,M,M,M,KESF 011415Z AUTO /////KT 10SM CLR A3001 RMK MADISHF
ESF,2017-04-01 14:20,-92.2958,31.3949,M,M,M,100.00,3.00,M,30.01,M,8.00,M,CLR,M,M,M,M,M,M,M,M,KESF 011420Z AUTO 10003KT 8SM CLR A3001 RMK MADISHF
ESF,2017-04-01 14:25,-92.2958,31.3949,M,M,M,110.00,3.00,M,30.01,M,8.00,M,CLR,M,M,M,M,M,M,M,M,KESF 011425Z AUTO 11003KT 8SM CLR A3001 RMK MADISHF
ESF,2017-04-01 14:30,-92.2958,31.3949,M,M,M,120.00,5.00,M,30.01,M,10.00,M,CLR,M,M,M,M,M,M,M,M,KESF 011430Z AUTO 12005KT 10SM CLR A3001 RMK MADISHF
ESF,2017-04-01 14:35,-92.2958,31.3949,M,M,M,110.00,5.00,M,30.02,M,10.00,M,CLR,M,M,M,M,M,M,M,M,KESF 011435Z AUTO 11005KT 10SM CLR A3002 RMK MADISHF
ESF,2017-04-01 14:40,-92.2958,31.3949,M,M,M,130.00,4.00,M,30.02,M,10.00,M,CLR,M,M,M,M,M,M,M,M,KESF 011440Z AUTO 13004KT 10SM CLR A3002 RMK MADISHF
ESF,2017-04-01 14:45,-92.2958,31.3949,M,M,M,120.00,5.00,M,30.02,M,10.00,M,CLR,M,M,M,M,M,M,M,M,KESF 011445Z AUTO 12005KT 10SM CLR A3002 RMK VRB05KT  MADISHF
ESF,2017-04-01 14:50,-92.2958,31.3949,M,M,M,130.00,4.00,M,30.02,M,10.00,M,CLR,M,M,M,M,M,M,M,M,KESF 011450Z AUTO 13004KT 10SM CLR A3002 RMK MADISHF
ESF,2017-04-01 14:53,-92.2958,31.3949,72.00,60.10,66.16,M,4.00,0.00,30.02,1016.50,10.00,M,CLR,M,M,M,M,M,M,M,M,KESF 011453Z AUTO VRB04KT 10SM CLR 22/16 A3002 RMK AO2 SLP165 T02220156 53015
ESF,2017-04-01 14:55,-92.2958,31.3949,M,M,M,150.00,6.00,M,30.02,M,10.00,M,CLR,M,M,M,M,M,M,M,M,KESF 011455Z AUTO 15006KT 10SM CLR A3002 RMK MADISHF
ESF,2017-04-01 15:00,-92.2958,31.3949,M,M,M,120.00,3.00,M,30.02,M,10.00,M,CLR,M,M,M,M,M,M,M,M,KESF 011500Z AUTO 12003KT 10SM CLR A3002 RMK MADISHF
ESF,2017-04-01 15:05,-92.2958,31.3949,M,M,M,140.00,6.00,M,30.03,M,10.00,M,CLR,M,M,M,M,M,M,M,M,KESF 011505Z AUTO 14006KT 10SM CLR A3003 RMK MADISHF
ESF,2017-04-01 15:10,-92.2958,31.3949,M,M,M,100.00,5.00,M,30.03,M,10.00,M,CLR,M,M,M,M,M,M,M,M,KESF 011510Z AUTO 10005KT 10SM CLR A3003 RMK MADISHF
ESF,2017-04-01 15:15,-92.2958,31.3949,M,M,M,120.00,6.00,M,30.03,M,10.00,M,CLR,M,M,M,M,M,M,M,M,KESF 011515Z AUTO 12006KT 10SM CLR A3003 RMK MADISHF
ESF,2017-04-01 15:20,-92.2958,31.3949,M,M,M,110.00,3.00,M,30.03,M,10.00,M,CLR,M,M,M,M,M,M,M,M,KESF 011520Z AUTO 11003KT 10SM CLR A3003 RMK MADISHF
ESF,2017-04-01 15:25,-92.2958,31.3949,M,M,M,0.00,0.00,M,30.03,M,10.00,M,CLR,M,M,M,M,M,M,M,M,KESF 011525Z AUTO 00000KT 10SM CLR A3003 RMK MADISHF
ESF,2017-04-01 15:30,-92.2958,31.3949,M,M,M,90.00,4.00,M,30.03,M,10.00,M,CLR,M,M,M,M,M,M,M,M,KESF 011530Z AUTO 09004KT 10SM CLR A3003 RMK MADISHF
ESF,2017-04-01 15:35,-92.2958,31.3949,M,M,M,120.00,6.00,M,30.03,M,10.00,M,CLR,M,M,M,M,M,M,M,M,KESF 011535Z AUTO 12006KT 10SM CLR A3003 RMK MADISHF
ESF,2017-04-01 15:40,-92.2958,31.3949,M,M,M,140.00,6.00,M,30.03,M,10.00,M,CLR,M,M,M,M,M,M,M,M,KESF 011540Z AUTO 14006KT 10SM CLR A3003 RMK MADISHF
ESF,2017-04-01 15:45,-92.2958,31.3949,M,M,M,130.00,8.00,M,30.03,M,10.00,M,CLR,M,M,M,M,M,M,M,M,KESF 011545Z AUTO 13008KT 10SM CLR A3003 RMK MADISHF
ESF,2017-04-01 15:50,-92.2958,31.3949,M,M,M,120.00,6.00,M,30.03,M,10.00,M,CLR,M,M,M,M,M,M,M,M,KESF 011550Z AUTO 12006KT 10SM CLR A3003 RMK MADISHF
ESF,2017-04-01 15:53,-92.2958,31.3949,75.90,59.00,55.80,100.00,8.00,0.00,30.03,1016.70,10.00,M,CLR,M,M,M,M,M,M,M,M,KESF 011553Z AUTO 10008KT 10SM CLR 24/15 A3003 RMK AO2 SLP167 T02440150
ESF,2017-04-01 15:55,-92.2958,31.3949,M,M,M,120.00,9.00,M,30.03,M,10.00,M,CLR,M,M,M,M,M,M,M,M,KESF 011555Z AUTO 12009KT 10SM CLR A3003 RMK MADISHF
ESF,2017-04-01 16:00,-92.2958,31.3949,M,M,M,120.00,8.00,M,30.03,M,10.00,M,CLR,M,M,M,M,M,M,M,M,KESF 011600Z AUTO 12008KT 10SM CLR A3003 RMK MADISHF
ESF,2017-04-01 16:05,-92.2958,31.3949,M,M,M,120.00,9.00,M,30.03,M,10.00,M,CLR,M,M,M,M,M,M,M,M,KESF 011605Z AUTO 12009KT 10SM CLR A3003 RMK MADISHF
ESF,2017-04-01 16:10,-92.2958,31.3949,M,M,M,100.00,8.00,M,30.03,M,10.00,M,CLR,M,M,M,M,M,M,M,M,KESF 011610Z AUTO 10008KT 10SM CLR A3003 RMK MADISHF
ESF,2017-04-01 16:15,-92.2958,31.3949,M,M,M,130.00,8.00,M,30.03,M,10.00,M,CLR,M,M,M,M,M,M,M,M,KESF 011615Z AUTO 13008KT 10SM CLR A3003 RMK MADISHF
ESF,2017-04-01 16:20,-92.2958,31.3949,M,M,M,130.00,9.00,M,30.03,M,10.00,M,CLR,M,M,M,M,M,M,M,M,KESF 011620Z AUTO 13009KT 10SM CLR A3003 RMK MADISHF
ESF,2017-04-01 16:25,-92.2958,31.3949,M,M,M,100.00,5.00,M,30.03,M,10.00,M,CLR,M,M,M,M,M,M,M,M,KESF 011625Z AUTO 10005KT 10SM CLR A3003 RMK MADISHF
ESF,2017-04-01 16:30,-92.2958,31.3949,M,M,M,160.00,6.00,M,30.03,M,10.00,M,CLR,M,M,M,M,M,M,M,M,KESF 011630Z AUTO 16006KT 10SM CLR A3003 RMK VRB06KT  MADISHF
ESF,2017-04-01 16:35,-92.2958,31.3949,M,M,M,150.00,10.00,M,30.03,M,10.00,M,CLR,M,M,M,M,M,M,M,M,KESF 011635Z AUTO 15010KT 10SM CLR A3003 RMK MADISHF
ESF,2017-04-01 16:40,-92.2958,31.3949,M,M,M,140.00,8.00,M,30.03,M,10.00,M,CLR,M,M,M,M,M,M,M,M,KESF 011640Z AUTO 14008KT 10SM CLR A3003 RMK WND 08V16  MADISHF
ESF,2017-04-01 16:45,-92.2958,31.3949,M,M,M,130.00,11.00,M,30.03,M,10.00,M,CLR,M,M,M,M,M,M,M,M,KESF 011645Z AUTO 13011KT 10SM CLR A3003 RMK MADISHF
ESF,2017-04-01 16:50,-92.2958,31.3949,M,M,M,120.00,8.00,M,30.02,M,10.00,M,CLR,M,M,M,M,M,M,M,M,KESF 011650Z AUTO 12008KT 10SM CLR A3002 RMK WND 08V18  MADISHF
ESF,2017-04-01 16:53,-92.2958,31.3949,81.00,59.00,47.17,130.00,9.00,0.00,30.02,1016.50,10.00,15.00,CLR,M,M,M,M,M,M,M,M,KESF 011653Z AUTO 13009G15KT 10SM CLR 27/15 A3002 RMK AO2 SLP165 T02720150
ESF,2017-04-01 16:55,-92.2958,31.3949,M,M,M,130.00,11.00,M,30.02,M,10.00,M,CLR,M,M,M,M,M,M,M,M,KESF 011655Z AUTO 13011KT 10SM CLR A3002 RMK WND 11V17  MADISHF
ESF,2017-04-01 17:00,-92.2958,31.3949,M,M,M,160.00,10.00,M,30.02,M,10.00,M,CLR,M,M,M,M,M,M,M,M,KESF 011700Z AUTO 16010KT 10SM CLR A3002 RMK MADISHF
ESF,2017-04-01 17:05,-92.2958,31.3949,M,M,M,110.00,11.00,M,30.02,M,10.00,M,CLR,M,M,M,M,M,M,M,M,KESF 011705Z AUTO 11011KT 10SM CLR A3002 RMK MADISHF
ESF,2017-04-01 17:10,-92.2958,31.3949,M,M,M,140.00,11.00,M,30.02,M,10.00,M,CLR,M,M,M,M,M,M,M,M,KESF 011710Z AUTO 14011KT 10SM CLR A3002 RMK MADISHF
ESF,2017-04-01 17:15,-92.2958,31.3949,M,M,M,140.00,10.00,M,30.02,M,10.00,M,CLR,M,M,M,M,M,M,M,M,KESF 011715Z AUTO 14010KT 10SM CLR A3002 RMK MADISHF
ESF,2017-04-01 17:20,-92.2958,31.3949,M,M,M,150.00,10.00,M,30.02,M,10.00,M,CLR,M,M,M,M,M,M,M,M,KESF 011720Z AUTO 15010KT 10SM CLR A3002 RMK MADISHF
ESF,2017-04-01 17:25,-92.2958,31.3949,M,M,M,150.00,9.00,M,30.01,M,10.00,M,CLR,M,M,M,M,M,M,M,M,KESF 011725Z AUTO 15009KT 10SM CLR A3001 RMK MADISHF
ESF,2017-04-01 17:30,-92.2958,31.3949,M,M,M,140.00,9.00,M,30.01,M,10.00,M,CLR,M,M,M,M,M,M,M,M,KESF 011730Z AUTO 14009KT 10SM CLR A3001 RMK MADISHF
ESF,2017-04-01 17:35,-92.2958,31.3949,M,M,M,140.00,10.00,M,30.01,M,10.00,M,CLR,M,M,M,M,M,M,M,M,KESF 011735Z AUTO 14010KT 10SM CLR A3001 RMK MADISHF
ESF,2017-04-01 17:40,-92.2958,31.3949,M,M,M,120.00,13.00,M,30.01,M,10.00,M,CLR,M,M,M,M,M,M,M,M,KESF 011740Z AUTO 12013KT 10SM CLR A3001 RMK MADISHF
ESF,2017-04-01 17:45,-92.2958,31.3949,M,M,M,120.00,12.00,M,30.00,M,10.00,M,CLR,M,M,M,M,M,M,M,M,KESF 011745Z AUTO 12012KT 10SM CLR A3000 RMK MADISHF
ESF,2017-04-01 17:50,-92.2958,31.3949,M,M,M,120.00,9.00,M,30.00,M,10.00,M,CLR,M,M,M,M,M,M,M,M,KESF 011750Z AUTO 12009KT 10SM CLR A3000 RMK MADISHF
ESF,2017-04-01 17:53,-92.2958,31.3949,82.90,57.90,42.63,120.00,11.00,0.00,30.00,1015.90,10.00,M,CLR,M,M,M,M,M,M,M,M,KESF 011753Z AUTO 12011KT 10SM CLR 28/14 A3000 RMK AO2 SLP159 T02830144 10283 20100 58006
ESF,2017-04-01 17:55,-92.2958,31.3949,M,M,M,120.00,11.00,M,30.00,M,10.00,16.00,CLR,M,M,M,M,M,M,M,M,KESF 011755Z AUTO 12011G16KT 10SM CLR A3000 RMK MADISHF
ESF,2017-04-01 18:00,-92.2958,31.3949,M,M,M,140.00,11.00,M,30.00,M,10.00,M,CLR,M,M,M,M,M,M,M,M,KESF 011800Z AUTO 14011KT 10SM CLR A3000 RMK MADISHF
ESF,2017-04-01 18:05,-92.2958,31.3949,M,M,M,140.00,11.00,M,30.00,M,10.00,M,CLR,M,M,M,M,M,M,M,M,KESF 011805Z AUTO 14011KT 10SM CLR A3000 RMK MADISHF
ESF,2017-04-01 18:10,-92.2958,31.3949,M,M,M,140.00,8.00,M,30.00,M,10.00,M,CLR,M,M,M,M,M,M,M,M,KESF 011810Z AUTO 14008KT 10SM CLR A3000 RMK MADISHF
ESF,2017-04-01 18:15,-92.2958,31.3949,M,M,M,140.00,12.00,M,30.00,M,10.00,M,CLR,M,M,M,M,M,M,M,M,KESF 011815Z AUTO 14012KT 10SM CLR A3000 RMK MADISHF
ESF,2017-04-01 18:20,-92.2958,31.3949,M,M,M,110.00,10.00,M,30.00,M,10.00,M,CLR,M,M,M,M,M,M,M,M,KESF 011820Z AUTO 11010KT 10SM CLR A3000 RMK MADISHF
ESF,2017-04-01 18:25,-92.2958,31.3949,M,M,M,110.00,12.00,M,29.99,M,10.00,M,CLR,M,M,M,M,M,M,M,M,KESF 011825Z AUTO 11012KT 10SM CLR A2999 RMK MADISHF
ESF,2017-04-01 18:30,-92.2958,31.3949,M,M,M,140.00,9.00,M,29.99,M,10.00,M,CLR,M,M,M,M,M,M,M,M,KESF 011830Z AUTO 14009KT 10SM CLR A2999 RMK MADISHF
ESF,2017-04-01 18:35,-92.2958,31.3949,M,M,M,120.00,10.00,M,29.99,M,10.00,M,CLR,M,M,M,M,M,M,M,M,KESF 011835Z AUTO 12010KT 10SM CLR A2999 RMK WND 08V14  MADISHF
ESF,2017-04-01 18:40,-92.2958,31.3949,M,M,M,170.00,8.00,M,29.99,M,10.00,M,CLR,M,M,M,M,M,M,M,M,KESF 011840Z AUTO 17008KT 10SM CLR A2999 RMK MADISHF
ESF,2017-04-01 18:45,-92.2958,31.3949,M,M,M,140.00,11.00,M,29.99,M,10.00,M,CLR,M,M,M,M,M,M,M,M,KESF 011845Z AUTO 14011KT 10SM CLR A2999 RMK MADISHF
ESF,2017-04-01 18:50,-92.2958,31.3949,M,M,M,130.00,12.00,M,29.99,M,10.00,M,CLR,M,M,M,M,M,M,M,M,KESF 011850Z AUTO 13012KT 10SM CLR A2999 RMK WND 10V16  MADISHF
ESF,2017-04-01 18:53,-92.2958,31.3949,84.00,55.90,38.28,130.00,14.00,0.00,29.98,1015.20,10.00,19.00,CLR,M,M,M,M,M,M,M,M,KESF 011853Z AUTO 13014G19KT 10SM CLR 29/13 A2998 RMK AO2 SLP152 T02890133
ESF,2017-04-01 18:55,-92.2958,31.3949,M,M,M,120.00,11.00,M,29.98,M,10.00,M,CLR,M,M,M,M,M,M,M,M,KESF 011855Z AUTO 12011KT 10SM CLR A2998 RMK MADISHF
ESF,2017-04-01 19:00,-92.2958,31.3949,M,M,M,140.00,14.00,M,29.99,M,10.00,M,CLR,M,M,M,M,M,M,M,M,KESF 011900Z AUTO 14014KT 10SM CLR A2999 RMK MADISHF
ESF,2017-04-01 19:05,-92.2958,31.3949,M,M,M,100.00,9.00,M,29.98,M,10.00,M,CLR,M,M,M,M,M,M,M,M,KESF 011905Z AUTO 10009KT 10SM CLR A2998 RMK MADISHF
ESF,2017-04-01 19:10,-92.2958,31.3949,M,M,M,150.00,11.00,M,29.98,M,10.00,M,CLR,M,M,M,M,M,M,M,M,KESF 011910Z AUTO 15011KT 10SM CLR A2998 RMK MADISHF
ESF,2017-04-01 19:15,-92.2958,31.3949,M,M,M,140.00,13.00,M,29.98,M,10.00,18.00,CLR,M,M,M,M,M,M,M,M,KESF 011915Z AUTO 14013G18KT 10SM CLR A2998 RMK MADISHF
ESF,2017-04-01 19:20,-92.2958,31.3949,M,M,M,150.00,11.00,M,29.98,M,10.00,M,CLR,M,M,M,M,M,M,M,M,KESF 011920Z AUTO 15011KT 10SM CLR A2998 RMK MADISHF
ESF,2017-04-01 19:25,-92.2958,31.3949,M,M,M,150.00,15.00,M,29.98,M,10.00,M,CLR,M,M,M,M,M,M,M,M,KESF 011925Z AUTO 15015KT 10SM CLR A2998 RMK MADISHF
ESF,2017-04-01 19:30,-92.2958,31.3949,M,M,M,120.00,10.00,M,29.98,M,10.00,16.00,CLR,M,M,M,M,M,M,M,M,KESF 011930Z AUTO 12010G16KT 10SM CLR A2998 RMK MADISHF
ESF,2017-04-01 19:35,-92.2958,31.3949,M,M,M,110.00,13.00,M,29.97,M,10.00,M,CLR,M,M,M,M,M,M,M,M,KESF 011935Z AUTO 11013KT 10SM CLR A2997 RMK MADISHF
ESF,2017-04-01 19:40,-92.2958,31.3949,M,M,M,140.00,13.00,M,29.97,M,10.00,M,CLR,M,M,M,M,M,M,M,M,KESF 011940Z AUTO 14013KT 10SM CLR A2997 RMK MADISHF
ESF,2017-04-01 19:45,-92.2958,31.3949,M,M,M,120.00,14.00,M,29.97,M,10.00,M,CLR,M,M,M,M,M,M,M,M,KESF 011945Z AUTO 12014KT 10SM CLR A2997 RMK MADISHF
ESF,2017-04-01 19:50,-92.2958,31.3949,M,M,M,140.00,9.00,M,29.97,M,10.00,M,CLR,M,M,M,M,M,M,M,M,KESF 011950Z AUTO 14009KT 10SM CLR A2997 RMK MADISHF
ESF,2017-04-01 19:53,-92.2958,31.3949,86.00,55.90,35.90,160.00,12.00,0.00,29.97,1014.70,10.00,17.00,CLR,M,M,M,M,M,M,M,M,KESF 011953Z AUTO 16012G17KT 10SM CLR 30/13 A2997 RMK AO2 SLP147 T03000133
ESF,2017-04-01 19:55,-92.2958,31.3949,M,M,M,150.00,13.00,M,29.97,M,10.00,M,CLR,M,M,M,M,M,M,M,M,KESF 011955Z AUTO 15013KT 10SM CLR A2997 RMK MADISHF
ESF,2017-04-01 20:00,-92.2958,31.3949,M,M,M,140.00,12.00,M,29.97,M,10.00,18.00,CLR,M,M,M,M,M,M,M,M,KESF 012000Z AUTO 14012G18KT 10SM CLR A2997 RMK MADISHF
ESF,2017-04-01 20:05,-92.2958,31.3949,M,M,M,130.00,14.00,M,29.97,M,10.00,M,CLR,M,M,M,M,M,M,M,M,KESF 012005Z AUTO 13014KT 10SM CLR A2997 RMK MADISHF
ESF,2017-04-01 20:10,-92.2958,31.3949,M,M,M,140.00,11.00,M,29.96,M,10.00,M,CLR,M,M,M,M,M,M,M,M,KESF 012010Z AUTO 14011KT 10SM CLR A2996 RMK MADISHF
ESF,2017-04-01 20:15,-92.2958,31.3949,M,M,M,140.00,12.00,M,29.96,M,10.00,M,CLR,M,M,M,M,M,M,M,M,KESF 012015Z AUTO 14012KT 10SM CLR A2996 RMK MADISHF
ESF,2017-04-01 20:20,-92.2958,31.3949,M,M,M,130.00,10.00,M,29.96,M,10.00,M,CLR,M,M,M,M,M,M,M,M,KESF 012020Z AUTO 13010KT 10SM CLR A2996 RMK MADISHF
ESF,2017-04-01 20:25,-92.2958,31.3949,M,M,M,130.00,8.00,M,29.96,M,10.00,M,CLR,M,M,M,M,M,M,M,M,KESF 012025Z AUTO 13008KT 10SM CLR A2996 RMK MADISHF
ESF,2017-04-01 20:30,-92.2958,31.3949,M,M,M,150.00,9.00,M,29.95,M,10.00,M,CLR,M,M,M,M,M,M,M,M,KESF 012030Z AUTO 15009KT 10SM CLR A2995 RMK MADISHF
ESF,2017-04-01 20:35,-92.2958,31.3949,M,M,M,150.00,8.00,M,29.95,M,10.00,M,CLR,M,M,M,M,M,M,M,M,KESF 012035Z AUTO 15008KT 10SM CLR A2995 RMK MADISHF
ESF,2017-04-01 20:40,-92.2958,31.3949,M,M,M,140.00,8.00,M,29.95,M,10.00,M,CLR,M,M,M,M,M,M,M,M,KESF 012040Z AUTO 14008KT 10SM CLR A2995 RMK MADISHF
ESF,2017-04-01 20:45,-92.2958,31.3949,M,M,M,140.00,11.00,M,29.95,M,10.00,M,CLR,M,M,M,M,M,M,M,M,KESF 012045Z AUTO 14011KT 10SM CLR A2995 RMK MADISHF
ESF,2017-04-01 20:50,-92.2958,31.3949,M,M,M,160.00,10.00,M,29.95,M,10.00,M,CLR,M,M,M,M,M,M,M,M,KESF 012050Z AUTO 16010KT 10SM CLR A2995 RMK MADISHF
ESF,2017-04-01 20:53,-92.2958,31.3949,82.90,54.00,37.01,150.00,10.00,0.00,29.95,1014.10,10.00,M,CLR,M,M,M,M,M,M,M,M,KESF 012053Z AUTO 15010KT 10SM CLR 28/12 A2995 RMK AO2 SLP141 T02830122 56018
ESF,2017-04-01 20:55,-92.2958,31.3949,M,M,M,150.00,9.00,M,29.95,M,10.00,M,CLR,M,M,M,M,M,M,M,M,KESF 012055Z AUTO 15009KT 10SM CLR A2995 RMK MADISHF
ESF,2017-04-01 21:00,-92.2958,31.3949,M,M,M,150.00,8.00,M,29.95,M,10.00,M,CLR,M,M,M,M,M,M,M,M,KESF 012100Z AUTO 15008KT 10SM CLR A2995 RMK MADISHF
ESF,2017-04-01 21:05,-92.2958,31.3949,M,M,M,150.00,9.00,M,29.95,M,10.00,M,CLR,M,M,M,M,M,M,M,M,KESF 012105Z AUTO 15009KT 10SM CLR A2995 RMK MADISHF
ESF,2017-04-01 21:10,-92.2958,31.3949,M,M,M,150.00,8.00,M,29.95,M,10.00,M,CLR,M,M,M,M,M,M,M,M,KESF 012110Z AUTO 15008KT 10SM CLR A2995 RMK MADISHF
ESF,2017-04-01 21:15,-92.2958,31.3949,M,M,M,150.00,8.00,M,29.95,M,10.00,M,CLR,M,M,M,M,M,M,M,M,KESF 012115Z AUTO 15008KT 10SM CLR A2995 RMK MADISHF
ESF,2017-04-01 21:20,-92.2958,31.3949,M,M,M,150.00,11.00,M,29.95,M,10.00,M,CLR,M,M,M,M,M,M,M,M,KESF 012120Z AUTO 15011KT 10SM CLR A2995 RMK MADISHF
ESF,2017-04-01 21:25,-92.2958,31.3949,M,M,M,160.00,8.00,M,29.95,M,10.00,M,CLR,M,M,M,M,M,M,M,M,KESF 012125Z AUTO 16008KT 10SM CLR A2995 RMK MADISHF
ESF,2017-04-01 21:30,-92.2958,31.3949,M,M,M,150.00,7.00,M,29.95,M,10.00,M,CLR,M,M,M,M,M,M,M,M,KESF 012130Z AUTO 15007KT 10SM CLR A2995 RMK MADISHF
ESF,2017-04-01 21:35,-92.2958,31.3949,M,M,M,140.00,9.00,M,29.95,M,10.00,M,CLR,M,M,M,M,M,M,M,M,KESF 012135Z AUTO 14009KT 10SM CLR A2995 RMK MADISHF
ESF,2017-04-01 21:40,-92.2958,31.3949,M,M,M,160.00,10.00,M,29.95,M,10.00,M,CLR,M,M,M,M,M,M,M,M,KESF 012140Z AUTO 16010KT 10SM CLR A2995 RMK WND 11V18  MADISHF
ESF,2017-04-01 21:45,-92.2958,31.3949,M,M,M,170.00,10.00,M,29.95,M,10.00,16.00,CLR,M,M,M,M,M,M,M,M,KESF 012145Z AUTO 17010G16KT 10SM CLR A2995 RMK MADISHF
ESF,2017-04-01 21:50,-92.2958,31.3949,M,M,M,140.00,8.00,M,29.95,M,10.00,M,CLR,M,M,M,M,M,M,M,M,KESF 012150Z AUTO 14008KT 10SM CLR A2995 RMK MADISHF
ESF,2017-04-01 21:53,-92.2958,31.3949,84.90,57.00,38.69,140.00,11.00,0.00,29.95,1014.10,10.00,17.00,CLR,M,M,M,M,M,M,M,M,KESF 012153Z AUTO 14011G17KT 10SM CLR 29/14 A2995 RMK AO2 SLP141 T02940139
ESF,2017-04-01 21:55,-92.2958,31.3949,M,M,M,130.00,12.00,M,29.95,M,10.00,M,CLR,M,M,M,M,M,M,M,M,KESF 012155Z AUTO 13012KT 10SM CLR A2995 RMK MADISHF
ESF,2017-04-01 22:00,-92.2958,31.3949,M,M,M,150.00,8.00,M,29.95,M,10.00,M,CLR,M,M,M,M,M,M,M,M,KESF 012200Z AUTO 15008KT 10SM CLR A2995 RMK MADISHF
ESF,2017-04-01 22:05,-92.2958,31.3949,M,M,M,140.00,11.00,M,29.95,M,10.00,M,CLR,M,M,M,M,M,M,M,M,KESF 012205Z AUTO 14011KT 10SM CLR A2995 RMK MADISHF
ESF,2017-04-01 22:10,-92.2958,31.3949,M,M,M,140.00,9.00,M,29.95,M,10.00,M,CLR,M,M,M,M,M,M,M,M,KESF 012210Z AUTO 14009KT 10SM CLR A2995 RMK MADISHF
ESF,2017-04-01 22:15,-92.2958,31.3949,M,M,M,140.00,8.00,M,29.95,M,10.00,M,CLR,M,M,M,M,M,M,M,M,KESF 012215Z AUTO 14008KT 10SM CLR A2995 RMK MADISHF
ESF,2017-04-01 22:20,-92.2958,31.3949,M,M,M,150.00,7.00,M,29.95,M,10.00,M,CLR,M,M,M,M,M,M,M,M,KESF 012220Z AUTO 15007KT 10SM CLR A2995 RMK MADISHF
ESF,2017-04-01 22:25,-92.2958,31.3949,M,M,M,120.00,8.00,M,29.94,M,10.00,M,CLR,M,M,M,M,M,M,M,M,KESF 012225Z AUTO 12008KT 10SM CLR A2994 RMK MADISHF
ESF,2017-04-01 22:30,-92.2958,31.3949,M,M,M,150.00,10.00,M,29.94,M,10.00,M,CLR,M,M,M,M,M,M,M,M,KESF 012230Z AUTO 15010KT 10SM CLR A2994 RMK MADISHF
ESF,2017-04-01 22:35,-92.2958,31.3949,M,M,M,130.00,8.00,M,29.94,M,10.00,M,CLR,M,M,M,M,M,M,M,M,KESF 012235Z AUTO 13008KT 10SM CLR A2994 RMK MADISHF
ESF,2017-04-01 22:40,-92.2958,31.3949,M,M,M,150.00,8.00,M,29.94,M,10.00,M,CLR,M,M,M,M,M,M,M,M,KESF 012240Z AUTO 15008KT 10SM CLR A2994 RMK MADISHF
ESF,2017-04-01 22:45,-92.2958,31.3949,M,M,M,150.00,8.00,M,29.94,M,10.00,M,CLR,M,M,M,M,M,M,M,M,KESF 012245Z AUTO 15008KT 10SM CLR A2994 RMK MADISHF
ESF,2017-04-01 22:50,-92.2958,31.3949,M,M,M,130.00,10.00,M,29.94,M,10.00,M,CLR,M,M,M,M,M,M,M,M,KESF 012250Z AUTO 13010KT 10SM CLR A2994 RMK MADISHF
ESF,2017-04-01 22:53,-92.2958,31.3949,82.90,55.90,39.66,130.00,8.00,0.00,29.94,1013.80,10.00,M,CLR,M,M,M,M,M,M,M,M,KESF 012253Z AUTO 13008KT 10SM CLR 28/13 A2994 RMK AO2 SLP138 T02830133
ESF,2017-04-01 22:55,-92.2958,31.3949,M,M,M,140.00,8.00,M,29.94,M,10.00,M,CLR,M,M,M,M,M,M,M,M,KESF 012255Z AUTO 14008KT 10SM CLR A2994 RMK MADISHF
ESF,2017-04-01 23:00,-92.2958,31.3949,M,M,M,150.00,9.00,M,29.94,M,10.00,M,CLR,M,M,M,M,M,M,M,M,KESF 012300Z AUTO 15009KT 10SM CLR A2994 RMK MADISHF
ESF,2017-04-01 23:05,-92.2958,31.3949,M,M,M,150.00,9.00,M,29.94,M,10.00,M,CLR,M,M,M,M,M,M,M,M,KESF 012305Z AUTO 15009KT 10SM CLR A2994 RMK MADISHF
ESF,2017-04-01 23:10,-92.2958,31.3949,M,M,M,130.00,8.00,M,29.94,M,10.00,M,CLR,M,M,M,M,M,M,M,M,KESF 012310Z AUTO 13008KT 10SM CLR A2994 RMK MADISHF
ESF,2017-04-01 23:15,-92.2958,31.3949,M,M,M,140.00,8.00,M,29.94,M,10.00,M,CLR,M,M,M,M,M,M,M,M,KESF 012315Z AUTO 14008KT 10SM CLR A2994 RMK MADISHF
ESF,2017-04-01 23:20,-92.2958,31.3949,M,M,M,160.00,6.00,M,29.94,M,10.00,M,CLR,M,M,M,M,M,M,M,M,KESF 012320Z AUTO 16006KT 10SM CLR A2994 RMK MADISHF
ESF,2017-04-01 23:25,-92.2958,31.3949,M,M,M,160.00,9.00,M,29.94,M,10.00,M,CLR,M,M,M,M,M,M,M,M,KESF 012325Z AUTO 16009KT 10SM CLR A2994 RMK MADISHF
ESF,2017-04-01 23:30,-92.2958,31.3949,M,M,M,140.00,8.00,M,29.94,M,10.00,M,CLR,M,M,M,M,M,M,M,M,KESF 012330Z AUTO 14008KT 10SM CLR A2994 RMK MADISHF
ESF,2017-04-01 23:35,-92.2958,31.3949,M,M,M,140.00,8.00,M,29.94,M,10.00,M,CLR,M,M,M,M,M,M,M,M,KESF 012335Z AUTO 14008KT 10SM CLR A2994 RMK MADISHF
ESF,2017-04-01 23:40,-92.2958,31.3949,M,M,M,150.00,7.00,M,29.94,M,10.00,M,CLR,M,M,M,M,M,M,M,M,KESF 012340Z AUTO 15007KT 10SM CLR A2994 RMK MADISHF
ESF,2017-04-01 23:45,-92.2958,31.3949,M,M,M,140.00,8.00,M,29.95,M,10.00,M,CLR,M,M,M,M,M,M,M,M,KESF 012345Z AUTO 14008KT 10SM CLR A2995 RMK MADISHF
ESF,2017-04-01 23:50,-92.2958,31.3949,M,M,M,140.00,7.00,M,29.95,M,10.00,M,CLR,M,M,M,M,M,M,M,M,KESF 012350Z AUTO 14007KT 10SM CLR A2995 RMK MADISHF
ESF,2017-04-01 23:53,-92.2958,31.3949,79.00,55.00,43.59,140.00,7.00,0.00,29.95,1014.00,10.00,M,CLR,M,M,M,M,M,M,M,M,KESF 012353Z AUTO 14007KT 10SM CLR 26/13 A2995 RMK AO2 SLP140 T02610128 10300 20261 55001
ESF,2017-04-01 23:55,-92.2958,31.3949,M,M,M,130.00,6.00,M,29.95,M,10.00,M,CLR,M,M,M,M,M,M,M,M,KESF 012355Z AUTO 13006KT 10SM CLR A2995 RMK MADISHF
