#DEBUG: Format Typ    -> comma
#DEBUG: Time Period   -> 2017-04-01 00:00:00+00:00 2017-04-02 00:00:00+00:00
#DEBUG: Time Zone     -> Etc/UTC
#DEBUG: Data Contact   -> daryl herzmann akrherz@iastate.edu 515-294-5978
#DEBUG: Entries Found -> -1
station,valid,lon,lat,tmpf, dwpf, relh, drct, sknt, p01i, alti, mslp, vsby, gust, skyc1, skyc2, skyc3, skyc4, skyl1, skyl2, skyl3, skyl4, presentwx, metar
EST,2017-04-01 00:00,-94.7476,43.4008,M,M,M,60.00,7.00,M,30.04,M,10.00,M,OVC,M,M,M,2400.00,M,M,M,M,KEST 010000Z AUTO 06007KT 10SM OVC024 A3004 RMK MADISHF
EST,2017-04-01 00:05,-94.7476,43.4008,M,M,M,50.00,6.00,M,30.05,M,10.00,M,OVC,M,M,M,2400.00,M,M,M,M,KEST 010005Z AUTO 05006KT 10SM OVC024 A3005 RMK MADISHF
EST,2017-04-01 00:10,-94.7476,43.4008,M,M,M,60.00,6.00,M,30.05,M,10.00,M,OVC,M,M,M,2600.00,M,M,M,M,KEST 010010Z AUTO 06006KT 10SM OVC026 A3005 RMK MADISHF
EST,2017-04-01 00:15,-94.7476,43.4008,M,M,M,60.00,5.00,M,30.05,M,10.00,M,OVC,M,M,M,2600.00,M,M,M,M,KEST 010015Z AUTO 06005KT 10SM OVC026 A3005 RMK MADISHF
EST,2017-04-01 00:20,-94.7476,43.4008,M,M,M,60.00,6.00,M,30.05,M,10.00,M,OVC,M,M,M,2600.00,M,M,M,M,KEST 010020Z AUTO 06006KT 10SM OVC026 A3005 RMK MADISHF
EST,2017-04-01 00:25,-94.7476,43.4008,M,M,M,60.00,7.00,M,30.05,M,10.00,M,OVC,M,M,M,2600.00,M,M,M,M,KEST 010025Z AUTO 06007KT 10SM OVC026 A3005 RMK MADISHF
EST,2017-04-01 00:30,-94.7476,43.4008,M,M,M,50.00,6.00,M,30.05,M,10.00,M,OVC,M,M,M,2600.00,M,M,M,M,KEST 010030Z AUTO 05006KT 10SM OVC026 A3005 RMK MADISHF
EST,2017-04-01 00:35,-94.7476,43.4008,M,M,M,60.00,5.00,M,30.05,M,10.00,M,BKN,M,M,M,2600.00,M,M,M,M,KEST 010035Z AUTO 06005KT 10SM BKN026 A3005 RMK MADISHF
EST,2017-04-01 00:40,-94.7476,43.4008,M,M,M,60.00,5.00,M,30.05,M,10.00,M,BKN,M,M,M,2600.00,M,M,M,M,KEST 010040Z AUTO 06005KT 10SM BKN026 A3005 RMK MADISHF
EST,2017-04-01 00:45,-94.7476,43.4008,M,M,M,70.00,5.00,M,30.05,M,10.00,M,SCT,M,M,M,2600.00,M,M,M,M,KEST 010045Z AUTO 07005KT 10SM SCT026 A3005 RMK MADISHF
EST,2017-04-01 00:48,-94.7476,43.4008,41.00,37.40,86.89,70.00,4.00,0.00,30.06,M,10.00,M,SCT,M,M,M,2600.00,M,M,M,M,KEST 010048Z AUTO 07004KT 10SM SCT026 05/03 A3006 RMK AO2
EST,2017-04-01 00:50,-94.7476,43.4008,M,M,M,70.00,4.00,M,30.06,M,10.00,M,FEW,M,M,M,2600.00,M,M,M,M,KEST 010050Z AUTO 07004KT 10SM FEW026 A3006 RMK MADISHF
EST,2017-04-01 00:52,-94.7476,43.4008,41.00,37.90,88.62,80.00,4.00,0.00,30.06,1018.80,10.00,M,FEW,M,M,M,2600.00,M,M,M,M,KEST 010052Z AUTO 08004KT 10SM FEW026 05/03 A3006 RMK AO2 SLP188 T00500033
EST,2017-04-01 00:55,-94.7476,43.4008,M,M,M,90.00,4.00,M,30.06,M,10.00,M,FEW,M,M,M,2600.00,M,M,M,M,KEST 010055Z AUTO 09004KT 10SM FEW026 A3006 RMK MADISHF
EST,2017-04-01 01:00,-94.7476,43.4008,M,M,M,120.00,3.00,M,30.06,M,10.00,M,CLR,M,M,M,M,M,M,M,M,KEST 010100Z AUTO 12003KT 10SM CLR A3006 RMK MADISHF
EST,2017-04-01 01:15,-94.7476,43.4008,M,M,M,160.00,4.00,M,30.07,M,10.00,M,CLR,M,M,M,M,M,M,M,M,KEST 010115Z AUTO 16004KT 10SM CLR A3007 RMK MADISHF
EST,2017-04-01 01:20,-94.7476,43.4008,M,M,M,160.00,4.00,M,30.08,M,10.00,M,CLR,M,M,M,M,M,M,M,M,KEST 010120Z AUTO 16004KT 10SM CLR A3008 RMK MADISHF
EST,2017-04-01 01:25,-94.7476,43.4008,M,M,M,170.00,4.00,M,30.08,M,10.00,M,CLR,M,M,M,M,M,M,M,M,KEST 010125Z AUTO 17004KT 10SM CLR A3008 RMK MADISHF
EST,2017-04-01 01:30,-94.7476,43.4008,M,M,M,170.00,4.00,M,30.08,M,10.00,M,CLR,M,M,M,M,M,M,M,M,KEST 010130Z AUTO 17004KT 10SM CLR A3008 RMK MADISHF
EST,2017-04-01 01:35,-94.7476,43.4008,M,M,M,190.00,5.00,M,30.09,M,10.00,M,CLR,M,M,M,M,M,M,M,M,KEST 010135Z AUTO 19005KT 10SM CLR A3009 RMK MADISHF
EST,2017-04-01 01:40,-94.7476,43.4008,M,M,M,190.00,5.00,M,30.09,M,10.00,M,CLR,M,M,M,M,M,M,M,M,KEST 010140Z AUTO 19005KT 10SM CLR A3009 RMK MADISHF
EST,2017-04-01 01:45,-94.7476,43.4008,M,M,M,190.00,6.00,M,30.09,M,10.00,M,CLR,M,M,M,M,M,M,M,M,KEST 010145Z AUTO 19006KT 10SM CLR A3009 RMK MADISHF
EST,2017-04-01 01:50,-94.7476,43.4008,M,M,M,200.00,7.00,M,30.09,M,10.00,M,CLR,M,M,M,M,M,M,M,M,KEST 010150Z AUTO 20007KT 10SM CLR A3009 RMK MADISHF
EST,2017-04-01 01:52,-94.7476,43.4008,37.90,36.00,92.78,200.00,7.00,0.00,30.10,1020.20,10.00,M,CLR,M,M,M,M,M,M,M,M,KEST 010152Z AUTO 20007KT 10SM CLR 03/02 A3010 RMK AO2 SLP202 T00330022
EST,2017-04-01 01:55,-94.7476,43.4008,M,M,M,200.00,7.00,M,30.10,M,10.00,M,CLR,M,M,M,M,M,M,M,M,KEST 010155Z AUTO 20007KT 10SM CLR A3010 RMK MADISHF
EST,2017-04-01 02:00,-94.7476,43.4008,M,M,M,200.00,8.00,M,30.10,M,10.00,M,CLR,M,M,M,M,M,M,M,M,KEST 010200Z AUTO 20008KT 10SM CLR A3010 RMK MADISHF
EST,2017-04-01 02:05,-94.7476,43.4008,M,M,M,210.00,8.00,M,30.11,M,10.00,M,CLR,M,M,M,M,M,M,M,M,KEST 010205Z AUTO 21008KT 10SM CLR A3011 RMK MADISHF
EST,2017-04-01 02:10,-94.7476,43.4008,M,M,M,200.00,7.00,M,30.10,M,10.00,M,CLR,M,M,M,M,M,M,M,M,KEST 010210Z AUTO 20007KT 10SM CLR A3010 RMK MADISHF
EST,2017-04-01 02:15,-94.7476,43.4008,M,M,M,200.00,5.00,M,30.10,M,10.00,M,CLR,M,M,M,M,M,M,M,M,KEST 010215Z AUTO 20005KT 10SM CLR A3010 RMK MADISHF
EST,2017-04-01 02:20,-94.7476,43.4008,M,M,M,210.00,4.00,M,30.10,M,10.00,M,CLR,M,M,M,M,M,M,M,M,KEST 010220Z AUTO 21004KT 10SM CLR A3010 RMK MADISHF
EST,2017-04-01 02:25,-94.7476,43.4008,M,M,M,190.00,3.00,M,30.10,M,10.00,M,CLR,M,M,M,M,M,M,M,M,KEST 010225Z AUTO 19003KT 10SM CLR A3010 RMK MADISHF
EST,2017-04-01 02:30,-94.7476,43.4008,M,M,M,180.00,3.00,M,30.10,M,10.00,M,CLR,M,M,M,M,M,M,M,M,KEST 010230Z AUTO 18003KT 10SM CLR A3010 RMK MADISHF
EST,2017-04-01 02:35,-94.7476,43.4008,M,M,M,180.00,3.00,M,30.10,M,10.00,M,CLR,M,M,M,M,M,M,M,M,KEST 010235Z AUTO 18003KT 10SM CLR A3010 RMK MADISHF
EST,2017-04-01 02:52,-94.7476,43.4008,36.00,35.10,96.49,240.00,5.00,0.00,30.11,1020.80,10.00,M,CLR,M,M,M,M,M,M,M,M,KEST 010252Z AUTO 24005KT 10SM CLR 02/02 A3011 RMK AO2 SLP208 T00220017 53019
EST,2017-04-01 02:55,-94.7476,43.4008,M,M,M,230.00,6.00,M,30.12,M,10.00,M,CLR,M,M,M,M,M,M,M,M,KEST 010255Z AUTO 23006KT 10SM CLR A3012 RMK MADISHF
EST,2017-04-01 03:00,-94.7476,43.4008,M,M,M,230.00,6.00,M,30.12,M,10.00,M,CLR,M,M,M,M,M,M,M,M,KEST 010300Z AUTO 23006KT 10SM CLR A3012 RMK MADISHF
EST,2017-04-01 03:05,-94.7476,43.4008,M,M,M,240.00,7.00,M,30.12,M,10.00,M,CLR,M,M,M,M,M,M,M,M,KEST 010305Z AUTO 24007KT 10SM CLR A3012 RMK MADISHF
EST,2017-04-01 03:10,-94.7476,43.4008,M,M,M,240.00,7.00,M,30.12,M,9.00,M,CLR,M,M,M,M,M,M,M,M,KEST 010310Z AUTO 24007KT 9SM CLR A3012 RMK MADISHF
EST,2017-04-01 03:15,-94.7476,43.4008,M,M,M,250.00,6.00,M,30.12,M,9.00,M,CLR,M,M,M,M,M,M,M,M,KEST 010315Z AUTO 25006KT 9SM CLR A3012 RMK MADISHF
EST,2017-04-01 03:20,-94.7476,43.4008,M,M,M,240.00,7.00,M,30.12,M,9.00,M,CLR,M,M,M,M,M,M,M,M,KEST 010320Z AUTO 24007KT 9SM CLR A3012 RMK MADISHF
EST,2017-04-01 03:35,-94.7476,43.4008,M,M,M,240.00,7.00,M,30.13,M,8.00,M,CLR,M,M,M,M,M,M,M,M,KEST 010335Z AUTO 24007KT 8SM CLR A3013 RMK MADISHF
EST,2017-04-01 03:40,-94.7476,43.4008,M,M,M,240.00,7.00,M,30.13,M,8.00,M,CLR,M,M,M,M,M,M,M,M,KEST 010340Z AUTO 24007KT 8SM CLR A3013 RMK MADISHF
EST,2017-04-01 03:45,-94.7476,43.4008,M,M,M,240.00,6.00,M,30.13,M,9.00,M,CLR,M,M,M,M,M,M,M,M,KEST 010345Z AUTO 24006KT 9SM CLR A3013 RMK MADISHF
EST,2017-04-01 03:50,-94.7476,43.4008,M,M,M,240.00,5.00,M,30.12,M,9.00,M,CLR,M,M,M,M,M,M,M,M,KEST 010350Z AUTO 24005KT 9SM CLR A3012 RMK MADISHF
EST,2017-04-01 03:52,-94.7476,43.4008,34.00,34.00,100.00,240.00,5.00,0.00,30.12,1021.00,9.00,M,CLR,M,M,M,M,M,M,M,M,KEST 010352Z AUTO 24005KT 9SM CLR 01/01 A3012 RMK AO2 SLP210 T00110011
EST,2017-04-01 03:55,-94.7476,43.4008,M,M,M,240.00,4.00,M,30.12,M,9.00,M,CLR,M,M,M,M,M,M,M,M,KEST 010355Z AUTO 24004KT 9SM CLR A3012 RMK MADISHF
EST,2017-04-01 04:00,-94.7476,43.4008,M,M,M,240.00,4.00,M,30.12,M,9.00,M,CLR,M,M,M,M,M,M,M,M,KEST 010400Z AUTO 24004KT 9SM CLR A3012 RMK MADISHF
EST,2017-04-01 04:05,-94.7476,43.4008,M,M,M,240.00,5.00,M,30.12,M,9.00,M,CLR,M,M,M,M,M,M,M,M,KEST 010405Z AUTO 24005KT 9SM CLR A3012 RMK MADISHF
EST,2017-04-01 04:25,-94.7476,43.4008,M,M,M,250.00,7.00,M,30.13,M,9.00,M,CLR,M,M,M,M,M,M,M,M,KEST 010425Z AUTO 25007KT 9SM CLR A3013 RMK MADISHF
EST,2017-04-01 04:30,-94.7476,43.4008,M,M,M,250.00,7.00,M,30.13,M,9.00,M,CLR,M,M,M,M,M,M,M,M,KEST 010430Z AUTO 25007KT 9SM CLR A3013 RMK MADISHF
EST,2017-04-01 04:35,-94.7476,43.4008,M,M,M,260.00,6.00,M,30.14,M,9.00,M,CLR,M,M,M,M,M,M,M,M,KEST 010435Z AUTO 26006KT 9SM CLR A3014 RMK MADISHF
EST,2017-04-01 04:40,-94.7476,43.4008,M,M,M,260.00,5.00,M,30.14,M,10.00,M,CLR,M,M,M,M,M,M,M,M,KEST 010440Z AUTO 26005KT 10SM CLR A3014 RMK MADISHF
EST,2017-04-01 04:50,-94.7476,43.4008,M,M,M,260.00,5.00,M,30.14,M,9.00,M,CLR,M,M,M,M,M,M,M,M,KEST 010450Z AUTO 26005KT 9SM CLR A3014 RMK MADISHF
EST,2017-04-01 04:52,-94.7476,43.4008,34.00,34.00,100.00,260.00,4.00,0.00,30.14,1021.70,9.00,M,CLR,M,M,M,M,M,M,M,M,KEST 010452Z AUTO 26004KT 9SM CLR 01/01 A3014 RMK AO2 SLP217 T00110011
EST,2017-04-01 04:55,-94.7476,43.4008,M,M,M,270.00,5.00,M,30.14,M,9.00,M,CLR,M,M,M,M,M,M,M,M,KEST 010455Z AUTO 27005KT 9SM CLR A3014 RMK MADISHF
EST,2017-04-01 05:00,-94.7476,43.4008,M,M,M,270.00,4.00,M,30.14,M,8.00,M,CLR,M,M,M,M,M,M,M,M,KEST 010500Z AUTO 27004KT 8SM CLR A3014 RMK MADISHF
EST,2017-04-01 05:05,-94.7476,43.4008,M,M,M,270.00,5.00,M,30.14,M,8.00,M,CLR,M,M,M,M,M,M,M,M,KEST 010505Z AUTO 27005KT 8SM CLR A3014 RMK MADISHF
EST,2017-04-01 05:10,-94.7476,43.4008,M,M,M,280.00,5.00,M,30.14,M,8.00,M,CLR,M,M,M,M,M,M,M,M,KEST 010510Z AUTO 28005KT 8SM CLR A3014 RMK MADISHF
EST,2017-04-01 05:15,-94.7476,43.4008,M,M,M,290.00,5.00,M,30.14,M,8.00,M,CLR,M,M,M,M,M,M,M,M,KEST 010515Z AUTO 29005KT 8SM CLR A3014 RMK MADISHF
EST,2017-04-01 05:25,-94.7476,43.4008,M,M,M,290.00,6.00,M,30.15,M,8.00,M,CLR,M,M,M,M,M,M,M,M,KEST 010525Z AUTO 29006KT 8SM CLR A3015 RMK MADISHF
EST,2017-04-01 05:30,-94.7476,43.4008,M,M,M,290.00,7.00,M,30.15,M,8.00,M,CLR,M,M,M,M,M,M,M,M,KEST 010530Z AUTO 29007KT 8SM CLR A3015 RMK MADISHF
EST,2017-04-01 05:35,-94.7476,43.4008,M,M,M,290.00,6.00,M,30.15,M,7.00,M,CLR,M,M,M,M,M,M,M,M,KEST 010535Z AUTO 29006KT 7SM CLR A3015 RMK MADISHF
EST,2017-04-01 05:40,-94.7476,43.4008,M,M,M,290.00,5.00,M,30.15,M,8.00,M,CLR,M,M,M,M,M,M,M,M,KEST 010540Z AUTO 29005KT 8SM CLR A3015 RMK MADISHF
EST,2017-04-01 05:45,-94.7476,43.4008,M,M,M,290.00,5.00,M,30.15,M,8.00,M,CLR,M,M,M,M,M,M,M,M,KEST 010545Z AUTO 29005KT 8SM CLR A3015 RMK MADISHF
EST,2017-04-01 05:50,-94.7476,43.4008,M,M,M,290.00,7.00,M,30.15,M,8.00,M,CLR,M,M,M,M,M,M,M,M,KEST 010550Z AUTO 29007KT 8SM CLR A3015 RMK MADISHF
EST,2017-04-01 05:52,-94.7476,43.4008,34.00,34.00,100.00,290.00,7.00,0.00,30.15,1021.90,8.00,M,CLR,M,M,M,M,M,M,M,M,KEST 010552Z AUTO 29007KT 8SM CLR 01/01 A3015 RMK AO2 SLP219 T00110011 10067 20006 400830006 53012
EST,2017-04-01 05:55,-94.7476,43.4008,M,M,M,290.00,7.00,M,30.15,M,8.00,M,CLR,M,M,M,M,M,M,M,M,KEST 010555Z AUTO 29007KT 8SM CLR A3015 RMK MADISHF
EST,2017-04-01 06:00,-94.7476,43.4008,M,M,M,290.00,6.00,M,30.15,M,8.00,M,CLR,M,M,M,M,M,M,M,M,KEST 010600Z AUTO 29006KT 8SM CLR A3015 RMK MADISHF
EST,2017-04-01 06:05,-94.7476,43.4008,M,M,M,280.00,5.00,M,30.15,M,8.00,M,CLR,M,M,M,M,M,M,M,M,KEST 010605Z AUTO 28005KT 8SM CLR A3015 RMK MADISHF
EST,2017-04-01 06:10,-94.7476,43.4008,M,M,M,290.00,5.00,M,30.15,M,7.00,M,CLR,M,M,M,M,M,M,M,M,KEST 010610Z AUTO 29005KT 7SM CLR A3015 RMK MADISHF
EST,2017-04-01 06:15,-94.7476,43.4008,M,M,M,290.00,6.00,M,30.15,M,7.00,M,CLR,M,M,M,M,M,M,M,M,KEST 010615Z AUTO 29006KT 7SM CLR A3015 RMK MADISHF
EST,2017-04-01 06:20,-94.7476,43.4008,M,M,M,290.00,7.00,M,30.15,M,8.00,M,CLR,M,M,M,M,M,M,M,M,KEST 010620Z AUTO 29007KT 8SM CLR A3015 RMK MADISHF
EST,2017-04-01 06:25,-94.7476,43.4008,M,M,M,290.00,6.00,M,30.15,M,8.00,M,CLR,M,M,M,M,M,M,M,M,KEST 010625Z AUTO 29006KT 8SM CLR A3015 RMK MADISHF
EST,2017-04-01 06:30,-94.7476,43.4008,M,M,M,290.00,6.00,M,30.15,M,8.00,M,CLR,M,M,M,M,M,M,M,M,KEST 010630Z AUTO 29006KT 8SM CLR A3015 RMK MADISHF
EST,2017-04-01 06:35,-94.7476,43.4008,M,M,M,280.00,7.00,M,30.16,M,8.00,M,CLR,M,M,M,M,M,M,M,M,KEST 010635Z AUTO 28007KT 8SM CLR A3016 RMK MADISHF
EST,2017-04-01 06:40,-94.7476,43.4008,M,M,M,280.00,7.00,M,30.16,M,8.00,M,CLR,M,M,M,M,M,M,M,M,KEST 010640Z AUTO 28007KT 8SM CLR A3016 RMK MADISHF
EST,2017-04-01 06:45,-94.7476,43.4008,M,M,M,280.00,6.00,M,30.16,M,8.00,M,CLR,M,M,M,M,M,M,M,M,KEST 010645Z AUTO 28006KT 8SM CLR A3016 RMK MADISHF
EST,2017-04-01 06:50,-94.7476,43.4008,M,M,M,280.00,7.00,M,30.16,M,8.00,M,CLR,M,M,M,M,M,M,M,M,KEST 010650Z AUTO 28007KT 8SM CLR A3016 RMK MADISHF
EST,2017-04-01 06:52,-94.7476,43.4008,34.00,34.00,100.00,280.00,7.00,0.00,30.16,1022.50,8.00,M,CLR,M,M,M,M,M,M,M,M,KEST 010652Z AUTO 28007KT 8SM CLR 01/01 A3016 RMK AO2 SLP225 T00110011
EST,2017-04-01 07:15,-94.7476,43.4008,M,M,M,260.00,6.00,M,30.17,M,8.00,M,CLR,M,M,M,M,M,M,M,M,KEST 010715Z AUTO 26006KT 8SM CLR A3017 RMK MADISHF
EST,2017-04-01 07:20,-94.7476,43.4008,M,M,M,270.00,6.00,M,30.16,M,8.00,M,CLR,M,M,M,M,M,M,M,M,KEST 010720Z AUTO 27006KT 8SM CLR A3016 RMK MADISHF
EST,2017-04-01 07:25,-94.7476,43.4008,M,M,M,270.00,5.00,M,30.17,M,8.00,M,CLR,M,M,M,M,M,M,M,M,KEST 010725Z AUTO 27005KT 8SM CLR A3017 RMK MADISHF
EST,2017-04-01 07:30,-94.7476,43.4008,M,M,M,270.00,6.00,M,30.17,M,8.00,M,CLR,M,M,M,M,M,M,M,M,KEST 010730Z AUTO 27006KT 8SM CLR A3017 RMK MADISHF
EST,2017-04-01 07:35,-94.7476,43.4008,M,M,M,270.00,6.00,M,30.17,M,8.00,M,CLR,M,M,M,M,M,M,M,M,KEST 010735Z AUTO 27006KT 8SM CLR A3017 RMK MADISHF
EST,2017-04-01 07:40,-94.7476,43.4008,M,M,M,270.00,5.00,M,30.17,M,8.00,M,CLR,M,M,M,M,M,M,M,M,KEST 010740Z AUTO 27005KT 8SM CLR A3017 RMK MADISHF
EST,2017-04-01 07:45,-94.7476,43.4008,M,M,M,270.00,5.00,M,30.17,M,8.00,M,CLR,M,M,M,M,M,M,M,M,KEST 010745Z AUTO 27005KT 8SM CLR A3017 RMK MADISHF
EST,2017-04-01 07:52,-94.7476,43.4008,34.00,34.00,100.00,270.00,5.00,0.00,30.17,1022.70,7.00,M,CLR,M,M,M,M,M,M,M,M,KEST 010752Z AUTO 27005KT 7SM CLR 01/01 A3017 RMK AO2 SLP227 T00110011
EST,2017-04-01 07:55,-94.7476,43.4008,M,M,M,280.00,5.00,M,30.17,M,7.00,M,CLR,M,M,M,M,M,M,M,M,KEST 010755Z AUTO 28005KT 7SM CLR A3017 RMK MADISHF
EST,2017-04-01 08:00,-94.7476,43.4008,M,M,M,260.00,5.00,M,30.17,M,7.00,M,CLR,M,M,M,M,M,M,M,M,KEST 010800Z AUTO 26005KT 7SM CLR A3017 RMK MADISHF
EST,2017-04-01 08:05,-94.7476,43.4008,M,M,M,260.00,4.00,M,30.17,M,7.00,M,CLR,M,M,M,M,M,M,M,M,KEST 010805Z AUTO 26004KT 7SM CLR A3017 RMK MADISHF
EST,2017-04-01 08:10,-94.7476,43.4008,M,M,M,270.00,3.00,M,30.17,M,7.00,M,CLR,M,M,M,M,M,M,M,M,KEST 010810Z AUTO 27003KT 7SM CLR A3017 RMK MADISHF
EST,2017-04-01 08:15,-94.7476,43.4008,M,M,M,280.00,4.00,M,30.17,M,7.00,M,CLR,M,M,M,M,M,M,M,M,KEST 010815Z AUTO 28004KT 7SM CLR A3017 RMK MADISHF
EST,2017-04-01 08:25,-94.7476,43.4008,M,M,M,290.00,5.00,M,30.17,M,7.00,M,CLR,M,M,M,M,M,M,M,M,KEST 010825Z AUTO 29005KT 7SM CLR A3017 RMK MADISHF
EST,2017-04-01 08:30,-94.7476,43.4008,M,M,M,290.00,5.00,M,30.17,M,7.00,M,CLR,M,M,M,M,M,M,M,M,KEST 010830Z AUTO 29005KT 7SM CLR A3017 RMK MADISHF
EST,2017-04-01 08:35,-94.7476,43.4008,M,M,M,290.00,7.00,M,30.17,M,7.00,M,CLR,M,M,M,M,M,M,M,M,KEST 010835Z AUTO 29007KT 7SM CLR A3017 RMK MADISHF
EST,2017-04-01 08:40,-94.7476,43.4008,M,M,M,290.00,6.00,M,30.16,M,7.00,M,CLR,M,M,M,M,M,M,M,M,KEST 010840Z AUTO 29006KT 7SM CLR A3016 RMK MADISHF
EST,2017-04-01 08:45,-94.7476,43.4008,M,M,M,280.00,6.00,M,30.16,M,7.00,M,CLR,M,M,M,M,M,M,M,M,KEST 010845Z AUTO 28006KT 7SM CLR A3016 RMK MADISHF
EST,2017-04-01 08:50,-94.7476,43.4008,M,M,M,280.00,7.00,M,30.16,M,7.00,M,CLR,M,M,M,M,M,M,M,M,KEST 010850Z AUTO 28007KT 7SM CLR A3016 RMK MADISHF
EST,2017-04-01 08:52,-94.7476,43.4008,34.00,33.10,96.46,290.00,7.00,0.00,30.16,1022.60,7.00,M,CLR,M,M,M,M,M,M,M,M,KEST 010852Z AUTO 29007KT 7SM CLR 01/01 A3016 RMK AO2 SLP226 T00110006 50005
EST,2017-04-01 08:55,-94.7476,43.4008,M,M,M,290.00,7.00,M,30.17,M,7.00,M,CLR,M,M,M,M,M,M,M,M,KEST 010855Z AUTO 29007KT 7SM CLR A3017 RMK MADISHF
EST,2017-04-01 09:00,-94.7476,43.4008,M,M,M,290.00,7.00,M,30.17,M,7.00,M,CLR,M,M,M,M,M,M,M,M,KEST 010900Z AUTO 29007KT 7SM CLR A3017 RMK MADISHF
EST,2017-04-01 09:10,-94.7476,43.4008,M,M,M,300.00,7.00,M,30.17,M,7.00,M,CLR,M,M,M,M,M,M,M,M,KEST 010910Z AUTO 30007KT 7SM CLR A3017 RMK MADISHF
EST,2017-04-01 09:15,-94.7476,43.4008,M,M,M,310.00,7.00,M,30.17,M,7.00,M,CLR,M,M,M,M,M,M,M,M,KEST 010915Z AUTO 31007KT 7SM CLR A3017 RMK MADISHF
EST,2017-04-01 09:20,-94.7476,43.4008,M,M,M,320.00,8.00,M,30.17,M,6.00,M,CLR,M,M,M,M,M,M,M,BR,KEST 010920Z AUTO 32008KT 6SM BR CLR A3017 RMK MADISHF
EST,2017-04-01 09:25,-94.7476,43.4008,M,M,M,320.00,7.00,M,30.17,M,6.00,M,CLR,M,M,M,M,M,M,M,BR,KEST 010925Z AUTO 32007KT 6SM BR CLR A3017 RMK MADISHF
EST,2017-04-01 09:30,-94.7476,43.4008,M,M,M,310.00,8.00,M,30.17,M,7.00,M,CLR,M,M,M,M,M,M,M,M,KEST 010930Z AUTO 31008KT 7SM CLR A3017 RMK MADISHF
EST,2017-04-01 09:35,-94.7476,43.4008,M,M,M,310.00,9.00,M,30.17,M,8.00,M,CLR,M,M,M,M,M,M,M,M,KEST 010935Z AUTO 31009KT 8SM CLR A3017 RMK MADISHF
EST,2017-04-01 09:40,-94.7476,43.4008,M,M,M,300.00,9.00,M,30.18,M,8.00,M,CLR,M,M,M,M,M,M,M,M,KEST 010940Z AUTO 30009KT 8SM CLR A3018 RMK MADISHF
EST,2017-04-01 09:52,-94.7476,43.4008,35.10,34.00,95.71,300.00,8.00,0.00,30.18,1023.20,8.00,M,CLR,M,M,M,M,M,M,M,M,KEST 010952Z AUTO 30008KT 8SM CLR 02/01 A3018 RMK AO2 SLP232 T00170011
EST,2017-04-01 09:55,-94.7476,43.4008,M,M,M,290.00,9.00,M,30.19,M,8.00,M,CLR,M,M,M,M,M,M,M,M,KEST 010955Z AUTO 29009KT 8SM CLR A3019 RMK MADISHF
EST,2017-04-01 10:00,-94.7476,43.4008,M,M,M,290.00,9.00,M,30.19,M,8.00,M,CLR,M,M,M,M,M,M,M,M,KEST 011000Z AUTO 29009KT 8SM CLR A3019 RMK MADISHF
EST,2017-04-01 10:05,-94.7476,43.4008,M,M,M,280.00,8.00,M,30.20,M,7.00,M,CLR,M,M,M,M,M,M,M,M,KEST 011005Z AUTO 28008KT 7SM CLR A3020 RMK MADISHF
EST,2017-04-01 10:10,-94.7476,43.4008,M,M,M,280.00,7.00,M,30.19,M,7.00,M,CLR,M,M,M,M,M,M,M,M,KEST 011010Z AUTO 28007KT 7SM CLR A3019 RMK MADISHF
EST,2017-04-01 10:15,-94.7476,43.4008,M,M,M,290.00,6.00,M,30.19,M,7.00,M,CLR,M,M,M,M,M,M,M,M,KEST 011015Z AUTO 29006KT 7SM CLR A3019 RMK MADISHF
EST,2017-04-01 10:20,-94.7476,43.4008,M,M,M,290.00,7.00,M,30.19,M,6.00,M,CLR,M,M,M,M,M,M,M,BR,KEST 011020Z AUTO 29007KT 6SM BR CLR A3019 RMK MADISHF
EST,2017-04-01 10:25,-94.7476,43.4008,M,M,M,290.00,7.00,M,30.19,M,7.00,M,CLR,M,M,M,M,M,M,M,M,KEST 011025Z AUTO 29007KT 7SM CLR A3019 RMK MADISHF
EST,2017-04-01 10:30,-94.7476,43.4008,M,M,M,290.00,7.00,M,30.19,M,7.00,M,CLR,M,M,M,M,M,M,M,M,KEST 011030Z AUTO 29007KT 7SM CLR A3019 RMK MADISHF
EST,2017-04-01 10:35,-94.7476,43.4008,M,M,M,300.00,8.00,M,30.19,M,7.00,M,CLR,M,M,M,M,M,M,M,M,KEST 011035Z AUTO 30008KT 7SM CLR A3019 RMK MADISHF
EST,2017-04-01 10:50,-94.7476,43.4008,M,M,M,300.00,7.00,M,30.19,M,8.00,M,CLR,M,M,M,M,M,M,M,M,KEST 011050Z AUTO 30007KT 8SM CLR A3019 RMK MADISHF
EST,2017-04-01 10:52,-94.7476,43.4008,36.00,35.10,96.49,300.00,7.00,0.00,30.19,1023.40,8.00,M,CLR,M,M,M,M,M,M,M,M,KEST 011052Z AUTO 30007KT 8SM CLR 02/02 A3019 RMK AO2 SLP234 T00220017
EST,2017-04-01 10:55,-94.7476,43.4008,M,M,M,290.00,6.00,M,30.19,M,8.00,M,CLR,M,M,M,M,M,M,M,M,KEST 011055Z AUTO 29006KT 8SM CLR A3019 RMK MADISHF
EST,2017-04-01 11:00,-94.7476,43.4008,M,M,M,310.00,6.00,M,30.18,M,7.00,M,CLR,M,M,M,M,M,M,M,M,KEST 011100Z AUTO 31006KT 7SM CLR A3018 RMK MADISHF
EST,2017-04-01 11:05,-94.7476,43.4008,M,M,M,310.00,6.00,M,30.19,M,7.00,M,FEW,M,M,M,12000.00,M,M,M,M,KEST 011105Z AUTO 31006KT 7SM FEW120 A3019 RMK MADISHF
EST,2017-04-01 11:10,-94.7476,43.4008,M,M,M,310.00,4.00,M,30.19,M,7.00,M,FEW,M,M,M,12000.00,M,M,M,M,KEST 011110Z AUTO 31004KT 7SM FEW120 A3019 RMK MADISHF
EST,2017-04-01 11:15,-94.7476,43.4008,M,M,M,310.00,5.00,M,30.19,M,7.00,M,CLR,M,M,M,M,M,M,M,M,KEST 011115Z AUTO 31005KT 7SM CLR A3019 RMK MADISHF
EST,2017-04-01 11:20,-94.7476,43.4008,M,M,M,310.00,6.00,M,30.19,M,7.00,M,CLR,M,M,M,M,M,M,M,M,KEST 011120Z AUTO 31006KT 7SM CLR A3019 RMK MADISHF
EST,2017-04-01 11:25,-94.7476,43.4008,M,M,M,300.00,6.00,M,30.19,M,7.00,M,CLR,M,M,M,M,M,M,M,M,KEST 011125Z AUTO 30006KT 7SM CLR A3019 RMK MADISHF
EST,2017-04-01 11:35,-94.7476,43.4008,M,M,M,300.00,7.00,M,30.20,M,7.00,M,CLR,M,M,M,M,M,M,M,M,KEST 011135Z AUTO 30007KT 7SM CLR A3020 RMK MADISHF
EST,2017-04-01 11:40,-94.7476,43.4008,M,M,M,310.00,7.00,M,30.20,M,7.00,M,CLR,M,M,M,M,M,M,M,M,KEST 011140Z AUTO 31007KT 7SM CLR A3020 RMK MADISHF
EST,2017-04-01 11:45,-94.7476,43.4008,M,M,M,300.00,7.00,M,30.20,M,7.00,M,CLR,M,M,M,M,M,M,M,M,KEST 011145Z AUTO 30007KT 7SM CLR A3020 RMK MADISHF
EST,2017-04-01 11:50,-94.7476,43.4008,M,M,M,290.00,5.00,M,30.20,M,7.00,M,CLR,M,M,M,M,M,M,M,M,KEST 011150Z AUTO 29005KT 7SM CLR A3020 RMK MADISHF
EST,2017-04-01 11:52,-94.7476,43.4008,34.00,34.00,100.00,290.00,5.00,0.00,30.20,1023.80,7.00,M,CLR,M,M,M,M,M,M,M,M,KEST 011152Z AUTO 29005KT 7SM CLR 01/01 A3020 RMK AO2 SLP238 T00110011 10022 20006 51012
EST,2017-04-01 11:55,-94.7476,43.4008,M,M,M,290.00,6.00,M,30.20,M,6.00,M,CLR,M,M,M,M,M,M,M,BR,KEST 011155Z AUTO 29006KT 6SM BR CLR A3020 RMK MADISHF
EST,2017-04-01 12:00,-94.7476,43.4008,M,M,M,290.00,7.00,M,30.20,M,6.00,M,CLR,M,M,M,M,M,M,M,BR,KEST 011200Z AUTO 29007KT 6SM BR CLR A3020 RMK MADISHF
EST,2017-04-01 12:15,-94.7476,43.4008,M,M,M,270.00,6.00,M,30.21,M,5.00,M,CLR,M,M,M,M,M,M,M,BR,KEST 011215Z AUTO 27006KT 5SM BR CLR A3021 RMK MADISHF
EST,2017-04-01 12:25,-94.7476,43.4008,M,M,M,280.00,6.00,M,30.21,M,6.00,M,CLR,M,M,M,M,M,M,M,BR,KEST 011225Z AUTO 28006KT 6SM BR CLR A3021 RMK MADISHF
EST,2017-04-01 12:30,-94.7476,43.4008,M,M,M,290.00,6.00,M,30.21,M,6.00,M,CLR,M,M,M,M,M,M,M,BR,KEST 011230Z AUTO 29006KT 6SM BR CLR A3021 RMK MADISHF
EST,2017-04-01 12:35,-94.7476,43.4008,M,M,M,270.00,5.00,M,30.21,M,5.00,M,CLR,M,M,M,M,M,M,M,BR,KEST 011235Z AUTO 27005KT 5SM BR CLR A3021 RMK MADISHF
EST,2017-04-01 12:40,-94.7476,43.4008,M,M,M,260.00,4.00,M,30.21,M,5.00,M,CLR,M,M,M,M,M,M,M,BR,KEST 011240Z AUTO 26004KT 5SM BR CLR A3021 RMK MADISHF
EST,2017-04-01 12:45,-94.7476,43.4008,M,M,M,270.00,3.00,M,30.22,M,5.00,M,CLR,M,M,M,M,M,M,M,BR,KEST 011245Z AUTO 27003KT 5SM BR CLR A3022 RMK MADISHF
EST,2017-04-01 12:50,-94.7476,43.4008,M,M,M,270.00,5.00,M,30.22,M,5.00,M,CLR,M,M,M,M,M,M,M,BR,KEST 011250Z AUTO 27005KT 5SM BR CLR A3022 RMK MADISHF
EST,2017-04-01 12:52,-94.7476,43.4008,34.00,34.00,100.00,270.00,5.00,0.00,30.22,1024.50,5.00,M,CLR,M,M,M,M,M,M,M,BR,KEST 011252Z AUTO 27005KT 5SM BR CLR 01/01 A3022 RMK AO2 SLP245 T00110011
EST,2017-04-01 12:55,-94.7476,43.4008,M,M,M,270.00,6.00,M,30.22,M,6.00,M,CLR,M,M,M,M,M,M,M,BR,KEST 011255Z AUTO 27006KT 6SM BR CLR A3022 RMK MADISHF
EST,2017-04-01 13:05,-94.7476,43.4008,M,M,M,270.00,6.00,M,30.22,M,6.00,M,FEW,M,M,M,12000.00,M,M,M,BR,KEST 011305Z AUTO 27006KT 6SM BR FEW120 A3022 RMK MADISHF
EST,2017-04-01 13:10,-94.7476,43.4008,M,M,M,280.00,5.00,M,30.23,M,6.00,M,SCT,M,M,M,12000.00,M,M,M,BR,KEST 011310Z AUTO 28005KT 6SM BR SCT120 A3023 RMK MADISHF
EST,2017-04-01 13:15,-94.7476,43.4008,M,M,M,290.00,5.00,M,30.23,M,6.00,M,SCT,M,M,M,12000.00,M,M,M,BR,KEST 011315Z AUTO 29005KT 6SM BR SCT120 A3023 RMK MADISHF
EST,2017-04-01 13:20,-94.7476,43.4008,M,M,M,300.00,4.00,M,30.23,M,6.00,M,FEW,M,M,M,12000.00,M,M,M,BR,KEST 011320Z AUTO 30004KT 6SM BR FEW120 A3023 RMK MADISHF
EST,2017-04-01 13:30,-94.7476,43.4008,M,M,M,300.00,6.00,M,30.23,M,7.00,M,FEW,M,M,M,12000.00,M,M,M,M,KEST 011330Z AUTO 30006KT 7SM FEW120 A3023 RMK MADISHF
EST,2017-04-01 13:35,-94.7476,43.4008,M,M,M,310.00,5.00,M,30.23,M,7.00,M,FEW,M,M,M,12000.00,M,M,M,M,KEST 011335Z AUTO 31005KT 7SM FEW120 A3023 RMK MADISHF
EST,2017-04-01 13:40,-94.7476,43.4008,M,M,M,310.00,6.00,M,30.23,M,8.00,M,FEW,M,M,M,12000.00,M,M,M,M,KEST 011340Z AUTO 31006KT 8SM FEW120 A3023 RMK MADISHF
EST,2017-04-01 13:45,-94.7476,43.4008,M,M,M,300.00,7.00,M,30.23,M,8.00,M,SCT,M,M,M,12000.00,M,M,M,M,KEST 011345Z AUTO 30007KT 8SM SCT120 A3023 RMK MADISHF
EST,2017-04-01 13:50,-94.7476,43.4008,M,M,M,300.00,6.00,M,30.23,M,8.00,M,BKN,M,M,M,12000.00,M,M,M,M,KEST 011350Z AUTO 30006KT 8SM BKN120 A3023 RMK MADISHF
EST,2017-04-01 13:52,-94.7476,43.4008,39.90,37.90,92.48,310.00,7.00,0.00,30.23,1025.00,8.00,M,BKN,M,M,M,12000.00,M,M,M,M,KEST 011352Z AUTO 31007KT 8SM BKN120 04/03 A3023 RMK AO2 SLP250 T00440033
EST,2017-04-01 13:55,-94.7476,43.4008,M,M,M,320.00,6.00,M,30.23,M,8.00,M,BKN,M,M,M,12000.00,M,M,M,M,KEST 011355Z AUTO 32006KT 8SM BKN120 A3023 RMK MADISHF
EST,2017-04-01 14:00,-94.7476,43.4008,M,M,M,310.00,6.00,M,30.23,M,8.00,M,BKN,M,M,M,12000.00,M,M,M,M,KEST 011400Z AUTO 31006KT 8SM BKN120 A3023 RMK MADISHF
EST,2017-04-01 14:05,-94.7476,43.4008,M,M,M,310.00,6.00,M,30.23,M,8.00,M,BKN,M,M,M,12000.00,M,M,M,M,KEST 011405Z AUTO 31006KT 8SM BKN120 A3023 RMK MADISHF
EST,2017-04-01 14:10,-94.7476,43.4008,M,M,M,310.00,5.00,M,30.23,M,8.00,M,OVC,M,M,M,12000.00,M,M,M,M,KEST 011410Z AUTO 31005KT 8SM OVC120 A3023 RMK MADISHF
EST,2017-04-01 14:15,-94.7476,43.4008,M,M,M,310.00,7.00,M,30.24,M,8.00,M,OVC,M,M,M,12000.00,M,M,M,M,KEST 011415Z AUTO 31007KT 8SM OVC120 A3024 RMK MADISHF
EST,2017-04-01 14:20,-94.7476,43.4008,M,M,M,310.00,7.00,M,30.24,M,9.00,M,BKN,M,M,M,12000.00,M,M,M,M,KEST 011420Z AUTO 31007KT 9SM BKN120 A3024 RMK MADISHF
EST,2017-04-01 14:25,-94.7476,43.4008,M,M,M,300.00,5.00,M,30.24,M,9.00,M,BKN,M,M,M,12000.00,M,M,M,M,KEST 011425Z AUTO 30005KT 9SM BKN120 A3024 RMK MADISHF
EST,2017-04-01 14:30,-94.7476,43.4008,M,M,M,310.00,5.00,M,30.24,M,9.00,M,BKN,M,M,M,12000.00,M,M,M,M,KEST 011430Z AUTO 31005KT 9SM BKN120 A3024 RMK MADISHF
EST,2017-04-01 14:35,-94.7476,43.4008,M,M,M,300.00,6.00,M,30.24,M,9.00,M,BKN,M,M,M,12000.00,M,M,M,M,KEST 011435Z AUTO 30006KT 9SM BKN120 A3024 RMK MADISHF
EST,2017-04-01 14:40,-94.7476,43.4008,M,M,M,310.00,5.00,M,30.23,M,9.00,M,BKN,M,M,M,12000.00,M,M,M,M,KEST 011440Z AUTO 31005KT 9SM BKN120 A3023 RMK MADISHF
EST,2017-04-01 14:45,-94.7476,43.4008,M,M,M,320.00,6.00,M,30.23,M,10.00,M,BKN,M,M,M,12000.00,M,M,M,M,KEST 011445Z AUTO 32006KT 10SM BKN120 A3023 RMK MADISHF
EST,2017-04-01 14:50,-94.7476,43.4008,M,M,M,320.00,6.00,M,30.23,M,10.00,M,BKN,M,M,M,12000.00,M,M,M,M,KEST 011450Z AUTO 32006KT 10SM BKN120 A3023 RMK MADISHF
EST,2017-04-01 14:52,-94.7476,43.4008,44.10,41.00,88.77,320.00,5.00,0.00,30.23,1024.80,10.00,M,BKN,M,M,M,12000.00,M,M,M,M,KEST 011452Z AUTO 32005KT 10SM BKN120 07/05 A3023 RMK AO2 SLP248 T00670050 50011
EST,2017-04-01 14:55,-94.7476,43.4008,M,M,M,320.00,5.00,M,30.23,M,10.00,M,BKN,M,M,M,12000.00,M,M,M,M,KEST 011455Z AUTO 32005KT 10SM BKN120 A3023 RMK MADISHF
EST,2017-04-01 15:00,-94.7476,43.4008,M,M,M,320.00,5.00,M,30.23,M,10.00,M,OVC,M,M,M,12000.00,M,M,M,M,KEST 011500Z AUTO 32005KT 10SM OVC120 A3023 RMK MADISHF
EST,2017-04-01 15:05,-94.7476,43.4008,M,M,M,320.00,5.00,M,30.24,M,10.00,M,OVC,M,M,M,12000.00,M,M,M,M,KEST 011505Z AUTO 32005KT 10SM OVC120 A3024 RMK MADISHF
EST,2017-04-01 15:10,-94.7476,43.4008,M,M,M,320.00,5.00,M,30.23,M,10.00,M,OVC,M,M,M,12000.00,M,M,M,M,KEST 011510Z AUTO 32005KT 10SM OVC120 A3023 RMK MADISHF
EST,2017-04-01 15:20,-94.7476,43.4008,M,M,M,280.00,3.00,M,30.23,M,10.00,M,BKN,M,M,M,12000.00,M,M,M,M,KEST 011520Z AUTO 28003KT 10SM BKN120 A3023 RMK MADISHF
EST,2017-04-01 15:25,-94.7476,43.4008,M,M,M,250.00,3.00,M,30.23,M,10.00,M,OVC,M,M,M,12000.00,M,M,M,M,KEST 011525Z AUTO 25003KT 10SM OVC120 A3023 RMK MADISHF
EST,2017-04-01 15:30,-94.7476,43.4008,M,M,M,0.00,0.00,M,30.23,M,10.00,M,OVC,M,M,M,12000.00,M,M,M,M,KEST 011530Z AUTO 00000KT 10SM OVC120 A3023 RMK MADISHF
EST,2017-04-01 15:35,-94.7476,43.4008,M,M,M,0.00,0.00,M,30.23,M,10.00,M,OVC,M,M,M,12000.00,M,M,M,M,KEST 011535Z AUTO 00000KT 10SM OVC120 A3023 RMK MADISHF
EST,2017-04-01 15:40,-94.7476,43.4008,M,M,M,0.00,0.00,M,30.23,M,10.00,M,OVC,M,M,M,12000.00,M,M,M,M,KEST 011540Z AUTO 00000KT 10SM OVC120 A3023 RMK MADISHF
EST,2017-04-01 15:45,-94.7476,43.4008,M,M,M,0.00,0.00,M,30.23,M,10.00,M,OVC,M,M,M,12000.00,M,M,M,M,KEST 011545Z AUTO 00000KT 10SM OVC120 A3023 RMK MADISHF
EST,2017-04-01 15:50,-94.7476,43.4008,M,M,M,0.00,0.00,M,30.24,M,10.00,M,OVC,M,M,M,12000.00,M,M,M,M,KEST 011550Z AUTO 00000KT 10SM OVC120 A3024 RMK MADISHF
EST,2017-04-01 15:52,-94.7476,43.4008,48.00,42.10,79.91,0.00,0.00,0.00,30.24,1024.80,10.00,M,OVC,M,M,M,12000.00,M,M,M,M,KEST 011552Z AUTO 00000KT 10SM OVC120 09/06 A3024 RMK AO2 SLP248 T00890056
EST,2017-04-01 15:55,-94.7476,43.4008,M,M,M,0.00,0.00,M,30.23,M,10.00,M,OVC,M,M,M,12000.00,M,M,M,M,KEST 011555Z AUTO 00000KT 10SM OVC120 A3023 RMK MADISHF
EST,2017-04-01 16:00,-94.7476,43.4008,M,M,M,0.00,0.00,M,30.23,M,10.00,M,OVC,M,M,M,12000.00,M,M,M,M,KEST 011600Z AUTO 00000KT 10SM OVC120 A3023 RMK MADISHF
EST,2017-04-01 16:10,-94.7476,43.4008,M,M,M,0.00,0.00,M,30.24,M,10.00,M,BKN,M,M,M,11000.00,M,M,M,M,KEST 011610Z AUTO 00000KT 10SM BKN110 A3024 RMK MADISHF
EST,2017-04-01 16:15,-94.7476,43.4008,M,M,M,0.00,0.00,M,30.24,M,10.00,M,BKN,M,M,M,11000.00,M,M,M,M,KEST 011615Z AUTO 00000KT 10SM BKN110 A3024 RMK MADISHF
EST,2017-04-01 16:20,-94.7476,43.4008,M,M,M,0.00,0.00,M,30.23,M,10.00,M,OVC,M,M,M,11000.00,M,M,M,M,KEST 011620Z AUTO 00000KT 10SM OVC110 A3023 RMK MADISHF
EST,2017-04-01 16:25,-94.7476,43.4008,M,M,M,90.00,3.00,M,30.23,M,10.00,M,OVC,M,M,M,11000.00,M,M,M,M,KEST 011625Z AUTO 09003KT 10SM OVC110 A3023 RMK VRB03KT  MADISHF
EST,2017-04-01 16:30,-94.7476,43.4008,M,M,M,0.00,0.00,M,30.23,M,10.00,M,OVC,M,M,M,11000.00,M,M,M,M,KEST 011630Z AUTO 00000KT 10SM OVC110 A3023 RMK MADISHF
EST,2017-04-01 16:35,-94.7476,43.4008,M,M,M,180.00,3.00,M,30.23,M,10.00,M,OVC,M,M,M,11000.00,M,M,M,M,KEST 011635Z AUTO 18003KT 10SM OVC110 A3023 RMK MADISHF
EST,2017-04-01 16:40,-94.7476,43.4008,M,M,M,230.00,3.00,M,30.23,M,10.00,M,BKN,M,M,M,11000.00,M,M,M,M,KEST 011640Z AUTO 23003KT 10SM BKN110 A3023 RMK MADISHF
EST,2017-04-01 16:45,-94.7476,43.4008,M,M,M,0.00,0.00,M,30.23,M,10.00,M,BKN,M,M,M,11000.00,M,M,M,M,KEST 011645Z AUTO 00000KT 10SM BKN110 A3023 RMK MADISHF
EST,2017-04-01 16:50,-94.7476,43.4008,M,M,M,210.00,3.00,M,30.23,M,10.00,M,SCT,M,M,M,11000.00,M,M,M,M,KEST 011650Z AUTO 21003KT 10SM SCT110 A3023 RMK VRB03KT  MADISHF
EST,2017-04-01 16:52,-94.7476,43.4008,53.10,35.10,50.28,0.00,0.00,0.00,30.23,1024.60,10.00,M,SCT,M,M,M,11000.00,M,M,M,M,KEST 011652Z AUTO 00000KT 10SM SCT110 12/02 A3023 RMK AO2 SLP246 T01170017
EST,2017-04-01 16:55,-94.7476,43.4008,M,M,M,240.00,3.00,M,30.23,M,10.00,M,SCT,M,M,M,11000.00,M,M,M,M,KEST 011655Z AUTO 24003KT 10SM SCT110 A3023 RMK VRB03KT  MADISHF
EST,2017-04-01 17:00,-94.7476,43.4008,M,M,M,280.00,4.00,M,30.23,M,10.00,M,FEW,M,M,M,11000.00,M,M,M,M,KEST 011700Z AUTO 28004KT 10SM FEW110 A3023 RMK MADISHF
EST,2017-04-01 17:05,-94.7476,43.4008,M,M,M,280.00,3.00,M,30.23,M,10.00,M,CLR,M,M,M,M,M,M,M,M,KEST 011705Z AUTO 28003KT 10SM CLR A3023 RMK MADISHF
EST,2017-04-01 17:10,-94.7476,43.4008,M,M,M,300.00,3.00,M,30.23,M,10.00,M,CLR,M,M,M,M,M,M,M,M,KEST 011710Z AUTO 30003KT 10SM CLR A3023 RMK MADISHF
EST,2017-04-01 17:15,-94.7476,43.4008,M,M,M,0.00,0.00,M,30.23,M,10.00,M,CLR,M,M,M,M,M,M,M,M,KEST 011715Z AUTO 00000KT 10SM CLR A3023 RMK MADISHF
EST,2017-04-01 17:20,-94.7476,43.4008,M,M,M,300.00,4.00,M,30.22,M,10.00,M,CLR,M,M,M,M,M,M,M,M,KEST 011720Z AUTO 30004KT 10SM CLR A3022 RMK VRB04KT  MADISHF
EST,2017-04-01 17:40,-94.7476,43.4008,M,M,M,0.00,0.00,M,30.22,M,10.00,M,CLR,M,M,M,M,M,M,M,M,KEST 011740Z AUTO 00000KT 10SM CLR A3022 RMK MADISHF
EST,2017-04-01 17:45,-94.7476,43.4008,M,M,M,0.00,0.00,M,30.22,M,10.00,M,CLR,M,M,M,M,M,M,M,M,KEST 011745Z AUTO 00000KT 10SM CLR A3022 RMK MADISHF
EST,2017-04-01 17:50,-94.7476,43.4008,M,M,M,330.00,3.00,M,30.22,M,10.00,M,CLR,M,M,M,M,M,M,M,M,KEST 011750Z AUTO 33003KT 10SM CLR A3022 RMK MADISHF
EST,2017-04-01 17:52,-94.7476,43.4008,55.00,30.00,38.21,M,3.00,0.00,30.22,1024.00,10.00,M,CLR,M,M,M,M,M,M,M,M,KEST 011752Z AUTO VRB03KT 10SM CLR 13/M01 A3022 RMK AO2 SLP240 T01281011 10128 20006 58005
EST,2017-04-01 17:55,-94.7476,43.4008,M,M,M,0.00,0.00,M,30.22,M,10.00,M,CLR,M,M,M,M,M,M,M,M,KEST 011755Z AUTO 00000KT 10SM CLR A3022 RMK MADISHF
EST,2017-04-01 18:00,-94.7476,43.4008,M,M,M,0.00,0.00,M,30.21,M,10.00,M,CLR,M,M,M,M,M,M,M,M,KEST 011800Z AUTO 00000KT 10SM CLR A3021 RMK MADISHF
EST,2017-04-01 18:05,-94.7476,43.4008,M,M,M,310.00,4.00,M,30.21,M,10.00,M,CLR,M,M,M,M,M,M,M,M,KEST 011805Z AUTO 31004KT 10SM CLR A3021 RMK MADISHF
EST,2017-04-01 18:20,-94.7476,43.4008,M,M,M,310.00,3.00,M,30.21,M,10.00,M,CLR,M,M,M,M,M,M,M,M,KEST 011820Z AUTO 31003KT 10SM CLR A3021 RMK MADISHF
EST,2017-04-01 18:25,-94.7476,43.4008,M,M,M,0.00,0.00,M,30.21,M,10.00,M,CLR,M,M,M,M,M,M,M,M,KEST 011825Z AUTO 00000KT 10SM CLR A3021 RMK MADISHF
EST,2017-04-01 18:30,-94.7476,43.4008,M,M,M,310.00,3.00,M,30.21,M,10.00,M,CLR,M,M,M,M,M,M,M,M,KEST 011830Z AUTO 31003KT 10SM CLR A3021 RMK VRB03KT  MADISHF
EST,2017-04-01 18:35,-94.7476,43.4008,M,M,M,290.00,3.00,M,30.20,M,10.00,M,CLR,M,M,M,M,M,M,M,M,KEST 011835Z AUTO 29003KT 10SM CLR A3020 RMK MADISHF
EST,2017-04-01 18:40,-94.7476,43.4008,M,M,M,0.00,0.00,M,30.20,M,10.00,M,CLR,M,M,M,M,M,M,M,M,KEST 011840Z AUTO 00000KT 10SM CLR A3020 RMK MADISHF
EST,2017-04-01 18:45,-94.7476,43.4008,M,M,M,270.00,3.00,M,30.20,M,10.00,M,CLR,M,M,M,M,M,M,M,M,KEST 011845Z AUTO 27003KT 10SM CLR A3020 RMK MADISHF
EST,2017-04-01 18:50,-94.7476,43.4008,M,M,M,0.00,0.00,M,30.20,M,10.00,M,CLR,M,M,M,M,M,M,M,M,KEST 011850Z AUTO 00000KT 10SM CLR A3020 RMK MADISHF
EST,2017-04-01 18:52,-94.7476,43.4008,55.90,28.90,35.36,0.00,0.00,0.00,30.20,1023.30,10.00,M,CLR,M,M,M,M,M,M,M,M,KEST 011852Z AUTO 00000KT 10SM CLR 13/M02 A3020 RMK AO2 SLP233 T01331017
EST,2017-04-01 18:55,-94.7476,43.4008,M,M,M,0.00,0.00,M,30.20,M,10.00,M,CLR,M,M,M,M,M,M,M,M,KEST 011855Z AUTO 00000KT 10SM CLR A3020 RMK MADISHF
EST,2017-04-01 19:00,-94.7476,43.4008,M,M,M,140.00,3.00,M,30.19,M,10.00,M,CLR,M,M,M,M,M,M,M,M,KEST 011900Z AUTO 14003KT 10SM CLR A3019 RMK MADISHF
EST,2017-04-01 19:05,-94.7476,43.4008,M,M,M,90.00,3.00,M,30.19,M,10.00,M,CLR,M,M,M,M,M,M,M,M,KEST 011905Z AUTO 09003KT 10SM CLR A3019 RMK MADISHF
EST,2017-04-01 19:10,-94.7476,43.4008,M,M,M,70.00,4.00,M,30.19,M,10.00,M,CLR,M,M,M,M,M,M,M,M,KEST 011910Z AUTO 07004KT 10SM CLR A3019 RMK MADISHF
EST,2017-04-01 19:20,-94.7476,43.4008,M,M,M,130.00,3.00,M,30.19,M,10.00,M,CLR,M,M,M,M,M,M,M,M,KEST 011920Z AUTO 13003KT 10SM CLR A3019 RMK MADISHF
EST,2017-04-01 19:25,-94.7476,43.4008,M,M,M,30.00,4.00,M,30.18,M,10.00,M,CLR,M,M,M,M,M,M,M,M,KEST 011925Z AUTO 03004KT 10SM CLR A3018 RMK VRB04KT  MADISHF
EST,2017-04-01 19:30,-94.7476,43.4008,M,M,M,10.00,3.00,M,30.18,M,10.00,M,CLR,M,M,M,M,M,M,M,M,KEST 011930Z AUTO 01003KT 10SM CLR A3018 RMK MADISHF
EST,2017-04-01 19:35,-94.7476,43.4008,M,M,M,330.00,3.00,M,30.18,M,10.00,M,CLR,M,M,M,M,M,M,M,M,KEST 011935Z AUTO 33003KT 10SM CLR A3018 RMK VRB03KT  MADISHF
EST,2017-04-01 19:40,-94.7476,43.4008,M,M,M,0.00,0.00,M,30.18,M,10.00,M,CLR,M,M,M,M,M,M,M,M,KEST 011940Z AUTO 00000KT 10SM CLR A3018 RMK MADISHF
EST,2017-04-01 19:45,-94.7476,43.4008,M,M,M,0.00,0.00,M,30.19,M,10.00,M,CLR,M,M,M,M,M,M,M,M,KEST 011945Z AUTO 00000KT 10SM CLR A3019 RMK MADISHF
EST,2017-04-01 19:50,-94.7476,43.4008,M,M,M,280.00,3.00,M,30.18,M,10.00,M,CLR,M,M,M,M,M,M,M,M,KEST 011950Z AUTO 28003KT 10SM CLR A3018 RMK MADISHF
EST,2017-04-01 19:52,-94.7476,43.4008,57.00,28.00,32.75,280.00,3.00,0.00,30.18,1022.70,10.00,M,CLR,M,M,M,M,M,M,M,M,KEST 011952Z AUTO 28003KT 10SM CLR 14/M02 A3018 RMK AO2 SLP227 T01391022
EST,2017-04-01 19:55,-94.7476,43.4008,M,M,M,280.00,3.00,M,30.18,M,10.00,M,CLR,M,M,M,M,M,M,M,M,KEST 011955Z AUTO 28003KT 10SM CLR A3018 RMK MADISHF
EST,2017-04-01 20:15,-94.7476,43.4008,M,M,M,310.00,3.00,M,30.17,M,10.00,M,CLR,M,M,M,M,M,M,M,M,KEST 012015Z AUTO 31003KT 10SM CLR A3017 RMK MADISHF
EST,2017-04-01 20:20,-94.7476,43.4008,M,M,M,320.00,4.00,M,30.17,M,10.00,M,CLR,M,M,M,M,M,M,M,M,KEST 012020Z AUTO 32004KT 10SM CLR A3017 RMK MADISHF
EST,2017-04-01 20:25,-94.7476,43.4008,M,M,M,0.00,0.00,M,30.17,M,10.00,M,CLR,M,M,M,M,M,M,M,M,KEST 012025Z AUTO 00000KT 10SM CLR A3017 RMK MADISHF
EST,2017-04-01 20:30,-94.7476,43.4008,M,M,M,120.00,3.00,M,30.17,M,10.00,M,CLR,M,M,M,M,M,M,M,M,KEST 012030Z AUTO 12003KT 10SM CLR A3017 RMK VRB03KT  MADISHF
EST,2017-04-01 20:35,-94.7476,43.4008,M,M,M,140.00,3.00,M,30.17,M,10.00,M,CLR,M,M,M,M,M,M,M,M,KEST 012035Z AUTO 14003KT 10SM CLR A3017 RMK VRB03KT  MADISHF
EST,2017-04-01 20:45,-94.7476,43.4008,M,M,M,150.00,4.00,M,30.16,M,10.00,M,CLR,M,M,M,M,M,M,M,M,KEST 012045Z AUTO 15004KT 10SM CLR A3016 RMK VRB04KT  MADISHF
EST,2017-04-01 20:50,-94.7476,43.4008,M,M,M,170.00,4.00,M,30.16,M,10.00,M,CLR,M,M,M,M,M,M,M,M,KEST 012050Z AUTO 17004KT 10SM CLR A3016 RMK MADISHF
EST,2017-04-01 20:52,-94.7476,43.4008,57.00,28.00,32.75,0.00,0.00,0.00,30.16,1021.90,10.00,M,CLR,M,M,M,M,M,M,M,M,KEST 012052Z AUTO 00000KT 10SM CLR 14/M02 A3016 RMK AO2 SLP219 T01391022 58019
EST,2017-04-01 20:55,-94.7476,43.4008,M,M,M,0.00,0.00,M,30.16,M,10.00,M,CLR,M,M,M,M,M,M,M,M,KEST 012055Z AUTO 00000KT 10SM CLR A3016 RMK MADISHF
EST,2017-04-01 21:00,-94.7476,43.4008,M,M,M,100.00,6.00,M,30.15,M,10.00,M,CLR,M,M,M,M,M,M,M,M,KEST 012100Z AUTO 10006KT 10SM CLR A3015 RMK MADISHF
EST,2017-04-01 21:15,-94.7476,43.4008,M,M,M,0.00,0.00,M,30.15,M,10.00,M,CLR,M,M,M,M,M,M,M,M,KEST 012115Z AUTO 00000KT 10SM CLR A3015 RMK MADISHF
EST,2017-04-01 21:20,-94.7476,43.4008,M,M,M,190.00,3.00,M,30.15,M,10.00,M,CLR,M,M,M,M,M,M,M,M,KEST 012120Z AUTO 19003KT 10SM CLR A3015 RMK MADISHF
EST,2017-04-01 21:25,-94.7476,43.4008,M,M,M,180.00,3.00,M,30.15,M,10.00,M,CLR,M,M,M,M,M,M,M,M,KEST 012125Z AUTO 18003KT 10SM CLR A3015 RMK VRB03KT  MADISHF
EST,2017-04-01 21:30,-94.7476,43.4008,M,M,M,190.00,3.00,M,30.15,M,10.00,M,CLR,M,M,M,M,M,M,M,M,KEST 012130Z AUTO 19003KT 10SM CLR A3015 RMK MADISHF
EST,2017-04-01 21:35,-94.7476,43.4008,M,M,M,0.00,0.00,M,30.15,M,10.00,M,CLR,M,M,M,M,M,M,M,M,KEST 012135Z AUTO 00000KT 10SM CLR A3015 RMK MADISHF
EST,2017-04-01 21:40,-94.7476,43.4008,M,M,M,180.00,3.00,M,30.15,M,10.00,M,CLR,M,M,M,M,M,M,M,M,KEST 012140Z AUTO 18003KT 10SM CLR A3015 RMK MADISHF
EST,2017-04-01 21:45,-94.7476,43.4008,M,M,M,0.00,0.00,M,30.14,M,10.00,M,CLR,M,M,M,M,M,M,M,M,KEST 012145Z AUTO 00000KT 10SM CLR A3014 RMK MADISHF
EST,2017-04-01 21:50,-94.7476,43.4008,M,M,M,0.00,0.00,M,30.15,M,10.00,M,CLR,M,M,M,M,M,M,M,M,KEST 012150Z AUTO 00000KT 10SM CLR A3015 RMK MADISHF
EST,2017-04-01 21:52,-94.7476,43.4008,57.90,28.90,32.90,0.00,0.00,0.00,30.15,1021.50,10.00,M,CLR,M,M,M,M,M,M,M,M,KEST 012152Z AUTO 00000KT 10SM CLR 14/M02 A3015 RMK AO2 SLP215 T01441017
EST,2017-04-01 21:55,-94.7476,43.4008,M,M,M,110.00,6.00,M,30.15,M,10.00,M,CLR,M,M,M,M,M,M,M,M,KEST 012155Z AUTO 11006KT 10SM CLR A3015 RMK MADISHF
EST,2017-04-01 22:05,-94.7476,43.4008,M,M,M,80.00,4.00,M,30.15,M,10.00,M,CLR,M,M,M,M,M,M,M,M,KEST 012205Z AUTO 08004KT 10SM CLR A3015 RMK MADISHF
EST,2017-04-01 22:10,-94.7476,43.4008,M,M,M,140.00,4.00,M,30.15,M,10.00,M,CLR,M,M,M,M,M,M,M,M,KEST 012210Z AUTO 14004KT 10SM CLR A3015 RMK VRB04KT  MADISHF
EST,2017-04-01 22:15,-94.7476,43.4008,M,M,M,130.00,4.00,M,30.15,M,10.00,M,CLR,M,M,M,M,M,M,M,M,KEST 012215Z AUTO 13004KT 10SM CLR A3015 RMK MADISHF
EST,2017-04-01 22:20,-94.7476,43.4008,M,M,M,160.00,4.00,M,30.15,M,10.00,M,CLR,M,M,M,M,M,M,M,M,KEST 012220Z AUTO 16004KT 10SM CLR A3015 RMK MADISHF
EST,2017-04-01 22:25,-94.7476,43.4008,M,M,M,130.00,4.00,M,30.15,M,10.00,M,CLR,M,M,M,M,M,M,M,M,KEST 012225Z AUTO 13004KT 10SM CLR A3015 RMK MADISHF
EST,2017-04-01 22:30,-94.7476,43.4008,M,M,M,110.00,4.00,M,30.14,M,10.00,M,CLR,M,M,M,M,M,M,M,M,KEST 012230Z AUTO 11004KT 10SM CLR A3014 RMK MADISHF
EST,2017-04-01 22:35,-94.7476,43.4008,M,M,M,100.00,3.00,M,30.14,M,10.00,M,CLR,M,M,M,M,M,M,M,M,KEST 012235Z AUTO 10003KT 10SM CLR A3014 RMK MADISHF
EST,2017-04-01 22:50,-94.7476,43.4008,M,M,M,90.00,3.00,M,30.14,M,10.00,M,CLR,M,M,M,M,M,M,M,M,KEST 012250Z AUTO 09003KT 10SM CLR A3014 RMK MADISHF
EST,2017-04-01 22:52,-94.7476,43.4008,55.90,26.10,31.51,M,3.00,0.00,30.14,1021.20,10.00,M,CLR,M,M,M,M,M,M,M,M,KEST 012252Z AUTO VRB03KT 10SM CLR 13/M03 A3014 RMK AO2 SLP212 T01331033
EST,2017-04-01 22:55,-94.7476,43.4008,M,M,M,150.00,4.00,M,30.14,M,10.00,M,CLR,M,M,M,M,M,M,M,M,KEST 012255Z AUTO 15004KT 10SM CLR A3014 RMK MADISHF
EST,2017-04-01 23:00,-94.7476,43.4008,M,M,M,150.00,3.00,M,30.14,M,10.00,M,CLR,M,M,M,M,M,M,M,M,KEST 012300Z AUTO 15003KT 10SM CLR A3014 RMK MADISHF
EST,2017-04-01 23:05,-94.7476,43.4008,M,M,M,160.00,3.00,M,30.14,M,10.00,M,CLR,M,M,M,M,M,M,M,M,KEST 012305Z AUTO 16003KT 10SM CLR A3014 RMK MADISHF
EST,2017-04-01 23:20,-94.7476,43.4008,M,M,M,150.00,6.00,M,30.14,M,10.00,M,CLR,M,M,M,M,M,M,M,M,KEST 012320Z AUTO 15006KT 10SM CLR A3014 RMK MADISHF
EST,2017-04-01 23:25,-94.7476,43.4008,M,M,M,160.00,5.00,M,30.14,M,10.00,M,CLR,M,M,M,M,M,M,M,M,KEST 012325Z AUTO 16005KT 10SM CLR A3014 RMK MADISHF
EST,2017-04-01 23:30,-94.7476,43.4008,M,M,M,150.00,6.00,M,30.14,M,10.00,M,CLR,M,M,M,M,M,M,M,M,KEST 012330Z AUTO 15006KT 10SM CLR A3014 RMK MADISHF
EST,2017-04-01 23:35,-94.7476,43.4008,M,M,M,150.00,6.00,M,30.14,M,10.00,M,CLR,M,M,M,M,M,M,M,M,KEST 012335Z AUTO 15006KT 10SM CLR A3014 RMK MADISHF
EST,2017-04-01 23:40,-94.7476,43.4008,M,M,M,160.00,6.00,M,30.14,M,10.00,M,CLR,M,M,M,M,M,M,M,M,KEST 012340Z AUTO 16006KT 10SM CLR A3014 RMK MADISHF
EST,2017-04-01 23:50,-94.7476,43.4008,M,M,M,170.00,5.00,M,30.14,M,10.00,M,CLR,M,M,M,M,M,M,M,M,KEST 012350Z AUTO 17005KT 10SM CLR A3014 RMK MADISHF
EST,2017-04-01 23:52,-94.7476,43.4008,54.00,37.90,54.34,170.00,5.00,0.00,30.14,1021.30,10.00,M,CLR,M,M,M,M,M,M,M,M,KEST 012352Z AUTO 17005KT 10SM CLR 12/03 A3014 RMK AO2 SLP213 T01220033 10144 20122 56007
EST,2017-04-01 23:55,-94.7476,43.4008,M,M,M,170.00,5.00,M,30.14,M,10.00,M,CLR,M,M,M,M,M,M,M,M,KEST 012355Z AUTO 17005KT 10SM CLR A3014 RMK MADISHF
