#DEBUG: Format Typ    -> comma
#DEBUG: Time Period   -> 2017-04-01 00:00:00+00:00 2017-04-02 00:00:00+00:00
#DEBUG: Time Zone     -> Etc/UTC
#DEBUG: Data Contact   -> daryl herzmann akrherz@iastate.edu 515-294-5978
#DEBUG: Entries Found -> -1
station,valid,lon,lat,tmpf, dwpf, relh, drct, sknt, p01i, alti, mslp, vsby, gust, skyc1, skyc2, skyc3, skyc4, skyl1, skyl2, skyl3, skyl4, presentwx, metar
EUG,2017-04-01 00:00,-123.2120,44.1246,M,M,M,350.00,8.00,M,30.27,M,10.00,M,CLR,M,M,M,M,M,M,M,M,KEUG 010000Z AUTO 35008KT 10SM CLR A3027 RMK MADISHF
EUG,2017-04-01 00:05,-123.2120,44.1246,M,M,M,360.00,7.00,M,30.27,M,10.00,M,CLR,M,M,M,M,M,M,M,M,KEUG 010005Z AUTO 36007KT 10SM CLR A3027 RMK MADISHF
EUG,2017-04-01 00:10,-123.2120,44.1246,M,M,M,10.00,6.00,M,30.27,M,10.00,M,CLR,M,M,M,M,M,M,M,M,KEUG 010010Z AUTO 01006KT 10SM CLR A3027 RMK MADISHF
EUG,2017-04-01 00:15,-123.2120,44.1246,M,M,M,10.00,8.00,M,30.28,M,10.00,M,CLR,M,M,M,M,M,M,M,M,KEUG 010015Z AUTO 01008KT 10SM CLR A3028 RMK MADISHF
EUG,2017-04-01 00:20,-123.2120,44.1246,M,M,M,340.00,9.00,M,30.28,M,10.00,M,CLR,M,M,M,M,M,M,M,M,KEUG 010020Z AUTO 34009KT 10SM CLR A3028 RMK MADISHF
EUG,2017-04-01 00:25,-123.2120,44.1246,M,M,M,350.00,9.00,M,30.28,M,10.00,M,CLR,M,M,M,M,M,M,M,M,KEUG 010025Z AUTO 35009KT 10SM CLR A3028 RMK MADISHF
EUG,2017-04-01 00:30,-123.2120,44.1246,M,M,M,10.00,9.00,M,30.28,M,10.00,M,CLR,M,M,M,M,M,M,M,M,KEUG 010030Z AUTO 01009KT 10SM CLR A3028 RMK MADISHF
EUG,2017-04-01 00:35,-123.2120,44.1246,M,M,M,360.00,7.00,M,30.28,M,10.00,M,CLR,M,M,M,M,M,M,M,M,KEUG 010035Z AUTO 36007KT 10SM CLR A3028 RMK MADISHF
EUG,2017-04-01 00:40,-123.2120,44.1246,M,M,M,360.00,8.00,M,30.28,M,10.00,M,CLR,M,M,M,M,M,M,M,M,KEUG 010040Z AUTO 36008KT 10SM CLR A3028 RMK MADISHF
EUG,2017-04-01 00:45,-123.2120,44.1246,M,M,M,360.00,8.00,M,30.28,M,10.00,M,CLR,M,M,M,M,M,M,M,M,KEUG 010045Z AUTO 36008KT 10SM CLR A3028 RMK MADISHF
EUG,2017-04-01 00:50,-123.2120,44.1246,M,M,M,360.00,8.00,M,30.27,M,10.00,M,M,M,M,M,M,M,M,M,M,KEUG 010050Z AUTO 36008KT 10SM A3027 RMK MADISHF
EUG,2017-04-01 00:54,-123.2120,44.1246,57.00,43.00,59.40,360.00,9.00,0.00,30.27,1025.30,10.00,M,BKN,M,M,M,25000.00,M,M,M,M,KEUG 010054Z 36009KT 10SM BKN250 14/06 A3027 RMK AO2 SLP253 T01390061
EUG,2017-04-01 00:55,-123.2120,44.1246,M,M,M,10.00,8.00,M,30.27,M,10.00,M,CLR,M,M,M,M,M,M,M,M,KEUG 010055Z AUTO 01008KT 10SM CLR A3027 RMK MADISHF
EUG,2017-04-01 01:00,-123.2120,44.1246,M,M,M,10.00,8.00,M,30.27,M,10.00,M,CLR,M,M,M,M,M,M,M,M,KEUG 010100Z AUTO 01008KT 10SM CLR A3027 RMK MADISHF
EUG,2017-04-01 01:05,-123.2120,44.1246,M,M,M,20.00,9.00,M,30.27,M,10.00,M,CLR,M,M,M,M,M,M,M,M,KEUG 010105Z AUTO 02009KT 10SM CLR A3027 RMK MADISHF
EUG,2017-04-01 01:10,-123.2120,44.1246,M,M,M,20.00,8.00,M,30.26,M,10.00,M,CLR,M,M,M,M,M,M,M,M,KEUG 010110Z AUTO 02008KT 10SM CLR A3026 RMK MADISHF
EUG,2017-04-01 01:15,-123.2120,44.1246,M,M,M,40.00,7.00,M,30.26,M,10.00,M,CLR,M,M,M,M,M,M,M,M,KEUG 010115Z AUTO 04007KT 10SM CLR A3026 RMK MADISHF
EUG,2017-04-01 01:20,-123.2120,44.1246,M,M,M,30.00,6.00,M,30.26,M,10.00,M,CLR,M,M,M,M,M,M,M,M,KEUG 010120Z AUTO 03006KT 10SM CLR A3026 RMK MADISHF
EUG,2017-04-01 01:25,-123.2120,44.1246,M,M,M,30.00,7.00,M,30.25,M,10.00,M,CLR,M,M,M,M,M,M,M,M,KEUG 010125Z AUTO 03007KT 10SM CLR A3025 RMK MADISHF
EUG,2017-04-01 01:30,-123.2120,44.1246,M,M,M,30.00,8.00,M,30.25,M,10.00,M,CLR,M,M,M,M,M,M,M,M,KEUG 010130Z AUTO 03008KT 10SM CLR A3025 RMK MADISHF
EUG,2017-04-01 01:35,-123.2120,44.1246,M,M,M,30.00,7.00,M,30.25,M,10.00,M,CLR,M,M,M,M,M,M,M,M,KEUG 010135Z AUTO 03007KT 10SM CLR A3025 RMK MADISHF
EUG,2017-04-01 01:40,-123.2120,44.1246,M,M,M,30.00,6.00,M,30.25,M,10.00,M,CLR,M,M,M,M,M,M,M,M,KEUG 010140Z AUTO 03006KT 10SM CLR A3025 RMK MADISHF
EUG,2017-04-01 01:45,-123.2120,44.1246,M,M,M,30.00,7.00,M,30.25,M,10.00,M,CLR,M,M,M,M,M,M,M,M,KEUG 010145Z AUTO 03007KT 10SM CLR A3025 RMK MADISHF
EUG,2017-04-01 01:50,-123.2120,44.1246,M,M,M,20.00,6.00,M,30.25,M,10.00,M,M,M,M,M,M,M,M,M,M,KEUG 010150Z AUTO 02006KT 10SM A3025 RMK MADISHF
EUG,2017-04-01 01:54,-123.2120,44.1246,55.90,45.00,66.72,20.00,6.00,0.00,30.26,1024.70,10.00,M,BKN,M,M,M,25000.00,M,M,M,M,KEUG 010154Z 02006KT 10SM BKN250 13/07 A3026 RMK AO2 SLP247 T01330072
EUG,2017-04-01 01:55,-123.2120,44.1246,M,M,M,10.00,6.00,M,30.26,M,10.00,M,CLR,M,M,M,M,M,M,M,M,KEUG 010155Z AUTO 01006KT 10SM CLR A3026 RMK MADISHF
EUG,2017-04-01 02:00,-123.2120,44.1246,M,M,M,20.00,7.00,M,30.26,M,10.00,M,CLR,M,M,M,M,M,M,M,M,KEUG 010200Z AUTO 02007KT 10SM CLR A3026 RMK MADISHF
EUG,2017-04-01 02:05,-123.2120,44.1246,M,M,M,30.00,8.00,M,30.26,M,10.00,M,CLR,M,M,M,M,M,M,M,M,KEUG 010205Z AUTO 03008KT 10SM CLR A3026 RMK MADISHF
EUG,2017-04-01 02:10,-123.2120,44.1246,M,M,M,40.00,7.00,M,30.26,M,10.00,M,CLR,M,M,M,M,M,M,M,M,KEUG 010210Z AUTO 04007KT 10SM CLR A3026 RMK MADISHF
EUG,2017-04-01 02:15,-123.2120,44.1246,M,M,M,40.00,8.00,M,30.25,M,10.00,M,CLR,M,M,M,M,M,M,M,M,KEUG 010215Z AUTO 04008KT 10SM CLR A3025 RMK MADISHF
EUG,2017-04-01 02:20,-123.2120,44.1246,M,M,M,50.00,6.00,M,30.25,M,10.00,M,CLR,M,M,M,M,M,M,M,M,KEUG 010220Z AUTO 05006KT 10SM CLR A3025 RMK MADISHF
EUG,2017-04-01 02:25,-123.2120,44.1246,M,M,M,50.00,5.00,M,30.25,M,10.00,M,CLR,M,M,M,M,M,M,M,M,KEUG 010225Z AUTO 05005KT 10SM CLR A3025 RMK MADISHF
EUG,2017-04-01 02:30,-123.2120,44.1246,M,M,M,40.00,6.00,M,30.25,M,10.00,M,CLR,M,M,M,M,M,M,M,M,KEUG 010230Z AUTO 04006KT 10SM CLR A3025 RMK MADISHF
EUG,2017-04-01 02:35,-123.2120,44.1246,M,M,M,40.00,6.00,M,30.25,M,10.00,M,CLR,M,M,M,M,M,M,M,M,KEUG 010235Z AUTO 04006KT 10SM CLR A3025 RMK MADISHF
EUG,2017-04-01 02:40,-123.2120,44.1246,M,M,M,50.00,6.00,M,30.25,M,10.00,M,CLR,M,M,M,M,M,M,M,M,KEUG 010240Z AUTO 05006KT 10SM CLR A3025 RMK MADISHF
EUG,2017-04-01 02:45,-123.2120,44.1246,M,M,M,50.00,4.00,M,30.25,M,10.00,M,CLR,M,M,M,M,M,M,M,M,KEUG 010245Z AUTO 05004KT 10SM CLR A3025 RMK MADISHF
EUG,2017-04-01 02:50,-123.2120,44.1246,M,M,M,50.00,4.00,M,30.25,M,10.00,M,M,M,M,M,M,M,M,M,M,KEUG 010250Z AUTO 05004KT 10SM A3025 RMK MADISHF
EUG,2017-04-01 02:54,-123.2120,44.1246,51.10,44.10,76.86,50.00,3.00,0.00,30.25,1024.40,10.00,M,SCT,M,M,M,25000.00,M,M,M,M,KEUG 010254Z 05003KT 10SM SCT250 11/07 A3025 RMK AO2 SLP244 T01060067 58008
EUG,2017-04-01 02:55,-123.2120,44.1246,M,M,M,50.00,3.00,M,30.25,M,10.00,M,CLR,M,M,M,M,M,M,M,M,KEUG 010255Z AUTO 05003KT 10SM CLR A3025 RMK MADISHF
EUG,2017-04-01 03:00,-123.2120,44.1246,M,M,M,0.00,0.00,M,30.24,M,10.00,M,CLR,M,M,M,M,M,M,M,M,KEUG 010300Z AUTO 00000KT 10SM CLR A3024 RMK MADISHF
EUG,2017-04-01 03:05,-123.2120,44.1246,M,M,M,0.00,0.00,M,30.25,M,10.00,M,CLR,M,M,M,M,M,M,M,M,KEUG 010305Z AUTO 00000KT 10SM CLR A3025 RMK MADISHF
EUG,2017-04-01 03:10,-123.2120,44.1246,M,M,M,50.00,3.00,M,30.25,M,10.00,M,CLR,M,M,M,M,M,M,M,M,KEUG 010310Z AUTO 05003KT 10SM CLR A3025 RMK MADISHF
EUG,2017-04-01 03:15,-123.2120,44.1246,M,M,M,30.00,3.00,M,30.25,M,10.00,M,CLR,M,M,M,M,M,M,M,M,KEUG 010315Z AUTO 03003KT 10SM CLR A3025 RMK MADISHF
EUG,2017-04-01 03:20,-123.2120,44.1246,M,M,M,10.00,3.00,M,30.25,M,10.00,M,CLR,M,M,M,M,M,M,M,M,KEUG 010320Z AUTO 01003KT 10SM CLR A3025 RMK MADISHF
EUG,2017-04-01 03:25,-123.2120,44.1246,M,M,M,360.00,3.00,M,30.25,M,10.00,M,CLR,M,M,M,M,M,M,M,M,KEUG 010325Z AUTO 36003KT 10SM CLR A3025 RMK MADISHF
EUG,2017-04-01 03:30,-123.2120,44.1246,M,M,M,0.00,0.00,M,30.26,M,10.00,M,CLR,M,M,M,M,M,M,M,M,KEUG 010330Z AUTO 00000KT 10SM CLR A3026 RMK MADISHF
EUG,2017-04-01 03:35,-123.2120,44.1246,M,M,M,310.00,3.00,M,30.26,M,10.00,M,CLR,M,M,M,M,M,M,M,M,KEUG 010335Z AUTO 31003KT 10SM CLR A3026 RMK MADISHF
EUG,2017-04-01 03:40,-123.2120,44.1246,M,M,M,300.00,4.00,M,30.26,M,10.00,M,CLR,M,M,M,M,M,M,M,M,KEUG 010340Z AUTO 30004KT 10SM CLR A3026 RMK MADISHF
EUG,2017-04-01 03:45,-123.2120,44.1246,M,M,M,300.00,4.00,M,30.27,M,10.00,M,CLR,M,M,M,M,M,M,M,M,KEUG 010345Z AUTO 30004KT 10SM CLR A3027 RMK MADISHF
EUG,2017-04-01 03:50,-123.2120,44.1246,M,M,M,300.00,5.00,M,30.27,M,10.00,M,M,M,M,M,M,M,M,M,M,KEUG 010350Z AUTO 30005KT 10SM A3027 RMK MADISHF
EUG,2017-04-01 03:54,-123.2120,44.1246,48.00,44.10,86.28,310.00,5.00,0.00,30.27,1025.20,10.00,M,FEW,M,M,M,25000.00,M,M,M,M,KEUG 010354Z 31005KT 10SM FEW250 09/07 A3027 RMK AO2 SLP252 T00890067
EUG,2017-04-01 03:55,-123.2120,44.1246,M,M,M,310.00,5.00,M,30.27,M,10.00,M,CLR,M,M,M,M,M,M,M,M,KEUG 010355Z AUTO 31005KT 10SM CLR A3027 RMK MADISHF
EUG,2017-04-01 04:00,-123.2120,44.1246,M,M,M,320.00,5.00,M,30.27,M,10.00,M,CLR,M,M,M,M,M,M,M,M,KEUG 010400Z AUTO 32005KT 10SM CLR A3027 RMK MADISHF
EUG,2017-04-01 04:05,-123.2120,44.1246,M,M,M,310.00,5.00,M,30.27,M,10.00,M,CLR,M,M,M,M,M,M,M,M,KEUG 010405Z AUTO 31005KT 10SM CLR A3027 RMK MADISHF
EUG,2017-04-01 04:10,-123.2120,44.1246,M,M,M,280.00,5.00,M,30.27,M,10.00,M,CLR,M,M,M,M,M,M,M,M,KEUG 010410Z AUTO 28005KT 10SM CLR A3027 RMK MADISHF
EUG,2017-04-01 04:15,-123.2120,44.1246,M,M,M,280.00,5.00,M,30.27,M,10.00,M,CLR,M,M,M,M,M,M,M,M,KEUG 010415Z AUTO 28005KT 10SM CLR A3027 RMK MADISHF
EUG,2017-04-01 04:20,-123.2120,44.1246,M,M,M,290.00,5.00,M,30.27,M,10.00,M,CLR,M,M,M,M,M,M,M,M,KEUG 010420Z AUTO 29005KT 10SM CLR A3027 RMK MADISHF
EUG,2017-04-01 04:25,-123.2120,44.1246,M,M,M,300.00,5.00,M,30.27,M,10.00,M,CLR,M,M,M,M,M,M,M,M,KEUG 010425Z AUTO 30005KT 10SM CLR A3027 RMK MADISHF
EUG,2017-04-01 04:30,-123.2120,44.1246,M,M,M,300.00,6.00,M,30.28,M,10.00,M,CLR,M,M,M,M,M,M,M,M,KEUG 010430Z AUTO 30006KT 10SM CLR A3028 RMK MADISHF
EUG,2017-04-01 04:35,-123.2120,44.1246,M,M,M,300.00,6.00,M,30.28,M,10.00,M,CLR,M,M,M,M,M,M,M,M,KEUG 010435Z AUTO 30006KT 10SM CLR A3028 RMK MADISHF
EUG,2017-04-01 04:40,-123.2120,44.1246,M,M,M,290.00,6.00,M,30.28,M,10.00,M,CLR,M,M,M,M,M,M,M,M,KEUG 010440Z AUTO 29006KT 10SM CLR A3028 RMK MADISHF
EUG,2017-04-01 04:45,-123.2120,44.1246,M,M,M,280.00,5.00,M,30.28,M,10.00,M,CLR,M,M,M,M,M,M,M,M,KEUG 010445Z AUTO 28005KT 10SM CLR A3028 RMK MADISHF
EUG,2017-04-01 04:50,-123.2120,44.1246,M,M,M,260.00,4.00,M,30.28,M,10.00,M,CLR,M,M,M,M,M,M,M,M,KEUG 010450Z AUTO 26004KT 10SM CLR A3028 RMK MADISHF
EUG,2017-04-01 04:54,-123.2120,44.1246,46.00,43.00,89.20,240.00,4.00,0.00,30.28,1025.50,10.00,M,CLR,M,M,M,M,M,M,M,M,KEUG 010454Z 24004KT 10SM CLR 08/06 A3028 RMK AO2 SLP255 T00780061
EUG,2017-04-01 04:55,-123.2120,44.1246,M,M,M,240.00,4.00,M,30.28,M,10.00,M,CLR,M,M,M,M,M,M,M,M,KEUG 010455Z AUTO 24004KT 10SM CLR A3028 RMK MADISHF
EUG,2017-04-01 05:00,-123.2120,44.1246,M,M,M,250.00,4.00,M,30.28,M,10.00,M,CLR,M,M,M,M,M,M,M,M,KEUG 010500Z AUTO 25004KT 10SM CLR A3028 RMK MADISHF
EUG,2017-04-01 05:05,-123.2120,44.1246,M,M,M,250.00,4.00,M,30.28,M,10.00,M,CLR,M,M,M,M,M,M,M,M,KEUG 010505Z AUTO 25004KT 10SM CLR A3028 RMK MADISHF
EUG,2017-04-01 05:10,-123.2120,44.1246,M,M,M,240.00,3.00,M,30.28,M,10.00,M,CLR,M,M,M,M,M,M,M,M,KEUG 010510Z AUTO 24003KT 10SM CLR A3028 RMK MADISHF
EUG,2017-04-01 05:15,-123.2120,44.1246,M,M,M,270.00,3.00,M,30.28,M,10.00,M,CLR,M,M,M,M,M,M,M,M,KEUG 010515Z AUTO 27003KT 10SM CLR A3028 RMK MADISHF
EUG,2017-04-01 05:20,-123.2120,44.1246,M,M,M,270.00,4.00,M,30.28,M,10.00,M,CLR,M,M,M,M,M,M,M,M,KEUG 010520Z AUTO 27004KT 10SM CLR A3028 RMK MADISHF
EUG,2017-04-01 05:25,-123.2120,44.1246,M,M,M,270.00,4.00,M,30.28,M,10.00,M,CLR,M,M,M,M,M,M,M,M,KEUG 010525Z AUTO 27004KT 10SM CLR A3028 RMK MADISHF
EUG,2017-04-01 05:30,-123.2120,44.1246,M,M,M,270.00,4.00,M,30.28,M,10.00,M,CLR,M,M,M,M,M,M,M,M,KEUG 010530Z AUTO 27004KT 10SM CLR A3028 RMK MADISHF
EUG,2017-04-01 05:35,-123.2120,44.1246,M,M,M,180.00,3.00,M,30.28,M,10.00,M,CLR,M,M,M,M,M,M,M,M,KEUG 010535Z AUTO 18003KT 10SM CLR A3028 RMK MADISHF
EUG,2017-04-01 05:40,-123.2120,44.1246,M,M,M,0.00,0.00,M,30.28,M,10.00,M,CLR,M,M,M,M,M,M,M,M,KEUG 010540Z AUTO 00000KT 10SM CLR A3028 RMK MADISHF
EUG,2017-04-01 05:45,-123.2120,44.1246,M,M,M,0.00,0.00,M,30.28,M,10.00,M,CLR,M,M,M,M,M,M,M,M,KEUG 010545Z AUTO 00000KT 10SM CLR A3028 RMK MADISHF
EUG,2017-04-01 05:50,-123.2120,44.1246,M,M,M,160.00,3.00,M,30.28,M,10.00,M,CLR,M,M,M,M,M,M,M,M,KEUG 010550Z AUTO 16003KT 10SM CLR A3028 RMK MADISHF
EUG,2017-04-01 05:54,-123.2120,44.1246,44.10,43.00,95.88,130.00,4.00,0.00,30.28,1025.50,10.00,M,CLR,M,M,M,M,M,M,M,M,KEUG 010554Z 13004KT 10SM CLR 07/06 A3028 RMK AO2 SLP255 T00670061 10144 20067 51010
EUG,2017-04-01 05:55,-123.2120,44.1246,M,M,M,120.00,4.00,M,30.28,M,10.00,M,CLR,M,M,M,M,M,M,M,M,KEUG 010555Z AUTO 12004KT 10SM CLR A3028 RMK MADISHF
EUG,2017-04-01 06:00,-123.2120,44.1246,M,M,M,150.00,4.00,M,30.28,M,10.00,M,CLR,M,M,M,M,M,M,M,M,KEUG 010600Z AUTO 15004KT 10SM CLR A3028 RMK MADISHF
EUG,2017-04-01 06:05,-123.2120,44.1246,M,M,M,150.00,6.00,M,30.27,M,10.00,M,CLR,M,M,M,M,M,M,M,M,KEUG 010605Z AUTO 15006KT 10SM CLR A3027 RMK MADISHF
EUG,2017-04-01 06:10,-123.2120,44.1246,M,M,M,140.00,5.00,M,30.27,M,10.00,M,CLR,M,M,M,M,M,M,M,M,KEUG 010610Z AUTO 14005KT 10SM CLR A3027 RMK MADISHF
EUG,2017-04-01 06:15,-123.2120,44.1246,M,M,M,150.00,4.00,M,30.27,M,10.00,M,CLR,M,M,M,M,M,M,M,M,KEUG 010615Z AUTO 15004KT 10SM CLR A3027 RMK MADISHF
EUG,2017-04-01 06:20,-123.2120,44.1246,M,M,M,160.00,4.00,M,30.27,M,10.00,M,CLR,M,M,M,M,M,M,M,M,KEUG 010620Z AUTO 16004KT 10SM CLR A3027 RMK MADISHF
EUG,2017-04-01 06:25,-123.2120,44.1246,M,M,M,170.00,3.00,M,30.27,M,10.00,M,CLR,M,M,M,M,M,M,M,M,KEUG 010625Z AUTO 17003KT 10SM CLR A3027 RMK MADISHF
EUG,2017-04-01 06:30,-123.2120,44.1246,M,M,M,0.00,0.00,M,30.27,M,10.00,M,CLR,M,M,M,M,M,M,M,M,KEUG 010630Z AUTO 00000KT 10SM CLR A3027 RMK MADISHF
EUG,2017-04-01 06:35,-123.2120,44.1246,M,M,M,0.00,0.00,M,30.27,M,10.00,M,CLR,M,M,M,M,M,M,M,M,KEUG 010635Z AUTO 00000KT 10SM CLR A3027 RMK MADISHF
EUG,2017-04-01 06:40,-123.2120,44.1246,M,M,M,0.00,0.00,M,30.27,M,10.00,M,CLR,M,M,M,M,M,M,M,M,KEUG 010640Z AUTO 00000KT 10SM CLR A3027 RMK MADISHF
EUG,2017-04-01 06:45,-123.2120,44.1246,M,M,M,0.00,0.00,M,30.27,M,10.00,M,CLR,M,M,M,M,M,M,M,M,KEUG 010645Z AUTO 00000KT 10SM CLR A3027 RMK MADISHF
EUG,2017-04-01 06:50,-123.2120,44.1246,M,M,M,200.00,3.00,M,30.28,M,10.00,M,CLR,M,M,M,M,M,M,M,M,KEUG 010650Z AUTO 20003KT 10SM CLR A3028 RMK MADISHF
EUG,2017-04-01 06:54,-123.2120,44.1246,43.00,41.00,92.58,180.00,5.00,0.00,30.28,1025.40,10.00,M,CLR,M,M,M,M,M,M,M,M,KEUG 010654Z AUTO 18005KT 10SM CLR 06/05 A3028 RMK AO2 SLP254 T00610050
EUG,2017-04-01 06:55,-123.2120,44.1246,M,M,M,170.00,4.00,M,30.28,M,10.00,M,CLR,M,M,M,M,M,M,M,M,KEUG 010655Z AUTO 17004KT 10SM CLR A3028 RMK MADISHF
EUG,2017-04-01 07:00,-123.2120,44.1246,M,M,M,170.00,5.00,M,30.27,M,10.00,M,CLR,M,M,M,M,M,M,M,M,KEUG 010700Z AUTO 17005KT 10SM CLR A3027 RMK MADISHF
EUG,2017-04-01 07:05,-123.2120,44.1246,M,M,M,170.00,4.00,M,30.27,M,10.00,M,CLR,M,M,M,M,M,M,M,M,KEUG 010705Z AUTO 17004KT 10SM CLR A3027 RMK MADISHF
EUG,2017-04-01 07:10,-123.2120,44.1246,M,M,M,170.00,4.00,M,30.27,M,10.00,M,CLR,M,M,M,M,M,M,M,M,KEUG 010710Z AUTO 17004KT 10SM CLR A3027 RMK MADISHF
EUG,2017-04-01 07:15,-123.2120,44.1246,M,M,M,170.00,5.00,M,30.27,M,10.00,M,CLR,M,M,M,M,M,M,M,M,KEUG 010715Z AUTO 17005KT 10SM CLR A3027 RMK MADISHF
EUG,2017-04-01 07:20,-123.2120,44.1246,M,M,M,160.00,5.00,M,30.27,M,10.00,M,CLR,M,M,M,M,M,M,M,M,KEUG 010720Z AUTO 16005KT 10SM CLR A3027 RMK MADISHF
EUG,2017-04-01 07:25,-123.2120,44.1246,M,M,M,150.00,4.00,M,30.27,M,10.00,M,CLR,M,M,M,M,M,M,M,M,KEUG 010725Z AUTO 15004KT 10SM CLR A3027 RMK MADISHF
EUG,2017-04-01 07:30,-123.2120,44.1246,M,M,M,160.00,3.00,M,30.27,M,10.00,M,CLR,M,M,M,M,M,M,M,M,KEUG 010730Z AUTO 16003KT 10SM CLR A3027 RMK MADISHF
EUG,2017-04-01 07:35,-123.2120,44.1246,M,M,M,160.00,3.00,M,30.27,M,10.00,M,CLR,M,M,M,M,M,M,M,M,KEUG 010735Z AUTO 16003KT 10SM CLR A3027 RMK MADISHF
EUG,2017-04-01 07:40,-123.2120,44.1246,M,M,M,160.00,4.00,M,30.26,M,10.00,M,CLR,M,M,M,M,M,M,M,M,KEUG 010740Z AUTO 16004KT 10SM CLR A3026 RMK MADISHF
EUG,2017-04-01 07:45,-123.2120,44.1246,M,M,M,160.00,4.00,M,30.26,M,10.00,M,CLR,M,M,M,M,M,M,M,M,KEUG 010745Z AUTO 16004KT 10SM CLR A3026 RMK MADISHF
EUG,2017-04-01 07:50,-123.2120,44.1246,M,M,M,160.00,5.00,M,30.25,M,10.00,M,CLR,M,M,M,M,M,M,M,M,KEUG 010750Z AUTO 16005KT 10SM CLR A3025 RMK MADISHF
EUG,2017-04-01 07:54,-123.2120,44.1246,44.10,41.00,88.77,170.00,4.00,0.00,30.25,1024.50,10.00,M,CLR,M,M,M,M,M,M,M,M,KEUG 010754Z AUTO 17004KT 10SM CLR 07/05 A3025 RMK AO2 SLP245 T00670050 401440006
EUG,2017-04-01 07:55,-123.2120,44.1246,M,M,M,170.00,4.00,M,30.25,M,10.00,M,CLR,M,M,M,M,M,M,M,M,KEUG 010755Z AUTO 17004KT 10SM CLR A3025 RMK MADISHF
EUG,2017-04-01 08:00,-123.2120,44.1246,M,M,M,190.00,4.00,M,30.25,M,10.00,M,CLR,M,M,M,M,M,M,M,M,KEUG 010800Z AUTO 19004KT 10SM CLR A3025 RMK MADISHF
EUG,2017-04-01 08:05,-123.2120,44.1246,M,M,M,190.00,5.00,M,30.25,M,10.00,M,CLR,M,M,M,M,M,M,M,M,KEUG 010805Z AUTO 19005KT 10SM CLR A3025 RMK MADISHF
EUG,2017-04-01 08:10,-123.2120,44.1246,M,M,M,190.00,6.00,M,30.25,M,10.00,M,CLR,M,M,M,M,M,M,M,M,KEUG 010810Z AUTO 19006KT 10SM CLR A3025 RMK MADISHF
EUG,2017-04-01 08:15,-123.2120,44.1246,M,M,M,200.00,6.00,M,30.25,M,10.00,M,CLR,M,M,M,M,M,M,M,M,KEUG 010815Z AUTO 20006KT 10SM CLR A3025 RMK MADISHF
EUG,2017-04-01 08:20,-123.2120,44.1246,M,M,M,220.00,6.00,M,30.25,M,10.00,M,CLR,M,M,M,M,M,M,M,M,KEUG 010820Z AUTO 22006KT 10SM CLR A3025 RMK MADISHF
EUG,2017-04-01 08:25,-123.2120,44.1246,M,M,M,240.00,6.00,M,30.25,M,10.00,M,CLR,M,M,M,M,M,M,M,M,KEUG 010825Z AUTO 24006KT 10SM CLR A3025 RMK MADISHF
EUG,2017-04-01 08:30,-123.2120,44.1246,M,M,M,250.00,6.00,M,30.25,M,10.00,M,CLR,M,M,M,M,M,M,M,M,KEUG 010830Z AUTO 25006KT 10SM CLR A3025 RMK MADISHF
EUG,2017-04-01 08:35,-123.2120,44.1246,M,M,M,260.00,5.00,M,30.25,M,10.00,M,CLR,M,M,M,M,M,M,M,M,KEUG 010835Z AUTO 26005KT 10SM CLR A3025 RMK MADISHF
EUG,2017-04-01 08:40,-123.2120,44.1246,M,M,M,240.00,4.00,M,30.25,M,10.00,M,CLR,M,M,M,M,M,M,M,M,KEUG 010840Z AUTO 24004KT 10SM CLR A3025 RMK MADISHF
EUG,2017-04-01 08:45,-123.2120,44.1246,M,M,M,230.00,4.00,M,30.25,M,10.00,M,CLR,M,M,M,M,M,M,M,M,KEUG 010845Z AUTO 23004KT 10SM CLR A3025 RMK MADISHF
EUG,2017-04-01 08:50,-123.2120,44.1246,M,M,M,230.00,4.00,M,30.25,M,10.00,M,CLR,M,M,M,M,M,M,M,M,KEUG 010850Z AUTO 23004KT 10SM CLR A3025 RMK MADISHF
EUG,2017-04-01 08:54,-123.2120,44.1246,44.10,42.10,92.62,230.00,4.00,0.00,30.26,1024.60,10.00,M,CLR,M,M,M,M,M,M,M,M,KEUG 010854Z AUTO 23004KT 10SM CLR 07/06 A3026 RMK AO2 SLP246 T00670056 55007
EUG,2017-04-01 08:55,-123.2120,44.1246,M,M,M,230.00,4.00,M,30.26,M,10.00,M,CLR,M,M,M,M,M,M,M,M,KEUG 010855Z AUTO 23004KT 10SM CLR A3026 RMK MADISHF
EUG,2017-04-01 09:00,-123.2120,44.1246,M,M,M,230.00,3.00,M,30.26,M,10.00,M,CLR,M,M,M,M,M,M,M,M,KEUG 010900Z AUTO 23003KT 10SM CLR A3026 RMK MADISHF
EUG,2017-04-01 09:05,-123.2120,44.1246,M,M,M,230.00,3.00,M,30.26,M,10.00,M,CLR,M,M,M,M,M,M,M,M,KEUG 010905Z AUTO 23003KT 10SM CLR A3026 RMK MADISHF
EUG,2017-04-01 09:10,-123.2120,44.1246,M,M,M,220.00,3.00,M,30.26,M,10.00,M,CLR,M,M,M,M,M,M,M,M,KEUG 010910Z AUTO 22003KT 10SM CLR A3026 RMK MADISHF
EUG,2017-04-01 09:15,-123.2120,44.1246,M,M,M,200.00,4.00,M,30.25,M,10.00,M,CLR,M,M,M,M,M,M,M,M,KEUG 010915Z AUTO 20004KT 10SM CLR A3025 RMK MADISHF
EUG,2017-04-01 09:20,-123.2120,44.1246,M,M,M,190.00,5.00,M,30.25,M,10.00,M,CLR,M,M,M,M,M,M,M,M,KEUG 010920Z AUTO 19005KT 10SM CLR A3025 RMK MADISHF
EUG,2017-04-01 09:25,-123.2120,44.1246,M,M,M,190.00,5.00,M,30.25,M,10.00,M,CLR,M,M,M,M,M,M,M,M,KEUG 010925Z AUTO 19005KT 10SM CLR A3025 RMK MADISHF
EUG,2017-04-01 09:30,-123.2120,44.1246,M,M,M,200.00,5.00,M,30.25,M,10.00,M,CLR,M,M,M,M,M,M,M,M,KEUG 010930Z AUTO 20005KT 10SM CLR A3025 RMK MADISHF
EUG,2017-04-01 09:35,-123.2120,44.1246,M,M,M,200.00,6.00,M,30.25,M,10.00,M,CLR,M,M,M,M,M,M,M,M,KEUG 010935Z AUTO 20006KT 10SM CLR A3025 RMK MADISHF
EUG,2017-04-01 09:40,-123.2120,44.1246,M,M,M,210.00,6.00,M,30.25,M,10.00,M,CLR,M,M,M,M,M,M,M,M,KEUG 010940Z AUTO 21006KT 10SM CLR A3025 RMK MADISHF
EUG,2017-04-01 09:45,-123.2120,44.1246,M,M,M,220.00,5.00,M,30.25,M,10.00,M,CLR,M,M,M,M,M,M,M,M,KEUG 010945Z AUTO 22005KT 10SM CLR A3025 RMK MADISHF
EUG,2017-04-01 09:50,-123.2120,44.1246,M,M,M,210.00,3.00,M,30.25,M,10.00,M,CLR,M,M,M,M,M,M,M,M,KEUG 010950Z AUTO 21003KT 10SM CLR A3025 RMK MADISHF
EUG,2017-04-01 09:54,-123.2120,44.1246,41.00,39.90,95.82,0.00,0.00,0.00,30.26,1024.60,10.00,M,CLR,M,M,M,M,M,M,M,M,KEUG 010954Z AUTO 00000KT 10SM CLR 05/04 A3026 RMK AO2 SLP246 T00500044
EUG,2017-04-01 09:55,-123.2120,44.1246,M,M,M,0.00,0.00,M,30.26,M,10.00,M,CLR,M,M,M,M,M,M,M,M,KEUG 010955Z AUTO 00000KT 10SM CLR A3026 RMK MADISHF
EUG,2017-04-01 10:00,-123.2120,44.1246,M,M,M,220.00,3.00,M,30.26,M,10.00,M,CLR,M,M,M,M,M,M,M,M,KEUG 011000Z AUTO 22003KT 10SM CLR A3026 RMK MADISHF
EUG,2017-04-01 10:05,-123.2120,44.1246,M,M,M,230.00,4.00,M,30.26,M,10.00,M,CLR,M,M,M,M,M,M,M,M,KEUG 011005Z AUTO 23004KT 10SM CLR A3026 RMK MADISHF
EUG,2017-04-01 10:10,-123.2120,44.1246,M,M,M,190.00,5.00,M,30.27,M,10.00,M,CLR,M,M,M,M,M,M,M,M,KEUG 011010Z AUTO 19005KT 10SM CLR A3027 RMK MADISHF
EUG,2017-04-01 10:15,-123.2120,44.1246,M,M,M,150.00,8.00,M,30.25,M,10.00,M,CLR,M,M,M,M,M,M,M,M,KEUG 011015Z AUTO 15008KT 10SM CLR A3025 RMK MADISHF
EUG,2017-04-01 10:20,-123.2120,44.1246,M,M,M,160.00,8.00,M,30.25,M,10.00,M,CLR,M,M,M,M,M,M,M,M,KEUG 011020Z AUTO 16008KT 10SM CLR A3025 RMK MADISHF
EUG,2017-04-01 10:25,-123.2120,44.1246,M,M,M,180.00,6.00,M,30.25,M,10.00,M,CLR,M,M,M,M,M,M,M,M,KEUG 011025Z AUTO 18006KT 10SM CLR A3025 RMK MADISHF
EUG,2017-04-01 10:30,-123.2120,44.1246,M,M,M,190.00,8.00,M,30.25,M,10.00,M,CLR,M,M,M,M,M,M,M,M,KEUG 011030Z AUTO 19008KT 10SM CLR A3025 RMK MADISHF
EUG,2017-04-01 10:35,-123.2120,44.1246,M,M,M,190.00,6.00,M,30.25,M,10.00,M,CLR,M,M,M,M,M,M,M,M,KEUG 011035Z AUTO 19006KT 10SM CLR A3025 RMK MADISHF
EUG,2017-04-01 10:40,-123.2120,44.1246,M,M,M,170.00,6.00,M,30.24,M,10.00,M,CLR,M,M,M,M,M,M,M,M,KEUG 011040Z AUTO 17006KT 10SM CLR A3024 RMK MADISHF
EUG,2017-04-01 10:45,-123.2120,44.1246,M,M,M,150.00,6.00,M,30.24,M,10.00,M,CLR,M,M,M,M,M,M,M,M,KEUG 011045Z AUTO 15006KT 10SM CLR A3024 RMK MADISHF
EUG,2017-04-01 10:50,-123.2120,44.1246,M,M,M,170.00,6.00,M,30.24,M,10.00,M,CLR,M,M,M,M,M,M,M,M,KEUG 011050Z AUTO 17006KT 10SM CLR A3024 RMK MADISHF
EUG,2017-04-01 10:54,-123.2120,44.1246,42.10,41.00,95.84,170.00,6.00,0.00,30.24,1024.10,10.00,M,CLR,M,M,M,M,M,M,M,M,KEUG 011054Z AUTO 17006KT 10SM CLR 06/05 A3024 RMK AO2 SLP241 T00560050
EUG,2017-04-01 10:55,-123.2120,44.1246,M,M,M,160.00,6.00,M,30.24,M,10.00,M,CLR,M,M,M,M,M,M,M,M,KEUG 011055Z AUTO 16006KT 10SM CLR A3024 RMK MADISHF
EUG,2017-04-01 11:00,-123.2120,44.1246,M,M,M,160.00,5.00,M,30.24,M,10.00,M,CLR,M,M,M,M,M,M,M,M,KEUG 011100Z AUTO 16005KT 10SM CLR A3024 RMK MADISHF
EUG,2017-04-01 11:05,-123.2120,44.1246,M,M,M,170.00,5.00,M,30.24,M,10.00,M,CLR,M,M,M,M,M,M,M,M,KEUG 011105Z AUTO 17005KT 10SM CLR A3024 RMK MADISHF
EUG,2017-04-01 11:10,-123.2120,44.1246,M,M,M,160.00,5.00,M,30.24,M,10.00,M,CLR,M,M,M,M,M,M,M,M,KEUG 011110Z AUTO 16005KT 10SM CLR A3024 RMK MADISHF
EUG,2017-04-01 11:15,-123.2120,44.1246,M,M,M,150.00,7.00,M,30.24,M,10.00,M,CLR,M,M,M,M,M,M,M,M,KEUG 011115Z AUTO 15007KT 10SM CLR A3024 RMK MADISHF
EUG,2017-04-01 11:20,-123.2120,44.1246,M,M,M,160.00,6.00,M,30.24,M,10.00,M,CLR,M,M,M,M,M,M,M,M,KEUG 011120Z AUTO 16006KT 10SM CLR A3024 RMK MADISHF
EUG,2017-04-01 11:25,-123.2120,44.1246,M,M,M,180.00,5.00,M,30.24,M,10.00,M,FEW,M,M,M,6000.00,M,M,M,M,KEUG 011125Z AUTO 18005KT 10SM FEW060 A3024 RMK MADISHF
EUG,2017-04-01 11:30,-123.2120,44.1246,M,M,M,220.00,4.00,M,30.24,M,10.00,M,FEW,M,M,M,6000.00,M,M,M,M,KEUG 011130Z AUTO 22004KT 10SM FEW060 A3024 RMK MADISHF
EUG,2017-04-01 11:35,-123.2120,44.1246,M,M,M,220.00,5.00,M,30.25,M,10.00,M,SCT,M,M,M,6000.00,M,M,M,M,KEUG 011135Z AUTO 22005KT 10SM SCT060 A3025 RMK MADISHF
EUG,2017-04-01 11:40,-123.2120,44.1246,M,M,M,230.00,4.00,M,30.25,M,10.00,M,FEW,BKN,M,M,4200.00,6000.00,M,M,M,KEUG 011140Z AUTO 23004KT 10SM FEW042 BKN060 A3025 RMK MADISHF
EUG,2017-04-01 11:45,-123.2120,44.1246,M,M,M,270.00,5.00,M,30.26,M,10.00,M,SCT,BKN,M,M,4300.00,6000.00,M,M,M,KEUG 011145Z AUTO 27005KT 10SM SCT043 BKN060 A3026 RMK MADISHF
EUG,2017-04-01 11:50,-123.2120,44.1246,M,M,M,270.00,5.00,M,30.26,M,10.00,M,BKN,BKN,M,M,4300.00,6000.00,M,M,M,KEUG 011150Z AUTO 27005KT 10SM BKN043 BKN060 A3026 RMK MADISHF
EUG,2017-04-01 11:54,-123.2120,44.1246,43.00,42.10,96.60,240.00,6.00,0.00,30.26,1024.70,10.00,M,BKN,BKN,M,M,4300.00,6000.00,M,M,M,KEUG 011154Z AUTO 24006KT 10SM BKN043 BKN060 06/06 A3026 RMK AO2 SLP247 T00610056 10072 20044 53001
EUG,2017-04-01 11:55,-123.2120,44.1246,M,M,M,230.00,5.00,M,30.26,M,10.00,M,BKN,OVC,M,M,4300.00,6000.00,M,M,M,KEUG 011155Z AUTO 23005KT 10SM BKN043 OVC060 A3026 RMK MADISHF
EUG,2017-04-01 12:00,-123.2120,44.1246,M,M,M,220.00,5.00,M,30.25,M,10.00,M,BKN,OVC,M,M,4300.00,6000.00,M,M,M,KEUG 011200Z AUTO 22005KT 10SM BKN043 OVC060 A3025 RMK MADISHF
EUG,2017-04-01 12:05,-123.2120,44.1246,M,M,M,190.00,4.00,M,30.24,M,10.00,M,OVC,M,M,M,4200.00,M,M,M,M,KEUG 011205Z AUTO 19004KT 10SM OVC042 A3024 RMK MADISHF
EUG,2017-04-01 12:10,-123.2120,44.1246,M,M,M,180.00,5.00,M,30.24,M,10.00,M,OVC,M,M,M,4200.00,M,M,M,M,KEUG 011210Z AUTO 18005KT 10SM OVC042 A3024 RMK MADISHF
EUG,2017-04-01 12:15,-123.2120,44.1246,M,M,M,180.00,5.00,M,30.24,M,10.00,M,OVC,M,M,M,4100.00,M,M,M,M,KEUG 011215Z AUTO 18005KT 10SM OVC041 A3024 RMK MADISHF
EUG,2017-04-01 12:20,-123.2120,44.1246,M,M,M,180.00,6.00,M,30.24,M,10.00,M,OVC,M,M,M,4100.00,M,M,M,M,KEUG 011220Z AUTO 18006KT 10SM OVC041 A3024 RMK MADISHF
EUG,2017-04-01 12:25,-123.2120,44.1246,M,M,M,190.00,5.00,M,30.24,M,10.00,M,OVC,M,M,M,4100.00,M,M,M,M,KEUG 011225Z AUTO 19005KT 10SM OVC041 A3024 RMK MADISHF
EUG,2017-04-01 12:30,-123.2120,44.1246,M,M,M,190.00,6.00,M,30.25,M,10.00,M,OVC,M,M,M,4100.00,M,M,M,M,KEUG 011230Z AUTO 19006KT 10SM OVC041 A3025 RMK MADISHF
EUG,2017-04-01 12:35,-123.2120,44.1246,M,M,M,180.00,5.00,M,30.24,M,10.00,M,OVC,M,M,M,4100.00,M,M,M,M,KEUG 011235Z AUTO 18005KT 10SM OVC041 A3024 RMK MADISHF
EUG,2017-04-01 12:40,-123.2120,44.1246,M,M,M,180.00,6.00,M,30.24,M,10.00,M,OVC,M,M,M,4100.00,M,M,M,M,KEUG 011240Z AUTO 18006KT 10SM OVC041 A3024 RMK MADISHF
EUG,2017-04-01 12:45,-123.2120,44.1246,M,M,M,190.00,5.00,M,30.24,M,10.00,M,OVC,M,M,M,4100.00,M,M,M,M,KEUG 011245Z AUTO 19005KT 10SM OVC041 A3024 RMK MADISHF
EUG,2017-04-01 12:50,-123.2120,44.1246,M,M,M,210.00,4.00,M,30.25,M,10.00,M,BKN,OVC,M,M,3999.00,5000.00,M,M,M,KEUG 011250Z AUTO 21004KT 10SM BKN039 OVC050 A3025 RMK MADISHF
EUG,2017-04-01 12:54,-123.2120,44.1246,45.00,43.00,92.65,200.00,5.00,0.00,30.24,1024.20,10.00,M,BKN,OVC,M,M,4000.00,5000.00,M,M,M,KEUG 011254Z 20005KT 10SM BKN040 OVC050 07/06 A3024 RMK AO2 SLP242 T00720061
EUG,2017-04-01 12:55,-123.2120,44.1246,M,M,M,200.00,5.00,M,30.24,M,10.00,M,OVC,M,M,M,4100.00,M,M,M,M,KEUG 011255Z AUTO 20005KT 10SM OVC041 A3024 RMK MADISHF
EUG,2017-04-01 13:00,-123.2120,44.1246,M,M,M,190.00,4.00,M,30.24,M,10.00,M,OVC,M,M,M,4100.00,M,M,M,M,KEUG 011300Z AUTO 19004KT 10SM OVC041 A3024 RMK MADISHF
EUG,2017-04-01 13:05,-123.2120,44.1246,M,M,M,200.00,4.00,M,30.24,M,10.00,M,OVC,M,M,M,4100.00,M,M,M,M,KEUG 011305Z AUTO 20004KT 10SM OVC041 A3024 RMK MADISHF
EUG,2017-04-01 13:10,-123.2120,44.1246,M,M,M,190.00,5.00,M,30.24,M,10.00,M,OVC,M,M,M,4100.00,M,M,M,M,KEUG 011310Z AUTO 19005KT 10SM OVC041 A3024 RMK MADISHF
EUG,2017-04-01 13:15,-123.2120,44.1246,M,M,M,180.00,5.00,M,30.24,M,10.00,M,OVC,M,M,M,3999.00,M,M,M,M,KEUG 011315Z AUTO 18005KT 10SM OVC039 A3024 RMK MADISHF
EUG,2017-04-01 13:20,-123.2120,44.1246,M,M,M,180.00,5.00,M,30.24,M,10.00,M,OVC,M,M,M,3999.00,M,M,M,M,KEUG 011320Z AUTO 18005KT 10SM OVC039 A3024 RMK MADISHF
EUG,2017-04-01 13:25,-123.2120,44.1246,M,M,M,160.00,6.00,M,30.23,M,10.00,M,OVC,M,M,M,4100.00,M,M,M,M,KEUG 011325Z AUTO 16006KT 10SM OVC041 A3023 RMK MADISHF
EUG,2017-04-01 13:30,-123.2120,44.1246,M,M,M,150.00,7.00,M,30.23,M,10.00,M,OVC,M,M,M,4200.00,M,M,M,M,KEUG 011330Z AUTO 15007KT 10SM OVC042 A3023 RMK MADISHF
EUG,2017-04-01 13:35,-123.2120,44.1246,M,M,M,160.00,6.00,M,30.23,M,10.00,M,OVC,M,M,M,4100.00,M,M,M,M,KEUG 011335Z AUTO 16006KT 10SM OVC041 A3023 RMK MADISHF
EUG,2017-04-01 13:40,-123.2120,44.1246,M,M,M,170.00,5.00,M,30.23,M,10.00,M,OVC,M,M,M,4100.00,M,M,M,M,KEUG 011340Z AUTO 17005KT 10SM OVC041 A3023 RMK MADISHF
EUG,2017-04-01 13:45,-123.2120,44.1246,M,M,M,190.00,5.00,M,30.24,M,10.00,M,OVC,M,M,M,4100.00,M,M,M,M,KEUG 011345Z AUTO 19005KT 10SM OVC041 A3024 RMK MADISHF
EUG,2017-04-01 13:50,-123.2120,44.1246,M,M,M,230.00,5.00,M,30.24,M,10.00,M,OVC,M,M,M,3999.00,M,M,M,M,KEUG 011350Z AUTO 23005KT 10SM OVC039 A3024 RMK MADISHF
EUG,2017-04-01 13:54,-123.2120,44.1246,46.00,44.10,93.03,230.00,5.00,0.00,30.24,1024.10,10.00,M,OVC,M,M,M,4100.00,M,M,M,M,KEUG 011354Z 23005KT 10SM OVC041 08/07 A3024 RMK AO2 SLP241 T00780067
EUG,2017-04-01 13:55,-123.2120,44.1246,M,M,M,220.00,4.00,M,30.24,M,10.00,M,OVC,M,M,M,3999.00,M,M,M,M,KEUG 011355Z AUTO 22004KT 10SM OVC039 A3024 RMK MADISHF
EUG,2017-04-01 14:00,-123.2120,44.1246,M,M,M,220.00,5.00,M,30.24,M,10.00,M,OVC,M,M,M,4100.00,M,M,M,M,KEUG 011400Z AUTO 22005KT 10SM OVC041 A3024 RMK MADISHF
EUG,2017-04-01 14:05,-123.2120,44.1246,M,M,M,220.00,5.00,M,30.24,M,10.00,M,BKN,OVC,M,M,4200.00,4900.00,M,M,M,KEUG 011405Z AUTO 22005KT 10SM BKN042 OVC049 A3024 RMK MADISHF
EUG,2017-04-01 14:10,-123.2120,44.1246,M,M,M,250.00,4.00,M,30.25,M,10.00,M,OVC,M,M,M,4300.00,M,M,M,M,KEUG 011410Z AUTO 25004KT 10SM OVC043 A3025 RMK MADISHF
EUG,2017-04-01 14:15,-123.2120,44.1246,M,M,M,250.00,5.00,M,30.25,M,10.00,M,BKN,OVC,M,M,3900.00,4700.00,M,M,M,KEUG 011415Z AUTO 25005KT 10SM BKN039 OVC047 A3025 RMK MADISHF
EUG,2017-04-01 14:20,-123.2120,44.1246,M,M,M,260.00,4.00,M,30.25,M,10.00,M,BKN,OVC,M,M,3900.00,4700.00,M,M,M,KEUG 011420Z AUTO 26004KT 10SM BKN039 OVC047 A3025 RMK MADISHF
EUG,2017-04-01 14:25,-123.2120,44.1246,M,M,M,260.00,3.00,M,30.25,M,10.00,M,BKN,OVC,M,M,3900.00,4700.00,M,M,M,KEUG 011425Z AUTO 26003KT 10SM BKN039 OVC047 A3025 RMK MADISHF
EUG,2017-04-01 14:30,-123.2120,44.1246,M,M,M,0.00,0.00,M,30.25,M,10.00,M,BKN,OVC,M,M,3800.00,4700.00,M,M,M,KEUG 011430Z AUTO 00000KT 10SM BKN038 OVC047 A3025 RMK MADISHF
EUG,2017-04-01 14:35,-123.2120,44.1246,M,M,M,0.00,0.00,M,30.25,M,10.00,M,OVC,M,M,M,3800.00,M,M,M,M,KEUG 011435Z AUTO 00000KT 10SM OVC038 A3025 RMK MADISHF
EUG,2017-04-01 14:40,-123.2120,44.1246,M,M,M,0.00,0.00,M,30.26,M,10.00,M,OVC,M,M,M,3800.00,M,M,M,M,KEUG 011440Z AUTO 00000KT 10SM OVC038 A3026 RMK MADISHF
EUG,2017-04-01 14:45,-123.2120,44.1246,M,M,M,0.00,0.00,M,30.26,M,10.00,M,OVC,M,M,M,3800.00,M,M,M,M,KEUG 011445Z AUTO 00000KT 10SM OVC038 A3026 RMK MADISHF
EUG,2017-04-01 14:50,-123.2120,44.1246,M,M,M,0.00,0.00,M,30.26,M,10.00,M,OVC,M,M,M,3800.00,M,M,M,M,KEUG 011450Z AUTO 00000KT 10SM OVC038 A3026 RMK MADISHF
EUG,2017-04-01 14:54,-123.2120,44.1246,46.90,44.10,89.92,0.00,0.00,0.00,30.26,1024.70,10.00,M,OVC,M,M,M,3900.00,M,M,M,M,KEUG 011454Z 00000KT 10SM OVC039 08/07 A3026 RMK AO2 SLP247 T00830067 55001
EUG,2017-04-01 14:55,-123.2120,44.1246,M,M,M,0.00,0.00,M,30.26,M,10.00,M,OVC,M,M,M,3900.00,M,M,M,M,KEUG 011455Z AUTO 00000KT 10SM OVC039 A3026 RMK MADISHF
EUG,2017-04-01 15:00,-123.2120,44.1246,M,M,M,180.00,4.00,M,30.25,M,10.00,M,OVC,M,M,M,3900.00,M,M,M,M,KEUG 011500Z AUTO 18004KT 10SM OVC039 A3025 RMK MADISHF
EUG,2017-04-01 15:05,-123.2120,44.1246,M,M,M,170.00,5.00,M,30.24,M,10.00,M,OVC,M,M,M,3900.00,M,M,M,M,KEUG 011505Z AUTO 17005KT 10SM OVC039 A3024 RMK MADISHF
EUG,2017-04-01 15:10,-123.2120,44.1246,M,M,M,160.00,5.00,M,30.24,M,10.00,M,OVC,M,M,M,3900.00,M,M,M,M,KEUG 011510Z AUTO 16005KT 10SM OVC039 A3024 RMK MADISHF
EUG,2017-04-01 15:15,-123.2120,44.1246,M,M,M,170.00,6.00,M,30.24,M,10.00,M,BKN,OVC,M,M,3900.00,4600.00,M,M,M,KEUG 011515Z AUTO 17006KT 10SM BKN039 OVC046 A3024 RMK MADISHF
EUG,2017-04-01 15:20,-123.2120,44.1246,M,M,M,170.00,6.00,M,30.24,M,10.00,M,OVC,M,M,M,4100.00,M,M,M,M,KEUG 011520Z AUTO 17006KT 10SM OVC041 A3024 RMK MADISHF
EUG,2017-04-01 15:25,-123.2120,44.1246,M,M,M,170.00,6.00,M,30.24,M,10.00,M,OVC,M,M,M,4100.00,M,M,M,M,KEUG 011525Z AUTO 17006KT 10SM OVC041 A3024 RMK MADISHF
EUG,2017-04-01 15:30,-123.2120,44.1246,M,M,M,180.00,6.00,M,30.24,M,10.00,M,OVC,M,M,M,4100.00,M,M,M,M,KEUG 011530Z AUTO 18006KT 10SM OVC041 A3024 RMK MADISHF
EUG,2017-04-01 15:35,-123.2120,44.1246,M,M,M,210.00,5.00,M,30.25,M,10.00,M,OVC,M,M,M,4100.00,M,M,M,M,KEUG 011535Z AUTO 21005KT 10SM OVC041 A3025 RMK MADISHF
EUG,2017-04-01 15:40,-123.2120,44.1246,M,M,M,240.00,5.00,M,30.25,M,10.00,M,OVC,M,M,M,4100.00,M,M,M,M,KEUG 011540Z AUTO 24005KT 10SM OVC041 A3025 RMK MADISHF
EUG,2017-04-01 15:45,-123.2120,44.1246,M,M,M,240.00,4.00,M,30.25,M,10.00,M,OVC,M,M,M,3999.00,M,M,M,M,KEUG 011545Z AUTO 24004KT 10SM OVC039 A3025 RMK MADISHF
EUG,2017-04-01 15:50,-123.2120,44.1246,M,M,M,230.00,4.00,M,30.25,M,10.00,M,OVC,M,M,M,3999.00,M,M,M,M,KEUG 011550Z AUTO 23004KT 10SM OVC039 A3025 RMK MADISHF
EUG,2017-04-01 15:54,-123.2120,44.1246,48.90,45.00,86.33,230.00,3.00,0.00,30.25,1024.50,10.00,M,OVC,M,M,M,3800.00,M,M,M,M,KEUG 011554Z 23003KT 10SM OVC038 09/07 A3025 RMK AO2 SLP245 T00940072
EUG,2017-04-01 15:55,-123.2120,44.1246,M,M,M,230.00,3.00,M,30.25,M,10.00,M,OVC,M,M,M,3800.00,M,M,M,M,KEUG 011555Z AUTO 23003KT 10SM OVC038 A3025 RMK MADISHF
EUG,2017-04-01 16:00,-123.2120,44.1246,M,M,M,240.00,4.00,M,30.26,M,10.00,M,OVC,M,M,M,3800.00,M,M,M,M,KEUG 011600Z AUTO 24004KT 10SM OVC038 A3026 RMK MADISHF
EUG,2017-04-01 16:05,-123.2120,44.1246,M,M,M,210.00,3.00,M,30.26,M,10.00,M,OVC,M,M,M,3800.00,M,M,M,M,KEUG 011605Z AUTO 21003KT 10SM OVC038 A3026 RMK MADISHF
EUG,2017-04-01 16:10,-123.2120,44.1246,M,M,M,220.00,3.00,M,30.25,M,10.00,M,OVC,M,M,M,3800.00,M,M,M,M,KEUG 011610Z AUTO 22003KT 10SM OVC038 A3025 RMK MADISHF
EUG,2017-04-01 16:15,-123.2120,44.1246,M,M,M,220.00,4.00,M,30.25,M,10.00,M,BKN,OVC,M,M,3800.00,4900.00,M,M,M,KEUG 011615Z AUTO 22004KT 10SM BKN038 OVC049 A3025 RMK MADISHF
EUG,2017-04-01 16:20,-123.2120,44.1246,M,M,M,200.00,5.00,M,30.25,M,10.00,M,BKN,OVC,M,M,3900.00,4900.00,M,M,M,KEUG 011620Z AUTO 20005KT 10SM BKN039 OVC049 A3025 RMK MADISHF
EUG,2017-04-01 16:25,-123.2120,44.1246,M,M,M,210.00,5.00,M,30.25,M,10.00,M,BKN,OVC,M,M,3999.00,4900.00,M,M,M,KEUG 011625Z AUTO 21005KT 10SM BKN039 OVC049 A3025 RMK MADISHF
EUG,2017-04-01 16:30,-123.2120,44.1246,M,M,M,200.00,5.00,M,30.25,M,10.00,M,BKN,OVC,M,M,3999.00,4900.00,M,M,M,KEUG 011630Z AUTO 20005KT 10SM BKN039 OVC049 A3025 RMK MADISHF
EUG,2017-04-01 16:35,-123.2120,44.1246,M,M,M,190.00,6.00,M,30.25,M,10.00,M,BKN,OVC,M,M,3999.00,4900.00,M,M,M,KEUG 011635Z AUTO 19006KT 10SM BKN039 OVC049 A3025 RMK MADISHF
EUG,2017-04-01 16:40,-123.2120,44.1246,M,M,M,190.00,7.00,M,30.25,M,10.00,M,BKN,OVC,M,M,3900.00,4900.00,M,M,M,KEUG 011640Z AUTO 19007KT 10SM BKN039 OVC049 A3025 RMK MADISHF
EUG,2017-04-01 16:45,-123.2120,44.1246,M,M,M,190.00,7.00,M,30.25,M,10.00,M,BKN,OVC,M,M,3900.00,4700.00,M,M,M,KEUG 011645Z AUTO 19007KT 10SM BKN039 OVC047 A3025 RMK MADISHF
EUG,2017-04-01 16:50,-123.2120,44.1246,M,M,M,200.00,7.00,M,30.25,M,10.00,M,BKN,OVC,M,M,3999.00,5000.00,M,M,M,KEUG 011650Z AUTO 20007KT 10SM BKN039 OVC050 A3025 RMK  VIRGA W-NW-DSNT N MADISHF
EUG,2017-04-01 16:54,-123.2120,44.1246,52.00,46.00,79.92,210.00,7.00,0.00,30.25,1024.40,10.00,M,BKN,OVC,M,M,4000.00,5000.00,M,M,M,KEUG 011654Z 21007KT 10SM BKN040 OVC050 11/08 A3025 RMK AO2 SLP244 VIRGA W-NW-DSNT N T01110078
EUG,2017-04-01 16:55,-123.2120,44.1246,M,M,M,210.00,7.00,M,30.25,M,10.00,M,OVC,M,M,M,3800.00,M,M,M,M,KEUG 011655Z AUTO 21007KT 10SM OVC038 A3025 RMK MADISHF
EUG,2017-04-01 17:00,-123.2120,44.1246,M,M,M,220.00,6.00,M,30.25,M,10.00,M,OVC,M,M,M,3700.00,M,M,M,M,KEUG 011700Z AUTO 22006KT 10SM OVC037 A3025 RMK MADISHF
EUG,2017-04-01 17:05,-123.2120,44.1246,M,M,M,230.00,7.00,M,30.25,M,10.00,M,OVC,M,M,M,3700.00,M,M,M,M,KEUG 011705Z AUTO 23007KT 10SM OVC037 A3025 RMK MADISHF
EUG,2017-04-01 17:10,-123.2120,44.1246,M,M,M,230.00,5.00,M,30.25,M,10.00,M,BKN,OVC,M,M,3700.00,4800.00,M,M,M,KEUG 011710Z AUTO 23005KT 10SM BKN037 OVC048 A3025 RMK MADISHF
EUG,2017-04-01 17:15,-123.2120,44.1246,M,M,M,230.00,7.00,M,30.25,M,10.00,M,BKN,OVC,M,M,3600.00,5500.00,M,M,M,KEUG 011715Z AUTO 23007KT 10SM BKN036 OVC055 A3025 RMK MADISHF
EUG,2017-04-01 17:20,-123.2120,44.1246,M,M,M,230.00,5.00,M,30.25,M,10.00,M,SCT,OVC,M,M,3600.00,5500.00,M,M,M,KEUG 011720Z AUTO 23005KT 10SM SCT036 OVC055 A3025 RMK MADISHF
EUG,2017-04-01 17:25,-123.2120,44.1246,M,M,M,220.00,6.00,M,30.25,M,10.00,M,SCT,BKN,OVC,M,3700.00,4900.00,5500.00,M,M,KEUG 011725Z AUTO 22006KT 10SM SCT037 BKN049 OVC055 A3025 RMK MADISHF
EUG,2017-04-01 17:30,-123.2120,44.1246,M,M,M,220.00,5.00,M,30.25,M,10.00,M,FEW,BKN,OVC,M,3500.00,4900.00,6000.00,M,M,KEUG 011730Z AUTO 22005KT 10SM FEW035 BKN049 OVC060 A3025 RMK MADISHF
EUG,2017-04-01 17:35,-123.2120,44.1246,M,M,M,220.00,4.00,M,30.25,M,10.00,M,FEW,BKN,OVC,M,3399.00,5000.00,6000.00,M,M,KEUG 011735Z AUTO 22004KT 10SM FEW033 BKN050 OVC060 A3025 RMK MADISHF
EUG,2017-04-01 17:40,-123.2120,44.1246,M,M,M,230.00,4.00,M,30.26,M,10.00,M,SCT,BKN,OVC,M,3300.00,5000.00,6000.00,M,M,KEUG 011740Z AUTO 23004KT 10SM SCT033 BKN050 OVC060 A3026 RMK MADISHF
EUG,2017-04-01 17:45,-123.2120,44.1246,M,M,M,210.00,3.00,M,30.26,M,10.00,M,SCT,OVC,M,M,3300.00,4800.00,M,M,M,KEUG 011745Z AUTO 21003KT 10SM SCT033 OVC048 A3026 RMK MADISHF
EUG,2017-04-01 17:50,-123.2120,44.1246,M,M,M,240.00,5.00,M,30.26,M,10.00,M,FEW,BKN,OVC,M,3200.00,4700.00,5500.00,M,M,KEUG 011750Z AUTO 24005KT 10SM FEW032 BKN047 OVC055 A3026 RMK  VIRGA MADISHF
EUG,2017-04-01 17:54,-123.2120,44.1246,53.10,44.10,71.40,250.00,4.00,0.00,30.26,1024.90,10.00,M,FEW,BKN,OVC,M,3200.00,4700.00,5500.00,M,M,KEUG 011754Z 25004KT 10SM FEW032 BKN047 OVC055 12/07 A3026 RMK AO2 SLP249 VIRGA T01170067 10117 20061 53002
EUG,2017-04-01 17:55,-123.2120,44.1246,M,M,M,250.00,4.00,M,30.26,M,10.00,M,BKN,BKN,OVC,M,3200.00,4500.00,5000.00,M,M,KEUG 011755Z AUTO 25004KT 10SM BKN032 BKN045 OVC050 A3026 RMK MADISHF
EUG,2017-04-01 18:00,-123.2120,44.1246,M,M,M,240.00,3.00,M,30.26,M,10.00,M,SCT,OVC,M,M,3300.00,4700.00,M,M,M,KEUG 011800Z AUTO 24003KT 10SM SCT033 OVC047 A3026 RMK CIG 032 RNW 34  MADISHF
EUG,2017-04-01 18:05,-123.2120,44.1246,M,M,M,200.00,3.00,M,30.27,M,10.00,M,BKN,OVC,M,M,3200.00,4700.00,M,M,M,KEUG 011805Z AUTO 20003KT 10SM BKN032 OVC047 A3027 RMK MADISHF
EUG,2017-04-01 18:10,-123.2120,44.1246,M,M,M,260.00,3.00,M,30.27,M,10.00,M,SCT,OVC,M,M,3100.00,4700.00,M,M,M,KEUG 011810Z AUTO 26003KT 10SM SCT031 OVC047 A3027 RMK MADISHF
EUG,2017-04-01 18:15,-123.2120,44.1246,M,M,M,0.00,0.00,M,30.26,M,10.00,M,SCT,OVC,M,M,3100.00,4700.00,M,M,M,KEUG 011815Z AUTO 00000KT 10SM SCT031 OVC047 A3026 RMK MADISHF
EUG,2017-04-01 18:20,-123.2120,44.1246,M,M,M,280.00,3.00,M,30.26,M,10.00,M,SCT,OVC,M,M,3100.00,4700.00,M,M,M,KEUG 011820Z AUTO 28003KT 10SM SCT031 OVC047 A3026 RMK MADISHF
EUG,2017-04-01 18:25,-123.2120,44.1246,M,M,M,0.00,0.00,M,30.26,M,10.00,M,SCT,OVC,M,M,3100.00,4700.00,M,M,M,KEUG 011825Z AUTO 00000KT 10SM SCT031 OVC047 A3026 RMK MADISHF
EUG,2017-04-01 18:30,-123.2120,44.1246,M,M,M,290.00,3.00,M,30.26,M,10.00,M,SCT,OVC,M,M,3100.00,4700.00,M,M,M,KEUG 011830Z AUTO 29003KT 10SM SCT031 OVC047 A3026 RMK MADISHF
EUG,2017-04-01 18:35,-123.2120,44.1246,M,M,M,280.00,5.00,M,30.26,M,10.00,M,BKN,OVC,M,M,3000.00,4200.00,M,M,M,KEUG 011835Z AUTO 28005KT 10SM BKN030 OVC042 A3026 RMK MADISHF
EUG,2017-04-01 18:40,-123.2120,44.1246,54.00,46.90,76.83,300.00,5.00,0.00,30.26,M,7.00,M,BKN,OVC,M,M,2800.00,4200.00,M,M,-DZ,KEUG 011840Z 30005KT 7SM -DZ BKN028 OVC042 12/08 A3026 RMK AO2 DZB40 P0000 T01220083
EUG,2017-04-01 18:45,-123.2120,44.1246,M,M,M,330.00,3.00,M,30.26,M,7.00,M,BKN,OVC,M,M,2800.00,4200.00,M,M,-DZ,KEUG 011845Z AUTO 33003KT 7SM -DZ BKN028 OVC042 A3026 RMK MADISHF
EUG,2017-04-01 18:50,-123.2120,44.1246,M,M,M,270.00,4.00,M,30.26,M,8.00,M,BKN,OVC,M,M,2800.00,4200.00,M,M,M,KEUG 011850Z AUTO 27004KT 8SM BKN028 OVC042 A3026 RMK MADISHF
EUG,2017-04-01 18:54,-123.2120,44.1246,54.00,48.00,80.07,250.00,4.00,0.00,30.26,1024.80,8.00,M,BKN,OVC,M,M,2800.00,4200.00,M,M,M,KEUG 011854Z 25004KT 8SM BKN028 OVC042 12/09 A3026 RMK AO2 DZB40E49 SLP248 P0000 T01220089
EUG,2017-04-01 18:55,-123.2120,44.1246,M,M,M,250.00,5.00,M,30.26,M,10.00,M,BKN,OVC,M,M,2600.00,3600.00,M,M,M,KEUG 011855Z AUTO 25005KT 10SM BKN026 OVC036 A3026 RMK MADISHF
EUG,2017-04-01 19:00,-123.2120,44.1246,M,M,M,210.00,3.00,M,30.26,M,10.00,M,BKN,OVC,M,M,2500.00,3600.00,M,M,M,KEUG 011900Z AUTO 21003KT 10SM BKN025 OVC036 A3026 RMK MADISHF
EUG,2017-04-01 19:05,-123.2120,44.1246,M,M,M,260.00,4.00,M,30.26,M,10.00,M,BKN,OVC,M,M,2400.00,3399.00,M,M,M,KEUG 011905Z AUTO 26004KT 10SM BKN024 OVC033 A3026 RMK MADISHF
EUG,2017-04-01 19:10,-123.2120,44.1246,M,M,M,280.00,3.00,M,30.26,M,10.00,M,BKN,OVC,M,M,2300.00,3399.00,M,M,M,KEUG 011910Z AUTO 28003KT 10SM BKN023 OVC033 A3026 RMK MADISHF
EUG,2017-04-01 19:15,-123.2120,44.1246,M,M,M,270.00,3.00,M,30.26,M,10.00,M,BKN,OVC,M,M,2300.00,3600.00,M,M,M,KEUG 011915Z AUTO 27003KT 10SM BKN023 OVC036 A3026 RMK MADISHF
EUG,2017-04-01 19:20,-123.2120,44.1246,M,M,M,240.00,3.00,M,30.26,M,6.00,M,OVC,M,M,M,2200.00,M,M,M,-DZ BR,KEUG 011920Z AUTO 24003KT 6SM -DZ BR OVC022 A3026 RMK MADISHF
EUG,2017-04-01 19:25,-123.2120,44.1246,M,M,M,0.00,0.00,M,30.26,M,4.00,M,BKN,OVC,M,M,2300.00,3999.00,M,M,-DZ BR,KEUG 011925Z AUTO 00000KT 4SM -DZ BR BKN023 OVC039 A3026 RMK MADISHF
EUG,2017-04-01 19:30,-123.2120,44.1246,M,M,M,270.00,3.00,M,30.26,M,3.00,M,BKN,OVC,M,M,2100.00,3300.00,M,M,-DZ BR,KEUG 011930Z AUTO 27003KT 3SM -DZ BR BKN021 OVC033 A3026 RMK VRB03KT  MADISHF
EUG,2017-04-01 19:35,-123.2120,44.1246,M,M,M,0.00,0.00,M,30.26,M,3.00,M,BKN,OVC,M,M,2100.00,3300.00,M,M,-DZ BR,KEUG 011935Z AUTO 00000KT 3SM -DZ BR BKN021 OVC033 A3026 RMK MADISHF
EUG,2017-04-01 19:40,-123.2120,44.1246,M,M,M,0.00,0.00,M,30.26,M,5.00,M,BKN,OVC,M,M,1999.00,3500.00,M,M,-DZ BR,KEUG 011940Z AUTO 00000KT 5SM -DZ BR BKN019 OVC035 A3026 RMK MADISHF
EUG,2017-04-01 19:45,-123.2120,44.1246,M,M,M,0.00,0.00,M,30.26,M,7.00,M,BKN,OVC,M,M,1999.00,3500.00,M,M,M,KEUG 011945Z AUTO 00000KT 7SM BKN019 OVC035 A3026 RMK MADISHF
EUG,2017-04-01 19:50,-123.2120,44.1246,M,M,M,0.00,0.00,M,30.26,M,7.00,M,BKN,OVC,M,M,1999.00,3500.00,M,M,M,KEUG 011950Z AUTO 00000KT 7SM BKN019 OVC035 A3026 RMK MADISHF
EUG,2017-04-01 19:54,-123.2120,44.1246,54.00,48.90,82.82,0.00,0.00,0.00,30.26,1024.90,7.00,M,BKN,OVC,M,M,2000.00,3500.00,M,M,M,KEUG 011954Z 00000KT 7SM BKN020 OVC035 12/09 A3026 RMK AO2 DZB20E44 SLP249 BKN V OVC P0000 T01220094
EUG,2017-04-01 19:55,-123.2120,44.1246,M,M,M,140.00,3.00,M,30.26,M,10.00,M,OVC,M,M,M,1900.00,M,M,M,M,KEUG 011955Z AUTO 14003KT 10SM OVC019 A3026 RMK MADISHF
EUG,2017-04-01 20:00,-123.2120,44.1246,M,M,M,0.00,0.00,M,30.26,M,9.00,M,FEW,OVC,M,M,1200.00,1900.00,M,M,M,KEUG 012000Z AUTO 00000KT 9SM FEW012 OVC019 A3026 RMK MADISHF
EUG,2017-04-01 20:05,-123.2120,44.1246,M,M,M,0.00,0.00,M,30.27,M,9.00,M,OVC,M,M,M,1800.00,M,M,M,M,KEUG 012005Z AUTO 00000KT 9SM OVC018 A3027 RMK MADISHF
EUG,2017-04-01 20:10,-123.2120,44.1246,M,M,M,0.00,0.00,M,30.27,M,4.00,M,OVC,M,M,M,1800.00,M,M,M,-DZ BR,KEUG 012010Z AUTO 00000KT 4SM -DZ BR OVC018 A3027 RMK MADISHF
EUG,2017-04-01 20:15,-123.2120,44.1246,M,M,M,0.00,0.00,M,30.27,M,3.00,M,FEW,BKN,OVC,M,1100.00,1699.00,3000.00,M,-DZ BR,KEUG 012015Z AUTO 00000KT 3SM -DZ BR FEW011 BKN016 OVC030 A3027 RMK MADISHF
EUG,2017-04-01 20:17,-123.2120,44.1246,54.00,51.10,89.88,0.00,0.00,0.00,30.27,M,2.50,M,FEW,OVC,M,M,1000.00,1600.00,M,M,-DZ BR,KEUG 012017Z 00000KT 2 1/2SM -DZ BR FEW010 OVC016 12/11 A3027 RMK AO2 DZB09 VIS 2V3 P0000 T01220106
EUG,2017-04-01 20:20,-123.2120,44.1246,M,M,M,0.00,0.00,M,30.27,M,2.50,M,FEW,OVC,M,M,999.00,1600.00,M,M,-DZ BR,KEUG 012020Z AUTO 00000KT 2 1/2SM -DZ BR FEW009 OVC016 A3027 RMK  VIS 2V3 MADISHF
EUG,2017-04-01 20:25,-123.2120,44.1246,M,M,M,0.00,0.00,M,30.27,M,2.50,M,FEW,OVC,M,M,999.00,1600.00,M,M,-DZ BR,KEUG 012025Z AUTO 00000KT 2 1/2SM -DZ BR FEW009 OVC016 A3027 RMK  VIS 2V3 MADISHF
EUG,2017-04-01 20:30,-123.2120,44.1246,53.10,51.10,92.89,0.00,0.00,0.00,30.27,M,4.00,M,FEW,BKN,OVC,M,1000.00,1600.00,2700.00,M,-RA BR,KEUG 012030Z 00000KT 4SM -RA BR FEW010 BKN016 OVC027 12/11 A3027 RMK AO2 DZB09E30RAB30 VIS 2V3 P0000 T01170106
EUG,2017-04-01 20:35,-123.2120,44.1246,M,M,M,0.00,0.00,M,30.27,M,5.00,M,SCT,BKN,OVC,M,999.00,1600.00,2700.00,M,BR,KEUG 012035Z AUTO 00000KT 5SM BR SCT009 BKN016 OVC027 A3027 RMK MADISHF
EUG,2017-04-01 20:40,-123.2120,44.1246,M,M,M,90.00,3.00,M,30.27,M,4.00,M,SCT,BKN,OVC,M,800.00,1699.00,2500.00,M,BR,KEUG 012040Z AUTO 09003KT 4SM BR SCT008 BKN016 OVC025 A3027 RMK MADISHF
EUG,2017-04-01 20:43,-123.2120,44.1246,53.10,51.10,92.89,M,3.00,0.00,30.27,M,2.50,M,SCT,BKN,OVC,M,800.00,1700.00,2500.00,M,-RA BR,KEUG 012043Z VRB03KT 2 1/2SM -RA BR SCT008 BKN017 OVC025 12/11 A3027 RMK AO2 SFC VIS 3 DZB09E30RAB30 P0000 T01170106
EUG,2017-04-01 20:45,-123.2120,44.1246,M,M,M,90.00,3.00,M,30.27,M,3.00,M,SCT,BKN,OVC,M,800.00,1699.00,2500.00,M,-RA BR,KEUG 012045Z AUTO 09003KT 3SM -RA BR SCT008 BKN016 OVC025 A3027 RMK MADISHF
EUG,2017-04-01 20:50,-123.2120,44.1246,M,M,M,90.00,3.00,M,30.27,M,3.00,M,SCT,BKN,OVC,M,800.00,1699.00,2500.00,M,-RA BR,KEUG 012050Z AUTO 09003KT 3SM -RA BR SCT008 BKN016 OVC025 A3027 RMK MADISHF
EUG,2017-04-01 20:54,-123.2120,44.1246,54.00,52.00,92.92,80.00,3.00,0.01,30.27,1025.20,3.00,M,SCT,BKN,OVC,M,800.00,1700.00,2500.00,M,-RA BR,KEUG 012054Z 08003KT 3SM -RA BR SCT008 BKN017 OVC025 12/11 A3027 RMK AO2 DZB09E30RAB30 SLP252 P0001 60001 T01220111 53003
EUG,2017-04-01 20:55,-123.2120,44.1246,M,M,M,110.00,3.00,M,30.27,M,5.00,M,FEW,BKN,OVC,M,800.00,1900.00,2500.00,M,-RA BR,KEUG 012055Z AUTO 11003KT 5SM -RA BR FEW008 BKN019 OVC025 A3027 RMK VRB03KT VIS 2 1/2 RNW 34  MADISHF
EUG,2017-04-01 21:00,-123.2120,44.1246,M,M,M,100.00,4.00,M,30.27,M,5.00,M,SCT,BKN,OVC,M,700.00,1800.00,2500.00,M,-RA BR,KEUG 012100Z AUTO 10004KT 5SM -RA BR SCT007 BKN018 OVC025 A3027 RMK MADISHF
EUG,2017-04-01 21:05,-123.2120,44.1246,M,M,M,0.00,0.00,M,30.27,M,5.00,M,SCT,BKN,OVC,M,700.00,1800.00,2500.00,M,-RA BR,KEUG 012105Z AUTO 00000KT 5SM -RA BR SCT007 BKN018 OVC025 A3027 RMK MADISHF
EUG,2017-04-01 21:10,-123.2120,44.1246,M,M,M,100.00,3.00,M,30.28,M,5.00,M,SCT,BKN,OVC,M,700.00,1800.00,2500.00,M,-RA BR,KEUG 012110Z AUTO 10003KT 5SM -RA BR SCT007 BKN018 OVC025 A3028 RMK MADISHF
EUG,2017-04-01 21:15,-123.2120,44.1246,M,M,M,90.00,3.00,M,30.28,M,4.00,M,FEW,BKN,OVC,M,600.00,1800.00,2500.00,M,-RA BR,KEUG 012115Z AUTO 09003KT 4SM -RA BR FEW006 BKN018 OVC025 A3028 RMK MADISHF
EUG,2017-04-01 21:20,-123.2120,44.1246,M,M,M,80.00,3.00,M,30.28,M,3.00,M,SCT,OVC,M,M,600.00,1999.00,M,M,-RA BR,KEUG 012120Z AUTO 08003KT 3SM -RA BR SCT006 OVC019 A3028 RMK MADISHF
EUG,2017-04-01 21:23,-123.2120,44.1246,54.00,52.00,92.92,90.00,4.00,0.00,30.27,M,2.50,M,BKN,OVC,M,M,500.00,2000.00,M,M,-RA BR,KEUG 012123Z 09004KT 2 1/2SM -RA BR BKN005 OVC020 12/11 A3027 RMK AO2 TWR VIS 3 VIS 2V3 P0000 T01220111
EUG,2017-04-01 21:25,-123.2120,44.1246,M,M,M,90.00,4.00,M,30.27,M,2.50,M,BKN,OVC,M,M,499.00,1999.00,M,M,-RA BR,KEUG 012125Z AUTO 09004KT 2 1/2SM -RA BR BKN004 OVC019 A3027 RMK  VIS 2V3 MADISHF
EUG,2017-04-01 21:30,-123.2120,44.1246,54.00,52.00,92.92,80.00,3.00,0.00,30.27,M,3.00,M,SCT,OVC,M,M,600.00,2000.00,M,M,BR,KEUG 012130Z 08003KT 3SM BR SCT006 OVC020 12/11 A3027 RMK AO2 SFC VIS 4 RAE30 CIG 007 RNW 34 P0000 T01220111
EUG,2017-04-01 21:35,-123.2120,44.1246,M,M,M,70.00,3.00,M,30.27,M,4.00,M,SCT,OVC,M,M,600.00,1999.00,M,M,BR,KEUG 012135Z AUTO 07003KT 4SM BR SCT006 OVC019 A3027 RMK CIG 007 RNW 34  MADISHF
EUG,2017-04-01 21:40,-123.2120,44.1246,M,M,M,0.00,0.00,M,30.27,M,4.00,M,SCT,OVC,M,M,600.00,1999.00,M,M,BR,KEUG 012140Z AUTO 00000KT 4SM BR SCT006 OVC019 A3027 RMK CIG 007 RNW 34  MADISHF
EUG,2017-04-01 21:45,-123.2120,44.1246,M,M,M,0.00,0.00,M,30.27,M,4.00,M,SCT,OVC,M,M,600.00,1999.00,M,M,BR,KEUG 012145Z AUTO 00000KT 4SM BR SCT006 OVC019 A3027 RMK CIG 007 RNW 34  MADISHF
EUG,2017-04-01 21:50,-123.2120,44.1246,M,M,M,80.00,3.00,M,30.27,M,6.00,M,SCT,OVC,M,M,700.00,1999.00,M,M,BR,KEUG 012150Z AUTO 08003KT 6SM BR SCT007 OVC019 A3027 RMK VIS 1 1/2 RNW 34  MADISHF
EUG,2017-04-01 21:54,-123.2120,44.1246,54.00,52.00,92.92,M,3.00,0.00,30.27,1025.00,6.00,M,SCT,OVC,M,M,700.00,2000.00,M,M,BR,KEUG 012154Z VRB03KT 6SM BR SCT007 OVC020 12/11 A3027 RMK AO2 RAE30 SLP250 P0000 T01220111
EUG,2017-04-01 21:55,-123.2120,44.1246,M,M,M,60.00,3.00,M,30.27,M,10.00,M,SCT,OVC,M,M,700.00,1999.00,M,M,M,KEUG 012155Z AUTO 06003KT 10SM SCT007 OVC019 A3027 RMK VIS 2 RNW 34 CIG 007 RNW 34  MADISHF
EUG,2017-04-01 22:00,-123.2120,44.1246,M,M,M,70.00,3.00,M,30.26,M,10.00,M,SCT,OVC,M,M,700.00,1999.00,M,M,M,KEUG 012200Z AUTO 07003KT 10SM SCT007 OVC019 A3026 RMK CIG 007 RNW 34  MADISHF
EUG,2017-04-01 22:05,-123.2120,44.1246,M,M,M,70.00,4.00,M,30.27,M,10.00,M,SCT,OVC,M,M,700.00,1999.00,M,M,M,KEUG 012205Z AUTO 07004KT 10SM SCT007 OVC019 A3027 RMK CIG 007 RNW 34  MADISHF
EUG,2017-04-01 22:10,-123.2120,44.1246,M,M,M,50.00,4.00,M,30.27,M,10.00,M,SCT,OVC,M,M,700.00,1999.00,M,M,M,KEUG 012210Z AUTO 05004KT 10SM SCT007 OVC019 A3027 RMK MADISHF
EUG,2017-04-01 22:15,-123.2120,44.1246,M,M,M,70.00,3.00,M,30.27,M,10.00,M,SCT,OVC,M,M,700.00,1999.00,M,M,M,KEUG 012215Z AUTO 07003KT 10SM SCT007 OVC019 A3027 RMK VRB03KT  MADISHF
EUG,2017-04-01 22:20,-123.2120,44.1246,M,M,M,30.00,3.00,M,30.27,M,10.00,M,SCT,OVC,M,M,700.00,2300.00,M,M,M,KEUG 012220Z AUTO 03003KT 10SM SCT007 OVC023 A3027 RMK MADISHF
EUG,2017-04-01 22:25,-123.2120,44.1246,M,M,M,40.00,3.00,M,30.27,M,10.00,M,SCT,OVC,M,M,700.00,2300.00,M,M,M,KEUG 012225Z AUTO 04003KT 10SM SCT007 OVC023 A3027 RMK MADISHF
EUG,2017-04-01 22:30,-123.2120,44.1246,M,M,M,60.00,5.00,M,30.26,M,10.00,M,SCT,BKN,OVC,M,800.00,2300.00,4700.00,M,M,KEUG 012230Z AUTO 06005KT 10SM SCT008 BKN023 OVC047 A3026 RMK MADISHF
EUG,2017-04-01 22:35,-123.2120,44.1246,M,M,M,60.00,5.00,M,30.26,M,10.00,M,SCT,BKN,OVC,M,800.00,2300.00,3700.00,M,M,KEUG 012235Z AUTO 06005KT 10SM SCT008 BKN023 OVC037 A3026 RMK MADISHF
EUG,2017-04-01 22:40,-123.2120,44.1246,M,M,M,60.00,5.00,M,30.26,M,10.00,M,SCT,BKN,OVC,M,800.00,2300.00,3700.00,M,M,KEUG 012240Z AUTO 06005KT 10SM SCT008 BKN023 OVC037 A3026 RMK MADISHF
EUG,2017-04-01 22:45,-123.2120,44.1246,M,M,M,30.00,6.00,M,30.26,M,10.00,M,SCT,BKN,OVC,M,900.00,2300.00,3700.00,M,M,KEUG 012245Z AUTO 03006KT 10SM SCT009 BKN023 OVC037 A3026 RMK MADISHF
EUG,2017-04-01 22:50,-123.2120,44.1246,M,M,M,30.00,5.00,M,30.26,M,10.00,M,SCT,BKN,OVC,M,999.00,1699.00,3300.00,M,M,KEUG 012250Z AUTO 03005KT 10SM SCT009 BKN016 OVC033 A3026 RMK MADISHF
EUG,2017-04-01 22:54,-123.2120,44.1246,55.90,52.00,86.71,30.00,5.00,0.00,30.26,1024.90,10.00,M,SCT,BKN,OVC,M,1000.00,1700.00,3300.00,M,M,KEUG 012254Z 03005KT 10SM SCT010 BKN017 OVC033 13/11 A3026 RMK AO2 SLP249 T01330111
EUG,2017-04-01 22:55,-123.2120,44.1246,M,M,M,20.00,6.00,M,30.26,M,10.00,M,SCT,BKN,OVC,M,999.00,1400.00,3000.00,M,M,KEUG 012255Z AUTO 02006KT 10SM SCT009 BKN014 OVC030 A3026 RMK MADISHF
EUG,2017-04-01 23:00,-123.2120,44.1246,M,M,M,10.00,6.00,M,30.26,M,10.00,M,SCT,BKN,OVC,M,999.00,1500.00,3000.00,M,M,KEUG 012300Z AUTO 01006KT 10SM SCT009 BKN015 OVC030 A3026 RMK MADISHF
EUG,2017-04-01 23:05,-123.2120,44.1246,M,M,M,40.00,7.00,M,30.26,M,10.00,M,FEW,BKN,OVC,M,1200.00,1800.00,2300.00,M,M,KEUG 012305Z AUTO 04007KT 10SM FEW012 BKN018 OVC023 A3026 RMK MADISHF
EUG,2017-04-01 23:10,-123.2120,44.1246,M,M,M,20.00,7.00,M,30.26,M,10.00,M,FEW,BKN,OVC,M,1200.00,1800.00,2300.00,M,M,KEUG 012310Z AUTO 02007KT 10SM FEW012 BKN018 OVC023 A3026 RMK MADISHF
EUG,2017-04-01 23:15,-123.2120,44.1246,M,M,M,20.00,7.00,M,30.26,M,10.00,M,FEW,OVC,M,M,1200.00,1800.00,M,M,M,KEUG 012315Z AUTO 02007KT 10SM FEW012 OVC018 A3026 RMK MADISHF
EUG,2017-04-01 23:20,-123.2120,44.1246,M,M,M,30.00,6.00,M,30.26,M,10.00,M,FEW,OVC,M,M,1200.00,1800.00,M,M,M,KEUG 012320Z AUTO 03006KT 10SM FEW012 OVC018 A3026 RMK MADISHF
EUG,2017-04-01 23:25,-123.2120,44.1246,M,M,M,30.00,5.00,M,30.26,M,10.00,M,FEW,OVC,M,M,1200.00,1800.00,M,M,M,KEUG 012325Z AUTO 03005KT 10SM FEW012 OVC018 A3026 RMK MADISHF
EUG,2017-04-01 23:30,-123.2120,44.1246,M,M,M,40.00,5.00,M,30.26,M,10.00,M,FEW,OVC,M,M,1200.00,1800.00,M,M,M,KEUG 012330Z AUTO 04005KT 10SM FEW012 OVC018 A3026 RMK MADISHF
EUG,2017-04-01 23:35,-123.2120,44.1246,M,M,M,40.00,5.00,M,30.26,M,10.00,M,FEW,OVC,M,M,1200.00,1800.00,M,M,M,KEUG 012335Z AUTO 04005KT 10SM FEW012 OVC018 A3026 RMK MADISHF
EUG,2017-04-01 23:40,-123.2120,44.1246,M,M,M,50.00,5.00,M,30.26,M,10.00,M,OVC,M,M,M,1699.00,M,M,M,M,KEUG 012340Z AUTO 05005KT 10SM OVC016 A3026 RMK MADISHF
EUG,2017-04-01 23:45,-123.2120,44.1246,M,M,M,40.00,6.00,M,30.26,M,10.00,M,OVC,M,M,M,1699.00,M,M,M,M,KEUG 012345Z AUTO 04006KT 10SM OVC016 A3026 RMK MADISHF
EUG,2017-04-01 23:50,-123.2120,44.1246,M,M,M,40.00,6.00,M,30.26,M,10.00,M,FEW,OVC,M,M,1200.00,1699.00,M,M,M,KEUG 012350Z AUTO 04006KT 10SM FEW012 OVC016 A3026 RMK MADISHF
EUG,2017-04-01 23:54,-123.2120,44.1246,55.90,51.10,83.88,40.00,4.00,0.00,30.26,1024.90,10.00,M,FEW,OVC,M,M,1200.00,1700.00,M,M,M,KEUG 012354Z 04004KT 10SM FEW012 OVC017 13/11 A3026 RMK AO2 SLP249 60001 T01330106 10133 20117 55003
EUG,2017-04-01 23:55,-123.2120,44.1246,M,M,M,40.00,4.00,M,30.26,M,10.00,M,OVC,M,M,M,1699.00,M,M,M,M,KEUG 012355Z AUTO 04004KT 10SM OVC016 A3026 RMK MADISHF
