#DEBUG: Format Typ    -> comma
#DEBUG: Time Period   -> 2017-04-01 00:00:00+00:00 2017-04-02 00:00:00+00:00
#DEBUG: Time Zone     -> Etc/UTC
#DEBUG: Data Contact   -> daryl herzmann akrherz@iastate.edu 515-294-5978
#DEBUG: Entries Found -> -1
station,valid,lon,lat,tmpf, dwpf, relh, drct, sknt, p01i, alti, mslp, vsby, gust, skyc1, skyc2, skyc3, skyc4, skyl1, skyl2, skyl3, skyl4, presentwx, metar
EVV,2017-04-01 00:00,-87.5205,38.0441,M,M,M,320.00,8.00,M,29.97,M,10.00,M,BKN,OVC,M,M,1800.00,2700.00,M,M,M,KEVV 010000Z AUTO 32008KT 10SM BKN018 OVC027 A2997 RMK MADISHF
EVV,2017-04-01 00:05,-87.5205,38.0441,M,M,M,330.00,5.00,M,29.97,M,10.00,M,BKN,OVC,M,M,1800.00,2500.00,M,M,M,KEVV 010005Z AUTO 33005KT 10SM BKN018 OVC025 A2997 RMK MADISHF
EVV,2017-04-01 00:10,-87.5205,38.0441,M,M,M,330.00,9.00,M,29.97,M,10.00,M,BKN,OVC,M,M,1999.00,2500.00,M,M,M,KEVV 010010Z AUTO 33009KT 10SM BKN019 OVC025 A2997 RMK MADISHF
EVV,2017-04-01 00:15,-87.5205,38.0441,M,M,M,320.00,8.00,M,29.97,M,10.00,M,BKN,OVC,M,M,1800.00,2500.00,M,M,M,KEVV 010015Z AUTO 32008KT 10SM BKN018 OVC025 A2997 RMK MADISHF
EVV,2017-04-01 00:20,-87.5205,38.0441,M,M,M,320.00,5.00,M,29.97,M,10.00,M,BKN,OVC,M,M,1800.00,2500.00,M,M,M,KEVV 010020Z AUTO 32005KT 10SM BKN018 OVC025 A2997 RMK MADISHF
EVV,2017-04-01 00:25,-87.5205,38.0441,M,M,M,330.00,9.00,M,29.98,M,10.00,15.00,SCT,OVC,M,M,1600.00,2500.00,M,M,M,KEVV 010025Z AUTO 33009G15KT 10SM SCT016 OVC025 A2998 RMK MADISHF
EVV,2017-04-01 00:30,-87.5205,38.0441,M,M,M,320.00,7.00,M,29.98,M,10.00,M,BKN,OVC,M,M,1900.00,2500.00,M,M,M,KEVV 010030Z AUTO 32007KT 10SM BKN019 OVC025 A2998 RMK MADISHF
EVV,2017-04-01 00:35,-87.5205,38.0441,M,M,M,330.00,9.00,M,29.98,M,10.00,M,BKN,OVC,M,M,1999.00,2600.00,M,M,M,KEVV 010035Z AUTO 33009KT 10SM BKN019 OVC026 A2998 RMK MADISHF
EVV,2017-04-01 00:40,-87.5205,38.0441,M,M,M,320.00,6.00,M,29.98,M,10.00,M,FEW,BKN,OVC,M,1500.00,1999.00,2600.00,M,M,KEVV 010040Z AUTO 32006KT 10SM FEW015 BKN019 OVC026 A2998 RMK MADISHF
EVV,2017-04-01 00:45,-87.5205,38.0441,M,M,M,320.00,6.00,M,29.99,M,10.00,M,OVC,M,M,M,1999.00,M,M,M,M,KEVV 010045Z AUTO 32006KT 10SM OVC019 A2999 RMK MADISHF
EVV,2017-04-01 00:50,-87.5205,38.0441,M,M,M,320.00,7.00,M,29.99,M,10.00,M,OVC,M,M,M,1999.00,M,M,M,M,KEVV 010050Z AUTO 32007KT 10SM OVC019 A2999 RMK WND 29V36  MADISHF
EVV,2017-04-01 00:54,-87.5205,38.0441,46.00,39.90,79.13,330.00,6.00,0.00,29.99,1015.50,10.00,M,OVC,M,M,M,1900.00,M,M,M,M,KEVV 010054Z 33006KT 10SM OVC019 08/04 A2999 RMK AO2 SLP155 T00780044 $
EVV,2017-04-01 00:55,-87.5205,38.0441,M,M,M,330.00,7.00,M,29.99,M,10.00,M,OVC,M,M,M,1900.00,M,M,M,M,KEVV 010055Z AUTO 33007KT 10SM OVC019 A2999 RMK MADISHF
EVV,2017-04-01 01:00,-87.5205,38.0441,M,M,M,320.00,5.00,M,29.99,M,10.00,M,OVC,M,M,M,1900.00,M,M,M,M,KEVV 010100Z AUTO 32005KT 10SM OVC019 A2999 RMK MADISHF
EVV,2017-04-01 01:05,-87.5205,38.0441,M,M,M,330.00,6.00,M,29.99,M,10.00,M,OVC,M,M,M,1800.00,M,M,M,M,KEVV 010105Z AUTO 33006KT 10SM OVC018 A2999 RMK MADISHF
EVV,2017-04-01 01:10,-87.5205,38.0441,M,M,M,340.00,5.00,M,29.99,M,10.00,M,OVC,M,M,M,1600.00,M,M,M,M,KEVV 010110Z AUTO 34005KT 10SM OVC016 A2999 RMK MADISHF
EVV,2017-04-01 01:15,-87.5205,38.0441,M,M,M,330.00,6.00,M,29.99,M,10.00,M,OVC,M,M,M,1600.00,M,M,M,M,KEVV 010115Z AUTO 33006KT 10SM OVC016 A2999 RMK MADISHF
EVV,2017-04-01 01:20,-87.5205,38.0441,M,M,M,340.00,7.00,M,30.00,M,10.00,M,OVC,M,M,M,1400.00,M,M,M,M,KEVV 010120Z AUTO 34007KT 10SM OVC014 A3000 RMK MADISHF
EVV,2017-04-01 01:25,-87.5205,38.0441,46.00,39.90,79.13,330.00,6.00,0.00,30.00,M,10.00,M,OVC,M,M,M,1400.00,M,M,M,M,KEVV 010125Z 33006KT 10SM OVC014 08/04 A3000 RMK AO2 T00780044 $
EVV,2017-04-01 01:30,-87.5205,38.0441,M,M,M,320.00,5.00,M,30.01,M,10.00,M,OVC,M,M,M,1400.00,M,M,M,M,KEVV 010130Z AUTO 32005KT 10SM OVC014 A3001 RMK MADISHF
EVV,2017-04-01 01:35,-87.5205,38.0441,M,M,M,330.00,6.00,M,30.01,M,10.00,M,OVC,M,M,M,1400.00,M,M,M,M,KEVV 010135Z AUTO 33006KT 10SM OVC014 A3001 RMK MADISHF
EVV,2017-04-01 01:40,-87.5205,38.0441,M,M,M,320.00,4.00,M,30.01,M,10.00,M,OVC,M,M,M,1500.00,M,M,M,M,KEVV 010140Z AUTO 32004KT 10SM OVC015 A3001 RMK MADISHF
EVV,2017-04-01 01:42,-87.5205,38.0441,46.00,41.00,82.58,320.00,6.00,0.00,30.01,M,10.00,M,OVC,M,M,M,1500.00,M,M,M,M,KEVV 010142Z 32006KT 10SM OVC015 08/05 A3001 RMK AO2 T00780050 $
EVV,2017-04-01 01:45,-87.5205,38.0441,M,M,M,320.00,4.00,M,30.01,M,10.00,M,OVC,M,M,M,1500.00,M,M,M,M,KEVV 010145Z AUTO 32004KT 10SM OVC015 A3001 RMK MADISHF
EVV,2017-04-01 01:50,-87.5205,38.0441,M,M,M,310.00,5.00,M,30.02,M,10.00,M,OVC,M,M,M,1600.00,M,M,M,M,KEVV 010150Z AUTO 31005KT 10SM OVC016 A3002 RMK VRB05KT  MADISHF
EVV,2017-04-01 01:54,-87.5205,38.0441,46.00,39.90,79.13,340.00,6.00,0.00,30.02,1016.60,10.00,M,OVC,M,M,M,1600.00,M,M,M,M,KEVV 010154Z 34006KT 10SM OVC016 08/04 A3002 RMK AO2 SLP166 T00780044 $
EVV,2017-04-01 01:55,-87.5205,38.0441,M,M,M,320.00,5.00,M,30.02,M,10.00,M,OVC,M,M,M,1600.00,M,M,M,M,KEVV 010155Z AUTO 32005KT 10SM OVC016 A3002 RMK MADISHF
EVV,2017-04-01 02:00,-87.5205,38.0441,M,M,M,320.00,5.00,M,30.02,M,10.00,M,BKN,OVC,M,M,1300.00,1800.00,M,M,M,KEVV 010200Z AUTO 32005KT 10SM BKN013 OVC018 A3002 RMK MADISHF
EVV,2017-04-01 02:05,-87.5205,38.0441,M,M,M,330.00,3.00,M,30.02,M,10.00,M,OVC,M,M,M,1500.00,M,M,M,M,KEVV 010205Z AUTO 33003KT 10SM OVC015 A3002 RMK MADISHF
EVV,2017-04-01 02:10,-87.5205,38.0441,M,M,M,320.00,6.00,M,30.02,M,10.00,M,BKN,OVC,M,M,1300.00,1800.00,M,M,M,KEVV 010210Z AUTO 32006KT 10SM BKN013 OVC018 A3002 RMK MADISHF
EVV,2017-04-01 02:12,-87.5205,38.0441,46.00,41.00,82.58,310.00,6.00,0.00,30.02,M,10.00,M,BKN,OVC,M,M,1300.00,1800.00,M,M,M,KEVV 010212Z 31006KT 10SM BKN013 OVC018 08/05 A3002 RMK AO2 T00780050 $
EVV,2017-04-01 02:15,-87.5205,38.0441,M,M,M,320.00,4.00,M,30.02,M,10.00,M,BKN,OVC,M,M,1300.00,1800.00,M,M,M,KEVV 010215Z AUTO 32004KT 10SM BKN013 OVC018 A3002 RMK MADISHF
EVV,2017-04-01 02:20,-87.5205,38.0441,M,M,M,310.00,6.00,M,30.03,M,10.00,M,SCT,OVC,M,M,1300.00,1999.00,M,M,M,KEVV 010220Z AUTO 31006KT 10SM SCT013 OVC019 A3003 RMK MADISHF
EVV,2017-04-01 02:25,-87.5205,38.0441,46.00,39.90,79.13,310.00,5.00,0.00,30.03,M,10.00,M,SCT,BKN,OVC,M,1300.00,2000.00,2700.00,M,M,KEVV 010225Z 31005KT 10SM SCT013 BKN020 OVC027 08/04 A3003 RMK AO2 T00780044 $
EVV,2017-04-01 02:30,-87.5205,38.0441,M,M,M,310.00,5.00,M,30.03,M,10.00,M,FEW,BKN,OVC,M,1300.00,1999.00,2700.00,M,M,KEVV 010230Z AUTO 31005KT 10SM FEW013 BKN019 OVC027 A3003 RMK MADISHF
EVV,2017-04-01 02:35,-87.5205,38.0441,M,M,M,310.00,5.00,M,30.03,M,10.00,M,FEW,OVC,M,M,1300.00,1999.00,M,M,M,KEVV 010235Z AUTO 31005KT 10SM FEW013 OVC019 A3003 RMK MADISHF
EVV,2017-04-01 02:40,-87.5205,38.0441,M,M,M,320.00,5.00,M,30.03,M,10.00,M,FEW,BKN,OVC,M,1500.00,1999.00,2800.00,M,M,KEVV 010240Z AUTO 32005KT 10SM FEW015 BKN019 OVC028 A3003 RMK VRB05KT  MADISHF
EVV,2017-04-01 02:45,-87.5205,38.0441,M,M,M,320.00,7.00,M,30.04,M,10.00,M,BKN,BKN,OVC,M,1699.00,2200.00,2800.00,M,M,KEVV 010245Z AUTO 32007KT 10SM BKN016 BKN022 OVC028 A3004 RMK MADISHF
EVV,2017-04-01 02:50,-87.5205,38.0441,M,M,M,300.00,6.00,M,30.04,M,10.00,M,SCT,BKN,OVC,M,1400.00,1999.00,2700.00,M,M,KEVV 010250Z AUTO 30006KT 10SM SCT014 BKN019 OVC027 A3004 RMK MADISHF
EVV,2017-04-01 02:54,-87.5205,38.0441,46.00,39.90,79.13,310.00,4.00,0.00,30.04,1017.30,10.00,M,SCT,BKN,OVC,M,1400.00,2000.00,3000.00,M,M,KEVV 010254Z 31004KT 10SM SCT014 BKN020 OVC030 08/04 A3004 RMK AO2 SLP173 T00780044 52024 $
EVV,2017-04-01 02:55,-87.5205,38.0441,M,M,M,300.00,5.00,M,30.04,M,10.00,M,SCT,BKN,OVC,M,1400.00,1999.00,2600.00,M,M,KEVV 010255Z AUTO 30005KT 10SM SCT014 BKN019 OVC026 A3004 RMK MADISHF
EVV,2017-04-01 03:00,-87.5205,38.0441,M,M,M,280.00,7.00,M,30.04,M,10.00,M,SCT,BKN,OVC,M,1400.00,1900.00,3100.00,M,M,KEVV 010300Z AUTO 28007KT 10SM SCT014 BKN019 OVC031 A3004 RMK MADISHF
EVV,2017-04-01 03:05,-87.5205,38.0441,M,M,M,310.00,5.00,M,30.04,M,10.00,M,SCT,BKN,OVC,M,1400.00,1900.00,2900.00,M,M,KEVV 010305Z AUTO 31005KT 10SM SCT014 BKN019 OVC029 A3004 RMK MADISHF
EVV,2017-04-01 03:10,-87.5205,38.0441,M,M,M,310.00,5.00,M,30.04,M,10.00,M,SCT,BKN,OVC,M,1400.00,1800.00,2700.00,M,M,KEVV 010310Z AUTO 31005KT 10SM SCT014 BKN018 OVC027 A3004 RMK MADISHF
EVV,2017-04-01 03:15,-87.5205,38.0441,M,M,M,310.00,6.00,M,30.04,M,10.00,M,SCT,BKN,OVC,M,1400.00,1800.00,2700.00,M,M,KEVV 010315Z AUTO 31006KT 10SM SCT014 BKN018 OVC027 A3004 RMK MADISHF
EVV,2017-04-01 03:20,-87.5205,38.0441,M,M,M,310.00,4.00,M,30.04,M,10.00,M,SCT,BKN,OVC,M,1300.00,1800.00,2700.00,M,M,KEVV 010320Z AUTO 31004KT 10SM SCT013 BKN018 OVC027 A3004 RMK MADISHF
EVV,2017-04-01 03:25,-87.5205,38.0441,M,M,M,320.00,5.00,M,30.05,M,9.00,M,BKN,OVC,M,M,1300.00,2800.00,M,M,M,KEVV 010325Z AUTO 32005KT 9SM BKN013 OVC028 A3005 RMK MADISHF
EVV,2017-04-01 03:28,-87.5205,38.0441,46.00,39.90,79.13,310.00,5.00,0.00,30.05,M,9.00,M,BKN,OVC,M,M,1300.00,2800.00,M,M,M,KEVV 010328Z 31005KT 9SM BKN013 OVC028 08/04 A3005 RMK AO2 T00780044 $
EVV,2017-04-01 03:30,-87.5205,38.0441,M,M,M,320.00,6.00,M,30.05,M,8.00,M,BKN,OVC,M,M,1300.00,2800.00,M,M,M,KEVV 010330Z AUTO 32006KT 8SM BKN013 OVC028 A3005 RMK MADISHF
EVV,2017-04-01 03:35,-87.5205,38.0441,M,M,M,340.00,6.00,M,30.04,M,5.00,M,BKN,BKN,OVC,M,1100.00,1699.00,2800.00,M,-RA BR,KEVV 010335Z AUTO 34006KT 5SM -RA BR BKN011 BKN016 OVC028 A3004 RMK MADISHF
EVV,2017-04-01 03:40,-87.5205,38.0441,M,M,M,340.00,7.00,M,30.05,M,5.00,M,BKN,OVC,M,M,1300.00,1999.00,M,M,-RA BR,KEVV 010340Z AUTO 34007KT 5SM -RA BR BKN013 OVC019 A3005 RMK MADISHF
EVV,2017-04-01 03:45,-87.5205,38.0441,M,M,M,330.00,6.00,M,30.05,M,6.00,M,OVC,M,M,M,1300.00,M,M,M,-RA BR,KEVV 010345Z AUTO 33006KT 6SM -RA BR OVC013 A3005 RMK MADISHF
EVV,2017-04-01 03:50,-87.5205,38.0441,M,M,M,320.00,6.00,M,30.05,M,7.00,M,OVC,M,M,M,1300.00,M,M,M,-RA,KEVV 010350Z AUTO 32006KT 7SM -RA OVC013 A3005 RMK MADISHF
EVV,2017-04-01 03:54,-87.5205,38.0441,45.00,41.00,85.77,310.00,5.00,0.00,30.05,1017.70,7.00,M,BKN,BKN,OVC,M,1100.00,1600.00,2300.00,M,-RA,KEVV 010354Z AUTO 31005KT 7SM -RA BKN011 BKN016 OVC023 07/05 A3005 RMK AO2 RAB35 SLP177 P0000 T00720050 $
EVV,2017-04-01 03:55,-87.5205,38.0441,M,M,M,320.00,5.00,M,30.05,M,8.00,M,SCT,BKN,OVC,M,1100.00,1600.00,2300.00,M,-RA,KEVV 010355Z AUTO 32005KT 8SM -RA SCT011 BKN016 OVC023 A3005 RMK MADISHF
EVV,2017-04-01 04:00,-87.5205,38.0441,M,M,M,330.00,5.00,M,30.05,M,10.00,M,FEW,BKN,OVC,M,1100.00,1600.00,3000.00,M,M,KEVV 010400Z AUTO 33005KT 10SM FEW011 BKN016 OVC030 A3005 RMK MADISHF
EVV,2017-04-01 04:02,-87.5205,38.0441,45.00,41.00,85.77,330.00,6.00,0.00,30.05,M,10.00,M,FEW,BKN,OVC,M,900.00,2300.00,3000.00,M,M,KEVV 010402Z AUTO 33006KT 10SM FEW009 BKN023 OVC030 07/05 A3005 RMK AO2 RAE0356 P0000 T00720050 $
EVV,2017-04-01 04:05,-87.5205,38.0441,M,M,M,350.00,5.00,M,30.05,M,10.00,M,SCT,BKN,OVC,M,1500.00,2300.00,3000.00,M,M,KEVV 010405Z AUTO 35005KT 10SM SCT015 BKN023 OVC030 A3005 RMK MADISHF
EVV,2017-04-01 04:10,-87.5205,38.0441,M,M,M,340.00,6.00,M,30.05,M,10.00,M,FEW,BKN,OVC,M,1100.00,2300.00,2900.00,M,M,KEVV 010410Z AUTO 34006KT 10SM FEW011 BKN023 OVC029 A3005 RMK MADISHF
EVV,2017-04-01 04:15,-87.5205,38.0441,M,M,M,330.00,4.00,M,30.05,M,10.00,M,SCT,BKN,OVC,M,1500.00,2300.00,2900.00,M,M,KEVV 010415Z AUTO 33004KT 10SM SCT015 BKN023 OVC029 A3005 RMK MADISHF
EVV,2017-04-01 04:20,-87.5205,38.0441,M,M,M,330.00,6.00,M,30.05,M,10.00,M,FEW,BKN,OVC,M,999.00,2300.00,2900.00,M,M,KEVV 010420Z AUTO 33006KT 10SM FEW009 BKN023 OVC029 A3005 RMK MADISHF
EVV,2017-04-01 04:25,-87.5205,38.0441,M,M,M,340.00,5.00,M,30.05,M,10.00,M,FEW,BKN,OVC,M,999.00,2300.00,2900.00,M,M,KEVV 010425Z AUTO 34005KT 10SM FEW009 BKN023 OVC029 A3005 RMK MADISHF
EVV,2017-04-01 04:30,-87.5205,38.0441,M,M,M,340.00,5.00,M,30.06,M,10.00,M,BKN,BKN,OVC,M,1300.00,2200.00,2900.00,M,M,KEVV 010430Z AUTO 34005KT 10SM BKN013 BKN022 OVC029 A3006 RMK MADISHF
EVV,2017-04-01 04:35,-87.5205,38.0441,M,M,M,340.00,5.00,M,30.06,M,9.00,M,SCT,BKN,OVC,M,999.00,1600.00,2800.00,M,M,KEVV 010435Z AUTO 34005KT 9SM SCT009 BKN016 OVC028 A3006 RMK MADISHF
EVV,2017-04-01 04:40,-87.5205,38.0441,M,M,M,340.00,5.00,M,30.06,M,8.00,M,BKN,BKN,OVC,M,999.00,1400.00,1900.00,M,M,KEVV 010440Z AUTO 34005KT 8SM BKN009 BKN014 OVC019 A3006 RMK MADISHF
EVV,2017-04-01 04:42,-87.5205,38.0441,45.00,41.00,85.77,320.00,4.00,0.00,30.06,M,9.00,M,BKN,OVC,M,M,1000.00,1600.00,M,M,M,KEVV 010442Z AUTO 32004KT 9SM BKN010 OVC016 07/05 A3006 RMK AO2 RAE0356 P0000 T00720050 $
EVV,2017-04-01 04:45,-87.5205,38.0441,M,M,M,320.00,4.00,M,30.06,M,9.00,M,BKN,OVC,M,M,999.00,1600.00,M,M,M,KEVV 010445Z AUTO 32004KT 9SM BKN009 OVC016 A3006 RMK MADISHF
EVV,2017-04-01 04:50,-87.5205,38.0441,M,M,M,340.00,3.00,M,30.07,M,9.00,M,SCT,BKN,OVC,M,999.00,1600.00,2200.00,M,M,KEVV 010450Z AUTO 34003KT 9SM SCT009 BKN016 OVC022 A3007 RMK MADISHF
EVV,2017-04-01 04:54,-87.5205,38.0441,45.00,41.00,85.77,340.00,3.00,0.00,30.07,1018.30,9.00,M,SCT,BKN,OVC,M,1000.00,1600.00,2200.00,M,M,KEVV 010454Z AUTO 34003KT 9SM SCT010 BKN016 OVC022 07/05 A3007 RMK AO2 RAE0356 SLP183 P0000 T00720050 $
EVV,2017-04-01 04:55,-87.5205,38.0441,M,M,M,320.00,4.00,M,30.07,M,9.00,M,SCT,BKN,OVC,M,999.00,1600.00,2200.00,M,M,KEVV 010455Z AUTO 32004KT 9SM SCT009 BKN016 OVC022 A3007 RMK MADISHF
EVV,2017-04-01 05:00,-87.5205,38.0441,M,M,M,330.00,4.00,M,30.07,M,9.00,M,BKN,BKN,OVC,M,999.00,1600.00,1999.00,M,-RA,KEVV 010500Z AUTO 33004KT 9SM -RA BKN009 BKN016 OVC019 A3007 RMK MADISHF
EVV,2017-04-01 05:04,-87.5205,38.0441,45.00,41.00,85.77,0.00,0.00,0.00,30.07,M,9.00,M,BKN,BKN,OVC,M,1000.00,1700.00,2100.00,M,-RA,KEVV 010504Z AUTO 00000KT 9SM -RA BKN010 BKN017 OVC021 07/05 A3007 RMK AO2 RAB0459 P0000 T00720050 $
EVV,2017-04-01 05:05,-87.5205,38.0441,M,M,M,330.00,3.00,M,30.07,M,9.00,M,BKN,BKN,OVC,M,999.00,1699.00,2100.00,M,-RA,KEVV 010505Z AUTO 33003KT 9SM -RA BKN009 BKN016 OVC021 A3007 RMK MADISHF
EVV,2017-04-01 05:10,-87.5205,38.0441,M,M,M,340.00,3.00,M,30.07,M,10.00,M,SCT,BKN,OVC,M,999.00,1699.00,2100.00,M,M,KEVV 010510Z AUTO 34003KT 10SM SCT009 BKN016 OVC021 A3007 RMK MADISHF
EVV,2017-04-01 05:15,-87.5205,38.0441,45.00,41.00,85.77,360.00,3.00,0.00,30.07,M,10.00,M,SCT,BKN,OVC,M,1000.00,1500.00,2100.00,M,M,KEVV 010515Z AUTO 36003KT 10SM SCT010 BKN015 OVC021 07/05 A3007 RMK AO2 RAB0459E08 P0000 T00720050 $
EVV,2017-04-01 05:20,-87.5205,38.0441,M,M,M,350.00,4.00,M,30.08,M,10.00,M,SCT,BKN,OVC,M,999.00,1699.00,2300.00,M,M,KEVV 010520Z AUTO 35004KT 10SM SCT009 BKN016 OVC023 A3008 RMK MADISHF
EVV,2017-04-01 05:25,-87.5205,38.0441,M,M,M,340.00,4.00,M,30.08,M,10.00,M,BKN,OVC,M,M,999.00,2100.00,M,M,M,KEVV 010525Z AUTO 34004KT 10SM BKN009 OVC021 A3008 RMK MADISHF
EVV,2017-04-01 05:27,-87.5205,38.0441,45.00,41.00,85.77,340.00,4.00,0.00,30.08,M,10.00,M,BKN,OVC,M,M,1000.00,2100.00,M,M,M,KEVV 010527Z AUTO 34004KT 10SM BKN010 OVC021 07/05 A3008 RMK AO2 RAB0459E08 P0000 T00720050 $
EVV,2017-04-01 05:30,-87.5205,38.0441,M,M,M,330.00,6.00,M,30.08,M,10.00,M,SCT,BKN,OVC,M,999.00,1500.00,2300.00,M,M,KEVV 010530Z AUTO 33006KT 10SM SCT009 BKN015 OVC023 A3008 RMK MADISHF
EVV,2017-04-01 05:35,-87.5205,38.0441,M,M,M,340.00,4.00,M,30.08,M,10.00,M,BKN,OVC,M,M,1200.00,2300.00,M,M,M,KEVV 010535Z AUTO 34004KT 10SM BKN012 OVC023 A3008 RMK MADISHF
EVV,2017-04-01 05:40,-87.5205,38.0441,M,M,M,350.00,5.00,M,30.08,M,10.00,M,BKN,OVC,M,M,1200.00,2300.00,M,M,M,KEVV 010540Z AUTO 35005KT 10SM BKN012 OVC023 A3008 RMK MADISHF
EVV,2017-04-01 05:45,-87.5205,38.0441,M,M,M,350.00,4.00,M,30.08,M,10.00,M,BKN,BKN,OVC,M,1200.00,1800.00,2300.00,M,M,KEVV 010545Z AUTO 35004KT 10SM BKN012 BKN018 OVC023 A3008 RMK MADISHF
EVV,2017-04-01 05:50,-87.5205,38.0441,M,M,M,340.00,3.00,M,30.08,M,10.00,M,SCT,OVC,M,M,1200.00,2300.00,M,M,M,KEVV 010550Z AUTO 34003KT 10SM SCT012 OVC023 A3008 RMK VRB03KT  MADISHF
EVV,2017-04-01 05:54,-87.5205,38.0441,45.00,41.00,85.77,320.00,3.00,0.00,30.08,1018.60,10.00,M,SCT,OVC,M,M,1200.00,2300.00,M,M,M,KEVV 010554Z AUTO 32003KT 10SM SCT012 OVC023 07/05 A3008 RMK AO2 RAB0459E08 SLP186 P0000 60000 T00720050 10083 20072 401280072 51009 $
EVV,2017-04-01 05:55,-87.5205,38.0441,M,M,M,330.00,4.00,M,30.08,M,10.00,M,SCT,OVC,M,M,1200.00,2300.00,M,M,M,KEVV 010555Z AUTO 33004KT 10SM SCT012 OVC023 A3008 RMK MADISHF
EVV,2017-04-01 06:00,-87.5205,38.0441,M,M,M,330.00,5.00,M,30.08,M,10.00,M,SCT,BKN,OVC,M,1100.00,2100.00,2600.00,M,-RA,KEVV 010600Z AUTO 33005KT 10SM -RA SCT011 BKN021 OVC026 A3008 RMK MADISHF
EVV,2017-04-01 06:05,-87.5205,38.0441,M,M,M,350.00,9.00,M,30.08,M,10.00,M,FEW,SCT,OVC,M,1100.00,1600.00,2100.00,M,-RA,KEVV 010605Z AUTO 35009KT 10SM -RA FEW011 SCT016 OVC021 A3008 RMK MADISHF
EVV,2017-04-01 06:10,-87.5205,38.0441,M,M,M,340.00,7.00,M,30.08,M,10.00,M,SCT,OVC,M,M,1100.00,2200.00,M,M,M,KEVV 010610Z AUTO 34007KT 10SM SCT011 OVC022 A3008 RMK MADISHF
EVV,2017-04-01 06:15,-87.5205,38.0441,M,M,M,350.00,9.00,M,30.08,M,10.00,M,SCT,BKN,OVC,M,1100.00,1500.00,2200.00,M,M,KEVV 010615Z AUTO 35009KT 10SM SCT011 BKN015 OVC022 A3008 RMK MADISHF
EVV,2017-04-01 06:20,-87.5205,38.0441,M,M,M,350.00,9.00,M,30.08,M,10.00,M,FEW,SCT,OVC,M,1100.00,1500.00,2200.00,M,M,KEVV 010620Z AUTO 35009KT 10SM FEW011 SCT015 OVC022 A3008 RMK MADISHF
EVV,2017-04-01 06:25,-87.5205,38.0441,M,M,M,350.00,7.00,M,30.08,M,10.00,M,FEW,SCT,OVC,M,999.00,1600.00,2200.00,M,M,KEVV 010625Z AUTO 35007KT 10SM FEW009 SCT016 OVC022 A3008 RMK MADISHF
EVV,2017-04-01 06:30,-87.5205,38.0441,M,M,M,350.00,5.00,M,30.08,M,10.00,M,FEW,FEW,OVC,M,999.00,1400.00,2100.00,M,M,KEVV 010630Z AUTO 35005KT 10SM FEW009 FEW014 OVC021 A3008 RMK MADISHF
EVV,2017-04-01 06:35,-87.5205,38.0441,M,M,M,360.00,6.00,M,30.08,M,10.00,M,FEW,FEW,OVC,M,999.00,1400.00,2100.00,M,M,KEVV 010635Z AUTO 36006KT 10SM FEW009 FEW014 OVC021 A3008 RMK MADISHF
EVV,2017-04-01 06:40,-87.5205,38.0441,M,M,M,360.00,7.00,M,30.08,M,10.00,M,FEW,OVC,M,M,1600.00,2100.00,M,M,M,KEVV 010640Z AUTO 36007KT 10SM FEW016 OVC021 A3008 RMK MADISHF
EVV,2017-04-01 06:45,-87.5205,38.0441,M,M,M,360.00,5.00,M,30.08,M,10.00,M,OVC,M,M,M,2200.00,M,M,M,M,KEVV 010645Z AUTO 36005KT 10SM OVC022 A3008 RMK MADISHF
EVV,2017-04-01 06:50,-87.5205,38.0441,M,M,M,360.00,5.00,M,30.08,M,10.00,M,OVC,M,M,M,2200.00,M,M,M,M,KEVV 010650Z AUTO 36005KT 10SM OVC022 A3008 RMK MADISHF
EVV,2017-04-01 06:54,-87.5205,38.0441,44.10,39.90,85.06,340.00,6.00,0.00,30.08,1018.70,10.00,M,OVC,M,M,M,2400.00,M,M,M,M,KEVV 010654Z AUTO 34006KT 10SM OVC024 07/04 A3008 RMK AO2 RAB00E09 SLP187 P0000 T00670044 $
EVV,2017-04-01 06:55,-87.5205,38.0441,M,M,M,360.00,5.00,M,30.08,M,10.00,M,OVC,M,M,M,2400.00,M,M,M,M,KEVV 010655Z AUTO 36005KT 10SM OVC024 A3008 RMK MADISHF
EVV,2017-04-01 07:00,-87.5205,38.0441,M,M,M,10.00,6.00,M,30.08,M,10.00,M,OVC,M,M,M,2400.00,M,M,M,M,KEVV 010700Z AUTO 01006KT 10SM OVC024 A3008 RMK MADISHF
EVV,2017-04-01 07:05,-87.5205,38.0441,M,M,M,350.00,6.00,M,30.08,M,10.00,M,OVC,M,M,M,2400.00,M,M,M,M,KEVV 010705Z AUTO 35006KT 10SM OVC024 A3008 RMK MADISHF
EVV,2017-04-01 07:10,-87.5205,38.0441,M,M,M,360.00,6.00,M,30.08,M,10.00,M,OVC,M,M,M,2400.00,M,M,M,M,KEVV 010710Z AUTO 36006KT 10SM OVC024 A3008 RMK MADISHF
EVV,2017-04-01 07:15,-87.5205,38.0441,M,M,M,360.00,7.00,M,30.08,M,10.00,M,OVC,M,M,M,2400.00,M,M,M,M,KEVV 010715Z AUTO 36007KT 10SM OVC024 A3008 RMK MADISHF
EVV,2017-04-01 07:20,-87.5205,38.0441,M,M,M,360.00,7.00,M,30.09,M,10.00,M,OVC,M,M,M,2400.00,M,M,M,M,KEVV 010720Z AUTO 36007KT 10SM OVC024 A3009 RMK MADISHF
EVV,2017-04-01 07:25,-87.5205,38.0441,M,M,M,360.00,5.00,M,30.09,M,10.00,M,OVC,M,M,M,2200.00,M,M,M,M,KEVV 010725Z AUTO 36005KT 10SM OVC022 A3009 RMK MADISHF
EVV,2017-04-01 07:30,-87.5205,38.0441,M,M,M,360.00,5.00,M,30.09,M,10.00,M,OVC,M,M,M,2200.00,M,M,M,M,KEVV 010730Z AUTO 36005KT 10SM OVC022 A3009 RMK MADISHF
EVV,2017-04-01 07:35,-87.5205,38.0441,M,M,M,360.00,7.00,M,30.09,M,10.00,M,OVC,M,M,M,2200.00,M,M,M,M,KEVV 010735Z AUTO 36007KT 10SM OVC022 A3009 RMK MADISHF
EVV,2017-04-01 07:40,-87.5205,38.0441,M,M,M,340.00,6.00,M,30.09,M,10.00,M,OVC,M,M,M,2100.00,M,M,M,M,KEVV 010740Z AUTO 34006KT 10SM OVC021 A3009 RMK MADISHF
EVV,2017-04-01 07:45,-87.5205,38.0441,M,M,M,340.00,8.00,M,30.10,M,10.00,M,OVC,M,M,M,2100.00,M,M,M,M,KEVV 010745Z AUTO 34008KT 10SM OVC021 A3010 RMK MADISHF
EVV,2017-04-01 07:50,-87.5205,38.0441,M,M,M,360.00,6.00,M,30.09,M,10.00,M,OVC,M,M,M,2100.00,M,M,M,M,KEVV 010750Z AUTO 36006KT 10SM OVC021 A3009 RMK MADISHF
EVV,2017-04-01 07:54,-87.5205,38.0441,44.10,37.90,78.66,10.00,6.00,0.00,30.10,1019.20,10.00,M,OVC,M,M,M,2000.00,M,M,M,M,KEVV 010754Z AUTO 01006KT 10SM OVC020 07/03 A3010 RMK AO2 SLP192 T00670033 $
EVV,2017-04-01 07:55,-87.5205,38.0441,M,M,M,10.00,6.00,M,30.10,M,10.00,M,OVC,M,M,M,1999.00,M,M,M,M,KEVV 010755Z AUTO 01006KT 10SM OVC019 A3010 RMK MADISHF
EVV,2017-04-01 08:00,-87.5205,38.0441,M,M,M,360.00,5.00,M,30.10,M,10.00,M,OVC,M,M,M,1999.00,M,M,M,M,KEVV 010800Z AUTO 36005KT 10SM OVC019 A3010 RMK MADISHF
EVV,2017-04-01 08:05,-87.5205,38.0441,M,M,M,330.00,4.00,M,30.10,M,10.00,M,OVC,M,M,M,1999.00,M,M,M,M,KEVV 010805Z AUTO 33004KT 10SM OVC019 A3010 RMK MADISHF
EVV,2017-04-01 08:10,-87.5205,38.0441,M,M,M,330.00,4.00,M,30.10,M,10.00,M,OVC,M,M,M,2200.00,M,M,M,M,KEVV 010810Z AUTO 33004KT 10SM OVC022 A3010 RMK MADISHF
EVV,2017-04-01 08:15,-87.5205,38.0441,M,M,M,320.00,5.00,M,30.10,M,10.00,M,OVC,M,M,M,2200.00,M,M,M,M,KEVV 010815Z AUTO 32005KT 10SM OVC022 A3010 RMK MADISHF
EVV,2017-04-01 08:20,-87.5205,38.0441,M,M,M,310.00,5.00,M,30.11,M,10.00,M,OVC,M,M,M,2200.00,M,M,M,M,KEVV 010820Z AUTO 31005KT 10SM OVC022 A3011 RMK MADISHF
EVV,2017-04-01 08:25,-87.5205,38.0441,M,M,M,300.00,5.00,M,30.11,M,10.00,M,OVC,M,M,M,2400.00,M,M,M,M,KEVV 010825Z AUTO 30005KT 10SM OVC024 A3011 RMK MADISHF
EVV,2017-04-01 08:30,-87.5205,38.0441,M,M,M,280.00,5.00,M,30.11,M,10.00,M,OVC,M,M,M,2400.00,M,M,M,M,KEVV 010830Z AUTO 28005KT 10SM OVC024 A3011 RMK MADISHF
EVV,2017-04-01 08:35,-87.5205,38.0441,M,M,M,300.00,4.00,M,30.11,M,10.00,M,OVC,M,M,M,2400.00,M,M,M,M,KEVV 010835Z AUTO 30004KT 10SM OVC024 A3011 RMK MADISHF
EVV,2017-04-01 08:40,-87.5205,38.0441,M,M,M,290.00,5.00,M,30.11,M,10.00,M,OVC,M,M,M,2500.00,M,M,M,M,KEVV 010840Z AUTO 29005KT 10SM OVC025 A3011 RMK MADISHF
EVV,2017-04-01 08:45,-87.5205,38.0441,M,M,M,300.00,4.00,M,30.11,M,10.00,M,OVC,M,M,M,2500.00,M,M,M,M,KEVV 010845Z AUTO 30004KT 10SM OVC025 A3011 RMK MADISHF
EVV,2017-04-01 08:50,-87.5205,38.0441,M,M,M,290.00,4.00,M,30.12,M,10.00,M,OVC,M,M,M,2500.00,M,M,M,M,KEVV 010850Z AUTO 29004KT 10SM OVC025 A3012 RMK MADISHF
EVV,2017-04-01 08:54,-87.5205,38.0441,44.10,37.90,78.66,300.00,3.00,0.00,30.12,1019.90,10.00,M,OVC,M,M,M,2500.00,M,M,M,M,KEVV 010854Z AUTO 30003KT 10SM OVC025 07/03 A3012 RMK AO2 SLP199 60000 T00670033 53013 $
EVV,2017-04-01 08:55,-87.5205,38.0441,M,M,M,300.00,3.00,M,30.12,M,10.00,M,OVC,M,M,M,2500.00,M,M,M,M,KEVV 010855Z AUTO 30003KT 10SM OVC025 A3012 RMK MADISHF
EVV,2017-04-01 09:00,-87.5205,38.0441,M,M,M,320.00,6.00,M,30.12,M,10.00,M,OVC,M,M,M,2500.00,M,M,M,M,KEVV 010900Z AUTO 32006KT 10SM OVC025 A3012 RMK MADISHF
EVV,2017-04-01 09:05,-87.5205,38.0441,M,M,M,320.00,3.00,M,30.12,M,10.00,M,OVC,M,M,M,2500.00,M,M,M,M,KEVV 010905Z AUTO 32003KT 10SM OVC025 A3012 RMK MADISHF
EVV,2017-04-01 09:10,-87.5205,38.0441,M,M,M,330.00,5.00,M,30.12,M,10.00,M,OVC,M,M,M,2500.00,M,M,M,M,KEVV 010910Z AUTO 33005KT 10SM OVC025 A3012 RMK MADISHF
EVV,2017-04-01 09:15,-87.5205,38.0441,M,M,M,330.00,4.00,M,30.12,M,10.00,M,OVC,M,M,M,2500.00,M,M,M,M,KEVV 010915Z AUTO 33004KT 10SM OVC025 A3012 RMK MADISHF
EVV,2017-04-01 09:20,-87.5205,38.0441,M,M,M,330.00,5.00,M,30.12,M,10.00,M,OVC,M,M,M,2500.00,M,M,M,M,KEVV 010920Z AUTO 33005KT 10SM OVC025 A3012 RMK MADISHF
EVV,2017-04-01 09:25,-87.5205,38.0441,M,M,M,330.00,6.00,M,30.12,M,10.00,M,OVC,M,M,M,2500.00,M,M,M,M,KEVV 010925Z AUTO 33006KT 10SM OVC025 A3012 RMK MADISHF
EVV,2017-04-01 09:30,-87.5205,38.0441,M,M,M,320.00,5.00,M,30.12,M,10.00,M,OVC,M,M,M,2500.00,M,M,M,M,KEVV 010930Z AUTO 32005KT 10SM OVC025 A3012 RMK MADISHF
EVV,2017-04-01 09:35,-87.5205,38.0441,M,M,M,330.00,5.00,M,30.12,M,10.00,M,OVC,M,M,M,2600.00,M,M,M,M,KEVV 010935Z AUTO 33005KT 10SM OVC026 A3012 RMK MADISHF
EVV,2017-04-01 09:40,-87.5205,38.0441,M,M,M,320.00,4.00,M,30.12,M,10.00,M,OVC,M,M,M,2600.00,M,M,M,M,KEVV 010940Z AUTO 32004KT 10SM OVC026 A3012 RMK MADISHF
EVV,2017-04-01 09:45,-87.5205,38.0441,M,M,M,330.00,6.00,M,30.11,M,10.00,M,OVC,M,M,M,2600.00,M,M,M,M,KEVV 010945Z AUTO 33006KT 10SM OVC026 A3011 RMK MADISHF
EVV,2017-04-01 09:50,-87.5205,38.0441,M,M,M,340.00,4.00,M,30.12,M,10.00,M,OVC,M,M,M,2600.00,M,M,M,M,KEVV 010950Z AUTO 34004KT 10SM OVC026 A3012 RMK MADISHF
EVV,2017-04-01 09:54,-87.5205,38.0441,44.10,37.90,78.66,350.00,4.00,0.00,30.12,1019.90,10.00,M,OVC,M,M,M,2600.00,M,M,M,M,KEVV 010954Z AUTO 35004KT 10SM OVC026 07/03 A3012 RMK AO2 SLP199 T00670033 $
EVV,2017-04-01 09:55,-87.5205,38.0441,M,M,M,340.00,3.00,M,30.12,M,10.00,M,OVC,M,M,M,2600.00,M,M,M,M,KEVV 010955Z AUTO 34003KT 10SM OVC026 A3012 RMK MADISHF
EVV,2017-04-01 10:00,-87.5205,38.0441,M,M,M,330.00,4.00,M,30.12,M,10.00,M,OVC,M,M,M,2600.00,M,M,M,M,KEVV 011000Z AUTO 33004KT 10SM OVC026 A3012 RMK MADISHF
EVV,2017-04-01 10:05,-87.5205,38.0441,M,M,M,330.00,4.00,M,30.12,M,10.00,M,OVC,M,M,M,2600.00,M,M,M,M,KEVV 011005Z AUTO 33004KT 10SM OVC026 A3012 RMK MADISHF
EVV,2017-04-01 10:10,-87.5205,38.0441,M,M,M,340.00,3.00,M,30.12,M,10.00,M,OVC,M,M,M,2600.00,M,M,M,M,KEVV 011010Z AUTO 34003KT 10SM OVC026 A3012 RMK MADISHF
EVV,2017-04-01 10:15,-87.5205,38.0441,M,M,M,330.00,3.00,M,30.12,M,10.00,M,OVC,M,M,M,2500.00,M,M,M,M,KEVV 011015Z AUTO 33003KT 10SM OVC025 A3012 RMK VRB03KT  MADISHF
EVV,2017-04-01 10:20,-87.5205,38.0441,M,M,M,340.00,3.00,M,30.12,M,10.00,M,OVC,M,M,M,2500.00,M,M,M,M,KEVV 011020Z AUTO 34003KT 10SM OVC025 A3012 RMK MADISHF
EVV,2017-04-01 10:25,-87.5205,38.0441,M,M,M,330.00,4.00,M,30.13,M,10.00,M,OVC,M,M,M,2600.00,M,M,M,M,KEVV 011025Z AUTO 33004KT 10SM OVC026 A3013 RMK MADISHF
EVV,2017-04-01 10:30,-87.5205,38.0441,M,M,M,350.00,4.00,M,30.13,M,10.00,M,OVC,M,M,M,2600.00,M,M,M,M,KEVV 011030Z AUTO 35004KT 10SM OVC026 A3013 RMK MADISHF
EVV,2017-04-01 10:35,-87.5205,38.0441,M,M,M,350.00,3.00,M,30.13,M,10.00,M,OVC,M,M,M,2600.00,M,M,M,M,KEVV 011035Z AUTO 35003KT 10SM OVC026 A3013 RMK MADISHF
EVV,2017-04-01 10:40,-87.5205,38.0441,M,M,M,350.00,4.00,M,30.13,M,10.00,M,OVC,M,M,M,2600.00,M,M,M,M,KEVV 011040Z AUTO 35004KT 10SM OVC026 A3013 RMK MADISHF
EVV,2017-04-01 10:45,-87.5205,38.0441,M,M,M,350.00,5.00,M,30.13,M,10.00,M,OVC,M,M,M,2500.00,M,M,M,M,KEVV 011045Z AUTO 35005KT 10SM OVC025 A3013 RMK MADISHF
EVV,2017-04-01 10:50,-87.5205,38.0441,M,M,M,340.00,6.00,M,30.14,M,10.00,M,OVC,M,M,M,2500.00,M,M,M,M,KEVV 011050Z AUTO 34006KT 10SM OVC025 A3014 RMK MADISHF
EVV,2017-04-01 10:54,-87.5205,38.0441,44.10,37.90,78.66,330.00,5.00,0.00,30.14,1020.70,10.00,M,OVC,M,M,M,2500.00,M,M,M,M,KEVV 011054Z 33005KT 10SM OVC025 07/03 A3014 RMK AO2 SLP207 T00670033 $
EVV,2017-04-01 10:55,-87.5205,38.0441,M,M,M,340.00,5.00,M,30.14,M,10.00,M,OVC,M,M,M,2500.00,M,M,M,M,KEVV 011055Z AUTO 34005KT 10SM OVC025 A3014 RMK MADISHF
EVV,2017-04-01 11:00,-87.5205,38.0441,M,M,M,330.00,5.00,M,30.14,M,10.00,M,OVC,M,M,M,2500.00,M,M,M,M,KEVV 011100Z AUTO 33005KT 10SM OVC025 A3014 RMK MADISHF
EVV,2017-04-01 11:05,-87.5205,38.0441,M,M,M,340.00,5.00,M,30.14,M,10.00,M,OVC,M,M,M,2500.00,M,M,M,M,KEVV 011105Z AUTO 34005KT 10SM OVC025 A3014 RMK MADISHF
EVV,2017-04-01 11:10,-87.5205,38.0441,M,M,M,340.00,6.00,M,30.14,M,10.00,M,OVC,M,M,M,2500.00,M,M,M,M,KEVV 011110Z AUTO 34006KT 10SM OVC025 A3014 RMK MADISHF
EVV,2017-04-01 11:15,-87.5205,38.0441,M,M,M,340.00,4.00,M,30.14,M,10.00,M,OVC,M,M,M,2500.00,M,M,M,M,KEVV 011115Z AUTO 34004KT 10SM OVC025 A3014 RMK MADISHF
EVV,2017-04-01 11:20,-87.5205,38.0441,M,M,M,330.00,5.00,M,30.15,M,10.00,M,OVC,M,M,M,2500.00,M,M,M,M,KEVV 011120Z AUTO 33005KT 10SM OVC025 A3015 RMK MADISHF
EVV,2017-04-01 11:25,-87.5205,38.0441,M,M,M,330.00,4.00,M,30.15,M,10.00,M,OVC,M,M,M,2500.00,M,M,M,M,KEVV 011125Z AUTO 33004KT 10SM OVC025 A3015 RMK MADISHF
EVV,2017-04-01 11:30,-87.5205,38.0441,M,M,M,330.00,4.00,M,30.15,M,10.00,M,OVC,M,M,M,2500.00,M,M,M,M,KEVV 011130Z AUTO 33004KT 10SM OVC025 A3015 RMK MADISHF
EVV,2017-04-01 11:35,-87.5205,38.0441,M,M,M,330.00,4.00,M,30.16,M,10.00,M,OVC,M,M,M,2500.00,M,M,M,M,KEVV 011135Z AUTO 33004KT 10SM OVC025 A3016 RMK MADISHF
EVV,2017-04-01 11:40,-87.5205,38.0441,M,M,M,330.00,5.00,M,30.16,M,10.00,M,OVC,M,M,M,2500.00,M,M,M,M,KEVV 011140Z AUTO 33005KT 10SM OVC025 A3016 RMK MADISHF
EVV,2017-04-01 11:45,-87.5205,38.0441,M,M,M,340.00,4.00,M,30.16,M,10.00,M,OVC,M,M,M,2500.00,M,M,M,M,KEVV 011145Z AUTO 34004KT 10SM OVC025 A3016 RMK MADISHF
EVV,2017-04-01 11:50,-87.5205,38.0441,M,M,M,330.00,5.00,M,30.17,M,10.00,M,OVC,M,M,M,2500.00,M,M,M,M,KEVV 011150Z AUTO 33005KT 10SM OVC025 A3017 RMK MADISHF
EVV,2017-04-01 11:54,-87.5205,38.0441,45.00,37.90,76.01,340.00,4.00,0.00,30.17,1021.90,10.00,M,OVC,M,M,M,2500.00,M,M,M,M,KEVV 011154Z 34004KT 10SM OVC025 07/03 A3017 RMK AO2 SLP219 60000 70004 T00720033 10072 20067 53018 $
EVV,2017-04-01 11:55,-87.5205,38.0441,M,M,M,330.00,4.00,M,30.17,M,10.00,M,OVC,M,M,M,2500.00,M,M,M,M,KEVV 011155Z AUTO 33004KT 10SM OVC025 A3017 RMK MADISHF
EVV,2017-04-01 12:00,-87.5205,38.0441,M,M,M,320.00,6.00,M,30.18,M,10.00,M,OVC,M,M,M,2500.00,M,M,M,M,KEVV 011200Z AUTO 32006KT 10SM OVC025 A3018 RMK MADISHF
EVV,2017-04-01 12:05,-87.5205,38.0441,M,M,M,330.00,5.00,M,30.18,M,10.00,M,OVC,M,M,M,2600.00,M,M,M,M,KEVV 011205Z AUTO 33005KT 10SM OVC026 A3018 RMK MADISHF
EVV,2017-04-01 12:10,-87.5205,38.0441,M,M,M,340.00,4.00,M,30.18,M,10.00,M,FEW,OVC,M,M,1300.00,2600.00,M,M,M,KEVV 011210Z AUTO 34004KT 10SM FEW013 OVC026 A3018 RMK MADISHF
EVV,2017-04-01 12:15,-87.5205,38.0441,M,M,M,330.00,5.00,M,30.18,M,10.00,M,FEW,OVC,M,M,1300.00,2500.00,M,M,M,KEVV 011215Z AUTO 33005KT 10SM FEW013 OVC025 A3018 RMK MADISHF
EVV,2017-04-01 12:20,-87.5205,38.0441,M,M,M,330.00,4.00,M,30.19,M,10.00,M,OVC,M,M,M,2500.00,M,M,M,M,KEVV 011220Z AUTO 33004KT 10SM OVC025 A3019 RMK MADISHF
EVV,2017-04-01 12:25,-87.5205,38.0441,M,M,M,310.00,3.00,M,30.20,M,10.00,M,OVC,M,M,M,2500.00,M,M,M,M,KEVV 011225Z AUTO 31003KT 10SM OVC025 A3020 RMK VRB03KT  MADISHF
EVV,2017-04-01 12:30,-87.5205,38.0441,M,M,M,310.00,4.00,M,30.20,M,10.00,M,FEW,OVC,M,M,1400.00,2500.00,M,M,M,KEVV 011230Z AUTO 31004KT 10SM FEW014 OVC025 A3020 RMK MADISHF
EVV,2017-04-01 12:35,-87.5205,38.0441,M,M,M,330.00,5.00,M,30.20,M,10.00,M,FEW,OVC,M,M,1400.00,2500.00,M,M,M,KEVV 011235Z AUTO 33005KT 10SM FEW014 OVC025 A3020 RMK MADISHF
EVV,2017-04-01 12:40,-87.5205,38.0441,M,M,M,320.00,6.00,M,30.20,M,10.00,M,FEW,OVC,M,M,1400.00,2500.00,M,M,M,KEVV 011240Z AUTO 32006KT 10SM FEW014 OVC025 A3020 RMK MADISHF
EVV,2017-04-01 12:45,-87.5205,38.0441,M,M,M,320.00,4.00,M,30.20,M,10.00,M,FEW,OVC,M,M,1400.00,2600.00,M,M,M,KEVV 011245Z AUTO 32004KT 10SM FEW014 OVC026 A3020 RMK MADISHF
EVV,2017-04-01 12:50,-87.5205,38.0441,M,M,M,320.00,5.00,M,30.20,M,10.00,M,FEW,OVC,M,M,1400.00,2600.00,M,M,M,KEVV 011250Z AUTO 32005KT 10SM FEW014 OVC026 A3020 RMK MADISHF
EVV,2017-04-01 12:54,-87.5205,38.0441,45.00,39.00,79.36,320.00,5.00,0.00,30.20,1022.80,10.00,M,FEW,SCT,OVC,M,1500.00,2000.00,2600.00,M,M,KEVV 011254Z 32005KT 10SM FEW015 SCT020 OVC026 07/04 A3020 RMK AO2 SLP228 T00720039 $
EVV,2017-04-01 12:55,-87.5205,38.0441,M,M,M,320.00,5.00,M,30.20,M,10.00,M,FEW,SCT,OVC,M,1500.00,1999.00,2600.00,M,M,KEVV 011255Z AUTO 32005KT 10SM FEW015 SCT019 OVC026 A3020 RMK MADISHF
EVV,2017-04-01 13:00,-87.5205,38.0441,M,M,M,320.00,6.00,M,30.20,M,10.00,M,SCT,BKN,OVC,M,1500.00,1999.00,2700.00,M,M,KEVV 011300Z AUTO 32006KT 10SM SCT015 BKN019 OVC027 A3020 RMK MADISHF
EVV,2017-04-01 13:05,-87.5205,38.0441,M,M,M,330.00,5.00,M,30.20,M,10.00,M,SCT,BKN,OVC,M,1500.00,1999.00,2700.00,M,M,KEVV 011305Z AUTO 33005KT 10SM SCT015 BKN019 OVC027 A3020 RMK MADISHF
EVV,2017-04-01 13:10,-87.5205,38.0441,M,M,M,350.00,5.00,M,30.20,M,10.00,M,BKN,OVC,M,M,1699.00,2700.00,M,M,M,KEVV 011310Z AUTO 35005KT 10SM BKN016 OVC027 A3020 RMK MADISHF
EVV,2017-04-01 13:15,-87.5205,38.0441,M,M,M,330.00,6.00,M,30.20,M,10.00,M,BKN,OVC,M,M,1699.00,2700.00,M,M,M,KEVV 011315Z AUTO 33006KT 10SM BKN016 OVC027 A3020 RMK MADISHF
EVV,2017-04-01 13:20,-87.5205,38.0441,M,M,M,340.00,6.00,M,30.20,M,10.00,M,BKN,OVC,M,M,1800.00,2800.00,M,M,M,KEVV 011320Z AUTO 34006KT 10SM BKN018 OVC028 A3020 RMK MADISHF
EVV,2017-04-01 13:25,-87.5205,38.0441,M,M,M,350.00,6.00,M,30.20,M,10.00,M,SCT,OVC,M,M,1800.00,2800.00,M,M,M,KEVV 011325Z AUTO 35006KT 10SM SCT018 OVC028 A3020 RMK MADISHF
EVV,2017-04-01 13:30,-87.5205,38.0441,M,M,M,340.00,3.00,M,30.21,M,10.00,M,SCT,OVC,M,M,1800.00,2900.00,M,M,M,KEVV 011330Z AUTO 34003KT 10SM SCT018 OVC029 A3021 RMK MADISHF
EVV,2017-04-01 13:35,-87.5205,38.0441,M,M,M,350.00,6.00,M,30.21,M,10.00,M,SCT,OVC,M,M,1800.00,2900.00,M,M,M,KEVV 011335Z AUTO 35006KT 10SM SCT018 OVC029 A3021 RMK MADISHF
EVV,2017-04-01 13:40,-87.5205,38.0441,M,M,M,360.00,6.00,M,30.21,M,10.00,M,SCT,OVC,M,M,1800.00,2900.00,M,M,M,KEVV 011340Z AUTO 36006KT 10SM SCT018 OVC029 A3021 RMK MADISHF
EVV,2017-04-01 13:45,-87.5205,38.0441,M,M,M,340.00,5.00,M,30.21,M,10.00,M,SCT,OVC,M,M,1800.00,2900.00,M,M,M,KEVV 011345Z AUTO 34005KT 10SM SCT018 OVC029 A3021 RMK MADISHF
EVV,2017-04-01 13:50,-87.5205,38.0441,M,M,M,330.00,6.00,M,30.21,M,10.00,M,BKN,OVC,M,M,1800.00,2900.00,M,M,M,KEVV 011350Z AUTO 33006KT 10SM BKN018 OVC029 A3021 RMK MADISHF
EVV,2017-04-01 13:54,-87.5205,38.0441,46.00,37.90,73.18,350.00,4.00,0.00,30.21,1023.00,10.00,M,SCT,OVC,M,M,1800.00,2900.00,M,M,M,KEVV 011354Z 35004KT 10SM SCT018 OVC029 08/03 A3021 RMK AO2 SLP230 T00780033 $
EVV,2017-04-01 13:55,-87.5205,38.0441,M,M,M,360.00,4.00,M,30.21,M,10.00,M,SCT,OVC,M,M,1900.00,2900.00,M,M,M,KEVV 011355Z AUTO 36004KT 10SM SCT019 OVC029 A3021 RMK MADISHF
EVV,2017-04-01 14:00,-87.5205,38.0441,M,M,M,360.00,6.00,M,30.21,M,10.00,M,SCT,OVC,M,M,1900.00,2900.00,M,M,M,KEVV 011400Z AUTO 36006KT 10SM SCT019 OVC029 A3021 RMK MADISHF
EVV,2017-04-01 14:05,-87.5205,38.0441,M,M,M,360.00,5.00,M,30.21,M,10.00,M,FEW,OVC,M,M,1900.00,2900.00,M,M,M,KEVV 011405Z AUTO 36005KT 10SM FEW019 OVC029 A3021 RMK MADISHF
EVV,2017-04-01 14:10,-87.5205,38.0441,M,M,M,350.00,6.00,M,30.21,M,10.00,M,FEW,OVC,M,M,1900.00,2900.00,M,M,M,KEVV 011410Z AUTO 35006KT 10SM FEW019 OVC029 A3021 RMK MADISHF
EVV,2017-04-01 14:15,-87.5205,38.0441,M,M,M,10.00,5.00,M,30.21,M,10.00,M,FEW,OVC,M,M,1900.00,2900.00,M,M,M,KEVV 011415Z AUTO 01005KT 10SM FEW019 OVC029 A3021 RMK MADISHF
EVV,2017-04-01 14:20,-87.5205,38.0441,M,M,M,10.00,5.00,M,30.21,M,10.00,M,OVC,M,M,M,2900.00,M,M,M,M,KEVV 011420Z AUTO 01005KT 10SM OVC029 A3021 RMK MADISHF
EVV,2017-04-01 14:25,-87.5205,38.0441,M,M,M,340.00,4.00,M,30.21,M,10.00,M,FEW,OVC,M,M,1999.00,2900.00,M,M,M,KEVV 011425Z AUTO 34004KT 10SM FEW019 OVC029 A3021 RMK MADISHF
EVV,2017-04-01 14:30,-87.5205,38.0441,M,M,M,340.00,4.00,M,30.21,M,10.00,M,FEW,OVC,M,M,1999.00,2900.00,M,M,M,KEVV 011430Z AUTO 34004KT 10SM FEW019 OVC029 A3021 RMK MADISHF
EVV,2017-04-01 14:35,-87.5205,38.0441,M,M,M,10.00,3.00,M,30.21,M,10.00,M,FEW,OVC,M,M,1800.00,2900.00,M,M,M,KEVV 011435Z AUTO 01003KT 10SM FEW018 OVC029 A3021 RMK MADISHF
EVV,2017-04-01 14:40,-87.5205,38.0441,M,M,M,350.00,4.00,M,30.22,M,10.00,M,FEW,OVC,M,M,1800.00,2700.00,M,M,M,KEVV 011440Z AUTO 35004KT 10SM FEW018 OVC027 A3022 RMK MADISHF
EVV,2017-04-01 14:45,-87.5205,38.0441,M,M,M,10.00,3.00,M,30.22,M,10.00,M,FEW,OVC,M,M,1800.00,2700.00,M,M,M,KEVV 011445Z AUTO 01003KT 10SM FEW018 OVC027 A3022 RMK MADISHF
EVV,2017-04-01 14:50,-87.5205,38.0441,M,M,M,10.00,4.00,M,30.22,M,10.00,M,FEW,OVC,M,M,1900.00,2700.00,M,M,M,KEVV 011450Z AUTO 01004KT 10SM FEW019 OVC027 A3022 RMK MADISHF
EVV,2017-04-01 14:54,-87.5205,38.0441,48.00,39.00,70.85,30.00,4.00,0.00,30.22,1023.40,10.00,M,FEW,OVC,M,M,1900.00,2700.00,M,M,M,KEVV 011454Z 03004KT 10SM FEW019 OVC027 09/04 A3022 RMK AO2 SLP234 T00890039 51016 $
EVV,2017-04-01 14:55,-87.5205,38.0441,M,M,M,20.00,4.00,M,30.22,M,10.00,M,OVC,M,M,M,2800.00,M,M,M,M,KEVV 011455Z AUTO 02004KT 10SM OVC028 A3022 RMK VRB04KT  MADISHF
EVV,2017-04-01 15:00,-87.5205,38.0441,M,M,M,0.00,0.00,M,30.22,M,10.00,M,FEW,OVC,M,M,2300.00,2800.00,M,M,M,KEVV 011500Z AUTO 00000KT 10SM FEW023 OVC028 A3022 RMK MADISHF
EVV,2017-04-01 15:05,-87.5205,38.0441,M,M,M,350.00,4.00,M,30.23,M,10.00,M,OVC,M,M,M,2800.00,M,M,M,M,KEVV 011505Z AUTO 35004KT 10SM OVC028 A3023 RMK VRB04KT  MADISHF
EVV,2017-04-01 15:10,-87.5205,38.0441,M,M,M,350.00,3.00,M,30.23,M,10.00,M,OVC,M,M,M,2800.00,M,M,M,M,KEVV 011510Z AUTO 35003KT 10SM OVC028 A3023 RMK VRB03KT  MADISHF
EVV,2017-04-01 15:15,-87.5205,38.0441,M,M,M,30.00,4.00,M,30.23,M,10.00,M,FEW,OVC,M,M,2300.00,2800.00,M,M,M,KEVV 011515Z AUTO 03004KT 10SM FEW023 OVC028 A3023 RMK MADISHF
EVV,2017-04-01 15:20,-87.5205,38.0441,M,M,M,330.00,4.00,M,30.23,M,10.00,M,SCT,OVC,M,M,2100.00,2800.00,M,M,M,KEVV 011520Z AUTO 33004KT 10SM SCT021 OVC028 A3023 RMK MADISHF
EVV,2017-04-01 15:25,-87.5205,38.0441,M,M,M,350.00,4.00,M,30.23,M,10.00,M,SCT,OVC,M,M,2100.00,2900.00,M,M,M,KEVV 011525Z AUTO 35004KT 10SM SCT021 OVC029 A3023 RMK MADISHF
EVV,2017-04-01 15:30,-87.5205,38.0441,M,M,M,350.00,3.00,M,30.23,M,10.00,M,FEW,OVC,M,M,2100.00,2900.00,M,M,M,KEVV 011530Z AUTO 35003KT 10SM FEW021 OVC029 A3023 RMK VRB03KT  MADISHF
EVV,2017-04-01 15:35,-87.5205,38.0441,M,M,M,20.00,4.00,M,30.23,M,10.00,M,SCT,OVC,M,M,2100.00,2900.00,M,M,M,KEVV 011535Z AUTO 02004KT 10SM SCT021 OVC029 A3023 RMK MADISHF
EVV,2017-04-01 15:40,-87.5205,38.0441,M,M,M,20.00,3.00,M,30.23,M,10.00,M,SCT,OVC,M,M,2200.00,2900.00,M,M,M,KEVV 011540Z AUTO 02003KT 10SM SCT022 OVC029 A3023 RMK VRB03KT  MADISHF
EVV,2017-04-01 15:45,-87.5205,38.0441,M,M,M,30.00,5.00,M,30.23,M,10.00,M,SCT,OVC,M,M,2200.00,2900.00,M,M,M,KEVV 011545Z AUTO 03005KT 10SM SCT022 OVC029 A3023 RMK MADISHF
EVV,2017-04-01 15:50,-87.5205,38.0441,M,M,M,340.00,6.00,M,30.22,M,10.00,M,SCT,OVC,M,M,2300.00,2900.00,M,M,M,KEVV 011550Z AUTO 34006KT 10SM SCT023 OVC029 A3022 RMK MADISHF
EVV,2017-04-01 15:54,-87.5205,38.0441,50.00,39.00,65.75,350.00,5.00,0.00,30.23,1023.60,10.00,M,SCT,OVC,M,M,2300.00,2900.00,M,M,M,KEVV 011554Z 35005KT 10SM SCT023 OVC029 10/04 A3023 RMK AO2 SLP236 T01000039 $
EVV,2017-04-01 15:55,-87.5205,38.0441,M,M,M,340.00,5.00,M,30.23,M,10.00,M,SCT,OVC,M,M,2300.00,2900.00,M,M,M,KEVV 011555Z AUTO 34005KT 10SM SCT023 OVC029 A3023 RMK MADISHF
EVV,2017-04-01 16:00,-87.5205,38.0441,M,M,M,40.00,6.00,M,30.23,M,10.00,M,FEW,OVC,M,M,2100.00,2900.00,M,M,M,KEVV 011600Z AUTO 04006KT 10SM FEW021 OVC029 A3023 RMK MADISHF
EVV,2017-04-01 16:05,-87.5205,38.0441,M,M,M,40.00,5.00,M,30.23,M,10.00,M,FEW,OVC,M,M,2100.00,2800.00,M,M,M,KEVV 011605Z AUTO 04005KT 10SM FEW021 OVC028 A3023 RMK MADISHF
EVV,2017-04-01 16:10,-87.5205,38.0441,M,M,M,360.00,4.00,M,30.23,M,10.00,M,FEW,OVC,M,M,2100.00,2800.00,M,M,M,KEVV 011610Z AUTO 36004KT 10SM FEW021 OVC028 A3023 RMK VRB04KT  MADISHF
EVV,2017-04-01 16:15,-87.5205,38.0441,M,M,M,360.00,5.00,M,30.23,M,10.00,M,FEW,OVC,M,M,2100.00,2800.00,M,M,M,KEVV 011615Z AUTO 36005KT 10SM FEW021 OVC028 A3023 RMK MADISHF
EVV,2017-04-01 16:20,-87.5205,38.0441,M,M,M,350.00,4.00,M,30.22,M,10.00,M,FEW,OVC,M,M,1999.00,2800.00,M,M,M,KEVV 011620Z AUTO 35004KT 10SM FEW019 OVC028 A3022 RMK MADISHF
EVV,2017-04-01 16:25,-87.5205,38.0441,M,M,M,10.00,3.00,M,30.22,M,10.00,M,OVC,M,M,M,2800.00,M,M,M,M,KEVV 011625Z AUTO 01003KT 10SM OVC028 A3022 RMK MADISHF
EVV,2017-04-01 16:30,-87.5205,38.0441,M,M,M,10.00,4.00,M,30.22,M,10.00,M,OVC,M,M,M,2800.00,M,M,M,M,KEVV 011630Z AUTO 01004KT 10SM OVC028 A3022 RMK MADISHF
EVV,2017-04-01 16:35,-87.5205,38.0441,M,M,M,350.00,4.00,M,30.22,M,10.00,M,OVC,M,M,M,2700.00,M,M,M,M,KEVV 011635Z AUTO 35004KT 10SM OVC027 A3022 RMK MADISHF
EVV,2017-04-01 16:40,-87.5205,38.0441,M,M,M,10.00,4.00,M,30.22,M,10.00,M,OVC,M,M,M,2700.00,M,M,M,M,KEVV 011640Z AUTO 01004KT 10SM OVC027 A3022 RMK MADISHF
EVV,2017-04-01 16:45,-87.5205,38.0441,M,M,M,10.00,6.00,M,30.22,M,10.00,M,OVC,M,M,M,2700.00,M,M,M,M,KEVV 011645Z AUTO 01006KT 10SM OVC027 A3022 RMK MADISHF
EVV,2017-04-01 16:50,-87.5205,38.0441,M,M,M,360.00,3.00,M,30.22,M,10.00,M,OVC,M,M,M,2700.00,M,M,M,M,KEVV 011650Z AUTO 36003KT 10SM OVC027 A3022 RMK VRB03KT  MADISHF
EVV,2017-04-01 16:54,-87.5205,38.0441,51.10,39.00,63.12,360.00,4.00,0.00,30.22,1023.30,10.00,M,OVC,M,M,M,2700.00,M,M,M,M,KEVV 011654Z 36004KT 10SM OVC027 11/04 A3022 RMK AO2 SLP233 T01060039 $
EVV,2017-04-01 16:55,-87.5205,38.0441,M,M,M,350.00,4.00,M,30.22,M,10.00,M,OVC,M,M,M,2700.00,M,M,M,M,KEVV 011655Z AUTO 35004KT 10SM OVC027 A3022 RMK MADISHF
EVV,2017-04-01 17:00,-87.5205,38.0441,M,M,M,20.00,7.00,M,30.22,M,10.00,M,OVC,M,M,M,2700.00,M,M,M,M,KEVV 011700Z AUTO 02007KT 10SM OVC027 A3022 RMK MADISHF
EVV,2017-04-01 17:05,-87.5205,38.0441,M,M,M,360.00,6.00,M,30.21,M,10.00,M,OVC,M,M,M,2500.00,M,M,M,M,KEVV 011705Z AUTO 36006KT 10SM OVC025 A3021 RMK MADISHF
EVV,2017-04-01 17:10,-87.5205,38.0441,M,M,M,20.00,5.00,M,30.21,M,10.00,M,OVC,M,M,M,2500.00,M,M,M,M,KEVV 011710Z AUTO 02005KT 10SM OVC025 A3021 RMK MADISHF
EVV,2017-04-01 17:15,-87.5205,38.0441,M,M,M,360.00,5.00,M,30.21,M,10.00,M,OVC,M,M,M,2500.00,M,M,M,M,KEVV 011715Z AUTO 36005KT 10SM OVC025 A3021 RMK MADISHF
EVV,2017-04-01 17:20,-87.5205,38.0441,M,M,M,30.00,6.00,M,30.21,M,10.00,M,OVC,M,M,M,2700.00,M,M,M,M,KEVV 011720Z AUTO 03006KT 10SM OVC027 A3021 RMK MADISHF
EVV,2017-04-01 17:25,-87.5205,38.0441,M,M,M,50.00,5.00,M,30.20,M,10.00,M,OVC,M,M,M,2500.00,M,M,M,M,KEVV 011725Z AUTO 05005KT 10SM OVC025 A3020 RMK MADISHF
EVV,2017-04-01 17:30,-87.5205,38.0441,M,M,M,30.00,6.00,M,30.20,M,10.00,M,OVC,M,M,M,2500.00,M,M,M,M,KEVV 011730Z AUTO 03006KT 10SM OVC025 A3020 RMK MADISHF
EVV,2017-04-01 17:35,-87.5205,38.0441,M,M,M,40.00,4.00,M,30.20,M,10.00,M,OVC,M,M,M,2500.00,M,M,M,M,KEVV 011735Z AUTO 04004KT 10SM OVC025 A3020 RMK MADISHF
EVV,2017-04-01 17:40,-87.5205,38.0441,M,M,M,20.00,4.00,M,30.20,M,10.00,M,OVC,M,M,M,2500.00,M,M,M,M,KEVV 011740Z AUTO 02004KT 10SM OVC025 A3020 RMK MADISHF
EVV,2017-04-01 17:45,-87.5205,38.0441,M,M,M,30.00,4.00,M,30.20,M,10.00,M,OVC,M,M,M,2500.00,M,M,M,M,KEVV 011745Z AUTO 03004KT 10SM OVC025 A3020 RMK VRB04KT  MADISHF
EVV,2017-04-01 17:50,-87.5205,38.0441,M,M,M,50.00,3.00,M,30.20,M,10.00,M,OVC,M,M,M,2500.00,M,M,M,M,KEVV 011750Z AUTO 05003KT 10SM OVC025 A3020 RMK MADISHF
EVV,2017-04-01 17:54,-87.5205,38.0441,51.10,39.90,65.38,60.00,5.00,0.00,30.21,1022.90,10.00,M,OVC,M,M,M,2500.00,M,M,M,M,KEVV 011754Z 06005KT 10SM OVC025 11/04 A3021 RMK AO2 SLP229 T01060044 10106 20072 58005 $
EVV,2017-04-01 17:55,-87.5205,38.0441,M,M,M,40.00,4.00,M,30.20,M,10.00,M,OVC,M,M,M,2500.00,M,M,M,M,KEVV 011755Z AUTO 04004KT 10SM OVC025 A3020 RMK MADISHF
EVV,2017-04-01 18:00,-87.5205,38.0441,M,M,M,50.00,4.00,M,30.20,M,10.00,M,OVC,M,M,M,2500.00,M,M,M,M,KEVV 011800Z AUTO 05004KT 10SM OVC025 A3020 RMK MADISHF
EVV,2017-04-01 18:05,-87.5205,38.0441,M,M,M,0.00,0.00,M,30.20,M,10.00,M,OVC,M,M,M,2500.00,M,M,M,M,KEVV 011805Z AUTO 00000KT 10SM OVC025 A3020 RMK MADISHF
EVV,2017-04-01 18:10,-87.5205,38.0441,M,M,M,0.00,0.00,M,30.21,M,10.00,M,OVC,M,M,M,2500.00,M,M,M,M,KEVV 011810Z AUTO 00000KT 10SM OVC025 A3021 RMK MADISHF
EVV,2017-04-01 18:15,-87.5205,38.0441,M,M,M,170.00,3.00,M,30.21,M,10.00,M,OVC,M,M,M,2500.00,M,M,M,M,KEVV 011815Z AUTO 17003KT 10SM OVC025 A3021 RMK VRB03KT  MADISHF
EVV,2017-04-01 18:20,-87.5205,38.0441,M,M,M,0.00,0.00,M,30.21,M,10.00,M,OVC,M,M,M,2500.00,M,M,M,M,KEVV 011820Z AUTO 00000KT 10SM OVC025 A3021 RMK MADISHF
EVV,2017-04-01 18:25,-87.5205,38.0441,M,M,M,0.00,0.00,M,30.21,M,10.00,M,OVC,M,M,M,2500.00,M,M,M,M,KEVV 011825Z AUTO 00000KT 10SM OVC025 A3021 RMK MADISHF
EVV,2017-04-01 18:30,-87.5205,38.0441,M,M,M,10.00,3.00,M,30.21,M,10.00,M,OVC,M,M,M,2600.00,M,M,M,M,KEVV 011830Z AUTO 01003KT 10SM OVC026 A3021 RMK MADISHF
EVV,2017-04-01 18:35,-87.5205,38.0441,M,M,M,10.00,3.00,M,30.21,M,10.00,M,OVC,M,M,M,2600.00,M,M,M,M,KEVV 011835Z AUTO 01003KT 10SM OVC026 A3021 RMK VRB03KT  MADISHF
EVV,2017-04-01 18:40,-87.5205,38.0441,M,M,M,0.00,0.00,M,30.21,M,10.00,M,OVC,M,M,M,2600.00,M,M,M,M,KEVV 011840Z AUTO 00000KT 10SM OVC026 A3021 RMK MADISHF
EVV,2017-04-01 18:45,-87.5205,38.0441,M,M,M,30.00,4.00,M,30.21,M,10.00,M,OVC,M,M,M,2600.00,M,M,M,M,KEVV 011845Z AUTO 03004KT 10SM OVC026 A3021 RMK MADISHF
EVV,2017-04-01 18:50,-87.5205,38.0441,M,M,M,360.00,5.00,M,30.21,M,10.00,M,OVC,M,M,M,2600.00,M,M,M,M,KEVV 011850Z AUTO 36005KT 10SM OVC026 A3021 RMK MADISHF
EVV,2017-04-01 18:54,-87.5205,38.0441,52.00,39.90,63.24,20.00,3.00,0.00,30.21,1023.20,10.00,M,OVC,M,M,M,2600.00,M,M,M,M,KEVV 011854Z 02003KT 10SM OVC026 11/04 A3021 RMK AO2 SLP232 T01110044 $
EVV,2017-04-01 18:55,-87.5205,38.0441,M,M,M,30.00,3.00,M,30.21,M,10.00,M,OVC,M,M,M,2600.00,M,M,M,M,KEVV 011855Z AUTO 03003KT 10SM OVC026 A3021 RMK MADISHF
EVV,2017-04-01 19:00,-87.5205,38.0441,M,M,M,340.00,6.00,M,30.21,M,10.00,M,OVC,M,M,M,2600.00,M,M,M,M,KEVV 011900Z AUTO 34006KT 10SM OVC026 A3021 RMK MADISHF
EVV,2017-04-01 19:05,-87.5205,38.0441,M,M,M,330.00,5.00,M,30.21,M,10.00,M,OVC,M,M,M,2600.00,M,M,M,M,KEVV 011905Z AUTO 33005KT 10SM OVC026 A3021 RMK MADISHF
EVV,2017-04-01 19:10,-87.5205,38.0441,M,M,M,330.00,5.00,M,30.21,M,10.00,M,OVC,M,M,M,2600.00,M,M,M,M,KEVV 011910Z AUTO 33005KT 10SM OVC026 A3021 RMK VRB05KT  MADISHF
EVV,2017-04-01 19:15,-87.5205,38.0441,M,M,M,340.00,4.00,M,30.21,M,10.00,M,OVC,M,M,M,2600.00,M,M,M,M,KEVV 011915Z AUTO 34004KT 10SM OVC026 A3021 RMK MADISHF
EVV,2017-04-01 19:20,-87.5205,38.0441,M,M,M,10.00,8.00,M,30.21,M,10.00,M,OVC,M,M,M,2700.00,M,M,M,M,KEVV 011920Z AUTO 01008KT 10SM OVC027 A3021 RMK MADISHF
EVV,2017-04-01 19:25,-87.5205,38.0441,M,M,M,10.00,6.00,M,30.21,M,10.00,M,OVC,M,M,M,2700.00,M,M,M,M,KEVV 011925Z AUTO 01006KT 10SM OVC027 A3021 RMK MADISHF
EVV,2017-04-01 19:30,-87.5205,38.0441,M,M,M,0.00,0.00,M,30.21,M,10.00,M,OVC,M,M,M,2700.00,M,M,M,M,KEVV 011930Z AUTO 00000KT 10SM OVC027 A3021 RMK MADISHF
EVV,2017-04-01 19:35,-87.5205,38.0441,M,M,M,350.00,5.00,M,30.21,M,10.00,M,OVC,M,M,M,2700.00,M,M,M,M,KEVV 011935Z AUTO 35005KT 10SM OVC027 A3021 RMK MADISHF
EVV,2017-04-01 19:40,-87.5205,38.0441,M,M,M,10.00,5.00,M,30.21,M,10.00,M,OVC,M,M,M,2700.00,M,M,M,M,KEVV 011940Z AUTO 01005KT 10SM OVC027 A3021 RMK MADISHF
EVV,2017-04-01 19:45,-87.5205,38.0441,M,M,M,10.00,5.00,M,30.21,M,10.00,M,OVC,M,M,M,2700.00,M,M,M,M,KEVV 011945Z AUTO 01005KT 10SM OVC027 A3021 RMK MADISHF
EVV,2017-04-01 19:50,-87.5205,38.0441,M,M,M,20.00,4.00,M,30.21,M,10.00,M,OVC,M,M,M,2700.00,M,M,M,M,KEVV 011950Z AUTO 02004KT 10SM OVC027 A3021 RMK MADISHF
EVV,2017-04-01 19:54,-87.5205,38.0441,52.00,39.00,61.06,40.00,5.00,0.00,30.21,1022.90,10.00,M,OVC,M,M,M,2700.00,M,M,M,M,KEVV 011954Z 04005KT 10SM OVC027 11/04 A3021 RMK AO2 SLP229 T01110039 $
EVV,2017-04-01 19:55,-87.5205,38.0441,M,M,M,30.00,6.00,M,30.21,M,10.00,M,OVC,M,M,M,2500.00,M,M,M,M,KEVV 011955Z AUTO 03006KT 10SM OVC025 A3021 RMK MADISHF
EVV,2017-04-01 20:00,-87.5205,38.0441,M,M,M,340.00,6.00,M,30.21,M,10.00,M,OVC,M,M,M,2500.00,M,M,M,M,KEVV 012000Z AUTO 34006KT 10SM OVC025 A3021 RMK MADISHF
EVV,2017-04-01 20:05,-87.5205,38.0441,M,M,M,330.00,5.00,M,30.21,M,10.00,M,OVC,M,M,M,2500.00,M,M,M,M,KEVV 012005Z AUTO 33005KT 10SM OVC025 A3021 RMK MADISHF
EVV,2017-04-01 20:10,-87.5205,38.0441,M,M,M,350.00,5.00,M,30.21,M,10.00,M,OVC,M,M,M,2500.00,M,M,M,M,KEVV 012010Z AUTO 35005KT 10SM OVC025 A3021 RMK MADISHF
EVV,2017-04-01 20:15,-87.5205,38.0441,M,M,M,10.00,6.00,M,30.21,M,10.00,M,OVC,M,M,M,2500.00,M,M,M,M,KEVV 012015Z AUTO 01006KT 10SM OVC025 A3021 RMK MADISHF
EVV,2017-04-01 20:20,-87.5205,38.0441,M,M,M,350.00,5.00,M,30.21,M,10.00,M,OVC,M,M,M,2500.00,M,M,M,M,KEVV 012020Z AUTO 35005KT 10SM OVC025 A3021 RMK MADISHF
EVV,2017-04-01 20:25,-87.5205,38.0441,M,M,M,10.00,7.00,M,30.21,M,10.00,M,OVC,M,M,M,2500.00,M,M,M,M,KEVV 012025Z AUTO 01007KT 10SM OVC025 A3021 RMK MADISHF
EVV,2017-04-01 20:35,-87.5205,38.0441,M,M,M,340.00,4.00,M,30.21,M,10.00,M,OVC,M,M,M,2500.00,M,M,M,M,KEVV 012035Z AUTO 34004KT 10SM OVC025 A3021 RMK VRB04KT  MADISHF
EVV,2017-04-01 20:40,-87.5205,38.0441,M,M,M,20.00,4.00,M,30.21,M,10.00,M,OVC,M,M,M,2500.00,M,M,M,M,KEVV 012040Z AUTO 02004KT 10SM OVC025 A3021 RMK VRB04KT  MADISHF
EVV,2017-04-01 20:45,-87.5205,38.0441,M,M,M,20.00,5.00,M,30.21,M,10.00,M,OVC,M,M,M,2500.00,M,M,M,M,KEVV 012045Z AUTO 02005KT 10SM OVC025 A3021 RMK MADISHF
EVV,2017-04-01 20:50,-87.5205,38.0441,M,M,M,360.00,4.00,M,30.21,M,10.00,M,OVC,M,M,M,2700.00,M,M,M,M,KEVV 012050Z AUTO 36004KT 10SM OVC027 A3021 RMK MADISHF
EVV,2017-04-01 20:54,-87.5205,38.0441,52.00,39.00,61.06,350.00,6.00,0.00,30.21,1022.90,10.00,M,OVC,M,M,M,2700.00,M,M,M,M,KEVV 012054Z 35006KT 10SM OVC027 11/04 A3021 RMK AO2 SLP229 T01110039 51000 $
EVV,2017-04-01 20:55,-87.5205,38.0441,M,M,M,360.00,6.00,M,30.21,M,10.00,M,OVC,M,M,M,2700.00,M,M,M,M,KEVV 012055Z AUTO 36006KT 10SM OVC027 A3021 RMK MADISHF
EVV,2017-04-01 21:00,-87.5205,38.0441,M,M,M,10.00,4.00,M,30.20,M,10.00,M,OVC,M,M,M,2700.00,M,M,M,M,KEVV 012100Z AUTO 01004KT 10SM OVC027 A3020 RMK MADISHF
EVV,2017-04-01 21:05,-87.5205,38.0441,M,M,M,340.00,6.00,M,30.20,M,10.00,M,OVC,M,M,M,2700.00,M,M,M,M,KEVV 012105Z AUTO 34006KT 10SM OVC027 A3020 RMK MADISHF
EVV,2017-04-01 21:10,-87.5205,38.0441,M,M,M,340.00,4.00,M,30.20,M,10.00,M,OVC,M,M,M,2700.00,M,M,M,M,KEVV 012110Z AUTO 34004KT 10SM OVC027 A3020 RMK MADISHF
EVV,2017-04-01 21:15,-87.5205,38.0441,M,M,M,340.00,3.00,M,30.20,M,10.00,M,OVC,M,M,M,2700.00,M,M,M,M,KEVV 012115Z AUTO 34003KT 10SM OVC027 A3020 RMK VRB03KT  MADISHF
EVV,2017-04-01 21:20,-87.5205,38.0441,M,M,M,20.00,5.00,M,30.20,M,10.00,M,OVC,M,M,M,2700.00,M,M,M,M,KEVV 012120Z AUTO 02005KT 10SM OVC027 A3020 RMK MADISHF
EVV,2017-04-01 21:25,-87.5205,38.0441,M,M,M,350.00,3.00,M,30.20,M,10.00,M,OVC,M,M,M,2700.00,M,M,M,M,KEVV 012125Z AUTO 35003KT 10SM OVC027 A3020 RMK MADISHF
EVV,2017-04-01 21:30,-87.5205,38.0441,M,M,M,360.00,4.00,M,30.20,M,10.00,M,OVC,M,M,M,2700.00,M,M,M,M,KEVV 012130Z AUTO 36004KT 10SM OVC027 A3020 RMK MADISHF
EVV,2017-04-01 21:35,-87.5205,38.0441,M,M,M,20.00,4.00,M,30.20,M,10.00,M,OVC,M,M,M,2700.00,M,M,M,M,KEVV 012135Z AUTO 02004KT 10SM OVC027 A3020 RMK MADISHF
EVV,2017-04-01 21:40,-87.5205,38.0441,M,M,M,10.00,5.00,M,30.20,M,10.00,M,OVC,M,M,M,2700.00,M,M,M,M,KEVV 012140Z AUTO 01005KT 10SM OVC027 A3020 RMK MADISHF
EVV,2017-04-01 21:45,-87.5205,38.0441,M,M,M,10.00,4.00,M,30.20,M,10.00,M,OVC,M,M,M,2700.00,M,M,M,M,KEVV 012145Z AUTO 01004KT 10SM OVC027 A3020 RMK MADISHF
EVV,2017-04-01 21:50,-87.5205,38.0441,M,M,M,30.00,6.00,M,30.20,M,10.00,M,OVC,M,M,M,2700.00,M,M,M,M,KEVV 012150Z AUTO 03006KT 10SM OVC027 A3020 RMK MADISHF
EVV,2017-04-01 21:54,-87.5205,38.0441,52.00,39.90,63.24,0.00,0.00,0.00,30.20,1022.80,10.00,M,OVC,M,M,M,2700.00,M,M,M,M,KEVV 012154Z 00000KT 10SM OVC027 11/04 A3020 RMK AO2 SLP228 T01110044 $
EVV,2017-04-01 21:55,-87.5205,38.0441,M,M,M,0.00,0.00,M,30.20,M,10.00,M,OVC,M,M,M,2700.00,M,M,M,M,KEVV 012155Z AUTO 00000KT 10SM OVC027 A3020 RMK MADISHF
EVV,2017-04-01 22:00,-87.5205,38.0441,M,M,M,40.00,6.00,M,30.20,M,10.00,M,OVC,M,M,M,2700.00,M,M,M,M,KEVV 012200Z AUTO 04006KT 10SM OVC027 A3020 RMK MADISHF
EVV,2017-04-01 22:05,-87.5205,38.0441,M,M,M,50.00,5.00,M,30.20,M,10.00,M,OVC,M,M,M,2800.00,M,M,M,M,KEVV 012205Z AUTO 05005KT 10SM OVC028 A3020 RMK MADISHF
EVV,2017-04-01 22:10,-87.5205,38.0441,M,M,M,40.00,4.00,M,30.20,M,10.00,M,OVC,M,M,M,2800.00,M,M,M,M,KEVV 012210Z AUTO 04004KT 10SM OVC028 A3020 RMK MADISHF
EVV,2017-04-01 22:15,-87.5205,38.0441,M,M,M,30.00,5.00,M,30.20,M,10.00,M,OVC,M,M,M,2800.00,M,M,M,M,KEVV 012215Z AUTO 03005KT 10SM OVC028 A3020 RMK MADISHF
EVV,2017-04-01 22:20,-87.5205,38.0441,M,M,M,50.00,5.00,M,30.19,M,10.00,M,OVC,M,M,M,2800.00,M,M,M,M,KEVV 012220Z AUTO 05005KT 10SM OVC028 A3019 RMK MADISHF
EVV,2017-04-01 22:25,-87.5205,38.0441,M,M,M,40.00,6.00,M,30.19,M,10.00,M,OVC,M,M,M,2800.00,M,M,M,M,KEVV 012225Z AUTO 04006KT 10SM OVC028 A3019 RMK MADISHF
EVV,2017-04-01 22:30,-87.5205,38.0441,M,M,M,30.00,6.00,M,30.19,M,10.00,M,OVC,M,M,M,2800.00,M,M,M,M,KEVV 012230Z AUTO 03006KT 10SM OVC028 A3019 RMK MADISHF
EVV,2017-04-01 22:35,-87.5205,38.0441,M,M,M,60.00,6.00,M,30.20,M,10.00,M,OVC,M,M,M,2800.00,M,M,M,M,KEVV 012235Z AUTO 06006KT 10SM OVC028 A3020 RMK MADISHF
EVV,2017-04-01 22:40,-87.5205,38.0441,M,M,M,40.00,7.00,M,30.20,M,10.00,M,OVC,M,M,M,2800.00,M,M,M,M,KEVV 012240Z AUTO 04007KT 10SM OVC028 A3020 RMK MADISHF
EVV,2017-04-01 22:45,-87.5205,38.0441,M,M,M,40.00,6.00,M,30.20,M,10.00,M,OVC,M,M,M,2700.00,M,M,M,M,KEVV 012245Z AUTO 04006KT 10SM OVC027 A3020 RMK MADISHF
EVV,2017-04-01 22:50,-87.5205,38.0441,M,M,M,40.00,6.00,M,30.20,M,10.00,M,OVC,M,M,M,2700.00,M,M,M,M,KEVV 012250Z AUTO 04006KT 10SM OVC027 A3020 RMK MADISHF
EVV,2017-04-01 22:54,-87.5205,38.0441,51.10,39.90,65.38,60.00,7.00,0.00,30.20,1022.80,10.00,M,OVC,M,M,M,2700.00,M,M,M,M,KEVV 012254Z 06007KT 10SM OVC027 11/04 A3020 RMK AO2 SLP228 T01060044 $
EVV,2017-04-01 22:55,-87.5205,38.0441,M,M,M,50.00,7.00,M,30.20,M,10.00,M,OVC,M,M,M,2700.00,M,M,M,M,KEVV 012255Z AUTO 05007KT 10SM OVC027 A3020 RMK MADISHF
EVV,2017-04-01 23:00,-87.5205,38.0441,M,M,M,70.00,7.00,M,30.20,M,10.00,M,OVC,M,M,M,2700.00,M,M,M,M,KEVV 012300Z AUTO 07007KT 10SM OVC027 A3020 RMK MADISHF
EVV,2017-04-01 23:05,-87.5205,38.0441,M,M,M,50.00,5.00,M,30.20,M,10.00,M,OVC,M,M,M,2700.00,M,M,M,M,KEVV 012305Z AUTO 05005KT 10SM OVC027 A3020 RMK MADISHF
EVV,2017-04-01 23:10,-87.5205,38.0441,M,M,M,60.00,7.00,M,30.21,M,10.00,M,OVC,M,M,M,2700.00,M,M,M,M,KEVV 012310Z AUTO 06007KT 10SM OVC027 A3021 RMK MADISHF
EVV,2017-04-01 23:15,-87.5205,38.0441,M,M,M,40.00,6.00,M,30.21,M,10.00,M,OVC,M,M,M,2700.00,M,M,M,M,KEVV 012315Z AUTO 04006KT 10SM OVC027 A3021 RMK MADISHF
EVV,2017-04-01 23:20,-87.5205,38.0441,M,M,M,50.00,5.00,M,30.21,M,10.00,M,OVC,M,M,M,2700.00,M,M,M,M,KEVV 012320Z AUTO 05005KT 10SM OVC027 A3021 RMK MADISHF
EVV,2017-04-01 23:25,-87.5205,38.0441,M,M,M,50.00,4.00,M,30.21,M,10.00,M,OVC,M,M,M,2700.00,M,M,M,M,KEVV 012325Z AUTO 05004KT 10SM OVC027 A3021 RMK MADISHF
EVV,2017-04-01 23:30,-87.5205,38.0441,M,M,M,40.00,6.00,M,30.21,M,10.00,M,OVC,M,M,M,2700.00,M,M,M,M,KEVV 012330Z AUTO 04006KT 10SM OVC027 A3021 RMK MADISHF
EVV,2017-04-01 23:35,-87.5205,38.0441,M,M,M,40.00,5.00,M,30.21,M,10.00,M,OVC,M,M,M,2700.00,M,M,M,M,KEVV 012335Z AUTO 04005KT 10SM OVC027 A3021 RMK MADISHF
EVV,2017-04-01 23:40,-87.5205,38.0441,M,M,M,50.00,4.00,M,30.21,M,10.00,M,OVC,M,M,M,2700.00,M,M,M,M,KEVV 012340Z AUTO 05004KT 10SM OVC027 A3021 RMK MADISHF
EVV,2017-04-01 23:45,-87.5205,38.0441,M,M,M,70.00,8.00,M,30.21,M,10.00,M,OVC,M,M,M,2700.00,M,M,M,M,KEVV 012345Z AUTO 07008KT 10SM OVC027 A3021 RMK MADISHF
EVV,2017-04-01 23:50,-87.5205,38.0441,M,M,M,40.00,3.00,M,30.21,M,10.00,M,OVC,M,M,M,2700.00,M,M,M,M,KEVV 012350Z AUTO 04003KT 10SM OVC027 A3021 RMK MADISHF
EVV,2017-04-01 23:54,-87.5205,38.0441,50.00,39.00,65.75,0.00,0.00,0.00,30.21,1023.00,10.00,M,OVC,M,M,M,2700.00,M,M,M,M,KEVV 012354Z 00000KT 10SM OVC027 10/04 A3021 RMK AO2 SLP230 T01000039 10117 20100 53001 $
EVV,2017-04-01 23:55,-87.5205,38.0441,M,M,M,50.00,3.00,M,30.21,M,10.00,M,OVC,M,M,M,2700.00,M,M,M,M,KEVV 012355Z AUTO 05003KT 10SM OVC027 A3021 RMK MADISHF
