#DEBUG: Format Typ    -> comma
#DEBUG: Time Period   -> 2017-04-01 00:00:00+00:00 2017-04-02 00:00:00+00:00
#DEBUG: Time Zone     -> Etc/UTC
#DEBUG: Data Contact   -> daryl herzmann akrherz@iastate.edu 515-294-5978
#DEBUG: Entries Found -> -1
station,valid,lon,lat,tmpf, dwpf, relh, drct, sknt, p01i, alti, mslp, vsby, gust, skyc1, skyc2, skyc3, skyc4, skyl1, skyl2, skyl3, skyl4, presentwx, metar
FAR,2017-04-01 00:00,-96.8111,46.9253,M,M,M,10.00,6.00,M,30.08,M,10.00,M,CLR,M,M,M,M,M,M,M,M,KFAR 010000Z AUTO 01006KT 10SM CLR A3008 RMK MADISHF
FAR,2017-04-01 00:05,-96.8111,46.9253,M,M,M,10.00,7.00,M,30.08,M,10.00,M,CLR,M,M,M,M,M,M,M,M,KFAR 010005Z AUTO 01007KT 10SM CLR A3008 RMK MADISHF
FAR,2017-04-01 00:10,-96.8111,46.9253,M,M,M,10.00,6.00,M,30.08,M,10.00,M,CLR,M,M,M,M,M,M,M,M,KFAR 010010Z AUTO 01006KT 10SM CLR A3008 RMK MADISHF
FAR,2017-04-01 00:15,-96.8111,46.9253,M,M,M,10.00,5.00,M,30.08,M,10.00,M,CLR,M,M,M,M,M,M,M,M,KFAR 010015Z AUTO 01005KT 10SM CLR A3008 RMK MADISHF
FAR,2017-04-01 00:20,-96.8111,46.9253,M,M,M,10.00,6.00,M,30.08,M,10.00,M,CLR,M,M,M,M,M,M,M,M,KFAR 010020Z AUTO 01006KT 10SM CLR A3008 RMK MADISHF
FAR,2017-04-01 00:25,-96.8111,46.9253,M,M,M,10.00,6.00,M,30.08,M,10.00,M,CLR,M,M,M,M,M,M,M,M,KFAR 010025Z AUTO 01006KT 10SM CLR A3008 RMK MADISHF
FAR,2017-04-01 00:30,-96.8111,46.9253,M,M,M,10.00,6.00,M,30.08,M,10.00,M,CLR,M,M,M,M,M,M,M,M,KFAR 010030Z AUTO 01006KT 10SM CLR A3008 RMK MADISHF
FAR,2017-04-01 00:35,-96.8111,46.9253,M,M,M,360.00,7.00,M,30.08,M,10.00,M,CLR,M,M,M,M,M,M,M,M,KFAR 010035Z AUTO 36007KT 10SM CLR A3008 RMK MADISHF
FAR,2017-04-01 00:40,-96.8111,46.9253,M,M,M,350.00,6.00,M,30.08,M,10.00,M,CLR,M,M,M,M,M,M,M,M,KFAR 010040Z AUTO 35006KT 10SM CLR A3008 RMK MADISHF
FAR,2017-04-01 00:45,-96.8111,46.9253,M,M,M,360.00,7.00,M,30.09,M,10.00,M,CLR,M,M,M,M,M,M,M,M,KFAR 010045Z AUTO 36007KT 10SM CLR A3009 RMK MADISHF
FAR,2017-04-01 00:50,-96.8111,46.9253,M,M,M,360.00,6.00,M,30.08,M,10.00,M,CLR,M,M,M,M,M,M,M,M,KFAR 010050Z AUTO 36006KT 10SM CLR A3008 RMK MADISHF
FAR,2017-04-01 00:53,-96.8111,46.9253,52.00,39.90,63.24,10.00,6.00,0.00,30.08,1019.60,10.00,M,CLR,M,M,M,M,M,M,M,M,KFAR 010053Z 01006KT 10SM CLR 11/04 A3008 RMK AO2 SLP196 T01110044
FAR,2017-04-01 00:55,-96.8111,46.9253,M,M,M,10.00,5.00,M,30.09,M,10.00,M,CLR,M,M,M,M,M,M,M,M,KFAR 010055Z AUTO 01005KT 10SM CLR A3009 RMK MADISHF
FAR,2017-04-01 01:00,-96.8111,46.9253,M,M,M,10.00,5.00,M,30.09,M,10.00,M,CLR,M,M,M,M,M,M,M,M,KFAR 010100Z AUTO 01005KT 10SM CLR A3009 RMK MADISHF
FAR,2017-04-01 01:05,-96.8111,46.9253,M,M,M,360.00,5.00,M,30.09,M,10.00,M,CLR,M,M,M,M,M,M,M,M,KFAR 010105Z AUTO 36005KT 10SM CLR A3009 RMK MADISHF
FAR,2017-04-01 01:10,-96.8111,46.9253,M,M,M,360.00,5.00,M,30.09,M,10.00,M,CLR,M,M,M,M,M,M,M,M,KFAR 010110Z AUTO 36005KT 10SM CLR A3009 RMK MADISHF
FAR,2017-04-01 01:15,-96.8111,46.9253,M,M,M,360.00,5.00,M,30.09,M,10.00,M,CLR,M,M,M,M,M,M,M,M,KFAR 010115Z AUTO 36005KT 10SM CLR A3009 RMK MADISHF
FAR,2017-04-01 01:20,-96.8111,46.9253,M,M,M,360.00,4.00,M,30.09,M,10.00,M,CLR,M,M,M,M,M,M,M,M,KFAR 010120Z AUTO 36004KT 10SM CLR A3009 RMK MADISHF
FAR,2017-04-01 01:25,-96.8111,46.9253,M,M,M,10.00,4.00,M,30.09,M,10.00,M,CLR,M,M,M,M,M,M,M,M,KFAR 010125Z AUTO 01004KT 10SM CLR A3009 RMK MADISHF
FAR,2017-04-01 01:30,-96.8111,46.9253,M,M,M,20.00,4.00,M,30.09,M,10.00,M,CLR,M,M,M,M,M,M,M,M,KFAR 010130Z AUTO 02004KT 10SM CLR A3009 RMK MADISHF
FAR,2017-04-01 01:35,-96.8111,46.9253,M,M,M,0.00,0.00,M,30.10,M,10.00,M,CLR,M,M,M,M,M,M,M,M,KFAR 010135Z AUTO 00000KT 10SM CLR A3010 RMK MADISHF
FAR,2017-04-01 01:40,-96.8111,46.9253,M,M,M,30.00,3.00,M,30.10,M,10.00,M,CLR,M,M,M,M,M,M,M,M,KFAR 010140Z AUTO 03003KT 10SM CLR A3010 RMK MADISHF
FAR,2017-04-01 01:45,-96.8111,46.9253,M,M,M,40.00,3.00,M,30.10,M,10.00,M,CLR,M,M,M,M,M,M,M,M,KFAR 010145Z AUTO 04003KT 10SM CLR A3010 RMK MADISHF
FAR,2017-04-01 01:50,-96.8111,46.9253,M,M,M,0.00,0.00,M,30.10,M,10.00,M,CLR,M,M,M,M,M,M,M,M,KFAR 010150Z AUTO 00000KT 10SM CLR A3010 RMK MADISHF
FAR,2017-04-01 01:53,-96.8111,46.9253,46.90,37.90,70.73,0.00,0.00,0.00,30.10,1020.00,10.00,M,CLR,M,M,M,M,M,M,M,M,KFAR 010153Z 00000KT 10SM CLR 08/03 A3010 RMK AO2 SLP200 T00830033
FAR,2017-04-01 01:55,-96.8111,46.9253,M,M,M,0.00,0.00,M,30.10,M,10.00,M,CLR,M,M,M,M,M,M,M,M,KFAR 010155Z AUTO 00000KT 10SM CLR A3010 RMK MADISHF
FAR,2017-04-01 02:00,-96.8111,46.9253,M,M,M,20.00,3.00,M,30.10,M,10.00,M,CLR,M,M,M,M,M,M,M,M,KFAR 010200Z AUTO 02003KT 10SM CLR A3010 RMK MADISHF
FAR,2017-04-01 02:05,-96.8111,46.9253,M,M,M,10.00,3.00,M,30.10,M,10.00,M,CLR,M,M,M,M,M,M,M,M,KFAR 010205Z AUTO 01003KT 10SM CLR A3010 RMK MADISHF
FAR,2017-04-01 02:10,-96.8111,46.9253,M,M,M,10.00,3.00,M,30.11,M,10.00,M,CLR,M,M,M,M,M,M,M,M,KFAR 010210Z AUTO 01003KT 10SM CLR A3011 RMK MADISHF
FAR,2017-04-01 02:15,-96.8111,46.9253,M,M,M,10.00,3.00,M,30.11,M,10.00,M,CLR,M,M,M,M,M,M,M,M,KFAR 010215Z AUTO 01003KT 10SM CLR A3011 RMK MADISHF
FAR,2017-04-01 02:20,-96.8111,46.9253,M,M,M,360.00,3.00,M,30.11,M,10.00,M,CLR,M,M,M,M,M,M,M,M,KFAR 010220Z AUTO 36003KT 10SM CLR A3011 RMK MADISHF
FAR,2017-04-01 02:25,-96.8111,46.9253,M,M,M,350.00,3.00,M,30.11,M,10.00,M,CLR,M,M,M,M,M,M,M,M,KFAR 010225Z AUTO 35003KT 10SM CLR A3011 RMK MADISHF
FAR,2017-04-01 02:30,-96.8111,46.9253,M,M,M,350.00,14.00,M,30.11,M,10.00,M,FEW,M,M,M,4900.00,M,M,M,M,KFAR 010230Z AUTO 35014KT 10SM FEW049 A3011 RMK MADISHF
FAR,2017-04-01 02:35,-96.8111,46.9253,M,M,M,360.00,12.00,M,30.13,M,10.00,M,SCT,M,M,M,4900.00,M,M,M,M,KFAR 010235Z AUTO 36012KT 10SM SCT049 A3013 RMK MADISHF
FAR,2017-04-01 02:40,-96.8111,46.9253,M,M,M,360.00,13.00,M,30.13,M,10.00,M,SCT,M,M,M,4900.00,M,M,M,M,KFAR 010240Z AUTO 36013KT 10SM SCT049 A3013 RMK MADISHF
FAR,2017-04-01 02:45,-96.8111,46.9253,M,M,M,10.00,12.00,M,30.13,M,10.00,M,BKN,M,M,M,4900.00,M,M,M,M,KFAR 010245Z AUTO 01012KT 10SM BKN049 A3013 RMK MADISHF
FAR,2017-04-01 02:50,-96.8111,46.9253,M,M,M,10.00,12.00,M,30.13,M,10.00,M,BKN,M,M,M,5000.00,M,M,M,M,KFAR 010250Z AUTO 01012KT 10SM BKN050 A3013 RMK MADISHF
FAR,2017-04-01 02:53,-96.8111,46.9253,48.00,45.00,89.29,360.00,12.00,0.00,30.14,1021.10,10.00,M,BKN,BKN,M,M,5000.00,12000.00,M,M,M,KFAR 010253Z 36012KT 10SM BKN050 BKN120 09/07 A3014 RMK AO2 SLP211 T00890072 53020
FAR,2017-04-01 02:55,-96.8111,46.9253,M,M,M,360.00,11.00,M,30.14,M,10.00,M,BKN,BKN,M,M,5000.00,12000.00,M,M,M,KFAR 010255Z AUTO 36011KT 10SM BKN050 BKN120 A3014 RMK MADISHF
FAR,2017-04-01 03:00,-96.8111,46.9253,M,M,M,350.00,11.00,M,30.14,M,9.00,M,SCT,BKN,M,M,5000.00,12000.00,M,M,M,KFAR 010300Z AUTO 35011KT 9SM SCT050 BKN120 A3014 RMK MADISHF
FAR,2017-04-01 03:05,-96.8111,46.9253,M,M,M,350.00,10.00,M,30.15,M,9.00,M,FEW,SCT,M,M,5000.00,12000.00,M,M,M,KFAR 010305Z AUTO 35010KT 9SM FEW050 SCT120 A3015 RMK MADISHF
FAR,2017-04-01 03:10,-96.8111,46.9253,M,M,M,360.00,9.00,M,30.15,M,9.00,M,FEW,FEW,M,M,5000.00,12000.00,M,M,M,KFAR 010310Z AUTO 36009KT 9SM FEW050 FEW120 A3015 RMK MADISHF
FAR,2017-04-01 03:15,-96.8111,46.9253,M,M,M,350.00,8.00,M,30.15,M,8.00,M,FEW,FEW,FEW,M,5000.00,9500.00,12000.00,M,M,KFAR 010315Z AUTO 35008KT 8SM FEW050 FEW095 FEW120 A3015 RMK MADISHF
FAR,2017-04-01 03:20,-96.8111,46.9253,M,M,M,340.00,11.00,M,30.15,M,8.00,M,FEW,SCT,M,M,9500.00,12000.00,M,M,M,KFAR 010320Z AUTO 34011KT 8SM FEW095 SCT120 A3015 RMK MADISHF
FAR,2017-04-01 03:25,-96.8111,46.9253,M,M,M,350.00,12.00,M,30.16,M,9.00,M,FEW,SCT,M,M,900.00,9500.00,M,M,M,KFAR 010325Z AUTO 35012KT 9SM FEW009 SCT095 A3016 RMK MADISHF
FAR,2017-04-01 03:27,-96.8111,46.9253,46.00,44.10,93.03,350.00,11.00,0.00,30.16,M,9.00,M,FEW,BKN,M,M,900.00,9500.00,M,M,M,KFAR 010327Z 35011KT 9SM FEW009 BKN095 08/07 A3016 RMK AO2 T00780067
FAR,2017-04-01 03:30,-96.8111,46.9253,M,M,M,350.00,11.00,M,30.16,M,10.00,M,FEW,BKN,M,M,900.00,9500.00,M,M,M,KFAR 010330Z AUTO 35011KT 10SM FEW009 BKN095 A3016 RMK MADISHF
FAR,2017-04-01 03:35,-96.8111,46.9253,M,M,M,350.00,10.00,M,30.16,M,10.00,M,FEW,BKN,M,M,900.00,9500.00,M,M,M,KFAR 010335Z AUTO 35010KT 10SM FEW009 BKN095 A3016 RMK MADISHF
FAR,2017-04-01 03:40,-96.8111,46.9253,M,M,M,340.00,9.00,M,30.16,M,10.00,M,FEW,OVC,M,M,900.00,9500.00,M,M,M,KFAR 010340Z AUTO 34009KT 10SM FEW009 OVC095 A3016 RMK MADISHF
FAR,2017-04-01 03:45,-96.8111,46.9253,M,M,M,350.00,11.00,M,30.16,M,10.00,M,FEW,OVC,M,M,900.00,9500.00,M,M,M,KFAR 010345Z AUTO 35011KT 10SM FEW009 OVC095 A3016 RMK MADISHF
FAR,2017-04-01 03:50,-96.8111,46.9253,M,M,M,350.00,11.00,M,30.16,M,9.00,M,FEW,OVC,M,M,900.00,9500.00,M,M,M,KFAR 010350Z AUTO 35011KT 9SM FEW009 OVC095 A3016 RMK MADISHF
FAR,2017-04-01 03:53,-96.8111,46.9253,46.00,43.00,89.20,350.00,11.00,0.00,30.16,1022.00,8.00,M,OVC,M,M,M,9500.00,M,M,M,M,KFAR 010353Z 35011KT 8SM OVC095 08/06 A3016 RMK AO2 SLP220 T00780061
FAR,2017-04-01 03:55,-96.8111,46.9253,M,M,M,350.00,10.00,M,30.16,M,8.00,M,OVC,M,M,M,9500.00,M,M,M,M,KFAR 010355Z AUTO 35010KT 8SM OVC095 A3016 RMK MADISHF
FAR,2017-04-01 04:00,-96.8111,46.9253,M,M,M,350.00,9.00,M,30.16,M,7.00,M,OVC,M,M,M,9500.00,M,M,M,M,KFAR 010400Z AUTO 35009KT 7SM OVC095 A3016 RMK MADISHF
FAR,2017-04-01 04:05,-96.8111,46.9253,M,M,M,360.00,10.00,M,30.16,M,7.00,M,OVC,M,M,M,9500.00,M,M,M,M,KFAR 010405Z AUTO 36010KT 7SM OVC095 A3016 RMK MADISHF
FAR,2017-04-01 04:10,-96.8111,46.9253,M,M,M,360.00,9.00,M,30.16,M,7.00,M,OVC,M,M,M,9500.00,M,M,M,M,KFAR 010410Z AUTO 36009KT 7SM OVC095 A3016 RMK MADISHF
FAR,2017-04-01 04:15,-96.8111,46.9253,M,M,M,10.00,9.00,M,30.16,M,7.00,M,OVC,M,M,M,9500.00,M,M,M,M,KFAR 010415Z AUTO 01009KT 7SM OVC095 A3016 RMK MADISHF
FAR,2017-04-01 04:20,-96.8111,46.9253,M,M,M,350.00,7.00,M,30.16,M,7.00,M,OVC,M,M,M,9500.00,M,M,M,M,KFAR 010420Z AUTO 35007KT 7SM OVC095 A3016 RMK MADISHF
FAR,2017-04-01 04:25,-96.8111,46.9253,M,M,M,350.00,7.00,M,30.17,M,6.00,M,OVC,M,M,M,10000.00,M,M,M,BR,KFAR 010425Z AUTO 35007KT 6SM BR OVC100 A3017 RMK MADISHF
FAR,2017-04-01 04:30,-96.8111,46.9253,M,M,M,360.00,8.00,M,30.17,M,6.00,M,OVC,M,M,M,10000.00,M,M,M,BR,KFAR 010430Z AUTO 36008KT 6SM BR OVC100 A3017 RMK MADISHF
FAR,2017-04-01 04:35,-96.8111,46.9253,M,M,M,350.00,9.00,M,30.17,M,6.00,M,OVC,M,M,M,10000.00,M,M,M,BR,KFAR 010435Z AUTO 35009KT 6SM BR OVC100 A3017 RMK MADISHF
FAR,2017-04-01 04:40,-96.8111,46.9253,M,M,M,350.00,9.00,M,30.17,M,6.00,M,FEW,OVC,M,M,600.00,10000.00,M,M,BR,KFAR 010440Z AUTO 35009KT 6SM BR FEW006 OVC100 A3017 RMK MADISHF
FAR,2017-04-01 04:43,-96.8111,46.9253,44.10,43.00,95.88,360.00,9.00,0.00,30.17,M,6.00,M,FEW,OVC,M,M,600.00,10000.00,M,M,BR,KFAR 010443Z 36009KT 6SM BR FEW006 OVC100 07/06 A3017 RMK AO2 T00670061
FAR,2017-04-01 04:45,-96.8111,46.9253,M,M,M,360.00,9.00,M,30.17,M,6.00,M,FEW,OVC,M,M,600.00,10000.00,M,M,BR,KFAR 010445Z AUTO 36009KT 6SM BR FEW006 OVC100 A3017 RMK MADISHF
FAR,2017-04-01 04:50,-96.8111,46.9253,M,M,M,10.00,9.00,M,30.17,M,6.00,M,OVC,M,M,M,10000.00,M,M,M,BR,KFAR 010450Z AUTO 01009KT 6SM BR OVC100 A3017 RMK MADISHF
FAR,2017-04-01 04:53,-96.8111,46.9253,45.00,43.00,92.65,360.00,9.00,0.00,30.17,1022.10,6.00,M,FEW,OVC,M,M,4400.00,10000.00,M,M,BR,KFAR 010453Z 36009KT 6SM BR FEW044 OVC100 07/06 A3017 RMK AO2 SLP221 T00720061
FAR,2017-04-01 04:55,-96.8111,46.9253,M,M,M,10.00,8.00,M,30.17,M,6.00,M,FEW,OVC,M,M,4400.00,10000.00,M,M,BR,KFAR 010455Z AUTO 01008KT 6SM BR FEW044 OVC100 A3017 RMK MADISHF
FAR,2017-04-01 05:00,-96.8111,46.9253,M,M,M,360.00,7.00,M,30.17,M,7.00,M,FEW,OVC,M,M,4400.00,10000.00,M,M,M,KFAR 010500Z AUTO 36007KT 7SM FEW044 OVC100 A3017 RMK MADISHF
FAR,2017-04-01 05:05,-96.8111,46.9253,M,M,M,360.00,7.00,M,30.17,M,6.00,M,OVC,M,M,M,10000.00,M,M,M,BR,KFAR 010505Z AUTO 36007KT 6SM BR OVC100 A3017 RMK MADISHF
FAR,2017-04-01 05:10,-96.8111,46.9253,M,M,M,360.00,6.00,M,30.17,M,6.00,M,FEW,OVC,M,M,700.00,10000.00,M,M,BR,KFAR 010510Z AUTO 36006KT 6SM BR FEW007 OVC100 A3017 RMK MADISHF
FAR,2017-04-01 05:12,-96.8111,46.9253,44.10,42.10,92.62,360.00,7.00,0.00,30.17,M,6.00,M,SCT,OVC,M,M,700.00,10000.00,M,M,BR,KFAR 010512Z 36007KT 6SM BR SCT007 OVC100 07/06 A3017 RMK AO2 T00670056
FAR,2017-04-01 05:15,-96.8111,46.9253,M,M,M,360.00,7.00,M,30.17,M,6.00,M,BKN,OVC,M,M,700.00,10000.00,M,M,BR,KFAR 010515Z AUTO 36007KT 6SM BR BKN007 OVC100 A3017 RMK MADISHF
FAR,2017-04-01 05:20,-96.8111,46.9253,M,M,M,360.00,8.00,M,30.17,M,6.00,M,BKN,OVC,M,M,700.00,10000.00,M,M,BR,KFAR 010520Z AUTO 36008KT 6SM BR BKN007 OVC100 A3017 RMK MADISHF
FAR,2017-04-01 05:21,-96.8111,46.9253,44.10,43.00,95.88,360.00,9.00,0.00,30.18,M,6.00,M,BKN,OVC,M,M,600.00,10000.00,M,M,BR,KFAR 010521Z 36009KT 6SM BR BKN006 OVC100 07/06 A3018 RMK AO2 T00670061
FAR,2017-04-01 05:25,-96.8111,46.9253,M,M,M,10.00,9.00,M,30.17,M,6.00,M,BKN,OVC,M,M,600.00,10000.00,M,M,BR,KFAR 010525Z AUTO 01009KT 6SM BR BKN006 OVC100 A3017 RMK MADISHF
FAR,2017-04-01 05:30,-96.8111,46.9253,M,M,M,10.00,7.00,M,30.18,M,6.00,M,OVC,M,M,M,600.00,M,M,M,BR,KFAR 010530Z AUTO 01007KT 6SM BR OVC006 A3018 RMK MADISHF
FAR,2017-04-01 05:35,-96.8111,46.9253,M,M,M,360.00,9.00,M,30.18,M,6.00,M,OVC,M,M,M,600.00,M,M,M,BR,KFAR 010535Z AUTO 36009KT 6SM BR OVC006 A3018 RMK MADISHF
FAR,2017-04-01 05:40,-96.8111,46.9253,M,M,M,360.00,9.00,M,30.18,M,6.00,M,OVC,M,M,M,600.00,M,M,M,BR,KFAR 010540Z AUTO 36009KT 6SM BR OVC006 A3018 RMK MADISHF
FAR,2017-04-01 05:45,-96.8111,46.9253,M,M,M,360.00,8.00,M,30.18,M,6.00,M,OVC,M,M,M,600.00,M,M,M,BR,KFAR 010545Z AUTO 36008KT 6SM BR OVC006 A3018 RMK MADISHF
FAR,2017-04-01 05:50,-96.8111,46.9253,M,M,M,360.00,8.00,M,30.18,M,5.00,M,OVC,M,M,M,600.00,M,M,M,BR,KFAR 010550Z AUTO 36008KT 5SM BR OVC006 A3018 RMK MADISHF
FAR,2017-04-01 05:53,-96.8111,46.9253,44.10,43.00,95.88,360.00,7.00,0.00,30.18,1022.50,5.00,M,OVC,M,M,M,500.00,M,M,M,BR,KFAR 010553Z 36007KT 5SM BR OVC005 07/06 A3018 RMK AO2 SLP225 T00670061 10144 20067 401671006 51014
FAR,2017-04-01 05:55,-96.8111,46.9253,M,M,M,360.00,8.00,M,30.18,M,5.00,M,OVC,M,M,M,499.00,M,M,M,BR,KFAR 010555Z AUTO 36008KT 5SM BR OVC004 A3018 RMK MADISHF
FAR,2017-04-01 06:00,-96.8111,46.9253,M,M,M,360.00,9.00,M,30.18,M,5.00,M,OVC,M,M,M,499.00,M,M,M,BR,KFAR 010600Z AUTO 36009KT 5SM BR OVC004 A3018 RMK MADISHF
FAR,2017-04-01 06:05,-96.8111,46.9253,M,M,M,360.00,10.00,M,30.18,M,6.00,M,OVC,M,M,M,499.00,M,M,M,BR,KFAR 010605Z AUTO 36010KT 6SM BR OVC004 A3018 RMK MADISHF
FAR,2017-04-01 06:10,-96.8111,46.9253,M,M,M,360.00,8.00,M,30.18,M,6.00,M,OVC,M,M,M,499.00,M,M,M,BR,KFAR 010610Z AUTO 36008KT 6SM BR OVC004 A3018 RMK MADISHF
FAR,2017-04-01 06:15,-96.8111,46.9253,M,M,M,360.00,10.00,M,30.18,M,6.00,M,OVC,M,M,M,499.00,M,M,M,BR,KFAR 010615Z AUTO 36010KT 6SM BR OVC004 A3018 RMK MADISHF
FAR,2017-04-01 06:20,-96.8111,46.9253,M,M,M,10.00,9.00,M,30.18,M,6.00,M,OVC,M,M,M,499.00,M,M,M,BR,KFAR 010620Z AUTO 01009KT 6SM BR OVC004 A3018 RMK MADISHF
FAR,2017-04-01 06:25,-96.8111,46.9253,M,M,M,360.00,11.00,M,30.18,M,6.00,M,OVC,M,M,M,499.00,M,M,M,BR,KFAR 010625Z AUTO 36011KT 6SM BR OVC004 A3018 RMK MADISHF
FAR,2017-04-01 06:30,-96.8111,46.9253,M,M,M,10.00,10.00,M,30.18,M,6.00,M,OVC,M,M,M,499.00,M,M,M,BR,KFAR 010630Z AUTO 01010KT 6SM BR OVC004 A3018 RMK MADISHF
FAR,2017-04-01 06:35,-96.8111,46.9253,M,M,M,10.00,8.00,M,30.18,M,6.00,M,OVC,M,M,M,499.00,M,M,M,BR,KFAR 010635Z AUTO 01008KT 6SM BR OVC004 A3018 RMK MADISHF
FAR,2017-04-01 06:40,-96.8111,46.9253,M,M,M,10.00,8.00,M,30.18,M,6.00,M,OVC,M,M,M,499.00,M,M,M,BR,KFAR 010640Z AUTO 01008KT 6SM BR OVC004 A3018 RMK MADISHF
FAR,2017-04-01 06:45,-96.8111,46.9253,M,M,M,10.00,6.00,M,30.18,M,6.00,M,OVC,M,M,M,499.00,M,M,M,BR,KFAR 010645Z AUTO 01006KT 6SM BR OVC004 A3018 RMK MADISHF
FAR,2017-04-01 06:50,-96.8111,46.9253,M,M,M,10.00,8.00,M,30.18,M,6.00,M,OVC,M,M,M,400.00,M,M,M,BR,KFAR 010650Z AUTO 01008KT 6SM BR OVC004 A3018 RMK MADISHF
FAR,2017-04-01 06:53,-96.8111,46.9253,45.00,43.00,92.65,360.00,7.00,0.00,30.18,1022.50,6.00,M,OVC,M,M,M,400.00,M,M,M,BR,KFAR 010653Z 36007KT 6SM BR OVC004 07/06 A3018 RMK AO2 SLP225 T00720061
FAR,2017-04-01 06:55,-96.8111,46.9253,M,M,M,360.00,7.00,M,30.18,M,6.00,M,OVC,M,M,M,400.00,M,M,M,BR,KFAR 010655Z AUTO 36007KT 6SM BR OVC004 A3018 RMK MADISHF
FAR,2017-04-01 07:00,-96.8111,46.9253,M,M,M,360.00,7.00,M,30.19,M,5.00,M,OVC,M,M,M,400.00,M,M,M,BR,KFAR 010700Z AUTO 36007KT 5SM BR OVC004 A3019 RMK MADISHF
FAR,2017-04-01 07:05,-96.8111,46.9253,M,M,M,10.00,5.00,M,30.18,M,5.00,M,OVC,M,M,M,400.00,M,M,M,BR,KFAR 010705Z AUTO 01005KT 5SM BR OVC004 A3018 RMK MADISHF
FAR,2017-04-01 07:10,-96.8111,46.9253,M,M,M,360.00,6.00,M,30.19,M,5.00,M,OVC,M,M,M,400.00,M,M,M,BR,KFAR 010710Z AUTO 36006KT 5SM BR OVC004 A3019 RMK MADISHF
FAR,2017-04-01 07:15,-96.8111,46.9253,M,M,M,360.00,6.00,M,30.19,M,5.00,M,OVC,M,M,M,400.00,M,M,M,BR,KFAR 010715Z AUTO 36006KT 5SM BR OVC004 A3019 RMK MADISHF
FAR,2017-04-01 07:20,-96.8111,46.9253,M,M,M,360.00,6.00,M,30.19,M,5.00,M,OVC,M,M,M,400.00,M,M,M,BR,KFAR 010720Z AUTO 36006KT 5SM BR OVC004 A3019 RMK MADISHF
FAR,2017-04-01 07:25,-96.8111,46.9253,M,M,M,360.00,7.00,M,30.19,M,5.00,M,OVC,M,M,M,400.00,M,M,M,-RA BR,KFAR 010725Z AUTO 36007KT 5SM -RA BR OVC004 A3019 RMK MADISHF
FAR,2017-04-01 07:30,-96.8111,46.9253,M,M,M,350.00,8.00,M,30.19,M,5.00,M,OVC,M,M,M,400.00,M,M,M,-RA BR,KFAR 010730Z AUTO 35008KT 5SM -RA BR OVC004 A3019 RMK MADISHF
FAR,2017-04-01 07:35,-96.8111,46.9253,M,M,M,350.00,7.00,M,30.19,M,5.00,M,OVC,M,M,M,400.00,M,M,M,-RA BR,KFAR 010735Z AUTO 35007KT 5SM -RA BR OVC004 A3019 RMK MADISHF
FAR,2017-04-01 07:40,-96.8111,46.9253,M,M,M,350.00,6.00,M,30.19,M,4.00,M,OVC,M,M,M,400.00,M,M,M,-RA BR,KFAR 010740Z AUTO 35006KT 4SM -RA BR OVC004 A3019 RMK MADISHF
FAR,2017-04-01 07:45,-96.8111,46.9253,M,M,M,350.00,6.00,M,30.19,M,4.00,M,OVC,M,M,M,400.00,M,M,M,-RA BR,KFAR 010745Z AUTO 35006KT 4SM -RA BR OVC004 A3019 RMK MADISHF
FAR,2017-04-01 07:50,-96.8111,46.9253,M,M,M,350.00,6.00,M,30.19,M,4.00,M,OVC,M,M,M,400.00,M,M,M,-RA BR,KFAR 010750Z AUTO 35006KT 4SM -RA BR OVC004 A3019 RMK MADISHF
FAR,2017-04-01 07:53,-96.8111,46.9253,44.10,43.00,95.88,350.00,5.00,0.00,30.19,1022.90,4.00,M,OVC,M,M,M,400.00,M,M,M,-RA BR,KFAR 010753Z 35005KT 4SM -RA BR OVC004 07/06 A3019 RMK AO2 RAB24 SLP229 P0000 T00670061
FAR,2017-04-01 07:55,-96.8111,46.9253,M,M,M,350.00,5.00,M,30.19,M,4.00,M,OVC,M,M,M,400.00,M,M,M,-RA BR,KFAR 010755Z AUTO 35005KT 4SM -RA BR OVC004 A3019 RMK MADISHF
FAR,2017-04-01 08:00,-96.8111,46.9253,M,M,M,350.00,5.00,M,30.19,M,3.50,M,OVC,M,M,M,400.00,M,M,M,-RA BR,KFAR 010800Z AUTO 35005KT 3SM -RA BR OVC004 A3019 RMK MADISHF
FAR,2017-04-01 08:05,-96.8111,46.9253,M,M,M,340.00,6.00,M,30.19,M,2.50,M,OVC,M,M,M,300.00,M,M,M,-RA BR,KFAR 010805Z AUTO 34006KT 2 1/2SM -RA BR OVC003 A3019 RMK MADISHF
FAR,2017-04-01 08:08,-96.8111,46.9253,43.00,43.00,100.00,340.00,6.00,0.00,30.19,M,1.75,M,OVC,M,M,M,300.00,M,M,M,-RA BR,KFAR 010808Z 34006KT 1 3/4SM -RA BR OVC003 06/06 A3019 RMK AO2 P0000 T00610061
FAR,2017-04-01 08:10,-96.8111,46.9253,M,M,M,350.00,6.00,M,30.19,M,1.50,M,OVC,M,M,M,300.00,M,M,M,-RA BR,KFAR 010810Z AUTO 35006KT 1 1/2SM -RA BR OVC003 A3019 RMK MADISHF
FAR,2017-04-01 08:15,-96.8111,46.9253,M,M,M,360.00,4.00,M,30.19,M,1.25,M,OVC,M,M,M,300.00,M,M,M,-RA BR,KFAR 010815Z AUTO 36004KT 1 1/2SM -RA BR OVC003 A3019 RMK MADISHF
FAR,2017-04-01 08:20,-96.8111,46.9253,M,M,M,360.00,4.00,M,30.19,M,1.25,M,OVC,M,M,M,300.00,M,M,M,-RA BR,KFAR 010820Z AUTO 36004KT 1 1/2SM -RA BR OVC003 A3019 RMK MADISHF
FAR,2017-04-01 08:25,-96.8111,46.9253,M,M,M,360.00,4.00,M,30.19,M,2.00,M,OVC,M,M,M,300.00,M,M,M,-RA BR,KFAR 010825Z AUTO 36004KT 2SM -RA BR OVC003 A3019 RMK MADISHF
FAR,2017-04-01 08:29,-96.8111,46.9253,43.00,43.00,100.00,360.00,4.00,0.00,30.19,M,3.00,M,OVC,M,M,M,300.00,M,M,M,-RA BR,KFAR 010829Z 36004KT 3SM -RA BR OVC003 06/06 A3019 RMK AO2 P0000 T00610061
FAR,2017-04-01 08:30,-96.8111,46.9253,M,M,M,10.00,4.00,M,30.19,M,3.00,M,OVC,M,M,M,300.00,M,M,M,-RA BR,KFAR 010830Z AUTO 01004KT 3SM -RA BR OVC003 A3019 RMK MADISHF
FAR,2017-04-01 08:35,-96.8111,46.9253,M,M,M,10.00,6.00,M,30.20,M,3.50,M,OVC,M,M,M,300.00,M,M,M,-RA BR,KFAR 010835Z AUTO 01006KT 3SM -RA BR OVC003 A3020 RMK MADISHF
FAR,2017-04-01 08:40,-96.8111,46.9253,M,M,M,360.00,5.00,M,30.20,M,4.00,M,OVC,M,M,M,300.00,M,M,M,-RA BR,KFAR 010840Z AUTO 36005KT 4SM -RA BR OVC003 A3020 RMK MADISHF
FAR,2017-04-01 08:45,-96.8111,46.9253,M,M,M,10.00,4.00,M,30.20,M,5.00,M,BKN,OVC,M,M,300.00,4800.00,M,M,BR,KFAR 010845Z AUTO 01004KT 5SM BR BKN003 OVC048 A3020 RMK CIG 2V6  MADISHF
FAR,2017-04-01 08:50,-96.8111,46.9253,M,M,M,360.00,3.00,M,30.20,M,6.00,M,BKN,OVC,M,M,300.00,4800.00,M,M,BR,KFAR 010850Z AUTO 36003KT 6SM BR BKN003 OVC048 A3020 RMK MADISHF
FAR,2017-04-01 08:53,-96.8111,46.9253,43.00,42.10,96.60,360.00,3.00,0.00,30.20,1023.10,6.00,M,SCT,OVC,M,M,300.00,4800.00,M,M,BR,KFAR 010853Z 36003KT 6SM BR SCT003 OVC048 06/06 A3020 RMK AO2 RAE45 SLP231 P0000 60000 T00610056 52007
FAR,2017-04-01 08:55,-96.8111,46.9253,M,M,M,360.00,3.00,M,30.20,M,5.00,M,SCT,OVC,M,M,300.00,4800.00,M,M,BR,KFAR 010855Z AUTO 36003KT 5SM BR SCT003 OVC048 A3020 RMK MADISHF
FAR,2017-04-01 09:00,-96.8111,46.9253,M,M,M,350.00,3.00,M,30.20,M,5.00,M,FEW,OVC,M,M,300.00,4800.00,M,M,-RA BR,KFAR 010900Z AUTO 35003KT 5SM -RA BR FEW003 OVC048 A3020 RMK MADISHF
FAR,2017-04-01 09:05,-96.8111,46.9253,M,M,M,0.00,0.00,M,30.20,M,5.00,M,FEW,OVC,M,M,300.00,4800.00,M,M,-RA BR,KFAR 010905Z AUTO 00000KT 5SM -RA BR FEW003 OVC048 A3020 RMK MADISHF
FAR,2017-04-01 09:10,-96.8111,46.9253,M,M,M,320.00,3.00,M,30.20,M,5.00,M,FEW,OVC,M,M,600.00,4600.00,M,M,-RA BR,KFAR 010910Z AUTO 32003KT 5SM -RA BR FEW006 OVC046 A3020 RMK MADISHF
FAR,2017-04-01 09:15,-96.8111,46.9253,M,M,M,300.00,3.00,M,30.21,M,5.00,M,SCT,OVC,M,M,600.00,4600.00,M,M,-RA BR,KFAR 010915Z AUTO 30003KT 5SM -RA BR SCT006 OVC046 A3021 RMK MADISHF
FAR,2017-04-01 09:20,-96.8111,46.9253,M,M,M,320.00,6.00,M,30.21,M,5.00,M,BKN,OVC,M,M,600.00,4600.00,M,M,-RA BR,KFAR 010920Z AUTO 32006KT 5SM -RA BR BKN006 OVC046 A3021 RMK MADISHF
FAR,2017-04-01 09:21,-96.8111,46.9253,43.00,42.10,96.60,320.00,6.00,0.00,30.21,M,5.00,M,BKN,OVC,M,M,400.00,4600.00,M,M,-RA BR,KFAR 010921Z 32006KT 5SM -RA BR BKN004 OVC046 06/06 A3021 RMK AO2 RAB0857 P0000 T00610056
FAR,2017-04-01 09:25,-96.8111,46.9253,M,M,M,310.00,6.00,M,30.21,M,5.00,M,BKN,OVC,M,M,400.00,4600.00,M,M,-RA BR,KFAR 010925Z AUTO 31006KT 5SM -RA BR BKN004 OVC046 A3021 RMK MADISHF
FAR,2017-04-01 09:30,-96.8111,46.9253,M,M,M,310.00,6.00,M,30.21,M,6.00,M,BKN,OVC,M,M,400.00,4400.00,M,M,-RA BR,KFAR 010930Z AUTO 31006KT 6SM -RA BR BKN004 OVC044 A3021 RMK MADISHF
FAR,2017-04-01 09:35,-96.8111,46.9253,M,M,M,320.00,9.00,M,30.21,M,7.00,M,OVC,M,M,M,400.00,M,M,M,-RA,KFAR 010935Z AUTO 32009KT 7SM -RA OVC004 A3021 RMK MADISHF
FAR,2017-04-01 09:40,-96.8111,46.9253,M,M,M,310.00,9.00,M,30.21,M,7.00,M,OVC,M,M,M,400.00,M,M,M,-RA,KFAR 010940Z AUTO 31009KT 7SM -RA OVC004 A3021 RMK MADISHF
FAR,2017-04-01 09:45,-96.8111,46.9253,M,M,M,310.00,7.00,0.01,30.21,M,8.00,M,OVC,M,M,M,400.00,M,M,M,-RA,KFAR 010945Z AUTO 31007KT 8SM -RA OVC004 A3021 RMK P0001 MADISHF
FAR,2017-04-01 09:50,-96.8111,46.9253,M,M,M,320.00,8.00,0.01,30.21,M,9.00,M,OVC,M,M,M,400.00,M,M,M,-RA,KFAR 010950Z AUTO 32008KT 9SM -RA OVC004 A3021 RMK P0001 MADISHF
FAR,2017-04-01 09:53,-96.8111,46.9253,42.10,41.00,95.84,320.00,9.00,0.01,30.21,1023.50,10.00,M,OVC,M,M,M,400.00,M,M,M,M,KFAR 010953Z 32009KT 10SM OVC004 06/05 A3021 RMK AO2 RAB0857E53 SLP235 P0001 T00560050
FAR,2017-04-01 09:55,-96.8111,46.9253,M,M,M,320.00,7.00,M,30.21,M,10.00,M,OVC,M,M,M,400.00,M,M,M,M,KFAR 010955Z AUTO 32007KT 10SM OVC004 A3021 RMK MADISHF
FAR,2017-04-01 10:00,-96.8111,46.9253,M,M,M,330.00,8.00,M,30.21,M,10.00,M,OVC,M,M,M,400.00,M,M,M,M,KFAR 011000Z AUTO 33008KT 10SM OVC004 A3021 RMK CIG 4V7  MADISHF
FAR,2017-04-01 10:05,-96.8111,46.9253,M,M,M,330.00,7.00,M,30.21,M,10.00,M,OVC,M,M,M,600.00,M,M,M,M,KFAR 011005Z AUTO 33007KT 10SM OVC006 A3021 RMK CIG 4V8  MADISHF
FAR,2017-04-01 10:10,-96.8111,46.9253,42.10,41.00,95.84,330.00,6.00,0.00,30.20,M,10.00,M,OVC,M,M,M,600.00,M,M,M,M,KFAR 011010Z 33006KT 10SM OVC006 06/05 A3020 RMK AO2 CIG 004V009 T00560050
FAR,2017-04-01 10:15,-96.8111,46.9253,M,M,M,340.00,6.00,M,30.20,M,9.00,M,OVC,M,M,M,600.00,M,M,M,M,KFAR 011015Z AUTO 34006KT 9SM OVC006 A3020 RMK CIG 4V9  MADISHF
FAR,2017-04-01 10:20,-96.8111,46.9253,M,M,M,330.00,5.00,M,30.20,M,8.00,M,OVC,M,M,M,600.00,M,M,M,M,KFAR 011020Z AUTO 33005KT 8SM OVC006 A3020 RMK CIG 3V9  MADISHF
FAR,2017-04-01 10:25,-96.8111,46.9253,M,M,M,330.00,6.00,M,30.21,M,7.00,M,BKN,OVC,M,M,400.00,800.00,M,M,M,KFAR 011025Z AUTO 33006KT 7SM BKN004 OVC008 A3021 RMK CIG 3V7  MADISHF
FAR,2017-04-01 10:27,-96.8111,46.9253,42.10,41.00,95.84,320.00,6.00,0.00,30.21,M,7.00,M,BKN,OVC,M,M,400.00,800.00,M,M,M,KFAR 011027Z 32006KT 7SM BKN004 OVC008 06/05 A3021 RMK AO2 CIG 003V007 T00560050
FAR,2017-04-01 10:30,-96.8111,46.9253,M,M,M,310.00,9.00,M,30.21,M,6.00,M,BKN,OVC,M,M,400.00,800.00,M,M,BR,KFAR 011030Z AUTO 31009KT 6SM BR BKN004 OVC008 A3021 RMK MADISHF
FAR,2017-04-01 10:35,-96.8111,46.9253,M,M,M,320.00,8.00,M,30.21,M,5.00,M,OVC,M,M,M,400.00,M,M,M,BR,KFAR 011035Z AUTO 32008KT 5SM BR OVC004 A3021 RMK MADISHF
FAR,2017-04-01 10:40,-96.8111,46.9253,M,M,M,330.00,8.00,M,30.21,M,5.00,M,OVC,M,M,M,400.00,M,M,M,BR,KFAR 011040Z AUTO 33008KT 5SM BR OVC004 A3021 RMK MADISHF
FAR,2017-04-01 10:45,-96.8111,46.9253,M,M,M,340.00,9.00,M,30.21,M,5.00,M,OVC,M,M,M,400.00,M,M,M,BR,KFAR 011045Z AUTO 34009KT 5SM BR OVC004 A3021 RMK MADISHF
FAR,2017-04-01 10:50,-96.8111,46.9253,M,M,M,340.00,8.00,M,30.21,M,5.00,M,OVC,M,M,M,400.00,M,M,M,BR,KFAR 011050Z AUTO 34008KT 5SM BR OVC004 A3021 RMK MADISHF
FAR,2017-04-01 10:53,-96.8111,46.9253,41.00,41.00,100.00,340.00,7.00,0.00,30.21,1023.40,5.00,M,OVC,M,M,M,400.00,M,M,M,BR,KFAR 011053Z 34007KT 5SM BR OVC004 05/05 A3021 RMK AO2 SLP234 T00500050
FAR,2017-04-01 10:55,-96.8111,46.9253,M,M,M,340.00,7.00,M,30.21,M,6.00,M,OVC,M,M,M,400.00,M,M,M,BR,KFAR 011055Z AUTO 34007KT 6SM BR OVC004 A3021 RMK MADISHF
FAR,2017-04-01 11:00,-96.8111,46.9253,M,M,M,340.00,7.00,M,30.21,M,6.00,M,OVC,M,M,M,400.00,M,M,M,BR,KFAR 011100Z AUTO 34007KT 6SM BR OVC004 A3021 RMK MADISHF
FAR,2017-04-01 11:05,-96.8111,46.9253,M,M,M,340.00,6.00,M,30.21,M,6.00,M,OVC,M,M,M,400.00,M,M,M,BR,KFAR 011105Z AUTO 34006KT 6SM BR OVC004 A3021 RMK MADISHF
FAR,2017-04-01 11:10,-96.8111,46.9253,M,M,M,340.00,6.00,M,30.21,M,6.00,M,OVC,M,M,M,400.00,M,M,M,BR,KFAR 011110Z AUTO 34006KT 6SM BR OVC004 A3021 RMK MADISHF
FAR,2017-04-01 11:15,-96.8111,46.9253,M,M,M,350.00,6.00,M,30.21,M,5.00,M,OVC,M,M,M,400.00,M,M,M,BR,KFAR 011115Z AUTO 35006KT 5SM BR OVC004 A3021 RMK MADISHF
FAR,2017-04-01 11:20,-96.8111,46.9253,M,M,M,350.00,6.00,M,30.21,M,5.00,M,OVC,M,M,M,400.00,M,M,M,BR,KFAR 011120Z AUTO 35006KT 5SM BR OVC004 A3021 RMK MADISHF
FAR,2017-04-01 11:25,-96.8111,46.9253,M,M,M,350.00,7.00,M,30.21,M,5.00,M,OVC,M,M,M,400.00,M,M,M,BR,KFAR 011125Z AUTO 35007KT 5SM BR OVC004 A3021 RMK MADISHF
FAR,2017-04-01 11:30,-96.8111,46.9253,M,M,M,340.00,5.00,M,30.21,M,5.00,M,OVC,M,M,M,400.00,M,M,M,BR,KFAR 011130Z AUTO 34005KT 5SM BR OVC004 A3021 RMK MADISHF
FAR,2017-04-01 11:35,-96.8111,46.9253,M,M,M,340.00,6.00,M,30.21,M,5.00,M,OVC,M,M,M,400.00,M,M,M,BR,KFAR 011135Z AUTO 34006KT 5SM BR OVC004 A3021 RMK MADISHF
FAR,2017-04-01 11:40,-96.8111,46.9253,M,M,M,340.00,5.00,M,30.21,M,5.00,M,OVC,M,M,M,400.00,M,M,M,BR,KFAR 011140Z AUTO 34005KT 5SM BR OVC004 A3021 RMK MADISHF
FAR,2017-04-01 11:45,-96.8111,46.9253,M,M,M,340.00,5.00,M,30.21,M,4.00,M,OVC,M,M,M,400.00,M,M,M,BR,KFAR 011145Z AUTO 34005KT 4SM BR OVC004 A3021 RMK MADISHF
FAR,2017-04-01 11:50,-96.8111,46.9253,M,M,M,330.00,7.00,M,30.21,M,4.00,M,OVC,M,M,M,400.00,M,M,M,BR,KFAR 011150Z AUTO 33007KT 4SM BR OVC004 A3021 RMK MADISHF
FAR,2017-04-01 11:53,-96.8111,46.9253,41.00,39.90,95.82,340.00,6.00,0.00,30.21,1023.70,5.00,M,OVC,M,M,M,400.00,M,M,M,BR,KFAR 011153Z 34006KT 5SM BR OVC004 05/04 A3021 RMK AO2 SLP237 60001 70001 T00500044 10072 20050 51005
FAR,2017-04-01 11:55,-96.8111,46.9253,M,M,M,340.00,6.00,M,30.21,M,5.00,M,OVC,M,M,M,400.00,M,M,M,BR,KFAR 011155Z AUTO 34006KT 5SM BR OVC004 A3021 RMK MADISHF
FAR,2017-04-01 12:00,-96.8111,46.9253,M,M,M,340.00,6.00,M,30.21,M,6.00,M,OVC,M,M,M,400.00,M,M,M,BR,KFAR 011200Z AUTO 34006KT 6SM BR OVC004 A3021 RMK MADISHF
FAR,2017-04-01 12:05,-96.8111,46.9253,M,M,M,350.00,6.00,M,30.21,M,6.00,M,OVC,M,M,M,400.00,M,M,M,BR,KFAR 011205Z AUTO 35006KT 6SM BR OVC004 A3021 RMK MADISHF
FAR,2017-04-01 12:10,-96.8111,46.9253,M,M,M,340.00,5.00,M,30.21,M,6.00,M,OVC,M,M,M,400.00,M,M,M,BR,KFAR 011210Z AUTO 34005KT 6SM BR OVC004 A3021 RMK MADISHF
FAR,2017-04-01 12:15,-96.8111,46.9253,M,M,M,340.00,5.00,M,30.21,M,6.00,M,OVC,M,M,M,400.00,M,M,M,BR,KFAR 011215Z AUTO 34005KT 6SM BR OVC004 A3021 RMK MADISHF
FAR,2017-04-01 12:20,-96.8111,46.9253,M,M,M,340.00,5.00,M,30.21,M,6.00,M,OVC,M,M,M,400.00,M,M,M,BR,KFAR 011220Z AUTO 34005KT 6SM BR OVC004 A3021 RMK MADISHF
FAR,2017-04-01 12:25,-96.8111,46.9253,M,M,M,340.00,6.00,M,30.21,M,5.00,M,OVC,M,M,M,400.00,M,M,M,BR,KFAR 011225Z AUTO 34006KT 5SM BR OVC004 A3021 RMK MADISHF
FAR,2017-04-01 12:30,-96.8111,46.9253,M,M,M,340.00,6.00,M,30.21,M,5.00,M,OVC,M,M,M,400.00,M,M,M,BR,KFAR 011230Z AUTO 34006KT 5SM BR OVC004 A3021 RMK MADISHF
FAR,2017-04-01 12:35,-96.8111,46.9253,M,M,M,340.00,7.00,M,30.22,M,5.00,M,OVC,M,M,M,400.00,M,M,M,BR,KFAR 011235Z AUTO 34007KT 5SM BR OVC004 A3022 RMK MADISHF
FAR,2017-04-01 12:40,-96.8111,46.9253,M,M,M,340.00,6.00,M,30.22,M,5.00,M,OVC,M,M,M,400.00,M,M,M,BR,KFAR 011240Z AUTO 34006KT 5SM BR OVC004 A3022 RMK MADISHF
FAR,2017-04-01 12:45,-96.8111,46.9253,M,M,M,340.00,5.00,M,30.22,M,5.00,M,OVC,M,M,M,400.00,M,M,M,BR,KFAR 011245Z AUTO 34005KT 5SM BR OVC004 A3022 RMK MADISHF
FAR,2017-04-01 12:50,-96.8111,46.9253,M,M,M,350.00,6.00,M,30.22,M,4.00,M,OVC,M,M,M,400.00,M,M,M,BR,KFAR 011250Z AUTO 35006KT 4SM BR OVC004 A3022 RMK MADISHF
FAR,2017-04-01 12:53,-96.8111,46.9253,41.00,39.90,95.82,350.00,5.00,0.00,30.22,1024.00,3.00,M,OVC,M,M,M,400.00,M,M,M,BR,KFAR 011253Z 35005KT 3SM BR OVC004 05/04 A3022 RMK AO2 SLP240 T00500044
FAR,2017-04-01 12:55,-96.8111,46.9253,M,M,M,350.00,5.00,M,30.22,M,3.00,M,OVC,M,M,M,300.00,M,M,M,BR,KFAR 011255Z AUTO 35005KT 3SM BR OVC003 A3022 RMK MADISHF
FAR,2017-04-01 13:00,-96.8111,46.9253,M,M,M,340.00,5.00,M,30.22,M,2.50,M,OVC,M,M,M,300.00,M,M,M,BR,KFAR 011300Z AUTO 34005KT 2 1/2SM BR OVC003 A3022 RMK MADISHF
FAR,2017-04-01 13:03,-96.8111,46.9253,41.00,39.90,95.82,330.00,5.00,0.00,30.22,M,2.50,M,OVC,M,M,M,300.00,M,M,M,BR,KFAR 011303Z 33005KT 2 1/2SM BR OVC003 05/04 A3022 RMK AO2 T00500044
FAR,2017-04-01 13:05,-96.8111,46.9253,M,M,M,340.00,5.00,M,30.22,M,2.50,M,OVC,M,M,M,300.00,M,M,M,BR,KFAR 011305Z AUTO 34005KT 2 1/2SM BR OVC003 A3022 RMK MADISHF
FAR,2017-04-01 13:10,-96.8111,46.9253,M,M,M,340.00,5.00,M,30.22,M,2.00,M,OVC,M,M,M,300.00,M,M,M,BR,KFAR 011310Z AUTO 34005KT 2SM BR OVC003 A3022 RMK MADISHF
FAR,2017-04-01 13:15,-96.8111,46.9253,M,M,M,340.00,5.00,M,30.23,M,2.00,M,OVC,M,M,M,300.00,M,M,M,BR,KFAR 011315Z AUTO 34005KT 2SM BR OVC003 A3023 RMK MADISHF
FAR,2017-04-01 13:20,-96.8111,46.9253,M,M,M,340.00,5.00,M,30.23,M,2.00,M,OVC,M,M,M,300.00,M,M,M,BR,KFAR 011320Z AUTO 34005KT 2SM BR OVC003 A3023 RMK MADISHF
FAR,2017-04-01 13:25,-96.8111,46.9253,M,M,M,330.00,6.00,M,30.23,M,2.50,M,OVC,M,M,M,300.00,M,M,M,BR,KFAR 011325Z AUTO 33006KT 2 1/2SM BR OVC003 A3023 RMK MADISHF
FAR,2017-04-01 13:30,-96.8111,46.9253,M,M,M,340.00,6.00,M,30.23,M,2.50,M,OVC,M,M,M,300.00,M,M,M,BR,KFAR 011330Z AUTO 34006KT 2 1/2SM BR OVC003 A3023 RMK MADISHF
FAR,2017-04-01 13:35,-96.8111,46.9253,M,M,M,340.00,5.00,M,30.23,M,3.00,M,OVC,M,M,M,300.00,M,M,M,BR,KFAR 011335Z AUTO 34005KT 3SM BR OVC003 A3023 RMK MADISHF
FAR,2017-04-01 13:40,-96.8111,46.9253,41.00,41.00,100.00,340.00,6.00,0.00,30.23,M,4.00,M,OVC,M,M,M,300.00,M,M,M,BR,KFAR 011340Z 34006KT 4SM BR OVC003 05/05 A3023 RMK AO2 T00500050
FAR,2017-04-01 13:45,-96.8111,46.9253,M,M,M,350.00,6.00,M,30.23,M,5.00,M,OVC,M,M,M,300.00,M,M,M,BR,KFAR 011345Z AUTO 35006KT 5SM BR OVC003 A3023 RMK MADISHF
FAR,2017-04-01 13:50,-96.8111,46.9253,M,M,M,360.00,5.00,M,30.23,M,5.00,M,OVC,M,M,M,300.00,M,M,M,BR,KFAR 011350Z AUTO 36005KT 5SM BR OVC003 A3023 RMK MADISHF
FAR,2017-04-01 13:53,-96.8111,46.9253,41.00,41.00,100.00,350.00,6.00,0.00,30.23,1024.30,5.00,M,OVC,M,M,M,300.00,M,M,M,BR,KFAR 011353Z 35006KT 5SM BR OVC003 05/05 A3023 RMK AO2 SLP243 T00500050
FAR,2017-04-01 13:55,-96.8111,46.9253,M,M,M,340.00,6.00,M,30.23,M,5.00,M,OVC,M,M,M,300.00,M,M,M,BR,KFAR 011355Z AUTO 34006KT 5SM BR OVC003 A3023 RMK MADISHF
FAR,2017-04-01 14:00,-96.8111,46.9253,M,M,M,350.00,6.00,M,30.23,M,5.00,M,OVC,M,M,M,300.00,M,M,M,BR,KFAR 011400Z AUTO 35006KT 5SM BR OVC003 A3023 RMK MADISHF
FAR,2017-04-01 14:05,-96.8111,46.9253,M,M,M,340.00,6.00,M,30.23,M,5.00,M,OVC,M,M,M,300.00,M,M,M,BR,KFAR 011405Z AUTO 34006KT 5SM BR OVC003 A3023 RMK MADISHF
FAR,2017-04-01 14:10,-96.8111,46.9253,M,M,M,350.00,6.00,M,30.23,M,4.00,M,OVC,M,M,M,300.00,M,M,M,BR,KFAR 011410Z AUTO 35006KT 4SM BR OVC003 A3023 RMK MADISHF
FAR,2017-04-01 14:15,-96.8111,46.9253,M,M,M,350.00,7.00,M,30.23,M,4.00,M,OVC,M,M,M,400.00,M,M,M,BR,KFAR 011415Z AUTO 35007KT 4SM BR OVC004 A3023 RMK MADISHF
FAR,2017-04-01 14:20,-96.8111,46.9253,M,M,M,340.00,7.00,M,30.23,M,4.00,M,OVC,M,M,M,400.00,M,M,M,BR,KFAR 011420Z AUTO 34007KT 4SM BR OVC004 A3023 RMK MADISHF
FAR,2017-04-01 14:25,-96.8111,46.9253,M,M,M,330.00,8.00,M,30.23,M,5.00,M,OVC,M,M,M,400.00,M,M,M,BR,KFAR 011425Z AUTO 33008KT 5SM BR OVC004 A3023 RMK MADISHF
FAR,2017-04-01 14:30,-96.8111,46.9253,M,M,M,340.00,6.00,M,30.23,M,5.00,M,OVC,M,M,M,400.00,M,M,M,BR,KFAR 011430Z AUTO 34006KT 5SM BR OVC004 A3023 RMK MADISHF
FAR,2017-04-01 14:35,-96.8111,46.9253,M,M,M,330.00,7.00,M,30.23,M,5.00,M,OVC,M,M,M,400.00,M,M,M,BR,KFAR 011435Z AUTO 33007KT 5SM BR OVC004 A3023 RMK MADISHF
FAR,2017-04-01 14:40,-96.8111,46.9253,M,M,M,340.00,8.00,M,30.23,M,6.00,M,OVC,M,M,M,400.00,M,M,M,BR,KFAR 011440Z AUTO 34008KT 6SM BR OVC004 A3023 RMK MADISHF
FAR,2017-04-01 14:45,-96.8111,46.9253,M,M,M,340.00,7.00,M,30.23,M,7.00,M,OVC,M,M,M,400.00,M,M,M,M,KFAR 011445Z AUTO 34007KT 7SM OVC004 A3023 RMK MADISHF
FAR,2017-04-01 14:50,-96.8111,46.9253,M,M,M,360.00,6.00,M,30.23,M,7.00,M,OVC,M,M,M,400.00,M,M,M,M,KFAR 011450Z AUTO 36006KT 7SM OVC004 A3023 RMK MADISHF
FAR,2017-04-01 14:53,-96.8111,46.9253,42.10,41.00,95.84,360.00,7.00,0.00,30.23,1024.50,8.00,M,OVC,M,M,M,400.00,M,M,M,M,KFAR 011453Z 36007KT 8SM OVC004 06/05 A3023 RMK AO2 SLP245 T00560050 51005
FAR,2017-04-01 14:55,-96.8111,46.9253,M,M,M,360.00,5.00,M,30.23,M,8.00,M,OVC,M,M,M,400.00,M,M,M,M,KFAR 011455Z AUTO 36005KT 8SM OVC004 A3023 RMK MADISHF
FAR,2017-04-01 15:00,-96.8111,46.9253,M,M,M,350.00,5.00,M,30.23,M,8.00,M,OVC,M,M,M,400.00,M,M,M,M,KFAR 011500Z AUTO 35005KT 8SM OVC004 A3023 RMK MADISHF
FAR,2017-04-01 15:05,-96.8111,46.9253,M,M,M,340.00,5.00,M,30.23,M,8.00,M,OVC,M,M,M,499.00,M,M,M,M,KFAR 011505Z AUTO 34005KT 8SM OVC004 A3023 RMK MADISHF
FAR,2017-04-01 15:10,-96.8111,46.9253,M,M,M,350.00,5.00,M,30.23,M,8.00,M,OVC,M,M,M,499.00,M,M,M,M,KFAR 011510Z AUTO 35005KT 8SM OVC004 A3023 RMK MADISHF
FAR,2017-04-01 15:11,-96.8111,46.9253,42.10,41.00,95.84,350.00,5.00,0.00,30.23,M,8.00,M,OVC,M,M,M,500.00,M,M,M,M,KFAR 011511Z 35005KT 8SM OVC005 06/05 A3023 RMK AO2 T00560050
FAR,2017-04-01 15:15,-96.8111,46.9253,M,M,M,350.00,5.00,M,30.24,M,9.00,M,OVC,M,M,M,499.00,M,M,M,M,KFAR 011515Z AUTO 35005KT 9SM OVC004 A3024 RMK MADISHF
FAR,2017-04-01 15:20,-96.8111,46.9253,M,M,M,340.00,3.00,M,30.24,M,9.00,M,OVC,M,M,M,499.00,M,M,M,M,KFAR 011520Z AUTO 34003KT 9SM OVC004 A3024 RMK MADISHF
FAR,2017-04-01 15:25,-96.8111,46.9253,M,M,M,0.00,0.00,M,30.24,M,9.00,M,OVC,M,M,M,499.00,M,M,M,M,KFAR 011525Z AUTO 00000KT 9SM OVC004 A3024 RMK MADISHF
FAR,2017-04-01 15:30,-96.8111,46.9253,M,M,M,0.00,0.00,M,30.24,M,10.00,M,OVC,M,M,M,600.00,M,M,M,M,KFAR 011530Z AUTO 00000KT 10SM OVC006 A3024 RMK MADISHF
FAR,2017-04-01 15:35,-96.8111,46.9253,M,M,M,0.00,0.00,M,30.24,M,10.00,M,OVC,M,M,M,600.00,M,M,M,M,KFAR 011535Z AUTO 00000KT 10SM OVC006 A3024 RMK MADISHF
FAR,2017-04-01 15:40,-96.8111,46.9253,M,M,M,0.00,0.00,M,30.24,M,9.00,M,OVC,M,M,M,600.00,M,M,M,M,KFAR 011540Z AUTO 00000KT 9SM OVC006 A3024 RMK MADISHF
FAR,2017-04-01 15:45,-96.8111,46.9253,M,M,M,260.00,3.00,M,30.24,M,9.00,M,OVC,M,M,M,600.00,M,M,M,M,KFAR 011545Z AUTO 26003KT 9SM OVC006 A3024 RMK MADISHF
FAR,2017-04-01 15:50,-96.8111,46.9253,M,M,M,0.00,0.00,M,30.24,M,9.00,M,OVC,M,M,M,600.00,M,M,M,M,KFAR 011550Z AUTO 00000KT 9SM OVC006 A3024 RMK MADISHF
FAR,2017-04-01 15:53,-96.8111,46.9253,43.00,41.00,92.58,280.00,3.00,0.00,30.24,1024.80,9.00,M,OVC,M,M,M,600.00,M,M,M,M,KFAR 011553Z 28003KT 9SM OVC006 06/05 A3024 RMK AO2 SLP248 T00610050
FAR,2017-04-01 15:55,-96.8111,46.9253,M,M,M,310.00,4.00,M,30.24,M,9.00,M,OVC,M,M,M,600.00,M,M,M,M,KFAR 011555Z AUTO 31004KT 9SM OVC006 A3024 RMK MADISHF
FAR,2017-04-01 16:00,-96.8111,46.9253,M,M,M,0.00,0.00,M,30.24,M,10.00,M,OVC,M,M,M,600.00,M,M,M,M,KFAR 011600Z AUTO 00000KT 10SM OVC006 A3024 RMK MADISHF
FAR,2017-04-01 16:05,-96.8111,46.9253,M,M,M,0.00,0.00,M,30.24,M,10.00,M,OVC,M,M,M,600.00,M,M,M,M,KFAR 011605Z AUTO 00000KT 10SM OVC006 A3024 RMK MADISHF
FAR,2017-04-01 16:10,-96.8111,46.9253,M,M,M,290.00,3.00,M,30.24,M,10.00,M,OVC,M,M,M,600.00,M,M,M,M,KFAR 011610Z AUTO 29003KT 10SM OVC006 A3024 RMK MADISHF
FAR,2017-04-01 16:15,-96.8111,46.9253,M,M,M,270.00,4.00,M,30.24,M,10.00,M,OVC,M,M,M,600.00,M,M,M,M,KFAR 011615Z AUTO 27004KT 10SM OVC006 A3024 RMK MADISHF
FAR,2017-04-01 16:20,-96.8111,46.9253,M,M,M,280.00,3.00,M,30.24,M,10.00,M,OVC,M,M,M,600.00,M,M,M,M,KFAR 011620Z AUTO 28003KT 10SM OVC006 A3024 RMK VRB03KT  MADISHF
FAR,2017-04-01 16:25,-96.8111,46.9253,M,M,M,260.00,4.00,M,30.24,M,10.00,M,OVC,M,M,M,600.00,M,M,M,M,KFAR 011625Z AUTO 26004KT 10SM OVC006 A3024 RMK MADISHF
FAR,2017-04-01 16:30,-96.8111,46.9253,M,M,M,270.00,3.00,M,30.24,M,10.00,M,OVC,M,M,M,700.00,M,M,M,M,KFAR 011630Z AUTO 27003KT 10SM OVC007 A3024 RMK MADISHF
FAR,2017-04-01 16:35,-96.8111,46.9253,M,M,M,270.00,3.00,M,30.24,M,10.00,M,OVC,M,M,M,700.00,M,M,M,M,KFAR 011635Z AUTO 27003KT 10SM OVC007 A3024 RMK MADISHF
FAR,2017-04-01 16:40,-96.8111,46.9253,M,M,M,300.00,3.00,M,30.23,M,10.00,M,OVC,M,M,M,700.00,M,M,M,M,KFAR 011640Z AUTO 30003KT 10SM OVC007 A3023 RMK MADISHF
FAR,2017-04-01 16:45,-96.8111,46.9253,M,M,M,0.00,0.00,M,30.23,M,10.00,M,OVC,M,M,M,700.00,M,M,M,M,KFAR 011645Z AUTO 00000KT 10SM OVC007 A3023 RMK MADISHF
FAR,2017-04-01 16:50,-96.8111,46.9253,M,M,M,320.00,5.00,M,30.23,M,10.00,M,OVC,M,M,M,700.00,M,M,M,M,KFAR 011650Z AUTO 32005KT 10SM OVC007 A3023 RMK MADISHF
FAR,2017-04-01 16:53,-96.8111,46.9253,45.00,42.10,89.49,340.00,3.00,0.00,30.22,1024.30,10.00,M,OVC,M,M,M,700.00,M,M,M,M,KFAR 011653Z 34003KT 10SM OVC007 07/06 A3022 RMK AO2 SLP243 T00720056
FAR,2017-04-01 16:55,-96.8111,46.9253,M,M,M,320.00,5.00,M,30.22,M,10.00,M,OVC,M,M,M,700.00,M,M,M,M,KFAR 011655Z AUTO 32005KT 10SM OVC007 A3022 RMK MADISHF
FAR,2017-04-01 17:00,-96.8111,46.9253,M,M,M,330.00,5.00,M,30.23,M,10.00,M,OVC,M,M,M,700.00,M,M,M,M,KFAR 011700Z AUTO 33005KT 10SM OVC007 A3023 RMK MADISHF
FAR,2017-04-01 17:05,-96.8111,46.9253,M,M,M,340.00,4.00,M,30.22,M,10.00,M,OVC,M,M,M,800.00,M,M,M,M,KFAR 011705Z AUTO 34004KT 10SM OVC008 A3022 RMK MADISHF
FAR,2017-04-01 17:10,-96.8111,46.9253,M,M,M,320.00,4.00,M,30.23,M,10.00,M,OVC,M,M,M,800.00,M,M,M,M,KFAR 011710Z AUTO 32004KT 10SM OVC008 A3023 RMK MADISHF
FAR,2017-04-01 17:15,-96.8111,46.9253,M,M,M,320.00,4.00,M,30.23,M,10.00,M,OVC,M,M,M,800.00,M,M,M,M,KFAR 011715Z AUTO 32004KT 10SM OVC008 A3023 RMK MADISHF
FAR,2017-04-01 17:20,-96.8111,46.9253,M,M,M,310.00,6.00,M,30.23,M,10.00,M,OVC,M,M,M,900.00,M,M,M,M,KFAR 011720Z AUTO 31006KT 10SM OVC009 A3023 RMK MADISHF
FAR,2017-04-01 17:25,-96.8111,46.9253,M,M,M,340.00,6.00,M,30.23,M,10.00,M,OVC,M,M,M,900.00,M,M,M,M,KFAR 011725Z AUTO 34006KT 10SM OVC009 A3023 RMK MADISHF
FAR,2017-04-01 17:30,-96.8111,46.9253,M,M,M,340.00,6.00,M,30.22,M,10.00,M,OVC,M,M,M,900.00,M,M,M,M,KFAR 011730Z AUTO 34006KT 10SM OVC009 A3022 RMK MADISHF
FAR,2017-04-01 17:35,-96.8111,46.9253,M,M,M,330.00,6.00,M,30.22,M,10.00,M,OVC,M,M,M,900.00,M,M,M,M,KFAR 011735Z AUTO 33006KT 10SM OVC009 A3022 RMK MADISHF
FAR,2017-04-01 17:40,-96.8111,46.9253,M,M,M,330.00,5.00,M,30.22,M,10.00,M,OVC,M,M,M,999.00,M,M,M,M,KFAR 011740Z AUTO 33005KT 10SM OVC009 A3022 RMK MADISHF
FAR,2017-04-01 17:43,-96.8111,46.9253,46.00,41.00,82.58,310.00,3.00,0.00,30.22,M,10.00,M,OVC,M,M,M,1000.00,M,M,M,M,KFAR 011743Z 31003KT 10SM OVC010 08/05 A3022 RMK AO2 T00780050
FAR,2017-04-01 17:45,-96.8111,46.9253,M,M,M,320.00,3.00,M,30.22,M,10.00,M,OVC,M,M,M,999.00,M,M,M,M,KFAR 011745Z AUTO 32003KT 10SM OVC009 A3022 RMK MADISHF
FAR,2017-04-01 17:50,-96.8111,46.9253,M,M,M,360.00,3.00,M,30.22,M,10.00,M,OVC,M,M,M,999.00,M,M,M,M,KFAR 011750Z AUTO 36003KT 10SM OVC009 A3022 RMK MADISHF
FAR,2017-04-01 17:53,-96.8111,46.9253,46.00,41.00,82.58,0.00,0.00,0.00,30.22,1024.20,10.00,M,OVC,M,M,M,1000.00,M,M,M,M,KFAR 011753Z 00000KT 10SM OVC010 08/05 A3022 RMK AO2 SLP242 T00780050 10083 20050 58003
FAR,2017-04-01 17:55,-96.8111,46.9253,M,M,M,0.00,0.00,M,30.22,M,10.00,M,OVC,M,M,M,999.00,M,M,M,M,KFAR 011755Z AUTO 00000KT 10SM OVC009 A3022 RMK MADISHF
FAR,2017-04-01 18:00,-96.8111,46.9253,M,M,M,0.00,0.00,M,30.22,M,10.00,M,OVC,M,M,M,999.00,M,M,M,M,KFAR 011800Z AUTO 00000KT 10SM OVC009 A3022 RMK MADISHF
FAR,2017-04-01 18:05,-96.8111,46.9253,M,M,M,0.00,0.00,M,30.22,M,10.00,M,OVC,M,M,M,1100.00,M,M,M,M,KFAR 011805Z AUTO 00000KT 10SM OVC011 A3022 RMK MADISHF
FAR,2017-04-01 18:10,-96.8111,46.9253,M,M,M,0.00,0.00,M,30.22,M,10.00,M,OVC,M,M,M,1100.00,M,M,M,M,KFAR 011810Z AUTO 00000KT 10SM OVC011 A3022 RMK MADISHF
FAR,2017-04-01 18:15,-96.8111,46.9253,M,M,M,180.00,5.00,M,30.22,M,10.00,M,OVC,M,M,M,1100.00,M,M,M,M,KFAR 011815Z AUTO 18005KT 10SM OVC011 A3022 RMK MADISHF
FAR,2017-04-01 18:20,-96.8111,46.9253,M,M,M,200.00,5.00,M,30.22,M,10.00,M,OVC,M,M,M,1200.00,M,M,M,M,KFAR 011820Z AUTO 20005KT 10SM OVC012 A3022 RMK MADISHF
FAR,2017-04-01 18:25,-96.8111,46.9253,M,M,M,160.00,3.00,M,30.22,M,10.00,M,OVC,M,M,M,1200.00,M,M,M,M,KFAR 011825Z AUTO 16003KT 10SM OVC012 A3022 RMK MADISHF
FAR,2017-04-01 18:30,-96.8111,46.9253,M,M,M,0.00,0.00,M,30.21,M,10.00,M,OVC,M,M,M,1200.00,M,M,M,M,KFAR 011830Z AUTO 00000KT 10SM OVC012 A3021 RMK MADISHF
FAR,2017-04-01 18:35,-96.8111,46.9253,M,M,M,0.00,0.00,M,30.21,M,10.00,M,OVC,M,M,M,1200.00,M,M,M,M,KFAR 011835Z AUTO 00000KT 10SM OVC012 A3021 RMK MADISHF
FAR,2017-04-01 18:40,-96.8111,46.9253,M,M,M,0.00,0.00,M,30.20,M,10.00,M,BKN,M,M,M,1300.00,M,M,M,M,KFAR 011840Z AUTO 00000KT 10SM BKN013 A3020 RMK MADISHF
FAR,2017-04-01 18:45,-96.8111,46.9253,M,M,M,0.00,0.00,M,30.20,M,10.00,M,BKN,M,M,M,1300.00,M,M,M,M,KFAR 011845Z AUTO 00000KT 10SM BKN013 A3020 RMK MADISHF
FAR,2017-04-01 18:50,-96.8111,46.9253,M,M,M,0.00,0.00,M,30.20,M,10.00,M,BKN,M,M,M,1300.00,M,M,M,M,KFAR 011850Z AUTO 00000KT 10SM BKN013 A3020 RMK MADISHF
FAR,2017-04-01 18:53,-96.8111,46.9253,51.10,42.10,71.19,M,3.00,0.00,30.19,1023.10,10.00,M,BKN,M,M,M,1300.00,M,M,M,M,KFAR 011853Z VRB03KT 10SM BKN013 11/06 A3019 RMK AO2 SLP231 T01060056
FAR,2017-04-01 18:55,-96.8111,46.9253,M,M,M,0.00,0.00,M,30.19,M,10.00,M,BKN,M,M,M,1300.00,M,M,M,M,KFAR 011855Z AUTO 00000KT 10SM BKN013 A3019 RMK MADISHF
FAR,2017-04-01 19:00,-96.8111,46.9253,M,M,M,170.00,3.00,M,30.19,M,10.00,M,BKN,M,M,M,1400.00,M,M,M,M,KFAR 011900Z AUTO 17003KT 10SM BKN014 A3019 RMK VRB03KT  MADISHF
FAR,2017-04-01 19:05,-96.8111,46.9253,M,M,M,0.00,0.00,M,30.19,M,10.00,M,SCT,M,M,M,1600.00,M,M,M,M,KFAR 011905Z AUTO 00000KT 10SM SCT016 A3019 RMK MADISHF
FAR,2017-04-01 19:07,-96.8111,46.9253,48.90,41.00,74.05,0.00,0.00,0.00,30.18,M,10.00,M,FEW,M,M,M,1600.00,M,M,M,M,KFAR 011907Z 00000KT 10SM FEW016 09/05 A3018 RMK AO2 T00940050
FAR,2017-04-01 19:10,-96.8111,46.9253,M,M,M,0.00,0.00,M,30.18,M,10.00,M,FEW,M,M,M,1600.00,M,M,M,M,KFAR 011910Z AUTO 00000KT 10SM FEW016 A3018 RMK MADISHF
FAR,2017-04-01 19:15,-96.8111,46.9253,M,M,M,0.00,0.00,M,30.18,M,10.00,M,FEW,M,M,M,1600.00,M,M,M,M,KFAR 011915Z AUTO 00000KT 10SM FEW016 A3018 RMK MADISHF
FAR,2017-04-01 19:20,-96.8111,46.9253,M,M,M,0.00,0.00,M,30.17,M,10.00,M,FEW,M,M,M,1600.00,M,M,M,M,KFAR 011920Z AUTO 00000KT 10SM FEW016 A3017 RMK MADISHF
FAR,2017-04-01 19:25,-96.8111,46.9253,M,M,M,0.00,0.00,M,30.17,M,10.00,M,CLR,M,M,M,M,M,M,M,M,KFAR 011925Z AUTO 00000KT 10SM CLR A3017 RMK MADISHF
FAR,2017-04-01 19:30,-96.8111,46.9253,M,M,M,0.00,0.00,M,30.17,M,10.00,M,CLR,M,M,M,M,M,M,M,M,KFAR 011930Z AUTO 00000KT 10SM CLR A3017 RMK MADISHF
FAR,2017-04-01 19:35,-96.8111,46.9253,M,M,M,0.00,0.00,M,30.16,M,10.00,M,CLR,M,M,M,M,M,M,M,M,KFAR 011935Z AUTO 00000KT 10SM CLR A3016 RMK MADISHF
FAR,2017-04-01 19:40,-96.8111,46.9253,M,M,M,180.00,3.00,M,30.16,M,10.00,M,CLR,M,M,M,M,M,M,M,M,KFAR 011940Z AUTO 18003KT 10SM CLR A3016 RMK VRB03KT  MADISHF
FAR,2017-04-01 19:45,-96.8111,46.9253,M,M,M,0.00,0.00,M,30.16,M,10.00,M,CLR,M,M,M,M,M,M,M,M,KFAR 011945Z AUTO 00000KT 10SM CLR A3016 RMK MADISHF
FAR,2017-04-01 19:50,-96.8111,46.9253,M,M,M,0.00,0.00,M,30.16,M,10.00,M,CLR,M,M,M,M,M,M,M,M,KFAR 011950Z AUTO 00000KT 10SM CLR A3016 RMK MADISHF
FAR,2017-04-01 19:53,-96.8111,46.9253,54.00,42.10,63.98,40.00,3.00,0.00,30.16,1021.80,10.00,M,FEW,M,M,M,2200.00,M,M,M,M,KFAR 011953Z 04003KT 10SM FEW022 12/06 A3016 RMK AO2 SLP218 T01220056
FAR,2017-04-01 19:55,-96.8111,46.9253,M,M,M,30.00,5.00,M,30.16,M,10.00,M,FEW,M,M,M,2200.00,M,M,M,M,KFAR 011955Z AUTO 03005KT 10SM FEW022 A3016 RMK MADISHF
FAR,2017-04-01 20:00,-96.8111,46.9253,M,M,M,30.00,3.00,M,30.15,M,10.00,M,SCT,M,M,M,2200.00,M,M,M,M,KFAR 012000Z AUTO 03003KT 10SM SCT022 A3015 RMK VRB03KT  MADISHF
FAR,2017-04-01 20:05,-96.8111,46.9253,M,M,M,20.00,5.00,M,30.15,M,10.00,M,SCT,M,M,M,2300.00,M,M,M,M,KFAR 012005Z AUTO 02005KT 10SM SCT023 A3015 RMK MADISHF
FAR,2017-04-01 20:10,-96.8111,46.9253,M,M,M,0.00,0.00,M,30.15,M,10.00,M,SCT,M,M,M,2300.00,M,M,M,M,KFAR 012010Z AUTO 00000KT 10SM SCT023 A3015 RMK MADISHF
FAR,2017-04-01 20:15,-96.8111,46.9253,M,M,M,350.00,3.00,M,30.15,M,10.00,M,FEW,M,M,M,2300.00,M,M,M,M,KFAR 012015Z AUTO 35003KT 10SM FEW023 A3015 RMK VRB03KT  MADISHF
FAR,2017-04-01 20:20,-96.8111,46.9253,M,M,M,40.00,3.00,M,30.15,M,10.00,M,FEW,M,M,M,2300.00,M,M,M,M,KFAR 012020Z AUTO 04003KT 10SM FEW023 A3015 RMK MADISHF
FAR,2017-04-01 20:25,-96.8111,46.9253,M,M,M,360.00,3.00,M,30.14,M,10.00,M,FEW,M,M,M,2300.00,M,M,M,M,KFAR 012025Z AUTO 36003KT 10SM FEW023 A3014 RMK MADISHF
FAR,2017-04-01 20:30,-96.8111,46.9253,M,M,M,340.00,3.00,M,30.14,M,10.00,M,FEW,M,M,M,2300.00,M,M,M,M,KFAR 012030Z AUTO 34003KT 10SM FEW023 A3014 RMK VRB03KT  MADISHF
FAR,2017-04-01 20:35,-96.8111,46.9253,M,M,M,30.00,4.00,M,30.14,M,10.00,M,CLR,M,M,M,M,M,M,M,M,KFAR 012035Z AUTO 03004KT 10SM CLR A3014 RMK MADISHF
FAR,2017-04-01 20:40,-96.8111,46.9253,M,M,M,130.00,4.00,M,30.13,M,10.00,M,CLR,M,M,M,M,M,M,M,M,KFAR 012040Z AUTO 13004KT 10SM CLR A3013 RMK VRB04KT  MADISHF
FAR,2017-04-01 20:45,-96.8111,46.9253,M,M,M,140.00,3.00,M,30.13,M,10.00,M,CLR,M,M,M,M,M,M,M,M,KFAR 012045Z AUTO 14003KT 10SM CLR A3013 RMK VRB03KT  MADISHF
FAR,2017-04-01 20:50,-96.8111,46.9253,M,M,M,0.00,0.00,M,30.13,M,10.00,M,CLR,M,M,M,M,M,M,M,M,KFAR 012050Z AUTO 00000KT 10SM CLR A3013 RMK MADISHF
FAR,2017-04-01 20:53,-96.8111,46.9253,55.00,42.10,61.69,0.00,0.00,0.00,30.12,1020.60,10.00,M,CLR,M,M,M,M,M,M,M,M,KFAR 012053Z 00000KT 10SM CLR 13/06 A3012 RMK AO2 SLP206 T01280056 58032
FAR,2017-04-01 20:55,-96.8111,46.9253,M,M,M,0.00,0.00,M,30.12,M,10.00,M,CLR,M,M,M,M,M,M,M,M,KFAR 012055Z AUTO 00000KT 10SM CLR A3012 RMK MADISHF
FAR,2017-04-01 21:00,-96.8111,46.9253,M,M,M,100.00,3.00,M,30.12,M,10.00,M,CLR,M,M,M,M,M,M,M,M,KFAR 012100Z AUTO 10003KT 10SM CLR A3012 RMK VRB03KT  MADISHF
FAR,2017-04-01 21:05,-96.8111,46.9253,M,M,M,120.00,6.00,M,30.12,M,10.00,M,FEW,M,M,M,2700.00,M,M,M,M,KFAR 012105Z AUTO 12006KT 10SM FEW027 A3012 RMK MADISHF
FAR,2017-04-01 21:10,-96.8111,46.9253,M,M,M,0.00,0.00,M,30.12,M,10.00,M,FEW,M,M,M,2700.00,M,M,M,M,KFAR 012110Z AUTO 00000KT 10SM FEW027 A3012 RMK MADISHF
FAR,2017-04-01 21:15,-96.8111,46.9253,M,M,M,100.00,4.00,M,30.12,M,10.00,M,FEW,M,M,M,2700.00,M,M,M,M,KFAR 012115Z AUTO 10004KT 10SM FEW027 A3012 RMK VRB04KT  MADISHF
FAR,2017-04-01 21:20,-96.8111,46.9253,M,M,M,0.00,0.00,M,30.12,M,10.00,M,FEW,M,M,M,2700.00,M,M,M,M,KFAR 012120Z AUTO 00000KT 10SM FEW027 A3012 RMK MADISHF
FAR,2017-04-01 21:25,-96.8111,46.9253,M,M,M,0.00,0.00,M,30.12,M,10.00,M,FEW,M,M,M,2700.00,M,M,M,M,KFAR 012125Z AUTO 00000KT 10SM FEW027 A3012 RMK MADISHF
FAR,2017-04-01 21:30,-96.8111,46.9253,M,M,M,80.00,4.00,M,30.12,M,10.00,M,FEW,M,M,M,2700.00,M,M,M,M,KFAR 012130Z AUTO 08004KT 10SM FEW027 A3012 RMK MADISHF
FAR,2017-04-01 21:35,-96.8111,46.9253,M,M,M,40.00,4.00,M,30.11,M,10.00,M,CLR,M,M,M,M,M,M,M,M,KFAR 012135Z AUTO 04004KT 10SM CLR A3011 RMK MADISHF
FAR,2017-04-01 21:40,-96.8111,46.9253,M,M,M,10.00,3.00,M,30.11,M,10.00,M,FEW,M,M,M,3100.00,M,M,M,M,KFAR 012140Z AUTO 01003KT 10SM FEW031 A3011 RMK MADISHF
FAR,2017-04-01 21:45,-96.8111,46.9253,M,M,M,0.00,0.00,M,30.11,M,10.00,M,FEW,M,M,M,3100.00,M,M,M,M,KFAR 012145Z AUTO 00000KT 10SM FEW031 A3011 RMK MADISHF
FAR,2017-04-01 21:50,-96.8111,46.9253,M,M,M,200.00,5.00,M,30.10,M,10.00,M,CLR,M,M,M,M,M,M,M,M,KFAR 012150Z AUTO 20005KT 10SM CLR A3010 RMK MADISHF
FAR,2017-04-01 21:53,-96.8111,46.9253,55.90,42.10,59.71,M,3.00,0.00,30.10,1019.90,10.00,M,CLR,M,M,M,M,M,M,M,M,KFAR 012153Z VRB03KT 10SM CLR 13/06 A3010 RMK AO2 SLP199 T01330056
FAR,2017-04-01 21:55,-96.8111,46.9253,M,M,M,0.00,0.00,M,30.10,M,10.00,M,CLR,M,M,M,M,M,M,M,M,KFAR 012155Z AUTO 00000KT 10SM CLR A3010 RMK MADISHF
FAR,2017-04-01 22:00,-96.8111,46.9253,M,M,M,120.00,5.00,M,30.10,M,10.00,M,CLR,M,M,M,M,M,M,M,M,KFAR 012200Z AUTO 12005KT 10SM CLR A3010 RMK MADISHF
FAR,2017-04-01 22:05,-96.8111,46.9253,M,M,M,110.00,5.00,M,30.10,M,10.00,M,CLR,M,M,M,M,M,M,M,M,KFAR 012205Z AUTO 11005KT 10SM CLR A3010 RMK MADISHF
FAR,2017-04-01 22:10,-96.8111,46.9253,M,M,M,190.00,4.00,M,30.09,M,10.00,M,CLR,M,M,M,M,M,M,M,M,KFAR 012210Z AUTO 19004KT 10SM CLR A3009 RMK VRB04KT  MADISHF
FAR,2017-04-01 22:15,-96.8111,46.9253,M,M,M,0.00,0.00,M,30.09,M,10.00,M,CLR,M,M,M,M,M,M,M,M,KFAR 012215Z AUTO 00000KT 10SM CLR A3009 RMK MADISHF
FAR,2017-04-01 22:20,-96.8111,46.9253,M,M,M,M,M,M,30.09,M,10.00,M,CLR,M,M,M,M,M,M,M,M,KFAR 012220Z AUTO /////KT 10SM CLR A3009 RMK MADISHF
FAR,2017-04-01 22:25,-96.8111,46.9253,M,M,M,170.00,5.00,M,30.09,M,10.00,M,CLR,M,M,M,M,M,M,M,M,KFAR 012225Z AUTO 17005KT 10SM CLR A3009 RMK MADISHF
FAR,2017-04-01 22:30,-96.8111,46.9253,M,M,M,160.00,8.00,M,30.09,M,10.00,M,CLR,M,M,M,M,M,M,M,M,KFAR 012230Z AUTO 16008KT 10SM CLR A3009 RMK MADISHF
FAR,2017-04-01 22:35,-96.8111,46.9253,M,M,M,120.00,6.00,M,30.09,M,10.00,M,CLR,M,M,M,M,M,M,M,M,KFAR 012235Z AUTO 12006KT 10SM CLR A3009 RMK MADISHF
FAR,2017-04-01 22:40,-96.8111,46.9253,M,M,M,110.00,7.00,M,30.09,M,10.00,M,CLR,M,M,M,M,M,M,M,M,KFAR 012240Z AUTO 11007KT 10SM CLR A3009 RMK MADISHF
FAR,2017-04-01 22:45,-96.8111,46.9253,M,M,M,100.00,7.00,M,30.08,M,10.00,M,CLR,M,M,M,M,M,M,M,M,KFAR 012245Z AUTO 10007KT 10SM CLR A3008 RMK MADISHF
FAR,2017-04-01 22:50,-96.8111,46.9253,M,M,M,180.00,4.00,M,30.08,M,10.00,M,CLR,M,M,M,M,M,M,M,M,KFAR 012250Z AUTO 18004KT 10SM CLR A3008 RMK MADISHF
FAR,2017-04-01 22:53,-96.8111,46.9253,57.00,43.00,59.40,170.00,6.00,0.00,30.08,1019.10,10.00,M,CLR,M,M,M,M,M,M,M,M,KFAR 012253Z 17006KT 10SM CLR 14/06 A3008 RMK AO2 SLP191 T01390061
FAR,2017-04-01 22:55,-96.8111,46.9253,M,M,M,150.00,6.00,M,30.08,M,10.00,M,CLR,M,M,M,M,M,M,M,M,KFAR 012255Z AUTO 15006KT 10SM CLR A3008 RMK MADISHF
FAR,2017-04-01 23:00,-96.8111,46.9253,M,M,M,160.00,5.00,M,30.08,M,10.00,M,CLR,M,M,M,M,M,M,M,M,KFAR 012300Z AUTO 16005KT 10SM CLR A3008 RMK MADISHF
FAR,2017-04-01 23:05,-96.8111,46.9253,M,M,M,150.00,6.00,M,30.07,M,10.00,M,CLR,M,M,M,M,M,M,M,M,KFAR 012305Z AUTO 15006KT 10SM CLR A3007 RMK MADISHF
FAR,2017-04-01 23:10,-96.8111,46.9253,M,M,M,180.00,6.00,M,30.07,M,10.00,M,CLR,M,M,M,M,M,M,M,M,KFAR 012310Z AUTO 18006KT 10SM CLR A3007 RMK MADISHF
FAR,2017-04-01 23:15,-96.8111,46.9253,M,M,M,140.00,7.00,M,30.07,M,10.00,M,CLR,M,M,M,M,M,M,M,M,KFAR 012315Z AUTO 14007KT 10SM CLR A3007 RMK MADISHF
FAR,2017-04-01 23:20,-96.8111,46.9253,M,M,M,150.00,6.00,M,30.07,M,10.00,M,CLR,M,M,M,M,M,M,M,M,KFAR 012320Z AUTO 15006KT 10SM CLR A3007 RMK MADISHF
FAR,2017-04-01 23:25,-96.8111,46.9253,M,M,M,130.00,7.00,M,30.07,M,10.00,M,CLR,M,M,M,M,M,M,M,M,KFAR 012325Z AUTO 13007KT 10SM CLR A3007 RMK MADISHF
FAR,2017-04-01 23:30,-96.8111,46.9253,M,M,M,120.00,6.00,M,30.07,M,10.00,M,CLR,M,M,M,M,M,M,M,M,KFAR 012330Z AUTO 12006KT 10SM CLR A3007 RMK MADISHF
FAR,2017-04-01 23:35,-96.8111,46.9253,M,M,M,120.00,7.00,M,30.07,M,10.00,M,CLR,M,M,M,M,M,M,M,M,KFAR 012335Z AUTO 12007KT 10SM CLR A3007 RMK MADISHF
FAR,2017-04-01 23:40,-96.8111,46.9253,M,M,M,120.00,8.00,M,30.07,M,10.00,M,CLR,M,M,M,M,M,M,M,M,KFAR 012340Z AUTO 12008KT 10SM CLR A3007 RMK MADISHF
FAR,2017-04-01 23:45,-96.8111,46.9253,M,M,M,120.00,8.00,M,30.06,M,10.00,M,CLR,M,M,M,M,M,M,M,M,KFAR 012345Z AUTO 12008KT 10SM CLR A3006 RMK MADISHF
FAR,2017-04-01 23:50,-96.8111,46.9253,M,M,M,100.00,9.00,M,30.06,M,10.00,M,CLR,M,M,M,M,M,M,M,M,KFAR 012350Z AUTO 10009KT 10SM CLR A3006 RMK MADISHF
FAR,2017-04-01 23:53,-96.8111,46.9253,55.90,45.00,66.72,100.00,7.00,0.00,30.06,1018.60,10.00,M,CLR,M,M,M,M,M,M,M,M,KFAR 012353Z 10007KT 10SM CLR 13/07 A3006 RMK AO2 SLP186 T01330072 10144 20078 56020
FAR,2017-04-01 23:55,-96.8111,46.9253,M,M,M,110.00,7.00,M,30.06,M,10.00,M,CLR,M,M,M,M,M,M,M,M,KFAR 012355Z AUTO 11007KT 10SM CLR A3006 RMK MADISHF
