#DEBUG: Format Typ    -> comma
#DEBUG: Time Period   -> 2017-04-01 00:00:00+00:00 2017-04-02 00:00:00+00:00
#DEBUG: Time Zone     -> Etc/UTC
#DEBUG: Data Contact   -> daryl herzmann akrherz@iastate.edu 515-294-5978
#DEBUG: Entries Found -> -1
station,valid,lon,lat,tmpf, dwpf, relh, drct, sknt, p01i, alti, mslp, vsby, gust, skyc1, skyc2, skyc3, skyc4, skyl1, skyl2, skyl3, skyl4, presentwx, metar
FET,2017-04-01 00:15,-96.5200,41.4500,51.80,37.40,57.77,10.00,3.00,0.00,30.03,M,10.00,M,OVC,M,M,M,4000.00,M,M,M,M,KFET 010015Z AUTO 01003KT 10SM OVC040 11/03 A3003 RMK AO2 T01100030
FET,2017-04-01 00:35,-96.5200,41.4500,51.10,37.60,59.75,0.00,0.00,0.00,30.05,M,10.00,M,OVC,M,M,M,4200.00,M,M,M,M,KFET 010035Z AUTO 00000KT 10SM OVC042 11/03 A3005 RMK AO2 T01060031
FET,2017-04-01 00:55,-96.5200,41.4500,50.20,39.40,66.29,0.00,0.00,0.00,30.05,M,10.00,M,OVC,M,M,M,4400.00,M,M,M,M,KFET 010055Z AUTO 00000KT 10SM OVC044 10/04 A3005 RMK AO2 T01010041
FET,2017-04-01 01:15,-96.5200,41.4500,50.00,39.20,66.27,0.00,0.00,0.00,30.05,M,10.00,M,OVC,M,M,M,4400.00,M,M,M,M,KFET 010115Z AUTO 00000KT 10SM OVC044 10/04 A3005 RMK AO2 T01000040
FET,2017-04-01 01:35,-96.5200,41.4500,49.10,39.60,69.61,0.00,0.00,0.00,30.05,M,10.00,M,SCT,M,M,M,4400.00,M,M,M,M,KFET 010135Z AUTO 00000KT 10SM SCT044 10/04 A3005 RMK AO2 T00950042
FET,2017-04-01 01:55,-96.5200,41.4500,48.40,39.20,70.35,0.00,0.00,0.00,30.05,M,10.00,M,CLR,M,M,M,M,M,M,M,M,KFET 010155Z AUTO 00000KT 10SM CLR 09/04 A3005 RMK AO2 T00910040
FET,2017-04-01 02:15,-96.5200,41.4500,47.70,39.20,72.22,0.00,0.00,0.00,30.06,M,10.00,M,SCT,M,M,M,4400.00,M,M,M,M,KFET 010215Z AUTO 00000KT 10SM SCT044 09/04 A3006 RMK AO2 T00870040
FET,2017-04-01 02:35,-96.5200,41.4500,45.00,38.80,78.74,0.00,0.00,0.00,30.06,M,10.00,M,SCT,M,M,M,4400.00,M,M,M,M,KFET 010235Z AUTO 00000KT 10SM SCT044 07/04 A3006 RMK AO2 T00720038
FET,2017-04-01 02:55,-96.5200,41.4500,43.30,39.00,84.68,0.00,0.00,0.00,30.08,M,10.00,M,CLR,M,M,M,M,M,M,M,M,KFET 010255Z AUTO 00000KT 10SM CLR 06/04 A3008 RMK AO2 T00630039
FET,2017-04-01 03:15,-96.5200,41.4500,43.70,39.20,84.04,0.00,0.00,0.00,30.08,M,10.00,M,CLR,M,M,M,M,M,M,M,M,KFET 010315Z AUTO 00000KT 10SM CLR 07/04 A3008 RMK AO2 T00650040
FET,2017-04-01 03:35,-96.5200,41.4500,44.10,39.70,84.40,0.00,0.00,0.00,30.09,M,10.00,M,SCT,M,M,M,4400.00,M,M,M,M,KFET 010335Z AUTO 00000KT 10SM SCT044 07/04 A3009 RMK AO2 T00670043
FET,2017-04-01 03:55,-96.5200,41.4500,44.20,39.40,83.10,10.00,3.00,0.00,30.10,M,10.00,M,BKN,M,M,M,4200.00,M,M,M,M,KFET 010355Z AUTO 01003KT 10SM BKN042 07/04 A3010 RMK AO2 T00680041
FET,2017-04-01 04:15,-96.5200,41.4500,46.00,39.60,78.21,40.00,6.00,0.00,30.11,M,10.00,M,BKN,M,M,M,4200.00,M,M,M,M,KFET 010415Z AUTO 04006KT 10SM BKN042 08/04 A3011 RMK AO2 T00780042
FET,2017-04-01 04:35,-96.5200,41.4500,45.10,40.80,84.79,70.00,7.00,0.00,30.12,M,10.00,M,CLR,M,M,M,M,M,M,M,M,KFET 010435Z AUTO 07007KT 10SM CLR 07/05 A3012 RMK AO2 T00730049
FET,2017-04-01 04:55,-96.5200,41.4500,44.60,40.10,84.10,70.00,8.00,0.00,30.13,M,10.00,M,CLR,M,M,M,M,M,M,M,M,KFET 010455Z AUTO 07008KT 10SM CLR 07/05 A3013 RMK AO2 T00700045
FET,2017-04-01 05:15,-96.5200,41.4500,44.20,39.70,84.08,70.00,7.00,0.00,30.14,M,10.00,M,SCT,M,M,M,11000.00,M,M,M,M,KFET 010515Z AUTO 07007KT 10SM SCT110 07/04 A3014 RMK AO2 T00680043
FET,2017-04-01 05:35,-96.5200,41.4500,43.70,39.20,84.04,70.00,3.00,0.00,30.16,M,10.00,M,SCT,M,M,M,11000.00,M,M,M,M,KFET 010535Z AUTO 07003KT 10SM SCT110 07/04 A3016 RMK AO2 T00650040
FET,2017-04-01 05:55,-96.5200,41.4500,43.20,39.40,86.34,70.00,7.00,0.00,30.16,M,10.00,M,BKN,M,M,M,11000.00,M,M,M,M,KFET 010555Z AUTO 07007KT 10SM BKN110 06/04 A3016 RMK AO2 T00620041 10110 20057 401260043
FET,2017-04-01 06:15,-96.5200,41.4500,42.80,39.20,86.99,70.00,4.00,0.00,30.16,M,10.00,M,SCT,M,M,M,11000.00,M,M,M,M,KFET 010615Z AUTO 07004KT 10SM SCT110 06/04 A3016 RMK AO2 T00600040
FET,2017-04-01 06:35,-96.5200,41.4500,42.10,38.70,87.64,70.00,4.00,0.00,30.17,M,10.00,M,CLR,M,M,M,M,M,M,M,M,KFET 010635Z AUTO 07004KT 10SM CLR 06/04 A3017 RMK AO2 LTG DSNT SW T00560037
FET,2017-04-01 06:55,-96.5200,41.4500,41.90,38.70,88.32,60.00,5.00,0.00,30.16,M,10.00,M,CLR,M,M,M,M,M,M,M,M,KFET 010655Z AUTO 06005KT 10SM CLR 06/04 A3016 RMK AO2 T00550037
FET,2017-04-01 07:15,-96.5200,41.4500,41.40,38.30,88.64,60.00,5.00,0.00,30.15,M,10.00,M,CLR,M,M,M,M,M,M,M,M,KFET 010715Z AUTO 06005KT 10SM CLR 05/04 A3015 RMK AO2 T00520035
FET,2017-04-01 07:35,-96.5200,41.4500,41.00,38.30,90.02,0.00,0.00,0.00,30.16,M,10.00,M,SCT,M,M,M,3900.00,M,M,M,M,KFET 010735Z AUTO 00000KT 10SM SCT039 05/04 A3016 RMK AO2 T00500035
FET,2017-04-01 07:55,-96.5200,41.4500,41.40,38.30,88.64,80.00,3.00,0.00,30.16,M,10.00,M,SCT,OVC,M,M,2800.00,3600.00,M,M,M,KFET 010755Z AUTO 08003KT 10SM SCT028 OVC036 05/04 A3016 RMK AO2 T00520035
FET,2017-04-01 08:15,-96.5200,41.4500,41.40,38.30,88.64,60.00,3.00,0.00,30.17,M,10.00,M,OVC,M,M,M,3300.00,M,M,M,M,KFET 010815Z AUTO 06003KT 10SM OVC033 05/04 A3017 RMK AO2 T00520035
FET,2017-04-01 08:35,-96.5200,41.4500,41.00,38.50,90.73,0.00,0.00,0.00,30.17,M,10.00,M,OVC,M,M,M,3100.00,M,M,M,M,KFET 010835Z AUTO 00000KT 10SM OVC031 05/04 A3017 RMK AO2 LTG DSNT SW T00500036
FET,2017-04-01 08:55,-96.5200,41.4500,40.80,38.70,92.15,30.00,4.00,0.00,30.17,M,10.00,M,BKN,OVC,M,M,2900.00,3500.00,M,M,M,KFET 010855Z AUTO 03004KT 10SM BKN029 OVC035 05/04 A3017 RMK AO2 T00490037
FET,2017-04-01 09:15,-96.5200,41.4500,40.30,38.70,93.96,40.00,4.00,0.00,30.18,M,10.00,M,OVC,M,M,M,2700.00,M,M,M,M,KFET 010915Z AUTO 04004KT 10SM OVC027 05/04 A3018 RMK AO2 T00460037
FET,2017-04-01 09:35,-96.5200,41.4500,40.10,38.50,93.95,50.00,3.00,0.00,30.18,M,10.00,M,OVC,M,M,M,2700.00,M,M,M,M,KFET 010935Z AUTO 05003KT 10SM OVC027 05/04 A3018 RMK AO2 T00450036
FET,2017-04-01 09:55,-96.5200,41.4500,39.90,38.10,93.21,60.00,5.00,0.00,30.18,M,10.00,M,OVC,M,M,M,2700.00,M,M,M,M,KFET 010955Z AUTO 06005KT 10SM OVC027 04/03 A3018 RMK AO2 T00440034
FET,2017-04-01 10:15,-96.5200,41.4500,39.60,37.90,93.57,50.00,3.00,0.00,30.19,M,10.00,M,OVC,M,M,M,2500.00,M,M,M,M,KFET 011015Z AUTO 05003KT 10SM OVC025 04/03 A3019 RMK AO2 T00420033
FET,2017-04-01 10:35,-96.5200,41.4500,39.70,37.80,92.84,60.00,5.00,0.00,30.19,M,10.00,M,OVC,M,M,M,2500.00,M,M,M,M,KFET 011035Z AUTO 06005KT 10SM OVC025 04/03 A3019 RMK AO2 T00430032
FET,2017-04-01 10:55,-96.5200,41.4500,40.10,37.80,91.41,60.00,4.00,0.00,30.19,M,10.00,M,OVC,M,M,M,2300.00,M,M,M,M,KFET 011055Z AUTO 06004KT 10SM OVC023 05/03 A3019 RMK AO2 LTG DSNT S T00450032
FET,2017-04-01 11:15,-96.5200,41.4500,40.10,37.80,91.41,50.00,3.00,0.00,30.21,M,10.00,M,BKN,OVC,M,M,1700.00,2300.00,M,M,M,KFET 011115Z AUTO 05003KT 10SM BKN017 OVC023 05/03 A3021 RMK AO2 T00450032
FET,2017-04-01 11:35,-96.5200,41.4500,40.10,37.60,90.69,50.00,4.00,0.00,30.21,M,10.00,M,OVC,M,M,M,1700.00,M,M,M,M,KFET 011135Z AUTO 05004KT 10SM OVC017 05/03 A3021 RMK AO2 T00450031
FET,2017-04-01 11:55,-96.5200,41.4500,40.10,37.60,90.69,50.00,3.00,0.00,30.21,M,10.00,M,BKN,OVC,M,M,1500.00,2100.00,M,M,M,KFET 011155Z AUTO 05003KT 10SM BKN015 OVC021 05/03 A3021 RMK AO2 T00450031 10062 20042
FET,2017-04-01 12:15,-96.5200,41.4500,40.10,37.40,89.98,40.00,4.00,0.00,30.22,M,10.00,M,BKN,OVC,M,M,1500.00,2100.00,M,M,M,KFET 011215Z AUTO 04004KT 10SM BKN015 OVC021 05/03 A3022 RMK AO2 T00450030
FET,2017-04-01 12:35,-96.5200,41.4500,40.10,37.40,89.98,50.00,3.00,0.00,30.22,M,10.00,M,OVC,M,M,M,1700.00,M,M,M,M,KFET 011235Z AUTO 05003KT 10SM OVC017 05/03 A3022 RMK AO2 T00450030
FET,2017-04-01 12:55,-96.5200,41.4500,40.10,37.60,90.69,70.00,5.00,0.00,30.22,M,10.00,M,OVC,M,M,M,1500.00,M,M,M,M,KFET 011255Z AUTO 07005KT 10SM OVC015 05/03 A3022 RMK AO2 LTG DSNT SW T00450031
FET,2017-04-01 13:15,-96.5200,41.4500,40.30,37.80,90.70,50.00,3.00,0.00,30.22,M,10.00,M,OVC,M,M,M,1500.00,M,M,M,M,KFET 011315Z AUTO 05003KT 10SM OVC015 05/03 A3022 RMK AO2 T00460032
FET,2017-04-01 13:35,-96.5200,41.4500,40.50,37.80,90.00,50.00,4.00,0.00,30.22,M,10.00,M,SCT,OVC,M,M,1500.00,2000.00,M,M,M,KFET 011335Z AUTO 05004KT 10SM SCT015 OVC020 05/03 A3022 RMK AO2 T00470032
FET,2017-04-01 13:55,-96.5200,41.4500,41.00,38.10,89.32,50.00,4.00,0.00,30.21,M,10.00,M,SCT,BKN,M,M,1300.00,2000.00,M,M,M,KFET 011355Z AUTO 05004KT 10SM SCT013 BKN020 05/03 A3021 RMK AO2 T00500034
FET,2017-04-01 14:15,-96.5200,41.4500,41.00,37.80,88.27,60.00,6.00,0.00,30.21,M,10.00,M,SCT,M,M,M,1100.00,M,M,M,M,KFET 011415Z AUTO 06006KT 10SM SCT011 05/03 A3021 RMK AO2 T00500032
FET,2017-04-01 14:35,-96.5200,41.4500,41.40,37.90,87.26,60.00,5.00,0.00,30.22,M,10.00,M,SCT,M,M,M,1200.00,M,M,M,M,KFET 011435Z AUTO 06005KT 10SM SCT012 05/03 A3022 RMK AO2 T00520033
FET,2017-04-01 14:55,-96.5200,41.4500,41.90,38.30,86.94,70.00,4.00,0.00,30.23,M,10.00,M,BKN,M,M,M,1200.00,M,M,M,M,KFET 011455Z AUTO 07004KT 10SM BKN012 06/04 A3023 RMK AO2 T00550035
FET,2017-04-01 15:15,-96.5200,41.4500,42.30,38.10,84.95,80.00,5.00,0.00,30.24,M,10.00,M,OVC,M,M,M,1200.00,M,M,M,M,KFET 011515Z AUTO 08005KT 10SM OVC012 06/03 A3024 RMK AO2 T00570034
FET,2017-04-01 15:35,-96.5200,41.4500,42.80,38.10,83.33,110.00,4.00,0.00,30.25,M,10.00,M,OVC,M,M,M,1200.00,M,M,M,M,KFET 011535Z AUTO 11004KT 10SM OVC012 06/03 A3025 RMK AO2 T00600034
FET,2017-04-01 15:55,-96.5200,41.4500,43.20,38.30,82.70,120.00,3.00,0.00,30.25,M,10.00,M,OVC,M,M,M,1400.00,M,M,M,M,KFET 011555Z AUTO 12003KT 10SM OVC014 06/04 A3025 RMK AO2 T00620035
FET,2017-04-01 16:15,-96.5200,41.4500,43.30,37.90,81.11,90.00,3.00,0.00,30.25,M,10.00,M,OVC,M,M,M,1400.00,M,M,M,M,KFET 011615Z AUTO 09003KT 10SM OVC014 06/03 A3025 RMK AO2 T00630033
FET,2017-04-01 16:35,-96.5200,41.4500,43.70,37.90,79.87,0.00,0.00,0.00,30.23,M,10.00,M,OVC,M,M,M,1400.00,M,M,M,M,KFET 011635Z AUTO 00000KT 10SM OVC014 07/03 A3023 RMK AO2 T00650033
FET,2017-04-01 16:55,-96.5200,41.4500,44.10,37.80,78.35,0.00,0.00,0.00,30.25,M,10.00,M,OVC,M,M,M,1400.00,M,M,M,M,KFET 011655Z AUTO 00000KT 10SM OVC014 07/03 A3025 RMK AO2 T00670032
FET,2017-04-01 17:15,-96.5200,41.4500,44.20,37.40,76.84,10.00,3.00,0.00,30.23,M,10.00,M,OVC,M,M,M,1600.00,M,M,M,M,KFET 011715Z AUTO 01003KT 10SM OVC016 07/03 A3023 RMK AO2 T00680030
FET,2017-04-01 17:35,-96.5200,41.4500,44.60,37.90,77.18,0.00,0.00,0.00,30.23,M,10.00,M,OVC,M,M,M,1600.00,M,M,M,M,KFET 011735Z AUTO 00000KT 10SM OVC016 07/03 A3023 RMK AO2 T00700033
FET,2017-04-01 17:55,-96.5200,41.4500,44.60,37.80,76.87,100.00,4.00,0.00,30.21,M,10.00,M,OVC,M,M,M,1600.00,M,M,M,M,KFET 011755Z AUTO 10004KT 10SM OVC016 07/03 A3021 RMK AO2 T00700032 10071 20045
FET,2017-04-01 18:15,-96.5200,41.4500,45.90,38.50,75.21,100.00,6.00,0.00,30.20,M,10.00,M,OVC,M,M,M,1600.00,M,M,M,M,KFET 011815Z AUTO 10006KT 10SM OVC016 08/04 A3020 RMK AO2 T00770036
FET,2017-04-01 18:35,-96.5200,41.4500,46.60,38.10,72.10,100.00,7.00,0.00,30.19,M,10.00,M,OVC,M,M,M,1800.00,M,M,M,M,KFET 011835Z AUTO 10007KT 10SM OVC018 08/03 A3019 RMK AO2 T00810034
FET,2017-04-01 18:55,-96.5200,41.4500,46.40,37.60,71.24,50.00,6.00,0.00,30.18,M,10.00,M,OVC,M,M,M,1800.00,M,M,M,M,KFET 011855Z AUTO 05006KT 10SM OVC018 08/03 A3018 RMK AO2 T00800031
FET,2017-04-01 19:15,-96.5200,41.4500,47.50,37.90,69.15,0.00,0.00,0.00,30.19,M,10.00,M,BKN,OVC,M,M,2000.00,10000.00,M,M,M,KFET 011915Z AUTO 00000KT 10SM BKN020 OVC100 09/03 A3019 RMK AO2 T00860033
FET,2017-04-01 19:35,-96.5200,41.4500,47.70,38.30,69.72,90.00,4.00,0.00,30.20,M,10.00,M,OVC,M,M,M,2200.00,M,M,M,M,KFET 011935Z AUTO 09004KT 10SM OVC022 09/04 A3020 RMK AO2 T00870035
FET,2017-04-01 19:55,-96.5200,41.4500,48.00,38.50,69.48,100.00,7.00,0.00,30.19,M,10.00,M,OVC,M,M,M,2200.00,M,M,M,M,KFET 011955Z AUTO 10007KT 060V120 10SM OVC022 09/04 A3019 RMK AO2 T00890036
FET,2017-04-01 20:15,-96.5200,41.4500,48.40,38.70,68.99,130.00,6.00,0.00,30.18,M,10.00,M,BKN,BKN,M,M,2200.00,9000.00,M,M,M,KFET 012015Z AUTO 13006KT 10SM BKN022 BKN090 09/04 A3018 RMK AO2 T00910037
FET,2017-04-01 20:35,-96.5200,41.4500,47.80,38.50,70.01,140.00,3.00,0.00,30.17,M,10.00,M,BKN,M,M,M,2200.00,M,M,M,M,KFET 012035Z AUTO 14003KT 10SM BKN022 09/04 A3017 RMK AO2 T00880036
FET,2017-04-01 20:55,-96.5200,41.4500,48.20,38.70,69.50,170.00,6.00,0.00,30.19,M,10.00,M,BKN,BKN,M,M,2200.00,8500.00,M,M,M,KFET 012055Z AUTO 17006KT 10SM BKN022 BKN085 09/04 A3019 RMK AO2 T00900037
FET,2017-04-01 21:15,-96.5200,41.4500,47.80,38.50,70.01,0.00,0.00,0.00,30.16,M,10.00,M,SCT,OVC,M,M,2200.00,8500.00,M,M,M,KFET 012115Z AUTO 00000KT 10SM SCT022 OVC085 09/04 A3016 RMK AO2 T00880036
FET,2017-04-01 21:35,-96.5200,41.4500,48.20,38.80,69.78,0.00,0.00,0.00,30.16,M,10.00,M,OVC,M,M,M,8500.00,M,M,M,M,KFET 012135Z AUTO 00000KT 10SM OVC085 09/04 A3016 RMK AO2 T00900038
FET,2017-04-01 21:55,-96.5200,41.4500,48.20,38.50,68.96,0.00,0.00,0.00,30.17,M,10.00,M,OVC,M,M,M,8500.00,M,M,M,M,KFET 012155Z AUTO 00000KT 10SM OVC085 09/04 A3017 RMK AO2 T00900036
FET,2017-04-01 22:15,-96.5200,41.4500,48.20,38.80,69.78,0.00,0.00,0.00,30.16,M,10.00,M,OVC,M,M,M,8500.00,M,M,M,M,KFET 012215Z AUTO 00000KT 10SM OVC085 09/04 A3016 RMK AO2 T00900038
FET,2017-04-01 22:35,-96.5200,41.4500,48.20,38.50,68.96,90.00,4.00,0.00,30.15,M,10.00,M,OVC,M,M,M,7500.00,M,M,M,M,KFET 012235Z AUTO 09004KT 10SM OVC075 09/04 A3015 RMK AO2 T00900036
FET,2017-04-01 22:55,-96.5200,41.4500,48.40,39.00,69.80,80.00,4.00,0.00,30.14,M,10.00,M,OVC,M,M,M,7500.00,M,M,M,M,KFET 012255Z AUTO 08004KT 10SM OVC075 09/04 A3014 RMK AO2 T00910039
FET,2017-04-01 23:15,-96.5200,41.4500,48.20,39.00,70.32,100.00,3.00,0.00,30.15,M,10.00,M,OVC,M,M,M,7500.00,M,M,M,M,KFET 012315Z AUTO 10003KT 10SM OVC075 09/04 A3015 RMK AO2 T00900039
FET,2017-04-01 23:35,-96.5200,41.4500,48.20,39.20,70.88,120.00,3.00,0.00,30.16,M,10.00,M,OVC,M,M,M,6500.00,M,M,M,M,KFET 012335Z AUTO 12003KT 10SM OVC065 09/04 A3016 RMK AO2 T00900040
FET,2017-04-01 23:55,-96.5200,41.4500,47.80,39.00,71.39,120.00,6.00,0.00,30.15,M,10.00,M,BKN,OVC,M,M,6500.00,10000.00,M,M,M,KFET 012355Z AUTO 12006KT 10SM BKN065 OVC100 09/04 A3015 RMK AO2 T00880039 10093 20071
