#DEBUG: Format Typ    -> comma
#DEBUG: Time Period   -> 2017-04-01 00:00:00+00:00 2017-04-02 00:00:00+00:00
#DEBUG: Time Zone     -> Etc/UTC
#DEBUG: Data Contact   -> daryl herzmann akrherz@iastate.edu 515-294-5978
#DEBUG: Entries Found -> -1
station,valid,lon,lat,tmpf, dwpf, relh, drct, sknt, p01i, alti, mslp, vsby, gust, skyc1, skyc2, skyc3, skyc4, skyl1, skyl2, skyl3, skyl4, presentwx, metar
FFT,2017-04-01 00:00,-84.9033,38.1847,M,M,M,260.00,5.00,M,29.87,M,10.00,M,SCT,OVC,M,M,1699.00,2500.00,M,M,M,KFFT 010000Z AUTO 26005KT 10SM SCT016 OVC025 A2987 RMK MADISHF
FFT,2017-04-01 00:05,-84.9033,38.1847,M,M,M,280.00,6.00,M,29.87,M,10.00,M,BKN,OVC,M,M,1699.00,2500.00,M,M,M,KFFT 010005Z AUTO 28006KT 10SM BKN016 OVC025 A2987 RMK MADISHF
FFT,2017-04-01 00:10,-84.9033,38.1847,M,M,M,270.00,4.00,M,29.87,M,10.00,M,BKN,OVC,M,M,1699.00,2400.00,M,M,M,KFFT 010010Z AUTO 27004KT 10SM BKN016 OVC024 A2987 RMK MADISHF
FFT,2017-04-01 00:15,-84.9033,38.1847,M,M,M,280.00,7.00,M,29.88,M,10.00,M,BKN,OVC,M,M,1699.00,2300.00,M,M,M,KFFT 010015Z AUTO 28007KT 10SM BKN016 OVC023 A2988 RMK MADISHF
FFT,2017-04-01 00:20,-84.9033,38.1847,M,M,M,280.00,7.00,M,29.88,M,10.00,M,BKN,OVC,M,M,1699.00,2600.00,M,M,M,KFFT 010020Z AUTO 28007KT 10SM BKN016 OVC026 A2988 RMK MADISHF
FFT,2017-04-01 00:25,-84.9033,38.1847,M,M,M,280.00,6.00,M,29.88,M,10.00,M,OVC,M,M,M,1699.00,M,M,M,M,KFFT 010025Z AUTO 28006KT 10SM OVC016 A2988 RMK MADISHF
FFT,2017-04-01 00:30,-84.9033,38.1847,M,M,M,280.00,5.00,M,29.88,M,10.00,M,OVC,M,M,M,1699.00,M,M,M,M,KFFT 010030Z AUTO 28005KT 10SM OVC016 A2988 RMK MADISHF
FFT,2017-04-01 00:35,-84.9033,38.1847,M,M,M,280.00,7.00,M,29.88,M,10.00,M,OVC,M,M,M,1699.00,M,M,M,M,KFFT 010035Z AUTO 28007KT 10SM OVC016 A2988 RMK MADISHF
FFT,2017-04-01 00:40,-84.9033,38.1847,M,M,M,290.00,6.00,M,29.89,M,10.00,M,OVC,M,M,M,1699.00,M,M,M,M,KFFT 010040Z AUTO 29006KT 10SM OVC016 A2989 RMK MADISHF
FFT,2017-04-01 00:45,-84.9033,38.1847,M,M,M,290.00,7.00,M,29.89,M,10.00,M,OVC,M,M,M,1699.00,M,M,M,M,KFFT 010045Z AUTO 29007KT 10SM OVC016 A2989 RMK MADISHF
FFT,2017-04-01 00:50,-84.9033,38.1847,M,M,M,290.00,7.00,M,29.89,M,10.00,M,OVC,M,M,M,1500.00,M,M,M,M,KFFT 010050Z AUTO 29007KT 10SM OVC015 A2989 RMK MADISHF
FFT,2017-04-01 00:53,-84.9033,38.1847,50.00,42.10,74.15,290.00,10.00,0.00,29.89,1012.20,10.00,M,OVC,M,M,M,1500.00,M,M,M,M,KFFT 010053Z AUTO 29010KT 10SM OVC015 10/06 A2989 RMK AO2 SLP122 T01000056
FFT,2017-04-01 00:55,-84.9033,38.1847,M,M,M,290.00,7.00,M,29.89,M,10.00,M,OVC,M,M,M,1500.00,M,M,M,M,KFFT 010055Z AUTO 29007KT 10SM OVC015 A2989 RMK MADISHF
FFT,2017-04-01 01:00,-84.9033,38.1847,M,M,M,290.00,8.00,M,29.90,M,10.00,M,OVC,M,M,M,1500.00,M,M,M,M,KFFT 010100Z AUTO 29008KT 10SM OVC015 A2990 RMK WND 26V32  MADISHF
FFT,2017-04-01 01:05,-84.9033,38.1847,M,M,M,290.00,7.00,M,29.90,M,10.00,M,OVC,M,M,M,1300.00,M,M,M,M,KFFT 010105Z AUTO 29007KT 10SM OVC013 A2990 RMK MADISHF
FFT,2017-04-01 01:10,-84.9033,38.1847,50.00,42.10,74.15,290.00,8.00,0.00,29.90,M,10.00,M,OVC,M,M,M,1300.00,M,M,M,M,KFFT 010110Z AUTO 29008KT 260V320 10SM OVC013 10/06 A2990 RMK AO2 T01000056
FFT,2017-04-01 01:15,-84.9033,38.1847,M,M,M,300.00,5.00,M,29.90,M,10.00,M,OVC,M,M,M,1300.00,M,M,M,M,KFFT 010115Z AUTO 30005KT 10SM OVC013 A2990 RMK VRB05KT  MADISHF
FFT,2017-04-01 01:20,-84.9033,38.1847,M,M,M,300.00,7.00,M,29.91,M,10.00,M,OVC,M,M,M,1300.00,M,M,M,M,KFFT 010120Z AUTO 30007KT 10SM OVC013 A2991 RMK MADISHF
FFT,2017-04-01 01:25,-84.9033,38.1847,M,M,M,300.00,8.00,M,29.91,M,10.00,M,OVC,M,M,M,1300.00,M,M,M,M,KFFT 010125Z AUTO 30008KT 10SM OVC013 A2991 RMK MADISHF
FFT,2017-04-01 01:30,-84.9033,38.1847,M,M,M,290.00,9.00,M,29.91,M,10.00,M,OVC,M,M,M,1500.00,M,M,M,M,KFFT 010130Z AUTO 29009KT 10SM OVC015 A2991 RMK MADISHF
FFT,2017-04-01 01:35,-84.9033,38.1847,M,M,M,290.00,8.00,M,29.91,M,10.00,M,OVC,M,M,M,1500.00,M,M,M,M,KFFT 010135Z AUTO 29008KT 10SM OVC015 A2991 RMK MADISHF
FFT,2017-04-01 01:36,-84.9033,38.1847,48.90,41.00,74.05,290.00,7.00,0.00,29.91,M,10.00,M,OVC,M,M,M,1500.00,M,M,M,M,KFFT 010136Z AUTO 29007KT 10SM OVC015 09/05 A2991 RMK AO2 T00940050
FFT,2017-04-01 01:40,-84.9033,38.1847,M,M,M,280.00,9.00,M,29.92,M,10.00,M,OVC,M,M,M,1500.00,M,M,M,M,KFFT 010140Z AUTO 28009KT 10SM OVC015 A2992 RMK MADISHF
FFT,2017-04-01 01:45,-84.9033,38.1847,M,M,M,290.00,9.00,M,29.92,M,10.00,M,OVC,M,M,M,1400.00,M,M,M,M,KFFT 010145Z AUTO 29009KT 10SM OVC014 A2992 RMK MADISHF
FFT,2017-04-01 01:50,-84.9033,38.1847,M,M,M,290.00,9.00,M,29.92,M,10.00,16.00,OVC,M,M,M,1400.00,M,M,M,M,KFFT 010150Z AUTO 29009G16KT 10SM OVC014 A2992 RMK WND 25V31  MADISHF
FFT,2017-04-01 01:51,-84.9033,38.1847,48.20,41.00,76.01,290.00,11.00,0.00,29.92,M,10.00,18.00,OVC,M,M,M,1400.00,M,M,M,M,KFFT 010151Z AUTO 29011G18KT 10SM OVC014 09/05 A2992 RMK AO2
FFT,2017-04-01 01:53,-84.9033,38.1847,48.90,41.00,74.05,290.00,8.00,0.00,29.92,1013.30,10.00,18.00,OVC,M,M,M,1400.00,M,M,M,M,KFFT 010153Z AUTO 29008G18KT 10SM OVC014 09/05 A2992 RMK AO2 SLP133 T00940050
FFT,2017-04-01 01:55,-84.9033,38.1847,M,M,M,290.00,10.00,M,29.92,M,10.00,15.00,OVC,M,M,M,1400.00,M,M,M,M,KFFT 010155Z AUTO 29010G15KT 10SM OVC014 A2992 RMK MADISHF
FFT,2017-04-01 02:00,-84.9033,38.1847,M,M,M,300.00,10.00,M,29.93,M,10.00,M,OVC,M,M,M,1400.00,M,M,M,M,KFFT 010200Z AUTO 30010KT 10SM OVC014 A2993 RMK MADISHF
FFT,2017-04-01 02:05,-84.9033,38.1847,M,M,M,300.00,8.00,M,29.93,M,10.00,M,OVC,M,M,M,1400.00,M,M,M,M,KFFT 010205Z AUTO 30008KT 10SM OVC014 A2993 RMK MADISHF
FFT,2017-04-01 02:10,-84.9033,38.1847,M,M,M,290.00,7.00,M,29.93,M,10.00,M,OVC,M,M,M,1400.00,M,M,M,M,KFFT 010210Z AUTO 29007KT 10SM OVC014 A2993 RMK MADISHF
FFT,2017-04-01 02:15,-84.9033,38.1847,M,M,M,300.00,9.00,M,29.93,M,10.00,M,OVC,M,M,M,1300.00,M,M,M,M,KFFT 010215Z AUTO 30009KT 10SM OVC013 A2993 RMK MADISHF
FFT,2017-04-01 02:20,-84.9033,38.1847,M,M,M,280.00,10.00,M,29.93,M,10.00,M,OVC,M,M,M,1300.00,M,M,M,M,KFFT 010220Z AUTO 28010KT 10SM OVC013 A2993 RMK MADISHF
FFT,2017-04-01 02:25,-84.9033,38.1847,M,M,M,290.00,7.00,M,29.93,M,10.00,M,OVC,M,M,M,1300.00,M,M,M,M,KFFT 010225Z AUTO 29007KT 10SM OVC013 A2993 RMK MADISHF
FFT,2017-04-01 02:30,-84.9033,38.1847,M,M,M,290.00,8.00,M,29.94,M,10.00,M,OVC,M,M,M,1300.00,M,M,M,M,KFFT 010230Z AUTO 29008KT 10SM OVC013 A2994 RMK MADISHF
FFT,2017-04-01 02:35,-84.9033,38.1847,M,M,M,280.00,7.00,M,29.93,M,10.00,M,OVC,M,M,M,1200.00,M,M,M,M,KFFT 010235Z AUTO 28007KT 10SM OVC012 A2993 RMK MADISHF
FFT,2017-04-01 02:40,-84.9033,38.1847,M,M,M,270.00,10.00,M,29.93,M,10.00,M,OVC,M,M,M,1200.00,M,M,M,M,KFFT 010240Z AUTO 27010KT 10SM OVC012 A2993 RMK MADISHF
FFT,2017-04-01 02:45,-84.9033,38.1847,M,M,M,280.00,7.00,M,29.94,M,10.00,M,OVC,M,M,M,1200.00,M,M,M,M,KFFT 010245Z AUTO 28007KT 10SM OVC012 A2994 RMK MADISHF
FFT,2017-04-01 02:50,-84.9033,38.1847,M,M,M,270.00,7.00,M,29.94,M,10.00,M,OVC,M,M,M,1100.00,M,M,M,M,KFFT 010250Z AUTO 27007KT 10SM OVC011 A2994 RMK MADISHF
FFT,2017-04-01 02:53,-84.9033,38.1847,48.00,41.00,76.58,280.00,8.00,0.00,29.94,1013.80,10.00,M,OVC,M,M,M,1100.00,M,M,M,M,KFFT 010253Z AUTO 28008KT 10SM OVC011 09/05 A2994 RMK AO2 SLP138 T00890050 51015
FFT,2017-04-01 02:55,-84.9033,38.1847,M,M,M,280.00,6.00,M,29.94,M,10.00,M,OVC,M,M,M,1100.00,M,M,M,M,KFFT 010255Z AUTO 28006KT 10SM OVC011 A2994 RMK VRB06KT  MADISHF
FFT,2017-04-01 03:00,-84.9033,38.1847,M,M,M,290.00,8.00,M,29.94,M,10.00,M,OVC,M,M,M,1100.00,M,M,M,M,KFFT 010300Z AUTO 29008KT 10SM OVC011 A2994 RMK MADISHF
FFT,2017-04-01 03:05,-84.9033,38.1847,M,M,M,290.00,5.00,M,29.94,M,10.00,M,OVC,M,M,M,1100.00,M,M,M,M,KFFT 010305Z AUTO 29005KT 10SM OVC011 A2994 RMK MADISHF
FFT,2017-04-01 03:10,-84.9033,38.1847,M,M,M,280.00,7.00,M,29.94,M,10.00,M,OVC,M,M,M,1100.00,M,M,M,M,KFFT 010310Z AUTO 28007KT 10SM OVC011 A2994 RMK WND 26V32  MADISHF
FFT,2017-04-01 03:15,-84.9033,38.1847,M,M,M,280.00,9.00,M,29.94,M,10.00,M,OVC,M,M,M,1100.00,M,M,M,M,KFFT 010315Z AUTO 28009KT 10SM OVC011 A2994 RMK MADISHF
FFT,2017-04-01 03:20,-84.9033,38.1847,M,M,M,280.00,9.00,M,29.95,M,10.00,M,OVC,M,M,M,1200.00,M,M,M,M,KFFT 010320Z AUTO 28009KT 10SM OVC012 A2995 RMK MADISHF
FFT,2017-04-01 03:25,-84.9033,38.1847,M,M,M,280.00,8.00,M,29.95,M,10.00,M,OVC,M,M,M,1200.00,M,M,M,M,KFFT 010325Z AUTO 28008KT 10SM OVC012 A2995 RMK MADISHF
FFT,2017-04-01 03:30,-84.9033,38.1847,M,M,M,290.00,8.00,M,29.95,M,10.00,M,OVC,M,M,M,1200.00,M,M,M,M,KFFT 010330Z AUTO 29008KT 10SM OVC012 A2995 RMK MADISHF
FFT,2017-04-01 03:35,-84.9033,38.1847,M,M,M,280.00,8.00,M,29.95,M,10.00,M,OVC,M,M,M,1100.00,M,M,M,M,KFFT 010335Z AUTO 28008KT 10SM OVC011 A2995 RMK MADISHF
FFT,2017-04-01 03:40,-84.9033,38.1847,M,M,M,300.00,7.00,M,29.95,M,10.00,M,OVC,M,M,M,1100.00,M,M,M,M,KFFT 010340Z AUTO 30007KT 10SM OVC011 A2995 RMK MADISHF
FFT,2017-04-01 03:45,-84.9033,38.1847,M,M,M,280.00,8.00,M,29.95,M,10.00,M,OVC,M,M,M,1100.00,M,M,M,M,KFFT 010345Z AUTO 28008KT 10SM OVC011 A2995 RMK MADISHF
FFT,2017-04-01 03:50,-84.9033,38.1847,M,M,M,300.00,6.00,M,29.95,M,10.00,M,OVC,M,M,M,1100.00,M,M,M,M,KFFT 010350Z AUTO 30006KT 10SM OVC011 A2995 RMK MADISHF
FFT,2017-04-01 03:53,-84.9033,38.1847,46.90,41.00,79.82,300.00,7.00,0.00,29.95,1014.30,10.00,M,OVC,M,M,M,1100.00,M,M,M,M,KFFT 010353Z AUTO 30007KT 10SM OVC011 08/05 A2995 RMK AO2 SLP143 T00830050
FFT,2017-04-01 03:55,-84.9033,38.1847,M,M,M,290.00,8.00,M,29.95,M,10.00,M,OVC,M,M,M,1100.00,M,M,M,M,KFFT 010355Z AUTO 29008KT 10SM OVC011 A2995 RMK WND 26V32  MADISHF
FFT,2017-04-01 04:00,-84.9033,38.1847,M,M,M,300.00,7.00,M,29.96,M,10.00,M,OVC,M,M,M,1100.00,M,M,M,M,KFFT 010400Z AUTO 30007KT 10SM OVC011 A2996 RMK MADISHF
FFT,2017-04-01 04:05,-84.9033,38.1847,M,M,M,300.00,10.00,M,29.96,M,10.00,M,OVC,M,M,M,1100.00,M,M,M,M,KFFT 010405Z AUTO 30010KT 10SM OVC011 A2996 RMK MADISHF
FFT,2017-04-01 04:10,-84.9033,38.1847,M,M,M,300.00,7.00,M,29.96,M,10.00,M,OVC,M,M,M,1100.00,M,M,M,M,KFFT 010410Z AUTO 30007KT 10SM OVC011 A2996 RMK MADISHF
FFT,2017-04-01 04:15,-84.9033,38.1847,M,M,M,290.00,6.00,M,29.97,M,10.00,M,OVC,M,M,M,1100.00,M,M,M,M,KFFT 010415Z AUTO 29006KT 10SM OVC011 A2997 RMK MADISHF
FFT,2017-04-01 04:20,-84.9033,38.1847,M,M,M,290.00,10.00,M,29.96,M,10.00,15.00,OVC,M,M,M,1100.00,M,M,M,M,KFFT 010420Z AUTO 29010G15KT 10SM OVC011 A2996 RMK MADISHF
FFT,2017-04-01 04:25,-84.9033,38.1847,M,M,M,280.00,8.00,M,29.96,M,10.00,M,OVC,M,M,M,1100.00,M,M,M,M,KFFT 010425Z AUTO 28008KT 10SM OVC011 A2996 RMK MADISHF
FFT,2017-04-01 04:30,-84.9033,38.1847,M,M,M,290.00,9.00,M,29.96,M,10.00,M,OVC,M,M,M,999.00,M,M,M,M,KFFT 010430Z AUTO 29009KT 10SM OVC009 A2996 RMK MADISHF
FFT,2017-04-01 04:35,-84.9033,38.1847,M,M,M,290.00,7.00,M,29.97,M,10.00,M,OVC,M,M,M,999.00,M,M,M,M,KFFT 010435Z AUTO 29007KT 10SM OVC009 A2997 RMK MADISHF
FFT,2017-04-01 04:40,-84.9033,38.1847,M,M,M,300.00,9.00,M,29.97,M,10.00,M,OVC,M,M,M,999.00,M,M,M,M,KFFT 010440Z AUTO 30009KT 10SM OVC009 A2997 RMK MADISHF
FFT,2017-04-01 04:45,-84.9033,38.1847,M,M,M,290.00,5.00,M,29.97,M,10.00,M,OVC,M,M,M,999.00,M,M,M,M,KFFT 010445Z AUTO 29005KT 10SM OVC009 A2997 RMK MADISHF
FFT,2017-04-01 04:50,-84.9033,38.1847,M,M,M,290.00,9.00,M,29.97,M,10.00,M,OVC,M,M,M,999.00,M,M,M,M,KFFT 010450Z AUTO 29009KT 10SM OVC009 A2997 RMK MADISHF
FFT,2017-04-01 04:53,-84.9033,38.1847,46.00,39.90,79.13,290.00,8.00,0.00,29.97,1014.90,10.00,M,OVC,M,M,M,1000.00,M,M,M,M,KFFT 010453Z AUTO 29008KT 10SM OVC010 08/04 A2997 RMK AO2 SLP149 T00780044 401560078
FFT,2017-04-01 04:55,-84.9033,38.1847,M,M,M,290.00,7.00,M,29.97,M,10.00,M,OVC,M,M,M,999.00,M,M,M,M,KFFT 010455Z AUTO 29007KT 10SM OVC009 A2997 RMK MADISHF
FFT,2017-04-01 05:00,-84.9033,38.1847,M,M,M,280.00,6.00,M,29.97,M,10.00,M,OVC,M,M,M,999.00,M,M,M,M,KFFT 010500Z AUTO 28006KT 10SM OVC009 A2997 RMK MADISHF
FFT,2017-04-01 05:05,-84.9033,38.1847,M,M,M,290.00,7.00,M,29.98,M,10.00,M,OVC,M,M,M,999.00,M,M,M,M,KFFT 010505Z AUTO 29007KT 10SM OVC009 A2998 RMK MADISHF
FFT,2017-04-01 05:10,-84.9033,38.1847,M,M,M,300.00,8.00,M,29.98,M,10.00,M,OVC,M,M,M,1100.00,M,M,M,M,KFFT 010510Z AUTO 30008KT 10SM OVC011 A2998 RMK MADISHF
FFT,2017-04-01 05:15,-84.9033,38.1847,M,M,M,290.00,5.00,M,29.98,M,10.00,M,OVC,M,M,M,1100.00,M,M,M,M,KFFT 010515Z AUTO 29005KT 10SM OVC011 A2998 RMK MADISHF
FFT,2017-04-01 05:20,-84.9033,38.1847,M,M,M,300.00,7.00,M,29.98,M,10.00,M,OVC,M,M,M,1100.00,M,M,M,M,KFFT 010520Z AUTO 30007KT 10SM OVC011 A2998 RMK MADISHF
FFT,2017-04-01 05:25,-84.9033,38.1847,M,M,M,280.00,7.00,M,29.98,M,10.00,M,OVC,M,M,M,1200.00,M,M,M,M,KFFT 010525Z AUTO 28007KT 10SM OVC012 A2998 RMK MADISHF
FFT,2017-04-01 05:30,-84.9033,38.1847,M,M,M,290.00,8.00,M,29.99,M,10.00,M,BKN,OVC,M,M,900.00,1400.00,M,M,M,KFFT 010530Z AUTO 29008KT 10SM BKN009 OVC014 A2999 RMK MADISHF
FFT,2017-04-01 05:35,-84.9033,38.1847,46.00,41.00,82.58,290.00,6.00,0.00,29.99,M,9.00,M,BKN,OVC,M,M,900.00,1400.00,M,M,M,KFFT 010535Z AUTO 29006KT 9SM BKN009 OVC014 08/05 A2999 RMK AO2 CIG 007V013 T00780050
FFT,2017-04-01 05:40,-84.9033,38.1847,M,M,M,290.00,7.00,M,29.99,M,8.00,M,BKN,OVC,M,M,900.00,1400.00,M,M,M,KFFT 010540Z AUTO 29007KT 8SM BKN009 OVC014 A2999 RMK CIG 7V10  MADISHF
FFT,2017-04-01 05:45,-84.9033,38.1847,M,M,M,290.00,4.00,M,29.99,M,7.00,M,BKN,OVC,M,M,700.00,1400.00,M,M,M,KFFT 010545Z AUTO 29004KT 7SM BKN007 OVC014 A2999 RMK CIG 6V10  MADISHF
FFT,2017-04-01 05:50,-84.9033,38.1847,M,M,M,280.00,6.00,M,29.99,M,6.00,M,OVC,M,M,M,700.00,M,M,M,HZ,KFFT 010550Z AUTO 28006KT 6SM HZ OVC007 A2999 RMK CIG 6V12  MADISHF
FFT,2017-04-01 05:53,-84.9033,38.1847,46.00,41.00,82.58,290.00,8.00,0.00,29.99,1015.50,6.00,M,OVC,M,M,M,700.00,M,M,M,HZ,KFFT 010553Z AUTO 29008KT 6SM HZ OVC007 08/05 A2999 RMK AO2 CIG 006V012 SLP155 T00780050 10111 20078 53017
FFT,2017-04-01 05:55,-84.9033,38.1847,M,M,M,280.00,7.00,M,29.99,M,6.00,M,OVC,M,M,M,700.00,M,M,M,HZ,KFFT 010555Z AUTO 28007KT 6SM HZ OVC007 A2999 RMK CIG 6V12  MADISHF
FFT,2017-04-01 06:00,-84.9033,38.1847,M,M,M,290.00,6.00,M,29.99,M,6.00,M,BKN,OVC,M,M,700.00,1400.00,M,M,BR,KFFT 010600Z AUTO 29006KT 6SM BR BKN007 OVC014 A2999 RMK VRB06KT  MADISHF
FFT,2017-04-01 06:05,-84.9033,38.1847,M,M,M,290.00,6.00,M,29.99,M,6.00,M,OVC,M,M,M,700.00,M,M,M,BR,KFFT 010605Z AUTO 29006KT 6SM BR OVC007 A2999 RMK CIG 6V11  MADISHF
FFT,2017-04-01 06:10,-84.9033,38.1847,M,M,M,290.00,7.00,M,29.99,M,5.00,M,OVC,M,M,M,700.00,M,M,M,BR,KFFT 010610Z AUTO 29007KT 5SM BR OVC007 A2999 RMK CIG 6V11  MADISHF
FFT,2017-04-01 06:15,-84.9033,38.1847,M,M,M,290.00,5.00,M,29.99,M,5.00,M,OVC,M,M,M,800.00,M,M,M,BR,KFFT 010615Z AUTO 29005KT 5SM BR OVC008 A2999 RMK CIG 6V11  MADISHF
FFT,2017-04-01 06:20,-84.9033,38.1847,M,M,M,300.00,6.00,M,30.00,M,5.00,M,OVC,M,M,M,800.00,M,M,M,BR,KFFT 010620Z AUTO 30006KT 5SM BR OVC008 A3000 RMK CIG 6V11  MADISHF
FFT,2017-04-01 06:25,-84.9033,38.1847,M,M,M,300.00,5.00,M,30.00,M,5.00,M,BKN,OVC,M,M,600.00,999.00,M,M,BR,KFFT 010625Z AUTO 30005KT 5SM BR BKN006 OVC009 A3000 RMK MADISHF
FFT,2017-04-01 06:30,-84.9033,38.1847,M,M,M,300.00,6.00,M,30.00,M,5.00,M,BKN,OVC,M,M,600.00,999.00,M,M,BR,KFFT 010630Z AUTO 30006KT 5SM BR BKN006 OVC009 A3000 RMK CIG 5V9  MADISHF
FFT,2017-04-01 06:35,-84.9033,38.1847,M,M,M,310.00,6.00,M,30.00,M,5.00,M,OVC,M,M,M,800.00,M,M,M,BR,KFFT 010635Z AUTO 31006KT 5SM BR OVC008 A3000 RMK CIG 5V12  MADISHF
FFT,2017-04-01 06:40,-84.9033,38.1847,M,M,M,300.00,6.00,M,30.00,M,5.00,M,BKN,OVC,M,M,600.00,999.00,M,M,BR,KFFT 010640Z AUTO 30006KT 5SM BR BKN006 OVC009 A3000 RMK MADISHF
FFT,2017-04-01 06:45,-84.9033,38.1847,M,M,M,310.00,6.00,M,30.00,M,5.00,M,OVC,M,M,M,600.00,M,M,M,BR,KFFT 010645Z AUTO 31006KT 5SM BR OVC006 A3000 RMK CIG 5V9  MADISHF
FFT,2017-04-01 06:50,-84.9033,38.1847,M,M,M,300.00,6.00,M,30.00,M,5.00,M,BKN,OVC,M,M,600.00,1100.00,M,M,BR,KFFT 010650Z AUTO 30006KT 5SM BR BKN006 OVC011 A3000 RMK CIG 5V9  MADISHF
FFT,2017-04-01 06:53,-84.9033,38.1847,45.00,41.00,85.77,300.00,6.00,0.00,30.00,1016.00,5.00,M,OVC,M,M,M,600.00,M,M,M,BR,KFFT 010653Z AUTO 30006KT 5SM BR OVC006 07/05 A3000 RMK AO2 CIG 005V010 SLP160 T00720050
FFT,2017-04-01 06:55,-84.9033,38.1847,M,M,M,300.00,6.00,M,30.00,M,5.00,M,OVC,M,M,M,600.00,M,M,M,BR,KFFT 010655Z AUTO 30006KT 5SM BR OVC006 A3000 RMK CIG 5V10  MADISHF
FFT,2017-04-01 07:00,-84.9033,38.1847,M,M,M,320.00,7.00,M,30.01,M,5.00,M,OVC,M,M,M,600.00,M,M,M,BR,KFFT 010700Z AUTO 32007KT 5SM BR OVC006 A3001 RMK CIG 5V12  MADISHF
FFT,2017-04-01 07:05,-84.9033,38.1847,M,M,M,300.00,6.00,M,30.01,M,6.00,M,OVC,M,M,M,600.00,M,M,M,HZ,KFFT 010705Z AUTO 30006KT 6SM HZ OVC006 A3001 RMK CIG 5V12  MADISHF
FFT,2017-04-01 07:10,-84.9033,38.1847,M,M,M,310.00,5.00,M,30.01,M,7.00,M,OVC,M,M,M,700.00,M,M,M,M,KFFT 010710Z AUTO 31005KT 7SM OVC007 A3001 RMK CIG 5V12  MADISHF
FFT,2017-04-01 07:15,-84.9033,38.1847,M,M,M,310.00,5.00,M,30.01,M,8.00,M,OVC,M,M,M,700.00,M,M,M,M,KFFT 010715Z AUTO 31005KT 8SM OVC007 A3001 RMK CIG 5V10  MADISHF
FFT,2017-04-01 07:20,-84.9033,38.1847,M,M,M,310.00,6.00,M,30.01,M,8.00,M,OVC,M,M,M,700.00,M,M,M,M,KFFT 010720Z AUTO 31006KT 8SM OVC007 A3001 RMK CIG 5V10  MADISHF
FFT,2017-04-01 07:25,-84.9033,38.1847,M,M,M,310.00,4.00,M,30.01,M,7.00,M,OVC,M,M,M,700.00,M,M,M,M,KFFT 010725Z AUTO 31004KT 7SM OVC007 A3001 RMK CIG 5V10  MADISHF
FFT,2017-04-01 07:30,-84.9033,38.1847,M,M,M,320.00,6.00,M,30.01,M,7.00,M,OVC,M,M,M,600.00,M,M,M,M,KFFT 010730Z AUTO 32006KT 7SM OVC006 A3001 RMK CIG 5V10  MADISHF
FFT,2017-04-01 07:35,-84.9033,38.1847,M,M,M,310.00,6.00,M,30.01,M,6.00,M,OVC,M,M,M,600.00,M,M,M,BR,KFFT 010735Z AUTO 31006KT 6SM BR OVC006 A3001 RMK CIG 5V9  MADISHF
FFT,2017-04-01 07:40,-84.9033,38.1847,M,M,M,310.00,6.00,M,30.01,M,7.00,M,BKN,OVC,M,M,600.00,1300.00,M,M,M,KFFT 010740Z AUTO 31006KT 7SM BKN006 OVC013 A3001 RMK CIG 5V11  MADISHF
FFT,2017-04-01 07:45,-84.9033,38.1847,M,M,M,310.00,7.00,M,30.01,M,9.00,M,BKN,OVC,M,M,800.00,1300.00,M,M,M,KFFT 010745Z AUTO 31007KT 9SM BKN008 OVC013 A3001 RMK CIG 5V12  MADISHF
FFT,2017-04-01 07:50,-84.9033,38.1847,M,M,M,300.00,6.00,M,30.01,M,10.00,M,BKN,BKN,OVC,M,800.00,1300.00,1900.00,M,M,KFFT 010750Z AUTO 30006KT 10SM BKN008 BKN013 OVC019 A3001 RMK CIG 5V12  MADISHF
FFT,2017-04-01 07:53,-84.9033,38.1847,44.10,39.90,85.06,310.00,7.00,0.00,30.01,1016.40,10.00,M,BKN,BKN,OVC,M,800.00,1400.00,1900.00,M,M,KFFT 010753Z AUTO 31007KT 10SM BKN008 BKN014 OVC019 07/04 A3001 RMK AO2 CIG 005V012 SLP164 T00670044
FFT,2017-04-01 07:55,-84.9033,38.1847,M,M,M,300.00,7.00,M,30.01,M,10.00,M,BKN,BKN,OVC,M,800.00,1400.00,1900.00,M,M,KFFT 010755Z AUTO 30007KT 10SM BKN008 BKN014 OVC019 A3001 RMK CIG 6V12  MADISHF
FFT,2017-04-01 08:00,-84.9033,38.1847,M,M,M,310.00,7.00,M,30.01,M,10.00,M,SCT,BKN,OVC,M,800.00,1400.00,2700.00,M,M,KFFT 010800Z AUTO 31007KT 10SM SCT008 BKN014 OVC027 A3001 RMK MADISHF
FFT,2017-04-01 08:02,-84.9033,38.1847,44.10,39.00,82.12,310.00,9.00,0.00,30.01,M,10.00,M,SCT,BKN,OVC,M,800.00,1400.00,2700.00,M,M,KFFT 010802Z AUTO 31009KT 10SM SCT008 BKN014 OVC027 07/04 A3001 RMK AO2 T00670039
FFT,2017-04-01 08:05,-84.9033,38.1847,M,M,M,300.00,7.00,M,30.02,M,10.00,M,FEW,BKN,OVC,M,800.00,1400.00,2700.00,M,M,KFFT 010805Z AUTO 30007KT 10SM FEW008 BKN014 OVC027 A3002 RMK MADISHF
FFT,2017-04-01 08:10,-84.9033,38.1847,M,M,M,310.00,6.00,M,30.02,M,10.00,M,FEW,BKN,OVC,M,900.00,1400.00,2700.00,M,M,KFFT 010810Z AUTO 31006KT 10SM FEW009 BKN014 OVC027 A3002 RMK MADISHF
FFT,2017-04-01 08:15,-84.9033,38.1847,M,M,M,310.00,4.00,M,30.02,M,10.00,M,SCT,BKN,OVC,M,900.00,1400.00,2700.00,M,M,KFFT 010815Z AUTO 31004KT 10SM SCT009 BKN014 OVC027 A3002 RMK MADISHF
FFT,2017-04-01 08:20,-84.9033,38.1847,M,M,M,320.00,7.00,M,30.02,M,10.00,M,BKN,BKN,OVC,M,900.00,1400.00,2700.00,M,M,KFFT 010820Z AUTO 32007KT 10SM BKN009 BKN014 OVC027 A3002 RMK MADISHF
FFT,2017-04-01 08:25,-84.9033,38.1847,M,M,M,320.00,8.00,M,30.02,M,9.00,M,BKN,BKN,OVC,M,800.00,1400.00,2200.00,M,M,KFFT 010825Z AUTO 32008KT 9SM BKN008 BKN014 OVC022 A3002 RMK MADISHF
FFT,2017-04-01 08:26,-84.9033,38.1847,44.10,39.00,82.12,320.00,8.00,0.00,30.02,M,9.00,M,BKN,BKN,OVC,M,800.00,1400.00,2200.00,M,M,KFFT 010826Z AUTO 32008KT 9SM BKN008 BKN014 OVC022 07/04 A3002 RMK AO2 T00670039
FFT,2017-04-01 08:30,-84.9033,38.1847,M,M,M,320.00,10.00,M,30.02,M,8.00,M,BKN,OVC,M,M,800.00,1400.00,M,M,M,KFFT 010830Z AUTO 32010KT 8SM BKN008 OVC014 A3002 RMK CIG 7V12  MADISHF
FFT,2017-04-01 08:35,-84.9033,38.1847,M,M,M,310.00,8.00,M,30.03,M,7.00,M,BKN,OVC,M,M,900.00,1400.00,M,M,M,KFFT 010835Z AUTO 31008KT 7SM BKN009 OVC014 A3003 RMK CIG 7V12  MADISHF
FFT,2017-04-01 08:40,-84.9033,38.1847,M,M,M,310.00,7.00,M,30.03,M,6.00,M,OVC,M,M,M,900.00,M,M,M,BR,KFFT 010840Z AUTO 31007KT 6SM BR OVC009 A3003 RMK CIG 5V13  MADISHF
FFT,2017-04-01 08:45,-84.9033,38.1847,M,M,M,320.00,6.00,M,30.03,M,4.00,M,OVC,M,M,M,999.00,M,M,M,BR,KFFT 010845Z AUTO 32006KT 4SM BR OVC009 A3003 RMK CIG 5V13  MADISHF
FFT,2017-04-01 08:49,-84.9033,38.1847,42.80,39.20,86.99,320.00,6.00,0.00,30.03,M,4.00,M,OVC,M,M,M,1000.00,M,M,M,BR,KFFT 010849Z AUTO 32006KT 4SM BR OVC010 06/04 A3003 RMK AO2 CIG 005V013
FFT,2017-04-01 08:50,-84.9033,38.1847,M,M,M,310.00,5.00,M,30.03,M,4.00,M,OVC,M,M,M,999.00,M,M,M,BR,KFFT 010850Z AUTO 31005KT 4SM BR OVC009 A3003 RMK CIG 5V13  MADISHF
FFT,2017-04-01 08:53,-84.9033,38.1847,43.00,39.00,85.66,320.00,6.00,0.00,30.03,1017.00,5.00,M,BKN,OVC,M,M,700.00,1200.00,M,M,BR,KFFT 010853Z AUTO 32006KT 5SM BR BKN007 OVC012 06/04 A3003 RMK AO2 CIG 005V010 SLP170 T00610039 51009
FFT,2017-04-01 08:55,-84.9033,38.1847,M,M,M,300.00,4.00,M,30.03,M,5.00,M,BKN,OVC,M,M,700.00,1200.00,M,M,BR,KFFT 010855Z AUTO 30004KT 5SM BR BKN007 OVC012 A3003 RMK CIG 5V10  MADISHF
FFT,2017-04-01 09:00,-84.9033,38.1847,M,M,M,310.00,4.00,M,30.03,M,5.00,M,BKN,OVC,M,M,700.00,999.00,M,M,BR,KFFT 010900Z AUTO 31004KT 5SM BR BKN007 OVC009 A3003 RMK CIG 4V8  MADISHF
FFT,2017-04-01 09:05,-84.9033,38.1847,M,M,M,290.00,4.00,M,30.04,M,7.00,M,BKN,OVC,M,M,700.00,999.00,M,M,M,KFFT 010905Z AUTO 29004KT 7SM BKN007 OVC009 A3004 RMK CIG 4V9  MADISHF
FFT,2017-04-01 09:10,-84.9033,38.1847,M,M,M,300.00,4.00,M,30.04,M,10.00,M,OVC,M,M,M,600.00,M,M,M,M,KFFT 010910Z AUTO 30004KT 10SM OVC006 A3004 RMK CIG 4V11  MADISHF
FFT,2017-04-01 09:15,-84.9033,38.1847,M,M,M,290.00,4.00,M,30.04,M,10.00,M,BKN,OVC,M,M,600.00,1900.00,M,M,M,KFFT 010915Z AUTO 29004KT 10SM BKN006 OVC019 A3004 RMK CIG 4V11  MADISHF
FFT,2017-04-01 09:20,-84.9033,38.1847,M,M,M,300.00,4.00,M,30.04,M,10.00,M,BKN,OVC,M,M,600.00,1900.00,M,M,M,KFFT 010920Z AUTO 30004KT 10SM BKN006 OVC019 A3004 RMK CIG 4V11  MADISHF
FFT,2017-04-01 09:25,-84.9033,38.1847,M,M,M,290.00,3.00,M,30.04,M,9.00,M,BKN,OVC,M,M,700.00,1900.00,M,M,M,KFFT 010925Z AUTO 29003KT 9SM BKN007 OVC019 A3004 RMK CIG 4V11  MADISHF
FFT,2017-04-01 09:30,-84.9033,38.1847,M,M,M,300.00,3.00,M,30.04,M,9.00,M,BKN,OVC,M,M,700.00,1900.00,M,M,M,KFFT 010930Z AUTO 30003KT 9SM BKN007 OVC019 A3004 RMK MADISHF
FFT,2017-04-01 09:35,-84.9033,38.1847,M,M,M,300.00,4.00,M,30.04,M,10.00,M,BKN,OVC,M,M,700.00,1400.00,M,M,M,KFFT 010935Z AUTO 30004KT 10SM BKN007 OVC014 A3004 RMK CIG 5V9  MADISHF
FFT,2017-04-01 09:40,-84.9033,38.1847,M,M,M,300.00,6.00,M,30.05,M,10.00,M,BKN,OVC,M,M,700.00,1699.00,M,M,M,KFFT 010940Z AUTO 30006KT 10SM BKN007 OVC016 A3005 RMK CIG 5V9  MADISHF
FFT,2017-04-01 09:45,-84.9033,38.1847,M,M,M,300.00,6.00,M,30.05,M,10.00,M,SCT,OVC,M,M,700.00,1699.00,M,M,M,KFFT 010945Z AUTO 30006KT 10SM SCT007 OVC016 A3005 RMK MADISHF
FFT,2017-04-01 09:49,-84.9033,38.1847,42.80,37.40,81.07,300.00,6.00,0.00,30.05,M,10.00,M,SCT,OVC,M,M,700.00,1700.00,M,M,M,KFFT 010949Z AUTO 30006KT 10SM SCT007 OVC017 06/03 A3005 RMK AO2
FFT,2017-04-01 09:50,-84.9033,38.1847,M,M,M,300.00,6.00,M,30.05,M,10.00,M,SCT,OVC,M,M,700.00,1699.00,M,M,M,KFFT 010950Z AUTO 30006KT 10SM SCT007 OVC016 A3005 RMK MADISHF
FFT,2017-04-01 09:53,-84.9033,38.1847,43.00,37.90,82.04,M,4.00,0.00,30.05,1017.70,10.00,M,FEW,OVC,M,M,700.00,1700.00,M,M,M,KFFT 010953Z AUTO VRB04KT 10SM FEW007 OVC017 06/03 A3005 RMK AO2 SLP177 T00610033
FFT,2017-04-01 09:55,-84.9033,38.1847,M,M,M,300.00,4.00,M,30.05,M,10.00,M,FEW,OVC,M,M,700.00,1699.00,M,M,M,KFFT 010955Z AUTO 30004KT 10SM FEW007 OVC016 A3005 RMK MADISHF
FFT,2017-04-01 10:00,-84.9033,38.1847,M,M,M,290.00,5.00,M,30.06,M,10.00,M,FEW,OVC,M,M,700.00,1800.00,M,M,M,KFFT 011000Z AUTO 29005KT 10SM FEW007 OVC018 A3006 RMK MADISHF
FFT,2017-04-01 10:05,-84.9033,38.1847,M,M,M,290.00,4.00,M,30.06,M,10.00,M,OVC,M,M,M,1800.00,M,M,M,M,KFFT 011005Z AUTO 29004KT 10SM OVC018 A3006 RMK MADISHF
FFT,2017-04-01 10:10,-84.9033,38.1847,M,M,M,300.00,5.00,M,30.06,M,10.00,M,OVC,M,M,M,1999.00,M,M,M,M,KFFT 011010Z AUTO 30005KT 10SM OVC019 A3006 RMK MADISHF
FFT,2017-04-01 10:15,-84.9033,38.1847,M,M,M,290.00,4.00,M,30.06,M,10.00,M,OVC,M,M,M,1999.00,M,M,M,M,KFFT 011015Z AUTO 29004KT 10SM OVC019 A3006 RMK MADISHF
FFT,2017-04-01 10:20,-84.9033,38.1847,M,M,M,290.00,3.00,M,30.06,M,10.00,M,OVC,M,M,M,2200.00,M,M,M,M,KFFT 011020Z AUTO 29003KT 10SM OVC022 A3006 RMK MADISHF
FFT,2017-04-01 10:25,-84.9033,38.1847,M,M,M,300.00,4.00,M,30.06,M,10.00,M,OVC,M,M,M,2200.00,M,M,M,M,KFFT 011025Z AUTO 30004KT 10SM OVC022 A3006 RMK MADISHF
FFT,2017-04-01 10:30,-84.9033,38.1847,M,M,M,300.00,4.00,M,30.07,M,10.00,M,OVC,M,M,M,2200.00,M,M,M,M,KFFT 011030Z AUTO 30004KT 10SM OVC022 A3007 RMK MADISHF
FFT,2017-04-01 10:35,-84.9033,38.1847,M,M,M,300.00,3.00,M,30.07,M,10.00,M,OVC,M,M,M,2300.00,M,M,M,M,KFFT 011035Z AUTO 30003KT 10SM OVC023 A3007 RMK MADISHF
FFT,2017-04-01 10:40,-84.9033,38.1847,M,M,M,300.00,4.00,M,30.07,M,10.00,M,OVC,M,M,M,2300.00,M,M,M,M,KFFT 011040Z AUTO 30004KT 10SM OVC023 A3007 RMK MADISHF
FFT,2017-04-01 10:45,-84.9033,38.1847,M,M,M,290.00,4.00,M,30.08,M,10.00,M,OVC,M,M,M,2300.00,M,M,M,M,KFFT 011045Z AUTO 29004KT 10SM OVC023 A3008 RMK MADISHF
FFT,2017-04-01 10:50,-84.9033,38.1847,M,M,M,300.00,4.00,M,30.08,M,10.00,M,FEW,OVC,M,M,1100.00,2300.00,M,M,M,KFFT 011050Z AUTO 30004KT 10SM FEW011 OVC023 A3008 RMK MADISHF
FFT,2017-04-01 10:53,-84.9033,38.1847,43.00,37.90,82.04,M,4.00,0.00,30.08,1018.70,10.00,M,FEW,OVC,M,M,1100.00,2300.00,M,M,M,KFFT 011053Z AUTO VRB04KT 10SM FEW011 OVC023 06/03 A3008 RMK AO2 SLP187 T00610033
FFT,2017-04-01 10:55,-84.9033,38.1847,M,M,M,300.00,3.00,M,30.08,M,10.00,M,FEW,OVC,M,M,1100.00,2100.00,M,M,M,KFFT 011055Z AUTO 30003KT 10SM FEW011 OVC021 A3008 RMK MADISHF
FFT,2017-04-01 11:00,-84.9033,38.1847,M,M,M,310.00,3.00,M,30.08,M,10.00,M,OVC,M,M,M,2100.00,M,M,M,M,KFFT 011100Z AUTO 31003KT 10SM OVC021 A3008 RMK MADISHF
FFT,2017-04-01 11:05,-84.9033,38.1847,M,M,M,310.00,4.00,M,30.08,M,10.00,M,FEW,OVC,M,M,999.00,2100.00,M,M,M,KFFT 011105Z AUTO 31004KT 10SM FEW009 OVC021 A3008 RMK MADISHF
FFT,2017-04-01 11:10,-84.9033,38.1847,M,M,M,290.00,4.00,M,30.08,M,10.00,M,FEW,OVC,M,M,999.00,2100.00,M,M,M,KFFT 011110Z AUTO 29004KT 10SM FEW009 OVC021 A3008 RMK MADISHF
FFT,2017-04-01 11:15,-84.9033,38.1847,M,M,M,290.00,3.00,M,30.08,M,10.00,M,FEW,SCT,OVC,M,1100.00,1800.00,2400.00,M,M,KFFT 011115Z AUTO 29003KT 10SM FEW011 SCT018 OVC024 A3008 RMK MADISHF
FFT,2017-04-01 11:20,-84.9033,38.1847,M,M,M,300.00,3.00,M,30.09,M,10.00,M,FEW,OVC,M,M,1800.00,2400.00,M,M,M,KFFT 011120Z AUTO 30003KT 10SM FEW018 OVC024 A3009 RMK MADISHF
FFT,2017-04-01 11:25,-84.9033,38.1847,M,M,M,300.00,3.00,M,30.09,M,10.00,M,FEW,OVC,M,M,1800.00,2400.00,M,M,M,KFFT 011125Z AUTO 30003KT 10SM FEW018 OVC024 A3009 RMK MADISHF
FFT,2017-04-01 11:30,-84.9033,38.1847,M,M,M,310.00,3.00,M,30.09,M,10.00,M,FEW,OVC,M,M,1800.00,2400.00,M,M,M,KFFT 011130Z AUTO 31003KT 10SM FEW018 OVC024 A3009 RMK MADISHF
FFT,2017-04-01 11:35,-84.9033,38.1847,M,M,M,0.00,0.00,M,30.09,M,10.00,M,SCT,OVC,M,M,1800.00,2400.00,M,M,M,KFFT 011135Z AUTO 00000KT 10SM SCT018 OVC024 A3009 RMK MADISHF
FFT,2017-04-01 11:40,-84.9033,38.1847,M,M,M,300.00,3.00,M,30.10,M,10.00,M,SCT,OVC,M,M,1600.00,2500.00,M,M,M,KFFT 011140Z AUTO 30003KT 10SM SCT016 OVC025 A3010 RMK MADISHF
FFT,2017-04-01 11:45,-84.9033,38.1847,M,M,M,300.00,4.00,M,30.10,M,9.00,M,FEW,BKN,OVC,M,999.00,1600.00,2500.00,M,M,KFFT 011145Z AUTO 30004KT 9SM FEW009 BKN016 OVC025 A3010 RMK MADISHF
FFT,2017-04-01 11:50,-84.9033,38.1847,M,M,M,290.00,3.00,M,30.10,M,9.00,M,FEW,BKN,OVC,M,999.00,1600.00,2500.00,M,M,KFFT 011150Z AUTO 29003KT 9SM FEW009 BKN016 OVC025 A3010 RMK MADISHF
FFT,2017-04-01 11:53,-84.9033,38.1847,43.00,37.90,82.04,300.00,4.00,0.00,30.11,1019.60,9.00,M,SCT,BKN,OVC,M,1000.00,1600.00,2500.00,M,M,KFFT 011153Z AUTO 30004KT 9SM SCT010 BKN016 OVC025 06/03 A3011 RMK AO2 SLP196 70001 T00610033 10078 20061 53019
FFT,2017-04-01 11:55,-84.9033,38.1847,M,M,M,300.00,4.00,M,30.11,M,9.00,M,OVC,M,M,M,1300.00,M,M,M,M,KFFT 011155Z AUTO 30004KT 9SM OVC013 A3011 RMK MADISHF
FFT,2017-04-01 12:00,-84.9033,38.1847,43.00,37.90,82.04,300.00,5.00,0.00,30.11,M,8.00,M,BKN,OVC,M,M,1300.00,1700.00,M,M,M,KFFT 011200Z AUTO 30005KT 8SM BKN013 OVC017 06/03 A3011 RMK AO2 T00610033
FFT,2017-04-01 12:05,-84.9033,38.1847,M,M,M,310.00,4.00,M,30.12,M,7.00,M,BKN,OVC,M,M,999.00,1500.00,M,M,M,KFFT 011205Z AUTO 31004KT 7SM BKN009 OVC015 A3012 RMK CIG 6V13  MADISHF
FFT,2017-04-01 12:10,-84.9033,38.1847,M,M,M,320.00,4.00,M,30.12,M,5.00,M,BKN,OVC,M,M,800.00,1300.00,M,M,HZ,KFFT 011210Z AUTO 32004KT 5SM HZ BKN008 OVC013 A3012 RMK CIG 6V10  MADISHF
FFT,2017-04-01 12:15,-84.9033,38.1847,M,M,M,320.00,6.00,M,30.12,M,5.00,M,BKN,OVC,M,M,800.00,1300.00,M,M,HZ,KFFT 011215Z AUTO 32006KT 5SM HZ BKN008 OVC013 A3012 RMK CIG 6V10  MADISHF
FFT,2017-04-01 12:20,-84.9033,38.1847,M,M,M,320.00,6.00,M,30.13,M,5.00,M,OVC,M,M,M,999.00,M,M,M,HZ,KFFT 011220Z AUTO 32006KT 5SM HZ OVC009 A3013 RMK CIG 6V13  MADISHF
FFT,2017-04-01 12:25,-84.9033,38.1847,M,M,M,330.00,5.00,M,30.13,M,4.00,M,OVC,M,M,M,800.00,M,M,M,HZ,KFFT 011225Z AUTO 33005KT 4SM HZ OVC008 A3013 RMK CIG 6V11  MADISHF
FFT,2017-04-01 12:30,-84.9033,38.1847,M,M,M,330.00,5.00,M,30.13,M,4.00,M,OVC,M,M,M,800.00,M,M,M,BR,KFFT 011230Z AUTO 33005KT 4SM BR OVC008 A3013 RMK CIG 6V11  MADISHF
FFT,2017-04-01 12:31,-84.9033,38.1847,43.00,39.00,85.66,330.00,5.00,0.00,30.13,M,4.00,M,OVC,M,M,M,800.00,M,M,M,BR,KFFT 011231Z AUTO 33005KT 4SM BR OVC008 06/04 A3013 RMK AO2 CIG 006V011 T00610039
FFT,2017-04-01 12:35,-84.9033,38.1847,M,M,M,330.00,3.00,M,30.13,M,3.50,M,OVC,M,M,M,800.00,M,M,M,BR,KFFT 011235Z AUTO 33003KT 3SM BR OVC008 A3013 RMK CIG 6V11  MADISHF
FFT,2017-04-01 12:40,-84.9033,38.1847,M,M,M,330.00,4.00,M,30.14,M,3.00,M,OVC,M,M,M,800.00,M,M,M,BR,KFFT 011240Z AUTO 33004KT 3SM BR OVC008 A3014 RMK CIG 6V11  MADISHF
FFT,2017-04-01 12:45,-84.9033,38.1847,M,M,M,330.00,4.00,M,30.14,M,4.00,M,OVC,M,M,M,800.00,M,M,M,HZ,KFFT 011245Z AUTO 33004KT 4SM HZ OVC008 A3014 RMK CIG 6V11  MADISHF
FFT,2017-04-01 12:50,-84.9033,38.1847,M,M,M,310.00,4.00,M,30.14,M,5.00,M,BKN,OVC,M,M,800.00,1200.00,M,M,HZ,KFFT 011250Z AUTO 31004KT 5SM HZ BKN008 OVC012 A3014 RMK CIG 6V11  MADISHF
FFT,2017-04-01 12:53,-84.9033,38.1847,42.10,37.90,84.93,310.00,4.00,0.00,30.14,1020.90,7.00,M,BKN,OVC,M,M,800.00,1200.00,M,M,M,KFFT 011253Z AUTO 31004KT 7SM BKN008 OVC012 06/03 A3014 RMK AO2 CIG 006V011 SLP209 T00560033
FFT,2017-04-01 12:55,-84.9033,38.1847,M,M,M,310.00,4.00,M,30.14,M,8.00,M,BKN,OVC,M,M,800.00,1200.00,M,M,M,KFFT 011255Z AUTO 31004KT 8SM BKN008 OVC012 A3014 RMK VRB04KT CIG 6V11  MADISHF
FFT,2017-04-01 13:00,-84.9033,38.1847,M,M,M,310.00,5.00,M,30.14,M,9.00,M,SCT,OVC,M,M,800.00,1300.00,M,M,M,KFFT 011300Z AUTO 31005KT 9SM SCT008 OVC013 A3014 RMK MADISHF
FFT,2017-04-01 13:05,-84.9033,38.1847,M,M,M,320.00,5.00,M,30.15,M,10.00,M,OVC,M,M,M,1300.00,M,M,M,M,KFFT 011305Z AUTO 32005KT 10SM OVC013 A3015 RMK MADISHF
FFT,2017-04-01 13:06,-84.9033,38.1847,43.00,37.90,82.04,320.00,4.00,0.00,30.15,M,10.00,M,OVC,M,M,M,1300.00,M,M,M,M,KFFT 011306Z AUTO 32004KT 10SM OVC013 06/03 A3015 RMK AO2 T00610033
FFT,2017-04-01 13:10,-84.9033,38.1847,M,M,M,300.00,4.00,M,30.14,M,10.00,M,OVC,M,M,M,1300.00,M,M,M,M,KFFT 011310Z AUTO 30004KT 10SM OVC013 A3014 RMK MADISHF
FFT,2017-04-01 13:15,-84.9033,38.1847,M,M,M,0.00,0.00,M,30.14,M,10.00,M,OVC,M,M,M,1200.00,M,M,M,M,KFFT 011315Z AUTO 00000KT 10SM OVC012 A3014 RMK MADISHF
FFT,2017-04-01 13:20,-84.9033,38.1847,M,M,M,310.00,4.00,M,30.15,M,10.00,M,OVC,M,M,M,1200.00,M,M,M,M,KFFT 011320Z AUTO 31004KT 10SM OVC012 A3015 RMK MADISHF
FFT,2017-04-01 13:25,-84.9033,38.1847,M,M,M,290.00,4.00,M,30.15,M,10.00,M,OVC,M,M,M,1200.00,M,M,M,M,KFFT 011325Z AUTO 29004KT 10SM OVC012 A3015 RMK VRB04KT  MADISHF
FFT,2017-04-01 13:30,-84.9033,38.1847,M,M,M,300.00,3.00,M,30.15,M,10.00,M,OVC,M,M,M,1200.00,M,M,M,M,KFFT 011330Z AUTO 30003KT 10SM OVC012 A3015 RMK MADISHF
FFT,2017-04-01 13:35,-84.9033,38.1847,M,M,M,320.00,6.00,M,30.15,M,10.00,M,OVC,M,M,M,1200.00,M,M,M,M,KFFT 011335Z AUTO 32006KT 10SM OVC012 A3015 RMK MADISHF
FFT,2017-04-01 13:40,-84.9033,38.1847,M,M,M,330.00,8.00,M,30.15,M,10.00,M,OVC,M,M,M,999.00,M,M,M,M,KFFT 011340Z AUTO 33008KT 10SM OVC009 A3015 RMK CIG 8V13  MADISHF
FFT,2017-04-01 13:45,-84.9033,38.1847,M,M,M,320.00,5.00,M,30.15,M,10.00,M,OVC,M,M,M,999.00,M,M,M,M,KFFT 011345Z AUTO 32005KT 10SM OVC009 A3015 RMK CIG 8V13  MADISHF
FFT,2017-04-01 13:50,-84.9033,38.1847,M,M,M,300.00,6.00,M,30.15,M,10.00,M,OVC,M,M,M,999.00,M,M,M,M,KFFT 011350Z AUTO 30006KT 10SM OVC009 A3015 RMK MADISHF
FFT,2017-04-01 13:53,-84.9033,38.1847,43.00,37.00,79.19,M,5.00,0.00,30.15,1021.20,10.00,M,OVC,M,M,M,1000.00,M,M,M,M,KFFT 011353Z AUTO VRB05KT 10SM OVC010 06/03 A3015 RMK AO2 CIG 008V014 SLP212 T00610028
FFT,2017-04-01 13:55,-84.9033,38.1847,M,M,M,310.00,5.00,M,30.15,M,10.00,M,OVC,M,M,M,999.00,M,M,M,M,KFFT 011355Z AUTO 31005KT 10SM OVC009 A3015 RMK MADISHF
FFT,2017-04-01 14:00,-84.9033,38.1847,M,M,M,300.00,5.00,M,30.15,M,10.00,M,BKN,OVC,M,M,999.00,1800.00,M,M,M,KFFT 011400Z AUTO 30005KT 10SM BKN009 OVC018 A3015 RMK MADISHF
FFT,2017-04-01 14:05,-84.9033,38.1847,M,M,M,300.00,4.00,M,30.15,M,10.00,M,BKN,BKN,OVC,M,1100.00,1800.00,3200.00,M,M,KFFT 011405Z AUTO 30004KT 10SM BKN011 BKN018 OVC032 A3015 RMK MADISHF
FFT,2017-04-01 14:10,-84.9033,38.1847,M,M,M,290.00,5.00,M,30.15,M,10.00,M,BKN,OVC,M,M,1100.00,3200.00,M,M,M,KFFT 011410Z AUTO 29005KT 10SM BKN011 OVC032 A3015 RMK MADISHF
FFT,2017-04-01 14:15,-84.9033,38.1847,M,M,M,280.00,4.00,M,30.16,M,10.00,M,BKN,OVC,M,M,1300.00,3200.00,M,M,M,KFFT 011415Z AUTO 28004KT 10SM BKN013 OVC032 A3016 RMK MADISHF
FFT,2017-04-01 14:20,-84.9033,38.1847,M,M,M,320.00,4.00,M,30.16,M,10.00,M,BKN,OVC,M,M,1300.00,3200.00,M,M,M,KFFT 011420Z AUTO 32004KT 10SM BKN013 OVC032 A3016 RMK MADISHF
FFT,2017-04-01 14:25,-84.9033,38.1847,M,M,M,300.00,3.00,M,30.15,M,10.00,M,BKN,BKN,OVC,M,1300.00,1699.00,3200.00,M,M,KFFT 011425Z AUTO 30003KT 10SM BKN013 BKN016 OVC032 A3015 RMK MADISHF
FFT,2017-04-01 14:30,-84.9033,38.1847,M,M,M,320.00,3.00,M,30.16,M,10.00,M,BKN,OVC,M,M,1300.00,3200.00,M,M,M,KFFT 011430Z AUTO 32003KT 10SM BKN013 OVC032 A3016 RMK MADISHF
FFT,2017-04-01 14:35,-84.9033,38.1847,M,M,M,310.00,6.00,M,30.16,M,10.00,M,OVC,M,M,M,1200.00,M,M,M,M,KFFT 011435Z AUTO 31006KT 10SM OVC012 A3016 RMK MADISHF
FFT,2017-04-01 14:40,-84.9033,38.1847,M,M,M,320.00,5.00,M,30.16,M,10.00,M,OVC,M,M,M,1200.00,M,M,M,M,KFFT 011440Z AUTO 32005KT 10SM OVC012 A3016 RMK MADISHF
FFT,2017-04-01 14:45,-84.9033,38.1847,M,M,M,320.00,4.00,M,30.16,M,10.00,M,OVC,M,M,M,1200.00,M,M,M,M,KFFT 011445Z AUTO 32004KT 10SM OVC012 A3016 RMK MADISHF
FFT,2017-04-01 14:50,-84.9033,38.1847,M,M,M,350.00,4.00,M,30.17,M,10.00,M,OVC,M,M,M,1400.00,M,M,M,M,KFFT 011450Z AUTO 35004KT 10SM OVC014 A3017 RMK MADISHF
FFT,2017-04-01 14:53,-84.9033,38.1847,45.00,37.00,73.37,0.00,0.00,0.00,30.17,1021.70,10.00,M,OVC,M,M,M,1400.00,M,M,M,M,KFFT 011453Z AUTO 00000KT 10SM OVC014 07/03 A3017 RMK AO2 SLP217 T00720028 51020
FFT,2017-04-01 14:55,-84.9033,38.1847,M,M,M,330.00,3.00,M,30.17,M,10.00,M,OVC,M,M,M,1400.00,M,M,M,M,KFFT 011455Z AUTO 33003KT 10SM OVC014 A3017 RMK MADISHF
FFT,2017-04-01 15:00,-84.9033,38.1847,M,M,M,340.00,3.00,M,30.17,M,10.00,M,OVC,M,M,M,1400.00,M,M,M,M,KFFT 011500Z AUTO 34003KT 10SM OVC014 A3017 RMK MADISHF
FFT,2017-04-01 15:05,-84.9033,38.1847,M,M,M,320.00,5.00,M,30.17,M,10.00,M,OVC,M,M,M,1400.00,M,M,M,M,KFFT 011505Z AUTO 32005KT 10SM OVC014 A3017 RMK MADISHF
FFT,2017-04-01 15:10,-84.9033,38.1847,M,M,M,310.00,4.00,M,30.17,M,10.00,M,OVC,M,M,M,1400.00,M,M,M,M,KFFT 011510Z AUTO 31004KT 10SM OVC014 A3017 RMK MADISHF
FFT,2017-04-01 15:15,-84.9033,38.1847,M,M,M,290.00,4.00,M,30.17,M,10.00,M,OVC,M,M,M,1500.00,M,M,M,M,KFFT 011515Z AUTO 29004KT 10SM OVC015 A3017 RMK MADISHF
FFT,2017-04-01 15:19,-84.9033,38.1847,46.00,37.00,70.64,350.00,4.00,0.00,30.17,M,10.00,M,OVC,M,M,M,1500.00,M,M,M,M,KFFT 011519Z AUTO 35004KT 10SM OVC015 08/03 A3017 RMK AO2 T00780028
FFT,2017-04-01 15:20,-84.9033,38.1847,M,M,M,340.00,4.00,M,30.17,M,10.00,M,OVC,M,M,M,1500.00,M,M,M,M,KFFT 011520Z AUTO 34004KT 10SM OVC015 A3017 RMK MADISHF
FFT,2017-04-01 15:25,-84.9033,38.1847,M,M,M,320.00,5.00,M,30.18,M,10.00,M,OVC,M,M,M,1500.00,M,M,M,M,KFFT 011525Z AUTO 32005KT 10SM OVC015 A3018 RMK MADISHF
FFT,2017-04-01 15:30,-84.9033,38.1847,M,M,M,330.00,3.00,M,30.18,M,10.00,M,OVC,M,M,M,1500.00,M,M,M,M,KFFT 011530Z AUTO 33003KT 10SM OVC015 A3018 RMK MADISHF
FFT,2017-04-01 15:35,-84.9033,38.1847,M,M,M,310.00,5.00,M,30.18,M,10.00,M,OVC,M,M,M,1500.00,M,M,M,M,KFFT 011535Z AUTO 31005KT 10SM OVC015 A3018 RMK MADISHF
FFT,2017-04-01 15:40,-84.9033,38.1847,M,M,M,290.00,4.00,M,30.18,M,10.00,M,OVC,M,M,M,1600.00,M,M,M,M,KFFT 011540Z AUTO 29004KT 10SM OVC016 A3018 RMK VRB04KT  MADISHF
FFT,2017-04-01 15:45,-84.9033,38.1847,M,M,M,320.00,6.00,M,30.18,M,10.00,M,OVC,M,M,M,1600.00,M,M,M,M,KFFT 011545Z AUTO 32006KT 10SM OVC016 A3018 RMK MADISHF
FFT,2017-04-01 15:50,-84.9033,38.1847,M,M,M,320.00,4.00,M,30.18,M,10.00,M,OVC,M,M,M,1600.00,M,M,M,M,KFFT 011550Z AUTO 32004KT 10SM OVC016 A3018 RMK MADISHF
FFT,2017-04-01 15:53,-84.9033,38.1847,46.00,37.00,70.64,290.00,5.00,0.00,30.18,1022.30,10.00,M,OVC,M,M,M,1600.00,M,M,M,M,KFFT 011553Z AUTO 29005KT 10SM OVC016 08/03 A3018 RMK AO2 SLP223 T00780028
FFT,2017-04-01 15:55,-84.9033,38.1847,M,M,M,270.00,4.00,M,30.19,M,10.00,M,OVC,M,M,M,1600.00,M,M,M,M,KFFT 011555Z AUTO 27004KT 10SM OVC016 A3019 RMK MADISHF
FFT,2017-04-01 16:00,-84.9033,38.1847,M,M,M,280.00,6.00,M,30.19,M,10.00,M,OVC,M,M,M,1699.00,M,M,M,M,KFFT 011600Z AUTO 28006KT 10SM OVC016 A3019 RMK MADISHF
FFT,2017-04-01 16:05,-84.9033,38.1847,M,M,M,290.00,5.00,M,30.19,M,10.00,M,OVC,M,M,M,1699.00,M,M,M,M,KFFT 011605Z AUTO 29005KT 10SM OVC016 A3019 RMK MADISHF
FFT,2017-04-01 16:10,-84.9033,38.1847,M,M,M,310.00,8.00,M,30.19,M,10.00,M,OVC,M,M,M,1699.00,M,M,M,M,KFFT 011610Z AUTO 31008KT 10SM OVC016 A3019 RMK MADISHF
FFT,2017-04-01 16:15,-84.9033,38.1847,M,M,M,290.00,5.00,M,30.18,M,10.00,M,OVC,M,M,M,1600.00,M,M,M,M,KFFT 011615Z AUTO 29005KT 10SM OVC016 A3018 RMK MADISHF
FFT,2017-04-01 16:20,-84.9033,38.1847,M,M,M,310.00,4.00,M,30.18,M,10.00,M,OVC,M,M,M,1600.00,M,M,M,M,KFFT 011620Z AUTO 31004KT 10SM OVC016 A3018 RMK VRB04KT  MADISHF
FFT,2017-04-01 16:25,-84.9033,38.1847,M,M,M,310.00,5.00,M,30.18,M,10.00,M,OVC,M,M,M,1600.00,M,M,M,M,KFFT 011625Z AUTO 31005KT 10SM OVC016 A3018 RMK MADISHF
FFT,2017-04-01 16:30,-84.9033,38.1847,M,M,M,310.00,7.00,M,30.18,M,10.00,M,OVC,M,M,M,1600.00,M,M,M,M,KFFT 011630Z AUTO 31007KT 10SM OVC016 A3018 RMK MADISHF
FFT,2017-04-01 16:35,-84.9033,38.1847,M,M,M,320.00,4.00,M,30.18,M,10.00,M,OVC,M,M,M,1600.00,M,M,M,M,KFFT 011635Z AUTO 32004KT 10SM OVC016 A3018 RMK MADISHF
FFT,2017-04-01 16:40,-84.9033,38.1847,M,M,M,320.00,6.00,M,30.18,M,10.00,M,OVC,M,M,M,1600.00,M,M,M,M,KFFT 011640Z AUTO 32006KT 10SM OVC016 A3018 RMK MADISHF
FFT,2017-04-01 16:45,-84.9033,38.1847,M,M,M,310.00,7.00,M,30.18,M,10.00,M,OVC,M,M,M,1600.00,M,M,M,M,KFFT 011645Z AUTO 31007KT 10SM OVC016 A3018 RMK MADISHF
FFT,2017-04-01 16:50,-84.9033,38.1847,M,M,M,320.00,6.00,M,30.18,M,10.00,M,OVC,M,M,M,1600.00,M,M,M,M,KFFT 011650Z AUTO 32006KT 10SM OVC016 A3018 RMK MADISHF
FFT,2017-04-01 16:53,-84.9033,38.1847,46.90,37.90,70.73,330.00,7.00,0.00,30.18,1022.20,10.00,M,OVC,M,M,M,1600.00,M,M,M,M,KFFT 011653Z AUTO 33007KT 10SM OVC016 08/03 A3018 RMK AO2 SLP222 T00830033
FFT,2017-04-01 16:55,-84.9033,38.1847,M,M,M,320.00,6.00,M,30.18,M,10.00,M,OVC,M,M,M,1600.00,M,M,M,M,KFFT 011655Z AUTO 32006KT 10SM OVC016 A3018 RMK MADISHF
FFT,2017-04-01 17:00,-84.9033,38.1847,M,M,M,340.00,6.00,M,30.18,M,10.00,M,OVC,M,M,M,1600.00,M,M,M,M,KFFT 011700Z AUTO 34006KT 10SM OVC016 A3018 RMK MADISHF
FFT,2017-04-01 17:05,-84.9033,38.1847,M,M,M,330.00,8.00,M,30.18,M,10.00,M,OVC,M,M,M,1600.00,M,M,M,M,KFFT 011705Z AUTO 33008KT 10SM OVC016 A3018 RMK MADISHF
FFT,2017-04-01 17:10,-84.9033,38.1847,M,M,M,340.00,7.00,M,30.18,M,10.00,M,OVC,M,M,M,1800.00,M,M,M,M,KFFT 011710Z AUTO 34007KT 10SM OVC018 A3018 RMK MADISHF
FFT,2017-04-01 17:15,-84.9033,38.1847,M,M,M,340.00,5.00,M,30.17,M,10.00,M,OVC,M,M,M,1800.00,M,M,M,M,KFFT 011715Z AUTO 34005KT 10SM OVC018 A3017 RMK MADISHF
FFT,2017-04-01 17:20,-84.9033,38.1847,M,M,M,320.00,4.00,M,30.17,M,10.00,M,OVC,M,M,M,1800.00,M,M,M,M,KFFT 011720Z AUTO 32004KT 10SM OVC018 A3017 RMK MADISHF
FFT,2017-04-01 17:25,-84.9033,38.1847,M,M,M,330.00,5.00,M,30.17,M,10.00,M,OVC,M,M,M,1800.00,M,M,M,M,KFFT 011725Z AUTO 33005KT 10SM OVC018 A3017 RMK MADISHF
FFT,2017-04-01 17:30,-84.9033,38.1847,M,M,M,320.00,6.00,M,30.17,M,10.00,M,OVC,M,M,M,1800.00,M,M,M,M,KFFT 011730Z AUTO 32006KT 10SM OVC018 A3017 RMK MADISHF
FFT,2017-04-01 17:35,-84.9033,38.1847,M,M,M,310.00,5.00,M,30.17,M,10.00,M,OVC,M,M,M,1900.00,M,M,M,M,KFFT 011735Z AUTO 31005KT 10SM OVC019 A3017 RMK MADISHF
FFT,2017-04-01 17:40,-84.9033,38.1847,M,M,M,300.00,7.00,M,30.17,M,10.00,M,OVC,M,M,M,1900.00,M,M,M,M,KFFT 011740Z AUTO 30007KT 10SM OVC019 A3017 RMK MADISHF
FFT,2017-04-01 17:45,-84.9033,38.1847,M,M,M,300.00,6.00,M,30.17,M,10.00,M,OVC,M,M,M,1900.00,M,M,M,M,KFFT 011745Z AUTO 30006KT 10SM OVC019 A3017 RMK MADISHF
FFT,2017-04-01 17:50,-84.9033,38.1847,M,M,M,310.00,8.00,M,30.17,M,10.00,M,OVC,M,M,M,1800.00,M,M,M,M,KFFT 011750Z AUTO 31008KT 10SM OVC018 A3017 RMK MADISHF
FFT,2017-04-01 17:53,-84.9033,38.1847,46.90,37.00,68.27,330.00,7.00,0.00,30.17,1021.70,10.00,M,OVC,M,M,M,1800.00,M,M,M,M,KFFT 011753Z AUTO 33007KT 300V360 10SM OVC018 08/03 A3017 RMK AO2 SLP217 T00830028 10089 20056 58000
FFT,2017-04-01 17:55,-84.9033,38.1847,M,M,M,320.00,8.00,M,30.17,M,10.00,M,OVC,M,M,M,1800.00,M,M,M,M,KFFT 011755Z AUTO 32008KT 10SM OVC018 A3017 RMK MADISHF
FFT,2017-04-01 18:00,-84.9033,38.1847,M,M,M,320.00,6.00,M,30.17,M,10.00,M,OVC,M,M,M,1800.00,M,M,M,M,KFFT 011800Z AUTO 32006KT 10SM OVC018 A3017 RMK MADISHF
FFT,2017-04-01 18:05,-84.9033,38.1847,M,M,M,320.00,6.00,M,30.17,M,10.00,M,OVC,M,M,M,1800.00,M,M,M,M,KFFT 011805Z AUTO 32006KT 10SM OVC018 A3017 RMK MADISHF
FFT,2017-04-01 18:10,-84.9033,38.1847,M,M,M,320.00,3.00,M,30.17,M,10.00,M,OVC,M,M,M,1800.00,M,M,M,M,KFFT 011810Z AUTO 32003KT 10SM OVC018 A3017 RMK MADISHF
FFT,2017-04-01 18:15,-84.9033,38.1847,M,M,M,340.00,6.00,M,30.17,M,10.00,M,OVC,M,M,M,1800.00,M,M,M,M,KFFT 011815Z AUTO 34006KT 10SM OVC018 A3017 RMK MADISHF
FFT,2017-04-01 18:20,-84.9033,38.1847,M,M,M,330.00,6.00,M,30.17,M,10.00,M,OVC,M,M,M,1800.00,M,M,M,M,KFFT 011820Z AUTO 33006KT 10SM OVC018 A3017 RMK MADISHF
FFT,2017-04-01 18:25,-84.9033,38.1847,M,M,M,340.00,5.00,M,30.17,M,10.00,M,OVC,M,M,M,1800.00,M,M,M,M,KFFT 011825Z AUTO 34005KT 10SM OVC018 A3017 RMK MADISHF
FFT,2017-04-01 18:30,-84.9033,38.1847,M,M,M,0.00,0.00,M,30.17,M,10.00,M,OVC,M,M,M,1900.00,M,M,M,M,KFFT 011830Z AUTO 00000KT 10SM OVC019 A3017 RMK MADISHF
FFT,2017-04-01 18:35,-84.9033,38.1847,M,M,M,340.00,8.00,M,30.17,M,10.00,M,OVC,M,M,M,1900.00,M,M,M,M,KFFT 011835Z AUTO 34008KT 10SM OVC019 A3017 RMK MADISHF
FFT,2017-04-01 18:40,-84.9033,38.1847,M,M,M,340.00,7.00,M,30.17,M,10.00,M,OVC,M,M,M,1900.00,M,M,M,M,KFFT 011840Z AUTO 34007KT 10SM OVC019 A3017 RMK MADISHF
FFT,2017-04-01 18:45,-84.9033,38.1847,M,M,M,360.00,6.00,M,30.17,M,10.00,M,OVC,M,M,M,1900.00,M,M,M,M,KFFT 011845Z AUTO 36006KT 10SM OVC019 A3017 RMK MADISHF
FFT,2017-04-01 18:50,-84.9033,38.1847,M,M,M,350.00,6.00,M,30.17,M,10.00,M,OVC,M,M,M,1900.00,M,M,M,M,KFFT 011850Z AUTO 35006KT 10SM OVC019 A3017 RMK MADISHF
FFT,2017-04-01 18:53,-84.9033,38.1847,48.00,37.00,65.51,340.00,6.00,0.00,30.17,1021.70,10.00,M,OVC,M,M,M,1900.00,M,M,M,M,KFFT 011853Z AUTO 34006KT 10SM OVC019 09/03 A3017 RMK AO2 SLP217 T00890028
FFT,2017-04-01 18:55,-84.9033,38.1847,M,M,M,350.00,5.00,M,30.17,M,10.00,M,OVC,M,M,M,1900.00,M,M,M,M,KFFT 011855Z AUTO 35005KT 10SM OVC019 A3017 RMK MADISHF
FFT,2017-04-01 19:00,-84.9033,38.1847,M,M,M,350.00,5.00,M,30.17,M,10.00,M,OVC,M,M,M,1900.00,M,M,M,M,KFFT 011900Z AUTO 35005KT 10SM OVC019 A3017 RMK MADISHF
FFT,2017-04-01 19:05,-84.9033,38.1847,M,M,M,300.00,5.00,M,30.17,M,10.00,M,OVC,M,M,M,1800.00,M,M,M,M,KFFT 011905Z AUTO 30005KT 10SM OVC018 A3017 RMK MADISHF
FFT,2017-04-01 19:10,-84.9033,38.1847,M,M,M,M,M,M,30.17,M,M,M,M,M,M,M,M,M,M,M,M,KFFT 011910Z AUTO /////KT A3017 RMK MADISHF
FFT,2017-04-01 19:13,-84.9033,38.1847,48.00,37.00,65.51,M,M,0.00,30.17,M,M,M,M,M,M,M,M,M,M,M,M,KFFT 011913Z AUTO 09/03 A3017 RMK AO2 T00890028 PWINO $
FFT,2017-04-01 19:15,-84.9033,38.1847,M,M,M,M,M,M,30.17,M,M,M,M,M,M,M,M,M,M,M,M,KFFT 011915Z AUTO /////KT A3017 RMK MADISHF
FFT,2017-04-01 19:20,-84.9033,38.1847,M,M,M,M,M,M,30.17,M,M,M,M,M,M,M,M,M,M,M,M,KFFT 011920Z AUTO /////KT A3017 RMK MADISHF
FFT,2017-04-01 19:25,-84.9033,38.1847,M,M,M,M,M,M,30.17,M,M,M,M,M,M,M,M,M,M,M,M,KFFT 011925Z AUTO /////KT A3017 RMK MADISHF
FFT,2017-04-01 19:30,-84.9033,38.1847,M,M,M,M,M,M,30.17,M,M,M,M,M,M,M,M,M,M,M,M,KFFT 011930Z AUTO /////KT A3017 RMK MADISHF
FFT,2017-04-01 19:35,-84.9033,38.1847,M,M,M,330.00,5.00,M,30.17,M,M,M,M,M,M,M,M,M,M,M,M,KFFT 011935Z AUTO 33005KT A3017 RMK MADISHF
FFT,2017-04-01 19:40,-84.9033,38.1847,M,M,M,310.00,5.00,M,30.17,M,10.00,M,M,M,M,M,M,M,M,M,M,KFFT 011940Z AUTO 31005KT 10SM A3017 RMK MADISHF
FFT,2017-04-01 19:45,-84.9033,38.1847,M,M,M,M,M,M,30.17,M,M,M,M,M,M,M,M,M,M,M,M,KFFT 011945Z AUTO /////KT A3017 RMK MADISHF
FFT,2017-04-01 19:50,-84.9033,38.1847,M,M,M,340.00,5.00,M,30.17,M,M,M,M,M,M,M,M,M,M,M,M,KFFT 011950Z AUTO 34005KT A3017 RMK MADISHF
FFT,2017-04-01 19:53,-84.9033,38.1847,48.00,37.00,65.51,340.00,4.00,0.00,30.17,1022.00,10.00,M,M,M,M,M,M,M,M,M,M,KFFT 011953Z AUTO 34004KT 10SM 09/03 A3017 RMK AO2 SLP220 T00890028 $
FFT,2017-04-01 19:55,-84.9033,38.1847,M,M,M,320.00,6.00,M,30.17,M,10.00,M,M,M,M,M,M,M,M,M,M,KFFT 011955Z AUTO 32006KT 10SM A3017 RMK MADISHF
FFT,2017-04-01 20:00,-84.9033,38.1847,M,M,M,M,M,M,30.17,M,10.00,M,M,M,M,M,M,M,M,M,M,KFFT 012000Z AUTO /////KT 10SM A3017 RMK MADISHF
FFT,2017-04-01 20:05,-84.9033,38.1847,M,M,M,M,M,M,30.17,M,M,M,M,M,M,M,M,M,M,M,M,KFFT 012005Z AUTO /////KT A3017 RMK MADISHF
FFT,2017-04-01 20:10,-84.9033,38.1847,M,M,M,M,M,M,30.17,M,M,M,M,M,M,M,M,M,M,M,M,KFFT 012010Z AUTO /////KT A3017 RMK MADISHF
FFT,2017-04-01 20:15,-84.9033,38.1847,M,M,M,M,M,M,30.18,M,M,M,M,M,M,M,M,M,M,M,M,KFFT 012015Z AUTO /////KT A3018 RMK MADISHF
FFT,2017-04-01 20:20,-84.9033,38.1847,M,M,M,M,M,M,30.18,M,M,M,M,M,M,M,M,M,M,M,M,KFFT 012020Z AUTO /////KT A3018 RMK MADISHF
FFT,2017-04-01 20:25,-84.9033,38.1847,M,M,M,M,M,M,30.18,M,M,M,M,M,M,M,M,M,M,M,M,KFFT 012025Z AUTO /////KT A3018 RMK MADISHF
FFT,2017-04-01 20:35,-84.9033,38.1847,M,M,M,M,M,M,30.19,M,M,M,M,M,M,M,M,M,M,M,M,KFFT 012035Z AUTO /////KT A3019 RMK MADISHF
FFT,2017-04-01 20:40,-84.9033,38.1847,M,M,M,M,M,M,30.19,M,M,M,M,M,M,M,M,M,M,M,M,KFFT 012040Z AUTO /////KT A3019 RMK MADISHF
FFT,2017-04-01 20:45,-84.9033,38.1847,M,M,M,M,M,M,30.19,M,M,M,M,M,M,M,M,M,M,M,M,KFFT 012045Z AUTO /////KT A3019 RMK MADISHF
FFT,2017-04-01 20:50,-84.9033,38.1847,M,M,M,M,M,M,30.19,M,M,M,M,M,M,M,M,M,M,M,M,KFFT 012050Z AUTO /////KT A3019 RMK MADISHF
FFT,2017-04-01 20:53,-84.9033,38.1847,M,M,M,M,M,0.00,30.19,M,M,M,M,M,M,M,M,M,M,M,M,KFFT 012053Z AUTO A3019 RMK AO2 SLPNO 53009 PWINO FZRANO $
FFT,2017-04-01 20:55,-84.9033,38.1847,M,M,M,M,M,M,30.19,M,M,M,M,M,M,M,M,M,M,M,M,KFFT 012055Z AUTO /////KT A3019 RMK MADISHF
FFT,2017-04-01 21:00,-84.9033,38.1847,M,M,M,M,M,M,30.19,M,M,M,M,M,M,M,M,M,M,M,M,KFFT 012100Z AUTO /////KT A3019 RMK MADISHF
FFT,2017-04-01 21:05,-84.9033,38.1847,M,M,M,M,M,M,30.19,M,M,M,M,M,M,M,M,M,M,M,M,KFFT 012105Z AUTO /////KT A3019 RMK MADISHF
FFT,2017-04-01 21:10,-84.9033,38.1847,M,M,M,M,M,M,30.19,M,M,M,M,M,M,M,M,M,M,M,M,KFFT 012110Z AUTO /////KT A3019 RMK MADISHF
FFT,2017-04-01 21:15,-84.9033,38.1847,M,M,M,M,M,M,30.19,M,M,M,M,M,M,M,M,M,M,M,M,KFFT 012115Z AUTO /////KT A3019 RMK MADISHF
FFT,2017-04-01 21:20,-84.9033,38.1847,M,M,M,M,M,M,30.19,M,M,M,M,M,M,M,M,M,M,M,M,KFFT 012120Z AUTO /////KT A3019 RMK MADISHF
FFT,2017-04-01 21:25,-84.9033,38.1847,M,M,M,M,M,M,30.19,M,M,M,M,M,M,M,M,M,M,M,M,KFFT 012125Z AUTO /////KT A3019 RMK MADISHF
FFT,2017-04-01 21:30,-84.9033,38.1847,M,M,M,M,M,M,30.19,M,M,M,M,M,M,M,M,M,M,M,M,KFFT 012130Z AUTO /////KT A3019 RMK MADISHF
FFT,2017-04-01 21:35,-84.9033,38.1847,M,M,M,M,M,M,30.19,M,M,M,M,M,M,M,M,M,M,M,M,KFFT 012135Z AUTO /////KT A3019 RMK MADISHF
FFT,2017-04-01 21:40,-84.9033,38.1847,M,M,M,M,M,M,30.20,M,M,M,M,M,M,M,M,M,M,M,M,KFFT 012140Z AUTO /////KT A3020 RMK MADISHF
FFT,2017-04-01 21:45,-84.9033,38.1847,M,M,M,M,M,M,30.20,M,M,M,M,M,M,M,M,M,M,M,M,KFFT 012145Z AUTO /////KT A3020 RMK MADISHF
FFT,2017-04-01 21:50,-84.9033,38.1847,M,M,M,M,M,M,30.20,M,M,M,M,M,M,M,M,M,M,M,M,KFFT 012150Z AUTO /////KT A3020 RMK MADISHF
FFT,2017-04-01 21:53,-84.9033,38.1847,M,M,M,M,M,0.00,30.20,M,M,M,M,M,M,M,M,M,M,M,M,KFFT 012153Z AUTO A3020 RMK AO2 SLPNO PWINO FZRANO $
FFT,2017-04-01 21:55,-84.9033,38.1847,M,M,M,M,M,M,30.20,M,M,M,M,M,M,M,M,M,M,M,M,KFFT 012155Z AUTO /////KT A3020 RMK MADISHF
FFT,2017-04-01 22:00,-84.9033,38.1847,M,M,M,M,M,M,30.20,M,M,M,M,M,M,M,M,M,M,M,M,KFFT 012200Z AUTO /////KT A3020 RMK MADISHF
FFT,2017-04-01 22:05,-84.9033,38.1847,M,M,M,M,M,M,30.20,M,M,M,M,M,M,M,M,M,M,M,M,KFFT 012205Z AUTO /////KT A3020 RMK MADISHF
FFT,2017-04-01 22:10,-84.9033,38.1847,M,M,M,M,M,M,30.20,M,M,M,M,M,M,M,M,M,M,M,M,KFFT 012210Z AUTO /////KT A3020 RMK MADISHF
FFT,2017-04-01 22:15,-84.9033,38.1847,M,M,M,M,M,M,30.21,M,M,M,M,M,M,M,M,M,M,M,M,KFFT 012215Z AUTO /////KT A3021 RMK MADISHF
FFT,2017-04-01 22:20,-84.9033,38.1847,M,M,M,M,M,M,30.21,M,M,M,M,M,M,M,M,M,M,M,M,KFFT 012220Z AUTO /////KT A3021 RMK MADISHF
FFT,2017-04-01 22:25,-84.9033,38.1847,M,M,M,M,M,M,30.21,M,M,M,M,M,M,M,M,M,M,M,M,KFFT 012225Z AUTO /////KT A3021 RMK MADISHF
FFT,2017-04-01 22:30,-84.9033,38.1847,M,M,M,M,M,M,30.21,M,M,M,M,M,M,M,M,M,M,M,M,KFFT 012230Z AUTO /////KT A3021 RMK MADISHF
FFT,2017-04-01 22:35,-84.9033,38.1847,M,M,M,M,M,M,30.21,M,M,M,M,M,M,M,M,M,M,M,M,KFFT 012235Z AUTO /////KT A3021 RMK MADISHF
FFT,2017-04-01 22:40,-84.9033,38.1847,M,M,M,M,M,M,30.21,M,M,M,M,M,M,M,M,M,M,M,M,KFFT 012240Z AUTO /////KT A3021 RMK MADISHF
FFT,2017-04-01 22:45,-84.9033,38.1847,M,M,M,M,M,M,30.21,M,M,M,M,M,M,M,M,M,M,M,M,KFFT 012245Z AUTO /////KT A3021 RMK MADISHF
FFT,2017-04-01 22:50,-84.9033,38.1847,M,M,M,M,M,M,30.21,M,M,M,M,M,M,M,M,M,M,M,M,KFFT 012250Z AUTO /////KT A3021 RMK MADISHF
FFT,2017-04-01 22:53,-84.9033,38.1847,M,M,M,M,M,0.00,30.21,M,M,M,M,M,M,M,M,M,M,M,M,KFFT 012253Z AUTO A3021 RMK AO2 SLPNO PWINO FZRANO $
FFT,2017-04-01 22:55,-84.9033,38.1847,M,M,M,M,M,M,30.21,M,M,M,M,M,M,M,M,M,M,M,M,KFFT 012255Z AUTO /////KT A3021 RMK MADISHF
FFT,2017-04-01 23:00,-84.9033,38.1847,M,M,M,M,M,M,30.20,M,M,M,M,M,M,M,M,M,M,M,M,KFFT 012300Z AUTO /////KT A3020 RMK MADISHF
FFT,2017-04-01 23:05,-84.9033,38.1847,M,M,M,M,M,M,30.20,M,M,M,M,M,M,M,M,M,M,M,M,KFFT 012305Z AUTO /////KT A3020 RMK MADISHF
FFT,2017-04-01 23:10,-84.9033,38.1847,M,M,M,M,M,M,30.21,M,M,M,M,M,M,M,M,M,M,M,M,KFFT 012310Z AUTO /////KT A3021 RMK MADISHF
FFT,2017-04-01 23:15,-84.9033,38.1847,M,M,M,M,M,M,30.21,M,M,M,M,M,M,M,M,M,M,M,M,KFFT 012315Z AUTO /////KT A3021 RMK MADISHF
FFT,2017-04-01 23:20,-84.9033,38.1847,M,M,M,M,M,M,30.21,M,M,M,M,M,M,M,M,M,M,M,M,KFFT 012320Z AUTO /////KT A3021 RMK MADISHF
FFT,2017-04-01 23:25,-84.9033,38.1847,M,M,M,M,M,M,30.21,M,M,M,M,M,M,M,M,M,M,M,M,KFFT 012325Z AUTO /////KT A3021 RMK MADISHF
FFT,2017-04-01 23:30,-84.9033,38.1847,M,M,M,M,M,M,30.21,M,M,M,M,M,M,M,M,M,M,M,M,KFFT 012330Z AUTO /////KT A3021 RMK MADISHF
FFT,2017-04-01 23:35,-84.9033,38.1847,M,M,M,M,M,M,30.21,M,M,M,M,M,M,M,M,M,M,M,M,KFFT 012335Z AUTO /////KT A3021 RMK MADISHF
FFT,2017-04-01 23:40,-84.9033,38.1847,M,M,M,M,M,M,30.21,M,M,M,M,M,M,M,M,M,M,M,M,KFFT 012340Z AUTO /////KT A3021 RMK MADISHF
FFT,2017-04-01 23:45,-84.9033,38.1847,M,M,M,M,M,M,30.21,M,M,M,M,M,M,M,M,M,M,M,M,KFFT 012345Z AUTO /////KT A3021 RMK MADISHF
FFT,2017-04-01 23:50,-84.9033,38.1847,M,M,M,M,M,M,30.21,M,M,M,M,M,M,M,M,M,M,M,M,KFFT 012350Z AUTO /////KT A3021 RMK MADISHF
FFT,2017-04-01 23:53,-84.9033,38.1847,M,M,M,M,M,0.00,30.21,M,M,M,M,M,M,M,M,M,M,M,M,KFFT 012353Z AUTO A3021 RMK AO2 SLPNO 51007 PWINO FZRANO $
FFT,2017-04-01 23:55,-84.9033,38.1847,M,M,M,M,M,M,30.21,M,M,M,M,M,M,M,M,M,M,M,M,KFFT 012355Z AUTO /////KT A3021 RMK MADISHF
