#DEBUG: Format Typ    -> comma
#DEBUG: Time Period   -> 2017-04-01 00:00:00+00:00 2017-04-02 00:00:00+00:00
#DEBUG: Time Zone     -> Etc/UTC
#DEBUG: Data Contact   -> daryl herzmann akrherz@iastate.edu 515-294-5978
#DEBUG: Entries Found -> -1
station,valid,lon,lat,tmpf, dwpf, relh, drct, sknt, p01i, alti, mslp, vsby, gust, skyc1, skyc2, skyc3, skyc4, skyl1, skyl2, skyl3, skyl4, presentwx, metar
FGX,2017-04-01 00:15,-83.7434,38.5418,52.70,48.20,84.61,280.00,8.00,0.00,29.83,M,10.00,M,BKN,OVC,M,M,2400.00,3000.00,M,M,M,KFGX 010015Z AUTO 28008KT 10SM BKN024 OVC030 12/09 A2983 RMK AO2 T01150090
FGX,2017-04-01 00:35,-83.7434,38.5418,53.10,46.80,79.10,290.00,11.00,0.00,29.85,M,10.00,17.00,OVC,M,M,M,2200.00,M,M,M,M,KFGX 010035Z AUTO 29011G17KT 10SM OVC022 12/08 A2985 RMK AO2 T01170082
FGX,2017-04-01 00:55,-83.7434,38.5418,50.90,46.80,85.79,290.00,13.00,0.00,29.87,M,10.00,26.00,SCT,OVC,M,M,1600.00,2000.00,M,M,M,KFGX 010055Z AUTO 29013G26KT 10SM SCT016 OVC020 11/08 A2987 RMK AO2 T01050082
FGX,2017-04-01 01:15,-83.7434,38.5418,49.50,47.10,91.40,290.00,11.00,0.00,29.88,M,10.00,19.00,BKN,BKN,OVC,M,1100.00,2000.00,2400.00,M,M,KFGX 010115Z AUTO 29011G19KT 10SM BKN011 BKN020 OVC024 10/08 A2988 RMK AO2 T00970084
FGX,2017-04-01 01:35,-83.7434,38.5418,48.70,47.30,94.88,300.00,12.00,0.00,29.89,M,10.00,18.00,BKN,BKN,OVC,M,900.00,1500.00,2000.00,M,M,KFGX 010135Z AUTO 30012G18KT 10SM BKN009 BKN015 OVC020 09/09 A2989 RMK AO2 T00930085
FGX,2017-04-01 01:55,-83.7434,38.5418,48.90,46.80,92.42,300.00,13.00,0.00,29.90,M,10.00,16.00,BKN,OVC,M,M,900.00,1500.00,M,M,M,KFGX 010155Z AUTO 30013G16KT 10SM BKN009 OVC015 09/08 A2990 RMK AO2 T00940082
FGX,2017-04-01 02:15,-83.7434,38.5418,48.60,46.90,93.81,310.00,9.00,0.00,29.90,M,10.00,14.00,OVC,M,M,M,700.00,M,M,M,M,KFGX 010215Z AUTO 31009G14KT 10SM OVC007 09/08 A2990 RMK AO2 T00920083
FGX,2017-04-01 02:35,-83.7434,38.5418,48.20,46.40,93.45,310.00,9.00,0.00,29.91,M,10.00,17.00,OVC,M,M,M,700.00,M,M,M,M,KFGX 010235Z AUTO 31009G17KT 10SM OVC007 09/08 A2991 RMK AO2 T00900080
FGX,2017-04-01 02:55,-83.7434,38.5418,47.80,45.70,92.38,310.00,9.00,0.00,29.92,M,10.00,14.00,OVC,M,M,M,900.00,M,M,M,M,KFGX 010255Z AUTO 31009G14KT 10SM OVC009 09/08 A2992 RMK AO2 T00880076
FGX,2017-04-01 03:15,-83.7434,38.5418,46.60,44.40,91.99,310.00,13.00,0.00,29.92,M,10.00,16.00,OVC,M,M,M,900.00,M,M,M,M,KFGX 010315Z AUTO 31013G16KT 10SM OVC009 08/07 A2992 RMK AO2 T00810069
FGX,2017-04-01 03:35,-83.7434,38.5418,46.40,43.20,88.53,300.00,10.00,0.00,29.93,M,10.00,15.00,SCT,OVC,M,M,900.00,1300.00,M,M,M,KFGX 010335Z AUTO 30010G15KT 10SM SCT009 OVC013 08/06 A2993 RMK AO2 T00800062
FGX,2017-04-01 03:55,-83.7434,38.5418,46.00,42.80,88.51,310.00,9.00,0.00,29.93,M,10.00,15.00,BKN,OVC,M,M,1100.00,1600.00,M,M,M,KFGX 010355Z AUTO 31009G15KT 10SM BKN011 OVC016 08/06 A2993 RMK AO2 T00780060
FGX,2017-04-01 04:15,-83.7434,38.5418,45.50,42.40,88.83,300.00,9.00,0.00,29.95,M,10.00,M,OVC,M,M,M,1100.00,M,M,M,M,KFGX 010415Z AUTO 30009KT 10SM OVC011 08/06 A2995 RMK AO2 T00750058
FGX,2017-04-01 04:35,-83.7434,38.5418,45.50,41.90,87.14,300.00,9.00,0.00,29.95,M,10.00,17.00,OVC,M,M,M,1100.00,M,M,M,M,KFGX 010435Z AUTO 30009G17KT 10SM OVC011 08/06 A2995 RMK AO2 T00750055
FGX,2017-04-01 04:55,-83.7434,38.5418,44.60,41.50,88.79,320.00,11.00,0.00,29.96,M,10.00,M,BKN,OVC,M,M,1100.00,1400.00,M,M,M,KFGX 010455Z AUTO 32011KT 10SM BKN011 OVC014 07/05 A2996 RMK AO2 T00700053
FGX,2017-04-01 05:15,-83.7434,38.5418,44.40,41.90,90.86,300.00,10.00,0.00,29.97,M,10.00,14.00,OVC,M,M,M,900.00,M,M,M,M,KFGX 010515Z AUTO 30010G14KT 10SM OVC009 07/06 A2997 RMK AO2 T00690055
FGX,2017-04-01 05:35,-83.7434,38.5418,44.20,41.50,90.15,300.00,9.00,0.00,29.97,M,10.00,15.00,OVC,M,M,M,900.00,M,M,M,M,KFGX 010535Z AUTO 30009G15KT 10SM OVC009 07/05 A2997 RMK AO2 T00680053
FGX,2017-04-01 05:55,-83.7434,38.5418,44.10,41.00,88.77,300.00,10.00,0.00,29.98,M,10.00,15.00,OVC,M,M,M,1100.00,M,M,M,M,KFGX 010555Z AUTO 30010G15KT 10SM OVC011 07/05 A2998 RMK AO2 T00670050 10117 20067 401420067
FGX,2017-04-01 06:15,-83.7434,38.5418,43.70,40.30,87.72,300.00,9.00,0.00,29.98,M,10.00,20.00,OVC,M,M,M,1100.00,M,M,M,M,KFGX 010615Z AUTO 30009G20KT 10SM OVC011 07/05 A2998 RMK AO2 T00650046
FGX,2017-04-01 06:35,-83.7434,38.5418,43.20,40.30,89.42,320.00,9.00,0.00,29.99,M,10.00,16.00,OVC,M,M,M,1100.00,M,M,M,M,KFGX 010635Z AUTO 32009G16KT 10SM OVC011 06/05 A2999 RMK AO2 T00620046
FGX,2017-04-01 06:55,-83.7434,38.5418,43.00,40.60,91.16,310.00,10.00,0.00,29.99,M,10.00,14.00,OVC,M,M,M,700.00,M,M,M,M,KFGX 010655Z AUTO 31010G14KT 10SM OVC007 06/05 A2999 RMK AO2 T00610048
FGX,2017-04-01 07:15,-83.7434,38.5418,42.80,40.50,91.51,300.00,10.00,0.00,30.00,M,10.00,M,OVC,M,M,M,700.00,M,M,M,M,KFGX 010715Z AUTO 30010KT 10SM OVC007 06/05 A3000 RMK AO2 T00600047
FGX,2017-04-01 07:35,-83.7434,38.5418,42.30,40.10,91.84,290.00,11.00,0.00,30.01,M,10.00,18.00,OVC,M,M,M,700.00,M,M,M,M,KFGX 010735Z AUTO 29011G18KT 10SM OVC007 06/05 A3001 RMK AO2 T00570045
FGX,2017-04-01 07:55,-83.7434,38.5418,42.40,39.60,89.73,300.00,7.00,0.00,30.01,M,10.00,14.00,OVC,M,M,M,900.00,M,M,M,M,KFGX 010755Z AUTO 30007G14KT 10SM OVC009 06/04 A3001 RMK AO2 T00580042
FGX,2017-04-01 08:15,-83.7434,38.5418,42.10,40.30,93.28,310.00,7.00,0.00,30.02,M,7.00,M,OVC,M,M,M,900.00,M,M,M,M,KFGX 010815Z AUTO 31007KT 7SM OVC009 06/05 A3002 RMK AO2 T00560046
FGX,2017-04-01 08:35,-83.7434,38.5418,41.70,40.80,96.58,310.00,7.00,0.00,30.02,M,5.00,M,OVC,M,M,M,700.00,M,M,M,BR,KFGX 010835Z AUTO 31007KT 5SM BR OVC007 05/05 A3002 RMK AO2 T00540049
FGX,2017-04-01 08:55,-83.7434,38.5418,41.40,40.50,96.58,320.00,7.00,0.00,30.03,M,4.00,M,OVC,M,M,M,500.00,M,M,M,BR,KFGX 010855Z AUTO 32007KT 4SM BR OVC005 05/05 A3003 RMK AO2 T00520047
FGX,2017-04-01 09:15,-83.7434,38.5418,41.20,40.30,96.57,320.00,6.00,0.00,30.03,M,7.00,M,OVC,M,M,M,500.00,M,M,M,M,KFGX 010915Z AUTO 32006KT 7SM OVC005 05/05 A3003 RMK AO2 T00510046
FGX,2017-04-01 09:35,-83.7434,38.5418,41.00,39.90,95.82,300.00,8.00,0.00,30.03,M,10.00,M,SCT,BKN,OVC,M,500.00,1000.00,2600.00,M,M,KFGX 010935Z AUTO 30008KT 10SM SCT005 BKN010 OVC026 05/04 A3003 RMK AO2 T00500044
FGX,2017-04-01 09:55,-83.7434,38.5418,41.20,39.60,93.98,300.00,6.00,0.00,30.05,M,10.00,M,OVC,M,M,M,700.00,M,M,M,M,KFGX 010955Z AUTO 30006KT 10SM OVC007 05/04 A3005 RMK AO2 T00510042
FGX,2017-04-01 10:15,-83.7434,38.5418,41.40,39.70,93.62,310.00,6.00,0.00,30.05,M,10.00,M,OVC,M,M,M,700.00,M,M,M,M,KFGX 011015Z AUTO 31006KT 10SM OVC007 05/04 A3005 RMK AO2 T00520043
FGX,2017-04-01 10:35,-83.7434,38.5418,41.00,39.60,94.71,300.00,6.00,0.00,30.07,M,10.00,M,OVC,M,M,M,700.00,M,M,M,M,KFGX 011035Z AUTO 30006KT 10SM OVC007 05/04 A3007 RMK AO2 T00500042
FGX,2017-04-01 10:55,-83.7434,38.5418,41.00,38.30,90.02,310.00,7.00,0.00,30.08,M,10.00,M,BKN,OVC,M,M,700.00,1600.00,M,M,M,KFGX 011055Z AUTO 31007KT 10SM BKN007 OVC016 05/04 A3008 RMK AO2 T00500035
FGX,2017-04-01 11:15,-83.7434,38.5418,41.00,38.50,90.73,310.00,6.00,0.00,30.09,M,10.00,M,SCT,BKN,OVC,M,900.00,1300.00,2900.00,M,M,KFGX 011115Z AUTO 31006KT 10SM SCT009 BKN013 OVC029 05/04 A3009 RMK AO2 T00500036
FGX,2017-04-01 11:35,-83.7434,38.5418,40.60,39.00,93.96,300.00,8.00,0.00,30.10,M,10.00,M,OVC,M,M,M,900.00,M,M,M,M,KFGX 011135Z AUTO 30008KT 10SM OVC009 05/04 A3010 RMK AO2 T00480039
FGX,2017-04-01 11:55,-83.7434,38.5418,40.30,39.20,95.81,310.00,7.00,0.00,30.11,M,7.00,M,BKN,OVC,M,M,700.00,1300.00,M,M,M,KFGX 011155Z AUTO 31007KT 7SM BKN007 OVC013 05/04 A3011 RMK AO2 T00460040 10067 20046
FGX,2017-04-01 12:15,-83.7434,38.5418,40.30,39.40,96.56,300.00,8.00,0.00,30.12,M,7.00,M,BKN,OVC,M,M,700.00,1100.00,M,M,M,KFGX 011215Z AUTO 30008KT 7SM BKN007 OVC011 05/04 A3012 RMK AO2 T00460041
FGX,2017-04-01 12:35,-83.7434,38.5418,40.30,39.40,96.56,300.00,6.00,0.00,30.12,M,7.00,M,BKN,OVC,M,M,700.00,1100.00,M,M,M,KFGX 011235Z AUTO 30006KT 7SM BKN007 OVC011 05/04 A3012 RMK AO2 T00460041
FGX,2017-04-01 12:55,-83.7434,38.5418,40.50,39.40,95.81,300.00,7.00,0.00,30.14,M,10.00,M,OVC,M,M,M,700.00,M,M,M,M,KFGX 011255Z AUTO 30007KT 10SM OVC007 05/04 A3014 RMK AO2 T00470041
FGX,2017-04-01 13:15,-83.7434,38.5418,41.00,39.20,93.24,310.00,4.00,0.00,30.15,M,10.00,M,BKN,OVC,M,M,700.00,1200.00,M,M,M,KFGX 011315Z AUTO 31004KT 10SM BKN007 OVC012 05/04 A3015 RMK AO2 T00500040
FGX,2017-04-01 13:35,-83.7434,38.5418,41.50,39.20,91.46,310.00,7.00,0.00,30.15,M,10.00,M,BKN,OVC,M,M,900.00,1800.00,M,M,M,KFGX 011335Z AUTO 31007KT 10SM BKN009 OVC018 05/04 A3015 RMK AO2 T00530040
FGX,2017-04-01 13:55,-83.7434,38.5418,41.90,38.80,88.66,300.00,6.00,0.00,30.15,M,10.00,M,BKN,OVC,M,M,900.00,1700.00,M,M,M,KFGX 011355Z AUTO 30006KT 10SM BKN009 OVC017 06/04 A3015 RMK AO2 T00550038
FGX,2017-04-01 14:15,-83.7434,38.5418,42.10,38.30,86.28,310.00,6.00,0.00,30.15,M,10.00,M,OVC,M,M,M,1100.00,M,M,M,M,KFGX 011415Z AUTO 31006KT 10SM OVC011 06/04 A3015 RMK AO2 T00560035
FGX,2017-04-01 14:35,-83.7434,38.5418,42.10,38.30,86.28,320.00,8.00,0.00,30.16,M,10.00,M,OVC,M,M,M,1100.00,M,M,M,M,KFGX 011435Z AUTO 32008KT 10SM OVC011 06/04 A3016 RMK AO2 T00560035
FGX,2017-04-01 14:55,-83.7434,38.5418,41.50,38.50,88.99,310.00,7.00,0.00,30.17,M,10.00,M,OVC,M,M,M,1100.00,M,M,M,M,KFGX 011455Z AUTO 31007KT 10SM OVC011 05/04 A3017 RMK AO2 T00530036
FGX,2017-04-01 15:15,-83.7434,38.5418,41.70,38.50,88.31,290.00,7.00,0.00,30.17,M,10.00,M,OVC,M,M,M,1100.00,M,M,M,M,KFGX 011515Z AUTO 29007KT 10SM OVC011 05/04 A3017 RMK AO2 T00540036
FGX,2017-04-01 15:35,-83.7434,38.5418,41.90,38.80,88.66,290.00,7.00,0.00,30.18,M,10.00,M,OVC,M,M,M,900.00,M,M,M,M,KFGX 011535Z AUTO 29007KT 10SM OVC009 06/04 A3018 RMK AO2 T00550038
FGX,2017-04-01 15:55,-83.7434,38.5418,42.10,39.00,88.67,330.00,5.00,0.00,30.18,M,10.00,M,OVC,M,M,M,900.00,M,M,M,M,KFGX 011555Z AUTO 33005KT 10SM OVC009 06/04 A3018 RMK AO2 T00560039
FGX,2017-04-01 16:15,-83.7434,38.5418,43.70,39.00,83.39,310.00,8.00,0.00,30.18,M,10.00,M,BKN,OVC,M,M,1200.00,1700.00,M,M,M,KFGX 011615Z AUTO 31008KT 10SM BKN012 OVC017 07/04 A3018 RMK AO2 T00650039
FGX,2017-04-01 16:35,-83.7434,38.5418,43.00,38.30,83.34,320.00,8.00,0.00,30.19,M,10.00,M,OVC,M,M,M,1400.00,M,M,M,M,KFGX 011635Z AUTO 32008KT 10SM OVC014 06/04 A3019 RMK AO2 T00610035
FGX,2017-04-01 16:55,-83.7434,38.5418,43.20,38.30,82.70,320.00,7.00,0.00,30.18,M,10.00,M,OVC,M,M,M,1400.00,M,M,M,M,KFGX 011655Z AUTO 32007KT 10SM OVC014 06/04 A3018 RMK AO2 T00620035
FGX,2017-04-01 17:15,-83.7434,38.5418,43.70,38.50,81.77,320.00,5.00,0.00,30.18,M,10.00,M,OVC,M,M,M,1400.00,M,M,M,M,KFGX 011715Z AUTO 32005KT 10SM OVC014 07/04 A3018 RMK AO2 T00650036
FGX,2017-04-01 17:35,-83.7434,38.5418,43.50,39.00,84.03,300.00,7.00,0.00,30.18,M,10.00,M,OVC,M,M,M,1400.00,M,M,M,M,KFGX 011735Z AUTO 30007KT 10SM OVC014 06/04 A3018 RMK AO2 T00640039
FGX,2017-04-01 17:55,-83.7434,38.5418,43.50,38.80,83.38,300.00,6.00,0.00,30.18,M,10.00,M,OVC,M,M,M,1200.00,M,M,M,M,KFGX 011755Z AUTO 30006KT 10SM OVC012 06/04 A3018 RMK AO2 T00640038 10065 20045
FGX,2017-04-01 18:15,-83.7434,38.5418,43.90,38.50,81.15,310.00,7.00,0.00,30.18,M,10.00,M,SCT,OVC,M,M,1200.00,1900.00,M,M,M,KFGX 011815Z AUTO 31007KT 10SM SCT012 OVC019 07/04 A3018 RMK AO2 T00660036
FGX,2017-04-01 18:35,-83.7434,38.5418,44.10,38.50,80.53,320.00,7.00,0.00,30.19,M,10.00,M,OVC,M,M,M,1700.00,M,M,M,M,KFGX 011835Z AUTO 32007KT 10SM OVC017 07/04 A3019 RMK AO2 T00670036
FGX,2017-04-01 18:55,-83.7434,38.5418,43.70,39.40,84.70,330.00,5.00,0.00,30.19,M,10.00,M,OVC,M,M,M,1300.00,M,M,M,M,KFGX 011855Z AUTO 33005KT 10SM OVC013 07/04 A3019 RMK AO2 T00650041
FGX,2017-04-01 19:15,-83.7434,38.5418,44.20,39.40,83.10,320.00,4.00,0.00,30.18,M,10.00,M,OVC,M,M,M,1300.00,M,M,M,M,KFGX 011915Z AUTO 32004KT 10SM OVC013 07/04 A3018 RMK AO2 T00680041
FGX,2017-04-01 19:35,-83.7434,38.5418,44.20,39.20,82.45,320.00,4.00,0.00,30.18,M,10.00,M,OVC,M,M,M,1500.00,M,M,M,M,KFGX 011935Z AUTO 32004KT 10SM OVC015 07/04 A3018 RMK AO2 T00680040
FGX,2017-04-01 19:55,-83.7434,38.5418,44.20,38.80,81.17,330.00,5.00,0.00,30.18,M,10.00,M,OVC,M,M,M,1500.00,M,M,M,M,KFGX 011955Z AUTO 33005KT 10SM OVC015 07/04 A3018 RMK AO2 T00680038
FGX,2017-04-01 20:15,-83.7434,38.5418,44.10,38.70,81.17,310.00,3.00,0.00,30.18,M,10.00,M,BKN,OVC,M,M,1500.00,2100.00,M,M,M,KFGX 012015Z AUTO 31003KT 10SM BKN015 OVC021 07/04 A3018 RMK AO2 T00670037
FGX,2017-04-01 20:35,-83.7434,38.5418,45.10,39.70,81.24,0.00,0.00,0.00,30.18,M,10.00,M,OVC,M,M,M,2000.00,M,M,M,M,KFGX 012035Z AUTO 00000KT 10SM OVC020 07/04 A3018 RMK AO2 T00730043
FGX,2017-04-01 20:55,-83.7434,38.5418,45.00,38.50,77.82,290.00,5.00,0.00,30.20,M,10.00,M,OVC,M,M,M,2000.00,M,M,M,M,KFGX 012055Z AUTO 29005KT 10SM OVC020 07/04 A3020 RMK AO2 T00720036
FGX,2017-04-01 21:15,-83.7434,38.5418,45.00,38.10,76.61,300.00,3.00,0.00,30.20,M,10.00,M,OVC,M,M,M,2000.00,M,M,M,M,KFGX 012115Z AUTO 30003KT 10SM OVC020 07/03 A3020 RMK AO2 T00720034
FGX,2017-04-01 21:35,-83.7434,38.5418,45.10,38.50,77.52,0.00,0.00,0.00,30.21,M,10.00,M,OVC,M,M,M,2000.00,M,M,M,M,KFGX 012135Z AUTO 00000KT 10SM OVC020 07/04 A3021 RMK AO2 T00730036
FGX,2017-04-01 21:55,-83.7434,38.5418,45.50,38.70,76.96,0.00,0.00,0.00,30.21,M,10.00,M,OVC,M,M,M,2000.00,M,M,M,M,KFGX 012155Z AUTO 00000KT 10SM OVC020 08/04 A3021 RMK AO2 T00750037
FGX,2017-04-01 22:15,-83.7434,38.5418,45.70,38.70,76.37,300.00,3.00,0.00,30.22,M,10.00,M,SCT,OVC,M,M,2000.00,2700.00,M,M,M,KFGX 012215Z AUTO 30003KT 10SM SCT020 OVC027 08/04 A3022 RMK AO2 T00760037
FGX,2017-04-01 22:35,-83.7434,38.5418,45.70,38.80,76.67,0.00,0.00,0.00,30.22,M,10.00,M,BKN,OVC,M,M,2000.00,2600.00,M,M,M,KFGX 012235Z AUTO 00000KT 10SM BKN020 OVC026 08/04 A3022 RMK AO2 T00760038
FGX,2017-04-01 22:55,-83.7434,38.5418,45.50,39.00,77.86,360.00,3.00,0.00,30.22,M,10.00,M,BKN,OVC,M,M,2000.00,2500.00,M,M,M,KFGX 012255Z AUTO 36003KT 10SM BKN020 OVC025 08/04 A3022 RMK AO2 T00750039
FGX,2017-04-01 23:15,-83.7434,38.5418,45.70,38.50,75.78,0.00,0.00,0.00,30.23,M,10.00,M,OVC,M,M,M,2400.00,M,M,M,M,KFGX 012315Z AUTO 00000KT 10SM OVC024 08/04 A3023 RMK AO2 T00760036
FGX,2017-04-01 23:35,-83.7434,38.5418,45.50,38.80,77.26,0.00,0.00,0.00,30.23,M,10.00,M,OVC,M,M,M,2600.00,M,M,M,M,KFGX 012335Z AUTO 00000KT 10SM OVC026 08/04 A3023 RMK AO2 T00750038
FGX,2017-04-01 23:55,-83.7434,38.5418,45.50,38.50,76.36,0.00,0.00,0.00,30.23,M,10.00,M,OVC,M,M,M,2600.00,M,M,M,M,KFGX 012355Z AUTO 00000KT 10SM OVC026 08/04 A3023 RMK AO2 T00750036 10076 20062
