#DEBUG: Format Typ    -> comma
#DEBUG: Time Period   -> 2017-04-01 00:00:00+00:00 2017-04-02 00:00:00+00:00
#DEBUG: Time Zone     -> Etc/UTC
#DEBUG: Data Contact   -> daryl herzmann akrherz@iastate.edu 515-294-5978
#DEBUG: Entries Found -> -1
station,valid,lon,lat,tmpf, dwpf, relh, drct, sknt, p01i, alti, mslp, vsby, gust, skyc1, skyc2, skyc3, skyc4, skyl1, skyl2, skyl3, skyl4, presentwx, metar
FHR,2017-04-01 00:00,-123.0244,48.5220,M,M,M,0.00,0.00,M,30.32,M,10.00,M,OVC,M,M,M,6500.00,M,M,M,M,KFHR 010000Z AUTO 00000KT 10SM OVC065 A3032 RMK MADISHF
FHR,2017-04-01 00:05,-123.0244,48.5220,M,M,M,220.00,5.00,M,30.32,M,10.00,M,OVC,M,M,M,6500.00,M,M,M,M,KFHR 010005Z AUTO 22005KT 10SM OVC065 A3032 RMK MADISHF
FHR,2017-04-01 00:10,-123.0244,48.5220,M,M,M,210.00,3.00,M,30.31,M,10.00,M,OVC,M,M,M,6500.00,M,M,M,M,KFHR 010010Z AUTO 21003KT 10SM OVC065 A3031 RMK VRB03KT  MADISHF
FHR,2017-04-01 00:15,-123.0244,48.5220,M,M,M,220.00,5.00,M,30.31,M,10.00,M,OVC,M,M,M,6500.00,M,M,M,M,KFHR 010015Z AUTO 22005KT 10SM OVC065 A3031 RMK MADISHF
FHR,2017-04-01 00:20,-123.0244,48.5220,M,M,M,240.00,4.00,M,30.31,M,10.00,M,OVC,M,M,M,6000.00,M,M,M,M,KFHR 010020Z AUTO 24004KT 10SM OVC060 A3031 RMK MADISHF
FHR,2017-04-01 00:25,-123.0244,48.5220,M,M,M,220.00,3.00,M,30.31,M,10.00,M,OVC,M,M,M,6000.00,M,M,M,M,KFHR 010025Z AUTO 22003KT 10SM OVC060 A3031 RMK MADISHF
FHR,2017-04-01 00:30,-123.0244,48.5220,M,M,M,220.00,4.00,M,30.31,M,10.00,M,OVC,M,M,M,6000.00,M,M,M,M,KFHR 010030Z AUTO 22004KT 10SM OVC060 A3031 RMK MADISHF
FHR,2017-04-01 00:35,-123.0244,48.5220,M,M,M,230.00,4.00,M,30.31,M,10.00,M,OVC,M,M,M,6000.00,M,M,M,M,KFHR 010035Z AUTO 23004KT 10SM OVC060 A3031 RMK MADISHF
FHR,2017-04-01 00:40,-123.0244,48.5220,M,M,M,0.00,0.00,M,30.31,M,10.00,M,OVC,M,M,M,6000.00,M,M,M,M,KFHR 010040Z AUTO 00000KT 10SM OVC060 A3031 RMK MADISHF
FHR,2017-04-01 00:45,-123.0244,48.5220,M,M,M,0.00,0.00,M,30.30,M,10.00,M,OVC,M,M,M,6000.00,M,M,M,M,KFHR 010045Z AUTO 00000KT 10SM OVC060 A3030 RMK MADISHF
FHR,2017-04-01 00:50,-123.0244,48.5220,M,M,M,200.00,3.00,M,30.30,M,10.00,M,OVC,M,M,M,6000.00,M,M,M,M,KFHR 010050Z AUTO 20003KT 10SM OVC060 A3030 RMK MADISHF
FHR,2017-04-01 00:53,-123.0244,48.5220,52.00,41.00,66.00,0.00,0.00,0.00,30.30,1025.90,10.00,M,OVC,M,M,M,6000.00,M,M,M,M,KFHR 010053Z AUTO 00000KT 10SM OVC060 11/05 A3030 RMK AO2 SLP259 T01110050 TSNO
FHR,2017-04-01 00:55,-123.0244,48.5220,M,M,M,230.00,3.00,M,30.29,M,10.00,M,OVC,M,M,M,6000.00,M,M,M,M,KFHR 010055Z AUTO 23003KT 10SM OVC060 A3029 RMK MADISHF
FHR,2017-04-01 01:00,-123.0244,48.5220,M,M,M,0.00,0.00,M,30.29,M,10.00,M,OVC,M,M,M,6000.00,M,M,M,M,KFHR 010100Z AUTO 00000KT 10SM OVC060 A3029 RMK MADISHF
FHR,2017-04-01 01:05,-123.0244,48.5220,M,M,M,0.00,0.00,M,30.28,M,10.00,M,OVC,M,M,M,6000.00,M,M,M,M,KFHR 010105Z AUTO 00000KT 10SM OVC060 A3028 RMK MADISHF
FHR,2017-04-01 01:10,-123.0244,48.5220,M,M,M,100.00,3.00,M,30.28,M,10.00,M,OVC,M,M,M,6500.00,M,M,M,M,KFHR 010110Z AUTO 10003KT 10SM OVC065 A3028 RMK MADISHF
FHR,2017-04-01 01:15,-123.0244,48.5220,M,M,M,0.00,0.00,M,30.28,M,10.00,M,OVC,M,M,M,6500.00,M,M,M,M,KFHR 010115Z AUTO 00000KT 10SM OVC065 A3028 RMK MADISHF
FHR,2017-04-01 01:20,-123.0244,48.5220,M,M,M,110.00,3.00,M,30.27,M,10.00,M,OVC,M,M,M,6500.00,M,M,M,M,KFHR 010120Z AUTO 11003KT 10SM OVC065 A3027 RMK MADISHF
FHR,2017-04-01 01:25,-123.0244,48.5220,M,M,M,120.00,3.00,M,30.28,M,10.00,M,BKN,M,M,M,6500.00,M,M,M,M,KFHR 010125Z AUTO 12003KT 10SM BKN065 A3028 RMK MADISHF
FHR,2017-04-01 01:30,-123.0244,48.5220,M,M,M,0.00,0.00,M,30.28,M,10.00,M,BKN,M,M,M,7000.00,M,M,M,M,KFHR 010130Z AUTO 00000KT 10SM BKN070 A3028 RMK MADISHF
FHR,2017-04-01 01:35,-123.0244,48.5220,M,M,M,0.00,0.00,M,30.28,M,10.00,M,OVC,M,M,M,7000.00,M,M,M,M,KFHR 010135Z AUTO 00000KT 10SM OVC070 A3028 RMK MADISHF
FHR,2017-04-01 01:40,-123.0244,48.5220,M,M,M,0.00,0.00,M,30.28,M,10.00,M,OVC,M,M,M,7000.00,M,M,M,M,KFHR 010140Z AUTO 00000KT 10SM OVC070 A3028 RMK MADISHF
FHR,2017-04-01 01:45,-123.0244,48.5220,M,M,M,0.00,0.00,M,30.28,M,10.00,M,OVC,M,M,M,7000.00,M,M,M,M,KFHR 010145Z AUTO 00000KT 10SM OVC070 A3028 RMK MADISHF
FHR,2017-04-01 01:50,-123.0244,48.5220,M,M,M,0.00,0.00,M,30.28,M,10.00,M,OVC,M,M,M,7000.00,M,M,M,M,KFHR 010150Z AUTO 00000KT 10SM OVC070 A3028 RMK MADISHF
FHR,2017-04-01 01:53,-123.0244,48.5220,51.10,42.10,71.19,0.00,0.00,0.00,30.28,1025.30,10.00,M,OVC,M,M,M,7000.00,M,M,M,M,KFHR 010153Z AUTO 00000KT 10SM OVC070 11/06 A3028 RMK AO2 SLP253 T01060056 TSNO
FHR,2017-04-01 01:55,-123.0244,48.5220,M,M,M,0.00,0.00,M,30.28,M,10.00,M,OVC,M,M,M,6500.00,M,M,M,M,KFHR 010155Z AUTO 00000KT 10SM OVC065 A3028 RMK MADISHF
FHR,2017-04-01 02:00,-123.0244,48.5220,M,M,M,0.00,0.00,M,30.27,M,10.00,M,OVC,M,M,M,6500.00,M,M,M,M,KFHR 010200Z AUTO 00000KT 10SM OVC065 A3027 RMK MADISHF
FHR,2017-04-01 02:05,-123.0244,48.5220,M,M,M,0.00,0.00,M,30.27,M,10.00,M,BKN,OVC,M,M,6500.00,7999.00,M,M,M,KFHR 010205Z AUTO 00000KT 10SM BKN065 OVC079 A3027 RMK MADISHF
FHR,2017-04-01 02:10,-123.0244,48.5220,M,M,M,0.00,0.00,M,30.27,M,10.00,M,BKN,OVC,M,M,6000.00,7999.00,M,M,M,KFHR 010210Z AUTO 00000KT 10SM BKN060 OVC079 A3027 RMK MADISHF
FHR,2017-04-01 02:15,-123.0244,48.5220,M,M,M,0.00,0.00,M,30.27,M,10.00,M,BKN,OVC,M,M,6000.00,7999.00,M,M,M,KFHR 010215Z AUTO 00000KT 10SM BKN060 OVC079 A3027 RMK MADISHF
FHR,2017-04-01 02:20,-123.0244,48.5220,M,M,M,0.00,0.00,M,30.27,M,10.00,M,BKN,OVC,M,M,6000.00,7999.00,M,M,M,KFHR 010220Z AUTO 00000KT 10SM BKN060 OVC079 A3027 RMK MADISHF
FHR,2017-04-01 02:25,-123.0244,48.5220,M,M,M,0.00,0.00,M,30.26,M,10.00,M,BKN,OVC,M,M,6000.00,8500.00,M,M,M,KFHR 010225Z AUTO 00000KT 10SM BKN060 OVC085 A3026 RMK MADISHF
FHR,2017-04-01 02:30,-123.0244,48.5220,M,M,M,0.00,0.00,M,30.26,M,10.00,M,SCT,BKN,OVC,M,6000.00,8500.00,11000.00,M,M,KFHR 010230Z AUTO 00000KT 10SM SCT060 BKN085 OVC110 A3026 RMK MADISHF
FHR,2017-04-01 02:35,-123.0244,48.5220,M,M,M,0.00,0.00,M,30.26,M,10.00,M,SCT,BKN,OVC,M,6000.00,9000.00,11000.00,M,M,KFHR 010235Z AUTO 00000KT 10SM SCT060 BKN090 OVC110 A3026 RMK MADISHF
FHR,2017-04-01 02:40,-123.0244,48.5220,M,M,M,0.00,0.00,M,30.26,M,10.00,M,SCT,OVC,M,M,6000.00,8500.00,M,M,M,KFHR 010240Z AUTO 00000KT 10SM SCT060 OVC085 A3026 RMK MADISHF
FHR,2017-04-01 02:45,-123.0244,48.5220,M,M,M,0.00,0.00,M,30.26,M,10.00,M,SCT,BKN,OVC,M,6000.00,9000.00,11000.00,M,M,KFHR 010245Z AUTO 00000KT 10SM SCT060 BKN090 OVC110 A3026 RMK MADISHF
FHR,2017-04-01 02:50,-123.0244,48.5220,M,M,M,0.00,0.00,M,30.26,M,10.00,M,FEW,BKN,OVC,M,6000.00,9000.00,11000.00,M,M,KFHR 010250Z AUTO 00000KT 10SM FEW060 BKN090 OVC110 A3026 RMK MADISHF
FHR,2017-04-01 02:53,-123.0244,48.5220,48.90,42.10,77.26,0.00,0.00,0.00,30.26,1024.50,10.00,M,FEW,BKN,OVC,M,6000.00,9000.00,11000.00,M,M,KFHR 010253Z AUTO 00000KT 10SM FEW060 BKN090 OVC110 09/06 A3026 RMK AO2 SLP245 T00940056 58020 TSNO
FHR,2017-04-01 02:55,-123.0244,48.5220,M,M,M,0.00,0.00,M,30.26,M,10.00,M,SCT,BKN,OVC,M,6000.00,9000.00,11000.00,M,M,KFHR 010255Z AUTO 00000KT 10SM SCT060 BKN090 OVC110 A3026 RMK MADISHF
FHR,2017-04-01 03:00,-123.0244,48.5220,M,M,M,270.00,3.00,M,30.26,M,10.00,M,BKN,OVC,M,M,6000.00,9000.00,M,M,M,KFHR 010300Z AUTO 27003KT 10SM BKN060 OVC090 A3026 RMK MADISHF
FHR,2017-04-01 03:05,-123.0244,48.5220,M,M,M,270.00,3.00,M,30.26,M,10.00,M,BKN,OVC,M,M,6000.00,8500.00,M,M,M,KFHR 010305Z AUTO 27003KT 10SM BKN060 OVC085 A3026 RMK MADISHF
FHR,2017-04-01 03:10,-123.0244,48.5220,M,M,M,0.00,0.00,M,30.26,M,10.00,M,BKN,OVC,M,M,6000.00,9000.00,M,M,M,KFHR 010310Z AUTO 00000KT 10SM BKN060 OVC090 A3026 RMK MADISHF
FHR,2017-04-01 03:15,-123.0244,48.5220,M,M,M,270.00,3.00,M,30.26,M,10.00,M,OVC,M,M,M,6000.00,M,M,M,M,KFHR 010315Z AUTO 27003KT 10SM OVC060 A3026 RMK MADISHF
FHR,2017-04-01 03:20,-123.0244,48.5220,M,M,M,280.00,3.00,M,30.26,M,10.00,M,OVC,M,M,M,6000.00,M,M,M,M,KFHR 010320Z AUTO 28003KT 10SM OVC060 A3026 RMK MADISHF
FHR,2017-04-01 03:25,-123.0244,48.5220,M,M,M,0.00,0.00,M,30.26,M,10.00,M,OVC,M,M,M,6000.00,M,M,M,M,KFHR 010325Z AUTO 00000KT 10SM OVC060 A3026 RMK MADISHF
FHR,2017-04-01 03:30,-123.0244,48.5220,M,M,M,0.00,0.00,M,30.26,M,10.00,M,OVC,M,M,M,6000.00,M,M,M,M,KFHR 010330Z AUTO 00000KT 10SM OVC060 A3026 RMK MADISHF
FHR,2017-04-01 03:35,-123.0244,48.5220,M,M,M,0.00,0.00,M,30.26,M,10.00,M,OVC,M,M,M,6000.00,M,M,M,M,KFHR 010335Z AUTO 00000KT 10SM OVC060 A3026 RMK MADISHF
FHR,2017-04-01 03:40,-123.0244,48.5220,M,M,M,0.00,0.00,M,30.26,M,10.00,M,OVC,M,M,M,6000.00,M,M,M,M,KFHR 010340Z AUTO 00000KT 10SM OVC060 A3026 RMK MADISHF
FHR,2017-04-01 03:45,-123.0244,48.5220,M,M,M,0.00,0.00,M,30.26,M,10.00,M,OVC,M,M,M,6000.00,M,M,M,M,KFHR 010345Z AUTO 00000KT 10SM OVC060 A3026 RMK MADISHF
FHR,2017-04-01 03:50,-123.0244,48.5220,M,M,M,0.00,0.00,M,30.26,M,10.00,M,OVC,M,M,M,6000.00,M,M,M,M,KFHR 010350Z AUTO 00000KT 10SM OVC060 A3026 RMK MADISHF
FHR,2017-04-01 03:53,-123.0244,48.5220,48.00,42.10,79.91,0.00,0.00,0.00,30.26,1024.70,10.00,M,OVC,M,M,M,6000.00,M,M,M,M,KFHR 010353Z AUTO 00000KT 10SM OVC060 09/06 A3026 RMK AO2 SLP247 T00890056 TSNO
FHR,2017-04-01 03:55,-123.0244,48.5220,M,M,M,0.00,0.00,M,30.26,M,10.00,M,OVC,M,M,M,6000.00,M,M,M,M,KFHR 010355Z AUTO 00000KT 10SM OVC060 A3026 RMK MADISHF
FHR,2017-04-01 04:00,-123.0244,48.5220,M,M,M,270.00,3.00,M,30.27,M,10.00,M,OVC,M,M,M,6000.00,M,M,M,M,KFHR 010400Z AUTO 27003KT 10SM OVC060 A3027 RMK MADISHF
FHR,2017-04-01 04:05,-123.0244,48.5220,M,M,M,270.00,3.00,M,30.27,M,10.00,M,OVC,M,M,M,6000.00,M,M,M,M,KFHR 010405Z AUTO 27003KT 10SM OVC060 A3027 RMK MADISHF
FHR,2017-04-01 04:10,-123.0244,48.5220,M,M,M,0.00,0.00,M,30.27,M,10.00,M,OVC,M,M,M,6000.00,M,M,M,M,KFHR 010410Z AUTO 00000KT 10SM OVC060 A3027 RMK MADISHF
FHR,2017-04-01 04:15,-123.0244,48.5220,M,M,M,0.00,0.00,M,30.26,M,10.00,M,OVC,M,M,M,6000.00,M,M,M,M,KFHR 010415Z AUTO 00000KT 10SM OVC060 A3026 RMK MADISHF
FHR,2017-04-01 04:20,-123.0244,48.5220,M,M,M,0.00,0.00,M,30.26,M,10.00,M,OVC,M,M,M,6000.00,M,M,M,M,KFHR 010420Z AUTO 00000KT 10SM OVC060 A3026 RMK MADISHF
FHR,2017-04-01 04:25,-123.0244,48.5220,M,M,M,0.00,0.00,M,30.27,M,10.00,M,OVC,M,M,M,5500.00,M,M,M,M,KFHR 010425Z AUTO 00000KT 10SM OVC055 A3027 RMK MADISHF
FHR,2017-04-01 04:30,-123.0244,48.5220,M,M,M,0.00,0.00,M,30.27,M,10.00,M,OVC,M,M,M,5500.00,M,M,M,M,KFHR 010430Z AUTO 00000KT 10SM OVC055 A3027 RMK MADISHF
FHR,2017-04-01 04:35,-123.0244,48.5220,M,M,M,0.00,0.00,M,30.26,M,10.00,M,OVC,M,M,M,5500.00,M,M,M,M,KFHR 010435Z AUTO 00000KT 10SM OVC055 A3026 RMK MADISHF
FHR,2017-04-01 04:40,-123.0244,48.5220,M,M,M,0.00,0.00,M,30.26,M,10.00,M,OVC,M,M,M,5500.00,M,M,M,M,KFHR 010440Z AUTO 00000KT 10SM OVC055 A3026 RMK MADISHF
FHR,2017-04-01 04:45,-123.0244,48.5220,M,M,M,0.00,0.00,M,30.26,M,10.00,M,OVC,M,M,M,6000.00,M,M,M,M,KFHR 010445Z AUTO 00000KT 10SM OVC060 A3026 RMK MADISHF
FHR,2017-04-01 04:50,-123.0244,48.5220,M,M,M,0.00,0.00,M,30.26,M,10.00,M,BKN,OVC,M,M,6000.00,7999.00,M,M,M,KFHR 010450Z AUTO 00000KT 10SM BKN060 OVC079 A3026 RMK MADISHF
FHR,2017-04-01 04:53,-123.0244,48.5220,48.00,42.10,79.91,0.00,0.00,0.00,30.26,1024.50,10.00,M,BKN,OVC,M,M,6000.00,8000.00,M,M,M,KFHR 010453Z AUTO 00000KT 10SM BKN060 OVC080 09/06 A3026 RMK AO2 SLP245 T00890056 TSNO
FHR,2017-04-01 04:55,-123.0244,48.5220,M,M,M,0.00,0.00,M,30.26,M,10.00,M,SCT,OVC,M,M,6000.00,8500.00,M,M,M,KFHR 010455Z AUTO 00000KT 10SM SCT060 OVC085 A3026 RMK MADISHF
FHR,2017-04-01 05:00,-123.0244,48.5220,M,M,M,0.00,0.00,M,30.26,M,10.00,M,SCT,OVC,M,M,6000.00,8500.00,M,M,M,KFHR 010500Z AUTO 00000KT 10SM SCT060 OVC085 A3026 RMK MADISHF
FHR,2017-04-01 05:05,-123.0244,48.5220,M,M,M,0.00,0.00,M,30.27,M,10.00,M,BKN,OVC,M,M,6000.00,8500.00,M,M,M,KFHR 010505Z AUTO 00000KT 10SM BKN060 OVC085 A3027 RMK MADISHF
FHR,2017-04-01 05:10,-123.0244,48.5220,M,M,M,260.00,3.00,M,30.27,M,10.00,M,BKN,OVC,M,M,6000.00,7999.00,M,M,M,KFHR 010510Z AUTO 26003KT 10SM BKN060 OVC079 A3027 RMK MADISHF
FHR,2017-04-01 05:15,-123.0244,48.5220,M,M,M,0.00,0.00,M,30.27,M,10.00,M,BKN,OVC,M,M,6000.00,7999.00,M,M,M,KFHR 010515Z AUTO 00000KT 10SM BKN060 OVC079 A3027 RMK MADISHF
FHR,2017-04-01 05:20,-123.0244,48.5220,M,M,M,0.00,0.00,M,30.26,M,10.00,M,BKN,OVC,M,M,6000.00,8500.00,M,M,M,KFHR 010520Z AUTO 00000KT 10SM BKN060 OVC085 A3026 RMK MADISHF
FHR,2017-04-01 05:25,-123.0244,48.5220,M,M,M,0.00,0.00,M,30.26,M,10.00,M,OVC,M,M,M,6000.00,M,M,M,M,KFHR 010525Z AUTO 00000KT 10SM OVC060 A3026 RMK MADISHF
FHR,2017-04-01 05:30,-123.0244,48.5220,M,M,M,0.00,0.00,M,30.26,M,10.00,M,OVC,M,M,M,6000.00,M,M,M,M,KFHR 010530Z AUTO 00000KT 10SM OVC060 A3026 RMK MADISHF
FHR,2017-04-01 05:35,-123.0244,48.5220,M,M,M,0.00,0.00,M,30.26,M,10.00,M,OVC,M,M,M,6000.00,M,M,M,M,KFHR 010535Z AUTO 00000KT 10SM OVC060 A3026 RMK MADISHF
FHR,2017-04-01 05:40,-123.0244,48.5220,M,M,M,0.00,0.00,M,30.26,M,10.00,M,OVC,M,M,M,5500.00,M,M,M,M,KFHR 010540Z AUTO 00000KT 10SM OVC055 A3026 RMK MADISHF
FHR,2017-04-01 05:45,-123.0244,48.5220,M,M,M,0.00,0.00,M,30.26,M,10.00,M,OVC,M,M,M,5500.00,M,M,M,M,KFHR 010545Z AUTO 00000KT 10SM OVC055 A3026 RMK MADISHF
FHR,2017-04-01 05:50,-123.0244,48.5220,M,M,M,0.00,0.00,M,30.26,M,10.00,M,OVC,M,M,M,5500.00,M,M,M,M,KFHR 010550Z AUTO 00000KT 10SM OVC055 A3026 RMK MADISHF
FHR,2017-04-01 05:53,-123.0244,48.5220,46.90,42.10,83.28,0.00,0.00,0.00,30.26,1024.60,10.00,M,OVC,M,M,M,5500.00,M,M,M,-RA,KFHR 010553Z AUTO 00000KT 10SM -RA OVC055 08/06 A3026 RMK AO2 RAB51 SLP246 P0000 60000 T00830056 10111 20083 51001 TSNO
FHR,2017-04-01 05:55,-123.0244,48.5220,M,M,M,0.00,0.00,M,30.26,M,10.00,M,OVC,M,M,M,5500.00,M,M,M,-RA,KFHR 010555Z AUTO 00000KT 10SM -RA OVC055 A3026 RMK MADISHF
FHR,2017-04-01 06:00,-123.0244,48.5220,M,M,M,0.00,0.00,M,30.25,M,10.00,M,OVC,M,M,M,5500.00,M,M,M,M,KFHR 010600Z AUTO 00000KT 10SM OVC055 A3025 RMK MADISHF
FHR,2017-04-01 06:05,-123.0244,48.5220,M,M,M,0.00,0.00,M,30.25,M,10.00,M,OVC,M,M,M,5500.00,M,M,M,M,KFHR 010605Z AUTO 00000KT 10SM OVC055 A3025 RMK MADISHF
FHR,2017-04-01 06:10,-123.0244,48.5220,M,M,M,270.00,3.00,M,30.26,M,10.00,M,OVC,M,M,M,5500.00,M,M,M,M,KFHR 010610Z AUTO 27003KT 10SM OVC055 A3026 RMK MADISHF
FHR,2017-04-01 06:15,-123.0244,48.5220,M,M,M,0.00,0.00,M,30.25,M,10.00,M,OVC,M,M,M,5500.00,M,M,M,M,KFHR 010615Z AUTO 00000KT 10SM OVC055 A3025 RMK MADISHF
FHR,2017-04-01 06:20,-123.0244,48.5220,M,M,M,0.00,0.00,M,30.25,M,10.00,M,OVC,M,M,M,6000.00,M,M,M,M,KFHR 010620Z AUTO 00000KT 10SM OVC060 A3025 RMK MADISHF
FHR,2017-04-01 06:25,-123.0244,48.5220,M,M,M,0.00,0.00,M,30.24,M,10.00,M,OVC,M,M,M,6000.00,M,M,M,M,KFHR 010625Z AUTO 00000KT 10SM OVC060 A3024 RMK MADISHF
FHR,2017-04-01 06:30,-123.0244,48.5220,M,M,M,0.00,0.00,M,30.24,M,10.00,M,OVC,M,M,M,6000.00,M,M,M,M,KFHR 010630Z AUTO 00000KT 10SM OVC060 A3024 RMK MADISHF
FHR,2017-04-01 06:35,-123.0244,48.5220,M,M,M,0.00,0.00,M,30.24,M,10.00,M,OVC,M,M,M,6000.00,M,M,M,M,KFHR 010635Z AUTO 00000KT 10SM OVC060 A3024 RMK MADISHF
FHR,2017-04-01 06:40,-123.0244,48.5220,M,M,M,0.00,0.00,M,30.24,M,10.00,M,OVC,M,M,M,6000.00,M,M,M,M,KFHR 010640Z AUTO 00000KT 10SM OVC060 A3024 RMK MADISHF
FHR,2017-04-01 06:45,-123.0244,48.5220,M,M,M,0.00,0.00,M,30.23,M,10.00,M,OVC,M,M,M,6000.00,M,M,M,M,KFHR 010645Z AUTO 00000KT 10SM OVC060 A3023 RMK MADISHF
FHR,2017-04-01 06:50,-123.0244,48.5220,M,M,M,0.00,0.00,M,30.23,M,10.00,M,OVC,M,M,M,6000.00,M,M,M,M,KFHR 010650Z AUTO 00000KT 10SM OVC060 A3023 RMK MADISHF
FHR,2017-04-01 06:53,-123.0244,48.5220,46.90,43.00,86.21,0.00,0.00,0.00,30.23,1023.80,10.00,M,OVC,M,M,M,6000.00,M,M,M,M,KFHR 010653Z AUTO 00000KT 10SM OVC060 08/06 A3023 RMK AO2 RAE0559 SLP238 P0000 T00830061 TSNO
FHR,2017-04-01 06:55,-123.0244,48.5220,M,M,M,0.00,0.00,M,30.23,M,10.00,M,OVC,M,M,M,6000.00,M,M,M,M,KFHR 010655Z AUTO 00000KT 10SM OVC060 A3023 RMK MADISHF
FHR,2017-04-01 07:00,-123.0244,48.5220,M,M,M,0.00,0.00,M,30.23,M,10.00,M,OVC,M,M,M,6000.00,M,M,M,M,KFHR 010700Z AUTO 00000KT 10SM OVC060 A3023 RMK MADISHF
FHR,2017-04-01 07:05,-123.0244,48.5220,M,M,M,0.00,0.00,M,30.23,M,10.00,M,OVC,M,M,M,6000.00,M,M,M,-RA,KFHR 010705Z AUTO 00000KT 10SM -RA OVC060 A3023 RMK MADISHF
FHR,2017-04-01 07:10,-123.0244,48.5220,M,M,M,0.00,0.00,M,30.22,M,10.00,M,OVC,M,M,M,6000.00,M,M,M,-RA,KFHR 010710Z AUTO 00000KT 10SM -RA OVC060 A3022 RMK MADISHF
FHR,2017-04-01 07:15,-123.0244,48.5220,M,M,M,0.00,0.00,M,30.21,M,10.00,M,OVC,M,M,M,6000.00,M,M,M,-RA,KFHR 010715Z AUTO 00000KT 10SM -RA OVC060 A3021 RMK MADISHF
FHR,2017-04-01 07:20,-123.0244,48.5220,M,M,M,0.00,0.00,M,30.22,M,10.00,M,OVC,M,M,M,6000.00,M,M,M,M,KFHR 010720Z AUTO 00000KT 10SM OVC060 A3022 RMK MADISHF
FHR,2017-04-01 07:25,-123.0244,48.5220,M,M,M,0.00,0.00,M,30.21,M,10.00,M,FEW,OVC,M,M,3399.00,6000.00,M,M,M,KFHR 010725Z AUTO 00000KT 10SM FEW033 OVC060 A3021 RMK MADISHF
FHR,2017-04-01 07:30,-123.0244,48.5220,M,M,M,0.00,0.00,M,30.21,M,10.00,M,FEW,OVC,M,M,3399.00,6000.00,M,M,M,KFHR 010730Z AUTO 00000KT 10SM FEW033 OVC060 A3021 RMK MADISHF
FHR,2017-04-01 07:35,-123.0244,48.5220,M,M,M,0.00,0.00,M,30.22,M,10.00,M,FEW,OVC,M,M,3399.00,6000.00,M,M,M,KFHR 010735Z AUTO 00000KT 10SM FEW033 OVC060 A3022 RMK MADISHF
FHR,2017-04-01 07:40,-123.0244,48.5220,M,M,M,0.00,0.00,M,30.22,M,10.00,M,SCT,OVC,M,M,3399.00,6000.00,M,M,M,KFHR 010740Z AUTO 00000KT 10SM SCT033 OVC060 A3022 RMK MADISHF
FHR,2017-04-01 07:45,-123.0244,48.5220,M,M,M,0.00,0.00,M,30.21,M,10.00,M,BKN,OVC,M,M,3399.00,6000.00,M,M,M,KFHR 010745Z AUTO 00000KT 10SM BKN033 OVC060 A3021 RMK MADISHF
FHR,2017-04-01 07:50,-123.0244,48.5220,M,M,M,0.00,0.00,M,30.21,M,10.00,M,BKN,OVC,M,M,3399.00,5500.00,M,M,-RA,KFHR 010750Z AUTO 00000KT 10SM -RA BKN033 OVC055 A3021 RMK MADISHF
FHR,2017-04-01 07:53,-123.0244,48.5220,46.90,44.10,89.92,0.00,0.00,0.00,30.20,1022.80,10.00,M,BKN,OVC,M,M,3400.00,5500.00,M,M,-RA,KFHR 010753Z AUTO 00000KT 10SM -RA BKN034 OVC055 08/07 A3020 RMK AO2 RAB04E16B49 SLP228 P0000 T00830067 401280022 TSNO
FHR,2017-04-01 07:55,-123.0244,48.5220,M,M,M,0.00,0.00,M,30.20,M,10.00,M,BKN,OVC,M,M,3399.00,5500.00,M,M,-RA,KFHR 010755Z AUTO 00000KT 10SM -RA BKN033 OVC055 A3020 RMK MADISHF
FHR,2017-04-01 08:00,-123.0244,48.5220,M,M,M,0.00,0.00,M,30.20,M,10.00,M,BKN,OVC,M,M,3500.00,5500.00,M,M,-RA,KFHR 010800Z AUTO 00000KT 10SM -RA BKN035 OVC055 A3020 RMK MADISHF
FHR,2017-04-01 08:05,-123.0244,48.5220,M,M,M,0.00,0.00,M,30.21,M,10.00,M,OVC,M,M,M,3500.00,M,M,M,-RA,KFHR 010805Z AUTO 00000KT 10SM -RA OVC035 A3021 RMK MADISHF
FHR,2017-04-01 08:10,-123.0244,48.5220,M,M,M,0.00,0.00,M,30.21,M,10.00,M,OVC,M,M,M,3500.00,M,M,M,-RA,KFHR 010810Z AUTO 00000KT 10SM -RA OVC035 A3021 RMK MADISHF
FHR,2017-04-01 08:15,-123.0244,48.5220,M,M,M,0.00,0.00,M,30.20,M,10.00,M,OVC,M,M,M,3500.00,M,M,M,-RA,KFHR 010815Z AUTO 00000KT 10SM -RA OVC035 A3020 RMK MADISHF
FHR,2017-04-01 08:20,-123.0244,48.5220,M,M,M,0.00,0.00,M,30.20,M,9.00,M,OVC,M,M,M,3500.00,M,M,M,-RA,KFHR 010820Z AUTO 00000KT 9SM -RA OVC035 A3020 RMK MADISHF
FHR,2017-04-01 08:25,-123.0244,48.5220,M,M,M,0.00,0.00,M,30.20,M,7.00,M,OVC,M,M,M,3500.00,M,M,M,-RA,KFHR 010825Z AUTO 00000KT 7SM -RA OVC035 A3020 RMK MADISHF
FHR,2017-04-01 08:30,-123.0244,48.5220,M,M,M,0.00,0.00,M,30.20,M,7.00,M,OVC,M,M,M,3600.00,M,M,M,-RA,KFHR 010830Z AUTO 00000KT 7SM -RA OVC036 A3020 RMK MADISHF
FHR,2017-04-01 08:35,-123.0244,48.5220,M,M,M,0.00,0.00,M,30.20,M,10.00,M,OVC,M,M,M,3600.00,M,M,M,-RA,KFHR 010835Z AUTO 00000KT 10SM -RA OVC036 A3020 RMK MADISHF
FHR,2017-04-01 08:40,-123.0244,48.5220,M,M,M,0.00,0.00,M,30.19,M,10.00,M,OVC,M,M,M,3600.00,M,M,M,M,KFHR 010840Z AUTO 00000KT 10SM OVC036 A3019 RMK MADISHF
FHR,2017-04-01 08:45,-123.0244,48.5220,M,M,M,0.00,0.00,M,30.19,M,10.00,M,OVC,M,M,M,3600.00,M,M,M,-RA,KFHR 010845Z AUTO 00000KT 10SM -RA OVC036 A3019 RMK MADISHF
FHR,2017-04-01 08:50,-123.0244,48.5220,M,M,M,0.00,0.00,M,30.19,M,10.00,M,OVC,M,M,M,3600.00,M,M,M,-RA,KFHR 010850Z AUTO 00000KT 10SM -RA OVC036 A3019 RMK MADISHF
FHR,2017-04-01 08:53,-123.0244,48.5220,45.00,44.10,96.63,0.00,0.00,0.00,30.18,1022.10,10.00,M,OVC,M,M,M,3600.00,M,M,M,-RA,KFHR 010853Z AUTO 00000KT 10SM -RA OVC036 07/07 A3018 RMK AO2 SLP221 P0000 60000 T00720067 56025 TSNO
FHR,2017-04-01 08:55,-123.0244,48.5220,M,M,M,0.00,0.00,M,30.18,M,10.00,M,OVC,M,M,M,3600.00,M,M,M,M,KFHR 010855Z AUTO 00000KT 10SM OVC036 A3018 RMK MADISHF
FHR,2017-04-01 09:00,-123.0244,48.5220,M,M,M,0.00,0.00,M,30.18,M,10.00,M,OVC,M,M,M,3600.00,M,M,M,M,KFHR 010900Z AUTO 00000KT 10SM OVC036 A3018 RMK MADISHF
FHR,2017-04-01 09:05,-123.0244,48.5220,M,M,M,0.00,0.00,M,30.19,M,10.00,M,OVC,M,M,M,3600.00,M,M,M,M,KFHR 010905Z AUTO 00000KT 10SM OVC036 A3019 RMK MADISHF
FHR,2017-04-01 09:10,-123.0244,48.5220,M,M,M,300.00,3.00,M,30.19,M,9.00,M,OVC,M,M,M,3600.00,M,M,M,-RA,KFHR 010910Z AUTO 30003KT 9SM -RA OVC036 A3019 RMK VRB03KT  MADISHF
FHR,2017-04-01 09:15,-123.0244,48.5220,M,M,M,0.00,0.00,M,30.18,M,10.00,M,OVC,M,M,M,3600.00,M,M,M,-RA,KFHR 010915Z AUTO 00000KT 10SM -RA OVC036 A3018 RMK MADISHF
FHR,2017-04-01 09:20,-123.0244,48.5220,M,M,M,310.00,3.00,M,30.18,M,10.00,M,OVC,M,M,M,3600.00,M,M,M,-RA,KFHR 010920Z AUTO 31003KT 10SM -RA OVC036 A3018 RMK MADISHF
FHR,2017-04-01 09:25,-123.0244,48.5220,M,M,M,300.00,4.00,M,30.19,M,10.00,M,OVC,M,M,M,3600.00,M,M,M,-RA,KFHR 010925Z AUTO 30004KT 10SM -RA OVC036 A3019 RMK MADISHF
FHR,2017-04-01 09:30,-123.0244,48.5220,M,M,M,310.00,4.00,M,30.19,M,10.00,M,OVC,M,M,M,3600.00,M,M,M,-RA,KFHR 010930Z AUTO 31004KT 10SM -RA OVC036 A3019 RMK MADISHF
FHR,2017-04-01 09:35,-123.0244,48.5220,M,M,M,320.00,3.00,M,30.19,M,10.00,M,OVC,M,M,M,3600.00,M,M,M,-RA,KFHR 010935Z AUTO 32003KT 10SM -RA OVC036 A3019 RMK VRB03KT  MADISHF
FHR,2017-04-01 09:40,-123.0244,48.5220,M,M,M,0.00,0.00,M,30.19,M,10.00,M,OVC,M,M,M,3600.00,M,M,M,-RA,KFHR 010940Z AUTO 00000KT 10SM -RA OVC036 A3019 RMK MADISHF
FHR,2017-04-01 09:45,-123.0244,48.5220,M,M,M,340.00,3.00,M,30.19,M,7.00,M,FEW,BKN,OVC,M,1999.00,3600.00,4900.00,M,-RA,KFHR 010945Z AUTO 34003KT 7SM -RA FEW019 BKN036 OVC049 A3019 RMK MADISHF
FHR,2017-04-01 09:50,-123.0244,48.5220,M,M,M,0.00,0.00,M,30.19,M,5.00,M,FEW,BKN,OVC,M,1999.00,3800.00,4900.00,M,-RA BR,KFHR 010950Z AUTO 00000KT 5SM -RA BR FEW019 BKN038 OVC049 A3019 RMK MADISHF
FHR,2017-04-01 09:53,-123.0244,48.5220,46.00,44.10,93.03,0.00,0.00,0.00,30.18,1022.00,4.00,M,BKN,OVC,M,M,3800.00,4900.00,M,M,-RA BR,KFHR 010953Z AUTO 00000KT 4SM -RA BR BKN038 OVC049 08/07 A3018 RMK AO2 SLP220 P0000 T00780067 TSNO
FHR,2017-04-01 09:55,-123.0244,48.5220,M,M,M,0.00,0.00,M,30.18,M,4.00,M,SCT,OVC,M,M,3600.00,4600.00,M,M,-RA BR,KFHR 010955Z AUTO 00000KT 4SM -RA BR SCT036 OVC046 A3018 RMK MADISHF
FHR,2017-04-01 10:00,-123.0244,48.5220,M,M,M,60.00,3.00,M,30.17,M,4.00,M,FEW,OVC,M,M,3600.00,4900.00,M,M,-RA BR,KFHR 011000Z AUTO 06003KT 4SM -RA BR FEW036 OVC049 A3017 RMK MADISHF
FHR,2017-04-01 10:05,-123.0244,48.5220,M,M,M,80.00,3.00,M,30.17,M,4.00,M,FEW,BKN,OVC,M,3399.00,4900.00,6500.00,M,-RA BR,KFHR 011005Z AUTO 08003KT 4SM -RA BR FEW033 BKN049 OVC065 A3017 RMK MADISHF
FHR,2017-04-01 10:10,-123.0244,48.5220,M,M,M,0.00,0.00,M,30.17,M,5.00,M,BKN,OVC,M,M,5000.00,6500.00,M,M,-RA BR,KFHR 011010Z AUTO 00000KT 5SM -RA BR BKN050 OVC065 A3017 RMK MADISHF
FHR,2017-04-01 10:15,-123.0244,48.5220,M,M,M,0.00,0.00,M,30.17,M,6.00,M,BKN,OVC,M,M,5000.00,7000.00,M,M,-RA BR,KFHR 011015Z AUTO 00000KT 6SM -RA BR BKN050 OVC070 A3017 RMK MADISHF
FHR,2017-04-01 10:20,-123.0244,48.5220,M,M,M,0.00,0.00,M,30.17,M,7.00,M,SCT,BKN,OVC,M,4600.00,5500.00,7000.00,M,-RA,KFHR 011020Z AUTO 00000KT 7SM -RA SCT046 BKN055 OVC070 A3017 RMK MADISHF
FHR,2017-04-01 10:25,-123.0244,48.5220,M,M,M,0.00,0.00,M,30.17,M,7.00,M,BKN,OVC,M,M,4600.00,6000.00,M,M,-RA,KFHR 011025Z AUTO 00000KT 7SM -RA BKN046 OVC060 A3017 RMK MADISHF
FHR,2017-04-01 10:30,-123.0244,48.5220,M,M,M,0.00,0.00,M,30.17,M,8.00,M,BKN,BKN,OVC,M,4400.00,5500.00,7000.00,M,-RA,KFHR 011030Z AUTO 00000KT 8SM -RA BKN044 BKN055 OVC070 A3017 RMK MADISHF
FHR,2017-04-01 10:35,-123.0244,48.5220,M,M,M,30.00,3.00,M,30.16,M,7.00,M,OVC,M,M,M,4600.00,M,M,M,-RA,KFHR 011035Z AUTO 03003KT 7SM -RA OVC046 A3016 RMK MADISHF
FHR,2017-04-01 10:40,-123.0244,48.5220,M,M,M,0.00,0.00,M,30.17,M,7.00,M,OVC,M,M,M,4600.00,M,M,M,-RA,KFHR 011040Z AUTO 00000KT 7SM -RA OVC046 A3017 RMK MADISHF
FHR,2017-04-01 10:45,-123.0244,48.5220,M,M,M,0.00,0.00,M,30.17,M,7.00,M,FEW,OVC,M,M,3100.00,4400.00,M,M,-RA,KFHR 011045Z AUTO 00000KT 7SM -RA FEW031 OVC044 A3017 RMK MADISHF
FHR,2017-04-01 10:50,-123.0244,48.5220,M,M,M,0.00,0.00,M,30.16,M,7.00,M,FEW,OVC,M,M,3100.00,4400.00,M,M,-RA,KFHR 011050Z AUTO 00000KT 7SM -RA FEW031 OVC044 A3016 RMK MADISHF
FHR,2017-04-01 10:53,-123.0244,48.5220,46.00,45.00,96.28,0.00,0.00,0.00,30.16,1021.20,8.00,M,FEW,OVC,M,M,3100.00,4200.00,M,M,-RA,KFHR 011053Z AUTO 00000KT 8SM -RA FEW031 OVC042 08/07 A3016 RMK AO2 SLP212 P0000 T00780072 TSNO
FHR,2017-04-01 10:55,-123.0244,48.5220,M,M,M,0.00,0.00,M,30.16,M,8.00,M,OVC,M,M,M,4200.00,M,M,M,-RA,KFHR 011055Z AUTO 00000KT 8SM -RA OVC042 A3016 RMK MADISHF
FHR,2017-04-01 11:00,-123.0244,48.5220,M,M,M,0.00,0.00,M,30.16,M,8.00,M,FEW,OVC,M,M,3000.00,4200.00,M,M,-RA,KFHR 011100Z AUTO 00000KT 8SM -RA FEW030 OVC042 A3016 RMK MADISHF
FHR,2017-04-01 11:05,-123.0244,48.5220,M,M,M,0.00,0.00,M,30.16,M,7.00,M,SCT,OVC,M,M,3000.00,4200.00,M,M,-RA,KFHR 011105Z AUTO 00000KT 7SM -RA SCT030 OVC042 A3016 RMK MADISHF
FHR,2017-04-01 11:10,-123.0244,48.5220,M,M,M,0.00,0.00,M,30.16,M,7.00,M,SCT,OVC,M,M,3000.00,4200.00,M,M,-RA,KFHR 011110Z AUTO 00000KT 7SM -RA SCT030 OVC042 A3016 RMK MADISHF
FHR,2017-04-01 11:15,-123.0244,48.5220,M,M,M,0.00,0.00,M,30.15,M,7.00,M,FEW,OVC,M,M,3000.00,4100.00,M,M,-RA,KFHR 011115Z AUTO 00000KT 7SM -RA FEW030 OVC041 A3015 RMK MADISHF
FHR,2017-04-01 11:20,-123.0244,48.5220,M,M,M,0.00,0.00,M,30.15,M,7.00,M,FEW,OVC,M,M,3000.00,4300.00,M,M,-RA,KFHR 011120Z AUTO 00000KT 7SM -RA FEW030 OVC043 A3015 RMK MADISHF
FHR,2017-04-01 11:25,-123.0244,48.5220,M,M,M,0.00,0.00,M,30.15,M,8.00,M,FEW,OVC,M,M,3000.00,4300.00,M,M,-RA,KFHR 011125Z AUTO 00000KT 8SM -RA FEW030 OVC043 A3015 RMK MADISHF
FHR,2017-04-01 11:30,-123.0244,48.5220,M,M,M,0.00,0.00,M,30.14,M,8.00,M,FEW,OVC,M,M,2900.00,4300.00,M,M,-RA,KFHR 011130Z AUTO 00000KT 8SM -RA FEW029 OVC043 A3014 RMK MADISHF
FHR,2017-04-01 11:35,-123.0244,48.5220,M,M,M,0.00,0.00,M,30.15,M,8.00,M,OVC,M,M,M,4300.00,M,M,M,-RA,KFHR 011135Z AUTO 00000KT 8SM -RA OVC043 A3015 RMK MADISHF
FHR,2017-04-01 11:40,-123.0244,48.5220,M,M,M,0.00,0.00,M,30.15,M,7.00,M,OVC,M,M,M,4300.00,M,M,M,-RA,KFHR 011140Z AUTO 00000KT 7SM -RA OVC043 A3015 RMK MADISHF
FHR,2017-04-01 11:45,-123.0244,48.5220,M,M,M,0.00,0.00,M,30.15,M,8.00,M,OVC,M,M,M,4200.00,M,M,M,-RA,KFHR 011145Z AUTO 00000KT 8SM -RA OVC042 A3015 RMK MADISHF
FHR,2017-04-01 11:50,-123.0244,48.5220,M,M,M,300.00,3.00,M,30.16,M,10.00,M,FEW,OVC,M,M,2200.00,3999.00,M,M,-RA,KFHR 011150Z AUTO 30003KT 10SM -RA FEW022 OVC039 A3016 RMK MADISHF
FHR,2017-04-01 11:53,-123.0244,48.5220,46.00,44.10,93.03,290.00,4.00,0.00,30.16,1021.40,10.00,M,SCT,OVC,M,M,2200.00,4000.00,M,M,-RA,KFHR 011153Z AUTO 29004KT 10SM -RA SCT022 OVC040 08/07 A3016 RMK AO2 SLP214 P0000 60000 T00780067 10083 20072 55008 TSNO
FHR,2017-04-01 11:55,-123.0244,48.5220,M,M,M,290.00,4.00,M,30.16,M,10.00,M,SCT,OVC,M,M,2200.00,3999.00,M,M,-RA,KFHR 011155Z AUTO 29004KT 10SM -RA SCT022 OVC039 A3016 RMK MADISHF
FHR,2017-04-01 12:00,-123.0244,48.5220,M,M,M,300.00,4.00,M,30.16,M,10.00,M,BKN,OVC,M,M,2200.00,3999.00,M,M,-RA,KFHR 011200Z AUTO 30004KT 10SM -RA BKN022 OVC039 A3016 RMK MADISHF
FHR,2017-04-01 12:03,-123.0244,48.5220,46.00,45.00,96.28,310.00,3.00,0.00,30.16,M,10.00,M,BKN,OVC,M,M,2200.00,4000.00,M,M,-RA,KFHR 011203Z AUTO 31003KT 10SM -RA BKN022 OVC040 08/07 A3016 RMK AO2 P0000 T00780072 TSNO
FHR,2017-04-01 12:05,-123.0244,48.5220,M,M,M,0.00,0.00,M,30.16,M,10.00,M,BKN,OVC,M,M,2200.00,3800.00,M,M,-RA,KFHR 011205Z AUTO 00000KT 10SM -RA BKN022 OVC038 A3016 RMK MADISHF
FHR,2017-04-01 12:10,-123.0244,48.5220,M,M,M,320.00,3.00,M,30.16,M,7.00,M,BKN,OVC,M,M,2200.00,3800.00,M,M,-RA,KFHR 011210Z AUTO 32003KT 7SM -RA BKN022 OVC038 A3016 RMK MADISHF
FHR,2017-04-01 12:15,-123.0244,48.5220,M,M,M,0.00,0.00,M,30.16,M,4.00,M,OVC,M,M,M,2200.00,M,M,M,-RA BR,KFHR 011215Z AUTO 00000KT 4SM -RA BR OVC022 A3016 RMK MADISHF
FHR,2017-04-01 12:20,-123.0244,48.5220,M,M,M,0.00,0.00,M,30.16,M,2.50,M,OVC,M,M,M,2200.00,M,M,M,RA BR,KFHR 011220Z AUTO 00000KT 2 1/2SM RA BR OVC022 A3016 RMK MADISHF
FHR,2017-04-01 12:25,-123.0244,48.5220,46.00,45.00,96.28,0.00,0.00,0.00,30.16,M,2.50,M,OVC,M,M,M,2200.00,M,M,M,-RA BR,KFHR 011225Z AUTO 00000KT 2 1/2SM -RA BR OVC022 08/07 A3016 RMK AO2 P0000 T00780072 TSNO
FHR,2017-04-01 12:30,-123.0244,48.5220,M,M,M,0.00,0.00,0.01,30.16,M,3.00,M,OVC,M,M,M,2200.00,M,M,M,-RA BR,KFHR 011230Z AUTO 00000KT 3SM -RA BR OVC022 A3016 RMK P0001 MADISHF
FHR,2017-04-01 12:35,-123.0244,48.5220,M,M,M,20.00,3.00,0.01,30.15,M,3.00,M,OVC,M,M,M,2200.00,M,M,M,-RA BR,KFHR 011235Z AUTO 02003KT 3SM -RA BR OVC022 A3015 RMK P0001 MADISHF
FHR,2017-04-01 12:36,-123.0244,48.5220,46.00,45.00,96.28,10.00,3.00,0.01,30.15,M,3.00,M,OVC,M,M,M,2200.00,M,M,M,-RA BR,KFHR 011236Z AUTO 01003KT 3SM -RA BR OVC022 08/07 A3015 RMK AO2 P0001 T00780072 TSNO
FHR,2017-04-01 12:40,-123.0244,48.5220,M,M,M,0.00,0.00,0.01,30.15,M,3.50,M,OVC,M,M,M,2200.00,M,M,M,-RA BR,KFHR 011240Z AUTO 00000KT 3SM -RA BR OVC022 A3015 RMK P0001 MADISHF
FHR,2017-04-01 12:45,-123.0244,48.5220,M,M,M,0.00,0.00,0.01,30.15,M,4.00,M,OVC,M,M,M,2400.00,M,M,M,-RA BR,KFHR 011245Z AUTO 00000KT 4SM -RA BR OVC024 A3015 RMK P0001 MADISHF
FHR,2017-04-01 12:50,-123.0244,48.5220,M,M,M,0.00,0.00,0.01,30.16,M,4.00,M,FEW,BKN,OVC,M,800.00,2400.00,3399.00,M,-RA BR,KFHR 011250Z AUTO 00000KT 4SM -RA BR FEW008 BKN024 OVC033 A3016 RMK P0001 MADISHF
FHR,2017-04-01 12:53,-123.0244,48.5220,46.00,45.00,96.28,0.00,0.00,0.01,30.16,1021.20,4.00,M,FEW,BKN,OVC,M,800.00,2400.00,3400.00,M,-RA BR,KFHR 011253Z AUTO 00000KT 4SM -RA BR FEW008 BKN024 OVC034 08/07 A3016 RMK AO2 SLP212 P0001 T00780072 TSNO
FHR,2017-04-01 12:55,-123.0244,48.5220,M,M,M,0.00,0.00,M,30.16,M,4.00,M,FEW,BKN,OVC,M,800.00,2400.00,3600.00,M,-RA BR,KFHR 011255Z AUTO 00000KT 4SM -RA BR FEW008 BKN024 OVC036 A3016 RMK MADISHF
FHR,2017-04-01 13:00,-123.0244,48.5220,M,M,M,0.00,0.00,M,30.16,M,4.00,M,BKN,BKN,OVC,M,2400.00,3200.00,3900.00,M,-RA BR,KFHR 011300Z AUTO 00000KT 4SM -RA BR BKN024 BKN032 OVC039 A3016 RMK MADISHF
FHR,2017-04-01 13:05,-123.0244,48.5220,M,M,M,0.00,0.00,M,30.16,M,5.00,M,BKN,BKN,OVC,M,2200.00,3200.00,3900.00,M,-RA BR,KFHR 011305Z AUTO 00000KT 5SM -RA BR BKN022 BKN032 OVC039 A3016 RMK MADISHF
FHR,2017-04-01 13:10,-123.0244,48.5220,M,M,M,0.00,0.00,M,30.16,M,5.00,M,BKN,BKN,OVC,M,2200.00,2700.00,3900.00,M,-RA BR,KFHR 011310Z AUTO 00000KT 5SM -RA BR BKN022 BKN027 OVC039 A3016 RMK MADISHF
FHR,2017-04-01 13:15,-123.0244,48.5220,M,M,M,0.00,0.00,M,30.16,M,4.00,M,BKN,BKN,OVC,M,1999.00,3300.00,3999.00,M,-RA BR,KFHR 011315Z AUTO 00000KT 4SM -RA BR BKN019 BKN033 OVC039 A3016 RMK MADISHF
FHR,2017-04-01 13:20,-123.0244,48.5220,M,M,M,0.00,0.00,M,30.16,M,3.00,M,OVC,M,M,M,1999.00,M,M,M,-RA BR,KFHR 011320Z AUTO 00000KT 3SM -RA BR OVC019 A3016 RMK MADISHF
FHR,2017-04-01 13:25,-123.0244,48.5220,M,M,M,0.00,0.00,M,30.16,M,2.50,M,OVC,M,M,M,1999.00,M,M,M,-RA BR,KFHR 011325Z AUTO 00000KT 2 1/2SM -RA BR OVC019 A3016 RMK MADISHF
FHR,2017-04-01 13:30,-123.0244,48.5220,M,M,M,0.00,0.00,M,30.16,M,2.50,M,BKN,BKN,OVC,M,1999.00,2400.00,3800.00,M,-RA BR,KFHR 011330Z AUTO 00000KT 2 1/2SM -RA BR BKN019 BKN024 OVC038 A3016 RMK MADISHF
FHR,2017-04-01 13:35,-123.0244,48.5220,M,M,M,0.00,0.00,M,30.17,M,3.00,M,BKN,BKN,OVC,M,1900.00,3000.00,3800.00,M,-RA BR,KFHR 011335Z AUTO 00000KT 3SM -RA BR BKN019 BKN030 OVC038 A3017 RMK MADISHF
FHR,2017-04-01 13:40,-123.0244,48.5220,M,M,M,0.00,0.00,M,30.17,M,4.00,M,SCT,OVC,M,M,1900.00,3399.00,M,M,-RA BR,KFHR 011340Z AUTO 00000KT 4SM -RA BR SCT019 OVC033 A3017 RMK MADISHF
FHR,2017-04-01 13:45,-123.0244,48.5220,M,M,M,0.00,0.00,M,30.16,M,3.50,M,FEW,OVC,M,M,1900.00,3399.00,M,M,-RA BR,KFHR 011345Z AUTO 00000KT 3SM -RA BR FEW019 OVC033 A3016 RMK MADISHF
FHR,2017-04-01 13:46,-123.0244,48.5220,46.00,45.00,96.28,0.00,0.00,0.00,30.16,M,3.00,M,FEW,BKN,OVC,M,1900.00,3400.00,4400.00,M,-RA BR,KFHR 011346Z AUTO 00000KT 3SM -RA BR FEW019 BKN034 OVC044 08/07 A3016 RMK AO2 P0000 T00780072 TSNO
FHR,2017-04-01 13:50,-123.0244,48.5220,M,M,M,110.00,3.00,M,30.16,M,3.00,M,FEW,BKN,OVC,M,1900.00,3800.00,4400.00,M,-RA BR,KFHR 011350Z AUTO 11003KT 3SM -RA BR FEW019 BKN038 OVC044 A3016 RMK MADISHF
FHR,2017-04-01 13:53,-123.0244,48.5220,46.00,45.00,96.28,0.00,0.00,0.00,30.16,1021.40,3.00,M,FEW,SCT,OVC,M,1900.00,3500.00,4200.00,M,-RA BR,KFHR 011353Z AUTO 00000KT 3SM -RA BR FEW019 SCT035 OVC042 08/07 A3016 RMK AO2 SLP214 P0000 T00780072 TSNO
FHR,2017-04-01 13:55,-123.0244,48.5220,M,M,M,0.00,0.00,M,30.16,M,3.00,M,FEW,SCT,OVC,M,300.00,3500.00,4200.00,M,-RA BR,KFHR 011355Z AUTO 00000KT 3SM -RA BR FEW003 SCT035 OVC042 A3016 RMK MADISHF
FHR,2017-04-01 14:00,-123.0244,48.5220,46.00,45.00,96.28,0.00,0.00,0.00,30.17,M,3.00,M,FEW,FEW,OVC,M,300.00,1900.00,4000.00,M,-RA BR,KFHR 011400Z AUTO 00000KT 3SM -RA BR FEW003 FEW019 OVC040 08/07 A3017 RMK AO2 P0000 T00780072 TSNO
FHR,2017-04-01 14:05,-123.0244,48.5220,M,M,M,0.00,0.00,M,30.17,M,3.00,M,FEW,SCT,OVC,M,300.00,3399.00,3999.00,M,-RA BR,KFHR 011405Z AUTO 00000KT 3SM -RA BR FEW003 SCT033 OVC039 A3017 RMK MADISHF
FHR,2017-04-01 14:10,-123.0244,48.5220,M,M,M,0.00,0.00,M,30.17,M,4.00,M,FEW,SCT,OVC,M,300.00,1400.00,4200.00,M,-RA BR,KFHR 011410Z AUTO 00000KT 4SM -RA BR FEW003 SCT014 OVC042 A3017 RMK MADISHF
FHR,2017-04-01 14:15,-123.0244,48.5220,M,M,M,0.00,0.00,M,30.17,M,4.00,M,FEW,BKN,OVC,M,400.00,1400.00,4200.00,M,-RA BR,KFHR 011415Z AUTO 00000KT 4SM -RA BR FEW004 BKN014 OVC042 A3017 RMK MADISHF
FHR,2017-04-01 14:17,-123.0244,48.5220,46.00,45.00,96.28,0.00,0.00,0.00,30.17,M,4.00,M,FEW,BKN,OVC,M,400.00,1300.00,4200.00,M,-RA BR,KFHR 011417Z AUTO 00000KT 4SM -RA BR FEW004 BKN013 OVC042 08/07 A3017 RMK AO2 P0000 T00780072 TSNO
FHR,2017-04-01 14:20,-123.0244,48.5220,M,M,M,0.00,0.00,M,30.17,M,3.00,M,BKN,OVC,M,M,1300.00,3999.00,M,M,-RA BR,KFHR 011420Z AUTO 00000KT 3SM -RA BR BKN013 OVC039 A3017 RMK MADISHF
FHR,2017-04-01 14:25,-123.0244,48.5220,M,M,M,0.00,0.00,M,30.17,M,3.50,M,BKN,OVC,M,M,1300.00,3999.00,M,M,-RA BR,KFHR 011425Z AUTO 00000KT 3SM -RA BR BKN013 OVC039 A3017 RMK MADISHF
FHR,2017-04-01 14:30,-123.0244,48.5220,M,M,M,0.00,0.00,M,30.17,M,5.00,M,BKN,OVC,M,M,1300.00,3999.00,M,M,-RA BR,KFHR 011430Z AUTO 00000KT 5SM -RA BR BKN013 OVC039 A3017 RMK MADISHF
FHR,2017-04-01 14:35,-123.0244,48.5220,M,M,M,330.00,3.00,M,30.17,M,6.00,M,OVC,M,M,M,1300.00,M,M,M,-RA BR,KFHR 011435Z AUTO 33003KT 6SM -RA BR OVC013 A3017 RMK MADISHF
FHR,2017-04-01 14:40,-123.0244,48.5220,M,M,M,0.00,0.00,M,30.17,M,6.00,M,OVC,M,M,M,1300.00,M,M,M,-RA BR,KFHR 011440Z AUTO 00000KT 6SM -RA BR OVC013 A3017 RMK MADISHF
FHR,2017-04-01 14:45,-123.0244,48.5220,M,M,M,0.00,0.00,M,30.17,M,6.00,M,BKN,OVC,M,M,1300.00,3700.00,M,M,-RA BR,KFHR 011445Z AUTO 00000KT 6SM -RA BR BKN013 OVC037 A3017 RMK MADISHF
FHR,2017-04-01 14:50,-123.0244,48.5220,M,M,M,0.00,0.00,M,30.17,M,5.00,M,BKN,OVC,M,M,1300.00,3700.00,M,M,-RA BR,KFHR 011450Z AUTO 00000KT 5SM -RA BR BKN013 OVC037 A3017 RMK MADISHF
FHR,2017-04-01 14:53,-123.0244,48.5220,46.00,45.00,96.28,0.00,0.00,0.00,30.17,1021.70,5.00,M,OVC,M,M,M,1300.00,M,M,M,-RA BR,KFHR 011453Z AUTO 00000KT 5SM -RA BR OVC013 08/07 A3017 RMK AO2 SLP217 P0000 60001 T00780072 53005 TSNO
FHR,2017-04-01 14:55,-123.0244,48.5220,M,M,M,0.00,0.00,M,30.17,M,4.00,M,OVC,M,M,M,1300.00,M,M,M,-RA BR,KFHR 011455Z AUTO 00000KT 4SM -RA BR OVC013 A3017 RMK MADISHF
FHR,2017-04-01 15:00,-123.0244,48.5220,M,M,M,0.00,0.00,M,30.18,M,4.00,M,OVC,M,M,M,1200.00,M,M,M,-RA BR,KFHR 011500Z AUTO 00000KT 4SM -RA BR OVC012 A3018 RMK MADISHF
FHR,2017-04-01 15:05,-123.0244,48.5220,M,M,M,0.00,0.00,M,30.18,M,4.00,M,OVC,M,M,M,1200.00,M,M,M,-RA BR,KFHR 011505Z AUTO 00000KT 4SM -RA BR OVC012 A3018 RMK MADISHF
FHR,2017-04-01 15:10,-123.0244,48.5220,M,M,M,0.00,0.00,M,30.18,M,4.00,M,OVC,M,M,M,1200.00,M,M,M,-RA BR,KFHR 011510Z AUTO 00000KT 4SM -RA BR OVC012 A3018 RMK MADISHF
FHR,2017-04-01 15:15,-123.0244,48.5220,M,M,M,0.00,0.00,M,30.18,M,5.00,M,BKN,OVC,M,M,1200.00,2900.00,M,M,-RA BR,KFHR 011515Z AUTO 00000KT 5SM -RA BR BKN012 OVC029 A3018 RMK MADISHF
FHR,2017-04-01 15:20,-123.0244,48.5220,M,M,M,40.00,3.00,M,30.18,M,5.00,M,BKN,OVC,M,M,1200.00,2900.00,M,M,-RA BR,KFHR 011520Z AUTO 04003KT 5SM -RA BR BKN012 OVC029 A3018 RMK MADISHF
FHR,2017-04-01 15:25,-123.0244,48.5220,M,M,M,0.00,0.00,M,30.18,M,5.00,M,BKN,OVC,M,M,1200.00,3100.00,M,M,-RA BR,KFHR 011525Z AUTO 00000KT 5SM -RA BR BKN012 OVC031 A3018 RMK MADISHF
FHR,2017-04-01 15:30,-123.0244,48.5220,M,M,M,0.00,0.00,M,30.18,M,5.00,M,FEW,SCT,OVC,M,999.00,1500.00,2900.00,M,-RA BR,KFHR 011530Z AUTO 00000KT 5SM -RA BR FEW009 SCT015 OVC029 A3018 RMK MADISHF
FHR,2017-04-01 15:32,-123.0244,48.5220,46.90,46.00,96.66,0.00,0.00,0.00,30.18,M,6.00,M,FEW,SCT,OVC,M,1000.00,1500.00,2900.00,M,BR,KFHR 011532Z AUTO 00000KT 6SM BR FEW010 SCT015 OVC029 08/08 A3018 RMK AO2 RAE32 P0000 T00830078 TSNO
FHR,2017-04-01 15:35,-123.0244,48.5220,M,M,M,0.00,0.00,M,30.18,M,6.00,M,FEW,OVC,M,M,1500.00,2900.00,M,M,BR,KFHR 011535Z AUTO 00000KT 6SM BR FEW015 OVC029 A3018 RMK MADISHF
FHR,2017-04-01 15:40,-123.0244,48.5220,M,M,M,0.00,0.00,M,30.19,M,6.00,M,FEW,OVC,M,M,1500.00,2900.00,M,M,BR,KFHR 011540Z AUTO 00000KT 6SM BR FEW015 OVC029 A3019 RMK MADISHF
FHR,2017-04-01 15:45,-123.0244,48.5220,M,M,M,0.00,0.00,M,30.19,M,6.00,M,FEW,OVC,M,M,1500.00,2700.00,M,M,BR,KFHR 011545Z AUTO 00000KT 6SM BR FEW015 OVC027 A3019 RMK MADISHF
FHR,2017-04-01 15:50,-123.0244,48.5220,M,M,M,0.00,0.00,M,30.19,M,7.00,M,SCT,OVC,M,M,2200.00,2700.00,M,M,M,KFHR 011550Z AUTO 00000KT 7SM SCT022 OVC027 A3019 RMK MADISHF
FHR,2017-04-01 15:53,-123.0244,48.5220,46.90,46.00,96.66,0.00,0.00,0.00,30.19,1022.30,7.00,M,SCT,OVC,M,M,2200.00,2700.00,M,M,M,KFHR 011553Z AUTO 00000KT 7SM SCT022 OVC027 08/08 A3019 RMK AO2 RAE32 SLP223 P0000 T00830078 TSNO
FHR,2017-04-01 15:55,-123.0244,48.5220,M,M,M,0.00,0.00,M,30.19,M,7.00,M,SCT,OVC,M,M,2200.00,2700.00,M,M,M,KFHR 011555Z AUTO 00000KT 7SM SCT022 OVC027 A3019 RMK MADISHF
FHR,2017-04-01 16:00,-123.0244,48.5220,M,M,M,0.00,0.00,M,30.19,M,7.00,M,OVC,M,M,M,2400.00,M,M,M,M,KFHR 011600Z AUTO 00000KT 7SM OVC024 A3019 RMK MADISHF
FHR,2017-04-01 16:05,-123.0244,48.5220,M,M,M,0.00,0.00,M,30.19,M,8.00,M,BKN,OVC,M,M,2400.00,2800.00,M,M,M,KFHR 011605Z AUTO 00000KT 8SM BKN024 OVC028 A3019 RMK MADISHF
FHR,2017-04-01 16:10,-123.0244,48.5220,M,M,M,200.00,3.00,M,30.19,M,9.00,M,SCT,SCT,OVC,M,400.00,1999.00,2600.00,M,M,KFHR 011610Z AUTO 20003KT 9SM SCT004 SCT019 OVC026 A3019 RMK MADISHF
FHR,2017-04-01 16:12,-123.0244,48.5220,46.90,46.00,96.66,0.00,0.00,0.00,30.19,M,8.00,M,SCT,BKN,OVC,M,400.00,2000.00,2600.00,M,M,KFHR 011612Z AUTO 00000KT 8SM SCT004 BKN020 OVC026 08/08 A3019 RMK AO2 T00830078 TSNO
FHR,2017-04-01 16:15,-123.0244,48.5220,M,M,M,0.00,0.00,M,30.19,M,8.00,M,SCT,BKN,OVC,M,400.00,2200.00,2600.00,M,M,KFHR 011615Z AUTO 00000KT 8SM SCT004 BKN022 OVC026 A3019 RMK MADISHF
FHR,2017-04-01 16:20,-123.0244,48.5220,M,M,M,0.00,0.00,M,30.19,M,7.00,M,SCT,OVC,M,M,300.00,2600.00,M,M,M,KFHR 011620Z AUTO 00000KT 7SM SCT003 OVC026 A3019 RMK MADISHF
FHR,2017-04-01 16:25,-123.0244,48.5220,M,M,M,0.00,0.00,M,30.20,M,7.00,M,BKN,BKN,OVC,M,300.00,1999.00,2600.00,M,M,KFHR 011625Z AUTO 00000KT 7SM BKN003 BKN019 OVC026 A3020 RMK MADISHF
FHR,2017-04-01 16:28,-123.0244,48.5220,46.90,46.00,96.66,0.00,0.00,0.00,30.20,M,7.00,M,BKN,BKN,OVC,M,400.00,2000.00,2600.00,M,M,KFHR 011628Z AUTO 00000KT 7SM BKN004 BKN020 OVC026 08/08 A3020 RMK AO2 T00830078 TSNO
FHR,2017-04-01 16:30,-123.0244,48.5220,M,M,M,0.00,0.00,M,30.20,M,7.00,M,BKN,OVC,M,M,400.00,2400.00,M,M,M,KFHR 011630Z AUTO 00000KT 7SM BKN004 OVC024 A3020 RMK MADISHF
FHR,2017-04-01 16:35,-123.0244,48.5220,M,M,M,0.00,0.00,M,30.20,M,8.00,M,OVC,M,M,M,400.00,M,M,M,M,KFHR 011635Z AUTO 00000KT 8SM OVC004 A3020 RMK MADISHF
FHR,2017-04-01 16:40,-123.0244,48.5220,M,M,M,120.00,3.00,M,30.20,M,9.00,M,BKN,OVC,M,M,400.00,2300.00,M,M,M,KFHR 011640Z AUTO 12003KT 9SM BKN004 OVC023 A3020 RMK MADISHF
FHR,2017-04-01 16:45,-123.0244,48.5220,M,M,M,0.00,0.00,M,30.20,M,9.00,M,BKN,OVC,M,M,400.00,2100.00,M,M,M,KFHR 011645Z AUTO 00000KT 9SM BKN004 OVC021 A3020 RMK MADISHF
FHR,2017-04-01 16:50,-123.0244,48.5220,M,M,M,130.00,3.00,M,30.20,M,9.00,M,BKN,OVC,M,M,400.00,2100.00,M,M,M,KFHR 011650Z AUTO 13003KT 9SM BKN004 OVC021 A3020 RMK MADISHF
FHR,2017-04-01 16:53,-123.0244,48.5220,46.90,46.00,96.66,130.00,4.00,0.00,30.20,1022.60,8.00,M,BKN,OVC,M,M,400.00,2100.00,M,M,M,KFHR 011653Z AUTO 13004KT 8SM BKN004 OVC021 08/08 A3020 RMK AO2 SLP226 T00830078 TSNO
FHR,2017-04-01 16:55,-123.0244,48.5220,M,M,M,120.00,4.00,M,30.20,M,8.00,M,BKN,OVC,M,M,400.00,2100.00,M,M,M,KFHR 011655Z AUTO 12004KT 8SM BKN004 OVC021 A3020 RMK MADISHF
FHR,2017-04-01 17:00,-123.0244,48.5220,M,M,M,140.00,4.00,M,30.20,M,8.00,M,BKN,OVC,M,M,400.00,2300.00,M,M,M,KFHR 011700Z AUTO 14004KT 8SM BKN004 OVC023 A3020 RMK CIG 4V7  MADISHF
FHR,2017-04-01 17:05,-123.0244,48.5220,M,M,M,140.00,3.00,M,30.20,M,8.00,M,BKN,OVC,M,M,499.00,2300.00,M,M,M,KFHR 011705Z AUTO 14003KT 8SM BKN004 OVC023 A3020 RMK CIG 3V7  MADISHF
FHR,2017-04-01 17:10,-123.0244,48.5220,48.00,46.00,92.74,140.00,3.00,0.00,30.21,M,8.00,M,BKN,OVC,M,M,500.00,2300.00,M,M,M,KFHR 011710Z AUTO 14003KT 8SM BKN005 OVC023 09/08 A3021 RMK AO2 T00890078 TSNO
FHR,2017-04-01 17:15,-123.0244,48.5220,M,M,M,140.00,3.00,M,30.21,M,9.00,M,BKN,OVC,M,M,499.00,800.00,M,M,M,KFHR 011715Z AUTO 14003KT 9SM BKN004 OVC008 A3021 RMK CIG 3V7  MADISHF
FHR,2017-04-01 17:20,-123.0244,48.5220,M,M,M,120.00,4.00,M,30.21,M,9.00,M,OVC,M,M,M,499.00,M,M,M,M,KFHR 011720Z AUTO 12004KT 9SM OVC004 A3021 RMK CIG 3V9  MADISHF
FHR,2017-04-01 17:25,-123.0244,48.5220,M,M,M,120.00,5.00,M,30.21,M,10.00,M,OVC,M,M,M,600.00,M,M,M,M,KFHR 011725Z AUTO 12005KT 10SM OVC006 A3021 RMK CIG 3V9  MADISHF
FHR,2017-04-01 17:28,-123.0244,48.5220,48.00,46.00,92.74,130.00,5.00,0.00,30.21,M,10.00,M,OVC,M,M,M,600.00,M,M,M,M,KFHR 011728Z AUTO 13005KT 10SM OVC006 09/08 A3021 RMK AO2 CIG 003V009 T00890078 TSNO
FHR,2017-04-01 17:30,-123.0244,48.5220,M,M,M,120.00,5.00,M,30.21,M,10.00,M,OVC,M,M,M,600.00,M,M,M,M,KFHR 011730Z AUTO 12005KT 10SM OVC006 A3021 RMK CIG 3V9  MADISHF
FHR,2017-04-01 17:35,-123.0244,48.5220,M,M,M,140.00,4.00,M,30.21,M,10.00,M,OVC,M,M,M,600.00,M,M,M,M,KFHR 011735Z AUTO 14004KT 10SM OVC006 A3021 RMK CIG 3V9  MADISHF
FHR,2017-04-01 17:40,-123.0244,48.5220,M,M,M,140.00,4.00,M,30.21,M,10.00,M,OVC,M,M,M,600.00,M,M,M,M,KFHR 011740Z AUTO 14004KT 10SM OVC006 A3021 RMK CIG 4V9  MADISHF
FHR,2017-04-01 17:45,-123.0244,48.5220,M,M,M,160.00,3.00,M,30.22,M,10.00,M,OVC,M,M,M,600.00,M,M,M,M,KFHR 011745Z AUTO 16003KT 10SM OVC006 A3022 RMK CIG 4V11  MADISHF
FHR,2017-04-01 17:50,-123.0244,48.5220,M,M,M,170.00,4.00,M,30.22,M,10.00,M,BKN,OVC,M,M,600.00,999.00,M,M,M,KFHR 011750Z AUTO 17004KT 10SM BKN006 OVC009 A3022 RMK CIG 5V8  MADISHF
FHR,2017-04-01 17:53,-123.0244,48.5220,48.00,46.00,92.74,150.00,4.00,0.00,30.22,1023.20,10.00,M,BKN,OVC,M,M,800.00,2500.00,M,M,M,KFHR 011753Z AUTO 15004KT 10SM BKN008 OVC025 09/08 A3022 RMK AO2 CIG 005V010 SLP232 60001 T00890078 10089 20078 53015 TSNO
FHR,2017-04-01 17:55,-123.0244,48.5220,M,M,M,150.00,4.00,M,30.22,M,10.00,M,BKN,BKN,OVC,M,600.00,999.00,2400.00,M,M,KFHR 011755Z AUTO 15004KT 10SM BKN006 BKN009 OVC024 A3022 RMK CIG 5V8  MADISHF
FHR,2017-04-01 18:00,-123.0244,48.5220,M,M,M,120.00,4.00,M,30.22,M,10.00,M,BKN,OVC,M,M,800.00,2400.00,M,M,M,KFHR 011800Z AUTO 12004KT 10SM BKN008 OVC024 A3022 RMK CIG 5V12  MADISHF
FHR,2017-04-01 18:05,-123.0244,48.5220,M,M,M,0.00,0.00,M,30.22,M,10.00,M,OVC,M,M,M,600.00,M,M,M,M,KFHR 011805Z AUTO 00000KT 10SM OVC006 A3022 RMK CIG 5V12  MADISHF
FHR,2017-04-01 18:10,-123.0244,48.5220,M,M,M,0.00,0.00,M,30.22,M,10.00,M,BKN,OVC,M,M,600.00,999.00,M,M,M,KFHR 011810Z AUTO 00000KT 10SM BKN006 OVC009 A3022 RMK MADISHF
FHR,2017-04-01 18:15,-123.0244,48.5220,M,M,M,0.00,0.00,M,30.22,M,10.00,M,BKN,OVC,M,M,600.00,999.00,M,M,M,KFHR 011815Z AUTO 00000KT 10SM BKN006 OVC009 A3022 RMK MADISHF
FHR,2017-04-01 18:20,-123.0244,48.5220,M,M,M,190.00,4.00,M,30.22,M,10.00,M,OVC,M,M,M,600.00,M,M,M,M,KFHR 011820Z AUTO 19004KT 10SM OVC006 A3022 RMK CIG 5V10  MADISHF
FHR,2017-04-01 18:25,-123.0244,48.5220,M,M,M,200.00,4.00,M,30.22,M,10.00,M,OVC,M,M,M,600.00,M,M,M,M,KFHR 011825Z AUTO 20004KT 10SM OVC006 A3022 RMK MADISHF
FHR,2017-04-01 18:30,-123.0244,48.5220,M,M,M,210.00,5.00,M,30.22,M,10.00,M,OVC,M,M,M,600.00,M,M,M,M,KFHR 011830Z AUTO 21005KT 10SM OVC006 A3022 RMK MADISHF
FHR,2017-04-01 18:35,-123.0244,48.5220,M,M,M,170.00,3.00,M,30.22,M,10.00,M,OVC,M,M,M,600.00,M,M,M,M,KFHR 011835Z AUTO 17003KT 10SM OVC006 A3022 RMK CIG 6V10  MADISHF
FHR,2017-04-01 18:40,-123.0244,48.5220,M,M,M,200.00,5.00,M,30.23,M,10.00,M,BKN,OVC,M,M,800.00,1999.00,M,M,M,KFHR 011840Z AUTO 20005KT 10SM BKN008 OVC019 A3023 RMK CIG 6V10  MADISHF
FHR,2017-04-01 18:45,-123.0244,48.5220,M,M,M,190.00,4.00,M,30.23,M,10.00,M,BKN,OVC,M,M,800.00,1999.00,M,M,M,KFHR 011845Z AUTO 19004KT 10SM BKN008 OVC019 A3023 RMK CIG 6V10  MADISHF
FHR,2017-04-01 18:50,-123.0244,48.5220,M,M,M,190.00,5.00,M,30.23,M,10.00,M,BKN,OVC,M,M,700.00,1999.00,M,M,M,KFHR 011850Z AUTO 19005KT 10SM BKN007 OVC019 A3023 RMK CIG 6V10  MADISHF
FHR,2017-04-01 18:53,-123.0244,48.5220,48.90,46.90,92.77,160.00,5.00,0.00,30.23,1023.50,10.00,M,BKN,OVC,M,M,700.00,2000.00,M,M,M,KFHR 011853Z AUTO 16005KT 10SM BKN007 OVC020 09/08 A3023 RMK AO2 CIG 006V010 SLP235 T00940083 TSNO
FHR,2017-04-01 18:55,-123.0244,48.5220,M,M,M,190.00,6.00,M,30.23,M,10.00,M,SCT,OVC,M,M,700.00,1999.00,M,M,M,KFHR 011855Z AUTO 19006KT 10SM SCT007 OVC019 A3023 RMK VRB06KT  MADISHF
FHR,2017-04-01 19:00,-123.0244,48.5220,50.00,46.90,89.04,200.00,4.00,0.00,30.23,M,10.00,M,SCT,OVC,M,M,900.00,2000.00,M,M,M,KFHR 011900Z AUTO 20004KT 10SM SCT009 OVC020 10/08 A3023 RMK AO2 T01000083 TSNO
FHR,2017-04-01 19:05,-123.0244,48.5220,M,M,M,150.00,4.00,M,30.23,M,10.00,M,SCT,OVC,M,M,700.00,1999.00,M,M,M,KFHR 011905Z AUTO 15004KT 10SM SCT007 OVC019 A3023 RMK MADISHF
FHR,2017-04-01 19:10,-123.0244,48.5220,M,M,M,160.00,5.00,M,30.23,M,10.00,M,BKN,OVC,M,M,700.00,1999.00,M,M,M,KFHR 011910Z AUTO 16005KT 10SM BKN007 OVC019 A3023 RMK MADISHF
FHR,2017-04-01 19:14,-123.0244,48.5220,50.00,46.90,89.04,130.00,5.00,0.00,30.23,M,10.00,M,BKN,OVC,M,M,700.00,2000.00,M,M,M,KFHR 011914Z AUTO 13005KT 10SM BKN007 OVC020 10/08 A3023 RMK AO2 T01000083 TSNO
FHR,2017-04-01 19:15,-123.0244,48.5220,M,M,M,130.00,6.00,M,30.23,M,10.00,M,BKN,OVC,M,M,700.00,1999.00,M,M,M,KFHR 011915Z AUTO 13006KT 10SM BKN007 OVC019 A3023 RMK MADISHF
FHR,2017-04-01 19:20,-123.0244,48.5220,M,M,M,130.00,7.00,M,30.23,M,10.00,M,BKN,OVC,M,M,700.00,1999.00,M,M,M,KFHR 011920Z AUTO 13007KT 10SM BKN007 OVC019 A3023 RMK MADISHF
FHR,2017-04-01 19:25,-123.0244,48.5220,M,M,M,130.00,7.00,M,30.23,M,10.00,M,BKN,OVC,M,M,700.00,1800.00,M,M,M,KFHR 011925Z AUTO 13007KT 10SM BKN007 OVC018 A3023 RMK MADISHF
FHR,2017-04-01 19:30,-123.0244,48.5220,M,M,M,140.00,6.00,M,30.23,M,10.00,M,BKN,OVC,M,M,700.00,1800.00,M,M,M,KFHR 011930Z AUTO 14006KT 10SM BKN007 OVC018 A3023 RMK MADISHF
FHR,2017-04-01 19:35,-123.0244,48.5220,M,M,M,140.00,6.00,M,30.23,M,10.00,M,BKN,OVC,M,M,700.00,1600.00,M,M,M,KFHR 011935Z AUTO 14006KT 10SM BKN007 OVC016 A3023 RMK MADISHF
FHR,2017-04-01 19:40,-123.0244,48.5220,M,M,M,140.00,7.00,M,30.24,M,10.00,M,BKN,OVC,M,M,700.00,1600.00,M,M,M,KFHR 011940Z AUTO 14007KT 10SM BKN007 OVC016 A3024 RMK MADISHF
FHR,2017-04-01 19:45,-123.0244,48.5220,M,M,M,130.00,6.00,M,30.24,M,10.00,M,BKN,OVC,M,M,700.00,1600.00,M,M,M,KFHR 011945Z AUTO 13006KT 10SM BKN007 OVC016 A3024 RMK MADISHF
FHR,2017-04-01 19:50,-123.0244,48.5220,M,M,M,130.00,5.00,M,30.24,M,10.00,M,BKN,OVC,M,M,700.00,1600.00,M,M,M,KFHR 011950Z AUTO 13005KT 10SM BKN007 OVC016 A3024 RMK CIG 6V10  MADISHF
FHR,2017-04-01 19:53,-123.0244,48.5220,50.00,46.90,89.04,130.00,7.00,0.00,30.24,1023.90,10.00,M,BKN,OVC,M,M,700.00,1600.00,M,M,M,KFHR 011953Z AUTO 13007KT 10SM BKN007 OVC016 10/08 A3024 RMK AO2 CIG 006V010 SLP239 T01000083 TSNO
FHR,2017-04-01 19:55,-123.0244,48.5220,M,M,M,120.00,6.00,M,30.24,M,10.00,M,BKN,OVC,M,M,700.00,1600.00,M,M,M,KFHR 011955Z AUTO 12006KT 10SM BKN007 OVC016 A3024 RMK CIG 6V13  MADISHF
FHR,2017-04-01 20:00,-123.0244,48.5220,M,M,M,120.00,6.00,M,30.23,M,10.00,M,BKN,BKN,OVC,M,700.00,1100.00,1600.00,M,M,KFHR 012000Z AUTO 12006KT 10SM BKN007 BKN011 OVC016 A3023 RMK MADISHF
FHR,2017-04-01 20:05,-123.0244,48.5220,M,M,M,110.00,7.00,M,30.23,M,10.00,M,BKN,BKN,OVC,M,700.00,1100.00,1800.00,M,M,KFHR 012005Z AUTO 11007KT 10SM BKN007 BKN011 OVC018 A3023 RMK MADISHF
FHR,2017-04-01 20:10,-123.0244,48.5220,M,M,M,110.00,7.00,M,30.23,M,10.00,M,BKN,OVC,M,M,700.00,1600.00,M,M,M,KFHR 012010Z AUTO 11007KT 10SM BKN007 OVC016 A3023 RMK CIG 6V11  MADISHF
FHR,2017-04-01 20:15,-123.0244,48.5220,M,M,M,110.00,7.00,M,30.24,M,10.00,M,BKN,OVC,M,M,900.00,1600.00,M,M,M,KFHR 012015Z AUTO 11007KT 10SM BKN009 OVC016 A3024 RMK CIG 6V12  MADISHF
FHR,2017-04-01 20:20,-123.0244,48.5220,M,M,M,110.00,6.00,M,30.24,M,10.00,M,OVC,M,M,M,900.00,M,M,M,M,KFHR 012020Z AUTO 11006KT 10SM OVC009 A3024 RMK CIG 6V13  MADISHF
FHR,2017-04-01 20:25,-123.0244,48.5220,M,M,M,100.00,6.00,M,30.24,M,10.00,M,BKN,OVC,M,M,900.00,1300.00,M,M,M,KFHR 012025Z AUTO 10006KT 10SM BKN009 OVC013 A3024 RMK MADISHF
FHR,2017-04-01 20:30,-123.0244,48.5220,M,M,M,110.00,6.00,M,30.24,M,10.00,M,OVC,M,M,M,900.00,M,M,M,M,KFHR 012030Z AUTO 11006KT 10SM OVC009 A3024 RMK CIG 7V15  MADISHF
FHR,2017-04-01 20:35,-123.0244,48.5220,M,M,M,100.00,6.00,M,30.24,M,10.00,M,OVC,M,M,M,1100.00,M,M,M,M,KFHR 012035Z AUTO 10006KT 10SM OVC011 A3024 RMK CIG 8V15  MADISHF
FHR,2017-04-01 20:37,-123.0244,48.5220,50.00,46.90,89.04,100.00,6.00,0.00,30.24,M,10.00,M,OVC,M,M,M,1100.00,M,M,M,M,KFHR 012037Z AUTO 10006KT 10SM OVC011 10/08 A3024 RMK AO2 CIG 008V015 T01000083 TSNO
FHR,2017-04-01 20:40,-123.0244,48.5220,M,M,M,90.00,5.00,M,30.24,M,10.00,M,OVC,M,M,M,1100.00,M,M,M,M,KFHR 012040Z AUTO 09005KT 10SM OVC011 A3024 RMK CIG 8V14  MADISHF
FHR,2017-04-01 20:45,-123.0244,48.5220,M,M,M,90.00,5.00,M,30.24,M,10.00,M,BKN,OVC,M,M,999.00,1400.00,M,M,M,KFHR 012045Z AUTO 09005KT 10SM BKN009 OVC014 A3024 RMK CIG 8V12  MADISHF
FHR,2017-04-01 20:50,-123.0244,48.5220,M,M,M,90.00,5.00,M,30.24,M,10.00,M,OVC,M,M,M,999.00,M,M,M,M,KFHR 012050Z AUTO 09005KT 10SM OVC009 A3024 RMK MADISHF
FHR,2017-04-01 20:53,-123.0244,48.5220,50.00,46.90,89.04,90.00,5.00,0.00,30.24,1024.00,10.00,M,OVC,M,M,M,1200.00,M,M,M,M,KFHR 012053Z AUTO 09005KT 10SM OVC012 10/08 A3024 RMK AO2 SLP240 T01000083 51008 TSNO
FHR,2017-04-01 20:55,-123.0244,48.5220,M,M,M,100.00,5.00,M,30.24,M,10.00,M,OVC,M,M,M,1200.00,M,M,M,M,KFHR 012055Z AUTO 10005KT 10SM OVC012 A3024 RMK MADISHF
FHR,2017-04-01 21:00,-123.0244,48.5220,M,M,M,110.00,4.00,M,30.24,M,10.00,M,OVC,M,M,M,1200.00,M,M,M,M,KFHR 012100Z AUTO 11004KT 10SM OVC012 A3024 RMK MADISHF
FHR,2017-04-01 21:05,-123.0244,48.5220,M,M,M,120.00,5.00,M,30.24,M,10.00,M,OVC,M,M,M,1200.00,M,M,M,M,KFHR 012105Z AUTO 12005KT 10SM OVC012 A3024 RMK MADISHF
FHR,2017-04-01 21:10,-123.0244,48.5220,M,M,M,110.00,4.00,M,30.24,M,10.00,M,BKN,OVC,M,M,1400.00,1800.00,M,M,M,KFHR 012110Z AUTO 11004KT 10SM BKN014 OVC018 A3024 RMK MADISHF
FHR,2017-04-01 21:15,-123.0244,48.5220,M,M,M,100.00,4.00,M,30.24,M,10.00,M,OVC,M,M,M,1400.00,M,M,M,M,KFHR 012115Z AUTO 10004KT 10SM OVC014 A3024 RMK MADISHF
FHR,2017-04-01 21:20,-123.0244,48.5220,M,M,M,110.00,5.00,M,30.24,M,10.00,M,OVC,M,M,M,1600.00,M,M,M,M,KFHR 012120Z AUTO 11005KT 10SM OVC016 A3024 RMK MADISHF
FHR,2017-04-01 21:22,-123.0244,48.5220,51.10,46.90,85.48,110.00,5.00,0.00,30.24,M,10.00,M,OVC,M,M,M,1600.00,M,M,M,M,KFHR 012122Z AUTO 11005KT 10SM OVC016 11/08 A3024 RMK AO2 T01060083 TSNO
FHR,2017-04-01 21:25,-123.0244,48.5220,M,M,M,110.00,5.00,M,30.24,M,10.00,M,OVC,M,M,M,1600.00,M,M,M,M,KFHR 012125Z AUTO 11005KT 10SM OVC016 A3024 RMK MADISHF
FHR,2017-04-01 21:30,-123.0244,48.5220,M,M,M,110.00,5.00,M,30.24,M,10.00,M,OVC,M,M,M,1800.00,M,M,M,M,KFHR 012130Z AUTO 11005KT 10SM OVC018 A3024 RMK MADISHF
FHR,2017-04-01 21:35,-123.0244,48.5220,M,M,M,110.00,5.00,M,30.24,M,10.00,M,BKN,OVC,M,M,1999.00,2400.00,M,M,M,KFHR 012135Z AUTO 11005KT 10SM BKN019 OVC024 A3024 RMK MADISHF
FHR,2017-04-01 21:40,-123.0244,48.5220,M,M,M,110.00,4.00,M,30.23,M,10.00,M,BKN,OVC,M,M,1999.00,2400.00,M,M,M,KFHR 012140Z AUTO 11004KT 10SM BKN019 OVC024 A3023 RMK MADISHF
FHR,2017-04-01 21:45,-123.0244,48.5220,M,M,M,110.00,5.00,M,30.23,M,10.00,M,SCT,BKN,M,M,1900.00,2500.00,M,M,M,KFHR 012145Z AUTO 11005KT 10SM SCT019 BKN025 A3023 RMK MADISHF
FHR,2017-04-01 21:50,-123.0244,48.5220,M,M,M,110.00,6.00,M,30.23,M,10.00,M,BKN,M,M,M,2500.00,M,M,M,M,KFHR 012150Z AUTO 11006KT 10SM BKN025 A3023 RMK MADISHF
FHR,2017-04-01 21:53,-123.0244,48.5220,53.10,46.90,79.40,120.00,5.00,0.00,30.23,1023.80,10.00,M,OVC,M,M,M,2500.00,M,M,M,M,KFHR 012153Z AUTO 12005KT 10SM OVC025 12/08 A3023 RMK AO2 SLP238 T01170083 TSNO
FHR,2017-04-01 21:55,-123.0244,48.5220,M,M,M,120.00,6.00,M,30.23,M,10.00,M,BKN,M,M,M,2500.00,M,M,M,M,KFHR 012155Z AUTO 12006KT 10SM BKN025 A3023 RMK MADISHF
FHR,2017-04-01 22:00,-123.0244,48.5220,M,M,M,110.00,5.00,M,30.23,M,10.00,M,OVC,M,M,M,2500.00,M,M,M,M,KFHR 012200Z AUTO 11005KT 10SM OVC025 A3023 RMK MADISHF
FHR,2017-04-01 22:05,-123.0244,48.5220,M,M,M,120.00,5.00,M,30.23,M,10.00,M,BKN,M,M,M,2600.00,M,M,M,M,KFHR 012205Z AUTO 12005KT 10SM BKN026 A3023 RMK MADISHF
FHR,2017-04-01 22:10,-123.0244,48.5220,M,M,M,140.00,4.00,M,30.23,M,10.00,M,BKN,M,M,M,2600.00,M,M,M,M,KFHR 012210Z AUTO 14004KT 10SM BKN026 A3023 RMK MADISHF
FHR,2017-04-01 22:15,-123.0244,48.5220,M,M,M,110.00,5.00,M,30.23,M,10.00,M,BKN,M,M,M,2600.00,M,M,M,M,KFHR 012215Z AUTO 11005KT 10SM BKN026 A3023 RMK MADISHF
FHR,2017-04-01 22:20,-123.0244,48.5220,M,M,M,140.00,5.00,M,30.23,M,10.00,M,BKN,M,M,M,2700.00,M,M,M,M,KFHR 012220Z AUTO 14005KT 10SM BKN027 A3023 RMK MADISHF
FHR,2017-04-01 22:25,-123.0244,48.5220,M,M,M,140.00,5.00,M,30.23,M,10.00,M,BKN,M,M,M,2700.00,M,M,M,M,KFHR 012225Z AUTO 14005KT 10SM BKN027 A3023 RMK MADISHF
FHR,2017-04-01 22:30,-123.0244,48.5220,M,M,M,130.00,4.00,M,30.23,M,10.00,M,BKN,M,M,M,2900.00,M,M,M,M,KFHR 012230Z AUTO 13004KT 10SM BKN029 A3023 RMK MADISHF
FHR,2017-04-01 22:35,-123.0244,48.5220,M,M,M,120.00,3.00,M,30.23,M,10.00,M,BKN,M,M,M,3100.00,M,M,M,M,KFHR 012235Z AUTO 12003KT 10SM BKN031 A3023 RMK MADISHF
FHR,2017-04-01 22:38,-123.0244,48.5220,53.10,46.00,76.75,0.00,0.00,0.00,30.23,M,10.00,M,BKN,M,M,M,3100.00,M,M,M,M,KFHR 012238Z AUTO 00000KT 10SM BKN031 12/08 A3023 RMK AO2 T01170078 TSNO
FHR,2017-04-01 22:40,-123.0244,48.5220,M,M,M,130.00,4.00,M,30.24,M,10.00,M,BKN,M,M,M,3100.00,M,M,M,M,KFHR 012240Z AUTO 13004KT 10SM BKN031 A3024 RMK MADISHF
FHR,2017-04-01 22:45,-123.0244,48.5220,M,M,M,140.00,4.00,M,30.24,M,10.00,M,BKN,M,M,M,3300.00,M,M,M,M,KFHR 012245Z AUTO 14004KT 10SM BKN033 A3024 RMK MADISHF
FHR,2017-04-01 22:50,-123.0244,48.5220,M,M,M,160.00,5.00,M,30.24,M,10.00,M,BKN,OVC,M,M,3300.00,4200.00,M,M,M,KFHR 012250Z AUTO 16005KT 10SM BKN033 OVC042 A3024 RMK MADISHF
FHR,2017-04-01 22:53,-123.0244,48.5220,54.00,46.90,76.83,160.00,6.00,0.00,30.24,1024.00,10.00,M,BKN,OVC,M,M,3300.00,4100.00,M,M,M,KFHR 012253Z AUTO 16006KT 10SM BKN033 OVC041 12/08 A3024 RMK AO2 SLP240 T01220083 TSNO
FHR,2017-04-01 22:55,-123.0244,48.5220,M,M,M,160.00,6.00,M,30.24,M,10.00,M,BKN,OVC,M,M,3300.00,4100.00,M,M,M,KFHR 012255Z AUTO 16006KT 10SM BKN033 OVC041 A3024 RMK MADISHF
FHR,2017-04-01 23:00,-123.0244,48.5220,M,M,M,140.00,7.00,M,30.24,M,10.00,M,OVC,M,M,M,3300.00,M,M,M,M,KFHR 012300Z AUTO 14007KT 10SM OVC033 A3024 RMK MADISHF
FHR,2017-04-01 23:05,-123.0244,48.5220,M,M,M,140.00,8.00,M,30.24,M,10.00,M,BKN,OVC,M,M,3300.00,4100.00,M,M,M,KFHR 012305Z AUTO 14008KT 10SM BKN033 OVC041 A3024 RMK MADISHF
FHR,2017-04-01 23:10,-123.0244,48.5220,M,M,M,140.00,6.00,M,30.24,M,10.00,M,BKN,BKN,M,M,3300.00,4100.00,M,M,M,KFHR 012310Z AUTO 14006KT 10SM BKN033 BKN041 A3024 RMK MADISHF
FHR,2017-04-01 23:15,-123.0244,48.5220,M,M,M,130.00,7.00,M,30.24,M,10.00,M,SCT,BKN,M,M,3300.00,4100.00,M,M,M,KFHR 012315Z AUTO 13007KT 10SM SCT033 BKN041 A3024 RMK MADISHF
FHR,2017-04-01 23:20,-123.0244,48.5220,M,M,M,140.00,6.00,M,30.24,M,10.00,M,SCT,SCT,M,M,3300.00,4100.00,M,M,M,KFHR 012320Z AUTO 14006KT 10SM SCT033 SCT041 A3024 RMK MADISHF
FHR,2017-04-01 23:25,-123.0244,48.5220,M,M,M,130.00,6.00,M,30.24,M,10.00,M,FEW,SCT,M,M,3200.00,4100.00,M,M,M,KFHR 012325Z AUTO 13006KT 10SM FEW032 SCT041 A3024 RMK MADISHF
FHR,2017-04-01 23:30,-123.0244,48.5220,M,M,M,130.00,7.00,M,30.24,M,10.00,M,FEW,M,M,M,3500.00,M,M,M,M,KFHR 012330Z AUTO 13007KT 10SM FEW035 A3024 RMK MADISHF
FHR,2017-04-01 23:35,-123.0244,48.5220,M,M,M,130.00,7.00,M,30.24,M,10.00,M,CLR,M,M,M,M,M,M,M,M,KFHR 012335Z AUTO 13007KT 10SM CLR A3024 RMK MADISHF
FHR,2017-04-01 23:40,-123.0244,48.5220,M,M,M,130.00,8.00,M,30.23,M,10.00,M,CLR,M,M,M,M,M,M,M,M,KFHR 012340Z AUTO 13008KT 10SM CLR A3023 RMK MADISHF
FHR,2017-04-01 23:45,-123.0244,48.5220,M,M,M,140.00,8.00,M,30.24,M,10.00,M,CLR,M,M,M,M,M,M,M,M,KFHR 012345Z AUTO 14008KT 10SM CLR A3024 RMK MADISHF
FHR,2017-04-01 23:50,-123.0244,48.5220,M,M,M,130.00,8.00,M,30.23,M,10.00,M,CLR,M,M,M,M,M,M,M,M,KFHR 012350Z AUTO 13008KT 10SM CLR A3023 RMK MADISHF
FHR,2017-04-01 23:53,-123.0244,48.5220,52.00,46.00,79.92,130.00,8.00,0.00,30.23,1023.70,10.00,M,CLR,M,M,M,M,M,M,M,M,KFHR 012353Z AUTO 13008KT 10SM CLR 11/08 A3023 RMK AO2 SLP237 T01110078 10122 20089 58003 TSNO
FHR,2017-04-01 23:55,-123.0244,48.5220,M,M,M,130.00,9.00,M,30.23,M,10.00,M,CLR,M,M,M,M,M,M,M,M,KFHR 012355Z AUTO 13009KT 10SM CLR A3023 RMK MADISHF
