#DEBUG: Format Typ    -> comma
#DEBUG: Time Period   -> 2017-04-01 00:00:00+00:00 2017-04-02 00:00:00+00:00
#DEBUG: Time Zone     -> Etc/UTC
#DEBUG: Data Contact   -> daryl herzmann akrherz@iastate.edu 515-294-5978
#DEBUG: Entries Found -> -1
station,valid,lon,lat,tmpf, dwpf, relh, drct, sknt, p01i, alti, mslp, vsby, gust, skyc1, skyc2, skyc3, skyc4, skyl1, skyl2, skyl3, skyl4, presentwx, metar
FHU,2017-04-01 00:58,-110.3442,31.5883,55.40,11.30,17.01,260.00,14.00,0.00,29.78,1004.10,10.00,M,CLR,M,M,M,M,M,M,M,M,KFHU 010058Z AUTO 26014KT 10SM CLR 13/M11 A2978 RMK AO2 SLP041 T01301115
FHU,2017-04-01 01:23,-110.3442,31.5883,53.60,10.40,17.45,250.00,13.00,0.00,29.80,M,10.00,19.00,CLR,M,M,M,M,M,M,M,M,KFHU 010123Z AUTO 25013G19KT 10SM CLR 12/M12 A2980 RMK AO2
FHU,2017-04-01 01:58,-110.3442,31.5883,50.40,10.80,19.99,280.00,9.00,0.00,29.81,1005.80,10.00,M,CLR,M,M,M,M,M,M,M,M,KFHU 010158Z AUTO 28009KT 10SM CLR 10/M12 A2981 RMK AO2 SLP058 T01021118
FHU,2017-04-01 02:32,-110.3442,31.5883,48.20,12.20,23.09,260.00,8.00,0.00,29.83,M,10.00,M,CLR,M,M,M,M,M,M,M,M,KFHU 010232Z AUTO 26008KT 10SM CLR 09/M11 A2983 RMK AO2
FHU,2017-04-01 02:58,-110.3442,31.5883,47.70,12.60,23.95,250.00,8.00,0.00,29.83,1006.50,10.00,M,CLR,M,M,M,M,M,M,M,M,KFHU 010258Z AUTO 25008KT 10SM CLR 09/M11 A2983 RMK AO2 SLP065 T00871108 52019
FHU,2017-04-01 03:19,-110.3442,31.5883,48.20,14.00,24.99,290.00,8.00,0.00,29.85,M,10.00,M,CLR,M,M,M,M,M,M,M,M,KFHU 010319Z AUTO 29008KT 250V320 10SM CLR 09/M10 A2985 RMK AO2
FHU,2017-04-01 03:58,-110.3442,31.5883,46.40,13.80,26.51,280.00,11.00,0.00,29.85,1008.30,10.00,M,CLR,M,M,M,M,M,M,M,M,KFHU 010358Z AUTO 28011KT 10SM CLR 08/M10 A2985 RMK AO2 SLP083 T00801101
FHU,2017-04-01 04:58,-110.3442,31.5883,46.80,15.30,27.88,270.00,9.00,0.00,29.86,1008.60,10.00,M,OVC,M,M,M,10000.00,M,M,M,M,KFHU 010458Z AUTO 27009KT 10SM OVC100 08/M09 A2986 RMK AO2 SLP086 T00821093
FHU,2017-04-01 05:58,-110.3442,31.5883,46.80,16.50,29.38,280.00,10.00,0.00,29.87,1008.30,9.00,M,BKN,OVC,M,M,10000.00,13000.00,M,M,M,KFHU 010558Z AUTO 28010KT 9SM BKN100 OVC130 08/M09 A2987 RMK AO2 SLP083 T00821086 10143 20077 52011
FHU,2017-04-01 06:58,-110.3442,31.5883,43.70,17.40,34.36,250.00,6.00,0.00,29.88,1008.60,9.00,M,FEW,M,M,M,6500.00,M,M,M,M,KFHU 010658Z AUTO 25006KT 9SM FEW065 07/M08 A2988 RMK AO2 SLP086 T00651081 401690051 $
FHU,2017-04-01 07:58,-110.3442,31.5883,43.90,18.70,36.06,250.00,8.00,0.00,29.88,1008.30,10.00,M,SCT,M,M,M,6500.00,M,M,M,M,KFHU 010758Z AUTO 25008KT 10SM SCT065 07/M07 A2988 RMK AO2 SLP083 T00661074 $
FHU,2017-04-01 08:58,-110.3442,31.5883,43.20,19.20,37.84,260.00,9.00,0.00,29.88,1008.30,10.00,M,BKN,M,M,M,6000.00,M,M,M,M,KFHU 010858Z AUTO 26009KT 10SM BKN060 06/M07 A2988 RMK AO2 SLP083 T00621071 51004 $
FHU,2017-04-01 09:58,-110.3442,31.5883,42.40,19.80,40.03,230.00,8.00,0.00,29.89,1008.60,10.00,M,CLR,M,M,M,M,M,M,M,M,KFHU 010958Z AUTO 23008KT 10SM CLR 06/M07 A2989 RMK AO2 SLP086 T00581068 $
FHU,2017-04-01 10:58,-110.3442,31.5883,41.90,20.50,42.05,230.00,6.00,0.00,29.90,1009.30,10.00,M,CLR,M,M,M,M,M,M,M,M,KFHU 011058Z AUTO 23006KT 10SM CLR 06/M06 A2990 RMK AO2 SLP093 T00551064 $
FHU,2017-04-01 11:58,-110.3442,31.5883,40.80,21.20,45.19,220.00,6.00,0.00,29.91,1009.70,10.00,M,CLR,M,M,M,M,M,M,M,M,KFHU 011158Z AUTO 22006KT 10SM CLR 05/M06 A2991 RMK AO2 SLP097 70002 T00491060 10081 20049 52007 $
FHU,2017-04-01 12:58,-110.3442,31.5883,40.50,21.70,46.70,230.00,6.00,0.00,29.91,1010.00,10.00,M,CLR,M,M,M,M,M,M,M,M,KFHU 011258Z AUTO 23006KT 10SM CLR 05/M06 A2991 RMK AO2 SLP100 T00471057 $
FHU,2017-04-01 13:47,-110.3442,31.5883,41.00,21.20,44.85,220.00,4.00,0.00,29.93,M,10.00,M,CLR,M,M,M,M,M,M,M,M,KFHU 011347Z AUTO 22004KT 10SM CLR 05/M06 A2993 RMK AO2
FHU,2017-04-01 13:58,-110.3442,31.5883,42.30,22.10,44.31,0.00,0.00,0.00,29.93,1011.10,9.00,M,CLR,M,M,M,M,M,M,M,M,KFHU 011358Z AUTO 00000KT 9SM CLR 06/M05 A2993 RMK AO2 SLP111 T00571055 $
FHU,2017-04-01 14:31,-110.3442,31.5883,44.60,21.20,39.06,0.00,0.00,0.00,29.95,M,10.00,M,CLR,M,M,M,M,M,M,M,M,KFHU 011431Z AUTO 00000KT 10SM CLR 07/M06 A2995 RMK AO2
FHU,2017-04-01 14:58,-110.3442,31.5883,47.50,20.70,34.26,0.00,0.00,0.00,29.95,1011.40,10.00,M,CLR,M,M,M,M,M,M,M,M,KFHU 011458Z AUTO 00000KT 10SM CLR 09/M06 A2995 RMK AO2 SLP114 T00861063 52013 $
FHU,2017-04-01 15:58,-110.3442,31.5883,50.90,20.80,30.31,M,5.00,0.00,29.95,1011.10,10.00,M,CLR,M,M,M,M,M,M,M,M,KFHU 011558Z AUTO VRB05KT 10SM CLR 11/M06 A2995 RMK AO2 SLP111 T01051062 $
FHU,2017-04-01 16:58,-110.3442,31.5883,53.60,20.70,27.32,290.00,7.00,0.00,29.96,1011.40,10.00,M,CLR,M,M,M,M,M,M,M,M,KFHU 011658Z AUTO 29007KT 230V340 10SM CLR 12/M06 A2996 RMK AO2 SLP114 T01201063 $
FHU,2017-04-01 17:58,-110.3442,31.5883,57.00,21.00,24.45,300.00,6.00,0.00,29.95,1010.70,10.00,M,CLR,M,M,M,M,M,M,M,M,KFHU 011758Z AUTO 30006KT 10SM CLR 14/M06 A2995 RMK AO2 SLP107 T01391061 10141 20044 55000 $
FHU,2017-04-01 18:58,-110.3442,31.5883,57.90,20.30,22.98,300.00,6.00,0.00,29.94,1010.70,10.00,M,OVC,M,M,M,9000.00,M,M,M,M,KFHU 011858Z AUTO 30006KT 10SM OVC090 14/M06 A2994 RMK AO2 SLP107 T01441065 $
FHU,2017-04-01 19:55,-110.3442,31.5883,60.80,21.20,21.53,M,5.00,0.00,29.92,M,10.00,M,BKN,M,M,M,8500.00,M,M,M,M,KFHU 011955Z AUTO VRB05KT 10SM BKN085 16/M06 A2992 RMK AO2
FHU,2017-04-01 19:58,-110.3442,31.5883,60.60,20.70,21.22,290.00,8.00,0.00,29.92,1009.30,10.00,M,BKN,M,M,M,8500.00,M,M,M,M,KFHU 011958Z AUTO 29008KT 230V330 10SM BKN085 16/M06 A2992 RMK AO2 SLP093 T01591063 $
FHU,2017-04-01 20:58,-110.3442,31.5883,59.50,20.80,22.17,300.00,9.00,0.00,29.91,1009.30,10.00,M,OVC,M,M,M,8000.00,M,M,M,M,KFHU 012058Z AUTO 30009KT 10SM OVC080 15/M06 A2991 RMK AO2 SLP093 T01531062 57013 $
FHU,2017-04-01 21:58,-110.3442,31.5883,59.00,22.10,23.84,310.00,6.00,0.00,29.91,1009.30,8.00,M,OVC,M,M,M,8000.00,M,M,M,M,KFHU 012158Z AUTO 31006KT 8SM OVC080 15/M05 A2991 RMK AO2 SLP093 T01501055 $
FHU,2017-04-01 22:58,-110.3442,31.5883,57.70,24.10,27.17,310.00,12.00,0.00,29.92,1010.00,8.00,M,OVC,M,M,M,8500.00,M,M,M,M,KFHU 012258Z AUTO 31012KT 8SM OVC085 14/M04 A2992 RMK AO2 SLP100 T01431044 $
FHU,2017-04-01 23:29,-110.3442,31.5883,55.40,24.80,30.40,300.00,11.00,0.00,29.94,M,8.00,M,FEW,BKN,OVC,M,3800.00,6000.00,7500.00,M,M,KFHU 012329Z AUTO 30011KT 8SM FEW038 BKN060 OVC075 13/M04 A2994 RMK AO2
FHU,2017-04-01 23:46,-110.3442,31.5883,53.60,28.40,37.67,320.00,16.00,0.00,29.96,M,7.00,24.00,OVC,M,M,M,6000.00,M,M,M,M,KFHU 012346Z AUTO 32016G24KT 7SM OVC060 12/M02 A2996 RMK AO2 PRESRR
FHU,2017-04-01 23:54,-110.3442,31.5883,51.80,30.20,43.32,330.00,16.00,0.00,29.97,M,6.00,24.00,FEW,BKN,OVC,M,3600.00,5000.00,6000.00,M,-RA,KFHU 012354Z AUTO 33016G24KT 6SM -RA FEW036 BKN050 OVC060 11/M01 A2997 RMK AO2 RAB54
FHU,2017-04-01 23:58,-110.3442,31.5883,51.10,31.80,47.43,340.00,15.00,0.00,29.97,1012.50,2.75,24.00,SCT,OVC,M,M,4000.00,5500.00,M,M,-RA,KFHU 012358Z AUTO 34015G24KT 2 3/4SM -RA SCT040 OVC055 11/00 A2997 RMK AO2 VIS 2 3/4V8 RAB54 SLP125 P0000 60000 T01061001 10170 20106 53019 $
