#DEBUG: Format Typ    -> comma
#DEBUG: Time Period   -> 2017-04-01 00:00:00+00:00 2017-04-02 00:00:00+00:00
#DEBUG: Time Zone     -> Etc/UTC
#DEBUG: Data Contact   -> daryl herzmann akrherz@iastate.edu 515-294-5978
#DEBUG: Entries Found -> -1
station,valid,lon,lat,tmpf, dwpf, relh, drct, sknt, p01i, alti, mslp, vsby, gust, skyc1, skyc2, skyc3, skyc4, skyl1, skyl2, skyl3, skyl4, presentwx, metar
FIN,2017-04-01 13:50,-81.2087,29.4657,71.60,59.00,64.48,320.00,5.00,0.00,30.04,M,10.00,M,CLR,M,M,M,M,M,M,M,M,KFIN 011350Z 32005KT 10SM CLR 22/15 A3004
FIN,2017-04-01 15:50,-81.2087,29.4657,77.00,50.00,38.74,50.00,8.00,0.00,30.06,M,10.00,M,CLR,M,M,M,M,M,M,M,M,KFIN 011550Z 05008KT 10SM CLR 25/10 A3006
FIN,2017-04-01 16:50,-81.2087,29.4657,78.80,51.80,39.02,80.00,6.00,0.00,30.04,M,10.00,M,CLR,M,M,M,M,M,M,M,M,KFIN 011650Z 08006KT 10SM CLR 26/11 A3004
FIN,2017-04-01 18:50,-81.2087,29.4657,78.80,51.80,39.02,50.00,8.00,0.00,30.01,M,10.00,M,CLR,M,M,M,M,M,M,M,M,KFIN 011850Z 05008KT 10SM CLR 26/11 A3001
FIN,2017-04-01 19:50,-81.2087,29.4657,78.80,53.60,41.69,80.00,10.00,0.00,30.00,M,10.00,M,CLR,M,M,M,M,M,M,M,M,KFIN 011950Z 08010KT 10SM CLR 26/12 A3000
FIN,2017-04-01 20:50,-81.2087,29.4657,78.80,51.80,39.02,90.00,8.00,0.00,29.99,M,10.00,M,CLR,M,M,M,M,M,M,M,M,KFIN 012050Z 09008KT 10SM CLR 26/11 A2999
FIN,2017-04-01 22:50,-81.2087,29.4657,73.40,53.60,49.90,120.00,7.00,0.00,30.00,M,10.00,M,CLR,M,M,M,M,M,M,M,M,KFIN 012250Z 12007KT 10SM CLR 23/12 A3000
