#DEBUG: Format Typ    -> comma
#DEBUG: Time Period   -> 2017-04-01 00:00:00+00:00 2017-04-02 00:00:00+00:00
#DEBUG: Time Zone     -> Etc/UTC
#DEBUG: Data Contact   -> daryl herzmann akrherz@iastate.edu 515-294-5978
#DEBUG: Entries Found -> -1
station,valid,lon,lat,tmpf, dwpf, relh, drct, sknt, p01i, alti, mslp, vsby, gust, skyc1, skyc2, skyc3, skyc4, skyl1, skyl2, skyl3, skyl4, presentwx, metar
FIT,2017-04-01 00:00,-71.7558,42.5519,M,M,M,80.00,4.00,0.01,30.04,M,4.00,M,BKN,BKN,OVC,M,700.00,1600.00,2900.00,M,FZRA BR,KFIT 010000Z AUTO 08004KT 4SM FZRA BR BKN007 BKN016 OVC029 A3004 RMK P0001 MADISHF
FIT,2017-04-01 00:05,-71.7558,42.5519,M,M,M,80.00,7.00,0.02,30.04,M,3.00,M,BKN,BKN,OVC,M,900.00,1600.00,2200.00,M,-FZRA BR,KFIT 010005Z AUTO 08007KT 3SM -FZRA BR BKN009 BKN016 OVC022 A3004 RMK P0002 MADISHF
FIT,2017-04-01 00:07,-71.7558,42.5519,33.10,30.90,91.51,70.00,6.00,0.02,30.04,M,2.50,M,BKN,OVC,M,M,900.00,1900.00,M,M,-FZRA BR,KFIT 010007Z AUTO 07006KT 2 1/2SM -FZRA BR BKN009 OVC019 01/M01 A3004 RMK AO2 RAE2353FZRAB2353 P0002 I1000 T00061006
FIT,2017-04-01 00:10,-71.7558,42.5519,M,M,M,70.00,6.00,0.02,30.04,M,1.75,M,BKN,OVC,M,M,900.00,1699.00,M,M,-FZRA BR,KFIT 010010Z AUTO 07006KT 2SM -FZRA BR BKN009 OVC016 A3004 RMK P0002 MADISHF
FIT,2017-04-01 00:11,-71.7558,42.5519,33.10,30.90,91.51,80.00,6.00,0.03,30.04,M,1.50,M,BKN,OVC,M,M,900.00,1700.00,M,M,FZRA BR,KFIT 010011Z AUTO 08006KT 1 1/2SM FZRA BR BKN009 OVC017 01/M01 A3004 RMK AO2 RAE2353FZRAB2353 P0003 I1000 T00061006
FIT,2017-04-01 00:15,-71.7558,42.5519,M,M,M,80.00,7.00,0.03,30.04,M,1.50,M,BKN,BKN,OVC,M,800.00,1200.00,1699.00,M,FZRA BR,KFIT 010015Z AUTO 08007KT 1 1/2SM FZRA BR BKN008 BKN012 OVC016 A3004 RMK P0003 MADISHF
FIT,2017-04-01 00:20,-71.7558,42.5519,M,M,M,80.00,3.00,0.04,30.04,M,1.50,M,BKN,OVC,M,M,800.00,1699.00,M,M,FZRA BR,KFIT 010020Z AUTO 08003KT 1 1/2SM FZRA BR BKN008 OVC016 A3004 RMK P0004 VRB03KT  MADISHF
FIT,2017-04-01 00:25,-71.7558,42.5519,M,M,M,70.00,5.00,0.05,30.04,M,1.50,M,BKN,OVC,M,M,800.00,1500.00,M,M,RA BR,KFIT 010025Z AUTO 07005KT 1 1/2SM RA BR BKN008 OVC015 A3004 RMK P0005 MADISHF
FIT,2017-04-01 00:27,-71.7558,42.5519,33.10,30.90,91.51,M,4.00,0.06,30.04,M,1.50,M,BKN,OVC,M,M,800.00,1500.00,M,M,RA BR,KFIT 010027Z AUTO VRB04KT 1 1/2SM RA BR BKN008 OVC015 01/M01 A3004 RMK AO2 RAE2353B21FZRAB2353E21 P0006 I1000 T00061006
FIT,2017-04-01 00:30,-71.7558,42.5519,M,M,M,80.00,5.00,0.07,30.04,M,1.50,M,OVC,M,M,M,800.00,M,M,M,RA BR,KFIT 010030Z AUTO 08005KT 1 1/2SM RA BR OVC008 A3004 RMK P0007 MADISHF
FIT,2017-04-01 00:35,-71.7558,42.5519,M,M,M,70.00,6.00,0.08,30.04,M,1.25,M,OVC,M,M,M,800.00,M,M,M,RA BR,KFIT 010035Z AUTO 07006KT 1 1/2SM RA BR OVC008 A3004 RMK P0008 MADISHF
FIT,2017-04-01 00:40,-71.7558,42.5519,M,M,M,60.00,5.00,0.09,30.04,M,1.25,M,OVC,M,M,M,900.00,M,M,M,RA BR,KFIT 010040Z AUTO 06005KT 1 1/2SM RA BR OVC009 A3004 RMK P0009 MADISHF
FIT,2017-04-01 00:45,-71.7558,42.5519,M,M,M,80.00,5.00,0.10,30.04,M,1.25,M,OVC,M,M,M,900.00,M,M,M,RA BR,KFIT 010045Z AUTO 08005KT 1 1/2SM RA BR OVC009 A3004 RMK P0010 MADISHF
FIT,2017-04-01 00:50,-71.7558,42.5519,M,M,M,50.00,4.00,0.11,30.04,M,1.25,M,OVC,M,M,M,900.00,M,M,M,RA BR,KFIT 010050Z AUTO 05004KT 1 1/2SM RA BR OVC009 A3004 RMK P0011 MADISHF
FIT,2017-04-01 00:52,-71.7558,42.5519,33.10,30.90,91.51,M,4.00,0.11,30.04,1017.50,1.25,M,OVC,M,M,M,900.00,M,M,M,RA BR,KFIT 010052Z AUTO VRB04KT 1 1/4SM RA BR OVC009 01/M01 A3004 RMK AO2 RAE2353B21FZRAB2353E21 SLP175 P0011 I1000 T00061006
FIT,2017-04-01 00:55,-71.7558,42.5519,M,M,M,60.00,5.00,0.01,30.04,M,1.25,M,SCT,OVC,M,M,600.00,900.00,M,M,RA BR,KFIT 010055Z AUTO 06005KT 1 1/2SM RA BR SCT006 OVC009 A3004 RMK P0001 MADISHF
FIT,2017-04-01 01:00,-71.7558,42.5519,M,M,M,60.00,4.00,0.02,30.04,M,1.50,M,BKN,OVC,M,M,900.00,1300.00,M,M,RA BR,KFIT 010100Z AUTO 06004KT 1 1/2SM RA BR BKN009 OVC013 A3004 RMK P0002 VRB04KT  MADISHF
FIT,2017-04-01 01:05,-71.7558,42.5519,M,M,M,50.00,5.00,0.02,30.03,M,1.75,M,BKN,OVC,M,M,800.00,1300.00,M,M,RA BR,KFIT 010105Z AUTO 05005KT 2SM RA BR BKN008 OVC013 A3003 RMK P0002 MADISHF
FIT,2017-04-01 01:08,-71.7558,42.5519,33.10,30.90,91.51,60.00,5.00,0.03,30.03,M,2.00,M,FEW,OVC,M,M,600.00,1100.00,M,M,RA BR,KFIT 010108Z AUTO 06005KT 2SM RA BR FEW006 OVC011 01/M01 A3003 RMK AO2 P0003 T00061006
FIT,2017-04-01 01:10,-71.7558,42.5519,M,M,M,70.00,4.00,0.03,30.03,M,2.50,M,BKN,OVC,M,M,900.00,1300.00,M,M,RA BR,KFIT 010110Z AUTO 07004KT 2 1/2SM RA BR BKN009 OVC013 A3003 RMK P0003 MADISHF
FIT,2017-04-01 01:14,-71.7558,42.5519,33.10,30.90,91.51,M,4.00,0.04,30.03,M,3.00,M,OVC,M,M,M,900.00,M,M,M,RA BR,KFIT 010114Z AUTO VRB04KT 3SM RA BR OVC009 01/M01 A3003 RMK AO2 P0004 T00061006
FIT,2017-04-01 01:15,-71.7558,42.5519,M,M,M,70.00,4.00,0.04,30.03,M,3.00,M,OVC,M,M,M,900.00,M,M,M,RA BR,KFIT 010115Z AUTO 07004KT 3SM RA BR OVC009 A3003 RMK P0004 VRB04KT  MADISHF
FIT,2017-04-01 01:25,-71.7558,42.5519,33.10,30.90,91.51,30.00,3.00,0.06,30.03,M,1.75,M,BKN,OVC,M,M,900.00,1300.00,M,M,RA BR,KFIT 010125Z AUTO 03003KT 1 3/4SM RA BR BKN009 OVC013 01/M01 A3003 RMK AO2 P0006 T00061006
FIT,2017-04-01 01:30,-71.7558,42.5519,M,M,M,60.00,4.00,0.07,30.03,M,1.50,M,BKN,OVC,M,M,900.00,1300.00,M,M,RA BR,KFIT 010130Z AUTO 06004KT 1 1/2SM RA BR BKN009 OVC013 A3003 RMK P0007 MADISHF
FIT,2017-04-01 01:35,-71.7558,42.5519,M,M,M,50.00,4.00,0.08,30.02,M,1.50,M,BKN,OVC,M,M,900.00,1300.00,M,M,RA BR,KFIT 010135Z AUTO 05004KT 1 1/2SM RA BR BKN009 OVC013 A3002 RMK P0008 MADISHF
FIT,2017-04-01 01:40,-71.7558,42.5519,M,M,M,50.00,5.00,0.08,30.02,M,1.50,M,OVC,M,M,M,800.00,M,M,M,RA BR,KFIT 010140Z AUTO 05005KT 1 1/2SM RA BR OVC008 A3002 RMK P0008 MADISHF
FIT,2017-04-01 01:45,-71.7558,42.5519,M,M,M,60.00,5.00,0.09,30.02,M,1.75,M,OVC,M,M,M,800.00,M,M,M,RA BR,KFIT 010145Z AUTO 06005KT 2SM RA BR OVC008 A3002 RMK P0009 VRB05KT  MADISHF
FIT,2017-04-01 01:50,-71.7558,42.5519,M,M,M,70.00,6.00,0.10,30.01,M,1.75,M,BKN,OVC,M,M,900.00,1300.00,M,M,RA BR,KFIT 010150Z AUTO 07006KT 2SM RA BR BKN009 OVC013 A3001 RMK P0010 MADISHF
FIT,2017-04-01 01:52,-71.7558,42.5519,33.10,30.90,91.51,80.00,6.00,0.10,30.01,1016.70,1.75,M,BKN,OVC,M,M,900.00,1300.00,M,M,RA BR,KFIT 010152Z AUTO 08006KT 1 3/4SM RA BR BKN009 OVC013 01/M01 A3001 RMK AO2 SLP167 P0010 T00061006
FIT,2017-04-01 01:55,-71.7558,42.5519,M,M,M,70.00,6.00,0.01,30.01,M,1.75,M,OVC,M,M,M,900.00,M,M,M,RA BR,KFIT 010155Z AUTO 07006KT 2SM RA BR OVC009 A3001 RMK P0001 MADISHF
FIT,2017-04-01 02:00,-71.7558,42.5519,M,M,M,70.00,6.00,0.01,30.00,M,1.75,M,OVC,M,M,M,800.00,M,M,M,RA BR,KFIT 010200Z AUTO 07006KT 2SM RA BR OVC008 A3000 RMK P0001 MADISHF
FIT,2017-04-01 02:05,-71.7558,42.5519,M,M,M,60.00,5.00,0.02,30.01,M,1.50,M,OVC,M,M,M,800.00,M,M,M,RA BR,KFIT 010205Z AUTO 06005KT 1 1/2SM RA BR OVC008 A3001 RMK P0002 VRB05KT  MADISHF
FIT,2017-04-01 02:10,-71.7558,42.5519,M,M,M,70.00,5.00,0.03,30.00,M,1.25,M,OVC,M,M,M,800.00,M,M,M,RA BR,KFIT 010210Z AUTO 07005KT 1 1/2SM RA BR OVC008 A3000 RMK P0003 MADISHF
FIT,2017-04-01 02:15,-71.7558,42.5519,M,M,M,70.00,7.00,0.04,30.00,M,1.25,M,OVC,M,M,M,800.00,M,M,M,RA BR,KFIT 010215Z AUTO 07007KT 1 1/2SM RA BR OVC008 A3000 RMK P0004 MADISHF
FIT,2017-04-01 02:20,-71.7558,42.5519,M,M,M,50.00,5.00,0.05,30.00,M,2.00,M,OVC,M,M,M,800.00,M,M,M,RA BR,KFIT 010220Z AUTO 05005KT 2SM RA BR OVC008 A3000 RMK P0005 MADISHF
FIT,2017-04-01 02:25,-71.7558,42.5519,33.10,30.90,91.51,70.00,5.00,0.05,30.00,M,3.00,M,OVC,M,M,M,800.00,M,M,M,RA BR,KFIT 010225Z AUTO 07005KT 3SM RA BR OVC008 01/M01 A3000 RMK AO2 SNB07E09 P0005 T00061006
FIT,2017-04-01 02:30,-71.7558,42.5519,M,M,M,70.00,6.00,0.06,29.99,M,2.50,M,OVC,M,M,M,800.00,M,M,M,RA BR,KFIT 010230Z AUTO 07006KT 2 1/2SM RA BR OVC008 A2999 RMK P0006 MADISHF
FIT,2017-04-01 02:33,-71.7558,42.5519,33.10,30.90,91.51,80.00,7.00,0.07,29.99,M,1.75,M,OVC,M,M,M,800.00,M,M,M,RA BR,KFIT 010233Z AUTO 08007KT 1 3/4SM RA BR OVC008 01/M01 A2999 RMK AO2 SNB07E09 P0007 T00061006
FIT,2017-04-01 02:35,-71.7558,42.5519,M,M,M,70.00,4.00,0.07,29.99,M,1.50,M,OVC,M,M,M,800.00,M,M,M,RA BR,KFIT 010235Z AUTO 07004KT 1 1/2SM RA BR OVC008 A2999 RMK P0007 MADISHF
FIT,2017-04-01 02:40,-71.7558,42.5519,M,M,M,M,M,0.08,29.99,M,1.25,M,OVC,M,M,M,800.00,M,M,M,-SN BR,KFIT 010240Z AUTO /////KT 1 1/2SM -SN BR OVC008 A2999 RMK P0008 MADISHF
FIT,2017-04-01 02:45,-71.7558,42.5519,M,M,M,80.00,5.00,0.09,29.99,M,1.00,M,OVC,M,M,M,800.00,M,M,M,-SN BR,KFIT 010245Z AUTO 08005KT 1SM -SN BR OVC008 A2999 RMK P0009 VRB05KT  MADISHF
FIT,2017-04-01 02:48,-71.7558,42.5519,33.80,30.20,86.49,60.00,3.00,0.09,29.98,M,1.00,M,BKN,OVC,M,M,600.00,1000.00,M,M,-SN BR,KFIT 010248Z AUTO 06003KT 1SM -SN BR BKN006 OVC010 01/M01 A2998 RMK AO2 RAE40SNB07E09B40 P0009
FIT,2017-04-01 02:50,-71.7558,42.5519,M,M,M,70.00,4.00,0.10,29.98,M,1.00,M,BKN,OVC,M,M,600.00,999.00,M,M,-SN BR,KFIT 010250Z AUTO 07004KT 1SM -SN BR BKN006 OVC009 A2998 RMK P0010 MADISHF
FIT,2017-04-01 02:52,-71.7558,42.5519,33.10,32.00,95.67,M,4.00,0.10,29.98,1015.70,1.00,M,BKN,OVC,M,M,600.00,1000.00,M,M,-SN BR,KFIT 010252Z AUTO VRB04KT 1SM -SN BR BKN006 OVC010 01/00 A2998 RMK AO2 RAE40SNB07E09B40 SLP157 P0010 60031 I3000 T00060000 56018
FIT,2017-04-01 02:55,-71.7558,42.5519,M,M,M,70.00,5.00,M,29.98,M,1.25,M,BKN,OVC,M,M,600.00,999.00,M,M,-SN BR,KFIT 010255Z AUTO 07005KT 1 1/2SM -SN BR BKN006 OVC009 A2998 RMK MADISHF
FIT,2017-04-01 03:00,-71.7558,42.5519,33.10,30.90,91.51,60.00,7.00,0.01,29.98,M,1.25,M,OVC,M,M,M,800.00,M,M,M,RA BR,KFIT 010300Z AUTO 06007KT 1 1/4SM RA BR OVC008 01/M01 A2998 RMK AO2 RAB00SNE00 P0001 T00061006
FIT,2017-04-01 03:05,-71.7558,42.5519,M,M,M,60.00,4.00,0.02,29.98,M,1.25,M,OVC,M,M,M,800.00,M,M,M,RA BR,KFIT 010305Z AUTO 06004KT 1 1/2SM RA BR OVC008 A2998 RMK P0002 MADISHF
FIT,2017-04-01 03:10,-71.7558,42.5519,M,M,M,60.00,5.00,0.03,29.97,M,1.25,M,OVC,M,M,M,800.00,M,M,M,RA BR,KFIT 010310Z AUTO 06005KT 1 1/2SM RA BR OVC008 A2997 RMK P0003 VRB05KT  MADISHF
FIT,2017-04-01 03:15,-71.7558,42.5519,M,M,M,70.00,5.00,0.04,29.97,M,1.25,M,OVC,M,M,M,800.00,M,M,M,RA BR,KFIT 010315Z AUTO 07005KT 1 1/2SM RA BR OVC008 A2997 RMK P0004 VRB05KT  MADISHF
FIT,2017-04-01 03:20,-71.7558,42.5519,M,M,M,70.00,4.00,0.05,29.97,M,1.75,M,OVC,M,M,M,800.00,M,M,M,RA BR,KFIT 010320Z AUTO 07004KT 2SM RA BR OVC008 A2997 RMK P0005 MADISHF
FIT,2017-04-01 03:25,-71.7558,42.5519,M,M,M,70.00,7.00,0.06,29.97,M,2.00,M,OVC,M,M,M,800.00,M,M,M,RA BR,KFIT 010325Z AUTO 07007KT 2SM RA BR OVC008 A2997 RMK P0006 MADISHF
FIT,2017-04-01 03:28,-71.7558,42.5519,33.10,30.90,91.51,60.00,6.00,0.06,29.96,M,2.50,M,OVC,M,M,M,900.00,M,M,M,RA BR,KFIT 010328Z AUTO 06006KT 2 1/2SM RA BR OVC009 01/M01 A2996 RMK AO2 RAB00SNE00 P0006 T00061006
FIT,2017-04-01 03:35,-71.7558,42.5519,M,M,M,70.00,6.00,0.08,29.96,M,2.50,M,BKN,OVC,M,M,900.00,1300.00,M,M,RA BR,KFIT 010335Z AUTO 07006KT 2 1/2SM RA BR BKN009 OVC013 A2996 RMK P0008 MADISHF
FIT,2017-04-01 03:40,-71.7558,42.5519,M,M,M,80.00,4.00,0.09,29.96,M,3.00,M,BKN,OVC,M,M,900.00,1500.00,M,M,RA BR,KFIT 010340Z AUTO 08004KT 3SM RA BR BKN009 OVC015 A2996 RMK P0009 MADISHF
FIT,2017-04-01 03:45,-71.7558,42.5519,M,M,M,60.00,6.00,0.10,29.96,M,3.00,M,OVC,M,M,M,900.00,M,M,M,RA BR,KFIT 010345Z AUTO 06006KT 3SM RA BR OVC009 A2996 RMK P0010 MADISHF
FIT,2017-04-01 03:50,-71.7558,42.5519,M,M,M,70.00,5.00,0.11,29.95,M,3.00,M,OVC,M,M,M,900.00,M,M,M,RA BR,KFIT 010350Z AUTO 07005KT 3SM RA BR OVC009 A2995 RMK P0011 MADISHF
FIT,2017-04-01 03:52,-71.7558,42.5519,33.10,30.90,91.51,M,6.00,0.12,29.95,1014.70,2.50,M,BKN,OVC,M,M,900.00,1300.00,M,M,RA BR,KFIT 010352Z AUTO VRB06KT 2 1/2SM RA BR BKN009 OVC013 01/M01 A2995 RMK AO2 RAB00SNE00 SLP147 P0012 I1000 T00061006
FIT,2017-04-01 03:55,-71.7558,42.5519,M,M,M,70.00,4.00,M,29.95,M,2.50,M,OVC,M,M,M,900.00,M,M,M,RA BR,KFIT 010355Z AUTO 07004KT 2 1/2SM RA BR OVC009 A2995 RMK VRB04KT  MADISHF
FIT,2017-04-01 04:00,-71.7558,42.5519,M,M,M,60.00,7.00,0.01,29.95,M,2.00,M,BKN,OVC,M,M,900.00,1300.00,M,M,RA BR,KFIT 010400Z AUTO 06007KT 2SM RA BR BKN009 OVC013 A2995 RMK P0001 MADISHF
FIT,2017-04-01 04:10,-71.7558,42.5519,M,M,M,70.00,5.00,0.04,29.95,M,2.00,M,OVC,M,M,M,900.00,M,M,M,RA BR,KFIT 010410Z AUTO 07005KT 2SM RA BR OVC009 A2995 RMK P0004 VRB05KT  MADISHF
FIT,2017-04-01 04:15,-71.7558,42.5519,M,M,M,80.00,4.00,0.05,29.95,M,2.00,M,OVC,M,M,M,900.00,M,M,M,RA BR,KFIT 010415Z AUTO 08004KT 2SM RA BR OVC009 A2995 RMK P0005 MADISHF
FIT,2017-04-01 04:20,-71.7558,42.5519,M,M,M,80.00,8.00,0.06,29.95,M,3.00,M,OVC,M,M,M,900.00,M,M,M,RA BR,KFIT 010420Z AUTO 08008KT 3SM RA BR OVC009 A2995 RMK P0006 MADISHF
FIT,2017-04-01 04:25,-71.7558,42.5519,34.00,32.00,92.29,M,4.00,0.07,29.94,M,3.00,M,OVC,M,M,M,900.00,M,M,M,RA BR,KFIT 010425Z AUTO VRB04KT 3SM RA BR OVC009 01/00 A2994 RMK AO2 P0007 T00110000
FIT,2017-04-01 04:30,-71.7558,42.5519,M,M,M,70.00,5.00,0.08,29.94,M,3.00,M,BKN,OVC,M,M,900.00,1300.00,M,M,RA BR,KFIT 010430Z AUTO 07005KT 3SM RA BR BKN009 OVC013 A2994 RMK P0008 MADISHF
FIT,2017-04-01 04:35,-71.7558,42.5519,M,M,M,80.00,5.00,0.09,29.94,M,3.00,M,OVC,M,M,M,900.00,M,M,M,RA BR,KFIT 010435Z AUTO 08005KT 3SM RA BR OVC009 A2994 RMK P0009 MADISHF
FIT,2017-04-01 04:40,-71.7558,42.5519,M,M,M,60.00,6.00,0.09,29.93,M,4.00,M,BKN,OVC,M,M,900.00,1300.00,M,M,-RA BR,KFIT 010440Z AUTO 06006KT 4SM -RA BR BKN009 OVC013 A2993 RMK P0009 MADISHF
FIT,2017-04-01 04:45,-71.7558,42.5519,M,M,M,70.00,3.00,0.10,29.93,M,4.00,M,BKN,OVC,M,M,900.00,1300.00,M,M,-RA BR,KFIT 010445Z AUTO 07003KT 4SM -RA BR BKN009 OVC013 A2993 RMK P0010 VRB03KT  MADISHF
FIT,2017-04-01 04:50,-71.7558,42.5519,M,M,M,50.00,3.00,0.11,29.93,M,2.50,M,BKN,OVC,M,M,700.00,1300.00,M,M,-RA BR,KFIT 010450Z AUTO 05003KT 2 1/2SM -RA BR BKN007 OVC013 A2993 RMK P0011 VRB03KT  MADISHF
FIT,2017-04-01 04:52,-71.7558,42.5519,34.00,32.00,92.29,70.00,3.00,0.11,29.93,1014.00,2.50,M,BKN,OVC,M,M,700.00,1300.00,M,M,-RA BR,KFIT 010452Z AUTO 07003KT 2 1/2SM -RA BR BKN007 OVC013 01/00 A2993 RMK AO2 SLP140 P0011 T00110000 400440006
FIT,2017-04-01 04:55,-71.7558,42.5519,M,M,M,60.00,4.00,M,29.93,M,2.50,M,OVC,M,M,M,700.00,M,M,M,-RA BR,KFIT 010455Z AUTO 06004KT 2 1/2SM -RA BR OVC007 A2993 RMK VRB04KT  MADISHF
FIT,2017-04-01 05:00,-71.7558,42.5519,M,M,M,60.00,5.00,0.01,29.93,M,3.50,M,BKN,OVC,M,M,800.00,1500.00,M,M,-RA BR,KFIT 010500Z AUTO 06005KT 3SM -RA BR BKN008 OVC015 A2993 RMK P0001 MADISHF
FIT,2017-04-01 05:03,-71.7558,42.5519,34.00,32.00,92.29,60.00,6.00,0.01,29.93,M,3.00,M,BKN,OVC,M,M,800.00,1500.00,M,M,-RA BR,KFIT 010503Z AUTO 06006KT 3SM -RA BR BKN008 OVC015 01/00 A2993 RMK AO2 P0001 T00110000
FIT,2017-04-01 05:05,-71.7558,42.5519,M,M,M,60.00,6.00,0.01,29.93,M,3.50,M,BKN,OVC,M,M,800.00,1500.00,M,M,-RA BR,KFIT 010505Z AUTO 06006KT 3SM -RA BR BKN008 OVC015 A2993 RMK P0001 MADISHF
FIT,2017-04-01 05:15,-71.7558,42.5519,M,M,M,60.00,4.00,0.03,29.92,M,2.50,M,BKN,OVC,M,M,800.00,1500.00,M,M,RA BR,KFIT 010515Z AUTO 06004KT 2 1/2SM RA BR BKN008 OVC015 A2992 RMK P0003 VRB04KT  MADISHF
FIT,2017-04-01 05:18,-71.7558,42.5519,34.00,32.00,92.29,M,5.00,0.04,29.92,M,2.00,M,BKN,OVC,M,M,800.00,1200.00,M,M,RA BR,KFIT 010518Z AUTO VRB05KT 2SM RA BR BKN008 OVC012 01/00 A2992 RMK AO2 P0004 T00110000
FIT,2017-04-01 05:20,-71.7558,42.5519,M,M,M,80.00,6.00,0.04,29.92,M,2.00,M,BKN,OVC,M,M,800.00,1200.00,M,M,RA BR,KFIT 010520Z AUTO 08006KT 2SM RA BR BKN008 OVC012 A2992 RMK P0004 MADISHF
FIT,2017-04-01 05:25,-71.7558,42.5519,M,M,M,70.00,4.00,0.05,29.92,M,2.00,M,BKN,OVC,M,M,800.00,1400.00,M,M,RA BR,KFIT 010525Z AUTO 07004KT 2SM RA BR BKN008 OVC014 A2992 RMK P0005 VRB04KT  MADISHF
FIT,2017-04-01 05:30,-71.7558,42.5519,M,M,M,30.00,4.00,0.06,29.92,M,2.50,M,BKN,OVC,M,M,800.00,1400.00,M,M,-RA BR,KFIT 010530Z AUTO 03004KT 2 1/2SM -RA BR BKN008 OVC014 A2992 RMK P0006 VRB04KT  MADISHF
FIT,2017-04-01 05:35,-71.7558,42.5519,M,M,M,50.00,6.00,0.07,29.91,M,3.00,M,BKN,OVC,M,M,800.00,1400.00,M,M,-RA BR,KFIT 010535Z AUTO 05006KT 3SM -RA BR BKN008 OVC014 A2991 RMK P0007 MADISHF
FIT,2017-04-01 05:40,-71.7558,42.5519,M,M,M,M,M,0.08,29.91,M,2.50,M,BKN,OVC,M,M,800.00,1300.00,M,M,RA BR,KFIT 010540Z AUTO /////KT 2 1/2SM RA BR BKN008 OVC013 A2991 RMK P0008 MADISHF
FIT,2017-04-01 05:45,-71.7558,42.5519,M,M,M,80.00,6.00,0.09,29.91,M,3.00,M,OVC,M,M,M,800.00,M,M,M,-RA BR,KFIT 010545Z AUTO 08006KT 3SM -RA BR OVC008 A2991 RMK P0009 VRB06G16KT  MADISHF
FIT,2017-04-01 05:47,-71.7558,42.5519,34.00,32.00,92.29,M,5.00,0.09,29.91,1013.20,3.00,16.00,BKN,OVC,M,M,1000.00,1400.00,M,M,-RA BR,KFIT 010547Z AUTO VRB05G16KT 3SM -RA BR BKN010 OVC014 01/00 A2991 RMK AO2 SLP132 P0009 60063 I1000 I6000 T00110000 10011 20006 56025
FIT,2017-04-01 05:50,-71.7558,42.5519,M,M,M,50.00,5.00,M,29.90,M,4.00,M,OVC,M,M,M,999.00,M,M,M,-RA BR,KFIT 010550Z AUTO 05005KT 4SM -RA BR OVC009 A2990 RMK MADISHF
FIT,2017-04-01 05:55,-71.7558,42.5519,M,M,M,70.00,4.00,0.01,29.90,M,5.00,M,BKN,OVC,M,M,999.00,1400.00,M,M,-RA BR,KFIT 010555Z AUTO 07004KT 5SM -RA BR BKN009 OVC014 A2990 RMK P0001 MADISHF
FIT,2017-04-01 06:00,-71.7558,42.5519,M,M,M,70.00,7.00,0.02,29.90,M,5.00,M,OVC,M,M,M,999.00,M,M,M,RA BR,KFIT 010600Z AUTO 07007KT 5SM RA BR OVC009 A2990 RMK P0002 MADISHF
FIT,2017-04-01 06:05,-71.7558,42.5519,M,M,M,50.00,8.00,0.03,29.89,M,5.00,M,OVC,M,M,M,999.00,M,M,M,RA BR,KFIT 010605Z AUTO 05008KT 5SM RA BR OVC009 A2989 RMK P0003 WND 01V08  MADISHF
FIT,2017-04-01 06:10,-71.7558,42.5519,M,M,M,30.00,6.00,0.04,29.89,M,5.00,M,BKN,OVC,M,M,999.00,1300.00,M,M,RA BR,KFIT 010610Z AUTO 03006KT 5SM RA BR BKN009 OVC013 A2989 RMK P0004 MADISHF
FIT,2017-04-01 06:17,-71.7558,42.5519,34.00,32.00,92.29,60.00,6.00,0.05,29.89,M,3.00,M,BKN,OVC,M,M,900.00,1200.00,M,M,-RA BR,KFIT 010617Z AUTO 06006KT 3SM -RA BR BKN009 OVC012 01/00 A2989 RMK AO2 P0005 T00110000
FIT,2017-04-01 06:20,-71.7558,42.5519,M,M,M,50.00,5.00,0.05,29.88,M,2.50,M,BKN,OVC,M,M,900.00,1200.00,M,M,-RA BR,KFIT 010620Z AUTO 05005KT 2 1/2SM -RA BR BKN009 OVC012 A2988 RMK P0005 VRB05KT  MADISHF
FIT,2017-04-01 06:25,-71.7558,42.5519,34.00,32.00,92.29,50.00,7.00,0.06,29.88,M,2.50,M,BKN,OVC,M,M,700.00,1100.00,M,M,-SN BR,KFIT 010625Z AUTO 05007KT 2 1/2SM -SN BR BKN007 OVC011 01/00 A2988 RMK AO2 RAE22SNB22 P0006 T00110000
FIT,2017-04-01 06:35,-71.7558,42.5519,M,M,M,40.00,7.00,0.08,29.88,M,2.50,M,BKN,OVC,M,M,700.00,1100.00,M,M,RA BR,KFIT 010635Z AUTO 04007KT 2 1/2SM RA BR BKN007 OVC011 A2988 RMK P0008 MADISHF
FIT,2017-04-01 06:40,-71.7558,42.5519,M,M,M,50.00,4.00,0.08,29.88,M,3.50,M,BKN,OVC,M,M,700.00,1100.00,M,M,RA BR,KFIT 010640Z AUTO 05004KT 3SM RA BR BKN007 OVC011 A2988 RMK P0008 VRB04KT  MADISHF
FIT,2017-04-01 06:44,-71.7558,42.5519,34.00,32.00,92.29,60.00,8.00,0.09,29.88,M,4.00,M,BKN,OVC,M,M,700.00,1100.00,M,M,-RA BR,KFIT 010644Z AUTO 06008KT 030V090 4SM -RA BR BKN007 OVC011 01/00 A2988 RMK AO2 RAE22B31SNB22E31 P0009 T00110000
FIT,2017-04-01 06:45,-71.7558,42.5519,M,M,M,60.00,9.00,0.09,29.88,M,4.00,M,BKN,OVC,M,M,700.00,1100.00,M,M,-RA BR,KFIT 010645Z AUTO 06009KT 4SM -RA BR BKN007 OVC011 A2988 RMK P0009 MADISHF
FIT,2017-04-01 06:50,-71.7558,42.5519,M,M,M,50.00,5.00,0.10,29.88,M,4.00,M,BKN,OVC,M,M,700.00,1100.00,M,M,RA BR,KFIT 010650Z AUTO 05005KT 4SM RA BR BKN007 OVC011 A2988 RMK P0010 VRB05KT  MADISHF
FIT,2017-04-01 06:52,-71.7558,42.5519,34.00,32.00,92.29,70.00,7.00,0.11,29.88,1012.00,4.00,M,BKN,OVC,M,M,700.00,1100.00,M,M,RA BR,KFIT 010652Z AUTO 07007KT 020V090 4SM RA BR BKN007 OVC011 01/00 A2988 RMK AO2 RAE22B31SNB22E31 SLP120 P0011 T00110000
FIT,2017-04-01 06:55,-71.7558,42.5519,M,M,M,30.00,6.00,M,29.88,M,4.00,M,BKN,OVC,M,M,700.00,1100.00,M,M,-RA BR,KFIT 010655Z AUTO 03006KT 4SM -RA BR BKN007 OVC011 A2988 RMK MADISHF
FIT,2017-04-01 07:10,-71.7558,42.5519,M,M,M,50.00,6.00,0.02,29.87,M,3.00,M,OVC,M,M,M,700.00,M,M,M,-RA BR,KFIT 010710Z AUTO 05006KT 3SM -RA BR OVC007 A2987 RMK P0002 MADISHF
FIT,2017-04-01 07:15,-71.7558,42.5519,M,M,M,50.00,9.00,0.03,29.87,M,2.50,14.00,OVC,M,M,M,700.00,M,M,M,-RA BR,KFIT 010715Z AUTO 05009G14KT 2 1/2SM -RA BR OVC007 A2987 RMK P0003 MADISHF
FIT,2017-04-01 07:20,-71.7558,42.5519,34.00,32.00,92.29,40.00,6.00,0.03,29.86,M,2.50,15.00,OVC,M,M,M,800.00,M,M,M,-RA BR,KFIT 010720Z AUTO 04006G15KT 2 1/2SM -RA BR OVC008 01/00 A2986 RMK AO2 P0003 T00110000
FIT,2017-04-01 07:25,-71.7558,42.5519,M,M,M,50.00,5.00,0.04,29.86,M,3.00,M,OVC,M,M,M,800.00,M,M,M,-RA BR,KFIT 010725Z AUTO 05005KT 3SM -RA BR OVC008 A2986 RMK P0004 VRB05KT  MADISHF
FIT,2017-04-01 07:29,-71.7558,42.5519,34.00,32.00,92.29,50.00,4.00,0.04,29.86,M,3.00,M,OVC,M,M,M,800.00,M,M,M,-RA BR,KFIT 010729Z AUTO 05004KT 3SM -RA BR OVC008 01/00 A2986 RMK AO2 P0004 T00110000
FIT,2017-04-01 07:30,-71.7558,42.5519,M,M,M,50.00,6.00,0.05,29.86,M,3.00,M,OVC,M,M,M,800.00,M,M,M,-RA BR,KFIT 010730Z AUTO 05006KT 3SM -RA BR OVC008 A2986 RMK P0005 MADISHF
FIT,2017-04-01 07:35,-71.7558,42.5519,M,M,M,50.00,6.00,0.05,29.86,M,2.50,M,OVC,M,M,M,800.00,M,M,M,RA BR,KFIT 010735Z AUTO 05006KT 2 1/2SM RA BR OVC008 A2986 RMK P0005 MADISHF
FIT,2017-04-01 07:37,-71.7558,42.5519,34.00,32.00,92.29,70.00,6.00,0.06,29.86,M,2.50,M,OVC,M,M,M,1000.00,M,M,M,-RA BR,KFIT 010737Z AUTO 07006KT 2 1/2SM -RA BR OVC010 01/00 A2986 RMK AO2 P0006 T00110000
FIT,2017-04-01 07:40,-71.7558,42.5519,M,M,M,50.00,5.00,0.06,29.85,M,2.50,M,OVC,M,M,M,999.00,M,M,M,-RA BR,KFIT 010740Z AUTO 05005KT 2 1/2SM -RA BR OVC009 A2985 RMK P0006 VRB05KT  MADISHF
FIT,2017-04-01 07:45,-71.7558,42.5519,M,M,M,30.00,6.00,0.07,29.85,M,3.00,M,OVC,M,M,M,999.00,M,M,M,-RA BR,KFIT 010745Z AUTO 03006KT 3SM -RA BR OVC009 A2985 RMK P0007 MADISHF
FIT,2017-04-01 07:50,-71.7558,42.5519,M,M,M,50.00,5.00,0.07,29.85,M,3.00,M,OVC,M,M,M,999.00,M,M,M,-RA BR,KFIT 010750Z AUTO 05005KT 3SM -RA BR OVC009 A2985 RMK P0007 VRB05KT  MADISHF
FIT,2017-04-01 07:52,-71.7558,42.5519,34.00,32.00,92.29,M,5.00,0.08,29.85,1011.30,3.00,M,OVC,M,M,M,1000.00,M,M,M,-RA BR,KFIT 010752Z AUTO VRB05KT 3SM -RA BR OVC010 01/00 A2985 RMK AO2 SLP113 P0008 T00110000
FIT,2017-04-01 07:55,-71.7558,42.5519,M,M,M,40.00,7.00,M,29.85,M,3.00,M,OVC,M,M,M,999.00,M,M,M,-RA BR,KFIT 010755Z AUTO 04007KT 3SM -RA BR OVC009 A2985 RMK WND 01V08  MADISHF
FIT,2017-04-01 08:00,-71.7558,42.5519,M,M,M,60.00,4.00,0.01,29.85,M,2.50,M,OVC,M,M,M,999.00,M,M,M,-RA BR,KFIT 010800Z AUTO 06004KT 2 1/2SM -RA BR OVC009 A2985 RMK P0001 VRB04KT  MADISHF
FIT,2017-04-01 08:05,-71.7558,42.5519,M,M,M,60.00,9.00,0.02,29.85,M,3.00,14.00,OVC,M,M,M,999.00,M,M,M,-RA BR,KFIT 010805Z AUTO 06009G14KT 3SM -RA BR OVC009 A2985 RMK P0002 MADISHF
FIT,2017-04-01 08:10,-71.7558,42.5519,M,M,M,50.00,6.00,0.02,29.85,M,3.00,M,OVC,M,M,M,999.00,M,M,M,-RA BR,KFIT 010810Z AUTO 05006KT 3SM -RA BR OVC009 A2985 RMK P0002 VRB06G15KT  MADISHF
FIT,2017-04-01 08:15,-71.7558,42.5519,M,M,M,40.00,6.00,0.03,29.84,M,4.00,M,OVC,M,M,M,999.00,M,M,M,-RA BR,KFIT 010815Z AUTO 04006KT 4SM -RA BR OVC009 A2984 RMK P0003 MADISHF
FIT,2017-04-01 08:20,-71.7558,42.5519,M,M,M,40.00,6.00,0.03,29.84,M,3.50,M,OVC,M,M,M,999.00,M,M,M,-RA BR,KFIT 010820Z AUTO 04006KT 3SM -RA BR OVC009 A2984 RMK P0003 MADISHF
FIT,2017-04-01 08:25,-71.7558,42.5519,M,M,M,50.00,5.00,0.04,29.84,M,3.00,M,OVC,M,M,M,900.00,M,M,M,-RA BR,KFIT 010825Z AUTO 05005KT 3SM -RA BR OVC009 A2984 RMK P0004 VRB05KT  MADISHF
FIT,2017-04-01 08:30,-71.7558,42.5519,34.00,32.00,92.29,M,5.00,0.05,29.84,M,3.00,M,OVC,M,M,M,900.00,M,M,M,RA BR,KFIT 010830Z AUTO VRB05KT 3SM RA BR OVC009 01/00 A2984 RMK AO2 P0005 T00110000
FIT,2017-04-01 08:35,-71.7558,42.5519,M,M,M,40.00,5.00,0.06,29.84,M,3.00,M,OVC,M,M,M,900.00,M,M,M,RA BR,KFIT 010835Z AUTO 04005KT 3SM RA BR OVC009 A2984 RMK P0006 VRB05KT  MADISHF
FIT,2017-04-01 08:40,-71.7558,42.5519,M,M,M,40.00,7.00,0.08,29.83,M,3.00,M,BKN,OVC,M,M,900.00,1200.00,M,M,RA BR,KFIT 010840Z AUTO 04007KT 3SM RA BR BKN009 OVC012 A2983 RMK P0008 MADISHF
FIT,2017-04-01 08:45,-71.7558,42.5519,M,M,M,30.00,6.00,0.09,29.83,M,3.00,M,BKN,OVC,M,M,900.00,1200.00,M,M,RA BR,KFIT 010845Z AUTO 03006KT 3SM RA BR BKN009 OVC012 A2983 RMK P0009 MADISHF
FIT,2017-04-01 08:50,-71.7558,42.5519,M,M,M,30.00,8.00,0.10,29.83,M,3.00,M,BKN,OVC,M,M,800.00,1200.00,M,M,RA BR,KFIT 010850Z AUTO 03008KT 3SM RA BR BKN008 OVC012 A2983 RMK P0010 WND 35V06  MADISHF
FIT,2017-04-01 08:52,-71.7558,42.5519,34.00,32.00,92.29,40.00,6.00,0.11,29.83,1010.50,3.00,M,BKN,OVC,M,M,800.00,1200.00,M,M,RA BR,KFIT 010852Z AUTO 04006KT 3SM RA BR BKN008 OVC012 01/00 A2983 RMK AO2 SLP105 P0011 60030 T00110000 58015
FIT,2017-04-01 09:45,-71.7558,42.5519,M,M,M,20.00,5.00,0.11,29.83,M,4.00,M,OVC,M,M,M,800.00,M,M,M,RA BR,KFIT 010945Z AUTO 02005KT 4SM RA BR OVC008 A2983 RMK P0011 VRB05KT  MADISHF
FIT,2017-04-01 09:49,-71.7558,42.5519,33.80,32.00,93.03,40.00,9.00,0.12,29.82,M,4.00,M,BKN,OVC,M,M,800.00,1300.00,M,M,RA BR,KFIT 010949Z AUTO 04009KT 4SM RA BR BKN008 OVC013 01/00 A2982 RMK AO2 P0012
FIT,2017-04-01 09:50,-71.7558,42.5519,M,M,M,30.00,7.00,0.12,29.82,M,4.00,M,BKN,OVC,M,M,800.00,1300.00,M,M,RA BR,KFIT 010950Z AUTO 03007KT 4SM RA BR BKN008 OVC013 A2982 RMK P0012 MADISHF
FIT,2017-04-01 09:52,-71.7558,42.5519,34.00,32.00,92.29,M,6.00,0.12,29.82,1010.30,4.00,M,BKN,OVC,M,M,800.00,1300.00,M,M,RA BR,KFIT 010952Z AUTO VRB06KT 4SM RA BR BKN008 OVC013 01/00 A2982 RMK AO2 SLP103 P0012 T00110000
FIT,2017-04-01 09:55,-71.7558,42.5519,M,M,M,30.00,7.00,0.01,29.82,M,4.00,M,BKN,OVC,M,M,900.00,1300.00,M,M,RA BR,KFIT 010955Z AUTO 03007KT 4SM RA BR BKN009 OVC013 A2982 RMK P0001 MADISHF
FIT,2017-04-01 10:00,-71.7558,42.5519,M,M,M,30.00,7.00,0.02,29.82,M,4.00,M,OVC,M,M,M,900.00,M,M,M,RA BR,KFIT 011000Z AUTO 03007KT 4SM RA BR OVC009 A2982 RMK P0002 MADISHF
FIT,2017-04-01 10:05,-71.7558,42.5519,M,M,M,40.00,6.00,0.02,29.82,M,4.00,M,OVC,M,M,M,900.00,M,M,M,RA BR,KFIT 011005Z AUTO 04006KT 4SM RA BR OVC009 A2982 RMK P0002 MADISHF
FIT,2017-04-01 10:10,-71.7558,42.5519,M,M,M,30.00,8.00,0.03,29.82,M,4.00,M,OVC,M,M,M,900.00,M,M,M,RA BR,KFIT 011010Z AUTO 03008KT 4SM RA BR OVC009 A2982 RMK P0003 MADISHF
FIT,2017-04-01 10:15,-71.7558,42.5519,M,M,M,10.00,5.00,0.04,29.82,M,4.00,M,OVC,M,M,M,900.00,M,M,M,RA BR,KFIT 011015Z AUTO 01005KT 4SM RA BR OVC009 A2982 RMK P0004 MADISHF
FIT,2017-04-01 10:20,-71.7558,42.5519,M,M,M,20.00,6.00,0.05,29.82,M,4.00,M,OVC,M,M,M,900.00,M,M,M,RA BR,KFIT 011020Z AUTO 02006KT 4SM RA BR OVC009 A2982 RMK P0005 MADISHF
FIT,2017-04-01 10:25,-71.7558,42.5519,M,M,M,30.00,7.00,0.06,29.82,M,4.00,M,OVC,M,M,M,900.00,M,M,M,RA BR,KFIT 011025Z AUTO 03007KT 4SM RA BR OVC009 A2982 RMK P0006 MADISHF
FIT,2017-04-01 10:30,-71.7558,42.5519,M,M,M,30.00,9.00,0.07,29.82,M,4.00,M,OVC,M,M,M,900.00,M,M,M,RA BR,KFIT 011030Z AUTO 03009KT 4SM RA BR OVC009 A2982 RMK P0007 WND 01V07  MADISHF
FIT,2017-04-01 10:35,-71.7558,42.5519,M,M,M,30.00,5.00,0.08,29.83,M,4.00,M,OVC,M,M,M,900.00,M,M,M,RA BR,KFIT 011035Z AUTO 03005KT 4SM RA BR OVC009 A2983 RMK P0008 VRB05KT  MADISHF
FIT,2017-04-01 10:40,-71.7558,42.5519,M,M,M,40.00,8.00,0.09,29.83,M,4.00,M,OVC,M,M,M,800.00,M,M,M,RA BR,KFIT 011040Z AUTO 04008KT 4SM RA BR OVC008 A2983 RMK P0009 MADISHF
FIT,2017-04-01 10:45,-71.7558,42.5519,M,M,M,30.00,7.00,0.10,29.82,M,4.00,M,OVC,M,M,M,800.00,M,M,M,RA BR,KFIT 011045Z AUTO 03007KT 4SM RA BR OVC008 A2982 RMK P0010 MADISHF
FIT,2017-04-01 10:50,-71.7558,42.5519,M,M,M,30.00,9.00,0.11,29.82,M,4.00,15.00,OVC,M,M,M,800.00,M,M,M,RA BR,KFIT 011050Z AUTO 03009G15KT 4SM RA BR OVC008 A2982 RMK P0011 MADISHF
FIT,2017-04-01 10:52,-71.7558,42.5519,34.00,32.00,92.29,30.00,8.00,0.11,29.82,1010.20,4.00,16.00,OVC,M,M,M,800.00,M,M,M,RA BR,KFIT 011052Z AUTO 03008G16KT 360V060 4SM RA BR OVC008 01/00 A2982 RMK AO2 SLP102 P0011 T00110000
FIT,2017-04-01 10:55,-71.7558,42.5519,M,M,M,20.00,4.00,0.01,29.82,M,4.00,M,OVC,M,M,M,800.00,M,M,M,-RA BR,KFIT 011055Z AUTO 02004KT 4SM -RA BR OVC008 A2982 RMK P0001 VRB04G16KT  MADISHF
FIT,2017-04-01 11:00,-71.7558,42.5519,M,M,M,30.00,8.00,0.01,29.82,M,4.00,M,OVC,M,M,M,800.00,M,M,M,-RA BR,KFIT 011100Z AUTO 03008KT 4SM -RA BR OVC008 A2982 RMK P0001 MADISHF
FIT,2017-04-01 11:05,-71.7558,42.5519,M,M,M,20.00,7.00,0.03,29.82,M,3.00,M,OVC,M,M,M,800.00,M,M,M,RA BR,KFIT 011105Z AUTO 02007KT 3SM RA BR OVC008 A2982 RMK P0003 MADISHF
FIT,2017-04-01 11:10,-71.7558,42.5519,M,M,M,20.00,6.00,0.04,29.83,M,2.50,M,BKN,OVC,M,M,800.00,1300.00,M,M,RA BR,KFIT 011110Z AUTO 02006KT 2 1/2SM RA BR BKN008 OVC013 A2983 RMK P0004 MADISHF
FIT,2017-04-01 11:13,-71.7558,42.5519,34.00,32.00,92.29,10.00,7.00,0.04,29.83,M,2.00,14.00,BKN,OVC,M,M,800.00,1300.00,M,M,RA BR,KFIT 011113Z AUTO 01007G14KT 350V060 2SM RA BR BKN008 OVC013 01/00 A2983 RMK AO2 P0004 T00110000
FIT,2017-04-01 11:15,-71.7558,42.5519,M,M,M,30.00,6.00,0.05,29.83,M,2.00,M,BKN,OVC,M,M,800.00,1300.00,M,M,RA BR,KFIT 011115Z AUTO 03006KT 2SM RA BR BKN008 OVC013 A2983 RMK P0005 MADISHF
FIT,2017-04-01 11:20,-71.7558,42.5519,M,M,M,20.00,8.00,0.06,29.83,M,2.00,M,BKN,OVC,M,M,800.00,1300.00,M,M,RA BR,KFIT 011120Z AUTO 02008KT 2SM RA BR BKN008 OVC013 A2983 RMK P0006 MADISHF
FIT,2017-04-01 11:25,-71.7558,42.5519,M,M,M,20.00,7.00,0.07,29.83,M,1.75,M,BKN,OVC,M,M,800.00,1300.00,M,M,RA BR,KFIT 011125Z AUTO 02007KT 2SM RA BR BKN008 OVC013 A2983 RMK P0007 MADISHF
FIT,2017-04-01 11:30,-71.7558,42.5519,M,M,M,30.00,8.00,0.08,29.83,M,1.75,M,BKN,OVC,M,M,800.00,1300.00,M,M,RA BR,KFIT 011130Z AUTO 03008KT 2SM RA BR BKN008 OVC013 A2983 RMK P0008 MADISHF
FIT,2017-04-01 11:31,-71.7558,42.5519,34.00,32.00,92.29,20.00,7.00,0.08,29.83,M,1.75,15.00,BKN,OVC,M,M,800.00,1300.00,M,M,RA BR,KFIT 011131Z AUTO 02007G15KT 1 3/4SM RA BR BKN008 OVC013 01/00 A2983 RMK AO2 P0008 T00110000
FIT,2017-04-01 11:35,-71.7558,42.5519,M,M,M,20.00,8.00,0.09,29.83,M,1.75,M,BKN,OVC,M,M,900.00,1400.00,M,M,RA BR,KFIT 011135Z AUTO 02008KT 2SM RA BR BKN009 OVC014 A2983 RMK P0009 MADISHF
FIT,2017-04-01 11:40,-71.7558,42.5519,M,M,M,20.00,7.00,0.10,29.83,M,1.50,M,BKN,OVC,M,M,900.00,1400.00,M,M,RA BR,KFIT 011140Z AUTO 02007KT 1 1/2SM RA BR BKN009 OVC014 A2983 RMK P0010 MADISHF
FIT,2017-04-01 11:45,-71.7558,42.5519,M,M,M,20.00,8.00,0.11,29.83,M,1.50,M,BKN,OVC,M,M,900.00,1600.00,M,M,RA BR,KFIT 011145Z AUTO 02008KT 1 1/2SM RA BR BKN009 OVC016 A2983 RMK P0011 MADISHF
FIT,2017-04-01 11:50,-71.7558,42.5519,M,M,M,M,M,0.12,29.83,M,1.25,M,BKN,OVC,M,M,900.00,1600.00,M,M,RA BR,KFIT 011150Z AUTO /////KT 1 1/2SM RA BR BKN009 OVC016 A2983 RMK P0012 MADISHF
FIT,2017-04-01 11:52,-71.7558,42.5519,34.00,32.00,92.29,360.00,8.00,0.13,29.83,1010.50,1.25,M,BKN,OVC,M,M,900.00,1600.00,M,M,RA BR,KFIT 011152Z AUTO 36008KT 1 1/4SM RA BR BKN009 OVC016 01/00 A2983 RMK AO2 SLP105 P0013 60066 70186 T00110000 10011 20011 53002
FIT,2017-04-01 11:55,-71.7558,42.5519,M,M,M,360.00,7.00,M,29.83,M,1.25,M,BKN,OVC,M,M,900.00,1400.00,M,M,RA BR,KFIT 011155Z AUTO 36007KT 1 1/2SM RA BR BKN009 OVC014 A2983 RMK MADISHF
FIT,2017-04-01 12:00,-71.7558,42.5519,M,M,M,10.00,8.00,0.01,29.83,M,1.25,M,SCT,OVC,M,M,700.00,1400.00,M,M,-RA BR,KFIT 011200Z AUTO 01008KT 1 1/2SM -RA BR SCT007 OVC014 A2983 RMK P0001 MADISHF
FIT,2017-04-01 12:03,-71.7558,42.5519,34.00,32.00,92.29,10.00,9.00,0.01,29.83,M,1.25,M,SCT,OVC,M,M,700.00,1400.00,M,M,-RA BR,KFIT 011203Z AUTO 01009KT 1 1/4SM -RA BR SCT007 OVC014 01/00 A2983 RMK AO2 P0001 T00110000
FIT,2017-04-01 13:55,-71.7558,42.5519,M,M,M,10.00,9.00,M,29.85,M,0.50,M,VV ,M,M,M,900.00,M,M,M,SN FG,KFIT 011355Z AUTO 01009KT 1/2SM SN FG VV009 A2985 RMK MADISHF
FIT,2017-04-01 14:00,-71.7558,42.5519,M,M,M,10.00,9.00,0.01,29.85,M,0.50,M,VV ,M,M,M,900.00,M,M,M,SN FG,KFIT 011400Z AUTO 01009KT 1/2SM SN FG VV009 A2985 RMK P0001 WND 33V04  MADISHF
FIT,2017-04-01 14:09,-71.7558,42.5519,34.00,32.00,92.29,10.00,8.00,0.01,29.86,M,0.50,M,VV ,M,M,M,1000.00,M,M,M,SN FG,KFIT 011409Z AUTO 01008KT 1/2SM SN FG VV010 01/00 A2986 RMK AO2 P0001 T00110000
FIT,2017-04-01 14:10,-71.7558,42.5519,M,M,M,20.00,8.00,0.02,29.86,M,0.50,M,VV ,M,M,M,999.00,M,M,M,SN FG,KFIT 011410Z AUTO 02008KT 1/2SM SN FG VV009 A2986 RMK P0002 MADISHF
FIT,2017-04-01 14:15,-71.7558,42.5519,M,M,M,10.00,8.00,0.02,29.86,M,0.50,M,VV ,M,M,M,999.00,M,M,M,SN FG,KFIT 011415Z AUTO 01008KT 1/2SM SN FG VV009 A2986 RMK P0002 MADISHF
FIT,2017-04-01 14:20,-71.7558,42.5519,M,M,M,10.00,8.00,0.03,29.86,M,0.50,M,VV ,M,M,M,999.00,M,M,M,SN FG,KFIT 011420Z AUTO 01008KT 1/2SM SN FG VV009 A2986 RMK P0003 MADISHF
FIT,2017-04-01 14:25,-71.7558,42.5519,M,M,M,20.00,11.00,0.03,29.87,M,0.50,16.00,VV ,M,M,M,999.00,M,M,M,SN FG,KFIT 011425Z AUTO 02011G16KT 1/2SM SN FG VV009 A2987 RMK P0003 MADISHF
FIT,2017-04-01 14:30,-71.7558,42.5519,M,M,M,10.00,11.00,0.04,29.87,M,0.50,M,OVC,M,M,M,999.00,M,M,M,SN FG,KFIT 011430Z AUTO 01011KT 1/2SM SN FG OVC009 A2987 RMK P0004 MADISHF
FIT,2017-04-01 14:35,-71.7558,42.5519,M,M,M,10.00,9.00,0.04,29.87,M,0.75,M,OVC,M,M,M,999.00,M,M,M,-SN BR,KFIT 011435Z AUTO 01009KT 1SM -SN BR OVC009 A2987 RMK P0004 MADISHF
FIT,2017-04-01 14:40,-71.7558,42.5519,M,M,M,10.00,9.00,0.04,29.87,M,0.75,M,SCT,OVC,M,M,999.00,1300.00,M,M,-SN BR,KFIT 011440Z AUTO 01009KT 1SM -SN BR SCT009 OVC013 A2987 RMK P0004 MADISHF
FIT,2017-04-01 14:45,-71.7558,42.5519,M,M,M,10.00,11.00,0.04,29.87,M,0.75,M,FEW,OVC,M,M,800.00,1300.00,M,M,-SN BR,KFIT 011445Z AUTO 01011KT 1SM -SN BR FEW008 OVC013 A2987 RMK P0004 MADISHF
FIT,2017-04-01 14:50,-71.7558,42.5519,M,M,M,20.00,9.00,0.05,29.87,M,0.75,M,OVC,M,M,M,1100.00,M,M,M,-SN BR,KFIT 011450Z AUTO 02009KT 1SM -SN BR OVC011 A2987 RMK P0005 MADISHF
FIT,2017-04-01 14:52,-71.7558,42.5519,35.10,32.00,88.33,20.00,10.00,0.05,29.87,1011.70,0.75,17.00,OVC,M,M,M,1100.00,M,M,M,-SN BR,KFIT 011452Z AUTO 02010G17KT 3/4SM -SN BR OVC011 02/00 A2987 RMK AO2 SLP117 P0005 60019 T00170000 53012
FIT,2017-04-01 14:55,-71.7558,42.5519,M,M,M,10.00,9.00,M,29.87,M,0.75,M,BKN,OVC,M,M,1100.00,1400.00,M,M,-SN BR,KFIT 011455Z AUTO 01009KT 1SM -SN BR BKN011 OVC014 A2987 RMK MADISHF
FIT,2017-04-01 15:05,-71.7558,42.5519,M,M,M,360.00,10.00,M,29.87,M,1.00,16.00,BKN,OVC,M,M,999.00,1400.00,M,M,-SN BR,KFIT 011505Z AUTO 36010G16KT 1SM -SN BR BKN009 OVC014 A2987 RMK MADISHF
FIT,2017-04-01 15:08,-71.7558,42.5519,35.10,32.00,88.33,20.00,8.00,0.00,29.87,M,1.00,16.00,OVC,M,M,M,1200.00,M,M,M,-SN BR,KFIT 011508Z AUTO 02008G16KT 1SM -SN BR OVC012 02/00 A2987 RMK AO2 P0000 T00170000
FIT,2017-04-01 15:10,-71.7558,42.5519,M,M,M,20.00,7.00,M,29.87,M,1.00,M,OVC,M,M,M,1200.00,M,M,M,-SN BR,KFIT 011510Z AUTO 02007KT 1SM -SN BR OVC012 A2987 RMK MADISHF
FIT,2017-04-01 15:15,-71.7558,42.5519,M,M,M,10.00,9.00,0.01,29.87,M,1.25,M,BKN,OVC,M,M,999.00,1400.00,M,M,-SN BR,KFIT 011515Z AUTO 01009KT 1 1/2SM -SN BR BKN009 OVC014 A2987 RMK P0001 WND 34V05  MADISHF
FIT,2017-04-01 15:20,-71.7558,42.5519,35.10,32.00,88.33,10.00,7.00,0.01,29.87,M,1.25,M,OVC,M,M,M,1200.00,M,M,M,-SN BR,KFIT 011520Z AUTO 01007KT 1 1/4SM -SN BR OVC012 02/00 A2987 RMK AO2 P0001 T00170000
FIT,2017-04-01 15:25,-71.7558,42.5519,M,M,M,360.00,9.00,0.01,29.87,M,1.25,M,BKN,OVC,M,M,999.00,1500.00,M,M,-SN BR,KFIT 011525Z AUTO 36009KT 1 1/2SM -SN BR BKN009 OVC015 A2987 RMK P0001 MADISHF
FIT,2017-04-01 15:30,-71.7558,42.5519,M,M,M,360.00,9.00,0.01,29.87,M,1.25,M,BKN,OVC,M,M,999.00,1500.00,M,M,-SN BR,KFIT 011530Z AUTO 36009KT 1 1/2SM -SN BR BKN009 OVC015 A2987 RMK P0001 MADISHF
FIT,2017-04-01 15:35,-71.7558,42.5519,M,M,M,360.00,8.00,0.01,29.87,M,1.25,M,BKN,OVC,M,M,999.00,1400.00,M,M,-SN BR,KFIT 011535Z AUTO 36008KT 1 1/2SM -SN BR BKN009 OVC014 A2987 RMK P0001 MADISHF
FIT,2017-04-01 15:40,-71.7558,42.5519,M,M,M,360.00,11.00,0.01,29.87,M,1.25,M,BKN,OVC,M,M,999.00,1400.00,M,M,-SN BR,KFIT 011540Z AUTO 36011KT 1 1/2SM -SN BR BKN009 OVC014 A2987 RMK P0001 MADISHF
FIT,2017-04-01 15:45,-71.7558,42.5519,M,M,M,10.00,8.00,0.02,29.87,M,1.00,M,BKN,OVC,M,M,999.00,1400.00,M,M,-SN BR,KFIT 011545Z AUTO 01008KT 1SM -SN BR BKN009 OVC014 A2987 RMK P0002 MADISHF
FIT,2017-04-01 15:50,-71.7558,42.5519,M,M,M,360.00,8.00,0.02,29.87,M,1.00,M,BKN,OVC,M,M,999.00,1400.00,M,M,-SN BR,KFIT 011550Z AUTO 36008KT 1SM -SN BR BKN009 OVC014 A2987 RMK P0002 MADISHF
FIT,2017-04-01 15:52,-71.7558,42.5519,35.10,32.00,88.33,10.00,8.00,0.02,29.87,1011.70,1.00,M,BKN,OVC,M,M,1000.00,1400.00,M,M,-SN BR,KFIT 011552Z AUTO 01008KT 1SM -SN BR BKN010 OVC014 02/00 A2987 RMK AO2 SLP117 P0002 T00170000
FIT,2017-04-01 15:55,-71.7558,42.5519,M,M,M,20.00,9.00,M,29.87,M,1.00,M,BKN,OVC,M,M,999.00,1400.00,M,M,-SN BR,KFIT 011555Z AUTO 02009KT 1SM -SN BR BKN009 OVC014 A2987 RMK MADISHF
FIT,2017-04-01 16:00,-71.7558,42.5519,M,M,M,10.00,11.00,M,29.87,M,1.00,16.00,OVC,M,M,M,999.00,M,M,M,-SN BR,KFIT 011600Z AUTO 01011G16KT 1SM -SN BR OVC009 A2987 RMK MADISHF
FIT,2017-04-01 16:05,-71.7558,42.5519,M,M,M,10.00,10.00,M,29.87,M,0.75,M,SCT,OVC,M,M,999.00,1300.00,M,M,-SN BR,KFIT 011605Z AUTO 01010KT 1SM -SN BR SCT009 OVC013 A2987 RMK MADISHF
FIT,2017-04-01 16:07,-71.7558,42.5519,35.10,32.00,88.33,350.00,11.00,0.00,29.87,M,0.75,M,OVC,M,M,M,1300.00,M,M,M,-SN BR,KFIT 011607Z AUTO 35011KT 3/4SM -SN BR OVC013 02/00 A2987 RMK AO2 P0000 T00170000
FIT,2017-04-01 16:10,-71.7558,42.5519,M,M,M,10.00,12.00,M,29.87,M,0.75,M,OVC,M,M,M,1100.00,M,M,M,-SN BR,KFIT 011610Z AUTO 01012KT 1SM -SN BR OVC011 A2987 RMK MADISHF
FIT,2017-04-01 16:23,-71.7558,42.5519,35.10,30.90,84.49,20.00,13.00,0.01,29.87,M,1.00,19.00,OVC,M,M,M,1100.00,M,M,M,-SN BR,KFIT 011623Z AUTO 02013G19KT 1SM -SN BR OVC011 02/M01 A2987 RMK AO2 P0001 T00171006
FIT,2017-04-01 16:25,-71.7558,42.5519,M,M,M,360.00,9.00,0.01,29.87,M,1.00,M,OVC,M,M,M,1100.00,M,M,M,-SN BR,KFIT 011625Z AUTO 36009KT 1SM -SN BR OVC011 A2987 RMK P0001 MADISHF
FIT,2017-04-01 16:30,-71.7558,42.5519,M,M,M,360.00,8.00,0.01,29.87,M,1.00,M,OVC,M,M,M,1100.00,M,M,M,-SN BR,KFIT 011630Z AUTO 36008KT 1SM -SN BR OVC011 A2987 RMK P0001 MADISHF
FIT,2017-04-01 16:35,-71.7558,42.5519,M,M,M,360.00,10.00,0.01,29.87,M,1.25,M,OVC,M,M,M,1200.00,M,M,M,-SN BR,KFIT 011635Z AUTO 36010KT 1 1/2SM -SN BR OVC012 A2987 RMK P0001 MADISHF
FIT,2017-04-01 16:37,-71.7558,42.5519,35.10,32.00,88.33,10.00,9.00,0.01,29.86,M,1.50,18.00,BKN,OVC,M,M,1200.00,1700.00,M,M,-SN BR,KFIT 011637Z AUTO 01009G18KT 1 1/2SM -SN BR BKN012 OVC017 02/00 A2986 RMK AO2 P0001 T00170000
FIT,2017-04-01 16:40,-71.7558,42.5519,M,M,M,10.00,9.00,0.01,29.87,M,1.75,M,BKN,OVC,M,M,1200.00,1699.00,M,M,-SN BR,KFIT 011640Z AUTO 01009KT 2SM -SN BR BKN012 OVC016 A2987 RMK P0001 MADISHF
FIT,2017-04-01 16:45,-71.7558,42.5519,M,M,M,M,M,0.01,29.87,M,2.00,M,BKN,OVC,M,M,1200.00,1699.00,M,M,-SN BR,KFIT 011645Z AUTO /////KT 2SM -SN BR BKN012 OVC016 A2987 RMK P0001 MADISHF
FIT,2017-04-01 16:47,-71.7558,42.5519,35.60,30.20,80.51,10.00,10.00,0.01,29.87,M,2.00,19.00,BKN,OVC,M,M,1200.00,1700.00,M,M,-SN BR,KFIT 011647Z AUTO 01010G19KT 2SM -SN BR BKN012 OVC017 02/M01 A2987 RMK AO2 P0001
FIT,2017-04-01 16:52,-71.7558,42.5519,35.10,30.90,84.49,360.00,11.00,0.01,29.87,1011.80,2.00,19.00,BKN,OVC,M,M,1200.00,1800.00,M,M,-SN BR,KFIT 011652Z AUTO 36011G19KT 2SM -SN BR BKN012 OVC018 02/M01 A2987 RMK AO2 SLP118 P0001 T00171006
FIT,2017-04-01 16:55,-71.7558,42.5519,M,M,M,M,M,M,29.87,M,2.00,M,BKN,OVC,M,M,1200.00,1800.00,M,M,-SN BR,KFIT 011655Z AUTO /////KT 2SM -SN BR BKN012 OVC018 A2987 RMK MADISHF
FIT,2017-04-01 17:00,-71.7558,42.5519,M,M,M,360.00,10.00,M,29.87,M,2.00,M,BKN,OVC,M,M,1200.00,1999.00,M,M,-SN BR,KFIT 011700Z AUTO 36010KT 2SM -SN BR BKN012 OVC019 A2987 RMK WND 34V04  MADISHF
FIT,2017-04-01 17:05,-71.7558,42.5519,M,M,M,10.00,11.00,M,29.87,M,2.00,16.00,BKN,OVC,M,M,1200.00,1800.00,M,M,-SN BR,KFIT 011705Z AUTO 01011G16KT 2SM -SN BR BKN012 OVC018 A2987 RMK MADISHF
FIT,2017-04-01 17:10,-71.7558,42.5519,M,M,M,20.00,10.00,M,29.87,M,1.50,M,BKN,OVC,M,M,1200.00,1800.00,M,M,-SN BR,KFIT 011710Z AUTO 02010KT 1 1/2SM -SN BR BKN012 OVC018 A2987 RMK MADISHF
FIT,2017-04-01 17:13,-71.7558,42.5519,35.10,30.90,84.49,10.00,11.00,0.00,29.87,M,1.50,17.00,BKN,OVC,M,M,1200.00,1800.00,M,M,-SN BR,KFIT 011713Z AUTO 01011G17KT 1 1/2SM -SN BR BKN012 OVC018 02/M01 A2987 RMK AO2 P0000 T00171006
FIT,2017-04-01 17:15,-71.7558,42.5519,M,M,M,10.00,10.00,M,29.87,M,1.50,17.00,BKN,OVC,M,M,1200.00,1800.00,M,M,-SN BR,KFIT 011715Z AUTO 01010G17KT 1 1/2SM -SN BR BKN012 OVC018 A2987 RMK MADISHF
FIT,2017-04-01 17:20,-71.7558,42.5519,M,M,M,10.00,9.00,M,29.87,M,1.50,M,BKN,OVC,M,M,1200.00,1800.00,M,M,-SN BR,KFIT 011720Z AUTO 01009KT 1 1/2SM -SN BR BKN012 OVC018 A2987 RMK WND 34V06  MADISHF
FIT,2017-04-01 17:25,-71.7558,42.5519,M,M,M,360.00,9.00,M,29.87,M,1.75,14.00,BKN,OVC,M,M,1200.00,1800.00,M,M,-SN BR,KFIT 011725Z AUTO 36009G14KT 2SM -SN BR BKN012 OVC018 A2987 RMK MADISHF
FIT,2017-04-01 17:30,-71.7558,42.5519,M,M,M,10.00,9.00,M,29.87,M,2.00,15.00,BKN,OVC,M,M,1200.00,1800.00,M,M,-SN BR,KFIT 011730Z AUTO 01009G15KT 2SM -SN BR BKN012 OVC018 A2987 RMK MADISHF
FIT,2017-04-01 17:35,-71.7558,42.5519,M,M,M,10.00,9.00,M,29.86,M,1.75,M,BKN,OVC,M,M,1200.00,1800.00,M,M,-SN BR,KFIT 011735Z AUTO 01009KT 2SM -SN BR BKN012 OVC018 A2986 RMK MADISHF
FIT,2017-04-01 17:40,-71.7558,42.5519,M,M,M,10.00,11.00,M,29.86,M,2.00,M,BKN,OVC,M,M,1200.00,1900.00,M,M,-SN BR,KFIT 011740Z AUTO 01011KT 2SM -SN BR BKN012 OVC019 A2986 RMK MADISHF
FIT,2017-04-01 17:50,-71.7558,42.5519,M,M,M,10.00,12.00,M,29.86,M,2.00,17.00,BKN,OVC,M,M,1200.00,1900.00,M,M,-SN BR,KFIT 011750Z AUTO 01012G17KT 2SM -SN BR BKN012 OVC019 A2986 RMK MADISHF
FIT,2017-04-01 17:52,-71.7558,42.5519,35.10,30.90,84.49,10.00,12.00,0.00,29.86,1011.60,2.00,21.00,BKN,OVC,M,M,1200.00,1900.00,M,M,-SN BR,KFIT 011752Z AUTO 01012G21KT 2SM -SN BR BKN012 OVC019 02/M01 A2986 RMK AO2 SLP116 P0000 60022 T00171006 10017 20011 58002
FIT,2017-04-01 17:55,-71.7558,42.5519,M,M,M,10.00,8.00,M,29.86,M,2.00,M,BKN,OVC,M,M,1200.00,1900.00,M,M,-SN BR,KFIT 011755Z AUTO 01008KT 2SM -SN BR BKN012 OVC019 A2986 RMK MADISHF
FIT,2017-04-01 18:00,-71.7558,42.5519,M,M,M,M,M,M,29.86,M,2.50,M,BKN,OVC,M,M,1200.00,1900.00,M,M,-SN BR,KFIT 011800Z AUTO /////KT 2 1/2SM -SN BR BKN012 OVC019 A2986 RMK MADISHF
FIT,2017-04-01 18:05,-71.7558,42.5519,M,M,M,10.00,11.00,M,29.86,M,2.50,19.00,OVC,M,M,M,1200.00,M,M,M,-SN BR,KFIT 011805Z AUTO 01011G19KT 2 1/2SM -SN BR OVC012 A2986 RMK MADISHF
FIT,2017-04-01 18:10,-71.7558,42.5519,M,M,M,20.00,9.00,M,29.86,M,3.00,M,OVC,M,M,M,1200.00,M,M,M,-SN BR,KFIT 011810Z AUTO 02009KT 3SM -SN BR OVC012 A2986 RMK MADISHF
FIT,2017-04-01 18:12,-71.7558,42.5519,35.10,32.00,88.33,10.00,12.00,0.00,29.86,M,3.00,20.00,OVC,M,M,M,1200.00,M,M,M,-SN BR,KFIT 011812Z AUTO 01012G20KT 340V040 3SM -SN BR OVC012 02/00 A2986 RMK AO2 P0000 T00170000
FIT,2017-04-01 18:15,-71.7558,42.5519,M,M,M,20.00,8.00,M,29.86,M,3.00,M,BKN,OVC,M,M,1300.00,1800.00,M,M,-SN BR,KFIT 011815Z AUTO 02008KT 3SM -SN BR BKN013 OVC018 A2986 RMK MADISHF
FIT,2017-04-01 18:20,-71.7558,42.5519,M,M,M,20.00,11.00,M,29.86,M,4.00,16.00,BKN,OVC,M,M,1300.00,1699.00,M,M,-SN BR,KFIT 011820Z AUTO 02011G16KT 4SM -SN BR BKN013 OVC016 A2986 RMK WND 35V05  MADISHF
FIT,2017-04-01 18:25,-71.7558,42.5519,M,M,M,10.00,10.00,M,29.86,M,3.50,M,BKN,OVC,M,M,1300.00,1999.00,M,M,-SN BR,KFIT 011825Z AUTO 01010KT 3SM -SN BR BKN013 OVC019 A2986 RMK MADISHF
FIT,2017-04-01 18:30,-71.7558,42.5519,M,M,M,10.00,12.00,M,29.86,M,2.50,20.00,BKN,OVC,M,M,1300.00,1999.00,M,M,-SN BR,KFIT 011830Z AUTO 01012G20KT 2 1/2SM -SN BR BKN013 OVC019 A2986 RMK WND 34V05  MADISHF
FIT,2017-04-01 18:33,-71.7558,42.5519,35.10,30.90,84.49,20.00,10.00,0.00,29.86,M,2.00,21.00,OVC,M,M,M,1500.00,M,M,M,-SN BR,KFIT 011833Z AUTO 02010G21KT 2SM -SN BR OVC015 02/M01 A2986 RMK AO2 P0000 T00171006
FIT,2017-04-01 18:37,-71.7558,42.5519,35.10,30.90,84.49,20.00,10.00,0.00,29.86,M,1.75,21.00,BKN,OVC,M,M,1300.00,1900.00,M,M,-SN BR,KFIT 011837Z AUTO 02010G21KT 1 3/4SM -SN BR BKN013 OVC019 02/M01 A2986 RMK AO2 P0000 T00171006
FIT,2017-04-01 18:40,-71.7558,42.5519,M,M,M,20.00,10.00,M,29.86,M,1.75,M,BKN,OVC,M,M,1300.00,1900.00,M,M,-SN BR,KFIT 011840Z AUTO 02010KT 2SM -SN BR BKN013 OVC019 A2986 RMK MADISHF
FIT,2017-04-01 18:45,-71.7558,42.5519,M,M,M,360.00,10.00,M,29.86,M,1.75,M,BKN,OVC,M,M,1100.00,1699.00,M,M,-SN BR,KFIT 011845Z AUTO 36010KT 2SM -SN BR BKN011 OVC016 A2986 RMK MADISHF
FIT,2017-04-01 18:50,-71.7558,42.5519,M,M,M,360.00,11.00,M,29.86,M,1.75,M,BKN,OVC,M,M,1300.00,1699.00,M,M,-SN BR,KFIT 011850Z AUTO 36011KT 2SM -SN BR BKN013 OVC016 A2986 RMK MADISHF
FIT,2017-04-01 18:52,-71.7558,42.5519,35.10,32.00,88.33,360.00,12.00,0.00,29.86,1011.60,2.00,16.00,BKN,OVC,M,M,1300.00,1900.00,M,M,-SN BR,KFIT 011852Z AUTO 36012G16KT 2SM -SN BR BKN013 OVC019 02/00 A2986 RMK AO2 SLP116 P0000 T00170000
FIT,2017-04-01 18:55,-71.7558,42.5519,M,M,M,350.00,9.00,M,29.86,M,2.00,M,BKN,OVC,M,M,1300.00,1900.00,M,M,-SN BR,KFIT 011855Z AUTO 35009KT 2SM -SN BR BKN013 OVC019 A2986 RMK MADISHF
FIT,2017-04-01 19:00,-71.7558,42.5519,M,M,M,350.00,10.00,M,29.87,M,2.00,16.00,BKN,OVC,M,M,1100.00,1900.00,M,M,-SN BR,KFIT 011900Z AUTO 35010G16KT 2SM -SN BR BKN011 OVC019 A2987 RMK MADISHF
FIT,2017-04-01 19:05,-71.7558,42.5519,M,M,M,10.00,9.00,M,29.87,M,2.00,M,BKN,OVC,M,M,1100.00,1800.00,M,M,-SN BR,KFIT 011905Z AUTO 01009KT 2SM -SN BR BKN011 OVC018 A2987 RMK MADISHF
FIT,2017-04-01 19:10,-71.7558,42.5519,M,M,M,360.00,13.00,0.01,29.87,M,2.00,M,BKN,OVC,M,M,1100.00,1800.00,M,M,-SN BR,KFIT 011910Z AUTO 36013KT 2SM -SN BR BKN011 OVC018 A2987 RMK P0001 MADISHF
FIT,2017-04-01 19:15,-71.7558,42.5519,M,M,M,350.00,10.00,0.01,29.87,M,2.00,M,BKN,OVC,M,M,1300.00,1999.00,M,M,-SN BR,KFIT 011915Z AUTO 35010KT 2SM -SN BR BKN013 OVC019 A2987 RMK P0001 MADISHF
FIT,2017-04-01 19:20,-71.7558,42.5519,M,M,M,M,M,0.01,29.87,M,2.00,M,BKN,OVC,M,M,1300.00,1900.00,M,M,-SN BR,KFIT 011920Z AUTO /////KT 2SM -SN BR BKN013 OVC019 A2987 RMK P0001 MADISHF
