#DEBUG: Format Typ    -> comma
#DEBUG: Time Period   -> 2017-04-01 00:00:00+00:00 2017-04-02 00:00:00+00:00
#DEBUG: Time Zone     -> Etc/UTC
#DEBUG: Data Contact   -> daryl herzmann akrherz@iastate.edu 515-294-5978
#DEBUG: Entries Found -> -1
station,valid,lon,lat,tmpf, dwpf, relh, drct, sknt, p01i, alti, mslp, vsby, gust, skyc1, skyc2, skyc3, skyc4, skyl1, skyl2, skyl3, skyl4, presentwx, metar
FLP,2017-04-01 00:00,-92.5902,36.2909,M,M,M,360.00,5.00,M,29.90,M,10.00,M,CLR,M,M,M,M,M,M,M,M,KFLP 010000Z AUTO 36005KT 10SM CLR A2990 RMK MADISHF
FLP,2017-04-01 00:05,-92.5902,36.2909,M,M,M,340.00,5.00,M,29.90,M,10.00,M,CLR,M,M,M,M,M,M,M,M,KFLP 010005Z AUTO 34005KT 10SM CLR A2990 RMK MADISHF
FLP,2017-04-01 00:10,-92.5902,36.2909,M,M,M,350.00,6.00,M,29.91,M,10.00,M,CLR,M,M,M,M,M,M,M,M,KFLP 010010Z AUTO 35006KT 10SM CLR A2991 RMK MADISHF
FLP,2017-04-01 00:15,-92.5902,36.2909,M,M,M,350.00,7.00,M,29.91,M,10.00,M,CLR,M,M,M,M,M,M,M,M,KFLP 010015Z AUTO 35007KT 10SM CLR A2991 RMK MADISHF
FLP,2017-04-01 00:20,-92.5902,36.2909,M,M,M,360.00,5.00,M,29.91,M,10.00,M,CLR,M,M,M,M,M,M,M,M,KFLP 010020Z AUTO 36005KT 10SM CLR A2991 RMK MADISHF
FLP,2017-04-01 00:25,-92.5902,36.2909,M,M,M,10.00,7.00,M,29.91,M,10.00,M,CLR,M,M,M,M,M,M,M,M,KFLP 010025Z AUTO 01007KT 10SM CLR A2991 RMK MADISHF
FLP,2017-04-01 00:30,-92.5902,36.2909,M,M,M,10.00,5.00,M,29.91,M,10.00,M,CLR,M,M,M,M,M,M,M,M,KFLP 010030Z AUTO 01005KT 10SM CLR A2991 RMK MADISHF
FLP,2017-04-01 00:35,-92.5902,36.2909,M,M,M,10.00,6.00,M,29.91,M,10.00,M,CLR,M,M,M,M,M,M,M,M,KFLP 010035Z AUTO 01006KT 10SM CLR A2991 RMK MADISHF
FLP,2017-04-01 00:40,-92.5902,36.2909,M,M,M,10.00,6.00,M,29.91,M,10.00,M,CLR,M,M,M,M,M,M,M,M,KFLP 010040Z AUTO 01006KT 10SM CLR A2991 RMK MADISHF
FLP,2017-04-01 00:45,-92.5902,36.2909,M,M,M,20.00,5.00,M,29.91,M,10.00,M,CLR,M,M,M,M,M,M,M,M,KFLP 010045Z AUTO 02005KT 10SM CLR A2991 RMK MADISHF
FLP,2017-04-01 00:50,-92.5902,36.2909,M,M,M,20.00,5.00,M,29.92,M,10.00,M,CLR,M,M,M,M,M,M,M,M,KFLP 010050Z AUTO 02005KT 10SM CLR A2992 RMK MADISHF
FLP,2017-04-01 00:55,-92.5902,36.2909,M,M,M,10.00,5.00,M,29.92,M,10.00,M,CLR,M,M,M,M,M,M,M,M,KFLP 010055Z AUTO 01005KT 10SM CLR A2992 RMK MADISHF
FLP,2017-04-01 01:00,-92.5902,36.2909,M,M,M,360.00,5.00,M,29.92,M,10.00,M,CLR,M,M,M,M,M,M,M,M,KFLP 010100Z AUTO 36005KT 10SM CLR A2992 RMK MADISHF
FLP,2017-04-01 01:05,-92.5902,36.2909,M,M,M,360.00,4.00,M,29.92,M,10.00,M,CLR,M,M,M,M,M,M,M,M,KFLP 010105Z AUTO 36004KT 10SM CLR A2992 RMK MADISHF
FLP,2017-04-01 01:10,-92.5902,36.2909,M,M,M,30.00,4.00,M,29.93,M,10.00,M,CLR,M,M,M,M,M,M,M,M,KFLP 010110Z AUTO 03004KT 10SM CLR A2993 RMK MADISHF
FLP,2017-04-01 01:15,-92.5902,36.2909,M,M,M,60.00,8.00,M,29.93,M,10.00,M,CLR,M,M,M,M,M,M,M,M,KFLP 010115Z AUTO 06008KT 10SM CLR A2993 RMK MADISHF
FLP,2017-04-01 01:20,-92.5902,36.2909,M,M,M,40.00,9.00,M,29.93,M,10.00,M,CLR,M,M,M,M,M,M,M,M,KFLP 010120Z AUTO 04009KT 10SM CLR A2993 RMK MADISHF
FLP,2017-04-01 01:25,-92.5902,36.2909,M,M,M,40.00,7.00,M,29.94,M,10.00,M,CLR,M,M,M,M,M,M,M,M,KFLP 010125Z AUTO 04007KT 10SM CLR A2994 RMK MADISHF
FLP,2017-04-01 01:30,-92.5902,36.2909,M,M,M,40.00,8.00,M,29.94,M,10.00,M,CLR,M,M,M,M,M,M,M,M,KFLP 010130Z AUTO 04008KT 10SM CLR A2994 RMK MADISHF
FLP,2017-04-01 01:35,-92.5902,36.2909,M,M,M,30.00,9.00,M,29.94,M,10.00,M,CLR,M,M,M,M,M,M,M,M,KFLP 010135Z AUTO 03009KT 10SM CLR A2994 RMK MADISHF
FLP,2017-04-01 01:40,-92.5902,36.2909,M,M,M,50.00,5.00,M,29.94,M,10.00,M,CLR,M,M,M,M,M,M,M,M,KFLP 010140Z AUTO 05005KT 10SM CLR A2994 RMK MADISHF
FLP,2017-04-01 01:45,-92.5902,36.2909,M,M,M,40.00,9.00,M,29.95,M,10.00,M,CLR,M,M,M,M,M,M,M,M,KFLP 010145Z AUTO 04009KT 10SM CLR A2995 RMK MADISHF
FLP,2017-04-01 01:50,-92.5902,36.2909,M,M,M,40.00,8.00,M,29.95,M,10.00,M,CLR,M,M,M,M,M,M,M,M,KFLP 010150Z AUTO 04008KT 10SM CLR A2995 RMK MADISHF
FLP,2017-04-01 01:55,-92.5902,36.2909,M,M,M,30.00,7.00,M,29.95,M,10.00,M,CLR,M,M,M,M,M,M,M,M,KFLP 010155Z AUTO 03007KT 10SM CLR A2995 RMK MADISHF
FLP,2017-04-01 02:00,-92.5902,36.2909,M,M,M,30.00,8.00,M,29.96,M,10.00,M,CLR,M,M,M,M,M,M,M,M,KFLP 010200Z AUTO 03008KT 10SM CLR A2996 RMK MADISHF
FLP,2017-04-01 02:05,-92.5902,36.2909,M,M,M,20.00,10.00,M,29.96,M,10.00,14.00,CLR,M,M,M,M,M,M,M,M,KFLP 010205Z AUTO 02010G14KT 10SM CLR A2996 RMK MADISHF
FLP,2017-04-01 02:10,-92.5902,36.2909,M,M,M,20.00,9.00,M,29.96,M,10.00,14.00,CLR,M,M,M,M,M,M,M,M,KFLP 010210Z AUTO 02009G14KT 10SM CLR A2996 RMK MADISHF
FLP,2017-04-01 02:15,-92.5902,36.2909,M,M,M,20.00,8.00,M,29.96,M,10.00,M,CLR,M,M,M,M,M,M,M,M,KFLP 010215Z AUTO 02008KT 10SM CLR A2996 RMK MADISHF
FLP,2017-04-01 02:20,-92.5902,36.2909,M,M,M,20.00,9.00,M,29.97,M,10.00,M,CLR,M,M,M,M,M,M,M,M,KFLP 010220Z AUTO 02009KT 10SM CLR A2997 RMK MADISHF
FLP,2017-04-01 02:25,-92.5902,36.2909,M,M,M,40.00,6.00,M,29.97,M,10.00,M,CLR,M,M,M,M,M,M,M,M,KFLP 010225Z AUTO 04006KT 10SM CLR A2997 RMK MADISHF
FLP,2017-04-01 02:30,-92.5902,36.2909,M,M,M,30.00,7.00,M,29.97,M,10.00,M,CLR,M,M,M,M,M,M,M,M,KFLP 010230Z AUTO 03007KT 10SM CLR A2997 RMK MADISHF
FLP,2017-04-01 02:35,-92.5902,36.2909,M,M,M,30.00,8.00,M,29.97,M,10.00,M,CLR,M,M,M,M,M,M,M,M,KFLP 010235Z AUTO 03008KT 10SM CLR A2997 RMK MADISHF
FLP,2017-04-01 02:40,-92.5902,36.2909,M,M,M,30.00,8.00,M,29.98,M,10.00,M,CLR,M,M,M,M,M,M,M,M,KFLP 010240Z AUTO 03008KT 10SM CLR A2998 RMK MADISHF
FLP,2017-04-01 02:45,-92.5902,36.2909,M,M,M,40.00,5.00,M,29.98,M,10.00,M,CLR,M,M,M,M,M,M,M,M,KFLP 010245Z AUTO 04005KT 10SM CLR A2998 RMK MADISHF
FLP,2017-04-01 02:50,-92.5902,36.2909,M,M,M,50.00,6.00,M,29.98,M,10.00,M,CLR,M,M,M,M,M,M,M,M,KFLP 010250Z AUTO 05006KT 10SM CLR A2998 RMK MADISHF
FLP,2017-04-01 02:55,-92.5902,36.2909,51.80,41.00,66.48,40.00,5.00,0.00,29.99,M,10.00,M,CLR,M,M,M,M,M,M,M,M,KFLP 010255Z 04005KT 10SM CLR 11/05 A2999 RMK AO1 52030
FLP,2017-04-01 03:00,-92.5902,36.2909,M,M,M,30.00,6.00,M,29.99,M,10.00,M,CLR,M,M,M,M,M,M,M,M,KFLP 010300Z AUTO 03006KT 10SM CLR A2999 RMK MADISHF
FLP,2017-04-01 03:05,-92.5902,36.2909,M,M,M,30.00,7.00,M,29.99,M,10.00,M,CLR,M,M,M,M,M,M,M,M,KFLP 010305Z AUTO 03007KT 10SM CLR A2999 RMK MADISHF
FLP,2017-04-01 03:10,-92.5902,36.2909,M,M,M,40.00,8.00,M,29.99,M,10.00,M,CLR,M,M,M,M,M,M,M,M,KFLP 010310Z AUTO 04008KT 10SM CLR A2999 RMK MADISHF
FLP,2017-04-01 03:15,-92.5902,36.2909,M,M,M,40.00,6.00,M,29.99,M,10.00,M,CLR,M,M,M,M,M,M,M,M,KFLP 010315Z AUTO 04006KT 10SM CLR A2999 RMK MADISHF
FLP,2017-04-01 03:20,-92.5902,36.2909,M,M,M,30.00,7.00,M,29.99,M,10.00,M,CLR,M,M,M,M,M,M,M,M,KFLP 010320Z AUTO 03007KT 10SM CLR A2999 RMK MADISHF
FLP,2017-04-01 03:25,-92.5902,36.2909,M,M,M,40.00,6.00,M,29.99,M,10.00,M,CLR,M,M,M,M,M,M,M,M,KFLP 010325Z AUTO 04006KT 10SM CLR A2999 RMK MADISHF
FLP,2017-04-01 03:35,-92.5902,36.2909,M,M,M,30.00,6.00,M,29.99,M,10.00,M,CLR,M,M,M,M,M,M,M,M,KFLP 010335Z AUTO 03006KT 10SM CLR A2999 RMK MADISHF
FLP,2017-04-01 03:45,-92.5902,36.2909,M,M,M,40.00,5.00,M,30.00,M,10.00,M,CLR,M,M,M,M,M,M,M,M,KFLP 010345Z AUTO 04005KT 10SM CLR A3000 RMK MADISHF
FLP,2017-04-01 03:55,-92.5902,36.2909,M,M,M,30.00,6.00,M,30.00,M,10.00,M,CLR,M,M,M,M,M,M,M,M,KFLP 010355Z AUTO 03006KT 10SM CLR A3000 RMK MADISHF
FLP,2017-04-01 04:05,-92.5902,36.2909,M,M,M,40.00,4.00,M,30.00,M,10.00,M,CLR,M,M,M,M,M,M,M,M,KFLP 010405Z AUTO 04004KT 10SM CLR A3000 RMK MADISHF
FLP,2017-04-01 04:15,-92.5902,36.2909,M,M,M,40.00,4.00,M,30.01,M,10.00,M,CLR,M,M,M,M,M,M,M,M,KFLP 010415Z AUTO 04004KT 10SM CLR A3001 RMK MADISHF
FLP,2017-04-01 04:25,-92.5902,36.2909,M,M,M,50.00,3.00,M,30.01,M,10.00,M,CLR,M,M,M,M,M,M,M,M,KFLP 010425Z AUTO 05003KT 10SM CLR A3001 RMK MADISHF
FLP,2017-04-01 04:35,-92.5902,36.2909,M,M,M,50.00,3.00,M,30.01,M,10.00,M,CLR,M,M,M,M,M,M,M,M,KFLP 010435Z AUTO 05003KT 10SM CLR A3001 RMK MADISHF
FLP,2017-04-01 04:45,-92.5902,36.2909,M,M,M,50.00,3.00,M,30.01,M,10.00,M,CLR,M,M,M,M,M,M,M,M,KFLP 010445Z AUTO 05003KT 10SM CLR A3001 RMK MADISHF
FLP,2017-04-01 04:55,-92.5902,36.2909,M,M,M,40.00,3.00,M,30.02,M,10.00,M,CLR,M,M,M,M,M,M,M,M,KFLP 010455Z AUTO 04003KT 10SM CLR A3002 RMK MADISHF
FLP,2017-04-01 05:05,-92.5902,36.2909,M,M,M,50.00,3.00,M,30.02,M,10.00,M,CLR,M,M,M,M,M,M,M,M,KFLP 010505Z AUTO 05003KT 10SM CLR A3002 RMK MADISHF
FLP,2017-04-01 05:10,-92.5902,36.2909,M,M,M,0.00,0.00,M,30.02,M,10.00,M,CLR,M,M,M,M,M,M,M,M,KFLP 010510Z AUTO 00000KT 10SM CLR A3002 RMK MADISHF
FLP,2017-04-01 05:15,-92.5902,36.2909,48.20,39.20,70.88,0.00,0.00,0.00,30.03,M,10.00,M,CLR,M,M,M,M,M,M,M,M,KFLP 010515Z 00000KT 10SM CLR 09/04 A3003 RMK AO1
FLP,2017-04-01 05:20,-92.5902,36.2909,M,M,M,60.00,3.00,M,30.03,M,10.00,M,CLR,M,M,M,M,M,M,M,M,KFLP 010520Z AUTO 06003KT 10SM CLR A3003 RMK MADISHF
FLP,2017-04-01 05:25,-92.5902,36.2909,M,M,M,50.00,4.00,M,30.03,M,10.00,M,CLR,M,M,M,M,M,M,M,M,KFLP 010525Z AUTO 05004KT 10SM CLR A3003 RMK MADISHF
FLP,2017-04-01 05:35,-92.5902,36.2909,48.20,39.20,70.88,50.00,3.00,0.00,30.03,M,10.00,M,CLR,M,M,M,M,M,M,M,M,KFLP 010535Z 05003KT 10SM CLR 09/04 A3003 RMK AO1
FLP,2017-04-01 05:40,-92.5902,36.2909,M,M,M,30.00,4.00,M,30.03,M,10.00,M,CLR,M,M,M,M,M,M,M,M,KFLP 010540Z AUTO 03004KT 10SM CLR A3003 RMK MADISHF
FLP,2017-04-01 05:45,-92.5902,36.2909,M,M,M,40.00,4.00,M,30.03,M,10.00,M,CLR,M,M,M,M,M,M,M,M,KFLP 010545Z AUTO 04004KT 10SM CLR A3003 RMK MADISHF
FLP,2017-04-01 05:55,-92.5902,36.2909,48.20,39.20,70.88,40.00,3.00,0.00,30.03,M,10.00,M,CLR,M,M,M,M,M,M,M,M,KFLP 010555Z 04003KT 10SM CLR 09/04 A3003 RMK AO1 10170 20080 52014
FLP,2017-04-01 06:00,-92.5902,36.2909,M,M,M,0.00,0.00,M,30.03,M,10.00,M,CLR,M,M,M,M,M,M,M,M,KFLP 010600Z AUTO 00000KT 10SM CLR A3003 RMK MADISHF
FLP,2017-04-01 06:10,-92.5902,36.2909,M,M,M,30.00,3.00,M,30.03,M,10.00,M,CLR,M,M,M,M,M,M,M,M,KFLP 010610Z AUTO 03003KT 10SM CLR A3003 RMK MADISHF
FLP,2017-04-01 06:15,-92.5902,36.2909,46.40,39.20,75.84,40.00,3.00,0.00,30.03,M,10.00,M,CLR,M,M,M,M,M,M,M,M,KFLP 010615Z 04003KT 10SM CLR 08/04 A3003 RMK AO1
FLP,2017-04-01 06:20,-92.5902,36.2909,M,M,M,50.00,3.00,M,30.04,M,10.00,M,CLR,M,M,M,M,M,M,M,M,KFLP 010620Z AUTO 05003KT 10SM CLR A3004 RMK MADISHF
FLP,2017-04-01 06:30,-92.5902,36.2909,M,M,M,30.00,3.00,M,30.04,M,10.00,M,CLR,M,M,M,M,M,M,M,M,KFLP 010630Z AUTO 03003KT 10SM CLR A3004 RMK MADISHF
FLP,2017-04-01 06:35,-92.5902,36.2909,46.40,39.20,75.84,30.00,3.00,0.00,30.04,M,10.00,M,CLR,M,M,M,M,M,M,M,M,KFLP 010635Z 03003KT 10SM CLR 08/04 A3004 RMK AO1
FLP,2017-04-01 06:40,-92.5902,36.2909,M,M,M,30.00,3.00,M,30.04,M,10.00,M,CLR,M,M,M,M,M,M,M,M,KFLP 010640Z AUTO 03003KT 10SM CLR A3004 RMK MADISHF
FLP,2017-04-01 06:50,-92.5902,36.2909,M,M,M,20.00,3.00,M,30.05,M,10.00,M,CLR,M,M,M,M,M,M,M,M,KFLP 010650Z AUTO 02003KT 10SM CLR A3005 RMK MADISHF
FLP,2017-04-01 06:55,-92.5902,36.2909,46.40,39.20,75.84,10.00,3.00,0.00,30.05,M,10.00,M,CLR,M,M,M,M,M,M,M,M,KFLP 010655Z 01003KT 10SM CLR 08/04 A3005 RMK AO1
FLP,2017-04-01 07:00,-92.5902,36.2909,M,M,M,20.00,4.00,M,30.05,M,10.00,M,CLR,M,M,M,M,M,M,M,M,KFLP 010700Z AUTO 02004KT 10SM CLR A3005 RMK MADISHF
FLP,2017-04-01 07:10,-92.5902,36.2909,M,M,M,20.00,3.00,M,30.05,M,10.00,M,CLR,M,M,M,M,M,M,M,M,KFLP 010710Z AUTO 02003KT 10SM CLR A3005 RMK MADISHF
FLP,2017-04-01 07:15,-92.5902,36.2909,46.40,39.20,75.84,20.00,3.00,0.00,30.05,M,10.00,M,CLR,M,M,M,M,M,M,M,M,KFLP 010715Z 02003KT 10SM CLR 08/04 A3005 RMK AO1
FLP,2017-04-01 07:20,-92.5902,36.2909,M,M,M,30.00,4.00,M,30.05,M,10.00,M,CLR,M,M,M,M,M,M,M,M,KFLP 010720Z AUTO 03004KT 10SM CLR A3005 RMK MADISHF
FLP,2017-04-01 07:25,-92.5902,36.2909,M,M,M,30.00,3.00,M,30.05,M,10.00,M,CLR,M,M,M,M,M,M,M,M,KFLP 010725Z AUTO 03003KT 10SM CLR A3005 RMK MADISHF
FLP,2017-04-01 07:30,-92.5902,36.2909,M,M,M,20.00,3.00,M,30.05,M,10.00,M,CLR,M,M,M,M,M,M,M,M,KFLP 010730Z AUTO 02003KT 10SM CLR A3005 RMK MADISHF
FLP,2017-04-01 07:35,-92.5902,36.2909,46.40,37.40,70.68,30.00,3.00,0.00,30.05,M,10.00,M,CLR,M,M,M,M,M,M,M,M,KFLP 010735Z 03003KT 10SM CLR 08/03 A3005 RMK AO1
FLP,2017-04-01 07:40,-92.5902,36.2909,M,M,M,0.00,0.00,M,30.06,M,10.00,M,CLR,M,M,M,M,M,M,M,M,KFLP 010740Z AUTO 00000KT 10SM CLR A3006 RMK MADISHF
FLP,2017-04-01 07:45,-92.5902,36.2909,M,M,M,0.00,0.00,M,30.06,M,10.00,M,CLR,M,M,M,M,M,M,M,M,KFLP 010745Z AUTO 00000KT 10SM CLR A3006 RMK MADISHF
FLP,2017-04-01 07:50,-92.5902,36.2909,M,M,M,0.00,0.00,M,30.06,M,10.00,M,CLR,M,M,M,M,M,M,M,M,KFLP 010750Z AUTO 00000KT 10SM CLR A3006 RMK MADISHF
FLP,2017-04-01 07:55,-92.5902,36.2909,M,M,M,0.00,0.00,M,30.06,M,10.00,M,CLR,M,M,M,M,M,M,M,M,KFLP 010755Z AUTO 00000KT 10SM CLR A3006 RMK MADISHF
FLP,2017-04-01 08:00,-92.5902,36.2909,M,M,M,10.00,3.00,M,30.06,M,10.00,M,CLR,M,M,M,M,M,M,M,M,KFLP 010800Z AUTO 01003KT 10SM CLR A3006 RMK MADISHF
FLP,2017-04-01 08:05,-92.5902,36.2909,M,M,M,0.00,0.00,M,30.06,M,10.00,M,CLR,M,M,M,M,M,M,M,M,KFLP 010805Z AUTO 00000KT 10SM CLR A3006 RMK MADISHF
FLP,2017-04-01 08:10,-92.5902,36.2909,M,M,M,20.00,3.00,M,30.06,M,10.00,M,CLR,M,M,M,M,M,M,M,M,KFLP 010810Z AUTO 02003KT 10SM CLR A3006 RMK MADISHF
FLP,2017-04-01 08:15,-92.5902,36.2909,M,M,M,20.00,3.00,M,30.06,M,10.00,M,CLR,M,M,M,M,M,M,M,M,KFLP 010815Z AUTO 02003KT 10SM CLR A3006 RMK MADISHF
FLP,2017-04-01 08:20,-92.5902,36.2909,M,M,M,30.00,3.00,M,30.06,M,10.00,M,CLR,M,M,M,M,M,M,M,M,KFLP 010820Z AUTO 03003KT 10SM CLR A3006 RMK MADISHF
FLP,2017-04-01 08:25,-92.5902,36.2909,M,M,M,30.00,3.00,M,30.06,M,10.00,M,CLR,M,M,M,M,M,M,M,M,KFLP 010825Z AUTO 03003KT 10SM CLR A3006 RMK MADISHF
FLP,2017-04-01 08:30,-92.5902,36.2909,M,M,M,0.00,0.00,M,30.06,M,10.00,M,CLR,M,M,M,M,M,M,M,M,KFLP 010830Z AUTO 00000KT 10SM CLR A3006 RMK MADISHF
FLP,2017-04-01 08:35,-92.5902,36.2909,M,M,M,0.00,0.00,M,30.06,M,10.00,M,CLR,M,M,M,M,M,M,M,M,KFLP 010835Z AUTO 00000KT 10SM CLR A3006 RMK MADISHF
FLP,2017-04-01 08:40,-92.5902,36.2909,M,M,M,0.00,0.00,M,30.06,M,10.00,M,CLR,M,M,M,M,M,M,M,M,KFLP 010840Z AUTO 00000KT 10SM CLR A3006 RMK MADISHF
FLP,2017-04-01 08:45,-92.5902,36.2909,M,M,M,0.00,0.00,M,30.06,M,10.00,M,CLR,M,M,M,M,M,M,M,M,KFLP 010845Z AUTO 00000KT 10SM CLR A3006 RMK MADISHF
FLP,2017-04-01 08:55,-92.5902,36.2909,46.40,37.40,70.68,40.00,3.00,0.00,30.06,M,10.00,M,CLR,M,M,M,M,M,M,M,M,KFLP 010855Z 04003KT 10SM CLR 08/03 A3006 RMK AO1 52010
FLP,2017-04-01 09:05,-92.5902,36.2909,M,M,M,40.00,3.00,M,30.07,M,10.00,M,CLR,M,M,M,M,M,M,M,M,KFLP 010905Z AUTO 04003KT 10SM CLR A3007 RMK MADISHF
FLP,2017-04-01 09:15,-92.5902,36.2909,M,M,M,40.00,3.00,M,30.06,M,10.00,M,CLR,M,M,M,M,M,M,M,M,KFLP 010915Z AUTO 04003KT 10SM CLR A3006 RMK MADISHF
FLP,2017-04-01 09:25,-92.5902,36.2909,M,M,M,30.00,3.00,M,30.07,M,10.00,M,CLR,M,M,M,M,M,M,M,M,KFLP 010925Z AUTO 03003KT 10SM CLR A3007 RMK MADISHF
FLP,2017-04-01 09:35,-92.5902,36.2909,M,M,M,20.00,4.00,M,30.06,M,10.00,M,CLR,M,M,M,M,M,M,M,M,KFLP 010935Z AUTO 02004KT 10SM CLR A3006 RMK MADISHF
FLP,2017-04-01 09:45,-92.5902,36.2909,M,M,M,30.00,3.00,M,30.07,M,10.00,M,CLR,M,M,M,M,M,M,M,M,KFLP 010945Z AUTO 03003KT 10SM CLR A3007 RMK MADISHF
FLP,2017-04-01 09:55,-92.5902,36.2909,M,M,M,0.00,0.00,M,30.07,M,10.00,M,CLR,M,M,M,M,M,M,M,M,KFLP 010955Z AUTO 00000KT 10SM CLR A3007 RMK MADISHF
FLP,2017-04-01 10:00,-92.5902,36.2909,M,M,M,0.00,0.00,M,30.07,M,10.00,M,CLR,M,M,M,M,M,M,M,M,KFLP 011000Z AUTO 00000KT 10SM CLR A3007 RMK MADISHF
FLP,2017-04-01 10:05,-92.5902,36.2909,M,M,M,0.00,0.00,M,30.07,M,10.00,M,CLR,M,M,M,M,M,M,M,M,KFLP 011005Z AUTO 00000KT 10SM CLR A3007 RMK MADISHF
FLP,2017-04-01 10:15,-92.5902,36.2909,M,M,M,0.00,0.00,M,30.08,M,10.00,M,CLR,M,M,M,M,M,M,M,M,KFLP 011015Z AUTO 00000KT 10SM CLR A3008 RMK MADISHF
FLP,2017-04-01 10:20,-92.5902,36.2909,M,M,M,0.00,0.00,M,30.08,M,10.00,M,CLR,M,M,M,M,M,M,M,M,KFLP 011020Z AUTO 00000KT 10SM CLR A3008 RMK MADISHF
FLP,2017-04-01 10:25,-92.5902,36.2909,M,M,M,0.00,0.00,M,30.08,M,10.00,M,CLR,M,M,M,M,M,M,M,M,KFLP 011025Z AUTO 00000KT 10SM CLR A3008 RMK MADISHF
FLP,2017-04-01 10:30,-92.5902,36.2909,M,M,M,0.00,0.00,M,30.08,M,10.00,M,CLR,M,M,M,M,M,M,M,M,KFLP 011030Z AUTO 00000KT 10SM CLR A3008 RMK MADISHF
FLP,2017-04-01 10:35,-92.5902,36.2909,M,M,M,0.00,0.00,M,30.08,M,10.00,M,CLR,M,M,M,M,M,M,M,M,KFLP 011035Z AUTO 00000KT 10SM CLR A3008 RMK MADISHF
FLP,2017-04-01 10:40,-92.5902,36.2909,M,M,M,30.00,3.00,M,30.08,M,10.00,M,FEW,M,M,M,2200.00,M,M,M,M,KFLP 011040Z AUTO 03003KT 10SM FEW022 A3008 RMK MADISHF
FLP,2017-04-01 10:45,-92.5902,36.2909,M,M,M,0.00,0.00,M,30.08,M,10.00,M,SCT,M,M,M,2200.00,M,M,M,M,KFLP 011045Z AUTO 00000KT 10SM SCT022 A3008 RMK MADISHF
FLP,2017-04-01 10:50,-92.5902,36.2909,M,M,M,0.00,0.00,M,30.09,M,10.00,M,BKN,M,M,M,2200.00,M,M,M,M,KFLP 011050Z AUTO 00000KT 10SM BKN022 A3009 RMK MADISHF
FLP,2017-04-01 10:55,-92.5902,36.2909,M,M,M,0.00,0.00,M,30.09,M,10.00,M,BKN,M,M,M,2200.00,M,M,M,M,KFLP 011055Z AUTO 00000KT 10SM BKN022 A3009 RMK MADISHF
FLP,2017-04-01 11:00,-92.5902,36.2909,M,M,M,40.00,3.00,M,30.09,M,10.00,M,BKN,M,M,M,2200.00,M,M,M,M,KFLP 011100Z AUTO 04003KT 10SM BKN022 A3009 RMK MADISHF
FLP,2017-04-01 11:10,-92.5902,36.2909,M,M,M,30.00,4.00,M,30.09,M,10.00,M,OVC,M,M,M,2200.00,M,M,M,M,KFLP 011110Z AUTO 03004KT 10SM OVC022 A3009 RMK MADISHF
FLP,2017-04-01 11:15,-92.5902,36.2909,44.60,37.40,75.68,30.00,4.00,0.00,30.09,M,10.00,M,OVC,M,M,M,2200.00,M,M,M,M,KFLP 011115Z 03004KT 10SM OVC022 07/03 A3009 RMK AO1
FLP,2017-04-01 11:20,-92.5902,36.2909,M,M,M,20.00,3.00,M,30.10,M,10.00,M,OVC,M,M,M,2200.00,M,M,M,M,KFLP 011120Z AUTO 02003KT 10SM OVC022 A3010 RMK MADISHF
FLP,2017-04-01 11:30,-92.5902,36.2909,M,M,M,20.00,4.00,M,30.10,M,10.00,M,OVC,M,M,M,2200.00,M,M,M,M,KFLP 011130Z AUTO 02004KT 10SM OVC022 A3010 RMK MADISHF
FLP,2017-04-01 11:35,-92.5902,36.2909,44.60,37.40,75.68,30.00,3.00,0.00,30.11,M,10.00,M,OVC,M,M,M,2200.00,M,M,M,M,KFLP 011135Z 03003KT 10SM OVC022 07/03 A3011 RMK AO1
FLP,2017-04-01 11:40,-92.5902,36.2909,M,M,M,30.00,4.00,M,30.10,M,10.00,M,OVC,M,M,M,2200.00,M,M,M,M,KFLP 011140Z AUTO 03004KT 10SM OVC022 A3010 RMK MADISHF
FLP,2017-04-01 11:50,-92.5902,36.2909,M,M,M,20.00,4.00,M,30.11,M,10.00,M,OVC,M,M,M,2200.00,M,M,M,M,KFLP 011150Z AUTO 02004KT 10SM OVC022 A3011 RMK MADISHF
FLP,2017-04-01 11:55,-92.5902,36.2909,44.60,37.40,75.68,30.00,4.00,0.00,30.11,M,10.00,M,OVC,M,M,M,2200.00,M,M,M,M,KFLP 011155Z 03004KT 10SM OVC022 07/03 A3011 RMK AO1 10090 20070 52017
FLP,2017-04-01 12:00,-92.5902,36.2909,M,M,M,30.00,4.00,M,30.11,M,10.00,M,OVC,M,M,M,2200.00,M,M,M,M,KFLP 011200Z AUTO 03004KT 10SM OVC022 A3011 RMK MADISHF
FLP,2017-04-01 12:10,-92.5902,36.2909,M,M,M,30.00,4.00,M,30.11,M,10.00,M,OVC,M,M,M,2200.00,M,M,M,M,KFLP 011210Z AUTO 03004KT 10SM OVC022 A3011 RMK MADISHF
FLP,2017-04-01 12:15,-92.5902,36.2909,M,M,M,30.00,4.00,M,30.12,M,10.00,M,OVC,M,M,M,2200.00,M,M,M,M,KFLP 011215Z AUTO 03004KT 10SM OVC022 A3012 RMK MADISHF
FLP,2017-04-01 12:20,-92.5902,36.2909,M,M,M,30.00,4.00,M,30.12,M,10.00,M,OVC,M,M,M,2200.00,M,M,M,M,KFLP 011220Z AUTO 03004KT 10SM OVC022 A3012 RMK MADISHF
FLP,2017-04-01 12:25,-92.5902,36.2909,M,M,M,30.00,5.00,M,30.12,M,10.00,M,OVC,M,M,M,2200.00,M,M,M,M,KFLP 011225Z AUTO 03005KT 10SM OVC022 A3012 RMK MADISHF
FLP,2017-04-01 12:30,-92.5902,36.2909,M,M,M,30.00,5.00,M,30.12,M,10.00,M,OVC,M,M,M,2200.00,M,M,M,M,KFLP 011230Z AUTO 03005KT 10SM OVC022 A3012 RMK MADISHF
FLP,2017-04-01 12:35,-92.5902,36.2909,M,M,M,30.00,5.00,M,30.12,M,10.00,M,OVC,M,M,M,2200.00,M,M,M,M,KFLP 011235Z AUTO 03005KT 10SM OVC022 A3012 RMK MADISHF
FLP,2017-04-01 12:40,-92.5902,36.2909,M,M,M,30.00,4.00,M,30.12,M,10.00,M,OVC,M,M,M,2200.00,M,M,M,M,KFLP 011240Z AUTO 03004KT 10SM OVC022 A3012 RMK MADISHF
FLP,2017-04-01 12:45,-92.5902,36.2909,M,M,M,30.00,5.00,M,30.13,M,10.00,M,OVC,M,M,M,2200.00,M,M,M,M,KFLP 011245Z AUTO 03005KT 10SM OVC022 A3013 RMK MADISHF
FLP,2017-04-01 12:50,-92.5902,36.2909,M,M,M,20.00,4.00,M,30.13,M,10.00,M,OVC,M,M,M,2200.00,M,M,M,M,KFLP 011250Z AUTO 02004KT 10SM OVC022 A3013 RMK MADISHF
FLP,2017-04-01 12:55,-92.5902,36.2909,M,M,M,30.00,3.00,M,30.13,M,10.00,M,OVC,M,M,M,2200.00,M,M,M,M,KFLP 011255Z AUTO 03003KT 10SM OVC022 A3013 RMK MADISHF
FLP,2017-04-01 13:00,-92.5902,36.2909,M,M,M,50.00,3.00,M,30.14,M,10.00,M,OVC,M,M,M,1999.00,M,M,M,M,KFLP 011300Z AUTO 05003KT 10SM OVC019 A3014 RMK MADISHF
FLP,2017-04-01 13:05,-92.5902,36.2909,M,M,M,40.00,3.00,M,30.14,M,10.00,M,OVC,M,M,M,1999.00,M,M,M,M,KFLP 011305Z AUTO 04003KT 10SM OVC019 A3014 RMK MADISHF
FLP,2017-04-01 13:10,-92.5902,36.2909,M,M,M,60.00,3.00,M,30.14,M,10.00,M,OVC,M,M,M,1999.00,M,M,M,M,KFLP 011310Z AUTO 06003KT 10SM OVC019 A3014 RMK MADISHF
FLP,2017-04-01 13:15,-92.5902,36.2909,M,M,M,50.00,3.00,M,30.14,M,10.00,M,OVC,M,M,M,1999.00,M,M,M,M,KFLP 011315Z AUTO 05003KT 10SM OVC019 A3014 RMK MADISHF
FLP,2017-04-01 13:20,-92.5902,36.2909,M,M,M,70.00,4.00,M,30.14,M,10.00,M,OVC,M,M,M,1800.00,M,M,M,M,KFLP 011320Z AUTO 07004KT 10SM OVC018 A3014 RMK MADISHF
FLP,2017-04-01 13:25,-92.5902,36.2909,M,M,M,70.00,5.00,M,30.14,M,10.00,M,OVC,M,M,M,1800.00,M,M,M,M,KFLP 011325Z AUTO 07005KT 10SM OVC018 A3014 RMK MADISHF
FLP,2017-04-01 13:30,-92.5902,36.2909,M,M,M,70.00,6.00,M,30.14,M,10.00,M,OVC,M,M,M,1800.00,M,M,M,M,KFLP 011330Z AUTO 07006KT 10SM OVC018 A3014 RMK MADISHF
FLP,2017-04-01 13:35,-92.5902,36.2909,M,M,M,80.00,5.00,M,30.14,M,10.00,M,OVC,M,M,M,1800.00,M,M,M,M,KFLP 011335Z AUTO 08005KT 10SM OVC018 A3014 RMK MADISHF
FLP,2017-04-01 13:40,-92.5902,36.2909,M,M,M,80.00,6.00,M,30.14,M,10.00,M,OVC,M,M,M,1800.00,M,M,M,M,KFLP 011340Z AUTO 08006KT 10SM OVC018 A3014 RMK MADISHF
FLP,2017-04-01 13:45,-92.5902,36.2909,M,M,M,80.00,4.00,M,30.14,M,10.00,M,OVC,M,M,M,1800.00,M,M,M,M,KFLP 011345Z AUTO 08004KT 10SM OVC018 A3014 RMK MADISHF
FLP,2017-04-01 13:50,-92.5902,36.2909,M,M,M,80.00,5.00,M,30.14,M,10.00,M,OVC,M,M,M,1800.00,M,M,M,M,KFLP 011350Z AUTO 08005KT 10SM OVC018 A3014 RMK MADISHF
FLP,2017-04-01 13:55,-92.5902,36.2909,M,M,M,80.00,3.00,M,30.15,M,10.00,M,OVC,M,M,M,1800.00,M,M,M,M,KFLP 011355Z AUTO 08003KT 10SM OVC018 A3015 RMK MADISHF
FLP,2017-04-01 14:00,-92.5902,36.2909,M,M,M,70.00,5.00,M,30.15,M,10.00,M,OVC,M,M,M,1800.00,M,M,M,M,KFLP 011400Z AUTO 07005KT 10SM OVC018 A3015 RMK MADISHF
FLP,2017-04-01 14:05,-92.5902,36.2909,M,M,M,90.00,5.00,M,30.15,M,10.00,M,OVC,M,M,M,1600.00,M,M,M,M,KFLP 011405Z AUTO 09005KT 10SM OVC016 A3015 RMK MADISHF
FLP,2017-04-01 14:10,-92.5902,36.2909,M,M,M,110.00,3.00,M,30.15,M,10.00,M,OVC,M,M,M,1600.00,M,M,M,M,KFLP 011410Z AUTO 11003KT 10SM OVC016 A3015 RMK MADISHF
FLP,2017-04-01 14:15,-92.5902,36.2909,M,M,M,120.00,4.00,M,30.15,M,10.00,M,OVC,M,M,M,1600.00,M,M,M,M,KFLP 011415Z AUTO 12004KT 10SM OVC016 A3015 RMK MADISHF
FLP,2017-04-01 14:20,-92.5902,36.2909,M,M,M,130.00,5.00,M,30.15,M,10.00,M,OVC,M,M,M,1600.00,M,M,M,M,KFLP 011420Z AUTO 13005KT 10SM OVC016 A3015 RMK MADISHF
FLP,2017-04-01 14:25,-92.5902,36.2909,M,M,M,100.00,5.00,M,30.15,M,10.00,M,OVC,M,M,M,1600.00,M,M,M,M,KFLP 011425Z AUTO 10005KT 10SM OVC016 A3015 RMK MADISHF
FLP,2017-04-01 14:35,-92.5902,36.2909,M,M,M,100.00,6.00,M,30.15,M,10.00,M,OVC,M,M,M,1400.00,M,M,M,M,KFLP 011435Z AUTO 10006KT 10SM OVC014 A3015 RMK MADISHF
FLP,2017-04-01 14:40,-92.5902,36.2909,M,M,M,130.00,5.00,M,30.15,M,10.00,M,OVC,M,M,M,1400.00,M,M,M,M,KFLP 011440Z AUTO 13005KT 10SM OVC014 A3015 RMK MADISHF
FLP,2017-04-01 14:45,-92.5902,36.2909,M,M,M,100.00,6.00,M,30.16,M,10.00,M,OVC,M,M,M,1400.00,M,M,M,M,KFLP 011445Z AUTO 10006KT 10SM OVC014 A3016 RMK MADISHF
FLP,2017-04-01 14:55,-92.5902,36.2909,48.20,39.20,70.88,110.00,6.00,0.00,30.17,M,10.00,M,OVC,M,M,M,1400.00,M,M,M,M,KFLP 011455Z 11006KT 10SM OVC014 09/04 A3017 RMK AO1 52020
FLP,2017-04-01 15:00,-92.5902,36.2909,M,M,M,120.00,5.00,M,30.17,M,10.00,M,OVC,M,M,M,1400.00,M,M,M,M,KFLP 011500Z AUTO 12005KT 10SM OVC014 A3017 RMK MADISHF
FLP,2017-04-01 15:05,-92.5902,36.2909,M,M,M,120.00,4.00,M,30.17,M,10.00,M,OVC,M,M,M,1400.00,M,M,M,M,KFLP 011505Z AUTO 12004KT 10SM OVC014 A3017 RMK MADISHF
FLP,2017-04-01 15:15,-92.5902,36.2909,M,M,M,100.00,6.00,M,30.17,M,10.00,M,OVC,M,M,M,1400.00,M,M,M,M,KFLP 011515Z AUTO 10006KT 10SM OVC014 A3017 RMK MADISHF
FLP,2017-04-01 15:20,-92.5902,36.2909,M,M,M,110.00,7.00,M,30.17,M,10.00,M,OVC,M,M,M,1400.00,M,M,M,M,KFLP 011520Z AUTO 11007KT 10SM OVC014 A3017 RMK MADISHF
FLP,2017-04-01 15:25,-92.5902,36.2909,M,M,M,100.00,7.00,M,30.17,M,10.00,M,OVC,M,M,M,1400.00,M,M,M,M,KFLP 011525Z AUTO 10007KT 10SM OVC014 A3017 RMK MADISHF
FLP,2017-04-01 15:30,-92.5902,36.2909,M,M,M,70.00,6.00,M,30.17,M,10.00,M,OVC,M,M,M,1400.00,M,M,M,M,KFLP 011530Z AUTO 07006KT 10SM OVC014 A3017 RMK MADISHF
FLP,2017-04-01 15:35,-92.5902,36.2909,M,M,M,90.00,4.00,M,30.17,M,10.00,M,OVC,M,M,M,1400.00,M,M,M,M,KFLP 011535Z AUTO 09004KT 10SM OVC014 A3017 RMK MADISHF
FLP,2017-04-01 15:40,-92.5902,36.2909,M,M,M,70.00,9.00,M,30.17,M,10.00,M,OVC,M,M,M,1400.00,M,M,M,M,KFLP 011540Z AUTO 07009KT 10SM OVC014 A3017 RMK MADISHF
FLP,2017-04-01 15:45,-92.5902,36.2909,M,M,M,80.00,7.00,M,30.17,M,10.00,M,OVC,M,M,M,1400.00,M,M,M,M,KFLP 011545Z AUTO 08007KT 10SM OVC014 A3017 RMK MADISHF
FLP,2017-04-01 15:50,-92.5902,36.2909,M,M,M,90.00,6.00,M,30.17,M,10.00,M,OVC,M,M,M,1400.00,M,M,M,M,KFLP 011550Z AUTO 09006KT 10SM OVC014 A3017 RMK MADISHF
FLP,2017-04-01 15:55,-92.5902,36.2909,M,M,M,70.00,7.00,M,30.17,M,10.00,M,OVC,M,M,M,1400.00,M,M,M,M,KFLP 011555Z AUTO 07007KT 10SM OVC014 A3017 RMK MADISHF
FLP,2017-04-01 16:00,-92.5902,36.2909,M,M,M,90.00,7.00,M,30.17,M,10.00,M,OVC,M,M,M,1400.00,M,M,M,M,KFLP 011600Z AUTO 09007KT 10SM OVC014 A3017 RMK MADISHF
FLP,2017-04-01 16:05,-92.5902,36.2909,M,M,M,100.00,4.00,M,30.17,M,10.00,M,OVC,M,M,M,1400.00,M,M,M,M,KFLP 011605Z AUTO 10004KT 10SM OVC014 A3017 RMK MADISHF
FLP,2017-04-01 16:10,-92.5902,36.2909,M,M,M,130.00,7.00,M,30.16,M,10.00,M,OVC,M,M,M,1400.00,M,M,M,M,KFLP 011610Z AUTO 13007KT 10SM OVC014 A3016 RMK MADISHF
FLP,2017-04-01 16:15,-92.5902,36.2909,M,M,M,110.00,7.00,M,30.17,M,10.00,M,OVC,M,M,M,1600.00,M,M,M,M,KFLP 011615Z AUTO 11007KT 10SM OVC016 A3017 RMK MADISHF
FLP,2017-04-01 16:20,-92.5902,36.2909,M,M,M,100.00,5.00,M,30.16,M,10.00,M,OVC,M,M,M,1600.00,M,M,M,M,KFLP 011620Z AUTO 10005KT 10SM OVC016 A3016 RMK MADISHF
FLP,2017-04-01 16:25,-92.5902,36.2909,M,M,M,130.00,5.00,M,30.16,M,10.00,M,OVC,M,M,M,1600.00,M,M,M,M,KFLP 011625Z AUTO 13005KT 10SM OVC016 A3016 RMK MADISHF
FLP,2017-04-01 16:30,-92.5902,36.2909,M,M,M,80.00,5.00,M,30.16,M,10.00,M,OVC,M,M,M,1600.00,M,M,M,M,KFLP 011630Z AUTO 08005KT 10SM OVC016 A3016 RMK MADISHF
FLP,2017-04-01 16:35,-92.5902,36.2909,M,M,M,80.00,6.00,M,30.16,M,10.00,M,OVC,M,M,M,1600.00,M,M,M,M,KFLP 011635Z AUTO 08006KT 10SM OVC016 A3016 RMK MADISHF
FLP,2017-04-01 16:40,-92.5902,36.2909,M,M,M,100.00,6.00,M,30.16,M,10.00,M,OVC,M,M,M,1600.00,M,M,M,M,KFLP 011640Z AUTO 10006KT 10SM OVC016 A3016 RMK MADISHF
FLP,2017-04-01 16:45,-92.5902,36.2909,M,M,M,70.00,6.00,M,30.16,M,10.00,M,OVC,M,M,M,1600.00,M,M,M,M,KFLP 011645Z AUTO 07006KT 10SM OVC016 A3016 RMK MADISHF
FLP,2017-04-01 16:50,-92.5902,36.2909,M,M,M,80.00,4.00,M,30.16,M,10.00,M,OVC,M,M,M,1600.00,M,M,M,M,KFLP 011650Z AUTO 08004KT 10SM OVC016 A3016 RMK MADISHF
FLP,2017-04-01 16:55,-92.5902,36.2909,M,M,M,120.00,5.00,M,30.16,M,10.00,M,OVC,M,M,M,1800.00,M,M,M,M,KFLP 011655Z AUTO 12005KT 10SM OVC018 A3016 RMK MADISHF
FLP,2017-04-01 17:00,-92.5902,36.2909,M,M,M,100.00,7.00,M,30.16,M,10.00,M,OVC,M,M,M,1800.00,M,M,M,M,KFLP 011700Z AUTO 10007KT 10SM OVC018 A3016 RMK MADISHF
FLP,2017-04-01 17:05,-92.5902,36.2909,M,M,M,70.00,5.00,M,30.15,M,10.00,M,OVC,M,M,M,1800.00,M,M,M,M,KFLP 011705Z AUTO 07005KT 10SM OVC018 A3015 RMK MADISHF
FLP,2017-04-01 17:10,-92.5902,36.2909,M,M,M,100.00,5.00,M,30.15,M,10.00,M,OVC,M,M,M,1800.00,M,M,M,M,KFLP 011710Z AUTO 10005KT 10SM OVC018 A3015 RMK MADISHF
FLP,2017-04-01 17:15,-92.5902,36.2909,M,M,M,100.00,8.00,M,30.15,M,10.00,M,OVC,M,M,M,1800.00,M,M,M,M,KFLP 011715Z AUTO 10008KT 10SM OVC018 A3015 RMK MADISHF
FLP,2017-04-01 17:20,-92.5902,36.2909,M,M,M,80.00,8.00,M,30.15,M,10.00,M,OVC,M,M,M,1800.00,M,M,M,M,KFLP 011720Z AUTO 08008KT 10SM OVC018 A3015 RMK MADISHF
FLP,2017-04-01 17:25,-92.5902,36.2909,M,M,M,110.00,8.00,M,30.15,M,10.00,M,OVC,M,M,M,1800.00,M,M,M,M,KFLP 011725Z AUTO 11008KT 10SM OVC018 A3015 RMK MADISHF
FLP,2017-04-01 17:30,-92.5902,36.2909,M,M,M,70.00,5.00,M,30.14,M,10.00,M,OVC,M,M,M,1999.00,M,M,M,M,KFLP 011730Z AUTO 07005KT 10SM OVC019 A3014 RMK MADISHF
FLP,2017-04-01 17:35,-92.5902,36.2909,M,M,M,80.00,4.00,M,30.14,M,10.00,M,OVC,M,M,M,1999.00,M,M,M,M,KFLP 011735Z AUTO 08004KT 10SM OVC019 A3014 RMK MADISHF
FLP,2017-04-01 17:40,-92.5902,36.2909,M,M,M,120.00,9.00,M,30.14,M,10.00,M,OVC,M,M,M,1999.00,M,M,M,M,KFLP 011740Z AUTO 12009KT 10SM OVC019 A3014 RMK MADISHF
FLP,2017-04-01 17:45,-92.5902,36.2909,M,M,M,130.00,6.00,M,30.14,M,10.00,M,BKN,M,M,M,1999.00,M,M,M,M,KFLP 011745Z AUTO 13006KT 10SM BKN019 A3014 RMK MADISHF
FLP,2017-04-01 17:50,-92.5902,36.2909,M,M,M,100.00,8.00,M,30.14,M,10.00,M,BKN,M,M,M,1999.00,M,M,M,M,KFLP 011750Z AUTO 10008KT 10SM BKN019 A3014 RMK MADISHF
FLP,2017-04-01 17:55,-92.5902,36.2909,57.20,42.80,58.52,110.00,5.00,0.00,30.14,M,10.00,M,BKN,M,M,M,2000.00,M,M,M,M,KFLP 011755Z 11005KT 10SM BKN020 14/06 A3014 RMK AO1 10140 20070 57010
FLP,2017-04-01 18:00,-92.5902,36.2909,M,M,M,60.00,5.00,M,30.13,M,10.00,M,BKN,M,M,M,2200.00,M,M,M,M,KFLP 011800Z AUTO 06005KT 10SM BKN022 A3013 RMK MADISHF
FLP,2017-04-01 18:05,-92.5902,36.2909,M,M,M,40.00,5.00,M,30.13,M,10.00,M,BKN,M,M,M,2200.00,M,M,M,M,KFLP 011805Z AUTO 04005KT 10SM BKN022 A3013 RMK MADISHF
FLP,2017-04-01 18:10,-92.5902,36.2909,M,M,M,110.00,7.00,M,30.13,M,10.00,M,BKN,M,M,M,2200.00,M,M,M,M,KFLP 011810Z AUTO 11007KT 10SM BKN022 A3013 RMK MADISHF
FLP,2017-04-01 18:15,-92.5902,36.2909,M,M,M,80.00,5.00,M,30.13,M,10.00,M,BKN,M,M,M,2200.00,M,M,M,M,KFLP 011815Z AUTO 08005KT 10SM BKN022 A3013 RMK MADISHF
FLP,2017-04-01 18:20,-92.5902,36.2909,M,M,M,70.00,5.00,M,30.12,M,10.00,M,BKN,M,M,M,2400.00,M,M,M,M,KFLP 011820Z AUTO 07005KT 10SM BKN024 A3012 RMK WND 03V09  MADISHF
FLP,2017-04-01 18:25,-92.5902,36.2909,M,M,M,110.00,5.00,M,30.13,M,10.00,M,SCT,M,M,M,2400.00,M,M,M,M,KFLP 011825Z AUTO 11005KT 10SM SCT024 A3013 RMK MADISHF
FLP,2017-04-01 18:30,-92.5902,36.2909,M,M,M,90.00,4.00,M,30.13,M,10.00,M,SCT,M,M,M,2400.00,M,M,M,M,KFLP 011830Z AUTO 09004KT 10SM SCT024 A3013 RMK MADISHF
FLP,2017-04-01 18:35,-92.5902,36.2909,M,M,M,100.00,3.00,M,30.13,M,10.00,M,FEW,M,M,M,2400.00,M,M,M,M,KFLP 011835Z AUTO 10003KT 10SM FEW024 A3013 RMK MADISHF
FLP,2017-04-01 18:40,-92.5902,36.2909,M,M,M,120.00,6.00,M,30.13,M,10.00,M,FEW,M,M,M,2400.00,M,M,M,M,KFLP 011840Z AUTO 12006KT 10SM FEW024 A3013 RMK MADISHF
FLP,2017-04-01 18:45,-92.5902,36.2909,M,M,M,90.00,5.00,M,30.13,M,10.00,M,CLR,M,M,M,M,M,M,M,M,KFLP 011845Z AUTO 09005KT 10SM CLR A3013 RMK MADISHF
FLP,2017-04-01 18:50,-92.5902,36.2909,M,M,M,100.00,7.00,M,30.12,M,10.00,M,CLR,M,M,M,M,M,M,M,M,KFLP 011850Z AUTO 10007KT 10SM CLR A3012 RMK MADISHF
FLP,2017-04-01 18:55,-92.5902,36.2909,M,M,M,100.00,7.00,M,30.12,M,10.00,M,CLR,M,M,M,M,M,M,M,M,KFLP 011855Z AUTO 10007KT 10SM CLR A3012 RMK MADISHF
FLP,2017-04-01 19:00,-92.5902,36.2909,M,M,M,160.00,4.00,M,30.12,M,10.00,M,CLR,M,M,M,M,M,M,M,M,KFLP 011900Z AUTO 16004KT 10SM CLR A3012 RMK MADISHF
FLP,2017-04-01 19:05,-92.5902,36.2909,M,M,M,130.00,5.00,M,30.12,M,10.00,M,CLR,M,M,M,M,M,M,M,M,KFLP 011905Z AUTO 13005KT 10SM CLR A3012 RMK MADISHF
FLP,2017-04-01 19:15,-92.5902,36.2909,M,M,M,120.00,5.00,M,30.11,M,10.00,M,CLR,M,M,M,M,M,M,M,M,KFLP 011915Z AUTO 12005KT 10SM CLR A3011 RMK MADISHF
FLP,2017-04-01 19:20,-92.5902,36.2909,M,M,M,70.00,5.00,M,30.11,M,10.00,M,CLR,M,M,M,M,M,M,M,M,KFLP 011920Z AUTO 07005KT 10SM CLR A3011 RMK MADISHF
FLP,2017-04-01 19:25,-92.5902,36.2909,M,M,M,140.00,6.00,M,30.11,M,10.00,M,CLR,M,M,M,M,M,M,M,M,KFLP 011925Z AUTO 14006KT 10SM CLR A3011 RMK MADISHF
FLP,2017-04-01 19:30,-92.5902,36.2909,M,M,M,140.00,6.00,M,30.11,M,10.00,M,CLR,M,M,M,M,M,M,M,M,KFLP 011930Z AUTO 14006KT 10SM CLR A3011 RMK MADISHF
FLP,2017-04-01 19:35,-92.5902,36.2909,M,M,M,130.00,4.00,M,30.10,M,10.00,M,CLR,M,M,M,M,M,M,M,M,KFLP 011935Z AUTO 13004KT 10SM CLR A3010 RMK MADISHF
FLP,2017-04-01 19:40,-92.5902,36.2909,M,M,M,110.00,6.00,M,30.10,M,10.00,M,CLR,M,M,M,M,M,M,M,M,KFLP 011940Z AUTO 11006KT 10SM CLR A3010 RMK MADISHF
FLP,2017-04-01 19:45,-92.5902,36.2909,M,M,M,110.00,6.00,M,30.10,M,10.00,M,CLR,M,M,M,M,M,M,M,M,KFLP 011945Z AUTO 11006KT 10SM CLR A3010 RMK MADISHF
FLP,2017-04-01 19:50,-92.5902,36.2909,M,M,M,100.00,3.00,M,30.09,M,10.00,M,CLR,M,M,M,M,M,M,M,M,KFLP 011950Z AUTO 10003KT 10SM CLR A3009 RMK MADISHF
FLP,2017-04-01 19:55,-92.5902,36.2909,M,M,M,90.00,4.00,M,30.09,M,10.00,M,CLR,M,M,M,M,M,M,M,M,KFLP 011955Z AUTO 09004KT 10SM CLR A3009 RMK MADISHF
FLP,2017-04-01 20:00,-92.5902,36.2909,M,M,M,80.00,8.00,M,30.09,M,10.00,M,CLR,M,M,M,M,M,M,M,M,KFLP 012000Z AUTO 08008KT 10SM CLR A3009 RMK MADISHF
FLP,2017-04-01 20:05,-92.5902,36.2909,M,M,M,70.00,7.00,M,30.09,M,10.00,M,CLR,M,M,M,M,M,M,M,M,KFLP 012005Z AUTO 07007KT 10SM CLR A3009 RMK MADISHF
FLP,2017-04-01 20:10,-92.5902,36.2909,M,M,M,70.00,5.00,M,30.08,M,10.00,M,CLR,M,M,M,M,M,M,M,M,KFLP 012010Z AUTO 07005KT 10SM CLR A3008 RMK MADISHF
FLP,2017-04-01 20:15,-92.5902,36.2909,M,M,M,120.00,7.00,M,30.08,M,10.00,M,CLR,M,M,M,M,M,M,M,M,KFLP 012015Z AUTO 12007KT 10SM CLR A3008 RMK MADISHF
FLP,2017-04-01 20:20,-92.5902,36.2909,M,M,M,100.00,6.00,M,30.07,M,10.00,M,CLR,M,M,M,M,M,M,M,M,KFLP 012020Z AUTO 10006KT 10SM CLR A3007 RMK MADISHF
FLP,2017-04-01 20:25,-92.5902,36.2909,M,M,M,80.00,8.00,M,30.07,M,10.00,M,CLR,M,M,M,M,M,M,M,M,KFLP 012025Z AUTO 08008KT 10SM CLR A3007 RMK WND 06V12  MADISHF
FLP,2017-04-01 20:30,-92.5902,36.2909,M,M,M,80.00,6.00,M,30.07,M,10.00,M,CLR,M,M,M,M,M,M,M,M,KFLP 012030Z AUTO 08006KT 10SM CLR A3007 RMK MADISHF
FLP,2017-04-01 20:35,-92.5902,36.2909,M,M,M,70.00,7.00,M,30.06,M,10.00,M,CLR,M,M,M,M,M,M,M,M,KFLP 012035Z AUTO 07007KT 10SM CLR A3006 RMK MADISHF
FLP,2017-04-01 20:40,-92.5902,36.2909,M,M,M,110.00,6.00,M,30.06,M,10.00,M,CLR,M,M,M,M,M,M,M,M,KFLP 012040Z AUTO 11006KT 10SM CLR A3006 RMK MADISHF
FLP,2017-04-01 20:45,-92.5902,36.2909,M,M,M,100.00,6.00,M,30.06,M,10.00,M,CLR,M,M,M,M,M,M,M,M,KFLP 012045Z AUTO 10006KT 10SM CLR A3006 RMK MADISHF
FLP,2017-04-01 20:50,-92.5902,36.2909,M,M,M,110.00,6.00,M,30.06,M,10.00,M,CLR,M,M,M,M,M,M,M,M,KFLP 012050Z AUTO 11006KT 10SM CLR A3006 RMK MADISHF
FLP,2017-04-01 20:55,-92.5902,36.2909,66.20,46.40,48.83,130.00,5.00,0.00,30.05,M,10.00,M,CLR,M,M,M,M,M,M,M,M,KFLP 012055Z 13005KT 10SM CLR 19/08 A3005 RMK AO1 57030
FLP,2017-04-01 21:00,-92.5902,36.2909,M,M,M,120.00,8.00,M,30.05,M,10.00,M,CLR,M,M,M,M,M,M,M,M,KFLP 012100Z AUTO 12008KT 10SM CLR A3005 RMK MADISHF
FLP,2017-04-01 21:05,-92.5902,36.2909,M,M,M,100.00,8.00,M,30.05,M,10.00,M,CLR,M,M,M,M,M,M,M,M,KFLP 012105Z AUTO 10008KT 10SM CLR A3005 RMK MADISHF
FLP,2017-04-01 21:10,-92.5902,36.2909,M,M,M,80.00,8.00,M,30.05,M,10.00,M,CLR,M,M,M,M,M,M,M,M,KFLP 012110Z AUTO 08008KT 10SM CLR A3005 RMK MADISHF
FLP,2017-04-01 21:15,-92.5902,36.2909,M,M,M,100.00,7.00,M,30.05,M,10.00,M,CLR,M,M,M,M,M,M,M,M,KFLP 012115Z AUTO 10007KT 10SM CLR A3005 RMK MADISHF
FLP,2017-04-01 21:20,-92.5902,36.2909,M,M,M,110.00,9.00,M,30.05,M,10.00,M,CLR,M,M,M,M,M,M,M,M,KFLP 012120Z AUTO 11009KT 10SM CLR A3005 RMK MADISHF
FLP,2017-04-01 21:25,-92.5902,36.2909,M,M,M,80.00,7.00,M,30.05,M,10.00,M,CLR,M,M,M,M,M,M,M,M,KFLP 012125Z AUTO 08007KT 10SM CLR A3005 RMK MADISHF
FLP,2017-04-01 21:30,-92.5902,36.2909,M,M,M,100.00,10.00,M,30.05,M,10.00,14.00,CLR,M,M,M,M,M,M,M,M,KFLP 012130Z AUTO 10010G14KT 10SM CLR A3005 RMK MADISHF
FLP,2017-04-01 21:35,-92.5902,36.2909,M,M,M,110.00,7.00,M,30.04,M,10.00,14.00,CLR,M,M,M,M,M,M,M,M,KFLP 012135Z AUTO 11007G14KT 10SM CLR A3004 RMK WND 06V12  MADISHF
FLP,2017-04-01 21:40,-92.5902,36.2909,M,M,M,100.00,6.00,M,30.04,M,10.00,M,CLR,M,M,M,M,M,M,M,M,KFLP 012140Z AUTO 10006KT 10SM CLR A3004 RMK MADISHF
FLP,2017-04-01 21:45,-92.5902,36.2909,M,M,M,110.00,7.00,M,30.05,M,10.00,M,CLR,M,M,M,M,M,M,M,M,KFLP 012145Z AUTO 11007KT 10SM CLR A3005 RMK MADISHF
FLP,2017-04-01 21:50,-92.5902,36.2909,M,M,M,90.00,7.00,M,30.05,M,10.00,M,CLR,M,M,M,M,M,M,M,M,KFLP 012150Z AUTO 09007KT 10SM CLR A3005 RMK MADISHF
FLP,2017-04-01 21:55,-92.5902,36.2909,M,M,M,100.00,7.00,M,30.05,M,10.00,M,CLR,M,M,M,M,M,M,M,M,KFLP 012155Z AUTO 10007KT 10SM CLR A3005 RMK WND 07V13  MADISHF
FLP,2017-04-01 22:00,-92.5902,36.2909,M,M,M,100.00,7.00,M,30.04,M,10.00,M,CLR,M,M,M,M,M,M,M,M,KFLP 012200Z AUTO 10007KT 10SM CLR A3004 RMK MADISHF
FLP,2017-04-01 22:05,-92.5902,36.2909,M,M,M,80.00,5.00,M,30.04,M,10.00,M,CLR,M,M,M,M,M,M,M,M,KFLP 012205Z AUTO 08005KT 10SM CLR A3004 RMK MADISHF
FLP,2017-04-01 22:10,-92.5902,36.2909,M,M,M,110.00,8.00,M,30.04,M,10.00,M,CLR,M,M,M,M,M,M,M,M,KFLP 012210Z AUTO 11008KT 10SM CLR A3004 RMK MADISHF
FLP,2017-04-01 22:15,-92.5902,36.2909,M,M,M,120.00,5.00,M,30.04,M,10.00,M,CLR,M,M,M,M,M,M,M,M,KFLP 012215Z AUTO 12005KT 10SM CLR A3004 RMK MADISHF
FLP,2017-04-01 22:20,-92.5902,36.2909,M,M,M,130.00,5.00,M,30.04,M,10.00,M,CLR,M,M,M,M,M,M,M,M,KFLP 012220Z AUTO 13005KT 10SM CLR A3004 RMK MADISHF
FLP,2017-04-01 22:25,-92.5902,36.2909,M,M,M,120.00,5.00,M,30.04,M,10.00,M,CLR,M,M,M,M,M,M,M,M,KFLP 012225Z AUTO 12005KT 10SM CLR A3004 RMK MADISHF
FLP,2017-04-01 22:30,-92.5902,36.2909,M,M,M,120.00,6.00,M,30.04,M,10.00,M,CLR,M,M,M,M,M,M,M,M,KFLP 012230Z AUTO 12006KT 10SM CLR A3004 RMK MADISHF
FLP,2017-04-01 22:35,-92.5902,36.2909,M,M,M,120.00,6.00,M,30.04,M,10.00,M,CLR,M,M,M,M,M,M,M,M,KFLP 012235Z AUTO 12006KT 10SM CLR A3004 RMK MADISHF
FLP,2017-04-01 22:40,-92.5902,36.2909,M,M,M,110.00,6.00,M,30.04,M,10.00,M,CLR,M,M,M,M,M,M,M,M,KFLP 012240Z AUTO 11006KT 10SM CLR A3004 RMK MADISHF
FLP,2017-04-01 22:45,-92.5902,36.2909,M,M,M,110.00,6.00,M,30.04,M,10.00,M,CLR,M,M,M,M,M,M,M,M,KFLP 012245Z AUTO 11006KT 10SM CLR A3004 RMK MADISHF
FLP,2017-04-01 22:50,-92.5902,36.2909,M,M,M,110.00,6.00,M,30.04,M,10.00,M,CLR,M,M,M,M,M,M,M,M,KFLP 012250Z AUTO 11006KT 10SM CLR A3004 RMK MADISHF
FLP,2017-04-01 22:55,-92.5902,36.2909,M,M,M,110.00,8.00,M,30.04,M,10.00,M,CLR,M,M,M,M,M,M,M,M,KFLP 012255Z AUTO 11008KT 10SM CLR A3004 RMK MADISHF
FLP,2017-04-01 23:00,-92.5902,36.2909,M,M,M,100.00,5.00,M,30.04,M,10.00,M,CLR,M,M,M,M,M,M,M,M,KFLP 012300Z AUTO 10005KT 10SM CLR A3004 RMK MADISHF
FLP,2017-04-01 23:05,-92.5902,36.2909,M,M,M,100.00,6.00,M,30.04,M,10.00,M,CLR,M,M,M,M,M,M,M,M,KFLP 012305Z AUTO 10006KT 10SM CLR A3004 RMK MADISHF
FLP,2017-04-01 23:10,-92.5902,36.2909,M,M,M,90.00,4.00,M,30.04,M,10.00,M,CLR,M,M,M,M,M,M,M,M,KFLP 012310Z AUTO 09004KT 10SM CLR A3004 RMK MADISHF
FLP,2017-04-01 23:15,-92.5902,36.2909,M,M,M,90.00,5.00,M,30.04,M,10.00,M,CLR,M,M,M,M,M,M,M,M,KFLP 012315Z AUTO 09005KT 10SM CLR A3004 RMK MADISHF
FLP,2017-04-01 23:20,-92.5902,36.2909,M,M,M,80.00,4.00,M,30.04,M,10.00,M,CLR,M,M,M,M,M,M,M,M,KFLP 012320Z AUTO 08004KT 10SM CLR A3004 RMK MADISHF
FLP,2017-04-01 23:25,-92.5902,36.2909,M,M,M,90.00,5.00,M,30.04,M,10.00,M,CLR,M,M,M,M,M,M,M,M,KFLP 012325Z AUTO 09005KT 10SM CLR A3004 RMK MADISHF
FLP,2017-04-01 23:30,-92.5902,36.2909,M,M,M,80.00,4.00,M,30.04,M,10.00,M,CLR,M,M,M,M,M,M,M,M,KFLP 012330Z AUTO 08004KT 10SM CLR A3004 RMK MADISHF
FLP,2017-04-01 23:35,-92.5902,36.2909,M,M,M,90.00,5.00,M,30.04,M,10.00,M,CLR,M,M,M,M,M,M,M,M,KFLP 012335Z AUTO 09005KT 10SM CLR A3004 RMK MADISHF
FLP,2017-04-01 23:40,-92.5902,36.2909,M,M,M,90.00,4.00,M,30.04,M,10.00,M,CLR,M,M,M,M,M,M,M,M,KFLP 012340Z AUTO 09004KT 10SM CLR A3004 RMK MADISHF
FLP,2017-04-01 23:45,-92.5902,36.2909,M,M,M,90.00,4.00,M,30.04,M,10.00,M,CLR,M,M,M,M,M,M,M,M,KFLP 012345Z AUTO 09004KT 10SM CLR A3004 RMK MADISHF
FLP,2017-04-01 23:50,-92.5902,36.2909,M,M,M,90.00,6.00,M,30.03,M,10.00,M,CLR,M,M,M,M,M,M,M,M,KFLP 012350Z AUTO 09006KT 10SM CLR A3003 RMK MADISHF
FLP,2017-04-01 23:55,-92.5902,36.2909,64.40,46.40,51.98,90.00,5.00,0.00,30.04,M,10.00,M,CLR,M,M,M,M,M,M,M,M,KFLP 012355Z 09005KT 10SM CLR 18/08 A3004 RMK AO1 10200 20140 402000070 57003
