#DEBUG: Format Typ    -> comma
#DEBUG: Time Period   -> 2017-04-01 00:00:00+00:00 2017-04-02 00:00:00+00:00
#DEBUG: Time Zone     -> Etc/UTC
#DEBUG: Data Contact   -> daryl herzmann akrherz@iastate.edu 515-294-5978
#DEBUG: Entries Found -> -1
station,valid,lon,lat,tmpf, dwpf, relh, drct, sknt, p01i, alti, mslp, vsby, gust, skyc1, skyc2, skyc3, skyc4, skyl1, skyl2, skyl3, skyl4, presentwx, metar
FNB,2017-04-01 00:00,-95.5920,40.0788,M,M,M,70.00,5.00,M,30.01,M,10.00,M,BKN,M,M,M,3000.00,M,M,M,M,KFNB 010000Z AUTO 07005KT 10SM BKN030 A3001 RMK MADISHF
FNB,2017-04-01 00:05,-95.5920,40.0788,M,M,M,100.00,5.00,M,30.02,M,10.00,M,SCT,M,M,M,3000.00,M,M,M,M,KFNB 010005Z AUTO 10005KT 10SM SCT030 A3002 RMK MADISHF
FNB,2017-04-01 00:10,-95.5920,40.0788,M,M,M,120.00,4.00,M,30.02,M,10.00,M,SCT,M,M,M,3000.00,M,M,M,M,KFNB 010010Z AUTO 12004KT 10SM SCT030 A3002 RMK MADISHF
FNB,2017-04-01 00:15,-95.5920,40.0788,M,M,M,100.00,4.00,M,30.02,M,10.00,M,FEW,M,M,M,3100.00,M,M,M,M,KFNB 010015Z AUTO 10004KT 10SM FEW031 A3002 RMK MADISHF
FNB,2017-04-01 00:40,-95.5920,40.0788,M,M,M,100.00,3.00,M,30.01,M,10.00,M,CLR,M,M,M,M,M,M,M,M,KFNB 010040Z AUTO 10003KT 10SM CLR A3001 RMK MADISHF
FNB,2017-04-01 00:45,-95.5920,40.0788,M,M,M,100.00,3.00,M,30.01,M,10.00,M,CLR,M,M,M,M,M,M,M,M,KFNB 010045Z AUTO 10003KT 10SM CLR A3001 RMK MADISHF
FNB,2017-04-01 00:50,-95.5920,40.0788,M,M,M,100.00,3.00,M,30.01,M,10.00,M,CLR,M,M,M,M,M,M,M,M,KFNB 010050Z AUTO 10003KT 10SM CLR A3001 RMK MADISHF
FNB,2017-04-01 00:53,-95.5920,40.0788,48.00,42.10,79.91,100.00,3.00,0.00,30.01,1016.50,10.00,M,CLR,M,M,M,M,M,M,M,M,KFNB 010053Z AUTO 10003KT 10SM CLR 09/06 A3001 RMK AO2 SLP165 T00890056
FNB,2017-04-01 00:55,-95.5920,40.0788,M,M,M,0.00,0.00,M,30.01,M,10.00,M,CLR,M,M,M,M,M,M,M,M,KFNB 010055Z AUTO 00000KT 10SM CLR A3001 RMK MADISHF
FNB,2017-04-01 01:00,-95.5920,40.0788,M,M,M,90.00,3.00,M,30.01,M,10.00,M,CLR,M,M,M,M,M,M,M,M,KFNB 010100Z AUTO 09003KT 10SM CLR A3001 RMK MADISHF
FNB,2017-04-01 01:05,-95.5920,40.0788,M,M,M,70.00,4.00,M,30.01,M,10.00,M,CLR,M,M,M,M,M,M,M,M,KFNB 010105Z AUTO 07004KT 10SM CLR A3001 RMK MADISHF
FNB,2017-04-01 01:10,-95.5920,40.0788,M,M,M,70.00,4.00,M,30.00,M,10.00,M,CLR,M,M,M,M,M,M,M,M,KFNB 010110Z AUTO 07004KT 10SM CLR A3000 RMK MADISHF
FNB,2017-04-01 01:20,-95.5920,40.0788,M,M,M,60.00,3.00,M,30.01,M,10.00,M,CLR,M,M,M,M,M,M,M,M,KFNB 010120Z AUTO 06003KT 10SM CLR A3001 RMK MADISHF
FNB,2017-04-01 01:25,-95.5920,40.0788,M,M,M,0.00,0.00,M,30.01,M,10.00,M,CLR,M,M,M,M,M,M,M,M,KFNB 010125Z AUTO 00000KT 10SM CLR A3001 RMK MADISHF
FNB,2017-04-01 01:30,-95.5920,40.0788,M,M,M,70.00,3.00,M,30.01,M,10.00,M,CLR,M,M,M,M,M,M,M,M,KFNB 010130Z AUTO 07003KT 10SM CLR A3001 RMK MADISHF
FNB,2017-04-01 01:35,-95.5920,40.0788,M,M,M,0.00,0.00,M,30.01,M,10.00,M,CLR,M,M,M,M,M,M,M,M,KFNB 010135Z AUTO 00000KT 10SM CLR A3001 RMK MADISHF
FNB,2017-04-01 01:40,-95.5920,40.0788,M,M,M,0.00,0.00,M,30.02,M,10.00,M,CLR,M,M,M,M,M,M,M,M,KFNB 010140Z AUTO 00000KT 10SM CLR A3002 RMK MADISHF
FNB,2017-04-01 01:45,-95.5920,40.0788,M,M,M,0.00,0.00,M,30.02,M,10.00,M,CLR,M,M,M,M,M,M,M,M,KFNB 010145Z AUTO 00000KT 10SM CLR A3002 RMK MADISHF
FNB,2017-04-01 01:53,-95.5920,40.0788,46.90,42.10,83.28,0.00,0.00,0.00,30.02,1016.90,10.00,M,FEW,M,M,M,4000.00,M,M,M,M,KFNB 010153Z AUTO 00000KT 10SM FEW040 08/06 A3002 RMK AO2 SLP169 T00830056
FNB,2017-04-01 01:55,-95.5920,40.0788,M,M,M,0.00,0.00,M,30.02,M,10.00,M,FEW,M,M,M,3999.00,M,M,M,M,KFNB 010155Z AUTO 00000KT 10SM FEW039 A3002 RMK MADISHF
FNB,2017-04-01 02:00,-95.5920,40.0788,M,M,M,0.00,0.00,M,30.03,M,10.00,M,SCT,M,M,M,3999.00,M,M,M,M,KFNB 010200Z AUTO 00000KT 10SM SCT039 A3003 RMK MADISHF
FNB,2017-04-01 02:05,-95.5920,40.0788,M,M,M,0.00,0.00,M,30.03,M,10.00,M,BKN,M,M,M,3999.00,M,M,M,M,KFNB 010205Z AUTO 00000KT 10SM BKN039 A3003 RMK MADISHF
FNB,2017-04-01 02:10,-95.5920,40.0788,M,M,M,0.00,0.00,M,30.03,M,10.00,M,BKN,M,M,M,3900.00,M,M,M,M,KFNB 010210Z AUTO 00000KT 10SM BKN039 A3003 RMK MADISHF
FNB,2017-04-01 02:15,-95.5920,40.0788,M,M,M,0.00,0.00,M,30.04,M,10.00,M,BKN,M,M,M,3900.00,M,M,M,M,KFNB 010215Z AUTO 00000KT 10SM BKN039 A3004 RMK MADISHF
FNB,2017-04-01 02:20,-95.5920,40.0788,M,M,M,0.00,0.00,M,30.05,M,10.00,M,OVC,M,M,M,3900.00,M,M,M,M,KFNB 010220Z AUTO 00000KT 10SM OVC039 A3005 RMK MADISHF
FNB,2017-04-01 02:35,-95.5920,40.0788,M,M,M,0.00,0.00,M,30.06,M,10.00,M,OVC,M,M,M,3900.00,M,M,M,M,KFNB 010235Z AUTO 00000KT 10SM OVC039 A3006 RMK MADISHF
FNB,2017-04-01 02:40,-95.5920,40.0788,M,M,M,200.00,3.00,M,30.06,M,10.00,M,OVC,M,M,M,3700.00,M,M,M,M,KFNB 010240Z AUTO 20003KT 10SM OVC037 A3006 RMK MADISHF
FNB,2017-04-01 02:45,-95.5920,40.0788,M,M,M,0.00,0.00,M,30.06,M,10.00,M,OVC,M,M,M,3700.00,M,M,M,M,KFNB 010245Z AUTO 00000KT 10SM OVC037 A3006 RMK MADISHF
FNB,2017-04-01 02:50,-95.5920,40.0788,M,M,M,360.00,4.00,M,30.06,M,10.00,M,OVC,M,M,M,3500.00,M,M,M,M,KFNB 010250Z AUTO 36004KT 10SM OVC035 A3006 RMK MADISHF
FNB,2017-04-01 02:53,-95.5920,40.0788,46.00,43.00,89.20,0.00,0.00,0.00,30.06,1018.40,10.00,M,OVC,M,M,M,3500.00,M,M,M,M,KFNB 010253Z AUTO 00000KT 10SM OVC035 08/06 A3006 RMK AO2 SLP184 T00780061 53017
FNB,2017-04-01 02:55,-95.5920,40.0788,M,M,M,0.00,0.00,M,30.07,M,10.00,M,OVC,M,M,M,3300.00,M,M,M,M,KFNB 010255Z AUTO 00000KT 10SM OVC033 A3007 RMK MADISHF
FNB,2017-04-01 03:00,-95.5920,40.0788,M,M,M,0.00,0.00,M,30.07,M,10.00,M,OVC,M,M,M,3300.00,M,M,M,M,KFNB 010300Z AUTO 00000KT 10SM OVC033 A3007 RMK MADISHF
FNB,2017-04-01 03:05,-95.5920,40.0788,M,M,M,0.00,0.00,M,30.07,M,10.00,M,OVC,M,M,M,3300.00,M,M,M,M,KFNB 010305Z AUTO 00000KT 10SM OVC033 A3007 RMK MADISHF
FNB,2017-04-01 03:10,-95.5920,40.0788,M,M,M,130.00,3.00,M,30.07,M,10.00,M,OVC,M,M,M,3300.00,M,M,M,M,KFNB 010310Z AUTO 13003KT 10SM OVC033 A3007 RMK MADISHF
FNB,2017-04-01 03:25,-95.5920,40.0788,M,M,M,0.00,0.00,M,30.08,M,10.00,M,BKN,OVC,M,M,2800.00,3600.00,M,M,M,KFNB 010325Z AUTO 00000KT 10SM BKN028 OVC036 A3008 RMK MADISHF
FNB,2017-04-01 03:30,-95.5920,40.0788,46.90,43.00,86.21,0.00,0.00,0.00,30.08,M,10.00,M,BKN,OVC,M,M,2800.00,3600.00,M,M,M,KFNB 010330Z AUTO 00000KT 10SM BKN028 OVC036 08/06 A3008 RMK AO2 T00830061
FNB,2017-04-01 03:35,-95.5920,40.0788,M,M,M,0.00,0.00,M,30.08,M,10.00,M,BKN,OVC,M,M,3000.00,3600.00,M,M,M,KFNB 010335Z AUTO 00000KT 10SM BKN030 OVC036 A3008 RMK MADISHF
FNB,2017-04-01 03:40,-95.5920,40.0788,46.90,43.00,86.21,0.00,0.00,0.00,30.08,M,10.00,M,BKN,OVC,M,M,3000.00,3600.00,M,M,M,KFNB 010340Z AUTO 00000KT 10SM BKN030 OVC036 08/06 A3008 RMK AO2 T00830061
FNB,2017-04-01 03:45,-95.5920,40.0788,M,M,M,0.00,0.00,M,30.08,M,10.00,M,BKN,OVC,M,M,3000.00,3600.00,M,M,M,KFNB 010345Z AUTO 00000KT 10SM BKN030 OVC036 A3008 RMK MADISHF
FNB,2017-04-01 03:50,-95.5920,40.0788,M,M,M,0.00,0.00,M,30.08,M,10.00,M,SCT,OVC,M,M,3000.00,3800.00,M,M,M,KFNB 010350Z AUTO 00000KT 10SM SCT030 OVC038 A3008 RMK MADISHF
FNB,2017-04-01 03:53,-95.5920,40.0788,46.90,42.10,83.28,0.00,0.00,0.00,30.08,1018.90,10.00,M,OVC,M,M,M,3500.00,M,M,M,M,KFNB 010353Z AUTO 00000KT 10SM OVC035 08/06 A3008 RMK AO2 SLP189 T00830056
FNB,2017-04-01 03:55,-95.5920,40.0788,M,M,M,0.00,0.00,M,30.08,M,10.00,M,OVC,M,M,M,3500.00,M,M,M,M,KFNB 010355Z AUTO 00000KT 10SM OVC035 A3008 RMK MADISHF
FNB,2017-04-01 04:00,-95.5920,40.0788,M,M,M,0.00,0.00,M,30.08,M,10.00,M,OVC,M,M,M,3300.00,M,M,M,M,KFNB 010400Z AUTO 00000KT 10SM OVC033 A3008 RMK MADISHF
FNB,2017-04-01 04:05,-95.5920,40.0788,M,M,M,0.00,0.00,M,30.08,M,10.00,M,BKN,OVC,M,M,2900.00,3800.00,M,M,M,KFNB 010405Z AUTO 00000KT 10SM BKN029 OVC038 A3008 RMK MADISHF
FNB,2017-04-01 04:10,-95.5920,40.0788,46.90,42.10,83.28,0.00,0.00,0.00,30.08,M,10.00,M,BKN,OVC,M,M,2900.00,3800.00,M,M,M,KFNB 010410Z AUTO 00000KT 10SM BKN029 OVC038 08/06 A3008 RMK AO2 T00830056
FNB,2017-04-01 04:15,-95.5920,40.0788,M,M,M,0.00,0.00,M,30.08,M,10.00,M,BKN,OVC,M,M,2900.00,3800.00,M,M,M,KFNB 010415Z AUTO 00000KT 10SM BKN029 OVC038 A3008 RMK MADISHF
FNB,2017-04-01 04:20,-95.5920,40.0788,M,M,M,0.00,0.00,M,30.08,M,10.00,M,OVC,M,M,M,2900.00,M,M,M,M,KFNB 010420Z AUTO 00000KT 10SM OVC029 A3008 RMK MADISHF
FNB,2017-04-01 04:25,-95.5920,40.0788,M,M,M,0.00,0.00,M,30.08,M,10.00,M,OVC,M,M,M,2900.00,M,M,M,M,KFNB 010425Z AUTO 00000KT 10SM OVC029 A3008 RMK MADISHF
FNB,2017-04-01 04:35,-95.5920,40.0788,M,M,M,80.00,3.00,M,30.08,M,10.00,M,OVC,M,M,M,2900.00,M,M,M,M,KFNB 010435Z AUTO 08003KT 10SM OVC029 A3008 RMK MADISHF
FNB,2017-04-01 04:40,-95.5920,40.0788,M,M,M,80.00,3.00,M,30.08,M,10.00,M,OVC,M,M,M,2900.00,M,M,M,M,KFNB 010440Z AUTO 08003KT 10SM OVC029 A3008 RMK MADISHF
FNB,2017-04-01 04:45,-95.5920,40.0788,M,M,M,90.00,5.00,M,30.09,M,10.00,M,OVC,M,M,M,2900.00,M,M,M,M,KFNB 010445Z AUTO 09005KT 10SM OVC029 A3009 RMK VRB05KT  MADISHF
FNB,2017-04-01 04:50,-95.5920,40.0788,M,M,M,80.00,8.00,M,30.09,M,10.00,M,OVC,M,M,M,2900.00,M,M,M,M,KFNB 010450Z AUTO 08008KT 10SM OVC029 A3009 RMK MADISHF
FNB,2017-04-01 04:53,-95.5920,40.0788,46.90,42.10,83.28,90.00,7.00,0.00,30.09,1019.20,10.00,M,OVC,M,M,M,2900.00,M,M,M,M,KFNB 010453Z AUTO 09007KT 10SM OVC029 08/06 A3009 RMK AO2 SLP192 T00830056
FNB,2017-04-01 04:55,-95.5920,40.0788,M,M,M,90.00,8.00,M,30.09,M,10.00,M,OVC,M,M,M,2900.00,M,M,M,M,KFNB 010455Z AUTO 09008KT 10SM OVC029 A3009 RMK MADISHF
FNB,2017-04-01 05:00,-95.5920,40.0788,M,M,M,80.00,7.00,M,30.10,M,10.00,M,OVC,M,M,M,2900.00,M,M,M,M,KFNB 010500Z AUTO 08007KT 10SM OVC029 A3010 RMK MADISHF
FNB,2017-04-01 05:15,-95.5920,40.0788,M,M,M,90.00,7.00,M,30.11,M,10.00,M,OVC,M,M,M,2800.00,M,M,M,M,KFNB 010515Z AUTO 09007KT 10SM OVC028 A3011 RMK MADISHF
FNB,2017-04-01 05:20,-95.5920,40.0788,M,M,M,80.00,8.00,M,30.11,M,10.00,M,OVC,M,M,M,3000.00,M,M,M,M,KFNB 010520Z AUTO 08008KT 10SM OVC030 A3011 RMK MADISHF
FNB,2017-04-01 05:25,-95.5920,40.0788,46.90,42.10,83.28,80.00,7.00,0.00,30.12,M,10.00,M,OVC,M,M,M,3000.00,M,M,M,M,KFNB 010525Z AUTO 08007KT 10SM OVC030 08/06 A3012 RMK AO2 T00830056
FNB,2017-04-01 05:30,-95.5920,40.0788,M,M,M,70.00,6.00,M,30.12,M,10.00,M,OVC,M,M,M,3000.00,M,M,M,M,KFNB 010530Z AUTO 07006KT 10SM OVC030 A3012 RMK MADISHF
FNB,2017-04-01 05:35,-95.5920,40.0788,M,M,M,70.00,6.00,M,30.12,M,10.00,M,OVC,M,M,M,3000.00,M,M,M,M,KFNB 010535Z AUTO 07006KT 10SM OVC030 A3012 RMK MADISHF
FNB,2017-04-01 05:40,-95.5920,40.0788,M,M,M,70.00,6.00,M,30.12,M,10.00,M,OVC,M,M,M,3000.00,M,M,M,M,KFNB 010540Z AUTO 07006KT 10SM OVC030 A3012 RMK MADISHF
FNB,2017-04-01 05:53,-95.5920,40.0788,46.90,42.10,83.28,80.00,7.00,0.00,30.13,1020.50,10.00,M,OVC,M,M,M,3100.00,M,M,M,M,KFNB 010553Z AUTO 08007KT 10SM OVC031 08/06 A3013 RMK AO2 SLP205 T00830056 10106 20072 401110050 53021
FNB,2017-04-01 05:55,-95.5920,40.0788,M,M,M,80.00,7.00,M,30.13,M,10.00,M,OVC,M,M,M,3100.00,M,M,M,M,KFNB 010555Z AUTO 08007KT 10SM OVC031 A3013 RMK MADISHF
FNB,2017-04-01 06:00,-95.5920,40.0788,M,M,M,80.00,7.00,M,30.13,M,10.00,M,OVC,M,M,M,3100.00,M,M,M,M,KFNB 010600Z AUTO 08007KT 10SM OVC031 A3013 RMK MADISHF
FNB,2017-04-01 06:05,-95.5920,40.0788,M,M,M,80.00,7.00,M,30.13,M,10.00,M,OVC,M,M,M,3100.00,M,M,M,M,KFNB 010605Z AUTO 08007KT 10SM OVC031 A3013 RMK MADISHF
FNB,2017-04-01 06:10,-95.5920,40.0788,M,M,M,80.00,7.00,M,30.14,M,10.00,M,OVC,M,M,M,3100.00,M,M,M,M,KFNB 010610Z AUTO 08007KT 10SM OVC031 A3014 RMK MADISHF
FNB,2017-04-01 06:20,-95.5920,40.0788,M,M,M,90.00,8.00,M,30.14,M,10.00,M,OVC,M,M,M,3200.00,M,M,M,M,KFNB 010620Z AUTO 09008KT 10SM OVC032 A3014 RMK MADISHF
FNB,2017-04-01 06:25,-95.5920,40.0788,M,M,M,100.00,8.00,M,30.14,M,10.00,M,OVC,M,M,M,3200.00,M,M,M,M,KFNB 010625Z AUTO 10008KT 10SM OVC032 A3014 RMK MADISHF
FNB,2017-04-01 06:30,-95.5920,40.0788,M,M,M,100.00,8.00,M,30.13,M,10.00,M,OVC,M,M,M,3399.00,M,M,M,M,KFNB 010630Z AUTO 10008KT 10SM OVC033 A3013 RMK MADISHF
FNB,2017-04-01 06:35,-95.5920,40.0788,M,M,M,100.00,8.00,M,30.13,M,10.00,M,OVC,M,M,M,3600.00,M,M,M,M,KFNB 010635Z AUTO 10008KT 10SM OVC036 A3013 RMK MADISHF
FNB,2017-04-01 06:40,-95.5920,40.0788,M,M,M,90.00,10.00,M,30.13,M,10.00,M,OVC,M,M,M,3800.00,M,M,M,M,KFNB 010640Z AUTO 09010KT 10SM OVC038 A3013 RMK MADISHF
FNB,2017-04-01 06:53,-95.5920,40.0788,45.00,41.00,85.77,80.00,8.00,0.00,30.14,1020.80,10.00,M,FEW,OVC,M,M,1900.00,4000.00,M,M,M,KFNB 010653Z AUTO 08008KT 10SM FEW019 OVC040 07/05 A3014 RMK AO2 SLP208 T00720050
FNB,2017-04-01 06:55,-95.5920,40.0788,M,M,M,70.00,7.00,M,30.14,M,10.00,M,SCT,OVC,M,M,1900.00,4200.00,M,M,M,KFNB 010655Z AUTO 07007KT 10SM SCT019 OVC042 A3014 RMK MADISHF
FNB,2017-04-01 07:00,-95.5920,40.0788,M,M,M,80.00,8.00,M,30.13,M,10.00,M,BKN,OVC,M,M,1900.00,4200.00,M,M,M,KFNB 010700Z AUTO 08008KT 10SM BKN019 OVC042 A3013 RMK MADISHF
FNB,2017-04-01 07:05,-95.5920,40.0788,45.00,39.90,82.19,80.00,8.00,0.00,30.13,M,10.00,M,BKN,OVC,M,M,1900.00,4200.00,M,M,M,KFNB 010705Z AUTO 08008KT 10SM BKN019 OVC042 07/04 A3013 RMK AO2 T00720044
FNB,2017-04-01 07:10,-95.5920,40.0788,M,M,M,80.00,9.00,M,30.13,M,10.00,M,BKN,OVC,M,M,1900.00,4200.00,M,M,M,KFNB 010710Z AUTO 08009KT 10SM BKN019 OVC042 A3013 RMK MADISHF
FNB,2017-04-01 07:15,-95.5920,40.0788,M,M,M,70.00,8.00,M,30.13,M,10.00,M,OVC,M,M,M,1999.00,M,M,M,M,KFNB 010715Z AUTO 07008KT 10SM OVC019 A3013 RMK MADISHF
FNB,2017-04-01 07:20,-95.5920,40.0788,M,M,M,80.00,9.00,M,30.13,M,10.00,M,OVC,M,M,M,1999.00,M,M,M,M,KFNB 010720Z AUTO 08009KT 10SM OVC019 A3013 RMK MADISHF
FNB,2017-04-01 07:40,-95.5920,40.0788,M,M,M,90.00,8.00,M,30.13,M,10.00,M,OVC,M,M,M,2100.00,M,M,M,M,KFNB 010740Z AUTO 09008KT 10SM OVC021 A3013 RMK MADISHF
FNB,2017-04-01 07:45,-95.5920,40.0788,M,M,M,90.00,7.00,M,30.13,M,10.00,M,OVC,M,M,M,2200.00,M,M,M,M,KFNB 010745Z AUTO 09007KT 10SM OVC022 A3013 RMK MADISHF
FNB,2017-04-01 07:50,-95.5920,40.0788,M,M,M,90.00,7.00,M,30.13,M,10.00,M,OVC,M,M,M,2200.00,M,M,M,M,KFNB 010750Z AUTO 09007KT 10SM OVC022 A3013 RMK MADISHF
FNB,2017-04-01 07:53,-95.5920,40.0788,44.10,39.90,85.06,90.00,8.00,0.00,30.13,1020.50,10.00,M,OVC,M,M,M,2200.00,M,M,M,M,KFNB 010753Z AUTO 09008KT 10SM OVC022 07/04 A3013 RMK AO2 SLP205 T00670044
FNB,2017-04-01 07:55,-95.5920,40.0788,M,M,M,90.00,8.00,M,30.13,M,10.00,M,OVC,M,M,M,2200.00,M,M,M,M,KFNB 010755Z AUTO 09008KT 10SM OVC022 A3013 RMK MADISHF
FNB,2017-04-01 08:00,-95.5920,40.0788,M,M,M,80.00,6.00,M,30.13,M,10.00,M,OVC,M,M,M,2200.00,M,M,M,M,KFNB 010800Z AUTO 08006KT 10SM OVC022 A3013 RMK MADISHF
FNB,2017-04-01 08:05,-95.5920,40.0788,M,M,M,80.00,8.00,M,30.13,M,10.00,M,OVC,M,M,M,2300.00,M,M,M,M,KFNB 010805Z AUTO 08008KT 10SM OVC023 A3013 RMK MADISHF
FNB,2017-04-01 08:10,-95.5920,40.0788,M,M,M,90.00,8.00,M,30.14,M,10.00,M,OVC,M,M,M,2300.00,M,M,M,M,KFNB 010810Z AUTO 09008KT 10SM OVC023 A3014 RMK MADISHF
FNB,2017-04-01 08:20,-95.5920,40.0788,M,M,M,90.00,8.00,M,30.14,M,10.00,M,OVC,M,M,M,2300.00,M,M,M,M,KFNB 010820Z AUTO 09008KT 10SM OVC023 A3014 RMK MADISHF
FNB,2017-04-01 08:25,-95.5920,40.0788,M,M,M,80.00,7.00,M,30.14,M,10.00,M,OVC,M,M,M,2300.00,M,M,M,M,KFNB 010825Z AUTO 08007KT 10SM OVC023 A3014 RMK MADISHF
FNB,2017-04-01 08:30,-95.5920,40.0788,M,M,M,80.00,7.00,M,30.14,M,10.00,M,BKN,OVC,M,M,2400.00,3399.00,M,M,M,KFNB 010830Z AUTO 08007KT 10SM BKN024 OVC033 A3014 RMK MADISHF
FNB,2017-04-01 08:35,-95.5920,40.0788,M,M,M,90.00,7.00,M,30.14,M,10.00,M,BKN,OVC,M,M,2400.00,3399.00,M,M,M,KFNB 010835Z AUTO 09007KT 10SM BKN024 OVC033 A3014 RMK MADISHF
FNB,2017-04-01 08:40,-95.5920,40.0788,M,M,M,90.00,7.00,M,30.14,M,10.00,M,BKN,OVC,M,M,2400.00,3399.00,M,M,M,KFNB 010840Z AUTO 09007KT 10SM BKN024 OVC033 A3014 RMK MADISHF
FNB,2017-04-01 08:45,-95.5920,40.0788,M,M,M,110.00,7.00,M,30.15,M,10.00,M,SCT,OVC,M,M,2500.00,3399.00,M,M,M,KFNB 010845Z AUTO 11007KT 10SM SCT025 OVC033 A3015 RMK MADISHF
FNB,2017-04-01 08:50,-95.5920,40.0788,42.80,39.20,86.99,100.00,6.00,0.00,30.15,M,10.00,M,SCT,BKN,M,M,2500.00,3400.00,M,M,M,KFNB 010850Z AUTO 10006KT 10SM SCT025 BKN034 06/04 A3015 RMK AO2
FNB,2017-04-01 08:53,-95.5920,40.0788,43.00,39.00,85.66,110.00,6.00,0.00,30.15,1021.10,10.00,M,FEW,BKN,M,M,2500.00,3400.00,M,M,M,KFNB 010853Z AUTO 11006KT 10SM FEW025 BKN034 06/04 A3015 RMK AO2 SLP211 T00610039 53003
FNB,2017-04-01 08:55,-95.5920,40.0788,M,M,M,100.00,7.00,M,30.15,M,10.00,M,FEW,BKN,M,M,2500.00,3399.00,M,M,M,KFNB 010855Z AUTO 10007KT 10SM FEW025 BKN033 A3015 RMK MADISHF
FNB,2017-04-01 09:00,-95.5920,40.0788,M,M,M,100.00,6.00,M,30.15,M,10.00,M,FEW,BKN,M,M,2500.00,3399.00,M,M,M,KFNB 010900Z AUTO 10006KT 10SM FEW025 BKN033 A3015 RMK MADISHF
FNB,2017-04-01 09:05,-95.5920,40.0788,M,M,M,90.00,5.00,M,30.15,M,10.00,M,FEW,SCT,M,M,2500.00,3399.00,M,M,M,KFNB 010905Z AUTO 09005KT 10SM FEW025 SCT033 A3015 RMK MADISHF
FNB,2017-04-01 09:10,-95.5920,40.0788,M,M,M,90.00,6.00,M,30.15,M,10.00,M,FEW,M,M,M,3200.00,M,M,M,M,KFNB 010910Z AUTO 09006KT 10SM FEW032 A3015 RMK MADISHF
FNB,2017-04-01 09:15,-95.5920,40.0788,M,M,M,100.00,5.00,M,30.16,M,10.00,M,CLR,M,M,M,M,M,M,M,M,KFNB 010915Z AUTO 10005KT 10SM CLR A3016 RMK MADISHF
FNB,2017-04-01 09:20,-95.5920,40.0788,M,M,M,100.00,5.00,M,30.16,M,10.00,M,CLR,M,M,M,M,M,M,M,M,KFNB 010920Z AUTO 10005KT 10SM CLR A3016 RMK MADISHF
FNB,2017-04-01 09:35,-95.5920,40.0788,M,M,M,100.00,4.00,M,30.15,M,10.00,M,CLR,M,M,M,M,M,M,M,M,KFNB 010935Z AUTO 10004KT 10SM CLR A3015 RMK MADISHF
FNB,2017-04-01 09:40,-95.5920,40.0788,M,M,M,100.00,5.00,M,30.15,M,10.00,M,CLR,M,M,M,M,M,M,M,M,KFNB 010940Z AUTO 10005KT 10SM CLR A3015 RMK MADISHF
FNB,2017-04-01 09:45,-95.5920,40.0788,M,M,M,100.00,4.00,M,30.15,M,10.00,M,CLR,M,M,M,M,M,M,M,M,KFNB 010945Z AUTO 10004KT 10SM CLR A3015 RMK MADISHF
FNB,2017-04-01 09:50,-95.5920,40.0788,M,M,M,80.00,5.00,M,30.15,M,10.00,M,CLR,M,M,M,M,M,M,M,M,KFNB 010950Z AUTO 08005KT 10SM CLR A3015 RMK MADISHF
FNB,2017-04-01 09:53,-95.5920,40.0788,39.90,37.90,92.48,70.00,4.00,0.00,30.15,1021.20,10.00,M,CLR,M,M,M,M,M,M,M,M,KFNB 010953Z AUTO 07004KT 10SM CLR 04/03 A3015 RMK AO2 SLP212 T00440033
FNB,2017-04-01 09:55,-95.5920,40.0788,M,M,M,70.00,5.00,M,30.15,M,10.00,M,CLR,M,M,M,M,M,M,M,M,KFNB 010955Z AUTO 07005KT 10SM CLR A3015 RMK MADISHF
FNB,2017-04-01 10:00,-95.5920,40.0788,M,M,M,70.00,5.00,M,30.15,M,10.00,M,FEW,M,M,M,1400.00,M,M,M,M,KFNB 011000Z AUTO 07005KT 10SM FEW014 A3015 RMK MADISHF
FNB,2017-04-01 10:05,-95.5920,40.0788,M,M,M,60.00,4.00,M,30.15,M,10.00,M,FEW,M,M,M,1400.00,M,M,M,M,KFNB 011005Z AUTO 06004KT 10SM FEW014 A3015 RMK MADISHF
FNB,2017-04-01 10:10,-95.5920,40.0788,M,M,M,80.00,3.00,M,30.15,M,10.00,M,FEW,M,M,M,1400.00,M,M,M,M,KFNB 011010Z AUTO 08003KT 10SM FEW014 A3015 RMK MADISHF
FNB,2017-04-01 10:15,-95.5920,40.0788,M,M,M,80.00,3.00,M,30.15,M,10.00,M,FEW,M,M,M,1400.00,M,M,M,M,KFNB 011015Z AUTO 08003KT 10SM FEW014 A3015 RMK MADISHF
FNB,2017-04-01 10:30,-95.5920,40.0788,M,M,M,40.00,3.00,M,30.15,M,10.00,M,CLR,M,M,M,M,M,M,M,M,KFNB 011030Z AUTO 04003KT 10SM CLR A3015 RMK MADISHF
FNB,2017-04-01 10:35,-95.5920,40.0788,M,M,M,60.00,3.00,M,30.16,M,10.00,M,CLR,M,M,M,M,M,M,M,M,KFNB 011035Z AUTO 06003KT 10SM CLR A3016 RMK MADISHF
FNB,2017-04-01 10:40,-95.5920,40.0788,M,M,M,0.00,0.00,M,30.17,M,10.00,M,CLR,M,M,M,M,M,M,M,M,KFNB 011040Z AUTO 00000KT 10SM CLR A3017 RMK MADISHF
FNB,2017-04-01 10:45,-95.5920,40.0788,M,M,M,70.00,3.00,M,30.17,M,10.00,M,CLR,M,M,M,M,M,M,M,M,KFNB 011045Z AUTO 07003KT 10SM CLR A3017 RMK MADISHF
FNB,2017-04-01 10:50,-95.5920,40.0788,M,M,M,60.00,4.00,M,30.16,M,10.00,M,CLR,M,M,M,M,M,M,M,M,KFNB 011050Z AUTO 06004KT 10SM CLR A3016 RMK MADISHF
FNB,2017-04-01 10:53,-95.5920,40.0788,41.00,37.90,88.62,60.00,4.00,0.00,30.17,1021.80,10.00,M,CLR,M,M,M,M,M,M,M,M,KFNB 011053Z AUTO 06004KT 10SM CLR 05/03 A3017 RMK AO2 SLP218 T00500033
FNB,2017-04-01 10:55,-95.5920,40.0788,M,M,M,60.00,3.00,M,30.17,M,10.00,M,CLR,M,M,M,M,M,M,M,M,KFNB 011055Z AUTO 06003KT 10SM CLR A3017 RMK MADISHF
FNB,2017-04-01 11:00,-95.5920,40.0788,M,M,M,50.00,4.00,M,30.17,M,10.00,M,CLR,M,M,M,M,M,M,M,M,KFNB 011100Z AUTO 05004KT 10SM CLR A3017 RMK MADISHF
FNB,2017-04-01 11:10,-95.5920,40.0788,M,M,M,50.00,4.00,M,30.17,M,10.00,M,CLR,M,M,M,M,M,M,M,M,KFNB 011110Z AUTO 05004KT 10SM CLR A3017 RMK MADISHF
FNB,2017-04-01 11:15,-95.5920,40.0788,M,M,M,40.00,3.00,M,30.17,M,10.00,M,CLR,M,M,M,M,M,M,M,M,KFNB 011115Z AUTO 04003KT 10SM CLR A3017 RMK MADISHF
FNB,2017-04-01 11:20,-95.5920,40.0788,M,M,M,40.00,4.00,M,30.17,M,10.00,M,CLR,M,M,M,M,M,M,M,M,KFNB 011120Z AUTO 04004KT 10SM CLR A3017 RMK MADISHF
FNB,2017-04-01 11:25,-95.5920,40.0788,M,M,M,40.00,3.00,M,30.18,M,10.00,M,CLR,M,M,M,M,M,M,M,M,KFNB 011125Z AUTO 04003KT 10SM CLR A3018 RMK MADISHF
FNB,2017-04-01 11:30,-95.5920,40.0788,M,M,M,50.00,4.00,M,30.18,M,10.00,M,CLR,M,M,M,M,M,M,M,M,KFNB 011130Z AUTO 05004KT 10SM CLR A3018 RMK MADISHF
FNB,2017-04-01 11:35,-95.5920,40.0788,M,M,M,80.00,4.00,M,30.19,M,10.00,M,CLR,M,M,M,M,M,M,M,M,KFNB 011135Z AUTO 08004KT 10SM CLR A3019 RMK MADISHF
FNB,2017-04-01 11:40,-95.5920,40.0788,M,M,M,70.00,3.00,M,30.19,M,10.00,M,CLR,M,M,M,M,M,M,M,M,KFNB 011140Z AUTO 07003KT 10SM CLR A3019 RMK MADISHF
FNB,2017-04-01 11:53,-95.5920,40.0788,41.00,37.90,88.62,80.00,3.00,0.00,30.20,1023.00,10.00,M,CLR,M,M,M,M,M,M,M,M,KFNB 011153Z AUTO 08003KT 10SM CLR 05/03 A3020 RMK AO2 SLP230 T00500033 10083 20044 53018
FNB,2017-04-01 11:55,-95.5920,40.0788,M,M,M,80.00,3.00,M,30.20,M,10.00,M,CLR,M,M,M,M,M,M,M,M,KFNB 011155Z AUTO 08003KT 10SM CLR A3020 RMK MADISHF
FNB,2017-04-01 12:00,-95.5920,40.0788,M,M,M,80.00,4.00,M,30.20,M,10.00,M,CLR,M,M,M,M,M,M,M,M,KFNB 011200Z AUTO 08004KT 10SM CLR A3020 RMK MADISHF
FNB,2017-04-01 12:05,-95.5920,40.0788,M,M,M,60.00,5.00,M,30.19,M,10.00,M,CLR,M,M,M,M,M,M,M,M,KFNB 011205Z AUTO 06005KT 10SM CLR A3019 RMK MADISHF
FNB,2017-04-01 12:10,-95.5920,40.0788,M,M,M,50.00,4.00,M,30.19,M,10.00,M,CLR,M,M,M,M,M,M,M,M,KFNB 011210Z AUTO 05004KT 10SM CLR A3019 RMK MADISHF
FNB,2017-04-01 12:15,-95.5920,40.0788,M,M,M,60.00,6.00,M,30.19,M,10.00,M,CLR,M,M,M,M,M,M,M,M,KFNB 011215Z AUTO 06006KT 10SM CLR A3019 RMK MADISHF
FNB,2017-04-01 12:20,-95.5920,40.0788,M,M,M,60.00,6.00,M,30.18,M,10.00,M,CLR,M,M,M,M,M,M,M,M,KFNB 011220Z AUTO 06006KT 10SM CLR A3018 RMK MADISHF
FNB,2017-04-01 12:25,-95.5920,40.0788,M,M,M,60.00,7.00,M,30.18,M,10.00,M,CLR,M,M,M,M,M,M,M,M,KFNB 011225Z AUTO 06007KT 10SM CLR A3018 RMK MADISHF
FNB,2017-04-01 12:30,-95.5920,40.0788,M,M,M,60.00,7.00,M,30.17,M,10.00,M,CLR,M,M,M,M,M,M,M,M,KFNB 011230Z AUTO 06007KT 10SM CLR A3017 RMK MADISHF
FNB,2017-04-01 12:40,-95.5920,40.0788,M,M,M,60.00,4.00,M,30.19,M,10.00,M,CLR,M,M,M,M,M,M,M,M,KFNB 011240Z AUTO 06004KT 10SM CLR A3019 RMK MADISHF
FNB,2017-04-01 12:45,-95.5920,40.0788,M,M,M,60.00,4.00,M,30.20,M,10.00,M,FEW,M,M,M,1600.00,M,M,M,M,KFNB 011245Z AUTO 06004KT 10SM FEW016 A3020 RMK MADISHF
FNB,2017-04-01 12:50,-95.5920,40.0788,M,M,M,70.00,3.00,M,30.20,M,10.00,M,SCT,M,M,M,1600.00,M,M,M,M,KFNB 011250Z AUTO 07003KT 10SM SCT016 A3020 RMK MADISHF
FNB,2017-04-01 12:53,-95.5920,40.0788,41.00,37.90,88.62,0.00,0.00,0.00,30.21,1023.20,10.00,M,SCT,M,M,M,1600.00,M,M,M,M,KFNB 011253Z AUTO 00000KT 10SM SCT016 05/03 A3021 RMK AO2 PRESRR SLP232 T00500033
FNB,2017-04-01 12:55,-95.5920,40.0788,M,M,M,90.00,3.00,M,30.21,M,10.00,M,SCT,M,M,M,1600.00,M,M,M,M,KFNB 011255Z AUTO 09003KT 10SM SCT016 A3021 RMK MADISHF
FNB,2017-04-01 13:00,-95.5920,40.0788,M,M,M,60.00,3.00,M,30.20,M,10.00,M,BKN,M,M,M,1600.00,M,M,M,M,KFNB 011300Z AUTO 06003KT 10SM BKN016 A3020 RMK MADISHF
FNB,2017-04-01 13:05,-95.5920,40.0788,M,M,M,60.00,3.00,M,30.20,M,10.00,M,SCT,M,M,M,1600.00,M,M,M,M,KFNB 011305Z AUTO 06003KT 10SM SCT016 A3020 RMK MADISHF
FNB,2017-04-01 13:10,-95.5920,40.0788,M,M,M,100.00,3.00,M,30.20,M,10.00,M,SCT,M,M,M,1600.00,M,M,M,M,KFNB 011310Z AUTO 10003KT 10SM SCT016 A3020 RMK MADISHF
FNB,2017-04-01 13:20,-95.5920,40.0788,M,M,M,80.00,7.00,M,30.20,M,10.00,M,FEW,M,M,M,1600.00,M,M,M,M,KFNB 011320Z AUTO 08007KT 10SM FEW016 A3020 RMK MADISHF
FNB,2017-04-01 13:25,-95.5920,40.0788,M,M,M,90.00,5.00,M,30.20,M,10.00,M,FEW,M,M,M,1699.00,M,M,M,M,KFNB 011325Z AUTO 09005KT 10SM FEW016 A3020 RMK MADISHF
FNB,2017-04-01 13:30,-95.5920,40.0788,M,M,M,110.00,5.00,M,30.21,M,10.00,M,FEW,M,M,M,1900.00,M,M,M,M,KFNB 011330Z AUTO 11005KT 10SM FEW019 A3021 RMK MADISHF
FNB,2017-04-01 13:35,-95.5920,40.0788,M,M,M,100.00,3.00,M,30.21,M,10.00,M,SCT,M,M,M,1900.00,M,M,M,M,KFNB 011335Z AUTO 10003KT 10SM SCT019 A3021 RMK MADISHF
FNB,2017-04-01 13:40,-95.5920,40.0788,M,M,M,70.00,5.00,M,30.20,M,10.00,M,BKN,M,M,M,1900.00,M,M,M,M,KFNB 011340Z AUTO 07005KT 10SM BKN019 A3020 RMK MADISHF
FNB,2017-04-01 13:42,-95.5920,40.0788,41.00,39.00,92.52,70.00,7.00,0.00,30.20,M,10.00,M,BKN,M,M,M,1900.00,M,M,M,M,KFNB 011342Z AUTO 07007KT 10SM BKN019 05/04 A3020 RMK AO2 T00500039
FNB,2017-04-01 13:45,-95.5920,40.0788,M,M,M,70.00,8.00,M,30.20,M,10.00,M,BKN,M,M,M,1900.00,M,M,M,M,KFNB 011345Z AUTO 07008KT 10SM BKN019 A3020 RMK MADISHF
FNB,2017-04-01 13:53,-95.5920,40.0788,41.00,39.00,92.52,80.00,9.00,0.00,30.19,1022.80,10.00,M,OVC,M,M,M,1900.00,M,M,M,M,KFNB 011353Z AUTO 08009KT 10SM OVC019 05/04 A3019 RMK AO2 SLP228 T00500039
FNB,2017-04-01 13:55,-95.5920,40.0788,M,M,M,80.00,8.00,M,30.19,M,10.00,M,OVC,M,M,M,1900.00,M,M,M,M,KFNB 011355Z AUTO 08008KT 10SM OVC019 A3019 RMK MADISHF
FNB,2017-04-01 14:00,-95.5920,40.0788,M,M,M,90.00,7.00,M,30.20,M,10.00,M,OVC,M,M,M,1900.00,M,M,M,M,KFNB 011400Z AUTO 09007KT 10SM OVC019 A3020 RMK MADISHF
FNB,2017-04-01 14:05,-95.5920,40.0788,M,M,M,100.00,7.00,M,30.20,M,10.00,M,OVC,M,M,M,1800.00,M,M,M,M,KFNB 011405Z AUTO 10007KT 10SM OVC018 A3020 RMK MADISHF
FNB,2017-04-01 14:10,-95.5920,40.0788,M,M,M,100.00,7.00,M,30.21,M,10.00,M,OVC,M,M,M,1800.00,M,M,M,M,KFNB 011410Z AUTO 10007KT 10SM OVC018 A3021 RMK MADISHF
FNB,2017-04-01 14:15,-95.5920,40.0788,M,M,M,80.00,7.00,M,30.21,M,10.00,M,OVC,M,M,M,1800.00,M,M,M,M,KFNB 011415Z AUTO 08007KT 10SM OVC018 A3021 RMK MADISHF
FNB,2017-04-01 14:20,-95.5920,40.0788,M,M,M,80.00,10.00,M,30.21,M,10.00,M,OVC,M,M,M,1800.00,M,M,M,M,KFNB 011420Z AUTO 08010KT 10SM OVC018 A3021 RMK MADISHF
FNB,2017-04-01 14:25,-95.5920,40.0788,M,M,M,90.00,8.00,M,30.21,M,10.00,M,OVC,M,M,M,1800.00,M,M,M,M,KFNB 011425Z AUTO 09008KT 10SM OVC018 A3021 RMK MADISHF
FNB,2017-04-01 14:30,-95.5920,40.0788,M,M,M,70.00,9.00,M,30.21,M,10.00,M,OVC,M,M,M,1600.00,M,M,M,M,KFNB 011430Z AUTO 07009KT 10SM OVC016 A3021 RMK MADISHF
FNB,2017-04-01 14:37,-95.5920,40.0788,42.10,39.00,88.67,80.00,8.00,0.00,30.21,M,10.00,M,BKN,OVC,M,M,1300.00,1800.00,M,M,M,KFNB 011437Z AUTO 08008KT 10SM BKN013 OVC018 06/04 A3021 RMK AO2 T00560039
FNB,2017-04-01 14:40,-95.5920,40.0788,M,M,M,80.00,10.00,M,30.22,M,10.00,M,BKN,OVC,M,M,1300.00,1800.00,M,M,M,KFNB 011440Z AUTO 08010KT 10SM BKN013 OVC018 A3022 RMK MADISHF
FNB,2017-04-01 14:45,-95.5920,40.0788,M,M,M,70.00,9.00,M,30.21,M,10.00,M,OVC,M,M,M,1300.00,M,M,M,M,KFNB 011445Z AUTO 07009KT 10SM OVC013 A3021 RMK MADISHF
FNB,2017-04-01 14:50,-95.5920,40.0788,M,M,M,80.00,10.00,M,30.21,M,10.00,M,OVC,M,M,M,1200.00,M,M,M,M,KFNB 011450Z AUTO 08010KT 10SM OVC012 A3021 RMK MADISHF
FNB,2017-04-01 14:53,-95.5920,40.0788,42.10,39.00,88.67,80.00,12.00,0.00,30.21,1023.50,10.00,M,OVC,M,M,M,1200.00,M,M,M,M,KFNB 011453Z AUTO 08012KT 10SM OVC012 06/04 A3021 RMK AO2 SLP235 T00560039 53004
FNB,2017-04-01 14:55,-95.5920,40.0788,M,M,M,80.00,12.00,M,30.21,M,10.00,M,OVC,M,M,M,1200.00,M,M,M,M,KFNB 011455Z AUTO 08012KT 10SM OVC012 A3021 RMK MADISHF
FNB,2017-04-01 15:00,-95.5920,40.0788,M,M,M,70.00,10.00,M,30.22,M,10.00,M,OVC,M,M,M,1100.00,M,M,M,M,KFNB 011500Z AUTO 07010KT 10SM OVC011 A3022 RMK MADISHF
FNB,2017-04-01 15:05,-95.5920,40.0788,M,M,M,80.00,10.00,M,30.22,M,10.00,M,OVC,M,M,M,1100.00,M,M,M,M,KFNB 011505Z AUTO 08010KT 10SM OVC011 A3022 RMK MADISHF
FNB,2017-04-01 15:10,-95.5920,40.0788,M,M,M,80.00,10.00,M,30.22,M,10.00,M,OVC,M,M,M,1100.00,M,M,M,-RA,KFNB 011510Z AUTO 08010KT 10SM -RA OVC011 A3022 RMK MADISHF
FNB,2017-04-01 15:15,-95.5920,40.0788,M,M,M,70.00,9.00,M,30.22,M,10.00,M,OVC,M,M,M,1100.00,M,M,M,-RA,KFNB 011515Z AUTO 07009KT 10SM -RA OVC011 A3022 RMK MADISHF
FNB,2017-04-01 15:20,-95.5920,40.0788,M,M,M,80.00,9.00,M,30.22,M,10.00,M,OVC,M,M,M,1100.00,M,M,M,M,KFNB 011520Z AUTO 08009KT 10SM OVC011 A3022 RMK MADISHF
FNB,2017-04-01 15:25,-95.5920,40.0788,M,M,M,80.00,9.00,M,30.23,M,10.00,M,OVC,M,M,M,1100.00,M,M,M,M,KFNB 011525Z AUTO 08009KT 10SM OVC011 A3023 RMK MADISHF
FNB,2017-04-01 15:30,-95.5920,40.0788,M,M,M,70.00,7.00,M,30.23,M,10.00,M,OVC,M,M,M,1100.00,M,M,M,M,KFNB 011530Z AUTO 07007KT 10SM OVC011 A3023 RMK MADISHF
FNB,2017-04-01 15:40,-95.5920,40.0788,M,M,M,90.00,8.00,M,30.23,M,10.00,M,OVC,M,M,M,1100.00,M,M,M,M,KFNB 011540Z AUTO 09008KT 10SM OVC011 A3023 RMK MADISHF
FNB,2017-04-01 15:45,-95.5920,40.0788,M,M,M,80.00,8.00,M,30.24,M,10.00,M,OVC,M,M,M,1100.00,M,M,M,M,KFNB 011545Z AUTO 08008KT 10SM OVC011 A3024 RMK MADISHF
FNB,2017-04-01 15:50,-95.5920,40.0788,M,M,M,100.00,7.00,M,30.24,M,10.00,M,OVC,M,M,M,1100.00,M,M,M,M,KFNB 011550Z AUTO 10007KT 10SM OVC011 A3024 RMK MADISHF
FNB,2017-04-01 15:53,-95.5920,40.0788,42.10,39.00,88.67,100.00,8.00,0.00,30.23,1024.10,10.00,M,OVC,M,M,M,1100.00,M,M,M,M,KFNB 011553Z AUTO 10008KT 10SM OVC011 06/04 A3023 RMK AO2 RAB07E18 SLP241 P0000 T00560039
FNB,2017-04-01 15:55,-95.5920,40.0788,M,M,M,90.00,8.00,M,30.23,M,10.00,M,OVC,M,M,M,1100.00,M,M,M,M,KFNB 011555Z AUTO 09008KT 10SM OVC011 A3023 RMK MADISHF
FNB,2017-04-01 16:10,-95.5920,40.0788,M,M,M,90.00,7.00,M,30.23,M,10.00,M,OVC,M,M,M,999.00,M,M,M,-RA,KFNB 011610Z AUTO 09007KT 10SM -RA OVC009 A3023 RMK CIG 9V14  MADISHF
FNB,2017-04-01 16:15,-95.5920,40.0788,M,M,M,90.00,5.00,M,30.24,M,10.00,M,OVC,M,M,M,999.00,M,M,M,M,KFNB 011615Z AUTO 09005KT 10SM OVC009 A3024 RMK MADISHF
FNB,2017-04-01 16:20,-95.5920,40.0788,M,M,M,110.00,5.00,M,30.25,M,10.00,M,OVC,M,M,M,999.00,M,M,M,M,KFNB 011620Z AUTO 11005KT 10SM OVC009 A3025 RMK MADISHF
FNB,2017-04-01 16:25,-95.5920,40.0788,M,M,M,110.00,6.00,M,30.25,M,10.00,M,OVC,M,M,M,1100.00,M,M,M,M,KFNB 011625Z AUTO 11006KT 10SM OVC011 A3025 RMK MADISHF
FNB,2017-04-01 16:30,-95.5920,40.0788,M,M,M,110.00,5.00,M,30.25,M,10.00,M,OVC,M,M,M,1100.00,M,M,M,M,KFNB 011630Z AUTO 11005KT 10SM OVC011 A3025 RMK MADISHF
FNB,2017-04-01 16:35,-95.5920,40.0788,M,M,M,0.00,0.00,M,30.25,M,10.00,M,OVC,M,M,M,1200.00,M,M,M,M,KFNB 011635Z AUTO 00000KT 10SM OVC012 A3025 RMK MADISHF
FNB,2017-04-01 16:40,-95.5920,40.0788,M,M,M,80.00,3.00,M,30.24,M,10.00,M,OVC,M,M,M,1200.00,M,M,M,M,KFNB 011640Z AUTO 08003KT 10SM OVC012 A3024 RMK MADISHF
FNB,2017-04-01 16:45,-95.5920,40.0788,M,M,M,70.00,6.00,M,30.25,M,10.00,M,OVC,M,M,M,1200.00,M,M,M,M,KFNB 011645Z AUTO 07006KT 10SM OVC012 A3025 RMK MADISHF
FNB,2017-04-01 16:50,-95.5920,40.0788,M,M,M,70.00,6.00,M,30.23,M,10.00,M,OVC,M,M,M,1200.00,M,M,M,M,KFNB 011650Z AUTO 07006KT 10SM OVC012 A3023 RMK MADISHF
FNB,2017-04-01 16:53,-95.5920,40.0788,42.10,37.90,84.93,80.00,6.00,0.00,30.23,1023.90,10.00,M,OVC,M,M,M,1200.00,M,M,M,M,KFNB 011653Z AUTO 08006KT 10SM OVC012 06/03 A3023 RMK AO2 RAB02E15 PRESFR SLP239 P0000 T00560033
FNB,2017-04-01 17:10,-95.5920,40.0788,M,M,M,100.00,10.00,M,30.20,M,10.00,M,OVC,M,M,M,1100.00,M,M,M,M,KFNB 011710Z AUTO 10010KT 10SM OVC011 A3020 RMK MADISHF
FNB,2017-04-01 17:15,-95.5920,40.0788,M,M,M,90.00,10.00,M,30.20,M,10.00,M,OVC,M,M,M,1100.00,M,M,M,M,KFNB 011715Z AUTO 09010KT 10SM OVC011 A3020 RMK MADISHF
FNB,2017-04-01 17:20,-95.5920,40.0788,M,M,M,100.00,10.00,M,30.19,M,10.00,M,OVC,M,M,M,999.00,M,M,M,M,KFNB 011720Z AUTO 10010KT 10SM OVC009 A3019 RMK MADISHF
FNB,2017-04-01 17:25,-95.5920,40.0788,M,M,M,80.00,11.00,M,30.20,M,10.00,M,OVC,M,M,M,999.00,M,M,M,M,KFNB 011725Z AUTO 08011KT 10SM OVC009 A3020 RMK MADISHF
FNB,2017-04-01 17:30,-95.5920,40.0788,M,M,M,90.00,9.00,M,30.20,M,10.00,M,OVC,M,M,M,999.00,M,M,M,M,KFNB 011730Z AUTO 09009KT 10SM OVC009 A3020 RMK MADISHF
FNB,2017-04-01 17:35,-95.5920,40.0788,M,M,M,90.00,9.00,M,30.20,M,10.00,M,OVC,M,M,M,999.00,M,M,M,M,KFNB 011735Z AUTO 09009KT 10SM OVC009 A3020 RMK MADISHF
FNB,2017-04-01 17:40,-95.5920,40.0788,M,M,M,80.00,7.00,M,30.21,M,10.00,M,OVC,M,M,M,999.00,M,M,M,M,KFNB 011740Z AUTO 08007KT 10SM OVC009 A3021 RMK MADISHF
FNB,2017-04-01 17:45,-95.5920,40.0788,M,M,M,80.00,7.00,M,30.20,M,10.00,M,OVC,M,M,M,1100.00,M,M,M,M,KFNB 011745Z AUTO 08007KT 10SM OVC011 A3020 RMK MADISHF
FNB,2017-04-01 17:50,-95.5920,40.0788,M,M,M,100.00,9.00,M,30.20,M,10.00,M,OVC,M,M,M,1100.00,M,M,M,M,KFNB 011750Z AUTO 10009KT 10SM OVC011 A3020 RMK MADISHF
FNB,2017-04-01 17:53,-95.5920,40.0788,43.00,39.00,85.66,90.00,11.00,0.00,30.20,1022.90,10.00,M,OVC,M,M,M,1100.00,M,M,M,M,KFNB 011753Z AUTO 09011KT 10SM OVC011 06/04 A3020 RMK AO2 SLP229 60000 T00610039 10061 20044 58005
FNB,2017-04-01 18:00,-95.5920,40.0788,M,M,M,80.00,10.00,M,30.17,M,10.00,M,OVC,M,M,M,1100.00,M,M,M,M,KFNB 011800Z AUTO 08010KT 10SM OVC011 A3017 RMK MADISHF
FNB,2017-04-01 18:05,-95.5920,40.0788,M,M,M,90.00,10.00,M,30.17,M,10.00,M,OVC,M,M,M,1100.00,M,M,M,M,KFNB 011805Z AUTO 09010KT 10SM OVC011 A3017 RMK MADISHF
FNB,2017-04-01 18:10,-95.5920,40.0788,M,M,M,100.00,10.00,M,30.17,M,10.00,M,OVC,M,M,M,1100.00,M,M,M,M,KFNB 011810Z AUTO 10010KT 10SM OVC011 A3017 RMK MADISHF
FNB,2017-04-01 18:15,-95.5920,40.0788,M,M,M,90.00,6.00,M,30.19,M,10.00,M,OVC,M,M,M,1100.00,M,M,M,M,KFNB 011815Z AUTO 09006KT 10SM OVC011 A3019 RMK MADISHF
FNB,2017-04-01 18:20,-95.5920,40.0788,M,M,M,90.00,10.00,M,30.18,M,10.00,M,OVC,M,M,M,1100.00,M,M,M,M,KFNB 011820Z AUTO 09010KT 10SM OVC011 A3018 RMK MADISHF
FNB,2017-04-01 18:25,-95.5920,40.0788,M,M,M,90.00,10.00,M,30.16,M,10.00,M,OVC,M,M,M,1100.00,M,M,M,M,KFNB 011825Z AUTO 09010KT 10SM OVC011 A3016 RMK MADISHF
FNB,2017-04-01 18:30,-95.5920,40.0788,M,M,M,100.00,11.00,M,30.16,M,10.00,M,OVC,M,M,M,1100.00,M,M,M,M,KFNB 011830Z AUTO 10011KT 10SM OVC011 A3016 RMK MADISHF
FNB,2017-04-01 18:35,-95.5920,40.0788,M,M,M,90.00,12.00,M,30.16,M,10.00,M,OVC,M,M,M,1100.00,M,M,M,M,KFNB 011835Z AUTO 09012KT 10SM OVC011 A3016 RMK MADISHF
FNB,2017-04-01 18:40,-95.5920,40.0788,M,M,M,100.00,9.00,M,30.16,M,10.00,M,OVC,M,M,M,1300.00,M,M,M,M,KFNB 011840Z AUTO 10009KT 10SM OVC013 A3016 RMK MADISHF
FNB,2017-04-01 18:53,-95.5920,40.0788,46.00,39.90,79.13,80.00,9.00,0.00,30.17,1022.00,10.00,M,OVC,M,M,M,1300.00,M,M,M,M,KFNB 011853Z AUTO 08009KT 10SM OVC013 08/04 A3017 RMK AO2 SLP220 T00780044
FNB,2017-04-01 18:55,-95.5920,40.0788,M,M,M,90.00,9.00,M,30.17,M,10.00,M,OVC,M,M,M,1300.00,M,M,M,M,KFNB 011855Z AUTO 09009KT 10SM OVC013 A3017 RMK MADISHF
FNB,2017-04-01 19:00,-95.5920,40.0788,M,M,M,90.00,7.00,M,30.17,M,10.00,M,OVC,M,M,M,1500.00,M,M,M,M,KFNB 011900Z AUTO 09007KT 10SM OVC015 A3017 RMK MADISHF
FNB,2017-04-01 19:03,-95.5920,40.0788,46.40,39.20,75.84,100.00,9.00,0.00,30.18,M,10.00,16.00,OVC,M,M,M,1500.00,M,M,M,M,KFNB 011903Z AUTO 10009G16KT 10SM OVC015 08/04 A3018
FNB,2017-04-01 19:05,-95.5920,40.0788,M,M,M,100.00,7.00,M,30.18,M,10.00,M,OVC,M,M,M,1500.00,M,M,M,M,KFNB 011905Z AUTO 10007KT 10SM OVC015 A3018 RMK MADISHF
FNB,2017-04-01 19:10,-95.5920,40.0788,M,M,M,70.00,8.00,M,30.17,M,10.00,M,OVC,M,M,M,1500.00,M,M,M,M,KFNB 011910Z AUTO 07008KT 10SM OVC015 A3017 RMK MADISHF
FNB,2017-04-01 19:15,-95.5920,40.0788,M,M,M,80.00,9.00,M,30.17,M,10.00,M,OVC,M,M,M,1500.00,M,M,M,M,KFNB 011915Z AUTO 08009KT 10SM OVC015 A3017 RMK MADISHF
FNB,2017-04-01 19:20,-95.5920,40.0788,M,M,M,70.00,10.00,M,30.17,M,10.00,M,OVC,M,M,M,1600.00,M,M,M,M,KFNB 011920Z AUTO 07010KT 10SM OVC016 A3017 RMK MADISHF
FNB,2017-04-01 19:25,-95.5920,40.0788,M,M,M,90.00,7.00,M,30.16,M,10.00,M,OVC,M,M,M,1600.00,M,M,M,M,KFNB 011925Z AUTO 09007KT 10SM OVC016 A3016 RMK MADISHF
FNB,2017-04-01 19:30,-95.5920,40.0788,M,M,M,80.00,9.00,M,30.16,M,10.00,M,OVC,M,M,M,1600.00,M,M,M,M,KFNB 011930Z AUTO 08009KT 10SM OVC016 A3016 RMK MADISHF
FNB,2017-04-01 19:45,-95.5920,40.0788,M,M,M,80.00,9.00,M,30.16,M,10.00,M,OVC,M,M,M,1600.00,M,M,M,M,KFNB 011945Z AUTO 08009KT 10SM OVC016 A3016 RMK MADISHF
FNB,2017-04-01 19:50,-95.5920,40.0788,M,M,M,70.00,7.00,M,30.15,M,10.00,M,OVC,M,M,M,1699.00,M,M,M,M,KFNB 011950Z AUTO 07007KT 10SM OVC016 A3015 RMK MADISHF
FNB,2017-04-01 19:53,-95.5920,40.0788,48.00,39.90,73.38,100.00,8.00,0.00,30.15,1021.40,10.00,M,OVC,M,M,M,1700.00,M,M,M,M,KFNB 011953Z AUTO 10008KT 10SM OVC017 09/04 A3015 RMK AO2 SLP214 T00890044
FNB,2017-04-01 19:55,-95.5920,40.0788,M,M,M,90.00,7.00,M,30.15,M,10.00,M,OVC,M,M,M,1699.00,M,M,M,M,KFNB 011955Z AUTO 09007KT 10SM OVC016 A3015 RMK MADISHF
FNB,2017-04-01 20:00,-95.5920,40.0788,M,M,M,90.00,8.00,M,30.15,M,10.00,M,OVC,M,M,M,1900.00,M,M,M,M,KFNB 012000Z AUTO 09008KT 10SM OVC019 A3015 RMK MADISHF
FNB,2017-04-01 20:05,-95.5920,40.0788,M,M,M,100.00,9.00,M,30.15,M,10.00,M,OVC,M,M,M,1900.00,M,M,M,M,KFNB 012005Z AUTO 10009KT 10SM OVC019 A3015 RMK MADISHF
FNB,2017-04-01 20:10,-95.5920,40.0788,M,M,M,100.00,7.00,M,30.15,M,10.00,M,OVC,M,M,M,1900.00,M,M,M,M,KFNB 012010Z AUTO 10007KT 10SM OVC019 A3015 RMK MADISHF
FNB,2017-04-01 20:20,-95.5920,40.0788,M,M,M,60.00,9.00,M,30.14,M,10.00,M,OVC,M,M,M,1800.00,M,M,M,M,KFNB 012020Z AUTO 06009KT 10SM OVC018 A3014 RMK MADISHF
FNB,2017-04-01 20:25,-95.5920,40.0788,M,M,M,60.00,9.00,M,30.14,M,10.00,M,OVC,M,M,M,1800.00,M,M,M,M,KFNB 012025Z AUTO 06009KT 10SM OVC018 A3014 RMK MADISHF
FNB,2017-04-01 20:30,-95.5920,40.0788,M,M,M,80.00,11.00,M,30.14,M,10.00,M,OVC,M,M,M,1800.00,M,M,M,M,KFNB 012030Z AUTO 08011KT 10SM OVC018 A3014 RMK MADISHF
FNB,2017-04-01 20:35,-95.5920,40.0788,M,M,M,50.00,9.00,M,30.13,M,10.00,M,OVC,M,M,M,1800.00,M,M,M,M,KFNB 012035Z AUTO 05009KT 10SM OVC018 A3013 RMK MADISHF
FNB,2017-04-01 20:40,-95.5920,40.0788,M,M,M,60.00,8.00,M,30.13,M,10.00,M,OVC,M,M,M,1800.00,M,M,M,M,KFNB 012040Z AUTO 06008KT 10SM OVC018 A3013 RMK MADISHF
FNB,2017-04-01 20:45,-95.5920,40.0788,M,M,M,60.00,8.00,M,30.14,M,10.00,M,OVC,M,M,M,1900.00,M,M,M,M,KFNB 012045Z AUTO 06008KT 10SM OVC019 A3014 RMK MADISHF
FNB,2017-04-01 20:50,-95.5920,40.0788,M,M,M,70.00,7.00,M,30.14,M,10.00,M,OVC,M,M,M,1900.00,M,M,M,M,KFNB 012050Z AUTO 07007KT 10SM OVC019 A3014 RMK MADISHF
FNB,2017-04-01 20:53,-95.5920,40.0788,48.90,41.00,74.05,80.00,8.00,0.00,30.14,1021.10,10.00,M,OVC,M,M,M,1900.00,M,M,M,M,KFNB 012053Z AUTO 08008KT 10SM OVC019 09/05 A3014 RMK AO2 SLP211 T00940050 56018
FNB,2017-04-01 20:55,-95.5920,40.0788,M,M,M,50.00,7.00,M,30.15,M,10.00,M,OVC,M,M,M,1900.00,M,M,M,M,KFNB 012055Z AUTO 05007KT 10SM OVC019 A3015 RMK MADISHF
FNB,2017-04-01 21:00,-95.5920,40.0788,M,M,M,40.00,6.00,M,30.15,M,10.00,M,OVC,M,M,M,1900.00,M,M,M,M,KFNB 012100Z AUTO 04006KT 10SM OVC019 A3015 RMK MADISHF
FNB,2017-04-01 21:05,-95.5920,40.0788,M,M,M,50.00,6.00,M,30.15,M,10.00,M,OVC,M,M,M,1999.00,M,M,M,M,KFNB 012105Z AUTO 05006KT 10SM OVC019 A3015 RMK MADISHF
FNB,2017-04-01 21:10,-95.5920,40.0788,M,M,M,80.00,7.00,M,30.15,M,10.00,M,OVC,M,M,M,1999.00,M,M,M,M,KFNB 012110Z AUTO 08007KT 10SM OVC019 A3015 RMK MADISHF
FNB,2017-04-01 21:15,-95.5920,40.0788,M,M,M,110.00,5.00,M,30.16,M,10.00,M,OVC,M,M,M,1999.00,M,M,M,M,KFNB 012115Z AUTO 11005KT 10SM OVC019 A3016 RMK MADISHF
FNB,2017-04-01 21:20,-95.5920,40.0788,M,M,M,60.00,6.00,M,30.15,M,10.00,M,OVC,M,M,M,1999.00,M,M,M,M,KFNB 012120Z AUTO 06006KT 10SM OVC019 A3015 RMK MADISHF
FNB,2017-04-01 21:35,-95.5920,40.0788,M,M,M,60.00,6.00,M,30.15,M,10.00,M,OVC,M,M,M,2100.00,M,M,M,M,KFNB 012135Z AUTO 06006KT 10SM OVC021 A3015 RMK MADISHF
FNB,2017-04-01 21:40,-95.5920,40.0788,M,M,M,60.00,5.00,M,30.15,M,10.00,M,OVC,M,M,M,2100.00,M,M,M,M,KFNB 012140Z AUTO 06005KT 10SM OVC021 A3015 RMK MADISHF
FNB,2017-04-01 21:45,-95.5920,40.0788,M,M,M,40.00,6.00,M,30.14,M,10.00,M,OVC,M,M,M,2200.00,M,M,M,M,KFNB 012145Z AUTO 04006KT 10SM OVC022 A3014 RMK MADISHF
FNB,2017-04-01 21:50,-95.5920,40.0788,M,M,M,50.00,7.00,M,30.14,M,10.00,M,OVC,M,M,M,2200.00,M,M,M,M,KFNB 012150Z AUTO 05007KT 10SM OVC022 A3014 RMK MADISHF
FNB,2017-04-01 21:53,-95.5920,40.0788,48.90,41.00,74.05,60.00,8.00,0.00,30.14,1020.80,10.00,M,OVC,M,M,M,2200.00,M,M,M,M,KFNB 012153Z AUTO 06008KT 10SM OVC022 09/05 A3014 RMK AO2 SLP208 T00940050
FNB,2017-04-01 21:55,-95.5920,40.0788,M,M,M,60.00,8.00,M,30.13,M,10.00,M,OVC,M,M,M,2200.00,M,M,M,M,KFNB 012155Z AUTO 06008KT 10SM OVC022 A3013 RMK MADISHF
FNB,2017-04-01 22:00,-95.5920,40.0788,M,M,M,50.00,8.00,M,30.13,M,10.00,M,OVC,M,M,M,2200.00,M,M,M,M,KFNB 012200Z AUTO 05008KT 10SM OVC022 A3013 RMK MADISHF
FNB,2017-04-01 22:15,-95.5920,40.0788,M,M,M,60.00,8.00,M,30.12,M,10.00,M,OVC,M,M,M,2300.00,M,M,M,M,KFNB 012215Z AUTO 06008KT 10SM OVC023 A3012 RMK MADISHF
FNB,2017-04-01 22:20,-95.5920,40.0788,M,M,M,70.00,9.00,M,30.11,M,10.00,M,OVC,M,M,M,2300.00,M,M,M,M,KFNB 012220Z AUTO 07009KT 10SM OVC023 A3011 RMK MADISHF
FNB,2017-04-01 22:25,-95.5920,40.0788,M,M,M,60.00,10.00,M,30.11,M,10.00,M,OVC,M,M,M,2500.00,M,M,M,M,KFNB 012225Z AUTO 06010KT 10SM OVC025 A3011 RMK MADISHF
FNB,2017-04-01 22:30,-95.5920,40.0788,M,M,M,70.00,11.00,M,30.11,M,10.00,M,OVC,M,M,M,2500.00,M,M,M,M,KFNB 012230Z AUTO 07011KT 10SM OVC025 A3011 RMK MADISHF
FNB,2017-04-01 22:35,-95.5920,40.0788,M,M,M,70.00,12.00,M,30.11,M,10.00,M,OVC,M,M,M,2500.00,M,M,M,M,KFNB 012235Z AUTO 07012KT 10SM OVC025 A3011 RMK MADISHF
FNB,2017-04-01 22:40,-95.5920,40.0788,M,M,M,70.00,10.00,M,30.11,M,10.00,M,BKN,M,M,M,2500.00,M,M,M,M,KFNB 012240Z AUTO 07010KT 10SM BKN025 A3011 RMK MADISHF
FNB,2017-04-01 22:45,-95.5920,40.0788,M,M,M,60.00,9.00,M,30.11,M,10.00,M,BKN,M,M,M,2600.00,M,M,M,M,KFNB 012245Z AUTO 06009KT 10SM BKN026 A3011 RMK MADISHF
FNB,2017-04-01 22:50,-95.5920,40.0788,M,M,M,70.00,11.00,M,30.12,M,10.00,M,BKN,M,M,M,2600.00,M,M,M,M,KFNB 012250Z AUTO 07011KT 10SM BKN026 A3012 RMK MADISHF
FNB,2017-04-01 22:53,-95.5920,40.0788,50.00,41.00,71.07,70.00,10.00,0.00,30.12,1020.20,10.00,M,BKN,M,M,M,2600.00,M,M,M,M,KFNB 012253Z AUTO 07010KT 10SM BKN026 10/05 A3012 RMK AO2 SLP202 T01000050
FNB,2017-04-01 23:05,-95.5920,40.0788,M,M,M,80.00,8.00,M,30.13,M,10.00,M,BKN,M,M,M,2500.00,M,M,M,M,KFNB 012305Z AUTO 08008KT 10SM BKN025 A3013 RMK MADISHF
FNB,2017-04-01 23:10,-95.5920,40.0788,M,M,M,70.00,10.00,M,30.13,M,10.00,M,OVC,M,M,M,2500.00,M,M,M,M,KFNB 012310Z AUTO 07010KT 10SM OVC025 A3013 RMK MADISHF
FNB,2017-04-01 23:15,-95.5920,40.0788,M,M,M,80.00,10.00,M,30.12,M,10.00,M,OVC,M,M,M,2500.00,M,M,M,M,KFNB 012315Z AUTO 08010KT 10SM OVC025 A3012 RMK MADISHF
FNB,2017-04-01 23:20,-95.5920,40.0788,M,M,M,90.00,10.00,M,30.13,M,10.00,M,BKN,M,M,M,2600.00,M,M,M,M,KFNB 012320Z AUTO 09010KT 10SM BKN026 A3013 RMK MADISHF
FNB,2017-04-01 23:25,-95.5920,40.0788,M,M,M,80.00,8.00,M,30.14,M,10.00,M,BKN,M,M,M,2600.00,M,M,M,M,KFNB 012325Z AUTO 08008KT 10SM BKN026 A3014 RMK MADISHF
FNB,2017-04-01 23:30,-95.5920,40.0788,M,M,M,80.00,7.00,M,30.14,M,10.00,M,BKN,M,M,M,2600.00,M,M,M,M,KFNB 012330Z AUTO 08007KT 10SM BKN026 A3014 RMK MADISHF
FNB,2017-04-01 23:35,-95.5920,40.0788,M,M,M,90.00,6.00,M,30.15,M,10.00,M,BKN,M,M,M,2600.00,M,M,M,M,KFNB 012335Z AUTO 09006KT 10SM BKN026 A3015 RMK MADISHF
FNB,2017-04-01 23:40,-95.5920,40.0788,M,M,M,80.00,7.00,M,30.14,M,10.00,M,BKN,BKN,M,M,2600.00,7500.00,M,M,M,KFNB 012340Z AUTO 08007KT 10SM BKN026 BKN075 A3014 RMK MADISHF
FNB,2017-04-01 23:45,-95.5920,40.0788,M,M,M,70.00,7.00,M,30.13,M,10.00,M,SCT,BKN,M,M,2600.00,7999.00,M,M,M,KFNB 012345Z AUTO 07007KT 10SM SCT026 BKN079 A3013 RMK MADISHF
FNB,2017-04-01 23:51,-95.5920,40.0788,50.00,42.80,76.18,80.00,7.00,0.00,30.14,M,10.00,M,SCT,BKN,M,M,2600.00,7500.00,M,M,M,KFNB 012351Z AUTO 08007KT 10SM SCT026 BKN075 10/06 A3014 RMK AO2
FNB,2017-04-01 23:53,-95.5920,40.0788,50.00,42.10,74.15,80.00,6.00,0.00,30.14,1021.00,10.00,M,SCT,BKN,M,M,2600.00,7500.00,M,M,M,KFNB 012353Z AUTO 08006KT 10SM SCT026 BKN075 10/06 A3014 RMK AO2 SLP210 T01000056 10100 20061 53002
FNB,2017-04-01 23:55,-95.5920,40.0788,M,M,M,90.00,5.00,M,30.15,M,10.00,M,SCT,BKN,M,M,2600.00,7500.00,M,M,M,KFNB 012355Z AUTO 09005KT 10SM SCT026 BKN075 A3015 RMK MADISHF
