#DEBUG: Format Typ    -> comma
#DEBUG: Time Period   -> 2017-04-01 00:00:00+00:00 2017-04-02 00:00:00+00:00
#DEBUG: Time Zone     -> Etc/UTC
#DEBUG: Data Contact   -> daryl herzmann akrherz@iastate.edu 515-294-5978
#DEBUG: Entries Found -> -1
station,valid,lon,lat,tmpf, dwpf, relh, drct, sknt, p01i, alti, mslp, vsby, gust, skyc1, skyc2, skyc3, skyc4, skyl1, skyl2, skyl3, skyl4, presentwx, metar
FOZ,2017-04-01 00:12,-93.6502,47.7828,55.40,28.40,35.28,0.00,0.00,0.00,30.05,M,10.00,M,OVC,M,M,M,7500.00,M,M,M,M,KFOZ 010012Z AUTO 00000KT 10SM OVC075 13/M02 A3005 RMK AO2
FOZ,2017-04-01 00:32,-93.6502,47.7828,53.60,30.20,40.54,350.00,4.00,0.00,30.05,M,10.00,M,OVC,M,M,M,7500.00,M,M,M,M,KFOZ 010032Z AUTO 35004KT 10SM OVC075 12/M01 A3005 RMK AO2
FOZ,2017-04-01 00:52,-93.6502,47.7828,53.60,30.20,40.54,20.00,5.00,0.00,30.06,M,10.00,M,OVC,M,M,M,7500.00,M,M,M,M,KFOZ 010052Z AUTO 02005KT 10SM OVC075 12/M01 A3006 RMK AO2
FOZ,2017-04-01 01:12,-93.6502,47.7828,53.60,30.20,40.54,10.00,3.00,0.00,30.06,M,10.00,M,OVC,M,M,M,7500.00,M,M,M,M,KFOZ 010112Z AUTO 01003KT 10SM OVC075 12/M01 A3006 RMK AO2
FOZ,2017-04-01 01:32,-93.6502,47.7828,51.80,30.20,43.32,360.00,3.00,0.00,30.07,M,10.00,M,OVC,M,M,M,7500.00,M,M,M,M,KFOZ 010132Z AUTO 36003KT 10SM OVC075 11/M01 A3007 RMK AO2
FOZ,2017-04-01 01:52,-93.6502,47.7828,50.00,32.00,49.81,0.00,0.00,0.00,30.08,M,10.00,M,SCT,BKN,M,M,6500.00,7500.00,M,M,M,KFOZ 010152Z AUTO 00000KT 10SM SCT065 BKN075 10/00 A3008 RMK AO2
FOZ,2017-04-01 02:12,-93.6502,47.7828,44.60,30.20,56.74,0.00,0.00,0.00,30.08,M,10.00,M,SCT,SCT,M,M,6500.00,7500.00,M,M,M,KFOZ 010212Z AUTO 00000KT 10SM SCT065 SCT075 07/M01 A3008 RMK AO2
FOZ,2017-04-01 02:32,-93.6502,47.7828,42.80,30.20,60.79,0.00,0.00,0.00,30.08,M,10.00,M,SCT,M,M,M,6500.00,M,M,M,M,KFOZ 010232Z AUTO 00000KT 10SM SCT065 06/M01 A3008 RMK AO2
FOZ,2017-04-01 02:53,-93.6502,47.7828,41.00,30.20,65.16,0.00,0.00,0.00,30.09,M,10.00,M,SCT,M,M,M,7500.00,M,M,M,M,KFOZ 010253Z AUTO 00000KT 10SM SCT075 05/M01 A3009 RMK AO2
FOZ,2017-04-01 03:12,-93.6502,47.7828,41.00,30.20,65.16,0.00,0.00,0.00,30.10,M,10.00,M,OVC,M,M,M,7500.00,M,M,M,M,KFOZ 010312Z AUTO 00000KT 10SM OVC075 05/M01 A3010 RMK AO2
FOZ,2017-04-01 03:32,-93.6502,47.7828,42.80,30.20,60.79,0.00,0.00,0.00,30.10,M,10.00,M,OVC,M,M,M,7500.00,M,M,M,M,KFOZ 010332Z AUTO 00000KT 10SM OVC075 06/M01 A3010 RMK AO2
FOZ,2017-04-01 03:52,-93.6502,47.7828,39.20,30.20,69.88,0.00,0.00,0.00,30.10,M,10.00,M,OVC,M,M,M,7500.00,M,M,M,M,KFOZ 010352Z AUTO 00000KT 10SM OVC075 04/M01 A3010 RMK AO2
FOZ,2017-04-01 04:12,-93.6502,47.7828,37.40,30.20,74.98,0.00,0.00,0.00,30.11,M,10.00,M,SCT,M,M,M,7500.00,M,M,M,M,KFOZ 010412Z AUTO 00000KT 10SM SCT075 03/M01 A3011 RMK AO2
FOZ,2017-04-01 04:32,-93.6502,47.7828,37.40,30.20,74.98,0.00,0.00,0.00,30.11,M,10.00,M,SCT,M,M,M,8500.00,M,M,M,M,KFOZ 010432Z AUTO 00000KT 10SM SCT085 03/M01 A3011 RMK AO2
FOZ,2017-04-01 04:52,-93.6502,47.7828,37.40,30.20,74.98,0.00,0.00,0.00,30.12,M,10.00,M,BKN,BKN,M,M,7000.00,8500.00,M,M,M,KFOZ 010452Z AUTO 00000KT 10SM BKN070 BKN085 03/M01 A3012 RMK AO2
FOZ,2017-04-01 05:12,-93.6502,47.7828,37.40,30.20,74.98,0.00,0.00,0.00,30.12,M,10.00,M,SCT,OVC,M,M,7000.00,8500.00,M,M,M,KFOZ 010512Z AUTO 00000KT 10SM SCT070 OVC085 03/M01 A3012 RMK AO2
FOZ,2017-04-01 05:32,-93.6502,47.7828,37.40,30.20,74.98,0.00,0.00,0.00,30.12,M,10.00,M,SCT,OVC,M,M,7000.00,8500.00,M,M,M,KFOZ 010532Z AUTO 00000KT 10SM SCT070 OVC085 03/M01 A3012 RMK AO2
FOZ,2017-04-01 05:52,-93.6502,47.7828,37.40,30.20,74.98,0.00,0.00,0.00,30.13,M,10.00,M,SCT,BKN,M,M,8000.00,9500.00,M,M,M,KFOZ 010552Z AUTO 00000KT 10SM SCT080 BKN095 03/M01 A3013 RMK AO2
FOZ,2017-04-01 06:12,-93.6502,47.7828,37.40,30.20,74.98,0.00,0.00,0.00,30.13,M,10.00,M,BKN,BKN,M,M,8000.00,9500.00,M,M,M,KFOZ 010612Z AUTO 00000KT 10SM BKN080 BKN095 03/M01 A3013 RMK AO2
FOZ,2017-04-01 06:32,-93.6502,47.7828,37.40,30.20,74.98,0.00,0.00,0.00,30.13,M,10.00,M,BKN,M,M,M,8000.00,M,M,M,M,KFOZ 010632Z AUTO 00000KT 10SM BKN080 03/M01 A3013 RMK AO2
FOZ,2017-04-01 06:52,-93.6502,47.7828,37.40,30.20,74.98,0.00,0.00,0.00,30.13,M,10.00,M,BKN,OVC,M,M,7000.00,8000.00,M,M,M,KFOZ 010652Z AUTO 00000KT 10SM BKN070 OVC080 03/M01 A3013 RMK AO2
FOZ,2017-04-01 07:12,-93.6502,47.7828,37.40,30.20,74.98,0.00,0.00,0.00,30.14,M,10.00,M,OVC,M,M,M,7000.00,M,M,M,-RA,KFOZ 010712Z AUTO 00000KT 10SM -RA OVC070 03/M01 A3014 RMK AO2
FOZ,2017-04-01 07:32,-93.6502,47.7828,37.40,32.00,80.65,0.00,0.00,0.00,30.14,M,10.00,M,SCT,OVC,M,M,5000.00,6000.00,M,M,-RA,KFOZ 010732Z AUTO 00000KT 10SM -RA SCT050 OVC060 03/00 A3014 RMK AO2
FOZ,2017-04-01 07:52,-93.6502,47.7828,37.40,32.00,80.65,0.00,0.00,0.00,30.14,M,10.00,M,SCT,BKN,OVC,M,5000.00,7000.00,8000.00,M,M,KFOZ 010752Z AUTO 00000KT 10SM SCT050 BKN070 OVC080 03/00 A3014 RMK AO2
FOZ,2017-04-01 08:12,-93.6502,47.7828,35.60,32.00,86.59,0.00,0.00,0.00,30.14,M,10.00,M,BKN,M,M,M,7000.00,M,M,M,M,KFOZ 010812Z AUTO 00000KT 10SM BKN070 02/00 A3014 RMK AO2
FOZ,2017-04-01 08:32,-93.6502,47.7828,37.40,32.00,80.65,0.00,0.00,0.00,30.14,M,10.00,M,OVC,M,M,M,7000.00,M,M,M,M,KFOZ 010832Z AUTO 00000KT 10SM OVC070 03/00 A3014 RMK AO2
FOZ,2017-04-01 08:52,-93.6502,47.7828,35.60,32.00,86.59,0.00,0.00,0.00,30.14,M,10.00,M,OVC,M,M,M,6000.00,M,M,M,M,KFOZ 010852Z AUTO 00000KT 10SM OVC060 02/00 A3014 RMK AO2
FOZ,2017-04-01 09:12,-93.6502,47.7828,35.60,32.00,86.59,0.00,0.00,0.00,30.15,M,10.00,M,OVC,M,M,M,6000.00,M,M,M,M,KFOZ 010912Z AUTO 00000KT 10SM OVC060 02/00 A3015 RMK AO2
FOZ,2017-04-01 09:32,-93.6502,47.7828,35.60,32.00,86.59,0.00,0.00,0.00,30.15,M,10.00,M,SCT,BKN,M,M,4800.00,6000.00,M,M,M,KFOZ 010932Z AUTO 00000KT 10SM SCT048 BKN060 02/00 A3015 RMK AO2 TSNO
FOZ,2017-04-01 09:52,-93.6502,47.7828,37.40,32.00,80.65,0.00,0.00,0.00,30.15,M,10.00,M,BKN,OVC,M,M,4800.00,5500.00,M,M,-RA,KFOZ 010952Z AUTO 00000KT 10SM -RA BKN048 OVC055 03/00 A3015 RMK AO2
FOZ,2017-04-01 10:12,-93.6502,47.7828,39.20,35.60,86.79,0.00,0.00,0.00,30.15,M,10.00,M,BKN,OVC,M,M,4600.00,5500.00,M,M,-RA,KFOZ 011012Z AUTO 00000KT 10SM -RA BKN046 OVC055 04/02 A3015 RMK AO2
FOZ,2017-04-01 10:32,-93.6502,47.7828,39.20,35.60,86.79,0.00,0.00,0.00,30.15,M,10.00,M,BKN,OVC,M,M,4200.00,4800.00,M,M,-RA,KFOZ 011032Z AUTO 00000KT 10SM -RA BKN042 OVC048 04/02 A3015 RMK AO2
FOZ,2017-04-01 10:52,-93.6502,47.7828,39.20,37.40,93.19,0.00,0.00,0.00,30.15,M,10.00,M,OVC,M,M,M,4000.00,M,M,M,-RA,KFOZ 011052Z AUTO 00000KT 10SM -RA OVC040 04/03 A3015 RMK AO2 TSNO
FOZ,2017-04-01 11:12,-93.6502,47.7828,37.40,35.60,93.14,0.00,0.00,0.00,30.15,M,7.00,M,OVC,M,M,M,3800.00,M,M,M,-RA,KFOZ 011112Z AUTO 00000KT 7SM -RA OVC038 03/02 A3015 RMK AO2 TSNO
FOZ,2017-04-01 11:32,-93.6502,47.7828,39.20,37.40,93.19,0.00,0.00,0.00,30.16,M,7.00,M,BKN,OVC,M,M,3400.00,4000.00,M,M,-RA,KFOZ 011132Z AUTO 00000KT 7SM -RA BKN034 OVC040 04/03 A3016 RMK AO2 TSNO
FOZ,2017-04-01 11:52,-93.6502,47.7828,37.40,35.60,93.14,0.00,0.00,0.00,30.16,M,7.00,M,OVC,M,M,M,3600.00,M,M,M,-DZ,KFOZ 011152Z AUTO 00000KT 7SM -DZ OVC036 03/02 A3016 RMK AO2
FOZ,2017-04-01 12:12,-93.6502,47.7828,39.20,37.40,93.19,0.00,0.00,0.00,30.17,M,10.00,M,BKN,OVC,M,M,3600.00,4700.00,M,M,M,KFOZ 011212Z AUTO 00000KT 10SM BKN036 OVC047 04/03 A3017 RMK AO2 TSNO
FOZ,2017-04-01 12:32,-93.6502,47.7828,39.20,37.40,93.19,0.00,0.00,0.00,30.16,M,7.00,M,SCT,OVC,M,M,3800.00,4700.00,M,M,M,KFOZ 011232Z AUTO 00000KT 7SM SCT038 OVC047 04/03 A3016 RMK AO2
FOZ,2017-04-01 12:52,-93.6502,47.7828,39.20,37.40,93.19,0.00,0.00,0.00,30.16,M,5.00,M,SCT,OVC,M,M,3300.00,4700.00,M,M,BR,KFOZ 011252Z AUTO 00000KT 5SM BR SCT033 OVC047 04/03 A3016 RMK AO2
FOZ,2017-04-01 13:12,-93.6502,47.7828,39.20,37.40,93.19,0.00,0.00,0.00,30.16,M,5.00,M,BKN,OVC,M,M,3300.00,4700.00,M,M,BR,KFOZ 011312Z AUTO 00000KT 5SM BR BKN033 OVC047 04/03 A3016 RMK AO2
FOZ,2017-04-01 13:32,-93.6502,47.7828,39.20,37.40,93.19,0.00,0.00,0.00,30.17,M,7.00,M,OVC,M,M,M,3100.00,M,M,M,M,KFOZ 011332Z AUTO 00000KT 7SM OVC031 04/03 A3017 RMK AO2
FOZ,2017-04-01 13:52,-93.6502,47.7828,41.00,39.20,93.24,0.00,0.00,0.00,30.17,M,7.00,M,OVC,M,M,M,3100.00,M,M,M,M,KFOZ 011352Z AUTO 00000KT 7SM OVC031 05/04 A3017 RMK AO2
FOZ,2017-04-01 14:12,-93.6502,47.7828,41.00,39.20,93.24,0.00,0.00,0.00,30.17,M,10.00,M,BKN,OVC,M,M,3300.00,4400.00,M,M,M,KFOZ 011412Z AUTO 00000KT 10SM BKN033 OVC044 05/04 A3017 RMK AO2
FOZ,2017-04-01 14:32,-93.6502,47.7828,41.00,39.20,93.24,280.00,3.00,0.00,30.18,M,7.00,M,BKN,OVC,M,M,3400.00,4200.00,M,M,-DZ,KFOZ 011432Z AUTO 28003KT 7SM -DZ BKN034 OVC042 05/04 A3018 RMK AO2
FOZ,2017-04-01 14:52,-93.6502,47.7828,41.00,39.20,93.24,0.00,0.00,0.00,30.18,M,4.00,M,SCT,OVC,M,M,1100.00,3400.00,M,M,DZ,KFOZ 011452Z AUTO 00000KT 4SM DZ SCT011 OVC034 05/04 A3018 RMK AO2
FOZ,2017-04-01 15:12,-93.6502,47.7828,42.80,39.20,86.99,0.00,0.00,0.00,30.18,M,10.00,M,SCT,OVC,M,M,400.00,3800.00,M,M,M,KFOZ 011512Z AUTO 00000KT 10SM SCT004 OVC038 06/04 A3018 RMK AO2
FOZ,2017-04-01 15:32,-93.6502,47.7828,42.80,39.20,86.99,0.00,0.00,0.00,30.18,M,10.00,M,SCT,OVC,M,M,400.00,4100.00,M,M,M,KFOZ 011532Z AUTO 00000KT 10SM SCT004 OVC041 06/04 A3018 RMK AO2
FOZ,2017-04-01 15:52,-93.6502,47.7828,42.80,39.20,86.99,0.00,0.00,0.00,30.18,M,10.00,M,SCT,BKN,OVC,M,600.00,4300.00,5500.00,M,M,KFOZ 011552Z AUTO 00000KT 10SM SCT006 BKN043 OVC055 06/04 A3018 RMK AO2
FOZ,2017-04-01 16:12,-93.6502,47.7828,44.60,39.20,81.20,0.00,0.00,0.00,30.18,M,10.00,M,SCT,BKN,M,M,600.00,5000.00,M,M,M,KFOZ 011612Z AUTO 00000KT 10SM SCT006 BKN050 07/04 A3018 RMK AO2
FOZ,2017-04-01 16:32,-93.6502,47.7828,44.60,39.20,81.20,0.00,0.00,0.00,30.18,M,10.00,M,SCT,SCT,BKN,M,900.00,3600.00,5000.00,M,M,KFOZ 011632Z AUTO 00000KT 10SM SCT009 SCT036 BKN050 07/04 A3018 RMK AO2
FOZ,2017-04-01 16:52,-93.6502,47.7828,46.40,41.00,81.34,0.00,0.00,0.00,30.18,M,10.00,M,SCT,SCT,BKN,M,900.00,2200.00,4900.00,M,M,KFOZ 011652Z AUTO 00000KT 10SM SCT009 SCT022 BKN049 08/05 A3018 RMK AO2
FOZ,2017-04-01 17:12,-93.6502,47.7828,44.60,39.20,81.20,260.00,3.00,0.00,30.18,M,10.00,M,BKN,BKN,M,M,1100.00,2300.00,M,M,M,KFOZ 011712Z AUTO 26003KT 10SM BKN011 BKN023 07/04 A3018 RMK AO2
FOZ,2017-04-01 17:32,-93.6502,47.7828,46.40,39.20,75.84,300.00,3.00,0.00,30.18,M,10.00,M,SCT,OVC,M,M,1300.00,2300.00,M,M,M,KFOZ 011732Z AUTO 30003KT 10SM SCT013 OVC023 08/04 A3018 RMK AO2
FOZ,2017-04-01 17:52,-93.6502,47.7828,46.40,39.20,75.84,0.00,0.00,0.00,30.18,M,10.00,M,SCT,OVC,M,M,1300.00,2300.00,M,M,M,KFOZ 011752Z AUTO 00000KT 10SM SCT013 OVC023 08/04 A3018 RMK AO2
FOZ,2017-04-01 18:12,-93.6502,47.7828,48.20,41.00,76.01,0.00,0.00,0.00,30.17,M,10.00,M,SCT,OVC,M,M,1500.00,2100.00,M,M,M,KFOZ 011812Z AUTO 00000KT 10SM SCT015 OVC021 09/05 A3017 RMK AO2
FOZ,2017-04-01 18:32,-93.6502,47.7828,48.20,39.20,70.88,250.00,4.00,0.00,30.16,M,10.00,M,OVC,M,M,M,1900.00,M,M,M,M,KFOZ 011832Z AUTO 25004KT 10SM OVC019 09/04 A3016 RMK AO2
FOZ,2017-04-01 18:52,-93.6502,47.7828,48.20,39.20,70.88,0.00,0.00,0.00,30.16,M,10.00,M,OVC,M,M,M,2100.00,M,M,M,M,KFOZ 011852Z AUTO 00000KT 10SM OVC021 09/04 A3016 RMK AO2
FOZ,2017-04-01 19:12,-93.6502,47.7828,48.20,39.20,70.88,240.00,6.00,0.00,30.17,M,10.00,M,BKN,OVC,M,M,2200.00,3500.00,M,M,M,KFOZ 011912Z AUTO 24006KT 10SM BKN022 OVC035 09/04 A3017 RMK AO2
FOZ,2017-04-01 19:32,-93.6502,47.7828,48.20,39.20,70.88,230.00,8.00,0.00,30.16,M,10.00,M,SCT,SCT,OVC,M,2400.00,2900.00,3700.00,M,M,KFOZ 011932Z AUTO 23008KT 10SM SCT024 SCT029 OVC037 09/04 A3016 RMK AO2
FOZ,2017-04-01 19:52,-93.6502,47.7828,48.20,39.20,70.88,250.00,6.00,0.00,30.16,M,10.00,M,OVC,M,M,M,3400.00,M,M,M,M,KFOZ 011952Z AUTO 25006KT 10SM OVC034 09/04 A3016 RMK AO2
FOZ,2017-04-01 20:12,-93.6502,47.7828,50.00,39.20,66.27,250.00,6.00,0.00,30.15,M,10.00,M,SCT,BKN,OVC,M,2600.00,3400.00,4300.00,M,M,KFOZ 012012Z AUTO 25006KT 10SM SCT026 BKN034 OVC043 10/04 A3015 RMK AO2
FOZ,2017-04-01 20:32,-93.6502,47.7828,51.80,39.20,61.99,240.00,10.00,0.00,30.13,M,10.00,M,SCT,BKN,OVC,M,2600.00,3500.00,4500.00,M,M,KFOZ 012032Z AUTO 24010KT 10SM SCT026 BKN035 OVC045 11/04 A3013 RMK AO2
FOZ,2017-04-01 20:52,-93.6502,47.7828,50.00,39.20,66.27,250.00,3.00,0.00,30.13,M,10.00,M,BKN,BKN,OVC,M,2800.00,3500.00,4500.00,M,M,KFOZ 012052Z AUTO 25003KT 10SM BKN028 BKN035 OVC045 10/04 A3013 RMK AO2
FOZ,2017-04-01 21:12,-93.6502,47.7828,50.00,37.40,61.76,0.00,0.00,0.00,30.13,M,10.00,M,BKN,OVC,M,M,3000.00,3800.00,M,M,M,KFOZ 012112Z AUTO 00000KT 10SM BKN030 OVC038 10/03 A3013 RMK AO2
FOZ,2017-04-01 21:32,-93.6502,47.7828,50.00,37.40,61.76,0.00,0.00,0.00,30.13,M,10.00,M,OVC,M,M,M,3200.00,M,M,M,M,KFOZ 012132Z AUTO 00000KT 10SM OVC032 10/03 A3013 RMK AO2
FOZ,2017-04-01 21:52,-93.6502,47.7828,50.00,37.40,61.76,270.00,3.00,0.00,30.12,M,10.00,M,OVC,M,M,M,3300.00,M,M,M,M,KFOZ 012152Z AUTO 27003KT 10SM OVC033 10/03 A3012 RMK AO2
FOZ,2017-04-01 22:12,-93.6502,47.7828,50.00,37.40,61.76,0.00,0.00,0.00,30.12,M,10.00,M,OVC,M,M,M,3300.00,M,M,M,M,KFOZ 012212Z AUTO 00000KT 10SM OVC033 10/03 A3012 RMK AO2
FOZ,2017-04-01 22:32,-93.6502,47.7828,51.80,37.40,57.77,280.00,6.00,0.00,30.11,M,10.00,M,BKN,M,M,M,3300.00,M,M,M,M,KFOZ 012232Z AUTO 28006KT 10SM BKN033 11/03 A3011 RMK AO2
FOZ,2017-04-01 22:52,-93.6502,47.7828,51.80,35.60,53.81,300.00,4.00,0.00,30.11,M,10.00,M,SCT,M,M,M,3300.00,M,M,M,M,KFOZ 012252Z AUTO 30004KT 10SM SCT033 11/02 A3011 RMK AO2
FOZ,2017-04-01 23:12,-93.6502,47.7828,50.00,35.60,57.52,300.00,4.00,0.00,30.11,M,10.00,M,SCT,M,M,M,3100.00,M,M,M,M,KFOZ 012312Z AUTO 30004KT 10SM SCT031 10/02 A3011 RMK AO2
FOZ,2017-04-01 23:32,-93.6502,47.7828,48.20,35.60,61.52,330.00,4.00,0.00,30.11,M,10.00,M,CLR,M,M,M,M,M,M,M,M,KFOZ 012332Z AUTO 33004KT 10SM CLR 09/02 A3011 RMK AO2
FOZ,2017-04-01 23:52,-93.6502,47.7828,48.20,35.60,61.52,300.00,3.00,0.00,30.11,M,10.00,M,CLR,M,M,M,M,M,M,M,M,KFOZ 012352Z AUTO 30003KT 10SM CLR 09/02 A3011 RMK AO2
