#DEBUG: Format Typ    -> comma
#DEBUG: Time Period   -> 2017-04-01 00:00:00+00:00 2017-04-02 00:00:00+00:00
#DEBUG: Time Zone     -> Etc/UTC
#DEBUG: Data Contact   -> daryl herzmann akrherz@iastate.edu 515-294-5978
#DEBUG: Entries Found -> -1
station,valid,lon,lat,tmpf, dwpf, relh, drct, sknt, p01i, alti, mslp, vsby, gust, skyc1, skyc2, skyc3, skyc4, skyl1, skyl2, skyl3, skyl4, presentwx, metar
FRI,2017-04-01 00:58,-96.7645,39.0526,50.00,M,M,80.00,8.00,0.00,30.00,1016.10,10.00,M,OVC,M,M,M,2200.00,M,M,M,M,KFRI 010058Z AUTO 08008KT 10SM OVC022 10/ A3000 RMK AO2 SLP161 $
FRI,2017-04-01 01:58,-96.7645,39.0526,48.20,M,M,70.00,8.00,0.00,30.02,1016.80,10.00,M,OVC,M,M,M,2200.00,M,M,M,M,KFRI 010158Z AUTO 07008KT 10SM OVC022 09/ A3002 RMK AO2 SLP168 $
FRI,2017-04-01 02:58,-96.7645,39.0526,48.20,M,M,70.00,6.00,0.00,30.05,1017.80,10.00,M,OVC,M,M,M,2200.00,M,M,M,M,KFRI 010258Z AUTO 07006KT 10SM OVC022 09/ A3005 RMK AO2 SLP178 52021 $
FRI,2017-04-01 03:58,-96.7645,39.0526,48.20,M,M,80.00,5.00,0.00,30.08,1018.70,10.00,M,OVC,M,M,M,2200.00,M,M,M,M,KFRI 010358Z AUTO 08005KT 10SM OVC022 09/ A3008 RMK AO2 SLP187 $
FRI,2017-04-01 04:58,-96.7645,39.0526,48.20,M,M,70.00,6.00,0.00,30.09,1019.10,10.00,M,OVC,M,M,M,2000.00,M,M,M,M,KFRI 010458Z AUTO 07006KT 10SM OVC020 09/ A3009 RMK AO2 SLP191 $
FRI,2017-04-01 05:18,-96.7645,39.0526,48.20,M,M,90.00,3.00,0.00,30.10,1019.40,10.00,M,OVC,M,M,M,1900.00,M,M,M,M,KFRI 010518Z AUTO 09003KT 10SM OVC019 09/ A3010 RMK AO2 SLP194 $
FRI,2017-04-01 05:43,-96.7645,39.0526,46.40,M,M,70.00,4.00,0.00,30.10,1019.40,10.00,M,SCT,BKN,M,M,2000.00,18000.00,M,M,M,KFRI 010543Z AUTO 07004KT 10SM SCT020 BKN180 08/ A3010 RMK AO2 SLP194 $
FRI,2017-04-01 05:58,-96.7645,39.0526,44.60,M,M,50.00,5.00,0.00,30.09,1019.10,10.00,M,FEW,OVC,M,M,2200.00,17000.00,M,M,M,KFRI 010558Z AUTO 05005KT 10SM FEW022 OVC170 07/ A3009 RMK AO2 SLP191 10096 20075 401110060 51013 $
FRI,2017-04-01 06:58,-96.7645,39.0526,42.80,M,M,50.00,4.00,0.00,30.09,1019.10,10.00,M,CLR,M,M,M,M,M,M,M,M,KFRI 010658Z AUTO 05004KT 10SM CLR 06/ A3009 RMK AO2 SLP191 $
FRI,2017-04-01 07:58,-96.7645,39.0526,41.00,M,M,40.00,5.00,0.00,30.10,1019.50,10.00,M,FEW,M,M,M,2400.00,M,M,M,M,KFRI 010758Z AUTO 04005KT 10SM FEW024 05/ A3010 RMK AO2 SLP195 $
FRI,2017-04-01 08:58,-96.7645,39.0526,42.80,M,M,50.00,5.00,0.00,30.11,1019.70,10.00,M,CLR,M,M,M,M,M,M,M,M,KFRI 010858Z AUTO 05005KT 10SM CLR 06/ A3011 RMK AO2 SLP197 53006 $
FRI,2017-04-01 09:58,-96.7645,39.0526,42.80,M,M,0.00,0.00,0.00,30.12,1020.10,10.00,M,SCT,OVC,M,M,3000.00,8000.00,M,M,M,KFRI 010958Z AUTO 00000KT 10SM SCT030 OVC080 06/ A3012 RMK AO2 SLP201 $
FRI,2017-04-01 10:58,-96.7645,39.0526,42.80,M,M,290.00,5.00,0.00,30.16,1021.50,10.00,M,OVC,M,M,M,6500.00,M,M,M,VCTS,KFRI 011058Z AUTO 29005KT 10SM VCTS OVC065 06/ A3016 RMK AO2 SLP215 $
FRI,2017-04-01 11:58,-96.7645,39.0526,44.60,M,M,40.00,7.00,0.00,30.15,1021.10,10.00,M,OVC,M,M,M,6500.00,M,M,M,M,KFRI 011158Z AUTO 04007KT 10SM OVC065 07/ A3015 RMK AO2 SLP211 10072 20048 50013 $
FRI,2017-04-01 12:58,-96.7645,39.0526,44.60,M,M,80.00,11.00,0.00,30.13,1020.40,10.00,M,OVC,M,M,M,6000.00,M,M,M,M,KFRI 011258Z AUTO 08011KT 10SM OVC060 07/ A3013 RMK AO2 SLP204 $
FRI,2017-04-01 13:41,-96.7645,39.0526,44.60,M,M,330.00,3.00,0.00,30.19,1022.60,10.00,M,SCT,OVC,M,M,1000.00,6000.00,M,M,M,KFRI 011341Z AUTO 33003KT 10SM SCT010 OVC060 07/ A3019 RMK AO2 PRESRR SLP226 $
FRI,2017-04-01 13:51,-96.7645,39.0526,44.60,M,M,350.00,3.00,0.00,30.18,1022.20,10.00,M,BKN,OVC,M,M,1000.00,6000.00,M,M,M,KFRI 011351Z AUTO 35003KT 10SM BKN010 OVC060 07/ A3018 RMK AO2 CIG 010V060 BKN V SCT SLP222 $
FRI,2017-04-01 13:58,-96.7645,39.0526,44.60,M,M,10.00,5.00,0.00,30.18,1022.20,10.00,M,BKN,OVC,M,M,1000.00,6000.00,M,M,M,KFRI 011358Z AUTO 01005KT 10SM BKN010 OVC060 07/ A3018 RMK AO2 SLP222 $
FRI,2017-04-01 14:58,-96.7645,39.0526,46.40,M,M,60.00,8.00,0.00,30.19,1022.50,10.00,M,BKN,OVC,M,M,1100.00,6000.00,M,M,M,KFRI 011458Z AUTO 06008KT 10SM BKN011 OVC060 08/ A3019 RMK AO2 SLP225 53014 $
FRI,2017-04-01 15:03,-96.7645,39.0526,46.40,M,M,60.00,8.00,0.00,30.19,1022.50,10.00,M,SCT,OVC,M,M,1200.00,6000.00,M,M,M,KFRI 011503Z AUTO 06008KT 10SM SCT012 OVC060 08/ A3019 RMK AO2 SLP225 $
FRI,2017-04-01 15:48,-96.7645,39.0526,46.40,M,M,50.00,9.00,0.00,30.18,1022.10,10.00,M,BKN,OVC,M,M,1100.00,5500.00,M,M,M,KFRI 011548Z AUTO 05009KT 10SM BKN011 OVC055 08/ A3018 RMK AO2 CIG 011V055 BKN V SCT SLP221 $
FRI,2017-04-01 15:58,-96.7645,39.0526,46.40,M,M,70.00,11.00,0.00,30.18,1022.10,10.00,M,BKN,OVC,M,M,1100.00,5500.00,M,M,M,KFRI 011558Z AUTO 07011KT 10SM BKN011 OVC055 08/ A3018 RMK AO2 SLP221 $
FRI,2017-04-01 16:13,-96.7645,39.0526,48.20,M,M,70.00,15.00,0.00,30.16,1021.40,10.00,M,SCT,OVC,M,M,1100.00,5500.00,M,M,M,KFRI 011613Z AUTO 07015KT 10SM SCT011 OVC055 09/ A3016 RMK AO2 PRESFR SLP214 $
FRI,2017-04-01 16:58,-96.7645,39.0526,50.00,M,M,80.00,12.00,0.00,30.15,1021.00,10.00,M,SCT,OVC,M,M,1700.00,5500.00,M,M,M,KFRI 011658Z AUTO 08012KT 10SM SCT017 OVC055 10/ A3015 RMK AO2 SLP210 $
FRI,2017-04-01 17:18,-96.7645,39.0526,51.80,M,M,60.00,15.00,0.00,30.15,1021.00,10.00,18.00,BKN,BKN,M,M,1900.00,6000.00,M,M,M,KFRI 011718Z AUTO 06015G18KT 10SM BKN019 BKN060 11/ A3015 RMK AO2 CIG 018V055 SLP210 $
FRI,2017-04-01 17:28,-96.7645,39.0526,53.60,M,M,70.00,12.00,0.00,30.14,1020.60,10.00,M,BKN,BKN,M,M,2000.00,6000.00,M,M,M,KFRI 011728Z AUTO 07012KT 10SM BKN020 BKN060 12/ A3014 RMK AO2 SLP206 $
FRI,2017-04-01 17:58,-96.7645,39.0526,55.40,M,M,70.00,13.00,0.00,30.12,1020.00,10.00,19.00,BKN,M,M,M,2200.00,M,M,M,M,KFRI 011758Z AUTO 07013G19KT 10SM BKN022 13/ A3012 RMK AO2 SLP200 10129 20068 57021 $
FRI,2017-04-01 18:03,-96.7645,39.0526,55.40,M,M,80.00,16.00,0.00,30.12,1020.00,10.00,M,SCT,M,M,M,2200.00,M,M,M,M,KFRI 011803Z AUTO 08016KT 10SM SCT022 13/ A3012 RMK AO2 SLP200 $
FRI,2017-04-01 18:58,-96.7645,39.0526,57.20,M,M,70.00,12.00,0.00,30.10,1019.30,10.00,M,FEW,SCT,M,M,2700.00,18000.00,M,M,M,KFRI 011858Z AUTO 07012KT 10SM FEW027 SCT180 14/ A3010 RMK AO2 SLP193 $
FRI,2017-04-01 19:58,-96.7645,39.0526,57.20,M,M,80.00,9.00,0.00,30.10,1019.30,10.00,15.00,FEW,M,M,M,12000.00,M,M,M,M,KFRI 011958Z AUTO 08009G15KT 10SM FEW120 14/ A3010 RMK AO2 SLP193 $
FRI,2017-04-01 20:58,-96.7645,39.0526,57.20,M,M,50.00,11.00,0.00,30.07,1018.30,10.00,M,OVC,M,M,M,3000.00,M,M,M,M,KFRI 012058Z AUTO 05011KT 10SM OVC030 14/ A3007 RMK AO2 SLP183 57019 $
FRI,2017-04-01 21:48,-96.7645,39.0526,57.20,M,M,40.00,11.00,0.00,30.06,1018.00,10.00,M,BKN,M,M,M,2800.00,M,M,M,M,KFRI 012148Z AUTO 04011KT 10SM BKN028 14/ A3006 RMK AO2 BKN V SCT SLP180 $
FRI,2017-04-01 21:58,-96.7645,39.0526,55.40,M,M,50.00,11.00,0.00,30.08,1018.60,10.00,M,BKN,M,M,M,2800.00,M,M,M,M,KFRI 012158Z AUTO 05011KT 10SM BKN028 13/ A3008 RMK AO2 PRESRR SLP186 $
FRI,2017-04-01 22:27,-96.7645,39.0526,53.60,M,M,40.00,6.00,0.00,30.12,1020.10,10.00,M,OVC,M,M,M,2900.00,M,M,M,-RA,KFRI 012227Z AUTO 04006KT 10SM -RA OVC029 12/ A3012 RMK AO2 RAB27 PRESRR SLP201 $
FRI,2017-04-01 22:32,-96.7645,39.0526,53.60,M,M,50.00,9.00,0.00,30.12,1020.10,10.00,M,OVC,M,M,M,3000.00,M,M,M,-RA,KFRI 012232Z AUTO 05009KT 10SM -RA OVC030 12/ A3012 RMK AO2 RAB27 SLP201 $
FRI,2017-04-01 22:40,-96.7645,39.0526,51.80,M,M,60.00,6.00,0.00,30.13,1020.40,10.00,M,OVC,M,M,M,3200.00,M,M,M,M,KFRI 012240Z AUTO 06006KT 10SM OVC032 11/ A3013 RMK AO2 RAB27E40 SLP204 $
FRI,2017-04-01 22:58,-96.7645,39.0526,51.80,M,M,30.00,6.00,0.00,30.13,1020.40,10.00,M,OVC,M,M,M,3200.00,M,M,M,M,KFRI 012258Z AUTO 03006KT 10SM OVC032 11/ A3013 RMK AO2 RAB27E40 SLP204 P0000 $
FRI,2017-04-01 23:10,-96.7645,39.0526,51.80,M,M,40.00,6.00,0.00,30.13,1020.40,10.00,M,OVC,M,M,M,3200.00,M,M,M,-DZ,KFRI 012310Z AUTO 04006KT 10SM -DZ OVC032 11/ A3013 RMK AO2 DZB10 SLP204 $
FRI,2017-04-01 23:21,-96.7645,39.0526,51.80,M,M,40.00,13.00,0.00,30.10,1019.40,10.00,M,BKN,M,M,M,3200.00,M,M,M,M,KFRI 012321Z AUTO 04013KT 10SM BKN032 11/ A3010 RMK AO2 DZB10E18RAB18E21 PRESFR SLP194 $
FRI,2017-04-01 23:34,-96.7645,39.0526,51.80,M,M,60.00,11.00,0.00,30.09,1019.10,6.00,M,SCT,BKN,M,M,3000.00,7000.00,M,M,-RA,KFRI 012334Z AUTO 06011KT 6SM -RA SCT030 BKN070 11/ A3009 RMK AO2 DZB10E18RAB18E21RAB34 SLP191 $
FRI,2017-04-01 23:58,-96.7645,39.0526,50.00,M,M,50.00,6.00,0.04,30.10,1019.40,10.00,M,FEW,BKN,OVC,M,3000.00,7500.00,9000.00,M,-RA,KFRI 012358Z AUTO 05006KT 10SM -RA FEW030 BKN075 OVC090 10/ A3010 RMK AO2 DZB10E18RAB18E21RAB34 SLP194 P0004 60004 10146 20096 50012 $
