#DEBUG: Format Typ    -> comma
#DEBUG: Time Period   -> 2017-04-01 00:00:00+00:00 2017-04-02 00:00:00+00:00
#DEBUG: Time Zone     -> Etc/UTC
#DEBUG: Data Contact   -> daryl herzmann akrherz@iastate.edu 515-294-5978
#DEBUG: Entries Found -> -1
station,valid,lon,lat,tmpf, dwpf, relh, drct, sknt, p01i, alti, mslp, vsby, gust, skyc1, skyc2, skyc3, skyc4, skyl1, skyl2, skyl3, skyl4, presentwx, metar
FSM,2017-04-01 00:00,-94.3674,35.3366,M,M,M,50.00,6.00,M,29.83,M,10.00,M,CLR,M,M,M,M,M,M,M,M,KFSM 010000Z AUTO 05006KT 10SM CLR A2983 RMK MADISHF
FSM,2017-04-01 00:05,-94.3674,35.3366,M,M,M,70.00,5.00,M,29.83,M,10.00,M,CLR,M,M,M,M,M,M,M,M,KFSM 010005Z AUTO 07005KT 10SM CLR A2983 RMK MADISHF
FSM,2017-04-01 00:10,-94.3674,35.3366,M,M,M,90.00,5.00,M,29.83,M,10.00,M,CLR,M,M,M,M,M,M,M,M,KFSM 010010Z AUTO 09005KT 10SM CLR A2983 RMK MADISHF
FSM,2017-04-01 00:15,-94.3674,35.3366,M,M,M,80.00,5.00,M,29.83,M,10.00,M,CLR,M,M,M,M,M,M,M,M,KFSM 010015Z AUTO 08005KT 10SM CLR A2983 RMK MADISHF
FSM,2017-04-01 00:20,-94.3674,35.3366,M,M,M,80.00,5.00,M,29.83,M,10.00,M,CLR,M,M,M,M,M,M,M,M,KFSM 010020Z AUTO 08005KT 10SM CLR A2983 RMK MADISHF
FSM,2017-04-01 00:25,-94.3674,35.3366,M,M,M,70.00,6.00,M,29.83,M,10.00,M,CLR,M,M,M,M,M,M,M,M,KFSM 010025Z AUTO 07006KT 10SM CLR A2983 RMK MADISHF
FSM,2017-04-01 00:30,-94.3674,35.3366,M,M,M,60.00,6.00,M,29.83,M,10.00,M,CLR,M,M,M,M,M,M,M,M,KFSM 010030Z AUTO 06006KT 10SM CLR A2983 RMK MADISHF
FSM,2017-04-01 00:35,-94.3674,35.3366,M,M,M,60.00,6.00,M,29.83,M,10.00,M,CLR,M,M,M,M,M,M,M,M,KFSM 010035Z AUTO 06006KT 10SM CLR A2983 RMK MADISHF
FSM,2017-04-01 00:40,-94.3674,35.3366,M,M,M,60.00,5.00,M,29.83,M,10.00,M,CLR,M,M,M,M,M,M,M,M,KFSM 010040Z AUTO 06005KT 10SM CLR A2983 RMK MADISHF
FSM,2017-04-01 00:45,-94.3674,35.3366,M,M,M,70.00,5.00,M,29.84,M,10.00,M,CLR,M,M,M,M,M,M,M,M,KFSM 010045Z AUTO 07005KT 10SM CLR A2984 RMK MADISHF
FSM,2017-04-01 00:50,-94.3674,35.3366,M,M,M,70.00,6.00,M,29.84,M,10.00,M,CLR,M,M,M,M,M,M,M,M,KFSM 010050Z AUTO 07006KT 10SM CLR A2984 RMK MADISHF
FSM,2017-04-01 00:53,-94.3674,35.3366,66.00,46.90,50.10,70.00,5.00,0.00,29.84,1010.20,10.00,M,CLR,M,M,M,M,M,M,M,M,KFSM 010053Z 07005KT 10SM CLR 19/08 A2984 RMK AO2 SLP102 T01890083
FSM,2017-04-01 00:55,-94.3674,35.3366,M,M,M,70.00,5.00,M,29.84,M,10.00,M,CLR,M,M,M,M,M,M,M,M,KFSM 010055Z AUTO 07005KT 10SM CLR A2984 RMK MADISHF
FSM,2017-04-01 01:00,-94.3674,35.3366,M,M,M,70.00,5.00,M,29.84,M,10.00,M,CLR,M,M,M,M,M,M,M,M,KFSM 010100Z AUTO 07005KT 10SM CLR A2984 RMK MADISHF
FSM,2017-04-01 01:05,-94.3674,35.3366,M,M,M,60.00,5.00,M,29.84,M,10.00,M,CLR,M,M,M,M,M,M,M,M,KFSM 010105Z AUTO 06005KT 10SM CLR A2984 RMK MADISHF
FSM,2017-04-01 01:10,-94.3674,35.3366,M,M,M,70.00,5.00,M,29.85,M,10.00,M,CLR,M,M,M,M,M,M,M,M,KFSM 010110Z AUTO 07005KT 10SM CLR A2985 RMK MADISHF
FSM,2017-04-01 01:15,-94.3674,35.3366,M,M,M,60.00,5.00,M,29.85,M,10.00,M,CLR,M,M,M,M,M,M,M,M,KFSM 010115Z AUTO 06005KT 10SM CLR A2985 RMK MADISHF
FSM,2017-04-01 01:20,-94.3674,35.3366,M,M,M,60.00,5.00,M,29.85,M,10.00,M,CLR,M,M,M,M,M,M,M,M,KFSM 010120Z AUTO 06005KT 10SM CLR A2985 RMK MADISHF
FSM,2017-04-01 01:25,-94.3674,35.3366,M,M,M,70.00,4.00,M,29.85,M,10.00,M,CLR,M,M,M,M,M,M,M,M,KFSM 010125Z AUTO 07004KT 10SM CLR A2985 RMK MADISHF
FSM,2017-04-01 01:30,-94.3674,35.3366,M,M,M,70.00,4.00,M,29.85,M,10.00,M,CLR,M,M,M,M,M,M,M,M,KFSM 010130Z AUTO 07004KT 10SM CLR A2985 RMK MADISHF
FSM,2017-04-01 01:35,-94.3674,35.3366,M,M,M,60.00,4.00,M,29.86,M,10.00,M,CLR,M,M,M,M,M,M,M,M,KFSM 010135Z AUTO 06004KT 10SM CLR A2986 RMK MADISHF
FSM,2017-04-01 01:40,-94.3674,35.3366,M,M,M,60.00,4.00,M,29.86,M,10.00,M,CLR,M,M,M,M,M,M,M,M,KFSM 010140Z AUTO 06004KT 10SM CLR A2986 RMK MADISHF
FSM,2017-04-01 01:45,-94.3674,35.3366,M,M,M,50.00,3.00,M,29.86,M,10.00,M,CLR,M,M,M,M,M,M,M,M,KFSM 010145Z AUTO 05003KT 10SM CLR A2986 RMK MADISHF
FSM,2017-04-01 01:50,-94.3674,35.3366,M,M,M,50.00,3.00,M,29.86,M,10.00,M,CLR,M,M,M,M,M,M,M,M,KFSM 010150Z AUTO 05003KT 10SM CLR A2986 RMK MADISHF
FSM,2017-04-01 01:53,-94.3674,35.3366,64.90,48.90,56.12,0.00,0.00,0.00,29.86,1011.00,10.00,M,CLR,M,M,M,M,M,M,M,M,KFSM 010153Z 00000KT 10SM CLR 18/09 A2986 RMK AO2 SLP110 T01830094
FSM,2017-04-01 01:55,-94.3674,35.3366,M,M,M,0.00,0.00,M,29.86,M,10.00,M,CLR,M,M,M,M,M,M,M,M,KFSM 010155Z AUTO 00000KT 10SM CLR A2986 RMK MADISHF
FSM,2017-04-01 02:00,-94.3674,35.3366,M,M,M,60.00,3.00,M,29.86,M,10.00,M,CLR,M,M,M,M,M,M,M,M,KFSM 010200Z AUTO 06003KT 10SM CLR A2986 RMK MADISHF
FSM,2017-04-01 02:05,-94.3674,35.3366,M,M,M,60.00,3.00,M,29.87,M,10.00,M,CLR,M,M,M,M,M,M,M,M,KFSM 010205Z AUTO 06003KT 10SM CLR A2987 RMK MADISHF
FSM,2017-04-01 02:10,-94.3674,35.3366,M,M,M,60.00,4.00,M,29.87,M,10.00,M,CLR,M,M,M,M,M,M,M,M,KFSM 010210Z AUTO 06004KT 10SM CLR A2987 RMK MADISHF
FSM,2017-04-01 02:15,-94.3674,35.3366,M,M,M,60.00,3.00,M,29.87,M,10.00,M,CLR,M,M,M,M,M,M,M,M,KFSM 010215Z AUTO 06003KT 10SM CLR A2987 RMK MADISHF
FSM,2017-04-01 02:20,-94.3674,35.3366,M,M,M,0.00,0.00,M,29.87,M,10.00,M,CLR,M,M,M,M,M,M,M,M,KFSM 010220Z AUTO 00000KT 10SM CLR A2987 RMK MADISHF
FSM,2017-04-01 02:25,-94.3674,35.3366,M,M,M,0.00,0.00,M,29.87,M,10.00,M,CLR,M,M,M,M,M,M,M,M,KFSM 010225Z AUTO 00000KT 10SM CLR A2987 RMK MADISHF
FSM,2017-04-01 02:30,-94.3674,35.3366,M,M,M,0.00,0.00,M,29.88,M,10.00,M,CLR,M,M,M,M,M,M,M,M,KFSM 010230Z AUTO 00000KT 10SM CLR A2988 RMK MADISHF
FSM,2017-04-01 02:35,-94.3674,35.3366,M,M,M,0.00,0.00,M,29.88,M,10.00,M,CLR,M,M,M,M,M,M,M,M,KFSM 010235Z AUTO 00000KT 10SM CLR A2988 RMK MADISHF
FSM,2017-04-01 02:40,-94.3674,35.3366,M,M,M,0.00,0.00,M,29.89,M,10.00,M,CLR,M,M,M,M,M,M,M,M,KFSM 010240Z AUTO 00000KT 10SM CLR A2989 RMK MADISHF
FSM,2017-04-01 02:45,-94.3674,35.3366,M,M,M,0.00,0.00,M,29.89,M,10.00,M,CLR,M,M,M,M,M,M,M,M,KFSM 010245Z AUTO 00000KT 10SM CLR A2989 RMK MADISHF
FSM,2017-04-01 02:50,-94.3674,35.3366,M,M,M,60.00,3.00,M,29.89,M,10.00,M,CLR,M,M,M,M,M,M,M,M,KFSM 010250Z AUTO 06003KT 10SM CLR A2989 RMK MADISHF
FSM,2017-04-01 02:53,-94.3674,35.3366,63.00,48.90,59.98,0.00,0.00,0.00,29.89,1012.10,10.00,M,CLR,M,M,M,M,M,M,M,M,KFSM 010253Z 00000KT 10SM CLR 17/09 A2989 RMK AO2 SLP121 T01720094 53022
FSM,2017-04-01 02:55,-94.3674,35.3366,M,M,M,0.00,0.00,M,29.89,M,10.00,M,CLR,M,M,M,M,M,M,M,M,KFSM 010255Z AUTO 00000KT 10SM CLR A2989 RMK MADISHF
FSM,2017-04-01 03:00,-94.3674,35.3366,M,M,M,60.00,3.00,M,29.90,M,10.00,M,CLR,M,M,M,M,M,M,M,M,KFSM 010300Z AUTO 06003KT 10SM CLR A2990 RMK MADISHF
FSM,2017-04-01 03:05,-94.3674,35.3366,M,M,M,50.00,3.00,M,29.90,M,10.00,M,CLR,M,M,M,M,M,M,M,M,KFSM 010305Z AUTO 05003KT 10SM CLR A2990 RMK MADISHF
FSM,2017-04-01 03:10,-94.3674,35.3366,M,M,M,60.00,6.00,M,29.90,M,10.00,M,CLR,M,M,M,M,M,M,M,M,KFSM 010310Z AUTO 06006KT 10SM CLR A2990 RMK MADISHF
FSM,2017-04-01 03:15,-94.3674,35.3366,M,M,M,60.00,6.00,M,29.90,M,10.00,M,CLR,M,M,M,M,M,M,M,M,KFSM 010315Z AUTO 06006KT 10SM CLR A2990 RMK MADISHF
FSM,2017-04-01 03:20,-94.3674,35.3366,M,M,M,60.00,5.00,M,29.89,M,10.00,M,CLR,M,M,M,M,M,M,M,M,KFSM 010320Z AUTO 06005KT 10SM CLR A2989 RMK MADISHF
FSM,2017-04-01 03:25,-94.3674,35.3366,M,M,M,80.00,3.00,M,29.90,M,10.00,M,CLR,M,M,M,M,M,M,M,M,KFSM 010325Z AUTO 08003KT 10SM CLR A2990 RMK MADISHF
FSM,2017-04-01 03:30,-94.3674,35.3366,M,M,M,80.00,3.00,M,29.90,M,10.00,M,CLR,M,M,M,M,M,M,M,M,KFSM 010330Z AUTO 08003KT 10SM CLR A2990 RMK MADISHF
FSM,2017-04-01 03:35,-94.3674,35.3366,M,M,M,70.00,5.00,M,29.90,M,10.00,M,CLR,M,M,M,M,M,M,M,M,KFSM 010335Z AUTO 07005KT 10SM CLR A2990 RMK MADISHF
FSM,2017-04-01 03:40,-94.3674,35.3366,M,M,M,60.00,4.00,M,29.90,M,10.00,M,CLR,M,M,M,M,M,M,M,M,KFSM 010340Z AUTO 06004KT 10SM CLR A2990 RMK MADISHF
FSM,2017-04-01 03:45,-94.3674,35.3366,M,M,M,60.00,4.00,M,29.90,M,10.00,M,CLR,M,M,M,M,M,M,M,M,KFSM 010345Z AUTO 06004KT 10SM CLR A2990 RMK MADISHF
FSM,2017-04-01 03:50,-94.3674,35.3366,M,M,M,70.00,4.00,M,29.90,M,10.00,M,CLR,M,M,M,M,M,M,M,M,KFSM 010350Z AUTO 07004KT 10SM CLR A2990 RMK MADISHF
FSM,2017-04-01 03:53,-94.3674,35.3366,60.10,48.00,64.26,70.00,4.00,0.00,29.90,1012.30,10.00,M,CLR,M,M,M,M,M,M,M,M,KFSM 010353Z AUTO 07004KT 10SM CLR 16/09 A2990 RMK AO2 SLP123 T01560089
FSM,2017-04-01 03:55,-94.3674,35.3366,M,M,M,60.00,5.00,M,29.90,M,10.00,M,CLR,M,M,M,M,M,M,M,M,KFSM 010355Z AUTO 06005KT 10SM CLR A2990 RMK MADISHF
FSM,2017-04-01 04:00,-94.3674,35.3366,M,M,M,50.00,4.00,M,29.90,M,10.00,M,CLR,M,M,M,M,M,M,M,M,KFSM 010400Z AUTO 05004KT 10SM CLR A2990 RMK MADISHF
FSM,2017-04-01 04:05,-94.3674,35.3366,M,M,M,60.00,4.00,M,29.90,M,10.00,M,CLR,M,M,M,M,M,M,M,M,KFSM 010405Z AUTO 06004KT 10SM CLR A2990 RMK MADISHF
FSM,2017-04-01 04:10,-94.3674,35.3366,M,M,M,50.00,4.00,M,29.91,M,10.00,M,CLR,M,M,M,M,M,M,M,M,KFSM 010410Z AUTO 05004KT 10SM CLR A2991 RMK MADISHF
FSM,2017-04-01 04:15,-94.3674,35.3366,M,M,M,50.00,5.00,M,29.91,M,10.00,M,CLR,M,M,M,M,M,M,M,M,KFSM 010415Z AUTO 05005KT 10SM CLR A2991 RMK MADISHF
FSM,2017-04-01 04:20,-94.3674,35.3366,M,M,M,50.00,6.00,M,29.91,M,10.00,M,CLR,M,M,M,M,M,M,M,M,KFSM 010420Z AUTO 05006KT 10SM CLR A2991 RMK MADISHF
FSM,2017-04-01 04:25,-94.3674,35.3366,M,M,M,60.00,5.00,M,29.91,M,10.00,M,CLR,M,M,M,M,M,M,M,M,KFSM 010425Z AUTO 06005KT 10SM CLR A2991 RMK MADISHF
FSM,2017-04-01 04:30,-94.3674,35.3366,M,M,M,50.00,5.00,M,29.91,M,10.00,M,CLR,M,M,M,M,M,M,M,M,KFSM 010430Z AUTO 05005KT 10SM CLR A2991 RMK MADISHF
FSM,2017-04-01 04:35,-94.3674,35.3366,M,M,M,60.00,5.00,M,29.91,M,10.00,M,CLR,M,M,M,M,M,M,M,M,KFSM 010435Z AUTO 06005KT 10SM CLR A2991 RMK MADISHF
FSM,2017-04-01 04:40,-94.3674,35.3366,M,M,M,60.00,5.00,M,29.92,M,10.00,M,CLR,M,M,M,M,M,M,M,M,KFSM 010440Z AUTO 06005KT 10SM CLR A2992 RMK MADISHF
FSM,2017-04-01 04:45,-94.3674,35.3366,M,M,M,60.00,6.00,M,29.92,M,10.00,M,CLR,M,M,M,M,M,M,M,M,KFSM 010445Z AUTO 06006KT 10SM CLR A2992 RMK MADISHF
FSM,2017-04-01 04:50,-94.3674,35.3366,M,M,M,60.00,8.00,M,29.92,M,10.00,M,CLR,M,M,M,M,M,M,M,M,KFSM 010450Z AUTO 06008KT 10SM CLR A2992 RMK MADISHF
FSM,2017-04-01 04:53,-94.3674,35.3366,60.10,48.00,64.26,70.00,7.00,0.00,29.92,1012.90,10.00,M,CLR,M,M,M,M,M,M,M,M,KFSM 010453Z AUTO 07007KT 10SM CLR 16/09 A2992 RMK AO2 SLP129 T01560089
FSM,2017-04-01 04:55,-94.3674,35.3366,M,M,M,70.00,7.00,M,29.92,M,10.00,M,CLR,M,M,M,M,M,M,M,M,KFSM 010455Z AUTO 07007KT 10SM CLR A2992 RMK MADISHF
FSM,2017-04-01 05:00,-94.3674,35.3366,M,M,M,70.00,8.00,M,29.92,M,10.00,M,CLR,M,M,M,M,M,M,M,M,KFSM 010500Z AUTO 07008KT 10SM CLR A2992 RMK MADISHF
FSM,2017-04-01 05:05,-94.3674,35.3366,M,M,M,60.00,7.00,M,29.92,M,10.00,M,CLR,M,M,M,M,M,M,M,M,KFSM 010505Z AUTO 06007KT 10SM CLR A2992 RMK MADISHF
FSM,2017-04-01 05:10,-94.3674,35.3366,M,M,M,60.00,4.00,M,29.93,M,10.00,M,CLR,M,M,M,M,M,M,M,M,KFSM 010510Z AUTO 06004KT 10SM CLR A2993 RMK MADISHF
FSM,2017-04-01 05:15,-94.3674,35.3366,M,M,M,70.00,6.00,M,29.93,M,10.00,M,CLR,M,M,M,M,M,M,M,M,KFSM 010515Z AUTO 07006KT 10SM CLR A2993 RMK MADISHF
FSM,2017-04-01 05:20,-94.3674,35.3366,M,M,M,80.00,7.00,M,29.93,M,10.00,M,CLR,M,M,M,M,M,M,M,M,KFSM 010520Z AUTO 08007KT 10SM CLR A2993 RMK MADISHF
FSM,2017-04-01 05:25,-94.3674,35.3366,M,M,M,80.00,9.00,M,29.93,M,10.00,M,CLR,M,M,M,M,M,M,M,M,KFSM 010525Z AUTO 08009KT 10SM CLR A2993 RMK MADISHF
FSM,2017-04-01 05:30,-94.3674,35.3366,M,M,M,80.00,9.00,M,29.93,M,10.00,M,CLR,M,M,M,M,M,M,M,M,KFSM 010530Z AUTO 08009KT 10SM CLR A2993 RMK MADISHF
FSM,2017-04-01 05:35,-94.3674,35.3366,M,M,M,80.00,10.00,M,29.93,M,10.00,M,CLR,M,M,M,M,M,M,M,M,KFSM 010535Z AUTO 08010KT 10SM CLR A2993 RMK MADISHF
FSM,2017-04-01 05:40,-94.3674,35.3366,M,M,M,80.00,8.00,M,29.93,M,10.00,M,CLR,M,M,M,M,M,M,M,M,KFSM 010540Z AUTO 08008KT 10SM CLR A2993 RMK MADISHF
FSM,2017-04-01 05:45,-94.3674,35.3366,M,M,M,80.00,9.00,M,29.94,M,10.00,M,CLR,M,M,M,M,M,M,M,M,KFSM 010545Z AUTO 08009KT 10SM CLR A2994 RMK MADISHF
FSM,2017-04-01 05:50,-94.3674,35.3366,M,M,M,80.00,10.00,M,29.94,M,10.00,M,CLR,M,M,M,M,M,M,M,M,KFSM 010550Z AUTO 08010KT 10SM CLR A2994 RMK MADISHF
FSM,2017-04-01 05:53,-94.3674,35.3366,60.10,48.00,64.26,80.00,9.00,0.00,29.94,1013.60,10.00,M,CLR,M,M,M,M,M,M,M,M,KFSM 010553Z AUTO 08009KT 10SM CLR 16/09 A2994 RMK AO2 SLP136 T01560089 10217 20150 402330056 53015
FSM,2017-04-01 05:55,-94.3674,35.3366,M,M,M,70.00,8.00,M,29.94,M,10.00,M,CLR,M,M,M,M,M,M,M,M,KFSM 010555Z AUTO 07008KT 10SM CLR A2994 RMK MADISHF
FSM,2017-04-01 06:00,-94.3674,35.3366,M,M,M,70.00,8.00,M,29.94,M,10.00,M,CLR,M,M,M,M,M,M,M,M,KFSM 010600Z AUTO 07008KT 10SM CLR A2994 RMK MADISHF
FSM,2017-04-01 06:05,-94.3674,35.3366,M,M,M,70.00,10.00,M,29.94,M,10.00,M,CLR,M,M,M,M,M,M,M,M,KFSM 010605Z AUTO 07010KT 10SM CLR A2994 RMK MADISHF
FSM,2017-04-01 06:10,-94.3674,35.3366,M,M,M,70.00,8.00,M,29.94,M,10.00,M,CLR,M,M,M,M,M,M,M,M,KFSM 010610Z AUTO 07008KT 10SM CLR A2994 RMK MADISHF
FSM,2017-04-01 06:15,-94.3674,35.3366,M,M,M,70.00,9.00,M,29.94,M,10.00,M,CLR,M,M,M,M,M,M,M,M,KFSM 010615Z AUTO 07009KT 10SM CLR A2994 RMK MADISHF
FSM,2017-04-01 06:20,-94.3674,35.3366,M,M,M,70.00,9.00,M,29.94,M,10.00,M,CLR,M,M,M,M,M,M,M,M,KFSM 010620Z AUTO 07009KT 10SM CLR A2994 RMK MADISHF
FSM,2017-04-01 06:25,-94.3674,35.3366,M,M,M,70.00,10.00,M,29.94,M,10.00,M,CLR,M,M,M,M,M,M,M,M,KFSM 010625Z AUTO 07010KT 10SM CLR A2994 RMK MADISHF
FSM,2017-04-01 06:30,-94.3674,35.3366,M,M,M,70.00,10.00,M,29.95,M,10.00,M,CLR,M,M,M,M,M,M,M,M,KFSM 010630Z AUTO 07010KT 10SM CLR A2995 RMK MADISHF
FSM,2017-04-01 06:35,-94.3674,35.3366,M,M,M,80.00,8.00,M,29.95,M,10.00,M,CLR,M,M,M,M,M,M,M,M,KFSM 010635Z AUTO 08008KT 10SM CLR A2995 RMK MADISHF
FSM,2017-04-01 06:40,-94.3674,35.3366,M,M,M,80.00,9.00,M,29.95,M,10.00,M,CLR,M,M,M,M,M,M,M,M,KFSM 010640Z AUTO 08009KT 10SM CLR A2995 RMK MADISHF
FSM,2017-04-01 06:45,-94.3674,35.3366,M,M,M,80.00,9.00,M,29.95,M,10.00,M,CLR,M,M,M,M,M,M,M,M,KFSM 010645Z AUTO 08009KT 10SM CLR A2995 RMK MADISHF
FSM,2017-04-01 06:50,-94.3674,35.3366,M,M,M,70.00,9.00,M,29.95,M,10.00,M,CLR,M,M,M,M,M,M,M,M,KFSM 010650Z AUTO 07009KT 10SM CLR A2995 RMK MADISHF
FSM,2017-04-01 06:53,-94.3674,35.3366,59.00,48.00,66.83,70.00,9.00,0.00,29.95,1013.80,10.00,M,CLR,M,M,M,M,M,M,M,M,KFSM 010653Z AUTO 07009KT 10SM CLR 15/09 A2995 RMK AO2 SLP138 T01500089
FSM,2017-04-01 06:55,-94.3674,35.3366,M,M,M,70.00,11.00,M,29.95,M,10.00,M,CLR,M,M,M,M,M,M,M,M,KFSM 010655Z AUTO 07011KT 10SM CLR A2995 RMK MADISHF
FSM,2017-04-01 07:00,-94.3674,35.3366,M,M,M,70.00,12.00,M,29.95,M,10.00,M,CLR,M,M,M,M,M,M,M,M,KFSM 010700Z AUTO 07012KT 10SM CLR A2995 RMK MADISHF
FSM,2017-04-01 07:05,-94.3674,35.3366,M,M,M,70.00,9.00,M,29.95,M,10.00,M,CLR,M,M,M,M,M,M,M,M,KFSM 010705Z AUTO 07009KT 10SM CLR A2995 RMK MADISHF
FSM,2017-04-01 07:10,-94.3674,35.3366,M,M,M,80.00,11.00,M,29.95,M,10.00,M,CLR,M,M,M,M,M,M,M,M,KFSM 010710Z AUTO 08011KT 10SM CLR A2995 RMK MADISHF
FSM,2017-04-01 07:15,-94.3674,35.3366,M,M,M,80.00,10.00,M,29.95,M,10.00,M,CLR,M,M,M,M,M,M,M,M,KFSM 010715Z AUTO 08010KT 10SM CLR A2995 RMK MADISHF
FSM,2017-04-01 07:20,-94.3674,35.3366,M,M,M,80.00,10.00,M,29.95,M,10.00,M,CLR,M,M,M,M,M,M,M,M,KFSM 010720Z AUTO 08010KT 10SM CLR A2995 RMK MADISHF
FSM,2017-04-01 07:25,-94.3674,35.3366,M,M,M,70.00,10.00,M,29.95,M,10.00,M,CLR,M,M,M,M,M,M,M,M,KFSM 010725Z AUTO 07010KT 10SM CLR A2995 RMK MADISHF
FSM,2017-04-01 07:30,-94.3674,35.3366,M,M,M,80.00,10.00,M,29.95,M,10.00,M,CLR,M,M,M,M,M,M,M,M,KFSM 010730Z AUTO 08010KT 10SM CLR A2995 RMK MADISHF
FSM,2017-04-01 07:35,-94.3674,35.3366,M,M,M,70.00,10.00,M,29.95,M,10.00,M,CLR,M,M,M,M,M,M,M,M,KFSM 010735Z AUTO 07010KT 10SM CLR A2995 RMK MADISHF
FSM,2017-04-01 07:40,-94.3674,35.3366,M,M,M,70.00,9.00,M,29.95,M,10.00,M,CLR,M,M,M,M,M,M,M,M,KFSM 010740Z AUTO 07009KT 10SM CLR A2995 RMK MADISHF
FSM,2017-04-01 07:45,-94.3674,35.3366,M,M,M,70.00,10.00,M,29.95,M,10.00,M,CLR,M,M,M,M,M,M,M,M,KFSM 010745Z AUTO 07010KT 10SM CLR A2995 RMK MADISHF
FSM,2017-04-01 07:50,-94.3674,35.3366,M,M,M,70.00,10.00,M,29.95,M,10.00,M,CLR,M,M,M,M,M,M,M,M,KFSM 010750Z AUTO 07010KT 10SM CLR A2995 RMK MADISHF
FSM,2017-04-01 07:53,-94.3674,35.3366,57.90,48.00,69.52,70.00,10.00,0.00,29.96,1014.10,10.00,M,CLR,M,M,M,M,M,M,M,M,KFSM 010753Z AUTO 07010KT 10SM CLR 14/09 A2996 RMK AO2 SLP141 T01440089
FSM,2017-04-01 07:55,-94.3674,35.3366,M,M,M,70.00,10.00,M,29.96,M,10.00,M,CLR,M,M,M,M,M,M,M,M,KFSM 010755Z AUTO 07010KT 10SM CLR A2996 RMK MADISHF
FSM,2017-04-01 08:00,-94.3674,35.3366,M,M,M,70.00,10.00,M,29.96,M,10.00,M,CLR,M,M,M,M,M,M,M,M,KFSM 010800Z AUTO 07010KT 10SM CLR A2996 RMK MADISHF
FSM,2017-04-01 08:05,-94.3674,35.3366,M,M,M,70.00,10.00,M,29.96,M,10.00,M,CLR,M,M,M,M,M,M,M,M,KFSM 010805Z AUTO 07010KT 10SM CLR A2996 RMK MADISHF
FSM,2017-04-01 08:10,-94.3674,35.3366,M,M,M,70.00,11.00,M,29.96,M,10.00,M,CLR,M,M,M,M,M,M,M,M,KFSM 010810Z AUTO 07011KT 10SM CLR A2996 RMK MADISHF
FSM,2017-04-01 08:15,-94.3674,35.3366,M,M,M,70.00,10.00,M,29.96,M,10.00,M,CLR,M,M,M,M,M,M,M,M,KFSM 010815Z AUTO 07010KT 10SM CLR A2996 RMK MADISHF
FSM,2017-04-01 08:20,-94.3674,35.3366,M,M,M,70.00,10.00,M,29.96,M,10.00,M,CLR,M,M,M,M,M,M,M,M,KFSM 010820Z AUTO 07010KT 10SM CLR A2996 RMK MADISHF
FSM,2017-04-01 08:25,-94.3674,35.3366,M,M,M,80.00,11.00,M,29.96,M,10.00,M,CLR,M,M,M,M,M,M,M,M,KFSM 010825Z AUTO 08011KT 10SM CLR A2996 RMK MADISHF
FSM,2017-04-01 08:30,-94.3674,35.3366,M,M,M,80.00,11.00,M,29.96,M,10.00,M,CLR,M,M,M,M,M,M,M,M,KFSM 010830Z AUTO 08011KT 10SM CLR A2996 RMK MADISHF
FSM,2017-04-01 08:35,-94.3674,35.3366,M,M,M,70.00,11.00,M,29.96,M,10.00,M,CLR,M,M,M,M,M,M,M,M,KFSM 010835Z AUTO 07011KT 10SM CLR A2996 RMK MADISHF
FSM,2017-04-01 08:40,-94.3674,35.3366,M,M,M,70.00,11.00,M,29.96,M,10.00,M,CLR,M,M,M,M,M,M,M,M,KFSM 010840Z AUTO 07011KT 10SM CLR A2996 RMK MADISHF
FSM,2017-04-01 08:45,-94.3674,35.3366,M,M,M,70.00,10.00,M,29.96,M,10.00,M,CLR,M,M,M,M,M,M,M,M,KFSM 010845Z AUTO 07010KT 10SM CLR A2996 RMK MADISHF
FSM,2017-04-01 08:50,-94.3674,35.3366,M,M,M,70.00,11.00,M,29.96,M,10.00,M,CLR,M,M,M,M,M,M,M,M,KFSM 010850Z AUTO 07011KT 10SM CLR A2996 RMK MADISHF
FSM,2017-04-01 08:53,-94.3674,35.3366,57.00,46.90,68.90,70.00,10.00,0.00,29.97,1014.50,10.00,M,CLR,M,M,M,M,M,M,M,M,KFSM 010853Z AUTO 07010KT 10SM CLR 14/08 A2997 RMK AO2 SLP145 T01390083 53009
FSM,2017-04-01 08:55,-94.3674,35.3366,M,M,M,70.00,12.00,M,29.97,M,10.00,M,CLR,M,M,M,M,M,M,M,M,KFSM 010855Z AUTO 07012KT 10SM CLR A2997 RMK MADISHF
FSM,2017-04-01 09:00,-94.3674,35.3366,M,M,M,80.00,11.00,M,29.97,M,10.00,M,CLR,M,M,M,M,M,M,M,M,KFSM 010900Z AUTO 08011KT 10SM CLR A2997 RMK MADISHF
FSM,2017-04-01 09:05,-94.3674,35.3366,M,M,M,80.00,12.00,M,29.96,M,10.00,M,CLR,M,M,M,M,M,M,M,M,KFSM 010905Z AUTO 08012KT 10SM CLR A2996 RMK MADISHF
FSM,2017-04-01 09:10,-94.3674,35.3366,M,M,M,80.00,11.00,M,29.97,M,10.00,M,CLR,M,M,M,M,M,M,M,M,KFSM 010910Z AUTO 08011KT 10SM CLR A2997 RMK MADISHF
FSM,2017-04-01 09:15,-94.3674,35.3366,M,M,M,M,M,M,29.96,M,10.00,M,CLR,M,M,M,M,M,M,M,M,KFSM 010915Z AUTO /////KT 10SM CLR A2996 RMK MADISHF
FSM,2017-04-01 09:20,-94.3674,35.3366,M,M,M,80.00,13.00,M,29.97,M,10.00,M,CLR,M,M,M,M,M,M,M,M,KFSM 010920Z AUTO 08013KT 10SM CLR A2997 RMK MADISHF
FSM,2017-04-01 09:25,-94.3674,35.3366,M,M,M,80.00,12.00,M,29.96,M,10.00,M,CLR,M,M,M,M,M,M,M,M,KFSM 010925Z AUTO 08012KT 10SM CLR A2996 RMK MADISHF
FSM,2017-04-01 09:30,-94.3674,35.3366,M,M,M,M,M,M,29.96,M,10.00,M,CLR,M,M,M,M,M,M,M,M,KFSM 010930Z AUTO /////KT 10SM CLR A2996 RMK MADISHF
FSM,2017-04-01 09:35,-94.3674,35.3366,M,M,M,M,M,M,29.97,M,10.00,M,CLR,M,M,M,M,M,M,M,M,KFSM 010935Z AUTO /////KT 10SM CLR A2997 RMK MADISHF
FSM,2017-04-01 09:40,-94.3674,35.3366,M,M,M,80.00,12.00,M,29.97,M,10.00,M,CLR,M,M,M,M,M,M,M,M,KFSM 010940Z AUTO 08012KT 10SM CLR A2997 RMK MADISHF
FSM,2017-04-01 09:45,-94.3674,35.3366,M,M,M,80.00,11.00,M,29.97,M,10.00,M,CLR,M,M,M,M,M,M,M,M,KFSM 010945Z AUTO 08011KT 10SM CLR A2997 RMK MADISHF
FSM,2017-04-01 09:50,-94.3674,35.3366,M,M,M,80.00,10.00,M,29.97,M,10.00,M,CLR,M,M,M,M,M,M,M,M,KFSM 010950Z AUTO 08010KT 10SM CLR A2997 RMK MADISHF
FSM,2017-04-01 09:53,-94.3674,35.3366,55.90,46.90,71.69,80.00,12.00,0.00,29.97,1014.60,10.00,M,CLR,M,M,M,M,M,M,M,M,KFSM 010953Z AUTO 08012KT 10SM CLR 13/08 A2997 RMK AO2 SLP146 T01330083
FSM,2017-04-01 09:55,-94.3674,35.3366,M,M,M,70.00,13.00,M,29.97,M,10.00,M,CLR,M,M,M,M,M,M,M,M,KFSM 010955Z AUTO 07013KT 10SM CLR A2997 RMK MADISHF
FSM,2017-04-01 10:00,-94.3674,35.3366,M,M,M,80.00,13.00,M,29.97,M,10.00,M,CLR,M,M,M,M,M,M,M,M,KFSM 011000Z AUTO 08013KT 10SM CLR A2997 RMK MADISHF
FSM,2017-04-01 10:05,-94.3674,35.3366,M,M,M,80.00,13.00,M,29.98,M,10.00,M,CLR,M,M,M,M,M,M,M,M,KFSM 011005Z AUTO 08013KT 10SM CLR A2998 RMK MADISHF
FSM,2017-04-01 10:10,-94.3674,35.3366,M,M,M,70.00,12.00,M,29.98,M,10.00,17.00,CLR,M,M,M,M,M,M,M,M,KFSM 011010Z AUTO 07012G17KT 10SM CLR A2998 RMK MADISHF
FSM,2017-04-01 10:15,-94.3674,35.3366,M,M,M,70.00,12.00,M,29.98,M,10.00,M,CLR,M,M,M,M,M,M,M,M,KFSM 011015Z AUTO 07012KT 10SM CLR A2998 RMK MADISHF
FSM,2017-04-01 10:20,-94.3674,35.3366,M,M,M,70.00,12.00,M,29.98,M,10.00,M,CLR,M,M,M,M,M,M,M,M,KFSM 011020Z AUTO 07012KT 10SM CLR A2998 RMK MADISHF
FSM,2017-04-01 10:25,-94.3674,35.3366,M,M,M,70.00,12.00,M,29.98,M,10.00,M,CLR,M,M,M,M,M,M,M,M,KFSM 011025Z AUTO 07012KT 10SM CLR A2998 RMK MADISHF
FSM,2017-04-01 10:30,-94.3674,35.3366,M,M,M,70.00,14.00,M,29.98,M,10.00,M,CLR,M,M,M,M,M,M,M,M,KFSM 011030Z AUTO 07014KT 10SM CLR A2998 RMK MADISHF
FSM,2017-04-01 10:35,-94.3674,35.3366,M,M,M,70.00,13.00,M,29.98,M,10.00,M,CLR,M,M,M,M,M,M,M,M,KFSM 011035Z AUTO 07013KT 10SM CLR A2998 RMK MADISHF
FSM,2017-04-01 10:40,-94.3674,35.3366,M,M,M,80.00,13.00,M,29.98,M,10.00,M,CLR,M,M,M,M,M,M,M,M,KFSM 011040Z AUTO 08013KT 10SM CLR A2998 RMK MADISHF
FSM,2017-04-01 10:45,-94.3674,35.3366,M,M,M,80.00,13.00,M,29.99,M,10.00,M,CLR,M,M,M,M,M,M,M,M,KFSM 011045Z AUTO 08013KT 10SM CLR A2999 RMK MADISHF
FSM,2017-04-01 10:50,-94.3674,35.3366,M,M,M,80.00,13.00,M,29.99,M,10.00,M,CLR,M,M,M,M,M,M,M,M,KFSM 011050Z AUTO 08013KT 10SM CLR A2999 RMK MADISHF
FSM,2017-04-01 10:53,-94.3674,35.3366,55.00,46.90,74.08,80.00,14.00,0.00,29.99,1015.20,10.00,M,CLR,M,M,M,M,M,M,M,M,KFSM 011053Z 08014KT 10SM CLR 13/08 A2999 RMK AO2 SLP152 T01280083
FSM,2017-04-01 10:55,-94.3674,35.3366,M,M,M,80.00,12.00,M,29.99,M,10.00,M,CLR,M,M,M,M,M,M,M,M,KFSM 011055Z AUTO 08012KT 10SM CLR A2999 RMK MADISHF
FSM,2017-04-01 11:00,-94.3674,35.3366,M,M,M,70.00,14.00,M,29.99,M,10.00,M,CLR,M,M,M,M,M,M,M,M,KFSM 011100Z AUTO 07014KT 10SM CLR A2999 RMK MADISHF
FSM,2017-04-01 11:05,-94.3674,35.3366,M,M,M,70.00,14.00,M,30.00,M,10.00,M,CLR,M,M,M,M,M,M,M,M,KFSM 011105Z AUTO 07014KT 10SM CLR A3000 RMK MADISHF
FSM,2017-04-01 11:10,-94.3674,35.3366,M,M,M,70.00,13.00,M,30.00,M,10.00,M,CLR,M,M,M,M,M,M,M,M,KFSM 011110Z AUTO 07013KT 10SM CLR A3000 RMK MADISHF
FSM,2017-04-01 11:15,-94.3674,35.3366,M,M,M,70.00,12.00,M,30.00,M,10.00,M,CLR,M,M,M,M,M,M,M,M,KFSM 011115Z AUTO 07012KT 10SM CLR A3000 RMK MADISHF
FSM,2017-04-01 11:20,-94.3674,35.3366,M,M,M,70.00,11.00,M,30.01,M,10.00,M,CLR,M,M,M,M,M,M,M,M,KFSM 011120Z AUTO 07011KT 10SM CLR A3001 RMK MADISHF
FSM,2017-04-01 11:25,-94.3674,35.3366,M,M,M,70.00,13.00,M,30.01,M,10.00,M,CLR,M,M,M,M,M,M,M,M,KFSM 011125Z AUTO 07013KT 10SM CLR A3001 RMK MADISHF
FSM,2017-04-01 11:30,-94.3674,35.3366,M,M,M,80.00,11.00,M,30.01,M,10.00,M,CLR,M,M,M,M,M,M,M,M,KFSM 011130Z AUTO 08011KT 10SM CLR A3001 RMK MADISHF
FSM,2017-04-01 11:35,-94.3674,35.3366,M,M,M,70.00,12.00,M,30.01,M,10.00,M,CLR,M,M,M,M,M,M,M,M,KFSM 011135Z AUTO 07012KT 10SM CLR A3001 RMK MADISHF
FSM,2017-04-01 11:40,-94.3674,35.3366,M,M,M,70.00,13.00,M,30.02,M,10.00,M,CLR,M,M,M,M,M,M,M,M,KFSM 011140Z AUTO 07013KT 10SM CLR A3002 RMK MADISHF
FSM,2017-04-01 11:45,-94.3674,35.3366,M,M,M,70.00,13.00,M,30.02,M,10.00,M,CLR,M,M,M,M,M,M,M,M,KFSM 011145Z AUTO 07013KT 10SM CLR A3002 RMK MADISHF
FSM,2017-04-01 11:50,-94.3674,35.3366,M,M,M,70.00,13.00,M,30.03,M,10.00,M,CLR,M,M,M,M,M,M,M,M,KFSM 011150Z AUTO 07013KT 10SM CLR A3003 RMK MADISHF
FSM,2017-04-01 11:53,-94.3674,35.3366,53.10,46.00,76.75,80.00,12.00,0.00,30.03,1016.60,10.00,M,CLR,M,M,M,M,M,M,M,M,KFSM 011153Z 08012KT 10SM CLR 12/08 A3003 RMK AO2 SLP166 T01170078 10156 20117 53021
FSM,2017-04-01 11:55,-94.3674,35.3366,M,M,M,70.00,13.00,M,30.03,M,10.00,M,CLR,M,M,M,M,M,M,M,M,KFSM 011155Z AUTO 07013KT 10SM CLR A3003 RMK MADISHF
FSM,2017-04-01 12:00,-94.3674,35.3366,M,M,M,80.00,13.00,M,30.04,M,10.00,M,CLR,M,M,M,M,M,M,M,M,KFSM 011200Z AUTO 08013KT 10SM CLR A3004 RMK MADISHF
FSM,2017-04-01 12:05,-94.3674,35.3366,M,M,M,80.00,11.00,M,30.04,M,10.00,M,CLR,M,M,M,M,M,M,M,M,KFSM 011205Z AUTO 08011KT 10SM CLR A3004 RMK MADISHF
FSM,2017-04-01 12:10,-94.3674,35.3366,M,M,M,M,M,M,30.04,M,10.00,M,CLR,M,M,M,M,M,M,M,M,KFSM 011210Z AUTO /////KT 10SM CLR A3004 RMK MADISHF
FSM,2017-04-01 12:15,-94.3674,35.3366,M,M,M,80.00,11.00,M,30.05,M,10.00,M,CLR,M,M,M,M,M,M,M,M,KFSM 011215Z AUTO 08011KT 10SM CLR A3005 RMK MADISHF
FSM,2017-04-01 12:20,-94.3674,35.3366,M,M,M,70.00,12.00,M,30.05,M,10.00,M,CLR,M,M,M,M,M,M,M,M,KFSM 011220Z AUTO 07012KT 10SM CLR A3005 RMK MADISHF
FSM,2017-04-01 12:25,-94.3674,35.3366,M,M,M,70.00,13.00,M,30.06,M,10.00,M,CLR,M,M,M,M,M,M,M,M,KFSM 011225Z AUTO 07013KT 10SM CLR A3006 RMK MADISHF
FSM,2017-04-01 12:30,-94.3674,35.3366,M,M,M,70.00,13.00,M,30.06,M,10.00,M,CLR,M,M,M,M,M,M,M,M,KFSM 011230Z AUTO 07013KT 10SM CLR A3006 RMK MADISHF
FSM,2017-04-01 12:35,-94.3674,35.3366,M,M,M,70.00,14.00,M,30.06,M,10.00,M,CLR,M,M,M,M,M,M,M,M,KFSM 011235Z AUTO 07014KT 10SM CLR A3006 RMK MADISHF
FSM,2017-04-01 12:40,-94.3674,35.3366,M,M,M,80.00,12.00,M,30.06,M,10.00,M,CLR,M,M,M,M,M,M,M,M,KFSM 011240Z AUTO 08012KT 10SM CLR A3006 RMK MADISHF
FSM,2017-04-01 12:45,-94.3674,35.3366,M,M,M,80.00,13.00,M,30.07,M,10.00,M,CLR,M,M,M,M,M,M,M,M,KFSM 011245Z AUTO 08013KT 10SM CLR A3007 RMK MADISHF
FSM,2017-04-01 12:50,-94.3674,35.3366,M,M,M,80.00,12.00,M,30.07,M,10.00,M,CLR,M,M,M,M,M,M,M,M,KFSM 011250Z AUTO 08012KT 10SM CLR A3007 RMK MADISHF
FSM,2017-04-01 12:53,-94.3674,35.3366,54.00,45.00,71.50,80.00,12.00,0.00,30.07,1018.10,10.00,M,CLR,M,M,M,M,M,M,M,M,KFSM 011253Z 08012KT 10SM CLR 12/07 A3007 RMK AO2 SLP181 T01220072
FSM,2017-04-01 12:55,-94.3674,35.3366,M,M,M,80.00,12.00,M,30.07,M,10.00,M,CLR,M,M,M,M,M,M,M,M,KFSM 011255Z AUTO 08012KT 10SM CLR A3007 RMK MADISHF
FSM,2017-04-01 13:00,-94.3674,35.3366,M,M,M,80.00,13.00,M,30.08,M,10.00,M,CLR,M,M,M,M,M,M,M,M,KFSM 011300Z AUTO 08013KT 10SM CLR A3008 RMK MADISHF
FSM,2017-04-01 13:05,-94.3674,35.3366,M,M,M,80.00,14.00,M,30.08,M,10.00,M,CLR,M,M,M,M,M,M,M,M,KFSM 011305Z AUTO 08014KT 10SM CLR A3008 RMK MADISHF
FSM,2017-04-01 13:10,-94.3674,35.3366,M,M,M,M,M,M,30.08,M,10.00,M,CLR,M,M,M,M,M,M,M,M,KFSM 011310Z AUTO /////KT 10SM CLR A3008 RMK MADISHF
FSM,2017-04-01 13:15,-94.3674,35.3366,M,M,M,M,M,M,30.08,M,10.00,M,CLR,M,M,M,M,M,M,M,M,KFSM 011315Z AUTO /////KT 10SM CLR A3008 RMK MADISHF
FSM,2017-04-01 13:20,-94.3674,35.3366,M,M,M,90.00,11.00,M,30.08,M,10.00,M,CLR,M,M,M,M,M,M,M,M,KFSM 011320Z AUTO 09011KT 10SM CLR A3008 RMK MADISHF
FSM,2017-04-01 13:25,-94.3674,35.3366,M,M,M,M,M,M,30.09,M,10.00,M,CLR,M,M,M,M,M,M,M,M,KFSM 011325Z AUTO /////KT 10SM CLR A3009 RMK MADISHF
FSM,2017-04-01 13:30,-94.3674,35.3366,M,M,M,M,M,M,30.09,M,10.00,M,CLR,M,M,M,M,M,M,M,M,KFSM 011330Z AUTO /////KT 10SM CLR A3009 RMK MADISHF
FSM,2017-04-01 13:35,-94.3674,35.3366,M,M,M,M,M,M,30.09,M,10.00,M,CLR,M,M,M,M,M,M,M,M,KFSM 011335Z AUTO /////KT 10SM CLR A3009 RMK MADISHF
FSM,2017-04-01 13:40,-94.3674,35.3366,M,M,M,M,M,M,30.09,M,10.00,M,CLR,M,M,M,M,M,M,M,M,KFSM 011340Z AUTO /////KT 10SM CLR A3009 RMK MADISHF
FSM,2017-04-01 13:45,-94.3674,35.3366,M,M,M,M,M,M,30.09,M,10.00,M,CLR,M,M,M,M,M,M,M,M,KFSM 011345Z AUTO /////KT 10SM CLR A3009 RMK MADISHF
FSM,2017-04-01 13:50,-94.3674,35.3366,M,M,M,M,M,M,30.09,M,10.00,M,CLR,M,M,M,M,M,M,M,M,KFSM 011350Z AUTO /////KT 10SM CLR A3009 RMK MADISHF
FSM,2017-04-01 13:53,-94.3674,35.3366,55.90,45.00,66.72,80.00,16.00,0.00,30.09,1018.70,10.00,M,CLR,M,M,M,M,M,M,M,M,KFSM 011353Z 08016KT 10SM CLR 13/07 A3009 RMK AO2 SLP187 T01330072
FSM,2017-04-01 13:55,-94.3674,35.3366,M,M,M,M,M,M,30.09,M,10.00,M,CLR,M,M,M,M,M,M,M,M,KFSM 011355Z AUTO /////KT 10SM CLR A3009 RMK MADISHF
FSM,2017-04-01 14:00,-94.3674,35.3366,M,M,M,70.00,14.00,M,30.09,M,10.00,M,CLR,M,M,M,M,M,M,M,M,KFSM 011400Z AUTO 07014KT 10SM CLR A3009 RMK MADISHF
FSM,2017-04-01 14:05,-94.3674,35.3366,M,M,M,100.00,13.00,M,30.08,M,10.00,M,CLR,M,M,M,M,M,M,M,M,KFSM 011405Z AUTO 10013KT 10SM CLR A3008 RMK MADISHF
FSM,2017-04-01 14:10,-94.3674,35.3366,M,M,M,90.00,11.00,M,30.08,M,10.00,M,CLR,M,M,M,M,M,M,M,M,KFSM 011410Z AUTO 09011KT 10SM CLR A3008 RMK MADISHF
FSM,2017-04-01 14:15,-94.3674,35.3366,M,M,M,90.00,12.00,M,30.08,M,10.00,M,CLR,M,M,M,M,M,M,M,M,KFSM 011415Z AUTO 09012KT 10SM CLR A3008 RMK MADISHF
FSM,2017-04-01 14:20,-94.3674,35.3366,M,M,M,M,M,M,30.08,M,10.00,M,CLR,M,M,M,M,M,M,M,M,KFSM 011420Z AUTO /////KT 10SM CLR A3008 RMK MADISHF
FSM,2017-04-01 14:25,-94.3674,35.3366,M,M,M,80.00,15.00,M,30.08,M,10.00,M,CLR,M,M,M,M,M,M,M,M,KFSM 011425Z AUTO 08015KT 10SM CLR A3008 RMK MADISHF
FSM,2017-04-01 14:30,-94.3674,35.3366,M,M,M,70.00,14.00,M,30.09,M,10.00,M,CLR,M,M,M,M,M,M,M,M,KFSM 011430Z AUTO 07014KT 10SM CLR A3009 RMK MADISHF
FSM,2017-04-01 14:35,-94.3674,35.3366,M,M,M,M,M,M,30.09,M,10.00,M,CLR,M,M,M,M,M,M,M,M,KFSM 011435Z AUTO /////KT 10SM CLR A3009 RMK MADISHF
FSM,2017-04-01 14:40,-94.3674,35.3366,M,M,M,80.00,13.00,M,30.09,M,10.00,M,CLR,M,M,M,M,M,M,M,M,KFSM 011440Z AUTO 08013KT 10SM CLR A3009 RMK MADISHF
FSM,2017-04-01 14:45,-94.3674,35.3366,M,M,M,80.00,13.00,M,30.09,M,10.00,M,CLR,M,M,M,M,M,M,M,M,KFSM 011445Z AUTO 08013KT 10SM CLR A3009 RMK MADISHF
FSM,2017-04-01 14:50,-94.3674,35.3366,M,M,M,70.00,12.00,M,30.09,M,10.00,M,CLR,M,M,M,M,M,M,M,M,KFSM 011450Z AUTO 07012KT 10SM CLR A3009 RMK MADISHF
FSM,2017-04-01 14:53,-94.3674,35.3366,59.00,46.00,61.98,90.00,11.00,0.00,30.09,1018.70,10.00,M,CLR,M,M,M,M,M,M,M,M,KFSM 011453Z 09011KT 10SM CLR 15/08 A3009 RMK AO2 SLP187 T01500078 51020
FSM,2017-04-01 14:55,-94.3674,35.3366,M,M,M,90.00,12.00,M,30.09,M,10.00,M,CLR,M,M,M,M,M,M,M,M,KFSM 011455Z AUTO 09012KT 10SM CLR A3009 RMK MADISHF
FSM,2017-04-01 15:00,-94.3674,35.3366,M,M,M,70.00,11.00,M,30.09,M,10.00,M,CLR,M,M,M,M,M,M,M,M,KFSM 011500Z AUTO 07011KT 10SM CLR A3009 RMK MADISHF
FSM,2017-04-01 15:05,-94.3674,35.3366,M,M,M,70.00,13.00,M,30.09,M,10.00,M,CLR,M,M,M,M,M,M,M,M,KFSM 011505Z AUTO 07013KT 10SM CLR A3009 RMK MADISHF
FSM,2017-04-01 15:10,-94.3674,35.3366,M,M,M,80.00,13.00,M,30.09,M,10.00,M,CLR,M,M,M,M,M,M,M,M,KFSM 011510Z AUTO 08013KT 10SM CLR A3009 RMK MADISHF
FSM,2017-04-01 15:15,-94.3674,35.3366,M,M,M,80.00,15.00,M,30.08,M,10.00,M,CLR,M,M,M,M,M,M,M,M,KFSM 011515Z AUTO 08015KT 10SM CLR A3008 RMK MADISHF
FSM,2017-04-01 15:20,-94.3674,35.3366,M,M,M,80.00,14.00,M,30.08,M,10.00,M,CLR,M,M,M,M,M,M,M,M,KFSM 011520Z AUTO 08014KT 10SM CLR A3008 RMK MADISHF
FSM,2017-04-01 15:25,-94.3674,35.3366,M,M,M,70.00,15.00,M,30.08,M,10.00,M,CLR,M,M,M,M,M,M,M,M,KFSM 011525Z AUTO 07015KT 10SM CLR A3008 RMK MADISHF
FSM,2017-04-01 15:30,-94.3674,35.3366,M,M,M,80.00,16.00,M,30.08,M,10.00,M,CLR,M,M,M,M,M,M,M,M,KFSM 011530Z AUTO 08016KT 10SM CLR A3008 RMK MADISHF
FSM,2017-04-01 15:35,-94.3674,35.3366,M,M,M,90.00,11.00,M,30.08,M,10.00,M,CLR,M,M,M,M,M,M,M,M,KFSM 011535Z AUTO 09011KT 10SM CLR A3008 RMK MADISHF
FSM,2017-04-01 15:40,-94.3674,35.3366,M,M,M,M,M,M,30.08,M,10.00,M,CLR,M,M,M,M,M,M,M,M,KFSM 011540Z AUTO /////KT 10SM CLR A3008 RMK MADISHF
FSM,2017-04-01 15:45,-94.3674,35.3366,M,M,M,80.00,16.00,M,30.08,M,10.00,M,CLR,M,M,M,M,M,M,M,M,KFSM 011545Z AUTO 08016KT 10SM CLR A3008 RMK MADISHF
FSM,2017-04-01 15:50,-94.3674,35.3366,M,M,M,70.00,16.00,M,30.07,M,10.00,M,CLR,M,M,M,M,M,M,M,M,KFSM 011550Z AUTO 07016KT 10SM CLR A3007 RMK MADISHF
FSM,2017-04-01 15:53,-94.3674,35.3366,62.10,46.90,57.43,80.00,15.00,0.00,30.07,1018.10,10.00,M,CLR,M,M,M,M,M,M,M,M,KFSM 011553Z 08015KT 10SM CLR 17/08 A3007 RMK AO2 SLP181 T01670083
FSM,2017-04-01 15:55,-94.3674,35.3366,M,M,M,70.00,14.00,M,30.07,M,10.00,M,CLR,M,M,M,M,M,M,M,M,KFSM 011555Z AUTO 07014KT 10SM CLR A3007 RMK MADISHF
FSM,2017-04-01 16:00,-94.3674,35.3366,M,M,M,90.00,14.00,M,30.08,M,10.00,M,CLR,M,M,M,M,M,M,M,M,KFSM 011600Z AUTO 09014KT 10SM CLR A3008 RMK MADISHF
FSM,2017-04-01 16:05,-94.3674,35.3366,M,M,M,90.00,10.00,M,30.08,M,10.00,M,CLR,M,M,M,M,M,M,M,M,KFSM 011605Z AUTO 09010KT 10SM CLR A3008 RMK MADISHF
FSM,2017-04-01 16:10,-94.3674,35.3366,M,M,M,80.00,10.00,M,30.08,M,10.00,M,CLR,M,M,M,M,M,M,M,M,KFSM 011610Z AUTO 08010KT 10SM CLR A3008 RMK MADISHF
FSM,2017-04-01 16:15,-94.3674,35.3366,M,M,M,80.00,13.00,M,30.08,M,10.00,M,CLR,M,M,M,M,M,M,M,M,KFSM 011615Z AUTO 08013KT 10SM CLR A3008 RMK MADISHF
FSM,2017-04-01 16:20,-94.3674,35.3366,M,M,M,80.00,10.00,M,30.07,M,10.00,M,CLR,M,M,M,M,M,M,M,M,KFSM 011620Z AUTO 08010KT 10SM CLR A3007 RMK MADISHF
FSM,2017-04-01 16:25,-94.3674,35.3366,M,M,M,90.00,13.00,M,30.07,M,10.00,M,CLR,M,M,M,M,M,M,M,M,KFSM 011625Z AUTO 09013KT 10SM CLR A3007 RMK MADISHF
FSM,2017-04-01 16:30,-94.3674,35.3366,M,M,M,80.00,11.00,M,30.07,M,10.00,M,CLR,M,M,M,M,M,M,M,M,KFSM 011630Z AUTO 08011KT 10SM CLR A3007 RMK MADISHF
FSM,2017-04-01 16:35,-94.3674,35.3366,M,M,M,80.00,12.00,M,30.07,M,10.00,M,CLR,M,M,M,M,M,M,M,M,KFSM 011635Z AUTO 08012KT 10SM CLR A3007 RMK MADISHF
FSM,2017-04-01 16:40,-94.3674,35.3366,M,M,M,70.00,11.00,M,30.08,M,10.00,M,CLR,M,M,M,M,M,M,M,M,KFSM 011640Z AUTO 07011KT 10SM CLR A3008 RMK MADISHF
FSM,2017-04-01 16:45,-94.3674,35.3366,M,M,M,110.00,10.00,M,30.08,M,10.00,M,CLR,M,M,M,M,M,M,M,M,KFSM 011645Z AUTO 11010KT 10SM CLR A3008 RMK MADISHF
FSM,2017-04-01 16:50,-94.3674,35.3366,M,M,M,70.00,11.00,M,30.07,M,10.00,M,CLR,M,M,M,M,M,M,M,M,KFSM 011650Z AUTO 07011KT 10SM CLR A3007 RMK MADISHF
FSM,2017-04-01 16:53,-94.3674,35.3366,66.00,48.00,52.22,90.00,11.00,0.00,30.07,1018.00,10.00,M,CLR,M,M,M,M,M,M,M,M,KFSM 011653Z 09011KT 10SM CLR 19/09 A3007 RMK AO2 SLP180 T01890089
FSM,2017-04-01 16:55,-94.3674,35.3366,M,M,M,90.00,10.00,M,30.07,M,10.00,M,CLR,M,M,M,M,M,M,M,M,KFSM 011655Z AUTO 09010KT 10SM CLR A3007 RMK MADISHF
FSM,2017-04-01 17:00,-94.3674,35.3366,M,M,M,70.00,11.00,M,30.07,M,10.00,M,CLR,M,M,M,M,M,M,M,M,KFSM 011700Z AUTO 07011KT 10SM CLR A3007 RMK MADISHF
FSM,2017-04-01 17:05,-94.3674,35.3366,M,M,M,80.00,10.00,M,30.07,M,10.00,M,CLR,M,M,M,M,M,M,M,M,KFSM 011705Z AUTO 08010KT 10SM CLR A3007 RMK MADISHF
FSM,2017-04-01 17:10,-94.3674,35.3366,M,M,M,70.00,9.00,M,30.07,M,10.00,M,CLR,M,M,M,M,M,M,M,M,KFSM 011710Z AUTO 07009KT 10SM CLR A3007 RMK MADISHF
FSM,2017-04-01 17:15,-94.3674,35.3366,M,M,M,60.00,11.00,M,30.07,M,10.00,M,CLR,M,M,M,M,M,M,M,M,KFSM 011715Z AUTO 06011KT 10SM CLR A3007 RMK MADISHF
FSM,2017-04-01 17:20,-94.3674,35.3366,M,M,M,60.00,10.00,M,30.07,M,10.00,M,CLR,M,M,M,M,M,M,M,M,KFSM 011720Z AUTO 06010KT 10SM CLR A3007 RMK MADISHF
FSM,2017-04-01 17:25,-94.3674,35.3366,M,M,M,60.00,10.00,M,30.07,M,10.00,M,CLR,M,M,M,M,M,M,M,M,KFSM 011725Z AUTO 06010KT 10SM CLR A3007 RMK MADISHF
FSM,2017-04-01 17:30,-94.3674,35.3366,M,M,M,60.00,12.00,M,30.06,M,10.00,M,CLR,M,M,M,M,M,M,M,M,KFSM 011730Z AUTO 06012KT 10SM CLR A3006 RMK MADISHF
FSM,2017-04-01 17:35,-94.3674,35.3366,M,M,M,80.00,10.00,M,30.06,M,10.00,M,CLR,M,M,M,M,M,M,M,M,KFSM 011735Z AUTO 08010KT 10SM CLR A3006 RMK MADISHF
FSM,2017-04-01 17:40,-94.3674,35.3366,M,M,M,80.00,11.00,M,30.06,M,10.00,M,CLR,M,M,M,M,M,M,M,M,KFSM 011740Z AUTO 08011KT 10SM CLR A3006 RMK MADISHF
FSM,2017-04-01 17:45,-94.3674,35.3366,M,M,M,80.00,10.00,M,30.06,M,10.00,M,CLR,M,M,M,M,M,M,M,M,KFSM 011745Z AUTO 08010KT 10SM CLR A3006 RMK MADISHF
FSM,2017-04-01 17:50,-94.3674,35.3366,M,M,M,70.00,12.00,M,30.06,M,10.00,M,CLR,M,M,M,M,M,M,M,M,KFSM 011750Z AUTO 07012KT 10SM CLR A3006 RMK MADISHF
FSM,2017-04-01 17:53,-94.3674,35.3366,69.10,48.90,48.53,70.00,12.00,0.00,30.06,1017.40,10.00,M,CLR,M,M,M,M,M,M,M,M,KFSM 011753Z 07012KT 10SM CLR 21/09 A3006 RMK AO2 SLP174 T02060094 10211 20117 56012
FSM,2017-04-01 17:55,-94.3674,35.3366,M,M,M,70.00,15.00,M,30.06,M,10.00,M,CLR,M,M,M,M,M,M,M,M,KFSM 011755Z AUTO 07015KT 10SM CLR A3006 RMK MADISHF
FSM,2017-04-01 18:00,-94.3674,35.3366,M,M,M,60.00,10.00,M,30.05,M,10.00,M,CLR,M,M,M,M,M,M,M,M,KFSM 011800Z AUTO 06010KT 10SM CLR A3005 RMK MADISHF
FSM,2017-04-01 18:05,-94.3674,35.3366,M,M,M,60.00,10.00,M,30.05,M,10.00,M,CLR,M,M,M,M,M,M,M,M,KFSM 011805Z AUTO 06010KT 10SM CLR A3005 RMK MADISHF
FSM,2017-04-01 18:10,-94.3674,35.3366,M,M,M,50.00,12.00,M,30.04,M,10.00,M,CLR,M,M,M,M,M,M,M,M,KFSM 011810Z AUTO 05012KT 10SM CLR A3004 RMK MADISHF
FSM,2017-04-01 18:15,-94.3674,35.3366,M,M,M,60.00,12.00,M,30.04,M,10.00,M,CLR,M,M,M,M,M,M,M,M,KFSM 011815Z AUTO 06012KT 10SM CLR A3004 RMK MADISHF
FSM,2017-04-01 18:20,-94.3674,35.3366,M,M,M,70.00,12.00,M,30.04,M,10.00,M,CLR,M,M,M,M,M,M,M,M,KFSM 011820Z AUTO 07012KT 10SM CLR A3004 RMK MADISHF
FSM,2017-04-01 18:25,-94.3674,35.3366,M,M,M,70.00,12.00,M,30.04,M,10.00,M,CLR,M,M,M,M,M,M,M,M,KFSM 011825Z AUTO 07012KT 10SM CLR A3004 RMK MADISHF
FSM,2017-04-01 18:30,-94.3674,35.3366,M,M,M,50.00,10.00,M,30.04,M,10.00,M,CLR,M,M,M,M,M,M,M,M,KFSM 011830Z AUTO 05010KT 10SM CLR A3004 RMK MADISHF
FSM,2017-04-01 18:35,-94.3674,35.3366,M,M,M,70.00,9.00,M,30.04,M,10.00,M,CLR,M,M,M,M,M,M,M,M,KFSM 011835Z AUTO 07009KT 10SM CLR A3004 RMK MADISHF
FSM,2017-04-01 18:40,-94.3674,35.3366,M,M,M,60.00,12.00,M,30.03,M,10.00,M,CLR,M,M,M,M,M,M,M,M,KFSM 011840Z AUTO 06012KT 10SM CLR A3003 RMK MADISHF
FSM,2017-04-01 18:45,-94.3674,35.3366,M,M,M,50.00,13.00,M,30.03,M,10.00,M,CLR,M,M,M,M,M,M,M,M,KFSM 011845Z AUTO 05013KT 10SM CLR A3003 RMK MADISHF
FSM,2017-04-01 18:50,-94.3674,35.3366,M,M,M,60.00,13.00,M,30.03,M,10.00,M,CLR,M,M,M,M,M,M,M,M,KFSM 011850Z AUTO 06013KT 10SM CLR A3003 RMK MADISHF
FSM,2017-04-01 18:53,-94.3674,35.3366,72.00,51.10,47.72,70.00,11.00,0.00,30.03,1016.50,10.00,M,CLR,M,M,M,M,M,M,M,M,KFSM 011853Z 07011KT 10SM CLR 22/11 A3003 RMK AO2 SLP165 T02220106
FSM,2017-04-01 18:55,-94.3674,35.3366,M,M,M,50.00,12.00,M,30.02,M,10.00,M,CLR,M,M,M,M,M,M,M,M,KFSM 011855Z AUTO 05012KT 10SM CLR A3002 RMK MADISHF
FSM,2017-04-01 19:00,-94.3674,35.3366,M,M,M,60.00,15.00,M,30.02,M,10.00,M,CLR,M,M,M,M,M,M,M,M,KFSM 011900Z AUTO 06015KT 10SM CLR A3002 RMK MADISHF
FSM,2017-04-01 19:05,-94.3674,35.3366,M,M,M,60.00,11.00,M,30.01,M,10.00,M,CLR,M,M,M,M,M,M,M,M,KFSM 011905Z AUTO 06011KT 10SM CLR A3001 RMK MADISHF
FSM,2017-04-01 19:10,-94.3674,35.3366,M,M,M,70.00,11.00,M,30.02,M,10.00,M,CLR,M,M,M,M,M,M,M,M,KFSM 011910Z AUTO 07011KT 10SM CLR A3002 RMK MADISHF
FSM,2017-04-01 19:15,-94.3674,35.3366,M,M,M,70.00,11.00,M,30.01,M,10.00,M,CLR,M,M,M,M,M,M,M,M,KFSM 011915Z AUTO 07011KT 10SM CLR A3001 RMK MADISHF
FSM,2017-04-01 19:20,-94.3674,35.3366,M,M,M,60.00,12.00,M,30.01,M,10.00,M,CLR,M,M,M,M,M,M,M,M,KFSM 011920Z AUTO 06012KT 10SM CLR A3001 RMK MADISHF
FSM,2017-04-01 19:25,-94.3674,35.3366,M,M,M,60.00,14.00,M,30.00,M,10.00,M,CLR,M,M,M,M,M,M,M,M,KFSM 011925Z AUTO 06014KT 10SM CLR A3000 RMK MADISHF
FSM,2017-04-01 19:30,-94.3674,35.3366,M,M,M,60.00,13.00,M,30.00,M,10.00,M,CLR,M,M,M,M,M,M,M,M,KFSM 011930Z AUTO 06013KT 10SM CLR A3000 RMK MADISHF
FSM,2017-04-01 19:35,-94.3674,35.3366,M,M,M,70.00,12.00,M,30.00,M,10.00,M,CLR,M,M,M,M,M,M,M,M,KFSM 011935Z AUTO 07012KT 10SM CLR A3000 RMK MADISHF
FSM,2017-04-01 19:40,-94.3674,35.3366,M,M,M,60.00,15.00,M,30.00,M,10.00,M,CLR,M,M,M,M,M,M,M,M,KFSM 011940Z AUTO 06015KT 10SM CLR A3000 RMK MADISHF
FSM,2017-04-01 19:45,-94.3674,35.3366,M,M,M,60.00,14.00,M,29.99,M,10.00,M,CLR,M,M,M,M,M,M,M,M,KFSM 011945Z AUTO 06014KT 10SM CLR A2999 RMK MADISHF
FSM,2017-04-01 19:50,-94.3674,35.3366,M,M,M,60.00,15.00,M,29.99,M,10.00,M,CLR,M,M,M,M,M,M,M,M,KFSM 011950Z AUTO 06015KT 10SM CLR A2999 RMK MADISHF
FSM,2017-04-01 19:53,-94.3674,35.3366,75.00,52.00,44.59,60.00,16.00,0.00,29.99,1015.10,10.00,M,CLR,M,M,M,M,M,M,M,M,KFSM 011953Z AUTO 06016KT 10SM CLR 24/11 A2999 RMK AO2 SLP151 T02390111
FSM,2017-04-01 19:55,-94.3674,35.3366,M,M,M,70.00,15.00,M,29.99,M,10.00,M,CLR,M,M,M,M,M,M,M,M,KFSM 011955Z AUTO 07015KT 10SM CLR A2999 RMK MADISHF
FSM,2017-04-01 20:00,-94.3674,35.3366,M,M,M,70.00,13.00,M,29.98,M,10.00,M,CLR,M,M,M,M,M,M,M,M,KFSM 012000Z AUTO 07013KT 10SM CLR A2998 RMK MADISHF
FSM,2017-04-01 20:05,-94.3674,35.3366,M,M,M,60.00,14.00,M,29.98,M,10.00,M,CLR,M,M,M,M,M,M,M,M,KFSM 012005Z AUTO 06014KT 10SM CLR A2998 RMK MADISHF
FSM,2017-04-01 20:10,-94.3674,35.3366,M,M,M,70.00,12.00,M,29.98,M,10.00,M,CLR,M,M,M,M,M,M,M,M,KFSM 012010Z AUTO 07012KT 10SM CLR A2998 RMK MADISHF
FSM,2017-04-01 20:15,-94.3674,35.3366,M,M,M,60.00,13.00,M,29.98,M,10.00,M,CLR,M,M,M,M,M,M,M,M,KFSM 012015Z AUTO 06013KT 10SM CLR A2998 RMK MADISHF
FSM,2017-04-01 20:20,-94.3674,35.3366,M,M,M,70.00,11.00,M,29.98,M,10.00,M,CLR,M,M,M,M,M,M,M,M,KFSM 012020Z AUTO 07011KT 10SM CLR A2998 RMK MADISHF
FSM,2017-04-01 20:25,-94.3674,35.3366,M,M,M,60.00,14.00,M,29.98,M,10.00,M,CLR,M,M,M,M,M,M,M,M,KFSM 012025Z AUTO 06014KT 10SM CLR A2998 RMK MADISHF
FSM,2017-04-01 20:30,-94.3674,35.3366,M,M,M,60.00,15.00,M,29.98,M,10.00,M,CLR,M,M,M,M,M,M,M,M,KFSM 012030Z AUTO 06015KT 10SM CLR A2998 RMK MADISHF
FSM,2017-04-01 20:35,-94.3674,35.3366,M,M,M,70.00,14.00,M,29.98,M,10.00,M,CLR,M,M,M,M,M,M,M,M,KFSM 012035Z AUTO 07014KT 10SM CLR A2998 RMK MADISHF
FSM,2017-04-01 20:40,-94.3674,35.3366,M,M,M,50.00,14.00,M,29.97,M,10.00,M,CLR,M,M,M,M,M,M,M,M,KFSM 012040Z AUTO 05014KT 10SM CLR A2997 RMK MADISHF
FSM,2017-04-01 20:45,-94.3674,35.3366,M,M,M,60.00,14.00,M,29.97,M,10.00,M,CLR,M,M,M,M,M,M,M,M,KFSM 012045Z AUTO 06014KT 10SM CLR A2997 RMK MADISHF
FSM,2017-04-01 20:50,-94.3674,35.3366,M,M,M,60.00,16.00,M,29.97,M,10.00,M,CLR,M,M,M,M,M,M,M,M,KFSM 012050Z AUTO 06016KT 10SM CLR A2997 RMK MADISHF
FSM,2017-04-01 20:53,-94.3674,35.3366,75.90,52.00,43.28,60.00,15.00,0.00,29.97,1014.40,10.00,M,CLR,M,M,M,M,M,M,M,M,KFSM 012053Z 06015KT 10SM CLR 24/11 A2997 RMK AO2 SLP144 T02440111 56030
FSM,2017-04-01 20:55,-94.3674,35.3366,M,M,M,60.00,14.00,M,29.97,M,10.00,M,CLR,M,M,M,M,M,M,M,M,KFSM 012055Z AUTO 06014KT 10SM CLR A2997 RMK MADISHF
FSM,2017-04-01 21:00,-94.3674,35.3366,M,M,M,70.00,14.00,M,29.96,M,10.00,M,CLR,M,M,M,M,M,M,M,M,KFSM 012100Z AUTO 07014KT 10SM CLR A2996 RMK MADISHF
FSM,2017-04-01 21:05,-94.3674,35.3366,M,M,M,60.00,12.00,M,29.96,M,10.00,17.00,CLR,M,M,M,M,M,M,M,M,KFSM 012105Z AUTO 06012G17KT 10SM CLR A2996 RMK MADISHF
FSM,2017-04-01 21:10,-94.3674,35.3366,M,M,M,70.00,13.00,M,29.96,M,10.00,M,CLR,M,M,M,M,M,M,M,M,KFSM 012110Z AUTO 07013KT 10SM CLR A2996 RMK MADISHF
FSM,2017-04-01 21:15,-94.3674,35.3366,M,M,M,70.00,16.00,M,29.96,M,10.00,M,CLR,M,M,M,M,M,M,M,M,KFSM 012115Z AUTO 07016KT 10SM CLR A2996 RMK MADISHF
FSM,2017-04-01 21:20,-94.3674,35.3366,M,M,M,70.00,13.00,M,29.96,M,10.00,M,CLR,M,M,M,M,M,M,M,M,KFSM 012120Z AUTO 07013KT 10SM CLR A2996 RMK MADISHF
FSM,2017-04-01 21:25,-94.3674,35.3366,M,M,M,70.00,12.00,M,29.96,M,10.00,M,CLR,M,M,M,M,M,M,M,M,KFSM 012125Z AUTO 07012KT 10SM CLR A2996 RMK MADISHF
FSM,2017-04-01 21:30,-94.3674,35.3366,M,M,M,M,M,M,29.95,M,10.00,M,CLR,M,M,M,M,M,M,M,M,KFSM 012130Z AUTO /////KT 10SM CLR A2995 RMK MADISHF
FSM,2017-04-01 21:35,-94.3674,35.3366,M,M,M,70.00,14.00,M,29.95,M,10.00,M,CLR,M,M,M,M,M,M,M,M,KFSM 012135Z AUTO 07014KT 10SM CLR A2995 RMK MADISHF
FSM,2017-04-01 21:40,-94.3674,35.3366,M,M,M,60.00,17.00,M,29.95,M,10.00,M,CLR,M,M,M,M,M,M,M,M,KFSM 012140Z AUTO 06017KT 10SM CLR A2995 RMK MADISHF
FSM,2017-04-01 21:45,-94.3674,35.3366,M,M,M,M,M,M,29.94,M,10.00,M,CLR,M,M,M,M,M,M,M,M,KFSM 012145Z AUTO /////KT 10SM CLR A2994 RMK MADISHF
FSM,2017-04-01 21:50,-94.3674,35.3366,M,M,M,70.00,14.00,M,29.94,M,10.00,M,CLR,M,M,M,M,M,M,M,M,KFSM 012150Z AUTO 07014KT 10SM CLR A2994 RMK MADISHF
FSM,2017-04-01 21:53,-94.3674,35.3366,73.90,52.00,46.27,70.00,16.00,0.00,29.94,1013.50,10.00,M,CLR,M,M,M,M,M,M,M,M,KFSM 012153Z 07016KT 10SM CLR 23/11 A2994 RMK AO2 SLP135 T02330111
FSM,2017-04-01 21:55,-94.3674,35.3366,M,M,M,70.00,16.00,M,29.94,M,10.00,M,CLR,M,M,M,M,M,M,M,M,KFSM 012155Z AUTO 07016KT 10SM CLR A2994 RMK MADISHF
FSM,2017-04-01 22:00,-94.3674,35.3366,M,M,M,M,M,M,29.94,M,10.00,M,CLR,M,M,M,M,M,M,M,M,KFSM 012200Z AUTO /////KT 10SM CLR A2994 RMK MADISHF
FSM,2017-04-01 22:05,-94.3674,35.3366,M,M,M,70.00,15.00,M,29.93,M,10.00,M,CLR,M,M,M,M,M,M,M,M,KFSM 012205Z AUTO 07015KT 10SM CLR A2993 RMK MADISHF
FSM,2017-04-01 22:10,-94.3674,35.3366,M,M,M,70.00,15.00,M,29.93,M,10.00,M,CLR,M,M,M,M,M,M,M,M,KFSM 012210Z AUTO 07015KT 10SM CLR A2993 RMK MADISHF
FSM,2017-04-01 22:15,-94.3674,35.3366,M,M,M,60.00,15.00,M,29.93,M,10.00,M,CLR,M,M,M,M,M,M,M,M,KFSM 012215Z AUTO 06015KT 10SM CLR A2993 RMK MADISHF
FSM,2017-04-01 22:20,-94.3674,35.3366,M,M,M,70.00,15.00,M,29.93,M,10.00,M,CLR,M,M,M,M,M,M,M,M,KFSM 012220Z AUTO 07015KT 10SM CLR A2993 RMK MADISHF
FSM,2017-04-01 22:25,-94.3674,35.3366,M,M,M,70.00,14.00,M,29.94,M,10.00,M,CLR,M,M,M,M,M,M,M,M,KFSM 012225Z AUTO 07014KT 10SM CLR A2994 RMK MADISHF
FSM,2017-04-01 22:30,-94.3674,35.3366,M,M,M,M,M,M,29.94,M,10.00,M,CLR,M,M,M,M,M,M,M,M,KFSM 012230Z AUTO /////KT 10SM CLR A2994 RMK MADISHF
FSM,2017-04-01 22:35,-94.3674,35.3366,M,M,M,M,M,M,29.94,M,10.00,M,CLR,M,M,M,M,M,M,M,M,KFSM 012235Z AUTO /////KT 10SM CLR A2994 RMK MADISHF
FSM,2017-04-01 22:40,-94.3674,35.3366,M,M,M,70.00,15.00,M,29.94,M,10.00,M,CLR,M,M,M,M,M,M,M,M,KFSM 012240Z AUTO 07015KT 10SM CLR A2994 RMK MADISHF
FSM,2017-04-01 22:45,-94.3674,35.3366,M,M,M,M,M,M,29.94,M,10.00,M,CLR,M,M,M,M,M,M,M,M,KFSM 012245Z AUTO /////KT 10SM CLR A2994 RMK MADISHF
FSM,2017-04-01 22:50,-94.3674,35.3366,M,M,M,70.00,12.00,M,29.94,M,10.00,M,CLR,M,M,M,M,M,M,M,M,KFSM 012250Z AUTO 07012KT 10SM CLR A2994 RMK MADISHF
FSM,2017-04-01 22:53,-94.3674,35.3366,72.00,53.10,51.37,70.00,12.00,0.00,29.95,1013.80,10.00,M,CLR,M,M,M,M,M,M,M,M,KFSM 012253Z 07012KT 10SM CLR 22/12 A2995 RMK AO2 SLP138 T02220117
FSM,2017-04-01 22:55,-94.3674,35.3366,M,M,M,70.00,13.00,M,29.95,M,10.00,M,CLR,M,M,M,M,M,M,M,M,KFSM 012255Z AUTO 07013KT 10SM CLR A2995 RMK MADISHF
FSM,2017-04-01 23:00,-94.3674,35.3366,M,M,M,70.00,12.00,M,29.95,M,10.00,M,CLR,M,M,M,M,M,M,M,M,KFSM 012300Z AUTO 07012KT 10SM CLR A2995 RMK MADISHF
FSM,2017-04-01 23:05,-94.3674,35.3366,M,M,M,60.00,14.00,M,29.95,M,10.00,M,CLR,M,M,M,M,M,M,M,M,KFSM 012305Z AUTO 06014KT 10SM CLR A2995 RMK MADISHF
FSM,2017-04-01 23:10,-94.3674,35.3366,M,M,M,70.00,14.00,M,29.95,M,10.00,M,CLR,M,M,M,M,M,M,M,M,KFSM 012310Z AUTO 07014KT 10SM CLR A2995 RMK MADISHF
FSM,2017-04-01 23:15,-94.3674,35.3366,M,M,M,70.00,13.00,M,29.95,M,10.00,M,CLR,M,M,M,M,M,M,M,M,KFSM 012315Z AUTO 07013KT 10SM CLR A2995 RMK MADISHF
FSM,2017-04-01 23:20,-94.3674,35.3366,M,M,M,70.00,13.00,M,29.96,M,10.00,M,CLR,M,M,M,M,M,M,M,M,KFSM 012320Z AUTO 07013KT 10SM CLR A2996 RMK MADISHF
FSM,2017-04-01 23:25,-94.3674,35.3366,M,M,M,70.00,16.00,M,29.96,M,10.00,M,CLR,M,M,M,M,M,M,M,M,KFSM 012325Z AUTO 07016KT 10SM CLR A2996 RMK MADISHF
FSM,2017-04-01 23:30,-94.3674,35.3366,M,M,M,80.00,14.00,M,29.96,M,10.00,19.00,CLR,M,M,M,M,M,M,M,M,KFSM 012330Z AUTO 08014G19KT 10SM CLR A2996 RMK MADISHF
FSM,2017-04-01 23:35,-94.3674,35.3366,M,M,M,M,M,M,29.96,M,10.00,M,CLR,M,M,M,M,M,M,M,M,KFSM 012335Z AUTO /////KT 10SM CLR A2996 RMK MADISHF
FSM,2017-04-01 23:40,-94.3674,35.3366,M,M,M,70.00,11.00,M,29.96,M,10.00,M,CLR,M,M,M,M,M,M,M,M,KFSM 012340Z AUTO 07011KT 10SM CLR A2996 RMK MADISHF
FSM,2017-04-01 23:45,-94.3674,35.3366,M,M,M,70.00,12.00,M,29.97,M,10.00,M,CLR,M,M,M,M,M,M,M,M,KFSM 012345Z AUTO 07012KT 10SM CLR A2997 RMK MADISHF
FSM,2017-04-01 23:50,-94.3674,35.3366,M,M,M,70.00,11.00,M,29.97,M,10.00,M,CLR,M,M,M,M,M,M,M,M,KFSM 012350Z AUTO 07011KT 10SM CLR A2997 RMK MADISHF
FSM,2017-04-01 23:53,-94.3674,35.3366,70.00,52.00,52.80,60.00,12.00,0.00,29.97,1014.70,10.00,M,CLR,M,M,M,M,M,M,M,M,KFSM 012353Z 06012KT 10SM CLR 21/11 A2997 RMK AO2 SLP147 T02110111 10244 20211 53002
FSM,2017-04-01 23:55,-94.3674,35.3366,M,M,M,70.00,13.00,M,29.97,M,10.00,M,CLR,M,M,M,M,M,M,M,M,KFSM 012355Z AUTO 07013KT 10SM CLR A2997 RMK MADISHF
