#DEBUG: Format Typ    -> comma
#DEBUG: Time Period   -> 2017-04-01 00:00:00+00:00 2017-04-02 00:00:00+00:00
#DEBUG: Time Zone     -> Etc/UTC
#DEBUG: Data Contact   -> daryl herzmann akrherz@iastate.edu 515-294-5978
#DEBUG: Entries Found -> -1
station,valid,lon,lat,tmpf, dwpf, relh, drct, sknt, p01i, alti, mslp, vsby, gust, skyc1, skyc2, skyc3, skyc4, skyl1, skyl2, skyl3, skyl4, presentwx, metar
FSO,2017-04-01 00:15,-73.0975,44.9403,32.20,32.00,99.20,90.00,3.00,0.00,29.99,M,3.00,M,OVC,M,M,M,900.00,M,M,M,-SN,KFSO 010015Z AUTO 09003KT 3SM -SN OVC009 00/00 A2999 RMK AO2 T00010000
FSO,2017-04-01 00:35,-73.0975,44.9403,32.00,32.00,100.00,0.00,0.00,0.00,29.99,M,2.50,M,OVC,M,M,M,700.00,M,M,M,-SN,KFSO 010035Z AUTO 00000KT 2 1/2SM -SN OVC007 00/00 A2999 RMK AO2 VIS 2V3 T00000000
FSO,2017-04-01 00:55,-73.0975,44.9403,32.00,32.00,100.00,0.00,0.00,0.00,29.99,M,2.00,M,OVC,M,M,M,500.00,M,M,M,-SN,KFSO 010055Z AUTO 00000KT 2SM -SN OVC005 00/00 A2999 RMK AO2 T00000000
FSO,2017-04-01 01:15,-73.0975,44.9403,32.00,32.00,100.00,0.00,0.00,0.00,29.99,M,2.00,M,OVC,M,M,M,700.00,M,M,M,-SN,KFSO 010115Z AUTO 00000KT 2SM -SN OVC007 00/00 A2999 RMK AO2 T00000000
FSO,2017-04-01 01:35,-73.0975,44.9403,32.00,32.00,100.00,70.00,3.00,0.00,29.99,M,3.00,M,OVC,M,M,M,900.00,M,M,M,-SN,KFSO 010135Z AUTO 07003KT 3SM -SN OVC009 00/00 A2999 RMK AO2 T00000000
FSO,2017-04-01 01:55,-73.0975,44.9403,32.00,32.00,100.00,90.00,4.00,0.00,29.98,M,4.00,M,OVC,M,M,M,1100.00,M,M,M,-SN,KFSO 010155Z AUTO 09004KT 4SM -SN OVC011 00/00 A2998 RMK AO2 T00000000
FSO,2017-04-01 02:15,-73.0975,44.9403,32.00,32.00,100.00,80.00,4.00,0.00,29.97,M,4.00,M,OVC,M,M,M,1100.00,M,M,M,-SN,KFSO 010215Z AUTO 08004KT 4SM -SN OVC011 00/00 A2997 RMK AO2 T00000000
FSO,2017-04-01 02:35,-73.0975,44.9403,32.00,32.00,100.00,60.00,3.00,0.00,29.96,M,5.00,M,BKN,OVC,M,M,1300.00,1800.00,M,M,-SN,KFSO 010235Z AUTO 06003KT 5SM -SN BKN013 OVC018 00/00 A2996 RMK AO2 T00000000
FSO,2017-04-01 02:55,-73.0975,44.9403,32.00,32.00,100.00,80.00,3.00,0.00,29.95,M,7.00,M,SCT,SCT,OVC,M,1300.00,2000.00,4300.00,M,-SN,KFSO 010255Z AUTO 08003KT 7SM -SN SCT013 SCT020 OVC043 00/00 A2995 RMK AO2 T00000000
FSO,2017-04-01 03:15,-73.0975,44.9403,32.20,32.00,99.20,80.00,3.00,0.00,29.95,M,7.00,M,SCT,OVC,M,M,2400.00,4100.00,M,M,UP,KFSO 010315Z AUTO 08003KT 7SM UP SCT024 OVC041 00/00 A2995 RMK AO2 T00010000
FSO,2017-04-01 03:35,-73.0975,44.9403,32.00,32.00,100.00,70.00,3.00,0.00,29.95,M,7.00,M,OVC,M,M,M,4100.00,M,M,M,UP,KFSO 010335Z AUTO 07003KT 7SM UP OVC041 00/00 A2995 RMK AO2 T00000000
FSO,2017-04-01 03:55,-73.0975,44.9403,32.00,32.00,100.00,0.00,0.00,0.00,29.95,M,5.00,M,BKN,BKN,OVC,M,1500.00,2200.00,4300.00,M,-SN,KFSO 010355Z AUTO 00000KT 5SM -SN BKN015 BKN022 OVC043 00/00 A2995 RMK AO2 T00000000
FSO,2017-04-01 04:15,-73.0975,44.9403,32.20,32.00,99.20,0.00,0.00,0.00,29.94,M,4.00,M,OVC,M,M,M,1300.00,M,M,M,-SN,KFSO 010415Z AUTO 00000KT 4SM -SN OVC013 00/00 A2994 RMK AO2 T00010000
FSO,2017-04-01 04:35,-73.0975,44.9403,32.20,32.00,99.20,100.00,3.00,0.00,29.94,M,4.00,M,OVC,M,M,M,1300.00,M,M,M,-SN,KFSO 010435Z AUTO 10003KT 4SM -SN OVC013 00/00 A2994 RMK AO2 T00010000
FSO,2017-04-01 04:55,-73.0975,44.9403,32.20,32.00,99.20,0.00,0.00,0.00,29.94,M,3.00,M,OVC,M,M,M,1300.00,M,M,M,-SN,KFSO 010455Z AUTO 00000KT 3SM -SN OVC013 00/00 A2994 RMK AO2 T00010000 400471010
FSO,2017-04-01 05:15,-73.0975,44.9403,32.00,32.00,100.00,0.00,0.00,0.00,29.93,M,3.00,M,OVC,M,M,M,1300.00,M,M,M,-SN,KFSO 010515Z AUTO 00000KT 3SM -SN OVC013 00/00 A2993 RMK AO2 T00000000
FSO,2017-04-01 05:35,-73.0975,44.9403,32.00,32.00,100.00,0.00,0.00,0.00,29.93,M,2.50,M,OVC,M,M,M,1100.00,M,M,M,-SN,KFSO 010535Z AUTO 00000KT 2 1/2SM -SN OVC011 00/00 A2993 RMK AO2 T00000000
FSO,2017-04-01 05:55,-73.0975,44.9403,32.00,32.00,100.00,0.00,0.00,0.00,29.93,M,3.00,M,OVC,M,M,M,1300.00,M,M,M,-SN,KFSO 010555Z AUTO 00000KT 3SM -SN OVC013 00/00 A2993 RMK AO2 T00000000 10001 20000
FSO,2017-04-01 06:15,-73.0975,44.9403,32.00,32.00,100.00,0.00,0.00,0.00,29.93,M,3.00,M,SCT,BKN,OVC,M,1200.00,1800.00,3900.00,M,-SN,KFSO 010615Z AUTO 00000KT 3SM -SN SCT012 BKN018 OVC039 00/00 A2993 RMK AO2 T00000000
FSO,2017-04-01 06:35,-73.0975,44.9403,32.00,32.00,100.00,0.00,0.00,0.00,29.93,M,5.00,M,SCT,OVC,M,M,1900.00,3700.00,M,M,-SN,KFSO 010635Z AUTO 00000KT 5SM -SN SCT019 OVC037 00/00 A2993 RMK AO2 T00000000
FSO,2017-04-01 06:55,-73.0975,44.9403,32.00,32.00,100.00,0.00,0.00,0.00,29.92,M,7.00,M,BKN,BKN,OVC,M,3500.00,5000.00,6500.00,M,UP,KFSO 010655Z AUTO 00000KT 7SM UP BKN035 BKN050 OVC065 00/00 A2992 RMK AO2 T00000000
FSO,2017-04-01 07:15,-73.0975,44.9403,32.00,32.00,100.00,0.00,0.00,0.00,29.92,M,4.00,M,SCT,BKN,OVC,M,1800.00,2800.00,6500.00,M,-SN,KFSO 010715Z AUTO 00000KT 4SM -SN SCT018 BKN028 OVC065 00/00 A2992 RMK AO2 T00000000
FSO,2017-04-01 07:35,-73.0975,44.9403,32.00,32.00,100.00,0.00,0.00,0.00,29.92,M,1.75,M,OVC,M,M,M,700.00,M,M,M,-SN,KFSO 010735Z AUTO 00000KT 1 3/4SM -SN OVC007 00/00 A2992 RMK AO2 T00000000
FSO,2017-04-01 07:55,-73.0975,44.9403,32.00,32.00,100.00,0.00,0.00,0.00,29.92,M,2.50,M,OVC,M,M,M,900.00,M,M,M,-SN,KFSO 010755Z AUTO 00000KT 2 1/2SM -SN OVC009 00/00 A2992 RMK AO2 T00000000
FSO,2017-04-01 08:15,-73.0975,44.9403,32.00,32.00,100.00,0.00,0.00,0.00,29.92,M,2.00,M,OVC,M,M,M,900.00,M,M,M,-SN,KFSO 010815Z AUTO 00000KT 2SM -SN OVC009 00/00 A2992 RMK AO2 T00000000
FSO,2017-04-01 08:35,-73.0975,44.9403,32.00,32.00,100.00,0.00,0.00,0.00,29.92,M,2.00,M,OVC,M,M,M,1100.00,M,M,M,-SN,KFSO 010835Z AUTO 00000KT 2SM -SN OVC011 00/00 A2992 RMK AO2 T00000000
FSO,2017-04-01 08:55,-73.0975,44.9403,32.00,32.00,100.00,0.00,0.00,0.00,29.92,M,1.75,M,OVC,M,M,M,900.00,M,M,M,-SN,KFSO 010855Z AUTO 00000KT 1 3/4SM -SN OVC009 00/00 A2992 RMK AO2 T00000000
FSO,2017-04-01 09:15,-73.0975,44.9403,32.00,32.00,100.00,40.00,3.00,0.00,29.93,M,2.00,M,OVC,M,M,M,900.00,M,M,M,-SN,KFSO 010915Z AUTO 04003KT 2SM -SN OVC009 00/00 A2993 RMK AO2 T00000000
FSO,2017-04-01 09:35,-73.0975,44.9403,32.00,32.00,100.00,0.00,0.00,0.00,29.93,M,2.00,M,SCT,OVC,M,M,300.00,900.00,M,M,-SN,KFSO 010935Z AUTO 00000KT 2SM -SN SCT003 OVC009 00/00 A2993 RMK AO2 T00000000
FSO,2017-04-01 09:55,-73.0975,44.9403,32.00,32.00,100.00,0.00,0.00,0.00,29.94,M,2.00,M,SCT,OVC,M,M,300.00,900.00,M,M,-SN,KFSO 010955Z AUTO 00000KT 2SM -SN SCT003 OVC009 00/00 A2994 RMK AO2 VIS 1 1/2V3 T00000000
FSO,2017-04-01 10:15,-73.0975,44.9403,32.00,32.00,100.00,0.00,0.00,0.00,29.94,M,2.00,M,SCT,OVC,M,M,200.00,1100.00,M,M,-SN,KFSO 011015Z AUTO 00000KT 2SM -SN SCT002 OVC011 00/00 A2994 RMK AO2 T00000000
FSO,2017-04-01 10:35,-73.0975,44.9403,32.00,32.00,100.00,0.00,0.00,0.00,29.95,M,1.25,M,OVC,M,M,M,600.00,M,M,M,-SN,KFSO 011035Z AUTO 00000KT 1 1/4SM -SN OVC006 00/00 A2995 RMK AO2 T00000000
FSO,2017-04-01 10:55,-73.0975,44.9403,32.00,32.00,100.00,0.00,0.00,0.00,29.95,M,0.75,M,OVC,M,M,M,600.00,M,M,M,-SN,KFSO 011055Z AUTO 00000KT 3/4SM -SN OVC006 00/00 A2995 RMK AO2 T00000000
FSO,2017-04-01 11:15,-73.0975,44.9403,32.00,32.00,100.00,0.00,0.00,0.00,29.95,M,1.00,M,OVC,M,M,M,600.00,M,M,M,-SN,KFSO 011115Z AUTO 00000KT 1SM -SN OVC006 00/00 A2995 RMK AO2 T00000000
FSO,2017-04-01 11:35,-73.0975,44.9403,32.00,32.00,100.00,0.00,0.00,0.00,29.96,M,1.00,M,SCT,OVC,M,M,300.00,800.00,M,M,-SN,KFSO 011135Z AUTO 00000KT 1SM -SN SCT003 OVC008 00/00 A2996 RMK AO2 T00000000
FSO,2017-04-01 11:55,-73.0975,44.9403,32.00,32.00,100.00,0.00,0.00,0.00,29.96,M,0.75,M,OVC,M,M,M,600.00,M,M,M,-SN,KFSO 011155Z AUTO 00000KT 3/4SM -SN OVC006 00/00 A2996 RMK AO2 T00000000 10000 20000
FSO,2017-04-01 12:15,-73.0975,44.9403,32.00,32.00,100.00,0.00,0.00,0.00,29.97,M,1.00,M,OVC,M,M,M,600.00,M,M,M,-SN,KFSO 011215Z AUTO 00000KT 1SM -SN OVC006 00/00 A2997 RMK AO2 T00000000
FSO,2017-04-01 12:35,-73.0975,44.9403,32.00,32.00,100.00,0.00,0.00,0.00,29.97,M,0.75,M,OVC,M,M,M,400.00,M,M,M,-SN,KFSO 011235Z AUTO 00000KT 3/4SM -SN OVC004 00/00 A2997 RMK AO2 T00000000
FSO,2017-04-01 12:55,-73.0975,44.9403,32.00,32.00,100.00,0.00,0.00,0.00,29.97,M,0.75,M,OVC,M,M,M,600.00,M,M,M,-SN,KFSO 011255Z AUTO 00000KT 3/4SM -SN OVC006 00/00 A2997 RMK AO2 T00000000
FSO,2017-04-01 13:15,-73.0975,44.9403,32.00,32.00,100.00,0.00,0.00,0.00,29.97,M,0.75,M,OVC,M,M,M,600.00,M,M,M,-SN,KFSO 011315Z AUTO 00000KT 3/4SM -SN OVC006 00/00 A2997 RMK AO2 T00000000
FSO,2017-04-01 13:35,-73.0975,44.9403,32.00,32.00,100.00,0.00,0.00,0.00,29.97,M,1.00,M,OVC,M,M,M,600.00,M,M,M,-SN,KFSO 011335Z AUTO 00000KT 1SM -SN OVC006 00/00 A2997 RMK AO2 T00000000
FSO,2017-04-01 13:55,-73.0975,44.9403,32.00,32.00,100.00,0.00,0.00,0.00,29.98,M,1.25,M,OVC,M,M,M,800.00,M,M,M,-SN,KFSO 011355Z AUTO 00000KT 1 1/4SM -SN OVC008 00/00 A2998 RMK AO2 T00000000
FSO,2017-04-01 14:15,-73.0975,44.9403,32.50,32.40,99.60,0.00,0.00,0.00,29.98,M,2.00,M,OVC,M,M,M,1000.00,M,M,M,-SN,KFSO 011415Z AUTO 00000KT 2SM -SN OVC010 00/00 A2998 RMK AO2 T00030002
FSO,2017-04-01 14:35,-73.0975,44.9403,32.90,32.40,98.01,0.00,0.00,0.00,29.99,M,2.50,M,OVC,M,M,M,1000.00,M,M,M,-SN,KFSO 011435Z AUTO 00000KT 2 1/2SM -SN OVC010 01/00 A2999 RMK AO2 T00050002
FSO,2017-04-01 14:55,-73.0975,44.9403,33.10,32.50,97.62,70.00,3.00,0.00,29.99,M,3.00,M,OVC,M,M,M,1200.00,M,M,M,-SN,KFSO 011455Z AUTO 07003KT 3SM -SN OVC012 01/00 A2999 RMK AO2 T00060003
FSO,2017-04-01 15:15,-73.0975,44.9403,34.00,32.90,95.69,70.00,3.00,0.00,29.99,M,7.00,M,SCT,OVC,M,M,1400.00,2200.00,M,M,UP,KFSO 011515Z AUTO 07003KT 7SM UP SCT014 OVC022 01/01 A2999 RMK AO2 T00110005
FSO,2017-04-01 15:35,-73.0975,44.9403,34.70,33.30,94.56,80.00,4.00,0.00,29.99,M,7.00,M,SCT,BKN,OVC,M,300.00,1800.00,3000.00,M,UP,KFSO 011535Z AUTO 08004KT 7SM UP SCT003 BKN018 OVC030 02/01 A2999 RMK AO2 T00150007
FSO,2017-04-01 15:55,-73.0975,44.9403,34.90,33.30,93.81,80.00,3.00,0.00,29.99,M,10.00,M,SCT,BKN,OVC,M,300.00,1800.00,2400.00,M,UP,KFSO 011555Z AUTO 08003KT 10SM UP SCT003 BKN018 OVC024 02/01 A2999 RMK AO2 T00160007
FSO,2017-04-01 16:15,-73.0975,44.9403,34.90,33.30,93.81,70.00,6.00,0.00,29.98,M,10.00,M,BKN,OVC,M,M,2100.00,2500.00,M,M,UP,KFSO 011615Z AUTO 07006KT 10SM UP BKN021 OVC025 02/01 A2998 RMK AO2 T00160007
FSO,2017-04-01 16:35,-73.0975,44.9403,35.60,33.40,91.60,80.00,4.00,0.00,29.98,M,10.00,M,SCT,SCT,OVC,M,600.00,2000.00,2600.00,M,M,KFSO 011635Z AUTO 08004KT 10SM SCT006 SCT020 OVC026 02/01 A2998 RMK AO2 T00200008
FSO,2017-04-01 16:55,-73.0975,44.9403,35.20,33.30,92.70,80.00,4.00,0.00,29.98,M,10.00,M,BKN,BKN,OVC,M,600.00,2400.00,3200.00,M,M,KFSO 011655Z AUTO 08004KT 10SM BKN006 BKN024 OVC032 02/01 A2998 RMK AO2 T00180007
FSO,2017-04-01 17:15,-73.0975,44.9403,35.60,33.30,91.24,70.00,4.00,0.00,29.97,M,10.00,M,BKN,BKN,OVC,M,600.00,2900.00,6000.00,M,M,KFSO 011715Z AUTO 07004KT 10SM BKN006 BKN029 OVC060 02/01 A2997 RMK AO2 T00200007
FSO,2017-04-01 17:35,-73.0975,44.9403,36.30,33.30,88.74,60.00,3.00,0.00,29.97,M,10.00,M,SCT,OVC,M,M,800.00,6000.00,M,M,M,KFSO 011735Z AUTO 06003KT 10SM SCT008 OVC060 02/01 A2997 RMK AO2 T00240007
FSO,2017-04-01 17:55,-73.0975,44.9403,36.70,33.30,87.35,70.00,3.00,0.00,29.97,M,10.00,M,SCT,SCT,OVC,M,800.00,3900.00,6000.00,M,M,KFSO 011755Z AUTO 07003KT 10SM SCT008 SCT039 OVC060 03/01 A2997 RMK AO2 T00260007 10026 20000
FSO,2017-04-01 18:15,-73.0975,44.9403,36.90,33.10,85.97,70.00,3.00,0.00,29.97,M,10.00,M,SCT,BKN,OVC,M,800.00,3900.00,6000.00,M,M,KFSO 011815Z AUTO 07003KT 10SM SCT008 BKN039 OVC060 03/01 A2997 RMK AO2 T00270006
FSO,2017-04-01 18:35,-73.0975,44.9403,36.50,32.90,86.64,40.00,3.00,0.00,29.97,M,10.00,M,SCT,SCT,OVC,M,1100.00,3900.00,5000.00,M,M,KFSO 011835Z AUTO 04003KT 10SM SCT011 SCT039 OVC050 03/01 A2997 RMK AO2 T00250005
FSO,2017-04-01 18:55,-73.0975,44.9403,37.00,32.90,84.95,0.00,0.00,0.00,29.97,M,10.00,M,SCT,SCT,OVC,M,1100.00,4500.00,5000.00,M,M,KFSO 011855Z AUTO 00000KT 10SM SCT011 SCT045 OVC050 03/01 A2997 RMK AO2 T00280005
FSO,2017-04-01 19:15,-73.0975,44.9403,36.50,32.90,86.64,340.00,3.00,0.00,29.98,M,10.00,M,SCT,BKN,OVC,M,1500.00,4300.00,5000.00,M,M,KFSO 011915Z AUTO 34003KT 10SM SCT015 BKN043 OVC050 03/01 A2998 RMK AO2 T00250005
FSO,2017-04-01 19:35,-73.0975,44.9403,36.30,33.30,88.74,350.00,4.00,0.00,29.98,M,10.00,M,OVC,M,M,M,1300.00,M,M,M,M,KFSO 011935Z AUTO 35004KT 10SM OVC013 02/01 A2998 RMK AO2 T00240007
FSO,2017-04-01 19:55,-73.0975,44.9403,36.10,33.80,91.26,330.00,3.00,0.00,29.98,M,5.00,M,OVC,M,M,M,1300.00,M,M,M,BR,KFSO 011955Z AUTO 33003KT 5SM BR OVC013 02/01 A2998 RMK AO2 T00230010
FSO,2017-04-01 20:15,-73.0975,44.9403,36.50,34.50,92.37,0.00,0.00,0.00,29.98,M,5.00,M,BKN,OVC,M,M,700.00,1300.00,M,M,BR,KFSO 012015Z AUTO 00000KT 5SM BR BKN007 OVC013 03/01 A2998 RMK AO2 T00250014
FSO,2017-04-01 20:35,-73.0975,44.9403,36.00,33.80,91.62,360.00,5.00,0.00,29.99,M,10.00,M,BKN,BKN,OVC,M,700.00,1000.00,2000.00,M,M,KFSO 012035Z AUTO 36005KT 10SM BKN007 BKN010 OVC020 02/01 A2999 RMK AO2 T00220010
FSO,2017-04-01 20:55,-73.0975,44.9403,35.60,33.80,93.08,350.00,6.00,0.00,30.00,M,7.00,M,SCT,BKN,OVC,M,700.00,1500.00,2400.00,M,M,KFSO 012055Z AUTO 35006KT 7SM SCT007 BKN015 OVC024 02/01 A3000 RMK AO2 T00200010
FSO,2017-04-01 21:15,-73.0975,44.9403,35.20,33.80,94.57,360.00,6.00,0.00,30.00,M,5.00,M,SCT,OVC,M,M,1700.00,2400.00,M,M,UP,KFSO 012115Z AUTO 36006KT 5SM UP SCT017 OVC024 02/01 A3000 RMK AO2 T00180010
FSO,2017-04-01 21:35,-73.0975,44.9403,35.10,33.80,94.95,360.00,5.00,0.00,30.00,M,7.00,M,SCT,OVC,M,M,1400.00,2200.00,M,M,UP,KFSO 012135Z AUTO 36005KT 7SM UP SCT014 OVC022 02/01 A3000 RMK AO2 T00170010
FSO,2017-04-01 21:55,-73.0975,44.9403,34.70,33.30,94.56,340.00,4.00,0.00,30.01,M,10.00,M,SCT,OVC,M,M,1800.00,2500.00,M,M,UP,KFSO 012155Z AUTO 34004KT 10SM UP SCT018 OVC025 02/01 A3001 RMK AO2 T00150007
FSO,2017-04-01 22:15,-73.0975,44.9403,34.70,33.40,94.94,350.00,4.00,0.00,30.02,M,10.00,M,SCT,BKN,OVC,M,400.00,2200.00,2800.00,M,UP,KFSO 012215Z AUTO 35004KT 10SM UP SCT004 BKN022 OVC028 02/01 A3002 RMK AO2 T00150008
FSO,2017-04-01 22:35,-73.0975,44.9403,34.20,33.40,96.85,340.00,4.00,0.00,30.01,M,10.00,M,BKN,BKN,OVC,M,600.00,2300.00,2800.00,M,M,KFSO 012235Z AUTO 34004KT 10SM BKN006 BKN023 OVC028 01/01 A3001 RMK AO2 T00120008
FSO,2017-04-01 22:55,-73.0975,44.9403,34.00,33.40,97.63,350.00,3.00,0.00,30.01,M,10.00,M,OVC,M,M,M,600.00,M,M,M,UP,KFSO 012255Z AUTO 35003KT 10SM UP OVC006 01/01 A3001 RMK AO2 T00110008
FSO,2017-04-01 23:15,-73.0975,44.9403,34.00,33.40,97.63,0.00,0.00,0.00,30.01,M,10.00,M,OVC,M,M,M,600.00,M,M,M,M,KFSO 012315Z AUTO 00000KT 10SM OVC006 01/01 A3001 RMK AO2 T00110008
FSO,2017-04-01 23:35,-73.0975,44.9403,33.80,33.30,98.02,320.00,3.00,0.00,30.02,M,10.00,M,OVC,M,M,M,600.00,M,M,M,M,KFSO 012335Z AUTO 32003KT 10SM OVC006 01/01 A3002 RMK AO2 T00100007
FSO,2017-04-01 23:55,-73.0975,44.9403,33.30,33.10,99.20,0.00,0.00,0.00,30.02,M,10.00,M,BKN,OVC,M,M,600.00,900.00,M,M,M,KFSO 012355Z AUTO 00000KT 10SM BKN006 OVC009 01/01 A3002 RMK AO2 T00070006 10028 20007
