#DEBUG: Format Typ    -> comma
#DEBUG: Time Period   -> 2017-04-01 00:00:00+00:00 2017-04-02 00:00:00+00:00
#DEBUG: Time Zone     -> Etc/UTC
#DEBUG: Data Contact   -> daryl herzmann akrherz@iastate.edu 515-294-5978
#DEBUG: Entries Found -> -1
station,valid,lon,lat,tmpf, dwpf, relh, drct, sknt, p01i, alti, mslp, vsby, gust, skyc1, skyc2, skyc3, skyc4, skyl1, skyl2, skyl3, skyl4, presentwx, metar
FTK,2017-04-01 00:03,-85.9721,37.9071,46.40,46.40,100.00,260.00,7.00,0.00,29.91,M,10.00,M,OVC,M,M,M,700.00,M,M,M,M,KFTK 010003Z AUTO 26007KT 10SM OVC007 08/08 A2991 RMK AO2
FTK,2017-04-01 00:23,-85.9721,37.9071,46.40,44.60,93.40,270.00,11.00,0.00,29.91,M,10.00,M,OVC,M,M,M,800.00,M,M,M,M,KFTK 010023Z AUTO 27011KT 10SM OVC008 08/07 A2991 RMK AO2
FTK,2017-04-01 00:49,-85.9721,37.9071,46.40,44.60,93.40,290.00,7.00,0.00,29.92,M,10.00,M,OVC,M,M,M,1000.00,M,M,M,M,KFTK 010049Z AUTO 29007KT 10SM OVC010 08/07 A2992 RMK AO2
FTK,2017-04-01 00:58,-85.9721,37.9071,46.60,43.90,90.25,280.00,9.00,0.00,29.92,1013.60,10.00,M,OVC,M,M,M,1000.00,M,M,M,M,KFTK 010058Z AUTO 28009KT 10SM OVC010 08/07 A2992 RMK AO2 SLP136 T00810066
FTK,2017-04-01 01:26,-85.9721,37.9071,46.40,42.80,87.19,280.00,9.00,0.00,29.94,M,10.00,M,OVC,M,M,M,1100.00,M,M,M,M,KFTK 010126Z AUTO 28009KT 10SM OVC011 08/06 A2994 RMK AO2
FTK,2017-04-01 01:58,-85.9721,37.9071,46.00,42.60,87.84,290.00,7.00,0.00,29.95,1014.60,10.00,M,OVC,M,M,M,1100.00,M,M,M,M,KFTK 010158Z AUTO 29007KT 10SM OVC011 08/06 A2995 RMK AO2 SLP146 T00780059
FTK,2017-04-01 02:53,-85.9721,37.9071,46.40,42.80,87.19,280.00,6.00,0.00,29.97,M,10.00,M,OVC,M,M,M,1000.00,M,M,M,M,KFTK 010253Z AUTO 28006KT 10SM OVC010 08/06 A2997 RMK AO2
FTK,2017-04-01 02:58,-85.9721,37.9071,45.70,42.40,88.16,270.00,7.00,0.00,29.96,1014.90,10.00,M,OVC,M,M,M,1000.00,M,M,M,M,KFTK 010258Z AUTO 27007KT 10SM OVC010 08/06 A2996 RMK AO2 SLP149 T00760058
FTK,2017-04-01 03:25,-85.9721,37.9071,46.40,42.80,87.19,290.00,6.00,0.00,29.98,M,10.00,M,OVC,M,M,M,1100.00,M,M,M,M,KFTK 010325Z AUTO 29006KT 10SM OVC011 08/06 A2998 RMK AO2
FTK,2017-04-01 04:58,-85.9721,37.9071,44.60,40.60,85.75,290.00,10.00,0.00,30.00,1016.30,10.00,M,OVC,M,M,M,1300.00,M,M,M,M,KFTK 010458Z AUTO 29010KT 10SM OVC013 07/05 A3000 RMK AO2 SLP163 T00700048 401430070
FTK,2017-04-01 05:58,-85.9721,37.9071,44.20,40.80,87.75,310.00,7.00,0.00,30.01,1016.60,10.00,M,OVC,M,M,M,1100.00,M,M,M,M,KFTK 010558Z AUTO 31007KT 10SM OVC011 07/05 A3001 RMK AO2 SLP166 T00680049 10082 20068
FTK,2017-04-01 06:32,-85.9721,37.9071,44.60,41.00,87.09,290.00,8.00,0.00,30.03,M,10.00,M,OVC,M,M,M,1200.00,M,M,M,M,KFTK 010632Z AUTO 29008KT 10SM OVC012 07/05 A3003 RMK AO2 OVC V BKN
FTK,2017-04-01 06:42,-85.9721,37.9071,44.60,41.00,87.09,300.00,9.00,0.00,30.02,M,9.00,M,BKN,OVC,M,M,900.00,1400.00,M,M,M,KFTK 010642Z AUTO 30009KT 9SM R18/5500FT BKN009 OVC014 07/05 A3002 RMK AO2 CIG 009V012
FTK,2017-04-01 06:44,-85.9721,37.9071,42.80,41.00,93.30,300.00,8.00,0.00,30.02,M,8.00,M,BKN,OVC,M,M,900.00,1400.00,M,M,UP,KFTK 010644Z AUTO 30008KT 8SM R18/5500FT UP BKN009 OVC014 06/05 A3002 RMK AO2 UPB44 CIG 009V012
FTK,2017-04-01 06:58,-85.9721,37.9071,42.80,41.00,93.30,300.00,7.00,0.00,30.02,1017.00,9.00,M,BKN,BKN,OVC,M,700.00,1200.00,1700.00,M,M,KFTK 010658Z AUTO 30007KT 9SM R18/5500FT BKN007 BKN012 OVC017 06/05 A3002 RMK AO2 UPB44E55 CIG 006V008 SLP170 P0000
FTK,2017-04-01 07:08,-85.9721,37.9071,42.80,41.00,93.30,300.00,7.00,0.00,30.02,M,10.00,M,SCT,OVC,M,M,700.00,1700.00,M,M,M,KFTK 010708Z AUTO 30007KT 10SM SCT007 OVC017 06/05 A3002 RMK AO2 CIG 007V017
FTK,2017-04-01 07:13,-85.9721,37.9071,42.80,41.00,93.30,300.00,6.00,0.00,30.02,M,10.00,M,SCT,BKN,OVC,M,700.00,1200.00,1700.00,M,M,KFTK 010713Z AUTO 30006KT 10SM SCT007 BKN012 OVC017 06/05 A3002 RMK AO2 CIG 007V017
FTK,2017-04-01 07:18,-85.9721,37.9071,42.80,41.00,93.30,320.00,8.00,0.00,30.03,M,10.00,M,SCT,OVC,M,M,1000.00,1800.00,M,M,M,KFTK 010718Z AUTO 32008KT 10SM SCT010 OVC018 06/05 A3003 RMK AO2 CIG 012V018
FTK,2017-04-01 07:58,-85.9721,37.9071,42.80,39.20,86.99,300.00,6.00,0.00,30.03,1017.40,10.00,M,FEW,OVC,M,M,1200.00,2000.00,M,M,M,KFTK 010758Z AUTO 30006KT 10SM FEW012 OVC020 06/04 A3003 RMK AO2 SLP174
FTK,2017-04-01 08:23,-85.9721,37.9071,42.80,37.40,81.07,290.00,8.00,0.00,30.04,M,10.00,M,OVC,M,M,M,1800.00,M,M,M,M,KFTK 010823Z AUTO 29008KT 10SM OVC018 06/03 A3004 RMK AO2
FTK,2017-04-01 08:58,-85.9721,37.9071,43.20,37.00,78.59,310.00,7.00,0.00,30.05,1018.10,10.00,M,OVC,M,M,M,1700.00,M,M,M,M,KFTK 010858Z AUTO 31007KT 10SM OVC017 06/03 A3005 RMK AO2 SLP181 60000 T00620028 52012
FTK,2017-04-01 09:54,-85.9721,37.9071,42.80,37.40,81.07,300.00,6.00,0.00,30.07,M,10.00,M,OVC,M,M,M,1700.00,M,M,M,M,KFTK 010954Z AUTO 30006KT 10SM OVC017 06/03 A3007 RMK AO2
FTK,2017-04-01 09:58,-85.9721,37.9071,43.00,37.20,79.82,320.00,6.00,0.00,30.07,1018.80,10.00,M,OVC,M,M,M,1700.00,M,M,M,M,KFTK 010958Z AUTO 32006KT 10SM OVC017 06/03 A3007 RMK AO2 SLP188 T00610029
FTK,2017-04-01 10:53,-85.9721,37.9071,42.80,37.40,81.07,300.00,3.00,0.00,30.08,M,10.00,M,OVC,M,M,M,2000.00,M,M,M,M,KFTK 011053Z AUTO 30003KT 10SM OVC020 06/03 A3008 RMK AO2
FTK,2017-04-01 10:58,-85.9721,37.9071,43.00,37.40,80.45,290.00,4.00,0.00,30.08,1019.10,10.00,M,OVC,M,M,M,2000.00,M,M,M,M,KFTK 011058Z AUTO 29004KT 10SM OVC020 06/03 A3008 RMK AO2 SLP191 T00610030
FTK,2017-04-01 11:20,-85.9721,37.9071,42.80,37.40,81.07,0.00,0.00,0.00,30.10,M,10.00,M,OVC,M,M,M,2100.00,M,M,M,M,KFTK 011120Z AUTO 00000KT 10SM OVC021 06/03 A3010 RMK AO2
FTK,2017-04-01 11:30,-85.9721,37.9071,42.80,37.40,81.07,290.00,3.00,0.00,30.10,M,10.00,M,OVC,M,M,M,1900.00,M,M,M,M,KFTK 011130Z AUTO 29003KT 10SM OVC019 06/03 A3010 RMK AO2
FTK,2017-04-01 11:58,-85.9721,37.9071,43.20,37.90,81.42,320.00,6.00,0.00,30.11,1020.20,10.00,M,BKN,OVC,M,M,1600.00,2100.00,M,M,M,KFTK 011158Z AUTO 32006KT 10SM BKN016 OVC021 06/03 A3011 RMK AO2 BKN V OVC SLP202 60000 70002 T00620033 10067 20060
FTK,2017-04-01 12:08,-85.9721,37.9071,42.80,39.20,86.99,290.00,5.00,0.00,30.12,M,10.00,M,BKN,OVC,M,M,1300.00,2000.00,M,M,M,KFTK 011208Z AUTO 29005KT 10SM BKN013 OVC020 06/04 A3012 RMK AO2 CIG 013V020 BKN V SCT
FTK,2017-04-01 12:42,-85.9721,37.9071,42.80,39.20,86.99,330.00,4.00,0.00,30.14,M,10.00,M,OVC,M,M,M,1200.00,M,M,M,M,KFTK 011242Z AUTO 33004KT 10SM OVC012 06/04 A3014 RMK AO2
FTK,2017-04-01 12:58,-85.9721,37.9071,43.50,39.20,84.69,0.00,0.00,0.00,30.14,1021.20,10.00,M,OVC,M,M,M,1200.00,M,M,M,M,KFTK 011258Z AUTO 00000KT 10SM OVC012 06/04 A3014 RMK AO2 SLP212 T00640040
FTK,2017-04-01 13:58,-85.9721,37.9071,43.50,39.40,85.35,330.00,5.00,0.00,30.15,1021.60,10.00,M,OVC,M,M,M,1100.00,M,M,M,M,KFTK 011358Z AUTO 33005KT 10SM OVC011 06/04 A3015 RMK AO2 SLP216 T00640041
FTK,2017-04-01 14:09,-85.9721,37.9071,42.80,39.20,86.99,310.00,3.00,0.00,30.17,M,10.00,M,OVC,M,M,M,1100.00,M,M,M,M,KFTK 011409Z AUTO 31003KT 10SM OVC011 06/04 A3017 RMK AO2 PRESRR
FTK,2017-04-01 14:58,-85.9721,37.9071,44.60,38.70,79.63,280.00,5.00,0.00,30.18,1022.50,10.00,M,OVC,M,M,M,1400.00,M,M,M,M,KFTK 011458Z AUTO 28005KT 10SM OVC014 07/04 A3018 RMK AO2 SLP225 T00700037 52022
FTK,2017-04-01 15:03,-85.9721,37.9071,44.60,39.20,81.20,280.00,4.00,0.00,30.18,M,10.00,M,OVC,M,M,M,1500.00,M,M,M,M,KFTK 011503Z AUTO 28004KT 10SM OVC015 07/04 A3018 RMK AO2
FTK,2017-04-01 15:58,-85.9721,37.9071,45.90,39.00,76.69,0.00,0.00,0.00,30.18,1022.50,10.00,M,OVC,M,M,M,1700.00,M,M,M,M,KFTK 011558Z AUTO 00000KT 10SM OVC017 08/04 A3018 RMK AO2 SLP225 T00770039
FTK,2017-04-01 16:48,-85.9721,37.9071,48.20,39.20,70.88,320.00,4.00,0.00,30.17,M,10.00,M,OVC,M,M,M,2000.00,M,M,M,M,KFTK 011648Z AUTO 32004KT 10SM OVC020 09/04 A3017 RMK AO2
FTK,2017-04-01 16:58,-85.9721,37.9071,48.20,39.20,70.88,320.00,3.00,0.00,30.17,1022.20,10.00,M,BKN,OVC,M,M,2000.00,2600.00,M,M,M,KFTK 011658Z AUTO 32003KT 10SM BKN020 OVC026 09/04 A3017 RMK AO2 BKN V OVC SLP222
FTK,2017-04-01 17:58,-85.9721,37.9071,48.60,38.50,67.94,350.00,4.00,0.00,30.16,M,10.00,M,OVC,M,M,M,2400.00,M,M,M,M,KFTK 011758Z AUTO 35004KT 10SM OVC024 09/04 A3016 RMK AO2 SLPNO T00920036 10095 20062
FTK,2017-04-01 18:58,-85.9721,37.9071,49.60,39.00,66.74,0.00,0.00,0.00,30.16,M,10.00,M,OVC,M,M,M,2500.00,M,M,M,M,KFTK 011858Z AUTO 00000KT 10SM OVC025 10/04 A3016 RMK AO2 SLPNO T00980039
FTK,2017-04-01 19:58,-85.9721,37.9071,50.40,39.00,64.78,300.00,4.00,0.00,30.17,M,10.00,M,OVC,M,M,M,2700.00,M,M,M,M,KFTK 011958Z AUTO 30004KT 10SM OVC027 10/04 A3017 RMK AO2 SLPNO T01020039
FTK,2017-04-01 20:58,-85.9721,37.9071,50.50,39.20,65.05,290.00,4.00,0.00,30.17,M,10.00,M,OVC,M,M,M,2700.00,M,M,M,M,KFTK 012058Z AUTO 29004KT 10SM OVC027 10/04 A3017 RMK AO2 SLPNO T01030040 53003
FTK,2017-04-01 21:58,-85.9721,37.9071,50.20,39.20,65.78,340.00,5.00,0.00,30.18,1022.50,10.00,M,OVC,M,M,M,2700.00,M,M,M,M,KFTK 012158Z AUTO 34005KT 10SM OVC027 10/04 A3018 RMK AO2 SLP225 T01010040
FTK,2017-04-01 22:58,-85.9721,37.9071,50.20,40.10,68.12,10.00,4.00,0.00,30.18,1022.50,10.00,M,OVC,M,M,M,2800.00,M,M,M,M,KFTK 012258Z AUTO 01004KT 10SM OVC028 10/05 A3018 RMK AO2 SLP225 T01010045
FTK,2017-04-01 23:58,-85.9721,37.9071,49.30,40.30,70.99,340.00,5.00,0.00,30.18,1022.50,10.00,M,OVC,M,M,M,2800.00,M,M,M,M,KFTK 012358Z AUTO 34005KT 10SM OVC028 10/05 A3018 RMK AO2 SLP225 T00960046 10105 20092 51003
