#DEBUG: Format Typ    -> comma
#DEBUG: Time Period   -> 2017-04-01 00:00:00+00:00 2017-04-02 00:00:00+00:00
#DEBUG: Time Zone     -> Etc/UTC
#DEBUG: Data Contact   -> daryl herzmann akrherz@iastate.edu 515-294-5978
#DEBUG: Entries Found -> -1
station,valid,lon,lat,tmpf, dwpf, relh, drct, sknt, p01i, alti, mslp, vsby, gust, skyc1, skyc2, skyc3, skyc4, skyl1, skyl2, skyl3, skyl4, presentwx, metar
FTY,2017-04-01 00:00,-84.5200,33.7800,M,M,M,300.00,8.00,M,29.86,M,10.00,M,CLR,M,M,M,M,M,M,M,M,KFTY 010000Z AUTO 30008KT 10SM CLR A2986 RMK MADISHF
FTY,2017-04-01 00:05,-84.5200,33.7800,M,M,M,300.00,6.00,M,29.86,M,10.00,M,CLR,M,M,M,M,M,M,M,M,KFTY 010005Z AUTO 30006KT 10SM CLR A2986 RMK MADISHF
FTY,2017-04-01 00:10,-84.5200,33.7800,M,M,M,300.00,6.00,M,29.86,M,10.00,M,CLR,M,M,M,M,M,M,M,M,KFTY 010010Z AUTO 30006KT 10SM CLR A2986 RMK MADISHF
FTY,2017-04-01 00:15,-84.5200,33.7800,M,M,M,290.00,6.00,M,29.86,M,10.00,M,CLR,M,M,M,M,M,M,M,M,KFTY 010015Z AUTO 29006KT 10SM CLR A2986 RMK MADISHF
FTY,2017-04-01 00:20,-84.5200,33.7800,M,M,M,300.00,8.00,M,29.87,M,10.00,M,CLR,M,M,M,M,M,M,M,M,KFTY 010020Z AUTO 30008KT 10SM CLR A2987 RMK MADISHF
FTY,2017-04-01 00:25,-84.5200,33.7800,M,M,M,300.00,7.00,M,29.87,M,10.00,M,CLR,M,M,M,M,M,M,M,M,KFTY 010025Z AUTO 30007KT 10SM CLR A2987 RMK MADISHF
FTY,2017-04-01 00:30,-84.5200,33.7800,M,M,M,300.00,6.00,M,29.87,M,10.00,M,CLR,M,M,M,M,M,M,M,M,KFTY 010030Z AUTO 30006KT 10SM CLR A2987 RMK MADISHF
FTY,2017-04-01 00:35,-84.5200,33.7800,M,M,M,310.00,4.00,M,29.87,M,10.00,M,CLR,M,M,M,M,M,M,M,M,KFTY 010035Z AUTO 31004KT 10SM CLR A2987 RMK MADISHF
FTY,2017-04-01 00:40,-84.5200,33.7800,M,M,M,320.00,4.00,M,29.87,M,10.00,M,CLR,M,M,M,M,M,M,M,M,KFTY 010040Z AUTO 32004KT 10SM CLR A2987 RMK MADISHF
FTY,2017-04-01 00:45,-84.5200,33.7800,M,M,M,310.00,4.00,M,29.88,M,10.00,M,CLR,M,M,M,M,M,M,M,M,KFTY 010045Z AUTO 31004KT 10SM CLR A2988 RMK MADISHF
FTY,2017-04-01 00:50,-84.5200,33.7800,M,M,M,310.00,5.00,M,29.88,M,10.00,M,CLR,M,M,M,M,M,M,M,M,KFTY 010050Z AUTO 31005KT 10SM CLR A2988 RMK MADISHF
FTY,2017-04-01 00:53,-84.5200,33.7800,64.00,44.10,48.31,310.00,5.00,0.00,29.88,1011.30,10.00,M,CLR,M,M,M,M,M,M,M,M,KFTY 010053Z 31005KT 10SM CLR 18/07 A2988 RMK AO2 SLP113 T01780067
FTY,2017-04-01 00:55,-84.5200,33.7800,M,M,M,310.00,4.00,M,29.88,M,10.00,M,CLR,M,M,M,M,M,M,M,M,KFTY 010055Z AUTO 31004KT 10SM CLR A2988 RMK MADISHF
FTY,2017-04-01 01:00,-84.5200,33.7800,M,M,M,320.00,3.00,M,29.88,M,10.00,M,CLR,M,M,M,M,M,M,M,M,KFTY 010100Z AUTO 32003KT 10SM CLR A2988 RMK MADISHF
FTY,2017-04-01 01:05,-84.5200,33.7800,M,M,M,320.00,5.00,M,29.89,M,10.00,M,CLR,M,M,M,M,M,M,M,M,KFTY 010105Z AUTO 32005KT 10SM CLR A2989 RMK MADISHF
FTY,2017-04-01 01:10,-84.5200,33.7800,M,M,M,310.00,5.00,M,29.89,M,10.00,M,CLR,M,M,M,M,M,M,M,M,KFTY 010110Z AUTO 31005KT 10SM CLR A2989 RMK MADISHF
FTY,2017-04-01 01:15,-84.5200,33.7800,M,M,M,310.00,6.00,M,29.89,M,10.00,M,CLR,M,M,M,M,M,M,M,M,KFTY 010115Z AUTO 31006KT 10SM CLR A2989 RMK MADISHF
FTY,2017-04-01 01:20,-84.5200,33.7800,M,M,M,310.00,4.00,M,29.89,M,10.00,M,CLR,M,M,M,M,M,M,M,M,KFTY 010120Z AUTO 31004KT 10SM CLR A2989 RMK MADISHF
FTY,2017-04-01 01:25,-84.5200,33.7800,M,M,M,320.00,5.00,M,29.90,M,10.00,M,CLR,M,M,M,M,M,M,M,M,KFTY 010125Z AUTO 32005KT 10SM CLR A2990 RMK VRB05KT  MADISHF
FTY,2017-04-01 01:30,-84.5200,33.7800,M,M,M,300.00,5.00,M,29.90,M,10.00,M,CLR,M,M,M,M,M,M,M,M,KFTY 010130Z AUTO 30005KT 10SM CLR A2990 RMK MADISHF
FTY,2017-04-01 01:35,-84.5200,33.7800,M,M,M,310.00,5.00,M,29.90,M,10.00,M,CLR,M,M,M,M,M,M,M,M,KFTY 010135Z AUTO 31005KT 10SM CLR A2990 RMK MADISHF
FTY,2017-04-01 01:40,-84.5200,33.7800,M,M,M,300.00,5.00,M,29.90,M,10.00,M,CLR,M,M,M,M,M,M,M,M,KFTY 010140Z AUTO 30005KT 10SM CLR A2990 RMK MADISHF
FTY,2017-04-01 01:45,-84.5200,33.7800,M,M,M,300.00,4.00,M,29.91,M,10.00,M,CLR,M,M,M,M,M,M,M,M,KFTY 010145Z AUTO 30004KT 10SM CLR A2991 RMK MADISHF
FTY,2017-04-01 01:50,-84.5200,33.7800,M,M,M,310.00,4.00,M,29.91,M,10.00,M,CLR,M,M,M,M,M,M,M,M,KFTY 010150Z AUTO 31004KT 10SM CLR A2991 RMK MADISHF
FTY,2017-04-01 01:53,-84.5200,33.7800,62.10,44.10,51.64,300.00,3.00,0.00,29.91,1012.20,10.00,M,CLR,M,M,M,M,M,M,M,M,KFTY 010153Z 30003KT 10SM CLR 17/07 A2991 RMK AO2 SLP122 T01670067
FTY,2017-04-01 01:55,-84.5200,33.7800,M,M,M,300.00,3.00,M,29.91,M,10.00,M,CLR,M,M,M,M,M,M,M,M,KFTY 010155Z AUTO 30003KT 10SM CLR A2991 RMK MADISHF
FTY,2017-04-01 02:00,-84.5200,33.7800,M,M,M,300.00,4.00,M,29.91,M,10.00,M,CLR,M,M,M,M,M,M,M,M,KFTY 010200Z AUTO 30004KT 10SM CLR A2991 RMK MADISHF
FTY,2017-04-01 02:05,-84.5200,33.7800,M,M,M,300.00,4.00,M,29.91,M,10.00,M,CLR,M,M,M,M,M,M,M,M,KFTY 010205Z AUTO 30004KT 10SM CLR A2991 RMK MADISHF
FTY,2017-04-01 02:10,-84.5200,33.7800,M,M,M,310.00,3.00,M,29.91,M,10.00,M,CLR,M,M,M,M,M,M,M,M,KFTY 010210Z AUTO 31003KT 10SM CLR A2991 RMK MADISHF
FTY,2017-04-01 02:15,-84.5200,33.7800,M,M,M,310.00,3.00,M,29.91,M,10.00,M,CLR,M,M,M,M,M,M,M,M,KFTY 010215Z AUTO 31003KT 10SM CLR A2991 RMK MADISHF
FTY,2017-04-01 02:20,-84.5200,33.7800,M,M,M,310.00,4.00,M,29.91,M,10.00,M,CLR,M,M,M,M,M,M,M,M,KFTY 010220Z AUTO 31004KT 10SM CLR A2991 RMK MADISHF
FTY,2017-04-01 02:25,-84.5200,33.7800,M,M,M,300.00,4.00,M,29.92,M,10.00,M,CLR,M,M,M,M,M,M,M,M,KFTY 010225Z AUTO 30004KT 10SM CLR A2992 RMK MADISHF
FTY,2017-04-01 02:30,-84.5200,33.7800,M,M,M,300.00,3.00,M,29.92,M,10.00,M,CLR,M,M,M,M,M,M,M,M,KFTY 010230Z AUTO 30003KT 10SM CLR A2992 RMK MADISHF
FTY,2017-04-01 02:35,-84.5200,33.7800,M,M,M,290.00,4.00,M,29.92,M,10.00,M,CLR,M,M,M,M,M,M,M,M,KFTY 010235Z AUTO 29004KT 10SM CLR A2992 RMK MADISHF
FTY,2017-04-01 02:40,-84.5200,33.7800,M,M,M,300.00,3.00,M,29.92,M,10.00,M,CLR,M,M,M,M,M,M,M,M,KFTY 010240Z AUTO 30003KT 10SM CLR A2992 RMK MADISHF
FTY,2017-04-01 02:45,-84.5200,33.7800,M,M,M,290.00,3.00,M,29.92,M,10.00,M,CLR,M,M,M,M,M,M,M,M,KFTY 010245Z AUTO 29003KT 10SM CLR A2992 RMK MADISHF
FTY,2017-04-01 02:50,-84.5200,33.7800,M,M,M,290.00,3.00,M,29.92,M,10.00,M,CLR,M,M,M,M,M,M,M,M,KFTY 010250Z AUTO 29003KT 10SM CLR A2992 RMK MADISHF
FTY,2017-04-01 02:53,-84.5200,33.7800,61.00,44.10,53.69,290.00,4.00,0.00,29.92,1012.80,10.00,M,CLR,M,M,M,M,M,M,M,M,KFTY 010253Z 29004KT 10SM CLR 16/07 A2992 RMK AO2 SLP128 T01610067 51022
FTY,2017-04-01 02:55,-84.5200,33.7800,M,M,M,280.00,3.00,M,29.92,M,10.00,M,CLR,M,M,M,M,M,M,M,M,KFTY 010255Z AUTO 28003KT 10SM CLR A2992 RMK MADISHF
FTY,2017-04-01 03:00,-84.5200,33.7800,M,M,M,290.00,4.00,M,29.92,M,10.00,M,CLR,M,M,M,M,M,M,M,M,KFTY 010300Z AUTO 29004KT 10SM CLR A2992 RMK MADISHF
FTY,2017-04-01 03:05,-84.5200,33.7800,M,M,M,0.00,0.00,M,29.92,M,10.00,M,CLR,M,M,M,M,M,M,M,M,KFTY 010305Z AUTO 00000KT 10SM CLR A2992 RMK MADISHF
FTY,2017-04-01 03:10,-84.5200,33.7800,M,M,M,290.00,3.00,M,29.92,M,10.00,M,CLR,M,M,M,M,M,M,M,M,KFTY 010310Z AUTO 29003KT 10SM CLR A2992 RMK MADISHF
FTY,2017-04-01 03:15,-84.5200,33.7800,M,M,M,0.00,0.00,M,29.93,M,10.00,M,CLR,M,M,M,M,M,M,M,M,KFTY 010315Z AUTO 00000KT 10SM CLR A2993 RMK MADISHF
FTY,2017-04-01 03:20,-84.5200,33.7800,M,M,M,0.00,0.00,M,29.93,M,10.00,M,CLR,M,M,M,M,M,M,M,M,KFTY 010320Z AUTO 00000KT 10SM CLR A2993 RMK MADISHF
FTY,2017-04-01 03:25,-84.5200,33.7800,M,M,M,0.00,0.00,M,29.93,M,10.00,M,CLR,M,M,M,M,M,M,M,M,KFTY 010325Z AUTO 00000KT 10SM CLR A2993 RMK MADISHF
FTY,2017-04-01 03:30,-84.5200,33.7800,M,M,M,0.00,0.00,M,29.93,M,10.00,M,CLR,M,M,M,M,M,M,M,M,KFTY 010330Z AUTO 00000KT 10SM CLR A2993 RMK MADISHF
FTY,2017-04-01 03:35,-84.5200,33.7800,M,M,M,0.00,0.00,M,29.93,M,10.00,M,CLR,M,M,M,M,M,M,M,M,KFTY 010335Z AUTO 00000KT 10SM CLR A2993 RMK MADISHF
FTY,2017-04-01 03:40,-84.5200,33.7800,M,M,M,0.00,0.00,M,29.93,M,10.00,M,CLR,M,M,M,M,M,M,M,M,KFTY 010340Z AUTO 00000KT 10SM CLR A2993 RMK MADISHF
FTY,2017-04-01 03:45,-84.5200,33.7800,M,M,M,0.00,0.00,M,29.94,M,10.00,M,CLR,M,M,M,M,M,M,M,M,KFTY 010345Z AUTO 00000KT 10SM CLR A2994 RMK MADISHF
FTY,2017-04-01 03:50,-84.5200,33.7800,M,M,M,0.00,0.00,M,29.94,M,10.00,M,CLR,M,M,M,M,M,M,M,M,KFTY 010350Z AUTO 00000KT 10SM CLR A2994 RMK MADISHF
FTY,2017-04-01 03:53,-84.5200,33.7800,57.00,46.00,66.59,0.00,0.00,0.00,29.94,1013.20,10.00,M,CLR,M,M,M,M,M,M,M,M,KFTY 010353Z 00000KT 10SM CLR 14/08 A2994 RMK AO2 SLP132 T01390078
FTY,2017-04-01 03:55,-84.5200,33.7800,M,M,M,0.00,0.00,M,29.94,M,10.00,M,CLR,M,M,M,M,M,M,M,M,KFTY 010355Z AUTO 00000KT 10SM CLR A2994 RMK MADISHF
FTY,2017-04-01 04:00,-84.5200,33.7800,M,M,M,0.00,0.00,M,29.94,M,10.00,M,CLR,M,M,M,M,M,M,M,M,KFTY 010400Z AUTO 00000KT 10SM CLR A2994 RMK MADISHF
FTY,2017-04-01 04:05,-84.5200,33.7800,M,M,M,0.00,0.00,M,29.94,M,10.00,M,CLR,M,M,M,M,M,M,M,M,KFTY 010405Z AUTO 00000KT 10SM CLR A2994 RMK MADISHF
FTY,2017-04-01 04:10,-84.5200,33.7800,M,M,M,0.00,0.00,M,29.94,M,10.00,M,CLR,M,M,M,M,M,M,M,M,KFTY 010410Z AUTO 00000KT 10SM CLR A2994 RMK MADISHF
FTY,2017-04-01 04:15,-84.5200,33.7800,M,M,M,0.00,0.00,M,29.94,M,10.00,M,CLR,M,M,M,M,M,M,M,M,KFTY 010415Z AUTO 00000KT 10SM CLR A2994 RMK MADISHF
FTY,2017-04-01 04:20,-84.5200,33.7800,M,M,M,0.00,0.00,M,29.94,M,10.00,M,CLR,M,M,M,M,M,M,M,M,KFTY 010420Z AUTO 00000KT 10SM CLR A2994 RMK MADISHF
FTY,2017-04-01 04:25,-84.5200,33.7800,M,M,M,0.00,0.00,M,29.94,M,10.00,M,CLR,M,M,M,M,M,M,M,M,KFTY 010425Z AUTO 00000KT 10SM CLR A2994 RMK MADISHF
FTY,2017-04-01 04:30,-84.5200,33.7800,M,M,M,0.00,0.00,M,29.94,M,10.00,M,CLR,M,M,M,M,M,M,M,M,KFTY 010430Z AUTO 00000KT 10SM CLR A2994 RMK MADISHF
FTY,2017-04-01 04:35,-84.5200,33.7800,M,M,M,0.00,0.00,M,29.94,M,10.00,M,CLR,M,M,M,M,M,M,M,M,KFTY 010435Z AUTO 00000KT 10SM CLR A2994 RMK MADISHF
FTY,2017-04-01 04:40,-84.5200,33.7800,M,M,M,240.00,3.00,M,29.95,M,10.00,M,CLR,M,M,M,M,M,M,M,M,KFTY 010440Z AUTO 24003KT 10SM CLR A2995 RMK MADISHF
FTY,2017-04-01 04:45,-84.5200,33.7800,M,M,M,0.00,0.00,M,29.95,M,10.00,M,CLR,M,M,M,M,M,M,M,M,KFTY 010445Z AUTO 00000KT 10SM CLR A2995 RMK MADISHF
FTY,2017-04-01 04:50,-84.5200,33.7800,M,M,M,0.00,0.00,M,29.95,M,10.00,M,CLR,M,M,M,M,M,M,M,M,KFTY 010450Z AUTO 00000KT 10SM CLR A2995 RMK MADISHF
FTY,2017-04-01 04:53,-84.5200,33.7800,57.90,45.00,62.07,0.00,0.00,0.00,29.95,1013.60,10.00,M,CLR,M,M,M,M,M,M,M,M,KFTY 010453Z 00000KT 10SM CLR 14/07 A2995 RMK AO2 SLP136 T01440072 402280139
FTY,2017-04-01 04:55,-84.5200,33.7800,M,M,M,0.00,0.00,M,29.95,M,10.00,M,CLR,M,M,M,M,M,M,M,M,KFTY 010455Z AUTO 00000KT 10SM CLR A2995 RMK MADISHF
FTY,2017-04-01 05:00,-84.5200,33.7800,M,M,M,0.00,0.00,M,29.95,M,10.00,M,CLR,M,M,M,M,M,M,M,M,KFTY 010500Z AUTO 00000KT 10SM CLR A2995 RMK MADISHF
FTY,2017-04-01 05:05,-84.5200,33.7800,M,M,M,240.00,3.00,M,29.95,M,10.00,M,CLR,M,M,M,M,M,M,M,M,KFTY 010505Z AUTO 24003KT 10SM CLR A2995 RMK MADISHF
FTY,2017-04-01 05:10,-84.5200,33.7800,M,M,M,0.00,0.00,M,29.95,M,10.00,M,CLR,M,M,M,M,M,M,M,M,KFTY 010510Z AUTO 00000KT 10SM CLR A2995 RMK MADISHF
FTY,2017-04-01 05:15,-84.5200,33.7800,M,M,M,0.00,0.00,M,29.95,M,10.00,M,CLR,M,M,M,M,M,M,M,M,KFTY 010515Z AUTO 00000KT 10SM CLR A2995 RMK MADISHF
FTY,2017-04-01 05:20,-84.5200,33.7800,M,M,M,230.00,3.00,M,29.95,M,10.00,M,CLR,M,M,M,M,M,M,M,M,KFTY 010520Z AUTO 23003KT 10SM CLR A2995 RMK MADISHF
FTY,2017-04-01 05:25,-84.5200,33.7800,M,M,M,210.00,3.00,M,29.95,M,10.00,M,CLR,M,M,M,M,M,M,M,M,KFTY 010525Z AUTO 21003KT 10SM CLR A2995 RMK MADISHF
FTY,2017-04-01 05:30,-84.5200,33.7800,M,M,M,200.00,3.00,M,29.95,M,10.00,M,CLR,M,M,M,M,M,M,M,M,KFTY 010530Z AUTO 20003KT 10SM CLR A2995 RMK MADISHF
FTY,2017-04-01 05:35,-84.5200,33.7800,M,M,M,0.00,0.00,M,29.95,M,10.00,M,CLR,M,M,M,M,M,M,M,M,KFTY 010535Z AUTO 00000KT 10SM CLR A2995 RMK MADISHF
FTY,2017-04-01 05:40,-84.5200,33.7800,M,M,M,0.00,0.00,M,29.95,M,10.00,M,CLR,M,M,M,M,M,M,M,M,KFTY 010540Z AUTO 00000KT 10SM CLR A2995 RMK MADISHF
FTY,2017-04-01 05:45,-84.5200,33.7800,M,M,M,0.00,0.00,M,29.95,M,10.00,M,CLR,M,M,M,M,M,M,M,M,KFTY 010545Z AUTO 00000KT 10SM CLR A2995 RMK MADISHF
FTY,2017-04-01 05:50,-84.5200,33.7800,M,M,M,0.00,0.00,M,29.95,M,10.00,M,CLR,M,M,M,M,M,M,M,M,KFTY 010550Z AUTO 00000KT 10SM CLR A2995 RMK MADISHF
FTY,2017-04-01 05:53,-84.5200,33.7800,57.00,45.00,64.12,0.00,0.00,0.00,29.95,1013.60,10.00,M,CLR,M,M,M,M,M,M,M,M,KFTY 010553Z 00000KT 10SM CLR 14/07 A2995 RMK AO2 SLP136 T01390072 10194 20139 51009
FTY,2017-04-01 05:55,-84.5200,33.7800,M,M,M,0.00,0.00,M,29.95,M,10.00,M,CLR,M,M,M,M,M,M,M,M,KFTY 010555Z AUTO 00000KT 10SM CLR A2995 RMK MADISHF
FTY,2017-04-01 06:00,-84.5200,33.7800,M,M,M,0.00,0.00,M,29.95,M,10.00,M,CLR,M,M,M,M,M,M,M,M,KFTY 010600Z AUTO 00000KT 10SM CLR A2995 RMK MADISHF
FTY,2017-04-01 06:05,-84.5200,33.7800,M,M,M,0.00,0.00,M,29.95,M,10.00,M,CLR,M,M,M,M,M,M,M,M,KFTY 010605Z AUTO 00000KT 10SM CLR A2995 RMK MADISHF
FTY,2017-04-01 06:10,-84.5200,33.7800,M,M,M,0.00,0.00,M,29.95,M,10.00,M,CLR,M,M,M,M,M,M,M,M,KFTY 010610Z AUTO 00000KT 10SM CLR A2995 RMK MADISHF
FTY,2017-04-01 06:15,-84.5200,33.7800,M,M,M,0.00,0.00,M,29.95,M,10.00,M,CLR,M,M,M,M,M,M,M,M,KFTY 010615Z AUTO 00000KT 10SM CLR A2995 RMK MADISHF
FTY,2017-04-01 06:20,-84.5200,33.7800,M,M,M,0.00,0.00,M,29.95,M,10.00,M,CLR,M,M,M,M,M,M,M,M,KFTY 010620Z AUTO 00000KT 10SM CLR A2995 RMK MADISHF
FTY,2017-04-01 06:25,-84.5200,33.7800,M,M,M,330.00,3.00,M,29.95,M,10.00,M,CLR,M,M,M,M,M,M,M,M,KFTY 010625Z AUTO 33003KT 10SM CLR A2995 RMK VRB03KT  MADISHF
FTY,2017-04-01 06:30,-84.5200,33.7800,M,M,M,320.00,3.00,M,29.95,M,10.00,M,CLR,M,M,M,M,M,M,M,M,KFTY 010630Z AUTO 32003KT 10SM CLR A2995 RMK MADISHF
FTY,2017-04-01 06:35,-84.5200,33.7800,M,M,M,310.00,3.00,M,29.95,M,10.00,M,CLR,M,M,M,M,M,M,M,M,KFTY 010635Z AUTO 31003KT 10SM CLR A2995 RMK MADISHF
FTY,2017-04-01 06:40,-84.5200,33.7800,M,M,M,310.00,4.00,M,29.95,M,10.00,M,CLR,M,M,M,M,M,M,M,M,KFTY 010640Z AUTO 31004KT 10SM CLR A2995 RMK MADISHF
FTY,2017-04-01 06:45,-84.5200,33.7800,M,M,M,340.00,4.00,M,29.96,M,10.00,M,CLR,M,M,M,M,M,M,M,M,KFTY 010645Z AUTO 34004KT 10SM CLR A2996 RMK MADISHF
FTY,2017-04-01 06:50,-84.5200,33.7800,M,M,M,340.00,4.00,M,29.96,M,10.00,M,CLR,M,M,M,M,M,M,M,M,KFTY 010650Z AUTO 34004KT 10SM CLR A2996 RMK MADISHF
FTY,2017-04-01 06:53,-84.5200,33.7800,55.00,45.00,68.93,340.00,3.00,0.00,29.96,1014.10,10.00,M,CLR,M,M,M,M,M,M,M,M,KFTY 010653Z 34003KT 10SM CLR 13/07 A2996 RMK AO2 SLP141 T01280072
FTY,2017-04-01 06:55,-84.5200,33.7800,M,M,M,330.00,4.00,M,29.96,M,10.00,M,CLR,M,M,M,M,M,M,M,M,KFTY 010655Z AUTO 33004KT 10SM CLR A2996 RMK MADISHF
FTY,2017-04-01 07:00,-84.5200,33.7800,M,M,M,340.00,5.00,M,29.96,M,10.00,M,CLR,M,M,M,M,M,M,M,M,KFTY 010700Z AUTO 34005KT 10SM CLR A2996 RMK MADISHF
FTY,2017-04-01 07:05,-84.5200,33.7800,M,M,M,30.00,4.00,M,29.96,M,10.00,M,CLR,M,M,M,M,M,M,M,M,KFTY 010705Z AUTO 03004KT 10SM CLR A2996 RMK MADISHF
FTY,2017-04-01 07:10,-84.5200,33.7800,M,M,M,20.00,4.00,M,29.96,M,10.00,M,CLR,M,M,M,M,M,M,M,M,KFTY 010710Z AUTO 02004KT 10SM CLR A2996 RMK MADISHF
FTY,2017-04-01 07:15,-84.5200,33.7800,M,M,M,20.00,4.00,M,29.96,M,10.00,M,CLR,M,M,M,M,M,M,M,M,KFTY 010715Z AUTO 02004KT 10SM CLR A2996 RMK MADISHF
FTY,2017-04-01 07:20,-84.5200,33.7800,M,M,M,10.00,4.00,M,29.96,M,10.00,M,CLR,M,M,M,M,M,M,M,M,KFTY 010720Z AUTO 01004KT 10SM CLR A2996 RMK MADISHF
FTY,2017-04-01 07:25,-84.5200,33.7800,M,M,M,10.00,4.00,M,29.96,M,10.00,M,CLR,M,M,M,M,M,M,M,M,KFTY 010725Z AUTO 01004KT 10SM CLR A2996 RMK MADISHF
FTY,2017-04-01 07:30,-84.5200,33.7800,M,M,M,10.00,3.00,M,29.96,M,10.00,M,CLR,M,M,M,M,M,M,M,M,KFTY 010730Z AUTO 01003KT 10SM CLR A2996 RMK MADISHF
FTY,2017-04-01 07:35,-84.5200,33.7800,M,M,M,10.00,3.00,M,29.96,M,10.00,M,CLR,M,M,M,M,M,M,M,M,KFTY 010735Z AUTO 01003KT 10SM CLR A2996 RMK MADISHF
FTY,2017-04-01 07:40,-84.5200,33.7800,M,M,M,10.00,3.00,M,29.96,M,10.00,M,CLR,M,M,M,M,M,M,M,M,KFTY 010740Z AUTO 01003KT 10SM CLR A2996 RMK MADISHF
FTY,2017-04-01 07:45,-84.5200,33.7800,M,M,M,350.00,3.00,M,29.96,M,10.00,M,CLR,M,M,M,M,M,M,M,M,KFTY 010745Z AUTO 35003KT 10SM CLR A2996 RMK MADISHF
FTY,2017-04-01 07:50,-84.5200,33.7800,M,M,M,0.00,0.00,M,29.96,M,10.00,M,CLR,M,M,M,M,M,M,M,M,KFTY 010750Z AUTO 00000KT 10SM CLR A2996 RMK MADISHF
FTY,2017-04-01 07:53,-84.5200,33.7800,55.00,45.00,68.93,0.00,0.00,0.00,29.97,1014.10,10.00,M,CLR,M,M,M,M,M,M,M,M,KFTY 010753Z 00000KT 10SM CLR 13/07 A2997 RMK AO2 SLP141 T01280072
FTY,2017-04-01 07:55,-84.5200,33.7800,M,M,M,320.00,3.00,M,29.97,M,10.00,M,CLR,M,M,M,M,M,M,M,M,KFTY 010755Z AUTO 32003KT 10SM CLR A2997 RMK MADISHF
FTY,2017-04-01 08:00,-84.5200,33.7800,M,M,M,0.00,0.00,M,29.97,M,10.00,M,CLR,M,M,M,M,M,M,M,M,KFTY 010800Z AUTO 00000KT 10SM CLR A2997 RMK MADISHF
FTY,2017-04-01 08:05,-84.5200,33.7800,M,M,M,300.00,3.00,M,29.97,M,10.00,M,CLR,M,M,M,M,M,M,M,M,KFTY 010805Z AUTO 30003KT 10SM CLR A2997 RMK MADISHF
FTY,2017-04-01 08:10,-84.5200,33.7800,M,M,M,300.00,3.00,M,29.97,M,10.00,M,CLR,M,M,M,M,M,M,M,M,KFTY 010810Z AUTO 30003KT 10SM CLR A2997 RMK MADISHF
FTY,2017-04-01 08:15,-84.5200,33.7800,M,M,M,0.00,0.00,M,29.97,M,10.00,M,CLR,M,M,M,M,M,M,M,M,KFTY 010815Z AUTO 00000KT 10SM CLR A2997 RMK MADISHF
FTY,2017-04-01 08:20,-84.5200,33.7800,M,M,M,0.00,0.00,M,29.97,M,10.00,M,CLR,M,M,M,M,M,M,M,M,KFTY 010820Z AUTO 00000KT 10SM CLR A2997 RMK MADISHF
FTY,2017-04-01 08:25,-84.5200,33.7800,M,M,M,280.00,3.00,M,29.98,M,10.00,M,CLR,M,M,M,M,M,M,M,M,KFTY 010825Z AUTO 28003KT 10SM CLR A2998 RMK MADISHF
FTY,2017-04-01 08:30,-84.5200,33.7800,M,M,M,0.00,0.00,M,29.98,M,10.00,M,CLR,M,M,M,M,M,M,M,M,KFTY 010830Z AUTO 00000KT 10SM CLR A2998 RMK MADISHF
FTY,2017-04-01 08:35,-84.5200,33.7800,M,M,M,0.00,0.00,M,29.98,M,10.00,M,CLR,M,M,M,M,M,M,M,M,KFTY 010835Z AUTO 00000KT 10SM CLR A2998 RMK MADISHF
FTY,2017-04-01 08:40,-84.5200,33.7800,M,M,M,0.00,0.00,M,29.98,M,10.00,M,CLR,M,M,M,M,M,M,M,M,KFTY 010840Z AUTO 00000KT 10SM CLR A2998 RMK MADISHF
FTY,2017-04-01 08:45,-84.5200,33.7800,M,M,M,0.00,0.00,M,29.98,M,10.00,M,CLR,M,M,M,M,M,M,M,M,KFTY 010845Z AUTO 00000KT 10SM CLR A2998 RMK MADISHF
FTY,2017-04-01 08:50,-84.5200,33.7800,M,M,M,0.00,0.00,M,29.98,M,10.00,M,CLR,M,M,M,M,M,M,M,M,KFTY 010850Z AUTO 00000KT 10SM CLR A2998 RMK MADISHF
FTY,2017-04-01 08:53,-84.5200,33.7800,54.00,45.00,71.50,0.00,0.00,0.00,29.98,1014.80,10.00,M,CLR,M,M,M,M,M,M,M,M,KFTY 010853Z 00000KT 10SM CLR 12/07 A2998 RMK AO2 SLP148 T01220072 53010
FTY,2017-04-01 08:55,-84.5200,33.7800,M,M,M,0.00,0.00,M,29.98,M,10.00,M,CLR,M,M,M,M,M,M,M,M,KFTY 010855Z AUTO 00000KT 10SM CLR A2998 RMK MADISHF
FTY,2017-04-01 09:00,-84.5200,33.7800,M,M,M,0.00,0.00,M,29.98,M,10.00,M,CLR,M,M,M,M,M,M,M,M,KFTY 010900Z AUTO 00000KT 10SM CLR A2998 RMK MADISHF
FTY,2017-04-01 09:05,-84.5200,33.7800,M,M,M,0.00,0.00,M,29.99,M,10.00,M,CLR,M,M,M,M,M,M,M,M,KFTY 010905Z AUTO 00000KT 10SM CLR A2999 RMK MADISHF
FTY,2017-04-01 09:10,-84.5200,33.7800,M,M,M,0.00,0.00,M,29.99,M,10.00,M,CLR,M,M,M,M,M,M,M,M,KFTY 010910Z AUTO 00000KT 10SM CLR A2999 RMK MADISHF
FTY,2017-04-01 09:15,-84.5200,33.7800,M,M,M,0.00,0.00,M,29.98,M,10.00,M,CLR,M,M,M,M,M,M,M,M,KFTY 010915Z AUTO 00000KT 10SM CLR A2998 RMK MADISHF
FTY,2017-04-01 09:20,-84.5200,33.7800,M,M,M,0.00,0.00,M,29.98,M,10.00,M,CLR,M,M,M,M,M,M,M,M,KFTY 010920Z AUTO 00000KT 10SM CLR A2998 RMK MADISHF
FTY,2017-04-01 09:25,-84.5200,33.7800,M,M,M,0.00,0.00,M,29.99,M,10.00,M,CLR,M,M,M,M,M,M,M,M,KFTY 010925Z AUTO 00000KT 10SM CLR A2999 RMK MADISHF
FTY,2017-04-01 09:30,-84.5200,33.7800,M,M,M,0.00,0.00,M,29.99,M,10.00,M,CLR,M,M,M,M,M,M,M,M,KFTY 010930Z AUTO 00000KT 10SM CLR A2999 RMK MADISHF
FTY,2017-04-01 09:35,-84.5200,33.7800,M,M,M,0.00,0.00,M,29.99,M,10.00,M,CLR,M,M,M,M,M,M,M,M,KFTY 010935Z AUTO 00000KT 10SM CLR A2999 RMK MADISHF
FTY,2017-04-01 09:40,-84.5200,33.7800,M,M,M,0.00,0.00,M,29.99,M,10.00,M,CLR,M,M,M,M,M,M,M,M,KFTY 010940Z AUTO 00000KT 10SM CLR A2999 RMK MADISHF
FTY,2017-04-01 09:45,-84.5200,33.7800,M,M,M,0.00,0.00,M,29.99,M,10.00,M,CLR,M,M,M,M,M,M,M,M,KFTY 010945Z AUTO 00000KT 10SM CLR A2999 RMK MADISHF
FTY,2017-04-01 09:50,-84.5200,33.7800,M,M,M,0.00,0.00,M,29.99,M,10.00,M,CLR,M,M,M,M,M,M,M,M,KFTY 010950Z AUTO 00000KT 10SM CLR A2999 RMK MADISHF
FTY,2017-04-01 09:53,-84.5200,33.7800,53.10,45.00,73.89,0.00,0.00,0.00,29.99,1015.00,10.00,M,CLR,M,M,M,M,M,M,M,M,KFTY 010953Z 00000KT 10SM CLR 12/07 A2999 RMK AO2 SLP150 T01170072
FTY,2017-04-01 09:55,-84.5200,33.7800,M,M,M,0.00,0.00,M,29.99,M,10.00,M,CLR,M,M,M,M,M,M,M,M,KFTY 010955Z AUTO 00000KT 10SM CLR A2999 RMK MADISHF
FTY,2017-04-01 10:00,-84.5200,33.7800,M,M,M,0.00,0.00,M,29.99,M,10.00,M,CLR,M,M,M,M,M,M,M,M,KFTY 011000Z AUTO 00000KT 10SM CLR A2999 RMK MADISHF
FTY,2017-04-01 10:05,-84.5200,33.7800,M,M,M,0.00,0.00,M,29.99,M,10.00,M,CLR,M,M,M,M,M,M,M,M,KFTY 011005Z AUTO 00000KT 10SM CLR A2999 RMK MADISHF
FTY,2017-04-01 10:10,-84.5200,33.7800,M,M,M,0.00,0.00,M,30.00,M,10.00,M,CLR,M,M,M,M,M,M,M,M,KFTY 011010Z AUTO 00000KT 10SM CLR A3000 RMK MADISHF
FTY,2017-04-01 10:15,-84.5200,33.7800,M,M,M,0.00,0.00,M,30.00,M,10.00,M,CLR,M,M,M,M,M,M,M,M,KFTY 011015Z AUTO 00000KT 10SM CLR A3000 RMK MADISHF
FTY,2017-04-01 10:20,-84.5200,33.7800,M,M,M,0.00,0.00,M,30.01,M,10.00,M,CLR,M,M,M,M,M,M,M,M,KFTY 011020Z AUTO 00000KT 10SM CLR A3001 RMK MADISHF
FTY,2017-04-01 10:25,-84.5200,33.7800,M,M,M,0.00,0.00,M,30.01,M,10.00,M,CLR,M,M,M,M,M,M,M,M,KFTY 011025Z AUTO 00000KT 10SM CLR A3001 RMK MADISHF
FTY,2017-04-01 10:30,-84.5200,33.7800,M,M,M,0.00,0.00,M,30.01,M,10.00,M,CLR,M,M,M,M,M,M,M,M,KFTY 011030Z AUTO 00000KT 10SM CLR A3001 RMK MADISHF
FTY,2017-04-01 10:35,-84.5200,33.7800,M,M,M,0.00,0.00,M,30.01,M,10.00,M,CLR,M,M,M,M,M,M,M,M,KFTY 011035Z AUTO 00000KT 10SM CLR A3001 RMK MADISHF
FTY,2017-04-01 10:40,-84.5200,33.7800,M,M,M,0.00,0.00,M,30.01,M,10.00,M,CLR,M,M,M,M,M,M,M,M,KFTY 011040Z AUTO 00000KT 10SM CLR A3001 RMK MADISHF
FTY,2017-04-01 10:45,-84.5200,33.7800,M,M,M,0.00,0.00,M,30.02,M,10.00,M,CLR,M,M,M,M,M,M,M,M,KFTY 011045Z AUTO 00000KT 10SM CLR A3002 RMK MADISHF
FTY,2017-04-01 10:50,-84.5200,33.7800,M,M,M,0.00,0.00,M,30.02,M,10.00,M,CLR,M,M,M,M,M,M,M,M,KFTY 011050Z AUTO 00000KT 10SM CLR A3002 RMK MADISHF
FTY,2017-04-01 10:53,-84.5200,33.7800,53.10,45.00,73.89,0.00,0.00,0.00,30.02,1016.10,10.00,M,CLR,M,M,M,M,M,M,M,M,KFTY 011053Z 00000KT 10SM CLR 12/07 A3002 RMK AO2 SLP161 T01170072
FTY,2017-04-01 10:55,-84.5200,33.7800,M,M,M,0.00,0.00,M,30.02,M,10.00,M,CLR,M,M,M,M,M,M,M,M,KFTY 011055Z AUTO 00000KT 10SM CLR A3002 RMK MADISHF
FTY,2017-04-01 11:00,-84.5200,33.7800,M,M,M,0.00,0.00,M,30.02,M,10.00,M,CLR,M,M,M,M,M,M,M,M,KFTY 011100Z AUTO 00000KT 10SM CLR A3002 RMK MADISHF
FTY,2017-04-01 11:05,-84.5200,33.7800,M,M,M,0.00,0.00,M,30.03,M,10.00,M,CLR,M,M,M,M,M,M,M,M,KFTY 011105Z AUTO 00000KT 10SM CLR A3003 RMK MADISHF
FTY,2017-04-01 11:10,-84.5200,33.7800,M,M,M,0.00,0.00,M,30.03,M,10.00,M,CLR,M,M,M,M,M,M,M,M,KFTY 011110Z AUTO 00000KT 10SM CLR A3003 RMK MADISHF
FTY,2017-04-01 11:15,-84.5200,33.7800,M,M,M,0.00,0.00,M,30.03,M,10.00,M,CLR,M,M,M,M,M,M,M,M,KFTY 011115Z AUTO 00000KT 10SM CLR A3003 RMK MADISHF
FTY,2017-04-01 11:20,-84.5200,33.7800,M,M,M,0.00,0.00,M,30.03,M,10.00,M,CLR,M,M,M,M,M,M,M,M,KFTY 011120Z AUTO 00000KT 10SM CLR A3003 RMK MADISHF
FTY,2017-04-01 11:25,-84.5200,33.7800,M,M,M,0.00,0.00,M,30.04,M,10.00,M,CLR,M,M,M,M,M,M,M,M,KFTY 011125Z AUTO 00000KT 10SM CLR A3004 RMK MADISHF
FTY,2017-04-01 11:30,-84.5200,33.7800,M,M,M,0.00,0.00,M,30.04,M,10.00,M,CLR,M,M,M,M,M,M,M,M,KFTY 011130Z AUTO 00000KT 10SM CLR A3004 RMK MADISHF
FTY,2017-04-01 11:35,-84.5200,33.7800,M,M,M,0.00,0.00,M,30.04,M,10.00,M,CLR,M,M,M,M,M,M,M,M,KFTY 011135Z AUTO 00000KT 10SM CLR A3004 RMK MADISHF
FTY,2017-04-01 11:40,-84.5200,33.7800,M,M,M,0.00,0.00,M,30.04,M,10.00,M,CLR,M,M,M,M,M,M,M,M,KFTY 011140Z AUTO 00000KT 10SM CLR A3004 RMK MADISHF
FTY,2017-04-01 11:45,-84.5200,33.7800,M,M,M,0.00,0.00,M,30.05,M,10.00,M,CLR,M,M,M,M,M,M,M,M,KFTY 011145Z AUTO 00000KT 10SM CLR A3005 RMK MADISHF
FTY,2017-04-01 11:50,-84.5200,33.7800,M,M,M,230.00,3.00,M,30.05,M,10.00,M,CLR,M,M,M,M,M,M,M,M,KFTY 011150Z AUTO 23003KT 10SM CLR A3005 RMK MADISHF
FTY,2017-04-01 11:53,-84.5200,33.7800,51.10,46.00,82.62,230.00,3.00,0.00,30.05,1017.20,10.00,M,CLR,M,M,M,M,M,M,M,M,KFTY 011153Z 23003KT 10SM CLR 11/08 A3005 RMK AO2 SLP172 T01060078 10139 20100 53023
FTY,2017-04-01 11:55,-84.5200,33.7800,M,M,M,240.00,3.00,M,30.05,M,10.00,M,CLR,M,M,M,M,M,M,M,M,KFTY 011155Z AUTO 24003KT 10SM CLR A3005 RMK MADISHF
FTY,2017-04-01 12:00,-84.5200,33.7800,M,M,M,240.00,3.00,M,30.05,M,10.00,M,CLR,M,M,M,M,M,M,M,M,KFTY 011200Z AUTO 24003KT 10SM CLR A3005 RMK MADISHF
FTY,2017-04-01 12:05,-84.5200,33.7800,M,M,M,250.00,3.00,M,30.05,M,10.00,M,CLR,M,M,M,M,M,M,M,M,KFTY 011205Z AUTO 25003KT 10SM CLR A3005 RMK MADISHF
FTY,2017-04-01 12:10,-84.5200,33.7800,M,M,M,250.00,3.00,M,30.06,M,10.00,M,CLR,M,M,M,M,M,M,M,M,KFTY 011210Z AUTO 25003KT 10SM CLR A3006 RMK MADISHF
FTY,2017-04-01 12:15,-84.5200,33.7800,M,M,M,270.00,4.00,M,30.06,M,10.00,M,CLR,M,M,M,M,M,M,M,M,KFTY 011215Z AUTO 27004KT 10SM CLR A3006 RMK MADISHF
FTY,2017-04-01 12:20,-84.5200,33.7800,M,M,M,290.00,3.00,M,30.06,M,10.00,M,CLR,M,M,M,M,M,M,M,M,KFTY 011220Z AUTO 29003KT 10SM CLR A3006 RMK VRB03KT  MADISHF
FTY,2017-04-01 12:25,-84.5200,33.7800,M,M,M,290.00,3.00,M,30.06,M,10.00,M,CLR,M,M,M,M,M,M,M,M,KFTY 011225Z AUTO 29003KT 10SM CLR A3006 RMK MADISHF
FTY,2017-04-01 12:30,-84.5200,33.7800,M,M,M,300.00,3.00,M,30.07,M,10.00,M,CLR,M,M,M,M,M,M,M,M,KFTY 011230Z AUTO 30003KT 10SM CLR A3007 RMK VRB03KT  MADISHF
FTY,2017-04-01 12:35,-84.5200,33.7800,M,M,M,330.00,5.00,M,30.07,M,10.00,M,CLR,M,M,M,M,M,M,M,M,KFTY 011235Z AUTO 33005KT 10SM CLR A3007 RMK MADISHF
FTY,2017-04-01 12:40,-84.5200,33.7800,M,M,M,320.00,6.00,M,30.07,M,10.00,M,CLR,M,M,M,M,M,M,M,M,KFTY 011240Z AUTO 32006KT 10SM CLR A3007 RMK MADISHF
FTY,2017-04-01 12:45,-84.5200,33.7800,M,M,M,320.00,6.00,M,30.07,M,10.00,M,CLR,M,M,M,M,M,M,M,M,KFTY 011245Z AUTO 32006KT 10SM CLR A3007 RMK MADISHF
FTY,2017-04-01 12:50,-84.5200,33.7800,M,M,M,340.00,6.00,M,30.06,M,10.00,M,CLR,M,M,M,M,M,M,M,M,KFTY 011250Z AUTO 34006KT 10SM CLR A3006 RMK MADISHF
FTY,2017-04-01 12:53,-84.5200,33.7800,55.00,46.00,71.60,340.00,4.00,0.00,30.06,1017.70,10.00,M,CLR,M,M,M,M,M,M,M,M,KFTY 011253Z 34004KT 10SM CLR 13/08 A3006 RMK AO2 SLP177 T01280078
FTY,2017-04-01 12:55,-84.5200,33.7800,M,M,M,340.00,5.00,M,30.06,M,10.00,M,CLR,M,M,M,M,M,M,M,M,KFTY 011255Z AUTO 34005KT 10SM CLR A3006 RMK MADISHF
FTY,2017-04-01 13:00,-84.5200,33.7800,M,M,M,340.00,4.00,M,30.06,M,10.00,M,CLR,M,M,M,M,M,M,M,M,KFTY 011300Z AUTO 34004KT 10SM CLR A3006 RMK MADISHF
FTY,2017-04-01 13:05,-84.5200,33.7800,M,M,M,340.00,7.00,M,30.06,M,10.00,M,CLR,M,M,M,M,M,M,M,M,KFTY 011305Z AUTO 34007KT 10SM CLR A3006 RMK MADISHF
FTY,2017-04-01 13:10,-84.5200,33.7800,M,M,M,340.00,8.00,M,30.06,M,10.00,M,CLR,M,M,M,M,M,M,M,M,KFTY 011310Z AUTO 34008KT 10SM CLR A3006 RMK MADISHF
FTY,2017-04-01 13:15,-84.5200,33.7800,M,M,M,320.00,6.00,M,30.07,M,10.00,M,CLR,M,M,M,M,M,M,M,M,KFTY 011315Z AUTO 32006KT 10SM CLR A3007 RMK VRB06KT  MADISHF
FTY,2017-04-01 13:20,-84.5200,33.7800,M,M,M,340.00,6.00,M,30.07,M,10.00,M,CLR,M,M,M,M,M,M,M,M,KFTY 011320Z AUTO 34006KT 10SM CLR A3007 RMK MADISHF
FTY,2017-04-01 13:25,-84.5200,33.7800,M,M,M,350.00,10.00,M,30.07,M,10.00,M,CLR,M,M,M,M,M,M,M,M,KFTY 011325Z AUTO 35010KT 10SM CLR A3007 RMK MADISHF
FTY,2017-04-01 13:30,-84.5200,33.7800,M,M,M,350.00,10.00,M,30.07,M,10.00,M,CLR,M,M,M,M,M,M,M,M,KFTY 011330Z AUTO 35010KT 10SM CLR A3007 RMK MADISHF
FTY,2017-04-01 13:35,-84.5200,33.7800,M,M,M,340.00,8.00,M,30.06,M,10.00,M,CLR,M,M,M,M,M,M,M,M,KFTY 011335Z AUTO 34008KT 10SM CLR A3006 RMK MADISHF
FTY,2017-04-01 13:40,-84.5200,33.7800,M,M,M,330.00,7.00,M,30.06,M,10.00,M,CLR,M,M,M,M,M,M,M,M,KFTY 011340Z AUTO 33007KT 10SM CLR A3006 RMK MADISHF
FTY,2017-04-01 13:45,-84.5200,33.7800,M,M,M,350.00,9.00,M,30.06,M,10.00,M,CLR,M,M,M,M,M,M,M,M,KFTY 011345Z AUTO 35009KT 10SM CLR A3006 RMK MADISHF
FTY,2017-04-01 13:50,-84.5200,33.7800,M,M,M,330.00,9.00,M,30.06,M,10.00,M,CLR,M,M,M,M,M,M,M,M,KFTY 011350Z AUTO 33009KT 10SM CLR A3006 RMK WND 30V02  MADISHF
FTY,2017-04-01 13:53,-84.5200,33.7800,59.00,46.90,64.12,320.00,9.00,0.00,30.06,1017.60,10.00,M,CLR,M,M,M,M,M,M,M,M,KFTY 011353Z 32009KT 10SM CLR 15/08 A3006 RMK AO2 SLP176 T01500083
FTY,2017-04-01 13:55,-84.5200,33.7800,M,M,M,340.00,7.00,M,30.06,M,10.00,M,CLR,M,M,M,M,M,M,M,M,KFTY 011355Z AUTO 34007KT 10SM CLR A3006 RMK MADISHF
FTY,2017-04-01 14:00,-84.5200,33.7800,M,M,M,310.00,8.00,M,30.06,M,10.00,M,CLR,M,M,M,M,M,M,M,M,KFTY 011400Z AUTO 31008KT 10SM CLR A3006 RMK MADISHF
FTY,2017-04-01 14:05,-84.5200,33.7800,M,M,M,310.00,11.00,M,30.06,M,10.00,M,CLR,M,M,M,M,M,M,M,M,KFTY 011405Z AUTO 31011KT 10SM CLR A3006 RMK MADISHF
FTY,2017-04-01 14:10,-84.5200,33.7800,M,M,M,320.00,10.00,M,30.07,M,10.00,M,CLR,M,M,M,M,M,M,M,M,KFTY 011410Z AUTO 32010KT 10SM CLR A3007 RMK MADISHF
FTY,2017-04-01 14:15,-84.5200,33.7800,M,M,M,340.00,6.00,M,30.07,M,10.00,M,CLR,M,M,M,M,M,M,M,M,KFTY 011415Z AUTO 34006KT 10SM CLR A3007 RMK MADISHF
FTY,2017-04-01 14:20,-84.5200,33.7800,M,M,M,300.00,10.00,M,30.07,M,10.00,M,CLR,M,M,M,M,M,M,M,M,KFTY 011420Z AUTO 30010KT 10SM CLR A3007 RMK MADISHF
FTY,2017-04-01 14:25,-84.5200,33.7800,M,M,M,340.00,11.00,M,30.07,M,10.00,M,CLR,M,M,M,M,M,M,M,M,KFTY 011425Z AUTO 34011KT 10SM CLR A3007 RMK MADISHF
FTY,2017-04-01 14:30,-84.5200,33.7800,M,M,M,330.00,9.00,M,30.07,M,10.00,M,CLR,M,M,M,M,M,M,M,M,KFTY 011430Z AUTO 33009KT 10SM CLR A3007 RMK MADISHF
FTY,2017-04-01 14:35,-84.5200,33.7800,M,M,M,330.00,7.00,M,30.07,M,10.00,M,CLR,M,M,M,M,M,M,M,M,KFTY 011435Z AUTO 33007KT 10SM CLR A3007 RMK MADISHF
FTY,2017-04-01 14:40,-84.5200,33.7800,M,M,M,310.00,9.00,M,30.07,M,10.00,M,CLR,M,M,M,M,M,M,M,M,KFTY 011440Z AUTO 31009KT 10SM CLR A3007 RMK MADISHF
FTY,2017-04-01 14:45,-84.5200,33.7800,M,M,M,300.00,10.00,M,30.07,M,10.00,M,CLR,M,M,M,M,M,M,M,M,KFTY 011445Z AUTO 30010KT 10SM CLR A3007 RMK MADISHF
FTY,2017-04-01 14:50,-84.5200,33.7800,M,M,M,300.00,10.00,M,30.07,M,10.00,M,CLR,M,M,M,M,M,M,M,M,KFTY 011450Z AUTO 30010KT 10SM CLR A3007 RMK MADISHF
FTY,2017-04-01 14:53,-84.5200,33.7800,63.00,46.00,53.78,310.00,10.00,0.00,30.07,1017.80,10.00,15.00,CLR,M,M,M,M,M,M,M,M,KFTY 011453Z 31010G15KT 10SM CLR 17/08 A3007 RMK AO2 SLP178 T01720078 51006
FTY,2017-04-01 14:55,-84.5200,33.7800,M,M,M,M,M,M,30.07,M,10.00,19.00,CLR,M,M,M,M,M,M,M,M,KFTY 011455Z AUTO /////G19KT 10SM CLR A3007 RMK MADISHF
FTY,2017-04-01 15:00,-84.5200,33.7800,M,M,M,310.00,12.00,M,30.07,M,10.00,M,CLR,M,M,M,M,M,M,M,M,KFTY 011500Z AUTO 31012KT 10SM CLR A3007 RMK MADISHF
FTY,2017-04-01 15:05,-84.5200,33.7800,M,M,M,320.00,10.00,M,30.07,M,10.00,M,CLR,M,M,M,M,M,M,M,M,KFTY 011505Z AUTO 32010KT 10SM CLR A3007 RMK MADISHF
FTY,2017-04-01 15:10,-84.5200,33.7800,M,M,M,320.00,12.00,M,30.07,M,10.00,M,CLR,M,M,M,M,M,M,M,M,KFTY 011510Z AUTO 32012KT 10SM CLR A3007 RMK MADISHF
FTY,2017-04-01 15:15,-84.5200,33.7800,M,M,M,310.00,11.00,M,30.07,M,10.00,M,CLR,M,M,M,M,M,M,M,M,KFTY 011515Z AUTO 31011KT 10SM CLR A3007 RMK MADISHF
FTY,2017-04-01 15:20,-84.5200,33.7800,M,M,M,310.00,12.00,M,30.07,M,10.00,M,CLR,M,M,M,M,M,M,M,M,KFTY 011520Z AUTO 31012KT 10SM CLR A3007 RMK MADISHF
FTY,2017-04-01 15:25,-84.5200,33.7800,M,M,M,300.00,10.00,M,30.07,M,10.00,M,CLR,M,M,M,M,M,M,M,M,KFTY 011525Z AUTO 30010KT 10SM CLR A3007 RMK MADISHF
FTY,2017-04-01 15:30,-84.5200,33.7800,M,M,M,300.00,12.00,M,30.07,M,10.00,M,CLR,M,M,M,M,M,M,M,M,KFTY 011530Z AUTO 30012KT 10SM CLR A3007 RMK MADISHF
FTY,2017-04-01 15:35,-84.5200,33.7800,M,M,M,300.00,10.00,M,30.07,M,10.00,M,CLR,M,M,M,M,M,M,M,M,KFTY 011535Z AUTO 30010KT 10SM CLR A3007 RMK MADISHF
FTY,2017-04-01 15:40,-84.5200,33.7800,M,M,M,310.00,8.00,M,30.07,M,10.00,M,CLR,M,M,M,M,M,M,M,M,KFTY 011540Z AUTO 31008KT 10SM CLR A3007 RMK MADISHF
FTY,2017-04-01 15:45,-84.5200,33.7800,M,M,M,290.00,7.00,M,30.07,M,10.00,M,CLR,M,M,M,M,M,M,M,M,KFTY 011545Z AUTO 29007KT 10SM CLR A3007 RMK MADISHF
FTY,2017-04-01 15:50,-84.5200,33.7800,M,M,M,290.00,9.00,M,30.07,M,10.00,14.00,CLR,M,M,M,M,M,M,M,M,KFTY 011550Z AUTO 29009G14KT 10SM CLR A3007 RMK MADISHF
FTY,2017-04-01 15:53,-84.5200,33.7800,66.00,46.00,48.43,300.00,7.00,0.00,30.07,1017.70,10.00,M,CLR,M,M,M,M,M,M,M,M,KFTY 011553Z 30007KT 10SM CLR 19/08 A3007 RMK AO2 SLP177 T01890078
FTY,2017-04-01 15:55,-84.5200,33.7800,M,M,M,310.00,9.00,M,30.07,M,10.00,M,CLR,M,M,M,M,M,M,M,M,KFTY 011555Z AUTO 31009KT 10SM CLR A3007 RMK WND 27V34  MADISHF
FTY,2017-04-01 16:00,-84.5200,33.7800,M,M,M,300.00,8.00,M,30.07,M,10.00,M,CLR,M,M,M,M,M,M,M,M,KFTY 011600Z AUTO 30008KT 10SM CLR A3007 RMK WND 28V35  MADISHF
FTY,2017-04-01 16:05,-84.5200,33.7800,M,M,M,290.00,9.00,M,30.07,M,10.00,M,CLR,M,M,M,M,M,M,M,M,KFTY 011605Z AUTO 29009KT 10SM CLR A3007 RMK MADISHF
FTY,2017-04-01 16:10,-84.5200,33.7800,M,M,M,330.00,8.00,M,30.07,M,10.00,M,CLR,M,M,M,M,M,M,M,M,KFTY 011610Z AUTO 33008KT 10SM CLR A3007 RMK MADISHF
FTY,2017-04-01 16:15,-84.5200,33.7800,M,M,M,290.00,10.00,M,30.07,M,10.00,M,CLR,M,M,M,M,M,M,M,M,KFTY 011615Z AUTO 29010KT 10SM CLR A3007 RMK WND 28V34  MADISHF
FTY,2017-04-01 16:20,-84.5200,33.7800,M,M,M,310.00,11.00,M,30.07,M,10.00,M,CLR,M,M,M,M,M,M,M,M,KFTY 011620Z AUTO 31011KT 10SM CLR A3007 RMK MADISHF
FTY,2017-04-01 16:25,-84.5200,33.7800,M,M,M,290.00,12.00,M,30.07,M,10.00,M,CLR,M,M,M,M,M,M,M,M,KFTY 011625Z AUTO 29012KT 10SM CLR A3007 RMK MADISHF
FTY,2017-04-01 16:30,-84.5200,33.7800,M,M,M,280.00,11.00,M,30.07,M,10.00,M,CLR,M,M,M,M,M,M,M,M,KFTY 011630Z AUTO 28011KT 10SM CLR A3007 RMK MADISHF
FTY,2017-04-01 16:35,-84.5200,33.7800,M,M,M,300.00,12.00,M,30.07,M,10.00,M,CLR,M,M,M,M,M,M,M,M,KFTY 011635Z AUTO 30012KT 10SM CLR A3007 RMK MADISHF
FTY,2017-04-01 16:40,-84.5200,33.7800,M,M,M,320.00,9.00,M,30.07,M,10.00,M,CLR,M,M,M,M,M,M,M,M,KFTY 011640Z AUTO 32009KT 10SM CLR A3007 RMK WND 29V35  MADISHF
FTY,2017-04-01 16:45,-84.5200,33.7800,M,M,M,350.00,9.00,M,30.07,M,10.00,M,CLR,M,M,M,M,M,M,M,M,KFTY 011645Z AUTO 35009KT 10SM CLR A3007 RMK MADISHF
FTY,2017-04-01 16:50,-84.5200,33.7800,M,M,M,320.00,10.00,M,30.07,M,10.00,M,CLR,M,M,M,M,M,M,M,M,KFTY 011650Z AUTO 32010KT 10SM CLR A3007 RMK MADISHF
FTY,2017-04-01 16:53,-84.5200,33.7800,70.00,46.00,42.20,310.00,9.00,0.00,30.06,1017.50,10.00,M,CLR,M,M,M,M,M,M,M,M,KFTY 011653Z 31009KT 10SM CLR 21/08 A3006 RMK AO2 SLP175 T02110078
FTY,2017-04-01 16:55,-84.5200,33.7800,M,M,M,310.00,9.00,M,30.06,M,10.00,M,CLR,M,M,M,M,M,M,M,M,KFTY 011655Z AUTO 31009KT 10SM CLR A3006 RMK MADISHF
FTY,2017-04-01 17:00,-84.5200,33.7800,M,M,M,320.00,9.00,M,30.06,M,10.00,M,CLR,M,M,M,M,M,M,M,M,KFTY 011700Z AUTO 32009KT 10SM CLR A3006 RMK WND 30V01  MADISHF
FTY,2017-04-01 17:05,-84.5200,33.7800,M,M,M,320.00,11.00,M,30.06,M,10.00,M,CLR,M,M,M,M,M,M,M,M,KFTY 011705Z AUTO 32011KT 10SM CLR A3006 RMK MADISHF
FTY,2017-04-01 17:10,-84.5200,33.7800,M,M,M,350.00,10.00,M,30.06,M,10.00,M,CLR,M,M,M,M,M,M,M,M,KFTY 011710Z AUTO 35010KT 10SM CLR A3006 RMK MADISHF
FTY,2017-04-01 17:15,-84.5200,33.7800,M,M,M,M,M,M,30.06,M,10.00,M,CLR,M,M,M,M,M,M,M,M,KFTY 011715Z AUTO /////KT 10SM CLR A3006 RMK MADISHF
FTY,2017-04-01 17:20,-84.5200,33.7800,M,M,M,350.00,10.00,M,30.06,M,10.00,M,CLR,M,M,M,M,M,M,M,M,KFTY 011720Z AUTO 35010KT 10SM CLR A3006 RMK MADISHF
FTY,2017-04-01 17:25,-84.5200,33.7800,M,M,M,330.00,11.00,M,30.06,M,10.00,M,CLR,M,M,M,M,M,M,M,M,KFTY 011725Z AUTO 33011KT 10SM CLR A3006 RMK MADISHF
FTY,2017-04-01 17:30,-84.5200,33.7800,M,M,M,350.00,10.00,M,30.06,M,10.00,M,CLR,M,M,M,M,M,M,M,M,KFTY 011730Z AUTO 35010KT 10SM CLR A3006 RMK MADISHF
FTY,2017-04-01 17:35,-84.5200,33.7800,M,M,M,340.00,9.00,M,30.06,M,10.00,M,CLR,M,M,M,M,M,M,M,M,KFTY 011735Z AUTO 34009KT 10SM CLR A3006 RMK MADISHF
FTY,2017-04-01 17:40,-84.5200,33.7800,M,M,M,330.00,9.00,M,30.06,M,10.00,M,CLR,M,M,M,M,M,M,M,M,KFTY 011740Z AUTO 33009KT 10SM CLR A3006 RMK MADISHF
FTY,2017-04-01 17:45,-84.5200,33.7800,M,M,M,M,M,M,30.06,M,10.00,M,CLR,M,M,M,M,M,M,M,M,KFTY 011745Z AUTO /////KT 10SM CLR A3006 RMK MADISHF
FTY,2017-04-01 17:50,-84.5200,33.7800,M,M,M,320.00,11.00,M,30.06,M,10.00,M,CLR,M,M,M,M,M,M,M,M,KFTY 011750Z AUTO 32011KT 10SM CLR A3006 RMK MADISHF
FTY,2017-04-01 17:53,-84.5200,33.7800,71.10,46.00,40.65,330.00,7.00,0.00,30.06,1017.20,10.00,M,CLR,M,M,M,M,M,M,M,M,KFTY 011753Z 33007KT 300V020 10SM CLR 22/08 A3006 RMK AO2 SLP172 T02170078 10217 20106 58004
FTY,2017-04-01 17:55,-84.5200,33.7800,M,M,M,330.00,10.00,M,30.06,M,10.00,M,CLR,M,M,M,M,M,M,M,M,KFTY 011755Z AUTO 33010KT 10SM CLR A3006 RMK MADISHF
FTY,2017-04-01 18:00,-84.5200,33.7800,M,M,M,350.00,9.00,M,30.06,M,10.00,M,CLR,M,M,M,M,M,M,M,M,KFTY 011800Z AUTO 35009KT 10SM CLR A3006 RMK MADISHF
FTY,2017-04-01 18:05,-84.5200,33.7800,M,M,M,300.00,5.00,M,30.06,M,10.00,M,CLR,M,M,M,M,M,M,M,M,KFTY 011805Z AUTO 30005KT 10SM CLR A3006 RMK VRB05KT  MADISHF
FTY,2017-04-01 18:10,-84.5200,33.7800,M,M,M,300.00,9.00,M,30.05,M,10.00,M,CLR,M,M,M,M,M,M,M,M,KFTY 011810Z AUTO 30009KT 10SM CLR A3005 RMK MADISHF
FTY,2017-04-01 18:15,-84.5200,33.7800,M,M,M,340.00,9.00,M,30.05,M,10.00,M,CLR,M,M,M,M,M,M,M,M,KFTY 011815Z AUTO 34009KT 10SM CLR A3005 RMK MADISHF
FTY,2017-04-01 18:20,-84.5200,33.7800,M,M,M,350.00,8.00,M,30.05,M,10.00,M,CLR,M,M,M,M,M,M,M,M,KFTY 011820Z AUTO 35008KT 10SM CLR A3005 RMK MADISHF
FTY,2017-04-01 18:25,-84.5200,33.7800,M,M,M,280.00,10.00,M,30.05,M,10.00,M,CLR,M,M,M,M,M,M,M,M,KFTY 011825Z AUTO 28010KT 10SM CLR A3005 RMK MADISHF
FTY,2017-04-01 18:30,-84.5200,33.7800,M,M,M,280.00,10.00,M,30.05,M,10.00,M,CLR,M,M,M,M,M,M,M,M,KFTY 011830Z AUTO 28010KT 10SM CLR A3005 RMK MADISHF
FTY,2017-04-01 18:35,-84.5200,33.7800,M,M,M,300.00,10.00,M,30.05,M,10.00,M,CLR,M,M,M,M,M,M,M,M,KFTY 011835Z AUTO 30010KT 10SM CLR A3005 RMK MADISHF
FTY,2017-04-01 18:40,-84.5200,33.7800,M,M,M,310.00,7.00,M,30.05,M,10.00,M,CLR,M,M,M,M,M,M,M,M,KFTY 011840Z AUTO 31007KT 10SM CLR A3005 RMK MADISHF
FTY,2017-04-01 18:45,-84.5200,33.7800,M,M,M,310.00,9.00,M,30.05,M,10.00,M,CLR,M,M,M,M,M,M,M,M,KFTY 011845Z AUTO 31009KT 10SM CLR A3005 RMK MADISHF
FTY,2017-04-01 18:50,-84.5200,33.7800,M,M,M,310.00,10.00,M,30.05,M,10.00,M,CLR,M,M,M,M,M,M,M,M,KFTY 011850Z AUTO 31010KT 10SM CLR A3005 RMK MADISHF
FTY,2017-04-01 18:53,-84.5200,33.7800,73.00,45.00,36.70,330.00,7.00,0.00,30.04,1016.80,10.00,M,CLR,M,M,M,M,M,M,M,M,KFTY 011853Z 33007KT 290V360 10SM CLR 23/07 A3004 RMK AO2 SLP168 T02280072
FTY,2017-04-01 18:55,-84.5200,33.7800,M,M,M,320.00,7.00,M,30.04,M,10.00,M,CLR,M,M,M,M,M,M,M,M,KFTY 011855Z AUTO 32007KT 10SM CLR A3004 RMK MADISHF
FTY,2017-04-01 19:00,-84.5200,33.7800,M,M,M,320.00,7.00,M,30.04,M,10.00,M,CLR,M,M,M,M,M,M,M,M,KFTY 011900Z AUTO 32007KT 10SM CLR A3004 RMK WND 29V36  MADISHF
FTY,2017-04-01 19:05,-84.5200,33.7800,M,M,M,310.00,7.00,M,30.04,M,10.00,M,CLR,M,M,M,M,M,M,M,M,KFTY 011905Z AUTO 31007KT 10SM CLR A3004 RMK WND 27V34  MADISHF
FTY,2017-04-01 19:10,-84.5200,33.7800,M,M,M,310.00,8.00,M,30.04,M,10.00,M,CLR,M,M,M,M,M,M,M,M,KFTY 011910Z AUTO 31008KT 10SM CLR A3004 RMK MADISHF
FTY,2017-04-01 19:15,-84.5200,33.7800,M,M,M,330.00,5.00,M,30.04,M,10.00,M,CLR,M,M,M,M,M,M,M,M,KFTY 011915Z AUTO 33005KT 10SM CLR A3004 RMK VRB05KT  MADISHF
FTY,2017-04-01 19:20,-84.5200,33.7800,M,M,M,300.00,9.00,M,30.04,M,10.00,M,CLR,M,M,M,M,M,M,M,M,KFTY 011920Z AUTO 30009KT 10SM CLR A3004 RMK MADISHF
FTY,2017-04-01 19:25,-84.5200,33.7800,M,M,M,310.00,7.00,M,30.04,M,10.00,M,CLR,M,M,M,M,M,M,M,M,KFTY 011925Z AUTO 31007KT 10SM CLR A3004 RMK MADISHF
FTY,2017-04-01 19:30,-84.5200,33.7800,M,M,M,320.00,7.00,M,30.04,M,10.00,M,CLR,M,M,M,M,M,M,M,M,KFTY 011930Z AUTO 32007KT 10SM CLR A3004 RMK MADISHF
FTY,2017-04-01 19:35,-84.5200,33.7800,M,M,M,350.00,7.00,M,30.03,M,10.00,M,CLR,M,M,M,M,M,M,M,M,KFTY 011935Z AUTO 35007KT 10SM CLR A3003 RMK MADISHF
FTY,2017-04-01 19:40,-84.5200,33.7800,M,M,M,330.00,5.00,M,30.03,M,10.00,M,CLR,M,M,M,M,M,M,M,M,KFTY 011940Z AUTO 33005KT 10SM CLR A3003 RMK VRB05KT  MADISHF
FTY,2017-04-01 19:45,-84.5200,33.7800,M,M,M,330.00,9.00,M,30.03,M,10.00,M,CLR,M,M,M,M,M,M,M,M,KFTY 011945Z AUTO 33009KT 10SM CLR A3003 RMK MADISHF
FTY,2017-04-01 19:50,-84.5200,33.7800,M,M,M,300.00,8.00,M,30.03,M,10.00,M,CLR,M,M,M,M,M,M,M,M,KFTY 011950Z AUTO 30008KT 10SM CLR A3003 RMK MADISHF
FTY,2017-04-01 19:53,-84.5200,33.7800,75.90,46.90,35.78,M,3.00,0.00,30.03,1016.30,10.00,M,CLR,M,M,M,M,M,M,M,M,KFTY 011953Z VRB03KT 10SM CLR 24/08 A3003 RMK AO2 SLP163 T02440083
FTY,2017-04-01 19:55,-84.5200,33.7800,M,M,M,M,M,M,30.03,M,10.00,M,CLR,M,M,M,M,M,M,M,M,KFTY 011955Z AUTO /////KT 10SM CLR A3003 RMK MADISHF
FTY,2017-04-01 20:00,-84.5200,33.7800,M,M,M,310.00,5.00,M,30.03,M,10.00,M,CLR,M,M,M,M,M,M,M,M,KFTY 012000Z AUTO 31005KT 10SM CLR A3003 RMK MADISHF
FTY,2017-04-01 20:05,-84.5200,33.7800,M,M,M,290.00,5.00,M,30.03,M,10.00,M,CLR,M,M,M,M,M,M,M,M,KFTY 012005Z AUTO 29005KT 10SM CLR A3003 RMK MADISHF
FTY,2017-04-01 20:10,-84.5200,33.7800,M,M,M,M,M,M,30.03,M,10.00,M,CLR,M,M,M,M,M,M,M,M,KFTY 012010Z AUTO /////KT 10SM CLR A3003 RMK MADISHF
FTY,2017-04-01 20:15,-84.5200,33.7800,M,M,M,290.00,8.00,M,30.02,M,10.00,M,CLR,M,M,M,M,M,M,M,M,KFTY 012015Z AUTO 29008KT 10SM CLR A3002 RMK MADISHF
FTY,2017-04-01 20:20,-84.5200,33.7800,M,M,M,300.00,11.00,M,30.02,M,10.00,M,CLR,M,M,M,M,M,M,M,M,KFTY 012020Z AUTO 30011KT 10SM CLR A3002 RMK MADISHF
FTY,2017-04-01 20:25,-84.5200,33.7800,M,M,M,290.00,7.00,M,30.02,M,10.00,M,CLR,M,M,M,M,M,M,M,M,KFTY 012025Z AUTO 29007KT 10SM CLR A3002 RMK MADISHF
FTY,2017-04-01 20:30,-84.5200,33.7800,M,M,M,300.00,10.00,M,30.02,M,10.00,17.00,CLR,M,M,M,M,M,M,M,M,KFTY 012030Z AUTO 30010G17KT 10SM CLR A3002 RMK MADISHF
FTY,2017-04-01 20:35,-84.5200,33.7800,M,M,M,290.00,11.00,M,30.02,M,10.00,M,CLR,M,M,M,M,M,M,M,M,KFTY 012035Z AUTO 29011KT 10SM CLR A3002 RMK MADISHF
FTY,2017-04-01 20:40,-84.5200,33.7800,M,M,M,290.00,9.00,M,30.02,M,10.00,M,CLR,M,M,M,M,M,M,M,M,KFTY 012040Z AUTO 29009KT 10SM CLR A3002 RMK MADISHF
FTY,2017-04-01 20:45,-84.5200,33.7800,M,M,M,290.00,7.00,M,30.02,M,10.00,M,CLR,M,M,M,M,M,M,M,M,KFTY 012045Z AUTO 29007KT 10SM CLR A3002 RMK WND 25V32  MADISHF
FTY,2017-04-01 20:50,-84.5200,33.7800,M,M,M,320.00,7.00,M,30.02,M,10.00,M,CLR,M,M,M,M,M,M,M,M,KFTY 012050Z AUTO 32007KT 10SM CLR A3002 RMK MADISHF
FTY,2017-04-01 20:53,-84.5200,33.7800,75.00,46.00,35.64,320.00,8.00,0.00,30.02,1016.00,10.00,M,CLR,M,M,M,M,M,M,M,M,KFTY 012053Z 32008KT 10SM CLR 24/08 A3002 RMK AO2 SLP160 T02390078 56012
FTY,2017-04-01 20:55,-84.5200,33.7800,M,M,M,290.00,6.00,M,30.02,M,10.00,M,CLR,M,M,M,M,M,M,M,M,KFTY 012055Z AUTO 29006KT 10SM CLR A3002 RMK VRB06KT  MADISHF
FTY,2017-04-01 21:00,-84.5200,33.7800,M,M,M,320.00,7.00,M,30.02,M,10.00,M,CLR,M,M,M,M,M,M,M,M,KFTY 012100Z AUTO 32007KT 10SM CLR A3002 RMK MADISHF
FTY,2017-04-01 21:05,-84.5200,33.7800,M,M,M,280.00,8.00,M,30.02,M,10.00,M,CLR,M,M,M,M,M,M,M,M,KFTY 012105Z AUTO 28008KT 10SM CLR A3002 RMK MADISHF
FTY,2017-04-01 21:10,-84.5200,33.7800,M,M,M,270.00,9.00,M,30.02,M,10.00,M,CLR,M,M,M,M,M,M,M,M,KFTY 012110Z AUTO 27009KT 10SM CLR A3002 RMK MADISHF
FTY,2017-04-01 21:15,-84.5200,33.7800,M,M,M,330.00,7.00,M,30.02,M,10.00,M,CLR,M,M,M,M,M,M,M,M,KFTY 012115Z AUTO 33007KT 10SM CLR A3002 RMK WND 30V01  MADISHF
FTY,2017-04-01 21:20,-84.5200,33.7800,M,M,M,310.00,7.00,M,30.03,M,10.00,M,CLR,M,M,M,M,M,M,M,M,KFTY 012120Z AUTO 31007KT 10SM CLR A3003 RMK MADISHF
FTY,2017-04-01 21:25,-84.5200,33.7800,M,M,M,M,M,M,30.03,M,10.00,M,CLR,M,M,M,M,M,M,M,M,KFTY 012125Z AUTO /////KT 10SM CLR A3003 RMK MADISHF
FTY,2017-04-01 21:30,-84.5200,33.7800,M,M,M,310.00,10.00,M,30.02,M,10.00,M,CLR,M,M,M,M,M,M,M,M,KFTY 012130Z AUTO 31010KT 10SM CLR A3002 RMK MADISHF
FTY,2017-04-01 21:35,-84.5200,33.7800,M,M,M,M,M,M,30.02,M,10.00,M,CLR,M,M,M,M,M,M,M,M,KFTY 012135Z AUTO /////KT 10SM CLR A3002 RMK MADISHF
FTY,2017-04-01 21:40,-84.5200,33.7800,M,M,M,M,M,M,30.03,M,10.00,M,CLR,M,M,M,M,M,M,M,M,KFTY 012140Z AUTO /////KT 10SM CLR A3003 RMK MADISHF
FTY,2017-04-01 21:45,-84.5200,33.7800,M,M,M,300.00,8.00,M,30.03,M,10.00,M,CLR,M,M,M,M,M,M,M,M,KFTY 012145Z AUTO 30008KT 10SM CLR A3003 RMK MADISHF
FTY,2017-04-01 21:50,-84.5200,33.7800,M,M,M,320.00,9.00,M,30.03,M,10.00,M,CLR,M,M,M,M,M,M,M,M,KFTY 012150Z AUTO 32009KT 10SM CLR A3003 RMK MADISHF
FTY,2017-04-01 21:53,-84.5200,33.7800,75.90,45.00,33.30,330.00,9.00,0.00,30.03,1016.20,10.00,18.00,CLR,M,M,M,M,M,M,M,M,KFTY 012153Z 33009G18KT 10SM CLR 24/07 A3003 RMK AO2 SLP162 T02440072
FTY,2017-04-01 21:55,-84.5200,33.7800,M,M,M,330.00,9.00,M,30.03,M,10.00,M,CLR,M,M,M,M,M,M,M,M,KFTY 012155Z AUTO 33009KT 10SM CLR A3003 RMK MADISHF
FTY,2017-04-01 22:00,-84.5200,33.7800,M,M,M,350.00,6.00,M,30.03,M,10.00,M,CLR,M,M,M,M,M,M,M,M,KFTY 012200Z AUTO 35006KT 10SM CLR A3003 RMK MADISHF
FTY,2017-04-01 22:05,-84.5200,33.7800,M,M,M,320.00,10.00,M,30.03,M,10.00,M,CLR,M,M,M,M,M,M,M,M,KFTY 012205Z AUTO 32010KT 10SM CLR A3003 RMK MADISHF
FTY,2017-04-01 22:10,-84.5200,33.7800,M,M,M,320.00,6.00,M,30.03,M,10.00,M,CLR,M,M,M,M,M,M,M,M,KFTY 012210Z AUTO 32006KT 10SM CLR A3003 RMK MADISHF
FTY,2017-04-01 22:15,-84.5200,33.7800,M,M,M,310.00,8.00,M,30.03,M,10.00,M,CLR,M,M,M,M,M,M,M,M,KFTY 012215Z AUTO 31008KT 10SM CLR A3003 RMK MADISHF
FTY,2017-04-01 22:20,-84.5200,33.7800,M,M,M,330.00,10.00,M,30.03,M,10.00,M,CLR,M,M,M,M,M,M,M,M,KFTY 012220Z AUTO 33010KT 10SM CLR A3003 RMK MADISHF
FTY,2017-04-01 22:25,-84.5200,33.7800,M,M,M,320.00,6.00,M,30.03,M,10.00,M,CLR,M,M,M,M,M,M,M,M,KFTY 012225Z AUTO 32006KT 10SM CLR A3003 RMK MADISHF
FTY,2017-04-01 22:30,-84.5200,33.7800,M,M,M,330.00,5.00,M,30.03,M,10.00,M,CLR,M,M,M,M,M,M,M,M,KFTY 012230Z AUTO 33005KT 10SM CLR A3003 RMK MADISHF
FTY,2017-04-01 22:35,-84.5200,33.7800,M,M,M,330.00,6.00,M,30.03,M,10.00,M,CLR,M,M,M,M,M,M,M,M,KFTY 012235Z AUTO 33006KT 10SM CLR A3003 RMK MADISHF
FTY,2017-04-01 22:40,-84.5200,33.7800,M,M,M,310.00,6.00,M,30.03,M,10.00,M,CLR,M,M,M,M,M,M,M,M,KFTY 012240Z AUTO 31006KT 10SM CLR A3003 RMK MADISHF
FTY,2017-04-01 22:45,-84.5200,33.7800,M,M,M,340.00,8.00,M,30.04,M,10.00,M,CLR,M,M,M,M,M,M,M,M,KFTY 012245Z AUTO 34008KT 10SM CLR A3004 RMK MADISHF
FTY,2017-04-01 22:50,-84.5200,33.7800,M,M,M,350.00,7.00,M,30.04,M,10.00,M,CLR,M,M,M,M,M,M,M,M,KFTY 012250Z AUTO 35007KT 10SM CLR A3004 RMK MADISHF
FTY,2017-04-01 22:53,-84.5200,33.7800,75.00,45.00,34.31,360.00,7.00,0.00,30.04,1016.60,10.00,M,CLR,M,M,M,M,M,M,M,M,KFTY 012253Z 36007KT 10SM CLR 24/07 A3004 RMK AO2 SLP166 T02390072
FTY,2017-04-01 22:55,-84.5200,33.7800,M,M,M,340.00,9.00,M,30.04,M,10.00,M,CLR,M,M,M,M,M,M,M,M,KFTY 012255Z AUTO 34009KT 10SM CLR A3004 RMK WND 30V02  MADISHF
FTY,2017-04-01 23:00,-84.5200,33.7800,M,M,M,310.00,8.00,M,30.04,M,10.00,M,CLR,M,M,M,M,M,M,M,M,KFTY 012300Z AUTO 31008KT 10SM CLR A3004 RMK MADISHF
FTY,2017-04-01 23:05,-84.5200,33.7800,M,M,M,310.00,5.00,M,30.04,M,10.00,M,CLR,M,M,M,M,M,M,M,M,KFTY 012305Z AUTO 31005KT 10SM CLR A3004 RMK MADISHF
FTY,2017-04-01 23:10,-84.5200,33.7800,M,M,M,330.00,7.00,M,30.04,M,10.00,M,CLR,M,M,M,M,M,M,M,M,KFTY 012310Z AUTO 33007KT 10SM CLR A3004 RMK MADISHF
FTY,2017-04-01 23:15,-84.5200,33.7800,M,M,M,340.00,7.00,M,30.04,M,10.00,M,CLR,M,M,M,M,M,M,M,M,KFTY 012315Z AUTO 34007KT 10SM CLR A3004 RMK MADISHF
FTY,2017-04-01 23:20,-84.5200,33.7800,M,M,M,340.00,6.00,M,30.04,M,10.00,M,CLR,M,M,M,M,M,M,M,M,KFTY 012320Z AUTO 34006KT 10SM CLR A3004 RMK MADISHF
FTY,2017-04-01 23:25,-84.5200,33.7800,M,M,M,340.00,6.00,M,30.04,M,10.00,M,CLR,M,M,M,M,M,M,M,M,KFTY 012325Z AUTO 34006KT 10SM CLR A3004 RMK MADISHF
FTY,2017-04-01 23:30,-84.5200,33.7800,M,M,M,340.00,5.00,M,30.04,M,10.00,M,CLR,M,M,M,M,M,M,M,M,KFTY 012330Z AUTO 34005KT 10SM CLR A3004 RMK MADISHF
FTY,2017-04-01 23:35,-84.5200,33.7800,M,M,M,330.00,6.00,M,30.04,M,10.00,M,CLR,M,M,M,M,M,M,M,M,KFTY 012335Z AUTO 33006KT 10SM CLR A3004 RMK MADISHF
FTY,2017-04-01 23:40,-84.5200,33.7800,M,M,M,340.00,5.00,M,30.04,M,10.00,M,CLR,M,M,M,M,M,M,M,M,KFTY 012340Z AUTO 34005KT 10SM CLR A3004 RMK MADISHF
FTY,2017-04-01 23:45,-84.5200,33.7800,M,M,M,350.00,5.00,M,30.04,M,10.00,M,CLR,M,M,M,M,M,M,M,M,KFTY 012345Z AUTO 35005KT 10SM CLR A3004 RMK MADISHF
FTY,2017-04-01 23:50,-84.5200,33.7800,M,M,M,340.00,5.00,M,30.05,M,10.00,M,CLR,M,M,M,M,M,M,M,M,KFTY 012350Z AUTO 34005KT 10SM CLR A3005 RMK MADISHF
FTY,2017-04-01 23:53,-84.5200,33.7800,71.10,44.10,37.81,350.00,6.00,0.00,30.05,1017.00,10.00,M,CLR,M,M,M,M,M,M,M,M,KFTY 012353Z 35006KT 10SM CLR 22/07 A3005 RMK AO2 SLP170 T02170067 10250 20217 53008
FTY,2017-04-01 23:55,-84.5200,33.7800,M,M,M,350.00,5.00,M,30.05,M,10.00,M,CLR,M,M,M,M,M,M,M,M,KFTY 012355Z AUTO 35005KT 10SM CLR A3005 RMK MADISHF
