#DEBUG: Format Typ    -> comma
#DEBUG: Time Period   -> 2017-04-01 00:00:00+00:00 2017-04-02 00:00:00+00:00
#DEBUG: Time Zone     -> Etc/UTC
#DEBUG: Data Contact   -> daryl herzmann akrherz@iastate.edu 515-294-5978
#DEBUG: Entries Found -> -1
station,valid,lon,lat,tmpf, dwpf, relh, drct, sknt, p01i, alti, mslp, vsby, gust, skyc1, skyc2, skyc3, skyc4, skyl1, skyl2, skyl3, skyl4, presentwx, metar
FWN,2017-04-01 00:00,-74.6231,41.2002,M,M,M,40.00,8.00,M,29.78,M,9.00,M,OVC,M,M,M,1500.00,M,M,M,-RA,KFWN 010000Z AUTO 04008KT 9SM -RA OVC015 A2978 RMK MADISHF
FWN,2017-04-01 00:05,-74.6231,41.2002,M,M,M,50.00,8.00,M,29.77,M,10.00,M,OVC,M,M,M,1500.00,M,M,M,-RA,KFWN 010005Z AUTO 05008KT 10SM -RA OVC015 A2977 RMK MADISHF
FWN,2017-04-01 00:10,-74.6231,41.2002,M,M,M,50.00,10.00,M,29.77,M,10.00,M,OVC,M,M,M,1500.00,M,M,M,-RA,KFWN 010010Z AUTO 05010KT 10SM -RA OVC015 A2977 RMK MADISHF
FWN,2017-04-01 00:15,-74.6231,41.2002,M,M,M,40.00,10.00,M,29.77,M,10.00,M,OVC,M,M,M,1500.00,M,M,M,-RA,KFWN 010015Z AUTO 04010KT 10SM -RA OVC015 A2977 RMK MADISHF
FWN,2017-04-01 00:20,-74.6231,41.2002,M,M,M,40.00,9.00,0.01,29.77,M,7.00,M,OVC,M,M,M,1500.00,M,M,M,-RA,KFWN 010020Z AUTO 04009KT 7SM -RA OVC015 A2977 RMK P0001 MADISHF
FWN,2017-04-01 00:25,-74.6231,41.2002,M,M,M,40.00,10.00,0.01,29.77,M,6.00,M,OVC,M,M,M,1500.00,M,M,M,-RA BR,KFWN 010025Z AUTO 04010KT 6SM -RA BR OVC015 A2977 RMK P0001 MADISHF
FWN,2017-04-01 00:30,-74.6231,41.2002,M,M,M,30.00,7.00,0.02,29.78,M,6.00,M,OVC,M,M,M,1500.00,M,M,M,-RA BR,KFWN 010030Z AUTO 03007KT 6SM -RA BR OVC015 A2978 RMK P0002 MADISHF
FWN,2017-04-01 00:35,-74.6231,41.2002,M,M,M,50.00,8.00,0.02,29.78,M,6.00,M,OVC,M,M,M,1500.00,M,M,M,-RA BR,KFWN 010035Z AUTO 05008KT 6SM -RA BR OVC015 A2978 RMK P0002 MADISHF
FWN,2017-04-01 00:40,-74.6231,41.2002,M,M,M,30.00,9.00,0.02,29.78,M,5.00,M,OVC,M,M,M,1500.00,M,M,M,-RA BR,KFWN 010040Z AUTO 03009KT 5SM -RA BR OVC015 A2978 RMK P0002 MADISHF
FWN,2017-04-01 00:45,-74.6231,41.2002,M,M,M,40.00,7.00,0.02,29.77,M,5.00,M,OVC,M,M,M,1500.00,M,M,M,-RA BR,KFWN 010045Z AUTO 04007KT 5SM -RA BR OVC015 A2977 RMK P0002 MADISHF
FWN,2017-04-01 00:50,-74.6231,41.2002,M,M,M,50.00,10.00,0.02,29.77,M,5.00,M,OVC,M,M,M,1500.00,M,M,M,-RA BR,KFWN 010050Z AUTO 05010KT 5SM -RA BR OVC015 A2977 RMK P0002 MADISHF
FWN,2017-04-01 00:53,-74.6231,41.2002,37.00,35.10,92.76,40.00,8.00,0.02,29.77,1008.40,6.00,M,BKN,OVC,M,M,1400.00,1900.00,M,M,-RA BR,KFWN 010053Z AUTO 04008KT 6SM -RA BR BKN014 OVC019 03/02 A2977 RMK AO2 SLP084 P0002 T00280017
FWN,2017-04-01 00:55,-74.6231,41.2002,M,M,M,40.00,10.00,M,29.77,M,6.00,M,OVC,M,M,M,1600.00,M,M,M,-RA BR,KFWN 010055Z AUTO 04010KT 6SM -RA BR OVC016 A2977 RMK MADISHF
FWN,2017-04-01 01:00,-74.6231,41.2002,M,M,M,20.00,9.00,M,29.78,M,7.00,M,OVC,M,M,M,1600.00,M,M,M,-RA,KFWN 010100Z AUTO 02009KT 7SM -RA OVC016 A2978 RMK MADISHF
FWN,2017-04-01 01:01,-74.6231,41.2002,37.00,35.10,92.76,20.00,10.00,0.00,29.78,M,7.00,M,OVC,M,M,M,1600.00,M,M,M,-RA,KFWN 010101Z AUTO 02010KT 7SM -RA OVC016 03/02 A2978 RMK AO2 P0000 T00280017
FWN,2017-04-01 01:05,-74.6231,41.2002,M,M,M,20.00,7.00,M,29.78,M,7.00,M,OVC,M,M,M,1600.00,M,M,M,-RA,KFWN 010105Z AUTO 02007KT 7SM -RA OVC016 A2978 RMK MADISHF
FWN,2017-04-01 01:10,-74.6231,41.2002,M,M,M,20.00,9.00,M,29.78,M,7.00,M,OVC,M,M,M,1600.00,M,M,M,-RA,KFWN 010110Z AUTO 02009KT 7SM -RA OVC016 A2978 RMK MADISHF
FWN,2017-04-01 01:15,-74.6231,41.2002,M,M,M,20.00,9.00,0.01,29.78,M,6.00,M,OVC,M,M,M,1400.00,M,M,M,-RA BR,KFWN 010115Z AUTO 02009KT 6SM -RA BR OVC014 A2978 RMK P0001 MADISHF
FWN,2017-04-01 01:17,-74.6231,41.2002,37.00,35.10,92.76,20.00,10.00,0.01,29.78,M,6.00,M,OVC,M,M,M,1400.00,M,M,M,-RA BR,KFWN 010117Z AUTO 02010KT 6SM -RA BR OVC014 03/02 A2978 RMK AO2 P0001 T00280017
FWN,2017-04-01 01:20,-74.6231,41.2002,M,M,M,30.00,9.00,0.01,29.78,M,5.00,M,OVC,M,M,M,1400.00,M,M,M,-RA BR,KFWN 010120Z AUTO 03009KT 5SM -RA BR OVC014 A2978 RMK P0001 MADISHF
FWN,2017-04-01 01:25,-74.6231,41.2002,M,M,M,30.00,9.00,0.02,29.78,M,5.00,M,OVC,M,M,M,1400.00,M,M,M,-RA BR,KFWN 010125Z AUTO 03009KT 5SM -RA BR OVC014 A2978 RMK P0002 MADISHF
FWN,2017-04-01 01:30,-74.6231,41.2002,M,M,M,30.00,10.00,0.02,29.78,M,5.00,16.00,OVC,M,M,M,1400.00,M,M,M,RA BR,KFWN 010130Z AUTO 03010G16KT 5SM RA BR OVC014 A2978 RMK P0002 MADISHF
FWN,2017-04-01 01:35,-74.6231,41.2002,M,M,M,50.00,9.00,0.03,29.78,M,4.00,M,OVC,M,M,M,1400.00,M,M,M,RA BR,KFWN 010135Z AUTO 05009KT 4SM RA BR OVC014 A2978 RMK P0003 MADISHF
FWN,2017-04-01 01:40,-74.6231,41.2002,M,M,M,40.00,10.00,0.04,29.77,M,4.00,M,OVC,M,M,M,1400.00,M,M,M,-RA BR,KFWN 010140Z AUTO 04010KT 4SM -RA BR OVC014 A2977 RMK P0004 MADISHF
FWN,2017-04-01 01:45,-74.6231,41.2002,M,M,M,30.00,9.00,0.05,29.77,M,4.00,M,BKN,OVC,M,M,1200.00,1699.00,M,M,-RA BR,KFWN 010145Z AUTO 03009KT 4SM -RA BR BKN012 OVC016 A2977 RMK P0005 MADISHF
FWN,2017-04-01 01:50,-74.6231,41.2002,M,M,M,30.00,9.00,0.06,29.77,M,3.00,M,OVC,M,M,M,1400.00,M,M,M,RA BR,KFWN 010150Z AUTO 03009KT 3SM RA BR OVC014 A2977 RMK P0006 MADISHF
FWN,2017-04-01 01:53,-74.6231,41.2002,37.00,35.10,92.76,30.00,9.00,0.07,29.77,1008.30,3.00,M,BKN,OVC,M,M,1200.00,1700.00,M,M,RA BR,KFWN 010153Z AUTO 03009KT 3SM RA BR BKN012 OVC017 03/02 A2977 RMK AO2 SLP083 P0007 T00280017
FWN,2017-04-01 01:55,-74.6231,41.2002,M,M,M,30.00,11.00,0.01,29.77,M,3.00,M,OVC,M,M,M,1500.00,M,M,M,RA BR,KFWN 010155Z AUTO 03011KT 3SM RA BR OVC015 A2977 RMK P0001 MADISHF
FWN,2017-04-01 02:00,-74.6231,41.2002,M,M,M,30.00,9.00,0.01,29.76,M,3.50,M,BKN,OVC,M,M,1200.00,1699.00,M,M,-RA BR,KFWN 010200Z AUTO 03009KT 3SM -RA BR BKN012 OVC016 A2976 RMK P0001 MADISHF
FWN,2017-04-01 02:05,-74.6231,41.2002,M,M,M,20.00,9.00,0.01,29.76,M,5.00,M,BKN,OVC,M,M,1200.00,1699.00,M,M,-RA BR,KFWN 010205Z AUTO 02009KT 5SM -RA BR BKN012 OVC016 A2976 RMK P0001 MADISHF
FWN,2017-04-01 02:10,-74.6231,41.2002,M,M,M,30.00,10.00,0.01,29.76,M,5.00,M,BKN,OVC,M,M,1400.00,2100.00,M,M,-RA BR,KFWN 010210Z AUTO 03010KT 5SM -RA BR BKN014 OVC021 A2976 RMK P0001 MADISHF
FWN,2017-04-01 02:15,-74.6231,41.2002,M,M,M,30.00,11.00,0.01,29.76,M,5.00,M,BKN,OVC,M,M,1400.00,1900.00,M,M,-RA BR,KFWN 010215Z AUTO 03011KT 5SM -RA BR BKN014 OVC019 A2976 RMK P0001 MADISHF
FWN,2017-04-01 02:20,-74.6231,41.2002,M,M,M,30.00,9.00,0.01,29.76,M,5.00,14.00,FEW,OVC,M,M,900.00,1400.00,M,M,-RA BR,KFWN 010220Z AUTO 03009G14KT 5SM -RA BR FEW009 OVC014 A2976 RMK P0001 MADISHF
FWN,2017-04-01 02:25,-74.6231,41.2002,M,M,M,30.00,10.00,0.02,29.75,M,4.00,M,OVC,M,M,M,1400.00,M,M,M,-RA BR,KFWN 010225Z AUTO 03010KT 4SM -RA BR OVC014 A2975 RMK P0002 MADISHF
FWN,2017-04-01 02:30,-74.6231,41.2002,M,M,M,40.00,10.00,0.02,29.75,M,4.00,M,FEW,OVC,M,M,999.00,1600.00,M,M,-RA BR,KFWN 010230Z AUTO 04010KT 4SM -RA BR FEW009 OVC016 A2975 RMK P0002 MADISHF
FWN,2017-04-01 02:35,-74.6231,41.2002,M,M,M,40.00,11.00,0.03,29.75,M,4.00,M,OVC,M,M,M,1600.00,M,M,M,RA BR,KFWN 010235Z AUTO 04011KT 4SM RA BR OVC016 A2975 RMK P0003 CIG 9V22  MADISHF
FWN,2017-04-01 02:36,-74.6231,41.2002,37.00,35.10,92.76,40.00,10.00,0.03,29.75,M,4.00,M,OVC,M,M,M,1600.00,M,M,M,RA BR,KFWN 010236Z AUTO 04010KT 4SM RA BR OVC016 03/02 A2975 RMK AO2 P0003 T00280017
FWN,2017-04-01 02:40,-74.6231,41.2002,M,M,M,30.00,11.00,0.04,29.75,M,4.00,M,BKN,OVC,M,M,1300.00,1900.00,M,M,RA BR,KFWN 010240Z AUTO 03011KT 4SM RA BR BKN013 OVC019 A2975 RMK P0004 MADISHF
FWN,2017-04-01 02:45,-74.6231,41.2002,M,M,M,40.00,10.00,0.04,29.74,M,4.00,M,FEW,OVC,M,M,999.00,1600.00,M,M,RA BR,KFWN 010245Z AUTO 04010KT 4SM RA BR FEW009 OVC016 A2974 RMK P0004 MADISHF
FWN,2017-04-01 02:50,-74.6231,41.2002,M,M,M,30.00,10.00,0.05,29.74,M,5.00,M,BKN,OVC,M,M,1400.00,1999.00,M,M,-RA BR,KFWN 010250Z AUTO 03010KT 5SM -RA BR BKN014 OVC019 A2974 RMK P0005 MADISHF
FWN,2017-04-01 02:53,-74.6231,41.2002,37.00,35.10,92.76,40.00,9.00,0.05,29.74,1007.40,5.00,M,BKN,OVC,M,M,1400.00,2000.00,M,M,-RA BR,KFWN 010253Z AUTO 04009KT 5SM -RA BR BKN014 OVC020 03/02 A2974 RMK AO2 SLP074 P0005 60014 T00280017 58010
FWN,2017-04-01 02:55,-74.6231,41.2002,M,M,M,30.00,12.00,M,29.74,M,5.00,M,BKN,OVC,M,M,1400.00,1999.00,M,M,-RA BR,KFWN 010255Z AUTO 03012KT 5SM -RA BR BKN014 OVC019 A2974 RMK MADISHF
FWN,2017-04-01 03:00,-74.6231,41.2002,M,M,M,40.00,10.00,M,29.74,M,5.00,M,BKN,OVC,M,M,1400.00,1999.00,M,M,-RA BR,KFWN 010300Z AUTO 04010KT 5SM -RA BR BKN014 OVC019 A2974 RMK MADISHF
FWN,2017-04-01 03:05,-74.6231,41.2002,M,M,M,40.00,12.00,M,29.74,M,6.00,M,BKN,OVC,M,M,1300.00,1900.00,M,M,-RA BR,KFWN 010305Z AUTO 04012KT 6SM -RA BR BKN013 OVC019 A2974 RMK MADISHF
FWN,2017-04-01 03:10,-74.6231,41.2002,M,M,M,30.00,10.00,M,29.74,M,6.00,M,BKN,OVC,M,M,1300.00,1900.00,M,M,-RA BR,KFWN 010310Z AUTO 03010KT 6SM -RA BR BKN013 OVC019 A2974 RMK MADISHF
FWN,2017-04-01 03:15,-74.6231,41.2002,M,M,M,40.00,10.00,M,29.73,M,6.00,M,BKN,OVC,M,M,1300.00,1900.00,M,M,-RA BR,KFWN 010315Z AUTO 04010KT 6SM -RA BR BKN013 OVC019 A2973 RMK MADISHF
FWN,2017-04-01 03:20,-74.6231,41.2002,M,M,M,40.00,10.00,M,29.73,M,6.00,M,BKN,OVC,M,M,1300.00,1900.00,M,M,BR,KFWN 010320Z AUTO 04010KT 6SM BR BKN013 OVC019 A2973 RMK MADISHF
FWN,2017-04-01 03:25,-74.6231,41.2002,M,M,M,40.00,11.00,M,29.72,M,6.00,17.00,BKN,OVC,M,M,1300.00,1900.00,M,M,BR,KFWN 010325Z AUTO 04011G17KT 6SM BR BKN013 OVC019 A2972 RMK MADISHF
FWN,2017-04-01 03:30,-74.6231,41.2002,M,M,M,40.00,10.00,M,29.72,M,5.00,M,BKN,OVC,M,M,1300.00,1900.00,M,M,BR,KFWN 010330Z AUTO 04010KT 5SM BR BKN013 OVC019 A2972 RMK MADISHF
FWN,2017-04-01 03:35,-74.6231,41.2002,M,M,M,30.00,10.00,M,29.72,M,5.00,M,BKN,OVC,M,M,1300.00,1900.00,M,M,BR,KFWN 010335Z AUTO 03010KT 5SM BR BKN013 OVC019 A2972 RMK MADISHF
FWN,2017-04-01 03:40,-74.6231,41.2002,M,M,M,20.00,8.00,M,29.73,M,5.00,M,FEW,OVC,M,M,800.00,1300.00,M,M,BR,KFWN 010340Z AUTO 02008KT 5SM BR FEW008 OVC013 A2973 RMK MADISHF
FWN,2017-04-01 03:45,-74.6231,41.2002,M,M,M,30.00,11.00,M,29.73,M,5.00,M,FEW,BKN,OVC,M,800.00,1300.00,1900.00,M,BR,KFWN 010345Z AUTO 03011KT 5SM BR FEW008 BKN013 OVC019 A2973 RMK MADISHF
FWN,2017-04-01 03:50,-74.6231,41.2002,M,M,M,30.00,12.00,M,29.73,M,5.00,M,FEW,BKN,OVC,M,800.00,1300.00,1900.00,M,BR,KFWN 010350Z AUTO 03012KT 5SM BR FEW008 BKN013 OVC019 A2973 RMK MADISHF
FWN,2017-04-01 03:53,-74.6231,41.2002,37.00,35.10,92.76,20.00,11.00,0.00,29.73,1006.90,5.00,M,FEW,OVC,M,M,800.00,1300.00,M,M,BR,KFWN 010353Z AUTO 02011KT 5SM BR FEW008 OVC013 03/02 A2973 RMK AO2 RAE19 SLP069 P0000 T00280017
FWN,2017-04-01 03:55,-74.6231,41.2002,M,M,M,30.00,11.00,M,29.73,M,5.00,M,FEW,OVC,M,M,800.00,1300.00,M,M,BR,KFWN 010355Z AUTO 03011KT 5SM BR FEW008 OVC013 A2973 RMK MADISHF
FWN,2017-04-01 04:00,-74.6231,41.2002,M,M,M,30.00,11.00,M,29.73,M,6.00,M,FEW,OVC,M,M,800.00,1300.00,M,M,BR,KFWN 010400Z AUTO 03011KT 6SM BR FEW008 OVC013 A2973 RMK MADISHF
FWN,2017-04-01 04:05,-74.6231,41.2002,M,M,M,M,M,M,29.73,M,7.00,M,FEW,OVC,M,M,800.00,1300.00,M,M,M,KFWN 010405Z AUTO /////KT 7SM FEW008 OVC013 A2973 RMK MADISHF
FWN,2017-04-01 04:10,-74.6231,41.2002,M,M,M,30.00,10.00,M,29.73,M,9.00,M,FEW,OVC,M,M,800.00,1300.00,M,M,M,KFWN 010410Z AUTO 03010KT 9SM FEW008 OVC013 A2973 RMK MADISHF
FWN,2017-04-01 04:15,-74.6231,41.2002,M,M,M,30.00,12.00,M,29.73,M,9.00,M,OVC,M,M,M,1300.00,M,M,M,M,KFWN 010415Z AUTO 03012KT 9SM OVC013 A2973 RMK MADISHF
FWN,2017-04-01 04:20,-74.6231,41.2002,M,M,M,30.00,11.00,M,29.73,M,8.00,M,OVC,M,M,M,1200.00,M,M,M,M,KFWN 010420Z AUTO 03011KT 8SM OVC012 A2973 RMK MADISHF
FWN,2017-04-01 04:25,-74.6231,41.2002,M,M,M,30.00,9.00,M,29.73,M,8.00,M,OVC,M,M,M,1200.00,M,M,M,M,KFWN 010425Z AUTO 03009KT 8SM OVC012 A2973 RMK MADISHF
FWN,2017-04-01 04:30,-74.6231,41.2002,M,M,M,30.00,11.00,M,29.73,M,7.00,M,OVC,M,M,M,1200.00,M,M,M,M,KFWN 010430Z AUTO 03011KT 7SM OVC012 A2973 RMK MADISHF
FWN,2017-04-01 04:35,-74.6231,41.2002,M,M,M,20.00,13.00,M,29.73,M,6.00,M,BKN,OVC,M,M,999.00,1400.00,M,M,BR,KFWN 010435Z AUTO 02013KT 6SM BR BKN009 OVC014 A2973 RMK CIG 7V13  MADISHF
FWN,2017-04-01 04:40,-74.6231,41.2002,M,M,M,20.00,11.00,M,29.72,M,5.00,M,OVC,M,M,M,1200.00,M,M,M,BR,KFWN 010440Z AUTO 02011KT 5SM BR OVC012 A2972 RMK MADISHF
FWN,2017-04-01 04:45,-74.6231,41.2002,M,M,M,M,M,M,29.72,M,5.00,M,BKN,OVC,M,M,999.00,1400.00,M,M,BR,KFWN 010445Z AUTO /////KT 5SM BR BKN009 OVC014 A2972 RMK CIG 6V12  MADISHF
FWN,2017-04-01 04:50,-74.6231,41.2002,M,M,M,40.00,11.00,M,29.72,M,4.00,17.00,BKN,OVC,M,M,999.00,1400.00,M,M,BR,KFWN 010450Z AUTO 04011G17KT 4SM BR BKN009 OVC014 A2972 RMK CIG 6V12  MADISHF
FWN,2017-04-01 04:53,-74.6231,41.2002,35.10,34.00,95.71,30.00,12.00,0.00,29.72,1006.60,4.00,20.00,SCT,OVC,M,M,700.00,1400.00,M,M,BR,KFWN 010453Z AUTO 03012G20KT 4SM BR SCT007 OVC014 02/01 A2972 RMK AO2 SLP066 T00170011 400560017
FWN,2017-04-01 04:55,-74.6231,41.2002,M,M,M,30.00,11.00,M,29.72,M,4.00,M,SCT,OVC,M,M,700.00,1400.00,M,M,BR,KFWN 010455Z AUTO 03011KT 4SM BR SCT007 OVC014 A2972 RMK MADISHF
FWN,2017-04-01 05:00,-74.6231,41.2002,M,M,M,20.00,12.00,M,29.72,M,4.00,17.00,BKN,OVC,M,M,700.00,1400.00,M,M,BR,KFWN 010500Z AUTO 02012G17KT 4SM BR BKN007 OVC014 A2972 RMK CIG 6V10  MADISHF
FWN,2017-04-01 05:04,-74.6231,41.2002,35.10,34.00,95.71,30.00,12.00,0.00,29.71,M,4.00,17.00,BKN,OVC,M,M,700.00,1200.00,M,M,BR,KFWN 010504Z AUTO 03012G17KT 4SM BR BKN007 OVC012 02/01 A2971 RMK AO2 CIG 006V010 T00170011
FWN,2017-04-01 05:05,-74.6231,41.2002,M,M,M,30.00,13.00,M,29.71,M,4.00,M,BKN,OVC,M,M,700.00,1200.00,M,M,BR,KFWN 010505Z AUTO 03013KT 4SM BR BKN007 OVC012 A2971 RMK CIG 6V10  MADISHF
FWN,2017-04-01 05:10,-74.6231,41.2002,M,M,M,40.00,13.00,M,29.72,M,3.50,M,BKN,OVC,M,M,700.00,1200.00,M,M,BR,KFWN 010510Z AUTO 04013KT 3SM BR BKN007 OVC012 A2972 RMK MADISHF
FWN,2017-04-01 05:15,-74.6231,41.2002,M,M,M,40.00,13.00,M,29.71,M,3.50,M,BKN,OVC,M,M,700.00,1200.00,M,M,-RA BR,KFWN 010515Z AUTO 04013KT 3SM -RA BR BKN007 OVC012 A2971 RMK MADISHF
FWN,2017-04-01 05:20,-74.6231,41.2002,M,M,M,40.00,12.00,M,29.71,M,3.00,M,BKN,OVC,M,M,700.00,1200.00,M,M,BR,KFWN 010520Z AUTO 04012KT 3SM BR BKN007 OVC012 A2971 RMK MADISHF
FWN,2017-04-01 05:25,-74.6231,41.2002,M,M,M,40.00,11.00,M,29.71,M,3.00,M,BKN,OVC,M,M,600.00,1100.00,M,M,BR,KFWN 010525Z AUTO 04011KT 3SM BR BKN006 OVC011 A2971 RMK MADISHF
FWN,2017-04-01 05:28,-74.6231,41.2002,35.10,34.00,95.71,40.00,12.00,0.00,29.71,M,3.00,19.00,BKN,OVC,M,M,600.00,1100.00,M,M,BR,KFWN 010528Z AUTO 04012G19KT 3SM BR BKN006 OVC011 02/01 A2971 RMK AO2 RAB12E16 P0000 T00170011
FWN,2017-04-01 05:30,-74.6231,41.2002,M,M,M,40.00,13.00,M,29.71,M,3.00,M,BKN,OVC,M,M,600.00,1100.00,M,M,BR,KFWN 010530Z AUTO 04013KT 3SM BR BKN006 OVC011 A2971 RMK MADISHF
FWN,2017-04-01 05:35,-74.6231,41.2002,M,M,M,30.00,11.00,M,29.71,M,3.00,18.00,OVC,M,M,M,600.00,M,M,M,BR,KFWN 010535Z AUTO 03011G18KT 3SM BR OVC006 A2971 RMK MADISHF
FWN,2017-04-01 05:40,-74.6231,41.2002,M,M,M,30.00,11.00,M,29.71,M,3.00,17.00,OVC,M,M,M,600.00,M,M,M,BR,KFWN 010540Z AUTO 03011G17KT 3SM BR OVC006 A2971 RMK MADISHF
FWN,2017-04-01 05:45,-74.6231,41.2002,M,M,M,30.00,13.00,M,29.71,M,3.00,M,OVC,M,M,M,600.00,M,M,M,BR,KFWN 010545Z AUTO 03013KT 3SM BR OVC006 A2971 RMK CIG 6V10  MADISHF
FWN,2017-04-01 05:50,-74.6231,41.2002,M,M,M,20.00,12.00,M,29.71,M,3.00,17.00,OVC,M,M,M,600.00,M,M,M,BR,KFWN 010550Z AUTO 02012G17KT 3SM BR OVC006 A2971 RMK MADISHF
FWN,2017-04-01 05:53,-74.6231,41.2002,35.10,33.10,92.32,40.00,10.00,0.00,29.71,1006.30,3.00,19.00,OVC,M,M,M,600.00,M,M,M,BR,KFWN 010553Z AUTO 04010G19KT 3SM BR OVC006 02/01 A2971 RMK AO2 RAB12E16 SLP063 P0000 60014 T00170006 10028 20017 56011
FWN,2017-04-01 05:55,-74.6231,41.2002,M,M,M,30.00,12.00,M,29.71,M,3.00,17.00,OVC,M,M,M,600.00,M,M,M,BR,KFWN 010555Z AUTO 03012G17KT 3SM BR OVC006 A2971 RMK MADISHF
FWN,2017-04-01 06:00,-74.6231,41.2002,M,M,M,40.00,11.00,M,29.71,M,3.00,M,OVC,M,M,M,600.00,M,M,M,BR,KFWN 010600Z AUTO 04011KT 3SM BR OVC006 A2971 RMK MADISHF
FWN,2017-04-01 06:05,-74.6231,41.2002,M,M,M,40.00,11.00,M,29.70,M,3.00,M,OVC,M,M,M,600.00,M,M,M,BR,KFWN 010605Z AUTO 04011KT 3SM BR OVC006 A2970 RMK MADISHF
FWN,2017-04-01 06:10,-74.6231,41.2002,M,M,M,40.00,13.00,M,29.71,M,3.00,18.00,OVC,M,M,M,600.00,M,M,M,BR,KFWN 010610Z AUTO 04013G18KT 3SM BR OVC006 A2971 RMK MADISHF
FWN,2017-04-01 06:15,-74.6231,41.2002,M,M,M,30.00,12.00,M,29.71,M,3.00,M,OVC,M,M,M,600.00,M,M,M,BR,KFWN 010615Z AUTO 03012KT 3SM BR OVC006 A2971 RMK MADISHF
FWN,2017-04-01 06:20,-74.6231,41.2002,M,M,M,40.00,9.00,M,29.71,M,3.00,M,OVC,M,M,M,600.00,M,M,M,BR,KFWN 010620Z AUTO 04009KT 3SM BR OVC006 A2971 RMK CIG 5V10  MADISHF
FWN,2017-04-01 06:25,-74.6231,41.2002,M,M,M,40.00,12.00,M,29.70,M,3.50,19.00,OVC,M,M,M,600.00,M,M,M,BR,KFWN 010625Z AUTO 04012G19KT 3SM BR OVC006 A2970 RMK MADISHF
FWN,2017-04-01 06:30,-74.6231,41.2002,M,M,M,50.00,9.00,M,29.71,M,3.50,M,OVC,M,M,M,600.00,M,M,M,BR,KFWN 010630Z AUTO 05009KT 3SM BR OVC006 A2971 RMK MADISHF
FWN,2017-04-01 06:35,-74.6231,41.2002,M,M,M,40.00,11.00,M,29.71,M,3.50,M,OVC,M,M,M,600.00,M,M,M,BR,KFWN 010635Z AUTO 04011KT 3SM BR OVC006 A2971 RMK CIG 6V11  MADISHF
FWN,2017-04-01 06:40,-74.6231,41.2002,M,M,M,30.00,9.00,M,29.71,M,3.50,M,OVC,M,M,M,600.00,M,M,M,BR,KFWN 010640Z AUTO 03009KT 3SM BR OVC006 A2971 RMK CIG 6V11  MADISHF
FWN,2017-04-01 06:45,-74.6231,41.2002,M,M,M,30.00,11.00,M,29.71,M,3.00,M,OVC,M,M,M,600.00,M,M,M,BR,KFWN 010645Z AUTO 03011KT 3SM BR OVC006 A2971 RMK CIG 6V11  MADISHF
FWN,2017-04-01 06:50,-74.6231,41.2002,M,M,M,40.00,9.00,M,29.71,M,3.00,M,OVC,M,M,M,600.00,M,M,M,BR,KFWN 010650Z AUTO 04009KT 3SM BR OVC006 A2971 RMK MADISHF
FWN,2017-04-01 06:53,-74.6231,41.2002,34.00,33.10,96.46,30.00,10.00,0.00,29.71,1006.30,3.00,17.00,OVC,M,M,M,600.00,M,M,M,BR,KFWN 010653Z AUTO 03010G17KT 3SM BR OVC006 01/01 A2971 RMK AO2 SLP063 T00110006
FWN,2017-04-01 06:55,-74.6231,41.2002,M,M,M,40.00,11.00,M,29.71,M,3.50,M,OVC,M,M,M,600.00,M,M,M,BR,KFWN 010655Z AUTO 04011KT 3SM BR OVC006 A2971 RMK MADISHF
FWN,2017-04-01 07:00,-74.6231,41.2002,M,M,M,30.00,10.00,M,29.71,M,3.50,M,OVC,M,M,M,700.00,M,M,M,BR,KFWN 010700Z AUTO 03010KT 3SM BR OVC007 A2971 RMK MADISHF
FWN,2017-04-01 07:05,-74.6231,41.2002,34.00,33.10,96.46,40.00,10.00,0.00,29.71,M,3.00,M,OVC,M,M,M,700.00,M,M,M,BR,KFWN 010705Z AUTO 04010KT 3SM BR OVC007 01/01 A2971 RMK AO2 T00110006
FWN,2017-04-01 07:10,-74.6231,41.2002,M,M,M,30.00,10.00,M,29.71,M,3.50,M,OVC,M,M,M,700.00,M,M,M,BR,KFWN 010710Z AUTO 03010KT 3SM BR OVC007 A2971 RMK CIG 6V10  MADISHF
FWN,2017-04-01 07:15,-74.6231,41.2002,M,M,M,40.00,8.00,M,29.71,M,3.50,M,OVC,M,M,M,700.00,M,M,M,BR,KFWN 010715Z AUTO 04008KT 3SM BR OVC007 A2971 RMK CIG 6V10  MADISHF
FWN,2017-04-01 07:20,-74.6231,41.2002,M,M,M,30.00,7.00,M,29.71,M,3.50,M,OVC,M,M,M,700.00,M,M,M,BR,KFWN 010720Z AUTO 03007KT 3SM BR OVC007 A2971 RMK CIG 6V10  MADISHF
FWN,2017-04-01 07:25,-74.6231,41.2002,M,M,M,30.00,10.00,M,29.71,M,3.50,M,OVC,M,M,M,700.00,M,M,M,BR,KFWN 010725Z AUTO 03010KT 3SM BR OVC007 A2971 RMK CIG 6V10  MADISHF
FWN,2017-04-01 07:30,-74.6231,41.2002,M,M,M,30.00,10.00,M,29.70,M,3.50,15.00,OVC,M,M,M,700.00,M,M,M,BR,KFWN 010730Z AUTO 03010G15KT 3SM BR OVC007 A2970 RMK CIG 6V10  MADISHF
FWN,2017-04-01 07:35,-74.6231,41.2002,M,M,M,30.00,9.00,M,29.70,M,3.00,M,OVC,M,M,M,700.00,M,M,M,BR,KFWN 010735Z AUTO 03009KT 3SM BR OVC007 A2970 RMK CIG 6V10  MADISHF
FWN,2017-04-01 07:40,-74.6231,41.2002,M,M,M,30.00,11.00,M,29.70,M,3.00,M,OVC,M,M,M,700.00,M,M,M,BR,KFWN 010740Z AUTO 03011KT 3SM BR OVC007 A2970 RMK MADISHF
FWN,2017-04-01 07:45,-74.6231,41.2002,M,M,M,30.00,11.00,M,29.70,M,3.00,M,OVC,M,M,M,700.00,M,M,M,BR,KFWN 010745Z AUTO 03011KT 3SM BR OVC007 A2970 RMK MADISHF
FWN,2017-04-01 07:50,-74.6231,41.2002,M,M,M,30.00,12.00,M,29.70,M,3.00,M,OVC,M,M,M,700.00,M,M,M,BR,KFWN 010750Z AUTO 03012KT 3SM BR OVC007 A2970 RMK CIG 6V10  MADISHF
FWN,2017-04-01 07:53,-74.6231,41.2002,35.10,33.10,92.32,30.00,12.00,0.00,29.70,1006.00,3.00,19.00,OVC,M,M,M,700.00,M,M,M,BR,KFWN 010753Z AUTO 03012G19KT 3SM BR OVC007 02/01 A2970 RMK AO2 CIG 006V010 SLP060 T00170006
FWN,2017-04-01 07:55,-74.6231,41.2002,M,M,M,30.00,11.00,M,29.70,M,3.50,M,OVC,M,M,M,700.00,M,M,M,BR,KFWN 010755Z AUTO 03011KT 3SM BR OVC007 A2970 RMK CIG 6V12  MADISHF
FWN,2017-04-01 08:00,-74.6231,41.2002,M,M,M,30.00,11.00,M,29.70,M,4.00,M,OVC,M,M,M,700.00,M,M,M,BR,KFWN 010800Z AUTO 03011KT 4SM BR OVC007 A2970 RMK CIG 6V12  MADISHF
FWN,2017-04-01 08:05,-74.6231,41.2002,M,M,M,30.00,9.00,M,29.70,M,4.00,M,OVC,M,M,M,700.00,M,M,M,BR,KFWN 010805Z AUTO 03009KT 4SM BR OVC007 A2970 RMK MADISHF
FWN,2017-04-01 08:10,-74.6231,41.2002,M,M,M,30.00,11.00,M,29.70,M,4.00,M,OVC,M,M,M,800.00,M,M,M,BR,KFWN 010810Z AUTO 03011KT 4SM BR OVC008 A2970 RMK MADISHF
FWN,2017-04-01 08:15,-74.6231,41.2002,M,M,M,30.00,11.00,M,29.70,M,4.00,M,OVC,M,M,M,800.00,M,M,M,BR,KFWN 010815Z AUTO 03011KT 4SM BR OVC008 A2970 RMK MADISHF
FWN,2017-04-01 08:20,-74.6231,41.2002,M,M,M,30.00,9.00,M,29.70,M,5.00,M,OVC,M,M,M,800.00,M,M,M,BR,KFWN 010820Z AUTO 03009KT 5SM BR OVC008 A2970 RMK MADISHF
FWN,2017-04-01 08:25,-74.6231,41.2002,M,M,M,20.00,11.00,M,29.70,M,5.00,M,OVC,M,M,M,800.00,M,M,M,BR,KFWN 010825Z AUTO 02011KT 5SM BR OVC008 A2970 RMK MADISHF
FWN,2017-04-01 08:30,-74.6231,41.2002,M,M,M,30.00,10.00,M,29.71,M,5.00,M,OVC,M,M,M,800.00,M,M,M,BR,KFWN 010830Z AUTO 03010KT 5SM BR OVC008 A2971 RMK MADISHF
FWN,2017-04-01 08:35,-74.6231,41.2002,M,M,M,30.00,8.00,M,29.71,M,5.00,M,OVC,M,M,M,800.00,M,M,M,BR,KFWN 010835Z AUTO 03008KT 5SM BR OVC008 A2971 RMK MADISHF
FWN,2017-04-01 08:40,-74.6231,41.2002,M,M,M,30.00,10.00,M,29.71,M,5.00,M,OVC,M,M,M,800.00,M,M,M,BR,KFWN 010840Z AUTO 03010KT 5SM BR OVC008 A2971 RMK MADISHF
FWN,2017-04-01 08:45,-74.6231,41.2002,M,M,M,30.00,7.00,M,29.71,M,5.00,M,OVC,M,M,M,800.00,M,M,M,BR,KFWN 010845Z AUTO 03007KT 5SM BR OVC008 A2971 RMK MADISHF
FWN,2017-04-01 08:50,-74.6231,41.2002,M,M,M,30.00,9.00,M,29.71,M,6.00,M,OVC,M,M,M,900.00,M,M,M,BR,KFWN 010850Z AUTO 03009KT 6SM BR OVC009 A2971 RMK MADISHF
FWN,2017-04-01 08:53,-74.6231,41.2002,35.10,34.00,95.71,30.00,9.00,0.00,29.71,1006.50,6.00,M,OVC,M,M,M,900.00,M,M,M,BR,KFWN 010853Z AUTO 03009KT 6SM BR OVC009 02/01 A2971 RMK AO2 SLP065 T00170011 53002
FWN,2017-04-01 08:55,-74.6231,41.2002,M,M,M,30.00,9.00,M,29.71,M,6.00,M,OVC,M,M,M,900.00,M,M,M,BR,KFWN 010855Z AUTO 03009KT 6SM BR OVC009 A2971 RMK MADISHF
FWN,2017-04-01 09:00,-74.6231,41.2002,M,M,M,30.00,8.00,M,29.72,M,6.00,M,OVC,M,M,M,900.00,M,M,M,BR,KFWN 010900Z AUTO 03008KT 6SM BR OVC009 A2972 RMK MADISHF
FWN,2017-04-01 09:05,-74.6231,41.2002,M,M,M,40.00,9.00,M,29.72,M,6.00,14.00,OVC,M,M,M,900.00,M,M,M,BR,KFWN 010905Z AUTO 04009G14KT 6SM BR OVC009 A2972 RMK CIG 8V12  MADISHF
FWN,2017-04-01 09:10,-74.6231,41.2002,M,M,M,40.00,9.00,M,29.72,M,5.00,M,OVC,M,M,M,900.00,M,M,M,BR,KFWN 010910Z AUTO 04009KT 5SM BR OVC009 A2972 RMK CIG 8V12  MADISHF
FWN,2017-04-01 09:15,-74.6231,41.2002,M,M,M,30.00,8.00,M,29.73,M,5.00,M,OVC,M,M,M,999.00,M,M,M,BR,KFWN 010915Z AUTO 03008KT 5SM BR OVC009 A2973 RMK MADISHF
FWN,2017-04-01 09:20,-74.6231,41.2002,M,M,M,30.00,7.00,M,29.73,M,4.00,M,OVC,M,M,M,999.00,M,M,M,BR,KFWN 010920Z AUTO 03007KT 4SM BR OVC009 A2973 RMK MADISHF
FWN,2017-04-01 09:21,-74.6231,41.2002,35.10,34.00,95.71,30.00,7.00,0.00,29.73,M,4.00,M,OVC,M,M,M,1000.00,M,M,M,BR,KFWN 010921Z AUTO 03007KT 4SM BR OVC010 02/01 A2973 RMK AO2 T00170011
FWN,2017-04-01 09:25,-74.6231,41.2002,M,M,M,20.00,6.00,M,29.73,M,4.00,M,OVC,M,M,M,999.00,M,M,M,BR,KFWN 010925Z AUTO 02006KT 4SM BR OVC009 A2973 RMK MADISHF
FWN,2017-04-01 09:30,-74.6231,41.2002,M,M,M,20.00,7.00,M,29.73,M,4.00,M,OVC,M,M,M,999.00,M,M,M,BR,KFWN 010930Z AUTO 02007KT 4SM BR OVC009 A2973 RMK CIG 8V14  MADISHF
FWN,2017-04-01 09:35,-74.6231,41.2002,M,M,M,20.00,7.00,M,29.73,M,4.00,M,OVC,M,M,M,999.00,M,M,M,BR,KFWN 010935Z AUTO 02007KT 4SM BR OVC009 A2973 RMK CIG 8V14  MADISHF
FWN,2017-04-01 09:40,-74.6231,41.2002,M,M,M,20.00,9.00,M,29.74,M,4.00,M,OVC,M,M,M,999.00,M,M,M,BR,KFWN 010940Z AUTO 02009KT 4SM BR OVC009 A2974 RMK CIG 8V14  MADISHF
FWN,2017-04-01 09:45,-74.6231,41.2002,M,M,M,30.00,6.00,M,29.74,M,4.00,M,OVC,M,M,M,999.00,M,M,M,BR,KFWN 010945Z AUTO 03006KT 4SM BR OVC009 A2974 RMK MADISHF
FWN,2017-04-01 09:50,-74.6231,41.2002,M,M,M,20.00,7.00,M,29.74,M,4.00,M,OVC,M,M,M,999.00,M,M,M,BR,KFWN 010950Z AUTO 02007KT 4SM BR OVC009 A2974 RMK MADISHF
FWN,2017-04-01 09:53,-74.6231,41.2002,35.10,34.00,95.71,30.00,7.00,0.00,29.74,1007.50,4.00,M,OVC,M,M,M,1000.00,M,M,M,BR,KFWN 010953Z AUTO 03007KT 4SM BR OVC010 02/01 A2974 RMK AO2 SLP075 T00170011
FWN,2017-04-01 09:55,-74.6231,41.2002,M,M,M,30.00,7.00,M,29.74,M,4.00,M,OVC,M,M,M,999.00,M,M,M,BR,KFWN 010955Z AUTO 03007KT 4SM BR OVC009 A2974 RMK MADISHF
FWN,2017-04-01 10:00,-74.6231,41.2002,M,M,M,20.00,5.00,M,29.74,M,3.50,M,OVC,M,M,M,1200.00,M,M,M,BR,KFWN 011000Z AUTO 02005KT 3SM BR OVC012 A2974 RMK MADISHF
FWN,2017-04-01 10:05,-74.6231,41.2002,M,M,M,30.00,7.00,M,29.74,M,4.00,M,OVC,M,M,M,1200.00,M,M,M,BR,KFWN 011005Z AUTO 03007KT 4SM BR OVC012 A2974 RMK MADISHF
FWN,2017-04-01 10:10,-74.6231,41.2002,M,M,M,20.00,7.00,M,29.75,M,3.50,M,OVC,M,M,M,1200.00,M,M,M,BR,KFWN 011010Z AUTO 02007KT 3SM BR OVC012 A2975 RMK MADISHF
FWN,2017-04-01 10:15,-74.6231,41.2002,M,M,M,20.00,7.00,M,29.75,M,3.50,M,OVC,M,M,M,1200.00,M,M,M,BR,KFWN 011015Z AUTO 02007KT 3SM BR OVC012 A2975 RMK MADISHF
FWN,2017-04-01 10:20,-74.6231,41.2002,M,M,M,10.00,7.00,M,29.75,M,4.00,M,OVC,M,M,M,1200.00,M,M,M,BR,KFWN 011020Z AUTO 01007KT 4SM BR OVC012 A2975 RMK MADISHF
FWN,2017-04-01 10:25,-74.6231,41.2002,M,M,M,30.00,5.00,M,29.75,M,4.00,M,OVC,M,M,M,1200.00,M,M,M,BR,KFWN 011025Z AUTO 03005KT 4SM BR OVC012 A2975 RMK MADISHF
FWN,2017-04-01 10:30,-74.6231,41.2002,M,M,M,30.00,7.00,M,29.76,M,5.00,M,BKN,OVC,M,M,1300.00,1800.00,M,M,BR,KFWN 011030Z AUTO 03007KT 5SM BR BKN013 OVC018 A2976 RMK MADISHF
FWN,2017-04-01 10:35,-74.6231,41.2002,M,M,M,20.00,7.00,M,29.76,M,5.00,M,BKN,OVC,M,M,1300.00,1800.00,M,M,BR,KFWN 011035Z AUTO 02007KT 5SM BR BKN013 OVC018 A2976 RMK MADISHF
FWN,2017-04-01 10:40,-74.6231,41.2002,M,M,M,20.00,8.00,M,29.76,M,7.00,M,BKN,OVC,M,M,1300.00,1800.00,M,M,M,KFWN 011040Z AUTO 02008KT 7SM BKN013 OVC018 A2976 RMK MADISHF
FWN,2017-04-01 10:45,-74.6231,41.2002,M,M,M,10.00,6.00,M,29.76,M,8.00,M,OVC,M,M,M,1500.00,M,M,M,M,KFWN 011045Z AUTO 01006KT 8SM OVC015 A2976 RMK MADISHF
FWN,2017-04-01 10:50,-74.6231,41.2002,M,M,M,20.00,7.00,M,29.76,M,9.00,M,OVC,M,M,M,1500.00,M,M,M,M,KFWN 011050Z AUTO 02007KT 9SM OVC015 A2976 RMK MADISHF
FWN,2017-04-01 10:53,-74.6231,41.2002,36.00,34.00,92.35,30.00,6.00,0.00,29.77,1008.20,10.00,M,BKN,OVC,M,M,1300.00,1900.00,M,M,M,KFWN 011053Z AUTO 03006KT 10SM BKN013 OVC019 02/01 A2977 RMK AO2 SLP082 T00220011
FWN,2017-04-01 10:55,-74.6231,41.2002,M,M,M,20.00,5.00,M,29.77,M,10.00,M,BKN,OVC,M,M,1300.00,1900.00,M,M,M,KFWN 011055Z AUTO 02005KT 10SM BKN013 OVC019 A2977 RMK MADISHF
FWN,2017-04-01 11:00,-74.6231,41.2002,M,M,M,20.00,6.00,M,29.77,M,10.00,M,BKN,OVC,M,M,1300.00,1999.00,M,M,M,KFWN 011100Z AUTO 02006KT 10SM BKN013 OVC019 A2977 RMK MADISHF
FWN,2017-04-01 11:05,-74.6231,41.2002,M,M,M,20.00,7.00,M,29.77,M,10.00,M,BKN,OVC,M,M,1300.00,1999.00,M,M,M,KFWN 011105Z AUTO 02007KT 10SM BKN013 OVC019 A2977 RMK MADISHF
FWN,2017-04-01 11:10,-74.6231,41.2002,M,M,M,20.00,5.00,M,29.77,M,10.00,M,OVC,M,M,M,1600.00,M,M,M,M,KFWN 011110Z AUTO 02005KT 10SM OVC016 A2977 RMK MADISHF
FWN,2017-04-01 11:15,-74.6231,41.2002,M,M,M,30.00,5.00,M,29.77,M,10.00,M,OVC,M,M,M,1600.00,M,M,M,M,KFWN 011115Z AUTO 03005KT 10SM OVC016 A2977 RMK MADISHF
FWN,2017-04-01 11:18,-74.6231,41.2002,36.00,35.10,96.49,30.00,6.00,0.00,29.77,M,10.00,M,OVC,M,M,M,1600.00,M,M,M,M,KFWN 011118Z AUTO 03006KT 10SM OVC016 02/02 A2977 RMK AO2 T00220017
FWN,2017-04-01 11:20,-74.6231,41.2002,M,M,M,30.00,6.00,M,29.77,M,10.00,M,OVC,M,M,M,1600.00,M,M,M,M,KFWN 011120Z AUTO 03006KT 10SM OVC016 A2977 RMK MADISHF
FWN,2017-04-01 11:25,-74.6231,41.2002,M,M,M,40.00,7.00,M,29.77,M,10.00,M,OVC,M,M,M,1600.00,M,M,M,M,KFWN 011125Z AUTO 04007KT 10SM OVC016 A2977 RMK MADISHF
FWN,2017-04-01 11:30,-74.6231,41.2002,M,M,M,20.00,6.00,M,29.77,M,10.00,M,OVC,M,M,M,1800.00,M,M,M,M,KFWN 011130Z AUTO 02006KT 10SM OVC018 A2977 RMK MADISHF
FWN,2017-04-01 11:35,-74.6231,41.2002,M,M,M,10.00,6.00,M,29.78,M,10.00,M,BKN,OVC,M,M,1800.00,2300.00,M,M,M,KFWN 011135Z AUTO 01006KT 10SM BKN018 OVC023 A2978 RMK MADISHF
FWN,2017-04-01 11:40,-74.6231,41.2002,M,M,M,20.00,6.00,M,29.78,M,10.00,M,OVC,M,M,M,1999.00,M,M,M,M,KFWN 011140Z AUTO 02006KT 10SM OVC019 A2978 RMK MADISHF
FWN,2017-04-01 11:45,-74.6231,41.2002,M,M,M,20.00,8.00,M,29.78,M,10.00,M,OVC,M,M,M,1999.00,M,M,M,M,KFWN 011145Z AUTO 02008KT 10SM OVC019 A2978 RMK MADISHF
FWN,2017-04-01 11:50,-74.6231,41.2002,M,M,M,30.00,6.00,M,29.78,M,10.00,M,OVC,M,M,M,1999.00,M,M,M,M,KFWN 011150Z AUTO 03006KT 10SM OVC019 A2978 RMK MADISHF
FWN,2017-04-01 11:53,-74.6231,41.2002,37.00,35.10,92.76,20.00,6.00,0.00,29.78,1008.90,10.00,M,OVC,M,M,M,2000.00,M,M,M,M,KFWN 011153Z AUTO 02006KT 10SM OVC020 03/02 A2978 RMK AO2 SLP089 70079 T00280017 10028 20011 51023
FWN,2017-04-01 11:55,-74.6231,41.2002,M,M,M,10.00,6.00,M,29.79,M,10.00,M,OVC,M,M,M,1999.00,M,M,M,M,KFWN 011155Z AUTO 01006KT 10SM OVC019 A2979 RMK MADISHF
FWN,2017-04-01 12:00,-74.6231,41.2002,M,M,M,10.00,5.00,M,29.79,M,10.00,M,OVC,M,M,M,2200.00,M,M,M,M,KFWN 011200Z AUTO 01005KT 10SM OVC022 A2979 RMK MADISHF
FWN,2017-04-01 12:05,-74.6231,41.2002,M,M,M,20.00,9.00,M,29.79,M,10.00,M,OVC,M,M,M,2200.00,M,M,M,M,KFWN 011205Z AUTO 02009KT 10SM OVC022 A2979 RMK MADISHF
FWN,2017-04-01 12:10,-74.6231,41.2002,M,M,M,20.00,7.00,M,29.79,M,10.00,M,OVC,M,M,M,2200.00,M,M,M,M,KFWN 011210Z AUTO 02007KT 10SM OVC022 A2979 RMK MADISHF
FWN,2017-04-01 12:15,-74.6231,41.2002,M,M,M,10.00,8.00,M,29.79,M,10.00,M,OVC,M,M,M,2400.00,M,M,M,M,KFWN 011215Z AUTO 01008KT 10SM OVC024 A2979 RMK MADISHF
FWN,2017-04-01 12:20,-74.6231,41.2002,M,M,M,10.00,9.00,M,29.80,M,10.00,M,OVC,M,M,M,2400.00,M,M,M,M,KFWN 011220Z AUTO 01009KT 10SM OVC024 A2980 RMK MADISHF
FWN,2017-04-01 12:25,-74.6231,41.2002,M,M,M,10.00,9.00,M,29.80,M,10.00,M,OVC,M,M,M,2400.00,M,M,M,M,KFWN 011225Z AUTO 01009KT 10SM OVC024 A2980 RMK MADISHF
FWN,2017-04-01 12:30,-74.6231,41.2002,M,M,M,10.00,8.00,M,29.80,M,10.00,M,OVC,M,M,M,2400.00,M,M,M,M,KFWN 011230Z AUTO 01008KT 10SM OVC024 A2980 RMK MADISHF
FWN,2017-04-01 12:35,-74.6231,41.2002,M,M,M,10.00,9.00,M,29.80,M,10.00,M,OVC,M,M,M,2400.00,M,M,M,M,KFWN 011235Z AUTO 01009KT 10SM OVC024 A2980 RMK MADISHF
FWN,2017-04-01 12:40,-74.6231,41.2002,M,M,M,10.00,9.00,M,29.80,M,10.00,M,OVC,M,M,M,2400.00,M,M,M,M,KFWN 011240Z AUTO 01009KT 10SM OVC024 A2980 RMK MADISHF
FWN,2017-04-01 12:45,-74.6231,41.2002,M,M,M,10.00,7.00,M,29.80,M,10.00,M,OVC,M,M,M,2400.00,M,M,M,M,KFWN 011245Z AUTO 01007KT 10SM OVC024 A2980 RMK MADISHF
FWN,2017-04-01 12:50,-74.6231,41.2002,M,M,M,360.00,9.00,M,29.80,M,10.00,M,OVC,M,M,M,2400.00,M,M,M,M,KFWN 011250Z AUTO 36009KT 10SM OVC024 A2980 RMK MADISHF
FWN,2017-04-01 12:53,-74.6231,41.2002,37.90,35.10,89.53,360.00,7.00,0.00,29.81,1009.60,10.00,M,OVC,M,M,M,2400.00,M,M,M,M,KFWN 011253Z AUTO 36007KT 10SM OVC024 03/02 A2981 RMK AO2 SLP096 T00330017
FWN,2017-04-01 12:55,-74.6231,41.2002,M,M,M,20.00,8.00,M,29.81,M,10.00,M,OVC,M,M,M,2400.00,M,M,M,M,KFWN 011255Z AUTO 02008KT 10SM OVC024 A2981 RMK MADISHF
FWN,2017-04-01 13:00,-74.6231,41.2002,M,M,M,360.00,8.00,M,29.81,M,10.00,M,OVC,M,M,M,2700.00,M,M,M,M,KFWN 011300Z AUTO 36008KT 10SM OVC027 A2981 RMK MADISHF
FWN,2017-04-01 13:05,-74.6231,41.2002,M,M,M,360.00,6.00,M,29.81,M,10.00,M,OVC,M,M,M,2700.00,M,M,M,M,KFWN 011305Z AUTO 36006KT 10SM OVC027 A2981 RMK MADISHF
FWN,2017-04-01 13:10,-74.6231,41.2002,M,M,M,360.00,9.00,M,29.81,M,10.00,M,BKN,OVC,M,M,2700.00,3399.00,M,M,M,KFWN 011310Z AUTO 36009KT 10SM BKN027 OVC033 A2981 RMK WND 34V05  MADISHF
FWN,2017-04-01 13:15,-74.6231,41.2002,M,M,M,360.00,10.00,M,29.81,M,10.00,M,BKN,OVC,M,M,2900.00,3399.00,M,M,M,KFWN 011315Z AUTO 36010KT 10SM BKN029 OVC033 A2981 RMK MADISHF
FWN,2017-04-01 13:20,-74.6231,41.2002,M,M,M,20.00,9.00,M,29.81,M,10.00,M,BKN,OVC,M,M,2900.00,3700.00,M,M,M,KFWN 011320Z AUTO 02009KT 10SM BKN029 OVC037 A2981 RMK MADISHF
FWN,2017-04-01 13:25,-74.6231,41.2002,M,M,M,20.00,10.00,M,29.81,M,10.00,M,BKN,OVC,M,M,2900.00,3500.00,M,M,M,KFWN 011325Z AUTO 02010KT 10SM BKN029 OVC035 A2981 RMK MADISHF
FWN,2017-04-01 13:30,-74.6231,41.2002,M,M,M,10.00,9.00,M,29.81,M,10.00,M,OVC,M,M,M,2900.00,M,M,M,M,KFWN 011330Z AUTO 01009KT 10SM OVC029 A2981 RMK WND 33V04  MADISHF
FWN,2017-04-01 13:35,-74.6231,41.2002,M,M,M,10.00,9.00,M,29.82,M,10.00,16.00,OVC,M,M,M,2900.00,M,M,M,M,KFWN 011335Z AUTO 01009G16KT 10SM OVC029 A2982 RMK MADISHF
FWN,2017-04-01 13:40,-74.6231,41.2002,M,M,M,360.00,11.00,M,29.82,M,10.00,M,FEW,OVC,M,M,2100.00,2900.00,M,M,M,KFWN 011340Z AUTO 36011KT 10SM FEW021 OVC029 A2982 RMK MADISHF
FWN,2017-04-01 13:45,-74.6231,41.2002,M,M,M,10.00,9.00,M,29.82,M,10.00,14.00,FEW,OVC,M,M,1900.00,2900.00,M,M,M,KFWN 011345Z AUTO 01009G14KT 10SM FEW019 OVC029 A2982 RMK MADISHF
FWN,2017-04-01 13:50,-74.6231,41.2002,M,M,M,10.00,9.00,M,29.82,M,10.00,M,SCT,OVC,M,M,1900.00,2700.00,M,M,M,KFWN 011350Z AUTO 01009KT 10SM SCT019 OVC027 A2982 RMK MADISHF
FWN,2017-04-01 13:53,-74.6231,41.2002,39.90,35.10,82.80,20.00,12.00,0.00,29.82,1010.10,10.00,M,SCT,SCT,OVC,M,1900.00,2300.00,2700.00,M,M,KFWN 011353Z AUTO 02012KT 10SM SCT019 SCT023 OVC027 04/02 A2982 RMK AO2 SLP101 T00440017
FWN,2017-04-01 13:55,-74.6231,41.2002,M,M,M,20.00,9.00,M,29.82,M,10.00,M,SCT,OVC,M,M,1900.00,2700.00,M,M,M,KFWN 011355Z AUTO 02009KT 10SM SCT019 OVC027 A2982 RMK MADISHF
FWN,2017-04-01 14:00,-74.6231,41.2002,M,M,M,20.00,8.00,M,29.82,M,10.00,M,BKN,OVC,M,M,2100.00,2700.00,M,M,M,KFWN 011400Z AUTO 02008KT 10SM BKN021 OVC027 A2982 RMK WND 33V03  MADISHF
FWN,2017-04-01 14:05,-74.6231,41.2002,M,M,M,360.00,8.00,M,29.82,M,10.00,M,BKN,OVC,M,M,2100.00,2700.00,M,M,M,KFWN 011405Z AUTO 36008KT 10SM BKN021 OVC027 A2982 RMK MADISHF
FWN,2017-04-01 14:10,-74.6231,41.2002,M,M,M,20.00,8.00,M,29.82,M,10.00,M,OVC,M,M,M,2300.00,M,M,M,M,KFWN 011410Z AUTO 02008KT 10SM OVC023 A2982 RMK MADISHF
FWN,2017-04-01 14:15,-74.6231,41.2002,M,M,M,10.00,11.00,M,29.83,M,10.00,M,BKN,OVC,M,M,2200.00,2700.00,M,M,M,KFWN 011415Z AUTO 01011KT 10SM BKN022 OVC027 A2983 RMK MADISHF
FWN,2017-04-01 14:20,-74.6231,41.2002,M,M,M,M,M,M,29.83,M,10.00,20.00,BKN,OVC,M,M,2200.00,2700.00,M,M,M,KFWN 011420Z AUTO /////G20KT 10SM BKN022 OVC027 A2983 RMK MADISHF
FWN,2017-04-01 14:25,-74.6231,41.2002,M,M,M,20.00,11.00,M,29.83,M,10.00,M,OVC,M,M,M,2400.00,M,M,M,M,KFWN 011425Z AUTO 02011KT 10SM OVC024 A2983 RMK WND 35V05  MADISHF
FWN,2017-04-01 14:30,-74.6231,41.2002,M,M,M,10.00,12.00,M,29.83,M,10.00,M,OVC,M,M,M,2400.00,M,M,M,M,KFWN 011430Z AUTO 01012KT 10SM OVC024 A2983 RMK MADISHF
FWN,2017-04-01 14:35,-74.6231,41.2002,M,M,M,360.00,10.00,M,29.83,M,10.00,M,BKN,OVC,M,M,2200.00,2700.00,M,M,M,KFWN 011435Z AUTO 36010KT 10SM BKN022 OVC027 A2983 RMK MADISHF
FWN,2017-04-01 14:40,-74.6231,41.2002,M,M,M,10.00,7.00,M,29.84,M,10.00,M,OVC,M,M,M,2200.00,M,M,M,M,KFWN 011440Z AUTO 01007KT 10SM OVC022 A2984 RMK MADISHF
FWN,2017-04-01 14:45,-74.6231,41.2002,M,M,M,40.00,11.00,M,29.84,M,10.00,M,OVC,M,M,M,2200.00,M,M,M,M,KFWN 011445Z AUTO 04011KT 10SM OVC022 A2984 RMK MADISHF
FWN,2017-04-01 14:50,-74.6231,41.2002,M,M,M,20.00,13.00,M,29.84,M,10.00,M,OVC,M,M,M,2200.00,M,M,M,M,KFWN 011450Z AUTO 02013KT 10SM OVC022 A2984 RMK MADISHF
FWN,2017-04-01 14:53,-74.6231,41.2002,42.10,34.00,72.78,20.00,10.00,0.00,29.84,1010.60,10.00,19.00,OVC,M,M,M,2200.00,M,M,M,M,KFWN 011453Z AUTO 02010G19KT 10SM OVC022 06/01 A2984 RMK AO2 SLP106 T00560011 51018
FWN,2017-04-01 14:55,-74.6231,41.2002,M,M,M,20.00,9.00,M,29.84,M,10.00,M,OVC,M,M,M,2200.00,M,M,M,M,KFWN 011455Z AUTO 02009KT 10SM OVC022 A2984 RMK MADISHF
FWN,2017-04-01 15:00,-74.6231,41.2002,M,M,M,10.00,11.00,M,29.84,M,10.00,M,OVC,M,M,M,2200.00,M,M,M,M,KFWN 011500Z AUTO 01011KT 10SM OVC022 A2984 RMK MADISHF
FWN,2017-04-01 15:05,-74.6231,41.2002,M,M,M,20.00,10.00,M,29.84,M,10.00,M,OVC,M,M,M,2300.00,M,M,M,M,KFWN 011505Z AUTO 02010KT 10SM OVC023 A2984 RMK MADISHF
FWN,2017-04-01 15:10,-74.6231,41.2002,M,M,M,30.00,11.00,M,29.84,M,10.00,M,OVC,M,M,M,2300.00,M,M,M,M,KFWN 011510Z AUTO 03011KT 10SM OVC023 A2984 RMK MADISHF
FWN,2017-04-01 15:15,-74.6231,41.2002,M,M,M,20.00,11.00,M,29.84,M,10.00,M,OVC,M,M,M,2300.00,M,M,M,M,KFWN 011515Z AUTO 02011KT 10SM OVC023 A2984 RMK MADISHF
FWN,2017-04-01 15:20,-74.6231,41.2002,M,M,M,20.00,8.00,M,29.84,M,10.00,M,OVC,M,M,M,2300.00,M,M,M,M,KFWN 011520Z AUTO 02008KT 10SM OVC023 A2984 RMK WND 34V04  MADISHF
FWN,2017-04-01 15:25,-74.6231,41.2002,M,M,M,20.00,7.00,M,29.84,M,10.00,M,OVC,M,M,M,2300.00,M,M,M,M,KFWN 011525Z AUTO 02007KT 10SM OVC023 A2984 RMK MADISHF
FWN,2017-04-01 15:30,-74.6231,41.2002,M,M,M,30.00,8.00,M,29.84,M,10.00,M,OVC,M,M,M,2300.00,M,M,M,M,KFWN 011530Z AUTO 03008KT 10SM OVC023 A2984 RMK MADISHF
FWN,2017-04-01 15:35,-74.6231,41.2002,M,M,M,40.00,10.00,M,29.84,M,10.00,M,OVC,M,M,M,2300.00,M,M,M,M,KFWN 011535Z AUTO 04010KT 10SM OVC023 A2984 RMK MADISHF
FWN,2017-04-01 15:40,-74.6231,41.2002,M,M,M,30.00,9.00,M,29.85,M,10.00,14.00,OVC,M,M,M,2300.00,M,M,M,M,KFWN 011540Z AUTO 03009G14KT 10SM OVC023 A2985 RMK MADISHF
FWN,2017-04-01 15:45,-74.6231,41.2002,M,M,M,40.00,9.00,M,29.85,M,10.00,M,OVC,M,M,M,2300.00,M,M,M,M,KFWN 011545Z AUTO 04009KT 10SM OVC023 A2985 RMK MADISHF
FWN,2017-04-01 15:50,-74.6231,41.2002,M,M,M,30.00,8.00,M,29.84,M,10.00,M,OVC,M,M,M,2300.00,M,M,M,M,KFWN 011550Z AUTO 03008KT 10SM OVC023 A2984 RMK MADISHF
FWN,2017-04-01 15:53,-74.6231,41.2002,43.00,35.10,73.45,30.00,7.00,0.00,29.85,1010.80,10.00,M,OVC,M,M,M,2300.00,M,M,M,M,KFWN 011553Z AUTO 03007KT 10SM OVC023 06/02 A2985 RMK AO2 SLP108 T00610017
FWN,2017-04-01 15:55,-74.6231,41.2002,M,M,M,40.00,7.00,M,29.85,M,10.00,M,OVC,M,M,M,2300.00,M,M,M,M,KFWN 011555Z AUTO 04007KT 10SM OVC023 A2985 RMK MADISHF
FWN,2017-04-01 16:00,-74.6231,41.2002,M,M,M,350.00,9.00,M,29.85,M,10.00,14.00,OVC,M,M,M,2400.00,M,M,M,M,KFWN 011600Z AUTO 35009G14KT 10SM OVC024 A2985 RMK MADISHF
FWN,2017-04-01 16:05,-74.6231,41.2002,M,M,M,20.00,10.00,M,29.85,M,10.00,M,OVC,M,M,M,2400.00,M,M,M,M,KFWN 011605Z AUTO 02010KT 10SM OVC024 A2985 RMK MADISHF
FWN,2017-04-01 16:10,-74.6231,41.2002,M,M,M,30.00,8.00,M,29.85,M,10.00,M,OVC,M,M,M,2400.00,M,M,M,M,KFWN 011610Z AUTO 03008KT 10SM OVC024 A2985 RMK MADISHF
FWN,2017-04-01 16:15,-74.6231,41.2002,M,M,M,40.00,10.00,M,29.85,M,10.00,M,OVC,M,M,M,2500.00,M,M,M,M,KFWN 011615Z AUTO 04010KT 10SM OVC025 A2985 RMK MADISHF
FWN,2017-04-01 16:20,-74.6231,41.2002,M,M,M,40.00,8.00,M,29.84,M,10.00,M,BKN,OVC,M,M,2500.00,3600.00,M,M,M,KFWN 011620Z AUTO 04008KT 10SM BKN025 OVC036 A2984 RMK MADISHF
FWN,2017-04-01 16:25,-74.6231,41.2002,M,M,M,M,M,M,29.84,M,10.00,M,BKN,BKN,OVC,M,2600.00,3399.00,4100.00,M,M,KFWN 011625Z AUTO /////KT 10SM BKN026 BKN033 OVC041 A2984 RMK MADISHF
FWN,2017-04-01 16:30,-74.6231,41.2002,M,M,M,40.00,13.00,M,29.84,M,10.00,M,BKN,OVC,M,M,2600.00,3800.00,M,M,M,KFWN 011630Z AUTO 04013KT 10SM BKN026 OVC038 A2984 RMK MADISHF
FWN,2017-04-01 16:35,-74.6231,41.2002,M,M,M,40.00,12.00,M,29.84,M,10.00,M,SCT,OVC,M,M,2600.00,3600.00,M,M,M,KFWN 011635Z AUTO 04012KT 10SM SCT026 OVC036 A2984 RMK MADISHF
FWN,2017-04-01 16:39,-74.6231,41.2002,45.00,35.10,68.05,30.00,10.00,0.00,29.84,M,10.00,M,FEW,BKN,OVC,M,2600.00,3300.00,4000.00,M,M,KFWN 011639Z AUTO 03010KT 10SM FEW026 BKN033 OVC040 07/02 A2984 RMK AO2 T00720017
FWN,2017-04-01 16:40,-74.6231,41.2002,M,M,M,30.00,11.00,M,29.84,M,10.00,M,FEW,BKN,OVC,M,2600.00,3300.00,3999.00,M,M,KFWN 011640Z AUTO 03011KT 10SM FEW026 BKN033 OVC039 A2984 RMK MADISHF
FWN,2017-04-01 16:45,-74.6231,41.2002,M,M,M,20.00,9.00,M,29.84,M,10.00,M,SCT,OVC,M,M,2800.00,3399.00,M,M,M,KFWN 011645Z AUTO 02009KT 10SM SCT028 OVC033 A2984 RMK MADISHF
FWN,2017-04-01 16:50,-74.6231,41.2002,M,M,M,20.00,10.00,M,29.84,M,10.00,M,OVC,M,M,M,3200.00,M,M,M,M,KFWN 011650Z AUTO 02010KT 10SM OVC032 A2984 RMK MADISHF
FWN,2017-04-01 16:53,-74.6231,41.2002,45.00,35.10,68.05,30.00,11.00,0.00,29.84,1010.70,10.00,16.00,BKN,OVC,M,M,3000.00,3800.00,M,M,M,KFWN 011653Z AUTO 03011G16KT 10SM BKN030 OVC038 07/02 A2984 RMK AO2 SLP107 T00720017
FWN,2017-04-01 16:55,-74.6231,41.2002,M,M,M,30.00,11.00,M,29.84,M,10.00,M,OVC,M,M,M,3000.00,M,M,M,M,KFWN 011655Z AUTO 03011KT 10SM OVC030 A2984 RMK MADISHF
FWN,2017-04-01 17:00,-74.6231,41.2002,M,M,M,30.00,9.00,M,29.85,M,10.00,M,BKN,OVC,M,M,2800.00,3399.00,M,M,M,KFWN 011700Z AUTO 03009KT 10SM BKN028 OVC033 A2985 RMK MADISHF
FWN,2017-04-01 17:02,-74.6231,41.2002,45.00,35.10,68.05,30.00,9.00,0.00,29.85,M,10.00,M,BKN,OVC,M,M,2800.00,3400.00,M,M,M,KFWN 011702Z AUTO 03009KT 10SM BKN028 OVC034 07/02 A2985 RMK AO2 T00720017
FWN,2017-04-01 17:05,-74.6231,41.2002,M,M,M,30.00,10.00,M,29.85,M,10.00,M,BKN,OVC,M,M,2800.00,3399.00,M,M,M,KFWN 011705Z AUTO 03010KT 10SM BKN028 OVC033 A2985 RMK MADISHF
FWN,2017-04-01 17:10,-74.6231,41.2002,M,M,M,30.00,8.00,M,29.85,M,10.00,M,OVC,M,M,M,2700.00,M,M,M,M,KFWN 011710Z AUTO 03008KT 10SM OVC027 A2985 RMK WND 36V07  MADISHF
FWN,2017-04-01 17:15,-74.6231,41.2002,M,M,M,10.00,7.00,M,29.85,M,10.00,M,OVC,M,M,M,2700.00,M,M,M,M,KFWN 011715Z AUTO 01007KT 10SM OVC027 A2985 RMK MADISHF
FWN,2017-04-01 17:20,-74.6231,41.2002,M,M,M,60.00,8.00,M,29.85,M,10.00,M,OVC,M,M,M,2700.00,M,M,M,M,KFWN 011720Z AUTO 06008KT 10SM OVC027 A2985 RMK MADISHF
FWN,2017-04-01 17:25,-74.6231,41.2002,M,M,M,20.00,8.00,M,29.85,M,10.00,M,OVC,M,M,M,2700.00,M,M,M,M,KFWN 011725Z AUTO 02008KT 10SM OVC027 A2985 RMK MADISHF
FWN,2017-04-01 17:30,-74.6231,41.2002,M,M,M,30.00,7.00,M,29.85,M,10.00,M,OVC,M,M,M,2700.00,M,M,M,M,KFWN 011730Z AUTO 03007KT 10SM OVC027 A2985 RMK MADISHF
FWN,2017-04-01 17:35,-74.6231,41.2002,M,M,M,40.00,5.00,M,29.85,M,10.00,M,OVC,M,M,M,2700.00,M,M,M,M,KFWN 011735Z AUTO 04005KT 10SM OVC027 A2985 RMK MADISHF
FWN,2017-04-01 17:40,-74.6231,41.2002,M,M,M,70.00,10.00,M,29.85,M,10.00,M,OVC,M,M,M,2700.00,M,M,M,M,KFWN 011740Z AUTO 07010KT 10SM OVC027 A2985 RMK MADISHF
FWN,2017-04-01 17:45,-74.6231,41.2002,M,M,M,60.00,9.00,M,29.85,M,10.00,M,OVC,M,M,M,2700.00,M,M,M,M,KFWN 011745Z AUTO 06009KT 10SM OVC027 A2985 RMK MADISHF
FWN,2017-04-01 17:50,-74.6231,41.2002,M,M,M,60.00,8.00,M,29.85,M,10.00,M,OVC,M,M,M,2700.00,M,M,M,M,KFWN 011750Z AUTO 06008KT 10SM OVC027 A2985 RMK MADISHF
FWN,2017-04-01 17:53,-74.6231,41.2002,43.00,36.00,76.12,70.00,10.00,0.00,29.85,1011.10,10.00,M,OVC,M,M,M,2700.00,M,M,M,M,KFWN 011753Z AUTO 07010KT 10SM OVC027 06/02 A2985 RMK AO2 SLP111 T00610022 10078 20028 52004
FWN,2017-04-01 17:55,-74.6231,41.2002,M,M,M,50.00,7.00,M,29.85,M,10.00,M,OVC,M,M,M,2700.00,M,M,M,M,KFWN 011755Z AUTO 05007KT 10SM OVC027 A2985 RMK MADISHF
FWN,2017-04-01 18:00,-74.6231,41.2002,M,M,M,40.00,7.00,M,29.85,M,10.00,M,OVC,M,M,M,2700.00,M,M,M,M,KFWN 011800Z AUTO 04007KT 10SM OVC027 A2985 RMK MADISHF
FWN,2017-04-01 18:05,-74.6231,41.2002,M,M,M,60.00,8.00,M,29.85,M,10.00,M,OVC,M,M,M,2700.00,M,M,M,M,KFWN 011805Z AUTO 06008KT 10SM OVC027 A2985 RMK MADISHF
FWN,2017-04-01 18:10,-74.6231,41.2002,M,M,M,60.00,8.00,M,29.85,M,10.00,M,OVC,M,M,M,2800.00,M,M,M,M,KFWN 011810Z AUTO 06008KT 10SM OVC028 A2985 RMK MADISHF
FWN,2017-04-01 18:15,-74.6231,41.2002,M,M,M,60.00,7.00,M,29.86,M,10.00,M,OVC,M,M,M,2800.00,M,M,M,M,KFWN 011815Z AUTO 06007KT 10SM OVC028 A2986 RMK MADISHF
FWN,2017-04-01 18:20,-74.6231,41.2002,M,M,M,60.00,7.00,M,29.86,M,10.00,M,OVC,M,M,M,2800.00,M,M,M,M,KFWN 011820Z AUTO 06007KT 10SM OVC028 A2986 RMK MADISHF
FWN,2017-04-01 18:25,-74.6231,41.2002,M,M,M,40.00,6.00,M,29.86,M,10.00,M,OVC,M,M,M,2800.00,M,M,M,M,KFWN 011825Z AUTO 04006KT 10SM OVC028 A2986 RMK MADISHF
FWN,2017-04-01 18:30,-74.6231,41.2002,M,M,M,30.00,9.00,M,29.87,M,10.00,M,OVC,M,M,M,2600.00,M,M,M,M,KFWN 011830Z AUTO 03009KT 10SM OVC026 A2987 RMK MADISHF
FWN,2017-04-01 18:35,-74.6231,41.2002,M,M,M,20.00,5.00,M,29.87,M,10.00,M,OVC,M,M,M,2600.00,M,M,M,M,KFWN 011835Z AUTO 02005KT 10SM OVC026 A2987 RMK MADISHF
FWN,2017-04-01 18:40,-74.6231,41.2002,M,M,M,20.00,6.00,M,29.87,M,10.00,M,BKN,OVC,M,M,2600.00,3200.00,M,M,M,KFWN 011840Z AUTO 02006KT 10SM BKN026 OVC032 A2987 RMK MADISHF
FWN,2017-04-01 18:45,-74.6231,41.2002,M,M,M,40.00,6.00,M,29.87,M,10.00,M,SCT,OVC,M,M,2400.00,3200.00,M,M,M,KFWN 011845Z AUTO 04006KT 10SM SCT024 OVC032 A2987 RMK MADISHF
FWN,2017-04-01 18:50,-74.6231,41.2002,M,M,M,50.00,9.00,M,29.87,M,10.00,M,FEW,OVC,M,M,2400.00,3200.00,M,M,M,KFWN 011850Z AUTO 05009KT 10SM FEW024 OVC032 A2987 RMK MADISHF
FWN,2017-04-01 18:51,-74.6231,41.2002,44.60,37.40,75.68,60.00,10.00,0.00,29.87,M,10.00,M,FEW,OVC,M,M,2400.00,3200.00,M,M,M,KFWN 011851Z AUTO 06010KT 10SM FEW024 OVC032 07/03 A2987 RMK AO2
FWN,2017-04-01 18:53,-74.6231,41.2002,44.10,37.00,75.93,60.00,9.00,0.00,29.87,1011.70,10.00,M,FEW,OVC,M,M,2400.00,3200.00,M,M,M,KFWN 011853Z AUTO 06009KT 10SM FEW024 OVC032 07/03 A2987 RMK AO2 SLP117 T00670028
FWN,2017-04-01 18:55,-74.6231,41.2002,M,M,M,50.00,7.00,M,29.87,M,10.00,M,SCT,OVC,M,M,2700.00,3200.00,M,M,M,KFWN 011855Z AUTO 05007KT 10SM SCT027 OVC032 A2987 RMK MADISHF
FWN,2017-04-01 19:00,-74.6231,41.2002,M,M,M,50.00,7.00,M,29.86,M,10.00,M,FEW,OVC,M,M,2700.00,3399.00,M,M,M,KFWN 011900Z AUTO 05007KT 10SM FEW027 OVC033 A2986 RMK MADISHF
FWN,2017-04-01 19:05,-74.6231,41.2002,M,M,M,40.00,8.00,M,29.86,M,10.00,M,OVC,M,M,M,3399.00,M,M,M,M,KFWN 011905Z AUTO 04008KT 10SM OVC033 A2986 RMK MADISHF
FWN,2017-04-01 19:10,-74.6231,41.2002,M,M,M,50.00,9.00,M,29.86,M,10.00,M,OVC,M,M,M,3399.00,M,M,M,M,KFWN 011910Z AUTO 05009KT 10SM OVC033 A2986 RMK MADISHF
FWN,2017-04-01 19:15,-74.6231,41.2002,M,M,M,40.00,7.00,M,29.86,M,10.00,M,OVC,M,M,M,3399.00,M,M,M,M,KFWN 011915Z AUTO 04007KT 10SM OVC033 A2986 RMK MADISHF
FWN,2017-04-01 19:20,-74.6231,41.2002,M,M,M,40.00,7.00,M,29.87,M,10.00,M,OVC,M,M,M,3600.00,M,M,M,M,KFWN 011920Z AUTO 04007KT 10SM OVC036 A2987 RMK MADISHF
FWN,2017-04-01 19:25,-74.6231,41.2002,M,M,M,40.00,6.00,M,29.87,M,10.00,M,OVC,M,M,M,3600.00,M,M,M,M,KFWN 011925Z AUTO 04006KT 10SM OVC036 A2987 RMK MADISHF
FWN,2017-04-01 19:30,-74.6231,41.2002,M,M,M,40.00,6.00,M,29.87,M,10.00,M,OVC,M,M,M,3600.00,M,M,M,M,KFWN 011930Z AUTO 04006KT 10SM OVC036 A2987 RMK MADISHF
FWN,2017-04-01 19:35,-74.6231,41.2002,M,M,M,40.00,8.00,M,29.87,M,10.00,M,OVC,M,M,M,3600.00,M,M,M,M,KFWN 011935Z AUTO 04008KT 10SM OVC036 A2987 RMK MADISHF
FWN,2017-04-01 19:40,-74.6231,41.2002,M,M,M,60.00,6.00,M,29.87,M,10.00,M,OVC,M,M,M,3600.00,M,M,M,M,KFWN 011940Z AUTO 06006KT 10SM OVC036 A2987 RMK MADISHF
FWN,2017-04-01 19:45,-74.6231,41.2002,M,M,M,50.00,8.00,M,29.88,M,10.00,M,OVC,M,M,M,3600.00,M,M,M,M,KFWN 011945Z AUTO 05008KT 10SM OVC036 A2988 RMK MADISHF
FWN,2017-04-01 19:50,-74.6231,41.2002,M,M,M,60.00,6.00,M,29.88,M,10.00,M,OVC,M,M,M,3600.00,M,M,M,M,KFWN 011950Z AUTO 06006KT 10SM OVC036 A2988 RMK MADISHF
FWN,2017-04-01 19:53,-74.6231,41.2002,46.00,37.00,70.64,50.00,5.00,0.00,29.88,1012.00,10.00,M,OVC,M,M,M,3600.00,M,M,M,M,KFWN 011953Z AUTO 05005KT 10SM OVC036 08/03 A2988 RMK AO2 SLP120 T00780028
FWN,2017-04-01 19:55,-74.6231,41.2002,M,M,M,50.00,6.00,M,29.88,M,10.00,M,OVC,M,M,M,3600.00,M,M,M,M,KFWN 011955Z AUTO 05006KT 10SM OVC036 A2988 RMK MADISHF
FWN,2017-04-01 20:00,-74.6231,41.2002,M,M,M,20.00,7.00,M,29.89,M,10.00,M,OVC,M,M,M,3600.00,M,M,M,M,KFWN 012000Z AUTO 02007KT 10SM OVC036 A2989 RMK MADISHF
FWN,2017-04-01 20:05,-74.6231,41.2002,M,M,M,20.00,5.00,M,29.89,M,10.00,M,OVC,M,M,M,3600.00,M,M,M,M,KFWN 012005Z AUTO 02005KT 10SM OVC036 A2989 RMK MADISHF
FWN,2017-04-01 20:10,-74.6231,41.2002,M,M,M,20.00,5.00,M,29.89,M,10.00,M,OVC,M,M,M,3600.00,M,M,M,M,KFWN 012010Z AUTO 02005KT 10SM OVC036 A2989 RMK MADISHF
FWN,2017-04-01 20:15,-74.6231,41.2002,M,M,M,20.00,4.00,M,29.89,M,10.00,M,OVC,M,M,M,3600.00,M,M,M,M,KFWN 012015Z AUTO 02004KT 10SM OVC036 A2989 RMK MADISHF
FWN,2017-04-01 20:20,-74.6231,41.2002,M,M,M,20.00,5.00,M,29.89,M,10.00,M,OVC,M,M,M,3600.00,M,M,M,M,KFWN 012020Z AUTO 02005KT 10SM OVC036 A2989 RMK MADISHF
FWN,2017-04-01 20:25,-74.6231,41.2002,M,M,M,30.00,3.00,M,29.89,M,10.00,M,OVC,M,M,M,3600.00,M,M,M,M,KFWN 012025Z AUTO 03003KT 10SM OVC036 A2989 RMK MADISHF
FWN,2017-04-01 20:30,-74.6231,41.2002,M,M,M,30.00,5.00,M,29.89,M,10.00,M,OVC,M,M,M,3399.00,M,M,M,M,KFWN 012030Z AUTO 03005KT 10SM OVC033 A2989 RMK MADISHF
FWN,2017-04-01 20:35,-74.6231,41.2002,M,M,M,10.00,4.00,M,29.90,M,10.00,M,FEW,OVC,M,M,2800.00,3399.00,M,M,M,KFWN 012035Z AUTO 01004KT 10SM FEW028 OVC033 A2990 RMK MADISHF
FWN,2017-04-01 20:40,-74.6231,41.2002,M,M,M,40.00,7.00,M,29.90,M,10.00,M,OVC,M,M,M,3399.00,M,M,M,M,KFWN 012040Z AUTO 04007KT 10SM OVC033 A2990 RMK MADISHF
FWN,2017-04-01 20:45,-74.6231,41.2002,M,M,M,30.00,6.00,M,29.90,M,10.00,M,OVC,M,M,M,3399.00,M,M,M,M,KFWN 012045Z AUTO 03006KT 10SM OVC033 A2990 RMK MADISHF
FWN,2017-04-01 20:50,-74.6231,41.2002,M,M,M,40.00,5.00,M,29.91,M,10.00,M,OVC,M,M,M,3399.00,M,M,M,M,KFWN 012050Z AUTO 04005KT 10SM OVC033 A2991 RMK MADISHF
FWN,2017-04-01 20:53,-74.6231,41.2002,46.00,36.00,67.90,40.00,5.00,0.00,29.91,1012.90,10.00,M,OVC,M,M,M,3400.00,M,M,M,M,KFWN 012053Z AUTO 04005KT 10SM OVC034 08/02 A2991 RMK AO2 SLP129 T00780022 53012
FWN,2017-04-01 20:55,-74.6231,41.2002,M,M,M,30.00,5.00,M,29.91,M,10.00,M,OVC,M,M,M,3399.00,M,M,M,M,KFWN 012055Z AUTO 03005KT 10SM OVC033 A2991 RMK MADISHF
FWN,2017-04-01 21:00,-74.6231,41.2002,M,M,M,30.00,4.00,M,29.91,M,10.00,M,OVC,M,M,M,3600.00,M,M,M,M,KFWN 012100Z AUTO 03004KT 10SM OVC036 A2991 RMK MADISHF
FWN,2017-04-01 21:05,-74.6231,41.2002,M,M,M,50.00,5.00,M,29.91,M,10.00,M,OVC,M,M,M,3600.00,M,M,M,M,KFWN 012105Z AUTO 05005KT 10SM OVC036 A2991 RMK MADISHF
FWN,2017-04-01 21:10,-74.6231,41.2002,M,M,M,40.00,4.00,M,29.91,M,10.00,M,OVC,M,M,M,3600.00,M,M,M,M,KFWN 012110Z AUTO 04004KT 10SM OVC036 A2991 RMK MADISHF
FWN,2017-04-01 21:15,-74.6231,41.2002,M,M,M,360.00,7.00,M,29.92,M,10.00,M,OVC,M,M,M,3600.00,M,M,M,M,KFWN 012115Z AUTO 36007KT 10SM OVC036 A2992 RMK MADISHF
FWN,2017-04-01 21:20,-74.6231,41.2002,M,M,M,30.00,5.00,M,29.91,M,10.00,M,OVC,M,M,M,3700.00,M,M,M,M,KFWN 012120Z AUTO 03005KT 10SM OVC037 A2991 RMK MADISHF
FWN,2017-04-01 21:25,-74.6231,41.2002,M,M,M,30.00,6.00,M,29.92,M,10.00,M,OVC,M,M,M,3900.00,M,M,M,M,KFWN 012125Z AUTO 03006KT 10SM OVC039 A2992 RMK MADISHF
FWN,2017-04-01 21:30,-74.6231,41.2002,M,M,M,360.00,5.00,M,29.92,M,10.00,M,OVC,M,M,M,3900.00,M,M,M,M,KFWN 012130Z AUTO 36005KT 10SM OVC039 A2992 RMK MADISHF
FWN,2017-04-01 21:35,-74.6231,41.2002,M,M,M,30.00,4.00,M,29.92,M,10.00,M,OVC,M,M,M,3900.00,M,M,M,M,KFWN 012135Z AUTO 03004KT 10SM OVC039 A2992 RMK MADISHF
FWN,2017-04-01 21:40,-74.6231,41.2002,M,M,M,20.00,4.00,M,29.92,M,10.00,M,OVC,M,M,M,3900.00,M,M,M,M,KFWN 012140Z AUTO 02004KT 10SM OVC039 A2992 RMK MADISHF
FWN,2017-04-01 21:45,-74.6231,41.2002,M,M,M,360.00,4.00,M,29.92,M,10.00,M,OVC,M,M,M,3900.00,M,M,M,M,KFWN 012145Z AUTO 36004KT 10SM OVC039 A2992 RMK VRB04KT  MADISHF
FWN,2017-04-01 21:50,-74.6231,41.2002,M,M,M,360.00,7.00,M,29.93,M,10.00,M,OVC,M,M,M,4100.00,M,M,M,M,KFWN 012150Z AUTO 36007KT 10SM OVC041 A2993 RMK MADISHF
FWN,2017-04-01 21:53,-74.6231,41.2002,48.00,36.00,62.97,10.00,6.00,0.00,29.93,1013.60,10.00,15.00,OVC,M,M,M,4100.00,M,M,M,M,KFWN 012153Z AUTO 01006G15KT 10SM OVC041 09/02 A2993 RMK AO2 SLP136 T00890022
FWN,2017-04-01 21:55,-74.6231,41.2002,M,M,M,10.00,8.00,M,29.93,M,10.00,M,OVC,M,M,M,4100.00,M,M,M,M,KFWN 012155Z AUTO 01008KT 10SM OVC041 A2993 RMK MADISHF
FWN,2017-04-01 22:00,-74.6231,41.2002,M,M,M,20.00,6.00,M,29.93,M,10.00,M,OVC,M,M,M,4100.00,M,M,M,M,KFWN 012200Z AUTO 02006KT 10SM OVC041 A2993 RMK MADISHF
FWN,2017-04-01 22:05,-74.6231,41.2002,M,M,M,80.00,4.00,M,29.94,M,10.00,M,OVC,M,M,M,4100.00,M,M,M,M,KFWN 012205Z AUTO 08004KT 10SM OVC041 A2994 RMK MADISHF
FWN,2017-04-01 22:10,-74.6231,41.2002,M,M,M,0.00,0.00,M,29.94,M,10.00,M,OVC,M,M,M,4300.00,M,M,M,M,KFWN 012210Z AUTO 00000KT 10SM OVC043 A2994 RMK MADISHF
FWN,2017-04-01 22:15,-74.6231,41.2002,M,M,M,0.00,0.00,M,29.94,M,10.00,M,OVC,M,M,M,4100.00,M,M,M,M,KFWN 012215Z AUTO 00000KT 10SM OVC041 A2994 RMK MADISHF
FWN,2017-04-01 22:20,-74.6231,41.2002,M,M,M,M,M,M,29.94,M,10.00,M,FEW,OVC,M,M,3500.00,4300.00,M,M,M,KFWN 012220Z AUTO /////KT 10SM FEW035 OVC043 A2994 RMK MADISHF
FWN,2017-04-01 22:25,-74.6231,41.2002,M,M,M,330.00,9.00,M,29.95,M,10.00,M,FEW,OVC,M,M,3500.00,4300.00,M,M,M,KFWN 012225Z AUTO 33009KT 10SM FEW035 OVC043 A2995 RMK MADISHF
FWN,2017-04-01 22:30,-74.6231,41.2002,M,M,M,320.00,4.00,M,29.95,M,10.00,M,OVC,M,M,M,4100.00,M,M,M,M,KFWN 012230Z AUTO 32004KT 10SM OVC041 A2995 RMK MADISHF
FWN,2017-04-01 22:35,-74.6231,41.2002,M,M,M,330.00,6.00,M,29.95,M,10.00,M,OVC,M,M,M,4100.00,M,M,M,M,KFWN 012235Z AUTO 33006KT 10SM OVC041 A2995 RMK MADISHF
FWN,2017-04-01 22:40,-74.6231,41.2002,M,M,M,330.00,6.00,M,29.96,M,10.00,M,OVC,M,M,M,4300.00,M,M,M,M,KFWN 012240Z AUTO 33006KT 10SM OVC043 A2996 RMK MADISHF
FWN,2017-04-01 22:45,-74.6231,41.2002,M,M,M,330.00,8.00,M,29.97,M,10.00,M,OVC,M,M,M,4300.00,M,M,M,M,KFWN 012245Z AUTO 33008KT 10SM OVC043 A2997 RMK MADISHF
FWN,2017-04-01 22:50,-74.6231,41.2002,M,M,M,350.00,6.00,M,29.97,M,10.00,M,OVC,M,M,M,4300.00,M,M,M,M,KFWN 012250Z AUTO 35006KT 10SM OVC043 A2997 RMK MADISHF
FWN,2017-04-01 22:53,-74.6231,41.2002,46.00,35.10,65.52,350.00,7.00,0.00,29.98,1015.20,10.00,M,OVC,M,M,M,4300.00,M,M,M,M,KFWN 012253Z AUTO 35007KT 10SM OVC043 08/02 A2998 RMK AO2 PRESRR SLP152 T00780017
FWN,2017-04-01 22:55,-74.6231,41.2002,M,M,M,340.00,9.00,M,29.98,M,10.00,M,OVC,M,M,M,4300.00,M,M,M,M,KFWN 012255Z AUTO 34009KT 10SM OVC043 A2998 RMK MADISHF
FWN,2017-04-01 23:00,-74.6231,41.2002,M,M,M,340.00,7.00,M,29.98,M,10.00,M,OVC,M,M,M,4300.00,M,M,M,M,KFWN 012300Z AUTO 34007KT 10SM OVC043 A2998 RMK MADISHF
FWN,2017-04-01 23:05,-74.6231,41.2002,M,M,M,340.00,7.00,M,29.98,M,10.00,M,OVC,M,M,M,4100.00,M,M,M,M,KFWN 012305Z AUTO 34007KT 10SM OVC041 A2998 RMK MADISHF
FWN,2017-04-01 23:10,-74.6231,41.2002,M,M,M,330.00,7.00,M,29.98,M,10.00,M,OVC,M,M,M,4100.00,M,M,M,M,KFWN 012310Z AUTO 33007KT 10SM OVC041 A2998 RMK MADISHF
FWN,2017-04-01 23:15,-74.6231,41.2002,M,M,M,310.00,8.00,M,29.98,M,10.00,M,OVC,M,M,M,4100.00,M,M,M,M,KFWN 012315Z AUTO 31008KT 10SM OVC041 A2998 RMK MADISHF
FWN,2017-04-01 23:20,-74.6231,41.2002,M,M,M,320.00,7.00,M,29.99,M,10.00,M,OVC,M,M,M,4100.00,M,M,M,M,KFWN 012320Z AUTO 32007KT 10SM OVC041 A2999 RMK MADISHF
FWN,2017-04-01 23:25,-74.6231,41.2002,M,M,M,320.00,4.00,M,29.99,M,10.00,M,OVC,M,M,M,4300.00,M,M,M,M,KFWN 012325Z AUTO 32004KT 10SM OVC043 A2999 RMK MADISHF
FWN,2017-04-01 23:30,-74.6231,41.2002,M,M,M,350.00,6.00,M,29.99,M,10.00,M,BKN,OVC,M,M,4100.00,4800.00,M,M,M,KFWN 012330Z AUTO 35006KT 10SM BKN041 OVC048 A2999 RMK MADISHF
FWN,2017-04-01 23:35,-74.6231,41.2002,M,M,M,350.00,7.00,M,29.99,M,10.00,M,OVC,M,M,M,4100.00,M,M,M,M,KFWN 012335Z AUTO 35007KT 10SM OVC041 A2999 RMK WND 32V02  MADISHF
FWN,2017-04-01 23:40,-74.6231,41.2002,M,M,M,340.00,7.00,M,29.99,M,10.00,M,OVC,M,M,M,4100.00,M,M,M,M,KFWN 012340Z AUTO 34007KT 10SM OVC041 A2999 RMK WND 29V01  MADISHF
FWN,2017-04-01 23:45,-74.6231,41.2002,M,M,M,330.00,8.00,M,29.99,M,10.00,M,BKN,OVC,M,M,3900.00,4700.00,M,M,M,KFWN 012345Z AUTO 33008KT 10SM BKN039 OVC047 A2999 RMK MADISHF
FWN,2017-04-01 23:50,-74.6231,41.2002,M,M,M,340.00,5.00,M,29.99,M,10.00,M,BKN,OVC,M,M,3900.00,4900.00,M,M,M,KFWN 012350Z AUTO 34005KT 10SM BKN039 OVC049 A2999 RMK MADISHF
FWN,2017-04-01 23:53,-74.6231,41.2002,45.00,34.00,65.13,M,5.00,0.00,29.99,1015.80,10.00,M,BKN,OVC,M,M,3900.00,4900.00,M,M,M,KFWN 012353Z AUTO VRB05KT 10SM BKN039 OVC049 07/01 A2999 RMK AO2 SLP158 T00720011 10089 20061 51029
FWN,2017-04-01 23:55,-74.6231,41.2002,M,M,M,360.00,6.00,M,29.99,M,10.00,M,BKN,BKN,M,M,3900.00,5500.00,M,M,M,KFWN 012355Z AUTO 36006KT 10SM BKN039 BKN055 A2999 RMK VRB06KT  MADISHF
