#DEBUG: Format Typ    -> comma
#DEBUG: Time Period   -> 2017-04-01 00:00:00+00:00 2017-04-02 00:00:00+00:00
#DEBUG: Time Zone     -> Etc/UTC
#DEBUG: Data Contact   -> daryl herzmann akrherz@iastate.edu 515-294-5978
#DEBUG: Entries Found -> -1
station,valid,lon,lat,tmpf, dwpf, relh, drct, sknt, p01i, alti, mslp, vsby, gust, skyc1, skyc2, skyc3, skyc4, skyl1, skyl2, skyl3, skyl4, presentwx, metar
GAF,2017-04-01 00:15,-97.3709,48.4047,42.80,42.80,100.00,350.00,12.00,0.00,30.15,M,8.00,17.00,OVC,M,M,M,500.00,M,M,M,M,KGAF 010015Z AUTO 35012G17KT 8SM OVC005 06/06 A3015 RMK AO2
GAF,2017-04-01 00:35,-97.3709,48.4047,42.80,42.80,100.00,340.00,10.00,0.00,30.15,M,9.00,M,OVC,M,M,M,500.00,M,M,M,M,KGAF 010035Z AUTO 34010KT 9SM OVC005 06/06 A3015 RMK AO2
GAF,2017-04-01 00:55,-97.3709,48.4047,42.80,42.80,100.00,340.00,11.00,0.00,30.16,M,9.00,M,OVC,M,M,M,500.00,M,M,M,M,KGAF 010055Z AUTO 34011KT 9SM OVC005 06/06 A3016 RMK AO2
GAF,2017-04-01 01:15,-97.3709,48.4047,42.80,42.80,100.00,340.00,11.00,0.00,30.16,M,9.00,M,OVC,M,M,M,500.00,M,M,M,M,KGAF 010115Z AUTO 34011KT 9SM OVC005 06/06 A3016 RMK AO2
GAF,2017-04-01 01:35,-97.3709,48.4047,42.80,42.80,100.00,330.00,10.00,0.00,30.17,M,10.00,M,OVC,M,M,M,600.00,M,M,M,M,KGAF 010135Z AUTO 33010KT 10SM OVC006 06/06 A3017 RMK AO2
GAF,2017-04-01 01:55,-97.3709,48.4047,41.00,41.00,100.00,340.00,12.00,0.00,30.17,M,10.00,M,OVC,M,M,M,700.00,M,M,M,M,KGAF 010155Z AUTO 34012KT 10SM OVC007 05/05 A3017 RMK AO2
GAF,2017-04-01 02:15,-97.3709,48.4047,41.00,41.00,100.00,340.00,13.00,0.00,30.18,M,10.00,M,OVC,M,M,M,700.00,M,M,M,M,KGAF 010215Z AUTO 34013KT 10SM OVC007 05/05 A3018 RMK AO2
GAF,2017-04-01 02:35,-97.3709,48.4047,41.00,41.00,100.00,330.00,11.00,0.00,30.18,M,10.00,16.00,OVC,M,M,M,700.00,M,M,M,M,KGAF 010235Z AUTO 33011G16KT 10SM OVC007 05/05 A3018 RMK AO2
GAF,2017-04-01 02:55,-97.3709,48.4047,41.00,41.00,100.00,340.00,11.00,0.00,30.19,M,10.00,M,OVC,M,M,M,800.00,M,M,M,M,KGAF 010255Z AUTO 34011KT 10SM OVC008 05/05 A3019 RMK AO2
GAF,2017-04-01 03:15,-97.3709,48.4047,41.00,41.00,100.00,330.00,12.00,0.00,30.19,M,10.00,M,BKN,OVC,M,M,900.00,1400.00,M,M,M,KGAF 010315Z AUTO 33012KT 10SM BKN009 OVC014 05/05 A3019 RMK AO2
GAF,2017-04-01 03:35,-97.3709,48.4047,41.00,41.00,100.00,350.00,12.00,0.00,30.19,M,10.00,M,FEW,OVC,M,M,900.00,1300.00,M,M,M,KGAF 010335Z AUTO 35012KT 10SM FEW009 OVC013 05/05 A3019 RMK AO2
GAF,2017-04-01 03:55,-97.3709,48.4047,39.20,39.20,100.00,340.00,11.00,0.00,30.20,M,10.00,18.00,OVC,M,M,M,1100.00,M,M,M,M,KGAF 010355Z AUTO 34011G18KT 10SM OVC011 04/04 A3020 RMK AO2
GAF,2017-04-01 04:15,-97.3709,48.4047,39.20,39.20,100.00,340.00,13.00,0.00,30.20,M,10.00,M,M,M,M,M,M,M,M,M,M,KGAF 010415Z AUTO 34013KT 10SM 04/04 A3020 RMK AO2
GAF,2017-04-01 04:35,-97.3709,48.4047,39.20,39.20,100.00,340.00,12.00,0.00,30.21,M,10.00,M,BKN,OVC,M,M,1000.00,1600.00,M,M,M,KGAF 010435Z AUTO 34012KT 10SM BKN010 OVC016 04/04 A3021 RMK AO2
GAF,2017-04-01 04:55,-97.3709,48.4047,39.20,39.20,100.00,330.00,8.00,0.00,30.21,M,10.00,13.00,OVC,M,M,M,1600.00,M,M,M,M,KGAF 010455Z AUTO 33008G13KT 10SM OVC016 04/04 A3021 RMK AO2
GAF,2017-04-01 05:15,-97.3709,48.4047,39.20,39.20,100.00,340.00,9.00,0.00,30.21,M,10.00,M,BKN,OVC,M,M,1700.00,2300.00,M,M,M,KGAF 010515Z AUTO 34009KT 10SM BKN017 OVC023 04/04 A3021 RMK AO2
GAF,2017-04-01 05:35,-97.3709,48.4047,39.20,39.20,100.00,330.00,8.00,0.00,30.22,M,10.00,M,BKN,OVC,M,M,1700.00,2400.00,M,M,M,KGAF 010535Z AUTO 33008KT 10SM BKN017 OVC024 04/04 A3022 RMK AO2
GAF,2017-04-01 05:55,-97.3709,48.4047,39.20,39.20,100.00,340.00,8.00,0.00,30.21,M,10.00,M,FEW,OVC,M,M,1600.00,2300.00,M,M,M,KGAF 010555Z AUTO 34008KT 10SM FEW016 OVC023 04/04 A3021 RMK AO2
GAF,2017-04-01 06:15,-97.3709,48.4047,39.20,39.20,100.00,340.00,9.00,0.00,30.22,M,10.00,M,SCT,OVC,M,M,1700.00,2200.00,M,M,M,KGAF 010615Z AUTO 34009KT 10SM SCT017 OVC022 04/04 A3022 RMK AO2
GAF,2017-04-01 06:35,-97.3709,48.4047,39.20,39.20,100.00,340.00,10.00,0.00,30.22,M,10.00,M,BKN,OVC,M,M,1800.00,2200.00,M,M,M,KGAF 010635Z AUTO 34010KT 10SM BKN018 OVC022 04/04 A3022 RMK AO2
GAF,2017-04-01 06:55,-97.3709,48.4047,39.20,39.20,100.00,320.00,7.00,0.00,30.23,M,10.00,M,SCT,OVC,M,M,600.00,1900.00,M,M,M,KGAF 010655Z AUTO 32007KT 10SM SCT006 OVC019 04/04 A3023 RMK AO2
GAF,2017-04-01 07:15,-97.3709,48.4047,39.20,39.20,100.00,330.00,8.00,0.00,30.23,M,10.00,M,SCT,OVC,M,M,600.00,2000.00,M,M,M,KGAF 010715Z AUTO 33008KT 10SM SCT006 OVC020 04/04 A3023 RMK AO2
GAF,2017-04-01 07:35,-97.3709,48.4047,39.20,39.20,100.00,340.00,9.00,0.00,30.23,M,10.00,M,FEW,OVC,M,M,500.00,1900.00,M,M,M,KGAF 010735Z AUTO 34009KT 10SM FEW005 OVC019 04/04 A3023 RMK AO2
GAF,2017-04-01 07:55,-97.3709,48.4047,39.20,39.20,100.00,330.00,8.00,0.00,30.24,M,10.00,M,OVC,M,M,M,1800.00,M,M,M,M,KGAF 010755Z AUTO 33008KT 10SM OVC018 04/04 A3024 RMK AO2
GAF,2017-04-01 08:15,-97.3709,48.4047,39.20,39.20,100.00,320.00,6.00,0.00,30.23,M,10.00,13.00,FEW,OVC,M,M,500.00,1600.00,M,M,M,KGAF 010815Z AUTO 32006G13KT 10SM FEW005 OVC016 04/04 A3023 RMK AO2
GAF,2017-04-01 08:35,-97.3709,48.4047,37.40,37.40,100.00,320.00,7.00,0.00,30.24,M,10.00,M,SCT,OVC,M,M,500.00,1600.00,M,M,M,KGAF 010835Z AUTO 32007KT 10SM SCT005 OVC016 03/03 A3024 RMK AO2
GAF,2017-04-01 08:55,-97.3709,48.4047,37.40,37.40,100.00,330.00,6.00,0.00,30.24,M,10.00,M,FEW,OVC,M,M,400.00,1600.00,M,M,M,KGAF 010855Z AUTO 33006KT 10SM FEW004 OVC016 03/03 A3024 RMK AO2
GAF,2017-04-01 09:15,-97.3709,48.4047,37.40,37.40,100.00,330.00,6.00,0.00,30.24,M,10.00,M,SCT,OVC,M,M,400.00,1600.00,M,M,M,KGAF 010915Z AUTO 33006KT 10SM SCT004 OVC016 03/03 A3024 RMK AO2
GAF,2017-04-01 09:35,-97.3709,48.4047,37.40,37.40,100.00,330.00,6.00,0.00,30.23,M,10.00,M,SCT,OVC,M,M,400.00,1500.00,M,M,M,KGAF 010935Z AUTO 33006KT 10SM SCT004 OVC015 03/03 A3023 RMK AO2
GAF,2017-04-01 09:55,-97.3709,48.4047,37.40,37.40,100.00,330.00,6.00,0.00,30.23,M,10.00,M,FEW,BKN,OVC,M,300.00,1500.00,2100.00,M,M,KGAF 010955Z AUTO 33006KT 10SM FEW003 BKN015 OVC021 03/03 A3023 RMK AO2
GAF,2017-04-01 10:15,-97.3709,48.4047,37.40,37.40,100.00,320.00,5.00,0.00,30.23,M,10.00,M,OVC,M,M,M,1400.00,M,M,M,M,KGAF 011015Z AUTO 32005KT 10SM OVC014 03/03 A3023 RMK AO2
GAF,2017-04-01 10:35,-97.3709,48.4047,37.40,37.40,100.00,330.00,6.00,0.00,30.23,M,10.00,M,OVC,M,M,M,1400.00,M,M,M,M,KGAF 011035Z AUTO 33006KT 10SM OVC014 03/03 A3023 RMK AO2
GAF,2017-04-01 10:55,-97.3709,48.4047,37.40,37.40,100.00,320.00,6.00,0.00,30.24,M,10.00,M,M,M,M,M,M,M,M,M,M,KGAF 011055Z AUTO 32006KT 10SM 03/03 A3024 RMK AO2
GAF,2017-04-01 11:15,-97.3709,48.4047,37.40,37.40,100.00,320.00,6.00,0.00,30.24,M,10.00,M,M,M,M,M,M,M,M,M,M,KGAF 011115Z AUTO 32006KT 10SM 03/03 A3024 RMK AO2
GAF,2017-04-01 11:35,-97.3709,48.4047,37.40,37.40,100.00,320.00,6.00,0.00,30.24,M,10.00,M,OVC,M,M,M,1500.00,M,M,M,M,KGAF 011135Z AUTO 32006KT 10SM OVC015 03/03 A3024 RMK AO2
GAF,2017-04-01 11:55,-97.3709,48.4047,37.40,37.40,100.00,320.00,4.00,0.00,30.24,M,10.00,M,BKN,OVC,M,M,1400.00,2000.00,M,M,M,KGAF 011155Z AUTO 32004KT 10SM BKN014 OVC020 03/03 A3024 RMK AO2
GAF,2017-04-01 12:15,-97.3709,48.4047,37.40,37.40,100.00,300.00,3.00,0.00,30.24,M,10.00,M,FEW,SCT,OVC,M,1300.00,2000.00,3100.00,M,M,KGAF 011215Z AUTO 30003KT 10SM FEW013 SCT020 OVC031 03/03 A3024 RMK AO2
GAF,2017-04-01 12:35,-97.3709,48.4047,37.40,37.40,100.00,300.00,3.00,0.00,30.25,M,10.00,M,OVC,M,M,M,2900.00,M,M,M,M,KGAF 011235Z AUTO 30003KT 10SM OVC029 03/03 A3025 RMK AO2
GAF,2017-04-01 12:55,-97.3709,48.4047,37.40,37.40,100.00,330.00,3.00,0.00,30.25,M,10.00,M,OVC,M,M,M,3000.00,M,M,M,M,KGAF 011255Z AUTO 33003KT 10SM OVC030 03/03 A3025 RMK AO2
GAF,2017-04-01 13:15,-97.3709,48.4047,37.40,37.40,100.00,0.00,0.00,0.00,30.25,M,10.00,M,OVC,M,M,M,2900.00,M,M,M,M,KGAF 011315Z AUTO 00000KT 10SM OVC029 03/03 A3025 RMK AO2
GAF,2017-04-01 13:35,-97.3709,48.4047,37.40,37.40,100.00,260.00,6.00,0.00,30.25,M,10.00,M,OVC,M,M,M,3000.00,M,M,M,M,KGAF 011335Z AUTO 26006KT 10SM OVC030 03/03 A3025 RMK AO2
GAF,2017-04-01 13:55,-97.3709,48.4047,37.40,37.40,100.00,290.00,4.00,0.00,30.25,M,10.00,M,OVC,M,M,M,3000.00,M,M,M,M,KGAF 011355Z AUTO 29004KT 10SM OVC030 03/03 A3025 RMK AO2
GAF,2017-04-01 14:15,-97.3709,48.4047,39.20,39.20,100.00,310.00,4.00,0.00,30.25,M,10.00,M,OVC,M,M,M,3000.00,M,M,M,M,KGAF 011415Z AUTO 31004KT 10SM OVC030 04/04 A3025 RMK AO2
GAF,2017-04-01 14:35,-97.3709,48.4047,39.20,39.20,100.00,300.00,4.00,0.00,30.25,M,10.00,M,OVC,M,M,M,3100.00,M,M,M,M,KGAF 011435Z AUTO 30004KT 10SM OVC031 04/04 A3025 RMK AO2
GAF,2017-04-01 14:55,-97.3709,48.4047,41.00,37.40,86.89,320.00,6.00,0.00,30.25,M,10.00,M,OVC,M,M,M,3100.00,M,M,M,M,KGAF 011455Z AUTO 32006KT 10SM OVC031 05/03 A3025 RMK AO2
GAF,2017-04-01 15:15,-97.3709,48.4047,41.00,39.20,93.24,350.00,7.00,0.00,30.25,M,10.00,M,OVC,M,M,M,3200.00,M,M,M,M,KGAF 011515Z AUTO 35007KT 10SM OVC032 05/04 A3025 RMK AO2
GAF,2017-04-01 15:35,-97.3709,48.4047,41.00,39.20,93.24,340.00,5.00,0.00,30.25,M,10.00,M,OVC,M,M,M,3200.00,M,M,M,M,KGAF 011535Z AUTO 34005KT 10SM OVC032 05/04 A3025 RMK AO2
GAF,2017-04-01 15:55,-97.3709,48.4047,41.00,39.20,93.24,M,3.00,0.00,30.24,M,10.00,M,OVC,M,M,M,3100.00,M,M,M,M,KGAF 011555Z AUTO VRB03KT 10SM OVC031 05/04 A3024 RMK AO2
GAF,2017-04-01 16:15,-97.3709,48.4047,41.00,37.40,86.89,M,3.00,0.00,30.25,M,10.00,M,OVC,M,M,M,3200.00,M,M,M,M,KGAF 011615Z AUTO VRB03KT 10SM OVC032 05/03 A3025 RMK AO2
GAF,2017-04-01 16:35,-97.3709,48.4047,42.80,35.60,75.50,0.00,0.00,0.00,30.25,M,10.00,M,FEW,FEW,OVC,M,1600.00,2000.00,3100.00,M,M,KGAF 011635Z AUTO 00000KT 10SM FEW016 FEW020 OVC031 06/02 A3025 RMK AO2
GAF,2017-04-01 16:55,-97.3709,48.4047,42.80,32.00,65.38,M,3.00,0.00,30.25,M,10.00,M,FEW,OVC,M,M,1800.00,3100.00,M,M,M,KGAF 011655Z AUTO VRB03KT 10SM FEW018 OVC031 06/00 A3025 RMK AO2
GAF,2017-04-01 17:15,-97.3709,48.4047,44.60,32.00,61.03,330.00,5.00,0.00,30.24,M,10.00,M,OVC,M,M,M,3100.00,M,M,M,M,KGAF 011715Z AUTO 33005KT 10SM OVC031 07/M00 A3024 RMK AO2
GAF,2017-04-01 17:35,-97.3709,48.4047,44.60,32.00,61.03,0.00,0.00,0.00,30.24,M,10.00,M,BKN,M,M,M,3200.00,M,M,M,M,KGAF 011735Z AUTO 00000KT 10SM BKN032 07/00 A3024 RMK AO2
GAF,2017-04-01 17:55,-97.3709,48.4047,44.60,32.00,61.03,280.00,4.00,0.00,30.23,M,10.00,M,BKN,M,M,M,3200.00,M,M,M,M,KGAF 011755Z AUTO 28004KT 10SM BKN032 07/00 A3023 RMK AO2
GAF,2017-04-01 18:15,-97.3709,48.4047,44.60,32.00,61.03,0.00,0.00,0.00,30.22,M,10.00,M,OVC,M,M,M,3200.00,M,M,M,M,KGAF 011815Z AUTO 00000KT 10SM OVC032 07/00 A3022 RMK AO2
GAF,2017-04-01 18:35,-97.3709,48.4047,44.60,32.00,61.03,0.00,0.00,0.00,30.21,M,10.00,M,OVC,M,M,M,3100.00,M,M,M,M,KGAF 011835Z AUTO 00000KT 10SM OVC031 07/M00 A3021 RMK AO2
GAF,2017-04-01 18:55,-97.3709,48.4047,46.40,32.00,57.00,150.00,4.00,0.00,30.21,M,10.00,M,OVC,M,M,M,3100.00,M,M,M,M,KGAF 011855Z AUTO 15004KT 10SM OVC031 08/00 A3021 RMK AO2
GAF,2017-04-01 19:15,-97.3709,48.4047,46.40,33.80,61.28,240.00,4.00,0.00,30.21,M,10.00,M,OVC,M,M,M,3200.00,M,M,M,M,KGAF 011915Z AUTO 24004KT 10SM OVC032 08/01 A3021 RMK AO2
GAF,2017-04-01 19:35,-97.3709,48.4047,44.60,33.80,65.61,0.00,0.00,0.00,30.21,M,10.00,M,OVC,M,M,M,3100.00,M,M,M,M,KGAF 011935Z AUTO 00000KT 10SM OVC031 07/01 A3021 RMK AO2
GAF,2017-04-01 19:55,-97.3709,48.4047,46.40,35.60,65.83,M,3.00,0.00,30.20,M,10.00,M,OVC,M,M,M,3100.00,M,M,M,M,KGAF 011955Z AUTO VRB03KT 10SM OVC031 08/02 A3020 RMK AO2
GAF,2017-04-01 20:15,-97.3709,48.4047,46.40,35.60,65.83,0.00,0.00,0.00,30.17,M,10.00,M,BKN,M,M,M,3200.00,M,M,M,M,KGAF 012015Z AUTO 00000KT 10SM BKN032 08/02 A3017 RMK AO2
GAF,2017-04-01 20:35,-97.3709,48.4047,46.40,35.60,65.83,0.00,0.00,0.00,30.16,M,10.00,M,BKN,M,M,M,3200.00,M,M,M,M,KGAF 012035Z AUTO 00000KT 10SM BKN032 08/02 A3016 RMK AO2
GAF,2017-04-01 20:55,-97.3709,48.4047,48.20,37.40,66.05,150.00,6.00,0.00,30.14,M,10.00,M,FEW,M,M,M,3200.00,M,M,M,M,KGAF 012055Z AUTO 15006KT 10SM FEW032 09/03 A3014 RMK AO2
GAF,2017-04-01 21:15,-97.3709,48.4047,48.20,39.20,70.88,170.00,6.00,0.00,30.14,M,10.00,M,CLR,M,M,M,M,M,M,M,M,KGAF 012115Z AUTO 17006KT 10SM CLR 09/04 A3014 RMK AO2
GAF,2017-04-01 21:35,-97.3709,48.4047,48.20,39.20,70.88,140.00,10.00,0.00,30.13,M,10.00,M,CLR,M,M,M,M,M,M,M,M,KGAF 012135Z AUTO 14010KT 10SM CLR 09/04 A3013 RMK AO2
GAF,2017-04-01 21:55,-97.3709,48.4047,48.20,39.20,70.88,130.00,8.00,0.00,30.12,M,10.00,M,FEW,M,M,M,3100.00,M,M,M,M,KGAF 012155Z AUTO 13008KT 10SM FEW031 09/04 A3012 RMK AO2
GAF,2017-04-01 22:15,-97.3709,48.4047,48.20,39.20,70.88,150.00,8.00,0.00,30.11,M,10.00,M,BKN,M,M,M,3100.00,M,M,M,M,KGAF 012215Z AUTO 15008KT 10SM BKN031 09/04 A3011 RMK AO2
GAF,2017-04-01 22:35,-97.3709,48.4047,48.20,41.00,76.01,140.00,7.00,0.00,30.10,M,10.00,M,FEW,M,M,M,3200.00,M,M,M,M,KGAF 012235Z AUTO 14007KT 10SM FEW032 09/05 A3010 RMK AO2
GAF,2017-04-01 22:55,-97.3709,48.4047,48.20,41.00,76.01,160.00,8.00,0.00,30.10,M,10.00,M,CLR,M,M,M,M,M,M,M,M,KGAF 012255Z AUTO 16008KT 10SM CLR 09/05 A3010 RMK AO2
GAF,2017-04-01 23:15,-97.3709,48.4047,48.20,41.00,76.01,150.00,10.00,0.00,30.09,M,10.00,M,CLR,M,M,M,M,M,M,M,M,KGAF 012315Z AUTO 15010KT 10SM CLR 09/05 A3009 RMK AO2
GAF,2017-04-01 23:35,-97.3709,48.4047,50.00,42.80,76.18,140.00,10.00,0.00,30.09,M,10.00,M,FEW,M,M,M,2400.00,M,M,M,M,KGAF 012335Z AUTO 14010KT 10SM FEW024 10/06 A3009 RMK AO2
GAF,2017-04-01 23:55,-97.3709,48.4047,48.20,42.80,81.47,140.00,10.00,0.00,30.08,M,10.00,M,FEW,M,M,M,2400.00,M,M,M,M,KGAF 012355Z AUTO 14010KT 10SM FEW024 09/06 A3008 RMK AO2
