#DEBUG: Format Typ    -> comma
#DEBUG: Time Period   -> 2017-04-01 00:00:00+00:00 2017-04-02 00:00:00+00:00
#DEBUG: Time Zone     -> Etc/UTC
#DEBUG: Data Contact   -> daryl herzmann akrherz@iastate.edu 515-294-5978
#DEBUG: Entries Found -> -1
station,valid,lon,lat,tmpf, dwpf, relh, drct, sknt, p01i, alti, mslp, vsby, gust, skyc1, skyc2, skyc3, skyc4, skyl1, skyl2, skyl3, skyl4, presentwx, metar
GFK,2017-04-01 00:00,-97.1761,47.9492,M,M,M,340.00,13.00,M,30.12,M,10.00,M,OVC,M,M,M,900.00,M,M,M,M,KGFK 010000Z AUTO 34013KT 10SM OVC009 A3012 RMK MADISHF
GFK,2017-04-01 00:04,-97.1761,47.9492,46.90,44.10,89.92,350.00,15.00,0.00,30.12,M,10.00,M,OVC,M,M,M,900.00,M,M,M,M,KGFK 010004Z 35015KT 10SM OVC009 08/07 A3012 RMK AO2 T00830067
GFK,2017-04-01 00:05,-97.1761,47.9492,M,M,M,360.00,14.00,M,30.12,M,10.00,M,OVC,M,M,M,900.00,M,M,M,M,KGFK 010005Z AUTO 36014KT 10SM OVC009 A3012 RMK MADISHF
GFK,2017-04-01 00:10,-97.1761,47.9492,M,M,M,360.00,13.00,M,30.12,M,10.00,M,OVC,M,M,M,800.00,M,M,M,M,KGFK 010010Z AUTO 36013KT 10SM OVC008 A3012 RMK MADISHF
GFK,2017-04-01 00:15,-97.1761,47.9492,M,M,M,360.00,13.00,M,30.12,M,10.00,M,OVC,M,M,M,800.00,M,M,M,M,KGFK 010015Z AUTO 36013KT 10SM OVC008 A3012 RMK MADISHF
GFK,2017-04-01 00:20,-97.1761,47.9492,M,M,M,360.00,13.00,M,30.12,M,10.00,M,OVC,M,M,M,800.00,M,M,M,M,KGFK 010020Z AUTO 36013KT 10SM OVC008 A3012 RMK MADISHF
GFK,2017-04-01 00:25,-97.1761,47.9492,M,M,M,350.00,12.00,M,30.12,M,10.00,M,OVC,M,M,M,700.00,M,M,M,M,KGFK 010025Z AUTO 35012KT 10SM OVC007 A3012 RMK MADISHF
GFK,2017-04-01 00:30,-97.1761,47.9492,M,M,M,360.00,13.00,M,30.12,M,10.00,M,OVC,M,M,M,700.00,M,M,M,M,KGFK 010030Z AUTO 36013KT 10SM OVC007 A3012 RMK MADISHF
GFK,2017-04-01 00:35,-97.1761,47.9492,M,M,M,350.00,12.00,M,30.12,M,10.00,M,OVC,M,M,M,700.00,M,M,M,M,KGFK 010035Z AUTO 35012KT 10SM OVC007 A3012 RMK MADISHF
GFK,2017-04-01 00:40,-97.1761,47.9492,M,M,M,350.00,12.00,M,30.12,M,10.00,M,OVC,M,M,M,700.00,M,M,M,M,KGFK 010040Z AUTO 35012KT 10SM OVC007 A3012 RMK MADISHF
GFK,2017-04-01 00:45,-97.1761,47.9492,M,M,M,350.00,13.00,M,30.13,M,10.00,M,OVC,M,M,M,700.00,M,M,M,M,KGFK 010045Z AUTO 35013KT 10SM OVC007 A3013 RMK MADISHF
GFK,2017-04-01 00:50,-97.1761,47.9492,M,M,M,350.00,13.00,M,30.13,M,10.00,M,OVC,M,M,M,700.00,M,M,M,M,KGFK 010050Z AUTO 35013KT 10SM OVC007 A3013 RMK MADISHF
GFK,2017-04-01 00:53,-97.1761,47.9492,46.00,44.10,93.03,350.00,12.00,0.00,30.13,1021.10,10.00,M,OVC,M,M,M,700.00,M,M,M,M,KGFK 010053Z 35012KT 10SM OVC007 08/07 A3013 RMK AO2 SLP211 T00780067
GFK,2017-04-01 00:55,-97.1761,47.9492,M,M,M,340.00,10.00,M,30.13,M,10.00,M,OVC,M,M,M,700.00,M,M,M,M,KGFK 010055Z AUTO 34010KT 10SM OVC007 A3013 RMK MADISHF
GFK,2017-04-01 01:00,-97.1761,47.9492,M,M,M,350.00,11.00,M,30.13,M,10.00,M,OVC,M,M,M,700.00,M,M,M,M,KGFK 010100Z AUTO 35011KT 10SM OVC007 A3013 RMK MADISHF
GFK,2017-04-01 01:05,-97.1761,47.9492,M,M,M,350.00,10.00,M,30.13,M,10.00,M,OVC,M,M,M,700.00,M,M,M,M,KGFK 010105Z AUTO 35010KT 10SM OVC007 A3013 RMK MADISHF
GFK,2017-04-01 01:10,-97.1761,47.9492,M,M,M,360.00,11.00,M,30.13,M,10.00,M,OVC,M,M,M,700.00,M,M,M,M,KGFK 010110Z AUTO 36011KT 10SM OVC007 A3013 RMK MADISHF
GFK,2017-04-01 01:15,-97.1761,47.9492,M,M,M,360.00,12.00,M,30.13,M,10.00,M,OVC,M,M,M,700.00,M,M,M,M,KGFK 010115Z AUTO 36012KT 10SM OVC007 A3013 RMK MADISHF
GFK,2017-04-01 01:20,-97.1761,47.9492,M,M,M,350.00,10.00,M,30.13,M,10.00,M,OVC,M,M,M,700.00,M,M,M,M,KGFK 010120Z AUTO 35010KT 10SM OVC007 A3013 RMK MADISHF
GFK,2017-04-01 01:25,-97.1761,47.9492,M,M,M,350.00,10.00,M,30.13,M,10.00,M,OVC,M,M,M,700.00,M,M,M,M,KGFK 010125Z AUTO 35010KT 10SM OVC007 A3013 RMK MADISHF
GFK,2017-04-01 01:30,-97.1761,47.9492,M,M,M,340.00,11.00,M,30.14,M,10.00,M,OVC,M,M,M,700.00,M,M,M,M,KGFK 010130Z AUTO 34011KT 10SM OVC007 A3014 RMK MADISHF
GFK,2017-04-01 01:35,-97.1761,47.9492,M,M,M,340.00,10.00,M,30.14,M,10.00,M,OVC,M,M,M,700.00,M,M,M,M,KGFK 010135Z AUTO 34010KT 10SM OVC007 A3014 RMK MADISHF
GFK,2017-04-01 01:40,-97.1761,47.9492,M,M,M,340.00,10.00,M,30.14,M,10.00,M,OVC,M,M,M,700.00,M,M,M,M,KGFK 010140Z AUTO 34010KT 10SM OVC007 A3014 RMK MADISHF
GFK,2017-04-01 01:45,-97.1761,47.9492,M,M,M,340.00,9.00,M,30.14,M,10.00,M,OVC,M,M,M,700.00,M,M,M,M,KGFK 010145Z AUTO 34009KT 10SM OVC007 A3014 RMK MADISHF
GFK,2017-04-01 01:50,-97.1761,47.9492,M,M,M,350.00,11.00,M,30.14,M,10.00,M,OVC,M,M,M,600.00,M,M,M,M,KGFK 010150Z AUTO 35011KT 10SM OVC006 A3014 RMK MADISHF
GFK,2017-04-01 01:53,-97.1761,47.9492,45.00,44.10,96.63,340.00,11.00,0.00,30.14,1021.50,10.00,M,OVC,M,M,M,600.00,M,M,M,M,KGFK 010153Z 34011KT 10SM OVC006 07/07 A3014 RMK AO2 SLP215 T00720067
GFK,2017-04-01 01:55,-97.1761,47.9492,M,M,M,330.00,11.00,M,30.14,M,10.00,M,OVC,M,M,M,600.00,M,M,M,M,KGFK 010155Z AUTO 33011KT 10SM OVC006 A3014 RMK MADISHF
GFK,2017-04-01 02:00,-97.1761,47.9492,M,M,M,340.00,11.00,M,30.14,M,10.00,M,OVC,M,M,M,600.00,M,M,M,M,KGFK 010200Z AUTO 34011KT 10SM OVC006 A3014 RMK MADISHF
GFK,2017-04-01 02:05,-97.1761,47.9492,M,M,M,340.00,10.00,M,30.15,M,10.00,M,OVC,M,M,M,600.00,M,M,M,M,KGFK 010205Z AUTO 34010KT 10SM OVC006 A3015 RMK MADISHF
GFK,2017-04-01 02:10,-97.1761,47.9492,M,M,M,340.00,11.00,M,30.15,M,10.00,M,OVC,M,M,M,600.00,M,M,M,M,KGFK 010210Z AUTO 34011KT 10SM OVC006 A3015 RMK MADISHF
GFK,2017-04-01 02:15,-97.1761,47.9492,M,M,M,340.00,13.00,M,30.15,M,10.00,M,OVC,M,M,M,600.00,M,M,M,M,KGFK 010215Z AUTO 34013KT 10SM OVC006 A3015 RMK MADISHF
GFK,2017-04-01 02:20,-97.1761,47.9492,M,M,M,340.00,12.00,M,30.15,M,10.00,M,OVC,M,M,M,600.00,M,M,M,M,KGFK 010220Z AUTO 34012KT 10SM OVC006 A3015 RMK MADISHF
GFK,2017-04-01 02:25,-97.1761,47.9492,M,M,M,350.00,12.00,M,30.15,M,9.00,M,OVC,M,M,M,600.00,M,M,M,M,KGFK 010225Z AUTO 35012KT 9SM OVC006 A3015 RMK MADISHF
GFK,2017-04-01 02:30,-97.1761,47.9492,M,M,M,330.00,11.00,M,30.15,M,8.00,M,OVC,M,M,M,499.00,M,M,M,M,KGFK 010230Z AUTO 33011KT 8SM OVC004 A3015 RMK MADISHF
GFK,2017-04-01 02:35,-97.1761,47.9492,M,M,M,340.00,12.00,M,30.16,M,7.00,M,OVC,M,M,M,499.00,M,M,M,M,KGFK 010235Z AUTO 34012KT 7SM OVC004 A3016 RMK MADISHF
GFK,2017-04-01 02:40,-97.1761,47.9492,M,M,M,340.00,10.00,M,30.16,M,7.00,M,OVC,M,M,M,400.00,M,M,M,M,KGFK 010240Z AUTO 34010KT 7SM OVC004 A3016 RMK MADISHF
GFK,2017-04-01 02:42,-97.1761,47.9492,44.10,43.00,95.88,340.00,12.00,0.00,30.16,M,7.00,M,OVC,M,M,M,400.00,M,M,M,M,KGFK 010242Z 34012KT 7SM OVC004 07/06 A3016 RMK AO2 T00670061
GFK,2017-04-01 02:45,-97.1761,47.9492,M,M,M,330.00,11.00,M,30.16,M,8.00,M,OVC,M,M,M,400.00,M,M,M,M,KGFK 010245Z AUTO 33011KT 8SM OVC004 A3016 RMK MADISHF
GFK,2017-04-01 02:50,-97.1761,47.9492,M,M,M,330.00,12.00,M,30.16,M,8.00,M,OVC,M,M,M,400.00,M,M,M,M,KGFK 010250Z AUTO 33012KT 8SM OVC004 A3016 RMK MADISHF
GFK,2017-04-01 02:53,-97.1761,47.9492,44.10,43.00,95.88,340.00,11.00,0.00,30.16,1022.20,9.00,M,OVC,M,M,M,400.00,M,M,M,M,KGFK 010253Z 34011KT 9SM OVC004 07/06 A3016 RMK AO2 SLP222 T00670061 53017
GFK,2017-04-01 02:55,-97.1761,47.9492,M,M,M,340.00,11.00,M,30.16,M,9.00,M,OVC,M,M,M,400.00,M,M,M,M,KGFK 010255Z AUTO 34011KT 9SM OVC004 A3016 RMK MADISHF
GFK,2017-04-01 03:00,-97.1761,47.9492,M,M,M,340.00,10.00,M,30.17,M,9.00,M,OVC,M,M,M,400.00,M,M,M,M,KGFK 010300Z AUTO 34010KT 9SM OVC004 A3017 RMK MADISHF
GFK,2017-04-01 03:05,-97.1761,47.9492,M,M,M,330.00,12.00,M,30.17,M,9.00,M,OVC,M,M,M,400.00,M,M,M,M,KGFK 010305Z AUTO 33012KT 9SM OVC004 A3017 RMK MADISHF
GFK,2017-04-01 03:10,-97.1761,47.9492,M,M,M,330.00,12.00,M,30.17,M,9.00,M,OVC,M,M,M,400.00,M,M,M,M,KGFK 010310Z AUTO 33012KT 9SM OVC004 A3017 RMK MADISHF
GFK,2017-04-01 03:15,-97.1761,47.9492,M,M,M,350.00,12.00,M,30.17,M,10.00,M,OVC,M,M,M,400.00,M,M,M,M,KGFK 010315Z AUTO 35012KT 10SM OVC004 A3017 RMK CIG 4V8  MADISHF
GFK,2017-04-01 03:20,-97.1761,47.9492,M,M,M,350.00,12.00,M,30.17,M,10.00,M,OVC,M,M,M,600.00,M,M,M,M,KGFK 010320Z AUTO 35012KT 10SM OVC006 A3017 RMK CIG 4V8  MADISHF
GFK,2017-04-01 03:22,-97.1761,47.9492,43.00,42.10,96.60,350.00,12.00,0.00,30.17,M,10.00,M,OVC,M,M,M,600.00,M,M,M,M,KGFK 010322Z 35012KT 10SM OVC006 06/06 A3017 RMK AO2 CIG 004V008 T00610056
GFK,2017-04-01 03:25,-97.1761,47.9492,M,M,M,350.00,10.00,M,30.17,M,10.00,M,OVC,M,M,M,600.00,M,M,M,M,KGFK 010325Z AUTO 35010KT 10SM OVC006 A3017 RMK CIG 4V8  MADISHF
GFK,2017-04-01 03:30,-97.1761,47.9492,M,M,M,340.00,9.00,M,30.17,M,10.00,M,OVC,M,M,M,600.00,M,M,M,M,KGFK 010330Z AUTO 34009KT 10SM OVC006 A3017 RMK CIG 4V8  MADISHF
GFK,2017-04-01 03:35,-97.1761,47.9492,M,M,M,340.00,10.00,M,30.17,M,10.00,M,OVC,M,M,M,600.00,M,M,M,M,KGFK 010335Z AUTO 34010KT 10SM OVC006 A3017 RMK MADISHF
GFK,2017-04-01 03:40,-97.1761,47.9492,M,M,M,340.00,11.00,M,30.18,M,10.00,M,OVC,M,M,M,700.00,M,M,M,M,KGFK 010340Z AUTO 34011KT 10SM OVC007 A3018 RMK MADISHF
GFK,2017-04-01 03:45,-97.1761,47.9492,M,M,M,340.00,10.00,M,30.18,M,10.00,M,OVC,M,M,M,700.00,M,M,M,M,KGFK 010345Z AUTO 34010KT 10SM OVC007 A3018 RMK MADISHF
GFK,2017-04-01 03:50,-97.1761,47.9492,M,M,M,340.00,10.00,M,30.18,M,10.00,M,OVC,M,M,M,700.00,M,M,M,M,KGFK 010350Z AUTO 34010KT 10SM OVC007 A3018 RMK MADISHF
GFK,2017-04-01 03:53,-97.1761,47.9492,43.00,42.10,96.60,340.00,9.00,0.00,30.18,1022.70,10.00,M,OVC,M,M,M,700.00,M,M,M,M,KGFK 010353Z 34009KT 10SM OVC007 06/06 A3018 RMK AO2 SLP227 T00610056
GFK,2017-04-01 03:55,-97.1761,47.9492,M,M,M,340.00,9.00,M,30.18,M,10.00,M,OVC,M,M,M,700.00,M,M,M,M,KGFK 010355Z AUTO 34009KT 10SM OVC007 A3018 RMK MADISHF
GFK,2017-04-01 04:00,-97.1761,47.9492,M,M,M,330.00,7.00,M,30.18,M,10.00,M,OVC,M,M,M,700.00,M,M,M,M,KGFK 010400Z AUTO 33007KT 10SM OVC007 A3018 RMK MADISHF
GFK,2017-04-01 04:05,-97.1761,47.9492,M,M,M,330.00,6.00,M,30.18,M,10.00,M,OVC,M,M,M,700.00,M,M,M,M,KGFK 010405Z AUTO 33006KT 10SM OVC007 A3018 RMK MADISHF
GFK,2017-04-01 04:10,-97.1761,47.9492,M,M,M,330.00,6.00,M,30.18,M,10.00,M,OVC,M,M,M,700.00,M,M,M,M,KGFK 010410Z AUTO 33006KT 10SM OVC007 A3018 RMK MADISHF
GFK,2017-04-01 04:15,-97.1761,47.9492,M,M,M,330.00,6.00,M,30.18,M,10.00,M,OVC,M,M,M,700.00,M,M,M,-RA,KGFK 010415Z AUTO 33006KT 10SM -RA OVC007 A3018 RMK MADISHF
GFK,2017-04-01 04:20,-97.1761,47.9492,M,M,M,340.00,9.00,M,30.18,M,10.00,M,OVC,M,M,M,700.00,M,M,M,-RA,KGFK 010420Z AUTO 34009KT 10SM -RA OVC007 A3018 RMK MADISHF
GFK,2017-04-01 04:25,-97.1761,47.9492,M,M,M,340.00,9.00,M,30.19,M,10.00,M,OVC,M,M,M,700.00,M,M,M,-RA,KGFK 010425Z AUTO 34009KT 10SM -RA OVC007 A3019 RMK MADISHF
GFK,2017-04-01 04:30,-97.1761,47.9492,M,M,M,340.00,9.00,M,30.19,M,10.00,M,OVC,M,M,M,700.00,M,M,M,-RA,KGFK 010430Z AUTO 34009KT 10SM -RA OVC007 A3019 RMK  LAST MADISHF
GFK,2017-04-01 04:31,-97.1761,47.9492,42.10,41.00,95.84,350.00,9.00,0.00,30.19,M,10.00,M,OVC,M,M,M,700.00,M,M,M,-RA,KGFK 010431Z 35009KT 10SM -RA OVC007 06/05 A3019 RMK AO2 RAB14 LAST P0000 T00560050
GFK,2017-04-01 04:35,-97.1761,47.9492,M,M,M,340.00,8.00,M,30.19,M,10.00,M,OVC,M,M,M,700.00,M,M,M,-RA,KGFK 010435Z AUTO 34008KT 10SM -RA OVC007 A3019 RMK MADISHF
GFK,2017-04-01 04:40,-97.1761,47.9492,M,M,M,330.00,6.00,M,30.19,M,10.00,M,OVC,M,M,M,800.00,M,M,M,-RA,KGFK 010440Z AUTO 33006KT 10SM -RA OVC008 A3019 RMK MADISHF
GFK,2017-04-01 04:45,-97.1761,47.9492,M,M,M,330.00,6.00,M,30.19,M,9.00,M,OVC,M,M,M,800.00,M,M,M,-RA,KGFK 010445Z AUTO 33006KT 9SM -RA OVC008 A3019 RMK MADISHF
GFK,2017-04-01 04:50,-97.1761,47.9492,M,M,M,320.00,7.00,M,30.19,M,7.00,M,OVC,M,M,M,800.00,M,M,M,-RA,KGFK 010450Z AUTO 32007KT 7SM -RA OVC008 A3019 RMK MADISHF
GFK,2017-04-01 04:53,-97.1761,47.9492,42.10,41.00,95.84,320.00,8.00,0.00,30.19,1023.00,7.00,M,OVC,M,M,M,800.00,M,M,M,-RA,KGFK 010453Z AUTO 32008KT 7SM -RA OVC008 06/05 A3019 RMK AO2 RAB14 SLP230 P0000 T00560050
GFK,2017-04-01 04:55,-97.1761,47.9492,M,M,M,320.00,8.00,M,30.19,M,7.00,M,OVC,M,M,M,800.00,M,M,M,-RA,KGFK 010455Z AUTO 32008KT 7SM -RA OVC008 A3019 RMK MADISHF
GFK,2017-04-01 05:00,-97.1761,47.9492,M,M,M,320.00,9.00,0.01,30.19,M,7.00,M,OVC,M,M,M,800.00,M,M,M,-RA,KGFK 010500Z AUTO 32009KT 7SM -RA OVC008 A3019 RMK P0001 MADISHF
GFK,2017-04-01 05:05,-97.1761,47.9492,M,M,M,320.00,9.00,0.01,30.19,M,7.00,M,OVC,M,M,M,800.00,M,M,M,-RA,KGFK 010505Z AUTO 32009KT 7SM -RA OVC008 A3019 RMK P0001 MADISHF
GFK,2017-04-01 05:10,-97.1761,47.9492,M,M,M,320.00,8.00,0.02,30.19,M,7.00,M,OVC,M,M,M,800.00,M,M,M,-RA,KGFK 010510Z AUTO 32008KT 7SM -RA OVC008 A3019 RMK P0002 MADISHF
GFK,2017-04-01 05:15,-97.1761,47.9492,M,M,M,320.00,8.00,0.02,30.19,M,8.00,M,OVC,M,M,M,800.00,M,M,M,-RA,KGFK 010515Z AUTO 32008KT 8SM -RA OVC008 A3019 RMK P0002 MADISHF
GFK,2017-04-01 05:20,-97.1761,47.9492,M,M,M,330.00,7.00,0.03,30.19,M,8.00,M,OVC,M,M,M,800.00,M,M,M,-RA,KGFK 010520Z AUTO 33007KT 8SM -RA OVC008 A3019 RMK P0003 MADISHF
GFK,2017-04-01 05:25,-97.1761,47.9492,M,M,M,320.00,7.00,0.03,30.19,M,7.00,M,OVC,M,M,M,800.00,M,M,M,-RA,KGFK 010525Z AUTO 32007KT 7SM -RA OVC008 A3019 RMK P0003 MADISHF
GFK,2017-04-01 05:30,-97.1761,47.9492,M,M,M,330.00,7.00,0.03,30.19,M,7.00,M,OVC,M,M,M,800.00,M,M,M,-RA,KGFK 010530Z AUTO 33007KT 7SM -RA OVC008 A3019 RMK P0003 MADISHF
GFK,2017-04-01 05:35,-97.1761,47.9492,M,M,M,320.00,6.00,0.04,30.19,M,7.00,M,BKN,OVC,M,M,800.00,2900.00,M,M,-RA,KGFK 010535Z AUTO 32006KT 7SM -RA BKN008 OVC029 A3019 RMK P0004 MADISHF
GFK,2017-04-01 05:40,-97.1761,47.9492,M,M,M,320.00,6.00,0.04,30.19,M,7.00,M,BKN,OVC,M,M,900.00,2900.00,M,M,-RA,KGFK 010540Z AUTO 32006KT 7SM -RA BKN009 OVC029 A3019 RMK P0004 CIG 7V11  MADISHF
GFK,2017-04-01 05:45,-97.1761,47.9492,M,M,M,330.00,7.00,0.05,30.19,M,7.00,M,BKN,OVC,M,M,900.00,2900.00,M,M,-RA,KGFK 010545Z AUTO 33007KT 7SM -RA BKN009 OVC029 A3019 RMK P0005 CIG 7V12  MADISHF
GFK,2017-04-01 05:50,-97.1761,47.9492,M,M,M,330.00,6.00,0.05,30.19,M,6.00,M,BKN,OVC,M,M,900.00,2900.00,M,M,-RA BR,KGFK 010550Z AUTO 33006KT 6SM -RA BR BKN009 OVC029 A3019 RMK P0005 MADISHF
GFK,2017-04-01 05:53,-97.1761,47.9492,41.00,41.00,100.00,330.00,6.00,0.05,30.19,1023.10,6.00,M,BKN,BKN,OVC,M,900.00,2900.00,3500.00,M,-RA BR,KGFK 010553Z AUTO 33006KT 6SM -RA BR BKN009 BKN029 OVC035 05/05 A3019 RMK AO2 SLP231 P0005 60005 T00500050 10089 20050 401560017 51010
GFK,2017-04-01 05:55,-97.1761,47.9492,M,M,M,330.00,6.00,M,30.20,M,7.00,M,BKN,BKN,OVC,M,900.00,2900.00,3500.00,M,-RA,KGFK 010555Z AUTO 33006KT 7SM -RA BKN009 BKN029 OVC035 A3020 RMK MADISHF
GFK,2017-04-01 06:00,-97.1761,47.9492,M,M,M,330.00,6.00,0.01,30.19,M,8.00,M,BKN,BKN,OVC,M,700.00,1100.00,2900.00,M,-RA,KGFK 010600Z AUTO 33006KT 8SM -RA BKN007 BKN011 OVC029 A3019 RMK P0001 MADISHF
GFK,2017-04-01 06:05,-97.1761,47.9492,M,M,M,330.00,6.00,0.01,30.19,M,9.00,M,BKN,BKN,OVC,M,700.00,1300.00,2900.00,M,-RA,KGFK 010605Z AUTO 33006KT 9SM -RA BKN007 BKN013 OVC029 A3019 RMK P0001 MADISHF
GFK,2017-04-01 06:10,-97.1761,47.9492,M,M,M,330.00,6.00,0.01,30.19,M,9.00,M,BKN,BKN,OVC,M,700.00,1300.00,3200.00,M,-RA,KGFK 010610Z AUTO 33006KT 9SM -RA BKN007 BKN013 OVC032 A3019 RMK P0001 MADISHF
GFK,2017-04-01 06:15,-97.1761,47.9492,M,M,M,330.00,6.00,0.01,30.20,M,9.00,M,BKN,BKN,OVC,M,700.00,1300.00,4400.00,M,-RA,KGFK 010615Z AUTO 33006KT 9SM -RA BKN007 BKN013 OVC044 A3020 RMK P0001 MADISHF
GFK,2017-04-01 06:20,-97.1761,47.9492,M,M,M,330.00,6.00,0.01,30.19,M,10.00,M,BKN,BKN,OVC,M,700.00,1300.00,4700.00,M,-RA,KGFK 010620Z AUTO 33006KT 10SM -RA BKN007 BKN013 OVC047 A3019 RMK P0001 MADISHF
GFK,2017-04-01 06:25,-97.1761,47.9492,M,M,M,340.00,7.00,0.01,30.20,M,9.00,M,SCT,BKN,OVC,M,700.00,1200.00,4200.00,M,-RA,KGFK 010625Z AUTO 34007KT 9SM -RA SCT007 BKN012 OVC042 A3020 RMK P0001 MADISHF
GFK,2017-04-01 06:27,-97.1761,47.9492,41.00,41.00,100.00,340.00,6.00,0.02,30.20,M,8.00,M,SCT,BKN,OVC,M,700.00,1200.00,4200.00,M,-RA,KGFK 010627Z AUTO 34006KT 8SM -RA SCT007 BKN012 OVC042 05/05 A3020 RMK AO2 P0002 T00500050
GFK,2017-04-01 06:30,-97.1761,47.9492,M,M,M,340.00,6.00,0.02,30.19,M,8.00,M,SCT,BKN,OVC,M,700.00,2200.00,4400.00,M,-RA,KGFK 010630Z AUTO 34006KT 8SM -RA SCT007 BKN022 OVC044 A3019 RMK P0002 MADISHF
GFK,2017-04-01 06:34,-97.1761,47.9492,41.00,41.00,100.00,340.00,5.00,0.00,30.19,M,8.00,M,SCT,BKN,OVC,M,700.00,2200.00,4400.00,M,-RA,KGFK 010634Z AUTO 34005KT 8SM -RA SCT007 BKN022 OVC044 05/05 A3019
GFK,2017-04-01 06:35,-97.1761,47.9492,M,M,M,340.00,5.00,0.02,30.19,M,8.00,M,SCT,BKN,OVC,M,700.00,2200.00,4400.00,M,-RA,KGFK 010635Z AUTO 34005KT 8SM -RA SCT007 BKN022 OVC044 A3019 RMK P0002 MADISHF
GFK,2017-04-01 06:40,-97.1761,47.9492,M,M,M,340.00,6.00,0.02,30.19,M,10.00,M,FEW,BKN,OVC,M,700.00,3700.00,4500.00,M,-RA,KGFK 010640Z AUTO 34006KT 10SM -RA FEW007 BKN037 OVC045 A3019 RMK P0002 MADISHF
GFK,2017-04-01 06:43,-97.1761,47.9492,41.00,39.90,95.82,340.00,5.00,0.02,30.19,M,10.00,M,FEW,BKN,OVC,M,700.00,3700.00,6500.00,M,-RA,KGFK 010643Z AUTO 34005KT 10SM -RA FEW007 BKN037 OVC065 05/04 A3019 RMK AO2 P0002 T00500044
GFK,2017-04-01 06:45,-97.1761,47.9492,M,M,M,340.00,7.00,0.02,30.19,M,10.00,M,FEW,BKN,OVC,M,700.00,3700.00,6500.00,M,-RA,KGFK 010645Z AUTO 34007KT 10SM -RA FEW007 BKN037 OVC065 A3019 RMK P0002 MADISHF
GFK,2017-04-01 06:50,-97.1761,47.9492,M,M,M,330.00,7.00,0.02,30.20,M,10.00,M,FEW,BKN,OVC,M,700.00,3700.00,6500.00,M,-RA,KGFK 010650Z AUTO 33007KT 10SM -RA FEW007 BKN037 OVC065 A3020 RMK P0002 MADISHF
GFK,2017-04-01 06:53,-97.1761,47.9492,41.00,39.90,95.82,330.00,6.00,0.02,30.20,1023.10,10.00,M,FEW,BKN,OVC,M,700.00,3500.00,6500.00,M,-RA,KGFK 010653Z AUTO 33006KT 10SM -RA FEW007 BKN035 OVC065 05/04 A3020 RMK AO2 SLP231 P0002 T00500044
GFK,2017-04-01 06:55,-97.1761,47.9492,M,M,M,330.00,5.00,M,30.20,M,10.00,M,FEW,BKN,OVC,M,700.00,3500.00,6500.00,M,-RA,KGFK 010655Z AUTO 33005KT 10SM -RA FEW007 BKN035 OVC065 A3020 RMK MADISHF
GFK,2017-04-01 07:00,-97.1761,47.9492,M,M,M,340.00,5.00,M,30.20,M,10.00,M,BKN,OVC,M,M,3500.00,6500.00,M,M,-RA,KGFK 010700Z AUTO 34005KT 10SM -RA BKN035 OVC065 A3020 RMK MADISHF
GFK,2017-04-01 07:05,-97.1761,47.9492,M,M,M,340.00,6.00,M,30.20,M,10.00,M,BKN,OVC,M,M,3300.00,6500.00,M,M,-RA,KGFK 010705Z AUTO 34006KT 10SM -RA BKN033 OVC065 A3020 RMK MADISHF
GFK,2017-04-01 07:10,-97.1761,47.9492,M,M,M,350.00,6.00,M,30.20,M,10.00,M,OVC,M,M,M,3300.00,M,M,M,-RA,KGFK 010710Z AUTO 35006KT 10SM -RA OVC033 A3020 RMK MADISHF
GFK,2017-04-01 07:15,-97.1761,47.9492,M,M,M,340.00,7.00,M,30.20,M,10.00,M,FEW,OVC,M,M,600.00,3300.00,M,M,-RA,KGFK 010715Z AUTO 34007KT 10SM -RA FEW006 OVC033 A3020 RMK MADISHF
GFK,2017-04-01 07:20,-97.1761,47.9492,M,M,M,340.00,9.00,M,30.20,M,10.00,M,SCT,OVC,M,M,600.00,3100.00,M,M,M,KGFK 010720Z AUTO 34009KT 10SM SCT006 OVC031 A3020 RMK MADISHF
GFK,2017-04-01 07:25,-97.1761,47.9492,M,M,M,330.00,11.00,M,30.20,M,10.00,M,BKN,OVC,M,M,600.00,3100.00,M,M,M,KGFK 010725Z AUTO 33011KT 10SM BKN006 OVC031 A3020 RMK MADISHF
GFK,2017-04-01 07:30,-97.1761,47.9492,41.00,39.90,95.82,330.00,10.00,0.00,30.20,M,10.00,M,BKN,OVC,M,M,600.00,3100.00,M,M,M,KGFK 010730Z AUTO 33010KT 10SM BKN006 OVC031 05/04 A3020 RMK AO2 RAE20 P0000 T00500044
GFK,2017-04-01 07:35,-97.1761,47.9492,M,M,M,340.00,10.00,M,30.20,M,10.00,M,BKN,OVC,M,M,600.00,3100.00,M,M,M,KGFK 010735Z AUTO 34010KT 10SM BKN006 OVC031 A3020 RMK MADISHF
GFK,2017-04-01 07:40,-97.1761,47.9492,M,M,M,350.00,8.00,M,30.20,M,10.00,M,BKN,OVC,M,M,600.00,3100.00,M,M,M,KGFK 010740Z AUTO 35008KT 10SM BKN006 OVC031 A3020 RMK MADISHF
GFK,2017-04-01 07:45,-97.1761,47.9492,M,M,M,340.00,9.00,M,30.20,M,10.00,M,BKN,OVC,M,M,600.00,3000.00,M,M,M,KGFK 010745Z AUTO 34009KT 10SM BKN006 OVC030 A3020 RMK MADISHF
GFK,2017-04-01 07:50,-97.1761,47.9492,M,M,M,340.00,9.00,M,30.20,M,10.00,M,OVC,M,M,M,600.00,M,M,M,M,KGFK 010750Z AUTO 34009KT 10SM OVC006 A3020 RMK MADISHF
GFK,2017-04-01 07:53,-97.1761,47.9492,41.00,39.90,95.82,350.00,9.00,0.00,30.20,1023.40,10.00,M,OVC,M,M,M,600.00,M,M,M,M,KGFK 010753Z AUTO 35009KT 10SM OVC006 05/04 A3020 RMK AO2 RAE20 SLP234 P0000 T00500044
GFK,2017-04-01 07:55,-97.1761,47.9492,M,M,M,350.00,10.00,M,30.20,M,10.00,M,OVC,M,M,M,600.00,M,M,M,M,KGFK 010755Z AUTO 35010KT 10SM OVC006 A3020 RMK MADISHF
GFK,2017-04-01 08:00,-97.1761,47.9492,M,M,M,350.00,10.00,M,30.20,M,10.00,M,OVC,M,M,M,600.00,M,M,M,M,KGFK 010800Z AUTO 35010KT 10SM OVC006 A3020 RMK MADISHF
GFK,2017-04-01 08:05,-97.1761,47.9492,M,M,M,340.00,9.00,M,30.20,M,10.00,M,OVC,M,M,M,600.00,M,M,M,M,KGFK 010805Z AUTO 34009KT 10SM OVC006 A3020 RMK MADISHF
GFK,2017-04-01 08:10,-97.1761,47.9492,M,M,M,340.00,7.00,M,30.21,M,10.00,M,OVC,M,M,M,600.00,M,M,M,M,KGFK 010810Z AUTO 34007KT 10SM OVC006 A3021 RMK MADISHF
GFK,2017-04-01 08:15,-97.1761,47.9492,M,M,M,330.00,8.00,M,30.21,M,10.00,M,OVC,M,M,M,600.00,M,M,M,M,KGFK 010815Z AUTO 33008KT 10SM OVC006 A3021 RMK MADISHF
GFK,2017-04-01 08:20,-97.1761,47.9492,M,M,M,330.00,9.00,M,30.21,M,10.00,M,OVC,M,M,M,600.00,M,M,M,M,KGFK 010820Z AUTO 33009KT 10SM OVC006 A3021 RMK MADISHF
GFK,2017-04-01 08:25,-97.1761,47.9492,M,M,M,330.00,8.00,M,30.21,M,10.00,M,OVC,M,M,M,600.00,M,M,M,M,KGFK 010825Z AUTO 33008KT 10SM OVC006 A3021 RMK MADISHF
GFK,2017-04-01 08:30,-97.1761,47.9492,M,M,M,330.00,9.00,M,30.21,M,10.00,M,OVC,M,M,M,600.00,M,M,M,M,KGFK 010830Z AUTO 33009KT 10SM OVC006 A3021 RMK MADISHF
GFK,2017-04-01 08:35,-97.1761,47.9492,M,M,M,330.00,8.00,M,30.21,M,10.00,M,OVC,M,M,M,600.00,M,M,M,M,KGFK 010835Z AUTO 33008KT 10SM OVC006 A3021 RMK MADISHF
GFK,2017-04-01 08:40,-97.1761,47.9492,M,M,M,330.00,7.00,M,30.21,M,10.00,M,BKN,OVC,M,M,600.00,2600.00,M,M,M,KGFK 010840Z AUTO 33007KT 10SM BKN006 OVC026 A3021 RMK MADISHF
GFK,2017-04-01 08:45,-97.1761,47.9492,M,M,M,320.00,9.00,M,30.21,M,10.00,M,OVC,M,M,M,600.00,M,M,M,M,KGFK 010845Z AUTO 32009KT 10SM OVC006 A3021 RMK MADISHF
GFK,2017-04-01 08:50,-97.1761,47.9492,M,M,M,320.00,9.00,M,30.21,M,10.00,M,OVC,M,M,M,600.00,M,M,M,M,KGFK 010850Z AUTO 32009KT 10SM OVC006 A3021 RMK MADISHF
GFK,2017-04-01 08:53,-97.1761,47.9492,39.90,39.90,100.00,330.00,8.00,0.00,30.21,1023.60,10.00,M,OVC,M,M,M,600.00,M,M,M,M,KGFK 010853Z AUTO 33008KT 10SM OVC006 04/04 A3021 RMK AO2 SLP236 60002 T00440044 53005
GFK,2017-04-01 08:55,-97.1761,47.9492,M,M,M,330.00,8.00,M,30.21,M,10.00,M,OVC,M,M,M,600.00,M,M,M,M,KGFK 010855Z AUTO 33008KT 10SM OVC006 A3021 RMK MADISHF
GFK,2017-04-01 09:00,-97.1761,47.9492,M,M,M,330.00,9.00,M,30.21,M,10.00,M,OVC,M,M,M,600.00,M,M,M,M,KGFK 010900Z AUTO 33009KT 10SM OVC006 A3021 RMK MADISHF
GFK,2017-04-01 09:05,-97.1761,47.9492,M,M,M,340.00,9.00,M,30.21,M,10.00,M,OVC,M,M,M,600.00,M,M,M,M,KGFK 010905Z AUTO 34009KT 10SM OVC006 A3021 RMK MADISHF
GFK,2017-04-01 09:10,-97.1761,47.9492,M,M,M,330.00,10.00,M,30.21,M,10.00,M,OVC,M,M,M,600.00,M,M,M,M,KGFK 010910Z AUTO 33010KT 10SM OVC006 A3021 RMK MADISHF
GFK,2017-04-01 09:15,-97.1761,47.9492,M,M,M,330.00,10.00,M,30.21,M,10.00,M,OVC,M,M,M,600.00,M,M,M,M,KGFK 010915Z AUTO 33010KT 10SM OVC006 A3021 RMK MADISHF
GFK,2017-04-01 09:20,-97.1761,47.9492,M,M,M,320.00,9.00,M,30.21,M,10.00,M,OVC,M,M,M,600.00,M,M,M,M,KGFK 010920Z AUTO 32009KT 10SM OVC006 A3021 RMK MADISHF
GFK,2017-04-01 09:25,-97.1761,47.9492,M,M,M,310.00,9.00,M,30.21,M,10.00,M,OVC,M,M,M,600.00,M,M,M,M,KGFK 010925Z AUTO 31009KT 10SM OVC006 A3021 RMK MADISHF
GFK,2017-04-01 09:30,-97.1761,47.9492,M,M,M,320.00,11.00,M,30.21,M,10.00,M,OVC,M,M,M,600.00,M,M,M,M,KGFK 010930Z AUTO 32011KT 10SM OVC006 A3021 RMK MADISHF
GFK,2017-04-01 09:35,-97.1761,47.9492,M,M,M,320.00,9.00,M,30.21,M,10.00,M,OVC,M,M,M,499.00,M,M,M,M,KGFK 010935Z AUTO 32009KT 10SM OVC004 A3021 RMK MADISHF
GFK,2017-04-01 09:40,-97.1761,47.9492,M,M,M,330.00,8.00,M,30.21,M,10.00,M,OVC,M,M,M,499.00,M,M,M,M,KGFK 010940Z AUTO 33008KT 10SM OVC004 A3021 RMK MADISHF
GFK,2017-04-01 09:45,-97.1761,47.9492,M,M,M,350.00,6.00,M,30.20,M,10.00,M,BKN,OVC,M,M,499.00,2200.00,M,M,M,KGFK 010945Z AUTO 35006KT 10SM BKN004 OVC022 A3020 RMK MADISHF
GFK,2017-04-01 09:50,-97.1761,47.9492,M,M,M,360.00,6.00,M,30.20,M,10.00,M,BKN,OVC,M,M,499.00,2200.00,M,M,M,KGFK 010950Z AUTO 36006KT 10SM BKN004 OVC022 A3020 RMK MADISHF
GFK,2017-04-01 09:53,-97.1761,47.9492,39.90,39.00,96.55,360.00,7.00,0.00,30.20,1023.20,10.00,M,SCT,OVC,M,M,500.00,2200.00,M,M,M,KGFK 010953Z AUTO 36007KT 10SM SCT005 OVC022 04/04 A3020 RMK AO2 SLP232 T00440039
GFK,2017-04-01 09:55,-97.1761,47.9492,M,M,M,360.00,6.00,M,30.20,M,10.00,M,SCT,OVC,M,M,499.00,2200.00,M,M,M,KGFK 010955Z AUTO 36006KT 10SM SCT004 OVC022 A3020 RMK MADISHF
GFK,2017-04-01 10:00,-97.1761,47.9492,M,M,M,350.00,7.00,M,30.20,M,10.00,M,SCT,OVC,M,M,499.00,2200.00,M,M,M,KGFK 011000Z AUTO 35007KT 10SM SCT004 OVC022 A3020 RMK MADISHF
GFK,2017-04-01 10:05,-97.1761,47.9492,M,M,M,350.00,7.00,M,30.20,M,10.00,M,SCT,OVC,M,M,499.00,2200.00,M,M,M,KGFK 011005Z AUTO 35007KT 10SM SCT004 OVC022 A3020 RMK MADISHF
GFK,2017-04-01 10:10,-97.1761,47.9492,M,M,M,350.00,8.00,M,30.20,M,10.00,M,SCT,OVC,M,M,499.00,2200.00,M,M,M,KGFK 011010Z AUTO 35008KT 10SM SCT004 OVC022 A3020 RMK MADISHF
GFK,2017-04-01 10:15,-97.1761,47.9492,M,M,M,350.00,6.00,M,30.20,M,10.00,M,SCT,OVC,M,M,499.00,2200.00,M,M,M,KGFK 011015Z AUTO 35006KT 10SM SCT004 OVC022 A3020 RMK MADISHF
GFK,2017-04-01 10:20,-97.1761,47.9492,M,M,M,340.00,7.00,M,30.20,M,10.00,M,SCT,OVC,M,M,499.00,2200.00,M,M,M,KGFK 011020Z AUTO 34007KT 10SM SCT004 OVC022 A3020 RMK MADISHF
GFK,2017-04-01 10:25,-97.1761,47.9492,M,M,M,340.00,6.00,M,30.20,M,10.00,M,BKN,OVC,M,M,499.00,2200.00,M,M,M,KGFK 011025Z AUTO 34006KT 10SM BKN004 OVC022 A3020 RMK MADISHF
GFK,2017-04-01 10:27,-97.1761,47.9492,39.90,39.00,96.55,340.00,6.00,0.00,30.20,M,10.00,M,BKN,OVC,M,M,500.00,2200.00,M,M,M,KGFK 011027Z AUTO 34006KT 10SM BKN005 OVC022 04/04 A3020 RMK AO2 T00440039
GFK,2017-04-01 10:30,-97.1761,47.9492,M,M,M,340.00,5.00,M,30.20,M,10.00,M,BKN,OVC,M,M,499.00,2200.00,M,M,M,KGFK 011030Z AUTO 34005KT 10SM BKN004 OVC022 A3020 RMK MADISHF
GFK,2017-04-01 10:35,-97.1761,47.9492,M,M,M,340.00,6.00,M,30.20,M,10.00,M,BKN,OVC,M,M,499.00,2200.00,M,M,M,KGFK 011035Z AUTO 34006KT 10SM BKN004 OVC022 A3020 RMK MADISHF
GFK,2017-04-01 10:40,-97.1761,47.9492,M,M,M,320.00,6.00,M,30.21,M,10.00,M,BKN,OVC,M,M,499.00,2200.00,M,M,M,KGFK 011040Z AUTO 32006KT 10SM BKN004 OVC022 A3021 RMK MADISHF
GFK,2017-04-01 10:45,-97.1761,47.9492,M,M,M,320.00,7.00,M,30.21,M,10.00,M,BKN,OVC,M,M,499.00,2200.00,M,M,M,KGFK 011045Z AUTO 32007KT 10SM BKN004 OVC022 A3021 RMK MADISHF
GFK,2017-04-01 10:50,-97.1761,47.9492,M,M,M,320.00,6.00,M,30.21,M,10.00,M,OVC,M,M,M,499.00,M,M,M,M,KGFK 011050Z AUTO 32006KT 10SM OVC004 A3021 RMK MADISHF
GFK,2017-04-01 10:53,-97.1761,47.9492,39.90,39.00,96.55,320.00,6.00,0.00,30.21,1023.70,10.00,M,OVC,M,M,M,500.00,M,M,M,M,KGFK 011053Z 32006KT 10SM OVC005 04/04 A3021 RMK AO2 SLP237 T00440039
GFK,2017-04-01 10:55,-97.1761,47.9492,M,M,M,310.00,5.00,M,30.21,M,10.00,M,OVC,M,M,M,499.00,M,M,M,M,KGFK 011055Z AUTO 31005KT 10SM OVC004 A3021 RMK MADISHF
GFK,2017-04-01 11:00,-97.1761,47.9492,M,M,M,320.00,5.00,M,30.21,M,10.00,M,OVC,M,M,M,499.00,M,M,M,M,KGFK 011100Z AUTO 32005KT 10SM OVC004 A3021 RMK MADISHF
GFK,2017-04-01 11:05,-97.1761,47.9492,M,M,M,330.00,6.00,M,30.21,M,10.00,M,OVC,M,M,M,499.00,M,M,M,M,KGFK 011105Z AUTO 33006KT 10SM OVC004 A3021 RMK MADISHF
GFK,2017-04-01 11:10,-97.1761,47.9492,M,M,M,330.00,6.00,M,30.21,M,10.00,M,OVC,M,M,M,499.00,M,M,M,M,KGFK 011110Z AUTO 33006KT 10SM OVC004 A3021 RMK MADISHF
GFK,2017-04-01 11:15,-97.1761,47.9492,M,M,M,320.00,7.00,M,30.21,M,10.00,M,OVC,M,M,M,499.00,M,M,M,M,KGFK 011115Z AUTO 32007KT 10SM OVC004 A3021 RMK MADISHF
GFK,2017-04-01 11:20,-97.1761,47.9492,M,M,M,320.00,7.00,M,30.22,M,10.00,M,OVC,M,M,M,499.00,M,M,M,M,KGFK 011120Z AUTO 32007KT 10SM OVC004 A3022 RMK MADISHF
GFK,2017-04-01 11:25,-97.1761,47.9492,M,M,M,320.00,7.00,M,30.22,M,10.00,M,OVC,M,M,M,499.00,M,M,M,M,KGFK 011125Z AUTO 32007KT 10SM OVC004 A3022 RMK MADISHF
GFK,2017-04-01 11:30,-97.1761,47.9492,M,M,M,320.00,7.00,M,30.22,M,10.00,M,OVC,M,M,M,499.00,M,M,M,M,KGFK 011130Z AUTO 32007KT 10SM OVC004 A3022 RMK MADISHF
GFK,2017-04-01 11:35,-97.1761,47.9492,M,M,M,320.00,7.00,M,30.22,M,10.00,M,OVC,M,M,M,499.00,M,M,M,M,KGFK 011135Z AUTO 32007KT 10SM OVC004 A3022 RMK MADISHF
GFK,2017-04-01 11:40,-97.1761,47.9492,M,M,M,320.00,7.00,M,30.22,M,10.00,M,OVC,M,M,M,499.00,M,M,M,M,KGFK 011140Z AUTO 32007KT 10SM OVC004 A3022 RMK MADISHF
GFK,2017-04-01 11:45,-97.1761,47.9492,M,M,M,320.00,7.00,M,30.22,M,10.00,M,BKN,OVC,M,M,499.00,2100.00,M,M,M,KGFK 011145Z AUTO 32007KT 10SM BKN004 OVC021 A3022 RMK MADISHF
GFK,2017-04-01 11:50,-97.1761,47.9492,M,M,M,320.00,6.00,M,30.22,M,10.00,M,BKN,OVC,M,M,499.00,2100.00,M,M,M,KGFK 011150Z AUTO 32006KT 10SM BKN004 OVC021 A3022 RMK MADISHF
GFK,2017-04-01 11:53,-97.1761,47.9492,39.00,39.00,100.00,320.00,6.00,0.00,30.22,1024.20,10.00,M,BKN,OVC,M,M,500.00,2100.00,M,M,M,KGFK 011153Z 32006KT 10SM BKN005 OVC021 04/04 A3022 RMK AO2 SLP242 60002 70007 T00390039 10050 20039 53004
GFK,2017-04-01 11:55,-97.1761,47.9492,M,M,M,320.00,6.00,M,30.22,M,10.00,M,BKN,OVC,M,M,499.00,2100.00,M,M,M,KGFK 011155Z AUTO 32006KT 10SM BKN004 OVC021 A3022 RMK MADISHF
GFK,2017-04-01 12:00,-97.1761,47.9492,M,M,M,330.00,6.00,M,30.22,M,10.00,M,SCT,OVC,M,M,499.00,2100.00,M,M,M,KGFK 011200Z AUTO 33006KT 10SM SCT004 OVC021 A3022 RMK MADISHF
GFK,2017-04-01 12:03,-97.1761,47.9492,39.00,39.00,100.00,330.00,7.00,0.00,30.22,M,10.00,M,SCT,OVC,M,M,500.00,2100.00,M,M,M,KGFK 011203Z 33007KT 10SM SCT005 OVC021 04/04 A3022 RMK AO2 T00390039
GFK,2017-04-01 12:05,-97.1761,47.9492,M,M,M,330.00,7.00,M,30.22,M,10.00,M,SCT,OVC,M,M,499.00,2100.00,M,M,M,KGFK 011205Z AUTO 33007KT 10SM SCT004 OVC021 A3022 RMK MADISHF
GFK,2017-04-01 12:10,-97.1761,47.9492,M,M,M,330.00,7.00,M,30.22,M,10.00,M,SCT,OVC,M,M,499.00,2100.00,M,M,M,KGFK 011210Z AUTO 33007KT 10SM SCT004 OVC021 A3022 RMK MADISHF
GFK,2017-04-01 12:15,-97.1761,47.9492,M,M,M,330.00,7.00,M,30.22,M,10.00,M,SCT,OVC,M,M,400.00,2100.00,M,M,M,KGFK 011215Z AUTO 33007KT 10SM SCT004 OVC021 A3022 RMK MADISHF
GFK,2017-04-01 12:20,-97.1761,47.9492,M,M,M,330.00,7.00,M,30.22,M,10.00,M,FEW,OVC,M,M,400.00,1900.00,M,M,M,KGFK 011220Z AUTO 33007KT 10SM FEW004 OVC019 A3022 RMK MADISHF
GFK,2017-04-01 12:25,-97.1761,47.9492,M,M,M,340.00,7.00,M,30.22,M,10.00,M,FEW,OVC,M,M,400.00,1900.00,M,M,M,KGFK 011225Z AUTO 34007KT 10SM FEW004 OVC019 A3022 RMK MADISHF
GFK,2017-04-01 12:30,-97.1761,47.9492,M,M,M,340.00,7.00,M,30.22,M,10.00,M,FEW,OVC,M,M,400.00,1699.00,M,M,M,KGFK 011230Z AUTO 34007KT 10SM FEW004 OVC016 A3022 RMK MADISHF
GFK,2017-04-01 12:35,-97.1761,47.9492,M,M,M,340.00,7.00,M,30.22,M,10.00,M,FEW,OVC,M,M,400.00,1699.00,M,M,M,KGFK 011235Z AUTO 34007KT 10SM FEW004 OVC016 A3022 RMK MADISHF
GFK,2017-04-01 12:40,-97.1761,47.9492,M,M,M,340.00,7.00,M,30.22,M,10.00,M,OVC,M,M,M,1699.00,M,M,M,M,KGFK 011240Z AUTO 34007KT 10SM OVC016 A3022 RMK MADISHF
GFK,2017-04-01 12:45,-97.1761,47.9492,M,M,M,340.00,7.00,M,30.22,M,10.00,M,OVC,M,M,M,1600.00,M,M,M,M,KGFK 011245Z AUTO 34007KT 10SM OVC016 A3022 RMK MADISHF
GFK,2017-04-01 12:50,-97.1761,47.9492,M,M,M,350.00,7.00,M,30.22,M,10.00,M,OVC,M,M,M,1600.00,M,M,M,M,KGFK 011250Z AUTO 35007KT 10SM OVC016 A3022 RMK MADISHF
GFK,2017-04-01 12:53,-97.1761,47.9492,39.00,39.00,100.00,350.00,6.00,0.00,30.22,1024.30,10.00,M,BKN,OVC,M,M,1600.00,2200.00,M,M,M,KGFK 011253Z 35006KT 10SM BKN016 OVC022 04/04 A3022 RMK AO2 SLP243 T00390039
GFK,2017-04-01 12:55,-97.1761,47.9492,M,M,M,360.00,7.00,M,30.22,M,10.00,M,BKN,OVC,M,M,1600.00,2200.00,M,M,M,KGFK 011255Z AUTO 36007KT 10SM BKN016 OVC022 A3022 RMK MADISHF
GFK,2017-04-01 13:00,-97.1761,47.9492,M,M,M,360.00,7.00,M,30.22,M,10.00,M,BKN,BKN,OVC,M,1600.00,2200.00,5000.00,M,M,KGFK 011300Z AUTO 36007KT 10SM BKN016 BKN022 OVC050 A3022 RMK MADISHF
GFK,2017-04-01 13:05,-97.1761,47.9492,M,M,M,360.00,7.00,M,30.22,M,10.00,M,BKN,BKN,OVC,M,1400.00,2200.00,5000.00,M,M,KGFK 011305Z AUTO 36007KT 10SM BKN014 BKN022 OVC050 A3022 RMK MADISHF
GFK,2017-04-01 13:10,-97.1761,47.9492,M,M,M,350.00,7.00,M,30.23,M,10.00,M,BKN,BKN,OVC,M,1500.00,2200.00,5000.00,M,M,KGFK 011310Z AUTO 35007KT 10SM BKN015 BKN022 OVC050 A3023 RMK MADISHF
GFK,2017-04-01 13:15,-97.1761,47.9492,M,M,M,340.00,7.00,M,30.23,M,10.00,M,BKN,BKN,OVC,M,1500.00,2200.00,5000.00,M,M,KGFK 011315Z AUTO 34007KT 10SM BKN015 BKN022 OVC050 A3023 RMK MADISHF
GFK,2017-04-01 13:20,-97.1761,47.9492,M,M,M,340.00,6.00,M,30.23,M,10.00,M,BKN,OVC,M,M,1300.00,2200.00,M,M,M,KGFK 011320Z AUTO 34006KT 10SM BKN013 OVC022 A3023 RMK MADISHF
GFK,2017-04-01 13:24,-97.1761,47.9492,39.90,39.00,96.55,340.00,6.00,0.00,30.23,M,10.00,M,BKN,OVC,M,M,1300.00,2200.00,M,M,M,KGFK 011324Z 34006KT 10SM BKN013 OVC022 04/04 A3023 RMK AO2 T00440039
GFK,2017-04-01 13:25,-97.1761,47.9492,M,M,M,350.00,6.00,M,30.23,M,10.00,M,BKN,OVC,M,M,1300.00,2200.00,M,M,M,KGFK 011325Z AUTO 35006KT 10SM BKN013 OVC022 A3023 RMK MADISHF
GFK,2017-04-01 13:30,-97.1761,47.9492,M,M,M,350.00,7.00,M,30.23,M,10.00,M,OVC,M,M,M,1400.00,M,M,M,M,KGFK 011330Z AUTO 35007KT 10SM OVC014 A3023 RMK MADISHF
GFK,2017-04-01 13:35,-97.1761,47.9492,M,M,M,360.00,5.00,M,30.23,M,10.00,M,BKN,OVC,M,M,1400.00,4700.00,M,M,M,KGFK 011335Z AUTO 36005KT 10SM BKN014 OVC047 A3023 RMK MADISHF
GFK,2017-04-01 13:40,-97.1761,47.9492,M,M,M,360.00,6.00,M,30.23,M,10.00,M,BKN,OVC,M,M,1400.00,4700.00,M,M,M,KGFK 011340Z AUTO 36006KT 10SM BKN014 OVC047 A3023 RMK MADISHF
GFK,2017-04-01 13:45,-97.1761,47.9492,M,M,M,360.00,5.00,M,30.23,M,10.00,M,SCT,OVC,M,M,1400.00,4700.00,M,M,M,KGFK 011345Z AUTO 36005KT 10SM SCT014 OVC047 A3023 RMK MADISHF
GFK,2017-04-01 13:50,-97.1761,47.9492,M,M,M,10.00,4.00,M,30.23,M,10.00,M,SCT,BKN,M,M,1400.00,4700.00,M,M,M,KGFK 011350Z AUTO 01004KT 10SM SCT014 BKN047 A3023 RMK MADISHF
GFK,2017-04-01 13:53,-97.1761,47.9492,41.00,39.90,95.82,10.00,4.00,0.00,30.23,1024.40,10.00,M,SCT,BKN,BKN,M,1400.00,4700.00,20000.00,M,M,KGFK 011353Z 01004KT 10SM SCT014 BKN047 BKN200 05/04 A3023 RMK AO2 SLP244 T00500044
GFK,2017-04-01 13:55,-97.1761,47.9492,M,M,M,10.00,4.00,M,30.23,M,10.00,M,FEW,OVC,M,M,1400.00,4900.00,M,M,M,KGFK 011355Z AUTO 01004KT 10SM FEW014 OVC049 A3023 RMK MADISHF
GFK,2017-04-01 14:00,-97.1761,47.9492,M,M,M,10.00,4.00,M,30.23,M,10.00,M,FEW,OVC,M,M,400.00,4900.00,M,M,M,KGFK 011400Z AUTO 01004KT 10SM FEW004 OVC049 A3023 RMK MADISHF
GFK,2017-04-01 14:05,-97.1761,47.9492,41.00,39.90,95.82,30.00,4.00,0.00,30.23,M,10.00,M,FEW,SCT,OVC,M,400.00,1400.00,4900.00,M,M,KGFK 011405Z 03004KT 10SM FEW004 SCT014 OVC049 05/04 A3023 RMK AO2 T00500044
GFK,2017-04-01 14:10,-97.1761,47.9492,M,M,M,10.00,4.00,M,30.23,M,10.00,M,SCT,OVC,M,M,400.00,4900.00,M,M,M,KGFK 011410Z AUTO 01004KT 10SM SCT004 OVC049 A3023 RMK MADISHF
GFK,2017-04-01 14:15,-97.1761,47.9492,M,M,M,350.00,5.00,M,30.23,M,10.00,M,SCT,OVC,M,M,400.00,4900.00,M,M,M,KGFK 011415Z AUTO 35005KT 10SM SCT004 OVC049 A3023 RMK MADISHF
GFK,2017-04-01 14:20,-97.1761,47.9492,M,M,M,360.00,4.00,M,30.23,M,10.00,M,BKN,OVC,M,M,499.00,5000.00,M,M,M,KGFK 011420Z AUTO 36004KT 10SM BKN004 OVC050 A3023 RMK MADISHF
GFK,2017-04-01 14:25,-97.1761,47.9492,M,M,M,330.00,4.00,M,30.23,M,10.00,M,SCT,BKN,M,M,499.00,5000.00,M,M,M,KGFK 011425Z AUTO 33004KT 10SM SCT004 BKN050 A3023 RMK MADISHF
GFK,2017-04-01 14:30,-97.1761,47.9492,M,M,M,340.00,4.00,M,30.23,M,10.00,M,SCT,BKN,M,M,499.00,5000.00,M,M,M,KGFK 011430Z AUTO 34004KT 10SM SCT004 BKN050 A3023 RMK MADISHF
GFK,2017-04-01 14:35,-97.1761,47.9492,M,M,M,350.00,4.00,M,30.22,M,10.00,M,SCT,BKN,M,M,499.00,5000.00,M,M,M,KGFK 011435Z AUTO 35004KT 10SM SCT004 BKN050 A3022 RMK MADISHF
GFK,2017-04-01 14:40,-97.1761,47.9492,M,M,M,340.00,5.00,M,30.22,M,10.00,M,SCT,BKN,M,M,499.00,5000.00,M,M,M,KGFK 011440Z AUTO 34005KT 10SM SCT004 BKN050 A3022 RMK MADISHF
GFK,2017-04-01 14:45,-97.1761,47.9492,M,M,M,330.00,4.00,M,30.22,M,10.00,M,SCT,BKN,M,M,499.00,5000.00,M,M,M,KGFK 011445Z AUTO 33004KT 10SM SCT004 BKN050 A3022 RMK MADISHF
GFK,2017-04-01 14:50,-97.1761,47.9492,M,M,M,320.00,4.00,M,30.23,M,10.00,M,SCT,BKN,M,M,499.00,5000.00,M,M,M,KGFK 011450Z AUTO 32004KT 10SM SCT004 BKN050 A3023 RMK MADISHF
GFK,2017-04-01 14:53,-97.1761,47.9492,43.00,39.90,88.71,320.00,4.00,0.00,30.23,1024.40,10.00,M,SCT,BKN,BKN,M,500.00,1900.00,5000.00,M,M,KGFK 011453Z 32004KT 10SM SCT005 BKN019 BKN050 06/04 A3023 RMK AO2 SLP244 T00610044 50001
GFK,2017-04-01 14:55,-97.1761,47.9492,M,M,M,340.00,5.00,M,30.23,M,10.00,M,SCT,BKN,BKN,M,499.00,1900.00,5000.00,M,M,KGFK 011455Z AUTO 34005KT 10SM SCT004 BKN019 BKN050 A3023 RMK MADISHF
GFK,2017-04-01 15:00,-97.1761,47.9492,M,M,M,350.00,4.00,M,30.23,M,10.00,M,SCT,BKN,BKN,M,499.00,1900.00,5000.00,M,M,KGFK 011500Z AUTO 35004KT 10SM SCT004 BKN019 BKN050 A3023 RMK MADISHF
GFK,2017-04-01 15:05,-97.1761,47.9492,M,M,M,340.00,3.00,M,30.23,M,10.00,M,SCT,BKN,BKN,M,499.00,1900.00,5000.00,M,M,KGFK 011505Z AUTO 34003KT 10SM SCT004 BKN019 BKN050 A3023 RMK MADISHF
GFK,2017-04-01 15:10,-97.1761,47.9492,M,M,M,340.00,4.00,M,30.23,M,10.00,M,SCT,BKN,BKN,M,499.00,1900.00,5000.00,M,M,KGFK 011510Z AUTO 34004KT 10SM SCT004 BKN019 BKN050 A3023 RMK MADISHF
GFK,2017-04-01 15:15,-97.1761,47.9492,M,M,M,340.00,3.00,M,30.23,M,10.00,M,SCT,BKN,BKN,M,499.00,3000.00,5000.00,M,M,KGFK 011515Z AUTO 34003KT 10SM SCT004 BKN030 BKN050 A3023 RMK MADISHF
GFK,2017-04-01 15:17,-97.1761,47.9492,44.10,39.90,85.06,350.00,5.00,0.00,30.22,M,10.00,M,SCT,BKN,BKN,M,500.00,3000.00,5000.00,M,M,KGFK 011517Z 35005KT 10SM SCT005 BKN030 BKN050 07/04 A3022 RMK AO2 T00670044
GFK,2017-04-01 15:20,-97.1761,47.9492,M,M,M,320.00,5.00,M,30.22,M,10.00,M,SCT,BKN,BKN,M,499.00,3000.00,5000.00,M,M,KGFK 011520Z AUTO 32005KT 10SM SCT004 BKN030 BKN050 A3022 RMK MADISHF
GFK,2017-04-01 15:25,-97.1761,47.9492,M,M,M,340.00,5.00,M,30.22,M,10.00,M,FEW,BKN,BKN,M,499.00,3000.00,5000.00,M,M,KGFK 011525Z AUTO 34005KT 10SM FEW004 BKN030 BKN050 A3022 RMK MADISHF
GFK,2017-04-01 15:30,-97.1761,47.9492,M,M,M,340.00,5.00,M,30.23,M,10.00,M,FEW,BKN,BKN,M,499.00,3000.00,5000.00,M,M,KGFK 011530Z AUTO 34005KT 10SM FEW004 BKN030 BKN050 A3023 RMK MADISHF
GFK,2017-04-01 15:35,-97.1761,47.9492,M,M,M,360.00,4.00,M,30.23,M,10.00,M,FEW,BKN,BKN,M,499.00,3000.00,5000.00,M,M,KGFK 011535Z AUTO 36004KT 10SM FEW004 BKN030 BKN050 A3023 RMK MADISHF
GFK,2017-04-01 15:40,-97.1761,47.9492,M,M,M,360.00,4.00,M,30.23,M,10.00,M,FEW,BKN,BKN,M,1200.00,3000.00,5000.00,M,M,KGFK 011540Z AUTO 36004KT 10SM FEW012 BKN030 BKN050 A3023 RMK MADISHF
GFK,2017-04-01 15:45,-97.1761,47.9492,M,M,M,10.00,5.00,M,30.23,M,10.00,M,BKN,OVC,M,M,3000.00,4800.00,M,M,M,KGFK 011545Z AUTO 01005KT 10SM BKN030 OVC048 A3023 RMK MADISHF
GFK,2017-04-01 15:50,-97.1761,47.9492,M,M,M,360.00,4.00,M,30.23,M,10.00,M,BKN,BKN,M,M,3000.00,4800.00,M,M,M,KGFK 011550Z AUTO 36004KT 10SM BKN030 BKN048 A3023 RMK MADISHF
GFK,2017-04-01 15:53,-97.1761,47.9492,45.00,37.00,73.37,340.00,6.00,0.00,30.23,1024.50,10.00,M,BKN,BKN,OVC,M,3000.00,4800.00,20000.00,M,M,KGFK 011553Z 34006KT 10SM BKN030 BKN048 OVC200 07/03 A3023 RMK AO2 SLP245 T00720028
GFK,2017-04-01 15:55,-97.1761,47.9492,M,M,M,340.00,6.00,M,30.23,M,10.00,M,FEW,BKN,OVC,M,2300.00,3000.00,4800.00,M,M,KGFK 011555Z AUTO 34006KT 10SM FEW023 BKN030 OVC048 A3023 RMK MADISHF
GFK,2017-04-01 16:00,-97.1761,47.9492,M,M,M,330.00,4.00,M,30.23,M,10.00,M,FEW,BKN,OVC,M,2300.00,3000.00,4600.00,M,M,KGFK 011600Z AUTO 33004KT 10SM FEW023 BKN030 OVC046 A3023 RMK MADISHF
GFK,2017-04-01 16:05,-97.1761,47.9492,M,M,M,340.00,6.00,M,30.23,M,10.00,M,FEW,SCT,OVC,M,2300.00,3000.00,4600.00,M,M,KGFK 011605Z AUTO 34006KT 10SM FEW023 SCT030 OVC046 A3023 RMK MADISHF
GFK,2017-04-01 16:10,-97.1761,47.9492,M,M,M,350.00,5.00,M,30.23,M,10.00,M,FEW,SCT,OVC,M,2300.00,3000.00,4600.00,M,M,KGFK 011610Z AUTO 35005KT 10SM FEW023 SCT030 OVC046 A3023 RMK MADISHF
GFK,2017-04-01 16:15,-97.1761,47.9492,M,M,M,350.00,3.00,M,30.23,M,10.00,M,BKN,OVC,M,M,2500.00,4600.00,M,M,M,KGFK 011615Z AUTO 35003KT 10SM BKN025 OVC046 A3023 RMK MADISHF
GFK,2017-04-01 16:20,-97.1761,47.9492,M,M,M,320.00,4.00,M,30.23,M,10.00,M,BKN,BKN,M,M,2500.00,4600.00,M,M,M,KGFK 011620Z AUTO 32004KT 10SM BKN025 BKN046 A3023 RMK MADISHF
GFK,2017-04-01 16:21,-97.1761,47.9492,46.00,36.00,67.90,M,3.00,0.00,30.23,M,10.00,M,BKN,BKN,M,M,2500.00,4600.00,M,M,M,KGFK 011621Z VRB03KT 10SM BKN025 BKN046 08/02 A3023 RMK AO2 T00780022
GFK,2017-04-01 16:25,-97.1761,47.9492,M,M,M,330.00,3.00,M,30.23,M,10.00,M,BKN,BKN,M,M,2500.00,4600.00,M,M,M,KGFK 011625Z AUTO 33003KT 10SM BKN025 BKN046 A3023 RMK VRB03KT  MADISHF
GFK,2017-04-01 16:30,-97.1761,47.9492,M,M,M,10.00,5.00,M,30.23,M,10.00,M,BKN,BKN,M,M,2500.00,4600.00,M,M,M,KGFK 011630Z AUTO 01005KT 10SM BKN025 BKN046 A3023 RMK MADISHF
GFK,2017-04-01 16:35,-97.1761,47.9492,M,M,M,350.00,3.00,M,30.23,M,10.00,M,BKN,BKN,M,M,2500.00,4600.00,M,M,M,KGFK 011635Z AUTO 35003KT 10SM BKN025 BKN046 A3023 RMK MADISHF
GFK,2017-04-01 16:40,-97.1761,47.9492,M,M,M,0.00,0.00,M,30.23,M,10.00,M,BKN,BKN,M,M,2500.00,4600.00,M,M,M,KGFK 011640Z AUTO 00000KT 10SM BKN025 BKN046 A3023 RMK MADISHF
GFK,2017-04-01 16:45,-97.1761,47.9492,M,M,M,0.00,0.00,M,30.23,M,10.00,M,BKN,BKN,M,M,2500.00,4600.00,M,M,M,KGFK 011645Z AUTO 00000KT 10SM BKN025 BKN046 A3023 RMK MADISHF
GFK,2017-04-01 16:50,-97.1761,47.9492,M,M,M,350.00,5.00,M,30.23,M,10.00,M,BKN,BKN,M,M,2500.00,4600.00,M,M,M,KGFK 011650Z AUTO 35005KT 10SM BKN025 BKN046 A3023 RMK MADISHF
GFK,2017-04-01 16:53,-97.1761,47.9492,46.00,37.00,70.64,20.00,5.00,0.00,30.23,1024.50,10.00,M,BKN,BKN,M,M,2300.00,4300.00,M,M,M,KGFK 011653Z 02005KT 10SM BKN023 BKN043 08/03 A3023 RMK AO2 SLP245 T00780028
GFK,2017-04-01 16:55,-97.1761,47.9492,M,M,M,340.00,5.00,M,30.23,M,10.00,M,BKN,OVC,M,M,2300.00,4300.00,M,M,M,KGFK 011655Z AUTO 34005KT 10SM BKN023 OVC043 A3023 RMK MADISHF
GFK,2017-04-01 17:00,-97.1761,47.9492,M,M,M,340.00,5.00,M,30.23,M,10.00,M,BKN,OVC,M,M,2300.00,4500.00,M,M,M,KGFK 011700Z AUTO 34005KT 10SM BKN023 OVC045 A3023 RMK MADISHF
GFK,2017-04-01 17:05,-97.1761,47.9492,M,M,M,330.00,6.00,M,30.23,M,10.00,M,BKN,OVC,M,M,2300.00,4300.00,M,M,M,KGFK 011705Z AUTO 33006KT 10SM BKN023 OVC043 A3023 RMK MADISHF
GFK,2017-04-01 17:10,-97.1761,47.9492,M,M,M,350.00,4.00,M,30.22,M,10.00,M,BKN,OVC,M,M,2300.00,4100.00,M,M,M,KGFK 011710Z AUTO 35004KT 10SM BKN023 OVC041 A3022 RMK VRB04KT  MADISHF
GFK,2017-04-01 17:15,-97.1761,47.9492,M,M,M,0.00,0.00,M,30.22,M,10.00,M,BKN,OVC,M,M,2300.00,4100.00,M,M,M,KGFK 011715Z AUTO 00000KT 10SM BKN023 OVC041 A3022 RMK MADISHF
GFK,2017-04-01 17:20,-97.1761,47.9492,M,M,M,260.00,4.00,M,30.22,M,10.00,M,SCT,OVC,M,M,2400.00,4100.00,M,M,M,KGFK 011720Z AUTO 26004KT 10SM SCT024 OVC041 A3022 RMK MADISHF
GFK,2017-04-01 17:25,-97.1761,47.9492,M,M,M,260.00,3.00,M,30.21,M,10.00,M,BKN,OVC,M,M,2400.00,4100.00,M,M,M,KGFK 011725Z AUTO 26003KT 10SM BKN024 OVC041 A3021 RMK MADISHF
GFK,2017-04-01 17:30,-97.1761,47.9492,M,M,M,290.00,4.00,M,30.21,M,10.00,M,BKN,OVC,M,M,2400.00,4100.00,M,M,M,KGFK 011730Z AUTO 29004KT 10SM BKN024 OVC041 A3021 RMK VRB04KT  MADISHF
GFK,2017-04-01 17:35,-97.1761,47.9492,M,M,M,0.00,0.00,M,30.21,M,10.00,M,BKN,OVC,M,M,2400.00,4100.00,M,M,M,KGFK 011735Z AUTO 00000KT 10SM BKN024 OVC041 A3021 RMK MADISHF
GFK,2017-04-01 17:40,-97.1761,47.9492,M,M,M,340.00,3.00,M,30.21,M,10.00,M,BKN,OVC,M,M,2400.00,4100.00,M,M,M,KGFK 011740Z AUTO 34003KT 10SM BKN024 OVC041 A3021 RMK MADISHF
GFK,2017-04-01 17:45,-97.1761,47.9492,M,M,M,340.00,6.00,M,30.21,M,10.00,M,BKN,OVC,M,M,2400.00,4100.00,M,M,M,KGFK 011745Z AUTO 34006KT 10SM BKN024 OVC041 A3021 RMK MADISHF
GFK,2017-04-01 17:50,-97.1761,47.9492,M,M,M,320.00,4.00,M,30.21,M,10.00,M,BKN,OVC,M,M,2400.00,4100.00,M,M,M,KGFK 011750Z AUTO 32004KT 10SM BKN024 OVC041 A3021 RMK MADISHF
GFK,2017-04-01 17:53,-97.1761,47.9492,48.00,37.00,65.51,300.00,5.00,0.00,30.21,1023.70,10.00,M,SCT,BKN,BKN,M,2400.00,4100.00,20000.00,M,M,KGFK 011753Z 30005KT 10SM SCT024 BKN041 BKN200 09/03 A3021 RMK AO2 SLP237 T00890028 10089 20039 58007
GFK,2017-04-01 17:55,-97.1761,47.9492,M,M,M,310.00,3.00,M,30.21,M,10.00,M,FEW,OVC,M,M,2400.00,4100.00,M,M,M,KGFK 011755Z AUTO 31003KT 10SM FEW024 OVC041 A3021 RMK MADISHF
GFK,2017-04-01 18:00,-97.1761,47.9492,M,M,M,330.00,3.00,M,30.21,M,10.00,M,FEW,OVC,M,M,2400.00,3999.00,M,M,M,KGFK 011800Z AUTO 33003KT 10SM FEW024 OVC039 A3021 RMK VRB03KT  MADISHF
GFK,2017-04-01 18:05,-97.1761,47.9492,M,M,M,330.00,4.00,M,30.21,M,10.00,M,OVC,M,M,M,3999.00,M,M,M,M,KGFK 011805Z AUTO 33004KT 10SM OVC039 A3021 RMK MADISHF
GFK,2017-04-01 18:10,-97.1761,47.9492,M,M,M,290.00,3.00,M,30.21,M,10.00,M,OVC,M,M,M,3999.00,M,M,M,M,KGFK 011810Z AUTO 29003KT 10SM OVC039 A3021 RMK VRB03KT  MADISHF
GFK,2017-04-01 18:15,-97.1761,47.9492,M,M,M,0.00,0.00,M,30.20,M,10.00,M,FEW,OVC,M,M,2500.00,3999.00,M,M,M,KGFK 011815Z AUTO 00000KT 10SM FEW025 OVC039 A3020 RMK MADISHF
GFK,2017-04-01 18:20,-97.1761,47.9492,M,M,M,70.00,3.00,M,30.20,M,10.00,M,FEW,OVC,M,M,2500.00,3900.00,M,M,M,KGFK 011820Z AUTO 07003KT 10SM FEW025 OVC039 A3020 RMK VRB03KT  MADISHF
GFK,2017-04-01 18:25,-97.1761,47.9492,M,M,M,280.00,4.00,M,30.20,M,10.00,M,OVC,M,M,M,3900.00,M,M,M,M,KGFK 011825Z AUTO 28004KT 10SM OVC039 A3020 RMK MADISHF
GFK,2017-04-01 18:30,-97.1761,47.9492,M,M,M,0.00,0.00,M,30.20,M,10.00,M,OVC,M,M,M,3900.00,M,M,M,M,KGFK 011830Z AUTO 00000KT 10SM OVC039 A3020 RMK MADISHF
GFK,2017-04-01 18:35,-97.1761,47.9492,M,M,M,300.00,3.00,M,30.20,M,10.00,M,FEW,OVC,M,M,2600.00,3900.00,M,M,M,KGFK 011835Z AUTO 30003KT 10SM FEW026 OVC039 A3020 RMK MADISHF
GFK,2017-04-01 18:40,-97.1761,47.9492,M,M,M,0.00,0.00,M,30.20,M,10.00,M,FEW,OVC,M,M,2600.00,3900.00,M,M,M,KGFK 011840Z AUTO 00000KT 10SM FEW026 OVC039 A3020 RMK MADISHF
GFK,2017-04-01 18:45,-97.1761,47.9492,M,M,M,250.00,3.00,M,30.19,M,10.00,M,FEW,OVC,M,M,2600.00,3800.00,M,M,M,KGFK 011845Z AUTO 25003KT 10SM FEW026 OVC038 A3019 RMK MADISHF
GFK,2017-04-01 18:50,-97.1761,47.9492,M,M,M,310.00,3.00,M,30.19,M,10.00,M,FEW,OVC,M,M,2600.00,3800.00,M,M,M,KGFK 011850Z AUTO 31003KT 10SM FEW026 OVC038 A3019 RMK MADISHF
GFK,2017-04-01 18:53,-97.1761,47.9492,48.90,37.90,65.62,320.00,4.00,0.00,30.19,1023.00,10.00,M,FEW,BKN,OVC,M,2600.00,3800.00,20000.00,M,M,KGFK 011853Z 32004KT 10SM FEW026 BKN038 OVC200 09/03 A3019 RMK AO2 SLP230 T00940033
GFK,2017-04-01 18:55,-97.1761,47.9492,M,M,M,340.00,3.00,M,30.19,M,10.00,M,FEW,OVC,M,M,2600.00,3600.00,M,M,M,KGFK 011855Z AUTO 34003KT 10SM FEW026 OVC036 A3019 RMK MADISHF
GFK,2017-04-01 19:00,-97.1761,47.9492,M,M,M,0.00,0.00,M,30.18,M,10.00,M,FEW,OVC,M,M,2700.00,3600.00,M,M,M,KGFK 011900Z AUTO 00000KT 10SM FEW027 OVC036 A3018 RMK MADISHF
GFK,2017-04-01 19:05,-97.1761,47.9492,M,M,M,0.00,0.00,M,30.18,M,10.00,M,FEW,OVC,M,M,2700.00,3399.00,M,M,M,KGFK 011905Z AUTO 00000KT 10SM FEW027 OVC033 A3018 RMK MADISHF
GFK,2017-04-01 19:10,-97.1761,47.9492,M,M,M,0.00,0.00,M,30.18,M,10.00,M,OVC,M,M,M,3399.00,M,M,M,M,KGFK 011910Z AUTO 00000KT 10SM OVC033 A3018 RMK MADISHF
GFK,2017-04-01 19:15,-97.1761,47.9492,M,M,M,210.00,3.00,M,30.18,M,10.00,M,OVC,M,M,M,3399.00,M,M,M,M,KGFK 011915Z AUTO 21003KT 10SM OVC033 A3018 RMK MADISHF
GFK,2017-04-01 19:20,-97.1761,47.9492,M,M,M,230.00,4.00,M,30.18,M,10.00,M,OVC,M,M,M,3200.00,M,M,M,M,KGFK 011920Z AUTO 23004KT 10SM OVC032 A3018 RMK MADISHF
GFK,2017-04-01 19:25,-97.1761,47.9492,M,M,M,0.00,0.00,M,30.17,M,10.00,M,OVC,M,M,M,3200.00,M,M,M,M,KGFK 011925Z AUTO 00000KT 10SM OVC032 A3017 RMK MADISHF
GFK,2017-04-01 19:30,-97.1761,47.9492,M,M,M,220.00,3.00,M,30.17,M,10.00,M,BKN,M,M,M,3100.00,M,M,M,M,KGFK 011930Z AUTO 22003KT 10SM BKN031 A3017 RMK VRB03KT  MADISHF
GFK,2017-04-01 19:35,-97.1761,47.9492,M,M,M,220.00,3.00,M,30.17,M,10.00,M,BKN,M,M,M,3100.00,M,M,M,M,KGFK 011935Z AUTO 22003KT 10SM BKN031 A3017 RMK MADISHF
GFK,2017-04-01 19:40,-97.1761,47.9492,M,M,M,230.00,3.00,M,30.17,M,10.00,M,BKN,M,M,M,3100.00,M,M,M,M,KGFK 011940Z AUTO 23003KT 10SM BKN031 A3017 RMK MADISHF
GFK,2017-04-01 19:45,-97.1761,47.9492,M,M,M,0.00,0.00,M,30.17,M,10.00,M,BKN,M,M,M,3000.00,M,M,M,M,KGFK 011945Z AUTO 00000KT 10SM BKN030 A3017 RMK MADISHF
GFK,2017-04-01 19:50,-97.1761,47.9492,M,M,M,0.00,0.00,M,30.17,M,10.00,M,BKN,M,M,M,3000.00,M,M,M,M,KGFK 011950Z AUTO 00000KT 10SM BKN030 A3017 RMK MADISHF
GFK,2017-04-01 19:53,-97.1761,47.9492,51.10,39.00,63.12,0.00,0.00,0.00,30.17,1022.20,10.00,M,SCT,BKN,BKN,M,2600.00,3200.00,4000.00,M,M,KGFK 011953Z 00000KT 10SM SCT026 BKN032 BKN040 11/04 A3017 RMK AO2 SLP222 T01060039
GFK,2017-04-01 19:55,-97.1761,47.9492,M,M,M,0.00,0.00,M,30.16,M,10.00,M,SCT,M,M,M,2800.00,M,M,M,M,KGFK 011955Z AUTO 00000KT 10SM SCT028 A3016 RMK MADISHF
GFK,2017-04-01 20:00,-97.1761,47.9492,M,M,M,60.00,3.00,M,30.16,M,10.00,M,SCT,BKN,BKN,M,2500.00,2800.00,3999.00,M,M,KGFK 012000Z AUTO 06003KT 10SM SCT025 BKN028 BKN039 A3016 RMK MADISHF
GFK,2017-04-01 20:05,-97.1761,47.9492,M,M,M,40.00,3.00,M,30.16,M,10.00,M,SCT,BKN,BKN,M,2500.00,2800.00,3999.00,M,M,KGFK 012005Z AUTO 04003KT 10SM SCT025 BKN028 BKN039 A3016 RMK MADISHF
GFK,2017-04-01 20:06,-97.1761,47.9492,50.00,39.00,65.75,50.00,3.00,0.00,30.16,M,10.00,M,SCT,BKN,BKN,M,2500.00,2800.00,4000.00,M,M,KGFK 012006Z 05003KT 10SM SCT025 BKN028 BKN040 10/04 A3016 RMK AO2 T01000039
GFK,2017-04-01 20:10,-97.1761,47.9492,M,M,M,120.00,6.00,M,30.16,M,10.00,M,SCT,BKN,BKN,M,2500.00,2800.00,3999.00,M,M,KGFK 012010Z AUTO 12006KT 10SM SCT025 BKN028 BKN039 A3016 RMK MADISHF
GFK,2017-04-01 20:15,-97.1761,47.9492,M,M,M,70.00,5.00,M,30.16,M,10.00,M,OVC,M,M,M,2500.00,M,M,M,M,KGFK 012015Z AUTO 07005KT 10SM OVC025 A3016 RMK MADISHF
GFK,2017-04-01 20:20,-97.1761,47.9492,M,M,M,110.00,4.00,M,30.16,M,10.00,M,OVC,M,M,M,2400.00,M,M,M,M,KGFK 012020Z AUTO 11004KT 10SM OVC024 A3016 RMK VRB04KT  MADISHF
GFK,2017-04-01 20:25,-97.1761,47.9492,M,M,M,120.00,7.00,M,30.15,M,10.00,M,OVC,M,M,M,2400.00,M,M,M,M,KGFK 012025Z AUTO 12007KT 10SM OVC024 A3015 RMK MADISHF
GFK,2017-04-01 20:30,-97.1761,47.9492,M,M,M,120.00,7.00,M,30.15,M,10.00,M,OVC,M,M,M,2400.00,M,M,M,M,KGFK 012030Z AUTO 12007KT 10SM OVC024 A3015 RMK MADISHF
GFK,2017-04-01 20:35,-97.1761,47.9492,M,M,M,140.00,7.00,M,30.14,M,10.00,M,OVC,M,M,M,2400.00,M,M,M,M,KGFK 012035Z AUTO 14007KT 10SM OVC024 A3014 RMK MADISHF
GFK,2017-04-01 20:40,-97.1761,47.9492,M,M,M,120.00,6.00,M,30.14,M,10.00,M,OVC,M,M,M,2400.00,M,M,M,M,KGFK 012040Z AUTO 12006KT 10SM OVC024 A3014 RMK MADISHF
GFK,2017-04-01 20:45,-97.1761,47.9492,M,M,M,110.00,5.00,M,30.14,M,10.00,M,OVC,M,M,M,2400.00,M,M,M,M,KGFK 012045Z AUTO 11005KT 10SM OVC024 A3014 RMK MADISHF
GFK,2017-04-01 20:50,-97.1761,47.9492,M,M,M,150.00,6.00,M,30.13,M,10.00,M,BKN,BKN,OVC,M,2500.00,2800.00,3999.00,M,M,KGFK 012050Z AUTO 15006KT 10SM BKN025 BKN028 OVC039 A3013 RMK MADISHF
GFK,2017-04-01 20:53,-97.1761,47.9492,48.90,39.90,70.95,140.00,5.00,0.00,30.13,1021.20,10.00,M,BKN,BKN,OVC,M,2500.00,2800.00,4000.00,M,M,KGFK 012053Z 14005KT 10SM BKN025 BKN028 OVC040 09/04 A3013 RMK AO2 SLP212 T00940044 58024
GFK,2017-04-01 20:55,-97.1761,47.9492,M,M,M,120.00,4.00,M,30.13,M,10.00,M,OVC,M,M,M,2500.00,M,M,M,M,KGFK 012055Z AUTO 12004KT 10SM OVC025 A3013 RMK MADISHF
GFK,2017-04-01 21:00,-97.1761,47.9492,M,M,M,160.00,5.00,M,30.13,M,10.00,M,OVC,M,M,M,2500.00,M,M,M,M,KGFK 012100Z AUTO 16005KT 10SM OVC025 A3013 RMK MADISHF
GFK,2017-04-01 21:05,-97.1761,47.9492,M,M,M,140.00,6.00,M,30.13,M,10.00,M,OVC,M,M,M,2500.00,M,M,M,M,KGFK 012105Z AUTO 14006KT 10SM OVC025 A3013 RMK MADISHF
GFK,2017-04-01 21:10,-97.1761,47.9492,M,M,M,130.00,5.00,M,30.12,M,10.00,M,OVC,M,M,M,2500.00,M,M,M,M,KGFK 012110Z AUTO 13005KT 10SM OVC025 A3012 RMK MADISHF
GFK,2017-04-01 21:15,-97.1761,47.9492,M,M,M,100.00,5.00,M,30.12,M,10.00,M,OVC,M,M,M,2500.00,M,M,M,M,KGFK 012115Z AUTO 10005KT 10SM OVC025 A3012 RMK MADISHF
GFK,2017-04-01 21:20,-97.1761,47.9492,M,M,M,130.00,7.00,M,30.12,M,10.00,M,OVC,M,M,M,2500.00,M,M,M,M,KGFK 012120Z AUTO 13007KT 10SM OVC025 A3012 RMK MADISHF
GFK,2017-04-01 21:25,-97.1761,47.9492,M,M,M,140.00,5.00,M,30.11,M,10.00,M,OVC,M,M,M,2600.00,M,M,M,M,KGFK 012125Z AUTO 14005KT 10SM OVC026 A3011 RMK MADISHF
GFK,2017-04-01 21:30,-97.1761,47.9492,M,M,M,160.00,5.00,M,30.11,M,10.00,M,OVC,M,M,M,2600.00,M,M,M,M,KGFK 012130Z AUTO 16005KT 10SM OVC026 A3011 RMK MADISHF
GFK,2017-04-01 21:35,-97.1761,47.9492,M,M,M,130.00,4.00,M,30.11,M,10.00,M,OVC,M,M,M,2600.00,M,M,M,M,KGFK 012135Z AUTO 13004KT 10SM OVC026 A3011 RMK MADISHF
GFK,2017-04-01 21:40,-97.1761,47.9492,M,M,M,120.00,7.00,M,30.11,M,10.00,M,OVC,M,M,M,2600.00,M,M,M,M,KGFK 012140Z AUTO 12007KT 10SM OVC026 A3011 RMK MADISHF
GFK,2017-04-01 21:45,-97.1761,47.9492,M,M,M,150.00,6.00,M,30.10,M,10.00,M,OVC,M,M,M,2600.00,M,M,M,M,KGFK 012145Z AUTO 15006KT 10SM OVC026 A3010 RMK MADISHF
GFK,2017-04-01 21:50,-97.1761,47.9492,M,M,M,140.00,7.00,M,30.10,M,10.00,M,FEW,BKN,BKN,M,2300.00,2600.00,3999.00,M,M,KGFK 012150Z AUTO 14007KT 10SM FEW023 BKN026 BKN039 A3010 RMK MADISHF
GFK,2017-04-01 21:53,-97.1761,47.9492,51.10,42.10,71.19,140.00,8.00,0.00,30.09,1019.80,10.00,M,FEW,BKN,BKN,M,2300.00,2600.00,20000.00,M,M,KGFK 012153Z 14008KT 10SM FEW023 BKN026 BKN200 11/06 A3009 RMK AO2 SLP198 T01060056
GFK,2017-04-01 21:55,-97.1761,47.9492,M,M,M,150.00,8.00,M,30.09,M,10.00,M,OVC,M,M,M,2600.00,M,M,M,M,KGFK 012155Z AUTO 15008KT 10SM OVC026 A3009 RMK MADISHF
GFK,2017-04-01 22:00,-97.1761,47.9492,M,M,M,130.00,6.00,M,30.09,M,10.00,M,BKN,M,M,M,2600.00,M,M,M,M,KGFK 012200Z AUTO 13006KT 10SM BKN026 A3009 RMK MADISHF
GFK,2017-04-01 22:05,-97.1761,47.9492,M,M,M,130.00,7.00,M,30.09,M,10.00,M,BKN,M,M,M,2600.00,M,M,M,M,KGFK 012205Z AUTO 13007KT 10SM BKN026 A3009 RMK MADISHF
GFK,2017-04-01 22:10,-97.1761,47.9492,M,M,M,130.00,6.00,M,30.09,M,10.00,M,BKN,M,M,M,2600.00,M,M,M,M,KGFK 012210Z AUTO 13006KT 10SM BKN026 A3009 RMK MADISHF
GFK,2017-04-01 22:15,-97.1761,47.9492,M,M,M,160.00,5.00,M,30.09,M,10.00,M,SCT,BKN,M,M,2600.00,3399.00,M,M,M,KGFK 012215Z AUTO 16005KT 10SM SCT026 BKN033 A3009 RMK MADISHF
GFK,2017-04-01 22:17,-97.1761,47.9492,52.00,42.10,68.86,150.00,6.00,0.00,30.09,M,10.00,M,SCT,BKN,BKN,M,2600.00,3400.00,20000.00,M,M,KGFK 012217Z 15006KT 10SM SCT026 BKN034 BKN200 11/06 A3009 RMK AO2 T01110056
GFK,2017-04-01 22:20,-97.1761,47.9492,M,M,M,150.00,5.00,M,30.09,M,10.00,M,SCT,BKN,M,M,2600.00,3399.00,M,M,M,KGFK 012220Z AUTO 15005KT 10SM SCT026 BKN033 A3009 RMK MADISHF
GFK,2017-04-01 22:25,-97.1761,47.9492,M,M,M,150.00,7.00,M,30.08,M,10.00,M,SCT,BKN,M,M,2600.00,3399.00,M,M,M,KGFK 012225Z AUTO 15007KT 10SM SCT026 BKN033 A3008 RMK MADISHF
GFK,2017-04-01 22:30,-97.1761,47.9492,M,M,M,150.00,9.00,M,30.08,M,10.00,M,SCT,BKN,M,M,2600.00,3399.00,M,M,M,KGFK 012230Z AUTO 15009KT 10SM SCT026 BKN033 A3008 RMK MADISHF
GFK,2017-04-01 22:35,-97.1761,47.9492,M,M,M,140.00,8.00,M,30.08,M,10.00,M,SCT,BKN,M,M,2600.00,3399.00,M,M,M,KGFK 012235Z AUTO 14008KT 10SM SCT026 BKN033 A3008 RMK MADISHF
GFK,2017-04-01 22:40,-97.1761,47.9492,M,M,M,140.00,7.00,M,30.08,M,10.00,M,SCT,BKN,M,M,2600.00,3399.00,M,M,M,KGFK 012240Z AUTO 14007KT 10SM SCT026 BKN033 A3008 RMK MADISHF
GFK,2017-04-01 22:45,-97.1761,47.9492,M,M,M,150.00,7.00,M,30.08,M,10.00,M,SCT,BKN,M,M,2600.00,3399.00,M,M,M,KGFK 012245Z AUTO 15007KT 10SM SCT026 BKN033 A3008 RMK MADISHF
GFK,2017-04-01 22:50,-97.1761,47.9492,M,M,M,160.00,9.00,M,30.08,M,10.00,M,SCT,BKN,M,M,2600.00,3399.00,M,M,M,KGFK 012250Z AUTO 16009KT 10SM SCT026 BKN033 A3008 RMK MADISHF
GFK,2017-04-01 22:53,-97.1761,47.9492,52.00,43.00,71.28,150.00,7.00,0.00,30.08,1019.20,10.00,M,SCT,BKN,BKN,M,2300.00,3400.00,20000.00,M,M,KGFK 012253Z 15007KT 10SM SCT023 BKN034 BKN200 11/06 A3008 RMK AO2 SLP192 T01110061
GFK,2017-04-01 22:55,-97.1761,47.9492,M,M,M,130.00,9.00,M,30.08,M,10.00,M,FEW,M,M,M,2300.00,M,M,M,M,KGFK 012255Z AUTO 13009KT 10SM FEW023 A3008 RMK MADISHF
GFK,2017-04-01 23:00,-97.1761,47.9492,M,M,M,140.00,8.00,M,30.08,M,10.00,M,FEW,M,M,M,2300.00,M,M,M,M,KGFK 012300Z AUTO 14008KT 10SM FEW023 A3008 RMK MADISHF
GFK,2017-04-01 23:05,-97.1761,47.9492,M,M,M,140.00,9.00,M,30.07,M,10.00,M,FEW,M,M,M,2200.00,M,M,M,M,KGFK 012305Z AUTO 14009KT 10SM FEW022 A3007 RMK MADISHF
GFK,2017-04-01 23:10,-97.1761,47.9492,M,M,M,140.00,9.00,M,30.07,M,10.00,M,FEW,M,M,M,2200.00,M,M,M,M,KGFK 012310Z AUTO 14009KT 10SM FEW022 A3007 RMK MADISHF
GFK,2017-04-01 23:15,-97.1761,47.9492,M,M,M,150.00,10.00,M,30.07,M,10.00,M,FEW,M,M,M,2200.00,M,M,M,M,KGFK 012315Z AUTO 15010KT 10SM FEW022 A3007 RMK MADISHF
GFK,2017-04-01 23:20,-97.1761,47.9492,M,M,M,140.00,9.00,M,30.07,M,10.00,M,CLR,M,M,M,M,M,M,M,M,KGFK 012320Z AUTO 14009KT 10SM CLR A3007 RMK MADISHF
GFK,2017-04-01 23:25,-97.1761,47.9492,M,M,M,150.00,10.00,M,30.07,M,10.00,M,CLR,M,M,M,M,M,M,M,M,KGFK 012325Z AUTO 15010KT 10SM CLR A3007 RMK MADISHF
GFK,2017-04-01 23:30,-97.1761,47.9492,M,M,M,150.00,9.00,M,30.07,M,10.00,M,CLR,M,M,M,M,M,M,M,M,KGFK 012330Z AUTO 15009KT 10SM CLR A3007 RMK MADISHF
GFK,2017-04-01 23:35,-97.1761,47.9492,M,M,M,160.00,8.00,M,30.07,M,10.00,M,CLR,M,M,M,M,M,M,M,M,KGFK 012335Z AUTO 16008KT 10SM CLR A3007 RMK MADISHF
GFK,2017-04-01 23:40,-97.1761,47.9492,M,M,M,140.00,9.00,M,30.07,M,10.00,M,CLR,M,M,M,M,M,M,M,M,KGFK 012340Z AUTO 14009KT 10SM CLR A3007 RMK MADISHF
GFK,2017-04-01 23:45,-97.1761,47.9492,M,M,M,150.00,8.00,M,30.07,M,10.00,M,CLR,M,M,M,M,M,M,M,M,KGFK 012345Z AUTO 15008KT 10SM CLR A3007 RMK MADISHF
GFK,2017-04-01 23:50,-97.1761,47.9492,M,M,M,150.00,8.00,M,30.07,M,10.00,M,FEW,SCT,M,M,3800.00,6000.00,M,M,M,KGFK 012350Z AUTO 15008KT 10SM FEW038 SCT060 A3007 RMK MADISHF
GFK,2017-04-01 23:53,-97.1761,47.9492,51.10,44.10,76.86,150.00,8.00,0.00,30.06,1018.80,10.00,M,FEW,SCT,BKN,M,3800.00,6000.00,25000.00,M,M,KGFK 012353Z 15008KT 10SM FEW038 SCT060 BKN250 11/07 A3006 RMK AO2 SLP188 T01060067 10111 20089 56023
GFK,2017-04-01 23:55,-97.1761,47.9492,M,M,M,150.00,7.00,M,30.06,M,10.00,M,CLR,M,M,M,M,M,M,M,M,KGFK 012355Z AUTO 15007KT 10SM CLR A3006 RMK MADISHF
