#DEBUG: Format Typ    -> comma
#DEBUG: Time Period   -> 2017-04-01 00:00:00+00:00 2017-04-02 00:00:00+00:00
#DEBUG: Time Zone     -> Etc/UTC
#DEBUG: Data Contact   -> daryl herzmann akrherz@iastate.edu 515-294-5978
#DEBUG: Entries Found -> -1
station,valid,lon,lat,tmpf, dwpf, relh, drct, sknt, p01i, alti, mslp, vsby, gust, skyc1, skyc2, skyc3, skyc4, skyl1, skyl2, skyl3, skyl4, presentwx, metar
GFL,2017-04-01 00:00,-73.6103,43.3412,M,M,M,30.00,6.00,0.01,29.92,M,6.00,M,SCT,OVC,M,M,2800.00,3700.00,M,M,-RA BR,KGFL 010000Z AUTO 03006KT 6SM -RA BR SCT028 OVC037 A2992 RMK P0001 MADISHF
GFL,2017-04-01 00:01,-73.6103,43.3412,35.10,30.90,84.49,30.00,7.00,0.01,29.92,M,6.00,M,SCT,OVC,M,M,2800.00,3700.00,M,M,-RA BR,KGFL 010001Z AUTO 03007KT 6SM -RA BR SCT028 OVC037 02/M01 A2992 RMK AO2 P0001 T00171006
GFL,2017-04-01 00:05,-73.6103,43.3412,M,M,M,30.00,7.00,0.02,29.92,M,6.00,M,SCT,OVC,M,M,2800.00,3700.00,M,M,-RA BR,KGFL 010005Z AUTO 03007KT 6SM -RA BR SCT028 OVC037 A2992 RMK P0002 MADISHF
GFL,2017-04-01 00:10,-73.6103,43.3412,M,M,M,30.00,7.00,0.02,29.92,M,5.00,M,FEW,OVC,M,M,2800.00,3700.00,M,M,-RA BR,KGFL 010010Z AUTO 03007KT 5SM -RA BR FEW028 OVC037 A2992 RMK P0002 MADISHF
GFL,2017-04-01 00:15,-73.6103,43.3412,M,M,M,30.00,7.00,0.03,29.92,M,5.00,M,FEW,OVC,M,M,2800.00,3700.00,M,M,-RA BR,KGFL 010015Z AUTO 03007KT 5SM -RA BR FEW028 OVC037 A2992 RMK P0003 MADISHF
GFL,2017-04-01 00:20,-73.6103,43.3412,M,M,M,30.00,7.00,0.04,29.92,M,6.00,M,FEW,OVC,M,M,2800.00,3700.00,M,M,-RA BR,KGFL 010020Z AUTO 03007KT 6SM -RA BR FEW028 OVC037 A2992 RMK P0004 MADISHF
GFL,2017-04-01 00:25,-73.6103,43.3412,M,M,M,30.00,7.00,0.05,29.91,M,6.00,M,FEW,OVC,M,M,2800.00,3500.00,M,M,-RA BR,KGFL 010025Z AUTO 03007KT 6SM -RA BR FEW028 OVC035 A2991 RMK P0005 MADISHF
GFL,2017-04-01 00:30,-73.6103,43.3412,M,M,M,30.00,6.00,0.06,29.92,M,5.00,M,FEW,OVC,M,M,3000.00,3500.00,M,M,-RA BR,KGFL 010030Z AUTO 03006KT 5SM -RA BR FEW030 OVC035 A2992 RMK P0006 MADISHF
GFL,2017-04-01 00:50,-73.6103,43.3412,M,M,M,20.00,7.00,0.09,29.91,M,5.00,M,OVC,M,M,M,3100.00,M,M,M,-RA BR,KGFL 010050Z AUTO 02007KT 5SM -RA BR OVC031 A2991 RMK P0009 MADISHF
GFL,2017-04-01 00:53,-73.6103,43.3412,35.10,30.90,84.49,20.00,7.00,0.09,29.91,1013.70,5.00,M,OVC,M,M,M,2900.00,M,M,M,-RA BR,KGFL 010053Z AUTO 02007KT 5SM -RA BR OVC029 02/M01 A2991 RMK AO2 SLP137 P0009 T00171006
GFL,2017-04-01 00:55,-73.6103,43.3412,M,M,M,30.00,7.00,M,29.91,M,5.00,M,OVC,M,M,M,2900.00,M,M,M,-RA BR,KGFL 010055Z AUTO 03007KT 5SM -RA BR OVC029 A2991 RMK MADISHF
GFL,2017-04-01 01:00,-73.6103,43.3412,M,M,M,30.00,8.00,0.01,29.91,M,5.00,M,OVC,M,M,M,3000.00,M,M,M,-RA BR,KGFL 010100Z AUTO 03008KT 5SM -RA BR OVC030 A2991 RMK P0001 MADISHF
GFL,2017-04-01 01:05,-73.6103,43.3412,M,M,M,30.00,7.00,0.02,29.91,M,6.00,M,BKN,OVC,M,M,2800.00,3300.00,M,M,-RA BR,KGFL 010105Z AUTO 03007KT 6SM -RA BR BKN028 OVC033 A2991 RMK P0002 MADISHF
GFL,2017-04-01 01:10,-73.6103,43.3412,M,M,M,30.00,7.00,0.02,29.91,M,6.00,M,BKN,OVC,M,M,2800.00,3300.00,M,M,-RA BR,KGFL 010110Z AUTO 03007KT 6SM -RA BR BKN028 OVC033 A2991 RMK P0002 MADISHF
GFL,2017-04-01 01:15,-73.6103,43.3412,M,M,M,30.00,8.00,0.03,29.91,M,6.00,M,SCT,OVC,M,M,2800.00,3300.00,M,M,-RA BR,KGFL 010115Z AUTO 03008KT 6SM -RA BR SCT028 OVC033 A2991 RMK P0003 MADISHF
GFL,2017-04-01 01:20,-73.6103,43.3412,35.10,30.90,84.49,30.00,8.00,0.03,29.91,M,6.00,M,SCT,OVC,M,M,2800.00,3300.00,M,M,-RA BR,KGFL 010120Z AUTO 03008KT 6SM -RA BR SCT028 OVC033 02/M01 A2991 RMK AO2 P0003 T00171006
GFL,2017-04-01 01:25,-73.6103,43.3412,M,M,M,30.00,7.00,0.04,29.91,M,6.00,M,OVC,M,M,M,3399.00,M,M,M,-RA BR,KGFL 010125Z AUTO 03007KT 6SM -RA BR OVC033 A2991 RMK P0004 MADISHF
GFL,2017-04-01 01:30,-73.6103,43.3412,M,M,M,40.00,7.00,0.05,29.91,M,6.00,M,SCT,OVC,M,M,2900.00,3399.00,M,M,-RA BR,KGFL 010130Z AUTO 04007KT 6SM -RA BR SCT029 OVC033 A2991 RMK P0005 MADISHF
GFL,2017-04-01 01:35,-73.6103,43.3412,M,M,M,30.00,8.00,0.05,29.91,M,7.00,M,SCT,OVC,M,M,2900.00,3399.00,M,M,-RA,KGFL 010135Z AUTO 03008KT 7SM -RA SCT029 OVC033 A2991 RMK P0005 MADISHF
GFL,2017-04-01 01:45,-73.6103,43.3412,M,M,M,40.00,7.00,0.06,29.91,M,6.00,M,OVC,M,M,M,3200.00,M,M,M,-RA BR,KGFL 010145Z AUTO 04007KT 6SM -RA BR OVC032 A2991 RMK P0006 MADISHF
GFL,2017-04-01 01:50,-73.6103,43.3412,M,M,M,30.00,6.00,0.07,29.91,M,6.00,M,OVC,M,M,M,3200.00,M,M,M,-RA BR,KGFL 010150Z AUTO 03006KT 6SM -RA BR OVC032 A2991 RMK P0007 MADISHF
GFL,2017-04-01 01:53,-73.6103,43.3412,35.10,30.90,84.49,40.00,6.00,0.07,29.90,1013.30,6.00,M,OVC,M,M,M,3100.00,M,M,M,-RA BR,KGFL 010153Z AUTO 04006KT 6SM -RA BR OVC031 02/M01 A2990 RMK AO2 SLP133 P0007 T00171006
GFL,2017-04-01 01:55,-73.6103,43.3412,M,M,M,40.00,7.00,M,29.90,M,7.00,M,OVC,M,M,M,3100.00,M,M,M,-RA,KGFL 010155Z AUTO 04007KT 7SM -RA OVC031 A2990 RMK MADISHF
GFL,2017-04-01 02:00,-73.6103,43.3412,M,M,M,40.00,7.00,0.01,29.91,M,6.00,M,OVC,M,M,M,3100.00,M,M,M,-RA BR,KGFL 010200Z AUTO 04007KT 6SM -RA BR OVC031 A2991 RMK P0001 MADISHF
GFL,2017-04-01 02:05,-73.6103,43.3412,M,M,M,40.00,7.00,0.02,29.90,M,5.00,M,OVC,M,M,M,3100.00,M,M,M,-RA BR,KGFL 010205Z AUTO 04007KT 5SM -RA BR OVC031 A2990 RMK P0002 MADISHF
GFL,2017-04-01 02:10,-73.6103,43.3412,M,M,M,40.00,8.00,0.02,29.90,M,5.00,M,OVC,M,M,M,3100.00,M,M,M,-RA BR,KGFL 010210Z AUTO 04008KT 5SM -RA BR OVC031 A2990 RMK P0002 MADISHF
GFL,2017-04-01 02:15,-73.6103,43.3412,M,M,M,30.00,7.00,0.03,29.90,M,6.00,M,OVC,M,M,M,3100.00,M,M,M,-RA BR,KGFL 010215Z AUTO 03007KT 6SM -RA BR OVC031 A2990 RMK P0003 MADISHF
GFL,2017-04-01 02:20,-73.6103,43.3412,M,M,M,30.00,6.00,0.03,29.90,M,6.00,M,OVC,M,M,M,3100.00,M,M,M,-RA BR,KGFL 010220Z AUTO 03006KT 6SM -RA BR OVC031 A2990 RMK P0003 MADISHF
GFL,2017-04-01 02:40,-73.6103,43.3412,M,M,M,40.00,8.00,0.07,29.89,M,5.00,M,OVC,M,M,M,3100.00,M,M,M,RA BR,KGFL 010240Z AUTO 04008KT 5SM RA BR OVC031 A2989 RMK P0007 MADISHF
GFL,2017-04-01 02:45,-73.6103,43.3412,M,M,M,40.00,8.00,0.08,29.89,M,5.00,M,OVC,M,M,M,3000.00,M,M,M,RA BR,KGFL 010245Z AUTO 04008KT 5SM RA BR OVC030 A2989 RMK P0008 MADISHF
GFL,2017-04-01 02:50,-73.6103,43.3412,M,M,M,40.00,9.00,0.10,29.88,M,5.00,M,OVC,M,M,M,3000.00,M,M,M,RA BR,KGFL 010250Z AUTO 04009KT 5SM RA BR OVC030 A2988 RMK P0010 MADISHF
GFL,2017-04-01 02:53,-73.6103,43.3412,34.00,30.00,85.11,50.00,8.00,0.10,29.88,1012.60,5.00,M,OVC,M,M,M,3000.00,M,M,M,RA BR,KGFL 010253Z AUTO 05008KT 5SM RA BR OVC030 01/M01 A2988 RMK AO2 SLP126 P0010 60026 T00111011 58013
GFL,2017-04-01 02:55,-73.6103,43.3412,M,M,M,50.00,8.00,0.01,29.88,M,5.00,M,OVC,M,M,M,3000.00,M,M,M,RA BR,KGFL 010255Z AUTO 05008KT 5SM RA BR OVC030 A2988 RMK P0001 MADISHF
GFL,2017-04-01 03:00,-73.6103,43.3412,M,M,M,40.00,7.00,0.02,29.88,M,5.00,M,OVC,M,M,M,3100.00,M,M,M,-RA BR,KGFL 010300Z AUTO 04007KT 5SM -RA BR OVC031 A2988 RMK P0002 MADISHF
GFL,2017-04-01 03:05,-73.6103,43.3412,M,M,M,40.00,8.00,0.02,29.88,M,5.00,M,OVC,M,M,M,3100.00,M,M,M,-RA BR,KGFL 010305Z AUTO 04008KT 5SM -RA BR OVC031 A2988 RMK P0002 MADISHF
GFL,2017-04-01 03:10,-73.6103,43.3412,M,M,M,30.00,7.00,0.03,29.88,M,5.00,M,OVC,M,M,M,3100.00,M,M,M,-RA BR,KGFL 010310Z AUTO 03007KT 5SM -RA BR OVC031 A2988 RMK P0003 MADISHF
GFL,2017-04-01 03:15,-73.6103,43.3412,M,M,M,30.00,7.00,0.04,29.88,M,5.00,M,OVC,M,M,M,3100.00,M,M,M,RA BR,KGFL 010315Z AUTO 03007KT 5SM RA BR OVC031 A2988 RMK P0004 MADISHF
GFL,2017-04-01 03:20,-73.6103,43.3412,M,M,M,30.00,7.00,0.05,29.87,M,5.00,M,OVC,M,M,M,3100.00,M,M,M,-RA BR,KGFL 010320Z AUTO 03007KT 5SM -RA BR OVC031 A2987 RMK P0005 MADISHF
GFL,2017-04-01 03:25,-73.6103,43.3412,M,M,M,30.00,8.00,0.06,29.87,M,5.00,M,OVC,M,M,M,3100.00,M,M,M,RA BR,KGFL 010325Z AUTO 03008KT 5SM RA BR OVC031 A2987 RMK P0006 MADISHF
GFL,2017-04-01 03:30,-73.6103,43.3412,M,M,M,40.00,9.00,0.07,29.87,M,5.00,M,SCT,OVC,M,M,2900.00,3399.00,M,M,RA BR,KGFL 010330Z AUTO 04009KT 5SM RA BR SCT029 OVC033 A2987 RMK P0007 MADISHF
GFL,2017-04-01 03:35,-73.6103,43.3412,M,M,M,30.00,8.00,0.08,29.87,M,6.00,M,OVC,M,M,M,3200.00,M,M,M,-RA BR,KGFL 010335Z AUTO 03008KT 6SM -RA BR OVC032 A2987 RMK P0008 MADISHF
GFL,2017-04-01 03:53,-73.6103,43.3412,34.00,30.90,88.27,30.00,6.00,0.11,29.88,1012.40,5.00,M,OVC,M,M,M,3200.00,M,M,M,RA BR,KGFL 010353Z AUTO 03006KT 5SM RA BR OVC032 01/M01 A2988 RMK AO2 SLP124 P0011 T00111006
GFL,2017-04-01 04:05,-73.6103,43.3412,M,M,M,30.00,7.00,0.01,29.88,M,6.00,M,OVC,M,M,M,3300.00,M,M,M,-RA BR,KGFL 010405Z AUTO 03007KT 6SM -RA BR OVC033 A2988 RMK P0001 MADISHF
GFL,2017-04-01 04:10,-73.6103,43.3412,M,M,M,30.00,7.00,0.01,29.88,M,6.00,M,OVC,M,M,M,3300.00,M,M,M,-RA BR,KGFL 010410Z AUTO 03007KT 6SM -RA BR OVC033 A2988 RMK P0001 MADISHF
GFL,2017-04-01 04:15,-73.6103,43.3412,M,M,M,20.00,7.00,0.02,29.88,M,5.00,M,OVC,M,M,M,3300.00,M,M,M,-RA BR,KGFL 010415Z AUTO 02007KT 5SM -RA BR OVC033 A2988 RMK P0002 MADISHF
GFL,2017-04-01 04:20,-73.6103,43.3412,M,M,M,20.00,8.00,0.02,29.88,M,4.00,M,OVC,M,M,M,3300.00,M,M,M,-RA BR,KGFL 010420Z AUTO 02008KT 4SM -RA BR OVC033 A2988 RMK P0002 MADISHF
GFL,2017-04-01 04:25,-73.6103,43.3412,M,M,M,20.00,7.00,0.03,29.88,M,5.00,M,OVC,M,M,M,3300.00,M,M,M,-RA BR,KGFL 010425Z AUTO 02007KT 5SM -RA BR OVC033 A2988 RMK P0003 MADISHF
GFL,2017-04-01 04:30,-73.6103,43.3412,M,M,M,10.00,7.00,0.03,29.88,M,6.00,M,OVC,M,M,M,3300.00,M,M,M,-SN BR,KGFL 010430Z AUTO 01007KT 6SM -SN BR OVC033 A2988 RMK P0003 MADISHF
GFL,2017-04-01 04:35,-73.6103,43.3412,M,M,M,10.00,6.00,0.03,29.88,M,5.00,M,OVC,M,M,M,3300.00,M,M,M,-SN BR,KGFL 010435Z AUTO 01006KT 5SM -SN BR OVC033 A2988 RMK P0003 MADISHF
GFL,2017-04-01 04:40,-73.6103,43.3412,M,M,M,20.00,7.00,0.03,29.88,M,3.00,M,OVC,M,M,M,3100.00,M,M,M,-SN BR,KGFL 010440Z AUTO 02007KT 3SM -SN BR OVC031 A2988 RMK P0003 MADISHF
GFL,2017-04-01 04:45,-73.6103,43.3412,M,M,M,20.00,8.00,0.04,29.88,M,2.50,M,OVC,M,M,M,3100.00,M,M,M,-SN BR,KGFL 010445Z AUTO 02008KT 2 1/2SM -SN BR OVC031 A2988 RMK P0004 MADISHF
GFL,2017-04-01 04:49,-73.6103,43.3412,33.80,30.20,86.49,20.00,6.00,0.04,29.88,M,2.50,M,OVC,M,M,M,3100.00,M,M,M,-SN BR,KGFL 010449Z AUTO 02006KT 2 1/2SM -SN BR OVC031 01/M01 A2988 RMK AO2 RAE30SNB30 P0004
GFL,2017-04-01 04:50,-73.6103,43.3412,M,M,M,20.00,7.00,0.04,29.88,M,2.50,M,OVC,M,M,M,3100.00,M,M,M,-SN BR,KGFL 010450Z AUTO 02007KT 2 1/2SM -SN BR OVC031 A2988 RMK P0004 MADISHF
GFL,2017-04-01 04:53,-73.6103,43.3412,33.10,30.00,88.23,20.00,7.00,0.05,29.88,1012.50,3.00,M,OVC,M,M,M,3100.00,M,M,M,-SN BR,KGFL 010453Z AUTO 02007KT 3SM -SN BR OVC031 01/M01 A2988 RMK AO2 RAE30SNB30 SLP125 P0005 T00061011 400171006
GFL,2017-04-01 05:00,-73.6103,43.3412,M,M,M,10.00,7.00,M,29.88,M,5.00,M,FEW,OVC,M,M,2900.00,3399.00,M,M,-SN BR,KGFL 010500Z AUTO 01007KT 5SM -SN BR FEW029 OVC033 A2988 RMK MADISHF
GFL,2017-04-01 05:05,-73.6103,43.3412,M,M,M,10.00,6.00,M,29.88,M,7.00,M,OVC,M,M,M,3399.00,M,M,M,-RA,KGFL 010505Z AUTO 01006KT 7SM -RA OVC033 A2988 RMK MADISHF
GFL,2017-04-01 05:10,-73.6103,43.3412,M,M,M,10.00,7.00,M,29.88,M,6.00,M,OVC,M,M,M,3600.00,M,M,M,-SN BR,KGFL 010510Z AUTO 01007KT 6SM -SN BR OVC036 A2988 RMK MADISHF
GFL,2017-04-01 05:15,-73.6103,43.3412,M,M,M,20.00,8.00,M,29.88,M,5.00,M,OVC,M,M,M,3600.00,M,M,M,-SN BR,KGFL 010515Z AUTO 02008KT 5SM -SN BR OVC036 A2988 RMK MADISHF
GFL,2017-04-01 05:20,-73.6103,43.3412,M,M,M,20.00,7.00,0.01,29.88,M,4.00,M,OVC,M,M,M,3600.00,M,M,M,-SN BR,KGFL 010520Z AUTO 02007KT 4SM -SN BR OVC036 A2988 RMK P0001 MADISHF
GFL,2017-04-01 05:25,-73.6103,43.3412,M,M,M,20.00,7.00,0.01,29.88,M,3.00,M,OVC,M,M,M,3399.00,M,M,M,-SN BR,KGFL 010525Z AUTO 02007KT 3SM -SN BR OVC033 A2988 RMK P0001 MADISHF
GFL,2017-04-01 05:30,-73.6103,43.3412,M,M,M,20.00,7.00,0.01,29.87,M,2.50,M,OVC,M,M,M,3399.00,M,M,M,-SN BR,KGFL 010530Z AUTO 02007KT 2 1/2SM -SN BR OVC033 A2987 RMK P0001 MADISHF
GFL,2017-04-01 05:34,-73.6103,43.3412,33.10,30.00,88.23,10.00,7.00,0.02,29.87,M,2.50,M,OVC,M,M,M,3200.00,M,M,M,-SN BR,KGFL 010534Z AUTO 01007KT 2 1/2SM -SN BR OVC032 01/M01 A2987 RMK AO2 RAB01E10 P0002 T00061011
GFL,2017-04-01 05:35,-73.6103,43.3412,M,M,M,20.00,7.00,0.02,29.87,M,2.50,M,OVC,M,M,M,3200.00,M,M,M,-SN BR,KGFL 010535Z AUTO 02007KT 2 1/2SM -SN BR OVC032 A2987 RMK P0002 MADISHF
GFL,2017-04-01 05:40,-73.6103,43.3412,M,M,M,20.00,7.00,0.02,29.87,M,2.50,M,OVC,M,M,M,3200.00,M,M,M,-SN BR,KGFL 010540Z AUTO 02007KT 2 1/2SM -SN BR OVC032 A2987 RMK P0002 MADISHF
GFL,2017-04-01 05:45,-73.6103,43.3412,M,M,M,20.00,7.00,0.02,29.87,M,2.00,M,OVC,M,M,M,3000.00,M,M,M,-SN BR,KGFL 010545Z AUTO 02007KT 2SM -SN BR OVC030 A2987 RMK P0002 MADISHF
GFL,2017-04-01 05:50,-73.6103,43.3412,M,M,M,20.00,8.00,0.03,29.87,M,1.75,M,OVC,M,M,M,3000.00,M,M,M,-SN BR,KGFL 010550Z AUTO 02008KT 2SM -SN BR OVC030 A2987 RMK P0003 MADISHF
GFL,2017-04-01 05:53,-73.6103,43.3412,33.10,30.00,88.23,20.00,10.00,0.03,29.87,1012.30,1.50,M,OVC,M,M,M,2800.00,M,M,M,-SN BR,KGFL 010553Z AUTO 02010KT 1 1/2SM -SN BR OVC028 01/M01 A2987 RMK AO2 RAB01E10 SLP123 P0003 60045 T00061011 10017 20006 58002
GFL,2017-04-01 05:55,-73.6103,43.3412,M,M,M,20.00,9.00,M,29.87,M,1.50,M,OVC,M,M,M,2800.00,M,M,M,-SN BR,KGFL 010555Z AUTO 02009KT 1 1/2SM -SN BR OVC028 A2987 RMK MADISHF
GFL,2017-04-01 06:00,-73.6103,43.3412,M,M,M,20.00,8.00,M,29.87,M,1.25,M,OVC,M,M,M,2600.00,M,M,M,-SN BR,KGFL 010600Z AUTO 02008KT 1 1/2SM -SN BR OVC026 A2987 RMK MADISHF
GFL,2017-04-01 06:05,-73.6103,43.3412,M,M,M,20.00,8.00,0.01,29.87,M,1.50,M,OVC,M,M,M,2600.00,M,M,M,-SN BR,KGFL 010605Z AUTO 02008KT 1 1/2SM -SN BR OVC026 A2987 RMK P0001 MADISHF
GFL,2017-04-01 06:10,-73.6103,43.3412,M,M,M,20.00,8.00,0.01,29.87,M,2.00,M,OVC,M,M,M,2800.00,M,M,M,-SN BR,KGFL 010610Z AUTO 02008KT 2SM -SN BR OVC028 A2987 RMK P0001 MADISHF
GFL,2017-04-01 06:14,-73.6103,43.3412,33.10,30.00,88.23,20.00,9.00,0.01,29.87,M,2.50,M,OVC,M,M,M,3000.00,M,M,M,-SN BR,KGFL 010614Z AUTO 02009KT 2 1/2SM -SN BR OVC030 01/M01 A2987 RMK AO2 P0001 T00061011
GFL,2017-04-01 06:15,-73.6103,43.3412,M,M,M,20.00,8.00,0.01,29.87,M,3.00,M,OVC,M,M,M,3000.00,M,M,M,-SN BR,KGFL 010615Z AUTO 02008KT 3SM -SN BR OVC030 A2987 RMK P0001 MADISHF
GFL,2017-04-01 06:20,-73.6103,43.3412,M,M,M,20.00,10.00,0.01,29.87,M,5.00,M,OVC,M,M,M,3200.00,M,M,M,-SN BR,KGFL 010620Z AUTO 02010KT 5SM -SN BR OVC032 A2987 RMK P0001 MADISHF
GFL,2017-04-01 06:21,-73.6103,43.3412,33.10,30.00,88.23,20.00,10.00,0.01,29.87,M,5.00,M,OVC,M,M,M,3200.00,M,M,M,-SN BR,KGFL 010621Z AUTO 02010KT 5SM -SN BR OVC032 01/M01 A2987 RMK AO2 P0001 T00061011
GFL,2017-04-01 06:30,-73.6103,43.3412,M,M,M,30.00,9.00,0.01,29.86,M,9.00,M,OVC,M,M,M,3600.00,M,M,M,UP,KGFL 010630Z AUTO 03009KT 9SM UP OVC036 A2986 RMK P0001 MADISHF
GFL,2017-04-01 06:35,-73.6103,43.3412,M,M,M,20.00,11.00,0.01,29.86,M,8.00,M,OVC,M,M,M,3800.00,M,M,M,UP,KGFL 010635Z AUTO 02011KT 8SM UP OVC038 A2986 RMK P0001 MADISHF
GFL,2017-04-01 06:40,-73.6103,43.3412,M,M,M,20.00,10.00,0.01,29.86,M,7.00,M,OVC,M,M,M,3800.00,M,M,M,-SN,KGFL 010640Z AUTO 02010KT 7SM -SN OVC038 A2986 RMK P0001 MADISHF
GFL,2017-04-01 06:45,-73.6103,43.3412,M,M,M,20.00,11.00,0.01,29.86,M,7.00,M,OVC,M,M,M,3900.00,M,M,M,-SN,KGFL 010645Z AUTO 02011KT 7SM -SN OVC039 A2986 RMK P0001 MADISHF
GFL,2017-04-01 06:50,-73.6103,43.3412,M,M,M,20.00,10.00,0.01,29.86,M,6.00,M,OVC,M,M,M,3900.00,M,M,M,-SN BR,KGFL 010650Z AUTO 02010KT 6SM -SN BR OVC039 A2986 RMK P0001 MADISHF
GFL,2017-04-01 06:53,-73.6103,43.3412,33.10,30.00,88.23,20.00,10.00,0.01,29.86,1012.00,4.00,M,OVC,M,M,M,3700.00,M,M,M,-SN BR,KGFL 010653Z AUTO 02010KT 4SM -SN BR OVC037 01/M01 A2986 RMK AO2 UPB26E36SNE26B36 SLP120 P0001 T00061011
GFL,2017-04-01 07:03,-73.6103,43.3412,33.10,30.00,88.23,20.00,10.00,0.01,29.86,M,2.00,M,OVC,M,M,M,3300.00,M,M,M,-SN BR,KGFL 010703Z AUTO 02010KT 2SM -SN BR OVC033 01/M01 A2986 RMK AO2 P0001 T00061011
GFL,2017-04-01 07:05,-73.6103,43.3412,M,M,M,20.00,9.00,0.01,29.86,M,2.00,M,OVC,M,M,M,3100.00,M,M,M,-SN BR,KGFL 010705Z AUTO 02009KT 2SM -SN BR OVC031 A2986 RMK P0001 MADISHF
GFL,2017-04-01 07:10,-73.6103,43.3412,M,M,M,20.00,10.00,0.01,29.86,M,2.00,M,OVC,M,M,M,2900.00,M,M,M,-SN BR,KGFL 010710Z AUTO 02010KT 2SM -SN BR OVC029 A2986 RMK P0001 MADISHF
GFL,2017-04-01 07:14,-73.6103,43.3412,33.10,30.00,88.23,20.00,9.00,0.01,29.86,M,2.00,M,OVC,M,M,M,2700.00,M,M,M,-SN BR,KGFL 010714Z AUTO 02009KT 2SM -SN BR OVC027 01/M01 A2986 RMK AO2 P0001 T00061011
GFL,2017-04-01 07:15,-73.6103,43.3412,M,M,M,20.00,9.00,0.01,29.86,M,1.75,M,OVC,M,M,M,2500.00,M,M,M,-SN BR,KGFL 010715Z AUTO 02009KT 2SM -SN BR OVC025 A2986 RMK P0001 MADISHF
GFL,2017-04-01 07:20,-73.6103,43.3412,M,M,M,20.00,9.00,0.01,29.86,M,1.50,M,OVC,M,M,M,2500.00,M,M,M,-SN BR,KGFL 010720Z AUTO 02009KT 1 1/2SM -SN BR OVC025 A2986 RMK P0001 MADISHF
GFL,2017-04-01 07:21,-73.6103,43.3412,33.10,30.00,88.23,20.00,10.00,0.01,29.86,M,1.50,M,OVC,M,M,M,2500.00,M,M,M,-SN BR,KGFL 010721Z AUTO 02010KT 1 1/2SM -SN BR OVC025 01/M01 A2986 RMK AO2 P0001 T00061011
GFL,2017-04-01 07:25,-73.6103,43.3412,M,M,M,20.00,8.00,0.01,29.86,M,1.50,M,OVC,M,M,M,2700.00,M,M,M,-SN BR,KGFL 010725Z AUTO 02008KT 1 1/2SM -SN BR OVC027 A2986 RMK P0001 MADISHF
GFL,2017-04-01 07:30,-73.6103,43.3412,M,M,M,20.00,8.00,0.02,29.86,M,1.75,M,OVC,M,M,M,3100.00,M,M,M,-SN BR,KGFL 010730Z AUTO 02008KT 2SM -SN BR OVC031 A2986 RMK P0002 MADISHF
GFL,2017-04-01 07:33,-73.6103,43.3412,33.10,30.00,88.23,20.00,9.00,0.02,29.86,M,2.00,M,OVC,M,M,M,3100.00,M,M,M,-SN BR,KGFL 010733Z AUTO 02009KT 2SM -SN BR OVC031 01/M01 A2986 RMK AO2 P0002 T00061011
GFL,2017-04-01 07:43,-73.6103,43.3412,33.10,30.00,88.23,10.00,9.00,0.02,29.85,M,6.00,M,OVC,M,M,M,3700.00,M,M,M,-SN BR,KGFL 010743Z AUTO 01009KT 6SM -SN BR OVC037 01/M01 A2985 RMK AO2 P0002 T00061011
GFL,2017-04-01 07:50,-73.6103,43.3412,M,M,M,10.00,9.00,0.02,29.85,M,8.00,M,OVC,M,M,M,4100.00,M,M,M,M,KGFL 010750Z AUTO 01009KT 8SM OVC041 A2985 RMK P0002 MADISHF
GFL,2017-04-01 07:53,-73.6103,43.3412,33.10,30.00,88.23,10.00,9.00,0.02,29.85,1011.70,7.00,M,OVC,M,M,M,4100.00,M,M,M,M,KGFL 010753Z AUTO 01009KT 7SM OVC041 01/M01 A2985 RMK AO2 SNE45 SLP117 P0002 T00061011
GFL,2017-04-01 08:05,-73.6103,43.3412,M,M,M,10.00,9.00,M,29.85,M,7.00,M,OVC,M,M,M,4100.00,M,M,M,M,KGFL 010805Z AUTO 01009KT 7SM OVC041 A2985 RMK MADISHF
GFL,2017-04-01 08:10,-73.6103,43.3412,M,M,M,360.00,6.00,M,29.85,M,9.00,M,OVC,M,M,M,4100.00,M,M,M,M,KGFL 010810Z AUTO 36006KT 9SM OVC041 A2985 RMK MADISHF
GFL,2017-04-01 08:15,-73.6103,43.3412,M,M,M,360.00,7.00,M,29.85,M,10.00,M,OVC,M,M,M,4100.00,M,M,M,M,KGFL 010815Z AUTO 36007KT 10SM OVC041 A2985 RMK MADISHF
GFL,2017-04-01 08:20,-73.6103,43.3412,M,M,M,360.00,7.00,M,29.85,M,10.00,M,OVC,M,M,M,4100.00,M,M,M,M,KGFL 010820Z AUTO 36007KT 10SM OVC041 A2985 RMK MADISHF
GFL,2017-04-01 08:25,-73.6103,43.3412,M,M,M,350.00,6.00,M,29.85,M,10.00,M,OVC,M,M,M,3900.00,M,M,M,M,KGFL 010825Z AUTO 35006KT 10SM OVC039 A2985 RMK MADISHF
GFL,2017-04-01 08:30,-73.6103,43.3412,M,M,M,360.00,8.00,M,29.85,M,10.00,M,OVC,M,M,M,3900.00,M,M,M,M,KGFL 010830Z AUTO 36008KT 10SM OVC039 A2985 RMK MADISHF
GFL,2017-04-01 08:40,-73.6103,43.3412,M,M,M,350.00,7.00,M,29.85,M,10.00,M,OVC,M,M,M,3900.00,M,M,M,M,KGFL 010840Z AUTO 35007KT 10SM OVC039 A2985 RMK MADISHF
GFL,2017-04-01 08:45,-73.6103,43.3412,M,M,M,350.00,8.00,M,29.85,M,10.00,M,OVC,M,M,M,3700.00,M,M,M,M,KGFL 010845Z AUTO 35008KT 10SM OVC037 A2985 RMK MADISHF
GFL,2017-04-01 08:50,-73.6103,43.3412,M,M,M,360.00,9.00,M,29.85,M,10.00,M,OVC,M,M,M,3700.00,M,M,M,M,KGFL 010850Z AUTO 36009KT 10SM OVC037 A2985 RMK MADISHF
GFL,2017-04-01 08:53,-73.6103,43.3412,33.10,30.00,88.23,360.00,8.00,0.00,29.85,1011.70,10.00,M,OVC,M,M,M,3700.00,M,M,M,M,KGFL 010853Z AUTO 36008KT 10SM OVC037 01/M01 A2985 RMK AO2 SLP117 60003 T00061011 55005
GFL,2017-04-01 08:55,-73.6103,43.3412,M,M,M,360.00,8.00,M,29.86,M,10.00,M,OVC,M,M,M,3700.00,M,M,M,M,KGFL 010855Z AUTO 36008KT 10SM OVC037 A2986 RMK MADISHF
GFL,2017-04-01 09:00,-73.6103,43.3412,M,M,M,350.00,7.00,M,29.86,M,10.00,M,OVC,M,M,M,3700.00,M,M,M,M,KGFL 010900Z AUTO 35007KT 10SM OVC037 A2986 RMK MADISHF
GFL,2017-04-01 09:05,-73.6103,43.3412,M,M,M,350.00,8.00,M,29.86,M,10.00,M,OVC,M,M,M,3700.00,M,M,M,M,KGFL 010905Z AUTO 35008KT 10SM OVC037 A2986 RMK MADISHF
GFL,2017-04-01 09:10,-73.6103,43.3412,M,M,M,350.00,8.00,M,29.86,M,10.00,M,OVC,M,M,M,3700.00,M,M,M,M,KGFL 010910Z AUTO 35008KT 10SM OVC037 A2986 RMK MADISHF
GFL,2017-04-01 09:15,-73.6103,43.3412,M,M,M,350.00,8.00,M,29.86,M,10.00,M,OVC,M,M,M,3600.00,M,M,M,M,KGFL 010915Z AUTO 35008KT 10SM OVC036 A2986 RMK MADISHF
GFL,2017-04-01 09:20,-73.6103,43.3412,M,M,M,350.00,8.00,M,29.86,M,9.00,M,OVC,M,M,M,3600.00,M,M,M,M,KGFL 010920Z AUTO 35008KT 9SM OVC036 A2986 RMK MADISHF
GFL,2017-04-01 09:25,-73.6103,43.3412,M,M,M,350.00,8.00,M,29.86,M,8.00,M,FEW,OVC,M,M,2500.00,3600.00,M,M,M,KGFL 010925Z AUTO 35008KT 8SM FEW025 OVC036 A2986 RMK MADISHF
GFL,2017-04-01 09:30,-73.6103,43.3412,M,M,M,350.00,8.00,0.00,29.86,M,8.00,M,FEW,OVC,M,M,2500.00,3399.00,M,M,UP,KGFL 010930Z AUTO 35008KT 8SM UP FEW025 OVC033 A2986 RMK P0000 MADISHF
GFL,2017-04-01 09:35,-73.6103,43.3412,M,M,M,350.00,8.00,0.00,29.86,M,7.00,M,FEW,OVC,M,M,2500.00,3399.00,M,M,UP,KGFL 010935Z AUTO 35008KT 7SM UP FEW025 OVC033 A2986 RMK P0000 MADISHF
GFL,2017-04-01 09:40,-73.6103,43.3412,M,M,M,350.00,8.00,0.00,29.86,M,6.00,M,FEW,OVC,M,M,2500.00,3399.00,M,M,UP BR,KGFL 010940Z AUTO 35008KT 6SM UP BR FEW025 OVC033 A2986 RMK P0000 MADISHF
GFL,2017-04-01 09:45,-73.6103,43.3412,M,M,M,350.00,8.00,0.00,29.86,M,6.00,M,SCT,OVC,M,M,2500.00,3399.00,M,M,UP BR,KGFL 010945Z AUTO 35008KT 6SM UP BR SCT025 OVC033 A2986 RMK P0000 MADISHF
GFL,2017-04-01 09:53,-73.6103,43.3412,33.10,30.00,88.23,350.00,9.00,0.00,29.86,1011.90,6.00,M,FEW,OVC,M,M,2500.00,3500.00,M,M,BR,KGFL 010953Z AUTO 35009KT 6SM BR FEW025 OVC035 01/M01 A2986 RMK AO2 UPB26E46 SLP119 P0000 T00061011
GFL,2017-04-01 09:55,-73.6103,43.3412,M,M,M,350.00,8.00,0.00,29.86,M,7.00,M,FEW,OVC,M,M,2500.00,3500.00,M,M,UP,KGFL 010955Z AUTO 35008KT 7SM UP FEW025 OVC035 A2986 RMK P0000 MADISHF
GFL,2017-04-01 10:00,-73.6103,43.3412,M,M,M,350.00,8.00,0.00,29.86,M,6.00,M,FEW,OVC,M,M,2500.00,3500.00,M,M,UP BR,KGFL 011000Z AUTO 35008KT 6SM UP BR FEW025 OVC035 A2986 RMK P0000 MADISHF
GFL,2017-04-01 10:05,-73.6103,43.3412,M,M,M,360.00,8.00,0.00,29.86,M,5.00,M,FEW,OVC,M,M,2600.00,3700.00,M,M,UP BR,KGFL 011005Z AUTO 36008KT 5SM UP BR FEW026 OVC037 A2986 RMK P0000 MADISHF
GFL,2017-04-01 10:10,-73.6103,43.3412,M,M,M,360.00,9.00,0.00,29.86,M,5.00,M,FEW,OVC,M,M,2600.00,3700.00,M,M,UP BR,KGFL 011010Z AUTO 36009KT 5SM UP BR FEW026 OVC037 A2986 RMK P0000 MADISHF
GFL,2017-04-01 10:15,-73.6103,43.3412,M,M,M,360.00,9.00,M,29.87,M,4.00,M,FEW,OVC,M,M,2800.00,3900.00,M,M,BR,KGFL 011015Z AUTO 36009KT 4SM BR FEW028 OVC039 A2987 RMK MADISHF
GFL,2017-04-01 10:20,-73.6103,43.3412,M,M,M,350.00,9.00,M,29.87,M,4.00,M,SCT,OVC,M,M,2800.00,3900.00,M,M,BR,KGFL 011020Z AUTO 35009KT 4SM BR SCT028 OVC039 A2987 RMK MADISHF
GFL,2017-04-01 10:25,-73.6103,43.3412,M,M,M,360.00,8.00,M,29.87,M,4.00,M,FEW,OVC,M,M,3000.00,3900.00,M,M,BR,KGFL 011025Z AUTO 36008KT 4SM BR FEW030 OVC039 A2987 RMK MADISHF
GFL,2017-04-01 10:30,-73.6103,43.3412,M,M,M,350.00,7.00,M,29.87,M,4.00,M,FEW,OVC,M,M,3200.00,4100.00,M,M,BR,KGFL 011030Z AUTO 35007KT 4SM BR FEW032 OVC041 A2987 RMK MADISHF
GFL,2017-04-01 10:45,-73.6103,43.3412,M,M,M,350.00,7.00,M,29.88,M,6.00,M,OVC,M,M,M,3900.00,M,M,M,BR,KGFL 011045Z AUTO 35007KT 6SM BR OVC039 A2988 RMK MADISHF
GFL,2017-04-01 10:50,-73.6103,43.3412,M,M,M,350.00,7.00,M,29.88,M,5.00,M,OVC,M,M,M,3700.00,M,M,M,BR,KGFL 011050Z AUTO 35007KT 5SM BR OVC037 A2988 RMK MADISHF
GFL,2017-04-01 10:53,-73.6103,43.3412,33.10,30.00,88.23,360.00,8.00,0.00,29.89,1012.80,5.00,M,OVC,M,M,M,3700.00,M,M,M,BR,KGFL 011053Z AUTO 36008KT 5SM BR OVC037 01/M01 A2989 RMK AO2 UPB0954E14 SLP128 P0000 I1000 T00061011
GFL,2017-04-01 10:55,-73.6103,43.3412,M,M,M,360.00,7.00,M,29.89,M,6.00,M,OVC,M,M,M,3700.00,M,M,M,BR,KGFL 011055Z AUTO 36007KT 6SM BR OVC037 A2989 RMK MADISHF
GFL,2017-04-01 11:00,-73.6103,43.3412,M,M,M,350.00,7.00,M,29.89,M,5.00,M,OVC,M,M,M,3500.00,M,M,M,BR,KGFL 011100Z AUTO 35007KT 5SM BR OVC035 A2989 RMK MADISHF
GFL,2017-04-01 11:05,-73.6103,43.3412,M,M,M,350.00,7.00,M,29.89,M,4.00,M,OVC,M,M,M,3300.00,M,M,M,BR,KGFL 011105Z AUTO 35007KT 4SM BR OVC033 A2989 RMK MADISHF
GFL,2017-04-01 11:10,-73.6103,43.3412,M,M,M,350.00,8.00,M,29.89,M,4.00,M,OVC,M,M,M,3100.00,M,M,M,BR,KGFL 011110Z AUTO 35008KT 4SM BR OVC031 A2989 RMK MADISHF
GFL,2017-04-01 11:15,-73.6103,43.3412,M,M,M,350.00,8.00,M,29.89,M,4.00,M,OVC,M,M,M,3100.00,M,M,M,BR,KGFL 011115Z AUTO 35008KT 4SM BR OVC031 A2989 RMK MADISHF
GFL,2017-04-01 11:20,-73.6103,43.3412,M,M,M,350.00,8.00,M,29.89,M,4.00,M,OVC,M,M,M,2900.00,M,M,M,-SN BR,KGFL 011120Z AUTO 35008KT 4SM -SN BR OVC029 A2989 RMK MADISHF
GFL,2017-04-01 11:25,-73.6103,43.3412,M,M,M,350.00,8.00,M,29.89,M,3.00,M,OVC,M,M,M,2900.00,M,M,M,-SN BR,KGFL 011125Z AUTO 35008KT 3SM -SN BR OVC029 A2989 RMK MADISHF
GFL,2017-04-01 11:26,-73.6103,43.3412,33.10,30.00,88.23,350.00,7.00,0.00,29.89,M,2.50,M,OVC,M,M,M,2900.00,M,M,M,-SN BR,KGFL 011126Z AUTO 35007KT 2 1/2SM -SN BR OVC029 01/M01 A2989 RMK AO2 SNB20 P0000 T00061011
GFL,2017-04-01 11:30,-73.6103,43.3412,M,M,M,350.00,7.00,M,29.90,M,2.00,M,OVC,M,M,M,2700.00,M,M,M,-SN BR,KGFL 011130Z AUTO 35007KT 2SM -SN BR OVC027 A2990 RMK MADISHF
GFL,2017-04-01 11:35,-73.6103,43.3412,M,M,M,350.00,8.00,M,29.90,M,1.75,M,FEW,OVC,M,M,1500.00,2700.00,M,M,-SN BR,KGFL 011135Z AUTO 35008KT 2SM -SN BR FEW015 OVC027 A2990 RMK MADISHF
GFL,2017-04-01 11:39,-73.6103,43.3412,33.10,30.00,88.23,350.00,8.00,0.00,29.90,M,1.75,M,OVC,M,M,M,2700.00,M,M,M,-SN BR,KGFL 011139Z AUTO 35008KT 1 3/4SM -SN BR OVC027 01/M01 A2990 RMK AO2 SNB20 P0000 T00061011
GFL,2017-04-01 11:40,-73.6103,43.3412,M,M,M,350.00,8.00,M,29.90,M,1.75,M,BKN,OVC,M,M,2700.00,3900.00,M,M,-SN BR,KGFL 011140Z AUTO 35008KT 2SM -SN BR BKN027 OVC039 A2990 RMK MADISHF
GFL,2017-04-01 11:45,-73.6103,43.3412,M,M,M,350.00,7.00,M,29.90,M,2.00,M,BKN,OVC,M,M,2900.00,3900.00,M,M,-SN BR,KGFL 011145Z AUTO 35007KT 2SM -SN BR BKN029 OVC039 A2990 RMK MADISHF
GFL,2017-04-01 11:49,-73.6103,43.3412,33.80,30.20,86.49,340.00,8.00,0.00,29.90,M,2.50,M,BKN,OVC,M,M,2900.00,4100.00,M,M,-SN BR,KGFL 011149Z AUTO 34008KT 2 1/2SM -SN BR BKN029 OVC041 01/M01 A2990 RMK AO2 SNB20 P0000
GFL,2017-04-01 11:53,-73.6103,43.3412,33.10,30.00,88.23,350.00,7.00,0.00,29.91,1013.40,3.00,M,BKN,OVC,M,M,3100.00,4100.00,M,M,-SN BR,KGFL 011153Z AUTO 35007KT 3SM -SN BR BKN031 OVC041 01/M01 A2991 RMK AO2 SNB20 SLP134 P0000 60003 70093 I6000 T00061011 10006 20006 51015
GFL,2017-04-01 11:55,-73.6103,43.3412,M,M,M,350.00,8.00,M,29.91,M,3.00,M,BKN,OVC,M,M,3100.00,4300.00,M,M,-SN BR,KGFL 011155Z AUTO 35008KT 3SM -SN BR BKN031 OVC043 A2991 RMK MADISHF
GFL,2017-04-01 12:00,-73.6103,43.3412,M,M,M,350.00,9.00,M,29.91,M,4.00,M,BKN,OVC,M,M,3399.00,4500.00,M,M,-SN BR,KGFL 011200Z AUTO 35009KT 4SM -SN BR BKN033 OVC045 A2991 RMK MADISHF
GFL,2017-04-01 12:05,-73.6103,43.3412,M,M,M,350.00,8.00,M,29.91,M,4.00,M,BKN,OVC,M,M,3600.00,4500.00,M,M,-SN BR,KGFL 011205Z AUTO 35008KT 4SM -SN BR BKN036 OVC045 A2991 RMK MADISHF
GFL,2017-04-01 12:10,-73.6103,43.3412,M,M,M,350.00,9.00,0.01,29.91,M,5.00,M,BKN,OVC,M,M,3600.00,4500.00,M,M,-SN BR,KGFL 011210Z AUTO 35009KT 5SM -SN BR BKN036 OVC045 A2991 RMK P0001 MADISHF
GFL,2017-04-01 12:15,-73.6103,43.3412,M,M,M,350.00,8.00,0.01,29.91,M,7.00,M,OVC,M,M,M,4100.00,M,M,M,-SN,KGFL 011215Z AUTO 35008KT 7SM -SN OVC041 A2991 RMK P0001 MADISHF
GFL,2017-04-01 12:20,-73.6103,43.3412,M,M,M,350.00,9.00,0.01,29.91,M,8.00,M,OVC,M,M,M,4300.00,M,M,M,M,KGFL 011220Z AUTO 35009KT 8SM OVC043 A2991 RMK P0001 MADISHF
GFL,2017-04-01 12:45,-73.6103,43.3412,M,M,M,350.00,9.00,0.01,29.92,M,10.00,M,OVC,M,M,M,4500.00,M,M,M,M,KGFL 011245Z AUTO 35009KT 10SM OVC045 A2992 RMK P0001 MADISHF
GFL,2017-04-01 12:50,-73.6103,43.3412,M,M,M,340.00,10.00,0.01,29.92,M,10.00,M,OVC,M,M,M,4500.00,M,M,M,M,KGFL 011250Z AUTO 34010KT 10SM OVC045 A2992 RMK P0001 MADISHF
GFL,2017-04-01 12:53,-73.6103,43.3412,35.10,30.90,84.49,340.00,9.00,0.01,29.92,1013.90,10.00,M,OVC,M,M,M,4500.00,M,M,M,M,KGFL 011253Z AUTO 34009KT 10SM OVC045 02/M01 A2992 RMK AO2 SNE17 SLP139 P0001 T00171006
GFL,2017-04-01 12:55,-73.6103,43.3412,M,M,M,340.00,10.00,M,29.92,M,10.00,M,OVC,M,M,M,4500.00,M,M,M,M,KGFL 011255Z AUTO 34010KT 10SM OVC045 A2992 RMK MADISHF
GFL,2017-04-01 13:00,-73.6103,43.3412,M,M,M,350.00,9.00,M,29.92,M,10.00,M,FEW,OVC,M,M,1699.00,4500.00,M,M,M,KGFL 011300Z AUTO 35009KT 10SM FEW016 OVC045 A2992 RMK MADISHF
GFL,2017-04-01 13:05,-73.6103,43.3412,M,M,M,350.00,9.00,M,29.92,M,10.00,M,FEW,OVC,M,M,1699.00,4700.00,M,M,M,KGFL 011305Z AUTO 35009KT 10SM FEW016 OVC047 A2992 RMK MADISHF
GFL,2017-04-01 13:10,-73.6103,43.3412,M,M,M,350.00,8.00,M,29.92,M,10.00,M,FEW,OVC,M,M,1999.00,4700.00,M,M,M,KGFL 011310Z AUTO 35008KT 10SM FEW019 OVC047 A2992 RMK MADISHF
GFL,2017-04-01 13:15,-73.6103,43.3412,M,M,M,350.00,7.00,M,29.92,M,10.00,M,FEW,FEW,OVC,M,1200.00,3999.00,4700.00,M,M,KGFL 011315Z AUTO 35007KT 10SM FEW012 FEW039 OVC047 A2992 RMK MADISHF
GFL,2017-04-01 13:25,-73.6103,43.3412,M,M,M,340.00,9.00,M,29.93,M,10.00,M,FEW,OVC,M,M,1200.00,4700.00,M,M,M,KGFL 011325Z AUTO 34009KT 10SM FEW012 OVC047 A2993 RMK MADISHF
GFL,2017-04-01 13:30,-73.6103,43.3412,M,M,M,340.00,9.00,M,29.93,M,10.00,M,FEW,OVC,M,M,1200.00,4700.00,M,M,M,KGFL 011330Z AUTO 34009KT 10SM FEW012 OVC047 A2993 RMK MADISHF
GFL,2017-04-01 13:35,-73.6103,43.3412,M,M,M,350.00,9.00,M,29.93,M,10.00,M,FEW,BKN,OVC,M,3700.00,4700.00,5500.00,M,M,KGFL 011335Z AUTO 35009KT 10SM FEW037 BKN047 OVC055 A2993 RMK MADISHF
GFL,2017-04-01 13:40,-73.6103,43.3412,M,M,M,340.00,10.00,M,29.93,M,10.00,M,FEW,OVC,M,M,3700.00,4700.00,M,M,M,KGFL 011340Z AUTO 34010KT 10SM FEW037 OVC047 A2993 RMK MADISHF
GFL,2017-04-01 13:45,-73.6103,43.3412,M,M,M,350.00,7.00,M,29.93,M,10.00,M,OVC,M,M,M,4800.00,M,M,M,M,KGFL 011345Z AUTO 35007KT 10SM OVC048 A2993 RMK MADISHF
GFL,2017-04-01 13:50,-73.6103,43.3412,M,M,M,350.00,9.00,M,29.93,M,10.00,M,FEW,OVC,M,M,1300.00,4800.00,M,M,M,KGFL 011350Z AUTO 35009KT 10SM FEW013 OVC048 A2993 RMK MADISHF
GFL,2017-04-01 13:53,-73.6103,43.3412,35.10,32.00,88.33,350.00,8.00,0.00,29.93,1014.40,10.00,M,FEW,OVC,M,M,1500.00,4800.00,M,M,M,KGFL 011353Z AUTO 35008KT 10SM FEW015 OVC048 02/00 A2993 RMK AO2 SLP144 T00170000
GFL,2017-04-01 13:55,-73.6103,43.3412,M,M,M,350.00,10.00,M,29.93,M,10.00,M,FEW,OVC,M,M,1100.00,4600.00,M,M,M,KGFL 011355Z AUTO 35010KT 10SM FEW011 OVC046 A2993 RMK MADISHF
GFL,2017-04-01 14:05,-73.6103,43.3412,M,M,M,340.00,9.00,M,29.94,M,10.00,M,FEW,BKN,OVC,M,1699.00,4600.00,5500.00,M,M,KGFL 011405Z AUTO 34009KT 10SM FEW016 BKN046 OVC055 A2994 RMK MADISHF
GFL,2017-04-01 14:10,-73.6103,43.3412,M,M,M,340.00,9.00,M,29.94,M,10.00,M,BKN,OVC,M,M,4400.00,5500.00,M,M,M,KGFL 011410Z AUTO 34009KT 10SM BKN044 OVC055 A2994 RMK MADISHF
GFL,2017-04-01 14:15,-73.6103,43.3412,M,M,M,350.00,10.00,M,29.94,M,10.00,M,FEW,BKN,OVC,M,1400.00,4700.00,5500.00,M,M,KGFL 011415Z AUTO 35010KT 10SM FEW014 BKN047 OVC055 A2994 RMK MADISHF
GFL,2017-04-01 14:20,-73.6103,43.3412,M,M,M,340.00,9.00,M,29.94,M,10.00,M,OVC,M,M,M,4900.00,M,M,M,M,KGFL 011420Z AUTO 34009KT 10SM OVC049 A2994 RMK MADISHF
GFL,2017-04-01 14:25,-73.6103,43.3412,M,M,M,350.00,9.00,M,29.94,M,10.00,M,OVC,M,M,M,4900.00,M,M,M,M,KGFL 011425Z AUTO 35009KT 10SM OVC049 A2994 RMK MADISHF
GFL,2017-04-01 14:30,-73.6103,43.3412,M,M,M,350.00,8.00,M,29.94,M,10.00,M,OVC,M,M,M,4900.00,M,M,M,M,KGFL 011430Z AUTO 35008KT 10SM OVC049 A2994 RMK MADISHF
GFL,2017-04-01 14:35,-73.6103,43.3412,M,M,M,340.00,8.00,M,29.94,M,10.00,M,OVC,M,M,M,4900.00,M,M,M,M,KGFL 011435Z AUTO 34008KT 10SM OVC049 A2994 RMK MADISHF
GFL,2017-04-01 14:40,-73.6103,43.3412,M,M,M,340.00,8.00,M,29.94,M,10.00,M,OVC,M,M,M,5000.00,M,M,M,M,KGFL 011440Z AUTO 34008KT 10SM OVC050 A2994 RMK MADISHF
GFL,2017-04-01 14:45,-73.6103,43.3412,M,M,M,340.00,7.00,M,29.94,M,10.00,M,BKN,OVC,M,M,4800.00,5500.00,M,M,M,KGFL 011445Z AUTO 34007KT 10SM BKN048 OVC055 A2994 RMK MADISHF
GFL,2017-04-01 14:50,-73.6103,43.3412,M,M,M,340.00,9.00,M,29.94,M,10.00,M,FEW,OVC,M,M,2100.00,4800.00,M,M,M,KGFL 011450Z AUTO 34009KT 10SM FEW021 OVC048 A2994 RMK MADISHF
GFL,2017-04-01 14:53,-73.6103,43.3412,36.00,32.00,85.23,350.00,8.00,0.00,29.94,1014.70,10.00,M,FEW,OVC,M,M,2100.00,4600.00,M,M,M,KGFL 011453Z AUTO 35008KT 10SM FEW021 OVC046 02/00 A2994 RMK AO2 SLP147 60001 T00220000 51013
GFL,2017-04-01 15:00,-73.6103,43.3412,M,M,M,350.00,9.00,M,29.94,M,10.00,M,FEW,BKN,OVC,M,2100.00,4200.00,4900.00,M,M,KGFL 011500Z AUTO 35009KT 10SM FEW021 BKN042 OVC049 A2994 RMK MADISHF
GFL,2017-04-01 15:05,-73.6103,43.3412,M,M,M,340.00,7.00,M,29.94,M,10.00,M,OVC,M,M,M,4200.00,M,M,M,M,KGFL 011505Z AUTO 34007KT 10SM OVC042 A2994 RMK MADISHF
GFL,2017-04-01 15:10,-73.6103,43.3412,M,M,M,340.00,8.00,0.00,29.94,M,10.00,M,OVC,M,M,M,4400.00,M,M,M,UP,KGFL 011510Z AUTO 34008KT 10SM UP OVC044 A2994 RMK P0000 MADISHF
GFL,2017-04-01 15:15,-73.6103,43.3412,M,M,M,340.00,8.00,0.00,29.94,M,10.00,M,OVC,M,M,M,4400.00,M,M,M,UP,KGFL 011515Z AUTO 34008KT 10SM UP OVC044 A2994 RMK P0000 MADISHF
GFL,2017-04-01 15:20,-73.6103,43.3412,M,M,M,340.00,11.00,0.00,29.94,M,10.00,M,OVC,M,M,M,4100.00,M,M,M,UP,KGFL 011520Z AUTO 34011KT 10SM UP OVC041 A2994 RMK P0000 MADISHF
GFL,2017-04-01 15:25,-73.6103,43.3412,M,M,M,340.00,10.00,M,29.94,M,10.00,M,FEW,OVC,M,M,2300.00,3700.00,M,M,M,KGFL 011525Z AUTO 34010KT 10SM FEW023 OVC037 A2994 RMK MADISHF
GFL,2017-04-01 15:30,-73.6103,43.3412,M,M,M,340.00,9.00,M,29.94,M,10.00,M,FEW,BKN,OVC,M,2300.00,3800.00,4600.00,M,M,KGFL 011530Z AUTO 34009KT 10SM FEW023 BKN038 OVC046 A2994 RMK MADISHF
GFL,2017-04-01 15:35,-73.6103,43.3412,M,M,M,340.00,9.00,0.00,29.94,M,10.00,M,FEW,BKN,OVC,M,1999.00,3600.00,4400.00,M,UP,KGFL 011535Z AUTO 34009KT 10SM UP FEW019 BKN036 OVC044 A2994 RMK P0000 MADISHF
GFL,2017-04-01 15:45,-73.6103,43.3412,M,M,M,350.00,8.00,0.00,29.94,M,10.00,M,SCT,SCT,OVC,M,1600.00,2100.00,3200.00,M,UP,KGFL 011545Z AUTO 35008KT 10SM UP SCT016 SCT021 OVC032 A2994 RMK P0000 MADISHF
GFL,2017-04-01 15:50,-73.6103,43.3412,M,M,M,340.00,10.00,M,29.94,M,9.00,M,SCT,BKN,OVC,M,1500.00,2100.00,3200.00,M,-RA,KGFL 011550Z AUTO 34010KT 9SM -RA SCT015 BKN021 OVC032 A2994 RMK MADISHF
GFL,2017-04-01 15:53,-73.6103,43.3412,37.00,32.00,81.93,350.00,10.00,0.00,29.94,1014.70,8.00,M,FEW,BKN,OVC,M,1200.00,1900.00,3700.00,M,-RA,KGFL 011553Z AUTO 35010KT 8SM -RA FEW012 BKN019 OVC037 03/00 A2994 RMK AO2 UPB10E48RAB48 SLP147 P0000 T00280000
GFL,2017-04-01 15:55,-73.6103,43.3412,M,M,M,350.00,9.00,M,29.94,M,8.00,M,FEW,BKN,OVC,M,1200.00,1900.00,3900.00,M,-RA,KGFL 011555Z AUTO 35009KT 8SM -RA FEW012 BKN019 OVC039 A2994 RMK MADISHF
GFL,2017-04-01 16:00,-73.6103,43.3412,M,M,M,350.00,9.00,M,29.94,M,8.00,M,BKN,BKN,OVC,M,1400.00,2100.00,2800.00,M,-RA,KGFL 011600Z AUTO 35009KT 8SM -RA BKN014 BKN021 OVC028 A2994 RMK MADISHF
GFL,2017-04-01 16:05,-73.6103,43.3412,M,M,M,340.00,9.00,0.01,29.95,M,7.00,M,SCT,BKN,OVC,M,1100.00,1600.00,2600.00,M,-RA,KGFL 011605Z AUTO 34009KT 7SM -RA SCT011 BKN016 OVC026 A2995 RMK P0001 MADISHF
GFL,2017-04-01 16:10,-73.6103,43.3412,M,M,M,340.00,8.00,0.01,29.95,M,7.00,M,BKN,BKN,OVC,M,1400.00,1999.00,2600.00,M,-SN,KGFL 011610Z AUTO 34008KT 7SM -SN BKN014 BKN019 OVC026 A2995 RMK P0001 MADISHF
GFL,2017-04-01 16:12,-73.6103,43.3412,37.00,32.00,81.93,350.00,8.00,0.01,29.95,M,8.00,M,BKN,BKN,OVC,M,1400.00,2000.00,2600.00,M,-SN,KGFL 011612Z AUTO 35008KT 8SM -SN BKN014 BKN020 OVC026 03/00 A2995 RMK AO2 RAE06SNB06 P0001 T00280000
GFL,2017-04-01 16:20,-73.6103,43.3412,M,M,M,M,M,0.01,29.95,M,9.00,M,BKN,OVC,M,M,1400.00,2200.00,M,M,-RA,KGFL 011620Z AUTO /////KT 9SM -RA BKN014 OVC022 A2995 RMK P0001 MADISHF
GFL,2017-04-01 16:25,-73.6103,43.3412,M,M,M,340.00,8.00,0.01,29.95,M,10.00,M,FEW,BKN,OVC,M,1100.00,1600.00,2400.00,M,-RA,KGFL 011625Z AUTO 34008KT 10SM -RA FEW011 BKN016 OVC024 A2995 RMK P0001 MADISHF
GFL,2017-04-01 16:27,-73.6103,43.3412,37.00,33.10,85.64,340.00,10.00,0.01,29.95,M,10.00,M,SCT,BKN,OVC,M,1400.00,2000.00,2400.00,M,-RA,KGFL 011627Z AUTO 34010KT 10SM -RA SCT014 BKN020 OVC024 03/01 A2995 RMK AO2 RAE06B16SNB06E16 P0001 T00280006
GFL,2017-04-01 16:30,-73.6103,43.3412,M,M,M,340.00,11.00,0.01,29.95,M,10.00,M,SCT,BKN,OVC,M,1400.00,1999.00,3300.00,M,-RA,KGFL 011630Z AUTO 34011KT 10SM -RA SCT014 BKN019 OVC033 A2995 RMK P0001 MADISHF
GFL,2017-04-01 16:35,-73.6103,43.3412,M,M,M,340.00,9.00,0.01,29.94,M,10.00,M,FEW,BKN,OVC,M,1600.00,2400.00,3300.00,M,-RA,KGFL 011635Z AUTO 34009KT 10SM -RA FEW016 BKN024 OVC033 A2994 RMK P0001 MADISHF
GFL,2017-04-01 16:40,-73.6103,43.3412,M,M,M,340.00,10.00,0.01,29.95,M,10.00,M,FEW,BKN,OVC,M,1600.00,2100.00,2700.00,M,-RA,KGFL 011640Z AUTO 34010KT 10SM -RA FEW016 BKN021 OVC027 A2995 RMK P0001 MADISHF
GFL,2017-04-01 16:45,-73.6103,43.3412,M,M,M,340.00,10.00,0.01,29.94,M,10.00,M,FEW,BKN,OVC,M,1500.00,2100.00,2800.00,M,-RA,KGFL 011645Z AUTO 34010KT 10SM -RA FEW015 BKN021 OVC028 A2994 RMK P0001 MADISHF
GFL,2017-04-01 16:50,-73.6103,43.3412,M,M,M,340.00,10.00,0.01,29.94,M,10.00,M,SCT,BKN,OVC,M,1999.00,2700.00,3399.00,M,-RA,KGFL 011650Z AUTO 34010KT 10SM -RA SCT019 BKN027 OVC033 A2994 RMK P0001 MADISHF
GFL,2017-04-01 16:53,-73.6103,43.3412,37.90,32.00,79.08,340.00,9.00,0.01,29.94,1014.70,10.00,M,BKN,OVC,M,M,2000.00,2700.00,M,M,-RA,KGFL 011653Z AUTO 34009KT 10SM -RA BKN020 OVC027 03/00 A2994 RMK AO2 RAE06B16SNB06E16 SLP147 P0001 T00330000
GFL,2017-04-01 16:55,-73.6103,43.3412,M,M,M,330.00,9.00,M,29.94,M,10.00,M,FEW,BKN,OVC,M,1600.00,1999.00,2700.00,M,-RA,KGFL 011655Z AUTO 33009KT 10SM -RA FEW016 BKN019 OVC027 A2994 RMK MADISHF
GFL,2017-04-01 17:00,-73.6103,43.3412,M,M,M,340.00,8.00,M,29.94,M,10.00,M,SCT,OVC,M,M,1600.00,2200.00,M,M,-RA,KGFL 011700Z AUTO 34008KT 10SM -RA SCT016 OVC022 A2994 RMK MADISHF
GFL,2017-04-01 17:05,-73.6103,43.3412,M,M,M,340.00,9.00,M,29.94,M,10.00,M,SCT,BKN,OVC,M,1400.00,2200.00,2600.00,M,-RA,KGFL 011705Z AUTO 34009KT 10SM -RA SCT014 BKN022 OVC026 A2994 RMK MADISHF
GFL,2017-04-01 17:20,-73.6103,43.3412,M,M,M,330.00,8.00,0.01,29.94,M,10.00,M,FEW,BKN,OVC,M,1300.00,2100.00,2800.00,M,M,KGFL 011720Z AUTO 33008KT 10SM FEW013 BKN021 OVC028 A2994 RMK P0001 MADISHF
GFL,2017-04-01 17:25,-73.6103,43.3412,M,M,M,360.00,7.00,0.01,29.94,M,10.00,M,SCT,BKN,OVC,M,1500.00,2200.00,2700.00,M,M,KGFL 011725Z AUTO 36007KT 10SM SCT015 BKN022 OVC027 A2994 RMK P0001 MADISHF
GFL,2017-04-01 17:30,-73.6103,43.3412,M,M,M,340.00,7.00,0.01,29.94,M,10.00,M,SCT,OVC,M,M,1600.00,2400.00,M,M,M,KGFL 011730Z AUTO 34007KT 10SM SCT016 OVC024 A2994 RMK P0001 MADISHF
GFL,2017-04-01 17:35,-73.6103,43.3412,M,M,M,340.00,8.00,0.01,29.94,M,10.00,M,SCT,OVC,M,M,1600.00,2400.00,M,M,M,KGFL 011735Z AUTO 34008KT 10SM SCT016 OVC024 A2994 RMK P0001 MADISHF
GFL,2017-04-01 17:40,-73.6103,43.3412,M,M,M,350.00,9.00,0.01,29.94,M,10.00,M,BKN,OVC,M,M,1600.00,2300.00,M,M,M,KGFL 011740Z AUTO 35009KT 10SM BKN016 OVC023 A2994 RMK P0001 MADISHF
GFL,2017-04-01 17:45,-73.6103,43.3412,M,M,M,340.00,9.00,0.01,29.94,M,10.00,M,BKN,OVC,M,M,1600.00,2300.00,M,M,M,KGFL 011745Z AUTO 34009KT 10SM BKN016 OVC023 A2994 RMK P0001 MADISHF
GFL,2017-04-01 17:50,-73.6103,43.3412,M,M,M,340.00,7.00,0.01,29.93,M,10.00,M,BKN,OVC,M,M,1600.00,2300.00,M,M,M,KGFL 011750Z AUTO 34007KT 10SM BKN016 OVC023 A2993 RMK P0001 WND 32V02  MADISHF
GFL,2017-04-01 17:53,-73.6103,43.3412,41.00,34.00,75.94,330.00,9.00,0.01,29.93,1014.30,10.00,M,BKN,OVC,M,M,1600.00,2300.00,M,M,M,KGFL 011753Z AUTO 33009KT 10SM BKN016 OVC023 05/01 A2993 RMK AO2 RAE11 SLP143 P0001 60003 T00500011 10050 20006 58004
GFL,2017-04-01 17:55,-73.6103,43.3412,M,M,M,330.00,10.00,M,29.93,M,10.00,M,BKN,OVC,M,M,1600.00,2300.00,M,M,M,KGFL 011755Z AUTO 33010KT 10SM BKN016 OVC023 A2993 RMK MADISHF
GFL,2017-04-01 18:00,-73.6103,43.3412,M,M,M,340.00,10.00,M,29.93,M,10.00,M,BKN,OVC,M,M,1800.00,2600.00,M,M,M,KGFL 011800Z AUTO 34010KT 10SM BKN018 OVC026 A2993 RMK MADISHF
GFL,2017-04-01 18:05,-73.6103,43.3412,M,M,M,340.00,8.00,M,29.93,M,10.00,M,BKN,OVC,M,M,1999.00,2500.00,M,M,M,KGFL 011805Z AUTO 34008KT 10SM BKN019 OVC025 A2993 RMK MADISHF
GFL,2017-04-01 18:10,-73.6103,43.3412,M,M,M,M,M,M,29.94,M,10.00,M,BKN,OVC,M,M,1999.00,2900.00,M,M,M,KGFL 011810Z AUTO /////KT 10SM BKN019 OVC029 A2994 RMK MADISHF
GFL,2017-04-01 18:15,-73.6103,43.3412,M,M,M,350.00,8.00,M,29.94,M,10.00,M,BKN,OVC,M,M,1800.00,2600.00,M,M,M,KGFL 011815Z AUTO 35008KT 10SM BKN018 OVC026 A2994 RMK MADISHF
GFL,2017-04-01 18:20,-73.6103,43.3412,M,M,M,350.00,9.00,M,29.94,M,10.00,M,BKN,OVC,M,M,1800.00,2600.00,M,M,M,KGFL 011820Z AUTO 35009KT 10SM BKN018 OVC026 A2994 RMK MADISHF
GFL,2017-04-01 18:25,-73.6103,43.3412,M,M,M,350.00,6.00,M,29.94,M,10.00,M,SCT,BKN,OVC,M,1999.00,2600.00,3000.00,M,M,KGFL 011825Z AUTO 35006KT 10SM SCT019 BKN026 OVC030 A2994 RMK MADISHF
GFL,2017-04-01 18:30,-73.6103,43.3412,M,M,M,330.00,8.00,M,29.94,M,10.00,M,SCT,BKN,OVC,M,2200.00,2700.00,3399.00,M,M,KGFL 011830Z AUTO 33008KT 10SM SCT022 BKN027 OVC033 A2994 RMK MADISHF
GFL,2017-04-01 18:45,-73.6103,43.3412,39.90,32.00,73.14,330.00,8.00,0.00,29.94,M,10.00,M,SCT,BKN,OVC,M,2400.00,3100.00,4400.00,M,M,KGFL 011845Z AUTO 33008KT 10SM SCT024 BKN031 OVC044 04/00 A2994 RMK AO2 T00440000
GFL,2017-04-01 18:50,-73.6103,43.3412,M,M,M,330.00,7.00,M,29.94,M,10.00,M,BKN,BKN,OVC,M,2600.00,3300.00,3999.00,M,M,KGFL 011850Z AUTO 33007KT 10SM BKN026 BKN033 OVC039 A2994 RMK MADISHF
GFL,2017-04-01 18:53,-73.6103,43.3412,39.90,32.00,73.14,310.00,9.00,0.00,29.94,1014.70,10.00,M,BKN,OVC,M,M,2400.00,3200.00,M,M,M,KGFL 011853Z AUTO 31009KT 10SM BKN024 OVC032 04/00 A2994 RMK AO2 SLP147 T00440000
GFL,2017-04-01 18:55,-73.6103,43.3412,M,M,M,320.00,8.00,M,29.94,M,10.00,M,BKN,BKN,OVC,M,2600.00,3100.00,3900.00,M,M,KGFL 011855Z AUTO 32008KT 10SM BKN026 BKN031 OVC039 A2994 RMK MADISHF
GFL,2017-04-01 19:00,-73.6103,43.3412,M,M,M,330.00,9.00,M,29.94,M,10.00,M,SCT,BKN,OVC,M,2400.00,3300.00,5000.00,M,M,KGFL 011900Z AUTO 33009KT 10SM SCT024 BKN033 OVC050 A2994 RMK MADISHF
GFL,2017-04-01 19:04,-73.6103,43.3412,39.90,30.90,69.96,330.00,7.00,0.00,29.94,M,10.00,M,FEW,BKN,OVC,M,2400.00,3300.00,5500.00,M,M,KGFL 011904Z AUTO 33007KT 10SM FEW024 BKN033 OVC055 04/M01 A2994 RMK AO2 T00441006
GFL,2017-04-01 19:05,-73.6103,43.3412,M,M,M,340.00,7.00,M,29.94,M,10.00,M,FEW,BKN,OVC,M,2400.00,3300.00,5500.00,M,M,KGFL 011905Z AUTO 34007KT 10SM FEW024 BKN033 OVC055 A2994 RMK MADISHF
GFL,2017-04-01 19:10,-73.6103,43.3412,M,M,M,320.00,9.00,M,29.94,M,10.00,M,FEW,OVC,M,M,2500.00,3300.00,M,M,M,KGFL 011910Z AUTO 32009KT 10SM FEW025 OVC033 A2994 RMK MADISHF
GFL,2017-04-01 19:15,-73.6103,43.3412,M,M,M,320.00,8.00,M,29.94,M,10.00,M,FEW,OVC,M,M,2500.00,3300.00,M,M,M,KGFL 011915Z AUTO 32008KT 10SM FEW025 OVC033 A2994 RMK MADISHF
GFL,2017-04-01 19:30,-73.6103,43.3412,M,M,M,340.00,8.00,M,29.94,M,10.00,M,OVC,M,M,M,3100.00,M,M,M,M,KGFL 011930Z AUTO 34008KT 10SM OVC031 A2994 RMK MADISHF
GFL,2017-04-01 19:35,-73.6103,43.3412,M,M,M,350.00,9.00,M,29.94,M,10.00,M,BKN,OVC,M,M,2900.00,3399.00,M,M,M,KGFL 011935Z AUTO 35009KT 10SM BKN029 OVC033 A2994 RMK MADISHF
GFL,2017-04-01 19:37,-73.6103,43.3412,41.00,30.90,67.03,360.00,9.00,0.00,29.94,M,10.00,M,BKN,OVC,M,M,2700.00,3400.00,M,M,M,KGFL 011937Z AUTO 36009KT 10SM BKN027 OVC034 05/M01 A2994 RMK AO2 T00501006
GFL,2017-04-01 19:40,-73.6103,43.3412,M,M,M,350.00,8.00,M,29.94,M,10.00,M,OVC,M,M,M,2700.00,M,M,M,M,KGFL 011940Z AUTO 35008KT 10SM OVC027 A2994 RMK MADISHF
GFL,2017-04-01 19:45,-73.6103,43.3412,M,M,M,350.00,7.00,M,29.94,M,10.00,M,OVC,M,M,M,2700.00,M,M,M,M,KGFL 011945Z AUTO 35007KT 10SM OVC027 A2994 RMK MADISHF
GFL,2017-04-01 19:50,-73.6103,43.3412,M,M,M,360.00,6.00,M,29.94,M,10.00,M,OVC,M,M,M,2700.00,M,M,M,M,KGFL 011950Z AUTO 36006KT 10SM OVC027 A2994 RMK MADISHF
GFL,2017-04-01 19:53,-73.6103,43.3412,41.00,30.00,64.63,340.00,8.00,0.00,29.94,1014.70,10.00,M,OVC,M,M,M,2700.00,M,M,M,M,KGFL 011953Z AUTO 34008KT 10SM OVC027 05/M01 A2994 RMK AO2 SLP147 T00501011
GFL,2017-04-01 19:55,-73.6103,43.3412,M,M,M,340.00,7.00,M,29.95,M,10.00,M,OVC,M,M,M,2700.00,M,M,M,M,KGFL 011955Z AUTO 34007KT 10SM OVC027 A2995 RMK MADISHF
GFL,2017-04-01 20:00,-73.6103,43.3412,M,M,M,330.00,5.00,M,29.95,M,10.00,M,BKN,OVC,M,M,2500.00,3100.00,M,M,M,KGFL 012000Z AUTO 33005KT 10SM BKN025 OVC031 A2995 RMK MADISHF
GFL,2017-04-01 20:05,-73.6103,43.3412,M,M,M,330.00,6.00,M,29.95,M,10.00,M,BKN,OVC,M,M,2500.00,3000.00,M,M,M,KGFL 012005Z AUTO 33006KT 10SM BKN025 OVC030 A2995 RMK MADISHF
GFL,2017-04-01 20:10,-73.6103,43.3412,M,M,M,330.00,6.00,M,29.96,M,10.00,M,BKN,OVC,M,M,2500.00,3000.00,M,M,M,KGFL 012010Z AUTO 33006KT 10SM BKN025 OVC030 A2996 RMK MADISHF
GFL,2017-04-01 20:15,-73.6103,43.3412,M,M,M,330.00,5.00,M,29.96,M,10.00,M,OVC,M,M,M,2700.00,M,M,M,M,KGFL 012015Z AUTO 33005KT 10SM OVC027 A2996 RMK MADISHF
GFL,2017-04-01 20:25,-73.6103,43.3412,M,M,M,330.00,6.00,M,29.96,M,10.00,M,OVC,M,M,M,2700.00,M,M,M,M,KGFL 012025Z AUTO 33006KT 10SM OVC027 A2996 RMK MADISHF
GFL,2017-04-01 20:30,-73.6103,43.3412,M,M,M,350.00,7.00,M,29.97,M,10.00,M,BKN,OVC,M,M,2700.00,3100.00,M,M,M,KGFL 012030Z AUTO 35007KT 10SM BKN027 OVC031 A2997 RMK MADISHF
GFL,2017-04-01 20:35,-73.6103,43.3412,M,M,M,330.00,6.00,M,29.97,M,10.00,M,OVC,M,M,M,2900.00,M,M,M,M,KGFL 012035Z AUTO 33006KT 10SM OVC029 A2997 RMK MADISHF
GFL,2017-04-01 20:40,-73.6103,43.3412,M,M,M,340.00,7.00,M,29.97,M,10.00,M,OVC,M,M,M,2900.00,M,M,M,M,KGFL 012040Z AUTO 34007KT 10SM OVC029 A2997 RMK MADISHF
GFL,2017-04-01 20:45,-73.6103,43.3412,M,M,M,340.00,5.00,M,29.97,M,10.00,M,OVC,M,M,M,2900.00,M,M,M,M,KGFL 012045Z AUTO 34005KT 10SM OVC029 A2997 RMK MADISHF
GFL,2017-04-01 20:50,-73.6103,43.3412,M,M,M,350.00,6.00,M,29.97,M,10.00,M,OVC,M,M,M,3100.00,M,M,M,M,KGFL 012050Z AUTO 35006KT 10SM OVC031 A2997 RMK MADISHF
GFL,2017-04-01 20:53,-73.6103,43.3412,41.00,32.00,70.08,350.00,6.00,0.00,29.97,1015.50,10.00,M,OVC,M,M,M,3100.00,M,M,M,M,KGFL 012053Z AUTO 35006KT 10SM OVC031 05/00 A2997 RMK AO2 SLP155 T00500000 51008
GFL,2017-04-01 20:55,-73.6103,43.3412,M,M,M,360.00,7.00,M,29.97,M,10.00,M,OVC,M,M,M,3100.00,M,M,M,M,KGFL 012055Z AUTO 36007KT 10SM OVC031 A2997 RMK MADISHF
GFL,2017-04-01 21:00,-73.6103,43.3412,M,M,M,350.00,7.00,M,29.97,M,10.00,M,BKN,OVC,M,M,3100.00,4500.00,M,M,M,KGFL 012100Z AUTO 35007KT 10SM BKN031 OVC045 A2997 RMK MADISHF
GFL,2017-04-01 21:05,-73.6103,43.3412,M,M,M,350.00,5.00,M,29.97,M,10.00,M,BKN,OVC,M,M,3200.00,4500.00,M,M,M,KGFL 012105Z AUTO 35005KT 10SM BKN032 OVC045 A2997 RMK MADISHF
GFL,2017-04-01 21:10,-73.6103,43.3412,M,M,M,10.00,5.00,M,29.97,M,10.00,M,BKN,OVC,M,M,3200.00,4500.00,M,M,M,KGFL 012110Z AUTO 01005KT 10SM BKN032 OVC045 A2997 RMK MADISHF
GFL,2017-04-01 21:20,-73.6103,43.3412,M,M,M,350.00,5.00,M,29.97,M,10.00,M,SCT,OVC,M,M,3399.00,4500.00,M,M,M,KGFL 012120Z AUTO 35005KT 10SM SCT033 OVC045 A2997 RMK MADISHF
GFL,2017-04-01 21:25,-73.6103,43.3412,M,M,M,360.00,5.00,M,29.97,M,10.00,M,FEW,OVC,M,M,3399.00,4500.00,M,M,M,KGFL 012125Z AUTO 36005KT 10SM FEW033 OVC045 A2997 RMK MADISHF
GFL,2017-04-01 21:30,-73.6103,43.3412,M,M,M,10.00,5.00,M,29.97,M,10.00,M,FEW,OVC,M,M,3399.00,4500.00,M,M,M,KGFL 012130Z AUTO 01005KT 10SM FEW033 OVC045 A2997 RMK MADISHF
GFL,2017-04-01 21:35,-73.6103,43.3412,M,M,M,360.00,5.00,M,29.97,M,10.00,M,OVC,M,M,M,4500.00,M,M,M,M,KGFL 012135Z AUTO 36005KT 10SM OVC045 A2997 RMK MADISHF
GFL,2017-04-01 21:40,-73.6103,43.3412,M,M,M,360.00,5.00,M,29.97,M,10.00,M,OVC,M,M,M,4500.00,M,M,M,M,KGFL 012140Z AUTO 36005KT 10SM OVC045 A2997 RMK MADISHF
GFL,2017-04-01 21:45,-73.6103,43.3412,M,M,M,360.00,5.00,M,29.97,M,10.00,M,OVC,M,M,M,4500.00,M,M,M,M,KGFL 012145Z AUTO 36005KT 10SM OVC045 A2997 RMK MADISHF
GFL,2017-04-01 21:50,-73.6103,43.3412,M,M,M,10.00,5.00,M,29.98,M,10.00,M,OVC,M,M,M,4600.00,M,M,M,M,KGFL 012150Z AUTO 01005KT 10SM OVC046 A2998 RMK MADISHF
GFL,2017-04-01 21:53,-73.6103,43.3412,42.10,32.00,67.17,360.00,4.00,0.00,29.98,1015.70,10.00,M,OVC,M,M,M,4600.00,M,M,M,M,KGFL 012153Z AUTO 36004KT 10SM OVC046 06/00 A2998 RMK AO2 SLP157 T00560000
GFL,2017-04-01 22:05,-73.6103,43.3412,M,M,M,350.00,4.00,M,29.98,M,10.00,M,OVC,M,M,M,4600.00,M,M,M,M,KGFL 012205Z AUTO 35004KT 10SM OVC046 A2998 RMK MADISHF
GFL,2017-04-01 22:10,-73.6103,43.3412,M,M,M,40.00,5.00,M,29.98,M,10.00,M,OVC,M,M,M,4600.00,M,M,M,M,KGFL 012210Z AUTO 04005KT 10SM OVC046 A2998 RMK MADISHF
GFL,2017-04-01 22:15,-73.6103,43.3412,M,M,M,70.00,5.00,M,29.98,M,10.00,M,FEW,OVC,M,M,2300.00,4600.00,M,M,M,KGFL 012215Z AUTO 07005KT 10SM FEW023 OVC046 A2998 RMK MADISHF
GFL,2017-04-01 22:20,-73.6103,43.3412,M,M,M,70.00,6.00,M,29.98,M,10.00,M,SCT,OVC,M,M,2300.00,4600.00,M,M,M,KGFL 012220Z AUTO 07006KT 10SM SCT023 OVC046 A2998 RMK MADISHF
GFL,2017-04-01 22:25,-73.6103,43.3412,M,M,M,80.00,6.00,M,29.98,M,10.00,M,SCT,OVC,M,M,2300.00,4600.00,M,M,M,KGFL 012225Z AUTO 08006KT 10SM SCT023 OVC046 A2998 RMK MADISHF
GFL,2017-04-01 22:30,-73.6103,43.3412,M,M,M,80.00,5.00,M,29.99,M,10.00,M,SCT,OVC,M,M,2200.00,4600.00,M,M,M,KGFL 012230Z AUTO 08005KT 10SM SCT022 OVC046 A2999 RMK MADISHF
GFL,2017-04-01 22:35,-73.6103,43.3412,M,M,M,60.00,6.00,M,29.99,M,10.00,M,FEW,BKN,M,M,2200.00,4600.00,M,M,M,KGFL 012235Z AUTO 06006KT 10SM FEW022 BKN046 A2999 RMK MADISHF
GFL,2017-04-01 22:40,-73.6103,43.3412,M,M,M,60.00,5.00,M,29.99,M,10.00,M,FEW,BKN,M,M,2200.00,4400.00,M,M,M,KGFL 012240Z AUTO 06005KT 10SM FEW022 BKN044 A2999 RMK MADISHF
GFL,2017-04-01 22:53,-73.6103,43.3412,39.90,33.10,76.44,60.00,6.00,0.00,29.99,1016.40,10.00,M,FEW,M,M,M,4400.00,M,M,M,M,KGFL 012253Z AUTO 06006KT 10SM FEW044 04/01 A2999 RMK AO2 SLP164 T00440006
GFL,2017-04-01 23:00,-73.6103,43.3412,M,M,M,60.00,4.00,M,30.00,M,10.00,M,CLR,M,M,M,M,M,M,M,M,KGFL 012300Z AUTO 06004KT 10SM CLR A3000 RMK MADISHF
GFL,2017-04-01 23:05,-73.6103,43.3412,M,M,M,70.00,5.00,M,29.99,M,10.00,M,CLR,M,M,M,M,M,M,M,M,KGFL 012305Z AUTO 07005KT 10SM CLR A2999 RMK MADISHF
GFL,2017-04-01 23:10,-73.6103,43.3412,M,M,M,80.00,5.00,M,29.99,M,10.00,M,CLR,M,M,M,M,M,M,M,M,KGFL 012310Z AUTO 08005KT 10SM CLR A2999 RMK MADISHF
GFL,2017-04-01 23:15,-73.6103,43.3412,M,M,M,60.00,3.00,M,29.99,M,10.00,M,CLR,M,M,M,M,M,M,M,M,KGFL 012315Z AUTO 06003KT 10SM CLR A2999 RMK MADISHF
GFL,2017-04-01 23:20,-73.6103,43.3412,M,M,M,60.00,4.00,M,29.99,M,10.00,M,CLR,M,M,M,M,M,M,M,M,KGFL 012320Z AUTO 06004KT 10SM CLR A2999 RMK MADISHF
GFL,2017-04-01 23:25,-73.6103,43.3412,M,M,M,60.00,3.00,M,29.99,M,10.00,M,SCT,M,M,M,4400.00,M,M,M,M,KGFL 012325Z AUTO 06003KT 10SM SCT044 A2999 RMK MADISHF
GFL,2017-04-01 23:30,-73.6103,43.3412,M,M,M,0.00,0.00,M,29.99,M,10.00,M,BKN,M,M,M,4400.00,M,M,M,M,KGFL 012330Z AUTO 00000KT 10SM BKN044 A2999 RMK MADISHF
GFL,2017-04-01 23:35,-73.6103,43.3412,M,M,M,0.00,0.00,M,29.99,M,10.00,M,BKN,M,M,M,4400.00,M,M,M,M,KGFL 012335Z AUTO 00000KT 10SM BKN044 A2999 RMK MADISHF
GFL,2017-04-01 23:53,-73.6103,43.3412,39.00,32.00,75.75,0.00,0.00,0.00,30.00,1016.50,10.00,M,OVC,M,M,M,4200.00,M,M,M,M,KGFL 012353Z AUTO 00000KT 10SM OVC042 04/00 A3000 RMK AO2 SLP165 T00390000 10056 20039 51009
GFL,2017-04-01 23:55,-73.6103,43.3412,M,M,M,0.00,0.00,M,30.00,M,10.00,M,OVC,M,M,M,4200.00,M,M,M,M,KGFL 012355Z AUTO 00000KT 10SM OVC042 A3000 RMK MADISHF
