#DEBUG: Format Typ    -> comma
#DEBUG: Time Period   -> 2017-04-01 00:00:00+00:00 2017-04-02 00:00:00+00:00
#DEBUG: Time Zone     -> Etc/UTC
#DEBUG: Data Contact   -> daryl herzmann akrherz@iastate.edu 515-294-5978
#DEBUG: Entries Found -> -1
station,valid,lon,lat,tmpf, dwpf, relh, drct, sknt, p01i, alti, mslp, vsby, gust, skyc1, skyc2, skyc3, skyc4, skyl1, skyl2, skyl3, skyl4, presentwx, metar
GGW,2017-04-01 00:00,-106.6214,48.2138,M,M,M,100.00,11.00,M,30.14,M,10.00,M,FEW,M,M,M,3999.00,M,M,M,M,KGGW 010000Z AUTO 10011KT 10SM FEW039 A3014 RMK MADISHF
GGW,2017-04-01 00:05,-106.6214,48.2138,M,M,M,90.00,11.00,M,30.14,M,10.00,M,SCT,M,M,M,4200.00,M,M,M,M,KGGW 010005Z AUTO 09011KT 10SM SCT042 A3014 RMK MADISHF
GGW,2017-04-01 00:10,-106.6214,48.2138,M,M,M,90.00,11.00,M,30.14,M,10.00,M,SCT,M,M,M,4200.00,M,M,M,M,KGGW 010010Z AUTO 09011KT 10SM SCT042 A3014 RMK MADISHF
GGW,2017-04-01 00:15,-106.6214,48.2138,M,M,M,80.00,10.00,M,30.14,M,10.00,M,FEW,M,M,M,4200.00,M,M,M,M,KGGW 010015Z AUTO 08010KT 10SM FEW042 A3014 RMK MADISHF
GGW,2017-04-01 00:20,-106.6214,48.2138,M,M,M,80.00,10.00,M,30.14,M,10.00,M,FEW,M,M,M,4200.00,M,M,M,M,KGGW 010020Z AUTO 08010KT 10SM FEW042 A3014 RMK MADISHF
GGW,2017-04-01 00:25,-106.6214,48.2138,M,M,M,80.00,11.00,M,30.14,M,10.00,M,FEW,M,M,M,4200.00,M,M,M,M,KGGW 010025Z AUTO 08011KT 10SM FEW042 A3014 RMK MADISHF
GGW,2017-04-01 00:30,-106.6214,48.2138,M,M,M,80.00,12.00,M,30.14,M,10.00,M,FEW,M,M,M,4200.00,M,M,M,M,KGGW 010030Z AUTO 08012KT 10SM FEW042 A3014 RMK MADISHF
GGW,2017-04-01 00:35,-106.6214,48.2138,M,M,M,80.00,11.00,M,30.14,M,10.00,M,CLR,M,M,M,M,M,M,M,M,KGGW 010035Z AUTO 08011KT 10SM CLR A3014 RMK MADISHF
GGW,2017-04-01 00:40,-106.6214,48.2138,M,M,M,90.00,10.00,M,30.14,M,10.00,M,CLR,M,M,M,M,M,M,M,M,KGGW 010040Z AUTO 09010KT 10SM CLR A3014 RMK MADISHF
GGW,2017-04-01 00:45,-106.6214,48.2138,M,M,M,100.00,9.00,M,30.14,M,10.00,M,CLR,M,M,M,M,M,M,M,M,KGGW 010045Z AUTO 10009KT 10SM CLR A3014 RMK MADISHF
GGW,2017-04-01 00:50,-106.6214,48.2138,M,M,M,120.00,8.00,M,30.14,M,10.00,M,CLR,M,M,M,M,M,M,M,M,KGGW 010050Z AUTO 12008KT 10SM CLR A3014 RMK MADISHF
GGW,2017-04-01 00:53,-106.6214,48.2138,48.90,37.00,63.34,130.00,9.00,0.00,30.14,1022.30,10.00,M,CLR,M,M,M,M,M,M,M,M,KGGW 010053Z AUTO 13009KT 10SM CLR 09/03 A3014 RMK AO2 SLP223 T00940028
GGW,2017-04-01 01:05,-106.6214,48.2138,M,M,M,130.00,10.00,M,30.14,M,10.00,M,CLR,M,M,M,M,M,M,M,M,KGGW 010105Z AUTO 13010KT 10SM CLR A3014 RMK MADISHF
GGW,2017-04-01 01:10,-106.6214,48.2138,M,M,M,130.00,10.00,M,30.14,M,10.00,M,CLR,M,M,M,M,M,M,M,M,KGGW 010110Z AUTO 13010KT 10SM CLR A3014 RMK MADISHF
GGW,2017-04-01 01:15,-106.6214,48.2138,M,M,M,130.00,9.00,M,30.15,M,10.00,M,CLR,M,M,M,M,M,M,M,M,KGGW 010115Z AUTO 13009KT 10SM CLR A3015 RMK MADISHF
GGW,2017-04-01 01:20,-106.6214,48.2138,M,M,M,120.00,8.00,M,30.15,M,10.00,M,CLR,M,M,M,M,M,M,M,M,KGGW 010120Z AUTO 12008KT 10SM CLR A3015 RMK MADISHF
GGW,2017-04-01 01:25,-106.6214,48.2138,M,M,M,130.00,8.00,M,30.15,M,10.00,M,CLR,M,M,M,M,M,M,M,M,KGGW 010125Z AUTO 13008KT 10SM CLR A3015 RMK MADISHF
GGW,2017-04-01 01:30,-106.6214,48.2138,M,M,M,130.00,8.00,M,30.15,M,10.00,M,CLR,M,M,M,M,M,M,M,M,KGGW 010130Z AUTO 13008KT 10SM CLR A3015 RMK MADISHF
GGW,2017-04-01 01:35,-106.6214,48.2138,M,M,M,140.00,10.00,M,30.15,M,10.00,M,CLR,M,M,M,M,M,M,M,M,KGGW 010135Z AUTO 14010KT 10SM CLR A3015 RMK MADISHF
GGW,2017-04-01 01:40,-106.6214,48.2138,M,M,M,140.00,10.00,M,30.15,M,10.00,M,CLR,M,M,M,M,M,M,M,M,KGGW 010140Z AUTO 14010KT 10SM CLR A3015 RMK MADISHF
GGW,2017-04-01 01:45,-106.6214,48.2138,M,M,M,140.00,9.00,M,30.15,M,10.00,M,CLR,M,M,M,M,M,M,M,M,KGGW 010145Z AUTO 14009KT 10SM CLR A3015 RMK MADISHF
GGW,2017-04-01 01:50,-106.6214,48.2138,M,M,M,140.00,10.00,M,30.15,M,10.00,M,CLR,M,M,M,M,M,M,M,M,KGGW 010150Z AUTO 14010KT 10SM CLR A3015 RMK MADISHF
GGW,2017-04-01 01:53,-106.6214,48.2138,43.00,37.00,79.19,130.00,10.00,0.00,30.15,1022.90,10.00,M,CLR,M,M,M,M,M,M,M,M,KGGW 010153Z AUTO 13010KT 10SM CLR 06/03 A3015 RMK AO2 SLP229 T00610028
GGW,2017-04-01 01:55,-106.6214,48.2138,M,M,M,130.00,11.00,M,30.16,M,10.00,M,CLR,M,M,M,M,M,M,M,M,KGGW 010155Z AUTO 13011KT 10SM CLR A3016 RMK MADISHF
GGW,2017-04-01 02:00,-106.6214,48.2138,M,M,M,130.00,10.00,M,30.16,M,10.00,M,CLR,M,M,M,M,M,M,M,M,KGGW 010200Z AUTO 13010KT 10SM CLR A3016 RMK MADISHF
GGW,2017-04-01 02:05,-106.6214,48.2138,M,M,M,130.00,10.00,M,30.15,M,10.00,M,CLR,M,M,M,M,M,M,M,M,KGGW 010205Z AUTO 13010KT 10SM CLR A3015 RMK MADISHF
GGW,2017-04-01 02:10,-106.6214,48.2138,M,M,M,130.00,10.00,M,30.16,M,10.00,M,CLR,M,M,M,M,M,M,M,M,KGGW 010210Z AUTO 13010KT 10SM CLR A3016 RMK MADISHF
GGW,2017-04-01 02:15,-106.6214,48.2138,M,M,M,130.00,9.00,M,30.16,M,10.00,M,CLR,M,M,M,M,M,M,M,M,KGGW 010215Z AUTO 13009KT 10SM CLR A3016 RMK MADISHF
GGW,2017-04-01 02:20,-106.6214,48.2138,M,M,M,120.00,9.00,M,30.16,M,10.00,M,CLR,M,M,M,M,M,M,M,M,KGGW 010220Z AUTO 12009KT 10SM CLR A3016 RMK MADISHF
GGW,2017-04-01 02:25,-106.6214,48.2138,M,M,M,120.00,9.00,M,30.16,M,10.00,M,CLR,M,M,M,M,M,M,M,M,KGGW 010225Z AUTO 12009KT 10SM CLR A3016 RMK MADISHF
GGW,2017-04-01 02:30,-106.6214,48.2138,M,M,M,120.00,9.00,M,30.16,M,10.00,M,CLR,M,M,M,M,M,M,M,M,KGGW 010230Z AUTO 12009KT 10SM CLR A3016 RMK MADISHF
GGW,2017-04-01 02:35,-106.6214,48.2138,M,M,M,120.00,8.00,M,30.17,M,10.00,M,CLR,M,M,M,M,M,M,M,M,KGGW 010235Z AUTO 12008KT 10SM CLR A3017 RMK MADISHF
GGW,2017-04-01 02:40,-106.6214,48.2138,M,M,M,130.00,8.00,M,30.17,M,10.00,M,CLR,M,M,M,M,M,M,M,M,KGGW 010240Z AUTO 13008KT 10SM CLR A3017 RMK MADISHF
GGW,2017-04-01 02:50,-106.6214,48.2138,M,M,M,120.00,7.00,M,30.17,M,10.00,M,CLR,M,M,M,M,M,M,M,M,KGGW 010250Z AUTO 12007KT 10SM CLR A3017 RMK MADISHF
GGW,2017-04-01 02:53,-106.6214,48.2138,39.00,35.10,85.76,120.00,8.00,0.00,30.17,1023.60,10.00,M,CLR,M,M,M,M,M,M,M,M,KGGW 010253Z AUTO 12008KT 10SM CLR 04/02 A3017 RMK AO2 SLP236 T00390017 53009
GGW,2017-04-01 02:55,-106.6214,48.2138,M,M,M,120.00,8.00,M,30.17,M,10.00,M,CLR,M,M,M,M,M,M,M,M,KGGW 010255Z AUTO 12008KT 10SM CLR A3017 RMK MADISHF
GGW,2017-04-01 03:00,-106.6214,48.2138,M,M,M,120.00,9.00,M,30.17,M,10.00,M,CLR,M,M,M,M,M,M,M,M,KGGW 010300Z AUTO 12009KT 10SM CLR A3017 RMK MADISHF
GGW,2017-04-01 03:10,-106.6214,48.2138,M,M,M,120.00,9.00,M,30.17,M,10.00,M,CLR,M,M,M,M,M,M,M,M,KGGW 010310Z AUTO 12009KT 10SM CLR A3017 RMK MADISHF
GGW,2017-04-01 03:15,-106.6214,48.2138,M,M,M,120.00,8.00,M,30.17,M,10.00,M,CLR,M,M,M,M,M,M,M,M,KGGW 010315Z AUTO 12008KT 10SM CLR A3017 RMK MADISHF
GGW,2017-04-01 03:20,-106.6214,48.2138,M,M,M,120.00,8.00,M,30.17,M,10.00,M,CLR,M,M,M,M,M,M,M,M,KGGW 010320Z AUTO 12008KT 10SM CLR A3017 RMK MADISHF
GGW,2017-04-01 03:25,-106.6214,48.2138,M,M,M,120.00,7.00,M,30.18,M,10.00,M,CLR,M,M,M,M,M,M,M,M,KGGW 010325Z AUTO 12007KT 10SM CLR A3018 RMK MADISHF
GGW,2017-04-01 03:30,-106.6214,48.2138,M,M,M,130.00,7.00,M,30.18,M,10.00,M,CLR,M,M,M,M,M,M,M,M,KGGW 010330Z AUTO 13007KT 10SM CLR A3018 RMK MADISHF
GGW,2017-04-01 03:35,-106.6214,48.2138,M,M,M,130.00,8.00,M,30.18,M,10.00,M,CLR,M,M,M,M,M,M,M,M,KGGW 010335Z AUTO 13008KT 10SM CLR A3018 RMK MADISHF
GGW,2017-04-01 03:40,-106.6214,48.2138,M,M,M,130.00,8.00,M,30.18,M,10.00,M,CLR,M,M,M,M,M,M,M,M,KGGW 010340Z AUTO 13008KT 10SM CLR A3018 RMK MADISHF
GGW,2017-04-01 03:45,-106.6214,48.2138,M,M,M,130.00,8.00,M,30.18,M,10.00,M,CLR,M,M,M,M,M,M,M,M,KGGW 010345Z AUTO 13008KT 10SM CLR A3018 RMK MADISHF
GGW,2017-04-01 03:50,-106.6214,48.2138,M,M,M,120.00,8.00,M,30.18,M,10.00,M,CLR,M,M,M,M,M,M,M,M,KGGW 010350Z AUTO 12008KT 10SM CLR A3018 RMK MADISHF
GGW,2017-04-01 03:53,-106.6214,48.2138,36.00,33.10,89.09,130.00,8.00,0.00,30.18,1024.00,10.00,M,CLR,M,M,M,M,M,M,M,M,KGGW 010353Z AUTO 13008KT 10SM CLR 02/01 A3018 RMK AO2 SLP240 T00220006
GGW,2017-04-01 03:55,-106.6214,48.2138,M,M,M,130.00,8.00,M,30.18,M,10.00,M,CLR,M,M,M,M,M,M,M,M,KGGW 010355Z AUTO 13008KT 10SM CLR A3018 RMK MADISHF
GGW,2017-04-01 04:05,-106.6214,48.2138,M,M,M,120.00,8.00,M,30.18,M,10.00,M,CLR,M,M,M,M,M,M,M,M,KGGW 010405Z AUTO 12008KT 10SM CLR A3018 RMK MADISHF
GGW,2017-04-01 04:10,-106.6214,48.2138,M,M,M,130.00,9.00,M,30.18,M,10.00,M,CLR,M,M,M,M,M,M,M,M,KGGW 010410Z AUTO 13009KT 10SM CLR A3018 RMK MADISHF
GGW,2017-04-01 04:15,-106.6214,48.2138,M,M,M,130.00,8.00,M,30.18,M,9.00,M,CLR,M,M,M,M,M,M,M,M,KGGW 010415Z AUTO 13008KT 9SM CLR A3018 RMK MADISHF
GGW,2017-04-01 04:20,-106.6214,48.2138,M,M,M,120.00,9.00,M,30.18,M,9.00,M,CLR,M,M,M,M,M,M,M,M,KGGW 010420Z AUTO 12009KT 9SM CLR A3018 RMK MADISHF
GGW,2017-04-01 04:25,-106.6214,48.2138,M,M,M,110.00,9.00,M,30.18,M,9.00,M,CLR,M,M,M,M,M,M,M,M,KGGW 010425Z AUTO 11009KT 9SM CLR A3018 RMK MADISHF
GGW,2017-04-01 04:35,-106.6214,48.2138,M,M,M,120.00,10.00,M,30.18,M,9.00,M,CLR,M,M,M,M,M,M,M,M,KGGW 010435Z AUTO 12010KT 9SM CLR A3018 RMK MADISHF
GGW,2017-04-01 04:40,-106.6214,48.2138,M,M,M,120.00,10.00,M,30.17,M,8.00,M,CLR,M,M,M,M,M,M,M,M,KGGW 010440Z AUTO 12010KT 8SM CLR A3017 RMK MADISHF
GGW,2017-04-01 04:45,-106.6214,48.2138,M,M,M,120.00,10.00,M,30.18,M,8.00,M,CLR,M,M,M,M,M,M,M,M,KGGW 010445Z AUTO 12010KT 8SM CLR A3018 RMK MADISHF
GGW,2017-04-01 04:50,-106.6214,48.2138,M,M,M,120.00,9.00,M,30.17,M,8.00,M,CLR,M,M,M,M,M,M,M,M,KGGW 010450Z AUTO 12009KT 8SM CLR A3017 RMK MADISHF
GGW,2017-04-01 04:53,-106.6214,48.2138,35.10,33.10,92.32,120.00,9.00,0.00,30.18,1023.90,8.00,M,CLR,M,M,M,M,M,M,M,M,KGGW 010453Z AUTO 12009KT 8SM CLR 02/01 A3018 RMK AO2 SLP239 T00170006
GGW,2017-04-01 04:55,-106.6214,48.2138,M,M,M,120.00,8.00,M,30.18,M,8.00,M,CLR,M,M,M,M,M,M,M,M,KGGW 010455Z AUTO 12008KT 8SM CLR A3018 RMK MADISHF
GGW,2017-04-01 05:05,-106.6214,48.2138,M,M,M,120.00,8.00,M,30.18,M,8.00,M,CLR,M,M,M,M,M,M,M,M,KGGW 010505Z AUTO 12008KT 8SM CLR A3018 RMK MADISHF
GGW,2017-04-01 05:10,-106.6214,48.2138,M,M,M,120.00,8.00,M,30.18,M,8.00,M,CLR,M,M,M,M,M,M,M,M,KGGW 010510Z AUTO 12008KT 8SM CLR A3018 RMK MADISHF
GGW,2017-04-01 05:15,-106.6214,48.2138,M,M,M,120.00,8.00,M,30.18,M,7.00,M,CLR,M,M,M,M,M,M,M,M,KGGW 010515Z AUTO 12008KT 7SM CLR A3018 RMK MADISHF
GGW,2017-04-01 05:25,-106.6214,48.2138,M,M,M,120.00,11.00,M,30.18,M,7.00,M,CLR,M,M,M,M,M,M,M,M,KGGW 010525Z AUTO 12011KT 7SM CLR A3018 RMK MADISHF
GGW,2017-04-01 05:30,-106.6214,48.2138,M,M,M,110.00,10.00,M,30.17,M,7.00,M,CLR,M,M,M,M,M,M,M,M,KGGW 010530Z AUTO 11010KT 7SM CLR A3017 RMK MADISHF
GGW,2017-04-01 05:35,-106.6214,48.2138,M,M,M,110.00,10.00,M,30.17,M,7.00,M,CLR,M,M,M,M,M,M,M,M,KGGW 010535Z AUTO 11010KT 7SM CLR A3017 RMK MADISHF
GGW,2017-04-01 05:40,-106.6214,48.2138,M,M,M,120.00,10.00,M,30.17,M,7.00,M,FEW,M,M,M,1200.00,M,M,M,M,KGGW 010540Z AUTO 12010KT 7SM FEW012 A3017 RMK MADISHF
GGW,2017-04-01 05:45,-106.6214,48.2138,M,M,M,120.00,10.00,M,30.17,M,7.00,M,FEW,M,M,M,1200.00,M,M,M,M,KGGW 010545Z AUTO 12010KT 7SM FEW012 A3017 RMK MADISHF
GGW,2017-04-01 05:53,-106.6214,48.2138,35.10,33.10,92.32,120.00,10.00,0.00,30.17,1023.50,7.00,M,CLR,M,M,M,M,M,M,M,M,KGGW 010553Z AUTO 12010KT 7SM CLR 02/01 A3017 RMK AO2 SLP235 T00170006 10117 20006 58001
GGW,2017-04-01 05:55,-106.6214,48.2138,M,M,M,120.00,10.00,M,30.17,M,7.00,M,CLR,M,M,M,M,M,M,M,M,KGGW 010555Z AUTO 12010KT 7SM CLR A3017 RMK MADISHF
GGW,2017-04-01 06:00,-106.6214,48.2138,M,M,M,130.00,10.00,M,30.17,M,7.00,M,CLR,M,M,M,M,M,M,M,M,KGGW 010600Z AUTO 13010KT 7SM CLR A3017 RMK MADISHF
GGW,2017-04-01 06:05,-106.6214,48.2138,M,M,M,130.00,11.00,M,30.16,M,7.00,M,SCT,M,M,M,1200.00,M,M,M,M,KGGW 010605Z AUTO 13011KT 7SM SCT012 A3016 RMK MADISHF
GGW,2017-04-01 06:15,-106.6214,48.2138,M,M,M,130.00,12.00,M,30.16,M,8.00,M,BKN,M,M,M,999.00,M,M,M,M,KGGW 010615Z AUTO 13012KT 8SM BKN009 A3016 RMK MADISHF
GGW,2017-04-01 06:19,-106.6214,48.2138,39.00,37.00,92.45,130.00,12.00,0.00,30.16,M,8.00,M,BKN,M,M,M,1000.00,M,M,M,M,KGGW 010619Z AUTO 13012KT 8SM BKN010 04/03 A3016 RMK AO2 T00390028
GGW,2017-04-01 06:20,-106.6214,48.2138,M,M,M,130.00,12.00,M,30.16,M,9.00,M,BKN,M,M,M,999.00,M,M,M,M,KGGW 010620Z AUTO 13012KT 9SM BKN009 A3016 RMK MADISHF
GGW,2017-04-01 06:25,-106.6214,48.2138,M,M,M,130.00,12.00,M,30.16,M,9.00,M,BKN,M,M,M,999.00,M,M,M,M,KGGW 010625Z AUTO 13012KT 9SM BKN009 A3016 RMK MADISHF
GGW,2017-04-01 06:30,-106.6214,48.2138,M,M,M,130.00,12.00,M,30.16,M,9.00,M,OVC,M,M,M,999.00,M,M,M,M,KGGW 010630Z AUTO 13012KT 9SM OVC009 A3016 RMK MADISHF
GGW,2017-04-01 06:45,-106.6214,48.2138,M,M,M,150.00,10.00,M,30.16,M,9.00,M,OVC,M,M,M,999.00,M,M,M,M,KGGW 010645Z AUTO 15010KT 9SM OVC009 A3016 RMK MADISHF
GGW,2017-04-01 06:50,-106.6214,48.2138,M,M,M,140.00,10.00,M,30.17,M,9.00,M,OVC,M,M,M,999.00,M,M,M,M,KGGW 010650Z AUTO 14010KT 9SM OVC009 A3017 RMK MADISHF
GGW,2017-04-01 06:53,-106.6214,48.2138,39.90,37.00,89.27,140.00,10.00,0.00,30.17,1023.00,9.00,M,OVC,M,M,M,1000.00,M,M,M,M,KGGW 010653Z AUTO 14010KT 9SM OVC010 04/03 A3017 RMK AO2 SLP230 T00440028 401280006
GGW,2017-04-01 07:00,-106.6214,48.2138,M,M,M,140.00,9.00,M,30.17,M,10.00,M,OVC,M,M,M,999.00,M,M,M,M,KGGW 010700Z AUTO 14009KT 10SM OVC009 A3017 RMK MADISHF
GGW,2017-04-01 07:05,-106.6214,48.2138,M,M,M,140.00,9.00,M,30.17,M,10.00,M,OVC,M,M,M,900.00,M,M,M,M,KGGW 010705Z AUTO 14009KT 10SM OVC009 A3017 RMK MADISHF
GGW,2017-04-01 07:10,-106.6214,48.2138,M,M,M,140.00,8.00,M,30.17,M,10.00,M,OVC,M,M,M,900.00,M,M,M,M,KGGW 010710Z AUTO 14008KT 10SM OVC009 A3017 RMK MADISHF
GGW,2017-04-01 07:11,-106.6214,48.2138,39.90,37.00,89.27,140.00,8.00,0.00,30.17,M,10.00,M,OVC,M,M,M,900.00,M,M,M,M,KGGW 010711Z AUTO 14008KT 10SM OVC009 04/03 A3017 RMK AO2 T00440028
GGW,2017-04-01 07:15,-106.6214,48.2138,M,M,M,150.00,7.00,M,30.17,M,10.00,M,OVC,M,M,M,900.00,M,M,M,M,KGGW 010715Z AUTO 15007KT 10SM OVC009 A3017 RMK MADISHF
GGW,2017-04-01 07:20,-106.6214,48.2138,M,M,M,150.00,7.00,M,30.16,M,10.00,M,OVC,M,M,M,900.00,M,M,M,M,KGGW 010720Z AUTO 15007KT 10SM OVC009 A3016 RMK MADISHF
GGW,2017-04-01 07:25,-106.6214,48.2138,M,M,M,150.00,8.00,M,30.17,M,10.00,M,OVC,M,M,M,900.00,M,M,M,M,KGGW 010725Z AUTO 15008KT 10SM OVC009 A3017 RMK MADISHF
GGW,2017-04-01 07:30,-106.6214,48.2138,M,M,M,150.00,7.00,M,30.17,M,10.00,M,OVC,M,M,M,900.00,M,M,M,M,KGGW 010730Z AUTO 15007KT 10SM OVC009 A3017 RMK MADISHF
GGW,2017-04-01 07:35,-106.6214,48.2138,M,M,M,150.00,9.00,M,30.16,M,10.00,M,OVC,M,M,M,900.00,M,M,M,M,KGGW 010735Z AUTO 15009KT 10SM OVC009 A3016 RMK MADISHF
GGW,2017-04-01 07:45,-106.6214,48.2138,M,M,M,140.00,8.00,M,30.16,M,10.00,M,OVC,M,M,M,900.00,M,M,M,M,KGGW 010745Z AUTO 14008KT 10SM OVC009 A3016 RMK MADISHF
GGW,2017-04-01 07:50,-106.6214,48.2138,M,M,M,150.00,10.00,M,30.16,M,10.00,M,OVC,M,M,M,900.00,M,M,M,M,KGGW 010750Z AUTO 15010KT 10SM OVC009 A3016 RMK MADISHF
GGW,2017-04-01 07:53,-106.6214,48.2138,39.90,37.00,89.27,150.00,9.00,0.00,30.16,1022.60,10.00,M,OVC,M,M,M,900.00,M,M,M,M,KGGW 010753Z AUTO 15009KT 10SM OVC009 04/03 A3016 RMK AO2 SLP226 T00440028
GGW,2017-04-01 07:55,-106.6214,48.2138,M,M,M,150.00,10.00,M,30.16,M,10.00,M,OVC,M,M,M,900.00,M,M,M,M,KGGW 010755Z AUTO 15010KT 10SM OVC009 A3016 RMK MADISHF
GGW,2017-04-01 08:00,-106.6214,48.2138,M,M,M,150.00,10.00,M,30.16,M,10.00,M,OVC,M,M,M,900.00,M,M,M,M,KGGW 010800Z AUTO 15010KT 10SM OVC009 A3016 RMK MADISHF
GGW,2017-04-01 08:05,-106.6214,48.2138,M,M,M,160.00,9.00,M,30.16,M,10.00,M,OVC,M,M,M,900.00,M,M,M,M,KGGW 010805Z AUTO 16009KT 10SM OVC009 A3016 RMK MADISHF
GGW,2017-04-01 08:10,-106.6214,48.2138,M,M,M,150.00,11.00,M,30.15,M,10.00,M,OVC,M,M,M,900.00,M,M,M,M,KGGW 010810Z AUTO 15011KT 10SM OVC009 A3015 RMK MADISHF
GGW,2017-04-01 08:15,-106.6214,48.2138,M,M,M,160.00,9.00,M,30.15,M,10.00,M,OVC,M,M,M,900.00,M,M,M,M,KGGW 010815Z AUTO 16009KT 10SM OVC009 A3015 RMK MADISHF
GGW,2017-04-01 08:25,-106.6214,48.2138,M,M,M,160.00,10.00,M,30.14,M,10.00,M,OVC,M,M,M,900.00,M,M,M,M,KGGW 010825Z AUTO 16010KT 10SM OVC009 A3014 RMK MADISHF
GGW,2017-04-01 08:30,-106.6214,48.2138,M,M,M,150.00,12.00,M,30.15,M,10.00,M,OVC,M,M,M,900.00,M,M,M,M,KGGW 010830Z AUTO 15012KT 10SM OVC009 A3015 RMK MADISHF
GGW,2017-04-01 08:35,-106.6214,48.2138,M,M,M,150.00,11.00,M,30.15,M,10.00,M,OVC,M,M,M,900.00,M,M,M,M,KGGW 010835Z AUTO 15011KT 10SM OVC009 A3015 RMK MADISHF
GGW,2017-04-01 08:40,-106.6214,48.2138,M,M,M,150.00,10.00,M,30.15,M,10.00,M,OVC,M,M,M,900.00,M,M,M,M,KGGW 010840Z AUTO 15010KT 10SM OVC009 A3015 RMK MADISHF
GGW,2017-04-01 08:50,-106.6214,48.2138,M,M,M,160.00,9.00,M,30.15,M,10.00,M,OVC,M,M,M,900.00,M,M,M,M,KGGW 010850Z AUTO 16009KT 10SM OVC009 A3015 RMK MADISHF
GGW,2017-04-01 08:53,-106.6214,48.2138,41.00,37.90,88.62,160.00,8.00,0.00,30.15,1022.30,10.00,M,OVC,M,M,M,900.00,M,M,M,M,KGGW 010853Z AUTO 16008KT 10SM OVC009 05/03 A3015 RMK AO2 SLP223 T00500033 58006
GGW,2017-04-01 08:55,-106.6214,48.2138,M,M,M,160.00,7.00,M,30.15,M,10.00,M,OVC,M,M,M,900.00,M,M,M,M,KGGW 010855Z AUTO 16007KT 10SM OVC009 A3015 RMK MADISHF
GGW,2017-04-01 09:00,-106.6214,48.2138,M,M,M,160.00,8.00,M,30.15,M,10.00,M,OVC,M,M,M,900.00,M,M,M,M,KGGW 010900Z AUTO 16008KT 10SM OVC009 A3015 RMK MADISHF
GGW,2017-04-01 09:05,-106.6214,48.2138,M,M,M,150.00,8.00,M,30.15,M,10.00,M,OVC,M,M,M,900.00,M,M,M,M,KGGW 010905Z AUTO 15008KT 10SM OVC009 A3015 RMK MADISHF
GGW,2017-04-01 09:15,-106.6214,48.2138,M,M,M,140.00,8.00,M,30.14,M,10.00,M,OVC,M,M,M,900.00,M,M,M,M,KGGW 010915Z AUTO 14008KT 10SM OVC009 A3014 RMK MADISHF
GGW,2017-04-01 09:20,-106.6214,48.2138,M,M,M,150.00,10.00,M,30.14,M,10.00,M,OVC,M,M,M,900.00,M,M,M,M,KGGW 010920Z AUTO 15010KT 10SM OVC009 A3014 RMK MADISHF
GGW,2017-04-01 09:25,-106.6214,48.2138,M,M,M,140.00,7.00,M,30.14,M,10.00,M,OVC,M,M,M,900.00,M,M,M,M,KGGW 010925Z AUTO 14007KT 10SM OVC009 A3014 RMK MADISHF
GGW,2017-04-01 09:35,-106.6214,48.2138,M,M,M,140.00,8.00,M,30.14,M,10.00,M,OVC,M,M,M,800.00,M,M,M,M,KGGW 010935Z AUTO 14008KT 10SM OVC008 A3014 RMK MADISHF
GGW,2017-04-01 09:40,-106.6214,48.2138,M,M,M,150.00,9.00,M,30.14,M,10.00,M,OVC,M,M,M,800.00,M,M,M,M,KGGW 010940Z AUTO 15009KT 10SM OVC008 A3014 RMK MADISHF
GGW,2017-04-01 09:45,-106.6214,48.2138,M,M,M,150.00,8.00,M,30.14,M,10.00,M,OVC,M,M,M,800.00,M,M,M,M,KGGW 010945Z AUTO 15008KT 10SM OVC008 A3014 RMK MADISHF
GGW,2017-04-01 09:50,-106.6214,48.2138,M,M,M,170.00,9.00,M,30.14,M,10.00,M,OVC,M,M,M,800.00,M,M,M,M,KGGW 010950Z AUTO 17009KT 10SM OVC008 A3014 RMK MADISHF
GGW,2017-04-01 09:53,-106.6214,48.2138,41.00,37.90,88.62,150.00,8.00,0.00,30.14,1021.90,10.00,M,OVC,M,M,M,700.00,M,M,M,M,KGGW 010953Z AUTO 15008KT 10SM OVC007 05/03 A3014 RMK AO2 SLP219 T00500033
GGW,2017-04-01 10:05,-106.6214,48.2138,M,M,M,170.00,9.00,M,30.14,M,10.00,M,OVC,M,M,M,700.00,M,M,M,M,KGGW 011005Z AUTO 17009KT 10SM OVC007 A3014 RMK MADISHF
GGW,2017-04-01 10:10,-106.6214,48.2138,M,M,M,180.00,8.00,M,30.14,M,10.00,M,OVC,M,M,M,700.00,M,M,M,M,KGGW 011010Z AUTO 18008KT 10SM OVC007 A3014 RMK MADISHF
GGW,2017-04-01 10:15,-106.6214,48.2138,M,M,M,190.00,5.00,M,30.14,M,10.00,M,OVC,M,M,M,700.00,M,M,M,M,KGGW 011015Z AUTO 19005KT 10SM OVC007 A3014 RMK MADISHF
GGW,2017-04-01 10:25,-106.6214,48.2138,M,M,M,190.00,8.00,M,30.14,M,10.00,M,OVC,M,M,M,700.00,M,M,M,M,KGGW 011025Z AUTO 19008KT 10SM OVC007 A3014 RMK MADISHF
GGW,2017-04-01 10:30,-106.6214,48.2138,M,M,M,190.00,8.00,M,30.14,M,10.00,M,OVC,M,M,M,700.00,M,M,M,M,KGGW 011030Z AUTO 19008KT 10SM OVC007 A3014 RMK MADISHF
GGW,2017-04-01 10:35,-106.6214,48.2138,M,M,M,190.00,8.00,M,30.13,M,10.00,M,OVC,M,M,M,700.00,M,M,M,M,KGGW 011035Z AUTO 19008KT 10SM OVC007 A3013 RMK MADISHF
GGW,2017-04-01 10:45,-106.6214,48.2138,M,M,M,170.00,7.00,M,30.12,M,10.00,M,OVC,M,M,M,700.00,M,M,M,M,KGGW 011045Z AUTO 17007KT 10SM OVC007 A3012 RMK MADISHF
GGW,2017-04-01 10:50,-106.6214,48.2138,M,M,M,170.00,5.00,M,30.12,M,10.00,M,OVC,M,M,M,700.00,M,M,M,M,KGGW 011050Z AUTO 17005KT 10SM OVC007 A3012 RMK MADISHF
GGW,2017-04-01 10:53,-106.6214,48.2138,41.00,37.90,88.62,170.00,6.00,0.00,30.12,1021.30,10.00,M,OVC,M,M,M,700.00,M,M,M,M,KGGW 011053Z AUTO 17006KT 10SM OVC007 05/03 A3012 RMK AO2 SLP213 T00500033
GGW,2017-04-01 10:55,-106.6214,48.2138,M,M,M,170.00,6.00,M,30.12,M,10.00,M,OVC,M,M,M,800.00,M,M,M,M,KGGW 011055Z AUTO 17006KT 10SM OVC008 A3012 RMK MADISHF
GGW,2017-04-01 11:00,-106.6214,48.2138,M,M,M,150.00,4.00,M,30.12,M,10.00,M,OVC,M,M,M,800.00,M,M,M,M,KGGW 011100Z AUTO 15004KT 10SM OVC008 A3012 RMK MADISHF
GGW,2017-04-01 11:05,-106.6214,48.2138,M,M,M,130.00,6.00,M,30.11,M,10.00,M,OVC,M,M,M,800.00,M,M,M,M,KGGW 011105Z AUTO 13006KT 10SM OVC008 A3011 RMK MADISHF
GGW,2017-04-01 11:10,-106.6214,48.2138,M,M,M,130.00,6.00,M,30.11,M,10.00,M,OVC,M,M,M,900.00,M,M,M,M,KGGW 011110Z AUTO 13006KT 10SM OVC009 A3011 RMK MADISHF
GGW,2017-04-01 11:15,-106.6214,48.2138,M,M,M,130.00,6.00,M,30.11,M,10.00,M,OVC,M,M,M,900.00,M,M,M,M,KGGW 011115Z AUTO 13006KT 10SM OVC009 A3011 RMK MADISHF
GGW,2017-04-01 11:20,-106.6214,48.2138,M,M,M,140.00,7.00,M,30.11,M,10.00,M,OVC,M,M,M,900.00,M,M,M,M,KGGW 011120Z AUTO 14007KT 10SM OVC009 A3011 RMK MADISHF
GGW,2017-04-01 11:25,-106.6214,48.2138,M,M,M,150.00,8.00,M,30.11,M,10.00,M,OVC,M,M,M,900.00,M,M,M,M,KGGW 011125Z AUTO 15008KT 10SM OVC009 A3011 RMK MADISHF
GGW,2017-04-01 11:30,-106.6214,48.2138,M,M,M,160.00,9.00,M,30.11,M,10.00,M,OVC,M,M,M,900.00,M,M,M,M,KGGW 011130Z AUTO 16009KT 10SM OVC009 A3011 RMK MADISHF
GGW,2017-04-01 11:35,-106.6214,48.2138,M,M,M,160.00,9.00,M,30.11,M,10.00,M,OVC,M,M,M,900.00,M,M,M,M,KGGW 011135Z AUTO 16009KT 10SM OVC009 A3011 RMK MADISHF
GGW,2017-04-01 11:40,-106.6214,48.2138,M,M,M,160.00,7.00,M,30.11,M,10.00,M,OVC,M,M,M,900.00,M,M,M,M,KGGW 011140Z AUTO 16007KT 10SM OVC009 A3011 RMK MADISHF
GGW,2017-04-01 11:45,-106.6214,48.2138,M,M,M,160.00,8.00,M,30.10,M,10.00,M,OVC,M,M,M,900.00,M,M,M,M,KGGW 011145Z AUTO 16008KT 10SM OVC009 A3010 RMK MADISHF
GGW,2017-04-01 11:50,-106.6214,48.2138,M,M,M,160.00,8.00,M,30.10,M,10.00,M,OVC,M,M,M,900.00,M,M,M,M,KGGW 011150Z AUTO 16008KT 10SM OVC009 A3010 RMK MADISHF
GGW,2017-04-01 11:53,-106.6214,48.2138,41.00,37.90,88.62,150.00,8.00,0.00,30.10,1020.40,10.00,M,BKN,M,M,M,900.00,M,M,M,M,KGGW 011153Z AUTO 15008KT 10SM BKN009 05/03 A3010 RMK AO2 SLP204 70008 T00500033 10056 20017 58017
GGW,2017-04-01 11:55,-106.6214,48.2138,M,M,M,150.00,7.00,M,30.09,M,10.00,M,BKN,M,M,M,900.00,M,M,M,M,KGGW 011155Z AUTO 15007KT 10SM BKN009 A3009 RMK MADISHF
GGW,2017-04-01 12:00,-106.6214,48.2138,M,M,M,140.00,7.00,M,30.09,M,10.00,M,BKN,M,M,M,900.00,M,M,M,M,KGGW 011200Z AUTO 14007KT 10SM BKN009 A3009 RMK MADISHF
GGW,2017-04-01 12:05,-106.6214,48.2138,M,M,M,130.00,8.00,M,30.09,M,10.00,M,BKN,M,M,M,900.00,M,M,M,M,KGGW 011205Z AUTO 13008KT 10SM BKN009 A3009 RMK MADISHF
GGW,2017-04-01 12:15,-106.6214,48.2138,M,M,M,130.00,8.00,M,30.09,M,10.00,M,BKN,M,M,M,900.00,M,M,M,M,KGGW 011215Z AUTO 13008KT 10SM BKN009 A3009 RMK MADISHF
GGW,2017-04-01 12:20,-106.6214,48.2138,M,M,M,140.00,8.00,M,30.09,M,10.00,M,BKN,M,M,M,900.00,M,M,M,M,KGGW 011220Z AUTO 14008KT 10SM BKN009 A3009 RMK MADISHF
GGW,2017-04-01 12:25,-106.6214,48.2138,M,M,M,130.00,7.00,M,30.08,M,9.00,M,BKN,M,M,M,900.00,M,M,M,M,KGGW 011225Z AUTO 13007KT 9SM BKN009 A3008 RMK MADISHF
GGW,2017-04-01 12:35,-106.6214,48.2138,M,M,M,130.00,9.00,M,30.07,M,9.00,M,OVC,M,M,M,900.00,M,M,M,M,KGGW 011235Z AUTO 13009KT 9SM OVC009 A3007 RMK MADISHF
GGW,2017-04-01 12:40,-106.6214,48.2138,M,M,M,140.00,9.00,M,30.07,M,9.00,M,BKN,M,M,M,900.00,M,M,M,M,KGGW 011240Z AUTO 14009KT 9SM BKN009 A3007 RMK MADISHF
GGW,2017-04-01 12:45,-106.6214,48.2138,M,M,M,130.00,10.00,M,30.07,M,8.00,M,BKN,M,M,M,800.00,M,M,M,M,KGGW 011245Z AUTO 13010KT 8SM BKN008 A3007 RMK MADISHF
GGW,2017-04-01 12:50,-106.6214,48.2138,M,M,M,130.00,10.00,M,30.06,M,7.00,M,SCT,M,M,M,800.00,M,M,M,M,KGGW 011250Z AUTO 13010KT 7SM SCT008 A3006 RMK MADISHF
GGW,2017-04-01 12:53,-106.6214,48.2138,37.90,36.00,92.78,140.00,10.00,0.00,30.06,1019.50,7.00,M,SCT,M,M,M,800.00,M,M,M,M,KGGW 011253Z AUTO 14010KT 7SM SCT008 03/02 A3006 RMK AO2 SLP195 T00330022
GGW,2017-04-01 13:00,-106.6214,48.2138,M,M,M,130.00,9.00,M,30.06,M,6.00,M,FEW,M,M,M,800.00,M,M,M,BR,KGGW 011300Z AUTO 13009KT 6SM BR FEW008 A3006 RMK MADISHF
GGW,2017-04-01 13:05,-106.6214,48.2138,M,M,M,130.00,9.00,M,30.06,M,6.00,M,CLR,M,M,M,M,M,M,M,BR,KGGW 011305Z AUTO 13009KT 6SM BR CLR A3006 RMK MADISHF
GGW,2017-04-01 13:10,-106.6214,48.2138,M,M,M,140.00,10.00,M,30.06,M,6.00,M,CLR,M,M,M,M,M,M,M,BR,KGGW 011310Z AUTO 14010KT 6SM BR CLR A3006 RMK MADISHF
GGW,2017-04-01 13:15,-106.6214,48.2138,M,M,M,140.00,10.00,M,30.06,M,6.00,M,CLR,M,M,M,M,M,M,M,BR,KGGW 011315Z AUTO 14010KT 6SM BR CLR A3006 RMK MADISHF
GGW,2017-04-01 13:25,-106.6214,48.2138,M,M,M,140.00,9.00,M,30.07,M,5.00,M,CLR,M,M,M,M,M,M,M,BR,KGGW 011325Z AUTO 14009KT 5SM BR CLR A3007 RMK MADISHF
GGW,2017-04-01 13:30,-106.6214,48.2138,M,M,M,140.00,9.00,M,30.07,M,5.00,M,CLR,M,M,M,M,M,M,M,BR,KGGW 011330Z AUTO 14009KT 5SM BR CLR A3007 RMK MADISHF
GGW,2017-04-01 13:35,-106.6214,48.2138,M,M,M,130.00,9.00,M,30.07,M,5.00,M,CLR,M,M,M,M,M,M,M,BR,KGGW 011335Z AUTO 13009KT 5SM BR CLR A3007 RMK MADISHF
GGW,2017-04-01 13:40,-106.6214,48.2138,M,M,M,130.00,9.00,M,30.07,M,5.00,M,CLR,M,M,M,M,M,M,M,BR,KGGW 011340Z AUTO 13009KT 5SM BR CLR A3007 RMK MADISHF
GGW,2017-04-01 13:45,-106.6214,48.2138,M,M,M,130.00,9.00,M,30.07,M,5.00,M,CLR,M,M,M,M,M,M,M,BR,KGGW 011345Z AUTO 13009KT 5SM BR CLR A3007 RMK MADISHF
GGW,2017-04-01 13:53,-106.6214,48.2138,39.90,37.90,92.48,140.00,9.00,0.00,30.07,1020.00,5.00,M,CLR,M,M,M,M,M,M,M,BR,KGGW 011353Z AUTO 14009KT 5SM BR CLR 04/03 A3007 RMK AO2 SLP200 T00440033
GGW,2017-04-01 13:55,-106.6214,48.2138,M,M,M,140.00,9.00,M,30.07,M,5.00,M,FEW,M,M,M,700.00,M,M,M,BR,KGGW 011355Z AUTO 14009KT 5SM BR FEW007 A3007 RMK MADISHF
GGW,2017-04-01 14:00,-106.6214,48.2138,M,M,M,140.00,10.00,M,30.07,M,5.00,M,SCT,M,M,M,700.00,M,M,M,BR,KGGW 011400Z AUTO 14010KT 5SM BR SCT007 A3007 RMK MADISHF
GGW,2017-04-01 14:01,-106.6214,48.2138,39.90,37.90,92.48,140.00,10.00,0.00,30.07,M,5.00,M,SCT,M,M,M,700.00,M,M,M,BR,KGGW 011401Z AUTO 14010KT 5SM BR SCT007 04/03 A3007 RMK AO2 T00440033
GGW,2017-04-01 14:05,-106.6214,48.2138,M,M,M,140.00,11.00,M,30.07,M,6.00,M,SCT,M,M,M,700.00,M,M,M,BR,KGGW 011405Z AUTO 14011KT 6SM BR SCT007 A3007 RMK MADISHF
GGW,2017-04-01 14:12,-106.6214,48.2138,42.10,39.00,88.67,140.00,11.00,0.00,30.06,M,6.00,M,BKN,M,M,M,600.00,M,M,M,BR,KGGW 011412Z AUTO 14011KT 6SM BR BKN006 06/04 A3006 RMK AO2 T00560039
GGW,2017-04-01 14:15,-106.6214,48.2138,M,M,M,140.00,12.00,M,30.06,M,6.00,M,BKN,M,M,M,600.00,M,M,M,BR,KGGW 011415Z AUTO 14012KT 6SM BR BKN006 A3006 RMK MADISHF
GGW,2017-04-01 14:20,-106.6214,48.2138,M,M,M,140.00,12.00,M,30.05,M,6.00,M,OVC,M,M,M,600.00,M,M,M,BR,KGGW 011420Z AUTO 14012KT 6SM BR OVC006 A3005 RMK MADISHF
GGW,2017-04-01 14:25,-106.6214,48.2138,M,M,M,150.00,15.00,M,30.06,M,7.00,M,OVC,M,M,M,499.00,M,M,M,M,KGGW 011425Z AUTO 15015KT 7SM OVC004 A3006 RMK MADISHF
GGW,2017-04-01 14:30,-106.6214,48.2138,M,M,M,140.00,12.00,M,30.05,M,7.00,M,OVC,M,M,M,499.00,M,M,M,M,KGGW 011430Z AUTO 14012KT 7SM OVC004 A3005 RMK MADISHF
GGW,2017-04-01 14:35,-106.6214,48.2138,M,M,M,150.00,10.00,M,30.05,M,7.00,M,OVC,M,M,M,499.00,M,M,M,M,KGGW 011435Z AUTO 15010KT 7SM OVC004 A3005 RMK MADISHF
GGW,2017-04-01 14:40,-106.6214,48.2138,M,M,M,150.00,13.00,M,30.05,M,7.00,M,OVC,M,M,M,499.00,M,M,M,M,KGGW 011440Z AUTO 15013KT 7SM OVC004 A3005 RMK MADISHF
GGW,2017-04-01 14:45,-106.6214,48.2138,M,M,M,140.00,13.00,M,30.05,M,7.00,M,OVC,M,M,M,499.00,M,M,M,M,KGGW 011445Z AUTO 14013KT 7SM OVC004 A3005 RMK MADISHF
GGW,2017-04-01 14:50,-106.6214,48.2138,M,M,M,140.00,11.00,M,30.05,M,8.00,M,OVC,M,M,M,499.00,M,M,M,M,KGGW 011450Z AUTO 14011KT 8SM OVC004 A3005 RMK MADISHF
GGW,2017-04-01 14:53,-106.6214,48.2138,43.00,39.90,88.71,150.00,12.00,0.00,30.05,1019.50,8.00,M,OVC,M,M,M,500.00,M,M,M,M,KGGW 011453Z AUTO 15012KT 8SM OVC005 06/04 A3005 RMK AO2 SLP195 T00610044 56014
GGW,2017-04-01 14:55,-106.6214,48.2138,M,M,M,140.00,12.00,M,30.05,M,8.00,M,OVC,M,M,M,499.00,M,M,M,M,KGGW 011455Z AUTO 14012KT 8SM OVC004 A3005 RMK MADISHF
GGW,2017-04-01 15:05,-106.6214,48.2138,M,M,M,160.00,13.00,M,30.05,M,9.00,M,OVC,M,M,M,600.00,M,M,M,M,KGGW 011505Z AUTO 16013KT 9SM OVC006 A3005 RMK MADISHF
GGW,2017-04-01 15:10,-106.6214,48.2138,M,M,M,150.00,12.00,M,30.06,M,10.00,M,OVC,M,M,M,600.00,M,M,M,M,KGGW 011510Z AUTO 15012KT 10SM OVC006 A3006 RMK MADISHF
GGW,2017-04-01 15:15,-106.6214,48.2138,M,M,M,150.00,13.00,M,30.06,M,10.00,M,OVC,M,M,M,600.00,M,M,M,M,KGGW 011515Z AUTO 15013KT 10SM OVC006 A3006 RMK MADISHF
GGW,2017-04-01 15:20,-106.6214,48.2138,M,M,M,170.00,10.00,M,30.06,M,10.00,M,OVC,M,M,M,600.00,M,M,M,M,KGGW 011520Z AUTO 17010KT 10SM OVC006 A3006 RMK MADISHF
GGW,2017-04-01 15:30,-106.6214,48.2138,M,M,M,160.00,12.00,M,30.05,M,10.00,M,BKN,M,M,M,600.00,M,M,M,M,KGGW 011530Z AUTO 16012KT 10SM BKN006 A3005 RMK CIG 6V10  MADISHF
GGW,2017-04-01 15:35,-106.6214,48.2138,M,M,M,160.00,11.00,M,30.05,M,10.00,M,BKN,M,M,M,700.00,M,M,M,M,KGGW 011535Z AUTO 16011KT 10SM BKN007 A3005 RMK CIG 6V11  MADISHF
GGW,2017-04-01 15:40,-106.6214,48.2138,M,M,M,150.00,12.00,M,30.05,M,10.00,M,BKN,M,M,M,700.00,M,M,M,M,KGGW 011540Z AUTO 15012KT 10SM BKN007 A3005 RMK CIG 6V12  MADISHF
GGW,2017-04-01 15:45,-106.6214,48.2138,M,M,M,160.00,10.00,M,30.05,M,10.00,M,SCT,M,M,M,900.00,M,M,M,M,KGGW 011545Z AUTO 16010KT 10SM SCT009 A3005 RMK MADISHF
GGW,2017-04-01 15:49,-106.6214,48.2138,46.40,39.20,75.84,160.00,11.00,0.00,30.05,M,10.00,M,FEW,M,M,M,900.00,M,M,M,M,KGGW 011549Z AUTO 16011KT 10SM FEW009 08/04 A3005 RMK AO2
GGW,2017-04-01 15:53,-106.6214,48.2138,46.90,39.90,76.48,160.00,11.00,0.00,30.04,1019.10,10.00,M,FEW,M,M,M,900.00,M,M,M,M,KGGW 011553Z AUTO 16011KT 10SM FEW009 08/04 A3004 RMK AO2 SLP191 T00830044
GGW,2017-04-01 15:55,-106.6214,48.2138,M,M,M,150.00,11.00,M,30.04,M,10.00,M,FEW,M,M,M,900.00,M,M,M,M,KGGW 011555Z AUTO 15011KT 10SM FEW009 A3004 RMK MADISHF
GGW,2017-04-01 16:00,-106.6214,48.2138,M,M,M,160.00,11.00,M,30.04,M,10.00,M,FEW,M,M,M,900.00,M,M,M,M,KGGW 011600Z AUTO 16011KT 10SM FEW009 A3004 RMK MADISHF
GGW,2017-04-01 16:05,-106.6214,48.2138,M,M,M,170.00,11.00,M,30.04,M,10.00,M,CLR,M,M,M,M,M,M,M,M,KGGW 011605Z AUTO 17011KT 10SM CLR A3004 RMK MADISHF
GGW,2017-04-01 16:15,-106.6214,48.2138,M,M,M,150.00,9.00,M,30.03,M,10.00,M,CLR,M,M,M,M,M,M,M,M,KGGW 011615Z AUTO 15009KT 10SM CLR A3003 RMK MADISHF
GGW,2017-04-01 16:20,-106.6214,48.2138,M,M,M,160.00,12.00,M,30.03,M,10.00,M,CLR,M,M,M,M,M,M,M,M,KGGW 011620Z AUTO 16012KT 10SM CLR A3003 RMK MADISHF
GGW,2017-04-01 16:25,-106.6214,48.2138,M,M,M,160.00,11.00,M,30.02,M,10.00,M,CLR,M,M,M,M,M,M,M,M,KGGW 011625Z AUTO 16011KT 10SM CLR A3002 RMK MADISHF
GGW,2017-04-01 16:30,-106.6214,48.2138,M,M,M,170.00,9.00,M,30.02,M,10.00,M,CLR,M,M,M,M,M,M,M,M,KGGW 011630Z AUTO 17009KT 10SM CLR A3002 RMK MADISHF
GGW,2017-04-01 16:45,-106.6214,48.2138,M,M,M,170.00,12.00,M,30.01,M,10.00,M,CLR,M,M,M,M,M,M,M,M,KGGW 011645Z AUTO 17012KT 10SM CLR A3001 RMK MADISHF
GGW,2017-04-01 16:50,-106.6214,48.2138,M,M,M,170.00,16.00,M,30.01,M,10.00,M,CLR,M,M,M,M,M,M,M,M,KGGW 011650Z AUTO 17016KT 10SM CLR A3001 RMK MADISHF
GGW,2017-04-01 16:53,-106.6214,48.2138,51.10,39.90,65.38,180.00,12.00,0.00,30.01,1017.90,10.00,M,CLR,M,M,M,M,M,M,M,M,KGGW 011653Z AUTO 18012KT 10SM CLR 11/04 A3001 RMK AO2 SLP179 T01060044
GGW,2017-04-01 16:55,-106.6214,48.2138,M,M,M,170.00,14.00,M,30.01,M,10.00,M,CLR,M,M,M,M,M,M,M,M,KGGW 011655Z AUTO 17014KT 10SM CLR A3001 RMK MADISHF
GGW,2017-04-01 17:00,-106.6214,48.2138,M,M,M,160.00,13.00,M,30.01,M,10.00,M,CLR,M,M,M,M,M,M,M,M,KGGW 011700Z AUTO 16013KT 10SM CLR A3001 RMK MADISHF
GGW,2017-04-01 17:05,-106.6214,48.2138,M,M,M,160.00,13.00,M,30.01,M,10.00,18.00,CLR,M,M,M,M,M,M,M,M,KGGW 011705Z AUTO 16013G18KT 10SM CLR A3001 RMK MADISHF
GGW,2017-04-01 17:10,-106.6214,48.2138,M,M,M,170.00,15.00,M,30.00,M,10.00,M,CLR,M,M,M,M,M,M,M,M,KGGW 011710Z AUTO 17015KT 10SM CLR A3000 RMK MADISHF
GGW,2017-04-01 17:15,-106.6214,48.2138,M,M,M,170.00,15.00,M,30.00,M,10.00,M,CLR,M,M,M,M,M,M,M,M,KGGW 011715Z AUTO 17015KT 10SM CLR A3000 RMK MADISHF
GGW,2017-04-01 17:20,-106.6214,48.2138,M,M,M,170.00,14.00,M,29.99,M,10.00,M,CLR,M,M,M,M,M,M,M,M,KGGW 011720Z AUTO 17014KT 10SM CLR A2999 RMK MADISHF
GGW,2017-04-01 17:30,-106.6214,48.2138,M,M,M,180.00,19.00,M,29.98,M,10.00,M,CLR,M,M,M,M,M,M,M,M,KGGW 011730Z AUTO 18019KT 10SM CLR A2998 RMK MADISHF
GGW,2017-04-01 17:35,-106.6214,48.2138,M,M,M,180.00,19.00,M,29.98,M,10.00,M,CLR,M,M,M,M,M,M,M,M,KGGW 011735Z AUTO 18019KT 10SM CLR A2998 RMK MADISHF
GGW,2017-04-01 17:40,-106.6214,48.2138,M,M,M,180.00,16.00,M,29.98,M,10.00,M,CLR,M,M,M,M,M,M,M,M,KGGW 011740Z AUTO 18016KT 10SM CLR A2998 RMK MADISHF
GGW,2017-04-01 17:45,-106.6214,48.2138,M,M,M,180.00,18.00,M,29.98,M,10.00,M,CLR,M,M,M,M,M,M,M,M,KGGW 011745Z AUTO 18018KT 10SM CLR A2998 RMK MADISHF
GGW,2017-04-01 17:50,-106.6214,48.2138,M,M,M,190.00,17.00,M,29.98,M,10.00,M,CLR,M,M,M,M,M,M,M,M,KGGW 011750Z AUTO 19017KT 10SM CLR A2998 RMK MADISHF
GGW,2017-04-01 17:53,-106.6214,48.2138,55.00,39.00,54.70,190.00,14.00,0.00,29.97,1016.40,10.00,M,CLR,M,M,M,M,M,M,M,M,KGGW 011753Z AUTO 19014KT 10SM CLR 13/04 A2997 RMK AO2 PK WND 19026/1735 SLP164 T01280039 10128 20033 58024
GGW,2017-04-01 17:55,-106.6214,48.2138,M,M,M,190.00,18.00,M,29.97,M,10.00,M,CLR,M,M,M,M,M,M,M,M,KGGW 011755Z AUTO 19018KT 10SM CLR A2997 RMK MADISHF
GGW,2017-04-01 18:00,-106.6214,48.2138,M,M,M,170.00,18.00,M,29.97,M,10.00,M,CLR,M,M,M,M,M,M,M,M,KGGW 011800Z AUTO 17018KT 10SM CLR A2997 RMK MADISHF
GGW,2017-04-01 18:05,-106.6214,48.2138,M,M,M,180.00,16.00,M,29.97,M,10.00,M,CLR,M,M,M,M,M,M,M,M,KGGW 011805Z AUTO 18016KT 10SM CLR A2997 RMK MADISHF
GGW,2017-04-01 18:15,-106.6214,48.2138,M,M,M,190.00,15.00,M,29.96,M,10.00,M,CLR,M,M,M,M,M,M,M,M,KGGW 011815Z AUTO 19015KT 10SM CLR A2996 RMK MADISHF
GGW,2017-04-01 18:20,-106.6214,48.2138,M,M,M,190.00,15.00,M,29.95,M,10.00,M,CLR,M,M,M,M,M,M,M,M,KGGW 011820Z AUTO 19015KT 10SM CLR A2995 RMK MADISHF
GGW,2017-04-01 18:25,-106.6214,48.2138,M,M,M,170.00,16.00,M,29.95,M,10.00,M,CLR,M,M,M,M,M,M,M,M,KGGW 011825Z AUTO 17016KT 10SM CLR A2995 RMK MADISHF
GGW,2017-04-01 18:30,-106.6214,48.2138,M,M,M,180.00,16.00,M,29.95,M,10.00,M,FEW,M,M,M,3100.00,M,M,M,M,KGGW 011830Z AUTO 18016KT 10SM FEW031 A2995 RMK MADISHF
GGW,2017-04-01 18:40,-106.6214,48.2138,M,M,M,190.00,16.00,M,29.94,M,10.00,M,CLR,M,M,M,M,M,M,M,M,KGGW 011840Z AUTO 19016KT 10SM CLR A2994 RMK MADISHF
GGW,2017-04-01 18:45,-106.6214,48.2138,M,M,M,180.00,17.00,M,29.94,M,10.00,M,CLR,M,M,M,M,M,M,M,M,KGGW 011845Z AUTO 18017KT 10SM CLR A2994 RMK MADISHF
GGW,2017-04-01 18:50,-106.6214,48.2138,M,M,M,190.00,18.00,M,29.93,M,10.00,M,CLR,M,M,M,M,M,M,M,M,KGGW 011850Z AUTO 19018KT 10SM CLR A2993 RMK MADISHF
GGW,2017-04-01 18:53,-106.6214,48.2138,55.00,39.00,54.70,190.00,19.00,0.00,29.93,1014.60,10.00,23.00,CLR,M,M,M,M,M,M,M,M,KGGW 011853Z AUTO 19019G23KT 10SM CLR 13/04 A2993 RMK AO2 SLP146 T01280039
GGW,2017-04-01 18:55,-106.6214,48.2138,M,M,M,180.00,14.00,M,29.93,M,10.00,M,CLR,M,M,M,M,M,M,M,M,KGGW 011855Z AUTO 18014KT 10SM CLR A2993 RMK MADISHF
GGW,2017-04-01 19:00,-106.6214,48.2138,M,M,M,170.00,15.00,M,29.92,M,10.00,M,CLR,M,M,M,M,M,M,M,M,KGGW 011900Z AUTO 17015KT 10SM CLR A2992 RMK MADISHF
GGW,2017-04-01 19:10,-106.6214,48.2138,M,M,M,180.00,16.00,M,29.92,M,10.00,M,CLR,M,M,M,M,M,M,M,M,KGGW 011910Z AUTO 18016KT 10SM CLR A2992 RMK MADISHF
GGW,2017-04-01 19:15,-106.6214,48.2138,M,M,M,170.00,19.00,M,29.91,M,10.00,M,CLR,M,M,M,M,M,M,M,M,KGGW 011915Z AUTO 17019KT 10SM CLR A2991 RMK MADISHF
GGW,2017-04-01 19:20,-106.6214,48.2138,M,M,M,180.00,13.00,M,29.91,M,10.00,18.00,CLR,M,M,M,M,M,M,M,M,KGGW 011920Z AUTO 18013G18KT 10SM CLR A2991 RMK MADISHF
GGW,2017-04-01 19:25,-106.6214,48.2138,M,M,M,170.00,17.00,M,29.91,M,10.00,M,CLR,M,M,M,M,M,M,M,M,KGGW 011925Z AUTO 17017KT 10SM CLR A2991 RMK MADISHF
GGW,2017-04-01 19:30,-106.6214,48.2138,M,M,M,170.00,15.00,M,29.91,M,10.00,M,CLR,M,M,M,M,M,M,M,M,KGGW 011930Z AUTO 17015KT 10SM CLR A2991 RMK MADISHF
GGW,2017-04-01 19:40,-106.6214,48.2138,M,M,M,180.00,18.00,M,29.90,M,10.00,M,CLR,M,M,M,M,M,M,M,M,KGGW 011940Z AUTO 18018KT 10SM CLR A2990 RMK MADISHF
GGW,2017-04-01 19:45,-106.6214,48.2138,M,M,M,170.00,19.00,M,29.90,M,10.00,M,CLR,M,M,M,M,M,M,M,M,KGGW 011945Z AUTO 17019KT 10SM CLR A2990 RMK MADISHF
GGW,2017-04-01 19:50,-106.6214,48.2138,M,M,M,190.00,18.00,M,29.89,M,10.00,M,CLR,M,M,M,M,M,M,M,M,KGGW 011950Z AUTO 19018KT 10SM CLR A2989 RMK MADISHF
GGW,2017-04-01 19:53,-106.6214,48.2138,55.00,39.00,54.70,190.00,17.00,0.00,29.89,1013.20,10.00,M,CLR,M,M,M,M,M,M,M,M,KGGW 011953Z AUTO 19017KT 10SM CLR 13/04 A2989 RMK AO2 SLP132 T01280039
GGW,2017-04-01 19:55,-106.6214,48.2138,M,M,M,180.00,16.00,M,29.89,M,10.00,M,CLR,M,M,M,M,M,M,M,M,KGGW 011955Z AUTO 18016KT 10SM CLR A2989 RMK MADISHF
GGW,2017-04-01 20:05,-106.6214,48.2138,M,M,M,170.00,15.00,M,29.88,M,10.00,M,CLR,M,M,M,M,M,M,M,M,KGGW 012005Z AUTO 17015KT 10SM CLR A2988 RMK MADISHF
GGW,2017-04-01 20:10,-106.6214,48.2138,M,M,M,180.00,18.00,M,29.88,M,10.00,M,CLR,M,M,M,M,M,M,M,M,KGGW 012010Z AUTO 18018KT 10SM CLR A2988 RMK MADISHF
GGW,2017-04-01 20:15,-106.6214,48.2138,M,M,M,180.00,17.00,M,29.88,M,10.00,M,CLR,M,M,M,M,M,M,M,M,KGGW 012015Z AUTO 18017KT 10SM CLR A2988 RMK MADISHF
GGW,2017-04-01 20:20,-106.6214,48.2138,M,M,M,180.00,15.00,M,29.87,M,10.00,21.00,CLR,M,M,M,M,M,M,M,M,KGGW 012020Z AUTO 18015G21KT 10SM CLR A2987 RMK MADISHF
GGW,2017-04-01 20:25,-106.6214,48.2138,M,M,M,180.00,17.00,M,29.87,M,10.00,23.00,CLR,M,M,M,M,M,M,M,M,KGGW 012025Z AUTO 18017G23KT 10SM CLR A2987 RMK MADISHF
GGW,2017-04-01 20:30,-106.6214,48.2138,M,M,M,180.00,12.00,M,29.87,M,10.00,17.00,CLR,M,M,M,M,M,M,M,M,KGGW 012030Z AUTO 18012G17KT 10SM CLR A2987 RMK MADISHF
GGW,2017-04-01 20:35,-106.6214,48.2138,M,M,M,180.00,19.00,M,29.87,M,10.00,M,CLR,M,M,M,M,M,M,M,M,KGGW 012035Z AUTO 18019KT 10SM CLR A2987 RMK MADISHF
GGW,2017-04-01 20:40,-106.6214,48.2138,M,M,M,180.00,19.00,M,29.87,M,10.00,M,CLR,M,M,M,M,M,M,M,M,KGGW 012040Z AUTO 18019KT 10SM CLR A2987 RMK MADISHF
GGW,2017-04-01 20:45,-106.6214,48.2138,M,M,M,180.00,18.00,M,29.87,M,10.00,M,CLR,M,M,M,M,M,M,M,M,KGGW 012045Z AUTO 18018KT 10SM CLR A2987 RMK MADISHF
GGW,2017-04-01 20:50,-106.6214,48.2138,M,M,M,190.00,18.00,M,29.86,M,10.00,M,CLR,M,M,M,M,M,M,M,M,KGGW 012050Z AUTO 19018KT 10SM CLR A2986 RMK MADISHF
GGW,2017-04-01 20:53,-106.6214,48.2138,55.90,37.90,50.71,180.00,16.00,0.00,29.86,1012.00,10.00,23.00,CLR,M,M,M,M,M,M,M,M,KGGW 012053Z AUTO 18016G23KT 10SM CLR 13/03 A2986 RMK AO2 SLP120 T01330033 56036
GGW,2017-04-01 20:55,-106.6214,48.2138,M,M,M,180.00,15.00,M,29.86,M,10.00,M,CLR,M,M,M,M,M,M,M,M,KGGW 012055Z AUTO 18015KT 10SM CLR A2986 RMK MADISHF
GGW,2017-04-01 21:00,-106.6214,48.2138,M,M,M,180.00,16.00,M,29.85,M,10.00,M,CLR,M,M,M,M,M,M,M,M,KGGW 012100Z AUTO 18016KT 10SM CLR A2985 RMK MADISHF
GGW,2017-04-01 21:05,-106.6214,48.2138,M,M,M,190.00,15.00,M,29.85,M,10.00,M,CLR,M,M,M,M,M,M,M,M,KGGW 012105Z AUTO 19015KT 10SM CLR A2985 RMK MADISHF
GGW,2017-04-01 21:10,-106.6214,48.2138,M,M,M,190.00,17.00,M,29.84,M,10.00,M,CLR,M,M,M,M,M,M,M,M,KGGW 012110Z AUTO 19017KT 10SM CLR A2984 RMK MADISHF
GGW,2017-04-01 21:15,-106.6214,48.2138,M,M,M,190.00,16.00,M,29.84,M,10.00,M,CLR,M,M,M,M,M,M,M,M,KGGW 012115Z AUTO 19016KT 10SM CLR A2984 RMK MADISHF
GGW,2017-04-01 21:20,-106.6214,48.2138,M,M,M,180.00,15.00,M,29.83,M,10.00,20.00,CLR,M,M,M,M,M,M,M,M,KGGW 012120Z AUTO 18015G20KT 10SM CLR A2983 RMK MADISHF
GGW,2017-04-01 21:25,-106.6214,48.2138,M,M,M,180.00,15.00,M,29.83,M,10.00,M,CLR,M,M,M,M,M,M,M,M,KGGW 012125Z AUTO 18015KT 10SM CLR A2983 RMK MADISHF
GGW,2017-04-01 21:30,-106.6214,48.2138,M,M,M,180.00,16.00,M,29.83,M,10.00,M,CLR,M,M,M,M,M,M,M,M,KGGW 012130Z AUTO 18016KT 10SM CLR A2983 RMK MADISHF
GGW,2017-04-01 21:40,-106.6214,48.2138,M,M,M,190.00,15.00,M,29.82,M,10.00,M,CLR,M,M,M,M,M,M,M,M,KGGW 012140Z AUTO 19015KT 10SM CLR A2982 RMK MADISHF
GGW,2017-04-01 21:45,-106.6214,48.2138,M,M,M,200.00,16.00,M,29.82,M,10.00,M,CLR,M,M,M,M,M,M,M,M,KGGW 012145Z AUTO 20016KT 10SM CLR A2982 RMK MADISHF
GGW,2017-04-01 21:50,-106.6214,48.2138,M,M,M,190.00,12.00,M,29.82,M,10.00,M,CLR,M,M,M,M,M,M,M,M,KGGW 012150Z AUTO 19012KT 10SM CLR A2982 RMK MADISHF
GGW,2017-04-01 21:53,-106.6214,48.2138,57.90,37.90,47.18,180.00,13.00,0.00,29.81,1010.30,10.00,20.00,CLR,M,M,M,M,M,M,M,M,KGGW 012153Z AUTO 18013G20KT 10SM CLR 14/03 A2981 RMK AO2 SLP103 T01440033
GGW,2017-04-01 22:00,-106.6214,48.2138,M,M,M,180.00,14.00,M,29.81,M,10.00,M,CLR,M,M,M,M,M,M,M,M,KGGW 012200Z AUTO 18014KT 10SM CLR A2981 RMK MADISHF
GGW,2017-04-01 22:05,-106.6214,48.2138,M,M,M,180.00,11.00,M,29.81,M,10.00,M,CLR,M,M,M,M,M,M,M,M,KGGW 012205Z AUTO 18011KT 10SM CLR A2981 RMK MADISHF
GGW,2017-04-01 22:10,-106.6214,48.2138,M,M,M,190.00,13.00,M,29.80,M,10.00,M,CLR,M,M,M,M,M,M,M,M,KGGW 012210Z AUTO 19013KT 10SM CLR A2980 RMK MADISHF
GGW,2017-04-01 22:15,-106.6214,48.2138,M,M,M,180.00,15.00,M,29.80,M,10.00,M,CLR,M,M,M,M,M,M,M,M,KGGW 012215Z AUTO 18015KT 10SM CLR A2980 RMK MADISHF
GGW,2017-04-01 22:20,-106.6214,48.2138,M,M,M,190.00,14.00,M,29.79,M,10.00,M,CLR,M,M,M,M,M,M,M,M,KGGW 012220Z AUTO 19014KT 10SM CLR A2979 RMK MADISHF
GGW,2017-04-01 22:25,-106.6214,48.2138,M,M,M,190.00,13.00,M,29.79,M,10.00,M,CLR,M,M,M,M,M,M,M,M,KGGW 012225Z AUTO 19013KT 10SM CLR A2979 RMK MADISHF
GGW,2017-04-01 22:30,-106.6214,48.2138,M,M,M,180.00,12.00,M,29.79,M,10.00,M,CLR,M,M,M,M,M,M,M,M,KGGW 012230Z AUTO 18012KT 10SM CLR A2979 RMK MADISHF
GGW,2017-04-01 22:35,-106.6214,48.2138,M,M,M,180.00,13.00,M,29.79,M,10.00,M,CLR,M,M,M,M,M,M,M,M,KGGW 012235Z AUTO 18013KT 10SM CLR A2979 RMK MADISHF
GGW,2017-04-01 22:40,-106.6214,48.2138,M,M,M,190.00,11.00,M,29.78,M,10.00,M,CLR,M,M,M,M,M,M,M,M,KGGW 012240Z AUTO 19011KT 10SM CLR A2978 RMK MADISHF
GGW,2017-04-01 22:45,-106.6214,48.2138,M,M,M,180.00,14.00,M,29.78,M,10.00,M,CLR,M,M,M,M,M,M,M,M,KGGW 012245Z AUTO 18014KT 10SM CLR A2978 RMK MADISHF
GGW,2017-04-01 22:50,-106.6214,48.2138,M,M,M,190.00,13.00,M,29.78,M,10.00,M,CLR,M,M,M,M,M,M,M,M,KGGW 012250Z AUTO 19013KT 10SM CLR A2978 RMK MADISHF
GGW,2017-04-01 22:53,-106.6214,48.2138,62.10,37.00,39.21,190.00,14.00,0.00,29.78,1008.90,10.00,M,CLR,M,M,M,M,M,M,M,M,KGGW 012253Z AUTO 19014KT 10SM CLR 17/03 A2978 RMK AO2 SLP089 T01670028
GGW,2017-04-01 23:00,-106.6214,48.2138,M,M,M,190.00,12.00,M,29.78,M,10.00,M,CLR,M,M,M,M,M,M,M,M,KGGW 012300Z AUTO 19012KT 10SM CLR A2978 RMK MADISHF
GGW,2017-04-01 23:05,-106.6214,48.2138,M,M,M,210.00,14.00,M,29.78,M,10.00,M,CLR,M,M,M,M,M,M,M,M,KGGW 012305Z AUTO 21014KT 10SM CLR A2978 RMK MADISHF
GGW,2017-04-01 23:10,-106.6214,48.2138,M,M,M,200.00,11.00,M,29.77,M,10.00,M,CLR,M,M,M,M,M,M,M,M,KGGW 012310Z AUTO 20011KT 10SM CLR A2977 RMK MADISHF
GGW,2017-04-01 23:20,-106.6214,48.2138,M,M,M,190.00,13.00,M,29.77,M,10.00,M,CLR,M,M,M,M,M,M,M,M,KGGW 012320Z AUTO 19013KT 10SM CLR A2977 RMK MADISHF
GGW,2017-04-01 23:25,-106.6214,48.2138,M,M,M,200.00,13.00,M,29.77,M,10.00,M,CLR,M,M,M,M,M,M,M,M,KGGW 012325Z AUTO 20013KT 10SM CLR A2977 RMK MADISHF
GGW,2017-04-01 23:30,-106.6214,48.2138,M,M,M,200.00,12.00,M,29.77,M,10.00,M,CLR,M,M,M,M,M,M,M,M,KGGW 012330Z AUTO 20012KT 10SM CLR A2977 RMK MADISHF
GGW,2017-04-01 23:35,-106.6214,48.2138,M,M,M,190.00,10.00,M,29.76,M,10.00,M,CLR,M,M,M,M,M,M,M,M,KGGW 012335Z AUTO 19010KT 10SM CLR A2976 RMK MADISHF
GGW,2017-04-01 23:45,-106.6214,48.2138,M,M,M,190.00,11.00,M,29.76,M,10.00,M,CLR,M,M,M,M,M,M,M,M,KGGW 012345Z AUTO 19011KT 10SM CLR A2976 RMK MADISHF
GGW,2017-04-01 23:50,-106.6214,48.2138,M,M,M,190.00,11.00,M,29.75,M,10.00,M,CLR,M,M,M,M,M,M,M,M,KGGW 012350Z AUTO 19011KT 10SM CLR A2975 RMK MADISHF
GGW,2017-04-01 23:53,-106.6214,48.2138,61.00,36.00,39.19,200.00,16.00,0.00,29.76,1008.20,10.00,M,CLR,M,M,M,M,M,M,M,M,KGGW 012353Z AUTO 20016KT 10SM CLR 16/02 A2976 RMK AO2 SLP082 T01610022 10167 20122 56033
GGW,2017-04-01 23:55,-106.6214,48.2138,M,M,M,190.00,13.00,M,29.75,M,10.00,M,CLR,M,M,M,M,M,M,M,M,KGGW 012355Z AUTO 19013KT 10SM CLR A2975 RMK MADISHF
