#DEBUG: Format Typ    -> comma
#DEBUG: Time Period   -> 2017-04-01 00:00:00+00:00 2017-04-02 00:00:00+00:00
#DEBUG: Time Zone     -> Etc/UTC
#DEBUG: Data Contact   -> daryl herzmann akrherz@iastate.edu 515-294-5978
#DEBUG: Entries Found -> -1
station,valid,lon,lat,tmpf, dwpf, relh, drct, sknt, p01i, alti, mslp, vsby, gust, skyc1, skyc2, skyc3, skyc4, skyl1, skyl2, skyl3, skyl4, presentwx, metar
GIC,2017-04-01 00:15,-116.1234,45.9426,48.20,35.60,61.52,0.00,0.00,0.00,30.20,M,10.00,M,BKN,BKN,OVC,M,4000.00,4600.00,5500.00,M,M,KGIC 010015Z AUTO 00000KT 10SM BKN040 BKN046 OVC055 09/02 A3020 RMK AO1
GIC,2017-04-01 00:35,-116.1234,45.9426,48.20,35.60,61.52,0.00,0.00,0.00,30.19,M,10.00,M,SCT,SCT,M,M,4500.00,5500.00,M,M,M,KGIC 010035Z AUTO 00000KT 10SM SCT045 SCT055 09/02 A3019 RMK AO1
GIC,2017-04-01 00:55,-116.1234,45.9426,48.20,35.60,61.52,0.00,0.00,0.00,30.19,M,10.00,M,CLR,M,M,M,M,M,M,M,M,KGIC 010055Z AUTO 00000KT 10SM CLR 09/02 A3019 RMK AO1
GIC,2017-04-01 01:15,-116.1234,45.9426,48.20,35.60,61.52,0.00,0.00,0.00,30.19,M,10.00,M,CLR,M,M,M,M,M,M,M,M,KGIC 010115Z AUTO 00000KT 10SM CLR 09/02 A3019 RMK AO1
GIC,2017-04-01 01:35,-116.1234,45.9426,46.40,35.60,65.83,0.00,0.00,0.00,30.19,M,10.00,M,SCT,M,M,M,4100.00,M,M,M,M,KGIC 010135Z AUTO 00000KT 10SM SCT041 08/02 A3019 RMK AO1
GIC,2017-04-01 01:55,-116.1234,45.9426,46.40,35.60,65.83,0.00,0.00,0.00,30.19,M,10.00,M,BKN,M,M,M,4100.00,M,M,M,M,KGIC 010155Z AUTO 00000KT 10SM BKN041 08/02 A3019 RMK AO1
GIC,2017-04-01 02:15,-116.1234,45.9426,46.40,35.60,65.83,0.00,0.00,0.00,30.19,M,10.00,M,BKN,M,M,M,4100.00,M,M,M,M,KGIC 010215Z AUTO 00000KT 10SM BKN041 08/02 A3019 RMK AO1
GIC,2017-04-01 02:35,-116.1234,45.9426,46.40,37.40,70.68,170.00,3.00,0.00,30.19,M,10.00,M,OVC,M,M,M,3900.00,M,M,M,M,KGIC 010235Z AUTO 17003KT 10SM OVC039 08/03 A3019 RMK AO1
GIC,2017-04-01 02:55,-116.1234,45.9426,44.60,37.40,75.68,150.00,5.00,0.00,30.19,M,10.00,M,OVC,M,M,M,3900.00,M,M,M,M,KGIC 010255Z AUTO 15005KT 10SM OVC039 07/03 A3019 RMK AO1
GIC,2017-04-01 03:15,-116.1234,45.9426,44.60,37.40,75.68,0.00,0.00,0.00,30.20,M,10.00,M,OVC,M,M,M,3900.00,M,M,M,M,KGIC 010315Z AUTO 00000KT 10SM OVC039 07/03 A3020 RMK AO1
GIC,2017-04-01 03:35,-116.1234,45.9426,42.80,37.40,81.07,0.00,0.00,0.00,30.19,M,10.00,M,OVC,M,M,M,3900.00,M,M,M,M,KGIC 010335Z AUTO 00000KT 10SM OVC039 06/03 A3019 RMK AO1
GIC,2017-04-01 03:55,-116.1234,45.9426,42.80,37.40,81.07,0.00,0.00,0.00,30.20,M,10.00,M,BKN,M,M,M,3700.00,M,M,M,M,KGIC 010355Z AUTO 00000KT 10SM BKN037 06/03 A3020 RMK AO1
GIC,2017-04-01 04:15,-116.1234,45.9426,42.80,37.40,81.07,0.00,0.00,0.00,30.20,M,10.00,M,BKN,M,M,M,3700.00,M,M,M,M,KGIC 010415Z AUTO 00000KT 10SM BKN037 06/03 A3020 RMK AO1
GIC,2017-04-01 04:35,-116.1234,45.9426,42.80,35.60,75.50,0.00,0.00,0.00,30.20,M,10.00,M,OVC,M,M,M,3700.00,M,M,M,M,KGIC 010435Z AUTO 00000KT 10SM OVC037 06/02 A3020 RMK AO1
GIC,2017-04-01 04:55,-116.1234,45.9426,42.80,35.60,75.50,0.00,0.00,0.00,30.20,M,10.00,M,OVC,M,M,M,3700.00,M,M,M,M,KGIC 010455Z AUTO 00000KT 10SM OVC037 06/02 A3020 RMK AO1
GIC,2017-04-01 05:15,-116.1234,45.9426,42.80,37.40,81.07,0.00,0.00,0.00,30.20,M,10.00,M,OVC,M,M,M,3500.00,M,M,M,M,KGIC 010515Z AUTO 00000KT 10SM OVC035 06/03 A3020 RMK AO1
GIC,2017-04-01 05:35,-116.1234,45.9426,42.80,35.60,75.50,0.00,0.00,0.00,30.20,M,10.00,M,OVC,M,M,M,3500.00,M,M,M,M,KGIC 010535Z AUTO 00000KT 10SM OVC035 06/02 A3020 RMK AO1
GIC,2017-04-01 05:55,-116.1234,45.9426,42.80,37.40,81.07,150.00,6.00,0.00,30.20,M,10.00,M,OVC,M,M,M,3700.00,M,M,M,M,KGIC 010555Z AUTO 15006KT 10SM OVC037 06/03 A3020 RMK AO1
GIC,2017-04-01 06:15,-116.1234,45.9426,42.80,35.60,75.50,0.00,0.00,0.00,30.21,M,10.00,M,OVC,M,M,M,3700.00,M,M,M,M,KGIC 010615Z AUTO 00000KT 10SM OVC037 06/02 A3021 RMK AO1
GIC,2017-04-01 06:35,-116.1234,45.9426,42.80,37.40,81.07,100.00,3.00,0.00,30.18,M,10.00,M,OVC,M,M,M,3700.00,M,M,M,M,KGIC 010635Z AUTO 10003KT 10SM OVC037 06/03 A3018 RMK AO1
GIC,2017-04-01 06:55,-116.1234,45.9426,42.80,35.60,75.50,110.00,4.00,0.00,30.18,M,10.00,M,OVC,M,M,M,3700.00,M,M,M,M,KGIC 010655Z AUTO 11004KT 10SM OVC037 06/02 A3018 RMK AO1
GIC,2017-04-01 07:15,-116.1234,45.9426,39.20,35.60,86.79,0.00,0.00,0.00,30.19,M,10.00,M,SCT,M,M,M,3500.00,M,M,M,M,KGIC 010715Z AUTO 00000KT 10SM SCT035 04/02 A3019 RMK AO1
GIC,2017-04-01 07:35,-116.1234,45.9426,37.40,35.60,93.14,0.00,0.00,0.00,30.19,M,10.00,M,CLR,M,M,M,M,M,M,M,M,KGIC 010735Z AUTO 00000KT 10SM CLR 03/02 A3019 RMK AO1
GIC,2017-04-01 07:55,-116.1234,45.9426,37.40,35.60,93.14,0.00,0.00,0.00,30.20,M,10.00,M,CLR,M,M,M,M,M,M,M,M,KGIC 010755Z AUTO 00000KT 10SM CLR 03/02 A3020 RMK AO1
GIC,2017-04-01 08:15,-116.1234,45.9426,35.60,33.80,93.08,0.00,0.00,0.00,30.21,M,10.00,M,CLR,M,M,M,M,M,M,M,M,KGIC 010815Z AUTO 00000KT 10SM CLR 02/01 A3021 RMK AO1
GIC,2017-04-01 08:35,-116.1234,45.9426,35.60,33.80,93.08,210.00,3.00,0.00,30.20,M,10.00,M,CLR,M,M,M,M,M,M,M,M,KGIC 010835Z AUTO 21003KT 10SM CLR 02/01 A3020 RMK AO1
GIC,2017-04-01 08:55,-116.1234,45.9426,35.60,33.80,93.08,170.00,3.00,0.00,30.20,M,10.00,M,CLR,M,M,M,M,M,M,M,M,KGIC 010855Z AUTO 17003KT 10SM CLR 02/01 A3020 RMK AO1
GIC,2017-04-01 09:15,-116.1234,45.9426,35.60,33.80,93.08,150.00,4.00,0.00,30.19,M,10.00,M,CLR,M,M,M,M,M,M,M,M,KGIC 010915Z AUTO 15004KT 10SM CLR 02/01 A3019 RMK AO1
GIC,2017-04-01 09:35,-116.1234,45.9426,35.60,33.80,93.08,140.00,6.00,0.00,30.16,M,10.00,M,CLR,M,M,M,M,M,M,M,M,KGIC 010935Z AUTO 14006KT 10SM CLR 02/01 A3016 RMK AO1
GIC,2017-04-01 09:55,-116.1234,45.9426,35.60,33.80,93.08,0.00,0.00,0.00,30.16,M,10.00,M,CLR,M,M,M,M,M,M,M,M,KGIC 010955Z AUTO 00000KT 10SM CLR 02/01 A3016 RMK AO1
GIC,2017-04-01 10:15,-116.1234,45.9426,33.80,32.00,93.03,270.00,3.00,0.00,30.16,M,10.00,M,CLR,M,M,M,M,M,M,M,M,KGIC 011015Z AUTO 27003KT 10SM CLR 01/00 A3016 RMK AO1
GIC,2017-04-01 10:35,-116.1234,45.9426,33.80,32.00,93.03,260.00,4.00,0.00,30.16,M,10.00,M,CLR,M,M,M,M,M,M,M,M,KGIC 011035Z AUTO 26004KT 10SM CLR 01/00 A3016 RMK AO1
GIC,2017-04-01 10:55,-116.1234,45.9426,33.80,32.00,93.03,200.00,3.00,0.00,30.15,M,10.00,M,CLR,M,M,M,M,M,M,M,M,KGIC 011055Z AUTO 20003KT 10SM CLR 01/00 A3015 RMK AO1
GIC,2017-04-01 11:15,-116.1234,45.9426,35.60,33.80,93.08,200.00,4.00,0.00,30.13,M,10.00,M,CLR,M,M,M,M,M,M,M,M,KGIC 011115Z AUTO 20004KT 10SM CLR 02/01 A3013 RMK AO1
GIC,2017-04-01 11:35,-116.1234,45.9426,33.80,32.00,93.03,0.00,0.00,0.00,30.13,M,10.00,M,CLR,M,M,M,M,M,M,M,M,KGIC 011135Z AUTO 00000KT 10SM CLR 01/00 A3013 RMK AO1
GIC,2017-04-01 11:55,-116.1234,45.9426,33.80,32.00,93.03,0.00,0.00,0.00,30.12,M,10.00,M,CLR,M,M,M,M,M,M,M,M,KGIC 011155Z AUTO 00000KT 10SM CLR 01/00 A3012 RMK AO1
GIC,2017-04-01 12:20,-116.1234,45.9426,32.00,32.00,100.00,260.00,3.00,0.00,30.12,M,7.00,M,CLR,M,M,M,M,M,M,M,M,KGIC 011220Z AUTO 26003KT 7SM CLR 00/00 A3012 RMK AO1
GIC,2017-04-01 12:35,-116.1234,45.9426,33.80,32.00,93.03,250.00,7.00,0.00,30.13,M,10.00,M,CLR,M,M,M,M,M,M,M,M,KGIC 011235Z AUTO 25007KT 10SM CLR 01/00 A3013 RMK AO1
GIC,2017-04-01 12:55,-116.1234,45.9426,32.00,32.00,100.00,230.00,8.00,0.00,30.16,M,10.00,M,CLR,M,M,M,M,M,M,M,M,KGIC 011255Z AUTO 23008KT 10SM CLR 00/00 A3016 RMK AO1
GIC,2017-04-01 13:15,-116.1234,45.9426,33.80,32.00,93.03,190.00,3.00,0.00,30.16,M,10.00,M,CLR,M,M,M,M,M,M,M,M,KGIC 011315Z AUTO 19003KT 10SM CLR 01/00 A3016 RMK AO1
GIC,2017-04-01 13:35,-116.1234,45.9426,33.80,32.00,93.03,0.00,0.00,0.00,30.17,M,10.00,M,CLR,M,M,M,M,M,M,M,M,KGIC 011335Z AUTO 00000KT 10SM CLR 01/00 A3017 RMK AO1
GIC,2017-04-01 13:55,-116.1234,45.9426,33.80,32.00,93.03,100.00,7.00,0.00,30.16,M,10.00,M,CLR,M,M,M,M,M,M,M,M,KGIC 011355Z AUTO 10007KT 10SM CLR 01/00 A3016 RMK AO1
GIC,2017-04-01 14:15,-116.1234,45.9426,33.80,32.00,93.03,0.00,0.00,0.00,30.16,M,10.00,M,CLR,M,M,M,M,M,M,M,M,KGIC 011415Z AUTO 00000KT 10SM CLR 01/00 A3016 RMK AO1
GIC,2017-04-01 14:35,-116.1234,45.9426,33.80,33.80,100.00,130.00,3.00,0.00,30.15,M,7.00,M,CLR,M,M,M,M,M,M,M,M,KGIC 011435Z AUTO 13003KT 7SM CLR 01/01 A3015 RMK AO1
GIC,2017-04-01 14:55,-116.1234,45.9426,35.60,33.80,93.08,0.00,0.00,0.00,30.14,M,10.00,M,CLR,M,M,M,M,M,M,M,M,KGIC 011455Z AUTO 00000KT 10SM CLR 02/01 A3014 RMK AO1
GIC,2017-04-01 15:15,-116.1234,45.9426,37.40,33.80,86.69,290.00,3.00,0.00,30.15,M,10.00,M,CLR,M,M,M,M,M,M,M,M,KGIC 011515Z AUTO 29003KT 10SM CLR 03/01 A3015 RMK AO1
GIC,2017-04-01 15:35,-116.1234,45.9426,37.40,35.60,93.14,310.00,4.00,0.00,30.15,M,10.00,M,CLR,M,M,M,M,M,M,M,M,KGIC 011535Z AUTO 31004KT 10SM CLR 03/02 A3015 RMK AO1
GIC,2017-04-01 15:55,-116.1234,45.9426,41.00,35.60,80.93,0.00,0.00,0.00,30.14,M,10.00,M,CLR,M,M,M,M,M,M,M,M,KGIC 011555Z AUTO 00000KT 10SM CLR 05/02 A3014 RMK AO1
GIC,2017-04-01 16:15,-116.1234,45.9426,42.80,35.60,75.50,70.00,4.00,0.00,30.14,M,10.00,M,CLR,M,M,M,M,M,M,M,M,KGIC 011615Z AUTO 07004KT 10SM CLR 06/02 A3014 RMK AO1
GIC,2017-04-01 16:35,-116.1234,45.9426,42.80,37.40,81.07,80.00,3.00,0.00,30.14,M,10.00,M,CLR,M,M,M,M,M,M,M,M,KGIC 011635Z AUTO 08003KT 10SM CLR 06/03 A3014 RMK AO1
GIC,2017-04-01 16:55,-116.1234,45.9426,44.60,37.40,75.68,100.00,5.00,0.00,30.14,M,10.00,M,CLR,M,M,M,M,M,M,M,M,KGIC 011655Z AUTO 10005KT 10SM CLR 07/03 A3014 RMK AO1
GIC,2017-04-01 17:15,-116.1234,45.9426,46.40,35.60,65.83,0.00,0.00,0.00,30.14,M,10.00,M,CLR,M,M,M,M,M,M,M,M,KGIC 011715Z AUTO 00000KT 10SM CLR 08/02 A3014 RMK AO1
GIC,2017-04-01 17:35,-116.1234,45.9426,46.40,35.60,65.83,50.00,3.00,0.00,30.14,M,10.00,M,CLR,M,M,M,M,M,M,M,M,KGIC 011735Z AUTO 05003KT 10SM CLR 08/02 A3014 RMK AO1
GIC,2017-04-01 17:55,-116.1234,45.9426,48.20,37.40,66.05,10.00,3.00,0.00,30.13,M,10.00,M,CLR,M,M,M,M,M,M,M,M,KGIC 011755Z AUTO 01003KT 10SM CLR 09/03 A3013 RMK AO1
GIC,2017-04-01 18:15,-116.1234,45.9426,50.00,37.40,61.76,0.00,0.00,0.00,30.11,M,10.00,M,CLR,M,M,M,M,M,M,M,M,KGIC 011815Z AUTO 00000KT 10SM CLR 10/03 A3011 RMK AO1
GIC,2017-04-01 18:35,-116.1234,45.9426,50.00,41.00,71.07,100.00,7.00,0.00,30.09,M,10.00,M,CLR,M,M,M,M,M,M,M,M,KGIC 011835Z AUTO 10007KT 10SM CLR 10/05 A3009 RMK AO1
GIC,2017-04-01 18:55,-116.1234,45.9426,51.80,37.40,57.77,0.00,0.00,0.00,30.09,M,10.00,M,SCT,SCT,M,M,7500.00,8500.00,M,M,M,KGIC 011855Z AUTO 00000KT 10SM SCT075 SCT085 11/03 A3009 RMK AO1
GIC,2017-04-01 19:15,-116.1234,45.9426,53.60,35.60,50.36,0.00,0.00,0.00,30.08,M,10.00,M,BKN,OVC,M,M,7500.00,8500.00,M,M,M,KGIC 011915Z AUTO 00000KT 10SM BKN075 OVC085 12/02 A3008 RMK AO1
GIC,2017-04-01 19:35,-116.1234,45.9426,53.60,35.60,50.36,260.00,10.00,0.00,30.08,M,10.00,16.00,OVC,M,M,M,6000.00,M,M,M,M,KGIC 011935Z AUTO 26010G16KT 10SM OVC060 12/02 A3008 RMK AO1
GIC,2017-04-01 19:55,-116.1234,45.9426,53.60,35.60,50.36,250.00,10.00,0.00,30.07,M,10.00,16.00,OVC,M,M,M,6000.00,M,M,M,M,KGIC 011955Z AUTO 25010G16KT 10SM OVC060 12/02 A3007 RMK AO1
GIC,2017-04-01 20:15,-116.1234,45.9426,53.60,32.00,43.61,230.00,10.00,0.00,30.07,M,10.00,18.00,OVC,M,M,M,6000.00,M,M,M,M,KGIC 012015Z AUTO 23010G18KT 10SM OVC060 12/00 A3007 RMK AO1
GIC,2017-04-01 20:35,-116.1234,45.9426,53.60,32.00,43.61,220.00,9.00,0.00,30.07,M,10.00,15.00,BKN,OVC,M,M,6000.00,7000.00,M,M,M,KGIC 012035Z AUTO 22009G15KT 10SM BKN060 OVC070 12/00 A3007 RMK AO1
GIC,2017-04-01 20:55,-116.1234,45.9426,53.60,33.80,46.88,250.00,12.00,0.00,30.07,M,10.00,16.00,OVC,M,M,M,6000.00,M,M,M,M,KGIC 012055Z AUTO 25012G16KT 10SM OVC060 12/01 A3007 RMK AO1
GIC,2017-04-01 21:15,-116.1234,45.9426,53.60,35.60,50.36,260.00,9.00,0.00,30.06,M,10.00,15.00,OVC,M,M,M,6000.00,M,M,M,M,KGIC 012115Z AUTO 26009G15KT 10SM OVC060 12/02 A3006 RMK AO1
GIC,2017-04-01 21:35,-116.1234,45.9426,53.60,33.80,46.88,240.00,13.00,0.00,30.06,M,10.00,17.00,BKN,OVC,M,M,5000.00,6000.00,M,M,M,KGIC 012135Z AUTO 24013G17KT 10SM BKN050 OVC060 12/01 A3006 RMK AO1
GIC,2017-04-01 21:55,-116.1234,45.9426,53.60,35.60,50.36,240.00,9.00,0.00,30.06,M,10.00,16.00,SCT,BKN,OVC,M,5000.00,6000.00,7000.00,M,M,KGIC 012155Z AUTO 24009G16KT 10SM SCT050 BKN060 OVC070 12/02 A3006 RMK AO1
GIC,2017-04-01 22:15,-116.1234,45.9426,53.60,35.60,50.36,230.00,9.00,0.00,30.05,M,10.00,M,OVC,M,M,M,5000.00,M,M,M,M,KGIC 012215Z AUTO 23009KT 10SM OVC050 12/02 A3005 RMK AO1
GIC,2017-04-01 22:35,-116.1234,45.9426,53.60,37.40,54.07,240.00,9.00,0.00,30.05,M,10.00,16.00,OVC,M,M,M,5000.00,M,M,M,M,KGIC 012235Z AUTO 24009G16KT 10SM OVC050 12/03 A3005 RMK AO1
GIC,2017-04-01 22:55,-116.1234,45.9426,53.60,37.40,54.07,240.00,7.00,0.00,30.04,M,10.00,14.00,OVC,M,M,M,5000.00,M,M,M,M,KGIC 012255Z AUTO 24007G14KT 10SM OVC050 12/03 A3004 RMK AO1
GIC,2017-04-01 23:15,-116.1234,45.9426,53.60,37.40,54.07,250.00,7.00,0.00,30.05,M,10.00,M,BKN,OVC,M,M,4700.00,5000.00,M,M,M,KGIC 012315Z AUTO 25007KT 10SM BKN047 OVC050 12/03 A3005 RMK AO1
GIC,2017-04-01 23:35,-116.1234,45.9426,53.60,39.20,58.02,250.00,6.00,0.00,30.05,M,10.00,M,OVC,M,M,M,4700.00,M,M,M,M,KGIC 012335Z AUTO 25006KT 10SM OVC047 12/04 A3005 RMK AO1
GIC,2017-04-01 23:55,-116.1234,45.9426,51.80,42.80,71.26,290.00,5.00,0.00,30.06,M,10.00,M,OVC,M,M,M,4500.00,M,M,M,M,KGIC 012355Z AUTO 29005KT 10SM OVC045 11/06 A3006 RMK AO1
