#DEBUG: Format Typ    -> comma
#DEBUG: Time Period   -> 2017-04-01 00:00:00+00:00 2017-04-02 00:00:00+00:00
#DEBUG: Time Zone     -> Etc/UTC
#DEBUG: Data Contact   -> daryl herzmann akrherz@iastate.edu 515-294-5978
#DEBUG: Entries Found -> -1
station,valid,lon,lat,tmpf, dwpf, relh, drct, sknt, p01i, alti, mslp, vsby, gust, skyc1, skyc2, skyc3, skyc4, skyl1, skyl2, skyl3, skyl4, presentwx, metar
GKY,2017-04-01 00:00,-97.0943,32.6639,M,M,M,M,M,M,29.72,M,10.00,M,CLR,M,M,M,M,M,M,M,M,KGKY 010000Z AUTO /////KT 10SM CLR A2972 RMK MADISHF
GKY,2017-04-01 00:05,-97.0943,32.6639,M,M,M,140.00,16.00,M,29.72,M,10.00,M,CLR,M,M,M,M,M,M,M,M,KGKY 010005Z AUTO 14016KT 10SM CLR A2972 RMK MADISHF
GKY,2017-04-01 00:10,-97.0943,32.6639,M,M,M,140.00,12.00,M,29.73,M,10.00,M,CLR,M,M,M,M,M,M,M,M,KGKY 010010Z AUTO 14012KT 10SM CLR A2973 RMK MADISHF
GKY,2017-04-01 00:15,-97.0943,32.6639,M,M,M,130.00,13.00,M,29.73,M,10.00,18.00,CLR,M,M,M,M,M,M,M,M,KGKY 010015Z AUTO 13013G18KT 10SM CLR A2973 RMK MADISHF
GKY,2017-04-01 00:20,-97.0943,32.6639,M,M,M,130.00,14.00,M,29.73,M,10.00,M,CLR,M,M,M,M,M,M,M,M,KGKY 010020Z AUTO 13014KT 10SM CLR A2973 RMK MADISHF
GKY,2017-04-01 00:25,-97.0943,32.6639,M,M,M,140.00,14.00,M,29.73,M,10.00,M,CLR,M,M,M,M,M,M,M,M,KGKY 010025Z AUTO 14014KT 10SM CLR A2973 RMK MADISHF
GKY,2017-04-01 00:30,-97.0943,32.6639,M,M,M,140.00,12.00,M,29.73,M,10.00,M,CLR,M,M,M,M,M,M,M,M,KGKY 010030Z AUTO 14012KT 10SM CLR A2973 RMK MADISHF
GKY,2017-04-01 00:35,-97.0943,32.6639,M,M,M,140.00,12.00,M,29.73,M,10.00,M,CLR,M,M,M,M,M,M,M,M,KGKY 010035Z AUTO 14012KT 10SM CLR A2973 RMK MADISHF
GKY,2017-04-01 00:40,-97.0943,32.6639,M,M,M,140.00,12.00,M,29.73,M,10.00,M,CLR,M,M,M,M,M,M,M,M,KGKY 010040Z AUTO 14012KT 10SM CLR A2973 RMK MADISHF
GKY,2017-04-01 00:45,-97.0943,32.6639,M,M,M,140.00,10.00,M,29.73,M,10.00,M,CLR,M,M,M,M,M,M,M,M,KGKY 010045Z AUTO 14010KT 10SM CLR A2973 RMK MADISHF
GKY,2017-04-01 00:50,-97.0943,32.6639,M,M,M,140.00,10.00,M,29.73,M,10.00,M,CLR,M,M,M,M,M,M,M,M,KGKY 010050Z AUTO 14010KT 10SM CLR A2973 RMK MADISHF
GKY,2017-04-01 00:53,-97.0943,32.6639,75.90,51.10,41.86,130.00,11.00,0.00,29.74,1006.40,10.00,M,CLR,M,M,M,M,M,M,M,M,KGKY 010053Z 13011KT 10SM CLR 24/11 A2974 RMK AO2 SLP064 T02440106
GKY,2017-04-01 00:55,-97.0943,32.6639,M,M,M,130.00,10.00,M,29.74,M,10.00,M,CLR,M,M,M,M,M,M,M,M,KGKY 010055Z AUTO 13010KT 10SM CLR A2974 RMK MADISHF
GKY,2017-04-01 01:00,-97.0943,32.6639,M,M,M,140.00,9.00,M,29.74,M,10.00,M,CLR,M,M,M,M,M,M,M,M,KGKY 010100Z AUTO 14009KT 10SM CLR A2974 RMK MADISHF
GKY,2017-04-01 01:05,-97.0943,32.6639,M,M,M,130.00,9.00,M,29.74,M,10.00,M,CLR,M,M,M,M,M,M,M,M,KGKY 010105Z AUTO 13009KT 10SM CLR A2974 RMK MADISHF
GKY,2017-04-01 01:10,-97.0943,32.6639,M,M,M,140.00,9.00,M,29.74,M,10.00,M,CLR,M,M,M,M,M,M,M,M,KGKY 010110Z AUTO 14009KT 10SM CLR A2974 RMK MADISHF
GKY,2017-04-01 01:15,-97.0943,32.6639,M,M,M,130.00,9.00,M,29.74,M,10.00,M,CLR,M,M,M,M,M,M,M,M,KGKY 010115Z AUTO 13009KT 10SM CLR A2974 RMK MADISHF
GKY,2017-04-01 01:20,-97.0943,32.6639,M,M,M,130.00,9.00,M,29.74,M,10.00,M,CLR,M,M,M,M,M,M,M,M,KGKY 010120Z AUTO 13009KT 10SM CLR A2974 RMK MADISHF
GKY,2017-04-01 01:25,-97.0943,32.6639,M,M,M,130.00,9.00,M,29.74,M,10.00,M,CLR,M,M,M,M,M,M,M,M,KGKY 010125Z AUTO 13009KT 10SM CLR A2974 RMK MADISHF
GKY,2017-04-01 01:30,-97.0943,32.6639,M,M,M,130.00,9.00,M,29.75,M,10.00,M,CLR,M,M,M,M,M,M,M,M,KGKY 010130Z AUTO 13009KT 10SM CLR A2975 RMK MADISHF
GKY,2017-04-01 01:35,-97.0943,32.6639,M,M,M,120.00,10.00,M,29.75,M,10.00,M,CLR,M,M,M,M,M,M,M,M,KGKY 010135Z AUTO 12010KT 10SM CLR A2975 RMK MADISHF
GKY,2017-04-01 01:40,-97.0943,32.6639,M,M,M,130.00,8.00,M,29.75,M,10.00,M,CLR,M,M,M,M,M,M,M,M,KGKY 010140Z AUTO 13008KT 10SM CLR A2975 RMK MADISHF
GKY,2017-04-01 01:45,-97.0943,32.6639,M,M,M,130.00,8.00,M,29.75,M,10.00,M,CLR,M,M,M,M,M,M,M,M,KGKY 010145Z AUTO 13008KT 10SM CLR A2975 RMK MADISHF
GKY,2017-04-01 01:50,-97.0943,32.6639,M,M,M,120.00,7.00,M,29.75,M,10.00,M,CLR,M,M,M,M,M,M,M,M,KGKY 010150Z AUTO 12007KT 10SM CLR A2975 RMK MADISHF
GKY,2017-04-01 01:53,-97.0943,32.6639,71.10,54.00,54.73,120.00,7.00,0.00,29.76,1006.90,10.00,M,CLR,M,M,M,M,M,M,M,M,KGKY 010153Z AUTO 12007KT 10SM CLR 22/12 A2976 RMK AO2 SLP069 T02170122
GKY,2017-04-01 01:55,-97.0943,32.6639,M,M,M,120.00,7.00,M,29.76,M,10.00,M,CLR,M,M,M,M,M,M,M,M,KGKY 010155Z AUTO 12007KT 10SM CLR A2976 RMK MADISHF
GKY,2017-04-01 02:00,-97.0943,32.6639,M,M,M,120.00,7.00,M,29.76,M,10.00,M,CLR,M,M,M,M,M,M,M,M,KGKY 010200Z AUTO 12007KT 10SM CLR A2976 RMK MADISHF
GKY,2017-04-01 02:05,-97.0943,32.6639,M,M,M,110.00,6.00,M,29.76,M,10.00,M,CLR,M,M,M,M,M,M,M,M,KGKY 010205Z AUTO 11006KT 10SM CLR A2976 RMK MADISHF
GKY,2017-04-01 02:10,-97.0943,32.6639,M,M,M,110.00,5.00,M,29.76,M,10.00,M,CLR,M,M,M,M,M,M,M,M,KGKY 010210Z AUTO 11005KT 10SM CLR A2976 RMK MADISHF
GKY,2017-04-01 02:15,-97.0943,32.6639,M,M,M,110.00,7.00,M,29.76,M,10.00,M,CLR,M,M,M,M,M,M,M,M,KGKY 010215Z AUTO 11007KT 10SM CLR A2976 RMK MADISHF
GKY,2017-04-01 02:20,-97.0943,32.6639,M,M,M,110.00,7.00,M,29.76,M,10.00,M,CLR,M,M,M,M,M,M,M,M,KGKY 010220Z AUTO 11007KT 10SM CLR A2976 RMK MADISHF
GKY,2017-04-01 02:25,-97.0943,32.6639,M,M,M,110.00,8.00,M,29.76,M,10.00,M,CLR,M,M,M,M,M,M,M,M,KGKY 010225Z AUTO 11008KT 10SM CLR A2976 RMK MADISHF
GKY,2017-04-01 02:30,-97.0943,32.6639,M,M,M,110.00,8.00,M,29.77,M,10.00,M,CLR,M,M,M,M,M,M,M,M,KGKY 010230Z AUTO 11008KT 10SM CLR A2977 RMK MADISHF
GKY,2017-04-01 02:35,-97.0943,32.6639,M,M,M,120.00,7.00,M,29.77,M,10.00,M,CLR,M,M,M,M,M,M,M,M,KGKY 010235Z AUTO 12007KT 10SM CLR A2977 RMK MADISHF
GKY,2017-04-01 02:40,-97.0943,32.6639,M,M,M,120.00,7.00,M,29.77,M,10.00,M,CLR,M,M,M,M,M,M,M,M,KGKY 010240Z AUTO 12007KT 10SM CLR A2977 RMK MADISHF
GKY,2017-04-01 02:45,-97.0943,32.6639,M,M,M,130.00,9.00,M,29.77,M,10.00,M,CLR,M,M,M,M,M,M,M,M,KGKY 010245Z AUTO 13009KT 10SM CLR A2977 RMK MADISHF
GKY,2017-04-01 02:50,-97.0943,32.6639,M,M,M,130.00,10.00,M,29.78,M,10.00,M,CLR,M,M,M,M,M,M,M,M,KGKY 010250Z AUTO 13010KT 10SM CLR A2978 RMK MADISHF
GKY,2017-04-01 02:53,-97.0943,32.6639,71.10,52.00,50.86,130.00,8.00,0.00,29.78,1007.70,10.00,M,CLR,M,M,M,M,M,M,M,M,KGKY 010253Z AUTO 13008KT 10SM CLR 22/11 A2978 RMK AO2 SLP077 T02170111 53017
GKY,2017-04-01 02:55,-97.0943,32.6639,M,M,M,130.00,9.00,M,29.78,M,10.00,M,CLR,M,M,M,M,M,M,M,M,KGKY 010255Z AUTO 13009KT 10SM CLR A2978 RMK MADISHF
GKY,2017-04-01 03:00,-97.0943,32.6639,M,M,M,140.00,11.00,M,29.78,M,10.00,M,CLR,M,M,M,M,M,M,M,M,KGKY 010300Z AUTO 14011KT 10SM CLR A2978 RMK MADISHF
GKY,2017-04-01 03:05,-97.0943,32.6639,M,M,M,140.00,11.00,M,29.78,M,10.00,M,CLR,M,M,M,M,M,M,M,M,KGKY 010305Z AUTO 14011KT 10SM CLR A2978 RMK MADISHF
GKY,2017-04-01 03:10,-97.0943,32.6639,M,M,M,140.00,9.00,M,29.78,M,10.00,M,CLR,M,M,M,M,M,M,M,M,KGKY 010310Z AUTO 14009KT 10SM CLR A2978 RMK MADISHF
GKY,2017-04-01 03:15,-97.0943,32.6639,M,M,M,140.00,10.00,M,29.78,M,10.00,M,CLR,M,M,M,M,M,M,M,M,KGKY 010315Z AUTO 14010KT 10SM CLR A2978 RMK MADISHF
GKY,2017-04-01 03:20,-97.0943,32.6639,M,M,M,130.00,10.00,M,29.79,M,10.00,M,CLR,M,M,M,M,M,M,M,M,KGKY 010320Z AUTO 13010KT 10SM CLR A2979 RMK MADISHF
GKY,2017-04-01 03:25,-97.0943,32.6639,M,M,M,130.00,12.00,M,29.79,M,10.00,M,CLR,M,M,M,M,M,M,M,M,KGKY 010325Z AUTO 13012KT 10SM CLR A2979 RMK MADISHF
GKY,2017-04-01 03:30,-97.0943,32.6639,M,M,M,140.00,11.00,M,29.79,M,10.00,M,CLR,M,M,M,M,M,M,M,M,KGKY 010330Z AUTO 14011KT 10SM CLR A2979 RMK MADISHF
GKY,2017-04-01 03:35,-97.0943,32.6639,M,M,M,140.00,11.00,M,29.79,M,10.00,M,CLR,M,M,M,M,M,M,M,M,KGKY 010335Z AUTO 14011KT 10SM CLR A2979 RMK MADISHF
GKY,2017-04-01 03:40,-97.0943,32.6639,M,M,M,140.00,10.00,M,29.79,M,10.00,M,CLR,M,M,M,M,M,M,M,M,KGKY 010340Z AUTO 14010KT 10SM CLR A2979 RMK MADISHF
GKY,2017-04-01 03:45,-97.0943,32.6639,M,M,M,140.00,10.00,M,29.79,M,10.00,M,CLR,M,M,M,M,M,M,M,M,KGKY 010345Z AUTO 14010KT 10SM CLR A2979 RMK MADISHF
GKY,2017-04-01 03:50,-97.0943,32.6639,M,M,M,140.00,10.00,M,29.79,M,10.00,M,CLR,M,M,M,M,M,M,M,M,KGKY 010350Z AUTO 14010KT 10SM CLR A2979 RMK MADISHF
GKY,2017-04-01 03:53,-97.0943,32.6639,70.00,46.90,43.66,140.00,11.00,0.00,29.79,1008.00,10.00,M,CLR,M,M,M,M,M,M,M,M,KGKY 010353Z AUTO 14011KT 10SM CLR 21/08 A2979 RMK AO2 SLP080 T02110083
GKY,2017-04-01 03:55,-97.0943,32.6639,M,M,M,140.00,10.00,M,29.79,M,10.00,M,CLR,M,M,M,M,M,M,M,M,KGKY 010355Z AUTO 14010KT 10SM CLR A2979 RMK MADISHF
GKY,2017-04-01 04:00,-97.0943,32.6639,M,M,M,140.00,9.00,M,29.79,M,10.00,M,CLR,M,M,M,M,M,M,M,M,KGKY 010400Z AUTO 14009KT 10SM CLR A2979 RMK MADISHF
GKY,2017-04-01 04:05,-97.0943,32.6639,M,M,M,150.00,10.00,M,29.79,M,10.00,M,CLR,M,M,M,M,M,M,M,M,KGKY 010405Z AUTO 15010KT 10SM CLR A2979 RMK MADISHF
GKY,2017-04-01 04:10,-97.0943,32.6639,M,M,M,150.00,10.00,M,29.79,M,10.00,M,CLR,M,M,M,M,M,M,M,M,KGKY 010410Z AUTO 15010KT 10SM CLR A2979 RMK MADISHF
GKY,2017-04-01 04:15,-97.0943,32.6639,M,M,M,150.00,10.00,M,29.80,M,10.00,M,CLR,M,M,M,M,M,M,M,M,KGKY 010415Z AUTO 15010KT 10SM CLR A2980 RMK MADISHF
GKY,2017-04-01 04:20,-97.0943,32.6639,M,M,M,150.00,10.00,M,29.80,M,10.00,M,CLR,M,M,M,M,M,M,M,M,KGKY 010420Z AUTO 15010KT 10SM CLR A2980 RMK MADISHF
GKY,2017-04-01 04:25,-97.0943,32.6639,M,M,M,150.00,9.00,M,29.80,M,10.00,M,CLR,M,M,M,M,M,M,M,M,KGKY 010425Z AUTO 15009KT 10SM CLR A2980 RMK MADISHF
GKY,2017-04-01 04:30,-97.0943,32.6639,M,M,M,150.00,8.00,M,29.80,M,10.00,M,CLR,M,M,M,M,M,M,M,M,KGKY 010430Z AUTO 15008KT 10SM CLR A2980 RMK MADISHF
GKY,2017-04-01 04:35,-97.0943,32.6639,M,M,M,140.00,9.00,M,29.80,M,10.00,M,CLR,M,M,M,M,M,M,M,M,KGKY 010435Z AUTO 14009KT 10SM CLR A2980 RMK MADISHF
GKY,2017-04-01 04:40,-97.0943,32.6639,M,M,M,140.00,8.00,M,29.80,M,10.00,M,CLR,M,M,M,M,M,M,M,M,KGKY 010440Z AUTO 14008KT 10SM CLR A2980 RMK MADISHF
GKY,2017-04-01 04:45,-97.0943,32.6639,M,M,M,140.00,9.00,M,29.80,M,10.00,M,CLR,M,M,M,M,M,M,M,M,KGKY 010445Z AUTO 14009KT 10SM CLR A2980 RMK MADISHF
GKY,2017-04-01 04:50,-97.0943,32.6639,M,M,M,140.00,8.00,M,29.80,M,10.00,M,CLR,M,M,M,M,M,M,M,M,KGKY 010450Z AUTO 14008KT 10SM CLR A2980 RMK MADISHF
GKY,2017-04-01 04:53,-97.0943,32.6639,66.00,46.00,48.43,140.00,8.00,0.00,29.80,1008.50,10.00,M,CLR,M,M,M,M,M,M,M,M,KGKY 010453Z AUTO 14008KT 10SM CLR 19/08 A2980 RMK AO2 SLP085 T01890078
GKY,2017-04-01 04:55,-97.0943,32.6639,M,M,M,140.00,9.00,M,29.81,M,10.00,M,CLR,M,M,M,M,M,M,M,M,KGKY 010455Z AUTO 14009KT 10SM CLR A2981 RMK MADISHF
GKY,2017-04-01 05:00,-97.0943,32.6639,M,M,M,130.00,8.00,M,29.81,M,10.00,M,CLR,M,M,M,M,M,M,M,M,KGKY 010500Z AUTO 13008KT 10SM CLR A2981 RMK MADISHF
GKY,2017-04-01 05:05,-97.0943,32.6639,M,M,M,130.00,9.00,M,29.81,M,10.00,M,CLR,M,M,M,M,M,M,M,M,KGKY 010505Z AUTO 13009KT 10SM CLR A2981 RMK MADISHF
GKY,2017-04-01 05:10,-97.0943,32.6639,M,M,M,120.00,9.00,M,29.81,M,10.00,M,CLR,M,M,M,M,M,M,M,M,KGKY 010510Z AUTO 12009KT 10SM CLR A2981 RMK MADISHF
GKY,2017-04-01 05:15,-97.0943,32.6639,M,M,M,130.00,8.00,M,29.81,M,10.00,M,CLR,M,M,M,M,M,M,M,M,KGKY 010515Z AUTO 13008KT 10SM CLR A2981 RMK MADISHF
GKY,2017-04-01 05:20,-97.0943,32.6639,M,M,M,140.00,8.00,M,29.81,M,10.00,M,CLR,M,M,M,M,M,M,M,M,KGKY 010520Z AUTO 14008KT 10SM CLR A2981 RMK MADISHF
GKY,2017-04-01 05:25,-97.0943,32.6639,M,M,M,140.00,8.00,M,29.81,M,10.00,M,CLR,M,M,M,M,M,M,M,M,KGKY 010525Z AUTO 14008KT 10SM CLR A2981 RMK MADISHF
GKY,2017-04-01 05:30,-97.0943,32.6639,M,M,M,130.00,9.00,M,29.81,M,10.00,M,CLR,M,M,M,M,M,M,M,M,KGKY 010530Z AUTO 13009KT 10SM CLR A2981 RMK MADISHF
GKY,2017-04-01 05:35,-97.0943,32.6639,M,M,M,140.00,10.00,M,29.81,M,10.00,M,CLR,M,M,M,M,M,M,M,M,KGKY 010535Z AUTO 14010KT 10SM CLR A2981 RMK MADISHF
GKY,2017-04-01 05:40,-97.0943,32.6639,M,M,M,140.00,10.00,M,29.81,M,10.00,M,CLR,M,M,M,M,M,M,M,M,KGKY 010540Z AUTO 14010KT 10SM CLR A2981 RMK MADISHF
GKY,2017-04-01 05:45,-97.0943,32.6639,M,M,M,140.00,10.00,M,29.81,M,10.00,M,CLR,M,M,M,M,M,M,M,M,KGKY 010545Z AUTO 14010KT 10SM CLR A2981 RMK MADISHF
GKY,2017-04-01 05:50,-97.0943,32.6639,M,M,M,140.00,10.00,M,29.81,M,10.00,M,CLR,M,M,M,M,M,M,M,M,KGKY 010550Z AUTO 14010KT 10SM CLR A2981 RMK MADISHF
GKY,2017-04-01 05:53,-97.0943,32.6639,64.90,46.00,50.32,140.00,11.00,0.00,29.81,1008.70,10.00,M,CLR,M,M,M,M,M,M,M,M,KGKY 010553Z AUTO 14011KT 10SM CLR 18/08 A2981 RMK AO2 SLP087 T01830078 10267 20183 402830083 51011
GKY,2017-04-01 05:55,-97.0943,32.6639,M,M,M,140.00,11.00,M,29.81,M,10.00,M,CLR,M,M,M,M,M,M,M,M,KGKY 010555Z AUTO 14011KT 10SM CLR A2981 RMK MADISHF
GKY,2017-04-01 06:00,-97.0943,32.6639,M,M,M,140.00,10.00,M,29.81,M,10.00,M,CLR,M,M,M,M,M,M,M,M,KGKY 010600Z AUTO 14010KT 10SM CLR A2981 RMK MADISHF
GKY,2017-04-01 06:05,-97.0943,32.6639,M,M,M,140.00,10.00,M,29.81,M,10.00,M,CLR,M,M,M,M,M,M,M,M,KGKY 010605Z AUTO 14010KT 10SM CLR A2981 RMK MADISHF
GKY,2017-04-01 06:10,-97.0943,32.6639,M,M,M,140.00,10.00,M,29.81,M,10.00,M,CLR,M,M,M,M,M,M,M,M,KGKY 010610Z AUTO 14010KT 10SM CLR A2981 RMK MADISHF
GKY,2017-04-01 06:15,-97.0943,32.6639,M,M,M,140.00,9.00,M,29.81,M,10.00,M,CLR,M,M,M,M,M,M,M,M,KGKY 010615Z AUTO 14009KT 10SM CLR A2981 RMK MADISHF
GKY,2017-04-01 06:20,-97.0943,32.6639,M,M,M,130.00,10.00,M,29.81,M,10.00,M,CLR,M,M,M,M,M,M,M,M,KGKY 010620Z AUTO 13010KT 10SM CLR A2981 RMK MADISHF
GKY,2017-04-01 06:25,-97.0943,32.6639,M,M,M,130.00,10.00,M,29.81,M,10.00,M,CLR,M,M,M,M,M,M,M,M,KGKY 010625Z AUTO 13010KT 10SM CLR A2981 RMK MADISHF
GKY,2017-04-01 06:30,-97.0943,32.6639,M,M,M,130.00,10.00,M,29.81,M,10.00,M,CLR,M,M,M,M,M,M,M,M,KGKY 010630Z AUTO 13010KT 10SM CLR A2981 RMK MADISHF
GKY,2017-04-01 06:35,-97.0943,32.6639,M,M,M,140.00,10.00,M,29.81,M,10.00,M,CLR,M,M,M,M,M,M,M,M,KGKY 010635Z AUTO 14010KT 10SM CLR A2981 RMK MADISHF
GKY,2017-04-01 06:40,-97.0943,32.6639,M,M,M,140.00,11.00,M,29.81,M,10.00,M,CLR,M,M,M,M,M,M,M,M,KGKY 010640Z AUTO 14011KT 10SM CLR A2981 RMK MADISHF
GKY,2017-04-01 06:45,-97.0943,32.6639,M,M,M,140.00,13.00,M,29.81,M,10.00,M,CLR,M,M,M,M,M,M,M,M,KGKY 010645Z AUTO 14013KT 10SM CLR A2981 RMK MADISHF
GKY,2017-04-01 06:50,-97.0943,32.6639,M,M,M,140.00,12.00,M,29.80,M,10.00,17.00,CLR,M,M,M,M,M,M,M,M,KGKY 010650Z AUTO 14012G17KT 10SM CLR A2980 RMK MADISHF
GKY,2017-04-01 06:53,-97.0943,32.6639,64.00,50.00,60.34,140.00,10.00,0.00,29.80,1008.50,10.00,M,CLR,M,M,M,M,M,M,M,M,KGKY 010653Z AUTO 14010KT 10SM CLR 18/10 A2980 RMK AO2 SLP085 T01780100
GKY,2017-04-01 06:55,-97.0943,32.6639,M,M,M,140.00,10.00,M,29.80,M,10.00,M,CLR,M,M,M,M,M,M,M,M,KGKY 010655Z AUTO 14010KT 10SM CLR A2980 RMK MADISHF
GKY,2017-04-01 07:00,-97.0943,32.6639,M,M,M,150.00,12.00,M,29.81,M,10.00,M,CLR,M,M,M,M,M,M,M,M,KGKY 010700Z AUTO 15012KT 10SM CLR A2981 RMK MADISHF
GKY,2017-04-01 07:05,-97.0943,32.6639,M,M,M,150.00,11.00,M,29.81,M,10.00,M,CLR,M,M,M,M,M,M,M,M,KGKY 010705Z AUTO 15011KT 10SM CLR A2981 RMK MADISHF
GKY,2017-04-01 07:10,-97.0943,32.6639,M,M,M,140.00,13.00,M,29.81,M,10.00,18.00,CLR,M,M,M,M,M,M,M,M,KGKY 010710Z AUTO 14013G18KT 10SM CLR A2981 RMK MADISHF
GKY,2017-04-01 07:15,-97.0943,32.6639,M,M,M,140.00,15.00,M,29.80,M,10.00,M,CLR,M,M,M,M,M,M,M,M,KGKY 010715Z AUTO 14015KT 10SM CLR A2980 RMK MADISHF
GKY,2017-04-01 07:20,-97.0943,32.6639,M,M,M,140.00,12.00,M,29.80,M,10.00,M,CLR,M,M,M,M,M,M,M,M,KGKY 010720Z AUTO 14012KT 10SM CLR A2980 RMK MADISHF
GKY,2017-04-01 07:25,-97.0943,32.6639,M,M,M,140.00,13.00,M,29.80,M,10.00,M,CLR,M,M,M,M,M,M,M,M,KGKY 010725Z AUTO 14013KT 10SM CLR A2980 RMK MADISHF
GKY,2017-04-01 07:30,-97.0943,32.6639,M,M,M,140.00,14.00,M,29.80,M,10.00,M,CLR,M,M,M,M,M,M,M,M,KGKY 010730Z AUTO 14014KT 10SM CLR A2980 RMK MADISHF
GKY,2017-04-01 07:35,-97.0943,32.6639,M,M,M,140.00,13.00,M,29.80,M,10.00,M,CLR,M,M,M,M,M,M,M,M,KGKY 010735Z AUTO 14013KT 10SM CLR A2980 RMK MADISHF
GKY,2017-04-01 07:40,-97.0943,32.6639,M,M,M,140.00,14.00,M,29.80,M,10.00,M,CLR,M,M,M,M,M,M,M,M,KGKY 010740Z AUTO 14014KT 10SM CLR A2980 RMK MADISHF
GKY,2017-04-01 07:45,-97.0943,32.6639,M,M,M,150.00,13.00,M,29.80,M,10.00,M,CLR,M,M,M,M,M,M,M,M,KGKY 010745Z AUTO 15013KT 10SM CLR A2980 RMK MADISHF
GKY,2017-04-01 07:50,-97.0943,32.6639,M,M,M,150.00,12.00,M,29.80,M,10.00,M,CLR,M,M,M,M,M,M,M,M,KGKY 010750Z AUTO 15012KT 10SM CLR A2980 RMK MADISHF
GKY,2017-04-01 07:53,-97.0943,32.6639,63.00,53.10,70.07,150.00,13.00,0.00,29.81,1008.40,10.00,M,CLR,M,M,M,M,M,M,M,M,KGKY 010753Z AUTO 15013KT 10SM CLR 17/12 A2981 RMK AO2 SLP084 T01720117
GKY,2017-04-01 07:55,-97.0943,32.6639,M,M,M,150.00,10.00,M,29.81,M,10.00,M,CLR,M,M,M,M,M,M,M,M,KGKY 010755Z AUTO 15010KT 10SM CLR A2981 RMK MADISHF
GKY,2017-04-01 08:00,-97.0943,32.6639,M,M,M,140.00,11.00,M,29.81,M,10.00,M,CLR,M,M,M,M,M,M,M,M,KGKY 010800Z AUTO 14011KT 10SM CLR A2981 RMK MADISHF
GKY,2017-04-01 08:05,-97.0943,32.6639,M,M,M,140.00,11.00,M,29.81,M,10.00,M,CLR,M,M,M,M,M,M,M,M,KGKY 010805Z AUTO 14011KT 10SM CLR A2981 RMK MADISHF
GKY,2017-04-01 08:10,-97.0943,32.6639,M,M,M,140.00,11.00,M,29.81,M,10.00,M,CLR,M,M,M,M,M,M,M,M,KGKY 010810Z AUTO 14011KT 10SM CLR A2981 RMK MADISHF
GKY,2017-04-01 08:15,-97.0943,32.6639,M,M,M,140.00,12.00,M,29.81,M,10.00,M,CLR,M,M,M,M,M,M,M,M,KGKY 010815Z AUTO 14012KT 10SM CLR A2981 RMK MADISHF
GKY,2017-04-01 08:20,-97.0943,32.6639,M,M,M,140.00,11.00,M,29.81,M,10.00,M,CLR,M,M,M,M,M,M,M,M,KGKY 010820Z AUTO 14011KT 10SM CLR A2981 RMK MADISHF
GKY,2017-04-01 08:25,-97.0943,32.6639,M,M,M,140.00,11.00,M,29.80,M,10.00,M,CLR,M,M,M,M,M,M,M,M,KGKY 010825Z AUTO 14011KT 10SM CLR A2980 RMK MADISHF
GKY,2017-04-01 08:30,-97.0943,32.6639,M,M,M,140.00,11.00,M,29.80,M,10.00,M,CLR,M,M,M,M,M,M,M,M,KGKY 010830Z AUTO 14011KT 10SM CLR A2980 RMK MADISHF
GKY,2017-04-01 08:35,-97.0943,32.6639,M,M,M,140.00,13.00,M,29.80,M,10.00,19.00,CLR,M,M,M,M,M,M,M,M,KGKY 010835Z AUTO 14013G19KT 10SM CLR A2980 RMK MADISHF
GKY,2017-04-01 08:40,-97.0943,32.6639,M,M,M,140.00,14.00,M,29.81,M,10.00,M,CLR,M,M,M,M,M,M,M,M,KGKY 010840Z AUTO 14014KT 10SM CLR A2981 RMK MADISHF
GKY,2017-04-01 08:45,-97.0943,32.6639,M,M,M,140.00,13.00,M,29.81,M,10.00,M,CLR,M,M,M,M,M,M,M,M,KGKY 010845Z AUTO 14013KT 10SM CLR A2981 RMK MADISHF
GKY,2017-04-01 08:50,-97.0943,32.6639,M,M,M,140.00,13.00,M,29.81,M,10.00,M,CLR,M,M,M,M,M,M,M,M,KGKY 010850Z AUTO 14013KT 10SM CLR A2981 RMK MADISHF
GKY,2017-04-01 08:53,-97.0943,32.6639,61.00,54.00,77.72,140.00,12.00,0.00,29.81,1008.60,10.00,M,CLR,M,M,M,M,M,M,M,M,KGKY 010853Z AUTO 14012KT 10SM CLR 16/12 A2981 RMK AO2 SLP086 T01610122 55001
GKY,2017-04-01 08:55,-97.0943,32.6639,M,M,M,140.00,13.00,M,29.81,M,10.00,M,CLR,M,M,M,M,M,M,M,M,KGKY 010855Z AUTO 14013KT 10SM CLR A2981 RMK MADISHF
GKY,2017-04-01 09:00,-97.0943,32.6639,M,M,M,140.00,14.00,M,29.81,M,10.00,M,CLR,M,M,M,M,M,M,M,M,KGKY 010900Z AUTO 14014KT 10SM CLR A2981 RMK MADISHF
GKY,2017-04-01 09:05,-97.0943,32.6639,M,M,M,130.00,13.00,M,29.81,M,10.00,M,CLR,M,M,M,M,M,M,M,M,KGKY 010905Z AUTO 13013KT 10SM CLR A2981 RMK MADISHF
GKY,2017-04-01 09:10,-97.0943,32.6639,M,M,M,140.00,11.00,M,29.81,M,10.00,M,CLR,M,M,M,M,M,M,M,M,KGKY 010910Z AUTO 14011KT 10SM CLR A2981 RMK MADISHF
GKY,2017-04-01 09:15,-97.0943,32.6639,M,M,M,130.00,13.00,M,29.82,M,10.00,M,CLR,M,M,M,M,M,M,M,M,KGKY 010915Z AUTO 13013KT 10SM CLR A2982 RMK MADISHF
GKY,2017-04-01 09:20,-97.0943,32.6639,M,M,M,130.00,11.00,M,29.82,M,10.00,M,CLR,M,M,M,M,M,M,M,M,KGKY 010920Z AUTO 13011KT 10SM CLR A2982 RMK MADISHF
GKY,2017-04-01 09:25,-97.0943,32.6639,M,M,M,130.00,11.00,M,29.82,M,10.00,M,CLR,M,M,M,M,M,M,M,M,KGKY 010925Z AUTO 13011KT 10SM CLR A2982 RMK MADISHF
GKY,2017-04-01 09:30,-97.0943,32.6639,M,M,M,140.00,10.00,M,29.82,M,10.00,M,CLR,M,M,M,M,M,M,M,M,KGKY 010930Z AUTO 14010KT 10SM CLR A2982 RMK MADISHF
GKY,2017-04-01 09:35,-97.0943,32.6639,M,M,M,130.00,11.00,M,29.81,M,10.00,M,CLR,M,M,M,M,M,M,M,M,KGKY 010935Z AUTO 13011KT 10SM CLR A2981 RMK MADISHF
GKY,2017-04-01 09:40,-97.0943,32.6639,M,M,M,130.00,13.00,M,29.81,M,10.00,M,CLR,M,M,M,M,M,M,M,M,KGKY 010940Z AUTO 13013KT 10SM CLR A2981 RMK MADISHF
GKY,2017-04-01 09:45,-97.0943,32.6639,M,M,M,130.00,11.00,M,29.82,M,10.00,M,CLR,M,M,M,M,M,M,M,M,KGKY 010945Z AUTO 13011KT 10SM CLR A2982 RMK MADISHF
GKY,2017-04-01 09:50,-97.0943,32.6639,M,M,M,140.00,11.00,M,29.82,M,10.00,M,CLR,M,M,M,M,M,M,M,M,KGKY 010950Z AUTO 14011KT 10SM CLR A2982 RMK MADISHF
GKY,2017-04-01 09:53,-97.0943,32.6639,60.10,54.00,80.25,140.00,13.00,0.00,29.82,1009.00,10.00,M,CLR,M,M,M,M,M,M,M,M,KGKY 010953Z AUTO 14013KT 10SM CLR 16/12 A2982 RMK AO2 SLP090 T01560122
GKY,2017-04-01 09:55,-97.0943,32.6639,M,M,M,140.00,11.00,M,29.82,M,10.00,M,CLR,M,M,M,M,M,M,M,M,KGKY 010955Z AUTO 14011KT 10SM CLR A2982 RMK MADISHF
GKY,2017-04-01 10:00,-97.0943,32.6639,M,M,M,140.00,9.00,M,29.82,M,10.00,M,CLR,M,M,M,M,M,M,M,M,KGKY 011000Z AUTO 14009KT 10SM CLR A2982 RMK MADISHF
GKY,2017-04-01 10:05,-97.0943,32.6639,M,M,M,140.00,10.00,M,29.82,M,10.00,M,CLR,M,M,M,M,M,M,M,M,KGKY 011005Z AUTO 14010KT 10SM CLR A2982 RMK MADISHF
GKY,2017-04-01 10:10,-97.0943,32.6639,M,M,M,140.00,9.00,M,29.82,M,10.00,M,CLR,M,M,M,M,M,M,M,M,KGKY 011010Z AUTO 14009KT 10SM CLR A2982 RMK MADISHF
GKY,2017-04-01 10:15,-97.0943,32.6639,M,M,M,140.00,9.00,M,29.82,M,10.00,M,CLR,M,M,M,M,M,M,M,M,KGKY 011015Z AUTO 14009KT 10SM CLR A2982 RMK MADISHF
GKY,2017-04-01 10:20,-97.0943,32.6639,M,M,M,130.00,10.00,M,29.82,M,10.00,15.00,CLR,M,M,M,M,M,M,M,M,KGKY 011020Z AUTO 13010G15KT 10SM CLR A2982 RMK MADISHF
GKY,2017-04-01 10:25,-97.0943,32.6639,M,M,M,140.00,8.00,M,29.83,M,10.00,M,CLR,M,M,M,M,M,M,M,M,KGKY 011025Z AUTO 14008KT 10SM CLR A2983 RMK MADISHF
GKY,2017-04-01 10:30,-97.0943,32.6639,M,M,M,130.00,8.00,M,29.83,M,10.00,M,CLR,M,M,M,M,M,M,M,M,KGKY 011030Z AUTO 13008KT 10SM CLR A2983 RMK MADISHF
GKY,2017-04-01 10:35,-97.0943,32.6639,M,M,M,130.00,9.00,M,29.83,M,10.00,M,CLR,M,M,M,M,M,M,M,M,KGKY 011035Z AUTO 13009KT 10SM CLR A2983 RMK MADISHF
GKY,2017-04-01 10:40,-97.0943,32.6639,M,M,M,130.00,10.00,M,29.84,M,10.00,M,CLR,M,M,M,M,M,M,M,M,KGKY 011040Z AUTO 13010KT 10SM CLR A2984 RMK MADISHF
GKY,2017-04-01 10:45,-97.0943,32.6639,M,M,M,120.00,10.00,M,29.84,M,10.00,M,CLR,M,M,M,M,M,M,M,M,KGKY 011045Z AUTO 12010KT 10SM CLR A2984 RMK MADISHF
GKY,2017-04-01 10:50,-97.0943,32.6639,M,M,M,120.00,9.00,M,29.84,M,10.00,M,CLR,M,M,M,M,M,M,M,M,KGKY 011050Z AUTO 12009KT 10SM CLR A2984 RMK MADISHF
GKY,2017-04-01 10:53,-97.0943,32.6639,60.10,55.90,85.99,120.00,9.00,0.00,29.84,1009.80,10.00,M,CLR,M,M,M,M,M,M,M,M,KGKY 011053Z AUTO 12009KT 10SM CLR 16/13 A2984 RMK AO2 SLP098 T01560133
GKY,2017-04-01 10:55,-97.0943,32.6639,M,M,M,120.00,9.00,M,29.84,M,10.00,M,CLR,M,M,M,M,M,M,M,M,KGKY 011055Z AUTO 12009KT 10SM CLR A2984 RMK MADISHF
GKY,2017-04-01 11:00,-97.0943,32.6639,M,M,M,110.00,8.00,M,29.84,M,10.00,M,FEW,M,M,M,1200.00,M,M,M,M,KGKY 011100Z AUTO 11008KT 10SM FEW012 A2984 RMK MADISHF
GKY,2017-04-01 11:05,-97.0943,32.6639,M,M,M,110.00,8.00,M,29.85,M,10.00,M,CLR,M,M,M,M,M,M,M,M,KGKY 011105Z AUTO 11008KT 10SM CLR A2985 RMK MADISHF
GKY,2017-04-01 11:10,-97.0943,32.6639,M,M,M,110.00,9.00,M,29.85,M,10.00,M,FEW,M,M,M,1300.00,M,M,M,M,KGKY 011110Z AUTO 11009KT 10SM FEW013 A2985 RMK MADISHF
GKY,2017-04-01 11:15,-97.0943,32.6639,M,M,M,120.00,10.00,M,29.85,M,10.00,M,FEW,M,M,M,1300.00,M,M,M,M,KGKY 011115Z AUTO 12010KT 10SM FEW013 A2985 RMK MADISHF
GKY,2017-04-01 11:20,-97.0943,32.6639,M,M,M,110.00,8.00,M,29.85,M,10.00,M,FEW,M,M,M,1300.00,M,M,M,M,KGKY 011120Z AUTO 11008KT 10SM FEW013 A2985 RMK MADISHF
GKY,2017-04-01 11:25,-97.0943,32.6639,M,M,M,120.00,9.00,M,29.86,M,10.00,M,CLR,M,M,M,M,M,M,M,M,KGKY 011125Z AUTO 12009KT 10SM CLR A2986 RMK MADISHF
GKY,2017-04-01 11:30,-97.0943,32.6639,M,M,M,120.00,8.00,M,29.86,M,10.00,M,CLR,M,M,M,M,M,M,M,M,KGKY 011130Z AUTO 12008KT 10SM CLR A2986 RMK MADISHF
GKY,2017-04-01 11:35,-97.0943,32.6639,M,M,M,120.00,8.00,M,29.86,M,10.00,M,FEW,M,M,M,1200.00,M,M,M,M,KGKY 011135Z AUTO 12008KT 10SM FEW012 A2986 RMK MADISHF
GKY,2017-04-01 11:40,-97.0943,32.6639,M,M,M,110.00,6.00,M,29.87,M,10.00,M,SCT,M,M,M,1200.00,M,M,M,M,KGKY 011140Z AUTO 11006KT 10SM SCT012 A2987 RMK MADISHF
GKY,2017-04-01 11:45,-97.0943,32.6639,M,M,M,120.00,6.00,M,29.87,M,10.00,M,SCT,M,M,M,1200.00,M,M,M,M,KGKY 011145Z AUTO 12006KT 10SM SCT012 A2987 RMK MADISHF
GKY,2017-04-01 11:50,-97.0943,32.6639,M,M,M,130.00,6.00,M,29.88,M,10.00,M,BKN,M,M,M,1100.00,M,M,M,M,KGKY 011150Z AUTO 13006KT 10SM BKN011 A2988 RMK CIG 9V14  MADISHF
GKY,2017-04-01 11:53,-97.0943,32.6639,61.00,57.90,89.52,140.00,5.00,0.00,29.89,1011.40,10.00,M,BKN,M,M,M,1100.00,M,M,M,M,KGKY 011153Z 14005KT 10SM BKN011 16/14 A2989 RMK AO2 CIG 009V014 PRESRR SLP114 T01610144 10183 20156 51023
GKY,2017-04-01 11:55,-97.0943,32.6639,M,M,M,140.00,5.00,M,29.89,M,10.00,M,BKN,M,M,M,1100.00,M,M,M,M,KGKY 011155Z AUTO 14005KT 10SM BKN011 A2989 RMK CIG 9V14  MADISHF
GKY,2017-04-01 12:00,-97.0943,32.6639,M,M,M,160.00,4.00,M,29.90,M,10.00,M,BKN,M,M,M,999.00,M,M,M,M,KGKY 011200Z AUTO 16004KT 10SM BKN009 A2990 RMK CIG 9V13  MADISHF
GKY,2017-04-01 12:05,-97.0943,32.6639,M,M,M,150.00,6.00,M,29.90,M,10.00,M,BKN,M,M,M,999.00,M,M,M,M,KGKY 011205Z AUTO 15006KT 10SM BKN009 A2990 RMK MADISHF
GKY,2017-04-01 12:10,-97.0943,32.6639,M,M,M,140.00,7.00,M,29.90,M,10.00,M,BKN,OVC,M,M,999.00,1500.00,M,M,M,KGKY 011210Z AUTO 14007KT 10SM BKN009 OVC015 A2990 RMK CIG 9V13  MADISHF
GKY,2017-04-01 12:15,-97.0943,32.6639,M,M,M,140.00,8.00,M,29.90,M,10.00,M,BKN,OVC,M,M,999.00,1500.00,M,M,M,KGKY 011215Z AUTO 14008KT 10SM BKN009 OVC015 A2990 RMK MADISHF
GKY,2017-04-01 12:20,-97.0943,32.6639,M,M,M,130.00,10.00,M,29.91,M,10.00,M,BKN,OVC,M,M,999.00,1400.00,M,M,M,KGKY 011220Z AUTO 13010KT 10SM BKN009 OVC014 A2991 RMK CIG 9V13  MADISHF
GKY,2017-04-01 12:25,-97.0943,32.6639,M,M,M,150.00,7.00,M,29.91,M,10.00,M,OVC,M,M,M,1200.00,M,M,M,M,KGKY 011225Z AUTO 15007KT 10SM OVC012 A2991 RMK MADISHF
GKY,2017-04-01 12:30,-97.0943,32.6639,M,M,M,150.00,8.00,M,29.92,M,10.00,M,OVC,M,M,M,1200.00,M,M,M,M,KGKY 011230Z AUTO 15008KT 10SM OVC012 A2992 RMK MADISHF
GKY,2017-04-01 12:35,-97.0943,32.6639,M,M,M,140.00,6.00,M,29.92,M,10.00,M,OVC,M,M,M,1200.00,M,M,M,M,KGKY 011235Z AUTO 14006KT 10SM OVC012 A2992 RMK MADISHF
GKY,2017-04-01 12:40,-97.0943,32.6639,M,M,M,150.00,6.00,M,29.93,M,10.00,M,OVC,M,M,M,1300.00,M,M,M,M,KGKY 011240Z AUTO 15006KT 10SM OVC013 A2993 RMK MADISHF
GKY,2017-04-01 12:45,-97.0943,32.6639,M,M,M,140.00,6.00,M,29.93,M,10.00,M,OVC,M,M,M,1300.00,M,M,M,M,KGKY 011245Z AUTO 14006KT 10SM OVC013 A2993 RMK MADISHF
GKY,2017-04-01 12:50,-97.0943,32.6639,M,M,M,140.00,8.00,M,29.93,M,10.00,M,OVC,M,M,M,1300.00,M,M,M,M,KGKY 011250Z AUTO 14008KT 10SM OVC013 A2993 RMK MADISHF
GKY,2017-04-01 12:53,-97.0943,32.6639,61.00,57.00,86.67,140.00,8.00,0.00,29.93,1012.80,10.00,M,OVC,M,M,M,1300.00,M,M,M,M,KGKY 011253Z 14008KT 10SM OVC013 16/14 A2993 RMK AO2 SLP128 T01610139
GKY,2017-04-01 12:55,-97.0943,32.6639,M,M,M,140.00,8.00,M,29.93,M,10.00,M,OVC,M,M,M,1300.00,M,M,M,M,KGKY 011255Z AUTO 14008KT 10SM OVC013 A2993 RMK MADISHF
GKY,2017-04-01 13:00,-97.0943,32.6639,M,M,M,130.00,7.00,M,29.93,M,10.00,M,OVC,M,M,M,1500.00,M,M,M,M,KGKY 011300Z AUTO 13007KT 10SM OVC015 A2993 RMK MADISHF
GKY,2017-04-01 13:03,-97.0943,32.6639,61.00,57.00,86.67,130.00,7.00,0.00,29.94,M,10.00,M,OVC,M,M,M,1500.00,M,M,M,M,KGKY 011303Z 13007KT 10SM OVC015 16/14 A2994 RMK AO2 T01610139
GKY,2017-04-01 13:05,-97.0943,32.6639,M,M,M,130.00,8.00,M,29.94,M,10.00,M,OVC,M,M,M,1500.00,M,M,M,M,KGKY 011305Z AUTO 13008KT 10SM OVC015 A2994 RMK MADISHF
GKY,2017-04-01 13:10,-97.0943,32.6639,M,M,M,120.00,6.00,M,29.94,M,10.00,M,OVC,M,M,M,1500.00,M,M,M,M,KGKY 011310Z AUTO 12006KT 10SM OVC015 A2994 RMK MADISHF
GKY,2017-04-01 13:15,-97.0943,32.6639,M,M,M,120.00,8.00,M,29.94,M,10.00,M,OVC,M,M,M,1500.00,M,M,M,M,KGKY 011315Z AUTO 12008KT 10SM OVC015 A2994 RMK MADISHF
GKY,2017-04-01 13:20,-97.0943,32.6639,M,M,M,130.00,8.00,M,29.94,M,10.00,M,OVC,M,M,M,1500.00,M,M,M,M,KGKY 011320Z AUTO 13008KT 10SM OVC015 A2994 RMK MADISHF
GKY,2017-04-01 13:25,-97.0943,32.6639,M,M,M,110.00,8.00,M,29.94,M,10.00,M,OVC,M,M,M,1500.00,M,M,M,M,KGKY 011325Z AUTO 11008KT 10SM OVC015 A2994 RMK MADISHF
GKY,2017-04-01 13:30,-97.0943,32.6639,M,M,M,110.00,9.00,M,29.94,M,10.00,M,OVC,M,M,M,1699.00,M,M,M,M,KGKY 011330Z AUTO 11009KT 10SM OVC016 A2994 RMK MADISHF
GKY,2017-04-01 13:35,-97.0943,32.6639,M,M,M,110.00,9.00,M,29.94,M,10.00,M,BKN,OVC,M,M,1699.00,2200.00,M,M,M,KGKY 011335Z AUTO 11009KT 10SM BKN016 OVC022 A2994 RMK MADISHF
GKY,2017-04-01 13:40,-97.0943,32.6639,M,M,M,100.00,9.00,M,29.94,M,10.00,M,SCT,OVC,M,M,1500.00,2200.00,M,M,M,KGKY 011340Z AUTO 10009KT 10SM SCT015 OVC022 A2994 RMK MADISHF
GKY,2017-04-01 13:45,-97.0943,32.6639,M,M,M,110.00,10.00,M,29.94,M,10.00,M,FEW,OVC,M,M,1500.00,2200.00,M,M,M,KGKY 011345Z AUTO 11010KT 10SM FEW015 OVC022 A2994 RMK MADISHF
GKY,2017-04-01 13:50,-97.0943,32.6639,M,M,M,110.00,10.00,M,29.94,M,10.00,M,OVC,M,M,M,2200.00,M,M,M,M,KGKY 011350Z AUTO 11010KT 10SM OVC022 A2994 RMK MADISHF
GKY,2017-04-01 13:53,-97.0943,32.6639,62.10,57.00,83.36,110.00,9.00,0.00,29.94,1013.20,10.00,M,OVC,M,M,M,2200.00,M,M,M,M,KGKY 011353Z 11009KT 10SM OVC022 17/14 A2994 RMK AO2 SLP132 T01670139
GKY,2017-04-01 13:55,-97.0943,32.6639,M,M,M,100.00,8.00,M,29.94,M,10.00,M,OVC,M,M,M,2200.00,M,M,M,M,KGKY 011355Z AUTO 10008KT 10SM OVC022 A2994 RMK MADISHF
GKY,2017-04-01 14:00,-97.0943,32.6639,M,M,M,100.00,10.00,M,29.94,M,10.00,M,BKN,M,M,M,2300.00,M,M,M,M,KGKY 011400Z AUTO 10010KT 10SM BKN023 A2994 RMK MADISHF
GKY,2017-04-01 14:05,-97.0943,32.6639,M,M,M,110.00,9.00,M,29.94,M,10.00,M,BKN,M,M,M,2300.00,M,M,M,M,KGKY 011405Z AUTO 11009KT 10SM BKN023 A2994 RMK MADISHF
GKY,2017-04-01 14:10,-97.0943,32.6639,M,M,M,110.00,9.00,M,29.94,M,10.00,M,BKN,M,M,M,2300.00,M,M,M,M,KGKY 011410Z AUTO 11009KT 10SM BKN023 A2994 RMK MADISHF
GKY,2017-04-01 14:15,-97.0943,32.6639,M,M,M,110.00,12.00,M,29.94,M,10.00,M,SCT,M,M,M,2300.00,M,M,M,M,KGKY 011415Z AUTO 11012KT 10SM SCT023 A2994 RMK MADISHF
GKY,2017-04-01 14:20,-97.0943,32.6639,M,M,M,110.00,10.00,M,29.94,M,10.00,M,SCT,M,M,M,2300.00,M,M,M,M,KGKY 011420Z AUTO 11010KT 10SM SCT023 A2994 RMK MADISHF
GKY,2017-04-01 14:21,-97.0943,32.6639,64.00,57.90,80.54,110.00,10.00,0.00,29.94,M,10.00,M,SCT,M,M,M,2300.00,M,M,M,M,KGKY 011421Z 11010KT 10SM SCT023 18/14 A2994 RMK AO2 T01780144
GKY,2017-04-01 14:25,-97.0943,32.6639,M,M,M,110.00,12.00,M,29.94,M,10.00,M,FEW,M,M,M,2300.00,M,M,M,M,KGKY 011425Z AUTO 11012KT 10SM FEW023 A2994 RMK MADISHF
GKY,2017-04-01 14:30,-97.0943,32.6639,M,M,M,110.00,11.00,M,29.94,M,10.00,M,FEW,M,M,M,2300.00,M,M,M,M,KGKY 011430Z AUTO 11011KT 10SM FEW023 A2994 RMK MADISHF
GKY,2017-04-01 14:35,-97.0943,32.6639,M,M,M,110.00,11.00,M,29.94,M,10.00,M,FEW,M,M,M,2300.00,M,M,M,M,KGKY 011435Z AUTO 11011KT 10SM FEW023 A2994 RMK MADISHF
GKY,2017-04-01 14:40,-97.0943,32.6639,M,M,M,100.00,11.00,M,29.94,M,10.00,M,CLR,M,M,M,M,M,M,M,M,KGKY 011440Z AUTO 10011KT 10SM CLR A2994 RMK MADISHF
GKY,2017-04-01 14:45,-97.0943,32.6639,M,M,M,100.00,11.00,M,29.94,M,10.00,M,CLR,M,M,M,M,M,M,M,M,KGKY 011445Z AUTO 10011KT 10SM CLR A2994 RMK MADISHF
GKY,2017-04-01 14:50,-97.0943,32.6639,M,M,M,110.00,10.00,M,29.94,M,10.00,M,FEW,FEW,M,M,1699.00,7500.00,M,M,M,KGKY 011450Z AUTO 11010KT 10SM FEW016 FEW075 A2994 RMK MADISHF
GKY,2017-04-01 14:53,-97.0943,32.6639,66.00,57.90,75.12,120.00,10.00,0.00,29.95,1013.30,10.00,M,FEW,SCT,M,M,1700.00,8000.00,M,M,M,KGKY 011453Z 12010KT 10SM FEW017 SCT080 19/14 A2995 RMK AO2 SLP133 T01890144 51019
GKY,2017-04-01 14:55,-97.0943,32.6639,M,M,M,120.00,9.00,M,29.95,M,10.00,M,FEW,SCT,M,M,1699.00,7500.00,M,M,M,KGKY 011455Z AUTO 12009KT 10SM FEW016 SCT075 A2995 RMK MADISHF
GKY,2017-04-01 15:00,-97.0943,32.6639,M,M,M,100.00,9.00,M,29.94,M,10.00,M,SCT,SCT,BKN,M,1699.00,2200.00,7999.00,M,M,KGKY 011500Z AUTO 10009KT 10SM SCT016 SCT022 BKN079 A2994 RMK MADISHF
GKY,2017-04-01 15:05,-97.0943,32.6639,M,M,M,90.00,8.00,M,29.95,M,10.00,M,SCT,BKN,M,M,1999.00,7999.00,M,M,M,KGKY 011505Z AUTO 09008KT 10SM SCT019 BKN079 A2995 RMK MADISHF
GKY,2017-04-01 15:10,-97.0943,32.6639,M,M,M,110.00,11.00,M,29.95,M,10.00,M,BKN,BKN,M,M,1999.00,7999.00,M,M,M,KGKY 011510Z AUTO 11011KT 10SM BKN019 BKN079 A2995 RMK MADISHF
GKY,2017-04-01 15:12,-97.0943,32.6639,66.00,57.90,75.12,130.00,10.00,0.00,29.95,M,10.00,M,BKN,OVC,M,M,2000.00,8000.00,M,M,M,KGKY 011512Z 13010KT 10SM BKN020 OVC080 19/14 A2995 RMK AO2 T01890144
GKY,2017-04-01 15:15,-97.0943,32.6639,M,M,M,130.00,11.00,M,29.95,M,10.00,M,BKN,OVC,M,M,1999.00,7999.00,M,M,M,KGKY 011515Z AUTO 13011KT 10SM BKN019 OVC079 A2995 RMK MADISHF
GKY,2017-04-01 15:20,-97.0943,32.6639,M,M,M,130.00,10.00,M,29.96,M,10.00,M,BKN,OVC,M,M,1900.00,7999.00,M,M,M,KGKY 011520Z AUTO 13010KT 10SM BKN019 OVC079 A2996 RMK MADISHF
GKY,2017-04-01 15:25,-97.0943,32.6639,M,M,M,130.00,11.00,M,29.96,M,10.00,M,BKN,BKN,M,M,2100.00,7999.00,M,M,M,KGKY 011525Z AUTO 13011KT 10SM BKN021 BKN079 A2996 RMK MADISHF
GKY,2017-04-01 15:30,-97.0943,32.6639,M,M,M,110.00,11.00,M,29.95,M,10.00,M,BKN,OVC,M,M,2100.00,7999.00,M,M,M,KGKY 011530Z AUTO 11011KT 10SM BKN021 OVC079 A2995 RMK MADISHF
GKY,2017-04-01 15:35,-97.0943,32.6639,M,M,M,140.00,8.00,M,29.96,M,10.00,M,SCT,BKN,M,M,1900.00,7999.00,M,M,M,KGKY 011535Z AUTO 14008KT 10SM SCT019 BKN079 A2996 RMK MADISHF
GKY,2017-04-01 15:38,-97.0943,32.6639,66.90,57.90,72.81,120.00,9.00,0.00,29.96,M,10.00,M,SCT,BKN,M,M,2100.00,8000.00,M,M,M,KGKY 011538Z 12009KT 10SM SCT021 BKN080 19/14 A2996 RMK AO2 T01940144
GKY,2017-04-01 15:40,-97.0943,32.6639,M,M,M,110.00,10.00,M,29.96,M,10.00,M,SCT,BKN,M,M,2100.00,7999.00,M,M,M,KGKY 011540Z AUTO 11010KT 10SM SCT021 BKN079 A2996 RMK MADISHF
GKY,2017-04-01 15:45,-97.0943,32.6639,M,M,M,140.00,8.00,M,29.96,M,10.00,M,BKN,BKN,M,M,2100.00,7999.00,M,M,M,KGKY 011545Z AUTO 14008KT 10SM BKN021 BKN079 A2996 RMK MADISHF
GKY,2017-04-01 15:50,-97.0943,32.6639,M,M,M,140.00,10.00,M,29.96,M,10.00,M,SCT,BKN,M,M,2100.00,7999.00,M,M,M,KGKY 011550Z AUTO 14010KT 10SM SCT021 BKN079 A2996 RMK MADISHF
GKY,2017-04-01 15:53,-97.0943,32.6639,66.90,57.00,70.49,150.00,9.00,0.00,29.96,1013.90,10.00,M,SCT,BKN,M,M,2100.00,8500.00,M,M,M,KGKY 011553Z 15009KT 10SM SCT021 BKN085 19/14 A2996 RMK AO2 SLP139 T01940139
GKY,2017-04-01 15:55,-97.0943,32.6639,M,M,M,140.00,8.00,M,29.96,M,10.00,M,SCT,BKN,M,M,2300.00,8500.00,M,M,M,KGKY 011555Z AUTO 14008KT 10SM SCT023 BKN085 A2996 RMK MADISHF
GKY,2017-04-01 16:00,-97.0943,32.6639,M,M,M,130.00,9.00,M,29.96,M,10.00,M,SCT,BKN,M,M,2300.00,8500.00,M,M,M,KGKY 011600Z AUTO 13009KT 10SM SCT023 BKN085 A2996 RMK MADISHF
GKY,2017-04-01 16:05,-97.0943,32.6639,M,M,M,110.00,8.00,M,29.96,M,10.00,M,SCT,BKN,M,M,2300.00,8500.00,M,M,M,KGKY 011605Z AUTO 11008KT 10SM SCT023 BKN085 A2996 RMK MADISHF
GKY,2017-04-01 16:10,-97.0943,32.6639,M,M,M,130.00,12.00,M,29.96,M,10.00,M,FEW,SCT,M,M,2300.00,8500.00,M,M,M,KGKY 011610Z AUTO 13012KT 10SM FEW023 SCT085 A2996 RMK MADISHF
GKY,2017-04-01 16:15,-97.0943,32.6639,M,M,M,140.00,11.00,M,29.96,M,10.00,M,FEW,SCT,M,M,2300.00,8500.00,M,M,M,KGKY 011615Z AUTO 14011KT 10SM FEW023 SCT085 A2996 RMK MADISHF
GKY,2017-04-01 16:20,-97.0943,32.6639,M,M,M,140.00,9.00,M,29.96,M,10.00,M,FEW,SCT,M,M,2300.00,9000.00,M,M,M,KGKY 011620Z AUTO 14009KT 10SM FEW023 SCT090 A2996 RMK MADISHF
GKY,2017-04-01 16:25,-97.0943,32.6639,M,M,M,120.00,14.00,M,29.95,M,10.00,M,FEW,SCT,M,M,2800.00,9000.00,M,M,M,KGKY 011625Z AUTO 12014KT 10SM FEW028 SCT090 A2995 RMK MADISHF
GKY,2017-04-01 16:30,-97.0943,32.6639,M,M,M,140.00,12.00,M,29.95,M,10.00,M,FEW,SCT,M,M,2600.00,9000.00,M,M,M,KGKY 011630Z AUTO 14012KT 10SM FEW026 SCT090 A2995 RMK MADISHF
GKY,2017-04-01 16:35,-97.0943,32.6639,M,M,M,120.00,13.00,M,29.95,M,10.00,M,FEW,SCT,M,M,2600.00,9000.00,M,M,M,KGKY 011635Z AUTO 12013KT 10SM FEW026 SCT090 A2995 RMK MADISHF
GKY,2017-04-01 16:40,-97.0943,32.6639,M,M,M,130.00,14.00,M,29.94,M,10.00,M,FEW,M,M,M,9000.00,M,M,M,M,KGKY 011640Z AUTO 13014KT 10SM FEW090 A2994 RMK MADISHF
GKY,2017-04-01 16:45,-97.0943,32.6639,M,M,M,130.00,13.00,M,29.94,M,10.00,M,FEW,M,M,M,9000.00,M,M,M,M,KGKY 011645Z AUTO 13013KT 10SM FEW090 A2994 RMK MADISHF
GKY,2017-04-01 16:50,-97.0943,32.6639,M,M,M,150.00,12.00,M,29.95,M,10.00,M,FEW,M,M,M,9000.00,M,M,M,M,KGKY 011650Z AUTO 15012KT 10SM FEW090 A2995 RMK MADISHF
GKY,2017-04-01 16:53,-97.0943,32.6639,70.00,57.00,63.37,110.00,14.00,0.00,29.94,1013.30,10.00,M,FEW,M,M,M,9000.00,M,M,M,M,KGKY 011653Z 11014KT 10SM FEW090 21/14 A2994 RMK AO2 SLP133 T02110139
GKY,2017-04-01 16:55,-97.0943,32.6639,M,M,M,120.00,13.00,M,29.94,M,10.00,M,FEW,M,M,M,9000.00,M,M,M,M,KGKY 011655Z AUTO 12013KT 10SM FEW090 A2994 RMK MADISHF
GKY,2017-04-01 17:00,-97.0943,32.6639,M,M,M,140.00,15.00,M,29.94,M,10.00,M,FEW,M,M,M,3000.00,M,M,M,M,KGKY 011700Z AUTO 14015KT 10SM FEW030 A2994 RMK MADISHF
GKY,2017-04-01 17:05,-97.0943,32.6639,M,M,M,130.00,12.00,M,29.94,M,10.00,M,CLR,M,M,M,M,M,M,M,M,KGKY 011705Z AUTO 13012KT 10SM CLR A2994 RMK MADISHF
GKY,2017-04-01 17:10,-97.0943,32.6639,M,M,M,130.00,12.00,M,29.94,M,10.00,M,FEW,M,M,M,9500.00,M,M,M,M,KGKY 011710Z AUTO 13012KT 10SM FEW095 A2994 RMK MADISHF
GKY,2017-04-01 17:15,-97.0943,32.6639,M,M,M,140.00,15.00,M,29.93,M,10.00,M,FEW,M,M,M,9500.00,M,M,M,M,KGKY 011715Z AUTO 14015KT 10SM FEW095 A2993 RMK MADISHF
GKY,2017-04-01 17:20,-97.0943,32.6639,M,M,M,M,M,M,29.94,M,10.00,M,FEW,M,M,M,9500.00,M,M,M,M,KGKY 011720Z AUTO /////KT 10SM FEW095 A2994 RMK MADISHF
GKY,2017-04-01 17:25,-97.0943,32.6639,M,M,M,130.00,16.00,M,29.93,M,10.00,M,SCT,M,M,M,9500.00,M,M,M,M,KGKY 011725Z AUTO 13016KT 10SM SCT095 A2993 RMK MADISHF
GKY,2017-04-01 17:30,-97.0943,32.6639,M,M,M,120.00,14.00,M,29.93,M,10.00,M,BKN,M,M,M,9500.00,M,M,M,M,KGKY 011730Z AUTO 12014KT 10SM BKN095 A2993 RMK MADISHF
GKY,2017-04-01 17:35,-97.0943,32.6639,M,M,M,140.00,10.00,M,29.93,M,10.00,M,BKN,M,M,M,9000.00,M,M,M,M,KGKY 011735Z AUTO 14010KT 10SM BKN090 A2993 RMK MADISHF
GKY,2017-04-01 17:40,-97.0943,32.6639,M,M,M,120.00,14.00,M,29.93,M,10.00,M,BKN,M,M,M,9000.00,M,M,M,M,KGKY 011740Z AUTO 12014KT 10SM BKN090 A2993 RMK MADISHF
GKY,2017-04-01 17:45,-97.0943,32.6639,M,M,M,140.00,11.00,M,29.92,M,10.00,16.00,BKN,M,M,M,9000.00,M,M,M,M,KGKY 011745Z AUTO 14011G16KT 10SM BKN090 A2992 RMK MADISHF
GKY,2017-04-01 17:50,-97.0943,32.6639,M,M,M,120.00,13.00,M,29.92,M,10.00,M,BKN,M,M,M,9000.00,M,M,M,M,KGKY 011750Z AUTO 12013KT 10SM BKN090 A2992 RMK MADISHF
GKY,2017-04-01 17:53,-97.0943,32.6639,71.10,57.00,61.04,130.00,14.00,0.00,29.92,1012.50,10.00,M,BKN,M,M,M,9000.00,M,M,M,M,KGKY 011753Z 13014KT 10SM BKN090 22/14 A2992 RMK AO2 SLP125 T02170139 10222 20161 58015
GKY,2017-04-01 17:55,-97.0943,32.6639,M,M,M,M,M,M,29.92,M,10.00,M,BKN,M,M,M,9000.00,M,M,M,M,KGKY 011755Z AUTO /////KT 10SM BKN090 A2992 RMK MADISHF
GKY,2017-04-01 18:00,-97.0943,32.6639,M,M,M,120.00,14.00,M,29.92,M,10.00,M,BKN,M,M,M,9000.00,M,M,M,M,KGKY 011800Z AUTO 12014KT 10SM BKN090 A2992 RMK MADISHF
GKY,2017-04-01 18:05,-97.0943,32.6639,M,M,M,130.00,14.00,M,29.92,M,10.00,M,BKN,M,M,M,9000.00,M,M,M,M,KGKY 011805Z AUTO 13014KT 10SM BKN090 A2992 RMK MADISHF
GKY,2017-04-01 18:10,-97.0943,32.6639,M,M,M,130.00,14.00,M,29.91,M,10.00,M,BKN,M,M,M,9000.00,M,M,M,M,KGKY 011810Z AUTO 13014KT 10SM BKN090 A2991 RMK MADISHF
GKY,2017-04-01 18:15,-97.0943,32.6639,M,M,M,140.00,14.00,M,29.91,M,10.00,M,SCT,M,M,M,9000.00,M,M,M,M,KGKY 011815Z AUTO 14014KT 10SM SCT090 A2991 RMK MADISHF
GKY,2017-04-01 18:20,-97.0943,32.6639,M,M,M,130.00,16.00,M,29.91,M,10.00,M,SCT,M,M,M,9000.00,M,M,M,M,KGKY 011820Z AUTO 13016KT 10SM SCT090 A2991 RMK MADISHF
GKY,2017-04-01 18:25,-97.0943,32.6639,M,M,M,140.00,14.00,M,29.91,M,10.00,M,SCT,M,M,M,8500.00,M,M,M,M,KGKY 011825Z AUTO 14014KT 10SM SCT085 A2991 RMK MADISHF
GKY,2017-04-01 18:30,-97.0943,32.6639,M,M,M,120.00,14.00,M,29.91,M,10.00,M,BKN,M,M,M,8500.00,M,M,M,M,KGKY 011830Z AUTO 12014KT 10SM BKN085 A2991 RMK MADISHF
GKY,2017-04-01 18:35,-97.0943,32.6639,M,M,M,120.00,12.00,M,29.91,M,10.00,18.00,BKN,M,M,M,8500.00,M,M,M,M,KGKY 011835Z AUTO 12012G18KT 10SM BKN085 A2991 RMK MADISHF
GKY,2017-04-01 18:40,-97.0943,32.6639,M,M,M,120.00,14.00,M,29.91,M,10.00,M,BKN,M,M,M,8500.00,M,M,M,M,KGKY 011840Z AUTO 12014KT 10SM BKN085 A2991 RMK MADISHF
GKY,2017-04-01 18:45,-97.0943,32.6639,M,M,M,110.00,15.00,M,29.90,M,10.00,20.00,BKN,BKN,M,M,8500.00,11000.00,M,M,M,KGKY 011845Z AUTO 11015G20KT 10SM BKN085 BKN110 A2990 RMK MADISHF
GKY,2017-04-01 18:50,-97.0943,32.6639,M,M,M,130.00,15.00,M,29.90,M,10.00,M,BKN,M,M,M,8500.00,M,M,M,M,KGKY 011850Z AUTO 13015KT 10SM BKN085 A2990 RMK MADISHF
GKY,2017-04-01 18:53,-97.0943,32.6639,72.00,55.90,56.89,120.00,11.00,0.00,29.90,1012.00,10.00,21.00,OVC,M,M,M,9000.00,M,M,M,M,KGKY 011853Z 12011G21KT 10SM OVC090 22/13 A2990 RMK AO2 SLP120 T02220133
GKY,2017-04-01 18:55,-97.0943,32.6639,M,M,M,120.00,14.00,M,29.91,M,10.00,M,OVC,M,M,M,9000.00,M,M,M,M,KGKY 011855Z AUTO 12014KT 10SM OVC090 A2991 RMK MADISHF
GKY,2017-04-01 19:00,-97.0943,32.6639,M,M,M,120.00,13.00,M,29.90,M,10.00,M,OVC,M,M,M,8500.00,M,M,M,M,KGKY 011900Z AUTO 12013KT 10SM OVC085 A2990 RMK MADISHF
GKY,2017-04-01 19:05,-97.0943,32.6639,M,M,M,120.00,11.00,M,29.91,M,10.00,M,OVC,M,M,M,8500.00,M,M,M,M,KGKY 011905Z AUTO 12011KT 10SM OVC085 A2991 RMK MADISHF
GKY,2017-04-01 19:10,-97.0943,32.6639,M,M,M,160.00,12.00,M,29.91,M,10.00,M,OVC,M,M,M,8500.00,M,M,M,M,KGKY 011910Z AUTO 16012KT 10SM OVC085 A2991 RMK MADISHF
GKY,2017-04-01 19:15,-97.0943,32.6639,M,M,M,130.00,12.00,M,29.91,M,10.00,M,OVC,M,M,M,7999.00,M,M,M,M,KGKY 011915Z AUTO 13012KT 10SM OVC079 A2991 RMK MADISHF
GKY,2017-04-01 19:20,-97.0943,32.6639,M,M,M,110.00,14.00,M,29.90,M,10.00,M,OVC,M,M,M,7999.00,M,M,M,M,KGKY 011920Z AUTO 11014KT 10SM OVC079 A2990 RMK MADISHF
GKY,2017-04-01 19:25,-97.0943,32.6639,M,M,M,120.00,14.00,M,29.90,M,10.00,M,FEW,OVC,M,M,3700.00,7999.00,M,M,M,KGKY 011925Z AUTO 12014KT 10SM FEW037 OVC079 A2990 RMK MADISHF
GKY,2017-04-01 19:30,-97.0943,32.6639,M,M,M,130.00,12.00,M,29.90,M,10.00,M,OVC,M,M,M,7999.00,M,M,M,M,KGKY 011930Z AUTO 13012KT 10SM OVC079 A2990 RMK MADISHF
GKY,2017-04-01 19:35,-97.0943,32.6639,M,M,M,130.00,13.00,M,29.90,M,10.00,M,FEW,OVC,M,M,3700.00,7999.00,M,M,M,KGKY 011935Z AUTO 13013KT 10SM FEW037 OVC079 A2990 RMK MADISHF
GKY,2017-04-01 19:40,-97.0943,32.6639,M,M,M,130.00,9.00,M,29.90,M,10.00,M,FEW,OVC,M,M,3700.00,7999.00,M,M,M,KGKY 011940Z AUTO 13009KT 10SM FEW037 OVC079 A2990 RMK MADISHF
GKY,2017-04-01 19:45,-97.0943,32.6639,M,M,M,130.00,9.00,M,29.89,M,10.00,M,SCT,OVC,M,M,3700.00,7999.00,M,M,M,KGKY 011945Z AUTO 13009KT 10SM SCT037 OVC079 A2989 RMK MADISHF
GKY,2017-04-01 19:50,-97.0943,32.6639,M,M,M,120.00,14.00,M,29.89,M,10.00,M,SCT,OVC,M,M,3700.00,7999.00,M,M,M,KGKY 011950Z AUTO 12014KT 10SM SCT037 OVC079 A2989 RMK MADISHF
GKY,2017-04-01 19:53,-97.0943,32.6639,72.00,57.00,59.20,140.00,13.00,0.00,29.89,1011.40,10.00,19.00,SCT,BKN,M,M,3700.00,8000.00,M,M,M,KGKY 011953Z 14013G19KT 10SM SCT037 BKN080 22/14 A2989 RMK AO2 SLP114 T02220139
GKY,2017-04-01 19:55,-97.0943,32.6639,M,M,M,140.00,13.00,M,29.89,M,10.00,M,SCT,BKN,M,M,3700.00,7999.00,M,M,M,KGKY 011955Z AUTO 14013KT 10SM SCT037 BKN079 A2989 RMK MADISHF
GKY,2017-04-01 20:00,-97.0943,32.6639,M,M,M,130.00,12.00,M,29.88,M,10.00,17.00,SCT,BKN,BKN,M,3700.00,7999.00,9000.00,M,M,KGKY 012000Z AUTO 13012G17KT 10SM SCT037 BKN079 BKN090 A2988 RMK MADISHF
GKY,2017-04-01 20:05,-97.0943,32.6639,M,M,M,100.00,11.00,M,29.88,M,10.00,M,SCT,BKN,M,M,3700.00,7999.00,M,M,M,KGKY 012005Z AUTO 10011KT 10SM SCT037 BKN079 A2988 RMK MADISHF
GKY,2017-04-01 20:10,-97.0943,32.6639,M,M,M,110.00,12.00,M,29.87,M,10.00,M,SCT,BKN,M,M,3900.00,7999.00,M,M,M,KGKY 012010Z AUTO 11012KT 10SM SCT039 BKN079 A2987 RMK MADISHF
GKY,2017-04-01 20:15,-97.0943,32.6639,M,M,M,120.00,16.00,M,29.87,M,10.00,M,SCT,SCT,M,M,3900.00,8500.00,M,M,M,KGKY 012015Z AUTO 12016KT 10SM SCT039 SCT085 A2987 RMK MADISHF
GKY,2017-04-01 20:20,-97.0943,32.6639,M,M,M,120.00,15.00,M,29.87,M,10.00,M,FEW,SCT,M,M,3900.00,9000.00,M,M,M,KGKY 012020Z AUTO 12015KT 10SM FEW039 SCT090 A2987 RMK MADISHF
GKY,2017-04-01 20:25,-97.0943,32.6639,M,M,M,110.00,14.00,M,29.87,M,10.00,M,FEW,SCT,BKN,M,4100.00,7999.00,9500.00,M,M,KGKY 012025Z AUTO 11014KT 10SM FEW041 SCT079 BKN095 A2987 RMK MADISHF
GKY,2017-04-01 20:30,-97.0943,32.6639,M,M,M,140.00,10.00,M,29.87,M,10.00,M,FEW,BKN,M,M,4100.00,7500.00,M,M,M,KGKY 012030Z AUTO 14010KT 10SM FEW041 BKN075 A2987 RMK MADISHF
GKY,2017-04-01 20:35,-97.0943,32.6639,M,M,M,120.00,13.00,M,29.87,M,10.00,M,FEW,BKN,M,M,3900.00,7500.00,M,M,M,KGKY 012035Z AUTO 12013KT 10SM FEW039 BKN075 A2987 RMK MADISHF
GKY,2017-04-01 20:40,-97.0943,32.6639,M,M,M,130.00,13.00,M,29.87,M,10.00,M,FEW,BKN,M,M,3900.00,7999.00,M,M,M,KGKY 012040Z AUTO 13013KT 10SM FEW039 BKN079 A2987 RMK MADISHF
GKY,2017-04-01 20:45,-97.0943,32.6639,M,M,M,130.00,14.00,M,29.86,M,10.00,M,FEW,BKN,M,M,3999.00,7999.00,M,M,M,KGKY 012045Z AUTO 13014KT 10SM FEW039 BKN079 A2986 RMK MADISHF
GKY,2017-04-01 20:50,-97.0943,32.6639,M,M,M,140.00,14.00,M,29.86,M,10.00,M,BKN,M,M,M,7999.00,M,M,M,M,KGKY 012050Z AUTO 14014KT 10SM BKN079 A2986 RMK MADISHF
GKY,2017-04-01 20:53,-97.0943,32.6639,73.90,57.00,55.53,120.00,16.00,0.00,29.86,1010.40,10.00,M,BKN,M,M,M,8000.00,M,M,M,M,KGKY 012053Z 12016KT 10SM BKN080 23/14 A2986 RMK AO2 SLP104 T02330139 58021
GKY,2017-04-01 20:55,-97.0943,32.6639,M,M,M,120.00,17.00,M,29.86,M,10.00,M,BKN,M,M,M,7999.00,M,M,M,M,KGKY 012055Z AUTO 12017KT 10SM BKN079 A2986 RMK MADISHF
GKY,2017-04-01 21:00,-97.0943,32.6639,M,M,M,130.00,13.00,M,29.85,M,10.00,M,FEW,BKN,M,M,6000.00,7999.00,M,M,M,KGKY 012100Z AUTO 13013KT 10SM FEW060 BKN079 A2985 RMK MADISHF
GKY,2017-04-01 21:05,-97.0943,32.6639,M,M,M,M,M,M,29.86,M,10.00,M,FEW,BKN,M,M,6000.00,7999.00,M,M,M,KGKY 012105Z AUTO /////KT 10SM FEW060 BKN079 A2986 RMK MADISHF
GKY,2017-04-01 21:10,-97.0943,32.6639,M,M,M,130.00,15.00,M,29.86,M,10.00,M,SCT,BKN,M,M,6500.00,7999.00,M,M,M,KGKY 012110Z AUTO 13015KT 10SM SCT065 BKN079 A2986 RMK MADISHF
GKY,2017-04-01 21:15,-97.0943,32.6639,M,M,M,120.00,12.00,M,29.86,M,10.00,18.00,BKN,BKN,M,M,6500.00,8500.00,M,M,M,KGKY 012115Z AUTO 12012G18KT 10SM BKN065 BKN085 A2986 RMK MADISHF
GKY,2017-04-01 21:20,-97.0943,32.6639,M,M,M,110.00,14.00,M,29.86,M,10.00,M,BKN,OVC,M,M,6500.00,7999.00,M,M,M,KGKY 012120Z AUTO 11014KT 10SM BKN065 OVC079 A2986 RMK MADISHF
GKY,2017-04-01 21:25,-97.0943,32.6639,M,M,M,110.00,14.00,M,29.86,M,10.00,M,BKN,OVC,M,M,6000.00,7999.00,M,M,M,KGKY 012125Z AUTO 11014KT 10SM BKN060 OVC079 A2986 RMK MADISHF
GKY,2017-04-01 21:30,-97.0943,32.6639,M,M,M,130.00,18.00,M,29.86,M,10.00,M,OVC,M,M,M,6000.00,M,M,M,M,KGKY 012130Z AUTO 13018KT 10SM OVC060 A2986 RMK MADISHF
GKY,2017-04-01 21:35,-97.0943,32.6639,M,M,M,120.00,14.00,M,29.86,M,10.00,M,OVC,M,M,M,6000.00,M,M,M,M,KGKY 012135Z AUTO 12014KT 10SM OVC060 A2986 RMK MADISHF
GKY,2017-04-01 21:40,-97.0943,32.6639,M,M,M,M,M,M,29.85,M,10.00,M,OVC,M,M,M,6000.00,M,M,M,M,KGKY 012140Z AUTO /////KT 10SM OVC060 A2985 RMK MADISHF
GKY,2017-04-01 21:45,-97.0943,32.6639,M,M,M,110.00,14.00,M,29.86,M,10.00,M,OVC,M,M,M,6000.00,M,M,M,M,KGKY 012145Z AUTO 11014KT 10SM OVC060 A2986 RMK MADISHF
GKY,2017-04-01 21:50,-97.0943,32.6639,M,M,M,120.00,16.00,M,29.86,M,10.00,M,BKN,OVC,M,M,6000.00,7500.00,M,M,M,KGKY 012150Z AUTO 12016KT 10SM BKN060 OVC075 A2986 RMK MADISHF
GKY,2017-04-01 21:53,-97.0943,32.6639,73.00,57.90,59.12,130.00,17.00,0.00,29.86,1010.40,10.00,M,BKN,OVC,M,M,6000.00,7500.00,M,M,M,KGKY 012153Z 13017KT 10SM BKN060 OVC075 23/14 A2986 RMK AO2 SLP104 T02280144
GKY,2017-04-01 21:55,-97.0943,32.6639,M,M,M,130.00,14.00,M,29.86,M,10.00,M,BKN,OVC,M,M,6000.00,7500.00,M,M,M,KGKY 012155Z AUTO 13014KT 10SM BKN060 OVC075 A2986 RMK MADISHF
GKY,2017-04-01 22:00,-97.0943,32.6639,M,M,M,120.00,14.00,M,29.86,M,10.00,M,SCT,OVC,M,M,6000.00,7500.00,M,M,M,KGKY 012200Z AUTO 12014KT 10SM SCT060 OVC075 A2986 RMK MADISHF
GKY,2017-04-01 22:05,-97.0943,32.6639,M,M,M,110.00,13.00,M,29.86,M,10.00,M,SCT,OVC,M,M,5500.00,7500.00,M,M,M,KGKY 012205Z AUTO 11013KT 10SM SCT055 OVC075 A2986 RMK MADISHF
GKY,2017-04-01 22:10,-97.0943,32.6639,M,M,M,120.00,13.00,M,29.86,M,10.00,M,SCT,OVC,M,M,6000.00,7500.00,M,M,M,KGKY 012210Z AUTO 12013KT 10SM SCT060 OVC075 A2986 RMK MADISHF
GKY,2017-04-01 22:15,-97.0943,32.6639,M,M,M,110.00,12.00,M,29.86,M,10.00,M,SCT,OVC,M,M,6000.00,7500.00,M,M,M,KGKY 012215Z AUTO 11012KT 10SM SCT060 OVC075 A2986 RMK MADISHF
GKY,2017-04-01 22:20,-97.0943,32.6639,M,M,M,120.00,11.00,M,29.86,M,10.00,M,OVC,M,M,M,7000.00,M,M,M,M,KGKY 012220Z AUTO 12011KT 10SM OVC070 A2986 RMK MADISHF
GKY,2017-04-01 22:25,-97.0943,32.6639,M,M,M,130.00,10.00,M,29.86,M,10.00,M,BKN,OVC,M,M,6000.00,7500.00,M,M,M,KGKY 012225Z AUTO 13010KT 10SM BKN060 OVC075 A2986 RMK MADISHF
GKY,2017-04-01 22:30,-97.0943,32.6639,M,M,M,120.00,11.00,M,29.86,M,10.00,16.00,BKN,OVC,M,M,6000.00,7000.00,M,M,M,KGKY 012230Z AUTO 12011G16KT 10SM BKN060 OVC070 A2986 RMK MADISHF
GKY,2017-04-01 22:35,-97.0943,32.6639,M,M,M,120.00,12.00,M,29.86,M,10.00,M,OVC,M,M,M,6000.00,M,M,M,M,KGKY 012235Z AUTO 12012KT 10SM OVC060 A2986 RMK MADISHF
GKY,2017-04-01 22:40,-97.0943,32.6639,M,M,M,120.00,12.00,M,29.86,M,10.00,M,OVC,M,M,M,6000.00,M,M,M,M,KGKY 012240Z AUTO 12012KT 10SM OVC060 A2986 RMK MADISHF
GKY,2017-04-01 22:45,-97.0943,32.6639,M,M,M,110.00,11.00,M,29.86,M,10.00,M,OVC,M,M,M,6000.00,M,M,M,M,KGKY 012245Z AUTO 11011KT 10SM OVC060 A2986 RMK MADISHF
GKY,2017-04-01 22:50,-97.0943,32.6639,M,M,M,120.00,10.00,M,29.86,M,10.00,M,OVC,M,M,M,6000.00,M,M,M,M,KGKY 012250Z AUTO 12010KT 10SM OVC060 A2986 RMK MADISHF
GKY,2017-04-01 22:53,-97.0943,32.6639,73.00,57.90,59.12,120.00,13.00,0.00,29.86,1010.50,10.00,M,OVC,M,M,M,6000.00,M,M,M,M,KGKY 012253Z 12013KT 10SM OVC060 23/14 A2986 RMK AO2 SLP105 T02280144
GKY,2017-04-01 22:55,-97.0943,32.6639,M,M,M,120.00,11.00,M,29.86,M,10.00,M,OVC,M,M,M,6000.00,M,M,M,M,KGKY 012255Z AUTO 12011KT 10SM OVC060 A2986 RMK MADISHF
GKY,2017-04-01 23:00,-97.0943,32.6639,M,M,M,120.00,13.00,M,29.86,M,10.00,M,OVC,M,M,M,6000.00,M,M,M,M,KGKY 012300Z AUTO 12013KT 10SM OVC060 A2986 RMK MADISHF
GKY,2017-04-01 23:05,-97.0943,32.6639,M,M,M,130.00,11.00,M,29.86,M,10.00,M,OVC,M,M,M,6000.00,M,M,M,M,KGKY 012305Z AUTO 13011KT 10SM OVC060 A2986 RMK MADISHF
GKY,2017-04-01 23:10,-97.0943,32.6639,M,M,M,120.00,10.00,M,29.86,M,10.00,M,OVC,M,M,M,6000.00,M,M,M,M,KGKY 012310Z AUTO 12010KT 10SM OVC060 A2986 RMK MADISHF
GKY,2017-04-01 23:15,-97.0943,32.6639,M,M,M,130.00,11.00,M,29.86,M,10.00,M,OVC,M,M,M,6000.00,M,M,M,M,KGKY 012315Z AUTO 13011KT 10SM OVC060 A2986 RMK MADISHF
GKY,2017-04-01 23:20,-97.0943,32.6639,M,M,M,120.00,10.00,M,29.86,M,10.00,M,OVC,M,M,M,5500.00,M,M,M,M,KGKY 012320Z AUTO 12010KT 10SM OVC055 A2986 RMK MADISHF
GKY,2017-04-01 23:25,-97.0943,32.6639,M,M,M,130.00,12.00,M,29.86,M,10.00,M,OVC,M,M,M,5500.00,M,M,M,M,KGKY 012325Z AUTO 13012KT 10SM OVC055 A2986 RMK MADISHF
GKY,2017-04-01 23:30,-97.0943,32.6639,M,M,M,130.00,9.00,M,29.86,M,10.00,M,OVC,M,M,M,5500.00,M,M,M,M,KGKY 012330Z AUTO 13009KT 10SM OVC055 A2986 RMK MADISHF
GKY,2017-04-01 23:35,-97.0943,32.6639,M,M,M,130.00,9.00,M,29.87,M,10.00,M,OVC,M,M,M,6000.00,M,M,M,M,KGKY 012335Z AUTO 13009KT 10SM OVC060 A2987 RMK MADISHF
GKY,2017-04-01 23:40,-97.0943,32.6639,M,M,M,130.00,10.00,M,29.86,M,10.00,M,OVC,M,M,M,5500.00,M,M,M,-RA,KGKY 012340Z AUTO 13010KT 10SM -RA OVC055 A2986 RMK MADISHF
GKY,2017-04-01 23:45,-97.0943,32.6639,M,M,M,120.00,9.00,M,29.86,M,10.00,M,OVC,M,M,M,6000.00,M,M,M,-RA,KGKY 012345Z AUTO 12009KT 10SM -RA OVC060 A2986 RMK MADISHF
GKY,2017-04-01 23:50,-97.0943,32.6639,M,M,M,100.00,7.00,M,29.86,M,10.00,M,OVC,M,M,M,6000.00,M,M,M,M,KGKY 012350Z AUTO 10007KT 10SM OVC060 A2986 RMK MADISHF
GKY,2017-04-01 23:53,-97.0943,32.6639,73.00,59.00,61.50,110.00,7.00,0.00,29.86,1010.50,10.00,M,OVC,M,M,M,6000.00,M,M,M,M,KGKY 012353Z 11007KT 10SM OVC060 23/15 A2986 RMK AO2 RAB39E49 SLP105 P0000 60000 T02280150 10233 20217 53001
GKY,2017-04-01 23:55,-97.0943,32.6639,M,M,M,110.00,7.00,M,29.86,M,10.00,M,OVC,M,M,M,6000.00,M,M,M,M,KGKY 012355Z AUTO 11007KT 10SM OVC060 A2986 RMK MADISHF
