#DEBUG: Format Typ    -> comma
#DEBUG: Time Period   -> 2017-04-01 00:00:00+00:00 2017-04-02 00:00:00+00:00
#DEBUG: Time Zone     -> Etc/UTC
#DEBUG: Data Contact   -> daryl herzmann akrherz@iastate.edu 515-294-5978
#DEBUG: Entries Found -> -1
station,valid,lon,lat,tmpf, dwpf, relh, drct, sknt, p01i, alti, mslp, vsby, gust, skyc1, skyc2, skyc3, skyc4, skyl1, skyl2, skyl3, skyl4, presentwx, metar
GLH,2017-04-01 00:00,-90.9856,33.4829,M,M,M,210.00,3.00,M,29.87,M,10.00,M,CLR,M,M,M,M,M,M,M,M,KGLH 010000Z AUTO 21003KT 10SM CLR A2987 RMK MADISHF
GLH,2017-04-01 00:05,-90.9856,33.4829,M,M,M,0.00,0.00,M,29.87,M,10.00,M,CLR,M,M,M,M,M,M,M,M,KGLH 010005Z AUTO 00000KT 10SM CLR A2987 RMK MADISHF
GLH,2017-04-01 00:10,-90.9856,33.4829,M,M,M,0.00,0.00,M,29.87,M,10.00,M,CLR,M,M,M,M,M,M,M,M,KGLH 010010Z AUTO 00000KT 10SM CLR A2987 RMK MADISHF
GLH,2017-04-01 00:15,-90.9856,33.4829,M,M,M,0.00,0.00,M,29.87,M,10.00,M,CLR,M,M,M,M,M,M,M,M,KGLH 010015Z AUTO 00000KT 10SM CLR A2987 RMK MADISHF
GLH,2017-04-01 00:20,-90.9856,33.4829,M,M,M,0.00,0.00,M,29.87,M,10.00,M,CLR,M,M,M,M,M,M,M,M,KGLH 010020Z AUTO 00000KT 10SM CLR A2987 RMK MADISHF
GLH,2017-04-01 00:25,-90.9856,33.4829,M,M,M,0.00,0.00,M,29.87,M,10.00,M,CLR,M,M,M,M,M,M,M,M,KGLH 010025Z AUTO 00000KT 10SM CLR A2987 RMK MADISHF
GLH,2017-04-01 00:30,-90.9856,33.4829,M,M,M,0.00,0.00,M,29.87,M,10.00,M,CLR,M,M,M,M,M,M,M,M,KGLH 010030Z AUTO 00000KT 10SM CLR A2987 RMK MADISHF
GLH,2017-04-01 00:35,-90.9856,33.4829,M,M,M,0.00,0.00,M,29.88,M,10.00,M,CLR,M,M,M,M,M,M,M,M,KGLH 010035Z AUTO 00000KT 10SM CLR A2988 RMK MADISHF
GLH,2017-04-01 00:40,-90.9856,33.4829,M,M,M,0.00,0.00,M,29.88,M,10.00,M,CLR,M,M,M,M,M,M,M,M,KGLH 010040Z AUTO 00000KT 10SM CLR A2988 RMK MADISHF
GLH,2017-04-01 00:45,-90.9856,33.4829,M,M,M,0.00,0.00,M,29.88,M,10.00,M,CLR,M,M,M,M,M,M,M,M,KGLH 010045Z AUTO 00000KT 10SM CLR A2988 RMK MADISHF
GLH,2017-04-01 00:50,-90.9856,33.4829,M,M,M,0.00,0.00,M,29.88,M,10.00,M,CLR,M,M,M,M,M,M,M,M,KGLH 010050Z AUTO 00000KT 10SM CLR A2988 RMK MADISHF
GLH,2017-04-01 00:53,-90.9856,33.4829,68.00,54.00,60.86,0.00,0.00,0.00,29.88,1012.60,10.00,M,CLR,M,M,M,M,M,M,M,M,KGLH 010053Z AUTO 00000KT 10SM CLR 20/12 A2988 RMK AO2 SLP126 T02000122
GLH,2017-04-01 00:55,-90.9856,33.4829,M,M,M,0.00,0.00,M,29.88,M,10.00,M,CLR,M,M,M,M,M,M,M,M,KGLH 010055Z AUTO 00000KT 10SM CLR A2988 RMK MADISHF
GLH,2017-04-01 01:00,-90.9856,33.4829,M,M,M,0.00,0.00,M,29.89,M,10.00,M,CLR,M,M,M,M,M,M,M,M,KGLH 010100Z AUTO 00000KT 10SM CLR A2989 RMK MADISHF
GLH,2017-04-01 01:05,-90.9856,33.4829,M,M,M,0.00,0.00,M,29.89,M,10.00,M,CLR,M,M,M,M,M,M,M,M,KGLH 010105Z AUTO 00000KT 10SM CLR A2989 RMK MADISHF
GLH,2017-04-01 01:10,-90.9856,33.4829,M,M,M,120.00,3.00,M,29.89,M,10.00,M,CLR,M,M,M,M,M,M,M,M,KGLH 010110Z AUTO 12003KT 10SM CLR A2989 RMK MADISHF
GLH,2017-04-01 01:15,-90.9856,33.4829,M,M,M,130.00,3.00,M,29.89,M,10.00,M,CLR,M,M,M,M,M,M,M,M,KGLH 010115Z AUTO 13003KT 10SM CLR A2989 RMK MADISHF
GLH,2017-04-01 01:20,-90.9856,33.4829,M,M,M,120.00,4.00,M,29.89,M,10.00,M,CLR,M,M,M,M,M,M,M,M,KGLH 010120Z AUTO 12004KT 10SM CLR A2989 RMK MADISHF
GLH,2017-04-01 01:25,-90.9856,33.4829,M,M,M,110.00,4.00,M,29.89,M,10.00,M,CLR,M,M,M,M,M,M,M,M,KGLH 010125Z AUTO 11004KT 10SM CLR A2989 RMK MADISHF
GLH,2017-04-01 01:30,-90.9856,33.4829,M,M,M,110.00,4.00,M,29.89,M,10.00,M,CLR,M,M,M,M,M,M,M,M,KGLH 010130Z AUTO 11004KT 10SM CLR A2989 RMK MADISHF
GLH,2017-04-01 01:35,-90.9856,33.4829,M,M,M,120.00,4.00,M,29.90,M,10.00,M,CLR,M,M,M,M,M,M,M,M,KGLH 010135Z AUTO 12004KT 10SM CLR A2990 RMK MADISHF
GLH,2017-04-01 01:40,-90.9856,33.4829,M,M,M,130.00,4.00,M,29.90,M,10.00,M,CLR,M,M,M,M,M,M,M,M,KGLH 010140Z AUTO 13004KT 10SM CLR A2990 RMK MADISHF
GLH,2017-04-01 01:45,-90.9856,33.4829,M,M,M,130.00,4.00,M,29.90,M,10.00,M,CLR,M,M,M,M,M,M,M,M,KGLH 010145Z AUTO 13004KT 10SM CLR A2990 RMK MADISHF
GLH,2017-04-01 01:50,-90.9856,33.4829,M,M,M,130.00,4.00,M,29.90,M,10.00,M,CLR,M,M,M,M,M,M,M,M,KGLH 010150Z AUTO 13004KT 10SM CLR A2990 RMK MADISHF
GLH,2017-04-01 01:53,-90.9856,33.4829,64.90,54.00,67.76,130.00,4.00,0.00,29.90,1013.30,10.00,M,CLR,M,M,M,M,M,M,M,M,KGLH 010153Z AUTO 13004KT 10SM CLR 18/12 A2990 RMK AO2 SLP133 T01830122
GLH,2017-04-01 01:55,-90.9856,33.4829,M,M,M,130.00,4.00,M,29.90,M,10.00,M,CLR,M,M,M,M,M,M,M,M,KGLH 010155Z AUTO 13004KT 10SM CLR A2990 RMK MADISHF
GLH,2017-04-01 02:00,-90.9856,33.4829,M,M,M,120.00,4.00,M,29.91,M,10.00,M,CLR,M,M,M,M,M,M,M,M,KGLH 010200Z AUTO 12004KT 10SM CLR A2991 RMK MADISHF
GLH,2017-04-01 02:05,-90.9856,33.4829,M,M,M,130.00,4.00,M,29.91,M,10.00,M,CLR,M,M,M,M,M,M,M,M,KGLH 010205Z AUTO 13004KT 10SM CLR A2991 RMK MADISHF
GLH,2017-04-01 02:10,-90.9856,33.4829,M,M,M,120.00,4.00,M,29.91,M,10.00,M,CLR,M,M,M,M,M,M,M,M,KGLH 010210Z AUTO 12004KT 10SM CLR A2991 RMK MADISHF
GLH,2017-04-01 02:15,-90.9856,33.4829,M,M,M,120.00,4.00,M,29.91,M,10.00,M,CLR,M,M,M,M,M,M,M,M,KGLH 010215Z AUTO 12004KT 10SM CLR A2991 RMK MADISHF
GLH,2017-04-01 02:20,-90.9856,33.4829,M,M,M,110.00,4.00,M,29.91,M,10.00,M,CLR,M,M,M,M,M,M,M,M,KGLH 010220Z AUTO 11004KT 10SM CLR A2991 RMK MADISHF
GLH,2017-04-01 02:25,-90.9856,33.4829,M,M,M,110.00,4.00,M,29.91,M,10.00,M,CLR,M,M,M,M,M,M,M,M,KGLH 010225Z AUTO 11004KT 10SM CLR A2991 RMK MADISHF
GLH,2017-04-01 02:30,-90.9856,33.4829,M,M,M,120.00,5.00,M,29.91,M,10.00,M,CLR,M,M,M,M,M,M,M,M,KGLH 010230Z AUTO 12005KT 10SM CLR A2991 RMK MADISHF
GLH,2017-04-01 02:35,-90.9856,33.4829,M,M,M,100.00,6.00,M,29.92,M,10.00,M,CLR,M,M,M,M,M,M,M,M,KGLH 010235Z AUTO 10006KT 10SM CLR A2992 RMK MADISHF
GLH,2017-04-01 02:40,-90.9856,33.4829,M,M,M,110.00,6.00,M,29.92,M,10.00,M,CLR,M,M,M,M,M,M,M,M,KGLH 010240Z AUTO 11006KT 10SM CLR A2992 RMK MADISHF
GLH,2017-04-01 02:45,-90.9856,33.4829,M,M,M,120.00,5.00,M,29.92,M,10.00,M,CLR,M,M,M,M,M,M,M,M,KGLH 010245Z AUTO 12005KT 10SM CLR A2992 RMK MADISHF
GLH,2017-04-01 02:50,-90.9856,33.4829,M,M,M,120.00,5.00,M,29.92,M,10.00,M,CLR,M,M,M,M,M,M,M,M,KGLH 010250Z AUTO 12005KT 10SM CLR A2992 RMK MADISHF
GLH,2017-04-01 02:53,-90.9856,33.4829,62.10,54.00,74.75,110.00,5.00,0.00,29.92,1013.90,10.00,M,CLR,M,M,M,M,M,M,M,M,KGLH 010253Z AUTO 11005KT 10SM CLR 17/12 A2992 RMK AO2 SLP139 T01670122 53016
GLH,2017-04-01 02:55,-90.9856,33.4829,M,M,M,110.00,5.00,M,29.92,M,10.00,M,CLR,M,M,M,M,M,M,M,M,KGLH 010255Z AUTO 11005KT 10SM CLR A2992 RMK MADISHF
GLH,2017-04-01 03:00,-90.9856,33.4829,M,M,M,120.00,5.00,M,29.92,M,10.00,M,CLR,M,M,M,M,M,M,M,M,KGLH 010300Z AUTO 12005KT 10SM CLR A2992 RMK MADISHF
GLH,2017-04-01 03:05,-90.9856,33.4829,M,M,M,110.00,5.00,M,29.92,M,10.00,M,CLR,M,M,M,M,M,M,M,M,KGLH 010305Z AUTO 11005KT 10SM CLR A2992 RMK MADISHF
GLH,2017-04-01 03:10,-90.9856,33.4829,M,M,M,110.00,5.00,M,29.92,M,10.00,M,CLR,M,M,M,M,M,M,M,M,KGLH 010310Z AUTO 11005KT 10SM CLR A2992 RMK MADISHF
GLH,2017-04-01 03:15,-90.9856,33.4829,M,M,M,110.00,5.00,M,29.92,M,10.00,M,CLR,M,M,M,M,M,M,M,M,KGLH 010315Z AUTO 11005KT 10SM CLR A2992 RMK MADISHF
GLH,2017-04-01 03:20,-90.9856,33.4829,M,M,M,110.00,5.00,M,29.92,M,10.00,M,CLR,M,M,M,M,M,M,M,M,KGLH 010320Z AUTO 11005KT 10SM CLR A2992 RMK MADISHF
GLH,2017-04-01 03:25,-90.9856,33.4829,M,M,M,110.00,5.00,M,29.92,M,10.00,M,CLR,M,M,M,M,M,M,M,M,KGLH 010325Z AUTO 11005KT 10SM CLR A2992 RMK MADISHF
GLH,2017-04-01 03:30,-90.9856,33.4829,M,M,M,110.00,5.00,M,29.92,M,10.00,M,CLR,M,M,M,M,M,M,M,M,KGLH 010330Z AUTO 11005KT 10SM CLR A2992 RMK MADISHF
GLH,2017-04-01 03:35,-90.9856,33.4829,M,M,M,110.00,5.00,M,29.92,M,10.00,M,CLR,M,M,M,M,M,M,M,M,KGLH 010335Z AUTO 11005KT 10SM CLR A2992 RMK MADISHF
GLH,2017-04-01 03:40,-90.9856,33.4829,M,M,M,110.00,6.00,M,29.92,M,10.00,M,CLR,M,M,M,M,M,M,M,M,KGLH 010340Z AUTO 11006KT 10SM CLR A2992 RMK MADISHF
GLH,2017-04-01 03:45,-90.9856,33.4829,M,M,M,100.00,7.00,M,29.92,M,10.00,M,CLR,M,M,M,M,M,M,M,M,KGLH 010345Z AUTO 10007KT 10SM CLR A2992 RMK MADISHF
GLH,2017-04-01 03:50,-90.9856,33.4829,M,M,M,110.00,6.00,M,29.92,M,10.00,M,CLR,M,M,M,M,M,M,M,M,KGLH 010350Z AUTO 11006KT 10SM CLR A2992 RMK MADISHF
GLH,2017-04-01 03:53,-90.9856,33.4829,64.00,54.00,69.92,110.00,6.00,0.00,29.92,1013.90,10.00,M,CLR,M,M,M,M,M,M,M,M,KGLH 010353Z AUTO 11006KT 10SM CLR 18/12 A2992 RMK AO2 SLP139 T01780122
GLH,2017-04-01 03:55,-90.9856,33.4829,M,M,M,110.00,7.00,M,29.92,M,10.00,M,CLR,M,M,M,M,M,M,M,M,KGLH 010355Z AUTO 11007KT 10SM CLR A2992 RMK MADISHF
GLH,2017-04-01 04:00,-90.9856,33.4829,M,M,M,110.00,6.00,M,29.92,M,10.00,M,CLR,M,M,M,M,M,M,M,M,KGLH 010400Z AUTO 11006KT 10SM CLR A2992 RMK MADISHF
GLH,2017-04-01 04:05,-90.9856,33.4829,M,M,M,110.00,5.00,M,29.92,M,10.00,M,CLR,M,M,M,M,M,M,M,M,KGLH 010405Z AUTO 11005KT 10SM CLR A2992 RMK MADISHF
GLH,2017-04-01 04:10,-90.9856,33.4829,M,M,M,100.00,5.00,M,29.92,M,10.00,M,CLR,M,M,M,M,M,M,M,M,KGLH 010410Z AUTO 10005KT 10SM CLR A2992 RMK MADISHF
GLH,2017-04-01 04:15,-90.9856,33.4829,M,M,M,110.00,5.00,M,29.92,M,10.00,M,CLR,M,M,M,M,M,M,M,M,KGLH 010415Z AUTO 11005KT 10SM CLR A2992 RMK MADISHF
GLH,2017-04-01 04:20,-90.9856,33.4829,M,M,M,110.00,5.00,M,29.93,M,10.00,M,CLR,M,M,M,M,M,M,M,M,KGLH 010420Z AUTO 11005KT 10SM CLR A2993 RMK MADISHF
GLH,2017-04-01 04:25,-90.9856,33.4829,M,M,M,120.00,5.00,M,29.93,M,10.00,M,CLR,M,M,M,M,M,M,M,M,KGLH 010425Z AUTO 12005KT 10SM CLR A2993 RMK MADISHF
GLH,2017-04-01 04:30,-90.9856,33.4829,M,M,M,120.00,4.00,M,29.93,M,10.00,M,CLR,M,M,M,M,M,M,M,M,KGLH 010430Z AUTO 12004KT 10SM CLR A2993 RMK MADISHF
GLH,2017-04-01 04:35,-90.9856,33.4829,M,M,M,120.00,3.00,M,29.93,M,10.00,M,CLR,M,M,M,M,M,M,M,M,KGLH 010435Z AUTO 12003KT 10SM CLR A2993 RMK MADISHF
GLH,2017-04-01 04:40,-90.9856,33.4829,M,M,M,120.00,4.00,M,29.93,M,10.00,M,CLR,M,M,M,M,M,M,M,M,KGLH 010440Z AUTO 12004KT 10SM CLR A2993 RMK MADISHF
GLH,2017-04-01 04:45,-90.9856,33.4829,M,M,M,110.00,5.00,M,29.93,M,10.00,M,CLR,M,M,M,M,M,M,M,M,KGLH 010445Z AUTO 11005KT 10SM CLR A2993 RMK MADISHF
GLH,2017-04-01 04:50,-90.9856,33.4829,M,M,M,110.00,5.00,M,29.93,M,10.00,M,CLR,M,M,M,M,M,M,M,M,KGLH 010450Z AUTO 11005KT 10SM CLR A2993 RMK MADISHF
GLH,2017-04-01 04:53,-90.9856,33.4829,61.00,54.00,77.72,110.00,5.00,0.00,29.93,1014.20,10.00,M,CLR,M,M,M,M,M,M,M,M,KGLH 010453Z AUTO 11005KT 10SM CLR 16/12 A2993 RMK AO2 SLP142 T01610122
GLH,2017-04-01 04:55,-90.9856,33.4829,M,M,M,100.00,5.00,M,29.93,M,10.00,M,CLR,M,M,M,M,M,M,M,M,KGLH 010455Z AUTO 10005KT 10SM CLR A2993 RMK MADISHF
GLH,2017-04-01 05:00,-90.9856,33.4829,M,M,M,100.00,5.00,M,29.93,M,10.00,M,CLR,M,M,M,M,M,M,M,M,KGLH 010500Z AUTO 10005KT 10SM CLR A2993 RMK MADISHF
GLH,2017-04-01 05:05,-90.9856,33.4829,M,M,M,110.00,4.00,M,29.93,M,10.00,M,CLR,M,M,M,M,M,M,M,M,KGLH 010505Z AUTO 11004KT 10SM CLR A2993 RMK MADISHF
GLH,2017-04-01 05:10,-90.9856,33.4829,M,M,M,120.00,3.00,M,29.93,M,10.00,M,CLR,M,M,M,M,M,M,M,M,KGLH 010510Z AUTO 12003KT 10SM CLR A2993 RMK MADISHF
GLH,2017-04-01 05:15,-90.9856,33.4829,M,M,M,120.00,3.00,M,29.93,M,10.00,M,CLR,M,M,M,M,M,M,M,M,KGLH 010515Z AUTO 12003KT 10SM CLR A2993 RMK MADISHF
GLH,2017-04-01 05:20,-90.9856,33.4829,M,M,M,0.00,0.00,M,29.93,M,10.00,M,CLR,M,M,M,M,M,M,M,M,KGLH 010520Z AUTO 00000KT 10SM CLR A2993 RMK MADISHF
GLH,2017-04-01 05:25,-90.9856,33.4829,M,M,M,0.00,0.00,M,29.93,M,10.00,M,CLR,M,M,M,M,M,M,M,M,KGLH 010525Z AUTO 00000KT 10SM CLR A2993 RMK MADISHF
GLH,2017-04-01 05:30,-90.9856,33.4829,M,M,M,0.00,0.00,M,29.94,M,10.00,M,CLR,M,M,M,M,M,M,M,M,KGLH 010530Z AUTO 00000KT 10SM CLR A2994 RMK MADISHF
GLH,2017-04-01 05:35,-90.9856,33.4829,M,M,M,0.00,0.00,M,29.94,M,10.00,M,CLR,M,M,M,M,M,M,M,M,KGLH 010535Z AUTO 00000KT 10SM CLR A2994 RMK MADISHF
GLH,2017-04-01 05:40,-90.9856,33.4829,M,M,M,0.00,0.00,M,29.94,M,10.00,M,CLR,M,M,M,M,M,M,M,M,KGLH 010540Z AUTO 00000KT 10SM CLR A2994 RMK MADISHF
GLH,2017-04-01 05:45,-90.9856,33.4829,M,M,M,0.00,0.00,M,29.94,M,10.00,M,CLR,M,M,M,M,M,M,M,M,KGLH 010545Z AUTO 00000KT 10SM CLR A2994 RMK MADISHF
GLH,2017-04-01 05:50,-90.9856,33.4829,M,M,M,0.00,0.00,M,29.94,M,10.00,M,CLR,M,M,M,M,M,M,M,M,KGLH 010550Z AUTO 00000KT 10SM CLR A2994 RMK MADISHF
GLH,2017-04-01 05:53,-90.9856,33.4829,61.00,53.10,75.20,0.00,0.00,0.00,29.95,1014.60,10.00,M,CLR,M,M,M,M,M,M,M,M,KGLH 010553Z AUTO 00000KT 10SM CLR 16/12 A2995 RMK AO2 SLP146 T01610117 10233 20156 402390083 53008
GLH,2017-04-01 05:55,-90.9856,33.4829,M,M,M,M,M,M,29.95,M,10.00,M,CLR,M,M,M,M,M,M,M,M,KGLH 010555Z AUTO /////KT 10SM CLR A2995 RMK MADISHF
GLH,2017-04-01 06:00,-90.9856,33.4829,M,M,M,10.00,5.00,M,29.95,M,10.00,M,CLR,M,M,M,M,M,M,M,M,KGLH 010600Z AUTO 01005KT 10SM CLR A2995 RMK MADISHF
GLH,2017-04-01 06:05,-90.9856,33.4829,M,M,M,10.00,6.00,M,29.95,M,10.00,M,CLR,M,M,M,M,M,M,M,M,KGLH 010605Z AUTO 01006KT 10SM CLR A2995 RMK MADISHF
GLH,2017-04-01 06:10,-90.9856,33.4829,M,M,M,20.00,5.00,M,29.96,M,10.00,M,CLR,M,M,M,M,M,M,M,M,KGLH 010610Z AUTO 02005KT 10SM CLR A2996 RMK MADISHF
GLH,2017-04-01 06:15,-90.9856,33.4829,M,M,M,30.00,4.00,M,29.96,M,10.00,M,CLR,M,M,M,M,M,M,M,M,KGLH 010615Z AUTO 03004KT 10SM CLR A2996 RMK MADISHF
GLH,2017-04-01 06:20,-90.9856,33.4829,M,M,M,20.00,3.00,M,29.96,M,10.00,M,CLR,M,M,M,M,M,M,M,M,KGLH 010620Z AUTO 02003KT 10SM CLR A2996 RMK MADISHF
GLH,2017-04-01 06:25,-90.9856,33.4829,M,M,M,50.00,4.00,M,29.96,M,10.00,M,CLR,M,M,M,M,M,M,M,M,KGLH 010625Z AUTO 05004KT 10SM CLR A2996 RMK MADISHF
GLH,2017-04-01 06:30,-90.9856,33.4829,M,M,M,40.00,5.00,M,29.96,M,10.00,M,CLR,M,M,M,M,M,M,M,M,KGLH 010630Z AUTO 04005KT 10SM CLR A2996 RMK MADISHF
GLH,2017-04-01 06:35,-90.9856,33.4829,M,M,M,30.00,4.00,M,29.96,M,10.00,M,CLR,M,M,M,M,M,M,M,M,KGLH 010635Z AUTO 03004KT 10SM CLR A2996 RMK MADISHF
GLH,2017-04-01 06:40,-90.9856,33.4829,M,M,M,50.00,4.00,M,29.96,M,10.00,M,CLR,M,M,M,M,M,M,M,M,KGLH 010640Z AUTO 05004KT 10SM CLR A2996 RMK MADISHF
GLH,2017-04-01 06:45,-90.9856,33.4829,M,M,M,50.00,5.00,M,29.96,M,10.00,M,CLR,M,M,M,M,M,M,M,M,KGLH 010645Z AUTO 05005KT 10SM CLR A2996 RMK MADISHF
GLH,2017-04-01 06:50,-90.9856,33.4829,M,M,M,40.00,7.00,M,29.96,M,10.00,M,CLR,M,M,M,M,M,M,M,M,KGLH 010650Z AUTO 04007KT 10SM CLR A2996 RMK MADISHF
GLH,2017-04-01 06:53,-90.9856,33.4829,57.00,53.10,86.77,40.00,7.00,0.00,29.96,1014.90,10.00,M,CLR,M,M,M,M,M,M,M,M,KGLH 010653Z AUTO 04007KT 10SM CLR 14/12 A2996 RMK AO2 SLP149 T01390117
GLH,2017-04-01 06:55,-90.9856,33.4829,M,M,M,40.00,7.00,M,29.96,M,10.00,M,CLR,M,M,M,M,M,M,M,M,KGLH 010655Z AUTO 04007KT 10SM CLR A2996 RMK MADISHF
GLH,2017-04-01 07:00,-90.9856,33.4829,M,M,M,50.00,7.00,M,29.96,M,10.00,M,CLR,M,M,M,M,M,M,M,M,KGLH 010700Z AUTO 05007KT 10SM CLR A2996 RMK MADISHF
GLH,2017-04-01 07:05,-90.9856,33.4829,M,M,M,50.00,7.00,M,29.96,M,10.00,M,CLR,M,M,M,M,M,M,M,M,KGLH 010705Z AUTO 05007KT 10SM CLR A2996 RMK MADISHF
GLH,2017-04-01 07:10,-90.9856,33.4829,M,M,M,50.00,7.00,M,29.96,M,10.00,M,CLR,M,M,M,M,M,M,M,M,KGLH 010710Z AUTO 05007KT 10SM CLR A2996 RMK MADISHF
GLH,2017-04-01 07:15,-90.9856,33.4829,M,M,M,40.00,6.00,M,29.96,M,10.00,M,CLR,M,M,M,M,M,M,M,M,KGLH 010715Z AUTO 04006KT 10SM CLR A2996 RMK MADISHF
GLH,2017-04-01 07:20,-90.9856,33.4829,M,M,M,40.00,6.00,M,29.96,M,10.00,M,CLR,M,M,M,M,M,M,M,M,KGLH 010720Z AUTO 04006KT 10SM CLR A2996 RMK MADISHF
GLH,2017-04-01 07:25,-90.9856,33.4829,M,M,M,50.00,5.00,M,29.96,M,10.00,M,CLR,M,M,M,M,M,M,M,M,KGLH 010725Z AUTO 05005KT 10SM CLR A2996 RMK MADISHF
GLH,2017-04-01 07:30,-90.9856,33.4829,M,M,M,40.00,6.00,M,29.96,M,10.00,M,CLR,M,M,M,M,M,M,M,M,KGLH 010730Z AUTO 04006KT 10SM CLR A2996 RMK MADISHF
GLH,2017-04-01 07:35,-90.9856,33.4829,M,M,M,40.00,5.00,M,29.96,M,10.00,M,CLR,M,M,M,M,M,M,M,M,KGLH 010735Z AUTO 04005KT 10SM CLR A2996 RMK MADISHF
GLH,2017-04-01 07:40,-90.9856,33.4829,M,M,M,30.00,5.00,M,29.96,M,10.00,M,CLR,M,M,M,M,M,M,M,M,KGLH 010740Z AUTO 03005KT 10SM CLR A2996 RMK MADISHF
GLH,2017-04-01 07:45,-90.9856,33.4829,M,M,M,30.00,5.00,M,29.97,M,10.00,M,CLR,M,M,M,M,M,M,M,M,KGLH 010745Z AUTO 03005KT 10SM CLR A2997 RMK MADISHF
GLH,2017-04-01 07:50,-90.9856,33.4829,M,M,M,30.00,5.00,M,29.97,M,10.00,M,CLR,M,M,M,M,M,M,M,M,KGLH 010750Z AUTO 03005KT 10SM CLR A2997 RMK MADISHF
GLH,2017-04-01 07:53,-90.9856,33.4829,55.90,52.00,86.71,20.00,4.00,0.00,29.97,1015.50,10.00,M,CLR,M,M,M,M,M,M,M,M,KGLH 010753Z AUTO 02004KT 10SM CLR 13/11 A2997 RMK AO2 SLP155 T01330111
GLH,2017-04-01 07:55,-90.9856,33.4829,M,M,M,20.00,4.00,M,29.97,M,10.00,M,CLR,M,M,M,M,M,M,M,M,KGLH 010755Z AUTO 02004KT 10SM CLR A2997 RMK MADISHF
GLH,2017-04-01 08:00,-90.9856,33.4829,M,M,M,30.00,5.00,M,29.97,M,10.00,M,CLR,M,M,M,M,M,M,M,M,KGLH 010800Z AUTO 03005KT 10SM CLR A2997 RMK MADISHF
GLH,2017-04-01 08:05,-90.9856,33.4829,M,M,M,30.00,7.00,M,29.97,M,10.00,M,CLR,M,M,M,M,M,M,M,M,KGLH 010805Z AUTO 03007KT 10SM CLR A2997 RMK MADISHF
GLH,2017-04-01 08:10,-90.9856,33.4829,M,M,M,30.00,7.00,M,29.98,M,10.00,M,CLR,M,M,M,M,M,M,M,M,KGLH 010810Z AUTO 03007KT 10SM CLR A2998 RMK MADISHF
GLH,2017-04-01 08:15,-90.9856,33.4829,M,M,M,30.00,7.00,M,29.98,M,10.00,M,CLR,M,M,M,M,M,M,M,M,KGLH 010815Z AUTO 03007KT 10SM CLR A2998 RMK MADISHF
GLH,2017-04-01 08:20,-90.9856,33.4829,M,M,M,40.00,8.00,M,29.98,M,10.00,M,CLR,M,M,M,M,M,M,M,M,KGLH 010820Z AUTO 04008KT 10SM CLR A2998 RMK MADISHF
GLH,2017-04-01 08:25,-90.9856,33.4829,M,M,M,40.00,8.00,M,29.98,M,10.00,M,CLR,M,M,M,M,M,M,M,M,KGLH 010825Z AUTO 04008KT 10SM CLR A2998 RMK MADISHF
GLH,2017-04-01 08:30,-90.9856,33.4829,M,M,M,40.00,6.00,M,29.98,M,10.00,M,CLR,M,M,M,M,M,M,M,M,KGLH 010830Z AUTO 04006KT 10SM CLR A2998 RMK MADISHF
GLH,2017-04-01 08:35,-90.9856,33.4829,M,M,M,50.00,6.00,M,29.98,M,10.00,M,CLR,M,M,M,M,M,M,M,M,KGLH 010835Z AUTO 05006KT 10SM CLR A2998 RMK MADISHF
GLH,2017-04-01 08:40,-90.9856,33.4829,M,M,M,40.00,6.00,M,29.98,M,10.00,M,CLR,M,M,M,M,M,M,M,M,KGLH 010840Z AUTO 04006KT 10SM CLR A2998 RMK MADISHF
GLH,2017-04-01 08:45,-90.9856,33.4829,M,M,M,30.00,5.00,M,29.98,M,10.00,M,CLR,M,M,M,M,M,M,M,M,KGLH 010845Z AUTO 03005KT 10SM CLR A2998 RMK MADISHF
GLH,2017-04-01 08:50,-90.9856,33.4829,M,M,M,40.00,6.00,M,29.98,M,10.00,M,CLR,M,M,M,M,M,M,M,M,KGLH 010850Z AUTO 04006KT 10SM CLR A2998 RMK MADISHF
GLH,2017-04-01 08:53,-90.9856,33.4829,57.90,51.10,78.03,40.00,6.00,0.00,29.98,1015.70,10.00,M,CLR,M,M,M,M,M,M,M,M,KGLH 010853Z AUTO 04006KT 10SM CLR 14/11 A2998 RMK AO2 SLP157 T01440106 51011
GLH,2017-04-01 08:55,-90.9856,33.4829,M,M,M,40.00,6.00,M,29.98,M,10.00,M,CLR,M,M,M,M,M,M,M,M,KGLH 010855Z AUTO 04006KT 10SM CLR A2998 RMK MADISHF
GLH,2017-04-01 09:00,-90.9856,33.4829,M,M,M,50.00,6.00,M,29.98,M,10.00,M,CLR,M,M,M,M,M,M,M,M,KGLH 010900Z AUTO 05006KT 10SM CLR A2998 RMK MADISHF
GLH,2017-04-01 09:05,-90.9856,33.4829,M,M,M,50.00,6.00,M,29.98,M,10.00,M,CLR,M,M,M,M,M,M,M,M,KGLH 010905Z AUTO 05006KT 10SM CLR A2998 RMK MADISHF
GLH,2017-04-01 09:10,-90.9856,33.4829,M,M,M,50.00,7.00,M,29.98,M,10.00,M,CLR,M,M,M,M,M,M,M,M,KGLH 010910Z AUTO 05007KT 10SM CLR A2998 RMK MADISHF
GLH,2017-04-01 09:15,-90.9856,33.4829,M,M,M,40.00,8.00,M,29.98,M,10.00,M,CLR,M,M,M,M,M,M,M,M,KGLH 010915Z AUTO 04008KT 10SM CLR A2998 RMK MADISHF
GLH,2017-04-01 09:20,-90.9856,33.4829,M,M,M,50.00,8.00,M,29.98,M,10.00,M,CLR,M,M,M,M,M,M,M,M,KGLH 010920Z AUTO 05008KT 10SM CLR A2998 RMK MADISHF
GLH,2017-04-01 09:25,-90.9856,33.4829,M,M,M,50.00,7.00,M,29.98,M,10.00,M,CLR,M,M,M,M,M,M,M,M,KGLH 010925Z AUTO 05007KT 10SM CLR A2998 RMK MADISHF
GLH,2017-04-01 09:30,-90.9856,33.4829,M,M,M,50.00,7.00,M,29.98,M,10.00,M,CLR,M,M,M,M,M,M,M,M,KGLH 010930Z AUTO 05007KT 10SM CLR A2998 RMK MADISHF
GLH,2017-04-01 09:35,-90.9856,33.4829,M,M,M,60.00,7.00,M,29.99,M,10.00,M,CLR,M,M,M,M,M,M,M,M,KGLH 010935Z AUTO 06007KT 10SM CLR A2999 RMK MADISHF
GLH,2017-04-01 09:40,-90.9856,33.4829,M,M,M,60.00,7.00,M,29.99,M,10.00,M,CLR,M,M,M,M,M,M,M,M,KGLH 010940Z AUTO 06007KT 10SM CLR A2999 RMK MADISHF
GLH,2017-04-01 09:45,-90.9856,33.4829,M,M,M,60.00,6.00,M,29.99,M,10.00,M,CLR,M,M,M,M,M,M,M,M,KGLH 010945Z AUTO 06006KT 10SM CLR A2999 RMK MADISHF
GLH,2017-04-01 09:50,-90.9856,33.4829,M,M,M,50.00,6.00,M,29.99,M,10.00,M,CLR,M,M,M,M,M,M,M,M,KGLH 010950Z AUTO 05006KT 10SM CLR A2999 RMK MADISHF
GLH,2017-04-01 09:53,-90.9856,33.4829,57.90,50.00,74.91,50.00,6.00,0.00,29.99,1016.20,10.00,M,CLR,M,M,M,M,M,M,M,M,KGLH 010953Z AUTO 05006KT 10SM CLR 14/10 A2999 RMK AO2 SLP162 T01440100
GLH,2017-04-01 09:55,-90.9856,33.4829,M,M,M,50.00,6.00,M,29.99,M,10.00,M,CLR,M,M,M,M,M,M,M,M,KGLH 010955Z AUTO 05006KT 10SM CLR A2999 RMK MADISHF
GLH,2017-04-01 10:00,-90.9856,33.4829,M,M,M,60.00,6.00,M,29.99,M,10.00,M,CLR,M,M,M,M,M,M,M,M,KGLH 011000Z AUTO 06006KT 10SM CLR A2999 RMK MADISHF
GLH,2017-04-01 10:05,-90.9856,33.4829,M,M,M,60.00,6.00,M,30.00,M,10.00,M,CLR,M,M,M,M,M,M,M,M,KGLH 011005Z AUTO 06006KT 10SM CLR A3000 RMK MADISHF
GLH,2017-04-01 10:10,-90.9856,33.4829,M,M,M,50.00,6.00,M,30.00,M,10.00,M,CLR,M,M,M,M,M,M,M,M,KGLH 011010Z AUTO 05006KT 10SM CLR A3000 RMK MADISHF
GLH,2017-04-01 10:15,-90.9856,33.4829,M,M,M,50.00,6.00,M,30.00,M,10.00,M,CLR,M,M,M,M,M,M,M,M,KGLH 011015Z AUTO 05006KT 10SM CLR A3000 RMK MADISHF
GLH,2017-04-01 10:20,-90.9856,33.4829,M,M,M,60.00,6.00,M,30.00,M,10.00,M,CLR,M,M,M,M,M,M,M,M,KGLH 011020Z AUTO 06006KT 10SM CLR A3000 RMK MADISHF
GLH,2017-04-01 10:25,-90.9856,33.4829,M,M,M,60.00,7.00,M,30.00,M,10.00,M,CLR,M,M,M,M,M,M,M,M,KGLH 011025Z AUTO 06007KT 10SM CLR A3000 RMK MADISHF
GLH,2017-04-01 10:30,-90.9856,33.4829,M,M,M,60.00,6.00,M,30.00,M,10.00,M,CLR,M,M,M,M,M,M,M,M,KGLH 011030Z AUTO 06006KT 10SM CLR A3000 RMK MADISHF
GLH,2017-04-01 10:35,-90.9856,33.4829,M,M,M,60.00,6.00,M,30.01,M,10.00,M,CLR,M,M,M,M,M,M,M,M,KGLH 011035Z AUTO 06006KT 10SM CLR A3001 RMK MADISHF
GLH,2017-04-01 10:40,-90.9856,33.4829,M,M,M,70.00,4.00,M,30.01,M,10.00,M,CLR,M,M,M,M,M,M,M,M,KGLH 011040Z AUTO 07004KT 10SM CLR A3001 RMK MADISHF
GLH,2017-04-01 10:45,-90.9856,33.4829,M,M,M,60.00,4.00,M,30.01,M,10.00,M,CLR,M,M,M,M,M,M,M,M,KGLH 011045Z AUTO 06004KT 10SM CLR A3001 RMK MADISHF
GLH,2017-04-01 10:50,-90.9856,33.4829,M,M,M,50.00,4.00,M,30.01,M,10.00,M,CLR,M,M,M,M,M,M,M,M,KGLH 011050Z AUTO 05004KT 10SM CLR A3001 RMK MADISHF
GLH,2017-04-01 10:53,-90.9856,33.4829,55.90,50.00,80.52,50.00,5.00,0.00,30.02,1017.00,10.00,M,CLR,M,M,M,M,M,M,M,M,KGLH 011053Z AUTO 05005KT 10SM CLR 13/10 A3002 RMK AO2 SLP170 T01330100
GLH,2017-04-01 10:55,-90.9856,33.4829,M,M,M,50.00,5.00,M,30.02,M,10.00,M,CLR,M,M,M,M,M,M,M,M,KGLH 011055Z AUTO 05005KT 10SM CLR A3002 RMK MADISHF
GLH,2017-04-01 11:00,-90.9856,33.4829,M,M,M,50.00,4.00,M,30.02,M,10.00,M,CLR,M,M,M,M,M,M,M,M,KGLH 011100Z AUTO 05004KT 10SM CLR A3002 RMK MADISHF
GLH,2017-04-01 11:05,-90.9856,33.4829,M,M,M,50.00,4.00,M,30.02,M,10.00,M,CLR,M,M,M,M,M,M,M,M,KGLH 011105Z AUTO 05004KT 10SM CLR A3002 RMK MADISHF
GLH,2017-04-01 11:10,-90.9856,33.4829,M,M,M,60.00,4.00,M,30.02,M,10.00,M,CLR,M,M,M,M,M,M,M,M,KGLH 011110Z AUTO 06004KT 10SM CLR A3002 RMK MADISHF
GLH,2017-04-01 11:15,-90.9856,33.4829,M,M,M,60.00,4.00,M,30.02,M,10.00,M,CLR,M,M,M,M,M,M,M,M,KGLH 011115Z AUTO 06004KT 10SM CLR A3002 RMK MADISHF
GLH,2017-04-01 11:20,-90.9856,33.4829,M,M,M,50.00,5.00,M,30.03,M,10.00,M,CLR,M,M,M,M,M,M,M,M,KGLH 011120Z AUTO 05005KT 10SM CLR A3003 RMK MADISHF
GLH,2017-04-01 11:25,-90.9856,33.4829,M,M,M,40.00,5.00,M,30.03,M,10.00,M,CLR,M,M,M,M,M,M,M,M,KGLH 011125Z AUTO 04005KT 10SM CLR A3003 RMK MADISHF
GLH,2017-04-01 11:30,-90.9856,33.4829,M,M,M,50.00,5.00,M,30.03,M,10.00,M,CLR,M,M,M,M,M,M,M,M,KGLH 011130Z AUTO 05005KT 10SM CLR A3003 RMK MADISHF
GLH,2017-04-01 11:35,-90.9856,33.4829,M,M,M,50.00,4.00,M,30.03,M,10.00,M,CLR,M,M,M,M,M,M,M,M,KGLH 011135Z AUTO 05004KT 10SM CLR A3003 RMK MADISHF
GLH,2017-04-01 11:40,-90.9856,33.4829,M,M,M,40.00,5.00,M,30.03,M,10.00,M,CLR,M,M,M,M,M,M,M,M,KGLH 011140Z AUTO 04005KT 10SM CLR A3003 RMK MADISHF
GLH,2017-04-01 11:45,-90.9856,33.4829,M,M,M,40.00,5.00,M,30.03,M,10.00,M,CLR,M,M,M,M,M,M,M,M,KGLH 011145Z AUTO 04005KT 10SM CLR A3003 RMK MADISHF
GLH,2017-04-01 11:50,-90.9856,33.4829,M,M,M,40.00,5.00,M,30.03,M,10.00,M,CLR,M,M,M,M,M,M,M,M,KGLH 011150Z AUTO 04005KT 10SM CLR A3003 RMK MADISHF
GLH,2017-04-01 11:53,-90.9856,33.4829,55.00,50.00,83.20,50.00,6.00,0.00,30.03,1017.60,10.00,M,CLR,M,M,M,M,M,M,M,M,KGLH 011153Z 05006KT 10SM CLR 13/10 A3003 RMK AO2 SLP176 T01280100 10161 20128 53019
GLH,2017-04-01 11:55,-90.9856,33.4829,M,M,M,40.00,5.00,M,30.04,M,10.00,M,CLR,M,M,M,M,M,M,M,M,KGLH 011155Z AUTO 04005KT 10SM CLR A3004 RMK MADISHF
GLH,2017-04-01 12:00,-90.9856,33.4829,M,M,M,50.00,5.00,M,30.04,M,10.00,M,CLR,M,M,M,M,M,M,M,M,KGLH 011200Z AUTO 05005KT 10SM CLR A3004 RMK MADISHF
GLH,2017-04-01 12:05,-90.9856,33.4829,M,M,M,50.00,4.00,M,30.04,M,10.00,M,CLR,M,M,M,M,M,M,M,M,KGLH 011205Z AUTO 05004KT 10SM CLR A3004 RMK MADISHF
GLH,2017-04-01 12:10,-90.9856,33.4829,M,M,M,50.00,5.00,M,30.04,M,10.00,M,CLR,M,M,M,M,M,M,M,M,KGLH 011210Z AUTO 05005KT 10SM CLR A3004 RMK MADISHF
GLH,2017-04-01 12:15,-90.9856,33.4829,M,M,M,50.00,6.00,M,30.05,M,10.00,M,CLR,M,M,M,M,M,M,M,M,KGLH 011215Z AUTO 05006KT 10SM CLR A3005 RMK MADISHF
GLH,2017-04-01 12:20,-90.9856,33.4829,M,M,M,40.00,5.00,M,30.05,M,10.00,M,CLR,M,M,M,M,M,M,M,M,KGLH 011220Z AUTO 04005KT 10SM CLR A3005 RMK MADISHF
GLH,2017-04-01 12:25,-90.9856,33.4829,M,M,M,50.00,5.00,M,30.05,M,10.00,M,CLR,M,M,M,M,M,M,M,M,KGLH 011225Z AUTO 05005KT 10SM CLR A3005 RMK MADISHF
GLH,2017-04-01 12:30,-90.9856,33.4829,M,M,M,50.00,5.00,M,30.05,M,10.00,M,CLR,M,M,M,M,M,M,M,M,KGLH 011230Z AUTO 05005KT 10SM CLR A3005 RMK MADISHF
GLH,2017-04-01 12:35,-90.9856,33.4829,M,M,M,40.00,6.00,M,30.06,M,10.00,M,CLR,M,M,M,M,M,M,M,M,KGLH 011235Z AUTO 04006KT 10SM CLR A3006 RMK MADISHF
GLH,2017-04-01 12:40,-90.9856,33.4829,M,M,M,50.00,6.00,M,30.06,M,10.00,M,CLR,M,M,M,M,M,M,M,M,KGLH 011240Z AUTO 05006KT 10SM CLR A3006 RMK MADISHF
GLH,2017-04-01 12:45,-90.9856,33.4829,M,M,M,50.00,7.00,M,30.06,M,10.00,M,CLR,M,M,M,M,M,M,M,M,KGLH 011245Z AUTO 05007KT 10SM CLR A3006 RMK MADISHF
GLH,2017-04-01 12:50,-90.9856,33.4829,M,M,M,60.00,9.00,M,30.06,M,10.00,M,CLR,M,M,M,M,M,M,M,M,KGLH 011250Z AUTO 06009KT 10SM CLR A3006 RMK MADISHF
GLH,2017-04-01 12:53,-90.9856,33.4829,57.00,50.00,77.38,60.00,8.00,0.00,30.06,1018.70,10.00,M,CLR,M,M,M,M,M,M,M,M,KGLH 011253Z 06008KT 10SM CLR 14/10 A3006 RMK AO2 SLP187 T01390100
GLH,2017-04-01 12:55,-90.9856,33.4829,M,M,M,50.00,8.00,M,30.06,M,10.00,M,CLR,M,M,M,M,M,M,M,M,KGLH 011255Z AUTO 05008KT 10SM CLR A3006 RMK MADISHF
GLH,2017-04-01 13:00,-90.9856,33.4829,M,M,M,60.00,8.00,M,30.06,M,10.00,M,CLR,M,M,M,M,M,M,M,M,KGLH 011300Z AUTO 06008KT 10SM CLR A3006 RMK MADISHF
GLH,2017-04-01 13:05,-90.9856,33.4829,M,M,M,50.00,8.00,M,30.06,M,10.00,M,CLR,M,M,M,M,M,M,M,M,KGLH 011305Z AUTO 05008KT 10SM CLR A3006 RMK MADISHF
GLH,2017-04-01 13:10,-90.9856,33.4829,M,M,M,60.00,9.00,M,30.06,M,10.00,M,CLR,M,M,M,M,M,M,M,M,KGLH 011310Z AUTO 06009KT 10SM CLR A3006 RMK MADISHF
GLH,2017-04-01 13:15,-90.9856,33.4829,M,M,M,70.00,9.00,M,30.07,M,10.00,M,CLR,M,M,M,M,M,M,M,M,KGLH 011315Z AUTO 07009KT 10SM CLR A3007 RMK MADISHF
GLH,2017-04-01 13:20,-90.9856,33.4829,M,M,M,60.00,9.00,M,30.06,M,10.00,M,CLR,M,M,M,M,M,M,M,M,KGLH 011320Z AUTO 06009KT 10SM CLR A3006 RMK MADISHF
GLH,2017-04-01 13:25,-90.9856,33.4829,M,M,M,60.00,9.00,M,30.07,M,10.00,M,CLR,M,M,M,M,M,M,M,M,KGLH 011325Z AUTO 06009KT 10SM CLR A3007 RMK MADISHF
GLH,2017-04-01 13:30,-90.9856,33.4829,M,M,M,60.00,10.00,M,30.07,M,10.00,M,CLR,M,M,M,M,M,M,M,M,KGLH 011330Z AUTO 06010KT 10SM CLR A3007 RMK MADISHF
GLH,2017-04-01 13:35,-90.9856,33.4829,M,M,M,70.00,8.00,M,30.07,M,10.00,M,CLR,M,M,M,M,M,M,M,M,KGLH 011335Z AUTO 07008KT 10SM CLR A3007 RMK MADISHF
GLH,2017-04-01 13:40,-90.9856,33.4829,M,M,M,70.00,10.00,M,30.07,M,10.00,M,CLR,M,M,M,M,M,M,M,M,KGLH 011340Z AUTO 07010KT 10SM CLR A3007 RMK MADISHF
GLH,2017-04-01 13:45,-90.9856,33.4829,M,M,M,80.00,11.00,M,30.07,M,10.00,M,CLR,M,M,M,M,M,M,M,M,KGLH 011345Z AUTO 08011KT 10SM CLR A3007 RMK MADISHF
GLH,2017-04-01 13:50,-90.9856,33.4829,M,M,M,70.00,8.00,M,30.07,M,10.00,M,CLR,M,M,M,M,M,M,M,M,KGLH 011350Z AUTO 07008KT 10SM CLR A3007 RMK MADISHF
GLH,2017-04-01 13:53,-90.9856,33.4829,61.00,51.10,69.86,80.00,11.00,0.00,30.07,1019.10,10.00,M,CLR,M,M,M,M,M,M,M,M,KGLH 011353Z 08011KT 10SM CLR 16/11 A3007 RMK AO2 SLP191 T01610106
GLH,2017-04-01 13:55,-90.9856,33.4829,M,M,M,80.00,10.00,M,30.08,M,10.00,M,CLR,M,M,M,M,M,M,M,M,KGLH 011355Z AUTO 08010KT 10SM CLR A3008 RMK MADISHF
GLH,2017-04-01 14:00,-90.9856,33.4829,M,M,M,80.00,10.00,M,30.07,M,10.00,M,CLR,M,M,M,M,M,M,M,M,KGLH 011400Z AUTO 08010KT 10SM CLR A3007 RMK MADISHF
GLH,2017-04-01 14:05,-90.9856,33.4829,M,M,M,80.00,10.00,M,30.08,M,10.00,M,CLR,M,M,M,M,M,M,M,M,KGLH 011405Z AUTO 08010KT 10SM CLR A3008 RMK MADISHF
GLH,2017-04-01 14:10,-90.9856,33.4829,M,M,M,80.00,12.00,M,30.08,M,10.00,M,CLR,M,M,M,M,M,M,M,M,KGLH 011410Z AUTO 08012KT 10SM CLR A3008 RMK MADISHF
GLH,2017-04-01 14:15,-90.9856,33.4829,M,M,M,80.00,11.00,M,30.08,M,10.00,M,CLR,M,M,M,M,M,M,M,M,KGLH 011415Z AUTO 08011KT 10SM CLR A3008 RMK MADISHF
GLH,2017-04-01 14:20,-90.9856,33.4829,M,M,M,80.00,10.00,M,30.08,M,10.00,M,CLR,M,M,M,M,M,M,M,M,KGLH 011420Z AUTO 08010KT 10SM CLR A3008 RMK MADISHF
GLH,2017-04-01 14:25,-90.9856,33.4829,M,M,M,70.00,11.00,M,30.08,M,10.00,M,CLR,M,M,M,M,M,M,M,M,KGLH 011425Z AUTO 07011KT 10SM CLR A3008 RMK MADISHF
GLH,2017-04-01 14:30,-90.9856,33.4829,M,M,M,80.00,10.00,M,30.08,M,10.00,M,CLR,M,M,M,M,M,M,M,M,KGLH 011430Z AUTO 08010KT 10SM CLR A3008 RMK MADISHF
GLH,2017-04-01 14:35,-90.9856,33.4829,M,M,M,70.00,8.00,M,30.08,M,10.00,M,CLR,M,M,M,M,M,M,M,M,KGLH 011435Z AUTO 07008KT 10SM CLR A3008 RMK MADISHF
GLH,2017-04-01 14:40,-90.9856,33.4829,M,M,M,90.00,9.00,M,30.08,M,10.00,M,CLR,M,M,M,M,M,M,M,M,KGLH 011440Z AUTO 09009KT 10SM CLR A3008 RMK MADISHF
GLH,2017-04-01 14:45,-90.9856,33.4829,M,M,M,80.00,9.00,M,30.08,M,10.00,M,CLR,M,M,M,M,M,M,M,M,KGLH 011445Z AUTO 08009KT 10SM CLR A3008 RMK MADISHF
GLH,2017-04-01 14:50,-90.9856,33.4829,M,M,M,70.00,11.00,M,30.08,M,10.00,M,CLR,M,M,M,M,M,M,M,M,KGLH 011450Z AUTO 07011KT 10SM CLR A3008 RMK MADISHF
GLH,2017-04-01 14:53,-90.9856,33.4829,64.90,51.10,60.90,80.00,12.00,0.00,30.08,1019.20,10.00,M,CLR,M,M,M,M,M,M,M,M,KGLH 011453Z 08012KT 10SM CLR 18/11 A3008 RMK AO2 SLP192 T01830106 51016
GLH,2017-04-01 14:55,-90.9856,33.4829,M,M,M,80.00,10.00,M,30.08,M,10.00,M,CLR,M,M,M,M,M,M,M,M,KGLH 011455Z AUTO 08010KT 10SM CLR A3008 RMK MADISHF
GLH,2017-04-01 15:00,-90.9856,33.4829,M,M,M,100.00,9.00,M,30.08,M,10.00,M,CLR,M,M,M,M,M,M,M,M,KGLH 011500Z AUTO 10009KT 10SM CLR A3008 RMK MADISHF
GLH,2017-04-01 15:05,-90.9856,33.4829,M,M,M,90.00,8.00,M,30.08,M,10.00,M,CLR,M,M,M,M,M,M,M,M,KGLH 011505Z AUTO 09008KT 10SM CLR A3008 RMK MADISHF
GLH,2017-04-01 15:10,-90.9856,33.4829,M,M,M,70.00,10.00,M,30.08,M,10.00,M,CLR,M,M,M,M,M,M,M,M,KGLH 011510Z AUTO 07010KT 10SM CLR A3008 RMK MADISHF
GLH,2017-04-01 15:15,-90.9856,33.4829,M,M,M,70.00,10.00,M,30.08,M,10.00,M,CLR,M,M,M,M,M,M,M,M,KGLH 011515Z AUTO 07010KT 10SM CLR A3008 RMK MADISHF
GLH,2017-04-01 15:20,-90.9856,33.4829,M,M,M,70.00,10.00,M,30.08,M,10.00,M,CLR,M,M,M,M,M,M,M,M,KGLH 011520Z AUTO 07010KT 10SM CLR A3008 RMK MADISHF
GLH,2017-04-01 15:25,-90.9856,33.4829,M,M,M,100.00,8.00,M,30.08,M,10.00,M,CLR,M,M,M,M,M,M,M,M,KGLH 011525Z AUTO 10008KT 10SM CLR A3008 RMK MADISHF
GLH,2017-04-01 15:30,-90.9856,33.4829,M,M,M,80.00,8.00,M,30.08,M,10.00,M,CLR,M,M,M,M,M,M,M,M,KGLH 011530Z AUTO 08008KT 10SM CLR A3008 RMK MADISHF
GLH,2017-04-01 15:35,-90.9856,33.4829,M,M,M,90.00,7.00,M,30.08,M,10.00,M,CLR,M,M,M,M,M,M,M,M,KGLH 011535Z AUTO 09007KT 10SM CLR A3008 RMK MADISHF
GLH,2017-04-01 15:40,-90.9856,33.4829,M,M,M,80.00,7.00,M,30.09,M,10.00,M,CLR,M,M,M,M,M,M,M,M,KGLH 011540Z AUTO 08007KT 10SM CLR A3009 RMK MADISHF
GLH,2017-04-01 15:45,-90.9856,33.4829,M,M,M,50.00,8.00,M,30.09,M,10.00,M,CLR,M,M,M,M,M,M,M,M,KGLH 011545Z AUTO 05008KT 10SM CLR A3009 RMK MADISHF
GLH,2017-04-01 15:50,-90.9856,33.4829,M,M,M,90.00,6.00,M,30.09,M,10.00,M,CLR,M,M,M,M,M,M,M,M,KGLH 011550Z AUTO 09006KT 10SM CLR A3009 RMK MADISHF
GLH,2017-04-01 15:53,-90.9856,33.4829,68.00,52.00,56.55,110.00,6.00,0.00,30.09,1019.50,10.00,M,CLR,M,M,M,M,M,M,M,M,KGLH 011553Z 11006KT 10SM CLR 20/11 A3009 RMK AO2 SLP195 T02000111
GLH,2017-04-01 15:55,-90.9856,33.4829,M,M,M,70.00,8.00,M,30.09,M,10.00,M,CLR,M,M,M,M,M,M,M,M,KGLH 011555Z AUTO 07008KT 10SM CLR A3009 RMK MADISHF
GLH,2017-04-01 16:00,-90.9856,33.4829,M,M,M,80.00,8.00,M,30.09,M,10.00,M,CLR,M,M,M,M,M,M,M,M,KGLH 011600Z AUTO 08008KT 10SM CLR A3009 RMK MADISHF
GLH,2017-04-01 16:05,-90.9856,33.4829,M,M,M,50.00,8.00,M,30.10,M,10.00,M,CLR,M,M,M,M,M,M,M,M,KGLH 011605Z AUTO 05008KT 10SM CLR A3010 RMK MADISHF
GLH,2017-04-01 16:10,-90.9856,33.4829,M,M,M,50.00,6.00,M,30.10,M,10.00,M,CLR,M,M,M,M,M,M,M,M,KGLH 011610Z AUTO 05006KT 10SM CLR A3010 RMK MADISHF
GLH,2017-04-01 16:15,-90.9856,33.4829,M,M,M,20.00,4.00,M,30.10,M,10.00,M,CLR,M,M,M,M,M,M,M,M,KGLH 011615Z AUTO 02004KT 10SM CLR A3010 RMK VRB04KT  MADISHF
GLH,2017-04-01 16:20,-90.9856,33.4829,M,M,M,70.00,4.00,M,30.10,M,10.00,M,CLR,M,M,M,M,M,M,M,M,KGLH 011620Z AUTO 07004KT 10SM CLR A3010 RMK MADISHF
GLH,2017-04-01 16:25,-90.9856,33.4829,M,M,M,60.00,6.00,M,30.10,M,10.00,M,CLR,M,M,M,M,M,M,M,M,KGLH 011625Z AUTO 06006KT 10SM CLR A3010 RMK MADISHF
GLH,2017-04-01 16:30,-90.9856,33.4829,M,M,M,70.00,6.00,M,30.10,M,10.00,M,CLR,M,M,M,M,M,M,M,M,KGLH 011630Z AUTO 07006KT 10SM CLR A3010 RMK VRB06KT  MADISHF
GLH,2017-04-01 16:35,-90.9856,33.4829,M,M,M,50.00,6.00,M,30.10,M,10.00,M,CLR,M,M,M,M,M,M,M,M,KGLH 011635Z AUTO 05006KT 10SM CLR A3010 RMK MADISHF
GLH,2017-04-01 16:40,-90.9856,33.4829,M,M,M,110.00,5.00,M,30.09,M,10.00,M,CLR,M,M,M,M,M,M,M,M,KGLH 011640Z AUTO 11005KT 10SM CLR A3009 RMK MADISHF
GLH,2017-04-01 16:45,-90.9856,33.4829,M,M,M,50.00,7.00,M,30.09,M,10.00,M,CLR,M,M,M,M,M,M,M,M,KGLH 011645Z AUTO 05007KT 10SM CLR A3009 RMK MADISHF
GLH,2017-04-01 16:50,-90.9856,33.4829,M,M,M,70.00,4.00,M,30.09,M,10.00,M,CLR,M,M,M,M,M,M,M,M,KGLH 011650Z AUTO 07004KT 10SM CLR A3009 RMK VRB04KT  MADISHF
GLH,2017-04-01 16:53,-90.9856,33.4829,72.00,52.00,49.33,90.00,7.00,0.00,30.09,1019.50,10.00,M,CLR,M,M,M,M,M,M,M,M,KGLH 011653Z 09007KT 050V130 10SM CLR 22/11 A3009 RMK AO2 SLP195 T02220111
GLH,2017-04-01 16:55,-90.9856,33.4829,M,M,M,130.00,6.00,M,30.09,M,10.00,M,CLR,M,M,M,M,M,M,M,M,KGLH 011655Z AUTO 13006KT 10SM CLR A3009 RMK MADISHF
GLH,2017-04-01 17:00,-90.9856,33.4829,M,M,M,60.00,3.00,M,30.09,M,10.00,M,CLR,M,M,M,M,M,M,M,M,KGLH 011700Z AUTO 06003KT 10SM CLR A3009 RMK VRB03KT  MADISHF
GLH,2017-04-01 17:05,-90.9856,33.4829,M,M,M,M,M,M,30.09,M,10.00,M,CLR,M,M,M,M,M,M,M,M,KGLH 011705Z AUTO /////KT 10SM CLR A3009 RMK MADISHF
GLH,2017-04-01 17:10,-90.9856,33.4829,M,M,M,80.00,4.00,M,30.09,M,10.00,M,CLR,M,M,M,M,M,M,M,M,KGLH 011710Z AUTO 08004KT 10SM CLR A3009 RMK VRB04KT  MADISHF
GLH,2017-04-01 17:15,-90.9856,33.4829,M,M,M,60.00,6.00,M,30.09,M,10.00,M,CLR,M,M,M,M,M,M,M,M,KGLH 011715Z AUTO 06006KT 10SM CLR A3009 RMK VRB06KT  MADISHF
GLH,2017-04-01 17:20,-90.9856,33.4829,M,M,M,60.00,5.00,M,30.09,M,10.00,M,CLR,M,M,M,M,M,M,M,M,KGLH 011720Z AUTO 06005KT 10SM CLR A3009 RMK VRB05KT  MADISHF
GLH,2017-04-01 17:25,-90.9856,33.4829,M,M,M,30.00,6.00,M,30.09,M,10.00,M,CLR,M,M,M,M,M,M,M,M,KGLH 011725Z AUTO 03006KT 10SM CLR A3009 RMK MADISHF
GLH,2017-04-01 17:30,-90.9856,33.4829,M,M,M,40.00,8.00,M,30.09,M,10.00,M,CLR,M,M,M,M,M,M,M,M,KGLH 011730Z AUTO 04008KT 10SM CLR A3009 RMK MADISHF
GLH,2017-04-01 17:35,-90.9856,33.4829,M,M,M,60.00,5.00,M,30.09,M,10.00,M,CLR,M,M,M,M,M,M,M,M,KGLH 011735Z AUTO 06005KT 10SM CLR A3009 RMK MADISHF
GLH,2017-04-01 17:40,-90.9856,33.4829,M,M,M,M,M,M,30.08,M,10.00,M,CLR,M,M,M,M,M,M,M,M,KGLH 011740Z AUTO /////KT 10SM CLR A3008 RMK MADISHF
GLH,2017-04-01 17:45,-90.9856,33.4829,M,M,M,30.00,7.00,M,30.08,M,10.00,M,CLR,M,M,M,M,M,M,M,M,KGLH 011745Z AUTO 03007KT 10SM CLR A3008 RMK MADISHF
GLH,2017-04-01 17:50,-90.9856,33.4829,M,M,M,70.00,4.00,M,30.08,M,10.00,M,CLR,M,M,M,M,M,M,M,M,KGLH 011750Z AUTO 07004KT 10SM CLR A3008 RMK VRB04KT  MADISHF
GLH,2017-04-01 17:53,-90.9856,33.4829,75.00,52.00,44.59,M,5.00,0.00,30.08,1019.10,10.00,M,CLR,M,M,M,M,M,M,M,M,KGLH 011753Z VRB05KT 10SM CLR 24/11 A3008 RMK AO2 SLP191 T02390111 10239 20128 58001
GLH,2017-04-01 17:55,-90.9856,33.4829,M,M,M,40.00,7.00,M,30.08,M,10.00,M,CLR,M,M,M,M,M,M,M,M,KGLH 011755Z AUTO 04007KT 10SM CLR A3008 RMK MADISHF
GLH,2017-04-01 18:00,-90.9856,33.4829,M,M,M,120.00,3.00,M,30.07,M,10.00,M,CLR,M,M,M,M,M,M,M,M,KGLH 011800Z AUTO 12003KT 10SM CLR A3007 RMK VRB03KT  MADISHF
GLH,2017-04-01 18:05,-90.9856,33.4829,M,M,M,30.00,3.00,M,30.07,M,10.00,M,CLR,M,M,M,M,M,M,M,M,KGLH 011805Z AUTO 03003KT 10SM CLR A3007 RMK VRB03KT  MADISHF
GLH,2017-04-01 18:10,-90.9856,33.4829,M,M,M,110.00,7.00,M,30.07,M,10.00,M,CLR,M,M,M,M,M,M,M,M,KGLH 011810Z AUTO 11007KT 10SM CLR A3007 RMK MADISHF
GLH,2017-04-01 18:15,-90.9856,33.4829,M,M,M,60.00,5.00,M,30.07,M,10.00,M,CLR,M,M,M,M,M,M,M,M,KGLH 011815Z AUTO 06005KT 10SM CLR A3007 RMK MADISHF
GLH,2017-04-01 18:20,-90.9856,33.4829,M,M,M,110.00,8.00,M,30.07,M,10.00,M,CLR,M,M,M,M,M,M,M,M,KGLH 011820Z AUTO 11008KT 10SM CLR A3007 RMK MADISHF
GLH,2017-04-01 18:25,-90.9856,33.4829,M,M,M,40.00,6.00,M,30.07,M,10.00,M,CLR,M,M,M,M,M,M,M,M,KGLH 011825Z AUTO 04006KT 10SM CLR A3007 RMK MADISHF
GLH,2017-04-01 18:30,-90.9856,33.4829,M,M,M,70.00,6.00,M,30.07,M,10.00,M,CLR,M,M,M,M,M,M,M,M,KGLH 011830Z AUTO 07006KT 10SM CLR A3007 RMK MADISHF
GLH,2017-04-01 18:35,-90.9856,33.4829,M,M,M,60.00,5.00,M,30.06,M,10.00,M,CLR,M,M,M,M,M,M,M,M,KGLH 011835Z AUTO 06005KT 10SM CLR A3006 RMK VRB05KT  MADISHF
GLH,2017-04-01 18:40,-90.9856,33.4829,M,M,M,120.00,4.00,M,30.06,M,10.00,M,CLR,M,M,M,M,M,M,M,M,KGLH 011840Z AUTO 12004KT 10SM CLR A3006 RMK VRB04KT  MADISHF
GLH,2017-04-01 18:45,-90.9856,33.4829,M,M,M,90.00,9.00,M,30.06,M,10.00,M,CLR,M,M,M,M,M,M,M,M,KGLH 011845Z AUTO 09009KT 10SM CLR A3006 RMK WND 03V12  MADISHF
GLH,2017-04-01 18:50,-90.9856,33.4829,M,M,M,110.00,7.00,M,30.06,M,10.00,M,CLR,M,M,M,M,M,M,M,M,KGLH 011850Z AUTO 11007KT 10SM CLR A3006 RMK MADISHF
GLH,2017-04-01 18:53,-90.9856,33.4829,78.10,51.10,38.92,80.00,8.00,0.00,30.06,1018.50,10.00,M,CLR,M,M,M,M,M,M,M,M,KGLH 011853Z 08008KT 10SM CLR 26/11 A3006 RMK AO2 SLP185 T02560106
GLH,2017-04-01 18:55,-90.9856,33.4829,M,M,M,70.00,10.00,M,30.06,M,10.00,M,CLR,M,M,M,M,M,M,M,M,KGLH 011855Z AUTO 07010KT 10SM CLR A3006 RMK MADISHF
GLH,2017-04-01 19:00,-90.9856,33.4829,M,M,M,50.00,7.00,M,30.06,M,10.00,M,CLR,M,M,M,M,M,M,M,M,KGLH 011900Z AUTO 05007KT 10SM CLR A3006 RMK MADISHF
GLH,2017-04-01 19:05,-90.9856,33.4829,M,M,M,100.00,4.00,M,30.05,M,10.00,M,CLR,M,M,M,M,M,M,M,M,KGLH 011905Z AUTO 10004KT 10SM CLR A3005 RMK MADISHF
GLH,2017-04-01 19:10,-90.9856,33.4829,M,M,M,40.00,7.00,M,30.05,M,10.00,M,CLR,M,M,M,M,M,M,M,M,KGLH 011910Z AUTO 04007KT 10SM CLR A3005 RMK MADISHF
GLH,2017-04-01 19:15,-90.9856,33.4829,M,M,M,30.00,5.00,M,30.05,M,10.00,M,CLR,M,M,M,M,M,M,M,M,KGLH 011915Z AUTO 03005KT 10SM CLR A3005 RMK MADISHF
GLH,2017-04-01 19:20,-90.9856,33.4829,M,M,M,100.00,8.00,M,30.05,M,10.00,M,CLR,M,M,M,M,M,M,M,M,KGLH 011920Z AUTO 10008KT 10SM CLR A3005 RMK MADISHF
GLH,2017-04-01 19:25,-90.9856,33.4829,M,M,M,20.00,8.00,M,30.05,M,10.00,M,CLR,M,M,M,M,M,M,M,M,KGLH 011925Z AUTO 02008KT 10SM CLR A3005 RMK MADISHF
GLH,2017-04-01 19:30,-90.9856,33.4829,M,M,M,70.00,10.00,M,30.05,M,10.00,15.00,CLR,M,M,M,M,M,M,M,M,KGLH 011930Z AUTO 07010G15KT 10SM CLR A3005 RMK MADISHF
GLH,2017-04-01 19:35,-90.9856,33.4829,M,M,M,60.00,8.00,M,30.04,M,10.00,M,CLR,M,M,M,M,M,M,M,M,KGLH 011935Z AUTO 06008KT 10SM CLR A3004 RMK MADISHF
GLH,2017-04-01 19:40,-90.9856,33.4829,M,M,M,30.00,9.00,M,30.04,M,10.00,M,CLR,M,M,M,M,M,M,M,M,KGLH 011940Z AUTO 03009KT 10SM CLR A3004 RMK MADISHF
GLH,2017-04-01 19:45,-90.9856,33.4829,M,M,M,40.00,7.00,M,30.04,M,10.00,M,CLR,M,M,M,M,M,M,M,M,KGLH 011945Z AUTO 04007KT 10SM CLR A3004 RMK MADISHF
GLH,2017-04-01 19:50,-90.9856,33.4829,M,M,M,90.00,6.00,M,30.04,M,10.00,M,CLR,M,M,M,M,M,M,M,M,KGLH 011950Z AUTO 09006KT 10SM CLR A3004 RMK VRB06KT  MADISHF
GLH,2017-04-01 19:53,-90.9856,33.4829,78.10,52.00,40.23,M,4.00,0.00,30.04,1017.80,10.00,M,CLR,M,M,M,M,M,M,M,M,KGLH 011953Z VRB04KT 10SM CLR 26/11 A3004 RMK AO2 SLP178 T02560111
GLH,2017-04-01 19:55,-90.9856,33.4829,M,M,M,M,M,M,30.04,M,10.00,M,CLR,M,M,M,M,M,M,M,M,KGLH 011955Z AUTO /////KT 10SM CLR A3004 RMK MADISHF
GLH,2017-04-01 20:00,-90.9856,33.4829,M,M,M,90.00,6.00,M,30.04,M,10.00,M,CLR,M,M,M,M,M,M,M,M,KGLH 012000Z AUTO 09006KT 10SM CLR A3004 RMK MADISHF
GLH,2017-04-01 20:05,-90.9856,33.4829,M,M,M,40.00,9.00,M,30.03,M,10.00,M,CLR,M,M,M,M,M,M,M,M,KGLH 012005Z AUTO 04009KT 10SM CLR A3003 RMK MADISHF
GLH,2017-04-01 20:10,-90.9856,33.4829,M,M,M,20.00,6.00,M,30.03,M,10.00,M,CLR,M,M,M,M,M,M,M,M,KGLH 012010Z AUTO 02006KT 10SM CLR A3003 RMK VRB06KT  MADISHF
GLH,2017-04-01 20:15,-90.9856,33.4829,M,M,M,40.00,9.00,M,30.03,M,10.00,M,CLR,M,M,M,M,M,M,M,M,KGLH 012015Z AUTO 04009KT 10SM CLR A3003 RMK MADISHF
GLH,2017-04-01 20:20,-90.9856,33.4829,M,M,M,50.00,9.00,M,30.03,M,10.00,M,CLR,M,M,M,M,M,M,M,M,KGLH 012020Z AUTO 05009KT 10SM CLR A3003 RMK MADISHF
GLH,2017-04-01 20:25,-90.9856,33.4829,M,M,M,60.00,7.00,M,30.03,M,10.00,M,CLR,M,M,M,M,M,M,M,M,KGLH 012025Z AUTO 06007KT 10SM CLR A3003 RMK MADISHF
GLH,2017-04-01 20:30,-90.9856,33.4829,M,M,M,70.00,3.00,M,30.03,M,10.00,M,CLR,M,M,M,M,M,M,M,M,KGLH 012030Z AUTO 07003KT 10SM CLR A3003 RMK VRB03KT  MADISHF
GLH,2017-04-01 20:35,-90.9856,33.4829,M,M,M,M,M,M,30.02,M,10.00,M,CLR,M,M,M,M,M,M,M,M,KGLH 012035Z AUTO /////KT 10SM CLR A3002 RMK MADISHF
GLH,2017-04-01 20:40,-90.9856,33.4829,M,M,M,50.00,7.00,M,30.03,M,10.00,M,CLR,M,M,M,M,M,M,M,M,KGLH 012040Z AUTO 05007KT 10SM CLR A3003 RMK MADISHF
GLH,2017-04-01 20:45,-90.9856,33.4829,M,M,M,50.00,5.00,M,30.02,M,10.00,M,CLR,M,M,M,M,M,M,M,M,KGLH 012045Z AUTO 05005KT 10SM CLR A3002 RMK MADISHF
GLH,2017-04-01 20:50,-90.9856,33.4829,M,M,M,M,M,M,30.02,M,10.00,M,CLR,M,M,M,M,M,M,M,M,KGLH 012050Z AUTO /////KT 10SM CLR A3002 RMK MADISHF
GLH,2017-04-01 20:53,-90.9856,33.4829,80.10,53.10,39.23,80.00,7.00,0.00,30.02,1017.30,10.00,M,CLR,M,M,M,M,M,M,M,M,KGLH 012053Z 08007KT 10SM CLR 27/12 A3002 RMK AO2 SLP173 T02670117 56018
GLH,2017-04-01 20:55,-90.9856,33.4829,M,M,M,90.00,9.00,M,30.02,M,10.00,M,CLR,M,M,M,M,M,M,M,M,KGLH 012055Z AUTO 09009KT 10SM CLR A3002 RMK MADISHF
GLH,2017-04-01 21:00,-90.9856,33.4829,M,M,M,80.00,8.00,M,30.02,M,10.00,M,CLR,M,M,M,M,M,M,M,M,KGLH 012100Z AUTO 08008KT 10SM CLR A3002 RMK MADISHF
GLH,2017-04-01 21:05,-90.9856,33.4829,M,M,M,70.00,7.00,M,30.02,M,10.00,M,CLR,M,M,M,M,M,M,M,M,KGLH 012105Z AUTO 07007KT 10SM CLR A3002 RMK MADISHF
GLH,2017-04-01 21:10,-90.9856,33.4829,M,M,M,90.00,9.00,M,30.02,M,10.00,M,CLR,M,M,M,M,M,M,M,M,KGLH 012110Z AUTO 09009KT 10SM CLR A3002 RMK MADISHF
GLH,2017-04-01 21:15,-90.9856,33.4829,M,M,M,50.00,6.00,M,30.02,M,10.00,M,CLR,M,M,M,M,M,M,M,M,KGLH 012115Z AUTO 05006KT 10SM CLR A3002 RMK MADISHF
GLH,2017-04-01 21:20,-90.9856,33.4829,M,M,M,40.00,10.00,M,30.01,M,10.00,M,CLR,M,M,M,M,M,M,M,M,KGLH 012120Z AUTO 04010KT 10SM CLR A3001 RMK MADISHF
GLH,2017-04-01 21:25,-90.9856,33.4829,M,M,M,60.00,11.00,M,30.01,M,10.00,M,CLR,M,M,M,M,M,M,M,M,KGLH 012125Z AUTO 06011KT 10SM CLR A3001 RMK MADISHF
GLH,2017-04-01 21:30,-90.9856,33.4829,M,M,M,50.00,6.00,M,30.01,M,10.00,M,CLR,M,M,M,M,M,M,M,M,KGLH 012130Z AUTO 05006KT 10SM CLR A3001 RMK MADISHF
GLH,2017-04-01 21:35,-90.9856,33.4829,M,M,M,90.00,6.00,M,30.01,M,10.00,M,CLR,M,M,M,M,M,M,M,M,KGLH 012135Z AUTO 09006KT 10SM CLR A3001 RMK MADISHF
GLH,2017-04-01 21:40,-90.9856,33.4829,M,M,M,90.00,6.00,M,30.01,M,10.00,M,CLR,M,M,M,M,M,M,M,M,KGLH 012140Z AUTO 09006KT 10SM CLR A3001 RMK MADISHF
GLH,2017-04-01 21:45,-90.9856,33.4829,M,M,M,50.00,8.00,M,30.01,M,10.00,M,CLR,M,M,M,M,M,M,M,M,KGLH 012145Z AUTO 05008KT 10SM CLR A3001 RMK MADISHF
GLH,2017-04-01 21:50,-90.9856,33.4829,M,M,M,70.00,8.00,M,30.01,M,10.00,M,CLR,M,M,M,M,M,M,M,M,KGLH 012150Z AUTO 07008KT 10SM CLR A3001 RMK MADISHF
GLH,2017-04-01 21:53,-90.9856,33.4829,80.10,52.00,37.67,70.00,10.00,0.00,30.01,1016.80,10.00,M,CLR,M,M,M,M,M,M,M,M,KGLH 012153Z 07010KT 10SM CLR 27/11 A3001 RMK AO2 SLP168 T02670111
GLH,2017-04-01 21:55,-90.9856,33.4829,M,M,M,70.00,10.00,M,30.01,M,10.00,M,CLR,M,M,M,M,M,M,M,M,KGLH 012155Z AUTO 07010KT 10SM CLR A3001 RMK MADISHF
GLH,2017-04-01 22:00,-90.9856,33.4829,M,M,M,60.00,6.00,M,30.01,M,10.00,M,CLR,M,M,M,M,M,M,M,M,KGLH 012200Z AUTO 06006KT 10SM CLR A3001 RMK MADISHF
GLH,2017-04-01 22:05,-90.9856,33.4829,M,M,M,80.00,9.00,M,30.01,M,10.00,M,CLR,M,M,M,M,M,M,M,M,KGLH 012205Z AUTO 08009KT 10SM CLR A3001 RMK MADISHF
GLH,2017-04-01 22:10,-90.9856,33.4829,M,M,M,70.00,8.00,M,30.01,M,10.00,M,CLR,M,M,M,M,M,M,M,M,KGLH 012210Z AUTO 07008KT 10SM CLR A3001 RMK MADISHF
GLH,2017-04-01 22:15,-90.9856,33.4829,M,M,M,50.00,7.00,M,30.01,M,10.00,M,CLR,M,M,M,M,M,M,M,M,KGLH 012215Z AUTO 05007KT 10SM CLR A3001 RMK MADISHF
GLH,2017-04-01 22:20,-90.9856,33.4829,M,M,M,70.00,8.00,M,30.01,M,10.00,M,CLR,M,M,M,M,M,M,M,M,KGLH 012220Z AUTO 07008KT 10SM CLR A3001 RMK MADISHF
GLH,2017-04-01 22:25,-90.9856,33.4829,M,M,M,60.00,11.00,M,30.01,M,10.00,M,CLR,M,M,M,M,M,M,M,M,KGLH 012225Z AUTO 06011KT 10SM CLR A3001 RMK MADISHF
GLH,2017-04-01 22:30,-90.9856,33.4829,M,M,M,80.00,10.00,M,30.01,M,10.00,M,CLR,M,M,M,M,M,M,M,M,KGLH 012230Z AUTO 08010KT 10SM CLR A3001 RMK MADISHF
GLH,2017-04-01 22:35,-90.9856,33.4829,M,M,M,80.00,10.00,M,30.01,M,10.00,M,CLR,M,M,M,M,M,M,M,M,KGLH 012235Z AUTO 08010KT 10SM CLR A3001 RMK MADISHF
GLH,2017-04-01 22:40,-90.9856,33.4829,M,M,M,70.00,11.00,M,30.01,M,10.00,M,CLR,M,M,M,M,M,M,M,M,KGLH 012240Z AUTO 07011KT 10SM CLR A3001 RMK MADISHF
GLH,2017-04-01 22:45,-90.9856,33.4829,M,M,M,80.00,7.00,M,30.00,M,10.00,M,CLR,M,M,M,M,M,M,M,M,KGLH 012245Z AUTO 08007KT 10SM CLR A3000 RMK MADISHF
GLH,2017-04-01 22:50,-90.9856,33.4829,M,M,M,90.00,10.00,M,30.01,M,10.00,M,CLR,M,M,M,M,M,M,M,M,KGLH 012250Z AUTO 09010KT 10SM CLR A3001 RMK MADISHF
GLH,2017-04-01 22:53,-90.9856,33.4829,80.10,52.00,37.67,90.00,10.00,0.00,30.01,1016.60,10.00,M,CLR,M,M,M,M,M,M,M,M,KGLH 012253Z 09010KT 10SM CLR 27/11 A3001 RMK AO2 SLP166 T02670111
GLH,2017-04-01 22:55,-90.9856,33.4829,M,M,M,80.00,9.00,M,30.01,M,10.00,M,CLR,M,M,M,M,M,M,M,M,KGLH 012255Z AUTO 08009KT 10SM CLR A3001 RMK MADISHF
GLH,2017-04-01 23:00,-90.9856,33.4829,M,M,M,60.00,11.00,M,30.01,M,10.00,M,CLR,M,M,M,M,M,M,M,M,KGLH 012300Z AUTO 06011KT 10SM CLR A3001 RMK MADISHF
GLH,2017-04-01 23:05,-90.9856,33.4829,M,M,M,60.00,8.00,M,30.00,M,10.00,M,CLR,M,M,M,M,M,M,M,M,KGLH 012305Z AUTO 06008KT 10SM CLR A3000 RMK MADISHF
GLH,2017-04-01 23:10,-90.9856,33.4829,M,M,M,70.00,9.00,M,30.00,M,10.00,M,CLR,M,M,M,M,M,M,M,M,KGLH 012310Z AUTO 07009KT 10SM CLR A3000 RMK MADISHF
GLH,2017-04-01 23:15,-90.9856,33.4829,M,M,M,80.00,8.00,M,30.00,M,10.00,M,CLR,M,M,M,M,M,M,M,M,KGLH 012315Z AUTO 08008KT 10SM CLR A3000 RMK MADISHF
GLH,2017-04-01 23:20,-90.9856,33.4829,M,M,M,60.00,8.00,M,30.00,M,10.00,M,CLR,M,M,M,M,M,M,M,M,KGLH 012320Z AUTO 06008KT 10SM CLR A3000 RMK MADISHF
GLH,2017-04-01 23:25,-90.9856,33.4829,M,M,M,60.00,10.00,M,30.00,M,10.00,M,CLR,M,M,M,M,M,M,M,M,KGLH 012325Z AUTO 06010KT 10SM CLR A3000 RMK MADISHF
GLH,2017-04-01 23:30,-90.9856,33.4829,M,M,M,80.00,11.00,M,30.00,M,10.00,M,CLR,M,M,M,M,M,M,M,M,KGLH 012330Z AUTO 08011KT 10SM CLR A3000 RMK MADISHF
GLH,2017-04-01 23:35,-90.9856,33.4829,M,M,M,60.00,8.00,M,30.00,M,10.00,M,CLR,M,M,M,M,M,M,M,M,KGLH 012335Z AUTO 06008KT 10SM CLR A3000 RMK MADISHF
GLH,2017-04-01 23:40,-90.9856,33.4829,M,M,M,70.00,9.00,M,30.00,M,10.00,M,CLR,M,M,M,M,M,M,M,M,KGLH 012340Z AUTO 07009KT 10SM CLR A3000 RMK MADISHF
GLH,2017-04-01 23:45,-90.9856,33.4829,M,M,M,70.00,9.00,M,29.99,M,10.00,M,CLR,M,M,M,M,M,M,M,M,KGLH 012345Z AUTO 07009KT 10SM CLR A2999 RMK MADISHF
GLH,2017-04-01 23:50,-90.9856,33.4829,M,M,M,60.00,9.00,M,29.99,M,10.00,M,CLR,M,M,M,M,M,M,M,M,KGLH 012350Z AUTO 06009KT 10SM CLR A2999 RMK MADISHF
GLH,2017-04-01 23:53,-90.9856,33.4829,77.00,52.00,41.72,70.00,10.00,0.00,29.99,1016.30,10.00,M,CLR,M,M,M,M,M,M,M,M,KGLH 012353Z 07010KT 10SM CLR 25/11 A2999 RMK AO2 SLP163 T02500111 10272 20239 56010
GLH,2017-04-01 23:55,-90.9856,33.4829,M,M,M,50.00,11.00,M,30.00,M,10.00,M,CLR,M,M,M,M,M,M,M,M,KGLH 012355Z AUTO 05011KT 10SM CLR A3000 RMK MADISHF
