#DEBUG: Format Typ    -> comma
#DEBUG: Time Period   -> 2017-04-01 00:00:00+00:00 2017-04-02 00:00:00+00:00
#DEBUG: Time Zone     -> Etc/UTC
#DEBUG: Data Contact   -> daryl herzmann akrherz@iastate.edu 515-294-5978
#DEBUG: Entries Found -> -1
station,valid,lon,lat,tmpf, dwpf, relh, drct, sknt, p01i, alti, mslp, vsby, gust, skyc1, skyc2, skyc3, skyc4, skyl1, skyl2, skyl3, skyl4, presentwx, metar
GRB,2017-04-01 00:00,-88.1367,44.4794,M,M,M,40.00,6.00,M,29.98,M,10.00,M,CLR,M,M,M,M,M,M,M,M,KGRB 010000Z AUTO 04006KT 10SM CLR A2998 RMK MADISHF
GRB,2017-04-01 00:05,-88.1367,44.4794,M,M,M,40.00,11.00,M,29.98,M,10.00,M,CLR,M,M,M,M,M,M,M,M,KGRB 010005Z AUTO 04011KT 10SM CLR A2998 RMK MADISHF
GRB,2017-04-01 00:10,-88.1367,44.4794,M,M,M,50.00,9.00,M,29.98,M,10.00,M,CLR,M,M,M,M,M,M,M,M,KGRB 010010Z AUTO 05009KT 10SM CLR A2998 RMK MADISHF
GRB,2017-04-01 00:15,-88.1367,44.4794,M,M,M,40.00,8.00,M,29.98,M,10.00,M,CLR,M,M,M,M,M,M,M,M,KGRB 010015Z AUTO 04008KT 10SM CLR A2998 RMK MADISHF
GRB,2017-04-01 00:20,-88.1367,44.4794,M,M,M,40.00,8.00,M,29.98,M,10.00,M,CLR,M,M,M,M,M,M,M,M,KGRB 010020Z AUTO 04008KT 10SM CLR A2998 RMK MADISHF
GRB,2017-04-01 00:25,-88.1367,44.4794,M,M,M,40.00,8.00,M,29.99,M,10.00,M,CLR,M,M,M,M,M,M,M,M,KGRB 010025Z AUTO 04008KT 10SM CLR A2999 RMK MADISHF
GRB,2017-04-01 00:30,-88.1367,44.4794,M,M,M,40.00,8.00,M,29.99,M,10.00,M,CLR,M,M,M,M,M,M,M,M,KGRB 010030Z AUTO 04008KT 10SM CLR A2999 RMK MADISHF
GRB,2017-04-01 00:35,-88.1367,44.4794,M,M,M,40.00,8.00,M,29.99,M,10.00,M,CLR,M,M,M,M,M,M,M,M,KGRB 010035Z AUTO 04008KT 10SM CLR A2999 RMK MADISHF
GRB,2017-04-01 00:40,-88.1367,44.4794,M,M,M,40.00,8.00,M,29.99,M,10.00,M,CLR,M,M,M,M,M,M,M,M,KGRB 010040Z AUTO 04008KT 10SM CLR A2999 RMK MADISHF
GRB,2017-04-01 00:45,-88.1367,44.4794,M,M,M,40.00,8.00,M,30.00,M,10.00,M,CLR,M,M,M,M,M,M,M,M,KGRB 010045Z AUTO 04008KT 10SM CLR A3000 RMK MADISHF
GRB,2017-04-01 00:50,-88.1367,44.4794,M,M,M,30.00,9.00,M,30.00,M,10.00,M,CLR,M,M,M,M,M,M,M,M,KGRB 010050Z AUTO 03009KT 10SM CLR A3000 RMK MADISHF
GRB,2017-04-01 00:53,-88.1367,44.4794,42.10,26.10,52.78,30.00,9.00,0.00,30.00,1016.60,10.00,M,CLR,M,M,M,M,M,M,M,M,KGRB 010053Z 03009KT 10SM CLR 06/M03 A3000 RMK AO2 SLP166 T00561033
GRB,2017-04-01 00:55,-88.1367,44.4794,M,M,M,30.00,9.00,M,30.00,M,10.00,M,CLR,M,M,M,M,M,M,M,M,KGRB 010055Z AUTO 03009KT 10SM CLR A3000 RMK MADISHF
GRB,2017-04-01 01:00,-88.1367,44.4794,M,M,M,40.00,9.00,M,30.00,M,10.00,M,CLR,M,M,M,M,M,M,M,M,KGRB 010100Z AUTO 04009KT 10SM CLR A3000 RMK MADISHF
GRB,2017-04-01 01:05,-88.1367,44.4794,M,M,M,40.00,9.00,M,30.00,M,10.00,M,CLR,M,M,M,M,M,M,M,M,KGRB 010105Z AUTO 04009KT 10SM CLR A3000 RMK MADISHF
GRB,2017-04-01 01:10,-88.1367,44.4794,M,M,M,40.00,10.00,M,30.01,M,10.00,M,CLR,M,M,M,M,M,M,M,M,KGRB 010110Z AUTO 04010KT 10SM CLR A3001 RMK MADISHF
GRB,2017-04-01 01:15,-88.1367,44.4794,M,M,M,40.00,8.00,M,30.01,M,10.00,M,CLR,M,M,M,M,M,M,M,M,KGRB 010115Z AUTO 04008KT 10SM CLR A3001 RMK MADISHF
GRB,2017-04-01 01:20,-88.1367,44.4794,M,M,M,40.00,8.00,M,30.01,M,10.00,M,CLR,M,M,M,M,M,M,M,M,KGRB 010120Z AUTO 04008KT 10SM CLR A3001 RMK MADISHF
GRB,2017-04-01 01:25,-88.1367,44.4794,M,M,M,40.00,9.00,M,30.01,M,10.00,M,CLR,M,M,M,M,M,M,M,M,KGRB 010125Z AUTO 04009KT 10SM CLR A3001 RMK MADISHF
GRB,2017-04-01 01:30,-88.1367,44.4794,M,M,M,40.00,8.00,M,30.01,M,10.00,M,CLR,M,M,M,M,M,M,M,M,KGRB 010130Z AUTO 04008KT 10SM CLR A3001 RMK MADISHF
GRB,2017-04-01 01:35,-88.1367,44.4794,M,M,M,40.00,8.00,M,30.02,M,10.00,M,CLR,M,M,M,M,M,M,M,M,KGRB 010135Z AUTO 04008KT 10SM CLR A3002 RMK MADISHF
GRB,2017-04-01 01:40,-88.1367,44.4794,M,M,M,30.00,7.00,M,30.02,M,10.00,M,CLR,M,M,M,M,M,M,M,M,KGRB 010140Z AUTO 03007KT 10SM CLR A3002 RMK MADISHF
GRB,2017-04-01 01:45,-88.1367,44.4794,M,M,M,30.00,7.00,M,30.03,M,10.00,M,CLR,M,M,M,M,M,M,M,M,KGRB 010145Z AUTO 03007KT 10SM CLR A3003 RMK MADISHF
GRB,2017-04-01 01:50,-88.1367,44.4794,M,M,M,30.00,8.00,M,30.03,M,10.00,M,CLR,M,M,M,M,M,M,M,M,KGRB 010150Z AUTO 03008KT 10SM CLR A3003 RMK MADISHF
GRB,2017-04-01 01:53,-88.1367,44.4794,39.90,26.10,57.47,40.00,7.00,0.00,30.03,1017.60,10.00,M,CLR,M,M,M,M,M,M,M,M,KGRB 010153Z 04007KT 10SM CLR 04/M03 A3003 RMK AO2 SLP176 T00441033
GRB,2017-04-01 01:55,-88.1367,44.4794,M,M,M,40.00,7.00,M,30.03,M,10.00,M,CLR,M,M,M,M,M,M,M,M,KGRB 010155Z AUTO 04007KT 10SM CLR A3003 RMK MADISHF
GRB,2017-04-01 02:00,-88.1367,44.4794,M,M,M,40.00,7.00,M,30.03,M,10.00,M,CLR,M,M,M,M,M,M,M,M,KGRB 010200Z AUTO 04007KT 10SM CLR A3003 RMK MADISHF
GRB,2017-04-01 02:05,-88.1367,44.4794,M,M,M,30.00,6.00,M,30.04,M,10.00,M,CLR,M,M,M,M,M,M,M,M,KGRB 010205Z AUTO 03006KT 10SM CLR A3004 RMK MADISHF
GRB,2017-04-01 02:10,-88.1367,44.4794,M,M,M,40.00,6.00,M,30.04,M,10.00,M,CLR,M,M,M,M,M,M,M,M,KGRB 010210Z AUTO 04006KT 10SM CLR A3004 RMK MADISHF
GRB,2017-04-01 02:15,-88.1367,44.4794,M,M,M,40.00,6.00,M,30.04,M,10.00,M,CLR,M,M,M,M,M,M,M,M,KGRB 010215Z AUTO 04006KT 10SM CLR A3004 RMK MADISHF
GRB,2017-04-01 02:20,-88.1367,44.4794,M,M,M,40.00,7.00,M,30.04,M,10.00,M,CLR,M,M,M,M,M,M,M,M,KGRB 010220Z AUTO 04007KT 10SM CLR A3004 RMK MADISHF
GRB,2017-04-01 02:25,-88.1367,44.4794,M,M,M,40.00,7.00,M,30.04,M,10.00,M,CLR,M,M,M,M,M,M,M,M,KGRB 010225Z AUTO 04007KT 10SM CLR A3004 RMK MADISHF
GRB,2017-04-01 02:30,-88.1367,44.4794,M,M,M,40.00,6.00,M,30.04,M,10.00,M,CLR,M,M,M,M,M,M,M,M,KGRB 010230Z AUTO 04006KT 10SM CLR A3004 RMK MADISHF
GRB,2017-04-01 02:35,-88.1367,44.4794,M,M,M,30.00,5.00,M,30.04,M,10.00,M,CLR,M,M,M,M,M,M,M,M,KGRB 010235Z AUTO 03005KT 10SM CLR A3004 RMK MADISHF
GRB,2017-04-01 02:40,-88.1367,44.4794,M,M,M,40.00,4.00,M,30.04,M,10.00,M,CLR,M,M,M,M,M,M,M,M,KGRB 010240Z AUTO 04004KT 10SM CLR A3004 RMK MADISHF
GRB,2017-04-01 02:45,-88.1367,44.4794,M,M,M,0.00,0.00,M,30.04,M,10.00,M,CLR,M,M,M,M,M,M,M,M,KGRB 010245Z AUTO 00000KT 10SM CLR A3004 RMK MADISHF
GRB,2017-04-01 02:50,-88.1367,44.4794,M,M,M,60.00,3.00,M,30.04,M,10.00,M,CLR,M,M,M,M,M,M,M,M,KGRB 010250Z AUTO 06003KT 10SM CLR A3004 RMK MADISHF
GRB,2017-04-01 02:53,-88.1367,44.4794,37.90,25.00,59.36,0.00,0.00,0.00,30.04,1017.80,10.00,M,CLR,M,M,M,M,M,M,M,M,KGRB 010253Z 00000KT 10SM CLR 03/M04 A3004 RMK AO2 SLP178 T00331039 51020
GRB,2017-04-01 02:55,-88.1367,44.4794,M,M,M,0.00,0.00,M,30.04,M,10.00,M,CLR,M,M,M,M,M,M,M,M,KGRB 010255Z AUTO 00000KT 10SM CLR A3004 RMK MADISHF
GRB,2017-04-01 03:00,-88.1367,44.4794,M,M,M,0.00,0.00,M,30.04,M,10.00,M,CLR,M,M,M,M,M,M,M,M,KGRB 010300Z AUTO 00000KT 10SM CLR A3004 RMK MADISHF
GRB,2017-04-01 03:05,-88.1367,44.4794,M,M,M,360.00,3.00,M,30.04,M,10.00,M,CLR,M,M,M,M,M,M,M,M,KGRB 010305Z AUTO 36003KT 10SM CLR A3004 RMK MADISHF
GRB,2017-04-01 03:10,-88.1367,44.4794,M,M,M,350.00,3.00,M,30.05,M,10.00,M,CLR,M,M,M,M,M,M,M,M,KGRB 010310Z AUTO 35003KT 10SM CLR A3005 RMK MADISHF
GRB,2017-04-01 03:15,-88.1367,44.4794,M,M,M,360.00,4.00,M,30.05,M,10.00,M,CLR,M,M,M,M,M,M,M,M,KGRB 010315Z AUTO 36004KT 10SM CLR A3005 RMK MADISHF
GRB,2017-04-01 03:20,-88.1367,44.4794,M,M,M,360.00,4.00,M,30.05,M,10.00,M,CLR,M,M,M,M,M,M,M,M,KGRB 010320Z AUTO 36004KT 10SM CLR A3005 RMK MADISHF
GRB,2017-04-01 03:25,-88.1367,44.4794,M,M,M,350.00,4.00,M,30.05,M,10.00,M,CLR,M,M,M,M,M,M,M,M,KGRB 010325Z AUTO 35004KT 10SM CLR A3005 RMK MADISHF
GRB,2017-04-01 03:30,-88.1367,44.4794,M,M,M,350.00,4.00,M,30.05,M,10.00,M,CLR,M,M,M,M,M,M,M,M,KGRB 010330Z AUTO 35004KT 10SM CLR A3005 RMK MADISHF
GRB,2017-04-01 03:35,-88.1367,44.4794,M,M,M,350.00,4.00,M,30.05,M,10.00,M,CLR,M,M,M,M,M,M,M,M,KGRB 010335Z AUTO 35004KT 10SM CLR A3005 RMK MADISHF
GRB,2017-04-01 03:40,-88.1367,44.4794,M,M,M,340.00,4.00,M,30.05,M,10.00,M,CLR,M,M,M,M,M,M,M,M,KGRB 010340Z AUTO 34004KT 10SM CLR A3005 RMK MADISHF
GRB,2017-04-01 03:45,-88.1367,44.4794,M,M,M,340.00,3.00,M,30.05,M,10.00,M,CLR,M,M,M,M,M,M,M,M,KGRB 010345Z AUTO 34003KT 10SM CLR A3005 RMK MADISHF
GRB,2017-04-01 03:50,-88.1367,44.4794,M,M,M,0.00,0.00,M,30.05,M,10.00,M,CLR,M,M,M,M,M,M,M,M,KGRB 010350Z AUTO 00000KT 10SM CLR A3005 RMK MADISHF
GRB,2017-04-01 03:53,-88.1367,44.4794,37.00,27.00,66.82,0.00,0.00,0.00,30.05,1018.30,10.00,M,CLR,M,M,M,M,M,M,M,M,KGRB 010353Z 00000KT 10SM CLR 03/M03 A3005 RMK AO2 SLP183 T00281028
GRB,2017-04-01 03:55,-88.1367,44.4794,M,M,M,0.00,0.00,M,30.05,M,10.00,M,CLR,M,M,M,M,M,M,M,M,KGRB 010355Z AUTO 00000KT 10SM CLR A3005 RMK MADISHF
GRB,2017-04-01 04:00,-88.1367,44.4794,M,M,M,0.00,0.00,M,30.05,M,10.00,M,CLR,M,M,M,M,M,M,M,M,KGRB 010400Z AUTO 00000KT 10SM CLR A3005 RMK MADISHF
GRB,2017-04-01 04:05,-88.1367,44.4794,M,M,M,0.00,0.00,M,30.05,M,10.00,M,CLR,M,M,M,M,M,M,M,M,KGRB 010405Z AUTO 00000KT 10SM CLR A3005 RMK MADISHF
GRB,2017-04-01 04:10,-88.1367,44.4794,M,M,M,330.00,3.00,M,30.05,M,10.00,M,CLR,M,M,M,M,M,M,M,M,KGRB 010410Z AUTO 33003KT 10SM CLR A3005 RMK MADISHF
GRB,2017-04-01 04:15,-88.1367,44.4794,M,M,M,350.00,3.00,M,30.06,M,10.00,M,CLR,M,M,M,M,M,M,M,M,KGRB 010415Z AUTO 35003KT 10SM CLR A3006 RMK MADISHF
GRB,2017-04-01 04:20,-88.1367,44.4794,M,M,M,340.00,3.00,M,30.06,M,10.00,M,CLR,M,M,M,M,M,M,M,M,KGRB 010420Z AUTO 34003KT 10SM CLR A3006 RMK MADISHF
GRB,2017-04-01 04:25,-88.1367,44.4794,M,M,M,330.00,4.00,M,30.06,M,10.00,M,CLR,M,M,M,M,M,M,M,M,KGRB 010425Z AUTO 33004KT 10SM CLR A3006 RMK MADISHF
GRB,2017-04-01 04:30,-88.1367,44.4794,M,M,M,340.00,3.00,M,30.07,M,10.00,M,CLR,M,M,M,M,M,M,M,M,KGRB 010430Z AUTO 34003KT 10SM CLR A3007 RMK MADISHF
GRB,2017-04-01 04:35,-88.1367,44.4794,M,M,M,0.00,0.00,M,30.07,M,10.00,M,CLR,M,M,M,M,M,M,M,M,KGRB 010435Z AUTO 00000KT 10SM CLR A3007 RMK MADISHF
GRB,2017-04-01 04:40,-88.1367,44.4794,M,M,M,310.00,3.00,M,30.07,M,10.00,M,CLR,M,M,M,M,M,M,M,M,KGRB 010440Z AUTO 31003KT 10SM CLR A3007 RMK MADISHF
GRB,2017-04-01 04:45,-88.1367,44.4794,M,M,M,290.00,3.00,M,30.08,M,10.00,M,CLR,M,M,M,M,M,M,M,M,KGRB 010445Z AUTO 29003KT 10SM CLR A3008 RMK MADISHF
GRB,2017-04-01 04:50,-88.1367,44.4794,M,M,M,0.00,0.00,M,30.08,M,10.00,M,CLR,M,M,M,M,M,M,M,M,KGRB 010450Z AUTO 00000KT 10SM CLR A3008 RMK MADISHF
GRB,2017-04-01 04:53,-88.1367,44.4794,34.00,27.00,75.26,300.00,3.00,0.00,30.08,1019.30,10.00,M,CLR,M,M,M,M,M,M,M,M,KGRB 010453Z AUTO 30003KT 10SM CLR 01/M03 A3008 RMK AO2 SLP193 T00111028
GRB,2017-04-01 04:55,-88.1367,44.4794,M,M,M,280.00,4.00,M,30.08,M,10.00,M,CLR,M,M,M,M,M,M,M,M,KGRB 010455Z AUTO 28004KT 10SM CLR A3008 RMK MADISHF
GRB,2017-04-01 05:00,-88.1367,44.4794,M,M,M,270.00,3.00,M,30.08,M,10.00,M,CLR,M,M,M,M,M,M,M,M,KGRB 010500Z AUTO 27003KT 10SM CLR A3008 RMK MADISHF
GRB,2017-04-01 05:05,-88.1367,44.4794,M,M,M,260.00,3.00,M,30.08,M,10.00,M,CLR,M,M,M,M,M,M,M,M,KGRB 010505Z AUTO 26003KT 10SM CLR A3008 RMK MADISHF
GRB,2017-04-01 05:10,-88.1367,44.4794,M,M,M,270.00,3.00,M,30.09,M,10.00,M,CLR,M,M,M,M,M,M,M,M,KGRB 010510Z AUTO 27003KT 10SM CLR A3009 RMK MADISHF
GRB,2017-04-01 05:15,-88.1367,44.4794,M,M,M,270.00,3.00,M,30.09,M,10.00,M,CLR,M,M,M,M,M,M,M,M,KGRB 010515Z AUTO 27003KT 10SM CLR A3009 RMK MADISHF
GRB,2017-04-01 05:20,-88.1367,44.4794,M,M,M,260.00,3.00,M,30.09,M,10.00,M,CLR,M,M,M,M,M,M,M,M,KGRB 010520Z AUTO 26003KT 10SM CLR A3009 RMK MADISHF
GRB,2017-04-01 05:25,-88.1367,44.4794,M,M,M,0.00,0.00,M,30.09,M,10.00,M,CLR,M,M,M,M,M,M,M,M,KGRB 010525Z AUTO 00000KT 10SM CLR A3009 RMK MADISHF
GRB,2017-04-01 05:30,-88.1367,44.4794,M,M,M,0.00,0.00,M,30.09,M,10.00,M,CLR,M,M,M,M,M,M,M,M,KGRB 010530Z AUTO 00000KT 10SM CLR A3009 RMK MADISHF
GRB,2017-04-01 05:35,-88.1367,44.4794,M,M,M,0.00,0.00,M,30.10,M,10.00,M,CLR,M,M,M,M,M,M,M,M,KGRB 010535Z AUTO 00000KT 10SM CLR A3010 RMK MADISHF
GRB,2017-04-01 05:40,-88.1367,44.4794,M,M,M,0.00,0.00,M,30.10,M,10.00,M,CLR,M,M,M,M,M,M,M,M,KGRB 010540Z AUTO 00000KT 10SM CLR A3010 RMK MADISHF
GRB,2017-04-01 05:45,-88.1367,44.4794,M,M,M,0.00,0.00,M,30.10,M,10.00,M,CLR,M,M,M,M,M,M,M,M,KGRB 010545Z AUTO 00000KT 10SM CLR A3010 RMK MADISHF
GRB,2017-04-01 05:50,-88.1367,44.4794,M,M,M,0.00,0.00,M,30.10,M,10.00,M,CLR,M,M,M,M,M,M,M,M,KGRB 010550Z AUTO 00000KT 10SM CLR A3010 RMK MADISHF
GRB,2017-04-01 05:53,-88.1367,44.4794,32.00,28.00,84.98,290.00,3.00,0.00,30.10,1020.10,10.00,M,CLR,M,M,M,M,M,M,M,M,KGRB 010553Z AUTO 29003KT 10SM CLR 00/M02 A3010 RMK AO2 SLP201 T00001022 10067 20000 401110000 53022
GRB,2017-04-01 05:55,-88.1367,44.4794,M,M,M,280.00,4.00,M,30.10,M,10.00,M,CLR,M,M,M,M,M,M,M,M,KGRB 010555Z AUTO 28004KT 10SM CLR A3010 RMK MADISHF
GRB,2017-04-01 06:00,-88.1367,44.4794,M,M,M,280.00,4.00,M,30.11,M,10.00,M,CLR,M,M,M,M,M,M,M,M,KGRB 010600Z AUTO 28004KT 10SM CLR A3011 RMK MADISHF
GRB,2017-04-01 06:05,-88.1367,44.4794,M,M,M,280.00,5.00,M,30.11,M,10.00,M,CLR,M,M,M,M,M,M,M,M,KGRB 010605Z AUTO 28005KT 10SM CLR A3011 RMK MADISHF
GRB,2017-04-01 06:10,-88.1367,44.4794,M,M,M,280.00,5.00,M,30.11,M,10.00,M,CLR,M,M,M,M,M,M,M,M,KGRB 010610Z AUTO 28005KT 10SM CLR A3011 RMK MADISHF
GRB,2017-04-01 06:15,-88.1367,44.4794,M,M,M,280.00,4.00,M,30.11,M,10.00,M,CLR,M,M,M,M,M,M,M,M,KGRB 010615Z AUTO 28004KT 10SM CLR A3011 RMK MADISHF
GRB,2017-04-01 06:20,-88.1367,44.4794,M,M,M,270.00,4.00,M,30.10,M,10.00,M,CLR,M,M,M,M,M,M,M,M,KGRB 010620Z AUTO 27004KT 10SM CLR A3010 RMK MADISHF
GRB,2017-04-01 06:25,-88.1367,44.4794,M,M,M,270.00,3.00,M,30.10,M,10.00,M,CLR,M,M,M,M,M,M,M,M,KGRB 010625Z AUTO 27003KT 10SM CLR A3010 RMK MADISHF
GRB,2017-04-01 06:30,-88.1367,44.4794,M,M,M,0.00,0.00,M,30.10,M,10.00,M,CLR,M,M,M,M,M,M,M,M,KGRB 010630Z AUTO 00000KT 10SM CLR A3010 RMK MADISHF
GRB,2017-04-01 06:35,-88.1367,44.4794,M,M,M,0.00,0.00,M,30.10,M,10.00,M,CLR,M,M,M,M,M,M,M,M,KGRB 010635Z AUTO 00000KT 10SM CLR A3010 RMK MADISHF
GRB,2017-04-01 06:40,-88.1367,44.4794,M,M,M,0.00,0.00,M,30.10,M,10.00,M,CLR,M,M,M,M,M,M,M,M,KGRB 010640Z AUTO 00000KT 10SM CLR A3010 RMK MADISHF
GRB,2017-04-01 06:45,-88.1367,44.4794,M,M,M,0.00,0.00,M,30.10,M,10.00,M,CLR,M,M,M,M,M,M,M,M,KGRB 010645Z AUTO 00000KT 10SM CLR A3010 RMK MADISHF
GRB,2017-04-01 06:50,-88.1367,44.4794,M,M,M,0.00,0.00,M,30.10,M,10.00,M,CLR,M,M,M,M,M,M,M,M,KGRB 010650Z AUTO 00000KT 10SM CLR A3010 RMK MADISHF
GRB,2017-04-01 06:53,-88.1367,44.4794,32.00,30.00,92.22,0.00,0.00,0.00,30.10,1020.00,10.00,M,CLR,M,M,M,M,M,M,M,M,KGRB 010653Z AUTO 00000KT 10SM CLR 00/M01 A3010 RMK AO2 SLP200 T00001011
GRB,2017-04-01 06:55,-88.1367,44.4794,M,M,M,0.00,0.00,M,30.10,M,10.00,M,CLR,M,M,M,M,M,M,M,M,KGRB 010655Z AUTO 00000KT 10SM CLR A3010 RMK MADISHF
GRB,2017-04-01 07:00,-88.1367,44.4794,M,M,M,260.00,3.00,M,30.11,M,10.00,M,CLR,M,M,M,M,M,M,M,M,KGRB 010700Z AUTO 26003KT 10SM CLR A3011 RMK MADISHF
GRB,2017-04-01 07:05,-88.1367,44.4794,M,M,M,280.00,4.00,M,30.11,M,10.00,M,CLR,M,M,M,M,M,M,M,M,KGRB 010705Z AUTO 28004KT 10SM CLR A3011 RMK MADISHF
GRB,2017-04-01 07:10,-88.1367,44.4794,M,M,M,270.00,5.00,M,30.11,M,10.00,M,CLR,M,M,M,M,M,M,M,M,KGRB 010710Z AUTO 27005KT 10SM CLR A3011 RMK MADISHF
GRB,2017-04-01 07:15,-88.1367,44.4794,M,M,M,280.00,4.00,M,30.11,M,10.00,M,CLR,M,M,M,M,M,M,M,M,KGRB 010715Z AUTO 28004KT 10SM CLR A3011 RMK MADISHF
GRB,2017-04-01 07:20,-88.1367,44.4794,M,M,M,280.00,4.00,M,30.11,M,10.00,M,CLR,M,M,M,M,M,M,M,M,KGRB 010720Z AUTO 28004KT 10SM CLR A3011 RMK MADISHF
GRB,2017-04-01 07:25,-88.1367,44.4794,M,M,M,280.00,5.00,M,30.12,M,10.00,M,CLR,M,M,M,M,M,M,M,M,KGRB 010725Z AUTO 28005KT 10SM CLR A3012 RMK MADISHF
GRB,2017-04-01 07:30,-88.1367,44.4794,M,M,M,280.00,5.00,M,30.11,M,10.00,M,CLR,M,M,M,M,M,M,M,M,KGRB 010730Z AUTO 28005KT 10SM CLR A3011 RMK MADISHF
GRB,2017-04-01 07:35,-88.1367,44.4794,M,M,M,290.00,5.00,M,30.12,M,10.00,M,CLR,M,M,M,M,M,M,M,M,KGRB 010735Z AUTO 29005KT 10SM CLR A3012 RMK MADISHF
GRB,2017-04-01 07:40,-88.1367,44.4794,M,M,M,290.00,5.00,M,30.12,M,10.00,M,CLR,M,M,M,M,M,M,M,M,KGRB 010740Z AUTO 29005KT 10SM CLR A3012 RMK MADISHF
GRB,2017-04-01 07:45,-88.1367,44.4794,M,M,M,280.00,6.00,M,30.12,M,10.00,M,CLR,M,M,M,M,M,M,M,M,KGRB 010745Z AUTO 28006KT 10SM CLR A3012 RMK MADISHF
GRB,2017-04-01 07:50,-88.1367,44.4794,M,M,M,290.00,5.00,M,30.12,M,10.00,M,CLR,M,M,M,M,M,M,M,M,KGRB 010750Z AUTO 29005KT 10SM CLR A3012 RMK MADISHF
GRB,2017-04-01 07:53,-88.1367,44.4794,34.00,28.00,78.43,300.00,5.00,0.00,30.12,1020.70,10.00,M,CLR,M,M,M,M,M,M,M,M,KGRB 010753Z AUTO 30005KT 10SM CLR 01/M02 A3012 RMK AO2 SLP207 T00111022
GRB,2017-04-01 07:55,-88.1367,44.4794,M,M,M,300.00,5.00,M,30.12,M,10.00,M,CLR,M,M,M,M,M,M,M,M,KGRB 010755Z AUTO 30005KT 10SM CLR A3012 RMK MADISHF
GRB,2017-04-01 08:00,-88.1367,44.4794,M,M,M,290.00,4.00,M,30.13,M,10.00,M,CLR,M,M,M,M,M,M,M,M,KGRB 010800Z AUTO 29004KT 10SM CLR A3013 RMK MADISHF
GRB,2017-04-01 08:05,-88.1367,44.4794,M,M,M,290.00,5.00,M,30.13,M,10.00,M,CLR,M,M,M,M,M,M,M,M,KGRB 010805Z AUTO 29005KT 10SM CLR A3013 RMK MADISHF
GRB,2017-04-01 08:10,-88.1367,44.4794,M,M,M,280.00,6.00,M,30.13,M,10.00,M,CLR,M,M,M,M,M,M,M,M,KGRB 010810Z AUTO 28006KT 10SM CLR A3013 RMK MADISHF
GRB,2017-04-01 08:15,-88.1367,44.4794,M,M,M,290.00,7.00,M,30.13,M,10.00,M,CLR,M,M,M,M,M,M,M,M,KGRB 010815Z AUTO 29007KT 10SM CLR A3013 RMK MADISHF
GRB,2017-04-01 08:20,-88.1367,44.4794,M,M,M,280.00,7.00,M,30.13,M,10.00,M,CLR,M,M,M,M,M,M,M,M,KGRB 010820Z AUTO 28007KT 10SM CLR A3013 RMK MADISHF
GRB,2017-04-01 08:25,-88.1367,44.4794,M,M,M,280.00,7.00,M,30.13,M,10.00,M,CLR,M,M,M,M,M,M,M,M,KGRB 010825Z AUTO 28007KT 10SM CLR A3013 RMK MADISHF
GRB,2017-04-01 08:30,-88.1367,44.4794,M,M,M,280.00,7.00,M,30.13,M,10.00,M,CLR,M,M,M,M,M,M,M,M,KGRB 010830Z AUTO 28007KT 10SM CLR A3013 RMK MADISHF
GRB,2017-04-01 08:35,-88.1367,44.4794,M,M,M,280.00,7.00,M,30.13,M,10.00,M,CLR,M,M,M,M,M,M,M,M,KGRB 010835Z AUTO 28007KT 10SM CLR A3013 RMK MADISHF
GRB,2017-04-01 08:40,-88.1367,44.4794,M,M,M,280.00,7.00,M,30.13,M,10.00,M,CLR,M,M,M,M,M,M,M,M,KGRB 010840Z AUTO 28007KT 10SM CLR A3013 RMK MADISHF
GRB,2017-04-01 08:45,-88.1367,44.4794,M,M,M,280.00,7.00,M,30.13,M,10.00,M,CLR,M,M,M,M,M,M,M,M,KGRB 010845Z AUTO 28007KT 10SM CLR A3013 RMK MADISHF
GRB,2017-04-01 08:50,-88.1367,44.4794,M,M,M,280.00,7.00,M,30.13,M,10.00,M,CLR,M,M,M,M,M,M,M,M,KGRB 010850Z AUTO 28007KT 10SM CLR A3013 RMK MADISHF
GRB,2017-04-01 08:53,-88.1367,44.4794,34.00,28.00,78.43,280.00,7.00,0.00,30.14,1021.10,10.00,M,CLR,M,M,M,M,M,M,M,M,KGRB 010853Z AUTO 28007KT 10SM CLR 01/M02 A3014 RMK AO2 SLP211 T00111022 53011
GRB,2017-04-01 08:55,-88.1367,44.4794,M,M,M,280.00,7.00,M,30.14,M,10.00,M,CLR,M,M,M,M,M,M,M,M,KGRB 010855Z AUTO 28007KT 10SM CLR A3014 RMK MADISHF
GRB,2017-04-01 09:00,-88.1367,44.4794,M,M,M,290.00,7.00,M,30.13,M,10.00,M,CLR,M,M,M,M,M,M,M,M,KGRB 010900Z AUTO 29007KT 10SM CLR A3013 RMK MADISHF
GRB,2017-04-01 09:05,-88.1367,44.4794,M,M,M,280.00,7.00,M,30.14,M,10.00,M,CLR,M,M,M,M,M,M,M,M,KGRB 010905Z AUTO 28007KT 10SM CLR A3014 RMK MADISHF
GRB,2017-04-01 09:10,-88.1367,44.4794,M,M,M,280.00,6.00,M,30.14,M,10.00,M,CLR,M,M,M,M,M,M,M,M,KGRB 010910Z AUTO 28006KT 10SM CLR A3014 RMK MADISHF
GRB,2017-04-01 09:15,-88.1367,44.4794,M,M,M,280.00,5.00,M,30.14,M,10.00,M,CLR,M,M,M,M,M,M,M,M,KGRB 010915Z AUTO 28005KT 10SM CLR A3014 RMK MADISHF
GRB,2017-04-01 09:20,-88.1367,44.4794,M,M,M,270.00,5.00,M,30.14,M,10.00,M,CLR,M,M,M,M,M,M,M,M,KGRB 010920Z AUTO 27005KT 10SM CLR A3014 RMK MADISHF
GRB,2017-04-01 09:25,-88.1367,44.4794,M,M,M,270.00,5.00,M,30.14,M,10.00,M,CLR,M,M,M,M,M,M,M,M,KGRB 010925Z AUTO 27005KT 10SM CLR A3014 RMK MADISHF
GRB,2017-04-01 09:30,-88.1367,44.4794,M,M,M,270.00,4.00,M,30.14,M,10.00,M,CLR,M,M,M,M,M,M,M,M,KGRB 010930Z AUTO 27004KT 10SM CLR A3014 RMK MADISHF
GRB,2017-04-01 09:35,-88.1367,44.4794,M,M,M,270.00,4.00,M,30.14,M,10.00,M,CLR,M,M,M,M,M,M,M,M,KGRB 010935Z AUTO 27004KT 10SM CLR A3014 RMK MADISHF
GRB,2017-04-01 09:40,-88.1367,44.4794,M,M,M,280.00,5.00,M,30.14,M,10.00,M,CLR,M,M,M,M,M,M,M,M,KGRB 010940Z AUTO 28005KT 10SM CLR A3014 RMK MADISHF
GRB,2017-04-01 09:45,-88.1367,44.4794,M,M,M,280.00,4.00,M,30.14,M,10.00,M,CLR,M,M,M,M,M,M,M,M,KGRB 010945Z AUTO 28004KT 10SM CLR A3014 RMK MADISHF
GRB,2017-04-01 09:50,-88.1367,44.4794,M,M,M,290.00,5.00,M,30.14,M,10.00,M,CLR,M,M,M,M,M,M,M,M,KGRB 010950Z AUTO 29005KT 10SM CLR A3014 RMK MADISHF
GRB,2017-04-01 09:53,-88.1367,44.4794,34.00,28.00,78.43,290.00,5.00,0.00,30.14,1021.20,10.00,M,CLR,M,M,M,M,M,M,M,M,KGRB 010953Z AUTO 29005KT 10SM CLR 01/M02 A3014 RMK AO2 SLP212 T00111022
GRB,2017-04-01 09:55,-88.1367,44.4794,M,M,M,290.00,4.00,M,30.14,M,10.00,M,CLR,M,M,M,M,M,M,M,M,KGRB 010955Z AUTO 29004KT 10SM CLR A3014 RMK MADISHF
GRB,2017-04-01 10:00,-88.1367,44.4794,M,M,M,290.00,5.00,M,30.14,M,10.00,M,CLR,M,M,M,M,M,M,M,M,KGRB 011000Z AUTO 29005KT 10SM CLR A3014 RMK MADISHF
GRB,2017-04-01 10:05,-88.1367,44.4794,M,M,M,290.00,4.00,M,30.14,M,10.00,M,CLR,M,M,M,M,M,M,M,M,KGRB 011005Z AUTO 29004KT 10SM CLR A3014 RMK MADISHF
GRB,2017-04-01 10:10,-88.1367,44.4794,M,M,M,300.00,3.00,M,30.14,M,10.00,M,CLR,M,M,M,M,M,M,M,M,KGRB 011010Z AUTO 30003KT 10SM CLR A3014 RMK MADISHF
GRB,2017-04-01 10:15,-88.1367,44.4794,M,M,M,300.00,4.00,M,30.14,M,10.00,M,CLR,M,M,M,M,M,M,M,M,KGRB 011015Z AUTO 30004KT 10SM CLR A3014 RMK MADISHF
GRB,2017-04-01 10:20,-88.1367,44.4794,M,M,M,290.00,4.00,M,30.14,M,10.00,M,CLR,M,M,M,M,M,M,M,M,KGRB 011020Z AUTO 29004KT 10SM CLR A3014 RMK MADISHF
GRB,2017-04-01 10:25,-88.1367,44.4794,M,M,M,280.00,5.00,M,30.15,M,10.00,M,CLR,M,M,M,M,M,M,M,M,KGRB 011025Z AUTO 28005KT 10SM CLR A3015 RMK MADISHF
GRB,2017-04-01 10:30,-88.1367,44.4794,M,M,M,280.00,5.00,M,30.15,M,10.00,M,CLR,M,M,M,M,M,M,M,M,KGRB 011030Z AUTO 28005KT 10SM CLR A3015 RMK MADISHF
GRB,2017-04-01 10:35,-88.1367,44.4794,M,M,M,290.00,4.00,M,30.15,M,10.00,M,CLR,M,M,M,M,M,M,M,M,KGRB 011035Z AUTO 29004KT 10SM CLR A3015 RMK MADISHF
GRB,2017-04-01 10:40,-88.1367,44.4794,M,M,M,280.00,5.00,M,30.15,M,10.00,M,CLR,M,M,M,M,M,M,M,M,KGRB 011040Z AUTO 28005KT 10SM CLR A3015 RMK MADISHF
GRB,2017-04-01 10:45,-88.1367,44.4794,M,M,M,280.00,5.00,M,30.15,M,10.00,M,CLR,M,M,M,M,M,M,M,M,KGRB 011045Z AUTO 28005KT 10SM CLR A3015 RMK MADISHF
GRB,2017-04-01 10:50,-88.1367,44.4794,M,M,M,280.00,5.00,M,30.15,M,10.00,M,CLR,M,M,M,M,M,M,M,M,KGRB 011050Z AUTO 28005KT 10SM CLR A3015 RMK MADISHF
GRB,2017-04-01 10:53,-88.1367,44.4794,34.00,28.00,78.43,280.00,5.00,0.00,30.15,1021.50,10.00,M,CLR,M,M,M,M,M,M,M,M,KGRB 011053Z 28005KT 10SM CLR 01/M02 A3015 RMK AO2 SLP215 T00111022
GRB,2017-04-01 10:55,-88.1367,44.4794,M,M,M,270.00,5.00,M,30.15,M,10.00,M,CLR,M,M,M,M,M,M,M,M,KGRB 011055Z AUTO 27005KT 10SM CLR A3015 RMK MADISHF
GRB,2017-04-01 11:00,-88.1367,44.4794,M,M,M,270.00,5.00,M,30.15,M,10.00,M,CLR,M,M,M,M,M,M,M,M,KGRB 011100Z AUTO 27005KT 10SM CLR A3015 RMK MADISHF
GRB,2017-04-01 11:05,-88.1367,44.4794,M,M,M,270.00,5.00,M,30.15,M,10.00,M,CLR,M,M,M,M,M,M,M,M,KGRB 011105Z AUTO 27005KT 10SM CLR A3015 RMK MADISHF
GRB,2017-04-01 11:10,-88.1367,44.4794,M,M,M,280.00,4.00,M,30.15,M,10.00,M,CLR,M,M,M,M,M,M,M,M,KGRB 011110Z AUTO 28004KT 10SM CLR A3015 RMK MADISHF
GRB,2017-04-01 11:15,-88.1367,44.4794,M,M,M,280.00,4.00,M,30.14,M,10.00,M,CLR,M,M,M,M,M,M,M,M,KGRB 011115Z AUTO 28004KT 10SM CLR A3014 RMK MADISHF
GRB,2017-04-01 11:20,-88.1367,44.4794,M,M,M,280.00,4.00,M,30.15,M,10.00,M,CLR,M,M,M,M,M,M,M,M,KGRB 011120Z AUTO 28004KT 10SM CLR A3015 RMK MADISHF
GRB,2017-04-01 11:25,-88.1367,44.4794,M,M,M,290.00,4.00,M,30.15,M,10.00,M,CLR,M,M,M,M,M,M,M,M,KGRB 011125Z AUTO 29004KT 10SM CLR A3015 RMK MADISHF
GRB,2017-04-01 11:30,-88.1367,44.4794,M,M,M,290.00,3.00,M,30.15,M,10.00,M,CLR,M,M,M,M,M,M,M,M,KGRB 011130Z AUTO 29003KT 10SM CLR A3015 RMK MADISHF
GRB,2017-04-01 11:35,-88.1367,44.4794,M,M,M,290.00,3.00,M,30.15,M,10.00,M,CLR,M,M,M,M,M,M,M,M,KGRB 011135Z AUTO 29003KT 10SM CLR A3015 RMK MADISHF
GRB,2017-04-01 11:40,-88.1367,44.4794,M,M,M,290.00,3.00,M,30.15,M,10.00,M,CLR,M,M,M,M,M,M,M,M,KGRB 011140Z AUTO 29003KT 10SM CLR A3015 RMK MADISHF
GRB,2017-04-01 11:45,-88.1367,44.4794,M,M,M,290.00,3.00,M,30.15,M,10.00,M,CLR,M,M,M,M,M,M,M,M,KGRB 011145Z AUTO 29003KT 10SM CLR A3015 RMK MADISHF
GRB,2017-04-01 11:50,-88.1367,44.4794,M,M,M,290.00,3.00,M,30.15,M,10.00,M,CLR,M,M,M,M,M,M,M,M,KGRB 011150Z AUTO 29003KT 10SM CLR A3015 RMK MADISHF
GRB,2017-04-01 11:53,-88.1367,44.4794,33.10,28.00,81.30,0.00,0.00,0.00,30.15,1021.80,10.00,M,CLR,M,M,M,M,M,M,M,M,KGRB 011153Z 00000KT 10SM CLR 01/M02 A3015 RMK AO2 SLP218 T00061022 10017 21006 53006
GRB,2017-04-01 11:55,-88.1367,44.4794,M,M,M,0.00,0.00,M,30.16,M,10.00,M,CLR,M,M,M,M,M,M,M,M,KGRB 011155Z AUTO 00000KT 10SM CLR A3016 RMK MADISHF
GRB,2017-04-01 12:00,-88.1367,44.4794,M,M,M,0.00,0.00,M,30.16,M,10.00,M,CLR,M,M,M,M,M,M,M,M,KGRB 011200Z AUTO 00000KT 10SM CLR A3016 RMK MADISHF
GRB,2017-04-01 12:05,-88.1367,44.4794,M,M,M,260.00,3.00,M,30.16,M,10.00,M,CLR,M,M,M,M,M,M,M,M,KGRB 011205Z AUTO 26003KT 10SM CLR A3016 RMK MADISHF
GRB,2017-04-01 12:10,-88.1367,44.4794,M,M,M,0.00,0.00,M,30.16,M,10.00,M,CLR,M,M,M,M,M,M,M,M,KGRB 011210Z AUTO 00000KT 10SM CLR A3016 RMK MADISHF
GRB,2017-04-01 12:15,-88.1367,44.4794,M,M,M,0.00,0.00,M,30.17,M,10.00,M,CLR,M,M,M,M,M,M,M,M,KGRB 011215Z AUTO 00000KT 10SM CLR A3017 RMK MADISHF
GRB,2017-04-01 12:20,-88.1367,44.4794,M,M,M,0.00,0.00,M,30.17,M,10.00,M,CLR,M,M,M,M,M,M,M,M,KGRB 011220Z AUTO 00000KT 10SM CLR A3017 RMK MADISHF
GRB,2017-04-01 12:25,-88.1367,44.4794,M,M,M,220.00,3.00,M,30.17,M,10.00,M,CLR,M,M,M,M,M,M,M,M,KGRB 011225Z AUTO 22003KT 10SM CLR A3017 RMK MADISHF
GRB,2017-04-01 12:30,-88.1367,44.4794,M,M,M,230.00,3.00,M,30.17,M,10.00,M,CLR,M,M,M,M,M,M,M,M,KGRB 011230Z AUTO 23003KT 10SM CLR A3017 RMK MADISHF
GRB,2017-04-01 12:35,-88.1367,44.4794,M,M,M,210.00,3.00,M,30.17,M,10.00,M,CLR,M,M,M,M,M,M,M,M,KGRB 011235Z AUTO 21003KT 10SM CLR A3017 RMK MADISHF
GRB,2017-04-01 12:40,-88.1367,44.4794,M,M,M,210.00,3.00,M,30.17,M,10.00,M,CLR,M,M,M,M,M,M,M,M,KGRB 011240Z AUTO 21003KT 10SM CLR A3017 RMK MADISHF
GRB,2017-04-01 12:45,-88.1367,44.4794,M,M,M,190.00,3.00,M,30.18,M,10.00,M,CLR,M,M,M,M,M,M,M,M,KGRB 011245Z AUTO 19003KT 10SM CLR A3018 RMK MADISHF
GRB,2017-04-01 12:50,-88.1367,44.4794,M,M,M,190.00,3.00,M,30.18,M,10.00,M,CLR,M,M,M,M,M,M,M,M,KGRB 011250Z AUTO 19003KT 10SM CLR A3018 RMK MADISHF
GRB,2017-04-01 12:53,-88.1367,44.4794,36.00,28.00,72.43,200.00,3.00,0.00,30.18,1022.70,10.00,M,CLR,M,M,M,M,M,M,M,M,KGRB 011253Z 20003KT 10SM CLR 02/M02 A3018 RMK AO2 SLP227 T00221022
GRB,2017-04-01 12:55,-88.1367,44.4794,M,M,M,0.00,0.00,M,30.18,M,10.00,M,CLR,M,M,M,M,M,M,M,M,KGRB 011255Z AUTO 00000KT 10SM CLR A3018 RMK MADISHF
GRB,2017-04-01 13:00,-88.1367,44.4794,M,M,M,0.00,0.00,M,30.18,M,10.00,M,CLR,M,M,M,M,M,M,M,M,KGRB 011300Z AUTO 00000KT 10SM CLR A3018 RMK MADISHF
GRB,2017-04-01 13:05,-88.1367,44.4794,M,M,M,0.00,0.00,M,30.18,M,10.00,M,CLR,M,M,M,M,M,M,M,M,KGRB 011305Z AUTO 00000KT 10SM CLR A3018 RMK MADISHF
GRB,2017-04-01 13:10,-88.1367,44.4794,M,M,M,0.00,0.00,M,30.18,M,10.00,M,CLR,M,M,M,M,M,M,M,M,KGRB 011310Z AUTO 00000KT 10SM CLR A3018 RMK MADISHF
GRB,2017-04-01 13:15,-88.1367,44.4794,M,M,M,0.00,0.00,M,30.18,M,10.00,M,CLR,M,M,M,M,M,M,M,M,KGRB 011315Z AUTO 00000KT 10SM CLR A3018 RMK MADISHF
GRB,2017-04-01 13:20,-88.1367,44.4794,M,M,M,0.00,0.00,M,30.18,M,10.00,M,CLR,M,M,M,M,M,M,M,M,KGRB 011320Z AUTO 00000KT 10SM CLR A3018 RMK MADISHF
GRB,2017-04-01 13:25,-88.1367,44.4794,M,M,M,240.00,3.00,M,30.18,M,10.00,M,CLR,M,M,M,M,M,M,M,M,KGRB 011325Z AUTO 24003KT 10SM CLR A3018 RMK MADISHF
GRB,2017-04-01 13:30,-88.1367,44.4794,M,M,M,0.00,0.00,M,30.18,M,10.00,M,CLR,M,M,M,M,M,M,M,M,KGRB 011330Z AUTO 00000KT 10SM CLR A3018 RMK MADISHF
GRB,2017-04-01 13:35,-88.1367,44.4794,M,M,M,210.00,4.00,M,30.18,M,10.00,M,CLR,M,M,M,M,M,M,M,M,KGRB 011335Z AUTO 21004KT 10SM CLR A3018 RMK MADISHF
GRB,2017-04-01 13:40,-88.1367,44.4794,M,M,M,230.00,3.00,M,30.18,M,10.00,M,CLR,M,M,M,M,M,M,M,M,KGRB 011340Z AUTO 23003KT 10SM CLR A3018 RMK MADISHF
GRB,2017-04-01 13:45,-88.1367,44.4794,M,M,M,250.00,4.00,M,30.18,M,10.00,M,CLR,M,M,M,M,M,M,M,M,KGRB 011345Z AUTO 25004KT 10SM CLR A3018 RMK MADISHF
GRB,2017-04-01 13:50,-88.1367,44.4794,M,M,M,250.00,3.00,M,30.18,M,10.00,M,CLR,M,M,M,M,M,M,M,M,KGRB 011350Z AUTO 25003KT 10SM CLR A3018 RMK MADISHF
GRB,2017-04-01 13:53,-88.1367,44.4794,43.00,30.00,59.83,260.00,4.00,0.00,30.18,1022.60,10.00,M,CLR,M,M,M,M,M,M,M,M,KGRB 011353Z 26004KT 10SM CLR 06/M01 A3018 RMK AO2 SLP226 T00611011
GRB,2017-04-01 13:55,-88.1367,44.4794,M,M,M,270.00,4.00,M,30.18,M,10.00,M,CLR,M,M,M,M,M,M,M,M,KGRB 011355Z AUTO 27004KT 10SM CLR A3018 RMK MADISHF
GRB,2017-04-01 14:00,-88.1367,44.4794,M,M,M,260.00,4.00,M,30.18,M,10.00,M,CLR,M,M,M,M,M,M,M,M,KGRB 011400Z AUTO 26004KT 10SM CLR A3018 RMK MADISHF
GRB,2017-04-01 14:05,-88.1367,44.4794,M,M,M,260.00,4.00,M,30.18,M,10.00,M,CLR,M,M,M,M,M,M,M,M,KGRB 011405Z AUTO 26004KT 10SM CLR A3018 RMK MADISHF
GRB,2017-04-01 14:10,-88.1367,44.4794,M,M,M,270.00,4.00,M,30.18,M,10.00,M,CLR,M,M,M,M,M,M,M,M,KGRB 011410Z AUTO 27004KT 10SM CLR A3018 RMK MADISHF
GRB,2017-04-01 14:15,-88.1367,44.4794,M,M,M,0.00,0.00,M,30.18,M,10.00,M,CLR,M,M,M,M,M,M,M,M,KGRB 011415Z AUTO 00000KT 10SM CLR A3018 RMK MADISHF
GRB,2017-04-01 14:20,-88.1367,44.4794,M,M,M,290.00,4.00,M,30.18,M,10.00,M,CLR,M,M,M,M,M,M,M,M,KGRB 011420Z AUTO 29004KT 10SM CLR A3018 RMK MADISHF
GRB,2017-04-01 14:25,-88.1367,44.4794,M,M,M,300.00,5.00,M,30.19,M,10.00,M,CLR,M,M,M,M,M,M,M,M,KGRB 011425Z AUTO 30005KT 10SM CLR A3019 RMK MADISHF
GRB,2017-04-01 14:30,-88.1367,44.4794,M,M,M,290.00,6.00,M,30.19,M,10.00,M,CLR,M,M,M,M,M,M,M,M,KGRB 011430Z AUTO 29006KT 10SM CLR A3019 RMK MADISHF
GRB,2017-04-01 14:35,-88.1367,44.4794,M,M,M,290.00,4.00,M,30.19,M,10.00,M,CLR,M,M,M,M,M,M,M,M,KGRB 011435Z AUTO 29004KT 10SM CLR A3019 RMK MADISHF
GRB,2017-04-01 14:40,-88.1367,44.4794,M,M,M,300.00,5.00,M,30.19,M,10.00,M,CLR,M,M,M,M,M,M,M,M,KGRB 011440Z AUTO 30005KT 10SM CLR A3019 RMK MADISHF
GRB,2017-04-01 14:45,-88.1367,44.4794,M,M,M,280.00,6.00,M,30.20,M,10.00,M,CLR,M,M,M,M,M,M,M,M,KGRB 011445Z AUTO 28006KT 10SM CLR A3020 RMK MADISHF
GRB,2017-04-01 14:50,-88.1367,44.4794,M,M,M,290.00,7.00,M,30.20,M,10.00,M,CLR,M,M,M,M,M,M,M,M,KGRB 011450Z AUTO 29007KT 10SM CLR A3020 RMK MADISHF
GRB,2017-04-01 14:53,-88.1367,44.4794,48.00,26.10,42.17,280.00,6.00,0.00,30.20,1023.20,10.00,M,CLR,M,M,M,M,M,M,M,M,KGRB 011453Z 28006KT 10SM CLR 09/M03 A3020 RMK AO2 SLP232 T00891033 51015
GRB,2017-04-01 14:55,-88.1367,44.4794,M,M,M,270.00,6.00,M,30.20,M,10.00,M,CLR,M,M,M,M,M,M,M,M,KGRB 011455Z AUTO 27006KT 10SM CLR A3020 RMK MADISHF
GRB,2017-04-01 15:00,-88.1367,44.4794,M,M,M,270.00,5.00,M,30.21,M,10.00,M,CLR,M,M,M,M,M,M,M,M,KGRB 011500Z AUTO 27005KT 10SM CLR A3021 RMK MADISHF
GRB,2017-04-01 15:05,-88.1367,44.4794,M,M,M,270.00,6.00,M,30.21,M,10.00,M,CLR,M,M,M,M,M,M,M,M,KGRB 011505Z AUTO 27006KT 10SM CLR A3021 RMK MADISHF
GRB,2017-04-01 15:10,-88.1367,44.4794,M,M,M,260.00,5.00,M,30.21,M,10.00,M,CLR,M,M,M,M,M,M,M,M,KGRB 011510Z AUTO 26005KT 10SM CLR A3021 RMK MADISHF
GRB,2017-04-01 15:15,-88.1367,44.4794,M,M,M,280.00,5.00,M,30.21,M,10.00,M,CLR,M,M,M,M,M,M,M,M,KGRB 011515Z AUTO 28005KT 10SM CLR A3021 RMK MADISHF
GRB,2017-04-01 15:20,-88.1367,44.4794,M,M,M,260.00,3.00,M,30.20,M,10.00,M,CLR,M,M,M,M,M,M,M,M,KGRB 011520Z AUTO 26003KT 10SM CLR A3020 RMK VRB03KT  MADISHF
GRB,2017-04-01 15:25,-88.1367,44.4794,M,M,M,260.00,5.00,M,30.20,M,10.00,M,CLR,M,M,M,M,M,M,M,M,KGRB 011525Z AUTO 26005KT 10SM CLR A3020 RMK MADISHF
GRB,2017-04-01 15:30,-88.1367,44.4794,M,M,M,250.00,6.00,M,30.20,M,10.00,M,CLR,M,M,M,M,M,M,M,M,KGRB 011530Z AUTO 25006KT 10SM CLR A3020 RMK MADISHF
GRB,2017-04-01 15:35,-88.1367,44.4794,M,M,M,260.00,7.00,M,30.20,M,10.00,M,CLR,M,M,M,M,M,M,M,M,KGRB 011535Z AUTO 26007KT 10SM CLR A3020 RMK MADISHF
GRB,2017-04-01 15:40,-88.1367,44.4794,M,M,M,250.00,7.00,M,30.20,M,10.00,M,CLR,M,M,M,M,M,M,M,M,KGRB 011540Z AUTO 25007KT 10SM CLR A3020 RMK MADISHF
GRB,2017-04-01 15:45,-88.1367,44.4794,M,M,M,250.00,5.00,M,30.20,M,10.00,M,CLR,M,M,M,M,M,M,M,M,KGRB 011545Z AUTO 25005KT 10SM CLR A3020 RMK MADISHF
GRB,2017-04-01 15:50,-88.1367,44.4794,M,M,M,270.00,5.00,M,30.21,M,10.00,M,CLR,M,M,M,M,M,M,M,M,KGRB 011550Z AUTO 27005KT 10SM CLR A3021 RMK MADISHF
GRB,2017-04-01 15:53,-88.1367,44.4794,52.00,28.00,39.30,270.00,6.00,0.00,30.21,1023.50,10.00,M,CLR,M,M,M,M,M,M,M,M,KGRB 011553Z 27006KT 10SM CLR 11/M02 A3021 RMK AO2 SLP235 T01111022
GRB,2017-04-01 15:55,-88.1367,44.4794,M,M,M,260.00,7.00,M,30.21,M,10.00,M,CLR,M,M,M,M,M,M,M,M,KGRB 011555Z AUTO 26007KT 10SM CLR A3021 RMK MADISHF
GRB,2017-04-01 16:00,-88.1367,44.4794,M,M,M,250.00,6.00,M,30.21,M,10.00,M,CLR,M,M,M,M,M,M,M,M,KGRB 011600Z AUTO 25006KT 10SM CLR A3021 RMK MADISHF
GRB,2017-04-01 16:05,-88.1367,44.4794,M,M,M,250.00,6.00,M,30.20,M,10.00,M,CLR,M,M,M,M,M,M,M,M,KGRB 011605Z AUTO 25006KT 10SM CLR A3020 RMK MADISHF
GRB,2017-04-01 16:10,-88.1367,44.4794,M,M,M,260.00,8.00,M,30.21,M,10.00,M,CLR,M,M,M,M,M,M,M,M,KGRB 011610Z AUTO 26008KT 10SM CLR A3021 RMK MADISHF
GRB,2017-04-01 16:15,-88.1367,44.4794,M,M,M,280.00,7.00,M,30.20,M,10.00,M,CLR,M,M,M,M,M,M,M,M,KGRB 011615Z AUTO 28007KT 10SM CLR A3020 RMK MADISHF
GRB,2017-04-01 16:20,-88.1367,44.4794,M,M,M,290.00,5.00,M,30.20,M,10.00,M,CLR,M,M,M,M,M,M,M,M,KGRB 011620Z AUTO 29005KT 10SM CLR A3020 RMK MADISHF
GRB,2017-04-01 16:25,-88.1367,44.4794,M,M,M,260.00,8.00,M,30.20,M,10.00,M,CLR,M,M,M,M,M,M,M,M,KGRB 011625Z AUTO 26008KT 10SM CLR A3020 RMK MADISHF
GRB,2017-04-01 16:30,-88.1367,44.4794,M,M,M,280.00,8.00,M,30.21,M,10.00,M,CLR,M,M,M,M,M,M,M,M,KGRB 011630Z AUTO 28008KT 10SM CLR A3021 RMK MADISHF
GRB,2017-04-01 16:35,-88.1367,44.4794,M,M,M,280.00,9.00,M,30.21,M,10.00,M,CLR,M,M,M,M,M,M,M,M,KGRB 011635Z AUTO 28009KT 10SM CLR A3021 RMK MADISHF
GRB,2017-04-01 16:40,-88.1367,44.4794,M,M,M,290.00,9.00,M,30.21,M,10.00,M,CLR,M,M,M,M,M,M,M,M,KGRB 011640Z AUTO 29009KT 10SM CLR A3021 RMK MADISHF
GRB,2017-04-01 16:45,-88.1367,44.4794,M,M,M,260.00,8.00,M,30.20,M,10.00,M,CLR,M,M,M,M,M,M,M,M,KGRB 011645Z AUTO 26008KT 10SM CLR A3020 RMK MADISHF
GRB,2017-04-01 16:50,-88.1367,44.4794,M,M,M,290.00,7.00,M,30.20,M,10.00,M,CLR,M,M,M,M,M,M,M,M,KGRB 011650Z AUTO 29007KT 10SM CLR A3020 RMK MADISHF
GRB,2017-04-01 16:53,-88.1367,44.4794,54.00,28.90,37.89,280.00,7.00,0.00,30.20,1023.20,10.00,M,CLR,M,M,M,M,M,M,M,M,KGRB 011653Z 28007KT 10SM CLR 12/M02 A3020 RMK AO2 SLP232 T01221017
GRB,2017-04-01 16:55,-88.1367,44.4794,M,M,M,260.00,7.00,M,30.20,M,10.00,M,CLR,M,M,M,M,M,M,M,M,KGRB 011655Z AUTO 26007KT 10SM CLR A3020 RMK MADISHF
GRB,2017-04-01 17:00,-88.1367,44.4794,M,M,M,260.00,7.00,M,30.19,M,10.00,M,CLR,M,M,M,M,M,M,M,M,KGRB 011700Z AUTO 26007KT 10SM CLR A3019 RMK MADISHF
GRB,2017-04-01 17:05,-88.1367,44.4794,M,M,M,260.00,6.00,M,30.19,M,10.00,M,CLR,M,M,M,M,M,M,M,M,KGRB 011705Z AUTO 26006KT 10SM CLR A3019 RMK MADISHF
GRB,2017-04-01 17:10,-88.1367,44.4794,M,M,M,300.00,6.00,M,30.19,M,10.00,M,CLR,M,M,M,M,M,M,M,M,KGRB 011710Z AUTO 30006KT 10SM CLR A3019 RMK MADISHF
GRB,2017-04-01 17:15,-88.1367,44.4794,M,M,M,290.00,5.00,M,30.19,M,10.00,M,CLR,M,M,M,M,M,M,M,M,KGRB 011715Z AUTO 29005KT 10SM CLR A3019 RMK MADISHF
GRB,2017-04-01 17:20,-88.1367,44.4794,M,M,M,0.00,0.00,M,30.19,M,10.00,M,CLR,M,M,M,M,M,M,M,M,KGRB 011720Z AUTO 00000KT 10SM CLR A3019 RMK MADISHF
GRB,2017-04-01 17:25,-88.1367,44.4794,M,M,M,260.00,6.00,M,30.19,M,10.00,M,CLR,M,M,M,M,M,M,M,M,KGRB 011725Z AUTO 26006KT 10SM CLR A3019 RMK MADISHF
GRB,2017-04-01 17:30,-88.1367,44.4794,M,M,M,300.00,4.00,M,30.19,M,10.00,M,CLR,M,M,M,M,M,M,M,M,KGRB 011730Z AUTO 30004KT 10SM CLR A3019 RMK MADISHF
GRB,2017-04-01 17:35,-88.1367,44.4794,M,M,M,310.00,7.00,M,30.19,M,10.00,M,CLR,M,M,M,M,M,M,M,M,KGRB 011735Z AUTO 31007KT 10SM CLR A3019 RMK WND 28V35  MADISHF
GRB,2017-04-01 17:40,-88.1367,44.4794,M,M,M,320.00,7.00,M,30.19,M,10.00,M,CLR,M,M,M,M,M,M,M,M,KGRB 011740Z AUTO 32007KT 10SM CLR A3019 RMK MADISHF
GRB,2017-04-01 17:45,-88.1367,44.4794,M,M,M,310.00,7.00,M,30.19,M,10.00,M,CLR,M,M,M,M,M,M,M,M,KGRB 011745Z AUTO 31007KT 10SM CLR A3019 RMK MADISHF
GRB,2017-04-01 17:50,-88.1367,44.4794,M,M,M,280.00,9.00,M,30.19,M,10.00,M,CLR,M,M,M,M,M,M,M,M,KGRB 011750Z AUTO 28009KT 10SM CLR A3019 RMK MADISHF
GRB,2017-04-01 17:53,-88.1367,44.4794,57.00,33.10,40.28,280.00,8.00,0.00,30.19,1023.00,10.00,M,CLR,M,M,M,M,M,M,M,M,KGRB 011753Z 28008KT 10SM CLR 14/01 A3019 RMK AO2 SLP230 T01390006 10139 20000 58001
GRB,2017-04-01 17:55,-88.1367,44.4794,M,M,M,300.00,5.00,M,30.19,M,10.00,M,CLR,M,M,M,M,M,M,M,M,KGRB 011755Z AUTO 30005KT 10SM CLR A3019 RMK MADISHF
GRB,2017-04-01 18:00,-88.1367,44.4794,M,M,M,260.00,7.00,M,30.19,M,10.00,M,CLR,M,M,M,M,M,M,M,M,KGRB 011800Z AUTO 26007KT 10SM CLR A3019 RMK WND 23V29  MADISHF
GRB,2017-04-01 18:05,-88.1367,44.4794,M,M,M,270.00,7.00,M,30.19,M,10.00,M,CLR,M,M,M,M,M,M,M,M,KGRB 011805Z AUTO 27007KT 10SM CLR A3019 RMK MADISHF
GRB,2017-04-01 18:10,-88.1367,44.4794,M,M,M,270.00,6.00,M,30.19,M,10.00,M,CLR,M,M,M,M,M,M,M,M,KGRB 011810Z AUTO 27006KT 10SM CLR A3019 RMK MADISHF
GRB,2017-04-01 18:15,-88.1367,44.4794,M,M,M,300.00,5.00,M,30.19,M,10.00,M,CLR,M,M,M,M,M,M,M,M,KGRB 011815Z AUTO 30005KT 10SM CLR A3019 RMK MADISHF
GRB,2017-04-01 18:20,-88.1367,44.4794,M,M,M,240.00,6.00,M,30.19,M,10.00,M,CLR,M,M,M,M,M,M,M,M,KGRB 011820Z AUTO 24006KT 10SM CLR A3019 RMK MADISHF
GRB,2017-04-01 18:25,-88.1367,44.4794,M,M,M,300.00,6.00,M,30.19,M,10.00,M,CLR,M,M,M,M,M,M,M,M,KGRB 011825Z AUTO 30006KT 10SM CLR A3019 RMK MADISHF
GRB,2017-04-01 18:30,-88.1367,44.4794,M,M,M,320.00,3.00,M,30.18,M,10.00,M,CLR,M,M,M,M,M,M,M,M,KGRB 011830Z AUTO 32003KT 10SM CLR A3018 RMK VRB03KT  MADISHF
GRB,2017-04-01 18:35,-88.1367,44.4794,M,M,M,280.00,5.00,M,30.18,M,10.00,M,CLR,M,M,M,M,M,M,M,M,KGRB 011835Z AUTO 28005KT 10SM CLR A3018 RMK MADISHF
GRB,2017-04-01 18:40,-88.1367,44.4794,M,M,M,230.00,3.00,M,30.18,M,10.00,M,CLR,M,M,M,M,M,M,M,M,KGRB 011840Z AUTO 23003KT 10SM CLR A3018 RMK MADISHF
GRB,2017-04-01 18:45,-88.1367,44.4794,M,M,M,270.00,5.00,M,30.18,M,10.00,M,CLR,M,M,M,M,M,M,M,M,KGRB 011845Z AUTO 27005KT 10SM CLR A3018 RMK MADISHF
GRB,2017-04-01 18:50,-88.1367,44.4794,M,M,M,270.00,4.00,M,30.18,M,10.00,M,CLR,M,M,M,M,M,M,M,M,KGRB 011850Z AUTO 27004KT 10SM CLR A3018 RMK VRB04KT  MADISHF
GRB,2017-04-01 18:53,-88.1367,44.4794,60.10,33.10,36.05,260.00,6.00,0.00,30.17,1022.30,10.00,M,CLR,M,M,M,M,M,M,M,M,KGRB 011853Z 26006KT 10SM CLR 16/01 A3017 RMK AO2 SLP223 T01560006
GRB,2017-04-01 18:55,-88.1367,44.4794,M,M,M,270.00,4.00,M,30.17,M,10.00,M,CLR,M,M,M,M,M,M,M,M,KGRB 011855Z AUTO 27004KT 10SM CLR A3017 RMK MADISHF
GRB,2017-04-01 19:00,-88.1367,44.4794,M,M,M,0.00,0.00,M,30.17,M,10.00,M,CLR,M,M,M,M,M,M,M,M,KGRB 011900Z AUTO 00000KT 10SM CLR A3017 RMK MADISHF
GRB,2017-04-01 19:05,-88.1367,44.4794,M,M,M,0.00,0.00,M,30.17,M,10.00,M,CLR,M,M,M,M,M,M,M,M,KGRB 011905Z AUTO 00000KT 10SM CLR A3017 RMK MADISHF
GRB,2017-04-01 19:10,-88.1367,44.4794,M,M,M,270.00,5.00,M,30.17,M,10.00,M,CLR,M,M,M,M,M,M,M,M,KGRB 011910Z AUTO 27005KT 10SM CLR A3017 RMK MADISHF
GRB,2017-04-01 19:15,-88.1367,44.4794,M,M,M,190.00,4.00,M,30.17,M,10.00,M,CLR,M,M,M,M,M,M,M,M,KGRB 011915Z AUTO 19004KT 10SM CLR A3017 RMK VRB04KT  MADISHF
GRB,2017-04-01 19:20,-88.1367,44.4794,M,M,M,300.00,3.00,M,30.17,M,10.00,M,CLR,M,M,M,M,M,M,M,M,KGRB 011920Z AUTO 30003KT 10SM CLR A3017 RMK VRB03KT  MADISHF
GRB,2017-04-01 19:25,-88.1367,44.4794,M,M,M,210.00,4.00,M,30.17,M,10.00,M,CLR,M,M,M,M,M,M,M,M,KGRB 011925Z AUTO 21004KT 10SM CLR A3017 RMK MADISHF
GRB,2017-04-01 19:30,-88.1367,44.4794,M,M,M,200.00,7.00,M,30.16,M,10.00,M,CLR,M,M,M,M,M,M,M,M,KGRB 011930Z AUTO 20007KT 10SM CLR A3016 RMK MADISHF
GRB,2017-04-01 19:35,-88.1367,44.4794,M,M,M,0.00,0.00,M,30.16,M,10.00,M,CLR,M,M,M,M,M,M,M,M,KGRB 011935Z AUTO 00000KT 10SM CLR A3016 RMK MADISHF
GRB,2017-04-01 19:40,-88.1367,44.4794,M,M,M,280.00,5.00,M,30.16,M,10.00,M,CLR,M,M,M,M,M,M,M,M,KGRB 011940Z AUTO 28005KT 10SM CLR A3016 RMK VRB05KT  MADISHF
GRB,2017-04-01 19:45,-88.1367,44.4794,M,M,M,280.00,3.00,M,30.16,M,10.00,M,CLR,M,M,M,M,M,M,M,M,KGRB 011945Z AUTO 28003KT 10SM CLR A3016 RMK VRB03KT  MADISHF
GRB,2017-04-01 19:50,-88.1367,44.4794,M,M,M,M,M,M,30.16,M,10.00,M,CLR,M,M,M,M,M,M,M,M,KGRB 011950Z AUTO /////KT 10SM CLR A3016 RMK MADISHF
GRB,2017-04-01 19:53,-88.1367,44.4794,61.00,32.00,33.40,290.00,8.00,0.00,30.16,1021.60,10.00,M,CLR,M,M,M,M,M,M,M,M,KGRB 011953Z 29008KT 10SM CLR 16/00 A3016 RMK AO2 SLP216 T01610000
GRB,2017-04-01 19:55,-88.1367,44.4794,M,M,M,280.00,5.00,M,30.15,M,10.00,M,CLR,M,M,M,M,M,M,M,M,KGRB 011955Z AUTO 28005KT 10SM CLR A3015 RMK MADISHF
GRB,2017-04-01 20:00,-88.1367,44.4794,M,M,M,0.00,0.00,M,30.15,M,10.00,M,CLR,M,M,M,M,M,M,M,M,KGRB 012000Z AUTO 00000KT 10SM CLR A3015 RMK MADISHF
GRB,2017-04-01 20:05,-88.1367,44.4794,M,M,M,290.00,7.00,M,30.15,M,10.00,M,CLR,M,M,M,M,M,M,M,M,KGRB 012005Z AUTO 29007KT 10SM CLR A3015 RMK MADISHF
GRB,2017-04-01 20:10,-88.1367,44.4794,M,M,M,280.00,4.00,M,30.15,M,10.00,M,CLR,M,M,M,M,M,M,M,M,KGRB 012010Z AUTO 28004KT 10SM CLR A3015 RMK VRB04KT  MADISHF
GRB,2017-04-01 20:15,-88.1367,44.4794,M,M,M,240.00,3.00,M,30.14,M,10.00,M,CLR,M,M,M,M,M,M,M,M,KGRB 012015Z AUTO 24003KT 10SM CLR A3014 RMK MADISHF
GRB,2017-04-01 20:20,-88.1367,44.4794,M,M,M,0.00,0.00,M,30.15,M,10.00,M,CLR,M,M,M,M,M,M,M,M,KGRB 012020Z AUTO 00000KT 10SM CLR A3015 RMK MADISHF
GRB,2017-04-01 20:25,-88.1367,44.4794,M,M,M,270.00,6.00,M,30.14,M,10.00,M,CLR,M,M,M,M,M,M,M,M,KGRB 012025Z AUTO 27006KT 10SM CLR A3014 RMK VRB06KT  MADISHF
GRB,2017-04-01 20:30,-88.1367,44.4794,M,M,M,280.00,8.00,M,30.14,M,10.00,M,CLR,M,M,M,M,M,M,M,M,KGRB 012030Z AUTO 28008KT 10SM CLR A3014 RMK MADISHF
GRB,2017-04-01 20:35,-88.1367,44.4794,M,M,M,260.00,8.00,M,30.14,M,10.00,M,CLR,M,M,M,M,M,M,M,M,KGRB 012035Z AUTO 26008KT 10SM CLR A3014 RMK MADISHF
GRB,2017-04-01 20:40,-88.1367,44.4794,M,M,M,0.00,0.00,M,30.14,M,10.00,M,CLR,M,M,M,M,M,M,M,M,KGRB 012040Z AUTO 00000KT 10SM CLR A3014 RMK MADISHF
GRB,2017-04-01 20:45,-88.1367,44.4794,M,M,M,240.00,4.00,M,30.13,M,10.00,M,CLR,M,M,M,M,M,M,M,M,KGRB 012045Z AUTO 24004KT 10SM CLR A3013 RMK VRB04KT  MADISHF
GRB,2017-04-01 20:50,-88.1367,44.4794,M,M,M,260.00,5.00,M,30.13,M,10.00,M,CLR,M,M,M,M,M,M,M,M,KGRB 012050Z AUTO 26005KT 10SM CLR A3013 RMK MADISHF
GRB,2017-04-01 20:53,-88.1367,44.4794,62.10,32.00,32.13,0.00,0.00,0.00,30.14,1020.90,10.00,M,CLR,M,M,M,M,M,M,M,M,KGRB 012053Z 00000KT 10SM CLR 17/00 A3014 RMK AO2 SLP209 T01670000 56019
GRB,2017-04-01 20:55,-88.1367,44.4794,M,M,M,0.00,0.00,M,30.14,M,10.00,M,CLR,M,M,M,M,M,M,M,M,KGRB 012055Z AUTO 00000KT 10SM CLR A3014 RMK MADISHF
GRB,2017-04-01 21:00,-88.1367,44.4794,M,M,M,260.00,4.00,M,30.14,M,10.00,M,CLR,M,M,M,M,M,M,M,M,KGRB 012100Z AUTO 26004KT 10SM CLR A3014 RMK MADISHF
GRB,2017-04-01 21:05,-88.1367,44.4794,M,M,M,230.00,7.00,M,30.14,M,10.00,M,CLR,M,M,M,M,M,M,M,M,KGRB 012105Z AUTO 23007KT 10SM CLR A3014 RMK MADISHF
GRB,2017-04-01 21:10,-88.1367,44.4794,M,M,M,250.00,4.00,M,30.14,M,10.00,M,CLR,M,M,M,M,M,M,M,M,KGRB 012110Z AUTO 25004KT 10SM CLR A3014 RMK VRB04KT  MADISHF
GRB,2017-04-01 21:15,-88.1367,44.4794,M,M,M,220.00,5.00,M,30.14,M,10.00,M,CLR,M,M,M,M,M,M,M,M,KGRB 012115Z AUTO 22005KT 10SM CLR A3014 RMK VRB05KT  MADISHF
GRB,2017-04-01 21:20,-88.1367,44.4794,M,M,M,210.00,6.00,M,30.13,M,10.00,M,CLR,M,M,M,M,M,M,M,M,KGRB 012120Z AUTO 21006KT 10SM CLR A3013 RMK MADISHF
GRB,2017-04-01 21:25,-88.1367,44.4794,M,M,M,260.00,6.00,M,30.13,M,10.00,M,CLR,M,M,M,M,M,M,M,M,KGRB 012125Z AUTO 26006KT 10SM CLR A3013 RMK MADISHF
GRB,2017-04-01 21:30,-88.1367,44.4794,M,M,M,0.00,0.00,M,30.13,M,10.00,M,CLR,M,M,M,M,M,M,M,M,KGRB 012130Z AUTO 00000KT 10SM CLR A3013 RMK MADISHF
GRB,2017-04-01 21:35,-88.1367,44.4794,M,M,M,M,M,M,30.13,M,10.00,M,CLR,M,M,M,M,M,M,M,M,KGRB 012135Z AUTO /////KT 10SM CLR A3013 RMK MADISHF
GRB,2017-04-01 21:40,-88.1367,44.4794,M,M,M,240.00,6.00,M,30.13,M,10.00,M,CLR,M,M,M,M,M,M,M,M,KGRB 012140Z AUTO 24006KT 10SM CLR A3013 RMK MADISHF
GRB,2017-04-01 21:45,-88.1367,44.4794,M,M,M,210.00,8.00,M,30.13,M,10.00,M,CLR,M,M,M,M,M,M,M,M,KGRB 012145Z AUTO 21008KT 10SM CLR A3013 RMK MADISHF
GRB,2017-04-01 21:50,-88.1367,44.4794,M,M,M,210.00,8.00,M,30.13,M,10.00,M,CLR,M,M,M,M,M,M,M,M,KGRB 012150Z AUTO 21008KT 10SM CLR A3013 RMK MADISHF
GRB,2017-04-01 21:53,-88.1367,44.4794,61.00,35.10,37.81,210.00,6.00,0.00,30.13,1020.80,10.00,M,CLR,M,M,M,M,M,M,M,M,KGRB 012153Z 21006KT 10SM CLR 16/02 A3013 RMK AO2 SLP208 T01610017
GRB,2017-04-01 21:55,-88.1367,44.4794,M,M,M,220.00,6.00,M,30.13,M,10.00,M,CLR,M,M,M,M,M,M,M,M,KGRB 012155Z AUTO 22006KT 10SM CLR A3013 RMK MADISHF
GRB,2017-04-01 22:00,-88.1367,44.4794,M,M,M,250.00,4.00,M,30.13,M,10.00,M,CLR,M,M,M,M,M,M,M,M,KGRB 012200Z AUTO 25004KT 10SM CLR A3013 RMK MADISHF
GRB,2017-04-01 22:05,-88.1367,44.4794,M,M,M,220.00,6.00,M,30.13,M,10.00,M,CLR,M,M,M,M,M,M,M,M,KGRB 012205Z AUTO 22006KT 10SM CLR A3013 RMK MADISHF
GRB,2017-04-01 22:10,-88.1367,44.4794,M,M,M,190.00,6.00,M,30.14,M,10.00,M,CLR,M,M,M,M,M,M,M,M,KGRB 012210Z AUTO 19006KT 10SM CLR A3014 RMK VRB06KT  MADISHF
GRB,2017-04-01 22:15,-88.1367,44.4794,M,M,M,200.00,7.00,M,30.13,M,10.00,M,CLR,M,M,M,M,M,M,M,M,KGRB 012215Z AUTO 20007KT 10SM CLR A3013 RMK WND 18V24  MADISHF
GRB,2017-04-01 22:20,-88.1367,44.4794,M,M,M,250.00,8.00,M,30.13,M,10.00,M,CLR,M,M,M,M,M,M,M,M,KGRB 012220Z AUTO 25008KT 10SM CLR A3013 RMK MADISHF
GRB,2017-04-01 22:25,-88.1367,44.4794,M,M,M,200.00,9.00,M,30.13,M,10.00,M,CLR,M,M,M,M,M,M,M,M,KGRB 012225Z AUTO 20009KT 10SM CLR A3013 RMK MADISHF
GRB,2017-04-01 22:30,-88.1367,44.4794,M,M,M,200.00,8.00,M,30.13,M,10.00,M,CLR,M,M,M,M,M,M,M,M,KGRB 012230Z AUTO 20008KT 10SM CLR A3013 RMK MADISHF
GRB,2017-04-01 22:35,-88.1367,44.4794,M,M,M,200.00,6.00,M,30.13,M,10.00,M,FEW,M,M,M,9000.00,M,M,M,M,KGRB 012235Z AUTO 20006KT 10SM FEW090 A3013 RMK MADISHF
GRB,2017-04-01 22:40,-88.1367,44.4794,M,M,M,210.00,10.00,M,30.13,M,10.00,M,SCT,M,M,M,9000.00,M,M,M,M,KGRB 012240Z AUTO 21010KT 10SM SCT090 A3013 RMK MADISHF
GRB,2017-04-01 22:45,-88.1367,44.4794,M,M,M,220.00,9.00,M,30.13,M,10.00,M,BKN,M,M,M,9000.00,M,M,M,M,KGRB 012245Z AUTO 22009KT 10SM BKN090 A3013 RMK MADISHF
GRB,2017-04-01 22:50,-88.1367,44.4794,M,M,M,200.00,9.00,M,30.13,M,10.00,M,BKN,M,M,M,9000.00,M,M,M,M,KGRB 012250Z AUTO 20009KT 10SM BKN090 A3013 RMK MADISHF
GRB,2017-04-01 22:53,-88.1367,44.4794,61.00,35.10,37.81,220.00,10.00,0.00,30.13,1020.70,10.00,M,BKN,M,M,M,9000.00,M,M,M,M,KGRB 012253Z 22010KT 10SM BKN090 16/02 A3013 RMK AO2 SLP207 T01610017
GRB,2017-04-01 22:55,-88.1367,44.4794,M,M,M,200.00,9.00,M,30.13,M,10.00,M,BKN,M,M,M,9000.00,M,M,M,M,KGRB 012255Z AUTO 20009KT 10SM BKN090 A3013 RMK MADISHF
GRB,2017-04-01 23:00,-88.1367,44.4794,M,M,M,210.00,9.00,M,30.13,M,10.00,M,OVC,M,M,M,9000.00,M,M,M,M,KGRB 012300Z AUTO 21009KT 10SM OVC090 A3013 RMK MADISHF
GRB,2017-04-01 23:05,-88.1367,44.4794,M,M,M,180.00,9.00,M,30.13,M,10.00,M,OVC,M,M,M,9000.00,M,M,M,M,KGRB 012305Z AUTO 18009KT 10SM OVC090 A3013 RMK MADISHF
GRB,2017-04-01 23:10,-88.1367,44.4794,M,M,M,180.00,9.00,M,30.13,M,10.00,M,OVC,M,M,M,9000.00,M,M,M,M,KGRB 012310Z AUTO 18009KT 10SM OVC090 A3013 RMK MADISHF
GRB,2017-04-01 23:15,-88.1367,44.4794,M,M,M,190.00,10.00,M,30.13,M,10.00,M,OVC,M,M,M,9000.00,M,M,M,M,KGRB 012315Z AUTO 19010KT 10SM OVC090 A3013 RMK MADISHF
GRB,2017-04-01 23:20,-88.1367,44.4794,M,M,M,190.00,10.00,M,30.13,M,10.00,M,OVC,M,M,M,9500.00,M,M,M,M,KGRB 012320Z AUTO 19010KT 10SM OVC095 A3013 RMK MADISHF
GRB,2017-04-01 23:25,-88.1367,44.4794,M,M,M,180.00,9.00,M,30.13,M,10.00,M,OVC,M,M,M,9500.00,M,M,M,M,KGRB 012325Z AUTO 18009KT 10SM OVC095 A3013 RMK MADISHF
GRB,2017-04-01 23:30,-88.1367,44.4794,M,M,M,190.00,8.00,M,30.13,M,10.00,M,OVC,M,M,M,9500.00,M,M,M,M,KGRB 012330Z AUTO 19008KT 10SM OVC095 A3013 RMK MADISHF
GRB,2017-04-01 23:35,-88.1367,44.4794,M,M,M,190.00,8.00,M,30.13,M,10.00,M,OVC,M,M,M,9500.00,M,M,M,M,KGRB 012335Z AUTO 19008KT 10SM OVC095 A3013 RMK MADISHF
GRB,2017-04-01 23:40,-88.1367,44.4794,M,M,M,180.00,8.00,M,30.13,M,10.00,M,OVC,M,M,M,9500.00,M,M,M,M,KGRB 012340Z AUTO 18008KT 10SM OVC095 A3013 RMK MADISHF
GRB,2017-04-01 23:45,-88.1367,44.4794,M,M,M,180.00,9.00,M,30.13,M,10.00,M,OVC,M,M,M,9500.00,M,M,M,M,KGRB 012345Z AUTO 18009KT 10SM OVC095 A3013 RMK MADISHF
GRB,2017-04-01 23:50,-88.1367,44.4794,M,M,M,190.00,7.00,M,30.13,M,10.00,M,OVC,M,M,M,9500.00,M,M,M,M,KGRB 012350Z AUTO 19007KT 10SM OVC095 A3013 RMK MADISHF
GRB,2017-04-01 23:53,-88.1367,44.4794,57.90,37.00,45.54,190.00,7.00,0.00,30.13,1020.70,10.00,M,OVC,M,M,M,9500.00,M,M,M,M,KGRB 012353Z 19007KT 10SM OVC095 14/03 A3013 RMK AO2 SLP207 T01440028 10172 20133 58003
GRB,2017-04-01 23:55,-88.1367,44.4794,M,M,M,190.00,7.00,M,30.13,M,10.00,M,OVC,M,M,M,9500.00,M,M,M,M,KGRB 012355Z AUTO 19007KT 10SM OVC095 A3013 RMK MADISHF
