#DEBUG: Format Typ    -> comma
#DEBUG: Time Period   -> 2017-04-01 00:00:00+00:00 2017-04-02 00:00:00+00:00
#DEBUG: Time Zone     -> Etc/UTC
#DEBUG: Data Contact   -> daryl herzmann akrherz@iastate.edu 515-294-5978
#DEBUG: Entries Found -> -1
station,valid,lon,lat,tmpf, dwpf, relh, drct, sknt, p01i, alti, mslp, vsby, gust, skyc1, skyc2, skyc3, skyc4, skyl1, skyl2, skyl3, skyl4, presentwx, metar
GRI,2017-04-01 00:00,-98.3096,40.9675,M,M,M,40.00,7.00,M,30.04,M,10.00,M,OVC,M,M,M,3399.00,M,M,M,M,KGRI 010000Z AUTO 04007KT 10SM OVC033 A3004 RMK MADISHF
GRI,2017-04-01 00:05,-98.3096,40.9675,M,M,M,40.00,7.00,M,30.04,M,10.00,M,OVC,M,M,M,3300.00,M,M,M,M,KGRI 010005Z AUTO 04007KT 10SM OVC033 A3004 RMK MADISHF
GRI,2017-04-01 00:10,-98.3096,40.9675,M,M,M,40.00,7.00,M,30.04,M,10.00,M,OVC,M,M,M,3300.00,M,M,M,M,KGRI 010010Z AUTO 04007KT 10SM OVC033 A3004 RMK MADISHF
GRI,2017-04-01 00:15,-98.3096,40.9675,M,M,M,50.00,7.00,M,30.04,M,10.00,M,OVC,M,M,M,3300.00,M,M,M,M,KGRI 010015Z AUTO 05007KT 10SM OVC033 A3004 RMK MADISHF
GRI,2017-04-01 00:20,-98.3096,40.9675,M,M,M,40.00,8.00,M,30.04,M,10.00,M,OVC,M,M,M,3300.00,M,M,M,M,KGRI 010020Z AUTO 04008KT 10SM OVC033 A3004 RMK MADISHF
GRI,2017-04-01 00:25,-98.3096,40.9675,M,M,M,40.00,7.00,M,30.03,M,10.00,M,OVC,M,M,M,3300.00,M,M,M,M,KGRI 010025Z AUTO 04007KT 10SM OVC033 A3003 RMK MADISHF
GRI,2017-04-01 00:30,-98.3096,40.9675,M,M,M,50.00,7.00,M,30.04,M,10.00,M,OVC,M,M,M,3300.00,M,M,M,M,KGRI 010030Z AUTO 05007KT 10SM OVC033 A3004 RMK MADISHF
GRI,2017-04-01 00:35,-98.3096,40.9675,M,M,M,50.00,8.00,M,30.04,M,10.00,M,OVC,M,M,M,3300.00,M,M,M,M,KGRI 010035Z AUTO 05008KT 10SM OVC033 A3004 RMK MADISHF
GRI,2017-04-01 00:40,-98.3096,40.9675,M,M,M,40.00,7.00,M,30.04,M,10.00,M,OVC,M,M,M,3300.00,M,M,M,M,KGRI 010040Z AUTO 04007KT 10SM OVC033 A3004 RMK MADISHF
GRI,2017-04-01 00:45,-98.3096,40.9675,M,M,M,40.00,7.00,M,30.04,M,10.00,M,OVC,M,M,M,3399.00,M,M,M,M,KGRI 010045Z AUTO 04007KT 10SM OVC033 A3004 RMK MADISHF
GRI,2017-04-01 00:50,-98.3096,40.9675,M,M,M,40.00,7.00,M,30.04,M,10.00,M,OVC,M,M,M,3399.00,M,M,M,M,KGRI 010050Z AUTO 04007KT 10SM OVC033 A3004 RMK MADISHF
GRI,2017-04-01 00:53,-98.3096,40.9675,46.90,39.90,76.48,40.00,5.00,0.00,30.04,1018.50,10.00,M,OVC,M,M,M,3400.00,M,M,M,M,KGRI 010053Z 04005KT 10SM OVC034 08/04 A3004 RMK AO2 SLP185 T00830044
GRI,2017-04-01 00:55,-98.3096,40.9675,M,M,M,40.00,6.00,M,30.04,M,10.00,M,OVC,M,M,M,3399.00,M,M,M,M,KGRI 010055Z AUTO 04006KT 10SM OVC033 A3004 RMK MADISHF
GRI,2017-04-01 01:00,-98.3096,40.9675,M,M,M,30.00,4.00,M,30.04,M,10.00,M,OVC,M,M,M,3399.00,M,M,M,M,KGRI 010100Z AUTO 03004KT 10SM OVC033 A3004 RMK MADISHF
GRI,2017-04-01 01:05,-98.3096,40.9675,M,M,M,30.00,4.00,M,30.04,M,10.00,M,OVC,M,M,M,3500.00,M,M,M,M,KGRI 010105Z AUTO 03004KT 10SM OVC035 A3004 RMK MADISHF
GRI,2017-04-01 01:10,-98.3096,40.9675,M,M,M,30.00,4.00,M,30.04,M,10.00,M,OVC,M,M,M,3500.00,M,M,M,M,KGRI 010110Z AUTO 03004KT 10SM OVC035 A3004 RMK MADISHF
GRI,2017-04-01 01:15,-98.3096,40.9675,M,M,M,30.00,4.00,M,30.05,M,10.00,M,OVC,M,M,M,3500.00,M,M,M,M,KGRI 010115Z AUTO 03004KT 10SM OVC035 A3005 RMK MADISHF
GRI,2017-04-01 01:20,-98.3096,40.9675,M,M,M,30.00,3.00,M,30.05,M,10.00,M,OVC,M,M,M,3600.00,M,M,M,M,KGRI 010120Z AUTO 03003KT 10SM OVC036 A3005 RMK MADISHF
GRI,2017-04-01 01:25,-98.3096,40.9675,M,M,M,30.00,3.00,M,30.05,M,10.00,M,OVC,M,M,M,3600.00,M,M,M,M,KGRI 010125Z AUTO 03003KT 10SM OVC036 A3005 RMK MADISHF
GRI,2017-04-01 01:30,-98.3096,40.9675,M,M,M,20.00,5.00,M,30.05,M,10.00,M,OVC,M,M,M,3600.00,M,M,M,M,KGRI 010130Z AUTO 02005KT 10SM OVC036 A3005 RMK MADISHF
GRI,2017-04-01 01:35,-98.3096,40.9675,M,M,M,30.00,4.00,M,30.05,M,10.00,M,OVC,M,M,M,3600.00,M,M,M,M,KGRI 010135Z AUTO 03004KT 10SM OVC036 A3005 RMK MADISHF
GRI,2017-04-01 01:40,-98.3096,40.9675,M,M,M,30.00,5.00,M,30.05,M,10.00,M,OVC,M,M,M,3600.00,M,M,M,M,KGRI 010140Z AUTO 03005KT 10SM OVC036 A3005 RMK MADISHF
GRI,2017-04-01 01:45,-98.3096,40.9675,M,M,M,30.00,4.00,M,30.05,M,10.00,M,OVC,M,M,M,3600.00,M,M,M,M,KGRI 010145Z AUTO 03004KT 10SM OVC036 A3005 RMK MADISHF
GRI,2017-04-01 01:50,-98.3096,40.9675,M,M,M,30.00,4.00,M,30.06,M,10.00,M,OVC,M,M,M,3600.00,M,M,M,M,KGRI 010150Z AUTO 03004KT 10SM OVC036 A3006 RMK MADISHF
GRI,2017-04-01 01:53,-98.3096,40.9675,46.00,41.00,82.58,30.00,4.00,0.00,30.06,1019.20,10.00,M,OVC,M,M,M,3600.00,M,M,M,M,KGRI 010153Z AUTO 03004KT 10SM OVC036 08/05 A3006 RMK AO2 SLP192 T00780050
GRI,2017-04-01 01:55,-98.3096,40.9675,M,M,M,20.00,4.00,M,30.06,M,10.00,M,OVC,M,M,M,3600.00,M,M,M,M,KGRI 010155Z AUTO 02004KT 10SM OVC036 A3006 RMK MADISHF
GRI,2017-04-01 02:00,-98.3096,40.9675,M,M,M,20.00,4.00,M,30.06,M,10.00,M,OVC,M,M,M,3600.00,M,M,M,M,KGRI 010200Z AUTO 02004KT 10SM OVC036 A3006 RMK MADISHF
GRI,2017-04-01 02:05,-98.3096,40.9675,M,M,M,20.00,4.00,M,30.06,M,10.00,M,OVC,M,M,M,3600.00,M,M,M,M,KGRI 010205Z AUTO 02004KT 10SM OVC036 A3006 RMK MADISHF
GRI,2017-04-01 02:10,-98.3096,40.9675,M,M,M,20.00,4.00,M,30.06,M,10.00,M,OVC,M,M,M,3399.00,M,M,M,M,KGRI 010210Z AUTO 02004KT 10SM OVC033 A3006 RMK MADISHF
GRI,2017-04-01 02:15,-98.3096,40.9675,M,M,M,10.00,3.00,M,30.07,M,10.00,M,OVC,M,M,M,3399.00,M,M,M,M,KGRI 010215Z AUTO 01003KT 10SM OVC033 A3007 RMK MADISHF
GRI,2017-04-01 02:20,-98.3096,40.9675,M,M,M,20.00,4.00,M,30.07,M,10.00,M,OVC,M,M,M,3399.00,M,M,M,M,KGRI 010220Z AUTO 02004KT 10SM OVC033 A3007 RMK MADISHF
GRI,2017-04-01 02:25,-98.3096,40.9675,M,M,M,10.00,3.00,M,30.07,M,10.00,M,OVC,M,M,M,3399.00,M,M,M,M,KGRI 010225Z AUTO 01003KT 10SM OVC033 A3007 RMK MADISHF
GRI,2017-04-01 02:30,-98.3096,40.9675,M,M,M,20.00,4.00,M,30.07,M,10.00,M,OVC,M,M,M,3399.00,M,M,M,M,KGRI 010230Z AUTO 02004KT 10SM OVC033 A3007 RMK MADISHF
GRI,2017-04-01 02:35,-98.3096,40.9675,M,M,M,20.00,4.00,M,30.07,M,10.00,M,OVC,M,M,M,3399.00,M,M,M,M,KGRI 010235Z AUTO 02004KT 10SM OVC033 A3007 RMK MADISHF
GRI,2017-04-01 02:40,-98.3096,40.9675,M,M,M,20.00,5.00,M,30.07,M,10.00,M,OVC,M,M,M,3399.00,M,M,M,M,KGRI 010240Z AUTO 02005KT 10SM OVC033 A3007 RMK MADISHF
GRI,2017-04-01 02:45,-98.3096,40.9675,M,M,M,10.00,5.00,M,30.08,M,10.00,M,OVC,M,M,M,3399.00,M,M,M,M,KGRI 010245Z AUTO 01005KT 10SM OVC033 A3008 RMK MADISHF
GRI,2017-04-01 02:50,-98.3096,40.9675,M,M,M,20.00,6.00,M,30.08,M,10.00,M,OVC,M,M,M,3500.00,M,M,M,M,KGRI 010250Z AUTO 02006KT 10SM OVC035 A3008 RMK MADISHF
GRI,2017-04-01 02:53,-98.3096,40.9675,45.00,41.00,85.77,20.00,6.00,0.00,30.08,1019.80,10.00,M,OVC,M,M,M,3500.00,M,M,M,M,KGRI 010253Z AUTO 02006KT 10SM OVC035 07/05 A3008 RMK AO2 SLP198 T00720050 53013
GRI,2017-04-01 02:55,-98.3096,40.9675,M,M,M,20.00,5.00,M,30.08,M,10.00,M,OVC,M,M,M,3500.00,M,M,M,M,KGRI 010255Z AUTO 02005KT 10SM OVC035 A3008 RMK MADISHF
GRI,2017-04-01 03:00,-98.3096,40.9675,M,M,M,20.00,5.00,M,30.08,M,10.00,M,OVC,M,M,M,3500.00,M,M,M,M,KGRI 010300Z AUTO 02005KT 10SM OVC035 A3008 RMK MADISHF
GRI,2017-04-01 03:05,-98.3096,40.9675,M,M,M,10.00,5.00,M,30.09,M,10.00,M,OVC,M,M,M,3500.00,M,M,M,M,KGRI 010305Z AUTO 01005KT 10SM OVC035 A3009 RMK MADISHF
GRI,2017-04-01 03:10,-98.3096,40.9675,M,M,M,360.00,6.00,M,30.09,M,10.00,M,OVC,M,M,M,3600.00,M,M,M,M,KGRI 010310Z AUTO 36006KT 10SM OVC036 A3009 RMK MADISHF
GRI,2017-04-01 03:15,-98.3096,40.9675,M,M,M,360.00,4.00,M,30.10,M,10.00,M,OVC,M,M,M,3600.00,M,M,M,M,KGRI 010315Z AUTO 36004KT 10SM OVC036 A3010 RMK MADISHF
GRI,2017-04-01 03:20,-98.3096,40.9675,M,M,M,360.00,4.00,M,30.10,M,10.00,M,OVC,M,M,M,3600.00,M,M,M,M,KGRI 010320Z AUTO 36004KT 10SM OVC036 A3010 RMK MADISHF
GRI,2017-04-01 03:25,-98.3096,40.9675,M,M,M,10.00,5.00,M,30.10,M,10.00,M,OVC,M,M,M,3600.00,M,M,M,M,KGRI 010325Z AUTO 01005KT 10SM OVC036 A3010 RMK MADISHF
GRI,2017-04-01 03:30,-98.3096,40.9675,M,M,M,10.00,4.00,M,30.10,M,10.00,M,OVC,M,M,M,3600.00,M,M,M,M,KGRI 010330Z AUTO 01004KT 10SM OVC036 A3010 RMK MADISHF
GRI,2017-04-01 03:35,-98.3096,40.9675,M,M,M,360.00,4.00,M,30.10,M,10.00,M,OVC,M,M,M,3600.00,M,M,M,M,KGRI 010335Z AUTO 36004KT 10SM OVC036 A3010 RMK MADISHF
GRI,2017-04-01 03:40,-98.3096,40.9675,M,M,M,10.00,4.00,M,30.10,M,10.00,M,OVC,M,M,M,3600.00,M,M,M,M,KGRI 010340Z AUTO 01004KT 10SM OVC036 A3010 RMK MADISHF
GRI,2017-04-01 03:45,-98.3096,40.9675,M,M,M,10.00,4.00,M,30.11,M,10.00,M,OVC,M,M,M,3600.00,M,M,M,M,KGRI 010345Z AUTO 01004KT 10SM OVC036 A3011 RMK MADISHF
GRI,2017-04-01 03:50,-98.3096,40.9675,M,M,M,20.00,4.00,M,30.10,M,10.00,M,OVC,M,M,M,3600.00,M,M,M,M,KGRI 010350Z AUTO 02004KT 10SM OVC036 A3010 RMK MADISHF
GRI,2017-04-01 03:53,-98.3096,40.9675,45.00,41.00,85.77,10.00,4.00,0.00,30.11,1020.80,10.00,M,OVC,M,M,M,3700.00,M,M,M,M,KGRI 010353Z AUTO 01004KT 10SM OVC037 07/05 A3011 RMK AO2 SLP208 T00720050
GRI,2017-04-01 03:55,-98.3096,40.9675,M,M,M,360.00,3.00,M,30.11,M,10.00,M,OVC,M,M,M,3700.00,M,M,M,M,KGRI 010355Z AUTO 36003KT 10SM OVC037 A3011 RMK MADISHF
GRI,2017-04-01 04:00,-98.3096,40.9675,M,M,M,360.00,3.00,M,30.11,M,10.00,M,OVC,M,M,M,3700.00,M,M,M,M,KGRI 010400Z AUTO 36003KT 10SM OVC037 A3011 RMK MADISHF
GRI,2017-04-01 04:05,-98.3096,40.9675,M,M,M,350.00,4.00,M,30.12,M,10.00,M,OVC,M,M,M,3700.00,M,M,M,M,KGRI 010405Z AUTO 35004KT 10SM OVC037 A3012 RMK MADISHF
GRI,2017-04-01 04:10,-98.3096,40.9675,M,M,M,350.00,4.00,M,30.11,M,10.00,M,OVC,M,M,M,3700.00,M,M,M,M,KGRI 010410Z AUTO 35004KT 10SM OVC037 A3011 RMK MADISHF
GRI,2017-04-01 04:15,-98.3096,40.9675,M,M,M,350.00,4.00,M,30.11,M,10.00,M,BKN,M,M,M,3700.00,M,M,M,M,KGRI 010415Z AUTO 35004KT 10SM BKN037 A3011 RMK MADISHF
GRI,2017-04-01 04:20,-98.3096,40.9675,M,M,M,340.00,4.00,M,30.12,M,10.00,M,BKN,M,M,M,3700.00,M,M,M,M,KGRI 010420Z AUTO 34004KT 10SM BKN037 A3012 RMK MADISHF
GRI,2017-04-01 04:25,-98.3096,40.9675,M,M,M,330.00,3.00,M,30.12,M,10.00,M,BKN,M,M,M,3900.00,M,M,M,M,KGRI 010425Z AUTO 33003KT 10SM BKN039 A3012 RMK MADISHF
GRI,2017-04-01 04:30,-98.3096,40.9675,M,M,M,330.00,3.00,M,30.12,M,10.00,M,BKN,M,M,M,3900.00,M,M,M,M,KGRI 010430Z AUTO 33003KT 10SM BKN039 A3012 RMK MADISHF
GRI,2017-04-01 04:35,-98.3096,40.9675,M,M,M,310.00,3.00,M,30.12,M,10.00,M,BKN,M,M,M,4100.00,M,M,M,M,KGRI 010435Z AUTO 31003KT 10SM BKN041 A3012 RMK MADISHF
GRI,2017-04-01 04:40,-98.3096,40.9675,M,M,M,320.00,3.00,M,30.13,M,10.00,M,BKN,M,M,M,4100.00,M,M,M,M,KGRI 010440Z AUTO 32003KT 10SM BKN041 A3013 RMK MADISHF
GRI,2017-04-01 04:45,-98.3096,40.9675,M,M,M,310.00,3.00,M,30.13,M,10.00,M,BKN,M,M,M,4100.00,M,M,M,M,KGRI 010445Z AUTO 31003KT 10SM BKN041 A3013 RMK MADISHF
GRI,2017-04-01 04:50,-98.3096,40.9675,M,M,M,300.00,3.00,M,30.13,M,10.00,M,BKN,M,M,M,4100.00,M,M,M,M,KGRI 010450Z AUTO 30003KT 10SM BKN041 A3013 RMK MADISHF
GRI,2017-04-01 04:53,-98.3096,40.9675,42.10,39.90,91.84,300.00,3.00,0.00,30.13,1021.70,10.00,M,OVC,M,M,M,4100.00,M,M,M,M,KGRI 010453Z AUTO 30003KT 10SM OVC041 06/04 A3013 RMK AO2 SLP217 T00560044
GRI,2017-04-01 04:55,-98.3096,40.9675,M,M,M,300.00,3.00,M,30.13,M,10.00,M,OVC,M,M,M,4100.00,M,M,M,M,KGRI 010455Z AUTO 30003KT 10SM OVC041 A3013 RMK MADISHF
GRI,2017-04-01 05:00,-98.3096,40.9675,M,M,M,320.00,3.00,M,30.13,M,10.00,M,BKN,M,M,M,4100.00,M,M,M,M,KGRI 010500Z AUTO 32003KT 10SM BKN041 A3013 RMK MADISHF
GRI,2017-04-01 05:05,-98.3096,40.9675,M,M,M,330.00,3.00,M,30.13,M,10.00,M,BKN,M,M,M,4100.00,M,M,M,M,KGRI 010505Z AUTO 33003KT 10SM BKN041 A3013 RMK MADISHF
GRI,2017-04-01 05:10,-98.3096,40.9675,M,M,M,340.00,4.00,M,30.12,M,10.00,M,SCT,M,M,M,4100.00,M,M,M,M,KGRI 010510Z AUTO 34004KT 10SM SCT041 A3012 RMK MADISHF
GRI,2017-04-01 05:15,-98.3096,40.9675,M,M,M,360.00,4.00,M,30.12,M,10.00,M,SCT,M,M,M,4100.00,M,M,M,M,KGRI 010515Z AUTO 36004KT 10SM SCT041 A3012 RMK MADISHF
GRI,2017-04-01 05:20,-98.3096,40.9675,M,M,M,360.00,4.00,M,30.12,M,10.00,M,FEW,M,M,M,4100.00,M,M,M,M,KGRI 010520Z AUTO 36004KT 10SM FEW041 A3012 RMK MADISHF
GRI,2017-04-01 05:25,-98.3096,40.9675,M,M,M,10.00,4.00,M,30.12,M,10.00,M,FEW,M,M,M,4200.00,M,M,M,M,KGRI 010525Z AUTO 01004KT 10SM FEW042 A3012 RMK MADISHF
GRI,2017-04-01 05:30,-98.3096,40.9675,M,M,M,350.00,3.00,M,30.13,M,10.00,M,CLR,M,M,M,M,M,M,M,M,KGRI 010530Z AUTO 35003KT 10SM CLR A3013 RMK MADISHF
GRI,2017-04-01 05:35,-98.3096,40.9675,M,M,M,330.00,4.00,M,30.13,M,10.00,M,FEW,M,M,M,4200.00,M,M,M,M,KGRI 010535Z AUTO 33004KT 10SM FEW042 A3013 RMK MADISHF
GRI,2017-04-01 05:40,-98.3096,40.9675,M,M,M,300.00,3.00,M,30.14,M,10.00,M,SCT,M,M,M,4200.00,M,M,M,M,KGRI 010540Z AUTO 30003KT 10SM SCT042 A3014 RMK MADISHF
GRI,2017-04-01 05:45,-98.3096,40.9675,M,M,M,310.00,3.00,M,30.14,M,10.00,M,BKN,M,M,M,4300.00,M,M,M,M,KGRI 010545Z AUTO 31003KT 10SM BKN043 A3014 RMK MADISHF
GRI,2017-04-01 05:50,-98.3096,40.9675,M,M,M,300.00,4.00,M,30.14,M,10.00,M,BKN,M,M,M,4300.00,M,M,M,M,KGRI 010550Z AUTO 30004KT 10SM BKN043 A3014 RMK MADISHF
GRI,2017-04-01 05:53,-98.3096,40.9675,42.10,39.00,88.67,300.00,4.00,0.00,30.14,1022.00,10.00,M,BKN,M,M,M,4300.00,M,M,M,M,KGRI 010553Z AUTO 30004KT 10SM BKN043 06/04 A3014 RMK AO2 SLP220 T00560039 10094 20044 401110039 51020
GRI,2017-04-01 05:55,-98.3096,40.9675,M,M,M,300.00,4.00,M,30.14,M,10.00,M,BKN,M,M,M,4300.00,M,M,M,M,KGRI 010555Z AUTO 30004KT 10SM BKN043 A3014 RMK MADISHF
GRI,2017-04-01 06:00,-98.3096,40.9675,M,M,M,300.00,4.00,M,30.14,M,10.00,M,OVC,M,M,M,4300.00,M,M,M,M,KGRI 010600Z AUTO 30004KT 10SM OVC043 A3014 RMK MADISHF
GRI,2017-04-01 06:05,-98.3096,40.9675,M,M,M,320.00,4.00,M,30.13,M,10.00,M,OVC,M,M,M,4300.00,M,M,M,M,KGRI 010605Z AUTO 32004KT 10SM OVC043 A3013 RMK MADISHF
GRI,2017-04-01 06:10,-98.3096,40.9675,M,M,M,340.00,3.00,M,30.13,M,10.00,M,OVC,M,M,M,4300.00,M,M,M,M,KGRI 010610Z AUTO 34003KT 10SM OVC043 A3013 RMK MADISHF
GRI,2017-04-01 06:15,-98.3096,40.9675,M,M,M,340.00,4.00,M,30.13,M,10.00,M,OVC,M,M,M,4300.00,M,M,M,M,KGRI 010615Z AUTO 34004KT 10SM OVC043 A3013 RMK MADISHF
GRI,2017-04-01 06:20,-98.3096,40.9675,M,M,M,340.00,5.00,M,30.13,M,10.00,M,OVC,M,M,M,4300.00,M,M,M,M,KGRI 010620Z AUTO 34005KT 10SM OVC043 A3013 RMK MADISHF
GRI,2017-04-01 06:25,-98.3096,40.9675,M,M,M,340.00,4.00,M,30.13,M,10.00,M,OVC,M,M,M,4300.00,M,M,M,M,KGRI 010625Z AUTO 34004KT 10SM OVC043 A3013 RMK MADISHF
GRI,2017-04-01 06:30,-98.3096,40.9675,M,M,M,340.00,4.00,M,30.13,M,10.00,M,OVC,M,M,M,4300.00,M,M,M,M,KGRI 010630Z AUTO 34004KT 10SM OVC043 A3013 RMK MADISHF
GRI,2017-04-01 06:35,-98.3096,40.9675,M,M,M,340.00,5.00,M,30.13,M,10.00,M,OVC,M,M,M,4300.00,M,M,M,M,KGRI 010635Z AUTO 34005KT 10SM OVC043 A3013 RMK MADISHF
GRI,2017-04-01 06:40,-98.3096,40.9675,M,M,M,320.00,4.00,M,30.14,M,10.00,M,OVC,M,M,M,4300.00,M,M,M,M,KGRI 010640Z AUTO 32004KT 10SM OVC043 A3014 RMK MADISHF
GRI,2017-04-01 06:45,-98.3096,40.9675,M,M,M,320.00,3.00,M,30.14,M,10.00,M,OVC,M,M,M,4300.00,M,M,M,M,KGRI 010645Z AUTO 32003KT 10SM OVC043 A3014 RMK MADISHF
GRI,2017-04-01 06:50,-98.3096,40.9675,M,M,M,320.00,4.00,M,30.14,M,10.00,M,OVC,M,M,M,4300.00,M,M,M,M,KGRI 010650Z AUTO 32004KT 10SM OVC043 A3014 RMK MADISHF
GRI,2017-04-01 06:53,-98.3096,40.9675,43.00,39.00,85.66,330.00,3.00,0.00,30.15,1022.10,10.00,M,OVC,M,M,M,4300.00,M,M,M,M,KGRI 010653Z AUTO 33003KT 10SM OVC043 06/04 A3015 RMK AO2 SLP221 T00610039
GRI,2017-04-01 06:55,-98.3096,40.9675,M,M,M,330.00,3.00,M,30.15,M,10.00,M,OVC,M,M,M,4300.00,M,M,M,M,KGRI 010655Z AUTO 33003KT 10SM OVC043 A3015 RMK MADISHF
GRI,2017-04-01 07:00,-98.3096,40.9675,M,M,M,0.00,0.00,M,30.15,M,10.00,M,OVC,M,M,M,4300.00,M,M,M,M,KGRI 010700Z AUTO 00000KT 10SM OVC043 A3015 RMK MADISHF
GRI,2017-04-01 07:05,-98.3096,40.9675,M,M,M,0.00,0.00,M,30.15,M,10.00,M,OVC,M,M,M,4300.00,M,M,M,M,KGRI 010705Z AUTO 00000KT 10SM OVC043 A3015 RMK MADISHF
GRI,2017-04-01 07:10,-98.3096,40.9675,M,M,M,330.00,3.00,M,30.15,M,10.00,M,OVC,M,M,M,4300.00,M,M,M,M,KGRI 010710Z AUTO 33003KT 10SM OVC043 A3015 RMK MADISHF
GRI,2017-04-01 07:15,-98.3096,40.9675,M,M,M,330.00,5.00,M,30.14,M,10.00,M,OVC,M,M,M,4300.00,M,M,M,M,KGRI 010715Z AUTO 33005KT 10SM OVC043 A3014 RMK MADISHF
GRI,2017-04-01 07:20,-98.3096,40.9675,M,M,M,340.00,5.00,M,30.13,M,10.00,M,OVC,M,M,M,4300.00,M,M,M,M,KGRI 010720Z AUTO 34005KT 10SM OVC043 A3013 RMK MADISHF
GRI,2017-04-01 07:25,-98.3096,40.9675,M,M,M,350.00,6.00,M,30.13,M,10.00,M,OVC,M,M,M,4300.00,M,M,M,M,KGRI 010725Z AUTO 35006KT 10SM OVC043 A3013 RMK MADISHF
GRI,2017-04-01 07:30,-98.3096,40.9675,M,M,M,350.00,5.00,M,30.14,M,10.00,M,OVC,M,M,M,4300.00,M,M,M,M,KGRI 010730Z AUTO 35005KT 10SM OVC043 A3014 RMK MADISHF
GRI,2017-04-01 07:35,-98.3096,40.9675,M,M,M,350.00,6.00,M,30.14,M,10.00,M,BKN,M,M,M,4400.00,M,M,M,M,KGRI 010735Z AUTO 35006KT 10SM BKN044 A3014 RMK MADISHF
GRI,2017-04-01 07:40,-98.3096,40.9675,M,M,M,350.00,6.00,M,30.14,M,10.00,M,SCT,M,M,M,4400.00,M,M,M,M,KGRI 010740Z AUTO 35006KT 10SM SCT044 A3014 RMK MADISHF
GRI,2017-04-01 07:45,-98.3096,40.9675,M,M,M,350.00,5.00,M,30.14,M,10.00,M,BKN,M,M,M,4400.00,M,M,M,M,KGRI 010745Z AUTO 35005KT 10SM BKN044 A3014 RMK MADISHF
GRI,2017-04-01 07:50,-98.3096,40.9675,M,M,M,350.00,5.00,M,30.14,M,10.00,M,BKN,M,M,M,4400.00,M,M,M,M,KGRI 010750Z AUTO 35005KT 10SM BKN044 A3014 RMK MADISHF
GRI,2017-04-01 07:53,-98.3096,40.9675,41.00,39.00,92.52,340.00,5.00,0.00,30.14,1021.90,10.00,M,SCT,M,M,M,4300.00,M,M,M,M,KGRI 010753Z AUTO 34005KT 10SM SCT043 05/04 A3014 RMK AO2 SLP219 T00500039
GRI,2017-04-01 07:55,-98.3096,40.9675,M,M,M,340.00,5.00,M,30.14,M,10.00,M,FEW,M,M,M,4300.00,M,M,M,M,KGRI 010755Z AUTO 34005KT 10SM FEW043 A3014 RMK MADISHF
GRI,2017-04-01 08:00,-98.3096,40.9675,M,M,M,340.00,5.00,M,30.14,M,10.00,M,SCT,M,M,M,4300.00,M,M,M,M,KGRI 010800Z AUTO 34005KT 10SM SCT043 A3014 RMK MADISHF
GRI,2017-04-01 08:05,-98.3096,40.9675,M,M,M,350.00,5.00,M,30.14,M,10.00,M,SCT,M,M,M,4100.00,M,M,M,M,KGRI 010805Z AUTO 35005KT 10SM SCT041 A3014 RMK MADISHF
GRI,2017-04-01 08:10,-98.3096,40.9675,M,M,M,350.00,6.00,M,30.14,M,10.00,M,FEW,M,M,M,4100.00,M,M,M,M,KGRI 010810Z AUTO 35006KT 10SM FEW041 A3014 RMK MADISHF
GRI,2017-04-01 08:15,-98.3096,40.9675,M,M,M,350.00,6.00,M,30.13,M,10.00,M,FEW,M,M,M,4100.00,M,M,M,M,KGRI 010815Z AUTO 35006KT 10SM FEW041 A3013 RMK MADISHF
GRI,2017-04-01 08:20,-98.3096,40.9675,M,M,M,360.00,6.00,M,30.13,M,10.00,M,FEW,M,M,M,4100.00,M,M,M,M,KGRI 010820Z AUTO 36006KT 10SM FEW041 A3013 RMK MADISHF
GRI,2017-04-01 08:25,-98.3096,40.9675,M,M,M,360.00,6.00,M,30.13,M,10.00,M,FEW,M,M,M,4100.00,M,M,M,M,KGRI 010825Z AUTO 36006KT 10SM FEW041 A3013 RMK MADISHF
GRI,2017-04-01 08:30,-98.3096,40.9675,M,M,M,10.00,6.00,M,30.13,M,10.00,M,CLR,M,M,M,M,M,M,M,M,KGRI 010830Z AUTO 01006KT 10SM CLR A3013 RMK MADISHF
GRI,2017-04-01 08:35,-98.3096,40.9675,M,M,M,10.00,5.00,M,30.13,M,10.00,M,CLR,M,M,M,M,M,M,M,M,KGRI 010835Z AUTO 01005KT 10SM CLR A3013 RMK MADISHF
GRI,2017-04-01 08:40,-98.3096,40.9675,M,M,M,360.00,4.00,M,30.13,M,10.00,M,CLR,M,M,M,M,M,M,M,M,KGRI 010840Z AUTO 36004KT 10SM CLR A3013 RMK MADISHF
GRI,2017-04-01 08:45,-98.3096,40.9675,M,M,M,350.00,4.00,M,30.14,M,10.00,M,CLR,M,M,M,M,M,M,M,M,KGRI 010845Z AUTO 35004KT 10SM CLR A3014 RMK MADISHF
GRI,2017-04-01 08:50,-98.3096,40.9675,M,M,M,360.00,3.00,M,30.14,M,10.00,M,CLR,M,M,M,M,M,M,M,M,KGRI 010850Z AUTO 36003KT 10SM CLR A3014 RMK MADISHF
GRI,2017-04-01 08:53,-98.3096,40.9675,39.00,37.00,92.45,360.00,3.00,0.00,30.14,1021.90,10.00,M,CLR,M,M,M,M,M,M,M,M,KGRI 010853Z AUTO 36003KT 10SM CLR 04/03 A3014 RMK AO2 SLP219 T00390028 58001
GRI,2017-04-01 08:55,-98.3096,40.9675,M,M,M,360.00,3.00,M,30.14,M,10.00,M,CLR,M,M,M,M,M,M,M,M,KGRI 010855Z AUTO 36003KT 10SM CLR A3014 RMK MADISHF
GRI,2017-04-01 09:00,-98.3096,40.9675,M,M,M,10.00,3.00,M,30.14,M,10.00,M,CLR,M,M,M,M,M,M,M,M,KGRI 010900Z AUTO 01003KT 10SM CLR A3014 RMK MADISHF
GRI,2017-04-01 09:05,-98.3096,40.9675,M,M,M,20.00,3.00,M,30.14,M,10.00,M,CLR,M,M,M,M,M,M,M,M,KGRI 010905Z AUTO 02003KT 10SM CLR A3014 RMK MADISHF
GRI,2017-04-01 09:10,-98.3096,40.9675,M,M,M,0.00,0.00,M,30.14,M,10.00,M,CLR,M,M,M,M,M,M,M,M,KGRI 010910Z AUTO 00000KT 10SM CLR A3014 RMK MADISHF
GRI,2017-04-01 09:15,-98.3096,40.9675,M,M,M,0.00,0.00,M,30.15,M,10.00,M,CLR,M,M,M,M,M,M,M,M,KGRI 010915Z AUTO 00000KT 10SM CLR A3015 RMK MADISHF
GRI,2017-04-01 09:20,-98.3096,40.9675,M,M,M,0.00,0.00,M,30.15,M,10.00,M,CLR,M,M,M,M,M,M,M,M,KGRI 010920Z AUTO 00000KT 10SM CLR A3015 RMK MADISHF
GRI,2017-04-01 09:25,-98.3096,40.9675,M,M,M,330.00,3.00,M,30.15,M,10.00,M,CLR,M,M,M,M,M,M,M,M,KGRI 010925Z AUTO 33003KT 10SM CLR A3015 RMK MADISHF
GRI,2017-04-01 09:30,-98.3096,40.9675,M,M,M,330.00,3.00,M,30.15,M,10.00,M,CLR,M,M,M,M,M,M,M,M,KGRI 010930Z AUTO 33003KT 10SM CLR A3015 RMK MADISHF
GRI,2017-04-01 09:35,-98.3096,40.9675,M,M,M,330.00,3.00,M,30.16,M,10.00,M,CLR,M,M,M,M,M,M,M,M,KGRI 010935Z AUTO 33003KT 10SM CLR A3016 RMK MADISHF
GRI,2017-04-01 09:40,-98.3096,40.9675,M,M,M,320.00,4.00,M,30.16,M,10.00,M,CLR,M,M,M,M,M,M,M,M,KGRI 010940Z AUTO 32004KT 10SM CLR A3016 RMK MADISHF
GRI,2017-04-01 09:45,-98.3096,40.9675,M,M,M,330.00,4.00,M,30.16,M,10.00,M,CLR,M,M,M,M,M,M,M,M,KGRI 010945Z AUTO 33004KT 10SM CLR A3016 RMK MADISHF
GRI,2017-04-01 09:50,-98.3096,40.9675,M,M,M,330.00,4.00,M,30.16,M,10.00,M,CLR,M,M,M,M,M,M,M,M,KGRI 010950Z AUTO 33004KT 10SM CLR A3016 RMK MADISHF
GRI,2017-04-01 09:53,-98.3096,40.9675,37.00,36.00,96.13,330.00,4.00,0.00,30.16,1022.70,10.00,M,CLR,M,M,M,M,M,M,M,M,KGRI 010953Z AUTO 33004KT 10SM CLR 03/02 A3016 RMK AO2 SLP227 T00280022
GRI,2017-04-01 09:55,-98.3096,40.9675,M,M,M,330.00,4.00,M,30.16,M,10.00,M,CLR,M,M,M,M,M,M,M,M,KGRI 010955Z AUTO 33004KT 10SM CLR A3016 RMK MADISHF
GRI,2017-04-01 10:00,-98.3096,40.9675,M,M,M,340.00,4.00,M,30.16,M,10.00,M,CLR,M,M,M,M,M,M,M,M,KGRI 011000Z AUTO 34004KT 10SM CLR A3016 RMK MADISHF
GRI,2017-04-01 10:05,-98.3096,40.9675,M,M,M,340.00,5.00,M,30.16,M,10.00,M,CLR,M,M,M,M,M,M,M,M,KGRI 011005Z AUTO 34005KT 10SM CLR A3016 RMK MADISHF
GRI,2017-04-01 10:10,-98.3096,40.9675,M,M,M,350.00,5.00,M,30.16,M,10.00,M,CLR,M,M,M,M,M,M,M,M,KGRI 011010Z AUTO 35005KT 10SM CLR A3016 RMK MADISHF
GRI,2017-04-01 10:15,-98.3096,40.9675,M,M,M,350.00,5.00,M,30.16,M,10.00,M,CLR,M,M,M,M,M,M,M,M,KGRI 011015Z AUTO 35005KT 10SM CLR A3016 RMK MADISHF
GRI,2017-04-01 10:20,-98.3096,40.9675,M,M,M,350.00,6.00,M,30.16,M,10.00,M,CLR,M,M,M,M,M,M,M,M,KGRI 011020Z AUTO 35006KT 10SM CLR A3016 RMK MADISHF
GRI,2017-04-01 10:25,-98.3096,40.9675,M,M,M,350.00,6.00,M,30.16,M,10.00,M,CLR,M,M,M,M,M,M,M,M,KGRI 011025Z AUTO 35006KT 10SM CLR A3016 RMK MADISHF
GRI,2017-04-01 10:30,-98.3096,40.9675,M,M,M,340.00,6.00,M,30.16,M,10.00,M,CLR,M,M,M,M,M,M,M,M,KGRI 011030Z AUTO 34006KT 10SM CLR A3016 RMK MADISHF
GRI,2017-04-01 10:35,-98.3096,40.9675,M,M,M,340.00,6.00,M,30.17,M,10.00,M,CLR,M,M,M,M,M,M,M,M,KGRI 011035Z AUTO 34006KT 10SM CLR A3017 RMK MADISHF
GRI,2017-04-01 10:40,-98.3096,40.9675,M,M,M,350.00,7.00,M,30.17,M,10.00,M,CLR,M,M,M,M,M,M,M,M,KGRI 011040Z AUTO 35007KT 10SM CLR A3017 RMK MADISHF
GRI,2017-04-01 10:45,-98.3096,40.9675,M,M,M,360.00,6.00,M,30.17,M,9.00,M,CLR,M,M,M,M,M,M,M,M,KGRI 011045Z AUTO 36006KT 9SM CLR A3017 RMK MADISHF
GRI,2017-04-01 10:50,-98.3096,40.9675,M,M,M,20.00,4.00,M,30.17,M,8.00,M,CLR,M,M,M,M,M,M,M,M,KGRI 011050Z AUTO 02004KT 8SM CLR A3017 RMK MADISHF
GRI,2017-04-01 10:53,-98.3096,40.9675,37.00,37.00,100.00,30.00,4.00,0.00,30.17,1022.90,7.00,M,FEW,M,M,M,11000.00,M,M,M,M,KGRI 011053Z AUTO 03004KT 7SM FEW110 03/03 A3017 RMK AO2 SLP229 T00280028
GRI,2017-04-01 10:55,-98.3096,40.9675,M,M,M,30.00,4.00,M,30.17,M,7.00,M,FEW,M,M,M,11000.00,M,M,M,M,KGRI 011055Z AUTO 03004KT 7SM FEW110 A3017 RMK MADISHF
GRI,2017-04-01 11:00,-98.3096,40.9675,M,M,M,40.00,4.00,M,30.17,M,6.00,M,SCT,M,M,M,11000.00,M,M,M,BR,KGRI 011100Z AUTO 04004KT 6SM BR SCT110 A3017 RMK MADISHF
GRI,2017-04-01 11:05,-98.3096,40.9675,M,M,M,20.00,5.00,M,30.17,M,5.00,M,BKN,M,M,M,11000.00,M,M,M,BR,KGRI 011105Z AUTO 02005KT 5SM BR BKN110 A3017 RMK MADISHF
GRI,2017-04-01 11:10,-98.3096,40.9675,M,M,M,30.00,6.00,M,30.17,M,5.00,M,FEW,BKN,M,M,200.00,11000.00,M,M,BR,KGRI 011110Z AUTO 03006KT 5SM BR FEW002 BKN110 A3017 RMK MADISHF
GRI,2017-04-01 11:15,-98.3096,40.9675,M,M,M,30.00,7.00,M,30.17,M,4.00,M,SCT,BKN,M,M,200.00,11000.00,M,M,BR,KGRI 011115Z AUTO 03007KT 4SM BR SCT002 BKN110 A3017 RMK MADISHF
GRI,2017-04-01 11:16,-98.3096,40.9675,37.90,37.90,100.00,30.00,7.00,0.00,30.17,M,3.00,M,SCT,BKN,M,M,200.00,11000.00,M,M,BR,KGRI 011116Z AUTO 03007KT 3SM BR SCT002 BKN110 03/03 A3017 RMK AO2 T00330033
GRI,2017-04-01 11:20,-98.3096,40.9675,M,M,M,30.00,7.00,M,30.17,M,2.00,M,BKN,OVC,M,M,200.00,11000.00,M,M,BR,KGRI 011120Z AUTO 03007KT 2SM BR BKN002 OVC110 A3017 RMK MADISHF
GRI,2017-04-01 11:21,-98.3096,40.9675,37.90,37.90,100.00,30.00,7.00,0.00,30.17,M,1.75,M,BKN,OVC,M,M,200.00,11000.00,M,M,BR,KGRI 011121Z AUTO 03007KT 1 3/4SM BR BKN002 OVC110 03/03 A3017 RMK AO2 T00330033
GRI,2017-04-01 11:25,-98.3096,40.9675,M,M,M,30.00,8.00,M,30.17,M,1.25,M,BKN,OVC,M,M,200.00,11000.00,M,M,BR,KGRI 011125Z AUTO 03008KT 1 1/2SM BR BKN002 OVC110 A3017 RMK MADISHF
GRI,2017-04-01 11:30,-98.3096,40.9675,M,M,M,30.00,7.00,M,30.17,M,1.00,M,BKN,OVC,M,M,200.00,11000.00,M,M,BR,KGRI 011130Z AUTO 03007KT 1SM BR BKN002 OVC110 A3017 RMK MADISHF
GRI,2017-04-01 11:35,-98.3096,40.9675,M,M,M,20.00,7.00,M,30.17,M,1.00,M,OVC,M,M,M,200.00,M,M,M,BR,KGRI 011135Z AUTO 02007KT 1SM BR OVC002 A3017 RMK MADISHF
GRI,2017-04-01 11:40,-98.3096,40.9675,M,M,M,30.00,7.00,M,30.17,M,1.00,M,OVC,M,M,M,200.00,M,M,M,BR,KGRI 011140Z AUTO 03007KT 1SM BR OVC002 A3017 RMK MADISHF
GRI,2017-04-01 11:45,-98.3096,40.9675,M,M,M,30.00,7.00,M,30.17,M,1.00,M,OVC,M,M,M,200.00,M,M,M,BR,KGRI 011145Z AUTO 03007KT 1SM BR OVC002 A3017 RMK MADISHF
GRI,2017-04-01 11:50,-98.3096,40.9675,M,M,M,40.00,9.00,M,30.17,M,0.75,M,OVC,M,M,M,200.00,M,M,M,BR,KGRI 011150Z AUTO 04009KT 1SM BR OVC002 A3017 RMK MADISHF
GRI,2017-04-01 11:53,-98.3096,40.9675,37.90,37.90,100.00,40.00,8.00,0.00,30.17,1023.10,0.75,M,OVC,M,M,M,200.00,M,M,M,BR,KGRI 011153Z AUTO 04008KT 3/4SM R35/4000V5000FT BR OVC002 03/03 A3017 RMK AO2 SLP231 T00330033 10061 20028 51003
GRI,2017-04-01 11:55,-98.3096,40.9675,M,M,M,40.00,8.00,M,30.17,M,0.75,M,OVC,M,M,M,200.00,M,M,M,BR,KGRI 011155Z AUTO 04008KT 1SM BR OVC002 A3017 RMK MADISHF
GRI,2017-04-01 12:00,-98.3096,40.9675,M,M,M,30.00,8.00,M,30.17,M,0.75,M,OVC,M,M,M,200.00,M,M,M,BR,KGRI 011200Z AUTO 03008KT 1SM BR OVC002 A3017 RMK MADISHF
GRI,2017-04-01 12:05,-98.3096,40.9675,M,M,M,30.00,10.00,M,30.17,M,0.75,M,OVC,M,M,M,200.00,M,M,M,BR,KGRI 011205Z AUTO 03010KT 1SM BR OVC002 A3017 RMK MADISHF
GRI,2017-04-01 12:10,-98.3096,40.9675,M,M,M,30.00,10.00,M,30.17,M,0.75,M,OVC,M,M,M,200.00,M,M,M,BR,KGRI 011210Z AUTO 03010KT 1SM BR OVC002 A3017 RMK MADISHF
GRI,2017-04-01 12:15,-98.3096,40.9675,M,M,M,30.00,10.00,M,30.17,M,0.75,M,OVC,M,M,M,200.00,M,M,M,BR,KGRI 011215Z AUTO 03010KT 1SM BR OVC002 A3017 RMK MADISHF
GRI,2017-04-01 12:20,-98.3096,40.9675,M,M,M,40.00,10.00,M,30.17,M,0.75,M,OVC,M,M,M,200.00,M,M,M,BR,KGRI 011220Z AUTO 04010KT 1SM BR OVC002 A3017 RMK MADISHF
GRI,2017-04-01 12:25,-98.3096,40.9675,M,M,M,40.00,10.00,M,30.17,M,0.75,M,OVC,M,M,M,200.00,M,M,M,BR,KGRI 011225Z AUTO 04010KT 1SM BR OVC002 A3017 RMK MADISHF
GRI,2017-04-01 12:30,-98.3096,40.9675,M,M,M,40.00,11.00,M,30.17,M,0.75,M,OVC,M,M,M,200.00,M,M,M,BR,KGRI 011230Z AUTO 04011KT 1SM BR OVC002 A3017 RMK MADISHF
GRI,2017-04-01 12:35,-98.3096,40.9675,M,M,M,40.00,11.00,M,30.17,M,0.75,M,OVC,M,M,M,200.00,M,M,M,BR,KGRI 011235Z AUTO 04011KT 1SM BR OVC002 A3017 RMK MADISHF
GRI,2017-04-01 12:40,-98.3096,40.9675,M,M,M,30.00,10.00,M,30.17,M,0.75,M,OVC,M,M,M,200.00,M,M,M,BR,KGRI 011240Z AUTO 03010KT 1SM BR OVC002 A3017 RMK MADISHF
GRI,2017-04-01 12:45,-98.3096,40.9675,M,M,M,40.00,11.00,M,30.17,M,0.75,M,OVC,M,M,M,200.00,M,M,M,BR,KGRI 011245Z AUTO 04011KT 1SM BR OVC002 A3017 RMK MADISHF
GRI,2017-04-01 12:50,-98.3096,40.9675,M,M,M,40.00,9.00,M,30.17,M,0.75,M,OVC,M,M,M,200.00,M,M,M,BR,KGRI 011250Z AUTO 04009KT 1SM BR OVC002 A3017 RMK MADISHF
GRI,2017-04-01 12:53,-98.3096,40.9675,37.90,37.90,100.00,40.00,9.00,0.00,30.17,1023.00,0.75,M,OVC,M,M,M,200.00,M,M,M,BR,KGRI 011253Z 04009KT 3/4SM R35/4500V6000FT BR OVC002 03/03 A3017 RMK AO2 SLP230 T00330033
GRI,2017-04-01 12:55,-98.3096,40.9675,M,M,M,40.00,10.00,M,30.17,M,0.75,M,OVC,M,M,M,200.00,M,M,M,BR,KGRI 011255Z AUTO 04010KT 1SM BR OVC002 A3017 RMK MADISHF
GRI,2017-04-01 13:00,-98.3096,40.9675,M,M,M,50.00,11.00,M,30.17,M,0.75,M,OVC,M,M,M,200.00,M,M,M,BR,KGRI 011300Z AUTO 05011KT 1SM BR OVC002 A3017 RMK MADISHF
GRI,2017-04-01 13:05,-98.3096,40.9675,M,M,M,50.00,11.00,M,30.16,M,0.75,M,OVC,M,M,M,200.00,M,M,M,BR,KGRI 011305Z AUTO 05011KT 1SM BR OVC002 A3016 RMK MADISHF
GRI,2017-04-01 13:10,-98.3096,40.9675,M,M,M,40.00,10.00,M,30.16,M,0.75,M,OVC,M,M,M,200.00,M,M,M,BR,KGRI 011310Z AUTO 04010KT 1SM BR OVC002 A3016 RMK MADISHF
GRI,2017-04-01 13:15,-98.3096,40.9675,M,M,M,40.00,11.00,M,30.16,M,0.75,M,OVC,M,M,M,200.00,M,M,M,BR,KGRI 011315Z AUTO 04011KT 1SM BR OVC002 A3016 RMK MADISHF
GRI,2017-04-01 13:20,-98.3096,40.9675,M,M,M,50.00,10.00,M,30.16,M,0.75,M,OVC,M,M,M,200.00,M,M,M,BR,KGRI 011320Z AUTO 05010KT 1SM BR OVC002 A3016 RMK MADISHF
GRI,2017-04-01 13:25,-98.3096,40.9675,M,M,M,40.00,10.00,M,30.16,M,0.75,M,OVC,M,M,M,200.00,M,M,M,BR,KGRI 011325Z AUTO 04010KT 1SM BR OVC002 A3016 RMK MADISHF
GRI,2017-04-01 13:30,-98.3096,40.9675,M,M,M,50.00,9.00,M,30.17,M,0.75,M,OVC,M,M,M,200.00,M,M,M,BR,KGRI 011330Z AUTO 05009KT 1SM BR OVC002 A3017 RMK MADISHF
GRI,2017-04-01 13:35,-98.3096,40.9675,M,M,M,50.00,10.00,M,30.17,M,0.75,M,OVC,M,M,M,200.00,M,M,M,BR,KGRI 011335Z AUTO 05010KT 1SM BR OVC002 A3017 RMK MADISHF
GRI,2017-04-01 13:40,-98.3096,40.9675,M,M,M,60.00,9.00,M,30.17,M,0.75,M,OVC,M,M,M,200.00,M,M,M,BR,KGRI 011340Z AUTO 06009KT 1SM BR OVC002 A3017 RMK MADISHF
GRI,2017-04-01 13:45,-98.3096,40.9675,M,M,M,60.00,8.00,M,30.18,M,0.75,M,OVC,M,M,M,200.00,M,M,M,BR,KGRI 011345Z AUTO 06008KT 1SM BR OVC002 A3018 RMK MADISHF
GRI,2017-04-01 13:50,-98.3096,40.9675,M,M,M,60.00,8.00,M,30.18,M,0.75,M,OVC,M,M,M,200.00,M,M,M,BR,KGRI 011350Z AUTO 06008KT 1SM BR OVC002 A3018 RMK MADISHF
GRI,2017-04-01 13:53,-98.3096,40.9675,37.90,37.90,100.00,60.00,9.00,0.00,30.18,1023.50,0.75,M,OVC,M,M,M,200.00,M,M,M,BR,KGRI 011353Z 06009KT 3/4SM R35/4000V4500FT BR OVC002 03/03 A3018 RMK AO2 SLP235 T00330033
GRI,2017-04-01 13:55,-98.3096,40.9675,M,M,M,60.00,9.00,M,30.18,M,0.75,M,OVC,M,M,M,200.00,M,M,M,BR,KGRI 011355Z AUTO 06009KT 1SM BR OVC002 A3018 RMK MADISHF
GRI,2017-04-01 14:00,-98.3096,40.9675,M,M,M,70.00,7.00,M,30.19,M,0.75,M,OVC,M,M,M,200.00,M,M,M,BR,KGRI 011400Z AUTO 07007KT 1SM BR OVC002 A3019 RMK MADISHF
GRI,2017-04-01 14:05,-98.3096,40.9675,M,M,M,70.00,8.00,M,30.20,M,0.75,M,OVC,M,M,M,200.00,M,M,M,BR,KGRI 011405Z AUTO 07008KT 1SM BR OVC002 A3020 RMK MADISHF
GRI,2017-04-01 14:10,-98.3096,40.9675,M,M,M,60.00,6.00,M,30.20,M,0.50,M,OVC,M,M,M,200.00,M,M,M,FG,KGRI 011410Z AUTO 06006KT 1/2SM FG OVC002 A3020 RMK MADISHF
GRI,2017-04-01 14:15,-98.3096,40.9675,M,M,M,70.00,5.00,M,30.21,M,0.50,M,OVC,M,M,M,200.00,M,M,M,FG,KGRI 011415Z AUTO 07005KT 1/2SM FG OVC002 A3021 RMK MADISHF
GRI,2017-04-01 14:20,-98.3096,40.9675,M,M,M,90.00,4.00,M,30.21,M,0.75,M,OVC,M,M,M,200.00,M,M,M,BR,KGRI 011420Z AUTO 09004KT 1SM BR OVC002 A3021 RMK MADISHF
GRI,2017-04-01 14:25,-98.3096,40.9675,M,M,M,80.00,4.00,M,30.22,M,0.75,M,OVC,M,M,M,200.00,M,M,M,BR,KGRI 011425Z AUTO 08004KT 1SM BR OVC002 A3022 RMK MADISHF
GRI,2017-04-01 14:30,-98.3096,40.9675,M,M,M,80.00,4.00,M,30.22,M,0.75,M,OVC,M,M,M,200.00,M,M,M,BR,KGRI 011430Z AUTO 08004KT 1SM BR OVC002 A3022 RMK MADISHF
GRI,2017-04-01 14:35,-98.3096,40.9675,M,M,M,90.00,5.00,M,30.22,M,0.75,M,OVC,M,M,M,200.00,M,M,M,BR,KGRI 011435Z AUTO 09005KT 1SM BR OVC002 A3022 RMK MADISHF
GRI,2017-04-01 14:40,-98.3096,40.9675,M,M,M,130.00,6.00,M,30.22,M,0.75,M,OVC,M,M,M,200.00,M,M,M,BR,KGRI 011440Z AUTO 13006KT 1SM BR OVC002 A3022 RMK MADISHF
GRI,2017-04-01 14:45,-98.3096,40.9675,M,M,M,120.00,4.00,M,30.22,M,1.50,M,OVC,M,M,M,200.00,M,M,M,BR,KGRI 011445Z AUTO 12004KT 1 1/2SM BR OVC002 A3022 RMK MADISHF
GRI,2017-04-01 14:50,-98.3096,40.9675,M,M,M,110.00,6.00,M,30.22,M,2.00,M,OVC,M,M,M,200.00,M,M,M,BR,KGRI 011450Z AUTO 11006KT 2SM BR OVC002 A3022 RMK MADISHF
GRI,2017-04-01 14:53,-98.3096,40.9675,39.00,39.00,100.00,110.00,5.00,0.00,30.22,1024.70,1.00,M,OVC,M,M,M,200.00,M,M,M,BR,KGRI 011453Z 11005KT 1SM R35/P6000FT BR OVC002 04/04 A3022 RMK AO2 SLP247 T00390039 53015
GRI,2017-04-01 14:55,-98.3096,40.9675,M,M,M,120.00,4.00,M,30.22,M,1.00,M,OVC,M,M,M,200.00,M,M,M,BR,KGRI 011455Z AUTO 12004KT 1SM BR OVC002 A3022 RMK MADISHF
GRI,2017-04-01 15:00,-98.3096,40.9675,M,M,M,100.00,6.00,M,30.21,M,1.00,M,OVC,M,M,M,200.00,M,M,M,BR,KGRI 011500Z AUTO 10006KT 1SM BR OVC002 A3021 RMK MADISHF
GRI,2017-04-01 15:05,-98.3096,40.9675,M,M,M,100.00,5.00,M,30.21,M,1.00,M,OVC,M,M,M,200.00,M,M,M,BR,KGRI 011505Z AUTO 10005KT 1SM BR OVC002 A3021 RMK MADISHF
GRI,2017-04-01 15:10,-98.3096,40.9675,M,M,M,90.00,7.00,M,30.20,M,1.00,M,OVC,M,M,M,300.00,M,M,M,BR,KGRI 011510Z AUTO 09007KT 1SM BR OVC003 A3020 RMK MADISHF
GRI,2017-04-01 15:15,-98.3096,40.9675,M,M,M,80.00,6.00,M,30.20,M,1.00,M,OVC,M,M,M,300.00,M,M,M,BR,KGRI 011515Z AUTO 08006KT 1SM BR OVC003 A3020 RMK MADISHF
GRI,2017-04-01 15:20,-98.3096,40.9675,M,M,M,90.00,6.00,M,30.20,M,1.00,M,OVC,M,M,M,300.00,M,M,M,BR,KGRI 011520Z AUTO 09006KT 1SM BR OVC003 A3020 RMK MADISHF
GRI,2017-04-01 15:25,-98.3096,40.9675,M,M,M,80.00,7.00,M,30.20,M,1.00,M,OVC,M,M,M,300.00,M,M,M,BR,KGRI 011525Z AUTO 08007KT 1SM BR OVC003 A3020 RMK MADISHF
GRI,2017-04-01 15:30,-98.3096,40.9675,M,M,M,90.00,8.00,M,30.20,M,1.00,M,OVC,M,M,M,300.00,M,M,M,BR,KGRI 011530Z AUTO 09008KT 1SM BR OVC003 A3020 RMK MADISHF
GRI,2017-04-01 15:35,-98.3096,40.9675,M,M,M,80.00,7.00,M,30.20,M,1.00,M,OVC,M,M,M,300.00,M,M,M,BR,KGRI 011535Z AUTO 08007KT 1SM BR OVC003 A3020 RMK MADISHF
GRI,2017-04-01 15:40,-98.3096,40.9675,M,M,M,80.00,6.00,M,30.21,M,1.00,M,OVC,M,M,M,300.00,M,M,M,BR,KGRI 011540Z AUTO 08006KT 1SM BR OVC003 A3021 RMK MADISHF
GRI,2017-04-01 15:45,-98.3096,40.9675,M,M,M,80.00,7.00,M,30.21,M,1.00,M,OVC,M,M,M,300.00,M,M,M,BR,KGRI 011545Z AUTO 08007KT 1SM BR OVC003 A3021 RMK MADISHF
GRI,2017-04-01 15:50,-98.3096,40.9675,M,M,M,80.00,7.00,M,30.20,M,1.50,M,OVC,M,M,M,300.00,M,M,M,BR,KGRI 011550Z AUTO 08007KT 1 1/2SM BR OVC003 A3020 RMK MADISHF
GRI,2017-04-01 15:53,-98.3096,40.9675,41.00,41.00,100.00,70.00,6.00,0.00,30.20,1024.00,1.50,M,OVC,M,M,M,300.00,M,M,M,BR,KGRI 011553Z 07006KT 1 1/2SM BR OVC003 05/05 A3020 RMK AO2 SLP240 T00500050
GRI,2017-04-01 15:55,-98.3096,40.9675,M,M,M,80.00,8.00,M,30.20,M,1.50,M,OVC,M,M,M,300.00,M,M,M,BR,KGRI 011555Z AUTO 08008KT 1 1/2SM BR OVC003 A3020 RMK MADISHF
GRI,2017-04-01 16:00,-98.3096,40.9675,M,M,M,80.00,7.00,M,30.20,M,1.50,M,OVC,M,M,M,300.00,M,M,M,BR,KGRI 011600Z AUTO 08007KT 1 1/2SM BR OVC003 A3020 RMK MADISHF
GRI,2017-04-01 16:05,-98.3096,40.9675,M,M,M,80.00,6.00,M,30.20,M,1.50,M,OVC,M,M,M,400.00,M,M,M,BR,KGRI 011605Z AUTO 08006KT 1 1/2SM BR OVC004 A3020 RMK MADISHF
GRI,2017-04-01 16:10,-98.3096,40.9675,M,M,M,80.00,8.00,M,30.20,M,1.50,M,OVC,M,M,M,400.00,M,M,M,BR,KGRI 011610Z AUTO 08008KT 1 1/2SM BR OVC004 A3020 RMK MADISHF
GRI,2017-04-01 16:15,-98.3096,40.9675,M,M,M,70.00,8.00,M,30.19,M,1.50,M,OVC,M,M,M,400.00,M,M,M,BR,KGRI 011615Z AUTO 07008KT 1 1/2SM BR OVC004 A3019 RMK MADISHF
GRI,2017-04-01 16:20,-98.3096,40.9675,M,M,M,70.00,10.00,M,30.19,M,1.50,M,OVC,M,M,M,400.00,M,M,M,BR,KGRI 011620Z AUTO 07010KT 1 1/2SM BR OVC004 A3019 RMK MADISHF
GRI,2017-04-01 16:25,-98.3096,40.9675,M,M,M,80.00,10.00,M,30.19,M,3.00,M,OVC,M,M,M,400.00,M,M,M,BR,KGRI 011625Z AUTO 08010KT 3SM BR OVC004 A3019 RMK MADISHF
GRI,2017-04-01 16:30,-98.3096,40.9675,42.10,41.00,95.84,80.00,7.00,0.00,30.19,M,3.00,M,OVC,M,M,M,400.00,M,M,M,BR,KGRI 011630Z 08007KT 3SM BR OVC004 06/05 A3019 RMK AO2 T00560050
GRI,2017-04-01 16:35,-98.3096,40.9675,M,M,M,60.00,5.00,M,30.20,M,3.00,M,OVC,M,M,M,499.00,M,M,M,BR,KGRI 011635Z AUTO 06005KT 3SM BR OVC004 A3020 RMK MADISHF
GRI,2017-04-01 16:38,-98.3096,40.9675,42.10,41.00,95.84,90.00,5.00,0.00,30.20,M,3.00,M,OVC,M,M,M,500.00,M,M,M,BR,KGRI 011638Z 09005KT 3SM BR OVC005 06/05 A3020 RMK AO2 T00560050
GRI,2017-04-01 16:40,-98.3096,40.9675,M,M,M,80.00,5.00,M,30.20,M,3.00,M,OVC,M,M,M,499.00,M,M,M,BR,KGRI 011640Z AUTO 08005KT 3SM BR OVC004 A3020 RMK MADISHF
GRI,2017-04-01 16:45,-98.3096,40.9675,M,M,M,80.00,5.00,M,30.20,M,3.00,M,OVC,M,M,M,499.00,M,M,M,BR,KGRI 011645Z AUTO 08005KT 3SM BR OVC004 A3020 RMK MADISHF
GRI,2017-04-01 16:50,-98.3096,40.9675,M,M,M,60.00,7.00,M,30.19,M,3.00,M,OVC,M,M,M,499.00,M,M,M,BR,KGRI 011650Z AUTO 06007KT 3SM BR OVC004 A3019 RMK MADISHF
GRI,2017-04-01 16:53,-98.3096,40.9675,42.10,41.00,95.84,70.00,6.00,0.00,30.19,1023.90,3.00,M,OVC,M,M,M,600.00,M,M,M,BR,KGRI 011653Z 07006KT 3SM BR OVC006 06/05 A3019 RMK AO2 SLP239 T00560050
GRI,2017-04-01 16:55,-98.3096,40.9675,M,M,M,80.00,7.00,M,30.19,M,5.00,M,OVC,M,M,M,600.00,M,M,M,BR,KGRI 011655Z AUTO 08007KT 5SM BR OVC006 A3019 RMK MADISHF
GRI,2017-04-01 17:00,-98.3096,40.9675,M,M,M,70.00,7.00,M,30.18,M,5.00,M,OVC,M,M,M,600.00,M,M,M,BR,KGRI 011700Z AUTO 07007KT 5SM BR OVC006 A3018 RMK MADISHF
GRI,2017-04-01 17:05,-98.3096,40.9675,M,M,M,80.00,6.00,M,30.18,M,5.00,M,OVC,M,M,M,600.00,M,M,M,BR,KGRI 011705Z AUTO 08006KT 5SM BR OVC006 A3018 RMK MADISHF
GRI,2017-04-01 17:10,-98.3096,40.9675,M,M,M,70.00,8.00,M,30.18,M,5.00,M,OVC,M,M,M,600.00,M,M,M,BR,KGRI 011710Z AUTO 07008KT 5SM BR OVC006 A3018 RMK MADISHF
GRI,2017-04-01 17:15,-98.3096,40.9675,M,M,M,70.00,7.00,M,30.18,M,5.00,M,OVC,M,M,M,600.00,M,M,M,BR,KGRI 011715Z AUTO 07007KT 5SM BR OVC006 A3018 RMK MADISHF
GRI,2017-04-01 17:20,-98.3096,40.9675,M,M,M,100.00,7.00,M,30.19,M,5.00,M,OVC,M,M,M,600.00,M,M,M,BR,KGRI 011720Z AUTO 10007KT 5SM BR OVC006 A3019 RMK MADISHF
GRI,2017-04-01 17:25,-98.3096,40.9675,M,M,M,100.00,7.00,M,30.19,M,5.00,M,OVC,M,M,M,600.00,M,M,M,BR,KGRI 011725Z AUTO 10007KT 5SM BR OVC006 A3019 RMK MADISHF
GRI,2017-04-01 17:30,-98.3096,40.9675,M,M,M,100.00,5.00,M,30.19,M,5.00,M,OVC,M,M,M,600.00,M,M,M,BR,KGRI 011730Z AUTO 10005KT 5SM BR OVC006 A3019 RMK MADISHF
GRI,2017-04-01 17:35,-98.3096,40.9675,M,M,M,90.00,6.00,M,30.18,M,5.00,M,OVC,M,M,M,600.00,M,M,M,BR,KGRI 011735Z AUTO 09006KT 5SM BR OVC006 A3018 RMK MADISHF
GRI,2017-04-01 17:40,-98.3096,40.9675,M,M,M,80.00,5.00,M,30.18,M,5.00,M,OVC,M,M,M,600.00,M,M,M,BR,KGRI 011740Z AUTO 08005KT 5SM BR OVC006 A3018 RMK MADISHF
GRI,2017-04-01 17:45,-98.3096,40.9675,M,M,M,80.00,7.00,M,30.17,M,5.00,M,OVC,M,M,M,700.00,M,M,M,BR,KGRI 011745Z AUTO 08007KT 5SM BR OVC007 A3017 RMK MADISHF
GRI,2017-04-01 17:50,-98.3096,40.9675,M,M,M,70.00,7.00,M,30.16,M,5.00,M,OVC,M,M,M,700.00,M,M,M,BR,KGRI 011750Z AUTO 07007KT 5SM BR OVC007 A3016 RMK MADISHF
GRI,2017-04-01 17:53,-98.3096,40.9675,44.10,41.00,88.77,80.00,7.00,0.00,30.16,1022.80,5.00,M,OVC,M,M,M,700.00,M,M,M,BR,KGRI 011753Z 08007KT 5SM BR OVC007 07/05 A3016 RMK AO2 SLP228 T00670050 10067 20033 58018
GRI,2017-04-01 17:55,-98.3096,40.9675,M,M,M,70.00,9.00,M,30.16,M,8.00,M,OVC,M,M,M,700.00,M,M,M,M,KGRI 011755Z AUTO 07009KT 8SM OVC007 A3016 RMK MADISHF
GRI,2017-04-01 18:00,-98.3096,40.9675,M,M,M,80.00,6.00,M,30.17,M,8.00,M,OVC,M,M,M,700.00,M,M,M,M,KGRI 011800Z AUTO 08006KT 8SM OVC007 A3017 RMK MADISHF
GRI,2017-04-01 18:05,-98.3096,40.9675,M,M,M,90.00,6.00,M,30.17,M,8.00,M,OVC,M,M,M,700.00,M,M,M,M,KGRI 011805Z AUTO 09006KT 8SM OVC007 A3017 RMK MADISHF
GRI,2017-04-01 18:10,-98.3096,40.9675,M,M,M,90.00,6.00,M,30.17,M,8.00,M,OVC,M,M,M,700.00,M,M,M,M,KGRI 011810Z AUTO 09006KT 8SM OVC007 A3017 RMK MADISHF
GRI,2017-04-01 18:15,-98.3096,40.9675,M,M,M,60.00,6.00,M,30.17,M,8.00,M,OVC,M,M,M,800.00,M,M,M,M,KGRI 011815Z AUTO 06006KT 8SM OVC008 A3017 RMK MADISHF
GRI,2017-04-01 18:20,-98.3096,40.9675,M,M,M,90.00,6.00,M,30.16,M,8.00,M,OVC,M,M,M,800.00,M,M,M,M,KGRI 011820Z AUTO 09006KT 8SM OVC008 A3016 RMK MADISHF
GRI,2017-04-01 18:25,-98.3096,40.9675,M,M,M,60.00,7.00,M,30.16,M,8.00,M,OVC,M,M,M,800.00,M,M,M,M,KGRI 011825Z AUTO 06007KT 8SM OVC008 A3016 RMK MADISHF
GRI,2017-04-01 18:30,-98.3096,40.9675,M,M,M,80.00,5.00,M,30.17,M,8.00,M,OVC,M,M,M,800.00,M,M,M,M,KGRI 011830Z AUTO 08005KT 8SM OVC008 A3017 RMK MADISHF
GRI,2017-04-01 18:35,-98.3096,40.9675,M,M,M,100.00,6.00,M,30.17,M,9.00,M,OVC,M,M,M,800.00,M,M,M,M,KGRI 011835Z AUTO 10006KT 9SM OVC008 A3017 RMK CIG 8V12  MADISHF
GRI,2017-04-01 18:40,-98.3096,40.9675,M,M,M,110.00,6.00,M,30.18,M,9.00,M,BKN,OVC,M,M,800.00,1400.00,M,M,M,KGRI 011840Z AUTO 11006KT 9SM BKN008 OVC014 A3018 RMK CIG 8V11  MADISHF
GRI,2017-04-01 18:45,-98.3096,40.9675,M,M,M,120.00,5.00,M,30.19,M,9.00,M,OVC,M,M,M,999.00,M,M,M,M,KGRI 011845Z AUTO 12005KT 9SM OVC009 A3019 RMK MADISHF
GRI,2017-04-01 18:50,-98.3096,40.9675,M,M,M,140.00,7.00,M,30.19,M,9.00,M,OVC,M,M,M,999.00,M,M,M,M,KGRI 011850Z AUTO 14007KT 9SM OVC009 A3019 RMK MADISHF
GRI,2017-04-01 18:53,-98.3096,40.9675,45.00,41.00,85.77,140.00,5.00,0.00,30.19,1023.60,8.00,M,BKN,OVC,M,M,1000.00,1700.00,M,M,M,KGRI 011853Z 14005KT 8SM BKN010 OVC017 07/05 A3019 RMK AO2 SLP236 T00720050
GRI,2017-04-01 18:55,-98.3096,40.9675,M,M,M,140.00,5.00,M,30.19,M,8.00,M,BKN,OVC,M,M,1200.00,1699.00,M,M,M,KGRI 011855Z AUTO 14005KT 8SM BKN012 OVC016 A3019 RMK MADISHF
GRI,2017-04-01 19:00,-98.3096,40.9675,M,M,M,140.00,5.00,M,30.19,M,8.00,M,OVC,M,M,M,1400.00,M,M,M,M,KGRI 011900Z AUTO 14005KT 8SM OVC014 A3019 RMK MADISHF
GRI,2017-04-01 19:05,-98.3096,40.9675,M,M,M,150.00,4.00,M,30.19,M,8.00,M,OVC,M,M,M,1400.00,M,M,M,M,KGRI 011905Z AUTO 15004KT 8SM OVC014 A3019 RMK MADISHF
GRI,2017-04-01 19:10,-98.3096,40.9675,M,M,M,120.00,4.00,M,30.18,M,8.00,M,OVC,M,M,M,1400.00,M,M,M,M,KGRI 011910Z AUTO 12004KT 8SM OVC014 A3018 RMK MADISHF
GRI,2017-04-01 19:15,-98.3096,40.9675,M,M,M,110.00,3.00,M,30.18,M,9.00,M,OVC,M,M,M,1500.00,M,M,M,M,KGRI 011915Z AUTO 11003KT 9SM OVC015 A3018 RMK MADISHF
GRI,2017-04-01 19:20,-98.3096,40.9675,M,M,M,120.00,4.00,M,30.18,M,9.00,M,OVC,M,M,M,1500.00,M,M,M,M,KGRI 011920Z AUTO 12004KT 9SM OVC015 A3018 RMK MADISHF
GRI,2017-04-01 19:21,-98.3096,40.9675,45.00,41.00,85.77,120.00,3.00,0.00,30.18,M,10.00,M,OVC,M,M,M,1500.00,M,M,M,M,KGRI 011921Z 12003KT 10SM OVC015 07/05 A3018 RMK AO2 T00720050
GRI,2017-04-01 19:25,-98.3096,40.9675,M,M,M,110.00,5.00,M,30.18,M,10.00,M,OVC,M,M,M,1500.00,M,M,M,M,KGRI 011925Z AUTO 11005KT 10SM OVC015 A3018 RMK MADISHF
GRI,2017-04-01 19:30,-98.3096,40.9675,M,M,M,130.00,6.00,M,30.18,M,10.00,M,OVC,M,M,M,1500.00,M,M,M,M,KGRI 011930Z AUTO 13006KT 10SM OVC015 A3018 RMK MADISHF
GRI,2017-04-01 19:35,-98.3096,40.9675,M,M,M,130.00,5.00,M,30.18,M,10.00,M,OVC,M,M,M,1500.00,M,M,M,M,KGRI 011935Z AUTO 13005KT 10SM OVC015 A3018 RMK MADISHF
GRI,2017-04-01 19:40,-98.3096,40.9675,M,M,M,130.00,5.00,M,30.18,M,10.00,M,OVC,M,M,M,1500.00,M,M,M,M,KGRI 011940Z AUTO 13005KT 10SM OVC015 A3018 RMK MADISHF
GRI,2017-04-01 19:45,-98.3096,40.9675,M,M,M,100.00,5.00,M,30.17,M,10.00,M,OVC,M,M,M,1500.00,M,M,M,M,KGRI 011945Z AUTO 10005KT 10SM OVC015 A3017 RMK MADISHF
GRI,2017-04-01 19:50,-98.3096,40.9675,M,M,M,110.00,6.00,M,30.17,M,10.00,M,OVC,M,M,M,1500.00,M,M,M,M,KGRI 011950Z AUTO 11006KT 10SM OVC015 A3017 RMK MADISHF
GRI,2017-04-01 19:53,-98.3096,40.9675,45.00,41.00,85.77,110.00,6.00,0.00,30.17,1022.90,10.00,M,OVC,M,M,M,1600.00,M,M,M,M,KGRI 011953Z 11006KT 10SM OVC016 07/05 A3017 RMK AO2 SLP229 T00720050
GRI,2017-04-01 19:55,-98.3096,40.9675,M,M,M,100.00,5.00,M,30.17,M,10.00,M,OVC,M,M,M,1600.00,M,M,M,M,KGRI 011955Z AUTO 10005KT 10SM OVC016 A3017 RMK MADISHF
GRI,2017-04-01 20:00,-98.3096,40.9675,M,M,M,90.00,6.00,M,30.16,M,10.00,M,OVC,M,M,M,1600.00,M,M,M,M,KGRI 012000Z AUTO 09006KT 10SM OVC016 A3016 RMK MADISHF
GRI,2017-04-01 20:05,-98.3096,40.9675,M,M,M,90.00,6.00,M,30.16,M,10.00,M,OVC,M,M,M,1500.00,M,M,M,M,KGRI 012005Z AUTO 09006KT 10SM OVC015 A3016 RMK MADISHF
GRI,2017-04-01 20:10,-98.3096,40.9675,M,M,M,70.00,3.00,M,30.16,M,10.00,M,OVC,M,M,M,1500.00,M,M,M,M,KGRI 012010Z AUTO 07003KT 10SM OVC015 A3016 RMK MADISHF
GRI,2017-04-01 20:15,-98.3096,40.9675,M,M,M,100.00,4.00,M,30.16,M,10.00,M,OVC,M,M,M,1500.00,M,M,M,M,KGRI 012015Z AUTO 10004KT 10SM OVC015 A3016 RMK MADISHF
GRI,2017-04-01 20:20,-98.3096,40.9675,M,M,M,0.00,0.00,M,30.16,M,10.00,M,OVC,M,M,M,1500.00,M,M,M,M,KGRI 012020Z AUTO 00000KT 10SM OVC015 A3016 RMK MADISHF
GRI,2017-04-01 20:25,-98.3096,40.9675,M,M,M,0.00,0.00,M,30.17,M,10.00,M,OVC,M,M,M,1400.00,M,M,M,M,KGRI 012025Z AUTO 00000KT 10SM OVC014 A3017 RMK MADISHF
GRI,2017-04-01 20:30,-98.3096,40.9675,M,M,M,0.00,0.00,M,30.17,M,10.00,M,OVC,M,M,M,1400.00,M,M,M,M,KGRI 012030Z AUTO 00000KT 10SM OVC014 A3017 RMK MADISHF
GRI,2017-04-01 20:35,-98.3096,40.9675,M,M,M,20.00,4.00,M,30.16,M,10.00,M,OVC,M,M,M,1400.00,M,M,M,M,KGRI 012035Z AUTO 02004KT 10SM OVC014 A3016 RMK MADISHF
GRI,2017-04-01 20:40,-98.3096,40.9675,M,M,M,20.00,4.00,M,30.16,M,10.00,M,OVC,M,M,M,1400.00,M,M,M,M,KGRI 012040Z AUTO 02004KT 10SM OVC014 A3016 RMK MADISHF
GRI,2017-04-01 20:45,-98.3096,40.9675,M,M,M,20.00,5.00,M,30.15,M,10.00,M,OVC,M,M,M,1400.00,M,M,M,M,KGRI 012045Z AUTO 02005KT 10SM OVC014 A3015 RMK MADISHF
GRI,2017-04-01 20:50,-98.3096,40.9675,M,M,M,30.00,6.00,M,30.15,M,10.00,M,OVC,M,M,M,1600.00,M,M,M,M,KGRI 012050Z AUTO 03006KT 10SM OVC016 A3015 RMK MADISHF
GRI,2017-04-01 20:53,-98.3096,40.9675,45.00,41.00,85.77,30.00,6.00,0.00,30.15,1022.30,10.00,M,OVC,M,M,M,1600.00,M,M,M,M,KGRI 012053Z 03006KT 10SM OVC016 07/05 A3015 RMK AO2 SLP223 T00720050 58005
GRI,2017-04-01 20:55,-98.3096,40.9675,M,M,M,30.00,6.00,M,30.15,M,10.00,M,OVC,M,M,M,1600.00,M,M,M,M,KGRI 012055Z AUTO 03006KT 10SM OVC016 A3015 RMK MADISHF
GRI,2017-04-01 21:00,-98.3096,40.9675,M,M,M,60.00,6.00,M,30.15,M,10.00,M,OVC,M,M,M,1600.00,M,M,M,M,KGRI 012100Z AUTO 06006KT 10SM OVC016 A3015 RMK MADISHF
GRI,2017-04-01 21:05,-98.3096,40.9675,M,M,M,50.00,4.00,M,30.15,M,10.00,M,OVC,M,M,M,1600.00,M,M,M,M,KGRI 012105Z AUTO 05004KT 10SM OVC016 A3015 RMK MADISHF
GRI,2017-04-01 21:10,-98.3096,40.9675,M,M,M,60.00,5.00,M,30.15,M,10.00,M,OVC,M,M,M,1600.00,M,M,M,M,KGRI 012110Z AUTO 06005KT 10SM OVC016 A3015 RMK MADISHF
GRI,2017-04-01 21:15,-98.3096,40.9675,M,M,M,60.00,7.00,M,30.14,M,10.00,M,OVC,M,M,M,1699.00,M,M,M,M,KGRI 012115Z AUTO 06007KT 10SM OVC016 A3014 RMK MADISHF
GRI,2017-04-01 21:20,-98.3096,40.9675,M,M,M,80.00,7.00,M,30.14,M,10.00,M,OVC,M,M,M,1699.00,M,M,M,M,KGRI 012120Z AUTO 08007KT 10SM OVC016 A3014 RMK MADISHF
GRI,2017-04-01 21:25,-98.3096,40.9675,M,M,M,70.00,9.00,M,30.14,M,10.00,M,OVC,M,M,M,1699.00,M,M,M,M,KGRI 012125Z AUTO 07009KT 10SM OVC016 A3014 RMK MADISHF
GRI,2017-04-01 21:30,-98.3096,40.9675,M,M,M,70.00,9.00,M,30.13,M,10.00,M,OVC,M,M,M,1699.00,M,M,M,M,KGRI 012130Z AUTO 07009KT 10SM OVC016 A3013 RMK MADISHF
GRI,2017-04-01 21:35,-98.3096,40.9675,M,M,M,70.00,9.00,M,30.13,M,10.00,M,OVC,M,M,M,1600.00,M,M,M,M,KGRI 012135Z AUTO 07009KT 10SM OVC016 A3013 RMK MADISHF
GRI,2017-04-01 21:40,-98.3096,40.9675,M,M,M,80.00,9.00,M,30.13,M,9.00,M,OVC,M,M,M,1600.00,M,M,M,M,KGRI 012140Z AUTO 08009KT 9SM OVC016 A3013 RMK MADISHF
GRI,2017-04-01 21:45,-98.3096,40.9675,M,M,M,80.00,7.00,M,30.13,M,9.00,M,OVC,M,M,M,1600.00,M,M,M,M,KGRI 012145Z AUTO 08007KT 9SM OVC016 A3013 RMK MADISHF
GRI,2017-04-01 21:50,-98.3096,40.9675,M,M,M,70.00,7.00,M,30.13,M,8.00,M,OVC,M,M,M,1600.00,M,M,M,M,KGRI 012150Z AUTO 07007KT 8SM OVC016 A3013 RMK MADISHF
GRI,2017-04-01 21:53,-98.3096,40.9675,45.00,41.00,85.77,90.00,7.00,0.00,30.14,1022.00,7.00,M,OVC,M,M,M,1600.00,M,M,M,M,KGRI 012153Z 09007KT 7SM OVC016 07/05 A3014 RMK AO2 SLP220 T00720050
GRI,2017-04-01 21:55,-98.3096,40.9675,M,M,M,80.00,8.00,M,30.14,M,7.00,M,OVC,M,M,M,1600.00,M,M,M,M,KGRI 012155Z AUTO 08008KT 7SM OVC016 A3014 RMK MADISHF
GRI,2017-04-01 22:00,-98.3096,40.9675,M,M,M,90.00,6.00,M,30.14,M,7.00,M,OVC,M,M,M,1500.00,M,M,M,M,KGRI 012200Z AUTO 09006KT 7SM OVC015 A3014 RMK MADISHF
GRI,2017-04-01 22:05,-98.3096,40.9675,M,M,M,90.00,7.00,M,30.14,M,6.00,M,OVC,M,M,M,1500.00,M,M,M,-RA BR,KGRI 012205Z AUTO 09007KT 6SM -RA BR OVC015 A3014 RMK MADISHF
GRI,2017-04-01 22:10,-98.3096,40.9675,M,M,M,100.00,8.00,M,30.14,M,5.00,M,OVC,M,M,M,1500.00,M,M,M,-RA BR,KGRI 012210Z AUTO 10008KT 5SM -RA BR OVC015 A3014 RMK MADISHF
GRI,2017-04-01 22:15,-98.3096,40.9675,M,M,M,110.00,7.00,M,30.14,M,5.00,M,OVC,M,M,M,1500.00,M,M,M,-RA BR,KGRI 012215Z AUTO 11007KT 5SM -RA BR OVC015 A3014 RMK MADISHF
GRI,2017-04-01 22:20,-98.3096,40.9675,M,M,M,100.00,9.00,M,30.13,M,5.00,M,OVC,M,M,M,1500.00,M,M,M,-RA BR,KGRI 012220Z AUTO 10009KT 5SM -RA BR OVC015 A3013 RMK MADISHF
GRI,2017-04-01 22:25,-98.3096,40.9675,M,M,M,110.00,7.00,M,30.13,M,5.00,M,OVC,M,M,M,1500.00,M,M,M,-RA BR,KGRI 012225Z AUTO 11007KT 5SM -RA BR OVC015 A3013 RMK MADISHF
GRI,2017-04-01 22:30,-98.3096,40.9675,M,M,M,100.00,8.00,M,30.12,M,4.00,M,OVC,M,M,M,1500.00,M,M,M,-RA BR,KGRI 012230Z AUTO 10008KT 4SM -RA BR OVC015 A3012 RMK MADISHF
GRI,2017-04-01 22:35,-98.3096,40.9675,M,M,M,100.00,9.00,M,30.12,M,4.00,M,OVC,M,M,M,1500.00,M,M,M,-RA BR,KGRI 012235Z AUTO 10009KT 4SM -RA BR OVC015 A3012 RMK MADISHF
GRI,2017-04-01 22:40,-98.3096,40.9675,M,M,M,90.00,9.00,M,30.11,M,4.00,M,OVC,M,M,M,1500.00,M,M,M,-RA BR,KGRI 012240Z AUTO 09009KT 4SM -RA BR OVC015 A3011 RMK MADISHF
GRI,2017-04-01 22:45,-98.3096,40.9675,M,M,M,70.00,10.00,M,30.10,M,4.00,M,OVC,M,M,M,1600.00,M,M,M,-RA BR,KGRI 012245Z AUTO 07010KT 4SM -RA BR OVC016 A3010 RMK MADISHF
GRI,2017-04-01 22:50,-98.3096,40.9675,M,M,M,70.00,9.00,M,30.10,M,4.00,M,OVC,M,M,M,1600.00,M,M,M,-RA BR,KGRI 012250Z AUTO 07009KT 4SM -RA BR OVC016 A3010 RMK MADISHF
GRI,2017-04-01 22:53,-98.3096,40.9675,44.10,42.10,92.62,70.00,8.00,0.00,30.10,1020.60,4.00,M,OVC,M,M,M,1600.00,M,M,M,BR,KGRI 012253Z 07008KT 4SM BR OVC016 07/06 A3010 RMK AO2 RAB03E51 SLP206 P0000 T00670056
GRI,2017-04-01 22:55,-98.3096,40.9675,M,M,M,60.00,9.00,M,30.10,M,4.00,M,OVC,M,M,M,1600.00,M,M,M,BR,KGRI 012255Z AUTO 06009KT 4SM BR OVC016 A3010 RMK MADISHF
GRI,2017-04-01 23:05,-98.3096,40.9675,M,M,M,80.00,6.00,M,30.12,M,5.00,M,OVC,M,M,M,1600.00,M,M,M,BR,KGRI 012305Z AUTO 08006KT 5SM BR OVC016 A3012 RMK MADISHF
GRI,2017-04-01 23:10,-98.3096,40.9675,M,M,M,80.00,7.00,M,30.13,M,5.00,M,OVC,M,M,M,1500.00,M,M,M,BR,KGRI 012310Z AUTO 08007KT 5SM BR OVC015 A3013 RMK MADISHF
GRI,2017-04-01 23:15,-98.3096,40.9675,M,M,M,60.00,7.00,M,30.12,M,5.00,M,OVC,M,M,M,1500.00,M,M,M,BR,KGRI 012315Z AUTO 06007KT 5SM BR OVC015 A3012 RMK MADISHF
GRI,2017-04-01 23:20,-98.3096,40.9675,M,M,M,90.00,5.00,M,30.13,M,5.00,M,OVC,M,M,M,1400.00,M,M,M,BR,KGRI 012320Z AUTO 09005KT 5SM BR OVC014 A3013 RMK MADISHF
GRI,2017-04-01 23:23,-98.3096,40.9675,44.10,42.10,92.62,100.00,6.00,0.00,30.14,M,5.00,M,OVC,M,M,M,1400.00,M,M,M,BR,KGRI 012323Z 10006KT 5SM BR OVC014 07/06 A3014 RMK AO2 T00670056
GRI,2017-04-01 23:25,-98.3096,40.9675,M,M,M,110.00,5.00,M,30.14,M,5.00,M,OVC,M,M,M,1400.00,M,M,M,BR,KGRI 012325Z AUTO 11005KT 5SM BR OVC014 A3014 RMK MADISHF
GRI,2017-04-01 23:30,-98.3096,40.9675,M,M,M,90.00,5.00,M,30.14,M,5.00,M,OVC,M,M,M,1400.00,M,M,M,BR,KGRI 012330Z AUTO 09005KT 5SM BR OVC014 A3014 RMK MADISHF
GRI,2017-04-01 23:35,-98.3096,40.9675,M,M,M,70.00,6.00,M,30.13,M,5.00,M,OVC,M,M,M,1400.00,M,M,M,BR,KGRI 012335Z AUTO 07006KT 5SM BR OVC014 A3013 RMK MADISHF
GRI,2017-04-01 23:40,-98.3096,40.9675,M,M,M,80.00,6.00,M,30.13,M,5.00,M,OVC,M,M,M,1400.00,M,M,M,BR,KGRI 012340Z AUTO 08006KT 5SM BR OVC014 A3013 RMK MADISHF
GRI,2017-04-01 23:45,-98.3096,40.9675,M,M,M,80.00,7.00,M,30.14,M,5.00,M,OVC,M,M,M,1400.00,M,M,M,BR,KGRI 012345Z AUTO 08007KT 5SM BR OVC014 A3014 RMK MADISHF
GRI,2017-04-01 23:50,-98.3096,40.9675,M,M,M,90.00,7.00,M,30.14,M,5.00,M,OVC,M,M,M,1400.00,M,M,M,BR,KGRI 012350Z AUTO 09007KT 5SM BR OVC014 A3014 RMK MADISHF
GRI,2017-04-01 23:53,-98.3096,40.9675,43.00,42.10,96.60,90.00,7.00,0.00,30.14,1022.00,5.00,M,OVC,M,M,M,1400.00,M,M,M,BR,KGRI 012353Z 09007KT 5SM BR OVC014 06/06 A3014 RMK AO2 SLP220 60000 T00610056 10078 20061 55003
GRI,2017-04-01 23:55,-98.3096,40.9675,M,M,M,90.00,7.00,M,30.14,M,5.00,M,OVC,M,M,M,1400.00,M,M,M,BR,KGRI 012355Z AUTO 09007KT 5SM BR OVC014 A3014 RMK MADISHF
