#DEBUG: Format Typ    -> comma
#DEBUG: Time Period   -> 2017-04-01 00:00:00+00:00 2017-04-02 00:00:00+00:00
#DEBUG: Time Zone     -> Etc/UTC
#DEBUG: Data Contact   -> daryl herzmann akrherz@iastate.edu 515-294-5978
#DEBUG: Entries Found -> -1
station,valid,lon,lat,tmpf, dwpf, relh, drct, sknt, p01i, alti, mslp, vsby, gust, skyc1, skyc2, skyc3, skyc4, skyl1, skyl2, skyl3, skyl4, presentwx, metar
GSH,2017-04-01 00:00,-85.7922,41.5272,M,M,M,350.00,10.00,M,29.88,M,5.00,17.00,OVC,M,M,M,1200.00,M,M,M,BR,KGSH 010000Z AUTO 35010G17KT 5SM BR OVC012 A2988 RMK MADISHF
GSH,2017-04-01 00:05,-85.7922,41.5272,M,M,M,360.00,8.00,M,29.89,M,6.00,M,OVC,M,M,M,1200.00,M,M,M,BR,KGSH 010005Z AUTO 36008KT 6SM BR OVC012 A2989 RMK MADISHF
GSH,2017-04-01 00:10,-85.7922,41.5272,M,M,M,360.00,8.00,M,29.89,M,7.00,M,OVC,M,M,M,1200.00,M,M,M,M,KGSH 010010Z AUTO 36008KT 7SM OVC012 A2989 RMK MADISHF
GSH,2017-04-01 00:15,-85.7922,41.5272,M,M,M,360.00,8.00,M,29.89,M,6.00,M,OVC,M,M,M,999.00,M,M,M,BR,KGSH 010015Z AUTO 36008KT 6SM BR OVC009 A2989 RMK MADISHF
GSH,2017-04-01 00:20,-85.7922,41.5272,M,M,M,360.00,9.00,M,29.89,M,5.00,M,OVC,M,M,M,1100.00,M,M,M,BR,KGSH 010020Z AUTO 36009KT 5SM BR OVC011 A2989 RMK CIG 6V14  MADISHF
GSH,2017-04-01 00:25,-85.7922,41.5272,M,M,M,360.00,9.00,M,29.90,M,4.00,M,BKN,OVC,M,M,800.00,1300.00,M,M,BR,KGSH 010025Z AUTO 36009KT 4SM BR BKN008 OVC013 A2990 RMK CIG 6V11  MADISHF
GSH,2017-04-01 00:30,-85.7922,41.5272,M,M,M,10.00,7.00,M,29.90,M,5.00,M,BKN,OVC,M,M,800.00,1300.00,M,M,BR,KGSH 010030Z AUTO 01007KT 5SM BR BKN008 OVC013 A2990 RMK CIG 6V12  MADISHF
GSH,2017-04-01 00:33,-85.7922,41.5272,39.00,35.10,85.76,360.00,8.00,0.00,29.90,M,5.00,M,BKN,OVC,M,M,800.00,1400.00,M,M,BR,KGSH 010033Z AUTO 36008KT 5SM BR BKN008 OVC014 04/02 A2990 RMK AO2 CIG 006V011 T00390017
GSH,2017-04-01 00:35,-85.7922,41.5272,M,M,M,10.00,6.00,M,29.90,M,5.00,M,OVC,M,M,M,800.00,M,M,M,BR,KGSH 010035Z AUTO 01006KT 5SM BR OVC008 A2990 RMK CIG 6V11  MADISHF
GSH,2017-04-01 00:40,-85.7922,41.5272,M,M,M,10.00,7.00,M,29.90,M,6.00,M,OVC,M,M,M,900.00,M,M,M,BR,KGSH 010040Z AUTO 01007KT 6SM BR OVC009 A2990 RMK CIG 6V14  MADISHF
GSH,2017-04-01 00:45,-85.7922,41.5272,M,M,M,360.00,8.00,M,29.90,M,6.00,M,BKN,OVC,M,M,900.00,1300.00,M,M,BR,KGSH 010045Z AUTO 36008KT 6SM BR BKN009 OVC013 A2990 RMK CIG 6V11  MADISHF
GSH,2017-04-01 00:50,-85.7922,41.5272,M,M,M,360.00,8.00,M,29.91,M,6.00,M,BKN,OVC,M,M,900.00,1300.00,M,M,BR,KGSH 010050Z AUTO 36008KT 6SM BR BKN009 OVC013 A2991 RMK CIG 6V11  MADISHF
GSH,2017-04-01 00:53,-85.7922,41.5272,39.00,35.10,85.76,360.00,8.00,0.00,29.91,1013.30,6.00,M,OVC,M,M,M,900.00,M,M,M,BR,KGSH 010053Z AUTO 36008KT 6SM BR OVC009 04/02 A2991 RMK AO2 CIG 006V013 SLP133 T00390017
GSH,2017-04-01 00:55,-85.7922,41.5272,M,M,M,360.00,7.00,M,29.91,M,6.00,M,OVC,M,M,M,900.00,M,M,M,BR,KGSH 010055Z AUTO 36007KT 6SM BR OVC009 A2991 RMK CIG 6V12  MADISHF
GSH,2017-04-01 01:00,-85.7922,41.5272,M,M,M,350.00,7.00,M,29.91,M,6.00,M,BKN,OVC,M,M,900.00,1300.00,M,M,BR,KGSH 010100Z AUTO 35007KT 6SM BR BKN009 OVC013 A2991 RMK CIG 6V11  MADISHF
GSH,2017-04-01 01:05,-85.7922,41.5272,M,M,M,350.00,9.00,M,29.92,M,6.00,M,BKN,OVC,M,M,900.00,1300.00,M,M,BR,KGSH 010105Z AUTO 35009KT 6SM BR BKN009 OVC013 A2992 RMK CIG 6V11  MADISHF
GSH,2017-04-01 01:10,-85.7922,41.5272,M,M,M,350.00,12.00,M,29.92,M,7.00,M,BKN,OVC,M,M,900.00,1300.00,M,M,M,KGSH 010110Z AUTO 35012KT 7SM BKN009 OVC013 A2992 RMK CIG 6V12  MADISHF
GSH,2017-04-01 01:15,-85.7922,41.5272,M,M,M,340.00,9.00,M,29.92,M,10.00,14.00,BKN,BKN,OVC,M,900.00,1300.00,2200.00,M,M,KGSH 010115Z AUTO 34009G14KT 10SM BKN009 BKN013 OVC022 A2992 RMK CIG 7V12  MADISHF
GSH,2017-04-01 01:20,-85.7922,41.5272,M,M,M,360.00,11.00,M,29.92,M,9.00,M,BKN,OVC,M,M,900.00,1300.00,M,M,M,KGSH 010120Z AUTO 36011KT 9SM BKN009 OVC013 A2992 RMK CIG 7V11  MADISHF
GSH,2017-04-01 01:25,-85.7922,41.5272,M,M,M,350.00,9.00,M,29.93,M,7.00,M,BKN,OVC,M,M,900.00,1400.00,M,M,M,KGSH 010125Z AUTO 35009KT 7SM BKN009 OVC014 A2993 RMK CIG 7V11  MADISHF
GSH,2017-04-01 01:30,-85.7922,41.5272,M,M,M,360.00,10.00,M,29.93,M,7.00,M,SCT,OVC,M,M,900.00,1400.00,M,M,M,KGSH 010130Z AUTO 36010KT 7SM SCT009 OVC014 A2993 RMK MADISHF
GSH,2017-04-01 01:31,-85.7922,41.5272,37.90,34.00,85.69,360.00,9.00,0.00,29.93,M,8.00,M,SCT,OVC,M,M,1100.00,1600.00,M,M,M,KGSH 010131Z AUTO 36009KT 8SM SCT011 OVC016 03/01 A2993 RMK AO2 T00330011
GSH,2017-04-01 01:35,-85.7922,41.5272,M,M,M,360.00,10.00,M,29.93,M,9.00,M,SCT,OVC,M,M,1100.00,1800.00,M,M,M,KGSH 010135Z AUTO 36010KT 9SM SCT011 OVC018 A2993 RMK MADISHF
GSH,2017-04-01 01:40,-85.7922,41.5272,M,M,M,360.00,8.00,M,29.93,M,10.00,M,SCT,OVC,M,M,1100.00,1800.00,M,M,M,KGSH 010140Z AUTO 36008KT 10SM SCT011 OVC018 A2993 RMK MADISHF
GSH,2017-04-01 01:45,-85.7922,41.5272,M,M,M,10.00,7.00,M,29.94,M,10.00,M,FEW,OVC,M,M,1100.00,1800.00,M,M,M,KGSH 010145Z AUTO 01007KT 10SM FEW011 OVC018 A2994 RMK MADISHF
GSH,2017-04-01 01:50,-85.7922,41.5272,M,M,M,360.00,8.00,M,29.94,M,10.00,M,FEW,OVC,M,M,1100.00,1800.00,M,M,M,KGSH 010150Z AUTO 36008KT 10SM FEW011 OVC018 A2994 RMK MADISHF
GSH,2017-04-01 01:53,-85.7922,41.5272,37.90,34.00,85.69,360.00,9.00,0.00,29.94,1014.40,10.00,M,OVC,M,M,M,1800.00,M,M,M,M,KGSH 010153Z AUTO 36009KT 10SM OVC018 03/01 A2994 RMK AO2 SLP144 T00330011
GSH,2017-04-01 01:55,-85.7922,41.5272,M,M,M,10.00,8.00,M,29.94,M,10.00,M,BKN,OVC,M,M,1500.00,1999.00,M,M,M,KGSH 010155Z AUTO 01008KT 10SM BKN015 OVC019 A2994 RMK MADISHF
GSH,2017-04-01 02:00,-85.7922,41.5272,M,M,M,360.00,7.00,M,29.94,M,10.00,M,BKN,OVC,M,M,1500.00,1999.00,M,M,M,KGSH 010200Z AUTO 36007KT 10SM BKN015 OVC019 A2994 RMK MADISHF
GSH,2017-04-01 02:05,-85.7922,41.5272,M,M,M,10.00,9.00,M,29.94,M,10.00,M,SCT,OVC,M,M,1100.00,1800.00,M,M,M,KGSH 010205Z AUTO 01009KT 10SM SCT011 OVC018 A2994 RMK MADISHF
GSH,2017-04-01 02:10,-85.7922,41.5272,M,M,M,10.00,9.00,M,29.94,M,10.00,M,BKN,OVC,M,M,1100.00,1600.00,M,M,M,KGSH 010210Z AUTO 01009KT 10SM BKN011 OVC016 A2994 RMK CIG 7V14  MADISHF
GSH,2017-04-01 02:12,-85.7922,41.5272,37.90,35.10,89.53,10.00,8.00,0.00,29.94,M,10.00,M,BKN,OVC,M,M,1100.00,1600.00,M,M,M,KGSH 010212Z AUTO 01008KT 10SM BKN011 OVC016 03/02 A2994 RMK AO2 CIG 007V014 T00330017
GSH,2017-04-01 02:15,-85.7922,41.5272,M,M,M,10.00,7.00,M,29.95,M,10.00,M,BKN,OVC,M,M,900.00,1400.00,M,M,M,KGSH 010215Z AUTO 01007KT 10SM BKN009 OVC014 A2995 RMK MADISHF
GSH,2017-04-01 02:20,-85.7922,41.5272,M,M,M,10.00,7.00,M,29.95,M,9.00,M,BKN,OVC,M,M,900.00,1400.00,M,M,M,KGSH 010220Z AUTO 01007KT 9SM BKN009 OVC014 A2995 RMK CIG 6V10  MADISHF
GSH,2017-04-01 02:21,-85.7922,41.5272,37.90,35.10,89.53,10.00,6.00,0.00,29.95,M,9.00,M,BKN,OVC,M,M,900.00,1400.00,M,M,M,KGSH 010221Z AUTO 01006KT 9SM BKN009 OVC014 03/02 A2995 RMK AO2 CIG 006V010 T00330017
GSH,2017-04-01 02:25,-85.7922,41.5272,M,M,M,10.00,9.00,M,29.95,M,8.00,M,BKN,OVC,M,M,900.00,1400.00,M,M,M,KGSH 010225Z AUTO 01009KT 8SM BKN009 OVC014 A2995 RMK CIG 6V10  MADISHF
GSH,2017-04-01 02:30,-85.7922,41.5272,M,M,M,360.00,7.00,M,29.95,M,9.00,M,BKN,OVC,M,M,800.00,1300.00,M,M,M,KGSH 010230Z AUTO 36007KT 9SM BKN008 OVC013 A2995 RMK CIG 6V10  MADISHF
GSH,2017-04-01 02:35,-85.7922,41.5272,M,M,M,10.00,9.00,M,29.95,M,10.00,M,BKN,OVC,M,M,800.00,1400.00,M,M,M,KGSH 010235Z AUTO 01009KT 10SM BKN008 OVC014 A2995 RMK CIG 6V11  MADISHF
GSH,2017-04-01 02:40,-85.7922,41.5272,M,M,M,10.00,8.00,M,29.95,M,10.00,M,FEW,BKN,OVC,M,700.00,1300.00,3200.00,M,M,KGSH 010240Z AUTO 01008KT 10SM FEW007 BKN013 OVC032 A2995 RMK MADISHF
GSH,2017-04-01 02:43,-85.7922,41.5272,37.90,34.00,85.69,10.00,9.00,0.00,29.95,M,10.00,M,SCT,BKN,OVC,M,900.00,1500.00,3200.00,M,M,KGSH 010243Z AUTO 01009KT 10SM SCT009 BKN015 OVC032 03/01 A2995 RMK AO2 T00330011
GSH,2017-04-01 02:45,-85.7922,41.5272,M,M,M,10.00,10.00,M,29.95,M,10.00,M,SCT,BKN,OVC,M,900.00,1500.00,3200.00,M,M,KGSH 010245Z AUTO 01010KT 10SM SCT009 BKN015 OVC032 A2995 RMK MADISHF
GSH,2017-04-01 02:50,-85.7922,41.5272,M,M,M,10.00,7.00,M,29.95,M,10.00,M,SCT,BKN,OVC,M,900.00,1500.00,3200.00,M,M,KGSH 010250Z AUTO 01007KT 10SM SCT009 BKN015 OVC032 A2995 RMK CIG 13V24  MADISHF
GSH,2017-04-01 02:53,-85.7922,41.5272,37.90,33.10,82.66,10.00,9.00,0.00,29.95,1014.90,10.00,M,SCT,BKN,OVC,M,1100.00,1500.00,3200.00,M,M,KGSH 010253Z AUTO 01009KT 10SM SCT011 BKN015 OVC032 03/01 A2995 RMK AO2 CIG 013V024 SLP149 T00330006 51024
GSH,2017-04-01 02:55,-85.7922,41.5272,M,M,M,10.00,8.00,M,29.95,M,10.00,M,SCT,BKN,OVC,M,1300.00,2100.00,3200.00,M,M,KGSH 010255Z AUTO 01008KT 10SM SCT013 BKN021 OVC032 A2995 RMK MADISHF
GSH,2017-04-01 03:00,-85.7922,41.5272,M,M,M,10.00,9.00,M,29.96,M,10.00,M,BKN,BKN,OVC,M,1300.00,2100.00,3200.00,M,M,KGSH 010300Z AUTO 01009KT 10SM BKN013 BKN021 OVC032 A2996 RMK MADISHF
GSH,2017-04-01 03:05,-85.7922,41.5272,37.90,33.10,82.66,10.00,7.00,0.00,29.96,M,10.00,M,BKN,OVC,M,M,1300.00,3200.00,M,M,M,KGSH 010305Z AUTO 01007KT 10SM BKN013 OVC032 03/01 A2996 RMK AO2 T00330006
GSH,2017-04-01 03:10,-85.7922,41.5272,M,M,M,360.00,8.00,M,29.96,M,10.00,M,BKN,OVC,M,M,1300.00,3200.00,M,M,M,KGSH 010310Z AUTO 36008KT 10SM BKN013 OVC032 A2996 RMK MADISHF
GSH,2017-04-01 03:15,-85.7922,41.5272,M,M,M,360.00,8.00,M,29.96,M,10.00,M,BKN,OVC,M,M,1300.00,3200.00,M,M,M,KGSH 010315Z AUTO 36008KT 10SM BKN013 OVC032 A2996 RMK MADISHF
GSH,2017-04-01 03:20,-85.7922,41.5272,M,M,M,350.00,8.00,M,29.96,M,10.00,M,OVC,M,M,M,1200.00,M,M,M,M,KGSH 010320Z AUTO 35008KT 10SM OVC012 A2996 RMK MADISHF
GSH,2017-04-01 03:25,-85.7922,41.5272,M,M,M,360.00,9.00,M,29.96,M,10.00,M,OVC,M,M,M,1200.00,M,M,M,M,KGSH 010325Z AUTO 36009KT 10SM OVC012 A2996 RMK MADISHF
GSH,2017-04-01 03:30,-85.7922,41.5272,M,M,M,350.00,8.00,M,29.96,M,10.00,M,OVC,M,M,M,1200.00,M,M,M,M,KGSH 010330Z AUTO 35008KT 10SM OVC012 A2996 RMK MADISHF
GSH,2017-04-01 03:35,-85.7922,41.5272,M,M,M,350.00,9.00,M,29.96,M,10.00,M,OVC,M,M,M,1200.00,M,M,M,M,KGSH 010335Z AUTO 35009KT 10SM OVC012 A2996 RMK MADISHF
GSH,2017-04-01 03:40,-85.7922,41.5272,M,M,M,360.00,7.00,M,29.96,M,10.00,M,OVC,M,M,M,1200.00,M,M,M,M,KGSH 010340Z AUTO 36007KT 10SM OVC012 A2996 RMK MADISHF
GSH,2017-04-01 03:45,-85.7922,41.5272,M,M,M,350.00,8.00,M,29.97,M,10.00,M,BKN,OVC,M,M,1200.00,4500.00,M,M,M,KGSH 010345Z AUTO 35008KT 10SM BKN012 OVC045 A2997 RMK MADISHF
GSH,2017-04-01 03:50,-85.7922,41.5272,M,M,M,350.00,8.00,M,29.97,M,10.00,M,BKN,OVC,M,M,1400.00,4500.00,M,M,M,KGSH 010350Z AUTO 35008KT 10SM BKN014 OVC045 A2997 RMK MADISHF
GSH,2017-04-01 03:53,-85.7922,41.5272,37.90,34.00,85.69,350.00,9.00,0.00,29.97,1015.50,10.00,M,BKN,BKN,OVC,M,1200.00,1700.00,4500.00,M,M,KGSH 010353Z AUTO 35009KT 10SM BKN012 BKN017 OVC045 03/01 A2997 RMK AO2 SLP155 T00330011
GSH,2017-04-01 03:55,-85.7922,41.5272,M,M,M,350.00,9.00,M,29.97,M,10.00,M,BKN,OVC,M,M,1200.00,1699.00,M,M,M,KGSH 010355Z AUTO 35009KT 10SM BKN012 OVC016 A2997 RMK MADISHF
GSH,2017-04-01 04:00,-85.7922,41.5272,M,M,M,350.00,7.00,M,29.98,M,10.00,M,BKN,BKN,OVC,M,1200.00,1699.00,4500.00,M,M,KGSH 010400Z AUTO 35007KT 10SM BKN012 BKN016 OVC045 A2998 RMK MADISHF
GSH,2017-04-01 04:05,-85.7922,41.5272,M,M,M,350.00,10.00,M,29.98,M,10.00,17.00,BKN,BKN,OVC,M,1200.00,1600.00,4500.00,M,M,KGSH 010405Z AUTO 35010G17KT 10SM BKN012 BKN016 OVC045 A2998 RMK MADISHF
GSH,2017-04-01 04:10,-85.7922,41.5272,M,M,M,350.00,8.00,M,29.98,M,10.00,M,BKN,OVC,M,M,1200.00,4500.00,M,M,M,KGSH 010410Z AUTO 35008KT 10SM BKN012 OVC045 A2998 RMK MADISHF
GSH,2017-04-01 04:15,-85.7922,41.5272,M,M,M,340.00,11.00,M,29.98,M,10.00,M,OVC,M,M,M,1100.00,M,M,M,M,KGSH 010415Z AUTO 34011KT 10SM OVC011 A2998 RMK MADISHF
GSH,2017-04-01 04:20,-85.7922,41.5272,M,M,M,350.00,8.00,M,29.99,M,10.00,M,OVC,M,M,M,1100.00,M,M,M,M,KGSH 010420Z AUTO 35008KT 10SM OVC011 A2999 RMK MADISHF
GSH,2017-04-01 04:25,-85.7922,41.5272,M,M,M,340.00,11.00,M,29.99,M,10.00,17.00,OVC,M,M,M,1100.00,M,M,M,M,KGSH 010425Z AUTO 34011G17KT 10SM OVC011 A2999 RMK MADISHF
GSH,2017-04-01 04:30,-85.7922,41.5272,M,M,M,340.00,12.00,M,29.99,M,10.00,17.00,OVC,M,M,M,1100.00,M,M,M,M,KGSH 010430Z AUTO 34012G17KT 10SM OVC011 A2999 RMK MADISHF
GSH,2017-04-01 04:35,-85.7922,41.5272,M,M,M,340.00,10.00,M,30.00,M,10.00,M,OVC,M,M,M,999.00,M,M,M,M,KGSH 010435Z AUTO 34010KT 10SM OVC009 A3000 RMK MADISHF
GSH,2017-04-01 04:40,-85.7922,41.5272,M,M,M,350.00,6.00,M,30.00,M,10.00,M,OVC,M,M,M,999.00,M,M,M,M,KGSH 010440Z AUTO 35006KT 10SM OVC009 A3000 RMK MADISHF
GSH,2017-04-01 04:45,-85.7922,41.5272,M,M,M,350.00,7.00,M,30.00,M,10.00,M,OVC,M,M,M,1200.00,M,M,M,M,KGSH 010445Z AUTO 35007KT 10SM OVC012 A3000 RMK MADISHF
GSH,2017-04-01 04:50,-85.7922,41.5272,M,M,M,350.00,8.00,M,30.00,M,10.00,M,OVC,M,M,M,1200.00,M,M,M,M,KGSH 010450Z AUTO 35008KT 10SM OVC012 A3000 RMK MADISHF
GSH,2017-04-01 04:53,-85.7922,41.5272,37.90,33.10,82.66,350.00,10.00,0.00,30.00,1016.70,10.00,16.00,OVC,M,M,M,1200.00,M,M,M,M,KGSH 010453Z AUTO 35010G16KT 10SM OVC012 03/01 A3000 RMK AO2 SLP167 T00330006 400720033
GSH,2017-04-01 04:55,-85.7922,41.5272,M,M,M,350.00,10.00,M,30.01,M,10.00,M,OVC,M,M,M,1200.00,M,M,M,M,KGSH 010455Z AUTO 35010KT 10SM OVC012 A3001 RMK MADISHF
GSH,2017-04-01 05:00,-85.7922,41.5272,M,M,M,350.00,9.00,M,30.01,M,10.00,M,OVC,M,M,M,1200.00,M,M,M,M,KGSH 010500Z AUTO 35009KT 10SM OVC012 A3001 RMK MADISHF
GSH,2017-04-01 05:05,-85.7922,41.5272,M,M,M,350.00,9.00,M,30.01,M,10.00,M,OVC,M,M,M,1200.00,M,M,M,M,KGSH 010505Z AUTO 35009KT 10SM OVC012 A3001 RMK MADISHF
GSH,2017-04-01 05:10,-85.7922,41.5272,M,M,M,350.00,9.00,M,30.02,M,10.00,M,OVC,M,M,M,1300.00,M,M,M,M,KGSH 010510Z AUTO 35009KT 10SM OVC013 A3002 RMK MADISHF
GSH,2017-04-01 05:15,-85.7922,41.5272,M,M,M,340.00,7.00,M,30.02,M,10.00,M,OVC,M,M,M,1300.00,M,M,M,M,KGSH 010515Z AUTO 34007KT 10SM OVC013 A3002 RMK MADISHF
GSH,2017-04-01 05:20,-85.7922,41.5272,M,M,M,350.00,9.00,M,30.02,M,10.00,M,OVC,M,M,M,1300.00,M,M,M,M,KGSH 010520Z AUTO 35009KT 10SM OVC013 A3002 RMK MADISHF
GSH,2017-04-01 05:25,-85.7922,41.5272,M,M,M,340.00,8.00,M,30.02,M,10.00,M,OVC,M,M,M,1300.00,M,M,M,M,KGSH 010525Z AUTO 34008KT 10SM OVC013 A3002 RMK MADISHF
GSH,2017-04-01 05:30,-85.7922,41.5272,M,M,M,340.00,8.00,M,30.02,M,10.00,M,OVC,M,M,M,1500.00,M,M,M,M,KGSH 010530Z AUTO 34008KT 10SM OVC015 A3002 RMK MADISHF
GSH,2017-04-01 05:32,-85.7922,41.5272,37.90,33.10,82.66,340.00,7.00,0.00,30.02,M,10.00,M,OVC,M,M,M,1500.00,M,M,M,M,KGSH 010532Z AUTO 34007KT 10SM OVC015 03/01 A3002 RMK AO2 T00330006
GSH,2017-04-01 05:35,-85.7922,41.5272,M,M,M,350.00,7.00,M,30.02,M,10.00,M,OVC,M,M,M,1500.00,M,M,M,M,KGSH 010535Z AUTO 35007KT 10SM OVC015 A3002 RMK MADISHF
GSH,2017-04-01 05:40,-85.7922,41.5272,M,M,M,350.00,7.00,M,30.02,M,10.00,M,OVC,M,M,M,1699.00,M,M,M,M,KGSH 010540Z AUTO 35007KT 10SM OVC016 A3002 RMK MADISHF
GSH,2017-04-01 05:45,-85.7922,41.5272,M,M,M,350.00,7.00,M,30.02,M,10.00,M,OVC,M,M,M,1699.00,M,M,M,M,KGSH 010545Z AUTO 35007KT 10SM OVC016 A3002 RMK MADISHF
GSH,2017-04-01 05:50,-85.7922,41.5272,M,M,M,350.00,8.00,M,30.02,M,10.00,M,OVC,M,M,M,1600.00,M,M,M,M,KGSH 010550Z AUTO 35008KT 10SM OVC016 A3002 RMK MADISHF
GSH,2017-04-01 05:53,-85.7922,41.5272,37.90,33.10,82.66,350.00,9.00,0.00,30.02,1017.20,10.00,M,OVC,M,M,M,1600.00,M,M,M,M,KGSH 010553Z AUTO 35009KT 10SM OVC016 03/01 A3002 RMK AO2 SLP172 T00330006 10039 20033 51022
GSH,2017-04-01 05:55,-85.7922,41.5272,M,M,M,350.00,8.00,M,30.02,M,10.00,M,OVC,M,M,M,1600.00,M,M,M,M,KGSH 010555Z AUTO 35008KT 10SM OVC016 A3002 RMK MADISHF
GSH,2017-04-01 06:00,-85.7922,41.5272,M,M,M,350.00,6.00,M,30.02,M,10.00,M,OVC,M,M,M,1600.00,M,M,M,M,KGSH 010600Z AUTO 35006KT 10SM OVC016 A3002 RMK MADISHF
GSH,2017-04-01 06:05,-85.7922,41.5272,M,M,M,360.00,7.00,M,30.02,M,10.00,M,OVC,M,M,M,1600.00,M,M,M,M,KGSH 010605Z AUTO 36007KT 10SM OVC016 A3002 RMK MADISHF
GSH,2017-04-01 06:10,-85.7922,41.5272,M,M,M,350.00,7.00,M,30.02,M,10.00,M,BKN,OVC,M,M,1600.00,3000.00,M,M,M,KGSH 010610Z AUTO 35007KT 10SM BKN016 OVC030 A3002 RMK MADISHF
GSH,2017-04-01 06:15,-85.7922,41.5272,M,M,M,360.00,5.00,M,30.01,M,10.00,M,BKN,OVC,M,M,1600.00,3000.00,M,M,M,KGSH 010615Z AUTO 36005KT 10SM BKN016 OVC030 A3001 RMK MADISHF
GSH,2017-04-01 06:20,-85.7922,41.5272,M,M,M,30.00,6.00,M,30.01,M,10.00,M,BKN,OVC,M,M,1600.00,3000.00,M,M,M,KGSH 010620Z AUTO 03006KT 10SM BKN016 OVC030 A3001 RMK MADISHF
GSH,2017-04-01 06:25,-85.7922,41.5272,M,M,M,20.00,6.00,M,30.01,M,10.00,M,BKN,OVC,M,M,1600.00,3000.00,M,M,M,KGSH 010625Z AUTO 02006KT 10SM BKN016 OVC030 A3001 RMK MADISHF
GSH,2017-04-01 06:30,-85.7922,41.5272,M,M,M,360.00,6.00,M,30.01,M,10.00,M,FEW,SCT,OVC,M,1300.00,1800.00,3000.00,M,M,KGSH 010630Z AUTO 36006KT 10SM FEW013 SCT018 OVC030 A3001 RMK MADISHF
GSH,2017-04-01 06:35,-85.7922,41.5272,M,M,M,10.00,8.00,M,30.02,M,10.00,M,SCT,BKN,OVC,M,1600.00,3000.00,6000.00,M,M,KGSH 010635Z AUTO 01008KT 10SM SCT016 BKN030 OVC060 A3002 RMK MADISHF
GSH,2017-04-01 06:36,-85.7922,41.5272,37.90,32.00,79.08,10.00,8.00,0.00,30.02,M,10.00,M,SCT,BKN,OVC,M,1600.00,3000.00,6000.00,M,M,KGSH 010636Z AUTO 01008KT 10SM SCT016 BKN030 OVC060 03/00 A3002 RMK AO2 T00330000
GSH,2017-04-01 06:40,-85.7922,41.5272,M,M,M,360.00,9.00,M,30.02,M,10.00,M,SCT,BKN,OVC,M,1600.00,3000.00,6000.00,M,M,KGSH 010640Z AUTO 36009KT 10SM SCT016 BKN030 OVC060 A3002 RMK MADISHF
GSH,2017-04-01 06:45,-85.7922,41.5272,M,M,M,360.00,8.00,M,30.02,M,10.00,M,BKN,OVC,M,M,1699.00,3000.00,M,M,M,KGSH 010645Z AUTO 36008KT 10SM BKN016 OVC030 A3002 RMK MADISHF
GSH,2017-04-01 06:50,-85.7922,41.5272,M,M,M,360.00,8.00,M,30.02,M,10.00,M,SCT,OVC,M,M,1699.00,3000.00,M,M,M,KGSH 010650Z AUTO 36008KT 10SM SCT016 OVC030 A3002 RMK MADISHF
GSH,2017-04-01 06:53,-85.7922,41.5272,37.90,32.00,79.08,10.00,8.00,0.00,30.02,1017.30,10.00,M,SCT,OVC,M,M,1700.00,3000.00,M,M,M,KGSH 010653Z AUTO 01008KT 10SM SCT017 OVC030 03/00 A3002 RMK AO2 SLP173 T00330000
GSH,2017-04-01 06:55,-85.7922,41.5272,M,M,M,360.00,7.00,M,30.02,M,10.00,M,SCT,OVC,M,M,1699.00,3000.00,M,M,M,KGSH 010655Z AUTO 36007KT 10SM SCT016 OVC030 A3002 RMK MADISHF
GSH,2017-04-01 07:00,-85.7922,41.5272,M,M,M,360.00,8.00,M,30.03,M,10.00,M,FEW,OVC,M,M,1699.00,3000.00,M,M,M,KGSH 010700Z AUTO 36008KT 10SM FEW016 OVC030 A3003 RMK MADISHF
GSH,2017-04-01 07:05,-85.7922,41.5272,M,M,M,10.00,8.00,M,30.02,M,10.00,M,FEW,OVC,M,M,1600.00,3000.00,M,M,M,KGSH 010705Z AUTO 01008KT 10SM FEW016 OVC030 A3002 RMK MADISHF
GSH,2017-04-01 07:10,-85.7922,41.5272,M,M,M,360.00,7.00,M,30.03,M,10.00,M,FEW,OVC,M,M,1600.00,3000.00,M,M,M,KGSH 010710Z AUTO 36007KT 10SM FEW016 OVC030 A3003 RMK MADISHF
GSH,2017-04-01 07:15,-85.7922,41.5272,M,M,M,360.00,8.00,M,30.03,M,10.00,M,OVC,M,M,M,3000.00,M,M,M,M,KGSH 010715Z AUTO 36008KT 10SM OVC030 A3003 RMK MADISHF
GSH,2017-04-01 07:20,-85.7922,41.5272,M,M,M,350.00,8.00,M,30.04,M,10.00,M,OVC,M,M,M,2800.00,M,M,M,M,KGSH 010720Z AUTO 35008KT 10SM OVC028 A3004 RMK MADISHF
GSH,2017-04-01 07:23,-85.7922,41.5272,37.00,32.00,81.93,340.00,8.00,0.00,30.04,M,10.00,M,OVC,M,M,M,2800.00,M,M,M,M,KGSH 010723Z AUTO 34008KT 10SM OVC028 03/00 A3004 RMK AO2 T00280000
GSH,2017-04-01 07:25,-85.7922,41.5272,M,M,M,340.00,8.00,M,30.04,M,10.00,M,OVC,M,M,M,2800.00,M,M,M,M,KGSH 010725Z AUTO 34008KT 10SM OVC028 A3004 RMK MADISHF
GSH,2017-04-01 07:30,-85.7922,41.5272,M,M,M,340.00,7.00,M,30.04,M,10.00,M,BKN,OVC,M,M,2800.00,3700.00,M,M,M,KGSH 010730Z AUTO 34007KT 10SM BKN028 OVC037 A3004 RMK MADISHF
GSH,2017-04-01 07:35,-85.7922,41.5272,M,M,M,340.00,6.00,M,30.05,M,10.00,M,BKN,OVC,M,M,2800.00,3700.00,M,M,M,KGSH 010735Z AUTO 34006KT 10SM BKN028 OVC037 A3005 RMK MADISHF
GSH,2017-04-01 07:40,-85.7922,41.5272,M,M,M,330.00,7.00,M,30.05,M,10.00,M,SCT,OVC,M,M,2800.00,3900.00,M,M,M,KGSH 010740Z AUTO 33007KT 10SM SCT028 OVC039 A3005 RMK MADISHF
GSH,2017-04-01 07:42,-85.7922,41.5272,37.00,32.00,81.93,330.00,7.00,0.00,30.05,M,10.00,M,SCT,OVC,M,M,2800.00,3900.00,M,M,M,KGSH 010742Z AUTO 33007KT 10SM SCT028 OVC039 03/00 A3005 RMK AO2 T00280000
GSH,2017-04-01 07:45,-85.7922,41.5272,M,M,M,330.00,6.00,M,30.05,M,10.00,M,FEW,OVC,M,M,2800.00,3900.00,M,M,M,KGSH 010745Z AUTO 33006KT 10SM FEW028 OVC039 A3005 RMK MADISHF
GSH,2017-04-01 07:50,-85.7922,41.5272,M,M,M,340.00,7.00,M,30.05,M,10.00,M,FEW,OVC,M,M,2800.00,3999.00,M,M,M,KGSH 010750Z AUTO 34007KT 10SM FEW028 OVC039 A3005 RMK MADISHF
GSH,2017-04-01 07:53,-85.7922,41.5272,37.90,32.00,79.08,340.00,7.00,0.00,30.05,1018.20,10.00,M,OVC,M,M,M,4000.00,M,M,M,M,KGSH 010753Z AUTO 34007KT 10SM OVC040 03/00 A3005 RMK AO2 SLP182 T00330000
GSH,2017-04-01 07:55,-85.7922,41.5272,M,M,M,340.00,6.00,M,30.05,M,10.00,M,OVC,M,M,M,3999.00,M,M,M,M,KGSH 010755Z AUTO 34006KT 10SM OVC039 A3005 RMK MADISHF
GSH,2017-04-01 08:00,-85.7922,41.5272,M,M,M,340.00,7.00,M,30.05,M,10.00,M,OVC,M,M,M,3999.00,M,M,M,M,KGSH 010800Z AUTO 34007KT 10SM OVC039 A3005 RMK MADISHF
GSH,2017-04-01 08:05,-85.7922,41.5272,M,M,M,340.00,5.00,M,30.05,M,10.00,M,OVC,M,M,M,3999.00,M,M,M,M,KGSH 010805Z AUTO 34005KT 10SM OVC039 A3005 RMK MADISHF
GSH,2017-04-01 08:10,-85.7922,41.5272,M,M,M,330.00,6.00,M,30.05,M,10.00,M,OVC,M,M,M,4100.00,M,M,M,M,KGSH 010810Z AUTO 33006KT 10SM OVC041 A3005 RMK MADISHF
GSH,2017-04-01 08:15,-85.7922,41.5272,M,M,M,330.00,6.00,M,30.06,M,10.00,M,OVC,M,M,M,4100.00,M,M,M,M,KGSH 010815Z AUTO 33006KT 10SM OVC041 A3006 RMK MADISHF
GSH,2017-04-01 08:20,-85.7922,41.5272,M,M,M,320.00,6.00,M,30.06,M,10.00,M,OVC,M,M,M,4100.00,M,M,M,M,KGSH 010820Z AUTO 32006KT 10SM OVC041 A3006 RMK MADISHF
GSH,2017-04-01 08:25,-85.7922,41.5272,M,M,M,320.00,7.00,M,30.06,M,10.00,M,OVC,M,M,M,4100.00,M,M,M,M,KGSH 010825Z AUTO 32007KT 10SM OVC041 A3006 RMK MADISHF
GSH,2017-04-01 08:30,-85.7922,41.5272,M,M,M,340.00,7.00,M,30.06,M,10.00,M,OVC,M,M,M,3999.00,M,M,M,M,KGSH 010830Z AUTO 34007KT 10SM OVC039 A3006 RMK MADISHF
GSH,2017-04-01 08:35,-85.7922,41.5272,M,M,M,340.00,8.00,M,30.06,M,10.00,M,OVC,M,M,M,3999.00,M,M,M,M,KGSH 010835Z AUTO 34008KT 10SM OVC039 A3006 RMK MADISHF
GSH,2017-04-01 08:40,-85.7922,41.5272,M,M,M,350.00,8.00,M,30.05,M,10.00,M,BKN,M,M,M,3999.00,M,M,M,M,KGSH 010840Z AUTO 35008KT 10SM BKN039 A3005 RMK MADISHF
GSH,2017-04-01 08:45,-85.7922,41.5272,M,M,M,350.00,8.00,M,30.05,M,10.00,M,FEW,BKN,M,M,1600.00,3999.00,M,M,M,KGSH 010845Z AUTO 35008KT 10SM FEW016 BKN039 A3005 RMK MADISHF
GSH,2017-04-01 08:50,-85.7922,41.5272,M,M,M,350.00,9.00,M,30.05,M,10.00,17.00,SCT,BKN,M,M,1600.00,3999.00,M,M,M,KGSH 010850Z AUTO 35009G17KT 10SM SCT016 BKN039 A3005 RMK MADISHF
GSH,2017-04-01 08:53,-85.7922,41.5272,37.00,32.00,81.93,340.00,10.00,0.00,30.06,1018.40,10.00,17.00,BKN,BKN,M,M,1600.00,4000.00,M,M,M,KGSH 010853Z AUTO 34010G17KT 10SM BKN016 BKN040 03/00 A3006 RMK AO2 SLP184 T00280000 53012
GSH,2017-04-01 08:55,-85.7922,41.5272,M,M,M,340.00,9.00,M,30.06,M,10.00,14.00,BKN,BKN,M,M,1699.00,3999.00,M,M,M,KGSH 010855Z AUTO 34009G14KT 10SM BKN016 BKN039 A3006 RMK MADISHF
GSH,2017-04-01 09:00,-85.7922,41.5272,M,M,M,350.00,9.00,M,30.06,M,10.00,M,BKN,BKN,M,M,1699.00,3999.00,M,M,M,KGSH 010900Z AUTO 35009KT 10SM BKN016 BKN039 A3006 RMK MADISHF
GSH,2017-04-01 09:05,-85.7922,41.5272,M,M,M,350.00,8.00,M,30.06,M,10.00,M,BKN,M,M,M,1699.00,M,M,M,M,KGSH 010905Z AUTO 35008KT 10SM BKN016 A3006 RMK MADISHF
GSH,2017-04-01 09:10,-85.7922,41.5272,M,M,M,340.00,9.00,M,30.06,M,10.00,M,BKN,M,M,M,1699.00,M,M,M,M,KGSH 010910Z AUTO 34009KT 10SM BKN016 A3006 RMK MADISHF
GSH,2017-04-01 09:15,-85.7922,41.5272,M,M,M,340.00,8.00,M,30.06,M,10.00,M,BKN,M,M,M,1699.00,M,M,M,M,KGSH 010915Z AUTO 34008KT 10SM BKN016 A3006 RMK MADISHF
GSH,2017-04-01 09:20,-85.7922,41.5272,M,M,M,340.00,7.00,M,30.07,M,10.00,M,BKN,M,M,M,1800.00,M,M,M,M,KGSH 010920Z AUTO 34007KT 10SM BKN018 A3007 RMK MADISHF
GSH,2017-04-01 09:25,-85.7922,41.5272,M,M,M,340.00,8.00,M,30.07,M,10.00,M,BKN,M,M,M,1800.00,M,M,M,M,KGSH 010925Z AUTO 34008KT 10SM BKN018 A3007 RMK MADISHF
GSH,2017-04-01 09:30,-85.7922,41.5272,M,M,M,330.00,7.00,M,30.08,M,10.00,M,BKN,M,M,M,1800.00,M,M,M,M,KGSH 010930Z AUTO 33007KT 10SM BKN018 A3008 RMK MADISHF
GSH,2017-04-01 09:35,-85.7922,41.5272,M,M,M,320.00,7.00,M,30.08,M,10.00,M,BKN,M,M,M,1800.00,M,M,M,M,KGSH 010935Z AUTO 32007KT 10SM BKN018 A3008 RMK MADISHF
GSH,2017-04-01 09:40,-85.7922,41.5272,M,M,M,320.00,7.00,M,30.09,M,10.00,M,BKN,M,M,M,1800.00,M,M,M,M,KGSH 010940Z AUTO 32007KT 10SM BKN018 A3009 RMK MADISHF
GSH,2017-04-01 09:45,-85.7922,41.5272,M,M,M,310.00,7.00,M,30.09,M,10.00,M,BKN,M,M,M,1800.00,M,M,M,M,KGSH 010945Z AUTO 31007KT 10SM BKN018 A3009 RMK MADISHF
GSH,2017-04-01 09:50,-85.7922,41.5272,M,M,M,320.00,7.00,M,30.09,M,10.00,M,OVC,M,M,M,1800.00,M,M,M,M,KGSH 010950Z AUTO 32007KT 10SM OVC018 A3009 RMK MADISHF
GSH,2017-04-01 09:53,-85.7922,41.5272,37.00,32.00,81.93,330.00,9.00,0.00,30.09,1019.70,10.00,M,OVC,M,M,M,1800.00,M,M,M,M,KGSH 010953Z AUTO 33009KT 10SM OVC018 03/00 A3009 RMK AO2 SLP197 T00280000
GSH,2017-04-01 09:55,-85.7922,41.5272,M,M,M,330.00,8.00,M,30.10,M,10.00,M,OVC,M,M,M,1800.00,M,M,M,M,KGSH 010955Z AUTO 33008KT 10SM OVC018 A3010 RMK MADISHF
GSH,2017-04-01 10:00,-85.7922,41.5272,M,M,M,330.00,11.00,M,30.10,M,10.00,M,OVC,M,M,M,1800.00,M,M,M,M,KGSH 011000Z AUTO 33011KT 10SM OVC018 A3010 RMK MADISHF
GSH,2017-04-01 10:05,-85.7922,41.5272,M,M,M,330.00,8.00,M,30.10,M,10.00,M,OVC,M,M,M,1800.00,M,M,M,M,KGSH 011005Z AUTO 33008KT 10SM OVC018 A3010 RMK MADISHF
GSH,2017-04-01 10:10,-85.7922,41.5272,M,M,M,330.00,8.00,M,30.10,M,10.00,M,OVC,M,M,M,1800.00,M,M,M,M,KGSH 011010Z AUTO 33008KT 10SM OVC018 A3010 RMK MADISHF
GSH,2017-04-01 10:15,-85.7922,41.5272,M,M,M,M,M,M,30.11,M,10.00,19.00,OVC,M,M,M,1800.00,M,M,M,M,KGSH 011015Z AUTO /////G19KT 10SM OVC018 A3011 RMK MADISHF
GSH,2017-04-01 10:20,-85.7922,41.5272,M,M,M,M,M,M,30.11,M,10.00,M,OVC,M,M,M,1600.00,M,M,M,M,KGSH 011020Z AUTO /////KT 10SM OVC016 A3011 RMK MADISHF
GSH,2017-04-01 10:25,-85.7922,41.5272,M,M,M,360.00,10.00,M,30.11,M,10.00,M,OVC,M,M,M,1600.00,M,M,M,M,KGSH 011025Z AUTO 36010KT 10SM OVC016 A3011 RMK MADISHF
GSH,2017-04-01 10:30,-85.7922,41.5272,M,M,M,350.00,9.00,M,30.11,M,10.00,M,OVC,M,M,M,1600.00,M,M,M,M,KGSH 011030Z AUTO 35009KT 10SM OVC016 A3011 RMK MADISHF
GSH,2017-04-01 10:35,-85.7922,41.5272,M,M,M,360.00,8.00,M,30.11,M,10.00,M,OVC,M,M,M,1600.00,M,M,M,M,KGSH 011035Z AUTO 36008KT 10SM OVC016 A3011 RMK MADISHF
GSH,2017-04-01 10:40,-85.7922,41.5272,M,M,M,360.00,9.00,M,30.11,M,10.00,M,OVC,M,M,M,1500.00,M,M,M,M,KGSH 011040Z AUTO 36009KT 10SM OVC015 A3011 RMK MADISHF
GSH,2017-04-01 10:45,-85.7922,41.5272,M,M,M,360.00,6.00,M,30.11,M,10.00,M,OVC,M,M,M,1500.00,M,M,M,M,KGSH 011045Z AUTO 36006KT 10SM OVC015 A3011 RMK MADISHF
GSH,2017-04-01 10:50,-85.7922,41.5272,M,M,M,10.00,10.00,M,30.11,M,10.00,M,OVC,M,M,M,1500.00,M,M,M,M,KGSH 011050Z AUTO 01010KT 10SM OVC015 A3011 RMK MADISHF
GSH,2017-04-01 10:53,-85.7922,41.5272,37.00,30.00,75.56,360.00,10.00,0.00,30.12,1020.50,10.00,M,BKN,M,M,M,1500.00,M,M,M,M,KGSH 011053Z AUTO 36010KT 10SM BKN015 03/M01 A3012 RMK AO2 SLP205 T00281011
GSH,2017-04-01 10:55,-85.7922,41.5272,M,M,M,350.00,8.00,M,30.12,M,10.00,M,BKN,M,M,M,1500.00,M,M,M,M,KGSH 011055Z AUTO 35008KT 10SM BKN015 A3012 RMK MADISHF
GSH,2017-04-01 11:00,-85.7922,41.5272,M,M,M,350.00,7.00,M,30.12,M,10.00,M,BKN,M,M,M,1500.00,M,M,M,M,KGSH 011100Z AUTO 35007KT 10SM BKN015 A3012 RMK MADISHF
GSH,2017-04-01 11:05,-85.7922,41.5272,M,M,M,360.00,7.00,M,30.11,M,10.00,M,SCT,M,M,M,1500.00,M,M,M,M,KGSH 011105Z AUTO 36007KT 10SM SCT015 A3011 RMK MADISHF
GSH,2017-04-01 11:09,-85.7922,41.5272,36.00,30.00,78.60,10.00,6.00,0.00,30.11,M,10.00,M,FEW,M,M,M,1500.00,M,M,M,M,KGSH 011109Z AUTO 01006KT 10SM FEW015 02/M01 A3011 RMK AO2 T00221011
GSH,2017-04-01 11:10,-85.7922,41.5272,M,M,M,10.00,6.00,M,30.11,M,10.00,M,FEW,M,M,M,1500.00,M,M,M,M,KGSH 011110Z AUTO 01006KT 10SM FEW015 A3011 RMK MADISHF
GSH,2017-04-01 11:15,-85.7922,41.5272,M,M,M,10.00,6.00,M,30.11,M,10.00,M,FEW,M,M,M,1500.00,M,M,M,M,KGSH 011115Z AUTO 01006KT 10SM FEW015 A3011 RMK MADISHF
GSH,2017-04-01 11:20,-85.7922,41.5272,M,M,M,20.00,5.00,M,30.11,M,10.00,M,CLR,M,M,M,M,M,M,M,M,KGSH 011120Z AUTO 02005KT 10SM CLR A3011 RMK MADISHF
GSH,2017-04-01 11:25,-85.7922,41.5272,M,M,M,30.00,5.00,M,30.12,M,10.00,M,CLR,M,M,M,M,M,M,M,M,KGSH 011125Z AUTO 03005KT 10SM CLR A3012 RMK MADISHF
GSH,2017-04-01 11:30,-85.7922,41.5272,M,M,M,10.00,4.00,M,30.13,M,10.00,M,CLR,M,M,M,M,M,M,M,M,KGSH 011130Z AUTO 01004KT 10SM CLR A3013 RMK MADISHF
GSH,2017-04-01 11:35,-85.7922,41.5272,M,M,M,360.00,4.00,M,30.13,M,10.00,M,CLR,M,M,M,M,M,M,M,M,KGSH 011135Z AUTO 36004KT 10SM CLR A3013 RMK MADISHF
GSH,2017-04-01 11:40,-85.7922,41.5272,M,M,M,330.00,5.00,M,30.14,M,10.00,M,CLR,M,M,M,M,M,M,M,M,KGSH 011140Z AUTO 33005KT 10SM CLR A3014 RMK MADISHF
GSH,2017-04-01 11:45,-85.7922,41.5272,M,M,M,340.00,5.00,M,30.14,M,10.00,M,CLR,M,M,M,M,M,M,M,M,KGSH 011145Z AUTO 34005KT 10SM CLR A3014 RMK MADISHF
GSH,2017-04-01 11:50,-85.7922,41.5272,M,M,M,330.00,3.00,M,30.13,M,10.00,M,CLR,M,M,M,M,M,M,M,M,KGSH 011150Z AUTO 33003KT 10SM CLR A3013 RMK MADISHF
GSH,2017-04-01 11:53,-85.7922,41.5272,35.10,30.00,81.46,340.00,3.00,0.00,30.13,1021.10,10.00,M,CLR,M,M,M,M,M,M,M,M,KGSH 011153Z AUTO 34003KT 10SM CLR 02/M01 A3013 RMK AO2 SLP211 70006 T00171011 10033 20017 51024
GSH,2017-04-01 11:55,-85.7922,41.5272,M,M,M,360.00,3.00,M,30.13,M,10.00,M,CLR,M,M,M,M,M,M,M,M,KGSH 011155Z AUTO 36003KT 10SM CLR A3013 RMK MADISHF
GSH,2017-04-01 12:00,-85.7922,41.5272,M,M,M,10.00,3.00,M,30.13,M,10.00,M,CLR,M,M,M,M,M,M,M,M,KGSH 011200Z AUTO 01003KT 10SM CLR A3013 RMK MADISHF
GSH,2017-04-01 12:05,-85.7922,41.5272,M,M,M,20.00,3.00,M,30.13,M,10.00,M,CLR,M,M,M,M,M,M,M,M,KGSH 011205Z AUTO 02003KT 10SM CLR A3013 RMK MADISHF
GSH,2017-04-01 12:10,-85.7922,41.5272,M,M,M,20.00,4.00,M,30.13,M,10.00,M,CLR,M,M,M,M,M,M,M,M,KGSH 011210Z AUTO 02004KT 10SM CLR A3013 RMK MADISHF
GSH,2017-04-01 12:15,-85.7922,41.5272,M,M,M,20.00,3.00,M,30.13,M,10.00,M,CLR,M,M,M,M,M,M,M,M,KGSH 011215Z AUTO 02003KT 10SM CLR A3013 RMK MADISHF
GSH,2017-04-01 12:20,-85.7922,41.5272,M,M,M,10.00,3.00,M,30.13,M,10.00,M,CLR,M,M,M,M,M,M,M,M,KGSH 011220Z AUTO 01003KT 10SM CLR A3013 RMK MADISHF
GSH,2017-04-01 12:25,-85.7922,41.5272,M,M,M,20.00,3.00,M,30.13,M,10.00,M,CLR,M,M,M,M,M,M,M,M,KGSH 011225Z AUTO 02003KT 10SM CLR A3013 RMK MADISHF
GSH,2017-04-01 12:30,-85.7922,41.5272,M,M,M,10.00,4.00,M,30.13,M,10.00,M,CLR,M,M,M,M,M,M,M,M,KGSH 011230Z AUTO 01004KT 10SM CLR A3013 RMK MADISHF
GSH,2017-04-01 12:35,-85.7922,41.5272,M,M,M,20.00,5.00,M,30.14,M,10.00,M,CLR,M,M,M,M,M,M,M,M,KGSH 011235Z AUTO 02005KT 10SM CLR A3014 RMK MADISHF
GSH,2017-04-01 12:40,-85.7922,41.5272,M,M,M,20.00,4.00,M,30.14,M,10.00,M,CLR,M,M,M,M,M,M,M,M,KGSH 011240Z AUTO 02004KT 10SM CLR A3014 RMK MADISHF
GSH,2017-04-01 12:45,-85.7922,41.5272,M,M,M,20.00,6.00,M,30.14,M,10.00,M,CLR,M,M,M,M,M,M,M,M,KGSH 011245Z AUTO 02006KT 10SM CLR A3014 RMK MADISHF
GSH,2017-04-01 12:50,-85.7922,41.5272,M,M,M,10.00,5.00,M,30.15,M,10.00,M,CLR,M,M,M,M,M,M,M,M,KGSH 011250Z AUTO 01005KT 10SM CLR A3015 RMK MADISHF
GSH,2017-04-01 12:53,-85.7922,41.5272,37.90,30.90,75.64,10.00,6.00,0.00,30.15,1021.60,10.00,M,CLR,M,M,M,M,M,M,M,M,KGSH 011253Z AUTO 01006KT 10SM CLR 03/M01 A3015 RMK AO2 SLP216 T00331006
GSH,2017-04-01 12:55,-85.7922,41.5272,M,M,M,10.00,6.00,M,30.15,M,10.00,M,CLR,M,M,M,M,M,M,M,M,KGSH 011255Z AUTO 01006KT 10SM CLR A3015 RMK MADISHF
GSH,2017-04-01 13:00,-85.7922,41.5272,M,M,M,20.00,6.00,M,30.15,M,10.00,M,CLR,M,M,M,M,M,M,M,M,KGSH 011300Z AUTO 02006KT 10SM CLR A3015 RMK MADISHF
GSH,2017-04-01 13:05,-85.7922,41.5272,M,M,M,20.00,5.00,M,30.16,M,10.00,M,CLR,M,M,M,M,M,M,M,M,KGSH 011305Z AUTO 02005KT 10SM CLR A3016 RMK MADISHF
GSH,2017-04-01 13:10,-85.7922,41.5272,M,M,M,10.00,5.00,M,30.16,M,10.00,M,CLR,M,M,M,M,M,M,M,M,KGSH 011310Z AUTO 01005KT 10SM CLR A3016 RMK MADISHF
GSH,2017-04-01 13:15,-85.7922,41.5272,M,M,M,360.00,6.00,M,30.17,M,10.00,M,CLR,M,M,M,M,M,M,M,M,KGSH 011315Z AUTO 36006KT 10SM CLR A3017 RMK MADISHF
GSH,2017-04-01 13:20,-85.7922,41.5272,M,M,M,10.00,5.00,M,30.17,M,10.00,M,CLR,M,M,M,M,M,M,M,M,KGSH 011320Z AUTO 01005KT 10SM CLR A3017 RMK MADISHF
GSH,2017-04-01 13:25,-85.7922,41.5272,M,M,M,360.00,5.00,M,30.18,M,10.00,M,CLR,M,M,M,M,M,M,M,M,KGSH 011325Z AUTO 36005KT 10SM CLR A3018 RMK MADISHF
GSH,2017-04-01 13:30,-85.7922,41.5272,M,M,M,10.00,6.00,M,30.17,M,10.00,M,CLR,M,M,M,M,M,M,M,M,KGSH 011330Z AUTO 01006KT 10SM CLR A3017 RMK MADISHF
GSH,2017-04-01 13:35,-85.7922,41.5272,M,M,M,30.00,6.00,M,30.17,M,10.00,M,CLR,M,M,M,M,M,M,M,M,KGSH 011335Z AUTO 03006KT 10SM CLR A3017 RMK MADISHF
GSH,2017-04-01 13:40,-85.7922,41.5272,M,M,M,360.00,5.00,M,30.17,M,10.00,M,CLR,M,M,M,M,M,M,M,M,KGSH 011340Z AUTO 36005KT 10SM CLR A3017 RMK MADISHF
GSH,2017-04-01 13:45,-85.7922,41.5272,M,M,M,20.00,6.00,M,30.17,M,10.00,M,CLR,M,M,M,M,M,M,M,M,KGSH 011345Z AUTO 02006KT 10SM CLR A3017 RMK MADISHF
GSH,2017-04-01 13:50,-85.7922,41.5272,M,M,M,30.00,7.00,M,30.17,M,10.00,M,CLR,M,M,M,M,M,M,M,M,KGSH 011350Z AUTO 03007KT 10SM CLR A3017 RMK MADISHF
GSH,2017-04-01 13:53,-85.7922,41.5272,41.00,30.90,67.03,30.00,6.00,0.00,30.17,1022.40,10.00,M,CLR,M,M,M,M,M,M,M,M,KGSH 011353Z AUTO 03006KT 10SM CLR 05/M01 A3017 RMK AO2 SLP224 T00501006
GSH,2017-04-01 13:55,-85.7922,41.5272,M,M,M,20.00,5.00,M,30.17,M,10.00,M,CLR,M,M,M,M,M,M,M,M,KGSH 011355Z AUTO 02005KT 10SM CLR A3017 RMK MADISHF
GSH,2017-04-01 14:00,-85.7922,41.5272,M,M,M,360.00,5.00,M,30.18,M,10.00,M,CLR,M,M,M,M,M,M,M,M,KGSH 011400Z AUTO 36005KT 10SM CLR A3018 RMK MADISHF
GSH,2017-04-01 14:05,-85.7922,41.5272,M,M,M,10.00,6.00,M,30.18,M,10.00,M,CLR,M,M,M,M,M,M,M,M,KGSH 011405Z AUTO 01006KT 10SM CLR A3018 RMK MADISHF
GSH,2017-04-01 14:10,-85.7922,41.5272,M,M,M,350.00,4.00,M,30.18,M,10.00,M,CLR,M,M,M,M,M,M,M,M,KGSH 011410Z AUTO 35004KT 10SM CLR A3018 RMK MADISHF
GSH,2017-04-01 14:15,-85.7922,41.5272,M,M,M,40.00,4.00,M,30.18,M,10.00,M,CLR,M,M,M,M,M,M,M,M,KGSH 011415Z AUTO 04004KT 10SM CLR A3018 RMK MADISHF
GSH,2017-04-01 14:20,-85.7922,41.5272,M,M,M,30.00,5.00,M,30.18,M,10.00,M,CLR,M,M,M,M,M,M,M,M,KGSH 011420Z AUTO 03005KT 10SM CLR A3018 RMK VRB05KT  MADISHF
GSH,2017-04-01 14:25,-85.7922,41.5272,M,M,M,360.00,6.00,M,30.18,M,10.00,M,CLR,M,M,M,M,M,M,M,M,KGSH 011425Z AUTO 36006KT 10SM CLR A3018 RMK VRB06KT  MADISHF
GSH,2017-04-01 14:30,-85.7922,41.5272,M,M,M,10.00,4.00,M,30.19,M,10.00,M,CLR,M,M,M,M,M,M,M,M,KGSH 011430Z AUTO 01004KT 10SM CLR A3019 RMK MADISHF
GSH,2017-04-01 14:35,-85.7922,41.5272,M,M,M,350.00,4.00,M,30.19,M,10.00,M,CLR,M,M,M,M,M,M,M,M,KGSH 011435Z AUTO 35004KT 10SM CLR A3019 RMK VRB04KT  MADISHF
GSH,2017-04-01 14:40,-85.7922,41.5272,M,M,M,330.00,5.00,M,30.19,M,10.00,M,CLR,M,M,M,M,M,M,M,M,KGSH 011440Z AUTO 33005KT 10SM CLR A3019 RMK MADISHF
GSH,2017-04-01 14:45,-85.7922,41.5272,M,M,M,360.00,7.00,M,30.19,M,10.00,M,CLR,M,M,M,M,M,M,M,M,KGSH 011445Z AUTO 36007KT 10SM CLR A3019 RMK MADISHF
GSH,2017-04-01 14:50,-85.7922,41.5272,M,M,M,360.00,6.00,M,30.19,M,10.00,M,CLR,M,M,M,M,M,M,M,M,KGSH 011450Z AUTO 36006KT 10SM CLR A3019 RMK MADISHF
GSH,2017-04-01 14:53,-85.7922,41.5272,43.00,33.10,67.82,10.00,3.00,0.00,30.19,1022.70,10.00,M,CLR,M,M,M,M,M,M,M,M,KGSH 011453Z AUTO 01003KT 10SM CLR 06/01 A3019 RMK AO2 SLP227 T00610006 51018
GSH,2017-04-01 14:55,-85.7922,41.5272,M,M,M,10.00,3.00,M,30.19,M,10.00,M,CLR,M,M,M,M,M,M,M,M,KGSH 011455Z AUTO 01003KT 10SM CLR A3019 RMK MADISHF
GSH,2017-04-01 15:00,-85.7922,41.5272,M,M,M,20.00,6.00,M,30.19,M,10.00,M,CLR,M,M,M,M,M,M,M,M,KGSH 011500Z AUTO 02006KT 10SM CLR A3019 RMK MADISHF
GSH,2017-04-01 15:05,-85.7922,41.5272,M,M,M,30.00,5.00,M,30.19,M,10.00,M,CLR,M,M,M,M,M,M,M,M,KGSH 011505Z AUTO 03005KT 10SM CLR A3019 RMK MADISHF
GSH,2017-04-01 15:10,-85.7922,41.5272,M,M,M,10.00,5.00,M,30.19,M,10.00,M,CLR,M,M,M,M,M,M,M,M,KGSH 011510Z AUTO 01005KT 10SM CLR A3019 RMK MADISHF
GSH,2017-04-01 15:15,-85.7922,41.5272,M,M,M,20.00,7.00,M,30.19,M,10.00,M,CLR,M,M,M,M,M,M,M,M,KGSH 011515Z AUTO 02007KT 10SM CLR A3019 RMK MADISHF
GSH,2017-04-01 15:20,-85.7922,41.5272,M,M,M,M,M,M,30.19,M,10.00,M,M,M,M,M,M,M,M,M,M,KGSH 011520Z AUTO /////KT 10SM A3019 RMK MADISHF
GSH,2017-04-01 15:25,-85.7922,41.5272,M,M,M,50.00,7.00,M,30.19,M,10.00,M,M,M,M,M,M,M,M,M,M,KGSH 011525Z AUTO 05007KT 10SM A3019 RMK MADISHF
GSH,2017-04-01 15:30,-85.7922,41.5272,M,M,M,360.00,4.00,M,30.19,M,10.00,M,M,M,M,M,M,M,M,M,M,KGSH 011530Z AUTO 36004KT 10SM A3019 RMK MADISHF
GSH,2017-04-01 15:35,-85.7922,41.5272,M,M,M,30.00,5.00,M,30.19,M,10.00,M,M,M,M,M,M,M,M,M,M,KGSH 011535Z AUTO 03005KT 10SM A3019 RMK VRB05KT  MADISHF
GSH,2017-04-01 15:40,-85.7922,41.5272,M,M,M,10.00,8.00,M,30.19,M,10.00,M,M,M,M,M,M,M,M,M,M,KGSH 011540Z AUTO 01008KT 10SM A3019 RMK MADISHF
GSH,2017-04-01 15:45,-85.7922,41.5272,M,M,M,20.00,6.00,M,30.19,M,10.00,M,M,M,M,M,M,M,M,M,M,KGSH 011545Z AUTO 02006KT 10SM A3019 RMK MADISHF
GSH,2017-04-01 15:50,-85.7922,41.5272,M,M,M,M,M,M,30.19,M,10.00,M,CLR,M,M,M,M,M,M,M,M,KGSH 011550Z AUTO /////KT 10SM CLR A3019 RMK MADISHF
GSH,2017-04-01 15:53,-85.7922,41.5272,46.90,34.00,60.61,M,M,0.00,30.19,1022.70,10.00,M,M,M,M,M,M,M,M,M,M,KGSH 011553Z AUTO 10SM 08/01 A3019 RMK AO2 SLP227 T00830011 PWINO $
GSH,2017-04-01 15:55,-85.7922,41.5272,M,M,M,M,M,M,30.19,M,10.00,M,M,M,M,M,M,M,M,M,M,KGSH 011555Z AUTO /////KT 10SM A3019 RMK MADISHF
GSH,2017-04-01 16:00,-85.7922,41.5272,M,M,M,10.00,6.00,M,30.19,M,10.00,M,M,M,M,M,M,M,M,M,M,KGSH 011600Z AUTO 01006KT 10SM A3019 RMK MADISHF
GSH,2017-04-01 16:05,-85.7922,41.5272,M,M,M,M,M,M,30.19,M,10.00,M,M,M,M,M,M,M,M,M,M,KGSH 011605Z AUTO /////KT 10SM A3019 RMK MADISHF
GSH,2017-04-01 16:10,-85.7922,41.5272,M,M,M,M,M,M,30.19,M,10.00,M,M,M,M,M,M,M,M,M,M,KGSH 011610Z AUTO /////KT 10SM A3019 RMK MADISHF
GSH,2017-04-01 16:15,-85.7922,41.5272,M,M,M,360.00,3.00,M,30.20,M,10.00,M,M,M,M,M,M,M,M,M,M,KGSH 011615Z AUTO 36003KT 10SM A3020 RMK VRB03KT  MADISHF
GSH,2017-04-01 16:20,-85.7922,41.5272,M,M,M,300.00,5.00,M,30.20,M,10.00,M,M,M,M,M,M,M,M,M,M,KGSH 011620Z AUTO 30005KT 10SM A3020 RMK MADISHF
GSH,2017-04-01 16:25,-85.7922,41.5272,M,M,M,300.00,8.00,M,30.20,M,10.00,M,M,M,M,M,M,M,M,M,M,KGSH 011625Z AUTO 30008KT 10SM A3020 RMK MADISHF
GSH,2017-04-01 16:30,-85.7922,41.5272,M,M,M,290.00,5.00,M,30.20,M,10.00,M,M,M,M,M,M,M,M,M,M,KGSH 011630Z AUTO 29005KT 10SM A3020 RMK VRB05KT  MADISHF
GSH,2017-04-01 16:35,-85.7922,41.5272,M,M,M,0.00,0.00,M,30.19,M,10.00,M,M,M,M,M,M,M,M,M,M,KGSH 011635Z AUTO 00000KT 10SM A3019 RMK MADISHF
GSH,2017-04-01 16:40,-85.7922,41.5272,M,M,M,320.00,7.00,M,30.20,M,10.00,M,CLR,M,M,M,M,M,M,M,M,KGSH 011640Z AUTO 32007KT 10SM CLR A3020 RMK MADISHF
GSH,2017-04-01 16:45,-85.7922,41.5272,M,M,M,300.00,5.00,M,30.20,M,10.00,M,CLR,M,M,M,M,M,M,M,M,KGSH 011645Z AUTO 30005KT 10SM CLR A3020 RMK VRB05KT  MADISHF
GSH,2017-04-01 16:50,-85.7922,41.5272,M,M,M,340.00,6.00,M,30.20,M,10.00,M,CLR,M,M,M,M,M,M,M,M,KGSH 011650Z AUTO 34006KT 10SM CLR A3020 RMK MADISHF
GSH,2017-04-01 16:53,-85.7922,41.5272,50.00,33.10,52.06,310.00,7.00,0.00,30.20,1023.00,10.00,M,CLR,M,M,M,M,M,M,M,M,KGSH 011653Z AUTO 31007KT 10SM CLR 10/01 A3020 RMK AO2 SLP230 T01000006 $
GSH,2017-04-01 16:55,-85.7922,41.5272,M,M,M,310.00,4.00,M,30.20,M,10.00,M,CLR,M,M,M,M,M,M,M,M,KGSH 011655Z AUTO 31004KT 10SM CLR A3020 RMK MADISHF
GSH,2017-04-01 17:00,-85.7922,41.5272,M,M,M,290.00,7.00,M,30.19,M,10.00,M,CLR,M,M,M,M,M,M,M,M,KGSH 011700Z AUTO 29007KT 10SM CLR A3019 RMK MADISHF
GSH,2017-04-01 17:05,-85.7922,41.5272,M,M,M,M,M,M,30.19,M,10.00,M,CLR,M,M,M,M,M,M,M,M,KGSH 011705Z AUTO /////KT 10SM CLR A3019 RMK MADISHF
GSH,2017-04-01 17:10,-85.7922,41.5272,M,M,M,310.00,6.00,M,30.19,M,10.00,M,CLR,M,M,M,M,M,M,M,M,KGSH 011710Z AUTO 31006KT 10SM CLR A3019 RMK MADISHF
GSH,2017-04-01 17:15,-85.7922,41.5272,M,M,M,300.00,6.00,M,30.19,M,10.00,M,CLR,M,M,M,M,M,M,M,M,KGSH 011715Z AUTO 30006KT 10SM CLR A3019 RMK VRB06KT  MADISHF
GSH,2017-04-01 17:20,-85.7922,41.5272,M,M,M,300.00,5.00,M,30.19,M,10.00,M,CLR,M,M,M,M,M,M,M,M,KGSH 011720Z AUTO 30005KT 10SM CLR A3019 RMK VRB05KT  MADISHF
GSH,2017-04-01 17:25,-85.7922,41.5272,M,M,M,350.00,6.00,M,30.19,M,10.00,M,CLR,M,M,M,M,M,M,M,M,KGSH 011725Z AUTO 35006KT 10SM CLR A3019 RMK MADISHF
GSH,2017-04-01 17:30,-85.7922,41.5272,M,M,M,300.00,4.00,M,30.18,M,10.00,M,CLR,M,M,M,M,M,M,M,M,KGSH 011730Z AUTO 30004KT 10SM CLR A3018 RMK MADISHF
GSH,2017-04-01 17:35,-85.7922,41.5272,M,M,M,300.00,7.00,M,30.18,M,10.00,M,CLR,M,M,M,M,M,M,M,M,KGSH 011735Z AUTO 30007KT 10SM CLR A3018 RMK MADISHF
GSH,2017-04-01 17:40,-85.7922,41.5272,M,M,M,290.00,4.00,M,30.18,M,10.00,M,CLR,M,M,M,M,M,M,M,M,KGSH 011740Z AUTO 29004KT 10SM CLR A3018 RMK MADISHF
GSH,2017-04-01 17:45,-85.7922,41.5272,M,M,M,320.00,5.00,M,30.18,M,10.00,M,CLR,M,M,M,M,M,M,M,M,KGSH 011745Z AUTO 32005KT 10SM CLR A3018 RMK MADISHF
GSH,2017-04-01 17:50,-85.7922,41.5272,M,M,M,320.00,8.00,M,30.18,M,10.00,M,CLR,M,M,M,M,M,M,M,M,KGSH 011750Z AUTO 32008KT 10SM CLR A3018 RMK WND 29V36  MADISHF
GSH,2017-04-01 17:53,-85.7922,41.5272,53.10,33.10,46.42,M,6.00,0.00,30.18,1022.40,10.00,M,CLR,M,M,M,M,M,M,M,M,KGSH 011753Z AUTO VRB06KT 10SM CLR 12/01 A3018 RMK AO2 SLP224 T01170006 10117 20017 58001 $
GSH,2017-04-01 17:55,-85.7922,41.5272,M,M,M,350.00,6.00,M,30.18,M,10.00,M,CLR,M,M,M,M,M,M,M,M,KGSH 011755Z AUTO 35006KT 10SM CLR A3018 RMK VRB06KT  MADISHF
GSH,2017-04-01 18:00,-85.7922,41.5272,M,M,M,10.00,5.00,M,30.18,M,10.00,M,CLR,M,M,M,M,M,M,M,M,KGSH 011800Z AUTO 01005KT 10SM CLR A3018 RMK MADISHF
GSH,2017-04-01 18:05,-85.7922,41.5272,M,M,M,300.00,9.00,M,30.18,M,10.00,M,CLR,M,M,M,M,M,M,M,M,KGSH 011805Z AUTO 30009KT 10SM CLR A3018 RMK MADISHF
GSH,2017-04-01 18:10,-85.7922,41.5272,M,M,M,340.00,5.00,M,30.18,M,10.00,M,CLR,M,M,M,M,M,M,M,M,KGSH 011810Z AUTO 34005KT 10SM CLR A3018 RMK MADISHF
GSH,2017-04-01 18:15,-85.7922,41.5272,M,M,M,10.00,6.00,M,30.18,M,10.00,M,CLR,M,M,M,M,M,M,M,M,KGSH 011815Z AUTO 01006KT 10SM CLR A3018 RMK MADISHF
GSH,2017-04-01 18:20,-85.7922,41.5272,M,M,M,300.00,9.00,M,30.18,M,10.00,15.00,CLR,M,M,M,M,M,M,M,M,KGSH 011820Z AUTO 30009G15KT 10SM CLR A3018 RMK MADISHF
GSH,2017-04-01 18:25,-85.7922,41.5272,M,M,M,330.00,9.00,M,30.18,M,10.00,M,CLR,M,M,M,M,M,M,M,M,KGSH 011825Z AUTO 33009KT 10SM CLR A3018 RMK MADISHF
GSH,2017-04-01 18:30,-85.7922,41.5272,M,M,M,340.00,8.00,M,30.18,M,10.00,M,CLR,M,M,M,M,M,M,M,M,KGSH 011830Z AUTO 34008KT 10SM CLR A3018 RMK MADISHF
GSH,2017-04-01 18:35,-85.7922,41.5272,M,M,M,320.00,9.00,M,30.18,M,10.00,M,CLR,M,M,M,M,M,M,M,M,KGSH 011835Z AUTO 32009KT 10SM CLR A3018 RMK MADISHF
GSH,2017-04-01 18:40,-85.7922,41.5272,M,M,M,340.00,7.00,M,30.18,M,10.00,M,CLR,M,M,M,M,M,M,M,M,KGSH 011840Z AUTO 34007KT 10SM CLR A3018 RMK MADISHF
GSH,2017-04-01 18:45,-85.7922,41.5272,M,M,M,300.00,6.00,M,30.18,M,10.00,M,CLR,M,M,M,M,M,M,M,M,KGSH 011845Z AUTO 30006KT 10SM CLR A3018 RMK MADISHF
GSH,2017-04-01 18:50,-85.7922,41.5272,M,M,M,340.00,11.00,M,30.18,M,10.00,M,CLR,M,M,M,M,M,M,M,M,KGSH 011850Z AUTO 34011KT 10SM CLR A3018 RMK MADISHF
GSH,2017-04-01 18:53,-85.7922,41.5272,54.00,30.90,41.11,350.00,8.00,0.00,30.18,1022.30,10.00,M,CLR,M,M,M,M,M,M,M,M,KGSH 011853Z AUTO 35008KT 10SM CLR 12/M01 A3018 RMK AO2 SLP223 T01221006 $
GSH,2017-04-01 18:55,-85.7922,41.5272,M,M,M,340.00,4.00,M,30.18,M,10.00,M,CLR,M,M,M,M,M,M,M,M,KGSH 011855Z AUTO 34004KT 10SM CLR A3018 RMK VRB04G15KT  MADISHF
GSH,2017-04-01 19:00,-85.7922,41.5272,M,M,M,340.00,10.00,M,30.18,M,10.00,15.00,CLR,M,M,M,M,M,M,M,M,KGSH 011900Z AUTO 34010G15KT 10SM CLR A3018 RMK MADISHF
GSH,2017-04-01 19:05,-85.7922,41.5272,M,M,M,350.00,7.00,M,30.18,M,10.00,M,CLR,M,M,M,M,M,M,M,M,KGSH 011905Z AUTO 35007KT 10SM CLR A3018 RMK MADISHF
GSH,2017-04-01 19:10,-85.7922,41.5272,M,M,M,330.00,12.00,M,30.18,M,10.00,M,CLR,M,M,M,M,M,M,M,M,KGSH 011910Z AUTO 33012KT 10SM CLR A3018 RMK MADISHF
GSH,2017-04-01 19:15,-85.7922,41.5272,M,M,M,310.00,7.00,M,30.18,M,10.00,M,CLR,M,M,M,M,M,M,M,M,KGSH 011915Z AUTO 31007KT 10SM CLR A3018 RMK MADISHF
GSH,2017-04-01 19:20,-85.7922,41.5272,M,M,M,320.00,12.00,M,30.18,M,10.00,M,CLR,M,M,M,M,M,M,M,M,KGSH 011920Z AUTO 32012KT 10SM CLR A3018 RMK MADISHF
GSH,2017-04-01 19:25,-85.7922,41.5272,M,M,M,310.00,10.00,M,30.18,M,10.00,M,CLR,M,M,M,M,M,M,M,M,KGSH 011925Z AUTO 31010KT 10SM CLR A3018 RMK MADISHF
GSH,2017-04-01 19:30,-85.7922,41.5272,M,M,M,340.00,10.00,M,30.17,M,10.00,16.00,CLR,M,M,M,M,M,M,M,M,KGSH 011930Z AUTO 34010G16KT 10SM CLR A3017 RMK MADISHF
GSH,2017-04-01 19:35,-85.7922,41.5272,M,M,M,340.00,8.00,M,30.17,M,10.00,M,CLR,M,M,M,M,M,M,M,M,KGSH 011935Z AUTO 34008KT 10SM CLR A3017 RMK MADISHF
GSH,2017-04-01 19:40,-85.7922,41.5272,M,M,M,330.00,13.00,M,30.17,M,10.00,M,CLR,M,M,M,M,M,M,M,M,KGSH 011940Z AUTO 33013KT 10SM CLR A3017 RMK MADISHF
GSH,2017-04-01 19:45,-85.7922,41.5272,M,M,M,310.00,8.00,M,30.17,M,10.00,M,CLR,M,M,M,M,M,M,M,M,KGSH 011945Z AUTO 31008KT 10SM CLR A3017 RMK MADISHF
GSH,2017-04-01 19:50,-85.7922,41.5272,M,M,M,350.00,6.00,M,30.17,M,10.00,M,CLR,M,M,M,M,M,M,M,M,KGSH 011950Z AUTO 35006KT 10SM CLR A3017 RMK MADISHF
GSH,2017-04-01 19:53,-85.7922,41.5272,55.90,30.90,38.36,320.00,7.00,0.00,30.17,1022.10,10.00,14.00,CLR,M,M,M,M,M,M,M,M,KGSH 011953Z AUTO 32007G14KT 10SM CLR 13/M01 A3017 RMK AO2 SLP221 T01331006 $
GSH,2017-04-01 19:55,-85.7922,41.5272,M,M,M,310.00,6.00,M,30.17,M,10.00,M,CLR,M,M,M,M,M,M,M,M,KGSH 011955Z AUTO 31006KT 10SM CLR A3017 RMK MADISHF
GSH,2017-04-01 20:00,-85.7922,41.5272,M,M,M,340.00,10.00,M,30.16,M,10.00,15.00,CLR,M,M,M,M,M,M,M,M,KGSH 012000Z AUTO 34010G15KT 10SM CLR A3016 RMK MADISHF
GSH,2017-04-01 20:05,-85.7922,41.5272,M,M,M,310.00,9.00,M,30.16,M,10.00,M,CLR,M,M,M,M,M,M,M,M,KGSH 012005Z AUTO 31009KT 10SM CLR A3016 RMK MADISHF
GSH,2017-04-01 20:10,-85.7922,41.5272,M,M,M,350.00,10.00,M,30.16,M,10.00,M,CLR,M,M,M,M,M,M,M,M,KGSH 012010Z AUTO 35010KT 10SM CLR A3016 RMK MADISHF
GSH,2017-04-01 20:15,-85.7922,41.5272,M,M,M,330.00,8.00,M,30.16,M,10.00,M,CLR,M,M,M,M,M,M,M,M,KGSH 012015Z AUTO 33008KT 10SM CLR A3016 RMK MADISHF
GSH,2017-04-01 20:20,-85.7922,41.5272,M,M,M,330.00,6.00,M,30.16,M,10.00,M,CLR,M,M,M,M,M,M,M,M,KGSH 012020Z AUTO 33006KT 10SM CLR A3016 RMK MADISHF
GSH,2017-04-01 20:25,-85.7922,41.5272,M,M,M,290.00,5.00,M,30.16,M,10.00,M,CLR,M,M,M,M,M,M,M,M,KGSH 012025Z AUTO 29005KT 10SM CLR A3016 RMK MADISHF
GSH,2017-04-01 20:30,-85.7922,41.5272,M,M,M,350.00,7.00,M,30.16,M,10.00,M,CLR,M,M,M,M,M,M,M,M,KGSH 012030Z AUTO 35007KT 10SM CLR A3016 RMK MADISHF
GSH,2017-04-01 20:35,-85.7922,41.5272,M,M,M,340.00,10.00,M,30.16,M,10.00,16.00,CLR,M,M,M,M,M,M,M,M,KGSH 012035Z AUTO 34010G16KT 10SM CLR A3016 RMK WND 30V36  MADISHF
GSH,2017-04-01 20:40,-85.7922,41.5272,M,M,M,320.00,9.00,M,30.16,M,10.00,M,CLR,M,M,M,M,M,M,M,M,KGSH 012040Z AUTO 32009KT 10SM CLR A3016 RMK MADISHF
GSH,2017-04-01 20:45,-85.7922,41.5272,M,M,M,350.00,12.00,M,30.16,M,10.00,M,CLR,M,M,M,M,M,M,M,M,KGSH 012045Z AUTO 35012KT 10SM CLR A3016 RMK MADISHF
GSH,2017-04-01 20:50,-85.7922,41.5272,M,M,M,320.00,11.00,M,30.15,M,10.00,M,CLR,M,M,M,M,M,M,M,M,KGSH 012050Z AUTO 32011KT 10SM CLR A3015 RMK MADISHF
GSH,2017-04-01 20:53,-85.7922,41.5272,57.00,30.90,36.86,320.00,11.00,0.00,30.15,1021.40,10.00,17.00,CLR,M,M,M,M,M,M,M,M,KGSH 012053Z AUTO 32011G17KT 10SM CLR 14/M01 A3015 RMK AO2 SLP214 T01391006 58010 $
GSH,2017-04-01 20:55,-85.7922,41.5272,M,M,M,340.00,14.00,M,30.15,M,10.00,M,CLR,M,M,M,M,M,M,M,M,KGSH 012055Z AUTO 34014KT 10SM CLR A3015 RMK MADISHF
GSH,2017-04-01 21:00,-85.7922,41.5272,M,M,M,340.00,4.00,M,30.15,M,10.00,M,CLR,M,M,M,M,M,M,M,M,KGSH 012100Z AUTO 34004KT 10SM CLR A3015 RMK MADISHF
GSH,2017-04-01 21:05,-85.7922,41.5272,M,M,M,340.00,11.00,M,30.15,M,10.00,16.00,CLR,M,M,M,M,M,M,M,M,KGSH 012105Z AUTO 34011G16KT 10SM CLR A3015 RMK MADISHF
GSH,2017-04-01 21:10,-85.7922,41.5272,M,M,M,330.00,11.00,M,30.15,M,10.00,M,CLR,M,M,M,M,M,M,M,M,KGSH 012110Z AUTO 33011KT 10SM CLR A3015 RMK MADISHF
GSH,2017-04-01 21:15,-85.7922,41.5272,M,M,M,330.00,11.00,M,30.16,M,10.00,17.00,CLR,M,M,M,M,M,M,M,M,KGSH 012115Z AUTO 33011G17KT 10SM CLR A3016 RMK MADISHF
GSH,2017-04-01 21:20,-85.7922,41.5272,M,M,M,340.00,9.00,M,30.16,M,10.00,14.00,CLR,M,M,M,M,M,M,M,M,KGSH 012120Z AUTO 34009G14KT 10SM CLR A3016 RMK MADISHF
GSH,2017-04-01 21:25,-85.7922,41.5272,M,M,M,320.00,8.00,M,30.16,M,10.00,M,CLR,M,M,M,M,M,M,M,M,KGSH 012125Z AUTO 32008KT 10SM CLR A3016 RMK MADISHF
GSH,2017-04-01 21:30,-85.7922,41.5272,M,M,M,310.00,7.00,M,30.16,M,10.00,M,CLR,M,M,M,M,M,M,M,M,KGSH 012130Z AUTO 31007KT 10SM CLR A3016 RMK MADISHF
GSH,2017-04-01 21:35,-85.7922,41.5272,M,M,M,320.00,6.00,M,30.16,M,10.00,M,CLR,M,M,M,M,M,M,M,M,KGSH 012135Z AUTO 32006KT 10SM CLR A3016 RMK MADISHF
GSH,2017-04-01 21:40,-85.7922,41.5272,M,M,M,320.00,10.00,M,30.16,M,10.00,M,CLR,M,M,M,M,M,M,M,M,KGSH 012140Z AUTO 32010KT 10SM CLR A3016 RMK MADISHF
GSH,2017-04-01 21:45,-85.7922,41.5272,M,M,M,310.00,7.00,M,30.16,M,10.00,M,CLR,M,M,M,M,M,M,M,M,KGSH 012145Z AUTO 31007KT 10SM CLR A3016 RMK MADISHF
GSH,2017-04-01 21:50,-85.7922,41.5272,M,M,M,280.00,8.00,M,30.16,M,10.00,M,CLR,M,M,M,M,M,M,M,M,KGSH 012150Z AUTO 28008KT 10SM CLR A3016 RMK MADISHF
GSH,2017-04-01 21:53,-85.7922,41.5272,55.00,28.90,36.54,310.00,10.00,0.00,30.16,1021.70,10.00,M,CLR,M,M,M,M,M,M,M,M,KGSH 012153Z AUTO 31010KT 10SM CLR 13/M02 A3016 RMK AO2 SLP217 T01281017 $
GSH,2017-04-01 21:55,-85.7922,41.5272,M,M,M,300.00,9.00,M,30.16,M,10.00,M,CLR,M,M,M,M,M,M,M,M,KGSH 012155Z AUTO 30009KT 10SM CLR A3016 RMK MADISHF
GSH,2017-04-01 22:00,-85.7922,41.5272,M,M,M,300.00,8.00,M,30.16,M,10.00,M,CLR,M,M,M,M,M,M,M,M,KGSH 012200Z AUTO 30008KT 10SM CLR A3016 RMK MADISHF
GSH,2017-04-01 22:05,-85.7922,41.5272,M,M,M,330.00,4.00,M,30.16,M,10.00,M,CLR,M,M,M,M,M,M,M,M,KGSH 012205Z AUTO 33004KT 10SM CLR A3016 RMK MADISHF
GSH,2017-04-01 22:10,-85.7922,41.5272,M,M,M,320.00,6.00,M,30.16,M,10.00,M,CLR,M,M,M,M,M,M,M,M,KGSH 012210Z AUTO 32006KT 10SM CLR A3016 RMK MADISHF
GSH,2017-04-01 22:15,-85.7922,41.5272,M,M,M,310.00,5.00,M,30.15,M,10.00,M,CLR,M,M,M,M,M,M,M,M,KGSH 012215Z AUTO 31005KT 10SM CLR A3015 RMK MADISHF
GSH,2017-04-01 22:20,-85.7922,41.5272,M,M,M,330.00,6.00,M,30.15,M,10.00,M,CLR,M,M,M,M,M,M,M,M,KGSH 012220Z AUTO 33006KT 10SM CLR A3015 RMK MADISHF
GSH,2017-04-01 22:25,-85.7922,41.5272,M,M,M,330.00,5.00,M,30.16,M,10.00,M,CLR,M,M,M,M,M,M,M,M,KGSH 012225Z AUTO 33005KT 10SM CLR A3016 RMK MADISHF
GSH,2017-04-01 22:30,-85.7922,41.5272,M,M,M,330.00,3.00,M,30.16,M,10.00,M,CLR,M,M,M,M,M,M,M,M,KGSH 012230Z AUTO 33003KT 10SM CLR A3016 RMK MADISHF
GSH,2017-04-01 22:35,-85.7922,41.5272,M,M,M,330.00,6.00,M,30.16,M,10.00,M,CLR,M,M,M,M,M,M,M,M,KGSH 012235Z AUTO 33006KT 10SM CLR A3016 RMK MADISHF
GSH,2017-04-01 22:40,-85.7922,41.5272,M,M,M,330.00,5.00,M,30.17,M,10.00,M,CLR,M,M,M,M,M,M,M,M,KGSH 012240Z AUTO 33005KT 10SM CLR A3017 RMK MADISHF
GSH,2017-04-01 22:45,-85.7922,41.5272,M,M,M,300.00,7.00,M,30.17,M,10.00,M,CLR,M,M,M,M,M,M,M,M,KGSH 012245Z AUTO 30007KT 10SM CLR A3017 RMK MADISHF
GSH,2017-04-01 22:50,-85.7922,41.5272,M,M,M,300.00,8.00,M,30.17,M,10.00,M,CLR,M,M,M,M,M,M,M,M,KGSH 012250Z AUTO 30008KT 10SM CLR A3017 RMK MADISHF
GSH,2017-04-01 22:53,-85.7922,41.5272,52.00,27.00,37.72,290.00,8.00,0.00,30.17,1022.20,10.00,M,CLR,M,M,M,M,M,M,M,M,KGSH 012253Z AUTO 29008KT 10SM CLR 11/M03 A3017 RMK AO2 SLP222 T01111028 $
GSH,2017-04-01 22:55,-85.7922,41.5272,M,M,M,290.00,7.00,M,30.17,M,10.00,M,CLR,M,M,M,M,M,M,M,M,KGSH 012255Z AUTO 29007KT 10SM CLR A3017 RMK MADISHF
GSH,2017-04-01 23:00,-85.7922,41.5272,M,M,M,300.00,6.00,M,30.18,M,10.00,M,CLR,M,M,M,M,M,M,M,M,KGSH 012300Z AUTO 30006KT 10SM CLR A3018 RMK MADISHF
GSH,2017-04-01 23:05,-85.7922,41.5272,M,M,M,300.00,8.00,M,30.18,M,10.00,M,CLR,M,M,M,M,M,M,M,M,KGSH 012305Z AUTO 30008KT 10SM CLR A3018 RMK MADISHF
GSH,2017-04-01 23:10,-85.7922,41.5272,M,M,M,290.00,7.00,M,30.18,M,10.00,M,CLR,M,M,M,M,M,M,M,M,KGSH 012310Z AUTO 29007KT 10SM CLR A3018 RMK MADISHF
GSH,2017-04-01 23:15,-85.7922,41.5272,M,M,M,300.00,8.00,M,30.18,M,10.00,M,CLR,M,M,M,M,M,M,M,M,KGSH 012315Z AUTO 30008KT 10SM CLR A3018 RMK MADISHF
GSH,2017-04-01 23:20,-85.7922,41.5272,M,M,M,300.00,7.00,M,30.19,M,10.00,M,CLR,M,M,M,M,M,M,M,M,KGSH 012320Z AUTO 30007KT 10SM CLR A3019 RMK MADISHF
GSH,2017-04-01 23:25,-85.7922,41.5272,M,M,M,290.00,9.00,M,30.19,M,10.00,M,CLR,M,M,M,M,M,M,M,M,KGSH 012325Z AUTO 29009KT 10SM CLR A3019 RMK MADISHF
GSH,2017-04-01 23:30,-85.7922,41.5272,M,M,M,300.00,8.00,M,30.19,M,10.00,M,CLR,M,M,M,M,M,M,M,M,KGSH 012330Z AUTO 30008KT 10SM CLR A3019 RMK MADISHF
GSH,2017-04-01 23:35,-85.7922,41.5272,M,M,M,290.00,8.00,M,30.19,M,10.00,M,CLR,M,M,M,M,M,M,M,M,KGSH 012335Z AUTO 29008KT 10SM CLR A3019 RMK MADISHF
GSH,2017-04-01 23:40,-85.7922,41.5272,M,M,M,280.00,8.00,M,30.19,M,10.00,M,CLR,M,M,M,M,M,M,M,M,KGSH 012340Z AUTO 28008KT 10SM CLR A3019 RMK MADISHF
GSH,2017-04-01 23:45,-85.7922,41.5272,M,M,M,290.00,7.00,M,30.19,M,10.00,M,CLR,M,M,M,M,M,M,M,M,KGSH 012345Z AUTO 29007KT 10SM CLR A3019 RMK MADISHF
GSH,2017-04-01 23:50,-85.7922,41.5272,M,M,M,300.00,6.00,M,30.19,M,10.00,M,CLR,M,M,M,M,M,M,M,M,KGSH 012350Z AUTO 30006KT 10SM CLR A3019 RMK MADISHF
GSH,2017-04-01 23:53,-85.7922,41.5272,48.90,30.00,47.85,300.00,7.00,0.00,30.19,1022.80,10.00,M,CLR,M,M,M,M,M,M,M,M,KGSH 012353Z AUTO 30007KT 10SM CLR 09/M01 A3019 RMK AO2 SLP228 T00941011 10139 20094 53012 $
GSH,2017-04-01 23:55,-85.7922,41.5272,M,M,M,300.00,7.00,M,30.19,M,10.00,M,CLR,M,M,M,M,M,M,M,M,KGSH 012355Z AUTO 30007KT 10SM CLR A3019 RMK MADISHF
