#DEBUG: Format Typ    -> comma
#DEBUG: Time Period   -> 2017-04-01 00:00:00+00:00 2017-04-02 00:00:00+00:00
#DEBUG: Time Zone     -> Etc/UTC
#DEBUG: Data Contact   -> daryl herzmann akrherz@iastate.edu 515-294-5978
#DEBUG: Entries Found -> -1
station,valid,lon,lat,tmpf, dwpf, relh, drct, sknt, p01i, alti, mslp, vsby, gust, skyc1, skyc2, skyc3, skyc4, skyl1, skyl2, skyl3, skyl4, presentwx, metar
GTR,2017-04-01 00:00,-88.5914,33.4503,M,M,M,10.00,6.00,M,29.84,M,10.00,M,CLR,M,M,M,M,M,M,M,M,KGTR 010000Z AUTO 01006KT 10SM CLR A2984 RMK MADISHF
GTR,2017-04-01 00:05,-88.5914,33.4503,M,M,M,10.00,4.00,M,29.85,M,10.00,M,CLR,M,M,M,M,M,M,M,M,KGTR 010005Z AUTO 01004KT 10SM CLR A2985 RMK MADISHF
GTR,2017-04-01 00:10,-88.5914,33.4503,M,M,M,10.00,4.00,M,29.84,M,10.00,M,CLR,M,M,M,M,M,M,M,M,KGTR 010010Z AUTO 01004KT 10SM CLR A2984 RMK MADISHF
GTR,2017-04-01 00:15,-88.5914,33.4503,M,M,M,10.00,4.00,M,29.84,M,10.00,M,CLR,M,M,M,M,M,M,M,M,KGTR 010015Z AUTO 01004KT 10SM CLR A2984 RMK MADISHF
GTR,2017-04-01 00:20,-88.5914,33.4503,M,M,M,10.00,4.00,M,29.84,M,10.00,M,CLR,M,M,M,M,M,M,M,M,KGTR 010020Z AUTO 01004KT 10SM CLR A2984 RMK MADISHF
GTR,2017-04-01 00:25,-88.5914,33.4503,M,M,M,10.00,3.00,M,29.84,M,10.00,M,CLR,M,M,M,M,M,M,M,M,KGTR 010025Z AUTO 01003KT 10SM CLR A2984 RMK MADISHF
GTR,2017-04-01 00:30,-88.5914,33.4503,M,M,M,10.00,4.00,M,29.84,M,10.00,M,CLR,M,M,M,M,M,M,M,M,KGTR 010030Z AUTO 01004KT 10SM CLR A2984 RMK MADISHF
GTR,2017-04-01 00:35,-88.5914,33.4503,M,M,M,10.00,3.00,M,29.84,M,10.00,M,CLR,M,M,M,M,M,M,M,M,KGTR 010035Z AUTO 01003KT 10SM CLR A2984 RMK MADISHF
GTR,2017-04-01 00:40,-88.5914,33.4503,M,M,M,10.00,3.00,M,29.84,M,10.00,M,CLR,M,M,M,M,M,M,M,M,KGTR 010040Z AUTO 01003KT 10SM CLR A2984 RMK MADISHF
GTR,2017-04-01 00:45,-88.5914,33.4503,M,M,M,10.00,4.00,M,29.85,M,10.00,M,CLR,M,M,M,M,M,M,M,M,KGTR 010045Z AUTO 01004KT 10SM CLR A2985 RMK MADISHF
GTR,2017-04-01 00:50,-88.5914,33.4503,M,M,M,10.00,3.00,M,29.85,M,9.00,M,CLR,M,M,M,M,M,M,M,M,KGTR 010050Z AUTO 01003KT 9SM CLR A2985 RMK MADISHF
GTR,2017-04-01 00:55,-88.5914,33.4503,M,M,M,10.00,3.00,M,29.85,M,9.00,M,CLR,M,M,M,M,M,M,M,M,KGTR 010055Z AUTO 01003KT 9SM CLR A2985 RMK MADISHF
GTR,2017-04-01 01:00,-88.5914,33.4503,M,M,M,0.00,0.00,M,29.85,M,10.00,M,CLR,M,M,M,M,M,M,M,M,KGTR 010100Z AUTO 00000KT 10SM CLR A2985 RMK MADISHF
GTR,2017-04-01 01:05,-88.5914,33.4503,M,M,M,0.00,0.00,M,29.85,M,10.00,M,CLR,M,M,M,M,M,M,M,M,KGTR 010105Z AUTO 00000KT 10SM CLR A2985 RMK MADISHF
GTR,2017-04-01 01:10,-88.5914,33.4503,M,M,M,0.00,0.00,M,29.86,M,10.00,M,CLR,M,M,M,M,M,M,M,M,KGTR 010110Z AUTO 00000KT 10SM CLR A2986 RMK MADISHF
GTR,2017-04-01 01:15,-88.5914,33.4503,M,M,M,0.00,0.00,M,29.86,M,10.00,M,CLR,M,M,M,M,M,M,M,M,KGTR 010115Z AUTO 00000KT 10SM CLR A2986 RMK MADISHF
GTR,2017-04-01 01:20,-88.5914,33.4503,M,M,M,0.00,0.00,M,29.86,M,10.00,M,CLR,M,M,M,M,M,M,M,M,KGTR 010120Z AUTO 00000KT 10SM CLR A2986 RMK MADISHF
GTR,2017-04-01 01:25,-88.5914,33.4503,M,M,M,0.00,0.00,M,29.86,M,10.00,M,CLR,M,M,M,M,M,M,M,M,KGTR 010125Z AUTO 00000KT 10SM CLR A2986 RMK MADISHF
GTR,2017-04-01 01:30,-88.5914,33.4503,M,M,M,0.00,0.00,M,29.87,M,10.00,M,CLR,M,M,M,M,M,M,M,M,KGTR 010130Z AUTO 00000KT 10SM CLR A2987 RMK MADISHF
GTR,2017-04-01 01:35,-88.5914,33.4503,M,M,M,0.00,0.00,M,29.87,M,10.00,M,CLR,M,M,M,M,M,M,M,M,KGTR 010135Z AUTO 00000KT 10SM CLR A2987 RMK MADISHF
GTR,2017-04-01 01:40,-88.5914,33.4503,M,M,M,0.00,0.00,M,29.87,M,10.00,M,CLR,M,M,M,M,M,M,M,M,KGTR 010140Z AUTO 00000KT 10SM CLR A2987 RMK MADISHF
GTR,2017-04-01 01:45,-88.5914,33.4503,M,M,M,0.00,0.00,M,29.87,M,10.00,M,CLR,M,M,M,M,M,M,M,M,KGTR 010145Z AUTO 00000KT 10SM CLR A2987 RMK MADISHF
GTR,2017-04-01 01:50,-88.5914,33.4503,M,M,M,0.00,0.00,M,29.87,M,8.00,M,CLR,M,M,M,M,M,M,M,M,KGTR 010150Z AUTO 00000KT 8SM CLR A2987 RMK MADISHF
GTR,2017-04-01 01:55,-88.5914,33.4503,M,M,M,0.00,0.00,M,29.87,M,8.00,M,CLR,M,M,M,M,M,M,M,M,KGTR 010155Z AUTO 00000KT 8SM CLR A2987 RMK MADISHF
GTR,2017-04-01 02:00,-88.5914,33.4503,M,M,M,0.00,0.00,M,29.87,M,10.00,M,CLR,M,M,M,M,M,M,M,M,KGTR 010200Z AUTO 00000KT 10SM CLR A2987 RMK MADISHF
GTR,2017-04-01 02:05,-88.5914,33.4503,M,M,M,0.00,0.00,M,29.88,M,10.00,M,CLR,M,M,M,M,M,M,M,M,KGTR 010205Z AUTO 00000KT 10SM CLR A2988 RMK MADISHF
GTR,2017-04-01 02:10,-88.5914,33.4503,M,M,M,0.00,0.00,M,29.88,M,10.00,M,CLR,M,M,M,M,M,M,M,M,KGTR 010210Z AUTO 00000KT 10SM CLR A2988 RMK MADISHF
GTR,2017-04-01 02:15,-88.5914,33.4503,M,M,M,0.00,0.00,M,29.88,M,10.00,M,CLR,M,M,M,M,M,M,M,M,KGTR 010215Z AUTO 00000KT 10SM CLR A2988 RMK MADISHF
GTR,2017-04-01 02:20,-88.5914,33.4503,M,M,M,0.00,0.00,M,29.88,M,10.00,M,CLR,M,M,M,M,M,M,M,M,KGTR 010220Z AUTO 00000KT 10SM CLR A2988 RMK MADISHF
GTR,2017-04-01 02:25,-88.5914,33.4503,M,M,M,0.00,0.00,M,29.88,M,10.00,M,CLR,M,M,M,M,M,M,M,M,KGTR 010225Z AUTO 00000KT 10SM CLR A2988 RMK MADISHF
GTR,2017-04-01 02:30,-88.5914,33.4503,M,M,M,0.00,0.00,M,29.88,M,10.00,M,CLR,M,M,M,M,M,M,M,M,KGTR 010230Z AUTO 00000KT 10SM CLR A2988 RMK MADISHF
GTR,2017-04-01 02:35,-88.5914,33.4503,M,M,M,250.00,3.00,M,29.89,M,10.00,M,CLR,M,M,M,M,M,M,M,M,KGTR 010235Z AUTO 25003KT 10SM CLR A2989 RMK MADISHF
GTR,2017-04-01 02:40,-88.5914,33.4503,M,M,M,250.00,5.00,M,29.89,M,10.00,M,CLR,M,M,M,M,M,M,M,M,KGTR 010240Z AUTO 25005KT 10SM CLR A2989 RMK MADISHF
GTR,2017-04-01 02:45,-88.5914,33.4503,M,M,M,250.00,3.00,M,29.89,M,10.00,M,CLR,M,M,M,M,M,M,M,M,KGTR 010245Z AUTO 25003KT 10SM CLR A2989 RMK MADISHF
GTR,2017-04-01 02:50,-88.5914,33.4503,M,M,M,0.00,0.00,M,29.89,M,10.00,M,CLR,M,M,M,M,M,M,M,M,KGTR 010250Z AUTO 00000KT 10SM CLR A2989 RMK MADISHF
GTR,2017-04-01 02:55,-88.5914,33.4503,M,M,M,270.00,3.00,M,29.90,M,10.00,M,CLR,M,M,M,M,M,M,M,M,KGTR 010255Z AUTO 27003KT 10SM CLR A2990 RMK MADISHF
GTR,2017-04-01 03:00,-88.5914,33.4503,M,M,M,0.00,0.00,M,29.90,M,10.00,M,CLR,M,M,M,M,M,M,M,M,KGTR 010300Z AUTO 00000KT 10SM CLR A2990 RMK MADISHF
GTR,2017-04-01 03:05,-88.5914,33.4503,M,M,M,0.00,0.00,M,29.90,M,10.00,M,CLR,M,M,M,M,M,M,M,M,KGTR 010305Z AUTO 00000KT 10SM CLR A2990 RMK MADISHF
GTR,2017-04-01 03:10,-88.5914,33.4503,M,M,M,0.00,0.00,M,29.90,M,10.00,M,CLR,M,M,M,M,M,M,M,M,KGTR 010310Z AUTO 00000KT 10SM CLR A2990 RMK MADISHF
GTR,2017-04-01 03:15,-88.5914,33.4503,M,M,M,0.00,0.00,M,29.90,M,10.00,M,CLR,M,M,M,M,M,M,M,M,KGTR 010315Z AUTO 00000KT 10SM CLR A2990 RMK MADISHF
GTR,2017-04-01 03:30,-88.5914,33.4503,M,M,M,0.00,0.00,M,29.90,M,10.00,M,CLR,M,M,M,M,M,M,M,M,KGTR 010330Z AUTO 00000KT 10SM CLR A2990 RMK MADISHF
GTR,2017-04-01 03:35,-88.5914,33.4503,M,M,M,0.00,0.00,M,29.90,M,10.00,M,CLR,M,M,M,M,M,M,M,M,KGTR 010335Z AUTO 00000KT 10SM CLR A2990 RMK MADISHF
GTR,2017-04-01 03:40,-88.5914,33.4503,M,M,M,0.00,0.00,M,29.90,M,10.00,M,CLR,M,M,M,M,M,M,M,M,KGTR 010340Z AUTO 00000KT 10SM CLR A2990 RMK MADISHF
GTR,2017-04-01 03:45,-88.5914,33.4503,M,M,M,0.00,0.00,M,29.91,M,10.00,M,CLR,M,M,M,M,M,M,M,M,KGTR 010345Z AUTO 00000KT 10SM CLR A2991 RMK MADISHF
GTR,2017-04-01 03:50,-88.5914,33.4503,M,M,M,0.00,0.00,M,29.91,M,10.00,M,CLR,M,M,M,M,M,M,M,M,KGTR 010350Z AUTO 00000KT 10SM CLR A2991 RMK MADISHF
GTR,2017-04-01 03:55,-88.5914,33.4503,M,M,M,0.00,0.00,M,29.90,M,10.00,M,CLR,M,M,M,M,M,M,M,M,KGTR 010355Z AUTO 00000KT 10SM CLR A2990 RMK MADISHF
GTR,2017-04-01 04:00,-88.5914,33.4503,M,M,M,10.00,3.00,M,29.91,M,10.00,M,CLR,M,M,M,M,M,M,M,M,KGTR 010400Z AUTO 01003KT 10SM CLR A2991 RMK MADISHF
GTR,2017-04-01 04:05,-88.5914,33.4503,M,M,M,360.00,4.00,M,29.91,M,10.00,M,CLR,M,M,M,M,M,M,M,M,KGTR 010405Z AUTO 36004KT 10SM CLR A2991 RMK MADISHF
GTR,2017-04-01 04:10,-88.5914,33.4503,M,M,M,340.00,4.00,M,29.91,M,10.00,M,CLR,M,M,M,M,M,M,M,M,KGTR 010410Z AUTO 34004KT 10SM CLR A2991 RMK MADISHF
GTR,2017-04-01 04:15,-88.5914,33.4503,M,M,M,320.00,4.00,M,29.91,M,10.00,M,CLR,M,M,M,M,M,M,M,M,KGTR 010415Z AUTO 32004KT 10SM CLR A2991 RMK MADISHF
GTR,2017-04-01 04:30,-88.5914,33.4503,M,M,M,0.00,0.00,M,29.91,M,10.00,M,CLR,M,M,M,M,M,M,M,M,KGTR 010430Z AUTO 00000KT 10SM CLR A2991 RMK MADISHF
GTR,2017-04-01 04:35,-88.5914,33.4503,M,M,M,340.00,3.00,M,29.91,M,10.00,M,CLR,M,M,M,M,M,M,M,M,KGTR 010435Z AUTO 34003KT 10SM CLR A2991 RMK MADISHF
GTR,2017-04-01 04:40,-88.5914,33.4503,M,M,M,340.00,3.00,M,29.91,M,10.00,M,CLR,M,M,M,M,M,M,M,M,KGTR 010440Z AUTO 34003KT 10SM CLR A2991 RMK MADISHF
GTR,2017-04-01 04:45,-88.5914,33.4503,M,M,M,340.00,3.00,M,29.91,M,10.00,M,CLR,M,M,M,M,M,M,M,M,KGTR 010445Z AUTO 34003KT 10SM CLR A2991 RMK MADISHF
GTR,2017-04-01 04:50,-88.5914,33.4503,M,M,M,0.00,0.00,M,29.91,M,10.00,M,CLR,M,M,M,M,M,M,M,M,KGTR 010450Z AUTO 00000KT 10SM CLR A2991 RMK MADISHF
GTR,2017-04-01 04:55,-88.5914,33.4503,M,M,M,0.00,0.00,M,29.92,M,10.00,M,CLR,M,M,M,M,M,M,M,M,KGTR 010455Z AUTO 00000KT 10SM CLR A2992 RMK MADISHF
GTR,2017-04-01 05:00,-88.5914,33.4503,M,M,M,0.00,0.00,M,29.92,M,10.00,M,CLR,M,M,M,M,M,M,M,M,KGTR 010500Z AUTO 00000KT 10SM CLR A2992 RMK MADISHF
GTR,2017-04-01 05:05,-88.5914,33.4503,M,M,M,330.00,3.00,M,29.92,M,10.00,M,CLR,M,M,M,M,M,M,M,M,KGTR 010505Z AUTO 33003KT 10SM CLR A2992 RMK MADISHF
GTR,2017-04-01 05:10,-88.5914,33.4503,M,M,M,330.00,3.00,M,29.92,M,10.00,M,CLR,M,M,M,M,M,M,M,M,KGTR 010510Z AUTO 33003KT 10SM CLR A2992 RMK MADISHF
GTR,2017-04-01 05:15,-88.5914,33.4503,M,M,M,0.00,0.00,M,29.92,M,10.00,M,CLR,M,M,M,M,M,M,M,M,KGTR 010515Z AUTO 00000KT 10SM CLR A2992 RMK MADISHF
GTR,2017-04-01 05:20,-88.5914,33.4503,M,M,M,0.00,0.00,M,29.92,M,10.00,M,CLR,M,M,M,M,M,M,M,M,KGTR 010520Z AUTO 00000KT 10SM CLR A2992 RMK MADISHF
GTR,2017-04-01 05:30,-88.5914,33.4503,M,M,M,0.00,0.00,M,29.92,M,10.00,M,CLR,M,M,M,M,M,M,M,M,KGTR 010530Z AUTO 00000KT 10SM CLR A2992 RMK MADISHF
GTR,2017-04-01 05:35,-88.5914,33.4503,M,M,M,350.00,3.00,M,29.92,M,10.00,M,CLR,M,M,M,M,M,M,M,M,KGTR 010535Z AUTO 35003KT 10SM CLR A2992 RMK MADISHF
GTR,2017-04-01 05:40,-88.5914,33.4503,M,M,M,350.00,3.00,M,29.92,M,10.00,M,CLR,M,M,M,M,M,M,M,M,KGTR 010540Z AUTO 35003KT 10SM CLR A2992 RMK MADISHF
GTR,2017-04-01 05:45,-88.5914,33.4503,M,M,M,350.00,4.00,M,29.92,M,10.00,M,CLR,M,M,M,M,M,M,M,M,KGTR 010545Z AUTO 35004KT 10SM CLR A2992 RMK MADISHF
GTR,2017-04-01 05:50,-88.5914,33.4503,M,M,M,350.00,3.00,M,29.92,M,10.00,M,CLR,M,M,M,M,M,M,M,M,KGTR 010550Z AUTO 35003KT 10SM CLR A2992 RMK MADISHF
GTR,2017-04-01 05:55,-88.5914,33.4503,M,M,M,0.00,0.00,M,29.92,M,10.00,M,CLR,M,M,M,M,M,M,M,M,KGTR 010555Z AUTO 00000KT 10SM CLR A2992 RMK MADISHF
GTR,2017-04-01 06:00,-88.5914,33.4503,M,M,M,0.00,0.00,M,29.92,M,10.00,M,CLR,M,M,M,M,M,M,M,M,KGTR 010600Z AUTO 00000KT 10SM CLR A2992 RMK MADISHF
GTR,2017-04-01 06:05,-88.5914,33.4503,M,M,M,0.00,0.00,M,29.92,M,10.00,M,CLR,M,M,M,M,M,M,M,M,KGTR 010605Z AUTO 00000KT 10SM CLR A2992 RMK MADISHF
GTR,2017-04-01 06:10,-88.5914,33.4503,M,M,M,350.00,4.00,M,29.92,M,10.00,M,CLR,M,M,M,M,M,M,M,M,KGTR 010610Z AUTO 35004KT 10SM CLR A2992 RMK MADISHF
GTR,2017-04-01 06:15,-88.5914,33.4503,M,M,M,340.00,4.00,M,29.92,M,10.00,M,CLR,M,M,M,M,M,M,M,M,KGTR 010615Z AUTO 34004KT 10SM CLR A2992 RMK MADISHF
GTR,2017-04-01 06:20,-88.5914,33.4503,M,M,M,350.00,4.00,M,29.93,M,10.00,M,CLR,M,M,M,M,M,M,M,M,KGTR 010620Z AUTO 35004KT 10SM CLR A2993 RMK MADISHF
GTR,2017-04-01 06:25,-88.5914,33.4503,M,M,M,340.00,3.00,M,29.92,M,10.00,M,CLR,M,M,M,M,M,M,M,M,KGTR 010625Z AUTO 34003KT 10SM CLR A2992 RMK MADISHF
GTR,2017-04-01 06:30,-88.5914,33.4503,M,M,M,0.00,0.00,M,29.93,M,10.00,M,CLR,M,M,M,M,M,M,M,M,KGTR 010630Z AUTO 00000KT 10SM CLR A2993 RMK MADISHF
GTR,2017-04-01 06:35,-88.5914,33.4503,M,M,M,340.00,3.00,M,29.93,M,10.00,M,CLR,M,M,M,M,M,M,M,M,KGTR 010635Z AUTO 34003KT 10SM CLR A2993 RMK MADISHF
GTR,2017-04-01 06:40,-88.5914,33.4503,M,M,M,340.00,3.00,M,29.93,M,10.00,M,CLR,M,M,M,M,M,M,M,M,KGTR 010640Z AUTO 34003KT 10SM CLR A2993 RMK MADISHF
GTR,2017-04-01 06:45,-88.5914,33.4503,M,M,M,0.00,0.00,M,29.93,M,10.00,M,CLR,M,M,M,M,M,M,M,M,KGTR 010645Z AUTO 00000KT 10SM CLR A2993 RMK MADISHF
GTR,2017-04-01 06:50,-88.5914,33.4503,M,M,M,0.00,0.00,M,29.93,M,10.00,M,CLR,M,M,M,M,M,M,M,M,KGTR 010650Z AUTO 00000KT 10SM CLR A2993 RMK MADISHF
GTR,2017-04-01 06:55,-88.5914,33.4503,M,M,M,0.00,0.00,M,29.93,M,10.00,M,CLR,M,M,M,M,M,M,M,M,KGTR 010655Z AUTO 00000KT 10SM CLR A2993 RMK MADISHF
GTR,2017-04-01 07:00,-88.5914,33.4503,M,M,M,340.00,3.00,M,29.93,M,10.00,M,CLR,M,M,M,M,M,M,M,M,KGTR 010700Z AUTO 34003KT 10SM CLR A2993 RMK MADISHF
GTR,2017-04-01 07:05,-88.5914,33.4503,M,M,M,350.00,3.00,M,29.93,M,10.00,M,CLR,M,M,M,M,M,M,M,M,KGTR 010705Z AUTO 35003KT 10SM CLR A2993 RMK MADISHF
GTR,2017-04-01 07:10,-88.5914,33.4503,M,M,M,360.00,5.00,M,29.93,M,10.00,M,CLR,M,M,M,M,M,M,M,M,KGTR 010710Z AUTO 36005KT 10SM CLR A2993 RMK MADISHF
GTR,2017-04-01 07:15,-88.5914,33.4503,M,M,M,10.00,4.00,M,29.93,M,10.00,M,CLR,M,M,M,M,M,M,M,M,KGTR 010715Z AUTO 01004KT 10SM CLR A2993 RMK MADISHF
GTR,2017-04-01 07:20,-88.5914,33.4503,M,M,M,10.00,6.00,M,29.93,M,10.00,M,CLR,M,M,M,M,M,M,M,M,KGTR 010720Z AUTO 01006KT 10SM CLR A2993 RMK MADISHF
GTR,2017-04-01 07:25,-88.5914,33.4503,M,M,M,20.00,6.00,M,29.93,M,10.00,M,CLR,M,M,M,M,M,M,M,M,KGTR 010725Z AUTO 02006KT 10SM CLR A2993 RMK MADISHF
GTR,2017-04-01 07:30,-88.5914,33.4503,M,M,M,10.00,6.00,M,29.94,M,10.00,M,CLR,M,M,M,M,M,M,M,M,KGTR 010730Z AUTO 01006KT 10SM CLR A2994 RMK MADISHF
GTR,2017-04-01 07:35,-88.5914,33.4503,M,M,M,10.00,6.00,M,29.94,M,10.00,M,CLR,M,M,M,M,M,M,M,M,KGTR 010735Z AUTO 01006KT 10SM CLR A2994 RMK MADISHF
GTR,2017-04-01 07:40,-88.5914,33.4503,M,M,M,10.00,6.00,M,29.94,M,10.00,M,CLR,M,M,M,M,M,M,M,M,KGTR 010740Z AUTO 01006KT 10SM CLR A2994 RMK MADISHF
GTR,2017-04-01 07:45,-88.5914,33.4503,M,M,M,10.00,7.00,M,29.94,M,10.00,M,CLR,M,M,M,M,M,M,M,M,KGTR 010745Z AUTO 01007KT 10SM CLR A2994 RMK MADISHF
GTR,2017-04-01 07:50,-88.5914,33.4503,M,M,M,20.00,7.00,M,29.94,M,10.00,M,CLR,M,M,M,M,M,M,M,M,KGTR 010750Z AUTO 02007KT 10SM CLR A2994 RMK MADISHF
GTR,2017-04-01 07:55,-88.5914,33.4503,M,M,M,20.00,7.00,M,29.94,M,10.00,M,CLR,M,M,M,M,M,M,M,M,KGTR 010755Z AUTO 02007KT 10SM CLR A2994 RMK MADISHF
GTR,2017-04-01 08:00,-88.5914,33.4503,M,M,M,30.00,7.00,M,29.94,M,10.00,M,CLR,M,M,M,M,M,M,M,M,KGTR 010800Z AUTO 03007KT 10SM CLR A2994 RMK MADISHF
GTR,2017-04-01 08:05,-88.5914,33.4503,M,M,M,30.00,7.00,M,29.94,M,10.00,M,CLR,M,M,M,M,M,M,M,M,KGTR 010805Z AUTO 03007KT 10SM CLR A2994 RMK MADISHF
GTR,2017-04-01 08:10,-88.5914,33.4503,M,M,M,20.00,6.00,M,29.95,M,10.00,M,CLR,M,M,M,M,M,M,M,M,KGTR 010810Z AUTO 02006KT 10SM CLR A2995 RMK MADISHF
GTR,2017-04-01 08:15,-88.5914,33.4503,M,M,M,360.00,5.00,M,29.95,M,10.00,M,CLR,M,M,M,M,M,M,M,M,KGTR 010815Z AUTO 36005KT 10SM CLR A2995 RMK MADISHF
GTR,2017-04-01 08:20,-88.5914,33.4503,M,M,M,350.00,5.00,M,29.95,M,10.00,M,CLR,M,M,M,M,M,M,M,M,KGTR 010820Z AUTO 35005KT 10SM CLR A2995 RMK MADISHF
GTR,2017-04-01 08:25,-88.5914,33.4503,M,M,M,350.00,6.00,M,29.95,M,10.00,M,CLR,M,M,M,M,M,M,M,M,KGTR 010825Z AUTO 35006KT 10SM CLR A2995 RMK MADISHF
GTR,2017-04-01 08:30,-88.5914,33.4503,M,M,M,350.00,6.00,M,29.96,M,10.00,M,CLR,M,M,M,M,M,M,M,M,KGTR 010830Z AUTO 35006KT 10SM CLR A2996 RMK MADISHF
GTR,2017-04-01 08:35,-88.5914,33.4503,M,M,M,350.00,5.00,M,29.96,M,10.00,M,CLR,M,M,M,M,M,M,M,M,KGTR 010835Z AUTO 35005KT 10SM CLR A2996 RMK MADISHF
GTR,2017-04-01 08:40,-88.5914,33.4503,M,M,M,350.00,5.00,M,29.96,M,10.00,M,CLR,M,M,M,M,M,M,M,M,KGTR 010840Z AUTO 35005KT 10SM CLR A2996 RMK MADISHF
GTR,2017-04-01 08:45,-88.5914,33.4503,M,M,M,350.00,5.00,M,29.97,M,10.00,M,CLR,M,M,M,M,M,M,M,M,KGTR 010845Z AUTO 35005KT 10SM CLR A2997 RMK MADISHF
GTR,2017-04-01 08:50,-88.5914,33.4503,M,M,M,350.00,4.00,M,29.97,M,10.00,M,CLR,M,M,M,M,M,M,M,M,KGTR 010850Z AUTO 35004KT 10SM CLR A2997 RMK MADISHF
GTR,2017-04-01 08:55,-88.5914,33.4503,M,M,M,360.00,4.00,M,29.97,M,10.00,M,CLR,M,M,M,M,M,M,M,M,KGTR 010855Z AUTO 36004KT 10SM CLR A2997 RMK MADISHF
GTR,2017-04-01 09:00,-88.5914,33.4503,M,M,M,10.00,4.00,M,29.97,M,10.00,M,CLR,M,M,M,M,M,M,M,M,KGTR 010900Z AUTO 01004KT 10SM CLR A2997 RMK MADISHF
GTR,2017-04-01 09:05,-88.5914,33.4503,M,M,M,10.00,5.00,M,29.97,M,10.00,M,CLR,M,M,M,M,M,M,M,M,KGTR 010905Z AUTO 01005KT 10SM CLR A2997 RMK MADISHF
GTR,2017-04-01 09:10,-88.5914,33.4503,M,M,M,10.00,5.00,M,29.97,M,10.00,M,CLR,M,M,M,M,M,M,M,M,KGTR 010910Z AUTO 01005KT 10SM CLR A2997 RMK MADISHF
GTR,2017-04-01 09:15,-88.5914,33.4503,M,M,M,10.00,6.00,M,29.98,M,10.00,M,CLR,M,M,M,M,M,M,M,M,KGTR 010915Z AUTO 01006KT 10SM CLR A2998 RMK MADISHF
GTR,2017-04-01 09:20,-88.5914,33.4503,M,M,M,20.00,6.00,M,29.98,M,10.00,M,CLR,M,M,M,M,M,M,M,M,KGTR 010920Z AUTO 02006KT 10SM CLR A2998 RMK MADISHF
GTR,2017-04-01 09:25,-88.5914,33.4503,M,M,M,20.00,7.00,M,29.98,M,10.00,M,CLR,M,M,M,M,M,M,M,M,KGTR 010925Z AUTO 02007KT 10SM CLR A2998 RMK MADISHF
GTR,2017-04-01 09:35,-88.5914,33.4503,M,M,M,20.00,5.00,M,29.98,M,10.00,M,CLR,M,M,M,M,M,M,M,M,KGTR 010935Z AUTO 02005KT 10SM CLR A2998 RMK MADISHF
GTR,2017-04-01 09:40,-88.5914,33.4503,M,M,M,20.00,5.00,M,29.98,M,10.00,M,CLR,M,M,M,M,M,M,M,M,KGTR 010940Z AUTO 02005KT 10SM CLR A2998 RMK MADISHF
GTR,2017-04-01 09:45,-88.5914,33.4503,M,M,M,10.00,4.00,M,29.98,M,10.00,M,CLR,M,M,M,M,M,M,M,M,KGTR 010945Z AUTO 01004KT 10SM CLR A2998 RMK MADISHF
GTR,2017-04-01 09:50,-88.5914,33.4503,M,M,M,10.00,4.00,M,29.98,M,10.00,M,CLR,M,M,M,M,M,M,M,M,KGTR 010950Z AUTO 01004KT 10SM CLR A2998 RMK MADISHF
GTR,2017-04-01 09:55,-88.5914,33.4503,M,M,M,10.00,5.00,M,29.98,M,10.00,M,CLR,M,M,M,M,M,M,M,M,KGTR 010955Z AUTO 01005KT 10SM CLR A2998 RMK MADISHF
GTR,2017-04-01 10:00,-88.5914,33.4503,M,M,M,20.00,5.00,M,29.98,M,10.00,M,CLR,M,M,M,M,M,M,M,M,KGTR 011000Z AUTO 02005KT 10SM CLR A2998 RMK MADISHF
GTR,2017-04-01 10:05,-88.5914,33.4503,M,M,M,30.00,4.00,M,29.98,M,10.00,M,CLR,M,M,M,M,M,M,M,M,KGTR 011005Z AUTO 03004KT 10SM CLR A2998 RMK MADISHF
GTR,2017-04-01 10:10,-88.5914,33.4503,M,M,M,20.00,4.00,M,29.98,M,10.00,M,CLR,M,M,M,M,M,M,M,M,KGTR 011010Z AUTO 02004KT 10SM CLR A2998 RMK MADISHF
GTR,2017-04-01 10:15,-88.5914,33.4503,M,M,M,10.00,5.00,M,29.99,M,10.00,M,CLR,M,M,M,M,M,M,M,M,KGTR 011015Z AUTO 01005KT 10SM CLR A2999 RMK MADISHF
GTR,2017-04-01 10:20,-88.5914,33.4503,M,M,M,10.00,6.00,M,29.99,M,10.00,M,CLR,M,M,M,M,M,M,M,M,KGTR 011020Z AUTO 01006KT 10SM CLR A2999 RMK MADISHF
GTR,2017-04-01 10:25,-88.5914,33.4503,M,M,M,10.00,6.00,M,29.99,M,10.00,M,CLR,M,M,M,M,M,M,M,M,KGTR 011025Z AUTO 01006KT 10SM CLR A2999 RMK MADISHF
GTR,2017-04-01 10:35,-88.5914,33.4503,M,M,M,10.00,6.00,M,29.99,M,10.00,M,CLR,M,M,M,M,M,M,M,M,KGTR 011035Z AUTO 01006KT 10SM CLR A2999 RMK MADISHF
GTR,2017-04-01 10:40,-88.5914,33.4503,M,M,M,10.00,6.00,M,29.99,M,10.00,M,CLR,M,M,M,M,M,M,M,M,KGTR 011040Z AUTO 01006KT 10SM CLR A2999 RMK MADISHF
GTR,2017-04-01 10:45,-88.5914,33.4503,M,M,M,20.00,6.00,M,29.99,M,10.00,M,CLR,M,M,M,M,M,M,M,M,KGTR 011045Z AUTO 02006KT 10SM CLR A2999 RMK MADISHF
GTR,2017-04-01 10:50,-88.5914,33.4503,M,M,M,20.00,6.00,M,29.99,M,10.00,M,CLR,M,M,M,M,M,M,M,M,KGTR 011050Z AUTO 02006KT 10SM CLR A2999 RMK MADISHF
GTR,2017-04-01 10:55,-88.5914,33.4503,M,M,M,30.00,6.00,M,30.00,M,10.00,M,CLR,M,M,M,M,M,M,M,M,KGTR 011055Z AUTO 03006KT 10SM CLR A3000 RMK MADISHF
GTR,2017-04-01 11:00,-88.5914,33.4503,M,M,M,40.00,6.00,M,30.00,M,10.00,M,CLR,M,M,M,M,M,M,M,M,KGTR 011100Z AUTO 04006KT 10SM CLR A3000 RMK MADISHF
GTR,2017-04-01 11:05,-88.5914,33.4503,M,M,M,30.00,6.00,M,30.00,M,10.00,M,CLR,M,M,M,M,M,M,M,M,KGTR 011105Z AUTO 03006KT 10SM CLR A3000 RMK MADISHF
GTR,2017-04-01 11:10,-88.5914,33.4503,M,M,M,30.00,6.00,M,30.00,M,10.00,M,CLR,M,M,M,M,M,M,M,M,KGTR 011110Z AUTO 03006KT 10SM CLR A3000 RMK MADISHF
GTR,2017-04-01 11:15,-88.5914,33.4503,M,M,M,30.00,5.00,M,30.00,M,10.00,M,CLR,M,M,M,M,M,M,M,M,KGTR 011115Z AUTO 03005KT 10SM CLR A3000 RMK MADISHF
GTR,2017-04-01 11:20,-88.5914,33.4503,M,M,M,40.00,5.00,M,30.00,M,10.00,M,CLR,M,M,M,M,M,M,M,M,KGTR 011120Z AUTO 04005KT 10SM CLR A3000 RMK MADISHF
GTR,2017-04-01 11:25,-88.5914,33.4503,M,M,M,40.00,6.00,M,30.00,M,10.00,M,CLR,M,M,M,M,M,M,M,M,KGTR 011125Z AUTO 04006KT 10SM CLR A3000 RMK MADISHF
GTR,2017-04-01 11:35,-88.5914,33.4503,M,M,M,20.00,6.00,M,30.01,M,10.00,M,CLR,M,M,M,M,M,M,M,M,KGTR 011135Z AUTO 02006KT 10SM CLR A3001 RMK MADISHF
GTR,2017-04-01 11:40,-88.5914,33.4503,M,M,M,20.00,6.00,M,30.01,M,10.00,M,CLR,M,M,M,M,M,M,M,M,KGTR 011140Z AUTO 02006KT 10SM CLR A3001 RMK MADISHF
GTR,2017-04-01 11:45,-88.5914,33.4503,M,M,M,20.00,6.00,M,30.01,M,10.00,M,CLR,M,M,M,M,M,M,M,M,KGTR 011145Z AUTO 02006KT 10SM CLR A3001 RMK MADISHF
GTR,2017-04-01 11:50,-88.5914,33.4503,M,M,M,30.00,6.00,M,30.02,M,10.00,M,CLR,M,M,M,M,M,M,M,M,KGTR 011150Z AUTO 03006KT 10SM CLR A3002 RMK MADISHF
GTR,2017-04-01 11:55,-88.5914,33.4503,M,M,M,20.00,4.00,M,30.02,M,10.00,M,CLR,M,M,M,M,M,M,M,M,KGTR 011155Z AUTO 02004KT 10SM CLR A3002 RMK MADISHF
GTR,2017-04-01 12:00,-88.5914,33.4503,M,M,M,10.00,5.00,M,30.02,M,10.00,M,CLR,M,M,M,M,M,M,M,M,KGTR 011200Z AUTO 01005KT 10SM CLR A3002 RMK MADISHF
GTR,2017-04-01 12:05,-88.5914,33.4503,M,M,M,10.00,5.00,M,30.03,M,10.00,M,CLR,M,M,M,M,M,M,M,M,KGTR 011205Z AUTO 01005KT 10SM CLR A3003 RMK MADISHF
GTR,2017-04-01 12:10,-88.5914,33.4503,M,M,M,10.00,5.00,M,30.02,M,10.00,M,CLR,M,M,M,M,M,M,M,M,KGTR 011210Z AUTO 01005KT 10SM CLR A3002 RMK MADISHF
GTR,2017-04-01 12:15,-88.5914,33.4503,M,M,M,20.00,5.00,M,30.03,M,10.00,M,CLR,M,M,M,M,M,M,M,M,KGTR 011215Z AUTO 02005KT 10SM CLR A3003 RMK MADISHF
GTR,2017-04-01 12:20,-88.5914,33.4503,M,M,M,20.00,5.00,M,30.03,M,10.00,M,CLR,M,M,M,M,M,M,M,M,KGTR 011220Z AUTO 02005KT 10SM CLR A3003 RMK MADISHF
GTR,2017-04-01 12:25,-88.5914,33.4503,M,M,M,20.00,4.00,M,30.03,M,10.00,M,CLR,M,M,M,M,M,M,M,M,KGTR 011225Z AUTO 02004KT 10SM CLR A3003 RMK MADISHF
GTR,2017-04-01 12:30,-88.5914,33.4503,M,M,M,20.00,3.00,M,30.03,M,10.00,M,CLR,M,M,M,M,M,M,M,M,KGTR 011230Z AUTO 02003KT 10SM CLR A3003 RMK MADISHF
GTR,2017-04-01 12:35,-88.5914,33.4503,M,M,M,20.00,3.00,M,30.04,M,10.00,M,CLR,M,M,M,M,M,M,M,M,KGTR 011235Z AUTO 02003KT 10SM CLR A3004 RMK MADISHF
GTR,2017-04-01 12:40,-88.5914,33.4503,M,M,M,360.00,3.00,M,30.04,M,10.00,M,CLR,M,M,M,M,M,M,M,M,KGTR 011240Z AUTO 36003KT 10SM CLR A3004 RMK MADISHF
GTR,2017-04-01 12:45,-88.5914,33.4503,M,M,M,350.00,3.00,M,30.04,M,10.00,M,CLR,M,M,M,M,M,M,M,M,KGTR 011245Z AUTO 35003KT 10SM CLR A3004 RMK MADISHF
GTR,2017-04-01 12:50,-88.5914,33.4503,M,M,M,0.00,0.00,M,30.04,M,10.00,M,CLR,M,M,M,M,M,M,M,M,KGTR 011250Z AUTO 00000KT 10SM CLR A3004 RMK MADISHF
GTR,2017-04-01 12:55,-88.5914,33.4503,M,M,M,10.00,3.00,M,30.04,M,10.00,M,CLR,M,M,M,M,M,M,M,M,KGTR 011255Z AUTO 01003KT 10SM CLR A3004 RMK MADISHF
GTR,2017-04-01 13:00,-88.5914,33.4503,M,M,M,30.00,4.00,M,30.05,M,10.00,M,CLR,M,M,M,M,M,M,M,M,KGTR 011300Z AUTO 03004KT 10SM CLR A3005 RMK MADISHF
GTR,2017-04-01 13:05,-88.5914,33.4503,M,M,M,50.00,5.00,M,30.05,M,10.00,M,CLR,M,M,M,M,M,M,M,M,KGTR 011305Z AUTO 05005KT 10SM CLR A3005 RMK MADISHF
GTR,2017-04-01 13:10,-88.5914,33.4503,M,M,M,50.00,7.00,M,30.05,M,10.00,M,CLR,M,M,M,M,M,M,M,M,KGTR 011310Z AUTO 05007KT 10SM CLR A3005 RMK MADISHF
GTR,2017-04-01 13:15,-88.5914,33.4503,M,M,M,50.00,7.00,M,30.05,M,10.00,M,CLR,M,M,M,M,M,M,M,M,KGTR 011315Z AUTO 05007KT 10SM CLR A3005 RMK MADISHF
GTR,2017-04-01 13:20,-88.5914,33.4503,M,M,M,50.00,8.00,M,30.05,M,10.00,M,CLR,M,M,M,M,M,M,M,M,KGTR 011320Z AUTO 05008KT 10SM CLR A3005 RMK MADISHF
GTR,2017-04-01 13:25,-88.5914,33.4503,M,M,M,60.00,7.00,M,30.05,M,10.00,M,CLR,M,M,M,M,M,M,M,M,KGTR 011325Z AUTO 06007KT 10SM CLR A3005 RMK MADISHF
GTR,2017-04-01 13:30,-88.5914,33.4503,M,M,M,60.00,6.00,M,30.05,M,10.00,M,CLR,M,M,M,M,M,M,M,M,KGTR 011330Z AUTO 06006KT 10SM CLR A3005 RMK MADISHF
GTR,2017-04-01 13:35,-88.5914,33.4503,M,M,M,70.00,5.00,M,30.06,M,10.00,M,CLR,M,M,M,M,M,M,M,M,KGTR 011335Z AUTO 07005KT 10SM CLR A3006 RMK MADISHF
GTR,2017-04-01 13:40,-88.5914,33.4503,M,M,M,60.00,7.00,M,30.06,M,10.00,M,CLR,M,M,M,M,M,M,M,M,KGTR 011340Z AUTO 06007KT 10SM CLR A3006 RMK MADISHF
GTR,2017-04-01 13:45,-88.5914,33.4503,M,M,M,70.00,7.00,M,30.06,M,10.00,M,CLR,M,M,M,M,M,M,M,M,KGTR 011345Z AUTO 07007KT 10SM CLR A3006 RMK MADISHF
GTR,2017-04-01 13:50,-88.5914,33.4503,M,M,M,70.00,8.00,M,30.07,M,10.00,M,CLR,M,M,M,M,M,M,M,M,KGTR 011350Z AUTO 07008KT 10SM CLR A3007 RMK MADISHF
GTR,2017-04-01 13:55,-88.5914,33.4503,M,M,M,60.00,7.00,M,30.07,M,10.00,M,CLR,M,M,M,M,M,M,M,M,KGTR 011355Z AUTO 06007KT 10SM CLR A3007 RMK MADISHF
GTR,2017-04-01 14:00,-88.5914,33.4503,M,M,M,70.00,7.00,M,30.07,M,10.00,M,CLR,M,M,M,M,M,M,M,M,KGTR 011400Z AUTO 07007KT 10SM CLR A3007 RMK MADISHF
GTR,2017-04-01 14:05,-88.5914,33.4503,M,M,M,60.00,5.00,M,30.07,M,10.00,M,CLR,M,M,M,M,M,M,M,M,KGTR 011405Z AUTO 06005KT 10SM CLR A3007 RMK MADISHF
GTR,2017-04-01 14:10,-88.5914,33.4503,M,M,M,70.00,7.00,M,30.08,M,10.00,M,CLR,M,M,M,M,M,M,M,M,KGTR 011410Z AUTO 07007KT 10SM CLR A3008 RMK MADISHF
GTR,2017-04-01 14:15,-88.5914,33.4503,M,M,M,60.00,6.00,M,30.08,M,10.00,M,CLR,M,M,M,M,M,M,M,M,KGTR 011415Z AUTO 06006KT 10SM CLR A3008 RMK MADISHF
GTR,2017-04-01 14:20,-88.5914,33.4503,M,M,M,60.00,5.00,M,30.08,M,10.00,M,CLR,M,M,M,M,M,M,M,M,KGTR 011420Z AUTO 06005KT 10SM CLR A3008 RMK MADISHF
GTR,2017-04-01 14:25,-88.5914,33.4503,M,M,M,50.00,6.00,M,30.08,M,10.00,M,CLR,M,M,M,M,M,M,M,M,KGTR 011425Z AUTO 05006KT 10SM CLR A3008 RMK MADISHF
GTR,2017-04-01 14:30,-88.5914,33.4503,M,M,M,60.00,5.00,M,30.08,M,10.00,M,CLR,M,M,M,M,M,M,M,M,KGTR 011430Z AUTO 06005KT 10SM CLR A3008 RMK MADISHF
GTR,2017-04-01 14:35,-88.5914,33.4503,M,M,M,90.00,6.00,M,30.08,M,10.00,M,CLR,M,M,M,M,M,M,M,M,KGTR 011435Z AUTO 09006KT 10SM CLR A3008 RMK MADISHF
GTR,2017-04-01 14:40,-88.5914,33.4503,M,M,M,80.00,3.00,M,30.09,M,10.00,M,CLR,M,M,M,M,M,M,M,M,KGTR 011440Z AUTO 08003KT 10SM CLR A3009 RMK MADISHF
GTR,2017-04-01 14:45,-88.5914,33.4503,M,M,M,70.00,7.00,M,30.09,M,10.00,M,CLR,M,M,M,M,M,M,M,M,KGTR 011445Z AUTO 07007KT 10SM CLR A3009 RMK MADISHF
GTR,2017-04-01 14:50,-88.5914,33.4503,M,M,M,70.00,6.00,M,30.09,M,10.00,M,CLR,M,M,M,M,M,M,M,M,KGTR 011450Z AUTO 07006KT 10SM CLR A3009 RMK MADISHF
GTR,2017-04-01 14:55,-88.5914,33.4503,M,M,M,80.00,5.00,M,30.09,M,10.00,M,CLR,M,M,M,M,M,M,M,M,KGTR 011455Z AUTO 08005KT 10SM CLR A3009 RMK MADISHF
GTR,2017-04-01 15:00,-88.5914,33.4503,M,M,M,60.00,5.00,M,30.09,M,10.00,M,CLR,M,M,M,M,M,M,M,M,KGTR 011500Z AUTO 06005KT 10SM CLR A3009 RMK MADISHF
GTR,2017-04-01 15:05,-88.5914,33.4503,M,M,M,90.00,3.00,M,30.09,M,10.00,M,CLR,M,M,M,M,M,M,M,M,KGTR 011505Z AUTO 09003KT 10SM CLR A3009 RMK MADISHF
GTR,2017-04-01 15:10,-88.5914,33.4503,M,M,M,70.00,4.00,M,30.10,M,10.00,M,CLR,M,M,M,M,M,M,M,M,KGTR 011510Z AUTO 07004KT 10SM CLR A3010 RMK MADISHF
GTR,2017-04-01 15:15,-88.5914,33.4503,M,M,M,80.00,4.00,M,30.10,M,10.00,M,CLR,M,M,M,M,M,M,M,M,KGTR 011515Z AUTO 08004KT 10SM CLR A3010 RMK MADISHF
GTR,2017-04-01 15:20,-88.5914,33.4503,M,M,M,30.00,4.00,M,30.09,M,10.00,M,CLR,M,M,M,M,M,M,M,M,KGTR 011520Z AUTO 03004KT 10SM CLR A3009 RMK MADISHF
GTR,2017-04-01 15:25,-88.5914,33.4503,M,M,M,30.00,6.00,M,30.09,M,10.00,M,CLR,M,M,M,M,M,M,M,M,KGTR 011525Z AUTO 03006KT 10SM CLR A3009 RMK MADISHF
GTR,2017-04-01 15:30,-88.5914,33.4503,M,M,M,360.00,3.00,M,30.09,M,10.00,M,CLR,M,M,M,M,M,M,M,M,KGTR 011530Z AUTO 36003KT 10SM CLR A3009 RMK MADISHF
GTR,2017-04-01 15:35,-88.5914,33.4503,M,M,M,10.00,6.00,M,30.09,M,10.00,M,CLR,M,M,M,M,M,M,M,M,KGTR 011535Z AUTO 01006KT 10SM CLR A3009 RMK MADISHF
GTR,2017-04-01 15:40,-88.5914,33.4503,M,M,M,20.00,4.00,M,30.09,M,10.00,M,CLR,M,M,M,M,M,M,M,M,KGTR 011540Z AUTO 02004KT 10SM CLR A3009 RMK MADISHF
GTR,2017-04-01 15:45,-88.5914,33.4503,M,M,M,30.00,6.00,M,30.09,M,10.00,M,CLR,M,M,M,M,M,M,M,M,KGTR 011545Z AUTO 03006KT 10SM CLR A3009 RMK MADISHF
GTR,2017-04-01 15:50,-88.5914,33.4503,M,M,M,0.00,0.00,M,30.09,M,10.00,M,CLR,M,M,M,M,M,M,M,M,KGTR 011550Z AUTO 00000KT 10SM CLR A3009 RMK MADISHF
GTR,2017-04-01 15:55,-88.5914,33.4503,M,M,M,60.00,6.00,M,30.09,M,10.00,M,CLR,M,M,M,M,M,M,M,M,KGTR 011555Z AUTO 06006KT 10SM CLR A3009 RMK MADISHF
GTR,2017-04-01 16:00,-88.5914,33.4503,M,M,M,60.00,5.00,M,30.09,M,10.00,M,CLR,M,M,M,M,M,M,M,M,KGTR 011600Z AUTO 06005KT 10SM CLR A3009 RMK MADISHF
GTR,2017-04-01 16:05,-88.5914,33.4503,M,M,M,30.00,3.00,M,30.08,M,10.00,M,CLR,M,M,M,M,M,M,M,M,KGTR 011605Z AUTO 03003KT 10SM CLR A3008 RMK MADISHF
GTR,2017-04-01 16:10,-88.5914,33.4503,M,M,M,90.00,5.00,M,30.08,M,10.00,M,CLR,M,M,M,M,M,M,M,M,KGTR 011610Z AUTO 09005KT 10SM CLR A3008 RMK MADISHF
GTR,2017-04-01 16:15,-88.5914,33.4503,M,M,M,50.00,4.00,M,30.07,M,10.00,M,CLR,M,M,M,M,M,M,M,M,KGTR 011615Z AUTO 05004KT 10SM CLR A3007 RMK MADISHF
GTR,2017-04-01 16:20,-88.5914,33.4503,M,M,M,50.00,5.00,M,30.07,M,10.00,M,CLR,M,M,M,M,M,M,M,M,KGTR 011620Z AUTO 05005KT 10SM CLR A3007 RMK MADISHF
GTR,2017-04-01 16:25,-88.5914,33.4503,M,M,M,30.00,5.00,M,30.08,M,10.00,M,CLR,M,M,M,M,M,M,M,M,KGTR 011625Z AUTO 03005KT 10SM CLR A3008 RMK MADISHF
GTR,2017-04-01 16:30,-88.5914,33.4503,M,M,M,50.00,6.00,M,30.08,M,10.00,M,CLR,M,M,M,M,M,M,M,M,KGTR 011630Z AUTO 05006KT 10SM CLR A3008 RMK MADISHF
GTR,2017-04-01 16:35,-88.5914,33.4503,M,M,M,10.00,5.00,M,30.07,M,10.00,M,CLR,M,M,M,M,M,M,M,M,KGTR 011635Z AUTO 01005KT 10SM CLR A3007 RMK MADISHF
GTR,2017-04-01 16:40,-88.5914,33.4503,M,M,M,60.00,5.00,M,30.07,M,10.00,M,CLR,M,M,M,M,M,M,M,M,KGTR 011640Z AUTO 06005KT 10SM CLR A3007 RMK MADISHF
GTR,2017-04-01 16:45,-88.5914,33.4503,M,M,M,30.00,6.00,M,30.07,M,10.00,M,CLR,M,M,M,M,M,M,M,M,KGTR 011645Z AUTO 03006KT 10SM CLR A3007 RMK WND 02V08  MADISHF
GTR,2017-04-01 16:50,-88.5914,33.4503,M,M,M,50.00,5.00,M,30.07,M,10.00,M,CLR,M,M,M,M,M,M,M,M,KGTR 011650Z AUTO 05005KT 10SM CLR A3007 RMK MADISHF
GTR,2017-04-01 16:55,-88.5914,33.4503,M,M,M,70.00,6.00,M,30.07,M,10.00,M,CLR,M,M,M,M,M,M,M,M,KGTR 011655Z AUTO 07006KT 10SM CLR A3007 RMK MADISHF
GTR,2017-04-01 17:00,-88.5914,33.4503,M,M,M,140.00,3.00,M,30.07,M,10.00,M,CLR,M,M,M,M,M,M,M,M,KGTR 011700Z AUTO 14003KT 10SM CLR A3007 RMK MADISHF
GTR,2017-04-01 17:05,-88.5914,33.4503,M,M,M,80.00,4.00,M,30.07,M,10.00,M,CLR,M,M,M,M,M,M,M,M,KGTR 011705Z AUTO 08004KT 10SM CLR A3007 RMK MADISHF
GTR,2017-04-01 17:10,-88.5914,33.4503,M,M,M,40.00,4.00,M,30.07,M,10.00,M,CLR,M,M,M,M,M,M,M,M,KGTR 011710Z AUTO 04004KT 10SM CLR A3007 RMK MADISHF
GTR,2017-04-01 17:15,-88.5914,33.4503,M,M,M,0.00,0.00,M,30.07,M,10.00,M,CLR,M,M,M,M,M,M,M,M,KGTR 011715Z AUTO 00000KT 10SM CLR A3007 RMK MADISHF
GTR,2017-04-01 17:20,-88.5914,33.4503,M,M,M,60.00,6.00,M,30.07,M,10.00,M,CLR,M,M,M,M,M,M,M,M,KGTR 011720Z AUTO 06006KT 10SM CLR A3007 RMK MADISHF
GTR,2017-04-01 17:25,-88.5914,33.4503,M,M,M,60.00,5.00,M,30.07,M,10.00,M,CLR,M,M,M,M,M,M,M,M,KGTR 011725Z AUTO 06005KT 10SM CLR A3007 RMK MADISHF
GTR,2017-04-01 17:30,-88.5914,33.4503,M,M,M,0.00,0.00,M,30.06,M,10.00,M,CLR,M,M,M,M,M,M,M,M,KGTR 011730Z AUTO 00000KT 10SM CLR A3006 RMK MADISHF
GTR,2017-04-01 17:35,-88.5914,33.4503,M,M,M,320.00,3.00,M,30.06,M,10.00,M,CLR,M,M,M,M,M,M,M,M,KGTR 011735Z AUTO 32003KT 10SM CLR A3006 RMK MADISHF
GTR,2017-04-01 17:40,-88.5914,33.4503,M,M,M,0.00,0.00,M,30.06,M,10.00,M,CLR,M,M,M,M,M,M,M,M,KGTR 011740Z AUTO 00000KT 10SM CLR A3006 RMK MADISHF
GTR,2017-04-01 17:45,-88.5914,33.4503,M,M,M,90.00,4.00,M,30.06,M,10.00,M,CLR,M,M,M,M,M,M,M,M,KGTR 011745Z AUTO 09004KT 10SM CLR A3006 RMK MADISHF
GTR,2017-04-01 17:50,-88.5914,33.4503,M,M,M,0.00,0.00,M,30.05,M,10.00,M,CLR,M,M,M,M,M,M,M,M,KGTR 011750Z AUTO 00000KT 10SM CLR A3005 RMK MADISHF
GTR,2017-04-01 17:55,-88.5914,33.4503,M,M,M,0.00,0.00,M,30.06,M,10.00,M,CLR,M,M,M,M,M,M,M,M,KGTR 011755Z AUTO 00000KT 10SM CLR A3006 RMK MADISHF
GTR,2017-04-01 18:00,-88.5914,33.4503,M,M,M,70.00,5.00,M,30.05,M,10.00,M,CLR,M,M,M,M,M,M,M,M,KGTR 011800Z AUTO 07005KT 10SM CLR A3005 RMK MADISHF
GTR,2017-04-01 18:05,-88.5914,33.4503,M,M,M,80.00,7.00,M,30.05,M,10.00,M,CLR,M,M,M,M,M,M,M,M,KGTR 011805Z AUTO 08007KT 10SM CLR A3005 RMK MADISHF
GTR,2017-04-01 18:10,-88.5914,33.4503,M,M,M,80.00,7.00,M,30.04,M,10.00,M,CLR,M,M,M,M,M,M,M,M,KGTR 011810Z AUTO 08007KT 10SM CLR A3004 RMK MADISHF
GTR,2017-04-01 18:15,-88.5914,33.4503,M,M,M,100.00,3.00,M,30.05,M,10.00,M,CLR,M,M,M,M,M,M,M,M,KGTR 011815Z AUTO 10003KT 10SM CLR A3005 RMK MADISHF
GTR,2017-04-01 18:20,-88.5914,33.4503,M,M,M,70.00,5.00,M,30.05,M,10.00,M,CLR,M,M,M,M,M,M,M,M,KGTR 011820Z AUTO 07005KT 10SM CLR A3005 RMK MADISHF
GTR,2017-04-01 18:25,-88.5914,33.4503,M,M,M,40.00,6.00,M,30.05,M,10.00,M,CLR,M,M,M,M,M,M,M,M,KGTR 011825Z AUTO 04006KT 10SM CLR A3005 RMK MADISHF
GTR,2017-04-01 18:30,-88.5914,33.4503,M,M,M,350.00,4.00,M,30.05,M,10.00,M,CLR,M,M,M,M,M,M,M,M,KGTR 011830Z AUTO 35004KT 10SM CLR A3005 RMK MADISHF
GTR,2017-04-01 18:35,-88.5914,33.4503,M,M,M,20.00,3.00,M,30.05,M,10.00,M,CLR,M,M,M,M,M,M,M,M,KGTR 011835Z AUTO 02003KT 10SM CLR A3005 RMK MADISHF
GTR,2017-04-01 18:40,-88.5914,33.4503,M,M,M,10.00,3.00,M,30.04,M,10.00,M,CLR,M,M,M,M,M,M,M,M,KGTR 011840Z AUTO 01003KT 10SM CLR A3004 RMK MADISHF
GTR,2017-04-01 18:45,-88.5914,33.4503,M,M,M,60.00,5.00,M,30.04,M,10.00,M,CLR,M,M,M,M,M,M,M,M,KGTR 011845Z AUTO 06005KT 10SM CLR A3004 RMK MADISHF
GTR,2017-04-01 18:50,-88.5914,33.4503,M,M,M,340.00,4.00,M,30.04,M,10.00,M,CLR,M,M,M,M,M,M,M,M,KGTR 011850Z AUTO 34004KT 10SM CLR A3004 RMK MADISHF
GTR,2017-04-01 18:55,-88.5914,33.4503,M,M,M,320.00,5.00,M,30.04,M,10.00,M,CLR,M,M,M,M,M,M,M,M,KGTR 011855Z AUTO 32005KT 10SM CLR A3004 RMK MADISHF
GTR,2017-04-01 19:00,-88.5914,33.4503,M,M,M,30.00,4.00,M,30.04,M,10.00,M,CLR,M,M,M,M,M,M,M,M,KGTR 011900Z AUTO 03004KT 10SM CLR A3004 RMK MADISHF
GTR,2017-04-01 19:05,-88.5914,33.4503,M,M,M,40.00,4.00,M,30.04,M,10.00,M,CLR,M,M,M,M,M,M,M,M,KGTR 011905Z AUTO 04004KT 10SM CLR A3004 RMK MADISHF
GTR,2017-04-01 19:10,-88.5914,33.4503,M,M,M,0.00,0.00,M,30.04,M,10.00,M,CLR,M,M,M,M,M,M,M,M,KGTR 011910Z AUTO 00000KT 10SM CLR A3004 RMK MADISHF
GTR,2017-04-01 19:15,-88.5914,33.4503,M,M,M,40.00,4.00,M,30.04,M,10.00,M,CLR,M,M,M,M,M,M,M,M,KGTR 011915Z AUTO 04004KT 10SM CLR A3004 RMK MADISHF
GTR,2017-04-01 19:20,-88.5914,33.4503,M,M,M,350.00,6.00,M,30.04,M,10.00,M,CLR,M,M,M,M,M,M,M,M,KGTR 011920Z AUTO 35006KT 10SM CLR A3004 RMK MADISHF
GTR,2017-04-01 19:25,-88.5914,33.4503,M,M,M,20.00,5.00,M,30.04,M,10.00,M,CLR,M,M,M,M,M,M,M,M,KGTR 011925Z AUTO 02005KT 10SM CLR A3004 RMK MADISHF
GTR,2017-04-01 19:30,-88.5914,33.4503,M,M,M,0.00,0.00,M,30.03,M,10.00,M,CLR,M,M,M,M,M,M,M,M,KGTR 011930Z AUTO 00000KT 10SM CLR A3003 RMK MADISHF
GTR,2017-04-01 19:35,-88.5914,33.4503,M,M,M,70.00,4.00,M,30.03,M,10.00,M,CLR,M,M,M,M,M,M,M,M,KGTR 011935Z AUTO 07004KT 10SM CLR A3003 RMK MADISHF
GTR,2017-04-01 19:40,-88.5914,33.4503,M,M,M,20.00,5.00,M,30.03,M,10.00,M,CLR,M,M,M,M,M,M,M,M,KGTR 011940Z AUTO 02005KT 10SM CLR A3003 RMK MADISHF
GTR,2017-04-01 19:45,-88.5914,33.4503,M,M,M,340.00,4.00,M,30.02,M,10.00,M,CLR,M,M,M,M,M,M,M,M,KGTR 011945Z AUTO 34004KT 10SM CLR A3002 RMK MADISHF
GTR,2017-04-01 19:50,-88.5914,33.4503,M,M,M,20.00,4.00,M,30.02,M,10.00,M,CLR,M,M,M,M,M,M,M,M,KGTR 011950Z AUTO 02004KT 10SM CLR A3002 RMK MADISHF
GTR,2017-04-01 19:55,-88.5914,33.4503,M,M,M,0.00,0.00,M,30.03,M,10.00,M,CLR,M,M,M,M,M,M,M,M,KGTR 011955Z AUTO 00000KT 10SM CLR A3003 RMK MADISHF
GTR,2017-04-01 20:00,-88.5914,33.4503,M,M,M,330.00,5.00,M,30.02,M,10.00,M,CLR,M,M,M,M,M,M,M,M,KGTR 012000Z AUTO 33005KT 10SM CLR A3002 RMK MADISHF
GTR,2017-04-01 20:05,-88.5914,33.4503,M,M,M,70.00,4.00,M,30.02,M,10.00,M,CLR,M,M,M,M,M,M,M,M,KGTR 012005Z AUTO 07004KT 10SM CLR A3002 RMK MADISHF
GTR,2017-04-01 20:10,-88.5914,33.4503,M,M,M,10.00,5.00,M,30.02,M,10.00,M,CLR,M,M,M,M,M,M,M,M,KGTR 012010Z AUTO 01005KT 10SM CLR A3002 RMK MADISHF
GTR,2017-04-01 20:15,-88.5914,33.4503,M,M,M,340.00,6.00,M,30.01,M,10.00,M,CLR,M,M,M,M,M,M,M,M,KGTR 012015Z AUTO 34006KT 10SM CLR A3001 RMK MADISHF
GTR,2017-04-01 20:20,-88.5914,33.4503,M,M,M,20.00,5.00,M,30.02,M,10.00,M,CLR,M,M,M,M,M,M,M,M,KGTR 012020Z AUTO 02005KT 10SM CLR A3002 RMK MADISHF
GTR,2017-04-01 20:25,-88.5914,33.4503,M,M,M,20.00,6.00,M,30.02,M,10.00,M,CLR,M,M,M,M,M,M,M,M,KGTR 012025Z AUTO 02006KT 10SM CLR A3002 RMK MADISHF
GTR,2017-04-01 20:30,-88.5914,33.4503,M,M,M,360.00,3.00,M,30.02,M,10.00,M,CLR,M,M,M,M,M,M,M,M,KGTR 012030Z AUTO 36003KT 10SM CLR A3002 RMK MADISHF
GTR,2017-04-01 20:35,-88.5914,33.4503,M,M,M,30.00,6.00,M,30.02,M,10.00,M,CLR,M,M,M,M,M,M,M,M,KGTR 012035Z AUTO 03006KT 10SM CLR A3002 RMK MADISHF
GTR,2017-04-01 20:40,-88.5914,33.4503,M,M,M,300.00,5.00,M,30.02,M,10.00,M,CLR,M,M,M,M,M,M,M,M,KGTR 012040Z AUTO 30005KT 10SM CLR A3002 RMK MADISHF
GTR,2017-04-01 20:45,-88.5914,33.4503,M,M,M,30.00,10.00,M,30.01,M,10.00,M,CLR,M,M,M,M,M,M,M,M,KGTR 012045Z AUTO 03010KT 10SM CLR A3001 RMK MADISHF
GTR,2017-04-01 20:50,-88.5914,33.4503,M,M,M,40.00,4.00,M,30.01,M,10.00,M,CLR,M,M,M,M,M,M,M,M,KGTR 012050Z AUTO 04004KT 10SM CLR A3001 RMK MADISHF
GTR,2017-04-01 20:55,-88.5914,33.4503,M,M,M,360.00,4.00,M,30.01,M,10.00,M,CLR,M,M,M,M,M,M,M,M,KGTR 012055Z AUTO 36004KT 10SM CLR A3001 RMK MADISHF
GTR,2017-04-01 21:00,-88.5914,33.4503,M,M,M,20.00,4.00,M,30.01,M,10.00,M,CLR,M,M,M,M,M,M,M,M,KGTR 012100Z AUTO 02004KT 10SM CLR A3001 RMK MADISHF
GTR,2017-04-01 21:05,-88.5914,33.4503,M,M,M,360.00,7.00,M,30.01,M,10.00,M,CLR,M,M,M,M,M,M,M,M,KGTR 012105Z AUTO 36007KT 10SM CLR A3001 RMK MADISHF
GTR,2017-04-01 21:10,-88.5914,33.4503,M,M,M,10.00,5.00,M,30.01,M,10.00,M,CLR,M,M,M,M,M,M,M,M,KGTR 012110Z AUTO 01005KT 10SM CLR A3001 RMK MADISHF
GTR,2017-04-01 21:15,-88.5914,33.4503,M,M,M,10.00,6.00,M,30.00,M,10.00,M,CLR,M,M,M,M,M,M,M,M,KGTR 012115Z AUTO 01006KT 10SM CLR A3000 RMK MADISHF
GTR,2017-04-01 21:20,-88.5914,33.4503,M,M,M,360.00,6.00,M,30.01,M,10.00,M,CLR,M,M,M,M,M,M,M,M,KGTR 012120Z AUTO 36006KT 10SM CLR A3001 RMK MADISHF
GTR,2017-04-01 21:25,-88.5914,33.4503,M,M,M,340.00,6.00,M,30.00,M,10.00,M,CLR,M,M,M,M,M,M,M,M,KGTR 012125Z AUTO 34006KT 10SM CLR A3000 RMK MADISHF
GTR,2017-04-01 21:30,-88.5914,33.4503,M,M,M,80.00,4.00,M,30.00,M,10.00,M,CLR,M,M,M,M,M,M,M,M,KGTR 012130Z AUTO 08004KT 10SM CLR A3000 RMK MADISHF
GTR,2017-04-01 21:35,-88.5914,33.4503,M,M,M,0.00,0.00,M,30.00,M,10.00,M,CLR,M,M,M,M,M,M,M,M,KGTR 012135Z AUTO 00000KT 10SM CLR A3000 RMK MADISHF
GTR,2017-04-01 21:40,-88.5914,33.4503,M,M,M,30.00,7.00,M,30.00,M,10.00,M,CLR,M,M,M,M,M,M,M,M,KGTR 012140Z AUTO 03007KT 10SM CLR A3000 RMK MADISHF
GTR,2017-04-01 21:45,-88.5914,33.4503,M,M,M,20.00,6.00,M,30.00,M,10.00,M,CLR,M,M,M,M,M,M,M,M,KGTR 012145Z AUTO 02006KT 10SM CLR A3000 RMK MADISHF
GTR,2017-04-01 21:50,-88.5914,33.4503,M,M,M,20.00,5.00,M,30.00,M,10.00,M,CLR,M,M,M,M,M,M,M,M,KGTR 012150Z AUTO 02005KT 10SM CLR A3000 RMK MADISHF
GTR,2017-04-01 21:55,-88.5914,33.4503,M,M,M,350.00,4.00,M,30.00,M,10.00,M,CLR,M,M,M,M,M,M,M,M,KGTR 012155Z AUTO 35004KT 10SM CLR A3000 RMK MADISHF
GTR,2017-04-01 22:00,-88.5914,33.4503,M,M,M,360.00,6.00,M,30.00,M,10.00,M,CLR,M,M,M,M,M,M,M,M,KGTR 012200Z AUTO 36006KT 10SM CLR A3000 RMK MADISHF
GTR,2017-04-01 22:05,-88.5914,33.4503,M,M,M,360.00,6.00,M,30.00,M,10.00,M,CLR,M,M,M,M,M,M,M,M,KGTR 012205Z AUTO 36006KT 10SM CLR A3000 RMK MADISHF
GTR,2017-04-01 22:10,-88.5914,33.4503,M,M,M,10.00,4.00,M,30.00,M,10.00,M,CLR,M,M,M,M,M,M,M,M,KGTR 012210Z AUTO 01004KT 10SM CLR A3000 RMK MADISHF
GTR,2017-04-01 22:15,-88.5914,33.4503,M,M,M,350.00,6.00,M,30.00,M,10.00,M,CLR,M,M,M,M,M,M,M,M,KGTR 012215Z AUTO 35006KT 10SM CLR A3000 RMK MADISHF
GTR,2017-04-01 22:20,-88.5914,33.4503,M,M,M,360.00,5.00,M,30.00,M,10.00,M,CLR,M,M,M,M,M,M,M,M,KGTR 012220Z AUTO 36005KT 10SM CLR A3000 RMK MADISHF
GTR,2017-04-01 22:25,-88.5914,33.4503,M,M,M,30.00,6.00,M,30.00,M,10.00,M,CLR,M,M,M,M,M,M,M,M,KGTR 012225Z AUTO 03006KT 10SM CLR A3000 RMK MADISHF
GTR,2017-04-01 22:30,-88.5914,33.4503,M,M,M,10.00,6.00,M,30.00,M,10.00,M,CLR,M,M,M,M,M,M,M,M,KGTR 012230Z AUTO 01006KT 10SM CLR A3000 RMK WND 33V05  MADISHF
GTR,2017-04-01 22:35,-88.5914,33.4503,M,M,M,360.00,6.00,M,30.00,M,10.00,M,CLR,M,M,M,M,M,M,M,M,KGTR 012235Z AUTO 36006KT 10SM CLR A3000 RMK MADISHF
GTR,2017-04-01 22:40,-88.5914,33.4503,M,M,M,10.00,8.00,M,30.00,M,10.00,M,CLR,M,M,M,M,M,M,M,M,KGTR 012240Z AUTO 01008KT 10SM CLR A3000 RMK MADISHF
GTR,2017-04-01 22:45,-88.5914,33.4503,M,M,M,40.00,7.00,M,30.00,M,10.00,M,CLR,M,M,M,M,M,M,M,M,KGTR 012245Z AUTO 04007KT 10SM CLR A3000 RMK MADISHF
GTR,2017-04-01 22:50,-88.5914,33.4503,M,M,M,30.00,7.00,M,30.00,M,10.00,M,CLR,M,M,M,M,M,M,M,M,KGTR 012250Z AUTO 03007KT 10SM CLR A3000 RMK MADISHF
GTR,2017-04-01 22:55,-88.5914,33.4503,M,M,M,20.00,5.00,M,30.00,M,10.00,M,CLR,M,M,M,M,M,M,M,M,KGTR 012255Z AUTO 02005KT 10SM CLR A3000 RMK MADISHF
GTR,2017-04-01 23:00,-88.5914,33.4503,M,M,M,30.00,5.00,M,30.00,M,10.00,M,CLR,M,M,M,M,M,M,M,M,KGTR 012300Z AUTO 03005KT 10SM CLR A3000 RMK MADISHF
GTR,2017-04-01 23:05,-88.5914,33.4503,M,M,M,50.00,6.00,M,30.00,M,10.00,M,CLR,M,M,M,M,M,M,M,M,KGTR 012305Z AUTO 05006KT 10SM CLR A3000 RMK MADISHF
GTR,2017-04-01 23:10,-88.5914,33.4503,M,M,M,40.00,7.00,M,30.00,M,10.00,M,CLR,M,M,M,M,M,M,M,M,KGTR 012310Z AUTO 04007KT 10SM CLR A3000 RMK MADISHF
GTR,2017-04-01 23:15,-88.5914,33.4503,M,M,M,30.00,5.00,M,30.00,M,10.00,M,CLR,M,M,M,M,M,M,M,M,KGTR 012315Z AUTO 03005KT 10SM CLR A3000 RMK MADISHF
GTR,2017-04-01 23:20,-88.5914,33.4503,M,M,M,30.00,6.00,M,30.00,M,10.00,M,CLR,M,M,M,M,M,M,M,M,KGTR 012320Z AUTO 03006KT 10SM CLR A3000 RMK MADISHF
GTR,2017-04-01 23:25,-88.5914,33.4503,M,M,M,20.00,6.00,M,30.01,M,10.00,M,CLR,M,M,M,M,M,M,M,M,KGTR 012325Z AUTO 02006KT 10SM CLR A3001 RMK MADISHF
GTR,2017-04-01 23:30,-88.5914,33.4503,M,M,M,30.00,7.00,M,30.01,M,10.00,M,CLR,M,M,M,M,M,M,M,M,KGTR 012330Z AUTO 03007KT 10SM CLR A3001 RMK MADISHF
GTR,2017-04-01 23:35,-88.5914,33.4503,M,M,M,20.00,6.00,M,30.01,M,10.00,M,CLR,M,M,M,M,M,M,M,M,KGTR 012335Z AUTO 02006KT 10SM CLR A3001 RMK MADISHF
GTR,2017-04-01 23:40,-88.5914,33.4503,M,M,M,20.00,6.00,M,30.01,M,10.00,M,CLR,M,M,M,M,M,M,M,M,KGTR 012340Z AUTO 02006KT 10SM CLR A3001 RMK MADISHF
GTR,2017-04-01 23:45,-88.5914,33.4503,M,M,M,10.00,6.00,M,30.01,M,10.00,M,CLR,M,M,M,M,M,M,M,M,KGTR 012345Z AUTO 01006KT 10SM CLR A3001 RMK MADISHF
GTR,2017-04-01 23:50,-88.5914,33.4503,M,M,M,20.00,6.00,M,30.01,M,10.00,M,CLR,M,M,M,M,M,M,M,M,KGTR 012350Z AUTO 02006KT 10SM CLR A3001 RMK MADISHF
GTR,2017-04-01 23:55,-88.5914,33.4503,M,M,M,10.00,5.00,M,30.02,M,10.00,M,CLR,M,M,M,M,M,M,M,M,KGTR 012355Z AUTO 01005KT 10SM CLR A3002 RMK MADISHF
