#DEBUG: Format Typ    -> comma
#DEBUG: Time Period   -> 2017-04-01 00:00:00+00:00 2017-04-02 00:00:00+00:00
#DEBUG: Time Zone     -> Etc/UTC
#DEBUG: Data Contact   -> daryl herzmann akrherz@iastate.edu 515-294-5978
#DEBUG: Entries Found -> -1
station,valid,lon,lat,tmpf, dwpf, relh, drct, sknt, p01i, alti, mslp, vsby, gust, skyc1, skyc2, skyc3, skyc4, skyl1, skyl2, skyl3, skyl4, presentwx, metar
GWO,2017-04-01 00:00,-90.0847,33.4943,M,M,M,0.00,0.00,M,29.89,M,10.00,M,CLR,M,M,M,M,M,M,M,M,KGWO 010000Z AUTO 00000KT 10SM CLR A2989 RMK MADISHF
GWO,2017-04-01 00:05,-90.0847,33.4943,M,M,M,0.00,0.00,M,29.89,M,10.00,M,CLR,M,M,M,M,M,M,M,M,KGWO 010005Z AUTO 00000KT 10SM CLR A2989 RMK MADISHF
GWO,2017-04-01 00:10,-90.0847,33.4943,M,M,M,0.00,0.00,M,29.89,M,10.00,M,CLR,M,M,M,M,M,M,M,M,KGWO 010010Z AUTO 00000KT 10SM CLR A2989 RMK MADISHF
GWO,2017-04-01 00:15,-90.0847,33.4943,M,M,M,0.00,0.00,M,29.89,M,10.00,M,CLR,M,M,M,M,M,M,M,M,KGWO 010015Z AUTO 00000KT 10SM CLR A2989 RMK MADISHF
GWO,2017-04-01 00:20,-90.0847,33.4943,M,M,M,0.00,0.00,M,29.89,M,10.00,M,CLR,M,M,M,M,M,M,M,M,KGWO 010020Z AUTO 00000KT 10SM CLR A2989 RMK MADISHF
GWO,2017-04-01 00:25,-90.0847,33.4943,M,M,M,0.00,0.00,M,29.89,M,10.00,M,CLR,M,M,M,M,M,M,M,M,KGWO 010025Z AUTO 00000KT 10SM CLR A2989 RMK MADISHF
GWO,2017-04-01 00:30,-90.0847,33.4943,M,M,M,0.00,0.00,M,29.89,M,10.00,M,CLR,M,M,M,M,M,M,M,M,KGWO 010030Z AUTO 00000KT 10SM CLR A2989 RMK MADISHF
GWO,2017-04-01 00:35,-90.0847,33.4943,M,M,M,0.00,0.00,M,29.89,M,10.00,M,CLR,M,M,M,M,M,M,M,M,KGWO 010035Z AUTO 00000KT 10SM CLR A2989 RMK MADISHF
GWO,2017-04-01 00:40,-90.0847,33.4943,M,M,M,0.00,0.00,M,29.89,M,10.00,M,CLR,M,M,M,M,M,M,M,M,KGWO 010040Z AUTO 00000KT 10SM CLR A2989 RMK MADISHF
GWO,2017-04-01 00:45,-90.0847,33.4943,M,M,M,0.00,0.00,M,29.89,M,10.00,M,CLR,M,M,M,M,M,M,M,M,KGWO 010045Z AUTO 00000KT 10SM CLR A2989 RMK MADISHF
GWO,2017-04-01 00:50,-90.0847,33.4943,M,M,M,0.00,0.00,M,29.90,M,10.00,M,CLR,M,M,M,M,M,M,M,M,KGWO 010050Z AUTO 00000KT 10SM CLR A2990 RMK MADISHF
GWO,2017-04-01 00:53,-90.0847,33.4943,63.00,54.00,72.42,0.00,0.00,0.00,29.90,1012.30,10.00,M,CLR,M,M,M,M,M,M,M,M,KGWO 010053Z AUTO 00000KT 10SM CLR 17/12 A2990 RMK AO2 SLP123 T01720122
GWO,2017-04-01 00:55,-90.0847,33.4943,M,M,M,0.00,0.00,M,29.90,M,10.00,M,CLR,M,M,M,M,M,M,M,M,KGWO 010055Z AUTO 00000KT 10SM CLR A2990 RMK MADISHF
GWO,2017-04-01 01:00,-90.0847,33.4943,M,M,M,0.00,0.00,M,29.90,M,10.00,M,CLR,M,M,M,M,M,M,M,M,KGWO 010100Z AUTO 00000KT 10SM CLR A2990 RMK MADISHF
GWO,2017-04-01 01:05,-90.0847,33.4943,M,M,M,0.00,0.00,M,29.90,M,10.00,M,CLR,M,M,M,M,M,M,M,M,KGWO 010105Z AUTO 00000KT 10SM CLR A2990 RMK MADISHF
GWO,2017-04-01 01:10,-90.0847,33.4943,M,M,M,0.00,0.00,M,29.90,M,10.00,M,CLR,M,M,M,M,M,M,M,M,KGWO 010110Z AUTO 00000KT 10SM CLR A2990 RMK MADISHF
GWO,2017-04-01 01:15,-90.0847,33.4943,M,M,M,210.00,3.00,M,29.91,M,10.00,M,CLR,M,M,M,M,M,M,M,M,KGWO 010115Z AUTO 21003KT 10SM CLR A2991 RMK MADISHF
GWO,2017-04-01 01:20,-90.0847,33.4943,M,M,M,210.00,3.00,M,29.91,M,10.00,M,CLR,M,M,M,M,M,M,M,M,KGWO 010120Z AUTO 21003KT 10SM CLR A2991 RMK MADISHF
GWO,2017-04-01 01:25,-90.0847,33.4943,M,M,M,0.00,0.00,M,29.91,M,10.00,M,CLR,M,M,M,M,M,M,M,M,KGWO 010125Z AUTO 00000KT 10SM CLR A2991 RMK MADISHF
GWO,2017-04-01 01:30,-90.0847,33.4943,M,M,M,0.00,0.00,M,29.91,M,10.00,M,CLR,M,M,M,M,M,M,M,M,KGWO 010130Z AUTO 00000KT 10SM CLR A2991 RMK MADISHF
GWO,2017-04-01 01:35,-90.0847,33.4943,M,M,M,0.00,0.00,M,29.91,M,10.00,M,CLR,M,M,M,M,M,M,M,M,KGWO 010135Z AUTO 00000KT 10SM CLR A2991 RMK MADISHF
GWO,2017-04-01 01:40,-90.0847,33.4943,M,M,M,0.00,0.00,M,29.91,M,10.00,M,CLR,M,M,M,M,M,M,M,M,KGWO 010140Z AUTO 00000KT 10SM CLR A2991 RMK MADISHF
GWO,2017-04-01 01:45,-90.0847,33.4943,M,M,M,0.00,0.00,M,29.92,M,10.00,M,CLR,M,M,M,M,M,M,M,M,KGWO 010145Z AUTO 00000KT 10SM CLR A2992 RMK MADISHF
GWO,2017-04-01 01:50,-90.0847,33.4943,M,M,M,0.00,0.00,M,29.92,M,10.00,M,CLR,M,M,M,M,M,M,M,M,KGWO 010150Z AUTO 00000KT 10SM CLR A2992 RMK MADISHF
GWO,2017-04-01 01:53,-90.0847,33.4943,61.00,57.00,86.67,0.00,0.00,0.00,29.92,1013.00,10.00,M,CLR,M,M,M,M,M,M,M,M,KGWO 010153Z AUTO 00000KT 10SM CLR 16/14 A2992 RMK AO2 SLP130 T01610139
GWO,2017-04-01 01:55,-90.0847,33.4943,M,M,M,220.00,3.00,M,29.92,M,10.00,M,CLR,M,M,M,M,M,M,M,M,KGWO 010155Z AUTO 22003KT 10SM CLR A2992 RMK MADISHF
GWO,2017-04-01 02:00,-90.0847,33.4943,M,M,M,190.00,4.00,M,29.92,M,10.00,M,CLR,M,M,M,M,M,M,M,M,KGWO 010200Z AUTO 19004KT 10SM CLR A2992 RMK MADISHF
GWO,2017-04-01 02:05,-90.0847,33.4943,M,M,M,160.00,4.00,M,29.92,M,10.00,M,CLR,M,M,M,M,M,M,M,M,KGWO 010205Z AUTO 16004KT 10SM CLR A2992 RMK MADISHF
GWO,2017-04-01 02:10,-90.0847,33.4943,M,M,M,100.00,3.00,M,29.92,M,10.00,M,CLR,M,M,M,M,M,M,M,M,KGWO 010210Z AUTO 10003KT 10SM CLR A2992 RMK MADISHF
GWO,2017-04-01 02:15,-90.0847,33.4943,M,M,M,0.00,0.00,M,29.93,M,10.00,M,CLR,M,M,M,M,M,M,M,M,KGWO 010215Z AUTO 00000KT 10SM CLR A2993 RMK MADISHF
GWO,2017-04-01 02:20,-90.0847,33.4943,M,M,M,0.00,0.00,M,29.93,M,10.00,M,CLR,M,M,M,M,M,M,M,M,KGWO 010220Z AUTO 00000KT 10SM CLR A2993 RMK MADISHF
GWO,2017-04-01 02:25,-90.0847,33.4943,M,M,M,0.00,0.00,M,29.93,M,10.00,M,CLR,M,M,M,M,M,M,M,M,KGWO 010225Z AUTO 00000KT 10SM CLR A2993 RMK MADISHF
GWO,2017-04-01 02:30,-90.0847,33.4943,M,M,M,0.00,0.00,M,29.93,M,10.00,M,CLR,M,M,M,M,M,M,M,M,KGWO 010230Z AUTO 00000KT 10SM CLR A2993 RMK MADISHF
GWO,2017-04-01 02:35,-90.0847,33.4943,M,M,M,0.00,0.00,M,29.93,M,10.00,M,CLR,M,M,M,M,M,M,M,M,KGWO 010235Z AUTO 00000KT 10SM CLR A2993 RMK MADISHF
GWO,2017-04-01 02:40,-90.0847,33.4943,M,M,M,0.00,0.00,M,29.94,M,10.00,M,CLR,M,M,M,M,M,M,M,M,KGWO 010240Z AUTO 00000KT 10SM CLR A2994 RMK MADISHF
GWO,2017-04-01 02:45,-90.0847,33.4943,M,M,M,0.00,0.00,M,29.94,M,10.00,M,CLR,M,M,M,M,M,M,M,M,KGWO 010245Z AUTO 00000KT 10SM CLR A2994 RMK MADISHF
GWO,2017-04-01 02:50,-90.0847,33.4943,M,M,M,0.00,0.00,M,29.94,M,10.00,M,CLR,M,M,M,M,M,M,M,M,KGWO 010250Z AUTO 00000KT 10SM CLR A2994 RMK MADISHF
GWO,2017-04-01 02:53,-90.0847,33.4943,57.90,55.00,90.04,0.00,0.00,0.00,29.94,1013.80,10.00,M,CLR,M,M,M,M,M,M,M,M,KGWO 010253Z AUTO 00000KT 10SM CLR 14/13 A2994 RMK AO2 SLP138 T01440128 53018
GWO,2017-04-01 02:55,-90.0847,33.4943,M,M,M,0.00,0.00,M,29.94,M,10.00,M,CLR,M,M,M,M,M,M,M,M,KGWO 010255Z AUTO 00000KT 10SM CLR A2994 RMK MADISHF
GWO,2017-04-01 03:00,-90.0847,33.4943,M,M,M,0.00,0.00,M,29.94,M,10.00,M,CLR,M,M,M,M,M,M,M,M,KGWO 010300Z AUTO 00000KT 10SM CLR A2994 RMK MADISHF
GWO,2017-04-01 03:05,-90.0847,33.4943,M,M,M,0.00,0.00,M,29.94,M,10.00,M,CLR,M,M,M,M,M,M,M,M,KGWO 010305Z AUTO 00000KT 10SM CLR A2994 RMK MADISHF
GWO,2017-04-01 03:10,-90.0847,33.4943,M,M,M,0.00,0.00,M,29.94,M,10.00,M,CLR,M,M,M,M,M,M,M,M,KGWO 010310Z AUTO 00000KT 10SM CLR A2994 RMK MADISHF
GWO,2017-04-01 03:15,-90.0847,33.4943,M,M,M,0.00,0.00,M,29.94,M,10.00,M,CLR,M,M,M,M,M,M,M,M,KGWO 010315Z AUTO 00000KT 10SM CLR A2994 RMK MADISHF
GWO,2017-04-01 03:20,-90.0847,33.4943,M,M,M,0.00,0.00,M,29.94,M,10.00,M,CLR,M,M,M,M,M,M,M,M,KGWO 010320Z AUTO 00000KT 10SM CLR A2994 RMK MADISHF
GWO,2017-04-01 03:25,-90.0847,33.4943,M,M,M,60.00,3.00,M,29.94,M,10.00,M,CLR,M,M,M,M,M,M,M,M,KGWO 010325Z AUTO 06003KT 10SM CLR A2994 RMK MADISHF
GWO,2017-04-01 03:30,-90.0847,33.4943,M,M,M,70.00,3.00,M,29.94,M,10.00,M,CLR,M,M,M,M,M,M,M,M,KGWO 010330Z AUTO 07003KT 10SM CLR A2994 RMK MADISHF
GWO,2017-04-01 03:35,-90.0847,33.4943,M,M,M,0.00,0.00,M,29.94,M,10.00,M,CLR,M,M,M,M,M,M,M,M,KGWO 010335Z AUTO 00000KT 10SM CLR A2994 RMK MADISHF
GWO,2017-04-01 03:40,-90.0847,33.4943,M,M,M,80.00,4.00,M,29.94,M,10.00,M,CLR,M,M,M,M,M,M,M,M,KGWO 010340Z AUTO 08004KT 10SM CLR A2994 RMK MADISHF
GWO,2017-04-01 03:45,-90.0847,33.4943,M,M,M,0.00,0.00,M,29.94,M,10.00,M,CLR,M,M,M,M,M,M,M,M,KGWO 010345Z AUTO 00000KT 10SM CLR A2994 RMK MADISHF
GWO,2017-04-01 03:50,-90.0847,33.4943,M,M,M,0.00,0.00,M,29.94,M,10.00,M,CLR,M,M,M,M,M,M,M,M,KGWO 010350Z AUTO 00000KT 10SM CLR A2994 RMK MADISHF
GWO,2017-04-01 03:53,-90.0847,33.4943,55.90,53.10,90.29,40.00,3.00,0.00,29.94,1013.80,10.00,M,CLR,M,M,M,M,M,M,M,M,KGWO 010353Z AUTO 04003KT 10SM CLR 13/12 A2994 RMK AO2 SLP138 T01330117
GWO,2017-04-01 03:55,-90.0847,33.4943,M,M,M,50.00,3.00,M,29.94,M,10.00,M,CLR,M,M,M,M,M,M,M,M,KGWO 010355Z AUTO 05003KT 10SM CLR A2994 RMK MADISHF
GWO,2017-04-01 04:00,-90.0847,33.4943,M,M,M,70.00,4.00,M,29.94,M,10.00,M,CLR,M,M,M,M,M,M,M,M,KGWO 010400Z AUTO 07004KT 10SM CLR A2994 RMK MADISHF
GWO,2017-04-01 04:05,-90.0847,33.4943,M,M,M,50.00,3.00,M,29.94,M,10.00,M,CLR,M,M,M,M,M,M,M,M,KGWO 010405Z AUTO 05003KT 10SM CLR A2994 RMK MADISHF
GWO,2017-04-01 04:10,-90.0847,33.4943,M,M,M,40.00,5.00,M,29.94,M,10.00,M,CLR,M,M,M,M,M,M,M,M,KGWO 010410Z AUTO 04005KT 10SM CLR A2994 RMK MADISHF
GWO,2017-04-01 04:15,-90.0847,33.4943,M,M,M,50.00,5.00,M,29.94,M,10.00,M,CLR,M,M,M,M,M,M,M,M,KGWO 010415Z AUTO 05005KT 10SM CLR A2994 RMK MADISHF
GWO,2017-04-01 04:20,-90.0847,33.4943,M,M,M,50.00,4.00,M,29.95,M,10.00,M,CLR,M,M,M,M,M,M,M,M,KGWO 010420Z AUTO 05004KT 10SM CLR A2995 RMK MADISHF
GWO,2017-04-01 04:25,-90.0847,33.4943,M,M,M,50.00,4.00,M,29.95,M,10.00,M,CLR,M,M,M,M,M,M,M,M,KGWO 010425Z AUTO 05004KT 10SM CLR A2995 RMK MADISHF
GWO,2017-04-01 04:30,-90.0847,33.4943,M,M,M,40.00,4.00,M,29.95,M,10.00,M,CLR,M,M,M,M,M,M,M,M,KGWO 010430Z AUTO 04004KT 10SM CLR A2995 RMK MADISHF
GWO,2017-04-01 04:35,-90.0847,33.4943,M,M,M,50.00,4.00,M,29.95,M,10.00,M,CLR,M,M,M,M,M,M,M,M,KGWO 010435Z AUTO 05004KT 10SM CLR A2995 RMK MADISHF
GWO,2017-04-01 04:40,-90.0847,33.4943,M,M,M,40.00,4.00,M,29.95,M,10.00,M,CLR,M,M,M,M,M,M,M,M,KGWO 010440Z AUTO 04004KT 10SM CLR A2995 RMK MADISHF
GWO,2017-04-01 04:45,-90.0847,33.4943,M,M,M,40.00,4.00,M,29.95,M,10.00,M,CLR,M,M,M,M,M,M,M,M,KGWO 010445Z AUTO 04004KT 10SM CLR A2995 RMK MADISHF
GWO,2017-04-01 04:50,-90.0847,33.4943,M,M,M,40.00,5.00,M,29.95,M,10.00,M,CLR,M,M,M,M,M,M,M,M,KGWO 010450Z AUTO 04005KT 10SM CLR A2995 RMK MADISHF
GWO,2017-04-01 04:53,-90.0847,33.4943,55.00,53.10,93.29,50.00,5.00,0.00,29.95,1014.10,10.00,M,CLR,M,M,M,M,M,M,M,M,KGWO 010453Z AUTO 05005KT 10SM CLR 13/12 A2995 RMK AO2 SLP141 T01280117
GWO,2017-04-01 04:55,-90.0847,33.4943,M,M,M,50.00,5.00,M,29.95,M,10.00,M,CLR,M,M,M,M,M,M,M,M,KGWO 010455Z AUTO 05005KT 10SM CLR A2995 RMK MADISHF
GWO,2017-04-01 05:00,-90.0847,33.4943,M,M,M,50.00,4.00,M,29.95,M,10.00,M,CLR,M,M,M,M,M,M,M,M,KGWO 010500Z AUTO 05004KT 10SM CLR A2995 RMK MADISHF
GWO,2017-04-01 05:05,-90.0847,33.4943,M,M,M,50.00,5.00,M,29.95,M,10.00,M,CLR,M,M,M,M,M,M,M,M,KGWO 010505Z AUTO 05005KT 10SM CLR A2995 RMK MADISHF
GWO,2017-04-01 05:10,-90.0847,33.4943,M,M,M,50.00,5.00,M,29.95,M,10.00,M,CLR,M,M,M,M,M,M,M,M,KGWO 010510Z AUTO 05005KT 10SM CLR A2995 RMK MADISHF
GWO,2017-04-01 05:15,-90.0847,33.4943,M,M,M,50.00,4.00,M,29.95,M,10.00,M,CLR,M,M,M,M,M,M,M,M,KGWO 010515Z AUTO 05004KT 10SM CLR A2995 RMK MADISHF
GWO,2017-04-01 05:20,-90.0847,33.4943,M,M,M,60.00,4.00,M,29.95,M,10.00,M,CLR,M,M,M,M,M,M,M,M,KGWO 010520Z AUTO 06004KT 10SM CLR A2995 RMK MADISHF
GWO,2017-04-01 05:25,-90.0847,33.4943,M,M,M,50.00,5.00,M,29.95,M,10.00,M,CLR,M,M,M,M,M,M,M,M,KGWO 010525Z AUTO 05005KT 10SM CLR A2995 RMK MADISHF
GWO,2017-04-01 05:30,-90.0847,33.4943,M,M,M,50.00,5.00,M,29.95,M,10.00,M,CLR,M,M,M,M,M,M,M,M,KGWO 010530Z AUTO 05005KT 10SM CLR A2995 RMK MADISHF
GWO,2017-04-01 05:35,-90.0847,33.4943,M,M,M,60.00,5.00,M,29.96,M,10.00,M,CLR,M,M,M,M,M,M,M,M,KGWO 010535Z AUTO 06005KT 10SM CLR A2996 RMK MADISHF
GWO,2017-04-01 05:40,-90.0847,33.4943,M,M,M,50.00,5.00,M,29.96,M,10.00,M,CLR,M,M,M,M,M,M,M,M,KGWO 010540Z AUTO 05005KT 10SM CLR A2996 RMK MADISHF
GWO,2017-04-01 05:45,-90.0847,33.4943,M,M,M,40.00,4.00,M,29.96,M,10.00,M,CLR,M,M,M,M,M,M,M,M,KGWO 010545Z AUTO 04004KT 10SM CLR A2996 RMK MADISHF
GWO,2017-04-01 05:50,-90.0847,33.4943,M,M,M,40.00,3.00,M,29.96,M,10.00,M,CLR,M,M,M,M,M,M,M,M,KGWO 010550Z AUTO 04003KT 10SM CLR A2996 RMK MADISHF
GWO,2017-04-01 05:53,-90.0847,33.4943,55.90,53.10,90.29,60.00,5.00,0.00,29.96,1014.40,10.00,M,CLR,M,M,M,M,M,M,M,M,KGWO 010553Z AUTO 06005KT 10SM CLR 13/12 A2996 RMK AO2 SLP144 T01330117 10222 20128 402440083 53007
GWO,2017-04-01 05:55,-90.0847,33.4943,M,M,M,60.00,5.00,M,29.96,M,10.00,M,CLR,M,M,M,M,M,M,M,M,KGWO 010555Z AUTO 06005KT 10SM CLR A2996 RMK MADISHF
GWO,2017-04-01 06:00,-90.0847,33.4943,M,M,M,50.00,5.00,M,29.96,M,10.00,M,CLR,M,M,M,M,M,M,M,M,KGWO 010600Z AUTO 05005KT 10SM CLR A2996 RMK MADISHF
GWO,2017-04-01 06:05,-90.0847,33.4943,M,M,M,50.00,4.00,M,29.96,M,10.00,M,CLR,M,M,M,M,M,M,M,M,KGWO 010605Z AUTO 05004KT 10SM CLR A2996 RMK MADISHF
GWO,2017-04-01 06:10,-90.0847,33.4943,M,M,M,50.00,5.00,M,29.96,M,10.00,M,CLR,M,M,M,M,M,M,M,M,KGWO 010610Z AUTO 05005KT 10SM CLR A2996 RMK MADISHF
GWO,2017-04-01 06:15,-90.0847,33.4943,M,M,M,50.00,5.00,M,29.96,M,10.00,M,CLR,M,M,M,M,M,M,M,M,KGWO 010615Z AUTO 05005KT 10SM CLR A2996 RMK MADISHF
GWO,2017-04-01 06:20,-90.0847,33.4943,M,M,M,50.00,5.00,M,29.96,M,10.00,M,CLR,M,M,M,M,M,M,M,M,KGWO 010620Z AUTO 05005KT 10SM CLR A2996 RMK MADISHF
GWO,2017-04-01 06:25,-90.0847,33.4943,M,M,M,50.00,5.00,M,29.96,M,10.00,M,CLR,M,M,M,M,M,M,M,M,KGWO 010625Z AUTO 05005KT 10SM CLR A2996 RMK MADISHF
GWO,2017-04-01 06:30,-90.0847,33.4943,M,M,M,50.00,5.00,M,29.96,M,10.00,M,CLR,M,M,M,M,M,M,M,M,KGWO 010630Z AUTO 05005KT 10SM CLR A2996 RMK MADISHF
GWO,2017-04-01 06:35,-90.0847,33.4943,M,M,M,40.00,4.00,M,29.97,M,10.00,M,CLR,M,M,M,M,M,M,M,M,KGWO 010635Z AUTO 04004KT 10SM CLR A2997 RMK MADISHF
GWO,2017-04-01 06:40,-90.0847,33.4943,M,M,M,40.00,3.00,M,29.97,M,10.00,M,CLR,M,M,M,M,M,M,M,M,KGWO 010640Z AUTO 04003KT 10SM CLR A2997 RMK MADISHF
GWO,2017-04-01 06:45,-90.0847,33.4943,M,M,M,0.00,0.00,M,29.97,M,10.00,M,CLR,M,M,M,M,M,M,M,M,KGWO 010645Z AUTO 00000KT 10SM CLR A2997 RMK MADISHF
GWO,2017-04-01 06:50,-90.0847,33.4943,M,M,M,60.00,3.00,M,29.97,M,10.00,M,CLR,M,M,M,M,M,M,M,M,KGWO 010650Z AUTO 06003KT 10SM CLR A2997 RMK MADISHF
GWO,2017-04-01 06:53,-90.0847,33.4943,55.90,53.10,90.29,60.00,3.00,0.00,29.97,1014.70,10.00,M,CLR,M,M,M,M,M,M,M,M,KGWO 010653Z AUTO 06003KT 10SM CLR 13/12 A2997 RMK AO2 SLP147 T01330117
GWO,2017-04-01 06:55,-90.0847,33.4943,M,M,M,60.00,3.00,M,29.97,M,10.00,M,CLR,M,M,M,M,M,M,M,M,KGWO 010655Z AUTO 06003KT 10SM CLR A2997 RMK MADISHF
GWO,2017-04-01 07:00,-90.0847,33.4943,M,M,M,40.00,7.00,M,29.97,M,10.00,M,CLR,M,M,M,M,M,M,M,M,KGWO 010700Z AUTO 04007KT 10SM CLR A2997 RMK MADISHF
GWO,2017-04-01 07:05,-90.0847,33.4943,M,M,M,60.00,4.00,M,29.98,M,10.00,M,CLR,M,M,M,M,M,M,M,M,KGWO 010705Z AUTO 06004KT 10SM CLR A2998 RMK MADISHF
GWO,2017-04-01 07:10,-90.0847,33.4943,M,M,M,50.00,3.00,M,29.98,M,10.00,M,CLR,M,M,M,M,M,M,M,M,KGWO 010710Z AUTO 05003KT 10SM CLR A2998 RMK MADISHF
GWO,2017-04-01 07:15,-90.0847,33.4943,M,M,M,30.00,3.00,M,29.98,M,10.00,M,CLR,M,M,M,M,M,M,M,M,KGWO 010715Z AUTO 03003KT 10SM CLR A2998 RMK MADISHF
GWO,2017-04-01 07:20,-90.0847,33.4943,M,M,M,40.00,4.00,M,29.98,M,10.00,M,CLR,M,M,M,M,M,M,M,M,KGWO 010720Z AUTO 04004KT 10SM CLR A2998 RMK MADISHF
GWO,2017-04-01 07:25,-90.0847,33.4943,M,M,M,50.00,5.00,M,29.98,M,10.00,M,CLR,M,M,M,M,M,M,M,M,KGWO 010725Z AUTO 05005KT 10SM CLR A2998 RMK MADISHF
GWO,2017-04-01 07:30,-90.0847,33.4943,M,M,M,40.00,5.00,M,29.98,M,10.00,M,CLR,M,M,M,M,M,M,M,M,KGWO 010730Z AUTO 04005KT 10SM CLR A2998 RMK MADISHF
GWO,2017-04-01 07:35,-90.0847,33.4943,M,M,M,50.00,6.00,M,29.98,M,10.00,M,CLR,M,M,M,M,M,M,M,M,KGWO 010735Z AUTO 05006KT 10SM CLR A2998 RMK MADISHF
GWO,2017-04-01 07:40,-90.0847,33.4943,M,M,M,50.00,6.00,M,29.98,M,10.00,M,CLR,M,M,M,M,M,M,M,M,KGWO 010740Z AUTO 05006KT 10SM CLR A2998 RMK MADISHF
GWO,2017-04-01 07:45,-90.0847,33.4943,M,M,M,40.00,5.00,M,29.98,M,10.00,M,CLR,M,M,M,M,M,M,M,M,KGWO 010745Z AUTO 04005KT 10SM CLR A2998 RMK MADISHF
GWO,2017-04-01 07:50,-90.0847,33.4943,M,M,M,30.00,3.00,M,29.98,M,10.00,M,CLR,M,M,M,M,M,M,M,M,KGWO 010750Z AUTO 03003KT 10SM CLR A2998 RMK MADISHF
GWO,2017-04-01 07:53,-90.0847,33.4943,54.00,52.00,92.92,0.00,0.00,0.00,29.98,1015.10,10.00,M,CLR,M,M,M,M,M,M,M,M,KGWO 010753Z AUTO 00000KT 10SM CLR 12/11 A2998 RMK AO2 SLP151 T01220111
GWO,2017-04-01 07:55,-90.0847,33.4943,M,M,M,20.00,3.00,M,29.98,M,10.00,M,CLR,M,M,M,M,M,M,M,M,KGWO 010755Z AUTO 02003KT 10SM CLR A2998 RMK MADISHF
GWO,2017-04-01 08:00,-90.0847,33.4943,M,M,M,30.00,3.00,M,29.99,M,10.00,M,CLR,M,M,M,M,M,M,M,M,KGWO 010800Z AUTO 03003KT 10SM CLR A2999 RMK MADISHF
GWO,2017-04-01 08:05,-90.0847,33.4943,M,M,M,40.00,3.00,M,29.99,M,10.00,M,CLR,M,M,M,M,M,M,M,M,KGWO 010805Z AUTO 04003KT 10SM CLR A2999 RMK MADISHF
GWO,2017-04-01 08:10,-90.0847,33.4943,M,M,M,60.00,5.00,M,29.99,M,10.00,M,CLR,M,M,M,M,M,M,M,M,KGWO 010810Z AUTO 06005KT 10SM CLR A2999 RMK MADISHF
GWO,2017-04-01 08:15,-90.0847,33.4943,M,M,M,60.00,6.00,M,29.99,M,10.00,M,CLR,M,M,M,M,M,M,M,M,KGWO 010815Z AUTO 06006KT 10SM CLR A2999 RMK MADISHF
GWO,2017-04-01 08:20,-90.0847,33.4943,M,M,M,70.00,6.00,M,29.99,M,10.00,M,CLR,M,M,M,M,M,M,M,M,KGWO 010820Z AUTO 07006KT 10SM CLR A2999 RMK MADISHF
GWO,2017-04-01 08:25,-90.0847,33.4943,M,M,M,60.00,6.00,M,29.99,M,10.00,M,CLR,M,M,M,M,M,M,M,M,KGWO 010825Z AUTO 06006KT 10SM CLR A2999 RMK MADISHF
GWO,2017-04-01 08:30,-90.0847,33.4943,M,M,M,60.00,6.00,M,29.99,M,10.00,M,CLR,M,M,M,M,M,M,M,M,KGWO 010830Z AUTO 06006KT 10SM CLR A2999 RMK MADISHF
GWO,2017-04-01 08:35,-90.0847,33.4943,M,M,M,60.00,7.00,M,29.99,M,10.00,M,CLR,M,M,M,M,M,M,M,M,KGWO 010835Z AUTO 06007KT 10SM CLR A2999 RMK MADISHF
GWO,2017-04-01 08:40,-90.0847,33.4943,M,M,M,60.00,8.00,M,29.99,M,10.00,M,CLR,M,M,M,M,M,M,M,M,KGWO 010840Z AUTO 06008KT 10SM CLR A2999 RMK MADISHF
GWO,2017-04-01 08:45,-90.0847,33.4943,M,M,M,60.00,8.00,M,29.99,M,10.00,M,CLR,M,M,M,M,M,M,M,M,KGWO 010845Z AUTO 06008KT 10SM CLR A2999 RMK MADISHF
GWO,2017-04-01 08:50,-90.0847,33.4943,M,M,M,60.00,8.00,M,29.99,M,10.00,M,CLR,M,M,M,M,M,M,M,M,KGWO 010850Z AUTO 06008KT 10SM CLR A2999 RMK MADISHF
GWO,2017-04-01 08:53,-90.0847,33.4943,57.90,50.00,74.91,70.00,9.00,0.00,29.99,1015.50,10.00,M,CLR,M,M,M,M,M,M,M,M,KGWO 010853Z AUTO 07009KT 10SM CLR 14/10 A2999 RMK AO2 SLP155 T01440100 51011
GWO,2017-04-01 08:55,-90.0847,33.4943,M,M,M,70.00,9.00,M,29.99,M,10.00,M,CLR,M,M,M,M,M,M,M,M,KGWO 010855Z AUTO 07009KT 10SM CLR A2999 RMK MADISHF
GWO,2017-04-01 09:00,-90.0847,33.4943,M,M,M,70.00,8.00,M,29.99,M,10.00,M,CLR,M,M,M,M,M,M,M,M,KGWO 010900Z AUTO 07008KT 10SM CLR A2999 RMK MADISHF
GWO,2017-04-01 09:05,-90.0847,33.4943,M,M,M,70.00,9.00,M,30.00,M,10.00,M,CLR,M,M,M,M,M,M,M,M,KGWO 010905Z AUTO 07009KT 10SM CLR A3000 RMK MADISHF
GWO,2017-04-01 09:10,-90.0847,33.4943,M,M,M,70.00,9.00,M,30.00,M,10.00,M,CLR,M,M,M,M,M,M,M,M,KGWO 010910Z AUTO 07009KT 10SM CLR A3000 RMK MADISHF
GWO,2017-04-01 09:15,-90.0847,33.4943,M,M,M,70.00,9.00,M,30.00,M,10.00,M,CLR,M,M,M,M,M,M,M,M,KGWO 010915Z AUTO 07009KT 10SM CLR A3000 RMK MADISHF
GWO,2017-04-01 09:20,-90.0847,33.4943,M,M,M,70.00,10.00,M,30.00,M,10.00,M,CLR,M,M,M,M,M,M,M,M,KGWO 010920Z AUTO 07010KT 10SM CLR A3000 RMK MADISHF
GWO,2017-04-01 09:25,-90.0847,33.4943,M,M,M,60.00,10.00,M,30.00,M,10.00,M,CLR,M,M,M,M,M,M,M,M,KGWO 010925Z AUTO 06010KT 10SM CLR A3000 RMK MADISHF
GWO,2017-04-01 09:30,-90.0847,33.4943,M,M,M,70.00,9.00,M,30.00,M,10.00,M,CLR,M,M,M,M,M,M,M,M,KGWO 010930Z AUTO 07009KT 10SM CLR A3000 RMK MADISHF
GWO,2017-04-01 09:35,-90.0847,33.4943,M,M,M,70.00,11.00,M,30.00,M,10.00,M,CLR,M,M,M,M,M,M,M,M,KGWO 010935Z AUTO 07011KT 10SM CLR A3000 RMK MADISHF
GWO,2017-04-01 09:40,-90.0847,33.4943,M,M,M,60.00,10.00,M,30.00,M,10.00,M,CLR,M,M,M,M,M,M,M,M,KGWO 010940Z AUTO 06010KT 10SM CLR A3000 RMK MADISHF
GWO,2017-04-01 09:45,-90.0847,33.4943,M,M,M,70.00,11.00,M,30.00,M,10.00,M,CLR,M,M,M,M,M,M,M,M,KGWO 010945Z AUTO 07011KT 10SM CLR A3000 RMK MADISHF
GWO,2017-04-01 09:50,-90.0847,33.4943,M,M,M,70.00,10.00,M,30.00,M,10.00,M,CLR,M,M,M,M,M,M,M,M,KGWO 010950Z AUTO 07010KT 10SM CLR A3000 RMK MADISHF
GWO,2017-04-01 09:53,-90.0847,33.4943,57.00,50.00,77.38,70.00,10.00,0.00,30.00,1015.80,10.00,M,CLR,M,M,M,M,M,M,M,M,KGWO 010953Z AUTO 07010KT 10SM CLR 14/10 A3000 RMK AO2 SLP158 T01390100
GWO,2017-04-01 09:55,-90.0847,33.4943,M,M,M,70.00,11.00,M,30.00,M,10.00,M,CLR,M,M,M,M,M,M,M,M,KGWO 010955Z AUTO 07011KT 10SM CLR A3000 RMK MADISHF
GWO,2017-04-01 10:00,-90.0847,33.4943,M,M,M,70.00,10.00,M,30.00,M,10.00,M,CLR,M,M,M,M,M,M,M,M,KGWO 011000Z AUTO 07010KT 10SM CLR A3000 RMK MADISHF
GWO,2017-04-01 10:05,-90.0847,33.4943,M,M,M,70.00,9.00,M,30.00,M,10.00,M,CLR,M,M,M,M,M,M,M,M,KGWO 011005Z AUTO 07009KT 10SM CLR A3000 RMK MADISHF
GWO,2017-04-01 10:10,-90.0847,33.4943,M,M,M,60.00,10.00,M,30.01,M,10.00,M,CLR,M,M,M,M,M,M,M,M,KGWO 011010Z AUTO 06010KT 10SM CLR A3001 RMK MADISHF
GWO,2017-04-01 10:15,-90.0847,33.4943,M,M,M,70.00,10.00,M,30.01,M,10.00,M,CLR,M,M,M,M,M,M,M,M,KGWO 011015Z AUTO 07010KT 10SM CLR A3001 RMK MADISHF
GWO,2017-04-01 10:20,-90.0847,33.4943,M,M,M,70.00,9.00,M,30.01,M,10.00,M,CLR,M,M,M,M,M,M,M,M,KGWO 011020Z AUTO 07009KT 10SM CLR A3001 RMK MADISHF
GWO,2017-04-01 10:25,-90.0847,33.4943,M,M,M,70.00,10.00,M,30.01,M,10.00,M,CLR,M,M,M,M,M,M,M,M,KGWO 011025Z AUTO 07010KT 10SM CLR A3001 RMK MADISHF
GWO,2017-04-01 10:30,-90.0847,33.4943,M,M,M,60.00,10.00,M,30.01,M,10.00,M,CLR,M,M,M,M,M,M,M,M,KGWO 011030Z AUTO 06010KT 10SM CLR A3001 RMK MADISHF
GWO,2017-04-01 10:35,-90.0847,33.4943,M,M,M,70.00,11.00,M,30.01,M,10.00,M,CLR,M,M,M,M,M,M,M,M,KGWO 011035Z AUTO 07011KT 10SM CLR A3001 RMK MADISHF
GWO,2017-04-01 10:40,-90.0847,33.4943,M,M,M,70.00,10.00,M,30.01,M,10.00,M,CLR,M,M,M,M,M,M,M,M,KGWO 011040Z AUTO 07010KT 10SM CLR A3001 RMK MADISHF
GWO,2017-04-01 10:45,-90.0847,33.4943,M,M,M,70.00,10.00,M,30.01,M,10.00,M,CLR,M,M,M,M,M,M,M,M,KGWO 011045Z AUTO 07010KT 10SM CLR A3001 RMK MADISHF
GWO,2017-04-01 10:50,-90.0847,33.4943,M,M,M,70.00,11.00,M,30.02,M,10.00,M,CLR,M,M,M,M,M,M,M,M,KGWO 011050Z AUTO 07011KT 10SM CLR A3002 RMK MADISHF
GWO,2017-04-01 10:53,-90.0847,33.4943,55.90,50.00,80.52,60.00,12.00,0.00,30.02,1016.30,10.00,M,CLR,M,M,M,M,M,M,M,M,KGWO 011053Z AUTO 06012KT 10SM CLR 13/10 A3002 RMK AO2 SLP163 T01330100
GWO,2017-04-01 10:55,-90.0847,33.4943,M,M,M,70.00,12.00,M,30.02,M,10.00,M,CLR,M,M,M,M,M,M,M,M,KGWO 011055Z AUTO 07012KT 10SM CLR A3002 RMK MADISHF
GWO,2017-04-01 11:00,-90.0847,33.4943,M,M,M,60.00,11.00,M,30.02,M,10.00,M,CLR,M,M,M,M,M,M,M,M,KGWO 011100Z AUTO 06011KT 10SM CLR A3002 RMK MADISHF
GWO,2017-04-01 11:05,-90.0847,33.4943,M,M,M,70.00,10.00,M,30.02,M,10.00,M,CLR,M,M,M,M,M,M,M,M,KGWO 011105Z AUTO 07010KT 10SM CLR A3002 RMK MADISHF
GWO,2017-04-01 11:10,-90.0847,33.4943,M,M,M,70.00,9.00,M,30.02,M,10.00,M,CLR,M,M,M,M,M,M,M,M,KGWO 011110Z AUTO 07009KT 10SM CLR A3002 RMK MADISHF
GWO,2017-04-01 11:15,-90.0847,33.4943,M,M,M,70.00,10.00,M,30.03,M,10.00,M,CLR,M,M,M,M,M,M,M,M,KGWO 011115Z AUTO 07010KT 10SM CLR A3003 RMK MADISHF
GWO,2017-04-01 11:20,-90.0847,33.4943,M,M,M,70.00,8.00,M,30.03,M,10.00,M,CLR,M,M,M,M,M,M,M,M,KGWO 011120Z AUTO 07008KT 10SM CLR A3003 RMK MADISHF
GWO,2017-04-01 11:25,-90.0847,33.4943,M,M,M,70.00,8.00,M,30.03,M,10.00,M,CLR,M,M,M,M,M,M,M,M,KGWO 011125Z AUTO 07008KT 10SM CLR A3003 RMK MADISHF
GWO,2017-04-01 11:30,-90.0847,33.4943,M,M,M,60.00,10.00,M,30.03,M,10.00,M,CLR,M,M,M,M,M,M,M,M,KGWO 011130Z AUTO 06010KT 10SM CLR A3003 RMK MADISHF
GWO,2017-04-01 11:35,-90.0847,33.4943,M,M,M,60.00,9.00,M,30.03,M,10.00,M,CLR,M,M,M,M,M,M,M,M,KGWO 011135Z AUTO 06009KT 10SM CLR A3003 RMK MADISHF
GWO,2017-04-01 11:40,-90.0847,33.4943,M,M,M,60.00,9.00,M,30.03,M,10.00,M,CLR,M,M,M,M,M,M,M,M,KGWO 011140Z AUTO 06009KT 10SM CLR A3003 RMK MADISHF
GWO,2017-04-01 11:45,-90.0847,33.4943,M,M,M,70.00,11.00,M,30.03,M,10.00,M,CLR,M,M,M,M,M,M,M,M,KGWO 011145Z AUTO 07011KT 10SM CLR A3003 RMK MADISHF
GWO,2017-04-01 11:50,-90.0847,33.4943,M,M,M,70.00,11.00,M,30.03,M,10.00,M,CLR,M,M,M,M,M,M,M,M,KGWO 011150Z AUTO 07011KT 10SM CLR A3003 RMK MADISHF
GWO,2017-04-01 11:53,-90.0847,33.4943,55.00,50.00,83.20,70.00,10.00,0.00,30.03,1016.80,10.00,M,CLR,M,M,M,M,M,M,M,M,KGWO 011153Z AUTO 07010KT 10SM CLR 13/10 A3003 RMK AO2 SLP168 T01280100 10144 20111 53014
GWO,2017-04-01 11:55,-90.0847,33.4943,M,M,M,60.00,10.00,M,30.03,M,10.00,M,CLR,M,M,M,M,M,M,M,M,KGWO 011155Z AUTO 06010KT 10SM CLR A3003 RMK MADISHF
GWO,2017-04-01 12:00,-90.0847,33.4943,M,M,M,70.00,10.00,M,30.04,M,10.00,M,CLR,M,M,M,M,M,M,M,M,KGWO 011200Z AUTO 07010KT 10SM CLR A3004 RMK MADISHF
GWO,2017-04-01 12:05,-90.0847,33.4943,M,M,M,70.00,11.00,M,30.04,M,10.00,M,CLR,M,M,M,M,M,M,M,M,KGWO 011205Z AUTO 07011KT 10SM CLR A3004 RMK MADISHF
GWO,2017-04-01 12:10,-90.0847,33.4943,M,M,M,70.00,10.00,M,30.05,M,10.00,M,CLR,M,M,M,M,M,M,M,M,KGWO 011210Z AUTO 07010KT 10SM CLR A3005 RMK MADISHF
GWO,2017-04-01 12:15,-90.0847,33.4943,M,M,M,60.00,9.00,M,30.05,M,10.00,M,CLR,M,M,M,M,M,M,M,M,KGWO 011215Z AUTO 06009KT 10SM CLR A3005 RMK MADISHF
GWO,2017-04-01 12:20,-90.0847,33.4943,M,M,M,70.00,8.00,M,30.05,M,10.00,M,CLR,M,M,M,M,M,M,M,M,KGWO 011220Z AUTO 07008KT 10SM CLR A3005 RMK MADISHF
GWO,2017-04-01 12:25,-90.0847,33.4943,M,M,M,60.00,8.00,M,30.05,M,10.00,M,CLR,M,M,M,M,M,M,M,M,KGWO 011225Z AUTO 06008KT 10SM CLR A3005 RMK MADISHF
GWO,2017-04-01 12:30,-90.0847,33.4943,M,M,M,60.00,7.00,M,30.06,M,10.00,M,CLR,M,M,M,M,M,M,M,M,KGWO 011230Z AUTO 06007KT 10SM CLR A3006 RMK MADISHF
GWO,2017-04-01 12:35,-90.0847,33.4943,M,M,M,70.00,8.00,M,30.06,M,10.00,M,CLR,M,M,M,M,M,M,M,M,KGWO 011235Z AUTO 07008KT 10SM CLR A3006 RMK MADISHF
GWO,2017-04-01 12:40,-90.0847,33.4943,M,M,M,70.00,7.00,M,30.06,M,10.00,M,CLR,M,M,M,M,M,M,M,M,KGWO 011240Z AUTO 07007KT 10SM CLR A3006 RMK MADISHF
GWO,2017-04-01 12:45,-90.0847,33.4943,M,M,M,70.00,7.00,M,30.07,M,10.00,M,CLR,M,M,M,M,M,M,M,M,KGWO 011245Z AUTO 07007KT 10SM CLR A3007 RMK MADISHF
GWO,2017-04-01 12:50,-90.0847,33.4943,M,M,M,60.00,7.00,M,30.07,M,10.00,M,CLR,M,M,M,M,M,M,M,M,KGWO 011250Z AUTO 06007KT 10SM CLR A3007 RMK MADISHF
GWO,2017-04-01 12:53,-90.0847,33.4943,57.00,50.00,77.38,70.00,7.00,0.00,30.07,1018.10,10.00,M,CLR,M,M,M,M,M,M,M,M,KGWO 011253Z AUTO 07007KT 10SM CLR 14/10 A3007 RMK AO2 SLP181 T01390100
GWO,2017-04-01 12:55,-90.0847,33.4943,M,M,M,70.00,7.00,M,30.07,M,10.00,M,CLR,M,M,M,M,M,M,M,M,KGWO 011255Z AUTO 07007KT 10SM CLR A3007 RMK MADISHF
GWO,2017-04-01 13:00,-90.0847,33.4943,M,M,M,70.00,7.00,M,30.07,M,10.00,M,CLR,M,M,M,M,M,M,M,M,KGWO 011300Z AUTO 07007KT 10SM CLR A3007 RMK MADISHF
GWO,2017-04-01 13:05,-90.0847,33.4943,M,M,M,70.00,9.00,M,30.07,M,10.00,M,CLR,M,M,M,M,M,M,M,M,KGWO 011305Z AUTO 07009KT 10SM CLR A3007 RMK MADISHF
GWO,2017-04-01 13:10,-90.0847,33.4943,M,M,M,70.00,10.00,M,30.07,M,10.00,M,CLR,M,M,M,M,M,M,M,M,KGWO 011310Z AUTO 07010KT 10SM CLR A3007 RMK MADISHF
GWO,2017-04-01 13:15,-90.0847,33.4943,M,M,M,60.00,9.00,M,30.08,M,10.00,M,CLR,M,M,M,M,M,M,M,M,KGWO 011315Z AUTO 06009KT 10SM CLR A3008 RMK MADISHF
GWO,2017-04-01 13:20,-90.0847,33.4943,M,M,M,70.00,11.00,M,30.08,M,10.00,M,CLR,M,M,M,M,M,M,M,M,KGWO 011320Z AUTO 07011KT 10SM CLR A3008 RMK MADISHF
GWO,2017-04-01 13:25,-90.0847,33.4943,M,M,M,70.00,7.00,M,30.08,M,10.00,M,CLR,M,M,M,M,M,M,M,M,KGWO 011325Z AUTO 07007KT 10SM CLR A3008 RMK MADISHF
GWO,2017-04-01 13:30,-90.0847,33.4943,M,M,M,70.00,6.00,M,30.08,M,10.00,M,CLR,M,M,M,M,M,M,M,M,KGWO 011330Z AUTO 07006KT 10SM CLR A3008 RMK MADISHF
GWO,2017-04-01 13:35,-90.0847,33.4943,M,M,M,80.00,9.00,M,30.09,M,10.00,M,CLR,M,M,M,M,M,M,M,M,KGWO 011335Z AUTO 08009KT 10SM CLR A3009 RMK MADISHF
GWO,2017-04-01 13:40,-90.0847,33.4943,M,M,M,90.00,8.00,M,30.09,M,10.00,M,CLR,M,M,M,M,M,M,M,M,KGWO 011340Z AUTO 09008KT 10SM CLR A3009 RMK MADISHF
GWO,2017-04-01 13:45,-90.0847,33.4943,M,M,M,70.00,6.00,M,30.09,M,10.00,M,CLR,M,M,M,M,M,M,M,M,KGWO 011345Z AUTO 07006KT 10SM CLR A3009 RMK MADISHF
GWO,2017-04-01 13:50,-90.0847,33.4943,M,M,M,80.00,6.00,M,30.09,M,10.00,M,CLR,M,M,M,M,M,M,M,M,KGWO 011350Z AUTO 08006KT 10SM CLR A3009 RMK MADISHF
GWO,2017-04-01 13:53,-90.0847,33.4943,61.00,51.10,69.86,90.00,7.00,0.00,30.09,1018.80,10.00,M,CLR,M,M,M,M,M,M,M,M,KGWO 011353Z AUTO 09007KT 10SM CLR 16/11 A3009 RMK AO2 SLP188 T01610106
GWO,2017-04-01 13:55,-90.0847,33.4943,M,M,M,90.00,8.00,M,30.09,M,10.00,M,CLR,M,M,M,M,M,M,M,M,KGWO 011355Z AUTO 09008KT 10SM CLR A3009 RMK MADISHF
GWO,2017-04-01 14:00,-90.0847,33.4943,M,M,M,80.00,8.00,M,30.09,M,10.00,M,CLR,M,M,M,M,M,M,M,M,KGWO 011400Z AUTO 08008KT 10SM CLR A3009 RMK MADISHF
GWO,2017-04-01 14:05,-90.0847,33.4943,M,M,M,110.00,8.00,M,30.10,M,10.00,M,CLR,M,M,M,M,M,M,M,M,KGWO 011405Z AUTO 11008KT 10SM CLR A3010 RMK MADISHF
GWO,2017-04-01 14:10,-90.0847,33.4943,M,M,M,80.00,11.00,M,30.09,M,10.00,16.00,CLR,M,M,M,M,M,M,M,M,KGWO 011410Z AUTO 08011G16KT 10SM CLR A3009 RMK MADISHF
GWO,2017-04-01 14:15,-90.0847,33.4943,M,M,M,100.00,10.00,M,30.09,M,10.00,M,CLR,M,M,M,M,M,M,M,M,KGWO 011415Z AUTO 10010KT 10SM CLR A3009 RMK MADISHF
GWO,2017-04-01 14:20,-90.0847,33.4943,M,M,M,90.00,10.00,M,30.09,M,10.00,M,CLR,M,M,M,M,M,M,M,M,KGWO 011420Z AUTO 09010KT 10SM CLR A3009 RMK MADISHF
GWO,2017-04-01 14:25,-90.0847,33.4943,M,M,M,80.00,10.00,M,30.09,M,10.00,M,CLR,M,M,M,M,M,M,M,M,KGWO 011425Z AUTO 08010KT 10SM CLR A3009 RMK MADISHF
GWO,2017-04-01 14:30,-90.0847,33.4943,M,M,M,80.00,10.00,M,30.09,M,10.00,M,CLR,M,M,M,M,M,M,M,M,KGWO 011430Z AUTO 08010KT 10SM CLR A3009 RMK MADISHF
GWO,2017-04-01 14:35,-90.0847,33.4943,M,M,M,80.00,10.00,M,30.09,M,10.00,M,CLR,M,M,M,M,M,M,M,M,KGWO 011435Z AUTO 08010KT 10SM CLR A3009 RMK MADISHF
GWO,2017-04-01 14:40,-90.0847,33.4943,M,M,M,90.00,8.00,M,30.09,M,10.00,M,CLR,M,M,M,M,M,M,M,M,KGWO 011440Z AUTO 09008KT 10SM CLR A3009 RMK MADISHF
GWO,2017-04-01 14:45,-90.0847,33.4943,M,M,M,80.00,9.00,M,30.09,M,10.00,M,CLR,M,M,M,M,M,M,M,M,KGWO 011445Z AUTO 08009KT 10SM CLR A3009 RMK MADISHF
GWO,2017-04-01 14:50,-90.0847,33.4943,M,M,M,80.00,9.00,M,30.10,M,10.00,M,CLR,M,M,M,M,M,M,M,M,KGWO 011450Z AUTO 08009KT 10SM CLR A3010 RMK MADISHF
GWO,2017-04-01 14:53,-90.0847,33.4943,66.00,52.00,60.60,90.00,8.00,0.00,30.10,1018.90,10.00,M,CLR,M,M,M,M,M,M,M,M,KGWO 011453Z AUTO 09008KT 10SM CLR 19/11 A3010 RMK AO2 SLP189 T01890111 51021
GWO,2017-04-01 14:55,-90.0847,33.4943,M,M,M,90.00,9.00,M,30.09,M,10.00,M,CLR,M,M,M,M,M,M,M,M,KGWO 011455Z AUTO 09009KT 10SM CLR A3009 RMK MADISHF
GWO,2017-04-01 15:00,-90.0847,33.4943,M,M,M,100.00,7.00,M,30.09,M,10.00,M,CLR,M,M,M,M,M,M,M,M,KGWO 011500Z AUTO 10007KT 10SM CLR A3009 RMK MADISHF
GWO,2017-04-01 15:05,-90.0847,33.4943,M,M,M,80.00,8.00,M,30.10,M,10.00,M,CLR,M,M,M,M,M,M,M,M,KGWO 011505Z AUTO 08008KT 10SM CLR A3010 RMK MADISHF
GWO,2017-04-01 15:10,-90.0847,33.4943,M,M,M,70.00,8.00,M,30.10,M,10.00,M,CLR,M,M,M,M,M,M,M,M,KGWO 011510Z AUTO 07008KT 10SM CLR A3010 RMK MADISHF
GWO,2017-04-01 15:15,-90.0847,33.4943,M,M,M,80.00,6.00,M,30.10,M,10.00,M,CLR,M,M,M,M,M,M,M,M,KGWO 011515Z AUTO 08006KT 10SM CLR A3010 RMK VRB06KT  MADISHF
GWO,2017-04-01 15:20,-90.0847,33.4943,M,M,M,70.00,9.00,M,30.10,M,10.00,M,CLR,M,M,M,M,M,M,M,M,KGWO 011520Z AUTO 07009KT 10SM CLR A3010 RMK MADISHF
GWO,2017-04-01 15:25,-90.0847,33.4943,M,M,M,80.00,7.00,M,30.09,M,10.00,M,CLR,M,M,M,M,M,M,M,M,KGWO 011525Z AUTO 08007KT 10SM CLR A3009 RMK MADISHF
GWO,2017-04-01 15:30,-90.0847,33.4943,M,M,M,80.00,9.00,M,30.09,M,10.00,M,CLR,M,M,M,M,M,M,M,M,KGWO 011530Z AUTO 08009KT 10SM CLR A3009 RMK MADISHF
GWO,2017-04-01 15:35,-90.0847,33.4943,M,M,M,80.00,8.00,M,30.09,M,10.00,M,CLR,M,M,M,M,M,M,M,M,KGWO 011535Z AUTO 08008KT 10SM CLR A3009 RMK MADISHF
GWO,2017-04-01 15:40,-90.0847,33.4943,M,M,M,80.00,8.00,M,30.09,M,10.00,M,CLR,M,M,M,M,M,M,M,M,KGWO 011540Z AUTO 08008KT 10SM CLR A3009 RMK MADISHF
GWO,2017-04-01 15:45,-90.0847,33.4943,M,M,M,100.00,8.00,M,30.09,M,10.00,M,CLR,M,M,M,M,M,M,M,M,KGWO 011545Z AUTO 10008KT 10SM CLR A3009 RMK MADISHF
GWO,2017-04-01 15:50,-90.0847,33.4943,M,M,M,80.00,7.00,M,30.09,M,10.00,M,CLR,M,M,M,M,M,M,M,M,KGWO 011550Z AUTO 08007KT 10SM CLR A3009 RMK MADISHF
GWO,2017-04-01 15:53,-90.0847,33.4943,70.00,53.10,54.98,80.00,7.00,0.00,30.09,1018.70,10.00,M,CLR,M,M,M,M,M,M,M,M,KGWO 011553Z AUTO 08007KT 10SM CLR 21/12 A3009 RMK AO2 SLP187 T02110117
GWO,2017-04-01 15:55,-90.0847,33.4943,M,M,M,100.00,8.00,M,30.09,M,10.00,M,CLR,M,M,M,M,M,M,M,M,KGWO 011555Z AUTO 10008KT 10SM CLR A3009 RMK MADISHF
GWO,2017-04-01 16:00,-90.0847,33.4943,M,M,M,90.00,7.00,M,30.09,M,10.00,M,CLR,M,M,M,M,M,M,M,M,KGWO 011600Z AUTO 09007KT 10SM CLR A3009 RMK MADISHF
GWO,2017-04-01 16:05,-90.0847,33.4943,M,M,M,70.00,9.00,M,30.09,M,10.00,M,CLR,M,M,M,M,M,M,M,M,KGWO 011605Z AUTO 07009KT 10SM CLR A3009 RMK MADISHF
GWO,2017-04-01 16:10,-90.0847,33.4943,M,M,M,70.00,9.00,M,30.09,M,10.00,M,CLR,M,M,M,M,M,M,M,M,KGWO 011610Z AUTO 07009KT 10SM CLR A3009 RMK MADISHF
GWO,2017-04-01 16:15,-90.0847,33.4943,M,M,M,70.00,9.00,M,30.09,M,10.00,M,CLR,M,M,M,M,M,M,M,M,KGWO 011615Z AUTO 07009KT 10SM CLR A3009 RMK MADISHF
GWO,2017-04-01 16:20,-90.0847,33.4943,M,M,M,80.00,7.00,M,30.09,M,10.00,M,CLR,M,M,M,M,M,M,M,M,KGWO 011620Z AUTO 08007KT 10SM CLR A3009 RMK MADISHF
GWO,2017-04-01 16:25,-90.0847,33.4943,M,M,M,60.00,7.00,M,30.09,M,10.00,M,CLR,M,M,M,M,M,M,M,M,KGWO 011625Z AUTO 06007KT 10SM CLR A3009 RMK MADISHF
GWO,2017-04-01 16:30,-90.0847,33.4943,M,M,M,90.00,6.00,M,30.09,M,10.00,M,CLR,M,M,M,M,M,M,M,M,KGWO 011630Z AUTO 09006KT 10SM CLR A3009 RMK MADISHF
GWO,2017-04-01 16:35,-90.0847,33.4943,M,M,M,70.00,9.00,M,30.09,M,10.00,M,CLR,M,M,M,M,M,M,M,M,KGWO 011635Z AUTO 07009KT 10SM CLR A3009 RMK MADISHF
GWO,2017-04-01 16:40,-90.0847,33.4943,M,M,M,70.00,6.00,M,30.09,M,10.00,M,CLR,M,M,M,M,M,M,M,M,KGWO 011640Z AUTO 07006KT 10SM CLR A3009 RMK MADISHF
GWO,2017-04-01 16:45,-90.0847,33.4943,M,M,M,80.00,6.00,M,30.09,M,10.00,M,CLR,M,M,M,M,M,M,M,M,KGWO 011645Z AUTO 08006KT 10SM CLR A3009 RMK VRB06KT  MADISHF
GWO,2017-04-01 16:50,-90.0847,33.4943,M,M,M,70.00,4.00,M,30.09,M,10.00,M,CLR,M,M,M,M,M,M,M,M,KGWO 011650Z AUTO 07004KT 10SM CLR A3009 RMK MADISHF
GWO,2017-04-01 16:53,-90.0847,33.4943,75.00,54.00,47.99,110.00,6.00,0.00,30.09,1018.60,10.00,M,CLR,M,M,M,M,M,M,M,M,KGWO 011653Z AUTO 11006KT 10SM CLR 24/12 A3009 RMK AO2 SLP186 T02390122
GWO,2017-04-01 16:55,-90.0847,33.4943,M,M,M,90.00,5.00,M,30.09,M,10.00,M,CLR,M,M,M,M,M,M,M,M,KGWO 011655Z AUTO 09005KT 10SM CLR A3009 RMK MADISHF
GWO,2017-04-01 17:00,-90.0847,33.4943,M,M,M,130.00,3.00,M,30.08,M,10.00,M,CLR,M,M,M,M,M,M,M,M,KGWO 011700Z AUTO 13003KT 10SM CLR A3008 RMK MADISHF
GWO,2017-04-01 17:05,-90.0847,33.4943,M,M,M,140.00,3.00,M,30.08,M,10.00,M,CLR,M,M,M,M,M,M,M,M,KGWO 011705Z AUTO 14003KT 10SM CLR A3008 RMK MADISHF
GWO,2017-04-01 17:10,-90.0847,33.4943,M,M,M,M,M,M,30.08,M,10.00,M,CLR,M,M,M,M,M,M,M,M,KGWO 011710Z AUTO /////KT 10SM CLR A3008 RMK MADISHF
GWO,2017-04-01 17:15,-90.0847,33.4943,M,M,M,120.00,4.00,M,30.08,M,10.00,M,CLR,M,M,M,M,M,M,M,M,KGWO 011715Z AUTO 12004KT 10SM CLR A3008 RMK MADISHF
GWO,2017-04-01 17:20,-90.0847,33.4943,M,M,M,160.00,4.00,M,30.08,M,10.00,M,CLR,M,M,M,M,M,M,M,M,KGWO 011720Z AUTO 16004KT 10SM CLR A3008 RMK MADISHF
GWO,2017-04-01 17:25,-90.0847,33.4943,M,M,M,0.00,0.00,M,30.08,M,10.00,M,CLR,M,M,M,M,M,M,M,M,KGWO 011725Z AUTO 00000KT 10SM CLR A3008 RMK MADISHF
GWO,2017-04-01 17:30,-90.0847,33.4943,M,M,M,60.00,5.00,M,30.08,M,10.00,M,CLR,M,M,M,M,M,M,M,M,KGWO 011730Z AUTO 06005KT 10SM CLR A3008 RMK MADISHF
GWO,2017-04-01 17:35,-90.0847,33.4943,M,M,M,0.00,0.00,M,30.08,M,10.00,M,CLR,M,M,M,M,M,M,M,M,KGWO 011735Z AUTO 00000KT 10SM CLR A3008 RMK MADISHF
GWO,2017-04-01 17:40,-90.0847,33.4943,M,M,M,200.00,3.00,M,30.08,M,10.00,M,CLR,M,M,M,M,M,M,M,M,KGWO 011740Z AUTO 20003KT 10SM CLR A3008 RMK VRB03KT  MADISHF
GWO,2017-04-01 17:45,-90.0847,33.4943,M,M,M,90.00,3.00,M,30.08,M,10.00,M,CLR,M,M,M,M,M,M,M,M,KGWO 011745Z AUTO 09003KT 10SM CLR A3008 RMK VRB03KT  MADISHF
GWO,2017-04-01 17:50,-90.0847,33.4943,M,M,M,0.00,0.00,M,30.08,M,10.00,M,CLR,M,M,M,M,M,M,M,M,KGWO 011750Z AUTO 00000KT 10SM CLR A3008 RMK MADISHF
GWO,2017-04-01 17:53,-90.0847,33.4943,77.00,53.10,43.44,M,3.00,0.00,30.08,1018.40,10.00,M,CLR,M,M,M,M,M,M,M,M,KGWO 011753Z AUTO VRB03KT 10SM CLR 25/12 A3008 RMK AO2 SLP184 T02500117 10256 20128 56005
GWO,2017-04-01 17:55,-90.0847,33.4943,M,M,M,20.00,7.00,M,30.08,M,10.00,M,CLR,M,M,M,M,M,M,M,M,KGWO 011755Z AUTO 02007KT 10SM CLR A3008 RMK MADISHF
GWO,2017-04-01 18:00,-90.0847,33.4943,M,M,M,0.00,0.00,M,30.08,M,10.00,M,CLR,M,M,M,M,M,M,M,M,KGWO 011800Z AUTO 00000KT 10SM CLR A3008 RMK MADISHF
GWO,2017-04-01 18:05,-90.0847,33.4943,M,M,M,40.00,4.00,M,30.08,M,10.00,M,CLR,M,M,M,M,M,M,M,M,KGWO 011805Z AUTO 04004KT 10SM CLR A3008 RMK VRB04KT  MADISHF
GWO,2017-04-01 18:10,-90.0847,33.4943,M,M,M,70.00,4.00,M,30.07,M,10.00,M,CLR,M,M,M,M,M,M,M,M,KGWO 011810Z AUTO 07004KT 10SM CLR A3007 RMK VRB04KT  MADISHF
GWO,2017-04-01 18:15,-90.0847,33.4943,M,M,M,30.00,3.00,M,30.07,M,10.00,M,CLR,M,M,M,M,M,M,M,M,KGWO 011815Z AUTO 03003KT 10SM CLR A3007 RMK VRB03KT  MADISHF
GWO,2017-04-01 18:20,-90.0847,33.4943,M,M,M,280.00,3.00,M,30.07,M,10.00,M,CLR,M,M,M,M,M,M,M,M,KGWO 011820Z AUTO 28003KT 10SM CLR A3007 RMK MADISHF
GWO,2017-04-01 18:25,-90.0847,33.4943,M,M,M,10.00,5.00,M,30.07,M,10.00,M,CLR,M,M,M,M,M,M,M,M,KGWO 011825Z AUTO 01005KT 10SM CLR A3007 RMK MADISHF
GWO,2017-04-01 18:30,-90.0847,33.4943,M,M,M,10.00,5.00,M,30.07,M,10.00,M,CLR,M,M,M,M,M,M,M,M,KGWO 011830Z AUTO 01005KT 10SM CLR A3007 RMK MADISHF
GWO,2017-04-01 18:35,-90.0847,33.4943,M,M,M,10.00,3.00,M,30.07,M,10.00,M,CLR,M,M,M,M,M,M,M,M,KGWO 011835Z AUTO 01003KT 10SM CLR A3007 RMK MADISHF
GWO,2017-04-01 18:40,-90.0847,33.4943,M,M,M,340.00,4.00,M,30.07,M,10.00,M,CLR,M,M,M,M,M,M,M,M,KGWO 011840Z AUTO 34004KT 10SM CLR A3007 RMK VRB04KT  MADISHF
GWO,2017-04-01 18:45,-90.0847,33.4943,M,M,M,10.00,6.00,M,30.07,M,10.00,M,CLR,M,M,M,M,M,M,M,M,KGWO 011845Z AUTO 01006KT 10SM CLR A3007 RMK MADISHF
GWO,2017-04-01 18:50,-90.0847,33.4943,M,M,M,30.00,6.00,M,30.07,M,10.00,M,CLR,M,M,M,M,M,M,M,M,KGWO 011850Z AUTO 03006KT 10SM CLR A3007 RMK MADISHF
GWO,2017-04-01 18:53,-90.0847,33.4943,80.10,55.00,42.05,40.00,5.00,0.00,30.07,1017.90,10.00,M,CLR,M,M,M,M,M,M,M,M,KGWO 011853Z AUTO 04005KT 10SM CLR 27/13 A3007 RMK AO2 SLP179 T02670128
GWO,2017-04-01 18:55,-90.0847,33.4943,M,M,M,0.00,0.00,M,30.06,M,10.00,M,CLR,M,M,M,M,M,M,M,M,KGWO 011855Z AUTO 00000KT 10SM CLR A3006 RMK MADISHF
GWO,2017-04-01 19:00,-90.0847,33.4943,M,M,M,0.00,0.00,M,30.06,M,10.00,M,CLR,M,M,M,M,M,M,M,M,KGWO 011900Z AUTO 00000KT 10SM CLR A3006 RMK MADISHF
GWO,2017-04-01 19:05,-90.0847,33.4943,M,M,M,M,M,M,30.06,M,10.00,M,CLR,M,M,M,M,M,M,M,M,KGWO 011905Z AUTO /////KT 10SM CLR A3006 RMK MADISHF
GWO,2017-04-01 19:10,-90.0847,33.4943,M,M,M,360.00,3.00,M,30.06,M,10.00,M,CLR,M,M,M,M,M,M,M,M,KGWO 011910Z AUTO 36003KT 10SM CLR A3006 RMK MADISHF
GWO,2017-04-01 19:15,-90.0847,33.4943,M,M,M,350.00,4.00,M,30.06,M,10.00,M,CLR,M,M,M,M,M,M,M,M,KGWO 011915Z AUTO 35004KT 10SM CLR A3006 RMK MADISHF
GWO,2017-04-01 19:20,-90.0847,33.4943,M,M,M,0.00,0.00,M,30.06,M,10.00,M,CLR,M,M,M,M,M,M,M,M,KGWO 011920Z AUTO 00000KT 10SM CLR A3006 RMK MADISHF
GWO,2017-04-01 19:25,-90.0847,33.4943,M,M,M,20.00,5.00,M,30.05,M,10.00,M,CLR,M,M,M,M,M,M,M,M,KGWO 011925Z AUTO 02005KT 10SM CLR A3005 RMK MADISHF
GWO,2017-04-01 19:30,-90.0847,33.4943,M,M,M,80.00,5.00,M,30.05,M,10.00,M,CLR,M,M,M,M,M,M,M,M,KGWO 011930Z AUTO 08005KT 10SM CLR A3005 RMK MADISHF
GWO,2017-04-01 19:35,-90.0847,33.4943,M,M,M,340.00,6.00,M,30.05,M,10.00,M,CLR,M,M,M,M,M,M,M,M,KGWO 011935Z AUTO 34006KT 10SM CLR A3005 RMK MADISHF
GWO,2017-04-01 19:40,-90.0847,33.4943,M,M,M,30.00,5.00,M,30.04,M,10.00,M,CLR,M,M,M,M,M,M,M,M,KGWO 011940Z AUTO 03005KT 10SM CLR A3004 RMK VRB05KT  MADISHF
GWO,2017-04-01 19:45,-90.0847,33.4943,M,M,M,10.00,5.00,M,30.04,M,10.00,M,CLR,M,M,M,M,M,M,M,M,KGWO 011945Z AUTO 01005KT 10SM CLR A3004 RMK MADISHF
GWO,2017-04-01 19:50,-90.0847,33.4943,M,M,M,350.00,7.00,M,30.04,M,10.00,M,CLR,M,M,M,M,M,M,M,M,KGWO 011950Z AUTO 35007KT 10SM CLR A3004 RMK WND 32V03  MADISHF
GWO,2017-04-01 19:53,-90.0847,33.4943,82.00,55.00,39.52,50.00,4.00,0.00,30.04,1017.00,10.00,M,CLR,M,M,M,M,M,M,M,M,KGWO 011953Z AUTO 05004KT 10SM CLR 28/13 A3004 RMK AO2 SLP170 T02780128
GWO,2017-04-01 19:55,-90.0847,33.4943,M,M,M,0.00,0.00,M,30.04,M,10.00,M,CLR,M,M,M,M,M,M,M,M,KGWO 011955Z AUTO 00000KT 10SM CLR A3004 RMK MADISHF
GWO,2017-04-01 20:00,-90.0847,33.4943,M,M,M,10.00,4.00,M,30.03,M,10.00,M,CLR,M,M,M,M,M,M,M,M,KGWO 012000Z AUTO 01004KT 10SM CLR A3003 RMK VRB04KT  MADISHF
GWO,2017-04-01 20:05,-90.0847,33.4943,M,M,M,360.00,7.00,M,30.03,M,10.00,M,CLR,M,M,M,M,M,M,M,M,KGWO 012005Z AUTO 36007KT 10SM CLR A3003 RMK MADISHF
GWO,2017-04-01 20:10,-90.0847,33.4943,M,M,M,10.00,4.00,M,30.03,M,10.00,M,CLR,M,M,M,M,M,M,M,M,KGWO 012010Z AUTO 01004KT 10SM CLR A3003 RMK VRB04KT  MADISHF
GWO,2017-04-01 20:15,-90.0847,33.4943,M,M,M,40.00,8.00,M,30.03,M,10.00,M,CLR,M,M,M,M,M,M,M,M,KGWO 012015Z AUTO 04008KT 10SM CLR A3003 RMK MADISHF
GWO,2017-04-01 20:20,-90.0847,33.4943,M,M,M,350.00,4.00,M,30.03,M,10.00,M,CLR,M,M,M,M,M,M,M,M,KGWO 012020Z AUTO 35004KT 10SM CLR A3003 RMK VRB04KT  MADISHF
GWO,2017-04-01 20:25,-90.0847,33.4943,M,M,M,10.00,4.00,M,30.03,M,10.00,M,CLR,M,M,M,M,M,M,M,M,KGWO 012025Z AUTO 01004KT 10SM CLR A3003 RMK MADISHF
GWO,2017-04-01 20:30,-90.0847,33.4943,M,M,M,80.00,4.00,M,30.02,M,10.00,M,CLR,M,M,M,M,M,M,M,M,KGWO 012030Z AUTO 08004KT 10SM CLR A3002 RMK MADISHF
GWO,2017-04-01 20:35,-90.0847,33.4943,M,M,M,M,M,M,30.02,M,10.00,M,CLR,M,M,M,M,M,M,M,M,KGWO 012035Z AUTO /////KT 10SM CLR A3002 RMK MADISHF
GWO,2017-04-01 20:40,-90.0847,33.4943,M,M,M,80.00,5.00,M,30.02,M,10.00,M,CLR,M,M,M,M,M,M,M,M,KGWO 012040Z AUTO 08005KT 10SM CLR A3002 RMK MADISHF
GWO,2017-04-01 20:45,-90.0847,33.4943,M,M,M,70.00,5.00,M,30.02,M,10.00,M,CLR,M,M,M,M,M,M,M,M,KGWO 012045Z AUTO 07005KT 10SM CLR A3002 RMK VRB05KT  MADISHF
GWO,2017-04-01 20:50,-90.0847,33.4943,M,M,M,60.00,9.00,M,30.02,M,10.00,M,CLR,M,M,M,M,M,M,M,M,KGWO 012050Z AUTO 06009KT 10SM CLR A3002 RMK MADISHF
GWO,2017-04-01 20:53,-90.0847,33.4943,82.90,55.00,38.38,80.00,6.00,0.00,30.02,1016.40,10.00,M,CLR,M,M,M,M,M,M,M,M,KGWO 012053Z AUTO 08006KT 10SM CLR 28/13 A3002 RMK AO2 SLP164 T02830128 58020
GWO,2017-04-01 20:55,-90.0847,33.4943,M,M,M,50.00,9.00,M,30.02,M,10.00,M,CLR,M,M,M,M,M,M,M,M,KGWO 012055Z AUTO 05009KT 10SM CLR A3002 RMK MADISHF
GWO,2017-04-01 21:00,-90.0847,33.4943,M,M,M,40.00,5.00,M,30.02,M,10.00,M,CLR,M,M,M,M,M,M,M,M,KGWO 012100Z AUTO 04005KT 10SM CLR A3002 RMK MADISHF
GWO,2017-04-01 21:05,-90.0847,33.4943,M,M,M,M,M,M,30.02,M,10.00,M,CLR,M,M,M,M,M,M,M,M,KGWO 012105Z AUTO /////KT 10SM CLR A3002 RMK MADISHF
GWO,2017-04-01 21:10,-90.0847,33.4943,M,M,M,70.00,8.00,M,30.02,M,10.00,M,CLR,M,M,M,M,M,M,M,M,KGWO 012110Z AUTO 07008KT 10SM CLR A3002 RMK MADISHF
GWO,2017-04-01 21:15,-90.0847,33.4943,M,M,M,100.00,3.00,M,30.02,M,10.00,M,CLR,M,M,M,M,M,M,M,M,KGWO 012115Z AUTO 10003KT 10SM CLR A3002 RMK VRB03KT  MADISHF
GWO,2017-04-01 21:20,-90.0847,33.4943,M,M,M,10.00,5.00,M,30.01,M,10.00,M,CLR,M,M,M,M,M,M,M,M,KGWO 012120Z AUTO 01005KT 10SM CLR A3001 RMK MADISHF
GWO,2017-04-01 21:25,-90.0847,33.4943,M,M,M,20.00,6.00,M,30.01,M,10.00,M,CLR,M,M,M,M,M,M,M,M,KGWO 012125Z AUTO 02006KT 10SM CLR A3001 RMK MADISHF
GWO,2017-04-01 21:30,-90.0847,33.4943,M,M,M,60.00,10.00,M,30.01,M,10.00,M,CLR,M,M,M,M,M,M,M,M,KGWO 012130Z AUTO 06010KT 10SM CLR A3001 RMK MADISHF
GWO,2017-04-01 21:35,-90.0847,33.4943,M,M,M,50.00,9.00,M,30.01,M,10.00,M,CLR,M,M,M,M,M,M,M,M,KGWO 012135Z AUTO 05009KT 10SM CLR A3001 RMK MADISHF
GWO,2017-04-01 21:40,-90.0847,33.4943,M,M,M,60.00,4.00,M,30.01,M,10.00,M,CLR,M,M,M,M,M,M,M,M,KGWO 012140Z AUTO 06004KT 10SM CLR A3001 RMK MADISHF
GWO,2017-04-01 21:45,-90.0847,33.4943,M,M,M,50.00,9.00,M,30.01,M,10.00,M,CLR,M,M,M,M,M,M,M,M,KGWO 012145Z AUTO 05009KT 10SM CLR A3001 RMK MADISHF
GWO,2017-04-01 21:50,-90.0847,33.4943,M,M,M,60.00,8.00,M,30.02,M,10.00,M,CLR,M,M,M,M,M,M,M,M,KGWO 012150Z AUTO 06008KT 10SM CLR A3002 RMK MADISHF
GWO,2017-04-01 21:53,-90.0847,33.4943,82.90,55.00,38.38,50.00,9.00,0.00,30.02,1016.20,10.00,M,CLR,M,M,M,M,M,M,M,M,KGWO 012153Z AUTO 05009KT 10SM CLR 28/13 A3002 RMK AO2 SLP162 T02830128
GWO,2017-04-01 21:55,-90.0847,33.4943,M,M,M,40.00,8.00,M,30.01,M,10.00,M,CLR,M,M,M,M,M,M,M,M,KGWO 012155Z AUTO 04008KT 10SM CLR A3001 RMK WND 01V08  MADISHF
GWO,2017-04-01 22:00,-90.0847,33.4943,M,M,M,30.00,6.00,M,30.01,M,10.00,M,CLR,M,M,M,M,M,M,M,M,KGWO 012200Z AUTO 03006KT 10SM CLR A3001 RMK MADISHF
GWO,2017-04-01 22:05,-90.0847,33.4943,M,M,M,60.00,9.00,M,30.01,M,10.00,M,CLR,M,M,M,M,M,M,M,M,KGWO 012205Z AUTO 06009KT 10SM CLR A3001 RMK MADISHF
GWO,2017-04-01 22:10,-90.0847,33.4943,M,M,M,40.00,9.00,M,30.01,M,10.00,M,CLR,M,M,M,M,M,M,M,M,KGWO 012210Z AUTO 04009KT 10SM CLR A3001 RMK MADISHF
GWO,2017-04-01 22:15,-90.0847,33.4943,M,M,M,50.00,7.00,M,30.01,M,10.00,M,CLR,M,M,M,M,M,M,M,M,KGWO 012215Z AUTO 05007KT 10SM CLR A3001 RMK MADISHF
GWO,2017-04-01 22:20,-90.0847,33.4943,M,M,M,50.00,6.00,M,30.01,M,10.00,M,CLR,M,M,M,M,M,M,M,M,KGWO 012220Z AUTO 05006KT 10SM CLR A3001 RMK MADISHF
GWO,2017-04-01 22:25,-90.0847,33.4943,M,M,M,60.00,7.00,M,30.02,M,10.00,M,CLR,M,M,M,M,M,M,M,M,KGWO 012225Z AUTO 06007KT 10SM CLR A3002 RMK MADISHF
GWO,2017-04-01 22:30,-90.0847,33.4943,M,M,M,60.00,7.00,M,30.02,M,10.00,M,CLR,M,M,M,M,M,M,M,M,KGWO 012230Z AUTO 06007KT 10SM CLR A3002 RMK MADISHF
GWO,2017-04-01 22:35,-90.0847,33.4943,M,M,M,60.00,8.00,M,30.02,M,10.00,M,CLR,M,M,M,M,M,M,M,M,KGWO 012235Z AUTO 06008KT 10SM CLR A3002 RMK MADISHF
GWO,2017-04-01 22:40,-90.0847,33.4943,M,M,M,50.00,5.00,M,30.01,M,10.00,M,CLR,M,M,M,M,M,M,M,M,KGWO 012240Z AUTO 05005KT 10SM CLR A3001 RMK VRB05KT  MADISHF
GWO,2017-04-01 22:45,-90.0847,33.4943,M,M,M,60.00,7.00,M,30.01,M,10.00,M,CLR,M,M,M,M,M,M,M,M,KGWO 012245Z AUTO 06007KT 10SM CLR A3001 RMK MADISHF
GWO,2017-04-01 22:50,-90.0847,33.4943,M,M,M,90.00,8.00,M,30.01,M,10.00,M,CLR,M,M,M,M,M,M,M,M,KGWO 012250Z AUTO 09008KT 10SM CLR A3001 RMK MADISHF
GWO,2017-04-01 22:53,-90.0847,33.4943,81.00,55.90,42.19,80.00,9.00,0.00,30.02,1016.20,10.00,M,CLR,M,M,M,M,M,M,M,M,KGWO 012253Z AUTO 08009KT 10SM CLR 27/13 A3002 RMK AO2 SLP162 T02720133
GWO,2017-04-01 22:55,-90.0847,33.4943,M,M,M,70.00,10.00,M,30.02,M,10.00,M,CLR,M,M,M,M,M,M,M,M,KGWO 012255Z AUTO 07010KT 10SM CLR A3002 RMK MADISHF
GWO,2017-04-01 23:00,-90.0847,33.4943,M,M,M,70.00,8.00,M,30.02,M,10.00,M,CLR,M,M,M,M,M,M,M,M,KGWO 012300Z AUTO 07008KT 10SM CLR A3002 RMK MADISHF
GWO,2017-04-01 23:05,-90.0847,33.4943,M,M,M,60.00,8.00,M,30.02,M,10.00,M,CLR,M,M,M,M,M,M,M,M,KGWO 012305Z AUTO 06008KT 10SM CLR A3002 RMK MADISHF
GWO,2017-04-01 23:10,-90.0847,33.4943,M,M,M,70.00,9.00,M,30.01,M,10.00,M,CLR,M,M,M,M,M,M,M,M,KGWO 012310Z AUTO 07009KT 10SM CLR A3001 RMK MADISHF
GWO,2017-04-01 23:15,-90.0847,33.4943,M,M,M,50.00,7.00,M,30.01,M,10.00,M,CLR,M,M,M,M,M,M,M,M,KGWO 012315Z AUTO 05007KT 10SM CLR A3001 RMK MADISHF
GWO,2017-04-01 23:20,-90.0847,33.4943,M,M,M,60.00,11.00,M,30.01,M,10.00,M,CLR,M,M,M,M,M,M,M,M,KGWO 012320Z AUTO 06011KT 10SM CLR A3001 RMK MADISHF
GWO,2017-04-01 23:25,-90.0847,33.4943,M,M,M,50.00,9.00,M,30.01,M,10.00,M,CLR,M,M,M,M,M,M,M,M,KGWO 012325Z AUTO 05009KT 10SM CLR A3001 RMK MADISHF
GWO,2017-04-01 23:30,-90.0847,33.4943,M,M,M,60.00,10.00,M,30.02,M,10.00,M,CLR,M,M,M,M,M,M,M,M,KGWO 012330Z AUTO 06010KT 10SM CLR A3002 RMK MADISHF
GWO,2017-04-01 23:35,-90.0847,33.4943,M,M,M,60.00,10.00,M,30.01,M,10.00,M,CLR,M,M,M,M,M,M,M,M,KGWO 012335Z AUTO 06010KT 10SM CLR A3001 RMK MADISHF
GWO,2017-04-01 23:40,-90.0847,33.4943,M,M,M,60.00,9.00,M,30.01,M,10.00,M,CLR,M,M,M,M,M,M,M,M,KGWO 012340Z AUTO 06009KT 10SM CLR A3001 RMK MADISHF
GWO,2017-04-01 23:45,-90.0847,33.4943,M,M,M,50.00,10.00,M,30.01,M,10.00,M,CLR,M,M,M,M,M,M,M,M,KGWO 012345Z AUTO 05010KT 10SM CLR A3001 RMK MADISHF
GWO,2017-04-01 23:50,-90.0847,33.4943,M,M,M,50.00,8.00,M,30.01,M,10.00,M,CLR,M,M,M,M,M,M,M,M,KGWO 012350Z AUTO 05008KT 10SM CLR A3001 RMK MADISHF
GWO,2017-04-01 23:53,-90.0847,33.4943,77.00,55.90,48.12,60.00,7.00,0.00,30.01,1016.10,10.00,M,CLR,M,M,M,M,M,M,M,M,KGWO 012353Z AUTO 06007KT 10SM CLR 25/13 A3001 RMK AO2 SLP161 T02500133 10283 20250 56002
GWO,2017-04-01 23:55,-90.0847,33.4943,M,M,M,50.00,8.00,M,30.01,M,10.00,M,CLR,M,M,M,M,M,M,M,M,KGWO 012355Z AUTO 05008KT 10SM CLR A3001 RMK MADISHF
