#DEBUG: Format Typ    -> comma
#DEBUG: Time Period   -> 2017-04-01 00:00:00+00:00 2017-04-02 00:00:00+00:00
#DEBUG: Time Zone     -> Etc/UTC
#DEBUG: Data Contact   -> daryl herzmann akrherz@iastate.edu 515-294-5978
#DEBUG: Entries Found -> -1
station,valid,lon,lat,tmpf, dwpf, relh, drct, sknt, p01i, alti, mslp, vsby, gust, skyc1, skyc2, skyc3, skyc4, skyl1, skyl2, skyl3, skyl4, presentwx, metar
HFD,2017-04-01 00:00,-72.6494,41.7367,M,M,M,70.00,10.00,0.01,29.95,M,4.00,M,BKN,OVC,M,M,1400.00,2100.00,M,M,-RA BR,KHFD 010000Z AUTO 07010KT 4SM -RA BR BKN014 OVC021 A2995 RMK P0001 MADISHF
HFD,2017-04-01 00:05,-72.6494,41.7367,M,M,M,60.00,7.00,0.02,29.95,M,4.00,M,BKN,OVC,M,M,1400.00,2100.00,M,M,-RA BR,KHFD 010005Z AUTO 06007KT 4SM -RA BR BKN014 OVC021 A2995 RMK P0002 MADISHF
HFD,2017-04-01 00:10,-72.6494,41.7367,M,M,M,60.00,9.00,0.02,29.95,M,5.00,M,BKN,OVC,M,M,1400.00,2100.00,M,M,-RA BR,KHFD 010010Z AUTO 06009KT 5SM -RA BR BKN014 OVC021 A2995 RMK P0002 MADISHF
HFD,2017-04-01 00:15,-72.6494,41.7367,M,M,M,70.00,6.00,0.03,29.95,M,4.00,M,BKN,OVC,M,M,1400.00,2100.00,M,M,RA BR,KHFD 010015Z AUTO 07006KT 4SM RA BR BKN014 OVC021 A2995 RMK P0003 MADISHF
HFD,2017-04-01 00:20,-72.6494,41.7367,M,M,M,60.00,7.00,0.04,29.95,M,4.00,M,BKN,OVC,M,M,1400.00,2100.00,M,M,-RA BR,KHFD 010020Z AUTO 06007KT 4SM -RA BR BKN014 OVC021 A2995 RMK P0004 MADISHF
HFD,2017-04-01 00:25,-72.6494,41.7367,M,M,M,60.00,6.00,0.05,29.95,M,4.00,M,BKN,OVC,M,M,1400.00,2100.00,M,M,RA BR,KHFD 010025Z AUTO 06006KT 4SM RA BR BKN014 OVC021 A2995 RMK P0005 MADISHF
HFD,2017-04-01 00:30,-72.6494,41.7367,M,M,M,70.00,7.00,0.05,29.95,M,4.00,M,BKN,OVC,M,M,1400.00,2100.00,M,M,RA BR,KHFD 010030Z AUTO 07007KT 4SM RA BR BKN014 OVC021 A2995 RMK P0005 MADISHF
HFD,2017-04-01 00:35,-72.6494,41.7367,M,M,M,50.00,7.00,0.06,29.95,M,5.00,M,BKN,OVC,M,M,1400.00,2100.00,M,M,RA BR,KHFD 010035Z AUTO 05007KT 5SM RA BR BKN014 OVC021 A2995 RMK P0006 MADISHF
HFD,2017-04-01 00:40,-72.6494,41.7367,M,M,M,60.00,8.00,0.07,29.94,M,5.00,M,BKN,OVC,M,M,1400.00,2100.00,M,M,-RA BR,KHFD 010040Z AUTO 06008KT 5SM -RA BR BKN014 OVC021 A2994 RMK P0007 MADISHF
HFD,2017-04-01 00:45,-72.6494,41.7367,M,M,M,50.00,8.00,0.07,29.94,M,5.00,M,BKN,OVC,M,M,1400.00,2100.00,M,M,-RA BR,KHFD 010045Z AUTO 05008KT 5SM -RA BR BKN014 OVC021 A2994 RMK P0007 MADISHF
HFD,2017-04-01 00:50,-72.6494,41.7367,M,M,M,60.00,7.00,0.08,29.94,M,5.00,M,BKN,OVC,M,M,1400.00,2100.00,M,M,-RA BR,KHFD 010050Z AUTO 06007KT 5SM -RA BR BKN014 OVC021 A2994 RMK P0008 MADISHF
HFD,2017-04-01 00:53,-72.6494,41.7367,36.00,33.10,89.09,60.00,7.00,0.08,29.94,1013.80,5.00,M,BKN,OVC,M,M,1400.00,2100.00,M,M,-RA BR,KHFD 010053Z 06007KT 5SM -RA BR BKN014 OVC021 02/01 A2994 RMK AO2 SLP138 P0008 T00220006
HFD,2017-04-01 00:55,-72.6494,41.7367,M,M,M,60.00,8.00,0.01,29.94,M,5.00,M,OVC,M,M,M,1699.00,M,M,M,-RA BR,KHFD 010055Z AUTO 06008KT 5SM -RA BR OVC016 A2994 RMK P0001 MADISHF
HFD,2017-04-01 01:00,-72.6494,41.7367,M,M,M,50.00,9.00,0.01,29.93,M,5.00,M,BKN,M,M,M,1400.00,M,M,M,-RA BR,KHFD 010100Z AUTO 05009KT 5SM -RA BR BKN014 A2993 RMK P0001 MADISHF
HFD,2017-04-01 01:05,-72.6494,41.7367,M,M,M,50.00,7.00,0.02,29.93,M,5.00,M,BKN,M,M,M,1400.00,M,M,M,-RA BR,KHFD 010105Z AUTO 05007KT 5SM -RA BR BKN014 A2993 RMK P0002 MADISHF
HFD,2017-04-01 01:10,-72.6494,41.7367,M,M,M,50.00,7.00,0.02,29.93,M,5.00,M,BKN,M,M,M,1400.00,M,M,M,-RA BR,KHFD 010110Z AUTO 05007KT 5SM -RA BR BKN014 A2993 RMK P0002 MADISHF
HFD,2017-04-01 01:15,-72.6494,41.7367,M,M,M,50.00,8.00,0.03,29.93,M,5.00,M,BKN,M,M,M,1400.00,M,M,M,-RA BR,KHFD 010115Z AUTO 05008KT 5SM -RA BR BKN014 A2993 RMK P0003 MADISHF
HFD,2017-04-01 01:20,-72.6494,41.7367,M,M,M,50.00,6.00,0.03,29.93,M,4.00,M,BKN,M,M,M,1400.00,M,M,M,-RA BR,KHFD 010120Z AUTO 05006KT 4SM -RA BR BKN014 A2993 RMK P0003 MADISHF
HFD,2017-04-01 01:25,-72.6494,41.7367,M,M,M,50.00,9.00,0.04,29.92,M,4.00,M,BKN,M,M,M,1400.00,M,M,M,RA BR,KHFD 010125Z AUTO 05009KT 4SM RA BR BKN014 A2992 RMK P0004 MADISHF
HFD,2017-04-01 01:30,-72.6494,41.7367,M,M,M,50.00,8.00,0.06,29.92,M,3.00,M,BKN,M,M,M,1400.00,M,M,M,RA BR,KHFD 010130Z AUTO 05008KT 3SM RA BR BKN014 A2992 RMK P0006 MADISHF
HFD,2017-04-01 01:35,-72.6494,41.7367,M,M,M,60.00,7.00,0.07,29.92,M,3.00,M,BKN,M,M,M,1400.00,M,M,M,RA BR,KHFD 010135Z AUTO 06007KT 3SM RA BR BKN014 A2992 RMK P0007 MADISHF
HFD,2017-04-01 01:40,-72.6494,41.7367,M,M,M,50.00,7.00,0.08,29.92,M,3.00,M,BKN,M,M,M,1400.00,M,M,M,RA BR,KHFD 010140Z AUTO 05007KT 3SM RA BR BKN014 A2992 RMK P0008 MADISHF
HFD,2017-04-01 01:45,-72.6494,41.7367,M,M,M,40.00,7.00,0.08,29.92,M,3.50,M,BKN,M,M,M,1400.00,M,M,M,RA BR,KHFD 010145Z AUTO 04007KT 3SM RA BR BKN014 A2992 RMK P0008 MADISHF
HFD,2017-04-01 01:50,-72.6494,41.7367,M,M,M,40.00,6.00,0.09,29.92,M,3.50,M,BKN,M,M,M,1400.00,M,M,M,RA BR,KHFD 010150Z AUTO 04006KT 3SM RA BR BKN014 A2992 RMK P0009 MADISHF
HFD,2017-04-01 01:53,-72.6494,41.7367,34.00,32.00,92.29,40.00,7.00,0.10,29.92,1013.00,3.00,M,BKN,M,M,M,1400.00,M,M,M,RA BR,KHFD 010153Z 04007KT 3SM RA BR BKN014 01/00 A2992 RMK AO2 SLP130 P0010 T00110000
HFD,2017-04-01 01:55,-72.6494,41.7367,M,M,M,50.00,7.00,M,29.92,M,3.50,M,OVC,M,M,M,1400.00,M,M,M,-RA BR,KHFD 010155Z AUTO 05007KT 3SM -RA BR OVC014 A2992 RMK MADISHF
HFD,2017-04-01 02:00,-72.6494,41.7367,M,M,M,30.00,7.00,M,29.91,M,4.00,M,OVC,M,M,M,1400.00,M,M,M,-RA BR,KHFD 010200Z AUTO 03007KT 4SM -RA BR OVC014 A2991 RMK MADISHF
HFD,2017-04-01 02:05,-72.6494,41.7367,M,M,M,10.00,6.00,0.01,29.91,M,4.00,M,OVC,M,M,M,1400.00,M,M,M,-RA BR,KHFD 010205Z AUTO 01006KT 4SM -RA BR OVC014 A2991 RMK P0001 MADISHF
HFD,2017-04-01 02:10,-72.6494,41.7367,M,M,M,10.00,6.00,0.01,29.91,M,3.50,M,OVC,M,M,M,1400.00,M,M,M,-RA BR,KHFD 010210Z AUTO 01006KT 3SM -RA BR OVC014 A2991 RMK P0001 MADISHF
HFD,2017-04-01 02:15,-72.6494,41.7367,M,M,M,10.00,6.00,0.02,29.90,M,3.00,M,OVC,M,M,M,1400.00,M,M,M,-RA BR,KHFD 010215Z AUTO 01006KT 3SM -RA BR OVC014 A2990 RMK P0002 MADISHF
HFD,2017-04-01 02:20,-72.6494,41.7367,M,M,M,10.00,5.00,0.02,29.90,M,3.00,M,OVC,M,M,M,1400.00,M,M,M,-RA BR,KHFD 010220Z AUTO 01005KT 3SM -RA BR OVC014 A2990 RMK P0002 MADISHF
HFD,2017-04-01 02:25,-72.6494,41.7367,M,M,M,20.00,6.00,0.03,29.90,M,3.00,M,OVC,M,M,M,1400.00,M,M,M,-RA BR,KHFD 010225Z AUTO 02006KT 3SM -RA BR OVC014 A2990 RMK P0003 MADISHF
HFD,2017-04-01 02:30,-72.6494,41.7367,M,M,M,20.00,5.00,0.03,29.91,M,3.00,M,OVC,M,M,M,1400.00,M,M,M,-RA BR,KHFD 010230Z AUTO 02005KT 3SM -RA BR OVC014 A2991 RMK P0003 MADISHF
HFD,2017-04-01 02:35,-72.6494,41.7367,M,M,M,20.00,6.00,0.04,29.90,M,3.00,M,OVC,M,M,M,1400.00,M,M,M,-RA BR,KHFD 010235Z AUTO 02006KT 3SM -RA BR OVC014 A2990 RMK P0004 MADISHF
HFD,2017-04-01 02:40,-72.6494,41.7367,M,M,M,20.00,6.00,0.04,29.90,M,3.00,M,OVC,M,M,M,1400.00,M,M,M,-RA BR,KHFD 010240Z AUTO 02006KT 3SM -RA BR OVC014 A2990 RMK P0004 MADISHF
HFD,2017-04-01 02:45,-72.6494,41.7367,M,M,M,10.00,5.00,0.05,29.90,M,3.00,M,OVC,M,M,M,1400.00,M,M,M,-RA BR,KHFD 010245Z AUTO 01005KT 3SM -RA BR OVC014 A2990 RMK P0005 MADISHF
HFD,2017-04-01 02:50,-72.6494,41.7367,M,M,M,30.00,6.00,0.05,29.89,M,2.50,M,FEW,OVC,M,M,900.00,1600.00,M,M,-RA BR,KHFD 010250Z AUTO 03006KT 2 1/2SM -RA BR FEW009 OVC016 A2989 RMK P0005 MADISHF
HFD,2017-04-01 02:53,-72.6494,41.7367,33.10,32.00,95.67,40.00,7.00,0.05,29.89,1012.10,2.50,M,FEW,BKN,OVC,M,900.00,1400.00,2000.00,M,-RA BR,KHFD 010253Z 04007KT 2 1/2SM -RA BR FEW009 BKN014 OVC020 01/00 A2989 RMK AO2 SLP121 P0005 60023 T00060000 58020
HFD,2017-04-01 02:55,-72.6494,41.7367,M,M,M,40.00,8.00,M,29.89,M,3.00,M,BKN,OVC,M,M,1400.00,1999.00,M,M,-RA BR,KHFD 010255Z AUTO 04008KT 3SM -RA BR BKN014 OVC019 A2989 RMK MADISHF
HFD,2017-04-01 03:00,-72.6494,41.7367,M,M,M,50.00,8.00,0.01,29.88,M,2.50,M,FEW,BKN,OVC,M,900.00,1400.00,1999.00,M,-RA BR,KHFD 010300Z AUTO 05008KT 2 1/2SM -RA BR FEW009 BKN014 OVC019 A2988 RMK P0001 MADISHF
HFD,2017-04-01 03:05,-72.6494,41.7367,M,M,M,50.00,6.00,0.01,29.88,M,2.50,M,FEW,BKN,OVC,M,900.00,1400.00,1999.00,M,-RA BR,KHFD 010305Z AUTO 05006KT 2 1/2SM -RA BR FEW009 BKN014 OVC019 A2988 RMK P0001 MADISHF
HFD,2017-04-01 03:10,-72.6494,41.7367,M,M,M,40.00,8.00,0.02,29.87,M,2.50,M,FEW,BKN,OVC,M,900.00,1400.00,1999.00,M,-RA BR,KHFD 010310Z AUTO 04008KT 2 1/2SM -RA BR FEW009 BKN014 OVC019 A2987 RMK P0002 MADISHF
HFD,2017-04-01 03:15,-72.6494,41.7367,M,M,M,40.00,7.00,0.02,29.87,M,2.50,M,FEW,BKN,OVC,M,900.00,1400.00,1999.00,M,-RA BR,KHFD 010315Z AUTO 04007KT 2 1/2SM -RA BR FEW009 BKN014 OVC019 A2987 RMK P0002 MADISHF
HFD,2017-04-01 03:20,-72.6494,41.7367,M,M,M,40.00,7.00,0.02,29.87,M,2.50,M,FEW,BKN,OVC,M,900.00,1400.00,1999.00,M,-RA BR,KHFD 010320Z AUTO 04007KT 2 1/2SM -RA BR FEW009 BKN014 OVC019 A2987 RMK P0002 MADISHF
HFD,2017-04-01 03:25,-72.6494,41.7367,M,M,M,20.00,6.00,0.02,29.87,M,2.50,M,FEW,BKN,OVC,M,900.00,1400.00,1999.00,M,-RA BR,KHFD 010325Z AUTO 02006KT 2 1/2SM -RA BR FEW009 BKN014 OVC019 A2987 RMK P0002 MADISHF
HFD,2017-04-01 03:30,-72.6494,41.7367,M,M,M,10.00,7.00,0.03,29.86,M,2.50,M,FEW,BKN,OVC,M,900.00,1400.00,1999.00,M,-RA BR,KHFD 010330Z AUTO 01007KT 2 1/2SM -RA BR FEW009 BKN014 OVC019 A2986 RMK P0003 MADISHF
HFD,2017-04-01 03:35,-72.6494,41.7367,M,M,M,30.00,9.00,0.03,29.85,M,2.50,M,FEW,BKN,OVC,M,900.00,1400.00,1999.00,M,-RA BR,KHFD 010335Z AUTO 03009KT 2 1/2SM -RA BR FEW009 BKN014 OVC019 A2985 RMK P0003 MADISHF
HFD,2017-04-01 03:40,-72.6494,41.7367,M,M,M,40.00,8.00,0.03,29.85,M,2.50,M,FEW,BKN,OVC,M,900.00,1400.00,1999.00,M,-RA BR,KHFD 010340Z AUTO 04008KT 2 1/2SM -RA BR FEW009 BKN014 OVC019 A2985 RMK P0003 MADISHF
HFD,2017-04-01 03:45,-72.6494,41.7367,M,M,M,30.00,8.00,0.03,29.85,M,2.50,M,FEW,BKN,OVC,M,900.00,1400.00,1999.00,M,-RA BR,KHFD 010345Z AUTO 03008KT 2 1/2SM -RA BR FEW009 BKN014 OVC019 A2985 RMK P0003 MADISHF
HFD,2017-04-01 03:50,-72.6494,41.7367,M,M,M,30.00,7.00,0.04,29.85,M,2.00,M,OVC,M,M,M,1699.00,M,M,M,-RA BR,KHFD 010350Z AUTO 03007KT 2SM -RA BR OVC016 A2985 RMK P0004 MADISHF
HFD,2017-04-01 03:53,-72.6494,41.7367,34.00,32.00,92.29,30.00,5.00,0.04,29.85,1010.70,2.50,M,OVC,M,M,M,1700.00,M,M,M,-RA BR,KHFD 010353Z 03005KT 2 1/2SM -RA BR OVC017 01/00 A2985 RMK AO2 SLP107 P0004 T00110000
HFD,2017-04-01 03:55,-72.6494,41.7367,M,M,M,20.00,7.00,M,29.85,M,2.50,M,OVC,M,M,M,1699.00,M,M,M,-RA BR,KHFD 010355Z AUTO 02007KT 2 1/2SM -RA BR OVC016 A2985 RMK MADISHF
HFD,2017-04-01 04:00,-72.6494,41.7367,M,M,M,30.00,8.00,0.00,29.84,M,2.50,M,OVC,M,M,M,1699.00,M,M,M,UP BR,KHFD 010400Z AUTO 03008KT 2 1/2SM UP BR OVC016 A2984 RMK P0000 MADISHF
HFD,2017-04-01 04:05,-72.6494,41.7367,M,M,M,30.00,7.00,0.00,29.85,M,3.00,M,OVC,M,M,M,1699.00,M,M,M,UP BR,KHFD 010405Z AUTO 03007KT 3SM UP BR OVC016 A2985 RMK P0000 MADISHF
HFD,2017-04-01 04:09,-72.6494,41.7367,34.00,32.00,92.29,40.00,8.00,0.01,29.85,M,3.00,M,OVC,M,M,M,1700.00,M,M,M,-RA BR,KHFD 010409Z AUTO 04008KT 3SM -RA BR OVC017 01/00 A2985 RMK AO2 UPB00E06 P0001 T00110000
HFD,2017-04-01 04:10,-72.6494,41.7367,M,M,M,40.00,8.00,0.01,29.85,M,3.00,M,OVC,M,M,M,1699.00,M,M,M,-RA BR,KHFD 010410Z AUTO 04008KT 3SM -RA BR OVC016 A2985 RMK P0001 MADISHF
HFD,2017-04-01 04:15,-72.6494,41.7367,M,M,M,40.00,7.00,0.03,29.85,M,2.50,M,OVC,M,M,M,1699.00,M,M,M,RA BR,KHFD 010415Z AUTO 04007KT 2 1/2SM RA BR OVC016 A2985 RMK P0003 MADISHF
HFD,2017-04-01 04:19,-72.6494,41.7367,34.00,32.00,92.29,30.00,8.00,0.05,29.84,M,2.00,M,BKN,OVC,M,M,1500.00,2000.00,M,M,RA BR,KHFD 010419Z AUTO 03008KT 2SM RA BR BKN015 OVC020 01/00 A2984 RMK AO2 UPB00E06 P0005 T00110000
HFD,2017-04-01 04:20,-72.6494,41.7367,M,M,M,40.00,8.00,0.05,29.84,M,2.00,M,BKN,OVC,M,M,1500.00,1999.00,M,M,RA BR,KHFD 010420Z AUTO 04008KT 2SM RA BR BKN015 OVC019 A2984 RMK P0005 MADISHF
HFD,2017-04-01 04:25,-72.6494,41.7367,M,M,M,20.00,8.00,0.06,29.84,M,2.50,M,OVC,M,M,M,1500.00,M,M,M,-RA BR,KHFD 010425Z AUTO 02008KT 2 1/2SM -RA BR OVC015 A2984 RMK P0006 MADISHF
HFD,2017-04-01 04:30,-72.6494,41.7367,M,M,M,30.00,7.00,0.06,29.84,M,3.00,M,OVC,M,M,M,1699.00,M,M,M,RA BR,KHFD 010430Z AUTO 03007KT 3SM RA BR OVC016 A2984 RMK P0006 MADISHF
HFD,2017-04-01 04:35,-72.6494,41.7367,M,M,M,10.00,7.00,0.07,29.84,M,2.50,M,OVC,M,M,M,1699.00,M,M,M,-RA BR,KHFD 010435Z AUTO 01007KT 2 1/2SM -RA BR OVC016 A2984 RMK P0007 MADISHF
HFD,2017-04-01 04:40,-72.6494,41.7367,M,M,M,10.00,5.00,0.07,29.84,M,3.00,M,OVC,M,M,M,1699.00,M,M,M,-RA BR,KHFD 010440Z AUTO 01005KT 3SM -RA BR OVC016 A2984 RMK P0007 MADISHF
HFD,2017-04-01 04:45,-72.6494,41.7367,34.00,33.10,96.46,20.00,7.00,0.08,29.84,M,3.00,M,OVC,M,M,M,1500.00,M,M,M,-RA BR,KHFD 010445Z AUTO 02007KT 3SM -RA BR OVC015 01/01 A2984 RMK AO2 UPB00E06 P0008 T00110006
HFD,2017-04-01 04:50,-72.6494,41.7367,M,M,M,20.00,5.00,0.08,29.84,M,3.50,M,OVC,M,M,M,1699.00,M,M,M,-RA BR,KHFD 010450Z AUTO 02005KT 3SM -RA BR OVC016 A2984 RMK P0008 MADISHF
HFD,2017-04-01 04:53,-72.6494,41.7367,34.00,33.10,96.46,30.00,7.00,0.08,29.84,1010.30,4.00,M,BKN,OVC,M,M,1500.00,2000.00,M,M,-RA BR,KHFD 010453Z AUTO 03007KT 4SM -RA BR BKN015 OVC020 01/01 A2984 RMK AO2 UPB00E06 SLP103 P0008 T00110006 400500006
HFD,2017-04-01 04:55,-72.6494,41.7367,M,M,M,20.00,6.00,M,29.84,M,4.00,M,OVC,M,M,M,1500.00,M,M,M,-RA BR,KHFD 010455Z AUTO 02006KT 4SM -RA BR OVC015 A2984 RMK MADISHF
HFD,2017-04-01 05:00,-72.6494,41.7367,M,M,M,10.00,6.00,M,29.84,M,4.00,M,OVC,M,M,M,1699.00,M,M,M,-RA BR,KHFD 010500Z AUTO 01006KT 4SM -RA BR OVC016 A2984 RMK MADISHF
HFD,2017-04-01 05:05,-72.6494,41.7367,M,M,M,10.00,5.00,0.01,29.84,M,3.00,M,BKN,OVC,M,M,1699.00,2100.00,M,M,-RA BR,KHFD 010505Z AUTO 01005KT 3SM -RA BR BKN016 OVC021 A2984 RMK P0001 MADISHF
HFD,2017-04-01 05:10,-72.6494,41.7367,M,M,M,360.00,5.00,0.01,29.83,M,2.50,M,OVC,M,M,M,1699.00,M,M,M,-RA BR,KHFD 010510Z AUTO 36005KT 2 1/2SM -RA BR OVC016 A2983 RMK P0001 MADISHF
HFD,2017-04-01 05:15,-72.6494,41.7367,M,M,M,10.00,6.00,0.01,29.83,M,2.50,M,OVC,M,M,M,1699.00,M,M,M,-RA BR,KHFD 010515Z AUTO 01006KT 2 1/2SM -RA BR OVC016 A2983 RMK P0001 MADISHF
HFD,2017-04-01 05:16,-72.6494,41.7367,34.00,33.10,96.46,10.00,7.00,0.01,29.83,M,2.50,M,OVC,M,M,M,1700.00,M,M,M,-RA BR,KHFD 010516Z AUTO 01007KT 2 1/2SM -RA BR OVC017 01/01 A2983 RMK AO2 P0001 T00110006
HFD,2017-04-01 05:20,-72.6494,41.7367,M,M,M,10.00,7.00,0.02,29.83,M,2.50,M,OVC,M,M,M,1699.00,M,M,M,-RA BR,KHFD 010520Z AUTO 01007KT 2 1/2SM -RA BR OVC016 A2983 RMK P0002 MADISHF
HFD,2017-04-01 05:25,-72.6494,41.7367,M,M,M,10.00,7.00,0.02,29.83,M,2.50,M,OVC,M,M,M,1699.00,M,M,M,-RA BR,KHFD 010525Z AUTO 01007KT 2 1/2SM -RA BR OVC016 A2983 RMK P0002 MADISHF
HFD,2017-04-01 05:30,-72.6494,41.7367,M,M,M,10.00,7.00,0.02,29.82,M,3.00,M,OVC,M,M,M,1699.00,M,M,M,-RA BR,KHFD 010530Z AUTO 01007KT 3SM -RA BR OVC016 A2982 RMK P0002 MADISHF
HFD,2017-04-01 05:32,-72.6494,41.7367,34.00,33.10,96.46,10.00,7.00,0.02,29.83,M,3.00,M,OVC,M,M,M,1700.00,M,M,M,-RA BR,KHFD 010532Z AUTO 01007KT 3SM -RA BR OVC017 01/01 A2983 RMK AO2 P0002 T00110006
HFD,2017-04-01 05:35,-72.6494,41.7367,M,M,M,360.00,6.00,0.03,29.82,M,3.00,M,OVC,M,M,M,1699.00,M,M,M,-RA BR,KHFD 010535Z AUTO 36006KT 3SM -RA BR OVC016 A2982 RMK P0003 MADISHF
HFD,2017-04-01 05:40,-72.6494,41.7367,M,M,M,10.00,9.00,0.03,29.82,M,4.00,M,OVC,M,M,M,1699.00,M,M,M,-RA BR,KHFD 010540Z AUTO 01009KT 4SM -RA BR OVC016 A2982 RMK P0003 MADISHF
HFD,2017-04-01 05:45,-72.6494,41.7367,M,M,M,10.00,9.00,0.03,29.81,M,3.50,M,OVC,M,M,M,1699.00,M,M,M,-RA BR,KHFD 010545Z AUTO 01009KT 3SM -RA BR OVC016 A2981 RMK P0003 MADISHF
HFD,2017-04-01 05:50,-72.6494,41.7367,M,M,M,360.00,7.00,0.04,29.81,M,2.50,M,OVC,M,M,M,1699.00,M,M,M,RA BR,KHFD 010550Z AUTO 36007KT 2 1/2SM RA BR OVC016 A2981 RMK P0004 MADISHF
HFD,2017-04-01 05:53,-72.6494,41.7367,34.00,33.10,96.46,10.00,8.00,0.05,29.81,1009.40,2.00,M,FEW,SCT,OVC,M,700.00,1300.00,1900.00,M,-RA BR,KHFD 010553Z AUTO 01008KT 2SM -RA BR FEW007 SCT013 OVC019 01/01 A2981 RMK AO2 SLP094 P0005 60040 T00110006 10022 20006 56027
HFD,2017-04-01 05:55,-72.6494,41.7367,M,M,M,10.00,9.00,M,29.81,M,2.00,M,FEW,BKN,OVC,M,700.00,1300.00,1900.00,M,-RA BR,KHFD 010555Z AUTO 01009KT 2SM -RA BR FEW007 BKN013 OVC019 A2981 RMK MADISHF
HFD,2017-04-01 06:00,-72.6494,41.7367,M,M,M,20.00,9.00,M,29.81,M,2.50,M,FEW,BKN,OVC,M,700.00,1500.00,1999.00,M,-RA BR,KHFD 010600Z AUTO 02009KT 2 1/2SM -RA BR FEW007 BKN015 OVC019 A2981 RMK MADISHF
HFD,2017-04-01 06:05,-72.6494,41.7367,M,M,M,360.00,8.00,0.01,29.81,M,2.50,M,FEW,BKN,OVC,M,700.00,1500.00,2200.00,M,-RA BR,KHFD 010605Z AUTO 36008KT 2 1/2SM -RA BR FEW007 BKN015 OVC022 A2981 RMK P0001 MADISHF
HFD,2017-04-01 06:09,-72.6494,41.7367,34.00,32.00,92.29,10.00,9.00,0.01,29.80,M,3.00,M,FEW,BKN,OVC,M,700.00,1400.00,2000.00,M,-RA BR,KHFD 010609Z AUTO 01009KT 3SM -RA BR FEW007 BKN014 OVC020 01/00 A2980 RMK AO2 P0001 T00110000
HFD,2017-04-01 06:10,-72.6494,41.7367,M,M,M,360.00,9.00,0.01,29.80,M,3.00,M,FEW,OVC,M,M,700.00,1600.00,M,M,-RA BR,KHFD 010610Z AUTO 36009KT 3SM -RA BR FEW007 OVC016 A2980 RMK P0001 MADISHF
HFD,2017-04-01 06:15,-72.6494,41.7367,M,M,M,10.00,10.00,0.01,29.80,M,4.00,M,FEW,OVC,M,M,600.00,1600.00,M,M,-RA BR,KHFD 010615Z AUTO 01010KT 4SM -RA BR FEW006 OVC016 A2980 RMK P0001 MADISHF
HFD,2017-04-01 06:19,-72.6494,41.7367,34.00,32.00,92.29,10.00,10.00,0.02,29.80,M,4.00,M,FEW,OVC,M,M,600.00,1800.00,M,M,-RA BR,KHFD 010619Z AUTO 01010KT 4SM -RA BR FEW006 OVC018 01/00 A2980 RMK AO2 P0002 T00110000
HFD,2017-04-01 06:20,-72.6494,41.7367,M,M,M,10.00,11.00,0.02,29.80,M,4.00,M,FEW,OVC,M,M,600.00,1800.00,M,M,-RA BR,KHFD 010620Z AUTO 01011KT 4SM -RA BR FEW006 OVC018 A2980 RMK P0002 MADISHF
HFD,2017-04-01 06:25,-72.6494,41.7367,M,M,M,10.00,9.00,0.02,29.80,M,3.00,M,BKN,OVC,M,M,1600.00,2200.00,M,M,-RA BR,KHFD 010625Z AUTO 01009KT 3SM -RA BR BKN016 OVC022 A2980 RMK P0002 MADISHF
HFD,2017-04-01 06:30,-72.6494,41.7367,M,M,M,10.00,9.00,0.03,29.79,M,2.00,M,BKN,OVC,M,M,1699.00,2200.00,M,M,RA BR,KHFD 010630Z AUTO 01009KT 2SM RA BR BKN016 OVC022 A2979 RMK P0003 MADISHF
HFD,2017-04-01 06:32,-72.6494,41.7367,33.10,32.00,95.67,360.00,7.00,0.03,29.79,M,2.00,M,FEW,BKN,OVC,M,500.00,1700.00,2200.00,M,RA BR,KHFD 010632Z AUTO 36007KT 2SM RA BR FEW005 BKN017 OVC022 01/00 A2979 RMK AO2 P0003 T00060000
HFD,2017-04-01 06:35,-72.6494,41.7367,M,M,M,360.00,8.00,0.03,29.79,M,2.00,M,FEW,OVC,M,M,499.00,1900.00,M,M,-RA BR,KHFD 010635Z AUTO 36008KT 2SM -RA BR FEW004 OVC019 A2979 RMK P0003 MADISHF
HFD,2017-04-01 06:40,-72.6494,41.7367,M,M,M,360.00,10.00,0.04,29.79,M,2.50,M,FEW,BKN,OVC,M,499.00,1699.00,2200.00,M,-RA BR,KHFD 010640Z AUTO 36010KT 2 1/2SM -RA BR FEW004 BKN016 OVC022 A2979 RMK P0004 MADISHF
HFD,2017-04-01 06:45,-72.6494,41.7367,M,M,M,360.00,10.00,0.04,29.79,M,3.00,M,FEW,OVC,M,M,800.00,1699.00,M,M,-RA BR,KHFD 010645Z AUTO 36010KT 3SM -RA BR FEW008 OVC016 A2979 RMK P0004 MADISHF
HFD,2017-04-01 06:49,-72.6494,41.7367,33.80,32.00,93.03,10.00,10.00,0.04,29.79,M,3.00,M,FEW,SCT,OVC,M,600.00,1500.00,2000.00,M,UP BR,KHFD 010649Z AUTO 01010KT 3SM UP BR FEW006 SCT015 OVC020 01/00 A2979 RMK AO2 RAE46UPB46 P0004
HFD,2017-04-01 06:50,-72.6494,41.7367,M,M,M,10.00,11.00,0.04,29.79,M,4.00,M,FEW,OVC,M,M,600.00,1800.00,M,M,UP BR,KHFD 010650Z AUTO 01011KT 4SM UP BR FEW006 OVC018 A2979 RMK P0004 MADISHF
HFD,2017-04-01 06:53,-72.6494,41.7367,33.10,32.00,95.67,10.00,10.00,0.04,29.78,1008.50,4.00,M,FEW,OVC,M,M,600.00,1800.00,M,M,UP BR,KHFD 010653Z AUTO 01010KT 4SM UP BR FEW006 OVC018 01/00 A2978 RMK AO2 RAE46UPB46 SLP085 P0004 T00060000
HFD,2017-04-01 06:55,-72.6494,41.7367,M,M,M,10.00,10.00,0.00,29.78,M,4.00,M,FEW,SCT,OVC,M,600.00,1600.00,2200.00,M,UP BR,KHFD 010655Z AUTO 01010KT 4SM UP BR FEW006 SCT016 OVC022 A2978 RMK P0000 MADISHF
HFD,2017-04-01 07:00,-72.6494,41.7367,M,M,M,360.00,10.00,0.00,29.78,M,5.00,M,FEW,BKN,OVC,M,499.00,1600.00,2200.00,M,UP BR,KHFD 010700Z AUTO 36010KT 5SM UP BR FEW004 BKN016 OVC022 A2978 RMK P0000 MADISHF
HFD,2017-04-01 07:05,-72.6494,41.7367,M,M,M,10.00,10.00,M,29.78,M,6.00,M,SCT,BKN,OVC,M,499.00,1800.00,2400.00,M,BR,KHFD 010705Z AUTO 01010KT 6SM BR SCT004 BKN018 OVC024 A2978 RMK MADISHF
HFD,2017-04-01 07:10,-72.6494,41.7367,M,M,M,360.00,8.00,M,29.78,M,5.00,M,SCT,BKN,OVC,M,499.00,1800.00,2400.00,M,BR,KHFD 010710Z AUTO 36008KT 5SM BR SCT004 BKN018 OVC024 A2978 RMK MADISHF
HFD,2017-04-01 07:15,-72.6494,41.7367,M,M,M,350.00,10.00,M,29.78,M,4.00,M,SCT,SCT,OVC,M,499.00,1200.00,1900.00,M,-RA BR,KHFD 010715Z AUTO 35010KT 4SM -RA BR SCT004 SCT012 OVC019 A2978 RMK MADISHF
HFD,2017-04-01 07:20,-72.6494,41.7367,M,M,M,350.00,10.00,M,29.77,M,3.00,M,SCT,OVC,M,M,499.00,1600.00,M,M,-SN BR,KHFD 010720Z AUTO 35010KT 3SM -SN BR SCT004 OVC016 A2977 RMK MADISHF
HFD,2017-04-01 07:25,-72.6494,41.7367,M,M,M,10.00,13.00,M,29.77,M,2.50,M,SCT,BKN,OVC,M,499.00,1400.00,1900.00,M,-SN BR,KHFD 010725Z AUTO 01013KT 2 1/2SM -SN BR SCT004 BKN014 OVC019 A2977 RMK MADISHF
HFD,2017-04-01 07:28,-72.6494,41.7367,33.10,32.00,95.67,20.00,10.00,0.01,29.77,M,2.00,M,SCT,OVC,M,M,500.00,1700.00,M,M,-SN BR,KHFD 010728Z AUTO 02010KT 2SM -SN BR SCT005 OVC017 01/00 A2977 RMK AO2 UPE13RAB13E18SNB18 P0001 T00060000
HFD,2017-04-01 07:30,-72.6494,41.7367,M,M,M,20.00,11.00,0.01,29.77,M,2.00,M,SCT,OVC,M,M,499.00,1699.00,M,M,-RA BR,KHFD 010730Z AUTO 02011KT 2SM -RA BR SCT004 OVC016 A2977 RMK P0001 MADISHF
HFD,2017-04-01 07:35,-72.6494,41.7367,M,M,M,10.00,12.00,0.01,29.77,M,2.50,M,SCT,OVC,M,M,499.00,1699.00,M,M,RA BR,KHFD 010735Z AUTO 01012KT 2 1/2SM RA BR SCT004 OVC016 A2977 RMK P0001 MADISHF
HFD,2017-04-01 07:40,-72.6494,41.7367,M,M,M,10.00,11.00,0.02,29.76,M,3.00,M,FEW,OVC,M,M,499.00,1699.00,M,M,-RA BR,KHFD 010740Z AUTO 01011KT 3SM -RA BR FEW004 OVC016 A2976 RMK P0002 MADISHF
HFD,2017-04-01 07:45,-72.6494,41.7367,33.10,32.00,95.67,10.00,11.00,0.02,29.76,M,3.00,M,SCT,OVC,M,M,500.00,2000.00,M,M,-RA BR,KHFD 010745Z AUTO 01011KT 3SM -RA BR SCT005 OVC020 01/00 A2976 RMK AO2 UPE13RAB13E18B29SNB18E29 P0002 T00060000
HFD,2017-04-01 07:50,-72.6494,41.7367,M,M,M,10.00,10.00,0.02,29.76,M,4.00,M,SCT,OVC,M,M,499.00,1999.00,M,M,-SN BR,KHFD 010750Z AUTO 01010KT 4SM -SN BR SCT004 OVC019 A2976 RMK P0002 MADISHF
HFD,2017-04-01 07:53,-72.6494,41.7367,33.10,32.00,95.67,10.00,11.00,0.02,29.76,1007.60,4.00,M,SCT,OVC,M,M,500.00,2000.00,M,M,-SN BR,KHFD 010753Z AUTO 01011KT 4SM -SN BR SCT005 OVC020 01/00 A2976 RMK AO2 UPE13RAB13E18B29E47SNB18E29B47 SLP076 P0002 T00060000
HFD,2017-04-01 07:55,-72.6494,41.7367,M,M,M,360.00,10.00,M,29.75,M,4.00,M,SCT,OVC,M,M,499.00,1999.00,M,M,-RA BR,KHFD 010755Z AUTO 36010KT 4SM -RA BR SCT004 OVC019 A2975 RMK MADISHF
HFD,2017-04-01 08:00,-72.6494,41.7367,M,M,M,10.00,12.00,0.00,29.75,M,5.00,17.00,FEW,OVC,M,M,499.00,1999.00,M,M,UP BR,KHFD 010800Z AUTO 01012G17KT 5SM UP BR FEW004 OVC019 A2975 RMK P0000 MADISHF
HFD,2017-04-01 08:05,-72.6494,41.7367,M,M,M,10.00,13.00,0.00,29.75,M,4.00,M,FEW,OVC,M,M,499.00,1999.00,M,M,UP BR,KHFD 010805Z AUTO 01013KT 4SM UP BR FEW004 OVC019 A2975 RMK P0000 MADISHF
HFD,2017-04-01 08:10,-72.6494,41.7367,M,M,M,M,M,0.01,29.75,M,3.50,M,SCT,OVC,M,M,499.00,1999.00,M,M,-RA BR,KHFD 010810Z AUTO /////KT 3SM -RA BR SCT004 OVC019 A2975 RMK P0001 MADISHF
HFD,2017-04-01 08:15,-72.6494,41.7367,M,M,M,10.00,13.00,0.01,29.75,M,4.00,M,SCT,OVC,M,M,600.00,1900.00,M,M,-RA BR,KHFD 010815Z AUTO 01013KT 4SM -RA BR SCT006 OVC019 A2975 RMK P0001 MADISHF
HFD,2017-04-01 08:20,-72.6494,41.7367,M,M,M,10.00,9.00,0.01,29.74,M,4.00,M,SCT,OVC,M,M,600.00,1699.00,M,M,UP BR,KHFD 010820Z AUTO 01009KT 4SM UP BR SCT006 OVC016 A2974 RMK P0001 MADISHF
HFD,2017-04-01 08:25,-72.6494,41.7367,M,M,M,10.00,12.00,0.01,29.74,M,5.00,M,BKN,OVC,M,M,600.00,1699.00,M,M,UP BR,KHFD 010825Z AUTO 01012KT 5SM UP BR BKN006 OVC016 A2974 RMK P0001 MADISHF
HFD,2017-04-01 08:27,-72.6494,41.7367,34.00,32.00,92.29,10.00,12.00,0.01,29.74,M,5.00,M,BKN,OVC,M,M,600.00,1700.00,M,M,UP BR,KHFD 010827Z AUTO 01012KT 5SM UP BR BKN006 OVC017 01/00 A2974 RMK AO2 RAB0754E19UPB00SNE0754 P0001 T00110000
HFD,2017-04-01 08:30,-72.6494,41.7367,M,M,M,10.00,13.00,0.01,29.74,M,5.00,M,BKN,OVC,M,M,600.00,1699.00,M,M,UP BR,KHFD 010830Z AUTO 01013KT 5SM UP BR BKN006 OVC016 A2974 RMK P0001 MADISHF
HFD,2017-04-01 08:35,-72.6494,41.7367,M,M,M,10.00,12.00,0.01,29.74,M,5.00,M,BKN,OVC,M,M,600.00,1699.00,M,M,BR,KHFD 010835Z AUTO 01012KT 5SM BR BKN006 OVC016 A2974 RMK P0001 MADISHF
HFD,2017-04-01 08:40,-72.6494,41.7367,M,M,M,10.00,11.00,0.01,29.74,M,5.00,M,BKN,OVC,M,M,600.00,1699.00,M,M,BR,KHFD 010840Z AUTO 01011KT 5SM BR BKN006 OVC016 A2974 RMK P0001 MADISHF
HFD,2017-04-01 08:45,-72.6494,41.7367,M,M,M,10.00,12.00,0.01,29.74,M,5.00,M,SCT,OVC,M,M,600.00,1500.00,M,M,BR,KHFD 010845Z AUTO 01012KT 5SM BR SCT006 OVC015 A2974 RMK P0001 MADISHF
HFD,2017-04-01 08:50,-72.6494,41.7367,33.80,32.00,93.03,360.00,10.00,0.01,29.74,M,4.00,M,SCT,OVC,M,M,600.00,1500.00,M,M,BR,KHFD 010850Z AUTO 36010KT 4SM BR SCT006 OVC015 01/00 A2974 RMK AO2 RAB0754E19UPB00E33SNE0754 P0001
HFD,2017-04-01 08:53,-72.6494,41.7367,34.00,33.10,96.46,10.00,12.00,0.01,29.74,1007.10,4.00,M,SCT,OVC,M,M,600.00,1500.00,M,M,UP BR,KHFD 010853Z AUTO 01012KT 4SM UP BR SCT006 OVC015 01/01 A2974 RMK AO2 RAB0754E19UPB00E33B52SNE0754 SLP071 P0001 60007 T00110006 55014
HFD,2017-04-01 08:55,-72.6494,41.7367,M,M,M,360.00,11.00,0.00,29.74,M,4.00,M,SCT,OVC,M,M,600.00,1500.00,M,M,UP BR,KHFD 010855Z AUTO 36011KT 4SM UP BR SCT006 OVC015 A2974 RMK P0000 MADISHF
HFD,2017-04-01 09:00,-72.6494,41.7367,M,M,M,10.00,13.00,0.00,29.74,M,3.00,M,BKN,OVC,M,M,600.00,1600.00,M,M,UP BR,KHFD 010900Z AUTO 01013KT 3SM UP BR BKN006 OVC016 A2974 RMK P0000 MADISHF
HFD,2017-04-01 09:02,-72.6494,41.7367,34.00,32.00,92.29,10.00,12.00,0.00,29.74,M,2.50,M,BKN,OVC,M,M,600.00,1600.00,M,M,-SN BR,KHFD 010902Z AUTO 01012KT 2 1/2SM -SN BR BKN006 OVC016 01/00 A2974 RMK AO2 UPE01SNB01 P0000 T00110000
HFD,2017-04-01 09:05,-72.6494,41.7367,M,M,M,10.00,12.00,M,29.74,M,2.50,M,BKN,OVC,M,M,600.00,1600.00,M,M,-SN BR,KHFD 010905Z AUTO 01012KT 2 1/2SM -SN BR BKN006 OVC016 A2974 RMK MADISHF
HFD,2017-04-01 09:10,-72.6494,41.7367,M,M,M,360.00,12.00,M,29.74,M,2.00,M,BKN,OVC,M,M,600.00,1600.00,M,M,-SN BR,KHFD 010910Z AUTO 36012KT 2SM -SN BR BKN006 OVC016 A2974 RMK MADISHF
HFD,2017-04-01 09:15,-72.6494,41.7367,M,M,M,M,M,M,29.74,M,2.00,M,BKN,OVC,M,M,600.00,1600.00,M,M,-SN BR,KHFD 010915Z AUTO /////KT 2SM -SN BR BKN006 OVC016 A2974 RMK MADISHF
HFD,2017-04-01 09:20,-72.6494,41.7367,M,M,M,360.00,12.00,M,29.73,M,2.00,M,BKN,OVC,M,M,600.00,1800.00,M,M,-SN BR,KHFD 010920Z AUTO 36012KT 2SM -SN BR BKN006 OVC018 A2973 RMK MADISHF
HFD,2017-04-01 09:25,-72.6494,41.7367,M,M,M,10.00,13.00,M,29.74,M,2.00,M,BKN,OVC,M,M,600.00,2100.00,M,M,-SN BR,KHFD 010925Z AUTO 01013KT 2SM -SN BR BKN006 OVC021 A2974 RMK MADISHF
HFD,2017-04-01 09:30,-72.6494,41.7367,M,M,M,10.00,11.00,0.01,29.74,M,2.00,M,BKN,OVC,M,M,600.00,2100.00,M,M,-SN BR,KHFD 010930Z AUTO 01011KT 2SM -SN BR BKN006 OVC021 A2974 RMK P0001 MADISHF
HFD,2017-04-01 09:35,-72.6494,41.7367,M,M,M,M,M,0.01,29.74,M,2.00,M,BKN,OVC,M,M,600.00,2100.00,M,M,-SN BR,KHFD 010935Z AUTO /////KT 2SM -SN BR BKN006 OVC021 A2974 RMK P0001 MADISHF
HFD,2017-04-01 09:40,-72.6494,41.7367,M,M,M,360.00,12.00,0.01,29.74,M,2.00,M,BKN,OVC,M,M,600.00,2100.00,M,M,-SN BR,KHFD 010940Z AUTO 36012KT 2SM -SN BR BKN006 OVC021 A2974 RMK P0001 MADISHF
HFD,2017-04-01 09:45,-72.6494,41.7367,M,M,M,360.00,10.00,0.01,29.74,M,2.00,M,BKN,OVC,M,M,600.00,2100.00,M,M,-SN BR,KHFD 010945Z AUTO 36010KT 2SM -SN BR BKN006 OVC021 A2974 RMK P0001 MADISHF
HFD,2017-04-01 09:50,-72.6494,41.7367,M,M,M,360.00,12.00,0.01,29.74,M,2.50,M,BKN,OVC,M,M,600.00,2100.00,M,M,-SN BR,KHFD 010950Z AUTO 36012KT 2 1/2SM -SN BR BKN006 OVC021 A2974 RMK P0001 MADISHF
HFD,2017-04-01 09:53,-72.6494,41.7367,34.00,32.00,92.29,10.00,13.00,0.01,29.74,1007.10,2.50,M,BKN,OVC,M,M,600.00,2100.00,M,M,-SN BR,KHFD 010953Z 01013KT 2 1/2SM -SN BR BKN006 OVC021 01/00 A2974 RMK AO2 UPE01SNB01 SLP071 P0001 T00110000
HFD,2017-04-01 09:55,-72.6494,41.7367,M,M,M,360.00,12.00,M,29.74,M,3.00,M,BKN,OVC,M,M,600.00,2100.00,M,M,-SN BR,KHFD 010955Z AUTO 36012KT 3SM -SN BR BKN006 OVC021 A2974 RMK MADISHF
HFD,2017-04-01 10:00,-72.6494,41.7367,M,M,M,10.00,13.00,M,29.74,M,2.50,M,BKN,OVC,M,M,600.00,2300.00,M,M,-SN BR,KHFD 011000Z AUTO 01013KT 2 1/2SM -SN BR BKN006 OVC023 A2974 RMK MADISHF
HFD,2017-04-01 10:05,-72.6494,41.7367,M,M,M,360.00,9.00,M,29.75,M,2.50,14.00,BKN,OVC,M,M,600.00,2300.00,M,M,-SN BR,KHFD 011005Z AUTO 36009G14KT 2 1/2SM -SN BR BKN006 OVC023 A2975 RMK MADISHF
HFD,2017-04-01 10:10,-72.6494,41.7367,M,M,M,360.00,12.00,M,29.75,M,2.50,M,BKN,OVC,M,M,600.00,2300.00,M,M,-SN BR,KHFD 011010Z AUTO 36012KT 2 1/2SM -SN BR BKN006 OVC023 A2975 RMK MADISHF
HFD,2017-04-01 10:15,-72.6494,41.7367,M,M,M,360.00,13.00,M,29.74,M,2.50,M,BKN,OVC,M,M,600.00,2300.00,M,M,-SN BR,KHFD 011015Z AUTO 36013KT 2 1/2SM -SN BR BKN006 OVC023 A2974 RMK MADISHF
HFD,2017-04-01 10:20,-72.6494,41.7367,M,M,M,360.00,12.00,M,29.74,M,2.50,18.00,BKN,OVC,M,M,600.00,2300.00,M,M,-SN BR,KHFD 011020Z AUTO 36012G18KT 2 1/2SM -SN BR BKN006 OVC023 A2974 RMK MADISHF
HFD,2017-04-01 10:25,-72.6494,41.7367,M,M,M,360.00,12.00,M,29.74,M,3.00,M,BKN,BKN,OVC,M,600.00,1300.00,2200.00,M,-SN BR,KHFD 011025Z AUTO 36012KT 3SM -SN BR BKN006 BKN013 OVC022 A2974 RMK MADISHF
HFD,2017-04-01 10:30,-72.6494,41.7367,M,M,M,360.00,13.00,M,29.75,M,2.50,M,BKN,BKN,OVC,M,600.00,1300.00,2200.00,M,-SN BR,KHFD 011030Z AUTO 36013KT 2 1/2SM -SN BR BKN006 BKN013 OVC022 A2975 RMK MADISHF
HFD,2017-04-01 10:35,-72.6494,41.7367,M,M,M,360.00,14.00,0.01,29.75,M,2.50,19.00,BKN,BKN,OVC,M,600.00,1400.00,2200.00,M,-SN BR,KHFD 011035Z AUTO 36014G19KT 2 1/2SM -SN BR BKN006 BKN014 OVC022 A2975 RMK P0001 MADISHF
HFD,2017-04-01 10:40,-72.6494,41.7367,M,M,M,360.00,14.00,0.01,29.75,M,2.50,M,BKN,BKN,OVC,M,600.00,1400.00,1999.00,M,-SN BR,KHFD 011040Z AUTO 36014KT 2 1/2SM -SN BR BKN006 BKN014 OVC019 A2975 RMK P0001 MADISHF
HFD,2017-04-01 10:45,-72.6494,41.7367,M,M,M,360.00,12.00,0.01,29.75,M,2.00,17.00,BKN,BKN,OVC,M,600.00,1400.00,1999.00,M,-SN BR,KHFD 011045Z AUTO 36012G17KT 2SM -SN BR BKN006 BKN014 OVC019 A2975 RMK P0001 MADISHF
HFD,2017-04-01 10:50,-72.6494,41.7367,M,M,M,M,M,0.01,29.75,M,2.00,M,BKN,BKN,OVC,M,600.00,1400.00,1999.00,M,-SN BR,KHFD 011050Z AUTO /////KT 2SM -SN BR BKN006 BKN014 OVC019 A2975 RMK P0001 MADISHF
HFD,2017-04-01 10:53,-72.6494,41.7367,34.00,33.10,96.46,10.00,13.00,0.01,29.75,1007.20,2.00,21.00,BKN,OVC,M,M,600.00,1700.00,M,M,-SN BR,KHFD 011053Z 01013G21KT 2SM -SN BR BKN006 OVC017 01/01 A2975 RMK AO2 UPB22E23SNE22B23 SLP072 P0001 T00110006
HFD,2017-04-01 10:55,-72.6494,41.7367,M,M,M,360.00,11.00,M,29.75,M,2.00,16.00,BKN,OVC,M,M,600.00,1699.00,M,M,-SN BR,KHFD 011055Z AUTO 36011G16KT 2SM -SN BR BKN006 OVC016 A2975 RMK MADISHF
HFD,2017-04-01 11:00,-72.6494,41.7367,M,M,M,360.00,12.00,M,29.75,M,1.75,19.00,BKN,OVC,M,M,600.00,1699.00,M,M,-SN BR,KHFD 011100Z AUTO 36012G19KT 2SM -SN BR BKN006 OVC016 A2975 RMK MADISHF
HFD,2017-04-01 11:03,-72.6494,41.7367,34.00,33.10,96.46,10.00,10.00,0.00,29.75,M,1.50,19.00,BKN,OVC,M,M,600.00,1800.00,M,M,-SN BR,KHFD 011103Z 01010G19KT 1 1/2SM -SN BR BKN006 OVC018 01/01 A2975 RMK AO2 VIS 1 1/4V2 P0000 T00110006
HFD,2017-04-01 11:05,-72.6494,41.7367,M,M,M,360.00,12.00,M,29.75,M,1.50,18.00,BKN,OVC,M,M,600.00,1800.00,M,M,-SN BR,KHFD 011105Z AUTO 36012G18KT 1 1/2SM -SN BR BKN006 OVC018 A2975 RMK MADISHF
HFD,2017-04-01 11:10,-72.6494,41.7367,M,M,M,360.00,12.00,M,29.75,M,1.75,M,BKN,OVC,M,M,600.00,1800.00,M,M,-SN BR,KHFD 011110Z AUTO 36012KT 2SM -SN BR BKN006 OVC018 A2975 RMK MADISHF
HFD,2017-04-01 11:15,-72.6494,41.7367,M,M,M,360.00,12.00,0.01,29.75,M,1.75,M,OVC,M,M,M,600.00,M,M,M,-SN BR,KHFD 011115Z AUTO 36012KT 2SM -SN BR OVC006 A2975 RMK P0001 MADISHF
HFD,2017-04-01 11:20,-72.6494,41.7367,M,M,M,360.00,10.00,0.01,29.75,M,1.75,M,OVC,M,M,M,600.00,M,M,M,-SN BR,KHFD 011120Z AUTO 36010KT 2SM -SN BR OVC006 A2975 RMK P0001 MADISHF
HFD,2017-04-01 11:25,-72.6494,41.7367,M,M,M,360.00,13.00,0.01,29.76,M,2.00,M,OVC,M,M,M,600.00,M,M,M,-SN BR,KHFD 011125Z AUTO 36013KT 2SM -SN BR OVC006 A2976 RMK P0001 MADISHF
HFD,2017-04-01 11:30,-72.6494,41.7367,34.00,33.10,96.46,360.00,12.00,0.01,29.76,M,2.00,19.00,OVC,M,M,M,600.00,M,M,M,UP BR,KHFD 011130Z 36012G19KT 2SM UP BR OVC006 01/01 A2976 RMK AO2 UPB29SNE29 P0001 T00110006
HFD,2017-04-01 11:35,-72.6494,41.7367,M,M,M,360.00,12.00,0.01,29.76,M,2.00,19.00,OVC,M,M,M,600.00,M,M,M,UP BR,KHFD 011135Z AUTO 36012G19KT 2SM UP BR OVC006 A2976 RMK P0001 MADISHF
HFD,2017-04-01 11:40,-72.6494,41.7367,M,M,M,M,M,0.01,29.76,M,2.50,M,OVC,M,M,M,600.00,M,M,M,UP BR,KHFD 011140Z AUTO /////KT 2 1/2SM UP BR OVC006 A2976 RMK P0001 MADISHF
HFD,2017-04-01 11:45,-72.6494,41.7367,M,M,M,360.00,13.00,0.01,29.76,M,2.50,M,OVC,M,M,M,700.00,M,M,M,UP BR,KHFD 011145Z AUTO 36013KT 2 1/2SM UP BR OVC007 A2976 RMK P0001 MADISHF
HFD,2017-04-01 11:50,-72.6494,41.7367,M,M,M,M,M,0.01,29.76,M,2.50,M,OVC,M,M,M,700.00,M,M,M,UP BR,KHFD 011150Z AUTO /////KT 2 1/2SM UP BR OVC007 A2976 RMK P0001 MADISHF
HFD,2017-04-01 11:53,-72.6494,41.7367,35.10,33.10,92.32,360.00,14.00,0.01,29.76,1007.80,2.50,20.00,OVC,M,M,M,700.00,M,M,M,UP BR,KHFD 011153Z 36014G20KT 2 1/2SM UP BR OVC007 02/01 A2976 RMK AO2 UPB29SNE29B32E34 SLP078 P0001 60010 70105 T00170006 10017 20006 53007
HFD,2017-04-01 11:55,-72.6494,41.7367,M,M,M,360.00,14.00,0.00,29.76,M,2.50,21.00,OVC,M,M,M,700.00,M,M,M,UP BR,KHFD 011155Z AUTO 36014G21KT 2 1/2SM UP BR OVC007 A2976 RMK P0000 MADISHF
HFD,2017-04-01 12:00,-72.6494,41.7367,M,M,M,360.00,13.00,0.00,29.76,M,3.00,M,OVC,M,M,M,700.00,M,M,M,UP BR,KHFD 011200Z AUTO 36013KT 3SM UP BR OVC007 A2976 RMK P0000 MADISHF
HFD,2017-04-01 12:05,-72.6494,41.7367,M,M,M,360.00,13.00,0.00,29.76,M,3.00,M,OVC,M,M,M,800.00,M,M,M,UP BR,KHFD 011205Z AUTO 36013KT 3SM UP BR OVC008 A2976 RMK P0000 CIG 6V10  MADISHF
HFD,2017-04-01 12:06,-72.6494,41.7367,35.10,33.10,92.32,360.00,12.00,0.00,29.76,M,3.00,20.00,OVC,M,M,M,800.00,M,M,M,UP BR,KHFD 011206Z 36012G20KT 3SM UP BR OVC008 02/01 A2976 RMK AO2 P0000 T00170006
HFD,2017-04-01 12:10,-72.6494,41.7367,M,M,M,360.00,10.00,0.00,29.77,M,3.50,15.00,OVC,M,M,M,800.00,M,M,M,UP BR,KHFD 011210Z AUTO 36010G15KT 3SM UP BR OVC008 A2977 RMK P0000 MADISHF
HFD,2017-04-01 12:15,-72.6494,41.7367,M,M,M,M,M,0.00,29.77,M,3.00,M,OVC,M,M,M,800.00,M,M,M,UP BR,KHFD 011215Z AUTO /////KT 3SM UP BR OVC008 A2977 RMK P0000 MADISHF
HFD,2017-04-01 12:20,-72.6494,41.7367,M,M,M,M,M,0.00,29.77,M,3.00,18.00,BKN,OVC,M,M,800.00,1300.00,M,M,UP BR,KHFD 011220Z AUTO /////G18KT 3SM UP BR BKN008 OVC013 A2977 RMK P0000 MADISHF
HFD,2017-04-01 12:25,-72.6494,41.7367,M,M,M,360.00,13.00,0.00,29.77,M,3.00,M,BKN,OVC,M,M,800.00,1300.00,M,M,UP BR,KHFD 011225Z AUTO 36013KT 3SM UP BR BKN008 OVC013 A2977 RMK P0000 MADISHF
HFD,2017-04-01 12:30,-72.6494,41.7367,M,M,M,360.00,12.00,0.00,29.77,M,3.00,17.00,BKN,OVC,M,M,800.00,1300.00,M,M,UP BR,KHFD 011230Z AUTO 36012G17KT 3SM UP BR BKN008 OVC013 A2977 RMK P0000 MADISHF
HFD,2017-04-01 12:35,-72.6494,41.7367,M,M,M,360.00,13.00,0.00,29.77,M,2.50,18.00,BKN,OVC,M,M,800.00,1500.00,M,M,UP BR,KHFD 011235Z AUTO 36013G18KT 2 1/2SM UP BR BKN008 OVC015 A2977 RMK P0000 MADISHF
HFD,2017-04-01 12:38,-72.6494,41.7367,35.10,33.10,92.32,360.00,12.00,0.00,29.77,M,2.50,18.00,OVC,M,M,M,800.00,M,M,M,UP BR,KHFD 011238Z 36012G18KT 2 1/2SM UP BR OVC008 02/01 A2977 RMK AO2 P0000 T00170006
HFD,2017-04-01 12:40,-72.6494,41.7367,M,M,M,360.00,14.00,0.00,29.77,M,2.50,20.00,OVC,M,M,M,800.00,M,M,M,UP BR,KHFD 011240Z AUTO 36014G20KT 2 1/2SM UP BR OVC008 A2977 RMK P0000 CIG 6V11  MADISHF
HFD,2017-04-01 12:45,-72.6494,41.7367,M,M,M,360.00,9.00,0.00,29.77,M,2.50,18.00,OVC,M,M,M,800.00,M,M,M,UP BR,KHFD 011245Z AUTO 36009G18KT 2 1/2SM UP BR OVC008 A2977 RMK P0000 CIG 6V13  MADISHF
HFD,2017-04-01 12:50,-72.6494,41.7367,M,M,M,10.00,16.00,0.00,29.77,M,2.00,M,OVC,M,M,M,800.00,M,M,M,UP BR,KHFD 011250Z AUTO 01016KT 2SM UP BR OVC008 A2977 RMK P0000 CIG 6V11  MADISHF
HFD,2017-04-01 12:53,-72.6494,41.7367,34.00,32.00,92.29,360.00,14.00,0.00,29.77,1008.10,2.00,20.00,OVC,M,M,M,800.00,M,M,M,UP BR,KHFD 011253Z 36014G20KT 2SM UP BR OVC008 01/00 A2977 RMK AO2 CIG 006V011 SLP081 P0000 T00110000
HFD,2017-04-01 12:55,-72.6494,41.7367,M,M,M,360.00,10.00,0.00,29.77,M,2.00,M,OVC,M,M,M,800.00,M,M,M,UP BR,KHFD 011255Z AUTO 36010KT 2SM UP BR OVC008 A2977 RMK P0000 CIG 6V12  MADISHF
HFD,2017-04-01 13:00,-72.6494,41.7367,M,M,M,360.00,12.00,M,29.77,M,1.75,20.00,OVC,M,M,M,800.00,M,M,M,-SN BR,KHFD 011300Z AUTO 36012G20KT 2SM -SN BR OVC008 A2977 RMK CIG 6V12  MADISHF
HFD,2017-04-01 13:02,-72.6494,41.7367,34.00,33.10,96.46,360.00,16.00,0.00,29.77,M,1.50,20.00,OVC,M,M,M,800.00,M,M,M,-SN BR,KHFD 011302Z 36016G20KT 1 1/2SM -SN BR OVC008 01/01 A2977 RMK AO2 UPE1258SNB1258 CIG 006V012 P0000 T00110006
HFD,2017-04-01 13:05,-72.6494,41.7367,M,M,M,M,M,M,29.77,M,1.50,M,BKN,OVC,M,M,800.00,1200.00,M,M,-SN BR,KHFD 011305Z AUTO /////KT 1 1/2SM -SN BR BKN008 OVC012 A2977 RMK CIG 6V10  MADISHF
HFD,2017-04-01 13:10,-72.6494,41.7367,M,M,M,360.00,13.00,M,29.77,M,1.50,19.00,OVC,M,M,M,800.00,M,M,M,-SN BR,KHFD 011310Z AUTO 36013G19KT 1 1/2SM -SN BR OVC008 A2977 RMK CIG 6V12  MADISHF
HFD,2017-04-01 13:15,-72.6494,41.7367,M,M,M,10.00,14.00,0.00,29.78,M,1.25,M,OVC,M,M,M,800.00,M,M,M,UP BR,KHFD 011315Z AUTO 01014KT 1 1/2SM UP BR OVC008 A2978 RMK P0000 CIG 6V12  MADISHF
HFD,2017-04-01 13:20,-72.6494,41.7367,M,M,M,360.00,14.00,0.00,29.78,M,1.50,M,BKN,OVC,M,M,800.00,1300.00,M,M,UP BR,KHFD 011320Z AUTO 36014KT 1 1/2SM UP BR BKN008 OVC013 A2978 RMK P0000 CIG 6V10  MADISHF
HFD,2017-04-01 13:25,-72.6494,41.7367,M,M,M,360.00,11.00,0.00,29.78,M,1.50,M,BKN,OVC,M,M,800.00,1300.00,M,M,UP BR,KHFD 011325Z AUTO 36011KT 1 1/2SM UP BR BKN008 OVC013 A2978 RMK P0000 CIG 6V10  MADISHF
HFD,2017-04-01 13:30,-72.6494,41.7367,M,M,M,10.00,13.00,0.00,29.78,M,1.75,18.00,OVC,M,M,M,800.00,M,M,M,UP BR,KHFD 011330Z AUTO 01013G18KT 2SM UP BR OVC008 A2978 RMK P0000 CIG 6V12  MADISHF
HFD,2017-04-01 13:35,-72.6494,41.7367,M,M,M,10.00,14.00,0.00,29.78,M,1.75,M,OVC,M,M,M,800.00,M,M,M,UP BR,KHFD 011335Z AUTO 01014KT 2SM UP BR OVC008 A2978 RMK P0000 CIG 6V13  MADISHF
HFD,2017-04-01 13:40,-72.6494,41.7367,M,M,M,M,M,0.00,29.78,M,2.00,M,OVC,M,M,M,900.00,M,M,M,UP BR,KHFD 011340Z AUTO /////KT 2SM UP BR OVC009 A2978 RMK P0000 CIG 6V12  MADISHF
HFD,2017-04-01 13:45,-72.6494,41.7367,35.10,33.10,92.32,360.00,11.00,0.00,29.78,M,2.00,22.00,OVC,M,M,M,900.00,M,M,M,UP BR,KHFD 011345Z 36011G22KT 2SM UP BR OVC009 02/01 A2978 RMK AO2 UPE1258B15SNB1258E15 CIG 006V013 P0000 T00170006
HFD,2017-04-01 13:50,-72.6494,41.7367,M,M,M,10.00,16.00,0.00,29.78,M,2.50,M,OVC,M,M,M,900.00,M,M,M,UP BR,KHFD 011350Z AUTO 01016KT 2 1/2SM UP BR OVC009 A2978 RMK P0000 CIG 6V13  MADISHF
HFD,2017-04-01 13:53,-72.6494,41.7367,35.10,33.10,92.32,10.00,16.00,0.00,29.78,1008.50,2.50,22.00,OVC,M,M,M,900.00,M,M,M,UP BR,KHFD 011353Z 01016G22KT 2 1/2SM UP BR OVC009 02/01 A2978 RMK AO2 UPE1258B15SNB1258E15 CIG 006V013 SLP085 P0000 T00170006
HFD,2017-04-01 13:55,-72.6494,41.7367,M,M,M,M,M,0.00,29.78,M,2.50,M,OVC,M,M,M,900.00,M,M,M,UP BR,KHFD 011355Z AUTO /////KT 2 1/2SM UP BR OVC009 A2978 RMK P0000 CIG 6V13  MADISHF
HFD,2017-04-01 14:00,-72.6494,41.7367,M,M,M,M,M,0.00,29.78,M,2.50,M,OVC,M,M,M,900.00,M,M,M,UP BR,KHFD 011400Z AUTO /////KT 2 1/2SM UP BR OVC009 A2978 RMK P0000 CIG 6V13  MADISHF
HFD,2017-04-01 14:05,-72.6494,41.7367,M,M,M,M,M,0.00,29.78,M,2.50,M,OVC,M,M,M,900.00,M,M,M,UP BR,KHFD 011405Z AUTO /////KT 2 1/2SM UP BR OVC009 A2978 RMK P0000 CIG 6V14  MADISHF
HFD,2017-04-01 14:10,-72.6494,41.7367,M,M,M,10.00,13.00,0.00,29.79,M,3.00,19.00,BKN,OVC,M,M,900.00,1600.00,M,M,UP BR,KHFD 011410Z AUTO 01013G19KT 3SM UP BR BKN009 OVC016 A2979 RMK P0000 CIG 6V12  MADISHF
HFD,2017-04-01 14:14,-72.6494,41.7367,35.10,33.10,92.32,10.00,17.00,0.00,29.79,M,3.00,23.00,OVC,M,M,M,900.00,M,M,M,UP BR,KHFD 011414Z 01017G23KT 3SM UP BR OVC009 02/01 A2979 RMK AO2 CIG 006V014 P0000 T00170006
HFD,2017-04-01 14:15,-72.6494,41.7367,M,M,M,M,M,0.00,29.79,M,3.00,M,OVC,M,M,M,900.00,M,M,M,UP BR,KHFD 011415Z AUTO /////KT 3SM UP BR OVC009 A2979 RMK P0000 CIG 6V14  MADISHF
HFD,2017-04-01 14:20,-72.6494,41.7367,M,M,M,M,M,M,29.79,M,3.50,M,OVC,M,M,M,999.00,M,M,M,-SN BR,KHFD 011420Z AUTO /////KT 3SM -SN BR OVC009 A2979 RMK CIG 6V14  MADISHF
HFD,2017-04-01 14:25,-72.6494,41.7367,M,M,M,M,M,0.01,29.80,M,3.00,M,OVC,M,M,M,900.00,M,M,M,-SN BR,KHFD 011425Z AUTO /////KT 3SM -SN BR OVC009 A2980 RMK P0001 MADISHF
HFD,2017-04-01 14:30,-72.6494,41.7367,M,M,M,M,M,0.01,29.79,M,3.00,M,OVC,M,M,M,900.00,M,M,M,-SN BR,KHFD 011430Z AUTO /////KT 3SM -SN BR OVC009 A2979 RMK P0001 MADISHF
HFD,2017-04-01 14:35,-72.6494,41.7367,M,M,M,M,M,0.01,29.80,M,3.50,M,OVC,M,M,M,900.00,M,M,M,UP BR,KHFD 011435Z AUTO /////KT 3SM UP BR OVC009 A2980 RMK P0001 MADISHF
HFD,2017-04-01 14:40,-72.6494,41.7367,M,M,M,10.00,14.00,0.01,29.80,M,4.00,M,OVC,M,M,M,900.00,M,M,M,UP BR,KHFD 011440Z AUTO 01014KT 4SM UP BR OVC009 A2980 RMK P0001 MADISHF
HFD,2017-04-01 14:45,-72.6494,41.7367,M,M,M,M,M,0.01,29.80,M,4.00,21.00,OVC,M,M,M,900.00,M,M,M,UP BR,KHFD 011445Z AUTO /////G21KT 4SM UP BR OVC009 A2980 RMK P0001 MADISHF
HFD,2017-04-01 14:50,-72.6494,41.7367,M,M,M,M,M,0.01,29.80,M,4.00,M,OVC,M,M,M,1200.00,M,M,M,UP BR,KHFD 011450Z AUTO /////KT 4SM UP BR OVC012 A2980 RMK P0001 MADISHF
HFD,2017-04-01 14:53,-72.6494,41.7367,36.00,33.10,89.09,360.00,15.00,0.01,29.80,1009.00,4.00,27.00,OVC,M,M,M,1200.00,M,M,M,UP BR,KHFD 011453Z 36015G27KT 4SM UP BR OVC012 02/01 A2980 RMK AO2 PK WND 01027/1447 SNB17E31 SLP090 P0001 60001 T00220006 53012
HFD,2017-04-01 14:55,-72.6494,41.7367,M,M,M,M,M,0.00,29.80,M,4.00,M,OVC,M,M,M,1200.00,M,M,M,UP BR,KHFD 011455Z AUTO /////KT 4SM UP BR OVC012 A2980 RMK P0000 MADISHF
HFD,2017-04-01 15:00,-72.6494,41.7367,M,M,M,M,M,M,29.80,M,4.00,M,BKN,OVC,M,M,999.00,1500.00,M,M,-SN BR,KHFD 011500Z AUTO /////KT 4SM -SN BR BKN009 OVC015 A2980 RMK CIG 8V12  MADISHF
HFD,2017-04-01 15:05,-72.6494,41.7367,M,M,M,M,M,M,29.80,M,3.50,M,BKN,OVC,M,M,999.00,1699.00,M,M,-SN BR,KHFD 011505Z AUTO /////KT 3SM -SN BR BKN009 OVC016 A2980 RMK MADISHF
HFD,2017-04-01 15:10,-72.6494,41.7367,M,M,M,10.00,16.00,M,29.80,M,3.50,22.00,OVC,M,M,M,1200.00,M,M,M,-SN BR,KHFD 011510Z AUTO 01016G22KT 3SM -SN BR OVC012 A2980 RMK MADISHF
HFD,2017-04-01 15:15,-72.6494,41.7367,M,M,M,M,M,M,29.80,M,4.00,M,BKN,OVC,M,M,999.00,1699.00,M,M,-SN BR,KHFD 011515Z AUTO /////KT 4SM -SN BR BKN009 OVC016 A2980 RMK CIG 8V12  MADISHF
HFD,2017-04-01 15:20,-72.6494,41.7367,M,M,M,360.00,13.00,0.01,29.81,M,4.00,18.00,BKN,OVC,M,M,1200.00,1600.00,M,M,-SN BR,KHFD 011520Z AUTO 36013G18KT 4SM -SN BR BKN012 OVC016 A2981 RMK P0001 MADISHF
HFD,2017-04-01 15:25,-72.6494,41.7367,M,M,M,360.00,11.00,0.01,29.81,M,4.00,M,OVC,M,M,M,1200.00,M,M,M,-SN BR,KHFD 011525Z AUTO 36011KT 4SM -SN BR OVC012 A2981 RMK P0001 MADISHF
HFD,2017-04-01 15:30,-72.6494,41.7367,M,M,M,360.00,12.00,0.01,29.81,M,4.00,M,OVC,M,M,M,1200.00,M,M,M,-SN BR,KHFD 011530Z AUTO 36012KT 4SM -SN BR OVC012 A2981 RMK P0001 MADISHF
HFD,2017-04-01 15:35,-72.6494,41.7367,M,M,M,360.00,13.00,0.01,29.81,M,4.00,M,OVC,M,M,M,1200.00,M,M,M,-SN BR,KHFD 011535Z AUTO 36013KT 4SM -SN BR OVC012 A2981 RMK P0001 MADISHF
HFD,2017-04-01 15:40,-72.6494,41.7367,M,M,M,350.00,14.00,0.01,29.81,M,4.00,M,OVC,M,M,M,1100.00,M,M,M,-SN BR,KHFD 011540Z AUTO 35014KT 4SM -SN BR OVC011 A2981 RMK P0001 MADISHF
HFD,2017-04-01 15:45,-72.6494,41.7367,M,M,M,360.00,14.00,0.02,29.81,M,4.00,19.00,BKN,OVC,M,M,1100.00,1600.00,M,M,-SN BR,KHFD 011545Z AUTO 36014G19KT 4SM -SN BR BKN011 OVC016 A2981 RMK P0002 MADISHF
HFD,2017-04-01 15:50,-72.6494,41.7367,M,M,M,360.00,11.00,0.02,29.81,M,4.00,M,OVC,M,M,M,1100.00,M,M,M,-SN BR,KHFD 011550Z AUTO 36011KT 4SM -SN BR OVC011 A2981 RMK P0002 MADISHF
HFD,2017-04-01 15:53,-72.6494,41.7367,36.00,33.10,89.09,360.00,14.00,0.02,29.81,1009.50,3.00,22.00,OVC,M,M,M,900.00,M,M,M,-SN BR,KHFD 011553Z 36014G22KT 3SM -SN BR OVC009 02/01 A2981 RMK AO2 UPE1458SNB1458 SLP095 P0002 T00220006
HFD,2017-04-01 15:55,-72.6494,41.7367,M,M,M,360.00,16.00,M,29.81,M,3.50,M,OVC,M,M,M,1100.00,M,M,M,-SN BR,KHFD 011555Z AUTO 36016KT 3SM -SN BR OVC011 A2981 RMK MADISHF
HFD,2017-04-01 16:00,-72.6494,41.7367,M,M,M,360.00,12.00,M,29.81,M,3.00,18.00,OVC,M,M,M,900.00,M,M,M,-SN BR,KHFD 011600Z AUTO 36012G18KT 3SM -SN BR OVC009 A2981 RMK MADISHF
HFD,2017-04-01 16:05,-72.6494,41.7367,M,M,M,360.00,12.00,M,29.81,M,3.50,19.00,OVC,M,M,M,900.00,M,M,M,-SN BR,KHFD 011605Z AUTO 36012G19KT 3SM -SN BR OVC009 A2981 RMK MADISHF
HFD,2017-04-01 16:10,-72.6494,41.7367,M,M,M,350.00,13.00,0.01,29.81,M,4.00,M,OVC,M,M,M,900.00,M,M,M,-SN BR,KHFD 011610Z AUTO 35013KT 4SM -SN BR OVC009 A2981 RMK P0001 MADISHF
HFD,2017-04-01 16:15,-72.6494,41.7367,M,M,M,360.00,13.00,0.01,29.81,M,4.00,M,OVC,M,M,M,900.00,M,M,M,-SN BR,KHFD 011615Z AUTO 36013KT 4SM -SN BR OVC009 A2981 RMK P0001 MADISHF
HFD,2017-04-01 16:20,-72.6494,41.7367,M,M,M,360.00,10.00,0.01,29.81,M,3.50,M,OVC,M,M,M,900.00,M,M,M,-SN BR,KHFD 011620Z AUTO 36010KT 3SM -SN BR OVC009 A2981 RMK P0001 MADISHF
HFD,2017-04-01 16:25,-72.6494,41.7367,M,M,M,360.00,14.00,0.01,29.81,M,3.50,19.00,OVC,M,M,M,900.00,M,M,M,-SN BR,KHFD 011625Z AUTO 36014G19KT 3SM -SN BR OVC009 A2981 RMK P0001 MADISHF
HFD,2017-04-01 16:30,-72.6494,41.7367,M,M,M,360.00,13.00,0.02,29.81,M,3.00,M,OVC,M,M,M,900.00,M,M,M,-SN BR,KHFD 011630Z AUTO 36013KT 3SM -SN BR OVC009 A2981 RMK P0002 MADISHF
HFD,2017-04-01 16:35,-72.6494,41.7367,M,M,M,360.00,10.00,0.02,29.81,M,3.00,M,OVC,M,M,M,900.00,M,M,M,-SN BR,KHFD 011635Z AUTO 36010KT 3SM -SN BR OVC009 A2981 RMK P0002 MADISHF
HFD,2017-04-01 16:40,-72.6494,41.7367,M,M,M,360.00,10.00,0.02,29.82,M,3.50,15.00,OVC,M,M,M,900.00,M,M,M,UP BR,KHFD 011640Z AUTO 36010G15KT 3SM UP BR OVC009 A2982 RMK P0002 MADISHF
HFD,2017-04-01 16:45,-72.6494,41.7367,M,M,M,360.00,11.00,0.02,29.82,M,4.00,16.00,OVC,M,M,M,900.00,M,M,M,UP BR,KHFD 011645Z AUTO 36011G16KT 4SM UP BR OVC009 A2982 RMK P0002 MADISHF
HFD,2017-04-01 16:50,-72.6494,41.7367,M,M,M,360.00,13.00,0.02,29.82,M,5.00,18.00,OVC,M,M,M,900.00,M,M,M,UP BR,KHFD 011650Z AUTO 36013G18KT 5SM UP BR OVC009 A2982 RMK P0002 MADISHF
HFD,2017-04-01 16:53,-72.6494,41.7367,37.00,34.00,88.78,360.00,15.00,0.02,29.82,1009.60,5.00,22.00,BKN,OVC,M,M,1100.00,1700.00,M,M,UP BR,KHFD 011653Z 36015G22KT 5SM UP BR BKN011 OVC017 03/01 A2982 RMK AO2 UPB38SNE38 SLP096 P0002 T00280011
HFD,2017-04-01 16:55,-72.6494,41.7367,M,M,M,M,M,0.00,29.81,M,5.00,M,BKN,OVC,M,M,1100.00,1699.00,M,M,UP BR,KHFD 011655Z AUTO /////KT 5SM UP BR BKN011 OVC016 A2981 RMK P0000 MADISHF
HFD,2017-04-01 17:00,-72.6494,41.7367,M,M,M,360.00,15.00,0.00,29.82,M,6.00,20.00,OVC,M,M,M,1300.00,M,M,M,UP BR,KHFD 011700Z AUTO 36015G20KT 6SM UP BR OVC013 A2982 RMK P0000 MADISHF
HFD,2017-04-01 17:05,-72.6494,41.7367,M,M,M,360.00,15.00,0.00,29.82,M,6.00,21.00,BKN,OVC,M,M,1300.00,1999.00,M,M,UP BR,KHFD 011705Z AUTO 36015G21KT 6SM UP BR BKN013 OVC019 A2982 RMK P0000 MADISHF
HFD,2017-04-01 17:10,-72.6494,41.7367,M,M,M,360.00,15.00,0.00,29.82,M,7.00,M,BKN,OVC,M,M,1100.00,1999.00,M,M,UP,KHFD 011710Z AUTO 36015KT 7SM UP BKN011 OVC019 A2982 RMK P0000 MADISHF
HFD,2017-04-01 17:15,-72.6494,41.7367,M,M,M,360.00,11.00,M,29.82,M,7.00,M,BKN,OVC,M,M,1300.00,1999.00,M,M,-RA,KHFD 011715Z AUTO 36011KT 7SM -RA BKN013 OVC019 A2982 RMK MADISHF
HFD,2017-04-01 17:20,-72.6494,41.7367,M,M,M,360.00,11.00,M,29.82,M,7.00,M,BKN,OVC,M,M,1300.00,1999.00,M,M,-RA,KHFD 011720Z AUTO 36011KT 7SM -RA BKN013 OVC019 A2982 RMK MADISHF
HFD,2017-04-01 17:25,-72.6494,41.7367,M,M,M,360.00,11.00,M,29.82,M,7.00,M,BKN,OVC,M,M,1300.00,1999.00,M,M,-RA,KHFD 011725Z AUTO 36011KT 7SM -RA BKN013 OVC019 A2982 RMK MADISHF
HFD,2017-04-01 17:30,-72.6494,41.7367,M,M,M,350.00,10.00,M,29.83,M,7.00,M,BKN,OVC,M,M,1300.00,1900.00,M,M,-RA,KHFD 011730Z AUTO 35010KT 7SM -RA BKN013 OVC019 A2983 RMK MADISHF
HFD,2017-04-01 17:35,-72.6494,41.7367,M,M,M,350.00,15.00,M,29.83,M,7.00,20.00,BKN,OVC,M,M,1300.00,1999.00,M,M,-RA,KHFD 011735Z AUTO 35015G20KT 7SM -RA BKN013 OVC019 A2983 RMK MADISHF
HFD,2017-04-01 17:40,-72.6494,41.7367,M,M,M,350.00,14.00,M,29.84,M,9.00,M,OVC,M,M,M,1300.00,M,M,M,M,KHFD 011740Z AUTO 35014KT 9SM OVC013 A2984 RMK MADISHF
HFD,2017-04-01 17:45,-72.6494,41.7367,M,M,M,340.00,14.00,M,29.84,M,8.00,M,BKN,OVC,M,M,1300.00,1999.00,M,M,M,KHFD 011745Z AUTO 34014KT 8SM BKN013 OVC019 A2984 RMK MADISHF
HFD,2017-04-01 17:50,-72.6494,41.7367,M,M,M,340.00,14.00,M,29.84,M,8.00,M,BKN,OVC,M,M,1400.00,1999.00,M,M,M,KHFD 011750Z AUTO 34014KT 8SM BKN014 OVC019 A2984 RMK MADISHF
HFD,2017-04-01 17:53,-72.6494,41.7367,37.90,34.00,85.69,350.00,14.00,0.00,29.84,1010.30,9.00,23.00,BKN,OVC,M,M,1200.00,2000.00,M,M,M,KHFD 011753Z 35014G23KT 9SM BKN012 OVC020 03/01 A2984 RMK AO2 UPE15RAB15E39 SLP103 P0000 60005 T00330011 10033 20011 53014
HFD,2017-04-01 17:55,-72.6494,41.7367,M,M,M,350.00,11.00,M,29.84,M,9.00,17.00,BKN,OVC,M,M,1400.00,1999.00,M,M,M,KHFD 011755Z AUTO 35011G17KT 9SM BKN014 OVC019 A2984 RMK MADISHF
HFD,2017-04-01 18:00,-72.6494,41.7367,M,M,M,350.00,15.00,M,29.84,M,8.00,M,BKN,OVC,M,M,1400.00,1999.00,M,M,-RA,KHFD 011800Z AUTO 35015KT 8SM -RA BKN014 OVC019 A2984 RMK MADISHF
HFD,2017-04-01 18:05,-72.6494,41.7367,M,M,M,360.00,13.00,M,29.84,M,8.00,M,BKN,OVC,M,M,1600.00,2100.00,M,M,-RA,KHFD 011805Z AUTO 36013KT 8SM -RA BKN016 OVC021 A2984 RMK MADISHF
HFD,2017-04-01 18:10,-72.6494,41.7367,M,M,M,M,M,M,29.84,M,7.00,M,BKN,OVC,M,M,1400.00,1999.00,M,M,-RA,KHFD 011810Z AUTO /////KT 7SM -RA BKN014 OVC019 A2984 RMK MADISHF
HFD,2017-04-01 18:15,-72.6494,41.7367,M,M,M,350.00,14.00,M,29.85,M,7.00,M,BKN,OVC,M,M,1400.00,1999.00,M,M,-RA,KHFD 011815Z AUTO 35014KT 7SM -RA BKN014 OVC019 A2985 RMK MADISHF
HFD,2017-04-01 18:20,-72.6494,41.7367,M,M,M,360.00,15.00,M,29.85,M,8.00,M,BKN,OVC,M,M,1400.00,1999.00,M,M,-RA,KHFD 011820Z AUTO 36015KT 8SM -RA BKN014 OVC019 A2985 RMK MADISHF
HFD,2017-04-01 18:25,-72.6494,41.7367,M,M,M,350.00,13.00,M,29.85,M,8.00,M,BKN,OVC,M,M,1400.00,1999.00,M,M,-RA,KHFD 011825Z AUTO 35013KT 8SM -RA BKN014 OVC019 A2985 RMK MADISHF
HFD,2017-04-01 18:30,-72.6494,41.7367,M,M,M,M,M,M,29.85,M,9.00,M,BKN,OVC,M,M,1400.00,1999.00,M,M,-RA,KHFD 011830Z AUTO /////KT 9SM -RA BKN014 OVC019 A2985 RMK MADISHF
HFD,2017-04-01 18:35,-72.6494,41.7367,M,M,M,M,M,M,29.85,M,9.00,M,BKN,OVC,M,M,1400.00,1999.00,M,M,-RA,KHFD 011835Z AUTO /////KT 9SM -RA BKN014 OVC019 A2985 RMK MADISHF
HFD,2017-04-01 18:40,-72.6494,41.7367,M,M,M,M,M,0.01,29.84,M,10.00,M,BKN,OVC,M,M,1400.00,1999.00,M,M,-RA,KHFD 011840Z AUTO /////KT 10SM -RA BKN014 OVC019 A2984 RMK P0001 MADISHF
HFD,2017-04-01 18:45,-72.6494,41.7367,M,M,M,350.00,12.00,0.01,29.85,M,10.00,19.00,BKN,OVC,M,M,1400.00,1999.00,M,M,M,KHFD 011845Z AUTO 35012G19KT 10SM BKN014 OVC019 A2985 RMK P0001 MADISHF
HFD,2017-04-01 18:50,-72.6494,41.7367,M,M,M,360.00,12.00,0.01,29.85,M,10.00,M,BKN,BKN,OVC,M,1400.00,1999.00,3900.00,M,M,KHFD 011850Z AUTO 36012KT 10SM BKN014 BKN019 OVC039 A2985 RMK P0001 MADISHF
HFD,2017-04-01 18:53,-72.6494,41.7367,39.00,34.00,82.08,10.00,10.00,0.01,29.85,1010.60,10.00,22.00,BKN,BKN,OVC,M,1400.00,2000.00,3900.00,M,M,KHFD 011853Z 01010G22KT 10SM BKN014 BKN020 OVC039 04/01 A2985 RMK AO2 RAB00E43 SLP106 P0001 T00390011
HFD,2017-04-01 18:55,-72.6494,41.7367,M,M,M,10.00,11.00,M,29.84,M,10.00,M,BKN,BKN,OVC,M,1400.00,2300.00,3900.00,M,M,KHFD 011855Z AUTO 01011KT 10SM BKN014 BKN023 OVC039 A2984 RMK MADISHF
HFD,2017-04-01 19:00,-72.6494,41.7367,M,M,M,M,M,M,29.84,M,10.00,20.00,BKN,BKN,OVC,M,1400.00,2300.00,3900.00,M,M,KHFD 011900Z AUTO /////G20KT 10SM BKN014 BKN023 OVC039 A2984 RMK MADISHF
HFD,2017-04-01 19:05,-72.6494,41.7367,M,M,M,10.00,14.00,M,29.84,M,10.00,19.00,BKN,BKN,OVC,M,1400.00,2300.00,3900.00,M,M,KHFD 011905Z AUTO 01014G19KT 10SM BKN014 BKN023 OVC039 A2984 RMK MADISHF
HFD,2017-04-01 19:10,-72.6494,41.7367,M,M,M,360.00,13.00,M,29.84,M,10.00,M,BKN,BKN,OVC,M,1400.00,2300.00,3900.00,M,M,KHFD 011910Z AUTO 36013KT 10SM BKN014 BKN023 OVC039 A2984 RMK MADISHF
HFD,2017-04-01 19:15,-72.6494,41.7367,M,M,M,360.00,15.00,M,29.84,M,10.00,M,BKN,BKN,OVC,M,1400.00,2300.00,3900.00,M,M,KHFD 011915Z AUTO 36015KT 10SM BKN014 BKN023 OVC039 A2984 RMK MADISHF
HFD,2017-04-01 19:20,-72.6494,41.7367,M,M,M,M,M,M,29.84,M,10.00,M,BKN,BKN,OVC,M,1400.00,2300.00,3900.00,M,M,KHFD 011920Z AUTO /////KT 10SM BKN014 BKN023 OVC039 A2984 RMK MADISHF
HFD,2017-04-01 19:25,-72.6494,41.7367,M,M,M,M,M,M,29.84,M,10.00,M,BKN,BKN,OVC,M,1400.00,2300.00,3900.00,M,M,KHFD 011925Z AUTO /////KT 10SM BKN014 BKN023 OVC039 A2984 RMK MADISHF
HFD,2017-04-01 19:30,-72.6494,41.7367,M,M,M,M,M,M,29.85,M,10.00,M,BKN,BKN,OVC,M,1400.00,2300.00,3900.00,M,M,KHFD 011930Z AUTO /////KT 10SM BKN014 BKN023 OVC039 A2985 RMK MADISHF
HFD,2017-04-01 19:35,-72.6494,41.7367,M,M,M,M,M,M,29.85,M,10.00,M,BKN,OVC,M,M,1400.00,2500.00,M,M,M,KHFD 011935Z AUTO /////KT 10SM BKN014 OVC025 A2985 RMK MADISHF
HFD,2017-04-01 19:40,-72.6494,41.7367,M,M,M,360.00,12.00,M,29.86,M,10.00,19.00,BKN,OVC,M,M,1400.00,2500.00,M,M,M,KHFD 011940Z AUTO 36012G19KT 10SM BKN014 OVC025 A2986 RMK MADISHF
HFD,2017-04-01 19:45,-72.6494,41.7367,M,M,M,360.00,12.00,M,29.87,M,10.00,18.00,BKN,OVC,M,M,1400.00,2500.00,M,M,M,KHFD 011945Z AUTO 36012G18KT 10SM BKN014 OVC025 A2987 RMK MADISHF
HFD,2017-04-01 19:50,-72.6494,41.7367,M,M,M,350.00,8.00,M,29.87,M,10.00,M,BKN,OVC,M,M,1600.00,2500.00,M,M,M,KHFD 011950Z AUTO 35008KT 10SM BKN016 OVC025 A2987 RMK MADISHF
HFD,2017-04-01 19:53,-72.6494,41.7367,39.90,33.10,76.44,360.00,11.00,0.00,29.87,1011.60,10.00,19.00,BKN,OVC,M,M,1600.00,2500.00,M,M,M,KHFD 011953Z 36011G19KT 10SM BKN016 OVC025 04/01 A2987 RMK AO2 SLP116 T00440006
HFD,2017-04-01 19:55,-72.6494,41.7367,M,M,M,350.00,14.00,M,29.87,M,10.00,19.00,BKN,OVC,M,M,2100.00,2800.00,M,M,M,KHFD 011955Z AUTO 35014G19KT 10SM BKN021 OVC028 A2987 RMK MADISHF
HFD,2017-04-01 20:00,-72.6494,41.7367,M,M,M,350.00,12.00,M,29.88,M,10.00,M,OVC,M,M,M,2300.00,M,M,M,M,KHFD 012000Z AUTO 35012KT 10SM OVC023 A2988 RMK MADISHF
HFD,2017-04-01 20:05,-72.6494,41.7367,M,M,M,360.00,13.00,M,29.89,M,10.00,M,OVC,M,M,M,2300.00,M,M,M,M,KHFD 012005Z AUTO 36013KT 10SM OVC023 A2989 RMK MADISHF
HFD,2017-04-01 20:10,-72.6494,41.7367,M,M,M,340.00,13.00,M,29.89,M,10.00,20.00,BKN,OVC,M,M,2300.00,3000.00,M,M,M,KHFD 012010Z AUTO 34013G20KT 10SM BKN023 OVC030 A2989 RMK MADISHF
HFD,2017-04-01 20:15,-72.6494,41.7367,M,M,M,M,M,M,29.89,M,10.00,M,BKN,OVC,M,M,2300.00,3000.00,M,M,M,KHFD 012015Z AUTO /////KT 10SM BKN023 OVC030 A2989 RMK MADISHF
HFD,2017-04-01 20:20,-72.6494,41.7367,M,M,M,M,M,M,29.89,M,10.00,M,OVC,M,M,M,2400.00,M,M,M,M,KHFD 012020Z AUTO /////KT 10SM OVC024 A2989 RMK MADISHF
HFD,2017-04-01 20:25,-72.6494,41.7367,M,M,M,360.00,12.00,M,29.90,M,10.00,M,OVC,M,M,M,2600.00,M,M,M,M,KHFD 012025Z AUTO 36012KT 10SM OVC026 A2990 RMK MADISHF
HFD,2017-04-01 20:30,-72.6494,41.7367,M,M,M,350.00,14.00,M,29.90,M,10.00,M,BKN,OVC,M,M,2600.00,3200.00,M,M,M,KHFD 012030Z AUTO 35014KT 10SM BKN026 OVC032 A2990 RMK MADISHF
HFD,2017-04-01 20:35,-72.6494,41.7367,M,M,M,350.00,12.00,M,29.91,M,10.00,M,BKN,OVC,M,M,2600.00,3200.00,M,M,M,KHFD 012035Z AUTO 35012KT 10SM BKN026 OVC032 A2991 RMK MADISHF
HFD,2017-04-01 20:40,-72.6494,41.7367,M,M,M,360.00,12.00,M,29.91,M,10.00,17.00,BKN,OVC,M,M,2600.00,3200.00,M,M,M,KHFD 012040Z AUTO 36012G17KT 10SM BKN026 OVC032 A2991 RMK MADISHF
HFD,2017-04-01 20:45,-72.6494,41.7367,M,M,M,M,M,M,29.91,M,10.00,M,SCT,BKN,OVC,M,2600.00,3300.00,4100.00,M,M,KHFD 012045Z AUTO /////KT 10SM SCT026 BKN033 OVC041 A2991 RMK MADISHF
HFD,2017-04-01 20:50,-72.6494,41.7367,M,M,M,10.00,15.00,M,29.91,M,10.00,M,BKN,BKN,OVC,M,2600.00,3000.00,3700.00,M,M,KHFD 012050Z AUTO 01015KT 10SM BKN026 BKN030 OVC037 A2991 RMK MADISHF
HFD,2017-04-01 20:53,-72.6494,41.7367,39.90,32.00,73.14,10.00,12.00,0.00,29.91,1012.90,10.00,22.00,BKN,BKN,OVC,M,2600.00,3000.00,3700.00,M,M,KHFD 012053Z 01012G22KT 10SM BKN026 BKN030 OVC037 04/00 A2991 RMK AO2 SLP129 60001 T00440000 53026
HFD,2017-04-01 20:55,-72.6494,41.7367,M,M,M,360.00,14.00,M,29.91,M,10.00,M,BKN,BKN,OVC,M,2300.00,3000.00,3700.00,M,M,KHFD 012055Z AUTO 36014KT 10SM BKN023 BKN030 OVC037 A2991 RMK MADISHF
HFD,2017-04-01 21:00,-72.6494,41.7367,M,M,M,M,M,M,29.92,M,10.00,M,BKN,BKN,OVC,M,2300.00,3000.00,3700.00,M,M,KHFD 012100Z AUTO /////KT 10SM BKN023 BKN030 OVC037 A2992 RMK MADISHF
HFD,2017-04-01 21:05,-72.6494,41.7367,M,M,M,360.00,11.00,M,29.92,M,10.00,M,BKN,BKN,OVC,M,2300.00,3000.00,3700.00,M,M,KHFD 012105Z AUTO 36011KT 10SM BKN023 BKN030 OVC037 A2992 RMK MADISHF
HFD,2017-04-01 21:10,-72.6494,41.7367,M,M,M,360.00,13.00,M,29.93,M,10.00,23.00,BKN,BKN,OVC,M,2300.00,3000.00,3700.00,M,M,KHFD 012110Z AUTO 36013G23KT 10SM BKN023 BKN030 OVC037 A2993 RMK MADISHF
HFD,2017-04-01 21:15,-72.6494,41.7367,M,M,M,350.00,15.00,M,29.93,M,8.00,M,BKN,BKN,OVC,M,2300.00,3000.00,3700.00,M,M,KHFD 012115Z AUTO 35015KT 8SM BKN023 BKN030 OVC037 A2993 RMK MADISHF
HFD,2017-04-01 21:20,-72.6494,41.7367,M,M,M,350.00,14.00,M,29.93,M,6.00,M,BKN,BKN,OVC,M,2300.00,3000.00,3700.00,M,HZ,KHFD 012120Z AUTO 35014KT 6SM HZ BKN023 BKN030 OVC037 A2993 RMK MADISHF
HFD,2017-04-01 21:25,-72.6494,41.7367,M,M,M,350.00,10.00,M,29.93,M,6.00,M,BKN,BKN,OVC,M,2300.00,3000.00,3700.00,M,HZ,KHFD 012125Z AUTO 35010KT 6SM HZ BKN023 BKN030 OVC037 A2993 RMK MADISHF
HFD,2017-04-01 21:30,-72.6494,41.7367,M,M,M,360.00,9.00,M,29.94,M,7.00,M,BKN,BKN,OVC,M,2300.00,3000.00,3700.00,M,M,KHFD 012130Z AUTO 36009KT 7SM BKN023 BKN030 OVC037 A2994 RMK MADISHF
HFD,2017-04-01 21:35,-72.6494,41.7367,M,M,M,10.00,11.00,M,29.94,M,6.00,M,BKN,BKN,OVC,M,2300.00,3000.00,3700.00,M,HZ,KHFD 012135Z AUTO 01011KT 6SM HZ BKN023 BKN030 OVC037 A2994 RMK MADISHF
HFD,2017-04-01 21:40,-72.6494,41.7367,M,M,M,350.00,11.00,M,29.94,M,5.00,M,BKN,BKN,OVC,M,2300.00,3000.00,3700.00,M,HZ,KHFD 012140Z AUTO 35011KT 5SM HZ BKN023 BKN030 OVC037 A2994 RMK MADISHF
HFD,2017-04-01 21:45,-72.6494,41.7367,M,M,M,360.00,9.00,M,29.94,M,4.00,M,BKN,BKN,OVC,M,2300.00,3000.00,3700.00,M,HZ,KHFD 012145Z AUTO 36009KT 4SM HZ BKN023 BKN030 OVC037 A2994 RMK MADISHF
HFD,2017-04-01 21:50,-72.6494,41.7367,M,M,M,10.00,10.00,M,29.94,M,4.00,M,FEW,BKN,OVC,M,1600.00,2500.00,5000.00,M,HZ,KHFD 012150Z AUTO 01010KT 4SM HZ FEW016 BKN025 OVC050 A2994 RMK MADISHF
HFD,2017-04-01 21:53,-72.6494,41.7367,39.00,34.00,82.08,10.00,13.00,0.00,29.94,1013.80,4.00,M,SCT,BKN,OVC,M,1900.00,2700.00,4700.00,M,HZ,KHFD 012153Z 01013KT 4SM HZ SCT019 BKN027 OVC047 04/01 A2994 RMK AO2 SLP138 T00390011
HFD,2017-04-01 21:55,-72.6494,41.7367,M,M,M,10.00,11.00,M,29.94,M,4.00,M,FEW,BKN,OVC,M,1699.00,3600.00,4700.00,M,HZ,KHFD 012155Z AUTO 01011KT 4SM HZ FEW016 BKN036 OVC047 A2994 RMK MADISHF
HFD,2017-04-01 22:00,-72.6494,41.7367,M,M,M,360.00,12.00,M,29.95,M,4.00,17.00,SCT,BKN,OVC,M,1900.00,2700.00,4700.00,M,BR,KHFD 012200Z AUTO 36012G17KT 4SM BR SCT019 BKN027 OVC047 A2995 RMK MADISHF
HFD,2017-04-01 22:05,-72.6494,41.7367,M,M,M,350.00,12.00,M,29.95,M,3.50,17.00,SCT,BKN,OVC,M,1900.00,2700.00,4700.00,M,-SN BR,KHFD 012205Z AUTO 35012G17KT 3SM -SN BR SCT019 BKN027 OVC047 A2995 RMK MADISHF
HFD,2017-04-01 22:10,-72.6494,41.7367,M,M,M,360.00,8.00,M,29.96,M,3.50,M,SCT,BKN,OVC,M,1900.00,2700.00,4700.00,M,-SN BR,KHFD 012210Z AUTO 36008KT 3SM -SN BR SCT019 BKN027 OVC047 A2996 RMK MADISHF
HFD,2017-04-01 22:15,-72.6494,41.7367,M,M,M,360.00,11.00,M,29.96,M,6.00,17.00,SCT,BKN,OVC,M,1900.00,2700.00,4700.00,M,BR,KHFD 012215Z AUTO 36011G17KT 6SM BR SCT019 BKN027 OVC047 A2996 RMK MADISHF
HFD,2017-04-01 22:20,-72.6494,41.7367,M,M,M,360.00,13.00,M,29.96,M,8.00,M,SCT,BKN,OVC,M,1900.00,2700.00,4700.00,M,M,KHFD 012220Z AUTO 36013KT 8SM SCT019 BKN027 OVC047 A2996 RMK MADISHF
HFD,2017-04-01 22:25,-72.6494,41.7367,M,M,M,10.00,10.00,M,29.96,M,9.00,M,SCT,BKN,OVC,M,1900.00,2700.00,4700.00,M,M,KHFD 012225Z AUTO 01010KT 9SM SCT019 BKN027 OVC047 A2996 RMK MADISHF
HFD,2017-04-01 22:30,-72.6494,41.7367,M,M,M,M,M,M,29.96,M,10.00,M,SCT,BKN,OVC,M,1900.00,2700.00,4700.00,M,M,KHFD 012230Z AUTO /////KT 10SM SCT019 BKN027 OVC047 A2996 RMK MADISHF
HFD,2017-04-01 22:35,-72.6494,41.7367,M,M,M,M,M,M,29.97,M,10.00,M,SCT,BKN,OVC,M,1900.00,2700.00,4700.00,M,M,KHFD 012235Z AUTO /////KT 10SM SCT019 BKN027 OVC047 A2997 RMK MADISHF
HFD,2017-04-01 22:40,-72.6494,41.7367,M,M,M,360.00,10.00,M,29.97,M,10.00,M,SCT,BKN,OVC,M,1900.00,2700.00,4700.00,M,M,KHFD 012240Z AUTO 36010KT 10SM SCT019 BKN027 OVC047 A2997 RMK MADISHF
HFD,2017-04-01 22:45,-72.6494,41.7367,M,M,M,10.00,9.00,M,29.97,M,10.00,14.00,SCT,BKN,OVC,M,1900.00,2700.00,4700.00,M,M,KHFD 012245Z AUTO 01009G14KT 10SM SCT019 BKN027 OVC047 A2997 RMK MADISHF
HFD,2017-04-01 22:50,-72.6494,41.7367,M,M,M,10.00,11.00,M,29.97,M,10.00,M,FEW,BKN,OVC,M,1900.00,4300.00,5000.00,M,M,KHFD 012250Z AUTO 01011KT 10SM FEW019 BKN043 OVC050 A2997 RMK MADISHF
HFD,2017-04-01 22:53,-72.6494,41.7367,37.90,33.10,82.66,10.00,11.00,0.00,29.97,1014.90,10.00,18.00,FEW,BKN,OVC,M,1900.00,4300.00,5500.00,M,M,KHFD 012253Z 01011G18KT 10SM FEW019 BKN043 OVC055 03/01 A2997 RMK AO2 SNB05E14 SLP149 P0000 T00330006
HFD,2017-04-01 22:55,-72.6494,41.7367,M,M,M,10.00,12.00,M,29.97,M,10.00,M,FEW,BKN,OVC,M,1900.00,4300.00,6000.00,M,M,KHFD 012255Z AUTO 01012KT 10SM FEW019 BKN043 OVC060 A2997 RMK MADISHF
HFD,2017-04-01 23:00,-72.6494,41.7367,M,M,M,360.00,9.00,M,29.97,M,10.00,M,FEW,BKN,OVC,M,1900.00,4300.00,6000.00,M,M,KHFD 012300Z AUTO 36009KT 10SM FEW019 BKN043 OVC060 A2997 RMK MADISHF
HFD,2017-04-01 23:05,-72.6494,41.7367,M,M,M,350.00,11.00,M,29.98,M,10.00,M,FEW,BKN,OVC,M,1900.00,4500.00,6000.00,M,M,KHFD 012305Z AUTO 35011KT 10SM FEW019 BKN045 OVC060 A2998 RMK MADISHF
HFD,2017-04-01 23:10,-72.6494,41.7367,M,M,M,340.00,10.00,M,29.98,M,10.00,15.00,SCT,BKN,OVC,M,2100.00,4200.00,6000.00,M,M,KHFD 012310Z AUTO 34010G15KT 10SM SCT021 BKN042 OVC060 A2998 RMK MADISHF
HFD,2017-04-01 23:15,-72.6494,41.7367,M,M,M,360.00,9.00,M,29.98,M,10.00,M,SCT,BKN,OVC,M,2100.00,4400.00,6000.00,M,M,KHFD 012315Z AUTO 36009KT 10SM SCT021 BKN044 OVC060 A2998 RMK MADISHF
HFD,2017-04-01 23:20,-72.6494,41.7367,M,M,M,360.00,12.00,M,29.98,M,10.00,17.00,SCT,BKN,OVC,M,1999.00,4400.00,6000.00,M,M,KHFD 012320Z AUTO 36012G17KT 10SM SCT019 BKN044 OVC060 A2998 RMK MADISHF
HFD,2017-04-01 23:25,-72.6494,41.7367,M,M,M,M,M,M,29.98,M,10.00,M,FEW,BKN,OVC,M,1999.00,4400.00,6000.00,M,M,KHFD 012325Z AUTO /////KT 10SM FEW019 BKN044 OVC060 A2998 RMK MADISHF
HFD,2017-04-01 23:30,-72.6494,41.7367,M,M,M,360.00,11.00,M,29.98,M,10.00,M,FEW,BKN,OVC,M,1999.00,4400.00,6000.00,M,M,KHFD 012330Z AUTO 36011KT 10SM FEW019 BKN044 OVC060 A2998 RMK MADISHF
HFD,2017-04-01 23:35,-72.6494,41.7367,M,M,M,10.00,9.00,M,29.98,M,10.00,M,FEW,BKN,OVC,M,1999.00,4400.00,6000.00,M,M,KHFD 012335Z AUTO 01009KT 10SM FEW019 BKN044 OVC060 A2998 RMK MADISHF
HFD,2017-04-01 23:40,-72.6494,41.7367,M,M,M,360.00,10.00,M,29.98,M,10.00,M,FEW,BKN,OVC,M,1999.00,4400.00,6000.00,M,M,KHFD 012340Z AUTO 36010KT 10SM FEW019 BKN044 OVC060 A2998 RMK MADISHF
HFD,2017-04-01 23:45,-72.6494,41.7367,M,M,M,360.00,9.00,M,29.98,M,10.00,M,FEW,BKN,OVC,M,1999.00,4400.00,6000.00,M,M,KHFD 012345Z AUTO 36009KT 10SM FEW019 BKN044 OVC060 A2998 RMK MADISHF
HFD,2017-04-01 23:50,-72.6494,41.7367,M,M,M,360.00,7.00,M,29.99,M,10.00,M,FEW,SCT,OVC,M,1999.00,4200.00,6000.00,M,M,KHFD 012350Z AUTO 36007KT 10SM FEW019 SCT042 OVC060 A2999 RMK MADISHF
HFD,2017-04-01 23:53,-72.6494,41.7367,37.90,32.00,79.08,10.00,7.00,0.00,29.99,1015.50,10.00,M,FEW,OVC,M,M,1900.00,6000.00,M,M,M,KHFD 012353Z 01007KT 10SM FEW019 OVC060 03/00 A2999 RMK AO2 SLP155 60001 T00330000 10044 20033 51025
HFD,2017-04-01 23:55,-72.6494,41.7367,M,M,M,10.00,7.00,M,29.99,M,10.00,M,FEW,OVC,M,M,1900.00,6000.00,M,M,M,KHFD 012355Z AUTO 01007KT 10SM FEW019 OVC060 A2999 RMK MADISHF
