#DEBUG: Format Typ    -> comma
#DEBUG: Time Period   -> 2017-04-01 00:00:00+00:00 2017-04-02 00:00:00+00:00
#DEBUG: Time Zone     -> Etc/UTC
#DEBUG: Data Contact   -> daryl herzmann akrherz@iastate.edu 515-294-5978
#DEBUG: Entries Found -> -1
station,valid,lon,lat,tmpf, dwpf, relh, drct, sknt, p01i, alti, mslp, vsby, gust, skyc1, skyc2, skyc3, skyc4, skyl1, skyl2, skyl3, skyl4, presentwx, metar
HIE,2017-04-01 00:00,-71.5445,44.3676,M,M,M,0.00,0.00,M,30.00,M,1.25,M,OVC,M,M,M,1500.00,M,M,M,-SN BR,KHIE 010000Z AUTO 00000KT 1 1/2SM -SN BR OVC015 A3000 RMK MADISHF
HIE,2017-04-01 00:05,-71.5445,44.3676,M,M,M,110.00,4.00,M,30.00,M,1.50,M,OVC,M,M,M,1500.00,M,M,M,-SN BR,KHIE 010005Z AUTO 11004KT 1 1/2SM -SN BR OVC015 A3000 RMK MADISHF
HIE,2017-04-01 00:10,-71.5445,44.3676,M,M,M,70.00,4.00,M,30.00,M,1.50,M,OVC,M,M,M,1600.00,M,M,M,-SN,KHIE 010010Z AUTO 07004KT 1 1/2SM -SN OVC016 A3000 RMK MADISHF
HIE,2017-04-01 00:15,-71.5445,44.3676,M,M,M,70.00,4.00,M,30.00,M,1.25,M,OVC,M,M,M,1600.00,M,M,M,-SN,KHIE 010015Z AUTO 07004KT 1 1/2SM -SN OVC016 A3000 RMK MADISHF
HIE,2017-04-01 00:20,-71.5445,44.3676,M,M,M,70.00,5.00,M,30.00,M,1.25,M,OVC,M,M,M,1800.00,M,M,M,-SN,KHIE 010020Z AUTO 07005KT 1 1/2SM -SN OVC018 A3000 RMK MADISHF
HIE,2017-04-01 00:25,-71.5445,44.3676,M,M,M,0.00,0.00,M,30.00,M,1.25,M,OVC,M,M,M,1800.00,M,M,M,-SN BR,KHIE 010025Z AUTO 00000KT 1 1/2SM -SN BR OVC018 A3000 RMK MADISHF
HIE,2017-04-01 00:30,-71.5445,44.3676,M,M,M,0.00,0.00,M,30.00,M,1.25,M,OVC,M,M,M,1800.00,M,M,M,-SN BR,KHIE 010030Z AUTO 00000KT 1 1/2SM -SN BR OVC018 A3000 RMK MADISHF
HIE,2017-04-01 00:35,-71.5445,44.3676,M,M,M,0.00,0.00,M,30.00,M,1.00,M,VV ,M,M,M,1699.00,M,M,M,-SN BR,KHIE 010035Z AUTO 00000KT 1SM -SN BR VV016 A3000 RMK MADISHF
HIE,2017-04-01 00:38,-71.5445,44.3676,32.00,28.00,84.98,0.00,0.00,0.00,30.00,M,1.00,M,VV ,M,M,M,1700.00,M,M,M,-SN BR,KHIE 010038Z AUTO 00000KT 1SM -SN BR VV017 00/M02 A3000 RMK AO2 P0000 T00001022
HIE,2017-04-01 00:40,-71.5445,44.3676,M,M,M,280.00,3.00,M,30.00,M,1.00,M,VV ,M,M,M,1699.00,M,M,M,-SN BR,KHIE 010040Z AUTO 28003KT 1SM -SN BR VV016 A3000 RMK MADISHF
HIE,2017-04-01 00:45,-71.5445,44.3676,M,M,M,280.00,4.00,M,30.00,M,1.00,M,VV ,M,M,M,1600.00,M,M,M,-SN BR,KHIE 010045Z AUTO 28004KT 1SM -SN BR VV016 A3000 RMK MADISHF
HIE,2017-04-01 00:50,-71.5445,44.3676,M,M,M,330.00,3.00,M,30.01,M,1.00,M,VV ,M,M,M,1600.00,M,M,M,-SN BR,KHIE 010050Z AUTO 33003KT 1SM -SN BR VV016 A3001 RMK MADISHF
HIE,2017-04-01 00:52,-71.5445,44.3676,32.00,28.90,88.17,340.00,3.00,0.00,30.01,1017.40,1.00,M,VV ,M,M,M,1500.00,M,M,M,-SN BR,KHIE 010052Z AUTO 34003KT 1SM -SN BR VV015 00/M02 A3001 RMK AO2 SLP174 P0000 T00001017
HIE,2017-04-01 00:55,-71.5445,44.3676,M,M,M,320.00,4.00,M,30.01,M,1.00,M,OVC,M,M,M,1500.00,M,M,M,-SN BR,KHIE 010055Z AUTO 32004KT 1SM -SN BR OVC015 A3001 RMK MADISHF
HIE,2017-04-01 01:00,-71.5445,44.3676,M,M,M,310.00,4.00,M,30.01,M,1.00,M,OVC,M,M,M,1500.00,M,M,M,-SN BR,KHIE 010100Z AUTO 31004KT 1SM -SN BR OVC015 A3001 RMK MADISHF
HIE,2017-04-01 01:05,-71.5445,44.3676,M,M,M,330.00,4.00,M,30.01,M,1.00,M,OVC,M,M,M,1500.00,M,M,M,-SN BR,KHIE 010105Z AUTO 33004KT 1SM -SN BR OVC015 A3001 RMK MADISHF
HIE,2017-04-01 01:10,-71.5445,44.3676,M,M,M,320.00,3.00,M,30.00,M,0.75,M,OVC,M,M,M,1500.00,M,M,M,-SN BR,KHIE 010110Z AUTO 32003KT 1SM -SN BR OVC015 A3000 RMK MADISHF
HIE,2017-04-01 01:12,-71.5445,44.3676,32.00,28.00,84.98,340.00,3.00,0.00,30.00,M,0.75,M,OVC,M,M,M,1300.00,M,M,M,-SN BR,KHIE 010112Z AUTO 34003KT 3/4SM -SN BR OVC013 00/M02 A3000 RMK AO2 P0000 T00001022
HIE,2017-04-01 01:15,-71.5445,44.3676,M,M,M,340.00,3.00,M,30.00,M,0.75,M,OVC,M,M,M,1300.00,M,M,M,-SN BR,KHIE 010115Z AUTO 34003KT 1SM -SN BR OVC013 A3000 RMK MADISHF
HIE,2017-04-01 01:20,-71.5445,44.3676,M,M,M,330.00,4.00,M,30.00,M,0.75,M,OVC,M,M,M,1300.00,M,M,M,-SN BR,KHIE 010120Z AUTO 33004KT 1SM -SN BR OVC013 A3000 RMK MADISHF
HIE,2017-04-01 01:25,-71.5445,44.3676,M,M,M,320.00,4.00,M,30.00,M,1.00,M,OVC,M,M,M,1100.00,M,M,M,-SN BR,KHIE 010125Z AUTO 32004KT 1SM -SN BR OVC011 A3000 RMK MADISHF
HIE,2017-04-01 01:30,-71.5445,44.3676,32.00,28.00,84.98,310.00,4.00,0.00,30.00,M,1.25,M,BKN,OVC,M,M,1100.00,1400.00,M,M,-SN BR,KHIE 010130Z AUTO 31004KT 1 1/4SM -SN BR BKN011 OVC014 00/M02 A3000 RMK AO2 P0000 T00001022
HIE,2017-04-01 01:35,-71.5445,44.3676,M,M,M,0.00,0.00,M,30.00,M,1.25,M,BKN,OVC,M,M,1100.00,1400.00,M,M,-SN BR,KHIE 010135Z AUTO 00000KT 1 1/2SM -SN BR BKN011 OVC014 A3000 RMK MADISHF
HIE,2017-04-01 01:40,-71.5445,44.3676,M,M,M,260.00,3.00,M,30.00,M,1.25,M,BKN,OVC,M,M,999.00,1400.00,M,M,-SN BR,KHIE 010140Z AUTO 26003KT 1 1/2SM -SN BR BKN009 OVC014 A3000 RMK MADISHF
HIE,2017-04-01 01:45,-71.5445,44.3676,M,M,M,280.00,3.00,M,30.00,M,1.25,M,OVC,M,M,M,999.00,M,M,M,-SN BR,KHIE 010145Z AUTO 28003KT 1 1/2SM -SN BR OVC009 A3000 RMK MADISHF
HIE,2017-04-01 01:50,-71.5445,44.3676,30.20,28.40,92.92,300.00,4.00,0.00,30.00,M,0.75,M,OVC,M,M,M,1000.00,M,M,M,-SN BR,KHIE 010150Z AUTO 30004KT 3/4SM -SN BR OVC010 M01/M02 A3000 RMK AO2 P0000
HIE,2017-04-01 01:52,-71.5445,44.3676,30.90,28.00,88.84,300.00,4.00,0.00,30.00,1017.10,0.75,M,OVC,M,M,M,1000.00,M,M,M,-SN BR,KHIE 010152Z AUTO 30004KT 3/4SM -SN BR OVC010 M01/M02 A3000 RMK AO2 SLP171 P0000 T10061022
HIE,2017-04-01 01:55,-71.5445,44.3676,M,M,M,320.00,4.00,M,29.99,M,0.75,M,OVC,M,M,M,999.00,M,M,M,-SN BR,KHIE 010155Z AUTO 32004KT 1SM -SN BR OVC009 A2999 RMK MADISHF
HIE,2017-04-01 02:00,-71.5445,44.3676,M,M,M,310.00,4.00,0.01,29.99,M,0.75,M,OVC,M,M,M,999.00,M,M,M,-SN BR,KHIE 010200Z AUTO 31004KT 1SM -SN BR OVC009 A2999 RMK P0001 MADISHF
HIE,2017-04-01 02:05,-71.5445,44.3676,M,M,M,280.00,3.00,0.01,29.99,M,0.50,M,VV ,M,M,M,800.00,M,M,M,SN FZFG,KHIE 010205Z AUTO 28003KT 1/2SM SN FZFG VV008 A2999 RMK P0001 MADISHF
HIE,2017-04-01 02:10,-71.5445,44.3676,M,M,M,0.00,0.00,0.01,29.99,M,0.50,M,VV ,M,M,M,800.00,M,M,M,SN FZFG,KHIE 010210Z AUTO 00000KT 1/2SM SN FZFG VV008 A2999 RMK P0001 MADISHF
HIE,2017-04-01 02:11,-71.5445,44.3676,30.90,28.00,88.84,0.00,0.00,0.01,29.99,M,0.50,M,VV ,M,M,M,800.00,M,M,M,SN FZFG,KHIE 010211Z AUTO 00000KT 1/2SM SN FZFG VV008 M01/M02 A2999 RMK AO2 P0001 T10061022
HIE,2017-04-01 02:15,-71.5445,44.3676,M,M,M,0.00,0.00,0.01,29.99,M,0.50,M,VV ,M,M,M,999.00,M,M,M,SN FZFG,KHIE 010215Z AUTO 00000KT 1/2SM SN FZFG VV009 A2999 RMK P0001 MADISHF
HIE,2017-04-01 02:19,-71.5445,44.3676,32.00,28.00,84.98,330.00,3.00,0.01,29.98,M,1.00,M,VV ,M,M,M,1100.00,M,M,M,-SN BR,KHIE 010219Z AUTO 33003KT 1SM -SN BR VV011 00/M02 A2998 RMK AO2 P0001 T00001022
HIE,2017-04-01 02:20,-71.5445,44.3676,M,M,M,330.00,3.00,0.01,29.98,M,1.00,M,VV ,M,M,M,1100.00,M,M,M,-SN BR,KHIE 010220Z AUTO 33003KT 1SM -SN BR VV011 A2998 RMK P0001 MADISHF
HIE,2017-04-01 02:25,-71.5445,44.3676,M,M,M,320.00,3.00,0.01,29.98,M,1.25,M,OVC,M,M,M,1200.00,M,M,M,-SN BR,KHIE 010225Z AUTO 32003KT 1 1/2SM -SN BR OVC012 A2998 RMK P0001 MADISHF
HIE,2017-04-01 02:28,-71.5445,44.3676,30.90,28.00,88.84,340.00,3.00,0.01,29.98,M,1.25,M,OVC,M,M,M,1200.00,M,M,M,-SN BR,KHIE 010228Z AUTO 34003KT 1 1/4SM -SN BR OVC012 M01/M02 A2998 RMK AO2 P0001 T10061022
HIE,2017-04-01 02:30,-71.5445,44.3676,M,M,M,350.00,3.00,0.01,29.98,M,1.25,M,OVC,M,M,M,1200.00,M,M,M,-SN BR,KHIE 010230Z AUTO 35003KT 1 1/2SM -SN BR OVC012 A2998 RMK P0001 MADISHF
HIE,2017-04-01 02:35,-71.5445,44.3676,M,M,M,320.00,3.00,0.01,29.98,M,1.00,M,OVC,M,M,M,1200.00,M,M,M,-SN BR,KHIE 010235Z AUTO 32003KT 1SM -SN BR OVC012 A2998 RMK P0001 MADISHF
HIE,2017-04-01 02:38,-71.5445,44.3676,30.90,28.90,92.18,340.00,3.00,0.01,29.97,M,1.00,M,OVC,M,M,M,1200.00,M,M,M,-SN BR,KHIE 010238Z AUTO 34003KT 1SM -SN BR OVC012 M01/M02 A2997 RMK AO2 P0001 T10061017
HIE,2017-04-01 02:40,-71.5445,44.3676,M,M,M,340.00,4.00,0.01,29.97,M,1.00,M,OVC,M,M,M,1200.00,M,M,M,-SN BR,KHIE 010240Z AUTO 34004KT 1SM -SN BR OVC012 A2997 RMK P0001 MADISHF
HIE,2017-04-01 02:45,-71.5445,44.3676,M,M,M,340.00,4.00,0.01,29.97,M,1.00,M,OVC,M,M,M,1200.00,M,M,M,-SN BR,KHIE 010245Z AUTO 34004KT 1SM -SN BR OVC012 A2997 RMK P0001 MADISHF
HIE,2017-04-01 02:50,-71.5445,44.3676,M,M,M,340.00,4.00,0.01,29.97,M,1.00,M,OVC,M,M,M,1200.00,M,M,M,-SN BR,KHIE 010250Z AUTO 34004KT 1SM -SN BR OVC012 A2997 RMK P0001 MADISHF
HIE,2017-04-01 02:52,-71.5445,44.3676,32.00,28.00,84.98,330.00,4.00,0.01,29.97,1016.00,1.25,M,OVC,M,M,M,1200.00,M,M,M,-SN BR,KHIE 010252Z AUTO 33004KT 1 1/4SM -SN BR OVC012 00/M02 A2997 RMK AO2 SLP160 P0001 60001 T00001022 58011
HIE,2017-04-01 02:55,-71.5445,44.3676,M,M,M,320.00,4.00,M,29.97,M,1.25,M,OVC,M,M,M,1200.00,M,M,M,-SN BR,KHIE 010255Z AUTO 32004KT 1 1/2SM -SN BR OVC012 A2997 RMK MADISHF
HIE,2017-04-01 03:00,-71.5445,44.3676,M,M,M,290.00,4.00,M,29.96,M,1.25,M,OVC,M,M,M,1200.00,M,M,M,-SN BR,KHIE 010300Z AUTO 29004KT 1 1/2SM -SN BR OVC012 A2996 RMK MADISHF
HIE,2017-04-01 03:05,-71.5445,44.3676,M,M,M,320.00,4.00,M,29.96,M,1.25,M,OVC,M,M,M,1200.00,M,M,M,-SN BR,KHIE 010305Z AUTO 32004KT 1 1/2SM -SN BR OVC012 A2996 RMK MADISHF
HIE,2017-04-01 03:10,-71.5445,44.3676,M,M,M,310.00,3.00,M,29.96,M,1.25,M,OVC,M,M,M,1200.00,M,M,M,-SN BR,KHIE 010310Z AUTO 31003KT 1 1/2SM -SN BR OVC012 A2996 RMK MADISHF
HIE,2017-04-01 03:15,-71.5445,44.3676,M,M,M,330.00,3.00,M,29.96,M,1.25,M,OVC,M,M,M,1200.00,M,M,M,-SN BR,KHIE 010315Z AUTO 33003KT 1 1/2SM -SN BR OVC012 A2996 RMK MADISHF
HIE,2017-04-01 03:20,-71.5445,44.3676,M,M,M,330.00,3.00,M,29.96,M,1.25,M,OVC,M,M,M,1400.00,M,M,M,-SN BR,KHIE 010320Z AUTO 33003KT 1 1/2SM -SN BR OVC014 A2996 RMK MADISHF
HIE,2017-04-01 03:25,-71.5445,44.3676,M,M,M,10.00,4.00,M,29.95,M,1.25,M,OVC,M,M,M,1400.00,M,M,M,-SN BR,KHIE 010325Z AUTO 01004KT 1 1/2SM -SN BR OVC014 A2995 RMK MADISHF
HIE,2017-04-01 03:30,-71.5445,44.3676,M,M,M,360.00,3.00,M,29.95,M,1.25,M,OVC,M,M,M,1400.00,M,M,M,-SN BR,KHIE 010330Z AUTO 36003KT 1 1/2SM -SN BR OVC014 A2995 RMK MADISHF
HIE,2017-04-01 03:35,-71.5445,44.3676,M,M,M,350.00,4.00,M,29.95,M,1.50,M,OVC,M,M,M,1600.00,M,M,M,-SN BR,KHIE 010335Z AUTO 35004KT 1 1/2SM -SN BR OVC016 A2995 RMK MADISHF
HIE,2017-04-01 03:37,-71.5445,44.3676,32.00,28.00,84.98,330.00,3.00,0.00,29.95,M,1.50,M,OVC,M,M,M,1600.00,M,M,M,-SN BR,KHIE 010337Z AUTO 33003KT 1 1/2SM -SN BR OVC016 00/M02 A2995 RMK AO2 P0000 T00001022
HIE,2017-04-01 03:40,-71.5445,44.3676,M,M,M,340.00,3.00,M,29.95,M,1.50,M,OVC,M,M,M,1800.00,M,M,M,-SN BR,KHIE 010340Z AUTO 34003KT 1 1/2SM -SN BR OVC018 A2995 RMK MADISHF
HIE,2017-04-01 03:45,-71.5445,44.3676,M,M,M,330.00,3.00,M,29.95,M,1.50,M,OVC,M,M,M,1800.00,M,M,M,-SN BR,KHIE 010345Z AUTO 33003KT 1 1/2SM -SN BR OVC018 A2995 RMK MADISHF
HIE,2017-04-01 03:50,-71.5445,44.3676,M,M,M,0.00,0.00,M,29.95,M,1.50,M,OVC,M,M,M,1800.00,M,M,M,-SN BR,KHIE 010350Z AUTO 00000KT 1 1/2SM -SN BR OVC018 A2995 RMK MADISHF
HIE,2017-04-01 03:52,-71.5445,44.3676,32.00,28.90,88.17,360.00,3.00,0.00,29.94,1015.20,1.75,M,OVC,M,M,M,1800.00,M,M,M,-SN BR,KHIE 010352Z AUTO 36003KT 1 3/4SM -SN BR OVC018 00/M02 A2994 RMK AO2 SLP152 P0000 T00001017
HIE,2017-04-01 03:55,-71.5445,44.3676,M,M,M,10.00,4.00,M,29.95,M,1.75,M,OVC,M,M,M,1800.00,M,M,M,-SN BR,KHIE 010355Z AUTO 01004KT 2SM -SN BR OVC018 A2995 RMK MADISHF
HIE,2017-04-01 04:00,-71.5445,44.3676,M,M,M,0.00,0.00,M,29.95,M,1.75,M,OVC,M,M,M,1800.00,M,M,M,-SN BR,KHIE 010400Z AUTO 00000KT 2SM -SN BR OVC018 A2995 RMK MADISHF
HIE,2017-04-01 04:05,-71.5445,44.3676,M,M,M,0.00,0.00,M,29.94,M,1.50,M,FEW,OVC,M,M,1400.00,1800.00,M,M,-SN BR,KHIE 010405Z AUTO 00000KT 1 1/2SM -SN BR FEW014 OVC018 A2994 RMK MADISHF
HIE,2017-04-01 04:15,-71.5445,44.3676,M,M,M,300.00,3.00,M,29.94,M,1.50,M,FEW,BKN,OVC,M,1400.00,1999.00,2400.00,M,-SN BR,KHIE 010415Z AUTO 30003KT 1 1/2SM -SN BR FEW014 BKN019 OVC024 A2994 RMK MADISHF
HIE,2017-04-01 04:20,-71.5445,44.3676,M,M,M,280.00,3.00,M,29.94,M,1.50,M,FEW,BKN,OVC,M,1200.00,1999.00,2400.00,M,-SN BR,KHIE 010420Z AUTO 28003KT 1 1/2SM -SN BR FEW012 BKN019 OVC024 A2994 RMK MADISHF
HIE,2017-04-01 04:25,-71.5445,44.3676,M,M,M,300.00,4.00,M,29.94,M,1.50,M,FEW,OVC,M,M,1200.00,1999.00,M,M,-SN BR,KHIE 010425Z AUTO 30004KT 1 1/2SM -SN BR FEW012 OVC019 A2994 RMK MADISHF
HIE,2017-04-01 04:35,-71.5445,44.3676,M,M,M,290.00,4.00,M,29.94,M,1.75,M,BKN,OVC,M,M,1699.00,2300.00,M,M,-SN BR,KHIE 010435Z AUTO 29004KT 2SM -SN BR BKN016 OVC023 A2994 RMK MADISHF
HIE,2017-04-01 04:40,-71.5445,44.3676,M,M,M,300.00,4.00,M,29.94,M,1.50,M,BKN,OVC,M,M,1699.00,2300.00,M,M,-SN BR,KHIE 010440Z AUTO 30004KT 1 1/2SM -SN BR BKN016 OVC023 A2994 RMK MADISHF
HIE,2017-04-01 04:45,-71.5445,44.3676,M,M,M,280.00,4.00,M,29.94,M,1.25,M,BKN,OVC,M,M,1699.00,2300.00,M,M,-SN BR,KHIE 010445Z AUTO 28004KT 1 1/2SM -SN BR BKN016 OVC023 A2994 RMK MADISHF
HIE,2017-04-01 04:50,-71.5445,44.3676,M,M,M,310.00,5.00,M,29.94,M,1.25,M,BKN,OVC,M,M,1699.00,2600.00,M,M,-SN BR,KHIE 010450Z AUTO 31005KT 1 1/2SM -SN BR BKN016 OVC026 A2994 RMK MADISHF
HIE,2017-04-01 04:52,-71.5445,44.3676,32.00,28.90,88.17,320.00,5.00,0.01,29.93,1014.90,1.50,M,BKN,OVC,M,M,1700.00,2400.00,M,M,-SN BR,KHIE 010452Z AUTO 32005KT 1 1/2SM -SN BR BKN017 OVC024 00/M02 A2993 RMK AO2 SLP149 P0001 T00001017 400501006
HIE,2017-04-01 04:55,-71.5445,44.3676,M,M,M,320.00,5.00,M,29.94,M,1.50,M,BKN,OVC,M,M,1699.00,2600.00,M,M,-SN BR,KHIE 010455Z AUTO 32005KT 1 1/2SM -SN BR BKN016 OVC026 A2994 RMK MADISHF
HIE,2017-04-01 05:00,-71.5445,44.3676,M,M,M,330.00,4.00,M,29.93,M,1.50,M,BKN,OVC,M,M,1699.00,2600.00,M,M,-SN BR,KHIE 010500Z AUTO 33004KT 1 1/2SM -SN BR BKN016 OVC026 A2993 RMK MADISHF
HIE,2017-04-01 05:05,-71.5445,44.3676,M,M,M,320.00,4.00,M,29.93,M,1.75,M,BKN,OVC,M,M,1900.00,2800.00,M,M,-SN BR,KHIE 010505Z AUTO 32004KT 2SM -SN BR BKN019 OVC028 A2993 RMK MADISHF
HIE,2017-04-01 05:10,-71.5445,44.3676,M,M,M,320.00,5.00,M,29.93,M,2.00,M,BKN,OVC,M,M,2400.00,3000.00,M,M,-SN BR,KHIE 010510Z AUTO 32005KT 2SM -SN BR BKN024 OVC030 A2993 RMK MADISHF
HIE,2017-04-01 05:14,-71.5445,44.3676,32.00,28.90,88.17,310.00,4.00,0.00,29.93,M,2.50,M,BKN,OVC,M,M,2400.00,3000.00,M,M,-SN BR,KHIE 010514Z AUTO 31004KT 2 1/2SM -SN BR BKN024 OVC030 00/M02 A2993 RMK AO2 P0000 T00001017
HIE,2017-04-01 05:15,-71.5445,44.3676,M,M,M,320.00,4.00,M,29.92,M,2.50,M,BKN,OVC,M,M,2400.00,3000.00,M,M,-SN BR,KHIE 010515Z AUTO 32004KT 2 1/2SM -SN BR BKN024 OVC030 A2992 RMK MADISHF
HIE,2017-04-01 05:20,-71.5445,44.3676,M,M,M,320.00,4.00,M,29.92,M,2.00,M,FEW,BKN,OVC,M,1800.00,2400.00,3100.00,M,-SN BR,KHIE 010520Z AUTO 32004KT 2SM -SN BR FEW018 BKN024 OVC031 A2992 RMK MADISHF
HIE,2017-04-01 05:25,-71.5445,44.3676,M,M,M,320.00,4.00,M,29.92,M,1.75,M,BKN,OVC,M,M,2200.00,3100.00,M,M,-SN BR,KHIE 010525Z AUTO 32004KT 2SM -SN BR BKN022 OVC031 A2992 RMK MADISHF
HIE,2017-04-01 05:31,-71.5445,44.3676,32.00,28.90,88.17,350.00,3.00,0.00,29.92,M,1.50,M,FEW,BKN,OVC,M,900.00,2000.00,3000.00,M,-SN BR,KHIE 010531Z AUTO 35003KT 1 1/2SM -SN BR FEW009 BKN020 OVC030 00/M02 A2992 RMK AO2 P0000 T00001017
HIE,2017-04-01 05:35,-71.5445,44.3676,M,M,M,350.00,3.00,M,29.92,M,1.50,M,FEW,BKN,OVC,M,900.00,1999.00,3000.00,M,-SN BR,KHIE 010535Z AUTO 35003KT 1 1/2SM -SN BR FEW009 BKN019 OVC030 A2992 RMK MADISHF
HIE,2017-04-01 05:40,-71.5445,44.3676,M,M,M,0.00,0.00,M,29.92,M,1.50,M,FEW,OVC,M,M,900.00,1999.00,M,M,-SN BR,KHIE 010540Z AUTO 00000KT 1 1/2SM -SN BR FEW009 OVC019 A2992 RMK MADISHF
HIE,2017-04-01 05:45,-71.5445,44.3676,M,M,M,290.00,3.00,M,29.92,M,1.50,M,FEW,OVC,M,M,900.00,1800.00,M,M,-SN BR,KHIE 010545Z AUTO 29003KT 1 1/2SM -SN BR FEW009 OVC018 A2992 RMK MADISHF
HIE,2017-04-01 05:50,-71.5445,44.3676,M,M,M,290.00,4.00,M,29.91,M,1.25,M,FEW,FEW,OVC,M,499.00,999.00,1600.00,M,-SN BR,KHIE 010550Z AUTO 29004KT 1 1/2SM -SN BR FEW004 FEW009 OVC016 A2991 RMK MADISHF
HIE,2017-04-01 05:52,-71.5445,44.3676,32.00,28.90,88.17,290.00,3.00,0.00,29.91,1014.10,1.25,M,FEW,FEW,OVC,M,500.00,1000.00,1600.00,M,-SN BR,KHIE 010552Z AUTO 29003KT 1 1/4SM -SN BR FEW005 FEW010 OVC016 00/M02 A2991 RMK AO2 SLP141 P0000 60002 T00001017 10006 21006 56017
HIE,2017-04-01 05:55,-71.5445,44.3676,M,M,M,290.00,4.00,M,29.91,M,1.25,M,FEW,FEW,OVC,M,499.00,999.00,1600.00,M,-SN BR,KHIE 010555Z AUTO 29004KT 1 1/2SM -SN BR FEW004 FEW009 OVC016 A2991 RMK MADISHF
HIE,2017-04-01 06:00,-71.5445,44.3676,M,M,M,290.00,3.00,M,29.91,M,1.25,M,FEW,OVC,M,M,499.00,1600.00,M,M,-SN BR,KHIE 010600Z AUTO 29003KT 1 1/2SM -SN BR FEW004 OVC016 A2991 RMK MADISHF
HIE,2017-04-01 06:09,-71.5445,44.3676,32.00,28.90,88.17,290.00,3.00,0.00,29.91,M,1.00,M,FEW,OVC,M,M,500.00,1400.00,M,M,-SN BR,KHIE 010609Z AUTO 29003KT 1SM -SN BR FEW005 OVC014 00/M02 A2991 RMK AO2 P0000 T00001017
HIE,2017-04-01 06:10,-71.5445,44.3676,M,M,M,300.00,3.00,M,29.91,M,1.00,M,FEW,OVC,M,M,499.00,1400.00,M,M,-SN BR,KHIE 010610Z AUTO 30003KT 1SM -SN BR FEW004 OVC014 A2991 RMK MADISHF
HIE,2017-04-01 06:15,-71.5445,44.3676,M,M,M,320.00,3.00,M,29.91,M,1.00,M,FEW,OVC,M,M,499.00,1400.00,M,M,-SN BR,KHIE 010615Z AUTO 32003KT 1SM -SN BR FEW004 OVC014 A2991 RMK MADISHF
HIE,2017-04-01 06:20,-71.5445,44.3676,M,M,M,300.00,4.00,M,29.91,M,1.00,M,FEW,OVC,M,M,499.00,1300.00,M,M,-SN BR,KHIE 010620Z AUTO 30004KT 1SM -SN BR FEW004 OVC013 A2991 RMK MADISHF
HIE,2017-04-01 06:25,-71.5445,44.3676,M,M,M,290.00,4.00,M,29.90,M,1.00,M,FEW,OVC,M,M,300.00,1300.00,M,M,-SN BR,KHIE 010625Z AUTO 29004KT 1SM -SN BR FEW003 OVC013 A2990 RMK MADISHF
HIE,2017-04-01 06:30,-71.5445,44.3676,M,M,M,300.00,4.00,M,29.90,M,1.00,M,FEW,OVC,M,M,300.00,1300.00,M,M,-SN BR,KHIE 010630Z AUTO 30004KT 1SM -SN BR FEW003 OVC013 A2990 RMK MADISHF
HIE,2017-04-01 06:35,-71.5445,44.3676,M,M,M,300.00,5.00,M,29.90,M,1.00,M,FEW,OVC,M,M,300.00,1200.00,M,M,-SN BR,KHIE 010635Z AUTO 30005KT 1SM -SN BR FEW003 OVC012 A2990 RMK MADISHF
HIE,2017-04-01 06:40,-71.5445,44.3676,M,M,M,280.00,4.00,M,29.90,M,1.25,M,FEW,FEW,OVC,M,300.00,999.00,1400.00,M,-SN BR,KHIE 010640Z AUTO 28004KT 1 1/2SM -SN BR FEW003 FEW009 OVC014 A2990 RMK MADISHF
HIE,2017-04-01 06:44,-71.5445,44.3676,32.00,28.90,88.17,0.00,0.00,0.00,29.90,M,1.50,M,FEW,FEW,OVC,M,300.00,1000.00,1400.00,M,-SN BR,KHIE 010644Z AUTO 00000KT 1 1/2SM -SN BR FEW003 FEW010 OVC014 00/M02 A2990 RMK AO2 P0000 T00001017
HIE,2017-04-01 06:45,-71.5445,44.3676,M,M,M,0.00,0.00,M,29.90,M,1.50,M,FEW,FEW,OVC,M,300.00,999.00,1400.00,M,-SN BR,KHIE 010645Z AUTO 00000KT 1 1/2SM -SN BR FEW003 FEW009 OVC014 A2990 RMK MADISHF
HIE,2017-04-01 06:50,-71.5445,44.3676,M,M,M,300.00,3.00,M,29.90,M,1.50,M,FEW,FEW,OVC,M,300.00,999.00,1500.00,M,-SN BR,KHIE 010650Z AUTO 30003KT 1 1/2SM -SN BR FEW003 FEW009 OVC015 A2990 RMK MADISHF
HIE,2017-04-01 06:52,-71.5445,44.3676,32.00,28.90,88.17,300.00,3.00,0.00,29.90,1013.60,1.25,M,FEW,FEW,OVC,M,300.00,1000.00,1500.00,M,-SN BR,KHIE 010652Z AUTO 30003KT 1 1/4SM -SN BR FEW003 FEW010 OVC015 00/M02 A2990 RMK AO2 SLP136 P0000 T00001017
HIE,2017-04-01 06:55,-71.5445,44.3676,M,M,M,310.00,3.00,M,29.90,M,1.25,M,FEW,OVC,M,M,999.00,1500.00,M,M,-SN BR,KHIE 010655Z AUTO 31003KT 1 1/2SM -SN BR FEW009 OVC015 A2990 RMK MADISHF
HIE,2017-04-01 07:00,-71.5445,44.3676,M,M,M,290.00,3.00,M,29.90,M,1.00,M,VV ,M,M,M,1400.00,M,M,M,-SN BR,KHIE 010700Z AUTO 29003KT 1SM -SN BR VV014 A2990 RMK MADISHF
HIE,2017-04-01 07:04,-71.5445,44.3676,32.00,28.90,88.17,280.00,3.00,0.00,29.89,M,1.00,M,VV ,M,M,M,1300.00,M,M,M,-SN BR,KHIE 010704Z AUTO 28003KT 1SM -SN BR VV013 00/M02 A2989 RMK AO2 P0000 T00001017
HIE,2017-04-01 07:05,-71.5445,44.3676,M,M,M,280.00,3.00,M,29.89,M,1.00,M,VV ,M,M,M,1300.00,M,M,M,-SN BR,KHIE 010705Z AUTO 28003KT 1SM -SN BR VV013 A2989 RMK MADISHF
HIE,2017-04-01 07:10,-71.5445,44.3676,M,M,M,290.00,3.00,M,29.89,M,0.75,M,VV ,M,M,M,1200.00,M,M,M,-SN BR,KHIE 010710Z AUTO 29003KT 1SM -SN BR VV012 A2989 RMK MADISHF
HIE,2017-04-01 07:13,-71.5445,44.3676,32.00,28.90,88.17,0.00,0.00,0.00,29.90,M,0.75,M,VV ,M,M,M,1200.00,M,M,M,-SN BR,KHIE 010713Z AUTO 00000KT 3/4SM -SN BR VV012 00/M02 A2990 RMK AO2 P0000 T00001017
HIE,2017-04-01 07:15,-71.5445,44.3676,M,M,M,0.00,0.00,M,29.90,M,0.75,M,VV ,M,M,M,1200.00,M,M,M,-SN BR,KHIE 010715Z AUTO 00000KT 1SM -SN BR VV012 A2990 RMK MADISHF
HIE,2017-04-01 07:20,-71.5445,44.3676,M,M,M,0.00,0.00,M,29.89,M,0.75,M,VV ,M,M,M,1300.00,M,M,M,-SN BR,KHIE 010720Z AUTO 00000KT 1SM -SN BR VV013 A2989 RMK MADISHF
HIE,2017-04-01 07:25,-71.5445,44.3676,M,M,M,290.00,3.00,M,29.89,M,1.00,M,VV ,M,M,M,1400.00,M,M,M,-SN BR,KHIE 010725Z AUTO 29003KT 1SM -SN BR VV014 A2989 RMK MADISHF
HIE,2017-04-01 07:28,-71.5445,44.3676,32.00,28.90,88.17,0.00,0.00,0.00,29.89,M,1.25,M,OVC,M,M,M,1400.00,M,M,M,-SN BR,KHIE 010728Z AUTO 00000KT 1 1/4SM -SN BR OVC014 00/M02 A2989 RMK AO2 P0000 T00001017
HIE,2017-04-01 07:30,-71.5445,44.3676,M,M,M,0.00,0.00,M,29.89,M,1.25,M,OVC,M,M,M,1400.00,M,M,M,-SN BR,KHIE 010730Z AUTO 00000KT 1 1/2SM -SN BR OVC014 A2989 RMK MADISHF
HIE,2017-04-01 07:35,-71.5445,44.3676,M,M,M,0.00,0.00,M,29.89,M,1.25,M,OVC,M,M,M,1400.00,M,M,M,-SN BR,KHIE 010735Z AUTO 00000KT 1 1/2SM -SN BR OVC014 A2989 RMK MADISHF
HIE,2017-04-01 07:40,-71.5445,44.3676,M,M,M,0.00,0.00,M,29.89,M,1.00,M,VV ,M,M,M,1400.00,M,M,M,-SN BR,KHIE 010740Z AUTO 00000KT 1SM -SN BR VV014 A2989 RMK MADISHF
HIE,2017-04-01 07:42,-71.5445,44.3676,32.00,28.90,88.17,0.00,0.00,0.01,29.89,M,1.00,M,VV ,M,M,M,1400.00,M,M,M,-SN BR,KHIE 010742Z AUTO 00000KT 1SM -SN BR VV014 00/M02 A2989 RMK AO2 P0001 T00001017
HIE,2017-04-01 07:45,-71.5445,44.3676,M,M,M,0.00,0.00,0.01,29.89,M,1.00,M,VV ,M,M,M,1400.00,M,M,M,-SN BR,KHIE 010745Z AUTO 00000KT 1SM -SN BR VV014 A2989 RMK P0001 MADISHF
HIE,2017-04-01 07:50,-71.5445,44.3676,M,M,M,0.00,0.00,0.01,29.89,M,1.00,M,VV ,M,M,M,1400.00,M,M,M,-SN BR,KHIE 010750Z AUTO 00000KT 1SM -SN BR VV014 A2989 RMK P0001 MADISHF
HIE,2017-04-01 07:52,-71.5445,44.3676,32.00,28.90,88.17,0.00,0.00,0.01,29.89,1013.30,1.00,M,VV ,M,M,M,1400.00,M,M,M,-SN BR,KHIE 010752Z AUTO 00000KT 1SM -SN BR VV014 00/M02 A2989 RMK AO2 SLP133 P0001 T00001017
HIE,2017-04-01 07:55,-71.5445,44.3676,M,M,M,0.00,0.00,M,29.88,M,1.00,M,VV ,M,M,M,1300.00,M,M,M,-SN BR,KHIE 010755Z AUTO 00000KT 1SM -SN BR VV013 A2988 RMK MADISHF
HIE,2017-04-01 08:00,-71.5445,44.3676,M,M,M,0.00,0.00,M,29.89,M,1.00,M,VV ,M,M,M,1300.00,M,M,M,-SN BR,KHIE 010800Z AUTO 00000KT 1SM -SN BR VV013 A2989 RMK MADISHF
HIE,2017-04-01 08:05,-71.5445,44.3676,M,M,M,0.00,0.00,M,29.89,M,1.00,M,VV ,M,M,M,1400.00,M,M,M,-SN BR,KHIE 010805Z AUTO 00000KT 1SM -SN BR VV014 A2989 RMK MADISHF
HIE,2017-04-01 08:10,-71.5445,44.3676,M,M,M,0.00,0.00,M,29.88,M,1.25,M,BKN,OVC,M,M,1400.00,1999.00,M,M,-SN BR,KHIE 010810Z AUTO 00000KT 1 1/2SM -SN BR BKN014 OVC019 A2988 RMK MADISHF
HIE,2017-04-01 08:12,-71.5445,44.3676,32.00,30.00,92.22,0.00,0.00,0.00,29.88,M,1.25,M,BKN,OVC,M,M,1400.00,2000.00,M,M,-SN BR,KHIE 010812Z AUTO 00000KT 1 1/4SM -SN BR BKN014 OVC020 00/M01 A2988 RMK AO2 P0000 T00001011
HIE,2017-04-01 08:15,-71.5445,44.3676,M,M,M,0.00,0.00,M,29.89,M,1.50,M,BKN,OVC,M,M,1400.00,1999.00,M,M,-SN BR,KHIE 010815Z AUTO 00000KT 1 1/2SM -SN BR BKN014 OVC019 A2989 RMK MADISHF
HIE,2017-04-01 08:20,-71.5445,44.3676,M,M,M,300.00,3.00,M,29.88,M,1.50,M,BKN,OVC,M,M,1699.00,2300.00,M,M,-SN BR,KHIE 010820Z AUTO 30003KT 1 1/2SM -SN BR BKN016 OVC023 A2988 RMK MADISHF
HIE,2017-04-01 08:23,-71.5445,44.3676,32.00,28.00,84.98,320.00,3.00,0.00,29.88,M,1.75,M,OVC,M,M,M,1900.00,M,M,M,-SN BR,KHIE 010823Z AUTO 32003KT 1 3/4SM -SN BR OVC019 00/M02 A2988 RMK AO2 P0000 T00001022
HIE,2017-04-01 08:30,-71.5445,44.3676,M,M,M,0.00,0.00,M,29.88,M,2.50,M,BKN,OVC,M,M,1900.00,2600.00,M,M,-SN BR,KHIE 010830Z AUTO 00000KT 2 1/2SM -SN BR BKN019 OVC026 A2988 RMK MADISHF
HIE,2017-04-01 08:32,-71.5445,44.3676,32.00,28.90,88.17,0.00,0.00,0.00,29.88,M,2.50,M,BKN,OVC,M,M,1900.00,2600.00,M,M,-SN BR,KHIE 010832Z AUTO 00000KT 2 1/2SM -SN BR BKN019 OVC026 00/M02 A2988 RMK AO2 P0000 T00001017
HIE,2017-04-01 08:35,-71.5445,44.3676,M,M,M,0.00,0.00,M,29.88,M,2.50,M,BKN,OVC,M,M,1900.00,2600.00,M,M,-SN BR,KHIE 010835Z AUTO 00000KT 2 1/2SM -SN BR BKN019 OVC026 A2988 RMK MADISHF
HIE,2017-04-01 08:40,-71.5445,44.3676,M,M,M,0.00,0.00,M,29.88,M,2.50,M,FEW,SCT,OVC,M,900.00,1600.00,2100.00,M,-SN BR,KHIE 010840Z AUTO 00000KT 2 1/2SM -SN BR FEW009 SCT016 OVC021 A2988 RMK MADISHF
HIE,2017-04-01 08:43,-71.5445,44.3676,32.00,28.90,88.17,0.00,0.00,0.00,29.88,M,2.00,M,SCT,OVC,M,M,900.00,1900.00,M,M,-SN BR,KHIE 010843Z AUTO 00000KT 2SM -SN BR SCT009 OVC019 00/M02 A2988 RMK AO2 P0000 T00001017
HIE,2017-04-01 08:50,-71.5445,44.3676,M,M,M,0.00,0.00,M,29.88,M,1.50,M,FEW,OVC,M,M,900.00,1900.00,M,M,-SN BR,KHIE 010850Z AUTO 00000KT 1 1/2SM -SN BR FEW009 OVC019 A2988 RMK MADISHF
HIE,2017-04-01 08:52,-71.5445,44.3676,32.00,28.90,88.17,0.00,0.00,0.00,29.88,1013.10,1.50,M,FEW,OVC,M,M,900.00,1900.00,M,M,-SN BR,KHIE 010852Z AUTO 00000KT 1 1/2SM -SN BR FEW009 OVC019 00/M02 A2988 RMK AO2 SLP131 P0000 60001 T00001017 56006
HIE,2017-04-01 08:55,-71.5445,44.3676,M,M,M,0.00,0.00,M,29.88,M,1.50,M,FEW,BKN,OVC,M,900.00,1900.00,2400.00,M,-SN BR,KHIE 010855Z AUTO 00000KT 1 1/2SM -SN BR FEW009 BKN019 OVC024 A2988 RMK MADISHF
HIE,2017-04-01 09:00,-71.5445,44.3676,M,M,M,40.00,3.00,M,29.88,M,2.00,M,FEW,BKN,OVC,M,900.00,1900.00,2400.00,M,-SN BR,KHIE 010900Z AUTO 04003KT 2SM -SN BR FEW009 BKN019 OVC024 A2988 RMK MADISHF
HIE,2017-04-01 09:05,-71.5445,44.3676,M,M,M,60.00,3.00,M,29.88,M,2.50,M,FEW,OVC,M,M,900.00,1900.00,M,M,-SN BR,KHIE 010905Z AUTO 06003KT 2 1/2SM -SN BR FEW009 OVC019 A2988 RMK MADISHF
HIE,2017-04-01 09:06,-71.5445,44.3676,32.00,28.90,88.17,60.00,3.00,0.00,29.88,M,2.50,M,FEW,OVC,M,M,900.00,1900.00,M,M,-SN BR,KHIE 010906Z AUTO 06003KT 2 1/2SM -SN BR FEW009 OVC019 00/M02 A2988 RMK AO2 P0000 T00001017
HIE,2017-04-01 09:10,-71.5445,44.3676,M,M,M,60.00,3.00,M,29.88,M,2.50,M,FEW,OVC,M,M,900.00,2100.00,M,M,-SN BR,KHIE 010910Z AUTO 06003KT 2 1/2SM -SN BR FEW009 OVC021 A2988 RMK MADISHF
HIE,2017-04-01 09:15,-71.5445,44.3676,M,M,M,0.00,0.00,M,29.88,M,3.00,M,FEW,OVC,M,M,2100.00,2700.00,M,M,-SN BR,KHIE 010915Z AUTO 00000KT 3SM -SN BR FEW021 OVC027 A2988 RMK MADISHF
HIE,2017-04-01 09:17,-71.5445,44.3676,32.00,28.90,88.17,0.00,0.00,0.00,29.88,M,3.00,M,FEW,SCT,OVC,M,1900.00,2700.00,3200.00,M,-SN BR,KHIE 010917Z AUTO 00000KT 3SM -SN BR FEW019 SCT027 OVC032 00/M02 A2988 RMK AO2 P0000 T00001017
HIE,2017-04-01 09:20,-71.5445,44.3676,M,M,M,0.00,0.00,0.01,29.89,M,3.00,M,FEW,BKN,OVC,M,2200.00,2700.00,3399.00,M,-SN BR,KHIE 010920Z AUTO 00000KT 3SM -SN BR FEW022 BKN027 OVC033 A2989 RMK P0001 MADISHF
HIE,2017-04-01 09:25,-71.5445,44.3676,M,M,M,0.00,0.00,0.01,29.89,M,3.00,M,FEW,BKN,OVC,M,1999.00,2700.00,3600.00,M,-SN BR,KHIE 010925Z AUTO 00000KT 3SM -SN BR FEW019 BKN027 OVC036 A2989 RMK P0001 MADISHF
HIE,2017-04-01 09:30,-71.5445,44.3676,32.00,28.90,88.17,0.00,0.00,0.01,29.89,M,3.00,M,FEW,BKN,OVC,M,2000.00,2900.00,3600.00,M,-SN BR,KHIE 010930Z AUTO 00000KT 3SM -SN BR FEW020 BKN029 OVC036 00/M02 A2989 RMK AO2 P0001 T00001017
HIE,2017-04-01 09:35,-71.5445,44.3676,M,M,M,0.00,0.00,0.01,29.89,M,3.00,M,FEW,BKN,OVC,M,2200.00,2900.00,3900.00,M,-SN BR,KHIE 010935Z AUTO 00000KT 3SM -SN BR FEW022 BKN029 OVC039 A2989 RMK P0001 MADISHF
HIE,2017-04-01 09:40,-71.5445,44.3676,M,M,M,80.00,4.00,0.01,29.89,M,3.00,M,FEW,BKN,OVC,M,2200.00,2900.00,3900.00,M,-SN BR,KHIE 010940Z AUTO 08004KT 3SM -SN BR FEW022 BKN029 OVC039 A2989 RMK P0001 MADISHF
HIE,2017-04-01 09:45,-71.5445,44.3676,M,M,M,70.00,5.00,0.01,29.89,M,3.00,M,FEW,BKN,OVC,M,1999.00,2900.00,3700.00,M,-SN,KHIE 010945Z AUTO 07005KT 3SM -SN FEW019 BKN029 OVC037 A2989 RMK P0001 MADISHF
HIE,2017-04-01 09:50,-71.5445,44.3676,M,M,M,60.00,6.00,0.01,29.89,M,2.50,M,FEW,OVC,M,M,1999.00,2900.00,M,M,-SN,KHIE 010950Z AUTO 06006KT 2 1/2SM -SN FEW019 OVC029 A2989 RMK P0001 MADISHF
HIE,2017-04-01 09:52,-71.5445,44.3676,33.10,27.00,78.03,60.00,7.00,0.01,29.89,1013.40,2.50,M,OVC,M,M,M,2900.00,M,M,M,-SN,KHIE 010952Z AUTO 06007KT 2 1/2SM -SN OVC029 01/M03 A2989 RMK AO2 SLP134 P0001 T00061028
HIE,2017-04-01 09:55,-71.5445,44.3676,M,M,M,70.00,9.00,M,29.89,M,2.50,M,FEW,OVC,M,M,1999.00,2900.00,M,M,-SN,KHIE 010955Z AUTO 07009KT 2 1/2SM -SN FEW019 OVC029 A2989 RMK MADISHF
HIE,2017-04-01 10:00,-71.5445,44.3676,M,M,M,80.00,6.00,M,29.89,M,2.00,M,SCT,OVC,M,M,2300.00,2900.00,M,M,-SN,KHIE 011000Z AUTO 08006KT 2SM -SN SCT023 OVC029 A2989 RMK MADISHF
HIE,2017-04-01 10:05,-71.5445,44.3676,M,M,M,80.00,7.00,M,29.89,M,1.50,M,BKN,OVC,M,M,2100.00,2900.00,M,M,-SN,KHIE 011005Z AUTO 08007KT 1 1/2SM -SN BKN021 OVC029 A2989 RMK MADISHF
HIE,2017-04-01 10:08,-71.5445,44.3676,32.00,27.00,81.55,80.00,8.00,0.00,29.89,M,1.50,M,BKN,OVC,M,M,2100.00,2900.00,M,M,-SN,KHIE 011008Z AUTO 08008KT 1 1/2SM -SN BKN021 OVC029 00/M03 A2989 RMK AO2 P0000 T00001028
HIE,2017-04-01 10:10,-71.5445,44.3676,M,M,M,90.00,7.00,M,29.89,M,1.25,M,BKN,OVC,M,M,2100.00,2900.00,M,M,-SN,KHIE 011010Z AUTO 09007KT 1 1/2SM -SN BKN021 OVC029 A2989 RMK MADISHF
HIE,2017-04-01 10:15,-71.5445,44.3676,M,M,M,70.00,6.00,M,29.90,M,1.00,M,VV ,M,M,M,1900.00,M,M,M,-SN,KHIE 011015Z AUTO 07006KT 1SM -SN VV019 A2990 RMK MADISHF
HIE,2017-04-01 10:20,-71.5445,44.3676,32.00,27.00,81.55,70.00,6.00,0.00,29.90,M,1.00,M,VV ,M,M,M,1700.00,M,M,M,-SN,KHIE 011020Z AUTO 07006KT 1SM -SN VV017 00/M03 A2990 RMK AO2 P0000 T00001028
HIE,2017-04-01 10:25,-71.5445,44.3676,M,M,M,60.00,6.00,M,29.90,M,1.00,M,VV ,M,M,M,1600.00,M,M,M,-SN,KHIE 011025Z AUTO 06006KT 1SM -SN VV016 A2990 RMK MADISHF
HIE,2017-04-01 10:30,-71.5445,44.3676,M,M,M,60.00,6.00,M,29.90,M,1.00,M,VV ,M,M,M,1600.00,M,M,M,-SN,KHIE 011030Z AUTO 06006KT 1SM -SN VV016 A2990 RMK MADISHF
HIE,2017-04-01 10:35,-71.5445,44.3676,M,M,M,60.00,6.00,0.01,29.90,M,1.25,M,OVC,M,M,M,1600.00,M,M,M,-SN,KHIE 011035Z AUTO 06006KT 1 1/2SM -SN OVC016 A2990 RMK P0001 MADISHF
HIE,2017-04-01 10:37,-71.5445,44.3676,32.00,27.00,81.55,60.00,6.00,0.01,29.90,M,1.25,M,OVC,M,M,M,1600.00,M,M,M,-SN,KHIE 011037Z AUTO 06006KT 1 1/4SM -SN OVC016 00/M03 A2990 RMK AO2 P0001 T00001028
HIE,2017-04-01 10:40,-71.5445,44.3676,M,M,M,70.00,5.00,0.01,29.90,M,1.25,M,OVC,M,M,M,1600.00,M,M,M,-SN,KHIE 011040Z AUTO 07005KT 1 1/2SM -SN OVC016 A2990 RMK P0001 MADISHF
HIE,2017-04-01 10:45,-71.5445,44.3676,M,M,M,80.00,5.00,0.01,29.90,M,1.00,M,VV ,M,M,M,1500.00,M,M,M,-SN,KHIE 011045Z AUTO 08005KT 1SM -SN VV015 A2990 RMK P0001 MADISHF
HIE,2017-04-01 10:47,-71.5445,44.3676,32.00,26.60,80.22,90.00,5.00,0.01,29.90,M,0.75,M,VV ,M,M,M,1400.00,M,M,M,-SN,KHIE 011047Z AUTO 09005KT 3/4SM -SN VV014 00/M03 A2990 RMK AO2 P0001
HIE,2017-04-01 10:50,-71.5445,44.3676,M,M,M,60.00,5.00,0.01,29.90,M,0.50,M,VV ,M,M,M,1300.00,M,M,M,SN,KHIE 011050Z AUTO 06005KT 1/2SM SN VV013 A2990 RMK P0001 MADISHF
HIE,2017-04-01 10:52,-71.5445,44.3676,32.00,27.00,81.55,60.00,6.00,0.01,29.90,1013.80,0.50,M,VV ,M,M,M,1300.00,M,M,M,SN,KHIE 011052Z AUTO 06006KT 1/2SM SN VV013 00/M03 A2990 RMK AO2 SLP138 P0001 T00001028
HIE,2017-04-01 10:55,-71.5445,44.3676,M,M,M,50.00,5.00,M,29.90,M,0.50,M,VV ,M,M,M,1300.00,M,M,M,SN FZFG,KHIE 011055Z AUTO 05005KT 1/2SM SN FZFG VV013 A2990 RMK MADISHF
HIE,2017-04-01 11:00,-71.5445,44.3676,M,M,M,80.00,4.00,M,29.90,M,0.50,M,BKN,OVC,M,M,1300.00,1999.00,M,M,SN,KHIE 011100Z AUTO 08004KT 1/2SM SN BKN013 OVC019 A2990 RMK MADISHF
HIE,2017-04-01 11:07,-71.5445,44.3676,32.00,27.00,81.55,80.00,6.00,0.00,29.90,M,1.00,M,SCT,BKN,OVC,M,1300.00,1800.00,2800.00,M,-SN,KHIE 011107Z AUTO 08006KT 1SM -SN SCT013 BKN018 OVC028 00/M03 A2990 RMK AO2 P0000 T00001028
HIE,2017-04-01 11:10,-71.5445,44.3676,M,M,M,90.00,5.00,M,29.90,M,1.00,M,SCT,BKN,OVC,M,1300.00,1999.00,2800.00,M,-SN,KHIE 011110Z AUTO 09005KT 1SM -SN SCT013 BKN019 OVC028 A2990 RMK MADISHF
HIE,2017-04-01 11:15,-71.5445,44.3676,M,M,M,80.00,4.00,M,29.90,M,1.25,M,SCT,BKN,OVC,M,1300.00,1999.00,3000.00,M,-SN,KHIE 011115Z AUTO 08004KT 1 1/2SM -SN SCT013 BKN019 OVC030 A2990 RMK MADISHF
HIE,2017-04-01 11:18,-71.5445,44.3676,32.00,27.00,81.55,90.00,3.00,0.00,29.91,M,1.50,M,FEW,BKN,OVC,M,1300.00,2000.00,3000.00,M,-SN,KHIE 011118Z AUTO 09003KT 1 1/2SM -SN FEW013 BKN020 OVC030 00/M03 A2991 RMK AO2 P0000 T00001028
HIE,2017-04-01 11:20,-71.5445,44.3676,M,M,M,80.00,5.00,M,29.91,M,1.75,M,FEW,BKN,OVC,M,1300.00,1999.00,3000.00,M,-SN,KHIE 011120Z AUTO 08005KT 2SM -SN FEW013 BKN019 OVC030 A2991 RMK MADISHF
HIE,2017-04-01 11:25,-71.5445,44.3676,M,M,M,90.00,10.00,M,29.91,M,2.50,M,BKN,OVC,M,M,1800.00,3000.00,M,M,-SN,KHIE 011125Z AUTO 09010KT 2 1/2SM -SN BKN018 OVC030 A2991 RMK MADISHF
HIE,2017-04-01 11:26,-71.5445,44.3676,32.00,26.10,78.58,90.00,11.00,0.00,29.91,M,3.00,16.00,BKN,OVC,M,M,1800.00,3000.00,M,M,-SN,KHIE 011126Z AUTO 09011G16KT 3SM -SN BKN018 OVC030 00/M03 A2991 RMK AO2 P0000 T00001033
HIE,2017-04-01 11:30,-71.5445,44.3676,M,M,M,90.00,9.00,M,29.91,M,3.50,M,SCT,SCT,OVC,M,1600.00,2100.00,3200.00,M,-SN,KHIE 011130Z AUTO 09009KT 3SM -SN SCT016 SCT021 OVC032 A2991 RMK MADISHF
HIE,2017-04-01 11:35,-71.5445,44.3676,M,M,M,90.00,9.00,M,29.91,M,4.00,M,SCT,OVC,M,M,1800.00,3200.00,M,M,-SN,KHIE 011135Z AUTO 09009KT 4SM -SN SCT018 OVC032 A2991 RMK MADISHF
HIE,2017-04-01 11:36,-71.5445,44.3676,32.00,26.10,78.58,90.00,9.00,0.00,29.91,M,4.00,M,SCT,OVC,M,M,1800.00,3200.00,M,M,-SN,KHIE 011136Z AUTO 09009KT 4SM -SN SCT018 OVC032 00/M03 A2991 RMK AO2 P0000 T00001033
HIE,2017-04-01 11:40,-71.5445,44.3676,M,M,M,90.00,8.00,M,29.91,M,5.00,M,SCT,OVC,M,M,1800.00,3200.00,M,M,-SN,KHIE 011140Z AUTO 09008KT 5SM -SN SCT018 OVC032 A2991 RMK MADISHF
HIE,2017-04-01 11:45,-71.5445,44.3676,M,M,M,90.00,7.00,M,29.91,M,5.00,M,FEW,BKN,OVC,M,1800.00,3200.00,4400.00,M,-SN,KHIE 011145Z AUTO 09007KT 5SM -SN FEW018 BKN032 OVC044 A2991 RMK MADISHF
HIE,2017-04-01 11:50,-71.5445,44.3676,M,M,M,90.00,9.00,M,29.92,M,4.00,M,FEW,BKN,OVC,M,2100.00,3300.00,4100.00,M,-SN,KHIE 011150Z AUTO 09009KT 4SM -SN FEW021 BKN033 OVC041 A2992 RMK MADISHF
HIE,2017-04-01 11:52,-71.5445,44.3676,32.00,25.00,75.07,90.00,8.00,0.00,29.92,1014.40,3.00,M,FEW,BKN,OVC,M,2100.00,3300.00,4400.00,M,-SN,KHIE 011152Z AUTO 09008KT 3SM -SN FEW021 BKN033 OVC044 00/M04 A2992 RMK AO2 SLP144 P0000 60003 70005 T00001039 10006 21006 53012
HIE,2017-04-01 11:54,-71.5445,44.3676,32.00,25.00,75.07,90.00,8.00,0.00,29.92,M,2.00,M,FEW,BKN,OVC,M,2100.00,2700.00,3300.00,M,-SN,KHIE 011154Z AUTO 09008KT 2SM -SN FEW021 BKN027 OVC033 00/M04 A2992 RMK AO2 P0000 T00001039
HIE,2017-04-01 11:55,-71.5445,44.3676,M,M,M,90.00,9.00,M,29.92,M,1.75,M,FEW,BKN,OVC,M,2100.00,2700.00,3300.00,M,-SN,KHIE 011155Z AUTO 09009KT 2SM -SN FEW021 BKN027 OVC033 A2992 RMK MADISHF
HIE,2017-04-01 11:58,-71.5445,44.3676,32.00,26.10,78.58,90.00,8.00,0.00,29.92,M,1.00,M,BKN,OVC,M,M,2200.00,3300.00,M,M,-SN,KHIE 011158Z AUTO 09008KT 1SM -SN BKN022 OVC033 00/M03 A2992 RMK AO2 P0000 T00001033
HIE,2017-04-01 12:00,-71.5445,44.3676,M,M,M,90.00,8.00,M,29.92,M,1.00,M,BKN,OVC,M,M,1999.00,3300.00,M,M,-SN,KHIE 011200Z AUTO 09008KT 1SM -SN BKN019 OVC033 A2992 RMK MADISHF
HIE,2017-04-01 12:05,-71.5445,44.3676,M,M,M,90.00,8.00,M,29.92,M,0.75,M,BKN,BKN,OVC,M,1800.00,2200.00,3300.00,M,-SN,KHIE 011205Z AUTO 09008KT 1SM -SN BKN018 BKN022 OVC033 A2992 RMK MADISHF
HIE,2017-04-01 12:07,-71.5445,44.3676,32.00,26.10,78.58,80.00,8.00,0.00,29.92,M,0.75,M,BKN,BKN,OVC,M,1600.00,2200.00,3300.00,M,-SN,KHIE 011207Z AUTO 08008KT 3/4SM -SN BKN016 BKN022 OVC033 00/M03 A2992 RMK AO2 P0000 T00001033
HIE,2017-04-01 12:10,-71.5445,44.3676,M,M,M,90.00,9.00,M,29.92,M,0.50,M,BKN,OVC,M,M,1600.00,2100.00,M,M,SN,KHIE 011210Z AUTO 09009KT 1/2SM SN BKN016 OVC021 A2992 RMK MADISHF
HIE,2017-04-01 12:15,-71.5445,44.3676,M,M,M,80.00,11.00,M,29.92,M,0.50,M,VV ,M,M,M,1400.00,M,M,M,SN,KHIE 011215Z AUTO 08011KT 1/2SM SN VV014 A2992 RMK MADISHF
HIE,2017-04-01 12:18,-71.5445,44.3676,32.00,26.10,78.58,90.00,11.00,0.00,29.92,M,0.50,17.00,VV ,M,M,M,1400.00,M,M,M,SN,KHIE 011218Z AUTO 09011G17KT 1/2SM SN VV014 00/M03 A2992 RMK AO2 P0000 T00001033
HIE,2017-04-01 12:20,-71.5445,44.3676,M,M,M,90.00,10.00,M,29.92,M,0.50,M,VV ,M,M,M,1300.00,M,M,M,SN,KHIE 011220Z AUTO 09010KT 1/2SM SN VV013 A2992 RMK MADISHF
HIE,2017-04-01 12:25,-71.5445,44.3676,M,M,M,80.00,11.00,M,29.92,M,0.75,16.00,VV ,M,M,M,1300.00,M,M,M,-SN,KHIE 011225Z AUTO 08011G16KT 1SM -SN VV013 A2992 RMK MADISHF
HIE,2017-04-01 12:30,-71.5445,44.3676,M,M,M,90.00,9.00,M,29.92,M,0.75,M,VV ,M,M,M,1400.00,M,M,M,-SN,KHIE 011230Z AUTO 09009KT 1SM -SN VV014 A2992 RMK MADISHF
HIE,2017-04-01 12:35,-71.5445,44.3676,M,M,M,90.00,13.00,M,29.92,M,0.75,18.00,VV ,M,M,M,1500.00,M,M,M,-SN,KHIE 011235Z AUTO 09013G18KT 1SM -SN VV015 A2992 RMK MADISHF
HIE,2017-04-01 12:37,-71.5445,44.3676,32.00,25.00,75.07,90.00,12.00,0.00,29.92,M,0.75,20.00,VV ,M,M,M,1600.00,M,M,M,-SN,KHIE 011237Z AUTO 09012G20KT 3/4SM -SN VV016 00/M04 A2992 RMK AO2 P0000 T00001039
HIE,2017-04-01 12:44,-71.5445,44.3676,32.00,26.10,78.58,90.00,10.00,0.01,29.92,M,1.25,19.00,OVC,M,M,M,1800.00,M,M,M,-SN,KHIE 011244Z AUTO 09010G19KT 1 1/4SM -SN OVC018 00/M03 A2992 RMK AO2 P0001 T00001033
HIE,2017-04-01 12:45,-71.5445,44.3676,M,M,M,80.00,9.00,0.01,29.92,M,1.25,M,OVC,M,M,M,1800.00,M,M,M,-SN,KHIE 011245Z AUTO 08009KT 1 1/2SM -SN OVC018 A2992 RMK P0001 MADISHF
HIE,2017-04-01 12:50,-71.5445,44.3676,M,M,M,80.00,10.00,0.01,29.92,M,1.25,M,OVC,M,M,M,1800.00,M,M,M,-SN,KHIE 011250Z AUTO 08010KT 1 1/2SM -SN OVC018 A2992 RMK P0001 MADISHF
HIE,2017-04-01 12:52,-71.5445,44.3676,32.00,25.00,75.07,90.00,9.00,0.01,29.92,1014.70,1.25,17.00,OVC,M,M,M,1800.00,M,M,M,-SN,KHIE 011252Z AUTO 09009G17KT 1 1/4SM -SN OVC018 00/M04 A2992 RMK AO2 SLP147 P0001 T00001039
HIE,2017-04-01 12:55,-71.5445,44.3676,M,M,M,90.00,10.00,M,29.93,M,1.00,M,VV ,M,M,M,1699.00,M,M,M,-SN,KHIE 011255Z AUTO 09010KT 1SM -SN VV016 A2993 RMK MADISHF
HIE,2017-04-01 13:00,-71.5445,44.3676,M,M,M,90.00,10.00,M,29.93,M,1.00,M,VV ,M,M,M,1699.00,M,M,M,-SN,KHIE 011300Z AUTO 09010KT 1SM -SN VV016 A2993 RMK MADISHF
HIE,2017-04-01 13:01,-71.5445,44.3676,32.00,26.10,78.58,80.00,9.00,0.00,29.93,M,1.00,15.00,VV ,M,M,M,1700.00,M,M,M,-SN,KHIE 011301Z AUTO 08009G15KT 1SM -SN VV017 00/M03 A2993 RMK AO2 P0000 T00001033
HIE,2017-04-01 13:05,-71.5445,44.3676,M,M,M,90.00,11.00,M,29.93,M,1.00,M,VV ,M,M,M,1600.00,M,M,M,-SN,KHIE 011305Z AUTO 09011KT 1SM -SN VV016 A2993 RMK MADISHF
HIE,2017-04-01 13:10,-71.5445,44.3676,M,M,M,80.00,9.00,M,29.93,M,0.75,M,VV ,M,M,M,1600.00,M,M,M,-SN,KHIE 011310Z AUTO 08009KT 1SM -SN VV016 A2993 RMK MADISHF
HIE,2017-04-01 13:14,-71.5445,44.3676,32.00,26.10,78.58,80.00,10.00,0.00,29.93,M,0.75,M,VV ,M,M,M,1500.00,M,M,M,-SN,KHIE 011314Z AUTO 08010KT 3/4SM -SN VV015 00/M03 A2993 RMK AO2 P0000 T00001033
HIE,2017-04-01 13:20,-71.5445,44.3676,M,M,M,80.00,9.00,M,29.93,M,0.75,M,VV ,M,M,M,1500.00,M,M,M,-SN,KHIE 011320Z AUTO 08009KT 1SM -SN VV015 A2993 RMK MADISHF
HIE,2017-04-01 13:25,-71.5445,44.3676,M,M,M,90.00,11.00,M,29.93,M,0.75,M,VV ,M,M,M,1600.00,M,M,M,-SN,KHIE 011325Z AUTO 09011KT 1SM -SN VV016 A2993 RMK MADISHF
HIE,2017-04-01 13:30,-71.5445,44.3676,M,M,M,90.00,10.00,M,29.93,M,1.00,M,VV ,M,M,M,1600.00,M,M,M,-SN,KHIE 011330Z AUTO 09010KT 1SM -SN VV016 A2993 RMK MADISHF
HIE,2017-04-01 13:32,-71.5445,44.3676,32.00,25.00,75.07,80.00,9.00,0.00,29.93,M,1.00,18.00,VV ,M,M,M,1600.00,M,M,M,-SN,KHIE 011332Z AUTO 08009G18KT 1SM -SN VV016 00/M04 A2993 RMK AO2 P0000 T00001039
HIE,2017-04-01 13:35,-71.5445,44.3676,M,M,M,90.00,10.00,M,29.93,M,0.75,M,VV ,M,M,M,1699.00,M,M,M,-SN,KHIE 011335Z AUTO 09010KT 1SM -SN VV016 A2993 RMK MADISHF
HIE,2017-04-01 13:40,-71.5445,44.3676,M,M,M,80.00,10.00,M,29.93,M,1.00,M,VV ,M,M,M,1800.00,M,M,M,-SN,KHIE 011340Z AUTO 08010KT 1SM -SN VV018 A2993 RMK MADISHF
HIE,2017-04-01 13:45,-71.5445,44.3676,M,M,M,80.00,10.00,M,29.93,M,1.00,M,BKN,OVC,M,M,1800.00,3000.00,M,M,-SN,KHIE 011345Z AUTO 08010KT 1SM -SN BKN018 OVC030 A2993 RMK MADISHF
HIE,2017-04-01 13:50,-71.5445,44.3676,M,M,M,90.00,10.00,M,29.93,M,1.25,M,BKN,OVC,M,M,1999.00,3200.00,M,M,-SN,KHIE 011350Z AUTO 09010KT 1 1/2SM -SN BKN019 OVC032 A2993 RMK MADISHF
HIE,2017-04-01 13:52,-71.5445,44.3676,32.00,26.10,78.58,80.00,7.00,0.00,29.93,1015.00,1.25,16.00,BKN,OVC,M,M,2000.00,3200.00,M,M,-SN,KHIE 011352Z AUTO 08007G16KT 1 1/4SM -SN BKN020 OVC032 00/M03 A2993 RMK AO2 SLP150 P0000 T00001033
HIE,2017-04-01 13:55,-71.5445,44.3676,M,M,M,M,M,M,29.93,M,1.25,M,BKN,OVC,M,M,2200.00,3200.00,M,M,-SN,KHIE 011355Z AUTO /////KT 1 1/2SM -SN BKN022 OVC032 A2993 RMK MADISHF
HIE,2017-04-01 14:00,-71.5445,44.3676,M,M,M,80.00,9.00,M,29.93,M,1.25,M,BKN,OVC,M,M,2200.00,3300.00,M,M,-SN,KHIE 011400Z AUTO 08009KT 1 1/2SM -SN BKN022 OVC033 A2993 RMK MADISHF
HIE,2017-04-01 14:05,-71.5445,44.3676,M,M,M,90.00,8.00,M,29.94,M,1.50,M,BKN,OVC,M,M,2400.00,3300.00,M,M,-SN,KHIE 011405Z AUTO 09008KT 1 1/2SM -SN BKN024 OVC033 A2994 RMK MADISHF
HIE,2017-04-01 14:15,-71.5445,44.3676,M,M,M,90.00,8.00,M,29.94,M,1.75,M,BKN,OVC,M,M,2800.00,3600.00,M,M,-SN,KHIE 011415Z AUTO 09008KT 2SM -SN BKN028 OVC036 A2994 RMK MADISHF
HIE,2017-04-01 14:20,-71.5445,44.3676,M,M,M,90.00,9.00,M,29.94,M,1.75,M,BKN,OVC,M,M,2600.00,3399.00,M,M,-SN,KHIE 011420Z AUTO 09009KT 2SM -SN BKN026 OVC033 A2994 RMK MADISHF
HIE,2017-04-01 14:25,-71.5445,44.3676,M,M,M,90.00,8.00,M,29.94,M,1.50,M,BKN,OVC,M,M,2400.00,3399.00,M,M,-SN,KHIE 011425Z AUTO 09008KT 1 1/2SM -SN BKN024 OVC033 A2994 RMK MADISHF
HIE,2017-04-01 14:35,-71.5445,44.3676,32.00,26.10,78.58,90.00,9.00,0.01,29.94,M,0.75,M,VV ,M,M,M,2000.00,M,M,M,-SN,KHIE 011435Z AUTO 09009KT 3/4SM -SN VV020 00/M03 A2994 RMK AO2 P0001 T00001033
HIE,2017-04-01 14:40,-71.5445,44.3676,M,M,M,90.00,10.00,0.01,29.94,M,0.75,M,VV ,M,M,M,1699.00,M,M,M,-SN,KHIE 011440Z AUTO 09010KT 1SM -SN VV016 A2994 RMK P0001 MADISHF
HIE,2017-04-01 14:45,-71.5445,44.3676,M,M,M,90.00,9.00,0.01,29.94,M,0.50,M,VV ,M,M,M,1600.00,M,M,M,SN,KHIE 011445Z AUTO 09009KT 1/2SM SN VV016 A2994 RMK P0001 MADISHF
HIE,2017-04-01 14:52,-71.5445,44.3676,32.00,27.00,81.55,90.00,8.00,0.01,29.94,1015.10,0.50,M,VV ,M,M,M,1400.00,M,M,M,SN,KHIE 011452Z AUTO 09008KT 1/2SM SN VV014 00/M03 A2994 RMK AO2 SLP151 P0001 60002 T00001028 51006
HIE,2017-04-01 14:55,-71.5445,44.3676,M,M,M,90.00,9.00,M,29.94,M,0.50,M,VV ,M,M,M,1400.00,M,M,M,SN,KHIE 011455Z AUTO 09009KT 1/2SM SN VV014 A2994 RMK MADISHF
HIE,2017-04-01 15:00,-71.5445,44.3676,M,M,M,80.00,9.00,M,29.94,M,0.50,M,VV ,M,M,M,1300.00,M,M,M,SN,KHIE 011500Z AUTO 08009KT 1/2SM SN VV013 A2994 RMK MADISHF
HIE,2017-04-01 15:05,-71.5445,44.3676,M,M,M,90.00,8.00,0.01,29.93,M,0.50,M,VV ,M,M,M,1400.00,M,M,M,SN,KHIE 011505Z AUTO 09008KT 1/2SM SN VV014 A2993 RMK P0001 MADISHF
HIE,2017-04-01 15:10,-71.5445,44.3676,M,M,M,90.00,6.00,0.01,29.94,M,0.75,M,VV ,M,M,M,1500.00,M,M,M,-SN,KHIE 011510Z AUTO 09006KT 1SM -SN VV015 A2994 RMK P0001 MADISHF
HIE,2017-04-01 15:14,-71.5445,44.3676,32.00,27.00,81.55,90.00,6.00,0.01,29.93,M,0.75,M,VV ,M,M,M,1500.00,M,M,M,-SN,KHIE 011514Z AUTO 09006KT 3/4SM -SN VV015 00/M03 A2993 RMK AO2 P0001 T00001028
HIE,2017-04-01 15:15,-71.5445,44.3676,M,M,M,90.00,6.00,0.01,29.93,M,0.75,M,VV ,M,M,M,1500.00,M,M,M,-SN,KHIE 011515Z AUTO 09006KT 1SM -SN VV015 A2993 RMK P0001 VRB06KT  MADISHF
HIE,2017-04-01 15:20,-71.5445,44.3676,M,M,M,90.00,5.00,0.01,29.93,M,0.75,M,VV ,M,M,M,1400.00,M,M,M,-SN,KHIE 011520Z AUTO 09005KT 1SM -SN VV014 A2993 RMK P0001 MADISHF
HIE,2017-04-01 15:24,-71.5445,44.3676,32.00,27.00,81.55,M,5.00,0.02,29.93,M,0.50,M,VV ,M,M,M,1400.00,M,M,M,SN,KHIE 011524Z AUTO VRB05KT 1/2SM SN VV014 00/M03 A2993 RMK AO2 P0002 T00001028
HIE,2017-04-01 15:25,-71.5445,44.3676,M,M,M,80.00,6.00,0.02,29.93,M,0.50,M,VV ,M,M,M,1400.00,M,M,M,SN,KHIE 011525Z AUTO 08006KT 1/2SM SN VV014 A2993 RMK P0002 MADISHF
HIE,2017-04-01 15:30,-71.5445,44.3676,M,M,M,80.00,4.00,0.02,29.93,M,0.50,M,VV ,M,M,M,1400.00,M,M,M,SN,KHIE 011530Z AUTO 08004KT 1/2SM SN VV014 A2993 RMK P0002 MADISHF
HIE,2017-04-01 15:35,-71.5445,44.3676,M,M,M,90.00,5.00,0.02,29.93,M,0.50,M,VV ,M,M,M,1400.00,M,M,M,SN FG,KHIE 011535Z AUTO 09005KT 1/2SM SN FG VV014 A2993 RMK P0002 MADISHF
HIE,2017-04-01 15:40,-71.5445,44.3676,M,M,M,80.00,5.00,0.02,29.93,M,0.50,M,VV ,M,M,M,1300.00,M,M,M,SN,KHIE 011540Z AUTO 08005KT 1/2SM SN VV013 A2993 RMK P0002 MADISHF
HIE,2017-04-01 15:45,-71.5445,44.3676,M,M,M,80.00,6.00,0.02,29.93,M,0.50,M,VV ,M,M,M,1300.00,M,M,M,SN,KHIE 011545Z AUTO 08006KT 1/2SM SN VV013 A2993 RMK P0002 MADISHF
HIE,2017-04-01 15:50,-71.5445,44.3676,M,M,M,70.00,7.00,0.03,29.93,M,0.50,M,VV ,M,M,M,1300.00,M,M,M,SN FG,KHIE 011550Z AUTO 07007KT 1/2SM SN FG VV013 A2993 RMK P0003 MADISHF
HIE,2017-04-01 15:52,-71.5445,44.3676,32.00,28.00,84.98,90.00,6.00,0.03,29.93,1014.90,0.50,M,VV ,M,M,M,1300.00,M,M,M,SN FG,KHIE 011552Z AUTO 09006KT 1/2SM SN FG VV013 00/M02 A2993 RMK AO2 SLP149 P0003 T00001022
HIE,2017-04-01 15:55,-71.5445,44.3676,M,M,M,80.00,6.00,M,29.93,M,0.50,M,VV ,M,M,M,1400.00,M,M,M,SN FG,KHIE 011555Z AUTO 08006KT 1/2SM SN FG VV014 A2993 RMK MADISHF
HIE,2017-04-01 16:05,-71.5445,44.3676,M,M,M,80.00,7.00,M,29.93,M,0.75,M,BKN,OVC,M,M,1500.00,2300.00,M,M,-SN BR,KHIE 011605Z AUTO 08007KT 1SM -SN BR BKN015 OVC023 A2993 RMK MADISHF
HIE,2017-04-01 16:07,-71.5445,44.3676,32.00,28.00,84.98,70.00,7.00,0.00,29.93,M,0.75,M,VV ,M,M,M,1500.00,M,M,M,-SN BR,KHIE 011607Z AUTO 07007KT 3/4SM -SN BR VV015 00/M02 A2993 RMK AO2 P0000 T00001022
HIE,2017-04-01 16:10,-71.5445,44.3676,M,M,M,80.00,6.00,M,29.93,M,0.75,M,BKN,OVC,M,M,1600.00,2800.00,M,M,-SN,KHIE 011610Z AUTO 08006KT 1SM -SN BKN016 OVC028 A2993 RMK MADISHF
HIE,2017-04-01 16:20,-71.5445,44.3676,M,M,M,100.00,5.00,0.01,29.93,M,1.00,M,BKN,OVC,M,M,1800.00,2600.00,M,M,-SN BR,KHIE 011620Z AUTO 10005KT 1SM -SN BR BKN018 OVC026 A2993 RMK P0001 MADISHF
HIE,2017-04-01 16:21,-71.5445,44.3676,32.00,28.00,84.98,110.00,5.00,0.01,29.93,M,1.00,M,BKN,OVC,M,M,1800.00,2600.00,M,M,-SN BR,KHIE 011621Z AUTO 11005KT 1SM -SN BR BKN018 OVC026 00/M02 A2993 RMK AO2 P0001 T00001022
HIE,2017-04-01 16:25,-71.5445,44.3676,M,M,M,80.00,5.00,0.01,29.93,M,1.00,M,BKN,OVC,M,M,1800.00,2800.00,M,M,-SN,KHIE 011625Z AUTO 08005KT 1SM -SN BKN018 OVC028 A2993 RMK P0001 MADISHF
HIE,2017-04-01 16:30,-71.5445,44.3676,M,M,M,80.00,5.00,0.01,29.93,M,1.00,M,VV ,M,M,M,1900.00,M,M,M,-SN,KHIE 011630Z AUTO 08005KT 1SM -SN VV019 A2993 RMK P0001 MADISHF
HIE,2017-04-01 16:40,-71.5445,44.3676,M,M,M,90.00,5.00,0.02,29.92,M,1.25,M,BKN,OVC,M,M,1900.00,2800.00,M,M,-SN,KHIE 011640Z AUTO 09005KT 1 1/2SM -SN BKN019 OVC028 A2992 RMK P0002 MADISHF
HIE,2017-04-01 16:45,-71.5445,44.3676,33.10,28.00,81.30,100.00,4.00,0.03,29.92,M,1.25,M,BKN,OVC,M,M,1900.00,2800.00,M,M,-SN,KHIE 011645Z AUTO 10004KT 1 1/4SM -SN BKN019 OVC028 01/M02 A2992 RMK AO2 P0003 T00061022
HIE,2017-04-01 16:50,-71.5445,44.3676,M,M,M,80.00,3.00,0.03,29.92,M,1.00,M,VV ,M,M,M,1800.00,M,M,M,-SN,KHIE 011650Z AUTO 08003KT 1SM -SN VV018 A2992 RMK P0003 VRB03KT  MADISHF
HIE,2017-04-01 16:52,-71.5445,44.3676,33.10,28.00,81.30,80.00,4.00,0.03,29.93,1014.60,1.00,M,VV ,M,M,M,1800.00,M,M,M,-SN,KHIE 011652Z AUTO 08004KT 1SM -SN VV018 01/M02 A2993 RMK AO2 SLP146 P0003 T00061022
HIE,2017-04-01 16:55,-71.5445,44.3676,M,M,M,90.00,5.00,M,29.92,M,1.00,M,VV ,M,M,M,1800.00,M,M,M,-SN,KHIE 011655Z AUTO 09005KT 1SM -SN VV018 A2992 RMK MADISHF
HIE,2017-04-01 17:00,-71.5445,44.3676,M,M,M,90.00,4.00,0.01,29.92,M,0.75,M,VV ,M,M,M,1699.00,M,M,M,-SN,KHIE 011700Z AUTO 09004KT 1SM -SN VV016 A2992 RMK P0001 MADISHF
HIE,2017-04-01 17:03,-71.5445,44.3676,33.10,28.00,81.30,80.00,5.00,0.01,29.92,M,0.75,M,VV ,M,M,M,1700.00,M,M,M,-SN,KHIE 011703Z AUTO 08005KT 3/4SM -SN VV017 01/M02 A2992 RMK AO2 P0001 T00061022
HIE,2017-04-01 17:05,-71.5445,44.3676,M,M,M,80.00,5.00,0.01,29.92,M,1.00,M,VV ,M,M,M,1699.00,M,M,M,-SN,KHIE 011705Z AUTO 08005KT 1SM -SN VV016 A2992 RMK P0001 MADISHF
HIE,2017-04-01 17:10,-71.5445,44.3676,M,M,M,100.00,4.00,0.02,29.92,M,1.00,M,VV ,M,M,M,1699.00,M,M,M,-SN,KHIE 011710Z AUTO 10004KT 1SM -SN VV016 A2992 RMK P0002 MADISHF
HIE,2017-04-01 17:11,-71.5445,44.3676,34.00,28.00,78.43,90.00,4.00,0.02,29.92,M,1.00,M,VV ,M,M,M,1700.00,M,M,M,-SN,KHIE 011711Z AUTO 09004KT 1SM -SN VV017 01/M02 A2992 RMK AO2 P0002 T00111022
HIE,2017-04-01 17:15,-71.5445,44.3676,M,M,M,80.00,7.00,0.02,29.92,M,1.25,M,OVC,M,M,M,1900.00,M,M,M,-SN,KHIE 011715Z AUTO 08007KT 1 1/2SM -SN OVC019 A2992 RMK P0002 MADISHF
HIE,2017-04-01 17:20,-71.5445,44.3676,M,M,M,100.00,6.00,0.03,29.92,M,1.25,M,BKN,OVC,M,M,2100.00,3300.00,M,M,-SN,KHIE 011720Z AUTO 10006KT 1 1/2SM -SN BKN021 OVC033 A2992 RMK P0003 MADISHF
HIE,2017-04-01 17:21,-71.5445,44.3676,34.00,28.00,78.43,90.00,5.00,0.03,29.92,M,1.25,M,BKN,OVC,M,M,2100.00,3300.00,M,M,-SN,KHIE 011721Z AUTO 09005KT 1 1/4SM -SN BKN021 OVC033 01/M02 A2992 RMK AO2 P0003 T00111022
HIE,2017-04-01 17:25,-71.5445,44.3676,M,M,M,80.00,10.00,0.03,29.92,M,1.25,M,BKN,OVC,M,M,2100.00,3300.00,M,M,-SN,KHIE 011725Z AUTO 08010KT 1 1/2SM -SN BKN021 OVC033 A2992 RMK P0003 MADISHF
HIE,2017-04-01 17:35,-71.5445,44.3676,M,M,M,70.00,10.00,0.04,29.92,M,1.25,M,BKN,OVC,M,M,2500.00,3300.00,M,M,-SN,KHIE 011735Z AUTO 07010KT 1 1/2SM -SN BKN025 OVC033 A2992 RMK P0004 MADISHF
HIE,2017-04-01 17:40,-71.5445,44.3676,M,M,M,70.00,9.00,0.05,29.92,M,1.50,M,BKN,OVC,M,M,2700.00,3399.00,M,M,-SN,KHIE 011740Z AUTO 07009KT 1 1/2SM -SN BKN027 OVC033 A2992 RMK P0005 MADISHF
HIE,2017-04-01 17:45,-71.5445,44.3676,M,M,M,60.00,8.00,0.06,29.92,M,1.75,M,BKN,OVC,M,M,3200.00,4300.00,M,M,-SN,KHIE 011745Z AUTO 06008KT 2SM -SN BKN032 OVC043 A2992 RMK P0006 MADISHF
HIE,2017-04-01 17:47,-71.5445,44.3676,33.80,28.40,80.36,70.00,7.00,0.06,29.92,M,2.00,M,BKN,OVC,M,M,3200.00,4300.00,M,M,-SN,KHIE 011747Z AUTO 07007KT 2SM -SN BKN032 OVC043 01/M02 A2992 RMK AO2 P0006
HIE,2017-04-01 17:50,-71.5445,44.3676,M,M,M,80.00,6.00,0.07,29.92,M,2.00,M,BKN,OVC,M,M,3399.00,4300.00,M,M,-SN,KHIE 011750Z AUTO 08006KT 2SM -SN BKN033 OVC043 A2992 RMK P0007 VRB06KT  MADISHF
HIE,2017-04-01 17:52,-71.5445,44.3676,34.00,28.90,81.37,70.00,7.00,0.07,29.92,1014.30,2.50,M,FEW,BKN,OVC,M,3000.00,3600.00,4600.00,M,-SN,KHIE 011752Z AUTO 07007KT 2 1/2SM -SN FEW030 BKN036 OVC046 01/M02 A2992 RMK AO2 SLP143 P0007 60015 T00111017 10011 20000 58006
HIE,2017-04-01 17:55,-71.5445,44.3676,M,M,M,80.00,8.00,0.01,29.92,M,2.50,M,BKN,OVC,M,M,3600.00,4400.00,M,M,-SN,KHIE 011755Z AUTO 08008KT 2 1/2SM -SN BKN036 OVC044 A2992 RMK P0001 MADISHF
HIE,2017-04-01 18:00,-71.5445,44.3676,M,M,M,70.00,7.00,0.02,29.92,M,2.50,M,BKN,OVC,M,M,3600.00,4400.00,M,M,-SN,KHIE 011800Z AUTO 07007KT 2 1/2SM -SN BKN036 OVC044 A2992 RMK P0002 MADISHF
HIE,2017-04-01 18:05,-71.5445,44.3676,M,M,M,90.00,6.00,0.04,29.91,M,2.50,M,FEW,BKN,OVC,M,2700.00,3800.00,4600.00,M,-SN,KHIE 011805Z AUTO 09006KT 2 1/2SM -SN FEW027 BKN038 OVC046 A2991 RMK P0004 MADISHF
HIE,2017-04-01 18:10,-71.5445,44.3676,M,M,M,80.00,9.00,0.06,29.91,M,3.00,M,FEW,BKN,OVC,M,2700.00,3800.00,4600.00,M,-SN,KHIE 011810Z AUTO 08009KT 3SM -SN FEW027 BKN038 OVC046 A2991 RMK P0006 MADISHF
HIE,2017-04-01 18:15,-71.5445,44.3676,M,M,M,90.00,8.00,0.07,29.91,M,4.00,M,FEW,OVC,M,M,2800.00,4100.00,M,M,-SN,KHIE 011815Z AUTO 09008KT 4SM -SN FEW028 OVC041 A2991 RMK P0007 MADISHF
HIE,2017-04-01 18:16,-71.5445,44.3676,35.10,28.00,75.06,90.00,8.00,0.07,29.91,M,4.00,M,FEW,BKN,OVC,M,2800.00,3900.00,4600.00,M,-SN,KHIE 011816Z AUTO 09008KT 4SM -SN FEW028 BKN039 OVC046 02/M02 A2991 RMK AO2 P0007 T00171022
HIE,2017-04-01 18:20,-71.5445,44.3676,M,M,M,80.00,6.00,0.09,29.91,M,5.00,M,FEW,OVC,M,M,2800.00,3900.00,M,M,-SN,KHIE 011820Z AUTO 08006KT 5SM -SN FEW028 OVC039 A2991 RMK P0009 MADISHF
HIE,2017-04-01 18:30,-71.5445,44.3676,M,M,M,90.00,7.00,0.11,29.91,M,6.00,M,FEW,BKN,OVC,M,2800.00,3900.00,4700.00,M,-SN,KHIE 011830Z AUTO 09007KT 6SM -SN FEW028 BKN039 OVC047 A2991 RMK P0011 MADISHF
HIE,2017-04-01 18:35,-71.5445,44.3676,M,M,M,80.00,6.00,0.13,29.91,M,7.00,M,BKN,OVC,M,M,3900.00,4700.00,M,M,-SN,KHIE 011835Z AUTO 08006KT 7SM -SN BKN039 OVC047 A2991 RMK P0013 MADISHF
HIE,2017-04-01 18:40,-71.5445,44.3676,M,M,M,70.00,6.00,0.14,29.91,M,8.00,M,BKN,OVC,M,M,3900.00,4900.00,M,M,M,KHIE 011840Z AUTO 07006KT 8SM BKN039 OVC049 A2991 RMK P0014 MADISHF
HIE,2017-04-01 18:45,-71.5445,44.3676,M,M,M,90.00,6.00,0.15,29.91,M,10.00,M,BKN,OVC,M,M,3900.00,4900.00,M,M,M,KHIE 011845Z AUTO 09006KT 10SM BKN039 OVC049 A2991 RMK P0015 MADISHF
HIE,2017-04-01 18:50,-71.5445,44.3676,M,M,M,90.00,6.00,0.16,29.90,M,10.00,M,BKN,OVC,M,M,3900.00,4900.00,M,M,M,KHIE 011850Z AUTO 09006KT 10SM BKN039 OVC049 A2990 RMK P0016 MADISHF
HIE,2017-04-01 18:52,-71.5445,44.3676,35.10,28.00,75.06,90.00,5.00,0.17,29.90,1013.90,10.00,M,BKN,OVC,M,M,4100.00,4900.00,M,M,M,KHIE 011852Z AUTO 09005KT 10SM BKN041 OVC049 02/M02 A2990 RMK AO2 SNE36 SLP139 P0017 T00171022
HIE,2017-04-01 18:55,-71.5445,44.3676,M,M,M,90.00,6.00,0.01,29.90,M,10.00,M,BKN,OVC,M,M,4100.00,4900.00,M,M,M,KHIE 011855Z AUTO 09006KT 10SM BKN041 OVC049 A2990 RMK P0001 MADISHF
HIE,2017-04-01 19:05,-71.5445,44.3676,M,M,M,90.00,7.00,0.03,29.89,M,10.00,M,OVC,M,M,M,4300.00,M,M,M,M,KHIE 011905Z AUTO 09007KT 10SM OVC043 A2989 RMK P0003 MADISHF
HIE,2017-04-01 19:10,-71.5445,44.3676,M,M,M,80.00,6.00,0.04,29.89,M,10.00,M,BKN,OVC,M,M,4100.00,4900.00,M,M,M,KHIE 011910Z AUTO 08006KT 10SM BKN041 OVC049 A2989 RMK P0004 MADISHF
HIE,2017-04-01 19:15,-71.5445,44.3676,M,M,M,90.00,7.00,0.06,29.89,M,10.00,M,OVC,M,M,M,4500.00,M,M,M,M,KHIE 011915Z AUTO 09007KT 10SM OVC045 A2989 RMK P0006 MADISHF
HIE,2017-04-01 19:20,-71.5445,44.3676,M,M,M,100.00,7.00,0.07,29.89,M,10.00,M,BKN,OVC,M,M,4300.00,5000.00,M,M,M,KHIE 011920Z AUTO 10007KT 10SM BKN043 OVC050 A2989 RMK P0007 MADISHF
HIE,2017-04-01 19:25,-71.5445,44.3676,M,M,M,100.00,6.00,0.09,29.88,M,10.00,M,BKN,OVC,M,M,4100.00,5000.00,M,M,M,KHIE 011925Z AUTO 10006KT 10SM BKN041 OVC050 A2988 RMK P0009 MADISHF
HIE,2017-04-01 19:30,-71.5445,44.3676,M,M,M,100.00,8.00,0.10,29.89,M,10.00,M,FEW,BKN,BKN,M,3100.00,4100.00,5000.00,M,M,KHIE 011930Z AUTO 10008KT 10SM FEW031 BKN041 BKN050 A2989 RMK P0010 MADISHF
HIE,2017-04-01 19:35,-71.5445,44.3676,M,M,M,90.00,9.00,0.10,29.89,M,10.00,M,FEW,SCT,BKN,M,2900.00,3900.00,4800.00,M,M,KHIE 011935Z AUTO 09009KT 10SM FEW029 SCT039 BKN048 A2989 RMK P0010 WND 05V12  MADISHF
HIE,2017-04-01 19:40,-71.5445,44.3676,M,M,M,90.00,8.00,0.10,29.89,M,10.00,M,FEW,SCT,BKN,M,2800.00,3800.00,4800.00,M,M,KHIE 011940Z AUTO 09008KT 10SM FEW028 SCT038 BKN048 A2989 RMK P0010 MADISHF
HIE,2017-04-01 19:45,-71.5445,44.3676,M,M,M,80.00,7.00,0.10,29.90,M,10.00,M,FEW,SCT,BKN,M,2800.00,3800.00,4800.00,M,M,KHIE 011945Z AUTO 08007KT 10SM FEW028 SCT038 BKN048 A2990 RMK P0010 MADISHF
HIE,2017-04-01 19:50,-71.5445,44.3676,M,M,M,90.00,8.00,0.10,29.90,M,10.00,M,FEW,BKN,BKN,M,3300.00,4800.00,12000.00,M,M,KHIE 011950Z AUTO 09008KT 10SM FEW033 BKN048 BKN120 A2990 RMK P0010 MADISHF
HIE,2017-04-01 19:52,-71.5445,44.3676,37.00,27.00,66.82,60.00,6.00,0.10,29.90,1013.80,10.00,M,FEW,BKN,BKN,M,2900.00,4800.00,12000.00,M,M,KHIE 011952Z AUTO 06006KT 10SM FEW029 BKN048 BKN120 03/M03 A2990 RMK AO2 SLP138 P0010 T00281028
HIE,2017-04-01 19:55,-71.5445,44.3676,M,M,M,50.00,6.00,M,29.91,M,10.00,M,FEW,FEW,BKN,M,3100.00,3900.00,4800.00,M,M,KHIE 011955Z AUTO 05006KT 10SM FEW031 FEW039 BKN048 A2991 RMK MADISHF
HIE,2017-04-01 20:05,-71.5445,44.3676,M,M,M,20.00,4.00,M,29.91,M,10.00,M,BKN,OVC,M,M,3700.00,4700.00,M,M,M,KHIE 012005Z AUTO 02004KT 10SM BKN037 OVC047 A2991 RMK MADISHF
HIE,2017-04-01 20:10,-71.5445,44.3676,M,M,M,10.00,5.00,M,29.92,M,10.00,M,BKN,OVC,M,M,3999.00,4700.00,M,M,M,KHIE 012010Z AUTO 01005KT 10SM BKN039 OVC047 A2992 RMK MADISHF
HIE,2017-04-01 20:15,-71.5445,44.3676,M,M,M,330.00,6.00,M,29.92,M,10.00,M,OVC,M,M,M,4200.00,M,M,M,M,KHIE 012015Z AUTO 33006KT 10SM OVC042 A2992 RMK MADISHF
HIE,2017-04-01 20:20,-71.5445,44.3676,M,M,M,330.00,6.00,M,29.92,M,10.00,M,OVC,M,M,M,3800.00,M,M,M,M,KHIE 012020Z AUTO 33006KT 10SM OVC038 A2992 RMK MADISHF
HIE,2017-04-01 20:25,-71.5445,44.3676,M,M,M,340.00,5.00,M,29.92,M,10.00,M,OVC,M,M,M,3399.00,M,M,M,M,KHIE 012025Z AUTO 34005KT 10SM OVC033 A2992 RMK MADISHF
HIE,2017-04-01 20:30,-71.5445,44.3676,M,M,M,350.00,5.00,M,29.92,M,10.00,M,BKN,OVC,M,M,3399.00,4400.00,M,M,M,KHIE 012030Z AUTO 35005KT 10SM BKN033 OVC044 A2992 RMK MADISHF
HIE,2017-04-01 20:35,-71.5445,44.3676,M,M,M,360.00,5.00,0.01,29.92,M,10.00,M,SCT,OVC,M,M,3399.00,4400.00,M,M,-SN,KHIE 012035Z AUTO 36005KT 10SM -SN SCT033 OVC044 A2992 RMK P0001 MADISHF
HIE,2017-04-01 20:40,-71.5445,44.3676,M,M,M,360.00,4.00,0.01,29.92,M,9.00,M,SCT,OVC,M,M,3399.00,4400.00,M,M,-SN,KHIE 012040Z AUTO 36004KT 9SM -SN SCT033 OVC044 A2992 RMK P0001 MADISHF
HIE,2017-04-01 20:45,-71.5445,44.3676,M,M,M,360.00,3.00,0.02,29.92,M,9.00,M,SCT,OVC,M,M,3399.00,4400.00,M,M,M,KHIE 012045Z AUTO 36003KT 9SM SCT033 OVC044 A2992 RMK P0002 MADISHF
HIE,2017-04-01 20:50,-71.5445,44.3676,M,M,M,10.00,3.00,0.02,29.92,M,10.00,M,FEW,OVC,M,M,3200.00,4500.00,M,M,M,KHIE 012050Z AUTO 01003KT 10SM FEW032 OVC045 A2992 RMK P0002 MADISHF
HIE,2017-04-01 20:52,-71.5445,44.3676,37.00,30.90,78.37,350.00,3.00,0.02,29.92,1014.50,10.00,M,FEW,OVC,M,M,3200.00,4500.00,M,M,M,KHIE 012052Z AUTO 35003KT 10SM FEW032 OVC045 03/M01 A2992 RMK AO2 SNB32E41 SLP145 P0002 60029 T00281006 53002
HIE,2017-04-01 21:00,-71.5445,44.3676,M,M,M,340.00,3.00,0.01,29.93,M,10.00,M,FEW,OVC,M,M,3500.00,4500.00,M,M,M,KHIE 012100Z AUTO 34003KT 10SM FEW035 OVC045 A2993 RMK P0001 MADISHF
HIE,2017-04-01 21:05,-71.5445,44.3676,M,M,M,340.00,4.00,0.02,29.93,M,10.00,M,SCT,OVC,M,M,3300.00,4500.00,M,M,M,KHIE 012105Z AUTO 34004KT 10SM SCT033 OVC045 A2993 RMK P0002 MADISHF
HIE,2017-04-01 21:10,-71.5445,44.3676,M,M,M,330.00,3.00,0.02,29.93,M,10.00,M,BKN,OVC,M,M,3300.00,4500.00,M,M,M,KHIE 012110Z AUTO 33003KT 10SM BKN033 OVC045 A2993 RMK P0002 MADISHF
HIE,2017-04-01 21:20,-71.5445,44.3676,M,M,M,330.00,5.00,0.03,29.94,M,10.00,M,FEW,BKN,OVC,M,2300.00,3200.00,4500.00,M,M,KHIE 012120Z AUTO 33005KT 10SM FEW023 BKN032 OVC045 A2994 RMK P0003 MADISHF
HIE,2017-04-01 21:25,-71.5445,44.3676,M,M,M,320.00,5.00,0.03,29.94,M,10.00,M,SCT,OVC,M,M,2300.00,3200.00,M,M,M,KHIE 012125Z AUTO 32005KT 10SM SCT023 OVC032 A2994 RMK P0003 MADISHF
HIE,2017-04-01 21:30,-71.5445,44.3676,M,M,M,320.00,4.00,0.03,29.94,M,10.00,M,BKN,OVC,M,M,2100.00,3200.00,M,M,M,KHIE 012130Z AUTO 32004KT 10SM BKN021 OVC032 A2994 RMK P0003 MADISHF
HIE,2017-04-01 21:34,-71.5445,44.3676,36.00,30.00,78.60,320.00,3.00,0.03,29.94,M,10.00,M,BKN,OVC,M,M,2100.00,3200.00,M,M,M,KHIE 012134Z AUTO 32003KT 10SM BKN021 OVC032 02/M01 A2994 RMK AO2 P0003 T00221011
HIE,2017-04-01 21:35,-71.5445,44.3676,M,M,M,310.00,3.00,0.03,29.94,M,10.00,M,BKN,OVC,M,M,2100.00,3200.00,M,M,M,KHIE 012135Z AUTO 31003KT 10SM BKN021 OVC032 A2994 RMK P0003 MADISHF
HIE,2017-04-01 21:40,-71.5445,44.3676,M,M,M,0.00,0.00,0.04,29.94,M,10.00,M,BKN,OVC,M,M,1900.00,3200.00,M,M,M,KHIE 012140Z AUTO 00000KT 10SM BKN019 OVC032 A2994 RMK P0004 MADISHF
HIE,2017-04-01 21:45,-71.5445,44.3676,M,M,M,0.00,0.00,0.04,29.94,M,9.00,M,BKN,OVC,M,M,1900.00,3200.00,M,M,UP,KHIE 012145Z AUTO 00000KT 9SM UP BKN019 OVC032 A2994 RMK P0004 MADISHF
HIE,2017-04-01 21:50,-71.5445,44.3676,M,M,M,0.00,0.00,0.04,29.94,M,9.00,M,SCT,OVC,M,M,1600.00,2200.00,M,M,UP,KHIE 012150Z AUTO 00000KT 9SM UP SCT016 OVC022 A2994 RMK P0004 MADISHF
HIE,2017-04-01 21:52,-71.5445,44.3676,36.00,30.90,81.53,0.00,0.00,0.04,29.94,1015.10,9.00,M,SCT,OVC,M,M,1600.00,2200.00,M,M,UP,KHIE 012152Z AUTO 00000KT 9SM UP SCT016 OVC022 02/M01 A2994 RMK AO2 UPB45 SLP151 P0004 T00221006
HIE,2017-04-01 22:00,-71.5445,44.3676,M,M,M,0.00,0.00,M,29.95,M,10.00,M,BKN,OVC,M,M,1600.00,2300.00,M,M,M,KHIE 012200Z AUTO 00000KT 10SM BKN016 OVC023 A2995 RMK MADISHF
HIE,2017-04-01 22:05,-71.5445,44.3676,M,M,M,0.00,0.00,M,29.95,M,10.00,M,BKN,OVC,M,M,1600.00,2300.00,M,M,M,KHIE 012205Z AUTO 00000KT 10SM BKN016 OVC023 A2995 RMK MADISHF
HIE,2017-04-01 22:07,-71.5445,44.3676,35.10,30.90,84.49,0.00,0.00,0.00,29.95,M,10.00,M,BKN,BKN,OVC,M,1100.00,1700.00,2300.00,M,M,KHIE 012207Z AUTO 00000KT 10SM BKN011 BKN017 OVC023 02/M01 A2995 RMK AO2 UPE2157 P0000 T00171006
HIE,2017-04-01 22:10,-71.5445,44.3676,M,M,M,0.00,0.00,M,29.95,M,10.00,M,SCT,BKN,OVC,M,1100.00,1500.00,2300.00,M,M,KHIE 012210Z AUTO 00000KT 10SM SCT011 BKN015 OVC023 A2995 RMK MADISHF
HIE,2017-04-01 22:15,-71.5445,44.3676,M,M,M,0.00,0.00,M,29.95,M,10.00,M,BKN,BKN,OVC,M,1100.00,1800.00,3500.00,M,M,KHIE 012215Z AUTO 00000KT 10SM BKN011 BKN018 OVC035 A2995 RMK MADISHF
HIE,2017-04-01 22:19,-71.5445,44.3676,36.00,30.90,81.53,0.00,0.00,0.00,29.95,M,10.00,M,FEW,BKN,OVC,M,900.00,1800.00,3500.00,M,M,KHIE 012219Z AUTO 00000KT 10SM FEW009 BKN018 OVC035 02/M01 A2995 RMK AO2 UPE2157 P0000 T00221006
HIE,2017-04-01 22:20,-71.5445,44.3676,M,M,M,0.00,0.00,M,29.95,M,10.00,M,FEW,BKN,OVC,M,900.00,1800.00,3500.00,M,M,KHIE 012220Z AUTO 00000KT 10SM FEW009 BKN018 OVC035 A2995 RMK MADISHF
HIE,2017-04-01 22:25,-71.5445,44.3676,M,M,M,0.00,0.00,M,29.95,M,10.00,M,SCT,SCT,OVC,M,1100.00,2200.00,3500.00,M,M,KHIE 012225Z AUTO 00000KT 10SM SCT011 SCT022 OVC035 A2995 RMK MADISHF
HIE,2017-04-01 22:30,-71.5445,44.3676,35.10,30.00,81.46,280.00,3.00,0.00,29.95,M,10.00,M,FEW,SCT,OVC,M,1100.00,2200.00,3500.00,M,M,KHIE 012230Z AUTO 28003KT 10SM FEW011 SCT022 OVC035 02/M01 A2995 RMK AO2 UPE2157 P0000 T00171011
HIE,2017-04-01 22:35,-71.5445,44.3676,M,M,M,280.00,3.00,M,29.95,M,10.00,M,FEW,OVC,M,M,1100.00,3500.00,M,M,M,KHIE 012235Z AUTO 28003KT 10SM FEW011 OVC035 A2995 RMK MADISHF
HIE,2017-04-01 22:40,-71.5445,44.3676,M,M,M,300.00,4.00,M,29.95,M,10.00,M,OVC,M,M,M,3399.00,M,M,M,M,KHIE 012240Z AUTO 30004KT 10SM OVC033 A2995 RMK MADISHF
HIE,2017-04-01 22:45,-71.5445,44.3676,M,M,M,0.00,0.00,M,29.95,M,10.00,M,OVC,M,M,M,3399.00,M,M,M,M,KHIE 012245Z AUTO 00000KT 10SM OVC033 A2995 RMK MADISHF
HIE,2017-04-01 22:50,-71.5445,44.3676,M,M,M,0.00,0.00,M,29.96,M,10.00,M,OVC,M,M,M,3399.00,M,M,M,M,KHIE 012250Z AUTO 00000KT 10SM OVC033 A2996 RMK MADISHF
HIE,2017-04-01 22:52,-71.5445,44.3676,35.10,30.90,84.49,310.00,3.00,0.00,29.95,1015.70,10.00,M,OVC,M,M,M,3500.00,M,M,M,M,KHIE 012252Z AUTO 31003KT 10SM OVC035 02/M01 A2995 RMK AO2 UPE2157 SLP157 P0000 T00171006
HIE,2017-04-01 22:55,-71.5445,44.3676,M,M,M,310.00,3.00,M,29.96,M,10.00,M,OVC,M,M,M,3500.00,M,M,M,M,KHIE 012255Z AUTO 31003KT 10SM OVC035 A2996 RMK MADISHF
HIE,2017-04-01 23:00,-71.5445,44.3676,M,M,M,310.00,3.00,M,29.95,M,10.00,M,OVC,M,M,M,3500.00,M,M,M,M,KHIE 012300Z AUTO 31003KT 10SM OVC035 A2995 RMK MADISHF
HIE,2017-04-01 23:05,-71.5445,44.3676,M,M,M,310.00,3.00,M,29.96,M,10.00,M,OVC,M,M,M,3500.00,M,M,M,M,KHIE 012305Z AUTO 31003KT 10SM OVC035 A2996 RMK MADISHF
HIE,2017-04-01 23:10,-71.5445,44.3676,M,M,M,310.00,3.00,M,29.95,M,10.00,M,OVC,M,M,M,3500.00,M,M,M,-SN,KHIE 012310Z AUTO 31003KT 10SM -SN OVC035 A2995 RMK MADISHF
HIE,2017-04-01 23:15,-71.5445,44.3676,M,M,M,0.00,0.00,M,29.95,M,9.00,M,OVC,M,M,M,3500.00,M,M,M,-SN,KHIE 012315Z AUTO 00000KT 9SM -SN OVC035 A2995 RMK MADISHF
HIE,2017-04-01 23:20,-71.5445,44.3676,M,M,M,0.00,0.00,M,29.95,M,9.00,M,OVC,M,M,M,3500.00,M,M,M,M,KHIE 012320Z AUTO 00000KT 9SM OVC035 A2995 RMK MADISHF
HIE,2017-04-01 23:30,-71.5445,44.3676,M,M,M,0.00,0.00,M,29.95,M,10.00,M,OVC,M,M,M,3700.00,M,M,M,-SN,KHIE 012330Z AUTO 00000KT 10SM -SN OVC037 A2995 RMK MADISHF
HIE,2017-04-01 23:35,-71.5445,44.3676,M,M,M,0.00,0.00,M,29.95,M,9.00,M,OVC,M,M,M,3900.00,M,M,M,-SN,KHIE 012335Z AUTO 00000KT 9SM -SN OVC039 A2995 RMK MADISHF
HIE,2017-04-01 23:40,-71.5445,44.3676,M,M,M,0.00,0.00,M,29.95,M,8.00,M,OVC,M,M,M,3900.00,M,M,M,-SN,KHIE 012340Z AUTO 00000KT 8SM -SN OVC039 A2995 RMK MADISHF
HIE,2017-04-01 23:50,-71.5445,44.3676,M,M,M,0.00,0.00,M,29.95,M,9.00,M,SCT,OVC,M,M,3999.00,4700.00,M,M,-SN,KHIE 012350Z AUTO 00000KT 9SM -SN SCT039 OVC047 A2995 RMK MADISHF
HIE,2017-04-01 23:52,-71.5445,44.3676,34.00,30.90,88.27,0.00,0.00,0.00,29.95,1015.60,9.00,M,SCT,OVC,M,M,4000.00,4700.00,M,M,-SN,KHIE 012352Z AUTO 00000KT 9SM -SN SCT040 OVC047 01/M01 A2995 RMK AO2 SNB09 SLP156 P0000 60033 T00111006 10028 20011 51010
HIE,2017-04-01 23:55,-71.5445,44.3676,M,M,M,0.00,0.00,M,29.96,M,9.00,M,FEW,OVC,M,M,3999.00,4700.00,M,M,-SN,KHIE 012355Z AUTO 00000KT 9SM -SN FEW039 OVC047 A2996 RMK MADISHF
