#DEBUG: Format Typ    -> comma
#DEBUG: Time Period   -> 2017-04-01 00:00:00+00:00 2017-04-02 00:00:00+00:00
#DEBUG: Time Zone     -> Etc/UTC
#DEBUG: Data Contact   -> daryl herzmann akrherz@iastate.edu 515-294-5978
#DEBUG: Entries Found -> -1
station,valid,lon,lat,tmpf, dwpf, relh, drct, sknt, p01i, alti, mslp, vsby, gust, skyc1, skyc2, skyc3, skyc4, skyl1, skyl2, skyl3, skyl4, presentwx, metar
HSI,2017-04-01 00:00,-98.4279,40.6052,M,M,M,60.00,6.00,M,30.03,M,10.00,M,OVC,M,M,M,2900.00,M,M,M,M,KHSI 010000Z AUTO 06006KT 10SM OVC029 A3003 RMK MADISHF
HSI,2017-04-01 00:05,-98.4279,40.6052,M,M,M,50.00,7.00,M,30.02,M,10.00,M,OVC,M,M,M,2900.00,M,M,M,M,KHSI 010005Z AUTO 05007KT 10SM OVC029 A3002 RMK MADISHF
HSI,2017-04-01 00:10,-98.4279,40.6052,M,M,M,50.00,7.00,M,30.02,M,10.00,M,OVC,M,M,M,2900.00,M,M,M,M,KHSI 010010Z AUTO 05007KT 10SM OVC029 A3002 RMK MADISHF
HSI,2017-04-01 00:15,-98.4279,40.6052,M,M,M,50.00,6.00,M,30.03,M,10.00,M,OVC,M,M,M,2900.00,M,M,M,M,KHSI 010015Z AUTO 05006KT 10SM OVC029 A3003 RMK MADISHF
HSI,2017-04-01 00:25,-98.4279,40.6052,M,M,M,60.00,6.00,M,30.03,M,10.00,M,OVC,M,M,M,3000.00,M,M,M,M,KHSI 010025Z AUTO 06006KT 10SM OVC030 A3003 RMK MADISHF
HSI,2017-04-01 00:29,-98.4279,40.6052,48.00,39.90,73.38,60.00,6.00,0.00,30.03,M,10.00,M,OVC,M,M,M,3000.00,M,M,M,M,KHSI 010029Z AUTO 06006KT 10SM OVC030 09/04 A3003 RMK AO2 T00890044
HSI,2017-04-01 00:30,-98.4279,40.6052,M,M,M,60.00,6.00,M,30.04,M,10.00,M,OVC,M,M,M,3000.00,M,M,M,M,KHSI 010030Z AUTO 06006KT 10SM OVC030 A3004 RMK MADISHF
HSI,2017-04-01 00:35,-98.4279,40.6052,M,M,M,60.00,6.00,M,30.04,M,10.00,M,OVC,M,M,M,3000.00,M,M,M,M,KHSI 010035Z AUTO 06006KT 10SM OVC030 A3004 RMK MADISHF
HSI,2017-04-01 00:45,-98.4279,40.6052,M,M,M,50.00,6.00,M,30.04,M,10.00,M,OVC,M,M,M,3100.00,M,M,M,M,KHSI 010045Z AUTO 05006KT 10SM OVC031 A3004 RMK MADISHF
HSI,2017-04-01 00:50,-98.4279,40.6052,M,M,M,50.00,7.00,M,30.03,M,10.00,M,OVC,M,M,M,3100.00,M,M,M,M,KHSI 010050Z AUTO 05007KT 10SM OVC031 A3003 RMK MADISHF
HSI,2017-04-01 00:53,-98.4279,40.6052,48.00,39.90,73.38,50.00,6.00,0.00,30.03,1017.80,10.00,M,OVC,M,M,M,3100.00,M,M,M,M,KHSI 010053Z AUTO 05006KT 10SM OVC031 09/04 A3003 RMK AO2 SLP178 T00890044
HSI,2017-04-01 00:55,-98.4279,40.6052,M,M,M,50.00,5.00,M,30.03,M,10.00,M,OVC,M,M,M,3100.00,M,M,M,M,KHSI 010055Z AUTO 05005KT 10SM OVC031 A3003 RMK MADISHF
HSI,2017-04-01 01:05,-98.4279,40.6052,M,M,M,40.00,6.00,M,30.03,M,10.00,M,OVC,M,M,M,3200.00,M,M,M,M,KHSI 010105Z AUTO 04006KT 10SM OVC032 A3003 RMK MADISHF
HSI,2017-04-01 01:10,-98.4279,40.6052,M,M,M,40.00,6.00,M,30.04,M,10.00,M,OVC,M,M,M,3200.00,M,M,M,M,KHSI 010110Z AUTO 04006KT 10SM OVC032 A3004 RMK MADISHF
HSI,2017-04-01 01:15,-98.4279,40.6052,M,M,M,40.00,5.00,M,30.04,M,10.00,M,OVC,M,M,M,3200.00,M,M,M,M,KHSI 010115Z AUTO 04005KT 10SM OVC032 A3004 RMK MADISHF
HSI,2017-04-01 01:25,-98.4279,40.6052,M,M,M,40.00,6.00,M,30.04,M,10.00,M,OVC,M,M,M,3300.00,M,M,M,M,KHSI 010125Z AUTO 04006KT 10SM OVC033 A3004 RMK MADISHF
HSI,2017-04-01 01:30,-98.4279,40.6052,M,M,M,40.00,6.00,M,30.05,M,10.00,M,OVC,M,M,M,3300.00,M,M,M,M,KHSI 010130Z AUTO 04006KT 10SM OVC033 A3005 RMK MADISHF
HSI,2017-04-01 01:35,-98.4279,40.6052,M,M,M,50.00,6.00,M,30.05,M,10.00,M,OVC,M,M,M,3300.00,M,M,M,M,KHSI 010135Z AUTO 05006KT 10SM OVC033 A3005 RMK MADISHF
HSI,2017-04-01 01:45,-98.4279,40.6052,M,M,M,40.00,6.00,M,30.05,M,10.00,M,OVC,M,M,M,3300.00,M,M,M,M,KHSI 010145Z AUTO 04006KT 10SM OVC033 A3005 RMK MADISHF
HSI,2017-04-01 01:50,-98.4279,40.6052,M,M,M,40.00,6.00,M,30.05,M,10.00,M,OVC,M,M,M,3300.00,M,M,M,M,KHSI 010150Z AUTO 04006KT 10SM OVC033 A3005 RMK MADISHF
HSI,2017-04-01 01:53,-98.4279,40.6052,46.90,39.90,76.48,40.00,6.00,0.00,30.06,1018.60,10.00,M,OVC,M,M,M,3300.00,M,M,M,M,KHSI 010153Z AUTO 04006KT 10SM OVC033 08/04 A3006 RMK AO2 SLP186 T00830044
HSI,2017-04-01 01:55,-98.4279,40.6052,M,M,M,40.00,6.00,M,30.06,M,10.00,M,OVC,M,M,M,3300.00,M,M,M,M,KHSI 010155Z AUTO 04006KT 10SM OVC033 A3006 RMK MADISHF
HSI,2017-04-01 02:00,-98.4279,40.6052,M,M,M,50.00,6.00,M,30.06,M,10.00,M,OVC,M,M,M,3300.00,M,M,M,M,KHSI 010200Z AUTO 05006KT 10SM OVC033 A3006 RMK MADISHF
HSI,2017-04-01 02:05,-98.4279,40.6052,M,M,M,50.00,6.00,M,30.06,M,10.00,M,OVC,M,M,M,3300.00,M,M,M,M,KHSI 010205Z AUTO 05006KT 10SM OVC033 A3006 RMK MADISHF
HSI,2017-04-01 02:10,-98.4279,40.6052,M,M,M,50.00,6.00,M,30.06,M,10.00,M,OVC,M,M,M,3300.00,M,M,M,M,KHSI 010210Z AUTO 05006KT 10SM OVC033 A3006 RMK MADISHF
HSI,2017-04-01 02:20,-98.4279,40.6052,M,M,M,50.00,6.00,M,30.06,M,10.00,M,OVC,M,M,M,3300.00,M,M,M,M,KHSI 010220Z AUTO 05006KT 10SM OVC033 A3006 RMK MADISHF
HSI,2017-04-01 02:25,-98.4279,40.6052,M,M,M,50.00,6.00,M,30.06,M,10.00,M,OVC,M,M,M,3300.00,M,M,M,M,KHSI 010225Z AUTO 05006KT 10SM OVC033 A3006 RMK MADISHF
HSI,2017-04-01 02:30,-98.4279,40.6052,M,M,M,50.00,6.00,M,30.07,M,10.00,M,OVC,M,M,M,3300.00,M,M,M,M,KHSI 010230Z AUTO 05006KT 10SM OVC033 A3007 RMK MADISHF
HSI,2017-04-01 02:35,-98.4279,40.6052,M,M,M,60.00,5.00,M,30.07,M,10.00,M,OVC,M,M,M,3300.00,M,M,M,M,KHSI 010235Z AUTO 06005KT 10SM OVC033 A3007 RMK MADISHF
HSI,2017-04-01 02:40,-98.4279,40.6052,M,M,M,50.00,4.00,M,30.07,M,10.00,M,OVC,M,M,M,3300.00,M,M,M,M,KHSI 010240Z AUTO 05004KT 10SM OVC033 A3007 RMK MADISHF
HSI,2017-04-01 02:45,-98.4279,40.6052,M,M,M,50.00,3.00,M,30.08,M,10.00,M,OVC,M,M,M,3300.00,M,M,M,M,KHSI 010245Z AUTO 05003KT 10SM OVC033 A3008 RMK MADISHF
HSI,2017-04-01 02:50,-98.4279,40.6052,M,M,M,40.00,4.00,M,30.08,M,10.00,M,OVC,M,M,M,3399.00,M,M,M,M,KHSI 010250Z AUTO 04004KT 10SM OVC033 A3008 RMK MADISHF
HSI,2017-04-01 02:53,-98.4279,40.6052,46.00,39.90,79.13,40.00,4.00,0.00,30.08,1019.40,10.00,M,OVC,M,M,M,3400.00,M,M,M,M,KHSI 010253Z AUTO 04004KT 10SM OVC034 08/04 A3008 RMK AO2 SLP194 T00780044 53018
HSI,2017-04-01 02:55,-98.4279,40.6052,M,M,M,50.00,4.00,M,30.08,M,10.00,M,OVC,M,M,M,3399.00,M,M,M,M,KHSI 010255Z AUTO 05004KT 10SM OVC033 A3008 RMK MADISHF
HSI,2017-04-01 03:00,-98.4279,40.6052,M,M,M,50.00,4.00,M,30.09,M,10.00,M,OVC,M,M,M,3399.00,M,M,M,M,KHSI 010300Z AUTO 05004KT 10SM OVC033 A3009 RMK MADISHF
HSI,2017-04-01 03:05,-98.4279,40.6052,M,M,M,40.00,3.00,M,30.09,M,10.00,M,OVC,M,M,M,3399.00,M,M,M,M,KHSI 010305Z AUTO 04003KT 10SM OVC033 A3009 RMK MADISHF
HSI,2017-04-01 03:10,-98.4279,40.6052,M,M,M,30.00,4.00,M,30.09,M,10.00,M,OVC,M,M,M,3399.00,M,M,M,M,KHSI 010310Z AUTO 03004KT 10SM OVC033 A3009 RMK MADISHF
HSI,2017-04-01 03:15,-98.4279,40.6052,M,M,M,0.00,0.00,M,30.10,M,10.00,M,OVC,M,M,M,3399.00,M,M,M,M,KHSI 010315Z AUTO 00000KT 10SM OVC033 A3010 RMK MADISHF
HSI,2017-04-01 03:20,-98.4279,40.6052,M,M,M,0.00,0.00,M,30.10,M,10.00,M,OVC,M,M,M,3399.00,M,M,M,M,KHSI 010320Z AUTO 00000KT 10SM OVC033 A3010 RMK MADISHF
HSI,2017-04-01 03:25,-98.4279,40.6052,M,M,M,50.00,3.00,M,30.10,M,10.00,M,OVC,M,M,M,3399.00,M,M,M,M,KHSI 010325Z AUTO 05003KT 10SM OVC033 A3010 RMK MADISHF
HSI,2017-04-01 03:30,-98.4279,40.6052,M,M,M,50.00,3.00,M,30.10,M,10.00,M,OVC,M,M,M,3500.00,M,M,M,M,KHSI 010330Z AUTO 05003KT 10SM OVC035 A3010 RMK MADISHF
HSI,2017-04-01 03:35,-98.4279,40.6052,M,M,M,70.00,3.00,M,30.10,M,10.00,M,OVC,M,M,M,3500.00,M,M,M,M,KHSI 010335Z AUTO 07003KT 10SM OVC035 A3010 RMK MADISHF
HSI,2017-04-01 03:40,-98.4279,40.6052,M,M,M,0.00,0.00,M,30.11,M,10.00,M,OVC,M,M,M,3500.00,M,M,M,M,KHSI 010340Z AUTO 00000KT 10SM OVC035 A3011 RMK MADISHF
HSI,2017-04-01 03:45,-98.4279,40.6052,M,M,M,0.00,0.00,M,30.11,M,10.00,M,OVC,M,M,M,3500.00,M,M,M,M,KHSI 010345Z AUTO 00000KT 10SM OVC035 A3011 RMK MADISHF
HSI,2017-04-01 03:53,-98.4279,40.6052,46.00,39.90,79.13,0.00,0.00,0.00,30.11,1020.40,10.00,M,OVC,M,M,M,3400.00,M,M,M,M,KHSI 010353Z AUTO 00000KT 10SM OVC034 08/04 A3011 RMK AO2 SLP204 T00780044
HSI,2017-04-01 03:55,-98.4279,40.6052,M,M,M,0.00,0.00,M,30.11,M,10.00,M,OVC,M,M,M,3399.00,M,M,M,M,KHSI 010355Z AUTO 00000KT 10SM OVC033 A3011 RMK MADISHF
HSI,2017-04-01 04:00,-98.4279,40.6052,M,M,M,0.00,0.00,M,30.11,M,10.00,M,OVC,M,M,M,3399.00,M,M,M,M,KHSI 010400Z AUTO 00000KT 10SM OVC033 A3011 RMK MADISHF
HSI,2017-04-01 04:05,-98.4279,40.6052,M,M,M,0.00,0.00,M,30.11,M,10.00,M,OVC,M,M,M,3399.00,M,M,M,M,KHSI 010405Z AUTO 00000KT 10SM OVC033 A3011 RMK MADISHF
HSI,2017-04-01 04:15,-98.4279,40.6052,M,M,M,0.00,0.00,M,30.12,M,10.00,M,OVC,M,M,M,3300.00,M,M,M,M,KHSI 010415Z AUTO 00000KT 10SM OVC033 A3012 RMK MADISHF
HSI,2017-04-01 04:20,-98.4279,40.6052,M,M,M,0.00,0.00,M,30.13,M,10.00,M,OVC,M,M,M,3300.00,M,M,M,M,KHSI 010420Z AUTO 00000KT 10SM OVC033 A3013 RMK MADISHF
HSI,2017-04-01 04:25,-98.4279,40.6052,M,M,M,0.00,0.00,M,30.13,M,10.00,M,OVC,M,M,M,3500.00,M,M,M,M,KHSI 010425Z AUTO 00000KT 10SM OVC035 A3013 RMK MADISHF
HSI,2017-04-01 04:35,-98.4279,40.6052,M,M,M,330.00,3.00,M,30.13,M,10.00,M,OVC,M,M,M,3500.00,M,M,M,M,KHSI 010435Z AUTO 33003KT 10SM OVC035 A3013 RMK MADISHF
HSI,2017-04-01 04:40,-98.4279,40.6052,M,M,M,0.00,0.00,M,30.13,M,10.00,M,OVC,M,M,M,3399.00,M,M,M,M,KHSI 010440Z AUTO 00000KT 10SM OVC033 A3013 RMK MADISHF
HSI,2017-04-01 04:45,-98.4279,40.6052,M,M,M,350.00,3.00,M,30.13,M,10.00,M,OVC,M,M,M,3399.00,M,M,M,M,KHSI 010445Z AUTO 35003KT 10SM OVC033 A3013 RMK MADISHF
HSI,2017-04-01 04:53,-98.4279,40.6052,45.00,39.90,82.19,10.00,4.00,0.00,30.12,1020.90,10.00,M,OVC,M,M,M,3400.00,M,M,M,M,KHSI 010453Z AUTO 01004KT 10SM OVC034 07/04 A3012 RMK AO2 SLP209 T00720044
HSI,2017-04-01 04:55,-98.4279,40.6052,M,M,M,10.00,4.00,M,30.12,M,10.00,M,OVC,M,M,M,3399.00,M,M,M,M,KHSI 010455Z AUTO 01004KT 10SM OVC033 A3012 RMK MADISHF
HSI,2017-04-01 05:00,-98.4279,40.6052,M,M,M,20.00,3.00,M,30.12,M,10.00,M,OVC,M,M,M,3399.00,M,M,M,M,KHSI 010500Z AUTO 02003KT 10SM OVC033 A3012 RMK MADISHF
HSI,2017-04-01 05:05,-98.4279,40.6052,M,M,M,20.00,3.00,M,30.13,M,10.00,M,OVC,M,M,M,3399.00,M,M,M,M,KHSI 010505Z AUTO 02003KT 10SM OVC033 A3013 RMK MADISHF
HSI,2017-04-01 05:15,-98.4279,40.6052,M,M,M,60.00,3.00,M,30.13,M,10.00,M,OVC,M,M,M,3500.00,M,M,M,M,KHSI 010515Z AUTO 06003KT 10SM OVC035 A3013 RMK MADISHF
HSI,2017-04-01 05:20,-98.4279,40.6052,M,M,M,0.00,0.00,M,30.13,M,10.00,M,OVC,M,M,M,3500.00,M,M,M,M,KHSI 010520Z AUTO 00000KT 10SM OVC035 A3013 RMK MADISHF
HSI,2017-04-01 05:25,-98.4279,40.6052,M,M,M,0.00,0.00,M,30.13,M,10.00,M,OVC,M,M,M,3500.00,M,M,M,M,KHSI 010525Z AUTO 00000KT 10SM OVC035 A3013 RMK MADISHF
HSI,2017-04-01 05:35,-98.4279,40.6052,M,M,M,0.00,0.00,M,30.14,M,10.00,M,OVC,M,M,M,3500.00,M,M,M,M,KHSI 010535Z AUTO 00000KT 10SM OVC035 A3014 RMK MADISHF
HSI,2017-04-01 05:40,-98.4279,40.6052,M,M,M,0.00,0.00,M,30.14,M,10.00,M,OVC,M,M,M,3500.00,M,M,M,M,KHSI 010540Z AUTO 00000KT 10SM OVC035 A3014 RMK MADISHF
HSI,2017-04-01 05:45,-98.4279,40.6052,M,M,M,0.00,0.00,M,30.14,M,10.00,M,OVC,M,M,M,3500.00,M,M,M,M,KHSI 010545Z AUTO 00000KT 10SM OVC035 A3014 RMK MADISHF
HSI,2017-04-01 05:53,-98.4279,40.6052,45.00,39.90,82.19,350.00,4.00,0.00,30.13,1021.00,10.00,M,OVC,M,M,M,3500.00,M,M,M,M,KHSI 010553Z AUTO 35004KT 10SM OVC035 07/04 A3013 RMK AO2 SLP210 T00720044 10094 20067 401000044 51015
HSI,2017-04-01 05:55,-98.4279,40.6052,M,M,M,350.00,5.00,M,30.13,M,10.00,M,OVC,M,M,M,3500.00,M,M,M,M,KHSI 010555Z AUTO 35005KT 10SM OVC035 A3013 RMK MADISHF
HSI,2017-04-01 06:00,-98.4279,40.6052,M,M,M,350.00,5.00,M,30.13,M,10.00,M,OVC,M,M,M,3600.00,M,M,M,M,KHSI 010600Z AUTO 35005KT 10SM OVC036 A3013 RMK MADISHF
HSI,2017-04-01 06:05,-98.4279,40.6052,M,M,M,360.00,4.00,M,30.13,M,10.00,M,OVC,M,M,M,3600.00,M,M,M,M,KHSI 010605Z AUTO 36004KT 10SM OVC036 A3013 RMK MADISHF
HSI,2017-04-01 06:15,-98.4279,40.6052,M,M,M,350.00,4.00,M,30.13,M,10.00,M,OVC,M,M,M,3800.00,M,M,M,M,KHSI 010615Z AUTO 35004KT 10SM OVC038 A3013 RMK MADISHF
HSI,2017-04-01 06:20,-98.4279,40.6052,M,M,M,360.00,4.00,M,30.13,M,10.00,M,OVC,M,M,M,3800.00,M,M,M,M,KHSI 010620Z AUTO 36004KT 10SM OVC038 A3013 RMK MADISHF
HSI,2017-04-01 06:30,-98.4279,40.6052,M,M,M,0.00,0.00,M,30.15,M,10.00,M,OVC,M,M,M,3800.00,M,M,M,M,KHSI 010630Z AUTO 00000KT 10SM OVC038 A3015 RMK MADISHF
HSI,2017-04-01 06:35,-98.4279,40.6052,M,M,M,340.00,5.00,M,30.14,M,10.00,M,OVC,M,M,M,3800.00,M,M,M,M,KHSI 010635Z AUTO 34005KT 10SM OVC038 A3014 RMK MADISHF
HSI,2017-04-01 06:40,-98.4279,40.6052,M,M,M,360.00,5.00,M,30.14,M,10.00,M,OVC,M,M,M,3900.00,M,M,M,M,KHSI 010640Z AUTO 36005KT 10SM OVC039 A3014 RMK MADISHF
HSI,2017-04-01 06:45,-98.4279,40.6052,M,M,M,330.00,4.00,M,30.14,M,10.00,M,OVC,M,M,M,3900.00,M,M,M,M,KHSI 010645Z AUTO 33004KT 10SM OVC039 A3014 RMK MADISHF
HSI,2017-04-01 06:50,-98.4279,40.6052,M,M,M,350.00,3.00,M,30.14,M,10.00,M,OVC,M,M,M,3900.00,M,M,M,M,KHSI 010650Z AUTO 35003KT 10SM OVC039 A3014 RMK MADISHF
HSI,2017-04-01 06:53,-98.4279,40.6052,44.10,39.90,85.06,360.00,4.00,0.00,30.14,1021.30,10.00,M,OVC,M,M,M,3800.00,M,M,M,M,KHSI 010653Z AUTO 36004KT 10SM OVC038 07/04 A3014 RMK AO2 SLP213 T00670044
HSI,2017-04-01 06:55,-98.4279,40.6052,M,M,M,360.00,5.00,M,30.13,M,10.00,M,OVC,M,M,M,3800.00,M,M,M,M,KHSI 010655Z AUTO 36005KT 10SM OVC038 A3013 RMK MADISHF
HSI,2017-04-01 07:05,-98.4279,40.6052,M,M,M,360.00,5.00,M,30.13,M,10.00,M,OVC,M,M,M,3900.00,M,M,M,M,KHSI 010705Z AUTO 36005KT 10SM OVC039 A3013 RMK MADISHF
HSI,2017-04-01 07:10,-98.4279,40.6052,M,M,M,360.00,5.00,M,30.13,M,10.00,M,OVC,M,M,M,3900.00,M,M,M,M,KHSI 010710Z AUTO 36005KT 10SM OVC039 A3013 RMK MADISHF
HSI,2017-04-01 07:15,-98.4279,40.6052,M,M,M,10.00,5.00,M,30.13,M,10.00,M,OVC,M,M,M,3900.00,M,M,M,M,KHSI 010715Z AUTO 01005KT 10SM OVC039 A3013 RMK MADISHF
HSI,2017-04-01 07:25,-98.4279,40.6052,M,M,M,360.00,3.00,M,30.14,M,10.00,M,OVC,M,M,M,3900.00,M,M,M,M,KHSI 010725Z AUTO 36003KT 10SM OVC039 A3014 RMK MADISHF
HSI,2017-04-01 07:30,-98.4279,40.6052,M,M,M,350.00,3.00,M,30.14,M,10.00,M,OVC,M,M,M,3900.00,M,M,M,M,KHSI 010730Z AUTO 35003KT 10SM OVC039 A3014 RMK MADISHF
HSI,2017-04-01 07:35,-98.4279,40.6052,M,M,M,350.00,4.00,M,30.14,M,10.00,M,OVC,M,M,M,3900.00,M,M,M,M,KHSI 010735Z AUTO 35004KT 10SM OVC039 A3014 RMK MADISHF
HSI,2017-04-01 07:40,-98.4279,40.6052,M,M,M,350.00,4.00,M,30.14,M,10.00,M,OVC,M,M,M,3900.00,M,M,M,M,KHSI 010740Z AUTO 35004KT 10SM OVC039 A3014 RMK MADISHF
HSI,2017-04-01 07:45,-98.4279,40.6052,M,M,M,350.00,5.00,M,30.14,M,10.00,M,OVC,M,M,M,3900.00,M,M,M,M,KHSI 010745Z AUTO 35005KT 10SM OVC039 A3014 RMK MADISHF
HSI,2017-04-01 07:50,-98.4279,40.6052,M,M,M,360.00,5.00,M,30.13,M,10.00,M,OVC,M,M,M,3900.00,M,M,M,M,KHSI 010750Z AUTO 36005KT 10SM OVC039 A3013 RMK MADISHF
HSI,2017-04-01 07:53,-98.4279,40.6052,44.10,39.90,85.06,10.00,5.00,0.00,30.13,1020.80,10.00,M,OVC,M,M,M,3900.00,M,M,M,M,KHSI 010753Z AUTO 01005KT 10SM OVC039 07/04 A3013 RMK AO2 SLP208 T00670044
HSI,2017-04-01 08:00,-98.4279,40.6052,M,M,M,10.00,6.00,M,30.12,M,10.00,M,OVC,M,M,M,3900.00,M,M,M,M,KHSI 010800Z AUTO 01006KT 10SM OVC039 A3012 RMK MADISHF
HSI,2017-04-01 08:05,-98.4279,40.6052,M,M,M,10.00,5.00,M,30.13,M,10.00,M,OVC,M,M,M,4100.00,M,M,M,M,KHSI 010805Z AUTO 01005KT 10SM OVC041 A3013 RMK MADISHF
HSI,2017-04-01 08:10,-98.4279,40.6052,M,M,M,10.00,5.00,M,30.12,M,10.00,M,OVC,M,M,M,4100.00,M,M,M,M,KHSI 010810Z AUTO 01005KT 10SM OVC041 A3012 RMK MADISHF
HSI,2017-04-01 08:20,-98.4279,40.6052,M,M,M,10.00,3.00,M,30.14,M,10.00,M,OVC,M,M,M,4200.00,M,M,M,M,KHSI 010820Z AUTO 01003KT 10SM OVC042 A3014 RMK MADISHF
HSI,2017-04-01 08:25,-98.4279,40.6052,M,M,M,0.00,0.00,M,30.14,M,10.00,M,OVC,M,M,M,4200.00,M,M,M,M,KHSI 010825Z AUTO 00000KT 10SM OVC042 A3014 RMK MADISHF
HSI,2017-04-01 08:35,-98.4279,40.6052,M,M,M,20.00,5.00,M,30.14,M,10.00,M,OVC,M,M,M,4200.00,M,M,M,M,KHSI 010835Z AUTO 02005KT 10SM OVC042 A3014 RMK MADISHF
HSI,2017-04-01 08:40,-98.4279,40.6052,M,M,M,20.00,3.00,M,30.14,M,10.00,M,OVC,M,M,M,4200.00,M,M,M,M,KHSI 010840Z AUTO 02003KT 10SM OVC042 A3014 RMK MADISHF
HSI,2017-04-01 08:45,-98.4279,40.6052,M,M,M,0.00,0.00,M,30.14,M,10.00,M,OVC,M,M,M,4200.00,M,M,M,M,KHSI 010845Z AUTO 00000KT 10SM OVC042 A3014 RMK MADISHF
HSI,2017-04-01 08:53,-98.4279,40.6052,44.10,39.00,82.12,0.00,0.00,0.00,30.15,1021.60,10.00,M,OVC,M,M,M,4200.00,M,M,M,M,KHSI 010853Z AUTO 00000KT 10SM OVC042 07/04 A3015 RMK AO2 SLP216 T00670039 53006
HSI,2017-04-01 08:55,-98.4279,40.6052,M,M,M,50.00,3.00,M,30.15,M,10.00,M,OVC,M,M,M,4100.00,M,M,M,M,KHSI 010855Z AUTO 05003KT 10SM OVC041 A3015 RMK MADISHF
HSI,2017-04-01 09:00,-98.4279,40.6052,M,M,M,30.00,3.00,M,30.15,M,10.00,M,OVC,M,M,M,4100.00,M,M,M,M,KHSI 010900Z AUTO 03003KT 10SM OVC041 A3015 RMK MADISHF
HSI,2017-04-01 09:05,-98.4279,40.6052,M,M,M,0.00,0.00,M,30.15,M,10.00,M,OVC,M,M,M,4100.00,M,M,M,M,KHSI 010905Z AUTO 00000KT 10SM OVC041 A3015 RMK MADISHF
HSI,2017-04-01 09:15,-98.4279,40.6052,M,M,M,360.00,3.00,M,30.15,M,10.00,M,OVC,M,M,M,4100.00,M,M,M,M,KHSI 010915Z AUTO 36003KT 10SM OVC041 A3015 RMK MADISHF
HSI,2017-04-01 09:20,-98.4279,40.6052,M,M,M,10.00,3.00,M,30.15,M,10.00,M,OVC,M,M,M,4100.00,M,M,M,M,KHSI 010920Z AUTO 01003KT 10SM OVC041 A3015 RMK MADISHF
HSI,2017-04-01 09:25,-98.4279,40.6052,M,M,M,360.00,3.00,M,30.15,M,10.00,M,OVC,M,M,M,4100.00,M,M,M,M,KHSI 010925Z AUTO 36003KT 10SM OVC041 A3015 RMK MADISHF
HSI,2017-04-01 09:30,-98.4279,40.6052,M,M,M,0.00,0.00,M,30.15,M,10.00,M,OVC,M,M,M,3999.00,M,M,M,M,KHSI 010930Z AUTO 00000KT 10SM OVC039 A3015 RMK MADISHF
HSI,2017-04-01 09:35,-98.4279,40.6052,M,M,M,0.00,0.00,M,30.16,M,10.00,M,OVC,M,M,M,3999.00,M,M,M,M,KHSI 010935Z AUTO 00000KT 10SM OVC039 A3016 RMK MADISHF
HSI,2017-04-01 09:40,-98.4279,40.6052,M,M,M,0.00,0.00,M,30.16,M,10.00,M,BKN,M,M,M,3999.00,M,M,M,M,KHSI 010940Z AUTO 00000KT 10SM BKN039 A3016 RMK MADISHF
HSI,2017-04-01 09:50,-98.4279,40.6052,M,M,M,340.00,3.00,M,30.15,M,10.00,M,SCT,BKN,M,M,3999.00,10000.00,M,M,M,KHSI 010950Z AUTO 34003KT 10SM SCT039 BKN100 A3015 RMK MADISHF
HSI,2017-04-01 09:53,-98.4279,40.6052,42.10,37.90,84.93,330.00,3.00,0.00,30.15,1021.80,10.00,M,SCT,BKN,M,M,4000.00,10000.00,M,M,M,KHSI 010953Z AUTO 33003KT 10SM SCT040 BKN100 06/03 A3015 RMK AO2 SLP218 T00560033
HSI,2017-04-01 09:55,-98.4279,40.6052,M,M,M,0.00,0.00,M,30.15,M,10.00,M,FEW,BKN,M,M,3999.00,10000.00,M,M,M,KHSI 010955Z AUTO 00000KT 10SM FEW039 BKN100 A3015 RMK MADISHF
HSI,2017-04-01 10:00,-98.4279,40.6052,M,M,M,0.00,0.00,M,30.16,M,10.00,M,FEW,BKN,M,M,3999.00,10000.00,M,M,M,KHSI 011000Z AUTO 00000KT 10SM FEW039 BKN100 A3016 RMK MADISHF
HSI,2017-04-01 10:10,-98.4279,40.6052,M,M,M,330.00,3.00,M,30.15,M,10.00,M,BKN,M,M,M,10000.00,M,M,M,M,KHSI 011010Z AUTO 33003KT 10SM BKN100 A3015 RMK MADISHF
HSI,2017-04-01 10:15,-98.4279,40.6052,M,M,M,340.00,3.00,M,30.15,M,10.00,M,OVC,M,M,M,10000.00,M,M,M,M,KHSI 011015Z AUTO 34003KT 10SM OVC100 A3015 RMK MADISHF
HSI,2017-04-01 10:20,-98.4279,40.6052,M,M,M,340.00,4.00,M,30.15,M,10.00,M,OVC,M,M,M,10000.00,M,M,M,M,KHSI 011020Z AUTO 34004KT 10SM OVC100 A3015 RMK MADISHF
HSI,2017-04-01 10:30,-98.4279,40.6052,M,M,M,330.00,3.00,M,30.16,M,10.00,M,OVC,M,M,M,10000.00,M,M,M,M,KHSI 011030Z AUTO 33003KT 10SM OVC100 A3016 RMK MADISHF
HSI,2017-04-01 10:35,-98.4279,40.6052,M,M,M,0.00,0.00,M,30.17,M,10.00,M,OVC,M,M,M,10000.00,M,M,M,M,KHSI 011035Z AUTO 00000KT 10SM OVC100 A3017 RMK MADISHF
HSI,2017-04-01 10:40,-98.4279,40.6052,M,M,M,310.00,3.00,M,30.17,M,10.00,M,OVC,M,M,M,10000.00,M,M,M,M,KHSI 011040Z AUTO 31003KT 10SM OVC100 A3017 RMK MADISHF
HSI,2017-04-01 10:45,-98.4279,40.6052,M,M,M,0.00,0.00,M,30.17,M,10.00,M,OVC,M,M,M,10000.00,M,M,M,M,KHSI 011045Z AUTO 00000KT 10SM OVC100 A3017 RMK MADISHF
HSI,2017-04-01 10:50,-98.4279,40.6052,M,M,M,340.00,3.00,M,30.17,M,10.00,M,OVC,M,M,M,10000.00,M,M,M,M,KHSI 011050Z AUTO 34003KT 10SM OVC100 A3017 RMK MADISHF
HSI,2017-04-01 10:53,-98.4279,40.6052,41.00,37.00,85.54,340.00,4.00,0.00,30.17,1022.30,10.00,M,OVC,M,M,M,10000.00,M,M,M,M,KHSI 011053Z AUTO 34004KT 10SM OVC100 05/03 A3017 RMK AO2 SLP223 T00500028
HSI,2017-04-01 10:55,-98.4279,40.6052,M,M,M,350.00,4.00,M,30.17,M,10.00,M,OVC,M,M,M,10000.00,M,M,M,M,KHSI 011055Z AUTO 35004KT 10SM OVC100 A3017 RMK MADISHF
HSI,2017-04-01 11:05,-98.4279,40.6052,M,M,M,360.00,5.00,M,30.16,M,10.00,M,BKN,M,M,M,10000.00,M,M,M,M,KHSI 011105Z AUTO 36005KT 10SM BKN100 A3016 RMK MADISHF
HSI,2017-04-01 11:10,-98.4279,40.6052,M,M,M,20.00,4.00,M,30.16,M,10.00,M,BKN,M,M,M,10000.00,M,M,M,M,KHSI 011110Z AUTO 02004KT 10SM BKN100 A3016 RMK MADISHF
HSI,2017-04-01 11:15,-98.4279,40.6052,M,M,M,80.00,4.00,M,30.16,M,10.00,M,SCT,M,M,M,10000.00,M,M,M,M,KHSI 011115Z AUTO 08004KT 10SM SCT100 A3016 RMK MADISHF
HSI,2017-04-01 11:25,-98.4279,40.6052,M,M,M,30.00,4.00,M,30.16,M,10.00,M,FEW,M,M,M,10000.00,M,M,M,M,KHSI 011125Z AUTO 03004KT 10SM FEW100 A3016 RMK MADISHF
HSI,2017-04-01 11:30,-98.4279,40.6052,M,M,M,40.00,4.00,M,30.16,M,10.00,M,CLR,M,M,M,M,M,M,M,M,KHSI 011130Z AUTO 04004KT 10SM CLR A3016 RMK MADISHF
HSI,2017-04-01 11:35,-98.4279,40.6052,M,M,M,20.00,5.00,M,30.16,M,10.00,M,CLR,M,M,M,M,M,M,M,M,KHSI 011135Z AUTO 02005KT 10SM CLR A3016 RMK MADISHF
HSI,2017-04-01 11:40,-98.4279,40.6052,M,M,M,30.00,5.00,M,30.16,M,10.00,M,CLR,M,M,M,M,M,M,M,M,KHSI 011140Z AUTO 03005KT 10SM CLR A3016 RMK MADISHF
HSI,2017-04-01 11:45,-98.4279,40.6052,M,M,M,20.00,6.00,M,30.15,M,10.00,M,CLR,M,M,M,M,M,M,M,M,KHSI 011145Z AUTO 02006KT 10SM CLR A3015 RMK MADISHF
HSI,2017-04-01 11:50,-98.4279,40.6052,M,M,M,10.00,7.00,M,30.15,M,10.00,M,CLR,M,M,M,M,M,M,M,M,KHSI 011150Z AUTO 01007KT 10SM CLR A3015 RMK MADISHF
HSI,2017-04-01 11:53,-98.4279,40.6052,39.90,37.00,89.27,10.00,7.00,0.00,30.15,1021.80,10.00,M,CLR,M,M,M,M,M,M,M,M,KHSI 011153Z AUTO 01007KT 10SM CLR 04/03 A3015 RMK AO2 SLP218 T00440028 10072 20044 50001
HSI,2017-04-01 11:55,-98.4279,40.6052,M,M,M,10.00,7.00,M,30.15,M,10.00,M,CLR,M,M,M,M,M,M,M,M,KHSI 011155Z AUTO 01007KT 10SM CLR A3015 RMK MADISHF
HSI,2017-04-01 12:00,-98.4279,40.6052,M,M,M,10.00,8.00,M,30.15,M,10.00,M,CLR,M,M,M,M,M,M,M,M,KHSI 011200Z AUTO 01008KT 10SM CLR A3015 RMK MADISHF
HSI,2017-04-01 12:05,-98.4279,40.6052,M,M,M,10.00,6.00,M,30.15,M,10.00,M,CLR,M,M,M,M,M,M,M,M,KHSI 011205Z AUTO 01006KT 10SM CLR A3015 RMK MADISHF
HSI,2017-04-01 12:15,-98.4279,40.6052,M,M,M,10.00,5.00,M,30.16,M,10.00,M,CLR,M,M,M,M,M,M,M,M,KHSI 011215Z AUTO 01005KT 10SM CLR A3016 RMK MADISHF
HSI,2017-04-01 12:20,-98.4279,40.6052,M,M,M,20.00,4.00,M,30.16,M,10.00,M,CLR,M,M,M,M,M,M,M,M,KHSI 011220Z AUTO 02004KT 10SM CLR A3016 RMK MADISHF
HSI,2017-04-01 12:25,-98.4279,40.6052,M,M,M,10.00,4.00,M,30.16,M,10.00,M,CLR,M,M,M,M,M,M,M,M,KHSI 011225Z AUTO 01004KT 10SM CLR A3016 RMK MADISHF
HSI,2017-04-01 12:35,-98.4279,40.6052,M,M,M,10.00,5.00,M,30.16,M,10.00,M,CLR,M,M,M,M,M,M,M,M,KHSI 011235Z AUTO 01005KT 10SM CLR A3016 RMK MADISHF
HSI,2017-04-01 12:40,-98.4279,40.6052,M,M,M,10.00,6.00,M,30.16,M,10.00,M,FEW,M,M,M,12000.00,M,M,M,M,KHSI 011240Z AUTO 01006KT 10SM FEW120 A3016 RMK MADISHF
HSI,2017-04-01 12:45,-98.4279,40.6052,M,M,M,20.00,5.00,M,30.16,M,10.00,M,SCT,M,M,M,12000.00,M,M,M,M,KHSI 011245Z AUTO 02005KT 10SM SCT120 A3016 RMK MADISHF
HSI,2017-04-01 12:53,-98.4279,40.6052,39.90,37.00,89.27,40.00,6.00,0.00,30.15,1021.80,10.00,M,BKN,M,M,M,11000.00,M,M,M,M,KHSI 011253Z AUTO 04006KT 10SM BKN110 04/03 A3015 RMK AO2 SLP218 T00440028
HSI,2017-04-01 12:55,-98.4279,40.6052,M,M,M,40.00,6.00,M,30.15,M,10.00,M,BKN,M,M,M,11000.00,M,M,M,M,KHSI 011255Z AUTO 04006KT 10SM BKN110 A3015 RMK MADISHF
HSI,2017-04-01 13:00,-98.4279,40.6052,M,M,M,40.00,5.00,M,30.15,M,9.00,M,BKN,BKN,M,M,10000.00,12000.00,M,M,M,KHSI 011300Z AUTO 04005KT 9SM BKN100 BKN120 A3015 RMK MADISHF
HSI,2017-04-01 13:05,-98.4279,40.6052,M,M,M,40.00,6.00,M,30.15,M,8.00,M,BKN,OVC,M,M,10000.00,12000.00,M,M,M,KHSI 011305Z AUTO 04006KT 8SM BKN100 OVC120 A3015 RMK MADISHF
HSI,2017-04-01 13:10,-98.4279,40.6052,M,M,M,40.00,6.00,M,30.16,M,8.00,M,OVC,M,M,M,10000.00,M,M,M,M,KHSI 011310Z AUTO 04006KT 8SM OVC100 A3016 RMK MADISHF
HSI,2017-04-01 13:15,-98.4279,40.6052,M,M,M,60.00,8.00,M,30.16,M,8.00,M,OVC,M,M,M,10000.00,M,M,M,M,KHSI 011315Z AUTO 06008KT 8SM OVC100 A3016 RMK MADISHF
HSI,2017-04-01 13:20,-98.4279,40.6052,M,M,M,60.00,8.00,M,30.16,M,7.00,M,BKN,M,M,M,10000.00,M,M,M,M,KHSI 011320Z AUTO 06008KT 7SM BKN100 A3016 RMK MADISHF
HSI,2017-04-01 13:30,-98.4279,40.6052,M,M,M,60.00,6.00,M,30.17,M,6.00,M,FEW,BKN,BKN,M,400.00,10000.00,12000.00,M,BR,KHSI 011330Z AUTO 06006KT 6SM BR FEW004 BKN100 BKN120 A3017 RMK MADISHF
HSI,2017-04-01 13:35,-98.4279,40.6052,39.00,37.00,92.45,70.00,6.00,0.00,30.18,M,6.00,M,FEW,BKN,BKN,M,400.00,10000.00,12000.00,M,BR,KHSI 011335Z AUTO 07006KT 6SM BR FEW004 BKN100 BKN120 04/03 A3018 RMK AO2 T00390028
HSI,2017-04-01 13:40,-98.4279,40.6052,M,M,M,70.00,5.00,M,30.18,M,5.00,M,SCT,BKN,M,M,400.00,11000.00,M,M,BR,KHSI 011340Z AUTO 07005KT 5SM BR SCT004 BKN110 A3018 RMK MADISHF
HSI,2017-04-01 13:50,-98.4279,40.6052,39.20,37.40,93.19,60.00,5.00,0.00,30.19,M,5.00,M,BKN,BKN,M,M,400.00,12000.00,M,M,BR,KHSI 011350Z AUTO 06005KT 5SM BR BKN004 BKN120 04/03 A3019 RMK AO2
HSI,2017-04-01 13:53,-98.4279,40.6052,39.00,37.00,92.45,60.00,5.00,0.00,30.20,1023.40,4.00,M,BKN,BKN,M,M,400.00,12000.00,M,M,BR,KHSI 011353Z AUTO 06005KT 4SM BR BKN004 BKN120 04/03 A3020 RMK AO2 SLP234 T00390028
HSI,2017-04-01 13:55,-98.4279,40.6052,M,M,M,60.00,4.00,M,30.20,M,4.00,M,BKN,OVC,M,M,400.00,12000.00,M,M,BR,KHSI 011355Z AUTO 06004KT 4SM BR BKN004 OVC120 A3020 RMK MADISHF
HSI,2017-04-01 14:05,-98.4279,40.6052,M,M,M,50.00,4.00,M,30.21,M,4.00,M,OVC,M,M,M,300.00,M,M,M,BR,KHSI 011405Z AUTO 05004KT 4SM BR OVC003 A3021 RMK MADISHF
HSI,2017-04-01 14:10,-98.4279,40.6052,M,M,M,50.00,4.00,M,30.21,M,4.00,M,OVC,M,M,M,300.00,M,M,M,BR,KHSI 011410Z AUTO 05004KT 4SM BR OVC003 A3021 RMK MADISHF
HSI,2017-04-01 14:15,-98.4279,40.6052,M,M,M,40.00,4.00,M,30.22,M,4.00,M,OVC,M,M,M,300.00,M,M,M,BR,KHSI 011415Z AUTO 04004KT 4SM BR OVC003 A3022 RMK MADISHF
HSI,2017-04-01 14:20,-98.4279,40.6052,M,M,M,40.00,3.00,M,30.22,M,4.00,M,OVC,M,M,M,300.00,M,M,M,BR,KHSI 011420Z AUTO 04003KT 4SM BR OVC003 A3022 RMK MADISHF
HSI,2017-04-01 14:25,-98.4279,40.6052,M,M,M,30.00,4.00,M,30.21,M,4.00,M,OVC,M,M,M,300.00,M,M,M,BR,KHSI 011425Z AUTO 03004KT 4SM BR OVC003 A3021 RMK MADISHF
HSI,2017-04-01 14:30,-98.4279,40.6052,M,M,M,30.00,4.00,M,30.22,M,4.00,M,OVC,M,M,M,300.00,M,M,M,BR,KHSI 011430Z AUTO 03004KT 4SM BR OVC003 A3022 RMK MADISHF
HSI,2017-04-01 14:35,-98.4279,40.6052,M,M,M,20.00,3.00,M,30.22,M,4.00,M,OVC,M,M,M,300.00,M,M,M,BR,KHSI 011435Z AUTO 02003KT 4SM BR OVC003 A3022 RMK MADISHF
HSI,2017-04-01 14:40,-98.4279,40.6052,M,M,M,20.00,4.00,M,30.21,M,3.50,M,OVC,M,M,M,300.00,M,M,M,-RA BR,KHSI 011440Z AUTO 02004KT 3SM -RA BR OVC003 A3021 RMK MADISHF
HSI,2017-04-01 14:45,-98.4279,40.6052,M,M,M,50.00,4.00,M,30.21,M,3.50,M,OVC,M,M,M,300.00,M,M,M,-RA BR,KHSI 011445Z AUTO 05004KT 3SM -RA BR OVC003 A3021 RMK MADISHF
HSI,2017-04-01 14:50,-98.4279,40.6052,M,M,M,40.00,5.00,M,30.20,M,4.00,M,OVC,M,M,M,300.00,M,M,M,-RA BR,KHSI 011450Z AUTO 04005KT 4SM -RA BR OVC003 A3020 RMK MADISHF
HSI,2017-04-01 14:53,-98.4279,40.6052,39.90,37.90,92.48,50.00,6.00,0.00,30.20,1023.40,3.00,M,OVC,M,M,M,300.00,M,M,M,-RA BR,KHSI 011453Z AUTO 05006KT 3SM -RA BR OVC003 04/03 A3020 RMK AO2 RAB36 PRESFR SLP234 P0000 60000 T00440033 51014
HSI,2017-04-01 14:55,-98.4279,40.6052,M,M,M,60.00,6.00,M,30.19,M,3.00,M,OVC,M,M,M,300.00,M,M,M,-RA BR,KHSI 011455Z AUTO 06006KT 3SM -RA BR OVC003 A3019 RMK MADISHF
HSI,2017-04-01 15:00,-98.4279,40.6052,M,M,M,50.00,5.00,M,30.19,M,2.50,M,OVC,M,M,M,300.00,M,M,M,-RA BR,KHSI 011500Z AUTO 05005KT 2 1/2SM -RA BR OVC003 A3019 RMK MADISHF
HSI,2017-04-01 15:03,-98.4279,40.6052,39.90,37.90,92.48,60.00,6.00,0.00,30.19,M,2.50,M,OVC,M,M,M,300.00,M,M,M,-RA BR,KHSI 011503Z AUTO 06006KT 2 1/2SM -RA BR OVC003 04/03 A3019 RMK AO2 P0000 T00440033
HSI,2017-04-01 15:05,-98.4279,40.6052,M,M,M,60.00,5.00,M,30.19,M,3.00,M,OVC,M,M,M,300.00,M,M,M,-RA BR,KHSI 011505Z AUTO 06005KT 3SM -RA BR OVC003 A3019 RMK MADISHF
HSI,2017-04-01 15:10,-98.4279,40.6052,39.90,37.90,92.48,40.00,6.00,0.00,30.19,M,3.00,M,OVC,M,M,M,300.00,M,M,M,-RA BR,KHSI 011510Z AUTO 04006KT 3SM -RA BR OVC003 04/03 A3019 RMK AO2 P0000 T00440033
HSI,2017-04-01 15:15,-98.4279,40.6052,M,M,M,40.00,6.00,M,30.19,M,3.00,M,OVC,M,M,M,300.00,M,M,M,-RA BR,KHSI 011515Z AUTO 04006KT 3SM -RA BR OVC003 A3019 RMK MADISHF
HSI,2017-04-01 15:20,-98.4279,40.6052,M,M,M,50.00,7.00,M,30.19,M,3.50,M,OVC,M,M,M,300.00,M,M,M,-RA BR,KHSI 011520Z AUTO 05007KT 3SM -RA BR OVC003 A3019 RMK MADISHF
HSI,2017-04-01 15:25,-98.4279,40.6052,M,M,M,50.00,6.00,M,30.19,M,4.00,M,OVC,M,M,M,300.00,M,M,M,BR,KHSI 011525Z AUTO 05006KT 4SM BR OVC003 A3019 RMK MADISHF
HSI,2017-04-01 15:35,-98.4279,40.6052,M,M,M,40.00,7.00,M,30.19,M,3.00,M,OVC,M,M,M,300.00,M,M,M,BR,KHSI 011535Z AUTO 04007KT 3SM BR OVC003 A3019 RMK MADISHF
HSI,2017-04-01 15:40,-98.4279,40.6052,M,M,M,50.00,7.00,M,30.19,M,3.50,M,OVC,M,M,M,300.00,M,M,M,BR,KHSI 011540Z AUTO 05007KT 3SM BR OVC003 A3019 RMK MADISHF
HSI,2017-04-01 15:45,-98.4279,40.6052,M,M,M,50.00,8.00,M,30.18,M,3.50,M,OVC,M,M,M,300.00,M,M,M,BR,KHSI 011545Z AUTO 05008KT 3SM BR OVC003 A3018 RMK MADISHF
HSI,2017-04-01 15:53,-98.4279,40.6052,42.10,39.90,91.84,60.00,8.00,0.00,30.18,1022.80,4.00,M,OVC,M,M,M,300.00,M,M,M,BR,KHSI 011553Z AUTO 06008KT 4SM BR OVC003 06/04 A3018 RMK AO2 RAE23 SLP228 P0000 T00560044
HSI,2017-04-01 15:55,-98.4279,40.6052,M,M,M,60.00,8.00,M,30.18,M,4.00,M,OVC,M,M,M,300.00,M,M,M,BR,KHSI 011555Z AUTO 06008KT 4SM BR OVC003 A3018 RMK MADISHF
HSI,2017-04-01 16:00,-98.4279,40.6052,M,M,M,60.00,9.00,M,30.18,M,4.00,M,OVC,M,M,M,400.00,M,M,M,BR,KHSI 011600Z AUTO 06009KT 4SM BR OVC004 A3018 RMK MADISHF
HSI,2017-04-01 16:10,-98.4279,40.6052,M,M,M,70.00,6.00,M,30.18,M,4.00,M,OVC,M,M,M,400.00,M,M,M,BR,KHSI 011610Z AUTO 07006KT 4SM BR OVC004 A3018 RMK MADISHF
HSI,2017-04-01 16:15,-98.4279,40.6052,M,M,M,70.00,7.00,M,30.18,M,4.00,M,OVC,M,M,M,400.00,M,M,M,BR,KHSI 011615Z AUTO 07007KT 4SM BR OVC004 A3018 RMK MADISHF
HSI,2017-04-01 16:20,-98.4279,40.6052,M,M,M,90.00,6.00,M,30.19,M,4.00,M,OVC,M,M,M,400.00,M,M,M,BR,KHSI 011620Z AUTO 09006KT 4SM BR OVC004 A3019 RMK MADISHF
HSI,2017-04-01 16:30,-98.4279,40.6052,M,M,M,60.00,8.00,M,30.18,M,5.00,M,OVC,M,M,M,400.00,M,M,M,BR,KHSI 011630Z AUTO 06008KT 5SM BR OVC004 A3018 RMK MADISHF
HSI,2017-04-01 16:35,-98.4279,40.6052,M,M,M,70.00,6.00,M,30.18,M,5.00,M,OVC,M,M,M,400.00,M,M,M,BR,KHSI 011635Z AUTO 07006KT 5SM BR OVC004 A3018 RMK MADISHF
HSI,2017-04-01 16:40,-98.4279,40.6052,M,M,M,60.00,7.00,M,30.18,M,5.00,M,OVC,M,M,M,400.00,M,M,M,BR,KHSI 011640Z AUTO 06007KT 5SM BR OVC004 A3018 RMK MADISHF
HSI,2017-04-01 16:50,-98.4279,40.6052,M,M,M,80.00,5.00,M,30.18,M,7.00,M,OVC,M,M,M,499.00,M,M,M,M,KHSI 011650Z AUTO 08005KT 7SM OVC004 A3018 RMK MADISHF
HSI,2017-04-01 16:53,-98.4279,40.6052,44.10,41.00,88.77,50.00,7.00,0.00,30.18,1022.80,7.00,M,OVC,M,M,M,500.00,M,M,M,M,KHSI 011653Z AUTO 05007KT 7SM OVC005 07/05 A3018 RMK AO2 SLP228 T00670050
HSI,2017-04-01 16:55,-98.4279,40.6052,M,M,M,60.00,7.00,M,30.19,M,7.00,M,OVC,M,M,M,499.00,M,M,M,M,KHSI 011655Z AUTO 06007KT 7SM OVC004 A3019 RMK MADISHF
HSI,2017-04-01 17:00,-98.4279,40.6052,M,M,M,100.00,6.00,M,30.19,M,8.00,M,OVC,M,M,M,499.00,M,M,M,M,KHSI 011700Z AUTO 10006KT 8SM OVC004 A3019 RMK MADISHF
HSI,2017-04-01 17:05,-98.4279,40.6052,M,M,M,80.00,6.00,M,30.18,M,9.00,M,OVC,M,M,M,499.00,M,M,M,M,KHSI 011705Z AUTO 08006KT 9SM OVC004 A3018 RMK CIG 5V9  MADISHF
HSI,2017-04-01 17:10,-98.4279,40.6052,M,M,M,70.00,7.00,M,30.18,M,9.00,M,OVC,M,M,M,499.00,M,M,M,M,KHSI 011710Z AUTO 07007KT 9SM OVC004 A3018 RMK MADISHF
HSI,2017-04-01 17:15,-98.4279,40.6052,M,M,M,80.00,6.00,M,30.17,M,9.00,M,OVC,M,M,M,600.00,M,M,M,M,KHSI 011715Z AUTO 08006KT 9SM OVC006 A3017 RMK CIG 5V9  MADISHF
HSI,2017-04-01 17:25,-98.4279,40.6052,M,M,M,80.00,7.00,M,30.16,M,10.00,M,OVC,M,M,M,600.00,M,M,M,M,KHSI 011725Z AUTO 08007KT 10SM OVC006 A3016 RMK CIG 5V10  MADISHF
HSI,2017-04-01 17:30,-98.4279,40.6052,M,M,M,50.00,8.00,M,30.16,M,10.00,M,OVC,M,M,M,700.00,M,M,M,M,KHSI 011730Z AUTO 05008KT 10SM OVC007 A3016 RMK CIG 6V10  MADISHF
HSI,2017-04-01 17:35,-98.4279,40.6052,M,M,M,60.00,9.00,M,30.15,M,10.00,M,OVC,M,M,M,700.00,M,M,M,M,KHSI 011735Z AUTO 06009KT 10SM OVC007 A3015 RMK CIG 6V10  MADISHF
HSI,2017-04-01 17:40,-98.4279,40.6052,M,M,M,60.00,7.00,M,30.15,M,10.00,M,OVC,M,M,M,900.00,M,M,M,M,KHSI 011740Z AUTO 06007KT 10SM OVC009 A3015 RMK MADISHF
HSI,2017-04-01 17:45,-98.4279,40.6052,M,M,M,50.00,7.00,M,30.16,M,10.00,M,OVC,M,M,M,900.00,M,M,M,M,KHSI 011745Z AUTO 05007KT 10SM OVC009 A3016 RMK MADISHF
HSI,2017-04-01 17:50,-98.4279,40.6052,M,M,M,80.00,8.00,M,30.17,M,10.00,M,OVC,M,M,M,900.00,M,M,M,M,KHSI 011750Z AUTO 08008KT 10SM OVC009 A3017 RMK MADISHF
HSI,2017-04-01 17:53,-98.4279,40.6052,45.00,39.90,82.19,90.00,7.00,0.00,30.17,1022.40,10.00,M,OVC,M,M,M,900.00,M,M,M,M,KHSI 011753Z AUTO 09007KT 10SM OVC009 07/04 A3017 RMK AO2 SLP224 60000 T00720044 10078 20039 56008
HSI,2017-04-01 18:00,-98.4279,40.6052,M,M,M,60.00,7.00,M,30.17,M,10.00,M,OVC,M,M,M,900.00,M,M,M,M,KHSI 011800Z AUTO 06007KT 10SM OVC009 A3017 RMK MADISHF
HSI,2017-04-01 18:05,-98.4279,40.6052,M,M,M,80.00,5.00,M,30.18,M,10.00,M,OVC,M,M,M,900.00,M,M,M,M,KHSI 011805Z AUTO 08005KT 10SM OVC009 A3018 RMK CIG 7V12  MADISHF
HSI,2017-04-01 18:10,-98.4279,40.6052,M,M,M,130.00,6.00,M,30.18,M,10.00,M,OVC,M,M,M,900.00,M,M,M,M,KHSI 011810Z AUTO 13006KT 10SM OVC009 A3018 RMK MADISHF
HSI,2017-04-01 18:15,-98.4279,40.6052,M,M,M,140.00,7.00,M,30.19,M,10.00,M,OVC,M,M,M,900.00,M,M,M,M,KHSI 011815Z AUTO 14007KT 10SM OVC009 A3019 RMK MADISHF
HSI,2017-04-01 18:20,-98.4279,40.6052,M,M,M,140.00,6.00,M,30.19,M,10.00,M,OVC,M,M,M,900.00,M,M,M,M,KHSI 011820Z AUTO 14006KT 10SM OVC009 A3019 RMK CIG 7V14  MADISHF
HSI,2017-04-01 18:25,-98.4279,40.6052,M,M,M,130.00,7.00,M,30.19,M,10.00,M,BKN,OVC,M,M,900.00,1400.00,M,M,M,KHSI 011825Z AUTO 13007KT 10SM BKN009 OVC014 A3019 RMK CIG 7V12  MADISHF
HSI,2017-04-01 18:35,-98.4279,40.6052,45.00,41.00,85.77,140.00,6.00,0.00,30.19,M,10.00,M,OVC,M,M,M,1000.00,M,M,M,M,KHSI 011835Z AUTO 14006KT 10SM OVC010 07/05 A3019 RMK AO2 CIG 008V012 T00720050
HSI,2017-04-01 18:40,-98.4279,40.6052,M,M,M,130.00,6.00,M,30.19,M,10.00,M,OVC,M,M,M,1200.00,M,M,M,M,KHSI 011840Z AUTO 13006KT 10SM OVC012 A3019 RMK MADISHF
HSI,2017-04-01 18:45,-98.4279,40.6052,M,M,M,150.00,7.00,M,30.18,M,10.00,M,OVC,M,M,M,1200.00,M,M,M,M,KHSI 011845Z AUTO 15007KT 10SM OVC012 A3018 RMK MADISHF
HSI,2017-04-01 18:50,-98.4279,40.6052,M,M,M,110.00,5.00,M,30.18,M,10.00,M,OVC,M,M,M,1200.00,M,M,M,M,KHSI 011850Z AUTO 11005KT 10SM OVC012 A3018 RMK MADISHF
HSI,2017-04-01 18:53,-98.4279,40.6052,45.00,41.00,85.77,110.00,5.00,0.00,30.18,1022.60,10.00,M,OVC,M,M,M,1200.00,M,M,M,M,KHSI 011853Z AUTO 11005KT 10SM OVC012 07/05 A3018 RMK AO2 SLP226 T00720050
HSI,2017-04-01 18:55,-98.4279,40.6052,M,M,M,90.00,4.00,M,30.17,M,10.00,M,OVC,M,M,M,1200.00,M,M,M,M,KHSI 011855Z AUTO 09004KT 10SM OVC012 A3017 RMK MADISHF
HSI,2017-04-01 19:00,-98.4279,40.6052,M,M,M,90.00,5.00,M,30.17,M,10.00,M,OVC,M,M,M,1200.00,M,M,M,M,KHSI 011900Z AUTO 09005KT 10SM OVC012 A3017 RMK MADISHF
HSI,2017-04-01 19:10,-98.4279,40.6052,M,M,M,90.00,3.00,M,30.17,M,10.00,M,OVC,M,M,M,1200.00,M,M,M,M,KHSI 011910Z AUTO 09003KT 10SM OVC012 A3017 RMK MADISHF
HSI,2017-04-01 19:15,-98.4279,40.6052,M,M,M,90.00,5.00,M,30.17,M,10.00,M,OVC,M,M,M,1200.00,M,M,M,M,KHSI 011915Z AUTO 09005KT 10SM OVC012 A3017 RMK MADISHF
HSI,2017-04-01 19:20,-98.4279,40.6052,M,M,M,90.00,4.00,M,30.17,M,10.00,M,BKN,OVC,M,M,1200.00,1900.00,M,M,M,KHSI 011920Z AUTO 09004KT 10SM BKN012 OVC019 A3017 RMK MADISHF
HSI,2017-04-01 19:30,-98.4279,40.6052,M,M,M,70.00,9.00,M,30.17,M,10.00,M,OVC,M,M,M,1600.00,M,M,M,M,KHSI 011930Z AUTO 07009KT 10SM OVC016 A3017 RMK MADISHF
HSI,2017-04-01 19:35,-98.4279,40.6052,M,M,M,70.00,8.00,M,30.16,M,9.00,M,BKN,OVC,M,M,1200.00,1800.00,M,M,-RA,KHSI 011935Z AUTO 07008KT 9SM -RA BKN012 OVC018 A3016 RMK MADISHF
HSI,2017-04-01 19:40,-98.4279,40.6052,M,M,M,100.00,6.00,0.01,30.16,M,8.00,M,OVC,M,M,M,1400.00,M,M,M,-RA,KHSI 011940Z AUTO 10006KT 8SM -RA OVC014 A3016 RMK P0001 MADISHF
HSI,2017-04-01 19:50,-98.4279,40.6052,M,M,M,120.00,5.00,0.02,30.17,M,5.00,M,OVC,M,M,M,1400.00,M,M,M,-RA BR,KHSI 011950Z AUTO 12005KT 5SM -RA BR OVC014 A3017 RMK P0002 MADISHF
HSI,2017-04-01 19:53,-98.4279,40.6052,45.00,41.00,85.77,150.00,3.00,0.02,30.17,1022.30,5.00,M,BKN,OVC,M,M,1200.00,1700.00,M,M,-RA BR,KHSI 011953Z AUTO 15003KT 5SM -RA BR BKN012 OVC017 07/05 A3017 RMK AO2 RAB32 SLP223 P0002 T00720050
HSI,2017-04-01 19:55,-98.4279,40.6052,M,M,M,150.00,3.00,M,30.17,M,5.00,M,OVC,M,M,M,1200.00,M,M,M,-RA BR,KHSI 011955Z AUTO 15003KT 5SM -RA BR OVC012 A3017 RMK MADISHF
HSI,2017-04-01 20:00,-98.4279,40.6052,M,M,M,90.00,3.00,M,30.16,M,5.00,M,OVC,M,M,M,1200.00,M,M,M,-RA BR,KHSI 012000Z AUTO 09003KT 5SM -RA BR OVC012 A3016 RMK MADISHF
HSI,2017-04-01 20:10,-98.4279,40.6052,M,M,M,70.00,8.00,0.01,30.14,M,7.00,M,BKN,OVC,M,M,1200.00,1800.00,M,M,-RA,KHSI 012010Z AUTO 07008KT 7SM -RA BKN012 OVC018 A3014 RMK P0001 MADISHF
HSI,2017-04-01 20:15,-98.4279,40.6052,M,M,M,70.00,6.00,0.01,30.15,M,8.00,M,SCT,OVC,M,M,1100.00,1800.00,M,M,-RA,KHSI 012015Z AUTO 07006KT 8SM -RA SCT011 OVC018 A3015 RMK P0001 MADISHF
HSI,2017-04-01 20:20,-98.4279,40.6052,M,M,M,60.00,5.00,0.01,30.15,M,10.00,M,SCT,OVC,M,M,1100.00,1900.00,M,M,-RA,KHSI 012020Z AUTO 06005KT 10SM -RA SCT011 OVC019 A3015 RMK P0001 MADISHF
HSI,2017-04-01 20:21,-98.4279,40.6052,45.00,41.00,85.77,60.00,5.00,0.01,30.15,M,10.00,M,FEW,SCT,OVC,M,900.00,1300.00,1900.00,M,M,KHSI 012021Z AUTO 06005KT 10SM FEW009 SCT013 OVC019 07/05 A3015 RMK AO2 RAE21 P0001 T00720050
HSI,2017-04-01 20:25,-98.4279,40.6052,M,M,M,70.00,5.00,0.01,30.16,M,9.00,M,FEW,OVC,M,M,900.00,1600.00,M,M,M,KHSI 012025Z AUTO 07005KT 9SM FEW009 OVC016 A3016 RMK P0001 MADISHF
HSI,2017-04-01 20:30,-98.4279,40.6052,M,M,M,70.00,5.00,0.01,30.16,M,8.00,M,BKN,OVC,M,M,1600.00,2100.00,M,M,-RA,KHSI 012030Z AUTO 07005KT 8SM -RA BKN016 OVC021 A3016 RMK P0001 MADISHF
HSI,2017-04-01 20:35,-98.4279,40.6052,M,M,M,80.00,4.00,0.01,30.16,M,7.00,M,FEW,OVC,M,M,800.00,1600.00,M,M,-RA,KHSI 012035Z AUTO 08004KT 7SM -RA FEW008 OVC016 A3016 RMK P0001 MADISHF
HSI,2017-04-01 20:45,-98.4279,40.6052,M,M,M,50.00,7.00,0.02,30.14,M,5.00,M,SCT,OVC,M,M,800.00,1400.00,M,M,-RA BR,KHSI 012045Z AUTO 05007KT 5SM -RA BR SCT008 OVC014 A3014 RMK P0002 MADISHF
HSI,2017-04-01 20:46,-98.4279,40.6052,45.00,41.00,85.77,60.00,7.00,0.02,30.14,M,5.00,M,BKN,OVC,M,M,800.00,1400.00,M,M,-RA BR,KHSI 012046Z AUTO 06007KT 5SM -RA BR BKN008 OVC014 07/05 A3014 RMK AO2 RAE21B26 CIG 006V012 P0002 T00720050
HSI,2017-04-01 20:50,-98.4279,40.6052,M,M,M,60.00,7.00,0.02,30.14,M,6.00,M,BKN,OVC,M,M,800.00,1400.00,M,M,-RA BR,KHSI 012050Z AUTO 06007KT 6SM -RA BR BKN008 OVC014 A3014 RMK P0002 CIG 6V12  MADISHF
HSI,2017-04-01 20:53,-98.4279,40.6052,44.10,41.00,88.77,60.00,8.00,0.02,30.14,1021.50,6.00,M,SCT,OVC,M,M,800.00,1400.00,M,M,-RA BR,KHSI 012053Z AUTO 06008KT 6SM -RA BR SCT008 OVC014 07/05 A3014 RMK AO2 RAE21B26 SLP215 P0002 60004 T00670050 58010
HSI,2017-04-01 20:55,-98.4279,40.6052,M,M,M,70.00,7.00,M,30.14,M,6.00,M,SCT,OVC,M,M,800.00,1400.00,M,M,-RA BR,KHSI 012055Z AUTO 07007KT 6SM -RA BR SCT008 OVC014 A3014 RMK MADISHF
HSI,2017-04-01 21:00,-98.4279,40.6052,M,M,M,60.00,8.00,M,30.14,M,6.00,M,SCT,OVC,M,M,800.00,1400.00,M,M,-RA BR,KHSI 012100Z AUTO 06008KT 6SM -RA BR SCT008 OVC014 A3014 RMK MADISHF
HSI,2017-04-01 21:05,-98.4279,40.6052,M,M,M,70.00,9.00,0.01,30.14,M,6.00,M,SCT,OVC,M,M,800.00,1400.00,M,M,-RA BR,KHSI 012105Z AUTO 07009KT 6SM -RA BR SCT008 OVC014 A3014 RMK P0001 MADISHF
HSI,2017-04-01 21:10,-98.4279,40.6052,M,M,M,70.00,8.00,0.01,30.13,M,5.00,M,SCT,OVC,M,M,900.00,1400.00,M,M,-RA BR,KHSI 012110Z AUTO 07008KT 5SM -RA BR SCT009 OVC014 A3013 RMK P0001 MADISHF
HSI,2017-04-01 21:15,-98.4279,40.6052,M,M,M,70.00,7.00,0.02,30.14,M,5.00,M,FEW,OVC,M,M,900.00,1400.00,M,M,-RA BR,KHSI 012115Z AUTO 07007KT 5SM -RA BR FEW009 OVC014 A3014 RMK P0002 MADISHF
HSI,2017-04-01 21:20,-98.4279,40.6052,M,M,M,90.00,6.00,0.02,30.14,M,5.00,M,FEW,OVC,M,M,700.00,1400.00,M,M,-RA BR,KHSI 012120Z AUTO 09006KT 5SM -RA BR FEW007 OVC014 A3014 RMK P0002 MADISHF
HSI,2017-04-01 21:25,-98.4279,40.6052,M,M,M,120.00,6.00,0.03,30.15,M,5.00,M,FEW,OVC,M,M,700.00,1600.00,M,M,-RA BR,KHSI 012125Z AUTO 12006KT 5SM -RA BR FEW007 OVC016 A3015 RMK P0003 MADISHF
HSI,2017-04-01 21:31,-98.4279,40.6052,44.10,41.00,88.77,120.00,5.00,0.03,30.15,M,5.00,M,SCT,OVC,M,M,900.00,1600.00,M,M,-RA BR,KHSI 012131Z AUTO 12005KT 5SM -RA BR SCT009 OVC016 07/05 A3015 RMK AO2 P0003 T00670050
HSI,2017-04-01 21:35,-98.4279,40.6052,M,M,M,110.00,7.00,0.04,30.15,M,5.00,M,BKN,OVC,M,M,900.00,1600.00,M,M,-RA BR,KHSI 012135Z AUTO 11007KT 5SM -RA BR BKN009 OVC016 A3015 RMK P0004 CIG 6V13  MADISHF
HSI,2017-04-01 21:38,-98.4279,40.6052,44.10,41.00,88.77,120.00,5.00,0.04,30.15,M,5.00,M,BKN,OVC,M,M,900.00,1600.00,M,M,-RA BR,KHSI 012138Z AUTO 12005KT 5SM -RA BR BKN009 OVC016 07/05 A3015 RMK AO2 CIG 006V013 P0004 T00670050
HSI,2017-04-01 21:40,-98.4279,40.6052,M,M,M,110.00,6.00,0.04,30.15,M,5.00,M,BKN,OVC,M,M,900.00,1600.00,M,M,-RA BR,KHSI 012140Z AUTO 11006KT 5SM -RA BR BKN009 OVC016 A3015 RMK P0004 CIG 6V12  MADISHF
HSI,2017-04-01 21:50,-98.4279,40.6052,M,M,M,100.00,7.00,0.05,30.14,M,5.00,M,BKN,OVC,M,M,900.00,1400.00,M,M,-RA BR,KHSI 012150Z AUTO 10007KT 5SM -RA BR BKN009 OVC014 A3014 RMK P0005 CIG 6V11  MADISHF
HSI,2017-04-01 21:53,-98.4279,40.6052,44.10,41.00,88.77,80.00,7.00,0.05,30.14,1021.40,5.00,M,OVC,M,M,M,1200.00,M,M,M,-RA BR,KHSI 012153Z AUTO 08007KT 5SM -RA BR OVC012 07/05 A3014 RMK AO2 SLP214 P0005 T00670050
HSI,2017-04-01 21:55,-98.4279,40.6052,M,M,M,80.00,8.00,M,30.14,M,5.00,M,OVC,M,M,M,1200.00,M,M,M,-RA BR,KHSI 012155Z AUTO 08008KT 5SM -RA BR OVC012 A3014 RMK MADISHF
HSI,2017-04-01 22:00,-98.4279,40.6052,M,M,M,80.00,8.00,0.01,30.13,M,5.00,M,BKN,OVC,M,M,1200.00,1800.00,M,M,-RA BR,KHSI 012200Z AUTO 08008KT 5SM -RA BR BKN012 OVC018 A3013 RMK P0001 MADISHF
HSI,2017-04-01 22:09,-98.4279,40.6052,44.10,41.00,88.77,80.00,11.00,0.01,30.12,M,5.00,M,SCT,BKN,OVC,M,1200.00,1900.00,4600.00,M,-RA BR,KHSI 012209Z AUTO 08011KT 5SM -RA BR SCT012 BKN019 OVC046 07/05 A3012 RMK AO2 P0001 T00670050
HSI,2017-04-01 22:10,-98.4279,40.6052,M,M,M,80.00,10.00,0.01,30.12,M,5.00,M,SCT,BKN,OVC,M,1200.00,1900.00,4600.00,M,-RA BR,KHSI 012210Z AUTO 08010KT 5SM -RA BR SCT012 BKN019 OVC046 A3012 RMK P0001 MADISHF
HSI,2017-04-01 22:15,-98.4279,40.6052,M,M,M,70.00,12.00,0.02,30.10,M,5.00,M,SCT,BKN,OVC,M,999.00,1900.00,6500.00,M,-RA BR,KHSI 012215Z AUTO 07012KT 5SM -RA BR SCT009 BKN019 OVC065 A3010 RMK P0002 MADISHF
HSI,2017-04-01 22:20,-98.4279,40.6052,M,M,M,70.00,12.00,0.02,30.09,M,4.00,M,FEW,BKN,OVC,M,700.00,1699.00,8500.00,M,-RA BR,KHSI 012220Z AUTO 07012KT 4SM -RA BR FEW007 BKN016 OVC085 A3009 RMK P0002 MADISHF
HSI,2017-04-01 22:23,-98.4279,40.6052,43.00,41.00,92.58,70.00,12.00,0.02,30.09,M,4.00,M,FEW,BKN,OVC,M,700.00,5000.00,8500.00,M,-RA BR,KHSI 012223Z AUTO 07012KT 4SM -RA BR FEW007 BKN050 OVC085 06/05 A3009 RMK AO2 P0002 T00610050
HSI,2017-04-01 22:25,-98.4279,40.6052,M,M,M,70.00,12.00,0.02,30.09,M,4.00,M,FEW,BKN,OVC,M,700.00,5000.00,9000.00,M,-RA BR,KHSI 012225Z AUTO 07012KT 4SM -RA BR FEW007 BKN050 OVC090 A3009 RMK P0002 MADISHF
HSI,2017-04-01 22:30,-98.4279,40.6052,M,M,M,70.00,10.00,0.02,30.09,M,4.00,M,FEW,SCT,OVC,M,700.00,4600.00,8500.00,M,-RA BR,KHSI 012230Z AUTO 07010KT 4SM -RA BR FEW007 SCT046 OVC085 A3009 RMK P0002 MADISHF
HSI,2017-04-01 22:35,-98.4279,40.6052,M,M,M,90.00,10.00,0.02,30.10,M,4.00,15.00,FEW,SCT,OVC,M,700.00,6000.00,9000.00,M,-RA BR,KHSI 012235Z AUTO 09010G15KT 4SM -RA BR FEW007 SCT060 OVC090 A3010 RMK P0002 MADISHF
HSI,2017-04-01 22:40,-98.4279,40.6052,M,M,M,80.00,8.00,0.03,30.10,M,4.00,M,SCT,SCT,OVC,M,700.00,6000.00,8500.00,M,-RA BR,KHSI 012240Z AUTO 08008KT 4SM -RA BR SCT007 SCT060 OVC085 A3010 RMK P0003 MADISHF
HSI,2017-04-01 22:45,-98.4279,40.6052,M,M,M,70.00,10.00,0.03,30.10,M,4.00,M,SCT,BKN,OVC,M,700.00,7999.00,9000.00,M,-RA BR,KHSI 012245Z AUTO 07010KT 4SM -RA BR SCT007 BKN079 OVC090 A3010 RMK P0003 MADISHF
HSI,2017-04-01 22:50,-98.4279,40.6052,M,M,M,90.00,7.00,0.03,30.12,M,4.00,M,SCT,OVC,M,M,700.00,7999.00,M,M,-RA BR,KHSI 012250Z AUTO 09007KT 4SM -RA BR SCT007 OVC079 A3012 RMK P0003 MADISHF
HSI,2017-04-01 22:53,-98.4279,40.6052,43.00,41.00,92.58,100.00,5.00,0.03,30.12,1021.10,4.00,M,SCT,OVC,M,M,700.00,8000.00,M,M,-RA BR,KHSI 012253Z AUTO 10005KT 4SM -RA BR SCT007 OVC080 06/05 A3012 RMK AO2 PRESRR SLP211 P0003 T00610050
HSI,2017-04-01 22:55,-98.4279,40.6052,M,M,M,100.00,5.00,M,30.13,M,4.00,M,SCT,BKN,OVC,M,600.00,7500.00,9000.00,M,-RA BR,KHSI 012255Z AUTO 10005KT 4SM -RA BR SCT006 BKN075 OVC090 A3013 RMK MADISHF
HSI,2017-04-01 23:00,-98.4279,40.6052,M,M,M,70.00,5.00,M,30.12,M,4.00,M,SCT,BKN,OVC,M,600.00,1800.00,7500.00,M,-RA BR,KHSI 012300Z AUTO 07005KT 4SM -RA BR SCT006 BKN018 OVC075 A3012 RMK MADISHF
HSI,2017-04-01 23:04,-98.4279,40.6052,43.00,41.00,92.58,80.00,7.00,0.00,30.12,M,4.00,M,SCT,BKN,OVC,M,700.00,1800.00,8000.00,M,-RA BR,KHSI 012304Z AUTO 08007KT 4SM -RA BR SCT007 BKN018 OVC080 06/05 A3012 RMK AO2 P0000 T00610050
HSI,2017-04-01 23:05,-98.4279,40.6052,M,M,M,80.00,6.00,M,30.12,M,4.00,M,SCT,BKN,OVC,M,700.00,1800.00,7999.00,M,-RA BR,KHSI 012305Z AUTO 08006KT 4SM -RA BR SCT007 BKN018 OVC079 A3012 RMK MADISHF
HSI,2017-04-01 23:15,-98.4279,40.6052,M,M,M,70.00,7.00,M,30.13,M,4.00,M,FEW,BKN,OVC,M,700.00,7500.00,8500.00,M,-RA BR,KHSI 012315Z AUTO 07007KT 4SM -RA BR FEW007 BKN075 OVC085 A3013 RMK MADISHF
HSI,2017-04-01 23:17,-98.4279,40.6052,43.00,41.00,92.58,80.00,7.00,0.00,30.12,M,4.00,M,SCT,BKN,OVC,M,700.00,7500.00,8500.00,M,-RA BR,KHSI 012317Z AUTO 08007KT 4SM -RA BR SCT007 BKN075 OVC085 06/05 A3012 RMK AO2 P0000 T00610050
HSI,2017-04-01 23:20,-98.4279,40.6052,M,M,M,80.00,8.00,M,30.12,M,4.00,M,FEW,BKN,OVC,M,700.00,1800.00,7500.00,M,-RA BR,KHSI 012320Z AUTO 08008KT 4SM -RA BR FEW007 BKN018 OVC075 A3012 RMK MADISHF
HSI,2017-04-01 23:25,-98.4279,40.6052,43.00,41.00,92.58,80.00,8.00,0.00,30.13,M,4.00,M,SCT,BKN,OVC,M,700.00,1800.00,7500.00,M,-RA BR,KHSI 012325Z AUTO 08008KT 4SM -RA BR SCT007 BKN018 OVC075 06/05 A3013 RMK AO2 P0000 T00610050
HSI,2017-04-01 23:35,-98.4279,40.6052,M,M,M,90.00,8.00,0.01,30.13,M,4.00,M,BKN,BKN,OVC,M,800.00,1800.00,7999.00,M,-RA BR,KHSI 012335Z AUTO 09008KT 4SM -RA BR BKN008 BKN018 OVC079 A3013 RMK P0001 MADISHF
HSI,2017-04-01 23:36,-98.4279,40.6052,43.00,39.90,88.71,80.00,8.00,0.01,30.13,M,4.00,M,BKN,BKN,OVC,M,800.00,1700.00,7000.00,M,-RA BR,KHSI 012336Z AUTO 08008KT 4SM -RA BR BKN008 BKN017 OVC070 06/04 A3013 RMK AO2 P0001 T00610044
HSI,2017-04-01 23:40,-98.4279,40.6052,M,M,M,100.00,6.00,0.01,30.14,M,4.00,M,SCT,BKN,OVC,M,800.00,1100.00,7000.00,M,-RA BR,KHSI 012340Z AUTO 10006KT 4SM -RA BR SCT008 BKN011 OVC070 A3014 RMK P0001 MADISHF
HSI,2017-04-01 23:45,-98.4279,40.6052,M,M,M,100.00,6.00,0.01,30.14,M,3.50,M,BKN,OVC,M,M,800.00,1500.00,M,M,-RA BR,KHSI 012345Z AUTO 10006KT 3SM -RA BR BKN008 OVC015 A3014 RMK P0001 MADISHF
HSI,2017-04-01 23:53,-98.4279,40.6052,43.00,39.90,88.71,80.00,8.00,0.02,30.14,1021.50,3.00,M,BKN,OVC,M,M,800.00,1400.00,M,M,-RA BR,KHSI 012353Z AUTO 08008KT 3SM -RA BR BKN008 OVC014 06/04 A3014 RMK AO2 SLP215 P0002 60014 T00610044 10078 20061 55001
HSI,2017-04-01 23:55,-98.4279,40.6052,M,M,M,90.00,8.00,0.01,30.13,M,3.00,M,BKN,OVC,M,M,800.00,1400.00,M,M,-RA BR,KHSI 012355Z AUTO 09008KT 3SM -RA BR BKN008 OVC014 A3013 RMK P0001 CIG 6V12  MADISHF
