#DEBUG: Format Typ    -> comma
#DEBUG: Time Period   -> 2017-04-01 00:00:00+00:00 2017-04-02 00:00:00+00:00
#DEBUG: Time Zone     -> Etc/UTC
#DEBUG: Data Contact   -> daryl herzmann akrherz@iastate.edu 515-294-5978
#DEBUG: Entries Found -> -1
station,valid,lon,lat,tmpf, dwpf, relh, drct, sknt, p01i, alti, mslp, vsby, gust, skyc1, skyc2, skyc3, skyc4, skyl1, skyl2, skyl3, skyl4, presentwx, metar
HTS,2017-04-01 00:00,-82.5550,38.3650,M,M,M,260.00,8.00,M,29.78,M,10.00,M,BKN,OVC,M,M,3600.00,4300.00,M,M,M,KHTS 010000Z AUTO 26008KT 10SM BKN036 OVC043 A2978 RMK MADISHF
HTS,2017-04-01 00:05,-82.5550,38.3650,M,M,M,250.00,7.00,M,29.78,M,10.00,M,FEW,BKN,OVC,M,2600.00,3900.00,5500.00,M,M,KHTS 010005Z AUTO 25007KT 10SM FEW026 BKN039 OVC055 A2978 RMK MADISHF
HTS,2017-04-01 00:10,-82.5550,38.3650,M,M,M,260.00,8.00,M,29.79,M,10.00,M,SCT,BKN,OVC,M,2600.00,3900.00,5000.00,M,M,KHTS 010010Z AUTO 26008KT 10SM SCT026 BKN039 OVC050 A2979 RMK MADISHF
HTS,2017-04-01 00:15,-82.5550,38.3650,M,M,M,250.00,9.00,M,29.79,M,10.00,M,BKN,BKN,OVC,M,2700.00,3900.00,5000.00,M,-RA,KHTS 010015Z AUTO 25009KT 10SM -RA BKN027 BKN039 OVC050 A2979 RMK MADISHF
HTS,2017-04-01 00:20,-82.5550,38.3650,M,M,M,270.00,7.00,M,29.79,M,10.00,M,OVC,M,M,M,3600.00,M,M,M,-RA,KHTS 010020Z AUTO 27007KT 10SM -RA OVC036 A2979 RMK MADISHF
HTS,2017-04-01 00:25,-82.5550,38.3650,M,M,M,260.00,8.00,M,29.79,M,10.00,M,OVC,M,M,M,3600.00,M,M,M,-RA,KHTS 010025Z AUTO 26008KT 10SM -RA OVC036 A2979 RMK MADISHF
HTS,2017-04-01 00:30,-82.5550,38.3650,M,M,M,270.00,8.00,M,29.80,M,10.00,M,BKN,OVC,M,M,2800.00,3600.00,M,M,-RA,KHTS 010030Z AUTO 27008KT 10SM -RA BKN028 OVC036 A2980 RMK MADISHF
HTS,2017-04-01 00:35,-82.5550,38.3650,55.00,46.90,74.08,260.00,9.00,0.00,29.80,M,10.00,M,BKN,OVC,M,M,2800.00,3600.00,M,M,-RA,KHTS 010035Z 26009KT 230V290 10SM -RA BKN028 OVC036 13/08 A2980 RMK AO2 RAB15 P0000 T01280083
HTS,2017-04-01 00:40,-82.5550,38.3650,M,M,M,260.00,7.00,M,29.80,M,10.00,M,BKN,OVC,M,M,2600.00,3200.00,M,M,-RA,KHTS 010040Z AUTO 26007KT 10SM -RA BKN026 OVC032 A2980 RMK MADISHF
HTS,2017-04-01 00:45,-82.5550,38.3650,M,M,M,260.00,5.00,M,29.81,M,10.00,M,BKN,OVC,M,M,2600.00,3399.00,M,M,-RA,KHTS 010045Z AUTO 26005KT 10SM -RA BKN026 OVC033 A2981 RMK MADISHF
HTS,2017-04-01 00:50,-82.5550,38.3650,M,M,M,260.00,9.00,M,29.81,M,10.00,M,BKN,OVC,M,M,2400.00,3399.00,M,M,-RA,KHTS 010050Z AUTO 26009KT 10SM -RA BKN024 OVC033 A2981 RMK MADISHF
HTS,2017-04-01 00:51,-82.5550,38.3650,54.00,46.90,76.83,260.00,10.00,0.00,29.81,1009.20,10.00,M,BKN,OVC,M,M,2400.00,3400.00,M,M,-RA,KHTS 010051Z 26010KT 10SM -RA BKN024 OVC034 12/08 A2981 RMK AO2 RAB15 SLP092 P0000 T01220083
HTS,2017-04-01 00:55,-82.5550,38.3650,M,M,M,270.00,7.00,M,29.81,M,10.00,M,OVC,M,M,M,2400.00,M,M,M,-RA,KHTS 010055Z AUTO 27007KT 10SM -RA OVC024 A2981 RMK MADISHF
HTS,2017-04-01 01:00,-82.5550,38.3650,M,M,M,260.00,6.00,M,29.81,M,10.00,M,OVC,M,M,M,2400.00,M,M,M,M,KHTS 010100Z AUTO 26006KT 10SM OVC024 A2981 RMK MADISHF
HTS,2017-04-01 01:05,-82.5550,38.3650,M,M,M,260.00,5.00,M,29.82,M,10.00,M,OVC,M,M,M,2400.00,M,M,M,M,KHTS 010105Z AUTO 26005KT 10SM OVC024 A2982 RMK MADISHF
HTS,2017-04-01 01:10,-82.5550,38.3650,M,M,M,250.00,7.00,M,29.82,M,10.00,M,BKN,OVC,M,M,2200.00,2800.00,M,M,M,KHTS 010110Z AUTO 25007KT 10SM BKN022 OVC028 A2982 RMK MADISHF
HTS,2017-04-01 01:15,-82.5550,38.3650,M,M,M,250.00,8.00,M,29.82,M,10.00,M,BKN,OVC,M,M,2200.00,2800.00,M,M,M,KHTS 010115Z AUTO 25008KT 10SM BKN022 OVC028 A2982 RMK MADISHF
HTS,2017-04-01 01:20,-82.5550,38.3650,M,M,M,260.00,5.00,M,29.83,M,10.00,M,OVC,M,M,M,2200.00,M,M,M,-RA,KHTS 010120Z AUTO 26005KT 10SM -RA OVC022 A2983 RMK MADISHF
HTS,2017-04-01 01:25,-82.5550,38.3650,M,M,M,250.00,6.00,M,29.83,M,10.00,M,OVC,M,M,M,2400.00,M,M,M,-RA,KHTS 010125Z AUTO 25006KT 10SM -RA OVC024 A2983 RMK MADISHF
HTS,2017-04-01 01:30,-82.5550,38.3650,M,M,M,250.00,7.00,M,29.83,M,10.00,M,BKN,OVC,M,M,2100.00,2700.00,M,M,-RA,KHTS 010130Z AUTO 25007KT 10SM -RA BKN021 OVC027 A2983 RMK MADISHF
HTS,2017-04-01 01:35,-82.5550,38.3650,M,M,M,250.00,10.00,M,29.84,M,10.00,M,BKN,OVC,M,M,2100.00,2700.00,M,M,-RA,KHTS 010135Z AUTO 25010KT 10SM -RA BKN021 OVC027 A2984 RMK MADISHF
HTS,2017-04-01 01:40,-82.5550,38.3650,M,M,M,260.00,8.00,M,29.84,M,10.00,M,BKN,OVC,M,M,2100.00,2700.00,M,M,-RA,KHTS 010140Z AUTO 26008KT 10SM -RA BKN021 OVC027 A2984 RMK MADISHF
HTS,2017-04-01 01:45,-82.5550,38.3650,M,M,M,260.00,8.00,M,29.84,M,10.00,M,BKN,OVC,M,M,2100.00,2700.00,M,M,-RA,KHTS 010145Z AUTO 26008KT 10SM -RA BKN021 OVC027 A2984 RMK MADISHF
HTS,2017-04-01 01:50,-82.5550,38.3650,M,M,M,260.00,8.00,M,29.84,M,10.00,M,BKN,OVC,M,M,1900.00,2500.00,M,M,M,KHTS 010150Z AUTO 26008KT 10SM BKN019 OVC025 A2984 RMK MADISHF
HTS,2017-04-01 01:51,-82.5550,38.3650,53.10,48.00,82.76,260.00,8.00,0.00,29.84,1010.40,10.00,M,BKN,OVC,M,M,1900.00,2700.00,M,M,M,KHTS 010151Z 26008KT 10SM BKN019 OVC027 12/09 A2984 RMK AO2 RAE0057B20E46 SLP104 P0000 T01170089
HTS,2017-04-01 01:55,-82.5550,38.3650,M,M,M,250.00,10.00,M,29.85,M,10.00,16.00,BKN,OVC,M,M,1900.00,2500.00,M,M,M,KHTS 010155Z AUTO 25010G16KT 10SM BKN019 OVC025 A2985 RMK MADISHF
HTS,2017-04-01 02:00,-82.5550,38.3650,M,M,M,260.00,9.00,M,29.85,M,10.00,M,FEW,BKN,OVC,M,1300.00,2100.00,2500.00,M,M,KHTS 010200Z AUTO 26009KT 10SM FEW013 BKN021 OVC025 A2985 RMK MADISHF
HTS,2017-04-01 02:05,-82.5550,38.3650,M,M,M,260.00,9.00,M,29.85,M,8.00,M,FEW,OVC,M,M,1300.00,2100.00,M,M,M,KHTS 010205Z AUTO 26009KT 8SM FEW013 OVC021 A2985 RMK MADISHF
HTS,2017-04-01 02:10,-82.5550,38.3650,M,M,M,260.00,9.00,M,29.85,M,6.00,M,FEW,BKN,OVC,M,1200.00,1900.00,2400.00,M,-RA BR,KHTS 010210Z AUTO 26009KT 6SM -RA BR FEW012 BKN019 OVC024 A2985 RMK MADISHF
HTS,2017-04-01 02:15,-82.5550,38.3650,M,M,M,260.00,9.00,M,29.85,M,5.00,M,FEW,BKN,OVC,M,1100.00,1999.00,2700.00,M,-RA BR,KHTS 010215Z AUTO 26009KT 5SM -RA BR FEW011 BKN019 OVC027 A2985 RMK MADISHF
HTS,2017-04-01 02:20,-82.5550,38.3650,M,M,M,270.00,7.00,M,29.85,M,7.00,M,FEW,SCT,OVC,M,1100.00,1600.00,2300.00,M,M,KHTS 010220Z AUTO 27007KT 7SM FEW011 SCT016 OVC023 A2985 RMK MADISHF
HTS,2017-04-01 02:25,-82.5550,38.3650,M,M,M,260.00,9.00,M,29.86,M,7.00,M,SCT,BKN,OVC,M,1100.00,1600.00,2200.00,M,M,KHTS 010225Z AUTO 26009KT 7SM SCT011 BKN016 OVC022 A2986 RMK MADISHF
HTS,2017-04-01 02:30,-82.5550,38.3650,M,M,M,260.00,7.00,M,29.86,M,8.00,M,SCT,OVC,M,M,1100.00,1900.00,M,M,M,KHTS 010230Z AUTO 26007KT 8SM SCT011 OVC019 A2986 RMK MADISHF
HTS,2017-04-01 02:35,-82.5550,38.3650,M,M,M,250.00,7.00,M,29.86,M,8.00,M,FEW,BKN,OVC,M,900.00,1500.00,2100.00,M,M,KHTS 010235Z AUTO 25007KT 8SM FEW009 BKN015 OVC021 A2986 RMK MADISHF
HTS,2017-04-01 02:38,-82.5550,38.3650,52.00,48.90,89.13,250.00,7.00,0.00,29.86,M,7.00,M,FEW,BKN,OVC,M,900.00,1500.00,2100.00,M,-RA,KHTS 010238Z 25007KT 7SM -RA FEW009 BKN015 OVC021 11/09 A2986 RMK AO2 RAB10E20B37 P0000 T01110094
HTS,2017-04-01 02:40,-82.5550,38.3650,M,M,M,260.00,8.00,M,29.86,M,7.00,M,FEW,BKN,OVC,M,900.00,1500.00,2100.00,M,-RA,KHTS 010240Z AUTO 26008KT 7SM -RA FEW009 BKN015 OVC021 A2986 RMK MADISHF
HTS,2017-04-01 02:45,-82.5550,38.3650,M,M,M,250.00,7.00,M,29.86,M,8.00,M,SCT,BKN,OVC,M,1100.00,1500.00,2100.00,M,-RA,KHTS 010245Z AUTO 25007KT 8SM -RA SCT011 BKN015 OVC021 A2986 RMK MADISHF
HTS,2017-04-01 02:50,-82.5550,38.3650,M,M,M,260.00,7.00,M,29.86,M,9.00,M,SCT,OVC,M,M,1100.00,1500.00,M,M,-RA,KHTS 010250Z AUTO 26007KT 9SM -RA SCT011 OVC015 A2986 RMK MADISHF
HTS,2017-04-01 02:51,-82.5550,38.3650,52.00,48.90,89.13,260.00,7.00,0.00,29.86,1011.00,9.00,M,SCT,OVC,M,M,1100.00,1500.00,M,M,-RA,KHTS 010251Z 26007KT 9SM -RA SCT011 OVC015 11/09 A2986 RMK AO2 RAB10E20B37 SLP110 P0000 60000 T01110094 51027
HTS,2017-04-01 02:55,-82.5550,38.3650,M,M,M,250.00,6.00,M,29.86,M,10.00,M,SCT,OVC,M,M,1100.00,1500.00,M,M,M,KHTS 010255Z AUTO 25006KT 10SM SCT011 OVC015 A2986 RMK MADISHF
HTS,2017-04-01 03:00,-82.5550,38.3650,M,M,M,260.00,6.00,M,29.86,M,10.00,M,SCT,OVC,M,M,1100.00,1500.00,M,M,M,KHTS 010300Z AUTO 26006KT 10SM SCT011 OVC015 A2986 RMK MADISHF
HTS,2017-04-01 03:05,-82.5550,38.3650,M,M,M,250.00,9.00,M,29.86,M,10.00,M,SCT,OVC,M,M,1100.00,1500.00,M,M,M,KHTS 010305Z AUTO 25009KT 10SM SCT011 OVC015 A2986 RMK MADISHF
HTS,2017-04-01 03:10,-82.5550,38.3650,M,M,M,260.00,9.00,M,29.86,M,10.00,M,SCT,OVC,M,M,1100.00,1500.00,M,M,M,KHTS 010310Z AUTO 26009KT 10SM SCT011 OVC015 A2986 RMK MADISHF
HTS,2017-04-01 03:15,-82.5550,38.3650,M,M,M,250.00,8.00,M,29.86,M,10.00,M,SCT,OVC,M,M,1100.00,1500.00,M,M,M,KHTS 010315Z AUTO 25008KT 10SM SCT011 OVC015 A2986 RMK MADISHF
HTS,2017-04-01 03:20,-82.5550,38.3650,M,M,M,260.00,8.00,M,29.86,M,10.00,M,SCT,OVC,M,M,1100.00,1500.00,M,M,M,KHTS 010320Z AUTO 26008KT 10SM SCT011 OVC015 A2986 RMK MADISHF
HTS,2017-04-01 03:25,-82.5550,38.3650,M,M,M,260.00,9.00,M,29.86,M,10.00,M,SCT,OVC,M,M,1100.00,1500.00,M,M,M,KHTS 010325Z AUTO 26009KT 10SM SCT011 OVC015 A2986 RMK MADISHF
HTS,2017-04-01 03:30,-82.5550,38.3650,M,M,M,260.00,9.00,M,29.86,M,10.00,M,SCT,OVC,M,M,1100.00,1500.00,M,M,-RA,KHTS 010330Z AUTO 26009KT 10SM -RA SCT011 OVC015 A2986 RMK MADISHF
HTS,2017-04-01 03:35,-82.5550,38.3650,M,M,M,280.00,6.00,M,29.87,M,10.00,M,SCT,OVC,M,M,1100.00,1500.00,M,M,-RA,KHTS 010335Z AUTO 28006KT 10SM -RA SCT011 OVC015 A2987 RMK VRB06KT  MADISHF
HTS,2017-04-01 03:40,-82.5550,38.3650,M,M,M,270.00,6.00,M,29.87,M,10.00,M,SCT,OVC,M,M,1100.00,1500.00,M,M,M,KHTS 010340Z AUTO 27006KT 10SM SCT011 OVC015 A2987 RMK MADISHF
HTS,2017-04-01 03:45,-82.5550,38.3650,M,M,M,270.00,6.00,M,29.87,M,10.00,M,SCT,OVC,M,M,1100.00,1500.00,M,M,M,KHTS 010345Z AUTO 27006KT 10SM SCT011 OVC015 A2987 RMK MADISHF
HTS,2017-04-01 03:50,-82.5550,38.3650,M,M,M,270.00,8.00,M,29.87,M,10.00,M,BKN,OVC,M,M,1100.00,1500.00,M,M,M,KHTS 010350Z AUTO 27008KT 10SM BKN011 OVC015 A2987 RMK MADISHF
HTS,2017-04-01 03:51,-82.5550,38.3650,52.00,48.00,86.17,270.00,8.00,0.00,29.87,1011.10,10.00,M,BKN,OVC,M,M,1100.00,1500.00,M,M,M,KHTS 010351Z 27008KT 10SM BKN011 OVC015 11/09 A2987 RMK AO2 RAE0253B27E39 SLP111 P0000 T01110089
HTS,2017-04-01 03:55,-82.5550,38.3650,M,M,M,260.00,9.00,M,29.87,M,10.00,M,BKN,OVC,M,M,1100.00,1400.00,M,M,M,KHTS 010355Z AUTO 26009KT 10SM BKN011 OVC014 A2987 RMK MADISHF
HTS,2017-04-01 04:00,-82.5550,38.3650,M,M,M,280.00,8.00,M,29.87,M,10.00,M,OVC,M,M,M,1100.00,M,M,M,M,KHTS 010400Z AUTO 28008KT 10SM OVC011 A2987 RMK MADISHF
HTS,2017-04-01 04:05,-82.5550,38.3650,M,M,M,260.00,8.00,M,29.87,M,10.00,M,OVC,M,M,M,1200.00,M,M,M,M,KHTS 010405Z AUTO 26008KT 10SM OVC012 A2987 RMK MADISHF
HTS,2017-04-01 04:10,-82.5550,38.3650,M,M,M,280.00,8.00,M,29.87,M,10.00,M,OVC,M,M,M,1200.00,M,M,M,M,KHTS 010410Z AUTO 28008KT 10SM OVC012 A2987 RMK MADISHF
HTS,2017-04-01 04:15,-82.5550,38.3650,M,M,M,260.00,8.00,M,29.87,M,10.00,M,OVC,M,M,M,1200.00,M,M,M,M,KHTS 010415Z AUTO 26008KT 10SM OVC012 A2987 RMK MADISHF
HTS,2017-04-01 04:20,-82.5550,38.3650,M,M,M,270.00,6.00,M,29.87,M,10.00,M,OVC,M,M,M,1300.00,M,M,M,M,KHTS 010420Z AUTO 27006KT 10SM OVC013 A2987 RMK MADISHF
HTS,2017-04-01 04:25,-82.5550,38.3650,M,M,M,280.00,6.00,M,29.87,M,10.00,M,OVC,M,M,M,1300.00,M,M,M,M,KHTS 010425Z AUTO 28006KT 10SM OVC013 A2987 RMK MADISHF
HTS,2017-04-01 04:30,-82.5550,38.3650,M,M,M,280.00,8.00,M,29.88,M,10.00,M,OVC,M,M,M,1300.00,M,M,M,M,KHTS 010430Z AUTO 28008KT 10SM OVC013 A2988 RMK MADISHF
HTS,2017-04-01 04:35,-82.5550,38.3650,M,M,M,290.00,6.00,M,29.88,M,10.00,M,OVC,M,M,M,1300.00,M,M,M,M,KHTS 010435Z AUTO 29006KT 10SM OVC013 A2988 RMK MADISHF
HTS,2017-04-01 04:40,-82.5550,38.3650,M,M,M,300.00,6.00,M,29.88,M,10.00,M,OVC,M,M,M,1300.00,M,M,M,M,KHTS 010440Z AUTO 30006KT 10SM OVC013 A2988 RMK MADISHF
HTS,2017-04-01 04:45,-82.5550,38.3650,M,M,M,300.00,8.00,M,29.88,M,10.00,M,OVC,M,M,M,1300.00,M,M,M,M,KHTS 010445Z AUTO 30008KT 10SM OVC013 A2988 RMK MADISHF
HTS,2017-04-01 04:50,-82.5550,38.3650,M,M,M,310.00,9.00,M,29.88,M,10.00,M,OVC,M,M,M,1200.00,M,M,M,M,KHTS 010450Z AUTO 31009KT 10SM OVC012 A2988 RMK MADISHF
HTS,2017-04-01 04:51,-82.5550,38.3650,51.10,46.90,85.48,310.00,9.00,0.00,29.88,1011.70,10.00,M,OVC,M,M,M,1200.00,M,M,M,M,KHTS 010451Z 31009KT 10SM OVC012 11/08 A2988 RMK AO2 SLP117 T01060083 402110106
HTS,2017-04-01 04:55,-82.5550,38.3650,M,M,M,310.00,8.00,M,29.88,M,10.00,M,OVC,M,M,M,1200.00,M,M,M,M,KHTS 010455Z AUTO 31008KT 10SM OVC012 A2988 RMK MADISHF
HTS,2017-04-01 05:00,-82.5550,38.3650,M,M,M,300.00,9.00,M,29.88,M,10.00,M,OVC,M,M,M,1200.00,M,M,M,M,KHTS 010500Z AUTO 30009KT 10SM OVC012 A2988 RMK MADISHF
HTS,2017-04-01 05:05,-82.5550,38.3650,M,M,M,290.00,6.00,M,29.89,M,10.00,M,OVC,M,M,M,1200.00,M,M,M,M,KHTS 010505Z AUTO 29006KT 10SM OVC012 A2989 RMK VRB06G15KT  MADISHF
HTS,2017-04-01 05:10,-82.5550,38.3650,M,M,M,280.00,7.00,M,29.89,M,10.00,M,OVC,M,M,M,1200.00,M,M,M,M,KHTS 010510Z AUTO 28007KT 10SM OVC012 A2989 RMK MADISHF
HTS,2017-04-01 05:15,-82.5550,38.3650,M,M,M,280.00,8.00,M,29.89,M,10.00,M,OVC,M,M,M,1100.00,M,M,M,M,KHTS 010515Z AUTO 28008KT 10SM OVC011 A2989 RMK MADISHF
HTS,2017-04-01 05:20,-82.5550,38.3650,M,M,M,290.00,5.00,M,29.89,M,10.00,M,OVC,M,M,M,1100.00,M,M,M,M,KHTS 010520Z AUTO 29005KT 10SM OVC011 A2989 RMK VRB05G14KT  MADISHF
HTS,2017-04-01 05:25,-82.5550,38.3650,M,M,M,290.00,6.00,M,29.89,M,10.00,M,OVC,M,M,M,1100.00,M,M,M,M,KHTS 010525Z AUTO 29006KT 10SM OVC011 A2989 RMK VRB06KT  MADISHF
HTS,2017-04-01 05:30,-82.5550,38.3650,M,M,M,300.00,6.00,M,29.90,M,10.00,M,OVC,M,M,M,1300.00,M,M,M,M,KHTS 010530Z AUTO 30006KT 10SM OVC013 A2990 RMK MADISHF
HTS,2017-04-01 05:35,-82.5550,38.3650,M,M,M,300.00,9.00,M,29.90,M,10.00,M,OVC,M,M,M,1300.00,M,M,M,M,KHTS 010535Z AUTO 30009KT 10SM OVC013 A2990 RMK MADISHF
HTS,2017-04-01 05:40,-82.5550,38.3650,M,M,M,300.00,8.00,M,29.90,M,10.00,M,OVC,M,M,M,1300.00,M,M,M,M,KHTS 010540Z AUTO 30008KT 10SM OVC013 A2990 RMK MADISHF
HTS,2017-04-01 05:45,-82.5550,38.3650,M,M,M,310.00,11.00,M,29.90,M,10.00,16.00,OVC,M,M,M,1300.00,M,M,M,M,KHTS 010545Z AUTO 31011G16KT 10SM OVC013 A2990 RMK MADISHF
HTS,2017-04-01 05:50,-82.5550,38.3650,M,M,M,300.00,8.00,M,29.91,M,10.00,M,OVC,M,M,M,1300.00,M,M,M,M,KHTS 010550Z AUTO 30008KT 10SM OVC013 A2991 RMK MADISHF
HTS,2017-04-01 05:51,-82.5550,38.3650,50.00,45.00,82.86,300.00,10.00,0.00,29.91,1012.50,10.00,17.00,OVC,M,M,M,1300.00,M,M,M,M,KHTS 010551Z 30010G17KT 10SM OVC013 10/07 A2991 RMK AO2 SLP125 60000 T01000072 10128 20100 53015
HTS,2017-04-01 05:55,-82.5550,38.3650,M,M,M,310.00,12.00,M,29.91,M,10.00,17.00,OVC,M,M,M,1300.00,M,M,M,M,KHTS 010555Z AUTO 31012G17KT 10SM OVC013 A2991 RMK MADISHF
HTS,2017-04-01 06:00,-82.5550,38.3650,M,M,M,300.00,8.00,M,29.91,M,10.00,M,OVC,M,M,M,1300.00,M,M,M,M,KHTS 010600Z AUTO 30008KT 10SM OVC013 A2991 RMK MADISHF
HTS,2017-04-01 06:05,-82.5550,38.3650,M,M,M,310.00,12.00,M,29.91,M,10.00,M,OVC,M,M,M,1300.00,M,M,M,M,KHTS 010605Z AUTO 31012KT 10SM OVC013 A2991 RMK MADISHF
HTS,2017-04-01 06:10,-82.5550,38.3650,M,M,M,310.00,10.00,M,29.92,M,10.00,M,OVC,M,M,M,1200.00,M,M,M,M,KHTS 010610Z AUTO 31010KT 10SM OVC012 A2992 RMK MADISHF
HTS,2017-04-01 06:15,-82.5550,38.3650,M,M,M,310.00,10.00,M,29.91,M,10.00,M,OVC,M,M,M,1200.00,M,M,M,M,KHTS 010615Z AUTO 31010KT 10SM OVC012 A2991 RMK MADISHF
HTS,2017-04-01 06:20,-82.5550,38.3650,M,M,M,300.00,9.00,M,29.92,M,10.00,M,OVC,M,M,M,1200.00,M,M,M,M,KHTS 010620Z AUTO 30009KT 10SM OVC012 A2992 RMK WND 27V33  MADISHF
HTS,2017-04-01 06:25,-82.5550,38.3650,M,M,M,300.00,6.00,M,29.92,M,10.00,M,OVC,M,M,M,1200.00,M,M,M,M,KHTS 010625Z AUTO 30006KT 10SM OVC012 A2992 RMK MADISHF
HTS,2017-04-01 06:30,-82.5550,38.3650,M,M,M,300.00,9.00,M,29.92,M,10.00,M,OVC,M,M,M,1200.00,M,M,M,M,KHTS 010630Z AUTO 30009KT 10SM OVC012 A2992 RMK MADISHF
HTS,2017-04-01 06:35,-82.5550,38.3650,M,M,M,310.00,11.00,M,29.92,M,10.00,M,OVC,M,M,M,1200.00,M,M,M,M,KHTS 010635Z AUTO 31011KT 10SM OVC012 A2992 RMK MADISHF
HTS,2017-04-01 06:40,-82.5550,38.3650,M,M,M,310.00,10.00,M,29.92,M,10.00,M,OVC,M,M,M,1300.00,M,M,M,M,KHTS 010640Z AUTO 31010KT 10SM OVC013 A2992 RMK MADISHF
HTS,2017-04-01 06:45,-82.5550,38.3650,M,M,M,310.00,8.00,M,29.93,M,10.00,M,OVC,M,M,M,1300.00,M,M,M,M,KHTS 010645Z AUTO 31008KT 10SM OVC013 A2993 RMK MADISHF
HTS,2017-04-01 06:50,-82.5550,38.3650,M,M,M,310.00,10.00,M,29.93,M,10.00,M,OVC,M,M,M,1300.00,M,M,M,M,KHTS 010650Z AUTO 31010KT 10SM OVC013 A2993 RMK MADISHF
HTS,2017-04-01 06:51,-82.5550,38.3650,48.90,44.10,83.42,300.00,9.00,0.00,29.93,1013.20,10.00,M,OVC,M,M,M,1300.00,M,M,M,M,KHTS 010651Z 30009KT 10SM OVC013 09/07 A2993 RMK AO2 SLP132 T00940067
HTS,2017-04-01 06:55,-82.5550,38.3650,M,M,M,310.00,7.00,M,29.93,M,10.00,M,OVC,M,M,M,1300.00,M,M,M,M,KHTS 010655Z AUTO 31007KT 10SM OVC013 A2993 RMK MADISHF
HTS,2017-04-01 07:00,-82.5550,38.3650,M,M,M,290.00,9.00,M,29.93,M,10.00,M,OVC,M,M,M,1300.00,M,M,M,M,KHTS 010700Z AUTO 29009KT 10SM OVC013 A2993 RMK MADISHF
HTS,2017-04-01 07:05,-82.5550,38.3650,M,M,M,300.00,9.00,M,29.94,M,10.00,M,OVC,M,M,M,1300.00,M,M,M,M,KHTS 010705Z AUTO 30009KT 10SM OVC013 A2994 RMK MADISHF
HTS,2017-04-01 07:10,-82.5550,38.3650,M,M,M,300.00,10.00,M,29.94,M,10.00,15.00,OVC,M,M,M,1300.00,M,M,M,M,KHTS 010710Z AUTO 30010G15KT 10SM OVC013 A2994 RMK MADISHF
HTS,2017-04-01 07:15,-82.5550,38.3650,M,M,M,300.00,11.00,M,29.94,M,10.00,M,OVC,M,M,M,1300.00,M,M,M,M,KHTS 010715Z AUTO 30011KT 10SM OVC013 A2994 RMK MADISHF
HTS,2017-04-01 07:20,-82.5550,38.3650,M,M,M,300.00,8.00,M,29.94,M,10.00,M,OVC,M,M,M,1300.00,M,M,M,M,KHTS 010720Z AUTO 30008KT 10SM OVC013 A2994 RMK MADISHF
HTS,2017-04-01 07:25,-82.5550,38.3650,M,M,M,300.00,9.00,M,29.94,M,10.00,M,OVC,M,M,M,1200.00,M,M,M,M,KHTS 010725Z AUTO 30009KT 10SM OVC012 A2994 RMK MADISHF
HTS,2017-04-01 07:30,-82.5550,38.3650,M,M,M,290.00,11.00,M,29.94,M,10.00,M,OVC,M,M,M,1200.00,M,M,M,M,KHTS 010730Z AUTO 29011KT 10SM OVC012 A2994 RMK MADISHF
HTS,2017-04-01 07:35,-82.5550,38.3650,M,M,M,290.00,7.00,M,29.95,M,10.00,M,OVC,M,M,M,1200.00,M,M,M,M,KHTS 010735Z AUTO 29007KT 10SM OVC012 A2995 RMK MADISHF
HTS,2017-04-01 07:40,-82.5550,38.3650,M,M,M,310.00,11.00,M,29.95,M,10.00,M,OVC,M,M,M,1200.00,M,M,M,M,KHTS 010740Z AUTO 31011KT 10SM OVC012 A2995 RMK MADISHF
HTS,2017-04-01 07:45,-82.5550,38.3650,M,M,M,300.00,10.00,M,29.95,M,10.00,15.00,OVC,M,M,M,1200.00,M,M,M,M,KHTS 010745Z AUTO 30010G15KT 10SM OVC012 A2995 RMK MADISHF
HTS,2017-04-01 07:50,-82.5550,38.3650,M,M,M,290.00,8.00,M,29.95,M,10.00,M,OVC,M,M,M,1400.00,M,M,M,M,KHTS 010750Z AUTO 29008KT 10SM OVC014 A2995 RMK MADISHF
HTS,2017-04-01 07:51,-82.5550,38.3650,48.00,43.00,82.72,300.00,8.00,0.00,29.95,1014.20,10.00,19.00,OVC,M,M,M,1400.00,M,M,M,M,KHTS 010751Z 30008G19KT 10SM OVC014 09/06 A2995 RMK AO2 SLP142 T00890061
HTS,2017-04-01 07:55,-82.5550,38.3650,M,M,M,300.00,10.00,M,29.96,M,10.00,M,OVC,M,M,M,1400.00,M,M,M,M,KHTS 010755Z AUTO 30010KT 10SM OVC014 A2996 RMK MADISHF
HTS,2017-04-01 08:00,-82.5550,38.3650,M,M,M,300.00,10.00,M,29.96,M,10.00,M,OVC,M,M,M,1400.00,M,M,M,M,KHTS 010800Z AUTO 30010KT 10SM OVC014 A2996 RMK MADISHF
HTS,2017-04-01 08:05,-82.5550,38.3650,M,M,M,290.00,7.00,M,29.96,M,10.00,M,OVC,M,M,M,1200.00,M,M,M,M,KHTS 010805Z AUTO 29007KT 10SM OVC012 A2996 RMK WND 26V33  MADISHF
HTS,2017-04-01 08:10,-82.5550,38.3650,M,M,M,310.00,8.00,M,29.96,M,10.00,M,OVC,M,M,M,1200.00,M,M,M,M,KHTS 010810Z AUTO 31008KT 10SM OVC012 A2996 RMK MADISHF
HTS,2017-04-01 08:15,-82.5550,38.3650,M,M,M,310.00,10.00,M,29.96,M,10.00,M,OVC,M,M,M,1200.00,M,M,M,M,KHTS 010815Z AUTO 31010KT 10SM OVC012 A2996 RMK MADISHF
HTS,2017-04-01 08:20,-82.5550,38.3650,M,M,M,300.00,9.00,M,29.97,M,10.00,M,OVC,M,M,M,999.00,M,M,M,M,KHTS 010820Z AUTO 30009KT 10SM OVC009 A2997 RMK CIG 8V15  MADISHF
HTS,2017-04-01 08:25,-82.5550,38.3650,M,M,M,300.00,8.00,M,29.97,M,9.00,M,OVC,M,M,M,999.00,M,M,M,M,KHTS 010825Z AUTO 30008KT 9SM OVC009 A2997 RMK CIG 8V13  MADISHF
HTS,2017-04-01 08:30,-82.5550,38.3650,M,M,M,300.00,8.00,M,29.97,M,9.00,M,OVC,M,M,M,800.00,M,M,M,M,KHTS 010830Z AUTO 30008KT 9SM OVC008 A2997 RMK CIG 8V11  MADISHF
HTS,2017-04-01 08:35,-82.5550,38.3650,M,M,M,310.00,8.00,M,29.97,M,9.00,M,OVC,M,M,M,800.00,M,M,M,M,KHTS 010835Z AUTO 31008KT 9SM OVC008 A2997 RMK MADISHF
HTS,2017-04-01 08:36,-82.5550,38.3650,46.90,43.00,86.21,310.00,8.00,0.00,29.97,M,10.00,M,OVC,M,M,M,800.00,M,M,M,M,KHTS 010836Z 31008KT 10SM OVC008 08/06 A2997 RMK AO2 T00830061
HTS,2017-04-01 08:40,-82.5550,38.3650,M,M,M,310.00,9.00,M,29.97,M,10.00,M,OVC,M,M,M,800.00,M,M,M,M,KHTS 010840Z AUTO 31009KT 10SM OVC008 A2997 RMK CIG 8V11  MADISHF
HTS,2017-04-01 08:45,-82.5550,38.3650,M,M,M,300.00,9.00,M,29.97,M,10.00,M,BKN,OVC,M,M,999.00,1300.00,M,M,M,KHTS 010845Z AUTO 30009KT 10SM BKN009 OVC013 A2997 RMK CIG 8V12  MADISHF
HTS,2017-04-01 08:49,-82.5550,38.3650,46.40,42.80,87.19,310.00,7.00,0.00,29.97,M,10.00,M,BKN,OVC,M,M,1000.00,1300.00,M,M,M,KHTS 010849Z 31007KT 10SM BKN010 OVC013 08/06 A2997 RMK AO2 CIG 008V011
HTS,2017-04-01 08:50,-82.5550,38.3650,M,M,M,310.00,8.00,M,29.98,M,10.00,M,BKN,OVC,M,M,999.00,1300.00,M,M,M,KHTS 010850Z AUTO 31008KT 10SM BKN009 OVC013 A2998 RMK CIG 8V11  MADISHF
HTS,2017-04-01 08:51,-82.5550,38.3650,46.90,43.00,86.21,300.00,8.00,0.00,29.98,1015.00,10.00,M,OVC,M,M,M,1000.00,M,M,M,M,KHTS 010851Z 30008KT 10SM OVC010 08/06 A2998 RMK AO2 CIG 008V015 SLP150 T00830061 51016
HTS,2017-04-01 08:55,-82.5550,38.3650,M,M,M,300.00,5.00,M,29.98,M,10.00,M,OVC,M,M,M,999.00,M,M,M,M,KHTS 010855Z AUTO 30005KT 10SM OVC009 A2998 RMK CIG 8V15  MADISHF
HTS,2017-04-01 09:00,-82.5550,38.3650,M,M,M,290.00,8.00,M,29.98,M,10.00,M,OVC,M,M,M,999.00,M,M,M,M,KHTS 010900Z AUTO 29008KT 10SM OVC009 A2998 RMK CIG 8V15  MADISHF
HTS,2017-04-01 09:05,-82.5550,38.3650,M,M,M,310.00,8.00,M,29.98,M,10.00,M,BKN,OVC,M,M,999.00,1300.00,M,M,M,KHTS 010905Z AUTO 31008KT 10SM BKN009 OVC013 A2998 RMK MADISHF
HTS,2017-04-01 09:10,-82.5550,38.3650,M,M,M,300.00,6.00,M,29.98,M,10.00,M,OVC,M,M,M,999.00,M,M,M,M,KHTS 010910Z AUTO 30006KT 10SM OVC009 A2998 RMK MADISHF
HTS,2017-04-01 09:15,-82.5550,38.3650,M,M,M,280.00,6.00,M,29.99,M,9.00,M,OVC,M,M,M,999.00,M,M,M,M,KHTS 010915Z AUTO 28006KT 9SM OVC009 A2999 RMK MADISHF
HTS,2017-04-01 09:20,-82.5550,38.3650,M,M,M,310.00,10.00,M,29.99,M,10.00,M,OVC,M,M,M,900.00,M,M,M,M,KHTS 010920Z AUTO 31010KT 10SM OVC009 A2999 RMK MADISHF
HTS,2017-04-01 09:22,-82.5550,38.3650,46.90,42.10,83.28,310.00,10.00,0.00,29.99,M,9.00,15.00,OVC,M,M,M,900.00,M,M,M,M,KHTS 010922Z 31010G15KT 9SM OVC009 08/06 A2999 RMK AO2 T00830056
HTS,2017-04-01 09:25,-82.5550,38.3650,M,M,M,310.00,8.00,M,29.99,M,9.00,M,OVC,M,M,M,900.00,M,M,M,M,KHTS 010925Z AUTO 31008KT 9SM OVC009 A2999 RMK CIG 8V13  MADISHF
HTS,2017-04-01 09:30,-82.5550,38.3650,M,M,M,300.00,6.00,M,30.00,M,9.00,M,OVC,M,M,M,900.00,M,M,M,M,KHTS 010930Z AUTO 30006KT 9SM OVC009 A3000 RMK MADISHF
HTS,2017-04-01 09:35,-82.5550,38.3650,M,M,M,300.00,9.00,M,30.00,M,8.00,M,OVC,M,M,M,900.00,M,M,M,M,KHTS 010935Z AUTO 30009KT 8SM OVC009 A3000 RMK CIG 8V13  MADISHF
HTS,2017-04-01 09:40,-82.5550,38.3650,M,M,M,310.00,8.00,M,30.00,M,8.00,M,OVC,M,M,M,900.00,M,M,M,M,KHTS 010940Z AUTO 31008KT 8SM OVC009 A3000 RMK CIG 8V13  MADISHF
HTS,2017-04-01 09:45,-82.5550,38.3650,M,M,M,320.00,5.00,M,30.00,M,8.00,M,OVC,M,M,M,900.00,M,M,M,M,KHTS 010945Z AUTO 32005KT 8SM OVC009 A3000 RMK CIG 8V13  MADISHF
HTS,2017-04-01 09:50,-82.5550,38.3650,M,M,M,340.00,9.00,M,30.00,M,8.00,M,OVC,M,M,M,900.00,M,M,M,M,KHTS 010950Z AUTO 34009KT 8SM OVC009 A3000 RMK MADISHF
HTS,2017-04-01 09:51,-82.5550,38.3650,46.00,42.10,86.16,330.00,8.00,0.00,30.00,1015.80,8.00,M,OVC,M,M,M,900.00,M,M,M,M,KHTS 010951Z 33008KT 8SM OVC009 08/06 A3000 RMK AO2 SLP158 T00780056
HTS,2017-04-01 09:55,-82.5550,38.3650,M,M,M,330.00,9.00,M,30.00,M,9.00,M,OVC,M,M,M,800.00,M,M,M,M,KHTS 010955Z AUTO 33009KT 9SM OVC008 A3000 RMK MADISHF
HTS,2017-04-01 10:00,-82.5550,38.3650,M,M,M,330.00,7.00,M,30.00,M,9.00,M,OVC,M,M,M,800.00,M,M,M,M,KHTS 011000Z AUTO 33007KT 9SM OVC008 A3000 RMK MADISHF
HTS,2017-04-01 10:05,-82.5550,38.3650,M,M,M,330.00,6.00,M,30.00,M,9.00,M,OVC,M,M,M,800.00,M,M,M,M,KHTS 011005Z AUTO 33006KT 9SM OVC008 A3000 RMK MADISHF
HTS,2017-04-01 10:10,-82.5550,38.3650,M,M,M,320.00,7.00,M,30.01,M,9.00,M,OVC,M,M,M,900.00,M,M,M,M,KHTS 011010Z AUTO 32007KT 9SM OVC009 A3001 RMK MADISHF
HTS,2017-04-01 10:15,-82.5550,38.3650,M,M,M,320.00,7.00,M,30.01,M,10.00,M,OVC,M,M,M,900.00,M,M,M,M,KHTS 011015Z AUTO 32007KT 10SM OVC009 A3001 RMK MADISHF
HTS,2017-04-01 10:20,-82.5550,38.3650,M,M,M,320.00,7.00,M,30.02,M,10.00,M,OVC,M,M,M,900.00,M,M,M,M,KHTS 011020Z AUTO 32007KT 10SM OVC009 A3002 RMK MADISHF
HTS,2017-04-01 10:25,-82.5550,38.3650,M,M,M,330.00,7.00,M,30.02,M,10.00,M,OVC,M,M,M,900.00,M,M,M,M,KHTS 011025Z AUTO 33007KT 10SM OVC009 A3002 RMK MADISHF
HTS,2017-04-01 10:30,-82.5550,38.3650,M,M,M,330.00,6.00,M,30.02,M,10.00,M,OVC,M,M,M,900.00,M,M,M,M,KHTS 011030Z AUTO 33006KT 10SM OVC009 A3002 RMK MADISHF
HTS,2017-04-01 10:35,-82.5550,38.3650,M,M,M,330.00,7.00,M,30.02,M,10.00,M,OVC,M,M,M,900.00,M,M,M,M,KHTS 011035Z AUTO 33007KT 10SM OVC009 A3002 RMK MADISHF
HTS,2017-04-01 10:40,-82.5550,38.3650,M,M,M,310.00,7.00,M,30.03,M,10.00,M,OVC,M,M,M,900.00,M,M,M,M,KHTS 011040Z AUTO 31007KT 10SM OVC009 A3003 RMK MADISHF
HTS,2017-04-01 10:45,-82.5550,38.3650,M,M,M,330.00,8.00,M,30.03,M,10.00,M,OVC,M,M,M,999.00,M,M,M,M,KHTS 011045Z AUTO 33008KT 10SM OVC009 A3003 RMK MADISHF
HTS,2017-04-01 10:47,-82.5550,38.3650,44.60,41.00,87.09,330.00,7.00,0.00,30.03,M,10.00,M,OVC,M,M,M,1000.00,M,M,M,M,KHTS 011047Z 33007KT 10SM OVC010 07/05 A3003 RMK AO2
HTS,2017-04-01 10:50,-82.5550,38.3650,M,M,M,320.00,6.00,M,30.03,M,10.00,M,OVC,M,M,M,999.00,M,M,M,M,KHTS 011050Z AUTO 32006KT 10SM OVC009 A3003 RMK MADISHF
HTS,2017-04-01 10:51,-82.5550,38.3650,45.00,41.00,85.77,310.00,6.00,0.00,30.03,1017.10,9.00,M,OVC,M,M,M,1000.00,M,M,M,M,KHTS 011051Z 31006KT 9SM OVC010 07/05 A3003 RMK AO2 SLP171 T00720050
HTS,2017-04-01 10:55,-82.5550,38.3650,M,M,M,330.00,9.00,M,30.04,M,8.00,M,OVC,M,M,M,999.00,M,M,M,M,KHTS 011055Z AUTO 33009KT 8SM OVC009 A3004 RMK MADISHF
HTS,2017-04-01 11:00,-82.5550,38.3650,M,M,M,330.00,8.00,M,30.04,M,5.00,M,OVC,M,M,M,999.00,M,M,M,-RA BR,KHTS 011100Z AUTO 33008KT 5SM -RA BR OVC009 A3004 RMK MADISHF
HTS,2017-04-01 11:05,-82.5550,38.3650,M,M,M,330.00,8.00,M,30.04,M,5.00,M,OVC,M,M,M,999.00,M,M,M,-RA BR,KHTS 011105Z AUTO 33008KT 5SM -RA BR OVC009 A3004 RMK MADISHF
HTS,2017-04-01 11:10,-82.5550,38.3650,M,M,M,320.00,7.00,M,30.04,M,4.00,M,OVC,M,M,M,999.00,M,M,M,-RA BR,KHTS 011110Z AUTO 32007KT 4SM -RA BR OVC009 A3004 RMK CIG 7V12  MADISHF
HTS,2017-04-01 11:15,-82.5550,38.3650,M,M,M,320.00,8.00,M,30.05,M,4.00,M,OVC,M,M,M,999.00,M,M,M,-RA BR,KHTS 011115Z AUTO 32008KT 4SM -RA BR OVC009 A3005 RMK MADISHF
HTS,2017-04-01 11:20,-82.5550,38.3650,M,M,M,320.00,7.00,M,30.05,M,4.00,M,OVC,M,M,M,1200.00,M,M,M,-RA BR,KHTS 011120Z AUTO 32007KT 4SM -RA BR OVC012 A3005 RMK MADISHF
HTS,2017-04-01 11:25,-82.5550,38.3650,M,M,M,320.00,8.00,M,30.05,M,4.00,M,OVC,M,M,M,1300.00,M,M,M,-RA BR,KHTS 011125Z AUTO 32008KT 4SM -RA BR OVC013 A3005 RMK MADISHF
HTS,2017-04-01 11:30,-82.5550,38.3650,M,M,M,300.00,6.00,M,30.05,M,5.00,M,OVC,M,M,M,1300.00,M,M,M,BR,KHTS 011130Z AUTO 30006KT 5SM BR OVC013 A3005 RMK MADISHF
HTS,2017-04-01 11:35,-82.5550,38.3650,M,M,M,310.00,6.00,M,30.05,M,5.00,M,OVC,M,M,M,999.00,M,M,M,BR,KHTS 011135Z AUTO 31006KT 5SM BR OVC009 A3005 RMK MADISHF
HTS,2017-04-01 11:40,-82.5550,38.3650,M,M,M,300.00,7.00,M,30.06,M,5.00,M,OVC,M,M,M,999.00,M,M,M,BR,KHTS 011140Z AUTO 30007KT 5SM BR OVC009 A3006 RMK MADISHF
HTS,2017-04-01 11:45,-82.5550,38.3650,M,M,M,300.00,6.00,M,30.06,M,7.00,M,OVC,M,M,M,999.00,M,M,M,M,KHTS 011145Z AUTO 30006KT 7SM OVC009 A3006 RMK VRB06KT  MADISHF
HTS,2017-04-01 11:50,-82.5550,38.3650,M,M,M,300.00,7.00,M,30.06,M,5.00,M,OVC,M,M,M,999.00,M,M,M,BR,KHTS 011150Z AUTO 30007KT 5SM BR OVC009 A3006 RMK MADISHF
HTS,2017-04-01 11:51,-82.5550,38.3650,44.10,41.00,88.77,300.00,7.00,0.00,30.06,1017.90,5.00,M,OVC,M,M,M,1000.00,M,M,M,BR,KHTS 011151Z 30007KT 5SM BR OVC010 07/05 A3006 RMK AO2 RAB1059E30 SLP179 P0000 60000 70021 T00670050 10100 20067 51019
HTS,2017-04-01 11:55,-82.5550,38.3650,M,M,M,310.00,7.00,M,30.06,M,3.50,M,BKN,OVC,M,M,1400.00,2800.00,M,M,BR,KHTS 011155Z AUTO 31007KT 3SM BR BKN014 OVC028 A3006 RMK MADISHF
HTS,2017-04-01 12:00,-82.5550,38.3650,M,M,M,320.00,7.00,M,30.06,M,4.00,M,OVC,M,M,M,1400.00,M,M,M,BR,KHTS 011200Z AUTO 32007KT 4SM BR OVC014 A3006 RMK MADISHF
HTS,2017-04-01 12:05,-82.5550,38.3650,M,M,M,310.00,5.00,M,30.06,M,7.00,M,BKN,BKN,OVC,M,1400.00,1800.00,2400.00,M,M,KHTS 011205Z AUTO 31005KT 7SM BKN014 BKN018 OVC024 A3006 RMK MADISHF
HTS,2017-04-01 12:10,-82.5550,38.3650,M,M,M,310.00,7.00,M,30.07,M,10.00,M,BKN,BKN,OVC,M,1400.00,2400.00,2900.00,M,M,KHTS 011210Z AUTO 31007KT 10SM BKN014 BKN024 OVC029 A3007 RMK MADISHF
HTS,2017-04-01 12:15,-82.5550,38.3650,M,M,M,310.00,7.00,M,30.07,M,10.00,M,BKN,OVC,M,M,1400.00,2200.00,M,M,M,KHTS 011215Z AUTO 31007KT 10SM BKN014 OVC022 A3007 RMK MADISHF
HTS,2017-04-01 12:20,-82.5550,38.3650,M,M,M,310.00,5.00,M,30.07,M,10.00,M,BKN,OVC,M,M,1400.00,2200.00,M,M,M,KHTS 011220Z AUTO 31005KT 10SM BKN014 OVC022 A3007 RMK MADISHF
HTS,2017-04-01 12:25,-82.5550,38.3650,M,M,M,320.00,6.00,M,30.07,M,10.00,M,BKN,OVC,M,M,1300.00,2200.00,M,M,M,KHTS 011225Z AUTO 32006KT 10SM BKN013 OVC022 A3007 RMK MADISHF
HTS,2017-04-01 12:30,-82.5550,38.3650,M,M,M,320.00,6.00,M,30.08,M,10.00,M,BKN,OVC,M,M,1500.00,2200.00,M,M,M,KHTS 011230Z AUTO 32006KT 10SM BKN015 OVC022 A3008 RMK MADISHF
HTS,2017-04-01 12:34,-82.5550,38.3650,44.10,41.00,88.77,320.00,5.00,0.00,30.08,M,10.00,M,BKN,OVC,M,M,1500.00,2200.00,M,M,M,KHTS 011234Z 32005KT 10SM BKN015 OVC022 07/05 A3008 RMK AO2 T00670050
HTS,2017-04-01 12:35,-82.5550,38.3650,M,M,M,320.00,7.00,M,30.08,M,10.00,M,BKN,OVC,M,M,1500.00,2200.00,M,M,M,KHTS 011235Z AUTO 32007KT 10SM BKN015 OVC022 A3008 RMK MADISHF
HTS,2017-04-01 12:40,-82.5550,38.3650,M,M,M,310.00,5.00,M,30.08,M,10.00,M,BKN,OVC,M,M,1500.00,2200.00,M,M,M,KHTS 011240Z AUTO 31005KT 10SM BKN015 OVC022 A3008 RMK MADISHF
HTS,2017-04-01 12:45,-82.5550,38.3650,M,M,M,330.00,7.00,M,30.08,M,10.00,M,BKN,OVC,M,M,1500.00,2200.00,M,M,M,KHTS 011245Z AUTO 33007KT 10SM BKN015 OVC022 A3008 RMK MADISHF
HTS,2017-04-01 12:50,-82.5550,38.3650,M,M,M,320.00,8.00,M,30.09,M,10.00,M,BKN,OVC,M,M,1500.00,1999.00,M,M,M,KHTS 011250Z AUTO 32008KT 10SM BKN015 OVC019 A3009 RMK MADISHF
HTS,2017-04-01 12:51,-82.5550,38.3650,45.00,41.00,85.77,320.00,7.00,0.00,30.09,1018.90,10.00,M,BKN,OVC,M,M,1500.00,2000.00,M,M,M,KHTS 011251Z 32007KT 10SM BKN015 OVC020 07/05 A3009 RMK AO2 SLP189 T00720050
HTS,2017-04-01 12:55,-82.5550,38.3650,M,M,M,310.00,8.00,M,30.09,M,10.00,M,BKN,OVC,M,M,1500.00,1999.00,M,M,M,KHTS 011255Z AUTO 31008KT 10SM BKN015 OVC019 A3009 RMK MADISHF
HTS,2017-04-01 13:00,-82.5550,38.3650,M,M,M,320.00,9.00,M,30.09,M,10.00,M,BKN,OVC,M,M,1500.00,2200.00,M,M,M,KHTS 011300Z AUTO 32009KT 10SM BKN015 OVC022 A3009 RMK MADISHF
HTS,2017-04-01 13:05,-82.5550,38.3650,M,M,M,310.00,7.00,M,30.09,M,10.00,M,BKN,OVC,M,M,1500.00,2200.00,M,M,M,KHTS 011305Z AUTO 31007KT 10SM BKN015 OVC022 A3009 RMK MADISHF
HTS,2017-04-01 13:10,-82.5550,38.3650,M,M,M,310.00,6.00,M,30.09,M,10.00,M,BKN,OVC,M,M,1500.00,2200.00,M,M,M,KHTS 011310Z AUTO 31006KT 10SM BKN015 OVC022 A3009 RMK MADISHF
HTS,2017-04-01 13:15,-82.5550,38.3650,M,M,M,320.00,4.00,M,30.09,M,10.00,M,BKN,BKN,OVC,M,1500.00,2200.00,2700.00,M,M,KHTS 011315Z AUTO 32004KT 10SM BKN015 BKN022 OVC027 A3009 RMK MADISHF
HTS,2017-04-01 13:20,-82.5550,38.3650,M,M,M,310.00,8.00,M,30.10,M,10.00,M,BKN,BKN,OVC,M,1500.00,2200.00,2700.00,M,M,KHTS 011320Z AUTO 31008KT 10SM BKN015 BKN022 OVC027 A3010 RMK MADISHF
HTS,2017-04-01 13:25,-82.5550,38.3650,M,M,M,310.00,9.00,M,30.10,M,10.00,M,SCT,BKN,OVC,M,1500.00,2200.00,2900.00,M,M,KHTS 011325Z AUTO 31009KT 10SM SCT015 BKN022 OVC029 A3010 RMK MADISHF
HTS,2017-04-01 13:30,-82.5550,38.3650,M,M,M,310.00,8.00,M,30.10,M,10.00,M,SCT,BKN,OVC,M,1500.00,2200.00,2900.00,M,M,KHTS 011330Z AUTO 31008KT 10SM SCT015 BKN022 OVC029 A3010 RMK MADISHF
HTS,2017-04-01 13:35,-82.5550,38.3650,M,M,M,320.00,10.00,M,30.10,M,10.00,M,BKN,BKN,OVC,M,1699.00,2400.00,3200.00,M,M,KHTS 011335Z AUTO 32010KT 10SM BKN016 BKN024 OVC032 A3010 RMK MADISHF
HTS,2017-04-01 13:40,-82.5550,38.3650,M,M,M,310.00,6.00,M,30.11,M,10.00,M,BKN,BKN,OVC,M,1699.00,2400.00,3200.00,M,M,KHTS 011340Z AUTO 31006KT 10SM BKN016 BKN024 OVC032 A3011 RMK MADISHF
HTS,2017-04-01 13:45,-82.5550,38.3650,M,M,M,320.00,8.00,M,30.11,M,9.00,M,BKN,BKN,OVC,M,1699.00,2600.00,3000.00,M,M,KHTS 011345Z AUTO 32008KT 9SM BKN016 BKN026 OVC030 A3011 RMK MADISHF
HTS,2017-04-01 13:50,-82.5550,38.3650,M,M,M,310.00,4.00,M,30.11,M,7.00,M,SCT,BKN,OVC,M,1699.00,2400.00,3000.00,M,M,KHTS 011350Z AUTO 31004KT 7SM SCT016 BKN024 OVC030 A3011 RMK MADISHF
HTS,2017-04-01 13:51,-82.5550,38.3650,45.00,39.90,82.19,300.00,5.00,0.00,30.11,1019.70,7.00,M,SCT,BKN,OVC,M,1700.00,2400.00,3100.00,M,M,KHTS 011351Z 30005KT 7SM SCT017 BKN024 OVC031 07/04 A3011 RMK AO2 SLP197 T00720044
HTS,2017-04-01 13:55,-82.5550,38.3650,M,M,M,310.00,5.00,M,30.11,M,8.00,M,SCT,OVC,M,M,1699.00,2400.00,M,M,M,KHTS 011355Z AUTO 31005KT 8SM SCT016 OVC024 A3011 RMK MADISHF
HTS,2017-04-01 14:00,-82.5550,38.3650,M,M,M,300.00,7.00,M,30.11,M,10.00,M,BKN,OVC,M,M,1699.00,2400.00,M,M,M,KHTS 011400Z AUTO 30007KT 10SM BKN016 OVC024 A3011 RMK MADISHF
HTS,2017-04-01 14:05,-82.5550,38.3650,M,M,M,320.00,9.00,M,30.12,M,10.00,M,BKN,OVC,M,M,1699.00,2400.00,M,M,M,KHTS 011405Z AUTO 32009KT 10SM BKN016 OVC024 A3012 RMK MADISHF
HTS,2017-04-01 14:10,-82.5550,38.3650,M,M,M,310.00,6.00,M,30.12,M,10.00,M,BKN,BKN,OVC,M,1699.00,2400.00,3000.00,M,M,KHTS 011410Z AUTO 31006KT 10SM BKN016 BKN024 OVC030 A3012 RMK MADISHF
HTS,2017-04-01 14:15,-82.5550,38.3650,M,M,M,280.00,8.00,M,30.12,M,10.00,M,SCT,BKN,OVC,M,1699.00,2400.00,3999.00,M,M,KHTS 011415Z AUTO 28008KT 10SM SCT016 BKN024 OVC039 A3012 RMK MADISHF
HTS,2017-04-01 14:20,-82.5550,38.3650,M,M,M,300.00,6.00,M,30.12,M,10.00,M,BKN,BKN,OVC,M,1699.00,2400.00,3999.00,M,M,KHTS 011420Z AUTO 30006KT 10SM BKN016 BKN024 OVC039 A3012 RMK MADISHF
HTS,2017-04-01 14:25,-82.5550,38.3650,M,M,M,300.00,7.00,M,30.12,M,10.00,M,BKN,BKN,OVC,M,1699.00,2400.00,4100.00,M,M,KHTS 011425Z AUTO 30007KT 10SM BKN016 BKN024 OVC041 A3012 RMK MADISHF
HTS,2017-04-01 14:30,-82.5550,38.3650,M,M,M,310.00,6.00,M,30.12,M,10.00,M,BKN,BKN,OVC,M,1699.00,2400.00,4100.00,M,M,KHTS 011430Z AUTO 31006KT 10SM BKN016 BKN024 OVC041 A3012 RMK MADISHF
HTS,2017-04-01 14:35,-82.5550,38.3650,M,M,M,320.00,7.00,M,30.12,M,10.00,M,SCT,BKN,OVC,M,1699.00,2300.00,4300.00,M,M,KHTS 011435Z AUTO 32007KT 10SM SCT016 BKN023 OVC043 A3012 RMK MADISHF
HTS,2017-04-01 14:40,-82.5550,38.3650,M,M,M,310.00,8.00,M,30.12,M,10.00,M,FEW,BKN,OVC,M,1699.00,2300.00,4500.00,M,M,KHTS 011440Z AUTO 31008KT 10SM FEW016 BKN023 OVC045 A3012 RMK MADISHF
HTS,2017-04-01 14:45,-82.5550,38.3650,M,M,M,310.00,9.00,M,30.12,M,10.00,M,FEW,BKN,OVC,M,1699.00,2300.00,3600.00,M,M,KHTS 011445Z AUTO 31009KT 10SM FEW016 BKN023 OVC036 A3012 RMK MADISHF
HTS,2017-04-01 14:50,-82.5550,38.3650,M,M,M,300.00,8.00,M,30.12,M,10.00,M,FEW,SCT,OVC,M,1699.00,2300.00,3000.00,M,M,KHTS 011450Z AUTO 30008KT 10SM FEW016 SCT023 OVC030 A3012 RMK MADISHF
HTS,2017-04-01 14:51,-82.5550,38.3650,48.00,39.90,73.38,300.00,8.00,0.00,30.12,1019.90,10.00,M,FEW,SCT,OVC,M,1700.00,2300.00,3000.00,M,M,KHTS 011451Z 30008KT 10SM FEW017 SCT023 OVC030 09/04 A3012 RMK AO2 SLP199 T00890044 51020
HTS,2017-04-01 14:55,-82.5550,38.3650,M,M,M,330.00,7.00,M,30.12,M,10.00,M,BKN,OVC,M,M,2200.00,3399.00,M,M,M,KHTS 011455Z AUTO 33007KT 10SM BKN022 OVC033 A3012 RMK MADISHF
HTS,2017-04-01 15:00,-82.5550,38.3650,M,M,M,320.00,8.00,M,30.12,M,10.00,M,SCT,OVC,M,M,2300.00,3000.00,M,M,M,KHTS 011500Z AUTO 32008KT 10SM SCT023 OVC030 A3012 RMK MADISHF
HTS,2017-04-01 15:05,-82.5550,38.3650,M,M,M,310.00,6.00,M,30.12,M,10.00,M,SCT,OVC,M,M,2300.00,3000.00,M,M,M,KHTS 011505Z AUTO 31006KT 10SM SCT023 OVC030 A3012 RMK MADISHF
HTS,2017-04-01 15:10,-82.5550,38.3650,M,M,M,280.00,5.00,M,30.12,M,10.00,M,SCT,OVC,M,M,2300.00,3000.00,M,M,M,KHTS 011510Z AUTO 28005KT 10SM SCT023 OVC030 A3012 RMK VRB05KT  MADISHF
HTS,2017-04-01 15:15,-82.5550,38.3650,M,M,M,310.00,9.00,M,30.12,M,10.00,M,SCT,OVC,M,M,2300.00,3000.00,M,M,M,KHTS 011515Z AUTO 31009KT 10SM SCT023 OVC030 A3012 RMK MADISHF
HTS,2017-04-01 15:20,-82.5550,38.3650,M,M,M,310.00,6.00,M,30.12,M,10.00,M,SCT,OVC,M,M,2300.00,3000.00,M,M,M,KHTS 011520Z AUTO 31006KT 10SM SCT023 OVC030 A3012 RMK MADISHF
HTS,2017-04-01 15:25,-82.5550,38.3650,M,M,M,320.00,9.00,M,30.12,M,10.00,M,SCT,OVC,M,M,2300.00,3000.00,M,M,M,KHTS 011525Z AUTO 32009KT 10SM SCT023 OVC030 A3012 RMK MADISHF
HTS,2017-04-01 15:30,-82.5550,38.3650,M,M,M,310.00,6.00,M,30.12,M,10.00,M,SCT,OVC,M,M,2300.00,3000.00,M,M,M,KHTS 011530Z AUTO 31006KT 10SM SCT023 OVC030 A3012 RMK MADISHF
HTS,2017-04-01 15:35,-82.5550,38.3650,M,M,M,340.00,9.00,M,30.12,M,10.00,M,SCT,OVC,M,M,2300.00,3000.00,M,M,M,KHTS 011535Z AUTO 34009KT 10SM SCT023 OVC030 A3012 RMK MADISHF
HTS,2017-04-01 15:40,-82.5550,38.3650,M,M,M,310.00,4.00,M,30.12,M,10.00,M,SCT,OVC,M,M,2300.00,3000.00,M,M,M,KHTS 011540Z AUTO 31004KT 10SM SCT023 OVC030 A3012 RMK VRB04KT  MADISHF
HTS,2017-04-01 15:45,-82.5550,38.3650,M,M,M,330.00,6.00,M,30.12,M,10.00,M,SCT,OVC,M,M,2300.00,3000.00,M,M,M,KHTS 011545Z AUTO 33006KT 10SM SCT023 OVC030 A3012 RMK MADISHF
HTS,2017-04-01 15:50,-82.5550,38.3650,M,M,M,290.00,5.00,M,30.12,M,10.00,M,FEW,BKN,OVC,M,1800.00,2500.00,3999.00,M,M,KHTS 011550Z AUTO 29005KT 10SM FEW018 BKN025 OVC039 A3012 RMK MADISHF
HTS,2017-04-01 15:51,-82.5550,38.3650,48.00,39.00,70.85,M,4.00,0.00,30.12,1020.10,10.00,M,SCT,BKN,OVC,M,2100.00,2800.00,4000.00,M,M,KHTS 011551Z VRB04KT 10SM SCT021 BKN028 OVC040 09/04 A3012 RMK AO2 SLP201 T00890039
HTS,2017-04-01 15:55,-82.5550,38.3650,M,M,M,280.00,4.00,M,30.13,M,10.00,M,SCT,BKN,OVC,M,2100.00,2800.00,3999.00,M,M,KHTS 011555Z AUTO 28004KT 10SM SCT021 BKN028 OVC039 A3013 RMK MADISHF
HTS,2017-04-01 16:00,-82.5550,38.3650,M,M,M,300.00,6.00,M,30.13,M,10.00,M,BKN,BKN,OVC,M,2100.00,2800.00,4100.00,M,M,KHTS 011600Z AUTO 30006KT 10SM BKN021 BKN028 OVC041 A3013 RMK VRB06KT  MADISHF
HTS,2017-04-01 16:05,-82.5550,38.3650,M,M,M,270.00,6.00,M,30.13,M,10.00,M,BKN,BKN,OVC,M,1800.00,2500.00,4100.00,M,M,KHTS 011605Z AUTO 27006KT 10SM BKN018 BKN025 OVC041 A3013 RMK VRB06KT  MADISHF
HTS,2017-04-01 16:10,-82.5550,38.3650,M,M,M,280.00,5.00,M,30.13,M,10.00,M,BKN,BKN,OVC,M,1800.00,2500.00,3000.00,M,M,KHTS 011610Z AUTO 28005KT 10SM BKN018 BKN025 OVC030 A3013 RMK VRB05KT  MADISHF
HTS,2017-04-01 16:15,-82.5550,38.3650,M,M,M,260.00,5.00,M,30.13,M,10.00,M,OVC,M,M,M,1800.00,M,M,M,M,KHTS 011615Z AUTO 26005KT 10SM OVC018 A3013 RMK MADISHF
HTS,2017-04-01 16:20,-82.5550,38.3650,M,M,M,280.00,5.00,M,30.13,M,10.00,M,OVC,M,M,M,1800.00,M,M,M,M,KHTS 011620Z AUTO 28005KT 10SM OVC018 A3013 RMK MADISHF
HTS,2017-04-01 16:25,-82.5550,38.3650,M,M,M,270.00,5.00,M,30.13,M,10.00,M,OVC,M,M,M,1800.00,M,M,M,M,KHTS 011625Z AUTO 27005KT 10SM OVC018 A3013 RMK MADISHF
HTS,2017-04-01 16:30,-82.5550,38.3650,M,M,M,320.00,6.00,M,30.13,M,10.00,M,OVC,M,M,M,1800.00,M,M,M,M,KHTS 011630Z AUTO 32006KT 10SM OVC018 A3013 RMK MADISHF
HTS,2017-04-01 16:35,-82.5550,38.3650,M,M,M,270.00,6.00,M,30.14,M,10.00,M,OVC,M,M,M,1800.00,M,M,M,M,KHTS 011635Z AUTO 27006KT 10SM OVC018 A3014 RMK MADISHF
HTS,2017-04-01 16:40,-82.5550,38.3650,M,M,M,300.00,9.00,M,30.14,M,10.00,M,OVC,M,M,M,1800.00,M,M,M,M,KHTS 011640Z AUTO 30009KT 10SM OVC018 A3014 RMK MADISHF
HTS,2017-04-01 16:45,-82.5550,38.3650,M,M,M,300.00,8.00,M,30.14,M,10.00,M,OVC,M,M,M,1800.00,M,M,M,M,KHTS 011645Z AUTO 30008KT 10SM OVC018 A3014 RMK MADISHF
HTS,2017-04-01 16:50,-82.5550,38.3650,M,M,M,310.00,9.00,M,30.14,M,10.00,M,OVC,M,M,M,1800.00,M,M,M,M,KHTS 011650Z AUTO 31009KT 10SM OVC018 A3014 RMK MADISHF
HTS,2017-04-01 16:51,-82.5550,38.3650,46.90,39.00,73.85,320.00,9.00,0.00,30.14,1020.70,10.00,M,OVC,M,M,M,1800.00,M,M,M,M,KHTS 011651Z 32009KT 10SM OVC018 08/04 A3014 RMK AO2 SLP207 T00830039
HTS,2017-04-01 16:55,-82.5550,38.3650,M,M,M,330.00,8.00,M,30.14,M,10.00,M,OVC,M,M,M,1800.00,M,M,M,M,KHTS 011655Z AUTO 33008KT 10SM OVC018 A3014 RMK MADISHF
HTS,2017-04-01 17:00,-82.5550,38.3650,M,M,M,330.00,7.00,M,30.14,M,10.00,M,OVC,M,M,M,1800.00,M,M,M,M,KHTS 011700Z AUTO 33007KT 10SM OVC018 A3014 RMK MADISHF
HTS,2017-04-01 17:05,-82.5550,38.3650,M,M,M,310.00,3.00,M,30.14,M,10.00,M,OVC,M,M,M,1800.00,M,M,M,M,KHTS 011705Z AUTO 31003KT 10SM OVC018 A3014 RMK VRB03KT  MADISHF
HTS,2017-04-01 17:10,-82.5550,38.3650,M,M,M,320.00,6.00,M,30.14,M,10.00,M,OVC,M,M,M,1800.00,M,M,M,M,KHTS 011710Z AUTO 32006KT 10SM OVC018 A3014 RMK MADISHF
HTS,2017-04-01 17:15,-82.5550,38.3650,M,M,M,320.00,6.00,M,30.14,M,10.00,M,OVC,M,M,M,1699.00,M,M,M,M,KHTS 011715Z AUTO 32006KT 10SM OVC016 A3014 RMK MADISHF
HTS,2017-04-01 17:20,-82.5550,38.3650,M,M,M,320.00,8.00,M,30.14,M,10.00,M,OVC,M,M,M,1699.00,M,M,M,M,KHTS 011720Z AUTO 32008KT 10SM OVC016 A3014 RMK MADISHF
HTS,2017-04-01 17:25,-82.5550,38.3650,M,M,M,320.00,8.00,M,30.14,M,10.00,M,OVC,M,M,M,1900.00,M,M,M,M,KHTS 011725Z AUTO 32008KT 10SM OVC019 A3014 RMK MADISHF
HTS,2017-04-01 17:30,-82.5550,38.3650,M,M,M,310.00,8.00,M,30.14,M,10.00,M,OVC,M,M,M,1699.00,M,M,M,M,KHTS 011730Z AUTO 31008KT 10SM OVC016 A3014 RMK MADISHF
HTS,2017-04-01 17:35,-82.5550,38.3650,M,M,M,320.00,7.00,M,30.14,M,10.00,M,OVC,M,M,M,1699.00,M,M,M,M,KHTS 011735Z AUTO 32007KT 10SM OVC016 A3014 RMK MADISHF
HTS,2017-04-01 17:40,-82.5550,38.3650,M,M,M,330.00,4.00,M,30.14,M,10.00,M,OVC,M,M,M,1699.00,M,M,M,M,KHTS 011740Z AUTO 33004KT 10SM OVC016 A3014 RMK MADISHF
HTS,2017-04-01 17:45,-82.5550,38.3650,M,M,M,350.00,5.00,M,30.14,M,10.00,M,OVC,M,M,M,1699.00,M,M,M,M,KHTS 011745Z AUTO 35005KT 10SM OVC016 A3014 RMK MADISHF
HTS,2017-04-01 17:50,-82.5550,38.3650,M,M,M,360.00,6.00,M,30.14,M,10.00,M,OVC,M,M,M,1699.00,M,M,M,M,KHTS 011750Z AUTO 36006KT 10SM OVC016 A3014 RMK MADISHF
HTS,2017-04-01 17:51,-82.5550,38.3650,46.90,41.00,79.82,350.00,6.00,0.00,30.14,1020.70,10.00,M,OVC,M,M,M,1700.00,M,M,M,M,KHTS 011751Z 35006KT 10SM OVC017 08/05 A3014 RMK AO2 SLP207 T00830050 10094 20067 51007
HTS,2017-04-01 17:55,-82.5550,38.3650,M,M,M,310.00,4.00,M,30.14,M,10.00,M,OVC,M,M,M,1699.00,M,M,M,M,KHTS 011755Z AUTO 31004KT 10SM OVC016 A3014 RMK VRB04KT  MADISHF
HTS,2017-04-01 18:00,-82.5550,38.3650,M,M,M,320.00,4.00,M,30.14,M,10.00,M,OVC,M,M,M,1699.00,M,M,M,M,KHTS 011800Z AUTO 32004KT 10SM OVC016 A3014 RMK MADISHF
HTS,2017-04-01 18:05,-82.5550,38.3650,M,M,M,320.00,4.00,M,30.14,M,10.00,M,OVC,M,M,M,1699.00,M,M,M,M,KHTS 011805Z AUTO 32004KT 10SM OVC016 A3014 RMK MADISHF
HTS,2017-04-01 18:10,-82.5550,38.3650,M,M,M,340.00,5.00,M,30.14,M,10.00,M,OVC,M,M,M,1600.00,M,M,M,M,KHTS 011810Z AUTO 34005KT 10SM OVC016 A3014 RMK MADISHF
HTS,2017-04-01 18:15,-82.5550,38.3650,M,M,M,340.00,3.00,M,30.14,M,10.00,M,OVC,M,M,M,1600.00,M,M,M,M,KHTS 011815Z AUTO 34003KT 10SM OVC016 A3014 RMK VRB03KT  MADISHF
HTS,2017-04-01 18:20,-82.5550,38.3650,M,M,M,300.00,4.00,M,30.14,M,10.00,M,OVC,M,M,M,1600.00,M,M,M,M,KHTS 011820Z AUTO 30004KT 10SM OVC016 A3014 RMK MADISHF
HTS,2017-04-01 18:25,-82.5550,38.3650,M,M,M,280.00,4.00,M,30.14,M,10.00,M,OVC,M,M,M,1600.00,M,M,M,M,KHTS 011825Z AUTO 28004KT 10SM OVC016 A3014 RMK VRB04KT  MADISHF
HTS,2017-04-01 18:30,-82.5550,38.3650,M,M,M,260.00,7.00,M,30.14,M,10.00,M,OVC,M,M,M,1600.00,M,M,M,M,KHTS 011830Z AUTO 26007KT 10SM OVC016 A3014 RMK MADISHF
HTS,2017-04-01 18:35,-82.5550,38.3650,M,M,M,250.00,6.00,M,30.14,M,10.00,M,OVC,M,M,M,1600.00,M,M,M,M,KHTS 011835Z AUTO 25006KT 10SM OVC016 A3014 RMK MADISHF
HTS,2017-04-01 18:40,-82.5550,38.3650,M,M,M,250.00,7.00,M,30.15,M,10.00,M,OVC,M,M,M,1699.00,M,M,M,M,KHTS 011840Z AUTO 25007KT 10SM OVC016 A3015 RMK MADISHF
HTS,2017-04-01 18:45,-82.5550,38.3650,M,M,M,290.00,5.00,M,30.15,M,10.00,M,OVC,M,M,M,1699.00,M,M,M,M,KHTS 011845Z AUTO 29005KT 10SM OVC016 A3015 RMK MADISHF
HTS,2017-04-01 18:50,-82.5550,38.3650,M,M,M,310.00,8.00,M,30.15,M,10.00,M,OVC,M,M,M,1699.00,M,M,M,M,KHTS 011850Z AUTO 31008KT 10SM OVC016 A3015 RMK MADISHF
HTS,2017-04-01 18:51,-82.5550,38.3650,48.00,39.90,73.38,310.00,8.00,0.00,30.15,1020.90,10.00,M,OVC,M,M,M,1700.00,M,M,M,M,KHTS 011851Z 31008KT 10SM OVC017 09/04 A3015 RMK AO2 SLP209 T00890044
HTS,2017-04-01 18:55,-82.5550,38.3650,M,M,M,330.00,7.00,M,30.15,M,10.00,M,OVC,M,M,M,1699.00,M,M,M,M,KHTS 011855Z AUTO 33007KT 10SM OVC016 A3015 RMK MADISHF
HTS,2017-04-01 19:00,-82.5550,38.3650,M,M,M,320.00,9.00,M,30.15,M,10.00,M,OVC,M,M,M,1900.00,M,M,M,M,KHTS 011900Z AUTO 32009KT 10SM OVC019 A3015 RMK MADISHF
HTS,2017-04-01 19:05,-82.5550,38.3650,M,M,M,320.00,6.00,M,30.15,M,10.00,M,OVC,M,M,M,1900.00,M,M,M,M,KHTS 011905Z AUTO 32006KT 10SM OVC019 A3015 RMK MADISHF
HTS,2017-04-01 19:10,-82.5550,38.3650,M,M,M,330.00,9.00,M,30.15,M,10.00,M,OVC,M,M,M,1900.00,M,M,M,M,KHTS 011910Z AUTO 33009KT 10SM OVC019 A3015 RMK MADISHF
HTS,2017-04-01 19:15,-82.5550,38.3650,M,M,M,320.00,6.00,M,30.15,M,10.00,M,OVC,M,M,M,1900.00,M,M,M,M,KHTS 011915Z AUTO 32006KT 10SM OVC019 A3015 RMK MADISHF
HTS,2017-04-01 19:20,-82.5550,38.3650,M,M,M,340.00,7.00,M,30.14,M,10.00,M,OVC,M,M,M,1900.00,M,M,M,M,KHTS 011920Z AUTO 34007KT 10SM OVC019 A3014 RMK MADISHF
HTS,2017-04-01 19:25,-82.5550,38.3650,M,M,M,330.00,6.00,M,30.14,M,10.00,M,OVC,M,M,M,1900.00,M,M,M,M,KHTS 011925Z AUTO 33006KT 10SM OVC019 A3014 RMK VRB06KT  MADISHF
HTS,2017-04-01 19:30,-82.5550,38.3650,M,M,M,320.00,6.00,M,30.14,M,10.00,M,OVC,M,M,M,1699.00,M,M,M,M,KHTS 011930Z AUTO 32006KT 10SM OVC016 A3014 RMK MADISHF
HTS,2017-04-01 19:35,-82.5550,38.3650,M,M,M,330.00,6.00,M,30.14,M,10.00,M,OVC,M,M,M,1699.00,M,M,M,M,KHTS 011935Z AUTO 33006KT 10SM OVC016 A3014 RMK MADISHF
HTS,2017-04-01 19:40,-82.5550,38.3650,M,M,M,310.00,6.00,M,30.15,M,10.00,M,OVC,M,M,M,1699.00,M,M,M,M,KHTS 011940Z AUTO 31006KT 10SM OVC016 A3015 RMK MADISHF
HTS,2017-04-01 19:45,-82.5550,38.3650,M,M,M,330.00,7.00,M,30.15,M,10.00,M,OVC,M,M,M,1600.00,M,M,M,M,KHTS 011945Z AUTO 33007KT 10SM OVC016 A3015 RMK MADISHF
HTS,2017-04-01 19:50,-82.5550,38.3650,M,M,M,300.00,5.00,M,30.15,M,10.00,M,OVC,M,M,M,1600.00,M,M,M,M,KHTS 011950Z AUTO 30005KT 10SM OVC016 A3015 RMK MADISHF
HTS,2017-04-01 19:51,-82.5550,38.3650,46.90,39.90,76.48,310.00,6.00,0.00,30.15,1021.00,10.00,M,OVC,M,M,M,1600.00,M,M,M,M,KHTS 011951Z 31006KT 10SM OVC016 08/04 A3015 RMK AO2 SLP210 T00830044
HTS,2017-04-01 19:55,-82.5550,38.3650,M,M,M,300.00,6.00,M,30.15,M,10.00,M,OVC,M,M,M,1600.00,M,M,M,M,KHTS 011955Z AUTO 30006KT 10SM OVC016 A3015 RMK VRB06KT  MADISHF
HTS,2017-04-01 20:00,-82.5550,38.3650,M,M,M,270.00,5.00,M,30.15,M,10.00,M,BKN,OVC,M,M,1600.00,2400.00,M,M,M,KHTS 012000Z AUTO 27005KT 10SM BKN016 OVC024 A3015 RMK MADISHF
HTS,2017-04-01 20:05,-82.5550,38.3650,M,M,M,310.00,4.00,M,30.15,M,10.00,M,BKN,BKN,OVC,M,1600.00,2400.00,3200.00,M,M,KHTS 012005Z AUTO 31004KT 10SM BKN016 BKN024 OVC032 A3015 RMK MADISHF
HTS,2017-04-01 20:10,-82.5550,38.3650,M,M,M,290.00,4.00,M,30.15,M,10.00,M,BKN,BKN,OVC,M,1600.00,2500.00,3200.00,M,M,KHTS 012010Z AUTO 29004KT 10SM BKN016 BKN025 OVC032 A3015 RMK MADISHF
HTS,2017-04-01 20:15,-82.5550,38.3650,M,M,M,320.00,6.00,M,30.15,M,10.00,M,SCT,BKN,OVC,M,1600.00,2300.00,3200.00,M,M,KHTS 012015Z AUTO 32006KT 10SM SCT016 BKN023 OVC032 A3015 RMK MADISHF
HTS,2017-04-01 20:20,-82.5550,38.3650,M,M,M,300.00,6.00,M,30.15,M,10.00,M,FEW,BKN,OVC,M,1600.00,2300.00,3200.00,M,M,KHTS 012020Z AUTO 30006KT 10SM FEW016 BKN023 OVC032 A3015 RMK MADISHF
HTS,2017-04-01 20:25,-82.5550,38.3650,M,M,M,310.00,4.00,M,30.15,M,10.00,M,BKN,BKN,OVC,M,2100.00,2600.00,3200.00,M,M,KHTS 012025Z AUTO 31004KT 10SM BKN021 BKN026 OVC032 A3015 RMK MADISHF
HTS,2017-04-01 20:35,-82.5550,38.3650,M,M,M,310.00,6.00,M,30.15,M,10.00,M,BKN,OVC,M,M,2100.00,2600.00,M,M,M,KHTS 012035Z AUTO 31006KT 10SM BKN021 OVC026 A3015 RMK MADISHF
HTS,2017-04-01 20:40,-82.5550,38.3650,M,M,M,330.00,5.00,M,30.16,M,10.00,M,BKN,OVC,M,M,2300.00,3000.00,M,M,M,KHTS 012040Z AUTO 33005KT 10SM BKN023 OVC030 A3016 RMK MADISHF
HTS,2017-04-01 20:45,-82.5550,38.3650,M,M,M,310.00,4.00,M,30.16,M,10.00,M,BKN,OVC,M,M,2300.00,3000.00,M,M,M,KHTS 012045Z AUTO 31004KT 10SM BKN023 OVC030 A3016 RMK MADISHF
HTS,2017-04-01 20:50,-82.5550,38.3650,M,M,M,340.00,5.00,M,30.16,M,10.00,M,BKN,OVC,M,M,2300.00,2800.00,M,M,M,KHTS 012050Z AUTO 34005KT 10SM BKN023 OVC028 A3016 RMK MADISHF
HTS,2017-04-01 20:51,-82.5550,38.3650,48.00,39.90,73.38,340.00,5.00,0.00,30.16,1021.50,10.00,M,BKN,OVC,M,M,2100.00,2800.00,M,M,M,KHTS 012051Z 34005KT 10SM BKN021 OVC028 09/04 A3016 RMK AO2 SLP215 T00890044 53006
HTS,2017-04-01 20:55,-82.5550,38.3650,M,M,M,320.00,5.00,M,30.16,M,10.00,M,OVC,M,M,M,2100.00,M,M,M,M,KHTS 012055Z AUTO 32005KT 10SM OVC021 A3016 RMK MADISHF
HTS,2017-04-01 21:00,-82.5550,38.3650,M,M,M,330.00,5.00,M,30.16,M,10.00,M,BKN,OVC,M,M,2100.00,2800.00,M,M,M,KHTS 012100Z AUTO 33005KT 10SM BKN021 OVC028 A3016 RMK MADISHF
HTS,2017-04-01 21:05,-82.5550,38.3650,M,M,M,340.00,5.00,M,30.16,M,10.00,M,BKN,OVC,M,M,1900.00,2800.00,M,M,M,KHTS 012105Z AUTO 34005KT 10SM BKN019 OVC028 A3016 RMK MADISHF
HTS,2017-04-01 21:10,-82.5550,38.3650,M,M,M,350.00,3.00,M,30.16,M,10.00,M,OVC,M,M,M,1900.00,M,M,M,M,KHTS 012110Z AUTO 35003KT 10SM OVC019 A3016 RMK MADISHF
HTS,2017-04-01 21:15,-82.5550,38.3650,M,M,M,0.00,0.00,M,30.16,M,10.00,M,OVC,M,M,M,1900.00,M,M,M,M,KHTS 012115Z AUTO 00000KT 10SM OVC019 A3016 RMK MADISHF
HTS,2017-04-01 21:20,-82.5550,38.3650,M,M,M,270.00,5.00,M,30.16,M,10.00,M,OVC,M,M,M,1900.00,M,M,M,M,KHTS 012120Z AUTO 27005KT 10SM OVC019 A3016 RMK MADISHF
HTS,2017-04-01 21:25,-82.5550,38.3650,M,M,M,310.00,5.00,M,30.16,M,10.00,M,OVC,M,M,M,1800.00,M,M,M,M,KHTS 012125Z AUTO 31005KT 10SM OVC018 A3016 RMK MADISHF
HTS,2017-04-01 21:30,-82.5550,38.3650,M,M,M,300.00,5.00,M,30.16,M,10.00,M,OVC,M,M,M,1800.00,M,M,M,M,KHTS 012130Z AUTO 30005KT 10SM OVC018 A3016 RMK MADISHF
HTS,2017-04-01 21:35,-82.5550,38.3650,M,M,M,300.00,3.00,M,30.17,M,10.00,M,OVC,M,M,M,1800.00,M,M,M,M,KHTS 012135Z AUTO 30003KT 10SM OVC018 A3017 RMK MADISHF
HTS,2017-04-01 21:40,-82.5550,38.3650,M,M,M,300.00,5.00,M,30.17,M,10.00,M,BKN,OVC,M,M,1800.00,2500.00,M,M,M,KHTS 012140Z AUTO 30005KT 10SM BKN018 OVC025 A3017 RMK MADISHF
HTS,2017-04-01 21:45,-82.5550,38.3650,M,M,M,310.00,4.00,M,30.17,M,10.00,M,BKN,OVC,M,M,1800.00,2500.00,M,M,M,KHTS 012145Z AUTO 31004KT 10SM BKN018 OVC025 A3017 RMK MADISHF
HTS,2017-04-01 21:50,-82.5550,38.3650,M,M,M,320.00,5.00,M,30.18,M,10.00,M,BKN,OVC,M,M,1800.00,2700.00,M,M,M,KHTS 012150Z AUTO 32005KT 10SM BKN018 OVC027 A3018 RMK MADISHF
HTS,2017-04-01 21:51,-82.5550,38.3650,48.00,39.90,73.38,320.00,4.00,0.00,30.18,1022.10,10.00,M,BKN,OVC,M,M,1800.00,2700.00,M,M,M,KHTS 012151Z 32004KT 10SM BKN018 OVC027 09/04 A3018 RMK AO2 SLP221 T00890044
HTS,2017-04-01 21:55,-82.5550,38.3650,M,M,M,350.00,6.00,M,30.18,M,10.00,M,SCT,OVC,M,M,1800.00,2700.00,M,M,M,KHTS 012155Z AUTO 35006KT 10SM SCT018 OVC027 A3018 RMK MADISHF
HTS,2017-04-01 22:00,-82.5550,38.3650,M,M,M,330.00,7.00,M,30.18,M,10.00,M,OVC,M,M,M,2400.00,M,M,M,M,KHTS 012200Z AUTO 33007KT 10SM OVC024 A3018 RMK MADISHF
HTS,2017-04-01 22:05,-82.5550,38.3650,M,M,M,330.00,9.00,M,30.19,M,10.00,M,BKN,OVC,M,M,2200.00,2700.00,M,M,M,KHTS 012205Z AUTO 33009KT 10SM BKN022 OVC027 A3019 RMK MADISHF
HTS,2017-04-01 22:10,-82.5550,38.3650,M,M,M,330.00,7.00,M,30.19,M,10.00,M,OVC,M,M,M,2500.00,M,M,M,M,KHTS 012210Z AUTO 33007KT 10SM OVC025 A3019 RMK MADISHF
HTS,2017-04-01 22:15,-82.5550,38.3650,M,M,M,340.00,7.00,M,30.19,M,10.00,M,OVC,M,M,M,2500.00,M,M,M,M,KHTS 012215Z AUTO 34007KT 10SM OVC025 A3019 RMK MADISHF
HTS,2017-04-01 22:20,-82.5550,38.3650,M,M,M,340.00,7.00,M,30.19,M,10.00,M,OVC,M,M,M,2300.00,M,M,M,M,KHTS 012220Z AUTO 34007KT 10SM OVC023 A3019 RMK MADISHF
HTS,2017-04-01 22:25,-82.5550,38.3650,M,M,M,340.00,6.00,M,30.19,M,10.00,M,OVC,M,M,M,2300.00,M,M,M,M,KHTS 012225Z AUTO 34006KT 10SM OVC023 A3019 RMK MADISHF
HTS,2017-04-01 22:30,-82.5550,38.3650,M,M,M,330.00,6.00,M,30.20,M,10.00,M,OVC,M,M,M,2500.00,M,M,M,M,KHTS 012230Z AUTO 33006KT 10SM OVC025 A3020 RMK MADISHF
HTS,2017-04-01 22:35,-82.5550,38.3650,M,M,M,330.00,5.00,M,30.20,M,10.00,M,OVC,M,M,M,2500.00,M,M,M,M,KHTS 012235Z AUTO 33005KT 10SM OVC025 A3020 RMK MADISHF
HTS,2017-04-01 22:40,-82.5550,38.3650,M,M,M,320.00,5.00,M,30.20,M,10.00,M,OVC,M,M,M,2500.00,M,M,M,M,KHTS 012240Z AUTO 32005KT 10SM OVC025 A3020 RMK MADISHF
HTS,2017-04-01 22:45,-82.5550,38.3650,M,M,M,340.00,5.00,M,30.20,M,10.00,M,OVC,M,M,M,2500.00,M,M,M,M,KHTS 012245Z AUTO 34005KT 10SM OVC025 A3020 RMK MADISHF
HTS,2017-04-01 22:50,-82.5550,38.3650,M,M,M,330.00,6.00,M,30.20,M,10.00,M,OVC,M,M,M,2500.00,M,M,M,M,KHTS 012250Z AUTO 33006KT 10SM OVC025 A3020 RMK MADISHF
HTS,2017-04-01 22:51,-82.5550,38.3650,48.00,39.00,70.85,330.00,5.00,0.00,30.20,1022.80,10.00,M,OVC,M,M,M,2500.00,M,M,M,M,KHTS 012251Z 33005KT 10SM OVC025 09/04 A3020 RMK AO2 SLP228 T00890039
HTS,2017-04-01 22:55,-82.5550,38.3650,M,M,M,350.00,4.00,M,30.20,M,10.00,M,OVC,M,M,M,2500.00,M,M,M,M,KHTS 012255Z AUTO 35004KT 10SM OVC025 A3020 RMK MADISHF
HTS,2017-04-01 23:00,-82.5550,38.3650,M,M,M,350.00,7.00,M,30.20,M,10.00,M,OVC,M,M,M,2500.00,M,M,M,M,KHTS 012300Z AUTO 35007KT 10SM OVC025 A3020 RMK MADISHF
HTS,2017-04-01 23:05,-82.5550,38.3650,M,M,M,340.00,6.00,M,30.20,M,10.00,M,OVC,M,M,M,2500.00,M,M,M,M,KHTS 012305Z AUTO 34006KT 10SM OVC025 A3020 RMK MADISHF
HTS,2017-04-01 23:10,-82.5550,38.3650,M,M,M,350.00,5.00,M,30.21,M,10.00,M,OVC,M,M,M,2600.00,M,M,M,M,KHTS 012310Z AUTO 35005KT 10SM OVC026 A3021 RMK MADISHF
HTS,2017-04-01 23:15,-82.5550,38.3650,M,M,M,360.00,5.00,M,30.21,M,10.00,M,OVC,M,M,M,2600.00,M,M,M,M,KHTS 012315Z AUTO 36005KT 10SM OVC026 A3021 RMK MADISHF
HTS,2017-04-01 23:20,-82.5550,38.3650,M,M,M,350.00,5.00,M,30.21,M,10.00,M,OVC,M,M,M,2600.00,M,M,M,M,KHTS 012320Z AUTO 35005KT 10SM OVC026 A3021 RMK MADISHF
HTS,2017-04-01 23:25,-82.5550,38.3650,M,M,M,340.00,5.00,M,30.21,M,10.00,M,OVC,M,M,M,2600.00,M,M,M,M,KHTS 012325Z AUTO 34005KT 10SM OVC026 A3021 RMK MADISHF
HTS,2017-04-01 23:30,-82.5550,38.3650,M,M,M,330.00,5.00,M,30.21,M,10.00,M,OVC,M,M,M,2700.00,M,M,M,M,KHTS 012330Z AUTO 33005KT 10SM OVC027 A3021 RMK MADISHF
HTS,2017-04-01 23:35,-82.5550,38.3650,M,M,M,340.00,5.00,M,30.21,M,10.00,M,OVC,M,M,M,2700.00,M,M,M,M,KHTS 012335Z AUTO 34005KT 10SM OVC027 A3021 RMK MADISHF
HTS,2017-04-01 23:40,-82.5550,38.3650,M,M,M,340.00,5.00,M,30.21,M,10.00,M,OVC,M,M,M,2700.00,M,M,M,M,KHTS 012340Z AUTO 34005KT 10SM OVC027 A3021 RMK MADISHF
HTS,2017-04-01 23:45,-82.5550,38.3650,M,M,M,360.00,6.00,M,30.21,M,10.00,M,OVC,M,M,M,2600.00,M,M,M,M,KHTS 012345Z AUTO 36006KT 10SM OVC026 A3021 RMK MADISHF
HTS,2017-04-01 23:50,-82.5550,38.3650,M,M,M,330.00,5.00,M,30.21,M,10.00,M,OVC,M,M,M,2600.00,M,M,M,M,KHTS 012350Z AUTO 33005KT 10SM OVC026 A3021 RMK MADISHF
HTS,2017-04-01 23:51,-82.5550,38.3650,46.90,39.00,73.85,340.00,5.00,0.00,30.21,1023.30,10.00,M,OVC,M,M,M,2600.00,M,M,M,M,KHTS 012351Z 34005KT 10SM OVC026 08/04 A3021 RMK AO2 SLP233 T00830039 10094 20083 51018
HTS,2017-04-01 23:55,-82.5550,38.3650,M,M,M,350.00,4.00,M,30.21,M,10.00,M,OVC,M,M,M,2600.00,M,M,M,M,KHTS 012355Z AUTO 35004KT 10SM OVC026 A3021 RMK MADISHF
