#DEBUG: Format Typ    -> comma
#DEBUG: Time Period   -> 2017-04-01 00:00:00+00:00 2017-04-02 00:00:00+00:00
#DEBUG: Time Zone     -> Etc/UTC
#DEBUG: Data Contact   -> daryl herzmann akrherz@iastate.edu 515-294-5978
#DEBUG: Entries Found -> -1
station,valid,lon,lat,tmpf, dwpf, relh, drct, sknt, p01i, alti, mslp, vsby, gust, skyc1, skyc2, skyc3, skyc4, skyl1, skyl2, skyl3, skyl4, presentwx, metar
HVE,2017-04-01 00:15,-110.7040,38.4180,59.00,28.40,30.98,140.00,10.00,0.00,29.69,M,10.00,M,SCT,M,M,M,11000.00,M,M,M,M,KHVE 010015Z AUTO 14010KT 090V160 10SM SCT110 15/M02 A2969 RMK AO2
HVE,2017-04-01 00:35,-110.7040,38.4180,53.60,28.40,37.67,170.00,14.00,0.00,29.70,M,10.00,23.00,SCT,BKN,M,M,7000.00,10000.00,M,M,M,KHVE 010035Z AUTO 17014G23KT 10SM SCT070 BKN100 12/M02 A2970 RMK AO2
HVE,2017-04-01 00:55,-110.7040,38.4180,51.80,30.20,43.32,170.00,14.00,0.00,29.71,M,10.00,20.00,BKN,OVC,M,M,6000.00,7000.00,M,M,M,KHVE 010055Z AUTO 17014G20KT 10SM BKN060 OVC070 11/M01 A2971 RMK AO2
HVE,2017-04-01 01:15,-110.7040,38.4180,50.00,30.20,46.31,140.00,16.00,0.00,29.74,M,10.00,21.00,OVC,M,M,M,6000.00,M,M,M,M,KHVE 010115Z AUTO 14016G21KT 10SM OVC060 10/M01 A2974 RMK AO2
HVE,2017-04-01 01:35,-110.7040,38.4180,46.40,33.80,61.28,140.00,19.00,0.00,29.76,M,10.00,23.00,SCT,SCT,OVC,M,3900.00,4800.00,6000.00,M,M,KHVE 010135Z AUTO 14019G23KT 10SM SCT039 SCT048 OVC060 08/01 A2976 RMK AO2
HVE,2017-04-01 01:55,-110.7040,38.4180,44.60,35.60,70.48,150.00,18.00,0.00,29.79,M,10.00,M,SCT,BKN,OVC,M,3900.00,5000.00,6500.00,M,M,KHVE 010155Z AUTO 15018KT 10SM SCT039 BKN050 OVC065 07/02 A2979 RMK AO2
HVE,2017-04-01 02:15,-110.7040,38.4180,42.80,37.40,81.07,140.00,16.00,0.00,29.81,M,10.00,19.00,OVC,M,M,M,4800.00,M,M,M,M,KHVE 010215Z AUTO 14016G19KT 10SM OVC048 06/03 A2981 RMK AO2
HVE,2017-04-01 02:35,-110.7040,38.4180,42.80,35.60,75.50,140.00,14.00,0.00,29.83,M,10.00,20.00,OVC,M,M,M,4600.00,M,M,M,M,KHVE 010235Z AUTO 14014G20KT 10SM OVC046 06/02 A2983 RMK AO2
HVE,2017-04-01 02:55,-110.7040,38.4180,41.00,35.60,80.93,150.00,14.00,0.00,29.83,M,10.00,18.00,OVC,M,M,M,4600.00,M,M,M,M,KHVE 010255Z AUTO 15014G18KT 10SM OVC046 05/02 A2983 RMK AO2
HVE,2017-04-01 03:15,-110.7040,38.4180,41.00,35.60,80.93,150.00,11.00,0.00,29.85,M,10.00,M,BKN,OVC,M,M,4400.00,5000.00,M,M,M,KHVE 010315Z AUTO 15011KT 10SM BKN044 OVC050 05/02 A2985 RMK AO2
HVE,2017-04-01 03:35,-110.7040,38.4180,41.00,35.60,80.93,140.00,6.00,0.00,29.86,M,10.00,M,OVC,M,M,M,4300.00,M,M,M,M,KHVE 010335Z AUTO 14006KT 10SM OVC043 05/02 A2986 RMK AO2
HVE,2017-04-01 03:55,-110.7040,38.4180,41.00,35.60,80.93,190.00,4.00,0.00,29.87,M,10.00,M,OVC,M,M,M,3900.00,M,M,M,M,KHVE 010355Z AUTO 19004KT 10SM OVC039 05/02 A2987 RMK AO2
HVE,2017-04-01 04:15,-110.7040,38.4180,41.00,37.40,86.89,140.00,5.00,0.00,29.88,M,10.00,M,OVC,M,M,M,3500.00,M,M,M,M,KHVE 010415Z AUTO 14005KT 10SM OVC035 05/03 A2988 RMK AO2
HVE,2017-04-01 04:35,-110.7040,38.4180,41.00,37.40,86.89,110.00,3.00,0.00,29.89,M,10.00,M,OVC,M,M,M,3100.00,M,M,M,M,KHVE 010435Z AUTO 11003KT 10SM OVC031 05/03 A2989 RMK AO2
HVE,2017-04-01 04:55,-110.7040,38.4180,41.00,37.40,86.89,110.00,3.00,0.00,29.88,M,10.00,M,BKN,BKN,OVC,M,2900.00,3700.00,4300.00,M,M,KHVE 010455Z AUTO 11003KT 10SM BKN029 BKN037 OVC043 05/03 A2988 RMK AO2
HVE,2017-04-01 05:15,-110.7040,38.4180,41.00,37.40,86.89,0.00,0.00,0.00,29.89,M,10.00,M,SCT,OVC,M,M,3100.00,4000.00,M,M,M,KHVE 010515Z AUTO 00000KT 10SM SCT031 OVC040 05/03 A2989 RMK AO2
HVE,2017-04-01 05:35,-110.7040,38.4180,41.00,39.20,93.24,100.00,4.00,0.00,29.89,M,10.00,M,SCT,OVC,M,M,3500.00,4400.00,M,M,M,KHVE 010535Z AUTO 10004KT 10SM SCT035 OVC044 05/04 A2989 RMK AO2
HVE,2017-04-01 05:55,-110.7040,38.4180,41.00,39.20,93.24,120.00,5.00,0.00,29.89,M,10.00,M,BKN,BKN,OVC,M,1200.00,3600.00,4600.00,M,M,KHVE 010555Z AUTO 12005KT 10SM BKN012 BKN036 OVC046 05/04 A2989 RMK AO2
HVE,2017-04-01 06:15,-110.7040,38.4180,41.00,39.20,93.24,130.00,6.00,0.00,29.90,M,10.00,M,OVC,M,M,M,1200.00,M,M,M,M,KHVE 010615Z AUTO 13006KT 10SM OVC012 05/04 A2990 RMK AO2
HVE,2017-04-01 06:35,-110.7040,38.4180,41.00,39.20,93.24,130.00,8.00,0.00,29.91,M,10.00,M,OVC,M,M,M,1000.00,M,M,M,M,KHVE 010635Z AUTO 13008KT 10SM OVC010 05/04 A2991 RMK AO2
HVE,2017-04-01 06:55,-110.7040,38.4180,41.00,39.20,93.24,130.00,8.00,0.00,29.92,M,10.00,M,OVC,M,M,M,1200.00,M,M,M,M,KHVE 010655Z AUTO 13008KT 10SM OVC012 05/04 A2992 RMK AO2
HVE,2017-04-01 07:15,-110.7040,38.4180,41.00,41.00,100.00,140.00,8.00,0.00,29.92,M,7.00,M,BKN,OVC,M,M,700.00,1200.00,M,M,M,KHVE 010715Z AUTO 14008KT 7SM BKN007 OVC012 05/05 A2992 RMK AO2
HVE,2017-04-01 07:35,-110.7040,38.4180,41.00,39.20,93.24,130.00,10.00,0.00,29.92,M,10.00,M,BKN,OVC,M,M,700.00,1500.00,M,M,M,KHVE 010735Z AUTO 13010KT 10SM BKN007 OVC015 05/04 A2992 RMK AO2
HVE,2017-04-01 07:55,-110.7040,38.4180,39.20,37.40,93.19,150.00,8.00,0.00,29.93,M,10.00,M,SCT,BKN,OVC,M,700.00,1700.00,3300.00,M,M,KHVE 010755Z AUTO 15008KT 10SM SCT007 BKN017 OVC033 04/03 A2993 RMK AO2
HVE,2017-04-01 08:15,-110.7040,38.4180,39.20,37.40,93.19,150.00,7.00,0.00,29.94,M,10.00,M,SCT,SCT,OVC,M,1900.00,3100.00,3800.00,M,M,KHVE 010815Z AUTO 15007KT 10SM SCT019 SCT031 OVC038 04/03 A2994 RMK AO2
HVE,2017-04-01 08:35,-110.7040,38.4180,39.20,35.60,86.79,170.00,7.00,0.00,29.94,M,10.00,M,SCT,OVC,M,M,3400.00,4000.00,M,M,M,KHVE 010835Z AUTO 17007KT 10SM SCT034 OVC040 04/02 A2994 RMK AO2
HVE,2017-04-01 08:55,-110.7040,38.4180,39.20,37.40,93.19,150.00,8.00,0.00,29.95,M,10.00,M,BKN,BKN,OVC,M,2000.00,2800.00,4000.00,M,M,KHVE 010855Z AUTO 15008KT 10SM BKN020 BKN028 OVC040 04/03 A2995 RMK AO2
HVE,2017-04-01 09:15,-110.7040,38.4180,39.20,35.60,86.79,140.00,6.00,0.00,29.96,M,7.00,M,BKN,OVC,M,M,2400.00,2800.00,M,M,M,KHVE 010915Z AUTO 14006KT 7SM BKN024 OVC028 04/02 A2996 RMK AO2
HVE,2017-04-01 09:35,-110.7040,38.4180,39.20,35.60,86.79,170.00,5.00,0.00,29.96,M,10.00,M,SCT,OVC,M,M,1300.00,2600.00,M,M,M,KHVE 010935Z AUTO 17005KT 10SM SCT013 OVC026 04/02 A2996 RMK AO2
HVE,2017-04-01 09:55,-110.7040,38.4180,39.20,35.60,86.79,180.00,6.00,0.00,29.96,M,10.00,M,SCT,SCT,OVC,M,1300.00,2100.00,2600.00,M,M,KHVE 010955Z AUTO 18006KT 10SM SCT013 SCT021 OVC026 04/02 A2996 RMK AO2
HVE,2017-04-01 10:15,-110.7040,38.4180,37.40,35.60,93.14,160.00,5.00,0.00,29.96,M,10.00,M,BKN,BKN,OVC,M,1300.00,2600.00,3100.00,M,M,KHVE 011015Z AUTO 16005KT 10SM BKN013 BKN026 OVC031 03/02 A2996 RMK AO2
HVE,2017-04-01 10:35,-110.7040,38.4180,37.40,33.80,86.69,150.00,4.00,0.00,29.97,M,10.00,M,SCT,BKN,OVC,M,1500.00,2500.00,3700.00,M,M,KHVE 011035Z AUTO 15004KT 10SM SCT015 BKN025 OVC037 03/01 A2997 RMK AO2
HVE,2017-04-01 10:55,-110.7040,38.4180,37.40,35.60,93.14,100.00,5.00,0.00,29.98,M,10.00,M,SCT,BKN,OVC,M,1800.00,2300.00,3900.00,M,M,KHVE 011055Z AUTO 10005KT 10SM SCT018 BKN023 OVC039 03/02 A2998 RMK AO2
HVE,2017-04-01 11:15,-110.7040,38.4180,37.40,35.60,93.14,100.00,3.00,0.00,30.00,M,10.00,M,SCT,OVC,M,M,1500.00,2500.00,M,M,M,KHVE 011115Z AUTO 10003KT 10SM SCT015 OVC025 03/02 A3000 RMK AO2
HVE,2017-04-01 11:35,-110.7040,38.4180,37.40,35.60,93.14,0.00,0.00,0.00,30.01,M,10.00,M,BKN,BKN,OVC,M,1500.00,2100.00,2900.00,M,M,KHVE 011135Z AUTO 00000KT 10SM BKN015 BKN021 OVC029 03/02 A3001 RMK AO2
HVE,2017-04-01 11:55,-110.7040,38.4180,37.40,33.80,86.69,0.00,0.00,0.00,30.01,M,7.00,M,SCT,BKN,OVC,M,1000.00,1600.00,2900.00,M,M,KHVE 011155Z AUTO 00000KT 7SM SCT010 BKN016 OVC029 03/01 A3001 RMK AO2
HVE,2017-04-01 12:15,-110.7040,38.4180,37.40,35.60,93.14,330.00,6.00,0.00,30.01,M,10.00,M,OVC,M,M,M,1000.00,M,M,M,M,KHVE 011215Z AUTO 33006KT 10SM OVC010 03/02 A3001 RMK AO2
HVE,2017-04-01 12:35,-110.7040,38.4180,37.40,35.60,93.14,340.00,6.00,0.00,30.01,M,10.00,M,SCT,OVC,M,M,1000.00,6000.00,M,M,M,KHVE 011235Z AUTO 34006KT 10SM SCT010 OVC060 03/02 A3001 RMK AO2
HVE,2017-04-01 12:55,-110.7040,38.4180,35.60,33.80,93.08,340.00,5.00,0.00,30.03,M,10.00,M,OVC,M,M,M,6000.00,M,M,M,M,KHVE 011255Z AUTO 34005KT 10SM OVC060 02/01 A3003 RMK AO2
HVE,2017-04-01 13:15,-110.7040,38.4180,37.40,33.80,86.69,0.00,0.00,0.00,30.03,M,10.00,M,OVC,M,M,M,5000.00,M,M,M,M,KHVE 011315Z AUTO 00000KT 10SM OVC050 03/01 A3003 RMK AO2
HVE,2017-04-01 13:35,-110.7040,38.4180,37.40,35.60,93.14,0.00,0.00,0.00,30.04,M,10.00,M,OVC,M,M,M,4400.00,M,M,M,M,KHVE 011335Z AUTO 00000KT 10SM OVC044 03/02 A3004 RMK AO2
HVE,2017-04-01 13:55,-110.7040,38.4180,37.40,35.60,93.14,310.00,3.00,0.00,30.05,M,10.00,M,OVC,M,M,M,4200.00,M,M,M,M,KHVE 011355Z AUTO 31003KT 10SM OVC042 03/02 A3005 RMK AO2
HVE,2017-04-01 14:15,-110.7040,38.4180,37.40,35.60,93.14,0.00,0.00,0.00,30.05,M,10.00,M,OVC,M,M,M,4000.00,M,M,M,M,KHVE 011415Z AUTO 00000KT 10SM OVC040 03/02 A3005 RMK AO2
HVE,2017-04-01 14:35,-110.7040,38.4180,37.40,35.60,93.14,0.00,0.00,0.00,30.07,M,10.00,M,OVC,M,M,M,3800.00,M,M,M,M,KHVE 011435Z AUTO 00000KT 10SM OVC038 03/02 A3007 RMK AO2
HVE,2017-04-01 14:55,-110.7040,38.4180,39.20,35.60,86.79,0.00,0.00,0.00,30.07,M,10.00,M,BKN,OVC,M,M,3800.00,4500.00,M,M,M,KHVE 011455Z AUTO 00000KT 10SM BKN038 OVC045 04/02 A3007 RMK AO2
HVE,2017-04-01 15:15,-110.7040,38.4180,39.20,35.60,86.79,0.00,0.00,0.00,30.08,M,10.00,M,BKN,OVC,M,M,3800.00,4700.00,M,M,M,KHVE 011515Z AUTO 00000KT 10SM BKN038 OVC047 04/02 A3008 RMK AO2
HVE,2017-04-01 15:35,-110.7040,38.4180,41.00,35.60,80.93,250.00,3.00,0.00,30.08,M,10.00,M,OVC,M,M,M,3800.00,M,M,M,M,KHVE 011535Z AUTO 25003KT 10SM OVC038 05/02 A3008 RMK AO2
HVE,2017-04-01 15:55,-110.7040,38.4180,41.00,37.40,86.89,240.00,4.00,0.00,30.09,M,10.00,M,SCT,BKN,M,M,4000.00,5000.00,M,M,M,KHVE 011555Z AUTO 24004KT 10SM SCT040 BKN050 05/03 A3009 RMK AO2
HVE,2017-04-01 16:15,-110.7040,38.4180,42.80,35.60,75.50,240.00,4.00,0.00,30.09,M,10.00,M,SCT,M,M,M,5000.00,M,M,M,M,KHVE 011615Z AUTO 24004KT 10SM SCT050 06/02 A3009 RMK AO2
HVE,2017-04-01 16:35,-110.7040,38.4180,42.80,35.60,75.50,220.00,4.00,0.00,30.09,M,10.00,M,SCT,M,M,M,5000.00,M,M,M,M,KHVE 011635Z AUTO 22004KT 10SM SCT050 06/02 A3009 RMK AO2
HVE,2017-04-01 16:55,-110.7040,38.4180,44.60,37.40,75.68,240.00,3.00,0.00,30.09,M,10.00,M,CLR,M,M,M,M,M,M,M,M,KHVE 011655Z AUTO 24003KT 10SM CLR 07/03 A3009 RMK AO2
HVE,2017-04-01 17:20,-110.7040,38.4180,46.40,37.40,70.68,270.00,3.00,0.00,30.09,M,10.00,M,BKN,M,M,M,5000.00,M,M,M,M,KHVE 011720Z AUTO 27003KT 10SM BKN050 08/03 A3009 RMK AO2
HVE,2017-04-01 17:35,-110.7040,38.4180,46.40,37.40,70.68,220.00,3.00,0.00,30.09,M,10.00,M,SCT,M,M,M,5000.00,M,M,M,M,KHVE 011735Z AUTO 22003KT 10SM SCT050 08/03 A3009 RMK AO2
HVE,2017-04-01 17:55,-110.7040,38.4180,48.20,37.40,66.05,0.00,0.00,0.00,30.09,M,10.00,M,CLR,M,M,M,M,M,M,M,M,KHVE 011755Z AUTO 00000KT 10SM CLR 09/03 A3009 RMK AO2
HVE,2017-04-01 18:15,-110.7040,38.4180,50.00,39.20,66.27,100.00,3.00,0.00,30.09,M,10.00,M,SCT,M,M,M,2300.00,M,M,M,M,KHVE 011815Z AUTO 10003KT 10SM SCT023 10/04 A3009 RMK AO2
HVE,2017-04-01 18:35,-110.7040,38.4180,50.00,41.00,71.07,220.00,4.00,0.00,30.08,M,10.00,M,CLR,M,M,M,M,M,M,M,M,KHVE 011835Z AUTO 22004KT 10SM CLR 10/05 A3008 RMK AO2
HVE,2017-04-01 18:55,-110.7040,38.4180,50.00,39.20,66.27,170.00,3.00,0.00,30.07,M,10.00,M,SCT,SCT,M,M,2500.00,3200.00,M,M,M,KHVE 011855Z AUTO 17003KT 10SM SCT025 SCT032 10/04 A3007 RMK AO2
HVE,2017-04-01 19:15,-110.7040,38.4180,51.80,37.40,57.77,0.00,0.00,0.00,30.07,M,10.00,M,SCT,SCT,M,M,2700.00,3200.00,M,M,M,KHVE 011915Z AUTO 00000KT 10SM SCT027 SCT032 11/03 A3007 RMK AO2
HVE,2017-04-01 19:35,-110.7040,38.4180,53.60,39.20,58.02,270.00,3.00,0.00,30.05,M,10.00,M,SCT,M,M,M,2900.00,M,M,M,M,KHVE 011935Z AUTO 27003KT 10SM SCT029 12/04 A3005 RMK AO2
HVE,2017-04-01 19:55,-110.7040,38.4180,53.60,39.20,58.02,300.00,6.00,0.00,30.05,M,10.00,M,CLR,M,M,M,M,M,M,M,M,KHVE 011955Z AUTO 30006KT 10SM CLR 12/04 A3005 RMK AO2
HVE,2017-04-01 20:15,-110.7040,38.4180,55.40,37.40,50.64,0.00,0.00,0.00,30.05,M,10.00,M,SCT,BKN,M,M,3400.00,4000.00,M,M,M,KHVE 012015Z AUTO 00000KT 10SM SCT034 BKN040 13/03 A3005 RMK AO2
HVE,2017-04-01 20:35,-110.7040,38.4180,55.40,37.40,50.64,0.00,0.00,0.00,30.04,M,10.00,M,SCT,SCT,M,M,3400.00,4000.00,M,M,M,KHVE 012035Z AUTO 00000KT 10SM SCT034 SCT040 13/03 A3004 RMK AO2
HVE,2017-04-01 20:55,-110.7040,38.4180,55.40,37.40,50.64,0.00,0.00,0.00,30.03,M,10.00,M,SCT,SCT,M,M,3400.00,3900.00,M,M,M,KHVE 012055Z AUTO 00000KT 10SM SCT034 SCT039 13/03 A3003 RMK AO2
HVE,2017-04-01 21:15,-110.7040,38.4180,55.40,37.40,50.64,340.00,5.00,0.00,30.02,M,10.00,M,SCT,SCT,M,M,3600.00,4800.00,M,M,M,KHVE 012115Z AUTO 34005KT 10SM SCT036 SCT048 13/03 A3002 RMK AO2
HVE,2017-04-01 21:35,-110.7040,38.4180,59.00,37.40,44.47,330.00,3.00,0.00,30.01,M,10.00,M,SCT,SCT,M,M,4000.00,4800.00,M,M,M,KHVE 012135Z AUTO 33003KT 10SM SCT040 SCT048 15/03 A3001 RMK AO2
HVE,2017-04-01 21:55,-110.7040,38.4180,59.00,37.40,44.47,0.00,0.00,0.00,30.00,M,10.00,M,SCT,M,M,M,4000.00,M,M,M,M,KHVE 012155Z AUTO 00000KT 10SM SCT040 15/03 A3000 RMK AO2
HVE,2017-04-01 22:15,-110.7040,38.4180,59.00,37.40,44.47,0.00,0.00,0.00,30.00,M,10.00,M,SCT,M,M,M,4500.00,M,M,M,M,KHVE 012215Z AUTO 00000KT 10SM SCT045 15/03 A3000 RMK AO2
HVE,2017-04-01 22:40,-110.7040,38.4180,60.80,37.40,41.71,150.00,7.00,0.00,29.99,M,10.00,M,BKN,BKN,M,M,4500.00,6000.00,M,M,M,KHVE 012240Z AUTO 15007KT 110V170 10SM BKN045 BKN060 16/03 A2999 RMK AO2
HVE,2017-04-01 22:55,-110.7040,38.4180,59.00,37.40,44.47,140.00,4.00,0.00,29.99,M,10.00,M,SCT,SCT,M,M,4400.00,5000.00,M,M,M,KHVE 012255Z AUTO 14004KT 10SM SCT044 SCT050 15/03 A2999 RMK AO2
HVE,2017-04-01 23:15,-110.7040,38.4180,59.00,37.40,44.47,0.00,0.00,0.00,29.99,M,10.00,M,CLR,M,M,M,M,M,M,M,M,KHVE 012315Z AUTO 00000KT 10SM CLR 15/03 A2999 RMK AO2
HVE,2017-04-01 23:35,-110.7040,38.4180,59.00,35.60,41.42,0.00,0.00,0.00,29.98,M,10.00,M,CLR,M,M,M,M,M,M,M,M,KHVE 012335Z AUTO 00000KT 10SM CLR 15/02 A2998 RMK AO2
HVE,2017-04-01 23:55,-110.7040,38.4180,59.00,35.60,41.42,130.00,4.00,0.00,29.98,M,10.00,M,CLR,M,M,M,M,M,M,M,M,KHVE 012355Z AUTO 13004KT 10SM CLR 15/02 A2998 RMK AO2
