#DEBUG: Format Typ    -> comma
#DEBUG: Time Period   -> 2017-04-01 00:00:00+00:00 2017-04-02 00:00:00+00:00
#DEBUG: Time Zone     -> Etc/UTC
#DEBUG: Data Contact   -> daryl herzmann akrherz@iastate.edu 515-294-5978
#DEBUG: Entries Found -> -1
station,valid,lon,lat,tmpf, dwpf, relh, drct, sknt, p01i, alti, mslp, vsby, gust, skyc1, skyc2, skyc3, skyc4, skyl1, skyl2, skyl3, skyl4, presentwx, metar
HVN,2017-04-01 00:00,-72.8868,41.2638,M,M,M,80.00,15.00,0.01,29.89,M,5.00,21.00,BKN,OVC,M,M,800.00,1100.00,M,M,-RA BR,KHVN 010000Z AUTO 08015G21KT 5SM -RA BR BKN008 OVC011 A2989 RMK P0001 MADISHF
HVN,2017-04-01 00:05,-72.8868,41.2638,M,M,M,80.00,18.00,0.02,29.89,M,6.00,M,BKN,OVC,M,M,800.00,1100.00,M,M,-RA BR,KHVN 010005Z AUTO 08018KT 6SM -RA BR BKN008 OVC011 A2989 RMK P0002 MADISHF
HVN,2017-04-01 00:10,-72.8868,41.2638,M,M,M,80.00,17.00,0.02,29.89,M,7.00,M,BKN,OVC,M,M,800.00,1100.00,M,M,-RA,KHVN 010010Z AUTO 08017KT 7SM -RA BKN008 OVC011 A2989 RMK P0002 MADISHF
HVN,2017-04-01 00:15,-72.8868,41.2638,M,M,M,80.00,14.00,0.02,29.88,M,7.00,M,BKN,OVC,M,M,800.00,1100.00,M,M,-RA,KHVN 010015Z AUTO 08014KT 7SM -RA BKN008 OVC011 A2988 RMK P0002 MADISHF
HVN,2017-04-01 00:20,-72.8868,41.2638,M,M,M,80.00,17.00,0.03,29.88,M,6.00,M,BKN,OVC,M,M,800.00,1100.00,M,M,-RA BR,KHVN 010020Z AUTO 08017KT 6SM -RA BR BKN008 OVC011 A2988 RMK P0003 MADISHF
HVN,2017-04-01 00:25,-72.8868,41.2638,M,M,M,70.00,18.00,0.04,29.88,M,5.00,M,BKN,OVC,M,M,800.00,1100.00,M,M,-RA BR,KHVN 010025Z AUTO 07018KT 5SM -RA BR BKN008 OVC011 A2988 RMK P0004 MADISHF
HVN,2017-04-01 00:30,-72.8868,41.2638,M,M,M,80.00,19.00,0.04,29.88,M,6.00,M,BKN,OVC,M,M,800.00,1100.00,M,M,-RA BR,KHVN 010030Z AUTO 08019KT 6SM -RA BR BKN008 OVC011 A2988 RMK P0004 MADISHF
HVN,2017-04-01 00:35,-72.8868,41.2638,M,M,M,80.00,16.00,0.05,29.87,M,7.00,25.00,BKN,OVC,M,M,800.00,1100.00,M,M,-RA,KHVN 010035Z AUTO 08016G25KT 7SM -RA BKN008 OVC011 A2987 RMK P0005 MADISHF
HVN,2017-04-01 00:40,-72.8868,41.2638,M,M,M,80.00,14.00,0.05,29.87,M,7.00,20.00,BKN,OVC,M,M,800.00,1100.00,M,M,-RA,KHVN 010040Z AUTO 08014G20KT 7SM -RA BKN008 OVC011 A2987 RMK P0005 MADISHF
HVN,2017-04-01 00:45,-72.8868,41.2638,M,M,M,80.00,17.00,0.05,29.87,M,7.00,M,BKN,OVC,M,M,800.00,1100.00,M,M,-RA,KHVN 010045Z AUTO 08017KT 7SM -RA BKN008 OVC011 A2987 RMK P0005 MADISHF
HVN,2017-04-01 00:50,-72.8868,41.2638,M,M,M,70.00,15.00,0.06,29.87,M,3.00,20.00,BKN,OVC,M,M,800.00,1300.00,M,M,-RA BR,KHVN 010050Z AUTO 07015G20KT 3SM -RA BR BKN008 OVC013 A2987 RMK P0006 MADISHF
HVN,2017-04-01 00:53,-72.8868,41.2638,37.00,35.10,92.76,80.00,16.00,0.06,29.87,1011.40,3.00,27.00,BKN,OVC,M,M,800.00,1300.00,M,M,-RA BR,KHVN 010053Z 08016G27KT 3SM -RA BR BKN008 OVC013 03/02 A2987 RMK AO2 PK WND 09029/0042 SLP114 P0006 T00280017
HVN,2017-04-01 00:55,-72.8868,41.2638,M,M,M,70.00,16.00,0.01,29.87,M,6.00,M,BKN,OVC,M,M,800.00,1300.00,M,M,-RA BR,KHVN 010055Z AUTO 07016KT 6SM -RA BR BKN008 OVC013 A2987 RMK P0001 MADISHF
HVN,2017-04-01 01:00,-72.8868,41.2638,M,M,M,70.00,14.00,0.02,29.87,M,6.00,M,BKN,OVC,M,M,800.00,1300.00,M,M,-RA BR,KHVN 010100Z AUTO 07014KT 6SM -RA BR BKN008 OVC013 A2987 RMK P0002 MADISHF
HVN,2017-04-01 01:05,-72.8868,41.2638,M,M,M,80.00,16.00,0.03,29.87,M,5.00,M,BKN,OVC,M,M,800.00,1300.00,M,M,RA BR,KHVN 010105Z AUTO 08016KT 5SM RA BR BKN008 OVC013 A2987 RMK P0003 MADISHF
HVN,2017-04-01 01:10,-72.8868,41.2638,M,M,M,80.00,15.00,0.04,29.86,M,5.00,M,BKN,OVC,M,M,800.00,1300.00,M,M,-RA BR,KHVN 010110Z AUTO 08015KT 5SM -RA BR BKN008 OVC013 A2986 RMK P0004 MADISHF
HVN,2017-04-01 01:15,-72.8868,41.2638,M,M,M,80.00,17.00,0.04,29.86,M,5.00,M,BKN,OVC,M,M,800.00,1300.00,M,M,-RA BR,KHVN 010115Z AUTO 08017KT 5SM -RA BR BKN008 OVC013 A2986 RMK P0004 MADISHF
HVN,2017-04-01 01:20,-72.8868,41.2638,M,M,M,70.00,14.00,0.04,29.86,M,6.00,M,BKN,OVC,M,M,800.00,1300.00,M,M,-RA BR,KHVN 010120Z AUTO 07014KT 6SM -RA BR BKN008 OVC013 A2986 RMK P0004 MADISHF
HVN,2017-04-01 01:25,-72.8868,41.2638,M,M,M,80.00,16.00,0.04,29.86,M,5.00,M,BKN,OVC,M,M,800.00,1300.00,M,M,UP BR,KHVN 010125Z AUTO 08016KT 5SM UP BR BKN008 OVC013 A2986 RMK P0004 MADISHF
HVN,2017-04-01 01:30,-72.8868,41.2638,M,M,M,80.00,12.00,0.04,29.86,M,4.00,M,BKN,OVC,M,M,800.00,1300.00,M,M,UP BR,KHVN 010130Z AUTO 08012KT 4SM UP BR BKN008 OVC013 A2986 RMK P0004 MADISHF
HVN,2017-04-01 01:35,-72.8868,41.2638,M,M,M,70.00,14.00,0.04,29.86,M,4.00,M,BKN,OVC,M,M,800.00,1300.00,M,M,UP BR,KHVN 010135Z AUTO 07014KT 4SM UP BR BKN008 OVC013 A2986 RMK P0004 MADISHF
HVN,2017-04-01 01:40,-72.8868,41.2638,M,M,M,70.00,12.00,0.05,29.86,M,4.00,17.00,BKN,OVC,M,M,800.00,1300.00,M,M,UP BR,KHVN 010140Z AUTO 07012G17KT 4SM UP BR BKN008 OVC013 A2986 RMK P0005 MADISHF
HVN,2017-04-01 01:45,-72.8868,41.2638,M,M,M,80.00,15.00,0.05,29.85,M,5.00,M,BKN,OVC,M,M,800.00,1300.00,M,M,-RA BR,KHVN 010145Z AUTO 08015KT 5SM -RA BR BKN008 OVC013 A2985 RMK P0005 MADISHF
HVN,2017-04-01 01:50,-72.8868,41.2638,M,M,M,90.00,15.00,0.05,29.85,M,6.00,20.00,BKN,OVC,M,M,800.00,1300.00,M,M,-RA BR,KHVN 010150Z AUTO 09015G20KT 6SM -RA BR BKN008 OVC013 A2985 RMK P0005 MADISHF
HVN,2017-04-01 01:53,-72.8868,41.2638,37.00,34.00,88.78,90.00,12.00,0.05,29.86,1011.10,7.00,24.00,BKN,OVC,M,M,800.00,1300.00,M,M,UP,KHVN 010153Z 09012G24KT 7SM UP BKN008 OVC013 03/01 A2986 RMK AO2 PK WND 08027/0101 RAE23B41E53UPB23 SLP111 P0005 T00280011
HVN,2017-04-01 01:55,-72.8868,41.2638,M,M,M,80.00,12.00,0.00,29.86,M,8.00,17.00,OVC,M,M,M,1300.00,M,M,M,UP,KHVN 010155Z AUTO 08012G17KT 8SM UP OVC013 A2986 RMK P0000 MADISHF
HVN,2017-04-01 02:00,-72.8868,41.2638,37.00,34.00,88.78,80.00,17.00,0.00,29.85,M,7.00,25.00,OVC,M,M,M,1300.00,M,M,M,-RA,KHVN 010200Z AUTO 08017G25KT 7SM -RA OVC013 03/01 A2985 RMK AO2 UPE00RAB00 P0000 T00280011
HVN,2017-04-01 02:05,-72.8868,41.2638,M,M,M,80.00,15.00,0.01,29.85,M,7.00,M,OVC,M,M,M,1300.00,M,M,M,-RA,KHVN 010205Z AUTO 08015KT 7SM -RA OVC013 A2985 RMK P0001 MADISHF
HVN,2017-04-01 02:10,-72.8868,41.2638,M,M,M,80.00,16.00,0.01,29.85,M,7.00,M,OVC,M,M,M,1300.00,M,M,M,-RA,KHVN 010210Z AUTO 08016KT 7SM -RA OVC013 A2985 RMK P0001 MADISHF
HVN,2017-04-01 02:15,-72.8868,41.2638,M,M,M,70.00,13.00,0.01,29.84,M,7.00,M,OVC,M,M,M,1300.00,M,M,M,-RA,KHVN 010215Z AUTO 07013KT 7SM -RA OVC013 A2984 RMK P0001 MADISHF
HVN,2017-04-01 02:20,-72.8868,41.2638,M,M,M,70.00,13.00,0.01,29.84,M,6.00,M,OVC,M,M,M,1300.00,M,M,M,-RA BR,KHVN 010220Z AUTO 07013KT 6SM -RA BR OVC013 A2984 RMK P0001 MADISHF
HVN,2017-04-01 02:25,-72.8868,41.2638,M,M,M,70.00,13.00,0.01,29.83,M,5.00,M,OVC,M,M,M,1300.00,M,M,M,UP BR,KHVN 010225Z AUTO 07013KT 5SM UP BR OVC013 A2983 RMK P0001 MADISHF
HVN,2017-04-01 02:30,-72.8868,41.2638,M,M,M,70.00,12.00,0.02,29.83,M,5.00,M,OVC,M,M,M,1300.00,M,M,M,-RA BR,KHVN 010230Z AUTO 07012KT 5SM -RA BR OVC013 A2983 RMK P0002 MADISHF
HVN,2017-04-01 02:35,-72.8868,41.2638,M,M,M,60.00,16.00,0.02,29.82,M,5.00,M,OVC,M,M,M,1300.00,M,M,M,-RA BR,KHVN 010235Z AUTO 06016KT 5SM -RA BR OVC013 A2982 RMK P0002 MADISHF
HVN,2017-04-01 02:40,-72.8868,41.2638,M,M,M,60.00,17.00,0.02,29.82,M,4.00,M,OVC,M,M,M,1300.00,M,M,M,UP BR,KHVN 010240Z AUTO 06017KT 4SM UP BR OVC013 A2982 RMK P0002 MADISHF
HVN,2017-04-01 02:44,-72.8868,41.2638,37.00,34.00,88.78,80.00,13.00,0.03,29.81,M,3.00,27.00,FEW,OVC,M,M,900.00,1500.00,M,M,UP BR,KHVN 010244Z AUTO 08013G27KT 3SM UP BR FEW009 OVC015 03/01 A2981 RMK AO2 PK WND 07027/0238 UPE00B25RAB00E38 PRESFR P0003 T00280011
HVN,2017-04-01 02:45,-72.8868,41.2638,M,M,M,70.00,12.00,0.03,29.81,M,3.00,M,BKN,OVC,M,M,1300.00,1800.00,M,M,UP BR,KHVN 010245Z AUTO 07012KT 3SM UP BR BKN013 OVC018 A2981 RMK P0003 MADISHF
HVN,2017-04-01 02:50,-72.8868,41.2638,M,M,M,70.00,11.00,0.03,29.81,M,3.00,M,OVC,M,M,M,1300.00,M,M,M,-RA BR,KHVN 010250Z AUTO 07011KT 3SM -RA BR OVC013 A2981 RMK P0003 MADISHF
HVN,2017-04-01 02:51,-72.8868,41.2638,35.60,33.80,93.08,70.00,11.00,0.03,29.81,M,3.00,M,OVC,M,M,M,1300.00,M,M,M,-RA BR,KHVN 010251Z AUTO 07011KT 3SM -RA BR OVC013 02/01 A2981 RMK AO2 PK WND 07027/0238 UPE00B25E46RAB00E38B46 P0003
HVN,2017-04-01 02:53,-72.8868,41.2638,36.00,34.00,92.35,60.00,14.00,0.03,29.81,1009.50,4.00,23.00,OVC,M,M,M,1300.00,M,M,M,-RA BR,KHVN 010253Z AUTO 06014G23KT 020V080 4SM -RA BR OVC013 02/01 A2981 RMK AO2 PK WND 07027/0238 UPE00B25E46RAB00E38B46 SLP095 P0003 60014 T00220011 56019
HVN,2017-04-01 02:55,-72.8868,41.2638,M,M,M,70.00,14.00,0.00,29.81,M,4.00,M,BKN,OVC,M,M,1300.00,1699.00,M,M,UP BR,KHVN 010255Z AUTO 07014KT 4SM UP BR BKN013 OVC016 A2981 RMK P0000 MADISHF
HVN,2017-04-01 03:00,-72.8868,41.2638,M,M,M,70.00,13.00,0.00,29.81,M,4.00,M,BKN,OVC,M,M,1300.00,1699.00,M,M,UP BR,KHVN 010300Z AUTO 07013KT 4SM UP BR BKN013 OVC016 A2981 RMK P0000 MADISHF
HVN,2017-04-01 03:05,-72.8868,41.2638,M,M,M,70.00,12.00,0.00,29.80,M,3.00,M,OVC,M,M,M,1300.00,M,M,M,UP BR,KHVN 010305Z AUTO 07012KT 3SM UP BR OVC013 A2980 RMK P0000 MADISHF
HVN,2017-04-01 03:10,-72.8868,41.2638,M,M,M,60.00,13.00,0.00,29.80,M,3.00,19.00,BKN,OVC,M,M,1100.00,1600.00,M,M,UP BR,KHVN 010310Z AUTO 06013G19KT 3SM UP BR BKN011 OVC016 A2980 RMK P0000 MADISHF
HVN,2017-04-01 03:15,-72.8868,41.2638,M,M,M,70.00,16.00,0.00,29.80,M,3.00,M,OVC,M,M,M,1300.00,M,M,M,UP BR,KHVN 010315Z AUTO 07016KT 3SM UP BR OVC013 A2980 RMK P0000 MADISHF
HVN,2017-04-01 03:20,-72.8868,41.2638,M,M,M,60.00,13.00,M,29.79,M,3.50,18.00,OVC,M,M,M,1300.00,M,M,M,-RA BR,KHVN 010320Z AUTO 06013G18KT 3SM -RA BR OVC013 A2979 RMK MADISHF
HVN,2017-04-01 03:25,-72.8868,41.2638,M,M,M,60.00,12.00,0.01,29.79,M,3.00,M,OVC,M,M,M,1300.00,M,M,M,-RA BR,KHVN 010325Z AUTO 06012KT 3SM -RA BR OVC013 A2979 RMK P0001 MADISHF
HVN,2017-04-01 03:30,-72.8868,41.2638,M,M,M,60.00,9.00,0.02,29.79,M,3.50,M,OVC,M,M,M,1300.00,M,M,M,-RA BR,KHVN 010330Z AUTO 06009KT 3SM -RA BR OVC013 A2979 RMK P0002 MADISHF
HVN,2017-04-01 03:35,-72.8868,41.2638,M,M,M,60.00,9.00,0.03,29.79,M,4.00,M,OVC,M,M,M,1300.00,M,M,M,-RA BR,KHVN 010335Z AUTO 06009KT 4SM -RA BR OVC013 A2979 RMK P0003 MADISHF
HVN,2017-04-01 03:40,-72.8868,41.2638,M,M,M,50.00,11.00,0.03,29.80,M,4.00,M,BKN,OVC,M,M,1100.00,1600.00,M,M,-RA BR,KHVN 010340Z AUTO 05011KT 4SM -RA BR BKN011 OVC016 A2980 RMK P0003 MADISHF
HVN,2017-04-01 03:45,-72.8868,41.2638,M,M,M,50.00,11.00,0.03,29.80,M,4.00,M,BKN,OVC,M,M,1100.00,1600.00,M,M,-RA BR,KHVN 010345Z AUTO 05011KT 4SM -RA BR BKN011 OVC016 A2980 RMK P0003 MADISHF
HVN,2017-04-01 03:50,-72.8868,41.2638,M,M,M,60.00,11.00,0.04,29.79,M,2.50,M,BKN,OVC,M,M,1100.00,1600.00,M,M,-RA BR,KHVN 010350Z AUTO 06011KT 2 1/2SM -RA BR BKN011 OVC016 A2979 RMK P0004 MADISHF
HVN,2017-04-01 03:53,-72.8868,41.2638,36.00,34.00,92.35,50.00,11.00,0.05,29.79,1008.70,2.50,M,OVC,M,M,M,1100.00,M,M,M,-RA BR,KHVN 010353Z AUTO 05011KT 2 1/2SM -RA BR OVC011 02/01 A2979 RMK AO2 RAE0255B12UPB0255E20 SLP087 P0005 T00220011
HVN,2017-04-01 03:55,-72.8868,41.2638,M,M,M,60.00,10.00,M,29.79,M,2.50,M,BKN,OVC,M,M,1100.00,1500.00,M,M,-RA BR,KHVN 010355Z AUTO 06010KT 2 1/2SM -RA BR BKN011 OVC015 A2979 RMK MADISHF
HVN,2017-04-01 04:00,-72.8868,41.2638,M,M,M,60.00,12.00,0.01,29.79,M,3.00,M,OVC,M,M,M,1100.00,M,M,M,-RA BR,KHVN 010400Z AUTO 06012KT 3SM -RA BR OVC011 A2979 RMK P0001 MADISHF
HVN,2017-04-01 04:05,-72.8868,41.2638,M,M,M,50.00,11.00,0.01,29.79,M,3.50,19.00,BKN,OVC,M,M,1100.00,1699.00,M,M,-RA BR,KHVN 010405Z AUTO 05011G19KT 3SM -RA BR BKN011 OVC016 A2979 RMK P0001 MADISHF
HVN,2017-04-01 04:06,-72.8868,41.2638,36.00,34.00,92.35,50.00,11.00,0.01,29.79,M,3.00,19.00,OVC,M,M,M,1100.00,M,M,M,-RA BR,KHVN 010406Z AUTO 05011G19KT 3SM -RA BR OVC011 02/01 A2979 RMK AO2 P0001 T00220011
HVN,2017-04-01 04:10,-72.8868,41.2638,M,M,M,60.00,9.00,0.01,29.79,M,4.00,M,BKN,OVC,M,M,1100.00,1699.00,M,M,-RA BR,KHVN 010410Z AUTO 06009KT 4SM -RA BR BKN011 OVC016 A2979 RMK P0001 MADISHF
HVN,2017-04-01 04:15,-72.8868,41.2638,M,M,M,50.00,10.00,0.01,29.79,M,4.00,M,OVC,M,M,M,1300.00,M,M,M,-RA BR,KHVN 010415Z AUTO 05010KT 4SM -RA BR OVC013 A2979 RMK P0001 MADISHF
HVN,2017-04-01 04:20,-72.8868,41.2638,M,M,M,40.00,10.00,0.02,29.79,M,4.00,M,SCT,OVC,M,M,999.00,1500.00,M,M,-RA BR,KHVN 010420Z AUTO 04010KT 4SM -RA BR SCT009 OVC015 A2979 RMK P0002 MADISHF
HVN,2017-04-01 04:25,-72.8868,41.2638,M,M,M,40.00,11.00,0.03,29.79,M,3.00,M,OVC,M,M,M,1300.00,M,M,M,-RA BR,KHVN 010425Z AUTO 04011KT 3SM -RA BR OVC013 A2979 RMK P0003 MADISHF
HVN,2017-04-01 04:30,-72.8868,41.2638,M,M,M,50.00,10.00,0.03,29.79,M,3.00,M,BKN,OVC,M,M,1200.00,1800.00,M,M,-RA BR,KHVN 010430Z AUTO 05010KT 3SM -RA BR BKN012 OVC018 A2979 RMK P0003 MADISHF
HVN,2017-04-01 04:35,-72.8868,41.2638,M,M,M,50.00,10.00,0.03,29.78,M,3.00,15.00,OVC,M,M,M,1200.00,M,M,M,-RA BR,KHVN 010435Z AUTO 05010G15KT 3SM -RA BR OVC012 A2978 RMK P0003 MADISHF
HVN,2017-04-01 04:40,-72.8868,41.2638,M,M,M,40.00,10.00,0.04,29.78,M,3.00,M,BKN,OVC,M,M,1200.00,1699.00,M,M,-RA BR,KHVN 010440Z AUTO 04010KT 3SM -RA BR BKN012 OVC016 A2978 RMK P0004 MADISHF
HVN,2017-04-01 04:45,-72.8868,41.2638,M,M,M,40.00,10.00,0.04,29.78,M,2.50,M,OVC,M,M,M,1400.00,M,M,M,-RA BR,KHVN 010445Z AUTO 04010KT 2 1/2SM -RA BR OVC014 A2978 RMK P0004 MADISHF
HVN,2017-04-01 04:46,-72.8868,41.2638,36.00,34.00,92.35,40.00,11.00,0.04,29.78,M,2.50,M,FEW,OVC,M,M,900.00,1400.00,M,M,-RA BR,KHVN 010446Z AUTO 04011KT 2 1/2SM -RA BR FEW009 OVC014 02/01 A2978 RMK AO2 P0004 T00220011
HVN,2017-04-01 04:50,-72.8868,41.2638,M,M,M,50.00,12.00,0.05,29.77,M,2.50,M,OVC,M,M,M,1400.00,M,M,M,-RA BR,KHVN 010450Z AUTO 05012KT 2 1/2SM -RA BR OVC014 A2977 RMK P0005 MADISHF
HVN,2017-04-01 04:53,-72.8868,41.2638,36.00,34.00,92.35,50.00,10.00,0.06,29.77,1008.20,2.50,M,OVC,M,M,M,1400.00,M,M,M,-RA BR,KHVN 010453Z AUTO 05010KT 2 1/2SM -RA BR OVC014 02/01 A2977 RMK AO2 SLP082 P0006 T00220011 400500022
HVN,2017-04-01 04:55,-72.8868,41.2638,M,M,M,40.00,10.00,M,29.77,M,2.50,M,OVC,M,M,M,1400.00,M,M,M,-RA BR,KHVN 010455Z AUTO 04010KT 2 1/2SM -RA BR OVC014 A2977 RMK MADISHF
HVN,2017-04-01 05:00,-72.8868,41.2638,M,M,M,40.00,10.00,0.01,29.77,M,2.50,M,OVC,M,M,M,1400.00,M,M,M,-RA BR,KHVN 010500Z AUTO 04010KT 2 1/2SM -RA BR OVC014 A2977 RMK P0001 MADISHF
HVN,2017-04-01 05:05,-72.8868,41.2638,M,M,M,40.00,10.00,0.01,29.77,M,3.00,M,OVC,M,M,M,1400.00,M,M,M,-RA BR,KHVN 010505Z AUTO 04010KT 3SM -RA BR OVC014 A2977 RMK P0001 MADISHF
HVN,2017-04-01 05:07,-72.8868,41.2638,36.00,34.00,92.35,50.00,10.00,0.01,29.77,M,3.00,M,OVC,M,M,M,1600.00,M,M,M,-RA BR,KHVN 010507Z AUTO 05010KT 3SM -RA BR OVC016 02/01 A2977 RMK AO2 P0001 T00220011
HVN,2017-04-01 05:10,-72.8868,41.2638,M,M,M,40.00,9.00,0.01,29.77,M,3.50,M,OVC,M,M,M,1600.00,M,M,M,-RA BR,KHVN 010510Z AUTO 04009KT 3SM -RA BR OVC016 A2977 RMK P0001 MADISHF
HVN,2017-04-01 05:15,-72.8868,41.2638,M,M,M,40.00,10.00,0.01,29.77,M,3.00,M,OVC,M,M,M,1600.00,M,M,M,UP BR,KHVN 010515Z AUTO 04010KT 3SM UP BR OVC016 A2977 RMK P0001 MADISHF
HVN,2017-04-01 05:18,-72.8868,41.2638,36.00,35.10,96.49,40.00,9.00,0.02,29.76,M,2.50,M,OVC,M,M,M,1400.00,M,M,M,-RA BR,KHVN 010518Z AUTO 04009KT 2 1/2SM -RA BR OVC014 02/02 A2976 RMK AO2 UPB13E17 P0002 T00220017
HVN,2017-04-01 05:20,-72.8868,41.2638,M,M,M,40.00,11.00,0.02,29.76,M,2.50,M,OVC,M,M,M,1400.00,M,M,M,-RA BR,KHVN 010520Z AUTO 04011KT 2 1/2SM -RA BR OVC014 A2976 RMK P0002 MADISHF
HVN,2017-04-01 05:25,-72.8868,41.2638,M,M,M,40.00,11.00,0.03,29.76,M,2.00,M,FEW,OVC,M,M,900.00,1400.00,M,M,-RA BR,KHVN 010525Z AUTO 04011KT 2SM -RA BR FEW009 OVC014 A2976 RMK P0003 MADISHF
HVN,2017-04-01 05:27,-72.8868,41.2638,36.00,35.10,96.49,40.00,12.00,0.03,29.76,M,2.50,M,FEW,OVC,M,M,900.00,1600.00,M,M,-RA BR,KHVN 010527Z AUTO 04012KT 2 1/2SM -RA BR FEW009 OVC016 02/02 A2976 RMK AO2 UPB13E17 P0003 T00220017
HVN,2017-04-01 05:30,-72.8868,41.2638,M,M,M,50.00,11.00,0.03,29.76,M,2.50,M,FEW,OVC,M,M,900.00,1600.00,M,M,-RA BR,KHVN 010530Z AUTO 05011KT 2 1/2SM -RA BR FEW009 OVC016 A2976 RMK P0003 MADISHF
HVN,2017-04-01 05:35,-72.8868,41.2638,M,M,M,40.00,11.00,0.03,29.75,M,3.50,M,FEW,BKN,OVC,M,900.00,1600.00,2100.00,M,-RA BR,KHVN 010535Z AUTO 04011KT 3SM -RA BR FEW009 BKN016 OVC021 A2975 RMK P0003 MADISHF
HVN,2017-04-01 05:38,-72.8868,41.2638,37.00,35.10,92.76,50.00,10.00,0.03,29.75,M,4.00,M,FEW,BKN,OVC,M,900.00,1600.00,2100.00,M,UP BR,KHVN 010538Z AUTO 05010KT 4SM UP BR FEW009 BKN016 OVC021 03/02 A2975 RMK AO2 RAE37UPB13E17B37 P0003 T00280017
HVN,2017-04-01 05:40,-72.8868,41.2638,M,M,M,40.00,12.00,0.03,29.75,M,4.00,M,FEW,OVC,M,M,900.00,1800.00,M,M,UP BR,KHVN 010540Z AUTO 04012KT 4SM UP BR FEW009 OVC018 A2975 RMK P0003 MADISHF
HVN,2017-04-01 05:45,-72.8868,41.2638,M,M,M,40.00,9.00,0.03,29.75,M,3.50,M,FEW,OVC,M,M,900.00,1800.00,M,M,UP BR,KHVN 010545Z AUTO 04009KT 3SM UP BR FEW009 OVC018 A2975 RMK P0003 MADISHF
HVN,2017-04-01 05:50,-72.8868,41.2638,M,M,M,40.00,12.00,0.03,29.74,M,3.50,M,FEW,OVC,M,M,900.00,1900.00,M,M,UP BR,KHVN 010550Z AUTO 04012KT 3SM UP BR FEW009 OVC019 A2974 RMK P0003 MADISHF
HVN,2017-04-01 05:53,-72.8868,41.2638,37.00,35.10,92.76,40.00,12.00,0.03,29.74,1007.10,4.00,M,FEW,OVC,M,M,1100.00,1900.00,M,M,BR,KHVN 010553Z AUTO 04012KT 4SM BR FEW011 OVC019 03/02 A2974 RMK AO2 RAE37UPB13E17B37E53 SLP071 P0003 60028 T00280017 10033 20022 58024
HVN,2017-04-01 05:55,-72.8868,41.2638,M,M,M,40.00,11.00,M,29.74,M,4.00,M,FEW,SCT,OVC,M,1100.00,1500.00,2100.00,M,BR,KHVN 010555Z AUTO 04011KT 4SM BR FEW011 SCT015 OVC021 A2974 RMK MADISHF
HVN,2017-04-01 06:00,-72.8868,41.2638,M,M,M,40.00,12.00,M,29.74,M,5.00,M,FEW,OVC,M,M,900.00,2100.00,M,M,BR,KHVN 010600Z AUTO 04012KT 5SM BR FEW009 OVC021 A2974 RMK MADISHF
HVN,2017-04-01 06:05,-72.8868,41.2638,37.00,35.10,92.76,40.00,10.00,0.00,29.73,M,5.00,M,FEW,OVC,M,M,900.00,2100.00,M,M,BR,KHVN 010605Z AUTO 04010KT 5SM BR FEW009 OVC021 03/02 A2973 RMK AO2 T00280017
HVN,2017-04-01 06:10,-72.8868,41.2638,M,M,M,40.00,12.00,M,29.72,M,4.00,17.00,FEW,BKN,OVC,M,999.00,1800.00,2300.00,M,-RA BR,KHVN 010610Z AUTO 04012G17KT 4SM -RA BR FEW009 BKN018 OVC023 A2972 RMK MADISHF
HVN,2017-04-01 06:15,-72.8868,41.2638,M,M,M,30.00,11.00,M,29.73,M,3.00,M,FEW,FEW,OVC,M,999.00,1400.00,1999.00,M,-RA BR,KHVN 010615Z AUTO 03011KT 3SM -RA BR FEW009 FEW014 OVC019 A2973 RMK MADISHF
HVN,2017-04-01 06:20,-72.8868,41.2638,M,M,M,40.00,10.00,M,29.73,M,3.00,M,FEW,SCT,OVC,M,999.00,1400.00,1999.00,M,-RA BR,KHVN 010620Z AUTO 04010KT 3SM -RA BR FEW009 SCT014 OVC019 A2973 RMK MADISHF
HVN,2017-04-01 06:25,-72.8868,41.2638,M,M,M,30.00,10.00,0.00,29.73,M,4.00,15.00,SCT,OVC,M,M,1200.00,1999.00,M,M,UP BR,KHVN 010625Z AUTO 03010G15KT 4SM UP BR SCT012 OVC019 A2973 RMK P0000 MADISHF
HVN,2017-04-01 06:30,-72.8868,41.2638,M,M,M,40.00,12.00,M,29.72,M,5.00,M,SCT,OVC,M,M,999.00,1699.00,M,M,BR,KHVN 010630Z AUTO 04012KT 5SM BR SCT009 OVC016 A2972 RMK MADISHF
HVN,2017-04-01 06:35,-72.8868,41.2638,M,M,M,40.00,11.00,M,29.72,M,7.00,M,SCT,OVC,M,M,1200.00,1900.00,M,M,M,KHVN 010635Z AUTO 04011KT 7SM SCT012 OVC019 A2972 RMK MADISHF
HVN,2017-04-01 06:40,-72.8868,41.2638,M,M,M,40.00,12.00,M,29.71,M,8.00,M,SCT,OVC,M,M,1100.00,1900.00,M,M,M,KHVN 010640Z AUTO 04012KT 8SM SCT011 OVC019 A2971 RMK MADISHF
HVN,2017-04-01 06:45,-72.8868,41.2638,M,M,M,30.00,11.00,M,29.71,M,7.00,M,SCT,OVC,M,M,1300.00,2100.00,M,M,M,KHVN 010645Z AUTO 03011KT 7SM SCT013 OVC021 A2971 RMK MADISHF
HVN,2017-04-01 06:50,-72.8868,41.2638,M,M,M,30.00,12.00,M,29.70,M,6.00,M,FEW,SCT,OVC,M,900.00,1300.00,2100.00,M,BR,KHVN 010650Z AUTO 03012KT 6SM BR FEW009 SCT013 OVC021 A2970 RMK MADISHF
HVN,2017-04-01 06:53,-72.8868,41.2638,37.00,35.10,92.76,40.00,12.00,0.00,29.70,1005.80,7.00,M,SCT,OVC,M,M,1300.00,2100.00,M,M,M,KHVN 010653Z AUTO 04012KT 7SM SCT013 OVC021 03/02 A2970 RMK AO2 RAB09E23UPB23E26 SLP058 P0000 T00280017
HVN,2017-04-01 06:55,-72.8868,41.2638,M,M,M,30.00,14.00,M,29.70,M,8.00,M,SCT,OVC,M,M,1300.00,2100.00,M,M,M,KHVN 010655Z AUTO 03014KT 8SM SCT013 OVC021 A2970 RMK MADISHF
HVN,2017-04-01 07:00,-72.8868,41.2638,M,M,M,30.00,13.00,M,29.70,M,10.00,M,BKN,OVC,M,M,1600.00,2300.00,M,M,M,KHVN 010700Z AUTO 03013KT 10SM BKN016 OVC023 A2970 RMK MADISHF
HVN,2017-04-01 07:05,-72.8868,41.2638,M,M,M,30.00,12.00,M,29.69,M,10.00,M,BKN,OVC,M,M,1600.00,2300.00,M,M,M,KHVN 010705Z AUTO 03012KT 10SM BKN016 OVC023 A2969 RMK MADISHF
HVN,2017-04-01 07:10,-72.8868,41.2638,M,M,M,30.00,13.00,M,29.69,M,8.00,M,SCT,BKN,OVC,M,1300.00,1699.00,2500.00,M,M,KHVN 010710Z AUTO 03013KT 8SM SCT013 BKN016 OVC025 A2969 RMK MADISHF
HVN,2017-04-01 07:15,-72.8868,41.2638,M,M,M,30.00,12.00,M,29.69,M,7.00,17.00,OVC,M,M,M,1699.00,M,M,M,M,KHVN 010715Z AUTO 03012G17KT 7SM OVC016 A2969 RMK MADISHF
HVN,2017-04-01 07:20,-72.8868,41.2638,M,M,M,40.00,13.00,M,29.69,M,5.00,M,OVC,M,M,M,1699.00,M,M,M,BR,KHVN 010720Z AUTO 04013KT 5SM BR OVC016 A2969 RMK MADISHF
HVN,2017-04-01 07:25,-72.8868,41.2638,M,M,M,30.00,13.00,M,29.69,M,5.00,M,OVC,M,M,M,1699.00,M,M,M,BR,KHVN 010725Z AUTO 03013KT 5SM BR OVC016 A2969 RMK MADISHF
HVN,2017-04-01 07:30,-72.8868,41.2638,M,M,M,30.00,13.00,M,29.69,M,5.00,M,OVC,M,M,M,1600.00,M,M,M,BR,KHVN 010730Z AUTO 03013KT 5SM BR OVC016 A2969 RMK MADISHF
HVN,2017-04-01 07:35,-72.8868,41.2638,M,M,M,30.00,13.00,M,29.69,M,5.00,M,OVC,M,M,M,1600.00,M,M,M,BR,KHVN 010735Z AUTO 03013KT 5SM BR OVC016 A2969 RMK MADISHF
HVN,2017-04-01 07:40,-72.8868,41.2638,M,M,M,30.00,14.00,M,29.68,M,4.00,M,OVC,M,M,M,1600.00,M,M,M,BR,KHVN 010740Z AUTO 03014KT 4SM BR OVC016 A2968 RMK MADISHF
HVN,2017-04-01 07:45,-72.8868,41.2638,M,M,M,30.00,14.00,M,29.68,M,4.00,M,OVC,M,M,M,1600.00,M,M,M,BR,KHVN 010745Z AUTO 03014KT 4SM BR OVC016 A2968 RMK MADISHF
HVN,2017-04-01 07:50,-72.8868,41.2638,M,M,M,30.00,12.00,M,29.68,M,3.50,M,OVC,M,M,M,1600.00,M,M,M,BR,KHVN 010750Z AUTO 03012KT 3SM BR OVC016 A2968 RMK MADISHF
HVN,2017-04-01 07:53,-72.8868,41.2638,36.00,34.00,92.35,20.00,13.00,0.00,29.68,1004.80,3.00,20.00,OVC,M,M,M,1600.00,M,M,M,BR,KHVN 010753Z AUTO 02013G20KT 3SM BR OVC016 02/01 A2968 RMK AO2 SLP048 T00220011
HVN,2017-04-01 07:55,-72.8868,41.2638,M,M,M,20.00,15.00,M,29.67,M,3.50,M,OVC,M,M,M,1600.00,M,M,M,BR,KHVN 010755Z AUTO 02015KT 3SM BR OVC016 A2967 RMK MADISHF
HVN,2017-04-01 08:00,-72.8868,41.2638,M,M,M,30.00,16.00,M,29.67,M,3.50,M,OVC,M,M,M,1600.00,M,M,M,BR,KHVN 010800Z AUTO 03016KT 3SM BR OVC016 A2967 RMK MADISHF
HVN,2017-04-01 08:05,-72.8868,41.2638,M,M,M,30.00,15.00,M,29.67,M,3.50,20.00,OVC,M,M,M,1500.00,M,M,M,BR,KHVN 010805Z AUTO 03015G20KT 3SM BR OVC015 A2967 RMK MADISHF
HVN,2017-04-01 08:10,-72.8868,41.2638,M,M,M,30.00,15.00,M,29.66,M,4.00,M,OVC,M,M,M,1500.00,M,M,M,BR,KHVN 010810Z AUTO 03015KT 4SM BR OVC015 A2966 RMK MADISHF
HVN,2017-04-01 08:15,-72.8868,41.2638,M,M,M,30.00,12.00,M,29.66,M,4.00,M,OVC,M,M,M,1500.00,M,M,M,BR,KHVN 010815Z AUTO 03012KT 4SM BR OVC015 A2966 RMK MADISHF
HVN,2017-04-01 08:20,-72.8868,41.2638,M,M,M,20.00,13.00,M,29.66,M,4.00,M,BKN,OVC,M,M,1300.00,1800.00,M,M,BR,KHVN 010820Z AUTO 02013KT 4SM BR BKN013 OVC018 A2966 RMK MADISHF
HVN,2017-04-01 08:22,-72.8868,41.2638,36.00,34.00,92.35,20.00,13.00,0.00,29.65,M,4.00,21.00,BKN,OVC,M,M,1300.00,2000.00,M,M,BR,KHVN 010822Z AUTO 02013G21KT 4SM BR BKN013 OVC020 02/01 A2965 RMK AO2 T00220011
HVN,2017-04-01 08:25,-72.8868,41.2638,M,M,M,30.00,14.00,M,29.65,M,4.00,20.00,SCT,OVC,M,M,1300.00,1999.00,M,M,BR,KHVN 010825Z AUTO 03014G20KT 4SM BR SCT013 OVC019 A2965 RMK MADISHF
HVN,2017-04-01 08:29,-72.8868,41.2638,36.00,34.00,92.35,30.00,17.00,0.00,29.65,M,4.00,22.00,SCT,OVC,M,M,1300.00,2000.00,M,M,BR,KHVN 010829Z AUTO 03017G22KT 4SM BR SCT013 OVC020 02/01 A2965 RMK AO2 T00220011
HVN,2017-04-01 08:30,-72.8868,41.2638,M,M,M,M,M,M,29.65,M,4.00,M,SCT,OVC,M,M,1300.00,1999.00,M,M,BR,KHVN 010830Z AUTO /////KT 4SM BR SCT013 OVC019 A2965 RMK MADISHF
HVN,2017-04-01 08:35,-72.8868,41.2638,M,M,M,M,M,M,29.65,M,4.00,M,BKN,OVC,M,M,1300.00,2200.00,M,M,BR,KHVN 010835Z AUTO /////KT 4SM BR BKN013 OVC022 A2965 RMK MADISHF
HVN,2017-04-01 08:40,-72.8868,41.2638,M,M,M,M,M,M,29.65,M,5.00,M,SCT,OVC,M,M,1300.00,2200.00,M,M,BR,KHVN 010840Z AUTO /////KT 5SM BR SCT013 OVC022 A2965 RMK MADISHF
HVN,2017-04-01 08:45,-72.8868,41.2638,M,M,M,M,M,M,29.65,M,5.00,M,FEW,SCT,OVC,M,1200.00,1699.00,2200.00,M,BR,KHVN 010845Z AUTO /////KT 5SM BR FEW012 SCT016 OVC022 A2965 RMK MADISHF
HVN,2017-04-01 08:50,-72.8868,41.2638,M,M,M,10.00,14.00,M,29.66,M,5.00,M,SCT,SCT,OVC,M,1200.00,1699.00,2200.00,M,BR,KHVN 010850Z AUTO 01014KT 5SM BR SCT012 SCT016 OVC022 A2966 RMK MADISHF
HVN,2017-04-01 08:53,-72.8868,41.2638,36.00,34.00,92.35,20.00,13.00,0.00,29.66,1004.30,4.00,23.00,SCT,OVC,M,M,1200.00,2200.00,M,M,BR,KHVN 010853Z AUTO 02013G23KT 4SM BR SCT012 OVC022 02/01 A2966 RMK AO2 SLP043 60000 T00220011 56028
HVN,2017-04-01 08:55,-72.8868,41.2638,M,M,M,10.00,15.00,M,29.66,M,4.00,M,SCT,OVC,M,M,1200.00,2200.00,M,M,BR,KHVN 010855Z AUTO 01015KT 4SM BR SCT012 OVC022 A2966 RMK MADISHF
HVN,2017-04-01 09:00,-72.8868,41.2638,M,M,M,10.00,15.00,M,29.66,M,4.00,M,FEW,SCT,OVC,M,999.00,1400.00,2100.00,M,BR,KHVN 010900Z AUTO 01015KT 4SM BR FEW009 SCT014 OVC021 A2966 RMK MADISHF
HVN,2017-04-01 09:05,-72.8868,41.2638,M,M,M,10.00,15.00,M,29.66,M,4.00,20.00,FEW,BKN,OVC,M,999.00,1600.00,2100.00,M,BR,KHVN 010905Z AUTO 01015G20KT 4SM BR FEW009 BKN016 OVC021 A2966 RMK MADISHF
HVN,2017-04-01 09:10,-72.8868,41.2638,M,M,M,10.00,13.00,M,29.67,M,4.00,M,FEW,BKN,OVC,M,999.00,1500.00,2100.00,M,BR,KHVN 010910Z AUTO 01013KT 4SM BR FEW009 BKN015 OVC021 A2967 RMK MADISHF
HVN,2017-04-01 09:15,-72.8868,41.2638,M,M,M,M,M,M,29.67,M,5.00,M,FEW,BKN,OVC,M,999.00,1500.00,2100.00,M,BR,KHVN 010915Z AUTO /////KT 5SM BR FEW009 BKN015 OVC021 A2967 RMK MADISHF
HVN,2017-04-01 09:20,-72.8868,41.2638,M,M,M,20.00,13.00,M,29.67,M,4.00,M,FEW,BKN,OVC,M,999.00,1699.00,2100.00,M,BR,KHVN 010920Z AUTO 02013KT 4SM BR FEW009 BKN016 OVC021 A2967 RMK MADISHF
HVN,2017-04-01 09:25,-72.8868,41.2638,M,M,M,10.00,14.00,M,29.67,M,4.00,M,FEW,OVC,M,M,1200.00,2100.00,M,M,BR,KHVN 010925Z AUTO 01014KT 4SM BR FEW012 OVC021 A2967 RMK MADISHF
HVN,2017-04-01 09:30,-72.8868,41.2638,M,M,M,20.00,14.00,M,29.67,M,4.00,M,BKN,OVC,M,M,1500.00,2100.00,M,M,BR,KHVN 010930Z AUTO 02014KT 4SM BR BKN015 OVC021 A2967 RMK MADISHF
HVN,2017-04-01 09:35,-72.8868,41.2638,M,M,M,10.00,13.00,M,29.67,M,4.00,M,FEW,OVC,M,M,999.00,1900.00,M,M,BR,KHVN 010935Z AUTO 01013KT 4SM BR FEW009 OVC019 A2967 RMK MADISHF
HVN,2017-04-01 09:40,-72.8868,41.2638,M,M,M,10.00,13.00,M,29.67,M,4.00,M,SCT,OVC,M,M,999.00,1900.00,M,M,BR,KHVN 010940Z AUTO 01013KT 4SM BR SCT009 OVC019 A2967 RMK MADISHF
HVN,2017-04-01 09:45,-72.8868,41.2638,M,M,M,20.00,12.00,M,29.68,M,4.00,M,SCT,OVC,M,M,999.00,1900.00,M,M,BR,KHVN 010945Z AUTO 02012KT 4SM BR SCT009 OVC019 A2968 RMK MADISHF
HVN,2017-04-01 09:50,-72.8868,41.2638,M,M,M,10.00,15.00,M,29.67,M,3.50,20.00,SCT,OVC,M,M,900.00,1900.00,M,M,BR,KHVN 010950Z AUTO 01015G20KT 3SM BR SCT009 OVC019 A2967 RMK MADISHF
HVN,2017-04-01 09:53,-72.8868,41.2638,36.00,34.00,92.35,10.00,16.00,0.00,29.67,1004.70,3.00,22.00,SCT,OVC,M,M,900.00,1900.00,M,M,BR,KHVN 010953Z 01016G22KT 3SM BR SCT009 OVC019 02/01 A2967 RMK AO2 SLP047 T00220011
HVN,2017-04-01 09:55,-72.8868,41.2638,M,M,M,10.00,17.00,M,29.67,M,3.50,M,FEW,BKN,OVC,M,900.00,1699.00,2200.00,M,BR,KHVN 010955Z AUTO 01017KT 3SM BR FEW009 BKN016 OVC022 A2967 RMK MADISHF
HVN,2017-04-01 10:00,-72.8868,41.2638,M,M,M,20.00,15.00,M,29.67,M,3.50,M,FEW,SCT,OVC,M,900.00,1200.00,2200.00,M,BR,KHVN 011000Z AUTO 02015KT 3SM BR FEW009 SCT012 OVC022 A2967 RMK MADISHF
HVN,2017-04-01 10:05,-72.8868,41.2638,M,M,M,10.00,15.00,M,29.67,M,4.00,M,FEW,SCT,OVC,M,900.00,1600.00,2400.00,M,BR,KHVN 011005Z AUTO 01015KT 4SM BR FEW009 SCT016 OVC024 A2967 RMK MADISHF
HVN,2017-04-01 10:10,-72.8868,41.2638,M,M,M,20.00,14.00,M,29.67,M,4.00,M,FEW,SCT,OVC,M,900.00,1300.00,2400.00,M,BR,KHVN 011010Z AUTO 02014KT 4SM BR FEW009 SCT013 OVC024 A2967 RMK MADISHF
HVN,2017-04-01 10:15,-72.8868,41.2638,M,M,M,10.00,14.00,M,29.67,M,4.00,M,SCT,OVC,M,M,900.00,2400.00,M,M,BR,KHVN 011015Z AUTO 01014KT 4SM BR SCT009 OVC024 A2967 RMK MADISHF
HVN,2017-04-01 10:20,-72.8868,41.2638,M,M,M,10.00,14.00,M,29.67,M,4.00,M,SCT,OVC,M,M,900.00,2400.00,M,M,BR,KHVN 011020Z AUTO 01014KT 4SM BR SCT009 OVC024 A2967 RMK MADISHF
HVN,2017-04-01 10:25,-72.8868,41.2638,M,M,M,20.00,14.00,M,29.67,M,4.00,M,BKN,OVC,M,M,900.00,2600.00,M,M,BR,KHVN 011025Z AUTO 02014KT 4SM BR BKN009 OVC026 A2967 RMK MADISHF
HVN,2017-04-01 10:28,-72.8868,41.2638,36.00,34.00,92.35,10.00,17.00,0.00,29.67,M,4.00,24.00,BKN,BKN,OVC,M,900.00,1500.00,2600.00,M,BR,KHVN 011028Z 01017G24KT 4SM BR BKN009 BKN015 OVC026 02/01 A2967 RMK AO2 T00220011
HVN,2017-04-01 10:30,-72.8868,41.2638,M,M,M,10.00,17.00,M,29.67,M,4.00,M,BKN,OVC,M,M,900.00,2600.00,M,M,BR,KHVN 011030Z AUTO 01017KT 4SM BR BKN009 OVC026 A2967 RMK MADISHF
HVN,2017-04-01 10:35,-72.8868,41.2638,M,M,M,10.00,15.00,M,29.67,M,5.00,M,BKN,OVC,M,M,900.00,2600.00,M,M,BR,KHVN 011035Z AUTO 01015KT 5SM BR BKN009 OVC026 A2967 RMK MADISHF
HVN,2017-04-01 10:40,-72.8868,41.2638,M,M,M,10.00,15.00,M,29.67,M,5.00,M,BKN,OVC,M,M,900.00,2600.00,M,M,BR,KHVN 011040Z AUTO 01015KT 5SM BR BKN009 OVC026 A2967 RMK MADISHF
HVN,2017-04-01 10:45,-72.8868,41.2638,M,M,M,10.00,17.00,M,29.67,M,6.00,M,BKN,OVC,M,M,900.00,2600.00,M,M,BR,KHVN 011045Z AUTO 01017KT 6SM BR BKN009 OVC026 A2967 RMK MADISHF
HVN,2017-04-01 10:50,-72.8868,41.2638,M,M,M,10.00,16.00,M,29.67,M,6.00,M,BKN,OVC,M,M,900.00,2600.00,M,M,BR,KHVN 011050Z AUTO 01016KT 6SM BR BKN009 OVC026 A2967 RMK MADISHF
HVN,2017-04-01 10:53,-72.8868,41.2638,36.00,34.00,92.35,10.00,16.00,0.00,29.67,1004.80,6.00,22.00,BKN,OVC,M,M,900.00,2600.00,M,M,BR,KHVN 011053Z 01016G22KT 6SM BR BKN009 OVC026 02/01 A2967 RMK AO2 SLP048 T00220011
HVN,2017-04-01 10:55,-72.8868,41.2638,M,M,M,10.00,18.00,M,29.67,M,6.00,M,BKN,OVC,M,M,900.00,2800.00,M,M,BR,KHVN 011055Z AUTO 01018KT 6SM BR BKN009 OVC028 A2967 RMK MADISHF
HVN,2017-04-01 11:00,-72.8868,41.2638,M,M,M,10.00,13.00,M,29.68,M,7.00,M,BKN,OVC,M,M,900.00,2800.00,M,M,M,KHVN 011100Z AUTO 01013KT 7SM BKN009 OVC028 A2968 RMK MADISHF
HVN,2017-04-01 11:05,-72.8868,41.2638,M,M,M,10.00,17.00,M,29.68,M,7.00,M,BKN,BKN,OVC,M,900.00,1400.00,2800.00,M,M,KHVN 011105Z AUTO 01017KT 7SM BKN009 BKN014 OVC028 A2968 RMK MADISHF
HVN,2017-04-01 11:10,-72.8868,41.2638,M,M,M,10.00,16.00,M,29.68,M,5.00,M,BKN,OVC,M,M,900.00,3000.00,M,M,BR,KHVN 011110Z AUTO 01016KT 5SM BR BKN009 OVC030 A2968 RMK MADISHF
HVN,2017-04-01 11:15,-72.8868,41.2638,M,M,M,360.00,16.00,M,29.68,M,5.00,M,BKN,OVC,M,M,900.00,3000.00,M,M,BR,KHVN 011115Z AUTO 36016KT 5SM BR BKN009 OVC030 A2968 RMK MADISHF
HVN,2017-04-01 11:20,-72.8868,41.2638,M,M,M,10.00,20.00,M,29.68,M,4.00,M,BKN,OVC,M,M,900.00,3000.00,M,M,BR,KHVN 011120Z AUTO 01020KT 4SM BR BKN009 OVC030 A2968 RMK MADISHF
HVN,2017-04-01 11:25,-72.8868,41.2638,M,M,M,360.00,18.00,M,29.69,M,4.00,M,BKN,OVC,M,M,900.00,3000.00,M,M,BR,KHVN 011125Z AUTO 36018KT 4SM BR BKN009 OVC030 A2969 RMK MADISHF
HVN,2017-04-01 11:30,-72.8868,41.2638,M,M,M,360.00,17.00,M,29.69,M,4.00,M,BKN,OVC,M,M,900.00,3000.00,M,M,BR,KHVN 011130Z AUTO 36017KT 4SM BR BKN009 OVC030 A2969 RMK MADISHF
HVN,2017-04-01 11:35,-72.8868,41.2638,M,M,M,360.00,15.00,M,29.69,M,5.00,M,BKN,OVC,M,M,900.00,3000.00,M,M,BR,KHVN 011135Z AUTO 36015KT 5SM BR BKN009 OVC030 A2969 RMK MADISHF
HVN,2017-04-01 11:40,-72.8868,41.2638,M,M,M,10.00,18.00,M,29.69,M,5.00,M,BKN,OVC,M,M,900.00,3000.00,M,M,BR,KHVN 011140Z AUTO 01018KT 5SM BR BKN009 OVC030 A2969 RMK MADISHF
HVN,2017-04-01 11:45,-72.8868,41.2638,M,M,M,10.00,19.00,M,29.69,M,5.00,M,BKN,OVC,M,M,900.00,3000.00,M,M,BR,KHVN 011145Z AUTO 01019KT 5SM BR BKN009 OVC030 A2969 RMK MADISHF
HVN,2017-04-01 11:50,-72.8868,41.2638,M,M,M,10.00,21.00,M,29.70,M,6.00,M,BKN,BKN,OVC,M,900.00,1500.00,3300.00,M,BR,KHVN 011150Z AUTO 01021KT 6SM BR BKN009 BKN015 OVC033 A2970 RMK MADISHF
HVN,2017-04-01 11:53,-72.8868,41.2638,36.00,34.00,92.35,360.00,19.00,0.00,29.70,1005.50,5.00,27.00,BKN,BKN,OVC,M,900.00,1500.00,3300.00,M,BR,KHVN 011153Z 36019G27KT 5SM BR BKN009 BKN015 OVC033 02/01 A2970 RMK AO2 PK WND 01027/1141 SLP055 60000 70052 T00220011 10028 20022 53007
HVN,2017-04-01 11:55,-72.8868,41.2638,M,M,M,360.00,21.00,M,29.70,M,5.00,M,BKN,BKN,OVC,M,999.00,1500.00,3300.00,M,BR,KHVN 011155Z AUTO 36021KT 5SM BR BKN009 BKN015 OVC033 A2970 RMK MADISHF
HVN,2017-04-01 12:00,-72.8868,41.2638,M,M,M,10.00,19.00,M,29.70,M,5.00,M,BKN,BKN,OVC,M,900.00,1500.00,3300.00,M,BR,KHVN 011200Z AUTO 01019KT 5SM BR BKN009 BKN015 OVC033 A2970 RMK MADISHF
HVN,2017-04-01 12:05,-72.8868,41.2638,M,M,M,10.00,20.00,M,29.70,M,6.00,M,BKN,BKN,OVC,M,900.00,1500.00,3300.00,M,BR,KHVN 011205Z AUTO 01020KT 6SM BR BKN009 BKN015 OVC033 A2970 RMK MADISHF
HVN,2017-04-01 12:10,-72.8868,41.2638,M,M,M,M,M,M,29.70,M,6.00,M,BKN,BKN,OVC,M,900.00,1500.00,3300.00,M,BR,KHVN 011210Z AUTO /////KT 6SM BR BKN009 BKN015 OVC033 A2970 RMK MADISHF
HVN,2017-04-01 12:15,-72.8868,41.2638,M,M,M,10.00,20.00,M,29.70,M,7.00,M,BKN,BKN,OVC,M,900.00,1500.00,3300.00,M,M,KHVN 011215Z AUTO 01020KT 7SM BKN009 BKN015 OVC033 A2970 RMK MADISHF
HVN,2017-04-01 12:20,-72.8868,41.2638,M,M,M,M,M,M,29.70,M,7.00,M,BKN,BKN,OVC,M,900.00,1500.00,3300.00,M,M,KHVN 011220Z AUTO /////KT 7SM BKN009 BKN015 OVC033 A2970 RMK MADISHF
HVN,2017-04-01 12:25,-72.8868,41.2638,M,M,M,360.00,21.00,M,29.70,M,6.00,M,BKN,BKN,OVC,M,900.00,1500.00,3300.00,M,BR,KHVN 011225Z AUTO 36021KT 6SM BR BKN009 BKN015 OVC033 A2970 RMK MADISHF
HVN,2017-04-01 12:30,-72.8868,41.2638,M,M,M,360.00,19.00,M,29.70,M,5.00,M,BKN,BKN,OVC,M,900.00,1500.00,3300.00,M,BR,KHVN 011230Z AUTO 36019KT 5SM BR BKN009 BKN015 OVC033 A2970 RMK MADISHF
HVN,2017-04-01 12:35,-72.8868,41.2638,M,M,M,360.00,16.00,M,29.70,M,6.00,M,BKN,BKN,OVC,M,900.00,1500.00,3300.00,M,BR,KHVN 011235Z AUTO 36016KT 6SM BR BKN009 BKN015 OVC033 A2970 RMK MADISHF
HVN,2017-04-01 12:40,-72.8868,41.2638,M,M,M,M,M,M,29.70,M,6.00,M,BKN,BKN,OVC,M,900.00,1500.00,3300.00,M,BR,KHVN 011240Z AUTO /////KT 6SM BR BKN009 BKN015 OVC033 A2970 RMK MADISHF
HVN,2017-04-01 12:45,-72.8868,41.2638,M,M,M,M,M,M,29.70,M,7.00,M,BKN,BKN,OVC,M,900.00,1500.00,3300.00,M,M,KHVN 011245Z AUTO /////KT 7SM BKN009 BKN015 OVC033 A2970 RMK MADISHF
HVN,2017-04-01 12:50,-72.8868,41.2638,M,M,M,10.00,20.00,M,29.70,M,8.00,M,BKN,BKN,OVC,M,900.00,1699.00,3800.00,M,M,KHVN 011250Z AUTO 01020KT 8SM BKN009 BKN016 OVC038 A2970 RMK MADISHF
HVN,2017-04-01 12:53,-72.8868,41.2638,37.00,34.00,88.78,360.00,19.00,0.00,29.70,1005.70,9.00,29.00,BKN,BKN,OVC,M,900.00,1700.00,3800.00,M,M,KHVN 011253Z 36019G29KT 9SM BKN009 BKN017 OVC038 03/01 A2970 RMK AO2 PK WND 01031/1242 SLP057 T00280011
HVN,2017-04-01 12:55,-72.8868,41.2638,M,M,M,M,M,M,29.70,M,9.00,M,BKN,OVC,M,M,900.00,3800.00,M,M,M,KHVN 011255Z AUTO /////KT 9SM BKN009 OVC038 A2970 RMK MADISHF
HVN,2017-04-01 13:00,-72.8868,41.2638,M,M,M,M,M,M,29.70,M,10.00,M,BKN,OVC,M,M,900.00,3800.00,M,M,M,KHVN 011300Z AUTO /////KT 10SM BKN009 OVC038 A2970 RMK MADISHF
HVN,2017-04-01 13:05,-72.8868,41.2638,M,M,M,360.00,19.00,M,29.70,M,10.00,M,BKN,OVC,M,M,900.00,3800.00,M,M,M,KHVN 011305Z AUTO 36019KT 10SM BKN009 OVC038 A2970 RMK MADISHF
HVN,2017-04-01 13:10,-72.8868,41.2638,M,M,M,360.00,20.00,M,29.71,M,10.00,M,BKN,OVC,M,M,900.00,3800.00,M,M,M,KHVN 011310Z AUTO 36020KT 10SM BKN009 OVC038 A2971 RMK MADISHF
HVN,2017-04-01 13:15,-72.8868,41.2638,M,M,M,M,M,M,29.70,M,9.00,M,BKN,OVC,M,M,900.00,3800.00,M,M,M,KHVN 011315Z AUTO /////KT 9SM BKN009 OVC038 A2970 RMK MADISHF
HVN,2017-04-01 13:20,-72.8868,41.2638,M,M,M,M,M,M,29.71,M,9.00,M,BKN,OVC,M,M,900.00,3800.00,M,M,M,KHVN 011320Z AUTO /////KT 9SM BKN009 OVC038 A2971 RMK MADISHF
HVN,2017-04-01 13:25,-72.8868,41.2638,M,M,M,10.00,21.00,M,29.71,M,9.00,M,BKN,OVC,M,M,900.00,3800.00,M,M,M,KHVN 011325Z AUTO 01021KT 9SM BKN009 OVC038 A2971 RMK MADISHF
HVN,2017-04-01 13:30,-72.8868,41.2638,M,M,M,10.00,18.00,M,29.71,M,9.00,M,BKN,OVC,M,M,900.00,3800.00,M,M,M,KHVN 011330Z AUTO 01018KT 9SM BKN009 OVC038 A2971 RMK MADISHF
HVN,2017-04-01 13:35,-72.8868,41.2638,M,M,M,M,M,M,29.71,M,9.00,M,BKN,OVC,M,M,900.00,3800.00,M,M,M,KHVN 011335Z AUTO /////KT 9SM BKN009 OVC038 A2971 RMK MADISHF
HVN,2017-04-01 13:40,-72.8868,41.2638,M,M,M,360.00,18.00,M,29.72,M,10.00,M,BKN,OVC,M,M,900.00,3800.00,M,M,M,KHVN 011340Z AUTO 36018KT 10SM BKN009 OVC038 A2972 RMK MADISHF
HVN,2017-04-01 13:45,-72.8868,41.2638,M,M,M,10.00,19.00,M,29.72,M,9.00,M,BKN,OVC,M,M,900.00,3800.00,M,M,M,KHVN 011345Z AUTO 01019KT 9SM BKN009 OVC038 A2972 RMK MADISHF
HVN,2017-04-01 13:50,-72.8868,41.2638,M,M,M,360.00,19.00,M,29.72,M,9.00,M,BKN,BKN,OVC,M,1300.00,1800.00,3999.00,M,M,KHVN 011350Z AUTO 36019KT 9SM BKN013 BKN018 OVC039 A2972 RMK MADISHF
HVN,2017-04-01 13:51,-72.8868,41.2638,37.40,35.60,93.14,10.00,21.00,0.00,29.72,M,9.00,29.00,BKN,OVC,M,M,1500.00,4000.00,M,M,M,KHVN 011351Z 01021G29KT 9SM BKN015 OVC040 03/02 A2972 RMK AO2 PK WND 01031/1311
HVN,2017-04-01 13:53,-72.8868,41.2638,37.90,35.10,89.53,360.00,20.00,0.00,29.72,1006.40,9.00,28.00,BKN,BKN,OVC,M,1300.00,1800.00,4000.00,M,M,KHVN 011353Z 36020G28KT 9SM BKN013 BKN018 OVC040 03/02 A2972 RMK AO2 PK WND 01031/1311 SLP064 T00330017
HVN,2017-04-01 13:55,-72.8868,41.2638,M,M,M,10.00,18.00,M,29.72,M,9.00,M,BKN,BKN,OVC,M,1300.00,1800.00,3999.00,M,M,KHVN 011355Z AUTO 01018KT 9SM BKN013 BKN018 OVC039 A2972 RMK MADISHF
HVN,2017-04-01 14:00,-72.8868,41.2638,M,M,M,M,M,M,29.72,M,10.00,M,BKN,BKN,OVC,M,1300.00,1800.00,4200.00,M,M,KHVN 011400Z AUTO /////KT 10SM BKN013 BKN018 OVC042 A2972 RMK MADISHF
HVN,2017-04-01 14:05,-72.8868,41.2638,M,M,M,360.00,18.00,M,29.73,M,10.00,M,BKN,BKN,OVC,M,1300.00,1800.00,4400.00,M,M,KHVN 011405Z AUTO 36018KT 10SM BKN013 BKN018 OVC044 A2973 RMK MADISHF
HVN,2017-04-01 14:10,-72.8868,41.2638,M,M,M,360.00,22.00,M,29.73,M,10.00,M,BKN,BKN,OVC,M,1300.00,1800.00,4400.00,M,M,KHVN 011410Z AUTO 36022KT 10SM BKN013 BKN018 OVC044 A2973 RMK MADISHF
HVN,2017-04-01 14:15,-72.8868,41.2638,M,M,M,360.00,18.00,M,29.73,M,10.00,M,BKN,BKN,OVC,M,1300.00,1800.00,4400.00,M,M,KHVN 011415Z AUTO 36018KT 10SM BKN013 BKN018 OVC044 A2973 RMK MADISHF
HVN,2017-04-01 14:20,-72.8868,41.2638,M,M,M,360.00,22.00,M,29.74,M,10.00,M,BKN,BKN,OVC,M,1300.00,1800.00,4400.00,M,M,KHVN 011420Z AUTO 36022KT 10SM BKN013 BKN018 OVC044 A2974 RMK MADISHF
HVN,2017-04-01 14:25,-72.8868,41.2638,M,M,M,M,M,M,29.74,M,10.00,M,BKN,BKN,OVC,M,1300.00,1800.00,4400.00,M,M,KHVN 011425Z AUTO /////KT 10SM BKN013 BKN018 OVC044 A2974 RMK MADISHF
HVN,2017-04-01 14:30,-72.8868,41.2638,M,M,M,360.00,18.00,M,29.74,M,10.00,M,BKN,BKN,OVC,M,1300.00,1800.00,4400.00,M,M,KHVN 011430Z AUTO 36018KT 10SM BKN013 BKN018 OVC044 A2974 RMK MADISHF
HVN,2017-04-01 14:35,-72.8868,41.2638,M,M,M,360.00,20.00,M,29.75,M,10.00,M,BKN,BKN,OVC,M,1300.00,1800.00,4400.00,M,M,KHVN 011435Z AUTO 36020KT 10SM BKN013 BKN018 OVC044 A2975 RMK MADISHF
HVN,2017-04-01 14:40,-72.8868,41.2638,M,M,M,360.00,17.00,M,29.75,M,10.00,M,BKN,BKN,OVC,M,1300.00,1800.00,4400.00,M,M,KHVN 011440Z AUTO 36017KT 10SM BKN013 BKN018 OVC044 A2975 RMK MADISHF
HVN,2017-04-01 14:45,-72.8868,41.2638,M,M,M,360.00,19.00,M,29.75,M,10.00,M,BKN,BKN,OVC,M,1300.00,1800.00,4400.00,M,M,KHVN 011445Z AUTO 36019KT 10SM BKN013 BKN018 OVC044 A2975 RMK MADISHF
HVN,2017-04-01 14:50,-72.8868,41.2638,M,M,M,M,M,M,29.75,M,10.00,M,BKN,OVC,M,M,1800.00,4200.00,M,M,M,KHVN 011450Z AUTO /////KT 10SM BKN018 OVC042 A2975 RMK MADISHF
HVN,2017-04-01 14:53,-72.8868,41.2638,39.00,34.00,82.08,10.00,22.00,0.00,29.75,1007.40,10.00,32.00,BKN,OVC,M,M,1700.00,4200.00,M,M,M,KHVN 011453Z 01022G32KT 10SM BKN017 OVC042 04/01 A2975 RMK AO2 PK WND 01033/1403 SLP074 T00390011 53019
HVN,2017-04-01 14:55,-72.8868,41.2638,M,M,M,M,M,M,29.75,M,10.00,M,BKN,BKN,OVC,M,1500.00,1999.00,4200.00,M,M,KHVN 011455Z AUTO /////KT 10SM BKN015 BKN019 OVC042 A2975 RMK MADISHF
HVN,2017-04-01 15:00,-72.8868,41.2638,M,M,M,M,M,M,29.75,M,10.00,M,BKN,BKN,OVC,M,1600.00,2100.00,4200.00,M,M,KHVN 011500Z AUTO /////KT 10SM BKN016 BKN021 OVC042 A2975 RMK MADISHF
HVN,2017-04-01 15:05,-72.8868,41.2638,M,M,M,360.00,19.00,M,29.75,M,10.00,M,BKN,OVC,M,M,1800.00,4300.00,M,M,M,KHVN 011505Z AUTO 36019KT 10SM BKN018 OVC043 A2975 RMK MADISHF
HVN,2017-04-01 15:10,-72.8868,41.2638,M,M,M,360.00,19.00,M,29.75,M,10.00,M,BKN,OVC,M,M,1800.00,4300.00,M,M,M,KHVN 011510Z AUTO 36019KT 10SM BKN018 OVC043 A2975 RMK MADISHF
HVN,2017-04-01 15:15,-72.8868,41.2638,M,M,M,M,M,M,29.75,M,10.00,M,FEW,BKN,OVC,M,1500.00,1999.00,4500.00,M,M,KHVN 011515Z AUTO /////KT 10SM FEW015 BKN019 OVC045 A2975 RMK MADISHF
HVN,2017-04-01 15:20,-72.8868,41.2638,M,M,M,M,M,M,29.76,M,10.00,M,BKN,BKN,OVC,M,1699.00,2100.00,4500.00,M,M,KHVN 011520Z AUTO /////KT 10SM BKN016 BKN021 OVC045 A2976 RMK MADISHF
HVN,2017-04-01 15:25,-72.8868,41.2638,M,M,M,M,M,M,29.76,M,10.00,M,BKN,BKN,OVC,M,1699.00,2100.00,4500.00,M,M,KHVN 011525Z AUTO /////KT 10SM BKN016 BKN021 OVC045 A2976 RMK MADISHF
HVN,2017-04-01 15:30,-72.8868,41.2638,M,M,M,M,M,M,29.76,M,10.00,M,BKN,BKN,OVC,M,1699.00,2100.00,4500.00,M,M,KHVN 011530Z AUTO /////KT 10SM BKN016 BKN021 OVC045 A2976 RMK MADISHF
HVN,2017-04-01 15:35,-72.8868,41.2638,M,M,M,M,M,M,29.76,M,10.00,M,BKN,BKN,OVC,M,1699.00,2100.00,4500.00,M,M,KHVN 011535Z AUTO /////KT 10SM BKN016 BKN021 OVC045 A2976 RMK MADISHF
HVN,2017-04-01 15:40,-72.8868,41.2638,M,M,M,M,M,M,29.75,M,10.00,M,BKN,BKN,OVC,M,1699.00,2100.00,4500.00,M,M,KHVN 011540Z AUTO /////KT 10SM BKN016 BKN021 OVC045 A2975 RMK MADISHF
HVN,2017-04-01 15:45,-72.8868,41.2638,M,M,M,360.00,20.00,M,29.75,M,10.00,M,BKN,BKN,OVC,M,1699.00,2100.00,4500.00,M,M,KHVN 011545Z AUTO 36020KT 10SM BKN016 BKN021 OVC045 A2975 RMK MADISHF
HVN,2017-04-01 15:50,-72.8868,41.2638,M,M,M,M,M,M,29.75,M,10.00,M,BKN,BKN,OVC,M,1699.00,2100.00,4500.00,M,M,KHVN 011550Z AUTO /////KT 10SM BKN016 BKN021 OVC045 A2975 RMK MADISHF
HVN,2017-04-01 15:53,-72.8868,41.2638,41.00,34.00,75.94,10.00,27.00,0.00,29.75,1007.50,10.00,34.00,BKN,BKN,OVC,M,1700.00,2100.00,4500.00,M,M,KHVN 011553Z 01027G34KT 10SM BKN017 BKN021 OVC045 05/01 A2975 RMK AO2 PK WND 01034/1553 SLP075 T00500011
HVN,2017-04-01 15:55,-72.8868,41.2638,M,M,M,M,M,M,29.75,M,10.00,M,BKN,BKN,OVC,M,1900.00,4200.00,4900.00,M,M,KHVN 011555Z AUTO /////KT 10SM BKN019 BKN042 OVC049 A2975 RMK MADISHF
HVN,2017-04-01 16:00,-72.8868,41.2638,M,M,M,10.00,20.00,M,29.76,M,10.00,M,BKN,BKN,OVC,M,1900.00,4200.00,4900.00,M,M,KHVN 011600Z AUTO 01020KT 10SM BKN019 BKN042 OVC049 A2976 RMK MADISHF
HVN,2017-04-01 16:05,-72.8868,41.2638,M,M,M,10.00,26.00,M,29.76,M,10.00,M,BKN,BKN,OVC,M,1900.00,4200.00,4900.00,M,M,KHVN 011605Z AUTO 01026KT 10SM BKN019 BKN042 OVC049 A2976 RMK MADISHF
HVN,2017-04-01 16:10,-72.8868,41.2638,M,M,M,M,M,M,29.76,M,10.00,M,BKN,BKN,OVC,M,1900.00,4200.00,4900.00,M,M,KHVN 011610Z AUTO /////KT 10SM BKN019 BKN042 OVC049 A2976 RMK MADISHF
HVN,2017-04-01 16:15,-72.8868,41.2638,M,M,M,360.00,19.00,M,29.76,M,10.00,M,BKN,BKN,OVC,M,1900.00,4200.00,4900.00,M,M,KHVN 011615Z AUTO 36019KT 10SM BKN019 BKN042 OVC049 A2976 RMK MADISHF
HVN,2017-04-01 16:20,-72.8868,41.2638,M,M,M,M,M,M,29.76,M,10.00,M,BKN,BKN,OVC,M,1900.00,4200.00,4900.00,M,M,KHVN 011620Z AUTO /////KT 10SM BKN019 BKN042 OVC049 A2976 RMK MADISHF
HVN,2017-04-01 16:25,-72.8868,41.2638,M,M,M,360.00,20.00,M,29.76,M,10.00,M,BKN,BKN,OVC,M,1900.00,4200.00,4900.00,M,M,KHVN 011625Z AUTO 36020KT 10SM BKN019 BKN042 OVC049 A2976 RMK MADISHF
HVN,2017-04-01 16:30,-72.8868,41.2638,M,M,M,M,M,M,29.76,M,10.00,M,BKN,BKN,OVC,M,1900.00,4200.00,4900.00,M,M,KHVN 011630Z AUTO /////KT 10SM BKN019 BKN042 OVC049 A2976 RMK MADISHF
HVN,2017-04-01 16:35,-72.8868,41.2638,M,M,M,10.00,20.00,M,29.76,M,10.00,M,BKN,BKN,OVC,M,1900.00,4200.00,4900.00,M,M,KHVN 011635Z AUTO 01020KT 10SM BKN019 BKN042 OVC049 A2976 RMK MADISHF
HVN,2017-04-01 16:40,-72.8868,41.2638,M,M,M,M,M,M,29.76,M,10.00,M,BKN,BKN,OVC,M,1900.00,4200.00,4900.00,M,M,KHVN 011640Z AUTO /////KT 10SM BKN019 BKN042 OVC049 A2976 RMK MADISHF
HVN,2017-04-01 16:45,-72.8868,41.2638,M,M,M,M,M,M,29.76,M,10.00,M,BKN,BKN,OVC,M,1900.00,4200.00,4900.00,M,M,KHVN 011645Z AUTO /////KT 10SM BKN019 BKN042 OVC049 A2976 RMK MADISHF
HVN,2017-04-01 16:50,-72.8868,41.2638,M,M,M,360.00,24.00,M,29.76,M,10.00,M,BKN,OVC,M,M,2200.00,5500.00,M,M,M,KHVN 011650Z AUTO 36024KT 10SM BKN022 OVC055 A2976 RMK MADISHF
HVN,2017-04-01 16:53,-72.8868,41.2638,42.10,33.10,70.20,360.00,24.00,0.00,29.77,1007.90,10.00,32.00,BKN,OVC,M,M,2200.00,5500.00,M,M,M,KHVN 011653Z 36024G32KT 10SM BKN022 OVC055 06/01 A2977 RMK AO2 PK WND 36038/1554 SLP079 T00560006
HVN,2017-04-01 16:55,-72.8868,41.2638,M,M,M,M,M,M,29.77,M,10.00,M,BKN,OVC,M,M,2400.00,5500.00,M,M,M,KHVN 011655Z AUTO /////KT 10SM BKN024 OVC055 A2977 RMK MADISHF
HVN,2017-04-01 17:00,-72.8868,41.2638,M,M,M,M,M,M,29.77,M,10.00,M,BKN,OVC,M,M,2400.00,5500.00,M,M,M,KHVN 011700Z AUTO /////KT 10SM BKN024 OVC055 A2977 RMK MADISHF
HVN,2017-04-01 17:05,-72.8868,41.2638,M,M,M,M,M,M,29.77,M,10.00,M,BKN,OVC,M,M,2400.00,5500.00,M,M,M,KHVN 011705Z AUTO /////KT 10SM BKN024 OVC055 A2977 RMK MADISHF
HVN,2017-04-01 17:10,-72.8868,41.2638,M,M,M,350.00,23.00,M,29.77,M,10.00,M,BKN,OVC,M,M,2400.00,5500.00,M,M,M,KHVN 011710Z AUTO 35023KT 10SM BKN024 OVC055 A2977 RMK MADISHF
HVN,2017-04-01 17:15,-72.8868,41.2638,M,M,M,M,M,M,29.78,M,10.00,M,BKN,OVC,M,M,2400.00,6000.00,M,M,M,KHVN 011715Z AUTO /////KT 10SM BKN024 OVC060 A2978 RMK MADISHF
HVN,2017-04-01 17:20,-72.8868,41.2638,M,M,M,360.00,19.00,M,29.78,M,10.00,M,SCT,BKN,OVC,M,2100.00,2600.00,6000.00,M,M,KHVN 011720Z AUTO 36019KT 10SM SCT021 BKN026 OVC060 A2978 RMK MADISHF
HVN,2017-04-01 17:25,-72.8868,41.2638,M,M,M,360.00,21.00,M,29.78,M,10.00,M,SCT,BKN,OVC,M,2100.00,2600.00,7500.00,M,M,KHVN 011725Z AUTO 36021KT 10SM SCT021 BKN026 OVC075 A2978 RMK MADISHF
HVN,2017-04-01 17:30,-72.8868,41.2638,M,M,M,360.00,18.00,M,29.78,M,10.00,M,BKN,BKN,OVC,M,2400.00,3399.00,6500.00,M,M,KHVN 011730Z AUTO 36018KT 10SM BKN024 BKN033 OVC065 A2978 RMK MADISHF
HVN,2017-04-01 17:35,-72.8868,41.2638,M,M,M,M,M,M,29.78,M,10.00,M,BKN,BKN,OVC,M,2400.00,3399.00,6500.00,M,M,KHVN 011735Z AUTO /////KT 10SM BKN024 BKN033 OVC065 A2978 RMK MADISHF
HVN,2017-04-01 17:40,-72.8868,41.2638,M,M,M,M,M,M,29.78,M,10.00,M,BKN,BKN,OVC,M,2200.00,3100.00,7000.00,M,M,KHVN 011740Z AUTO /////KT 10SM BKN022 BKN031 OVC070 A2978 RMK MADISHF
HVN,2017-04-01 17:45,-72.8868,41.2638,M,M,M,M,M,M,29.79,M,10.00,M,BKN,BKN,OVC,M,2200.00,2900.00,7000.00,M,M,KHVN 011745Z AUTO /////KT 10SM BKN022 BKN029 OVC070 A2979 RMK MADISHF
HVN,2017-04-01 17:50,-72.8868,41.2638,M,M,M,M,M,M,29.78,M,10.00,M,BKN,BKN,OVC,M,2400.00,2800.00,6000.00,M,M,KHVN 011750Z AUTO /////KT 10SM BKN024 BKN028 OVC060 A2978 RMK MADISHF
HVN,2017-04-01 17:53,-72.8868,41.2638,43.00,33.10,67.82,350.00,21.00,0.00,29.79,1008.60,10.00,34.00,BKN,OVC,M,M,2400.00,6000.00,M,M,M,KHVN 011753Z 35021G34KT 10SM BKN024 OVC060 06/01 A2979 RMK AO2 PK WND 01034/1745 SLP086 T00610006 10061 20022 53012
HVN,2017-04-01 17:55,-72.8868,41.2638,M,M,M,350.00,18.00,M,29.79,M,10.00,M,BKN,OVC,M,M,2400.00,6000.00,M,M,M,KHVN 011755Z AUTO 35018KT 10SM BKN024 OVC060 A2979 RMK MADISHF
HVN,2017-04-01 18:00,-72.8868,41.2638,M,M,M,350.00,20.00,M,29.79,M,10.00,M,BKN,OVC,M,M,2400.00,5500.00,M,M,M,KHVN 011800Z AUTO 35020KT 10SM BKN024 OVC055 A2979 RMK MADISHF
HVN,2017-04-01 18:05,-72.8868,41.2638,M,M,M,M,M,M,29.79,M,10.00,M,BKN,OVC,M,M,2400.00,5500.00,M,M,M,KHVN 011805Z AUTO /////KT 10SM BKN024 OVC055 A2979 RMK MADISHF
HVN,2017-04-01 18:10,-72.8868,41.2638,M,M,M,350.00,16.00,M,29.80,M,10.00,M,BKN,OVC,M,M,2400.00,5500.00,M,M,M,KHVN 011810Z AUTO 35016KT 10SM BKN024 OVC055 A2980 RMK MADISHF
HVN,2017-04-01 18:15,-72.8868,41.2638,M,M,M,350.00,19.00,M,29.80,M,10.00,M,BKN,OVC,M,M,2400.00,5500.00,M,M,M,KHVN 011815Z AUTO 35019KT 10SM BKN024 OVC055 A2980 RMK MADISHF
HVN,2017-04-01 18:20,-72.8868,41.2638,M,M,M,360.00,21.00,M,29.79,M,10.00,M,BKN,OVC,M,M,2400.00,5500.00,M,M,M,KHVN 011820Z AUTO 36021KT 10SM BKN024 OVC055 A2979 RMK MADISHF
HVN,2017-04-01 18:25,-72.8868,41.2638,M,M,M,10.00,22.00,M,29.79,M,10.00,M,SCT,OVC,M,M,2300.00,5500.00,M,M,M,KHVN 011825Z AUTO 01022KT 10SM SCT023 OVC055 A2979 RMK MADISHF
HVN,2017-04-01 18:30,-72.8868,41.2638,M,M,M,M,M,M,29.78,M,10.00,M,SCT,BKN,OVC,M,2300.00,5500.00,7500.00,M,M,KHVN 011830Z AUTO /////KT 10SM SCT023 BKN055 OVC075 A2978 RMK MADISHF
HVN,2017-04-01 18:31,-72.8868,41.2638,42.10,33.10,70.20,360.00,25.00,0.00,29.78,M,10.00,33.00,SCT,BKN,OVC,M,2300.00,5500.00,7500.00,M,M,KHVN 011831Z 36025G33KT 10SM SCT023 BKN055 OVC075 06/01 A2978 RMK AO2 PK WND 01033/1828 T00560006
HVN,2017-04-01 18:35,-72.8868,41.2638,M,M,M,M,M,M,29.78,M,10.00,M,SCT,BKN,OVC,M,2300.00,5500.00,7500.00,M,M,KHVN 011835Z AUTO /////KT 10SM SCT023 BKN055 OVC075 A2978 RMK MADISHF
HVN,2017-04-01 18:40,-72.8868,41.2638,M,M,M,M,M,M,29.78,M,10.00,M,SCT,BKN,OVC,M,2300.00,5500.00,7500.00,M,M,KHVN 011840Z AUTO /////KT 10SM SCT023 BKN055 OVC075 A2978 RMK MADISHF
HVN,2017-04-01 18:45,-72.8868,41.2638,M,M,M,M,M,M,29.78,M,10.00,M,SCT,BKN,OVC,M,2300.00,5500.00,7500.00,M,M,KHVN 011845Z AUTO /////KT 10SM SCT023 BKN055 OVC075 A2978 RMK MADISHF
HVN,2017-04-01 18:50,-72.8868,41.2638,M,M,M,350.00,20.00,M,29.78,M,10.00,M,BKN,BKN,OVC,M,2300.00,5500.00,7500.00,M,M,KHVN 011850Z AUTO 35020KT 10SM BKN023 BKN055 OVC075 A2978 RMK MADISHF
HVN,2017-04-01 18:53,-72.8868,41.2638,43.00,33.10,67.82,10.00,20.00,0.00,29.78,1008.50,10.00,35.00,BKN,BKN,OVC,M,2300.00,5500.00,7500.00,M,M,KHVN 011853Z 01020G35KT 10SM BKN023 BKN055 OVC075 06/01 A2978 RMK AO2 PK WND 36035/1845 SLP085 T00610006
HVN,2017-04-01 18:55,-72.8868,41.2638,M,M,M,M,M,M,29.79,M,10.00,M,BKN,BKN,OVC,M,2300.00,5500.00,7500.00,M,M,KHVN 011855Z AUTO /////KT 10SM BKN023 BKN055 OVC075 A2979 RMK MADISHF
HVN,2017-04-01 19:00,-72.8868,41.2638,M,M,M,M,M,M,29.79,M,10.00,M,BKN,BKN,OVC,M,2400.00,6000.00,7500.00,M,M,KHVN 011900Z AUTO /////KT 10SM BKN024 BKN060 OVC075 A2979 RMK MADISHF
HVN,2017-04-01 19:05,-72.8868,41.2638,M,M,M,360.00,22.00,M,29.79,M,10.00,M,BKN,BKN,OVC,M,2400.00,6000.00,7000.00,M,M,KHVN 011905Z AUTO 36022KT 10SM BKN024 BKN060 OVC070 A2979 RMK MADISHF
HVN,2017-04-01 19:10,-72.8868,41.2638,M,M,M,M,M,M,29.79,M,10.00,M,BKN,BKN,BKN,M,2400.00,6000.00,7000.00,M,M,KHVN 011910Z AUTO /////KT 10SM BKN024 BKN060 BKN070 A2979 RMK MADISHF
HVN,2017-04-01 19:15,-72.8868,41.2638,M,M,M,360.00,20.00,M,29.80,M,10.00,M,BKN,BKN,OVC,M,2500.00,6000.00,7000.00,M,M,KHVN 011915Z AUTO 36020KT 10SM BKN025 BKN060 OVC070 A2980 RMK MADISHF
HVN,2017-04-01 19:20,-72.8868,41.2638,M,M,M,350.00,17.00,M,29.80,M,10.00,M,BKN,BKN,OVC,M,2500.00,5500.00,7000.00,M,M,KHVN 011920Z AUTO 35017KT 10SM BKN025 BKN055 OVC070 A2980 RMK MADISHF
HVN,2017-04-01 19:25,-72.8868,41.2638,M,M,M,360.00,21.00,M,29.81,M,10.00,M,SCT,BKN,OVC,M,2500.00,5500.00,7000.00,M,M,KHVN 011925Z AUTO 36021KT 10SM SCT025 BKN055 OVC070 A2981 RMK MADISHF
HVN,2017-04-01 19:27,-72.8868,41.2638,43.00,32.00,64.88,360.00,22.00,0.00,29.81,M,10.00,32.00,SCT,BKN,OVC,M,2600.00,5500.00,7000.00,M,M,KHVN 011927Z 36022G32KT 10SM SCT026 BKN055 OVC070 06/00 A2981 RMK AO2 PK WND 36038/1906 T00610000
HVN,2017-04-01 19:30,-72.8868,41.2638,M,M,M,350.00,20.00,M,29.81,M,10.00,M,SCT,BKN,OVC,M,2600.00,5500.00,7000.00,M,M,KHVN 011930Z AUTO 35020KT 10SM SCT026 BKN055 OVC070 A2981 RMK MADISHF
HVN,2017-04-01 19:35,-72.8868,41.2638,M,M,M,350.00,18.00,M,29.82,M,10.00,M,FEW,OVC,M,M,2600.00,5500.00,M,M,M,KHVN 011935Z AUTO 35018KT 10SM FEW026 OVC055 A2982 RMK MADISHF
HVN,2017-04-01 19:40,-72.8868,41.2638,M,M,M,350.00,12.00,M,29.82,M,10.00,19.00,SCT,BKN,OVC,M,2600.00,4500.00,5500.00,M,M,KHVN 011940Z AUTO 35012G19KT 10SM SCT026 BKN045 OVC055 A2982 RMK MADISHF
HVN,2017-04-01 19:45,-72.8868,41.2638,M,M,M,360.00,15.00,M,29.83,M,10.00,M,SCT,BKN,OVC,M,2600.00,4700.00,5500.00,M,M,KHVN 011945Z AUTO 36015KT 10SM SCT026 BKN047 OVC055 A2983 RMK MADISHF
HVN,2017-04-01 19:50,-72.8868,41.2638,M,M,M,360.00,16.00,M,29.83,M,10.00,M,BKN,BKN,BKN,M,2600.00,4700.00,5500.00,M,M,KHVN 011950Z AUTO 36016KT 10SM BKN026 BKN047 BKN055 A2983 RMK MADISHF
HVN,2017-04-01 19:53,-72.8868,41.2638,42.10,30.90,64.24,340.00,15.00,0.00,29.84,1010.40,10.00,26.00,BKN,BKN,BKN,M,2600.00,4700.00,5500.00,M,M,KHVN 011953Z 34015G26KT 10SM BKN026 BKN047 BKN055 06/M01 A2984 RMK AO2 PK WND 36038/1906 PRESRR SLP104 T00561006
HVN,2017-04-01 19:55,-72.8868,41.2638,M,M,M,340.00,15.00,M,29.84,M,10.00,M,BKN,BKN,OVC,M,2800.00,3800.00,5500.00,M,M,KHVN 011955Z AUTO 34015KT 10SM BKN028 BKN038 OVC055 A2984 RMK MADISHF
HVN,2017-04-01 20:00,-72.8868,41.2638,M,M,M,340.00,15.00,M,29.84,M,10.00,M,BKN,BKN,OVC,M,2800.00,3800.00,5500.00,M,M,KHVN 012000Z AUTO 34015KT 10SM BKN028 BKN038 OVC055 A2984 RMK MADISHF
HVN,2017-04-01 20:05,-72.8868,41.2638,M,M,M,M,M,M,29.85,M,10.00,M,BKN,BKN,OVC,M,2800.00,3800.00,5500.00,M,M,KHVN 012005Z AUTO /////KT 10SM BKN028 BKN038 OVC055 A2985 RMK MADISHF
HVN,2017-04-01 20:10,-72.8868,41.2638,M,M,M,360.00,18.00,M,29.85,M,10.00,M,BKN,BKN,OVC,M,2800.00,3800.00,5500.00,M,M,KHVN 012010Z AUTO 36018KT 10SM BKN028 BKN038 OVC055 A2985 RMK MADISHF
HVN,2017-04-01 20:15,-72.8868,41.2638,M,M,M,360.00,17.00,M,29.85,M,10.00,M,BKN,BKN,OVC,M,2800.00,3800.00,5500.00,M,M,KHVN 012015Z AUTO 36017KT 10SM BKN028 BKN038 OVC055 A2985 RMK MADISHF
HVN,2017-04-01 20:20,-72.8868,41.2638,M,M,M,360.00,18.00,M,29.85,M,10.00,M,BKN,BKN,OVC,M,2800.00,3800.00,5500.00,M,M,KHVN 012020Z AUTO 36018KT 10SM BKN028 BKN038 OVC055 A2985 RMK MADISHF
HVN,2017-04-01 20:25,-72.8868,41.2638,M,M,M,350.00,13.00,M,29.85,M,10.00,18.00,BKN,BKN,OVC,M,2800.00,3800.00,5500.00,M,M,KHVN 012025Z AUTO 35013G18KT 10SM BKN028 BKN038 OVC055 A2985 RMK MADISHF
HVN,2017-04-01 20:30,-72.8868,41.2638,M,M,M,M,M,M,29.86,M,10.00,M,BKN,BKN,OVC,M,2800.00,3800.00,5500.00,M,M,KHVN 012030Z AUTO /////KT 10SM BKN028 BKN038 OVC055 A2986 RMK MADISHF
HVN,2017-04-01 20:35,-72.8868,41.2638,M,M,M,M,M,M,29.86,M,10.00,M,BKN,BKN,OVC,M,2800.00,3800.00,5500.00,M,M,KHVN 012035Z AUTO /////KT 10SM BKN028 BKN038 OVC055 A2986 RMK MADISHF
HVN,2017-04-01 20:40,-72.8868,41.2638,M,M,M,350.00,18.00,M,29.87,M,10.00,M,BKN,BKN,OVC,M,2800.00,3800.00,5500.00,M,M,KHVN 012040Z AUTO 35018KT 10SM BKN028 BKN038 OVC055 A2987 RMK MADISHF
HVN,2017-04-01 20:45,-72.8868,41.2638,M,M,M,350.00,19.00,M,29.87,M,10.00,M,BKN,BKN,OVC,M,2800.00,3800.00,5500.00,M,M,KHVN 012045Z AUTO 35019KT 10SM BKN028 BKN038 OVC055 A2987 RMK MADISHF
HVN,2017-04-01 20:50,-72.8868,41.2638,M,M,M,350.00,19.00,M,29.87,M,10.00,M,BKN,BKN,OVC,M,3000.00,4200.00,6000.00,M,M,KHVN 012050Z AUTO 35019KT 10SM BKN030 BKN042 OVC060 A2987 RMK MADISHF
HVN,2017-04-01 20:53,-72.8868,41.2638,42.10,30.00,61.94,360.00,16.00,0.00,29.87,1011.60,10.00,27.00,BKN,BKN,OVC,M,3000.00,4200.00,6000.00,M,M,KHVN 012053Z 36016G27KT 10SM BKN030 BKN042 OVC060 06/M01 A2987 RMK AO2 PK WND 01032/2033 SLP116 T00561011 51030
HVN,2017-04-01 20:55,-72.8868,41.2638,M,M,M,340.00,17.00,M,29.88,M,10.00,M,BKN,BKN,OVC,M,3000.00,4200.00,6000.00,M,M,KHVN 012055Z AUTO 34017KT 10SM BKN030 BKN042 OVC060 A2988 RMK MADISHF
HVN,2017-04-01 21:00,-72.8868,41.2638,M,M,M,350.00,19.00,M,29.88,M,10.00,M,BKN,BKN,OVC,M,3000.00,4200.00,6000.00,M,M,KHVN 012100Z AUTO 35019KT 10SM BKN030 BKN042 OVC060 A2988 RMK MADISHF
HVN,2017-04-01 21:05,-72.8868,41.2638,M,M,M,360.00,16.00,M,29.88,M,10.00,M,BKN,BKN,OVC,M,3000.00,4200.00,6000.00,M,M,KHVN 012105Z AUTO 36016KT 10SM BKN030 BKN042 OVC060 A2988 RMK MADISHF
HVN,2017-04-01 21:10,-72.8868,41.2638,M,M,M,360.00,16.00,M,29.88,M,10.00,M,BKN,BKN,OVC,M,3000.00,4200.00,6000.00,M,M,KHVN 012110Z AUTO 36016KT 10SM BKN030 BKN042 OVC060 A2988 RMK MADISHF
HVN,2017-04-01 21:15,-72.8868,41.2638,M,M,M,M,M,M,29.88,M,10.00,M,BKN,BKN,OVC,M,3000.00,4200.00,6000.00,M,M,KHVN 012115Z AUTO /////KT 10SM BKN030 BKN042 OVC060 A2988 RMK MADISHF
HVN,2017-04-01 21:20,-72.8868,41.2638,M,M,M,360.00,17.00,M,29.88,M,10.00,M,BKN,BKN,OVC,M,3000.00,4200.00,6000.00,M,M,KHVN 012120Z AUTO 36017KT 10SM BKN030 BKN042 OVC060 A2988 RMK MADISHF
HVN,2017-04-01 21:25,-72.8868,41.2638,M,M,M,360.00,17.00,M,29.88,M,10.00,22.00,BKN,BKN,OVC,M,3000.00,4200.00,6000.00,M,M,KHVN 012125Z AUTO 36017G22KT 10SM BKN030 BKN042 OVC060 A2988 RMK MADISHF
HVN,2017-04-01 21:30,-72.8868,41.2638,M,M,M,360.00,20.00,M,29.88,M,10.00,M,BKN,BKN,OVC,M,3000.00,4200.00,6000.00,M,M,KHVN 012130Z AUTO 36020KT 10SM BKN030 BKN042 OVC060 A2988 RMK MADISHF
HVN,2017-04-01 21:35,-72.8868,41.2638,M,M,M,360.00,17.00,M,29.88,M,10.00,M,BKN,BKN,OVC,M,3000.00,4200.00,6000.00,M,M,KHVN 012135Z AUTO 36017KT 10SM BKN030 BKN042 OVC060 A2988 RMK MADISHF
HVN,2017-04-01 21:40,-72.8868,41.2638,M,M,M,350.00,15.00,M,29.88,M,10.00,M,BKN,BKN,OVC,M,3000.00,4200.00,6000.00,M,M,KHVN 012140Z AUTO 35015KT 10SM BKN030 BKN042 OVC060 A2988 RMK MADISHF
HVN,2017-04-01 21:45,-72.8868,41.2638,M,M,M,360.00,17.00,M,29.89,M,10.00,M,BKN,BKN,OVC,M,3000.00,4200.00,6000.00,M,M,KHVN 012145Z AUTO 36017KT 10SM BKN030 BKN042 OVC060 A2989 RMK MADISHF
HVN,2017-04-01 21:50,-72.8868,41.2638,M,M,M,350.00,17.00,M,29.89,M,10.00,M,SCT,BKN,OVC,M,3000.00,4200.00,7000.00,M,M,KHVN 012150Z AUTO 35017KT 10SM SCT030 BKN042 OVC070 A2989 RMK MADISHF
HVN,2017-04-01 21:53,-72.8868,41.2638,42.10,30.90,64.24,360.00,16.00,0.00,29.90,1012.40,10.00,26.00,SCT,BKN,OVC,M,3000.00,4200.00,7000.00,M,M,KHVN 012153Z 36016G26KT 10SM SCT030 BKN042 OVC070 06/M01 A2990 RMK AO2 PK WND 36029/2138 SLP124 T00561006
HVN,2017-04-01 21:55,-72.8868,41.2638,M,M,M,M,M,M,29.90,M,10.00,M,OVC,M,M,M,6500.00,M,M,M,M,KHVN 012155Z AUTO /////KT 10SM OVC065 A2990 RMK MADISHF
HVN,2017-04-01 22:00,-72.8868,41.2638,M,M,M,350.00,14.00,M,29.91,M,10.00,M,OVC,M,M,M,6500.00,M,M,M,M,KHVN 012200Z AUTO 35014KT 10SM OVC065 A2991 RMK MADISHF
HVN,2017-04-01 22:05,-72.8868,41.2638,M,M,M,360.00,18.00,M,29.91,M,10.00,M,OVC,M,M,M,6500.00,M,M,M,M,KHVN 012205Z AUTO 36018KT 10SM OVC065 A2991 RMK MADISHF
HVN,2017-04-01 22:10,-72.8868,41.2638,M,M,M,350.00,16.00,M,29.91,M,10.00,M,FEW,OVC,M,M,2500.00,6000.00,M,M,M,KHVN 012210Z AUTO 35016KT 10SM FEW025 OVC060 A2991 RMK MADISHF
HVN,2017-04-01 22:15,-72.8868,41.2638,M,M,M,350.00,18.00,M,29.91,M,10.00,M,FEW,OVC,M,M,2500.00,6000.00,M,M,M,KHVN 012215Z AUTO 35018KT 10SM FEW025 OVC060 A2991 RMK MADISHF
HVN,2017-04-01 22:20,-72.8868,41.2638,M,M,M,360.00,15.00,M,29.92,M,10.00,M,FEW,OVC,M,M,2500.00,6000.00,M,M,M,KHVN 012220Z AUTO 36015KT 10SM FEW025 OVC060 A2992 RMK MADISHF
HVN,2017-04-01 22:25,-72.8868,41.2638,M,M,M,350.00,15.00,M,29.92,M,10.00,M,FEW,OVC,M,M,2500.00,6000.00,M,M,M,KHVN 012225Z AUTO 35015KT 10SM FEW025 OVC060 A2992 RMK MADISHF
HVN,2017-04-01 22:30,-72.8868,41.2638,M,M,M,350.00,18.00,M,29.92,M,10.00,M,FEW,OVC,M,M,2500.00,6000.00,M,M,M,KHVN 012230Z AUTO 35018KT 10SM FEW025 OVC060 A2992 RMK MADISHF
HVN,2017-04-01 22:35,-72.8868,41.2638,M,M,M,360.00,19.00,M,29.93,M,10.00,M,FEW,OVC,M,M,2500.00,6000.00,M,M,M,KHVN 012235Z AUTO 36019KT 10SM FEW025 OVC060 A2993 RMK MADISHF
HVN,2017-04-01 22:40,-72.8868,41.2638,M,M,M,350.00,14.00,M,29.93,M,10.00,M,OVC,M,M,M,6000.00,M,M,M,M,KHVN 012240Z AUTO 35014KT 10SM OVC060 A2993 RMK MADISHF
HVN,2017-04-01 22:45,-72.8868,41.2638,M,M,M,350.00,12.00,M,29.93,M,10.00,M,OVC,M,M,M,6000.00,M,M,M,M,KHVN 012245Z AUTO 35012KT 10SM OVC060 A2993 RMK MADISHF
HVN,2017-04-01 22:50,-72.8868,41.2638,M,M,M,M,M,M,29.94,M,10.00,M,SCT,BKN,M,M,2500.00,6000.00,M,M,M,KHVN 012250Z AUTO /////KT 10SM SCT025 BKN060 A2994 RMK MADISHF
HVN,2017-04-01 22:53,-72.8868,41.2638,41.00,30.90,67.03,360.00,17.00,0.00,29.94,1013.70,10.00,27.00,SCT,BKN,M,M,2500.00,6000.00,M,M,M,KHVN 012253Z 36017G27KT 10SM SCT025 BKN060 05/M01 A2994 RMK AO2 PK WND 36028/2155 SLP137 T00501006
HVN,2017-04-01 22:55,-72.8868,41.2638,M,M,M,360.00,17.00,M,29.94,M,10.00,M,OVC,M,M,M,6000.00,M,M,M,M,KHVN 012255Z AUTO 36017KT 10SM OVC060 A2994 RMK MADISHF
HVN,2017-04-01 23:00,-72.8868,41.2638,M,M,M,360.00,14.00,M,29.94,M,10.00,M,OVC,M,M,M,5500.00,M,M,M,M,KHVN 012300Z AUTO 36014KT 10SM OVC055 A2994 RMK MADISHF
HVN,2017-04-01 23:05,-72.8868,41.2638,M,M,M,360.00,15.00,M,29.94,M,10.00,M,OVC,M,M,M,6000.00,M,M,M,M,KHVN 012305Z AUTO 36015KT 10SM OVC060 A2994 RMK MADISHF
HVN,2017-04-01 23:10,-72.8868,41.2638,M,M,M,350.00,17.00,M,29.94,M,10.00,M,OVC,M,M,M,6000.00,M,M,M,M,KHVN 012310Z AUTO 35017KT 10SM OVC060 A2994 RMK MADISHF
HVN,2017-04-01 23:15,-72.8868,41.2638,M,M,M,360.00,13.00,M,29.94,M,10.00,M,OVC,M,M,M,6000.00,M,M,M,M,KHVN 012315Z AUTO 36013KT 10SM OVC060 A2994 RMK MADISHF
HVN,2017-04-01 23:20,-72.8868,41.2638,M,M,M,360.00,16.00,M,29.94,M,10.00,M,OVC,M,M,M,6000.00,M,M,M,M,KHVN 012320Z AUTO 36016KT 10SM OVC060 A2994 RMK MADISHF
HVN,2017-04-01 23:25,-72.8868,41.2638,M,M,M,350.00,15.00,M,29.95,M,10.00,M,OVC,M,M,M,6000.00,M,M,M,M,KHVN 012325Z AUTO 35015KT 10SM OVC060 A2995 RMK MADISHF
HVN,2017-04-01 23:30,-72.8868,41.2638,M,M,M,350.00,12.00,M,29.95,M,10.00,M,OVC,M,M,M,6000.00,M,M,M,M,KHVN 012330Z AUTO 35012KT 10SM OVC060 A2995 RMK MADISHF
HVN,2017-04-01 23:35,-72.8868,41.2638,M,M,M,350.00,12.00,M,29.95,M,10.00,M,OVC,M,M,M,6000.00,M,M,M,M,KHVN 012335Z AUTO 35012KT 10SM OVC060 A2995 RMK MADISHF
HVN,2017-04-01 23:40,-72.8868,41.2638,M,M,M,350.00,11.00,M,29.95,M,10.00,M,OVC,M,M,M,6000.00,M,M,M,M,KHVN 012340Z AUTO 35011KT 10SM OVC060 A2995 RMK MADISHF
HVN,2017-04-01 23:45,-72.8868,41.2638,M,M,M,350.00,11.00,M,29.96,M,10.00,16.00,OVC,M,M,M,6000.00,M,M,M,M,KHVN 012345Z AUTO 35011G16KT 10SM OVC060 A2996 RMK MADISHF
HVN,2017-04-01 23:50,-72.8868,41.2638,M,M,M,360.00,14.00,M,29.96,M,10.00,M,SCT,OVC,M,M,2500.00,6000.00,M,M,M,KHVN 012350Z AUTO 36014KT 10SM SCT025 OVC060 A2996 RMK MADISHF
HVN,2017-04-01 23:53,-72.8868,41.2638,41.00,30.90,67.03,360.00,14.00,0.00,29.97,1014.70,10.00,19.00,SCT,OVC,M,M,2500.00,6000.00,M,M,M,KHVN 012353Z 36014G19KT 10SM SCT025 OVC060 05/M01 A2997 RMK AO2 SLP147 T00501006 10061 20050 53031
HVN,2017-04-01 23:55,-72.8868,41.2638,M,M,M,350.00,13.00,M,29.97,M,10.00,M,SCT,OVC,M,M,2300.00,5500.00,M,M,M,KHVN 012355Z AUTO 35013KT 10SM SCT023 OVC055 A2997 RMK MADISHF
