#DEBUG: Format Typ    -> comma
#DEBUG: Time Period   -> 2017-04-01 00:00:00+00:00 2017-04-02 00:00:00+00:00
#DEBUG: Time Zone     -> Etc/UTC
#DEBUG: Data Contact   -> daryl herzmann akrherz@iastate.edu 515-294-5978
#DEBUG: Entries Found -> -1
station,valid,lon,lat,tmpf, dwpf, relh, drct, sknt, p01i, alti, mslp, vsby, gust, skyc1, skyc2, skyc3, skyc4, skyl1, skyl2, skyl3, skyl4, presentwx, metar
HYA,2017-04-01 00:00,-70.2800,41.6700,M,M,M,80.00,7.00,M,30.03,M,8.00,M,SCT,BKN,OVC,M,1400.00,1900.00,3399.00,M,-RA,KHYA 010000Z AUTO 08007KT 8SM -RA SCT014 BKN019 OVC033 A3003 RMK MADISHF
HYA,2017-04-01 00:05,-70.2800,41.6700,M,M,M,80.00,7.00,0.01,30.02,M,8.00,M,SCT,BKN,OVC,M,1400.00,1900.00,3399.00,M,-RA,KHYA 010005Z AUTO 08007KT 8SM -RA SCT014 BKN019 OVC033 A3002 RMK P0001 MADISHF
HYA,2017-04-01 00:10,-70.2800,41.6700,M,M,M,100.00,6.00,0.01,30.02,M,7.00,M,SCT,BKN,OVC,M,1400.00,1900.00,3600.00,M,-RA,KHYA 010010Z AUTO 10006KT 7SM -RA SCT014 BKN019 OVC036 A3002 RMK P0001 MADISHF
HYA,2017-04-01 00:15,-70.2800,41.6700,M,M,M,100.00,8.00,0.02,30.02,M,6.00,M,FEW,BKN,OVC,M,999.00,1699.00,3600.00,M,-RA BR,KHYA 010015Z AUTO 10008KT 6SM -RA BR FEW009 BKN016 OVC036 A3002 RMK P0002 WND 05V12  MADISHF
HYA,2017-04-01 00:20,-70.2800,41.6700,M,M,M,90.00,9.00,0.02,30.02,M,6.00,M,FEW,BKN,OVC,M,999.00,1699.00,3600.00,M,-RA BR,KHYA 010020Z AUTO 09009KT 6SM -RA BR FEW009 BKN016 OVC036 A3002 RMK P0002 MADISHF
HYA,2017-04-01 00:25,-70.2800,41.6700,M,M,M,80.00,7.00,0.02,30.02,M,5.00,M,FEW,SCT,OVC,M,1200.00,1999.00,3399.00,M,-RA BR,KHYA 010025Z AUTO 08007KT 5SM -RA BR FEW012 SCT019 OVC033 A3002 RMK P0002 MADISHF
HYA,2017-04-01 00:27,-70.2800,41.6700,36.00,34.00,92.35,80.00,7.00,0.03,30.02,M,5.00,M,FEW,SCT,OVC,M,1200.00,2000.00,3400.00,M,RA BR,KHYA 010027Z 08007KT 5SM RA BR FEW012 SCT020 OVC034 02/01 A3002 RMK AO2 P0003 T00220011
HYA,2017-04-01 00:30,-70.2800,41.6700,M,M,M,80.00,10.00,0.03,30.02,M,5.00,M,FEW,SCT,OVC,M,1200.00,1999.00,3399.00,M,RA BR,KHYA 010030Z AUTO 08010KT 5SM RA BR FEW012 SCT019 OVC033 A3002 RMK P0003 MADISHF
HYA,2017-04-01 00:35,-70.2800,41.6700,M,M,M,100.00,9.00,0.04,30.01,M,5.00,M,FEW,BKN,OVC,M,1200.00,1999.00,3399.00,M,RA BR,KHYA 010035Z AUTO 10009KT 5SM RA BR FEW012 BKN019 OVC033 A3001 RMK P0004 MADISHF
HYA,2017-04-01 00:38,-70.2800,41.6700,36.00,34.00,92.35,90.00,7.00,0.04,30.01,M,6.00,17.00,FEW,BKN,OVC,M,1000.00,2000.00,3400.00,M,-RA BR,KHYA 010038Z 09007G17KT 6SM -RA BR FEW010 BKN020 OVC034 02/01 A3001 RMK AO2 P0004 T00220011
HYA,2017-04-01 00:40,-70.2800,41.6700,M,M,M,100.00,7.00,0.04,30.01,M,6.00,M,FEW,BKN,OVC,M,999.00,1999.00,3399.00,M,-RA BR,KHYA 010040Z AUTO 10007KT 6SM -RA BR FEW009 BKN019 OVC033 A3001 RMK P0004 MADISHF
HYA,2017-04-01 00:45,-70.2800,41.6700,M,M,M,90.00,9.00,0.05,30.01,M,6.00,14.00,SCT,BKN,OVC,M,999.00,1500.00,3500.00,M,RA BR,KHYA 010045Z AUTO 09009G14KT 6SM RA BR SCT009 BKN015 OVC035 A3001 RMK P0005 MADISHF
HYA,2017-04-01 00:50,-70.2800,41.6700,M,M,M,80.00,10.00,0.05,30.00,M,6.00,M,SCT,BKN,OVC,M,999.00,1400.00,3500.00,M,RA BR,KHYA 010050Z AUTO 08010KT 6SM RA BR SCT009 BKN014 OVC035 A3000 RMK P0005 MADISHF
HYA,2017-04-01 00:54,-70.2800,41.6700,35.60,33.80,93.08,90.00,9.00,0.06,30.00,M,6.00,16.00,SCT,BKN,OVC,M,1000.00,1400.00,3500.00,M,-RA BR,KHYA 010054Z 09009G16KT 050V120 6SM -RA BR SCT010 BKN014 OVC035 02/01 A3000 RMK AO2 P0006
HYA,2017-04-01 00:55,-70.2800,41.6700,M,M,M,80.00,8.00,0.06,30.01,M,6.00,M,BKN,BKN,OVC,M,999.00,1699.00,3500.00,M,-RA BR,KHYA 010055Z AUTO 08008KT 6SM -RA BR BKN009 BKN016 OVC035 A3001 RMK P0006 MADISHF
HYA,2017-04-01 00:56,-70.2800,41.6700,36.00,35.10,96.49,90.00,9.00,0.06,30.01,1016.20,6.00,16.00,BKN,BKN,OVC,M,1000.00,1500.00,3500.00,M,-RA BR,KHYA 010056Z 09009G16KT 6SM -RA BR BKN010 BKN015 OVC035 02/02 A3001 RMK AO2 SLP162 P0006 T00220017
HYA,2017-04-01 01:00,-70.2800,41.6700,M,M,M,90.00,7.00,M,30.01,M,6.00,M,BKN,BKN,OVC,M,999.00,1400.00,1800.00,M,RA BR,KHYA 010100Z AUTO 09007KT 6SM RA BR BKN009 BKN014 OVC018 A3001 RMK MADISHF
HYA,2017-04-01 01:05,-70.2800,41.6700,M,M,M,90.00,9.00,0.01,30.01,M,5.00,14.00,BKN,OVC,M,M,999.00,1400.00,M,M,RA BR,KHYA 010105Z AUTO 09009G14KT 5SM RA BR BKN009 OVC014 A3001 RMK P0001 MADISHF
HYA,2017-04-01 01:10,-70.2800,41.6700,M,M,M,90.00,9.00,0.02,30.00,M,5.00,M,BKN,BKN,OVC,M,900.00,1400.00,1900.00,M,RA BR,KHYA 010110Z AUTO 09009KT 5SM RA BR BKN009 BKN014 OVC019 A3000 RMK P0002 MADISHF
HYA,2017-04-01 01:15,-70.2800,41.6700,37.00,35.10,92.76,90.00,9.00,0.02,30.00,M,5.00,16.00,BKN,BKN,OVC,M,900.00,1400.00,3500.00,M,RA BR,KHYA 010115Z 09009G16KT 5SM RA BR BKN009 BKN014 OVC035 03/02 A3000 RMK AO2 P0002 T00280017
HYA,2017-04-01 01:20,-70.2800,41.6700,M,M,M,100.00,8.00,0.03,30.00,M,5.00,M,BKN,BKN,OVC,M,900.00,1400.00,3500.00,M,RA BR,KHYA 010120Z AUTO 10008KT 5SM RA BR BKN009 BKN014 OVC035 A3000 RMK P0003 WND 07V14  MADISHF
HYA,2017-04-01 01:25,-70.2800,41.6700,M,M,M,100.00,11.00,0.04,29.99,M,5.00,17.00,FEW,BKN,OVC,M,600.00,900.00,1900.00,M,RA BR,KHYA 010125Z AUTO 10011G17KT 5SM RA BR FEW006 BKN009 OVC019 A2999 RMK P0004 WND 06V14  MADISHF
HYA,2017-04-01 01:30,-70.2800,41.6700,M,M,M,110.00,11.00,0.04,29.99,M,5.00,M,SCT,BKN,OVC,M,900.00,1400.00,3399.00,M,RA BR,KHYA 010130Z AUTO 11011KT 5SM RA BR SCT009 BKN014 OVC033 A2999 RMK P0004 MADISHF
HYA,2017-04-01 01:35,-70.2800,41.6700,37.00,34.00,88.78,90.00,10.00,0.05,29.99,M,6.00,18.00,FEW,BKN,OVC,M,800.00,1400.00,3400.00,M,-RA BR,KHYA 010135Z 09010G18KT 6SM -RA BR FEW008 BKN014 OVC034 03/01 A2999 RMK AO2 P0005 T00280011
HYA,2017-04-01 01:40,-70.2800,41.6700,M,M,M,90.00,8.00,0.06,29.99,M,6.00,M,FEW,BKN,OVC,M,800.00,1400.00,3200.00,M,RA BR,KHYA 010140Z AUTO 09008KT 6SM RA BR FEW008 BKN014 OVC032 A2999 RMK P0006 WND 06V13  MADISHF
HYA,2017-04-01 01:45,-70.2800,41.6700,M,M,M,90.00,11.00,0.06,29.99,M,5.00,17.00,BKN,BKN,OVC,M,1400.00,2100.00,3200.00,M,RA BR,KHYA 010145Z AUTO 09011G17KT 5SM RA BR BKN014 BKN021 OVC032 A2999 RMK P0006 MADISHF
HYA,2017-04-01 01:50,-70.2800,41.6700,M,M,M,90.00,11.00,0.07,29.98,M,5.00,17.00,FEW,BKN,OVC,M,700.00,1300.00,3200.00,M,RA BR,KHYA 010150Z AUTO 09011G17KT 5SM RA BR FEW007 BKN013 OVC032 A2998 RMK P0007 MADISHF
HYA,2017-04-01 01:55,-70.2800,41.6700,M,M,M,100.00,8.00,0.08,29.97,M,5.00,M,SCT,BKN,OVC,M,999.00,1600.00,3200.00,M,RA BR,KHYA 010155Z AUTO 10008KT 5SM RA BR SCT009 BKN016 OVC032 A2997 RMK P0008 WND 07V13  MADISHF
HYA,2017-04-01 01:56,-70.2800,41.6700,37.00,34.00,88.78,90.00,9.00,0.08,29.97,1014.80,5.00,18.00,SCT,BKN,OVC,M,1000.00,1600.00,3200.00,M,RA BR,KHYA 010156Z 09009G18KT 070V130 5SM RA BR SCT010 BKN016 OVC032 03/01 A2997 RMK AO2 PRESFR SLP148 P0008 T00280011
HYA,2017-04-01 02:00,-70.2800,41.6700,M,M,M,90.00,8.00,0.01,29.97,M,5.00,M,SCT,BKN,OVC,M,999.00,1600.00,3200.00,M,RA BR,KHYA 010200Z AUTO 09008KT 5SM RA BR SCT009 BKN016 OVC032 A2997 RMK P0001 MADISHF
HYA,2017-04-01 02:05,-70.2800,41.6700,M,M,M,80.00,8.00,0.01,29.97,M,5.00,M,BKN,BKN,OVC,M,999.00,1600.00,3200.00,M,RA BR,KHYA 010205Z AUTO 08008KT 5SM RA BR BKN009 BKN016 OVC032 A2997 RMK P0001 MADISHF
HYA,2017-04-01 02:10,-70.2800,41.6700,37.00,35.10,92.76,80.00,7.00,0.02,29.96,M,5.00,23.00,BKN,BKN,OVC,M,1000.00,1600.00,3200.00,M,RA BR,KHYA 010210Z AUTO 08007G23KT 050V110 5SM RA BR BKN010 BKN016 OVC032 03/02 A2996 RMK AO2 P0002 T00280017 TSNO
HYA,2017-04-01 02:15,-70.2800,41.6700,M,M,M,90.00,12.00,0.03,29.96,M,6.00,M,BKN,BKN,OVC,M,999.00,1600.00,3200.00,M,RA BR,KHYA 010215Z AUTO 09012KT 6SM RA BR BKN009 BKN016 OVC032 A2996 RMK P0003 MADISHF
HYA,2017-04-01 02:19,-70.2800,41.6700,37.00,35.10,92.76,90.00,7.00,0.03,29.96,M,6.00,20.00,BKN,BKN,OVC,M,800.00,1300.00,2000.00,M,RA BR,KHYA 010219Z AUTO 09007G20KT 6SM RA BR BKN008 BKN013 OVC020 03/02 A2996 RMK AO2 P0003 T00280017 TSNO
HYA,2017-04-01 02:20,-70.2800,41.6700,M,M,M,90.00,7.00,0.03,29.96,M,6.00,M,BKN,BKN,OVC,M,800.00,1500.00,1999.00,M,RA BR,KHYA 010220Z AUTO 09007KT 6SM RA BR BKN008 BKN015 OVC019 A2996 RMK P0003 MADISHF
HYA,2017-04-01 02:25,-70.2800,41.6700,M,M,M,90.00,8.00,0.04,29.95,M,5.00,M,BKN,OVC,M,M,999.00,1500.00,M,M,RA BR,KHYA 010225Z AUTO 09008KT 5SM RA BR BKN009 OVC015 A2995 RMK P0004 WND 07V13  MADISHF
HYA,2017-04-01 02:28,-70.2800,41.6700,37.00,35.10,92.76,90.00,10.00,0.04,29.95,M,6.00,15.00,BKN,OVC,M,M,1000.00,1700.00,M,M,RA BR,KHYA 010228Z AUTO 09010G15KT 6SM RA BR BKN010 OVC017 03/02 A2995 RMK AO2 P0004 T00280017 TSNO
HYA,2017-04-01 02:30,-70.2800,41.6700,M,M,M,90.00,9.00,0.05,29.95,M,5.00,M,BKN,OVC,M,M,999.00,1699.00,M,M,RA BR,KHYA 010230Z AUTO 09009KT 5SM RA BR BKN009 OVC016 A2995 RMK P0005 WND 06V13  MADISHF
HYA,2017-04-01 02:35,-70.2800,41.6700,M,M,M,100.00,11.00,0.05,29.95,M,5.00,19.00,BKN,BKN,OVC,M,999.00,1699.00,3300.00,M,RA BR,KHYA 010235Z AUTO 10011G19KT 5SM RA BR BKN009 BKN016 OVC033 A2995 RMK P0005 WND 06V13  MADISHF
HYA,2017-04-01 02:40,-70.2800,41.6700,M,M,M,80.00,10.00,0.06,29.94,M,5.00,M,BKN,BKN,OVC,M,999.00,1400.00,3100.00,M,RA BR,KHYA 010240Z AUTO 08010KT 5SM RA BR BKN009 BKN014 OVC031 A2994 RMK P0006 MADISHF
HYA,2017-04-01 02:45,-70.2800,41.6700,M,M,M,100.00,10.00,0.07,29.94,M,5.00,16.00,BKN,BKN,OVC,M,999.00,1500.00,1999.00,M,RA BR,KHYA 010245Z AUTO 10010G16KT 5SM RA BR BKN009 BKN015 OVC019 A2994 RMK P0007 MADISHF
HYA,2017-04-01 02:50,-70.2800,41.6700,M,M,M,90.00,13.00,0.08,29.93,M,6.00,M,BKN,BKN,OVC,M,999.00,1500.00,2600.00,M,RA BR,KHYA 010250Z AUTO 09013KT 6SM RA BR BKN009 BKN015 OVC026 A2993 RMK P0008 MADISHF
HYA,2017-04-01 02:55,-70.2800,41.6700,M,M,M,90.00,11.00,0.08,29.93,M,6.00,M,BKN,OVC,M,M,1200.00,2600.00,M,M,RA BR,KHYA 010255Z AUTO 09011KT 6SM RA BR BKN012 OVC026 A2993 RMK P0008 MADISHF
HYA,2017-04-01 02:56,-70.2800,41.6700,37.00,35.10,92.76,90.00,10.00,0.08,29.93,1013.60,5.00,19.00,BKN,BKN,OVC,M,1000.00,1400.00,2800.00,M,RA BR,KHYA 010256Z AUTO 09010G19KT 060V120 5SM RA BR BKN010 BKN014 OVC028 03/02 A2993 RMK AO2 SLP136 P0008 60022 T00280017 58024 TSNO
HYA,2017-04-01 03:00,-70.2800,41.6700,M,M,M,100.00,8.00,0.01,29.92,M,5.00,M,SCT,BKN,OVC,M,999.00,1400.00,2800.00,M,RA BR,KHYA 010300Z AUTO 10008KT 5SM RA BR SCT009 BKN014 OVC028 A2992 RMK P0001 MADISHF
HYA,2017-04-01 03:05,-70.2800,41.6700,M,M,M,90.00,10.00,0.01,29.92,M,5.00,M,SCT,BKN,OVC,M,999.00,1400.00,2700.00,M,RA BR,KHYA 010305Z AUTO 09010KT 5SM RA BR SCT009 BKN014 OVC027 A2992 RMK P0001 MADISHF
HYA,2017-04-01 03:10,-70.2800,41.6700,M,M,M,90.00,9.00,0.02,29.92,M,5.00,M,SCT,BKN,OVC,M,999.00,1400.00,2700.00,M,-RA BR,KHYA 010310Z AUTO 09009KT 5SM -RA BR SCT009 BKN014 OVC027 A2992 RMK P0002 MADISHF
HYA,2017-04-01 03:15,-70.2800,41.6700,M,M,M,100.00,10.00,0.02,29.91,M,6.00,16.00,BKN,BKN,OVC,M,999.00,1600.00,2700.00,M,-RA BR,KHYA 010315Z AUTO 10010G16KT 6SM -RA BR BKN009 BKN016 OVC027 A2991 RMK P0002 MADISHF
HYA,2017-04-01 03:20,-70.2800,41.6700,M,M,M,80.00,12.00,0.02,29.91,M,6.00,M,BKN,BKN,OVC,M,999.00,1600.00,2900.00,M,-RA BR,KHYA 010320Z AUTO 08012KT 6SM -RA BR BKN009 BKN016 OVC029 A2991 RMK P0002 WND 05V11  MADISHF
HYA,2017-04-01 03:25,-70.2800,41.6700,M,M,M,80.00,11.00,0.03,29.91,M,6.00,M,BKN,BKN,OVC,M,999.00,1600.00,2900.00,M,-RA BR,KHYA 010325Z AUTO 08011KT 6SM -RA BR BKN009 BKN016 OVC029 A2991 RMK P0003 MADISHF
HYA,2017-04-01 03:30,-70.2800,41.6700,M,M,M,90.00,12.00,0.03,29.90,M,7.00,M,BKN,BKN,OVC,M,999.00,1600.00,2900.00,M,-RA,KHYA 010330Z AUTO 09012KT 7SM -RA BKN009 BKN016 OVC029 A2990 RMK P0003 MADISHF
HYA,2017-04-01 03:35,-70.2800,41.6700,M,M,M,90.00,14.00,0.03,29.89,M,8.00,M,BKN,OVC,M,M,999.00,1600.00,M,M,-RA,KHYA 010335Z AUTO 09014KT 8SM -RA BKN009 OVC016 A2989 RMK P0003 MADISHF
HYA,2017-04-01 03:40,-70.2800,41.6700,M,M,M,70.00,9.00,0.03,29.90,M,7.00,M,BKN,OVC,M,M,999.00,1600.00,M,M,-RA,KHYA 010340Z AUTO 07009KT 7SM -RA BKN009 OVC016 A2990 RMK P0003 MADISHF
HYA,2017-04-01 03:45,-70.2800,41.6700,M,M,M,90.00,13.00,0.04,29.89,M,7.00,19.00,BKN,OVC,M,M,999.00,1600.00,M,M,-RA,KHYA 010345Z AUTO 09013G19KT 7SM -RA BKN009 OVC016 A2989 RMK P0004 MADISHF
HYA,2017-04-01 03:50,-70.2800,41.6700,M,M,M,80.00,13.00,0.04,29.89,M,7.00,18.00,BKN,BKN,OVC,M,999.00,1600.00,2900.00,M,-RA,KHYA 010350Z AUTO 08013G18KT 7SM -RA BKN009 BKN016 OVC029 A2989 RMK P0004 MADISHF
HYA,2017-04-01 03:55,-70.2800,41.6700,M,M,M,90.00,11.00,0.04,29.90,M,7.00,18.00,BKN,OVC,M,M,999.00,1699.00,M,M,-RA,KHYA 010355Z AUTO 09011G18KT 7SM -RA BKN009 OVC016 A2990 RMK P0004 MADISHF
HYA,2017-04-01 03:56,-70.2800,41.6700,37.00,34.00,88.78,100.00,13.00,0.04,29.90,1012.40,7.00,19.00,BKN,OVC,M,M,1000.00,1700.00,M,M,-RA,KHYA 010356Z AUTO 10013G19KT 7SM -RA BKN010 OVC017 03/01 A2990 RMK AO2 SLP124 P0004 T00280011 TSNO
HYA,2017-04-01 04:00,-70.2800,41.6700,M,M,M,80.00,10.00,0.01,29.89,M,7.00,16.00,OVC,M,M,M,999.00,M,M,M,-RA,KHYA 010400Z AUTO 08010G16KT 7SM -RA OVC009 A2989 RMK P0001 WND 06V13  MADISHF
HYA,2017-04-01 04:05,-70.2800,41.6700,M,M,M,100.00,13.00,0.01,29.89,M,7.00,19.00,OVC,M,M,M,999.00,M,M,M,-RA,KHYA 010405Z AUTO 10013G19KT 7SM -RA OVC009 A2989 RMK P0001 MADISHF
HYA,2017-04-01 04:10,-70.2800,41.6700,M,M,M,80.00,10.00,0.01,29.89,M,6.00,15.00,BKN,OVC,M,M,1100.00,1699.00,M,M,-RA BR,KHYA 010410Z AUTO 08010G15KT 6SM -RA BR BKN011 OVC016 A2989 RMK P0001 MADISHF
HYA,2017-04-01 04:15,-70.2800,41.6700,M,M,M,80.00,13.00,0.02,29.89,M,6.00,19.00,OVC,M,M,M,1100.00,M,M,M,RA BR,KHYA 010415Z AUTO 08013G19KT 6SM RA BR OVC011 A2989 RMK P0002 MADISHF
HYA,2017-04-01 04:20,-70.2800,41.6700,M,M,M,90.00,13.00,0.03,29.89,M,5.00,M,BKN,OVC,M,M,1100.00,1699.00,M,M,RA BR,KHYA 010420Z AUTO 09013KT 5SM RA BR BKN011 OVC016 A2989 RMK P0003 MADISHF
HYA,2017-04-01 04:25,-70.2800,41.6700,M,M,M,100.00,12.00,0.04,29.89,M,6.00,17.00,BKN,OVC,M,M,1100.00,1699.00,M,M,RA BR,KHYA 010425Z AUTO 10012G17KT 6SM RA BR BKN011 OVC016 A2989 RMK P0004 MADISHF
HYA,2017-04-01 04:30,-70.2800,41.6700,M,M,M,100.00,9.00,0.04,29.88,M,7.00,15.00,BKN,OVC,M,M,1100.00,1699.00,M,M,-RA,KHYA 010430Z AUTO 10009G15KT 7SM -RA BKN011 OVC016 A2988 RMK P0004 MADISHF
HYA,2017-04-01 04:35,-70.2800,41.6700,M,M,M,90.00,9.00,0.05,29.88,M,7.00,M,BKN,OVC,M,M,1100.00,1699.00,M,M,RA,KHYA 010435Z AUTO 09009KT 7SM RA BKN011 OVC016 A2988 RMK P0005 MADISHF
HYA,2017-04-01 04:40,-70.2800,41.6700,M,M,M,90.00,11.00,0.06,29.88,M,6.00,18.00,BKN,OVC,M,M,1100.00,1699.00,M,M,-RA BR,KHYA 010440Z AUTO 09011G18KT 6SM -RA BR BKN011 OVC016 A2988 RMK P0006 WND 06V12  MADISHF
HYA,2017-04-01 04:45,-70.2800,41.6700,M,M,M,100.00,11.00,0.06,29.88,M,7.00,16.00,BKN,OVC,M,M,1100.00,1500.00,M,M,-RA,KHYA 010445Z AUTO 10011G16KT 7SM -RA BKN011 OVC015 A2988 RMK P0006 CIG 8V13  MADISHF
HYA,2017-04-01 04:50,-70.2800,41.6700,M,M,M,90.00,10.00,0.06,29.87,M,7.00,17.00,BKN,OVC,M,M,900.00,1500.00,M,M,-RA,KHYA 010450Z AUTO 09010G17KT 7SM -RA BKN009 OVC015 A2987 RMK P0006 CIG 8V12  MADISHF
HYA,2017-04-01 04:55,-70.2800,41.6700,M,M,M,90.00,9.00,0.07,29.87,M,7.00,14.00,BKN,OVC,M,M,1100.00,1699.00,M,M,-RA,KHYA 010455Z AUTO 09009G14KT 7SM -RA BKN011 OVC016 A2987 RMK P0007 WND 06V12  MADISHF
HYA,2017-04-01 04:56,-70.2800,41.6700,37.00,35.10,92.76,100.00,11.00,0.07,29.87,1011.60,7.00,19.00,BKN,OVC,M,M,1100.00,1700.00,M,M,-RA,KHYA 010456Z AUTO 10011G19KT 7SM -RA BKN011 OVC017 03/02 A2987 RMK AO2 SLP116 P0007 T00280017 400440011 TSNO
HYA,2017-04-01 05:00,-70.2800,41.6700,M,M,M,100.00,12.00,M,29.87,M,7.00,M,BKN,OVC,M,M,1100.00,1699.00,M,M,-RA,KHYA 010500Z AUTO 10012KT 7SM -RA BKN011 OVC016 A2987 RMK CIG 8V12  MADISHF
HYA,2017-04-01 05:05,-70.2800,41.6700,M,M,M,90.00,14.00,M,29.87,M,7.00,M,BKN,OVC,M,M,1100.00,1500.00,M,M,-RA,KHYA 010505Z AUTO 09014KT 7SM -RA BKN011 OVC015 A2987 RMK CIG 8V14  MADISHF
HYA,2017-04-01 05:10,-70.2800,41.6700,M,M,M,100.00,15.00,M,29.86,M,7.00,20.00,BKN,OVC,M,M,1100.00,1600.00,M,M,-RA,KHYA 010510Z AUTO 10015G20KT 7SM -RA BKN011 OVC016 A2986 RMK MADISHF
HYA,2017-04-01 05:15,-70.2800,41.6700,M,M,M,90.00,15.00,M,29.86,M,7.00,24.00,BKN,OVC,M,M,1100.00,1500.00,M,M,-RA,KHYA 010515Z AUTO 09015G24KT 7SM -RA BKN011 OVC015 A2986 RMK CIG 8V13  MADISHF
HYA,2017-04-01 05:20,-70.2800,41.6700,M,M,M,90.00,13.00,0.01,29.85,M,6.00,19.00,BKN,OVC,M,M,1100.00,1500.00,M,M,RA BR,KHYA 010520Z AUTO 09013G19KT 6SM RA BR BKN011 OVC015 A2985 RMK P0001 CIG 8V13  MADISHF
HYA,2017-04-01 05:25,-70.2800,41.6700,M,M,M,90.00,10.00,0.02,29.85,M,5.00,19.00,BKN,OVC,M,M,999.00,1699.00,M,M,RA BR,KHYA 010525Z AUTO 09010G19KT 5SM RA BR BKN009 OVC016 A2985 RMK P0002 CIG 8V14  MADISHF
HYA,2017-04-01 05:30,-70.2800,41.6700,M,M,M,100.00,13.00,0.02,29.85,M,5.00,M,BKN,OVC,M,M,999.00,2600.00,M,M,RA BR,KHYA 010530Z AUTO 10013KT 5SM RA BR BKN009 OVC026 A2985 RMK P0002 MADISHF
HYA,2017-04-01 05:35,-70.2800,41.6700,M,M,M,90.00,14.00,0.03,29.84,M,5.00,M,OVC,M,M,M,1100.00,M,M,M,-RA BR,KHYA 010535Z AUTO 09014KT 5SM -RA BR OVC011 A2984 RMK P0003 MADISHF
HYA,2017-04-01 05:40,-70.2800,41.6700,M,M,M,100.00,9.00,0.03,29.84,M,6.00,15.00,BKN,OVC,M,M,1100.00,1400.00,M,M,-RA BR,KHYA 010540Z AUTO 10009G15KT 6SM -RA BR BKN011 OVC014 A2984 RMK P0003 CIG 8V12  MADISHF
HYA,2017-04-01 05:45,-70.2800,41.6700,M,M,M,100.00,14.00,0.04,29.84,M,7.00,20.00,BKN,OVC,M,M,1100.00,2500.00,M,M,-RA,KHYA 010545Z AUTO 10014G20KT 7SM -RA BKN011 OVC025 A2984 RMK P0004 CIG 7V14  MADISHF
HYA,2017-04-01 05:50,-70.2800,41.6700,M,M,M,90.00,13.00,0.04,29.83,M,7.00,18.00,OVC,M,M,M,1200.00,M,M,M,-RA,KHYA 010550Z AUTO 09013G18KT 7SM -RA OVC012 A2983 RMK P0004 MADISHF
HYA,2017-04-01 05:55,-70.2800,41.6700,M,M,M,100.00,12.00,0.04,29.83,M,8.00,17.00,OVC,M,M,M,1200.00,M,M,M,-RA,KHYA 010555Z AUTO 10012G17KT 8SM -RA OVC012 A2983 RMK P0004 MADISHF
HYA,2017-04-01 05:56,-70.2800,41.6700,37.00,35.10,92.76,90.00,14.00,0.04,29.83,1010.10,8.00,25.00,SCT,OVC,M,M,1000.00,1400.00,M,M,-RA,KHYA 010556Z AUTO 09014G25KT 8SM -RA SCT010 OVC014 03/02 A2983 RMK AO2 SLP101 P0004 60037 T00280017 10028 20022 58023 TSNO
HYA,2017-04-01 06:00,-70.2800,41.6700,M,M,M,90.00,15.00,0.01,29.82,M,7.00,M,BKN,OVC,M,M,999.00,1500.00,M,M,-RA,KHYA 010600Z AUTO 09015KT 7SM -RA BKN009 OVC015 A2982 RMK P0001 CIG 7V13  MADISHF
HYA,2017-04-01 06:05,-70.2800,41.6700,M,M,M,90.00,11.00,0.01,29.82,M,6.00,16.00,BKN,OVC,M,M,900.00,1400.00,M,M,RA BR,KHYA 010605Z AUTO 09011G16KT 6SM RA BR BKN009 OVC014 A2982 RMK P0001 CIG 7V13  MADISHF
HYA,2017-04-01 06:10,-70.2800,41.6700,M,M,M,100.00,15.00,0.03,29.80,M,5.00,M,BKN,OVC,M,M,900.00,1400.00,M,M,RA BR,KHYA 010610Z AUTO 10015KT 5SM RA BR BKN009 OVC014 A2980 RMK P0003 CIG 7V13  MADISHF
HYA,2017-04-01 06:11,-70.2800,41.6700,37.00,35.10,92.76,100.00,15.00,0.03,29.80,M,5.00,27.00,BKN,OVC,M,M,900.00,1400.00,M,M,RA BR,KHYA 010611Z AUTO 10015G27KT 5SM RA BR BKN009 OVC014 03/02 A2980 RMK AO2 PK WND 10027/0608 CIG 007V013 PRESFR P0003 T00280017 TSNO
HYA,2017-04-01 06:13,-70.2800,41.6700,37.00,35.10,92.76,90.00,16.00,0.03,29.80,M,5.00,27.00,SCT,OVC,M,M,1000.00,1500.00,M,M,RA BR,KHYA 010613Z AUTO 09016G27KT 5SM RA BR SCT010 OVC015 03/02 A2980 RMK AO2 PK WND 10027/0608 PRESFR P0003 T00280017 TSNO
HYA,2017-04-01 06:15,-70.2800,41.6700,M,M,M,90.00,16.00,0.03,29.80,M,5.00,M,OVC,M,M,M,1200.00,M,M,M,RA BR,KHYA 010615Z AUTO 09016KT 5SM RA BR OVC012 A2980 RMK P0003 WND 07V13  MADISHF
HYA,2017-04-01 06:20,-70.2800,41.6700,M,M,M,100.00,13.00,0.04,29.79,M,5.00,20.00,BKN,OVC,M,M,999.00,1500.00,M,M,RA BR,KHYA 010620Z AUTO 10013G20KT 5SM RA BR BKN009 OVC015 A2979 RMK P0004 MADISHF
HYA,2017-04-01 06:25,-70.2800,41.6700,M,M,M,90.00,13.00,0.05,29.79,M,5.00,M,BKN,OVC,M,M,999.00,1500.00,M,M,RA BR,KHYA 010625Z AUTO 09013KT 5SM RA BR BKN009 OVC015 A2979 RMK P0005 MADISHF
HYA,2017-04-01 06:26,-70.2800,41.6700,37.00,35.10,92.76,90.00,12.00,0.05,29.78,M,5.00,23.00,BKN,OVC,M,M,1000.00,1500.00,M,M,RA BR,KHYA 010626Z AUTO 09012G23KT 5SM RA BR BKN010 OVC015 03/02 A2978 RMK AO2 PK WND 10027/0608 PRESFR P0005 T00280017 TSNO
HYA,2017-04-01 06:30,-70.2800,41.6700,M,M,M,100.00,12.00,0.06,29.78,M,6.00,M,BKN,OVC,M,M,999.00,1699.00,M,M,-RA BR,KHYA 010630Z AUTO 10012KT 6SM -RA BR BKN009 OVC016 A2978 RMK P0006 MADISHF
HYA,2017-04-01 06:35,-70.2800,41.6700,M,M,M,90.00,15.00,0.06,29.78,M,6.00,M,BKN,OVC,M,M,999.00,1699.00,M,M,-RA BR,KHYA 010635Z AUTO 09015KT 6SM -RA BR BKN009 OVC016 A2978 RMK P0006 MADISHF
HYA,2017-04-01 06:40,-70.2800,41.6700,M,M,M,90.00,15.00,0.07,29.77,M,6.00,20.00,BKN,BKN,OVC,M,999.00,1699.00,2200.00,M,RA BR,KHYA 010640Z AUTO 09015G20KT 6SM RA BR BKN009 BKN016 OVC022 A2977 RMK P0007 MADISHF
HYA,2017-04-01 06:45,-70.2800,41.6700,M,M,M,100.00,14.00,0.07,29.77,M,6.00,M,BKN,BKN,OVC,M,999.00,1500.00,2200.00,M,-RA BR,KHYA 010645Z AUTO 10014KT 6SM -RA BR BKN009 BKN015 OVC022 A2977 RMK P0007 MADISHF
HYA,2017-04-01 06:50,-70.2800,41.6700,M,M,M,90.00,15.00,0.07,29.77,M,6.00,20.00,BKN,OVC,M,M,999.00,1500.00,M,M,-RA BR,KHYA 010650Z AUTO 09015G20KT 6SM -RA BR BKN009 OVC015 A2977 RMK P0007 MADISHF
HYA,2017-04-01 06:55,-70.2800,41.6700,M,M,M,90.00,14.00,0.08,29.75,M,5.00,M,BKN,OVC,M,M,999.00,1500.00,M,M,RA BR,KHYA 010655Z AUTO 09014KT 5SM RA BR BKN009 OVC015 A2975 RMK P0008 MADISHF
HYA,2017-04-01 06:56,-70.2800,41.6700,37.00,36.00,96.13,90.00,17.00,0.09,29.76,1007.80,5.00,27.00,BKN,OVC,M,M,1000.00,1500.00,M,M,RA BR,KHYA 010656Z AUTO 09017G27KT 5SM RA BR BKN010 OVC015 03/02 A2976 RMK AO2 PK WND 06027/0649 SLP078 P0009 T00280022 TSNO
HYA,2017-04-01 07:00,-70.2800,41.6700,M,M,M,100.00,15.00,M,29.75,M,5.00,M,BKN,OVC,M,M,999.00,1400.00,M,M,RA BR,KHYA 010700Z AUTO 10015KT 5SM RA BR BKN009 OVC014 A2975 RMK MADISHF
HYA,2017-04-01 07:05,-70.2800,41.6700,M,M,M,90.00,14.00,0.01,29.76,M,4.00,23.00,BKN,OVC,M,M,999.00,1400.00,M,M,RA BR,KHYA 010705Z AUTO 09014G23KT 4SM RA BR BKN009 OVC014 A2976 RMK P0001 MADISHF
HYA,2017-04-01 07:10,-70.2800,41.6700,M,M,M,90.00,13.00,0.02,29.75,M,4.00,M,OVC,M,M,M,999.00,M,M,M,RA BR,KHYA 010710Z AUTO 09013KT 4SM RA BR OVC009 A2975 RMK P0002 MADISHF
HYA,2017-04-01 07:15,-70.2800,41.6700,M,M,M,90.00,13.00,0.04,29.75,M,4.00,M,BKN,OVC,M,M,999.00,1400.00,M,M,RA BR,KHYA 010715Z AUTO 09013KT 4SM RA BR BKN009 OVC014 A2975 RMK P0004 WND 05V12  MADISHF
HYA,2017-04-01 07:20,-70.2800,41.6700,M,M,M,90.00,13.00,0.06,29.74,M,4.00,24.00,OVC,M,M,M,999.00,M,M,M,+RA BR,KHYA 010720Z AUTO 09013G24KT 4SM +RA BR OVC009 A2974 RMK P0006 MADISHF
HYA,2017-04-01 07:25,-70.2800,41.6700,M,M,M,90.00,15.00,0.08,29.71,M,4.00,M,BKN,OVC,M,M,999.00,1600.00,M,M,RA BR,KHYA 010725Z AUTO 09015KT 4SM RA BR BKN009 OVC016 A2971 RMK P0008 MADISHF
HYA,2017-04-01 07:30,-70.2800,41.6700,M,M,M,90.00,14.00,0.09,29.72,M,4.00,19.00,BKN,OVC,M,M,999.00,1400.00,M,M,RA BR,KHYA 010730Z AUTO 09014G19KT 4SM RA BR BKN009 OVC014 A2972 RMK P0009 MADISHF
HYA,2017-04-01 07:35,-70.2800,41.6700,M,M,M,100.00,16.00,0.11,29.72,M,4.00,28.00,BKN,BKN,OVC,M,999.00,1300.00,2600.00,M,RA BR,KHYA 010735Z AUTO 10016G28KT 4SM RA BR BKN009 BKN013 OVC026 A2972 RMK P0011 MADISHF
HYA,2017-04-01 07:40,-70.2800,41.6700,M,M,M,90.00,19.00,0.12,29.73,M,4.00,24.00,BKN,OVC,M,M,999.00,2800.00,M,M,RA BR,KHYA 010740Z AUTO 09019G24KT 4SM RA BR BKN009 OVC028 A2973 RMK P0012 MADISHF
HYA,2017-04-01 07:45,-70.2800,41.6700,M,M,M,90.00,15.00,0.14,29.71,M,4.00,M,BKN,OVC,M,M,999.00,3000.00,M,M,RA BR,KHYA 010745Z AUTO 09015KT 4SM RA BR BKN009 OVC030 A2971 RMK P0014 MADISHF
HYA,2017-04-01 07:50,-70.2800,41.6700,M,M,M,80.00,13.00,0.15,29.71,M,4.00,21.00,BKN,BKN,OVC,M,999.00,1300.00,2600.00,M,RA BR,KHYA 010750Z AUTO 08013G21KT 4SM RA BR BKN009 BKN013 OVC026 A2971 RMK P0015 MADISHF
HYA,2017-04-01 07:55,-70.2800,41.6700,M,M,M,90.00,15.00,0.17,29.71,M,4.00,M,BKN,OVC,M,M,900.00,2400.00,M,M,RA BR,KHYA 010755Z AUTO 09015KT 4SM RA BR BKN009 OVC024 A2971 RMK P0017 MADISHF
HYA,2017-04-01 07:56,-70.2800,41.6700,37.90,36.00,92.78,100.00,18.00,0.18,29.72,1006.30,4.00,25.00,BKN,OVC,M,M,900.00,2400.00,M,M,+RA BR,KHYA 010756Z AUTO 10018G25KT 4SM +RA BR BKN009 OVC024 03/02 A2972 RMK AO2 PK WND 09033/0721 SLP063 P0018 T00330022 TSNO
HYA,2017-04-01 08:00,-70.2800,41.6700,M,M,M,100.00,16.00,0.01,29.72,M,3.50,M,BKN,BKN,OVC,M,900.00,1500.00,2400.00,M,+RA BR,KHYA 010800Z AUTO 10016KT 3SM +RA BR BKN009 BKN015 OVC024 A2972 RMK P0001 MADISHF
HYA,2017-04-01 08:05,-70.2800,41.6700,M,M,M,100.00,18.00,0.03,29.70,M,3.50,27.00,BKN,OVC,M,M,900.00,1999.00,M,M,RA BR,KHYA 010805Z AUTO 10018G27KT 3SM RA BR BKN009 OVC019 A2970 RMK P0003 MADISHF
HYA,2017-04-01 08:10,-70.2800,41.6700,M,M,M,90.00,15.00,0.04,29.69,M,3.50,24.00,BKN,OVC,M,M,900.00,1999.00,M,M,+RA BR,KHYA 010810Z AUTO 09015G24KT 3SM +RA BR BKN009 OVC019 A2969 RMK P0004 MADISHF
HYA,2017-04-01 08:15,-70.2800,41.6700,M,M,M,90.00,13.00,0.05,29.67,M,3.50,M,BKN,OVC,M,M,900.00,1600.00,M,M,RA BR,KHYA 010815Z AUTO 09013KT 3SM RA BR BKN009 OVC016 A2967 RMK P0005 MADISHF
HYA,2017-04-01 08:20,-70.2800,41.6700,M,M,M,90.00,19.00,0.06,29.68,M,4.00,M,BKN,OVC,M,M,900.00,1800.00,M,M,RA BR,KHYA 010820Z AUTO 09019KT 4SM RA BR BKN009 OVC018 A2968 RMK P0006 WND 07V13  MADISHF
HYA,2017-04-01 08:25,-70.2800,41.6700,M,M,M,100.00,15.00,0.07,29.69,M,4.00,M,BKN,OVC,M,M,700.00,1800.00,M,M,RA BR,KHYA 010825Z AUTO 10015KT 4SM RA BR BKN007 OVC018 A2969 RMK P0007 MADISHF
HYA,2017-04-01 08:30,-70.2800,41.6700,M,M,M,90.00,16.00,0.08,29.68,M,4.00,M,BKN,BKN,OVC,M,700.00,1200.00,1800.00,M,RA BR,KHYA 010830Z AUTO 09016KT 4SM RA BR BKN007 BKN012 OVC018 A2968 RMK P0008 MADISHF
HYA,2017-04-01 08:35,-70.2800,41.6700,M,M,M,90.00,18.00,0.10,29.68,M,3.50,29.00,BKN,BKN,OVC,M,700.00,1100.00,1800.00,M,RA BR,KHYA 010835Z AUTO 09018G29KT 3SM RA BR BKN007 BKN011 OVC018 A2968 RMK P0010 MADISHF
HYA,2017-04-01 08:40,-70.2800,41.6700,M,M,M,80.00,14.00,0.11,29.67,M,3.50,M,BKN,OVC,M,M,700.00,1900.00,M,M,RA BR,KHYA 010840Z AUTO 08014KT 3SM RA BR BKN007 OVC019 A2967 RMK P0011 MADISHF
HYA,2017-04-01 08:45,-70.2800,41.6700,M,M,M,90.00,16.00,0.13,29.67,M,4.00,M,BKN,OVC,M,M,700.00,1900.00,M,M,RA BR,KHYA 010845Z AUTO 09016KT 4SM RA BR BKN007 OVC019 A2967 RMK P0013 MADISHF
HYA,2017-04-01 08:50,-70.2800,41.6700,M,M,M,100.00,16.00,0.15,29.66,M,3.50,24.00,BKN,OVC,M,M,800.00,1500.00,M,M,RA BR,KHYA 010850Z AUTO 10016G24KT 3SM RA BR BKN008 OVC015 A2966 RMK P0015 MADISHF
HYA,2017-04-01 08:55,-70.2800,41.6700,M,M,M,90.00,18.00,0.17,29.66,M,3.00,25.00,BKN,OVC,M,M,800.00,1500.00,M,M,+RA BR,KHYA 010855Z AUTO 09018G25KT 3SM +RA BR BKN008 OVC015 A2966 RMK P0017 MADISHF
HYA,2017-04-01 08:56,-70.2800,41.6700,37.90,36.00,92.78,90.00,16.00,0.17,29.65,1004.10,3.00,30.00,BKN,OVC,M,M,800.00,1500.00,M,M,+RA BR,KHYA 010856Z AUTO 09016G30KT 3SM +RA BR BKN008 OVC015 03/02 A2965 RMK AO2 PK WND 09034/0819 SLP041 P0017 60044 T00330022 56059 TSNO
HYA,2017-04-01 09:00,-70.2800,41.6700,M,M,M,90.00,16.00,0.02,29.66,M,2.50,28.00,BKN,OVC,M,M,800.00,1500.00,M,M,+RA BR,KHYA 010900Z AUTO 09016G28KT 2 1/2SM +RA BR BKN008 OVC015 A2966 RMK P0002 MADISHF
HYA,2017-04-01 09:04,-70.2800,41.6700,37.90,36.00,92.78,90.00,15.00,0.03,29.66,M,2.50,30.00,BKN,OVC,M,M,800.00,1500.00,M,M,RA BR,KHYA 010904Z AUTO 09015G30KT 2 1/2SM RA BR BKN008 OVC015 03/02 A2966 RMK AO2 PK WND 11030/0901 P0003 T00330022 TSNO
HYA,2017-04-01 09:05,-70.2800,41.6700,M,M,M,90.00,18.00,0.04,29.65,M,2.50,30.00,BKN,OVC,M,M,800.00,1500.00,M,M,RA BR,KHYA 010905Z AUTO 09018G30KT 2 1/2SM RA BR BKN008 OVC015 A2965 RMK P0004 MADISHF
HYA,2017-04-01 09:10,-70.2800,41.6700,M,M,M,90.00,22.00,0.06,29.65,M,3.00,32.00,BKN,OVC,M,M,800.00,1300.00,M,M,+RA BR,KHYA 010910Z AUTO 09022G32KT 3SM +RA BR BKN008 OVC013 A2965 RMK P0006 MADISHF
HYA,2017-04-01 09:15,-70.2800,41.6700,M,M,M,90.00,23.00,0.09,29.65,M,2.50,M,BKN,OVC,M,M,800.00,1500.00,M,M,+RA BR,KHYA 010915Z AUTO 09023KT 2 1/2SM +RA BR BKN008 OVC015 A2965 RMK P0009 MADISHF
HYA,2017-04-01 09:20,-70.2800,41.6700,M,M,M,80.00,17.00,0.12,29.65,M,2.50,M,BKN,OVC,M,M,800.00,1500.00,M,M,+RA BR,KHYA 010920Z AUTO 08017KT 2 1/2SM +RA BR BKN008 OVC015 A2965 RMK P0012 MADISHF
HYA,2017-04-01 09:25,-70.2800,41.6700,M,M,M,90.00,17.00,0.15,29.65,M,2.50,M,BKN,OVC,M,M,800.00,1500.00,M,M,+RA BR,KHYA 010925Z AUTO 09017KT 2 1/2SM +RA BR BKN008 OVC015 A2965 RMK P0015 MADISHF
HYA,2017-04-01 09:30,-70.2800,41.6700,M,M,M,90.00,17.00,0.17,29.64,M,2.50,M,BKN,OVC,M,M,800.00,1699.00,M,M,+RA BR,KHYA 010930Z AUTO 09017KT 2 1/2SM +RA BR BKN008 OVC016 A2964 RMK P0017 MADISHF
HYA,2017-04-01 09:35,-70.2800,41.6700,M,M,M,90.00,15.00,0.19,29.63,M,2.50,20.00,BKN,OVC,M,M,800.00,1699.00,M,M,+RA BR,KHYA 010935Z AUTO 09015G20KT 2 1/2SM +RA BR BKN008 OVC016 A2963 RMK P0019 MADISHF
HYA,2017-04-01 09:40,-70.2800,41.6700,M,M,M,100.00,18.00,0.21,29.64,M,2.50,30.00,BKN,OVC,M,M,800.00,1699.00,M,M,+RA BR,KHYA 010940Z AUTO 10018G30KT 2 1/2SM +RA BR BKN008 OVC016 A2964 RMK P0021 MADISHF
HYA,2017-04-01 09:45,-70.2800,41.6700,M,M,M,90.00,21.00,0.24,29.63,M,2.50,32.00,BKN,OVC,M,M,800.00,1699.00,M,M,+RA BR,KHYA 010945Z AUTO 09021G32KT 2 1/2SM +RA BR BKN008 OVC016 A2963 RMK P0024 MADISHF
HYA,2017-04-01 09:50,-70.2800,41.6700,M,M,M,90.00,20.00,0.26,29.64,M,2.50,34.00,BKN,OVC,M,M,800.00,1699.00,M,M,+RA BR,KHYA 010950Z AUTO 09020G34KT 2 1/2SM +RA BR BKN008 OVC016 A2964 RMK P0026 MADISHF
HYA,2017-04-01 09:55,-70.2800,41.6700,M,M,M,90.00,15.00,0.27,29.64,M,3.00,25.00,BKN,OVC,M,M,800.00,1699.00,M,M,+RA BR,KHYA 010955Z AUTO 09015G25KT 3SM +RA BR BKN008 OVC016 A2964 RMK P0027 MADISHF
HYA,2017-04-01 09:56,-70.2800,41.6700,39.00,37.00,92.45,90.00,15.00,0.28,29.63,1003.50,3.00,34.00,BKN,OVC,M,M,800.00,1700.00,M,M,RA BR,KHYA 010956Z 09015G34KT 3SM RA BR BKN008 OVC017 04/03 A2963 RMK AO2 PK WND 09034/0950 SLP035 P0028 T00390028
HYA,2017-04-01 10:00,-70.2800,41.6700,M,M,M,90.00,20.00,0.01,29.63,M,3.00,29.00,BKN,OVC,M,M,800.00,1900.00,M,M,RA BR,KHYA 011000Z AUTO 09020G29KT 3SM RA BR BKN008 OVC019 A2963 RMK P0001 MADISHF
HYA,2017-04-01 10:05,-70.2800,41.6700,M,M,M,90.00,20.00,0.04,29.62,M,3.00,25.00,BKN,OVC,M,M,800.00,2100.00,M,M,+RA BR,KHYA 011005Z AUTO 09020G25KT 3SM +RA BR BKN008 OVC021 A2962 RMK P0004 MADISHF
HYA,2017-04-01 10:10,-70.2800,41.6700,M,M,M,90.00,18.00,0.07,29.62,M,3.00,26.00,BKN,OVC,M,M,900.00,1900.00,M,M,+RA BR,KHYA 011010Z AUTO 09018G26KT 3SM +RA BR BKN009 OVC019 A2962 RMK P0007 MADISHF
HYA,2017-04-01 10:15,-70.2800,41.6700,39.00,37.00,92.45,90.00,18.00,0.10,29.61,M,3.00,30.00,SCT,OVC,M,M,900.00,1900.00,M,M,+RA BR,KHYA 011015Z 09018G30KT 3SM +RA BR SCT009 OVC019 04/03 A2961 RMK AO2 PK WND 08031/1004 PRESFR P0010 T00390028
HYA,2017-04-01 10:20,-70.2800,41.6700,M,M,M,90.00,21.00,0.13,29.63,M,3.00,31.00,SCT,OVC,M,M,900.00,2100.00,M,M,+RA BR,KHYA 011020Z AUTO 09021G31KT 3SM +RA BR SCT009 OVC021 A2963 RMK P0013 MADISHF
HYA,2017-04-01 10:25,-70.2800,41.6700,M,M,M,80.00,18.00,0.17,29.61,M,3.00,25.00,SCT,OVC,M,M,900.00,1900.00,M,M,+RA BR,KHYA 011025Z AUTO 08018G25KT 3SM +RA BR SCT009 OVC019 A2961 RMK P0017 MADISHF
HYA,2017-04-01 10:30,-70.2800,41.6700,M,M,M,80.00,16.00,0.19,29.61,M,3.00,23.00,SCT,OVC,M,M,900.00,1900.00,M,M,+RA BR,KHYA 011030Z AUTO 08016G23KT 3SM +RA BR SCT009 OVC019 A2961 RMK P0019 MADISHF
HYA,2017-04-01 10:35,-70.2800,41.6700,M,M,M,80.00,17.00,0.23,29.60,M,3.00,23.00,SCT,OVC,M,M,900.00,1900.00,M,M,+RA BR,KHYA 011035Z AUTO 08017G23KT 3SM +RA BR SCT009 OVC019 A2960 RMK P0023 MADISHF
HYA,2017-04-01 10:40,-70.2800,41.6700,M,M,M,90.00,20.00,0.26,29.61,M,3.00,27.00,SCT,OVC,M,M,900.00,1900.00,M,M,+RA BR,KHYA 011040Z AUTO 09020G27KT 3SM +RA BR SCT009 OVC019 A2961 RMK P0026 MADISHF
HYA,2017-04-01 10:45,-70.2800,41.6700,M,M,M,70.00,15.00,0.29,29.62,M,3.00,27.00,SCT,OVC,M,M,900.00,1699.00,M,M,+RA BR,KHYA 011045Z AUTO 07015G27KT 3SM +RA BR SCT009 OVC016 A2962 RMK P0028 MADISHF
HYA,2017-04-01 10:50,-70.2800,41.6700,M,M,M,70.00,15.00,0.31,29.61,M,3.00,21.00,SCT,OVC,M,M,900.00,1900.00,M,M,+RA BR,KHYA 011050Z AUTO 07015G21KT 3SM +RA BR SCT009 OVC019 A2961 RMK P0031 MADISHF
HYA,2017-04-01 10:55,-70.2800,41.6700,M,M,M,80.00,19.00,0.33,29.61,M,3.00,25.00,BKN,OVC,M,M,900.00,1900.00,M,M,+RA BR,KHYA 011055Z AUTO 08019G25KT 3SM +RA BR BKN009 OVC019 A2961 RMK P0033 MADISHF
HYA,2017-04-01 10:56,-70.2800,41.6700,39.90,37.90,92.48,80.00,19.00,0.33,29.60,1002.50,3.00,26.00,BKN,BKN,OVC,M,900.00,1500.00,1900.00,M,+RA BR,KHYA 011056Z 08019G26KT 3SM +RA BR BKN009 BKN015 OVC019 04/03 A2960 RMK AO2 PK WND 09033/1037 SLP025 P0033 T00440033
HYA,2017-04-01 11:00,-70.2800,41.6700,M,M,M,80.00,19.00,0.01,29.61,M,4.00,M,BKN,OVC,M,M,900.00,1900.00,M,M,RA BR,KHYA 011100Z AUTO 08019KT 4SM RA BR BKN009 OVC019 A2961 RMK P0001 MADISHF
HYA,2017-04-01 11:05,-70.2800,41.6700,M,M,M,80.00,17.00,0.03,29.60,M,3.00,M,BKN,OVC,M,M,900.00,1900.00,M,M,RA BR,KHYA 011105Z AUTO 08017KT 3SM RA BR BKN009 OVC019 A2960 RMK P0003 MADISHF
HYA,2017-04-01 11:10,-70.2800,41.6700,M,M,M,80.00,16.00,0.05,29.60,M,3.00,27.00,BKN,OVC,M,M,900.00,1900.00,M,M,+RA BR,KHYA 011110Z AUTO 08016G27KT 3SM +RA BR BKN009 OVC019 A2960 RMK P0005 MADISHF
HYA,2017-04-01 11:15,-70.2800,41.6700,M,M,M,80.00,12.00,0.07,29.60,M,3.00,18.00,BKN,OVC,M,M,900.00,1900.00,M,M,+RA BR,KHYA 011115Z AUTO 08012G18KT 3SM +RA BR BKN009 OVC019 A2960 RMK P0007 MADISHF
HYA,2017-04-01 11:20,-70.2800,41.6700,M,M,M,80.00,15.00,0.11,29.60,M,3.00,20.00,BKN,OVC,M,M,900.00,1900.00,M,M,+RA BR,KHYA 011120Z AUTO 08015G20KT 3SM +RA BR BKN009 OVC019 A2960 RMK P0011 MADISHF
HYA,2017-04-01 11:25,-70.2800,41.6700,M,M,M,90.00,19.00,0.15,29.60,M,3.00,29.00,BKN,OVC,M,M,900.00,1900.00,M,M,+RA BR,KHYA 011125Z AUTO 09019G29KT 3SM +RA BR BKN009 OVC019 A2960 RMK P0015 MADISHF
HYA,2017-04-01 11:30,-70.2800,41.6700,M,M,M,80.00,18.00,0.17,29.59,M,3.00,28.00,BKN,OVC,M,M,900.00,1900.00,M,M,+RA BR,KHYA 011130Z AUTO 08018G28KT 3SM +RA BR BKN009 OVC019 A2959 RMK P0017 MADISHF
HYA,2017-04-01 11:35,-70.2800,41.6700,M,M,M,90.00,21.00,0.19,29.58,M,3.00,28.00,BKN,OVC,M,M,900.00,1900.00,M,M,RA BR,KHYA 011135Z AUTO 09021G28KT 3SM RA BR BKN009 OVC019 A2958 RMK P0019 MADISHF
HYA,2017-04-01 11:40,-70.2800,41.6700,M,M,M,80.00,20.00,0.21,29.57,M,3.00,26.00,BKN,OVC,M,M,900.00,1900.00,M,M,+RA BR,KHYA 011140Z AUTO 08020G26KT 3SM +RA BR BKN009 OVC019 A2957 RMK P0021 MADISHF
HYA,2017-04-01 11:45,-70.2800,41.6700,M,M,M,80.00,19.00,0.26,29.57,M,3.00,30.00,BKN,OVC,M,M,900.00,1900.00,M,M,+RA BR,KHYA 011145Z AUTO 08019G30KT 3SM +RA BR BKN009 OVC019 A2957 RMK P0026 MADISHF
HYA,2017-04-01 11:50,-70.2800,41.6700,M,M,M,70.00,18.00,0.30,29.58,M,3.00,M,BKN,OVC,M,M,900.00,1900.00,M,M,+RA BR,KHYA 011150Z AUTO 07018KT 3SM +RA BR BKN009 OVC019 A2958 RMK P0030 MADISHF
HYA,2017-04-01 11:55,-70.2800,41.6700,M,M,M,70.00,19.00,0.35,29.58,M,3.00,27.00,BKN,OVC,M,M,900.00,1900.00,M,M,+RA BR,KHYA 011155Z AUTO 07019G27KT 3SM +RA BR BKN009 OVC019 A2958 RMK P0035 MADISHF
HYA,2017-04-01 11:56,-70.2800,41.6700,39.90,39.00,96.55,70.00,18.00,0.36,29.58,1001.70,3.00,30.00,BKN,OVC,M,M,900.00,1900.00,M,M,+RA BR,KHYA 011156Z 07018G30KT 3SM +RA BR BKN009 OVC019 04/04 A2958 RMK AO2 PK WND 05032/1141 SLP017 P0036 60141 70200 T00440039 10044 20028 58025
HYA,2017-04-01 11:59,-70.2800,41.6700,39.90,39.00,96.55,70.00,20.00,0.02,29.56,M,1.75,31.00,BKN,OVC,M,M,900.00,1600.00,M,M,+RA BR,KHYA 011159Z 07020G31KT 1 3/4SM +RA BR BKN009 OVC016 04/04 A2956 RMK AO2 PK WND 07031/1158 P0002 T00440039
HYA,2017-04-01 12:00,-70.2800,41.6700,M,M,M,70.00,20.00,0.03,29.57,M,1.75,31.00,BKN,OVC,M,M,900.00,1600.00,M,M,+RA BR,KHYA 011200Z AUTO 07020G31KT 2SM +RA BR BKN009 OVC016 A2957 RMK P0003 MADISHF
HYA,2017-04-01 12:05,-70.2800,41.6700,39.90,39.00,96.55,70.00,19.00,0.07,29.59,M,2.00,31.00,BKN,OVC,M,M,900.00,1600.00,M,M,+RA BR,KHYA 011205Z 07019G31KT 2SM +RA BR BKN009 OVC016 04/04 A2959 RMK AO2 PK WND 08031/1200 P0007 T00440039
HYA,2017-04-01 12:10,-70.2800,41.6700,M,M,M,70.00,19.00,0.11,29.58,M,2.00,25.00,BKN,OVC,M,M,900.00,1600.00,M,M,+RA BR,KHYA 011210Z AUTO 07019G25KT 2SM +RA BR BKN009 OVC016 A2958 RMK P0011 MADISHF
HYA,2017-04-01 12:15,-70.2800,41.6700,M,M,M,70.00,15.00,0.14,29.58,M,2.00,21.00,BKN,OVC,M,M,900.00,1600.00,M,M,+RA BR,KHYA 011215Z AUTO 07015G21KT 2SM +RA BR BKN009 OVC016 A2958 RMK P0014 MADISHF
HYA,2017-04-01 12:20,-70.2800,41.6700,M,M,M,70.00,17.00,0.17,29.59,M,2.00,23.00,BKN,OVC,M,M,900.00,1600.00,M,M,+RA BR,KHYA 011220Z AUTO 07017G23KT 2SM +RA BR BKN009 OVC016 A2959 RMK P0017 MADISHF
HYA,2017-04-01 12:25,-70.2800,41.6700,M,M,M,70.00,13.00,0.20,29.59,M,2.00,M,BKN,OVC,M,M,900.00,1600.00,M,M,+RA BR,KHYA 011225Z AUTO 07013KT 2SM +RA BR BKN009 OVC016 A2959 RMK P0020 MADISHF
HYA,2017-04-01 12:30,-70.2800,41.6700,M,M,M,70.00,16.00,0.23,29.60,M,2.00,23.00,BKN,OVC,M,M,900.00,1600.00,M,M,+RA BR,KHYA 011230Z AUTO 07016G23KT 2SM +RA BR BKN009 OVC016 A2960 RMK P0023 MADISHF
HYA,2017-04-01 12:35,-70.2800,41.6700,M,M,M,70.00,13.00,0.25,29.60,M,2.00,19.00,BKN,OVC,M,M,900.00,1600.00,M,M,+RA BR,KHYA 011235Z AUTO 07013G19KT 2SM +RA BR BKN009 OVC016 A2960 RMK P0025 MADISHF
HYA,2017-04-01 12:40,-70.2800,41.6700,M,M,M,70.00,15.00,0.26,29.61,M,2.00,M,BKN,OVC,M,M,900.00,1600.00,M,M,RA BR,KHYA 011240Z AUTO 07015KT 2SM RA BR BKN009 OVC016 A2961 RMK P0026 MADISHF
HYA,2017-04-01 12:45,-70.2800,41.6700,M,M,M,70.00,13.00,0.27,29.61,M,2.00,M,BKN,OVC,M,M,900.00,1600.00,M,M,RA BR,KHYA 011245Z AUTO 07013KT 2SM RA BR BKN009 OVC016 A2961 RMK P0027 MADISHF
HYA,2017-04-01 12:50,-70.2800,41.6700,M,M,M,70.00,14.00,0.28,29.63,M,2.00,M,BKN,OVC,M,M,900.00,1600.00,M,M,RA BR,KHYA 011250Z AUTO 07014KT 2SM RA BR BKN009 OVC016 A2963 RMK P0028 MADISHF
HYA,2017-04-01 12:52,-70.2800,41.6700,41.00,39.20,93.24,60.00,13.00,0.29,29.61,M,1.75,22.00,OVC,M,M,M,1100.00,M,M,M,RA BR,KHYA 011252Z 06013G22KT 030V100 1 3/4SM RA BR OVC011 05/04 A2961 RMK AO2 PK WND 08031/1200 P0029
HYA,2017-04-01 12:55,-70.2800,41.6700,M,M,M,60.00,19.00,0.29,29.63,M,1.50,31.00,OVC,M,M,M,1100.00,M,M,M,RA BR,KHYA 011255Z AUTO 06019G31KT 1 1/2SM RA BR OVC011 A2963 RMK P0028 MADISHF
HYA,2017-04-01 12:56,-70.2800,41.6700,41.00,39.00,92.52,70.00,19.00,0.29,29.63,1003.30,1.50,32.00,BKN,OVC,M,M,900.00,1300.00,M,M,RA BR,KHYA 011256Z 07019G32KT 1 1/2SM RA BR BKN009 OVC013 05/04 A2963 RMK AO2 PK WND 07032/1255 SLP033 P0029 T00500039
HYA,2017-04-01 13:00,-70.2800,41.6700,M,M,M,50.00,16.00,0.01,29.63,M,2.00,21.00,OVC,M,M,M,900.00,M,M,M,-RA BR,KHYA 011300Z AUTO 05016G21KT 2SM -RA BR OVC009 A2963 RMK P0001 MADISHF
HYA,2017-04-01 13:05,-70.2800,41.6700,M,M,M,60.00,11.00,0.01,29.64,M,2.50,17.00,BKN,OVC,M,M,900.00,1300.00,M,M,-RA BR,KHYA 011305Z AUTO 06011G17KT 2 1/2SM -RA BR BKN009 OVC013 A2964 RMK P0001 WND 02V10  MADISHF
HYA,2017-04-01 13:06,-70.2800,41.6700,41.00,39.90,95.82,70.00,10.00,0.02,29.64,M,2.50,24.00,OVC,M,M,M,900.00,M,M,M,-RA BR,KHYA 011306Z 07010G24KT 2 1/2SM -RA BR OVC009 05/04 A2964 RMK AO2 P0002 T00500044
HYA,2017-04-01 13:10,-70.2800,41.6700,M,M,M,40.00,10.00,0.03,29.64,M,1.75,M,OVC,M,M,M,900.00,M,M,M,RA BR,KHYA 011310Z AUTO 04010KT 2SM RA BR OVC009 A2964 RMK P0003 MADISHF
HYA,2017-04-01 13:15,-70.2800,41.6700,M,M,M,50.00,16.00,0.04,29.64,M,1.50,22.00,OVC,M,M,M,900.00,M,M,M,RA BR,KHYA 011315Z AUTO 05016G22KT 1 1/2SM RA BR OVC009 A2964 RMK P0004 MADISHF
HYA,2017-04-01 13:16,-70.2800,41.6700,41.00,39.00,92.52,50.00,15.00,0.04,29.64,M,1.50,24.00,OVC,M,M,M,900.00,M,M,M,RA BR,KHYA 011316Z 05015G24KT 1 1/2SM RA BR OVC009 05/04 A2964 RMK AO2 P0004 T00500039
HYA,2017-04-01 13:20,-70.2800,41.6700,M,M,M,60.00,12.00,0.05,29.65,M,1.75,M,OVC,M,M,M,900.00,M,M,M,RA BR,KHYA 011320Z AUTO 06012KT 2SM RA BR OVC009 A2965 RMK P0005 WND 02V10  MADISHF
HYA,2017-04-01 13:25,-70.2800,41.6700,M,M,M,50.00,15.00,0.06,29.64,M,1.75,22.00,OVC,M,M,M,900.00,M,M,M,RA BR,KHYA 011325Z AUTO 05015G22KT 2SM RA BR OVC009 A2964 RMK P0006 MADISHF
HYA,2017-04-01 13:30,-70.2800,41.6700,M,M,M,50.00,13.00,0.07,29.65,M,1.75,22.00,OVC,M,M,M,900.00,M,M,M,RA BR,KHYA 011330Z AUTO 05013G22KT 2SM RA BR OVC009 A2965 RMK P0007 MADISHF
HYA,2017-04-01 13:35,-70.2800,41.6700,M,M,M,40.00,11.00,0.08,29.65,M,1.75,17.00,OVC,M,M,M,900.00,M,M,M,RA BR,KHYA 011335Z AUTO 04011G17KT 2SM RA BR OVC009 A2965 RMK P0008 MADISHF
HYA,2017-04-01 13:40,-70.2800,41.6700,M,M,M,50.00,13.00,0.09,29.65,M,1.75,M,BKN,OVC,M,M,900.00,1300.00,M,M,RA BR,KHYA 011340Z AUTO 05013KT 2SM RA BR BKN009 OVC013 A2965 RMK P0009 MADISHF
HYA,2017-04-01 13:45,-70.2800,41.6700,M,M,M,60.00,13.00,0.11,29.65,M,1.25,19.00,OVC,M,M,M,900.00,M,M,M,+RA BR,KHYA 011345Z AUTO 06013G19KT 1 1/2SM +RA BR OVC009 A2965 RMK P0011 MADISHF
HYA,2017-04-01 13:50,-70.2800,41.6700,M,M,M,50.00,14.00,0.12,29.65,M,1.25,M,BKN,OVC,M,M,900.00,1400.00,M,M,RA BR,KHYA 011350Z AUTO 05014KT 1 1/2SM RA BR BKN009 OVC014 A2965 RMK P0012 MADISHF
HYA,2017-04-01 13:55,-70.2800,41.6700,M,M,M,50.00,12.00,0.13,29.66,M,1.50,M,OVC,M,M,M,1100.00,M,M,M,RA BR,KHYA 011355Z AUTO 05012KT 1 1/2SM RA BR OVC011 A2966 RMK P0013 MADISHF
HYA,2017-04-01 13:56,-70.2800,41.6700,41.00,39.00,92.52,50.00,10.00,0.13,29.66,1004.40,1.50,24.00,BKN,OVC,M,M,900.00,1300.00,M,M,RA BR,KHYA 011356Z 05010G24KT 1 1/2SM RA BR BKN009 OVC013 05/04 A2966 RMK AO2 SLP044 P0013 T00500039
HYA,2017-04-01 14:00,-70.2800,41.6700,M,M,M,50.00,13.00,0.01,29.66,M,1.50,18.00,BKN,OVC,M,M,1100.00,1400.00,M,M,RA BR,KHYA 011400Z AUTO 05013G18KT 1 1/2SM RA BR BKN011 OVC014 A2966 RMK P0001 MADISHF
HYA,2017-04-01 14:03,-70.2800,41.6700,41.00,39.00,92.52,60.00,13.00,0.02,29.67,M,1.50,21.00,OVC,M,M,M,1100.00,M,M,M,RA BR,KHYA 011403Z 06013G21KT 1 1/2SM RA BR OVC011 05/04 A2967 RMK AO2 P0002 T00500039
HYA,2017-04-01 14:05,-70.2800,41.6700,M,M,M,60.00,15.00,0.03,29.67,M,1.50,21.00,OVC,M,M,M,1100.00,M,M,M,RA BR,KHYA 011405Z AUTO 06015G21KT 1 1/2SM RA BR OVC011 A2967 RMK P0003 MADISHF
HYA,2017-04-01 14:10,-70.2800,41.6700,M,M,M,40.00,12.00,0.05,29.66,M,1.50,18.00,OVC,M,M,M,1100.00,M,M,M,+RA BR,KHYA 011410Z AUTO 04012G18KT 1 1/2SM +RA BR OVC011 A2966 RMK P0005 MADISHF
HYA,2017-04-01 14:15,-70.2800,41.6700,M,M,M,50.00,14.00,0.09,29.66,M,1.50,M,OVC,M,M,M,1200.00,M,M,M,+RA BR,KHYA 011415Z AUTO 05014KT 1 1/2SM +RA BR OVC012 A2966 RMK P0009 MADISHF
HYA,2017-04-01 14:20,-70.2800,41.6700,M,M,M,50.00,15.00,0.11,29.66,M,1.50,M,OVC,M,M,M,1200.00,M,M,M,+RA BR,KHYA 011420Z AUTO 05015KT 1 1/2SM +RA BR OVC012 A2966 RMK P0011 MADISHF
HYA,2017-04-01 14:25,-70.2800,41.6700,M,M,M,50.00,15.00,0.14,29.66,M,1.50,20.00,BKN,OVC,M,M,1200.00,1600.00,M,M,+RA BR,KHYA 011425Z AUTO 05015G20KT 1 1/2SM +RA BR BKN012 OVC016 A2966 RMK P0014 MADISHF
HYA,2017-04-01 14:30,-70.2800,41.6700,M,M,M,40.00,15.00,0.17,29.65,M,1.50,M,BKN,OVC,M,M,1200.00,1600.00,M,M,+RA BR,KHYA 011430Z AUTO 04015KT 1 1/2SM +RA BR BKN012 OVC016 A2965 RMK P0017 MADISHF
HYA,2017-04-01 14:35,-70.2800,41.6700,M,M,M,50.00,15.00,0.19,29.65,M,1.50,20.00,SCT,OVC,M,M,999.00,1600.00,M,M,+RA BR,KHYA 011435Z AUTO 05015G20KT 1 1/2SM +RA BR SCT009 OVC016 A2965 RMK P0019 MADISHF
HYA,2017-04-01 14:40,-70.2800,41.6700,M,M,M,40.00,17.00,0.22,29.64,M,1.50,M,BKN,OVC,M,M,999.00,1800.00,M,M,+RA BR,KHYA 011440Z AUTO 04017KT 1 1/2SM +RA BR BKN009 OVC018 A2964 RMK P0022 MADISHF
HYA,2017-04-01 14:45,-70.2800,41.6700,M,M,M,40.00,14.00,0.26,29.65,M,1.75,M,BKN,OVC,M,M,1100.00,1600.00,M,M,+RA BR,KHYA 011445Z AUTO 04014KT 2SM +RA BR BKN011 OVC016 A2965 RMK P0026 MADISHF
HYA,2017-04-01 14:50,-70.2800,41.6700,M,M,M,40.00,18.00,0.29,29.64,M,1.75,23.00,BKN,OVC,M,M,1100.00,1600.00,M,M,+RA BR,KHYA 011450Z AUTO 04018G23KT 2SM +RA BR BKN011 OVC016 A2964 RMK P0028 MADISHF
HYA,2017-04-01 14:55,-70.2800,41.6700,M,M,M,40.00,16.00,0.32,29.64,M,1.50,M,BKN,OVC,M,M,1100.00,1600.00,M,M,+RA BR,KHYA 011455Z AUTO 04016KT 1 1/2SM +RA BR BKN011 OVC016 A2964 RMK P0032 MADISHF
HYA,2017-04-01 14:56,-70.2800,41.6700,39.90,39.00,96.55,40.00,15.00,0.33,29.64,1003.60,1.50,24.00,OVC,M,M,M,1300.00,M,M,M,+RA BR,KHYA 011456Z 04015G24KT 1 1/2SM +RA BR OVC013 04/04 A2964 RMK AO2 PK WND 06029/1429 SLP036 P0033 60075 T00440039 50020
HYA,2017-04-01 15:00,-70.2800,41.6700,39.90,39.00,96.55,40.00,17.00,0.01,29.64,M,1.50,28.00,BKN,OVC,M,M,900.00,1300.00,M,M,+RA BR,KHYA 011500Z 04017G28KT 1 1/2SM +RA BR BKN009 OVC013 04/04 A2964 RMK AO2 PK WND 04028/1457 P0001 T00440039
HYA,2017-04-01 15:05,-70.2800,41.6700,M,M,M,40.00,18.00,0.04,29.63,M,1.50,23.00,BKN,OVC,M,M,900.00,1500.00,M,M,+RA BR,KHYA 011505Z AUTO 04018G23KT 1 1/2SM +RA BR BKN009 OVC015 A2963 RMK P0004 MADISHF
HYA,2017-04-01 15:10,-70.2800,41.6700,M,M,M,40.00,19.00,0.06,29.63,M,1.50,24.00,BKN,OVC,M,M,900.00,1300.00,M,M,+RA BR,KHYA 011510Z AUTO 04019G24KT 1 1/2SM +RA BR BKN009 OVC013 A2963 RMK P0006 MADISHF
HYA,2017-04-01 15:15,-70.2800,41.6700,M,M,M,40.00,22.00,0.09,29.63,M,1.25,M,BKN,OVC,M,M,900.00,1300.00,M,M,+RA BR,KHYA 011515Z AUTO 04022KT 1 1/2SM +RA BR BKN009 OVC013 A2963 RMK P0009 MADISHF
HYA,2017-04-01 15:20,-70.2800,41.6700,M,M,M,30.00,18.00,0.12,29.63,M,1.25,M,BKN,OVC,M,M,900.00,1300.00,M,M,+RA BR,KHYA 011520Z AUTO 03018KT 1 1/2SM +RA BR BKN009 OVC013 A2963 RMK P0012 MADISHF
HYA,2017-04-01 15:25,-70.2800,41.6700,M,M,M,30.00,19.00,0.14,29.63,M,1.75,M,BKN,OVC,M,M,900.00,1300.00,M,M,RA BR,KHYA 011525Z AUTO 03019KT 2SM RA BR BKN009 OVC013 A2963 RMK P0014 MADISHF
HYA,2017-04-01 15:30,-70.2800,41.6700,M,M,M,30.00,20.00,0.14,29.62,M,2.00,M,BKN,OVC,M,M,700.00,1300.00,M,M,-RA BR,KHYA 011530Z AUTO 03020KT 2SM -RA BR BKN007 OVC013 A2962 RMK P0014 MADISHF
HYA,2017-04-01 15:32,-70.2800,41.6700,39.90,37.90,92.48,40.00,24.00,0.15,29.62,M,2.00,35.00,BKN,OVC,M,M,700.00,1300.00,M,M,RA BR,KHYA 011532Z 04024G35KT 2SM RA BR BKN007 OVC013 04/03 A2962 RMK AO2 PK WND 04035/1531 P0015 T00440033
HYA,2017-04-01 15:35,-70.2800,41.6700,M,M,M,30.00,19.00,0.15,29.63,M,1.75,25.00,BKN,OVC,M,M,700.00,1300.00,M,M,RA BR,KHYA 011535Z AUTO 03019G25KT 2SM RA BR BKN007 OVC013 A2963 RMK P0015 MADISHF
HYA,2017-04-01 15:40,-70.2800,41.6700,39.90,37.90,92.48,40.00,18.00,0.16,29.63,M,1.50,35.00,BKN,OVC,M,M,900.00,1200.00,M,M,RA BR,KHYA 011540Z 04018G35KT 1 1/2SM RA BR BKN009 OVC012 04/03 A2963 RMK AO2 PK WND 04035/1531 P0016 T00440033
HYA,2017-04-01 15:45,-70.2800,41.6700,M,M,M,30.00,19.00,0.16,29.63,M,1.75,M,BKN,OVC,M,M,700.00,1200.00,M,M,RA BR,KHYA 011545Z AUTO 03019KT 2SM RA BR BKN007 OVC012 A2963 RMK P0016 MADISHF
HYA,2017-04-01 15:50,-70.2800,41.6700,M,M,M,30.00,20.00,0.17,29.63,M,2.00,31.00,BKN,OVC,M,M,700.00,1200.00,M,M,RA BR,KHYA 011550Z AUTO 03020G31KT 2SM RA BR BKN007 OVC012 A2963 RMK P0017 MADISHF
HYA,2017-04-01 15:55,-70.2800,41.6700,M,M,M,40.00,19.00,0.17,29.63,M,2.00,M,OVC,M,M,M,700.00,M,M,M,-RA BR,KHYA 011555Z AUTO 04019KT 2SM -RA BR OVC007 A2963 RMK P0017 MADISHF
HYA,2017-04-01 15:56,-70.2800,41.6700,39.90,37.90,92.48,40.00,20.00,0.17,29.63,1003.30,2.00,32.00,OVC,M,M,M,700.00,M,M,M,-RA BR,KHYA 011556Z 04020G32KT 2SM -RA BR OVC007 04/03 A2963 RMK AO2 PK WND 04035/1531 SLP033 P0017 T00440033
HYA,2017-04-01 16:00,-70.2800,41.6700,M,M,M,30.00,17.00,M,29.64,M,2.00,M,OVC,M,M,M,800.00,M,M,M,-RA BR,KHYA 011600Z AUTO 03017KT 2SM -RA BR OVC008 A2964 RMK MADISHF
HYA,2017-04-01 16:05,-70.2800,41.6700,M,M,M,40.00,17.00,M,29.64,M,2.00,22.00,OVC,M,M,M,800.00,M,M,M,-RA BR,KHYA 011605Z AUTO 04017G22KT 2SM -RA BR OVC008 A2964 RMK MADISHF
HYA,2017-04-01 16:10,-70.2800,41.6700,M,M,M,30.00,18.00,0.01,29.64,M,2.00,23.00,OVC,M,M,M,800.00,M,M,M,-RA BR,KHYA 011610Z AUTO 03018G23KT 2SM -RA BR OVC008 A2964 RMK P0001 MADISHF
HYA,2017-04-01 16:15,-70.2800,41.6700,M,M,M,30.00,19.00,0.01,29.64,M,2.00,M,OVC,M,M,M,800.00,M,M,M,RA BR,KHYA 011615Z AUTO 03019KT 2SM RA BR OVC008 A2964 RMK P0001 MADISHF
HYA,2017-04-01 16:20,-70.2800,41.6700,M,M,M,20.00,15.00,0.01,29.63,M,2.00,20.00,OVC,M,M,M,800.00,M,M,M,-RA BR,KHYA 011620Z AUTO 02015G20KT 2SM -RA BR OVC008 A2963 RMK P0001 MADISHF
HYA,2017-04-01 16:25,-70.2800,41.6700,M,M,M,30.00,18.00,0.02,29.63,M,2.50,M,OVC,M,M,M,800.00,M,M,M,-RA BR,KHYA 011625Z AUTO 03018KT 2 1/2SM -RA BR OVC008 A2963 RMK P0002 MADISHF
HYA,2017-04-01 16:30,-70.2800,41.6700,M,M,M,20.00,20.00,0.02,29.63,M,2.50,M,OVC,M,M,M,800.00,M,M,M,-RA BR,KHYA 011630Z AUTO 02020KT 2 1/2SM -RA BR OVC008 A2963 RMK P0002 MADISHF
HYA,2017-04-01 16:35,-70.2800,41.6700,M,M,M,20.00,19.00,0.02,29.63,M,2.00,27.00,OVC,M,M,M,600.00,M,M,M,RA BR,KHYA 011635Z AUTO 02019G27KT 2SM RA BR OVC006 A2963 RMK P0002 MADISHF
HYA,2017-04-01 16:40,-70.2800,41.6700,M,M,M,20.00,19.00,0.03,29.63,M,2.00,24.00,OVC,M,M,M,600.00,M,M,M,RA BR,KHYA 011640Z AUTO 02019G24KT 2SM RA BR OVC006 A2963 RMK P0003 MADISHF
HYA,2017-04-01 16:45,-70.2800,41.6700,M,M,M,20.00,20.00,0.04,29.62,M,2.00,M,OVC,M,M,M,600.00,M,M,M,RA BR,KHYA 011645Z AUTO 02020KT 2SM RA BR OVC006 A2962 RMK P0004 MADISHF
HYA,2017-04-01 16:50,-70.2800,41.6700,M,M,M,30.00,23.00,0.04,29.63,M,1.75,28.00,OVC,M,M,M,700.00,M,M,M,RA BR,KHYA 011650Z AUTO 03023G28KT 2SM RA BR OVC007 A2963 RMK P0004 MADISHF
HYA,2017-04-01 16:52,-70.2800,41.6700,37.40,37.40,100.00,30.00,21.00,0.04,29.62,M,1.75,33.00,OVC,M,M,M,700.00,M,M,M,RA BR,KHYA 011652Z 03021G33KT 1 3/4SM RA BR OVC007 03/03 A2962 RMK AO2 PK WND 04033/1651 P0004
HYA,2017-04-01 16:55,-70.2800,41.6700,M,M,M,20.00,20.00,0.04,29.63,M,1.75,28.00,OVC,M,M,M,700.00,M,M,M,-RA BR,KHYA 011655Z AUTO 02020G28KT 2SM -RA BR OVC007 A2963 RMK P0004 MADISHF
HYA,2017-04-01 16:56,-70.2800,41.6700,37.90,37.00,96.52,20.00,24.00,0.04,29.63,1003.30,1.75,33.00,OVC,M,M,M,700.00,M,M,M,-RA BR,KHYA 011656Z 02024G33KT 1 3/4SM -RA BR OVC007 03/03 A2963 RMK AO2 PK WND 01033/1656 SLP033 P0004 T00330028
HYA,2017-04-01 17:00,-70.2800,41.6700,M,M,M,30.00,19.00,0.01,29.62,M,1.75,M,OVC,M,M,M,700.00,M,M,M,-SN BR,KHYA 011700Z AUTO 03019KT 2SM -SN BR OVC007 A2962 RMK P0001 MADISHF
HYA,2017-04-01 17:05,-70.2800,41.6700,M,M,M,20.00,22.00,0.01,29.62,M,1.50,31.00,OVC,M,M,M,800.00,M,M,M,-SN BR,KHYA 011705Z AUTO 02022G31KT 1 1/2SM -SN BR OVC008 A2962 RMK P0001 MADISHF
HYA,2017-04-01 17:10,-70.2800,41.6700,M,M,M,20.00,21.00,0.01,29.63,M,1.50,27.00,OVC,M,M,M,800.00,M,M,M,-SN BR,KHYA 011710Z AUTO 02021G27KT 1 1/2SM -SN BR OVC008 A2963 RMK P0001 MADISHF
HYA,2017-04-01 17:15,-70.2800,41.6700,M,M,M,20.00,21.00,0.01,29.63,M,1.50,26.00,OVC,M,M,M,800.00,M,M,M,-SN BR,KHYA 011715Z AUTO 02021G26KT 1 1/2SM -SN BR OVC008 A2963 RMK P0001 MADISHF
HYA,2017-04-01 17:20,-70.2800,41.6700,M,M,M,20.00,21.00,0.01,29.63,M,1.50,26.00,OVC,M,M,M,800.00,M,M,M,-SN BR,KHYA 011720Z AUTO 02021G26KT 1 1/2SM -SN BR OVC008 A2963 RMK P0001 MADISHF
HYA,2017-04-01 17:25,-70.2800,41.6700,M,M,M,20.00,20.00,0.01,29.63,M,1.50,M,BKN,OVC,M,M,600.00,999.00,M,M,-SN BR,KHYA 011725Z AUTO 02020KT 1 1/2SM -SN BR BKN006 OVC009 A2963 RMK P0001 MADISHF
HYA,2017-04-01 17:30,-70.2800,41.6700,M,M,M,20.00,23.00,0.02,29.63,M,1.50,28.00,BKN,OVC,M,M,600.00,999.00,M,M,-SN BR,KHYA 011730Z AUTO 02023G28KT 1 1/2SM -SN BR BKN006 OVC009 A2963 RMK P0002 MADISHF
HYA,2017-04-01 17:35,-70.2800,41.6700,M,M,M,30.00,20.00,0.02,29.62,M,1.75,27.00,BKN,OVC,M,M,600.00,999.00,M,M,-SN BR,KHYA 011735Z AUTO 03020G27KT 2SM -SN BR BKN006 OVC009 A2962 RMK P0002 MADISHF
HYA,2017-04-01 17:40,-70.2800,41.6700,M,M,M,30.00,19.00,0.02,29.63,M,1.75,24.00,OVC,M,M,M,600.00,M,M,M,-RA BR,KHYA 011740Z AUTO 03019G24KT 2SM -RA BR OVC006 A2963 RMK P0002 MADISHF
HYA,2017-04-01 17:45,-70.2800,41.6700,M,M,M,20.00,19.00,0.02,29.62,M,2.00,28.00,OVC,M,M,M,600.00,M,M,M,-RA BR,KHYA 011745Z AUTO 02019G28KT 2SM -RA BR OVC006 A2962 RMK P0002 MADISHF
HYA,2017-04-01 17:47,-70.2800,41.6700,37.90,37.00,96.52,20.00,21.00,0.03,29.63,M,2.50,29.00,OVC,M,M,M,600.00,M,M,M,-RA BR,KHYA 011747Z 02021G29KT 2 1/2SM -RA BR OVC006 03/03 A2963 RMK AO2 PK WND 04034/1713 RAE1658B38SNB1658E38 P0003 T00330028
HYA,2017-04-01 17:50,-70.2800,41.6700,M,M,M,20.00,18.00,0.03,29.63,M,2.50,25.00,OVC,M,M,M,600.00,M,M,M,-RA BR,KHYA 011750Z AUTO 02018G25KT 2 1/2SM -RA BR OVC006 A2963 RMK P0003 MADISHF
HYA,2017-04-01 17:55,-70.2800,41.6700,M,M,M,30.00,23.00,0.03,29.63,M,2.50,30.00,OVC,M,M,M,700.00,M,M,M,-RA BR,KHYA 011755Z AUTO 03023G30KT 2 1/2SM -RA BR OVC007 A2963 RMK P0003 MADISHF
HYA,2017-04-01 17:56,-70.2800,41.6700,37.90,37.00,96.52,30.00,24.00,0.03,29.63,1003.30,2.50,32.00,OVC,M,M,M,700.00,M,M,M,-RA BR,KHYA 011756Z 03024G32KT 2 1/2SM -RA BR OVC007 03/03 A2963 RMK AO2 PK WND 04034/1713 RAE1658B38SNB1658E38 SLP033 P0003 60099 T00330028 10050 20033 53001
HYA,2017-04-01 18:00,-70.2800,41.6700,M,M,M,30.00,22.00,M,29.63,M,2.50,31.00,OVC,M,M,M,700.00,M,M,M,-RA BR,KHYA 011800Z AUTO 03022G31KT 2 1/2SM -RA BR OVC007 A2963 RMK MADISHF
HYA,2017-04-01 18:05,-70.2800,41.6700,M,M,M,30.00,17.00,M,29.63,M,2.00,22.00,OVC,M,M,M,700.00,M,M,M,-RA BR,KHYA 011805Z AUTO 03017G22KT 2SM -RA BR OVC007 A2963 RMK MADISHF
HYA,2017-04-01 18:10,-70.2800,41.6700,M,M,M,20.00,19.00,M,29.62,M,2.00,25.00,OVC,M,M,M,700.00,M,M,M,-RA BR,KHYA 011810Z AUTO 02019G25KT 2SM -RA BR OVC007 A2962 RMK MADISHF
HYA,2017-04-01 18:15,-70.2800,41.6700,M,M,M,20.00,19.00,M,29.63,M,2.00,26.00,OVC,M,M,M,700.00,M,M,M,-RA BR,KHYA 011815Z AUTO 02019G26KT 2SM -RA BR OVC007 A2963 RMK MADISHF
HYA,2017-04-01 18:20,-70.2800,41.6700,M,M,M,20.00,18.00,M,29.63,M,2.00,35.00,BKN,OVC,M,M,700.00,999.00,M,M,-RA BR,KHYA 011820Z AUTO 02018G35KT 2SM -RA BR BKN007 OVC009 A2963 RMK MADISHF
HYA,2017-04-01 18:25,-70.2800,41.6700,M,M,M,20.00,19.00,M,29.63,M,2.00,M,BKN,OVC,M,M,700.00,999.00,M,M,-RA BR,KHYA 011825Z AUTO 02019KT 2SM -RA BR BKN007 OVC009 A2963 RMK MADISHF
HYA,2017-04-01 18:30,-70.2800,41.6700,M,M,M,30.00,22.00,M,29.64,M,2.00,30.00,BKN,OVC,M,M,700.00,999.00,M,M,-RA BR,KHYA 011830Z AUTO 03022G30KT 2SM -RA BR BKN007 OVC009 A2964 RMK MADISHF
HYA,2017-04-01 18:35,-70.2800,41.6700,M,M,M,20.00,22.00,0.01,29.64,M,2.00,27.00,BKN,OVC,M,M,600.00,999.00,M,M,-RA BR,KHYA 011835Z AUTO 02022G27KT 2SM -RA BR BKN006 OVC009 A2964 RMK P0001 MADISHF
HYA,2017-04-01 18:40,-70.2800,41.6700,M,M,M,20.00,19.00,0.01,29.63,M,2.00,26.00,OVC,M,M,M,600.00,M,M,M,RA BR,KHYA 011840Z AUTO 02019G26KT 2SM RA BR OVC006 A2963 RMK P0001 MADISHF
HYA,2017-04-01 18:45,-70.2800,41.6700,M,M,M,20.00,21.00,0.02,29.64,M,2.00,26.00,BKN,OVC,M,M,600.00,1100.00,M,M,RA BR,KHYA 011845Z AUTO 02021G26KT 2SM RA BR BKN006 OVC011 A2964 RMK P0002 MADISHF
HYA,2017-04-01 18:50,-70.2800,41.6700,M,M,M,20.00,19.00,0.03,29.63,M,2.00,M,BKN,OVC,M,M,900.00,1200.00,M,M,RA BR,KHYA 011850Z AUTO 02019KT 2SM RA BR BKN009 OVC012 A2963 RMK P0003 MADISHF
HYA,2017-04-01 18:55,-70.2800,41.6700,M,M,M,10.00,24.00,0.04,29.63,M,2.00,M,BKN,OVC,M,M,900.00,1200.00,M,M,RA BR,KHYA 011855Z AUTO 01024KT 2SM RA BR BKN009 OVC012 A2963 RMK P0004 MADISHF
HYA,2017-04-01 18:56,-70.2800,41.6700,37.90,37.00,96.52,20.00,21.00,0.04,29.64,1003.60,2.00,38.00,BKN,OVC,M,M,900.00,1200.00,M,M,RA BR,KHYA 011856Z AUTO 02021G38KT 2SM RA BR BKN009 OVC012 03/03 A2964 RMK AO2 PK WND 01038/1848 SLP036 P0004 T00330028 TSNO
HYA,2017-04-01 19:00,-70.2800,41.6700,M,M,M,20.00,19.00,0.01,29.64,M,2.00,28.00,BKN,OVC,M,M,800.00,1200.00,M,M,RA BR,KHYA 011900Z AUTO 02019G28KT 2SM RA BR BKN008 OVC012 A2964 RMK P0001 MADISHF
HYA,2017-04-01 19:05,-70.2800,41.6700,M,M,M,20.00,18.00,0.02,29.64,M,2.00,26.00,OVC,M,M,M,800.00,M,M,M,RA BR,KHYA 011905Z AUTO 02018G26KT 2SM RA BR OVC008 A2964 RMK P0002 MADISHF
HYA,2017-04-01 19:10,-70.2800,41.6700,M,M,M,20.00,21.00,0.03,29.64,M,2.50,27.00,OVC,M,M,M,900.00,M,M,M,RA BR,KHYA 011910Z AUTO 02021G27KT 2 1/2SM RA BR OVC009 A2964 RMK P0003 MADISHF
HYA,2017-04-01 19:15,-70.2800,41.6700,M,M,M,20.00,21.00,0.04,29.65,M,3.00,31.00,OVC,M,M,M,900.00,M,M,M,RA BR,KHYA 011915Z AUTO 02021G31KT 3SM RA BR OVC009 A2965 RMK P0004 MADISHF
HYA,2017-04-01 19:20,-70.2800,41.6700,M,M,M,20.00,21.00,0.04,29.64,M,3.00,28.00,OVC,M,M,M,900.00,M,M,M,RA BR,KHYA 011920Z AUTO 02021G28KT 3SM RA BR OVC009 A2964 RMK P0004 MADISHF
HYA,2017-04-01 19:21,-70.2800,41.6700,37.90,36.00,92.78,20.00,19.00,0.04,29.65,M,3.00,34.00,OVC,M,M,M,900.00,M,M,M,RA BR,KHYA 011921Z AUTO 02019G34KT 3SM RA BR OVC009 03/02 A2965 RMK AO2 PK WND 02035/1857 P0004 T00330022 TSNO
HYA,2017-04-01 19:25,-70.2800,41.6700,M,M,M,10.00,23.00,0.05,29.65,M,3.00,M,OVC,M,M,M,900.00,M,M,M,RA BR,KHYA 011925Z AUTO 01023KT 3SM RA BR OVC009 A2965 RMK P0005 MADISHF
HYA,2017-04-01 19:30,-70.2800,41.6700,M,M,M,20.00,18.00,0.06,29.65,M,3.00,M,OVC,M,M,M,900.00,M,M,M,RA BR,KHYA 011930Z AUTO 02018KT 3SM RA BR OVC009 A2965 RMK P0006 MADISHF
HYA,2017-04-01 19:35,-70.2800,41.6700,M,M,M,20.00,19.00,0.06,29.65,M,3.00,24.00,OVC,M,M,M,900.00,M,M,M,RA BR,KHYA 011935Z AUTO 02019G24KT 3SM RA BR OVC009 A2965 RMK P0006 MADISHF
HYA,2017-04-01 19:40,-70.2800,41.6700,M,M,M,10.00,21.00,0.07,29.64,M,3.00,26.00,OVC,M,M,M,900.00,M,M,M,RA BR,KHYA 011940Z AUTO 01021G26KT 3SM RA BR OVC009 A2964 RMK P0007 MADISHF
HYA,2017-04-01 19:45,-70.2800,41.6700,M,M,M,20.00,22.00,0.07,29.65,M,3.50,31.00,OVC,M,M,M,900.00,M,M,M,RA BR,KHYA 011945Z AUTO 02022G31KT 3SM RA BR OVC009 A2965 RMK P0007 MADISHF
HYA,2017-04-01 19:50,-70.2800,41.6700,M,M,M,20.00,21.00,0.07,29.65,M,4.00,M,OVC,M,M,M,900.00,M,M,M,-RA BR,KHYA 011950Z AUTO 02021KT 4SM -RA BR OVC009 A2965 RMK P0007 MADISHF
HYA,2017-04-01 19:55,-70.2800,41.6700,M,M,M,20.00,20.00,0.07,29.65,M,4.00,30.00,OVC,M,M,M,1100.00,M,M,M,-RA BR,KHYA 011955Z AUTO 02020G30KT 4SM -RA BR OVC011 A2965 RMK P0007 MADISHF
HYA,2017-04-01 19:56,-70.2800,41.6700,37.90,37.00,96.52,20.00,22.00,0.07,29.66,1004.30,4.00,30.00,OVC,M,M,M,1100.00,M,M,M,-RA BR,KHYA 011956Z AUTO 02022G30KT 4SM -RA BR OVC011 03/03 A2966 RMK AO2 PK WND 01036/1942 SLP043 P0007 T00330028 TSNO
HYA,2017-04-01 20:00,-70.2800,41.6700,M,M,M,20.00,21.00,M,29.66,M,5.00,M,OVC,M,M,M,1100.00,M,M,M,-RA BR,KHYA 012000Z AUTO 02021KT 5SM -RA BR OVC011 A2966 RMK MADISHF
HYA,2017-04-01 20:05,-70.2800,41.6700,M,M,M,20.00,19.00,M,29.66,M,5.00,30.00,OVC,M,M,M,999.00,M,M,M,-RA BR,KHYA 012005Z AUTO 02019G30KT 5SM -RA BR OVC009 A2966 RMK MADISHF
HYA,2017-04-01 20:10,-70.2800,41.6700,M,M,M,20.00,21.00,M,29.67,M,4.00,M,OVC,M,M,M,999.00,M,M,M,-RA BR,KHYA 012010Z AUTO 02021KT 4SM -RA BR OVC009 A2967 RMK MADISHF
HYA,2017-04-01 20:15,-70.2800,41.6700,M,M,M,10.00,18.00,M,29.66,M,4.00,25.00,OVC,M,M,M,999.00,M,M,M,-RA BR,KHYA 012015Z AUTO 01018G25KT 4SM -RA BR OVC009 A2966 RMK MADISHF
HYA,2017-04-01 20:20,-70.2800,41.6700,M,M,M,20.00,16.00,M,29.66,M,4.00,M,OVC,M,M,M,999.00,M,M,M,-RA BR,KHYA 012020Z AUTO 02016KT 4SM -RA BR OVC009 A2966 RMK MADISHF
HYA,2017-04-01 20:25,-70.2800,41.6700,M,M,M,20.00,19.00,0.01,29.66,M,5.00,27.00,BKN,OVC,M,M,1200.00,1600.00,M,M,-RA BR,KHYA 012025Z AUTO 02019G27KT 5SM -RA BR BKN012 OVC016 A2966 RMK P0001 MADISHF
HYA,2017-04-01 20:30,-70.2800,41.6700,M,M,M,10.00,18.00,0.01,29.67,M,6.00,M,OVC,M,M,M,1100.00,M,M,M,-RA BR,KHYA 012030Z AUTO 01018KT 6SM -RA BR OVC011 A2967 RMK P0001 MADISHF
HYA,2017-04-01 20:35,-70.2800,41.6700,M,M,M,10.00,23.00,0.01,29.67,M,7.00,30.00,OVC,M,M,M,1100.00,M,M,M,-RA,KHYA 012035Z AUTO 01023G30KT 7SM -RA OVC011 A2967 RMK P0001 MADISHF
HYA,2017-04-01 20:40,-70.2800,41.6700,M,M,M,10.00,21.00,0.01,29.67,M,7.00,28.00,OVC,M,M,M,1100.00,M,M,M,-RA,KHYA 012040Z AUTO 01021G28KT 7SM -RA OVC011 A2967 RMK P0001 MADISHF
HYA,2017-04-01 20:45,-70.2800,41.6700,M,M,M,10.00,17.00,0.01,29.68,M,6.00,22.00,OVC,M,M,M,1100.00,M,M,M,-RA BR,KHYA 012045Z AUTO 01017G22KT 6SM -RA BR OVC011 A2968 RMK P0001 MADISHF
HYA,2017-04-01 20:50,-70.2800,41.6700,M,M,M,20.00,19.00,0.01,29.68,M,5.00,M,OVC,M,M,M,1100.00,M,M,M,-RA BR,KHYA 012050Z AUTO 02019KT 5SM -RA BR OVC011 A2968 RMK P0001 MADISHF
HYA,2017-04-01 20:55,-70.2800,41.6700,M,M,M,20.00,18.00,0.01,29.69,M,5.00,26.00,BKN,OVC,M,M,900.00,1400.00,M,M,-SN BR,KHYA 012055Z AUTO 02018G26KT 5SM -SN BR BKN009 OVC014 A2969 RMK P0001 MADISHF
HYA,2017-04-01 20:56,-70.2800,41.6700,37.90,36.00,92.78,20.00,16.00,0.01,29.68,1005.20,5.00,28.00,OVC,M,M,M,900.00,M,M,M,-SN BR,KHYA 012056Z 02016G28KT 5SM -SN BR OVC009 03/02 A2968 RMK AO2 PK WND 01033/2035 RAE51SNB51 SLP052 P0001 60012 T00330022 53019
HYA,2017-04-01 21:00,-70.2800,41.6700,M,M,M,10.00,21.00,M,29.68,M,6.00,M,OVC,M,M,M,900.00,M,M,M,-RA BR,KHYA 012100Z AUTO 01021KT 6SM -RA BR OVC009 A2968 RMK MADISHF
HYA,2017-04-01 21:05,-70.2800,41.6700,M,M,M,20.00,17.00,M,29.69,M,6.00,25.00,OVC,M,M,M,900.00,M,M,M,-RA BR,KHYA 012105Z AUTO 02017G25KT 6SM -RA BR OVC009 A2969 RMK MADISHF
HYA,2017-04-01 21:10,-70.2800,41.6700,M,M,M,20.00,19.00,M,29.69,M,6.00,24.00,OVC,M,M,M,900.00,M,M,M,-RA BR,KHYA 012110Z AUTO 02019G24KT 6SM -RA BR OVC009 A2969 RMK MADISHF
HYA,2017-04-01 21:15,-70.2800,41.6700,M,M,M,20.00,19.00,M,29.70,M,6.00,M,OVC,M,M,M,900.00,M,M,M,-RA BR,KHYA 012115Z AUTO 02019KT 6SM -RA BR OVC009 A2970 RMK MADISHF
HYA,2017-04-01 21:20,-70.2800,41.6700,M,M,M,20.00,19.00,M,29.71,M,6.00,M,OVC,M,M,M,900.00,M,M,M,-RA BR,KHYA 012120Z AUTO 02019KT 6SM -RA BR OVC009 A2971 RMK MADISHF
HYA,2017-04-01 21:25,-70.2800,41.6700,M,M,M,10.00,18.00,M,29.71,M,7.00,24.00,OVC,M,M,M,900.00,M,M,M,-RA,KHYA 012125Z AUTO 01018G24KT 7SM -RA OVC009 A2971 RMK MADISHF
HYA,2017-04-01 21:30,-70.2800,41.6700,M,M,M,10.00,20.00,M,29.71,M,8.00,27.00,OVC,M,M,M,900.00,M,M,M,-RA,KHYA 012130Z AUTO 01020G27KT 8SM -RA OVC009 A2971 RMK MADISHF
HYA,2017-04-01 21:35,-70.2800,41.6700,M,M,M,10.00,19.00,M,29.72,M,9.00,24.00,OVC,M,M,M,900.00,M,M,M,-RA,KHYA 012135Z AUTO 01019G24KT 9SM -RA OVC009 A2972 RMK MADISHF
HYA,2017-04-01 21:40,-70.2800,41.6700,M,M,M,10.00,18.00,M,29.73,M,9.00,M,OVC,M,M,M,900.00,M,M,M,-RA,KHYA 012140Z AUTO 01018KT 9SM -RA OVC009 A2973 RMK MADISHF
HYA,2017-04-01 21:45,-70.2800,41.6700,M,M,M,20.00,18.00,M,29.73,M,10.00,M,OVC,M,M,M,999.00,M,M,M,-RA,KHYA 012145Z AUTO 02018KT 10SM -RA OVC009 A2973 RMK MADISHF
HYA,2017-04-01 21:50,-70.2800,41.6700,M,M,M,10.00,21.00,M,29.74,M,10.00,28.00,OVC,M,M,M,900.00,M,M,M,M,KHYA 012150Z AUTO 01021G28KT 10SM OVC009 A2974 RMK MADISHF
HYA,2017-04-01 21:55,-70.2800,41.6700,M,M,M,10.00,18.00,M,29.74,M,10.00,M,OVC,M,M,M,900.00,M,M,M,-RA,KHYA 012155Z AUTO 01018KT 10SM -RA OVC009 A2974 RMK MADISHF
HYA,2017-04-01 21:56,-70.2800,41.6700,37.90,35.10,89.53,10.00,19.00,0.00,29.75,1007.40,10.00,29.00,OVC,M,M,M,1000.00,M,M,M,-RA,KHYA 012156Z 01019G29KT 10SM -RA OVC010 03/02 A2975 RMK AO2 PK WND 02031/2131 RAB2058SNE2058 PRESRR SLP074 P0000 T00330017
HYA,2017-04-01 22:00,-70.2800,41.6700,M,M,M,10.00,20.00,M,29.75,M,8.00,27.00,OVC,M,M,M,999.00,M,M,M,-RA,KHYA 012200Z AUTO 01020G27KT 8SM -RA OVC009 A2975 RMK MADISHF
HYA,2017-04-01 22:05,-70.2800,41.6700,M,M,M,10.00,18.00,M,29.75,M,3.50,M,OVC,M,M,M,999.00,M,M,M,-SN BR,KHYA 012205Z AUTO 01018KT 3SM -SN BR OVC009 A2975 RMK MADISHF
HYA,2017-04-01 22:09,-70.2800,41.6700,37.00,35.10,92.76,10.00,22.00,0.00,29.76,M,1.75,31.00,OVC,M,M,M,1000.00,M,M,M,-SN BR,KHYA 012209Z 01022G31KT 1 3/4SM -SN BR OVC010 03/02 A2976 RMK AO2 PK WND 36031/2208 RAE02SNB02 P0000 T00280017
HYA,2017-04-01 22:10,-70.2800,41.6700,M,M,M,10.00,20.00,M,29.76,M,1.75,M,OVC,M,M,M,999.00,M,M,M,-SN BR,KHYA 012210Z AUTO 01020KT 2SM -SN BR OVC009 A2976 RMK MADISHF
HYA,2017-04-01 22:15,-70.2800,41.6700,M,M,M,10.00,18.00,M,29.77,M,1.25,26.00,OVC,M,M,M,999.00,M,M,M,-SN BR,KHYA 012215Z AUTO 01018G26KT 1 1/2SM -SN BR OVC009 A2977 RMK MADISHF
HYA,2017-04-01 22:20,-70.2800,41.6700,M,M,M,360.00,20.00,0.01,29.78,M,1.00,25.00,OVC,M,M,M,999.00,M,M,M,-SN BR,KHYA 012220Z AUTO 36020G25KT 1SM -SN BR OVC009 A2978 RMK P0001 MADISHF
HYA,2017-04-01 22:25,-70.2800,41.6700,M,M,M,10.00,19.00,0.01,29.78,M,1.00,30.00,OVC,M,M,M,900.00,M,M,M,-SN BR,KHYA 012225Z AUTO 01019G30KT 1SM -SN BR OVC009 A2978 RMK P0001 MADISHF
HYA,2017-04-01 22:27,-70.2800,41.6700,37.00,36.00,96.13,360.00,18.00,0.02,29.78,M,1.00,30.00,OVC,M,M,M,900.00,M,M,M,-SN BR,KHYA 012227Z 36018G30KT 1SM -SN BR OVC009 03/02 A2978 RMK AO2 PK WND 36032/2213 RAE02SNB02 PRESRR P0002 T00280022
HYA,2017-04-01 22:30,-70.2800,41.6700,M,M,M,10.00,18.00,0.02,29.79,M,1.75,26.00,OVC,M,M,M,900.00,M,M,M,-SN BR,KHYA 012230Z AUTO 01018G26KT 2SM -SN BR OVC009 A2979 RMK P0002 MADISHF
HYA,2017-04-01 22:35,-70.2800,41.6700,M,M,M,10.00,20.00,0.03,29.79,M,1.75,27.00,OVC,M,M,M,900.00,M,M,M,-SN BR,KHYA 012235Z AUTO 01020G27KT 2SM -SN BR OVC009 A2979 RMK P0003 MADISHF
HYA,2017-04-01 22:40,-70.2800,41.6700,M,M,M,10.00,19.00,0.03,29.79,M,1.75,26.00,OVC,M,M,M,800.00,M,M,M,-SN BR,KHYA 012240Z AUTO 01019G26KT 2SM -SN BR OVC008 A2979 RMK P0003 MADISHF
HYA,2017-04-01 22:45,-70.2800,41.6700,M,M,M,360.00,21.00,0.03,29.79,M,1.75,29.00,OVC,M,M,M,800.00,M,M,M,-SN BR,KHYA 012245Z AUTO 36021G29KT 2SM -SN BR OVC008 A2979 RMK P0003 MADISHF
HYA,2017-04-01 22:50,-70.2800,41.6700,M,M,M,10.00,19.00,0.04,29.79,M,1.75,27.00,OVC,M,M,M,800.00,M,M,M,-SN BR,KHYA 012250Z AUTO 01019G27KT 2SM -SN BR OVC008 A2979 RMK P0004 MADISHF
HYA,2017-04-01 22:55,-70.2800,41.6700,M,M,M,10.00,17.00,0.04,29.79,M,2.00,23.00,BKN,OVC,M,M,800.00,1300.00,M,M,-SN BR,KHYA 012255Z AUTO 01017G23KT 2SM -SN BR BKN008 OVC013 A2979 RMK P0004 MADISHF
HYA,2017-04-01 22:56,-70.2800,41.6700,37.00,35.10,92.76,10.00,17.00,0.04,29.80,1009.10,2.00,27.00,BKN,OVC,M,M,800.00,1300.00,M,M,-SN BR,KHYA 012256Z 01017G27KT 2SM -SN BR BKN008 OVC013 03/02 A2980 RMK AO2 PK WND 36033/2242 RAE02SNB02 SLP091 P0004 T00280017
HYA,2017-04-01 23:00,-70.2800,41.6700,M,M,M,20.00,18.00,M,29.80,M,2.00,25.00,BKN,OVC,M,M,800.00,1300.00,M,M,-SN BR,KHYA 012300Z AUTO 02018G25KT 2SM -SN BR BKN008 OVC013 A2980 RMK MADISHF
HYA,2017-04-01 23:05,-70.2800,41.6700,M,M,M,10.00,19.00,M,29.79,M,2.00,27.00,BKN,OVC,M,M,800.00,1300.00,M,M,-SN BR,KHYA 012305Z AUTO 01019G27KT 2SM -SN BR BKN008 OVC013 A2979 RMK MADISHF
HYA,2017-04-01 23:10,-70.2800,41.6700,M,M,M,10.00,16.00,M,29.80,M,2.00,M,BKN,OVC,M,M,900.00,1400.00,M,M,-SN BR,KHYA 012310Z AUTO 01016KT 2SM -SN BR BKN009 OVC014 A2980 RMK MADISHF
HYA,2017-04-01 23:15,-70.2800,41.6700,M,M,M,10.00,20.00,M,29.80,M,2.00,30.00,BKN,OVC,M,M,900.00,1400.00,M,M,-SN BR,KHYA 012315Z AUTO 01020G30KT 2SM -SN BR BKN009 OVC014 A2980 RMK MADISHF
HYA,2017-04-01 23:20,-70.2800,41.6700,M,M,M,10.00,19.00,M,29.81,M,2.00,26.00,BKN,OVC,M,M,900.00,1400.00,M,M,-SN BR,KHYA 012320Z AUTO 01019G26KT 2SM -SN BR BKN009 OVC014 A2981 RMK MADISHF
HYA,2017-04-01 23:22,-70.2800,41.6700,37.00,35.10,92.76,10.00,21.00,0.00,29.81,M,5.00,31.00,BKN,OVC,M,M,900.00,1300.00,M,M,-SN BR,KHYA 012322Z 01021G31KT 5SM -SN BR BKN009 OVC013 03/02 A2981 RMK AO2 PK WND 02031/2315 P0000 T00280017
HYA,2017-04-01 23:25,-70.2800,41.6700,M,M,M,10.00,20.00,M,29.81,M,4.00,M,OVC,M,M,M,900.00,M,M,M,-SN BR,KHYA 012325Z AUTO 01020KT 4SM -SN BR OVC009 A2981 RMK MADISHF
HYA,2017-04-01 23:30,-70.2800,41.6700,M,M,M,10.00,22.00,0.00,29.81,M,4.00,M,OVC,M,M,M,900.00,M,M,M,UP BR,KHYA 012330Z AUTO 01022KT 4SM UP BR OVC009 A2981 RMK P0000 CIG 7V11  MADISHF
HYA,2017-04-01 23:35,-70.2800,41.6700,M,M,M,10.00,20.00,0.00,29.81,M,4.00,27.00,OVC,M,M,M,900.00,M,M,M,UP BR,KHYA 012335Z AUTO 01020G27KT 4SM UP BR OVC009 A2981 RMK P0000 CIG 7V14  MADISHF
HYA,2017-04-01 23:40,-70.2800,41.6700,M,M,M,360.00,18.00,0.00,29.82,M,4.00,M,OVC,M,M,M,900.00,M,M,M,UP BR,KHYA 012340Z AUTO 36018KT 4SM UP BR OVC009 A2982 RMK P0000 CIG 7V14  MADISHF
HYA,2017-04-01 23:45,-70.2800,41.6700,M,M,M,10.00,20.00,0.01,29.82,M,4.00,31.00,OVC,M,M,M,999.00,M,M,M,-RA BR,KHYA 012345Z AUTO 01020G31KT 4SM -RA BR OVC009 A2982 RMK P0001 CIG 8V14  MADISHF
HYA,2017-04-01 23:48,-70.2800,41.6700,37.00,35.10,92.76,10.00,18.00,0.01,29.82,M,4.00,32.00,OVC,M,M,M,1000.00,M,M,M,-RA BR,KHYA 012348Z 01018G32KT 4SM -RA BR OVC010 03/02 A2982 RMK AO2 PK WND 36036/2329 UPB27E41RAB41SNE27 CIG 008V013 P0001 T00280017
HYA,2017-04-01 23:50,-70.2800,41.6700,M,M,M,10.00,17.00,0.01,29.82,M,4.00,M,OVC,M,M,M,999.00,M,M,M,-RA BR,KHYA 012350Z AUTO 01017KT 4SM -RA BR OVC009 A2982 RMK P0001 CIG 8V13  MADISHF
HYA,2017-04-01 23:55,-70.2800,41.6700,M,M,M,360.00,16.00,0.02,29.83,M,6.00,M,OVC,M,M,M,999.00,M,M,M,-RA BR,KHYA 012355Z AUTO 36016KT 6SM -RA BR OVC009 A2983 RMK P0002 CIG 8V13  MADISHF
HYA,2017-04-01 23:56,-70.2800,41.6700,37.00,35.10,92.76,360.00,16.00,0.02,29.83,1010.20,6.00,30.00,OVC,M,M,M,1000.00,M,M,M,-RA BR,KHYA 012356Z 36016G30KT 6SM -RA BR OVC010 03/02 A2983 RMK AO2 PK WND 36036/2329 UPB27E41RAB41SNE27 SLP102 P0002 60018 T00280017 10039 20028 51050
