#DEBUG: Format Typ    -> comma
#DEBUG: Time Period   -> 2017-04-01 00:00:00+00:00 2017-04-02 00:00:00+00:00
#DEBUG: Time Zone     -> Etc/UTC
#DEBUG: Data Contact   -> daryl herzmann akrherz@iastate.edu 515-294-5978
#DEBUG: Entries Found -> -1
station,valid,lon,lat,tmpf, dwpf, relh, drct, sknt, p01i, alti, mslp, vsby, gust, skyc1, skyc2, skyc3, skyc4, skyl1, skyl2, skyl3, skyl4, presentwx, metar
ICL,2017-04-01 00:00,-95.0223,40.7242,51.80,44.60,76.34,20.00,7.00,0.00,30.04,M,10.00,12.00,BKN,OVC,M,M,3400.00,4000.00,M,M,M,KICL 010000Z AUTO 02007G12KT 10SM BKN034 OVC040 11/07 A3004 RMK AO2 PWINO
ICL,2017-04-01 00:10,-95.0223,40.7242,51.80,42.80,71.26,20.00,11.00,0.00,30.04,M,10.00,M,OVC,M,M,M,3400.00,M,M,M,M,KICL 010010Z AUTO 02011KT 10SM OVC034 11/06 A3004 RMK AO2 PWINO
ICL,2017-04-01 00:15,-95.0223,40.7242,51.80,42.80,71.26,20.00,10.00,0.00,30.04,M,10.00,M,OVC,M,M,M,3400.00,M,M,M,M,KICL 010015Z AUTO 02010KT 10SM OVC034 11/06 A3004 RMK AO2 PWINO
ICL,2017-04-01 00:20,-95.0223,40.7242,51.80,42.80,71.26,10.00,8.00,0.00,30.05,M,10.00,13.00,OVC,M,M,M,3500.00,M,M,M,M,KICL 010020Z AUTO 01008G13KT 10SM OVC035 11/06 A3005 RMK AO2 PWINO
ICL,2017-04-01 00:30,-95.0223,40.7242,50.00,42.80,76.18,20.00,9.00,0.00,30.05,M,10.00,15.00,OVC,M,M,M,3600.00,M,M,M,M,KICL 010030Z AUTO 02009G15KT 10SM OVC036 10/06 A3005 RMK AO2 PWINO
ICL,2017-04-01 00:35,-95.0223,40.7242,50.00,42.80,76.18,20.00,9.00,0.00,30.05,M,10.00,15.00,OVC,M,M,M,3600.00,M,M,M,M,KICL 010035Z AUTO 02009G15KT 10SM OVC036 10/06 A3005 RMK AO2 PWINO
ICL,2017-04-01 00:40,-95.0223,40.7242,50.00,42.80,76.18,30.00,8.00,0.00,30.05,M,10.00,M,OVC,M,M,M,3700.00,M,M,M,M,KICL 010040Z AUTO 03008KT 10SM OVC037 10/06 A3005 RMK AO2 PWINO
ICL,2017-04-01 00:50,-95.0223,40.7242,50.00,42.80,76.18,40.00,8.00,0.00,30.06,M,10.00,M,OVC,M,M,M,3700.00,M,M,M,M,KICL 010050Z AUTO 04008KT 10SM OVC037 10/06 A3006 RMK AO2 PWINO
ICL,2017-04-01 00:55,-95.0223,40.7242,50.00,42.80,76.18,30.00,7.00,0.00,30.06,M,10.00,M,OVC,M,M,M,3500.00,M,M,M,M,KICL 010055Z AUTO 03007KT 10SM OVC035 10/06 A3006 RMK AO2 PWINO
ICL,2017-04-01 01:00,-95.0223,40.7242,50.00,42.80,76.18,30.00,7.00,0.00,30.07,M,10.00,M,BKN,OVC,M,M,3300.00,3900.00,M,M,M,KICL 010100Z AUTO 03007KT 10SM BKN033 OVC039 10/06 A3007 RMK AO2 PWINO
ICL,2017-04-01 01:10,-95.0223,40.7242,50.00,42.80,76.18,40.00,6.00,0.00,30.07,M,10.00,M,OVC,M,M,M,3100.00,M,M,M,M,KICL 010110Z AUTO 04006KT 10SM OVC031 10/06 A3007 RMK AO2 PWINO
ICL,2017-04-01 01:15,-95.0223,40.7242,50.00,42.80,76.18,40.00,7.00,0.00,30.07,M,10.00,M,OVC,M,M,M,3200.00,M,M,M,M,KICL 010115Z AUTO 04007KT 10SM OVC032 10/06 A3007 RMK AO2 PWINO
ICL,2017-04-01 01:20,-95.0223,40.7242,50.00,42.80,76.18,40.00,7.00,0.00,30.07,M,10.00,M,BKN,OVC,M,M,3200.00,3800.00,M,M,M,KICL 010120Z AUTO 04007KT 10SM BKN032 OVC038 10/06 A3007 RMK AO2 PWINO
ICL,2017-04-01 01:30,-95.0223,40.7242,50.00,42.80,76.18,50.00,7.00,0.00,30.07,M,10.00,M,OVC,M,M,M,3500.00,M,M,M,M,KICL 010130Z AUTO 05007KT 10SM OVC035 10/06 A3007 RMK AO2 PWINO
ICL,2017-04-01 01:35,-95.0223,40.7242,50.00,42.80,76.18,60.00,7.00,0.00,30.06,M,10.00,M,OVC,M,M,M,3500.00,M,M,M,M,KICL 010135Z AUTO 06007KT 10SM OVC035 10/06 A3006 RMK AO2 PWINO
ICL,2017-04-01 01:40,-95.0223,40.7242,50.00,42.80,76.18,60.00,9.00,0.00,30.06,M,10.00,M,OVC,M,M,M,3600.00,M,M,M,M,KICL 010140Z AUTO 06009KT 10SM OVC036 10/06 A3006 RMK AO2 PWINO
ICL,2017-04-01 01:50,-95.0223,40.7242,50.00,42.80,76.18,70.00,9.00,0.00,30.06,M,10.00,M,OVC,M,M,M,3600.00,M,M,M,M,KICL 010150Z AUTO 07009KT 10SM OVC036 10/06 A3006 RMK AO2 PWINO
ICL,2017-04-01 01:55,-95.0223,40.7242,50.00,42.80,76.18,70.00,9.00,0.00,30.06,M,10.00,M,OVC,M,M,M,3600.00,M,M,M,M,KICL 010155Z AUTO 07009KT 10SM OVC036 10/06 A3006 RMK AO2 PWINO
ICL,2017-04-01 02:00,-95.0223,40.7242,48.20,42.80,81.47,60.00,8.00,0.00,30.07,M,10.00,M,OVC,M,M,M,3600.00,M,M,M,M,KICL 010200Z AUTO 06008KT 10SM OVC036 09/06 A3007 RMK AO2 PWINO
ICL,2017-04-01 02:10,-95.0223,40.7242,48.20,41.00,76.01,70.00,9.00,0.00,30.08,M,10.00,14.00,OVC,M,M,M,3700.00,M,M,M,M,KICL 010210Z AUTO 07009G14KT 10SM OVC037 09/05 A3008 RMK AO2 PWINO
ICL,2017-04-01 02:15,-95.0223,40.7242,48.20,41.00,76.01,70.00,9.00,0.00,30.08,M,10.00,14.00,OVC,M,M,M,3700.00,M,M,M,M,KICL 010215Z AUTO 07009G14KT 10SM OVC037 09/05 A3008 RMK AO2 PWINO
ICL,2017-04-01 02:20,-95.0223,40.7242,48.20,41.00,76.01,70.00,8.00,0.00,30.08,M,10.00,M,OVC,M,M,M,3800.00,M,M,M,M,KICL 010220Z AUTO 07008KT 10SM OVC038 09/05 A3008 RMK AO2 PWINO
ICL,2017-04-01 02:30,-95.0223,40.7242,48.20,41.00,76.01,70.00,7.00,0.00,30.08,M,10.00,M,OVC,M,M,M,3800.00,M,M,M,M,KICL 010230Z AUTO 07007KT 10SM OVC038 09/05 A3008 RMK AO2 PWINO
ICL,2017-04-01 02:35,-95.0223,40.7242,48.20,41.00,76.01,70.00,7.00,0.00,30.08,M,10.00,M,OVC,M,M,M,3800.00,M,M,M,M,KICL 010235Z AUTO 07007KT 10SM OVC038 09/05 A3008 RMK AO2 PWINO
ICL,2017-04-01 02:40,-95.0223,40.7242,48.20,41.00,76.01,60.00,7.00,0.00,30.09,M,10.00,M,OVC,M,M,M,3800.00,M,M,M,M,KICL 010240Z AUTO 06007KT 10SM OVC038 09/05 A3009 RMK AO2 PWINO
ICL,2017-04-01 02:50,-95.0223,40.7242,48.20,41.00,76.01,60.00,7.00,0.00,30.09,M,10.00,M,OVC,M,M,M,3800.00,M,M,M,M,KICL 010250Z AUTO 06007KT 10SM OVC038 09/05 A3009 RMK AO2 PWINO
ICL,2017-04-01 02:55,-95.0223,40.7242,48.20,41.00,76.01,60.00,6.00,0.00,30.10,M,10.00,M,OVC,M,M,M,3800.00,M,M,M,M,KICL 010255Z AUTO 06006KT 10SM OVC038 09/05 A3010 RMK AO2 PWINO
ICL,2017-04-01 03:00,-95.0223,40.7242,48.20,41.00,76.01,70.00,7.00,0.00,30.10,M,10.00,M,OVC,M,M,M,3800.00,M,M,M,M,KICL 010300Z AUTO 07007KT 10SM OVC038 09/05 A3010 RMK AO2 PWINO
ICL,2017-04-01 03:10,-95.0223,40.7242,48.20,41.00,76.01,60.00,7.00,0.00,30.11,M,10.00,12.00,OVC,M,M,M,3800.00,M,M,M,M,KICL 010310Z AUTO 06007G12KT 10SM OVC038 09/05 A3011 RMK AO2 PWINO
ICL,2017-04-01 03:15,-95.0223,40.7242,48.20,41.00,76.01,70.00,5.00,0.00,30.11,M,10.00,12.00,OVC,M,M,M,3800.00,M,M,M,M,KICL 010315Z AUTO 07005G12KT 10SM OVC038 09/05 A3011 RMK AO2 PWINO
ICL,2017-04-01 03:20,-95.0223,40.7242,46.40,41.00,81.34,70.00,7.00,0.00,30.11,M,10.00,M,OVC,M,M,M,3800.00,M,M,M,M,KICL 010320Z AUTO 07007KT 10SM OVC038 08/05 A3011 RMK AO2 PWINO
ICL,2017-04-01 03:30,-95.0223,40.7242,46.40,41.00,81.34,80.00,6.00,0.00,30.12,M,10.00,M,OVC,M,M,M,3800.00,M,M,M,M,KICL 010330Z AUTO 08006KT 10SM OVC038 08/05 A3012 RMK AO2 PWINO
ICL,2017-04-01 03:35,-95.0223,40.7242,46.40,41.00,81.34,70.00,5.00,0.00,30.12,M,10.00,10.00,OVC,M,M,M,3800.00,M,M,M,M,KICL 010335Z AUTO 07005G10KT 10SM OVC038 08/05 A3012 RMK AO2 PWINO
ICL,2017-04-01 03:40,-95.0223,40.7242,46.40,41.00,81.34,90.00,6.00,0.00,30.12,M,10.00,M,OVC,M,M,M,3800.00,M,M,M,M,KICL 010340Z AUTO 09006KT 10SM OVC038 08/05 A3012 RMK AO2 PWINO
ICL,2017-04-01 03:50,-95.0223,40.7242,46.40,41.00,81.34,80.00,5.00,0.00,30.12,M,10.00,M,OVC,M,M,M,3800.00,M,M,M,M,KICL 010350Z AUTO 08005KT 10SM OVC038 08/05 A3012 RMK AO2 PWINO
ICL,2017-04-01 03:55,-95.0223,40.7242,46.40,41.00,81.34,0.00,0.00,0.00,30.13,M,10.00,M,OVC,M,M,M,3800.00,M,M,M,M,KICL 010355Z AUTO 00000KT 10SM OVC038 08/05 A3013 RMK AO2 PWINO
ICL,2017-04-01 04:00,-95.0223,40.7242,46.40,41.00,81.34,80.00,4.00,0.00,30.13,M,10.00,M,OVC,M,M,M,3700.00,M,M,M,M,KICL 010400Z AUTO 08004KT 10SM OVC037 08/05 A3013 RMK AO2 PWINO
ICL,2017-04-01 04:10,-95.0223,40.7242,46.40,41.00,81.34,80.00,6.00,0.00,30.13,M,10.00,M,OVC,M,M,M,3700.00,M,M,M,M,KICL 010410Z AUTO 08006KT 10SM OVC037 08/05 A3013 RMK AO2 PWINO
ICL,2017-04-01 04:15,-95.0223,40.7242,46.40,41.00,81.34,90.00,4.00,0.00,30.13,M,10.00,M,OVC,M,M,M,3700.00,M,M,M,M,KICL 010415Z AUTO 09004KT 10SM OVC037 08/05 A3013 RMK AO2 PWINO
ICL,2017-04-01 04:20,-95.0223,40.7242,46.40,41.00,81.34,90.00,6.00,0.00,30.13,M,10.00,M,OVC,M,M,M,3700.00,M,M,M,M,KICL 010420Z AUTO 09006KT 10SM OVC037 08/05 A3013 RMK AO2 PWINO
ICL,2017-04-01 04:30,-95.0223,40.7242,46.40,41.00,81.34,M,6.00,0.00,30.13,M,10.00,M,OVC,M,M,M,3700.00,M,M,M,M,KICL 010430Z AUTO VRB06KT 10SM OVC037 08/05 A3013 RMK AO2 PWINO
ICL,2017-04-01 04:35,-95.0223,40.7242,46.40,41.00,81.34,90.00,6.00,0.00,30.13,M,10.00,M,OVC,M,M,M,3700.00,M,M,M,M,KICL 010435Z AUTO 09006KT 10SM OVC037 08/05 A3013 RMK AO2 PWINO
ICL,2017-04-01 04:40,-95.0223,40.7242,46.40,41.00,81.34,100.00,5.00,0.00,30.14,M,10.00,M,OVC,M,M,M,3700.00,M,M,M,M,KICL 010440Z AUTO 10005KT 10SM OVC037 08/05 A3014 RMK AO2 PWINO
ICL,2017-04-01 04:50,-95.0223,40.7242,44.60,39.20,81.20,M,6.00,0.00,30.14,M,10.00,M,OVC,M,M,M,3800.00,M,M,M,M,KICL 010450Z AUTO VRB06KT 10SM OVC038 07/04 A3014 RMK AO2 PWINO
ICL,2017-04-01 04:55,-95.0223,40.7242,44.60,39.20,81.20,70.00,4.00,0.00,30.14,M,10.00,11.00,OVC,M,M,M,3900.00,M,M,M,M,KICL 010455Z AUTO 07004G11KT 10SM OVC039 07/04 A3014 RMK AO2 PWINO
ICL,2017-04-01 05:00,-95.0223,40.7242,44.60,39.20,81.20,60.00,5.00,0.00,30.14,M,10.00,M,OVC,M,M,M,4000.00,M,M,M,M,KICL 010500Z AUTO 06005KT 10SM OVC040 07/04 A3014 RMK AO2 PWINO
ICL,2017-04-01 05:10,-95.0223,40.7242,44.60,39.20,81.20,80.00,6.00,0.00,30.14,M,10.00,M,BKN,M,M,M,4000.00,M,M,M,M,KICL 010510Z AUTO 08006KT 10SM BKN040 07/04 A3014 RMK AO2 PWINO
ICL,2017-04-01 05:15,-95.0223,40.7242,44.60,39.20,81.20,M,6.00,0.00,30.15,M,10.00,M,BKN,M,M,M,4100.00,M,M,M,M,KICL 010515Z AUTO VRB06KT 10SM BKN041 07/04 A3015 RMK AO2 PWINO
ICL,2017-04-01 05:20,-95.0223,40.7242,44.60,39.20,81.20,70.00,6.00,0.00,30.15,M,10.00,M,SCT,M,M,M,4100.00,M,M,M,M,KICL 010520Z AUTO 07006KT 10SM SCT041 07/04 A3015 RMK AO2 PWINO
ICL,2017-04-01 05:30,-95.0223,40.7242,42.80,39.20,86.99,70.00,5.00,0.00,30.15,M,10.00,M,FEW,M,M,M,4100.00,M,M,M,M,KICL 010530Z AUTO 07005KT 10SM FEW041 06/04 A3015 RMK AO2 PWINO
ICL,2017-04-01 05:35,-95.0223,40.7242,42.80,39.20,86.99,70.00,5.00,0.00,30.16,M,10.00,M,FEW,M,M,M,4100.00,M,M,M,M,KICL 010535Z AUTO 07005KT 10SM FEW041 06/04 A3016 RMK AO2 PWINO
ICL,2017-04-01 05:40,-95.0223,40.7242,42.80,39.20,86.99,70.00,4.00,0.00,30.16,M,10.00,M,CLR,M,M,M,M,M,M,M,M,KICL 010540Z AUTO 07004KT 10SM CLR 06/04 A3016 RMK AO2 PWINO
ICL,2017-04-01 05:50,-95.0223,40.7242,42.80,39.20,86.99,0.00,0.00,0.00,30.17,M,10.00,M,CLR,M,M,M,M,M,M,M,M,KICL 010550Z AUTO 00000KT 10SM CLR 06/04 A3017 RMK AO2 PWINO
ICL,2017-04-01 05:55,-95.0223,40.7242,42.80,39.20,86.99,0.00,0.00,0.00,30.18,M,10.00,M,CLR,M,M,M,M,M,M,M,M,KICL 010555Z AUTO 00000KT 10SM CLR 06/04 A3018 RMK AO2 PWINO
ICL,2017-04-01 06:00,-95.0223,40.7242,42.80,39.20,86.99,0.00,0.00,0.00,30.18,M,10.00,M,CLR,M,M,M,M,M,M,M,M,KICL 010600Z AUTO 00000KT 10SM CLR 06/04 A3018 RMK AO2 PWINO
ICL,2017-04-01 06:10,-95.0223,40.7242,42.80,39.20,86.99,0.00,0.00,0.00,30.18,M,10.00,M,CLR,M,M,M,M,M,M,M,M,KICL 010610Z AUTO 00000KT 10SM CLR 06/04 A3018 RMK AO2 PWINO
ICL,2017-04-01 06:15,-95.0223,40.7242,42.80,39.20,86.99,90.00,3.00,0.00,30.18,M,10.00,M,CLR,M,M,M,M,M,M,M,M,KICL 010615Z AUTO 09003KT 10SM CLR 06/04 A3018 RMK AO2 PWINO
ICL,2017-04-01 06:20,-95.0223,40.7242,42.80,39.20,86.99,0.00,0.00,0.00,30.18,M,10.00,M,CLR,M,M,M,M,M,M,M,M,KICL 010620Z AUTO 00000KT 10SM CLR 06/04 A3018 RMK AO2 PWINO
ICL,2017-04-01 06:30,-95.0223,40.7242,42.80,39.20,86.99,60.00,3.00,0.00,30.19,M,10.00,M,CLR,M,M,M,M,M,M,M,M,KICL 010630Z AUTO 06003KT 10SM CLR 06/04 A3019 RMK AO2 PWINO
ICL,2017-04-01 06:35,-95.0223,40.7242,42.80,39.20,86.99,0.00,0.00,0.00,30.19,M,10.00,M,FEW,M,M,M,3500.00,M,M,M,M,KICL 010635Z AUTO 00000KT 10SM FEW035 06/04 A3019 RMK AO2 PWINO
ICL,2017-04-01 06:40,-95.0223,40.7242,41.00,39.20,93.24,0.00,0.00,0.00,30.19,M,10.00,M,FEW,M,M,M,3500.00,M,M,M,M,KICL 010640Z AUTO 00000KT 10SM FEW035 05/04 A3019 RMK AO2 PWINO
ICL,2017-04-01 06:50,-95.0223,40.7242,41.00,39.20,93.24,0.00,0.00,0.00,30.19,M,10.00,M,FEW,M,M,M,3500.00,M,M,M,M,KICL 010650Z AUTO 00000KT 10SM FEW035 05/04 A3019 RMK AO2 PWINO
ICL,2017-04-01 06:55,-95.0223,40.7242,41.00,39.20,93.24,50.00,3.00,0.00,30.19,M,10.00,M,FEW,M,M,M,3500.00,M,M,M,M,KICL 010655Z AUTO 05003KT 10SM FEW035 05/04 A3019 RMK AO2 PWINO
ICL,2017-04-01 07:00,-95.0223,40.7242,41.00,39.20,93.24,0.00,0.00,0.00,30.19,M,10.00,M,FEW,M,M,M,3500.00,M,M,M,M,KICL 010700Z AUTO 00000KT 10SM FEW035 05/04 A3019 RMK AO2 PWINO
ICL,2017-04-01 07:10,-95.0223,40.7242,41.00,39.20,93.24,60.00,3.00,0.00,30.18,M,10.00,M,CLR,M,M,M,M,M,M,M,M,KICL 010710Z AUTO 06003KT 10SM CLR 05/04 A3018 RMK AO2 PWINO
ICL,2017-04-01 07:15,-95.0223,40.7242,41.00,39.20,93.24,40.00,3.00,0.00,30.18,M,10.00,M,CLR,M,M,M,M,M,M,M,M,KICL 010715Z AUTO 04003KT 10SM CLR 05/04 A3018 RMK AO2 PWINO
ICL,2017-04-01 07:20,-95.0223,40.7242,39.20,39.20,100.00,40.00,3.00,0.00,30.18,M,10.00,M,CLR,M,M,M,M,M,M,M,M,KICL 010720Z AUTO 04003KT 10SM CLR 04/04 A3018 RMK AO2 PWINO
ICL,2017-04-01 07:30,-95.0223,40.7242,39.20,39.20,100.00,0.00,0.00,0.00,30.18,M,10.00,M,CLR,M,M,M,M,M,M,M,M,KICL 010730Z AUTO 00000KT 10SM CLR 04/04 A3018 RMK AO2 PWINO
ICL,2017-04-01 07:35,-95.0223,40.7242,39.20,39.20,100.00,0.00,0.00,0.00,30.17,M,10.00,M,CLR,M,M,M,M,M,M,M,M,KICL 010735Z AUTO 00000KT 10SM CLR 04/04 A3017 RMK AO2 PWINO
ICL,2017-04-01 07:40,-95.0223,40.7242,39.20,39.20,100.00,0.00,0.00,0.00,30.17,M,10.00,M,CLR,M,M,M,M,M,M,M,M,KICL 010740Z AUTO 00000KT 10SM CLR 04/04 A3017 RMK AO2 PWINO
ICL,2017-04-01 07:50,-95.0223,40.7242,39.20,39.20,100.00,0.00,0.00,0.00,30.18,M,10.00,M,CLR,M,M,M,M,M,M,M,M,KICL 010750Z AUTO 00000KT 10SM CLR 04/04 A3018 RMK AO2 PWINO
ICL,2017-04-01 07:55,-95.0223,40.7242,39.20,39.20,100.00,0.00,0.00,0.00,30.18,M,10.00,M,FEW,M,M,M,3400.00,M,M,M,M,KICL 010755Z AUTO 00000KT 10SM FEW034 04/04 A3018 RMK AO2 PWINO
ICL,2017-04-01 08:00,-95.0223,40.7242,39.20,39.20,100.00,60.00,3.00,0.00,30.17,M,10.00,M,FEW,M,M,M,3400.00,M,M,M,M,KICL 010800Z AUTO 06003KT 10SM FEW034 04/04 A3017 RMK AO2 PWINO
ICL,2017-04-01 08:10,-95.0223,40.7242,41.00,39.20,93.24,0.00,0.00,0.00,30.17,M,10.00,M,SCT,SCT,SCT,M,2000.00,2600.00,3400.00,M,M,KICL 010810Z AUTO 00000KT 10SM SCT020 SCT026 SCT034 05/04 A3017 RMK AO2 PWINO
ICL,2017-04-01 08:15,-95.0223,40.7242,41.00,39.20,93.24,90.00,4.00,0.00,30.17,M,10.00,M,SCT,SCT,SCT,M,2000.00,2600.00,3400.00,M,M,KICL 010815Z AUTO 09004KT 10SM SCT020 SCT026 SCT034 05/04 A3017 RMK AO2 PWINO
ICL,2017-04-01 08:20,-95.0223,40.7242,41.00,39.20,93.24,0.00,0.00,0.00,30.17,M,10.00,M,SCT,SCT,SCT,M,1900.00,2600.00,3500.00,M,M,KICL 010820Z AUTO 00000KT 10SM SCT019 SCT026 SCT035 05/04 A3017 RMK AO2 PWINO
ICL,2017-04-01 08:30,-95.0223,40.7242,41.00,39.20,93.24,0.00,0.00,0.00,30.17,M,10.00,M,BKN,M,M,M,1900.00,M,M,M,M,KICL 010830Z AUTO 00000KT 10SM BKN019 05/04 A3017 RMK AO2 PWINO
ICL,2017-04-01 08:35,-95.0223,40.7242,41.00,39.20,93.24,0.00,0.00,0.00,30.18,M,10.00,M,BKN,M,M,M,1900.00,M,M,M,M,KICL 010835Z AUTO 00000KT 10SM BKN019 05/04 A3018 RMK AO2 PWINO
ICL,2017-04-01 08:40,-95.0223,40.7242,41.00,39.20,93.24,0.00,0.00,0.00,30.18,M,10.00,M,BKN,M,M,M,1900.00,M,M,M,M,KICL 010840Z AUTO 00000KT 10SM BKN019 05/04 A3018 RMK AO2 PWINO
ICL,2017-04-01 08:50,-95.0223,40.7242,41.00,39.20,93.24,0.00,0.00,0.00,30.19,M,10.00,M,OVC,M,M,M,1900.00,M,M,M,M,KICL 010850Z AUTO 00000KT 10SM OVC019 05/04 A3019 RMK AO2 PWINO
ICL,2017-04-01 08:55,-95.0223,40.7242,41.00,39.20,93.24,0.00,0.00,0.00,30.19,M,10.00,M,OVC,M,M,M,1900.00,M,M,M,M,KICL 010855Z AUTO 00000KT 10SM OVC019 05/04 A3019 RMK AO2 PWINO
ICL,2017-04-01 09:00,-95.0223,40.7242,41.00,39.20,93.24,0.00,0.00,0.00,30.18,M,10.00,M,OVC,M,M,M,1900.00,M,M,M,M,KICL 010900Z AUTO 00000KT 10SM OVC019 05/04 A3018 RMK AO2 PWINO
ICL,2017-04-01 09:10,-95.0223,40.7242,41.00,39.20,93.24,80.00,3.00,0.00,30.18,M,10.00,M,OVC,M,M,M,1900.00,M,M,M,M,KICL 010910Z AUTO 08003KT 10SM OVC019 05/04 A3018 RMK AO2 PWINO
ICL,2017-04-01 09:15,-95.0223,40.7242,41.00,39.20,93.24,100.00,4.00,0.00,30.18,M,10.00,M,OVC,M,M,M,1800.00,M,M,M,M,KICL 010915Z AUTO 10004KT 10SM OVC018 05/04 A3018 RMK AO2 PWINO
ICL,2017-04-01 09:20,-95.0223,40.7242,41.00,39.20,93.24,0.00,0.00,0.00,30.18,M,10.00,M,OVC,M,M,M,1700.00,M,M,M,M,KICL 010920Z AUTO 00000KT 10SM OVC017 05/04 A3018 RMK AO2 PWINO
ICL,2017-04-01 09:30,-95.0223,40.7242,42.80,39.20,86.99,0.00,0.00,0.00,30.20,M,10.00,M,OVC,M,M,M,1600.00,M,M,M,M,KICL 010930Z AUTO 00000KT 10SM OVC016 06/04 A3020 RMK AO2 PWINO
ICL,2017-04-01 09:35,-95.0223,40.7242,42.80,39.20,86.99,140.00,3.00,0.00,30.20,M,10.00,M,OVC,M,M,M,1500.00,M,M,M,M,KICL 010935Z AUTO 14003KT 10SM OVC015 06/04 A3020 RMK AO2 PWINO
ICL,2017-04-01 09:40,-95.0223,40.7242,42.80,39.20,86.99,0.00,0.00,0.00,30.20,M,10.00,M,OVC,M,M,M,1500.00,M,M,M,M,KICL 010940Z AUTO 00000KT 10SM OVC015 06/04 A3020 RMK AO2 PWINO
ICL,2017-04-01 09:50,-95.0223,40.7242,42.80,39.20,86.99,120.00,3.00,0.00,30.21,M,10.00,M,OVC,M,M,M,1500.00,M,M,M,M,KICL 010950Z AUTO 12003KT 10SM OVC015 06/04 A3021 RMK AO2 PWINO
ICL,2017-04-01 09:55,-95.0223,40.7242,42.80,39.20,86.99,120.00,4.00,0.00,30.20,M,10.00,M,OVC,M,M,M,1500.00,M,M,M,M,KICL 010955Z AUTO 12004KT 10SM OVC015 06/04 A3020 RMK AO2 PWINO
ICL,2017-04-01 10:00,-95.0223,40.7242,42.80,39.20,86.99,M,3.00,0.00,30.21,M,10.00,M,OVC,M,M,M,1500.00,M,M,M,M,KICL 011000Z AUTO VRB03KT 10SM OVC015 06/04 A3021 RMK AO2 PWINO
ICL,2017-04-01 10:10,-95.0223,40.7242,42.80,37.40,81.07,90.00,4.00,0.00,30.20,M,10.00,M,OVC,M,M,M,1500.00,M,M,M,M,KICL 011010Z AUTO 09004KT 10SM OVC015 06/03 A3020 RMK AO2 PWINO
ICL,2017-04-01 10:15,-95.0223,40.7242,42.80,37.40,81.07,80.00,4.00,0.00,30.20,M,10.00,M,OVC,M,M,M,1500.00,M,M,M,M,KICL 011015Z AUTO 08004KT 10SM OVC015 06/03 A3020 RMK AO2 PWINO
ICL,2017-04-01 10:20,-95.0223,40.7242,42.80,39.20,86.99,70.00,4.00,0.00,30.20,M,10.00,M,OVC,M,M,M,1500.00,M,M,M,M,KICL 011020Z AUTO 07004KT 10SM OVC015 06/04 A3020 RMK AO2 PWINO
ICL,2017-04-01 10:30,-95.0223,40.7242,42.80,37.40,81.07,70.00,4.00,0.00,30.21,M,10.00,M,OVC,M,M,M,1500.00,M,M,M,M,KICL 011030Z AUTO 07004KT 10SM OVC015 06/03 A3021 RMK AO2 PWINO
ICL,2017-04-01 10:35,-95.0223,40.7242,42.80,39.20,86.99,60.00,3.00,0.00,30.21,M,10.00,M,OVC,M,M,M,1400.00,M,M,M,M,KICL 011035Z AUTO 06003KT 10SM OVC014 06/04 A3021 RMK AO2 PWINO
ICL,2017-04-01 10:40,-95.0223,40.7242,41.00,39.20,93.24,60.00,3.00,0.00,30.21,M,10.00,M,OVC,M,M,M,1400.00,M,M,M,M,KICL 011040Z AUTO 06003KT 10SM OVC014 05/04 A3021 RMK AO2 PWINO
ICL,2017-04-01 10:50,-95.0223,40.7242,41.00,39.20,93.24,50.00,4.00,0.00,30.21,M,10.00,M,OVC,M,M,M,1400.00,M,M,M,M,KICL 011050Z AUTO 05004KT 10SM OVC014 05/04 A3021 RMK AO2 PWINO
ICL,2017-04-01 10:55,-95.0223,40.7242,41.00,39.20,93.24,70.00,5.00,0.00,30.21,M,10.00,M,OVC,M,M,M,1400.00,M,M,M,M,KICL 011055Z AUTO 07005KT 10SM OVC014 05/04 A3021 RMK AO2 PWINO
ICL,2017-04-01 11:00,-95.0223,40.7242,42.80,39.20,86.99,60.00,6.00,0.00,30.21,M,10.00,M,OVC,M,M,M,1400.00,M,M,M,M,KICL 011100Z AUTO 06006KT 10SM OVC014 06/04 A3021 RMK AO2 PWINO
ICL,2017-04-01 11:10,-95.0223,40.7242,41.00,39.20,93.24,50.00,5.00,0.00,30.22,M,10.00,M,OVC,M,M,M,1300.00,M,M,M,M,KICL 011110Z AUTO 05005KT 10SM OVC013 05/04 A3022 RMK AO2 PWINO
ICL,2017-04-01 11:15,-95.0223,40.7242,41.00,39.20,93.24,50.00,4.00,0.00,30.22,M,10.00,M,OVC,M,M,M,1300.00,M,M,M,M,KICL 011115Z AUTO 05004KT 10SM OVC013 05/04 A3022 RMK AO2 PWINO
ICL,2017-04-01 11:20,-95.0223,40.7242,41.00,39.20,93.24,50.00,5.00,0.00,30.22,M,10.00,M,OVC,M,M,M,1300.00,M,M,M,M,KICL 011120Z AUTO 05005KT 10SM OVC013 05/04 A3022 RMK AO2 PWINO
ICL,2017-04-01 11:30,-95.0223,40.7242,42.80,39.20,86.99,60.00,5.00,0.00,30.22,M,10.00,M,OVC,M,M,M,1300.00,M,M,M,M,KICL 011130Z AUTO 06005KT 10SM OVC013 06/04 A3022 RMK AO2 PWINO
ICL,2017-04-01 11:35,-95.0223,40.7242,41.00,39.20,93.24,70.00,6.00,0.00,30.22,M,10.00,M,OVC,M,M,M,1300.00,M,M,M,M,KICL 011135Z AUTO 07006KT 10SM OVC013 05/04 A3022 RMK AO2 PWINO
ICL,2017-04-01 11:40,-95.0223,40.7242,41.00,39.20,93.24,60.00,4.00,0.00,30.22,M,10.00,M,OVC,M,M,M,1300.00,M,M,M,M,KICL 011140Z AUTO 06004KT 10SM OVC013 05/04 A3022 RMK AO2 PWINO
ICL,2017-04-01 11:50,-95.0223,40.7242,41.00,39.20,93.24,50.00,4.00,0.00,30.22,M,10.00,M,OVC,M,M,M,1300.00,M,M,M,M,KICL 011150Z AUTO 05004KT 10SM OVC013 05/04 A3022 RMK AO2 PWINO
ICL,2017-04-01 11:55,-95.0223,40.7242,41.00,39.20,93.24,70.00,4.00,0.00,30.23,M,10.00,M,OVC,M,M,M,1300.00,M,M,M,M,KICL 011155Z AUTO 07004KT 10SM OVC013 05/04 A3023 RMK AO2 PWINO
ICL,2017-04-01 12:00,-95.0223,40.7242,41.00,39.20,93.24,80.00,4.00,0.00,30.23,M,10.00,M,OVC,M,M,M,1300.00,M,M,M,M,KICL 011200Z AUTO 08004KT 10SM OVC013 05/04 A3023 RMK AO2 PWINO
ICL,2017-04-01 12:10,-95.0223,40.7242,42.80,39.20,86.99,0.00,0.00,0.00,30.24,M,10.00,M,OVC,M,M,M,1300.00,M,M,M,M,KICL 011210Z AUTO 00000KT 10SM OVC013 06/04 A3024 RMK AO2 PWINO
ICL,2017-04-01 12:15,-95.0223,40.7242,42.80,39.20,86.99,0.00,0.00,0.00,30.24,M,10.00,M,OVC,M,M,M,1300.00,M,M,M,M,KICL 011215Z AUTO 00000KT 10SM OVC013 06/04 A3024 RMK AO2 PWINO
ICL,2017-04-01 12:20,-95.0223,40.7242,42.80,39.20,86.99,100.00,4.00,0.00,30.25,M,10.00,M,OVC,M,M,M,1400.00,M,M,M,M,KICL 011220Z AUTO 10004KT 10SM OVC014 06/04 A3025 RMK AO2 PWINO
ICL,2017-04-01 12:30,-95.0223,40.7242,42.80,39.20,86.99,M,M,0.00,30.25,M,10.00,M,OVC,M,M,M,1400.00,M,M,M,M,KICL 011230Z AUTO 10SM OVC014 06/04 A3025 RMK AO2 PWINO
ICL,2017-04-01 12:35,-95.0223,40.7242,42.80,39.20,86.99,0.00,0.00,0.00,30.25,M,10.00,M,OVC,M,M,M,1400.00,M,M,M,M,KICL 011235Z AUTO 00000KT 10SM OVC014 06/04 A3025 RMK AO2 PWINO
ICL,2017-04-01 12:40,-95.0223,40.7242,42.80,39.20,86.99,80.00,5.00,0.00,30.24,M,10.00,M,OVC,M,M,M,1400.00,M,M,M,M,KICL 011240Z AUTO 08005KT 10SM OVC014 06/04 A3024 RMK AO2 PWINO
ICL,2017-04-01 12:50,-95.0223,40.7242,41.00,39.20,93.24,90.00,5.00,0.00,30.24,M,10.00,M,OVC,M,M,M,1400.00,M,M,M,M,KICL 011250Z AUTO 09005KT 10SM OVC014 05/04 A3024 RMK AO2 PWINO
ICL,2017-04-01 12:55,-95.0223,40.7242,42.80,39.20,86.99,60.00,5.00,0.00,30.25,M,10.00,M,OVC,M,M,M,1400.00,M,M,M,M,KICL 011255Z AUTO 06005KT 10SM OVC014 06/04 A3025 RMK AO2 PWINO
ICL,2017-04-01 13:00,-95.0223,40.7242,42.80,39.20,86.99,80.00,5.00,0.00,30.25,M,10.00,M,OVC,M,M,M,1400.00,M,M,M,M,KICL 011300Z AUTO 08005KT 10SM OVC014 06/04 A3025 RMK AO2 PWINO
ICL,2017-04-01 13:10,-95.0223,40.7242,42.80,39.20,86.99,70.00,4.00,0.00,30.24,M,10.00,M,OVC,M,M,M,1500.00,M,M,M,M,KICL 011310Z AUTO 07004KT 10SM OVC015 06/04 A3024 RMK AO2 PWINO
ICL,2017-04-01 13:15,-95.0223,40.7242,42.80,39.20,86.99,60.00,5.00,0.00,30.24,M,10.00,M,OVC,M,M,M,1500.00,M,M,M,M,KICL 011315Z AUTO 06005KT 10SM OVC015 06/04 A3024 RMK AO2 PWINO
ICL,2017-04-01 13:20,-95.0223,40.7242,42.80,39.20,86.99,60.00,5.00,0.00,30.24,M,10.00,M,OVC,M,M,M,1600.00,M,M,M,M,KICL 011320Z AUTO 06005KT 10SM OVC016 06/04 A3024 RMK AO2 PWINO
ICL,2017-04-01 13:30,-95.0223,40.7242,42.80,39.20,86.99,70.00,6.00,0.00,30.24,M,10.00,M,OVC,M,M,M,1500.00,M,M,M,M,KICL 011330Z AUTO 07006KT 10SM OVC015 06/04 A3024 RMK AO2 PWINO
ICL,2017-04-01 13:35,-95.0223,40.7242,42.80,39.20,86.99,80.00,5.00,0.00,30.24,M,10.00,M,OVC,M,M,M,1500.00,M,M,M,M,KICL 011335Z AUTO 08005KT 10SM OVC015 06/04 A3024 RMK AO2 PWINO
ICL,2017-04-01 13:40,-95.0223,40.7242,42.80,39.20,86.99,80.00,5.00,0.00,30.24,M,10.00,M,OVC,M,M,M,1500.00,M,M,M,M,KICL 011340Z AUTO 08005KT 10SM OVC015 06/04 A3024 RMK AO2 PWINO
ICL,2017-04-01 13:50,-95.0223,40.7242,42.80,39.20,86.99,70.00,7.00,0.00,30.24,M,10.00,M,OVC,M,M,M,1400.00,M,M,M,M,KICL 011350Z AUTO 07007KT 10SM OVC014 06/04 A3024 RMK AO2 PWINO
ICL,2017-04-01 13:55,-95.0223,40.7242,42.80,39.20,86.99,M,M,0.00,30.24,M,10.00,M,OVC,M,M,M,1400.00,M,M,M,M,KICL 011355Z AUTO 10SM OVC014 06/04 A3024 RMK AO2 PWINO
ICL,2017-04-01 14:00,-95.0223,40.7242,42.80,39.20,86.99,80.00,6.00,0.00,30.25,M,10.00,M,OVC,M,M,M,1300.00,M,M,M,M,KICL 011400Z AUTO 08006KT 10SM OVC013 06/04 A3025 RMK AO2 PWINO
ICL,2017-04-01 14:10,-95.0223,40.7242,42.80,39.20,86.99,70.00,6.00,0.00,30.25,M,10.00,11.00,OVC,M,M,M,1400.00,M,M,M,M,KICL 011410Z AUTO 07006G11KT 10SM OVC014 06/04 A3025 RMK AO2 PWINO
ICL,2017-04-01 14:15,-95.0223,40.7242,42.80,39.20,86.99,110.00,5.00,0.00,30.25,M,10.00,M,OVC,M,M,M,1400.00,M,M,M,M,KICL 011415Z AUTO 11005KT 10SM OVC014 06/04 A3025 RMK AO2 PWINO
ICL,2017-04-01 14:20,-95.0223,40.7242,42.80,39.20,86.99,90.00,8.00,0.00,30.25,M,10.00,M,OVC,M,M,M,1400.00,M,M,M,M,KICL 011420Z AUTO 09008KT 10SM OVC014 06/04 A3025 RMK AO2 PWINO
ICL,2017-04-01 14:30,-95.0223,40.7242,42.80,39.20,86.99,100.00,5.00,0.00,30.26,M,10.00,M,OVC,M,M,M,1600.00,M,M,M,M,KICL 011430Z AUTO 10005KT 10SM OVC016 06/04 A3026 RMK AO2 PWINO
ICL,2017-04-01 14:35,-95.0223,40.7242,42.80,39.20,86.99,100.00,4.00,0.00,30.25,M,10.00,M,OVC,M,M,M,1600.00,M,M,M,M,KICL 011435Z AUTO 10004KT 10SM OVC016 06/04 A3025 RMK AO2 PWINO
ICL,2017-04-01 14:40,-95.0223,40.7242,42.80,39.20,86.99,90.00,9.00,0.00,30.25,M,10.00,M,OVC,M,M,M,1500.00,M,M,M,M,KICL 011440Z AUTO 09009KT 10SM OVC015 06/04 A3025 RMK AO2 PWINO
ICL,2017-04-01 14:50,-95.0223,40.7242,42.80,39.20,86.99,110.00,7.00,0.00,30.26,M,10.00,M,OVC,M,M,M,1600.00,M,M,M,M,KICL 011450Z AUTO 11007KT 10SM OVC016 06/04 A3026 RMK AO2 PWINO
ICL,2017-04-01 14:55,-95.0223,40.7242,42.80,39.20,86.99,M,M,0.00,30.26,M,10.00,M,OVC,M,M,M,1600.00,M,M,M,M,KICL 011455Z AUTO 10SM OVC016 06/04 A3026 RMK AO2 PWINO
ICL,2017-04-01 15:00,-95.0223,40.7242,42.80,39.20,86.99,80.00,7.00,0.00,30.25,M,10.00,M,OVC,M,M,M,1500.00,M,M,M,M,KICL 011500Z AUTO 08007KT 10SM OVC015 06/04 A3025 RMK AO2 PWINO
ICL,2017-04-01 15:10,-95.0223,40.7242,42.80,39.20,86.99,100.00,9.00,0.00,30.25,M,10.00,M,OVC,M,M,M,1600.00,M,M,M,M,KICL 011510Z AUTO 10009KT 10SM OVC016 06/04 A3025 RMK AO2 PWINO
ICL,2017-04-01 15:15,-95.0223,40.7242,42.80,39.20,86.99,130.00,7.00,0.00,30.26,M,10.00,M,OVC,M,M,M,1500.00,M,M,M,M,KICL 011515Z AUTO 13007KT 10SM OVC015 06/04 A3026 RMK AO2 PWINO
ICL,2017-04-01 15:20,-95.0223,40.7242,42.80,39.20,86.99,130.00,5.00,0.00,30.26,M,10.00,M,OVC,M,M,M,1500.00,M,M,M,M,KICL 011520Z AUTO 13005KT 10SM OVC015 06/04 A3026 RMK AO2 PWINO
ICL,2017-04-01 15:30,-95.0223,40.7242,42.80,39.20,86.99,110.00,8.00,0.00,30.26,M,10.00,M,OVC,M,M,M,1600.00,M,M,M,M,KICL 011530Z AUTO 11008KT 10SM OVC016 06/04 A3026 RMK AO2 PWINO
ICL,2017-04-01 15:35,-95.0223,40.7242,42.80,39.20,86.99,110.00,10.00,0.00,30.26,M,10.00,M,OVC,M,M,M,1600.00,M,M,M,M,KICL 011535Z AUTO 11010KT 10SM OVC016 06/04 A3026 RMK AO2 PWINO
ICL,2017-04-01 15:40,-95.0223,40.7242,42.80,39.20,86.99,100.00,8.00,0.00,30.26,M,10.00,M,OVC,M,M,M,1600.00,M,M,M,M,KICL 011540Z AUTO 10008KT 10SM OVC016 06/04 A3026 RMK AO2 PWINO
ICL,2017-04-01 15:50,-95.0223,40.7242,42.80,39.20,86.99,120.00,7.00,0.00,30.26,M,10.00,M,OVC,M,M,M,1600.00,M,M,M,M,KICL 011550Z AUTO 12007KT 10SM OVC016 06/04 A3026 RMK AO2 PWINO
ICL,2017-04-01 15:55,-95.0223,40.7242,44.60,39.20,81.20,130.00,7.00,0.00,30.27,M,10.00,M,OVC,M,M,M,1600.00,M,M,M,M,KICL 011555Z AUTO 13007KT 110V170 10SM OVC016 07/04 A3027 RMK AO2 PWINO
ICL,2017-04-01 16:00,-95.0223,40.7242,42.80,39.20,86.99,120.00,8.00,0.00,30.26,M,10.00,M,OVC,M,M,M,1600.00,M,M,M,M,KICL 011600Z AUTO 12008KT 10SM OVC016 06/04 A3026 RMK AO2 PWINO
ICL,2017-04-01 16:10,-95.0223,40.7242,44.60,39.20,81.20,110.00,7.00,0.00,30.26,M,10.00,12.00,OVC,M,M,M,1600.00,M,M,M,M,KICL 011610Z AUTO 11007G12KT 10SM OVC016 07/04 A3026 RMK AO2 PWINO
ICL,2017-04-01 16:15,-95.0223,40.7242,44.60,39.20,81.20,140.00,6.00,0.00,30.27,M,10.00,12.00,OVC,M,M,M,1600.00,M,M,M,M,KICL 011615Z AUTO 14006G12KT 10SM OVC016 07/04 A3027 RMK AO2 PWINO
ICL,2017-04-01 16:20,-95.0223,40.7242,44.60,39.20,81.20,130.00,4.00,0.00,30.27,M,10.00,10.00,OVC,M,M,M,1600.00,M,M,M,M,KICL 011620Z AUTO 13004G10KT 10SM OVC016 07/04 A3027 RMK AO2 PWINO
ICL,2017-04-01 16:30,-95.0223,40.7242,44.60,39.20,81.20,140.00,6.00,0.00,30.27,M,10.00,11.00,OVC,M,M,M,1700.00,M,M,M,M,KICL 011630Z AUTO 14006G11KT 10SM OVC017 07/04 A3027 RMK AO2 PWINO
ICL,2017-04-01 16:35,-95.0223,40.7242,44.60,39.20,81.20,120.00,6.00,0.00,30.27,M,10.00,M,OVC,M,M,M,1700.00,M,M,M,M,KICL 011635Z AUTO 12006KT 10SM OVC017 07/04 A3027 RMK AO2 PWINO
ICL,2017-04-01 16:40,-95.0223,40.7242,44.60,39.20,81.20,130.00,7.00,0.00,30.27,M,10.00,M,OVC,M,M,M,1800.00,M,M,M,M,KICL 011640Z AUTO 13007KT 10SM OVC018 07/04 A3027 RMK AO2 PWINO
ICL,2017-04-01 16:50,-95.0223,40.7242,44.60,39.20,81.20,150.00,6.00,0.00,30.27,M,10.00,M,OVC,M,M,M,1800.00,M,M,M,M,KICL 011650Z AUTO 15006KT 10SM OVC018 07/04 A3027 RMK AO2 PWINO
ICL,2017-04-01 16:55,-95.0223,40.7242,44.60,39.20,81.20,150.00,7.00,0.00,30.27,M,10.00,M,OVC,M,M,M,1800.00,M,M,M,M,KICL 011655Z AUTO 15007KT 10SM OVC018 07/04 A3027 RMK AO2 PWINO
ICL,2017-04-01 17:00,-95.0223,40.7242,44.60,39.20,81.20,M,5.00,0.00,30.28,M,10.00,M,OVC,M,M,M,1800.00,M,M,M,M,KICL 011700Z AUTO VRB05KT 10SM OVC018 07/04 A3028 RMK AO2 PWINO
ICL,2017-04-01 17:10,-95.0223,40.7242,44.60,39.20,81.20,150.00,5.00,0.00,30.28,M,10.00,M,OVC,M,M,M,1800.00,M,M,M,M,KICL 011710Z AUTO 15005KT 10SM OVC018 07/04 A3028 RMK AO2 PWINO
ICL,2017-04-01 17:15,-95.0223,40.7242,44.60,39.20,81.20,M,3.00,0.00,30.28,M,10.00,M,OVC,M,M,M,1800.00,M,M,M,M,KICL 011715Z AUTO VRB03KT 10SM OVC018 07/04 A3028 RMK AO2 PWINO
ICL,2017-04-01 17:20,-95.0223,40.7242,44.60,39.20,81.20,160.00,4.00,0.00,30.28,M,10.00,M,OVC,M,M,M,1900.00,M,M,M,M,KICL 011720Z AUTO 16004KT 10SM OVC019 07/04 A3028 RMK AO2 PWINO
ICL,2017-04-01 17:30,-95.0223,40.7242,44.60,39.20,81.20,120.00,4.00,0.00,30.26,M,9.00,M,OVC,M,M,M,1900.00,M,M,M,M,KICL 011730Z AUTO 12004KT 9SM OVC019 07/04 A3026 RMK AO2 PWINO
ICL,2017-04-01 17:35,-95.0223,40.7242,44.60,39.20,81.20,120.00,4.00,0.00,30.25,M,7.00,M,OVC,M,M,M,1900.00,M,M,M,M,KICL 011735Z AUTO 12004KT 7SM OVC019 07/04 A3025 RMK AO2 PWINO
ICL,2017-04-01 17:40,-95.0223,40.7242,44.60,41.00,87.09,120.00,7.00,0.00,30.24,M,6.00,M,OVC,M,M,M,1900.00,M,M,M,HZ,KICL 011740Z AUTO 12007KT 6SM HZ OVC019 07/05 A3024 RMK AO2 PWINO
ICL,2017-04-01 17:50,-95.0223,40.7242,44.60,41.00,87.09,100.00,7.00,0.00,30.22,M,8.00,M,OVC,M,M,M,1900.00,M,M,M,M,KICL 011750Z AUTO 10007KT 8SM OVC019 07/05 A3022 RMK AO2 PWINO
ICL,2017-04-01 17:55,-95.0223,40.7242,44.60,41.00,87.09,90.00,5.00,0.00,30.22,M,9.00,M,OVC,M,M,M,1900.00,M,M,M,M,KICL 011755Z AUTO 09005KT 9SM OVC019 07/05 A3022 RMK AO2 PWINO
ICL,2017-04-01 18:00,-95.0223,40.7242,44.60,41.00,87.09,90.00,6.00,0.00,30.22,M,9.00,M,OVC,M,M,M,1900.00,M,M,M,M,KICL 011800Z AUTO 09006KT 9SM OVC019 07/05 A3022 RMK AO2 PWINO
ICL,2017-04-01 18:10,-95.0223,40.7242,44.60,41.00,87.09,120.00,6.00,0.00,30.23,M,10.00,M,BKN,M,M,M,1900.00,M,M,M,M,KICL 011810Z AUTO 12006KT 10SM BKN019 07/05 A3023 RMK AO2 PWINO
ICL,2017-04-01 18:15,-95.0223,40.7242,44.60,41.00,87.09,120.00,7.00,0.00,30.22,M,10.00,M,BKN,M,M,M,2000.00,M,M,M,M,KICL 011815Z AUTO 12007KT 10SM BKN020 07/05 A3022 RMK AO2 PWINO
ICL,2017-04-01 18:20,-95.0223,40.7242,44.60,41.00,87.09,120.00,7.00,0.00,30.22,M,10.00,M,OVC,M,M,M,1900.00,M,M,M,M,KICL 011820Z AUTO 12007KT 080V140 10SM OVC019 07/05 A3022 RMK AO2 PWINO
ICL,2017-04-01 18:30,-95.0223,40.7242,44.60,41.00,87.09,M,3.00,0.00,30.24,M,10.00,M,OVC,M,M,M,2000.00,M,M,M,M,KICL 011830Z AUTO VRB03KT 10SM OVC020 07/05 A3024 RMK AO2 PWINO
ICL,2017-04-01 18:35,-95.0223,40.7242,46.40,41.00,81.34,0.00,0.00,0.00,30.23,M,10.00,M,OVC,M,M,M,2000.00,M,M,M,M,KICL 011835Z AUTO 00000KT 10SM OVC020 08/05 A3023 RMK AO2 PWINO
ICL,2017-04-01 18:40,-95.0223,40.7242,46.40,41.00,81.34,120.00,5.00,0.00,30.23,M,10.00,M,OVC,M,M,M,2000.00,M,M,M,M,KICL 011840Z AUTO 12005KT 10SM OVC020 08/05 A3023 RMK AO2 PWINO
ICL,2017-04-01 18:50,-95.0223,40.7242,46.40,41.00,81.34,100.00,8.00,0.00,30.20,M,10.00,M,BKN,OVC,M,M,2000.00,9000.00,M,M,M,KICL 011850Z AUTO 10008KT 10SM BKN020 OVC090 08/05 A3020 RMK AO2 PWINO
ICL,2017-04-01 18:55,-95.0223,40.7242,46.40,41.00,81.34,80.00,9.00,0.01,30.19,M,10.00,M,SCT,OVC,M,M,2000.00,9000.00,M,M,M,KICL 011855Z AUTO 08009KT 10SM SCT020 OVC090 08/05 A3019 RMK AO2 P0001 PWINO
ICL,2017-04-01 19:00,-95.0223,40.7242,46.40,41.00,81.34,90.00,7.00,0.00,30.19,M,10.00,15.00,SCT,BKN,M,M,2000.00,9000.00,M,M,M,KICL 011900Z AUTO 09007G15KT 10SM SCT020 BKN090 08/05 A3019 RMK AO2 PWINO
ICL,2017-04-01 19:15,-95.0223,40.7242,48.20,41.00,76.01,160.00,7.00,0.00,30.22,M,10.00,16.00,SCT,BKN,M,M,2100.00,9500.00,M,M,M,KICL 011915Z AUTO 16007G16KT 130V200 10SM SCT021 BKN095 09/05 A3022 RMK AO2 PWINO
ICL,2017-04-01 19:20,-95.0223,40.7242,48.20,41.00,76.01,100.00,8.00,0.00,30.22,M,10.00,M,BKN,BKN,M,M,2200.00,9500.00,M,M,M,KICL 011920Z AUTO 10008KT 10SM BKN022 BKN095 09/05 A3022 RMK AO2 PWINO
ICL,2017-04-01 19:30,-95.0223,40.7242,48.20,41.00,76.01,110.00,5.00,0.00,30.21,M,10.00,12.00,BKN,BKN,M,M,2200.00,9000.00,M,M,M,KICL 011930Z AUTO 11005G12KT 10SM BKN022 BKN090 09/05 A3021 RMK AO2 PWINO
ICL,2017-04-01 19:35,-95.0223,40.7242,48.20,41.00,76.01,100.00,6.00,0.00,30.20,M,10.00,M,BKN,OVC,M,M,2300.00,9000.00,M,M,M,KICL 011935Z AUTO 10006KT 10SM BKN023 OVC090 09/05 A3020 RMK AO2 PWINO
ICL,2017-04-01 19:40,-95.0223,40.7242,48.20,41.00,76.01,90.00,8.00,0.00,30.20,M,10.00,M,BKN,OVC,M,M,2200.00,9000.00,M,M,M,KICL 011940Z AUTO 09008KT 10SM BKN022 OVC090 09/05 A3020 RMK AO2 PWINO
ICL,2017-04-01 19:50,-95.0223,40.7242,48.20,41.00,76.01,M,5.00,0.00,30.21,M,10.00,M,BKN,OVC,M,M,2300.00,9000.00,M,M,M,KICL 011950Z AUTO VRB05KT 10SM BKN023 OVC090 09/05 A3021 RMK AO2 PWINO
ICL,2017-04-01 19:55,-95.0223,40.7242,48.20,41.00,76.01,110.00,7.00,0.00,30.20,M,10.00,M,OVC,M,M,M,2300.00,M,M,M,M,KICL 011955Z AUTO 11007KT 10SM OVC023 09/05 A3020 RMK AO2 PWINO
ICL,2017-04-01 20:00,-95.0223,40.7242,48.20,41.00,76.01,M,5.00,0.00,30.20,M,10.00,10.00,OVC,M,M,M,2300.00,M,M,M,M,KICL 012000Z AUTO VRB05G10KT 10SM OVC023 09/05 A3020 RMK AO2 PWINO
ICL,2017-04-01 20:10,-95.0223,40.7242,50.00,41.00,71.07,M,6.00,0.00,30.20,M,10.00,M,OVC,M,M,M,2300.00,M,M,M,M,KICL 012010Z AUTO VRB06KT 10SM OVC023 10/05 A3020 RMK AO2 PWINO
ICL,2017-04-01 20:15,-95.0223,40.7242,50.00,41.00,71.07,110.00,8.00,0.00,30.20,M,10.00,M,OVC,M,M,M,2400.00,M,M,M,M,KICL 012015Z AUTO 11008KT 10SM OVC024 10/05 A3020 RMK AO2 PWINO
ICL,2017-04-01 20:20,-95.0223,40.7242,50.00,41.00,71.07,110.00,7.00,0.00,30.20,M,10.00,M,OVC,M,M,M,2400.00,M,M,M,M,KICL 012020Z AUTO 11007KT 10SM OVC024 10/05 A3020 RMK AO2 PWINO
ICL,2017-04-01 20:30,-95.0223,40.7242,50.00,41.00,71.07,100.00,5.00,0.00,30.19,M,10.00,M,OVC,M,M,M,2400.00,M,M,M,M,KICL 012030Z AUTO 10005KT 10SM OVC024 10/05 A3019 RMK AO2 PWINO
ICL,2017-04-01 20:35,-95.0223,40.7242,50.00,41.00,71.07,110.00,4.00,0.00,30.19,M,10.00,M,BKN,M,M,M,2400.00,M,M,M,M,KICL 012035Z AUTO 11004KT 10SM BKN024 10/05 A3019 RMK AO2 PWINO
ICL,2017-04-01 20:40,-95.0223,40.7242,50.00,41.00,71.07,80.00,8.00,0.00,30.18,M,10.00,M,BKN,M,M,M,2400.00,M,M,M,M,KICL 012040Z AUTO 08008KT 10SM BKN024 10/05 A3018 RMK AO2 PWINO
ICL,2017-04-01 20:50,-95.0223,40.7242,50.00,41.00,71.07,110.00,7.00,0.00,30.18,M,10.00,M,BKN,M,M,M,2400.00,M,M,M,M,KICL 012050Z AUTO 11007KT 10SM BKN024 10/05 A3018 RMK AO2 PWINO
ICL,2017-04-01 20:55,-95.0223,40.7242,50.00,41.00,71.07,120.00,6.00,0.00,30.18,M,10.00,M,SCT,M,M,M,2400.00,M,M,M,M,KICL 012055Z AUTO 12006KT 10SM SCT024 10/05 A3018 RMK AO2 PWINO
ICL,2017-04-01 21:00,-95.0223,40.7242,50.00,41.00,71.07,120.00,6.00,0.00,30.17,M,10.00,M,FEW,M,M,M,2500.00,M,M,M,M,KICL 012100Z AUTO 12006KT 10SM FEW025 10/05 A3017 RMK AO2 PWINO
ICL,2017-04-01 21:10,-95.0223,40.7242,50.00,41.00,71.07,100.00,7.00,0.00,30.17,M,M,M,FEW,M,M,M,2500.00,M,M,M,M,KICL 012110Z AUTO 10007KT FEW025 10/05 A3017 RMK AO2 PWINO
ICL,2017-04-01 21:15,-95.0223,40.7242,50.00,41.00,71.07,110.00,8.00,0.00,30.17,M,M,M,FEW,M,M,M,10000.00,M,M,M,M,KICL 012115Z AUTO 11008KT FEW100 10/05 A3017 RMK AO2 PWINO
ICL,2017-04-01 21:20,-95.0223,40.7242,50.00,41.00,71.07,110.00,6.00,0.00,30.18,M,M,M,SCT,M,M,M,10000.00,M,M,M,M,KICL 012120Z AUTO 11006KT SCT100 10/05 A3018 RMK AO2 PWINO
ICL,2017-04-01 21:30,-95.0223,40.7242,50.00,41.00,71.07,90.00,6.00,0.00,30.18,M,10.00,M,FEW,M,M,M,10000.00,M,M,M,M,KICL 012130Z AUTO 09006KT 10SM FEW100 10/05 A3018 RMK AO2 PWINO
ICL,2017-04-01 21:35,-95.0223,40.7242,50.00,41.00,71.07,M,5.00,0.00,30.18,M,10.00,M,FEW,M,M,M,10000.00,M,M,M,M,KICL 012135Z AUTO VRB05KT 10SM FEW100 10/05 A3018 RMK AO2 PWINO
ICL,2017-04-01 21:40,-95.0223,40.7242,51.80,41.00,66.48,90.00,6.00,0.00,30.18,M,10.00,M,FEW,M,M,M,10000.00,M,M,M,M,KICL 012140Z AUTO 09006KT 10SM FEW100 11/05 A3018 RMK AO2 PWINO
ICL,2017-04-01 21:50,-95.0223,40.7242,51.80,41.00,66.48,M,5.00,0.00,30.18,M,10.00,M,FEW,M,M,M,7500.00,M,M,M,M,KICL 012150Z AUTO VRB05KT 10SM FEW075 11/05 A3018 RMK AO2 PWINO
ICL,2017-04-01 21:55,-95.0223,40.7242,51.80,41.00,66.48,90.00,6.00,0.00,30.18,M,10.00,M,SCT,M,M,M,7500.00,M,M,M,M,KICL 012155Z AUTO 09006KT 10SM SCT075 11/05 A3018 RMK AO2 PWINO
ICL,2017-04-01 22:00,-95.0223,40.7242,51.80,41.00,66.48,110.00,5.00,0.00,30.19,M,10.00,M,SCT,M,M,M,7500.00,M,M,M,M,KICL 012200Z AUTO 11005KT 10SM SCT075 11/05 A3019 RMK AO2 PWINO
ICL,2017-04-01 22:10,-95.0223,40.7242,51.80,41.00,66.48,60.00,7.00,0.00,30.17,M,10.00,M,BKN,M,M,M,7500.00,M,M,M,M,KICL 012210Z AUTO 06007KT 10SM BKN075 11/05 A3017 RMK AO2 PWINO
ICL,2017-04-01 22:15,-95.0223,40.7242,51.80,41.00,66.48,80.00,6.00,0.00,30.18,M,10.00,M,BKN,M,M,M,7500.00,M,M,M,M,KICL 012215Z AUTO 08006KT 10SM BKN075 11/05 A3018 RMK AO2 PWINO
ICL,2017-04-01 22:20,-95.0223,40.7242,51.80,41.00,66.48,110.00,7.00,0.00,30.18,M,10.00,M,BKN,BKN,M,M,7500.00,9500.00,M,M,M,KICL 012220Z AUTO 11007KT 10SM BKN075 BKN095 11/05 A3018 RMK AO2 PWINO
ICL,2017-04-01 22:30,-95.0223,40.7242,51.80,41.00,66.48,90.00,7.00,0.00,30.17,M,10.00,M,SCT,BKN,M,M,7500.00,9500.00,M,M,M,KICL 012230Z AUTO 09007KT 10SM SCT075 BKN095 11/05 A3017 RMK AO2 PWINO
ICL,2017-04-01 22:35,-95.0223,40.7242,51.80,41.00,66.48,110.00,7.00,0.00,30.16,M,10.00,M,FEW,BKN,M,M,7500.00,9500.00,M,M,M,KICL 012235Z AUTO 11007KT 10SM FEW075 BKN095 11/05 A3016 RMK AO2 PWINO
ICL,2017-04-01 22:40,-95.0223,40.7242,51.80,41.00,66.48,100.00,6.00,0.00,30.17,M,10.00,M,BKN,M,M,M,9500.00,M,M,M,M,KICL 012240Z AUTO 10006KT 10SM BKN095 11/05 A3017 RMK AO2 PWINO
ICL,2017-04-01 22:50,-95.0223,40.7242,51.80,41.00,66.48,100.00,7.00,0.00,30.17,M,10.00,M,OVC,M,M,M,9500.00,M,M,M,M,KICL 012250Z AUTO 10007KT 10SM OVC095 11/05 A3017 RMK AO2 PWINO
ICL,2017-04-01 22:55,-95.0223,40.7242,51.80,41.00,66.48,110.00,6.00,0.00,30.16,M,10.00,M,OVC,M,M,M,9500.00,M,M,M,M,KICL 012255Z AUTO 11006KT 10SM OVC095 11/05 A3016 RMK AO2 PWINO
ICL,2017-04-01 23:00,-95.0223,40.7242,51.80,41.00,66.48,100.00,9.00,0.00,30.16,M,10.00,M,OVC,M,M,M,9500.00,M,M,M,M,KICL 012300Z AUTO 10009KT 10SM OVC095 11/05 A3016 RMK AO2 PWINO
ICL,2017-04-01 23:10,-95.0223,40.7242,51.80,41.00,66.48,110.00,8.00,0.00,30.16,M,10.00,M,OVC,M,M,M,9500.00,M,M,M,M,KICL 012310Z AUTO 11008KT 10SM OVC095 11/05 A3016 RMK AO2 PWINO
ICL,2017-04-01 23:15,-95.0223,40.7242,51.80,41.00,66.48,110.00,7.00,0.00,30.16,M,10.00,M,OVC,M,M,M,9500.00,M,M,M,M,KICL 012315Z AUTO 11007KT 070V130 10SM OVC095 11/05 A3016 RMK AO2 PWINO
ICL,2017-04-01 23:20,-95.0223,40.7242,51.80,41.00,66.48,110.00,6.00,0.00,30.16,M,10.00,12.00,OVC,M,M,M,9500.00,M,M,M,M,KICL 012320Z AUTO 11006G12KT 10SM OVC095 11/05 A3016 RMK AO2 PWINO
ICL,2017-04-01 23:30,-95.0223,40.7242,51.80,41.00,66.48,100.00,8.00,0.00,30.16,M,10.00,M,OVC,M,M,M,9500.00,M,M,M,M,KICL 012330Z AUTO 10008KT 10SM OVC095 11/05 A3016 RMK AO2 PWINO
ICL,2017-04-01 23:35,-95.0223,40.7242,51.80,41.00,66.48,90.00,8.00,0.00,30.16,M,10.00,M,OVC,M,M,M,10000.00,M,M,M,M,KICL 012335Z AUTO 09008KT 10SM OVC100 11/05 A3016 RMK AO2 PWINO
ICL,2017-04-01 23:40,-95.0223,40.7242,51.80,41.00,66.48,100.00,6.00,0.00,30.17,M,10.00,12.00,OVC,M,M,M,10000.00,M,M,M,M,KICL 012340Z AUTO 10006G12KT 10SM OVC100 11/05 A3017 RMK AO2 PWINO
ICL,2017-04-01 23:50,-95.0223,40.7242,51.80,41.00,66.48,100.00,7.00,0.00,30.17,M,10.00,M,OVC,M,M,M,10000.00,M,M,M,M,KICL 012350Z AUTO 10007KT 10SM OVC100 11/05 A3017 RMK AO2 PWINO
ICL,2017-04-01 23:55,-95.0223,40.7242,51.80,41.00,66.48,100.00,7.00,0.00,30.16,M,10.00,M,OVC,M,M,M,10000.00,M,M,M,M,KICL 012355Z AUTO 10007KT 10SM OVC100 11/05 A3016 RMK AO2 PWINO
