#DEBUG: Format Typ    -> comma
#DEBUG: Time Period   -> 2017-04-01 00:00:00+00:00 2017-04-02 00:00:00+00:00
#DEBUG: Time Zone     -> Etc/UTC
#DEBUG: Data Contact   -> daryl herzmann akrherz@iastate.edu 515-294-5978
#DEBUG: Entries Found -> -1
station,valid,lon,lat,tmpf, dwpf, relh, drct, sknt, p01i, alti, mslp, vsby, gust, skyc1, skyc2, skyc3, skyc4, skyl1, skyl2, skyl3, skyl4, presentwx, metar
IDA,2017-04-01 00:00,-112.0708,43.5137,M,M,M,360.00,22.00,M,29.91,M,10.00,M,CLR,M,M,M,M,M,M,M,M,KIDA 010000Z AUTO 36022KT 10SM CLR A2991 RMK MADISHF
IDA,2017-04-01 00:05,-112.0708,43.5137,M,M,M,350.00,22.00,M,29.91,M,10.00,M,CLR,M,M,M,M,M,M,M,M,KIDA 010005Z AUTO 35022KT 10SM CLR A2991 RMK MADISHF
IDA,2017-04-01 00:10,-112.0708,43.5137,M,M,M,360.00,24.00,M,29.91,M,10.00,M,CLR,M,M,M,M,M,M,M,M,KIDA 010010Z AUTO 36024KT 10SM CLR A2991 RMK MADISHF
IDA,2017-04-01 00:15,-112.0708,43.5137,M,M,M,360.00,25.00,M,29.91,M,10.00,M,CLR,M,M,M,M,M,M,M,M,KIDA 010015Z AUTO 36025KT 10SM CLR A2991 RMK MADISHF
IDA,2017-04-01 00:20,-112.0708,43.5137,M,M,M,360.00,25.00,M,29.92,M,10.00,M,CLR,M,M,M,M,M,M,M,M,KIDA 010020Z AUTO 36025KT 10SM CLR A2992 RMK MADISHF
IDA,2017-04-01 00:25,-112.0708,43.5137,M,M,M,360.00,26.00,M,29.92,M,10.00,M,FEW,M,M,M,12000.00,M,M,M,M,KIDA 010025Z AUTO 36026KT 10SM FEW120 A2992 RMK MADISHF
IDA,2017-04-01 00:30,-112.0708,43.5137,M,M,M,360.00,24.00,M,29.93,M,10.00,M,SCT,M,M,M,12000.00,M,M,M,M,KIDA 010030Z AUTO 36024KT 10SM SCT120 A2993 RMK MADISHF
IDA,2017-04-01 00:35,-112.0708,43.5137,M,M,M,360.00,26.00,M,29.93,M,10.00,M,SCT,M,M,M,12000.00,M,M,M,M,KIDA 010035Z AUTO 36026KT 10SM SCT120 A2993 RMK MADISHF
IDA,2017-04-01 00:40,-112.0708,43.5137,M,M,M,360.00,23.00,M,29.93,M,10.00,M,FEW,M,M,M,12000.00,M,M,M,M,KIDA 010040Z AUTO 36023KT 10SM FEW120 A2993 RMK MADISHF
IDA,2017-04-01 00:45,-112.0708,43.5137,M,M,M,360.00,22.00,M,29.93,M,10.00,M,FEW,M,M,M,12000.00,M,M,M,M,KIDA 010045Z AUTO 36022KT 10SM FEW120 A2993 RMK MADISHF
IDA,2017-04-01 00:50,-112.0708,43.5137,M,M,M,360.00,24.00,M,29.94,M,10.00,M,FEW,M,M,M,12000.00,M,M,M,M,KIDA 010050Z AUTO 36024KT 10SM FEW120 A2994 RMK MADISHF
IDA,2017-04-01 00:53,-112.0708,43.5137,55.00,33.10,43.31,360.00,22.00,0.00,29.94,1012.70,10.00,31.00,FEW,M,M,M,12000.00,M,M,M,M,KIDA 010053Z 36022G31KT 10SM FEW120 13/01 A2994 RMK AO2 PK WND 36034/0017 SLP127 T01280006
IDA,2017-04-01 00:55,-112.0708,43.5137,M,M,M,360.00,20.00,M,29.94,M,10.00,M,FEW,M,M,M,12000.00,M,M,M,M,KIDA 010055Z AUTO 36020KT 10SM FEW120 A2994 RMK MADISHF
IDA,2017-04-01 01:00,-112.0708,43.5137,M,M,M,360.00,24.00,M,29.94,M,10.00,M,CLR,M,M,M,M,M,M,M,M,KIDA 010100Z AUTO 36024KT 10SM CLR A2994 RMK MADISHF
IDA,2017-04-01 01:05,-112.0708,43.5137,M,M,M,360.00,21.00,M,29.94,M,10.00,M,CLR,M,M,M,M,M,M,M,M,KIDA 010105Z AUTO 36021KT 10SM CLR A2994 RMK MADISHF
IDA,2017-04-01 01:10,-112.0708,43.5137,M,M,M,360.00,23.00,M,29.94,M,10.00,M,CLR,M,M,M,M,M,M,M,M,KIDA 010110Z AUTO 36023KT 10SM CLR A2994 RMK MADISHF
IDA,2017-04-01 01:15,-112.0708,43.5137,M,M,M,360.00,22.00,M,29.95,M,10.00,M,CLR,M,M,M,M,M,M,M,M,KIDA 010115Z AUTO 36022KT 10SM CLR A2995 RMK MADISHF
IDA,2017-04-01 01:20,-112.0708,43.5137,M,M,M,360.00,21.00,M,29.95,M,10.00,M,CLR,M,M,M,M,M,M,M,M,KIDA 010120Z AUTO 36021KT 10SM CLR A2995 RMK MADISHF
IDA,2017-04-01 01:25,-112.0708,43.5137,M,M,M,360.00,21.00,M,29.95,M,10.00,M,CLR,M,M,M,M,M,M,M,M,KIDA 010125Z AUTO 36021KT 10SM CLR A2995 RMK MADISHF
IDA,2017-04-01 01:30,-112.0708,43.5137,M,M,M,360.00,19.00,M,29.95,M,10.00,M,CLR,M,M,M,M,M,M,M,M,KIDA 010130Z AUTO 36019KT 10SM CLR A2995 RMK MADISHF
IDA,2017-04-01 01:35,-112.0708,43.5137,M,M,M,360.00,19.00,M,29.95,M,10.00,M,CLR,M,M,M,M,M,M,M,M,KIDA 010135Z AUTO 36019KT 10SM CLR A2995 RMK MADISHF
IDA,2017-04-01 01:40,-112.0708,43.5137,M,M,M,360.00,21.00,M,29.96,M,10.00,M,CLR,M,M,M,M,M,M,M,M,KIDA 010140Z AUTO 36021KT 10SM CLR A2996 RMK MADISHF
IDA,2017-04-01 01:45,-112.0708,43.5137,M,M,M,360.00,20.00,M,29.96,M,10.00,M,CLR,M,M,M,M,M,M,M,M,KIDA 010145Z AUTO 36020KT 10SM CLR A2996 RMK MADISHF
IDA,2017-04-01 01:50,-112.0708,43.5137,M,M,M,360.00,20.00,M,29.96,M,10.00,M,CLR,M,M,M,M,M,M,M,M,KIDA 010150Z AUTO 36020KT 10SM CLR A2996 RMK MADISHF
IDA,2017-04-01 01:53,-112.0708,43.5137,50.00,33.10,52.06,360.00,20.00,0.00,29.96,1013.90,10.00,M,CLR,M,M,M,M,M,M,M,M,KIDA 010153Z 36020KT 10SM CLR 10/01 A2996 RMK AO2 PK WND 36031/0100 SLP139 T01000006
IDA,2017-04-01 01:55,-112.0708,43.5137,M,M,M,360.00,18.00,M,29.96,M,10.00,M,CLR,M,M,M,M,M,M,M,M,KIDA 010155Z AUTO 36018KT 10SM CLR A2996 RMK MADISHF
IDA,2017-04-01 02:00,-112.0708,43.5137,M,M,M,360.00,17.00,M,29.96,M,10.00,M,CLR,M,M,M,M,M,M,M,M,KIDA 010200Z AUTO 36017KT 10SM CLR A2996 RMK MADISHF
IDA,2017-04-01 02:05,-112.0708,43.5137,M,M,M,360.00,19.00,M,29.96,M,10.00,M,CLR,M,M,M,M,M,M,M,M,KIDA 010205Z AUTO 36019KT 10SM CLR A2996 RMK MADISHF
IDA,2017-04-01 02:10,-112.0708,43.5137,M,M,M,360.00,18.00,M,29.96,M,10.00,M,CLR,M,M,M,M,M,M,M,M,KIDA 010210Z AUTO 36018KT 10SM CLR A2996 RMK MADISHF
IDA,2017-04-01 02:15,-112.0708,43.5137,M,M,M,360.00,19.00,M,29.97,M,10.00,M,CLR,M,M,M,M,M,M,M,M,KIDA 010215Z AUTO 36019KT 10SM CLR A2997 RMK MADISHF
IDA,2017-04-01 02:20,-112.0708,43.5137,M,M,M,360.00,18.00,M,29.97,M,10.00,M,CLR,M,M,M,M,M,M,M,M,KIDA 010220Z AUTO 36018KT 10SM CLR A2997 RMK MADISHF
IDA,2017-04-01 02:25,-112.0708,43.5137,M,M,M,360.00,18.00,M,29.97,M,10.00,M,CLR,M,M,M,M,M,M,M,M,KIDA 010225Z AUTO 36018KT 10SM CLR A2997 RMK MADISHF
IDA,2017-04-01 02:30,-112.0708,43.5137,M,M,M,360.00,17.00,M,29.97,M,10.00,M,CLR,M,M,M,M,M,M,M,M,KIDA 010230Z AUTO 36017KT 10SM CLR A2997 RMK MADISHF
IDA,2017-04-01 02:35,-112.0708,43.5137,M,M,M,360.00,17.00,M,29.98,M,10.00,M,CLR,M,M,M,M,M,M,M,M,KIDA 010235Z AUTO 36017KT 10SM CLR A2998 RMK MADISHF
IDA,2017-04-01 02:40,-112.0708,43.5137,M,M,M,360.00,15.00,M,29.98,M,10.00,M,CLR,M,M,M,M,M,M,M,M,KIDA 010240Z AUTO 36015KT 10SM CLR A2998 RMK MADISHF
IDA,2017-04-01 02:45,-112.0708,43.5137,M,M,M,350.00,16.00,M,29.98,M,10.00,M,CLR,M,M,M,M,M,M,M,M,KIDA 010245Z AUTO 35016KT 10SM CLR A2998 RMK MADISHF
IDA,2017-04-01 02:50,-112.0708,43.5137,M,M,M,360.00,17.00,M,29.98,M,10.00,M,CLR,M,M,M,M,M,M,M,M,KIDA 010250Z AUTO 36017KT 10SM CLR A2998 RMK MADISHF
IDA,2017-04-01 02:53,-112.0708,43.5137,48.00,32.00,53.67,360.00,16.00,0.00,29.99,1014.90,10.00,M,CLR,M,M,M,M,M,M,M,M,KIDA 010253Z 36016KT 10SM CLR 09/00 A2999 RMK AO2 PK WND 36026/0202 SLP149 T00890000 51025
IDA,2017-04-01 02:55,-112.0708,43.5137,M,M,M,360.00,17.00,M,29.99,M,10.00,M,CLR,M,M,M,M,M,M,M,M,KIDA 010255Z AUTO 36017KT 10SM CLR A2999 RMK MADISHF
IDA,2017-04-01 03:00,-112.0708,43.5137,M,M,M,350.00,17.00,M,29.99,M,10.00,M,CLR,M,M,M,M,M,M,M,M,KIDA 010300Z AUTO 35017KT 10SM CLR A2999 RMK MADISHF
IDA,2017-04-01 03:05,-112.0708,43.5137,M,M,M,360.00,16.00,M,29.99,M,10.00,M,CLR,M,M,M,M,M,M,M,M,KIDA 010305Z AUTO 36016KT 10SM CLR A2999 RMK MADISHF
IDA,2017-04-01 03:10,-112.0708,43.5137,M,M,M,360.00,15.00,M,30.00,M,10.00,M,CLR,M,M,M,M,M,M,M,M,KIDA 010310Z AUTO 36015KT 10SM CLR A3000 RMK MADISHF
IDA,2017-04-01 03:15,-112.0708,43.5137,M,M,M,360.00,17.00,M,30.00,M,10.00,M,CLR,M,M,M,M,M,M,M,M,KIDA 010315Z AUTO 36017KT 10SM CLR A3000 RMK MADISHF
IDA,2017-04-01 03:20,-112.0708,43.5137,M,M,M,360.00,18.00,M,30.00,M,10.00,M,CLR,M,M,M,M,M,M,M,M,KIDA 010320Z AUTO 36018KT 10SM CLR A3000 RMK MADISHF
IDA,2017-04-01 03:25,-112.0708,43.5137,M,M,M,360.00,15.00,M,30.00,M,10.00,M,CLR,M,M,M,M,M,M,M,M,KIDA 010325Z AUTO 36015KT 10SM CLR A3000 RMK MADISHF
IDA,2017-04-01 03:30,-112.0708,43.5137,M,M,M,360.00,16.00,M,30.00,M,10.00,M,CLR,M,M,M,M,M,M,M,M,KIDA 010330Z AUTO 36016KT 10SM CLR A3000 RMK MADISHF
IDA,2017-04-01 03:35,-112.0708,43.5137,M,M,M,360.00,16.00,M,30.00,M,10.00,M,CLR,M,M,M,M,M,M,M,M,KIDA 010335Z AUTO 36016KT 10SM CLR A3000 RMK MADISHF
IDA,2017-04-01 03:40,-112.0708,43.5137,M,M,M,360.00,15.00,M,30.00,M,10.00,M,CLR,M,M,M,M,M,M,M,M,KIDA 010340Z AUTO 36015KT 10SM CLR A3000 RMK MADISHF
IDA,2017-04-01 03:45,-112.0708,43.5137,M,M,M,360.00,15.00,M,30.01,M,10.00,20.00,CLR,M,M,M,M,M,M,M,M,KIDA 010345Z AUTO 36015G20KT 10SM CLR A3001 RMK MADISHF
IDA,2017-04-01 03:50,-112.0708,43.5137,M,M,M,350.00,14.00,M,30.01,M,10.00,M,CLR,M,M,M,M,M,M,M,M,KIDA 010350Z AUTO 35014KT 10SM CLR A3001 RMK MADISHF
IDA,2017-04-01 03:53,-112.0708,43.5137,44.10,32.00,62.21,350.00,14.00,0.00,30.01,1015.90,10.00,M,CLR,M,M,M,M,M,M,M,M,KIDA 010353Z 35014KT 10SM CLR 07/00 A3001 RMK AO2 SLP159 T00670000
IDA,2017-04-01 03:55,-112.0708,43.5137,M,M,M,350.00,15.00,M,30.01,M,10.00,20.00,CLR,M,M,M,M,M,M,M,M,KIDA 010355Z AUTO 35015G20KT 10SM CLR A3001 RMK MADISHF
IDA,2017-04-01 04:00,-112.0708,43.5137,M,M,M,350.00,16.00,M,30.01,M,10.00,M,CLR,M,M,M,M,M,M,M,M,KIDA 010400Z AUTO 35016KT 10SM CLR A3001 RMK MADISHF
IDA,2017-04-01 04:05,-112.0708,43.5137,M,M,M,350.00,14.00,M,30.01,M,10.00,19.00,CLR,M,M,M,M,M,M,M,M,KIDA 010405Z AUTO 35014G19KT 10SM CLR A3001 RMK MADISHF
IDA,2017-04-01 04:10,-112.0708,43.5137,M,M,M,350.00,14.00,M,30.01,M,10.00,M,CLR,M,M,M,M,M,M,M,M,KIDA 010410Z AUTO 35014KT 10SM CLR A3001 RMK MADISHF
IDA,2017-04-01 04:15,-112.0708,43.5137,M,M,M,350.00,13.00,M,30.01,M,10.00,M,CLR,M,M,M,M,M,M,M,M,KIDA 010415Z AUTO 35013KT 10SM CLR A3001 RMK MADISHF
IDA,2017-04-01 04:20,-112.0708,43.5137,M,M,M,350.00,14.00,M,30.02,M,10.00,M,CLR,M,M,M,M,M,M,M,M,KIDA 010420Z AUTO 35014KT 10SM CLR A3002 RMK MADISHF
IDA,2017-04-01 04:25,-112.0708,43.5137,M,M,M,350.00,13.00,M,30.02,M,10.00,M,CLR,M,M,M,M,M,M,M,M,KIDA 010425Z AUTO 35013KT 10SM CLR A3002 RMK MADISHF
IDA,2017-04-01 04:30,-112.0708,43.5137,M,M,M,350.00,14.00,M,30.02,M,10.00,M,CLR,M,M,M,M,M,M,M,M,KIDA 010430Z AUTO 35014KT 10SM CLR A3002 RMK MADISHF
IDA,2017-04-01 04:35,-112.0708,43.5137,M,M,M,350.00,13.00,M,30.02,M,10.00,M,CLR,M,M,M,M,M,M,M,M,KIDA 010435Z AUTO 35013KT 10SM CLR A3002 RMK MADISHF
IDA,2017-04-01 04:40,-112.0708,43.5137,M,M,M,350.00,13.00,M,30.03,M,10.00,M,CLR,M,M,M,M,M,M,M,M,KIDA 010440Z AUTO 35013KT 10SM CLR A3003 RMK MADISHF
IDA,2017-04-01 04:45,-112.0708,43.5137,M,M,M,360.00,13.00,M,30.03,M,10.00,M,CLR,M,M,M,M,M,M,M,M,KIDA 010445Z AUTO 36013KT 10SM CLR A3003 RMK MADISHF
IDA,2017-04-01 04:50,-112.0708,43.5137,M,M,M,350.00,13.00,M,30.03,M,10.00,M,CLR,M,M,M,M,M,M,M,M,KIDA 010450Z AUTO 35013KT 10SM CLR A3003 RMK MADISHF
IDA,2017-04-01 04:53,-112.0708,43.5137,42.10,32.00,67.17,350.00,12.00,0.00,30.03,1016.40,10.00,M,CLR,M,M,M,M,M,M,M,M,KIDA 010453Z 35012KT 10SM CLR 06/00 A3003 RMK AO2 SLP164 T00560000
IDA,2017-04-01 04:55,-112.0708,43.5137,M,M,M,350.00,13.00,M,30.03,M,10.00,M,CLR,M,M,M,M,M,M,M,M,KIDA 010455Z AUTO 35013KT 10SM CLR A3003 RMK MADISHF
IDA,2017-04-01 05:00,-112.0708,43.5137,M,M,M,350.00,13.00,M,30.03,M,10.00,M,CLR,M,M,M,M,M,M,M,M,KIDA 010500Z AUTO 35013KT 10SM CLR A3003 RMK MADISHF
IDA,2017-04-01 05:05,-112.0708,43.5137,M,M,M,350.00,13.00,M,30.04,M,10.00,M,CLR,M,M,M,M,M,M,M,M,KIDA 010505Z AUTO 35013KT 10SM CLR A3004 RMK MADISHF
IDA,2017-04-01 05:10,-112.0708,43.5137,M,M,M,360.00,12.00,M,30.04,M,10.00,M,CLR,M,M,M,M,M,M,M,M,KIDA 010510Z AUTO 36012KT 10SM CLR A3004 RMK MADISHF
IDA,2017-04-01 05:15,-112.0708,43.5137,M,M,M,350.00,11.00,M,30.04,M,10.00,M,CLR,M,M,M,M,M,M,M,M,KIDA 010515Z AUTO 35011KT 10SM CLR A3004 RMK MADISHF
IDA,2017-04-01 05:20,-112.0708,43.5137,M,M,M,340.00,13.00,M,30.04,M,10.00,M,CLR,M,M,M,M,M,M,M,M,KIDA 010520Z AUTO 34013KT 10SM CLR A3004 RMK MADISHF
IDA,2017-04-01 05:25,-112.0708,43.5137,M,M,M,340.00,13.00,M,30.05,M,10.00,M,CLR,M,M,M,M,M,M,M,M,KIDA 010525Z AUTO 34013KT 10SM CLR A3005 RMK MADISHF
IDA,2017-04-01 05:30,-112.0708,43.5137,M,M,M,340.00,13.00,M,30.05,M,10.00,M,CLR,M,M,M,M,M,M,M,M,KIDA 010530Z AUTO 34013KT 10SM CLR A3005 RMK MADISHF
IDA,2017-04-01 05:35,-112.0708,43.5137,M,M,M,340.00,11.00,M,30.05,M,10.00,M,CLR,M,M,M,M,M,M,M,M,KIDA 010535Z AUTO 34011KT 10SM CLR A3005 RMK MADISHF
IDA,2017-04-01 05:40,-112.0708,43.5137,M,M,M,350.00,11.00,M,30.05,M,10.00,M,CLR,M,M,M,M,M,M,M,M,KIDA 010540Z AUTO 35011KT 10SM CLR A3005 RMK MADISHF
IDA,2017-04-01 05:45,-112.0708,43.5137,M,M,M,340.00,11.00,M,30.05,M,10.00,M,CLR,M,M,M,M,M,M,M,M,KIDA 010545Z AUTO 34011KT 10SM CLR A3005 RMK MADISHF
IDA,2017-04-01 05:50,-112.0708,43.5137,M,M,M,350.00,10.00,M,30.06,M,10.00,M,CLR,M,M,M,M,M,M,M,M,KIDA 010550Z AUTO 35010KT 10SM CLR A3006 RMK MADISHF
IDA,2017-04-01 05:53,-112.0708,43.5137,39.90,32.00,73.14,350.00,8.00,0.00,30.06,1017.10,10.00,M,CLR,M,M,M,M,M,M,M,M,KIDA 010553Z 35008KT 10SM CLR 04/00 A3006 RMK AO2 SLP171 T00440000 10139 20044 53021
IDA,2017-04-01 05:55,-112.0708,43.5137,M,M,M,350.00,9.00,M,30.06,M,10.00,M,CLR,M,M,M,M,M,M,M,M,KIDA 010555Z AUTO 35009KT 10SM CLR A3006 RMK MADISHF
IDA,2017-04-01 06:00,-112.0708,43.5137,M,M,M,350.00,9.00,M,30.06,M,10.00,M,CLR,M,M,M,M,M,M,M,M,KIDA 010600Z AUTO 35009KT 10SM CLR A3006 RMK MADISHF
IDA,2017-04-01 06:05,-112.0708,43.5137,M,M,M,340.00,10.00,M,30.06,M,10.00,M,CLR,M,M,M,M,M,M,M,M,KIDA 010605Z AUTO 34010KT 10SM CLR A3006 RMK MADISHF
IDA,2017-04-01 06:10,-112.0708,43.5137,M,M,M,340.00,10.00,M,30.06,M,10.00,M,CLR,M,M,M,M,M,M,M,M,KIDA 010610Z AUTO 34010KT 10SM CLR A3006 RMK MADISHF
IDA,2017-04-01 06:15,-112.0708,43.5137,M,M,M,340.00,8.00,M,30.06,M,10.00,M,CLR,M,M,M,M,M,M,M,M,KIDA 010615Z AUTO 34008KT 10SM CLR A3006 RMK MADISHF
IDA,2017-04-01 06:20,-112.0708,43.5137,M,M,M,340.00,9.00,M,30.06,M,10.00,M,CLR,M,M,M,M,M,M,M,M,KIDA 010620Z AUTO 34009KT 10SM CLR A3006 RMK MADISHF
IDA,2017-04-01 06:25,-112.0708,43.5137,M,M,M,340.00,9.00,M,30.06,M,10.00,M,CLR,M,M,M,M,M,M,M,M,KIDA 010625Z AUTO 34009KT 10SM CLR A3006 RMK MADISHF
IDA,2017-04-01 06:30,-112.0708,43.5137,M,M,M,350.00,8.00,M,30.06,M,10.00,M,CLR,M,M,M,M,M,M,M,M,KIDA 010630Z AUTO 35008KT 10SM CLR A3006 RMK MADISHF
IDA,2017-04-01 06:35,-112.0708,43.5137,M,M,M,350.00,10.00,M,30.06,M,10.00,M,CLR,M,M,M,M,M,M,M,M,KIDA 010635Z AUTO 35010KT 10SM CLR A3006 RMK MADISHF
IDA,2017-04-01 06:40,-112.0708,43.5137,M,M,M,350.00,10.00,M,30.06,M,10.00,M,CLR,M,M,M,M,M,M,M,M,KIDA 010640Z AUTO 35010KT 10SM CLR A3006 RMK MADISHF
IDA,2017-04-01 06:45,-112.0708,43.5137,M,M,M,350.00,10.00,M,30.07,M,10.00,M,CLR,M,M,M,M,M,M,M,M,KIDA 010645Z AUTO 35010KT 10SM CLR A3007 RMK MADISHF
IDA,2017-04-01 06:50,-112.0708,43.5137,M,M,M,350.00,10.00,M,30.07,M,10.00,M,CLR,M,M,M,M,M,M,M,M,KIDA 010650Z AUTO 35010KT 10SM CLR A3007 RMK MADISHF
IDA,2017-04-01 06:53,-112.0708,43.5137,37.90,30.90,75.64,350.00,12.00,0.00,30.07,1017.50,10.00,M,CLR,M,M,M,M,M,M,M,M,KIDA 010653Z 35012KT 10SM CLR 03/M01 A3007 RMK AO2 SLP175 T00331006 401610011
IDA,2017-04-01 06:55,-112.0708,43.5137,M,M,M,M,M,M,30.07,M,10.00,M,CLR,M,M,M,M,M,M,M,M,KIDA 010655Z AUTO /////KT 10SM CLR A3007 RMK MADISHF
IDA,2017-04-01 07:00,-112.0708,43.5137,M,M,M,M,M,M,30.06,M,10.00,M,CLR,M,M,M,M,M,M,M,M,KIDA 010700Z AUTO /////KT 10SM CLR A3006 RMK MADISHF
IDA,2017-04-01 07:05,-112.0708,43.5137,M,M,M,M,M,M,30.07,M,10.00,M,CLR,M,M,M,M,M,M,M,M,KIDA 010705Z AUTO /////KT 10SM CLR A3007 RMK MADISHF
IDA,2017-04-01 07:10,-112.0708,43.5137,M,M,M,M,M,M,30.07,M,10.00,M,CLR,M,M,M,M,M,M,M,M,KIDA 010710Z AUTO /////KT 10SM CLR A3007 RMK MADISHF
IDA,2017-04-01 07:15,-112.0708,43.5137,M,M,M,350.00,12.00,M,30.07,M,10.00,M,CLR,M,M,M,M,M,M,M,M,KIDA 010715Z AUTO 35012KT 10SM CLR A3007 RMK MADISHF
IDA,2017-04-01 07:20,-112.0708,43.5137,M,M,M,350.00,11.00,M,30.07,M,10.00,M,CLR,M,M,M,M,M,M,M,M,KIDA 010720Z AUTO 35011KT 10SM CLR A3007 RMK MADISHF
IDA,2017-04-01 07:25,-112.0708,43.5137,M,M,M,350.00,8.00,M,30.08,M,10.00,M,CLR,M,M,M,M,M,M,M,M,KIDA 010725Z AUTO 35008KT 10SM CLR A3008 RMK MADISHF
IDA,2017-04-01 07:30,-112.0708,43.5137,M,M,M,350.00,9.00,M,30.08,M,10.00,M,CLR,M,M,M,M,M,M,M,M,KIDA 010730Z AUTO 35009KT 10SM CLR A3008 RMK MADISHF
IDA,2017-04-01 07:35,-112.0708,43.5137,M,M,M,350.00,8.00,M,30.07,M,10.00,M,CLR,M,M,M,M,M,M,M,M,KIDA 010735Z AUTO 35008KT 10SM CLR A3007 RMK MADISHF
IDA,2017-04-01 07:40,-112.0708,43.5137,M,M,M,350.00,8.00,M,30.07,M,10.00,M,CLR,M,M,M,M,M,M,M,M,KIDA 010740Z AUTO 35008KT 10SM CLR A3007 RMK MADISHF
IDA,2017-04-01 07:45,-112.0708,43.5137,M,M,M,340.00,10.00,M,30.08,M,10.00,M,CLR,M,M,M,M,M,M,M,M,KIDA 010745Z AUTO 34010KT 10SM CLR A3008 RMK MADISHF
IDA,2017-04-01 07:50,-112.0708,43.5137,M,M,M,350.00,10.00,M,30.08,M,10.00,M,CLR,M,M,M,M,M,M,M,M,KIDA 010750Z AUTO 35010KT 10SM CLR A3008 RMK MADISHF
IDA,2017-04-01 07:53,-112.0708,43.5137,37.00,30.00,75.56,350.00,11.00,0.00,30.08,1017.80,10.00,M,CLR,M,M,M,M,M,M,M,M,KIDA 010753Z 35011KT 10SM CLR 03/M01 A3008 RMK AO2 SLP178 T00281011
IDA,2017-04-01 07:55,-112.0708,43.5137,M,M,M,350.00,10.00,M,30.08,M,10.00,M,CLR,M,M,M,M,M,M,M,M,KIDA 010755Z AUTO 35010KT 10SM CLR A3008 RMK MADISHF
IDA,2017-04-01 08:00,-112.0708,43.5137,M,M,M,350.00,11.00,M,30.08,M,10.00,M,CLR,M,M,M,M,M,M,M,M,KIDA 010800Z AUTO 35011KT 10SM CLR A3008 RMK MADISHF
IDA,2017-04-01 08:05,-112.0708,43.5137,M,M,M,340.00,10.00,M,30.08,M,10.00,M,CLR,M,M,M,M,M,M,M,M,KIDA 010805Z AUTO 34010KT 10SM CLR A3008 RMK MADISHF
IDA,2017-04-01 08:10,-112.0708,43.5137,M,M,M,350.00,9.00,M,30.08,M,10.00,M,CLR,M,M,M,M,M,M,M,M,KIDA 010810Z AUTO 35009KT 10SM CLR A3008 RMK MADISHF
IDA,2017-04-01 08:15,-112.0708,43.5137,M,M,M,350.00,7.00,M,30.08,M,10.00,M,CLR,M,M,M,M,M,M,M,M,KIDA 010815Z AUTO 35007KT 10SM CLR A3008 RMK MADISHF
IDA,2017-04-01 08:20,-112.0708,43.5137,M,M,M,350.00,7.00,M,30.08,M,10.00,M,CLR,M,M,M,M,M,M,M,M,KIDA 010820Z AUTO 35007KT 10SM CLR A3008 RMK MADISHF
IDA,2017-04-01 08:25,-112.0708,43.5137,M,M,M,350.00,7.00,M,30.08,M,10.00,M,CLR,M,M,M,M,M,M,M,M,KIDA 010825Z AUTO 35007KT 10SM CLR A3008 RMK MADISHF
IDA,2017-04-01 08:30,-112.0708,43.5137,M,M,M,350.00,8.00,M,30.08,M,10.00,M,CLR,M,M,M,M,M,M,M,M,KIDA 010830Z AUTO 35008KT 10SM CLR A3008 RMK MADISHF
IDA,2017-04-01 08:35,-112.0708,43.5137,M,M,M,350.00,7.00,M,30.08,M,10.00,M,CLR,M,M,M,M,M,M,M,M,KIDA 010835Z AUTO 35007KT 10SM CLR A3008 RMK MADISHF
IDA,2017-04-01 08:40,-112.0708,43.5137,M,M,M,350.00,7.00,M,30.08,M,10.00,M,CLR,M,M,M,M,M,M,M,M,KIDA 010840Z AUTO 35007KT 10SM CLR A3008 RMK MADISHF
IDA,2017-04-01 08:45,-112.0708,43.5137,M,M,M,360.00,8.00,M,30.08,M,10.00,M,CLR,M,M,M,M,M,M,M,M,KIDA 010845Z AUTO 36008KT 10SM CLR A3008 RMK MADISHF
IDA,2017-04-01 08:50,-112.0708,43.5137,M,M,M,360.00,8.00,M,30.08,M,10.00,M,CLR,M,M,M,M,M,M,M,M,KIDA 010850Z AUTO 36008KT 10SM CLR A3008 RMK MADISHF
IDA,2017-04-01 08:53,-112.0708,43.5137,35.10,30.00,81.46,360.00,7.00,0.00,30.08,1018.20,10.00,M,CLR,M,M,M,M,M,M,M,M,KIDA 010853Z 36007KT 10SM CLR 02/M01 A3008 RMK AO2 SLP182 T00171011 51007
IDA,2017-04-01 08:55,-112.0708,43.5137,M,M,M,360.00,6.00,M,30.08,M,10.00,M,CLR,M,M,M,M,M,M,M,M,KIDA 010855Z AUTO 36006KT 10SM CLR A3008 RMK MADISHF
IDA,2017-04-01 09:00,-112.0708,43.5137,M,M,M,360.00,6.00,M,30.08,M,10.00,M,CLR,M,M,M,M,M,M,M,M,KIDA 010900Z AUTO 36006KT 10SM CLR A3008 RMK MADISHF
IDA,2017-04-01 09:05,-112.0708,43.5137,M,M,M,10.00,6.00,M,30.08,M,10.00,M,CLR,M,M,M,M,M,M,M,M,KIDA 010905Z AUTO 01006KT 10SM CLR A3008 RMK MADISHF
IDA,2017-04-01 09:10,-112.0708,43.5137,M,M,M,360.00,6.00,M,30.08,M,10.00,M,CLR,M,M,M,M,M,M,M,M,KIDA 010910Z AUTO 36006KT 10SM CLR A3008 RMK MADISHF
IDA,2017-04-01 09:15,-112.0708,43.5137,M,M,M,360.00,7.00,M,30.08,M,10.00,M,CLR,M,M,M,M,M,M,M,M,KIDA 010915Z AUTO 36007KT 10SM CLR A3008 RMK MADISHF
IDA,2017-04-01 09:20,-112.0708,43.5137,M,M,M,10.00,6.00,M,30.08,M,10.00,M,CLR,M,M,M,M,M,M,M,M,KIDA 010920Z AUTO 01006KT 10SM CLR A3008 RMK MADISHF
IDA,2017-04-01 09:25,-112.0708,43.5137,M,M,M,50.00,3.00,M,30.08,M,10.00,M,CLR,M,M,M,M,M,M,M,M,KIDA 010925Z AUTO 05003KT 10SM CLR A3008 RMK MADISHF
IDA,2017-04-01 09:30,-112.0708,43.5137,M,M,M,0.00,0.00,M,30.09,M,10.00,M,CLR,M,M,M,M,M,M,M,M,KIDA 010930Z AUTO 00000KT 10SM CLR A3009 RMK MADISHF
IDA,2017-04-01 09:35,-112.0708,43.5137,M,M,M,0.00,0.00,M,30.09,M,10.00,M,CLR,M,M,M,M,M,M,M,M,KIDA 010935Z AUTO 00000KT 10SM CLR A3009 RMK MADISHF
IDA,2017-04-01 09:40,-112.0708,43.5137,M,M,M,0.00,0.00,M,30.10,M,10.00,M,CLR,M,M,M,M,M,M,M,M,KIDA 010940Z AUTO 00000KT 10SM CLR A3010 RMK MADISHF
IDA,2017-04-01 09:45,-112.0708,43.5137,M,M,M,0.00,0.00,M,30.10,M,10.00,M,CLR,M,M,M,M,M,M,M,M,KIDA 010945Z AUTO 00000KT 10SM CLR A3010 RMK MADISHF
IDA,2017-04-01 09:50,-112.0708,43.5137,M,M,M,0.00,0.00,M,30.10,M,10.00,M,CLR,M,M,M,M,M,M,M,M,KIDA 010950Z AUTO 00000KT 10SM CLR A3010 RMK MADISHF
IDA,2017-04-01 09:53,-112.0708,43.5137,36.00,30.00,78.60,0.00,0.00,0.00,30.10,1018.50,10.00,M,CLR,M,M,M,M,M,M,M,M,KIDA 010953Z 00000KT 10SM CLR 02/M01 A3010 RMK AO2 SLP185 T00221011
IDA,2017-04-01 09:55,-112.0708,43.5137,M,M,M,0.00,0.00,M,30.10,M,10.00,M,CLR,M,M,M,M,M,M,M,M,KIDA 010955Z AUTO 00000KT 10SM CLR A3010 RMK MADISHF
IDA,2017-04-01 10:00,-112.0708,43.5137,M,M,M,0.00,0.00,M,30.10,M,10.00,M,CLR,M,M,M,M,M,M,M,M,KIDA 011000Z AUTO 00000KT 10SM CLR A3010 RMK MADISHF
IDA,2017-04-01 10:05,-112.0708,43.5137,M,M,M,300.00,3.00,M,30.10,M,10.00,M,CLR,M,M,M,M,M,M,M,M,KIDA 011005Z AUTO 30003KT 10SM CLR A3010 RMK MADISHF
IDA,2017-04-01 10:10,-112.0708,43.5137,M,M,M,0.00,0.00,M,30.10,M,10.00,M,CLR,M,M,M,M,M,M,M,M,KIDA 011010Z AUTO 00000KT 10SM CLR A3010 RMK MADISHF
IDA,2017-04-01 10:15,-112.0708,43.5137,M,M,M,360.00,3.00,M,30.11,M,10.00,M,CLR,M,M,M,M,M,M,M,M,KIDA 011015Z AUTO 36003KT 10SM CLR A3011 RMK MADISHF
IDA,2017-04-01 10:20,-112.0708,43.5137,M,M,M,0.00,0.00,M,30.11,M,10.00,M,CLR,M,M,M,M,M,M,M,M,KIDA 011020Z AUTO 00000KT 10SM CLR A3011 RMK MADISHF
IDA,2017-04-01 10:25,-112.0708,43.5137,M,M,M,0.00,0.00,M,30.11,M,10.00,M,CLR,M,M,M,M,M,M,M,M,KIDA 011025Z AUTO 00000KT 10SM CLR A3011 RMK MADISHF
IDA,2017-04-01 10:30,-112.0708,43.5137,M,M,M,40.00,5.00,M,30.11,M,10.00,M,CLR,M,M,M,M,M,M,M,M,KIDA 011030Z AUTO 04005KT 10SM CLR A3011 RMK MADISHF
IDA,2017-04-01 10:35,-112.0708,43.5137,M,M,M,60.00,4.00,M,30.10,M,10.00,M,CLR,M,M,M,M,M,M,M,M,KIDA 011035Z AUTO 06004KT 10SM CLR A3010 RMK MADISHF
IDA,2017-04-01 10:40,-112.0708,43.5137,M,M,M,150.00,5.00,M,30.10,M,10.00,M,CLR,M,M,M,M,M,M,M,M,KIDA 011040Z AUTO 15005KT 10SM CLR A3010 RMK MADISHF
IDA,2017-04-01 10:45,-112.0708,43.5137,M,M,M,120.00,5.00,M,30.10,M,10.00,M,CLR,M,M,M,M,M,M,M,M,KIDA 011045Z AUTO 12005KT 10SM CLR A3010 RMK MADISHF
IDA,2017-04-01 10:50,-112.0708,43.5137,M,M,M,80.00,3.00,M,30.10,M,10.00,M,CLR,M,M,M,M,M,M,M,M,KIDA 011050Z AUTO 08003KT 10SM CLR A3010 RMK MADISHF
IDA,2017-04-01 10:53,-112.0708,43.5137,34.00,30.00,85.11,0.00,0.00,0.00,30.10,1018.60,10.00,M,CLR,M,M,M,M,M,M,M,M,KIDA 011053Z AUTO 00000KT 10SM CLR 01/M01 A3010 RMK AO2 SLP186 T00111011
IDA,2017-04-01 10:55,-112.0708,43.5137,M,M,M,0.00,0.00,M,30.10,M,10.00,M,CLR,M,M,M,M,M,M,M,M,KIDA 011055Z AUTO 00000KT 10SM CLR A3010 RMK MADISHF
IDA,2017-04-01 11:00,-112.0708,43.5137,M,M,M,190.00,5.00,M,30.10,M,10.00,M,CLR,M,M,M,M,M,M,M,M,KIDA 011100Z AUTO 19005KT 10SM CLR A3010 RMK MADISHF
IDA,2017-04-01 11:05,-112.0708,43.5137,M,M,M,0.00,0.00,M,30.10,M,10.00,M,CLR,M,M,M,M,M,M,M,M,KIDA 011105Z AUTO 00000KT 10SM CLR A3010 RMK MADISHF
IDA,2017-04-01 11:10,-112.0708,43.5137,M,M,M,0.00,0.00,M,30.10,M,10.00,M,CLR,M,M,M,M,M,M,M,M,KIDA 011110Z AUTO 00000KT 10SM CLR A3010 RMK MADISHF
IDA,2017-04-01 11:15,-112.0708,43.5137,M,M,M,210.00,3.00,M,30.11,M,10.00,M,CLR,M,M,M,M,M,M,M,M,KIDA 011115Z AUTO 21003KT 10SM CLR A3011 RMK MADISHF
IDA,2017-04-01 11:20,-112.0708,43.5137,M,M,M,0.00,0.00,M,30.11,M,10.00,M,CLR,M,M,M,M,M,M,M,M,KIDA 011120Z AUTO 00000KT 10SM CLR A3011 RMK MADISHF
IDA,2017-04-01 11:25,-112.0708,43.5137,M,M,M,0.00,0.00,M,30.10,M,10.00,M,CLR,M,M,M,M,M,M,M,M,KIDA 011125Z AUTO 00000KT 10SM CLR A3010 RMK MADISHF
IDA,2017-04-01 11:30,-112.0708,43.5137,M,M,M,250.00,5.00,M,30.11,M,10.00,M,CLR,M,M,M,M,M,M,M,M,KIDA 011130Z AUTO 25005KT 10SM CLR A3011 RMK MADISHF
IDA,2017-04-01 11:35,-112.0708,43.5137,M,M,M,210.00,4.00,M,30.11,M,10.00,M,CLR,M,M,M,M,M,M,M,M,KIDA 011135Z AUTO 21004KT 10SM CLR A3011 RMK MADISHF
IDA,2017-04-01 11:40,-112.0708,43.5137,M,M,M,260.00,6.00,M,30.11,M,10.00,M,CLR,M,M,M,M,M,M,M,M,KIDA 011140Z AUTO 26006KT 10SM CLR A3011 RMK MADISHF
IDA,2017-04-01 11:45,-112.0708,43.5137,M,M,M,240.00,3.00,M,30.11,M,10.00,M,CLR,M,M,M,M,M,M,M,M,KIDA 011145Z AUTO 24003KT 10SM CLR A3011 RMK MADISHF
IDA,2017-04-01 11:50,-112.0708,43.5137,M,M,M,250.00,5.00,M,30.12,M,10.00,M,CLR,M,M,M,M,M,M,M,M,KIDA 011150Z AUTO 25005KT 10SM CLR A3012 RMK MADISHF
IDA,2017-04-01 11:53,-112.0708,43.5137,30.00,28.00,92.15,260.00,5.00,0.00,30.12,1019.90,10.00,M,CLR,M,M,M,M,M,M,M,M,KIDA 011153Z AUTO 26005KT 10SM CLR M01/M02 A3012 RMK AO2 SLP199 T10111022 10044 21011 51010
IDA,2017-04-01 11:55,-112.0708,43.5137,M,M,M,280.00,4.00,M,30.12,M,10.00,M,CLR,M,M,M,M,M,M,M,M,KIDA 011155Z AUTO 28004KT 10SM CLR A3012 RMK MADISHF
IDA,2017-04-01 12:00,-112.0708,43.5137,M,M,M,240.00,3.00,M,30.12,M,10.00,M,CLR,M,M,M,M,M,M,M,M,KIDA 011200Z AUTO 24003KT 10SM CLR A3012 RMK MADISHF
IDA,2017-04-01 12:05,-112.0708,43.5137,M,M,M,220.00,4.00,M,30.12,M,10.00,M,CLR,M,M,M,M,M,M,M,M,KIDA 011205Z AUTO 22004KT 10SM CLR A3012 RMK MADISHF
IDA,2017-04-01 12:10,-112.0708,43.5137,M,M,M,230.00,4.00,M,30.12,M,10.00,M,CLR,M,M,M,M,M,M,M,M,KIDA 011210Z AUTO 23004KT 10SM CLR A3012 RMK MADISHF
IDA,2017-04-01 12:15,-112.0708,43.5137,M,M,M,230.00,3.00,M,30.13,M,10.00,M,CLR,M,M,M,M,M,M,M,M,KIDA 011215Z AUTO 23003KT 10SM CLR A3013 RMK MADISHF
IDA,2017-04-01 12:20,-112.0708,43.5137,M,M,M,240.00,3.00,M,30.13,M,10.00,M,CLR,M,M,M,M,M,M,M,M,KIDA 011220Z AUTO 24003KT 10SM CLR A3013 RMK MADISHF
IDA,2017-04-01 12:25,-112.0708,43.5137,M,M,M,0.00,0.00,M,30.13,M,10.00,M,CLR,M,M,M,M,M,M,M,M,KIDA 011225Z AUTO 00000KT 10SM CLR A3013 RMK MADISHF
IDA,2017-04-01 12:30,-112.0708,43.5137,M,M,M,230.00,3.00,M,30.13,M,10.00,M,CLR,M,M,M,M,M,M,M,M,KIDA 011230Z AUTO 23003KT 10SM CLR A3013 RMK MADISHF
IDA,2017-04-01 12:35,-112.0708,43.5137,M,M,M,0.00,0.00,M,30.13,M,10.00,M,CLR,M,M,M,M,M,M,M,M,KIDA 011235Z AUTO 00000KT 10SM CLR A3013 RMK MADISHF
IDA,2017-04-01 12:40,-112.0708,43.5137,M,M,M,0.00,0.00,M,30.13,M,10.00,M,CLR,M,M,M,M,M,M,M,M,KIDA 011240Z AUTO 00000KT 10SM CLR A3013 RMK MADISHF
IDA,2017-04-01 12:45,-112.0708,43.5137,M,M,M,210.00,4.00,M,30.13,M,10.00,M,CLR,M,M,M,M,M,M,M,M,KIDA 011245Z AUTO 21004KT 10SM CLR A3013 RMK MADISHF
IDA,2017-04-01 12:50,-112.0708,43.5137,M,M,M,210.00,7.00,M,30.13,M,10.00,M,CLR,M,M,M,M,M,M,M,M,KIDA 011250Z AUTO 21007KT 10SM CLR A3013 RMK MADISHF
IDA,2017-04-01 12:53,-112.0708,43.5137,30.00,27.00,88.44,210.00,7.00,0.00,30.13,1020.40,10.00,M,CLR,M,M,M,M,M,M,M,M,KIDA 011253Z 21007KT 10SM CLR M01/M03 A3013 RMK AO2 SLP204 T10111028
IDA,2017-04-01 12:55,-112.0708,43.5137,M,M,M,210.00,6.00,M,30.13,M,10.00,M,CLR,M,M,M,M,M,M,M,M,KIDA 011255Z AUTO 21006KT 10SM CLR A3013 RMK MADISHF
IDA,2017-04-01 13:00,-112.0708,43.5137,M,M,M,220.00,6.00,M,30.13,M,10.00,M,CLR,M,M,M,M,M,M,M,M,KIDA 011300Z AUTO 22006KT 10SM CLR A3013 RMK MADISHF
IDA,2017-04-01 13:05,-112.0708,43.5137,M,M,M,220.00,5.00,M,30.13,M,10.00,M,CLR,M,M,M,M,M,M,M,M,KIDA 011305Z AUTO 22005KT 10SM CLR A3013 RMK MADISHF
IDA,2017-04-01 13:10,-112.0708,43.5137,M,M,M,220.00,7.00,M,30.13,M,10.00,M,CLR,M,M,M,M,M,M,M,M,KIDA 011310Z AUTO 22007KT 10SM CLR A3013 RMK MADISHF
IDA,2017-04-01 13:15,-112.0708,43.5137,M,M,M,220.00,6.00,M,30.13,M,10.00,M,CLR,M,M,M,M,M,M,M,M,KIDA 011315Z AUTO 22006KT 10SM CLR A3013 RMK MADISHF
IDA,2017-04-01 13:20,-112.0708,43.5137,M,M,M,230.00,5.00,M,30.13,M,10.00,M,CLR,M,M,M,M,M,M,M,M,KIDA 011320Z AUTO 23005KT 10SM CLR A3013 RMK MADISHF
IDA,2017-04-01 13:25,-112.0708,43.5137,M,M,M,230.00,5.00,M,30.13,M,10.00,M,CLR,M,M,M,M,M,M,M,M,KIDA 011325Z AUTO 23005KT 10SM CLR A3013 RMK MADISHF
IDA,2017-04-01 13:30,-112.0708,43.5137,M,M,M,220.00,6.00,M,30.14,M,10.00,M,CLR,M,M,M,M,M,M,M,M,KIDA 011330Z AUTO 22006KT 10SM CLR A3014 RMK MADISHF
IDA,2017-04-01 13:35,-112.0708,43.5137,M,M,M,240.00,4.00,M,30.14,M,10.00,M,CLR,M,M,M,M,M,M,M,M,KIDA 011335Z AUTO 24004KT 10SM CLR A3014 RMK MADISHF
IDA,2017-04-01 13:40,-112.0708,43.5137,M,M,M,220.00,5.00,M,30.15,M,10.00,M,CLR,M,M,M,M,M,M,M,M,KIDA 011340Z AUTO 22005KT 10SM CLR A3015 RMK MADISHF
IDA,2017-04-01 13:45,-112.0708,43.5137,M,M,M,220.00,6.00,M,30.15,M,10.00,M,CLR,M,M,M,M,M,M,M,M,KIDA 011345Z AUTO 22006KT 10SM CLR A3015 RMK MADISHF
IDA,2017-04-01 13:50,-112.0708,43.5137,M,M,M,220.00,5.00,M,30.15,M,10.00,M,CLR,M,M,M,M,M,M,M,M,KIDA 011350Z AUTO 22005KT 10SM CLR A3015 RMK MADISHF
IDA,2017-04-01 13:53,-112.0708,43.5137,32.00,30.00,92.22,210.00,6.00,0.00,30.15,1021.60,10.00,M,CLR,M,M,M,M,M,M,M,M,KIDA 011353Z 21006KT 10SM CLR 00/M01 A3015 RMK AO2 SLP216 HZ ALQDS T00001011
IDA,2017-04-01 13:55,-112.0708,43.5137,M,M,M,210.00,6.00,M,30.15,M,10.00,M,CLR,M,M,M,M,M,M,M,M,KIDA 011355Z AUTO 21006KT 10SM CLR A3015 RMK MADISHF
IDA,2017-04-01 14:00,-112.0708,43.5137,M,M,M,210.00,7.00,M,30.15,M,10.00,M,CLR,M,M,M,M,M,M,M,M,KIDA 011400Z AUTO 21007KT 10SM CLR A3015 RMK MADISHF
IDA,2017-04-01 14:05,-112.0708,43.5137,M,M,M,200.00,7.00,M,30.15,M,10.00,M,CLR,M,M,M,M,M,M,M,M,KIDA 011405Z AUTO 20007KT 10SM CLR A3015 RMK MADISHF
IDA,2017-04-01 14:10,-112.0708,43.5137,M,M,M,200.00,6.00,M,30.15,M,10.00,M,CLR,M,M,M,M,M,M,M,M,KIDA 011410Z AUTO 20006KT 10SM CLR A3015 RMK MADISHF
IDA,2017-04-01 14:15,-112.0708,43.5137,M,M,M,200.00,6.00,M,30.15,M,10.00,M,CLR,M,M,M,M,M,M,M,M,KIDA 011415Z AUTO 20006KT 10SM CLR A3015 RMK MADISHF
IDA,2017-04-01 14:20,-112.0708,43.5137,M,M,M,200.00,9.00,M,30.15,M,10.00,M,CLR,M,M,M,M,M,M,M,M,KIDA 011420Z AUTO 20009KT 10SM CLR A3015 RMK MADISHF
IDA,2017-04-01 14:25,-112.0708,43.5137,M,M,M,210.00,8.00,M,30.15,M,10.00,M,CLR,M,M,M,M,M,M,M,M,KIDA 011425Z AUTO 21008KT 10SM CLR A3015 RMK MADISHF
IDA,2017-04-01 14:30,-112.0708,43.5137,M,M,M,200.00,8.00,M,30.15,M,10.00,M,CLR,M,M,M,M,M,M,M,M,KIDA 011430Z AUTO 20008KT 10SM CLR A3015 RMK MADISHF
IDA,2017-04-01 14:35,-112.0708,43.5137,M,M,M,210.00,10.00,M,30.15,M,10.00,M,CLR,M,M,M,M,M,M,M,M,KIDA 011435Z AUTO 21010KT 10SM CLR A3015 RMK MADISHF
IDA,2017-04-01 14:40,-112.0708,43.5137,M,M,M,210.00,10.00,M,30.14,M,10.00,M,CLR,M,M,M,M,M,M,M,M,KIDA 011440Z AUTO 21010KT 10SM CLR A3014 RMK MADISHF
IDA,2017-04-01 14:45,-112.0708,43.5137,M,M,M,210.00,11.00,M,30.14,M,10.00,M,CLR,M,M,M,M,M,M,M,M,KIDA 011445Z AUTO 21011KT 10SM CLR A3014 RMK MADISHF
IDA,2017-04-01 14:50,-112.0708,43.5137,M,M,M,210.00,10.00,M,30.14,M,10.00,M,FEW,M,M,M,600.00,M,M,M,M,KIDA 011450Z AUTO 21010KT 10SM FEW006 A3014 RMK MADISHF
IDA,2017-04-01 14:53,-112.0708,43.5137,36.00,34.00,92.35,210.00,13.00,0.00,30.14,1020.90,10.00,M,FEW,M,M,M,600.00,M,M,M,M,KIDA 011453Z 21013KT 10SM FEW006 02/01 A3014 RMK AO2 SLP209 T00220011 50007
IDA,2017-04-01 14:55,-112.0708,43.5137,M,M,M,M,M,M,30.14,M,10.00,M,CLR,M,M,M,M,M,M,M,M,KIDA 011455Z AUTO /////KT 10SM CLR A3014 RMK MADISHF
IDA,2017-04-01 15:00,-112.0708,43.5137,M,M,M,210.00,12.00,M,30.14,M,10.00,M,CLR,M,M,M,M,M,M,M,M,KIDA 011500Z AUTO 21012KT 10SM CLR A3014 RMK MADISHF
IDA,2017-04-01 15:05,-112.0708,43.5137,M,M,M,220.00,12.00,M,30.15,M,10.00,M,CLR,M,M,M,M,M,M,M,M,KIDA 011505Z AUTO 22012KT 10SM CLR A3015 RMK MADISHF
IDA,2017-04-01 15:10,-112.0708,43.5137,M,M,M,210.00,13.00,M,30.14,M,10.00,M,CLR,M,M,M,M,M,M,M,M,KIDA 011510Z AUTO 21013KT 10SM CLR A3014 RMK MADISHF
IDA,2017-04-01 15:15,-112.0708,43.5137,M,M,M,200.00,13.00,M,30.15,M,10.00,M,CLR,M,M,M,M,M,M,M,M,KIDA 011515Z AUTO 20013KT 10SM CLR A3015 RMK MADISHF
IDA,2017-04-01 15:20,-112.0708,43.5137,M,M,M,210.00,11.00,M,30.15,M,10.00,M,CLR,M,M,M,M,M,M,M,M,KIDA 011520Z AUTO 21011KT 10SM CLR A3015 RMK MADISHF
IDA,2017-04-01 15:25,-112.0708,43.5137,M,M,M,200.00,11.00,M,30.15,M,10.00,M,CLR,M,M,M,M,M,M,M,M,KIDA 011525Z AUTO 20011KT 10SM CLR A3015 RMK MADISHF
IDA,2017-04-01 15:30,-112.0708,43.5137,M,M,M,200.00,12.00,M,30.15,M,10.00,M,CLR,M,M,M,M,M,M,M,M,KIDA 011530Z AUTO 20012KT 10SM CLR A3015 RMK MADISHF
IDA,2017-04-01 15:35,-112.0708,43.5137,M,M,M,210.00,10.00,M,30.16,M,10.00,M,CLR,M,M,M,M,M,M,M,M,KIDA 011535Z AUTO 21010KT 10SM CLR A3016 RMK MADISHF
IDA,2017-04-01 15:40,-112.0708,43.5137,M,M,M,210.00,11.00,M,30.16,M,10.00,M,CLR,M,M,M,M,M,M,M,M,KIDA 011540Z AUTO 21011KT 10SM CLR A3016 RMK MADISHF
IDA,2017-04-01 15:45,-112.0708,43.5137,M,M,M,210.00,10.00,M,30.16,M,10.00,M,CLR,M,M,M,M,M,M,M,M,KIDA 011545Z AUTO 21010KT 10SM CLR A3016 RMK MADISHF
IDA,2017-04-01 15:50,-112.0708,43.5137,M,M,M,210.00,12.00,M,30.16,M,10.00,M,CLR,M,M,M,M,M,M,M,M,KIDA 011550Z AUTO 21012KT 10SM CLR A3016 RMK  HZ ALQDS MADISHF
IDA,2017-04-01 15:53,-112.0708,43.5137,41.00,36.00,82.22,210.00,12.00,0.00,30.16,1021.40,10.00,M,CLR,M,M,M,M,M,M,M,M,KIDA 011553Z 21012KT 10SM CLR 05/02 A3016 RMK AO2 SLP214 HZ ALQDS T00500022
IDA,2017-04-01 15:55,-112.0708,43.5137,M,M,M,220.00,12.00,M,30.16,M,10.00,M,CLR,M,M,M,M,M,M,M,M,KIDA 011555Z AUTO 22012KT 10SM CLR A3016 RMK MADISHF
IDA,2017-04-01 16:00,-112.0708,43.5137,M,M,M,210.00,12.00,M,30.16,M,10.00,M,CLR,M,M,M,M,M,M,M,M,KIDA 011600Z AUTO 21012KT 10SM CLR A3016 RMK MADISHF
IDA,2017-04-01 16:05,-112.0708,43.5137,M,M,M,220.00,11.00,M,30.16,M,10.00,M,CLR,M,M,M,M,M,M,M,M,KIDA 011605Z AUTO 22011KT 10SM CLR A3016 RMK MADISHF
IDA,2017-04-01 16:10,-112.0708,43.5137,M,M,M,220.00,11.00,M,30.17,M,10.00,M,CLR,M,M,M,M,M,M,M,M,KIDA 011610Z AUTO 22011KT 10SM CLR A3017 RMK MADISHF
IDA,2017-04-01 16:15,-112.0708,43.5137,M,M,M,200.00,11.00,M,30.17,M,10.00,M,CLR,M,M,M,M,M,M,M,M,KIDA 011615Z AUTO 20011KT 10SM CLR A3017 RMK MADISHF
IDA,2017-04-01 16:20,-112.0708,43.5137,M,M,M,210.00,13.00,M,30.17,M,10.00,M,CLR,M,M,M,M,M,M,M,M,KIDA 011620Z AUTO 21013KT 10SM CLR A3017 RMK MADISHF
IDA,2017-04-01 16:25,-112.0708,43.5137,M,M,M,220.00,12.00,M,30.17,M,10.00,M,CLR,M,M,M,M,M,M,M,M,KIDA 011625Z AUTO 22012KT 10SM CLR A3017 RMK MADISHF
IDA,2017-04-01 16:30,-112.0708,43.5137,M,M,M,200.00,10.00,M,30.17,M,10.00,M,CLR,M,M,M,M,M,M,M,M,KIDA 011630Z AUTO 20010KT 10SM CLR A3017 RMK MADISHF
IDA,2017-04-01 16:35,-112.0708,43.5137,M,M,M,210.00,9.00,M,30.17,M,10.00,M,CLR,M,M,M,M,M,M,M,M,KIDA 011635Z AUTO 21009KT 10SM CLR A3017 RMK MADISHF
IDA,2017-04-01 16:40,-112.0708,43.5137,M,M,M,210.00,10.00,M,30.18,M,10.00,M,CLR,M,M,M,M,M,M,M,M,KIDA 011640Z AUTO 21010KT 10SM CLR A3018 RMK MADISHF
IDA,2017-04-01 16:45,-112.0708,43.5137,M,M,M,210.00,11.00,M,30.18,M,10.00,M,CLR,M,M,M,M,M,M,M,M,KIDA 011645Z AUTO 21011KT 10SM CLR A3018 RMK MADISHF
IDA,2017-04-01 16:50,-112.0708,43.5137,M,M,M,210.00,12.00,M,30.18,M,10.00,M,CLR,M,M,M,M,M,M,M,M,KIDA 011650Z AUTO 21012KT 10SM CLR A3018 RMK MADISHF
IDA,2017-04-01 16:53,-112.0708,43.5137,44.10,36.00,72.99,200.00,12.00,0.00,30.18,1022.10,10.00,M,CLR,M,M,M,M,M,M,M,M,KIDA 011653Z 20012KT 10SM CLR 07/02 A3018 RMK AO2 SLP221 T00670022
IDA,2017-04-01 16:55,-112.0708,43.5137,M,M,M,200.00,11.00,M,30.18,M,10.00,16.00,CLR,M,M,M,M,M,M,M,M,KIDA 011655Z AUTO 20011G16KT 10SM CLR A3018 RMK MADISHF
IDA,2017-04-01 17:00,-112.0708,43.5137,M,M,M,220.00,13.00,M,30.18,M,10.00,M,CLR,M,M,M,M,M,M,M,M,KIDA 011700Z AUTO 22013KT 10SM CLR A3018 RMK MADISHF
IDA,2017-04-01 17:05,-112.0708,43.5137,M,M,M,200.00,13.00,M,30.18,M,10.00,M,CLR,M,M,M,M,M,M,M,M,KIDA 011705Z AUTO 20013KT 10SM CLR A3018 RMK MADISHF
IDA,2017-04-01 17:10,-112.0708,43.5137,M,M,M,200.00,12.00,M,30.18,M,10.00,M,CLR,M,M,M,M,M,M,M,M,KIDA 011710Z AUTO 20012KT 10SM CLR A3018 RMK MADISHF
IDA,2017-04-01 17:15,-112.0708,43.5137,M,M,M,200.00,13.00,M,30.18,M,10.00,M,CLR,M,M,M,M,M,M,M,M,KIDA 011715Z AUTO 20013KT 10SM CLR A3018 RMK MADISHF
IDA,2017-04-01 17:20,-112.0708,43.5137,M,M,M,220.00,12.00,M,30.17,M,10.00,M,CLR,M,M,M,M,M,M,M,M,KIDA 011720Z AUTO 22012KT 10SM CLR A3017 RMK MADISHF
IDA,2017-04-01 17:25,-112.0708,43.5137,M,M,M,220.00,12.00,M,30.16,M,10.00,M,CLR,M,M,M,M,M,M,M,M,KIDA 011725Z AUTO 22012KT 10SM CLR A3016 RMK MADISHF
IDA,2017-04-01 17:30,-112.0708,43.5137,M,M,M,210.00,14.00,M,30.16,M,10.00,M,CLR,M,M,M,M,M,M,M,M,KIDA 011730Z AUTO 21014KT 10SM CLR A3016 RMK MADISHF
IDA,2017-04-01 17:35,-112.0708,43.5137,M,M,M,210.00,12.00,M,30.16,M,10.00,M,CLR,M,M,M,M,M,M,M,M,KIDA 011735Z AUTO 21012KT 10SM CLR A3016 RMK MADISHF
IDA,2017-04-01 17:40,-112.0708,43.5137,M,M,M,190.00,13.00,M,30.16,M,10.00,M,CLR,M,M,M,M,M,M,M,M,KIDA 011740Z AUTO 19013KT 10SM CLR A3016 RMK MADISHF
IDA,2017-04-01 17:45,-112.0708,43.5137,M,M,M,220.00,11.00,M,30.15,M,10.00,M,CLR,M,M,M,M,M,M,M,M,KIDA 011745Z AUTO 22011KT 10SM CLR A3015 RMK MADISHF
IDA,2017-04-01 17:50,-112.0708,43.5137,M,M,M,200.00,12.00,M,30.16,M,10.00,M,CLR,M,M,M,M,M,M,M,M,KIDA 011750Z AUTO 20012KT 10SM CLR A3016 RMK MADISHF
IDA,2017-04-01 17:53,-112.0708,43.5137,48.00,36.00,62.97,190.00,13.00,0.00,30.16,1021.10,10.00,19.00,CLR,M,M,M,M,M,M,M,M,KIDA 011753Z 19013G19KT 10SM CLR 09/02 A3016 RMK AO2 SLP211 T00890022 10089 21017 50004
IDA,2017-04-01 17:55,-112.0708,43.5137,M,M,M,210.00,13.00,M,30.16,M,10.00,M,CLR,M,M,M,M,M,M,M,M,KIDA 011755Z AUTO 21013KT 10SM CLR A3016 RMK MADISHF
IDA,2017-04-01 18:00,-112.0708,43.5137,M,M,M,200.00,10.00,M,30.15,M,10.00,M,CLR,M,M,M,M,M,M,M,M,KIDA 011800Z AUTO 20010KT 10SM CLR A3015 RMK MADISHF
IDA,2017-04-01 18:05,-112.0708,43.5137,M,M,M,200.00,13.00,M,30.15,M,10.00,18.00,CLR,M,M,M,M,M,M,M,M,KIDA 011805Z AUTO 20013G18KT 10SM CLR A3015 RMK MADISHF
IDA,2017-04-01 18:10,-112.0708,43.5137,M,M,M,190.00,11.00,M,30.15,M,10.00,M,CLR,M,M,M,M,M,M,M,M,KIDA 011810Z AUTO 19011KT 10SM CLR A3015 RMK MADISHF
IDA,2017-04-01 18:15,-112.0708,43.5137,M,M,M,220.00,12.00,M,30.15,M,10.00,M,CLR,M,M,M,M,M,M,M,M,KIDA 011815Z AUTO 22012KT 10SM CLR A3015 RMK MADISHF
IDA,2017-04-01 18:20,-112.0708,43.5137,M,M,M,220.00,12.00,M,30.14,M,10.00,M,CLR,M,M,M,M,M,M,M,M,KIDA 011820Z AUTO 22012KT 10SM CLR A3014 RMK MADISHF
IDA,2017-04-01 18:25,-112.0708,43.5137,M,M,M,230.00,11.00,M,30.14,M,10.00,M,CLR,M,M,M,M,M,M,M,M,KIDA 011825Z AUTO 23011KT 10SM CLR A3014 RMK MADISHF
IDA,2017-04-01 18:30,-112.0708,43.5137,M,M,M,220.00,11.00,M,30.14,M,10.00,M,CLR,M,M,M,M,M,M,M,M,KIDA 011830Z AUTO 22011KT 10SM CLR A3014 RMK MADISHF
IDA,2017-04-01 18:35,-112.0708,43.5137,M,M,M,210.00,10.00,M,30.14,M,10.00,M,CLR,M,M,M,M,M,M,M,M,KIDA 011835Z AUTO 21010KT 10SM CLR A3014 RMK MADISHF
IDA,2017-04-01 18:40,-112.0708,43.5137,M,M,M,210.00,10.00,M,30.14,M,10.00,M,CLR,M,M,M,M,M,M,M,M,KIDA 011840Z AUTO 21010KT 10SM CLR A3014 RMK MADISHF
IDA,2017-04-01 18:45,-112.0708,43.5137,M,M,M,240.00,12.00,M,30.13,M,10.00,M,CLR,M,M,M,M,M,M,M,M,KIDA 011845Z AUTO 24012KT 10SM CLR A3013 RMK MADISHF
IDA,2017-04-01 18:50,-112.0708,43.5137,M,M,M,210.00,10.00,M,30.14,M,10.00,M,CLR,M,M,M,M,M,M,M,M,KIDA 011850Z AUTO 21010KT 10SM CLR A3014 RMK MADISHF
IDA,2017-04-01 18:53,-112.0708,43.5137,51.10,36.00,56.10,220.00,8.00,0.00,30.13,1020.20,10.00,M,CLR,M,M,M,M,M,M,M,M,KIDA 011853Z 22008KT 10SM CLR 11/02 A3013 RMK AO2 SLP202 T01060022
IDA,2017-04-01 18:55,-112.0708,43.5137,M,M,M,220.00,12.00,M,30.13,M,10.00,17.00,CLR,M,M,M,M,M,M,M,M,KIDA 011855Z AUTO 22012G17KT 10SM CLR A3013 RMK MADISHF
IDA,2017-04-01 19:00,-112.0708,43.5137,M,M,M,220.00,9.00,M,30.13,M,10.00,M,CLR,M,M,M,M,M,M,M,M,KIDA 011900Z AUTO 22009KT 10SM CLR A3013 RMK MADISHF
IDA,2017-04-01 19:05,-112.0708,43.5137,M,M,M,210.00,11.00,M,30.13,M,10.00,M,CLR,M,M,M,M,M,M,M,M,KIDA 011905Z AUTO 21011KT 10SM CLR A3013 RMK MADISHF
IDA,2017-04-01 19:10,-112.0708,43.5137,M,M,M,220.00,9.00,M,30.13,M,10.00,M,CLR,M,M,M,M,M,M,M,M,KIDA 011910Z AUTO 22009KT 10SM CLR A3013 RMK MADISHF
IDA,2017-04-01 19:15,-112.0708,43.5137,M,M,M,210.00,9.00,M,30.13,M,10.00,M,CLR,M,M,M,M,M,M,M,M,KIDA 011915Z AUTO 21009KT 10SM CLR A3013 RMK MADISHF
IDA,2017-04-01 19:20,-112.0708,43.5137,M,M,M,240.00,8.00,M,30.12,M,10.00,M,CLR,M,M,M,M,M,M,M,M,KIDA 011920Z AUTO 24008KT 10SM CLR A3012 RMK WND 20V27  MADISHF
IDA,2017-04-01 19:25,-112.0708,43.5137,M,M,M,270.00,9.00,M,30.12,M,10.00,M,CLR,M,M,M,M,M,M,M,M,KIDA 011925Z AUTO 27009KT 10SM CLR A3012 RMK MADISHF
IDA,2017-04-01 19:30,-112.0708,43.5137,M,M,M,230.00,7.00,M,30.12,M,10.00,M,CLR,M,M,M,M,M,M,M,M,KIDA 011930Z AUTO 23007KT 10SM CLR A3012 RMK MADISHF
IDA,2017-04-01 19:35,-112.0708,43.5137,M,M,M,200.00,8.00,M,30.12,M,10.00,M,CLR,M,M,M,M,M,M,M,M,KIDA 011935Z AUTO 20008KT 10SM CLR A3012 RMK MADISHF
IDA,2017-04-01 19:40,-112.0708,43.5137,M,M,M,260.00,11.00,M,30.12,M,10.00,M,CLR,M,M,M,M,M,M,M,M,KIDA 011940Z AUTO 26011KT 10SM CLR A3012 RMK MADISHF
IDA,2017-04-01 19:45,-112.0708,43.5137,M,M,M,230.00,10.00,M,30.12,M,10.00,M,CLR,M,M,M,M,M,M,M,M,KIDA 011945Z AUTO 23010KT 10SM CLR A3012 RMK MADISHF
IDA,2017-04-01 19:50,-112.0708,43.5137,M,M,M,220.00,8.00,M,30.11,M,10.00,M,FEW,M,M,M,7500.00,M,M,M,M,KIDA 011950Z AUTO 22008KT 10SM FEW075 A3011 RMK MADISHF
IDA,2017-04-01 19:53,-112.0708,43.5137,52.00,35.10,52.36,260.00,6.00,0.00,30.11,1019.40,10.00,M,FEW,M,M,M,7500.00,M,M,M,M,KIDA 011953Z 26006KT 10SM FEW075 11/02 A3011 RMK AO2 SLP194 T01110017
IDA,2017-04-01 19:55,-112.0708,43.5137,M,M,M,250.00,6.00,M,30.11,M,10.00,M,CLR,M,M,M,M,M,M,M,M,KIDA 011955Z AUTO 25006KT 10SM CLR A3011 RMK MADISHF
IDA,2017-04-01 20:00,-112.0708,43.5137,M,M,M,220.00,8.00,M,30.11,M,10.00,M,CLR,M,M,M,M,M,M,M,M,KIDA 012000Z AUTO 22008KT 10SM CLR A3011 RMK MADISHF
IDA,2017-04-01 20:05,-112.0708,43.5137,M,M,M,270.00,9.00,M,30.11,M,10.00,M,CLR,M,M,M,M,M,M,M,M,KIDA 012005Z AUTO 27009KT 10SM CLR A3011 RMK MADISHF
IDA,2017-04-01 20:10,-112.0708,43.5137,M,M,M,220.00,7.00,M,30.11,M,10.00,M,CLR,M,M,M,M,M,M,M,M,KIDA 012010Z AUTO 22007KT 10SM CLR A3011 RMK MADISHF
IDA,2017-04-01 20:15,-112.0708,43.5137,M,M,M,250.00,11.00,M,30.10,M,10.00,M,FEW,M,M,M,4200.00,M,M,M,M,KIDA 012015Z AUTO 25011KT 10SM FEW042 A3010 RMK MADISHF
IDA,2017-04-01 20:20,-112.0708,43.5137,M,M,M,250.00,5.00,M,30.10,M,10.00,M,FEW,M,M,M,4200.00,M,M,M,M,KIDA 012020Z AUTO 25005KT 10SM FEW042 A3010 RMK MADISHF
IDA,2017-04-01 20:25,-112.0708,43.5137,M,M,M,230.00,10.00,M,30.10,M,10.00,M,FEW,M,M,M,4200.00,M,M,M,M,KIDA 012025Z AUTO 23010KT 10SM FEW042 A3010 RMK MADISHF
IDA,2017-04-01 20:30,-112.0708,43.5137,M,M,M,200.00,3.00,M,30.10,M,10.00,M,FEW,M,M,M,4200.00,M,M,M,M,KIDA 012030Z AUTO 20003KT 10SM FEW042 A3010 RMK MADISHF
IDA,2017-04-01 20:35,-112.0708,43.5137,M,M,M,240.00,11.00,M,30.10,M,10.00,M,FEW,M,M,M,4300.00,M,M,M,M,KIDA 012035Z AUTO 24011KT 10SM FEW043 A3010 RMK MADISHF
IDA,2017-04-01 20:40,-112.0708,43.5137,M,M,M,250.00,6.00,M,30.10,M,10.00,M,FEW,M,M,M,4300.00,M,M,M,M,KIDA 012040Z AUTO 25006KT 10SM FEW043 A3010 RMK VRB06KT  MADISHF
IDA,2017-04-01 20:45,-112.0708,43.5137,M,M,M,240.00,7.00,M,30.10,M,10.00,M,FEW,M,M,M,4300.00,M,M,M,M,KIDA 012045Z AUTO 24007KT 10SM FEW043 A3010 RMK MADISHF
IDA,2017-04-01 20:50,-112.0708,43.5137,M,M,M,240.00,9.00,M,30.10,M,10.00,M,SCT,M,M,M,4300.00,M,M,M,M,KIDA 012050Z AUTO 24009KT 10SM SCT043 A3010 RMK MADISHF
IDA,2017-04-01 20:53,-112.0708,43.5137,54.00,36.00,50.42,220.00,9.00,0.00,30.10,1018.90,10.00,M,SCT,M,M,M,4300.00,M,M,M,M,KIDA 012053Z 22009KT 10SM SCT043 12/02 A3010 RMK AO2 SLP189 T01220022 56017
IDA,2017-04-01 20:55,-112.0708,43.5137,M,M,M,210.00,7.00,M,30.10,M,10.00,M,FEW,M,M,M,4300.00,M,M,M,M,KIDA 012055Z AUTO 21007KT 10SM FEW043 A3010 RMK MADISHF
IDA,2017-04-01 21:00,-112.0708,43.5137,M,M,M,220.00,9.00,M,30.09,M,10.00,M,CLR,M,M,M,M,M,M,M,M,KIDA 012100Z AUTO 22009KT 10SM CLR A3009 RMK MADISHF
IDA,2017-04-01 21:05,-112.0708,43.5137,M,M,M,M,M,M,30.09,M,10.00,M,FEW,M,M,M,4300.00,M,M,M,M,KIDA 012105Z AUTO /////KT 10SM FEW043 A3009 RMK MADISHF
IDA,2017-04-01 21:10,-112.0708,43.5137,M,M,M,250.00,7.00,M,30.09,M,10.00,M,FEW,M,M,M,4300.00,M,M,M,M,KIDA 012110Z AUTO 25007KT 10SM FEW043 A3009 RMK MADISHF
IDA,2017-04-01 21:15,-112.0708,43.5137,M,M,M,210.00,7.00,M,30.09,M,10.00,M,FEW,M,M,M,4300.00,M,M,M,M,KIDA 012115Z AUTO 21007KT 10SM FEW043 A3009 RMK MADISHF
IDA,2017-04-01 21:20,-112.0708,43.5137,M,M,M,240.00,10.00,M,30.08,M,10.00,M,SCT,M,M,M,4300.00,M,M,M,M,KIDA 012120Z AUTO 24010KT 10SM SCT043 A3008 RMK MADISHF
IDA,2017-04-01 21:25,-112.0708,43.5137,M,M,M,220.00,12.00,M,30.08,M,10.00,M,SCT,M,M,M,4300.00,M,M,M,M,KIDA 012125Z AUTO 22012KT 10SM SCT043 A3008 RMK MADISHF
IDA,2017-04-01 21:30,-112.0708,43.5137,M,M,M,230.00,7.00,M,30.08,M,10.00,M,SCT,M,M,M,4300.00,M,M,M,M,KIDA 012130Z AUTO 23007KT 10SM SCT043 A3008 RMK MADISHF
IDA,2017-04-01 21:35,-112.0708,43.5137,M,M,M,240.00,8.00,M,30.08,M,10.00,M,SCT,M,M,M,4300.00,M,M,M,M,KIDA 012135Z AUTO 24008KT 10SM SCT043 A3008 RMK MADISHF
IDA,2017-04-01 21:40,-112.0708,43.5137,M,M,M,270.00,9.00,M,30.08,M,10.00,M,SCT,M,M,M,4500.00,M,M,M,M,KIDA 012140Z AUTO 27009KT 10SM SCT045 A3008 RMK WND 21V29  MADISHF
IDA,2017-04-01 21:45,-112.0708,43.5137,M,M,M,200.00,10.00,M,30.08,M,10.00,15.00,SCT,SCT,M,M,4700.00,5500.00,M,M,M,KIDA 012145Z AUTO 20010G15KT 10SM SCT047 SCT055 A3008 RMK MADISHF
IDA,2017-04-01 21:50,-112.0708,43.5137,M,M,M,230.00,9.00,M,30.07,M,10.00,M,SCT,BKN,M,M,4700.00,5500.00,M,M,M,KIDA 012150Z AUTO 23009KT 10SM SCT047 BKN055 A3007 RMK MADISHF
IDA,2017-04-01 21:53,-112.0708,43.5137,55.90,36.00,47.05,200.00,12.00,0.00,30.07,1017.80,10.00,16.00,SCT,BKN,M,M,4700.00,5500.00,M,M,M,KIDA 012153Z 20012G16KT 10SM SCT047 BKN055 13/02 A3007 RMK AO2 SLP178 T01330022
IDA,2017-04-01 21:55,-112.0708,43.5137,M,M,M,200.00,13.00,M,30.07,M,10.00,M,SCT,BKN,M,M,4900.00,5500.00,M,M,M,KIDA 012155Z AUTO 20013KT 10SM SCT049 BKN055 A3007 RMK MADISHF
IDA,2017-04-01 22:00,-112.0708,43.5137,M,M,M,220.00,11.00,M,30.06,M,10.00,M,SCT,SCT,M,M,4700.00,5500.00,M,M,M,KIDA 012200Z AUTO 22011KT 10SM SCT047 SCT055 A3006 RMK MADISHF
IDA,2017-04-01 22:05,-112.0708,43.5137,M,M,M,200.00,9.00,M,30.06,M,10.00,14.00,SCT,M,M,M,4900.00,M,M,M,M,KIDA 012205Z AUTO 20009G14KT 10SM SCT049 A3006 RMK MADISHF
IDA,2017-04-01 22:10,-112.0708,43.5137,M,M,M,200.00,9.00,M,30.05,M,10.00,M,BKN,M,M,M,4900.00,M,M,M,M,KIDA 012210Z AUTO 20009KT 10SM BKN049 A3005 RMK MADISHF
IDA,2017-04-01 22:15,-112.0708,43.5137,M,M,M,220.00,12.00,M,30.05,M,10.00,M,SCT,M,M,M,4900.00,M,M,M,M,KIDA 012215Z AUTO 22012KT 10SM SCT049 A3005 RMK MADISHF
IDA,2017-04-01 22:20,-112.0708,43.5137,M,M,M,190.00,7.00,M,30.05,M,10.00,M,FEW,M,M,M,4900.00,M,M,M,M,KIDA 012220Z AUTO 19007KT 10SM FEW049 A3005 RMK MADISHF
IDA,2017-04-01 22:25,-112.0708,43.5137,M,M,M,180.00,10.00,M,30.04,M,10.00,M,FEW,M,M,M,4900.00,M,M,M,M,KIDA 012225Z AUTO 18010KT 10SM FEW049 A3004 RMK MADISHF
IDA,2017-04-01 22:30,-112.0708,43.5137,M,M,M,180.00,11.00,M,30.04,M,10.00,M,FEW,M,M,M,5000.00,M,M,M,M,KIDA 012230Z AUTO 18011KT 10SM FEW050 A3004 RMK MADISHF
IDA,2017-04-01 22:35,-112.0708,43.5137,M,M,M,210.00,11.00,M,30.04,M,10.00,M,SCT,M,M,M,5000.00,M,M,M,M,KIDA 012235Z AUTO 21011KT 10SM SCT050 A3004 RMK MADISHF
IDA,2017-04-01 22:40,-112.0708,43.5137,M,M,M,200.00,9.00,M,30.04,M,10.00,M,SCT,M,M,M,5000.00,M,M,M,M,KIDA 012240Z AUTO 20009KT 10SM SCT050 A3004 RMK MADISHF
IDA,2017-04-01 22:45,-112.0708,43.5137,M,M,M,180.00,12.00,M,30.04,M,10.00,M,SCT,M,M,M,5000.00,M,M,M,M,KIDA 012245Z AUTO 18012KT 10SM SCT050 A3004 RMK MADISHF
IDA,2017-04-01 22:50,-112.0708,43.5137,M,M,M,200.00,13.00,M,30.04,M,10.00,18.00,SCT,M,M,M,5000.00,M,M,M,M,KIDA 012250Z AUTO 20013G18KT 10SM SCT050 A3004 RMK WND 16V23  MADISHF
IDA,2017-04-01 22:53,-112.0708,43.5137,55.90,36.00,47.05,200.00,9.00,0.00,30.04,1016.90,10.00,19.00,SCT,M,M,M,5000.00,M,M,M,M,KIDA 012253Z 20009G19KT 10SM SCT050 13/02 A3004 RMK AO2 SLP169 T01330022
IDA,2017-04-01 22:55,-112.0708,43.5137,M,M,M,200.00,10.00,M,30.04,M,10.00,15.00,FEW,M,M,M,5000.00,M,M,M,M,KIDA 012255Z AUTO 20010G15KT 10SM FEW050 A3004 RMK MADISHF
IDA,2017-04-01 23:00,-112.0708,43.5137,M,M,M,180.00,9.00,M,30.04,M,10.00,M,FEW,M,M,M,5000.00,M,M,M,M,KIDA 012300Z AUTO 18009KT 10SM FEW050 A3004 RMK MADISHF
IDA,2017-04-01 23:05,-112.0708,43.5137,M,M,M,200.00,13.00,M,30.04,M,10.00,M,CLR,M,M,M,M,M,M,M,M,KIDA 012305Z AUTO 20013KT 10SM CLR A3004 RMK MADISHF
IDA,2017-04-01 23:10,-112.0708,43.5137,M,M,M,200.00,12.00,M,30.04,M,10.00,M,CLR,M,M,M,M,M,M,M,M,KIDA 012310Z AUTO 20012KT 10SM CLR A3004 RMK MADISHF
IDA,2017-04-01 23:15,-112.0708,43.5137,M,M,M,190.00,10.00,M,30.04,M,10.00,M,CLR,M,M,M,M,M,M,M,M,KIDA 012315Z AUTO 19010KT 10SM CLR A3004 RMK MADISHF
IDA,2017-04-01 23:20,-112.0708,43.5137,M,M,M,190.00,12.00,M,30.03,M,10.00,M,FEW,M,M,M,5000.00,M,M,M,M,KIDA 012320Z AUTO 19012KT 10SM FEW050 A3003 RMK MADISHF
IDA,2017-04-01 23:25,-112.0708,43.5137,M,M,M,200.00,11.00,M,30.03,M,10.00,M,FEW,M,M,M,5000.00,M,M,M,M,KIDA 012325Z AUTO 20011KT 10SM FEW050 A3003 RMK MADISHF
IDA,2017-04-01 23:30,-112.0708,43.5137,M,M,M,170.00,13.00,M,30.02,M,10.00,M,FEW,M,M,M,5000.00,M,M,M,M,KIDA 012330Z AUTO 17013KT 10SM FEW050 A3002 RMK MADISHF
IDA,2017-04-01 23:35,-112.0708,43.5137,M,M,M,190.00,13.00,M,30.03,M,10.00,M,FEW,M,M,M,5000.00,M,M,M,M,KIDA 012335Z AUTO 19013KT 10SM FEW050 A3003 RMK MADISHF
IDA,2017-04-01 23:40,-112.0708,43.5137,M,M,M,220.00,10.00,M,30.03,M,10.00,17.00,FEW,M,M,M,5000.00,M,M,M,M,KIDA 012340Z AUTO 22010G17KT 10SM FEW050 A3003 RMK MADISHF
IDA,2017-04-01 23:45,-112.0708,43.5137,M,M,M,200.00,8.00,M,30.03,M,10.00,M,FEW,M,M,M,5000.00,M,M,M,M,KIDA 012345Z AUTO 20008KT 10SM FEW050 A3003 RMK MADISHF
IDA,2017-04-01 23:50,-112.0708,43.5137,M,M,M,220.00,14.00,M,30.03,M,10.00,M,CLR,M,M,M,M,M,M,M,M,KIDA 012350Z AUTO 22014KT 10SM CLR A3003 RMK WND 19V25  MADISHF
IDA,2017-04-01 23:53,-112.0708,43.5137,55.90,35.10,45.40,230.00,10.00,0.00,30.03,1017.00,10.00,17.00,FEW,M,M,M,5000.00,M,M,M,M,KIDA 012353Z 23010G17KT 10SM FEW050 13/02 A3003 RMK AO2 SLP170 T01330017 10139 20089 56019
IDA,2017-04-01 23:55,-112.0708,43.5137,M,M,M,220.00,10.00,M,30.03,M,10.00,M,FEW,M,M,M,5000.00,M,M,M,M,KIDA 012355Z AUTO 22010KT 10SM FEW050 A3003 RMK MADISHF
