#DEBUG: Format Typ    -> comma
#DEBUG: Time Period   -> 2017-04-01 00:00:00+00:00 2017-04-02 00:00:00+00:00
#DEBUG: Time Zone     -> Etc/UTC
#DEBUG: Data Contact   -> daryl herzmann akrherz@iastate.edu 515-294-5978
#DEBUG: Entries Found -> -1
station,valid,lon,lat,tmpf, dwpf, relh, drct, sknt, p01i, alti, mslp, vsby, gust, skyc1, skyc2, skyc3, skyc4, skyl1, skyl2, skyl3, skyl4, presentwx, metar
IKV,2017-04-01 00:00,-93.5695,41.6878,42.80,37.40,81.07,10.00,7.00,0.00,30.06,M,10.00,M,OVC,M,M,M,1800.00,M,M,M,M,KIKV 010000Z AUTO 01007KT 10SM OVC018 06/03 A3006 RMK AO2
IKV,2017-04-01 00:10,-93.5695,41.6878,42.80,37.40,81.07,350.00,8.00,0.00,30.06,M,10.00,M,OVC,M,M,M,1800.00,M,M,M,M,KIKV 010010Z AUTO 35008KT 10SM OVC018 06/03 A3006 RMK AO2
IKV,2017-04-01 00:15,-93.5695,41.6878,42.80,37.40,81.07,360.00,8.00,0.00,30.07,M,10.00,M,OVC,M,M,M,1900.00,M,M,M,M,KIKV 010015Z AUTO 36008KT 10SM OVC019 06/03 A3007 RMK AO2
IKV,2017-04-01 00:20,-93.5695,41.6878,42.80,37.40,81.07,10.00,7.00,0.00,30.07,M,10.00,M,OVC,M,M,M,1900.00,M,M,M,M,KIKV 010020Z AUTO 01007KT 10SM OVC019 06/03 A3007 RMK AO2
IKV,2017-04-01 00:30,-93.5695,41.6878,42.80,37.40,81.07,20.00,9.00,0.00,30.07,M,10.00,M,OVC,M,M,M,1900.00,M,M,M,M,KIKV 010030Z AUTO 02009KT 10SM OVC019 06/03 A3007 RMK AO2
IKV,2017-04-01 00:35,-93.5695,41.6878,42.80,37.40,81.07,30.00,6.00,0.00,30.07,M,10.00,12.00,OVC,M,M,M,1900.00,M,M,M,M,KIKV 010035Z AUTO 03006G12KT 10SM OVC019 06/03 A3007 RMK AO2
IKV,2017-04-01 00:40,-93.5695,41.6878,42.80,37.40,81.07,20.00,6.00,0.00,30.08,M,10.00,M,OVC,M,M,M,1900.00,M,M,M,M,KIKV 010040Z AUTO 02006KT 10SM OVC019 06/03 A3008 RMK AO2
IKV,2017-04-01 00:50,-93.5695,41.6878,42.80,37.40,81.07,20.00,6.00,0.00,30.08,M,10.00,M,OVC,M,M,M,1900.00,M,M,M,M,KIKV 010050Z AUTO 02006KT 10SM OVC019 06/03 A3008 RMK AO2
IKV,2017-04-01 00:55,-93.5695,41.6878,42.80,37.40,81.07,30.00,6.00,0.00,30.09,M,10.00,M,OVC,M,M,M,1800.00,M,M,M,M,KIKV 010055Z AUTO 03006KT 10SM OVC018 06/03 A3009 RMK AO2
IKV,2017-04-01 01:00,-93.5695,41.6878,42.80,37.40,81.07,40.00,4.00,0.00,30.09,M,10.00,M,OVC,M,M,M,1800.00,M,M,M,M,KIKV 010100Z AUTO 04004KT 10SM OVC018 06/03 A3009 RMK AO2
IKV,2017-04-01 01:10,-93.5695,41.6878,42.80,37.40,81.07,40.00,3.00,0.00,30.10,M,10.00,M,OVC,M,M,M,1800.00,M,M,M,M,KIKV 010110Z AUTO 04003KT 10SM OVC018 06/03 A3010 RMK AO2
IKV,2017-04-01 01:15,-93.5695,41.6878,42.80,37.40,81.07,30.00,5.00,0.00,30.10,M,10.00,M,OVC,M,M,M,1800.00,M,M,M,M,KIKV 010115Z AUTO 03005KT 10SM OVC018 06/03 A3010 RMK AO2
IKV,2017-04-01 01:20,-93.5695,41.6878,42.80,37.40,81.07,40.00,5.00,0.00,30.10,M,10.00,M,OVC,M,M,M,1800.00,M,M,M,M,KIKV 010120Z AUTO 04005KT 10SM OVC018 06/03 A3010 RMK AO2
IKV,2017-04-01 01:30,-93.5695,41.6878,42.80,37.40,81.07,40.00,6.00,0.00,30.10,M,10.00,M,OVC,M,M,M,1800.00,M,M,M,M,KIKV 010130Z AUTO 04006KT 10SM OVC018 06/03 A3010 RMK AO2
IKV,2017-04-01 01:35,-93.5695,41.6878,42.80,37.40,81.07,30.00,7.00,0.00,30.10,M,10.00,M,OVC,M,M,M,1800.00,M,M,M,M,KIKV 010135Z AUTO 03007KT 10SM OVC018 06/03 A3010 RMK AO2
IKV,2017-04-01 01:40,-93.5695,41.6878,42.80,37.40,81.07,40.00,6.00,0.00,30.10,M,10.00,M,OVC,M,M,M,1800.00,M,M,M,M,KIKV 010140Z AUTO 04006KT 10SM OVC018 06/03 A3010 RMK AO2
IKV,2017-04-01 01:50,-93.5695,41.6878,42.80,37.40,81.07,30.00,5.00,0.00,30.10,M,10.00,M,OVC,M,M,M,1800.00,M,M,M,M,KIKV 010150Z AUTO 03005KT 10SM OVC018 06/03 A3010 RMK AO2
IKV,2017-04-01 01:55,-93.5695,41.6878,42.80,37.40,81.07,30.00,4.00,0.00,30.11,M,10.00,M,OVC,M,M,M,1800.00,M,M,M,M,KIKV 010155Z AUTO 03004KT 10SM OVC018 06/03 A3011 RMK AO2
IKV,2017-04-01 02:00,-93.5695,41.6878,42.80,37.40,81.07,20.00,5.00,0.00,30.11,M,10.00,M,OVC,M,M,M,1800.00,M,M,M,M,KIKV 010200Z AUTO 02005KT 10SM OVC018 06/03 A3011 RMK AO2
IKV,2017-04-01 02:10,-93.5695,41.6878,42.80,37.40,81.07,50.00,6.00,0.00,30.11,M,10.00,M,OVC,M,M,M,1800.00,M,M,M,M,KIKV 010210Z AUTO 05006KT 10SM OVC018 06/03 A3011 RMK AO2
IKV,2017-04-01 02:15,-93.5695,41.6878,42.80,37.40,81.07,40.00,5.00,0.00,30.11,M,10.00,M,OVC,M,M,M,1900.00,M,M,M,M,KIKV 010215Z AUTO 04005KT 10SM OVC019 06/03 A3011 RMK AO2
IKV,2017-04-01 02:20,-93.5695,41.6878,42.80,37.40,81.07,50.00,4.00,0.00,30.12,M,10.00,M,OVC,M,M,M,1900.00,M,M,M,M,KIKV 010220Z AUTO 05004KT 10SM OVC019 06/03 A3012 RMK AO2
IKV,2017-04-01 02:30,-93.5695,41.6878,42.80,37.40,81.07,40.00,6.00,0.00,30.13,M,10.00,M,OVC,M,M,M,1900.00,M,M,M,M,KIKV 010230Z AUTO 04006KT 10SM OVC019 06/03 A3013 RMK AO2
IKV,2017-04-01 02:35,-93.5695,41.6878,42.80,37.40,81.07,30.00,5.00,0.00,30.13,M,10.00,M,OVC,M,M,M,1800.00,M,M,M,M,KIKV 010235Z AUTO 03005KT 10SM OVC018 06/03 A3013 RMK AO2
IKV,2017-04-01 02:40,-93.5695,41.6878,41.00,37.40,86.89,30.00,5.00,0.00,30.13,M,10.00,M,OVC,M,M,M,1800.00,M,M,M,M,KIKV 010240Z AUTO 03005KT 10SM OVC018 05/03 A3013 RMK AO2
IKV,2017-04-01 02:50,-93.5695,41.6878,42.80,37.40,81.07,30.00,6.00,0.00,30.13,M,10.00,M,OVC,M,M,M,1800.00,M,M,M,M,KIKV 010250Z AUTO 03006KT 10SM OVC018 06/03 A3013 RMK AO2
IKV,2017-04-01 02:55,-93.5695,41.6878,42.80,37.40,81.07,30.00,6.00,0.00,30.13,M,10.00,M,OVC,M,M,M,1800.00,M,M,M,M,KIKV 010255Z AUTO 03006KT 10SM OVC018 06/03 A3013 RMK AO2
IKV,2017-04-01 03:00,-93.5695,41.6878,41.00,37.40,86.89,40.00,5.00,0.00,30.13,M,10.00,M,OVC,M,M,M,1800.00,M,M,M,M,KIKV 010300Z AUTO 04005KT 10SM OVC018 05/03 A3013 RMK AO2
IKV,2017-04-01 03:10,-93.5695,41.6878,42.80,37.40,81.07,50.00,6.00,0.00,30.13,M,10.00,M,OVC,M,M,M,1800.00,M,M,M,M,KIKV 010310Z AUTO 05006KT 10SM OVC018 06/03 A3013 RMK AO2
IKV,2017-04-01 03:15,-93.5695,41.6878,42.80,37.40,81.07,50.00,5.00,0.00,30.13,M,10.00,M,OVC,M,M,M,1800.00,M,M,M,M,KIKV 010315Z AUTO 05005KT 10SM OVC018 06/03 A3013 RMK AO2
IKV,2017-04-01 03:20,-93.5695,41.6878,41.00,37.40,86.89,50.00,4.00,0.00,30.13,M,10.00,M,OVC,M,M,M,1800.00,M,M,M,M,KIKV 010320Z AUTO 05004KT 10SM OVC018 05/03 A3013 RMK AO2
IKV,2017-04-01 03:30,-93.5695,41.6878,41.00,37.40,86.89,40.00,6.00,0.00,30.13,M,10.00,M,OVC,M,M,M,1800.00,M,M,M,M,KIKV 010330Z AUTO 04006KT 10SM OVC018 05/03 A3013 RMK AO2
IKV,2017-04-01 03:35,-93.5695,41.6878,41.00,35.60,80.93,50.00,5.00,0.00,30.13,M,10.00,M,OVC,M,M,M,1800.00,M,M,M,M,KIKV 010335Z AUTO 05005KT 10SM OVC018 05/02 A3013 RMK AO2
IKV,2017-04-01 03:40,-93.5695,41.6878,41.00,37.40,86.89,40.00,7.00,0.00,30.13,M,10.00,M,OVC,M,M,M,1800.00,M,M,M,M,KIKV 010340Z AUTO 04007KT 10SM OVC018 05/03 A3013 RMK AO2
IKV,2017-04-01 03:50,-93.5695,41.6878,41.00,35.60,80.93,50.00,6.00,0.00,30.14,M,10.00,11.00,OVC,M,M,M,1800.00,M,M,M,M,KIKV 010350Z AUTO 05006G11KT 10SM OVC018 05/02 A3014 RMK AO2
IKV,2017-04-01 03:55,-93.5695,41.6878,41.00,35.60,80.93,70.00,6.00,0.00,30.13,M,10.00,M,OVC,M,M,M,1800.00,M,M,M,M,KIKV 010355Z AUTO 07006KT 10SM OVC018 05/02 A3013 RMK AO2
IKV,2017-04-01 04:00,-93.5695,41.6878,41.00,35.60,80.93,70.00,6.00,0.00,30.13,M,10.00,M,OVC,M,M,M,1800.00,M,M,M,M,KIKV 010400Z AUTO 07006KT 10SM OVC018 05/02 A3013 RMK AO2
IKV,2017-04-01 04:10,-93.5695,41.6878,41.00,35.60,80.93,60.00,5.00,0.00,30.13,M,10.00,M,OVC,M,M,M,1800.00,M,M,M,M,KIKV 010410Z AUTO 06005KT 10SM OVC018 05/02 A3013 RMK AO2
IKV,2017-04-01 04:15,-93.5695,41.6878,41.00,35.60,80.93,50.00,5.00,0.00,30.14,M,10.00,M,OVC,M,M,M,1800.00,M,M,M,M,KIKV 010415Z AUTO 05005KT 10SM OVC018 05/02 A3014 RMK AO2
IKV,2017-04-01 04:20,-93.5695,41.6878,41.00,35.60,80.93,50.00,3.00,0.00,30.14,M,10.00,M,OVC,M,M,M,1800.00,M,M,M,M,KIKV 010420Z AUTO 05003KT 10SM OVC018 05/02 A3014 RMK AO2
IKV,2017-04-01 04:30,-93.5695,41.6878,41.00,35.60,80.93,0.00,0.00,0.00,30.14,M,10.00,M,OVC,M,M,M,1800.00,M,M,M,M,KIKV 010430Z AUTO 00000KT 10SM OVC018 05/02 A3014 RMK AO2
IKV,2017-04-01 04:35,-93.5695,41.6878,41.00,35.60,80.93,0.00,0.00,0.00,30.14,M,10.00,M,OVC,M,M,M,1800.00,M,M,M,M,KIKV 010435Z AUTO 00000KT 10SM OVC018 05/02 A3014 RMK AO2
IKV,2017-04-01 04:40,-93.5695,41.6878,41.00,35.60,80.93,0.00,0.00,0.00,30.14,M,10.00,M,BKN,M,M,M,1800.00,M,M,M,M,KIKV 010440Z AUTO 00000KT 10SM BKN018 05/02 A3014 RMK AO2
IKV,2017-04-01 04:50,-93.5695,41.6878,41.00,35.60,80.93,0.00,0.00,0.00,30.14,M,10.00,M,SCT,M,M,M,1800.00,M,M,M,M,KIKV 010450Z AUTO 00000KT 10SM SCT018 05/02 A3014 RMK AO2
IKV,2017-04-01 04:55,-93.5695,41.6878,39.20,35.60,86.79,0.00,0.00,0.00,30.14,M,10.00,M,SCT,M,M,M,1900.00,M,M,M,M,KIKV 010455Z AUTO 00000KT 10SM SCT019 04/02 A3014 RMK AO2
IKV,2017-04-01 05:00,-93.5695,41.6878,39.20,35.60,86.79,0.00,0.00,0.00,30.15,M,10.00,M,FEW,M,M,M,1800.00,M,M,M,M,KIKV 010500Z AUTO 00000KT 10SM FEW018 04/02 A3015 RMK AO2
IKV,2017-04-01 05:10,-93.5695,41.6878,39.20,35.60,86.79,0.00,0.00,0.00,30.15,M,10.00,M,CLR,M,M,M,M,M,M,M,M,KIKV 010510Z AUTO 00000KT 10SM CLR 04/02 A3015 RMK AO2
IKV,2017-04-01 05:15,-93.5695,41.6878,39.20,35.60,86.79,0.00,0.00,0.00,30.15,M,10.00,M,CLR,M,M,M,M,M,M,M,M,KIKV 010515Z AUTO 00000KT 10SM CLR 04/02 A3015 RMK AO2
IKV,2017-04-01 05:20,-93.5695,41.6878,39.20,35.60,86.79,0.00,0.00,0.00,30.15,M,10.00,M,CLR,M,M,M,M,M,M,M,M,KIKV 010520Z AUTO 00000KT 10SM CLR 04/02 A3015 RMK AO2
IKV,2017-04-01 05:30,-93.5695,41.6878,37.40,33.80,86.69,0.00,0.00,0.00,30.15,M,10.00,M,CLR,M,M,M,M,M,M,M,M,KIKV 010530Z AUTO 00000KT 10SM CLR 03/01 A3015 RMK AO2
IKV,2017-04-01 05:35,-93.5695,41.6878,37.40,33.80,86.69,0.00,0.00,0.00,30.15,M,10.00,M,CLR,M,M,M,M,M,M,M,M,KIKV 010535Z AUTO 00000KT 10SM CLR 03/01 A3015 RMK AO2
IKV,2017-04-01 05:40,-93.5695,41.6878,37.40,33.80,86.69,0.00,0.00,0.00,30.16,M,10.00,M,CLR,M,M,M,M,M,M,M,M,KIKV 010540Z AUTO 00000KT 10SM CLR 03/01 A3016 RMK AO2
IKV,2017-04-01 05:50,-93.5695,41.6878,37.40,33.80,86.69,0.00,0.00,0.00,30.16,M,10.00,M,CLR,M,M,M,M,M,M,M,M,KIKV 010550Z AUTO 00000KT 10SM CLR 03/01 A3016 RMK AO2
IKV,2017-04-01 05:55,-93.5695,41.6878,37.40,33.80,86.69,0.00,0.00,0.00,30.16,M,10.00,M,CLR,M,M,M,M,M,M,M,M,KIKV 010555Z AUTO 00000KT 10SM CLR 03/01 A3016 RMK AO2
IKV,2017-04-01 06:00,-93.5695,41.6878,37.40,33.80,86.69,0.00,0.00,0.00,30.16,M,10.00,M,CLR,M,M,M,M,M,M,M,M,KIKV 010600Z AUTO 00000KT 10SM CLR 03/01 A3016 RMK AO2
IKV,2017-04-01 06:10,-93.5695,41.6878,37.40,35.60,93.14,0.00,0.00,0.00,30.17,M,10.00,M,CLR,M,M,M,M,M,M,M,M,KIKV 010610Z AUTO 00000KT 10SM CLR 03/02 A3017 RMK AO2
IKV,2017-04-01 06:15,-93.5695,41.6878,37.40,35.60,93.14,0.00,0.00,0.00,30.17,M,10.00,M,CLR,M,M,M,M,M,M,M,M,KIKV 010615Z AUTO 00000KT 10SM CLR 03/02 A3017 RMK AO2
IKV,2017-04-01 06:20,-93.5695,41.6878,37.40,33.80,86.69,0.00,0.00,0.00,30.16,M,10.00,M,CLR,M,M,M,M,M,M,M,M,KIKV 010620Z AUTO 00000KT 10SM CLR 03/01 A3016 RMK AO2
IKV,2017-04-01 06:30,-93.5695,41.6878,35.60,33.80,93.08,0.00,0.00,0.00,30.17,M,10.00,M,CLR,M,M,M,M,M,M,M,M,KIKV 010630Z AUTO 00000KT 10SM CLR 02/01 A3017 RMK AO2
IKV,2017-04-01 06:35,-93.5695,41.6878,35.60,33.80,93.08,0.00,0.00,0.00,30.17,M,10.00,M,CLR,M,M,M,M,M,M,M,M,KIKV 010635Z AUTO 00000KT 10SM CLR 02/01 A3017 RMK AO2
IKV,2017-04-01 06:40,-93.5695,41.6878,35.60,33.80,93.08,0.00,0.00,0.00,30.18,M,10.00,M,CLR,M,M,M,M,M,M,M,M,KIKV 010640Z AUTO 00000KT 10SM CLR 02/01 A3018 RMK AO2
IKV,2017-04-01 06:50,-93.5695,41.6878,35.60,33.80,93.08,0.00,0.00,0.00,30.18,M,10.00,M,CLR,M,M,M,M,M,M,M,M,KIKV 010650Z AUTO 00000KT 10SM CLR 02/01 A3018 RMK AO2
IKV,2017-04-01 06:55,-93.5695,41.6878,35.60,33.80,93.08,0.00,0.00,0.00,30.18,M,10.00,M,CLR,M,M,M,M,M,M,M,M,KIKV 010655Z AUTO 00000KT 10SM CLR 02/01 A3018 RMK AO2
IKV,2017-04-01 07:00,-93.5695,41.6878,35.60,33.80,93.08,0.00,0.00,0.00,30.18,M,10.00,M,CLR,M,M,M,M,M,M,M,M,KIKV 010700Z AUTO 00000KT 10SM CLR 02/01 A3018 RMK AO2
IKV,2017-04-01 07:10,-93.5695,41.6878,35.60,33.80,93.08,0.00,0.00,0.00,30.19,M,10.00,M,CLR,M,M,M,M,M,M,M,M,KIKV 010710Z AUTO 00000KT 10SM CLR 02/01 A3019 RMK AO2
IKV,2017-04-01 07:15,-93.5695,41.6878,35.60,33.80,93.08,0.00,0.00,0.00,30.19,M,10.00,M,CLR,M,M,M,M,M,M,M,M,KIKV 010715Z AUTO 00000KT 10SM CLR 02/01 A3019 RMK AO2
IKV,2017-04-01 07:20,-93.5695,41.6878,35.60,33.80,93.08,0.00,0.00,0.00,30.19,M,10.00,M,CLR,M,M,M,M,M,M,M,M,KIKV 010720Z AUTO 00000KT 10SM CLR 02/01 A3019 RMK AO2
IKV,2017-04-01 07:30,-93.5695,41.6878,35.60,33.80,93.08,0.00,0.00,0.00,30.19,M,10.00,M,CLR,M,M,M,M,M,M,M,M,KIKV 010730Z AUTO 00000KT 10SM CLR 02/01 A3019 RMK AO2
IKV,2017-04-01 07:35,-93.5695,41.6878,33.80,33.80,100.00,0.00,0.00,0.00,30.19,M,10.00,M,CLR,M,M,M,M,M,M,M,M,KIKV 010735Z AUTO 00000KT 10SM CLR 01/01 A3019 RMK AO2
IKV,2017-04-01 07:40,-93.5695,41.6878,33.80,33.80,100.00,0.00,0.00,0.00,30.19,M,10.00,M,CLR,M,M,M,M,M,M,M,M,KIKV 010740Z AUTO 00000KT 10SM CLR 01/01 A3019 RMK AO2
IKV,2017-04-01 07:50,-93.5695,41.6878,35.60,33.80,93.08,0.00,0.00,0.00,30.19,M,10.00,M,CLR,M,M,M,M,M,M,M,M,KIKV 010750Z AUTO 00000KT 10SM CLR 02/01 A3019 RMK AO2
IKV,2017-04-01 07:55,-93.5695,41.6878,33.80,33.80,100.00,0.00,0.00,0.00,30.20,M,7.00,M,CLR,M,M,M,M,M,M,M,M,KIKV 010755Z AUTO 00000KT 7SM CLR 01/01 A3020 RMK AO2
IKV,2017-04-01 08:00,-93.5695,41.6878,33.80,33.80,100.00,0.00,0.00,0.00,30.20,M,6.00,M,CLR,M,M,M,M,M,M,M,BR,KIKV 010800Z AUTO 00000KT 6SM BR CLR 01/01 A3020 RMK AO2
IKV,2017-04-01 08:10,-93.5695,41.6878,33.80,33.80,100.00,0.00,0.00,0.00,30.20,M,6.00,M,CLR,M,M,M,M,M,M,M,BR,KIKV 010810Z AUTO 00000KT 6SM BR CLR 01/01 A3020 RMK AO2
IKV,2017-04-01 08:15,-93.5695,41.6878,33.80,33.80,100.00,0.00,0.00,0.00,30.19,M,5.00,M,CLR,M,M,M,M,M,M,M,BR,KIKV 010815Z AUTO 00000KT 5SM BR CLR 01/01 A3019 RMK AO2
IKV,2017-04-01 08:20,-93.5695,41.6878,33.80,33.80,100.00,0.00,0.00,0.00,30.19,M,5.00,M,CLR,M,M,M,M,M,M,M,BR,KIKV 010820Z AUTO 00000KT 5SM BR CLR 01/01 A3019 RMK AO2
IKV,2017-04-01 08:30,-93.5695,41.6878,32.00,32.00,100.00,0.00,0.00,0.00,30.18,M,4.00,M,CLR,M,M,M,M,M,M,M,BR,KIKV 010830Z AUTO 00000KT 4SM BR CLR 00/M00 A3018 RMK AO2
IKV,2017-04-01 08:35,-93.5695,41.6878,32.00,32.00,100.00,0.00,0.00,0.00,30.18,M,3.00,M,CLR,M,M,M,M,M,M,M,BR,KIKV 010835Z AUTO 00000KT 3SM BR CLR 00/M00 A3018 RMK AO2
IKV,2017-04-01 08:40,-93.5695,41.6878,32.00,32.00,100.00,0.00,0.00,0.00,30.17,M,3.00,M,CLR,M,M,M,M,M,M,M,BR,KIKV 010840Z AUTO 00000KT 3SM BR CLR 00/M00 A3017 RMK AO2
IKV,2017-04-01 08:50,-93.5695,41.6878,32.00,32.00,100.00,0.00,0.00,0.00,30.18,M,5.00,M,CLR,M,M,M,M,M,M,M,BR,KIKV 010850Z AUTO 00000KT 5SM BR CLR M00/M00 A3018 RMK AO2
IKV,2017-04-01 08:55,-93.5695,41.6878,33.80,33.80,100.00,0.00,0.00,0.00,30.18,M,6.00,M,CLR,M,M,M,M,M,M,M,BR,KIKV 010855Z AUTO 00000KT 6SM BR CLR 01/01 A3018 RMK AO2
IKV,2017-04-01 09:00,-93.5695,41.6878,35.60,33.80,93.08,0.00,0.00,0.00,30.18,M,5.00,M,CLR,M,M,M,M,M,M,M,BR,KIKV 010900Z AUTO 00000KT 5SM BR CLR 02/01 A3018 RMK AO2
IKV,2017-04-01 09:10,-93.5695,41.6878,33.80,33.80,100.00,0.00,0.00,0.00,30.19,M,6.00,M,CLR,M,M,M,M,M,M,M,BR,KIKV 010910Z AUTO 00000KT 6SM BR CLR 01/01 A3019 RMK AO2
IKV,2017-04-01 09:15,-93.5695,41.6878,33.80,32.00,93.03,0.00,0.00,0.00,30.18,M,7.00,M,CLR,M,M,M,M,M,M,M,M,KIKV 010915Z AUTO 00000KT 7SM CLR 01/00 A3018 RMK AO2
IKV,2017-04-01 09:20,-93.5695,41.6878,32.00,30.20,92.97,0.00,0.00,0.00,30.19,M,6.00,M,CLR,M,M,M,M,M,M,M,BR,KIKV 010920Z AUTO 00000KT 6SM BR CLR M00/M01 A3019 RMK AO2
IKV,2017-04-01 09:30,-93.5695,41.6878,32.00,30.20,92.97,0.00,0.00,0.00,30.19,M,6.00,M,CLR,M,M,M,M,M,M,M,BR,KIKV 010930Z AUTO 00000KT 6SM BR CLR M00/M01 A3019 RMK AO2
IKV,2017-04-01 09:35,-93.5695,41.6878,32.00,32.00,100.00,0.00,0.00,0.00,30.20,M,6.00,M,CLR,M,M,M,M,M,M,M,BR,KIKV 010935Z AUTO 00000KT 6SM BR CLR 00/M00 A3020 RMK AO2
IKV,2017-04-01 09:40,-93.5695,41.6878,32.00,32.00,100.00,0.00,0.00,0.00,30.20,M,6.00,M,CLR,M,M,M,M,M,M,M,BR,KIKV 010940Z AUTO 00000KT 6SM BR CLR 00/M00 A3020 RMK AO2
IKV,2017-04-01 09:50,-93.5695,41.6878,32.00,32.00,100.00,0.00,0.00,0.00,30.20,M,7.00,M,CLR,M,M,M,M,M,M,M,M,KIKV 010950Z AUTO 00000KT 7SM CLR 00/M00 A3020 RMK AO2
IKV,2017-04-01 09:55,-93.5695,41.6878,32.00,32.00,100.00,0.00,0.00,0.00,30.20,M,8.00,M,CLR,M,M,M,M,M,M,M,M,KIKV 010955Z AUTO 00000KT 8SM CLR 00/M00 A3020 RMK AO2
IKV,2017-04-01 10:00,-93.5695,41.6878,32.00,32.00,100.00,0.00,0.00,0.00,30.20,M,8.00,M,CLR,M,M,M,M,M,M,M,M,KIKV 011000Z AUTO 00000KT 8SM CLR 00/M00 A3020 RMK AO2
IKV,2017-04-01 10:10,-93.5695,41.6878,32.00,32.00,100.00,0.00,0.00,0.00,30.20,M,8.00,M,CLR,M,M,M,M,M,M,M,M,KIKV 011010Z AUTO 00000KT 8SM CLR 00/M00 A3020 RMK AO2
IKV,2017-04-01 10:15,-93.5695,41.6878,32.00,32.00,100.00,0.00,0.00,0.00,30.20,M,8.00,M,CLR,M,M,M,M,M,M,M,M,KIKV 011015Z AUTO 00000KT 8SM CLR 00/M00 A3020 RMK AO2
IKV,2017-04-01 10:20,-93.5695,41.6878,32.00,32.00,100.00,0.00,0.00,0.00,30.20,M,9.00,M,CLR,M,M,M,M,M,M,M,M,KIKV 011020Z AUTO 00000KT 9SM CLR 00/00 A3020 RMK AO2
IKV,2017-04-01 10:30,-93.5695,41.6878,32.00,32.00,100.00,0.00,0.00,0.00,30.21,M,10.00,M,CLR,M,M,M,M,M,M,M,M,KIKV 011030Z AUTO 00000KT 10SM CLR 00/M00 A3021 RMK AO2
IKV,2017-04-01 10:35,-93.5695,41.6878,32.00,32.00,100.00,10.00,3.00,0.00,30.21,M,10.00,M,CLR,M,M,M,M,M,M,M,M,KIKV 011035Z AUTO 01003KT 10SM CLR 00/00 A3021 RMK AO2
IKV,2017-04-01 10:40,-93.5695,41.6878,33.80,32.00,93.03,0.00,0.00,0.00,30.21,M,9.00,M,CLR,M,M,M,M,M,M,M,M,KIKV 011040Z AUTO 00000KT 9SM CLR 01/00 A3021 RMK AO2
IKV,2017-04-01 10:50,-93.5695,41.6878,33.80,32.00,93.03,0.00,0.00,0.00,30.22,M,7.00,M,CLR,M,M,M,M,M,M,M,M,KIKV 011050Z AUTO 00000KT 7SM CLR 01/00 A3022 RMK AO2
IKV,2017-04-01 10:55,-93.5695,41.6878,33.80,32.00,93.03,0.00,0.00,0.00,30.22,M,8.00,M,CLR,M,M,M,M,M,M,M,M,KIKV 011055Z AUTO 00000KT 8SM CLR 01/00 A3022 RMK AO2
IKV,2017-04-01 11:00,-93.5695,41.6878,33.80,32.00,93.03,0.00,0.00,0.00,30.22,M,9.00,M,CLR,M,M,M,M,M,M,M,M,KIKV 011100Z AUTO 00000KT 9SM CLR 01/00 A3022 RMK AO2
IKV,2017-04-01 11:10,-93.5695,41.6878,33.80,32.00,93.03,0.00,0.00,0.00,30.23,M,10.00,M,CLR,M,M,M,M,M,M,M,M,KIKV 011110Z AUTO 00000KT 10SM CLR 01/00 A3023 RMK AO2
IKV,2017-04-01 11:15,-93.5695,41.6878,33.80,32.00,93.03,0.00,0.00,0.00,30.23,M,10.00,M,CLR,M,M,M,M,M,M,M,M,KIKV 011115Z AUTO 00000KT 10SM CLR 01/00 A3023 RMK AO2
IKV,2017-04-01 11:20,-93.5695,41.6878,33.80,32.00,93.03,0.00,0.00,0.00,30.23,M,9.00,M,CLR,M,M,M,M,M,M,M,M,KIKV 011120Z AUTO 00000KT 9SM CLR 01/00 A3023 RMK AO2
IKV,2017-04-01 11:30,-93.5695,41.6878,33.80,32.00,93.03,0.00,0.00,0.00,30.24,M,8.00,M,CLR,M,M,M,M,M,M,M,M,KIKV 011130Z AUTO 00000KT 8SM CLR 01/00 A3024 RMK AO2
IKV,2017-04-01 11:35,-93.5695,41.6878,33.80,32.00,93.03,0.00,0.00,0.00,30.24,M,8.00,M,CLR,M,M,M,M,M,M,M,M,KIKV 011135Z AUTO 00000KT 8SM CLR 01/00 A3024 RMK AO2
IKV,2017-04-01 11:40,-93.5695,41.6878,33.80,32.00,93.03,0.00,0.00,0.00,30.24,M,8.00,M,CLR,M,M,M,M,M,M,M,M,KIKV 011140Z AUTO 00000KT 8SM CLR 01/00 A3024 RMK AO2
IKV,2017-04-01 11:50,-93.5695,41.6878,33.80,33.80,100.00,0.00,0.00,0.00,30.24,M,10.00,M,CLR,M,M,M,M,M,M,M,M,KIKV 011150Z AUTO 00000KT 10SM CLR 01/01 A3024 RMK AO2
IKV,2017-04-01 11:55,-93.5695,41.6878,33.80,32.00,93.03,0.00,0.00,0.00,30.25,M,8.00,M,CLR,M,M,M,M,M,M,M,M,KIKV 011155Z AUTO 00000KT 8SM CLR 01/00 A3025 RMK AO2
IKV,2017-04-01 12:00,-93.5695,41.6878,33.80,32.00,93.03,10.00,3.00,0.00,30.25,M,7.00,M,CLR,M,M,M,M,M,M,M,M,KIKV 011200Z AUTO 01003KT 7SM CLR 01/00 A3025 RMK AO2
IKV,2017-04-01 12:10,-93.5695,41.6878,33.80,32.00,93.03,M,M,0.00,30.25,M,7.00,M,CLR,M,M,M,M,M,M,M,M,KIKV 011210Z AUTO 7SM CLR 01/00 A3025 RMK AO2
IKV,2017-04-01 12:15,-93.5695,41.6878,33.80,32.00,93.03,M,M,0.00,30.25,M,6.00,M,CLR,M,M,M,M,M,M,M,BR,KIKV 011215Z AUTO 6SM BR CLR 01/00 A3025 RMK AO2
IKV,2017-04-01 12:20,-93.5695,41.6878,32.00,32.00,100.00,30.00,4.00,0.00,30.25,M,6.00,M,CLR,M,M,M,M,M,M,M,BR,KIKV 011220Z AUTO 03004KT 6SM BR CLR 00/M00 A3025 RMK AO2
IKV,2017-04-01 12:30,-93.5695,41.6878,33.80,32.00,93.03,0.00,0.00,0.00,30.25,M,6.00,M,CLR,M,M,M,M,M,M,M,BR,KIKV 011230Z AUTO 00000KT 6SM BR CLR 01/00 A3025 RMK AO2
IKV,2017-04-01 12:35,-93.5695,41.6878,33.80,32.00,93.03,20.00,3.00,0.00,30.25,M,5.00,M,CLR,M,M,M,M,M,M,M,BR,KIKV 011235Z AUTO 02003KT 5SM BR CLR 01/00 A3025 RMK AO2
IKV,2017-04-01 12:40,-93.5695,41.6878,33.80,32.00,93.03,10.00,3.00,0.00,30.25,M,5.00,M,CLR,M,M,M,M,M,M,M,BR,KIKV 011240Z AUTO 01003KT 5SM BR CLR 01/00 A3025 RMK AO2
IKV,2017-04-01 12:50,-93.5695,41.6878,33.80,33.80,100.00,0.00,0.00,0.00,30.26,M,5.00,M,CLR,M,M,M,M,M,M,M,BR,KIKV 011250Z AUTO 00000KT 5SM BR CLR 01/01 A3026 RMK AO2
IKV,2017-04-01 12:55,-93.5695,41.6878,33.80,33.80,100.00,0.00,0.00,0.00,30.26,M,4.00,M,CLR,M,M,M,M,M,M,M,BR,KIKV 011255Z AUTO 00000KT 4SM BR CLR 01/01 A3026 RMK AO2
IKV,2017-04-01 13:00,-93.5695,41.6878,35.60,35.60,100.00,M,M,0.00,30.26,M,4.00,M,CLR,M,M,M,M,M,M,M,BR,KIKV 011300Z AUTO 4SM BR CLR 02/02 A3026 RMK AO2
IKV,2017-04-01 13:10,-93.5695,41.6878,37.40,35.60,93.14,M,M,0.00,30.26,M,7.00,M,CLR,M,M,M,M,M,M,M,M,KIKV 011310Z AUTO 7SM CLR 03/02 A3026 RMK AO2
IKV,2017-04-01 13:15,-93.5695,41.6878,37.40,35.60,93.14,M,M,0.00,30.26,M,8.00,M,CLR,M,M,M,M,M,M,M,M,KIKV 011315Z AUTO 8SM CLR 03/02 A3026 RMK AO2
IKV,2017-04-01 13:20,-93.5695,41.6878,37.40,35.60,93.14,20.00,3.00,0.00,30.25,M,8.00,M,CLR,M,M,M,M,M,M,M,M,KIKV 011320Z AUTO 02003KT 8SM CLR 03/02 A3025 RMK AO2
IKV,2017-04-01 13:30,-93.5695,41.6878,37.40,35.60,93.14,20.00,3.00,0.00,30.25,M,9.00,M,CLR,M,M,M,M,M,M,M,M,KIKV 011330Z AUTO 02003KT 9SM CLR 03/02 A3025 RMK AO2
IKV,2017-04-01 13:35,-93.5695,41.6878,37.40,35.60,93.14,0.00,0.00,0.00,30.25,M,9.00,M,CLR,M,M,M,M,M,M,M,M,KIKV 011335Z AUTO 00000KT 9SM CLR 03/02 A3025 RMK AO2
IKV,2017-04-01 13:40,-93.5695,41.6878,39.20,37.40,93.19,0.00,0.00,0.00,30.25,M,9.00,M,CLR,M,M,M,M,M,M,M,M,KIKV 011340Z AUTO 00000KT 9SM CLR 04/03 A3025 RMK AO2
IKV,2017-04-01 13:50,-93.5695,41.6878,39.20,37.40,93.19,0.00,0.00,0.00,30.26,M,9.00,M,CLR,M,M,M,M,M,M,M,M,KIKV 011350Z AUTO 00000KT 9SM CLR 04/03 A3026 RMK AO2
IKV,2017-04-01 13:55,-93.5695,41.6878,39.20,37.40,93.19,0.00,0.00,0.00,30.25,M,10.00,M,CLR,M,M,M,M,M,M,M,M,KIKV 011355Z AUTO 00000KT 10SM CLR 04/03 A3025 RMK AO2
IKV,2017-04-01 14:00,-93.5695,41.6878,41.00,37.40,86.89,0.00,0.00,0.00,30.25,M,10.00,M,CLR,M,M,M,M,M,M,M,M,KIKV 011400Z AUTO 00000KT 10SM CLR 05/03 A3025 RMK AO2
IKV,2017-04-01 14:10,-93.5695,41.6878,41.00,37.40,86.89,0.00,0.00,0.00,30.25,M,10.00,M,CLR,M,M,M,M,M,M,M,M,KIKV 011410Z AUTO 00000KT 10SM CLR 05/03 A3025 RMK AO2
IKV,2017-04-01 14:15,-93.5695,41.6878,41.00,39.20,93.24,20.00,3.00,0.00,30.25,M,10.00,M,CLR,M,M,M,M,M,M,M,M,KIKV 011415Z AUTO 02003KT 10SM CLR 05/04 A3025 RMK AO2
IKV,2017-04-01 14:20,-93.5695,41.6878,42.80,37.40,81.07,0.00,0.00,0.00,30.25,M,10.00,M,CLR,M,M,M,M,M,M,M,M,KIKV 011420Z AUTO 00000KT 10SM CLR 06/03 A3025 RMK AO2
IKV,2017-04-01 14:30,-93.5695,41.6878,42.80,39.20,86.99,20.00,4.00,0.00,30.25,M,10.00,M,CLR,M,M,M,M,M,M,M,M,KIKV 011430Z AUTO 02004KT 10SM CLR 06/04 A3025 RMK AO2
IKV,2017-04-01 14:35,-93.5695,41.6878,42.80,39.20,86.99,10.00,4.00,0.00,30.25,M,10.00,M,CLR,M,M,M,M,M,M,M,M,KIKV 011435Z AUTO 01004KT 10SM CLR 06/04 A3025 RMK AO2
IKV,2017-04-01 14:40,-93.5695,41.6878,42.80,39.20,86.99,10.00,4.00,0.00,30.26,M,10.00,M,CLR,M,M,M,M,M,M,M,M,KIKV 011440Z AUTO 01004KT 10SM CLR 06/04 A3026 RMK AO2
IKV,2017-04-01 14:50,-93.5695,41.6878,42.80,39.20,86.99,0.00,0.00,0.00,30.26,M,10.00,M,CLR,M,M,M,M,M,M,M,M,KIKV 011450Z AUTO 00000KT 10SM CLR 06/04 A3026 RMK AO2
IKV,2017-04-01 14:55,-93.5695,41.6878,44.60,39.20,81.20,30.00,3.00,0.00,30.26,M,10.00,M,CLR,M,M,M,M,M,M,M,M,KIKV 011455Z AUTO 03003KT 10SM CLR 07/04 A3026 RMK AO2
IKV,2017-04-01 15:00,-93.5695,41.6878,44.60,39.20,81.20,30.00,4.00,0.00,30.26,M,10.00,M,CLR,M,M,M,M,M,M,M,M,KIKV 011500Z AUTO 03004KT 10SM CLR 07/04 A3026 RMK AO2
IKV,2017-04-01 15:10,-93.5695,41.6878,44.60,39.20,81.20,40.00,4.00,0.00,30.26,M,10.00,M,CLR,M,M,M,M,M,M,M,M,KIKV 011510Z AUTO 04004KT 10SM CLR 07/04 A3026 RMK AO2
IKV,2017-04-01 15:15,-93.5695,41.6878,44.60,39.20,81.20,360.00,5.00,0.00,30.27,M,10.00,M,CLR,M,M,M,M,M,M,M,M,KIKV 011515Z AUTO 36005KT 10SM CLR 07/04 A3027 RMK AO2
IKV,2017-04-01 15:20,-93.5695,41.6878,46.40,39.20,75.84,10.00,4.00,0.00,30.27,M,10.00,M,CLR,M,M,M,M,M,M,M,M,KIKV 011520Z AUTO 01004KT 10SM CLR 08/04 A3027 RMK AO2
IKV,2017-04-01 15:30,-93.5695,41.6878,46.40,39.20,75.84,10.00,5.00,0.00,30.27,M,10.00,M,CLR,M,M,M,M,M,M,M,M,KIKV 011530Z AUTO 01005KT 10SM CLR 08/04 A3027 RMK AO2
IKV,2017-04-01 15:35,-93.5695,41.6878,46.40,39.20,75.84,10.00,3.00,0.00,30.27,M,10.00,M,CLR,M,M,M,M,M,M,M,M,KIKV 011535Z AUTO 01003KT 10SM CLR 08/04 A3027 RMK AO2
IKV,2017-04-01 15:40,-93.5695,41.6878,46.40,37.40,70.68,0.00,0.00,0.00,30.27,M,10.00,M,CLR,M,M,M,M,M,M,M,M,KIKV 011540Z AUTO 00000KT 10SM CLR 08/03 A3027 RMK AO2
IKV,2017-04-01 15:50,-93.5695,41.6878,46.40,37.40,70.68,0.00,0.00,0.00,30.27,M,10.00,M,CLR,M,M,M,M,M,M,M,M,KIKV 011550Z AUTO 00000KT 10SM CLR 08/03 A3027 RMK AO2
IKV,2017-04-01 15:55,-93.5695,41.6878,48.20,37.40,66.05,0.00,0.00,0.00,30.27,M,10.00,M,CLR,M,M,M,M,M,M,M,M,KIKV 011555Z AUTO 00000KT 10SM CLR 09/03 A3027 RMK AO2
IKV,2017-04-01 16:00,-93.5695,41.6878,48.20,37.40,66.05,0.00,0.00,0.00,30.27,M,10.00,M,CLR,M,M,M,M,M,M,M,M,KIKV 011600Z AUTO 00000KT 10SM CLR 09/03 A3027 RMK AO2
IKV,2017-04-01 16:10,-93.5695,41.6878,48.20,35.60,61.52,0.00,0.00,0.00,30.27,M,10.00,M,CLR,M,M,M,M,M,M,M,M,KIKV 011610Z AUTO 00000KT 10SM CLR 09/02 A3027 RMK AO2
IKV,2017-04-01 16:15,-93.5695,41.6878,48.20,35.60,61.52,0.00,0.00,0.00,30.27,M,10.00,M,CLR,M,M,M,M,M,M,M,M,KIKV 011615Z AUTO 00000KT 10SM CLR 09/02 A3027 RMK AO2
IKV,2017-04-01 16:20,-93.5695,41.6878,48.20,37.40,66.05,0.00,0.00,0.00,30.27,M,10.00,M,CLR,M,M,M,M,M,M,M,M,KIKV 011620Z AUTO 00000KT 10SM CLR 09/03 A3027 RMK AO2
IKV,2017-04-01 16:30,-93.5695,41.6878,48.20,37.40,66.05,130.00,4.00,0.00,30.27,M,10.00,M,CLR,M,M,M,M,M,M,M,M,KIKV 011630Z AUTO 13004KT 10SM CLR 09/03 A3027 RMK AO2
IKV,2017-04-01 16:35,-93.5695,41.6878,48.20,37.40,66.05,M,3.00,0.00,30.27,M,10.00,M,CLR,M,M,M,M,M,M,M,M,KIKV 011635Z AUTO VRB03KT 10SM CLR 09/03 A3027 RMK AO2
IKV,2017-04-01 16:40,-93.5695,41.6878,48.20,37.40,66.05,M,4.00,0.00,30.27,M,10.00,M,CLR,M,M,M,M,M,M,M,M,KIKV 011640Z AUTO VRB04KT 10SM CLR 09/03 A3027 RMK AO2
IKV,2017-04-01 16:50,-93.5695,41.6878,48.20,37.40,66.05,140.00,3.00,0.00,30.27,M,10.00,M,CLR,M,M,M,M,M,M,M,M,KIKV 011650Z AUTO 14003KT 10SM CLR 09/03 A3027 RMK AO2
IKV,2017-04-01 16:55,-93.5695,41.6878,48.20,35.60,61.52,130.00,3.00,0.00,30.27,M,10.00,M,CLR,M,M,M,M,M,M,M,M,KIKV 011655Z AUTO 13003KT 10SM CLR 09/02 A3027 RMK AO2
IKV,2017-04-01 17:00,-93.5695,41.6878,48.20,35.60,61.52,100.00,3.00,0.00,30.26,M,10.00,M,CLR,M,M,M,M,M,M,M,M,KIKV 011700Z AUTO 10003KT 10SM CLR 09/02 A3026 RMK AO2
IKV,2017-04-01 17:10,-93.5695,41.6878,50.00,35.60,57.52,160.00,3.00,0.00,30.26,M,10.00,M,CLR,M,M,M,M,M,M,M,M,KIKV 011710Z AUTO 16003KT 10SM CLR 10/02 A3026 RMK AO2
IKV,2017-04-01 17:15,-93.5695,41.6878,50.00,37.40,61.76,180.00,4.00,0.00,30.26,M,10.00,M,CLR,M,M,M,M,M,M,M,M,KIKV 011715Z AUTO 18004KT 10SM CLR 10/03 A3026 RMK AO2
IKV,2017-04-01 17:20,-93.5695,41.6878,50.00,37.40,61.76,190.00,4.00,0.00,30.26,M,10.00,M,CLR,M,M,M,M,M,M,M,M,KIKV 011720Z AUTO 19004KT 10SM CLR 10/03 A3026 RMK AO2
IKV,2017-04-01 17:30,-93.5695,41.6878,50.00,35.60,57.52,M,4.00,0.00,30.25,M,10.00,M,CLR,M,M,M,M,M,M,M,M,KIKV 011730Z AUTO VRB04KT 10SM CLR 10/02 A3025 RMK AO2
IKV,2017-04-01 17:35,-93.5695,41.6878,50.00,35.60,57.52,150.00,5.00,0.00,30.25,M,10.00,M,CLR,M,M,M,M,M,M,M,M,KIKV 011735Z AUTO 15005KT 10SM CLR 10/02 A3025 RMK AO2
IKV,2017-04-01 17:40,-93.5695,41.6878,50.00,35.60,57.52,170.00,4.00,0.00,30.25,M,10.00,M,CLR,M,M,M,M,M,M,M,M,KIKV 011740Z AUTO 17004KT 10SM CLR 10/02 A3025 RMK AO2
IKV,2017-04-01 17:50,-93.5695,41.6878,50.00,35.60,57.52,190.00,4.00,0.00,30.24,M,10.00,M,CLR,M,M,M,M,M,M,M,M,KIKV 011750Z AUTO 19004KT 10SM CLR 10/02 A3024 RMK AO2
IKV,2017-04-01 17:55,-93.5695,41.6878,51.80,35.60,53.81,160.00,4.00,0.00,30.24,M,10.00,M,CLR,M,M,M,M,M,M,M,M,KIKV 011755Z AUTO 16004KT 10SM CLR 11/02 A3024 RMK AO2
IKV,2017-04-01 18:00,-93.5695,41.6878,50.00,35.60,57.52,0.00,0.00,0.00,30.24,M,10.00,M,CLR,M,M,M,M,M,M,M,M,KIKV 011800Z AUTO 00000KT 10SM CLR 10/02 A3024 RMK AO2
IKV,2017-04-01 18:10,-93.5695,41.6878,51.80,35.60,53.81,10.00,3.00,0.00,30.24,M,10.00,M,CLR,M,M,M,M,M,M,M,M,KIKV 011810Z AUTO 01003KT 10SM CLR 11/02 A3024 RMK AO2
IKV,2017-04-01 18:15,-93.5695,41.6878,51.80,35.60,53.81,M,4.00,0.00,30.24,M,10.00,M,CLR,M,M,M,M,M,M,M,M,KIKV 011815Z AUTO VRB04KT 10SM CLR 11/02 A3024 RMK AO2
IKV,2017-04-01 18:20,-93.5695,41.6878,51.80,35.60,53.81,120.00,4.00,0.00,30.24,M,10.00,M,CLR,M,M,M,M,M,M,M,M,KIKV 011820Z AUTO 12004KT 10SM CLR 11/02 A3024 RMK AO2
IKV,2017-04-01 18:30,-93.5695,41.6878,51.80,35.60,53.81,0.00,0.00,0.00,30.24,M,10.00,M,CLR,M,M,M,M,M,M,M,M,KIKV 011830Z AUTO 00000KT 10SM CLR 11/02 A3024 RMK AO2
IKV,2017-04-01 18:35,-93.5695,41.6878,51.80,35.60,53.81,120.00,3.00,0.00,30.24,M,10.00,M,CLR,M,M,M,M,M,M,M,M,KIKV 011835Z AUTO 12003KT 10SM CLR 11/02 A3024 RMK AO2
IKV,2017-04-01 18:40,-93.5695,41.6878,51.80,35.60,53.81,0.00,0.00,0.00,30.24,M,10.00,M,CLR,M,M,M,M,M,M,M,M,KIKV 011840Z AUTO 00000KT 10SM CLR 11/02 A3024 RMK AO2
IKV,2017-04-01 18:50,-93.5695,41.6878,51.80,35.60,53.81,180.00,3.00,0.00,30.23,M,10.00,M,CLR,M,M,M,M,M,M,M,M,KIKV 011850Z AUTO 18003KT 10SM CLR 11/02 A3023 RMK AO2
IKV,2017-04-01 18:55,-93.5695,41.6878,51.80,35.60,53.81,140.00,6.00,0.00,30.23,M,10.00,M,CLR,M,M,M,M,M,M,M,M,KIKV 011855Z AUTO 14006KT 10SM CLR 11/02 A3023 RMK AO2
IKV,2017-04-01 19:00,-93.5695,41.6878,51.80,35.60,53.81,130.00,4.00,0.00,30.23,M,10.00,M,CLR,M,M,M,M,M,M,M,M,KIKV 011900Z AUTO 13004KT 10SM CLR 11/02 A3023 RMK AO2
IKV,2017-04-01 19:10,-93.5695,41.6878,51.80,35.60,53.81,170.00,3.00,0.00,30.22,M,10.00,M,FEW,M,M,M,12000.00,M,M,M,M,KIKV 011910Z AUTO 17003KT 10SM FEW120 11/02 A3022 RMK AO2
IKV,2017-04-01 19:15,-93.5695,41.6878,51.80,35.60,53.81,0.00,0.00,0.00,30.22,M,10.00,M,FEW,M,M,M,12000.00,M,M,M,M,KIKV 011915Z AUTO 00000KT 10SM FEW120 11/02 A3022 RMK AO2
IKV,2017-04-01 19:20,-93.5695,41.6878,51.80,35.60,53.81,M,4.00,0.00,30.22,M,10.00,M,FEW,M,M,M,12000.00,M,M,M,M,KIKV 011920Z AUTO VRB04KT 10SM FEW120 11/02 A3022 RMK AO2
IKV,2017-04-01 19:30,-93.5695,41.6878,51.80,33.80,50.08,100.00,3.00,0.00,30.22,M,10.00,M,FEW,M,M,M,12000.00,M,M,M,M,KIKV 011930Z AUTO 10003KT 10SM FEW120 11/01 A3022 RMK AO2
IKV,2017-04-01 19:35,-93.5695,41.6878,51.80,33.80,50.08,0.00,0.00,0.00,30.22,M,10.00,M,FEW,M,M,M,12000.00,M,M,M,M,KIKV 011935Z AUTO 00000KT 10SM FEW120 11/01 A3022 RMK AO2
IKV,2017-04-01 19:40,-93.5695,41.6878,51.80,33.80,50.08,80.00,4.00,0.00,30.22,M,10.00,M,CLR,M,M,M,M,M,M,M,M,KIKV 011940Z AUTO 08004KT 10SM CLR 11/01 A3022 RMK AO2
IKV,2017-04-01 19:50,-93.5695,41.6878,51.80,35.60,53.81,80.00,4.00,0.00,30.22,M,10.00,M,CLR,M,M,M,M,M,M,M,M,KIKV 011950Z AUTO 08004KT 10SM CLR 11/02 A3022 RMK AO2
IKV,2017-04-01 19:55,-93.5695,41.6878,51.80,35.60,53.81,70.00,4.00,0.00,30.21,M,10.00,M,CLR,M,M,M,M,M,M,M,M,KIKV 011955Z AUTO 07004KT 10SM CLR 11/02 A3021 RMK AO2
IKV,2017-04-01 20:00,-93.5695,41.6878,51.80,35.60,53.81,0.00,0.00,0.00,30.21,M,10.00,M,CLR,M,M,M,M,M,M,M,M,KIKV 012000Z AUTO 00000KT 10SM CLR 11/02 A3021 RMK AO2
IKV,2017-04-01 20:10,-93.5695,41.6878,53.60,35.60,50.36,0.00,0.00,0.00,30.21,M,10.00,M,CLR,M,M,M,M,M,M,M,M,KIKV 012010Z AUTO 00000KT 10SM CLR 12/02 A3021 RMK AO2
IKV,2017-04-01 20:15,-93.5695,41.6878,51.80,33.80,50.08,0.00,0.00,0.00,30.21,M,M,M,CLR,M,M,M,M,M,M,M,M,KIKV 012015Z AUTO 00000KT CLR 11/01 A3021 RMK AO2
IKV,2017-04-01 20:20,-93.5695,41.6878,51.80,35.60,53.81,0.00,0.00,0.00,30.21,M,10.00,M,CLR,M,M,M,M,M,M,M,M,KIKV 012020Z AUTO 00000KT 10SM CLR 11/02 A3021 RMK AO2
IKV,2017-04-01 20:30,-93.5695,41.6878,53.60,35.60,50.36,90.00,4.00,0.00,30.20,M,10.00,M,CLR,M,M,M,M,M,M,M,M,KIKV 012030Z AUTO 09004KT 10SM CLR 12/02 A3020 RMK AO2
IKV,2017-04-01 20:35,-93.5695,41.6878,53.60,35.60,50.36,80.00,5.00,0.00,30.19,M,10.00,M,CLR,M,M,M,M,M,M,M,M,KIKV 012035Z AUTO 08005KT 10SM CLR 12/02 A3019 RMK AO2
IKV,2017-04-01 20:40,-93.5695,41.6878,53.60,37.40,54.07,40.00,5.00,0.00,30.18,M,10.00,M,FEW,M,M,M,10000.00,M,M,M,M,KIKV 012040Z AUTO 04005KT 10SM FEW100 12/03 A3018 RMK AO2
IKV,2017-04-01 20:50,-93.5695,41.6878,51.80,37.40,57.77,M,4.00,0.00,30.18,M,10.00,M,BKN,M,M,M,9500.00,M,M,M,M,KIKV 012050Z AUTO VRB04KT 10SM BKN095 11/03 A3018 RMK AO2
IKV,2017-04-01 20:55,-93.5695,41.6878,51.80,37.40,57.77,70.00,4.00,0.00,30.19,M,10.00,M,BKN,M,M,M,9500.00,M,M,M,M,KIKV 012055Z AUTO 07004KT 10SM BKN095 11/03 A3019 RMK AO2
IKV,2017-04-01 21:00,-93.5695,41.6878,51.80,37.40,57.77,60.00,3.00,0.00,30.19,M,10.00,M,BKN,M,M,M,9000.00,M,M,M,M,KIKV 012100Z AUTO 06003KT 10SM BKN090 11/03 A3019 RMK AO2
IKV,2017-04-01 21:10,-93.5695,41.6878,51.80,37.40,57.77,120.00,3.00,0.00,30.20,M,10.00,M,OVC,M,M,M,9000.00,M,M,M,M,KIKV 012110Z AUTO 12003KT 10SM OVC090 11/03 A3020 RMK AO2
IKV,2017-04-01 21:15,-93.5695,41.6878,51.80,37.40,57.77,0.00,0.00,0.00,30.20,M,10.00,M,OVC,M,M,M,8500.00,M,M,M,M,KIKV 012115Z AUTO 00000KT 10SM OVC085 11/03 A3020 RMK AO2
IKV,2017-04-01 21:20,-93.5695,41.6878,51.80,35.60,53.81,0.00,0.00,0.00,30.20,M,10.00,M,BKN,OVC,M,M,8000.00,9000.00,M,M,M,KIKV 012120Z AUTO 00000KT 10SM BKN080 OVC090 11/02 A3020 RMK AO2
IKV,2017-04-01 21:30,-93.5695,41.6878,51.80,37.40,57.77,0.00,0.00,0.00,30.20,M,10.00,M,BKN,BKN,M,M,8000.00,9000.00,M,M,M,KIKV 012130Z AUTO 00000KT 10SM BKN080 BKN090 11/03 A3020 RMK AO2
IKV,2017-04-01 21:35,-93.5695,41.6878,51.80,37.40,57.77,10.00,3.00,0.00,30.20,M,10.00,M,BKN,BKN,M,M,8000.00,9000.00,M,M,M,KIKV 012135Z AUTO 01003KT 10SM BKN080 BKN090 11/03 A3020 RMK AO2
IKV,2017-04-01 21:40,-93.5695,41.6878,51.80,37.40,57.77,0.00,0.00,0.00,30.20,M,10.00,M,SCT,OVC,M,M,8000.00,9000.00,M,M,M,KIKV 012140Z AUTO 00000KT 10SM SCT080 OVC090 11/03 A3020 RMK AO2
IKV,2017-04-01 21:50,-93.5695,41.6878,51.80,37.40,57.77,0.00,0.00,0.00,30.20,M,10.00,M,FEW,OVC,M,M,8000.00,9000.00,M,M,M,KIKV 012150Z AUTO 00000KT 10SM FEW080 OVC090 11/03 A3020 RMK AO2
IKV,2017-04-01 21:55,-93.5695,41.6878,53.60,37.40,54.07,0.00,0.00,0.00,30.20,M,10.00,M,OVC,M,M,M,9500.00,M,M,M,M,KIKV 012155Z AUTO 00000KT 10SM OVC095 12/03 A3020 RMK AO2
IKV,2017-04-01 22:00,-93.5695,41.6878,53.60,37.40,54.07,0.00,0.00,0.00,30.20,M,10.00,M,OVC,M,M,M,9500.00,M,M,M,M,KIKV 012200Z AUTO 00000KT 10SM OVC095 12/03 A3020 RMK AO2
IKV,2017-04-01 22:10,-93.5695,41.6878,51.80,37.40,57.77,60.00,5.00,0.00,30.19,M,10.00,M,OVC,M,M,M,9500.00,M,M,M,M,KIKV 012210Z AUTO 06005KT 10SM OVC095 11/03 A3019 RMK AO2
IKV,2017-04-01 22:15,-93.5695,41.6878,51.80,37.40,57.77,60.00,4.00,0.00,30.20,M,10.00,M,OVC,M,M,M,9500.00,M,M,M,M,KIKV 012215Z AUTO 06004KT 10SM OVC095 11/03 A3020 RMK AO2
IKV,2017-04-01 22:20,-93.5695,41.6878,51.80,37.40,57.77,40.00,5.00,0.00,30.19,M,10.00,M,OVC,M,M,M,9500.00,M,M,M,M,KIKV 012220Z AUTO 04005KT 10SM OVC095 11/03 A3019 RMK AO2
IKV,2017-04-01 22:30,-93.5695,41.6878,51.80,37.40,57.77,80.00,6.00,0.00,30.18,M,10.00,M,OVC,M,M,M,9000.00,M,M,M,M,KIKV 012230Z AUTO 08006KT 10SM OVC090 11/03 A3018 RMK AO2
IKV,2017-04-01 22:35,-93.5695,41.6878,51.80,37.40,57.77,M,5.00,0.00,30.18,M,10.00,M,OVC,M,M,M,9500.00,M,M,M,M,KIKV 012235Z AUTO VRB05KT 10SM OVC095 11/03 A3018 RMK AO2
IKV,2017-04-01 22:40,-93.5695,41.6878,51.80,37.40,57.77,50.00,5.00,0.00,30.18,M,10.00,M,OVC,M,M,M,9000.00,M,M,M,M,KIKV 012240Z AUTO 05005KT 10SM OVC090 11/03 A3018 RMK AO2
IKV,2017-04-01 22:50,-93.5695,41.6878,51.80,37.40,57.77,40.00,4.00,0.00,30.18,M,10.00,M,OVC,M,M,M,9000.00,M,M,M,M,KIKV 012250Z AUTO 04004KT 10SM OVC090 11/03 A3018 RMK AO2
IKV,2017-04-01 22:55,-93.5695,41.6878,51.80,37.40,57.77,70.00,4.00,0.00,30.18,M,10.00,M,OVC,M,M,M,9000.00,M,M,M,M,KIKV 012255Z AUTO 07004KT 10SM OVC090 11/03 A3018 RMK AO2
IKV,2017-04-01 23:00,-93.5695,41.6878,51.80,37.40,57.77,50.00,5.00,0.00,30.18,M,10.00,M,OVC,M,M,M,9000.00,M,M,M,M,KIKV 012300Z AUTO 05005KT 10SM OVC090 11/03 A3018 RMK AO2
IKV,2017-04-01 23:10,-93.5695,41.6878,51.80,37.40,57.77,0.00,0.00,0.00,30.18,M,10.00,M,OVC,M,M,M,9500.00,M,M,M,M,KIKV 012310Z AUTO 00000KT 10SM OVC095 11/03 A3018 RMK AO2
IKV,2017-04-01 23:15,-93.5695,41.6878,51.80,37.40,57.77,60.00,3.00,0.00,30.18,M,10.00,M,OVC,M,M,M,9500.00,M,M,M,M,KIKV 012315Z AUTO 06003KT 10SM OVC095 11/03 A3018 RMK AO2
IKV,2017-04-01 23:20,-93.5695,41.6878,51.80,37.40,57.77,50.00,4.00,0.00,30.18,M,10.00,M,OVC,M,M,M,9500.00,M,M,M,M,KIKV 012320Z AUTO 05004KT 10SM OVC095 11/03 A3018 RMK AO2
IKV,2017-04-01 23:30,-93.5695,41.6878,51.80,37.40,57.77,60.00,3.00,0.00,30.18,M,10.00,M,OVC,M,M,M,9500.00,M,M,M,M,KIKV 012330Z AUTO 06003KT 10SM OVC095 11/03 A3018 RMK AO2
IKV,2017-04-01 23:35,-93.5695,41.6878,51.80,37.40,57.77,50.00,5.00,0.00,30.18,M,10.00,M,OVC,M,M,M,9500.00,M,M,M,M,KIKV 012335Z AUTO 05005KT 10SM OVC095 11/03 A3018 RMK AO2
IKV,2017-04-01 23:40,-93.5695,41.6878,51.80,37.40,57.77,40.00,5.00,0.00,30.18,M,10.00,M,OVC,M,M,M,9500.00,M,M,M,M,KIKV 012340Z AUTO 04005KT 10SM OVC095 11/03 A3018 RMK AO2
IKV,2017-04-01 23:50,-93.5695,41.6878,51.80,37.40,57.77,50.00,4.00,0.00,30.18,M,10.00,M,OVC,M,M,M,9500.00,M,M,M,M,KIKV 012350Z AUTO 05004KT 10SM OVC095 11/03 A3018 RMK AO2
IKV,2017-04-01 23:55,-93.5695,41.6878,51.80,37.40,57.77,0.00,0.00,0.00,30.18,M,10.00,M,OVC,M,M,M,9500.00,M,M,M,M,KIKV 012355Z AUTO 00000KT 10SM OVC095 11/03 A3018 RMK AO2
