#DEBUG: Format Typ    -> comma
#DEBUG: Time Period   -> 2017-04-01 00:00:00+00:00 2017-04-02 00:00:00+00:00
#DEBUG: Time Zone     -> Etc/UTC
#DEBUG: Data Contact   -> daryl herzmann akrherz@iastate.edu 515-294-5978
#DEBUG: Entries Found -> -1
station,valid,lon,lat,tmpf, dwpf, relh, drct, sknt, p01i, alti, mslp, vsby, gust, skyc1, skyc2, skyc3, skyc4, skyl1, skyl2, skyl3, skyl4, presentwx, metar
IOW,2017-04-01 00:00,-91.5445,41.6394,M,M,M,20.00,7.00,M,30.05,M,10.00,M,OVC,M,M,M,2300.00,M,M,M,M,KIOW 010000Z AUTO 02007KT 10SM OVC023 A3005 RMK MADISHF
IOW,2017-04-01 00:05,-91.5445,41.6394,M,M,M,30.00,10.00,M,30.05,M,10.00,M,OVC,M,M,M,2400.00,M,M,M,M,KIOW 010005Z AUTO 03010KT 10SM OVC024 A3005 RMK MADISHF
IOW,2017-04-01 00:10,-91.5445,41.6394,M,M,M,20.00,10.00,M,30.05,M,10.00,M,OVC,M,M,M,2400.00,M,M,M,M,KIOW 010010Z AUTO 02010KT 10SM OVC024 A3005 RMK MADISHF
IOW,2017-04-01 00:15,-91.5445,41.6394,M,M,M,20.00,7.00,M,30.05,M,10.00,M,OVC,M,M,M,2400.00,M,M,M,M,KIOW 010015Z AUTO 02007KT 10SM OVC024 A3005 RMK MADISHF
IOW,2017-04-01 00:20,-91.5445,41.6394,M,M,M,20.00,7.00,M,30.05,M,10.00,M,OVC,M,M,M,2400.00,M,M,M,M,KIOW 010020Z AUTO 02007KT 10SM OVC024 A3005 RMK MADISHF
IOW,2017-04-01 00:25,-91.5445,41.6394,M,M,M,10.00,8.00,M,30.05,M,10.00,M,OVC,M,M,M,2400.00,M,M,M,M,KIOW 010025Z AUTO 01008KT 10SM OVC024 A3005 RMK MADISHF
IOW,2017-04-01 00:30,-91.5445,41.6394,M,M,M,20.00,9.00,M,30.06,M,10.00,M,OVC,M,M,M,2400.00,M,M,M,M,KIOW 010030Z AUTO 02009KT 10SM OVC024 A3006 RMK MADISHF
IOW,2017-04-01 00:35,-91.5445,41.6394,M,M,M,20.00,7.00,M,30.06,M,10.00,M,OVC,M,M,M,2400.00,M,M,M,M,KIOW 010035Z AUTO 02007KT 10SM OVC024 A3006 RMK MADISHF
IOW,2017-04-01 00:40,-91.5445,41.6394,M,M,M,30.00,5.00,M,30.06,M,10.00,M,OVC,M,M,M,2400.00,M,M,M,M,KIOW 010040Z AUTO 03005KT 10SM OVC024 A3006 RMK MADISHF
IOW,2017-04-01 00:45,-91.5445,41.6394,M,M,M,40.00,8.00,M,30.07,M,10.00,M,OVC,M,M,M,2400.00,M,M,M,M,KIOW 010045Z AUTO 04008KT 10SM OVC024 A3007 RMK MADISHF
IOW,2017-04-01 00:50,-91.5445,41.6394,M,M,M,30.00,7.00,M,30.07,M,10.00,M,OVC,M,M,M,2400.00,M,M,M,M,KIOW 010050Z AUTO 03007KT 10SM OVC024 A3007 RMK MADISHF
IOW,2017-04-01 00:52,-91.5445,41.6394,45.00,36.00,70.53,20.00,8.00,0.00,30.07,1018.50,10.00,M,OVC,M,M,M,2400.00,M,M,M,M,KIOW 010052Z AUTO 02008KT 10SM OVC024 07/02 A3007 RMK AO2 SLP185 T00720022
IOW,2017-04-01 00:55,-91.5445,41.6394,M,M,M,40.00,6.00,M,30.07,M,10.00,M,OVC,M,M,M,2400.00,M,M,M,M,KIOW 010055Z AUTO 04006KT 10SM OVC024 A3007 RMK MADISHF
IOW,2017-04-01 01:00,-91.5445,41.6394,M,M,M,30.00,7.00,M,30.07,M,10.00,M,OVC,M,M,M,2400.00,M,M,M,M,KIOW 010100Z AUTO 03007KT 10SM OVC024 A3007 RMK MADISHF
IOW,2017-04-01 01:05,-91.5445,41.6394,M,M,M,30.00,8.00,M,30.07,M,10.00,M,OVC,M,M,M,2400.00,M,M,M,M,KIOW 010105Z AUTO 03008KT 10SM OVC024 A3007 RMK MADISHF
IOW,2017-04-01 01:10,-91.5445,41.6394,M,M,M,40.00,6.00,M,30.08,M,10.00,M,OVC,M,M,M,2400.00,M,M,M,M,KIOW 010110Z AUTO 04006KT 10SM OVC024 A3008 RMK MADISHF
IOW,2017-04-01 01:15,-91.5445,41.6394,M,M,M,30.00,6.00,M,30.08,M,10.00,M,OVC,M,M,M,2400.00,M,M,M,M,KIOW 010115Z AUTO 03006KT 10SM OVC024 A3008 RMK MADISHF
IOW,2017-04-01 01:20,-91.5445,41.6394,M,M,M,60.00,7.00,M,30.07,M,10.00,M,OVC,M,M,M,2500.00,M,M,M,M,KIOW 010120Z AUTO 06007KT 10SM OVC025 A3007 RMK MADISHF
IOW,2017-04-01 01:25,-91.5445,41.6394,M,M,M,60.00,6.00,M,30.07,M,10.00,M,OVC,M,M,M,2500.00,M,M,M,M,KIOW 010125Z AUTO 06006KT 10SM OVC025 A3007 RMK MADISHF
IOW,2017-04-01 01:30,-91.5445,41.6394,M,M,M,50.00,7.00,M,30.07,M,10.00,M,OVC,M,M,M,2700.00,M,M,M,M,KIOW 010130Z AUTO 05007KT 10SM OVC027 A3007 RMK MADISHF
IOW,2017-04-01 01:35,-91.5445,41.6394,M,M,M,50.00,6.00,M,30.07,M,10.00,M,OVC,M,M,M,2700.00,M,M,M,M,KIOW 010135Z AUTO 05006KT 10SM OVC027 A3007 RMK MADISHF
IOW,2017-04-01 01:40,-91.5445,41.6394,M,M,M,60.00,4.00,M,30.08,M,10.00,M,OVC,M,M,M,2700.00,M,M,M,M,KIOW 010140Z AUTO 06004KT 10SM OVC027 A3008 RMK MADISHF
IOW,2017-04-01 01:45,-91.5445,41.6394,M,M,M,40.00,4.00,M,30.08,M,10.00,M,OVC,M,M,M,2700.00,M,M,M,M,KIOW 010145Z AUTO 04004KT 10SM OVC027 A3008 RMK MADISHF
IOW,2017-04-01 01:50,-91.5445,41.6394,M,M,M,50.00,5.00,M,30.08,M,10.00,M,OVC,M,M,M,2700.00,M,M,M,M,KIOW 010150Z AUTO 05005KT 10SM OVC027 A3008 RMK MADISHF
IOW,2017-04-01 01:52,-91.5445,41.6394,45.00,35.10,68.05,50.00,5.00,0.00,30.08,1019.10,10.00,M,OVC,M,M,M,2700.00,M,M,M,M,KIOW 010152Z AUTO 05005KT 10SM OVC027 07/02 A3008 RMK AO2 SLP191 T00720017
IOW,2017-04-01 01:55,-91.5445,41.6394,M,M,M,60.00,4.00,M,30.08,M,10.00,M,OVC,M,M,M,2700.00,M,M,M,M,KIOW 010155Z AUTO 06004KT 10SM OVC027 A3008 RMK MADISHF
IOW,2017-04-01 02:00,-91.5445,41.6394,M,M,M,90.00,3.00,M,30.09,M,10.00,M,BKN,M,M,M,2700.00,M,M,M,M,KIOW 010200Z AUTO 09003KT 10SM BKN027 A3009 RMK MADISHF
IOW,2017-04-01 02:05,-91.5445,41.6394,M,M,M,80.00,3.00,M,30.09,M,10.00,M,BKN,M,M,M,2700.00,M,M,M,M,KIOW 010205Z AUTO 08003KT 10SM BKN027 A3009 RMK MADISHF
IOW,2017-04-01 02:10,-91.5445,41.6394,M,M,M,90.00,4.00,M,30.09,M,10.00,M,SCT,M,M,M,2700.00,M,M,M,M,KIOW 010210Z AUTO 09004KT 10SM SCT027 A3009 RMK MADISHF
IOW,2017-04-01 02:12,-91.5445,41.6394,44.10,34.00,67.41,100.00,3.00,0.00,30.09,M,10.00,M,SCT,M,M,M,2700.00,M,M,M,M,KIOW 010212Z AUTO 10003KT 10SM SCT027 07/01 A3009 RMK AO2 T00670011
IOW,2017-04-01 02:15,-91.5445,41.6394,M,M,M,120.00,3.00,M,30.10,M,10.00,M,FEW,M,M,M,2700.00,M,M,M,M,KIOW 010215Z AUTO 12003KT 10SM FEW027 A3010 RMK MADISHF
IOW,2017-04-01 02:20,-91.5445,41.6394,M,M,M,140.00,3.00,M,30.10,M,10.00,M,FEW,M,M,M,2700.00,M,M,M,M,KIOW 010220Z AUTO 14003KT 10SM FEW027 A3010 RMK MADISHF
IOW,2017-04-01 02:25,-91.5445,41.6394,M,M,M,0.00,0.00,M,30.11,M,10.00,M,CLR,M,M,M,M,M,M,M,M,KIOW 010225Z AUTO 00000KT 10SM CLR A3011 RMK MADISHF
IOW,2017-04-01 02:30,-91.5445,41.6394,M,M,M,0.00,0.00,M,30.11,M,10.00,M,CLR,M,M,M,M,M,M,M,M,KIOW 010230Z AUTO 00000KT 10SM CLR A3011 RMK MADISHF
IOW,2017-04-01 02:35,-91.5445,41.6394,M,M,M,0.00,0.00,M,30.11,M,10.00,M,CLR,M,M,M,M,M,M,M,M,KIOW 010235Z AUTO 00000KT 10SM CLR A3011 RMK MADISHF
IOW,2017-04-01 02:40,-91.5445,41.6394,M,M,M,250.00,4.00,M,30.11,M,10.00,M,CLR,M,M,M,M,M,M,M,M,KIOW 010240Z AUTO 25004KT 10SM CLR A3011 RMK MADISHF
IOW,2017-04-01 02:45,-91.5445,41.6394,M,M,M,260.00,4.00,M,30.11,M,10.00,M,CLR,M,M,M,M,M,M,M,M,KIOW 010245Z AUTO 26004KT 10SM CLR A3011 RMK MADISHF
IOW,2017-04-01 02:50,-91.5445,41.6394,M,M,M,280.00,3.00,M,30.11,M,10.00,M,CLR,M,M,M,M,M,M,M,M,KIOW 010250Z AUTO 28003KT 10SM CLR A3011 RMK MADISHF
IOW,2017-04-01 02:52,-91.5445,41.6394,37.00,32.00,81.93,290.00,3.00,0.00,30.11,1019.90,10.00,M,CLR,M,M,M,M,M,M,M,M,KIOW 010252Z AUTO 29003KT 10SM CLR 03/00 A3011 RMK AO2 SLP199 T00280000 51021
IOW,2017-04-01 02:55,-91.5445,41.6394,M,M,M,280.00,3.00,M,30.11,M,10.00,M,CLR,M,M,M,M,M,M,M,M,KIOW 010255Z AUTO 28003KT 10SM CLR A3011 RMK MADISHF
IOW,2017-04-01 03:00,-91.5445,41.6394,M,M,M,300.00,3.00,M,30.11,M,10.00,M,CLR,M,M,M,M,M,M,M,M,KIOW 010300Z AUTO 30003KT 10SM CLR A3011 RMK MADISHF
IOW,2017-04-01 03:05,-91.5445,41.6394,M,M,M,310.00,3.00,M,30.11,M,10.00,M,CLR,M,M,M,M,M,M,M,M,KIOW 010305Z AUTO 31003KT 10SM CLR A3011 RMK MADISHF
IOW,2017-04-01 03:10,-91.5445,41.6394,M,M,M,0.00,0.00,M,30.11,M,10.00,M,CLR,M,M,M,M,M,M,M,M,KIOW 010310Z AUTO 00000KT 10SM CLR A3011 RMK MADISHF
IOW,2017-04-01 03:15,-91.5445,41.6394,M,M,M,0.00,0.00,M,30.11,M,10.00,M,CLR,M,M,M,M,M,M,M,M,KIOW 010315Z AUTO 00000KT 10SM CLR A3011 RMK MADISHF
IOW,2017-04-01 03:20,-91.5445,41.6394,M,M,M,260.00,3.00,M,30.12,M,10.00,M,CLR,M,M,M,M,M,M,M,M,KIOW 010320Z AUTO 26003KT 10SM CLR A3012 RMK MADISHF
IOW,2017-04-01 03:25,-91.5445,41.6394,M,M,M,270.00,4.00,M,30.12,M,10.00,M,CLR,M,M,M,M,M,M,M,M,KIOW 010325Z AUTO 27004KT 10SM CLR A3012 RMK MADISHF
IOW,2017-04-01 03:30,-91.5445,41.6394,M,M,M,280.00,4.00,M,30.12,M,10.00,M,CLR,M,M,M,M,M,M,M,M,KIOW 010330Z AUTO 28004KT 10SM CLR A3012 RMK MADISHF
IOW,2017-04-01 03:35,-91.5445,41.6394,M,M,M,280.00,4.00,M,30.12,M,10.00,M,CLR,M,M,M,M,M,M,M,M,KIOW 010335Z AUTO 28004KT 10SM CLR A3012 RMK MADISHF
IOW,2017-04-01 03:40,-91.5445,41.6394,M,M,M,290.00,4.00,M,30.12,M,10.00,M,CLR,M,M,M,M,M,M,M,M,KIOW 010340Z AUTO 29004KT 10SM CLR A3012 RMK MADISHF
IOW,2017-04-01 03:45,-91.5445,41.6394,M,M,M,280.00,4.00,M,30.12,M,10.00,M,CLR,M,M,M,M,M,M,M,M,KIOW 010345Z AUTO 28004KT 10SM CLR A3012 RMK MADISHF
IOW,2017-04-01 03:50,-91.5445,41.6394,M,M,M,280.00,3.00,M,30.13,M,10.00,M,CLR,M,M,M,M,M,M,M,M,KIOW 010350Z AUTO 28003KT 10SM CLR A3013 RMK MADISHF
IOW,2017-04-01 03:52,-91.5445,41.6394,35.10,30.90,84.49,280.00,3.00,0.00,30.13,1020.70,10.00,M,CLR,M,M,M,M,M,M,M,M,KIOW 010352Z AUTO 28003KT 10SM CLR 02/M01 A3013 RMK AO2 SLP207 T00171006
IOW,2017-04-01 03:55,-91.5445,41.6394,M,M,M,280.00,3.00,M,30.13,M,10.00,M,CLR,M,M,M,M,M,M,M,M,KIOW 010355Z AUTO 28003KT 10SM CLR A3013 RMK MADISHF
IOW,2017-04-01 04:00,-91.5445,41.6394,M,M,M,270.00,3.00,M,30.12,M,10.00,M,CLR,M,M,M,M,M,M,M,M,KIOW 010400Z AUTO 27003KT 10SM CLR A3012 RMK MADISHF
IOW,2017-04-01 04:05,-91.5445,41.6394,M,M,M,290.00,3.00,M,30.13,M,10.00,M,CLR,M,M,M,M,M,M,M,M,KIOW 010405Z AUTO 29003KT 10SM CLR A3013 RMK MADISHF
IOW,2017-04-01 04:10,-91.5445,41.6394,M,M,M,0.00,0.00,M,30.13,M,10.00,M,CLR,M,M,M,M,M,M,M,M,KIOW 010410Z AUTO 00000KT 10SM CLR A3013 RMK MADISHF
IOW,2017-04-01 04:15,-91.5445,41.6394,M,M,M,0.00,0.00,M,30.12,M,10.00,M,CLR,M,M,M,M,M,M,M,M,KIOW 010415Z AUTO 00000KT 10SM CLR A3012 RMK MADISHF
IOW,2017-04-01 04:20,-91.5445,41.6394,M,M,M,0.00,0.00,M,30.13,M,10.00,M,CLR,M,M,M,M,M,M,M,M,KIOW 010420Z AUTO 00000KT 10SM CLR A3013 RMK MADISHF
IOW,2017-04-01 04:25,-91.5445,41.6394,M,M,M,0.00,0.00,M,30.13,M,10.00,M,CLR,M,M,M,M,M,M,M,M,KIOW 010425Z AUTO 00000KT 10SM CLR A3013 RMK MADISHF
IOW,2017-04-01 04:30,-91.5445,41.6394,M,M,M,0.00,0.00,M,30.13,M,10.00,M,CLR,M,M,M,M,M,M,M,M,KIOW 010430Z AUTO 00000KT 10SM CLR A3013 RMK MADISHF
IOW,2017-04-01 04:35,-91.5445,41.6394,M,M,M,0.00,0.00,M,30.13,M,10.00,M,CLR,M,M,M,M,M,M,M,M,KIOW 010435Z AUTO 00000KT 10SM CLR A3013 RMK MADISHF
IOW,2017-04-01 04:40,-91.5445,41.6394,M,M,M,0.00,0.00,M,30.13,M,10.00,M,CLR,M,M,M,M,M,M,M,M,KIOW 010440Z AUTO 00000KT 10SM CLR A3013 RMK MADISHF
IOW,2017-04-01 04:45,-91.5445,41.6394,M,M,M,0.00,0.00,M,30.14,M,10.00,M,CLR,M,M,M,M,M,M,M,M,KIOW 010445Z AUTO 00000KT 10SM CLR A3014 RMK MADISHF
IOW,2017-04-01 04:50,-91.5445,41.6394,M,M,M,260.00,4.00,M,30.14,M,10.00,M,CLR,M,M,M,M,M,M,M,M,KIOW 010450Z AUTO 26004KT 10SM CLR A3014 RMK MADISHF
IOW,2017-04-01 04:52,-91.5445,41.6394,34.00,30.90,88.27,260.00,4.00,0.00,30.14,1021.30,10.00,M,CLR,M,M,M,M,M,M,M,M,KIOW 010452Z AUTO 26004KT 10SM CLR 01/M01 A3014 RMK AO2 SLP213 T00111006
IOW,2017-04-01 04:55,-91.5445,41.6394,M,M,M,260.00,4.00,M,30.14,M,10.00,M,CLR,M,M,M,M,M,M,M,M,KIOW 010455Z AUTO 26004KT 10SM CLR A3014 RMK MADISHF
IOW,2017-04-01 05:00,-91.5445,41.6394,M,M,M,280.00,3.00,M,30.14,M,10.00,M,CLR,M,M,M,M,M,M,M,M,KIOW 010500Z AUTO 28003KT 10SM CLR A3014 RMK MADISHF
IOW,2017-04-01 05:05,-91.5445,41.6394,M,M,M,290.00,3.00,M,30.14,M,10.00,M,CLR,M,M,M,M,M,M,M,M,KIOW 010505Z AUTO 29003KT 10SM CLR A3014 RMK MADISHF
IOW,2017-04-01 05:10,-91.5445,41.6394,M,M,M,0.00,0.00,M,30.15,M,10.00,M,CLR,M,M,M,M,M,M,M,M,KIOW 010510Z AUTO 00000KT 10SM CLR A3015 RMK MADISHF
IOW,2017-04-01 05:15,-91.5445,41.6394,M,M,M,300.00,3.00,M,30.15,M,10.00,M,CLR,M,M,M,M,M,M,M,M,KIOW 010515Z AUTO 30003KT 10SM CLR A3015 RMK MADISHF
IOW,2017-04-01 05:20,-91.5445,41.6394,M,M,M,0.00,0.00,M,30.15,M,10.00,M,CLR,M,M,M,M,M,M,M,M,KIOW 010520Z AUTO 00000KT 10SM CLR A3015 RMK MADISHF
IOW,2017-04-01 05:25,-91.5445,41.6394,M,M,M,0.00,0.00,M,30.15,M,10.00,M,CLR,M,M,M,M,M,M,M,M,KIOW 010525Z AUTO 00000KT 10SM CLR A3015 RMK MADISHF
IOW,2017-04-01 05:30,-91.5445,41.6394,M,M,M,40.00,3.00,M,30.15,M,10.00,M,CLR,M,M,M,M,M,M,M,M,KIOW 010530Z AUTO 04003KT 10SM CLR A3015 RMK MADISHF
IOW,2017-04-01 05:35,-91.5445,41.6394,M,M,M,40.00,3.00,M,30.14,M,10.00,M,CLR,M,M,M,M,M,M,M,M,KIOW 010535Z AUTO 04003KT 10SM CLR A3014 RMK MADISHF
IOW,2017-04-01 05:40,-91.5445,41.6394,M,M,M,20.00,4.00,M,30.14,M,10.00,M,CLR,M,M,M,M,M,M,M,M,KIOW 010540Z AUTO 02004KT 10SM CLR A3014 RMK MADISHF
IOW,2017-04-01 05:45,-91.5445,41.6394,M,M,M,10.00,4.00,M,30.15,M,10.00,M,CLR,M,M,M,M,M,M,M,M,KIOW 010545Z AUTO 01004KT 10SM CLR A3015 RMK MADISHF
IOW,2017-04-01 05:50,-91.5445,41.6394,M,M,M,350.00,3.00,M,30.15,M,10.00,M,CLR,M,M,M,M,M,M,M,M,KIOW 010550Z AUTO 35003KT 10SM CLR A3015 RMK MADISHF
IOW,2017-04-01 05:52,-91.5445,41.6394,37.00,34.00,88.78,350.00,3.00,0.00,30.15,1021.40,10.00,M,CLR,M,M,M,M,M,M,M,M,KIOW 010552Z AUTO 35003KT 10SM CLR 03/01 A3015 RMK AO2 SLP214 T00280011 10072 20011 400780011 51014
IOW,2017-04-01 05:55,-91.5445,41.6394,M,M,M,340.00,3.00,M,30.15,M,10.00,M,CLR,M,M,M,M,M,M,M,M,KIOW 010555Z AUTO 34003KT 10SM CLR A3015 RMK MADISHF
IOW,2017-04-01 06:00,-91.5445,41.6394,M,M,M,360.00,3.00,M,30.15,M,10.00,M,CLR,M,M,M,M,M,M,M,M,KIOW 010600Z AUTO 36003KT 10SM CLR A3015 RMK MADISHF
IOW,2017-04-01 06:05,-91.5445,41.6394,M,M,M,0.00,0.00,M,30.15,M,10.00,M,CLR,M,M,M,M,M,M,M,M,KIOW 010605Z AUTO 00000KT 10SM CLR A3015 RMK MADISHF
IOW,2017-04-01 06:10,-91.5445,41.6394,M,M,M,0.00,0.00,M,30.15,M,10.00,M,CLR,M,M,M,M,M,M,M,M,KIOW 010610Z AUTO 00000KT 10SM CLR A3015 RMK MADISHF
IOW,2017-04-01 06:15,-91.5445,41.6394,M,M,M,0.00,0.00,M,30.15,M,10.00,M,CLR,M,M,M,M,M,M,M,M,KIOW 010615Z AUTO 00000KT 10SM CLR A3015 RMK MADISHF
IOW,2017-04-01 06:20,-91.5445,41.6394,M,M,M,0.00,0.00,M,30.15,M,10.00,M,CLR,M,M,M,M,M,M,M,M,KIOW 010620Z AUTO 00000KT 10SM CLR A3015 RMK MADISHF
IOW,2017-04-01 06:25,-91.5445,41.6394,M,M,M,0.00,0.00,M,30.15,M,10.00,M,CLR,M,M,M,M,M,M,M,M,KIOW 010625Z AUTO 00000KT 10SM CLR A3015 RMK MADISHF
IOW,2017-04-01 06:30,-91.5445,41.6394,M,M,M,0.00,0.00,M,30.16,M,10.00,M,CLR,M,M,M,M,M,M,M,M,KIOW 010630Z AUTO 00000KT 10SM CLR A3016 RMK MADISHF
IOW,2017-04-01 06:35,-91.5445,41.6394,M,M,M,0.00,0.00,M,30.16,M,10.00,M,CLR,M,M,M,M,M,M,M,M,KIOW 010635Z AUTO 00000KT 10SM CLR A3016 RMK MADISHF
IOW,2017-04-01 06:40,-91.5445,41.6394,M,M,M,0.00,0.00,M,30.16,M,10.00,M,CLR,M,M,M,M,M,M,M,M,KIOW 010640Z AUTO 00000KT 10SM CLR A3016 RMK MADISHF
IOW,2017-04-01 06:45,-91.5445,41.6394,M,M,M,0.00,0.00,M,30.16,M,10.00,M,CLR,M,M,M,M,M,M,M,M,KIOW 010645Z AUTO 00000KT 10SM CLR A3016 RMK MADISHF
IOW,2017-04-01 06:50,-91.5445,41.6394,M,M,M,0.00,0.00,M,30.17,M,10.00,M,CLR,M,M,M,M,M,M,M,M,KIOW 010650Z AUTO 00000KT 10SM CLR A3017 RMK MADISHF
IOW,2017-04-01 06:52,-91.5445,41.6394,34.00,30.90,88.27,0.00,0.00,0.00,30.17,1022.00,10.00,M,CLR,M,M,M,M,M,M,M,M,KIOW 010652Z AUTO 00000KT 10SM CLR 01/M01 A3017 RMK AO2 SLP220 T00111006
IOW,2017-04-01 06:55,-91.5445,41.6394,M,M,M,0.00,0.00,M,30.17,M,10.00,M,CLR,M,M,M,M,M,M,M,M,KIOW 010655Z AUTO 00000KT 10SM CLR A3017 RMK MADISHF
IOW,2017-04-01 07:00,-91.5445,41.6394,M,M,M,280.00,3.00,M,30.17,M,10.00,M,CLR,M,M,M,M,M,M,M,M,KIOW 010700Z AUTO 28003KT 10SM CLR A3017 RMK MADISHF
IOW,2017-04-01 07:05,-91.5445,41.6394,M,M,M,0.00,0.00,M,30.17,M,10.00,M,CLR,M,M,M,M,M,M,M,M,KIOW 010705Z AUTO 00000KT 10SM CLR A3017 RMK MADISHF
IOW,2017-04-01 07:10,-91.5445,41.6394,M,M,M,0.00,0.00,M,30.17,M,10.00,M,CLR,M,M,M,M,M,M,M,M,KIOW 010710Z AUTO 00000KT 10SM CLR A3017 RMK MADISHF
IOW,2017-04-01 07:15,-91.5445,41.6394,M,M,M,0.00,0.00,M,30.17,M,10.00,M,CLR,M,M,M,M,M,M,M,M,KIOW 010715Z AUTO 00000KT 10SM CLR A3017 RMK MADISHF
IOW,2017-04-01 07:20,-91.5445,41.6394,M,M,M,0.00,0.00,M,30.17,M,10.00,M,CLR,M,M,M,M,M,M,M,M,KIOW 010720Z AUTO 00000KT 10SM CLR A3017 RMK MADISHF
IOW,2017-04-01 07:25,-91.5445,41.6394,M,M,M,0.00,0.00,M,30.17,M,10.00,M,CLR,M,M,M,M,M,M,M,M,KIOW 010725Z AUTO 00000KT 10SM CLR A3017 RMK MADISHF
IOW,2017-04-01 07:30,-91.5445,41.6394,M,M,M,0.00,0.00,M,30.17,M,10.00,M,CLR,M,M,M,M,M,M,M,M,KIOW 010730Z AUTO 00000KT 10SM CLR A3017 RMK MADISHF
IOW,2017-04-01 07:35,-91.5445,41.6394,M,M,M,0.00,0.00,M,30.17,M,10.00,M,CLR,M,M,M,M,M,M,M,M,KIOW 010735Z AUTO 00000KT 10SM CLR A3017 RMK MADISHF
IOW,2017-04-01 07:40,-91.5445,41.6394,M,M,M,0.00,0.00,M,30.17,M,10.00,M,CLR,M,M,M,M,M,M,M,M,KIOW 010740Z AUTO 00000KT 10SM CLR A3017 RMK MADISHF
IOW,2017-04-01 07:45,-91.5445,41.6394,M,M,M,0.00,0.00,M,30.17,M,10.00,M,CLR,M,M,M,M,M,M,M,M,KIOW 010745Z AUTO 00000KT 10SM CLR A3017 RMK MADISHF
IOW,2017-04-01 07:50,-91.5445,41.6394,M,M,M,0.00,0.00,M,30.17,M,10.00,M,CLR,M,M,M,M,M,M,M,M,KIOW 010750Z AUTO 00000KT 10SM CLR A3017 RMK MADISHF
IOW,2017-04-01 07:52,-91.5445,41.6394,36.00,33.10,89.09,0.00,0.00,0.00,30.18,1022.30,10.00,M,CLR,M,M,M,M,M,M,M,M,KIOW 010752Z AUTO 00000KT 10SM CLR 02/01 A3018 RMK AO2 SLP223 T00220006
IOW,2017-04-01 07:55,-91.5445,41.6394,M,M,M,0.00,0.00,M,30.18,M,10.00,M,CLR,M,M,M,M,M,M,M,M,KIOW 010755Z AUTO 00000KT 10SM CLR A3018 RMK MADISHF
IOW,2017-04-01 08:00,-91.5445,41.6394,M,M,M,0.00,0.00,M,30.18,M,10.00,M,CLR,M,M,M,M,M,M,M,M,KIOW 010800Z AUTO 00000KT 10SM CLR A3018 RMK MADISHF
IOW,2017-04-01 08:05,-91.5445,41.6394,M,M,M,0.00,0.00,M,30.18,M,10.00,M,CLR,M,M,M,M,M,M,M,M,KIOW 010805Z AUTO 00000KT 10SM CLR A3018 RMK MADISHF
IOW,2017-04-01 08:10,-91.5445,41.6394,M,M,M,270.00,3.00,M,30.18,M,10.00,M,CLR,M,M,M,M,M,M,M,M,KIOW 010810Z AUTO 27003KT 10SM CLR A3018 RMK MADISHF
IOW,2017-04-01 08:15,-91.5445,41.6394,M,M,M,280.00,3.00,M,30.19,M,10.00,M,CLR,M,M,M,M,M,M,M,M,KIOW 010815Z AUTO 28003KT 10SM CLR A3019 RMK MADISHF
IOW,2017-04-01 08:20,-91.5445,41.6394,M,M,M,0.00,0.00,M,30.19,M,10.00,M,CLR,M,M,M,M,M,M,M,M,KIOW 010820Z AUTO 00000KT 10SM CLR A3019 RMK MADISHF
IOW,2017-04-01 08:25,-91.5445,41.6394,M,M,M,0.00,0.00,M,30.18,M,10.00,M,CLR,M,M,M,M,M,M,M,M,KIOW 010825Z AUTO 00000KT 10SM CLR A3018 RMK MADISHF
IOW,2017-04-01 08:30,-91.5445,41.6394,M,M,M,0.00,0.00,M,30.18,M,10.00,M,CLR,M,M,M,M,M,M,M,M,KIOW 010830Z AUTO 00000KT 10SM CLR A3018 RMK MADISHF
IOW,2017-04-01 08:35,-91.5445,41.6394,M,M,M,0.00,0.00,M,30.18,M,10.00,M,CLR,M,M,M,M,M,M,M,M,KIOW 010835Z AUTO 00000KT 10SM CLR A3018 RMK MADISHF
IOW,2017-04-01 08:40,-91.5445,41.6394,M,M,M,0.00,0.00,M,30.18,M,10.00,M,CLR,M,M,M,M,M,M,M,M,KIOW 010840Z AUTO 00000KT 10SM CLR A3018 RMK MADISHF
IOW,2017-04-01 08:45,-91.5445,41.6394,M,M,M,0.00,0.00,M,30.19,M,10.00,M,CLR,M,M,M,M,M,M,M,M,KIOW 010845Z AUTO 00000KT 10SM CLR A3019 RMK MADISHF
IOW,2017-04-01 08:50,-91.5445,41.6394,M,M,M,0.00,0.00,M,30.19,M,10.00,M,CLR,M,M,M,M,M,M,M,M,KIOW 010850Z AUTO 00000KT 10SM CLR A3019 RMK MADISHF
IOW,2017-04-01 08:52,-91.5445,41.6394,35.10,33.10,92.32,0.00,0.00,0.00,30.19,1022.70,10.00,M,CLR,M,M,M,M,M,M,M,M,KIOW 010852Z AUTO 00000KT 10SM CLR 02/01 A3019 RMK AO2 SLP227 T00170006 51013
IOW,2017-04-01 08:55,-91.5445,41.6394,M,M,M,0.00,0.00,M,30.18,M,10.00,M,CLR,M,M,M,M,M,M,M,M,KIOW 010855Z AUTO 00000KT 10SM CLR A3018 RMK MADISHF
IOW,2017-04-01 09:00,-91.5445,41.6394,M,M,M,0.00,0.00,M,30.19,M,10.00,M,CLR,M,M,M,M,M,M,M,M,KIOW 010900Z AUTO 00000KT 10SM CLR A3019 RMK MADISHF
IOW,2017-04-01 09:05,-91.5445,41.6394,M,M,M,0.00,0.00,M,30.19,M,10.00,M,CLR,M,M,M,M,M,M,M,M,KIOW 010905Z AUTO 00000KT 10SM CLR A3019 RMK MADISHF
IOW,2017-04-01 09:10,-91.5445,41.6394,M,M,M,0.00,0.00,M,30.19,M,10.00,M,CLR,M,M,M,M,M,M,M,M,KIOW 010910Z AUTO 00000KT 10SM CLR A3019 RMK MADISHF
IOW,2017-04-01 09:15,-91.5445,41.6394,M,M,M,0.00,0.00,M,30.19,M,10.00,M,CLR,M,M,M,M,M,M,M,M,KIOW 010915Z AUTO 00000KT 10SM CLR A3019 RMK MADISHF
IOW,2017-04-01 09:20,-91.5445,41.6394,M,M,M,0.00,0.00,M,30.19,M,10.00,M,CLR,M,M,M,M,M,M,M,M,KIOW 010920Z AUTO 00000KT 10SM CLR A3019 RMK MADISHF
IOW,2017-04-01 09:25,-91.5445,41.6394,M,M,M,0.00,0.00,M,30.19,M,10.00,M,CLR,M,M,M,M,M,M,M,M,KIOW 010925Z AUTO 00000KT 10SM CLR A3019 RMK MADISHF
IOW,2017-04-01 09:30,-91.5445,41.6394,M,M,M,0.00,0.00,M,30.18,M,10.00,M,CLR,M,M,M,M,M,M,M,M,KIOW 010930Z AUTO 00000KT 10SM CLR A3018 RMK MADISHF
IOW,2017-04-01 09:35,-91.5445,41.6394,M,M,M,0.00,0.00,M,30.18,M,10.00,M,CLR,M,M,M,M,M,M,M,M,KIOW 010935Z AUTO 00000KT 10SM CLR A3018 RMK MADISHF
IOW,2017-04-01 09:40,-91.5445,41.6394,M,M,M,0.00,0.00,M,30.18,M,10.00,M,CLR,M,M,M,M,M,M,M,M,KIOW 010940Z AUTO 00000KT 10SM CLR A3018 RMK MADISHF
IOW,2017-04-01 09:45,-91.5445,41.6394,M,M,M,0.00,0.00,M,30.19,M,10.00,M,CLR,M,M,M,M,M,M,M,M,KIOW 010945Z AUTO 00000KT 10SM CLR A3019 RMK MADISHF
IOW,2017-04-01 09:50,-91.5445,41.6394,M,M,M,0.00,0.00,M,30.19,M,10.00,M,CLR,M,M,M,M,M,M,M,M,KIOW 010950Z AUTO 00000KT 10SM CLR A3019 RMK MADISHF
IOW,2017-04-01 09:52,-91.5445,41.6394,34.00,32.00,92.29,0.00,0.00,0.00,30.19,1022.70,10.00,M,CLR,M,M,M,M,M,M,M,M,KIOW 010952Z AUTO 00000KT 10SM CLR 01/00 A3019 RMK AO2 SLP227 T00110000
IOW,2017-04-01 09:55,-91.5445,41.6394,M,M,M,0.00,0.00,M,30.19,M,10.00,M,CLR,M,M,M,M,M,M,M,M,KIOW 010955Z AUTO 00000KT 10SM CLR A3019 RMK MADISHF
IOW,2017-04-01 10:00,-91.5445,41.6394,M,M,M,0.00,0.00,M,30.18,M,10.00,M,CLR,M,M,M,M,M,M,M,M,KIOW 011000Z AUTO 00000KT 10SM CLR A3018 RMK MADISHF
IOW,2017-04-01 10:05,-91.5445,41.6394,M,M,M,0.00,0.00,M,30.19,M,10.00,M,CLR,M,M,M,M,M,M,M,M,KIOW 011005Z AUTO 00000KT 10SM CLR A3019 RMK MADISHF
IOW,2017-04-01 10:10,-91.5445,41.6394,M,M,M,0.00,0.00,M,30.19,M,10.00,M,CLR,M,M,M,M,M,M,M,M,KIOW 011010Z AUTO 00000KT 10SM CLR A3019 RMK MADISHF
IOW,2017-04-01 10:15,-91.5445,41.6394,M,M,M,0.00,0.00,M,30.19,M,10.00,M,CLR,M,M,M,M,M,M,M,M,KIOW 011015Z AUTO 00000KT 10SM CLR A3019 RMK MADISHF
IOW,2017-04-01 10:20,-91.5445,41.6394,M,M,M,260.00,3.00,M,30.19,M,10.00,M,CLR,M,M,M,M,M,M,M,M,KIOW 011020Z AUTO 26003KT 10SM CLR A3019 RMK MADISHF
IOW,2017-04-01 10:25,-91.5445,41.6394,M,M,M,280.00,3.00,M,30.19,M,10.00,M,CLR,M,M,M,M,M,M,M,M,KIOW 011025Z AUTO 28003KT 10SM CLR A3019 RMK MADISHF
IOW,2017-04-01 10:30,-91.5445,41.6394,M,M,M,280.00,4.00,M,30.20,M,10.00,M,CLR,M,M,M,M,M,M,M,M,KIOW 011030Z AUTO 28004KT 10SM CLR A3020 RMK MADISHF
IOW,2017-04-01 10:35,-91.5445,41.6394,M,M,M,290.00,3.00,M,30.20,M,10.00,M,CLR,M,M,M,M,M,M,M,M,KIOW 011035Z AUTO 29003KT 10SM CLR A3020 RMK MADISHF
IOW,2017-04-01 10:40,-91.5445,41.6394,M,M,M,290.00,3.00,M,30.20,M,10.00,M,CLR,M,M,M,M,M,M,M,M,KIOW 011040Z AUTO 29003KT 10SM CLR A3020 RMK MADISHF
IOW,2017-04-01 10:45,-91.5445,41.6394,M,M,M,0.00,0.00,M,30.20,M,10.00,M,CLR,M,M,M,M,M,M,M,M,KIOW 011045Z AUTO 00000KT 10SM CLR A3020 RMK MADISHF
IOW,2017-04-01 10:50,-91.5445,41.6394,M,M,M,0.00,0.00,M,30.20,M,10.00,M,CLR,M,M,M,M,M,M,M,M,KIOW 011050Z AUTO 00000KT 10SM CLR A3020 RMK MADISHF
IOW,2017-04-01 10:52,-91.5445,41.6394,30.90,28.90,92.18,0.00,0.00,0.00,30.20,1023.30,10.00,M,CLR,M,M,M,M,M,M,M,M,KIOW 011052Z AUTO 00000KT 10SM CLR M01/M02 A3020 RMK AO2 SLP233 T10061017
IOW,2017-04-01 10:55,-91.5445,41.6394,M,M,M,0.00,0.00,M,30.20,M,10.00,M,CLR,M,M,M,M,M,M,M,M,KIOW 011055Z AUTO 00000KT 10SM CLR A3020 RMK MADISHF
IOW,2017-04-01 11:00,-91.5445,41.6394,M,M,M,0.00,0.00,M,30.20,M,10.00,M,CLR,M,M,M,M,M,M,M,M,KIOW 011100Z AUTO 00000KT 10SM CLR A3020 RMK MADISHF
IOW,2017-04-01 11:05,-91.5445,41.6394,M,M,M,260.00,3.00,M,30.21,M,10.00,M,CLR,M,M,M,M,M,M,M,M,KIOW 011105Z AUTO 26003KT 10SM CLR A3021 RMK MADISHF
IOW,2017-04-01 11:10,-91.5445,41.6394,M,M,M,260.00,3.00,M,30.21,M,10.00,M,CLR,M,M,M,M,M,M,M,M,KIOW 011110Z AUTO 26003KT 10SM CLR A3021 RMK MADISHF
IOW,2017-04-01 11:15,-91.5445,41.6394,M,M,M,0.00,0.00,M,30.21,M,10.00,M,CLR,M,M,M,M,M,M,M,M,KIOW 011115Z AUTO 00000KT 10SM CLR A3021 RMK MADISHF
IOW,2017-04-01 11:20,-91.5445,41.6394,M,M,M,0.00,0.00,M,30.21,M,10.00,M,CLR,M,M,M,M,M,M,M,M,KIOW 011120Z AUTO 00000KT 10SM CLR A3021 RMK MADISHF
IOW,2017-04-01 11:25,-91.5445,41.6394,M,M,M,0.00,0.00,M,30.21,M,10.00,M,CLR,M,M,M,M,M,M,M,M,KIOW 011125Z AUTO 00000KT 10SM CLR A3021 RMK MADISHF
IOW,2017-04-01 11:30,-91.5445,41.6394,M,M,M,0.00,0.00,M,30.21,M,9.00,M,CLR,M,M,M,M,M,M,M,M,KIOW 011130Z AUTO 00000KT 9SM CLR A3021 RMK MADISHF
IOW,2017-04-01 11:35,-91.5445,41.6394,M,M,M,0.00,0.00,M,30.21,M,9.00,M,CLR,M,M,M,M,M,M,M,M,KIOW 011135Z AUTO 00000KT 9SM CLR A3021 RMK MADISHF
IOW,2017-04-01 11:40,-91.5445,41.6394,M,M,M,0.00,0.00,M,30.22,M,9.00,M,CLR,M,M,M,M,M,M,M,M,KIOW 011140Z AUTO 00000KT 9SM CLR A3022 RMK MADISHF
IOW,2017-04-01 11:45,-91.5445,41.6394,M,M,M,250.00,3.00,M,30.22,M,10.00,M,CLR,M,M,M,M,M,M,M,M,KIOW 011145Z AUTO 25003KT 10SM CLR A3022 RMK MADISHF
IOW,2017-04-01 11:50,-91.5445,41.6394,M,M,M,270.00,4.00,M,30.23,M,10.00,M,CLR,M,M,M,M,M,M,M,M,KIOW 011150Z AUTO 27004KT 10SM CLR A3023 RMK MADISHF
IOW,2017-04-01 11:52,-91.5445,41.6394,33.10,30.00,88.23,270.00,4.00,0.00,30.23,1024.30,10.00,M,CLR,M,M,M,M,M,M,M,M,KIOW 011152Z AUTO 27004KT 10SM CLR 01/M01 A3023 RMK AO2 PRESRR SLP243 T00061011 10033 21006 53016
IOW,2017-04-01 11:55,-91.5445,41.6394,M,M,M,280.00,4.00,M,30.24,M,10.00,M,CLR,M,M,M,M,M,M,M,M,KIOW 011155Z AUTO 28004KT 10SM CLR A3024 RMK MADISHF
IOW,2017-04-01 12:00,-91.5445,41.6394,M,M,M,290.00,3.00,M,30.24,M,10.00,M,CLR,M,M,M,M,M,M,M,M,KIOW 011200Z AUTO 29003KT 10SM CLR A3024 RMK MADISHF
IOW,2017-04-01 12:05,-91.5445,41.6394,M,M,M,0.00,0.00,M,30.24,M,10.00,M,CLR,M,M,M,M,M,M,M,M,KIOW 011205Z AUTO 00000KT 10SM CLR A3024 RMK MADISHF
IOW,2017-04-01 12:10,-91.5445,41.6394,M,M,M,0.00,0.00,M,30.24,M,10.00,M,CLR,M,M,M,M,M,M,M,M,KIOW 011210Z AUTO 00000KT 10SM CLR A3024 RMK MADISHF
IOW,2017-04-01 12:15,-91.5445,41.6394,M,M,M,0.00,0.00,M,30.24,M,10.00,M,CLR,M,M,M,M,M,M,M,M,KIOW 011215Z AUTO 00000KT 10SM CLR A3024 RMK MADISHF
IOW,2017-04-01 12:20,-91.5445,41.6394,M,M,M,0.00,0.00,M,30.24,M,10.00,M,CLR,M,M,M,M,M,M,M,M,KIOW 011220Z AUTO 00000KT 10SM CLR A3024 RMK MADISHF
IOW,2017-04-01 12:25,-91.5445,41.6394,M,M,M,0.00,0.00,M,30.25,M,10.00,M,CLR,M,M,M,M,M,M,M,M,KIOW 011225Z AUTO 00000KT 10SM CLR A3025 RMK MADISHF
IOW,2017-04-01 12:30,-91.5445,41.6394,M,M,M,270.00,4.00,M,30.26,M,10.00,M,CLR,M,M,M,M,M,M,M,M,KIOW 011230Z AUTO 27004KT 10SM CLR A3026 RMK MADISHF
IOW,2017-04-01 12:35,-91.5445,41.6394,M,M,M,270.00,3.00,M,30.26,M,10.00,M,CLR,M,M,M,M,M,M,M,M,KIOW 011235Z AUTO 27003KT 10SM CLR A3026 RMK MADISHF
IOW,2017-04-01 12:40,-91.5445,41.6394,M,M,M,0.00,0.00,M,30.26,M,10.00,M,CLR,M,M,M,M,M,M,M,M,KIOW 011240Z AUTO 00000KT 10SM CLR A3026 RMK MADISHF
IOW,2017-04-01 12:45,-91.5445,41.6394,M,M,M,0.00,0.00,M,30.26,M,10.00,M,CLR,M,M,M,M,M,M,M,M,KIOW 011245Z AUTO 00000KT 10SM CLR A3026 RMK MADISHF
IOW,2017-04-01 12:50,-91.5445,41.6394,M,M,M,0.00,0.00,M,30.26,M,10.00,M,CLR,M,M,M,M,M,M,M,M,KIOW 011250Z AUTO 00000KT 10SM CLR A3026 RMK MADISHF
IOW,2017-04-01 12:52,-91.5445,41.6394,37.90,35.10,89.53,0.00,0.00,0.00,30.26,1025.20,10.00,M,CLR,M,M,M,M,M,M,M,M,KIOW 011252Z AUTO 00000KT 10SM CLR 03/02 A3026 RMK AO2 SLP252 T00330017
IOW,2017-04-01 12:55,-91.5445,41.6394,M,M,M,0.00,0.00,M,30.27,M,10.00,M,CLR,M,M,M,M,M,M,M,M,KIOW 011255Z AUTO 00000KT 10SM CLR A3027 RMK MADISHF
IOW,2017-04-01 13:00,-91.5445,41.6394,M,M,M,0.00,0.00,M,30.27,M,10.00,M,CLR,M,M,M,M,M,M,M,M,KIOW 011300Z AUTO 00000KT 10SM CLR A3027 RMK MADISHF
IOW,2017-04-01 13:05,-91.5445,41.6394,M,M,M,0.00,0.00,M,30.27,M,10.00,M,CLR,M,M,M,M,M,M,M,M,KIOW 011305Z AUTO 00000KT 10SM CLR A3027 RMK MADISHF
IOW,2017-04-01 13:10,-91.5445,41.6394,M,M,M,330.00,3.00,M,30.27,M,10.00,M,CLR,M,M,M,M,M,M,M,M,KIOW 011310Z AUTO 33003KT 10SM CLR A3027 RMK MADISHF
IOW,2017-04-01 13:15,-91.5445,41.6394,M,M,M,340.00,3.00,M,30.27,M,10.00,M,CLR,M,M,M,M,M,M,M,M,KIOW 011315Z AUTO 34003KT 10SM CLR A3027 RMK VRB03KT  MADISHF
IOW,2017-04-01 13:20,-91.5445,41.6394,M,M,M,340.00,3.00,M,30.27,M,10.00,M,CLR,M,M,M,M,M,M,M,M,KIOW 011320Z AUTO 34003KT 10SM CLR A3027 RMK MADISHF
IOW,2017-04-01 13:25,-91.5445,41.6394,M,M,M,0.00,0.00,M,30.27,M,10.00,M,CLR,M,M,M,M,M,M,M,M,KIOW 011325Z AUTO 00000KT 10SM CLR A3027 RMK MADISHF
IOW,2017-04-01 13:30,-91.5445,41.6394,M,M,M,0.00,0.00,M,30.27,M,10.00,M,CLR,M,M,M,M,M,M,M,M,KIOW 011330Z AUTO 00000KT 10SM CLR A3027 RMK MADISHF
IOW,2017-04-01 13:35,-91.5445,41.6394,M,M,M,0.00,0.00,M,30.27,M,10.00,M,CLR,M,M,M,M,M,M,M,M,KIOW 011335Z AUTO 00000KT 10SM CLR A3027 RMK MADISHF
IOW,2017-04-01 13:40,-91.5445,41.6394,M,M,M,0.00,0.00,M,30.27,M,10.00,M,CLR,M,M,M,M,M,M,M,M,KIOW 011340Z AUTO 00000KT 10SM CLR A3027 RMK MADISHF
IOW,2017-04-01 13:45,-91.5445,41.6394,M,M,M,0.00,0.00,M,30.26,M,10.00,M,CLR,M,M,M,M,M,M,M,M,KIOW 011345Z AUTO 00000KT 10SM CLR A3026 RMK MADISHF
IOW,2017-04-01 13:50,-91.5445,41.6394,M,M,M,10.00,3.00,M,30.26,M,10.00,M,CLR,M,M,M,M,M,M,M,M,KIOW 011350Z AUTO 01003KT 10SM CLR A3026 RMK MADISHF
IOW,2017-04-01 13:52,-91.5445,41.6394,45.00,37.00,73.37,10.00,4.00,0.00,30.25,1024.90,10.00,M,CLR,M,M,M,M,M,M,M,M,KIOW 011352Z AUTO 01004KT 10SM CLR 07/03 A3025 RMK AO2 SLP249 T00720028
IOW,2017-04-01 13:55,-91.5445,41.6394,M,M,M,10.00,4.00,M,30.25,M,10.00,M,CLR,M,M,M,M,M,M,M,M,KIOW 011355Z AUTO 01004KT 10SM CLR A3025 RMK MADISHF
IOW,2017-04-01 14:00,-91.5445,41.6394,M,M,M,350.00,5.00,M,30.25,M,10.00,M,CLR,M,M,M,M,M,M,M,M,KIOW 011400Z AUTO 35005KT 10SM CLR A3025 RMK MADISHF
IOW,2017-04-01 14:05,-91.5445,41.6394,M,M,M,350.00,4.00,M,30.25,M,10.00,M,CLR,M,M,M,M,M,M,M,M,KIOW 011405Z AUTO 35004KT 10SM CLR A3025 RMK MADISHF
IOW,2017-04-01 14:10,-91.5445,41.6394,M,M,M,350.00,4.00,M,30.25,M,10.00,M,CLR,M,M,M,M,M,M,M,M,KIOW 011410Z AUTO 35004KT 10SM CLR A3025 RMK MADISHF
IOW,2017-04-01 14:15,-91.5445,41.6394,M,M,M,350.00,4.00,M,30.24,M,10.00,M,CLR,M,M,M,M,M,M,M,M,KIOW 011415Z AUTO 35004KT 10SM CLR A3024 RMK MADISHF
IOW,2017-04-01 14:20,-91.5445,41.6394,M,M,M,350.00,4.00,M,30.24,M,10.00,M,CLR,M,M,M,M,M,M,M,M,KIOW 011420Z AUTO 35004KT 10SM CLR A3024 RMK MADISHF
IOW,2017-04-01 14:25,-91.5445,41.6394,M,M,M,350.00,4.00,M,30.25,M,10.00,M,CLR,M,M,M,M,M,M,M,M,KIOW 011425Z AUTO 35004KT 10SM CLR A3025 RMK MADISHF
IOW,2017-04-01 14:30,-91.5445,41.6394,M,M,M,350.00,3.00,M,30.25,M,10.00,M,CLR,M,M,M,M,M,M,M,M,KIOW 011430Z AUTO 35003KT 10SM CLR A3025 RMK MADISHF
IOW,2017-04-01 14:35,-91.5445,41.6394,M,M,M,0.00,0.00,M,30.25,M,10.00,M,CLR,M,M,M,M,M,M,M,M,KIOW 011435Z AUTO 00000KT 10SM CLR A3025 RMK MADISHF
IOW,2017-04-01 14:40,-91.5445,41.6394,M,M,M,290.00,4.00,M,30.25,M,10.00,M,CLR,M,M,M,M,M,M,M,M,KIOW 011440Z AUTO 29004KT 10SM CLR A3025 RMK MADISHF
IOW,2017-04-01 14:45,-91.5445,41.6394,M,M,M,320.00,4.00,M,30.25,M,10.00,M,CLR,M,M,M,M,M,M,M,M,KIOW 011445Z AUTO 32004KT 10SM CLR A3025 RMK MADISHF
IOW,2017-04-01 14:50,-91.5445,41.6394,M,M,M,300.00,6.00,M,30.26,M,10.00,M,CLR,M,M,M,M,M,M,M,M,KIOW 011450Z AUTO 30006KT 10SM CLR A3026 RMK MADISHF
IOW,2017-04-01 14:52,-91.5445,41.6394,50.00,37.00,60.79,300.00,5.00,0.00,30.26,1025.00,10.00,M,CLR,M,M,M,M,M,M,M,M,KIOW 011452Z AUTO 30005KT 10SM CLR 10/03 A3026 RMK AO2 SLP250 T01000028 51007
IOW,2017-04-01 14:55,-91.5445,41.6394,M,M,M,290.00,6.00,M,30.26,M,10.00,M,CLR,M,M,M,M,M,M,M,M,KIOW 011455Z AUTO 29006KT 10SM CLR A3026 RMK MADISHF
IOW,2017-04-01 15:00,-91.5445,41.6394,M,M,M,300.00,5.00,M,30.26,M,10.00,M,CLR,M,M,M,M,M,M,M,M,KIOW 011500Z AUTO 30005KT 10SM CLR A3026 RMK MADISHF
IOW,2017-04-01 15:05,-91.5445,41.6394,M,M,M,320.00,4.00,M,30.26,M,10.00,M,CLR,M,M,M,M,M,M,M,M,KIOW 011505Z AUTO 32004KT 10SM CLR A3026 RMK MADISHF
IOW,2017-04-01 15:10,-91.5445,41.6394,M,M,M,310.00,5.00,M,30.26,M,10.00,M,CLR,M,M,M,M,M,M,M,M,KIOW 011510Z AUTO 31005KT 10SM CLR A3026 RMK MADISHF
IOW,2017-04-01 15:15,-91.5445,41.6394,M,M,M,310.00,5.00,M,30.26,M,10.00,M,CLR,M,M,M,M,M,M,M,M,KIOW 011515Z AUTO 31005KT 10SM CLR A3026 RMK VRB05KT  MADISHF
IOW,2017-04-01 15:20,-91.5445,41.6394,M,M,M,280.00,5.00,M,30.26,M,10.00,M,CLR,M,M,M,M,M,M,M,M,KIOW 011520Z AUTO 28005KT 10SM CLR A3026 RMK MADISHF
IOW,2017-04-01 15:25,-91.5445,41.6394,M,M,M,290.00,4.00,M,30.26,M,10.00,M,CLR,M,M,M,M,M,M,M,M,KIOW 011525Z AUTO 29004KT 10SM CLR A3026 RMK MADISHF
IOW,2017-04-01 15:30,-91.5445,41.6394,M,M,M,320.00,4.00,M,30.26,M,10.00,M,CLR,M,M,M,M,M,M,M,M,KIOW 011530Z AUTO 32004KT 10SM CLR A3026 RMK MADISHF
IOW,2017-04-01 15:35,-91.5445,41.6394,M,M,M,310.00,3.00,M,30.26,M,10.00,M,CLR,M,M,M,M,M,M,M,M,KIOW 011535Z AUTO 31003KT 10SM CLR A3026 RMK MADISHF
IOW,2017-04-01 15:40,-91.5445,41.6394,M,M,M,300.00,4.00,M,30.26,M,10.00,M,CLR,M,M,M,M,M,M,M,M,KIOW 011540Z AUTO 30004KT 10SM CLR A3026 RMK MADISHF
IOW,2017-04-01 15:45,-91.5445,41.6394,M,M,M,280.00,6.00,M,30.26,M,10.00,M,CLR,M,M,M,M,M,M,M,M,KIOW 011545Z AUTO 28006KT 10SM CLR A3026 RMK MADISHF
IOW,2017-04-01 15:50,-91.5445,41.6394,M,M,M,260.00,3.00,M,30.26,M,10.00,M,CLR,M,M,M,M,M,M,M,M,KIOW 011550Z AUTO 26003KT 10SM CLR A3026 RMK MADISHF
IOW,2017-04-01 15:52,-91.5445,41.6394,52.00,36.00,54.26,M,3.00,0.00,30.26,1025.20,10.00,M,CLR,M,M,M,M,M,M,M,M,KIOW 011552Z AUTO VRB03KT 10SM CLR 11/02 A3026 RMK AO2 SLP252 T01110022
IOW,2017-04-01 15:55,-91.5445,41.6394,M,M,M,280.00,5.00,M,30.26,M,10.00,M,CLR,M,M,M,M,M,M,M,M,KIOW 011555Z AUTO 28005KT 10SM CLR A3026 RMK MADISHF
IOW,2017-04-01 16:00,-91.5445,41.6394,M,M,M,310.00,3.00,M,30.26,M,10.00,M,CLR,M,M,M,M,M,M,M,M,KIOW 011600Z AUTO 31003KT 10SM CLR A3026 RMK MADISHF
IOW,2017-04-01 16:05,-91.5445,41.6394,M,M,M,320.00,5.00,M,30.26,M,10.00,M,CLR,M,M,M,M,M,M,M,M,KIOW 011605Z AUTO 32005KT 10SM CLR A3026 RMK MADISHF
IOW,2017-04-01 16:10,-91.5445,41.6394,M,M,M,310.00,4.00,M,30.26,M,10.00,M,CLR,M,M,M,M,M,M,M,M,KIOW 011610Z AUTO 31004KT 10SM CLR A3026 RMK MADISHF
IOW,2017-04-01 16:15,-91.5445,41.6394,M,M,M,340.00,5.00,M,30.26,M,10.00,M,CLR,M,M,M,M,M,M,M,M,KIOW 011615Z AUTO 34005KT 10SM CLR A3026 RMK MADISHF
IOW,2017-04-01 16:20,-91.5445,41.6394,M,M,M,290.00,4.00,M,30.26,M,10.00,M,CLR,M,M,M,M,M,M,M,M,KIOW 011620Z AUTO 29004KT 10SM CLR A3026 RMK MADISHF
IOW,2017-04-01 16:25,-91.5445,41.6394,M,M,M,360.00,4.00,M,30.26,M,10.00,M,CLR,M,M,M,M,M,M,M,M,KIOW 011625Z AUTO 36004KT 10SM CLR A3026 RMK MADISHF
IOW,2017-04-01 16:30,-91.5445,41.6394,M,M,M,310.00,4.00,M,30.26,M,10.00,M,CLR,M,M,M,M,M,M,M,M,KIOW 011630Z AUTO 31004KT 10SM CLR A3026 RMK VRB04KT  MADISHF
IOW,2017-04-01 16:35,-91.5445,41.6394,M,M,M,290.00,5.00,M,30.26,M,10.00,M,CLR,M,M,M,M,M,M,M,M,KIOW 011635Z AUTO 29005KT 10SM CLR A3026 RMK VRB05KT  MADISHF
IOW,2017-04-01 16:40,-91.5445,41.6394,M,M,M,280.00,6.00,M,30.26,M,10.00,M,CLR,M,M,M,M,M,M,M,M,KIOW 011640Z AUTO 28006KT 10SM CLR A3026 RMK VRB06KT  MADISHF
IOW,2017-04-01 16:45,-91.5445,41.6394,M,M,M,320.00,5.00,M,30.26,M,10.00,M,CLR,M,M,M,M,M,M,M,M,KIOW 011645Z AUTO 32005KT 10SM CLR A3026 RMK MADISHF
IOW,2017-04-01 16:50,-91.5445,41.6394,M,M,M,320.00,6.00,M,30.26,M,10.00,M,CLR,M,M,M,M,M,M,M,M,KIOW 011650Z AUTO 32006KT 10SM CLR A3026 RMK MADISHF
IOW,2017-04-01 16:52,-91.5445,41.6394,55.00,36.00,48.62,310.00,6.00,0.00,30.26,1025.10,10.00,M,CLR,M,M,M,M,M,M,M,M,KIOW 011652Z AUTO 31006KT 10SM CLR 13/02 A3026 RMK AO2 SLP251 T01280022
IOW,2017-04-01 16:55,-91.5445,41.6394,M,M,M,300.00,4.00,M,30.26,M,10.00,M,CLR,M,M,M,M,M,M,M,M,KIOW 011655Z AUTO 30004KT 10SM CLR A3026 RMK MADISHF
IOW,2017-04-01 17:00,-91.5445,41.6394,M,M,M,0.00,0.00,M,30.26,M,10.00,M,CLR,M,M,M,M,M,M,M,M,KIOW 011700Z AUTO 00000KT 10SM CLR A3026 RMK MADISHF
IOW,2017-04-01 17:05,-91.5445,41.6394,M,M,M,340.00,5.00,M,30.26,M,10.00,M,CLR,M,M,M,M,M,M,M,M,KIOW 011705Z AUTO 34005KT 10SM CLR A3026 RMK MADISHF
IOW,2017-04-01 17:10,-91.5445,41.6394,M,M,M,310.00,4.00,M,30.25,M,10.00,M,CLR,M,M,M,M,M,M,M,M,KIOW 011710Z AUTO 31004KT 10SM CLR A3025 RMK MADISHF
IOW,2017-04-01 17:15,-91.5445,41.6394,M,M,M,310.00,4.00,M,30.25,M,10.00,M,CLR,M,M,M,M,M,M,M,M,KIOW 011715Z AUTO 31004KT 10SM CLR A3025 RMK MADISHF
IOW,2017-04-01 17:20,-91.5445,41.6394,M,M,M,300.00,4.00,M,30.25,M,10.00,M,CLR,M,M,M,M,M,M,M,M,KIOW 011720Z AUTO 30004KT 10SM CLR A3025 RMK MADISHF
IOW,2017-04-01 17:25,-91.5445,41.6394,M,M,M,0.00,0.00,M,30.25,M,10.00,M,CLR,M,M,M,M,M,M,M,M,KIOW 011725Z AUTO 00000KT 10SM CLR A3025 RMK MADISHF
IOW,2017-04-01 17:30,-91.5445,41.6394,M,M,M,260.00,3.00,M,30.25,M,10.00,M,CLR,M,M,M,M,M,M,M,M,KIOW 011730Z AUTO 26003KT 10SM CLR A3025 RMK MADISHF
IOW,2017-04-01 17:35,-91.5445,41.6394,M,M,M,260.00,5.00,M,30.25,M,10.00,M,CLR,M,M,M,M,M,M,M,M,KIOW 011735Z AUTO 26005KT 10SM CLR A3025 RMK MADISHF
IOW,2017-04-01 17:40,-91.5445,41.6394,M,M,M,220.00,3.00,M,30.25,M,10.00,M,CLR,M,M,M,M,M,M,M,M,KIOW 011740Z AUTO 22003KT 10SM CLR A3025 RMK MADISHF
IOW,2017-04-01 17:45,-91.5445,41.6394,M,M,M,M,M,M,30.25,M,10.00,M,CLR,M,M,M,M,M,M,M,M,KIOW 011745Z AUTO /////KT 10SM CLR A3025 RMK MADISHF
IOW,2017-04-01 17:50,-91.5445,41.6394,M,M,M,270.00,5.00,M,30.25,M,10.00,M,CLR,M,M,M,M,M,M,M,M,KIOW 011750Z AUTO 27005KT 10SM CLR A3025 RMK MADISHF
IOW,2017-04-01 17:52,-91.5445,41.6394,55.90,36.00,47.05,270.00,4.00,0.00,30.25,1024.50,10.00,M,CLR,M,M,M,M,M,M,M,M,KIOW 011752Z AUTO 27004KT 10SM CLR 13/02 A3025 RMK AO2 SLP245 T01330022 10133 20000 58004
IOW,2017-04-01 17:55,-91.5445,41.6394,M,M,M,M,M,M,30.24,M,10.00,M,CLR,M,M,M,M,M,M,M,M,KIOW 011755Z AUTO /////KT 10SM CLR A3024 RMK MADISHF
IOW,2017-04-01 18:00,-91.5445,41.6394,M,M,M,240.00,4.00,M,30.24,M,10.00,M,CLR,M,M,M,M,M,M,M,M,KIOW 011800Z AUTO 24004KT 10SM CLR A3024 RMK VRB04KT  MADISHF
IOW,2017-04-01 18:05,-91.5445,41.6394,M,M,M,200.00,3.00,M,30.24,M,10.00,M,CLR,M,M,M,M,M,M,M,M,KIOW 011805Z AUTO 20003KT 10SM CLR A3024 RMK VRB03KT  MADISHF
IOW,2017-04-01 18:10,-91.5445,41.6394,M,M,M,260.00,5.00,M,30.24,M,10.00,M,CLR,M,M,M,M,M,M,M,M,KIOW 011810Z AUTO 26005KT 10SM CLR A3024 RMK MADISHF
IOW,2017-04-01 18:15,-91.5445,41.6394,M,M,M,280.00,3.00,M,30.24,M,10.00,M,CLR,M,M,M,M,M,M,M,M,KIOW 011815Z AUTO 28003KT 10SM CLR A3024 RMK MADISHF
IOW,2017-04-01 18:20,-91.5445,41.6394,M,M,M,300.00,4.00,M,30.23,M,10.00,M,CLR,M,M,M,M,M,M,M,M,KIOW 011820Z AUTO 30004KT 10SM CLR A3023 RMK VRB04KT  MADISHF
IOW,2017-04-01 18:25,-91.5445,41.6394,M,M,M,270.00,4.00,M,30.24,M,10.00,M,CLR,M,M,M,M,M,M,M,M,KIOW 011825Z AUTO 27004KT 10SM CLR A3024 RMK VRB04KT  MADISHF
IOW,2017-04-01 18:30,-91.5445,41.6394,M,M,M,250.00,5.00,M,30.23,M,10.00,M,CLR,M,M,M,M,M,M,M,M,KIOW 011830Z AUTO 25005KT 10SM CLR A3023 RMK MADISHF
IOW,2017-04-01 18:35,-91.5445,41.6394,M,M,M,0.00,0.00,M,30.24,M,10.00,M,CLR,M,M,M,M,M,M,M,M,KIOW 011835Z AUTO 00000KT 10SM CLR A3024 RMK MADISHF
IOW,2017-04-01 18:40,-91.5445,41.6394,M,M,M,0.00,0.00,M,30.24,M,10.00,M,CLR,M,M,M,M,M,M,M,M,KIOW 011840Z AUTO 00000KT 10SM CLR A3024 RMK MADISHF
IOW,2017-04-01 18:45,-91.5445,41.6394,M,M,M,0.00,0.00,M,30.23,M,10.00,M,CLR,M,M,M,M,M,M,M,M,KIOW 011845Z AUTO 00000KT 10SM CLR A3023 RMK MADISHF
IOW,2017-04-01 18:50,-91.5445,41.6394,M,M,M,210.00,6.00,M,30.23,M,10.00,M,CLR,M,M,M,M,M,M,M,M,KIOW 011850Z AUTO 21006KT 10SM CLR A3023 RMK MADISHF
IOW,2017-04-01 18:52,-91.5445,41.6394,57.00,37.00,47.04,M,6.00,0.00,30.23,1024.00,10.00,M,CLR,M,M,M,M,M,M,M,M,KIOW 011852Z AUTO VRB06KT 10SM CLR 14/03 A3023 RMK AO2 SLP240 T01390028
IOW,2017-04-01 18:55,-91.5445,41.6394,M,M,M,240.00,4.00,M,30.23,M,10.00,M,CLR,M,M,M,M,M,M,M,M,KIOW 011855Z AUTO 24004KT 10SM CLR A3023 RMK VRB04KT  MADISHF
IOW,2017-04-01 19:00,-91.5445,41.6394,M,M,M,230.00,4.00,M,30.23,M,10.00,M,CLR,M,M,M,M,M,M,M,M,KIOW 011900Z AUTO 23004KT 10SM CLR A3023 RMK MADISHF
IOW,2017-04-01 19:05,-91.5445,41.6394,M,M,M,200.00,6.00,M,30.23,M,10.00,M,CLR,M,M,M,M,M,M,M,M,KIOW 011905Z AUTO 20006KT 10SM CLR A3023 RMK MADISHF
IOW,2017-04-01 19:10,-91.5445,41.6394,M,M,M,290.00,5.00,M,30.23,M,10.00,M,CLR,M,M,M,M,M,M,M,M,KIOW 011910Z AUTO 29005KT 10SM CLR A3023 RMK VRB05KT  MADISHF
IOW,2017-04-01 19:15,-91.5445,41.6394,M,M,M,280.00,4.00,M,30.22,M,10.00,M,CLR,M,M,M,M,M,M,M,M,KIOW 011915Z AUTO 28004KT 10SM CLR A3022 RMK VRB04KT  MADISHF
IOW,2017-04-01 19:20,-91.5445,41.6394,M,M,M,220.00,4.00,M,30.22,M,10.00,M,CLR,M,M,M,M,M,M,M,M,KIOW 011920Z AUTO 22004KT 10SM CLR A3022 RMK MADISHF
IOW,2017-04-01 19:25,-91.5445,41.6394,M,M,M,0.00,0.00,M,30.22,M,10.00,M,CLR,M,M,M,M,M,M,M,M,KIOW 011925Z AUTO 00000KT 10SM CLR A3022 RMK MADISHF
IOW,2017-04-01 19:30,-91.5445,41.6394,M,M,M,0.00,0.00,M,30.22,M,10.00,M,CLR,M,M,M,M,M,M,M,M,KIOW 011930Z AUTO 00000KT 10SM CLR A3022 RMK MADISHF
IOW,2017-04-01 19:35,-91.5445,41.6394,M,M,M,0.00,0.00,M,30.21,M,10.00,M,CLR,M,M,M,M,M,M,M,M,KIOW 011935Z AUTO 00000KT 10SM CLR A3021 RMK MADISHF
IOW,2017-04-01 19:40,-91.5445,41.6394,M,M,M,0.00,0.00,M,30.21,M,10.00,M,CLR,M,M,M,M,M,M,M,M,KIOW 011940Z AUTO 00000KT 10SM CLR A3021 RMK MADISHF
IOW,2017-04-01 19:45,-91.5445,41.6394,M,M,M,0.00,0.00,M,30.21,M,10.00,M,CLR,M,M,M,M,M,M,M,M,KIOW 011945Z AUTO 00000KT 10SM CLR A3021 RMK MADISHF
IOW,2017-04-01 19:50,-91.5445,41.6394,M,M,M,0.00,0.00,M,30.20,M,10.00,M,CLR,M,M,M,M,M,M,M,M,KIOW 011950Z AUTO 00000KT 10SM CLR A3020 RMK MADISHF
IOW,2017-04-01 19:52,-91.5445,41.6394,57.00,36.00,45.22,0.00,0.00,0.00,30.20,1023.10,10.00,M,CLR,M,M,M,M,M,M,M,M,KIOW 011952Z AUTO 00000KT 10SM CLR 14/02 A3020 RMK AO2 SLP231 T01390022
IOW,2017-04-01 19:55,-91.5445,41.6394,M,M,M,0.00,0.00,M,30.20,M,10.00,M,CLR,M,M,M,M,M,M,M,M,KIOW 011955Z AUTO 00000KT 10SM CLR A3020 RMK MADISHF
IOW,2017-04-01 20:00,-91.5445,41.6394,M,M,M,170.00,5.00,M,30.20,M,10.00,M,CLR,M,M,M,M,M,M,M,M,KIOW 012000Z AUTO 17005KT 10SM CLR A3020 RMK MADISHF
IOW,2017-04-01 20:05,-91.5445,41.6394,M,M,M,0.00,0.00,M,30.21,M,10.00,M,CLR,M,M,M,M,M,M,M,M,KIOW 012005Z AUTO 00000KT 10SM CLR A3021 RMK MADISHF
IOW,2017-04-01 20:10,-91.5445,41.6394,M,M,M,0.00,0.00,M,30.21,M,10.00,M,CLR,M,M,M,M,M,M,M,M,KIOW 012010Z AUTO 00000KT 10SM CLR A3021 RMK MADISHF
IOW,2017-04-01 20:15,-91.5445,41.6394,M,M,M,240.00,4.00,M,30.20,M,10.00,M,CLR,M,M,M,M,M,M,M,M,KIOW 012015Z AUTO 24004KT 10SM CLR A3020 RMK MADISHF
IOW,2017-04-01 20:20,-91.5445,41.6394,M,M,M,220.00,4.00,M,30.20,M,10.00,M,CLR,M,M,M,M,M,M,M,M,KIOW 012020Z AUTO 22004KT 10SM CLR A3020 RMK MADISHF
IOW,2017-04-01 20:25,-91.5445,41.6394,M,M,M,0.00,0.00,M,30.20,M,10.00,M,CLR,M,M,M,M,M,M,M,M,KIOW 012025Z AUTO 00000KT 10SM CLR A3020 RMK MADISHF
IOW,2017-04-01 20:30,-91.5445,41.6394,M,M,M,250.00,4.00,M,30.20,M,10.00,M,CLR,M,M,M,M,M,M,M,M,KIOW 012030Z AUTO 25004KT 10SM CLR A3020 RMK MADISHF
IOW,2017-04-01 20:35,-91.5445,41.6394,M,M,M,220.00,4.00,M,30.20,M,10.00,M,CLR,M,M,M,M,M,M,M,M,KIOW 012035Z AUTO 22004KT 10SM CLR A3020 RMK VRB04KT  MADISHF
IOW,2017-04-01 20:40,-91.5445,41.6394,M,M,M,260.00,4.00,M,30.20,M,10.00,M,CLR,M,M,M,M,M,M,M,M,KIOW 012040Z AUTO 26004KT 10SM CLR A3020 RMK MADISHF
IOW,2017-04-01 20:45,-91.5445,41.6394,M,M,M,0.00,0.00,M,30.20,M,10.00,M,CLR,M,M,M,M,M,M,M,M,KIOW 012045Z AUTO 00000KT 10SM CLR A3020 RMK MADISHF
IOW,2017-04-01 20:50,-91.5445,41.6394,M,M,M,0.00,0.00,M,30.20,M,10.00,M,CLR,M,M,M,M,M,M,M,M,KIOW 012050Z AUTO 00000KT 10SM CLR A3020 RMK MADISHF
IOW,2017-04-01 20:52,-91.5445,41.6394,57.90,35.10,42.24,0.00,0.00,0.00,30.20,1022.80,10.00,M,CLR,M,M,M,M,M,M,M,M,KIOW 012052Z AUTO 00000KT 10SM CLR 14/02 A3020 RMK AO2 SLP228 T01440017 56016
IOW,2017-04-01 20:55,-91.5445,41.6394,M,M,M,0.00,0.00,M,30.20,M,10.00,M,CLR,M,M,M,M,M,M,M,M,KIOW 012055Z AUTO 00000KT 10SM CLR A3020 RMK MADISHF
IOW,2017-04-01 21:00,-91.5445,41.6394,M,M,M,0.00,0.00,M,30.20,M,10.00,M,CLR,M,M,M,M,M,M,M,M,KIOW 012100Z AUTO 00000KT 10SM CLR A3020 RMK MADISHF
IOW,2017-04-01 21:05,-91.5445,41.6394,M,M,M,250.00,4.00,M,30.20,M,10.00,M,CLR,M,M,M,M,M,M,M,M,KIOW 012105Z AUTO 25004KT 10SM CLR A3020 RMK MADISHF
IOW,2017-04-01 21:10,-91.5445,41.6394,M,M,M,180.00,3.00,M,30.20,M,10.00,M,CLR,M,M,M,M,M,M,M,M,KIOW 012110Z AUTO 18003KT 10SM CLR A3020 RMK MADISHF
IOW,2017-04-01 21:15,-91.5445,41.6394,M,M,M,0.00,0.00,M,30.20,M,10.00,M,CLR,M,M,M,M,M,M,M,M,KIOW 012115Z AUTO 00000KT 10SM CLR A3020 RMK MADISHF
IOW,2017-04-01 21:20,-91.5445,41.6394,M,M,M,0.00,0.00,M,30.19,M,10.00,M,CLR,M,M,M,M,M,M,M,M,KIOW 012120Z AUTO 00000KT 10SM CLR A3019 RMK MADISHF
IOW,2017-04-01 21:25,-91.5445,41.6394,M,M,M,220.00,4.00,M,30.19,M,10.00,M,CLR,M,M,M,M,M,M,M,M,KIOW 012125Z AUTO 22004KT 10SM CLR A3019 RMK MADISHF
IOW,2017-04-01 21:30,-91.5445,41.6394,M,M,M,230.00,5.00,M,30.19,M,10.00,M,CLR,M,M,M,M,M,M,M,M,KIOW 012130Z AUTO 23005KT 10SM CLR A3019 RMK MADISHF
IOW,2017-04-01 21:35,-91.5445,41.6394,M,M,M,270.00,4.00,M,30.19,M,10.00,M,CLR,M,M,M,M,M,M,M,M,KIOW 012135Z AUTO 27004KT 10SM CLR A3019 RMK MADISHF
IOW,2017-04-01 21:40,-91.5445,41.6394,M,M,M,0.00,0.00,M,30.19,M,10.00,M,CLR,M,M,M,M,M,M,M,M,KIOW 012140Z AUTO 00000KT 10SM CLR A3019 RMK MADISHF
IOW,2017-04-01 21:45,-91.5445,41.6394,M,M,M,200.00,3.00,M,30.19,M,10.00,M,FEW,M,M,M,12000.00,M,M,M,M,KIOW 012145Z AUTO 20003KT 10SM FEW120 A3019 RMK MADISHF
IOW,2017-04-01 21:50,-91.5445,41.6394,M,M,M,170.00,5.00,M,30.19,M,10.00,M,SCT,M,M,M,12000.00,M,M,M,M,KIOW 012150Z AUTO 17005KT 10SM SCT120 A3019 RMK MADISHF
IOW,2017-04-01 21:52,-91.5445,41.6394,57.00,36.00,45.22,180.00,4.00,0.00,30.19,1022.70,10.00,M,SCT,M,M,M,12000.00,M,M,M,M,KIOW 012152Z AUTO 18004KT 10SM SCT120 14/02 A3019 RMK AO2 SLP227 T01390022
IOW,2017-04-01 21:55,-91.5445,41.6394,M,M,M,170.00,3.00,M,30.19,M,10.00,M,SCT,M,M,M,12000.00,M,M,M,M,KIOW 012155Z AUTO 17003KT 10SM SCT120 A3019 RMK MADISHF
IOW,2017-04-01 22:00,-91.5445,41.6394,M,M,M,0.00,0.00,M,30.19,M,10.00,M,BKN,M,M,M,12000.00,M,M,M,M,KIOW 012200Z AUTO 00000KT 10SM BKN120 A3019 RMK MADISHF
IOW,2017-04-01 22:05,-91.5445,41.6394,M,M,M,140.00,3.00,M,30.19,M,10.00,M,BKN,M,M,M,12000.00,M,M,M,M,KIOW 012205Z AUTO 14003KT 10SM BKN120 A3019 RMK MADISHF
IOW,2017-04-01 22:10,-91.5445,41.6394,M,M,M,110.00,3.00,M,30.19,M,10.00,M,BKN,M,M,M,12000.00,M,M,M,M,KIOW 012210Z AUTO 11003KT 10SM BKN120 A3019 RMK MADISHF
IOW,2017-04-01 22:15,-91.5445,41.6394,M,M,M,150.00,4.00,M,30.19,M,10.00,M,BKN,M,M,M,12000.00,M,M,M,M,KIOW 012215Z AUTO 15004KT 10SM BKN120 A3019 RMK MADISHF
IOW,2017-04-01 22:20,-91.5445,41.6394,M,M,M,150.00,4.00,M,30.18,M,10.00,M,OVC,M,M,M,11000.00,M,M,M,M,KIOW 012220Z AUTO 15004KT 10SM OVC110 A3018 RMK MADISHF
IOW,2017-04-01 22:25,-91.5445,41.6394,M,M,M,130.00,3.00,M,30.18,M,10.00,M,OVC,M,M,M,11000.00,M,M,M,M,KIOW 012225Z AUTO 13003KT 10SM OVC110 A3018 RMK MADISHF
IOW,2017-04-01 22:30,-91.5445,41.6394,M,M,M,150.00,3.00,M,30.18,M,10.00,M,OVC,M,M,M,12000.00,M,M,M,M,KIOW 012230Z AUTO 15003KT 10SM OVC120 A3018 RMK MADISHF
IOW,2017-04-01 22:35,-91.5445,41.6394,M,M,M,170.00,4.00,M,30.18,M,10.00,M,OVC,M,M,M,12000.00,M,M,M,M,KIOW 012235Z AUTO 17004KT 10SM OVC120 A3018 RMK MADISHF
IOW,2017-04-01 22:40,-91.5445,41.6394,M,M,M,210.00,3.00,M,30.20,M,10.00,M,OVC,M,M,M,12000.00,M,M,M,M,KIOW 012240Z AUTO 21003KT 10SM OVC120 A3020 RMK MADISHF
IOW,2017-04-01 22:45,-91.5445,41.6394,M,M,M,190.00,4.00,M,30.20,M,10.00,M,OVC,M,M,M,11000.00,M,M,M,M,KIOW 012245Z AUTO 19004KT 10SM OVC110 A3020 RMK MADISHF
IOW,2017-04-01 22:50,-91.5445,41.6394,M,M,M,180.00,3.00,M,30.19,M,10.00,M,OVC,M,M,M,11000.00,M,M,M,M,KIOW 012250Z AUTO 18003KT 10SM OVC110 A3019 RMK MADISHF
IOW,2017-04-01 22:52,-91.5445,41.6394,57.00,34.00,41.76,180.00,3.00,0.00,30.19,1022.80,10.00,M,OVC,M,M,M,11000.00,M,M,M,M,KIOW 012252Z AUTO 18003KT 10SM OVC110 14/01 A3019 RMK AO2 SLP228 T01390011
IOW,2017-04-01 22:55,-91.5445,41.6394,M,M,M,0.00,0.00,M,30.19,M,10.00,M,OVC,M,M,M,11000.00,M,M,M,M,KIOW 012255Z AUTO 00000KT 10SM OVC110 A3019 RMK MADISHF
IOW,2017-04-01 23:00,-91.5445,41.6394,M,M,M,0.00,0.00,M,30.19,M,10.00,M,OVC,M,M,M,11000.00,M,M,M,M,KIOW 012300Z AUTO 00000KT 10SM OVC110 A3019 RMK MADISHF
IOW,2017-04-01 23:05,-91.5445,41.6394,M,M,M,0.00,0.00,M,30.19,M,10.00,M,OVC,M,M,M,11000.00,M,M,M,M,KIOW 012305Z AUTO 00000KT 10SM OVC110 A3019 RMK MADISHF
IOW,2017-04-01 23:10,-91.5445,41.6394,M,M,M,180.00,3.00,M,30.19,M,10.00,M,OVC,M,M,M,11000.00,M,M,M,M,KIOW 012310Z AUTO 18003KT 10SM OVC110 A3019 RMK MADISHF
IOW,2017-04-01 23:15,-91.5445,41.6394,M,M,M,170.00,3.00,M,30.20,M,10.00,M,OVC,M,M,M,11000.00,M,M,M,M,KIOW 012315Z AUTO 17003KT 10SM OVC110 A3020 RMK MADISHF
IOW,2017-04-01 23:20,-91.5445,41.6394,M,M,M,190.00,3.00,M,30.20,M,10.00,M,OVC,M,M,M,11000.00,M,M,M,M,KIOW 012320Z AUTO 19003KT 10SM OVC110 A3020 RMK MADISHF
IOW,2017-04-01 23:25,-91.5445,41.6394,M,M,M,0.00,0.00,M,30.20,M,10.00,M,OVC,M,M,M,12000.00,M,M,M,M,KIOW 012325Z AUTO 00000KT 10SM OVC120 A3020 RMK MADISHF
IOW,2017-04-01 23:30,-91.5445,41.6394,M,M,M,230.00,3.00,M,30.19,M,10.00,M,OVC,M,M,M,12000.00,M,M,M,M,KIOW 012330Z AUTO 23003KT 10SM OVC120 A3019 RMK MADISHF
IOW,2017-04-01 23:35,-91.5445,41.6394,M,M,M,220.00,3.00,M,30.19,M,10.00,M,OVC,M,M,M,12000.00,M,M,M,M,KIOW 012335Z AUTO 22003KT 10SM OVC120 A3019 RMK MADISHF
IOW,2017-04-01 23:40,-91.5445,41.6394,M,M,M,200.00,3.00,M,30.19,M,10.00,M,OVC,M,M,M,12000.00,M,M,M,M,KIOW 012340Z AUTO 20003KT 10SM OVC120 A3019 RMK MADISHF
IOW,2017-04-01 23:45,-91.5445,41.6394,M,M,M,190.00,3.00,M,30.19,M,10.00,M,OVC,M,M,M,12000.00,M,M,M,M,KIOW 012345Z AUTO 19003KT 10SM OVC120 A3019 RMK MADISHF
IOW,2017-04-01 23:50,-91.5445,41.6394,M,M,M,190.00,3.00,M,30.19,M,10.00,M,OVC,M,M,M,12000.00,M,M,M,M,KIOW 012350Z AUTO 19003KT 10SM OVC120 A3019 RMK MADISHF
IOW,2017-04-01 23:52,-91.5445,41.6394,55.90,36.00,47.05,190.00,3.00,0.00,30.18,1022.50,10.00,M,OVC,M,M,M,12000.00,M,M,M,M,KIOW 012352Z AUTO 19003KT 10SM OVC120 13/02 A3018 RMK AO2 SLP225 T01330022 10150 20133 58004
IOW,2017-04-01 23:55,-91.5445,41.6394,M,M,M,0.00,0.00,M,30.18,M,10.00,M,OVC,M,M,M,12000.00,M,M,M,M,KIOW 012355Z AUTO 00000KT 10SM OVC120 A3018 RMK MADISHF
