#DEBUG: Format Typ    -> comma
#DEBUG: Time Period   -> 2017-04-01 00:00:00+00:00 2017-04-02 00:00:00+00:00
#DEBUG: Time Zone     -> Etc/UTC
#DEBUG: Data Contact   -> daryl herzmann akrherz@iastate.edu 515-294-5978
#DEBUG: Entries Found -> -1
station,valid,lon,lat,tmpf, dwpf, relh, drct, sknt, p01i, alti, mslp, vsby, gust, skyc1, skyc2, skyc3, skyc4, skyl1, skyl2, skyl3, skyl4, presentwx, metar
IYA,2017-04-01 00:13,-92.0842,29.9758,69.80,60.80,73.09,150.00,3.00,0.00,29.89,M,10.00,M,CLR,M,M,M,M,M,M,M,M,KIYA 010013Z AUTO 15003KT 10SM CLR 21/16 A2989 RMK AO2
IYA,2017-04-01 00:54,-92.0842,29.9758,66.20,60.80,82.74,0.00,0.00,0.00,29.90,M,10.00,M,CLR,M,M,M,M,M,M,M,M,KIYA 010054Z AUTO 00000KT 10SM CLR 19/16 A2990 RMK AO2
IYA,2017-04-01 01:13,-92.0842,29.9758,66.20,62.60,88.18,0.00,0.00,0.00,29.90,M,10.00,M,CLR,M,M,M,M,M,M,M,M,KIYA 010113Z AUTO 00000KT 10SM CLR 19/17 A2990 RMK AO2
IYA,2017-04-01 01:33,-92.0842,29.9758,64.40,62.60,93.88,0.00,0.00,0.00,29.91,M,10.00,M,CLR,M,M,M,M,M,M,M,M,KIYA 010133Z AUTO 00000KT 10SM CLR 18/17 A2991 RMK AO2
IYA,2017-04-01 01:53,-92.0842,29.9758,64.40,62.60,93.88,0.00,0.00,0.00,29.91,M,10.00,M,CLR,M,M,M,M,M,M,M,M,KIYA 010153Z AUTO 00000KT 10SM CLR 18/17 A2991 RMK AO2
IYA,2017-04-01 02:13,-92.0842,29.9758,64.40,62.60,93.88,0.00,0.00,0.00,29.92,M,10.00,M,CLR,M,M,M,M,M,M,M,M,KIYA 010213Z AUTO 00000KT 10SM CLR 18/17 A2992 RMK AO2
IYA,2017-04-01 02:34,-92.0842,29.9758,64.40,62.60,93.88,0.00,0.00,0.00,29.92,M,10.00,M,CLR,M,M,M,M,M,M,M,M,KIYA 010234Z AUTO 00000KT 10SM CLR 18/17 A2992 RMK AO2
IYA,2017-04-01 02:54,-92.0842,29.9758,62.60,62.60,100.00,0.00,0.00,0.00,29.93,M,10.00,M,CLR,M,M,M,M,M,M,M,M,KIYA 010254Z AUTO 00000KT 10SM CLR 17/17 A2993 RMK AO2
IYA,2017-04-01 03:14,-92.0842,29.9758,62.60,62.60,100.00,0.00,0.00,0.00,29.93,M,10.00,M,CLR,M,M,M,M,M,M,M,M,KIYA 010314Z AUTO 00000KT 10SM CLR 17/17 A2993 RMK AO2
IYA,2017-04-01 03:33,-92.0842,29.9758,60.80,60.80,100.00,0.00,0.00,0.00,29.93,M,10.00,M,CLR,M,M,M,M,M,M,M,M,KIYA 010333Z AUTO 00000KT 10SM CLR 16/16 A2993 RMK AO2
IYA,2017-04-01 03:54,-92.0842,29.9758,60.80,60.80,100.00,0.00,0.00,0.00,29.93,M,10.00,M,CLR,M,M,M,M,M,M,M,M,KIYA 010354Z AUTO 00000KT 10SM CLR 16/16 A2993 RMK AO2
IYA,2017-04-01 04:13,-92.0842,29.9758,60.80,60.80,100.00,0.00,0.00,0.00,29.93,M,10.00,M,CLR,M,M,M,M,M,M,M,M,KIYA 010413Z AUTO 00000KT 10SM CLR 16/16 A2993 RMK AO2
IYA,2017-04-01 04:33,-92.0842,29.9758,59.00,59.00,100.00,0.00,0.00,0.00,29.92,M,10.00,M,CLR,M,M,M,M,M,M,M,M,KIYA 010433Z AUTO 00000KT 10SM CLR 15/15 A2992 RMK AO2
IYA,2017-04-01 05:13,-92.0842,29.9758,59.00,59.00,100.00,0.00,0.00,0.00,29.93,M,10.00,M,CLR,M,M,M,M,M,M,M,M,KIYA 010513Z AUTO 00000KT 10SM CLR 15/15 A2993 RMK AO2
IYA,2017-04-01 05:34,-92.0842,29.9758,59.00,59.00,100.00,0.00,0.00,0.00,29.93,M,10.00,M,CLR,M,M,M,M,M,M,M,M,KIYA 010534Z AUTO 00000KT 10SM CLR 15/15 A2993 RMK AO2
IYA,2017-04-01 05:54,-92.0842,29.9758,59.00,59.00,100.00,0.00,0.00,0.00,29.93,M,10.00,M,CLR,M,M,M,M,M,M,M,M,KIYA 010554Z AUTO 00000KT 10SM CLR 15/15 A2993 RMK AO2
IYA,2017-04-01 06:33,-92.0842,29.9758,57.20,57.20,100.00,0.00,0.00,0.00,29.93,M,10.00,M,CLR,M,M,M,M,M,M,M,M,KIYA 010633Z AUTO 00000KT 10SM CLR 14/14 A2993 RMK AO2
IYA,2017-04-01 06:53,-92.0842,29.9758,57.20,57.20,100.00,0.00,0.00,0.00,29.93,M,10.00,M,CLR,M,M,M,M,M,M,M,M,KIYA 010653Z AUTO 00000KT 10SM CLR 14/14 A2993 RMK AO2
IYA,2017-04-01 07:34,-92.0842,29.9758,57.20,57.20,100.00,0.00,0.00,0.00,29.92,M,7.00,M,CLR,M,M,M,M,M,M,M,M,KIYA 010734Z AUTO 00000KT 7SM CLR 14/14 A2992 RMK AO2
IYA,2017-04-01 07:55,-92.0842,29.9758,57.20,57.20,100.00,0.00,0.00,0.00,29.92,M,1.25,M,VV ,M,M,M,700.00,M,M,M,BR,KIYA 010755Z AUTO 00000KT 1 1/4SM BR VV007 14/14 A2992 RMK AO2
IYA,2017-04-01 08:33,-92.0842,29.9758,57.20,57.20,100.00,0.00,0.00,0.00,29.93,M,7.00,M,CLR,M,M,M,M,M,M,M,M,KIYA 010833Z AUTO 00000KT 7SM CLR 14/14 A2993 RMK AO2
IYA,2017-04-01 08:54,-92.0842,29.9758,57.20,57.20,100.00,0.00,0.00,0.00,29.93,M,0.50,M,VV ,M,M,M,500.00,M,M,M,FG,KIYA 010854Z AUTO 00000KT 1/2SM FG VV005 14/14 A2993 RMK AO2
IYA,2017-04-01 09:33,-92.0842,29.9758,57.20,57.20,100.00,0.00,0.00,0.00,29.93,M,0.50,M,VV ,M,M,M,500.00,M,M,M,FG,KIYA 010933Z AUTO 00000KT 1/2SM FG VV005 14/14 A2993 RMK AO2
IYA,2017-04-01 10:34,-92.0842,29.9758,57.20,57.20,100.00,0.00,0.00,0.00,29.94,M,0.75,M,VV ,M,M,M,500.00,M,M,M,BR,KIYA 011034Z AUTO 00000KT 3/4SM BR VV005 14/14 A2994 RMK AO2
IYA,2017-04-01 10:53,-92.0842,29.9758,57.20,57.20,100.00,0.00,0.00,0.00,29.94,M,3.00,M,CLR,M,M,M,M,M,M,M,BR,KIYA 011053Z AUTO 00000KT 3SM BR CLR 14/14 A2994 RMK AO2
IYA,2017-04-01 11:14,-92.0842,29.9758,57.20,57.20,100.00,70.00,3.00,0.00,29.94,M,7.00,M,CLR,M,M,M,M,M,M,M,M,KIYA 011114Z AUTO 07003KT 7SM CLR 14/14 A2994 RMK AO2
IYA,2017-04-01 11:33,-92.0842,29.9758,57.20,57.20,100.00,0.00,0.00,0.00,29.95,M,10.00,M,CLR,M,M,M,M,M,M,M,M,KIYA 011133Z AUTO 00000KT 10SM CLR 14/14 A2995 RMK AO2
IYA,2017-04-01 11:53,-92.0842,29.9758,57.20,57.20,100.00,60.00,3.00,0.00,29.95,M,10.00,M,CLR,M,M,M,M,M,M,M,M,KIYA 011153Z AUTO 06003KT 10SM CLR 14/14 A2995 RMK AO2
IYA,2017-04-01 12:14,-92.0842,29.9758,57.20,57.20,100.00,0.00,0.00,0.00,29.97,M,7.00,M,CLR,M,M,M,M,M,M,M,M,KIYA 011214Z AUTO 00000KT 7SM CLR 14/14 A2997 RMK AO2
IYA,2017-04-01 12:34,-92.0842,29.9758,57.20,57.20,100.00,0.00,0.00,0.00,29.98,M,10.00,M,CLR,M,M,M,M,M,M,M,M,KIYA 011234Z AUTO 00000KT 10SM CLR 14/14 A2998 RMK AO2
IYA,2017-04-01 12:54,-92.0842,29.9758,60.80,60.80,100.00,0.00,0.00,0.00,29.98,M,10.00,M,CLR,M,M,M,M,M,M,M,M,KIYA 011254Z AUTO 00000KT 10SM CLR 16/16 A2998 RMK AO2
IYA,2017-04-01 13:13,-92.0842,29.9758,62.60,62.60,100.00,90.00,4.00,0.00,29.98,M,10.00,M,CLR,M,M,M,M,M,M,M,M,KIYA 011313Z AUTO 09004KT 10SM CLR 17/17 A2998 RMK AO2
IYA,2017-04-01 13:33,-92.0842,29.9758,64.40,64.40,100.00,80.00,3.00,0.00,29.98,M,10.00,M,CLR,M,M,M,M,M,M,M,M,KIYA 011333Z AUTO 08003KT 10SM CLR 18/18 A2998 RMK AO2
IYA,2017-04-01 13:54,-92.0842,29.9758,66.20,66.20,100.00,100.00,6.00,0.00,29.98,M,10.00,M,CLR,M,M,M,M,M,M,M,M,KIYA 011354Z AUTO 10006KT 10SM CLR 19/19 A2998 RMK AO2
IYA,2017-04-01 14:13,-92.0842,29.9758,69.80,66.20,88.34,90.00,5.00,0.00,29.99,M,10.00,M,CLR,M,M,M,M,M,M,M,M,KIYA 011413Z AUTO 09005KT 10SM CLR 21/19 A2999 RMK AO2
IYA,2017-04-01 14:33,-92.0842,29.9758,71.60,62.60,73.27,120.00,6.00,0.00,30.00,M,10.00,M,CLR,M,M,M,M,M,M,M,M,KIYA 011433Z AUTO 12006KT 10SM CLR 22/17 A3000 RMK AO2
IYA,2017-04-01 14:53,-92.0842,29.9758,73.40,62.60,68.94,110.00,8.00,0.00,30.00,M,10.00,M,CLR,M,M,M,M,M,M,M,M,KIYA 011453Z AUTO 11008KT 10SM CLR 23/17 A3000 RMK AO2
IYA,2017-04-01 15:13,-92.0842,29.9758,75.20,62.60,64.91,130.00,7.00,0.00,30.01,M,10.00,M,CLR,M,M,M,M,M,M,M,M,KIYA 011513Z AUTO 13007KT 10SM CLR 24/17 A3001 RMK AO2
IYA,2017-04-01 15:33,-92.0842,29.9758,75.20,60.80,60.90,120.00,10.00,0.00,30.02,M,10.00,17.00,CLR,M,M,M,M,M,M,M,M,KIYA 011533Z AUTO 12010G17KT 10SM CLR 24/16 A3002 RMK AO2
IYA,2017-04-01 15:53,-92.0842,29.9758,75.20,60.80,60.90,140.00,11.00,0.00,30.02,M,10.00,M,CLR,M,M,M,M,M,M,M,M,KIYA 011553Z AUTO 14011KT 10SM CLR 24/16 A3002 RMK AO2
IYA,2017-04-01 16:13,-92.0842,29.9758,77.00,62.60,61.13,130.00,12.00,0.00,30.02,M,10.00,18.00,CLR,M,M,M,M,M,M,M,M,KIYA 011613Z AUTO 13012G18KT 10SM CLR 25/17 A3002 RMK AO2
IYA,2017-04-01 16:33,-92.0842,29.9758,78.80,64.40,61.36,150.00,13.00,0.00,30.02,M,10.00,18.00,CLR,M,M,M,M,M,M,M,M,KIYA 011633Z AUTO 15013G18KT 10SM CLR 26/18 A3002 RMK AO2
IYA,2017-04-01 16:53,-92.0842,29.9758,77.00,64.40,65.12,130.00,11.00,0.00,30.02,M,10.00,17.00,CLR,M,M,M,M,M,M,M,M,KIYA 011653Z AUTO 13011G17KT 10SM CLR 25/18 A3002 RMK AO2
IYA,2017-04-01 17:13,-92.0842,29.9758,78.80,64.40,61.36,130.00,10.00,0.00,30.01,M,10.00,18.00,CLR,M,M,M,M,M,M,M,M,KIYA 011713Z AUTO 13010G18KT 10SM CLR 26/18 A3001 RMK AO2
IYA,2017-04-01 17:33,-92.0842,29.9758,78.80,62.60,57.60,110.00,8.00,0.00,30.01,M,10.00,16.00,CLR,M,M,M,M,M,M,M,M,KIYA 011733Z AUTO 11008G16KT 10SM CLR 26/17 A3001 RMK AO2
IYA,2017-04-01 17:53,-92.0842,29.9758,78.80,62.60,57.60,120.00,12.00,0.00,30.00,M,10.00,19.00,CLR,M,M,M,M,M,M,M,M,KIYA 011753Z AUTO 12012G19KT 10SM CLR 26/17 A3000 RMK AO2
IYA,2017-04-01 18:13,-92.0842,29.9758,78.80,60.80,54.05,130.00,12.00,0.00,30.00,M,10.00,17.00,CLR,M,M,M,M,M,M,M,M,KIYA 011813Z AUTO 13012G17KT 10SM CLR 26/16 A3000 RMK AO2
IYA,2017-04-01 18:33,-92.0842,29.9758,78.80,62.60,57.60,150.00,10.00,0.00,29.99,M,10.00,16.00,CLR,M,M,M,M,M,M,M,M,KIYA 011833Z AUTO 15010G16KT 10SM CLR 26/17 A2999 RMK AO2
IYA,2017-04-01 18:53,-92.0842,29.9758,80.60,60.80,50.95,120.00,12.00,0.00,29.98,M,10.00,18.00,CLR,M,M,M,M,M,M,M,M,KIYA 011853Z AUTO 12012G18KT 10SM CLR 27/16 A2998 RMK AO2
IYA,2017-04-01 19:13,-92.0842,29.9758,80.60,60.80,50.95,140.00,15.00,0.00,29.98,M,10.00,19.00,CLR,M,M,M,M,M,M,M,M,KIYA 011913Z AUTO 14015G19KT 10SM CLR 27/16 A2998 RMK AO2
IYA,2017-04-01 19:35,-92.0842,29.9758,80.60,60.80,50.95,140.00,13.00,0.00,29.97,M,10.00,19.00,CLR,M,M,M,M,M,M,M,M,KIYA 011935Z AUTO 14013G19KT 10SM CLR 27/16 A2997 RMK AO2
IYA,2017-04-01 19:53,-92.0842,29.9758,80.60,60.80,50.95,150.00,13.00,0.00,29.97,M,10.00,20.00,CLR,M,M,M,M,M,M,M,M,KIYA 011953Z AUTO 15013G20KT 10SM CLR 27/16 A2997 RMK AO2
IYA,2017-04-01 20:15,-92.0842,29.9758,80.60,62.60,54.30,140.00,10.00,0.00,29.96,M,10.00,18.00,CLR,M,M,M,M,M,M,M,M,KIYA 012015Z AUTO 14010G18KT 10SM CLR 27/17 A2996 RMK AO2
IYA,2017-04-01 20:33,-92.0842,29.9758,80.60,60.80,50.95,150.00,12.00,0.00,29.96,M,10.00,18.00,CLR,M,M,M,M,M,M,M,M,KIYA 012033Z AUTO 15012G18KT 10SM CLR 27/16 A2996 RMK AO2
IYA,2017-04-01 20:53,-92.0842,29.9758,80.60,60.80,50.95,140.00,15.00,0.00,29.96,M,10.00,22.00,CLR,M,M,M,M,M,M,M,M,KIYA 012053Z AUTO 14015G22KT 10SM CLR 27/16 A2996 RMK AO2
IYA,2017-04-01 21:13,-92.0842,29.9758,80.60,59.00,47.79,140.00,9.00,0.00,29.96,M,10.00,16.00,CLR,M,M,M,M,M,M,M,M,KIYA 012113Z AUTO 14009G16KT 10SM CLR 27/15 A2996 RMK AO2
IYA,2017-04-01 21:33,-92.0842,29.9758,78.80,55.40,44.52,120.00,8.00,0.00,29.96,M,10.00,16.00,CLR,M,M,M,M,M,M,M,M,KIYA 012133Z AUTO 12008G16KT 10SM CLR 26/13 A2996 RMK AO2
IYA,2017-04-01 21:53,-92.0842,29.9758,80.60,55.40,41.97,150.00,10.00,0.00,29.95,M,10.00,17.00,CLR,M,M,M,M,M,M,M,M,KIYA 012153Z AUTO 15010G17KT 10SM CLR 27/13 A2995 RMK AO2
IYA,2017-04-01 22:14,-92.0842,29.9758,80.60,57.20,44.80,130.00,7.00,0.00,29.95,M,10.00,16.00,CLR,M,M,M,M,M,M,M,M,KIYA 012214Z AUTO 13007G16KT 10SM CLR 27/14 A2995 RMK AO2
IYA,2017-04-01 22:34,-92.0842,29.9758,80.60,55.40,41.97,130.00,8.00,0.00,29.95,M,10.00,M,CLR,M,M,M,M,M,M,M,M,KIYA 012234Z AUTO 13008KT 10SM CLR 27/13 A2995 RMK AO2
IYA,2017-04-01 22:53,-92.0842,29.9758,78.80,57.20,47.52,120.00,4.00,0.00,29.95,M,10.00,15.00,CLR,M,M,M,M,M,M,M,M,KIYA 012253Z AUTO 12004G15KT 10SM CLR 26/14 A2995 RMK AO2
IYA,2017-04-01 23:13,-92.0842,29.9758,78.80,55.40,44.52,130.00,6.00,0.00,29.95,M,10.00,M,CLR,M,M,M,M,M,M,M,M,KIYA 012313Z AUTO 13006KT 10SM CLR 26/13 A2995 RMK AO2
IYA,2017-04-01 23:33,-92.0842,29.9758,78.80,55.40,44.52,120.00,7.00,0.00,29.96,M,10.00,M,CLR,M,M,M,M,M,M,M,M,KIYA 012333Z AUTO 12007KT 10SM CLR 26/13 A2996 RMK AO2
IYA,2017-04-01 23:53,-92.0842,29.9758,75.20,57.20,53.55,110.00,6.00,0.00,29.96,M,10.00,M,CLR,M,M,M,M,M,M,M,M,KIYA 012353Z AUTO 11006KT 10SM CLR 24/14 A2996 RMK AO2
