#DEBUG: Format Typ    -> comma
#DEBUG: Time Period   -> 2017-04-01 00:00:00+00:00 2017-04-02 00:00:00+00:00
#DEBUG: Time Zone     -> Etc/UTC
#DEBUG: Data Contact   -> daryl herzmann akrherz@iastate.edu 515-294-5978
#DEBUG: Entries Found -> -1
station,valid,lon,lat,tmpf, dwpf, relh, drct, sknt, p01i, alti, mslp, vsby, gust, skyc1, skyc2, skyc3, skyc4, skyl1, skyl2, skyl3, skyl4, presentwx, metar
JER,2017-04-01 00:00,-114.4566,42.7267,M,M,M,250.00,16.00,M,29.96,M,10.00,M,BKN,M,M,M,7500.00,M,M,M,M,KJER 010000Z AUTO 25016KT 10SM BKN075 A2996 RMK MADISHF
JER,2017-04-01 00:05,-114.4566,42.7267,M,M,M,250.00,13.00,M,29.96,M,10.00,M,OVC,M,M,M,7500.00,M,M,M,M,KJER 010005Z AUTO 25013KT 10SM OVC075 A2996 RMK MADISHF
JER,2017-04-01 00:10,-114.4566,42.7267,M,M,M,240.00,17.00,M,29.97,M,10.00,M,OVC,M,M,M,7500.00,M,M,M,M,KJER 010010Z AUTO 24017KT 10SM OVC075 A2997 RMK MADISHF
JER,2017-04-01 00:15,-114.4566,42.7267,M,M,M,240.00,13.00,M,29.97,M,10.00,18.00,OVC,M,M,M,7500.00,M,M,M,M,KJER 010015Z AUTO 24013G18KT 10SM OVC075 A2997 RMK MADISHF
JER,2017-04-01 00:20,-114.4566,42.7267,M,M,M,250.00,14.00,M,29.97,M,10.00,M,OVC,M,M,M,7500.00,M,M,M,M,KJER 010020Z AUTO 25014KT 10SM OVC075 A2997 RMK MADISHF
JER,2017-04-01 00:25,-114.4566,42.7267,M,M,M,250.00,14.00,M,29.97,M,10.00,M,BKN,M,M,M,7500.00,M,M,M,M,KJER 010025Z AUTO 25014KT 10SM BKN075 A2997 RMK MADISHF
JER,2017-04-01 00:30,-114.4566,42.7267,M,M,M,250.00,19.00,M,29.97,M,10.00,M,BKN,M,M,M,7500.00,M,M,M,M,KJER 010030Z AUTO 25019KT 10SM BKN075 A2997 RMK MADISHF
JER,2017-04-01 00:35,-114.4566,42.7267,M,M,M,M,M,M,29.97,M,10.00,M,SCT,M,M,M,7500.00,M,M,M,M,KJER 010035Z AUTO /////KT 10SM SCT075 A2997 RMK MADISHF
JER,2017-04-01 00:40,-114.4566,42.7267,M,M,M,250.00,17.00,M,29.97,M,10.00,M,FEW,M,M,M,7999.00,M,M,M,M,KJER 010040Z AUTO 25017KT 10SM FEW079 A2997 RMK MADISHF
JER,2017-04-01 00:45,-114.4566,42.7267,M,M,M,250.00,15.00,M,29.97,M,10.00,M,FEW,M,M,M,7999.00,M,M,M,M,KJER 010045Z AUTO 25015KT 10SM FEW079 A2997 RMK MADISHF
JER,2017-04-01 00:50,-114.4566,42.7267,M,M,M,250.00,14.00,M,29.97,M,10.00,M,CLR,M,M,M,M,M,M,M,M,KJER 010050Z AUTO 25014KT 10SM CLR A2997 RMK MADISHF
JER,2017-04-01 00:53,-114.4566,42.7267,55.00,39.00,54.70,250.00,15.00,0.00,29.98,1014.90,10.00,M,CLR,M,M,M,M,M,M,M,M,KJER 010053Z AUTO 25015KT 10SM CLR 13/04 A2998 RMK AO2 SLP149 T01280039
JER,2017-04-01 00:55,-114.4566,42.7267,M,M,M,M,M,M,29.98,M,10.00,M,CLR,M,M,M,M,M,M,M,M,KJER 010055Z AUTO /////KT 10SM CLR A2998 RMK MADISHF
JER,2017-04-01 01:00,-114.4566,42.7267,M,M,M,250.00,16.00,M,29.98,M,10.00,M,CLR,M,M,M,M,M,M,M,M,KJER 010100Z AUTO 25016KT 10SM CLR A2998 RMK MADISHF
JER,2017-04-01 01:05,-114.4566,42.7267,M,M,M,250.00,16.00,M,29.98,M,10.00,M,CLR,M,M,M,M,M,M,M,M,KJER 010105Z AUTO 25016KT 10SM CLR A2998 RMK MADISHF
JER,2017-04-01 01:10,-114.4566,42.7267,M,M,M,250.00,14.00,M,29.98,M,10.00,M,CLR,M,M,M,M,M,M,M,M,KJER 010110Z AUTO 25014KT 10SM CLR A2998 RMK MADISHF
JER,2017-04-01 01:15,-114.4566,42.7267,M,M,M,250.00,16.00,M,29.98,M,10.00,M,CLR,M,M,M,M,M,M,M,M,KJER 010115Z AUTO 25016KT 10SM CLR A2998 RMK MADISHF
JER,2017-04-01 01:20,-114.4566,42.7267,M,M,M,250.00,16.00,M,29.98,M,10.00,M,CLR,M,M,M,M,M,M,M,M,KJER 010120Z AUTO 25016KT 10SM CLR A2998 RMK MADISHF
JER,2017-04-01 01:25,-114.4566,42.7267,M,M,M,250.00,11.00,M,29.98,M,10.00,M,CLR,M,M,M,M,M,M,M,M,KJER 010125Z AUTO 25011KT 10SM CLR A2998 RMK MADISHF
JER,2017-04-01 01:30,-114.4566,42.7267,M,M,M,250.00,13.00,M,29.98,M,10.00,M,CLR,M,M,M,M,M,M,M,M,KJER 010130Z AUTO 25013KT 10SM CLR A2998 RMK MADISHF
JER,2017-04-01 01:35,-114.4566,42.7267,M,M,M,250.00,15.00,M,29.99,M,10.00,M,CLR,M,M,M,M,M,M,M,M,KJER 010135Z AUTO 25015KT 10SM CLR A2999 RMK MADISHF
JER,2017-04-01 01:40,-114.4566,42.7267,M,M,M,250.00,15.00,M,29.99,M,10.00,M,FEW,M,M,M,7999.00,M,M,M,M,KJER 010140Z AUTO 25015KT 10SM FEW079 A2999 RMK MADISHF
JER,2017-04-01 01:45,-114.4566,42.7267,M,M,M,250.00,16.00,M,29.99,M,10.00,M,FEW,M,M,M,7999.00,M,M,M,M,KJER 010145Z AUTO 25016KT 10SM FEW079 A2999 RMK MADISHF
JER,2017-04-01 01:50,-114.4566,42.7267,M,M,M,250.00,16.00,M,29.99,M,10.00,M,SCT,M,M,M,7999.00,M,M,M,M,KJER 010150Z AUTO 25016KT 10SM SCT079 A2999 RMK MADISHF
JER,2017-04-01 01:53,-114.4566,42.7267,51.10,37.90,60.46,250.00,15.00,0.00,29.99,1015.90,10.00,M,SCT,M,M,M,8000.00,M,M,M,M,KJER 010153Z AUTO 25015KT 10SM SCT080 11/03 A2999 RMK AO2 SLP159 T01060033
JER,2017-04-01 01:55,-114.4566,42.7267,M,M,M,250.00,13.00,M,29.99,M,10.00,M,BKN,M,M,M,7999.00,M,M,M,M,KJER 010155Z AUTO 25013KT 10SM BKN079 A2999 RMK MADISHF
JER,2017-04-01 02:00,-114.4566,42.7267,M,M,M,250.00,14.00,M,29.99,M,10.00,M,BKN,M,M,M,7999.00,M,M,M,M,KJER 010200Z AUTO 25014KT 10SM BKN079 A2999 RMK MADISHF
JER,2017-04-01 02:05,-114.4566,42.7267,M,M,M,240.00,15.00,M,29.99,M,10.00,20.00,BKN,M,M,M,7999.00,M,M,M,M,KJER 010205Z AUTO 24015G20KT 10SM BKN079 A2999 RMK MADISHF
JER,2017-04-01 02:10,-114.4566,42.7267,M,M,M,250.00,13.00,M,29.99,M,10.00,M,OVC,M,M,M,7999.00,M,M,M,M,KJER 010210Z AUTO 25013KT 10SM OVC079 A2999 RMK MADISHF
JER,2017-04-01 02:15,-114.4566,42.7267,M,M,M,250.00,14.00,M,29.99,M,10.00,M,OVC,M,M,M,7999.00,M,M,M,M,KJER 010215Z AUTO 25014KT 10SM OVC079 A2999 RMK MADISHF
JER,2017-04-01 02:20,-114.4566,42.7267,M,M,M,250.00,12.00,M,30.00,M,10.00,M,OVC,M,M,M,7999.00,M,M,M,M,KJER 010220Z AUTO 25012KT 10SM OVC079 A3000 RMK MADISHF
JER,2017-04-01 02:25,-114.4566,42.7267,M,M,M,250.00,13.00,M,30.00,M,10.00,M,OVC,M,M,M,7999.00,M,M,M,M,KJER 010225Z AUTO 25013KT 10SM OVC079 A3000 RMK MADISHF
JER,2017-04-01 02:30,-114.4566,42.7267,M,M,M,250.00,14.00,M,30.00,M,10.00,M,OVC,M,M,M,7999.00,M,M,M,M,KJER 010230Z AUTO 25014KT 10SM OVC079 A3000 RMK MADISHF
JER,2017-04-01 02:35,-114.4566,42.7267,M,M,M,250.00,11.00,M,30.00,M,10.00,M,OVC,M,M,M,7999.00,M,M,M,M,KJER 010235Z AUTO 25011KT 10SM OVC079 A3000 RMK MADISHF
JER,2017-04-01 02:40,-114.4566,42.7267,M,M,M,250.00,13.00,M,30.00,M,10.00,M,OVC,M,M,M,7999.00,M,M,M,M,KJER 010240Z AUTO 25013KT 10SM OVC079 A3000 RMK MADISHF
JER,2017-04-01 02:45,-114.4566,42.7267,M,M,M,250.00,13.00,M,30.01,M,10.00,M,OVC,M,M,M,7999.00,M,M,M,M,KJER 010245Z AUTO 25013KT 10SM OVC079 A3001 RMK MADISHF
JER,2017-04-01 02:50,-114.4566,42.7267,M,M,M,250.00,11.00,M,30.01,M,10.00,M,OVC,M,M,M,7999.00,M,M,M,M,KJER 010250Z AUTO 25011KT 10SM OVC079 A3001 RMK MADISHF
JER,2017-04-01 02:53,-114.4566,42.7267,48.00,37.90,67.87,250.00,12.00,0.00,30.01,1016.70,10.00,M,OVC,M,M,M,8000.00,M,M,M,M,KJER 010253Z AUTO 25012KT 10SM OVC080 09/03 A3001 RMK AO2 SLP167 T00890033 53014
JER,2017-04-01 02:55,-114.4566,42.7267,M,M,M,250.00,12.00,M,30.01,M,10.00,M,BKN,M,M,M,7999.00,M,M,M,M,KJER 010255Z AUTO 25012KT 10SM BKN079 A3001 RMK MADISHF
JER,2017-04-01 03:00,-114.4566,42.7267,M,M,M,250.00,11.00,M,30.01,M,10.00,M,BKN,M,M,M,7999.00,M,M,M,M,KJER 010300Z AUTO 25011KT 10SM BKN079 A3001 RMK MADISHF
JER,2017-04-01 03:05,-114.4566,42.7267,M,M,M,250.00,11.00,M,30.01,M,10.00,M,SCT,M,M,M,7999.00,M,M,M,M,KJER 010305Z AUTO 25011KT 10SM SCT079 A3001 RMK MADISHF
JER,2017-04-01 03:10,-114.4566,42.7267,M,M,M,250.00,11.00,M,30.02,M,10.00,M,SCT,M,M,M,7999.00,M,M,M,M,KJER 010310Z AUTO 25011KT 10SM SCT079 A3002 RMK MADISHF
JER,2017-04-01 03:15,-114.4566,42.7267,M,M,M,250.00,9.00,M,30.02,M,10.00,M,SCT,M,M,M,7999.00,M,M,M,M,KJER 010315Z AUTO 25009KT 10SM SCT079 A3002 RMK MADISHF
JER,2017-04-01 03:20,-114.4566,42.7267,M,M,M,260.00,9.00,M,30.03,M,10.00,M,SCT,M,M,M,7999.00,M,M,M,M,KJER 010320Z AUTO 26009KT 10SM SCT079 A3003 RMK MADISHF
JER,2017-04-01 03:25,-114.4566,42.7267,M,M,M,260.00,9.00,M,30.03,M,10.00,M,BKN,M,M,M,7999.00,M,M,M,M,KJER 010325Z AUTO 26009KT 10SM BKN079 A3003 RMK MADISHF
JER,2017-04-01 03:30,-114.4566,42.7267,M,M,M,260.00,8.00,M,30.03,M,10.00,M,BKN,M,M,M,7999.00,M,M,M,M,KJER 010330Z AUTO 26008KT 10SM BKN079 A3003 RMK MADISHF
JER,2017-04-01 03:35,-114.4566,42.7267,M,M,M,260.00,9.00,M,30.04,M,10.00,M,BKN,M,M,M,7999.00,M,M,M,M,KJER 010335Z AUTO 26009KT 10SM BKN079 A3004 RMK MADISHF
JER,2017-04-01 03:40,-114.4566,42.7267,M,M,M,260.00,9.00,M,30.04,M,10.00,M,BKN,M,M,M,7999.00,M,M,M,M,KJER 010340Z AUTO 26009KT 10SM BKN079 A3004 RMK MADISHF
JER,2017-04-01 03:45,-114.4566,42.7267,M,M,M,260.00,8.00,M,30.04,M,10.00,M,SCT,M,M,M,7999.00,M,M,M,M,KJER 010345Z AUTO 26008KT 10SM SCT079 A3004 RMK MADISHF
JER,2017-04-01 03:50,-114.4566,42.7267,M,M,M,260.00,9.00,M,30.05,M,10.00,M,SCT,M,M,M,7999.00,M,M,M,M,KJER 010350Z AUTO 26009KT 10SM SCT079 A3005 RMK MADISHF
JER,2017-04-01 03:53,-114.4566,42.7267,45.00,37.00,73.37,260.00,8.00,0.00,30.05,1017.90,10.00,M,FEW,M,M,M,8000.00,M,M,M,M,KJER 010353Z AUTO 26008KT 10SM FEW080 07/03 A3005 RMK AO2 SLP179 T00720028
JER,2017-04-01 03:55,-114.4566,42.7267,M,M,M,260.00,7.00,M,30.05,M,10.00,M,FEW,M,M,M,7999.00,M,M,M,M,KJER 010355Z AUTO 26007KT 10SM FEW079 A3005 RMK MADISHF
JER,2017-04-01 04:00,-114.4566,42.7267,M,M,M,250.00,7.00,M,30.05,M,10.00,M,CLR,M,M,M,M,M,M,M,M,KJER 010400Z AUTO 25007KT 10SM CLR A3005 RMK MADISHF
JER,2017-04-01 04:05,-114.4566,42.7267,M,M,M,240.00,6.00,M,30.06,M,10.00,M,CLR,M,M,M,M,M,M,M,M,KJER 010405Z AUTO 24006KT 10SM CLR A3006 RMK MADISHF
JER,2017-04-01 04:10,-114.4566,42.7267,M,M,M,240.00,6.00,M,30.06,M,10.00,M,CLR,M,M,M,M,M,M,M,M,KJER 010410Z AUTO 24006KT 10SM CLR A3006 RMK MADISHF
JER,2017-04-01 04:15,-114.4566,42.7267,M,M,M,230.00,5.00,M,30.06,M,10.00,M,CLR,M,M,M,M,M,M,M,M,KJER 010415Z AUTO 23005KT 10SM CLR A3006 RMK MADISHF
JER,2017-04-01 04:20,-114.4566,42.7267,M,M,M,240.00,6.00,M,30.06,M,10.00,M,FEW,M,M,M,7500.00,M,M,M,M,KJER 010420Z AUTO 24006KT 10SM FEW075 A3006 RMK MADISHF
JER,2017-04-01 04:25,-114.4566,42.7267,M,M,M,240.00,6.00,M,30.06,M,10.00,M,SCT,M,M,M,7000.00,M,M,M,M,KJER 010425Z AUTO 24006KT 10SM SCT070 A3006 RMK MADISHF
JER,2017-04-01 04:30,-114.4566,42.7267,M,M,M,240.00,8.00,M,30.06,M,10.00,M,SCT,M,M,M,7000.00,M,M,M,M,KJER 010430Z AUTO 24008KT 10SM SCT070 A3006 RMK MADISHF
JER,2017-04-01 04:35,-114.4566,42.7267,M,M,M,240.00,8.00,M,30.06,M,10.00,M,BKN,M,M,M,7500.00,M,M,M,M,KJER 010435Z AUTO 24008KT 10SM BKN075 A3006 RMK MADISHF
JER,2017-04-01 04:40,-114.4566,42.7267,M,M,M,240.00,7.00,M,30.07,M,10.00,M,BKN,M,M,M,7500.00,M,M,M,M,KJER 010440Z AUTO 24007KT 10SM BKN075 A3007 RMK MADISHF
JER,2017-04-01 04:45,-114.4566,42.7267,M,M,M,240.00,9.00,M,30.07,M,10.00,M,OVC,M,M,M,7500.00,M,M,M,M,KJER 010445Z AUTO 24009KT 10SM OVC075 A3007 RMK MADISHF
JER,2017-04-01 04:50,-114.4566,42.7267,M,M,M,240.00,8.00,M,30.07,M,10.00,M,OVC,M,M,M,7500.00,M,M,M,M,KJER 010450Z AUTO 24008KT 10SM OVC075 A3007 RMK MADISHF
JER,2017-04-01 04:53,-114.4566,42.7267,45.00,37.00,73.37,240.00,7.00,0.00,30.07,1018.80,10.00,M,OVC,M,M,M,7500.00,M,M,M,M,KJER 010453Z AUTO 24007KT 10SM OVC075 07/03 A3007 RMK AO2 SLP188 T00720028
JER,2017-04-01 04:55,-114.4566,42.7267,M,M,M,230.00,8.00,M,30.07,M,10.00,M,OVC,M,M,M,7500.00,M,M,M,M,KJER 010455Z AUTO 23008KT 10SM OVC075 A3007 RMK MADISHF
JER,2017-04-01 05:00,-114.4566,42.7267,M,M,M,240.00,7.00,M,30.07,M,10.00,M,OVC,M,M,M,7500.00,M,M,M,M,KJER 010500Z AUTO 24007KT 10SM OVC075 A3007 RMK MADISHF
JER,2017-04-01 05:05,-114.4566,42.7267,M,M,M,240.00,7.00,M,30.07,M,10.00,M,OVC,M,M,M,7500.00,M,M,M,M,KJER 010505Z AUTO 24007KT 10SM OVC075 A3007 RMK MADISHF
JER,2017-04-01 05:10,-114.4566,42.7267,M,M,M,250.00,7.00,M,30.07,M,10.00,M,OVC,M,M,M,7500.00,M,M,M,M,KJER 010510Z AUTO 25007KT 10SM OVC075 A3007 RMK MADISHF
JER,2017-04-01 05:15,-114.4566,42.7267,M,M,M,240.00,7.00,M,30.07,M,10.00,M,OVC,M,M,M,7500.00,M,M,M,M,KJER 010515Z AUTO 24007KT 10SM OVC075 A3007 RMK MADISHF
JER,2017-04-01 05:20,-114.4566,42.7267,M,M,M,240.00,7.00,M,30.08,M,10.00,M,OVC,M,M,M,7500.00,M,M,M,M,KJER 010520Z AUTO 24007KT 10SM OVC075 A3008 RMK MADISHF
JER,2017-04-01 05:25,-114.4566,42.7267,M,M,M,230.00,7.00,M,30.08,M,10.00,M,OVC,M,M,M,7500.00,M,M,M,M,KJER 010525Z AUTO 23007KT 10SM OVC075 A3008 RMK MADISHF
JER,2017-04-01 05:30,-114.4566,42.7267,M,M,M,230.00,6.00,M,30.08,M,10.00,M,OVC,M,M,M,7999.00,M,M,M,M,KJER 010530Z AUTO 23006KT 10SM OVC079 A3008 RMK MADISHF
JER,2017-04-01 05:35,-114.4566,42.7267,M,M,M,220.00,6.00,M,30.08,M,10.00,M,OVC,M,M,M,7999.00,M,M,M,M,KJER 010535Z AUTO 22006KT 10SM OVC079 A3008 RMK MADISHF
JER,2017-04-01 05:40,-114.4566,42.7267,M,M,M,220.00,6.00,M,30.08,M,10.00,M,OVC,M,M,M,7999.00,M,M,M,M,KJER 010540Z AUTO 22006KT 10SM OVC079 A3008 RMK MADISHF
JER,2017-04-01 05:45,-114.4566,42.7267,M,M,M,220.00,5.00,M,30.08,M,10.00,M,OVC,M,M,M,7999.00,M,M,M,M,KJER 010545Z AUTO 22005KT 10SM OVC079 A3008 RMK MADISHF
JER,2017-04-01 05:50,-114.4566,42.7267,M,M,M,230.00,6.00,M,30.08,M,10.00,M,OVC,M,M,M,7999.00,M,M,M,M,KJER 010550Z AUTO 23006KT 10SM OVC079 A3008 RMK MADISHF
JER,2017-04-01 05:53,-114.4566,42.7267,44.10,37.00,75.93,230.00,7.00,0.00,30.08,1018.80,10.00,M,OVC,M,M,M,8000.00,M,M,M,M,KJER 010553Z AUTO 23007KT 10SM OVC080 07/03 A3008 RMK AO2 SLP188 T00670028 10133 20067 51022
JER,2017-04-01 05:55,-114.4566,42.7267,M,M,M,230.00,6.00,M,30.08,M,10.00,M,OVC,M,M,M,7999.00,M,M,M,M,KJER 010555Z AUTO 23006KT 10SM OVC079 A3008 RMK MADISHF
JER,2017-04-01 06:00,-114.4566,42.7267,M,M,M,220.00,6.00,M,30.08,M,10.00,M,OVC,M,M,M,7999.00,M,M,M,M,KJER 010600Z AUTO 22006KT 10SM OVC079 A3008 RMK MADISHF
JER,2017-04-01 06:05,-114.4566,42.7267,M,M,M,210.00,6.00,M,30.08,M,10.00,M,OVC,M,M,M,7999.00,M,M,M,M,KJER 010605Z AUTO 21006KT 10SM OVC079 A3008 RMK MADISHF
JER,2017-04-01 06:10,-114.4566,42.7267,M,M,M,220.00,7.00,M,30.09,M,10.00,M,OVC,M,M,M,7999.00,M,M,M,M,KJER 010610Z AUTO 22007KT 10SM OVC079 A3009 RMK MADISHF
JER,2017-04-01 06:15,-114.4566,42.7267,M,M,M,220.00,8.00,M,30.09,M,10.00,M,OVC,M,M,M,7999.00,M,M,M,M,KJER 010615Z AUTO 22008KT 10SM OVC079 A3009 RMK MADISHF
JER,2017-04-01 06:20,-114.4566,42.7267,M,M,M,210.00,7.00,M,30.09,M,10.00,M,OVC,M,M,M,7999.00,M,M,M,M,KJER 010620Z AUTO 21007KT 10SM OVC079 A3009 RMK MADISHF
JER,2017-04-01 06:25,-114.4566,42.7267,M,M,M,210.00,7.00,M,30.10,M,10.00,M,OVC,M,M,M,7999.00,M,M,M,M,KJER 010625Z AUTO 21007KT 10SM OVC079 A3010 RMK MADISHF
JER,2017-04-01 06:30,-114.4566,42.7267,M,M,M,200.00,7.00,M,30.10,M,10.00,M,OVC,M,M,M,7999.00,M,M,M,M,KJER 010630Z AUTO 20007KT 10SM OVC079 A3010 RMK MADISHF
JER,2017-04-01 06:35,-114.4566,42.7267,M,M,M,200.00,7.00,M,30.10,M,10.00,M,OVC,M,M,M,7999.00,M,M,M,M,KJER 010635Z AUTO 20007KT 10SM OVC079 A3010 RMK MADISHF
JER,2017-04-01 06:40,-114.4566,42.7267,M,M,M,210.00,8.00,M,30.10,M,10.00,M,OVC,M,M,M,7999.00,M,M,M,M,KJER 010640Z AUTO 21008KT 10SM OVC079 A3010 RMK MADISHF
JER,2017-04-01 06:45,-114.4566,42.7267,M,M,M,200.00,8.00,M,30.10,M,10.00,M,OVC,M,M,M,7999.00,M,M,M,M,KJER 010645Z AUTO 20008KT 10SM OVC079 A3010 RMK MADISHF
JER,2017-04-01 06:50,-114.4566,42.7267,M,M,M,210.00,7.00,M,30.10,M,10.00,M,OVC,M,M,M,7999.00,M,M,M,M,KJER 010650Z AUTO 21007KT 10SM OVC079 A3010 RMK MADISHF
JER,2017-04-01 06:53,-114.4566,42.7267,43.00,36.00,76.12,210.00,8.00,0.00,30.10,1019.30,10.00,M,OVC,M,M,M,8000.00,M,M,M,M,KJER 010653Z AUTO 21008KT 10SM OVC080 06/02 A3010 RMK AO2 SLP193 T00610022 401440011
JER,2017-04-01 06:55,-114.4566,42.7267,M,M,M,210.00,9.00,M,30.10,M,10.00,M,BKN,M,M,M,7999.00,M,M,M,M,KJER 010655Z AUTO 21009KT 10SM BKN079 A3010 RMK MADISHF
JER,2017-04-01 07:00,-114.4566,42.7267,M,M,M,200.00,8.00,M,30.10,M,10.00,M,BKN,M,M,M,7999.00,M,M,M,M,KJER 010700Z AUTO 20008KT 10SM BKN079 A3010 RMK MADISHF
JER,2017-04-01 07:05,-114.4566,42.7267,M,M,M,210.00,8.00,M,30.10,M,10.00,M,OVC,M,M,M,7999.00,M,M,M,M,KJER 010705Z AUTO 21008KT 10SM OVC079 A3010 RMK MADISHF
JER,2017-04-01 07:10,-114.4566,42.7267,M,M,M,200.00,8.00,M,30.11,M,10.00,M,OVC,M,M,M,7999.00,M,M,M,M,KJER 010710Z AUTO 20008KT 10SM OVC079 A3011 RMK MADISHF
JER,2017-04-01 07:15,-114.4566,42.7267,M,M,M,200.00,8.00,M,30.11,M,10.00,M,OVC,M,M,M,7999.00,M,M,M,M,KJER 010715Z AUTO 20008KT 10SM OVC079 A3011 RMK MADISHF
JER,2017-04-01 07:20,-114.4566,42.7267,M,M,M,210.00,9.00,M,30.11,M,10.00,M,BKN,M,M,M,7999.00,M,M,M,M,KJER 010720Z AUTO 21009KT 10SM BKN079 A3011 RMK MADISHF
JER,2017-04-01 07:25,-114.4566,42.7267,M,M,M,200.00,8.00,M,30.11,M,10.00,M,BKN,M,M,M,7999.00,M,M,M,M,KJER 010725Z AUTO 20008KT 10SM BKN079 A3011 RMK MADISHF
JER,2017-04-01 07:30,-114.4566,42.7267,M,M,M,200.00,8.00,M,30.11,M,10.00,M,BKN,M,M,M,7999.00,M,M,M,M,KJER 010730Z AUTO 20008KT 10SM BKN079 A3011 RMK MADISHF
JER,2017-04-01 07:35,-114.4566,42.7267,M,M,M,210.00,8.00,M,30.11,M,10.00,M,SCT,M,M,M,7999.00,M,M,M,M,KJER 010735Z AUTO 21008KT 10SM SCT079 A3011 RMK MADISHF
JER,2017-04-01 07:40,-114.4566,42.7267,M,M,M,210.00,9.00,M,30.11,M,10.00,M,SCT,M,M,M,7999.00,M,M,M,M,KJER 010740Z AUTO 21009KT 10SM SCT079 A3011 RMK MADISHF
JER,2017-04-01 07:45,-114.4566,42.7267,M,M,M,200.00,7.00,M,30.11,M,10.00,M,FEW,M,M,M,7999.00,M,M,M,M,KJER 010745Z AUTO 20007KT 10SM FEW079 A3011 RMK MADISHF
JER,2017-04-01 07:50,-114.4566,42.7267,M,M,M,200.00,6.00,M,30.12,M,10.00,M,CLR,M,M,M,M,M,M,M,M,KJER 010750Z AUTO 20006KT 10SM CLR A3012 RMK MADISHF
JER,2017-04-01 07:53,-114.4566,42.7267,41.00,35.10,79.34,200.00,7.00,0.00,30.12,1019.70,10.00,M,CLR,M,M,M,M,M,M,M,M,KJER 010753Z AUTO 20007KT 10SM CLR 05/02 A3012 RMK AO2 SLP197 T00500017
JER,2017-04-01 07:55,-114.4566,42.7267,M,M,M,200.00,7.00,M,30.12,M,10.00,M,CLR,M,M,M,M,M,M,M,M,KJER 010755Z AUTO 20007KT 10SM CLR A3012 RMK MADISHF
JER,2017-04-01 08:00,-114.4566,42.7267,M,M,M,200.00,6.00,M,30.12,M,10.00,M,CLR,M,M,M,M,M,M,M,M,KJER 010800Z AUTO 20006KT 10SM CLR A3012 RMK MADISHF
JER,2017-04-01 08:05,-114.4566,42.7267,M,M,M,200.00,6.00,M,30.12,M,10.00,M,CLR,M,M,M,M,M,M,M,M,KJER 010805Z AUTO 20006KT 10SM CLR A3012 RMK MADISHF
JER,2017-04-01 08:10,-114.4566,42.7267,M,M,M,200.00,6.00,M,30.12,M,10.00,M,CLR,M,M,M,M,M,M,M,M,KJER 010810Z AUTO 20006KT 10SM CLR A3012 RMK MADISHF
JER,2017-04-01 08:15,-114.4566,42.7267,M,M,M,190.00,6.00,M,30.12,M,10.00,M,CLR,M,M,M,M,M,M,M,M,KJER 010815Z AUTO 19006KT 10SM CLR A3012 RMK MADISHF
JER,2017-04-01 08:20,-114.4566,42.7267,M,M,M,200.00,7.00,M,30.12,M,10.00,M,CLR,M,M,M,M,M,M,M,M,KJER 010820Z AUTO 20007KT 10SM CLR A3012 RMK MADISHF
JER,2017-04-01 08:25,-114.4566,42.7267,M,M,M,200.00,6.00,M,30.12,M,10.00,M,CLR,M,M,M,M,M,M,M,M,KJER 010825Z AUTO 20006KT 10SM CLR A3012 RMK MADISHF
JER,2017-04-01 08:30,-114.4566,42.7267,M,M,M,200.00,6.00,M,30.12,M,10.00,M,CLR,M,M,M,M,M,M,M,M,KJER 010830Z AUTO 20006KT 10SM CLR A3012 RMK MADISHF
JER,2017-04-01 08:35,-114.4566,42.7267,M,M,M,200.00,6.00,M,30.12,M,10.00,M,CLR,M,M,M,M,M,M,M,M,KJER 010835Z AUTO 20006KT 10SM CLR A3012 RMK MADISHF
JER,2017-04-01 08:40,-114.4566,42.7267,M,M,M,200.00,6.00,M,30.12,M,10.00,M,CLR,M,M,M,M,M,M,M,M,KJER 010840Z AUTO 20006KT 10SM CLR A3012 RMK MADISHF
JER,2017-04-01 08:45,-114.4566,42.7267,M,M,M,200.00,6.00,M,30.12,M,10.00,M,CLR,M,M,M,M,M,M,M,M,KJER 010845Z AUTO 20006KT 10SM CLR A3012 RMK MADISHF
JER,2017-04-01 08:50,-114.4566,42.7267,M,M,M,200.00,6.00,M,30.12,M,10.00,M,CLR,M,M,M,M,M,M,M,M,KJER 010850Z AUTO 20006KT 10SM CLR A3012 RMK MADISHF
JER,2017-04-01 08:53,-114.4566,42.7267,39.00,34.00,82.08,200.00,6.00,0.00,30.12,1019.70,10.00,M,CLR,M,M,M,M,M,M,M,M,KJER 010853Z AUTO 20006KT 10SM CLR 04/01 A3012 RMK AO2 SLP197 T00390011 51012
JER,2017-04-01 08:55,-114.4566,42.7267,M,M,M,210.00,6.00,M,30.12,M,10.00,M,CLR,M,M,M,M,M,M,M,M,KJER 010855Z AUTO 21006KT 10SM CLR A3012 RMK MADISHF
JER,2017-04-01 09:00,-114.4566,42.7267,M,M,M,200.00,6.00,M,30.12,M,10.00,M,CLR,M,M,M,M,M,M,M,M,KJER 010900Z AUTO 20006KT 10SM CLR A3012 RMK MADISHF
JER,2017-04-01 09:05,-114.4566,42.7267,M,M,M,200.00,6.00,M,30.12,M,10.00,M,CLR,M,M,M,M,M,M,M,M,KJER 010905Z AUTO 20006KT 10SM CLR A3012 RMK MADISHF
JER,2017-04-01 09:10,-114.4566,42.7267,M,M,M,200.00,6.00,M,30.12,M,10.00,M,CLR,M,M,M,M,M,M,M,M,KJER 010910Z AUTO 20006KT 10SM CLR A3012 RMK MADISHF
JER,2017-04-01 09:15,-114.4566,42.7267,M,M,M,200.00,6.00,M,30.12,M,10.00,M,CLR,M,M,M,M,M,M,M,M,KJER 010915Z AUTO 20006KT 10SM CLR A3012 RMK MADISHF
JER,2017-04-01 09:20,-114.4566,42.7267,M,M,M,200.00,7.00,M,30.13,M,10.00,M,CLR,M,M,M,M,M,M,M,M,KJER 010920Z AUTO 20007KT 10SM CLR A3013 RMK MADISHF
JER,2017-04-01 09:25,-114.4566,42.7267,M,M,M,210.00,8.00,M,30.13,M,10.00,M,CLR,M,M,M,M,M,M,M,M,KJER 010925Z AUTO 21008KT 10SM CLR A3013 RMK MADISHF
JER,2017-04-01 09:30,-114.4566,42.7267,M,M,M,210.00,7.00,M,30.13,M,10.00,M,CLR,M,M,M,M,M,M,M,M,KJER 010930Z AUTO 21007KT 10SM CLR A3013 RMK MADISHF
JER,2017-04-01 09:35,-114.4566,42.7267,M,M,M,200.00,6.00,M,30.13,M,10.00,M,CLR,M,M,M,M,M,M,M,M,KJER 010935Z AUTO 20006KT 10SM CLR A3013 RMK MADISHF
JER,2017-04-01 09:40,-114.4566,42.7267,M,M,M,200.00,6.00,M,30.13,M,10.00,M,CLR,M,M,M,M,M,M,M,M,KJER 010940Z AUTO 20006KT 10SM CLR A3013 RMK MADISHF
JER,2017-04-01 09:45,-114.4566,42.7267,M,M,M,210.00,7.00,M,30.13,M,10.00,M,CLR,M,M,M,M,M,M,M,M,KJER 010945Z AUTO 21007KT 10SM CLR A3013 RMK MADISHF
JER,2017-04-01 09:50,-114.4566,42.7267,M,M,M,210.00,6.00,M,30.13,M,10.00,M,CLR,M,M,M,M,M,M,M,M,KJER 010950Z AUTO 21006KT 10SM CLR A3013 RMK MADISHF
JER,2017-04-01 09:53,-114.4566,42.7267,37.90,33.10,82.66,200.00,6.00,0.00,30.13,1019.90,10.00,M,CLR,M,M,M,M,M,M,M,M,KJER 010953Z AUTO 20006KT 10SM CLR 03/01 A3013 RMK AO2 SLP199 T00330006
JER,2017-04-01 09:55,-114.4566,42.7267,M,M,M,200.00,6.00,M,30.13,M,10.00,M,CLR,M,M,M,M,M,M,M,M,KJER 010955Z AUTO 20006KT 10SM CLR A3013 RMK MADISHF
JER,2017-04-01 10:00,-114.4566,42.7267,M,M,M,190.00,6.00,M,30.13,M,10.00,M,CLR,M,M,M,M,M,M,M,M,KJER 011000Z AUTO 19006KT 10SM CLR A3013 RMK MADISHF
JER,2017-04-01 10:05,-114.4566,42.7267,M,M,M,200.00,6.00,M,30.13,M,10.00,M,CLR,M,M,M,M,M,M,M,M,KJER 011005Z AUTO 20006KT 10SM CLR A3013 RMK MADISHF
JER,2017-04-01 10:10,-114.4566,42.7267,M,M,M,190.00,6.00,M,30.13,M,10.00,M,CLR,M,M,M,M,M,M,M,M,KJER 011010Z AUTO 19006KT 10SM CLR A3013 RMK MADISHF
JER,2017-04-01 10:15,-114.4566,42.7267,M,M,M,180.00,6.00,M,30.13,M,10.00,M,CLR,M,M,M,M,M,M,M,M,KJER 011015Z AUTO 18006KT 10SM CLR A3013 RMK MADISHF
JER,2017-04-01 10:20,-114.4566,42.7267,M,M,M,170.00,6.00,M,30.13,M,10.00,M,CLR,M,M,M,M,M,M,M,M,KJER 011020Z AUTO 17006KT 10SM CLR A3013 RMK MADISHF
JER,2017-04-01 10:25,-114.4566,42.7267,M,M,M,170.00,6.00,M,30.13,M,10.00,M,CLR,M,M,M,M,M,M,M,M,KJER 011025Z AUTO 17006KT 10SM CLR A3013 RMK MADISHF
JER,2017-04-01 10:30,-114.4566,42.7267,M,M,M,170.00,6.00,M,30.13,M,10.00,M,CLR,M,M,M,M,M,M,M,M,KJER 011030Z AUTO 17006KT 10SM CLR A3013 RMK MADISHF
JER,2017-04-01 10:35,-114.4566,42.7267,M,M,M,180.00,6.00,M,30.13,M,10.00,M,CLR,M,M,M,M,M,M,M,M,KJER 011035Z AUTO 18006KT 10SM CLR A3013 RMK MADISHF
JER,2017-04-01 10:40,-114.4566,42.7267,M,M,M,170.00,6.00,M,30.13,M,10.00,M,CLR,M,M,M,M,M,M,M,M,KJER 011040Z AUTO 17006KT 10SM CLR A3013 RMK MADISHF
JER,2017-04-01 10:45,-114.4566,42.7267,M,M,M,180.00,6.00,M,30.13,M,10.00,M,CLR,M,M,M,M,M,M,M,M,KJER 011045Z AUTO 18006KT 10SM CLR A3013 RMK MADISHF
JER,2017-04-01 10:50,-114.4566,42.7267,M,M,M,170.00,6.00,M,30.13,M,10.00,M,CLR,M,M,M,M,M,M,M,M,KJER 011050Z AUTO 17006KT 10SM CLR A3013 RMK MADISHF
JER,2017-04-01 10:53,-114.4566,42.7267,36.00,33.10,89.09,170.00,5.00,0.00,30.13,1020.10,10.00,M,CLR,M,M,M,M,M,M,M,M,KJER 011053Z AUTO 17005KT 10SM CLR 02/01 A3013 RMK AO2 SLP201 T00220006
JER,2017-04-01 10:55,-114.4566,42.7267,M,M,M,180.00,5.00,M,30.13,M,10.00,M,CLR,M,M,M,M,M,M,M,M,KJER 011055Z AUTO 18005KT 10SM CLR A3013 RMK MADISHF
JER,2017-04-01 11:00,-114.4566,42.7267,M,M,M,180.00,6.00,M,30.13,M,10.00,M,CLR,M,M,M,M,M,M,M,M,KJER 011100Z AUTO 18006KT 10SM CLR A3013 RMK MADISHF
JER,2017-04-01 11:05,-114.4566,42.7267,M,M,M,180.00,7.00,M,30.13,M,10.00,M,CLR,M,M,M,M,M,M,M,M,KJER 011105Z AUTO 18007KT 10SM CLR A3013 RMK MADISHF
JER,2017-04-01 11:10,-114.4566,42.7267,M,M,M,180.00,6.00,M,30.13,M,10.00,M,CLR,M,M,M,M,M,M,M,M,KJER 011110Z AUTO 18006KT 10SM CLR A3013 RMK MADISHF
JER,2017-04-01 11:15,-114.4566,42.7267,M,M,M,180.00,6.00,M,30.13,M,10.00,M,CLR,M,M,M,M,M,M,M,M,KJER 011115Z AUTO 18006KT 10SM CLR A3013 RMK MADISHF
JER,2017-04-01 11:20,-114.4566,42.7267,M,M,M,180.00,6.00,M,30.13,M,10.00,M,CLR,M,M,M,M,M,M,M,M,KJER 011120Z AUTO 18006KT 10SM CLR A3013 RMK MADISHF
JER,2017-04-01 11:25,-114.4566,42.7267,M,M,M,180.00,6.00,M,30.13,M,10.00,M,CLR,M,M,M,M,M,M,M,M,KJER 011125Z AUTO 18006KT 10SM CLR A3013 RMK MADISHF
JER,2017-04-01 11:30,-114.4566,42.7267,M,M,M,190.00,6.00,M,30.13,M,10.00,M,CLR,M,M,M,M,M,M,M,M,KJER 011130Z AUTO 19006KT 10SM CLR A3013 RMK MADISHF
JER,2017-04-01 11:35,-114.4566,42.7267,M,M,M,190.00,6.00,M,30.13,M,10.00,M,CLR,M,M,M,M,M,M,M,M,KJER 011135Z AUTO 19006KT 10SM CLR A3013 RMK MADISHF
JER,2017-04-01 11:40,-114.4566,42.7267,M,M,M,200.00,6.00,M,30.14,M,10.00,M,CLR,M,M,M,M,M,M,M,M,KJER 011140Z AUTO 20006KT 10SM CLR A3014 RMK MADISHF
JER,2017-04-01 11:45,-114.4566,42.7267,M,M,M,190.00,6.00,M,30.14,M,10.00,M,CLR,M,M,M,M,M,M,M,M,KJER 011145Z AUTO 19006KT 10SM CLR A3014 RMK MADISHF
JER,2017-04-01 11:50,-114.4566,42.7267,M,M,M,190.00,5.00,M,30.14,M,10.00,M,CLR,M,M,M,M,M,M,M,M,KJER 011150Z AUTO 19005KT 10SM CLR A3014 RMK MADISHF
JER,2017-04-01 11:53,-114.4566,42.7267,35.10,32.00,88.33,190.00,5.00,0.00,30.14,1020.40,10.00,M,CLR,M,M,M,M,M,M,M,M,KJER 011153Z AUTO 19005KT 10SM CLR 02/00 A3014 RMK AO2 SLP204 T00170000 10067 20017 51005
JER,2017-04-01 11:55,-114.4566,42.7267,M,M,M,190.00,6.00,M,30.14,M,10.00,M,CLR,M,M,M,M,M,M,M,M,KJER 011155Z AUTO 19006KT 10SM CLR A3014 RMK MADISHF
JER,2017-04-01 12:00,-114.4566,42.7267,M,M,M,200.00,6.00,M,30.14,M,10.00,M,CLR,M,M,M,M,M,M,M,M,KJER 011200Z AUTO 20006KT 10SM CLR A3014 RMK MADISHF
JER,2017-04-01 12:05,-114.4566,42.7267,M,M,M,190.00,6.00,M,30.14,M,10.00,M,CLR,M,M,M,M,M,M,M,M,KJER 011205Z AUTO 19006KT 10SM CLR A3014 RMK MADISHF
JER,2017-04-01 12:10,-114.4566,42.7267,M,M,M,190.00,5.00,M,30.13,M,10.00,M,CLR,M,M,M,M,M,M,M,M,KJER 011210Z AUTO 19005KT 10SM CLR A3013 RMK MADISHF
JER,2017-04-01 12:15,-114.4566,42.7267,M,M,M,190.00,5.00,M,30.13,M,10.00,M,CLR,M,M,M,M,M,M,M,M,KJER 011215Z AUTO 19005KT 10SM CLR A3013 RMK MADISHF
JER,2017-04-01 12:20,-114.4566,42.7267,M,M,M,190.00,5.00,M,30.14,M,10.00,M,CLR,M,M,M,M,M,M,M,M,KJER 011220Z AUTO 19005KT 10SM CLR A3014 RMK MADISHF
JER,2017-04-01 12:25,-114.4566,42.7267,M,M,M,200.00,5.00,M,30.14,M,10.00,M,CLR,M,M,M,M,M,M,M,M,KJER 011225Z AUTO 20005KT 10SM CLR A3014 RMK MADISHF
JER,2017-04-01 12:30,-114.4566,42.7267,M,M,M,190.00,5.00,M,30.13,M,10.00,M,CLR,M,M,M,M,M,M,M,M,KJER 011230Z AUTO 19005KT 10SM CLR A3013 RMK MADISHF
JER,2017-04-01 12:35,-114.4566,42.7267,M,M,M,190.00,6.00,M,30.14,M,10.00,M,CLR,M,M,M,M,M,M,M,M,KJER 011235Z AUTO 19006KT 10SM CLR A3014 RMK MADISHF
JER,2017-04-01 12:40,-114.4566,42.7267,M,M,M,180.00,6.00,M,30.14,M,10.00,M,CLR,M,M,M,M,M,M,M,M,KJER 011240Z AUTO 18006KT 10SM CLR A3014 RMK MADISHF
JER,2017-04-01 12:45,-114.4566,42.7267,M,M,M,170.00,5.00,M,30.14,M,10.00,M,CLR,M,M,M,M,M,M,M,M,KJER 011245Z AUTO 17005KT 10SM CLR A3014 RMK MADISHF
JER,2017-04-01 12:50,-114.4566,42.7267,M,M,M,170.00,5.00,M,30.14,M,10.00,M,CLR,M,M,M,M,M,M,M,M,KJER 011250Z AUTO 17005KT 10SM CLR A3014 RMK MADISHF
JER,2017-04-01 12:53,-114.4566,42.7267,35.10,30.90,84.49,170.00,5.00,0.00,30.14,1020.80,10.00,M,CLR,M,M,M,M,M,M,M,M,KJER 011253Z AUTO 17005KT 10SM CLR 02/M01 A3014 RMK AO2 SLP208 T00171006
JER,2017-04-01 12:55,-114.4566,42.7267,M,M,M,170.00,5.00,M,30.15,M,10.00,M,CLR,M,M,M,M,M,M,M,M,KJER 011255Z AUTO 17005KT 10SM CLR A3015 RMK MADISHF
JER,2017-04-01 13:00,-114.4566,42.7267,M,M,M,170.00,5.00,M,30.15,M,10.00,M,CLR,M,M,M,M,M,M,M,M,KJER 011300Z AUTO 17005KT 10SM CLR A3015 RMK MADISHF
JER,2017-04-01 13:05,-114.4566,42.7267,M,M,M,170.00,5.00,M,30.15,M,10.00,M,CLR,M,M,M,M,M,M,M,M,KJER 011305Z AUTO 17005KT 10SM CLR A3015 RMK MADISHF
JER,2017-04-01 13:10,-114.4566,42.7267,M,M,M,170.00,5.00,M,30.16,M,10.00,M,CLR,M,M,M,M,M,M,M,M,KJER 011310Z AUTO 17005KT 10SM CLR A3016 RMK MADISHF
JER,2017-04-01 13:15,-114.4566,42.7267,M,M,M,170.00,4.00,M,30.16,M,10.00,M,CLR,M,M,M,M,M,M,M,M,KJER 011315Z AUTO 17004KT 10SM CLR A3016 RMK MADISHF
JER,2017-04-01 13:20,-114.4566,42.7267,M,M,M,180.00,5.00,M,30.16,M,10.00,M,CLR,M,M,M,M,M,M,M,M,KJER 011320Z AUTO 18005KT 10SM CLR A3016 RMK MADISHF
JER,2017-04-01 13:25,-114.4566,42.7267,M,M,M,170.00,5.00,M,30.16,M,10.00,M,CLR,M,M,M,M,M,M,M,M,KJER 011325Z AUTO 17005KT 10SM CLR A3016 RMK MADISHF
JER,2017-04-01 13:30,-114.4566,42.7267,M,M,M,160.00,6.00,M,30.16,M,10.00,M,CLR,M,M,M,M,M,M,M,M,KJER 011330Z AUTO 16006KT 10SM CLR A3016 RMK MADISHF
JER,2017-04-01 13:35,-114.4566,42.7267,M,M,M,160.00,6.00,M,30.15,M,10.00,M,CLR,M,M,M,M,M,M,M,M,KJER 011335Z AUTO 16006KT 10SM CLR A3015 RMK MADISHF
JER,2017-04-01 13:40,-114.4566,42.7267,M,M,M,160.00,6.00,M,30.15,M,10.00,M,CLR,M,M,M,M,M,M,M,M,KJER 011340Z AUTO 16006KT 10SM CLR A3015 RMK MADISHF
JER,2017-04-01 13:45,-114.4566,42.7267,M,M,M,160.00,6.00,M,30.15,M,10.00,M,CLR,M,M,M,M,M,M,M,M,KJER 011345Z AUTO 16006KT 10SM CLR A3015 RMK MADISHF
JER,2017-04-01 13:50,-114.4566,42.7267,M,M,M,170.00,5.00,M,30.16,M,10.00,M,CLR,M,M,M,M,M,M,M,M,KJER 011350Z AUTO 17005KT 10SM CLR A3016 RMK MADISHF
JER,2017-04-01 13:53,-114.4566,42.7267,35.10,32.00,88.33,170.00,6.00,0.00,30.16,1021.70,10.00,M,CLR,M,M,M,M,M,M,M,M,KJER 011353Z AUTO 17006KT 10SM CLR 02/00 A3016 RMK AO2 SLP217 T00170000
JER,2017-04-01 13:55,-114.4566,42.7267,M,M,M,170.00,5.00,M,30.16,M,10.00,M,CLR,M,M,M,M,M,M,M,M,KJER 011355Z AUTO 17005KT 10SM CLR A3016 RMK MADISHF
JER,2017-04-01 14:00,-114.4566,42.7267,M,M,M,170.00,5.00,M,30.16,M,10.00,M,CLR,M,M,M,M,M,M,M,M,KJER 011400Z AUTO 17005KT 10SM CLR A3016 RMK MADISHF
JER,2017-04-01 14:05,-114.4566,42.7267,M,M,M,170.00,6.00,M,30.16,M,10.00,M,CLR,M,M,M,M,M,M,M,M,KJER 011405Z AUTO 17006KT 10SM CLR A3016 RMK MADISHF
JER,2017-04-01 14:10,-114.4566,42.7267,M,M,M,160.00,5.00,M,30.17,M,10.00,M,CLR,M,M,M,M,M,M,M,M,KJER 011410Z AUTO 16005KT 10SM CLR A3017 RMK MADISHF
JER,2017-04-01 14:15,-114.4566,42.7267,M,M,M,160.00,5.00,M,30.17,M,10.00,M,CLR,M,M,M,M,M,M,M,M,KJER 011415Z AUTO 16005KT 10SM CLR A3017 RMK MADISHF
JER,2017-04-01 14:20,-114.4566,42.7267,M,M,M,170.00,5.00,M,30.17,M,10.00,M,CLR,M,M,M,M,M,M,M,M,KJER 011420Z AUTO 17005KT 10SM CLR A3017 RMK MADISHF
JER,2017-04-01 14:25,-114.4566,42.7267,M,M,M,180.00,5.00,M,30.18,M,10.00,M,CLR,M,M,M,M,M,M,M,M,KJER 011425Z AUTO 18005KT 10SM CLR A3018 RMK MADISHF
JER,2017-04-01 14:30,-114.4566,42.7267,M,M,M,190.00,5.00,M,30.18,M,10.00,M,CLR,M,M,M,M,M,M,M,M,KJER 011430Z AUTO 19005KT 10SM CLR A3018 RMK MADISHF
JER,2017-04-01 14:35,-114.4566,42.7267,M,M,M,190.00,5.00,M,30.17,M,10.00,M,CLR,M,M,M,M,M,M,M,M,KJER 011435Z AUTO 19005KT 10SM CLR A3017 RMK MADISHF
JER,2017-04-01 14:40,-114.4566,42.7267,M,M,M,180.00,5.00,M,30.17,M,10.00,M,CLR,M,M,M,M,M,M,M,M,KJER 011440Z AUTO 18005KT 10SM CLR A3017 RMK MADISHF
JER,2017-04-01 14:45,-114.4566,42.7267,M,M,M,190.00,6.00,M,30.17,M,10.00,M,CLR,M,M,M,M,M,M,M,M,KJER 011445Z AUTO 19006KT 10SM CLR A3017 RMK MADISHF
JER,2017-04-01 14:50,-114.4566,42.7267,M,M,M,180.00,7.00,M,30.17,M,10.00,M,CLR,M,M,M,M,M,M,M,M,KJER 011450Z AUTO 18007KT 10SM CLR A3017 RMK MADISHF
JER,2017-04-01 14:53,-114.4566,42.7267,39.00,34.00,82.08,190.00,6.00,0.00,30.17,1022.00,10.00,M,CLR,M,M,M,M,M,M,M,M,KJER 011453Z AUTO 19006KT 10SM CLR 04/01 A3017 RMK AO2 SLP220 T00390011 53011
JER,2017-04-01 14:55,-114.4566,42.7267,M,M,M,190.00,6.00,M,30.17,M,10.00,M,CLR,M,M,M,M,M,M,M,M,KJER 011455Z AUTO 19006KT 10SM CLR A3017 RMK MADISHF
JER,2017-04-01 15:00,-114.4566,42.7267,M,M,M,190.00,7.00,M,30.17,M,10.00,M,CLR,M,M,M,M,M,M,M,M,KJER 011500Z AUTO 19007KT 10SM CLR A3017 RMK MADISHF
JER,2017-04-01 15:05,-114.4566,42.7267,M,M,M,200.00,8.00,M,30.17,M,10.00,M,CLR,M,M,M,M,M,M,M,M,KJER 011505Z AUTO 20008KT 10SM CLR A3017 RMK MADISHF
JER,2017-04-01 15:10,-114.4566,42.7267,M,M,M,210.00,8.00,M,30.17,M,10.00,M,CLR,M,M,M,M,M,M,M,M,KJER 011510Z AUTO 21008KT 10SM CLR A3017 RMK MADISHF
JER,2017-04-01 15:15,-114.4566,42.7267,M,M,M,210.00,9.00,M,30.17,M,10.00,M,CLR,M,M,M,M,M,M,M,M,KJER 011515Z AUTO 21009KT 10SM CLR A3017 RMK MADISHF
JER,2017-04-01 15:20,-114.4566,42.7267,M,M,M,210.00,8.00,M,30.17,M,10.00,M,CLR,M,M,M,M,M,M,M,M,KJER 011520Z AUTO 21008KT 10SM CLR A3017 RMK MADISHF
JER,2017-04-01 15:25,-114.4566,42.7267,M,M,M,210.00,9.00,M,30.17,M,10.00,M,CLR,M,M,M,M,M,M,M,M,KJER 011525Z AUTO 21009KT 10SM CLR A3017 RMK MADISHF
JER,2017-04-01 15:30,-114.4566,42.7267,M,M,M,210.00,9.00,M,30.17,M,10.00,M,CLR,M,M,M,M,M,M,M,M,KJER 011530Z AUTO 21009KT 10SM CLR A3017 RMK MADISHF
JER,2017-04-01 15:35,-114.4566,42.7267,M,M,M,210.00,10.00,M,30.16,M,10.00,M,CLR,M,M,M,M,M,M,M,M,KJER 011535Z AUTO 21010KT 10SM CLR A3016 RMK MADISHF
JER,2017-04-01 15:40,-114.4566,42.7267,M,M,M,210.00,10.00,M,30.17,M,10.00,M,CLR,M,M,M,M,M,M,M,M,KJER 011540Z AUTO 21010KT 10SM CLR A3017 RMK MADISHF
JER,2017-04-01 15:45,-114.4566,42.7267,M,M,M,220.00,12.00,M,30.17,M,10.00,M,CLR,M,M,M,M,M,M,M,M,KJER 011545Z AUTO 22012KT 10SM CLR A3017 RMK MADISHF
JER,2017-04-01 15:50,-114.4566,42.7267,M,M,M,230.00,12.00,M,30.17,M,10.00,M,CLR,M,M,M,M,M,M,M,M,KJER 011550Z AUTO 23012KT 10SM CLR A3017 RMK MADISHF
JER,2017-04-01 15:53,-114.4566,42.7267,43.00,34.00,70.30,230.00,10.00,0.00,30.17,1021.90,10.00,M,CLR,M,M,M,M,M,M,M,M,KJER 011553Z AUTO 23010KT 10SM CLR 06/01 A3017 RMK AO2 SLP219 T00610011
JER,2017-04-01 15:55,-114.4566,42.7267,M,M,M,230.00,11.00,M,30.17,M,10.00,M,CLR,M,M,M,M,M,M,M,M,KJER 011555Z AUTO 23011KT 10SM CLR A3017 RMK MADISHF
JER,2017-04-01 16:00,-114.4566,42.7267,M,M,M,230.00,10.00,M,30.17,M,10.00,M,CLR,M,M,M,M,M,M,M,M,KJER 011600Z AUTO 23010KT 10SM CLR A3017 RMK MADISHF
JER,2017-04-01 16:05,-114.4566,42.7267,M,M,M,230.00,11.00,M,30.18,M,10.00,M,CLR,M,M,M,M,M,M,M,M,KJER 011605Z AUTO 23011KT 10SM CLR A3018 RMK MADISHF
JER,2017-04-01 16:10,-114.4566,42.7267,M,M,M,240.00,11.00,M,30.18,M,10.00,M,CLR,M,M,M,M,M,M,M,M,KJER 011610Z AUTO 24011KT 10SM CLR A3018 RMK MADISHF
JER,2017-04-01 16:15,-114.4566,42.7267,M,M,M,250.00,11.00,M,30.18,M,10.00,M,CLR,M,M,M,M,M,M,M,M,KJER 011615Z AUTO 25011KT 10SM CLR A3018 RMK MADISHF
JER,2017-04-01 16:20,-114.4566,42.7267,M,M,M,250.00,11.00,M,30.18,M,10.00,M,CLR,M,M,M,M,M,M,M,M,KJER 011620Z AUTO 25011KT 10SM CLR A3018 RMK MADISHF
JER,2017-04-01 16:25,-114.4566,42.7267,M,M,M,240.00,10.00,M,30.18,M,10.00,M,CLR,M,M,M,M,M,M,M,M,KJER 011625Z AUTO 24010KT 10SM CLR A3018 RMK MADISHF
JER,2017-04-01 16:30,-114.4566,42.7267,M,M,M,230.00,10.00,M,30.18,M,10.00,M,CLR,M,M,M,M,M,M,M,M,KJER 011630Z AUTO 23010KT 10SM CLR A3018 RMK MADISHF
JER,2017-04-01 16:35,-114.4566,42.7267,M,M,M,240.00,10.00,M,30.18,M,10.00,M,CLR,M,M,M,M,M,M,M,M,KJER 011635Z AUTO 24010KT 10SM CLR A3018 RMK MADISHF
JER,2017-04-01 16:40,-114.4566,42.7267,M,M,M,250.00,10.00,M,30.18,M,10.00,M,CLR,M,M,M,M,M,M,M,M,KJER 011640Z AUTO 25010KT 10SM CLR A3018 RMK MADISHF
JER,2017-04-01 16:45,-114.4566,42.7267,M,M,M,230.00,9.00,M,30.17,M,10.00,M,CLR,M,M,M,M,M,M,M,M,KJER 011645Z AUTO 23009KT 10SM CLR A3017 RMK MADISHF
JER,2017-04-01 16:50,-114.4566,42.7267,M,M,M,220.00,10.00,M,30.17,M,10.00,M,CLR,M,M,M,M,M,M,M,M,KJER 011650Z AUTO 22010KT 10SM CLR A3017 RMK MADISHF
JER,2017-04-01 16:53,-114.4566,42.7267,45.00,35.10,68.05,220.00,9.00,0.00,30.17,1021.80,10.00,M,CLR,M,M,M,M,M,M,M,M,KJER 011653Z AUTO 22009KT 10SM CLR 07/02 A3017 RMK AO2 SLP218 T00720017
JER,2017-04-01 16:55,-114.4566,42.7267,M,M,M,230.00,9.00,M,30.17,M,10.00,M,CLR,M,M,M,M,M,M,M,M,KJER 011655Z AUTO 23009KT 10SM CLR A3017 RMK MADISHF
JER,2017-04-01 17:00,-114.4566,42.7267,M,M,M,220.00,10.00,M,30.17,M,10.00,M,CLR,M,M,M,M,M,M,M,M,KJER 011700Z AUTO 22010KT 10SM CLR A3017 RMK MADISHF
JER,2017-04-01 17:05,-114.4566,42.7267,M,M,M,210.00,10.00,M,30.17,M,10.00,M,CLR,M,M,M,M,M,M,M,M,KJER 011705Z AUTO 21010KT 10SM CLR A3017 RMK MADISHF
JER,2017-04-01 17:10,-114.4566,42.7267,M,M,M,210.00,10.00,M,30.17,M,10.00,M,CLR,M,M,M,M,M,M,M,M,KJER 011710Z AUTO 21010KT 10SM CLR A3017 RMK MADISHF
JER,2017-04-01 17:15,-114.4566,42.7267,M,M,M,210.00,12.00,M,30.17,M,10.00,M,CLR,M,M,M,M,M,M,M,M,KJER 011715Z AUTO 21012KT 10SM CLR A3017 RMK MADISHF
JER,2017-04-01 17:20,-114.4566,42.7267,M,M,M,220.00,13.00,M,30.18,M,10.00,M,CLR,M,M,M,M,M,M,M,M,KJER 011720Z AUTO 22013KT 10SM CLR A3018 RMK MADISHF
JER,2017-04-01 17:25,-114.4566,42.7267,M,M,M,M,M,M,30.18,M,10.00,M,CLR,M,M,M,M,M,M,M,M,KJER 011725Z AUTO /////KT 10SM CLR A3018 RMK MADISHF
JER,2017-04-01 17:30,-114.4566,42.7267,M,M,M,220.00,11.00,M,30.17,M,10.00,M,CLR,M,M,M,M,M,M,M,M,KJER 011730Z AUTO 22011KT 10SM CLR A3017 RMK MADISHF
JER,2017-04-01 17:35,-114.4566,42.7267,M,M,M,220.00,11.00,M,30.17,M,10.00,M,CLR,M,M,M,M,M,M,M,M,KJER 011735Z AUTO 22011KT 10SM CLR A3017 RMK MADISHF
JER,2017-04-01 17:40,-114.4566,42.7267,M,M,M,230.00,12.00,M,30.17,M,10.00,M,CLR,M,M,M,M,M,M,M,M,KJER 011740Z AUTO 23012KT 10SM CLR A3017 RMK MADISHF
JER,2017-04-01 17:45,-114.4566,42.7267,M,M,M,220.00,13.00,M,30.17,M,10.00,M,CLR,M,M,M,M,M,M,M,M,KJER 011745Z AUTO 22013KT 10SM CLR A3017 RMK MADISHF
JER,2017-04-01 17:50,-114.4566,42.7267,M,M,M,M,M,M,30.17,M,10.00,M,CLR,M,M,M,M,M,M,M,M,KJER 011750Z AUTO /////KT 10SM CLR A3017 RMK MADISHF
JER,2017-04-01 17:53,-114.4566,42.7267,48.90,36.00,60.88,230.00,13.00,0.00,30.17,1021.50,10.00,M,CLR,M,M,M,M,M,M,M,M,KJER 011753Z AUTO 23013KT 10SM CLR 09/02 A3017 RMK AO2 SLP215 T00940022 10094 20011 50000
JER,2017-04-01 17:55,-114.4566,42.7267,M,M,M,230.00,14.00,M,30.17,M,10.00,M,CLR,M,M,M,M,M,M,M,M,KJER 011755Z AUTO 23014KT 10SM CLR A3017 RMK MADISHF
JER,2017-04-01 18:00,-114.4566,42.7267,M,M,M,240.00,13.00,M,30.17,M,10.00,M,CLR,M,M,M,M,M,M,M,M,KJER 011800Z AUTO 24013KT 10SM CLR A3017 RMK MADISHF
JER,2017-04-01 18:05,-114.4566,42.7267,M,M,M,230.00,15.00,M,30.17,M,10.00,M,CLR,M,M,M,M,M,M,M,M,KJER 011805Z AUTO 23015KT 10SM CLR A3017 RMK MADISHF
JER,2017-04-01 18:10,-114.4566,42.7267,M,M,M,220.00,13.00,M,30.17,M,10.00,M,CLR,M,M,M,M,M,M,M,M,KJER 011810Z AUTO 22013KT 10SM CLR A3017 RMK MADISHF
JER,2017-04-01 18:15,-114.4566,42.7267,M,M,M,230.00,13.00,M,30.17,M,10.00,M,CLR,M,M,M,M,M,M,M,M,KJER 011815Z AUTO 23013KT 10SM CLR A3017 RMK MADISHF
JER,2017-04-01 18:20,-114.4566,42.7267,M,M,M,240.00,13.00,M,30.17,M,10.00,M,CLR,M,M,M,M,M,M,M,M,KJER 011820Z AUTO 24013KT 10SM CLR A3017 RMK MADISHF
JER,2017-04-01 18:25,-114.4566,42.7267,M,M,M,230.00,15.00,M,30.17,M,10.00,20.00,CLR,M,M,M,M,M,M,M,M,KJER 011825Z AUTO 23015G20KT 10SM CLR A3017 RMK MADISHF
JER,2017-04-01 18:30,-114.4566,42.7267,M,M,M,230.00,15.00,M,30.17,M,10.00,M,CLR,M,M,M,M,M,M,M,M,KJER 011830Z AUTO 23015KT 10SM CLR A3017 RMK MADISHF
JER,2017-04-01 18:35,-114.4566,42.7267,M,M,M,250.00,14.00,M,30.17,M,10.00,M,CLR,M,M,M,M,M,M,M,M,KJER 011835Z AUTO 25014KT 10SM CLR A3017 RMK MADISHF
JER,2017-04-01 18:40,-114.4566,42.7267,M,M,M,240.00,15.00,M,30.17,M,10.00,M,CLR,M,M,M,M,M,M,M,M,KJER 011840Z AUTO 24015KT 10SM CLR A3017 RMK MADISHF
JER,2017-04-01 18:45,-114.4566,42.7267,M,M,M,230.00,13.00,M,30.17,M,10.00,M,CLR,M,M,M,M,M,M,M,M,KJER 011845Z AUTO 23013KT 10SM CLR A3017 RMK MADISHF
JER,2017-04-01 18:50,-114.4566,42.7267,M,M,M,250.00,13.00,M,30.16,M,10.00,M,CLR,M,M,M,M,M,M,M,M,KJER 011850Z AUTO 25013KT 10SM CLR A3016 RMK MADISHF
JER,2017-04-01 18:53,-114.4566,42.7267,52.00,36.00,54.26,240.00,13.00,0.00,30.16,1020.90,10.00,M,CLR,M,M,M,M,M,M,M,M,KJER 011853Z AUTO 24013KT 10SM CLR 11/02 A3016 RMK AO2 SLP209 T01110022
JER,2017-04-01 18:55,-114.4566,42.7267,M,M,M,240.00,13.00,M,30.16,M,10.00,M,CLR,M,M,M,M,M,M,M,M,KJER 011855Z AUTO 24013KT 10SM CLR A3016 RMK MADISHF
JER,2017-04-01 19:00,-114.4566,42.7267,M,M,M,250.00,14.00,M,30.15,M,10.00,M,CLR,M,M,M,M,M,M,M,M,KJER 011900Z AUTO 25014KT 10SM CLR A3015 RMK MADISHF
JER,2017-04-01 19:05,-114.4566,42.7267,M,M,M,240.00,14.00,M,30.15,M,10.00,M,CLR,M,M,M,M,M,M,M,M,KJER 011905Z AUTO 24014KT 10SM CLR A3015 RMK MADISHF
JER,2017-04-01 19:10,-114.4566,42.7267,M,M,M,250.00,12.00,M,30.15,M,10.00,M,CLR,M,M,M,M,M,M,M,M,KJER 011910Z AUTO 25012KT 10SM CLR A3015 RMK MADISHF
JER,2017-04-01 19:15,-114.4566,42.7267,M,M,M,240.00,14.00,M,30.15,M,10.00,M,CLR,M,M,M,M,M,M,M,M,KJER 011915Z AUTO 24014KT 10SM CLR A3015 RMK MADISHF
JER,2017-04-01 19:20,-114.4566,42.7267,M,M,M,250.00,14.00,M,30.15,M,10.00,19.00,CLR,M,M,M,M,M,M,M,M,KJER 011920Z AUTO 25014G19KT 10SM CLR A3015 RMK MADISHF
JER,2017-04-01 19:25,-114.4566,42.7267,M,M,M,240.00,15.00,M,30.15,M,10.00,M,CLR,M,M,M,M,M,M,M,M,KJER 011925Z AUTO 24015KT 10SM CLR A3015 RMK MADISHF
JER,2017-04-01 19:30,-114.4566,42.7267,M,M,M,240.00,13.00,M,30.15,M,10.00,18.00,CLR,M,M,M,M,M,M,M,M,KJER 011930Z AUTO 24013G18KT 10SM CLR A3015 RMK MADISHF
JER,2017-04-01 19:35,-114.4566,42.7267,M,M,M,240.00,12.00,M,30.15,M,10.00,17.00,CLR,M,M,M,M,M,M,M,M,KJER 011935Z AUTO 24012G17KT 10SM CLR A3015 RMK MADISHF
JER,2017-04-01 19:40,-114.4566,42.7267,M,M,M,240.00,13.00,M,30.14,M,10.00,M,CLR,M,M,M,M,M,M,M,M,KJER 011940Z AUTO 24013KT 10SM CLR A3014 RMK MADISHF
JER,2017-04-01 19:45,-114.4566,42.7267,M,M,M,240.00,16.00,M,30.14,M,10.00,M,CLR,M,M,M,M,M,M,M,M,KJER 011945Z AUTO 24016KT 10SM CLR A3014 RMK MADISHF
JER,2017-04-01 19:50,-114.4566,42.7267,M,M,M,240.00,14.00,M,30.14,M,10.00,M,CLR,M,M,M,M,M,M,M,M,KJER 011950Z AUTO 24014KT 10SM CLR A3014 RMK MADISHF
JER,2017-04-01 19:53,-114.4566,42.7267,54.00,36.00,50.42,240.00,13.00,0.00,30.14,1020.20,10.00,21.00,CLR,M,M,M,M,M,M,M,M,KJER 011953Z AUTO 24013G21KT 10SM CLR 12/02 A3014 RMK AO2 SLP202 T01220022
JER,2017-04-01 19:55,-114.4566,42.7267,M,M,M,230.00,15.00,M,30.14,M,10.00,M,CLR,M,M,M,M,M,M,M,M,KJER 011955Z AUTO 23015KT 10SM CLR A3014 RMK MADISHF
JER,2017-04-01 20:00,-114.4566,42.7267,M,M,M,250.00,13.00,M,30.14,M,10.00,M,CLR,M,M,M,M,M,M,M,M,KJER 012000Z AUTO 25013KT 10SM CLR A3014 RMK MADISHF
JER,2017-04-01 20:05,-114.4566,42.7267,M,M,M,250.00,15.00,M,30.14,M,10.00,M,CLR,M,M,M,M,M,M,M,M,KJER 012005Z AUTO 25015KT 10SM CLR A3014 RMK MADISHF
JER,2017-04-01 20:10,-114.4566,42.7267,M,M,M,250.00,13.00,M,30.14,M,10.00,M,CLR,M,M,M,M,M,M,M,M,KJER 012010Z AUTO 25013KT 10SM CLR A3014 RMK MADISHF
JER,2017-04-01 20:15,-114.4566,42.7267,M,M,M,250.00,15.00,M,30.14,M,10.00,M,CLR,M,M,M,M,M,M,M,M,KJER 012015Z AUTO 25015KT 10SM CLR A3014 RMK MADISHF
JER,2017-04-01 20:20,-114.4566,42.7267,M,M,M,250.00,13.00,M,30.14,M,10.00,M,CLR,M,M,M,M,M,M,M,M,KJER 012020Z AUTO 25013KT 10SM CLR A3014 RMK MADISHF
JER,2017-04-01 20:25,-114.4566,42.7267,M,M,M,260.00,15.00,M,30.13,M,10.00,M,CLR,M,M,M,M,M,M,M,M,KJER 012025Z AUTO 26015KT 10SM CLR A3013 RMK MADISHF
JER,2017-04-01 20:30,-114.4566,42.7267,M,M,M,250.00,15.00,M,30.13,M,10.00,M,CLR,M,M,M,M,M,M,M,M,KJER 012030Z AUTO 25015KT 10SM CLR A3013 RMK MADISHF
JER,2017-04-01 20:35,-114.4566,42.7267,M,M,M,240.00,13.00,M,30.13,M,10.00,M,CLR,M,M,M,M,M,M,M,M,KJER 012035Z AUTO 24013KT 10SM CLR A3013 RMK MADISHF
JER,2017-04-01 20:40,-114.4566,42.7267,M,M,M,260.00,15.00,M,30.13,M,10.00,M,CLR,M,M,M,M,M,M,M,M,KJER 012040Z AUTO 26015KT 10SM CLR A3013 RMK MADISHF
JER,2017-04-01 20:45,-114.4566,42.7267,M,M,M,240.00,14.00,M,30.12,M,10.00,M,CLR,M,M,M,M,M,M,M,M,KJER 012045Z AUTO 24014KT 10SM CLR A3012 RMK MADISHF
JER,2017-04-01 20:50,-114.4566,42.7267,M,M,M,250.00,13.00,M,30.12,M,10.00,M,CLR,M,M,M,M,M,M,M,M,KJER 012050Z AUTO 25013KT 10SM CLR A3012 RMK MADISHF
JER,2017-04-01 20:53,-114.4566,42.7267,55.90,36.00,47.05,240.00,13.00,0.00,30.12,1019.60,10.00,M,CLR,M,M,M,M,M,M,M,M,KJER 012053Z AUTO 24013KT 10SM CLR 13/02 A3012 RMK AO2 SLP196 T01330022 58015
JER,2017-04-01 20:55,-114.4566,42.7267,M,M,M,240.00,12.00,M,30.12,M,10.00,M,CLR,M,M,M,M,M,M,M,M,KJER 012055Z AUTO 24012KT 10SM CLR A3012 RMK MADISHF
JER,2017-04-01 21:00,-114.4566,42.7267,M,M,M,250.00,14.00,M,30.12,M,10.00,M,CLR,M,M,M,M,M,M,M,M,KJER 012100Z AUTO 25014KT 10SM CLR A3012 RMK MADISHF
JER,2017-04-01 21:05,-114.4566,42.7267,M,M,M,230.00,14.00,M,30.11,M,10.00,M,CLR,M,M,M,M,M,M,M,M,KJER 012105Z AUTO 23014KT 10SM CLR A3011 RMK MADISHF
JER,2017-04-01 21:10,-114.4566,42.7267,M,M,M,240.00,13.00,M,30.11,M,10.00,M,CLR,M,M,M,M,M,M,M,M,KJER 012110Z AUTO 24013KT 10SM CLR A3011 RMK MADISHF
JER,2017-04-01 21:15,-114.4566,42.7267,M,M,M,240.00,14.00,M,30.11,M,10.00,19.00,CLR,M,M,M,M,M,M,M,M,KJER 012115Z AUTO 24014G19KT 10SM CLR A3011 RMK MADISHF
JER,2017-04-01 21:20,-114.4566,42.7267,M,M,M,230.00,12.00,M,30.10,M,10.00,M,CLR,M,M,M,M,M,M,M,M,KJER 012120Z AUTO 23012KT 10SM CLR A3010 RMK MADISHF
JER,2017-04-01 21:25,-114.4566,42.7267,M,M,M,240.00,11.00,M,30.10,M,10.00,M,CLR,M,M,M,M,M,M,M,M,KJER 012125Z AUTO 24011KT 10SM CLR A3010 RMK MADISHF
JER,2017-04-01 21:30,-114.4566,42.7267,M,M,M,240.00,12.00,M,30.10,M,10.00,M,CLR,M,M,M,M,M,M,M,M,KJER 012130Z AUTO 24012KT 10SM CLR A3010 RMK MADISHF
JER,2017-04-01 21:35,-114.4566,42.7267,M,M,M,230.00,13.00,M,30.10,M,10.00,M,CLR,M,M,M,M,M,M,M,M,KJER 012135Z AUTO 23013KT 10SM CLR A3010 RMK MADISHF
JER,2017-04-01 21:40,-114.4566,42.7267,M,M,M,260.00,14.00,M,30.10,M,10.00,M,CLR,M,M,M,M,M,M,M,M,KJER 012140Z AUTO 26014KT 10SM CLR A3010 RMK MADISHF
JER,2017-04-01 21:45,-114.4566,42.7267,M,M,M,240.00,12.00,M,30.09,M,10.00,M,CLR,M,M,M,M,M,M,M,M,KJER 012145Z AUTO 24012KT 10SM CLR A3009 RMK MADISHF
JER,2017-04-01 21:50,-114.4566,42.7267,M,M,M,260.00,14.00,M,30.09,M,10.00,M,CLR,M,M,M,M,M,M,M,M,KJER 012150Z AUTO 26014KT 10SM CLR A3009 RMK MADISHF
JER,2017-04-01 21:53,-114.4566,42.7267,57.00,36.00,45.22,250.00,12.00,0.00,30.09,1018.50,10.00,19.00,CLR,M,M,M,M,M,M,M,M,KJER 012153Z AUTO 25012G19KT 10SM CLR 14/02 A3009 RMK AO2 SLP185 T01390022
JER,2017-04-01 21:55,-114.4566,42.7267,M,M,M,250.00,14.00,M,30.09,M,10.00,M,CLR,M,M,M,M,M,M,M,M,KJER 012155Z AUTO 25014KT 10SM CLR A3009 RMK MADISHF
JER,2017-04-01 22:00,-114.4566,42.7267,M,M,M,250.00,12.00,M,30.09,M,10.00,M,CLR,M,M,M,M,M,M,M,M,KJER 012200Z AUTO 25012KT 10SM CLR A3009 RMK MADISHF
JER,2017-04-01 22:05,-114.4566,42.7267,M,M,M,230.00,12.00,M,30.08,M,10.00,17.00,CLR,M,M,M,M,M,M,M,M,KJER 012205Z AUTO 23012G17KT 10SM CLR A3008 RMK MADISHF
JER,2017-04-01 22:10,-114.4566,42.7267,M,M,M,250.00,13.00,M,30.08,M,10.00,M,CLR,M,M,M,M,M,M,M,M,KJER 012210Z AUTO 25013KT 10SM CLR A3008 RMK MADISHF
JER,2017-04-01 22:15,-114.4566,42.7267,M,M,M,230.00,12.00,M,30.08,M,10.00,M,CLR,M,M,M,M,M,M,M,M,KJER 012215Z AUTO 23012KT 10SM CLR A3008 RMK MADISHF
JER,2017-04-01 22:20,-114.4566,42.7267,M,M,M,250.00,12.00,M,30.08,M,10.00,M,CLR,M,M,M,M,M,M,M,M,KJER 012220Z AUTO 25012KT 10SM CLR A3008 RMK MADISHF
JER,2017-04-01 22:25,-114.4566,42.7267,M,M,M,250.00,13.00,M,30.08,M,10.00,M,CLR,M,M,M,M,M,M,M,M,KJER 012225Z AUTO 25013KT 10SM CLR A3008 RMK MADISHF
JER,2017-04-01 22:30,-114.4566,42.7267,M,M,M,260.00,16.00,M,30.07,M,10.00,M,CLR,M,M,M,M,M,M,M,M,KJER 012230Z AUTO 26016KT 10SM CLR A3007 RMK MADISHF
JER,2017-04-01 22:35,-114.4566,42.7267,M,M,M,260.00,13.00,M,30.07,M,10.00,M,CLR,M,M,M,M,M,M,M,M,KJER 012235Z AUTO 26013KT 10SM CLR A3007 RMK MADISHF
JER,2017-04-01 22:40,-114.4566,42.7267,M,M,M,230.00,13.00,M,30.07,M,10.00,M,CLR,M,M,M,M,M,M,M,M,KJER 012240Z AUTO 23013KT 10SM CLR A3007 RMK MADISHF
JER,2017-04-01 22:45,-114.4566,42.7267,M,M,M,260.00,18.00,M,30.07,M,10.00,M,CLR,M,M,M,M,M,M,M,M,KJER 012245Z AUTO 26018KT 10SM CLR A3007 RMK MADISHF
JER,2017-04-01 22:50,-114.4566,42.7267,M,M,M,250.00,17.00,M,30.07,M,10.00,M,CLR,M,M,M,M,M,M,M,M,KJER 012250Z AUTO 25017KT 10SM CLR A3007 RMK MADISHF
JER,2017-04-01 22:53,-114.4566,42.7267,57.00,33.10,40.28,240.00,16.00,0.00,30.07,1018.00,10.00,M,CLR,M,M,M,M,M,M,M,M,KJER 012253Z AUTO 24016KT 10SM CLR 14/01 A3007 RMK AO2 SLP180 T01390006
JER,2017-04-01 22:55,-114.4566,42.7267,M,M,M,260.00,15.00,M,30.07,M,10.00,20.00,CLR,M,M,M,M,M,M,M,M,KJER 012255Z AUTO 26015G20KT 10SM CLR A3007 RMK MADISHF
JER,2017-04-01 23:00,-114.4566,42.7267,M,M,M,250.00,13.00,M,30.07,M,10.00,M,CLR,M,M,M,M,M,M,M,M,KJER 012300Z AUTO 25013KT 10SM CLR A3007 RMK MADISHF
JER,2017-04-01 23:05,-114.4566,42.7267,M,M,M,260.00,14.00,M,30.07,M,10.00,M,CLR,M,M,M,M,M,M,M,M,KJER 012305Z AUTO 26014KT 10SM CLR A3007 RMK MADISHF
JER,2017-04-01 23:10,-114.4566,42.7267,M,M,M,230.00,14.00,M,30.07,M,10.00,M,CLR,M,M,M,M,M,M,M,M,KJER 012310Z AUTO 23014KT 10SM CLR A3007 RMK MADISHF
JER,2017-04-01 23:15,-114.4566,42.7267,M,M,M,240.00,16.00,M,30.07,M,10.00,M,CLR,M,M,M,M,M,M,M,M,KJER 012315Z AUTO 24016KT 10SM CLR A3007 RMK MADISHF
JER,2017-04-01 23:20,-114.4566,42.7267,M,M,M,250.00,13.00,M,30.07,M,10.00,M,CLR,M,M,M,M,M,M,M,M,KJER 012320Z AUTO 25013KT 10SM CLR A3007 RMK MADISHF
JER,2017-04-01 23:25,-114.4566,42.7267,M,M,M,240.00,16.00,M,30.06,M,10.00,M,CLR,M,M,M,M,M,M,M,M,KJER 012325Z AUTO 24016KT 10SM CLR A3006 RMK MADISHF
JER,2017-04-01 23:30,-114.4566,42.7267,M,M,M,240.00,13.00,M,30.06,M,10.00,M,CLR,M,M,M,M,M,M,M,M,KJER 012330Z AUTO 24013KT 10SM CLR A3006 RMK MADISHF
JER,2017-04-01 23:35,-114.4566,42.7267,M,M,M,250.00,14.00,M,30.06,M,10.00,M,CLR,M,M,M,M,M,M,M,M,KJER 012335Z AUTO 25014KT 10SM CLR A3006 RMK MADISHF
JER,2017-04-01 23:40,-114.4566,42.7267,M,M,M,250.00,14.00,M,30.06,M,10.00,M,CLR,M,M,M,M,M,M,M,M,KJER 012340Z AUTO 25014KT 10SM CLR A3006 RMK MADISHF
JER,2017-04-01 23:45,-114.4566,42.7267,M,M,M,240.00,16.00,M,30.06,M,10.00,M,CLR,M,M,M,M,M,M,M,M,KJER 012345Z AUTO 24016KT 10SM CLR A3006 RMK MADISHF
JER,2017-04-01 23:50,-114.4566,42.7267,M,M,M,250.00,15.00,M,30.06,M,10.00,M,CLR,M,M,M,M,M,M,M,M,KJER 012350Z AUTO 25015KT 10SM CLR A3006 RMK MADISHF
JER,2017-04-01 23:53,-114.4566,42.7267,57.00,30.90,36.86,260.00,14.00,0.00,30.06,1017.60,10.00,M,CLR,M,M,M,M,M,M,M,M,KJER 012353Z AUTO 26014KT 10SM CLR 14/M01 A3006 RMK AO2 SLP176 T01391006 10144 20094 56019
JER,2017-04-01 23:55,-114.4566,42.7267,M,M,M,260.00,16.00,M,30.06,M,10.00,M,CLR,M,M,M,M,M,M,M,M,KJER 012355Z AUTO 26016KT 10SM CLR A3006 RMK MADISHF
