#DEBUG: Format Typ    -> comma
#DEBUG: Time Period   -> 2017-04-01 00:00:00+00:00 2017-04-02 00:00:00+00:00
#DEBUG: Time Zone     -> Etc/UTC
#DEBUG: Data Contact   -> daryl herzmann akrherz@iastate.edu 515-294-5978
#DEBUG: Entries Found -> -1
station,valid,lon,lat,tmpf, dwpf, relh, drct, sknt, p01i, alti, mslp, vsby, gust, skyc1, skyc2, skyc3, skyc4, skyl1, skyl2, skyl3, skyl4, presentwx, metar
JQF,2017-04-01 00:55,-80.7091,35.3878,62.60,41.00,45.04,320.00,10.00,0.00,29.82,M,10.00,16.00,CLR,M,M,M,M,M,M,M,M,KJQF 010055Z 32010G16KT 10SM CLR 17/05 A2982
JQF,2017-04-01 01:50,-80.7091,35.3878,62.60,42.80,48.28,320.00,7.00,0.00,29.86,M,10.00,M,CLR,M,M,M,M,M,M,M,M,KJQF 010150Z 32007KT 10SM CLR 17/06 A2986
JQF,2017-04-01 02:50,-80.7091,35.3878,59.00,42.80,54.86,320.00,7.00,0.00,29.87,M,10.00,M,CLR,M,M,M,M,M,M,M,M,KJQF 010250Z 32007KT 10SM CLR 15/06 A2987
JQF,2017-04-01 03:50,-80.7091,35.3878,59.00,42.80,54.86,300.00,4.00,0.00,29.88,M,10.00,M,CLR,M,M,M,M,M,M,M,M,KJQF 010350Z AUTO 30004KT 10SM CLR 15/06 A2988 RMK AO2
JQF,2017-04-01 04:10,-80.7091,35.3878,59.00,42.80,54.86,300.00,6.00,0.00,29.87,M,10.00,M,CLR,M,M,M,M,M,M,M,M,KJQF 010410Z AUTO 30006KT 10SM CLR 15/06 A2987 RMK AO2
JQF,2017-04-01 04:30,-80.7091,35.3878,59.00,42.80,54.86,310.00,3.00,0.00,29.88,M,10.00,M,CLR,M,M,M,M,M,M,M,M,KJQF 010430Z AUTO 31003KT 10SM CLR 15/06 A2988 RMK AO2
JQF,2017-04-01 04:50,-80.7091,35.3878,57.20,42.80,58.52,280.00,4.00,0.00,29.88,M,10.00,M,CLR,M,M,M,M,M,M,M,M,KJQF 010450Z AUTO 28004KT 10SM CLR 14/06 A2988 RMK AO2
JQF,2017-04-01 05:10,-80.7091,35.3878,55.40,42.80,62.46,0.00,0.00,0.00,29.88,M,10.00,M,CLR,M,M,M,M,M,M,M,M,KJQF 010510Z AUTO 00000KT 10SM CLR 13/06 A2988 RMK AO2
JQF,2017-04-01 05:30,-80.7091,35.3878,53.60,42.80,66.70,0.00,0.00,0.00,29.88,M,10.00,M,CLR,M,M,M,M,M,M,M,M,KJQF 010530Z AUTO 00000KT 10SM CLR 12/06 A2988 RMK AO2
JQF,2017-04-01 05:50,-80.7091,35.3878,53.60,42.80,66.70,0.00,0.00,0.00,29.89,M,10.00,M,CLR,M,M,M,M,M,M,M,M,KJQF 010550Z AUTO 00000KT 10SM CLR 12/06 A2989 RMK AO2
JQF,2017-04-01 06:10,-80.7091,35.3878,51.80,42.80,71.26,0.00,0.00,0.00,29.88,M,10.00,M,CLR,M,M,M,M,M,M,M,M,KJQF 010610Z AUTO 00000KT 10SM CLR 11/06 A2988 RMK AO2
JQF,2017-04-01 06:30,-80.7091,35.3878,51.80,42.80,71.26,0.00,0.00,0.00,29.89,M,10.00,M,CLR,M,M,M,M,M,M,M,M,KJQF 010630Z AUTO 00000KT 10SM CLR 11/06 A2989 RMK AO2 LTG DSNT E
JQF,2017-04-01 06:50,-80.7091,35.3878,51.80,44.60,76.34,0.00,0.00,0.00,29.89,M,10.00,M,CLR,M,M,M,M,M,M,M,M,KJQF 010650Z AUTO 00000KT 10SM CLR 11/07 A2989 RMK AO2
JQF,2017-04-01 07:10,-80.7091,35.3878,50.00,42.80,76.18,320.00,4.00,0.00,29.89,M,10.00,M,CLR,M,M,M,M,M,M,M,M,KJQF 010710Z AUTO 32004KT 10SM CLR 10/06 A2989 RMK AO2
JQF,2017-04-01 07:30,-80.7091,35.3878,53.60,42.80,66.70,0.00,0.00,0.00,29.89,M,10.00,M,CLR,M,M,M,M,M,M,M,M,KJQF 010730Z AUTO 00000KT 10SM CLR 12/06 A2989 RMK AO2
JQF,2017-04-01 07:50,-80.7091,35.3878,51.80,42.80,71.26,330.00,3.00,0.00,29.90,M,10.00,M,CLR,M,M,M,M,M,M,M,M,KJQF 010750Z AUTO 33003KT 10SM CLR 11/06 A2990 RMK AO2
JQF,2017-04-01 08:10,-80.7091,35.3878,53.60,42.80,66.70,320.00,5.00,0.00,29.90,M,10.00,M,CLR,M,M,M,M,M,M,M,M,KJQF 010810Z AUTO 32005KT 10SM CLR 12/06 A2990 RMK AO2
JQF,2017-04-01 08:30,-80.7091,35.3878,53.60,44.60,71.45,330.00,5.00,0.00,29.90,M,10.00,M,CLR,M,M,M,M,M,M,M,M,KJQF 010830Z AUTO 33005KT 10SM CLR 12/07 A2990 RMK AO2
JQF,2017-04-01 08:50,-80.7091,35.3878,53.60,42.80,66.70,330.00,3.00,0.00,29.90,M,10.00,M,CLR,M,M,M,M,M,M,M,M,KJQF 010850Z AUTO 33003KT 10SM CLR 12/06 A2990 RMK AO2
JQF,2017-04-01 09:10,-80.7091,35.3878,53.60,42.80,66.70,300.00,7.00,0.00,29.90,M,10.00,M,CLR,M,M,M,M,M,M,M,M,KJQF 010910Z AUTO 30007KT 10SM CLR 12/06 A2990 RMK AO2
JQF,2017-04-01 09:30,-80.7091,35.3878,55.40,42.80,62.46,300.00,3.00,0.00,29.91,M,10.00,M,CLR,M,M,M,M,M,M,M,M,KJQF 010930Z AUTO 30003KT 10SM CLR 13/06 A2991 RMK AO2
JQF,2017-04-01 09:50,-80.7091,35.3878,53.60,42.80,66.70,0.00,0.00,0.00,29.92,M,10.00,M,CLR,M,M,M,M,M,M,M,M,KJQF 010950Z AUTO 00000KT 10SM CLR 12/06 A2992 RMK AO2
JQF,2017-04-01 10:10,-80.7091,35.3878,51.80,42.80,71.26,360.00,3.00,0.00,29.92,M,10.00,M,CLR,M,M,M,M,M,M,M,M,KJQF 011010Z AUTO 36003KT 10SM CLR 11/06 A2992 RMK AO2
JQF,2017-04-01 10:30,-80.7091,35.3878,50.00,42.80,76.18,320.00,4.00,0.00,29.93,M,10.00,M,CLR,M,M,M,M,M,M,M,M,KJQF 011030Z AUTO 32004KT 10SM CLR 10/06 A2993 RMK AO2
JQF,2017-04-01 10:50,-80.7091,35.3878,53.60,42.80,66.70,340.00,5.00,0.00,29.94,M,10.00,M,CLR,M,M,M,M,M,M,M,M,KJQF 011050Z AUTO 34005KT 10SM CLR 12/06 A2994 RMK AO2
JQF,2017-04-01 11:10,-80.7091,35.3878,51.80,42.80,71.26,320.00,5.00,0.00,29.95,M,10.00,M,CLR,M,M,M,M,M,M,M,M,KJQF 011110Z AUTO 32005KT 10SM CLR 11/06 A2995 RMK AO2
JQF,2017-04-01 11:50,-80.7091,35.3878,55.40,44.60,66.91,340.00,6.00,0.00,29.97,M,10.00,M,CLR,M,M,M,M,M,M,M,M,KJQF 011150Z 34006KT 10SM CLR 13/07 A2997
JQF,2017-04-01 12:50,-80.7091,35.3878,60.80,44.60,55.12,310.00,9.00,0.00,29.99,M,10.00,16.00,CLR,M,M,M,M,M,M,M,M,KJQF 011250Z 31009G16KT 10SM CLR 16/07 A2999
JQF,2017-04-01 13:52,-80.7091,35.3878,62.60,42.80,48.28,320.00,7.00,0.00,30.01,M,10.00,M,CLR,M,M,M,M,M,M,M,M,KJQF 011352Z 32007KT 10SM CLR 17/06 A3001
JQF,2017-04-01 14:50,-80.7091,35.3878,64.40,42.80,45.32,320.00,10.00,0.00,30.02,M,10.00,18.00,CLR,M,M,M,M,M,M,M,M,KJQF 011450Z 32010G18KT 10SM CLR 18/06 A3002
JQF,2017-04-01 15:50,-80.7091,35.3878,66.20,42.80,42.57,320.00,8.00,0.00,30.03,M,10.00,14.00,CLR,M,M,M,M,M,M,M,M,KJQF 011550Z 32008G14KT 10SM CLR 19/06 A3003
JQF,2017-04-01 16:55,-80.7091,35.3878,68.00,42.80,40.00,310.00,8.00,0.00,30.03,M,10.00,14.00,CLR,M,M,M,M,M,M,M,M,KJQF 011655Z 31008G14KT 10SM CLR 20/06 A3003
JQF,2017-04-01 17:50,-80.7091,35.3878,69.80,42.80,37.61,310.00,9.00,0.00,30.03,M,10.00,15.00,CLR,M,M,M,M,M,M,M,M,KJQF 011750Z 31009G15KT 10SM CLR 21/06 A3003
JQF,2017-04-01 18:53,-80.7091,35.3878,71.60,42.80,35.37,330.00,8.00,0.00,30.02,M,10.00,M,CLR,M,M,M,M,M,M,M,M,KJQF 011853Z 33008KT 10SM CLR 22/06 A3002
JQF,2017-04-01 19:50,-80.7091,35.3878,73.40,41.00,31.05,340.00,8.00,0.00,29.99,M,10.00,M,CLR,M,M,M,M,M,M,M,M,KJQF 011950Z 34008KT 10SM CLR 23/05 A2999
JQF,2017-04-01 20:50,-80.7091,35.3878,73.40,42.80,33.29,290.00,9.00,0.00,30.00,M,10.00,M,CLR,M,M,M,M,M,M,M,M,KJQF 012050Z 29009KT 10SM CLR 23/06 A3000
JQF,2017-04-01 21:50,-80.7091,35.3878,73.40,39.20,28.96,320.00,9.00,0.00,30.01,M,10.00,16.00,CLR,M,M,M,M,M,M,M,M,KJQF 012150Z 32009G16KT 10SM CLR 23/04 A3001
JQF,2017-04-01 22:50,-80.7091,35.3878,71.60,39.20,30.77,320.00,9.00,0.00,30.03,M,10.00,M,CLR,M,M,M,M,M,M,M,M,KJQF 012250Z 32009KT 10SM CLR 22/04 A3003
JQF,2017-04-01 23:50,-80.7091,35.3878,66.20,39.20,37.03,330.00,7.00,0.00,30.06,M,10.00,M,CLR,M,M,M,M,M,M,M,M,KJQF 012350Z 33007KT 10SM CLR 19/04 A3006
