#DEBUG: Format Typ    -> comma
#DEBUG: Time Period   -> 2017-04-01 00:00:00+00:00 2017-04-02 00:00:00+00:00
#DEBUG: Time Zone     -> Etc/UTC
#DEBUG: Data Contact   -> daryl herzmann akrherz@iastate.edu 515-294-5978
#DEBUG: Entries Found -> -1
station,valid,lon,lat,tmpf, dwpf, relh, drct, sknt, p01i, alti, mslp, vsby, gust, skyc1, skyc2, skyc3, skyc4, skyl1, skyl2, skyl3, skyl4, presentwx, metar
KY8,2017-04-01 00:15,-86.8592,37.9530,46.40,42.80,87.19,310.00,7.00,0.00,29.95,M,10.00,M,BKN,OVC,M,M,1700.00,2100.00,M,M,M,KKY8 010015Z AUTO 31007KT 10SM BKN017 OVC021 08/06 A2995 RMK AO1
KY8,2017-04-01 00:35,-86.8592,37.9530,46.40,42.80,87.19,310.00,7.00,0.00,29.95,M,10.00,M,OVC,M,M,M,1700.00,M,M,M,M,KKY8 010035Z AUTO 31007KT 10SM OVC017 08/06 A2995 RMK AO1
KY8,2017-04-01 00:55,-86.8592,37.9530,46.40,42.80,87.19,300.00,6.00,0.00,29.97,M,10.00,M,OVC,M,M,M,1700.00,M,M,M,M,KKY8 010055Z AUTO 30006KT 10SM OVC017 08/06 A2997 RMK AO1
KY8,2017-04-01 01:15,-86.8592,37.9530,46.40,42.80,87.19,290.00,8.00,0.00,29.97,M,10.00,M,OVC,M,M,M,1500.00,M,M,M,M,KKY8 010115Z AUTO 29008KT 10SM OVC015 08/06 A2997 RMK AO1
KY8,2017-04-01 01:35,-86.8592,37.9530,46.40,44.60,93.40,300.00,4.00,0.00,29.98,M,10.00,M,OVC,M,M,M,1500.00,M,M,M,M,KKY8 010135Z AUTO 30004KT 10SM OVC015 08/07 A2998 RMK AO1
KY8,2017-04-01 01:55,-86.8592,37.9530,44.60,44.60,100.00,300.00,6.00,0.00,29.99,M,9.00,M,OVC,M,M,M,1300.00,M,M,M,M,KKY8 010155Z AUTO 30006KT 9SM OVC013 07/07 A2999 RMK AO1
KY8,2017-04-01 02:15,-86.8592,37.9530,44.60,44.60,100.00,290.00,6.00,0.00,30.00,M,10.00,M,OVC,M,M,M,1500.00,M,M,M,M,KKY8 010215Z AUTO 29006KT 10SM OVC015 07/07 A3000 RMK AO1
KY8,2017-04-01 02:35,-86.8592,37.9530,44.60,44.60,100.00,310.00,5.00,0.00,30.00,M,10.00,M,OVC,M,M,M,1500.00,M,M,M,M,KKY8 010235Z AUTO 31005KT 10SM OVC015 07/07 A3000 RMK AO1
KY8,2017-04-01 02:55,-86.8592,37.9530,44.60,44.60,100.00,320.00,6.00,0.00,30.01,M,10.00,M,OVC,M,M,M,1300.00,M,M,M,M,KKY8 010255Z AUTO 32006KT 10SM OVC013 07/07 A3001 RMK AO1
KY8,2017-04-01 03:15,-86.8592,37.9530,44.60,44.60,100.00,320.00,7.00,0.00,30.02,M,10.00,M,BKN,M,M,M,1300.00,M,M,M,M,KKY8 010315Z AUTO 32007KT 10SM BKN013 07/07 A3002 RMK AO1
KY8,2017-04-01 03:35,-86.8592,37.9530,44.60,44.60,100.00,300.00,5.00,0.00,30.02,M,10.00,M,BKN,BKN,M,M,1400.00,2000.00,M,M,M,KKY8 010335Z AUTO 30005KT 10SM BKN014 BKN020 07/07 A3002 RMK AO1
KY8,2017-04-01 03:55,-86.8592,37.9530,44.60,44.60,100.00,290.00,5.00,0.00,30.02,M,5.00,M,BKN,BKN,BKN,M,1300.00,1800.00,3100.00,M,M,KKY8 010355Z AUTO 29005KT 5SM BKN013 BKN018 BKN031 07/07 A3002 RMK AO1
KY8,2017-04-01 04:15,-86.8592,37.9530,44.60,44.60,100.00,300.00,4.00,0.00,30.03,M,10.00,M,FEW,BKN,BKN,M,900.00,2900.00,3400.00,M,M,KKY8 010415Z AUTO 30004KT 10SM FEW009 BKN029 BKN034 07/07 A3003 RMK AO1
KY8,2017-04-01 04:35,-86.8592,37.9530,44.60,44.60,100.00,310.00,5.00,0.00,30.03,M,10.00,M,SCT,SCT,BKN,M,900.00,1700.00,2700.00,M,M,KKY8 010435Z AUTO 31005KT 10SM SCT009 SCT017 BKN027 07/07 A3003 RMK AO1
KY8,2017-04-01 04:55,-86.8592,37.9530,44.60,44.60,100.00,320.00,6.00,0.00,30.04,M,5.00,M,BKN,BKN,M,M,700.00,1300.00,M,M,M,KKY8 010455Z AUTO 32006KT 5SM BKN007 BKN013 07/07 A3004 RMK AO1
KY8,2017-04-01 05:15,-86.8592,37.9530,44.60,44.60,100.00,340.00,6.00,0.00,30.05,M,10.00,M,SCT,BKN,M,M,700.00,1300.00,M,M,M,KKY8 010515Z AUTO 34006KT 10SM SCT007 BKN013 07/07 A3005 RMK AO1
KY8,2017-04-01 05:35,-86.8592,37.9530,44.60,44.60,100.00,330.00,6.00,0.00,30.05,M,5.00,M,SCT,BKN,OVC,M,1100.00,1400.00,2100.00,M,M,KKY8 010535Z AUTO 33006KT 5SM SCT011 BKN014 OVC021 07/07 A3005 RMK AO1
KY8,2017-04-01 05:55,-86.8592,37.9530,44.60,42.80,93.35,300.00,4.00,0.00,30.06,M,10.00,M,BKN,M,M,M,2300.00,M,M,M,M,KKY8 010555Z AUTO 30004KT 10SM BKN023 07/06 A3006 RMK AO1
KY8,2017-04-01 06:15,-86.8592,37.9530,44.60,42.80,93.35,310.00,5.00,0.00,30.06,M,10.00,M,OVC,M,M,M,2500.00,M,M,M,M,KKY8 010615Z AUTO 31005KT 10SM OVC025 07/06 A3006 RMK AO1
KY8,2017-04-01 06:35,-86.8592,37.9530,44.60,42.80,93.35,320.00,4.00,0.00,30.06,M,10.00,M,BKN,OVC,M,M,2500.00,3400.00,M,M,M,KKY8 010635Z AUTO 32004KT 10SM BKN025 OVC034 07/06 A3006 RMK AO1
KY8,2017-04-01 06:55,-86.8592,37.9530,44.60,41.00,87.09,340.00,9.00,0.00,30.06,M,10.00,M,SCT,BKN,M,M,1800.00,2300.00,M,M,M,KKY8 010655Z AUTO 34009KT 10SM SCT018 BKN023 07/05 A3006 RMK AO1
KY8,2017-04-01 07:15,-86.8592,37.9530,44.60,41.00,87.09,330.00,6.00,0.00,30.06,M,10.00,M,OVC,M,M,M,1800.00,M,M,M,M,KKY8 010715Z AUTO 33006KT 10SM OVC018 07/05 A3006 RMK AO1
KY8,2017-04-01 07:35,-86.8592,37.9530,44.60,39.20,81.20,330.00,8.00,0.00,30.07,M,10.00,M,OVC,M,M,M,2000.00,M,M,M,M,KKY8 010735Z AUTO 33008KT 10SM OVC020 07/04 A3007 RMK AO1
KY8,2017-04-01 07:55,-86.8592,37.9530,44.60,39.20,81.20,330.00,5.00,0.00,30.07,M,10.00,M,OVC,M,M,M,2000.00,M,M,M,M,KKY8 010755Z AUTO 33005KT 10SM OVC020 07/04 A3007 RMK AO1
KY8,2017-04-01 08:15,-86.8592,37.9530,44.60,39.20,81.20,310.00,5.00,0.00,30.07,M,10.00,M,OVC,M,M,M,1800.00,M,M,M,M,KKY8 010815Z AUTO 31005KT 10SM OVC018 07/04 A3007 RMK AO1
KY8,2017-04-01 08:35,-86.8592,37.9530,44.60,39.20,81.20,310.00,6.00,0.00,30.08,M,10.00,M,OVC,M,M,M,1800.00,M,M,M,M,KKY8 010835Z AUTO 31006KT 10SM OVC018 07/04 A3008 RMK AO1
KY8,2017-04-01 08:55,-86.8592,37.9530,44.60,39.20,81.20,320.00,4.00,0.00,30.09,M,10.00,M,OVC,M,M,M,1800.00,M,M,M,M,KKY8 010855Z AUTO 32004KT 10SM OVC018 07/04 A3009 RMK AO1
KY8,2017-04-01 09:15,-86.8592,37.9530,44.60,39.20,81.20,310.00,4.00,0.00,30.09,M,10.00,M,OVC,M,M,M,2000.00,M,M,M,M,KKY8 010915Z AUTO 31004KT 10SM OVC020 07/04 A3009 RMK AO1
KY8,2017-04-01 09:35,-86.8592,37.9530,44.60,39.20,81.20,320.00,7.00,0.00,30.10,M,10.00,M,OVC,M,M,M,2200.00,M,M,M,M,KKY8 010935Z AUTO 32007KT 10SM OVC022 07/04 A3010 RMK AO1
KY8,2017-04-01 09:55,-86.8592,37.9530,44.60,39.20,81.20,330.00,7.00,0.00,30.10,M,10.00,M,OVC,M,M,M,2000.00,M,M,M,M,KKY8 010955Z AUTO 33007KT 10SM OVC020 07/04 A3010 RMK AO1
KY8,2017-04-01 10:15,-86.8592,37.9530,44.60,39.20,81.20,320.00,6.00,0.00,30.10,M,10.00,M,OVC,M,M,M,2000.00,M,M,M,M,KKY8 011015Z AUTO 32006KT 10SM OVC020 07/04 A3010 RMK AO1
KY8,2017-04-01 10:35,-86.8592,37.9530,44.60,39.20,81.20,330.00,7.00,0.00,30.11,M,10.00,M,OVC,M,M,M,2000.00,M,M,M,M,KKY8 011035Z AUTO 33007KT 10SM OVC020 07/04 A3011 RMK AO1
KY8,2017-04-01 10:55,-86.8592,37.9530,44.60,39.20,81.20,360.00,5.00,0.00,30.12,M,10.00,M,BKN,OVC,M,M,2000.00,2500.00,M,M,M,KKY8 011055Z AUTO 36005KT 10SM BKN020 OVC025 07/04 A3012 RMK AO1
KY8,2017-04-01 11:15,-86.8592,37.9530,44.60,39.20,81.20,340.00,4.00,0.00,30.13,M,10.00,M,OVC,M,M,M,2500.00,M,M,M,M,KKY8 011115Z AUTO 34004KT 10SM OVC025 07/04 A3013 RMK AO1
KY8,2017-04-01 11:35,-86.8592,37.9530,44.60,39.20,81.20,330.00,6.00,0.00,30.13,M,10.00,M,OVC,M,M,M,2700.00,M,M,M,M,KKY8 011135Z AUTO 33006KT 10SM OVC027 07/04 A3013 RMK AO1
KY8,2017-04-01 11:55,-86.8592,37.9530,44.60,39.20,81.20,350.00,4.00,0.00,30.15,M,10.00,M,OVC,M,M,M,2700.00,M,M,M,M,KKY8 011155Z AUTO 35004KT 10SM OVC027 07/04 A3015 RMK AO1
KY8,2017-04-01 12:15,-86.8592,37.9530,44.60,39.20,81.20,330.00,3.00,0.00,30.16,M,10.00,M,OVC,M,M,M,2700.00,M,M,M,M,KKY8 011215Z AUTO 33003KT 10SM OVC027 07/04 A3016 RMK AO1
KY8,2017-04-01 12:35,-86.8592,37.9530,44.60,39.20,81.20,330.00,6.00,0.00,30.17,M,10.00,M,OVC,M,M,M,2700.00,M,M,M,M,KKY8 011235Z AUTO 33006KT 10SM OVC027 07/04 A3017 RMK AO1
KY8,2017-04-01 12:55,-86.8592,37.9530,44.60,39.20,81.20,320.00,3.00,0.00,30.18,M,10.00,M,SCT,OVC,M,M,1800.00,2700.00,M,M,M,KKY8 011255Z AUTO 32003KT 10SM SCT018 OVC027 07/04 A3018 RMK AO1
KY8,2017-04-01 13:15,-86.8592,37.9530,44.60,39.20,81.20,310.00,5.00,0.00,30.19,M,10.00,M,BKN,OVC,M,M,1800.00,2700.00,M,M,M,KKY8 011315Z AUTO 31005KT 10SM BKN018 OVC027 07/04 A3019 RMK AO1
KY8,2017-04-01 13:55,-86.8592,37.9530,44.60,41.00,87.09,300.00,3.00,0.00,30.19,M,10.00,M,BKN,OVC,M,M,1600.00,2500.00,M,M,M,KKY8 011355Z AUTO 30003KT 10SM BKN016 OVC025 07/05 A3019 RMK AO1
KY8,2017-04-01 14:15,-86.8592,37.9530,44.60,41.00,87.09,290.00,4.00,0.00,30.19,M,10.00,M,FEW,OVC,M,M,1800.00,2500.00,M,M,M,KKY8 011415Z AUTO 29004KT 10SM FEW018 OVC025 07/05 A3019 RMK AO1
KY8,2017-04-01 14:35,-86.8592,37.9530,46.40,41.00,81.34,320.00,4.00,0.00,30.20,M,10.00,M,SCT,OVC,M,M,1600.00,2500.00,M,M,M,KKY8 011435Z AUTO 32004KT 10SM SCT016 OVC025 08/05 A3020 RMK AO1
KY8,2017-04-01 15:55,-86.8592,37.9530,46.40,41.00,81.34,320.00,4.00,0.00,30.21,M,10.00,M,OVC,M,M,M,2100.00,M,M,M,M,KKY8 011555Z AUTO 32004KT 10SM OVC021 08/05 A3021 RMK AO1
KY8,2017-04-01 16:15,-86.8592,37.9530,48.20,41.00,76.01,350.00,3.00,0.00,30.21,M,10.00,M,OVC,M,M,M,2100.00,M,M,M,M,KKY8 011615Z AUTO 35003KT 10SM OVC021 09/05 A3021 RMK AO1
KY8,2017-04-01 16:35,-86.8592,37.9530,46.40,41.00,81.34,10.00,7.00,0.00,30.21,M,10.00,M,OVC,M,M,M,2100.00,M,M,M,M,KKY8 011635Z AUTO 01007KT 10SM OVC021 08/05 A3021 RMK AO1
KY8,2017-04-01 16:55,-86.8592,37.9530,48.20,39.20,70.88,330.00,4.00,0.00,30.20,M,10.00,M,BKN,OVC,M,M,2100.00,2500.00,M,M,M,KKY8 011655Z AUTO 33004KT 10SM BKN021 OVC025 09/04 A3020 RMK AO1
KY8,2017-04-01 17:15,-86.8592,37.9530,48.20,41.00,76.01,360.00,3.00,0.00,30.20,M,10.00,M,OVC,M,M,M,2300.00,M,M,M,M,KKY8 011715Z AUTO 36003KT 10SM OVC023 09/05 A3020 RMK AO1
KY8,2017-04-01 17:35,-86.8592,37.9530,48.20,41.00,76.01,350.00,5.00,0.00,30.20,M,10.00,M,OVC,M,M,M,2300.00,M,M,M,M,KKY8 011735Z AUTO 35005KT 10SM OVC023 09/05 A3020 RMK AO1
KY8,2017-04-01 17:55,-86.8592,37.9530,48.20,41.00,76.01,340.00,3.00,0.00,30.19,M,10.00,M,OVC,M,M,M,2300.00,M,M,M,M,KKY8 011755Z AUTO 34003KT 10SM OVC023 09/05 A3019 RMK AO1
KY8,2017-04-01 18:15,-86.8592,37.9530,48.20,41.00,76.01,0.00,0.00,0.00,30.19,M,10.00,M,OVC,M,M,M,2300.00,M,M,M,M,KKY8 011815Z AUTO 00000KT 10SM OVC023 09/05 A3019 RMK AO1
KY8,2017-04-01 18:35,-86.8592,37.9530,48.20,41.00,76.01,0.00,0.00,0.00,30.19,M,10.00,M,OVC,M,M,M,2300.00,M,M,M,M,KKY8 011835Z AUTO 00000KT 10SM OVC023 09/05 A3019 RMK AO1
KY8,2017-04-01 18:55,-86.8592,37.9530,50.00,41.00,71.07,290.00,4.00,0.00,30.19,M,10.00,M,OVC,M,M,M,2300.00,M,M,M,M,KKY8 011855Z AUTO 29004KT 10SM OVC023 10/05 A3019 RMK AO1
KY8,2017-04-01 19:15,-86.8592,37.9530,50.00,41.00,71.07,340.00,3.00,0.00,30.20,M,10.00,M,OVC,M,M,M,2500.00,M,M,M,M,KKY8 011915Z AUTO 34003KT 10SM OVC025 10/05 A3020 RMK AO1
KY8,2017-04-01 19:35,-86.8592,37.9530,50.00,41.00,71.07,350.00,4.00,0.00,30.20,M,10.00,M,OVC,M,M,M,2500.00,M,M,M,M,KKY8 011935Z AUTO 35004KT 10SM OVC025 10/05 A3020 RMK AO1
KY8,2017-04-01 19:55,-86.8592,37.9530,50.00,41.00,71.07,340.00,5.00,0.00,30.19,M,10.00,M,OVC,M,M,M,2500.00,M,M,M,M,KKY8 011955Z AUTO 34005KT 10SM OVC025 10/05 A3019 RMK AO1
KY8,2017-04-01 20:15,-86.8592,37.9530,50.00,41.00,71.07,310.00,4.00,0.00,30.19,M,10.00,M,OVC,M,M,M,2500.00,M,M,M,M,KKY8 012015Z AUTO 31004KT 10SM OVC025 10/05 A3019 RMK AO1
KY8,2017-04-01 20:35,-86.8592,37.9530,50.00,41.00,71.07,10.00,6.00,0.00,30.19,M,10.00,M,OVC,M,M,M,2500.00,M,M,M,M,KKY8 012035Z AUTO 01006KT 10SM OVC025 10/05 A3019 RMK AO1
KY8,2017-04-01 20:55,-86.8592,37.9530,50.00,41.00,71.07,340.00,3.00,0.00,30.20,M,10.00,M,OVC,M,M,M,2500.00,M,M,M,M,KKY8 012055Z AUTO 34003KT 10SM OVC025 10/05 A3020 RMK AO1
KY8,2017-04-01 21:15,-86.8592,37.9530,48.20,41.00,76.01,340.00,5.00,0.00,30.20,M,10.00,M,OVC,M,M,M,2500.00,M,M,M,M,KKY8 012115Z AUTO 34005KT 10SM OVC025 09/05 A3020 RMK AO1
KY8,2017-04-01 21:35,-86.8592,37.9530,50.00,41.00,71.07,340.00,4.00,0.00,30.20,M,10.00,M,OVC,M,M,M,2500.00,M,M,M,M,KKY8 012135Z AUTO 34004KT 10SM OVC025 10/05 A3020 RMK AO1
KY8,2017-04-01 21:55,-86.8592,37.9530,50.00,41.00,71.07,10.00,5.00,0.00,30.20,M,10.00,M,OVC,M,M,M,2500.00,M,M,M,M,KKY8 012155Z AUTO 01005KT 10SM OVC025 10/05 A3020 RMK AO1
KY8,2017-04-01 22:15,-86.8592,37.9530,48.20,41.00,76.01,350.00,6.00,0.00,30.20,M,10.00,M,OVC,M,M,M,2500.00,M,M,M,M,KKY8 012215Z AUTO 35006KT 10SM OVC025 09/05 A3020 RMK AO1
KY8,2017-04-01 22:35,-86.8592,37.9530,48.20,41.00,76.01,350.00,3.00,0.00,30.19,M,10.00,M,OVC,M,M,M,2500.00,M,M,M,M,KKY8 012235Z AUTO 35003KT 10SM OVC025 09/05 A3019 RMK AO1
KY8,2017-04-01 22:55,-86.8592,37.9530,48.20,41.00,76.01,10.00,5.00,0.00,30.20,M,10.00,M,OVC,M,M,M,2500.00,M,M,M,M,KKY8 012255Z AUTO 01005KT 10SM OVC025 09/05 A3020 RMK AO1
KY8,2017-04-01 23:15,-86.8592,37.9530,48.20,41.00,76.01,10.00,4.00,0.00,30.19,M,10.00,M,OVC,M,M,M,2500.00,M,M,M,M,KKY8 012315Z AUTO 01004KT 10SM OVC025 09/05 A3019 RMK AO1
KY8,2017-04-01 23:35,-86.8592,37.9530,48.20,41.00,76.01,330.00,3.00,0.00,30.20,M,10.00,M,OVC,M,M,M,2500.00,M,M,M,M,KKY8 012335Z AUTO 33003KT 10SM OVC025 09/05 A3020 RMK AO1
KY8,2017-04-01 23:55,-86.8592,37.9530,48.20,41.00,76.01,360.00,3.00,0.00,30.19,M,10.00,M,OVC,M,M,M,2700.00,M,M,M,M,KKY8 012355Z AUTO 36003KT 10SM OVC027 09/05 A3019 RMK AO1
