#DEBUG: Format Typ    -> comma
#DEBUG: Time Period   -> 2017-04-01 00:00:00+00:00 2017-04-02 00:00:00+00:00
#DEBUG: Time Zone     -> Etc/UTC
#DEBUG: Data Contact   -> daryl herzmann akrherz@iastate.edu 515-294-5978
#DEBUG: Entries Found -> -1
station,valid,lon,lat,tmpf, dwpf, relh, drct, sknt, p01i, alti, mslp, vsby, gust, skyc1, skyc2, skyc3, skyc4, skyl1, skyl2, skyl3, skyl4, presentwx, metar
L35,2017-04-01 00:15,-116.8560,34.2638,44.60,19.40,36.18,320.00,6.00,0.00,29.88,M,10.00,M,CLR,M,M,M,M,M,M,M,M,KL35 010015Z AUTO 32006KT 10SM CLR 07/M07 A2988 RMK AO2
L35,2017-04-01 00:35,-116.8560,34.2638,44.60,19.40,36.18,330.00,3.00,0.00,29.89,M,10.00,M,CLR,M,M,M,M,M,M,M,M,KL35 010035Z AUTO 33003KT 10SM CLR 07/M07 A2989 RMK AO2
L35,2017-04-01 00:55,-116.8560,34.2638,44.60,21.20,39.06,60.00,7.00,0.00,29.89,M,10.00,M,CLR,M,M,M,M,M,M,M,M,KL35 010055Z AUTO 06007KT 10SM CLR 07/M06 A2989 RMK AO2
L35,2017-04-01 01:15,-116.8560,34.2638,44.60,21.20,39.06,350.00,6.00,0.00,29.89,M,10.00,M,CLR,M,M,M,M,M,M,M,M,KL35 010115Z AUTO 35006KT 304V014 10SM CLR 07/M06 A2989 RMK AO2
L35,2017-04-01 01:35,-116.8560,34.2638,44.60,21.20,39.06,50.00,10.00,0.00,29.89,M,10.00,M,CLR,M,M,M,M,M,M,M,M,KL35 010135Z AUTO 05010KT 10SM CLR 07/M06 A2989 RMK AO2
L35,2017-04-01 01:55,-116.8560,34.2638,42.80,21.20,41.84,50.00,4.00,0.00,29.90,M,10.00,M,CLR,M,M,M,M,M,M,M,M,KL35 010155Z AUTO 05004KT 10SM CLR 06/M06 A2990 RMK AO2
L35,2017-04-01 02:15,-116.8560,34.2638,42.80,21.20,41.84,0.00,0.00,0.00,29.90,M,10.00,M,CLR,M,M,M,M,M,M,M,M,KL35 010215Z AUTO 00000KT 10SM CLR 06/M06 A2990 RMK AO2
L35,2017-04-01 02:35,-116.8560,34.2638,42.80,21.20,41.84,50.00,4.00,0.00,29.91,M,10.00,M,CLR,M,M,M,M,M,M,M,M,KL35 010235Z AUTO 05004KT 10SM CLR 06/M06 A2991 RMK AO2
L35,2017-04-01 02:55,-116.8560,34.2638,42.80,21.20,41.84,50.00,8.00,0.00,29.92,M,10.00,15.00,CLR,M,M,M,M,M,M,M,M,KL35 010255Z AUTO 05008G15KT 10SM CLR 06/M06 A2992 RMK AO2
L35,2017-04-01 03:15,-116.8560,34.2638,41.00,21.20,44.85,50.00,4.00,0.00,29.93,M,10.00,M,CLR,M,M,M,M,M,M,M,M,KL35 010315Z AUTO 05004KT 10SM CLR 05/M06 A2993 RMK AO2
L35,2017-04-01 03:35,-116.8560,34.2638,41.00,23.00,48.39,40.00,6.00,0.00,29.94,M,10.00,14.00,CLR,M,M,M,M,M,M,M,M,KL35 010335Z AUTO 04006G14KT 10SM CLR 05/M05 A2994 RMK AO2
L35,2017-04-01 03:55,-116.8560,34.2638,41.00,23.00,48.39,40.00,9.00,0.00,29.94,M,10.00,M,CLR,M,M,M,M,M,M,M,M,KL35 010355Z AUTO 04009KT 10SM CLR 05/M05 A2994 RMK AO2
L35,2017-04-01 04:15,-116.8560,34.2638,41.00,23.00,48.39,350.00,5.00,0.00,29.96,M,10.00,M,CLR,M,M,M,M,M,M,M,M,KL35 010415Z AUTO 35005KT 10SM CLR 05/M05 A2996 RMK AO2
L35,2017-04-01 04:35,-116.8560,34.2638,41.00,23.00,48.39,40.00,5.00,0.00,29.97,M,10.00,M,CLR,M,M,M,M,M,M,M,M,KL35 010435Z AUTO 04005KT 10SM CLR 05/M05 A2997 RMK AO2
L35,2017-04-01 04:55,-116.8560,34.2638,41.00,23.00,48.39,30.00,5.00,0.00,29.97,M,10.00,M,CLR,M,M,M,M,M,M,M,M,KL35 010455Z AUTO 03005KT 10SM CLR 05/M05 A2997 RMK AO2
L35,2017-04-01 05:15,-116.8560,34.2638,41.00,23.00,48.39,360.00,9.00,0.00,29.98,M,10.00,16.00,CLR,M,M,M,M,M,M,M,M,KL35 010515Z AUTO 36009G16KT 334V034 10SM CLR 05/M05 A2998 RMK AO2
L35,2017-04-01 05:35,-116.8560,34.2638,41.00,23.00,48.39,30.00,8.00,0.00,29.99,M,10.00,14.00,CLR,M,M,M,M,M,M,M,M,KL35 010535Z AUTO 03008G14KT 10SM CLR 05/M05 A2999 RMK AO2
L35,2017-04-01 05:55,-116.8560,34.2638,41.00,23.00,48.39,40.00,8.00,0.00,30.00,M,10.00,21.00,CLR,M,M,M,M,M,M,M,M,KL35 010555Z AUTO 04008G21KT 10SM CLR 05/M05 A3000 RMK AO2
L35,2017-04-01 06:15,-116.8560,34.2638,41.00,23.00,48.39,50.00,11.00,0.00,30.00,M,10.00,19.00,CLR,M,M,M,M,M,M,M,M,KL35 010615Z AUTO 05011G19KT 014V084 10SM CLR 05/M05 A3000 RMK AO2
L35,2017-04-01 06:35,-116.8560,34.2638,41.00,23.00,48.39,50.00,7.00,0.00,30.00,M,10.00,21.00,CLR,M,M,M,M,M,M,M,M,KL35 010635Z AUTO 05007G21KT 10SM CLR 05/M05 A3000 RMK AO2
L35,2017-04-01 06:55,-116.8560,34.2638,39.20,23.00,51.89,0.00,0.00,0.00,30.01,M,10.00,M,CLR,M,M,M,M,M,M,M,M,KL35 010655Z AUTO 00000KT 10SM CLR 04/M05 A3001 RMK AO2
L35,2017-04-01 07:15,-116.8560,34.2638,39.20,23.00,51.89,0.00,0.00,0.00,30.01,M,10.00,M,CLR,M,M,M,M,M,M,M,M,KL35 010715Z AUTO 00000KT 10SM CLR 04/M05 A3001 RMK AO2
L35,2017-04-01 07:35,-116.8560,34.2638,39.20,24.80,55.95,30.00,11.00,0.00,30.00,M,10.00,24.00,CLR,M,M,M,M,M,M,M,M,KL35 010735Z AUTO 03011G24KT 10SM CLR 04/M04 A3000 RMK AO2
L35,2017-04-01 07:55,-116.8560,34.2638,39.20,24.80,55.95,30.00,15.00,0.00,29.99,M,10.00,22.00,CLR,M,M,M,M,M,M,M,M,KL35 010755Z AUTO 03015G22KT 004V064 10SM CLR 04/M04 A2999 RMK AO2
L35,2017-04-01 08:15,-116.8560,34.2638,37.40,24.80,60.04,20.00,9.00,0.00,30.00,M,10.00,23.00,CLR,M,M,M,M,M,M,M,M,KL35 010815Z AUTO 02009G23KT 004V064 10SM CLR 03/M04 A3000 RMK AO2
L35,2017-04-01 08:35,-116.8560,34.2638,37.40,24.80,60.04,0.00,0.00,0.00,30.01,M,10.00,M,CLR,M,M,M,M,M,M,M,M,KL35 010835Z AUTO 00000KT 10SM CLR 03/M04 A3001 RMK AO2
L35,2017-04-01 08:55,-116.8560,34.2638,37.40,26.60,64.70,0.00,0.00,0.00,30.01,M,10.00,M,CLR,M,M,M,M,M,M,M,M,KL35 010855Z AUTO 00000KT 10SM CLR 03/M03 A3001 RMK AO2
L35,2017-04-01 09:15,-116.8560,34.2638,37.40,26.60,64.70,50.00,11.00,0.00,30.00,M,10.00,15.00,CLR,M,M,M,M,M,M,M,M,KL35 010915Z AUTO 05011G15KT 034V114 10SM CLR 03/M03 A3000 RMK AO2
L35,2017-04-01 09:35,-116.8560,34.2638,37.40,26.60,64.70,10.00,9.00,0.00,30.00,M,10.00,21.00,CLR,M,M,M,M,M,M,M,M,KL35 010935Z AUTO 01009G21KT 344V044 10SM CLR 03/M03 A3000 RMK AO2
L35,2017-04-01 09:55,-116.8560,34.2638,37.40,26.60,64.70,40.00,5.00,0.00,30.00,M,10.00,17.00,CLR,M,M,M,M,M,M,M,M,KL35 010955Z AUTO 04005G17KT 10SM CLR 03/M03 A3000 RMK AO2
L35,2017-04-01 10:15,-116.8560,34.2638,37.40,26.60,64.70,20.00,5.00,0.00,30.00,M,10.00,M,CLR,M,M,M,M,M,M,M,M,KL35 011015Z AUTO 02005KT 10SM CLR 03/M03 A3000 RMK AO2
L35,2017-04-01 10:35,-116.8560,34.2638,37.40,26.60,64.70,30.00,8.00,0.00,30.00,M,10.00,20.00,CLR,M,M,M,M,M,M,M,M,KL35 011035Z AUTO 03008G20KT 354V054 10SM CLR 03/M03 A3000 RMK AO2
L35,2017-04-01 10:55,-116.8560,34.2638,37.40,26.60,64.70,30.00,3.00,0.00,30.01,M,10.00,16.00,CLR,M,M,M,M,M,M,M,M,KL35 011055Z AUTO 03003G16KT 10SM CLR 03/M03 A3001 RMK AO2
L35,2017-04-01 11:15,-116.8560,34.2638,37.40,26.60,64.70,20.00,12.00,0.00,30.01,M,10.00,17.00,CLR,M,M,M,M,M,M,M,M,KL35 011115Z AUTO 02012G17KT 10SM CLR 03/M03 A3001 RMK AO2
L35,2017-04-01 11:35,-116.8560,34.2638,35.60,26.60,69.46,20.00,12.00,0.00,30.01,M,10.00,18.00,CLR,M,M,M,M,M,M,M,M,KL35 011135Z AUTO 02012G18KT 10SM CLR 02/M03 A3001 RMK AO2
L35,2017-04-01 11:55,-116.8560,34.2638,35.60,26.60,69.46,40.00,10.00,0.00,30.01,M,10.00,15.00,CLR,M,M,M,M,M,M,M,M,KL35 011155Z AUTO 04010G15KT 10SM CLR 02/M03 A3001 RMK AO2
L35,2017-04-01 12:15,-116.8560,34.2638,35.60,26.60,69.46,20.00,11.00,0.00,30.02,M,10.00,15.00,CLR,M,M,M,M,M,M,M,M,KL35 011215Z AUTO 02011G15KT 10SM CLR 02/M03 A3002 RMK AO2
L35,2017-04-01 12:35,-116.8560,34.2638,35.60,26.60,69.46,30.00,4.00,0.00,30.02,M,10.00,M,CLR,M,M,M,M,M,M,M,M,KL35 011235Z AUTO 03004KT 10SM CLR 02/M03 A3002 RMK AO2
L35,2017-04-01 12:55,-116.8560,34.2638,35.60,26.60,69.46,360.00,4.00,0.00,30.03,M,10.00,M,CLR,M,M,M,M,M,M,M,M,KL35 011255Z AUTO 36004KT 10SM CLR 02/M03 A3003 RMK AO2
L35,2017-04-01 13:15,-116.8560,34.2638,35.60,26.60,69.46,20.00,7.00,0.00,30.04,M,10.00,M,CLR,M,M,M,M,M,M,M,M,KL35 011315Z AUTO 02007KT 344V064 10SM CLR 02/M03 A3004 RMK AO2
L35,2017-04-01 13:35,-116.8560,34.2638,35.60,26.60,69.46,10.00,5.00,0.00,30.05,M,10.00,M,CLR,M,M,M,M,M,M,M,M,KL35 011335Z AUTO 01005KT 10SM CLR 02/M03 A3005 RMK AO2
L35,2017-04-01 13:55,-116.8560,34.2638,35.60,26.60,69.46,20.00,8.00,0.00,30.05,M,10.00,M,CLR,M,M,M,M,M,M,M,M,KL35 011355Z AUTO 02008KT 10SM CLR 02/M03 A3005 RMK AO2
L35,2017-04-01 14:15,-116.8560,34.2638,37.40,26.60,64.70,40.00,8.00,0.00,30.05,M,10.00,22.00,CLR,M,M,M,M,M,M,M,M,KL35 011415Z AUTO 04008G22KT 014V074 10SM CLR 03/M03 A3005 RMK AO2
L35,2017-04-01 14:35,-116.8560,34.2638,37.40,26.60,64.70,40.00,11.00,0.00,30.06,M,10.00,18.00,CLR,M,M,M,M,M,M,M,M,KL35 011435Z AUTO 04011G18KT 10SM CLR 03/M03 A3006 RMK AO2
L35,2017-04-01 14:55,-116.8560,34.2638,39.20,26.60,60.29,30.00,12.00,0.00,30.07,M,10.00,18.00,CLR,M,M,M,M,M,M,M,M,KL35 011455Z AUTO 03012G18KT 004V064 10SM CLR 04/M03 A3007 RMK AO2
L35,2017-04-01 15:15,-116.8560,34.2638,39.20,26.60,60.29,20.00,9.00,0.00,30.08,M,10.00,18.00,CLR,M,M,M,M,M,M,M,M,KL35 011515Z AUTO 02009G18KT 10SM CLR 04/M03 A3008 RMK AO2
L35,2017-04-01 15:35,-116.8560,34.2638,41.00,26.60,56.22,20.00,12.00,0.00,30.08,M,10.00,19.00,CLR,M,M,M,M,M,M,M,M,KL35 011535Z AUTO 02012G19KT 10SM CLR 05/M03 A3008 RMK AO2
L35,2017-04-01 15:55,-116.8560,34.2638,41.00,26.60,56.22,20.00,9.00,0.00,30.08,M,10.00,17.00,CLR,M,M,M,M,M,M,M,M,KL35 011555Z AUTO 02009G17KT 344V074 10SM CLR 05/M03 A3008 RMK AO2
L35,2017-04-01 16:15,-116.8560,34.2638,42.80,26.60,52.45,30.00,10.00,0.00,30.09,M,10.00,14.00,CLR,M,M,M,M,M,M,M,M,KL35 011615Z AUTO 03010G14KT 354V054 10SM CLR 06/M03 A3009 RMK AO2
L35,2017-04-01 16:35,-116.8560,34.2638,41.00,26.60,56.22,10.00,8.00,0.00,30.09,M,10.00,17.00,CLR,M,M,M,M,M,M,M,M,KL35 011635Z AUTO 01008G17KT 10SM CLR 05/M03 A3009 RMK AO2
L35,2017-04-01 16:55,-116.8560,34.2638,42.80,26.60,52.45,340.00,6.00,0.00,30.10,M,10.00,M,CLR,M,M,M,M,M,M,M,M,KL35 011655Z AUTO 34006KT 10SM CLR 06/M03 A3010 RMK AO2
L35,2017-04-01 17:15,-116.8560,34.2638,42.80,26.60,52.45,320.00,8.00,0.00,30.11,M,10.00,M,CLR,M,M,M,M,M,M,M,M,KL35 011715Z AUTO 32008KT 10SM CLR 06/M03 A3011 RMK AO2
L35,2017-04-01 17:35,-116.8560,34.2638,44.60,26.60,48.96,10.00,4.00,0.00,30.11,M,10.00,M,CLR,M,M,M,M,M,M,M,M,KL35 011735Z AUTO 01004KT 10SM CLR 07/M03 A3011 RMK AO2
L35,2017-04-01 17:55,-116.8560,34.2638,46.40,26.60,45.73,340.00,6.00,0.00,30.11,M,10.00,M,CLR,M,M,M,M,M,M,M,M,KL35 011755Z AUTO 34006KT 10SM CLR 08/M03 A3011 RMK AO2
L35,2017-04-01 18:15,-116.8560,34.2638,46.40,26.60,45.73,80.00,12.00,0.00,30.11,M,10.00,18.00,CLR,M,M,M,M,M,M,M,M,KL35 011815Z AUTO 08012G18KT 10SM CLR 08/M03 A3011 RMK AO2
L35,2017-04-01 18:35,-116.8560,34.2638,46.40,26.60,45.73,50.00,7.00,0.00,30.12,M,10.00,16.00,CLR,M,M,M,M,M,M,M,M,KL35 011835Z AUTO 05007G16KT 10SM CLR 08/M03 A3012 RMK AO2
L35,2017-04-01 18:55,-116.8560,34.2638,46.40,26.60,45.73,340.00,5.00,0.00,30.12,M,10.00,M,CLR,M,M,M,M,M,M,M,M,KL35 011855Z AUTO 34005KT 10SM CLR 08/M03 A3012 RMK AO2
L35,2017-04-01 19:15,-116.8560,34.2638,46.40,26.60,45.73,350.00,7.00,0.00,30.12,M,10.00,18.00,CLR,M,M,M,M,M,M,M,M,KL35 011915Z AUTO 35007G18KT 10SM CLR 08/M03 A3012 RMK AO2
L35,2017-04-01 19:35,-116.8560,34.2638,46.40,26.60,45.73,60.00,7.00,0.00,30.12,M,10.00,14.00,CLR,M,M,M,M,M,M,M,M,KL35 011935Z AUTO 06007G14KT 10SM CLR 08/M03 A3012 RMK AO2
L35,2017-04-01 19:55,-116.8560,34.2638,48.20,26.60,42.73,20.00,8.00,0.00,30.12,M,10.00,M,CLR,M,M,M,M,M,M,M,M,KL35 011955Z AUTO 02008KT 344V074 10SM CLR 09/M03 A3012 RMK AO2
L35,2017-04-01 20:15,-116.8560,34.2638,50.00,26.60,39.95,70.00,15.00,0.00,30.11,M,10.00,19.00,CLR,M,M,M,M,M,M,M,M,KL35 012015Z AUTO 07015G19KT 10SM CLR 10/M03 A3011 RMK AO2
L35,2017-04-01 20:35,-116.8560,34.2638,50.00,26.60,39.95,340.00,7.00,0.00,30.12,M,10.00,16.00,CLR,M,M,M,M,M,M,M,M,KL35 012035Z AUTO 34007G16KT 324V044 10SM CLR 10/M03 A3012 RMK AO2
L35,2017-04-01 20:55,-116.8560,34.2638,50.00,26.60,39.95,50.00,9.00,0.00,30.12,M,10.00,17.00,CLR,M,M,M,M,M,M,M,M,KL35 012055Z AUTO 05009G17KT 344V064 10SM CLR 10/M03 A3012 RMK AO2
L35,2017-04-01 21:15,-116.8560,34.2638,51.80,24.80,34.69,20.00,11.00,0.00,30.11,M,10.00,17.00,CLR,M,M,M,M,M,M,M,M,KL35 012115Z AUTO 02011G17KT 10SM CLR 11/M04 A3011 RMK AO2
L35,2017-04-01 21:35,-116.8560,34.2638,50.00,24.80,37.08,30.00,9.00,0.00,30.11,M,10.00,16.00,CLR,M,M,M,M,M,M,M,M,KL35 012135Z AUTO 03009G16KT 10SM CLR 10/M04 A3011 RMK AO2
L35,2017-04-01 21:55,-116.8560,34.2638,51.80,26.60,37.38,350.00,5.00,0.00,30.11,M,10.00,M,CLR,M,M,M,M,M,M,M,M,KL35 012155Z AUTO 35005KT 10SM CLR 11/M03 A3011 RMK AO2
L35,2017-04-01 22:15,-116.8560,34.2638,51.80,23.00,32.17,40.00,7.00,0.00,30.11,M,10.00,15.00,CLR,M,M,M,M,M,M,M,M,KL35 012215Z AUTO 04007G15KT 024V094 10SM CLR 11/M05 A3011 RMK AO2
L35,2017-04-01 22:35,-116.8560,34.2638,51.80,24.80,34.69,20.00,6.00,0.00,30.11,M,10.00,14.00,CLR,M,M,M,M,M,M,M,M,KL35 012235Z AUTO 02006G14KT 354V084 10SM CLR 11/M04 A3011 RMK AO2
L35,2017-04-01 22:55,-116.8560,34.2638,51.80,23.00,32.17,350.00,9.00,0.00,30.11,M,10.00,14.00,CLR,M,M,M,M,M,M,M,M,KL35 012255Z AUTO 35009G14KT 324V054 10SM CLR 11/M05 A3011 RMK AO2
L35,2017-04-01 23:15,-116.8560,34.2638,51.80,23.00,32.17,360.00,4.00,0.00,30.11,M,10.00,M,CLR,M,M,M,M,M,M,M,M,KL35 012315Z AUTO 36004KT 10SM CLR 11/M05 A3011 RMK AO2
L35,2017-04-01 23:35,-116.8560,34.2638,51.80,23.00,32.17,30.00,5.00,0.00,30.11,M,10.00,M,CLR,M,M,M,M,M,M,M,M,KL35 012335Z AUTO 03005KT 10SM CLR 11/M05 A3011 RMK AO2
L35,2017-04-01 23:55,-116.8560,34.2638,53.60,23.00,30.11,0.00,0.00,0.00,30.11,M,10.00,M,CLR,M,M,M,M,M,M,M,M,KL35 012355Z AUTO 00000KT 10SM CLR 12/M05 A3011 RMK AO2
