#DEBUG: Format Typ    -> comma
#DEBUG: Time Period   -> 2017-04-01 00:00:00+00:00 2017-04-02 00:00:00+00:00
#DEBUG: Time Zone     -> Etc/UTC
#DEBUG: Data Contact   -> daryl herzmann akrherz@iastate.edu 515-294-5978
#DEBUG: Entries Found -> -1
station,valid,lon,lat,tmpf, dwpf, relh, drct, sknt, p01i, alti, mslp, vsby, gust, skyc1, skyc2, skyc3, skyc4, skyl1, skyl2, skyl3, skyl4, presentwx, metar
LCI,2017-04-01 00:00,-71.4200,43.5700,M,M,M,50.00,9.00,M,30.08,M,1.25,M,BKN,OVC,M,M,600.00,900.00,M,M,-SN BR,KLCI 010000Z AUTO 05009KT 1 1/2SM -SN BR BKN006 OVC009 A3008 RMK MADISHF
LCI,2017-04-01 00:05,-71.4200,43.5700,M,M,M,70.00,8.00,M,30.08,M,1.25,M,BKN,OVC,M,M,600.00,900.00,M,M,-SN BR,KLCI 010005Z AUTO 07008KT 1 1/2SM -SN BR BKN006 OVC009 A3008 RMK MADISHF
LCI,2017-04-01 00:10,-71.4200,43.5700,M,M,M,60.00,6.00,M,30.08,M,1.25,M,BKN,OVC,M,M,600.00,1500.00,M,M,-SN BR,KLCI 010010Z AUTO 06006KT 1 1/2SM -SN BR BKN006 OVC015 A3008 RMK CIG 4V10  MADISHF
LCI,2017-04-01 00:15,-71.4200,43.5700,M,M,M,60.00,9.00,M,30.08,M,1.25,M,BKN,BKN,OVC,M,600.00,999.00,1500.00,M,-SN BR,KLCI 010015Z AUTO 06009KT 1 1/2SM -SN BR BKN006 BKN009 OVC015 A3008 RMK CIG 4V8  MADISHF
LCI,2017-04-01 00:20,-71.4200,43.5700,M,M,M,60.00,8.00,M,30.08,M,1.50,M,BKN,BKN,OVC,M,600.00,999.00,1500.00,M,-SN BR,KLCI 010020Z AUTO 06008KT 1 1/2SM -SN BR BKN006 BKN009 OVC015 A3008 RMK MADISHF
LCI,2017-04-01 00:25,-71.4200,43.5700,M,M,M,60.00,8.00,M,30.08,M,1.50,M,SCT,OVC,M,M,600.00,1500.00,M,M,-SN BR,KLCI 010025Z AUTO 06008KT 1 1/2SM -SN BR SCT006 OVC015 A3008 RMK MADISHF
LCI,2017-04-01 00:30,-71.4200,43.5700,M,M,M,60.00,8.00,M,30.08,M,1.50,M,SCT,OVC,M,M,600.00,1500.00,M,M,-SN BR,KLCI 010030Z AUTO 06008KT 1 1/2SM -SN BR SCT006 OVC015 A3008 RMK MADISHF
LCI,2017-04-01 00:35,-71.4200,43.5700,30.20,28.40,92.92,50.00,8.00,0.00,30.08,M,1.25,M,SCT,OVC,M,M,600.00,1700.00,M,M,-SN BR,KLCI 010035Z AUTO 05008KT 1 1/4SM -SN BR SCT006 OVC017 M01/M02 A3008 RMK AO2 P0000 FZRANO
LCI,2017-04-01 00:40,-71.4200,43.5700,M,M,M,60.00,9.00,M,30.08,M,1.25,M,BKN,OVC,M,M,600.00,1699.00,M,M,-SN BR,KLCI 010040Z AUTO 06009KT 1 1/2SM -SN BR BKN006 OVC016 A3008 RMK MADISHF
LCI,2017-04-01 00:45,-71.4200,43.5700,M,M,M,40.00,5.00,M,30.08,M,1.00,M,SCT,OVC,M,M,600.00,1500.00,M,M,-SN BR,KLCI 010045Z AUTO 04005KT 1SM -SN BR SCT006 OVC015 A3008 RMK VRB05KT  MADISHF
LCI,2017-04-01 00:48,-71.4200,43.5700,30.20,28.40,92.92,70.00,6.00,0.00,30.08,M,1.00,M,BKN,OVC,M,M,800.00,1500.00,M,M,-SN BR,KLCI 010048Z AUTO 07006KT 1SM -SN BR BKN008 OVC015 M01/M02 A3008 RMK AO2 CIG 005V011 P0000 FZRANO
LCI,2017-04-01 00:50,-71.4200,43.5700,M,M,M,50.00,5.00,M,30.08,M,1.00,M,BKN,OVC,M,M,800.00,1500.00,M,M,-SN BR,KLCI 010050Z AUTO 05005KT 1SM -SN BR BKN008 OVC015 A3008 RMK CIG 5V11  MADISHF
LCI,2017-04-01 00:55,-71.4200,43.5700,M,M,M,40.00,4.00,M,30.08,M,1.00,M,BKN,OVC,M,M,600.00,1300.00,M,M,-SN BR,KLCI 010055Z AUTO 04004KT 1SM -SN BR BKN006 OVC013 A3008 RMK VRB04KT CIG 5V8  MADISHF
LCI,2017-04-01 00:56,-71.4200,43.5700,30.00,28.00,92.15,50.00,5.00,0.00,30.08,1020.40,1.00,M,BKN,OVC,M,M,600.00,1300.00,M,M,-SN BR,KLCI 010056Z AUTO 05005KT 1SM -SN BR BKN006 OVC013 M01/M02 A3008 RMK AO2 CIG 005V008 SLP204 P0000 T10111022 FZRANO
LCI,2017-04-01 01:00,-71.4200,43.5700,M,M,M,50.00,6.00,M,30.08,M,0.75,M,BKN,OVC,M,M,600.00,1300.00,M,M,-SN BR,KLCI 010100Z AUTO 05006KT 1SM -SN BR BKN006 OVC013 A3008 RMK MADISHF
LCI,2017-04-01 01:05,-71.4200,43.5700,M,M,M,50.00,7.00,M,30.08,M,0.75,M,BKN,OVC,M,M,600.00,1300.00,M,M,-SN BR,KLCI 010105Z AUTO 05007KT 1SM -SN BR BKN006 OVC013 A3008 RMK CIG 5V10  MADISHF
LCI,2017-04-01 01:10,-71.4200,43.5700,M,M,M,60.00,7.00,M,30.08,M,1.00,M,OVC,M,M,M,600.00,M,M,M,-SN BR,KLCI 010110Z AUTO 06007KT 1SM -SN BR OVC006 A3008 RMK CIG 5V10  MADISHF
LCI,2017-04-01 01:15,-71.4200,43.5700,M,M,M,60.00,6.00,M,30.08,M,1.25,M,OVC,M,M,M,600.00,M,M,M,-SN BR,KLCI 010115Z AUTO 06006KT 1 1/2SM -SN BR OVC006 A3008 RMK CIG 5V10  MADISHF
LCI,2017-04-01 01:20,-71.4200,43.5700,M,M,M,60.00,5.00,M,30.08,M,1.00,M,OVC,M,M,M,600.00,M,M,M,-SN BR,KLCI 010120Z AUTO 06005KT 1SM -SN BR OVC006 A3008 RMK CIG 5V9  MADISHF
LCI,2017-04-01 01:25,-71.4200,43.5700,M,M,M,60.00,4.00,M,30.08,M,1.00,M,OVC,M,M,M,600.00,M,M,M,-SN BR,KLCI 010125Z AUTO 06004KT 1SM -SN BR OVC006 A3008 RMK MADISHF
LCI,2017-04-01 01:35,-71.4200,43.5700,M,M,M,60.00,6.00,M,30.07,M,0.75,M,BKN,OVC,M,M,600.00,1100.00,M,M,-SN BR,KLCI 010135Z AUTO 06006KT 1SM -SN BR BKN006 OVC011 A3007 RMK CIG 5V8  MADISHF
LCI,2017-04-01 01:40,-71.4200,43.5700,M,M,M,50.00,5.00,M,30.07,M,0.75,M,OVC,M,M,M,600.00,M,M,M,-SN BR,KLCI 010140Z AUTO 05005KT 1SM -SN BR OVC006 A3007 RMK CIG 4V10  MADISHF
LCI,2017-04-01 01:45,-71.4200,43.5700,M,M,M,60.00,8.00,M,30.07,M,0.75,M,OVC,M,M,M,800.00,M,M,M,-SN BR,KLCI 010145Z AUTO 06008KT 1SM -SN BR OVC008 A3007 RMK CIG 4V13  MADISHF
LCI,2017-04-01 01:46,-71.4200,43.5700,30.20,28.40,92.92,60.00,8.00,0.00,30.07,M,0.75,M,OVC,M,M,M,800.00,M,M,M,-SN BR,KLCI 010146Z AUTO 06008KT 3/4SM -SN BR OVC008 M01/M02 A3007 RMK AO2 CIG 004V013 P0000 FZRANO
LCI,2017-04-01 01:50,-71.4200,43.5700,M,M,M,60.00,7.00,M,30.07,M,0.75,M,OVC,M,M,M,800.00,M,M,M,-SN BR,KLCI 010150Z AUTO 06007KT 1SM -SN BR OVC008 A3007 RMK CIG 4V13  MADISHF
LCI,2017-04-01 01:55,-71.4200,43.5700,M,M,M,60.00,6.00,M,30.07,M,0.75,M,OVC,M,M,M,800.00,M,M,M,-SN BR,KLCI 010155Z AUTO 06006KT 1SM -SN BR OVC008 A3007 RMK CIG 4V10  MADISHF
LCI,2017-04-01 01:56,-71.4200,43.5700,30.00,28.90,95.61,60.00,7.00,0.00,30.06,1019.90,0.75,M,OVC,M,M,M,800.00,M,M,M,-SN BR,KLCI 010156Z AUTO 06007KT 3/4SM -SN BR OVC008 M01/M02 A3006 RMK AO2 CIG 004V010 SLP199 P0000 T10111017 FZRANO
LCI,2017-04-01 02:00,-71.4200,43.5700,M,M,M,60.00,6.00,M,30.06,M,0.75,M,OVC,M,M,M,800.00,M,M,M,-SN BR,KLCI 010200Z AUTO 06006KT 1SM -SN BR OVC008 A3006 RMK CIG 4V11  MADISHF
LCI,2017-04-01 02:05,-71.4200,43.5700,M,M,M,50.00,5.00,M,30.06,M,0.75,M,OVC,M,M,M,800.00,M,M,M,-SN BR,KLCI 010205Z AUTO 05005KT 1SM -SN BR OVC008 A3006 RMK CIG 4V11  MADISHF
LCI,2017-04-01 02:10,-71.4200,43.5700,M,M,M,50.00,6.00,M,30.06,M,1.00,M,OVC,M,M,M,800.00,M,M,M,-SN BR,KLCI 010210Z AUTO 05006KT 1SM -SN BR OVC008 A3006 RMK CIG 5V11  MADISHF
LCI,2017-04-01 02:15,-71.4200,43.5700,M,M,M,60.00,7.00,M,30.05,M,1.00,M,OVC,M,M,M,800.00,M,M,M,-SN BR,KLCI 010215Z AUTO 06007KT 1SM -SN BR OVC008 A3005 RMK CIG 5V11  MADISHF
LCI,2017-04-01 02:20,-71.4200,43.5700,M,M,M,60.00,6.00,M,30.05,M,0.75,M,BKN,OVC,M,M,600.00,999.00,M,M,-SN BR,KLCI 010220Z AUTO 06006KT 1SM -SN BR BKN006 OVC009 A3005 RMK CIG 4V9  MADISHF
LCI,2017-04-01 02:25,-71.4200,43.5700,M,M,M,50.00,8.00,0.01,30.05,M,0.75,M,BKN,OVC,M,M,600.00,900.00,M,M,-SN BR,KLCI 010225Z AUTO 05008KT 1SM -SN BR BKN006 OVC009 A3005 RMK P0001 CIG 4V8  MADISHF
LCI,2017-04-01 02:35,-71.4200,43.5700,M,M,M,60.00,8.00,0.01,30.04,M,0.75,M,OVC,M,M,M,600.00,M,M,M,-SN BR,KLCI 010235Z AUTO 06008KT 1SM -SN BR OVC006 A3004 RMK P0001 CIG 4V10  MADISHF
LCI,2017-04-01 02:40,-71.4200,43.5700,M,M,M,50.00,5.00,0.01,30.04,M,1.00,M,OVC,M,M,M,600.00,M,M,M,-SN BR,KLCI 010240Z AUTO 05005KT 1SM -SN BR OVC006 A3004 RMK P0001 CIG 4V10  MADISHF
LCI,2017-04-01 02:45,-71.4200,43.5700,M,M,M,50.00,8.00,0.01,30.03,M,1.00,M,OVC,M,M,M,600.00,M,M,M,-SN BR,KLCI 010245Z AUTO 05008KT 1SM -SN BR OVC006 A3003 RMK P0001 CIG 4V10  MADISHF
LCI,2017-04-01 02:50,-71.4200,43.5700,30.20,28.40,92.92,50.00,6.00,0.01,30.03,M,1.00,M,OVC,M,M,M,600.00,M,M,M,-SN BR,KLCI 010250Z AUTO 05006KT 1SM -SN BR OVC006 M01/M02 A3003 RMK AO2 CIG 004V010 P0001 FZRANO
LCI,2017-04-01 02:56,-71.4200,43.5700,30.00,28.90,95.61,40.00,7.00,0.01,30.03,1018.70,0.75,M,OVC,M,M,M,600.00,M,M,M,-SN BR,KLCI 010256Z AUTO 04007KT 3/4SM -SN BR OVC006 M01/M02 A3003 RMK AO2 CIG 004V008 SLP187 P0001 60001 T10111017 58013 FZRANO
LCI,2017-04-01 03:00,-71.4200,43.5700,M,M,M,50.00,6.00,M,30.03,M,0.75,M,OVC,M,M,M,600.00,M,M,M,-SN BR,KLCI 010300Z AUTO 05006KT 1SM -SN BR OVC006 A3003 RMK CIG 4V8  MADISHF
LCI,2017-04-01 03:05,-71.4200,43.5700,30.20,28.40,92.92,40.00,7.00,0.00,30.03,M,1.00,M,BKN,OVC,M,M,400.00,900.00,M,M,-SN BR,KLCI 010305Z AUTO 04007KT 1SM -SN BR BKN004 OVC009 M01/M02 A3003 RMK AO2 P0000 FZRANO
LCI,2017-04-01 03:10,-71.4200,43.5700,30.20,28.40,92.92,50.00,7.00,0.00,30.03,M,1.25,M,OVC,M,M,M,600.00,M,M,M,-SN BR,KLCI 010310Z AUTO 05007KT 1 1/4SM -SN BR OVC006 M01/M02 A3003 RMK AO2 CIG 004V008 P0000 FZRANO
LCI,2017-04-01 03:20,-71.4200,43.5700,M,M,M,50.00,5.00,M,30.03,M,1.00,M,OVC,M,M,M,600.00,M,M,M,-SN BR,KLCI 010320Z AUTO 05005KT 1SM -SN BR OVC006 A3003 RMK CIG 4V8  MADISHF
LCI,2017-04-01 03:22,-71.4200,43.5700,30.20,28.40,92.92,50.00,6.00,0.00,30.02,M,1.00,M,BKN,OVC,M,M,400.00,800.00,M,M,-SN BR,KLCI 010322Z AUTO 05006KT 1SM -SN BR BKN004 OVC008 M01/M02 A3002 RMK AO2 P0000 FZRANO
LCI,2017-04-01 03:25,-71.4200,43.5700,M,M,M,40.00,5.00,M,30.02,M,1.00,M,BKN,OVC,M,M,400.00,800.00,M,M,-SN BR,KLCI 010325Z AUTO 04005KT 1SM -SN BR BKN004 OVC008 A3002 RMK MADISHF
LCI,2017-04-01 03:30,-71.4200,43.5700,M,M,M,40.00,6.00,M,30.02,M,0.75,M,OVC,M,M,M,400.00,M,M,M,-SN BR,KLCI 010330Z AUTO 04006KT 1SM -SN BR OVC004 A3002 RMK MADISHF
LCI,2017-04-01 03:35,-71.4200,43.5700,M,M,M,30.00,6.00,M,30.02,M,0.75,M,BKN,OVC,M,M,400.00,900.00,M,M,-SN BR,KLCI 010335Z AUTO 03006KT 1SM -SN BR BKN004 OVC009 A3002 RMK MADISHF
LCI,2017-04-01 03:38,-71.4200,43.5700,30.20,28.40,92.92,40.00,4.00,0.00,30.02,M,0.75,M,OVC,M,M,M,400.00,M,M,M,-SN BR,KLCI 010338Z AUTO 04004KT 3/4SM -SN BR OVC004 M01/M02 A3002 RMK AO2 CIG 004V008 P0000 FZRANO
LCI,2017-04-01 03:40,-71.4200,43.5700,M,M,M,40.00,4.00,M,30.02,M,0.75,M,OVC,M,M,M,400.00,M,M,M,-SN BR,KLCI 010340Z AUTO 04004KT 1SM -SN BR OVC004 A3002 RMK CIG 4V9  MADISHF
LCI,2017-04-01 03:45,-71.4200,43.5700,M,M,M,40.00,5.00,M,30.01,M,0.75,M,BKN,OVC,M,M,400.00,900.00,M,M,-SN BR,KLCI 010345Z AUTO 04005KT 1SM -SN BR BKN004 OVC009 A3001 RMK CIG 4V9  MADISHF
LCI,2017-04-01 03:50,-71.4200,43.5700,M,M,M,40.00,5.00,M,30.01,M,0.75,M,BKN,OVC,M,M,400.00,900.00,M,M,-SN BR,KLCI 010350Z AUTO 04005KT 1SM -SN BR BKN004 OVC009 A3001 RMK MADISHF
LCI,2017-04-01 03:55,-71.4200,43.5700,M,M,M,40.00,6.00,M,30.01,M,0.75,M,OVC,M,M,M,400.00,M,M,M,-SN BR,KLCI 010355Z AUTO 04006KT 1SM -SN BR OVC004 A3001 RMK CIG 4V9  MADISHF
LCI,2017-04-01 03:56,-71.4200,43.5700,30.00,28.90,95.61,40.00,6.00,0.00,30.01,1018.30,0.75,M,OVC,M,M,M,400.00,M,M,M,-SN BR,KLCI 010356Z AUTO 04006KT 3/4SM -SN BR OVC004 M01/M02 A3001 RMK AO2 CIG 004V009 SLP183 P0000 T10111017 400331011 FZRANO
LCI,2017-04-01 04:00,-71.4200,43.5700,M,M,M,40.00,5.00,M,30.01,M,0.50,M,OVC,M,M,M,400.00,M,M,M,SN FZFG,KLCI 010400Z AUTO 04005KT 1/2SM SN FZFG OVC004 A3001 RMK CIG 4V8  MADISHF
LCI,2017-04-01 04:05,-71.4200,43.5700,M,M,M,40.00,5.00,M,30.01,M,0.75,M,OVC,M,M,M,400.00,M,M,M,-SN BR,KLCI 010405Z AUTO 04005KT 1SM -SN BR OVC004 A3001 RMK CIG 4V8  MADISHF
LCI,2017-04-01 04:10,-71.4200,43.5700,M,M,M,40.00,6.00,M,30.01,M,0.75,M,OVC,M,M,M,400.00,M,M,M,-SN BR,KLCI 010410Z AUTO 04006KT 1SM -SN BR OVC004 A3001 RMK CIG 4V8  MADISHF
LCI,2017-04-01 04:15,-71.4200,43.5700,M,M,M,40.00,7.00,M,30.01,M,0.75,M,OVC,M,M,M,400.00,M,M,M,-SN BR,KLCI 010415Z AUTO 04007KT 1SM -SN BR OVC004 A3001 RMK CIG 4V10  MADISHF
LCI,2017-04-01 04:25,-71.4200,43.5700,M,M,M,30.00,5.00,M,30.01,M,0.50,M,OVC,M,M,M,400.00,M,M,M,SN FZFG,KLCI 010425Z AUTO 03005KT 1/2SM SN FZFG OVC004 A3001 RMK CIG 4V7  MADISHF
LCI,2017-04-01 04:28,-71.4200,43.5700,30.20,28.40,92.92,M,6.00,0.00,30.01,M,0.50,M,OVC,M,M,M,400.00,M,M,M,SN FZFG,KLCI 010428Z AUTO VRB06KT 1/2SM SN FZFG OVC004 M01/M02 A3001 RMK AO2 P0000 FZRANO
LCI,2017-04-01 04:30,-71.4200,43.5700,M,M,M,40.00,7.00,M,30.01,M,0.50,M,OVC,M,M,M,400.00,M,M,M,SN FZFG,KLCI 010430Z AUTO 04007KT 1/2SM SN FZFG OVC004 A3001 RMK MADISHF
LCI,2017-04-01 04:35,-71.4200,43.5700,M,M,M,40.00,6.00,M,30.01,M,0.75,M,OVC,M,M,M,400.00,M,M,M,-SN BR,KLCI 010435Z AUTO 04006KT 1SM -SN BR OVC004 A3001 RMK MADISHF
LCI,2017-04-01 04:40,-71.4200,43.5700,M,M,M,40.00,8.00,M,30.00,M,0.50,M,OVC,M,M,M,400.00,M,M,M,SN FZFG,KLCI 010440Z AUTO 04008KT 1/2SM SN FZFG OVC004 A3000 RMK MADISHF
LCI,2017-04-01 04:45,-71.4200,43.5700,M,M,M,40.00,7.00,M,30.00,M,0.50,M,OVC,M,M,M,400.00,M,M,M,SN FZFG,KLCI 010445Z AUTO 04007KT 1/2SM SN FZFG OVC004 A3000 RMK MADISHF
LCI,2017-04-01 04:50,-71.4200,43.5700,M,M,M,40.00,7.00,M,30.00,M,0.50,M,OVC,M,M,M,400.00,M,M,M,SN FZFG,KLCI 010450Z AUTO 04007KT 1/2SM SN FZFG OVC004 A3000 RMK CIG 3V7  MADISHF
LCI,2017-04-01 04:55,-71.4200,43.5700,M,M,M,40.00,7.00,M,29.99,M,0.75,M,BKN,OVC,M,M,400.00,900.00,M,M,-SN BR,KLCI 010455Z AUTO 04007KT 1SM -SN BR BKN004 OVC009 A2999 RMK CIG 3V8  MADISHF
LCI,2017-04-01 04:56,-71.4200,43.5700,30.90,28.90,92.18,50.00,7.00,0.00,29.99,1017.70,0.75,M,BKN,OVC,M,M,400.00,900.00,M,M,-SN BR,KLCI 010456Z AUTO 05007KT 3/4SM -SN BR BKN004 OVC009 M01/M02 A2999 RMK AO2 CIG 003V008 SLP177 P0000 T10061017 FZRANO
LCI,2017-04-01 05:00,-71.4200,43.5700,M,M,M,40.00,7.00,M,29.99,M,0.75,M,BKN,OVC,M,M,400.00,900.00,M,M,-SN BR,KLCI 010500Z AUTO 04007KT 1SM -SN BR BKN004 OVC009 A2999 RMK MADISHF
LCI,2017-04-01 05:05,-71.4200,43.5700,M,M,M,50.00,6.00,M,29.99,M,0.75,M,BKN,OVC,M,M,400.00,900.00,M,M,-SN BR,KLCI 010505Z AUTO 05006KT 1SM -SN BR BKN004 OVC009 A2999 RMK MADISHF
LCI,2017-04-01 05:10,-71.4200,43.5700,M,M,M,40.00,7.00,M,29.99,M,0.75,M,BKN,OVC,M,M,400.00,900.00,M,M,-SN BR,KLCI 010510Z AUTO 04007KT 1SM -SN BR BKN004 OVC009 A2999 RMK MADISHF
LCI,2017-04-01 05:15,-71.4200,43.5700,M,M,M,30.00,6.00,M,29.99,M,0.75,M,BKN,OVC,M,M,400.00,900.00,M,M,-SN BR,KLCI 010515Z AUTO 03006KT 1SM -SN BR BKN004 OVC009 A2999 RMK MADISHF
LCI,2017-04-01 05:20,-71.4200,43.5700,M,M,M,50.00,7.00,M,29.99,M,1.00,M,BKN,OVC,M,M,400.00,999.00,M,M,-SN BR,KLCI 010520Z AUTO 05007KT 1SM -SN BR BKN004 OVC009 A2999 RMK MADISHF
LCI,2017-04-01 05:25,-71.4200,43.5700,M,M,M,50.00,8.00,M,29.98,M,1.00,M,OVC,M,M,M,400.00,M,M,M,-SN BR,KLCI 010525Z AUTO 05008KT 1SM -SN BR OVC004 A2998 RMK MADISHF
LCI,2017-04-01 05:27,-71.4200,43.5700,30.20,30.20,100.00,40.00,7.00,0.00,29.98,M,1.00,M,OVC,M,M,M,400.00,M,M,M,-SN BR,KLCI 010527Z AUTO 04007KT 1SM -SN BR OVC004 M01/M01 A2998 RMK AO2 CIG 004V008 P0000 FZRANO
LCI,2017-04-01 05:30,-71.4200,43.5700,M,M,M,50.00,8.00,M,29.98,M,1.00,M,OVC,M,M,M,400.00,M,M,M,-SN BR,KLCI 010530Z AUTO 05008KT 1SM -SN BR OVC004 A2998 RMK CIG 4V8  MADISHF
LCI,2017-04-01 05:35,-71.4200,43.5700,M,M,M,40.00,8.00,M,29.97,M,1.00,M,OVC,M,M,M,400.00,M,M,M,-SN BR,KLCI 010535Z AUTO 04008KT 1SM -SN BR OVC004 A2997 RMK CIG 4V8  MADISHF
LCI,2017-04-01 05:40,-71.4200,43.5700,M,M,M,40.00,6.00,M,29.97,M,1.00,M,OVC,M,M,M,400.00,M,M,M,-SN BR,KLCI 010540Z AUTO 04006KT 1SM -SN BR OVC004 A2997 RMK MADISHF
LCI,2017-04-01 05:45,-71.4200,43.5700,M,M,M,50.00,8.00,M,29.97,M,1.00,M,OVC,M,M,M,400.00,M,M,M,-SN BR,KLCI 010545Z AUTO 05008KT 1SM -SN BR OVC004 A2997 RMK MADISHF
LCI,2017-04-01 05:50,-71.4200,43.5700,M,M,M,40.00,9.00,M,29.97,M,1.00,M,OVC,M,M,M,400.00,M,M,M,-SN BR,KLCI 010550Z AUTO 04009KT 1SM -SN BR OVC004 A2997 RMK MADISHF
LCI,2017-04-01 05:56,-71.4200,43.5700,30.90,30.00,96.41,40.00,5.00,0.00,29.97,1016.80,1.00,15.00,OVC,M,M,M,400.00,M,M,M,-SN BR,KLCI 010556Z AUTO 04005G15KT 1SM -SN BR OVC004 M01/M01 A2997 RMK AO2 SLP168 P0000 60001 T10061011 11006 21011 58021 FZRANO
LCI,2017-04-01 06:00,-71.4200,43.5700,M,M,M,50.00,6.00,M,29.97,M,1.00,M,OVC,M,M,M,400.00,M,M,M,-SN BR,KLCI 010600Z AUTO 05006KT 1SM -SN BR OVC004 A2997 RMK MADISHF
LCI,2017-04-01 06:05,-71.4200,43.5700,M,M,M,50.00,9.00,0.01,29.96,M,1.00,M,OVC,M,M,M,400.00,M,M,M,-SN BR,KLCI 010605Z AUTO 05009KT 1SM -SN BR OVC004 A2996 RMK P0001 MADISHF
LCI,2017-04-01 06:10,-71.4200,43.5700,M,M,M,60.00,8.00,0.01,29.96,M,1.00,M,OVC,M,M,M,400.00,M,M,M,-SN BR,KLCI 010610Z AUTO 06008KT 1SM -SN BR OVC004 A2996 RMK P0001 MADISHF
LCI,2017-04-01 06:15,-71.4200,43.5700,M,M,M,60.00,7.00,0.01,29.97,M,1.00,M,OVC,M,M,M,600.00,M,M,M,-SN BR,KLCI 010615Z AUTO 06007KT 1SM -SN BR OVC006 A2997 RMK P0001 CIG 4V9  MADISHF
LCI,2017-04-01 06:20,-71.4200,43.5700,M,M,M,50.00,8.00,0.01,29.97,M,1.00,M,OVC,M,M,M,600.00,M,M,M,-SN BR,KLCI 010620Z AUTO 05008KT 1SM -SN BR OVC006 A2997 RMK P0001 CIG 4V10  MADISHF
LCI,2017-04-01 06:25,-71.4200,43.5700,M,M,M,50.00,9.00,0.01,29.97,M,1.00,M,OVC,M,M,M,600.00,M,M,M,-SN BR,KLCI 010625Z AUTO 05009KT 1SM -SN BR OVC006 A2997 RMK P0001 CIG 4V10  MADISHF
LCI,2017-04-01 06:26,-71.4200,43.5700,30.20,30.20,100.00,50.00,8.00,0.01,29.96,M,1.00,M,OVC,M,M,M,600.00,M,M,M,-SN BR,KLCI 010626Z AUTO 05008KT 1SM -SN BR OVC006 M01/M01 A2996 RMK AO2 CIG 004V010 P0001 FZRANO
LCI,2017-04-01 06:30,-71.4200,43.5700,M,M,M,60.00,7.00,0.01,29.96,M,1.00,M,OVC,M,M,M,600.00,M,M,M,-SN BR,KLCI 010630Z AUTO 06007KT 1SM -SN BR OVC006 A2996 RMK P0001 CIG 4V10  MADISHF
LCI,2017-04-01 06:35,-71.4200,43.5700,M,M,M,40.00,7.00,0.01,29.96,M,1.00,M,OVC,M,M,M,600.00,M,M,M,-SN BR,KLCI 010635Z AUTO 04007KT 1SM -SN BR OVC006 A2996 RMK P0001 CIG 4V12  MADISHF
LCI,2017-04-01 06:40,-71.4200,43.5700,M,M,M,60.00,7.00,0.01,29.96,M,1.25,M,OVC,M,M,M,600.00,M,M,M,-SN BR,KLCI 010640Z AUTO 06007KT 1 1/2SM -SN BR OVC006 A2996 RMK P0001 CIG 5V12  MADISHF
LCI,2017-04-01 06:45,-71.4200,43.5700,M,M,M,60.00,8.00,0.01,29.96,M,1.50,M,BKN,OVC,M,M,600.00,1300.00,M,M,-SN BR,KLCI 010645Z AUTO 06008KT 1 1/2SM -SN BR BKN006 OVC013 A2996 RMK P0001 CIG 5V9  MADISHF
LCI,2017-04-01 06:49,-71.4200,43.5700,30.20,30.20,100.00,50.00,7.00,0.01,29.96,M,1.75,M,BKN,OVC,M,M,600.00,1300.00,M,M,-SN BR,KLCI 010649Z AUTO 05007KT 1 3/4SM -SN BR BKN006 OVC013 M01/M01 A2996 RMK AO2 CIG 005V009 P0001 FZRANO
LCI,2017-04-01 06:50,-71.4200,43.5700,M,M,M,50.00,8.00,0.01,29.95,M,1.50,M,BKN,OVC,M,M,600.00,1300.00,M,M,-SN BR,KLCI 010650Z AUTO 05008KT 1 1/2SM -SN BR BKN006 OVC013 A2995 RMK P0001 CIG 5V10  MADISHF
LCI,2017-04-01 06:55,-71.4200,43.5700,M,M,M,50.00,8.00,0.01,29.95,M,1.25,M,BKN,OVC,M,M,600.00,1300.00,M,M,-SN BR,KLCI 010655Z AUTO 05008KT 1 1/2SM -SN BR BKN006 OVC013 A2995 RMK P0001 CIG 4V10  MADISHF
LCI,2017-04-01 06:56,-71.4200,43.5700,30.90,30.00,96.41,50.00,8.00,0.01,29.95,1016.20,1.25,M,BKN,OVC,M,M,600.00,1100.00,M,M,-SN BR,KLCI 010656Z AUTO 05008KT 1 1/4SM -SN BR BKN006 OVC011 M01/M01 A2995 RMK AO2 CIG 004V008 SLP162 P0001 T10061011 FZRANO
LCI,2017-04-01 07:00,-71.4200,43.5700,M,M,M,50.00,8.00,M,29.95,M,1.00,M,BKN,OVC,M,M,600.00,1100.00,M,M,-SN BR,KLCI 010700Z AUTO 05008KT 1SM -SN BR BKN006 OVC011 A2995 RMK CIG 4V8  MADISHF
LCI,2017-04-01 07:05,-71.4200,43.5700,M,M,M,50.00,10.00,M,29.94,M,1.00,M,OVC,M,M,M,600.00,M,M,M,-SN BR,KLCI 010705Z AUTO 05010KT 1SM -SN BR OVC006 A2994 RMK CIG 4V11  MADISHF
LCI,2017-04-01 07:10,-71.4200,43.5700,30.20,30.20,100.00,50.00,9.00,0.00,29.94,M,1.00,M,OVC,M,M,M,600.00,M,M,M,-SN BR,KLCI 010710Z AUTO 05009KT 1SM -SN BR OVC006 M01/M01 A2994 RMK AO2 CIG 004V011 P0000 FZRANO
LCI,2017-04-01 07:15,-71.4200,43.5700,M,M,M,50.00,8.00,0.01,29.94,M,1.25,M,OVC,M,M,M,600.00,M,M,M,-SN BR,KLCI 010715Z AUTO 05008KT 1 1/2SM -SN BR OVC006 A2994 RMK P0001 CIG 4V10  MADISHF
LCI,2017-04-01 07:20,-71.4200,43.5700,M,M,M,60.00,10.00,0.01,29.94,M,1.25,M,OVC,M,M,M,600.00,M,M,M,-SN BR,KLCI 010720Z AUTO 06010KT 1 1/2SM -SN BR OVC006 A2994 RMK P0001 CIG 4V10  MADISHF
LCI,2017-04-01 07:25,-71.4200,43.5700,M,M,M,60.00,10.00,0.01,29.94,M,1.00,M,BKN,OVC,M,M,600.00,999.00,M,M,-SN BR,KLCI 010725Z AUTO 06010KT 1SM -SN BR BKN006 OVC009 A2994 RMK P0001 CIG 4V8  MADISHF
LCI,2017-04-01 07:30,-71.4200,43.5700,M,M,M,50.00,10.00,0.01,29.93,M,0.75,M,BKN,OVC,M,M,600.00,999.00,M,M,-SN BR,KLCI 010730Z AUTO 05010KT 1SM -SN BR BKN006 OVC009 A2993 RMK P0001 CIG 4V8  MADISHF
LCI,2017-04-01 07:40,-71.4200,43.5700,M,M,M,50.00,8.00,0.01,29.93,M,1.00,M,BKN,OVC,M,M,600.00,999.00,M,M,-SN BR,KLCI 010740Z AUTO 05008KT 1SM -SN BR BKN006 OVC009 A2993 RMK P0001 CIG 4V9  MADISHF
LCI,2017-04-01 07:45,-71.4200,43.5700,M,M,M,50.00,9.00,0.01,29.93,M,1.00,M,OVC,M,M,M,600.00,M,M,M,-SN BR,KLCI 010745Z AUTO 05009KT 1SM -SN BR OVC006 A2993 RMK P0001 CIG 4V9  MADISHF
LCI,2017-04-01 07:50,-71.4200,43.5700,M,M,M,50.00,9.00,0.01,29.93,M,1.00,M,OVC,M,M,M,600.00,M,M,M,-SN BR,KLCI 010750Z AUTO 05009KT 1SM -SN BR OVC006 A2993 RMK P0001 CIG 4V9  MADISHF
LCI,2017-04-01 07:55,-71.4200,43.5700,M,M,M,50.00,10.00,0.01,29.93,M,1.00,M,OVC,M,M,M,600.00,M,M,M,-SN BR,KLCI 010755Z AUTO 05010KT 1SM -SN BR OVC006 A2993 RMK P0001 CIG 4V9  MADISHF
LCI,2017-04-01 07:56,-71.4200,43.5700,30.90,30.00,96.41,50.00,10.00,0.01,29.92,1015.30,1.00,M,OVC,M,M,M,600.00,M,M,M,-SN BR,KLCI 010756Z AUTO 05010KT 1SM -SN BR OVC006 M01/M01 A2992 RMK AO2 CIG 004V009 SLP153 P0001 T10061011 FZRANO
LCI,2017-04-01 08:00,-71.4200,43.5700,30.20,30.20,100.00,60.00,9.00,0.00,29.93,M,0.75,M,OVC,M,M,M,400.00,M,M,M,-SN BR,KLCI 010800Z AUTO 06009KT 3/4SM -SN BR OVC004 M01/M01 A2993 RMK AO2 CIG 004V009 P0000 FZRANO
LCI,2017-04-01 08:05,-71.4200,43.5700,M,M,M,50.00,8.00,M,29.93,M,0.75,M,OVC,M,M,M,400.00,M,M,M,-SN BR,KLCI 010805Z AUTO 05008KT 1SM -SN BR OVC004 A2993 RMK MADISHF
LCI,2017-04-01 08:10,-71.4200,43.5700,M,M,M,50.00,6.00,M,29.93,M,0.75,M,OVC,M,M,M,400.00,M,M,M,-SN BR,KLCI 010810Z AUTO 05006KT 1SM -SN BR OVC004 A2993 RMK MADISHF
LCI,2017-04-01 08:15,-71.4200,43.5700,M,M,M,60.00,9.00,0.01,29.93,M,0.75,M,OVC,M,M,M,400.00,M,M,M,-SN BR,KLCI 010815Z AUTO 06009KT 1SM -SN BR OVC004 A2993 RMK P0001 MADISHF
LCI,2017-04-01 08:20,-71.4200,43.5700,M,M,M,50.00,9.00,0.01,29.92,M,0.75,M,OVC,M,M,M,400.00,M,M,M,-SN BR,KLCI 010820Z AUTO 05009KT 1SM -SN BR OVC004 A2992 RMK P0001 MADISHF
LCI,2017-04-01 08:30,-71.4200,43.5700,M,M,M,M,M,0.01,29.92,M,0.75,M,OVC,M,M,M,400.00,M,M,M,-SN BR,KLCI 010830Z AUTO /////KT 1SM -SN BR OVC004 A2992 RMK P0001 MADISHF
LCI,2017-04-01 08:35,-71.4200,43.5700,M,M,M,M,M,0.01,29.92,M,0.50,M,OVC,M,M,M,400.00,M,M,M,SN FZFG,KLCI 010835Z AUTO /////KT 1/2SM SN FZFG OVC004 A2992 RMK P0001 MADISHF
LCI,2017-04-01 08:40,-71.4200,43.5700,M,M,M,50.00,9.00,0.01,29.92,M,0.50,M,OVC,M,M,M,400.00,M,M,M,SN FZFG,KLCI 010840Z AUTO 05009KT 1/2SM SN FZFG OVC004 A2992 RMK P0001 MADISHF
LCI,2017-04-01 08:44,-71.4200,43.5700,30.20,30.20,100.00,50.00,11.00,0.01,29.91,M,0.50,M,OVC,M,M,M,400.00,M,M,M,SN FZFG,KLCI 010844Z AUTO 05011KT 1/2SM SN FZFG OVC004 M01/M01 A2991 RMK AO2 P0001 FZRANO
LCI,2017-04-01 08:45,-71.4200,43.5700,M,M,M,M,M,0.01,29.91,M,0.50,M,OVC,M,M,M,400.00,M,M,M,SN FZFG,KLCI 010845Z AUTO /////KT 1/2SM SN FZFG OVC004 A2991 RMK P0001 MADISHF
LCI,2017-04-01 08:50,-71.4200,43.5700,M,M,M,M,M,0.01,29.91,M,0.75,M,OVC,M,M,M,400.00,M,M,M,-SN BR,KLCI 010850Z AUTO /////KT 1SM -SN BR OVC004 A2991 RMK P0001 MADISHF
LCI,2017-04-01 08:55,-71.4200,43.5700,M,M,M,50.00,8.00,0.01,29.91,M,0.75,M,OVC,M,M,M,400.00,M,M,M,-SN BR,KLCI 010855Z AUTO 05008KT 1SM -SN BR OVC004 A2991 RMK P0001 MADISHF
LCI,2017-04-01 08:56,-71.4200,43.5700,30.90,30.00,96.41,50.00,8.00,0.01,29.92,1015.10,0.75,15.00,OVC,M,M,M,400.00,M,M,M,-SN BR,KLCI 010856Z AUTO 05008G15KT 3/4SM -SN BR OVC004 M01/M01 A2992 RMK AO2 SLP151 P0001 60003 T10061011 58013 FZRANO
LCI,2017-04-01 09:00,-71.4200,43.5700,M,M,M,50.00,7.00,M,29.92,M,0.75,M,OVC,M,M,M,400.00,M,M,M,-SN BR,KLCI 010900Z AUTO 05007KT 1SM -SN BR OVC004 A2992 RMK MADISHF
LCI,2017-04-01 09:05,-71.4200,43.5700,M,M,M,50.00,11.00,M,29.91,M,0.75,M,OVC,M,M,M,400.00,M,M,M,-SN BR,KLCI 010905Z AUTO 05011KT 1SM -SN BR OVC004 A2991 RMK MADISHF
LCI,2017-04-01 09:10,-71.4200,43.5700,M,M,M,M,M,M,29.91,M,0.75,M,OVC,M,M,M,400.00,M,M,M,-SN BR,KLCI 010910Z AUTO /////KT 1SM -SN BR OVC004 A2991 RMK MADISHF
LCI,2017-04-01 09:20,-71.4200,43.5700,M,M,M,M,M,M,29.91,M,0.75,M,OVC,M,M,M,400.00,M,M,M,-SN BR,KLCI 010920Z AUTO /////KT 1SM -SN BR OVC004 A2991 RMK MADISHF
LCI,2017-04-01 09:25,-71.4200,43.5700,30.20,30.20,100.00,50.00,11.00,0.00,29.91,M,1.25,M,OVC,M,M,M,400.00,M,M,M,-SN BR,KLCI 010925Z AUTO 05011KT 1 1/4SM -SN BR OVC004 M01/M01 A2991 RMK AO2 P0000 FZRANO
LCI,2017-04-01 09:30,-71.4200,43.5700,M,M,M,M,M,0.01,29.91,M,1.50,M,OVC,M,M,M,400.00,M,M,M,-SN BR,KLCI 010930Z AUTO /////KT 1 1/2SM -SN BR OVC004 A2991 RMK P0001 MADISHF
LCI,2017-04-01 09:35,-71.4200,43.5700,M,M,M,M,M,0.01,29.91,M,1.50,M,OVC,M,M,M,400.00,M,M,M,-SN BR,KLCI 010935Z AUTO /////KT 1 1/2SM -SN BR OVC004 A2991 RMK P0001 MADISHF
LCI,2017-04-01 09:40,-71.4200,43.5700,M,M,M,50.00,10.00,0.01,29.91,M,1.50,M,OVC,M,M,M,400.00,M,M,M,-SN BR,KLCI 010940Z AUTO 05010KT 1 1/2SM -SN BR OVC004 A2991 RMK P0001 MADISHF
LCI,2017-04-01 09:45,-71.4200,43.5700,M,M,M,M,M,0.01,29.91,M,1.75,M,OVC,M,M,M,400.00,M,M,M,-SN BR,KLCI 010945Z AUTO /////KT 2SM -SN BR OVC004 A2991 RMK P0001 CIG 4V9  MADISHF
LCI,2017-04-01 09:50,-71.4200,43.5700,M,M,M,50.00,9.00,0.01,29.91,M,1.75,15.00,OVC,M,M,M,400.00,M,M,M,-SN BR,KLCI 010950Z AUTO 05009G15KT 2SM -SN BR OVC004 A2991 RMK P0001 CIG 4V9  MADISHF
LCI,2017-04-01 09:55,-71.4200,43.5700,M,M,M,50.00,8.00,0.01,29.91,M,2.00,M,OVC,M,M,M,600.00,M,M,M,-SN BR,KLCI 010955Z AUTO 05008KT 2SM -SN BR OVC006 A2991 RMK P0001 CIG 4V9  MADISHF
LCI,2017-04-01 09:56,-71.4200,43.5700,30.90,30.00,96.41,50.00,7.00,0.01,29.91,1014.50,2.00,15.00,OVC,M,M,M,600.00,M,M,M,-SN BR,KLCI 010956Z AUTO 05007G15KT 2SM -SN BR OVC006 M01/M01 A2991 RMK AO2 CIG 004V009 SLP145 P0001 T10061011 FZRANO
LCI,2017-04-01 10:00,-71.4200,43.5700,M,M,M,50.00,10.00,M,29.91,M,2.00,M,OVC,M,M,M,600.00,M,M,M,-SN BR,KLCI 011000Z AUTO 05010KT 2SM -SN BR OVC006 A2991 RMK CIG 4V9  MADISHF
LCI,2017-04-01 10:05,-71.4200,43.5700,M,M,M,60.00,9.00,M,29.91,M,2.00,M,OVC,M,M,M,600.00,M,M,M,-SN BR,KLCI 011005Z AUTO 06009KT 2SM -SN BR OVC006 A2991 RMK MADISHF
LCI,2017-04-01 10:10,-71.4200,43.5700,M,M,M,50.00,8.00,M,29.91,M,1.50,M,OVC,M,M,M,600.00,M,M,M,-SN BR,KLCI 011010Z AUTO 05008KT 1 1/2SM -SN BR OVC006 A2991 RMK MADISHF
LCI,2017-04-01 10:16,-71.4200,43.5700,30.20,30.20,100.00,50.00,7.00,0.00,29.91,M,1.00,15.00,OVC,M,M,M,600.00,M,M,M,-SN BR,KLCI 011016Z AUTO 05007G15KT 1SM -SN BR OVC006 M01/M01 A2991 RMK AO2 P0000 FZRANO
LCI,2017-04-01 10:20,-71.4200,43.5700,M,M,M,50.00,7.00,M,29.91,M,1.00,M,OVC,M,M,M,600.00,M,M,M,-SN BR,KLCI 011020Z AUTO 05007KT 1SM -SN BR OVC006 A2991 RMK MADISHF
LCI,2017-04-01 10:25,-71.4200,43.5700,M,M,M,50.00,8.00,M,29.91,M,0.75,M,OVC,M,M,M,600.00,M,M,M,-SN BR,KLCI 011025Z AUTO 05008KT 1SM -SN BR OVC006 A2991 RMK MADISHF
LCI,2017-04-01 10:27,-71.4200,43.5700,30.20,30.20,100.00,40.00,7.00,0.00,29.91,M,0.50,M,OVC,M,M,M,600.00,M,M,M,SN FZFG,KLCI 011027Z AUTO 04007KT 1/2SM SN FZFG OVC006 M01/M01 A2991 RMK AO2 P0000 FZRANO
LCI,2017-04-01 10:30,-71.4200,43.5700,M,M,M,40.00,9.00,M,29.91,M,0.50,M,OVC,M,M,M,600.00,M,M,M,SN FZFG,KLCI 011030Z AUTO 04009KT 1/2SM SN FZFG OVC006 A2991 RMK MADISHF
LCI,2017-04-01 10:35,-71.4200,43.5700,M,M,M,50.00,7.00,M,29.91,M,0.50,M,OVC,M,M,M,600.00,M,M,M,SN FZFG,KLCI 011035Z AUTO 05007KT 1/2SM SN FZFG OVC006 A2991 RMK MADISHF
LCI,2017-04-01 10:40,-71.4200,43.5700,M,M,M,40.00,7.00,M,29.91,M,0.50,M,OVC,M,M,M,600.00,M,M,M,SN FZFG,KLCI 011040Z AUTO 04007KT 1/2SM SN FZFG OVC006 A2991 RMK MADISHF
LCI,2017-04-01 10:45,-71.4200,43.5700,M,M,M,40.00,9.00,M,29.91,M,0.50,M,OVC,M,M,M,600.00,M,M,M,SN FZFG,KLCI 011045Z AUTO 04009KT 1/2SM SN FZFG OVC006 A2991 RMK MADISHF
LCI,2017-04-01 10:50,-71.4200,43.5700,M,M,M,40.00,7.00,M,29.91,M,0.50,M,OVC,M,M,M,600.00,M,M,M,SN FZFG,KLCI 011050Z AUTO 04007KT 1/2SM SN FZFG OVC006 A2991 RMK MADISHF
LCI,2017-04-01 10:55,-71.4200,43.5700,M,M,M,50.00,9.00,M,29.91,M,0.50,M,OVC,M,M,M,600.00,M,M,M,SN FZFG,KLCI 011055Z AUTO 05009KT 1/2SM SN FZFG OVC006 A2991 RMK MADISHF
LCI,2017-04-01 10:56,-71.4200,43.5700,30.90,30.00,96.41,40.00,9.00,0.00,29.91,1014.60,0.50,M,OVC,M,M,M,600.00,M,M,M,SN FZFG,KLCI 011056Z AUTO 04009KT 1/2SM SN FZFG OVC006 M01/M01 A2991 RMK AO2 SLP146 P0000 T10061011 FZRANO
LCI,2017-04-01 11:00,-71.4200,43.5700,M,M,M,50.00,8.00,M,29.91,M,0.75,M,OVC,M,M,M,600.00,M,M,M,-SN BR,KLCI 011100Z AUTO 05008KT 1SM -SN BR OVC006 A2991 RMK MADISHF
LCI,2017-04-01 11:05,-71.4200,43.5700,M,M,M,40.00,9.00,M,29.91,M,0.50,M,OVC,M,M,M,600.00,M,M,M,SN FZFG,KLCI 011105Z AUTO 04009KT 1/2SM SN FZFG OVC006 A2991 RMK MADISHF
LCI,2017-04-01 11:10,-71.4200,43.5700,M,M,M,M,M,M,29.91,M,0.75,M,OVC,M,M,M,600.00,M,M,M,-SN BR,KLCI 011110Z AUTO /////KT 1SM -SN BR OVC006 A2991 RMK MADISHF
LCI,2017-04-01 11:15,-71.4200,43.5700,M,M,M,50.00,9.00,M,29.91,M,0.75,M,OVC,M,M,M,600.00,M,M,M,-SN BR,KLCI 011115Z AUTO 05009KT 1SM -SN BR OVC006 A2991 RMK MADISHF
LCI,2017-04-01 11:20,-71.4200,43.5700,M,M,M,40.00,10.00,M,29.91,M,0.75,M,OVC,M,M,M,600.00,M,M,M,-SN BR,KLCI 011120Z AUTO 04010KT 1SM -SN BR OVC006 A2991 RMK MADISHF
LCI,2017-04-01 11:21,-71.4200,43.5700,30.20,30.20,100.00,50.00,9.00,0.00,29.91,M,0.75,M,OVC,M,M,M,600.00,M,M,M,-SN BR,KLCI 011121Z AUTO 05009KT 3/4SM -SN BR OVC006 M01/M01 A2991 RMK AO2 P0000 FZRANO
LCI,2017-04-01 11:25,-71.4200,43.5700,M,M,M,50.00,8.00,M,29.92,M,0.75,M,OVC,M,M,M,600.00,M,M,M,-SN BR,KLCI 011125Z AUTO 05008KT 1SM -SN BR OVC006 A2992 RMK MADISHF
LCI,2017-04-01 11:30,-71.4200,43.5700,M,M,M,40.00,8.00,M,29.92,M,0.75,M,OVC,M,M,M,600.00,M,M,M,-SN BR,KLCI 011130Z AUTO 04008KT 1SM -SN BR OVC006 A2992 RMK MADISHF
LCI,2017-04-01 11:35,-71.4200,43.5700,M,M,M,50.00,8.00,M,29.92,M,0.75,M,OVC,M,M,M,600.00,M,M,M,-SN BR,KLCI 011135Z AUTO 05008KT 1SM -SN BR OVC006 A2992 RMK MADISHF
LCI,2017-04-01 11:40,-71.4200,43.5700,M,M,M,50.00,9.00,M,29.92,M,0.50,M,OVC,M,M,M,600.00,M,M,M,SN FZFG,KLCI 011140Z AUTO 05009KT 1/2SM SN FZFG OVC006 A2992 RMK MADISHF
LCI,2017-04-01 11:45,-71.4200,43.5700,M,M,M,50.00,9.00,M,29.92,M,0.75,M,OVC,M,M,M,600.00,M,M,M,-SN BR,KLCI 011145Z AUTO 05009KT 1SM -SN BR OVC006 A2992 RMK MADISHF
LCI,2017-04-01 11:50,-71.4200,43.5700,M,M,M,50.00,10.00,M,29.92,M,0.75,M,OVC,M,M,M,600.00,M,M,M,-SN BR,KLCI 011150Z AUTO 05010KT 1SM -SN BR OVC006 A2992 RMK MADISHF
LCI,2017-04-01 11:55,-71.4200,43.5700,M,M,M,50.00,9.00,M,29.92,M,0.75,M,OVC,M,M,M,600.00,M,M,M,-SN BR,KLCI 011155Z AUTO 05009KT 1SM -SN BR OVC006 A2992 RMK MADISHF
LCI,2017-04-01 11:56,-71.4200,43.5700,32.00,30.00,92.22,40.00,10.00,0.00,29.92,1015.00,0.75,M,OVC,M,M,M,600.00,M,M,M,-SN BR,KLCI 011156Z AUTO 04010KT 3/4SM -SN BR OVC006 00/M01 A2992 RMK AO2 CIG 005V010 SLP150 P0000 60004 70007 T00001011 10000 21006 53001 FZRANO
LCI,2017-04-01 12:00,-71.4200,43.5700,M,M,M,60.00,10.00,M,29.92,M,1.00,M,OVC,M,M,M,600.00,M,M,M,-SN BR,KLCI 011200Z AUTO 06010KT 1SM -SN BR OVC006 A2992 RMK CIG 5V10  MADISHF
LCI,2017-04-01 12:05,-71.4200,43.5700,M,M,M,50.00,8.00,M,29.92,M,1.00,M,OVC,M,M,M,600.00,M,M,M,-SN BR,KLCI 011205Z AUTO 05008KT 1SM -SN BR OVC006 A2992 RMK MADISHF
LCI,2017-04-01 12:10,-71.4200,43.5700,M,M,M,40.00,7.00,M,29.92,M,0.75,M,OVC,M,M,M,600.00,M,M,M,-SN BR,KLCI 011210Z AUTO 04007KT 1SM -SN BR OVC006 A2992 RMK MADISHF
LCI,2017-04-01 12:15,-71.4200,43.5700,M,M,M,40.00,9.00,M,29.92,M,0.75,M,OVC,M,M,M,600.00,M,M,M,-SN BR,KLCI 011215Z AUTO 04009KT 1SM -SN BR OVC006 A2992 RMK MADISHF
LCI,2017-04-01 12:20,-71.4200,43.5700,M,M,M,M,M,M,29.92,M,0.75,M,OVC,M,M,M,600.00,M,M,M,-SN BR,KLCI 011220Z AUTO /////KT 1SM -SN BR OVC006 A2992 RMK MADISHF
LCI,2017-04-01 12:25,-71.4200,43.5700,M,M,M,40.00,11.00,M,29.92,M,0.75,M,OVC,M,M,M,600.00,M,M,M,-SN BR,KLCI 011225Z AUTO 04011KT 1SM -SN BR OVC006 A2992 RMK MADISHF
LCI,2017-04-01 12:30,-71.4200,43.5700,M,M,M,40.00,11.00,M,29.92,M,0.75,M,OVC,M,M,M,600.00,M,M,M,-SN BR,KLCI 011230Z AUTO 04011KT 1SM -SN BR OVC006 A2992 RMK MADISHF
LCI,2017-04-01 12:35,-71.4200,43.5700,M,M,M,40.00,10.00,0.01,29.92,M,0.75,M,OVC,M,M,M,600.00,M,M,M,-SN BR,KLCI 011235Z AUTO 04010KT 1SM -SN BR OVC006 A2992 RMK P0001 MADISHF
LCI,2017-04-01 12:40,-71.4200,43.5700,M,M,M,50.00,10.00,0.01,29.92,M,0.75,M,OVC,M,M,M,600.00,M,M,M,-SN BR,KLCI 011240Z AUTO 05010KT 1SM -SN BR OVC006 A2992 RMK P0001 MADISHF
LCI,2017-04-01 12:45,-71.4200,43.5700,M,M,M,40.00,11.00,0.01,29.91,M,0.75,M,OVC,M,M,M,600.00,M,M,M,-SN BR,KLCI 011245Z AUTO 04011KT 1SM -SN BR OVC006 A2991 RMK P0001 CIG 6V10  MADISHF
LCI,2017-04-01 12:50,-71.4200,43.5700,M,M,M,40.00,9.00,0.01,29.92,M,0.75,M,OVC,M,M,M,600.00,M,M,M,-SN BR,KLCI 011250Z AUTO 04009KT 1SM -SN BR OVC006 A2992 RMK P0001 CIG 6V10  MADISHF
LCI,2017-04-01 12:55,-71.4200,43.5700,M,M,M,M,M,0.01,29.91,M,0.50,M,OVC,M,M,M,600.00,M,M,M,-SN FG,KLCI 011255Z AUTO /////KT 1/2SM -SN FG OVC006 A2991 RMK P0001 MADISHF
LCI,2017-04-01 12:56,-71.4200,43.5700,32.00,30.00,92.22,40.00,11.00,0.01,29.92,1014.90,0.50,15.00,OVC,M,M,M,600.00,M,M,M,SN FG,KLCI 011256Z AUTO 04011G15KT 1/2SM SN FG OVC006 00/M01 A2992 RMK AO2 SLP149 P0001 T00001011 FZRANO
LCI,2017-04-01 13:00,-71.4200,43.5700,M,M,M,M,M,M,29.92,M,0.50,M,OVC,M,M,M,600.00,M,M,M,SN FG,KLCI 011300Z AUTO /////KT 1/2SM SN FG OVC006 A2992 RMK MADISHF
LCI,2017-04-01 13:05,-71.4200,43.5700,M,M,M,40.00,10.00,M,29.91,M,0.50,M,OVC,M,M,M,600.00,M,M,M,SN FG,KLCI 011305Z AUTO 04010KT 1/2SM SN FG OVC006 A2991 RMK MADISHF
LCI,2017-04-01 13:10,-71.4200,43.5700,M,M,M,M,M,M,29.92,M,0.50,M,OVC,M,M,M,600.00,M,M,M,SN FG,KLCI 011310Z AUTO /////KT 1/2SM SN FG OVC006 A2992 RMK MADISHF
LCI,2017-04-01 13:15,-71.4200,43.5700,M,M,M,M,M,0.01,29.92,M,0.50,M,OVC,M,M,M,600.00,M,M,M,SN FG,KLCI 011315Z AUTO /////KT 1/2SM SN FG OVC006 A2992 RMK P0001 CIG 6V11  MADISHF
LCI,2017-04-01 13:20,-71.4200,43.5700,M,M,M,40.00,10.00,0.01,29.92,M,0.75,15.00,OVC,M,M,M,600.00,M,M,M,-SN BR,KLCI 011320Z AUTO 04010G15KT 1SM -SN BR OVC006 A2992 RMK P0001 CIG 4V11  MADISHF
LCI,2017-04-01 13:25,-71.4200,43.5700,M,M,M,30.00,9.00,0.01,29.92,M,0.75,M,BKN,OVC,M,M,800.00,1200.00,M,M,-SN BR,KLCI 011325Z AUTO 03009KT 1SM -SN BR BKN008 OVC012 A2992 RMK P0001 CIG 4V9  MADISHF
LCI,2017-04-01 13:30,-71.4200,43.5700,32.00,30.20,92.97,40.00,9.00,0.01,29.92,M,0.75,16.00,BKN,OVC,M,M,800.00,1300.00,M,M,-SN BR,KLCI 011330Z AUTO 04009G16KT 3/4SM -SN BR BKN008 OVC013 00/M01 A2992 RMK AO2 CIG 004V010 P0001 FZRANO
LCI,2017-04-01 13:35,-71.4200,43.5700,32.00,30.20,92.97,50.00,10.00,0.02,29.92,M,1.25,16.00,BKN,OVC,M,M,800.00,1400.00,M,M,-SN BR,KLCI 011335Z AUTO 05010G16KT 1 1/4SM -SN BR BKN008 OVC014 00/M01 A2992 RMK AO2 CIG 004V010 P0002 FZRANO
LCI,2017-04-01 13:40,-71.4200,43.5700,M,M,M,50.00,10.00,0.02,29.92,M,1.50,M,BKN,OVC,M,M,800.00,1400.00,M,M,-SN BR,KLCI 011340Z AUTO 05010KT 1 1/2SM -SN BR BKN008 OVC014 A2992 RMK P0002 CIG 4V12  MADISHF
LCI,2017-04-01 13:45,-71.4200,43.5700,M,M,M,40.00,10.00,0.02,29.93,M,1.50,M,OVC,M,M,M,800.00,M,M,M,-SN BR,KLCI 011345Z AUTO 04010KT 1 1/2SM -SN BR OVC008 A2993 RMK P0002 CIG 4V13  MADISHF
LCI,2017-04-01 13:50,-71.4200,43.5700,M,M,M,50.00,11.00,0.02,29.93,M,1.25,M,OVC,M,M,M,999.00,M,M,M,-SN BR,KLCI 011350Z AUTO 05011KT 1 1/2SM -SN BR OVC009 A2993 RMK P0002 CIG 6V13  MADISHF
LCI,2017-04-01 13:55,-71.4200,43.5700,M,M,M,M,M,0.02,29.93,M,1.25,M,OVC,M,M,M,999.00,M,M,M,-SN BR,KLCI 011355Z AUTO /////KT 1 1/2SM -SN BR OVC009 A2993 RMK P0002 CIG 7V14  MADISHF
LCI,2017-04-01 13:56,-71.4200,43.5700,32.00,28.90,88.17,50.00,12.00,0.02,29.93,1015.20,1.25,M,BKN,OVC,M,M,1000.00,1400.00,M,M,-SN BR,KLCI 011356Z AUTO 05012KT 1 1/4SM -SN BR BKN010 OVC014 00/M02 A2993 RMK AO2 CIG 007V012 SLP152 P0002 T00001017 FZRANO
LCI,2017-04-01 14:00,-71.4200,43.5700,M,M,M,40.00,9.00,M,29.93,M,1.50,M,OVC,M,M,M,1200.00,M,M,M,-SN BR,KLCI 011400Z AUTO 04009KT 1 1/2SM -SN BR OVC012 A2993 RMK MADISHF
LCI,2017-04-01 14:05,-71.4200,43.5700,M,M,M,M,M,M,29.93,M,1.50,M,OVC,M,M,M,1200.00,M,M,M,-SN BR,KLCI 011405Z AUTO /////KT 1 1/2SM -SN BR OVC012 A2993 RMK MADISHF
LCI,2017-04-01 14:10,-71.4200,43.5700,M,M,M,50.00,10.00,0.01,29.93,M,1.50,M,BKN,OVC,M,M,1200.00,1699.00,M,M,-SN BR,KLCI 011410Z AUTO 05010KT 1 1/2SM -SN BR BKN012 OVC016 A2993 RMK P0001 MADISHF
LCI,2017-04-01 14:15,-71.4200,43.5700,M,M,M,50.00,9.00,0.01,29.93,M,1.50,M,OVC,M,M,M,1200.00,M,M,M,-SN BR,KLCI 011415Z AUTO 05009KT 1 1/2SM -SN BR OVC012 A2993 RMK P0001 MADISHF
LCI,2017-04-01 14:20,-71.4200,43.5700,M,M,M,50.00,10.00,0.02,29.94,M,2.00,M,OVC,M,M,M,1200.00,M,M,M,-SN BR,KLCI 011420Z AUTO 05010KT 2SM -SN BR OVC012 A2994 RMK P0002 MADISHF
LCI,2017-04-01 14:25,-71.4200,43.5700,M,M,M,40.00,10.00,0.02,29.94,M,1.75,M,OVC,M,M,M,1200.00,M,M,M,-SN BR,KLCI 011425Z AUTO 04010KT 2SM -SN BR OVC012 A2994 RMK P0002 MADISHF
LCI,2017-04-01 14:35,-71.4200,43.5700,M,M,M,40.00,10.00,0.02,29.94,M,1.00,M,OVC,M,M,M,999.00,M,M,M,-SN BR,KLCI 011435Z AUTO 04010KT 1SM -SN BR OVC009 A2994 RMK P0002 MADISHF
LCI,2017-04-01 14:40,-71.4200,43.5700,33.80,30.20,86.49,50.00,9.00,0.02,29.94,M,0.75,M,OVC,M,M,M,1000.00,M,M,M,-SN BR,KLCI 011440Z AUTO 05009KT 3/4SM -SN BR OVC010 01/M01 A2994 RMK AO2 P0002 FZRANO
LCI,2017-04-01 14:45,-71.4200,43.5700,M,M,M,40.00,9.00,0.02,29.94,M,0.75,M,BKN,OVC,M,M,999.00,1400.00,M,M,-SN BR,KLCI 011445Z AUTO 04009KT 1SM -SN BR BKN009 OVC014 A2994 RMK P0002 CIG 6V12  MADISHF
LCI,2017-04-01 14:50,-71.4200,43.5700,M,M,M,50.00,8.00,0.03,29.94,M,0.75,M,BKN,OVC,M,M,999.00,1400.00,M,M,-SN BR,KLCI 011450Z AUTO 05008KT 1SM -SN BR BKN009 OVC014 A2994 RMK P0003 CIG 6V13  MADISHF
LCI,2017-04-01 14:55,-71.4200,43.5700,M,M,M,50.00,9.00,0.03,29.94,M,0.75,M,BKN,OVC,M,M,800.00,1400.00,M,M,-SN BR,KLCI 011455Z AUTO 05009KT 1SM -SN BR BKN008 OVC014 A2994 RMK P0003 CIG 6V11  MADISHF
LCI,2017-04-01 14:56,-71.4200,43.5700,33.10,30.00,88.23,50.00,9.00,0.03,29.94,1015.60,0.75,M,BKN,OVC,M,M,800.00,1400.00,M,M,-SN BR,KLCI 011456Z AUTO 05009KT 3/4SM -SN BR BKN008 OVC014 01/M01 A2994 RMK AO2 CIG 006V010 SLP156 P0003 60006 T00061011 53006 FZRANO
LCI,2017-04-01 15:00,-71.4200,43.5700,M,M,M,40.00,8.00,M,29.94,M,0.75,M,BKN,OVC,M,M,800.00,1400.00,M,M,-SN BR,KLCI 011500Z AUTO 04008KT 1SM -SN BR BKN008 OVC014 A2994 RMK CIG 6V11  MADISHF
LCI,2017-04-01 15:05,-71.4200,43.5700,M,M,M,40.00,9.00,M,29.94,M,0.75,M,BKN,OVC,M,M,800.00,1400.00,M,M,-SN BR,KLCI 011505Z AUTO 04009KT 1SM -SN BR BKN008 OVC014 A2994 RMK CIG 5V12  MADISHF
LCI,2017-04-01 15:10,-71.4200,43.5700,M,M,M,40.00,9.00,M,29.93,M,0.75,M,BKN,OVC,M,M,800.00,1400.00,M,M,-SN BR,KLCI 011510Z AUTO 04009KT 1SM -SN BR BKN008 OVC014 A2993 RMK CIG 5V12  MADISHF
LCI,2017-04-01 15:15,-71.4200,43.5700,M,M,M,40.00,11.00,M,29.93,M,0.75,M,BKN,OVC,M,M,800.00,1300.00,M,M,-SN BR,KLCI 011515Z AUTO 04011KT 1SM -SN BR BKN008 OVC013 A2993 RMK CIG 5V10  MADISHF
LCI,2017-04-01 15:25,-71.4200,43.5700,M,M,M,30.00,8.00,M,29.93,M,0.75,M,BKN,OVC,M,M,800.00,1300.00,M,M,-SN BR,KLCI 011525Z AUTO 03008KT 1SM -SN BR BKN008 OVC013 A2993 RMK CIG 5V10  MADISHF
LCI,2017-04-01 15:30,-71.4200,43.5700,M,M,M,30.00,7.00,M,29.93,M,0.75,M,BKN,OVC,M,M,800.00,1300.00,M,M,-SN BR,KLCI 011530Z AUTO 03007KT 1SM -SN BR BKN008 OVC013 A2993 RMK CIG 5V10  MADISHF
LCI,2017-04-01 15:35,-71.4200,43.5700,M,M,M,40.00,8.00,M,29.93,M,0.75,M,BKN,OVC,M,M,800.00,1300.00,M,M,-SN BR,KLCI 011535Z AUTO 04008KT 1SM -SN BR BKN008 OVC013 A2993 RMK CIG 5V10  MADISHF
LCI,2017-04-01 15:45,-71.4200,43.5700,M,M,M,50.00,7.00,0.01,29.93,M,0.75,M,BKN,OVC,M,M,800.00,1300.00,M,M,-SN BR,KLCI 011545Z AUTO 05007KT 1SM -SN BR BKN008 OVC013 A2993 RMK P0001 CIG 5V10  MADISHF
LCI,2017-04-01 15:50,-71.4200,43.5700,M,M,M,50.00,8.00,0.01,29.93,M,0.75,M,BKN,OVC,M,M,800.00,1300.00,M,M,-SN BR,KLCI 011550Z AUTO 05008KT 1SM -SN BR BKN008 OVC013 A2993 RMK P0001 CIG 5V11  MADISHF
LCI,2017-04-01 15:55,-71.4200,43.5700,M,M,M,60.00,7.00,0.01,29.93,M,0.75,M,BKN,OVC,M,M,800.00,1300.00,M,M,-SN BR,KLCI 011555Z AUTO 06007KT 1SM -SN BR BKN008 OVC013 A2993 RMK P0001 CIG 5V10  MADISHF
LCI,2017-04-01 15:56,-71.4200,43.5700,33.10,30.00,88.23,50.00,7.00,0.01,29.93,1015.30,0.75,M,BKN,OVC,M,M,800.00,1300.00,M,M,-SN BR,KLCI 011556Z AUTO 05007KT 3/4SM -SN BR BKN008 OVC013 01/M01 A2993 RMK AO2 CIG 005V010 SLP153 P0001 T00061011 FZRANO
LCI,2017-04-01 16:00,-71.4200,43.5700,M,M,M,40.00,6.00,M,29.93,M,0.75,M,OVC,M,M,M,800.00,M,M,M,-SN BR,KLCI 011600Z AUTO 04006KT 1SM -SN BR OVC008 A2993 RMK CIG 5V12  MADISHF
LCI,2017-04-01 16:05,-71.4200,43.5700,M,M,M,50.00,8.00,M,29.93,M,0.75,M,OVC,M,M,M,800.00,M,M,M,-SN BR,KLCI 011605Z AUTO 05008KT 1SM -SN BR OVC008 A2993 RMK CIG 5V12  MADISHF
LCI,2017-04-01 16:10,-71.4200,43.5700,M,M,M,40.00,8.00,M,29.93,M,0.75,M,BKN,OVC,M,M,800.00,1100.00,M,M,-SN BR,KLCI 011610Z AUTO 04008KT 1SM -SN BR BKN008 OVC011 A2993 RMK CIG 5V9  MADISHF
LCI,2017-04-01 16:15,-71.4200,43.5700,M,M,M,50.00,9.00,M,29.93,M,1.00,M,BKN,BKN,OVC,M,800.00,1100.00,1699.00,M,-SN BR,KLCI 011615Z AUTO 05009KT 1SM -SN BR BKN008 BKN011 OVC016 A2993 RMK CIG 5V9  MADISHF
LCI,2017-04-01 16:20,-71.4200,43.5700,M,M,M,50.00,8.00,M,29.93,M,1.00,M,BKN,BKN,OVC,M,800.00,1400.00,1900.00,M,-SN BR,KLCI 011620Z AUTO 05008KT 1SM -SN BR BKN008 BKN014 OVC019 A2993 RMK CIG 5V9  MADISHF
LCI,2017-04-01 16:22,-71.4200,43.5700,33.80,30.20,86.49,50.00,8.00,0.00,29.93,M,1.00,M,BKN,OVC,M,M,800.00,1400.00,M,M,-SN BR,KLCI 011622Z AUTO 05008KT 1SM -SN BR BKN008 OVC014 01/M01 A2993 RMK AO2 CIG 005V009 P0000 FZRANO
LCI,2017-04-01 16:26,-71.4200,43.5700,33.80,30.20,86.49,50.00,8.00,0.00,29.93,M,1.25,M,BKN,BKN,OVC,M,800.00,1200.00,1800.00,M,-SN BR,KLCI 011626Z AUTO 05008KT 1 1/4SM -SN BR BKN008 BKN012 OVC018 01/M01 A2993 RMK AO2 CIG 005V011 P0000 FZRANO
LCI,2017-04-01 16:30,-71.4200,43.5700,33.80,30.20,86.49,40.00,6.00,0.00,29.93,M,1.00,M,SCT,OVC,M,M,800.00,1400.00,M,M,-SN BR,KLCI 011630Z AUTO 04006KT 1SM -SN BR SCT008 OVC014 01/M01 A2993 RMK AO2 P0000 FZRANO
LCI,2017-04-01 16:35,-71.4200,43.5700,M,M,M,50.00,6.00,M,29.93,M,1.00,M,SCT,OVC,M,M,800.00,1400.00,M,M,-SN BR,KLCI 011635Z AUTO 05006KT 1SM -SN BR SCT008 OVC014 A2993 RMK MADISHF
LCI,2017-04-01 16:40,-71.4200,43.5700,M,M,M,40.00,7.00,M,29.93,M,1.00,M,SCT,OVC,M,M,800.00,1400.00,M,M,-SN BR,KLCI 011640Z AUTO 04007KT 1SM -SN BR SCT008 OVC014 A2993 RMK MADISHF
LCI,2017-04-01 16:45,-71.4200,43.5700,M,M,M,50.00,7.00,M,29.93,M,1.00,M,SCT,OVC,M,M,800.00,1400.00,M,M,-SN BR,KLCI 011645Z AUTO 05007KT 1SM -SN BR SCT008 OVC014 A2993 RMK MADISHF
LCI,2017-04-01 16:50,-71.4200,43.5700,M,M,M,40.00,7.00,M,29.93,M,0.75,M,BKN,OVC,M,M,1100.00,1500.00,M,M,-SN BR,KLCI 011650Z AUTO 04007KT 1SM -SN BR BKN011 OVC015 A2993 RMK CIG 5V13  MADISHF
LCI,2017-04-01 16:51,-71.4200,43.5700,33.80,30.20,86.49,30.00,7.00,0.00,29.93,M,0.75,M,BKN,OVC,M,M,900.00,1500.00,M,M,-SN BR,KLCI 011651Z AUTO 03007KT 3/4SM -SN BR BKN009 OVC015 01/M01 A2993 RMK AO2 CIG 005V011 P0000 FZRANO
LCI,2017-04-01 16:55,-71.4200,43.5700,M,M,M,40.00,8.00,M,29.93,M,0.75,M,BKN,OVC,M,M,999.00,1400.00,M,M,-SN BR,KLCI 011655Z AUTO 04008KT 1SM -SN BR BKN009 OVC014 A2993 RMK CIG 5V12  MADISHF
LCI,2017-04-01 16:56,-71.4200,43.5700,33.10,30.00,88.23,40.00,8.00,0.00,29.93,1015.20,0.75,M,SCT,OVC,M,M,800.00,1400.00,M,M,-SN BR,KLCI 011656Z AUTO 04008KT 3/4SM -SN BR SCT008 OVC014 01/M01 A2993 RMK AO2 SLP152 P0000 T00061011 FZRANO
LCI,2017-04-01 17:00,-71.4200,43.5700,M,M,M,40.00,8.00,M,29.93,M,0.75,M,BKN,OVC,M,M,800.00,1400.00,M,M,-SN BR,KLCI 011700Z AUTO 04008KT 1SM -SN BR BKN008 OVC014 A2993 RMK CIG 5V11  MADISHF
LCI,2017-04-01 17:05,-71.4200,43.5700,M,M,M,40.00,6.00,M,29.93,M,0.75,M,BKN,OVC,M,M,800.00,1400.00,M,M,-SN BR,KLCI 011705Z AUTO 04006KT 1SM -SN BR BKN008 OVC014 A2993 RMK CIG 7V11  MADISHF
LCI,2017-04-01 17:10,-71.4200,43.5700,M,M,M,50.00,7.00,M,29.93,M,0.75,M,BKN,OVC,M,M,999.00,1400.00,M,M,-SN BR,KLCI 011710Z AUTO 05007KT 1SM -SN BR BKN009 OVC014 A2993 RMK CIG 7V11  MADISHF
LCI,2017-04-01 17:15,-71.4200,43.5700,M,M,M,40.00,8.00,M,29.93,M,0.75,M,FEW,OVC,M,M,700.00,1200.00,M,M,-SN BR,KLCI 011715Z AUTO 04008KT 1SM -SN BR FEW007 OVC012 A2993 RMK MADISHF
LCI,2017-04-01 17:20,-71.4200,43.5700,M,M,M,40.00,8.00,M,29.92,M,0.75,M,BKN,OVC,M,M,999.00,1500.00,M,M,-SN BR,KLCI 011720Z AUTO 04008KT 1SM -SN BR BKN009 OVC015 A2992 RMK CIG 7V12  MADISHF
LCI,2017-04-01 17:25,-71.4200,43.5700,M,M,M,40.00,7.00,M,29.92,M,0.75,M,BKN,OVC,M,M,800.00,1500.00,M,M,-SN BR,KLCI 011725Z AUTO 04007KT 1SM -SN BR BKN008 OVC015 A2992 RMK CIG 7V12  MADISHF
LCI,2017-04-01 17:30,-71.4200,43.5700,M,M,M,40.00,8.00,M,29.92,M,0.75,M,BKN,OVC,M,M,800.00,1500.00,M,M,-SN BR,KLCI 011730Z AUTO 04008KT 1SM -SN BR BKN008 OVC015 A2992 RMK CIG 7V10  MADISHF
LCI,2017-04-01 17:33,-71.4200,43.5700,33.80,30.20,86.49,40.00,8.00,0.00,29.92,M,0.75,M,BKN,OVC,M,M,800.00,1500.00,M,M,-SN BR,KLCI 011733Z AUTO 04008KT 3/4SM -SN BR BKN008 OVC015 01/M01 A2992 RMK AO2 CIG 007V010 P0000 FZRANO
LCI,2017-04-01 17:35,-71.4200,43.5700,M,M,M,40.00,9.00,M,29.92,M,0.75,M,BKN,OVC,M,M,800.00,1500.00,M,M,-SN BR,KLCI 011735Z AUTO 04009KT 1SM -SN BR BKN008 OVC015 A2992 RMK CIG 7V10  MADISHF
LCI,2017-04-01 17:40,-71.4200,43.5700,M,M,M,40.00,7.00,M,29.92,M,1.00,M,BKN,OVC,M,M,800.00,1300.00,M,M,-SN BR,KLCI 011740Z AUTO 04007KT 1SM -SN BR BKN008 OVC013 A2992 RMK CIG 7V12  MADISHF
LCI,2017-04-01 17:45,-71.4200,43.5700,M,M,M,50.00,8.00,M,29.92,M,0.75,M,BKN,OVC,M,M,800.00,1300.00,M,M,-SN BR,KLCI 011745Z AUTO 05008KT 1SM -SN BR BKN008 OVC013 A2992 RMK CIG 7V12  MADISHF
LCI,2017-04-01 17:48,-71.4200,43.5700,33.80,30.20,86.49,40.00,7.00,0.00,29.92,M,1.00,M,BKN,OVC,M,M,900.00,1400.00,M,M,-SN BR,KLCI 011748Z AUTO 04007KT 1SM -SN BR BKN009 OVC014 01/M01 A2992 RMK AO2 CIG 007V012 P0000 FZRANO
LCI,2017-04-01 17:50,-71.4200,43.5700,M,M,M,50.00,8.00,M,29.92,M,1.00,M,BKN,OVC,M,M,1100.00,1699.00,M,M,-SN BR,KLCI 011750Z AUTO 05008KT 1SM -SN BR BKN011 OVC016 A2992 RMK MADISHF
LCI,2017-04-01 17:56,-71.4200,43.5700,33.10,30.90,91.51,50.00,8.00,0.00,29.92,1014.90,1.00,M,BKN,OVC,M,M,900.00,1400.00,M,M,-SN BR,KLCI 011756Z AUTO 05008KT 1SM -SN BR BKN009 OVC014 01/M01 A2992 RMK AO2 CIG 007V012 SLP149 P0000 60007 T00061006 10006 20000 57006 FZRANO
LCI,2017-04-01 18:00,-71.4200,43.5700,M,M,M,40.00,7.00,0.02,29.92,M,1.00,M,BKN,OVC,M,M,900.00,1400.00,M,M,-SN BR,KLCI 011800Z AUTO 04007KT 1SM -SN BR BKN009 OVC014 A2992 RMK P0002 CIG 7V12  MADISHF
LCI,2017-04-01 18:05,-71.4200,43.5700,M,M,M,50.00,8.00,0.03,29.92,M,1.00,M,BKN,OVC,M,M,1200.00,1699.00,M,M,-SN BR,KLCI 011805Z AUTO 05008KT 1SM -SN BR BKN012 OVC016 A2992 RMK P0003 MADISHF
LCI,2017-04-01 18:12,-71.4200,43.5700,33.80,30.20,86.49,50.00,8.00,0.04,29.92,M,1.00,M,OVC,M,M,M,1200.00,M,M,M,-SN BR,KLCI 011812Z AUTO 05008KT 1SM -SN BR OVC012 01/M01 A2992 RMK AO2 P0004 FZRANO
LCI,2017-04-01 18:15,-71.4200,43.5700,M,M,M,40.00,8.00,0.05,29.91,M,1.00,M,OVC,M,M,M,1200.00,M,M,M,-SN BR,KLCI 011815Z AUTO 04008KT 1SM -SN BR OVC012 A2991 RMK P0005 MADISHF
LCI,2017-04-01 18:20,-71.4200,43.5700,M,M,M,50.00,8.00,0.06,29.91,M,1.00,M,OVC,M,M,M,1200.00,M,M,M,-SN BR,KLCI 011820Z AUTO 05008KT 1SM -SN BR OVC012 A2991 RMK P0006 MADISHF
LCI,2017-04-01 18:25,-71.4200,43.5700,M,M,M,40.00,7.00,0.07,29.91,M,1.25,M,OVC,M,M,M,1200.00,M,M,M,-SN BR,KLCI 011825Z AUTO 04007KT 1 1/2SM -SN BR OVC012 A2991 RMK P0007 MADISHF
LCI,2017-04-01 18:33,-71.4200,43.5700,35.60,30.20,80.51,50.00,10.00,0.11,29.91,M,1.50,M,FEW,BKN,OVC,M,1000.00,1600.00,2300.00,M,-SN BR,KLCI 011833Z AUTO 05010KT 1 1/2SM -SN BR FEW010 BKN016 OVC023 02/M01 A2991 RMK AO2 P0011 FZRANO
LCI,2017-04-01 18:35,-71.4200,43.5700,M,M,M,40.00,10.00,0.12,29.91,M,1.50,M,BKN,OVC,M,M,1500.00,2300.00,M,M,-SN BR,KLCI 011835Z AUTO 04010KT 1 1/2SM -SN BR BKN015 OVC023 A2991 RMK P0012 MADISHF
LCI,2017-04-01 18:40,-71.4200,43.5700,M,M,M,40.00,7.00,0.14,29.91,M,1.50,M,SCT,BKN,OVC,M,1100.00,1699.00,2400.00,M,-SN BR,KLCI 011840Z AUTO 04007KT 1 1/2SM -SN BR SCT011 BKN016 OVC024 A2991 RMK P0014 MADISHF
LCI,2017-04-01 18:45,-71.4200,43.5700,M,M,M,50.00,7.00,0.15,29.91,M,1.50,M,SCT,BKN,OVC,M,1100.00,1699.00,2200.00,M,-SN BR,KLCI 011845Z AUTO 05007KT 1 1/2SM -SN BR SCT011 BKN016 OVC022 A2991 RMK P0015 MADISHF
LCI,2017-04-01 18:50,-71.4200,43.5700,M,M,M,60.00,9.00,0.16,29.91,M,1.50,M,FEW,BKN,OVC,M,1100.00,1900.00,2400.00,M,-SN BR,KLCI 011850Z AUTO 06009KT 1 1/2SM -SN BR FEW011 BKN019 OVC024 A2991 RMK P0016 MADISHF
LCI,2017-04-01 18:55,-71.4200,43.5700,M,M,M,60.00,10.00,0.18,29.90,M,1.50,M,FEW,BKN,OVC,M,900.00,1699.00,2400.00,M,-SN BR,KLCI 011855Z AUTO 06010KT 1 1/2SM -SN BR FEW009 BKN016 OVC024 A2990 RMK P0018 MADISHF
LCI,2017-04-01 18:56,-71.4200,43.5700,35.10,30.90,84.49,70.00,10.00,0.19,29.90,1014.60,1.50,M,FEW,BKN,OVC,M,900.00,1700.00,2400.00,M,-SN BR,KLCI 011856Z AUTO 07010KT 1 1/2SM -SN BR FEW009 BKN017 OVC024 02/M01 A2990 RMK AO2 SLP146 P0019 T00171006 FZRANO
LCI,2017-04-01 19:00,-71.4200,43.5700,M,M,M,60.00,8.00,0.01,29.91,M,1.50,M,FEW,BKN,OVC,M,900.00,1699.00,2200.00,M,-SN BR,KLCI 011900Z AUTO 06008KT 1 1/2SM -SN BR FEW009 BKN016 OVC022 A2991 RMK P0001 MADISHF
LCI,2017-04-01 19:05,-71.4200,43.5700,M,M,M,50.00,8.00,0.04,29.90,M,1.50,M,FEW,BKN,OVC,M,900.00,1699.00,2300.00,M,-SN BR,KLCI 011905Z AUTO 05008KT 1 1/2SM -SN BR FEW009 BKN016 OVC023 A2990 RMK P0004 MADISHF
LCI,2017-04-01 19:10,-71.4200,43.5700,M,M,M,30.00,7.00,0.06,29.91,M,1.50,M,SCT,OVC,M,M,900.00,2100.00,M,M,-SN,KLCI 011910Z AUTO 03007KT 1 1/2SM -SN SCT009 OVC021 A2991 RMK P0006 MADISHF
LCI,2017-04-01 19:15,-71.4200,43.5700,M,M,M,50.00,8.00,0.07,29.91,M,1.75,M,FEW,SCT,OVC,M,900.00,1400.00,2100.00,M,-SN BR,KLCI 011915Z AUTO 05008KT 2SM -SN BR FEW009 SCT014 OVC021 A2991 RMK P0007 MADISHF
LCI,2017-04-01 19:20,-71.4200,43.5700,M,M,M,30.00,8.00,0.08,29.91,M,2.00,M,FEW,BKN,OVC,M,900.00,1900.00,2500.00,M,-SN BR,KLCI 011920Z AUTO 03008KT 2SM -SN BR FEW009 BKN019 OVC025 A2991 RMK P0008 MADISHF
LCI,2017-04-01 19:25,-71.4200,43.5700,M,M,M,30.00,6.00,0.09,29.92,M,2.00,M,FEW,BKN,OVC,M,900.00,1900.00,2500.00,M,-SN BR,KLCI 011925Z AUTO 03006KT 2SM -SN BR FEW009 BKN019 OVC025 A2992 RMK P0009 MADISHF
LCI,2017-04-01 19:30,-71.4200,43.5700,M,M,M,30.00,4.00,0.09,29.92,M,2.00,M,SCT,BKN,OVC,M,1200.00,1900.00,2500.00,M,-SN BR,KLCI 011930Z AUTO 03004KT 2SM -SN BR SCT012 BKN019 OVC025 A2992 RMK P0009 MADISHF
LCI,2017-04-01 19:31,-71.4200,43.5700,35.60,30.20,80.51,40.00,5.00,0.10,29.92,M,2.00,M,FEW,BKN,OVC,M,1000.00,1400.00,2500.00,M,-SN BR,KLCI 011931Z AUTO 04005KT 2SM -SN BR FEW010 BKN014 OVC025 02/M01 A2992 RMK AO2 P0010 FZRANO
LCI,2017-04-01 19:35,-71.4200,43.5700,M,M,M,50.00,6.00,0.10,29.92,M,2.00,M,SCT,BKN,OVC,M,1200.00,1800.00,2500.00,M,-SN BR,KLCI 011935Z AUTO 05006KT 2SM -SN BR SCT012 BKN018 OVC025 A2992 RMK P0010 MADISHF
LCI,2017-04-01 19:40,-71.4200,43.5700,M,M,M,40.00,5.00,0.11,29.92,M,2.50,M,SCT,BKN,OVC,M,1200.00,1800.00,2500.00,M,-SN BR,KLCI 011940Z AUTO 04005KT 2 1/2SM -SN BR SCT012 BKN018 OVC025 A2992 RMK P0011 MADISHF
LCI,2017-04-01 19:45,-71.4200,43.5700,M,M,M,50.00,6.00,0.12,29.92,M,2.50,M,BKN,BKN,OVC,M,1300.00,1999.00,2700.00,M,-SN BR,KLCI 011945Z AUTO 05006KT 2 1/2SM -SN BR BKN013 BKN019 OVC027 A2992 RMK P0012 MADISHF
LCI,2017-04-01 19:50,-71.4200,43.5700,M,M,M,50.00,8.00,0.12,29.92,M,3.00,M,BKN,BKN,OVC,M,1300.00,1800.00,2700.00,M,-SN BR,KLCI 011950Z AUTO 05008KT 3SM -SN BR BKN013 BKN018 OVC027 A2992 RMK P0012 MADISHF
LCI,2017-04-01 19:55,-71.4200,43.5700,M,M,M,50.00,6.00,0.13,29.92,M,3.00,M,BKN,OVC,M,M,1300.00,2200.00,M,M,-SN BR,KLCI 011955Z AUTO 05006KT 3SM -SN BR BKN013 OVC022 A2992 RMK P0013 MADISHF
LCI,2017-04-01 19:56,-71.4200,43.5700,35.10,30.90,84.49,50.00,7.00,0.13,29.91,1015.00,3.00,M,BKN,BKN,OVC,M,1300.00,1800.00,2600.00,M,-SN BR,KLCI 011956Z AUTO 05007KT 3SM -SN BR BKN013 BKN018 OVC026 02/M01 A2991 RMK AO2 SLP150 P0013 T00171006 FZRANO
LCI,2017-04-01 20:00,-71.4200,43.5700,M,M,M,50.00,7.00,M,29.91,M,3.00,M,FEW,BKN,OVC,M,900.00,1300.00,2600.00,M,-SN BR,KLCI 012000Z AUTO 05007KT 3SM -SN BR FEW009 BKN013 OVC026 A2991 RMK MADISHF
LCI,2017-04-01 20:05,-71.4200,43.5700,M,M,M,40.00,6.00,M,29.91,M,5.00,M,SCT,BKN,OVC,M,900.00,1300.00,2900.00,M,-SN BR,KLCI 012005Z AUTO 04006KT 5SM -SN BR SCT009 BKN013 OVC029 A2991 RMK MADISHF
LCI,2017-04-01 20:07,-71.4200,43.5700,35.60,30.20,80.51,40.00,5.00,0.00,29.91,M,6.00,M,SCT,BKN,OVC,M,900.00,1500.00,2900.00,M,-SN BR,KLCI 012007Z AUTO 04005KT 6SM -SN BR SCT009 BKN015 OVC029 02/M01 A2991 RMK AO2 P0000 FZRANO
LCI,2017-04-01 20:10,-71.4200,43.5700,M,M,M,10.00,5.00,0.00,29.92,M,8.00,M,FEW,BKN,OVC,M,900.00,1999.00,2900.00,M,UP,KLCI 012010Z AUTO 01005KT 8SM UP FEW009 BKN019 OVC029 A2992 RMK P0000 MADISHF
LCI,2017-04-01 20:15,-71.4200,43.5700,M,M,M,40.00,6.00,M,29.92,M,9.00,M,FEW,BKN,OVC,M,900.00,1999.00,2900.00,M,M,KLCI 012015Z AUTO 04006KT 9SM FEW009 BKN019 OVC029 A2992 RMK MADISHF
LCI,2017-04-01 20:20,-71.4200,43.5700,M,M,M,40.00,7.00,M,29.92,M,9.00,M,SCT,SCT,OVC,M,1100.00,1999.00,2900.00,M,-RA,KLCI 012020Z AUTO 04007KT 9SM -RA SCT011 SCT019 OVC029 A2992 RMK MADISHF
LCI,2017-04-01 20:25,-71.4200,43.5700,M,M,M,40.00,5.00,M,29.93,M,9.00,M,FEW,BKN,OVC,M,900.00,1999.00,3100.00,M,-RA,KLCI 012025Z AUTO 04005KT 9SM -RA FEW009 BKN019 OVC031 A2993 RMK VRB05KT  MADISHF
LCI,2017-04-01 20:30,-71.4200,43.5700,M,M,M,40.00,5.00,M,29.93,M,10.00,M,FEW,BKN,OVC,M,1100.00,1900.00,2900.00,M,-RA,KLCI 012030Z AUTO 04005KT 10SM -RA FEW011 BKN019 OVC029 A2993 RMK MADISHF
LCI,2017-04-01 20:35,-71.4200,43.5700,M,M,M,40.00,4.00,M,29.93,M,10.00,M,SCT,BKN,OVC,M,1500.00,2100.00,2900.00,M,-RA,KLCI 012035Z AUTO 04004KT 10SM -RA SCT015 BKN021 OVC029 A2993 RMK MADISHF
LCI,2017-04-01 20:40,-71.4200,43.5700,M,M,M,50.00,6.00,M,29.93,M,10.00,M,SCT,BKN,OVC,M,1500.00,2500.00,3100.00,M,-RA,KLCI 012040Z AUTO 05006KT 10SM -RA SCT015 BKN025 OVC031 A2993 RMK MADISHF
LCI,2017-04-01 20:45,-71.4200,43.5700,M,M,M,30.00,4.00,M,29.94,M,10.00,M,SCT,BKN,OVC,M,1500.00,2500.00,3100.00,M,-RA,KLCI 012045Z AUTO 03004KT 10SM -RA SCT015 BKN025 OVC031 A2994 RMK MADISHF
LCI,2017-04-01 20:50,-71.4200,43.5700,M,M,M,30.00,5.00,M,29.94,M,10.00,M,SCT,BKN,OVC,M,1500.00,2500.00,6000.00,M,-RA,KLCI 012050Z AUTO 03005KT 10SM -RA SCT015 BKN025 OVC060 A2994 RMK MADISHF
LCI,2017-04-01 20:55,-71.4200,43.5700,M,M,M,0.00,0.00,M,29.95,M,10.00,M,FEW,BKN,OVC,M,1500.00,2500.00,6000.00,M,M,KLCI 012055Z AUTO 00000KT 10SM FEW015 BKN025 OVC060 A2995 RMK MADISHF
LCI,2017-04-01 20:56,-71.4200,43.5700,35.10,30.90,84.49,0.00,0.00,0.00,29.95,1016.20,10.00,M,FEW,BKN,OVC,M,1500.00,2500.00,6000.00,M,M,KLCI 012056Z AUTO 00000KT 10SM FEW015 BKN025 OVC060 02/M01 A2995 RMK AO2 UPB10E13RAB18E54SNE10 SLP162 P0000 60032 T00171006 53010 FZRANO
LCI,2017-04-01 21:00,-71.4200,43.5700,M,M,M,360.00,4.00,M,29.96,M,10.00,M,FEW,BKN,OVC,M,1500.00,2500.00,4800.00,M,M,KLCI 012100Z AUTO 36004KT 10SM FEW015 BKN025 OVC048 A2996 RMK MADISHF
LCI,2017-04-01 21:05,-71.4200,43.5700,M,M,M,350.00,4.00,M,29.96,M,10.00,M,FEW,BKN,OVC,M,1500.00,2500.00,4900.00,M,M,KLCI 012105Z AUTO 35004KT 10SM FEW015 BKN025 OVC049 A2996 RMK MADISHF
LCI,2017-04-01 21:10,-71.4200,43.5700,M,M,M,20.00,3.00,M,29.96,M,10.00,M,SCT,BKN,OVC,M,1300.00,1900.00,4900.00,M,M,KLCI 012110Z AUTO 02003KT 10SM SCT013 BKN019 OVC049 A2996 RMK MADISHF
LCI,2017-04-01 21:15,-71.4200,43.5700,M,M,M,0.00,0.00,M,29.96,M,10.00,M,BKN,BKN,OVC,M,1300.00,2100.00,4900.00,M,-RA,KLCI 012115Z AUTO 00000KT 10SM -RA BKN013 BKN021 OVC049 A2996 RMK MADISHF
LCI,2017-04-01 21:20,-71.4200,43.5700,M,M,M,20.00,3.00,M,29.96,M,10.00,M,BKN,BKN,OVC,M,1300.00,2200.00,2600.00,M,-RA,KLCI 012120Z AUTO 02003KT 10SM -RA BKN013 BKN022 OVC026 A2996 RMK MADISHF
LCI,2017-04-01 21:25,-71.4200,43.5700,M,M,M,0.00,0.00,M,29.96,M,10.00,M,SCT,BKN,OVC,M,1500.00,2200.00,3300.00,M,-RA,KLCI 012125Z AUTO 00000KT 10SM -RA SCT015 BKN022 OVC033 A2996 RMK MADISHF
LCI,2017-04-01 21:30,-71.4200,43.5700,M,M,M,0.00,0.00,M,29.96,M,10.00,M,SCT,BKN,OVC,M,1500.00,2200.00,3300.00,M,-RA,KLCI 012130Z AUTO 00000KT 10SM -RA SCT015 BKN022 OVC033 A2996 RMK MADISHF
LCI,2017-04-01 21:35,-71.4200,43.5700,M,M,M,0.00,0.00,M,29.97,M,10.00,M,FEW,BKN,OVC,M,1500.00,2800.00,3300.00,M,-RA,KLCI 012135Z AUTO 00000KT 10SM -RA FEW015 BKN028 OVC033 A2997 RMK MADISHF
LCI,2017-04-01 21:40,-71.4200,43.5700,M,M,M,0.00,0.00,M,29.97,M,10.00,M,FEW,SCT,OVC,M,1500.00,2200.00,3100.00,M,-RA,KLCI 012140Z AUTO 00000KT 10SM -RA FEW015 SCT022 OVC031 A2997 RMK MADISHF
LCI,2017-04-01 21:45,-71.4200,43.5700,M,M,M,0.00,0.00,M,29.97,M,10.00,M,FEW,BKN,OVC,M,2100.00,2900.00,3399.00,M,-RA,KLCI 012145Z AUTO 00000KT 10SM -RA FEW021 BKN029 OVC033 A2997 RMK MADISHF
LCI,2017-04-01 21:50,-71.4200,43.5700,M,M,M,0.00,0.00,M,29.97,M,10.00,M,FEW,SCT,OVC,M,2200.00,2900.00,3399.00,M,-RA,KLCI 012150Z AUTO 00000KT 10SM -RA FEW022 SCT029 OVC033 A2997 RMK MADISHF
LCI,2017-04-01 21:55,-71.4200,43.5700,M,M,M,70.00,3.00,0.00,29.97,M,10.00,M,FEW,SCT,OVC,M,1800.00,2900.00,3399.00,M,UP,KLCI 012155Z AUTO 07003KT 10SM UP FEW018 SCT029 OVC033 A2997 RMK P0000 MADISHF
LCI,2017-04-01 21:56,-71.4200,43.5700,35.10,30.90,84.49,70.00,3.00,0.00,29.97,1017.00,10.00,M,FEW,SCT,OVC,M,1800.00,2900.00,3600.00,M,UP,KLCI 012156Z AUTO 07003KT 10SM UP FEW018 SCT029 OVC036 02/M01 A2997 RMK AO2 RAB11E55UPB55 SLP170 P0000 T00171006 FZRANO
LCI,2017-04-01 22:00,-71.4200,43.5700,M,M,M,80.00,6.00,0.00,29.97,M,9.00,M,FEW,OVC,M,M,1999.00,3600.00,M,M,UP,KLCI 012200Z AUTO 08006KT 9SM UP FEW019 OVC036 A2997 RMK P0000 MADISHF
LCI,2017-04-01 22:05,-71.4200,43.5700,M,M,M,70.00,5.00,0.00,29.97,M,9.00,M,FEW,OVC,M,M,1999.00,3600.00,M,M,UP,KLCI 012205Z AUTO 07005KT 9SM UP FEW019 OVC036 A2997 RMK P0000 MADISHF
LCI,2017-04-01 22:10,-71.4200,43.5700,M,M,M,80.00,5.00,0.00,29.97,M,9.00,M,OVC,M,M,M,3600.00,M,M,M,UP,KLCI 012210Z AUTO 08005KT 9SM UP OVC036 A2997 RMK P0000 MADISHF
LCI,2017-04-01 22:15,-71.4200,43.5700,M,M,M,80.00,4.00,M,29.97,M,9.00,M,OVC,M,M,M,3399.00,M,M,M,-SN,KLCI 012215Z AUTO 08004KT 9SM -SN OVC033 A2997 RMK MADISHF
LCI,2017-04-01 22:20,-71.4200,43.5700,M,M,M,90.00,5.00,M,29.97,M,7.00,M,BKN,OVC,M,M,3399.00,4100.00,M,M,-SN,KLCI 012220Z AUTO 09005KT 7SM -SN BKN033 OVC041 A2997 RMK MADISHF
LCI,2017-04-01 22:25,-71.4200,43.5700,M,M,M,100.00,5.00,M,29.97,M,8.00,M,FEW,BKN,OVC,M,3000.00,3700.00,6000.00,M,-SN,KLCI 012225Z AUTO 10005KT 8SM -SN FEW030 BKN037 OVC060 A2997 RMK MADISHF
LCI,2017-04-01 22:30,-71.4200,43.5700,M,M,M,90.00,3.00,M,29.97,M,9.00,M,SCT,BKN,OVC,M,3399.00,5000.00,7500.00,M,-SN,KLCI 012230Z AUTO 09003KT 9SM -SN SCT033 BKN050 OVC075 A2997 RMK MADISHF
LCI,2017-04-01 22:35,-71.4200,43.5700,M,M,M,0.00,0.00,M,29.98,M,9.00,M,FEW,BKN,OVC,M,3000.00,6000.00,7000.00,M,-SN,KLCI 012235Z AUTO 00000KT 9SM -SN FEW030 BKN060 OVC070 A2998 RMK MADISHF
LCI,2017-04-01 22:40,-71.4200,43.5700,M,M,M,80.00,3.00,M,29.98,M,9.00,M,FEW,SCT,OVC,M,3000.00,4800.00,7000.00,M,M,KLCI 012240Z AUTO 08003KT 9SM FEW030 SCT048 OVC070 A2998 RMK MADISHF
LCI,2017-04-01 22:45,-71.4200,43.5700,M,M,M,50.00,3.00,M,29.98,M,10.00,M,FEW,SCT,OVC,M,3600.00,5500.00,7000.00,M,M,KLCI 012245Z AUTO 05003KT 10SM FEW036 SCT055 OVC070 A2998 RMK MADISHF
LCI,2017-04-01 22:50,-71.4200,43.5700,M,M,M,50.00,3.00,M,29.98,M,10.00,M,SCT,OVC,M,M,5500.00,7000.00,M,M,M,KLCI 012250Z AUTO 05003KT 10SM SCT055 OVC070 A2998 RMK MADISHF
LCI,2017-04-01 22:55,-71.4200,43.5700,M,M,M,60.00,4.00,M,29.99,M,10.00,M,SCT,OVC,M,M,6000.00,7000.00,M,M,M,KLCI 012255Z AUTO 06004KT 10SM SCT060 OVC070 A2999 RMK MADISHF
LCI,2017-04-01 22:56,-71.4200,43.5700,33.10,30.90,91.51,60.00,4.00,0.00,29.99,1017.20,10.00,M,OVC,M,M,M,7000.00,M,M,M,M,KLCI 012256Z AUTO 06004KT 10SM OVC070 01/M01 A2999 RMK AO2 UPE15B38E40SNB15E38 SLP172 P0000 T00061006 FZRANO
LCI,2017-04-01 23:00,-71.4200,43.5700,M,M,M,60.00,3.00,M,29.99,M,10.00,M,SCT,OVC,M,M,6000.00,7000.00,M,M,M,KLCI 012300Z AUTO 06003KT 10SM SCT060 OVC070 A2999 RMK MADISHF
LCI,2017-04-01 23:05,-71.4200,43.5700,M,M,M,0.00,0.00,M,29.99,M,10.00,M,OVC,M,M,M,6500.00,M,M,M,-RA,KLCI 012305Z AUTO 00000KT 10SM -RA OVC065 A2999 RMK MADISHF
LCI,2017-04-01 23:10,-71.4200,43.5700,M,M,M,0.00,0.00,M,29.99,M,10.00,M,BKN,OVC,M,M,6000.00,7000.00,M,M,-RA,KLCI 012310Z AUTO 00000KT 10SM -RA BKN060 OVC070 A2999 RMK MADISHF
LCI,2017-04-01 23:15,-71.4200,43.5700,M,M,M,0.00,0.00,M,29.99,M,10.00,M,BKN,OVC,M,M,6000.00,7000.00,M,M,-RA,KLCI 012315Z AUTO 00000KT 10SM -RA BKN060 OVC070 A2999 RMK MADISHF
LCI,2017-04-01 23:20,-71.4200,43.5700,M,M,M,0.00,0.00,M,29.98,M,10.00,M,BKN,OVC,M,M,6000.00,7500.00,M,M,-RA,KLCI 012320Z AUTO 00000KT 10SM -RA BKN060 OVC075 A2998 RMK MADISHF
LCI,2017-04-01 23:25,-71.4200,43.5700,M,M,M,50.00,3.00,M,29.98,M,10.00,M,BKN,OVC,M,M,6000.00,7500.00,M,M,-RA,KLCI 012325Z AUTO 05003KT 10SM -RA BKN060 OVC075 A2998 RMK MADISHF
LCI,2017-04-01 23:30,-71.4200,43.5700,M,M,M,60.00,4.00,M,29.98,M,10.00,M,BKN,OVC,M,M,6000.00,7999.00,M,M,-RA,KLCI 012330Z AUTO 06004KT 10SM -RA BKN060 OVC079 A2998 RMK MADISHF
LCI,2017-04-01 23:35,-71.4200,43.5700,M,M,M,60.00,3.00,M,29.97,M,10.00,M,SCT,SCT,OVC,M,6000.00,7000.00,8500.00,M,-RA,KLCI 012335Z AUTO 06003KT 10SM -RA SCT060 SCT070 OVC085 A2997 RMK MADISHF
LCI,2017-04-01 23:40,-71.4200,43.5700,M,M,M,60.00,3.00,M,29.97,M,10.00,M,SCT,OVC,M,M,6000.00,8500.00,M,M,-RA,KLCI 012340Z AUTO 06003KT 10SM -RA SCT060 OVC085 A2997 RMK MADISHF
LCI,2017-04-01 23:45,-71.4200,43.5700,M,M,M,50.00,3.00,M,29.97,M,10.00,M,FEW,OVC,M,M,6000.00,7999.00,M,M,-RA,KLCI 012345Z AUTO 05003KT 10SM -RA FEW060 OVC079 A2997 RMK MADISHF
LCI,2017-04-01 23:50,-71.4200,43.5700,M,M,M,50.00,3.00,M,29.97,M,10.00,M,FEW,BKN,OVC,M,6000.00,8500.00,10000.00,M,-RA,KLCI 012350Z AUTO 05003KT 10SM -RA FEW060 BKN085 OVC100 A2997 RMK MADISHF
LCI,2017-04-01 23:55,-71.4200,43.5700,M,M,M,60.00,4.00,M,29.98,M,10.00,M,BKN,OVC,M,M,8500.00,11000.00,M,M,-RA,KLCI 012355Z AUTO 06004KT 10SM -RA BKN085 OVC110 A2998 RMK MADISHF
LCI,2017-04-01 23:56,-71.4200,43.5700,33.10,30.90,91.51,50.00,4.00,0.00,29.98,1017.20,10.00,M,BKN,OVC,M,M,8500.00,11000.00,M,M,-RA,KLCI 012356Z AUTO 05004KT 10SM -RA BKN085 OVC110 01/M01 A2998 RMK AO2 RAB01 SLP172 P0000 60032 T00061006 10022 20006 50009 FZRANO
