#DEBUG: Format Typ    -> comma
#DEBUG: Time Period   -> 2017-04-01 00:00:00+00:00 2017-04-02 00:00:00+00:00
#DEBUG: Time Zone     -> Etc/UTC
#DEBUG: Data Contact   -> daryl herzmann akrherz@iastate.edu 515-294-5978
#DEBUG: Entries Found -> -1
station,valid,lon,lat,tmpf, dwpf, relh, drct, sknt, p01i, alti, mslp, vsby, gust, skyc1, skyc2, skyc3, skyc4, skyl1, skyl2, skyl3, skyl4, presentwx, metar
LDJ,2017-04-01 00:15,-74.2446,40.6174,41.20,38.80,91.09,90.00,17.00,0.05,29.75,M,2.50,23.00,BKN,OVC,M,M,1200.00,1900.00,M,M,+RA,KLDJ 010015Z AUTO 09017G23KT 2 1/2SM +RA BKN012 OVC019 05/04 A2975 RMK AO2 P0005 T00510038
LDJ,2017-04-01 00:35,-74.2446,40.6174,41.00,38.70,91.44,80.00,14.00,0.10,29.77,M,3.00,19.00,SCT,OVC,M,M,900.00,1500.00,M,M,RA,KLDJ 010035Z AUTO 08014G19KT 3SM RA SCT009 OVC015 05/04 A2977 RMK AO2 P0010 T00500037
LDJ,2017-04-01 00:55,-74.2446,40.6174,41.40,39.20,91.81,80.00,11.00,0.17,29.77,M,3.00,19.00,BKN,OVC,M,M,1000.00,1800.00,M,M,+RA,KLDJ 010055Z AUTO 08011G19KT 3SM +RA BKN010 OVC018 05/04 A2977 RMK AO2 P0017 T00520040
LDJ,2017-04-01 01:15,-74.2446,40.6174,41.50,39.20,91.46,80.00,11.00,0.03,29.76,M,3.00,15.00,SCT,OVC,M,M,1000.00,1600.00,M,M,-RA,KLDJ 010115Z AUTO 08011G15KT 3SM -RA SCT010 OVC016 05/04 A2976 RMK AO2 P0003 T00530040
LDJ,2017-04-01 01:35,-74.2446,40.6174,41.20,38.80,91.09,70.00,10.00,0.04,29.75,M,4.00,15.00,BKN,OVC,M,M,800.00,1600.00,M,M,RA,KLDJ 010135Z AUTO 07010G15KT 4SM RA BKN008 OVC016 05/04 A2975 RMK AO2 P0004 T00510038
LDJ,2017-04-01 01:55,-74.2446,40.6174,40.80,38.70,92.15,70.00,10.00,0.05,29.74,M,5.00,14.00,OVC,M,M,M,800.00,M,M,M,DZ,KLDJ 010155Z AUTO 07010G14KT 5SM DZ OVC008 05/04 A2974 RMK AO2 P0005 T00490037
LDJ,2017-04-01 02:15,-74.2446,40.6174,40.50,38.30,91.78,70.00,12.00,0.00,29.73,M,4.00,15.00,BKN,OVC,M,M,800.00,1300.00,M,M,DZ,KLDJ 010215Z AUTO 07012G15KT 4SM DZ BKN008 OVC013 05/04 A2973 RMK AO2 T00470035
LDJ,2017-04-01 02:35,-74.2446,40.6174,40.10,37.90,91.77,60.00,14.00,0.01,29.72,M,5.00,18.00,OVC,M,M,M,1000.00,M,M,M,-DZ,KLDJ 010235Z AUTO 06014G18KT 5SM -DZ OVC010 05/03 A2972 RMK AO2 P0001 T00450033
LDJ,2017-04-01 02:55,-74.2446,40.6174,40.10,37.80,91.41,60.00,8.00,0.01,29.71,M,4.00,M,BKN,OVC,M,M,800.00,1400.00,M,M,-DZ,KLDJ 010255Z AUTO 06008KT 4SM -DZ BKN008 OVC014 05/03 A2971 RMK AO2 LTG DSNT S P0001 60024 T00450032
LDJ,2017-04-01 03:15,-74.2446,40.6174,39.60,37.60,92.47,60.00,10.00,0.00,29.71,M,4.00,15.00,OVC,M,M,M,800.00,M,M,M,-DZ,KLDJ 010315Z AUTO 06010G15KT 4SM -DZ OVC008 04/03 A2971 RMK AO2 LTG DSNT S T00420031
LDJ,2017-04-01 03:35,-74.2446,40.6174,39.20,37.20,92.46,60.00,11.00,0.01,29.70,M,5.00,16.00,BKN,OVC,M,M,800.00,1100.00,M,M,-RA,KLDJ 010335Z AUTO 06011G16KT 5SM -RA BKN008 OVC011 04/03 A2970 RMK AO2 P0001 T00400029
LDJ,2017-04-01 03:55,-74.2446,40.6174,39.20,36.90,91.37,60.00,14.00,0.01,29.69,M,5.00,20.00,OVC,M,M,M,800.00,M,M,M,-DZ,KLDJ 010355Z AUTO 06014G20KT 5SM -DZ OVC008 04/03 A2969 RMK AO2 P0001 T00400027
LDJ,2017-04-01 04:15,-74.2446,40.6174,39.20,36.90,91.37,70.00,17.00,0.00,29.68,M,3.00,24.00,OVC,M,M,M,800.00,M,M,M,RA,KLDJ 010415Z AUTO 07017G24KT 3SM RA OVC008 04/03 A2968 RMK AO2 T00400027
LDJ,2017-04-01 04:35,-74.2446,40.6174,38.80,36.70,92.08,60.00,13.00,0.00,29.68,M,4.00,23.00,OVC,M,M,M,800.00,M,M,M,-DZ,KLDJ 010435Z AUTO 06013G23KT 4SM -DZ OVC008 04/03 A2968 RMK AO2 T00380026
LDJ,2017-04-01 04:55,-74.2446,40.6174,38.50,36.50,92.44,70.00,13.00,0.00,29.68,M,4.00,19.00,BKN,OVC,M,M,800.00,1100.00,M,M,-DZ,KLDJ 010455Z AUTO 07013G19KT 4SM -DZ BKN008 OVC011 04/03 A2968 RMK AO2 T00360025
LDJ,2017-04-01 05:15,-74.2446,40.6174,38.30,36.00,91.34,50.00,13.00,0.00,29.68,M,5.00,19.00,OVC,M,M,M,800.00,M,M,M,BR,KLDJ 010515Z AUTO 05013G19KT 5SM BR OVC008 04/02 A2968 RMK AO2 T00350022
LDJ,2017-04-01 05:35,-74.2446,40.6174,38.30,36.10,91.70,50.00,16.00,0.00,29.66,M,4.00,22.00,OVC,M,M,M,800.00,M,M,M,BR,KLDJ 010535Z AUTO 05016G22KT 4SM BR OVC008 04/02 A2966 RMK AO2 T00350023
LDJ,2017-04-01 05:55,-74.2446,40.6174,38.30,36.00,91.34,60.00,15.00,0.00,29.67,M,4.00,19.00,OVC,M,M,M,800.00,M,M,M,BR,KLDJ 010555Z AUTO 06015G19KT 4SM BR OVC008 04/02 A2967 RMK AO2 60025 T00350022 10053 20035 400530033
LDJ,2017-04-01 06:15,-74.2446,40.6174,38.50,36.50,92.44,60.00,17.00,0.00,29.66,M,3.00,25.00,OVC,M,M,M,800.00,M,M,M,-RA,KLDJ 010615Z AUTO 06017G25KT 3SM -RA OVC008 04/03 A2966 RMK AO2 LTG DSNT S T00360025
LDJ,2017-04-01 06:35,-74.2446,40.6174,38.10,35.80,91.33,60.00,19.00,0.00,29.66,M,3.00,27.00,OVC,M,M,M,800.00,M,M,M,-DZ,KLDJ 010635Z AUTO 06019G27KT 3SM -DZ OVC008 03/02 A2966 RMK AO2 T00340021
LDJ,2017-04-01 06:55,-74.2446,40.6174,37.90,35.80,92.05,60.00,18.00,0.00,29.65,M,3.00,24.00,OVC,M,M,M,800.00,M,M,M,-DZ,KLDJ 010655Z AUTO 06018G24KT 3SM -DZ OVC008 03/02 A2965 RMK AO2 T00330021
LDJ,2017-04-01 07:15,-74.2446,40.6174,37.90,35.80,92.05,40.00,7.00,0.00,29.66,M,4.00,21.00,BKN,OVC,M,M,800.00,1300.00,M,M,-DZ,KLDJ 010715Z AUTO 04007G21KT 4SM -DZ BKN008 OVC013 03/02 A2966 RMK AO2 T00330021
LDJ,2017-04-01 07:35,-74.2446,40.6174,37.80,35.60,91.68,50.00,11.00,0.00,29.67,M,4.00,17.00,OVC,M,M,M,800.00,M,M,M,-DZ,KLDJ 010735Z AUTO 05011G17KT 4SM -DZ OVC008 03/02 A2967 RMK AO2 T00320020
LDJ,2017-04-01 07:55,-74.2446,40.6174,37.80,35.80,92.41,50.00,11.00,0.01,29.67,M,3.00,16.00,OVC,M,M,M,1000.00,M,M,M,DZ,KLDJ 010755Z AUTO 05011G16KT 3SM DZ OVC010 03/02 A2967 RMK AO2 P0001 T00320021
LDJ,2017-04-01 08:35,-74.2446,40.6174,37.20,35.20,92.39,20.00,9.00,0.00,29.67,M,4.00,14.00,OVC,M,M,M,700.00,M,M,M,-DZ,KLDJ 010835Z AUTO 02009G14KT 4SM -DZ OVC007 03/02 A2967 RMK AO2 T00290018
LDJ,2017-04-01 09:15,-74.2446,40.6174,36.90,34.70,91.65,30.00,9.00,0.00,29.68,M,5.00,M,BKN,OVC,M,M,900.00,1600.00,M,M,BR,KLDJ 010915Z AUTO 03009KT 5SM BR BKN009 OVC016 03/02 A2968 RMK AO2 T00270015
LDJ,2017-04-01 09:35,-74.2446,40.6174,37.00,34.90,92.02,20.00,9.00,0.00,29.70,M,4.00,M,OVC,M,M,M,900.00,M,M,M,BR,KLDJ 010935Z AUTO 02009KT 4SM BR OVC009 03/02 A2970 RMK AO2 T00280016
LDJ,2017-04-01 10:15,-74.2446,40.6174,37.40,34.90,90.58,20.00,11.00,0.00,29.71,M,5.00,17.00,OVC,M,M,M,1300.00,M,M,M,BR,KLDJ 011015Z AUTO 02011G17KT 5SM BR OVC013 03/02 A2971 RMK AO2 T00300016
LDJ,2017-04-01 10:35,-74.2446,40.6174,37.60,34.70,89.16,20.00,10.00,0.00,29.72,M,10.00,15.00,OVC,M,M,M,1500.00,M,M,M,M,KLDJ 011035Z AUTO 02010G15KT 10SM OVC015 03/02 A2972 RMK AO2 T00310015
LDJ,2017-04-01 10:55,-74.2446,40.6174,37.40,34.50,89.15,10.00,7.00,0.00,29.73,M,5.00,14.00,OVC,M,M,M,1500.00,M,M,M,BR,KLDJ 011055Z AUTO 01007G14KT 5SM BR OVC015 03/01 A2973 RMK AO2 T00300014
LDJ,2017-04-01 11:35,-74.2446,40.6174,37.60,34.50,88.45,10.00,11.00,0.00,29.75,M,10.00,15.00,BKN,OVC,M,M,1500.00,2000.00,M,M,M,KLDJ 011135Z AUTO 01011G15KT 10SM BKN015 OVC020 03/01 A2975 RMK AO2 T00310014
LDJ,2017-04-01 11:55,-74.2446,40.6174,37.90,34.20,86.38,350.00,10.00,0.00,29.76,M,10.00,14.00,OVC,M,M,M,1500.00,M,M,M,M,KLDJ 011155Z AUTO 35010G14KT 10SM OVC015 03/01 A2976 RMK AO2 60001 70136 T00330012 10036 20027
LDJ,2017-04-01 12:15,-74.2446,40.6174,38.30,34.30,85.37,350.00,12.00,0.00,29.76,M,10.00,M,OVC,M,M,M,1700.00,M,M,M,M,KLDJ 011215Z AUTO 35012KT 10SM OVC017 04/01 A2976 RMK AO2 T00350013
LDJ,2017-04-01 12:55,-74.2446,40.6174,39.20,34.50,83.08,10.00,12.00,0.00,29.78,M,10.00,16.00,BKN,OVC,M,M,2100.00,2600.00,M,M,M,KLDJ 011255Z AUTO 01012G16KT 10SM BKN021 OVC026 04/01 A2978 RMK AO2 T00400014
LDJ,2017-04-01 13:15,-74.2446,40.6174,39.90,34.30,80.20,350.00,11.00,0.00,29.78,M,10.00,18.00,BKN,OVC,M,M,2100.00,2600.00,M,M,M,KLDJ 011315Z AUTO 35011G18KT 10SM BKN021 OVC026 04/01 A2978 RMK AO2 T00440013
LDJ,2017-04-01 13:35,-74.2446,40.6174,40.10,34.00,78.63,360.00,10.00,0.00,29.79,M,10.00,17.00,OVC,M,M,M,2100.00,M,M,M,M,KLDJ 011335Z AUTO 36010G17KT 10SM OVC021 05/01 A2979 RMK AO2 T00450011
LDJ,2017-04-01 13:55,-74.2446,40.6174,40.10,34.20,79.26,360.00,11.00,0.00,29.81,M,10.00,18.00,OVC,M,M,M,2100.00,M,M,M,M,KLDJ 011355Z AUTO 36011G18KT 10SM OVC021 05/01 A2981 RMK AO2 T00450012
LDJ,2017-04-01 14:15,-74.2446,40.6174,41.20,34.70,77.48,360.00,12.00,0.00,29.81,M,10.00,18.00,OVC,M,M,M,1900.00,M,M,M,M,KLDJ 011415Z AUTO 36012G18KT 10SM OVC019 05/02 A2981 RMK AO2 T00510015
LDJ,2017-04-01 14:35,-74.2446,40.6174,41.70,34.20,74.50,360.00,13.00,0.00,29.81,M,10.00,18.00,OVC,M,M,M,2100.00,M,M,M,M,KLDJ 011435Z AUTO 36013G18KT 340V040 10SM OVC021 05/01 A2981 RMK AO2 T00540012
LDJ,2017-04-01 14:55,-74.2446,40.6174,42.40,34.20,72.52,10.00,9.00,0.00,29.82,M,10.00,18.00,OVC,M,M,M,2100.00,M,M,M,M,KLDJ 011455Z AUTO 01009G18KT 340V040 10SM OVC021 06/01 A2982 RMK AO2 T00580012
LDJ,2017-04-01 15:15,-74.2446,40.6174,43.70,34.70,70.38,360.00,13.00,0.00,29.83,M,10.00,19.00,OVC,M,M,M,2100.00,M,M,M,M,KLDJ 011515Z AUTO 36013G19KT 10SM OVC021 07/02 A2983 RMK AO2 T00650015
LDJ,2017-04-01 15:35,-74.2446,40.6174,44.20,34.30,67.96,10.00,13.00,0.00,29.83,M,10.00,22.00,OVC,M,M,M,2300.00,M,M,M,M,KLDJ 011535Z AUTO 01013G22KT 350V050 10SM OVC023 07/01 A2983 RMK AO2 T00680013
LDJ,2017-04-01 15:55,-74.2446,40.6174,44.60,34.20,66.66,350.00,14.00,0.00,29.83,M,10.00,21.00,OVC,M,M,M,2300.00,M,M,M,M,KLDJ 011555Z AUTO 35014G21KT 10SM OVC023 07/01 A2983 RMK AO2 T00700012
LDJ,2017-04-01 16:15,-74.2446,40.6174,45.70,34.50,64.70,350.00,13.00,0.00,29.84,M,10.00,M,OVC,M,M,M,2500.00,M,M,M,M,KLDJ 011615Z AUTO 35013KT 10SM OVC025 08/01 A2984 RMK AO2 T00760014
LDJ,2017-04-01 16:35,-74.2446,40.6174,45.70,34.70,65.22,340.00,12.00,0.00,29.83,M,10.00,18.00,OVC,M,M,M,2500.00,M,M,M,M,KLDJ 011635Z AUTO 34012G18KT 10SM OVC025 08/02 A2983 RMK AO2 T00760015
LDJ,2017-04-01 16:55,-74.2446,40.6174,45.30,34.30,65.17,10.00,8.00,0.00,29.84,M,10.00,14.00,OVC,M,M,M,2500.00,M,M,M,M,KLDJ 011655Z AUTO 01008G14KT 10SM OVC025 07/01 A2984 RMK AO2 T00740013
LDJ,2017-04-01 17:15,-74.2446,40.6174,45.70,33.80,62.92,360.00,12.00,0.00,29.84,M,10.00,15.00,OVC,M,M,M,2500.00,M,M,M,M,KLDJ 011715Z AUTO 36012G15KT 10SM OVC025 08/01 A2984 RMK AO2 T00760010
LDJ,2017-04-01 17:35,-74.2446,40.6174,45.50,33.30,62.14,350.00,11.00,0.00,29.85,M,10.00,17.00,OVC,M,M,M,2700.00,M,M,M,M,KLDJ 011735Z AUTO 35011G17KT 10SM OVC027 08/01 A2985 RMK AO2 T00750007
LDJ,2017-04-01 17:55,-74.2446,40.6174,45.90,33.60,61.95,350.00,9.00,0.00,29.85,M,10.00,16.00,OVC,M,M,M,2900.00,M,M,M,M,KLDJ 011755Z AUTO 35009G16KT 330V030 10SM OVC029 08/01 A2985 RMK AO2 T00770009 10078 20033
LDJ,2017-04-01 18:15,-74.2446,40.6174,46.60,33.30,59.61,10.00,11.00,0.00,29.85,M,10.00,16.00,OVC,M,M,M,3100.00,M,M,M,M,KLDJ 011815Z AUTO 01011G16KT 10SM OVC031 08/01 A2985 RMK AO2 T00810007
LDJ,2017-04-01 18:35,-74.2446,40.6174,48.20,33.60,56.80,20.00,12.00,0.00,29.86,M,10.00,18.00,BKN,BKN,BKN,M,3300.00,4000.00,5000.00,M,M,KLDJ 011835Z AUTO 02012G18KT 10SM BKN033 BKN040 BKN050 09/01 A2986 RMK AO2 T00900009
LDJ,2017-04-01 18:55,-74.2446,40.6174,47.70,33.30,57.19,10.00,11.00,0.00,29.86,M,10.00,17.00,BKN,OVC,M,M,3300.00,5000.00,M,M,M,KLDJ 011855Z AUTO 01011G17KT 10SM BKN033 OVC050 09/01 A2986 RMK AO2 T00870007
LDJ,2017-04-01 19:15,-74.2446,40.6174,50.00,34.00,53.97,350.00,14.00,0.00,29.86,M,10.00,18.00,BKN,BKN,OVC,M,3500.00,4100.00,4700.00,M,M,KLDJ 011915Z AUTO 35014G18KT 10SM BKN035 BKN041 OVC047 10/01 A2986 RMK AO2 T01000011
LDJ,2017-04-01 19:35,-74.2446,40.6174,50.20,34.00,53.57,350.00,10.00,0.00,29.86,M,10.00,17.00,BKN,BKN,M,M,3900.00,4500.00,M,M,M,KLDJ 011935Z AUTO 35010G17KT 10SM BKN039 BKN045 10/01 A2986 RMK AO2 T01010011
LDJ,2017-04-01 19:55,-74.2446,40.6174,49.60,33.80,54.34,20.00,12.00,0.00,29.88,M,10.00,17.00,BKN,M,M,M,3700.00,M,M,M,M,KLDJ 011955Z AUTO 02012G17KT 10SM BKN037 10/01 A2988 RMK AO2 T00980010
LDJ,2017-04-01 20:15,-74.2446,40.6174,50.00,33.80,53.54,30.00,9.00,0.00,29.88,M,10.00,17.00,OVC,M,M,M,3900.00,M,M,M,M,KLDJ 012015Z AUTO 03009G17KT 10SM OVC039 10/01 A2988 RMK AO2 T01000010
LDJ,2017-04-01 20:35,-74.2446,40.6174,50.00,33.80,53.54,10.00,10.00,0.00,29.89,M,10.00,14.00,OVC,M,M,M,3700.00,M,M,M,M,KLDJ 012035Z AUTO 01010G14KT 10SM OVC037 10/01 A2989 RMK AO2 T01000010
LDJ,2017-04-01 20:55,-74.2446,40.6174,49.80,34.00,54.37,20.00,10.00,0.00,29.90,M,10.00,M,OVC,M,M,M,3700.00,M,M,M,M,KLDJ 012055Z AUTO 02010KT 10SM OVC037 10/01 A2990 RMK AO2 T00990011
LDJ,2017-04-01 21:15,-74.2446,40.6174,49.30,34.30,56.06,360.00,8.00,0.00,29.91,M,10.00,M,OVC,M,M,M,3700.00,M,M,M,M,KLDJ 012115Z AUTO 36008KT 10SM OVC037 10/01 A2991 RMK AO2 T00960013
LDJ,2017-04-01 21:35,-74.2446,40.6174,49.10,34.20,56.26,340.00,9.00,0.00,29.92,M,10.00,M,BKN,OVC,M,M,3700.00,4400.00,M,M,M,KLDJ 012135Z AUTO 34009KT 320V020 10SM BKN037 OVC044 10/01 A2992 RMK AO2 T00950012
LDJ,2017-04-01 21:55,-74.2446,40.6174,48.70,34.00,56.65,10.00,8.00,0.00,29.93,M,10.00,M,OVC,M,M,M,4000.00,M,M,M,M,KLDJ 012155Z AUTO 01008KT 10SM OVC040 09/01 A2993 RMK AO2 T00930011
LDJ,2017-04-01 22:15,-74.2446,40.6174,48.90,34.30,56.91,360.00,7.00,0.00,29.93,M,10.00,M,OVC,M,M,M,3800.00,M,M,M,M,KLDJ 012215Z AUTO 36007KT 10SM OVC038 09/01 A2993 RMK AO2 T00940013
LDJ,2017-04-01 22:35,-74.2446,40.6174,49.10,34.30,56.48,360.00,5.00,0.00,29.94,M,10.00,M,OVC,M,M,M,4100.00,M,M,M,M,KLDJ 012235Z AUTO 36005KT 10SM OVC041 10/01 A2994 RMK AO2 T00950013
LDJ,2017-04-01 22:55,-74.2446,40.6174,48.60,34.00,56.86,10.00,7.00,0.00,29.96,M,10.00,M,OVC,M,M,M,4200.00,M,M,M,M,KLDJ 012255Z AUTO 01007KT 10SM OVC042 09/01 A2996 RMK AO2 T00920011
LDJ,2017-04-01 23:15,-74.2446,40.6174,48.40,34.20,57.75,0.00,0.00,0.00,29.98,M,10.00,M,OVC,M,M,M,4200.00,M,M,M,M,KLDJ 012315Z AUTO 00000KT 10SM OVC042 09/01 A2998 RMK AO2 T00910012
LDJ,2017-04-01 23:35,-74.2446,40.6174,48.20,34.00,57.72,10.00,5.00,0.00,29.99,M,10.00,M,OVC,M,M,M,4200.00,M,M,M,M,KLDJ 012335Z AUTO 01005KT 10SM OVC042 09/01 A2999 RMK AO2 T00900011
LDJ,2017-04-01 23:55,-74.2446,40.6174,47.80,34.20,59.06,0.00,0.00,0.00,29.99,M,10.00,M,SCT,OVC,M,M,3900.00,4500.00,M,M,M,KLDJ 012355Z AUTO 00000KT 10SM SCT039 OVC045 09/01 A2999 RMK AO2 T00880012 10104 20080
