#DEBUG: Format Typ    -> comma
#DEBUG: Time Period   -> 2017-04-01 00:00:00+00:00 2017-04-02 00:00:00+00:00
#DEBUG: Time Zone     -> Etc/UTC
#DEBUG: Data Contact   -> daryl herzmann akrherz@iastate.edu 515-294-5978
#DEBUG: Entries Found -> -1
station,valid,lon,lat,tmpf, dwpf, relh, drct, sknt, p01i, alti, mslp, vsby, gust, skyc1, skyc2, skyc3, skyc4, skyl1, skyl2, skyl3, skyl4, presentwx, metar
LEB,2017-04-01 00:00,-72.3042,43.6261,M,M,M,0.00,0.00,0.01,30.02,M,1.00,M,BKN,OVC,M,M,200.00,800.00,M,M,-SN BR,KLEB 010000Z AUTO 00000KT 1SM -SN BR BKN002 OVC008 A3002 RMK P0001 MADISHF
LEB,2017-04-01 00:05,-72.3042,43.6261,M,M,M,0.00,0.00,0.02,30.02,M,0.75,M,BKN,OVC,M,M,200.00,800.00,M,M,-SN BR,KLEB 010005Z AUTO 00000KT 1SM -SN BR BKN002 OVC008 A3002 RMK P0002 MADISHF
LEB,2017-04-01 00:07,-72.3042,43.6261,33.10,32.00,95.67,0.00,0.00,0.02,30.02,M,0.75,M,SCT,OVC,M,M,200.00,600.00,M,M,-SN BR,KLEB 010007Z 00000KT 3/4SM -SN BR SCT002 OVC006 01/00 A3002 RMK AO2 P0002 T00060000
LEB,2017-04-01 00:10,-72.3042,43.6261,M,M,M,0.00,0.00,0.03,30.02,M,0.75,M,BKN,OVC,M,M,400.00,999.00,M,M,-SN BR,KLEB 010010Z AUTO 00000KT 1SM -SN BR BKN004 OVC009 A3002 RMK P0003 MADISHF
LEB,2017-04-01 00:14,-72.3042,43.6261,33.10,30.90,91.51,0.00,0.00,0.03,30.03,M,0.75,M,VV ,M,M,M,400.00,M,M,M,-SN BR,KLEB 010014Z 00000KT 3/4SM -SN BR VV004 01/M01 A3003 RMK AO2 P0003 T00061006
LEB,2017-04-01 00:15,-72.3042,43.6261,M,M,M,0.00,0.00,0.04,30.03,M,0.50,M,VV ,M,M,M,400.00,M,M,M,SN FG,KLEB 010015Z AUTO 00000KT 1/2SM SN FG VV004 A3003 RMK P0004 MADISHF
LEB,2017-04-01 00:20,-72.3042,43.6261,M,M,M,0.00,0.00,0.05,30.02,M,0.50,M,VV ,M,M,M,400.00,M,M,M,SN FG,KLEB 010020Z AUTO 00000KT 1/2SM SN FG VV004 A3002 RMK P0005 MADISHF
LEB,2017-04-01 00:25,-72.3042,43.6261,M,M,M,0.00,0.00,0.05,30.03,M,0.50,M,FEW,OVC,M,M,100.00,499.00,M,M,SN FG,KLEB 010025Z AUTO 00000KT 1/2SM SN FG FEW001 OVC004 A3003 RMK P0005 MADISHF
LEB,2017-04-01 00:29,-72.3042,43.6261,33.10,32.00,95.67,0.00,0.00,0.06,30.02,M,0.50,M,VV ,M,M,M,500.00,M,M,M,SN FG,KLEB 010029Z 00000KT 1/2SM SN FG VV005 01/00 A3002 RMK AO2 P0006 T00060000
LEB,2017-04-01 00:30,-72.3042,43.6261,M,M,M,0.00,0.00,0.06,30.02,M,0.50,M,VV ,M,M,M,499.00,M,M,M,SN FG,KLEB 010030Z AUTO 00000KT 1/2SM SN FG VV004 A3002 RMK P0006 MADISHF
LEB,2017-04-01 00:35,-72.3042,43.6261,M,M,M,0.00,0.00,0.07,30.02,M,0.75,M,VV ,M,M,M,499.00,M,M,M,-SN BR,KLEB 010035Z AUTO 00000KT 1SM -SN BR VV004 A3002 RMK P0007 MADISHF
LEB,2017-04-01 00:40,-72.3042,43.6261,M,M,M,0.00,0.00,0.07,30.02,M,0.75,M,VV ,M,M,M,400.00,M,M,M,-SN BR,KLEB 010040Z AUTO 00000KT 1SM -SN BR VV004 A3002 RMK P0007 MADISHF
LEB,2017-04-01 00:45,-72.3042,43.6261,M,M,M,0.00,0.00,0.08,30.02,M,0.75,M,FEW,OVC,M,M,200.00,600.00,M,M,-SN BR,KLEB 010045Z AUTO 00000KT 1SM -SN BR FEW002 OVC006 A3002 RMK P0008 MADISHF
LEB,2017-04-01 00:50,-72.3042,43.6261,M,M,M,0.00,0.00,0.08,30.02,M,1.00,M,FEW,OVC,M,M,200.00,600.00,M,M,-SN BR,KLEB 010050Z AUTO 00000KT 1SM -SN BR FEW002 OVC006 A3002 RMK P0008 MADISHF
LEB,2017-04-01 00:53,-72.3042,43.6261,33.10,32.00,95.67,0.00,0.00,0.09,30.02,1017.10,0.75,M,FEW,OVC,M,M,200.00,600.00,M,M,-SN BR,KLEB 010053Z 00000KT 3/4SM -SN BR FEW002 OVC006 01/00 A3002 RMK AO2 SLP171 P0009 T00060000
LEB,2017-04-01 00:55,-72.3042,43.6261,M,M,M,50.00,3.00,M,30.02,M,0.75,M,FEW,OVC,M,M,200.00,600.00,M,M,-SN BR,KLEB 010055Z AUTO 05003KT 1SM -SN BR FEW002 OVC006 A3002 RMK VRB03KT  MADISHF
LEB,2017-04-01 01:00,-72.3042,43.6261,M,M,M,20.00,3.00,M,30.02,M,0.75,M,FEW,OVC,M,M,200.00,600.00,M,M,-SN BR,KLEB 010100Z AUTO 02003KT 1SM -SN BR FEW002 OVC006 A3002 RMK MADISHF
LEB,2017-04-01 01:05,-72.3042,43.6261,M,M,M,20.00,3.00,0.01,30.01,M,1.00,M,FEW,OVC,M,M,200.00,600.00,M,M,-SN BR,KLEB 010105Z AUTO 02003KT 1SM -SN BR FEW002 OVC006 A3001 RMK P0001 MADISHF
LEB,2017-04-01 01:08,-72.3042,43.6261,33.10,30.90,91.51,30.00,4.00,0.01,30.01,M,1.00,M,FEW,OVC,M,M,200.00,700.00,M,M,-SN BR,KLEB 010108Z 03004KT 1SM -SN BR FEW002 OVC007 01/M01 A3001 RMK AO2 P0001 T00061006
LEB,2017-04-01 01:10,-72.3042,43.6261,M,M,M,20.00,4.00,0.02,30.01,M,1.00,M,FEW,OVC,M,M,200.00,700.00,M,M,-SN BR,KLEB 010110Z AUTO 02004KT 1SM -SN BR FEW002 OVC007 A3001 RMK P0002 MADISHF
LEB,2017-04-01 01:15,-72.3042,43.6261,M,M,M,20.00,3.00,0.02,30.01,M,0.75,M,FEW,OVC,M,M,100.00,700.00,M,M,-SN BR,KLEB 010115Z AUTO 02003KT 1SM -SN BR FEW001 OVC007 A3001 RMK P0002 MADISHF
LEB,2017-04-01 01:17,-72.3042,43.6261,33.10,30.90,91.51,20.00,3.00,0.03,30.01,M,0.75,M,FEW,OVC,M,M,100.00,700.00,M,M,-SN BR,KLEB 010117Z 02003KT 3/4SM -SN BR FEW001 OVC007 01/M01 A3001 RMK AO2 P0003 T00061006
LEB,2017-04-01 01:20,-72.3042,43.6261,M,M,M,20.00,3.00,0.03,30.01,M,0.75,M,FEW,OVC,M,M,100.00,700.00,M,M,-SN BR,KLEB 010120Z AUTO 02003KT 1SM -SN BR FEW001 OVC007 A3001 RMK P0003 MADISHF
LEB,2017-04-01 01:25,-72.3042,43.6261,M,M,M,20.00,3.00,0.03,30.01,M,1.00,M,FEW,OVC,M,M,100.00,700.00,M,M,-SN BR,KLEB 010125Z AUTO 02003KT 1SM -SN BR FEW001 OVC007 A3001 RMK P0003 MADISHF
LEB,2017-04-01 01:29,-72.3042,43.6261,32.00,30.90,95.65,30.00,4.00,0.04,30.01,M,1.00,M,FEW,OVC,M,M,100.00,700.00,M,M,-SN BR,KLEB 010129Z 03004KT 1SM -SN BR FEW001 OVC007 00/M01 A3001 RMK AO2 P0004 T00001006
LEB,2017-04-01 01:30,-72.3042,43.6261,M,M,M,20.00,4.00,0.04,30.01,M,1.00,M,FEW,OVC,M,M,100.00,700.00,M,M,-SN BR,KLEB 010130Z AUTO 02004KT 1SM -SN BR FEW001 OVC007 A3001 RMK P0004 MADISHF
LEB,2017-04-01 01:35,-72.3042,43.6261,M,M,M,20.00,4.00,0.04,30.00,M,1.00,M,FEW,OVC,M,M,100.00,700.00,M,M,-SN BR,KLEB 010135Z AUTO 02004KT 1SM -SN BR FEW001 OVC007 A3000 RMK P0004 MADISHF
LEB,2017-04-01 01:40,-72.3042,43.6261,M,M,M,40.00,3.00,0.05,30.00,M,1.25,M,OVC,M,M,M,900.00,M,M,M,-SN BR,KLEB 010140Z AUTO 04003KT 1 1/2SM -SN BR OVC009 A3000 RMK P0005 MADISHF
LEB,2017-04-01 01:45,-72.3042,43.6261,M,M,M,40.00,3.00,0.05,30.00,M,1.25,M,FEW,OVC,M,M,600.00,900.00,M,M,-SN BR,KLEB 010145Z AUTO 04003KT 1 1/2SM -SN BR FEW006 OVC009 A3000 RMK P0005 MADISHF
LEB,2017-04-01 01:50,-72.3042,43.6261,M,M,M,40.00,4.00,0.05,30.00,M,1.25,M,OVC,M,M,M,900.00,M,M,M,-SN BR,KLEB 010150Z AUTO 04004KT 1 1/2SM -SN BR OVC009 A3000 RMK P0005 MADISHF
LEB,2017-04-01 01:53,-72.3042,43.6261,32.00,30.90,95.65,40.00,4.00,0.06,30.00,1016.60,1.25,M,FEW,OVC,M,M,700.00,1100.00,M,M,-SN BR,KLEB 010153Z 04004KT 1 1/4SM -SN BR FEW007 OVC011 00/M01 A3000 RMK AO2 SLP166 P0006 T00001006
LEB,2017-04-01 01:55,-72.3042,43.6261,M,M,M,50.00,3.00,M,30.00,M,1.25,M,OVC,M,M,M,1100.00,M,M,M,-SN BR,KLEB 010155Z AUTO 05003KT 1 1/2SM -SN BR OVC011 A3000 RMK MADISHF
LEB,2017-04-01 02:00,-72.3042,43.6261,M,M,M,40.00,5.00,M,30.00,M,1.00,M,VV ,M,M,M,999.00,M,M,M,-SN BR,KLEB 010200Z AUTO 04005KT 1SM -SN BR VV009 A3000 RMK MADISHF
LEB,2017-04-01 02:05,-72.3042,43.6261,M,M,M,40.00,5.00,M,29.99,M,1.00,M,VV ,M,M,M,999.00,M,M,M,-SN BR,KLEB 010205Z AUTO 04005KT 1SM -SN BR VV009 A2999 RMK MADISHF
LEB,2017-04-01 02:10,-72.3042,43.6261,M,M,M,40.00,5.00,0.01,29.99,M,1.00,M,VV ,M,M,M,999.00,M,M,M,-SN BR,KLEB 010210Z AUTO 04005KT 1SM -SN BR VV009 A2999 RMK P0001 MADISHF
LEB,2017-04-01 02:15,-72.3042,43.6261,M,M,M,40.00,4.00,0.01,29.99,M,1.00,M,VV ,M,M,M,1100.00,M,M,M,-SN BR,KLEB 010215Z AUTO 04004KT 1SM -SN BR VV011 A2999 RMK P0001 MADISHF
LEB,2017-04-01 02:20,-72.3042,43.6261,M,M,M,20.00,4.00,0.02,29.99,M,1.00,M,OVC,M,M,M,999.00,M,M,M,-SN BR,KLEB 010220Z AUTO 02004KT 1SM -SN BR OVC009 A2999 RMK P0002 MADISHF
LEB,2017-04-01 02:25,-72.3042,43.6261,M,M,M,30.00,4.00,0.02,29.98,M,1.00,M,BKN,OVC,M,M,999.00,1400.00,M,M,-SN BR,KLEB 010225Z AUTO 03004KT 1SM -SN BR BKN009 OVC014 A2998 RMK P0002 MADISHF
LEB,2017-04-01 02:30,-72.3042,43.6261,M,M,M,80.00,4.00,0.02,29.98,M,1.25,M,OVC,M,M,M,999.00,M,M,M,-SN BR,KLEB 010230Z AUTO 08004KT 1 1/2SM -SN BR OVC009 A2998 RMK P0002 VRB04KT  MADISHF
LEB,2017-04-01 02:35,-72.3042,43.6261,M,M,M,90.00,5.00,0.03,29.98,M,1.00,M,BKN,OVC,M,M,999.00,1400.00,M,M,-SN BR,KLEB 010235Z AUTO 09005KT 1SM -SN BR BKN009 OVC014 A2998 RMK P0003 VRB05KT  MADISHF
LEB,2017-04-01 02:40,-72.3042,43.6261,M,M,M,50.00,5.00,0.03,29.98,M,1.00,M,VV ,M,M,M,900.00,M,M,M,-SN BR,KLEB 010240Z AUTO 05005KT 1SM -SN BR VV009 A2998 RMK P0003 MADISHF
LEB,2017-04-01 02:45,-72.3042,43.6261,M,M,M,80.00,4.00,0.04,29.98,M,1.00,M,VV ,M,M,M,999.00,M,M,M,-SN BR,KLEB 010245Z AUTO 08004KT 1SM -SN BR VV009 A2998 RMK P0004 VRB04KT  MADISHF
LEB,2017-04-01 02:50,-72.3042,43.6261,M,M,M,110.00,4.00,0.04,29.98,M,1.00,M,VV ,M,M,M,999.00,M,M,M,-SN BR,KLEB 010250Z AUTO 11004KT 1SM -SN BR VV009 A2998 RMK P0004 VRB04KT  MADISHF
LEB,2017-04-01 02:53,-72.3042,43.6261,32.00,28.90,88.17,M,4.00,0.04,29.98,1015.90,1.00,M,VV ,M,M,M,1000.00,M,M,M,-SN BR,KLEB 010253Z VRB04KT 1SM -SN BR VV010 00/M02 A2998 RMK AO2 SLP159 P0004 60019 T00001017 58012
LEB,2017-04-01 02:55,-72.3042,43.6261,M,M,M,90.00,4.00,0.01,29.98,M,1.00,M,VV ,M,M,M,900.00,M,M,M,-SN BR,KLEB 010255Z AUTO 09004KT 1SM -SN BR VV009 A2998 RMK P0001 VRB04KT  MADISHF
LEB,2017-04-01 03:00,-72.3042,43.6261,M,M,M,80.00,3.00,0.01,29.98,M,1.00,M,VV ,M,M,M,900.00,M,M,M,-SN BR,KLEB 010300Z AUTO 08003KT 1SM -SN BR VV009 A2998 RMK P0001 VRB03KT  MADISHF
LEB,2017-04-01 03:05,-72.3042,43.6261,M,M,M,130.00,3.00,0.01,29.98,M,1.25,M,OVC,M,M,M,999.00,M,M,M,-SN BR,KLEB 010305Z AUTO 13003KT 1 1/2SM -SN BR OVC009 A2998 RMK P0001 VRB03KT  MADISHF
LEB,2017-04-01 03:07,-72.3042,43.6261,32.00,28.90,88.17,M,4.00,0.01,29.98,M,1.25,M,OVC,M,M,M,1000.00,M,M,M,-SN BR,KLEB 010307Z VRB04KT 1 1/4SM -SN BR OVC010 00/M02 A2998 RMK AO2 P0001 T00001017
LEB,2017-04-01 03:10,-72.3042,43.6261,M,M,M,120.00,3.00,0.02,29.98,M,1.25,M,OVC,M,M,M,999.00,M,M,M,-SN BR,KLEB 010310Z AUTO 12003KT 1 1/2SM -SN BR OVC009 A2998 RMK P0002 VRB03KT  MADISHF
LEB,2017-04-01 03:15,-72.3042,43.6261,M,M,M,100.00,4.00,0.02,29.98,M,1.00,M,VV ,M,M,M,999.00,M,M,M,-SN BR,KLEB 010315Z AUTO 10004KT 1SM -SN BR VV009 A2998 RMK P0002 VRB04KT  MADISHF
LEB,2017-04-01 03:20,-72.3042,43.6261,M,M,M,0.00,0.00,0.03,29.98,M,1.00,M,VV ,M,M,M,999.00,M,M,M,-SN BR,KLEB 010320Z AUTO 00000KT 1SM -SN BR VV009 A2998 RMK P0003 MADISHF
LEB,2017-04-01 03:25,-72.3042,43.6261,M,M,M,0.00,0.00,0.03,29.97,M,1.50,M,OVC,M,M,M,1100.00,M,M,M,-SN BR,KLEB 010325Z AUTO 00000KT 1 1/2SM -SN BR OVC011 A2997 RMK P0003 MADISHF
LEB,2017-04-01 03:30,-72.3042,43.6261,M,M,M,0.00,0.00,0.03,29.97,M,1.50,M,OVC,M,M,M,1300.00,M,M,M,-SN BR,KLEB 010330Z AUTO 00000KT 1 1/2SM -SN BR OVC013 A2997 RMK P0003 MADISHF
LEB,2017-04-01 03:35,-72.3042,43.6261,M,M,M,0.00,0.00,0.03,29.97,M,1.50,M,OVC,M,M,M,1300.00,M,M,M,-SN BR,KLEB 010335Z AUTO 00000KT 1 1/2SM -SN BR OVC013 A2997 RMK P0003 MADISHF
LEB,2017-04-01 03:40,-72.3042,43.6261,M,M,M,360.00,3.00,0.04,29.97,M,1.50,M,OVC,M,M,M,1300.00,M,M,M,-SN BR,KLEB 010340Z AUTO 36003KT 1 1/2SM -SN BR OVC013 A2997 RMK P0004 MADISHF
LEB,2017-04-01 03:45,-72.3042,43.6261,M,M,M,50.00,3.00,0.04,29.97,M,1.50,M,OVC,M,M,M,1500.00,M,M,M,-SN BR,KLEB 010345Z AUTO 05003KT 1 1/2SM -SN BR OVC015 A2997 RMK P0004 VRB03KT  MADISHF
LEB,2017-04-01 03:50,-72.3042,43.6261,M,M,M,0.00,0.00,0.04,29.97,M,1.50,M,OVC,M,M,M,1300.00,M,M,M,-SN BR,KLEB 010350Z AUTO 00000KT 1 1/2SM -SN BR OVC013 A2997 RMK P0004 MADISHF
LEB,2017-04-01 03:53,-72.3042,43.6261,32.00,30.00,92.22,0.00,0.00,0.04,29.96,1015.40,1.25,M,OVC,M,M,M,1300.00,M,M,M,-SN BR,KLEB 010353Z 00000KT 1 1/4SM -SN BR OVC013 00/M01 A2996 RMK AO2 SLP154 P0004 T00001011
LEB,2017-04-01 03:55,-72.3042,43.6261,M,M,M,0.00,0.00,0.01,29.96,M,1.25,M,OVC,M,M,M,1300.00,M,M,M,-SN BR,KLEB 010355Z AUTO 00000KT 1 1/2SM -SN BR OVC013 A2996 RMK P0001 MADISHF
LEB,2017-04-01 04:00,-72.3042,43.6261,M,M,M,30.00,3.00,0.01,29.96,M,1.00,M,VV ,M,M,M,1200.00,M,M,M,-SN BR,KLEB 010400Z AUTO 03003KT 1SM -SN BR VV012 A2996 RMK P0001 MADISHF
LEB,2017-04-01 04:05,-72.3042,43.6261,M,M,M,50.00,3.00,0.02,29.96,M,1.00,M,VV ,M,M,M,1100.00,M,M,M,-SN BR,KLEB 010405Z AUTO 05003KT 1SM -SN BR VV011 A2996 RMK P0002 VRB03KT  MADISHF
LEB,2017-04-01 04:10,-72.3042,43.6261,M,M,M,0.00,0.00,0.02,29.95,M,1.00,M,VV ,M,M,M,1100.00,M,M,M,-SN BR,KLEB 010410Z AUTO 00000KT 1SM -SN BR VV011 A2995 RMK P0002 MADISHF
LEB,2017-04-01 04:15,-72.3042,43.6261,M,M,M,0.00,0.00,0.02,29.95,M,1.00,M,VV ,M,M,M,1200.00,M,M,M,-SN BR,KLEB 010415Z AUTO 00000KT 1SM -SN BR VV012 A2995 RMK P0002 MADISHF
LEB,2017-04-01 04:20,-72.3042,43.6261,M,M,M,40.00,4.00,0.03,29.95,M,1.25,M,OVC,M,M,M,1200.00,M,M,M,-SN BR,KLEB 010420Z AUTO 04004KT 1 1/2SM -SN BR OVC012 A2995 RMK P0003 VRB04KT  MADISHF
LEB,2017-04-01 04:25,-72.3042,43.6261,M,M,M,0.00,0.00,0.03,29.95,M,1.25,M,OVC,M,M,M,1200.00,M,M,M,-SN BR,KLEB 010425Z AUTO 00000KT 1 1/2SM -SN BR OVC012 A2995 RMK P0003 MADISHF
LEB,2017-04-01 04:30,-72.3042,43.6261,M,M,M,360.00,3.00,0.04,29.94,M,1.00,M,VV ,M,M,M,1100.00,M,M,M,-SN BR,KLEB 010430Z AUTO 36003KT 1SM -SN BR VV011 A2994 RMK P0004 MADISHF
LEB,2017-04-01 04:35,-72.3042,43.6261,M,M,M,0.00,0.00,0.04,29.94,M,1.00,M,VV ,M,M,M,999.00,M,M,M,-SN BR,KLEB 010435Z AUTO 00000KT 1SM -SN BR VV009 A2994 RMK P0004 MADISHF
LEB,2017-04-01 04:38,-72.3042,43.6261,32.00,30.00,92.22,0.00,0.00,0.05,29.94,M,0.75,M,VV ,M,M,M,900.00,M,M,M,-SN BR,KLEB 010438Z 00000KT 3/4SM -SN BR VV009 00/M01 A2994 RMK AO2 P0005 T00001011
LEB,2017-04-01 04:40,-72.3042,43.6261,M,M,M,0.00,0.00,0.05,29.94,M,0.75,M,VV ,M,M,M,900.00,M,M,M,-SN BR,KLEB 010440Z AUTO 00000KT 1SM -SN BR VV009 A2994 RMK P0005 MADISHF
LEB,2017-04-01 04:45,-72.3042,43.6261,M,M,M,0.00,0.00,0.06,29.94,M,0.75,M,VV ,M,M,M,700.00,M,M,M,-SN BR,KLEB 010445Z AUTO 00000KT 1SM -SN BR VV007 A2994 RMK P0006 MADISHF
LEB,2017-04-01 04:50,-72.3042,43.6261,M,M,M,350.00,3.00,0.06,29.94,M,0.75,M,VV ,M,M,M,600.00,M,M,M,-SN BR,KLEB 010450Z AUTO 35003KT 1SM -SN BR VV006 A2994 RMK P0006 VRB03KT  MADISHF
LEB,2017-04-01 04:53,-72.3042,43.6261,32.00,30.00,92.22,0.00,0.00,0.07,29.94,1014.60,0.75,M,VV ,M,M,M,500.00,M,M,M,-SN BR,KLEB 010453Z 00000KT 3/4SM -SN BR VV005 00/M01 A2994 RMK AO2 SLP146 P0007 T00001011 400280000
LEB,2017-04-01 04:55,-72.3042,43.6261,M,M,M,0.00,0.00,M,29.94,M,0.75,M,VV ,M,M,M,499.00,M,M,M,-SN BR,KLEB 010455Z AUTO 00000KT 1SM -SN BR VV004 A2994 RMK MADISHF
LEB,2017-04-01 05:00,-72.3042,43.6261,M,M,M,280.00,3.00,M,29.94,M,0.75,M,VV ,M,M,M,600.00,M,M,M,-SN BR,KLEB 010500Z AUTO 28003KT 1SM -SN BR VV006 A2994 RMK MADISHF
LEB,2017-04-01 05:05,-72.3042,43.6261,M,M,M,0.00,0.00,0.01,29.94,M,0.75,M,VV ,M,M,M,600.00,M,M,M,-SN BR,KLEB 010505Z AUTO 00000KT 1SM -SN BR VV006 A2994 RMK P0001 MADISHF
LEB,2017-04-01 05:10,-72.3042,43.6261,M,M,M,0.00,0.00,0.01,29.94,M,0.75,M,VV ,M,M,M,600.00,M,M,M,-SN BR,KLEB 010510Z AUTO 00000KT 1SM -SN BR VV006 A2994 RMK P0001 MADISHF
LEB,2017-04-01 05:15,-72.3042,43.6261,M,M,M,280.00,3.00,0.02,29.94,M,0.75,M,VV ,M,M,M,600.00,M,M,M,-SN BR,KLEB 010515Z AUTO 28003KT 1SM -SN BR VV006 A2994 RMK P0002 MADISHF
LEB,2017-04-01 05:20,-72.3042,43.6261,M,M,M,0.00,0.00,0.02,29.93,M,0.75,M,VV ,M,M,M,600.00,M,M,M,-SN BR,KLEB 010520Z AUTO 00000KT 1SM -SN BR VV006 A2993 RMK P0002 MADISHF
LEB,2017-04-01 05:25,-72.3042,43.6261,M,M,M,0.00,0.00,0.03,29.93,M,1.00,M,VV ,M,M,M,700.00,M,M,M,-SN BR,KLEB 010525Z AUTO 00000KT 1SM -SN BR VV007 A2993 RMK P0003 MADISHF
LEB,2017-04-01 05:29,-72.3042,43.6261,32.00,30.00,92.22,0.00,0.00,0.03,29.93,M,1.00,M,VV ,M,M,M,800.00,M,M,M,-SN BR,KLEB 010529Z 00000KT 1SM -SN BR VV008 00/M01 A2993 RMK AO2 P0003 T00001011
LEB,2017-04-01 05:30,-72.3042,43.6261,M,M,M,320.00,3.00,0.03,29.93,M,1.00,M,VV ,M,M,M,800.00,M,M,M,-SN BR,KLEB 010530Z AUTO 32003KT 1SM -SN BR VV008 A2993 RMK P0003 MADISHF
LEB,2017-04-01 05:35,-72.3042,43.6261,M,M,M,330.00,3.00,0.04,29.92,M,1.00,M,BKN,OVC,M,M,800.00,1500.00,M,M,-SN BR,KLEB 010535Z AUTO 33003KT 1SM -SN BR BKN008 OVC015 A2992 RMK P0004 MADISHF
LEB,2017-04-01 05:40,-72.3042,43.6261,M,M,M,330.00,3.00,0.04,29.92,M,1.00,M,VV ,M,M,M,900.00,M,M,M,-SN BR,KLEB 010540Z AUTO 33003KT 1SM -SN BR VV009 A2992 RMK P0004 MADISHF
LEB,2017-04-01 05:45,-72.3042,43.6261,M,M,M,330.00,5.00,0.04,29.92,M,1.00,M,VV ,M,M,M,900.00,M,M,M,-SN BR,KLEB 010545Z AUTO 33005KT 1SM -SN BR VV009 A2992 RMK P0004 MADISHF
LEB,2017-04-01 05:50,-72.3042,43.6261,M,M,M,330.00,3.00,0.05,29.92,M,1.00,M,FEW,OVC,M,M,600.00,999.00,M,M,-SN BR,KLEB 010550Z AUTO 33003KT 1SM -SN BR FEW006 OVC009 A2992 RMK P0005 MADISHF
LEB,2017-04-01 05:53,-72.3042,43.6261,32.00,30.00,92.22,330.00,4.00,0.05,29.92,1013.80,1.00,M,FEW,OVC,M,M,600.00,1000.00,M,M,-SN BR,KLEB 010553Z 33004KT 1SM -SN BR FEW006 OVC010 00/M01 A2992 RMK AO2 SLP138 P0005 60035 T00001011 10006 21006 55017
LEB,2017-04-01 05:55,-72.3042,43.6261,M,M,M,320.00,4.00,M,29.91,M,1.00,M,FEW,OVC,M,M,600.00,999.00,M,M,-SN BR,KLEB 010555Z AUTO 32004KT 1SM -SN BR FEW006 OVC009 A2991 RMK MADISHF
LEB,2017-04-01 06:00,-72.3042,43.6261,M,M,M,310.00,4.00,0.01,29.91,M,1.00,M,FEW,OVC,M,M,499.00,999.00,M,M,-SN BR,KLEB 010600Z AUTO 31004KT 1SM -SN BR FEW004 OVC009 A2991 RMK P0001 MADISHF
LEB,2017-04-01 06:05,-72.3042,43.6261,M,M,M,320.00,4.00,0.01,29.91,M,1.00,M,FEW,OVC,M,M,499.00,999.00,M,M,-SN BR,KLEB 010605Z AUTO 32004KT 1SM -SN BR FEW004 OVC009 A2991 RMK P0001 MADISHF
LEB,2017-04-01 06:10,-72.3042,43.6261,M,M,M,310.00,4.00,0.02,29.91,M,1.00,M,FEW,OVC,M,M,499.00,900.00,M,M,-SN BR,KLEB 010610Z AUTO 31004KT 1SM -SN BR FEW004 OVC009 A2991 RMK P0002 MADISHF
LEB,2017-04-01 06:15,-72.3042,43.6261,32.00,30.90,95.65,300.00,4.00,0.02,29.91,M,1.00,M,FEW,OVC,M,M,500.00,900.00,M,M,-SN BR,KLEB 010615Z 30004KT 1SM -SN BR FEW005 OVC009 00/M01 A2991 RMK AO2 P0002 T00001006
LEB,2017-04-01 06:20,-72.3042,43.6261,M,M,M,310.00,4.00,0.03,29.91,M,1.25,M,FEW,BKN,OVC,M,499.00,900.00,1500.00,M,-SN BR,KLEB 010620Z AUTO 31004KT 1 1/2SM -SN BR FEW004 BKN009 OVC015 A2991 RMK P0003 MADISHF
LEB,2017-04-01 06:25,-72.3042,43.6261,M,M,M,310.00,5.00,0.03,29.91,M,1.25,M,FEW,BKN,OVC,M,499.00,999.00,1500.00,M,-SN BR,KLEB 010625Z AUTO 31005KT 1 1/2SM -SN BR FEW004 BKN009 OVC015 A2991 RMK P0003 MADISHF
LEB,2017-04-01 06:28,-72.3042,43.6261,32.00,30.90,95.65,310.00,4.00,0.03,29.91,M,1.25,M,FEW,BKN,OVC,M,500.00,1000.00,1500.00,M,-SN BR,KLEB 010628Z 31004KT 1 1/4SM -SN BR FEW005 BKN010 OVC015 00/M01 A2991 RMK AO2 P0003 T00001006
LEB,2017-04-01 06:30,-72.3042,43.6261,M,M,M,310.00,3.00,0.04,29.91,M,1.25,M,BKN,OVC,M,M,999.00,1500.00,M,M,-SN BR,KLEB 010630Z AUTO 31003KT 1 1/2SM -SN BR BKN009 OVC015 A2991 RMK P0004 MADISHF
LEB,2017-04-01 06:35,-72.3042,43.6261,M,M,M,300.00,4.00,0.04,29.90,M,1.25,M,FEW,BKN,OVC,M,499.00,999.00,1800.00,M,-SN BR,KLEB 010635Z AUTO 30004KT 1 1/2SM -SN BR FEW004 BKN009 OVC018 A2990 RMK P0004 MADISHF
LEB,2017-04-01 06:40,-72.3042,43.6261,M,M,M,300.00,4.00,0.04,29.90,M,1.25,M,FEW,OVC,M,M,600.00,1200.00,M,M,-SN BR,KLEB 010640Z AUTO 30004KT 1 1/2SM -SN BR FEW006 OVC012 A2990 RMK P0004 MADISHF
LEB,2017-04-01 06:45,-72.3042,43.6261,M,M,M,310.00,4.00,0.05,29.90,M,1.00,M,FEW,OVC,M,M,400.00,999.00,M,M,-SN BR,KLEB 010645Z AUTO 31004KT 1SM -SN BR FEW004 OVC009 A2990 RMK P0005 MADISHF
LEB,2017-04-01 06:50,-72.3042,43.6261,M,M,M,320.00,4.00,0.05,29.90,M,1.00,M,BKN,OVC,M,M,700.00,1200.00,M,M,-SN BR,KLEB 010650Z AUTO 32004KT 1SM -SN BR BKN007 OVC012 A2990 RMK P0005 MADISHF
LEB,2017-04-01 06:53,-72.3042,43.6261,32.00,30.90,95.65,M,4.00,0.05,29.90,1013.30,1.25,M,BKN,OVC,M,M,700.00,1200.00,M,M,-SN BR,KLEB 010653Z VRB04KT 1 1/4SM -SN BR BKN007 OVC012 00/M01 A2990 RMK AO2 SLP133 P0005 T00001006
LEB,2017-04-01 06:55,-72.3042,43.6261,M,M,M,10.00,4.00,M,29.90,M,1.25,M,BKN,OVC,M,M,700.00,1200.00,M,M,-SN BR,KLEB 010655Z AUTO 01004KT 1 1/2SM -SN BR BKN007 OVC012 A2990 RMK VRB04KT  MADISHF
LEB,2017-04-01 07:00,-72.3042,43.6261,M,M,M,0.00,0.00,0.01,29.90,M,1.00,M,BKN,OVC,M,M,700.00,1100.00,M,M,-SN BR,KLEB 010700Z AUTO 00000KT 1SM -SN BR BKN007 OVC011 A2990 RMK P0001 MADISHF
LEB,2017-04-01 07:05,-72.3042,43.6261,M,M,M,0.00,0.00,0.02,29.90,M,1.00,M,BKN,OVC,M,M,700.00,1100.00,M,M,-SN BR,KLEB 010705Z AUTO 00000KT 1SM -SN BR BKN007 OVC011 A2990 RMK P0002 MADISHF
LEB,2017-04-01 07:10,-72.3042,43.6261,M,M,M,0.00,0.00,0.02,29.90,M,0.75,M,BKN,OVC,M,M,499.00,999.00,M,M,-SN BR,KLEB 010710Z AUTO 00000KT 1SM -SN BR BKN004 OVC009 A2990 RMK P0002 MADISHF
LEB,2017-04-01 07:13,-72.3042,43.6261,32.00,30.90,95.65,290.00,4.00,0.03,29.90,M,0.75,M,BKN,OVC,M,M,500.00,1000.00,M,M,-SN BR,KLEB 010713Z 29004KT 3/4SM -SN BR BKN005 OVC010 00/M01 A2990 RMK AO2 P0003 T00001006
LEB,2017-04-01 07:15,-72.3042,43.6261,M,M,M,300.00,3.00,0.03,29.90,M,0.75,M,VV ,M,M,M,499.00,M,M,M,-SN BR,KLEB 010715Z AUTO 30003KT 1SM -SN BR VV004 A2990 RMK P0003 MADISHF
LEB,2017-04-01 07:20,-72.3042,43.6261,M,M,M,0.00,0.00,0.04,29.90,M,0.75,M,VV ,M,M,M,499.00,M,M,M,-SN BR,KLEB 010720Z AUTO 00000KT 1SM -SN BR VV004 A2990 RMK P0004 MADISHF
LEB,2017-04-01 07:25,-72.3042,43.6261,M,M,M,0.00,0.00,0.04,29.90,M,0.75,M,VV ,M,M,M,499.00,M,M,M,-SN BR,KLEB 010725Z AUTO 00000KT 1SM -SN BR VV004 A2990 RMK P0004 MADISHF
LEB,2017-04-01 07:30,-72.3042,43.6261,M,M,M,330.00,3.00,0.05,29.89,M,0.75,M,VV ,M,M,M,400.00,M,M,M,-SN BR,KLEB 010730Z AUTO 33003KT 1SM -SN BR VV004 A2989 RMK P0005 MADISHF
LEB,2017-04-01 07:35,-72.3042,43.6261,M,M,M,310.00,4.00,0.05,29.89,M,0.75,M,VV ,M,M,M,400.00,M,M,M,-SN BR,KLEB 010735Z AUTO 31004KT 1SM -SN BR VV004 A2989 RMK P0005 MADISHF
LEB,2017-04-01 07:36,-72.3042,43.6261,32.00,30.90,95.65,310.00,3.00,0.05,29.89,M,0.75,M,BKN,OVC,M,M,400.00,800.00,M,M,-SN BR,KLEB 010736Z 31003KT 3/4SM -SN BR BKN004 OVC008 00/M01 A2989 RMK AO2 P0005 T00001006
LEB,2017-04-01 07:40,-72.3042,43.6261,M,M,M,330.00,4.00,0.06,29.89,M,1.00,M,BKN,OVC,M,M,600.00,999.00,M,M,-SN BR,KLEB 010740Z AUTO 33004KT 1SM -SN BR BKN006 OVC009 A2989 RMK P0006 MADISHF
LEB,2017-04-01 07:43,-72.3042,43.6261,32.00,30.90,95.65,320.00,4.00,0.06,29.89,M,1.00,M,FEW,BKN,OVC,M,200.00,600.00,1200.00,M,-SN BR,KLEB 010743Z 32004KT 1SM -SN BR FEW002 BKN006 OVC012 00/M01 A2989 RMK AO2 P0006 T00001006
LEB,2017-04-01 07:45,-72.3042,43.6261,M,M,M,340.00,4.00,0.06,29.89,M,1.00,M,FEW,BKN,OVC,M,200.00,600.00,1200.00,M,-SN BR,KLEB 010745Z AUTO 34004KT 1SM -SN BR FEW002 BKN006 OVC012 A2989 RMK P0006 MADISHF
LEB,2017-04-01 07:50,-72.3042,43.6261,M,M,M,50.00,3.00,0.07,29.89,M,1.25,M,SCT,BKN,OVC,M,200.00,600.00,1200.00,M,-SN BR,KLEB 010750Z AUTO 05003KT 1 1/2SM -SN BR SCT002 BKN006 OVC012 A2989 RMK P0007 VRB03KT  MADISHF
LEB,2017-04-01 07:53,-72.3042,43.6261,32.00,30.90,95.65,300.00,3.00,0.07,29.89,1013.00,1.25,M,SCT,BKN,OVC,M,200.00,600.00,1200.00,M,-SN BR,KLEB 010753Z 30003KT 1 1/4SM -SN BR SCT002 BKN006 OVC012 00/M01 A2989 RMK AO2 SLP130 P0007 T00001006
LEB,2017-04-01 07:55,-72.3042,43.6261,M,M,M,290.00,5.00,M,29.89,M,1.25,M,SCT,BKN,OVC,M,200.00,600.00,1200.00,M,-SN BR,KLEB 010755Z AUTO 29005KT 1 1/2SM -SN BR SCT002 BKN006 OVC012 A2989 RMK MADISHF
LEB,2017-04-01 08:00,-72.3042,43.6261,M,M,M,0.00,0.00,0.01,29.89,M,1.00,M,BKN,OVC,M,M,400.00,999.00,M,M,-SN BR,KLEB 010800Z AUTO 00000KT 1SM -SN BR BKN004 OVC009 A2989 RMK P0001 MADISHF
LEB,2017-04-01 08:05,-72.3042,43.6261,32.00,30.90,95.65,0.00,0.00,0.01,29.89,M,1.00,M,BKN,OVC,M,M,400.00,1000.00,M,M,-SN BR,KLEB 010805Z 00000KT 1SM -SN BR BKN004 OVC010 00/M01 A2989 RMK AO2 P0001 T00001006
LEB,2017-04-01 08:10,-72.3042,43.6261,M,M,M,0.00,0.00,0.02,29.89,M,1.25,M,BKN,OVC,M,M,400.00,999.00,M,M,-SN BR,KLEB 010810Z AUTO 00000KT 1 1/2SM -SN BR BKN004 OVC009 A2989 RMK P0002 MADISHF
LEB,2017-04-01 08:15,-72.3042,43.6261,M,M,M,290.00,3.00,0.02,29.89,M,1.00,M,SCT,OVC,M,M,400.00,999.00,M,M,-SN BR,KLEB 010815Z AUTO 29003KT 1SM -SN BR SCT004 OVC009 A2989 RMK P0002 MADISHF
LEB,2017-04-01 08:20,-72.3042,43.6261,M,M,M,310.00,3.00,0.03,29.89,M,1.00,M,FEW,OVC,M,M,300.00,999.00,M,M,-SN BR,KLEB 010820Z AUTO 31003KT 1SM -SN BR FEW003 OVC009 A2989 RMK P0003 MADISHF
LEB,2017-04-01 08:21,-72.3042,43.6261,32.00,30.90,95.65,310.00,3.00,0.03,29.89,M,1.00,M,SCT,OVC,M,M,300.00,1000.00,M,M,-SN BR,KLEB 010821Z 31003KT 1SM -SN BR SCT003 OVC010 00/M01 A2989 RMK AO2 P0003 T00001006
LEB,2017-04-01 08:25,-72.3042,43.6261,M,M,M,300.00,4.00,0.03,29.89,M,1.00,M,SCT,OVC,M,M,300.00,999.00,M,M,-SN BR,KLEB 010825Z AUTO 30004KT 1SM -SN BR SCT003 OVC009 A2989 RMK P0003 MADISHF
LEB,2017-04-01 08:30,-72.3042,43.6261,M,M,M,310.00,3.00,0.04,29.89,M,1.25,M,FEW,OVC,M,M,300.00,999.00,M,M,-SN BR,KLEB 010830Z AUTO 31003KT 1 1/2SM -SN BR FEW003 OVC009 A2989 RMK P0004 MADISHF
LEB,2017-04-01 08:35,-72.3042,43.6261,M,M,M,310.00,3.00,0.04,29.89,M,1.25,M,FEW,OVC,M,M,300.00,999.00,M,M,-SN BR,KLEB 010835Z AUTO 31003KT 1 1/2SM -SN BR FEW003 OVC009 A2989 RMK P0004 MADISHF
LEB,2017-04-01 08:40,-72.3042,43.6261,M,M,M,320.00,4.00,0.05,29.89,M,1.00,M,BKN,OVC,M,M,999.00,1400.00,M,M,-SN BR,KLEB 010840Z AUTO 32004KT 1SM -SN BR BKN009 OVC014 A2989 RMK P0005 MADISHF
LEB,2017-04-01 08:45,-72.3042,43.6261,M,M,M,310.00,4.00,0.05,29.89,M,1.00,M,OVC,M,M,M,999.00,M,M,M,-SN BR,KLEB 010845Z AUTO 31004KT 1SM -SN BR OVC009 A2989 RMK P0005 MADISHF
LEB,2017-04-01 08:50,-72.3042,43.6261,M,M,M,330.00,3.00,0.06,29.89,M,1.00,M,BKN,OVC,M,M,999.00,1400.00,M,M,-SN BR,KLEB 010850Z AUTO 33003KT 1SM -SN BR BKN009 OVC014 A2989 RMK P0006 MADISHF
LEB,2017-04-01 08:53,-72.3042,43.6261,32.00,30.90,95.65,0.00,0.00,0.06,29.90,1013.10,1.25,M,OVC,M,M,M,1000.00,M,M,M,-SN BR,KLEB 010853Z 00000KT 1 1/4SM -SN BR OVC010 00/M01 A2990 RMK AO2 SLP131 P0006 60018 T00001006 55007
LEB,2017-04-01 08:55,-72.3042,43.6261,M,M,M,0.00,0.00,M,29.90,M,1.00,M,BKN,OVC,M,M,999.00,1400.00,M,M,-SN BR,KLEB 010855Z AUTO 00000KT 1SM -SN BR BKN009 OVC014 A2990 RMK MADISHF
LEB,2017-04-01 09:00,-72.3042,43.6261,M,M,M,10.00,3.00,0.01,29.89,M,1.00,M,VV ,M,M,M,999.00,M,M,M,-SN BR,KLEB 010900Z AUTO 01003KT 1SM -SN BR VV009 A2989 RMK P0001 MADISHF
LEB,2017-04-01 09:04,-72.3042,43.6261,32.00,30.90,95.65,0.00,0.00,0.02,29.89,M,1.00,M,FEW,OVC,M,M,300.00,800.00,M,M,-SN BR,KLEB 010904Z 00000KT 1SM -SN BR FEW003 OVC008 00/M01 A2989 RMK AO2 P0002 T00001006
LEB,2017-04-01 09:05,-72.3042,43.6261,M,M,M,0.00,0.00,0.02,29.90,M,1.00,M,FEW,OVC,M,M,300.00,800.00,M,M,-SN BR,KLEB 010905Z AUTO 00000KT 1SM -SN BR FEW003 OVC008 A2990 RMK P0002 MADISHF
LEB,2017-04-01 09:10,-72.3042,43.6261,M,M,M,0.00,0.00,0.02,29.90,M,1.00,M,FEW,OVC,M,M,300.00,800.00,M,M,-SN BR,KLEB 010910Z AUTO 00000KT 1SM -SN BR FEW003 OVC008 A2990 RMK P0002 MADISHF
LEB,2017-04-01 09:15,-72.3042,43.6261,M,M,M,360.00,3.00,0.03,29.89,M,1.00,M,SCT,OVC,M,M,100.00,600.00,M,M,-SN BR,KLEB 010915Z AUTO 36003KT 1SM -SN BR SCT001 OVC006 A2989 RMK P0003 MADISHF
LEB,2017-04-01 09:20,-72.3042,43.6261,M,M,M,0.00,0.00,0.03,29.89,M,1.25,M,SCT,OVC,M,M,100.00,600.00,M,M,-SN BR,KLEB 010920Z AUTO 00000KT 1 1/2SM -SN BR SCT001 OVC006 A2989 RMK P0003 MADISHF
LEB,2017-04-01 09:25,-72.3042,43.6261,M,M,M,0.00,0.00,0.04,29.89,M,1.25,M,OVC,M,M,M,300.00,M,M,M,-SN BR,KLEB 010925Z AUTO 00000KT 1 1/2SM -SN BR OVC003 A2989 RMK P0004 MADISHF
LEB,2017-04-01 09:30,-72.3042,43.6261,M,M,M,360.00,3.00,0.04,29.89,M,1.00,M,VV ,M,M,M,200.00,M,M,M,-SN BR,KLEB 010930Z AUTO 36003KT 1SM -SN BR VV002 A2989 RMK P0004 MADISHF
LEB,2017-04-01 09:31,-72.3042,43.6261,32.00,32.00,100.00,10.00,3.00,0.04,29.89,M,1.00,M,VV ,M,M,M,200.00,M,M,M,-SN BR,KLEB 010931Z 01003KT 1SM -SN BR VV002 00/00 A2989 RMK AO2 P0004 T00000000
LEB,2017-04-01 09:35,-72.3042,43.6261,M,M,M,10.00,3.00,0.05,29.89,M,1.00,M,OVC,M,M,M,200.00,M,M,M,-SN BR,KLEB 010935Z AUTO 01003KT 1SM -SN BR OVC002 A2989 RMK P0005 MADISHF
LEB,2017-04-01 09:40,-72.3042,43.6261,M,M,M,340.00,3.00,0.05,29.89,M,1.00,M,OVC,M,M,M,200.00,M,M,M,-SN BR,KLEB 010940Z AUTO 34003KT 1SM -SN BR OVC002 A2989 RMK P0005 MADISHF
LEB,2017-04-01 09:45,-72.3042,43.6261,M,M,M,330.00,5.00,0.06,29.89,M,1.25,M,OVC,M,M,M,200.00,M,M,M,-SN BR,KLEB 010945Z AUTO 33005KT 1 1/2SM -SN BR OVC002 A2989 RMK P0006 MADISHF
LEB,2017-04-01 09:50,-72.3042,43.6261,M,M,M,340.00,5.00,0.06,29.89,M,1.50,M,BKN,OVC,M,M,200.00,700.00,M,M,-SN BR,KLEB 010950Z AUTO 34005KT 1 1/2SM -SN BR BKN002 OVC007 A2989 RMK P0006 MADISHF
LEB,2017-04-01 09:53,-72.3042,43.6261,32.00,30.90,95.65,340.00,5.00,0.07,29.89,1013.00,1.25,M,BKN,OVC,M,M,200.00,1000.00,M,M,-SN BR,KLEB 010953Z 34005KT 1 1/4SM -SN BR BKN002 OVC010 00/M01 A2989 RMK AO2 SLP130 P0007 T00001006
LEB,2017-04-01 09:55,-72.3042,43.6261,M,M,M,350.00,4.00,M,29.89,M,1.25,M,BKN,OVC,M,M,200.00,700.00,M,M,-SN BR,KLEB 010955Z AUTO 35004KT 1 1/2SM -SN BR BKN002 OVC007 A2989 RMK MADISHF
LEB,2017-04-01 10:00,-72.3042,43.6261,M,M,M,340.00,5.00,M,29.89,M,1.25,M,SCT,BKN,OVC,M,200.00,499.00,900.00,M,-SN BR,KLEB 011000Z AUTO 34005KT 1 1/2SM -SN BR SCT002 BKN004 OVC009 A2989 RMK MADISHF
LEB,2017-04-01 10:03,-72.3042,43.6261,32.00,30.90,95.65,350.00,4.00,0.01,29.89,M,1.50,M,SCT,BKN,OVC,M,200.00,500.00,900.00,M,-SN BR,KLEB 011003Z 35004KT 1 1/2SM -SN BR SCT002 BKN005 OVC009 00/M01 A2989 RMK AO2 P0001 T00001006
LEB,2017-04-01 10:05,-72.3042,43.6261,M,M,M,340.00,4.00,0.01,29.89,M,1.50,M,SCT,BKN,OVC,M,200.00,499.00,900.00,M,-SN BR,KLEB 011005Z AUTO 34004KT 1 1/2SM -SN BR SCT002 BKN004 OVC009 A2989 RMK P0001 MADISHF
LEB,2017-04-01 10:10,-72.3042,43.6261,M,M,M,330.00,4.00,0.01,29.90,M,1.50,M,BKN,OVC,M,M,100.00,700.00,M,M,-SN BR,KLEB 011010Z AUTO 33004KT 1 1/2SM -SN BR BKN001 OVC007 A2990 RMK P0001 MADISHF
LEB,2017-04-01 10:12,-72.3042,43.6261,32.00,30.90,95.65,320.00,5.00,0.01,29.90,M,1.25,M,BKN,OVC,M,M,100.00,700.00,M,M,-SN BR,KLEB 011012Z 32005KT 1 1/4SM -SN BR BKN001 OVC007 00/M01 A2990 RMK AO2 P0001 T00001006
LEB,2017-04-01 10:15,-72.3042,43.6261,M,M,M,340.00,5.00,0.02,29.90,M,1.25,M,BKN,OVC,M,M,100.00,700.00,M,M,-SN BR,KLEB 011015Z AUTO 34005KT 1 1/2SM -SN BR BKN001 OVC007 A2990 RMK P0002 MADISHF
LEB,2017-04-01 10:20,-72.3042,43.6261,M,M,M,350.00,3.00,0.02,29.90,M,1.50,M,BKN,OVC,M,M,100.00,700.00,M,M,-SN BR,KLEB 011020Z AUTO 35003KT 1 1/2SM -SN BR BKN001 OVC007 A2990 RMK P0002 MADISHF
LEB,2017-04-01 10:25,-72.3042,43.6261,M,M,M,350.00,4.00,0.02,29.90,M,1.75,M,BKN,OVC,M,M,100.00,700.00,M,M,-SN BR,KLEB 011025Z AUTO 35004KT 2SM -SN BR BKN001 OVC007 A2990 RMK P0002 MADISHF
LEB,2017-04-01 10:30,-72.3042,43.6261,M,M,M,350.00,4.00,0.02,29.90,M,1.75,M,BKN,OVC,M,M,100.00,700.00,M,M,-SN BR,KLEB 011030Z AUTO 35004KT 2SM -SN BR BKN001 OVC007 A2990 RMK P0002 MADISHF
LEB,2017-04-01 10:35,-72.3042,43.6261,M,M,M,340.00,4.00,0.03,29.90,M,1.75,M,OVC,M,M,M,100.00,M,M,M,-SN BR,KLEB 011035Z AUTO 34004KT 2SM -SN BR OVC001 A2990 RMK P0003 MADISHF
LEB,2017-04-01 10:40,-72.3042,43.6261,M,M,M,0.00,0.00,0.03,29.90,M,1.50,M,OVC,M,M,M,100.00,M,M,M,-SN BR,KLEB 011040Z AUTO 00000KT 1 1/2SM -SN BR OVC001 A2990 RMK P0003 MADISHF
LEB,2017-04-01 10:45,-72.3042,43.6261,M,M,M,320.00,3.00,0.03,29.90,M,1.50,M,OVC,M,M,M,100.00,M,M,M,-SN BR,KLEB 011045Z AUTO 32003KT 1 1/2SM -SN BR OVC001 A2990 RMK P0003 MADISHF
LEB,2017-04-01 10:50,-72.3042,43.6261,M,M,M,330.00,4.00,0.03,29.90,M,1.50,M,OVC,M,M,M,100.00,M,M,M,-SN BR,KLEB 011050Z AUTO 33004KT 1 1/2SM -SN BR OVC001 A2990 RMK P0003 MADISHF
LEB,2017-04-01 10:53,-72.3042,43.6261,32.00,30.90,95.65,360.00,4.00,0.04,29.90,1013.40,1.50,M,OVC,M,M,M,100.00,M,M,M,-SN BR,KLEB 011053Z 36004KT 1 1/2SM -SN BR OVC001 00/M01 A2990 RMK AO2 SLP134 P0004 T00001006
LEB,2017-04-01 10:55,-72.3042,43.6261,M,M,M,350.00,3.00,M,29.91,M,1.25,M,OVC,M,M,M,100.00,M,M,M,-SN BR,KLEB 011055Z AUTO 35003KT 1 1/2SM -SN BR OVC001 A2991 RMK MADISHF
LEB,2017-04-01 11:00,-72.3042,43.6261,M,M,M,340.00,4.00,0.01,29.91,M,0.50,M,OVC,M,M,M,100.00,M,M,M,SN FG,KLEB 011100Z AUTO 34004KT 1/2SM SN FG OVC001 A2991 RMK P0001 MADISHF
LEB,2017-04-01 11:03,-72.3042,43.6261,32.00,30.90,95.65,350.00,4.00,0.02,29.91,M,0.50,M,OVC,M,M,M,100.00,M,M,M,SN FG,KLEB 011103Z 35004KT 1/2SM SN FG OVC001 00/M01 A2991 RMK AO2 P0002 T00001006
LEB,2017-04-01 11:05,-72.3042,43.6261,M,M,M,350.00,4.00,0.02,29.91,M,0.50,M,VV ,M,M,M,200.00,M,M,M,SN FG,KLEB 011105Z AUTO 35004KT 1/2SM SN FG VV002 A2991 RMK P0002 MADISHF
LEB,2017-04-01 11:10,-72.3042,43.6261,M,M,M,350.00,4.00,0.03,29.91,M,0.50,M,VV ,M,M,M,200.00,M,M,M,SN FG,KLEB 011110Z AUTO 35004KT 1/2SM SN FG VV002 A2991 RMK P0003 MADISHF
LEB,2017-04-01 11:11,-72.3042,43.6261,32.00,30.90,95.65,360.00,4.00,0.03,29.91,M,0.50,M,VV ,M,M,M,300.00,M,M,M,SN FG,KLEB 011111Z 36004KT 1/2SM SN FG VV003 00/M01 A2991 RMK AO2 P0003 T00001006
LEB,2017-04-01 11:15,-72.3042,43.6261,M,M,M,360.00,5.00,0.03,29.91,M,0.75,M,VV ,M,M,M,300.00,M,M,M,-SN BR,KLEB 011115Z AUTO 36005KT 1SM -SN BR VV003 A2991 RMK P0003 MADISHF
LEB,2017-04-01 11:20,-72.3042,43.6261,M,M,M,360.00,5.00,0.04,29.91,M,0.75,M,SCT,OVC,M,M,100.00,499.00,M,M,-SN BR,KLEB 011120Z AUTO 36005KT 1SM -SN BR SCT001 OVC004 A2991 RMK P0004 MADISHF
LEB,2017-04-01 11:22,-72.3042,43.6261,32.00,30.90,95.65,360.00,5.00,0.04,29.91,M,0.75,M,SCT,OVC,M,M,100.00,500.00,M,M,-SN BR,KLEB 011122Z 36005KT 3/4SM -SN BR SCT001 OVC005 00/M01 A2991 RMK AO2 P0004 T00001006
LEB,2017-04-01 11:25,-72.3042,43.6261,M,M,M,340.00,4.00,0.04,29.91,M,1.00,M,SCT,OVC,M,M,100.00,700.00,M,M,-SN BR,KLEB 011125Z AUTO 34004KT 1SM -SN BR SCT001 OVC007 A2991 RMK P0004 MADISHF
LEB,2017-04-01 11:29,-72.3042,43.6261,32.00,30.90,95.65,360.00,4.00,0.04,29.91,M,1.00,M,SCT,OVC,M,M,100.00,700.00,M,M,-SN BR,KLEB 011129Z 36004KT 1SM -SN BR SCT001 OVC007 00/M01 A2991 RMK AO2 P0004 T00001006
LEB,2017-04-01 11:30,-72.3042,43.6261,M,M,M,350.00,4.00,0.04,29.91,M,1.25,M,SCT,OVC,M,M,100.00,700.00,M,M,-SN BR,KLEB 011130Z AUTO 35004KT 1 1/2SM -SN BR SCT001 OVC007 A2991 RMK P0004 MADISHF
LEB,2017-04-01 11:35,-72.3042,43.6261,M,M,M,360.00,4.00,0.04,29.91,M,1.25,M,BKN,OVC,M,M,100.00,900.00,M,M,-SN BR,KLEB 011135Z AUTO 36004KT 1 1/2SM -SN BR BKN001 OVC009 A2991 RMK P0004 MADISHF
LEB,2017-04-01 11:40,-72.3042,43.6261,33.10,30.90,91.51,350.00,5.00,0.04,29.91,M,1.50,M,BKN,OVC,M,M,100.00,1200.00,M,M,-SN BR,KLEB 011140Z 35005KT 1 1/2SM -SN BR BKN001 OVC012 01/M01 A2991 RMK AO2 P0004 T00061006
LEB,2017-04-01 11:45,-72.3042,43.6261,M,M,M,350.00,4.00,0.04,29.92,M,1.75,M,BKN,OVC,M,M,100.00,1200.00,M,M,-SN BR,KLEB 011145Z AUTO 35004KT 2SM -SN BR BKN001 OVC012 A2992 RMK P0004 MADISHF
LEB,2017-04-01 11:50,-72.3042,43.6261,M,M,M,340.00,5.00,0.05,29.92,M,2.00,M,BKN,BKN,OVC,M,100.00,900.00,1400.00,M,-SN BR,KLEB 011150Z AUTO 34005KT 2SM -SN BR BKN001 BKN009 OVC014 A2992 RMK P0005 MADISHF
LEB,2017-04-01 11:53,-72.3042,43.6261,33.10,30.90,91.51,350.00,5.00,0.05,29.92,1013.80,2.00,M,BKN,OVC,M,M,100.00,1400.00,M,M,-SN BR,KLEB 011153Z 35005KT 2SM -SN BR BKN001 OVC014 01/M01 A2992 RMK AO2 SLP138 P0005 60034 70107 T00061006 10006 21006 53007
LEB,2017-04-01 11:55,-72.3042,43.6261,M,M,M,340.00,5.00,M,29.92,M,2.00,M,BKN,BKN,OVC,M,100.00,1100.00,1600.00,M,-SN BR,KLEB 011155Z AUTO 34005KT 2SM -SN BR BKN001 BKN011 OVC016 A2992 RMK MADISHF
LEB,2017-04-01 12:00,-72.3042,43.6261,M,M,M,360.00,4.00,M,29.92,M,1.75,M,BKN,OVC,M,M,100.00,1400.00,M,M,-SN BR,KLEB 011200Z AUTO 36004KT 2SM -SN BR BKN001 OVC014 A2992 RMK MADISHF
LEB,2017-04-01 12:04,-72.3042,43.6261,33.10,32.00,95.67,350.00,3.00,0.00,29.92,M,1.50,M,BKN,OVC,M,M,100.00,1400.00,M,M,-SN BR,KLEB 011204Z 35003KT 1 1/2SM -SN BR BKN001 OVC014 01/00 A2992 RMK AO2 P0000 T00060000
LEB,2017-04-01 12:05,-72.3042,43.6261,M,M,M,340.00,3.00,M,29.92,M,1.25,M,BKN,BKN,OVC,M,100.00,900.00,1400.00,M,-SN BR,KLEB 011205Z AUTO 34003KT 1 1/2SM -SN BR BKN001 BKN009 OVC014 A2992 RMK MADISHF
LEB,2017-04-01 12:10,-72.3042,43.6261,M,M,M,340.00,4.00,M,29.92,M,1.25,M,BKN,BKN,OVC,M,100.00,900.00,1400.00,M,-SN BR,KLEB 011210Z AUTO 34004KT 1 1/2SM -SN BR BKN001 BKN009 OVC014 A2992 RMK MADISHF
LEB,2017-04-01 12:15,-72.3042,43.6261,M,M,M,330.00,5.00,0.01,29.92,M,1.00,M,BKN,BKN,OVC,M,100.00,900.00,1400.00,M,-SN BR,KLEB 011215Z AUTO 33005KT 1SM -SN BR BKN001 BKN009 OVC014 A2992 RMK P0001 MADISHF
LEB,2017-04-01 12:20,-72.3042,43.6261,M,M,M,350.00,4.00,0.01,29.92,M,1.00,M,BKN,BKN,OVC,M,100.00,900.00,1400.00,M,-SN BR,KLEB 011220Z AUTO 35004KT 1SM -SN BR BKN001 BKN009 OVC014 A2992 RMK P0001 MADISHF
LEB,2017-04-01 12:25,-72.3042,43.6261,M,M,M,340.00,4.00,0.01,29.92,M,1.00,M,BKN,OVC,M,M,100.00,999.00,M,M,-SN BR,KLEB 011225Z AUTO 34004KT 1SM -SN BR BKN001 OVC009 A2992 RMK P0001 MADISHF
LEB,2017-04-01 12:30,-72.3042,43.6261,M,M,M,340.00,4.00,0.02,29.92,M,1.00,M,BKN,OVC,M,M,100.00,999.00,M,M,-SN BR,KLEB 011230Z AUTO 34004KT 1SM -SN BR BKN001 OVC009 A2992 RMK P0002 MADISHF
LEB,2017-04-01 12:35,-72.3042,43.6261,M,M,M,350.00,4.00,0.02,29.92,M,1.00,M,BKN,OVC,M,M,100.00,999.00,M,M,-SN BR,KLEB 011235Z AUTO 35004KT 1SM -SN BR BKN001 OVC009 A2992 RMK P0002 MADISHF
LEB,2017-04-01 12:40,-72.3042,43.6261,M,M,M,360.00,4.00,0.02,29.92,M,0.75,M,BKN,OVC,M,M,100.00,999.00,M,M,-SN BR,KLEB 011240Z AUTO 36004KT 1SM -SN BR BKN001 OVC009 A2992 RMK P0002 MADISHF
LEB,2017-04-01 12:45,-72.3042,43.6261,M,M,M,340.00,5.00,0.02,29.92,M,0.75,M,BKN,OVC,M,M,100.00,999.00,M,M,-SN BR,KLEB 011245Z AUTO 34005KT 1SM -SN BR BKN001 OVC009 A2992 RMK P0002 MADISHF
LEB,2017-04-01 12:46,-72.3042,43.6261,33.10,32.00,95.67,340.00,5.00,0.02,29.92,M,0.75,M,BKN,OVC,M,M,100.00,700.00,M,M,-SN BR,KLEB 011246Z 34005KT 3/4SM -SN BR BKN001 OVC007 01/00 A2992 RMK AO2 P0002 T00060000
LEB,2017-04-01 12:50,-72.3042,43.6261,M,M,M,330.00,5.00,0.03,29.92,M,0.75,M,OVC,M,M,M,100.00,M,M,M,-SN BR,KLEB 011250Z AUTO 33005KT 1SM -SN BR OVC001 A2992 RMK P0003 MADISHF
LEB,2017-04-01 12:53,-72.3042,43.6261,33.10,32.00,95.67,350.00,3.00,0.03,29.92,1014.00,0.75,M,OVC,M,M,M,100.00,M,M,M,-SN BR,KLEB 011253Z 35003KT 3/4SM -SN BR OVC001 01/00 A2992 RMK AO2 SLP140 P0003 T00060000
LEB,2017-04-01 12:55,-72.3042,43.6261,M,M,M,350.00,3.00,M,29.92,M,0.75,M,OVC,M,M,M,100.00,M,M,M,-SN BR,KLEB 011255Z AUTO 35003KT 1SM -SN BR OVC001 A2992 RMK MADISHF
LEB,2017-04-01 13:00,-72.3042,43.6261,M,M,M,340.00,4.00,M,29.93,M,0.75,M,OVC,M,M,M,100.00,M,M,M,-SN BR,KLEB 011300Z AUTO 34004KT 1SM -SN BR OVC001 A2993 RMK MADISHF
LEB,2017-04-01 13:05,-72.3042,43.6261,M,M,M,330.00,4.00,M,29.92,M,0.75,M,OVC,M,M,M,100.00,M,M,M,-SN BR,KLEB 011305Z AUTO 33004KT 1SM -SN BR OVC001 A2992 RMK MADISHF
LEB,2017-04-01 13:10,-72.3042,43.6261,M,M,M,340.00,4.00,0.01,29.93,M,0.75,M,OVC,M,M,M,100.00,M,M,M,-SN BR,KLEB 011310Z AUTO 34004KT 1SM -SN BR OVC001 A2993 RMK P0001 MADISHF
LEB,2017-04-01 13:15,-72.3042,43.6261,M,M,M,340.00,5.00,0.01,29.92,M,0.75,M,OVC,M,M,M,100.00,M,M,M,-SN BR,KLEB 011315Z AUTO 34005KT 1SM -SN BR OVC001 A2992 RMK P0001 MADISHF
LEB,2017-04-01 13:20,-72.3042,43.6261,M,M,M,350.00,5.00,0.01,29.92,M,0.75,M,OVC,M,M,M,100.00,M,M,M,-SN BR,KLEB 011320Z AUTO 35005KT 1SM -SN BR OVC001 A2992 RMK P0001 MADISHF
LEB,2017-04-01 13:25,-72.3042,43.6261,M,M,M,350.00,4.00,0.02,29.93,M,0.75,M,OVC,M,M,M,100.00,M,M,M,-SN BR,KLEB 011325Z AUTO 35004KT 1SM -SN BR OVC001 A2993 RMK P0002 MADISHF
LEB,2017-04-01 13:30,-72.3042,43.6261,M,M,M,360.00,4.00,0.02,29.93,M,0.75,M,BKN,OVC,M,M,100.00,1100.00,M,M,-SN BR,KLEB 011330Z AUTO 36004KT 1SM -SN BR BKN001 OVC011 A2993 RMK P0002 MADISHF
LEB,2017-04-01 13:35,-72.3042,43.6261,M,M,M,350.00,4.00,0.02,29.93,M,0.75,M,BKN,OVC,M,M,100.00,1300.00,M,M,-SN BR,KLEB 011335Z AUTO 35004KT 1SM -SN BR BKN001 OVC013 A2993 RMK P0002 MADISHF
LEB,2017-04-01 13:40,-72.3042,43.6261,M,M,M,360.00,4.00,0.02,29.93,M,0.75,M,BKN,BKN,OVC,M,100.00,999.00,1500.00,M,-SN BR,KLEB 011340Z AUTO 36004KT 1SM -SN BR BKN001 BKN009 OVC015 A2993 RMK P0002 MADISHF
LEB,2017-04-01 13:45,-72.3042,43.6261,M,M,M,360.00,3.00,0.03,29.93,M,0.75,M,BKN,BKN,M,M,100.00,1500.00,M,M,-SN BR,KLEB 011345Z AUTO 36003KT 1SM -SN BR BKN001 BKN015 A2993 RMK P0003 VRB03KT  MADISHF
LEB,2017-04-01 13:49,-72.3042,43.6261,33.80,32.00,93.03,10.00,4.00,0.03,29.93,M,1.25,M,SCT,BKN,OVC,M,200.00,1700.00,3100.00,M,-SN BR,KLEB 011349Z 01004KT 1 1/4SM -SN BR SCT002 BKN017 OVC031 01/00 A2993 RMK AO2 P0003
LEB,2017-04-01 13:50,-72.3042,43.6261,M,M,M,20.00,5.00,0.03,29.93,M,1.25,M,SCT,BKN,OVC,M,200.00,1699.00,2700.00,M,-SN BR,KLEB 011350Z AUTO 02005KT 1 1/2SM -SN BR SCT002 BKN016 OVC027 A2993 RMK P0003 MADISHF
LEB,2017-04-01 13:53,-72.3042,43.6261,34.00,32.00,92.29,20.00,5.00,0.03,29.93,1014.30,1.50,M,FEW,BKN,OVC,M,200.00,1700.00,3000.00,M,-SN BR,KLEB 011353Z 02005KT 1 1/2SM -SN BR FEW002 BKN017 OVC030 01/00 A2993 RMK AO2 SLP143 P0003 T00110000
LEB,2017-04-01 13:55,-72.3042,43.6261,M,M,M,10.00,6.00,M,29.93,M,1.50,M,FEW,BKN,OVC,M,200.00,1699.00,3000.00,M,-SN BR,KLEB 011355Z AUTO 01006KT 1 1/2SM -SN BR FEW002 BKN016 OVC030 A2993 RMK MADISHF
LEB,2017-04-01 14:00,-72.3042,43.6261,M,M,M,20.00,5.00,M,29.93,M,1.75,M,FEW,BKN,OVC,M,400.00,1900.00,2800.00,M,-SN BR,KLEB 011400Z AUTO 02005KT 2SM -SN BR FEW004 BKN019 OVC028 A2993 RMK MADISHF
LEB,2017-04-01 14:05,-72.3042,43.6261,M,M,M,20.00,4.00,M,29.94,M,1.50,M,FEW,BKN,OVC,M,400.00,1900.00,2800.00,M,-SN BR,KLEB 011405Z AUTO 02004KT 1 1/2SM -SN BR FEW004 BKN019 OVC028 A2994 RMK MADISHF
LEB,2017-04-01 14:10,-72.3042,43.6261,M,M,M,340.00,3.00,M,29.94,M,1.50,M,BKN,BKN,OVC,M,1900.00,2300.00,2800.00,M,-SN BR,KLEB 011410Z AUTO 34003KT 1 1/2SM -SN BR BKN019 BKN023 OVC028 A2994 RMK VRB03KT  MADISHF
LEB,2017-04-01 14:15,-72.3042,43.6261,M,M,M,0.00,0.00,M,29.94,M,1.50,M,FEW,BKN,OVC,M,1400.00,1999.00,2700.00,M,-SN BR,KLEB 011415Z AUTO 00000KT 1 1/2SM -SN BR FEW014 BKN019 OVC027 A2994 RMK MADISHF
LEB,2017-04-01 14:20,-72.3042,43.6261,M,M,M,0.00,0.00,M,29.94,M,1.25,M,FEW,BKN,OVC,M,1400.00,1999.00,2700.00,M,-SN BR,KLEB 011420Z AUTO 00000KT 1 1/2SM -SN BR FEW014 BKN019 OVC027 A2994 RMK MADISHF
LEB,2017-04-01 14:25,-72.3042,43.6261,M,M,M,330.00,3.00,M,29.94,M,1.25,M,FEW,BKN,OVC,M,499.00,1800.00,2400.00,M,-SN BR,KLEB 011425Z AUTO 33003KT 1 1/2SM -SN BR FEW004 BKN018 OVC024 A2994 RMK MADISHF
LEB,2017-04-01 14:30,-72.3042,43.6261,M,M,M,340.00,3.00,0.01,29.94,M,1.25,M,FEW,SCT,OVC,M,100.00,1500.00,2100.00,M,-SN BR,KLEB 011430Z AUTO 34003KT 1 1/2SM -SN BR FEW001 SCT015 OVC021 A2994 RMK P0001 MADISHF
LEB,2017-04-01 14:35,-72.3042,43.6261,M,M,M,350.00,4.00,0.01,29.94,M,1.50,M,SCT,SCT,OVC,M,200.00,1400.00,2100.00,M,-SN BR,KLEB 011435Z AUTO 35004KT 1 1/2SM -SN BR SCT002 SCT014 OVC021 A2994 RMK P0001 MADISHF
LEB,2017-04-01 14:40,-72.3042,43.6261,M,M,M,360.00,3.00,0.01,29.95,M,1.75,M,SCT,BKN,OVC,M,200.00,1200.00,2500.00,M,-SN BR,KLEB 011440Z AUTO 36003KT 2SM -SN BR SCT002 BKN012 OVC025 A2995 RMK P0001 MADISHF
LEB,2017-04-01 14:45,-72.3042,43.6261,M,M,M,0.00,0.00,0.01,29.95,M,2.00,M,SCT,SCT,OVC,M,200.00,1500.00,2200.00,M,-SN BR,KLEB 011445Z AUTO 00000KT 2SM -SN BR SCT002 SCT015 OVC022 A2995 RMK P0001 MADISHF
LEB,2017-04-01 14:49,-72.3042,43.6261,35.60,33.80,93.08,0.00,0.00,0.01,29.94,M,2.00,M,FEW,BKN,OVC,M,200.00,2200.00,3000.00,M,-SN BR,KLEB 011449Z 00000KT 2SM -SN BR FEW002 BKN022 OVC030 02/01 A2994 RMK AO2 P0001
LEB,2017-04-01 14:50,-72.3042,43.6261,M,M,M,0.00,0.00,0.01,29.94,M,2.00,M,SCT,BKN,OVC,M,200.00,1999.00,2500.00,M,-SN BR,KLEB 011450Z AUTO 00000KT 2SM -SN BR SCT002 BKN019 OVC025 A2994 RMK P0001 MADISHF
LEB,2017-04-01 14:53,-72.3042,43.6261,35.10,33.10,92.32,0.00,0.00,0.01,29.94,1014.70,1.75,M,FEW,BKN,OVC,M,200.00,2200.00,2900.00,M,-SN BR,KLEB 011453Z 00000KT 1 3/4SM -SN BR FEW002 BKN022 OVC029 02/01 A2994 RMK AO2 SLP147 P0001 60007 T00170006 50006
LEB,2017-04-01 14:55,-72.3042,43.6261,M,M,M,0.00,0.00,M,29.94,M,1.75,M,FEW,BKN,OVC,M,200.00,2200.00,3100.00,M,-SN BR,KLEB 011455Z AUTO 00000KT 2SM -SN BR FEW002 BKN022 OVC031 A2994 RMK MADISHF
LEB,2017-04-01 15:00,-72.3042,43.6261,M,M,M,20.00,3.00,M,29.94,M,2.00,M,FEW,BKN,OVC,M,200.00,2500.00,3100.00,M,-SN BR,KLEB 011500Z AUTO 02003KT 2SM -SN BR FEW002 BKN025 OVC031 A2994 RMK MADISHF
LEB,2017-04-01 15:05,-72.3042,43.6261,M,M,M,0.00,0.00,M,29.94,M,2.00,M,FEW,BKN,OVC,M,200.00,2500.00,3100.00,M,-SN BR,KLEB 011505Z AUTO 00000KT 2SM -SN BR FEW002 BKN025 OVC031 A2994 RMK MADISHF
LEB,2017-04-01 15:06,-72.3042,43.6261,35.10,33.10,92.32,0.00,0.00,0.00,29.94,M,2.00,M,FEW,BKN,OVC,M,200.00,2500.00,3100.00,M,-SN BR,KLEB 011506Z 00000KT 2SM -SN BR FEW002 BKN025 OVC031 02/01 A2994 RMK AO2 P0000 T00170006
LEB,2017-04-01 15:10,-72.3042,43.6261,M,M,M,320.00,3.00,M,29.94,M,2.50,M,FEW,BKN,OVC,M,100.00,2400.00,3100.00,M,-SN BR,KLEB 011510Z AUTO 32003KT 2 1/2SM -SN BR FEW001 BKN024 OVC031 A2994 RMK MADISHF
LEB,2017-04-01 15:15,-72.3042,43.6261,M,M,M,320.00,4.00,M,29.94,M,2.50,M,SCT,BKN,OVC,M,100.00,1800.00,3100.00,M,-SN BR,KLEB 011515Z AUTO 32004KT 2 1/2SM -SN BR SCT001 BKN018 OVC031 A2994 RMK MADISHF
LEB,2017-04-01 15:18,-72.3042,43.6261,34.00,33.10,96.46,340.00,3.00,0.00,29.94,M,2.00,M,BKN,BKN,OVC,M,100.00,1900.00,3100.00,M,-SN BR,KLEB 011518Z 34003KT 2SM -SN BR BKN001 BKN019 OVC031 01/01 A2994 RMK AO2 P0000 T00110006
LEB,2017-04-01 15:20,-72.3042,43.6261,M,M,M,340.00,3.00,M,29.94,M,2.00,M,BKN,BKN,OVC,M,100.00,1900.00,3100.00,M,-SN BR,KLEB 011520Z AUTO 34003KT 2SM -SN BR BKN001 BKN019 OVC031 A2994 RMK MADISHF
LEB,2017-04-01 15:25,-72.3042,43.6261,M,M,M,350.00,3.00,M,29.94,M,2.50,M,BKN,BKN,OVC,M,100.00,499.00,2700.00,M,-SN BR,KLEB 011525Z AUTO 35003KT 2 1/2SM -SN BR BKN001 BKN004 OVC027 A2994 RMK MADISHF
LEB,2017-04-01 15:30,-72.3042,43.6261,M,M,M,340.00,3.00,0.01,29.94,M,2.50,M,BKN,BKN,OVC,M,100.00,900.00,1699.00,M,-SN BR,KLEB 011530Z AUTO 34003KT 2 1/2SM -SN BR BKN001 BKN009 OVC016 A2994 RMK P0001 MADISHF
LEB,2017-04-01 15:35,-72.3042,43.6261,M,M,M,330.00,3.00,0.01,29.94,M,2.50,M,BKN,BKN,OVC,M,100.00,900.00,2100.00,M,-SN BR,KLEB 011535Z AUTO 33003KT 2 1/2SM -SN BR BKN001 BKN009 OVC021 A2994 RMK P0001 MADISHF
LEB,2017-04-01 15:38,-72.3042,43.6261,35.10,33.10,92.32,330.00,4.00,0.01,29.94,M,3.00,M,BKN,BKN,OVC,M,100.00,500.00,2200.00,M,-SN BR,KLEB 011538Z 33004KT 3SM -SN BR BKN001 BKN005 OVC022 02/01 A2994 RMK AO2 P0001 T00170006
LEB,2017-04-01 15:40,-72.3042,43.6261,M,M,M,330.00,4.00,0.01,29.94,M,2.50,M,BKN,BKN,OVC,M,100.00,700.00,1900.00,M,-SN BR,KLEB 011540Z AUTO 33004KT 2 1/2SM -SN BR BKN001 BKN007 OVC019 A2994 RMK P0001 MADISHF
LEB,2017-04-01 15:45,-72.3042,43.6261,35.10,33.10,92.32,350.00,4.00,0.01,29.94,M,2.50,M,BKN,BKN,OVC,M,300.00,700.00,1600.00,M,-SN BR,KLEB 011545Z 35004KT 2 1/2SM -SN BR BKN003 BKN007 OVC016 02/01 A2994 RMK AO2 P0001 T00170006
LEB,2017-04-01 15:50,-72.3042,43.6261,M,M,M,350.00,4.00,0.01,29.94,M,2.50,M,BKN,BKN,OVC,M,300.00,700.00,1600.00,M,-SN BR,KLEB 011550Z AUTO 35004KT 2 1/2SM -SN BR BKN003 BKN007 OVC016 A2994 RMK P0001 MADISHF
LEB,2017-04-01 15:53,-72.3042,43.6261,35.10,33.10,92.32,360.00,3.00,0.01,29.94,1014.40,2.50,M,BKN,BKN,OVC,M,300.00,700.00,1600.00,M,-SN BR,KLEB 011553Z 36003KT 2 1/2SM -SN BR BKN003 BKN007 OVC016 02/01 A2994 RMK AO2 SLP144 P0001 T00170006
LEB,2017-04-01 15:55,-72.3042,43.6261,M,M,M,360.00,3.00,M,29.94,M,2.50,M,BKN,BKN,OVC,M,300.00,700.00,1600.00,M,-SN BR,KLEB 011555Z AUTO 36003KT 2 1/2SM -SN BR BKN003 BKN007 OVC016 A2994 RMK MADISHF
LEB,2017-04-01 15:59,-72.3042,43.6261,36.00,33.10,89.09,0.00,0.00,0.00,29.93,M,3.00,M,BKN,OVC,M,M,500.00,2200.00,M,M,-SN BR,KLEB 011559Z 00000KT 3SM -SN BR BKN005 OVC022 02/01 A2993 RMK AO2 P0000 T00220006
LEB,2017-04-01 16:00,-72.3042,43.6261,M,M,M,0.00,0.00,M,29.93,M,3.00,M,OVC,M,M,M,499.00,M,M,M,-SN BR,KLEB 011600Z AUTO 00000KT 3SM -SN BR OVC004 A2993 RMK MADISHF
LEB,2017-04-01 16:05,-72.3042,43.6261,M,M,M,0.00,0.00,M,29.93,M,3.00,M,OVC,M,M,M,300.00,M,M,M,-SN BR,KLEB 011605Z AUTO 00000KT 3SM -SN BR OVC003 A2993 RMK MADISHF
LEB,2017-04-01 16:08,-72.3042,43.6261,36.00,33.10,89.09,0.00,0.00,0.00,29.93,M,3.00,M,OVC,M,M,M,300.00,M,M,M,-SN BR,KLEB 011608Z 00000KT 3SM -SN BR OVC003 02/01 A2993 RMK AO2 P0000 T00220006
LEB,2017-04-01 16:10,-72.3042,43.6261,M,M,M,0.00,0.00,M,29.93,M,3.50,M,BKN,OVC,M,M,300.00,600.00,M,M,-SN BR,KLEB 011610Z AUTO 00000KT 3SM -SN BR BKN003 OVC006 A2993 RMK MADISHF
LEB,2017-04-01 16:15,-72.3042,43.6261,M,M,M,30.00,3.00,M,29.93,M,4.00,M,OVC,M,M,M,300.00,M,M,M,-SN BR,KLEB 011615Z AUTO 03003KT 4SM -SN BR OVC003 A2993 RMK MADISHF
LEB,2017-04-01 16:20,-72.3042,43.6261,M,M,M,20.00,3.00,M,29.93,M,4.00,M,OVC,M,M,M,300.00,M,M,M,-SN BR,KLEB 011620Z AUTO 02003KT 4SM -SN BR OVC003 A2993 RMK MADISHF
LEB,2017-04-01 16:25,-72.3042,43.6261,M,M,M,20.00,3.00,0.01,29.93,M,3.50,M,BKN,OVC,M,M,300.00,600.00,M,M,-SN BR,KLEB 011625Z AUTO 02003KT 3SM -SN BR BKN003 OVC006 A2993 RMK P0001 MADISHF
LEB,2017-04-01 16:30,-72.3042,43.6261,M,M,M,0.00,0.00,0.01,29.93,M,3.00,M,OVC,M,M,M,300.00,M,M,M,-SN BR,KLEB 011630Z AUTO 00000KT 3SM -SN BR OVC003 A2993 RMK P0001 CIG 1V6  MADISHF
LEB,2017-04-01 16:35,-72.3042,43.6261,M,M,M,0.00,0.00,0.01,29.93,M,3.00,M,OVC,M,M,M,100.00,M,M,M,-SN BR,KLEB 011635Z AUTO 00000KT 3SM -SN BR OVC001 A2993 RMK P0001 MADISHF
LEB,2017-04-01 16:38,-72.3042,43.6261,36.00,34.00,92.35,40.00,3.00,0.01,29.93,M,3.00,M,OVC,M,M,M,100.00,M,M,M,-SN BR,KLEB 011638Z 04003KT 3SM -SN BR OVC001 02/01 A2993 RMK AO2 P0001 T00220011
LEB,2017-04-01 16:40,-72.3042,43.6261,M,M,M,0.00,0.00,0.01,29.93,M,4.00,M,OVC,M,M,M,100.00,M,M,M,-SN BR,KLEB 011640Z AUTO 00000KT 4SM -SN BR OVC001 A2993 RMK P0001 MADISHF
LEB,2017-04-01 16:45,-72.3042,43.6261,M,M,M,350.00,3.00,0.01,29.93,M,4.00,M,OVC,M,M,M,100.00,M,M,M,-SN BR,KLEB 011645Z AUTO 35003KT 4SM -SN BR OVC001 A2993 RMK P0001 MADISHF
LEB,2017-04-01 16:50,-72.3042,43.6261,M,M,M,10.00,4.00,0.01,29.93,M,4.00,M,OVC,M,M,M,100.00,M,M,M,-SN BR,KLEB 011650Z AUTO 01004KT 4SM -SN BR OVC001 A2993 RMK P0001 CIG 1V4  MADISHF
LEB,2017-04-01 16:53,-72.3042,43.6261,36.00,33.10,89.09,360.00,4.00,0.01,29.93,1014.20,4.00,M,OVC,M,M,M,100.00,M,M,M,-SN BR,KLEB 011653Z 36004KT 4SM -SN BR OVC001 02/01 A2993 RMK AO2 SLP142 P0001 T00220006
LEB,2017-04-01 16:55,-72.3042,43.6261,M,M,M,10.00,4.00,M,29.93,M,4.00,M,OVC,M,M,M,100.00,M,M,M,-SN BR,KLEB 011655Z AUTO 01004KT 4SM -SN BR OVC001 A2993 RMK VRB04KT  MADISHF
LEB,2017-04-01 17:00,-72.3042,43.6261,M,M,M,30.00,3.00,M,29.93,M,5.00,M,OVC,M,M,M,200.00,M,M,M,-SN BR,KLEB 011700Z AUTO 03003KT 5SM -SN BR OVC002 A2993 RMK MADISHF
LEB,2017-04-01 17:05,-72.3042,43.6261,36.00,33.10,89.09,350.00,4.00,0.01,29.93,M,6.00,M,OVC,M,M,M,200.00,M,M,M,UP BR,KLEB 011705Z 35004KT 6SM UP BR OVC002 02/01 A2993 RMK AO2 UPB02SNE02 CIG 001V006 P0001 T00220006
LEB,2017-04-01 17:10,-72.3042,43.6261,M,M,M,350.00,4.00,0.01,29.93,M,6.00,M,OVC,M,M,M,200.00,M,M,M,UP BR,KLEB 011710Z AUTO 35004KT 6SM UP BR OVC002 A2993 RMK P0001 CIG 1V8  MADISHF
LEB,2017-04-01 17:15,-72.3042,43.6261,M,M,M,350.00,5.00,0.01,29.93,M,6.00,M,BKN,OVC,M,M,400.00,800.00,M,M,UP BR,KLEB 011715Z AUTO 35005KT 6SM UP BR BKN004 OVC008 A2993 RMK P0001 CIG 1V7  MADISHF
LEB,2017-04-01 17:20,-72.3042,43.6261,M,M,M,340.00,3.00,0.01,29.93,M,6.00,M,BKN,OVC,M,M,400.00,800.00,M,M,-SN BR,KLEB 011720Z AUTO 34003KT 6SM -SN BR BKN004 OVC008 A2993 RMK P0001 MADISHF
LEB,2017-04-01 17:25,-72.3042,43.6261,M,M,M,340.00,4.00,0.01,29.93,M,7.00,M,BKN,OVC,M,M,400.00,800.00,M,M,UP,KLEB 011725Z AUTO 34004KT 7SM UP BKN004 OVC008 A2993 RMK P0001 MADISHF
LEB,2017-04-01 17:30,-72.3042,43.6261,M,M,M,350.00,7.00,0.01,29.93,M,8.00,M,BKN,OVC,M,M,400.00,999.00,M,M,M,KLEB 011730Z AUTO 35007KT 8SM BKN004 OVC009 A2993 RMK P0001 MADISHF
LEB,2017-04-01 17:35,-72.3042,43.6261,M,M,M,350.00,7.00,0.01,29.93,M,8.00,M,BKN,BKN,OVC,M,400.00,999.00,1500.00,M,M,KLEB 011735Z AUTO 35007KT 8SM BKN004 BKN009 OVC015 A2993 RMK P0001 MADISHF
LEB,2017-04-01 17:40,-72.3042,43.6261,36.00,33.10,89.09,10.00,6.00,0.01,29.92,M,7.00,M,SCT,SCT,OVC,M,400.00,900.00,1700.00,M,UP,KLEB 011740Z 01006KT 7SM UP SCT004 SCT009 OVC017 02/01 A2992 RMK AO2 UPB02SNE02B14E15B17E24B37E38 P0001 T00220006
LEB,2017-04-01 17:45,-72.3042,43.6261,M,M,M,10.00,6.00,0.01,29.92,M,5.00,M,SCT,BKN,OVC,M,400.00,1699.00,2400.00,M,-SN BR,KLEB 011745Z AUTO 01006KT 5SM -SN BR SCT004 BKN016 OVC024 A2992 RMK P0001 MADISHF
LEB,2017-04-01 17:50,-72.3042,43.6261,M,M,M,360.00,6.00,0.01,29.92,M,5.00,M,FEW,BKN,OVC,M,499.00,1699.00,2100.00,M,-SN BR,KLEB 011750Z AUTO 36006KT 5SM -SN BR FEW004 BKN016 OVC021 A2992 RMK P0001 MADISHF
LEB,2017-04-01 17:53,-72.3042,43.6261,37.00,33.10,85.64,20.00,5.00,0.01,29.92,1013.90,5.00,M,FEW,BKN,OVC,M,500.00,1700.00,2100.00,M,UP BR,KLEB 011753Z 02005KT 5SM UP BR FEW005 BKN017 OVC021 03/01 A2992 RMK AO2 UPB02SNE02B14E15B17E24B37E38B42E52 SLP139 P0001 60010 T00280006 10028 20006 56007
LEB,2017-04-01 17:55,-72.3042,43.6261,M,M,M,20.00,5.00,0.00,29.92,M,5.00,M,FEW,BKN,OVC,M,499.00,1800.00,2500.00,M,UP BR,KLEB 011755Z AUTO 02005KT 5SM UP BR FEW004 BKN018 OVC025 A2992 RMK P0000 MADISHF
LEB,2017-04-01 18:00,-72.3042,43.6261,M,M,M,10.00,4.00,0.00,29.92,M,6.00,M,SCT,BKN,OVC,M,499.00,1100.00,2500.00,M,UP BR,KLEB 011800Z AUTO 01004KT 6SM UP BR SCT004 BKN011 OVC025 A2992 RMK P0000 MADISHF
LEB,2017-04-01 18:01,-72.3042,43.6261,37.00,34.00,88.78,10.00,4.00,0.00,29.92,M,6.00,M,SCT,BKN,OVC,M,500.00,900.00,2500.00,M,UP BR,KLEB 011801Z 01004KT 6SM UP BR SCT005 BKN009 OVC025 03/01 A2992 RMK AO2 P0000 T00280011
LEB,2017-04-01 18:05,-72.3042,43.6261,M,M,M,360.00,3.00,M,29.92,M,6.00,M,SCT,BKN,OVC,M,300.00,900.00,2500.00,M,-RA BR,KLEB 011805Z AUTO 36003KT 6SM -RA BR SCT003 BKN009 OVC025 A2992 RMK MADISHF
LEB,2017-04-01 18:10,-72.3042,43.6261,M,M,M,350.00,5.00,M,29.92,M,6.00,M,SCT,BKN,OVC,M,300.00,700.00,2300.00,M,-RA BR,KLEB 011810Z AUTO 35005KT 6SM -RA BR SCT003 BKN007 OVC023 A2992 RMK MADISHF
LEB,2017-04-01 18:15,-72.3042,43.6261,M,M,M,10.00,5.00,M,29.92,M,6.00,M,FEW,BKN,OVC,M,300.00,700.00,3000.00,M,-RA BR,KLEB 011815Z AUTO 01005KT 6SM -RA BR FEW003 BKN007 OVC030 A2992 RMK MADISHF
LEB,2017-04-01 18:20,-72.3042,43.6261,M,M,M,360.00,6.00,0.00,29.92,M,6.00,M,SCT,BKN,OVC,M,499.00,1200.00,2700.00,M,UP BR,KLEB 011820Z AUTO 36006KT 6SM UP BR SCT004 BKN012 OVC027 A2992 RMK P0000 MADISHF
LEB,2017-04-01 18:21,-72.3042,43.6261,37.00,34.00,88.78,10.00,5.00,0.00,29.92,M,6.00,M,SCT,SCT,OVC,M,500.00,800.00,2700.00,M,UP BR,KLEB 011821Z 01005KT 6SM UP BR SCT005 SCT008 OVC027 03/01 A2992 RMK AO2 RAB05E16 P0000 T00280011
LEB,2017-04-01 18:25,-72.3042,43.6261,M,M,M,10.00,5.00,M,29.92,M,6.00,M,FEW,SCT,OVC,M,300.00,800.00,2700.00,M,-RA BR,KLEB 011825Z AUTO 01005KT 6SM -RA BR FEW003 SCT008 OVC027 A2992 RMK MADISHF
LEB,2017-04-01 18:30,-72.3042,43.6261,M,M,M,10.00,5.00,M,29.91,M,6.00,M,FEW,SCT,OVC,M,300.00,800.00,2700.00,M,-RA BR,KLEB 011830Z AUTO 01005KT 6SM -RA BR FEW003 SCT008 OVC027 A2991 RMK MADISHF
LEB,2017-04-01 18:35,-72.3042,43.6261,M,M,M,40.00,5.00,M,29.91,M,5.00,M,FEW,BKN,OVC,M,300.00,2700.00,3100.00,M,-RA BR,KLEB 011835Z AUTO 04005KT 5SM -RA BR FEW003 BKN027 OVC031 A2991 RMK MADISHF
LEB,2017-04-01 18:40,-72.3042,43.6261,M,M,M,30.00,6.00,M,29.91,M,5.00,M,FEW,BKN,OVC,M,300.00,2500.00,3100.00,M,-RA BR,KLEB 011840Z AUTO 03006KT 5SM -RA BR FEW003 BKN025 OVC031 A2991 RMK MADISHF
LEB,2017-04-01 18:45,-72.3042,43.6261,M,M,M,40.00,8.00,0.01,29.91,M,5.00,M,FEW,BKN,OVC,M,300.00,700.00,2700.00,M,-RA BR,KLEB 011845Z AUTO 04008KT 5SM -RA BR FEW003 BKN007 OVC027 A2991 RMK P0001 MADISHF
LEB,2017-04-01 18:50,-72.3042,43.6261,M,M,M,30.00,6.00,0.01,29.90,M,5.00,M,FEW,BKN,OVC,M,499.00,800.00,3000.00,M,-RA BR,KLEB 011850Z AUTO 03006KT 5SM -RA BR FEW004 BKN008 OVC030 A2990 RMK P0001 MADISHF
LEB,2017-04-01 18:51,-72.3042,43.6261,37.40,33.80,86.69,40.00,6.00,0.01,29.90,M,5.00,M,SCT,BKN,OVC,M,500.00,800.00,3000.00,M,-RA BR,KLEB 011851Z 04006KT 5SM -RA BR SCT005 BKN008 OVC030 03/01 A2990 RMK AO2 UPE25RAB05E16B25 P0001
LEB,2017-04-01 18:53,-72.3042,43.6261,37.00,34.00,88.78,50.00,7.00,0.01,29.90,1013.20,5.00,M,SCT,BKN,OVC,M,500.00,800.00,3000.00,M,-RA BR,KLEB 011853Z 05007KT 5SM -RA BR SCT005 BKN008 OVC030 03/01 A2990 RMK AO2 UPE25RAB05E16B25 SLP132 P0001 T00280011
LEB,2017-04-01 18:55,-72.3042,43.6261,M,M,M,50.00,6.00,M,29.90,M,5.00,M,FEW,BKN,OVC,M,300.00,800.00,3000.00,M,-RA BR,KLEB 011855Z AUTO 05006KT 5SM -RA BR FEW003 BKN008 OVC030 A2990 RMK MADISHF
LEB,2017-04-01 19:00,-72.3042,43.6261,M,M,M,50.00,7.00,M,29.90,M,6.00,M,SCT,BKN,OVC,M,499.00,1300.00,2500.00,M,-RA BR,KLEB 011900Z AUTO 05007KT 6SM -RA BR SCT004 BKN013 OVC025 A2990 RMK MADISHF
LEB,2017-04-01 19:01,-72.3042,43.6261,37.00,34.00,88.78,50.00,8.00,0.00,29.90,M,6.00,M,SCT,BKN,OVC,M,500.00,2500.00,3300.00,M,-RA BR,KLEB 011901Z 05008KT 6SM -RA BR SCT005 BKN025 OVC033 03/01 A2990 RMK AO2 P0000 T00280011
LEB,2017-04-01 19:05,-72.3042,43.6261,M,M,M,50.00,8.00,0.00,29.90,M,7.00,M,SCT,BKN,OVC,M,499.00,1200.00,3100.00,M,UP,KLEB 011905Z AUTO 05008KT 7SM UP SCT004 BKN012 OVC031 A2990 RMK P0000 MADISHF
LEB,2017-04-01 19:10,-72.3042,43.6261,M,M,M,40.00,7.00,0.00,29.90,M,7.00,M,SCT,SCT,OVC,M,499.00,999.00,2500.00,M,UP,KLEB 011910Z AUTO 04007KT 7SM UP SCT004 SCT009 OVC025 A2990 RMK P0000 MADISHF
LEB,2017-04-01 19:12,-72.3042,43.6261,37.00,34.00,88.78,50.00,9.00,0.00,29.90,M,6.00,M,BKN,BKN,OVC,M,700.00,2500.00,3100.00,M,UP BR,KLEB 011912Z 05009KT 6SM UP BR BKN007 BKN025 OVC031 03/01 A2990 RMK AO2 RAE03UPB03 P0000 T00280011
LEB,2017-04-01 19:15,-72.3042,43.6261,M,M,M,40.00,7.00,0.00,29.90,M,7.00,M,BKN,OVC,M,M,700.00,2500.00,M,M,UP,KLEB 011915Z AUTO 04007KT 7SM UP BKN007 OVC025 A2990 RMK P0000 MADISHF
LEB,2017-04-01 19:20,-72.3042,43.6261,M,M,M,20.00,7.00,M,29.91,M,7.00,M,BKN,OVC,M,M,700.00,2500.00,M,M,-RA,KLEB 011920Z AUTO 02007KT 7SM -RA BKN007 OVC025 A2991 RMK MADISHF
LEB,2017-04-01 19:25,-72.3042,43.6261,M,M,M,350.00,6.00,M,29.91,M,8.00,M,BKN,OVC,M,M,700.00,2600.00,M,M,-RA,KLEB 011925Z AUTO 35006KT 8SM -RA BKN007 OVC026 A2991 RMK MADISHF
LEB,2017-04-01 19:30,-72.3042,43.6261,M,M,M,350.00,6.00,M,29.92,M,10.00,M,BKN,OVC,M,M,700.00,2600.00,M,M,M,KLEB 011930Z AUTO 35006KT 10SM BKN007 OVC026 A2992 RMK MADISHF
LEB,2017-04-01 19:35,-72.3042,43.6261,M,M,M,350.00,7.00,M,29.92,M,10.00,M,BKN,OVC,M,M,700.00,2800.00,M,M,M,KLEB 011935Z AUTO 35007KT 10SM BKN007 OVC028 A2992 RMK MADISHF
LEB,2017-04-01 19:40,-72.3042,43.6261,M,M,M,350.00,6.00,M,29.92,M,8.00,M,BKN,OVC,M,M,700.00,2600.00,M,M,M,KLEB 011940Z AUTO 35006KT 8SM BKN007 OVC026 A2992 RMK MADISHF
LEB,2017-04-01 19:45,-72.3042,43.6261,M,M,M,360.00,6.00,M,29.92,M,7.00,M,BKN,OVC,M,M,700.00,2600.00,M,M,M,KLEB 011945Z AUTO 36006KT 7SM BKN007 OVC026 A2992 RMK MADISHF
LEB,2017-04-01 19:50,-72.3042,43.6261,M,M,M,360.00,5.00,M,29.93,M,8.00,M,SCT,BKN,OVC,M,499.00,900.00,2600.00,M,M,KLEB 011950Z AUTO 36005KT 8SM SCT004 BKN009 OVC026 A2993 RMK MADISHF
LEB,2017-04-01 19:53,-72.3042,43.6261,37.00,34.00,88.78,360.00,5.00,0.00,29.93,1014.00,8.00,M,FEW,BKN,OVC,M,300.00,700.00,2800.00,M,M,KLEB 011953Z 36005KT 8SM FEW003 BKN007 OVC028 03/01 A2993 RMK AO2 RAE03B16E29UPB03E16 SLP140 P0000 T00280011
LEB,2017-04-01 19:55,-72.3042,43.6261,37.00,34.00,88.78,360.00,6.00,0.00,29.93,M,9.00,M,SCT,BKN,OVC,M,500.00,2500.00,3000.00,M,M,KLEB 011955Z 36006KT 9SM SCT005 BKN025 OVC030 03/01 A2993 RMK AO2 T00280011
LEB,2017-04-01 20:00,-72.3042,43.6261,M,M,M,360.00,5.00,M,29.93,M,10.00,M,FEW,SCT,OVC,M,300.00,700.00,2800.00,M,M,KLEB 012000Z AUTO 36005KT 10SM FEW003 SCT007 OVC028 A2993 RMK MADISHF
LEB,2017-04-01 20:05,-72.3042,43.6261,M,M,M,360.00,5.00,M,29.93,M,10.00,M,FEW,SCT,OVC,M,499.00,1999.00,3100.00,M,M,KLEB 012005Z AUTO 36005KT 10SM FEW004 SCT019 OVC031 A2993 RMK MADISHF
LEB,2017-04-01 20:08,-72.3042,43.6261,37.00,34.00,88.78,10.00,5.00,0.00,29.93,M,10.00,M,FEW,SCT,OVC,M,700.00,2300.00,3100.00,M,M,KLEB 012008Z 01005KT 10SM FEW007 SCT023 OVC031 03/01 A2993 RMK AO2 T00280011
LEB,2017-04-01 20:10,-72.3042,43.6261,M,M,M,20.00,5.00,M,29.93,M,10.00,M,FEW,SCT,OVC,M,499.00,2300.00,3300.00,M,M,KLEB 012010Z AUTO 02005KT 10SM FEW004 SCT023 OVC033 A2993 RMK MADISHF
LEB,2017-04-01 20:15,-72.3042,43.6261,M,M,M,50.00,5.00,M,29.93,M,10.00,M,FEW,BKN,OVC,M,499.00,3300.00,4400.00,M,M,KLEB 012015Z AUTO 05005KT 10SM FEW004 BKN033 OVC044 A2993 RMK MADISHF
LEB,2017-04-01 20:20,-72.3042,43.6261,M,M,M,40.00,6.00,M,29.93,M,10.00,M,FEW,BKN,OVC,M,499.00,3399.00,4400.00,M,M,KLEB 012020Z AUTO 04006KT 10SM FEW004 BKN033 OVC044 A2993 RMK MADISHF
LEB,2017-04-01 20:25,-72.3042,43.6261,M,M,M,50.00,5.00,M,29.93,M,10.00,M,SCT,BKN,OVC,M,499.00,3399.00,4300.00,M,M,KLEB 012025Z AUTO 05005KT 10SM SCT004 BKN033 OVC043 A2993 RMK MADISHF
LEB,2017-04-01 20:30,-72.3042,43.6261,37.00,34.00,88.78,40.00,5.00,0.00,29.94,M,10.00,M,BKN,BKN,OVC,M,700.00,2100.00,3600.00,M,M,KLEB 012030Z 04005KT 10SM BKN007 BKN021 OVC036 03/01 A2994 RMK AO2 T00280011
LEB,2017-04-01 20:35,-72.3042,43.6261,M,M,M,20.00,4.00,M,29.94,M,10.00,M,BKN,BKN,OVC,M,700.00,3600.00,4400.00,M,M,KLEB 012035Z AUTO 02004KT 10SM BKN007 BKN036 OVC044 A2994 RMK MADISHF
LEB,2017-04-01 20:40,-72.3042,43.6261,M,M,M,0.00,0.00,M,29.94,M,10.00,M,BKN,OVC,M,M,600.00,3600.00,M,M,M,KLEB 012040Z AUTO 00000KT 10SM BKN006 OVC036 A2994 RMK MADISHF
LEB,2017-04-01 20:45,-72.3042,43.6261,M,M,M,350.00,3.00,M,29.95,M,10.00,M,BKN,OVC,M,M,400.00,800.00,M,M,-RA,KLEB 012045Z AUTO 35003KT 10SM -RA BKN004 OVC008 A2995 RMK MADISHF
LEB,2017-04-01 20:50,-72.3042,43.6261,M,M,M,340.00,3.00,M,29.95,M,10.00,M,OVC,M,M,M,600.00,M,M,M,-RA,KLEB 012050Z AUTO 34003KT 10SM -RA OVC006 A2995 RMK CIG 3V9  MADISHF
LEB,2017-04-01 20:53,-72.3042,43.6261,37.00,35.10,92.76,340.00,3.00,0.00,29.95,1014.80,10.00,M,OVC,M,M,M,600.00,M,M,M,-RA,KLEB 012053Z 34003KT 10SM -RA OVC006 03/02 A2995 RMK AO2 RAB43 CIG 003V009 SLP148 P0000 60001 T00280017 53015
LEB,2017-04-01 20:55,-72.3042,43.6261,M,M,M,350.00,3.00,0.00,29.95,M,10.00,M,OVC,M,M,M,600.00,M,M,M,UP,KLEB 012055Z AUTO 35003KT 10SM UP OVC006 A2995 RMK P0000 CIG 3V9  MADISHF
LEB,2017-04-01 21:00,-72.3042,43.6261,M,M,M,340.00,3.00,0.00,29.95,M,9.00,M,BKN,OVC,M,M,499.00,999.00,M,M,UP,KLEB 012100Z AUTO 34003KT 9SM UP BKN004 OVC009 A2995 RMK P0000 CIG 3V8  MADISHF
LEB,2017-04-01 21:05,-72.3042,43.6261,M,M,M,20.00,3.00,M,29.95,M,8.00,M,BKN,OVC,M,M,499.00,999.00,M,M,-RA,KLEB 012105Z AUTO 02003KT 8SM -RA BKN004 OVC009 A2995 RMK CIG 3V8  MADISHF
LEB,2017-04-01 21:10,-72.3042,43.6261,M,M,M,30.00,3.00,M,29.95,M,8.00,M,BKN,OVC,M,M,300.00,800.00,M,M,-RA,KLEB 012110Z AUTO 03003KT 8SM -RA BKN003 OVC008 A2995 RMK CIG 2V8  MADISHF
LEB,2017-04-01 21:14,-72.3042,43.6261,37.00,35.10,92.76,0.00,0.00,0.00,29.95,M,8.00,M,BKN,OVC,M,M,300.00,1000.00,M,M,-RA,KLEB 012114Z 00000KT 8SM -RA BKN003 OVC010 03/02 A2995 RMK AO2 UPB2055E01 CIG 002V008 P0000 T00280017
LEB,2017-04-01 21:15,-72.3042,43.6261,M,M,M,0.00,0.00,M,29.95,M,8.00,M,BKN,OVC,M,M,300.00,999.00,M,M,-RA,KLEB 012115Z AUTO 00000KT 8SM -RA BKN003 OVC009 A2995 RMK CIG 2V8  MADISHF
LEB,2017-04-01 21:20,-72.3042,43.6261,M,M,M,0.00,0.00,M,29.95,M,8.00,M,BKN,OVC,M,M,300.00,999.00,M,M,-RA,KLEB 012120Z AUTO 00000KT 8SM -RA BKN003 OVC009 A2995 RMK CIG 1V8  MADISHF
LEB,2017-04-01 21:25,-72.3042,43.6261,M,M,M,0.00,0.00,0.01,29.95,M,7.00,M,OVC,M,M,M,300.00,M,M,M,-RA,KLEB 012125Z AUTO 00000KT 7SM -RA OVC003 A2995 RMK P0001 CIG 1V8  MADISHF
LEB,2017-04-01 21:30,-72.3042,43.6261,M,M,M,330.00,3.00,0.01,29.96,M,6.00,M,OVC,M,M,M,300.00,M,M,M,-RA BR,KLEB 012130Z AUTO 33003KT 6SM -RA BR OVC003 A2996 RMK P0001 CIG 1V7  MADISHF
LEB,2017-04-01 21:35,-72.3042,43.6261,M,M,M,330.00,3.00,0.01,29.96,M,6.00,M,OVC,M,M,M,200.00,M,M,M,-RA BR,KLEB 012135Z AUTO 33003KT 6SM -RA BR OVC002 A2996 RMK P0001 MADISHF
LEB,2017-04-01 21:40,-72.3042,43.6261,M,M,M,340.00,3.00,0.01,29.96,M,7.00,M,OVC,M,M,M,200.00,M,M,M,M,KLEB 012140Z AUTO 34003KT 7SM OVC002 A2996 RMK P0001 CIG 1V6  MADISHF
LEB,2017-04-01 21:45,-72.3042,43.6261,M,M,M,330.00,4.00,0.01,29.96,M,7.00,M,OVC,M,M,M,400.00,M,M,M,M,KLEB 012145Z AUTO 33004KT 7SM OVC004 A2996 RMK P0001 CIG 1V8  MADISHF
LEB,2017-04-01 21:50,-72.3042,43.6261,M,M,M,330.00,4.00,0.01,29.97,M,7.00,M,OVC,M,M,M,400.00,M,M,M,M,KLEB 012150Z AUTO 33004KT 7SM OVC004 A2997 RMK P0001 CIG 2V6  MADISHF
LEB,2017-04-01 21:53,-72.3042,43.6261,36.00,35.10,96.49,330.00,5.00,0.01,29.97,1015.50,7.00,M,OVC,M,M,M,400.00,M,M,M,M,KLEB 012153Z 33005KT 7SM OVC004 02/02 A2997 RMK AO2 RAE39UPB2055E01 CIG 002V006 SLP155 P0001 T00220017
LEB,2017-04-01 21:55,-72.3042,43.6261,M,M,M,340.00,4.00,M,29.97,M,6.00,M,OVC,M,M,M,400.00,M,M,M,BR,KLEB 012155Z AUTO 34004KT 6SM BR OVC004 A2997 RMK CIG 1V6  MADISHF
LEB,2017-04-01 22:00,-72.3042,43.6261,M,M,M,360.00,3.00,M,29.97,M,5.00,M,BKN,OVC,M,M,400.00,800.00,M,M,-RA BR,KLEB 012200Z AUTO 36003KT 5SM -RA BR BKN004 OVC008 A2997 RMK CIG 1V7  MADISHF
LEB,2017-04-01 22:05,-72.3042,43.6261,M,M,M,360.00,3.00,M,29.97,M,5.00,M,BKN,OVC,M,M,600.00,1200.00,M,M,-RA BR,KLEB 012205Z AUTO 36003KT 5SM -RA BR BKN006 OVC012 A2997 RMK CIG 3V9  MADISHF
LEB,2017-04-01 22:08,-72.3042,43.6261,36.00,35.10,96.49,350.00,3.00,0.00,29.97,M,5.00,M,BKN,OVC,M,M,600.00,1200.00,M,M,-RA BR,KLEB 012208Z 35003KT 5SM -RA BR BKN006 OVC012 02/02 A2997 RMK AO2 RAB2157 CIG 003V009 P0000 T00220017
LEB,2017-04-01 22:10,-72.3042,43.6261,M,M,M,350.00,3.00,M,29.97,M,5.00,M,BKN,OVC,M,M,600.00,999.00,M,M,-RA BR,KLEB 012210Z AUTO 35003KT 5SM -RA BR BKN006 OVC009 A2997 RMK CIG 3V9  MADISHF
LEB,2017-04-01 22:15,-72.3042,43.6261,M,M,M,0.00,0.00,M,29.97,M,6.00,M,BKN,OVC,M,M,600.00,999.00,M,M,-RA BR,KLEB 012215Z AUTO 00000KT 6SM -RA BR BKN006 OVC009 A2997 RMK CIG 3V9  MADISHF
LEB,2017-04-01 22:20,-72.3042,43.6261,M,M,M,0.00,0.00,M,29.98,M,6.00,M,BKN,OVC,M,M,600.00,1100.00,M,M,-RA BR,KLEB 012220Z AUTO 00000KT 6SM -RA BR BKN006 OVC011 A2998 RMK CIG 1V9  MADISHF
LEB,2017-04-01 22:25,-72.3042,43.6261,M,M,M,0.00,0.00,M,29.98,M,7.00,M,BKN,OVC,M,M,600.00,1100.00,M,M,-RA,KLEB 012225Z AUTO 00000KT 7SM -RA BKN006 OVC011 A2998 RMK CIG 4V10  MADISHF
LEB,2017-04-01 22:30,-72.3042,43.6261,M,M,M,330.00,3.00,M,29.98,M,7.00,M,BKN,OVC,M,M,600.00,1100.00,M,M,-RA,KLEB 012230Z AUTO 33003KT 7SM -RA BKN006 OVC011 A2998 RMK CIG 3V10  MADISHF
LEB,2017-04-01 22:35,-72.3042,43.6261,M,M,M,0.00,0.00,M,29.98,M,7.00,M,BKN,OVC,M,M,800.00,1100.00,M,M,-RA,KLEB 012235Z AUTO 00000KT 7SM -RA BKN008 OVC011 A2998 RMK CIG 3V10  MADISHF
LEB,2017-04-01 22:40,-72.3042,43.6261,M,M,M,0.00,0.00,M,29.97,M,7.00,M,OVC,M,M,M,800.00,M,M,M,M,KLEB 012240Z AUTO 00000KT 7SM OVC008 A2997 RMK CIG 3V12  MADISHF
LEB,2017-04-01 22:45,-72.3042,43.6261,M,M,M,0.00,0.00,M,29.97,M,6.00,M,OVC,M,M,M,800.00,M,M,M,BR,KLEB 012245Z AUTO 00000KT 6SM BR OVC008 A2997 RMK CIG 3V12  MADISHF
LEB,2017-04-01 22:50,-72.3042,43.6261,M,M,M,0.00,0.00,M,29.97,M,5.00,M,BKN,OVC,M,M,499.00,999.00,M,M,BR,KLEB 012250Z AUTO 00000KT 5SM BR BKN004 OVC009 A2997 RMK CIG 2V8  MADISHF
LEB,2017-04-01 22:53,-72.3042,43.6261,36.00,35.10,96.49,0.00,0.00,0.00,29.97,1015.60,5.00,M,BKN,OVC,M,M,500.00,1000.00,M,M,BR,KLEB 012253Z 00000KT 5SM BR BKN005 OVC010 02/02 A2997 RMK AO2 RAB2157E38 CIG 002V006 SLP156 P0000 T00220017
LEB,2017-04-01 22:55,-72.3042,43.6261,M,M,M,0.00,0.00,M,29.97,M,4.00,M,BKN,OVC,M,M,499.00,999.00,M,M,BR,KLEB 012255Z AUTO 00000KT 4SM BR BKN004 OVC009 A2997 RMK CIG 2V7  MADISHF
LEB,2017-04-01 23:00,-72.3042,43.6261,M,M,M,0.00,0.00,M,29.97,M,4.00,M,BKN,OVC,M,M,499.00,999.00,M,M,BR,KLEB 012300Z AUTO 00000KT 4SM BR BKN004 OVC009 A2997 RMK CIG 2V6  MADISHF
LEB,2017-04-01 23:05,-72.3042,43.6261,M,M,M,0.00,0.00,M,29.97,M,5.00,M,BKN,OVC,M,M,400.00,900.00,M,M,BR,KLEB 012305Z AUTO 00000KT 5SM BR BKN004 OVC009 A2997 RMK CIG 2V8  MADISHF
LEB,2017-04-01 23:07,-72.3042,43.6261,36.00,35.10,96.49,0.00,0.00,0.00,29.97,M,5.00,M,BKN,OVC,M,M,400.00,900.00,M,M,BR,KLEB 012307Z 00000KT 5SM BR BKN004 OVC009 02/02 A2997 RMK AO2 CIG 002V008 T00220017
LEB,2017-04-01 23:10,-72.3042,43.6261,M,M,M,0.00,0.00,M,29.97,M,6.00,M,BKN,OVC,M,M,400.00,900.00,M,M,BR,KLEB 012310Z AUTO 00000KT 6SM BR BKN004 OVC009 A2997 RMK CIG 2V8  MADISHF
LEB,2017-04-01 23:15,-72.3042,43.6261,M,M,M,0.00,0.00,M,29.97,M,8.00,M,OVC,M,M,M,400.00,M,M,M,M,KLEB 012315Z AUTO 00000KT 8SM OVC004 A2997 RMK CIG 2V9  MADISHF
LEB,2017-04-01 23:20,-72.3042,43.6261,M,M,M,310.00,3.00,M,29.98,M,9.00,M,OVC,M,M,M,400.00,M,M,M,M,KLEB 012320Z AUTO 31003KT 9SM OVC004 A2998 RMK CIG 3V9  MADISHF
LEB,2017-04-01 23:25,-72.3042,43.6261,M,M,M,310.00,3.00,M,29.98,M,9.00,M,BKN,OVC,M,M,499.00,1100.00,M,M,M,KLEB 012325Z AUTO 31003KT 9SM BKN004 OVC011 A2998 RMK MADISHF
LEB,2017-04-01 23:28,-72.3042,43.6261,36.00,34.00,92.35,320.00,3.00,0.00,29.98,M,9.00,M,BKN,OVC,M,M,500.00,1100.00,M,M,M,KLEB 012328Z 32003KT 9SM BKN005 OVC011 02/01 A2998 RMK AO2 T00220011
LEB,2017-04-01 23:30,-72.3042,43.6261,M,M,M,310.00,3.00,M,29.98,M,9.00,M,BKN,OVC,M,M,499.00,1100.00,M,M,M,KLEB 012330Z AUTO 31003KT 9SM BKN004 OVC011 A2998 RMK MADISHF
LEB,2017-04-01 23:35,-72.3042,43.6261,M,M,M,0.00,0.00,M,29.98,M,10.00,M,SCT,OVC,M,M,499.00,1100.00,M,M,M,KLEB 012335Z AUTO 00000KT 10SM SCT004 OVC011 A2998 RMK MADISHF
LEB,2017-04-01 23:37,-72.3042,43.6261,36.00,35.10,96.49,0.00,0.00,0.00,29.98,M,10.00,M,SCT,OVC,M,M,500.00,1100.00,M,M,M,KLEB 012337Z 00000KT 10SM SCT005 OVC011 02/02 A2998 RMK AO2 T00220017
LEB,2017-04-01 23:40,-72.3042,43.6261,M,M,M,0.00,0.00,M,29.97,M,10.00,M,FEW,OVC,M,M,499.00,1100.00,M,M,M,KLEB 012340Z AUTO 00000KT 10SM FEW004 OVC011 A2997 RMK MADISHF
LEB,2017-04-01 23:45,-72.3042,43.6261,M,M,M,0.00,0.00,M,29.97,M,9.00,M,FEW,OVC,M,M,499.00,1100.00,M,M,M,KLEB 012345Z AUTO 00000KT 9SM FEW004 OVC011 A2997 RMK MADISHF
LEB,2017-04-01 23:50,-72.3042,43.6261,M,M,M,0.00,0.00,M,29.97,M,8.00,M,OVC,M,M,M,1100.00,M,M,M,M,KLEB 012350Z AUTO 00000KT 8SM OVC011 A2997 RMK MADISHF
LEB,2017-04-01 23:53,-72.3042,43.6261,35.10,34.00,95.71,0.00,0.00,0.00,29.97,1015.70,8.00,M,OVC,M,M,M,1100.00,M,M,M,M,KLEB 012353Z 00000KT 8SM OVC011 02/01 A2997 RMK AO2 SLP157 60002 T00170011 10033 20017 51008
LEB,2017-04-01 23:55,-72.3042,43.6261,M,M,M,0.00,0.00,M,29.97,M,7.00,M,OVC,M,M,M,1100.00,M,M,M,M,KLEB 012355Z AUTO 00000KT 7SM OVC011 A2997 RMK MADISHF
