#DEBUG: Format Typ    -> comma
#DEBUG: Time Period   -> 2017-04-01 00:00:00+00:00 2017-04-02 00:00:00+00:00
#DEBUG: Time Zone     -> Etc/UTC
#DEBUG: Data Contact   -> daryl herzmann akrherz@iastate.edu 515-294-5978
#DEBUG: Entries Found -> -1
station,valid,lon,lat,tmpf, dwpf, relh, drct, sknt, p01i, alti, mslp, vsby, gust, skyc1, skyc2, skyc3, skyc4, skyl1, skyl2, skyl3, skyl4, presentwx, metar
LLJ,2017-04-01 00:00,-114.2150,44.5228,M,M,M,30.00,10.00,M,30.06,M,10.00,M,OVC,M,M,M,6500.00,M,M,M,M,KLLJ 010000Z AUTO 03010KT 10SM OVC065 A3006 RMK MADISHF
LLJ,2017-04-01 00:05,-114.2150,44.5228,M,M,M,30.00,9.00,M,30.06,M,10.00,M,OVC,M,M,M,6500.00,M,M,M,M,KLLJ 010005Z AUTO 03009KT 10SM OVC065 A3006 RMK MADISHF
LLJ,2017-04-01 00:10,-114.2150,44.5228,M,M,M,20.00,11.00,M,30.06,M,10.00,M,OVC,M,M,M,6500.00,M,M,M,M,KLLJ 010010Z AUTO 02011KT 10SM OVC065 A3006 RMK MADISHF
LLJ,2017-04-01 00:15,-114.2150,44.5228,M,M,M,40.00,10.00,M,30.06,M,10.00,M,OVC,M,M,M,6500.00,M,M,M,M,KLLJ 010015Z AUTO 04010KT 10SM OVC065 A3006 RMK MADISHF
LLJ,2017-04-01 00:20,-114.2150,44.5228,M,M,M,30.00,9.00,M,30.06,M,10.00,M,OVC,M,M,M,6500.00,M,M,M,M,KLLJ 010020Z AUTO 03009KT 10SM OVC065 A3006 RMK MADISHF
LLJ,2017-04-01 00:25,-114.2150,44.5228,M,M,M,20.00,9.00,M,30.07,M,10.00,M,OVC,M,M,M,6500.00,M,M,M,M,KLLJ 010025Z AUTO 02009KT 10SM OVC065 A3007 RMK MADISHF
LLJ,2017-04-01 00:30,-114.2150,44.5228,M,M,M,40.00,7.00,M,30.07,M,10.00,M,OVC,M,M,M,6500.00,M,M,M,M,KLLJ 010030Z AUTO 04007KT 10SM OVC065 A3007 RMK MADISHF
LLJ,2017-04-01 00:35,-114.2150,44.5228,M,M,M,30.00,7.00,M,30.07,M,10.00,M,OVC,M,M,M,6500.00,M,M,M,M,KLLJ 010035Z AUTO 03007KT 10SM OVC065 A3007 RMK MADISHF
LLJ,2017-04-01 00:40,-114.2150,44.5228,M,M,M,20.00,8.00,M,30.07,M,10.00,M,OVC,M,M,M,6500.00,M,M,M,M,KLLJ 010040Z AUTO 02008KT 10SM OVC065 A3007 RMK MADISHF
LLJ,2017-04-01 00:45,-114.2150,44.5228,M,M,M,20.00,8.00,M,30.06,M,10.00,M,OVC,M,M,M,6500.00,M,M,M,M,KLLJ 010045Z AUTO 02008KT 10SM OVC065 A3006 RMK MADISHF
LLJ,2017-04-01 00:55,-114.2150,44.5228,48.90,33.10,54.24,10.00,8.00,0.00,30.07,1016.90,10.00,M,OVC,M,M,M,7000.00,M,M,M,M,KLLJ 010055Z AUTO 01008KT 10SM OVC070 09/01 A3007 RMK AO2 SLP169 T00940006
LLJ,2017-04-01 01:00,-114.2150,44.5228,M,M,M,360.00,8.00,M,30.07,M,10.00,M,BKN,M,M,M,7000.00,M,M,M,M,KLLJ 010100Z AUTO 36008KT 10SM BKN070 A3007 RMK MADISHF
LLJ,2017-04-01 01:05,-114.2150,44.5228,M,M,M,360.00,8.00,M,30.07,M,10.00,M,BKN,M,M,M,7000.00,M,M,M,M,KLLJ 010105Z AUTO 36008KT 10SM BKN070 A3007 RMK MADISHF
LLJ,2017-04-01 01:10,-114.2150,44.5228,M,M,M,360.00,6.00,M,30.07,M,10.00,M,OVC,M,M,M,7000.00,M,M,M,M,KLLJ 010110Z AUTO 36006KT 10SM OVC070 A3007 RMK MADISHF
LLJ,2017-04-01 01:15,-114.2150,44.5228,M,M,M,340.00,8.00,M,30.07,M,10.00,M,OVC,M,M,M,7000.00,M,M,M,M,KLLJ 010115Z AUTO 34008KT 10SM OVC070 A3007 RMK MADISHF
LLJ,2017-04-01 01:20,-114.2150,44.5228,M,M,M,340.00,8.00,M,30.07,M,10.00,M,OVC,M,M,M,6500.00,M,M,M,M,KLLJ 010120Z AUTO 34008KT 10SM OVC065 A3007 RMK MADISHF
LLJ,2017-04-01 01:25,-114.2150,44.5228,M,M,M,340.00,8.00,M,30.07,M,10.00,M,OVC,M,M,M,6500.00,M,M,M,M,KLLJ 010125Z AUTO 34008KT 10SM OVC065 A3007 RMK MADISHF
LLJ,2017-04-01 01:30,-114.2150,44.5228,M,M,M,340.00,8.00,M,30.07,M,10.00,M,OVC,M,M,M,6500.00,M,M,M,M,KLLJ 010130Z AUTO 34008KT 10SM OVC065 A3007 RMK MADISHF
LLJ,2017-04-01 01:35,-114.2150,44.5228,M,M,M,330.00,7.00,M,30.07,M,10.00,M,OVC,M,M,M,6500.00,M,M,M,M,KLLJ 010135Z AUTO 33007KT 10SM OVC065 A3007 RMK MADISHF
LLJ,2017-04-01 01:40,-114.2150,44.5228,M,M,M,340.00,7.00,M,30.07,M,10.00,M,OVC,M,M,M,6500.00,M,M,M,M,KLLJ 010140Z AUTO 34007KT 10SM OVC065 A3007 RMK MADISHF
LLJ,2017-04-01 01:45,-114.2150,44.5228,M,M,M,330.00,7.00,M,30.07,M,10.00,M,OVC,M,M,M,6500.00,M,M,M,M,KLLJ 010145Z AUTO 33007KT 10SM OVC065 A3007 RMK MADISHF
LLJ,2017-04-01 01:50,-114.2150,44.5228,M,M,M,340.00,8.00,M,30.07,M,10.00,M,OVC,M,M,M,7000.00,M,M,M,M,KLLJ 010150Z AUTO 34008KT 10SM OVC070 A3007 RMK MADISHF
LLJ,2017-04-01 01:55,-114.2150,44.5228,46.00,33.10,60.49,330.00,7.00,0.00,30.07,1017.40,10.00,M,OVC,M,M,M,7000.00,M,M,M,M,KLLJ 010155Z AUTO 33007KT 10SM OVC070 08/01 A3007 RMK AO2 SLP174 T00780006
LLJ,2017-04-01 02:00,-114.2150,44.5228,M,M,M,330.00,7.00,M,30.08,M,10.00,M,OVC,M,M,M,7000.00,M,M,M,M,KLLJ 010200Z AUTO 33007KT 10SM OVC070 A3008 RMK MADISHF
LLJ,2017-04-01 02:05,-114.2150,44.5228,M,M,M,330.00,8.00,M,30.08,M,10.00,M,OVC,M,M,M,7000.00,M,M,M,M,KLLJ 010205Z AUTO 33008KT 10SM OVC070 A3008 RMK MADISHF
LLJ,2017-04-01 02:10,-114.2150,44.5228,M,M,M,330.00,8.00,M,30.08,M,10.00,M,OVC,M,M,M,7000.00,M,M,M,M,KLLJ 010210Z AUTO 33008KT 10SM OVC070 A3008 RMK MADISHF
LLJ,2017-04-01 02:20,-114.2150,44.5228,M,M,M,340.00,7.00,M,30.08,M,10.00,M,OVC,M,M,M,7000.00,M,M,M,M,KLLJ 010220Z AUTO 34007KT 10SM OVC070 A3008 RMK MADISHF
LLJ,2017-04-01 02:25,-114.2150,44.5228,M,M,M,330.00,7.00,M,30.08,M,10.00,M,OVC,M,M,M,7000.00,M,M,M,M,KLLJ 010225Z AUTO 33007KT 10SM OVC070 A3008 RMK MADISHF
LLJ,2017-04-01 02:30,-114.2150,44.5228,M,M,M,340.00,6.00,M,30.08,M,10.00,M,OVC,M,M,M,7000.00,M,M,M,M,KLLJ 010230Z AUTO 34006KT 10SM OVC070 A3008 RMK MADISHF
LLJ,2017-04-01 02:35,-114.2150,44.5228,M,M,M,330.00,6.00,M,30.08,M,10.00,M,OVC,M,M,M,7000.00,M,M,M,M,KLLJ 010235Z AUTO 33006KT 10SM OVC070 A3008 RMK MADISHF
LLJ,2017-04-01 02:45,-114.2150,44.5228,M,M,M,330.00,7.00,M,30.09,M,10.00,M,OVC,M,M,M,7000.00,M,M,M,M,KLLJ 010245Z AUTO 33007KT 10SM OVC070 A3009 RMK MADISHF
LLJ,2017-04-01 02:50,-114.2150,44.5228,M,M,M,320.00,6.00,M,30.09,M,10.00,M,OVC,M,M,M,7000.00,M,M,M,M,KLLJ 010250Z AUTO 32006KT 10SM OVC070 A3009 RMK MADISHF
LLJ,2017-04-01 02:55,-114.2150,44.5228,44.10,33.10,65.02,320.00,7.00,0.00,30.09,1018.10,10.00,M,OVC,M,M,M,7000.00,M,M,M,M,KLLJ 010255Z AUTO 32007KT 10SM OVC070 07/01 A3009 RMK AO2 SLP181 T00670006 53007
LLJ,2017-04-01 03:00,-114.2150,44.5228,M,M,M,320.00,6.00,M,30.09,M,10.00,M,OVC,M,M,M,7000.00,M,M,M,M,KLLJ 010300Z AUTO 32006KT 10SM OVC070 A3009 RMK MADISHF
LLJ,2017-04-01 03:05,-114.2150,44.5228,M,M,M,310.00,7.00,M,30.09,M,10.00,M,OVC,M,M,M,7000.00,M,M,M,M,KLLJ 010305Z AUTO 31007KT 10SM OVC070 A3009 RMK MADISHF
LLJ,2017-04-01 03:10,-114.2150,44.5228,M,M,M,320.00,7.00,M,30.09,M,10.00,M,OVC,M,M,M,7000.00,M,M,M,M,KLLJ 010310Z AUTO 32007KT 10SM OVC070 A3009 RMK MADISHF
LLJ,2017-04-01 03:15,-114.2150,44.5228,M,M,M,320.00,7.00,M,30.09,M,10.00,M,OVC,M,M,M,7000.00,M,M,M,M,KLLJ 010315Z AUTO 32007KT 10SM OVC070 A3009 RMK MADISHF
LLJ,2017-04-01 03:20,-114.2150,44.5228,M,M,M,310.00,7.00,M,30.10,M,10.00,M,OVC,M,M,M,7000.00,M,M,M,M,KLLJ 010320Z AUTO 31007KT 10SM OVC070 A3010 RMK MADISHF
LLJ,2017-04-01 03:35,-114.2150,44.5228,M,M,M,310.00,8.00,M,30.10,M,10.00,M,OVC,M,M,M,7000.00,M,M,M,M,KLLJ 010335Z AUTO 31008KT 10SM OVC070 A3010 RMK MADISHF
LLJ,2017-04-01 03:40,-114.2150,44.5228,M,M,M,320.00,8.00,M,30.10,M,10.00,M,OVC,M,M,M,7000.00,M,M,M,M,KLLJ 010340Z AUTO 32008KT 10SM OVC070 A3010 RMK MADISHF
LLJ,2017-04-01 03:45,-114.2150,44.5228,M,M,M,320.00,7.00,M,30.10,M,10.00,M,OVC,M,M,M,6500.00,M,M,M,M,KLLJ 010345Z AUTO 32007KT 10SM OVC065 A3010 RMK MADISHF
LLJ,2017-04-01 03:50,-114.2150,44.5228,M,M,M,310.00,7.00,M,30.11,M,10.00,M,OVC,M,M,M,6500.00,M,M,M,M,KLLJ 010350Z AUTO 31007KT 10SM OVC065 A3011 RMK MADISHF
LLJ,2017-04-01 03:55,-114.2150,44.5228,44.10,32.00,62.21,330.00,7.00,0.00,30.11,1018.80,10.00,M,OVC,M,M,M,6500.00,M,M,M,M,KLLJ 010355Z AUTO 33007KT 10SM OVC065 07/00 A3011 RMK AO2 SLP188 T00670000
LLJ,2017-04-01 04:00,-114.2150,44.5228,M,M,M,310.00,6.00,M,30.11,M,10.00,M,OVC,M,M,M,6500.00,M,M,M,M,KLLJ 010400Z AUTO 31006KT 10SM OVC065 A3011 RMK MADISHF
LLJ,2017-04-01 04:05,-114.2150,44.5228,M,M,M,300.00,7.00,M,30.12,M,10.00,M,BKN,M,M,M,6500.00,M,M,M,M,KLLJ 010405Z AUTO 30007KT 10SM BKN065 A3012 RMK MADISHF
LLJ,2017-04-01 04:10,-114.2150,44.5228,M,M,M,320.00,5.00,M,30.12,M,10.00,M,BKN,M,M,M,6500.00,M,M,M,M,KLLJ 010410Z AUTO 32005KT 10SM BKN065 A3012 RMK MADISHF
LLJ,2017-04-01 04:15,-114.2150,44.5228,M,M,M,310.00,5.00,M,30.12,M,10.00,M,BKN,M,M,M,6500.00,M,M,M,M,KLLJ 010415Z AUTO 31005KT 10SM BKN065 A3012 RMK MADISHF
LLJ,2017-04-01 04:20,-114.2150,44.5228,M,M,M,310.00,8.00,M,30.12,M,10.00,M,OVC,M,M,M,6500.00,M,M,M,M,KLLJ 010420Z AUTO 31008KT 10SM OVC065 A3012 RMK MADISHF
LLJ,2017-04-01 04:30,-114.2150,44.5228,M,M,M,330.00,6.00,M,30.12,M,10.00,M,BKN,M,M,M,6500.00,M,M,M,M,KLLJ 010430Z AUTO 33006KT 10SM BKN065 A3012 RMK MADISHF
LLJ,2017-04-01 04:35,-114.2150,44.5228,M,M,M,320.00,8.00,M,30.12,M,10.00,M,BKN,M,M,M,6500.00,M,M,M,M,KLLJ 010435Z AUTO 32008KT 10SM BKN065 A3012 RMK MADISHF
LLJ,2017-04-01 04:40,-114.2150,44.5228,M,M,M,320.00,6.00,M,30.12,M,10.00,M,SCT,M,M,M,6500.00,M,M,M,M,KLLJ 010440Z AUTO 32006KT 10SM SCT065 A3012 RMK MADISHF
LLJ,2017-04-01 04:45,-114.2150,44.5228,M,M,M,320.00,7.00,M,30.12,M,10.00,M,SCT,M,M,M,6500.00,M,M,M,M,KLLJ 010445Z AUTO 32007KT 10SM SCT065 A3012 RMK MADISHF
LLJ,2017-04-01 04:50,-114.2150,44.5228,M,M,M,320.00,6.00,M,30.12,M,10.00,M,FEW,M,M,M,6500.00,M,M,M,M,KLLJ 010450Z AUTO 32006KT 10SM FEW065 A3012 RMK MADISHF
LLJ,2017-04-01 04:55,-114.2150,44.5228,41.00,30.90,67.03,350.00,5.00,0.00,30.12,1019.10,10.00,M,CLR,M,M,M,M,M,M,M,M,KLLJ 010455Z AUTO 35005KT 10SM CLR 05/M01 A3012 RMK AO2 SLP191 T00501006
LLJ,2017-04-01 05:00,-114.2150,44.5228,M,M,M,340.00,6.00,M,30.12,M,10.00,M,CLR,M,M,M,M,M,M,M,M,KLLJ 010500Z AUTO 34006KT 10SM CLR A3012 RMK MADISHF
LLJ,2017-04-01 05:05,-114.2150,44.5228,M,M,M,340.00,6.00,M,30.12,M,10.00,M,CLR,M,M,M,M,M,M,M,M,KLLJ 010505Z AUTO 34006KT 10SM CLR A3012 RMK MADISHF
LLJ,2017-04-01 05:10,-114.2150,44.5228,M,M,M,340.00,6.00,M,30.12,M,10.00,M,CLR,M,M,M,M,M,M,M,M,KLLJ 010510Z AUTO 34006KT 10SM CLR A3012 RMK MADISHF
LLJ,2017-04-01 05:20,-114.2150,44.5228,M,M,M,360.00,3.00,M,30.12,M,10.00,M,CLR,M,M,M,M,M,M,M,M,KLLJ 010520Z AUTO 36003KT 10SM CLR A3012 RMK MADISHF
LLJ,2017-04-01 05:25,-114.2150,44.5228,M,M,M,350.00,3.00,M,30.12,M,10.00,M,CLR,M,M,M,M,M,M,M,M,KLLJ 010525Z AUTO 35003KT 10SM CLR A3012 RMK MADISHF
LLJ,2017-04-01 05:30,-114.2150,44.5228,M,M,M,310.00,4.00,M,30.12,M,10.00,M,CLR,M,M,M,M,M,M,M,M,KLLJ 010530Z AUTO 31004KT 10SM CLR A3012 RMK MADISHF
LLJ,2017-04-01 05:35,-114.2150,44.5228,M,M,M,300.00,5.00,M,30.12,M,10.00,M,CLR,M,M,M,M,M,M,M,M,KLLJ 010535Z AUTO 30005KT 10SM CLR A3012 RMK MADISHF
LLJ,2017-04-01 05:40,-114.2150,44.5228,M,M,M,330.00,3.00,M,30.12,M,10.00,M,CLR,M,M,M,M,M,M,M,M,KLLJ 010540Z AUTO 33003KT 10SM CLR A3012 RMK VRB03KT  MADISHF
LLJ,2017-04-01 05:45,-114.2150,44.5228,M,M,M,310.00,5.00,M,30.13,M,10.00,M,CLR,M,M,M,M,M,M,M,M,KLLJ 010545Z AUTO 31005KT 10SM CLR A3013 RMK MADISHF
LLJ,2017-04-01 05:50,-114.2150,44.5228,M,M,M,310.00,5.00,M,30.13,M,10.00,M,CLR,M,M,M,M,M,M,M,M,KLLJ 010550Z AUTO 31005KT 10SM CLR A3013 RMK MADISHF
LLJ,2017-04-01 05:55,-114.2150,44.5228,39.00,30.00,69.85,310.00,4.00,0.00,30.13,1019.60,10.00,M,CLR,M,M,M,M,M,M,M,M,KLLJ 010555Z AUTO 31004KT 10SM CLR 04/M01 A3013 RMK AO2 SLP196 T00391011 10100 20028 51013
LLJ,2017-04-01 06:00,-114.2150,44.5228,M,M,M,300.00,5.00,M,30.13,M,10.00,M,CLR,M,M,M,M,M,M,M,M,KLLJ 010600Z AUTO 30005KT 10SM CLR A3013 RMK MADISHF
LLJ,2017-04-01 06:10,-114.2150,44.5228,M,M,M,340.00,4.00,M,30.13,M,10.00,M,CLR,M,M,M,M,M,M,M,M,KLLJ 010610Z AUTO 34004KT 10SM CLR A3013 RMK MADISHF
LLJ,2017-04-01 06:15,-114.2150,44.5228,M,M,M,350.00,4.00,M,30.13,M,10.00,M,CLR,M,M,M,M,M,M,M,M,KLLJ 010615Z AUTO 35004KT 10SM CLR A3013 RMK MADISHF
LLJ,2017-04-01 06:20,-114.2150,44.5228,M,M,M,20.00,3.00,M,30.13,M,10.00,M,CLR,M,M,M,M,M,M,M,M,KLLJ 010620Z AUTO 02003KT 10SM CLR A3013 RMK MADISHF
LLJ,2017-04-01 06:25,-114.2150,44.5228,M,M,M,30.00,3.00,M,30.13,M,10.00,M,CLR,M,M,M,M,M,M,M,M,KLLJ 010625Z AUTO 03003KT 10SM CLR A3013 RMK MADISHF
LLJ,2017-04-01 06:35,-114.2150,44.5228,M,M,M,0.00,0.00,M,30.13,M,10.00,M,CLR,M,M,M,M,M,M,M,M,KLLJ 010635Z AUTO 00000KT 10SM CLR A3013 RMK MADISHF
LLJ,2017-04-01 06:40,-114.2150,44.5228,M,M,M,0.00,0.00,M,30.13,M,10.00,M,CLR,M,M,M,M,M,M,M,M,KLLJ 010640Z AUTO 00000KT 10SM CLR A3013 RMK MADISHF
LLJ,2017-04-01 06:45,-114.2150,44.5228,M,M,M,170.00,5.00,M,30.13,M,9.00,M,CLR,M,M,M,M,M,M,M,M,KLLJ 010645Z AUTO 17005KT 9SM CLR A3013 RMK MADISHF
LLJ,2017-04-01 06:50,-114.2150,44.5228,M,M,M,160.00,5.00,M,30.13,M,8.00,M,CLR,M,M,M,M,M,M,M,M,KLLJ 010650Z AUTO 16005KT 8SM CLR A3013 RMK MADISHF
LLJ,2017-04-01 06:55,-114.2150,44.5228,36.00,30.00,78.60,150.00,5.00,0.00,30.13,1019.50,9.00,M,CLR,M,M,M,M,M,M,M,M,KLLJ 010655Z AUTO 15005KT 9SM CLR 02/M01 A3013 RMK AO2 SLP195 T00221011 401060022
LLJ,2017-04-01 07:00,-114.2150,44.5228,M,M,M,200.00,3.00,M,30.13,M,10.00,M,CLR,M,M,M,M,M,M,M,M,KLLJ 010700Z AUTO 20003KT 10SM CLR A3013 RMK VRB03KT  MADISHF
LLJ,2017-04-01 07:05,-114.2150,44.5228,M,M,M,170.00,4.00,M,30.13,M,10.00,M,CLR,M,M,M,M,M,M,M,M,KLLJ 010705Z AUTO 17004KT 10SM CLR A3013 RMK MADISHF
LLJ,2017-04-01 07:10,-114.2150,44.5228,M,M,M,220.00,4.00,M,30.13,M,10.00,M,CLR,M,M,M,M,M,M,M,M,KLLJ 010710Z AUTO 22004KT 10SM CLR A3013 RMK MADISHF
LLJ,2017-04-01 07:15,-114.2150,44.5228,M,M,M,200.00,3.00,M,30.13,M,10.00,M,CLR,M,M,M,M,M,M,M,M,KLLJ 010715Z AUTO 20003KT 10SM CLR A3013 RMK MADISHF
LLJ,2017-04-01 07:20,-114.2150,44.5228,M,M,M,0.00,0.00,M,30.13,M,10.00,M,CLR,M,M,M,M,M,M,M,M,KLLJ 010720Z AUTO 00000KT 10SM CLR A3013 RMK MADISHF
LLJ,2017-04-01 07:25,-114.2150,44.5228,M,M,M,210.00,3.00,M,30.13,M,10.00,M,CLR,M,M,M,M,M,M,M,M,KLLJ 010725Z AUTO 21003KT 10SM CLR A3013 RMK MADISHF
LLJ,2017-04-01 07:30,-114.2150,44.5228,M,M,M,0.00,0.00,M,30.14,M,10.00,M,CLR,M,M,M,M,M,M,M,M,KLLJ 010730Z AUTO 00000KT 10SM CLR A3014 RMK MADISHF
LLJ,2017-04-01 07:40,-114.2150,44.5228,M,M,M,150.00,3.00,M,30.14,M,10.00,M,CLR,M,M,M,M,M,M,M,M,KLLJ 010740Z AUTO 15003KT 10SM CLR A3014 RMK MADISHF
LLJ,2017-04-01 07:45,-114.2150,44.5228,M,M,M,0.00,0.00,M,30.14,M,10.00,M,CLR,M,M,M,M,M,M,M,M,KLLJ 010745Z AUTO 00000KT 10SM CLR A3014 RMK MADISHF
LLJ,2017-04-01 07:50,-114.2150,44.5228,M,M,M,150.00,3.00,M,30.15,M,10.00,M,CLR,M,M,M,M,M,M,M,M,KLLJ 010750Z AUTO 15003KT 10SM CLR A3015 RMK MADISHF
LLJ,2017-04-01 07:55,-114.2150,44.5228,34.00,30.00,85.11,170.00,3.00,0.00,30.15,1020.40,10.00,M,CLR,M,M,M,M,M,M,M,M,KLLJ 010755Z AUTO 17003KT 10SM CLR 01/M01 A3015 RMK AO2 SLP204 T00111011
LLJ,2017-04-01 08:00,-114.2150,44.5228,M,M,M,160.00,3.00,M,30.15,M,10.00,M,CLR,M,M,M,M,M,M,M,M,KLLJ 010800Z AUTO 16003KT 10SM CLR A3015 RMK MADISHF
LLJ,2017-04-01 08:05,-114.2150,44.5228,M,M,M,170.00,3.00,M,30.15,M,10.00,M,CLR,M,M,M,M,M,M,M,M,KLLJ 010805Z AUTO 17003KT 10SM CLR A3015 RMK MADISHF
LLJ,2017-04-01 08:10,-114.2150,44.5228,M,M,M,200.00,3.00,M,30.15,M,10.00,M,CLR,M,M,M,M,M,M,M,M,KLLJ 010810Z AUTO 20003KT 10SM CLR A3015 RMK MADISHF
LLJ,2017-04-01 08:20,-114.2150,44.5228,M,M,M,0.00,0.00,M,30.15,M,10.00,M,CLR,M,M,M,M,M,M,M,M,KLLJ 010820Z AUTO 00000KT 10SM CLR A3015 RMK MADISHF
LLJ,2017-04-01 08:25,-114.2150,44.5228,M,M,M,190.00,3.00,M,30.15,M,10.00,M,CLR,M,M,M,M,M,M,M,M,KLLJ 010825Z AUTO 19003KT 10SM CLR A3015 RMK MADISHF
LLJ,2017-04-01 08:30,-114.2150,44.5228,M,M,M,200.00,3.00,M,30.15,M,10.00,M,CLR,M,M,M,M,M,M,M,M,KLLJ 010830Z AUTO 20003KT 10SM CLR A3015 RMK MADISHF
LLJ,2017-04-01 08:35,-114.2150,44.5228,M,M,M,160.00,4.00,M,30.15,M,10.00,M,CLR,M,M,M,M,M,M,M,M,KLLJ 010835Z AUTO 16004KT 10SM CLR A3015 RMK MADISHF
LLJ,2017-04-01 08:45,-114.2150,44.5228,M,M,M,160.00,4.00,M,30.15,M,10.00,M,CLR,M,M,M,M,M,M,M,M,KLLJ 010845Z AUTO 16004KT 10SM CLR A3015 RMK MADISHF
LLJ,2017-04-01 08:50,-114.2150,44.5228,M,M,M,150.00,5.00,M,30.15,M,10.00,M,CLR,M,M,M,M,M,M,M,M,KLLJ 010850Z AUTO 15005KT 10SM CLR A3015 RMK MADISHF
LLJ,2017-04-01 08:55,-114.2150,44.5228,32.00,28.90,88.17,190.00,3.00,0.00,30.15,1020.40,10.00,M,CLR,M,M,M,M,M,M,M,M,KLLJ 010855Z AUTO 19003KT 10SM CLR 00/M02 A3015 RMK AO2 SLP204 T00001017 50005
LLJ,2017-04-01 09:00,-114.2150,44.5228,M,M,M,240.00,4.00,M,30.14,M,10.00,M,CLR,M,M,M,M,M,M,M,M,KLLJ 010900Z AUTO 24004KT 10SM CLR A3014 RMK MADISHF
LLJ,2017-04-01 09:10,-114.2150,44.5228,M,M,M,290.00,4.00,M,30.15,M,10.00,M,CLR,M,M,M,M,M,M,M,M,KLLJ 010910Z AUTO 29004KT 10SM CLR A3015 RMK MADISHF
LLJ,2017-04-01 09:15,-114.2150,44.5228,M,M,M,330.00,4.00,M,30.14,M,10.00,M,CLR,M,M,M,M,M,M,M,M,KLLJ 010915Z AUTO 33004KT 10SM CLR A3014 RMK MADISHF
LLJ,2017-04-01 09:20,-114.2150,44.5228,M,M,M,30.00,3.00,M,30.15,M,10.00,M,CLR,M,M,M,M,M,M,M,M,KLLJ 010920Z AUTO 03003KT 10SM CLR A3015 RMK MADISHF
LLJ,2017-04-01 09:25,-114.2150,44.5228,M,M,M,40.00,3.00,M,30.14,M,10.00,M,CLR,M,M,M,M,M,M,M,M,KLLJ 010925Z AUTO 04003KT 10SM CLR A3014 RMK MADISHF
LLJ,2017-04-01 09:30,-114.2150,44.5228,M,M,M,360.00,4.00,M,30.14,M,10.00,M,CLR,M,M,M,M,M,M,M,M,KLLJ 010930Z AUTO 36004KT 10SM CLR A3014 RMK MADISHF
LLJ,2017-04-01 09:35,-114.2150,44.5228,M,M,M,20.00,4.00,M,30.14,M,10.00,M,CLR,M,M,M,M,M,M,M,M,KLLJ 010935Z AUTO 02004KT 10SM CLR A3014 RMK MADISHF
LLJ,2017-04-01 09:40,-114.2150,44.5228,M,M,M,330.00,3.00,M,30.14,M,10.00,M,CLR,M,M,M,M,M,M,M,M,KLLJ 010940Z AUTO 33003KT 10SM CLR A3014 RMK MADISHF
LLJ,2017-04-01 09:45,-114.2150,44.5228,M,M,M,340.00,3.00,M,30.14,M,10.00,M,CLR,M,M,M,M,M,M,M,M,KLLJ 010945Z AUTO 34003KT 10SM CLR A3014 RMK MADISHF
LLJ,2017-04-01 09:55,-114.2150,44.5228,30.90,28.00,88.84,0.00,0.00,0.00,30.14,1020.30,10.00,M,CLR,M,M,M,M,M,M,M,M,KLLJ 010955Z AUTO 00000KT 10SM CLR M01/M02 A3014 RMK AO2 SLP203 T10061022
LLJ,2017-04-01 10:00,-114.2150,44.5228,M,M,M,0.00,0.00,M,30.15,M,10.00,M,CLR,M,M,M,M,M,M,M,M,KLLJ 011000Z AUTO 00000KT 10SM CLR A3015 RMK MADISHF
LLJ,2017-04-01 10:05,-114.2150,44.5228,M,M,M,0.00,0.00,M,30.15,M,10.00,M,CLR,M,M,M,M,M,M,M,M,KLLJ 011005Z AUTO 00000KT 10SM CLR A3015 RMK MADISHF
LLJ,2017-04-01 10:10,-114.2150,44.5228,M,M,M,330.00,3.00,M,30.15,M,10.00,M,CLR,M,M,M,M,M,M,M,M,KLLJ 011010Z AUTO 33003KT 10SM CLR A3015 RMK MADISHF
LLJ,2017-04-01 10:15,-114.2150,44.5228,M,M,M,330.00,3.00,M,30.15,M,10.00,M,CLR,M,M,M,M,M,M,M,M,KLLJ 011015Z AUTO 33003KT 10SM CLR A3015 RMK MADISHF
LLJ,2017-04-01 10:20,-114.2150,44.5228,M,M,M,310.00,4.00,M,30.15,M,10.00,M,CLR,M,M,M,M,M,M,M,M,KLLJ 011020Z AUTO 31004KT 10SM CLR A3015 RMK MADISHF
LLJ,2017-04-01 10:25,-114.2150,44.5228,M,M,M,320.00,3.00,M,30.14,M,10.00,M,CLR,M,M,M,M,M,M,M,M,KLLJ 011025Z AUTO 32003KT 10SM CLR A3014 RMK MADISHF
LLJ,2017-04-01 10:30,-114.2150,44.5228,M,M,M,0.00,0.00,M,30.15,M,10.00,M,CLR,M,M,M,M,M,M,M,M,KLLJ 011030Z AUTO 00000KT 10SM CLR A3015 RMK MADISHF
LLJ,2017-04-01 10:40,-114.2150,44.5228,M,M,M,0.00,0.00,M,30.15,M,10.00,M,CLR,M,M,M,M,M,M,M,M,KLLJ 011040Z AUTO 00000KT 10SM CLR A3015 RMK MADISHF
LLJ,2017-04-01 10:45,-114.2150,44.5228,M,M,M,0.00,0.00,M,30.15,M,10.00,M,CLR,M,M,M,M,M,M,M,M,KLLJ 011045Z AUTO 00000KT 10SM CLR A3015 RMK MADISHF
LLJ,2017-04-01 10:50,-114.2150,44.5228,M,M,M,0.00,0.00,M,30.15,M,10.00,M,CLR,M,M,M,M,M,M,M,M,KLLJ 011050Z AUTO 00000KT 10SM CLR A3015 RMK MADISHF
LLJ,2017-04-01 10:55,-114.2150,44.5228,30.00,28.00,92.15,210.00,3.00,0.00,30.15,1020.70,10.00,M,CLR,M,M,M,M,M,M,M,M,KLLJ 011055Z AUTO 21003KT 10SM CLR M01/M02 A3015 RMK AO2 SLP207 T10111022
LLJ,2017-04-01 11:00,-114.2150,44.5228,M,M,M,200.00,4.00,M,30.15,M,10.00,M,CLR,M,M,M,M,M,M,M,M,KLLJ 011100Z AUTO 20004KT 10SM CLR A3015 RMK MADISHF
LLJ,2017-04-01 11:05,-114.2150,44.5228,M,M,M,0.00,0.00,M,30.15,M,10.00,M,CLR,M,M,M,M,M,M,M,M,KLLJ 011105Z AUTO 00000KT 10SM CLR A3015 RMK MADISHF
LLJ,2017-04-01 11:10,-114.2150,44.5228,M,M,M,0.00,0.00,M,30.15,M,10.00,M,CLR,M,M,M,M,M,M,M,M,KLLJ 011110Z AUTO 00000KT 10SM CLR A3015 RMK MADISHF
LLJ,2017-04-01 11:15,-114.2150,44.5228,M,M,M,0.00,0.00,M,30.15,M,10.00,M,CLR,M,M,M,M,M,M,M,M,KLLJ 011115Z AUTO 00000KT 10SM CLR A3015 RMK MADISHF
LLJ,2017-04-01 11:25,-114.2150,44.5228,M,M,M,0.00,0.00,M,30.15,M,10.00,M,CLR,M,M,M,M,M,M,M,M,KLLJ 011125Z AUTO 00000KT 10SM CLR A3015 RMK MADISHF
LLJ,2017-04-01 11:30,-114.2150,44.5228,M,M,M,140.00,4.00,M,30.14,M,10.00,M,CLR,M,M,M,M,M,M,M,M,KLLJ 011130Z AUTO 14004KT 10SM CLR A3014 RMK MADISHF
LLJ,2017-04-01 11:35,-114.2150,44.5228,M,M,M,140.00,3.00,M,30.14,M,10.00,M,CLR,M,M,M,M,M,M,M,M,KLLJ 011135Z AUTO 14003KT 10SM CLR A3014 RMK MADISHF
LLJ,2017-04-01 11:40,-114.2150,44.5228,M,M,M,150.00,3.00,M,30.14,M,10.00,M,CLR,M,M,M,M,M,M,M,M,KLLJ 011140Z AUTO 15003KT 10SM CLR A3014 RMK MADISHF
LLJ,2017-04-01 11:50,-114.2150,44.5228,M,M,M,0.00,0.00,M,30.15,M,10.00,M,CLR,M,M,M,M,M,M,M,M,KLLJ 011150Z AUTO 00000KT 10SM CLR A3015 RMK MADISHF
LLJ,2017-04-01 11:55,-114.2150,44.5228,30.00,28.00,92.15,0.00,0.00,0.00,30.16,1021.10,10.00,M,CLR,M,M,M,M,M,M,M,M,KLLJ 011155Z AUTO 00000KT 10SM CLR M01/M02 A3016 RMK AO2 SLP211 T10111022 10044 21011 53004
LLJ,2017-04-01 12:00,-114.2150,44.5228,M,M,M,0.00,0.00,M,30.16,M,10.00,M,CLR,M,M,M,M,M,M,M,M,KLLJ 011200Z AUTO 00000KT 10SM CLR A3016 RMK MADISHF
LLJ,2017-04-01 12:05,-114.2150,44.5228,M,M,M,0.00,0.00,M,30.15,M,10.00,M,CLR,M,M,M,M,M,M,M,M,KLLJ 011205Z AUTO 00000KT 10SM CLR A3015 RMK MADISHF
LLJ,2017-04-01 12:10,-114.2150,44.5228,M,M,M,0.00,0.00,M,30.16,M,10.00,M,CLR,M,M,M,M,M,M,M,M,KLLJ 011210Z AUTO 00000KT 10SM CLR A3016 RMK MADISHF
LLJ,2017-04-01 12:15,-114.2150,44.5228,M,M,M,0.00,0.00,M,30.16,M,10.00,M,CLR,M,M,M,M,M,M,M,M,KLLJ 011215Z AUTO 00000KT 10SM CLR A3016 RMK MADISHF
LLJ,2017-04-01 12:20,-114.2150,44.5228,M,M,M,0.00,0.00,M,30.16,M,10.00,M,CLR,M,M,M,M,M,M,M,M,KLLJ 011220Z AUTO 00000KT 10SM CLR A3016 RMK MADISHF
LLJ,2017-04-01 12:30,-114.2150,44.5228,M,M,M,240.00,3.00,M,30.16,M,10.00,M,CLR,M,M,M,M,M,M,M,M,KLLJ 011230Z AUTO 24003KT 10SM CLR A3016 RMK MADISHF
LLJ,2017-04-01 12:35,-114.2150,44.5228,M,M,M,140.00,3.00,M,30.16,M,10.00,M,CLR,M,M,M,M,M,M,M,M,KLLJ 011235Z AUTO 14003KT 10SM CLR A3016 RMK MADISHF
LLJ,2017-04-01 12:40,-114.2150,44.5228,M,M,M,160.00,4.00,M,30.16,M,10.00,M,CLR,M,M,M,M,M,M,M,M,KLLJ 011240Z AUTO 16004KT 10SM CLR A3016 RMK MADISHF
LLJ,2017-04-01 12:45,-114.2150,44.5228,M,M,M,160.00,3.00,M,30.15,M,10.00,M,CLR,M,M,M,M,M,M,M,M,KLLJ 011245Z AUTO 16003KT 10SM CLR A3015 RMK MADISHF
LLJ,2017-04-01 12:50,-114.2150,44.5228,M,M,M,0.00,0.00,M,30.15,M,10.00,M,CLR,M,M,M,M,M,M,M,M,KLLJ 011250Z AUTO 00000KT 10SM CLR A3015 RMK MADISHF
LLJ,2017-04-01 12:55,-114.2150,44.5228,28.90,27.00,92.49,0.00,0.00,0.00,30.15,1021.00,10.00,M,CLR,M,M,M,M,M,M,M,M,KLLJ 011255Z AUTO 00000KT 10SM CLR M02/M03 A3015 RMK AO2 SLP210 T10171028
LLJ,2017-04-01 13:00,-114.2150,44.5228,M,M,M,0.00,0.00,M,30.15,M,10.00,M,CLR,M,M,M,M,M,M,M,M,KLLJ 011300Z AUTO 00000KT 10SM CLR A3015 RMK MADISHF
LLJ,2017-04-01 13:05,-114.2150,44.5228,M,M,M,340.00,3.00,M,30.15,M,10.00,M,CLR,M,M,M,M,M,M,M,M,KLLJ 011305Z AUTO 34003KT 10SM CLR A3015 RMK MADISHF
LLJ,2017-04-01 13:10,-114.2150,44.5228,M,M,M,0.00,0.00,M,30.15,M,10.00,M,CLR,M,M,M,M,M,M,M,M,KLLJ 011310Z AUTO 00000KT 10SM CLR A3015 RMK MADISHF
LLJ,2017-04-01 13:20,-114.2150,44.5228,M,M,M,310.00,3.00,M,30.15,M,10.00,M,CLR,M,M,M,M,M,M,M,M,KLLJ 011320Z AUTO 31003KT 10SM CLR A3015 RMK MADISHF
LLJ,2017-04-01 13:25,-114.2150,44.5228,M,M,M,0.00,0.00,M,30.15,M,10.00,M,CLR,M,M,M,M,M,M,M,M,KLLJ 011325Z AUTO 00000KT 10SM CLR A3015 RMK MADISHF
LLJ,2017-04-01 13:30,-114.2150,44.5228,M,M,M,0.00,0.00,M,30.15,M,10.00,M,CLR,M,M,M,M,M,M,M,M,KLLJ 011330Z AUTO 00000KT 10SM CLR A3015 RMK MADISHF
LLJ,2017-04-01 13:35,-114.2150,44.5228,M,M,M,0.00,0.00,M,30.15,M,10.00,M,CLR,M,M,M,M,M,M,M,M,KLLJ 011335Z AUTO 00000KT 10SM CLR A3015 RMK MADISHF
LLJ,2017-04-01 13:40,-114.2150,44.5228,M,M,M,0.00,0.00,M,30.15,M,10.00,M,CLR,M,M,M,M,M,M,M,M,KLLJ 011340Z AUTO 00000KT 10SM CLR A3015 RMK MADISHF
LLJ,2017-04-01 13:45,-114.2150,44.5228,M,M,M,0.00,0.00,M,30.14,M,10.00,M,CLR,M,M,M,M,M,M,M,M,KLLJ 011345Z AUTO 00000KT 10SM CLR A3014 RMK MADISHF
LLJ,2017-04-01 13:50,-114.2150,44.5228,M,M,M,0.00,0.00,M,30.14,M,10.00,M,CLR,M,M,M,M,M,M,M,M,KLLJ 011350Z AUTO 00000KT 10SM CLR A3014 RMK MADISHF
LLJ,2017-04-01 13:55,-114.2150,44.5228,30.90,28.90,92.18,0.00,0.00,0.00,30.14,1020.90,10.00,M,CLR,M,M,M,M,M,M,M,M,KLLJ 011355Z AUTO 00000KT 10SM CLR M01/M02 A3014 RMK AO2 SLP209 T10061017
LLJ,2017-04-01 14:00,-114.2150,44.5228,M,M,M,230.00,3.00,M,30.15,M,10.00,M,CLR,M,M,M,M,M,M,M,M,KLLJ 011400Z AUTO 23003KT 10SM CLR A3015 RMK MADISHF
LLJ,2017-04-01 14:10,-114.2150,44.5228,M,M,M,0.00,0.00,M,30.15,M,10.00,M,CLR,M,M,M,M,M,M,M,M,KLLJ 011410Z AUTO 00000KT 10SM CLR A3015 RMK MADISHF
LLJ,2017-04-01 14:15,-114.2150,44.5228,M,M,M,0.00,0.00,M,30.15,M,10.00,M,CLR,M,M,M,M,M,M,M,M,KLLJ 011415Z AUTO 00000KT 10SM CLR A3015 RMK MADISHF
LLJ,2017-04-01 14:20,-114.2150,44.5228,M,M,M,0.00,0.00,M,30.15,M,10.00,M,CLR,M,M,M,M,M,M,M,M,KLLJ 011420Z AUTO 00000KT 10SM CLR A3015 RMK MADISHF
LLJ,2017-04-01 14:25,-114.2150,44.5228,M,M,M,340.00,5.00,M,30.16,M,10.00,M,CLR,M,M,M,M,M,M,M,M,KLLJ 011425Z AUTO 34005KT 10SM CLR A3016 RMK MADISHF
LLJ,2017-04-01 14:30,-114.2150,44.5228,M,M,M,350.00,4.00,M,30.17,M,10.00,M,CLR,M,M,M,M,M,M,M,M,KLLJ 011430Z AUTO 35004KT 10SM CLR A3017 RMK MADISHF
LLJ,2017-04-01 14:35,-114.2150,44.5228,M,M,M,110.00,3.00,M,30.17,M,10.00,M,CLR,M,M,M,M,M,M,M,M,KLLJ 011435Z AUTO 11003KT 10SM CLR A3017 RMK MADISHF
LLJ,2017-04-01 14:40,-114.2150,44.5228,M,M,M,10.00,4.00,M,30.17,M,10.00,M,CLR,M,M,M,M,M,M,M,M,KLLJ 011440Z AUTO 01004KT 10SM CLR A3017 RMK MADISHF
LLJ,2017-04-01 14:45,-114.2150,44.5228,M,M,M,0.00,0.00,M,30.18,M,10.00,M,CLR,M,M,M,M,M,M,M,M,KLLJ 011445Z AUTO 00000KT 10SM CLR A3018 RMK MADISHF
LLJ,2017-04-01 14:50,-114.2150,44.5228,M,M,M,120.00,3.00,M,30.18,M,10.00,M,CLR,M,M,M,M,M,M,M,M,KLLJ 011450Z AUTO 12003KT 10SM CLR A3018 RMK MADISHF
LLJ,2017-04-01 14:55,-114.2150,44.5228,33.10,30.00,88.23,0.00,0.00,0.00,30.18,1022.00,10.00,M,CLR,M,M,M,M,M,M,M,M,KLLJ 011455Z AUTO 00000KT 10SM CLR 01/M01 A3018 RMK AO2 SLP220 T00061011 53005
LLJ,2017-04-01 15:00,-114.2150,44.5228,M,M,M,0.00,0.00,M,30.18,M,10.00,M,CLR,M,M,M,M,M,M,M,M,KLLJ 011500Z AUTO 00000KT 10SM CLR A3018 RMK MADISHF
LLJ,2017-04-01 15:05,-114.2150,44.5228,M,M,M,0.00,0.00,M,30.17,M,10.00,M,CLR,M,M,M,M,M,M,M,M,KLLJ 011505Z AUTO 00000KT 10SM CLR A3017 RMK MADISHF
LLJ,2017-04-01 15:10,-114.2150,44.5228,M,M,M,0.00,0.00,M,30.18,M,10.00,M,CLR,M,M,M,M,M,M,M,M,KLLJ 011510Z AUTO 00000KT 10SM CLR A3018 RMK MADISHF
LLJ,2017-04-01 15:15,-114.2150,44.5228,M,M,M,0.00,0.00,M,30.18,M,10.00,M,CLR,M,M,M,M,M,M,M,M,KLLJ 011515Z AUTO 00000KT 10SM CLR A3018 RMK MADISHF
LLJ,2017-04-01 15:25,-114.2150,44.5228,M,M,M,0.00,0.00,M,30.18,M,10.00,M,CLR,M,M,M,M,M,M,M,M,KLLJ 011525Z AUTO 00000KT 10SM CLR A3018 RMK MADISHF
LLJ,2017-04-01 15:30,-114.2150,44.5228,M,M,M,0.00,0.00,M,30.18,M,10.00,M,CLR,M,M,M,M,M,M,M,M,KLLJ 011530Z AUTO 00000KT 10SM CLR A3018 RMK MADISHF
LLJ,2017-04-01 15:35,-114.2150,44.5228,M,M,M,0.00,0.00,M,30.17,M,10.00,M,CLR,M,M,M,M,M,M,M,M,KLLJ 011535Z AUTO 00000KT 10SM CLR A3017 RMK MADISHF
LLJ,2017-04-01 15:40,-114.2150,44.5228,M,M,M,0.00,0.00,M,30.17,M,10.00,M,CLR,M,M,M,M,M,M,M,M,KLLJ 011540Z AUTO 00000KT 10SM CLR A3017 RMK MADISHF
LLJ,2017-04-01 15:50,-114.2150,44.5228,M,M,M,0.00,0.00,M,30.16,M,10.00,M,CLR,M,M,M,M,M,M,M,M,KLLJ 011550Z AUTO 00000KT 10SM CLR A3016 RMK MADISHF
LLJ,2017-04-01 15:55,-114.2150,44.5228,37.90,28.90,69.73,0.00,0.00,0.00,30.16,1021.00,10.00,M,CLR,M,M,M,M,M,M,M,M,KLLJ 011555Z AUTO 00000KT 10SM CLR 03/M02 A3016 RMK AO2 SLP210 T00331017
LLJ,2017-04-01 16:00,-114.2150,44.5228,M,M,M,0.00,0.00,M,30.16,M,10.00,M,CLR,M,M,M,M,M,M,M,M,KLLJ 011600Z AUTO 00000KT 10SM CLR A3016 RMK MADISHF
LLJ,2017-04-01 16:05,-114.2150,44.5228,M,M,M,0.00,0.00,M,30.16,M,10.00,M,CLR,M,M,M,M,M,M,M,M,KLLJ 011605Z AUTO 00000KT 10SM CLR A3016 RMK MADISHF
LLJ,2017-04-01 16:10,-114.2150,44.5228,M,M,M,210.00,3.00,M,30.16,M,10.00,M,CLR,M,M,M,M,M,M,M,M,KLLJ 011610Z AUTO 21003KT 10SM CLR A3016 RMK MADISHF
LLJ,2017-04-01 16:15,-114.2150,44.5228,M,M,M,0.00,0.00,M,30.16,M,10.00,M,CLR,M,M,M,M,M,M,M,M,KLLJ 011615Z AUTO 00000KT 10SM CLR A3016 RMK MADISHF
LLJ,2017-04-01 16:20,-114.2150,44.5228,M,M,M,0.00,0.00,M,30.15,M,10.00,M,CLR,M,M,M,M,M,M,M,M,KLLJ 011620Z AUTO 00000KT 10SM CLR A3015 RMK MADISHF
LLJ,2017-04-01 16:25,-114.2150,44.5228,M,M,M,0.00,0.00,M,30.16,M,10.00,M,CLR,M,M,M,M,M,M,M,M,KLLJ 011625Z AUTO 00000KT 10SM CLR A3016 RMK MADISHF
LLJ,2017-04-01 16:35,-114.2150,44.5228,M,M,M,0.00,0.00,M,30.16,M,10.00,M,CLR,M,M,M,M,M,M,M,M,KLLJ 011635Z AUTO 00000KT 10SM CLR A3016 RMK MADISHF
LLJ,2017-04-01 16:40,-114.2150,44.5228,M,M,M,70.00,3.00,M,30.16,M,10.00,M,CLR,M,M,M,M,M,M,M,M,KLLJ 011640Z AUTO 07003KT 10SM CLR A3016 RMK MADISHF
LLJ,2017-04-01 16:45,-114.2150,44.5228,M,M,M,0.00,0.00,M,30.16,M,10.00,M,CLR,M,M,M,M,M,M,M,M,KLLJ 011645Z AUTO 00000KT 10SM CLR A3016 RMK MADISHF
LLJ,2017-04-01 16:50,-114.2150,44.5228,M,M,M,180.00,3.00,M,30.16,M,10.00,M,CLR,M,M,M,M,M,M,M,M,KLLJ 011650Z AUTO 18003KT 10SM CLR A3016 RMK MADISHF
LLJ,2017-04-01 16:55,-114.2150,44.5228,42.10,30.90,64.24,0.00,0.00,0.00,30.15,1020.40,10.00,M,CLR,M,M,M,M,M,M,M,M,KLLJ 011655Z AUTO 00000KT 10SM CLR 06/M01 A3015 RMK AO2 SLP204 T00561006
LLJ,2017-04-01 17:00,-114.2150,44.5228,M,M,M,0.00,0.00,M,30.15,M,10.00,M,CLR,M,M,M,M,M,M,M,M,KLLJ 011700Z AUTO 00000KT 10SM CLR A3015 RMK MADISHF
LLJ,2017-04-01 17:05,-114.2150,44.5228,M,M,M,0.00,0.00,M,30.15,M,10.00,M,CLR,M,M,M,M,M,M,M,M,KLLJ 011705Z AUTO 00000KT 10SM CLR A3015 RMK MADISHF
LLJ,2017-04-01 17:10,-114.2150,44.5228,M,M,M,0.00,0.00,M,30.14,M,10.00,M,CLR,M,M,M,M,M,M,M,M,KLLJ 011710Z AUTO 00000KT 10SM CLR A3014 RMK MADISHF
LLJ,2017-04-01 17:15,-114.2150,44.5228,M,M,M,0.00,0.00,M,30.14,M,10.00,M,CLR,M,M,M,M,M,M,M,M,KLLJ 011715Z AUTO 00000KT 10SM CLR A3014 RMK MADISHF
LLJ,2017-04-01 17:25,-114.2150,44.5228,M,M,M,0.00,0.00,M,30.14,M,10.00,M,CLR,M,M,M,M,M,M,M,M,KLLJ 011725Z AUTO 00000KT 10SM CLR A3014 RMK MADISHF
LLJ,2017-04-01 17:30,-114.2150,44.5228,M,M,M,0.00,0.00,M,30.14,M,10.00,M,CLR,M,M,M,M,M,M,M,M,KLLJ 011730Z AUTO 00000KT 10SM CLR A3014 RMK MADISHF
LLJ,2017-04-01 17:35,-114.2150,44.5228,M,M,M,0.00,0.00,M,30.14,M,10.00,M,CLR,M,M,M,M,M,M,M,M,KLLJ 011735Z AUTO 00000KT 10SM CLR A3014 RMK MADISHF
LLJ,2017-04-01 17:40,-114.2150,44.5228,M,M,M,0.00,0.00,M,30.14,M,10.00,M,CLR,M,M,M,M,M,M,M,M,KLLJ 011740Z AUTO 00000KT 10SM CLR A3014 RMK MADISHF
LLJ,2017-04-01 17:50,-114.2150,44.5228,M,M,M,140.00,4.00,M,30.14,M,10.00,M,CLR,M,M,M,M,M,M,M,M,KLLJ 011750Z AUTO 14004KT 10SM CLR A3014 RMK VRB04KT  MADISHF
LLJ,2017-04-01 17:55,-114.2150,44.5228,45.00,30.90,57.50,140.00,3.00,0.00,30.13,1019.70,10.00,M,CLR,M,M,M,M,M,M,M,M,KLLJ 011755Z AUTO 14003KT 10SM CLR 07/M01 A3013 RMK AO2 SLP197 T00721006 10078 21033 58013
LLJ,2017-04-01 18:00,-114.2150,44.5228,M,M,M,0.00,0.00,M,30.13,M,10.00,M,CLR,M,M,M,M,M,M,M,M,KLLJ 011800Z AUTO 00000KT 10SM CLR A3013 RMK MADISHF
LLJ,2017-04-01 18:10,-114.2150,44.5228,M,M,M,160.00,4.00,M,30.12,M,10.00,M,CLR,M,M,M,M,M,M,M,M,KLLJ 011810Z AUTO 16004KT 10SM CLR A3012 RMK VRB04KT  MADISHF
LLJ,2017-04-01 18:15,-114.2150,44.5228,M,M,M,190.00,4.00,M,30.12,M,10.00,M,CLR,M,M,M,M,M,M,M,M,KLLJ 011815Z AUTO 19004KT 10SM CLR A3012 RMK VRB04KT  MADISHF
LLJ,2017-04-01 18:20,-114.2150,44.5228,M,M,M,190.00,4.00,M,30.12,M,10.00,M,CLR,M,M,M,M,M,M,M,M,KLLJ 011820Z AUTO 19004KT 10SM CLR A3012 RMK MADISHF
LLJ,2017-04-01 18:25,-114.2150,44.5228,M,M,M,130.00,3.00,M,30.12,M,10.00,M,CLR,M,M,M,M,M,M,M,M,KLLJ 011825Z AUTO 13003KT 10SM CLR A3012 RMK MADISHF
LLJ,2017-04-01 18:30,-114.2150,44.5228,M,M,M,230.00,5.00,M,30.12,M,10.00,M,CLR,M,M,M,M,M,M,M,M,KLLJ 011830Z AUTO 23005KT 10SM CLR A3012 RMK MADISHF
LLJ,2017-04-01 18:35,-114.2150,44.5228,M,M,M,240.00,3.00,M,30.12,M,10.00,M,CLR,M,M,M,M,M,M,M,M,KLLJ 011835Z AUTO 24003KT 10SM CLR A3012 RMK VRB03KT  MADISHF
LLJ,2017-04-01 18:40,-114.2150,44.5228,M,M,M,0.00,0.00,M,30.11,M,10.00,M,CLR,M,M,M,M,M,M,M,M,KLLJ 011840Z AUTO 00000KT 10SM CLR A3011 RMK MADISHF
LLJ,2017-04-01 18:45,-114.2150,44.5228,M,M,M,160.00,4.00,M,30.11,M,10.00,M,CLR,M,M,M,M,M,M,M,M,KLLJ 011845Z AUTO 16004KT 10SM CLR A3011 RMK MADISHF
LLJ,2017-04-01 18:50,-114.2150,44.5228,M,M,M,140.00,4.00,M,30.11,M,10.00,M,CLR,M,M,M,M,M,M,M,M,KLLJ 011850Z AUTO 14004KT 10SM CLR A3011 RMK MADISHF
LLJ,2017-04-01 18:55,-114.2150,44.5228,48.90,32.00,51.89,M,3.00,0.00,30.11,1018.60,10.00,M,CLR,M,M,M,M,M,M,M,M,KLLJ 011855Z AUTO VRB03KT 10SM CLR 09/00 A3011 RMK AO2 SLP186 T00940000
LLJ,2017-04-01 19:05,-114.2150,44.5228,M,M,M,80.00,3.00,M,30.10,M,10.00,M,CLR,M,M,M,M,M,M,M,M,KLLJ 011905Z AUTO 08003KT 10SM CLR A3010 RMK MADISHF
LLJ,2017-04-01 19:10,-114.2150,44.5228,M,M,M,160.00,3.00,M,30.10,M,10.00,M,CLR,M,M,M,M,M,M,M,M,KLLJ 011910Z AUTO 16003KT 10SM CLR A3010 RMK VRB03KT  MADISHF
LLJ,2017-04-01 19:15,-114.2150,44.5228,M,M,M,110.00,4.00,M,30.10,M,10.00,M,CLR,M,M,M,M,M,M,M,M,KLLJ 011915Z AUTO 11004KT 10SM CLR A3010 RMK MADISHF
LLJ,2017-04-01 19:20,-114.2150,44.5228,M,M,M,80.00,3.00,M,30.09,M,10.00,M,CLR,M,M,M,M,M,M,M,M,KLLJ 011920Z AUTO 08003KT 10SM CLR A3009 RMK VRB03KT  MADISHF
LLJ,2017-04-01 19:25,-114.2150,44.5228,M,M,M,50.00,3.00,M,30.09,M,10.00,M,CLR,M,M,M,M,M,M,M,M,KLLJ 011925Z AUTO 05003KT 10SM CLR A3009 RMK VRB03KT  MADISHF
LLJ,2017-04-01 19:35,-114.2150,44.5228,M,M,M,130.00,4.00,M,30.08,M,10.00,M,CLR,M,M,M,M,M,M,M,M,KLLJ 011935Z AUTO 13004KT 10SM CLR A3008 RMK VRB04KT  MADISHF
LLJ,2017-04-01 19:40,-114.2150,44.5228,M,M,M,0.00,0.00,M,30.08,M,10.00,M,CLR,M,M,M,M,M,M,M,M,KLLJ 011940Z AUTO 00000KT 10SM CLR A3008 RMK MADISHF
LLJ,2017-04-01 19:45,-114.2150,44.5228,M,M,M,50.00,3.00,M,30.08,M,10.00,M,CLR,M,M,M,M,M,M,M,M,KLLJ 011945Z AUTO 05003KT 10SM CLR A3008 RMK MADISHF
LLJ,2017-04-01 19:50,-114.2150,44.5228,M,M,M,20.00,3.00,M,30.08,M,10.00,M,CLR,M,M,M,M,M,M,M,M,KLLJ 011950Z AUTO 02003KT 10SM CLR A3008 RMK MADISHF
LLJ,2017-04-01 19:55,-114.2150,44.5228,54.00,32.00,42.98,10.00,3.00,0.00,30.08,1017.50,10.00,M,CLR,M,M,M,M,M,M,M,M,KLLJ 011955Z AUTO 01003KT 10SM CLR 12/00 A3008 RMK AO2 SLP175 T01220000
LLJ,2017-04-01 20:00,-114.2150,44.5228,M,M,M,60.00,4.00,M,30.08,M,10.00,M,CLR,M,M,M,M,M,M,M,M,KLLJ 012000Z AUTO 06004KT 10SM CLR A3008 RMK VRB04KT  MADISHF
LLJ,2017-04-01 20:05,-114.2150,44.5228,M,M,M,0.00,0.00,M,30.08,M,10.00,M,CLR,M,M,M,M,M,M,M,M,KLLJ 012005Z AUTO 00000KT 10SM CLR A3008 RMK MADISHF
LLJ,2017-04-01 20:10,-114.2150,44.5228,M,M,M,0.00,0.00,M,30.08,M,10.00,M,CLR,M,M,M,M,M,M,M,M,KLLJ 012010Z AUTO 00000KT 10SM CLR A3008 RMK MADISHF
LLJ,2017-04-01 20:15,-114.2150,44.5228,M,M,M,190.00,4.00,M,30.07,M,10.00,M,CLR,M,M,M,M,M,M,M,M,KLLJ 012015Z AUTO 19004KT 10SM CLR A3007 RMK MADISHF
LLJ,2017-04-01 20:20,-114.2150,44.5228,M,M,M,120.00,4.00,M,30.07,M,10.00,M,CLR,M,M,M,M,M,M,M,M,KLLJ 012020Z AUTO 12004KT 10SM CLR A3007 RMK MADISHF
LLJ,2017-04-01 20:25,-114.2150,44.5228,M,M,M,0.00,0.00,M,30.07,M,10.00,M,CLR,M,M,M,M,M,M,M,M,KLLJ 012025Z AUTO 00000KT 10SM CLR A3007 RMK MADISHF
LLJ,2017-04-01 20:30,-114.2150,44.5228,M,M,M,320.00,3.00,M,30.07,M,10.00,M,CLR,M,M,M,M,M,M,M,M,KLLJ 012030Z AUTO 32003KT 10SM CLR A3007 RMK MADISHF
LLJ,2017-04-01 20:40,-114.2150,44.5228,M,M,M,90.00,3.00,M,30.06,M,10.00,M,CLR,M,M,M,M,M,M,M,M,KLLJ 012040Z AUTO 09003KT 10SM CLR A3006 RMK VRB03KT  MADISHF
LLJ,2017-04-01 20:45,-114.2150,44.5228,M,M,M,160.00,6.00,M,30.06,M,10.00,M,CLR,M,M,M,M,M,M,M,M,KLLJ 012045Z AUTO 16006KT 10SM CLR A3006 RMK MADISHF
LLJ,2017-04-01 20:50,-114.2150,44.5228,M,M,M,160.00,5.00,M,30.05,M,10.00,M,CLR,M,M,M,M,M,M,M,M,KLLJ 012050Z AUTO 16005KT 10SM CLR A3005 RMK MADISHF
LLJ,2017-04-01 20:55,-114.2150,44.5228,55.00,30.00,38.21,M,3.00,0.00,30.04,1016.10,10.00,M,CLR,M,M,M,M,M,M,M,M,KLLJ 012055Z AUTO VRB03KT 10SM CLR 13/M01 A3004 RMK AO2 SLP161 T01281011 58027
LLJ,2017-04-01 21:05,-114.2150,44.5228,M,M,M,160.00,6.00,M,30.04,M,10.00,M,CLR,M,M,M,M,M,M,M,M,KLLJ 012105Z AUTO 16006KT 10SM CLR A3004 RMK VRB06KT  MADISHF
LLJ,2017-04-01 21:10,-114.2150,44.5228,M,M,M,130.00,3.00,M,30.03,M,10.00,M,CLR,M,M,M,M,M,M,M,M,KLLJ 012110Z AUTO 13003KT 10SM CLR A3003 RMK VRB03KT  MADISHF
LLJ,2017-04-01 21:15,-114.2150,44.5228,M,M,M,0.00,0.00,M,30.03,M,10.00,M,CLR,M,M,M,M,M,M,M,M,KLLJ 012115Z AUTO 00000KT 10SM CLR A3003 RMK MADISHF
LLJ,2017-04-01 21:20,-114.2150,44.5228,M,M,M,130.00,5.00,M,30.03,M,10.00,M,CLR,M,M,M,M,M,M,M,M,KLLJ 012120Z AUTO 13005KT 10SM CLR A3003 RMK MADISHF
LLJ,2017-04-01 21:25,-114.2150,44.5228,M,M,M,140.00,3.00,M,30.02,M,10.00,M,CLR,M,M,M,M,M,M,M,M,KLLJ 012125Z AUTO 14003KT 10SM CLR A3002 RMK MADISHF
LLJ,2017-04-01 21:30,-114.2150,44.5228,M,M,M,0.00,0.00,M,30.02,M,10.00,M,CLR,M,M,M,M,M,M,M,M,KLLJ 012130Z AUTO 00000KT 10SM CLR A3002 RMK MADISHF
LLJ,2017-04-01 21:35,-114.2150,44.5228,M,M,M,0.00,0.00,M,30.02,M,10.00,M,CLR,M,M,M,M,M,M,M,M,KLLJ 012135Z AUTO 00000KT 10SM CLR A3002 RMK MADISHF
LLJ,2017-04-01 21:40,-114.2150,44.5228,M,M,M,280.00,3.00,M,30.02,M,10.00,M,CLR,M,M,M,M,M,M,M,M,KLLJ 012140Z AUTO 28003KT 10SM CLR A3002 RMK VRB03KT  MADISHF
LLJ,2017-04-01 21:45,-114.2150,44.5228,M,M,M,160.00,4.00,M,30.02,M,10.00,M,CLR,M,M,M,M,M,M,M,M,KLLJ 012145Z AUTO 16004KT 10SM CLR A3002 RMK VRB04KT  MADISHF
LLJ,2017-04-01 21:50,-114.2150,44.5228,M,M,M,0.00,0.00,M,30.02,M,10.00,M,CLR,M,M,M,M,M,M,M,M,KLLJ 012150Z AUTO 00000KT 10SM CLR A3002 RMK MADISHF
LLJ,2017-04-01 21:55,-114.2150,44.5228,59.00,30.90,34.31,M,3.00,0.00,30.01,1014.90,10.00,M,CLR,M,M,M,M,M,M,M,M,KLLJ 012155Z AUTO VRB03KT 10SM CLR 15/M01 A3001 RMK AO2 SLP149 T01501006
LLJ,2017-04-01 22:00,-114.2150,44.5228,M,M,M,40.00,4.00,M,30.01,M,10.00,M,CLR,M,M,M,M,M,M,M,M,KLLJ 012200Z AUTO 04004KT 10SM CLR A3001 RMK VRB04KT  MADISHF
LLJ,2017-04-01 22:05,-114.2150,44.5228,M,M,M,20.00,4.00,M,30.01,M,10.00,M,CLR,M,M,M,M,M,M,M,M,KLLJ 012205Z AUTO 02004KT 10SM CLR A3001 RMK MADISHF
LLJ,2017-04-01 22:15,-114.2150,44.5228,M,M,M,0.00,0.00,M,30.00,M,10.00,M,CLR,M,M,M,M,M,M,M,M,KLLJ 012215Z AUTO 00000KT 10SM CLR A3000 RMK MADISHF
LLJ,2017-04-01 22:20,-114.2150,44.5228,M,M,M,120.00,4.00,M,30.00,M,10.00,M,CLR,M,M,M,M,M,M,M,M,KLLJ 012220Z AUTO 12004KT 10SM CLR A3000 RMK MADISHF
LLJ,2017-04-01 22:25,-114.2150,44.5228,M,M,M,100.00,3.00,M,30.00,M,10.00,M,CLR,M,M,M,M,M,M,M,M,KLLJ 012225Z AUTO 10003KT 10SM CLR A3000 RMK VRB03KT  MADISHF
LLJ,2017-04-01 22:30,-114.2150,44.5228,M,M,M,120.00,3.00,M,30.00,M,10.00,M,CLR,M,M,M,M,M,M,M,M,KLLJ 012230Z AUTO 12003KT 10SM CLR A3000 RMK MADISHF
LLJ,2017-04-01 22:40,-114.2150,44.5228,M,M,M,0.00,0.00,M,30.00,M,10.00,M,CLR,M,M,M,M,M,M,M,M,KLLJ 012240Z AUTO 00000KT 10SM CLR A3000 RMK MADISHF
LLJ,2017-04-01 22:45,-114.2150,44.5228,M,M,M,0.00,0.00,M,29.99,M,10.00,M,CLR,M,M,M,M,M,M,M,M,KLLJ 012245Z AUTO 00000KT 10SM CLR A2999 RMK MADISHF
LLJ,2017-04-01 22:55,-114.2150,44.5228,60.10,28.90,30.41,0.00,0.00,0.00,29.99,1014.20,10.00,M,CLR,M,M,M,M,M,M,M,M,KLLJ 012255Z AUTO 00000KT 10SM CLR 16/M02 A2999 RMK AO2 SLP142 T01561017
LLJ,2017-04-01 23:00,-114.2150,44.5228,M,M,M,50.00,5.00,M,29.99,M,10.00,M,CLR,M,M,M,M,M,M,M,M,KLLJ 012300Z AUTO 05005KT 10SM CLR A2999 RMK MADISHF
LLJ,2017-04-01 23:05,-114.2150,44.5228,M,M,M,50.00,5.00,M,29.99,M,10.00,M,CLR,M,M,M,M,M,M,M,M,KLLJ 012305Z AUTO 05005KT 10SM CLR A2999 RMK MADISHF
LLJ,2017-04-01 23:10,-114.2150,44.5228,M,M,M,50.00,3.00,M,29.99,M,10.00,M,CLR,M,M,M,M,M,M,M,M,KLLJ 012310Z AUTO 05003KT 10SM CLR A2999 RMK MADISHF
LLJ,2017-04-01 23:15,-114.2150,44.5228,M,M,M,360.00,4.00,M,29.99,M,10.00,M,CLR,M,M,M,M,M,M,M,M,KLLJ 012315Z AUTO 36004KT 10SM CLR A2999 RMK MADISHF
LLJ,2017-04-01 23:20,-114.2150,44.5228,M,M,M,0.00,0.00,M,29.99,M,10.00,M,CLR,M,M,M,M,M,M,M,M,KLLJ 012320Z AUTO 00000KT 10SM CLR A2999 RMK MADISHF
LLJ,2017-04-01 23:25,-114.2150,44.5228,M,M,M,0.00,0.00,M,29.99,M,10.00,M,CLR,M,M,M,M,M,M,M,M,KLLJ 012325Z AUTO 00000KT 10SM CLR A2999 RMK MADISHF
LLJ,2017-04-01 23:30,-114.2150,44.5228,M,M,M,0.00,0.00,M,29.99,M,10.00,M,FEW,M,M,M,7500.00,M,M,M,M,KLLJ 012330Z AUTO 00000KT 10SM FEW075 A2999 RMK MADISHF
LLJ,2017-04-01 23:40,-114.2150,44.5228,M,M,M,60.00,3.00,M,29.99,M,10.00,M,BKN,M,M,M,7500.00,M,M,M,M,KLLJ 012340Z AUTO 06003KT 10SM BKN075 A2999 RMK MADISHF
LLJ,2017-04-01 23:45,-114.2150,44.5228,M,M,M,0.00,0.00,M,29.99,M,10.00,M,BKN,M,M,M,7500.00,M,M,M,M,KLLJ 012345Z AUTO 00000KT 10SM BKN075 A2999 RMK MADISHF
LLJ,2017-04-01 23:50,-114.2150,44.5228,M,M,M,0.00,0.00,M,29.99,M,10.00,M,BKN,M,M,M,7999.00,M,M,M,M,KLLJ 012350Z AUTO 00000KT 10SM BKN079 A2999 RMK MADISHF
LLJ,2017-04-01 23:55,-114.2150,44.5228,59.00,26.10,28.18,0.00,0.00,0.00,29.99,1014.20,10.00,M,OVC,M,M,M,8000.00,M,M,M,M,KLLJ 012355Z AUTO 00000KT 10SM OVC080 15/M03 A2999 RMK AO2 SLP142 T01501033 10156 20072 56014
