#DEBUG: Format Typ    -> comma
#DEBUG: Time Period   -> 2017-04-01 00:00:00+00:00 2017-04-02 00:00:00+00:00
#DEBUG: Time Zone     -> Etc/UTC
#DEBUG: Data Contact   -> daryl herzmann akrherz@iastate.edu 515-294-5978
#DEBUG: Entries Found -> -1
station,valid,lon,lat,tmpf, dwpf, relh, drct, sknt, p01i, alti, mslp, vsby, gust, skyc1, skyc2, skyc3, skyc4, skyl1, skyl2, skyl3, skyl4, presentwx, metar
LUK,2017-04-01 00:00,-84.4186,39.1033,M,M,M,M,M,M,29.85,M,9.00,19.00,BKN,BKN,OVC,M,1500.00,2200.00,2800.00,M,M,KLUK 010000Z AUTO /////G19KT 9SM BKN015 BKN022 OVC028 A2985 RMK MADISHF
LUK,2017-04-01 00:05,-84.4186,39.1033,M,M,M,280.00,10.00,M,29.86,M,7.00,M,BKN,OVC,M,M,1500.00,2200.00,M,M,-RA,KLUK 010005Z AUTO 28010KT 7SM -RA BKN015 OVC022 A2986 RMK MADISHF
LUK,2017-04-01 00:10,-84.4186,39.1033,M,M,M,280.00,11.00,M,29.86,M,7.00,M,OVC,M,M,M,1500.00,M,M,M,-RA,KLUK 010010Z AUTO 28011KT 7SM -RA OVC015 A2986 RMK MADISHF
LUK,2017-04-01 00:15,-84.4186,39.1033,M,M,M,270.00,11.00,M,29.87,M,8.00,M,OVC,M,M,M,1500.00,M,M,M,-RA,KLUK 010015Z AUTO 27011KT 8SM -RA OVC015 A2987 RMK MADISHF
LUK,2017-04-01 00:20,-84.4186,39.1033,M,M,M,280.00,9.00,M,29.87,M,7.00,M,OVC,M,M,M,1500.00,M,M,M,-RA,KLUK 010020Z AUTO 28009KT 7SM -RA OVC015 A2987 RMK MADISHF
LUK,2017-04-01 00:25,-84.4186,39.1033,M,M,M,300.00,10.00,M,29.88,M,8.00,M,OVC,M,M,M,1500.00,M,M,M,-RA,KLUK 010025Z AUTO 30010KT 8SM -RA OVC015 A2988 RMK MADISHF
LUK,2017-04-01 00:30,-84.4186,39.1033,M,M,M,320.00,9.00,M,29.88,M,8.00,M,OVC,M,M,M,1500.00,M,M,M,M,KLUK 010030Z AUTO 32009KT 8SM OVC015 A2988 RMK MADISHF
LUK,2017-04-01 00:35,-84.4186,39.1033,M,M,M,280.00,6.00,M,29.88,M,7.00,M,OVC,M,M,M,1500.00,M,M,M,M,KLUK 010035Z AUTO 28006KT 7SM OVC015 A2988 RMK MADISHF
LUK,2017-04-01 00:40,-84.4186,39.1033,M,M,M,300.00,8.00,M,29.88,M,7.00,M,OVC,M,M,M,1500.00,M,M,M,M,KLUK 010040Z AUTO 30008KT 7SM OVC015 A2988 RMK MADISHF
LUK,2017-04-01 00:45,-84.4186,39.1033,M,M,M,290.00,7.00,M,29.89,M,9.00,M,OVC,M,M,M,1500.00,M,M,M,M,KLUK 010045Z AUTO 29007KT 9SM OVC015 A2989 RMK WND 26V33  MADISHF
LUK,2017-04-01 00:50,-84.4186,39.1033,M,M,M,300.00,6.00,M,29.90,M,9.00,M,OVC,M,M,M,1500.00,M,M,M,M,KLUK 010050Z AUTO 30006KT 9SM OVC015 A2990 RMK MADISHF
LUK,2017-04-01 00:53,-84.4186,39.1033,48.00,46.00,92.74,280.00,9.00,0.00,29.90,1012.30,10.00,M,OVC,M,M,M,1500.00,M,M,M,M,KLUK 010053Z 28009KT 10SM OVC015 09/08 A2990 RMK AO2 RAB05E27 SLP123 P0000 T00890078
LUK,2017-04-01 00:55,-84.4186,39.1033,M,M,M,270.00,10.00,M,29.90,M,10.00,M,OVC,M,M,M,1500.00,M,M,M,M,KLUK 010055Z AUTO 27010KT 10SM OVC015 A2990 RMK MADISHF
LUK,2017-04-01 01:00,-84.4186,39.1033,M,M,M,290.00,8.00,M,29.90,M,10.00,M,OVC,M,M,M,1500.00,M,M,M,M,KLUK 010100Z AUTO 29008KT 10SM OVC015 A2990 RMK MADISHF
LUK,2017-04-01 01:05,-84.4186,39.1033,M,M,M,300.00,5.00,M,29.90,M,10.00,M,OVC,M,M,M,1500.00,M,M,M,M,KLUK 010105Z AUTO 30005KT 10SM OVC015 A2990 RMK MADISHF
LUK,2017-04-01 01:10,-84.4186,39.1033,M,M,M,290.00,8.00,M,29.91,M,10.00,M,OVC,M,M,M,1500.00,M,M,M,M,KLUK 010110Z AUTO 29008KT 10SM OVC015 A2991 RMK MADISHF
LUK,2017-04-01 01:15,-84.4186,39.1033,M,M,M,310.00,7.00,M,29.91,M,10.00,M,OVC,M,M,M,1500.00,M,M,M,M,KLUK 010115Z AUTO 31007KT 10SM OVC015 A2991 RMK MADISHF
LUK,2017-04-01 01:16,-84.4186,39.1033,48.00,45.00,89.29,310.00,9.00,0.00,29.91,M,10.00,14.00,OVC,M,M,M,1200.00,M,M,M,M,KLUK 010116Z 31009G14KT 10SM OVC012 09/07 A2991 RMK AO2 T00890072
LUK,2017-04-01 01:20,-84.4186,39.1033,M,M,M,300.00,9.00,M,29.91,M,10.00,M,OVC,M,M,M,1200.00,M,M,M,M,KLUK 010120Z AUTO 30009KT 10SM OVC012 A2991 RMK MADISHF
LUK,2017-04-01 01:25,-84.4186,39.1033,M,M,M,280.00,10.00,M,29.91,M,10.00,M,OVC,M,M,M,1200.00,M,M,M,M,KLUK 010125Z AUTO 28010KT 10SM OVC012 A2991 RMK MADISHF
LUK,2017-04-01 01:30,-84.4186,39.1033,M,M,M,280.00,12.00,M,29.91,M,10.00,M,OVC,M,M,M,1200.00,M,M,M,M,KLUK 010130Z AUTO 28012KT 10SM OVC012 A2991 RMK MADISHF
LUK,2017-04-01 01:35,-84.4186,39.1033,M,M,M,270.00,11.00,M,29.91,M,10.00,M,OVC,M,M,M,1200.00,M,M,M,M,KLUK 010135Z AUTO 27011KT 10SM OVC012 A2991 RMK MADISHF
LUK,2017-04-01 01:40,-84.4186,39.1033,M,M,M,290.00,7.00,M,29.92,M,10.00,M,OVC,M,M,M,1200.00,M,M,M,M,KLUK 010140Z AUTO 29007KT 10SM OVC012 A2992 RMK MADISHF
LUK,2017-04-01 01:45,-84.4186,39.1033,M,M,M,310.00,7.00,M,29.92,M,10.00,M,OVC,M,M,M,1200.00,M,M,M,M,KLUK 010145Z AUTO 31007KT 10SM OVC012 A2992 RMK MADISHF
LUK,2017-04-01 01:50,-84.4186,39.1033,M,M,M,310.00,8.00,M,29.92,M,10.00,M,OVC,M,M,M,1200.00,M,M,M,M,KLUK 010150Z AUTO 31008KT 10SM OVC012 A2992 RMK MADISHF
LUK,2017-04-01 01:53,-84.4186,39.1033,46.90,44.10,89.92,300.00,8.00,0.00,29.93,1013.30,10.00,M,OVC,M,M,M,1200.00,M,M,M,M,KLUK 010153Z 30008KT 10SM OVC012 08/07 A2993 RMK AO2 SLP133 T00830067
LUK,2017-04-01 01:55,-84.4186,39.1033,M,M,M,280.00,9.00,M,29.93,M,10.00,M,OVC,M,M,M,1200.00,M,M,M,M,KLUK 010155Z AUTO 28009KT 10SM OVC012 A2993 RMK MADISHF
LUK,2017-04-01 02:00,-84.4186,39.1033,M,M,M,270.00,11.00,M,29.93,M,10.00,M,OVC,M,M,M,1200.00,M,M,M,M,KLUK 010200Z AUTO 27011KT 10SM OVC012 A2993 RMK MADISHF
LUK,2017-04-01 02:05,-84.4186,39.1033,M,M,M,310.00,9.00,M,29.93,M,10.00,M,OVC,M,M,M,1200.00,M,M,M,M,KLUK 010205Z AUTO 31009KT 10SM OVC012 A2993 RMK MADISHF
LUK,2017-04-01 02:10,-84.4186,39.1033,M,M,M,300.00,7.00,M,29.93,M,10.00,M,OVC,M,M,M,1300.00,M,M,M,M,KLUK 010210Z AUTO 30007KT 10SM OVC013 A2993 RMK MADISHF
LUK,2017-04-01 02:15,-84.4186,39.1033,M,M,M,300.00,7.00,M,29.93,M,10.00,M,OVC,M,M,M,1300.00,M,M,M,M,KLUK 010215Z AUTO 30007KT 10SM OVC013 A2993 RMK MADISHF
LUK,2017-04-01 02:20,-84.4186,39.1033,M,M,M,280.00,4.00,M,29.94,M,10.00,M,OVC,M,M,M,1300.00,M,M,M,M,KLUK 010220Z AUTO 28004KT 10SM OVC013 A2994 RMK VRB04KT  MADISHF
LUK,2017-04-01 02:25,-84.4186,39.1033,M,M,M,290.00,6.00,M,29.94,M,10.00,M,OVC,M,M,M,1300.00,M,M,M,M,KLUK 010225Z AUTO 29006KT 10SM OVC013 A2994 RMK MADISHF
LUK,2017-04-01 02:30,-84.4186,39.1033,M,M,M,310.00,6.00,M,29.94,M,10.00,M,OVC,M,M,M,1400.00,M,M,M,M,KLUK 010230Z AUTO 31006KT 10SM OVC014 A2994 RMK VRB06KT  MADISHF
LUK,2017-04-01 02:35,-84.4186,39.1033,M,M,M,310.00,9.00,M,29.94,M,10.00,M,OVC,M,M,M,1400.00,M,M,M,M,KLUK 010235Z AUTO 31009KT 10SM OVC014 A2994 RMK MADISHF
LUK,2017-04-01 02:40,-84.4186,39.1033,M,M,M,290.00,10.00,M,29.94,M,10.00,M,OVC,M,M,M,1400.00,M,M,M,M,KLUK 010240Z AUTO 29010KT 10SM OVC014 A2994 RMK MADISHF
LUK,2017-04-01 02:45,-84.4186,39.1033,M,M,M,310.00,9.00,M,29.94,M,10.00,M,OVC,M,M,M,1400.00,M,M,M,M,KLUK 010245Z AUTO 31009KT 10SM OVC014 A2994 RMK MADISHF
LUK,2017-04-01 02:50,-84.4186,39.1033,M,M,M,300.00,8.00,M,29.94,M,10.00,M,OVC,M,M,M,1400.00,M,M,M,M,KLUK 010250Z AUTO 30008KT 10SM OVC014 A2994 RMK MADISHF
LUK,2017-04-01 02:53,-84.4186,39.1033,46.00,42.10,86.16,320.00,8.00,0.00,29.94,1013.90,10.00,M,OVC,M,M,M,1400.00,M,M,M,M,KLUK 010253Z 32008KT 10SM OVC014 08/06 A2994 RMK AO2 SLP139 60000 T00780056 51030
LUK,2017-04-01 02:55,-84.4186,39.1033,M,M,M,300.00,7.00,M,29.94,M,10.00,M,OVC,M,M,M,1400.00,M,M,M,M,KLUK 010255Z AUTO 30007KT 10SM OVC014 A2994 RMK MADISHF
LUK,2017-04-01 03:00,-84.4186,39.1033,M,M,M,330.00,7.00,M,29.94,M,10.00,M,OVC,M,M,M,1400.00,M,M,M,M,KLUK 010300Z AUTO 33007KT 10SM OVC014 A2994 RMK MADISHF
LUK,2017-04-01 03:05,-84.4186,39.1033,M,M,M,320.00,6.00,M,29.94,M,10.00,M,OVC,M,M,M,1400.00,M,M,M,M,KLUK 010305Z AUTO 32006KT 10SM OVC014 A2994 RMK MADISHF
LUK,2017-04-01 03:10,-84.4186,39.1033,M,M,M,300.00,7.00,M,29.95,M,10.00,M,OVC,M,M,M,1400.00,M,M,M,M,KLUK 010310Z AUTO 30007KT 10SM OVC014 A2995 RMK MADISHF
LUK,2017-04-01 03:15,-84.4186,39.1033,M,M,M,320.00,6.00,M,29.95,M,10.00,M,OVC,M,M,M,1300.00,M,M,M,M,KLUK 010315Z AUTO 32006KT 10SM OVC013 A2995 RMK MADISHF
LUK,2017-04-01 03:20,-84.4186,39.1033,M,M,M,300.00,5.00,M,29.95,M,10.00,M,OVC,M,M,M,1300.00,M,M,M,M,KLUK 010320Z AUTO 30005KT 10SM OVC013 A2995 RMK MADISHF
LUK,2017-04-01 03:25,-84.4186,39.1033,M,M,M,320.00,9.00,M,29.95,M,10.00,M,OVC,M,M,M,1300.00,M,M,M,M,KLUK 010325Z AUTO 32009KT 10SM OVC013 A2995 RMK MADISHF
LUK,2017-04-01 03:30,-84.4186,39.1033,M,M,M,320.00,8.00,M,29.95,M,10.00,M,OVC,M,M,M,1300.00,M,M,M,M,KLUK 010330Z AUTO 32008KT 10SM OVC013 A2995 RMK MADISHF
LUK,2017-04-01 03:35,-84.4186,39.1033,M,M,M,320.00,5.00,M,29.95,M,10.00,M,OVC,M,M,M,1300.00,M,M,M,M,KLUK 010335Z AUTO 32005KT 10SM OVC013 A2995 RMK MADISHF
LUK,2017-04-01 03:40,-84.4186,39.1033,M,M,M,330.00,8.00,M,29.95,M,10.00,M,OVC,M,M,M,1300.00,M,M,M,M,KLUK 010340Z AUTO 33008KT 10SM OVC013 A2995 RMK MADISHF
LUK,2017-04-01 03:45,-84.4186,39.1033,M,M,M,320.00,7.00,M,29.95,M,10.00,M,OVC,M,M,M,1300.00,M,M,M,M,KLUK 010345Z AUTO 32007KT 10SM OVC013 A2995 RMK MADISHF
LUK,2017-04-01 03:50,-84.4186,39.1033,M,M,M,320.00,6.00,M,29.96,M,10.00,M,OVC,M,M,M,1300.00,M,M,M,M,KLUK 010350Z AUTO 32006KT 10SM OVC013 A2996 RMK MADISHF
LUK,2017-04-01 03:53,-84.4186,39.1033,45.00,42.10,89.49,300.00,5.00,0.00,29.96,1014.40,10.00,M,OVC,M,M,M,1300.00,M,M,M,M,KLUK 010353Z AUTO 30005KT 10SM OVC013 07/06 A2996 RMK AO2 SLP144 T00720056
LUK,2017-04-01 03:55,-84.4186,39.1033,M,M,M,310.00,9.00,M,29.96,M,10.00,M,OVC,M,M,M,1300.00,M,M,M,M,KLUK 010355Z AUTO 31009KT 10SM OVC013 A2996 RMK MADISHF
LUK,2017-04-01 04:00,-84.4186,39.1033,M,M,M,310.00,7.00,M,29.96,M,10.00,M,OVC,M,M,M,1300.00,M,M,M,M,KLUK 010400Z AUTO 31007KT 10SM OVC013 A2996 RMK MADISHF
LUK,2017-04-01 04:05,-84.4186,39.1033,M,M,M,290.00,7.00,M,29.96,M,10.00,M,OVC,M,M,M,1300.00,M,M,M,M,KLUK 010405Z AUTO 29007KT 10SM OVC013 A2996 RMK MADISHF
LUK,2017-04-01 04:10,-84.4186,39.1033,M,M,M,300.00,7.00,M,29.97,M,10.00,M,OVC,M,M,M,1300.00,M,M,M,M,KLUK 010410Z AUTO 30007KT 10SM OVC013 A2997 RMK MADISHF
LUK,2017-04-01 04:15,-84.4186,39.1033,M,M,M,280.00,8.00,M,29.97,M,10.00,M,OVC,M,M,M,1300.00,M,M,M,M,KLUK 010415Z AUTO 28008KT 10SM OVC013 A2997 RMK MADISHF
LUK,2017-04-01 04:20,-84.4186,39.1033,M,M,M,290.00,11.00,M,29.97,M,10.00,M,OVC,M,M,M,1300.00,M,M,M,M,KLUK 010420Z AUTO 29011KT 10SM OVC013 A2997 RMK MADISHF
LUK,2017-04-01 04:25,-84.4186,39.1033,M,M,M,320.00,11.00,M,29.97,M,10.00,M,OVC,M,M,M,1300.00,M,M,M,M,KLUK 010425Z AUTO 32011KT 10SM OVC013 A2997 RMK MADISHF
LUK,2017-04-01 04:30,-84.4186,39.1033,M,M,M,320.00,6.00,M,29.97,M,10.00,M,OVC,M,M,M,1200.00,M,M,M,M,KLUK 010430Z AUTO 32006KT 10SM OVC012 A2997 RMK MADISHF
LUK,2017-04-01 04:35,-84.4186,39.1033,M,M,M,320.00,5.00,M,29.98,M,10.00,M,OVC,M,M,M,1200.00,M,M,M,M,KLUK 010435Z AUTO 32005KT 10SM OVC012 A2998 RMK MADISHF
LUK,2017-04-01 04:40,-84.4186,39.1033,M,M,M,300.00,6.00,M,29.98,M,10.00,M,OVC,M,M,M,1200.00,M,M,M,M,KLUK 010440Z AUTO 30006KT 10SM OVC012 A2998 RMK MADISHF
LUK,2017-04-01 04:45,-84.4186,39.1033,M,M,M,310.00,6.00,M,29.98,M,10.00,M,OVC,M,M,M,1200.00,M,M,M,M,KLUK 010445Z AUTO 31006KT 10SM OVC012 A2998 RMK MADISHF
LUK,2017-04-01 04:50,-84.4186,39.1033,M,M,M,310.00,7.00,M,29.98,M,10.00,M,OVC,M,M,M,1200.00,M,M,M,M,KLUK 010450Z AUTO 31007KT 10SM OVC012 A2998 RMK MADISHF
LUK,2017-04-01 04:53,-84.4186,39.1033,45.00,41.00,85.77,320.00,6.00,0.00,29.99,1015.40,10.00,M,OVC,M,M,M,1200.00,M,M,M,M,KLUK 010453Z AUTO 32006KT 10SM OVC012 07/05 A2999 RMK AO2 SLP154 T00720050 401440072
LUK,2017-04-01 04:55,-84.4186,39.1033,M,M,M,310.00,6.00,M,29.99,M,10.00,M,OVC,M,M,M,1200.00,M,M,M,M,KLUK 010455Z AUTO 31006KT 10SM OVC012 A2999 RMK MADISHF
LUK,2017-04-01 05:00,-84.4186,39.1033,M,M,M,320.00,7.00,M,29.99,M,10.00,M,OVC,M,M,M,1200.00,M,M,M,M,KLUK 010500Z AUTO 32007KT 10SM OVC012 A2999 RMK MADISHF
LUK,2017-04-01 05:05,-84.4186,39.1033,M,M,M,330.00,8.00,M,29.99,M,10.00,M,OVC,M,M,M,1200.00,M,M,M,M,KLUK 010505Z AUTO 33008KT 10SM OVC012 A2999 RMK MADISHF
LUK,2017-04-01 05:10,-84.4186,39.1033,M,M,M,310.00,5.00,M,29.99,M,10.00,M,OVC,M,M,M,1300.00,M,M,M,M,KLUK 010510Z AUTO 31005KT 10SM OVC013 A2999 RMK MADISHF
LUK,2017-04-01 05:15,-84.4186,39.1033,M,M,M,310.00,6.00,M,29.99,M,10.00,M,OVC,M,M,M,1300.00,M,M,M,M,KLUK 010515Z AUTO 31006KT 10SM OVC013 A2999 RMK MADISHF
LUK,2017-04-01 05:20,-84.4186,39.1033,M,M,M,320.00,7.00,M,29.99,M,10.00,M,OVC,M,M,M,1300.00,M,M,M,M,KLUK 010520Z AUTO 32007KT 10SM OVC013 A2999 RMK MADISHF
LUK,2017-04-01 05:25,-84.4186,39.1033,M,M,M,320.00,7.00,M,30.00,M,10.00,M,OVC,M,M,M,1400.00,M,M,M,M,KLUK 010525Z AUTO 32007KT 10SM OVC014 A3000 RMK MADISHF
LUK,2017-04-01 05:30,-84.4186,39.1033,M,M,M,320.00,6.00,M,30.00,M,10.00,M,OVC,M,M,M,1400.00,M,M,M,M,KLUK 010530Z AUTO 32006KT 10SM OVC014 A3000 RMK MADISHF
LUK,2017-04-01 05:35,-84.4186,39.1033,M,M,M,300.00,5.00,M,30.00,M,10.00,M,OVC,M,M,M,1300.00,M,M,M,M,KLUK 010535Z AUTO 30005KT 10SM OVC013 A3000 RMK MADISHF
LUK,2017-04-01 05:40,-84.4186,39.1033,M,M,M,320.00,8.00,M,30.00,M,10.00,M,OVC,M,M,M,1300.00,M,M,M,M,KLUK 010540Z AUTO 32008KT 10SM OVC013 A3000 RMK WND 29V35  MADISHF
LUK,2017-04-01 05:45,-84.4186,39.1033,M,M,M,300.00,6.00,M,30.00,M,10.00,M,OVC,M,M,M,1300.00,M,M,M,M,KLUK 010545Z AUTO 30006KT 10SM OVC013 A3000 RMK MADISHF
LUK,2017-04-01 05:50,-84.4186,39.1033,M,M,M,310.00,6.00,M,30.00,M,10.00,M,OVC,M,M,M,1300.00,M,M,M,M,KLUK 010550Z AUTO 31006KT 10SM OVC013 A3000 RMK MADISHF
LUK,2017-04-01 05:53,-84.4186,39.1033,44.10,41.00,88.77,310.00,8.00,0.00,30.00,1015.90,10.00,M,OVC,M,M,M,1300.00,M,M,M,M,KLUK 010553Z AUTO 31008KT 10SM OVC013 07/05 A3000 RMK AO2 SLP159 60000 T00670050 10100 20067 51020
LUK,2017-04-01 05:55,-84.4186,39.1033,M,M,M,300.00,8.00,M,30.00,M,10.00,M,OVC,M,M,M,1300.00,M,M,M,M,KLUK 010555Z AUTO 30008KT 10SM OVC013 A3000 RMK MADISHF
LUK,2017-04-01 06:00,-84.4186,39.1033,M,M,M,300.00,7.00,M,30.00,M,10.00,M,OVC,M,M,M,1300.00,M,M,M,M,KLUK 010600Z AUTO 30007KT 10SM OVC013 A3000 RMK MADISHF
LUK,2017-04-01 06:05,-84.4186,39.1033,M,M,M,300.00,7.00,M,30.01,M,10.00,M,OVC,M,M,M,1300.00,M,M,M,M,KLUK 010605Z AUTO 30007KT 10SM OVC013 A3001 RMK MADISHF
LUK,2017-04-01 06:10,-84.4186,39.1033,M,M,M,290.00,8.00,M,30.01,M,10.00,M,OVC,M,M,M,1400.00,M,M,M,M,KLUK 010610Z AUTO 29008KT 10SM OVC014 A3001 RMK MADISHF
LUK,2017-04-01 06:15,-84.4186,39.1033,M,M,M,310.00,6.00,M,30.01,M,10.00,M,BKN,BKN,OVC,M,1400.00,1999.00,2400.00,M,M,KLUK 010615Z AUTO 31006KT 10SM BKN014 BKN019 OVC024 A3001 RMK MADISHF
LUK,2017-04-01 06:20,-84.4186,39.1033,M,M,M,290.00,6.00,M,30.01,M,10.00,M,BKN,OVC,M,M,1400.00,2200.00,M,M,M,KLUK 010620Z AUTO 29006KT 10SM BKN014 OVC022 A3001 RMK MADISHF
LUK,2017-04-01 06:25,-84.4186,39.1033,M,M,M,310.00,6.00,M,30.01,M,10.00,M,BKN,OVC,M,M,1400.00,2300.00,M,M,M,KLUK 010625Z AUTO 31006KT 10SM BKN014 OVC023 A3001 RMK MADISHF
LUK,2017-04-01 06:30,-84.4186,39.1033,M,M,M,300.00,8.00,M,30.02,M,10.00,M,BKN,OVC,M,M,1400.00,2100.00,M,M,M,KLUK 010630Z AUTO 30008KT 10SM BKN014 OVC021 A3002 RMK MADISHF
LUK,2017-04-01 06:35,-84.4186,39.1033,M,M,M,300.00,6.00,M,30.02,M,10.00,M,BKN,OVC,M,M,1500.00,2100.00,M,M,M,KLUK 010635Z AUTO 30006KT 10SM BKN015 OVC021 A3002 RMK MADISHF
LUK,2017-04-01 06:39,-84.4186,39.1033,43.00,41.00,92.58,280.00,9.00,0.00,30.02,M,10.00,M,BKN,OVC,M,M,1500.00,2100.00,M,M,M,KLUK 010639Z AUTO 28009KT 10SM BKN015 OVC021 06/05 A3002 RMK AO2 T00610050
LUK,2017-04-01 06:40,-84.4186,39.1033,M,M,M,280.00,9.00,M,30.02,M,10.00,M,OVC,M,M,M,1500.00,M,M,M,M,KLUK 010640Z AUTO 28009KT 10SM OVC015 A3002 RMK MADISHF
LUK,2017-04-01 06:45,-84.4186,39.1033,M,M,M,300.00,7.00,M,30.02,M,10.00,M,BKN,OVC,M,M,1500.00,2200.00,M,M,M,KLUK 010645Z AUTO 30007KT 10SM BKN015 OVC022 A3002 RMK MADISHF
LUK,2017-04-01 06:50,-84.4186,39.1033,M,M,M,300.00,5.00,M,30.02,M,10.00,M,BKN,BKN,OVC,M,1500.00,2400.00,2800.00,M,M,KLUK 010650Z AUTO 30005KT 10SM BKN015 BKN024 OVC028 A3002 RMK MADISHF
LUK,2017-04-01 06:53,-84.4186,39.1033,43.00,39.90,88.71,M,4.00,0.00,30.02,1016.50,10.00,M,BKN,OVC,M,M,1500.00,2800.00,M,M,M,KLUK 010653Z AUTO VRB04KT 10SM BKN015 OVC028 06/04 A3002 RMK AO2 SLP165 T00610044
LUK,2017-04-01 06:55,-84.4186,39.1033,M,M,M,300.00,6.00,M,30.02,M,10.00,M,BKN,OVC,M,M,1500.00,2800.00,M,M,M,KLUK 010655Z AUTO 30006KT 10SM BKN015 OVC028 A3002 RMK MADISHF
LUK,2017-04-01 07:00,-84.4186,39.1033,M,M,M,280.00,7.00,M,30.02,M,10.00,M,BKN,BKN,OVC,M,1500.00,2300.00,2800.00,M,M,KLUK 010700Z AUTO 28007KT 10SM BKN015 BKN023 OVC028 A3002 RMK MADISHF
LUK,2017-04-01 07:05,-84.4186,39.1033,M,M,M,280.00,9.00,M,30.02,M,9.00,M,BKN,BKN,OVC,M,1500.00,2300.00,2800.00,M,M,KLUK 010705Z AUTO 28009KT 9SM BKN015 BKN023 OVC028 A3002 RMK MADISHF
LUK,2017-04-01 07:10,-84.4186,39.1033,M,M,M,280.00,7.00,M,30.02,M,7.00,M,BKN,BKN,OVC,M,1699.00,2300.00,2800.00,M,M,KLUK 010710Z AUTO 28007KT 7SM BKN016 BKN023 OVC028 A3002 RMK MADISHF
LUK,2017-04-01 07:15,-84.4186,39.1033,M,M,M,290.00,8.00,M,30.02,M,7.00,M,BKN,OVC,M,M,1500.00,2800.00,M,M,M,KLUK 010715Z AUTO 29008KT 7SM BKN015 OVC028 A3002 RMK MADISHF
LUK,2017-04-01 07:20,-84.4186,39.1033,M,M,M,290.00,6.00,M,30.02,M,8.00,M,OVC,M,M,M,1500.00,M,M,M,M,KLUK 010720Z AUTO 29006KT 8SM OVC015 A3002 RMK MADISHF
LUK,2017-04-01 07:25,-84.4186,39.1033,M,M,M,280.00,7.00,M,30.03,M,10.00,M,OVC,M,M,M,1500.00,M,M,M,M,KLUK 010725Z AUTO 28007KT 10SM OVC015 A3003 RMK MADISHF
LUK,2017-04-01 07:30,-84.4186,39.1033,M,M,M,280.00,5.00,M,30.03,M,10.00,M,OVC,M,M,M,1500.00,M,M,M,M,KLUK 010730Z AUTO 28005KT 10SM OVC015 A3003 RMK MADISHF
LUK,2017-04-01 07:35,-84.4186,39.1033,M,M,M,290.00,5.00,M,30.03,M,9.00,M,OVC,M,M,M,1500.00,M,M,M,M,KLUK 010735Z AUTO 29005KT 9SM OVC015 A3003 RMK VRB05KT  MADISHF
LUK,2017-04-01 07:40,-84.4186,39.1033,M,M,M,310.00,3.00,M,30.03,M,9.00,M,BKN,OVC,M,M,1500.00,2400.00,M,M,M,KLUK 010740Z AUTO 31003KT 9SM BKN015 OVC024 A3003 RMK MADISHF
LUK,2017-04-01 07:45,-84.4186,39.1033,M,M,M,310.00,7.00,M,30.03,M,10.00,M,BKN,OVC,M,M,1500.00,2200.00,M,M,M,KLUK 010745Z AUTO 31007KT 10SM BKN015 OVC022 A3003 RMK WND 27V33  MADISHF
LUK,2017-04-01 07:50,-84.4186,39.1033,M,M,M,280.00,5.00,M,30.03,M,10.00,M,SCT,OVC,M,M,1500.00,2200.00,M,M,M,KLUK 010750Z AUTO 28005KT 10SM SCT015 OVC022 A3003 RMK MADISHF
LUK,2017-04-01 07:53,-84.4186,39.1033,43.00,39.90,88.71,M,3.00,0.00,30.03,1017.10,10.00,M,BKN,OVC,M,M,1500.00,2200.00,M,M,M,KLUK 010753Z AUTO VRB03KT 10SM BKN015 OVC022 06/04 A3003 RMK AO2 SLP171 T00610044
LUK,2017-04-01 07:55,-84.4186,39.1033,M,M,M,290.00,5.00,M,30.03,M,10.00,M,BKN,OVC,M,M,1800.00,2400.00,M,M,M,KLUK 010755Z AUTO 29005KT 10SM BKN018 OVC024 A3003 RMK MADISHF
LUK,2017-04-01 08:00,-84.4186,39.1033,M,M,M,320.00,5.00,M,30.04,M,10.00,M,OVC,M,M,M,1800.00,M,M,M,M,KLUK 010800Z AUTO 32005KT 10SM OVC018 A3004 RMK MADISHF
LUK,2017-04-01 08:05,-84.4186,39.1033,M,M,M,300.00,7.00,M,30.04,M,10.00,M,FEW,OVC,M,M,1600.00,1999.00,M,M,M,KLUK 010805Z AUTO 30007KT 10SM FEW016 OVC019 A3004 RMK MADISHF
LUK,2017-04-01 08:10,-84.4186,39.1033,M,M,M,310.00,7.00,M,30.04,M,10.00,M,SCT,OVC,M,M,1500.00,1999.00,M,M,M,KLUK 010810Z AUTO 31007KT 10SM SCT015 OVC019 A3004 RMK WND 29V35  MADISHF
LUK,2017-04-01 08:15,-84.4186,39.1033,M,M,M,330.00,5.00,M,30.04,M,10.00,M,BKN,OVC,M,M,1500.00,1999.00,M,M,M,KLUK 010815Z AUTO 33005KT 10SM BKN015 OVC019 A3004 RMK VRB05KT  MADISHF
LUK,2017-04-01 08:20,-84.4186,39.1033,M,M,M,320.00,3.00,M,30.04,M,10.00,M,OVC,M,M,M,1500.00,M,M,M,M,KLUK 010820Z AUTO 32003KT 10SM OVC015 A3004 RMK MADISHF
LUK,2017-04-01 08:25,-84.4186,39.1033,M,M,M,300.00,4.00,M,30.04,M,10.00,M,OVC,M,M,M,1600.00,M,M,M,M,KLUK 010825Z AUTO 30004KT 10SM OVC016 A3004 RMK MADISHF
LUK,2017-04-01 08:30,-84.4186,39.1033,M,M,M,280.00,4.00,M,30.04,M,10.00,M,OVC,M,M,M,1600.00,M,M,M,M,KLUK 010830Z AUTO 28004KT 10SM OVC016 A3004 RMK MADISHF
LUK,2017-04-01 08:35,-84.4186,39.1033,M,M,M,310.00,6.00,M,30.04,M,10.00,M,OVC,M,M,M,1600.00,M,M,M,M,KLUK 010835Z AUTO 31006KT 10SM OVC016 A3004 RMK MADISHF
LUK,2017-04-01 08:40,-84.4186,39.1033,M,M,M,320.00,5.00,M,30.04,M,10.00,M,OVC,M,M,M,1600.00,M,M,M,M,KLUK 010840Z AUTO 32005KT 10SM OVC016 A3004 RMK MADISHF
LUK,2017-04-01 08:45,-84.4186,39.1033,M,M,M,0.00,0.00,M,30.04,M,10.00,M,OVC,M,M,M,1600.00,M,M,M,M,KLUK 010845Z AUTO 00000KT 10SM OVC016 A3004 RMK MADISHF
LUK,2017-04-01 08:50,-84.4186,39.1033,M,M,M,320.00,3.00,M,30.04,M,10.00,M,OVC,M,M,M,1400.00,M,M,M,M,KLUK 010850Z AUTO 32003KT 10SM OVC014 A3004 RMK MADISHF
LUK,2017-04-01 08:53,-84.4186,39.1033,43.00,39.90,88.71,320.00,3.00,0.00,30.04,1017.40,9.00,M,OVC,M,M,M,1400.00,M,M,M,M,KLUK 010853Z AUTO 32003KT 9SM OVC014 06/04 A3004 RMK AO2 SLP174 T00610044 51013
LUK,2017-04-01 08:55,-84.4186,39.1033,M,M,M,300.00,3.00,M,30.04,M,8.00,M,OVC,M,M,M,1400.00,M,M,M,-RA,KLUK 010855Z AUTO 30003KT 8SM -RA OVC014 A3004 RMK VRB03KT  MADISHF
LUK,2017-04-01 09:00,-84.4186,39.1033,M,M,M,290.00,4.00,M,30.04,M,8.00,M,OVC,M,M,M,1400.00,M,M,M,-RA,KLUK 010900Z AUTO 29004KT 8SM -RA OVC014 A3004 RMK MADISHF
LUK,2017-04-01 09:05,-84.4186,39.1033,M,M,M,280.00,5.00,M,30.05,M,10.00,M,OVC,M,M,M,1400.00,M,M,M,M,KLUK 010905Z AUTO 28005KT 10SM OVC014 A3005 RMK MADISHF
LUK,2017-04-01 09:10,-84.4186,39.1033,M,M,M,270.00,6.00,M,30.05,M,10.00,M,OVC,M,M,M,1400.00,M,M,M,M,KLUK 010910Z AUTO 27006KT 10SM OVC014 A3005 RMK MADISHF
LUK,2017-04-01 09:15,-84.4186,39.1033,M,M,M,300.00,4.00,M,30.05,M,10.00,M,OVC,M,M,M,1400.00,M,M,M,M,KLUK 010915Z AUTO 30004KT 10SM OVC014 A3005 RMK MADISHF
LUK,2017-04-01 09:20,-84.4186,39.1033,M,M,M,300.00,4.00,M,30.05,M,10.00,M,BKN,OVC,M,M,1200.00,1999.00,M,M,M,KLUK 010920Z AUTO 30004KT 10SM BKN012 OVC019 A3005 RMK MADISHF
LUK,2017-04-01 09:25,-84.4186,39.1033,M,M,M,300.00,4.00,M,30.06,M,10.00,M,BKN,OVC,M,M,1400.00,1999.00,M,M,M,KLUK 010925Z AUTO 30004KT 10SM BKN014 OVC019 A3006 RMK MADISHF
LUK,2017-04-01 09:30,-84.4186,39.1033,M,M,M,310.00,5.00,M,30.06,M,10.00,M,BKN,BKN,OVC,M,1400.00,1999.00,2700.00,M,M,KLUK 010930Z AUTO 31005KT 10SM BKN014 BKN019 OVC027 A3006 RMK MADISHF
LUK,2017-04-01 09:35,-84.4186,39.1033,M,M,M,320.00,5.00,M,30.06,M,10.00,M,BKN,BKN,OVC,M,1400.00,1999.00,2700.00,M,M,KLUK 010935Z AUTO 32005KT 10SM BKN014 BKN019 OVC027 A3006 RMK MADISHF
LUK,2017-04-01 09:40,-84.4186,39.1033,M,M,M,280.00,4.00,M,30.06,M,10.00,M,BKN,OVC,M,M,1400.00,2100.00,M,M,M,KLUK 010940Z AUTO 28004KT 10SM BKN014 OVC021 A3006 RMK MADISHF
LUK,2017-04-01 09:45,-84.4186,39.1033,M,M,M,290.00,5.00,M,30.06,M,10.00,M,BKN,OVC,M,M,1600.00,2100.00,M,M,M,KLUK 010945Z AUTO 29005KT 10SM BKN016 OVC021 A3006 RMK MADISHF
LUK,2017-04-01 09:49,-84.4186,39.1033,42.80,39.20,86.99,300.00,4.00,0.00,30.06,M,10.00,M,BKN,BKN,OVC,M,1600.00,2100.00,3700.00,M,M,KLUK 010949Z AUTO 30004KT 10SM BKN016 BKN021 OVC037 06/04 A3006 RMK AO2 RAB0855E04 P0000
LUK,2017-04-01 09:50,-84.4186,39.1033,M,M,M,310.00,4.00,M,30.06,M,10.00,M,BKN,BKN,OVC,M,1600.00,2700.00,3700.00,M,M,KLUK 010950Z AUTO 31004KT 10SM BKN016 BKN027 OVC037 A3006 RMK MADISHF
LUK,2017-04-01 09:53,-84.4186,39.1033,43.00,39.90,88.71,300.00,5.00,0.00,30.06,1017.90,10.00,M,BKN,OVC,M,M,1700.00,3700.00,M,M,M,KLUK 010953Z AUTO 30005KT 10SM BKN017 OVC037 06/04 A3006 RMK AO2 RAB0855E04 SLP179 P0000 T00610044
LUK,2017-04-01 09:55,-84.4186,39.1033,M,M,M,290.00,6.00,M,30.06,M,10.00,M,BKN,BKN,OVC,M,1500.00,1999.00,3700.00,M,M,KLUK 010955Z AUTO 29006KT 10SM BKN015 BKN019 OVC037 A3006 RMK MADISHF
LUK,2017-04-01 10:00,-84.4186,39.1033,M,M,M,300.00,5.00,M,30.06,M,10.00,M,BKN,OVC,M,M,1699.00,3700.00,M,M,M,KLUK 011000Z AUTO 30005KT 10SM BKN016 OVC037 A3006 RMK MADISHF
LUK,2017-04-01 10:05,-84.4186,39.1033,M,M,M,310.00,5.00,M,30.07,M,10.00,M,BKN,OVC,M,M,1699.00,3800.00,M,M,M,KLUK 011005Z AUTO 31005KT 10SM BKN016 OVC038 A3007 RMK MADISHF
LUK,2017-04-01 10:10,-84.4186,39.1033,M,M,M,290.00,4.00,M,30.07,M,10.00,M,OVC,M,M,M,1600.00,M,M,M,M,KLUK 011010Z AUTO 29004KT 10SM OVC016 A3007 RMK MADISHF
LUK,2017-04-01 10:15,-84.4186,39.1033,M,M,M,310.00,4.00,M,30.07,M,10.00,M,OVC,M,M,M,1600.00,M,M,M,M,KLUK 011015Z AUTO 31004KT 10SM OVC016 A3007 RMK MADISHF
LUK,2017-04-01 10:20,-84.4186,39.1033,M,M,M,310.00,6.00,M,30.08,M,10.00,M,OVC,M,M,M,1600.00,M,M,M,M,KLUK 011020Z AUTO 31006KT 10SM OVC016 A3008 RMK MADISHF
LUK,2017-04-01 10:25,-84.4186,39.1033,M,M,M,290.00,4.00,M,30.08,M,10.00,M,OVC,M,M,M,1600.00,M,M,M,M,KLUK 011025Z AUTO 29004KT 10SM OVC016 A3008 RMK MADISHF
LUK,2017-04-01 10:30,-84.4186,39.1033,M,M,M,310.00,3.00,M,30.08,M,10.00,M,OVC,M,M,M,1600.00,M,M,M,M,KLUK 011030Z AUTO 31003KT 10SM OVC016 A3008 RMK MADISHF
LUK,2017-04-01 10:35,-84.4186,39.1033,M,M,M,300.00,3.00,M,30.08,M,10.00,M,OVC,M,M,M,1600.00,M,M,M,M,KLUK 011035Z AUTO 30003KT 10SM OVC016 A3008 RMK VRB03KT  MADISHF
LUK,2017-04-01 10:40,-84.4186,39.1033,M,M,M,290.00,4.00,M,30.08,M,10.00,M,OVC,M,M,M,1600.00,M,M,M,M,KLUK 011040Z AUTO 29004KT 10SM OVC016 A3008 RMK MADISHF
LUK,2017-04-01 10:45,-84.4186,39.1033,M,M,M,300.00,4.00,M,30.09,M,10.00,M,OVC,M,M,M,1600.00,M,M,M,M,KLUK 011045Z AUTO 30004KT 10SM OVC016 A3009 RMK VRB04KT  MADISHF
LUK,2017-04-01 10:50,-84.4186,39.1033,M,M,M,290.00,6.00,M,30.09,M,10.00,M,OVC,M,M,M,1600.00,M,M,M,M,KLUK 011050Z AUTO 29006KT 10SM OVC016 A3009 RMK MADISHF
LUK,2017-04-01 10:53,-84.4186,39.1033,43.00,39.00,85.66,310.00,6.00,0.00,30.09,1019.10,10.00,M,OVC,M,M,M,1600.00,M,M,M,M,KLUK 011053Z 31006KT 10SM OVC016 06/04 A3009 RMK AO2 SLP191 T00610039
LUK,2017-04-01 10:55,-84.4186,39.1033,M,M,M,300.00,6.00,M,30.09,M,10.00,M,OVC,M,M,M,1600.00,M,M,M,M,KLUK 011055Z AUTO 30006KT 10SM OVC016 A3009 RMK MADISHF
LUK,2017-04-01 11:00,-84.4186,39.1033,M,M,M,310.00,7.00,M,30.10,M,10.00,M,OVC,M,M,M,1600.00,M,M,M,M,KLUK 011100Z AUTO 31007KT 10SM OVC016 A3010 RMK MADISHF
LUK,2017-04-01 11:05,-84.4186,39.1033,M,M,M,310.00,7.00,M,30.10,M,10.00,M,OVC,M,M,M,1500.00,M,M,M,M,KLUK 011105Z AUTO 31007KT 10SM OVC015 A3010 RMK WND 28V34  MADISHF
LUK,2017-04-01 11:10,-84.4186,39.1033,M,M,M,320.00,7.00,M,30.10,M,10.00,M,OVC,M,M,M,1500.00,M,M,M,M,KLUK 011110Z AUTO 32007KT 10SM OVC015 A3010 RMK MADISHF
LUK,2017-04-01 11:15,-84.4186,39.1033,M,M,M,320.00,3.00,M,30.10,M,10.00,M,OVC,M,M,M,1500.00,M,M,M,M,KLUK 011115Z AUTO 32003KT 10SM OVC015 A3010 RMK VRB03KT  MADISHF
LUK,2017-04-01 11:20,-84.4186,39.1033,M,M,M,290.00,4.00,M,30.11,M,10.00,M,OVC,M,M,M,1500.00,M,M,M,M,KLUK 011120Z AUTO 29004KT 10SM OVC015 A3011 RMK MADISHF
LUK,2017-04-01 11:25,-84.4186,39.1033,M,M,M,310.00,7.00,M,30.11,M,10.00,M,OVC,M,M,M,1500.00,M,M,M,M,KLUK 011125Z AUTO 31007KT 10SM OVC015 A3011 RMK MADISHF
LUK,2017-04-01 11:30,-84.4186,39.1033,M,M,M,310.00,6.00,M,30.11,M,10.00,M,OVC,M,M,M,1500.00,M,M,M,M,KLUK 011130Z AUTO 31006KT 10SM OVC015 A3011 RMK MADISHF
LUK,2017-04-01 11:35,-84.4186,39.1033,M,M,M,300.00,7.00,M,30.11,M,10.00,M,OVC,M,M,M,1500.00,M,M,M,M,KLUK 011135Z AUTO 30007KT 10SM OVC015 A3011 RMK MADISHF
LUK,2017-04-01 11:40,-84.4186,39.1033,M,M,M,300.00,7.00,M,30.11,M,10.00,M,OVC,M,M,M,1500.00,M,M,M,M,KLUK 011140Z AUTO 30007KT 10SM OVC015 A3011 RMK MADISHF
LUK,2017-04-01 11:45,-84.4186,39.1033,M,M,M,320.00,6.00,M,30.12,M,10.00,M,OVC,M,M,M,1500.00,M,M,M,M,KLUK 011145Z AUTO 32006KT 10SM OVC015 A3012 RMK MADISHF
LUK,2017-04-01 11:50,-84.4186,39.1033,M,M,M,320.00,5.00,M,30.12,M,10.00,M,OVC,M,M,M,1300.00,M,M,M,M,KLUK 011150Z AUTO 32005KT 10SM OVC013 A3012 RMK MADISHF
LUK,2017-04-01 11:53,-84.4186,39.1033,43.00,39.90,88.71,340.00,5.00,0.00,30.12,1019.90,10.00,M,OVC,M,M,M,1300.00,M,M,M,M,KLUK 011153Z 34005KT 10SM OVC013 06/04 A3012 RMK AO2 SLP199 60000 70001 T00610044 10067 20056 53019
LUK,2017-04-01 11:55,-84.4186,39.1033,M,M,M,340.00,5.00,M,30.12,M,10.00,M,OVC,M,M,M,1300.00,M,M,M,M,KLUK 011155Z AUTO 34005KT 10SM OVC013 A3012 RMK MADISHF
LUK,2017-04-01 12:00,-84.4186,39.1033,M,M,M,340.00,7.00,M,30.12,M,10.00,M,OVC,M,M,M,1300.00,M,M,M,M,KLUK 011200Z AUTO 34007KT 10SM OVC013 A3012 RMK MADISHF
LUK,2017-04-01 12:05,-84.4186,39.1033,M,M,M,340.00,7.00,M,30.12,M,10.00,M,OVC,M,M,M,1400.00,M,M,M,M,KLUK 011205Z AUTO 34007KT 10SM OVC014 A3012 RMK MADISHF
LUK,2017-04-01 12:10,-84.4186,39.1033,M,M,M,340.00,8.00,M,30.13,M,10.00,M,OVC,M,M,M,1400.00,M,M,M,M,KLUK 011210Z AUTO 34008KT 10SM OVC014 A3013 RMK MADISHF
LUK,2017-04-01 12:15,-84.4186,39.1033,M,M,M,340.00,9.00,M,30.13,M,10.00,M,OVC,M,M,M,1400.00,M,M,M,M,KLUK 011215Z AUTO 34009KT 10SM OVC014 A3013 RMK MADISHF
LUK,2017-04-01 12:20,-84.4186,39.1033,M,M,M,330.00,8.00,M,30.13,M,10.00,M,OVC,M,M,M,1400.00,M,M,M,M,KLUK 011220Z AUTO 33008KT 10SM OVC014 A3013 RMK MADISHF
LUK,2017-04-01 12:25,-84.4186,39.1033,M,M,M,340.00,8.00,M,30.14,M,10.00,M,OVC,M,M,M,1400.00,M,M,M,M,KLUK 011225Z AUTO 34008KT 10SM OVC014 A3014 RMK MADISHF
LUK,2017-04-01 12:30,-84.4186,39.1033,M,M,M,350.00,8.00,M,30.14,M,10.00,M,OVC,M,M,M,1400.00,M,M,M,M,KLUK 011230Z AUTO 35008KT 10SM OVC014 A3014 RMK MADISHF
LUK,2017-04-01 12:35,-84.4186,39.1033,M,M,M,340.00,8.00,M,30.15,M,10.00,M,OVC,M,M,M,1400.00,M,M,M,M,KLUK 011235Z AUTO 34008KT 10SM OVC014 A3015 RMK MADISHF
LUK,2017-04-01 12:40,-84.4186,39.1033,M,M,M,340.00,6.00,M,30.15,M,10.00,M,OVC,M,M,M,1300.00,M,M,M,M,KLUK 011240Z AUTO 34006KT 10SM OVC013 A3015 RMK MADISHF
LUK,2017-04-01 12:45,-84.4186,39.1033,M,M,M,330.00,4.00,M,30.15,M,10.00,M,OVC,M,M,M,1300.00,M,M,M,M,KLUK 011245Z AUTO 33004KT 10SM OVC013 A3015 RMK MADISHF
LUK,2017-04-01 12:50,-84.4186,39.1033,M,M,M,350.00,6.00,M,30.15,M,10.00,M,OVC,M,M,M,1300.00,M,M,M,M,KLUK 011250Z AUTO 35006KT 10SM OVC013 A3015 RMK MADISHF
LUK,2017-04-01 12:53,-84.4186,39.1033,43.00,39.90,88.71,360.00,10.00,0.00,30.15,1021.20,10.00,M,OVC,M,M,M,1300.00,M,M,M,M,KLUK 011253Z 36010KT 10SM OVC013 06/04 A3015 RMK AO2 SLP212 T00610044
LUK,2017-04-01 12:55,-84.4186,39.1033,M,M,M,360.00,8.00,M,30.16,M,10.00,M,OVC,M,M,M,1300.00,M,M,M,M,KLUK 011255Z AUTO 36008KT 10SM OVC013 A3016 RMK MADISHF
LUK,2017-04-01 13:00,-84.4186,39.1033,M,M,M,320.00,6.00,M,30.16,M,10.00,M,OVC,M,M,M,1200.00,M,M,M,M,KLUK 011300Z AUTO 32006KT 10SM OVC012 A3016 RMK MADISHF
LUK,2017-04-01 13:05,-84.4186,39.1033,M,M,M,320.00,7.00,M,30.16,M,10.00,M,OVC,M,M,M,1200.00,M,M,M,M,KLUK 011305Z AUTO 32007KT 10SM OVC012 A3016 RMK MADISHF
LUK,2017-04-01 13:10,-84.4186,39.1033,M,M,M,320.00,5.00,M,30.16,M,10.00,M,OVC,M,M,M,1200.00,M,M,M,M,KLUK 011310Z AUTO 32005KT 10SM OVC012 A3016 RMK MADISHF
LUK,2017-04-01 13:15,-84.4186,39.1033,M,M,M,340.00,6.00,M,30.16,M,10.00,M,OVC,M,M,M,1200.00,M,M,M,M,KLUK 011315Z AUTO 34006KT 10SM OVC012 A3016 RMK MADISHF
LUK,2017-04-01 13:20,-84.4186,39.1033,M,M,M,330.00,8.00,M,30.16,M,10.00,M,OVC,M,M,M,1200.00,M,M,M,M,KLUK 011320Z AUTO 33008KT 10SM OVC012 A3016 RMK MADISHF
LUK,2017-04-01 13:25,-84.4186,39.1033,M,M,M,340.00,7.00,M,30.16,M,10.00,M,OVC,M,M,M,1200.00,M,M,M,M,KLUK 011325Z AUTO 34007KT 10SM OVC012 A3016 RMK MADISHF
LUK,2017-04-01 13:30,-84.4186,39.1033,M,M,M,330.00,4.00,M,30.16,M,10.00,M,OVC,M,M,M,1100.00,M,M,M,M,KLUK 011330Z AUTO 33004KT 10SM OVC011 A3016 RMK MADISHF
LUK,2017-04-01 13:35,-84.4186,39.1033,M,M,M,310.00,4.00,M,30.16,M,10.00,M,OVC,M,M,M,1100.00,M,M,M,M,KLUK 011335Z AUTO 31004KT 10SM OVC011 A3016 RMK MADISHF
LUK,2017-04-01 13:40,-84.4186,39.1033,M,M,M,320.00,7.00,M,30.16,M,10.00,M,OVC,M,M,M,1100.00,M,M,M,M,KLUK 011340Z AUTO 32007KT 10SM OVC011 A3016 RMK MADISHF
LUK,2017-04-01 13:45,-84.4186,39.1033,M,M,M,340.00,6.00,M,30.16,M,10.00,M,OVC,M,M,M,1300.00,M,M,M,M,KLUK 011345Z AUTO 34006KT 10SM OVC013 A3016 RMK MADISHF
LUK,2017-04-01 13:50,-84.4186,39.1033,M,M,M,310.00,7.00,M,30.16,M,10.00,M,OVC,M,M,M,1300.00,M,M,M,M,KLUK 011350Z AUTO 31007KT 10SM OVC013 A3016 RMK MADISHF
LUK,2017-04-01 13:53,-84.4186,39.1033,43.00,39.90,88.71,330.00,4.00,0.00,30.16,1021.50,10.00,M,OVC,M,M,M,1300.00,M,M,M,M,KLUK 011353Z 33004KT 10SM OVC013 06/04 A3016 RMK AO2 SLP215 T00610044
LUK,2017-04-01 13:55,-84.4186,39.1033,M,M,M,300.00,5.00,M,30.17,M,10.00,M,OVC,M,M,M,1300.00,M,M,M,M,KLUK 011355Z AUTO 30005KT 10SM OVC013 A3017 RMK MADISHF
LUK,2017-04-01 14:00,-84.4186,39.1033,M,M,M,320.00,4.00,M,30.17,M,10.00,M,BKN,OVC,M,M,1300.00,2200.00,M,M,M,KLUK 011400Z AUTO 32004KT 10SM BKN013 OVC022 A3017 RMK MADISHF
LUK,2017-04-01 14:05,-84.4186,39.1033,M,M,M,320.00,5.00,M,30.17,M,10.00,M,BKN,OVC,M,M,1400.00,2200.00,M,M,M,KLUK 011405Z AUTO 32005KT 10SM BKN014 OVC022 A3017 RMK MADISHF
LUK,2017-04-01 14:10,-84.4186,39.1033,M,M,M,340.00,5.00,M,30.17,M,10.00,M,BKN,OVC,M,M,1400.00,2200.00,M,M,M,KLUK 011410Z AUTO 34005KT 10SM BKN014 OVC022 A3017 RMK MADISHF
LUK,2017-04-01 14:15,-84.4186,39.1033,M,M,M,340.00,4.00,M,30.17,M,10.00,M,BKN,OVC,M,M,1400.00,2200.00,M,M,M,KLUK 011415Z AUTO 34004KT 10SM BKN014 OVC022 A3017 RMK MADISHF
LUK,2017-04-01 14:20,-84.4186,39.1033,M,M,M,320.00,5.00,M,30.17,M,10.00,M,BKN,OVC,M,M,1400.00,2200.00,M,M,M,KLUK 011420Z AUTO 32005KT 10SM BKN014 OVC022 A3017 RMK MADISHF
LUK,2017-04-01 14:25,-84.4186,39.1033,M,M,M,340.00,6.00,M,30.18,M,10.00,M,BKN,OVC,M,M,1400.00,2200.00,M,M,M,KLUK 011425Z AUTO 34006KT 10SM BKN014 OVC022 A3018 RMK MADISHF
LUK,2017-04-01 14:30,-84.4186,39.1033,M,M,M,350.00,5.00,M,30.18,M,10.00,M,BKN,OVC,M,M,1400.00,2200.00,M,M,M,KLUK 011430Z AUTO 35005KT 10SM BKN014 OVC022 A3018 RMK MADISHF
LUK,2017-04-01 14:35,-84.4186,39.1033,M,M,M,340.00,5.00,M,30.18,M,10.00,M,BKN,OVC,M,M,1400.00,2200.00,M,M,M,KLUK 011435Z AUTO 34005KT 10SM BKN014 OVC022 A3018 RMK MADISHF
LUK,2017-04-01 14:40,-84.4186,39.1033,M,M,M,360.00,10.00,M,30.18,M,10.00,M,BKN,OVC,M,M,1400.00,2200.00,M,M,M,KLUK 011440Z AUTO 36010KT 10SM BKN014 OVC022 A3018 RMK MADISHF
LUK,2017-04-01 14:45,-84.4186,39.1033,M,M,M,360.00,7.00,M,30.18,M,10.00,M,BKN,OVC,M,M,1400.00,2200.00,M,M,M,KLUK 011445Z AUTO 36007KT 10SM BKN014 OVC022 A3018 RMK MADISHF
LUK,2017-04-01 14:50,-84.4186,39.1033,M,M,M,360.00,8.00,M,30.18,M,10.00,M,OVC,M,M,M,1900.00,M,M,M,M,KLUK 011450Z AUTO 36008KT 10SM OVC019 A3018 RMK MADISHF
LUK,2017-04-01 14:53,-84.4186,39.1033,44.10,39.00,82.12,350.00,8.00,0.00,30.19,1022.30,10.00,M,OVC,M,M,M,1900.00,M,M,M,M,KLUK 011453Z 35008KT 10SM OVC019 07/04 A3019 RMK AO2 SLP223 T00670039 51023
LUK,2017-04-01 14:55,-84.4186,39.1033,M,M,M,360.00,8.00,M,30.19,M,10.00,M,OVC,M,M,M,1900.00,M,M,M,M,KLUK 011455Z AUTO 36008KT 10SM OVC019 A3019 RMK MADISHF
LUK,2017-04-01 15:00,-84.4186,39.1033,M,M,M,360.00,7.00,M,30.19,M,10.00,M,OVC,M,M,M,1699.00,M,M,M,M,KLUK 011500Z AUTO 36007KT 10SM OVC016 A3019 RMK MADISHF
LUK,2017-04-01 15:05,-84.4186,39.1033,M,M,M,350.00,9.00,M,30.19,M,10.00,M,OVC,M,M,M,1699.00,M,M,M,M,KLUK 011505Z AUTO 35009KT 10SM OVC016 A3019 RMK MADISHF
LUK,2017-04-01 15:10,-84.4186,39.1033,M,M,M,360.00,8.00,M,30.19,M,10.00,M,OVC,M,M,M,1699.00,M,M,M,M,KLUK 011510Z AUTO 36008KT 10SM OVC016 A3019 RMK MADISHF
LUK,2017-04-01 15:15,-84.4186,39.1033,M,M,M,20.00,6.00,M,30.20,M,10.00,M,OVC,M,M,M,1699.00,M,M,M,M,KLUK 011515Z AUTO 02006KT 10SM OVC016 A3020 RMK MADISHF
LUK,2017-04-01 15:20,-84.4186,39.1033,M,M,M,350.00,5.00,M,30.20,M,10.00,M,BKN,OVC,M,M,1500.00,1999.00,M,M,M,KLUK 011520Z AUTO 35005KT 10SM BKN015 OVC019 A3020 RMK VRB05KT  MADISHF
LUK,2017-04-01 15:25,-84.4186,39.1033,M,M,M,330.00,7.00,M,30.20,M,10.00,M,OVC,M,M,M,1800.00,M,M,M,M,KLUK 011525Z AUTO 33007KT 10SM OVC018 A3020 RMK MADISHF
LUK,2017-04-01 15:30,-84.4186,39.1033,M,M,M,340.00,5.00,M,30.20,M,10.00,M,SCT,OVC,M,M,1500.00,2100.00,M,M,M,KLUK 011530Z AUTO 34005KT 10SM SCT015 OVC021 A3020 RMK MADISHF
LUK,2017-04-01 15:35,-84.4186,39.1033,M,M,M,340.00,8.00,M,30.20,M,10.00,M,FEW,OVC,M,M,1400.00,1999.00,M,M,M,KLUK 011535Z AUTO 34008KT 10SM FEW014 OVC019 A3020 RMK MADISHF
LUK,2017-04-01 15:40,-84.4186,39.1033,M,M,M,360.00,7.00,M,30.20,M,10.00,M,OVC,M,M,M,1999.00,M,M,M,M,KLUK 011540Z AUTO 36007KT 10SM OVC019 A3020 RMK MADISHF
LUK,2017-04-01 15:45,-84.4186,39.1033,M,M,M,350.00,6.00,M,30.20,M,10.00,M,OVC,M,M,M,1999.00,M,M,M,M,KLUK 011545Z AUTO 35006KT 10SM OVC019 A3020 RMK MADISHF
LUK,2017-04-01 15:50,-84.4186,39.1033,M,M,M,360.00,8.00,M,30.20,M,10.00,M,OVC,M,M,M,1999.00,M,M,M,M,KLUK 011550Z AUTO 36008KT 10SM OVC019 A3020 RMK MADISHF
LUK,2017-04-01 15:53,-84.4186,39.1033,45.00,39.00,79.36,360.00,8.00,0.00,30.20,1022.80,10.00,M,OVC,M,M,M,2000.00,M,M,M,M,KLUK 011553Z 36008KT 10SM OVC020 07/04 A3020 RMK AO2 SLP228 T00720039
LUK,2017-04-01 15:55,-84.4186,39.1033,M,M,M,360.00,9.00,M,30.20,M,10.00,M,OVC,M,M,M,1999.00,M,M,M,M,KLUK 011555Z AUTO 36009KT 10SM OVC019 A3020 RMK MADISHF
LUK,2017-04-01 16:00,-84.4186,39.1033,M,M,M,340.00,9.00,M,30.20,M,10.00,M,OVC,M,M,M,1999.00,M,M,M,M,KLUK 011600Z AUTO 34009KT 10SM OVC019 A3020 RMK MADISHF
LUK,2017-04-01 16:05,-84.4186,39.1033,M,M,M,350.00,7.00,M,30.21,M,10.00,M,OVC,M,M,M,1999.00,M,M,M,M,KLUK 011605Z AUTO 35007KT 10SM OVC019 A3021 RMK MADISHF
LUK,2017-04-01 16:10,-84.4186,39.1033,M,M,M,320.00,8.00,M,30.21,M,10.00,M,OVC,M,M,M,1999.00,M,M,M,M,KLUK 011610Z AUTO 32008KT 10SM OVC019 A3021 RMK MADISHF
LUK,2017-04-01 16:15,-84.4186,39.1033,M,M,M,320.00,7.00,M,30.21,M,10.00,M,OVC,M,M,M,1999.00,M,M,M,M,KLUK 011615Z AUTO 32007KT 10SM OVC019 A3021 RMK MADISHF
LUK,2017-04-01 16:20,-84.4186,39.1033,M,M,M,350.00,8.00,M,30.21,M,10.00,M,OVC,M,M,M,1999.00,M,M,M,M,KLUK 011620Z AUTO 35008KT 10SM OVC019 A3021 RMK MADISHF
LUK,2017-04-01 16:25,-84.4186,39.1033,M,M,M,320.00,5.00,M,30.21,M,10.00,M,OVC,M,M,M,1999.00,M,M,M,M,KLUK 011625Z AUTO 32005KT 10SM OVC019 A3021 RMK MADISHF
LUK,2017-04-01 16:30,-84.4186,39.1033,M,M,M,340.00,5.00,M,30.20,M,10.00,M,OVC,M,M,M,1999.00,M,M,M,M,KLUK 011630Z AUTO 34005KT 10SM OVC019 A3020 RMK MADISHF
LUK,2017-04-01 16:35,-84.4186,39.1033,M,M,M,350.00,4.00,M,30.20,M,10.00,M,OVC,M,M,M,1999.00,M,M,M,M,KLUK 011635Z AUTO 35004KT 10SM OVC019 A3020 RMK VRB04KT  MADISHF
LUK,2017-04-01 16:40,-84.4186,39.1033,M,M,M,350.00,5.00,M,30.20,M,10.00,M,OVC,M,M,M,2200.00,M,M,M,M,KLUK 011640Z AUTO 35005KT 10SM OVC022 A3020 RMK MADISHF
LUK,2017-04-01 16:45,-84.4186,39.1033,M,M,M,330.00,4.00,M,30.20,M,10.00,M,OVC,M,M,M,2200.00,M,M,M,M,KLUK 011645Z AUTO 33004KT 10SM OVC022 A3020 RMK VRB04KT  MADISHF
LUK,2017-04-01 16:50,-84.4186,39.1033,M,M,M,310.00,6.00,M,30.20,M,10.00,M,OVC,M,M,M,2200.00,M,M,M,M,KLUK 011650Z AUTO 31006KT 10SM OVC022 A3020 RMK MADISHF
LUK,2017-04-01 16:53,-84.4186,39.1033,46.00,39.00,76.40,300.00,5.00,0.00,30.20,1022.90,10.00,M,OVC,M,M,M,2200.00,M,M,M,M,KLUK 011653Z 30005KT 10SM OVC022 08/04 A3020 RMK AO2 SLP229 T00780039
LUK,2017-04-01 16:55,-84.4186,39.1033,M,M,M,320.00,4.00,M,30.20,M,10.00,M,OVC,M,M,M,2200.00,M,M,M,M,KLUK 011655Z AUTO 32004KT 10SM OVC022 A3020 RMK MADISHF
LUK,2017-04-01 17:00,-84.4186,39.1033,M,M,M,280.00,7.00,M,30.20,M,10.00,M,OVC,M,M,M,2200.00,M,M,M,M,KLUK 011700Z AUTO 28007KT 10SM OVC022 A3020 RMK MADISHF
LUK,2017-04-01 17:05,-84.4186,39.1033,M,M,M,270.00,8.00,M,30.20,M,10.00,M,OVC,M,M,M,2200.00,M,M,M,M,KLUK 011705Z AUTO 27008KT 10SM OVC022 A3020 RMK MADISHF
LUK,2017-04-01 17:10,-84.4186,39.1033,M,M,M,280.00,4.00,M,30.20,M,10.00,M,OVC,M,M,M,2200.00,M,M,M,M,KLUK 011710Z AUTO 28004KT 10SM OVC022 A3020 RMK MADISHF
LUK,2017-04-01 17:15,-84.4186,39.1033,M,M,M,260.00,6.00,M,30.20,M,10.00,M,OVC,M,M,M,2200.00,M,M,M,M,KLUK 011715Z AUTO 26006KT 10SM OVC022 A3020 RMK MADISHF
LUK,2017-04-01 17:20,-84.4186,39.1033,M,M,M,0.00,0.00,M,30.20,M,10.00,M,OVC,M,M,M,2200.00,M,M,M,M,KLUK 011720Z AUTO 00000KT 10SM OVC022 A3020 RMK MADISHF
LUK,2017-04-01 17:25,-84.4186,39.1033,M,M,M,M,M,M,30.20,M,10.00,M,OVC,M,M,M,2200.00,M,M,M,M,KLUK 011725Z AUTO /////KT 10SM OVC022 A3020 RMK MADISHF
LUK,2017-04-01 17:30,-84.4186,39.1033,M,M,M,250.00,7.00,M,30.20,M,10.00,M,OVC,M,M,M,2200.00,M,M,M,M,KLUK 011730Z AUTO 25007KT 10SM OVC022 A3020 RMK MADISHF
LUK,2017-04-01 17:35,-84.4186,39.1033,M,M,M,270.00,7.00,M,30.20,M,10.00,M,OVC,M,M,M,2200.00,M,M,M,M,KLUK 011735Z AUTO 27007KT 10SM OVC022 A3020 RMK MADISHF
LUK,2017-04-01 17:40,-84.4186,39.1033,M,M,M,270.00,7.00,M,30.20,M,10.00,M,OVC,M,M,M,2200.00,M,M,M,M,KLUK 011740Z AUTO 27007KT 10SM OVC022 A3020 RMK MADISHF
LUK,2017-04-01 17:45,-84.4186,39.1033,M,M,M,300.00,7.00,M,30.20,M,10.00,M,OVC,M,M,M,2300.00,M,M,M,M,KLUK 011745Z AUTO 30007KT 10SM OVC023 A3020 RMK MADISHF
LUK,2017-04-01 17:50,-84.4186,39.1033,M,M,M,260.00,6.00,M,30.20,M,10.00,M,OVC,M,M,M,2300.00,M,M,M,M,KLUK 011750Z AUTO 26006KT 10SM OVC023 A3020 RMK MADISHF
LUK,2017-04-01 17:53,-84.4186,39.1033,46.00,39.00,76.40,270.00,5.00,0.00,30.20,1022.70,10.00,M,OVC,M,M,M,2300.00,M,M,M,M,KLUK 011753Z 27005KT 10SM OVC023 08/04 A3020 RMK AO2 SLP227 T00780039 10083 20061 50004
LUK,2017-04-01 17:55,-84.4186,39.1033,M,M,M,260.00,6.00,M,30.20,M,10.00,M,OVC,M,M,M,2300.00,M,M,M,M,KLUK 011755Z AUTO 26006KT 10SM OVC023 A3020 RMK MADISHF
LUK,2017-04-01 18:00,-84.4186,39.1033,M,M,M,270.00,7.00,M,30.20,M,10.00,M,OVC,M,M,M,2300.00,M,M,M,M,KLUK 011800Z AUTO 27007KT 10SM OVC023 A3020 RMK MADISHF
LUK,2017-04-01 18:05,-84.4186,39.1033,M,M,M,280.00,7.00,M,30.20,M,10.00,M,OVC,M,M,M,2300.00,M,M,M,M,KLUK 011805Z AUTO 28007KT 10SM OVC023 A3020 RMK MADISHF
LUK,2017-04-01 18:10,-84.4186,39.1033,M,M,M,280.00,6.00,M,30.20,M,10.00,M,OVC,M,M,M,2400.00,M,M,M,M,KLUK 011810Z AUTO 28006KT 10SM OVC024 A3020 RMK MADISHF
LUK,2017-04-01 18:15,-84.4186,39.1033,M,M,M,290.00,7.00,M,30.20,M,10.00,M,OVC,M,M,M,2400.00,M,M,M,M,KLUK 011815Z AUTO 29007KT 10SM OVC024 A3020 RMK MADISHF
LUK,2017-04-01 18:20,-84.4186,39.1033,M,M,M,280.00,6.00,M,30.20,M,10.00,M,OVC,M,M,M,2400.00,M,M,M,M,KLUK 011820Z AUTO 28006KT 10SM OVC024 A3020 RMK MADISHF
LUK,2017-04-01 18:25,-84.4186,39.1033,M,M,M,270.00,4.00,M,30.20,M,10.00,M,OVC,M,M,M,2400.00,M,M,M,M,KLUK 011825Z AUTO 27004KT 10SM OVC024 A3020 RMK MADISHF
LUK,2017-04-01 18:30,-84.4186,39.1033,M,M,M,340.00,4.00,M,30.20,M,10.00,M,OVC,M,M,M,2400.00,M,M,M,M,KLUK 011830Z AUTO 34004KT 10SM OVC024 A3020 RMK MADISHF
LUK,2017-04-01 18:35,-84.4186,39.1033,M,M,M,330.00,3.00,M,30.19,M,10.00,M,OVC,M,M,M,2400.00,M,M,M,M,KLUK 011835Z AUTO 33003KT 10SM OVC024 A3019 RMK VRB03KT  MADISHF
LUK,2017-04-01 18:40,-84.4186,39.1033,M,M,M,290.00,4.00,M,30.19,M,10.00,M,OVC,M,M,M,2400.00,M,M,M,M,KLUK 011840Z AUTO 29004KT 10SM OVC024 A3019 RMK MADISHF
LUK,2017-04-01 18:45,-84.4186,39.1033,M,M,M,330.00,4.00,M,30.19,M,10.00,M,OVC,M,M,M,2400.00,M,M,M,M,KLUK 011845Z AUTO 33004KT 10SM OVC024 A3019 RMK VRB04KT  MADISHF
LUK,2017-04-01 18:50,-84.4186,39.1033,M,M,M,340.00,8.00,M,30.19,M,10.00,M,OVC,M,M,M,2400.00,M,M,M,M,KLUK 011850Z AUTO 34008KT 10SM OVC024 A3019 RMK MADISHF
LUK,2017-04-01 18:53,-84.4186,39.1033,48.90,39.90,70.95,360.00,8.00,0.00,30.19,1022.50,10.00,M,OVC,M,M,M,2400.00,M,M,M,M,KLUK 011853Z 36008KT 10SM OVC024 09/04 A3019 RMK AO2 SLP225 T00940044
LUK,2017-04-01 18:55,-84.4186,39.1033,M,M,M,350.00,8.00,M,30.19,M,10.00,M,OVC,M,M,M,2400.00,M,M,M,M,KLUK 011855Z AUTO 35008KT 10SM OVC024 A3019 RMK MADISHF
LUK,2017-04-01 19:00,-84.4186,39.1033,M,M,M,350.00,9.00,M,30.19,M,10.00,M,OVC,M,M,M,2500.00,M,M,M,M,KLUK 011900Z AUTO 35009KT 10SM OVC025 A3019 RMK MADISHF
LUK,2017-04-01 19:05,-84.4186,39.1033,M,M,M,330.00,7.00,M,30.19,M,10.00,M,BKN,OVC,M,M,2500.00,3500.00,M,M,M,KLUK 011905Z AUTO 33007KT 10SM BKN025 OVC035 A3019 RMK MADISHF
LUK,2017-04-01 19:10,-84.4186,39.1033,M,M,M,330.00,6.00,M,30.19,M,10.00,M,BKN,OVC,M,M,2600.00,3500.00,M,M,M,KLUK 011910Z AUTO 33006KT 10SM BKN026 OVC035 A3019 RMK MADISHF
LUK,2017-04-01 19:15,-84.4186,39.1033,M,M,M,340.00,7.00,M,30.19,M,10.00,M,BKN,OVC,M,M,2600.00,3500.00,M,M,M,KLUK 011915Z AUTO 34007KT 10SM BKN026 OVC035 A3019 RMK MADISHF
LUK,2017-04-01 19:20,-84.4186,39.1033,M,M,M,320.00,7.00,M,30.19,M,10.00,M,BKN,OVC,M,M,2600.00,3500.00,M,M,M,KLUK 011920Z AUTO 32007KT 10SM BKN026 OVC035 A3019 RMK MADISHF
LUK,2017-04-01 19:25,-84.4186,39.1033,M,M,M,340.00,7.00,M,30.19,M,10.00,M,BKN,OVC,M,M,2800.00,3500.00,M,M,M,KLUK 011925Z AUTO 34007KT 10SM BKN028 OVC035 A3019 RMK MADISHF
LUK,2017-04-01 19:30,-84.4186,39.1033,M,M,M,340.00,6.00,M,30.19,M,10.00,M,BKN,OVC,M,M,2800.00,3399.00,M,M,M,KLUK 011930Z AUTO 34006KT 10SM BKN028 OVC033 A3019 RMK VRB06KT  MADISHF
LUK,2017-04-01 19:35,-84.4186,39.1033,M,M,M,330.00,4.00,M,30.19,M,10.00,M,BKN,OVC,M,M,2900.00,3399.00,M,M,M,KLUK 011935Z AUTO 33004KT 10SM BKN029 OVC033 A3019 RMK MADISHF
LUK,2017-04-01 19:40,-84.4186,39.1033,M,M,M,10.00,6.00,M,30.19,M,10.00,M,BKN,OVC,M,M,2900.00,3399.00,M,M,M,KLUK 011940Z AUTO 01006KT 10SM BKN029 OVC033 A3019 RMK MADISHF
LUK,2017-04-01 19:45,-84.4186,39.1033,M,M,M,350.00,6.00,M,30.19,M,10.00,M,OVC,M,M,M,2700.00,M,M,M,M,KLUK 011945Z AUTO 35006KT 10SM OVC027 A3019 RMK MADISHF
LUK,2017-04-01 19:50,-84.4186,39.1033,M,M,M,340.00,7.00,M,30.19,M,10.00,M,BKN,OVC,M,M,2500.00,3100.00,M,M,M,KLUK 011950Z AUTO 34007KT 10SM BKN025 OVC031 A3019 RMK MADISHF
LUK,2017-04-01 19:53,-84.4186,39.1033,48.90,41.00,74.05,330.00,9.00,0.00,30.19,1022.30,10.00,M,OVC,M,M,M,2800.00,M,M,M,M,KLUK 011953Z 33009KT 10SM OVC028 09/05 A3019 RMK AO2 SLP223 T00940050
LUK,2017-04-01 19:55,-84.4186,39.1033,M,M,M,360.00,6.00,M,30.19,M,10.00,M,OVC,M,M,M,2800.00,M,M,M,M,KLUK 011955Z AUTO 36006KT 10SM OVC028 A3019 RMK MADISHF
LUK,2017-04-01 20:00,-84.4186,39.1033,M,M,M,330.00,7.00,M,30.19,M,10.00,M,OVC,M,M,M,2800.00,M,M,M,M,KLUK 012000Z AUTO 33007KT 10SM OVC028 A3019 RMK MADISHF
LUK,2017-04-01 20:05,-84.4186,39.1033,M,M,M,350.00,6.00,M,30.19,M,10.00,M,OVC,M,M,M,2800.00,M,M,M,M,KLUK 012005Z AUTO 35006KT 10SM OVC028 A3019 RMK MADISHF
LUK,2017-04-01 20:10,-84.4186,39.1033,M,M,M,350.00,5.00,M,30.19,M,10.00,M,OVC,M,M,M,2800.00,M,M,M,M,KLUK 012010Z AUTO 35005KT 10SM OVC028 A3019 RMK MADISHF
LUK,2017-04-01 20:15,-84.4186,39.1033,M,M,M,340.00,6.00,M,30.19,M,10.00,M,OVC,M,M,M,2800.00,M,M,M,M,KLUK 012015Z AUTO 34006KT 10SM OVC028 A3019 RMK MADISHF
LUK,2017-04-01 20:20,-84.4186,39.1033,M,M,M,350.00,4.00,M,30.19,M,10.00,M,OVC,M,M,M,2800.00,M,M,M,M,KLUK 012020Z AUTO 35004KT 10SM OVC028 A3019 RMK VRB04KT  MADISHF
LUK,2017-04-01 20:25,-84.4186,39.1033,M,M,M,360.00,5.00,M,30.19,M,10.00,M,OVC,M,M,M,2800.00,M,M,M,M,KLUK 012025Z AUTO 36005KT 10SM OVC028 A3019 RMK MADISHF
LUK,2017-04-01 20:35,-84.4186,39.1033,M,M,M,340.00,3.00,M,30.19,M,10.00,M,OVC,M,M,M,2800.00,M,M,M,M,KLUK 012035Z AUTO 34003KT 10SM OVC028 A3019 RMK MADISHF
LUK,2017-04-01 20:40,-84.4186,39.1033,M,M,M,340.00,3.00,M,30.19,M,10.00,M,OVC,M,M,M,2800.00,M,M,M,M,KLUK 012040Z AUTO 34003KT 10SM OVC028 A3019 RMK MADISHF
LUK,2017-04-01 20:45,-84.4186,39.1033,M,M,M,360.00,3.00,M,30.19,M,10.00,M,OVC,M,M,M,2800.00,M,M,M,M,KLUK 012045Z AUTO 36003KT 10SM OVC028 A3019 RMK MADISHF
LUK,2017-04-01 20:50,-84.4186,39.1033,M,M,M,0.00,0.00,M,30.19,M,10.00,M,OVC,M,M,M,2800.00,M,M,M,M,KLUK 012050Z AUTO 00000KT 10SM OVC028 A3019 RMK MADISHF
LUK,2017-04-01 20:53,-84.4186,39.1033,50.00,39.90,68.10,360.00,4.00,0.00,30.20,1022.60,10.00,M,OVC,M,M,M,2800.00,M,M,M,M,KLUK 012053Z 36004KT 10SM OVC028 10/04 A3020 RMK AO2 SLP226 T01000044 55001
LUK,2017-04-01 20:55,-84.4186,39.1033,M,M,M,360.00,5.00,M,30.20,M,10.00,M,OVC,M,M,M,2800.00,M,M,M,M,KLUK 012055Z AUTO 36005KT 10SM OVC028 A3020 RMK MADISHF
LUK,2017-04-01 21:00,-84.4186,39.1033,M,M,M,360.00,3.00,M,30.19,M,10.00,M,OVC,M,M,M,2900.00,M,M,M,M,KLUK 012100Z AUTO 36003KT 10SM OVC029 A3019 RMK MADISHF
LUK,2017-04-01 21:05,-84.4186,39.1033,M,M,M,0.00,0.00,M,30.20,M,10.00,M,OVC,M,M,M,2900.00,M,M,M,M,KLUK 012105Z AUTO 00000KT 10SM OVC029 A3020 RMK MADISHF
LUK,2017-04-01 21:10,-84.4186,39.1033,M,M,M,350.00,3.00,M,30.20,M,10.00,M,OVC,M,M,M,2900.00,M,M,M,M,KLUK 012110Z AUTO 35003KT 10SM OVC029 A3020 RMK VRB03KT  MADISHF
LUK,2017-04-01 21:15,-84.4186,39.1033,M,M,M,30.00,4.00,M,30.20,M,10.00,M,OVC,M,M,M,2900.00,M,M,M,M,KLUK 012115Z AUTO 03004KT 10SM OVC029 A3020 RMK MADISHF
LUK,2017-04-01 21:20,-84.4186,39.1033,M,M,M,360.00,4.00,M,30.20,M,10.00,M,OVC,M,M,M,2900.00,M,M,M,M,KLUK 012120Z AUTO 36004KT 10SM OVC029 A3020 RMK MADISHF
LUK,2017-04-01 21:25,-84.4186,39.1033,M,M,M,10.00,5.00,M,30.20,M,10.00,M,OVC,M,M,M,2900.00,M,M,M,M,KLUK 012125Z AUTO 01005KT 10SM OVC029 A3020 RMK MADISHF
LUK,2017-04-01 21:30,-84.4186,39.1033,M,M,M,360.00,5.00,M,30.21,M,10.00,M,OVC,M,M,M,2900.00,M,M,M,M,KLUK 012130Z AUTO 36005KT 10SM OVC029 A3021 RMK MADISHF
LUK,2017-04-01 21:35,-84.4186,39.1033,M,M,M,360.00,5.00,M,30.21,M,10.00,M,OVC,M,M,M,2900.00,M,M,M,M,KLUK 012135Z AUTO 36005KT 10SM OVC029 A3021 RMK MADISHF
LUK,2017-04-01 21:40,-84.4186,39.1033,M,M,M,30.00,4.00,M,30.21,M,10.00,M,OVC,M,M,M,2900.00,M,M,M,M,KLUK 012140Z AUTO 03004KT 10SM OVC029 A3021 RMK MADISHF
LUK,2017-04-01 21:45,-84.4186,39.1033,M,M,M,10.00,5.00,M,30.21,M,10.00,M,OVC,M,M,M,2900.00,M,M,M,M,KLUK 012145Z AUTO 01005KT 10SM OVC029 A3021 RMK MADISHF
LUK,2017-04-01 21:50,-84.4186,39.1033,M,M,M,10.00,6.00,M,30.21,M,10.00,M,OVC,M,M,M,3100.00,M,M,M,M,KLUK 012150Z AUTO 01006KT 10SM OVC031 A3021 RMK MADISHF
LUK,2017-04-01 21:53,-84.4186,39.1033,50.00,39.90,68.10,10.00,4.00,0.00,30.21,1023.20,10.00,M,OVC,M,M,M,3100.00,M,M,M,M,KLUK 012153Z 01004KT 10SM OVC031 10/04 A3021 RMK AO2 SLP232 T01000044
LUK,2017-04-01 21:55,-84.4186,39.1033,M,M,M,0.00,0.00,M,30.21,M,10.00,M,OVC,M,M,M,3100.00,M,M,M,M,KLUK 012155Z AUTO 00000KT 10SM OVC031 A3021 RMK MADISHF
LUK,2017-04-01 22:00,-84.4186,39.1033,M,M,M,40.00,4.00,M,30.21,M,10.00,M,OVC,M,M,M,3100.00,M,M,M,M,KLUK 012200Z AUTO 04004KT 10SM OVC031 A3021 RMK MADISHF
LUK,2017-04-01 22:05,-84.4186,39.1033,M,M,M,340.00,6.00,M,30.22,M,10.00,M,OVC,M,M,M,3100.00,M,M,M,M,KLUK 012205Z AUTO 34006KT 10SM OVC031 A3022 RMK MADISHF
LUK,2017-04-01 22:10,-84.4186,39.1033,M,M,M,320.00,4.00,M,30.22,M,10.00,M,OVC,M,M,M,3000.00,M,M,M,M,KLUK 012210Z AUTO 32004KT 10SM OVC030 A3022 RMK MADISHF
LUK,2017-04-01 22:15,-84.4186,39.1033,M,M,M,0.00,0.00,M,30.22,M,10.00,M,OVC,M,M,M,3000.00,M,M,M,M,KLUK 012215Z AUTO 00000KT 10SM OVC030 A3022 RMK MADISHF
LUK,2017-04-01 22:20,-84.4186,39.1033,M,M,M,0.00,0.00,M,30.22,M,10.00,M,OVC,M,M,M,3200.00,M,M,M,M,KLUK 012220Z AUTO 00000KT 10SM OVC032 A3022 RMK MADISHF
LUK,2017-04-01 22:25,-84.4186,39.1033,M,M,M,0.00,0.00,M,30.22,M,10.00,M,OVC,M,M,M,3200.00,M,M,M,M,KLUK 012225Z AUTO 00000KT 10SM OVC032 A3022 RMK MADISHF
LUK,2017-04-01 22:30,-84.4186,39.1033,M,M,M,20.00,5.00,M,30.22,M,10.00,M,OVC,M,M,M,3200.00,M,M,M,M,KLUK 012230Z AUTO 02005KT 10SM OVC032 A3022 RMK MADISHF
LUK,2017-04-01 22:35,-84.4186,39.1033,M,M,M,30.00,5.00,M,30.22,M,10.00,M,OVC,M,M,M,3200.00,M,M,M,M,KLUK 012235Z AUTO 03005KT 10SM OVC032 A3022 RMK MADISHF
LUK,2017-04-01 22:40,-84.4186,39.1033,M,M,M,40.00,5.00,M,30.22,M,10.00,M,OVC,M,M,M,3200.00,M,M,M,M,KLUK 012240Z AUTO 04005KT 10SM OVC032 A3022 RMK MADISHF
LUK,2017-04-01 22:45,-84.4186,39.1033,M,M,M,30.00,6.00,M,30.23,M,10.00,M,OVC,M,M,M,3399.00,M,M,M,M,KLUK 012245Z AUTO 03006KT 10SM OVC033 A3023 RMK MADISHF
LUK,2017-04-01 22:50,-84.4186,39.1033,M,M,M,30.00,5.00,M,30.23,M,10.00,M,OVC,M,M,M,3399.00,M,M,M,M,KLUK 012250Z AUTO 03005KT 10SM OVC033 A3023 RMK MADISHF
LUK,2017-04-01 22:53,-84.4186,39.1033,50.00,39.90,68.10,20.00,5.00,0.00,30.22,1023.60,10.00,M,OVC,M,M,M,3400.00,M,M,M,M,KLUK 012253Z 02005KT 10SM OVC034 10/04 A3022 RMK AO2 SLP236 T01000044
LUK,2017-04-01 22:55,-84.4186,39.1033,M,M,M,10.00,5.00,M,30.22,M,10.00,M,OVC,M,M,M,3399.00,M,M,M,M,KLUK 012255Z AUTO 01005KT 10SM OVC033 A3022 RMK MADISHF
LUK,2017-04-01 23:00,-84.4186,39.1033,M,M,M,10.00,5.00,M,30.22,M,10.00,M,OVC,M,M,M,3399.00,M,M,M,M,KLUK 012300Z AUTO 01005KT 10SM OVC033 A3022 RMK MADISHF
LUK,2017-04-01 23:05,-84.4186,39.1033,M,M,M,20.00,5.00,M,30.23,M,10.00,M,OVC,M,M,M,3399.00,M,M,M,M,KLUK 012305Z AUTO 02005KT 10SM OVC033 A3023 RMK MADISHF
LUK,2017-04-01 23:10,-84.4186,39.1033,M,M,M,20.00,5.00,M,30.23,M,10.00,M,OVC,M,M,M,3399.00,M,M,M,M,KLUK 012310Z AUTO 02005KT 10SM OVC033 A3023 RMK MADISHF
LUK,2017-04-01 23:15,-84.4186,39.1033,M,M,M,30.00,6.00,M,30.22,M,10.00,M,OVC,M,M,M,3500.00,M,M,M,M,KLUK 012315Z AUTO 03006KT 10SM OVC035 A3022 RMK MADISHF
LUK,2017-04-01 23:20,-84.4186,39.1033,M,M,M,20.00,5.00,M,30.23,M,10.00,M,OVC,M,M,M,3500.00,M,M,M,M,KLUK 012320Z AUTO 02005KT 10SM OVC035 A3023 RMK MADISHF
LUK,2017-04-01 23:25,-84.4186,39.1033,M,M,M,10.00,4.00,M,30.23,M,10.00,M,OVC,M,M,M,3500.00,M,M,M,M,KLUK 012325Z AUTO 01004KT 10SM OVC035 A3023 RMK MADISHF
LUK,2017-04-01 23:30,-84.4186,39.1033,M,M,M,10.00,3.00,M,30.23,M,10.00,M,OVC,M,M,M,3500.00,M,M,M,M,KLUK 012330Z AUTO 01003KT 10SM OVC035 A3023 RMK MADISHF
LUK,2017-04-01 23:35,-84.4186,39.1033,M,M,M,30.00,3.00,M,30.23,M,10.00,M,OVC,M,M,M,3500.00,M,M,M,M,KLUK 012335Z AUTO 03003KT 10SM OVC035 A3023 RMK MADISHF
LUK,2017-04-01 23:40,-84.4186,39.1033,M,M,M,20.00,3.00,M,30.23,M,10.00,M,OVC,M,M,M,3500.00,M,M,M,M,KLUK 012340Z AUTO 02003KT 10SM OVC035 A3023 RMK MADISHF
LUK,2017-04-01 23:45,-84.4186,39.1033,M,M,M,30.00,3.00,M,30.23,M,10.00,M,OVC,M,M,M,3600.00,M,M,M,M,KLUK 012345Z AUTO 03003KT 10SM OVC036 A3023 RMK MADISHF
LUK,2017-04-01 23:50,-84.4186,39.1033,M,M,M,30.00,3.00,M,30.23,M,10.00,M,OVC,M,M,M,3600.00,M,M,M,M,KLUK 012350Z AUTO 03003KT 10SM OVC036 A3023 RMK MADISHF
LUK,2017-04-01 23:53,-84.4186,39.1033,48.90,41.00,74.05,30.00,3.00,0.00,30.23,1023.80,10.00,M,OVC,M,M,M,3600.00,M,M,M,M,KLUK 012353Z 03003KT 10SM OVC036 09/05 A3023 RMK AO2 SLP238 T00940050 10100 20078 51011
LUK,2017-04-01 23:55,-84.4186,39.1033,M,M,M,30.00,4.00,M,30.23,M,10.00,M,OVC,M,M,M,3600.00,M,M,M,M,KLUK 012355Z AUTO 03004KT 10SM OVC036 A3023 RMK MADISHF
