#DEBUG: Format Typ    -> comma
#DEBUG: Time Period   -> 2017-04-01 00:00:00+00:00 2017-04-02 00:00:00+00:00
#DEBUG: Time Zone     -> Etc/UTC
#DEBUG: Data Contact   -> daryl herzmann akrherz@iastate.edu 515-294-5978
#DEBUG: Entries Found -> -1
station,valid,lon,lat,tmpf, dwpf, relh, drct, sknt, p01i, alti, mslp, vsby, gust, skyc1, skyc2, skyc3, skyc4, skyl1, skyl2, skyl3, skyl4, presentwx, metar
LWD,2017-04-01 00:00,-93.9005,40.6306,M,M,M,60.00,7.00,M,30.02,M,10.00,M,OVC,M,M,M,2400.00,M,M,M,M,KLWD 010000Z AUTO 06007KT 10SM OVC024 A3002 RMK MADISHF
LWD,2017-04-01 00:05,-93.9005,40.6306,M,M,M,50.00,10.00,M,30.02,M,10.00,M,OVC,M,M,M,2400.00,M,M,M,M,KLWD 010005Z AUTO 05010KT 10SM OVC024 A3002 RMK MADISHF
LWD,2017-04-01 00:10,-93.9005,40.6306,M,M,M,30.00,9.00,M,30.02,M,10.00,M,OVC,M,M,M,2400.00,M,M,M,M,KLWD 010010Z AUTO 03009KT 10SM OVC024 A3002 RMK MADISHF
LWD,2017-04-01 00:15,-93.9005,40.6306,M,M,M,50.00,8.00,M,30.02,M,10.00,M,OVC,M,M,M,2400.00,M,M,M,M,KLWD 010015Z AUTO 05008KT 10SM OVC024 A3002 RMK MADISHF
LWD,2017-04-01 00:20,-93.9005,40.6306,M,M,M,60.00,7.00,M,30.03,M,10.00,M,OVC,M,M,M,2500.00,M,M,M,M,KLWD 010020Z AUTO 06007KT 10SM OVC025 A3003 RMK MADISHF
LWD,2017-04-01 00:25,-93.9005,40.6306,M,M,M,50.00,7.00,M,30.03,M,10.00,M,OVC,M,M,M,2500.00,M,M,M,M,KLWD 010025Z AUTO 05007KT 10SM OVC025 A3003 RMK MADISHF
LWD,2017-04-01 00:30,-93.9005,40.6306,M,M,M,60.00,9.00,M,30.03,M,10.00,M,OVC,M,M,M,2500.00,M,M,M,M,KLWD 010030Z AUTO 06009KT 10SM OVC025 A3003 RMK MADISHF
LWD,2017-04-01 00:35,-93.9005,40.6306,M,M,M,60.00,7.00,M,30.03,M,10.00,M,OVC,M,M,M,2500.00,M,M,M,M,KLWD 010035Z AUTO 06007KT 10SM OVC025 A3003 RMK MADISHF
LWD,2017-04-01 00:40,-93.9005,40.6306,M,M,M,60.00,8.00,M,30.03,M,10.00,M,OVC,M,M,M,2500.00,M,M,M,M,KLWD 010040Z AUTO 06008KT 10SM OVC025 A3003 RMK MADISHF
LWD,2017-04-01 00:45,-93.9005,40.6306,M,M,M,60.00,7.00,M,30.03,M,10.00,M,OVC,M,M,M,2500.00,M,M,M,M,KLWD 010045Z AUTO 06007KT 10SM OVC025 A3003 RMK MADISHF
LWD,2017-04-01 00:50,-93.9005,40.6306,M,M,M,50.00,9.00,M,30.04,M,10.00,M,OVC,M,M,M,2500.00,M,M,M,M,KLWD 010050Z AUTO 05009KT 10SM OVC025 A3004 RMK MADISHF
LWD,2017-04-01 00:53,-93.9005,40.6306,45.00,39.00,79.36,60.00,8.00,0.00,30.04,1017.90,10.00,M,OVC,M,M,M,2500.00,M,M,M,M,KLWD 010053Z AUTO 06008KT 10SM OVC025 07/04 A3004 RMK AO2 SLP179 T00720039
LWD,2017-04-01 00:55,-93.9005,40.6306,M,M,M,70.00,8.00,M,30.04,M,10.00,M,OVC,M,M,M,2500.00,M,M,M,M,KLWD 010055Z AUTO 07008KT 10SM OVC025 A3004 RMK WND 04V10  MADISHF
LWD,2017-04-01 01:00,-93.9005,40.6306,M,M,M,60.00,7.00,M,30.04,M,10.00,M,OVC,M,M,M,2500.00,M,M,M,M,KLWD 010100Z AUTO 06007KT 10SM OVC025 A3004 RMK MADISHF
LWD,2017-04-01 01:05,-93.9005,40.6306,M,M,M,60.00,9.00,M,30.05,M,10.00,M,OVC,M,M,M,2500.00,M,M,M,M,KLWD 010105Z AUTO 06009KT 10SM OVC025 A3005 RMK MADISHF
LWD,2017-04-01 01:10,-93.9005,40.6306,M,M,M,50.00,8.00,M,30.05,M,10.00,M,OVC,M,M,M,2500.00,M,M,M,M,KLWD 010110Z AUTO 05008KT 10SM OVC025 A3005 RMK MADISHF
LWD,2017-04-01 01:15,-93.9005,40.6306,M,M,M,50.00,8.00,M,30.05,M,10.00,M,OVC,M,M,M,2500.00,M,M,M,M,KLWD 010115Z AUTO 05008KT 10SM OVC025 A3005 RMK MADISHF
LWD,2017-04-01 01:20,-93.9005,40.6306,M,M,M,50.00,8.00,M,30.06,M,10.00,M,OVC,M,M,M,2500.00,M,M,M,M,KLWD 010120Z AUTO 05008KT 10SM OVC025 A3006 RMK MADISHF
LWD,2017-04-01 01:25,-93.9005,40.6306,M,M,M,40.00,7.00,M,30.06,M,10.00,M,OVC,M,M,M,2500.00,M,M,M,M,KLWD 010125Z AUTO 04007KT 10SM OVC025 A3006 RMK MADISHF
LWD,2017-04-01 01:30,-93.9005,40.6306,M,M,M,50.00,7.00,M,30.06,M,10.00,M,OVC,M,M,M,2500.00,M,M,M,M,KLWD 010130Z AUTO 05007KT 10SM OVC025 A3006 RMK MADISHF
LWD,2017-04-01 01:35,-93.9005,40.6306,M,M,M,40.00,8.00,M,30.06,M,10.00,M,OVC,M,M,M,2400.00,M,M,M,M,KLWD 010135Z AUTO 04008KT 10SM OVC024 A3006 RMK MADISHF
LWD,2017-04-01 01:40,-93.9005,40.6306,M,M,M,40.00,8.00,M,30.07,M,10.00,M,OVC,M,M,M,2400.00,M,M,M,M,KLWD 010140Z AUTO 04008KT 10SM OVC024 A3007 RMK MADISHF
LWD,2017-04-01 01:45,-93.9005,40.6306,M,M,M,40.00,6.00,M,30.07,M,10.00,M,OVC,M,M,M,2400.00,M,M,M,M,KLWD 010145Z AUTO 04006KT 10SM OVC024 A3007 RMK MADISHF
LWD,2017-04-01 01:50,-93.9005,40.6306,M,M,M,40.00,8.00,M,30.07,M,10.00,M,OVC,M,M,M,2400.00,M,M,M,M,KLWD 010150Z AUTO 04008KT 10SM OVC024 A3007 RMK MADISHF
LWD,2017-04-01 01:53,-93.9005,40.6306,44.10,37.90,78.66,50.00,9.00,0.00,30.07,1019.00,10.00,M,OVC,M,M,M,2300.00,M,M,M,M,KLWD 010153Z AUTO 05009KT 10SM OVC023 07/03 A3007 RMK AO2 SLP190 T00670033
LWD,2017-04-01 01:55,-93.9005,40.6306,M,M,M,50.00,9.00,M,30.07,M,10.00,M,OVC,M,M,M,2300.00,M,M,M,M,KLWD 010155Z AUTO 05009KT 10SM OVC023 A3007 RMK MADISHF
LWD,2017-04-01 02:00,-93.9005,40.6306,M,M,M,50.00,9.00,M,30.07,M,10.00,M,OVC,M,M,M,2300.00,M,M,M,M,KLWD 010200Z AUTO 05009KT 10SM OVC023 A3007 RMK MADISHF
LWD,2017-04-01 02:05,-93.9005,40.6306,M,M,M,40.00,9.00,M,30.07,M,10.00,M,OVC,M,M,M,2100.00,M,M,M,M,KLWD 010205Z AUTO 04009KT 10SM OVC021 A3007 RMK MADISHF
LWD,2017-04-01 02:10,-93.9005,40.6306,M,M,M,50.00,12.00,M,30.07,M,10.00,M,OVC,M,M,M,2100.00,M,M,M,M,KLWD 010210Z AUTO 05012KT 10SM OVC021 A3007 RMK MADISHF
LWD,2017-04-01 02:15,-93.9005,40.6306,M,M,M,50.00,10.00,M,30.07,M,10.00,M,OVC,M,M,M,2100.00,M,M,M,M,KLWD 010215Z AUTO 05010KT 10SM OVC021 A3007 RMK MADISHF
LWD,2017-04-01 02:20,-93.9005,40.6306,M,M,M,50.00,10.00,M,30.07,M,10.00,M,OVC,M,M,M,1900.00,M,M,M,M,KLWD 010220Z AUTO 05010KT 10SM OVC019 A3007 RMK MADISHF
LWD,2017-04-01 02:25,-93.9005,40.6306,M,M,M,50.00,10.00,M,30.07,M,10.00,M,OVC,M,M,M,1900.00,M,M,M,M,KLWD 010225Z AUTO 05010KT 10SM OVC019 A3007 RMK MADISHF
LWD,2017-04-01 02:30,-93.9005,40.6306,M,M,M,50.00,9.00,M,30.07,M,10.00,M,OVC,M,M,M,1900.00,M,M,M,M,KLWD 010230Z AUTO 05009KT 10SM OVC019 A3007 RMK MADISHF
LWD,2017-04-01 02:35,-93.9005,40.6306,M,M,M,50.00,11.00,M,30.07,M,10.00,M,OVC,M,M,M,1900.00,M,M,M,M,KLWD 010235Z AUTO 05011KT 10SM OVC019 A3007 RMK MADISHF
LWD,2017-04-01 02:40,-93.9005,40.6306,M,M,M,50.00,10.00,M,30.08,M,10.00,M,OVC,M,M,M,1900.00,M,M,M,M,KLWD 010240Z AUTO 05010KT 10SM OVC019 A3008 RMK MADISHF
LWD,2017-04-01 02:45,-93.9005,40.6306,M,M,M,40.00,8.00,M,30.08,M,10.00,M,OVC,M,M,M,1900.00,M,M,M,M,KLWD 010245Z AUTO 04008KT 10SM OVC019 A3008 RMK MADISHF
LWD,2017-04-01 02:50,-93.9005,40.6306,M,M,M,30.00,6.00,M,30.08,M,10.00,M,OVC,M,M,M,1900.00,M,M,M,M,KLWD 010250Z AUTO 03006KT 10SM OVC019 A3008 RMK MADISHF
LWD,2017-04-01 02:53,-93.9005,40.6306,43.00,37.00,79.19,50.00,7.00,0.00,30.08,1019.40,10.00,M,OVC,M,M,M,1900.00,M,M,M,M,KLWD 010253Z AUTO 05007KT 10SM OVC019 06/03 A3008 RMK AO2 SLP194 T00610028 51021
LWD,2017-04-01 02:55,-93.9005,40.6306,M,M,M,50.00,7.00,M,30.08,M,10.00,M,OVC,M,M,M,1699.00,M,M,M,M,KLWD 010255Z AUTO 05007KT 10SM OVC016 A3008 RMK MADISHF
LWD,2017-04-01 03:00,-93.9005,40.6306,M,M,M,50.00,9.00,M,30.09,M,10.00,M,OVC,M,M,M,1699.00,M,M,M,M,KLWD 010300Z AUTO 05009KT 10SM OVC016 A3009 RMK MADISHF
LWD,2017-04-01 03:05,-93.9005,40.6306,M,M,M,50.00,9.00,M,30.08,M,10.00,M,OVC,M,M,M,1699.00,M,M,M,M,KLWD 010305Z AUTO 05009KT 10SM OVC016 A3008 RMK MADISHF
LWD,2017-04-01 03:10,-93.9005,40.6306,M,M,M,60.00,9.00,M,30.08,M,10.00,M,OVC,M,M,M,1400.00,M,M,M,M,KLWD 010310Z AUTO 06009KT 10SM OVC014 A3008 RMK MADISHF
LWD,2017-04-01 03:12,-93.9005,40.6306,43.00,37.00,79.19,60.00,11.00,0.00,30.08,M,10.00,M,OVC,M,M,M,1400.00,M,M,M,M,KLWD 010312Z AUTO 06011KT 10SM OVC014 06/03 A3008 RMK AO2 T00610028
LWD,2017-04-01 03:15,-93.9005,40.6306,M,M,M,50.00,10.00,M,30.08,M,10.00,M,OVC,M,M,M,1400.00,M,M,M,M,KLWD 010315Z AUTO 05010KT 10SM OVC014 A3008 RMK MADISHF
LWD,2017-04-01 03:20,-93.9005,40.6306,M,M,M,50.00,11.00,M,30.08,M,10.00,M,OVC,M,M,M,1400.00,M,M,M,M,KLWD 010320Z AUTO 05011KT 10SM OVC014 A3008 RMK MADISHF
LWD,2017-04-01 03:25,-93.9005,40.6306,M,M,M,60.00,10.00,M,30.09,M,10.00,M,OVC,M,M,M,1400.00,M,M,M,M,KLWD 010325Z AUTO 06010KT 10SM OVC014 A3009 RMK MADISHF
LWD,2017-04-01 03:30,-93.9005,40.6306,M,M,M,60.00,7.00,M,30.09,M,10.00,M,OVC,M,M,M,1400.00,M,M,M,M,KLWD 010330Z AUTO 06007KT 10SM OVC014 A3009 RMK MADISHF
LWD,2017-04-01 03:35,-93.9005,40.6306,M,M,M,50.00,9.00,M,30.09,M,10.00,M,OVC,M,M,M,1400.00,M,M,M,M,KLWD 010335Z AUTO 05009KT 10SM OVC014 A3009 RMK MADISHF
LWD,2017-04-01 03:40,-93.9005,40.6306,M,M,M,50.00,10.00,M,30.09,M,10.00,M,OVC,M,M,M,1400.00,M,M,M,M,KLWD 010340Z AUTO 05010KT 10SM OVC014 A3009 RMK MADISHF
LWD,2017-04-01 03:45,-93.9005,40.6306,M,M,M,50.00,8.00,M,30.09,M,10.00,M,OVC,M,M,M,1400.00,M,M,M,M,KLWD 010345Z AUTO 05008KT 10SM OVC014 A3009 RMK MADISHF
LWD,2017-04-01 03:50,-93.9005,40.6306,M,M,M,50.00,7.00,M,30.09,M,10.00,M,OVC,M,M,M,1400.00,M,M,M,M,KLWD 010350Z AUTO 05007KT 10SM OVC014 A3009 RMK MADISHF
LWD,2017-04-01 03:53,-93.9005,40.6306,42.10,37.00,81.98,50.00,6.00,0.00,30.09,1019.80,10.00,M,OVC,M,M,M,1400.00,M,M,M,M,KLWD 010353Z AUTO 05006KT 10SM OVC014 06/03 A3009 RMK AO2 SLP198 T00560028
LWD,2017-04-01 03:55,-93.9005,40.6306,M,M,M,60.00,7.00,M,30.09,M,10.00,M,OVC,M,M,M,1400.00,M,M,M,M,KLWD 010355Z AUTO 06007KT 10SM OVC014 A3009 RMK MADISHF
LWD,2017-04-01 04:00,-93.9005,40.6306,M,M,M,60.00,6.00,M,30.10,M,10.00,M,OVC,M,M,M,1400.00,M,M,M,M,KLWD 010400Z AUTO 06006KT 10SM OVC014 A3010 RMK MADISHF
LWD,2017-04-01 04:05,-93.9005,40.6306,M,M,M,60.00,7.00,M,30.10,M,10.00,M,OVC,M,M,M,1400.00,M,M,M,M,KLWD 010405Z AUTO 06007KT 10SM OVC014 A3010 RMK MADISHF
LWD,2017-04-01 04:10,-93.9005,40.6306,M,M,M,50.00,7.00,M,30.11,M,10.00,M,OVC,M,M,M,1400.00,M,M,M,M,KLWD 010410Z AUTO 05007KT 10SM OVC014 A3011 RMK MADISHF
LWD,2017-04-01 04:15,-93.9005,40.6306,M,M,M,50.00,6.00,M,30.11,M,10.00,M,OVC,M,M,M,1400.00,M,M,M,M,KLWD 010415Z AUTO 05006KT 10SM OVC014 A3011 RMK MADISHF
LWD,2017-04-01 04:20,-93.9005,40.6306,M,M,M,60.00,6.00,M,30.11,M,10.00,M,OVC,M,M,M,1400.00,M,M,M,M,KLWD 010420Z AUTO 06006KT 10SM OVC014 A3011 RMK MADISHF
LWD,2017-04-01 04:25,-93.9005,40.6306,M,M,M,80.00,7.00,M,30.12,M,10.00,M,OVC,M,M,M,1400.00,M,M,M,M,KLWD 010425Z AUTO 08007KT 10SM OVC014 A3012 RMK MADISHF
LWD,2017-04-01 04:30,-93.9005,40.6306,M,M,M,60.00,6.00,M,30.12,M,10.00,M,OVC,M,M,M,1400.00,M,M,M,M,KLWD 010430Z AUTO 06006KT 10SM OVC014 A3012 RMK MADISHF
LWD,2017-04-01 04:35,-93.9005,40.6306,M,M,M,70.00,5.00,M,30.12,M,10.00,M,OVC,M,M,M,1400.00,M,M,M,M,KLWD 010435Z AUTO 07005KT 10SM OVC014 A3012 RMK MADISHF
LWD,2017-04-01 04:40,-93.9005,40.6306,M,M,M,70.00,7.00,M,30.12,M,10.00,M,OVC,M,M,M,1400.00,M,M,M,M,KLWD 010440Z AUTO 07007KT 10SM OVC014 A3012 RMK MADISHF
LWD,2017-04-01 04:45,-93.9005,40.6306,M,M,M,50.00,9.00,M,30.12,M,10.00,M,OVC,M,M,M,1400.00,M,M,M,M,KLWD 010445Z AUTO 05009KT 10SM OVC014 A3012 RMK MADISHF
LWD,2017-04-01 04:50,-93.9005,40.6306,M,M,M,30.00,8.00,M,30.12,M,10.00,M,OVC,M,M,M,1400.00,M,M,M,M,KLWD 010450Z AUTO 03008KT 10SM OVC014 A3012 RMK MADISHF
LWD,2017-04-01 04:53,-93.9005,40.6306,42.10,36.00,78.80,50.00,6.00,0.00,30.12,1020.70,10.00,M,OVC,M,M,M,1400.00,M,M,M,M,KLWD 010453Z AUTO 05006KT 10SM OVC014 06/02 A3012 RMK AO2 SLP207 T00560022
LWD,2017-04-01 04:55,-93.9005,40.6306,M,M,M,50.00,6.00,M,30.12,M,10.00,M,OVC,M,M,M,1400.00,M,M,M,M,KLWD 010455Z AUTO 05006KT 10SM OVC014 A3012 RMK MADISHF
LWD,2017-04-01 05:00,-93.9005,40.6306,M,M,M,50.00,8.00,M,30.12,M,10.00,M,OVC,M,M,M,1400.00,M,M,M,M,KLWD 010500Z AUTO 05008KT 10SM OVC014 A3012 RMK MADISHF
LWD,2017-04-01 05:05,-93.9005,40.6306,M,M,M,50.00,6.00,M,30.12,M,10.00,M,OVC,M,M,M,1400.00,M,M,M,M,KLWD 010505Z AUTO 05006KT 10SM OVC014 A3012 RMK MADISHF
LWD,2017-04-01 05:10,-93.9005,40.6306,M,M,M,50.00,5.00,M,30.13,M,10.00,M,OVC,M,M,M,1400.00,M,M,M,M,KLWD 010510Z AUTO 05005KT 10SM OVC014 A3013 RMK MADISHF
LWD,2017-04-01 05:15,-93.9005,40.6306,M,M,M,60.00,6.00,M,30.13,M,10.00,M,OVC,M,M,M,1400.00,M,M,M,M,KLWD 010515Z AUTO 06006KT 10SM OVC014 A3013 RMK MADISHF
LWD,2017-04-01 05:20,-93.9005,40.6306,M,M,M,70.00,5.00,M,30.13,M,10.00,M,OVC,M,M,M,1400.00,M,M,M,M,KLWD 010520Z AUTO 07005KT 10SM OVC014 A3013 RMK MADISHF
LWD,2017-04-01 05:25,-93.9005,40.6306,M,M,M,70.00,5.00,M,30.13,M,10.00,M,OVC,M,M,M,1400.00,M,M,M,M,KLWD 010525Z AUTO 07005KT 10SM OVC014 A3013 RMK MADISHF
LWD,2017-04-01 05:30,-93.9005,40.6306,M,M,M,80.00,7.00,M,30.13,M,10.00,M,OVC,M,M,M,1300.00,M,M,M,M,KLWD 010530Z AUTO 08007KT 10SM OVC013 A3013 RMK MADISHF
LWD,2017-04-01 05:35,-93.9005,40.6306,M,M,M,80.00,5.00,M,30.13,M,10.00,M,OVC,M,M,M,1300.00,M,M,M,M,KLWD 010535Z AUTO 08005KT 10SM OVC013 A3013 RMK MADISHF
LWD,2017-04-01 05:40,-93.9005,40.6306,M,M,M,80.00,7.00,M,30.13,M,10.00,M,OVC,M,M,M,1300.00,M,M,M,M,KLWD 010540Z AUTO 08007KT 10SM OVC013 A3013 RMK MADISHF
LWD,2017-04-01 05:45,-93.9005,40.6306,M,M,M,80.00,6.00,M,30.13,M,10.00,M,OVC,M,M,M,1300.00,M,M,M,M,KLWD 010545Z AUTO 08006KT 10SM OVC013 A3013 RMK MADISHF
LWD,2017-04-01 05:50,-93.9005,40.6306,M,M,M,80.00,5.00,M,30.13,M,10.00,M,OVC,M,M,M,1300.00,M,M,M,M,KLWD 010550Z AUTO 08005KT 10SM OVC013 A3013 RMK MADISHF
LWD,2017-04-01 05:53,-93.9005,40.6306,41.00,36.00,82.22,90.00,6.00,0.00,30.13,1021.00,10.00,M,OVC,M,M,M,1300.00,M,M,M,M,KLWD 010553Z AUTO 09006KT 10SM OVC013 05/02 A3013 RMK AO2 SLP210 T00500022 10089 20050 401170039 51015
LWD,2017-04-01 05:55,-93.9005,40.6306,M,M,M,80.00,5.00,M,30.13,M,10.00,M,OVC,M,M,M,1300.00,M,M,M,M,KLWD 010555Z AUTO 08005KT 10SM OVC013 A3013 RMK MADISHF
LWD,2017-04-01 06:00,-93.9005,40.6306,M,M,M,70.00,5.00,M,30.13,M,10.00,M,OVC,M,M,M,1300.00,M,M,M,M,KLWD 010600Z AUTO 07005KT 10SM OVC013 A3013 RMK MADISHF
LWD,2017-04-01 06:05,-93.9005,40.6306,M,M,M,70.00,5.00,M,30.13,M,10.00,M,OVC,M,M,M,1300.00,M,M,M,M,KLWD 010605Z AUTO 07005KT 10SM OVC013 A3013 RMK MADISHF
LWD,2017-04-01 06:10,-93.9005,40.6306,M,M,M,100.00,4.00,M,30.14,M,10.00,M,OVC,M,M,M,1300.00,M,M,M,M,KLWD 010610Z AUTO 10004KT 10SM OVC013 A3014 RMK MADISHF
LWD,2017-04-01 06:15,-93.9005,40.6306,M,M,M,90.00,5.00,M,30.14,M,10.00,M,OVC,M,M,M,1300.00,M,M,M,M,KLWD 010615Z AUTO 09005KT 10SM OVC013 A3014 RMK MADISHF
LWD,2017-04-01 06:20,-93.9005,40.6306,M,M,M,80.00,5.00,M,30.15,M,10.00,M,OVC,M,M,M,1300.00,M,M,M,M,KLWD 010620Z AUTO 08005KT 10SM OVC013 A3015 RMK MADISHF
LWD,2017-04-01 06:25,-93.9005,40.6306,M,M,M,90.00,5.00,M,30.15,M,10.00,M,OVC,M,M,M,1300.00,M,M,M,M,KLWD 010625Z AUTO 09005KT 10SM OVC013 A3015 RMK MADISHF
LWD,2017-04-01 06:30,-93.9005,40.6306,M,M,M,90.00,6.00,M,30.15,M,10.00,M,OVC,M,M,M,1300.00,M,M,M,M,KLWD 010630Z AUTO 09006KT 10SM OVC013 A3015 RMK MADISHF
LWD,2017-04-01 06:35,-93.9005,40.6306,M,M,M,70.00,6.00,M,30.15,M,10.00,M,OVC,M,M,M,1300.00,M,M,M,M,KLWD 010635Z AUTO 07006KT 10SM OVC013 A3015 RMK MADISHF
LWD,2017-04-01 06:40,-93.9005,40.6306,M,M,M,60.00,5.00,M,30.15,M,10.00,M,OVC,M,M,M,1300.00,M,M,M,M,KLWD 010640Z AUTO 06005KT 10SM OVC013 A3015 RMK MADISHF
LWD,2017-04-01 06:45,-93.9005,40.6306,M,M,M,50.00,5.00,M,30.15,M,10.00,M,OVC,M,M,M,1300.00,M,M,M,M,KLWD 010645Z AUTO 05005KT 10SM OVC013 A3015 RMK MADISHF
LWD,2017-04-01 06:50,-93.9005,40.6306,M,M,M,60.00,4.00,M,30.16,M,10.00,M,OVC,M,M,M,1300.00,M,M,M,M,KLWD 010650Z AUTO 06004KT 10SM OVC013 A3016 RMK MADISHF
LWD,2017-04-01 06:53,-93.9005,40.6306,41.00,36.00,82.22,30.00,4.00,0.00,30.16,1021.90,10.00,M,OVC,M,M,M,1300.00,M,M,M,M,KLWD 010653Z AUTO 03004KT 10SM OVC013 05/02 A3016 RMK AO2 SLP219 T00500022
LWD,2017-04-01 06:55,-93.9005,40.6306,M,M,M,40.00,4.00,M,30.16,M,10.00,M,OVC,M,M,M,1300.00,M,M,M,M,KLWD 010655Z AUTO 04004KT 10SM OVC013 A3016 RMK MADISHF
LWD,2017-04-01 07:00,-93.9005,40.6306,M,M,M,40.00,3.00,M,30.16,M,10.00,M,OVC,M,M,M,1300.00,M,M,M,M,KLWD 010700Z AUTO 04003KT 10SM OVC013 A3016 RMK MADISHF
LWD,2017-04-01 07:05,-93.9005,40.6306,M,M,M,0.00,0.00,M,30.16,M,10.00,M,OVC,M,M,M,1300.00,M,M,M,M,KLWD 010705Z AUTO 00000KT 10SM OVC013 A3016 RMK MADISHF
LWD,2017-04-01 07:10,-93.9005,40.6306,M,M,M,50.00,3.00,M,30.17,M,10.00,M,OVC,M,M,M,1300.00,M,M,M,M,KLWD 010710Z AUTO 05003KT 10SM OVC013 A3017 RMK MADISHF
LWD,2017-04-01 07:15,-93.9005,40.6306,M,M,M,30.00,4.00,M,30.16,M,10.00,M,OVC,M,M,M,1300.00,M,M,M,M,KLWD 010715Z AUTO 03004KT 10SM OVC013 A3016 RMK MADISHF
LWD,2017-04-01 07:20,-93.9005,40.6306,M,M,M,30.00,4.00,M,30.16,M,10.00,M,OVC,M,M,M,1200.00,M,M,M,M,KLWD 010720Z AUTO 03004KT 10SM OVC012 A3016 RMK MADISHF
LWD,2017-04-01 07:25,-93.9005,40.6306,M,M,M,50.00,5.00,M,30.16,M,10.00,M,OVC,M,M,M,1200.00,M,M,M,M,KLWD 010725Z AUTO 05005KT 10SM OVC012 A3016 RMK MADISHF
LWD,2017-04-01 07:30,-93.9005,40.6306,M,M,M,40.00,4.00,M,30.16,M,10.00,M,OVC,M,M,M,1200.00,M,M,M,M,KLWD 010730Z AUTO 04004KT 10SM OVC012 A3016 RMK MADISHF
LWD,2017-04-01 07:40,-93.9005,40.6306,M,M,M,40.00,4.00,M,30.16,M,10.00,M,OVC,M,M,M,1200.00,M,M,M,M,KLWD 010740Z AUTO 04004KT 10SM OVC012 A3016 RMK MADISHF
LWD,2017-04-01 07:45,-93.9005,40.6306,M,M,M,30.00,7.00,M,30.16,M,10.00,M,OVC,M,M,M,1200.00,M,M,M,M,KLWD 010745Z AUTO 03007KT 10SM OVC012 A3016 RMK MADISHF
LWD,2017-04-01 07:50,-93.9005,40.6306,M,M,M,60.00,3.00,M,30.16,M,10.00,M,OVC,M,M,M,1200.00,M,M,M,M,KLWD 010750Z AUTO 06003KT 10SM OVC012 A3016 RMK VRB03KT  MADISHF
LWD,2017-04-01 07:53,-93.9005,40.6306,41.00,37.00,85.54,60.00,3.00,0.00,30.16,1022.00,10.00,M,OVC,M,M,M,1200.00,M,M,M,M,KLWD 010753Z AUTO 06003KT 10SM OVC012 05/03 A3016 RMK AO2 SLP220 T00500028
LWD,2017-04-01 07:55,-93.9005,40.6306,M,M,M,30.00,4.00,M,30.16,M,10.00,M,OVC,M,M,M,1200.00,M,M,M,M,KLWD 010755Z AUTO 03004KT 10SM OVC012 A3016 RMK MADISHF
LWD,2017-04-01 08:00,-93.9005,40.6306,M,M,M,40.00,5.00,M,30.16,M,10.00,M,OVC,M,M,M,1200.00,M,M,M,M,KLWD 010800Z AUTO 04005KT 10SM OVC012 A3016 RMK MADISHF
LWD,2017-04-01 08:05,-93.9005,40.6306,M,M,M,40.00,5.00,M,30.15,M,10.00,M,OVC,M,M,M,1200.00,M,M,M,M,KLWD 010805Z AUTO 04005KT 10SM OVC012 A3015 RMK MADISHF
LWD,2017-04-01 08:10,-93.9005,40.6306,M,M,M,60.00,7.00,M,30.15,M,10.00,M,OVC,M,M,M,1200.00,M,M,M,M,KLWD 010810Z AUTO 06007KT 10SM OVC012 A3015 RMK MADISHF
LWD,2017-04-01 08:15,-93.9005,40.6306,M,M,M,60.00,7.00,M,30.15,M,10.00,M,OVC,M,M,M,1200.00,M,M,M,M,KLWD 010815Z AUTO 06007KT 10SM OVC012 A3015 RMK MADISHF
LWD,2017-04-01 08:20,-93.9005,40.6306,M,M,M,60.00,6.00,M,30.15,M,10.00,M,OVC,M,M,M,1200.00,M,M,M,M,KLWD 010820Z AUTO 06006KT 10SM OVC012 A3015 RMK MADISHF
LWD,2017-04-01 08:25,-93.9005,40.6306,M,M,M,60.00,4.00,M,30.15,M,10.00,M,OVC,M,M,M,1100.00,M,M,M,M,KLWD 010825Z AUTO 06004KT 10SM OVC011 A3015 RMK MADISHF
LWD,2017-04-01 08:30,-93.9005,40.6306,M,M,M,50.00,7.00,M,30.15,M,10.00,M,OVC,M,M,M,1100.00,M,M,M,M,KLWD 010830Z AUTO 05007KT 10SM OVC011 A3015 RMK MADISHF
LWD,2017-04-01 08:35,-93.9005,40.6306,M,M,M,70.00,4.00,M,30.15,M,10.00,M,OVC,M,M,M,1100.00,M,M,M,M,KLWD 010835Z AUTO 07004KT 10SM OVC011 A3015 RMK MADISHF
LWD,2017-04-01 08:40,-93.9005,40.6306,M,M,M,80.00,5.00,M,30.14,M,10.00,M,OVC,M,M,M,1100.00,M,M,M,M,KLWD 010840Z AUTO 08005KT 10SM OVC011 A3014 RMK MADISHF
LWD,2017-04-01 08:45,-93.9005,40.6306,M,M,M,90.00,4.00,M,30.15,M,10.00,M,OVC,M,M,M,999.00,M,M,M,M,KLWD 010845Z AUTO 09004KT 10SM OVC009 A3015 RMK MADISHF
LWD,2017-04-01 08:50,-93.9005,40.6306,M,M,M,100.00,5.00,M,30.15,M,10.00,M,OVC,M,M,M,999.00,M,M,M,M,KLWD 010850Z AUTO 10005KT 10SM OVC009 A3015 RMK MADISHF
LWD,2017-04-01 08:53,-93.9005,40.6306,39.90,36.00,85.81,90.00,4.00,0.00,30.16,1021.80,10.00,M,OVC,M,M,M,1000.00,M,M,M,M,KLWD 010853Z AUTO 09004KT 10SM OVC010 04/02 A3016 RMK AO2 SLP218 T00440022 50009
LWD,2017-04-01 08:55,-93.9005,40.6306,M,M,M,80.00,3.00,M,30.16,M,10.00,M,OVC,M,M,M,999.00,M,M,M,M,KLWD 010855Z AUTO 08003KT 10SM OVC009 A3016 RMK MADISHF
LWD,2017-04-01 09:00,-93.9005,40.6306,M,M,M,90.00,4.00,M,30.16,M,10.00,M,OVC,M,M,M,999.00,M,M,M,M,KLWD 010900Z AUTO 09004KT 10SM OVC009 A3016 RMK MADISHF
LWD,2017-04-01 09:05,-93.9005,40.6306,M,M,M,90.00,6.00,M,30.15,M,10.00,M,OVC,M,M,M,1100.00,M,M,M,M,KLWD 010905Z AUTO 09006KT 10SM OVC011 A3015 RMK MADISHF
LWD,2017-04-01 09:10,-93.9005,40.6306,M,M,M,90.00,7.00,M,30.15,M,10.00,M,OVC,M,M,M,1100.00,M,M,M,M,KLWD 010910Z AUTO 09007KT 10SM OVC011 A3015 RMK MADISHF
LWD,2017-04-01 09:15,-93.9005,40.6306,M,M,M,100.00,4.00,M,30.15,M,10.00,M,OVC,M,M,M,1100.00,M,M,M,M,KLWD 010915Z AUTO 10004KT 10SM OVC011 A3015 RMK MADISHF
LWD,2017-04-01 09:20,-93.9005,40.6306,M,M,M,90.00,3.00,M,30.15,M,10.00,M,OVC,M,M,M,1100.00,M,M,M,M,KLWD 010920Z AUTO 09003KT 10SM OVC011 A3015 RMK MADISHF
LWD,2017-04-01 09:25,-93.9005,40.6306,M,M,M,90.00,5.00,M,30.15,M,10.00,M,OVC,M,M,M,1100.00,M,M,M,M,KLWD 010925Z AUTO 09005KT 10SM OVC011 A3015 RMK MADISHF
LWD,2017-04-01 09:30,-93.9005,40.6306,M,M,M,80.00,5.00,M,30.15,M,10.00,M,OVC,M,M,M,1100.00,M,M,M,M,KLWD 010930Z AUTO 08005KT 10SM OVC011 A3015 RMK MADISHF
LWD,2017-04-01 09:35,-93.9005,40.6306,M,M,M,80.00,4.00,M,30.15,M,10.00,M,OVC,M,M,M,1300.00,M,M,M,M,KLWD 010935Z AUTO 08004KT 10SM OVC013 A3015 RMK MADISHF
LWD,2017-04-01 09:40,-93.9005,40.6306,M,M,M,70.00,3.00,M,30.15,M,10.00,M,OVC,M,M,M,1300.00,M,M,M,M,KLWD 010940Z AUTO 07003KT 10SM OVC013 A3015 RMK MADISHF
LWD,2017-04-01 09:45,-93.9005,40.6306,M,M,M,0.00,0.00,M,30.16,M,10.00,M,OVC,M,M,M,1300.00,M,M,M,M,KLWD 010945Z AUTO 00000KT 10SM OVC013 A3016 RMK MADISHF
LWD,2017-04-01 09:50,-93.9005,40.6306,M,M,M,70.00,3.00,M,30.16,M,10.00,M,OVC,M,M,M,1300.00,M,M,M,M,KLWD 010950Z AUTO 07003KT 10SM OVC013 A3016 RMK MADISHF
LWD,2017-04-01 09:53,-93.9005,40.6306,39.90,36.00,85.81,0.00,0.00,0.00,30.16,1022.00,10.00,M,OVC,M,M,M,1300.00,M,M,M,M,KLWD 010953Z AUTO 00000KT 10SM OVC013 04/02 A3016 RMK AO2 SLP220 T00440022
LWD,2017-04-01 09:55,-93.9005,40.6306,M,M,M,0.00,0.00,M,30.17,M,10.00,M,OVC,M,M,M,1300.00,M,M,M,M,KLWD 010955Z AUTO 00000KT 10SM OVC013 A3017 RMK MADISHF
LWD,2017-04-01 10:00,-93.9005,40.6306,M,M,M,0.00,0.00,M,30.17,M,10.00,M,OVC,M,M,M,1300.00,M,M,M,M,KLWD 011000Z AUTO 00000KT 10SM OVC013 A3017 RMK MADISHF
LWD,2017-04-01 10:05,-93.9005,40.6306,M,M,M,0.00,0.00,M,30.17,M,10.00,M,OVC,M,M,M,1400.00,M,M,M,M,KLWD 011005Z AUTO 00000KT 10SM OVC014 A3017 RMK MADISHF
LWD,2017-04-01 10:10,-93.9005,40.6306,M,M,M,0.00,0.00,M,30.17,M,10.00,M,OVC,M,M,M,1400.00,M,M,M,M,KLWD 011010Z AUTO 00000KT 10SM OVC014 A3017 RMK MADISHF
LWD,2017-04-01 10:15,-93.9005,40.6306,M,M,M,0.00,0.00,M,30.18,M,10.00,M,OVC,M,M,M,1400.00,M,M,M,M,KLWD 011015Z AUTO 00000KT 10SM OVC014 A3018 RMK MADISHF
LWD,2017-04-01 10:20,-93.9005,40.6306,M,M,M,0.00,0.00,M,30.17,M,10.00,M,OVC,M,M,M,1500.00,M,M,M,M,KLWD 011020Z AUTO 00000KT 10SM OVC015 A3017 RMK MADISHF
LWD,2017-04-01 10:23,-93.9005,40.6306,39.90,36.00,85.81,70.00,3.00,0.00,30.18,M,10.00,M,OVC,M,M,M,1500.00,M,M,M,M,KLWD 011023Z AUTO 07003KT 10SM OVC015 04/02 A3018 RMK AO2 T00440022
LWD,2017-04-01 10:25,-93.9005,40.6306,M,M,M,90.00,3.00,M,30.18,M,10.00,M,OVC,M,M,M,1500.00,M,M,M,M,KLWD 011025Z AUTO 09003KT 10SM OVC015 A3018 RMK MADISHF
LWD,2017-04-01 10:30,-93.9005,40.6306,M,M,M,80.00,3.00,M,30.18,M,10.00,M,OVC,M,M,M,1500.00,M,M,M,M,KLWD 011030Z AUTO 08003KT 10SM OVC015 A3018 RMK MADISHF
LWD,2017-04-01 10:35,-93.9005,40.6306,M,M,M,0.00,0.00,M,30.18,M,10.00,M,OVC,M,M,M,1500.00,M,M,M,M,KLWD 011035Z AUTO 00000KT 10SM OVC015 A3018 RMK MADISHF
LWD,2017-04-01 10:40,-93.9005,40.6306,M,M,M,0.00,0.00,M,30.18,M,10.00,M,OVC,M,M,M,1500.00,M,M,M,M,KLWD 011040Z AUTO 00000KT 10SM OVC015 A3018 RMK MADISHF
LWD,2017-04-01 10:45,-93.9005,40.6306,M,M,M,0.00,0.00,M,30.18,M,10.00,M,OVC,M,M,M,1500.00,M,M,M,M,KLWD 011045Z AUTO 00000KT 10SM OVC015 A3018 RMK MADISHF
LWD,2017-04-01 10:50,-93.9005,40.6306,M,M,M,50.00,3.00,M,30.18,M,10.00,M,OVC,M,M,M,1699.00,M,M,M,M,KLWD 011050Z AUTO 05003KT 10SM OVC016 A3018 RMK MADISHF
LWD,2017-04-01 10:53,-93.9005,40.6306,39.90,37.00,89.27,50.00,3.00,0.00,30.18,1022.40,10.00,M,OVC,M,M,M,1700.00,M,M,M,M,KLWD 011053Z AUTO 05003KT 10SM OVC017 04/03 A3018 RMK AO2 SLP224 T00440028
LWD,2017-04-01 10:55,-93.9005,40.6306,M,M,M,50.00,4.00,M,30.17,M,10.00,M,OVC,M,M,M,1699.00,M,M,M,M,KLWD 011055Z AUTO 05004KT 10SM OVC016 A3017 RMK MADISHF
LWD,2017-04-01 11:00,-93.9005,40.6306,M,M,M,40.00,5.00,M,30.17,M,10.00,M,OVC,M,M,M,1699.00,M,M,M,M,KLWD 011100Z AUTO 04005KT 10SM OVC016 A3017 RMK MADISHF
LWD,2017-04-01 11:05,-93.9005,40.6306,M,M,M,20.00,3.00,M,30.18,M,10.00,M,OVC,M,M,M,1699.00,M,M,M,M,KLWD 011105Z AUTO 02003KT 10SM OVC016 A3018 RMK MADISHF
LWD,2017-04-01 11:10,-93.9005,40.6306,M,M,M,20.00,3.00,M,30.19,M,10.00,M,OVC,M,M,M,1699.00,M,M,M,M,KLWD 011110Z AUTO 02003KT 10SM OVC016 A3019 RMK MADISHF
LWD,2017-04-01 11:15,-93.9005,40.6306,M,M,M,20.00,4.00,M,30.18,M,10.00,M,OVC,M,M,M,1699.00,M,M,M,M,KLWD 011115Z AUTO 02004KT 10SM OVC016 A3018 RMK MADISHF
LWD,2017-04-01 11:20,-93.9005,40.6306,M,M,M,20.00,4.00,M,30.19,M,10.00,M,OVC,M,M,M,1699.00,M,M,M,M,KLWD 011120Z AUTO 02004KT 10SM OVC016 A3019 RMK MADISHF
LWD,2017-04-01 11:25,-93.9005,40.6306,M,M,M,20.00,4.00,M,30.19,M,10.00,M,OVC,M,M,M,1699.00,M,M,M,M,KLWD 011125Z AUTO 02004KT 10SM OVC016 A3019 RMK MADISHF
LWD,2017-04-01 11:30,-93.9005,40.6306,M,M,M,20.00,4.00,M,30.19,M,10.00,M,OVC,M,M,M,1800.00,M,M,M,M,KLWD 011130Z AUTO 02004KT 10SM OVC018 A3019 RMK MADISHF
LWD,2017-04-01 11:35,-93.9005,40.6306,M,M,M,30.00,4.00,M,30.19,M,10.00,M,OVC,M,M,M,1800.00,M,M,M,M,KLWD 011135Z AUTO 03004KT 10SM OVC018 A3019 RMK MADISHF
LWD,2017-04-01 11:40,-93.9005,40.6306,M,M,M,0.00,0.00,M,30.20,M,10.00,M,OVC,M,M,M,1800.00,M,M,M,M,KLWD 011140Z AUTO 00000KT 10SM OVC018 A3020 RMK MADISHF
LWD,2017-04-01 11:45,-93.9005,40.6306,M,M,M,40.00,3.00,M,30.21,M,10.00,M,OVC,M,M,M,1800.00,M,M,M,M,KLWD 011145Z AUTO 04003KT 10SM OVC018 A3021 RMK MADISHF
LWD,2017-04-01 11:50,-93.9005,40.6306,M,M,M,40.00,3.00,M,30.20,M,10.00,M,OVC,M,M,M,1800.00,M,M,M,M,KLWD 011150Z AUTO 04003KT 10SM OVC018 A3020 RMK MADISHF
LWD,2017-04-01 11:53,-93.9005,40.6306,39.90,36.00,85.81,40.00,4.00,0.00,30.20,1023.40,10.00,M,OVC,M,M,M,1800.00,M,M,M,M,KLWD 011153Z AUTO 04004KT 10SM OVC018 04/02 A3020 RMK AO2 SLP234 T00440022 10050 20044 53015
LWD,2017-04-01 11:55,-93.9005,40.6306,M,M,M,40.00,4.00,M,30.21,M,10.00,M,OVC,M,M,M,1800.00,M,M,M,M,KLWD 011155Z AUTO 04004KT 10SM OVC018 A3021 RMK MADISHF
LWD,2017-04-01 12:00,-93.9005,40.6306,M,M,M,40.00,4.00,M,30.21,M,10.00,M,OVC,M,M,M,1800.00,M,M,M,M,KLWD 011200Z AUTO 04004KT 10SM OVC018 A3021 RMK MADISHF
LWD,2017-04-01 12:05,-93.9005,40.6306,M,M,M,50.00,4.00,M,30.20,M,10.00,M,OVC,M,M,M,1800.00,M,M,M,M,KLWD 011205Z AUTO 05004KT 10SM OVC018 A3020 RMK MADISHF
LWD,2017-04-01 12:10,-93.9005,40.6306,M,M,M,60.00,5.00,M,30.20,M,10.00,M,OVC,M,M,M,1800.00,M,M,M,M,KLWD 011210Z AUTO 06005KT 10SM OVC018 A3020 RMK MADISHF
LWD,2017-04-01 12:15,-93.9005,40.6306,M,M,M,60.00,4.00,M,30.21,M,10.00,M,OVC,M,M,M,1800.00,M,M,M,M,KLWD 011215Z AUTO 06004KT 10SM OVC018 A3021 RMK MADISHF
LWD,2017-04-01 12:20,-93.9005,40.6306,M,M,M,50.00,5.00,M,30.20,M,10.00,M,BKN,M,M,M,1800.00,M,M,M,M,KLWD 011220Z AUTO 05005KT 10SM BKN018 A3020 RMK MADISHF
LWD,2017-04-01 12:25,-93.9005,40.6306,M,M,M,60.00,4.00,M,30.20,M,10.00,M,BKN,M,M,M,1800.00,M,M,M,M,KLWD 011225Z AUTO 06004KT 10SM BKN018 A3020 RMK MADISHF
LWD,2017-04-01 12:30,-93.9005,40.6306,M,M,M,60.00,5.00,M,30.21,M,10.00,M,BKN,M,M,M,1800.00,M,M,M,M,KLWD 011230Z AUTO 06005KT 10SM BKN018 A3021 RMK MADISHF
LWD,2017-04-01 12:35,-93.9005,40.6306,M,M,M,70.00,3.00,M,30.22,M,10.00,M,BKN,M,M,M,1800.00,M,M,M,M,KLWD 011235Z AUTO 07003KT 10SM BKN018 A3022 RMK MADISHF
LWD,2017-04-01 12:40,-93.9005,40.6306,M,M,M,70.00,3.00,M,30.22,M,10.00,M,BKN,M,M,M,1800.00,M,M,M,M,KLWD 011240Z AUTO 07003KT 10SM BKN018 A3022 RMK MADISHF
LWD,2017-04-01 12:45,-93.9005,40.6306,M,M,M,50.00,4.00,M,30.22,M,10.00,M,BKN,M,M,M,1900.00,M,M,M,M,KLWD 011245Z AUTO 05004KT 10SM BKN019 A3022 RMK MADISHF
LWD,2017-04-01 12:50,-93.9005,40.6306,M,M,M,50.00,4.00,M,30.23,M,10.00,M,OVC,M,M,M,1900.00,M,M,M,M,KLWD 011250Z AUTO 05004KT 10SM OVC019 A3023 RMK MADISHF
LWD,2017-04-01 12:53,-93.9005,40.6306,39.90,37.00,89.27,50.00,4.00,0.00,30.23,1024.40,10.00,M,OVC,M,M,M,1900.00,M,M,M,M,KLWD 011253Z AUTO 05004KT 10SM OVC019 04/03 A3023 RMK AO2 SLP244 T00440028
LWD,2017-04-01 12:55,-93.9005,40.6306,M,M,M,50.00,4.00,M,30.23,M,10.00,M,OVC,M,M,M,1900.00,M,M,M,M,KLWD 011255Z AUTO 05004KT 10SM OVC019 A3023 RMK MADISHF
LWD,2017-04-01 13:00,-93.9005,40.6306,M,M,M,50.00,4.00,M,30.23,M,10.00,M,OVC,M,M,M,1900.00,M,M,M,M,KLWD 011300Z AUTO 05004KT 10SM OVC019 A3023 RMK MADISHF
LWD,2017-04-01 13:05,-93.9005,40.6306,M,M,M,50.00,6.00,M,30.23,M,10.00,M,OVC,M,M,M,1900.00,M,M,M,M,KLWD 011305Z AUTO 05006KT 10SM OVC019 A3023 RMK MADISHF
LWD,2017-04-01 13:10,-93.9005,40.6306,M,M,M,50.00,5.00,M,30.23,M,10.00,M,OVC,M,M,M,1900.00,M,M,M,M,KLWD 011310Z AUTO 05005KT 10SM OVC019 A3023 RMK MADISHF
LWD,2017-04-01 13:15,-93.9005,40.6306,M,M,M,60.00,6.00,M,30.22,M,10.00,M,OVC,M,M,M,1900.00,M,M,M,M,KLWD 011315Z AUTO 06006KT 10SM OVC019 A3022 RMK MADISHF
LWD,2017-04-01 13:20,-93.9005,40.6306,M,M,M,50.00,6.00,M,30.22,M,10.00,M,OVC,M,M,M,1900.00,M,M,M,M,KLWD 011320Z AUTO 05006KT 10SM OVC019 A3022 RMK MADISHF
LWD,2017-04-01 13:25,-93.9005,40.6306,M,M,M,60.00,5.00,M,30.23,M,10.00,M,OVC,M,M,M,1900.00,M,M,M,M,KLWD 011325Z AUTO 06005KT 10SM OVC019 A3023 RMK MADISHF
LWD,2017-04-01 13:30,-93.9005,40.6306,M,M,M,50.00,5.00,M,30.23,M,10.00,M,OVC,M,M,M,1900.00,M,M,M,M,KLWD 011330Z AUTO 05005KT 10SM OVC019 A3023 RMK MADISHF
LWD,2017-04-01 13:35,-93.9005,40.6306,M,M,M,50.00,8.00,M,30.22,M,10.00,M,BKN,M,M,M,1900.00,M,M,M,M,KLWD 011335Z AUTO 05008KT 10SM BKN019 A3022 RMK MADISHF
LWD,2017-04-01 13:40,-93.9005,40.6306,M,M,M,50.00,8.00,M,30.22,M,10.00,M,BKN,M,M,M,1900.00,M,M,M,M,KLWD 011340Z AUTO 05008KT 10SM BKN019 A3022 RMK MADISHF
LWD,2017-04-01 13:45,-93.9005,40.6306,M,M,M,60.00,8.00,M,30.22,M,10.00,M,SCT,M,M,M,1900.00,M,M,M,M,KLWD 011345Z AUTO 06008KT 10SM SCT019 A3022 RMK MADISHF
LWD,2017-04-01 13:49,-93.9005,40.6306,41.00,37.40,86.89,50.00,8.00,0.00,30.22,M,10.00,M,SCT,M,M,M,1900.00,M,M,M,M,KLWD 011349Z AUTO 05008KT 10SM SCT019 05/03 A3022 RMK AO2
LWD,2017-04-01 13:50,-93.9005,40.6306,M,M,M,60.00,7.00,M,30.22,M,10.00,M,FEW,M,M,M,1900.00,M,M,M,M,KLWD 011350Z AUTO 06007KT 10SM FEW019 A3022 RMK MADISHF
LWD,2017-04-01 13:53,-93.9005,40.6306,41.00,37.00,85.54,60.00,7.00,0.00,30.22,1024.10,10.00,M,FEW,M,M,M,1900.00,M,M,M,M,KLWD 011353Z AUTO 06007KT 10SM FEW019 05/03 A3022 RMK AO2 SLP241 T00500028
LWD,2017-04-01 13:55,-93.9005,40.6306,M,M,M,60.00,7.00,M,30.22,M,10.00,M,FEW,M,M,M,1900.00,M,M,M,M,KLWD 011355Z AUTO 06007KT 10SM FEW019 A3022 RMK MADISHF
LWD,2017-04-01 14:00,-93.9005,40.6306,M,M,M,60.00,7.00,M,30.22,M,10.00,M,CLR,M,M,M,M,M,M,M,M,KLWD 011400Z AUTO 06007KT 10SM CLR A3022 RMK MADISHF
LWD,2017-04-01 14:05,-93.9005,40.6306,M,M,M,50.00,9.00,M,30.22,M,10.00,M,CLR,M,M,M,M,M,M,M,M,KLWD 011405Z AUTO 05009KT 10SM CLR A3022 RMK MADISHF
LWD,2017-04-01 14:10,-93.9005,40.6306,M,M,M,60.00,7.00,M,30.22,M,10.00,M,CLR,M,M,M,M,M,M,M,M,KLWD 011410Z AUTO 06007KT 10SM CLR A3022 RMK MADISHF
LWD,2017-04-01 14:15,-93.9005,40.6306,M,M,M,60.00,7.00,M,30.22,M,10.00,M,CLR,M,M,M,M,M,M,M,M,KLWD 011415Z AUTO 06007KT 10SM CLR A3022 RMK MADISHF
LWD,2017-04-01 14:20,-93.9005,40.6306,M,M,M,60.00,6.00,M,30.22,M,10.00,M,CLR,M,M,M,M,M,M,M,M,KLWD 011420Z AUTO 06006KT 10SM CLR A3022 RMK MADISHF
LWD,2017-04-01 14:25,-93.9005,40.6306,M,M,M,50.00,10.00,M,30.22,M,10.00,M,CLR,M,M,M,M,M,M,M,M,KLWD 011425Z AUTO 05010KT 10SM CLR A3022 RMK MADISHF
LWD,2017-04-01 14:30,-93.9005,40.6306,M,M,M,50.00,8.00,M,30.22,M,10.00,M,FEW,M,M,M,1200.00,M,M,M,M,KLWD 011430Z AUTO 05008KT 10SM FEW012 A3022 RMK MADISHF
LWD,2017-04-01 14:35,-93.9005,40.6306,M,M,M,60.00,6.00,M,30.22,M,10.00,M,FEW,M,M,M,1200.00,M,M,M,M,KLWD 011435Z AUTO 06006KT 10SM FEW012 A3022 RMK MADISHF
LWD,2017-04-01 14:40,-93.9005,40.6306,M,M,M,60.00,9.00,M,30.22,M,10.00,M,FEW,M,M,M,1200.00,M,M,M,M,KLWD 011440Z AUTO 06009KT 10SM FEW012 A3022 RMK MADISHF
LWD,2017-04-01 14:45,-93.9005,40.6306,M,M,M,60.00,10.00,M,30.22,M,10.00,M,FEW,M,M,M,1200.00,M,M,M,M,KLWD 011445Z AUTO 06010KT 10SM FEW012 A3022 RMK MADISHF
LWD,2017-04-01 14:50,-93.9005,40.6306,M,M,M,50.00,7.00,M,30.23,M,10.00,M,SCT,M,M,M,1300.00,M,M,M,M,KLWD 011450Z AUTO 05007KT 10SM SCT013 A3023 RMK MADISHF
LWD,2017-04-01 14:53,-93.9005,40.6306,44.10,37.90,78.66,M,5.00,0.00,30.23,1024.30,10.00,M,BKN,M,M,M,1300.00,M,M,M,M,KLWD 011453Z AUTO VRB05KT 10SM BKN013 07/03 A3023 RMK AO2 SLP243 T00670033 55001
LWD,2017-04-01 14:55,-93.9005,40.6306,M,M,M,60.00,7.00,M,30.23,M,10.00,M,BKN,M,M,M,1300.00,M,M,M,M,KLWD 011455Z AUTO 06007KT 10SM BKN013 A3023 RMK MADISHF
LWD,2017-04-01 15:00,-93.9005,40.6306,M,M,M,80.00,7.00,M,30.23,M,10.00,M,BKN,M,M,M,1300.00,M,M,M,M,KLWD 011500Z AUTO 08007KT 10SM BKN013 A3023 RMK MADISHF
LWD,2017-04-01 15:05,-93.9005,40.6306,M,M,M,60.00,7.00,M,30.23,M,10.00,M,BKN,M,M,M,1300.00,M,M,M,M,KLWD 011505Z AUTO 06007KT 10SM BKN013 A3023 RMK MADISHF
LWD,2017-04-01 15:10,-93.9005,40.6306,M,M,M,70.00,7.00,M,30.23,M,10.00,M,BKN,M,M,M,1300.00,M,M,M,M,KLWD 011510Z AUTO 07007KT 10SM BKN013 A3023 RMK MADISHF
LWD,2017-04-01 15:15,-93.9005,40.6306,M,M,M,70.00,6.00,M,30.23,M,10.00,M,BKN,M,M,M,1400.00,M,M,M,M,KLWD 011515Z AUTO 07006KT 10SM BKN014 A3023 RMK MADISHF
LWD,2017-04-01 15:20,-93.9005,40.6306,M,M,M,80.00,6.00,M,30.24,M,10.00,M,BKN,M,M,M,1400.00,M,M,M,M,KLWD 011520Z AUTO 08006KT 10SM BKN014 A3024 RMK MADISHF
LWD,2017-04-01 15:25,-93.9005,40.6306,M,M,M,60.00,9.00,M,30.24,M,10.00,M,BKN,M,M,M,1600.00,M,M,M,M,KLWD 011525Z AUTO 06009KT 10SM BKN016 A3024 RMK MADISHF
LWD,2017-04-01 15:30,-93.9005,40.6306,45.00,37.00,73.37,60.00,7.00,0.00,30.24,M,10.00,M,BKN,M,M,M,1600.00,M,M,M,M,KLWD 011530Z AUTO 06007KT 10SM BKN016 07/03 A3024 RMK AO2 T00720028
LWD,2017-04-01 15:35,-93.9005,40.6306,M,M,M,80.00,7.00,M,30.24,M,10.00,M,SCT,M,M,M,1600.00,M,M,M,M,KLWD 011535Z AUTO 08007KT 10SM SCT016 A3024 RMK MADISHF
LWD,2017-04-01 15:40,-93.9005,40.6306,45.00,37.00,73.37,M,6.00,0.00,30.24,M,10.00,M,SCT,M,M,M,1600.00,M,M,M,M,KLWD 011540Z AUTO VRB06KT 10SM SCT016 07/03 A3024 RMK AO2 T00720028
LWD,2017-04-01 15:45,-93.9005,40.6306,M,M,M,70.00,10.00,M,30.24,M,10.00,M,SCT,M,M,M,1800.00,M,M,M,M,KLWD 011545Z AUTO 07010KT 10SM SCT018 A3024 RMK MADISHF
LWD,2017-04-01 15:50,-93.9005,40.6306,M,M,M,110.00,5.00,M,30.25,M,10.00,M,SCT,M,M,M,1800.00,M,M,M,M,KLWD 011550Z AUTO 11005KT 10SM SCT018 A3025 RMK MADISHF
LWD,2017-04-01 15:53,-93.9005,40.6306,46.00,37.90,73.18,M,4.00,0.00,30.25,1024.90,10.00,M,SCT,M,M,M,1800.00,M,M,M,M,KLWD 011553Z AUTO VRB04KT 10SM SCT018 08/03 A3025 RMK AO2 SLP249 T00780033
LWD,2017-04-01 15:55,-93.9005,40.6306,M,M,M,60.00,7.00,M,30.25,M,10.00,M,SCT,M,M,M,1800.00,M,M,M,M,KLWD 011555Z AUTO 06007KT 10SM SCT018 A3025 RMK MADISHF
LWD,2017-04-01 16:00,-93.9005,40.6306,M,M,M,60.00,5.00,M,30.25,M,10.00,M,SCT,M,M,M,1800.00,M,M,M,M,KLWD 011600Z AUTO 06005KT 10SM SCT018 A3025 RMK MADISHF
LWD,2017-04-01 16:05,-93.9005,40.6306,M,M,M,80.00,7.00,M,30.24,M,10.00,M,SCT,M,M,M,1900.00,M,M,M,M,KLWD 011605Z AUTO 08007KT 10SM SCT019 A3024 RMK MADISHF
LWD,2017-04-01 16:10,-93.9005,40.6306,M,M,M,90.00,8.00,M,30.24,M,10.00,M,SCT,M,M,M,1900.00,M,M,M,M,KLWD 011610Z AUTO 09008KT 10SM SCT019 A3024 RMK MADISHF
LWD,2017-04-01 16:15,-93.9005,40.6306,M,M,M,80.00,5.00,M,30.24,M,10.00,M,SCT,M,M,M,1900.00,M,M,M,M,KLWD 011615Z AUTO 08005KT 10SM SCT019 A3024 RMK VRB05KT  MADISHF
LWD,2017-04-01 16:20,-93.9005,40.6306,M,M,M,110.00,6.00,M,30.23,M,10.00,M,FEW,M,M,M,1900.00,M,M,M,M,KLWD 011620Z AUTO 11006KT 10SM FEW019 A3023 RMK VRB06KT  MADISHF
LWD,2017-04-01 16:25,-93.9005,40.6306,M,M,M,90.00,7.00,M,30.23,M,10.00,M,FEW,M,M,M,1900.00,M,M,M,M,KLWD 011625Z AUTO 09007KT 10SM FEW019 A3023 RMK MADISHF
LWD,2017-04-01 16:30,-93.9005,40.6306,M,M,M,90.00,8.00,M,30.23,M,10.00,M,FEW,M,M,M,1900.00,M,M,M,M,KLWD 011630Z AUTO 09008KT 10SM FEW019 A3023 RMK MADISHF
LWD,2017-04-01 16:35,-93.9005,40.6306,M,M,M,100.00,5.00,M,30.23,M,10.00,M,FEW,M,M,M,1900.00,M,M,M,M,KLWD 011635Z AUTO 10005KT 10SM FEW019 A3023 RMK MADISHF
LWD,2017-04-01 16:40,-93.9005,40.6306,M,M,M,90.00,7.00,M,30.23,M,10.00,M,CLR,M,M,M,M,M,M,M,M,KLWD 011640Z AUTO 09007KT 10SM CLR A3023 RMK MADISHF
LWD,2017-04-01 16:45,-93.9005,40.6306,M,M,M,100.00,7.00,M,30.22,M,10.00,M,CLR,M,M,M,M,M,M,M,M,KLWD 011645Z AUTO 10007KT 10SM CLR A3022 RMK MADISHF
LWD,2017-04-01 16:50,-93.9005,40.6306,M,M,M,80.00,6.00,M,30.23,M,10.00,M,CLR,M,M,M,M,M,M,M,M,KLWD 011650Z AUTO 08006KT 10SM CLR A3023 RMK MADISHF
LWD,2017-04-01 16:53,-93.9005,40.6306,48.00,37.90,67.87,90.00,7.00,0.00,30.23,1024.10,10.00,M,CLR,M,M,M,M,M,M,M,M,KLWD 011653Z AUTO 09007KT 10SM CLR 09/03 A3023 RMK AO2 SLP241 T00890033
LWD,2017-04-01 16:55,-93.9005,40.6306,M,M,M,70.00,9.00,M,30.23,M,10.00,M,CLR,M,M,M,M,M,M,M,M,KLWD 011655Z AUTO 07009KT 10SM CLR A3023 RMK MADISHF
LWD,2017-04-01 17:00,-93.9005,40.6306,M,M,M,80.00,7.00,M,30.23,M,10.00,M,CLR,M,M,M,M,M,M,M,M,KLWD 011700Z AUTO 08007KT 10SM CLR A3023 RMK MADISHF
LWD,2017-04-01 17:05,-93.9005,40.6306,M,M,M,100.00,8.00,M,30.23,M,10.00,M,CLR,M,M,M,M,M,M,M,M,KLWD 011705Z AUTO 10008KT 10SM CLR A3023 RMK MADISHF
LWD,2017-04-01 17:10,-93.9005,40.6306,M,M,M,110.00,5.00,M,30.23,M,10.00,M,FEW,M,M,M,2400.00,M,M,M,M,KLWD 011710Z AUTO 11005KT 10SM FEW024 A3023 RMK MADISHF
LWD,2017-04-01 17:15,-93.9005,40.6306,M,M,M,100.00,8.00,M,30.23,M,10.00,M,FEW,M,M,M,2500.00,M,M,M,M,KLWD 011715Z AUTO 10008KT 10SM FEW025 A3023 RMK MADISHF
LWD,2017-04-01 17:20,-93.9005,40.6306,M,M,M,120.00,6.00,M,30.23,M,10.00,M,FEW,M,M,M,2500.00,M,M,M,M,KLWD 011720Z AUTO 12006KT 10SM FEW025 A3023 RMK MADISHF
LWD,2017-04-01 17:25,-93.9005,40.6306,M,M,M,80.00,4.00,M,30.23,M,10.00,M,FEW,M,M,M,2500.00,M,M,M,M,KLWD 011725Z AUTO 08004KT 10SM FEW025 A3023 RMK VRB04KT  MADISHF
LWD,2017-04-01 17:30,-93.9005,40.6306,M,M,M,70.00,5.00,M,30.22,M,10.00,M,FEW,M,M,M,2500.00,M,M,M,M,KLWD 011730Z AUTO 07005KT 10SM FEW025 A3022 RMK MADISHF
LWD,2017-04-01 17:35,-93.9005,40.6306,M,M,M,70.00,6.00,M,30.22,M,10.00,M,FEW,M,M,M,2500.00,M,M,M,M,KLWD 011735Z AUTO 07006KT 10SM FEW025 A3022 RMK VRB06KT  MADISHF
LWD,2017-04-01 17:40,-93.9005,40.6306,M,M,M,70.00,4.00,M,30.22,M,10.00,M,FEW,M,M,M,2500.00,M,M,M,M,KLWD 011740Z AUTO 07004KT 10SM FEW025 A3022 RMK MADISHF
LWD,2017-04-01 17:45,-93.9005,40.6306,M,M,M,90.00,6.00,M,30.22,M,10.00,M,CLR,M,M,M,M,M,M,M,M,KLWD 011745Z AUTO 09006KT 10SM CLR A3022 RMK MADISHF
LWD,2017-04-01 17:50,-93.9005,40.6306,M,M,M,70.00,8.00,M,30.22,M,10.00,M,CLR,M,M,M,M,M,M,M,M,KLWD 011750Z AUTO 07008KT 10SM CLR A3022 RMK MADISHF
LWD,2017-04-01 17:53,-93.9005,40.6306,48.90,37.90,65.62,70.00,5.00,0.00,30.22,1023.80,10.00,M,CLR,M,M,M,M,M,M,M,M,KLWD 011753Z AUTO 07005KT 10SM CLR 09/03 A3022 RMK AO2 SLP238 T00940033 10094 20039 58004
LWD,2017-04-01 17:55,-93.9005,40.6306,M,M,M,70.00,4.00,M,30.22,M,10.00,M,CLR,M,M,M,M,M,M,M,M,KLWD 011755Z AUTO 07004KT 10SM CLR A3022 RMK MADISHF
LWD,2017-04-01 18:00,-93.9005,40.6306,M,M,M,80.00,4.00,M,30.22,M,10.00,M,CLR,M,M,M,M,M,M,M,M,KLWD 011800Z AUTO 08004KT 10SM CLR A3022 RMK MADISHF
LWD,2017-04-01 18:05,-93.9005,40.6306,M,M,M,110.00,5.00,M,30.22,M,10.00,M,CLR,M,M,M,M,M,M,M,M,KLWD 011805Z AUTO 11005KT 10SM CLR A3022 RMK MADISHF
LWD,2017-04-01 18:10,-93.9005,40.6306,M,M,M,110.00,5.00,M,30.21,M,10.00,M,CLR,M,M,M,M,M,M,M,M,KLWD 011810Z AUTO 11005KT 10SM CLR A3021 RMK MADISHF
LWD,2017-04-01 18:15,-93.9005,40.6306,M,M,M,80.00,6.00,M,30.21,M,10.00,M,CLR,M,M,M,M,M,M,M,M,KLWD 011815Z AUTO 08006KT 10SM CLR A3021 RMK MADISHF
LWD,2017-04-01 18:20,-93.9005,40.6306,M,M,M,80.00,5.00,M,30.22,M,10.00,M,CLR,M,M,M,M,M,M,M,M,KLWD 011820Z AUTO 08005KT 10SM CLR A3022 RMK MADISHF
LWD,2017-04-01 18:25,-93.9005,40.6306,M,M,M,80.00,3.00,M,30.22,M,10.00,M,CLR,M,M,M,M,M,M,M,M,KLWD 011825Z AUTO 08003KT 10SM CLR A3022 RMK VRB03KT  MADISHF
LWD,2017-04-01 18:30,-93.9005,40.6306,M,M,M,100.00,8.00,M,30.20,M,10.00,M,CLR,M,M,M,M,M,M,M,M,KLWD 011830Z AUTO 10008KT 10SM CLR A3020 RMK MADISHF
LWD,2017-04-01 18:35,-93.9005,40.6306,M,M,M,100.00,8.00,M,30.18,M,10.00,M,CLR,M,M,M,M,M,M,M,M,KLWD 011835Z AUTO 10008KT 10SM CLR A3018 RMK MADISHF
LWD,2017-04-01 18:40,-93.9005,40.6306,M,M,M,100.00,7.00,M,30.19,M,10.00,M,CLR,M,M,M,M,M,M,M,M,KLWD 011840Z AUTO 10007KT 10SM CLR A3019 RMK MADISHF
LWD,2017-04-01 18:45,-93.9005,40.6306,M,M,M,90.00,9.00,M,30.19,M,10.00,M,CLR,M,M,M,M,M,M,M,M,KLWD 011845Z AUTO 09009KT 10SM CLR A3019 RMK MADISHF
LWD,2017-04-01 18:50,-93.9005,40.6306,M,M,M,120.00,9.00,M,30.19,M,10.00,M,CLR,M,M,M,M,M,M,M,M,KLWD 011850Z AUTO 12009KT 10SM CLR A3019 RMK MADISHF
LWD,2017-04-01 18:53,-93.9005,40.6306,51.10,37.90,60.46,110.00,10.00,0.00,30.18,1022.70,10.00,M,CLR,M,M,M,M,M,M,M,M,KLWD 011853Z AUTO 11010KT 10SM CLR 11/03 A3018 RMK AO2 SLP227 T01060033
LWD,2017-04-01 18:55,-93.9005,40.6306,M,M,M,110.00,8.00,M,30.18,M,10.00,M,CLR,M,M,M,M,M,M,M,M,KLWD 011855Z AUTO 11008KT 10SM CLR A3018 RMK MADISHF
LWD,2017-04-01 19:00,-93.9005,40.6306,M,M,M,100.00,8.00,M,30.19,M,10.00,M,CLR,M,M,M,M,M,M,M,M,KLWD 011900Z AUTO 10008KT 10SM CLR A3019 RMK WND 07V14  MADISHF
LWD,2017-04-01 19:05,-93.9005,40.6306,M,M,M,110.00,6.00,M,30.19,M,10.00,M,CLR,M,M,M,M,M,M,M,M,KLWD 011905Z AUTO 11006KT 10SM CLR A3019 RMK MADISHF
LWD,2017-04-01 19:10,-93.9005,40.6306,M,M,M,100.00,7.00,M,30.19,M,10.00,M,CLR,M,M,M,M,M,M,M,M,KLWD 011910Z AUTO 10007KT 10SM CLR A3019 RMK MADISHF
LWD,2017-04-01 19:15,-93.9005,40.6306,M,M,M,110.00,6.00,M,30.19,M,10.00,M,CLR,M,M,M,M,M,M,M,M,KLWD 011915Z AUTO 11006KT 10SM CLR A3019 RMK MADISHF
LWD,2017-04-01 19:20,-93.9005,40.6306,M,M,M,80.00,7.00,M,30.19,M,10.00,M,CLR,M,M,M,M,M,M,M,M,KLWD 011920Z AUTO 08007KT 10SM CLR A3019 RMK MADISHF
LWD,2017-04-01 19:25,-93.9005,40.6306,M,M,M,100.00,7.00,M,30.19,M,10.00,M,CLR,M,M,M,M,M,M,M,M,KLWD 011925Z AUTO 10007KT 10SM CLR A3019 RMK MADISHF
LWD,2017-04-01 19:30,-93.9005,40.6306,M,M,M,130.00,8.00,M,30.18,M,10.00,M,CLR,M,M,M,M,M,M,M,M,KLWD 011930Z AUTO 13008KT 10SM CLR A3018 RMK MADISHF
LWD,2017-04-01 19:35,-93.9005,40.6306,M,M,M,100.00,9.00,M,30.17,M,10.00,M,FEW,M,M,M,12000.00,M,M,M,M,KLWD 011935Z AUTO 10009KT 10SM FEW120 A3017 RMK MADISHF
LWD,2017-04-01 19:40,-93.9005,40.6306,M,M,M,100.00,9.00,M,30.14,M,10.00,M,CLR,M,M,M,M,M,M,M,M,KLWD 011940Z AUTO 10009KT 10SM CLR A3014 RMK MADISHF
LWD,2017-04-01 19:45,-93.9005,40.6306,M,M,M,100.00,6.00,M,30.16,M,10.00,M,CLR,M,M,M,M,M,M,M,M,KLWD 011945Z AUTO 10006KT 10SM CLR A3016 RMK MADISHF
LWD,2017-04-01 19:50,-93.9005,40.6306,M,M,M,110.00,7.00,M,30.16,M,10.00,M,CLR,M,M,M,M,M,M,M,M,KLWD 011950Z AUTO 11007KT 10SM CLR A3016 RMK MADISHF
LWD,2017-04-01 19:53,-93.9005,40.6306,52.00,37.90,58.48,90.00,9.00,0.00,30.15,1021.40,10.00,M,CLR,M,M,M,M,M,M,M,M,KLWD 011953Z AUTO 09009KT 10SM CLR 11/03 A3015 RMK AO2 SLP214 T01110033
LWD,2017-04-01 19:55,-93.9005,40.6306,M,M,M,90.00,9.00,M,30.15,M,10.00,M,CLR,M,M,M,M,M,M,M,M,KLWD 011955Z AUTO 09009KT 10SM CLR A3015 RMK MADISHF
LWD,2017-04-01 20:00,-93.9005,40.6306,M,M,M,100.00,7.00,M,30.15,M,10.00,M,CLR,M,M,M,M,M,M,M,M,KLWD 012000Z AUTO 10007KT 10SM CLR A3015 RMK MADISHF
LWD,2017-04-01 20:05,-93.9005,40.6306,M,M,M,120.00,9.00,M,30.16,M,10.00,M,CLR,M,M,M,M,M,M,M,M,KLWD 012005Z AUTO 12009KT 10SM CLR A3016 RMK MADISHF
LWD,2017-04-01 20:10,-93.9005,40.6306,M,M,M,110.00,9.00,M,30.16,M,10.00,M,CLR,M,M,M,M,M,M,M,M,KLWD 012010Z AUTO 11009KT 10SM CLR A3016 RMK MADISHF
LWD,2017-04-01 20:15,-93.9005,40.6306,M,M,M,100.00,8.00,M,30.16,M,10.00,M,CLR,M,M,M,M,M,M,M,M,KLWD 012015Z AUTO 10008KT 10SM CLR A3016 RMK MADISHF
LWD,2017-04-01 20:20,-93.9005,40.6306,M,M,M,110.00,10.00,M,30.16,M,10.00,M,CLR,M,M,M,M,M,M,M,M,KLWD 012020Z AUTO 11010KT 10SM CLR A3016 RMK MADISHF
LWD,2017-04-01 20:25,-93.9005,40.6306,M,M,M,100.00,9.00,M,30.16,M,10.00,M,CLR,M,M,M,M,M,M,M,M,KLWD 012025Z AUTO 10009KT 10SM CLR A3016 RMK MADISHF
LWD,2017-04-01 20:30,-93.9005,40.6306,M,M,M,110.00,8.00,M,30.16,M,10.00,M,CLR,M,M,M,M,M,M,M,M,KLWD 012030Z AUTO 11008KT 10SM CLR A3016 RMK MADISHF
LWD,2017-04-01 20:35,-93.9005,40.6306,M,M,M,110.00,7.00,M,30.16,M,10.00,M,SCT,M,M,M,7999.00,M,M,M,M,KLWD 012035Z AUTO 11007KT 10SM SCT079 A3016 RMK MADISHF
LWD,2017-04-01 20:40,-93.9005,40.6306,M,M,M,100.00,7.00,M,30.16,M,10.00,M,SCT,M,M,M,7999.00,M,M,M,M,KLWD 012040Z AUTO 10007KT 10SM SCT079 A3016 RMK MADISHF
LWD,2017-04-01 20:45,-93.9005,40.6306,M,M,M,90.00,6.00,M,30.16,M,10.00,M,BKN,M,M,M,8500.00,M,M,M,M,KLWD 012045Z AUTO 09006KT 10SM BKN085 A3016 RMK MADISHF
LWD,2017-04-01 20:50,-93.9005,40.6306,M,M,M,90.00,7.00,M,30.16,M,10.00,M,BKN,M,M,M,8500.00,M,M,M,M,KLWD 012050Z AUTO 09007KT 10SM BKN085 A3016 RMK MADISHF
LWD,2017-04-01 20:53,-93.9005,40.6306,52.00,37.00,56.45,100.00,7.00,0.00,30.17,1022.00,10.00,M,BKN,M,M,M,8500.00,M,M,M,M,KLWD 012053Z AUTO 10007KT 10SM BKN085 11/03 A3017 RMK AO2 SLP220 T01110028 55017
LWD,2017-04-01 20:55,-93.9005,40.6306,M,M,M,90.00,6.00,M,30.17,M,10.00,M,BKN,M,M,M,8500.00,M,M,M,M,KLWD 012055Z AUTO 09006KT 10SM BKN085 A3017 RMK MADISHF
LWD,2017-04-01 21:00,-93.9005,40.6306,M,M,M,110.00,6.00,M,30.16,M,10.00,M,OVC,M,M,M,8500.00,M,M,M,M,KLWD 012100Z AUTO 11006KT 10SM OVC085 A3016 RMK MADISHF
LWD,2017-04-01 21:05,-93.9005,40.6306,M,M,M,100.00,6.00,M,30.16,M,10.00,M,OVC,M,M,M,8500.00,M,M,M,M,KLWD 012105Z AUTO 10006KT 10SM OVC085 A3016 RMK MADISHF
LWD,2017-04-01 21:10,-93.9005,40.6306,M,M,M,90.00,8.00,M,30.15,M,10.00,M,OVC,M,M,M,8500.00,M,M,M,M,KLWD 012110Z AUTO 09008KT 10SM OVC085 A3015 RMK MADISHF
LWD,2017-04-01 21:15,-93.9005,40.6306,M,M,M,80.00,8.00,M,30.15,M,10.00,M,BKN,M,M,M,7999.00,M,M,M,M,KLWD 012115Z AUTO 08008KT 10SM BKN079 A3015 RMK MADISHF
LWD,2017-04-01 21:20,-93.9005,40.6306,M,M,M,100.00,8.00,M,30.15,M,10.00,M,BKN,M,M,M,7999.00,M,M,M,M,KLWD 012120Z AUTO 10008KT 10SM BKN079 A3015 RMK MADISHF
LWD,2017-04-01 21:25,-93.9005,40.6306,M,M,M,90.00,5.00,M,30.15,M,10.00,M,BKN,M,M,M,7999.00,M,M,M,M,KLWD 012125Z AUTO 09005KT 10SM BKN079 A3015 RMK MADISHF
LWD,2017-04-01 21:30,-93.9005,40.6306,M,M,M,80.00,8.00,M,30.15,M,10.00,M,BKN,M,M,M,7999.00,M,M,M,M,KLWD 012130Z AUTO 08008KT 10SM BKN079 A3015 RMK MADISHF
LWD,2017-04-01 21:35,-93.9005,40.6306,M,M,M,70.00,8.00,M,30.15,M,10.00,M,BKN,M,M,M,7999.00,M,M,M,M,KLWD 012135Z AUTO 07008KT 10SM BKN079 A3015 RMK MADISHF
LWD,2017-04-01 21:40,-93.9005,40.6306,M,M,M,90.00,9.00,M,30.15,M,10.00,M,BKN,M,M,M,7999.00,M,M,M,M,KLWD 012140Z AUTO 09009KT 10SM BKN079 A3015 RMK MADISHF
LWD,2017-04-01 21:45,-93.9005,40.6306,M,M,M,110.00,9.00,M,30.15,M,10.00,M,OVC,M,M,M,7999.00,M,M,M,M,KLWD 012145Z AUTO 11009KT 10SM OVC079 A3015 RMK MADISHF
LWD,2017-04-01 21:50,-93.9005,40.6306,M,M,M,110.00,7.00,M,30.15,M,10.00,M,OVC,M,M,M,7999.00,M,M,M,M,KLWD 012150Z AUTO 11007KT 10SM OVC079 A3015 RMK MADISHF
LWD,2017-04-01 21:53,-93.9005,40.6306,53.10,36.00,52.11,M,5.00,0.00,30.15,1021.40,10.00,M,OVC,M,M,M,8000.00,M,M,M,M,KLWD 012153Z AUTO VRB05KT 10SM OVC080 12/02 A3015 RMK AO2 SLP214 T01170022
LWD,2017-04-01 21:55,-93.9005,40.6306,M,M,M,80.00,5.00,M,30.15,M,10.00,M,OVC,M,M,M,7999.00,M,M,M,M,KLWD 012155Z AUTO 08005KT 10SM OVC079 A3015 RMK MADISHF
LWD,2017-04-01 22:00,-93.9005,40.6306,M,M,M,100.00,8.00,M,30.15,M,10.00,M,OVC,M,M,M,7999.00,M,M,M,M,KLWD 012200Z AUTO 10008KT 10SM OVC079 A3015 RMK MADISHF
LWD,2017-04-01 22:05,-93.9005,40.6306,M,M,M,90.00,8.00,M,30.15,M,10.00,M,OVC,M,M,M,7999.00,M,M,M,M,KLWD 012205Z AUTO 09008KT 10SM OVC079 A3015 RMK MADISHF
LWD,2017-04-01 22:10,-93.9005,40.6306,M,M,M,90.00,9.00,M,30.15,M,10.00,M,BKN,M,M,M,7999.00,M,M,M,M,KLWD 012210Z AUTO 09009KT 10SM BKN079 A3015 RMK MADISHF
LWD,2017-04-01 22:15,-93.9005,40.6306,M,M,M,90.00,10.00,M,30.14,M,10.00,M,SCT,M,M,M,7999.00,M,M,M,M,KLWD 012215Z AUTO 09010KT 10SM SCT079 A3014 RMK MADISHF
LWD,2017-04-01 22:20,-93.9005,40.6306,M,M,M,80.00,8.00,M,30.14,M,10.00,M,SCT,M,M,M,7500.00,M,M,M,M,KLWD 012220Z AUTO 08008KT 10SM SCT075 A3014 RMK MADISHF
LWD,2017-04-01 22:25,-93.9005,40.6306,M,M,M,100.00,10.00,M,30.14,M,10.00,M,FEW,M,M,M,7500.00,M,M,M,M,KLWD 012225Z AUTO 10010KT 10SM FEW075 A3014 RMK MADISHF
LWD,2017-04-01 22:30,-93.9005,40.6306,M,M,M,M,M,M,30.14,M,10.00,M,FEW,M,M,M,7500.00,M,M,M,M,KLWD 012230Z AUTO /////KT 10SM FEW075 A3014 RMK MADISHF
LWD,2017-04-01 22:35,-93.9005,40.6306,M,M,M,90.00,11.00,M,30.13,M,10.00,M,CLR,M,M,M,M,M,M,M,M,KLWD 012235Z AUTO 09011KT 10SM CLR A3013 RMK MADISHF
LWD,2017-04-01 22:40,-93.9005,40.6306,M,M,M,90.00,8.00,M,30.13,M,10.00,M,FEW,M,M,M,7999.00,M,M,M,M,KLWD 012240Z AUTO 09008KT 10SM FEW079 A3013 RMK MADISHF
LWD,2017-04-01 22:45,-93.9005,40.6306,M,M,M,90.00,7.00,M,30.14,M,10.00,M,SCT,M,M,M,7999.00,M,M,M,M,KLWD 012245Z AUTO 09007KT 10SM SCT079 A3014 RMK MADISHF
LWD,2017-04-01 22:50,-93.9005,40.6306,M,M,M,100.00,8.00,M,30.14,M,10.00,M,BKN,M,M,M,7500.00,M,M,M,M,KLWD 012250Z AUTO 10008KT 10SM BKN075 A3014 RMK MADISHF
LWD,2017-04-01 22:53,-93.9005,40.6306,53.10,34.00,48.13,90.00,7.00,0.00,30.14,1021.20,10.00,M,BKN,M,M,M,7500.00,M,M,M,M,KLWD 012253Z AUTO 09007KT 10SM BKN075 12/01 A3014 RMK AO2 SLP212 T01170011
LWD,2017-04-01 22:55,-93.9005,40.6306,M,M,M,90.00,7.00,M,30.14,M,10.00,M,BKN,M,M,M,7500.00,M,M,M,M,KLWD 012255Z AUTO 09007KT 10SM BKN075 A3014 RMK MADISHF
LWD,2017-04-01 23:00,-93.9005,40.6306,M,M,M,90.00,8.00,M,30.14,M,10.00,M,BKN,M,M,M,7500.00,M,M,M,M,KLWD 012300Z AUTO 09008KT 10SM BKN075 A3014 RMK MADISHF
LWD,2017-04-01 23:05,-93.9005,40.6306,M,M,M,90.00,7.00,M,30.15,M,10.00,M,OVC,M,M,M,7500.00,M,M,M,M,KLWD 012305Z AUTO 09007KT 10SM OVC075 A3015 RMK MADISHF
LWD,2017-04-01 23:10,-93.9005,40.6306,M,M,M,100.00,6.00,M,30.15,M,10.00,M,OVC,M,M,M,7500.00,M,M,M,M,KLWD 012310Z AUTO 10006KT 10SM OVC075 A3015 RMK MADISHF
LWD,2017-04-01 23:15,-93.9005,40.6306,M,M,M,100.00,6.00,M,30.16,M,10.00,M,OVC,M,M,M,7500.00,M,M,M,M,KLWD 012315Z AUTO 10006KT 10SM OVC075 A3016 RMK MADISHF
LWD,2017-04-01 23:20,-93.9005,40.6306,M,M,M,100.00,5.00,M,30.16,M,10.00,M,OVC,M,M,M,7999.00,M,M,M,M,KLWD 012320Z AUTO 10005KT 10SM OVC079 A3016 RMK MADISHF
LWD,2017-04-01 23:25,-93.9005,40.6306,M,M,M,100.00,6.00,M,30.16,M,10.00,M,OVC,M,M,M,7999.00,M,M,M,M,KLWD 012325Z AUTO 10006KT 10SM OVC079 A3016 RMK MADISHF
LWD,2017-04-01 23:30,-93.9005,40.6306,M,M,M,100.00,5.00,M,30.16,M,10.00,M,OVC,M,M,M,7999.00,M,M,M,M,KLWD 012330Z AUTO 10005KT 10SM OVC079 A3016 RMK MADISHF
LWD,2017-04-01 23:35,-93.9005,40.6306,M,M,M,90.00,7.00,M,30.15,M,10.00,M,OVC,M,M,M,7999.00,M,M,M,M,KLWD 012335Z AUTO 09007KT 10SM OVC079 A3015 RMK MADISHF
LWD,2017-04-01 23:40,-93.9005,40.6306,M,M,M,100.00,7.00,M,30.15,M,10.00,M,OVC,M,M,M,7999.00,M,M,M,M,KLWD 012340Z AUTO 10007KT 10SM OVC079 A3015 RMK MADISHF
LWD,2017-04-01 23:45,-93.9005,40.6306,M,M,M,100.00,7.00,M,30.15,M,10.00,M,OVC,M,M,M,8500.00,M,M,M,M,KLWD 012345Z AUTO 10007KT 10SM OVC085 A3015 RMK MADISHF
LWD,2017-04-01 23:50,-93.9005,40.6306,M,M,M,100.00,7.00,M,30.15,M,10.00,M,BKN,M,M,M,8500.00,M,M,M,M,KLWD 012350Z AUTO 10007KT 10SM BKN085 A3015 RMK MADISHF
LWD,2017-04-01 23:53,-93.9005,40.6306,52.00,37.00,56.45,90.00,5.00,0.00,30.15,1021.40,10.00,M,BKN,M,M,M,8500.00,M,M,M,M,KLWD 012353Z AUTO 09005KT 10SM BKN085 11/03 A3015 RMK AO2 SLP214 T01110028 10117 20094 55006
LWD,2017-04-01 23:55,-93.9005,40.6306,M,M,M,90.00,6.00,M,30.15,M,10.00,M,BKN,M,M,M,8500.00,M,M,M,M,KLWD 012355Z AUTO 09006KT 10SM BKN085 A3015 RMK MADISHF
