#DEBUG: Format Typ    -> comma
#DEBUG: Time Period   -> 2017-04-01 00:00:00+00:00 2017-04-02 00:00:00+00:00
#DEBUG: Time Zone     -> Etc/UTC
#DEBUG: Data Contact   -> daryl herzmann akrherz@iastate.edu 515-294-5978
#DEBUG: Entries Found -> -1
station,valid,lon,lat,tmpf, dwpf, relh, drct, sknt, p01i, alti, mslp, vsby, gust, skyc1, skyc2, skyc3, skyc4, skyl1, skyl2, skyl3, skyl4, presentwx, metar
M08,2017-04-01 00:15,-89.0434,35.2145,64.40,48.20,55.63,320.00,3.00,0.00,29.90,M,10.00,M,CLR,M,M,M,M,M,M,M,M,KM08 010015Z AUTO 32003KT 10SM CLR 18/09 A2990 RMK A01
M08,2017-04-01 00:35,-89.0434,35.2145,62.60,48.20,59.26,340.00,4.00,0.00,29.91,M,10.00,M,CLR,M,M,M,M,M,M,M,M,KM08 010035Z AUTO 34004KT 10SM CLR 17/09 A2991 RMK A01
M08,2017-04-01 00:55,-89.0434,35.2145,62.60,48.20,59.26,350.00,4.00,0.00,29.92,M,10.00,M,CLR,M,M,M,M,M,M,M,M,KM08 010055Z AUTO 35004KT 10SM CLR 17/09 A2992 RMK A01
M08,2017-04-01 01:15,-89.0434,35.2145,60.80,48.20,63.15,350.00,3.00,0.00,29.93,M,10.00,M,CLR,M,M,M,M,M,M,M,M,KM08 010115Z AUTO 35003KT 10SM CLR 16/09 A2993 RMK A01
M08,2017-04-01 01:35,-89.0434,35.2145,59.00,50.00,72.01,340.00,5.00,0.00,29.94,M,10.00,M,CLR,M,M,M,M,M,M,M,M,KM08 010135Z AUTO 34005KT 10SM CLR 15/10 A2994 RMK A01
M08,2017-04-01 01:55,-89.0434,35.2145,59.00,50.00,72.01,340.00,3.00,0.00,29.95,M,10.00,M,CLR,M,M,M,M,M,M,M,M,KM08 010155Z AUTO 34003KT 10SM CLR 15/10 A2995 RMK A01
M08,2017-04-01 02:15,-89.0434,35.2145,59.00,50.00,72.01,350.00,4.00,0.00,29.96,M,10.00,M,CLR,M,M,M,M,M,M,M,M,KM08 010215Z AUTO 35004KT 10SM CLR 15/10 A2996 RMK A01
M08,2017-04-01 02:35,-89.0434,35.2145,57.20,50.00,76.82,0.00,0.00,0.00,29.96,M,10.00,M,CLR,M,M,M,M,M,M,M,M,KM08 010235Z AUTO 00000KT 10SM CLR 14/10 A2996 RMK A01
M08,2017-04-01 02:55,-89.0434,35.2145,57.20,50.00,76.82,M,4.00,0.00,29.97,M,10.00,M,CLR,M,M,M,M,M,M,M,M,KM08 010255Z AUTO VRB04KT 10SM CLR 14/10 A2997 RMK A01
M08,2017-04-01 03:15,-89.0434,35.2145,57.20,48.20,71.83,360.00,3.00,0.00,29.98,M,10.00,M,CLR,M,M,M,M,M,M,M,M,KM08 010315Z AUTO 36003KT 10SM CLR 14/09 A2998 RMK A01
M08,2017-04-01 03:35,-89.0434,35.2145,55.40,48.20,76.66,0.00,0.00,0.00,29.98,M,10.00,M,CLR,M,M,M,M,M,M,M,M,KM08 010335Z AUTO 00000KT 10SM CLR 13/09 A2998 RMK A01
M08,2017-04-01 03:55,-89.0434,35.2145,55.40,48.20,76.66,0.00,0.00,0.00,29.98,M,10.00,M,CLR,M,M,M,M,M,M,M,M,KM08 010355Z AUTO 00000KT 10SM CLR 13/09 A2998 RMK A01
M08,2017-04-01 04:15,-89.0434,35.2145,53.60,48.20,81.87,0.00,0.00,0.00,29.99,M,10.00,M,CLR,M,M,M,M,M,M,M,M,KM08 010415Z AUTO 00000KT 10SM CLR 12/09 A2999 RMK A01
M08,2017-04-01 04:35,-89.0434,35.2145,51.80,48.20,87.47,0.00,0.00,0.00,29.99,M,10.00,M,CLR,M,M,M,M,M,M,M,M,KM08 010435Z AUTO 00000KT 10SM CLR 11/09 A2999 RMK A01
M08,2017-04-01 04:55,-89.0434,35.2145,53.60,48.20,81.87,0.00,0.00,0.00,30.00,M,10.00,M,CLR,M,M,M,M,M,M,M,M,KM08 010455Z AUTO 00000KT 10SM CLR 12/09 A3000 RMK A01
M08,2017-04-01 05:15,-89.0434,35.2145,51.80,48.20,87.47,0.00,0.00,0.00,30.01,M,10.00,M,CLR,M,M,M,M,M,M,M,M,KM08 010515Z AUTO 00000KT 10SM CLR 11/09 A3001 RMK A01
M08,2017-04-01 05:35,-89.0434,35.2145,51.80,48.20,87.47,M,3.00,0.00,30.01,M,10.00,M,CLR,M,M,M,M,M,M,M,M,KM08 010535Z AUTO VRB03KT 10SM CLR 11/09 A3001 RMK A01
M08,2017-04-01 05:50,-89.0434,35.2145,51.80,48.20,87.47,0.00,0.00,0.00,30.01,M,10.00,M,CLR,M,M,M,M,M,M,M,M,KM08 010550Z AUTO 00000KT 10SM CLR 11/09 A3001 RMK A01
M08,2017-04-01 06:15,-89.0434,35.2145,51.80,48.20,87.47,0.00,0.00,0.00,30.02,M,10.00,M,CLR,M,M,M,M,M,M,M,M,KM08 010615Z AUTO 00000KT 10SM CLR 11/09 A3002 RMK A01
M08,2017-04-01 06:35,-89.0434,35.2145,51.80,48.20,87.47,0.00,0.00,0.00,30.02,M,10.00,M,CLR,M,M,M,M,M,M,M,M,KM08 010635Z AUTO 00000KT 10SM CLR 11/09 A3002 RMK A01
M08,2017-04-01 06:55,-89.0434,35.2145,50.00,48.20,93.50,0.00,0.00,0.00,30.02,M,10.00,M,CLR,M,M,M,M,M,M,M,M,KM08 010655Z AUTO 00000KT 10SM CLR 10/09 A3002 RMK A01
M08,2017-04-01 07:15,-89.0434,35.2145,50.00,46.40,87.37,0.00,0.00,0.00,30.03,M,10.00,M,CLR,M,M,M,M,M,M,M,M,KM08 010715Z AUTO 00000KT 10SM CLR 10/08 A3003 RMK A01
M08,2017-04-01 07:35,-89.0434,35.2145,48.20,46.40,93.45,0.00,0.00,0.00,30.04,M,10.00,M,CLR,M,M,M,M,M,M,M,M,KM08 010735Z AUTO 00000KT 10SM CLR 09/08 A3004 RMK A01
M08,2017-04-01 07:55,-89.0434,35.2145,48.20,46.40,93.45,0.00,0.00,0.00,30.04,M,10.00,M,CLR,M,M,M,M,M,M,M,M,KM08 010755Z AUTO 00000KT 10SM CLR 09/08 A3004 RMK A01
M08,2017-04-01 08:15,-89.0434,35.2145,50.00,46.40,87.37,0.00,0.00,0.00,30.04,M,10.00,M,CLR,M,M,M,M,M,M,M,M,KM08 010815Z AUTO 00000KT 10SM CLR 10/08 A3004 RMK A01
M08,2017-04-01 08:35,-89.0434,35.2145,48.20,46.40,93.45,0.00,0.00,0.00,30.05,M,10.00,M,CLR,M,M,M,M,M,M,M,M,KM08 010835Z AUTO 00000KT 10SM CLR 09/08 A3005 RMK A01
M08,2017-04-01 08:55,-89.0434,35.2145,46.40,44.60,93.40,0.00,0.00,0.00,30.05,M,10.00,M,CLR,M,M,M,M,M,M,M,M,KM08 010855Z AUTO 00000KT 10SM CLR 08/07 A3005 RMK A01
M08,2017-04-01 09:15,-89.0434,35.2145,44.60,44.60,100.00,0.00,0.00,0.00,30.06,M,10.00,M,CLR,M,M,M,M,M,M,M,M,KM08 010915Z AUTO 00000KT 10SM CLR 07/07 A3006 RMK A01
M08,2017-04-01 09:35,-89.0434,35.2145,44.60,44.60,100.00,0.00,0.00,0.00,30.07,M,4.00,M,CLR,M,M,M,M,M,M,M,BR,KM08 010935Z AUTO 00000KT 4SM BR CLR 07/07 A3007 RMK A01
M08,2017-04-01 09:55,-89.0434,35.2145,44.60,44.60,100.00,0.00,0.00,0.00,30.07,M,10.00,M,CLR,M,M,M,M,M,M,M,M,KM08 010955Z AUTO 00000KT 10SM CLR 07/07 A3007 RMK A01
M08,2017-04-01 10:15,-89.0434,35.2145,44.60,44.60,100.00,0.00,0.00,0.00,30.08,M,8.00,M,CLR,M,M,M,M,M,M,M,M,KM08 011015Z AUTO 00000KT 8SM CLR 07/07 A3008 RMK A01
M08,2017-04-01 10:35,-89.0434,35.2145,44.60,44.60,100.00,0.00,0.00,0.00,30.09,M,9.00,M,CLR,M,M,M,M,M,M,M,M,KM08 011035Z AUTO 00000KT 9SM CLR 07/07 A3009 RMK A01
M08,2017-04-01 10:55,-89.0434,35.2145,44.60,44.60,100.00,0.00,0.00,0.00,30.09,M,10.00,M,CLR,M,M,M,M,M,M,M,M,KM08 011055Z AUTO 00000KT 10SM CLR 07/07 A3009 RMK A01
M08,2017-04-01 11:15,-89.0434,35.2145,46.40,44.60,93.40,0.00,0.00,0.00,30.10,M,10.00,M,CLR,M,M,M,M,M,M,M,M,KM08 011115Z AUTO 00000KT 10SM CLR 08/07 A3010 RMK A01
M08,2017-04-01 11:35,-89.0434,35.2145,46.40,44.60,93.40,0.00,0.00,0.00,30.11,M,10.00,M,CLR,M,M,M,M,M,M,M,M,KM08 011135Z AUTO 00000KT 10SM CLR 08/07 A3011 RMK A01
M08,2017-04-01 11:55,-89.0434,35.2145,46.40,44.60,93.40,0.00,0.00,0.00,30.12,M,10.00,M,CLR,M,M,M,M,M,M,M,M,KM08 011155Z AUTO 00000KT 10SM CLR 08/07 A3012 RMK A01
M08,2017-04-01 12:15,-89.0434,35.2145,46.40,44.60,93.40,0.00,0.00,0.00,30.13,M,10.00,M,CLR,M,M,M,M,M,M,M,M,KM08 011215Z AUTO 00000KT 10SM CLR 08/07 A3013 RMK A01
M08,2017-04-01 12:35,-89.0434,35.2145,48.20,44.60,87.28,M,3.00,0.00,30.13,M,10.00,M,CLR,M,M,M,M,M,M,M,M,KM08 011235Z AUTO VRB03KT 10SM CLR 09/07 A3013 RMK A01
M08,2017-04-01 12:55,-89.0434,35.2145,50.00,44.60,81.61,30.00,8.00,0.00,30.13,M,10.00,M,CLR,M,M,M,M,M,M,M,M,KM08 011255Z AUTO 03008KT 10SM CLR 10/07 A3013 RMK A01
M08,2017-04-01 13:15,-89.0434,35.2145,50.00,44.60,81.61,M,6.00,0.00,30.14,M,10.00,M,CLR,M,M,M,M,M,M,M,M,KM08 011315Z AUTO VRB06KT 10SM CLR 10/07 A3014 RMK A01
M08,2017-04-01 13:35,-89.0434,35.2145,51.80,44.60,76.34,30.00,9.00,0.00,30.14,M,10.00,M,CLR,M,M,M,M,M,M,M,M,KM08 011335Z AUTO 03009KT 10SM CLR 11/07 A3014 RMK A01
M08,2017-04-01 13:55,-89.0434,35.2145,51.80,46.40,81.74,20.00,7.00,0.00,30.15,M,10.00,M,CLR,M,M,M,M,M,M,M,M,KM08 011355Z AUTO 02007KT 340V040 10SM CLR 11/08 A3015 RMK A01
M08,2017-04-01 14:15,-89.0434,35.2145,53.60,46.40,76.50,30.00,6.00,0.00,30.14,M,10.00,M,CLR,M,M,M,M,M,M,M,M,KM08 011415Z AUTO 03006KT 10SM CLR 12/08 A3014 RMK A01
M08,2017-04-01 14:35,-89.0434,35.2145,53.60,46.40,76.50,30.00,5.00,0.00,30.15,M,10.00,11.00,CLR,M,M,M,M,M,M,M,M,KM08 011435Z AUTO 03005G11KT 10SM CLR 12/08 A3015 RMK A01
M08,2017-04-01 14:55,-89.0434,35.2145,55.40,46.40,71.64,20.00,8.00,0.00,30.15,M,10.00,M,CLR,M,M,M,M,M,M,M,M,KM08 011455Z AUTO 02008KT 10SM CLR 13/08 A3015 RMK A01
M08,2017-04-01 15:15,-89.0434,35.2145,55.40,46.40,71.64,20.00,6.00,0.00,30.15,M,10.00,M,CLR,M,M,M,M,M,M,M,M,KM08 011515Z AUTO 02006KT 10SM CLR 13/08 A3015 RMK A01
M08,2017-04-01 15:35,-89.0434,35.2145,57.20,46.40,67.12,20.00,6.00,0.00,30.16,M,10.00,M,CLR,M,M,M,M,M,M,M,M,KM08 011535Z AUTO 02006KT 10SM CLR 14/08 A3016 RMK A01
M08,2017-04-01 15:55,-89.0434,35.2145,59.00,46.40,62.92,50.00,5.00,0.00,30.16,M,10.00,M,CLR,M,M,M,M,M,M,M,M,KM08 011555Z AUTO 05005KT 10SM CLR 15/08 A3016 RMK A01
M08,2017-04-01 16:15,-89.0434,35.2145,59.00,46.40,62.92,M,4.00,0.00,30.15,M,10.00,10.00,CLR,M,M,M,M,M,M,M,M,KM08 011615Z AUTO VRB04G10KT 10SM CLR 15/08 A3015 RMK A01
M08,2017-04-01 16:35,-89.0434,35.2145,60.80,48.20,63.15,20.00,9.00,0.00,30.15,M,10.00,M,CLR,M,M,M,M,M,M,M,M,KM08 011635Z AUTO 02009KT 10SM CLR 16/09 A3015 RMK A01
M08,2017-04-01 16:55,-89.0434,35.2145,60.80,48.20,63.15,M,5.00,0.00,30.14,M,10.00,M,CLR,M,M,M,M,M,M,M,M,KM08 011655Z AUTO VRB05KT 10SM CLR 16/09 A3014 RMK A01
M08,2017-04-01 17:15,-89.0434,35.2145,60.80,48.20,63.15,30.00,6.00,0.00,30.14,M,10.00,M,CLR,M,M,M,M,M,M,M,M,KM08 011715Z AUTO 03006KT 10SM CLR 16/09 A3014 RMK A01
M08,2017-04-01 17:35,-89.0434,35.2145,62.60,48.20,59.26,M,6.00,0.00,30.14,M,10.00,M,CLR,M,M,M,M,M,M,M,M,KM08 011735Z AUTO VRB06KT 10SM CLR 17/09 A3014 RMK A01
M08,2017-04-01 17:55,-89.0434,35.2145,64.40,48.20,55.63,360.00,7.00,0.00,30.14,M,10.00,M,CLR,M,M,M,M,M,M,M,M,KM08 011755Z AUTO 36007KT 330V030 10SM CLR 18/09 A3014 RMK A01
M08,2017-04-01 18:15,-89.0434,35.2145,64.40,48.20,55.63,M,5.00,0.00,30.14,M,10.00,10.00,CLR,M,M,M,M,M,M,M,M,KM08 011815Z AUTO VRB05G10KT 10SM CLR 18/09 A3014 RMK A01
M08,2017-04-01 18:35,-89.0434,35.2145,64.40,48.20,55.63,M,4.00,0.00,30.14,M,10.00,12.00,CLR,M,M,M,M,M,M,M,M,KM08 011835Z AUTO VRB04G12KT 10SM CLR 18/09 A3014 RMK A01
M08,2017-04-01 18:55,-89.0434,35.2145,64.40,48.20,55.63,20.00,5.00,0.00,30.13,M,10.00,11.00,CLR,M,M,M,M,M,M,M,M,KM08 011855Z AUTO 02005G11KT 10SM CLR 18/09 A3013 RMK A01
M08,2017-04-01 19:15,-89.0434,35.2145,66.20,50.00,55.88,20.00,6.00,0.00,30.12,M,10.00,M,CLR,M,M,M,M,M,M,M,M,KM08 011915Z AUTO 02006KT 10SM CLR 19/10 A3012 RMK A01
M08,2017-04-01 19:35,-89.0434,35.2145,66.20,50.00,55.88,M,5.00,0.00,30.12,M,10.00,10.00,CLR,M,M,M,M,M,M,M,M,KM08 011935Z AUTO VRB05G10KT 10SM CLR 19/10 A3012 RMK A01
M08,2017-04-01 19:55,-89.0434,35.2145,68.00,50.00,52.51,320.00,6.00,0.00,30.11,M,10.00,M,CLR,M,M,M,M,M,M,M,M,KM08 011955Z AUTO 32006KT 10SM CLR 20/10 A3011 RMK A01
M08,2017-04-01 20:15,-89.0434,35.2145,68.00,50.00,52.51,M,5.00,0.00,30.10,M,10.00,M,CLR,M,M,M,M,M,M,M,M,KM08 012015Z AUTO VRB05KT 10SM CLR 20/10 A3010 RMK A01
M08,2017-04-01 20:35,-89.0434,35.2145,68.00,50.00,52.51,M,6.00,0.00,30.10,M,10.00,M,CLR,M,M,M,M,M,M,M,M,KM08 012035Z AUTO VRB06KT 10SM CLR 20/10 A3010 RMK A01
M08,2017-04-01 20:55,-89.0434,35.2145,68.00,50.00,52.51,M,5.00,0.00,30.10,M,10.00,11.00,CLR,M,M,M,M,M,M,M,M,KM08 012055Z AUTO VRB05G11KT 10SM CLR 20/10 A3010 RMK A01
M08,2017-04-01 21:15,-89.0434,35.2145,68.00,50.00,52.51,M,4.00,0.00,30.10,M,10.00,10.00,CLR,M,M,M,M,M,M,M,M,KM08 012115Z AUTO VRB04G10KT 10SM CLR 20/10 A3010 RMK A01
M08,2017-04-01 21:35,-89.0434,35.2145,68.00,50.00,52.51,M,6.00,0.00,30.10,M,10.00,M,CLR,M,M,M,M,M,M,M,M,KM08 012135Z AUTO VRB06KT 10SM CLR 20/10 A3010 RMK A01
M08,2017-04-01 21:55,-89.0434,35.2145,68.00,50.00,52.51,320.00,7.00,0.00,30.10,M,10.00,M,CLR,M,M,M,M,M,M,M,M,KM08 012155Z AUTO 32007KT 10SM CLR 20/10 A3010 RMK A01
M08,2017-04-01 22:15,-89.0434,35.2145,68.00,50.00,52.51,M,6.00,0.00,30.10,M,10.00,M,CLR,M,M,M,M,M,M,M,M,KM08 012215Z AUTO VRB06KT 300V360 10SM CLR 20/10 A3010 RMK A01
M08,2017-04-01 22:35,-89.0434,35.2145,68.00,50.00,52.51,M,3.00,0.00,30.10,M,10.00,M,CLR,M,M,M,M,M,M,M,M,KM08 012235Z AUTO VRB03KT 10SM CLR 20/10 A3010 RMK A01
M08,2017-04-01 22:55,-89.0434,35.2145,68.00,48.20,49.10,320.00,5.00,0.00,30.10,M,10.00,M,CLR,M,M,M,M,M,M,M,M,KM08 012255Z AUTO 32005KT 10SM CLR 20/09 A3010 RMK A01
M08,2017-04-01 23:15,-89.0434,35.2145,68.00,48.20,49.10,M,4.00,0.00,30.09,M,10.00,M,CLR,M,M,M,M,M,M,M,M,KM08 012315Z AUTO VRB04KT 10SM CLR 20/09 A3009 RMK A01
M08,2017-04-01 23:35,-89.0434,35.2145,66.20,48.20,52.25,330.00,4.00,0.00,30.10,M,10.00,M,CLR,M,M,M,M,M,M,M,M,KM08 012335Z AUTO 33004KT 10SM CLR 19/09 A3010 RMK A01
M08,2017-04-01 23:55,-89.0434,35.2145,66.20,48.20,52.25,330.00,3.00,0.00,30.09,M,10.00,M,CLR,M,M,M,M,M,M,M,M,KM08 012355Z AUTO 33003KT 10SM CLR 19/09 A3009 RMK A01
