#DEBUG: Format Typ    -> comma
#DEBUG: Time Period   -> 2017-04-01 00:00:00+00:00 2017-04-02 00:00:00+00:00
#DEBUG: Time Zone     -> Etc/UTC
#DEBUG: Data Contact   -> daryl herzmann akrherz@iastate.edu 515-294-5978
#DEBUG: Entries Found -> -1
station,valid,lon,lat,tmpf, dwpf, relh, drct, sknt, p01i, alti, mslp, vsby, gust, skyc1, skyc2, skyc3, skyc4, skyl1, skyl2, skyl3, skyl4, presentwx, metar
M21,2017-04-01 00:15,-87.1564,37.2262,47.70,43.70,85.93,330.00,7.00,0.00,29.95,M,10.00,M,OVC,M,M,M,1600.00,M,M,M,M,KM21 010015Z AUTO 33007KT 10SM OVC016 09/07 A2995 RMK AO2 T00870065
M21,2017-04-01 00:35,-87.1564,37.2262,47.30,43.30,85.91,310.00,8.00,0.00,29.97,M,10.00,M,OVC,M,M,M,1600.00,M,M,M,M,KM21 010035Z AUTO 31008KT 10SM OVC016 09/06 A2997 RMK AO2 T00850063
M21,2017-04-01 00:55,-87.1564,37.2262,47.30,43.70,87.23,330.00,4.00,0.00,29.98,M,10.00,M,SCT,OVC,M,M,1600.00,2300.00,M,M,M,KM21 010055Z AUTO 33004KT 10SM SCT016 OVC023 09/07 A2998 RMK AO2 T00850065
M21,2017-04-01 01:15,-87.1564,37.2262,46.90,43.30,87.21,320.00,5.00,0.00,29.99,M,10.00,M,OVC,M,M,M,1600.00,M,M,M,M,KM21 010115Z AUTO 32005KT 10SM OVC016 08/06 A2999 RMK AO2 T00830063
M21,2017-04-01 01:35,-87.1564,37.2262,46.90,43.20,86.88,330.00,4.00,0.00,30.00,M,10.00,M,BKN,OVC,M,M,1400.00,2000.00,M,M,M,KM21 010135Z AUTO 33004KT 10SM BKN014 OVC020 08/06 A3000 RMK AO2 T00830062
M21,2017-04-01 01:55,-87.1564,37.2262,46.80,43.00,86.54,320.00,6.00,0.00,30.00,M,10.00,M,OVC,M,M,M,1600.00,M,M,M,M,KM21 010155Z AUTO 32006KT 10SM OVC016 08/06 A3000 RMK AO2 T00820061
M21,2017-04-01 02:15,-87.1564,37.2262,46.40,43.30,88.87,320.00,5.00,0.00,30.02,M,10.00,M,OVC,M,M,M,1600.00,M,M,M,M,KM21 010215Z AUTO 32005KT 10SM OVC016 08/06 A3002 RMK AO2 T00800063
M21,2017-04-01 02:35,-87.1564,37.2262,46.40,43.00,87.86,340.00,3.00,0.00,30.02,M,10.00,M,OVC,M,M,M,1600.00,M,M,M,M,KM21 010235Z AUTO 34003KT 10SM OVC016 08/06 A3002 RMK AO2 T00800061
M21,2017-04-01 02:55,-87.1564,37.2262,46.40,42.40,85.85,320.00,5.00,0.00,30.02,M,10.00,M,BKN,BKN,OVC,M,1600.00,2100.00,3700.00,M,M,KM21 010255Z AUTO 32005KT 10SM BKN016 BKN021 OVC037 08/06 A3002 RMK AO2 T00800058
M21,2017-04-01 03:15,-87.1564,37.2262,46.00,42.30,86.83,340.00,8.00,0.00,30.03,M,10.00,M,SCT,BKN,OVC,M,1400.00,2000.00,3700.00,M,M,KM21 010315Z AUTO 34008KT 10SM SCT014 BKN020 OVC037 08/06 A3003 RMK AO2 T00780057
M21,2017-04-01 03:35,-87.1564,37.2262,45.90,42.10,86.49,330.00,7.00,0.00,30.03,M,10.00,M,SCT,SCT,OVC,M,1600.00,2200.00,3500.00,M,M,KM21 010335Z AUTO 33007KT 10SM SCT016 SCT022 OVC035 08/06 A3003 RMK AO2 T00770056
M21,2017-04-01 03:55,-87.1564,37.2262,45.70,41.90,86.48,340.00,5.00,0.00,30.03,M,10.00,M,SCT,BKN,OVC,M,1500.00,2100.00,3500.00,M,M,KM21 010355Z AUTO 34005KT 10SM SCT015 BKN021 OVC035 08/06 A3003 RMK AO2 T00760055
M21,2017-04-01 04:15,-87.1564,37.2262,45.50,41.90,87.14,350.00,6.00,0.00,30.04,M,10.00,M,BKN,OVC,M,M,1400.00,2100.00,M,M,M,KM21 010415Z AUTO 35006KT 10SM BKN014 OVC021 08/06 A3004 RMK AO2 T00750055
M21,2017-04-01 04:35,-87.1564,37.2262,45.30,41.20,85.46,340.00,6.00,0.00,30.04,M,10.00,M,SCT,BKN,OVC,M,1400.00,2100.00,3400.00,M,M,KM21 010435Z AUTO 34006KT 10SM SCT014 BKN021 OVC034 07/05 A3004 RMK AO2 T00740051
M21,2017-04-01 04:55,-87.1564,37.2262,45.10,41.40,86.78,340.00,5.00,0.00,30.05,M,10.00,M,BKN,BKN,OVC,M,1600.00,2300.00,3200.00,M,M,KM21 010455Z AUTO 34005KT 10SM BKN016 BKN023 OVC032 07/05 A3005 RMK AO2 T00730052
M21,2017-04-01 05:15,-87.1564,37.2262,45.00,41.20,86.44,330.00,7.00,0.00,30.05,M,10.00,M,OVC,M,M,M,1600.00,M,M,M,M,KM21 010515Z AUTO 33007KT 10SM OVC016 07/05 A3005 RMK AO2 T00720051
M21,2017-04-01 05:35,-87.1564,37.2262,45.00,41.20,86.44,340.00,5.00,0.00,30.06,M,10.00,M,BKN,OVC,M,M,1400.00,2100.00,M,M,M,KM21 010535Z AUTO 34005KT 10SM BKN014 OVC021 07/05 A3006 RMK AO2 T00720051
M21,2017-04-01 05:55,-87.1564,37.2262,45.00,41.20,86.44,340.00,6.00,0.00,30.06,M,10.00,M,OVC,M,M,M,1400.00,M,M,M,M,KM21 010555Z AUTO 34006KT 10SM OVC014 07/05 A3006 RMK AO2 T00720051 10090 20072 401140072
M21,2017-04-01 06:15,-87.1564,37.2262,44.60,41.20,87.77,340.00,6.00,0.00,30.06,M,10.00,M,OVC,M,M,M,1400.00,M,M,M,M,KM21 010615Z AUTO 34006KT 10SM OVC014 07/05 A3006 RMK AO2 T00700051
M21,2017-04-01 06:35,-87.1564,37.2262,44.60,41.20,87.77,360.00,5.00,0.00,30.07,M,10.00,M,OVC,M,M,M,1400.00,M,M,M,M,KM21 010635Z AUTO 36005KT 10SM OVC014 07/05 A3007 RMK AO2 T00700051
M21,2017-04-01 06:55,-87.1564,37.2262,44.20,41.20,89.11,340.00,6.00,0.00,30.08,M,10.00,M,SCT,OVC,M,M,1200.00,2100.00,M,M,M,KM21 010655Z AUTO 34006KT 10SM SCT012 OVC021 07/05 A3008 RMK AO2 T00680051
M21,2017-04-01 07:15,-87.1564,37.2262,44.10,41.00,88.77,350.00,5.00,0.00,30.08,M,10.00,M,SCT,OVC,M,M,1200.00,2100.00,M,M,M,KM21 010715Z AUTO 35005KT 10SM SCT012 OVC021 07/05 A3008 RMK AO2 T00670050
M21,2017-04-01 07:35,-87.1564,37.2262,44.10,41.20,89.46,330.00,7.00,0.00,30.08,M,10.00,M,SCT,OVC,M,M,1200.00,2300.00,M,M,M,KM21 010735Z AUTO 33007KT 10SM SCT012 OVC023 07/05 A3008 RMK AO2 T00670051
M21,2017-04-01 07:55,-87.1564,37.2262,43.90,41.00,89.45,340.00,3.00,0.00,30.08,M,10.00,M,OVC,M,M,M,2300.00,M,M,M,M,KM21 010755Z AUTO 34003KT 10SM OVC023 07/05 A3008 RMK AO2 T00660050
M21,2017-04-01 08:15,-87.1564,37.2262,43.90,41.00,89.45,360.00,4.00,0.00,30.08,M,10.00,M,OVC,M,M,M,2100.00,M,M,M,M,KM21 010815Z AUTO 36004KT 10SM OVC021 07/05 A3008 RMK AO2 T00660050
M21,2017-04-01 08:35,-87.1564,37.2262,43.90,40.30,87.05,360.00,4.00,0.00,30.09,M,10.00,M,OVC,M,M,M,1600.00,M,M,M,M,KM21 010835Z AUTO 36004KT 10SM OVC016 07/05 A3009 RMK AO2 T00660046
M21,2017-04-01 08:55,-87.1564,37.2262,43.70,40.30,87.72,340.00,4.00,0.00,30.10,M,10.00,M,OVC,M,M,M,1600.00,M,M,M,M,KM21 010855Z AUTO 34004KT 10SM OVC016 07/05 A3010 RMK AO2 T00650046
M21,2017-04-01 09:15,-87.1564,37.2262,43.70,40.30,87.72,360.00,4.00,0.00,30.11,M,10.00,M,OVC,M,M,M,1600.00,M,M,M,M,KM21 010915Z AUTO 36004KT 10SM OVC016 07/05 A3011 RMK AO2 T00650046
M21,2017-04-01 09:35,-87.1564,37.2262,43.30,40.30,89.07,350.00,3.00,0.00,30.11,M,10.00,M,OVC,M,M,M,1800.00,M,M,M,M,KM21 010935Z AUTO 35003KT 10SM OVC018 06/05 A3011 RMK AO2 T00630046
M21,2017-04-01 09:55,-87.1564,37.2262,43.30,40.10,88.38,10.00,6.00,0.00,30.11,M,10.00,M,OVC,M,M,M,1600.00,M,M,M,M,KM21 010955Z AUTO 01006KT 10SM OVC016 06/05 A3011 RMK AO2 T00630045
M21,2017-04-01 10:15,-87.1564,37.2262,42.80,40.30,90.80,340.00,8.00,0.00,30.12,M,10.00,M,OVC,M,M,M,1100.00,M,M,M,M,KM21 011015Z AUTO 34008KT 10SM OVC011 06/05 A3012 RMK AO2 T00600046
M21,2017-04-01 10:35,-87.1564,37.2262,42.10,40.50,94.00,350.00,4.00,0.00,30.12,M,10.00,M,SCT,OVC,M,M,1000.00,1300.00,M,M,M,KM21 011035Z AUTO 35004KT 10SM SCT010 OVC013 06/05 A3012 RMK AO2 T00560047
M21,2017-04-01 10:55,-87.1564,37.2262,41.90,40.30,94.00,360.00,3.00,0.00,30.13,M,10.00,M,SCT,OVC,M,M,1000.00,1500.00,M,M,M,KM21 011055Z AUTO 36003KT 10SM SCT010 OVC015 06/05 A3013 RMK AO2 T00550046
M21,2017-04-01 11:15,-87.1564,37.2262,41.90,40.30,94.00,340.00,3.00,0.00,30.14,M,10.00,M,OVC,M,M,M,1500.00,M,M,M,M,KM21 011115Z AUTO 34003KT 10SM OVC015 06/05 A3014 RMK AO2 T00550046
M21,2017-04-01 11:35,-87.1564,37.2262,42.30,39.00,87.99,330.00,5.00,0.00,30.15,M,10.00,M,OVC,M,M,M,1500.00,M,M,M,M,KM21 011135Z AUTO 33005KT 10SM OVC015 06/04 A3015 RMK AO2 T00570039
M21,2017-04-01 11:55,-87.1564,37.2262,42.40,37.80,83.63,340.00,3.00,0.00,30.17,M,10.00,M,OVC,M,M,M,1700.00,M,M,M,M,KM21 011155Z AUTO 34003KT 10SM OVC017 06/03 A3017 RMK AO2 T00580032 10071 20055
M21,2017-04-01 12:15,-87.1564,37.2262,42.60,37.20,81.05,350.00,6.00,0.00,30.18,M,10.00,M,OVC,M,M,M,1700.00,M,M,M,M,KM21 011215Z AUTO 35006KT 10SM OVC017 06/03 A3018 RMK AO2 T00590029
M21,2017-04-01 12:35,-87.1564,37.2262,42.80,36.50,78.24,340.00,4.00,0.00,30.19,M,10.00,M,OVC,M,M,M,1900.00,M,M,M,M,KM21 011235Z AUTO 34004KT 10SM OVC019 06/03 A3019 RMK AO2 T00600025
M21,2017-04-01 12:55,-87.1564,37.2262,43.00,36.90,78.88,340.00,4.00,0.00,30.19,M,10.00,M,OVC,M,M,M,1900.00,M,M,M,M,KM21 011255Z AUTO 34004KT 10SM OVC019 06/03 A3019 RMK AO2 T00610027
M21,2017-04-01 13:15,-87.1564,37.2262,43.20,36.90,78.28,340.00,4.00,0.00,30.19,M,10.00,M,OVC,M,M,M,1900.00,M,M,M,M,KM21 011315Z AUTO 34004KT 10SM OVC019 06/03 A3019 RMK AO2 T00620027
M21,2017-04-01 13:35,-87.1564,37.2262,43.50,37.20,78.30,10.00,4.00,0.00,30.19,M,10.00,M,OVC,M,M,M,1900.00,M,M,M,M,KM21 011335Z AUTO 01004KT 10SM OVC019 06/03 A3019 RMK AO2 T00640029
M21,2017-04-01 13:55,-87.1564,37.2262,43.70,37.00,77.10,360.00,6.00,0.00,30.20,M,10.00,M,OVC,M,M,M,1900.00,M,M,M,M,KM21 011355Z AUTO 36006KT 10SM OVC019 07/03 A3020 RMK AO2 T00650028
M21,2017-04-01 14:15,-87.1564,37.2262,44.10,37.40,77.13,360.00,6.00,0.00,30.20,M,10.00,M,OVC,M,M,M,1900.00,M,M,M,M,KM21 011415Z AUTO 36006KT 10SM OVC019 07/03 A3020 RMK AO2 T00670030
M21,2017-04-01 14:35,-87.1564,37.2262,44.40,37.60,76.86,0.00,0.00,0.00,30.21,M,10.00,M,OVC,M,M,M,1900.00,M,M,M,M,KM21 011435Z AUTO 00000KT 10SM OVC019 07/03 A3021 RMK AO2 T00690031
M21,2017-04-01 14:55,-87.1564,37.2262,44.80,36.90,73.64,20.00,3.00,0.00,30.21,M,10.00,M,OVC,M,M,M,2100.00,M,M,M,M,KM21 011455Z AUTO 02003KT 10SM OVC021 07/03 A3021 RMK AO2 T00710027
M21,2017-04-01 15:15,-87.1564,37.2262,45.50,36.90,71.70,340.00,4.00,0.00,30.21,M,10.00,M,OVC,M,M,M,2300.00,M,M,M,M,KM21 011515Z AUTO 34004KT 10SM OVC023 08/03 A3021 RMK AO2 T00750027
M21,2017-04-01 15:35,-87.1564,37.2262,45.50,37.20,72.56,20.00,5.00,0.00,30.22,M,10.00,M,OVC,M,M,M,2300.00,M,M,M,M,KM21 011535Z AUTO 02005KT 10SM OVC023 08/03 A3022 RMK AO2 T00750029
M21,2017-04-01 15:55,-87.1564,37.2262,45.90,37.60,72.60,330.00,5.00,0.00,30.22,M,10.00,M,OVC,M,M,M,2300.00,M,M,M,M,KM21 011555Z AUTO 33005KT 10SM OVC023 08/03 A3022 RMK AO2 T00770031
M21,2017-04-01 16:15,-87.1564,37.2262,46.20,37.60,71.78,0.00,0.00,0.00,30.21,M,10.00,M,OVC,M,M,M,2300.00,M,M,M,M,KM21 011615Z AUTO 00000KT 10SM OVC023 08/03 A3021 RMK AO2 T00790031
M21,2017-04-01 16:35,-87.1564,37.2262,45.90,37.90,73.46,360.00,5.00,0.00,30.21,M,10.00,M,OVC,M,M,M,2300.00,M,M,M,M,KM21 011635Z AUTO 36005KT 10SM OVC023 08/03 A3021 RMK AO2 T00770033
M21,2017-04-01 16:55,-87.1564,37.2262,46.00,38.10,73.76,20.00,3.00,0.00,30.21,M,10.00,M,OVC,M,M,M,2100.00,M,M,M,M,KM21 011655Z AUTO 02003KT 10SM OVC021 08/03 A3021 RMK AO2 T00780034
M21,2017-04-01 17:15,-87.1564,37.2262,46.80,39.70,76.18,350.00,4.00,0.00,30.20,M,10.00,M,OVC,M,M,M,2100.00,M,M,M,M,KM21 011715Z AUTO 35004KT 10SM OVC021 08/04 A3020 RMK AO2 T00820043
M21,2017-04-01 17:35,-87.1564,37.2262,46.60,38.80,74.11,0.00,0.00,0.00,30.20,M,10.00,M,OVC,M,M,M,2100.00,M,M,M,M,KM21 011735Z AUTO 00000KT 10SM OVC021 08/04 A3020 RMK AO2 T00810038
M21,2017-04-01 17:55,-87.1564,37.2262,47.10,38.70,72.44,340.00,4.00,0.00,30.20,M,10.00,M,OVC,M,M,M,2100.00,M,M,M,M,KM21 011755Z AUTO 34004KT 10SM OVC021 08/04 A3020 RMK AO2 T00840037 10085 20058
M21,2017-04-01 18:15,-87.1564,37.2262,47.50,38.80,71.64,330.00,3.00,0.00,30.20,M,10.00,M,OVC,M,M,M,2100.00,M,M,M,M,KM21 011815Z AUTO 33003KT 10SM OVC021 09/04 A3020 RMK AO2 T00860038
M21,2017-04-01 18:35,-87.1564,37.2262,48.00,39.20,71.41,300.00,3.00,0.00,30.20,M,10.00,M,OVC,M,M,M,2100.00,M,M,M,M,KM21 011835Z AUTO 30003KT 10SM OVC021 09/04 A3020 RMK AO2 T00890040
M21,2017-04-01 18:55,-87.1564,37.2262,48.20,38.80,69.78,0.00,0.00,0.00,30.20,M,10.00,M,OVC,M,M,M,2300.00,M,M,M,M,KM21 011855Z AUTO 00000KT 10SM OVC023 09/04 A3020 RMK AO2 T00900038
M21,2017-04-01 19:15,-87.1564,37.2262,48.70,38.70,68.22,320.00,3.00,0.00,30.19,M,10.00,M,OVC,M,M,M,2300.00,M,M,M,M,KM21 011915Z AUTO 32003KT 10SM OVC023 09/04 A3019 RMK AO2 T00930037
M21,2017-04-01 19:35,-87.1564,37.2262,49.30,39.20,68.02,40.00,3.00,0.00,30.19,M,10.00,M,OVC,M,M,M,2500.00,M,M,M,M,KM21 011935Z AUTO 04003KT 10SM OVC025 10/04 A3019 RMK AO2 T00960040
M21,2017-04-01 19:55,-87.1564,37.2262,49.50,39.20,67.51,40.00,3.00,0.00,30.19,M,10.00,M,OVC,M,M,M,2500.00,M,M,M,M,KM21 011955Z AUTO 04003KT 10SM OVC025 10/04 A3019 RMK AO2 T00970040
M21,2017-04-01 20:15,-87.1564,37.2262,49.60,39.40,67.79,320.00,6.00,0.00,30.19,M,10.00,M,OVC,M,M,M,2500.00,M,M,M,M,KM21 012015Z AUTO 32006KT 10SM OVC025 10/04 A3019 RMK AO2 T00980041
M21,2017-04-01 20:35,-87.1564,37.2262,49.60,39.00,66.74,10.00,4.00,0.00,30.19,M,10.00,M,OVC,M,M,M,2700.00,M,M,M,M,KM21 012035Z AUTO 01004KT 10SM OVC027 10/04 A3019 RMK AO2 T00980039
M21,2017-04-01 20:55,-87.1564,37.2262,50.40,40.10,67.62,10.00,5.00,0.00,30.20,M,10.00,M,OVC,M,M,M,2700.00,M,M,M,M,KM21 012055Z AUTO 01005KT 10SM OVC027 10/05 A3020 RMK AO2 T01020045
M21,2017-04-01 21:15,-87.1564,37.2262,50.40,39.90,67.10,330.00,6.00,0.00,30.20,M,10.00,M,OVC,M,M,M,2700.00,M,M,M,M,KM21 012115Z AUTO 33006KT 10SM OVC027 10/04 A3020 RMK AO2 T01020044
M21,2017-04-01 21:35,-87.1564,37.2262,49.80,39.40,67.29,0.00,0.00,0.00,30.19,M,10.00,M,OVC,M,M,M,2700.00,M,M,M,M,KM21 012135Z AUTO 00000KT 10SM OVC027 10/04 A3019 RMK AO2 T00990041
M21,2017-04-01 21:55,-87.1564,37.2262,50.00,39.40,66.79,320.00,3.00,0.00,30.19,M,10.00,M,OVC,M,M,M,2700.00,M,M,M,M,KM21 012155Z AUTO 32003KT 10SM OVC027 10/04 A3019 RMK AO2 T01000041
M21,2017-04-01 22:15,-87.1564,37.2262,50.40,39.60,66.32,40.00,4.00,0.00,30.19,M,10.00,M,OVC,M,M,M,2700.00,M,M,M,M,KM21 012215Z AUTO 04004KT 10SM OVC027 10/04 A3019 RMK AO2 T01020042
M21,2017-04-01 22:35,-87.1564,37.2262,50.90,39.70,65.35,40.00,3.00,0.00,30.19,M,10.00,M,BKN,M,M,M,2700.00,M,M,M,M,KM21 012235Z AUTO 04003KT 10SM BKN027 11/04 A3019 RMK AO2 T01050043
M21,2017-04-01 22:55,-87.1564,37.2262,50.70,39.60,65.58,40.00,4.00,0.00,30.19,M,10.00,M,BKN,M,M,M,2700.00,M,M,M,M,KM21 012255Z AUTO 04004KT 10SM BKN027 10/04 A3019 RMK AO2 T01040042
M21,2017-04-01 23:15,-87.1564,37.2262,50.20,39.20,65.78,20.00,6.00,0.00,30.19,M,10.00,M,SCT,M,M,M,2700.00,M,M,M,M,KM21 012315Z AUTO 02006KT 10SM SCT027 10/04 A3019 RMK AO2 T01010040
M21,2017-04-01 23:35,-87.1564,37.2262,49.50,39.00,66.99,10.00,4.00,0.00,30.19,M,10.00,M,CLR,M,M,M,M,M,M,M,M,KM21 012335Z AUTO 01004KT 10SM CLR 10/04 A3019 RMK AO2 T00970039
M21,2017-04-01 23:55,-87.1564,37.2262,48.60,39.00,69.28,360.00,4.00,0.00,30.19,M,10.00,M,CLR,M,M,M,M,M,M,M,M,KM21 012355Z AUTO 36004KT 10SM CLR 09/04 A3019 RMK AO2 T00920039 10106 20085
