#DEBUG: Format Typ    -> comma
#DEBUG: Time Period   -> 2017-04-01 00:00:00+00:00 2017-04-02 00:00:00+00:00
#DEBUG: Time Zone     -> Etc/UTC
#DEBUG: Data Contact   -> daryl herzmann akrherz@iastate.edu 515-294-5978
#DEBUG: Entries Found -> -1
station,valid,lon,lat,tmpf, dwpf, relh, drct, sknt, p01i, alti, mslp, vsby, gust, skyc1, skyc2, skyc3, skyc4, skyl1, skyl2, skyl3, skyl4, presentwx, metar
MCW,2017-04-01 00:00,-93.3261,43.1544,M,M,M,330.00,6.00,M,30.05,M,10.00,M,OVC,M,M,M,3200.00,M,M,M,M,KMCW 010000Z AUTO 33006KT 10SM OVC032 A3005 RMK MADISHF
MCW,2017-04-01 00:05,-93.3261,43.1544,M,M,M,330.00,5.00,M,30.05,M,10.00,M,OVC,M,M,M,3200.00,M,M,M,M,KMCW 010005Z AUTO 33005KT 10SM OVC032 A3005 RMK MADISHF
MCW,2017-04-01 00:20,-93.3261,43.1544,M,M,M,350.00,3.00,M,30.06,M,10.00,M,OVC,M,M,M,3300.00,M,M,M,M,KMCW 010020Z AUTO 35003KT 10SM OVC033 A3006 RMK MADISHF
MCW,2017-04-01 00:25,-93.3261,43.1544,M,M,M,350.00,5.00,M,30.05,M,10.00,M,BKN,M,M,M,3399.00,M,M,M,M,KMCW 010025Z AUTO 35005KT 10SM BKN033 A3005 RMK MADISHF
MCW,2017-04-01 00:30,-93.3261,43.1544,M,M,M,350.00,7.00,M,30.05,M,10.00,M,BKN,M,M,M,3399.00,M,M,M,M,KMCW 010030Z AUTO 35007KT 10SM BKN033 A3005 RMK MADISHF
MCW,2017-04-01 00:35,-93.3261,43.1544,M,M,M,350.00,6.00,M,30.05,M,10.00,M,SCT,M,M,M,3399.00,M,M,M,M,KMCW 010035Z AUTO 35006KT 10SM SCT033 A3005 RMK MADISHF
MCW,2017-04-01 00:40,-93.3261,43.1544,M,M,M,350.00,5.00,M,30.06,M,10.00,M,SCT,M,M,M,3399.00,M,M,M,M,KMCW 010040Z AUTO 35005KT 10SM SCT033 A3006 RMK MADISHF
MCW,2017-04-01 00:45,-93.3261,43.1544,M,M,M,340.00,5.00,M,30.06,M,10.00,M,FEW,M,M,M,3500.00,M,M,M,M,KMCW 010045Z AUTO 34005KT 10SM FEW035 A3006 RMK MADISHF
MCW,2017-04-01 00:50,-93.3261,43.1544,M,M,M,340.00,5.00,M,30.06,M,10.00,M,FEW,M,M,M,3500.00,M,M,M,M,KMCW 010050Z AUTO 34005KT 10SM FEW035 A3006 RMK MADISHF
MCW,2017-04-01 00:53,-93.3261,43.1544,37.90,34.00,85.69,330.00,4.00,0.00,30.06,1018.50,10.00,M,CLR,M,M,M,M,M,M,M,M,KMCW 010053Z AUTO 33004KT 10SM CLR 03/01 A3006 RMK AO2 SLP185 T00330011
MCW,2017-04-01 01:00,-93.3261,43.1544,M,M,M,330.00,4.00,M,30.06,M,10.00,M,FEW,M,M,M,3500.00,M,M,M,M,KMCW 010100Z AUTO 33004KT 10SM FEW035 A3006 RMK MADISHF
MCW,2017-04-01 01:05,-93.3261,43.1544,M,M,M,320.00,4.00,M,30.06,M,10.00,M,FEW,M,M,M,3500.00,M,M,M,M,KMCW 010105Z AUTO 32004KT 10SM FEW035 A3006 RMK MADISHF
MCW,2017-04-01 01:10,-93.3261,43.1544,M,M,M,330.00,5.00,M,30.06,M,10.00,M,CLR,M,M,M,M,M,M,M,M,KMCW 010110Z AUTO 33005KT 10SM CLR A3006 RMK MADISHF
MCW,2017-04-01 01:15,-93.3261,43.1544,M,M,M,330.00,6.00,M,30.06,M,10.00,M,CLR,M,M,M,M,M,M,M,M,KMCW 010115Z AUTO 33006KT 10SM CLR A3006 RMK MADISHF
MCW,2017-04-01 01:20,-93.3261,43.1544,M,M,M,330.00,6.00,M,30.07,M,10.00,M,CLR,M,M,M,M,M,M,M,M,KMCW 010120Z AUTO 33006KT 10SM CLR A3007 RMK MADISHF
MCW,2017-04-01 01:25,-93.3261,43.1544,M,M,M,330.00,6.00,M,30.07,M,10.00,M,CLR,M,M,M,M,M,M,M,M,KMCW 010125Z AUTO 33006KT 10SM CLR A3007 RMK MADISHF
MCW,2017-04-01 01:30,-93.3261,43.1544,M,M,M,330.00,7.00,M,30.07,M,10.00,M,CLR,M,M,M,M,M,M,M,M,KMCW 010130Z AUTO 33007KT 10SM CLR A3007 RMK MADISHF
MCW,2017-04-01 01:35,-93.3261,43.1544,M,M,M,330.00,7.00,M,30.07,M,10.00,M,CLR,M,M,M,M,M,M,M,M,KMCW 010135Z AUTO 33007KT 10SM CLR A3007 RMK MADISHF
MCW,2017-04-01 01:40,-93.3261,43.1544,M,M,M,330.00,7.00,M,30.08,M,10.00,M,CLR,M,M,M,M,M,M,M,M,KMCW 010140Z AUTO 33007KT 10SM CLR A3008 RMK MADISHF
MCW,2017-04-01 01:45,-93.3261,43.1544,M,M,M,320.00,7.00,M,30.08,M,10.00,M,CLR,M,M,M,M,M,M,M,M,KMCW 010145Z AUTO 32007KT 10SM CLR A3008 RMK MADISHF
MCW,2017-04-01 01:50,-93.3261,43.1544,M,M,M,330.00,7.00,M,30.09,M,10.00,M,CLR,M,M,M,M,M,M,M,M,KMCW 010150Z AUTO 33007KT 10SM CLR A3009 RMK MADISHF
MCW,2017-04-01 01:53,-93.3261,43.1544,36.00,33.10,89.09,330.00,7.00,0.00,30.09,1019.40,10.00,M,CLR,M,M,M,M,M,M,M,M,KMCW 010153Z AUTO 33007KT 10SM CLR 02/01 A3009 RMK AO2 SLP194 T00220006
MCW,2017-04-01 01:55,-93.3261,43.1544,M,M,M,330.00,7.00,M,30.09,M,10.00,M,CLR,M,M,M,M,M,M,M,M,KMCW 010155Z AUTO 33007KT 10SM CLR A3009 RMK MADISHF
MCW,2017-04-01 02:00,-93.3261,43.1544,M,M,M,320.00,6.00,M,30.09,M,10.00,M,CLR,M,M,M,M,M,M,M,M,KMCW 010200Z AUTO 32006KT 10SM CLR A3009 RMK MADISHF
MCW,2017-04-01 02:05,-93.3261,43.1544,M,M,M,320.00,6.00,M,30.10,M,10.00,M,CLR,M,M,M,M,M,M,M,M,KMCW 010205Z AUTO 32006KT 10SM CLR A3010 RMK MADISHF
MCW,2017-04-01 02:10,-93.3261,43.1544,M,M,M,320.00,7.00,M,30.10,M,10.00,M,CLR,M,M,M,M,M,M,M,M,KMCW 010210Z AUTO 32007KT 10SM CLR A3010 RMK MADISHF
MCW,2017-04-01 02:20,-93.3261,43.1544,M,M,M,320.00,6.00,M,30.10,M,10.00,M,CLR,M,M,M,M,M,M,M,M,KMCW 010220Z AUTO 32006KT 10SM CLR A3010 RMK MADISHF
MCW,2017-04-01 02:25,-93.3261,43.1544,M,M,M,310.00,6.00,M,30.10,M,10.00,M,CLR,M,M,M,M,M,M,M,M,KMCW 010225Z AUTO 31006KT 10SM CLR A3010 RMK MADISHF
MCW,2017-04-01 02:30,-93.3261,43.1544,M,M,M,310.00,6.00,M,30.10,M,10.00,M,CLR,M,M,M,M,M,M,M,M,KMCW 010230Z AUTO 31006KT 10SM CLR A3010 RMK MADISHF
MCW,2017-04-01 02:35,-93.3261,43.1544,M,M,M,300.00,5.00,M,30.10,M,10.00,M,CLR,M,M,M,M,M,M,M,M,KMCW 010235Z AUTO 30005KT 10SM CLR A3010 RMK MADISHF
MCW,2017-04-01 02:40,-93.3261,43.1544,M,M,M,290.00,5.00,M,30.11,M,10.00,M,CLR,M,M,M,M,M,M,M,M,KMCW 010240Z AUTO 29005KT 10SM CLR A3011 RMK MADISHF
MCW,2017-04-01 02:45,-93.3261,43.1544,M,M,M,290.00,4.00,M,30.11,M,10.00,M,CLR,M,M,M,M,M,M,M,M,KMCW 010245Z AUTO 29004KT 10SM CLR A3011 RMK MADISHF
MCW,2017-04-01 02:50,-93.3261,43.1544,M,M,M,280.00,4.00,M,30.11,M,10.00,M,CLR,M,M,M,M,M,M,M,M,KMCW 010250Z AUTO 28004KT 10SM CLR A3011 RMK MADISHF
MCW,2017-04-01 02:53,-93.3261,43.1544,37.00,34.00,88.78,260.00,4.00,0.00,30.11,1020.30,10.00,M,CLR,M,M,M,M,M,M,M,M,KMCW 010253Z AUTO 26004KT 10SM CLR 03/01 A3011 RMK AO2 SLP203 T00280011 53022
MCW,2017-04-01 02:55,-93.3261,43.1544,M,M,M,250.00,5.00,M,30.12,M,10.00,M,CLR,M,M,M,M,M,M,M,M,KMCW 010255Z AUTO 25005KT 10SM CLR A3012 RMK MADISHF
MCW,2017-04-01 03:00,-93.3261,43.1544,M,M,M,240.00,6.00,M,30.12,M,10.00,M,CLR,M,M,M,M,M,M,M,M,KMCW 010300Z AUTO 24006KT 10SM CLR A3012 RMK MADISHF
MCW,2017-04-01 03:05,-93.3261,43.1544,M,M,M,230.00,5.00,M,30.12,M,10.00,M,CLR,M,M,M,M,M,M,M,M,KMCW 010305Z AUTO 23005KT 10SM CLR A3012 RMK MADISHF
MCW,2017-04-01 03:10,-93.3261,43.1544,M,M,M,230.00,3.00,M,30.12,M,10.00,M,CLR,M,M,M,M,M,M,M,M,KMCW 010310Z AUTO 23003KT 10SM CLR A3012 RMK MADISHF
MCW,2017-04-01 03:15,-93.3261,43.1544,M,M,M,190.00,3.00,M,M,M,10.00,M,CLR,M,M,M,M,M,M,M,M,KMCW 010315Z AUTO 19003KT 10SM CLR RMK MADISHF
MCW,2017-04-01 03:20,-93.3261,43.1544,M,M,M,190.00,4.00,M,M,M,10.00,M,CLR,M,M,M,M,M,M,M,M,KMCW 010320Z AUTO 19004KT 10SM CLR RMK MADISHF
MCW,2017-04-01 03:35,-93.3261,43.1544,M,M,M,0.00,0.00,M,30.12,M,10.00,M,CLR,M,M,M,M,M,M,M,M,KMCW 010335Z AUTO 00000KT 10SM CLR A3012 RMK MADISHF
MCW,2017-04-01 03:40,-93.3261,43.1544,M,M,M,0.00,0.00,M,30.12,M,10.00,M,CLR,M,M,M,M,M,M,M,M,KMCW 010340Z AUTO 00000KT 10SM CLR A3012 RMK MADISHF
MCW,2017-04-01 03:45,-93.3261,43.1544,M,M,M,0.00,0.00,M,30.11,M,10.00,M,CLR,M,M,M,M,M,M,M,M,KMCW 010345Z AUTO 00000KT 10SM CLR A3011 RMK MADISHF
MCW,2017-04-01 03:50,-93.3261,43.1544,M,M,M,0.00,0.00,M,30.11,M,10.00,M,CLR,M,M,M,M,M,M,M,M,KMCW 010350Z AUTO 00000KT 10SM CLR A3011 RMK MADISHF
MCW,2017-04-01 03:53,-93.3261,43.1544,34.00,30.90,88.27,0.00,0.00,0.00,30.12,1020.40,10.00,M,CLR,M,M,M,M,M,M,M,M,KMCW 010353Z AUTO 00000KT 10SM CLR 01/M01 A3012 RMK AO2 SLP204 T00111006
MCW,2017-04-01 03:55,-93.3261,43.1544,M,M,M,0.00,0.00,M,30.12,M,10.00,M,CLR,M,M,M,M,M,M,M,M,KMCW 010355Z AUTO 00000KT 10SM CLR A3012 RMK MADISHF
MCW,2017-04-01 04:10,-93.3261,43.1544,M,M,M,230.00,5.00,M,30.13,M,10.00,M,CLR,M,M,M,M,M,M,M,M,KMCW 010410Z AUTO 23005KT 10SM CLR A3013 RMK MADISHF
MCW,2017-04-01 04:15,-93.3261,43.1544,M,M,M,240.00,7.00,M,30.13,M,10.00,M,CLR,M,M,M,M,M,M,M,M,KMCW 010415Z AUTO 24007KT 10SM CLR A3013 RMK MADISHF
MCW,2017-04-01 04:20,-93.3261,43.1544,M,M,M,250.00,5.00,M,30.14,M,10.00,M,CLR,M,M,M,M,M,M,M,M,KMCW 010420Z AUTO 25005KT 10SM CLR A3014 RMK MADISHF
MCW,2017-04-01 04:25,-93.3261,43.1544,M,M,M,260.00,5.00,M,30.13,M,10.00,M,CLR,M,M,M,M,M,M,M,M,KMCW 010425Z AUTO 26005KT 10SM CLR A3013 RMK MADISHF
MCW,2017-04-01 04:30,-93.3261,43.1544,M,M,M,250.00,5.00,M,30.13,M,10.00,M,CLR,M,M,M,M,M,M,M,M,KMCW 010430Z AUTO 25005KT 10SM CLR A3013 RMK MADISHF
MCW,2017-04-01 04:35,-93.3261,43.1544,M,M,M,260.00,5.00,M,30.14,M,10.00,M,CLR,M,M,M,M,M,M,M,M,KMCW 010435Z AUTO 26005KT 10SM CLR A3014 RMK MADISHF
MCW,2017-04-01 04:40,-93.3261,43.1544,M,M,M,260.00,7.00,M,30.14,M,10.00,M,CLR,M,M,M,M,M,M,M,M,KMCW 010440Z AUTO 26007KT 10SM CLR A3014 RMK MADISHF
MCW,2017-04-01 04:53,-93.3261,43.1544,34.00,32.00,92.29,260.00,6.00,0.00,30.14,1021.20,10.00,M,CLR,M,M,M,M,M,M,M,M,KMCW 010453Z AUTO 26006KT 10SM CLR 01/00 A3014 RMK AO2 SLP212 T00110000
MCW,2017-04-01 04:55,-93.3261,43.1544,M,M,M,260.00,6.00,M,30.14,M,10.00,M,CLR,M,M,M,M,M,M,M,M,KMCW 010455Z AUTO 26006KT 10SM CLR A3014 RMK MADISHF
MCW,2017-04-01 05:00,-93.3261,43.1544,M,M,M,260.00,6.00,M,30.14,M,10.00,M,CLR,M,M,M,M,M,M,M,M,KMCW 010500Z AUTO 26006KT 10SM CLR A3014 RMK MADISHF
MCW,2017-04-01 05:05,-93.3261,43.1544,M,M,M,250.00,5.00,M,30.14,M,10.00,M,CLR,M,M,M,M,M,M,M,M,KMCW 010505Z AUTO 25005KT 10SM CLR A3014 RMK MADISHF
MCW,2017-04-01 05:10,-93.3261,43.1544,M,M,M,250.00,6.00,M,30.14,M,10.00,M,CLR,M,M,M,M,M,M,M,M,KMCW 010510Z AUTO 25006KT 10SM CLR A3014 RMK MADISHF
MCW,2017-04-01 05:15,-93.3261,43.1544,M,M,M,250.00,5.00,M,30.14,M,10.00,M,CLR,M,M,M,M,M,M,M,M,KMCW 010515Z AUTO 25005KT 10SM CLR A3014 RMK MADISHF
MCW,2017-04-01 05:20,-93.3261,43.1544,M,M,M,250.00,6.00,M,30.15,M,10.00,M,CLR,M,M,M,M,M,M,M,M,KMCW 010520Z AUTO 25006KT 10SM CLR A3015 RMK MADISHF
MCW,2017-04-01 05:35,-93.3261,43.1544,M,M,M,260.00,7.00,M,30.15,M,10.00,M,CLR,M,M,M,M,M,M,M,M,KMCW 010535Z AUTO 26007KT 10SM CLR A3015 RMK MADISHF
MCW,2017-04-01 05:40,-93.3261,43.1544,M,M,M,260.00,7.00,M,30.15,M,10.00,M,CLR,M,M,M,M,M,M,M,M,KMCW 010540Z AUTO 26007KT 10SM CLR A3015 RMK MADISHF
MCW,2017-04-01 05:45,-93.3261,43.1544,M,M,M,270.00,7.00,M,30.15,M,10.00,M,CLR,M,M,M,M,M,M,M,M,KMCW 010545Z AUTO 27007KT 10SM CLR A3015 RMK MADISHF
MCW,2017-04-01 05:50,-93.3261,43.1544,M,M,M,270.00,7.00,M,30.15,M,10.00,M,CLR,M,M,M,M,M,M,M,M,KMCW 010550Z AUTO 27007KT 10SM CLR A3015 RMK MADISHF
MCW,2017-04-01 05:53,-93.3261,43.1544,35.10,33.10,92.32,270.00,8.00,0.00,30.15,1021.50,10.00,M,CLR,M,M,M,M,M,M,M,M,KMCW 010553Z AUTO 27008KT 10SM CLR 02/01 A3015 RMK AO2 SLP215 T00170006 10067 20000 400720000 53012
MCW,2017-04-01 05:55,-93.3261,43.1544,M,M,M,270.00,8.00,M,30.15,M,10.00,M,CLR,M,M,M,M,M,M,M,M,KMCW 010555Z AUTO 27008KT 10SM CLR A3015 RMK MADISHF
MCW,2017-04-01 06:00,-93.3261,43.1544,M,M,M,280.00,7.00,M,30.15,M,10.00,M,CLR,M,M,M,M,M,M,M,M,KMCW 010600Z AUTO 28007KT 10SM CLR A3015 RMK MADISHF
MCW,2017-04-01 06:05,-93.3261,43.1544,M,M,M,280.00,6.00,M,30.15,M,10.00,M,CLR,M,M,M,M,M,M,M,M,KMCW 010605Z AUTO 28006KT 10SM CLR A3015 RMK MADISHF
MCW,2017-04-01 06:10,-93.3261,43.1544,M,M,M,290.00,7.00,M,30.15,M,10.00,M,CLR,M,M,M,M,M,M,M,M,KMCW 010610Z AUTO 29007KT 10SM CLR A3015 RMK MADISHF
MCW,2017-04-01 06:15,-93.3261,43.1544,M,M,M,290.00,6.00,M,30.15,M,10.00,M,CLR,M,M,M,M,M,M,M,M,KMCW 010615Z AUTO 29006KT 10SM CLR A3015 RMK MADISHF
MCW,2017-04-01 06:20,-93.3261,43.1544,M,M,M,280.00,7.00,M,30.15,M,10.00,M,CLR,M,M,M,M,M,M,M,M,KMCW 010620Z AUTO 28007KT 10SM CLR A3015 RMK MADISHF
MCW,2017-04-01 06:25,-93.3261,43.1544,M,M,M,270.00,7.00,M,30.15,M,10.00,M,CLR,M,M,M,M,M,M,M,M,KMCW 010625Z AUTO 27007KT 10SM CLR A3015 RMK MADISHF
MCW,2017-04-01 06:30,-93.3261,43.1544,M,M,M,270.00,7.00,M,30.15,M,10.00,M,CLR,M,M,M,M,M,M,M,M,KMCW 010630Z AUTO 27007KT 10SM CLR A3015 RMK MADISHF
MCW,2017-04-01 06:45,-93.3261,43.1544,M,M,M,270.00,8.00,M,30.16,M,10.00,M,CLR,M,M,M,M,M,M,M,M,KMCW 010645Z AUTO 27008KT 10SM CLR A3016 RMK MADISHF
MCW,2017-04-01 06:50,-93.3261,43.1544,M,M,M,280.00,8.00,M,30.16,M,10.00,M,CLR,M,M,M,M,M,M,M,M,KMCW 010650Z AUTO 28008KT 10SM CLR A3016 RMK MADISHF
MCW,2017-04-01 06:53,-93.3261,43.1544,34.00,32.00,92.29,280.00,8.00,0.00,30.16,1022.00,10.00,M,CLR,M,M,M,M,M,M,M,M,KMCW 010653Z AUTO 28008KT 10SM CLR 01/00 A3016 RMK AO2 SLP220 T00110000
MCW,2017-04-01 06:55,-93.3261,43.1544,M,M,M,280.00,8.00,M,30.16,M,10.00,M,CLR,M,M,M,M,M,M,M,M,KMCW 010655Z AUTO 28008KT 10SM CLR A3016 RMK MADISHF
MCW,2017-04-01 07:00,-93.3261,43.1544,M,M,M,280.00,7.00,M,30.16,M,10.00,M,CLR,M,M,M,M,M,M,M,M,KMCW 010700Z AUTO 28007KT 10SM CLR A3016 RMK MADISHF
MCW,2017-04-01 07:05,-93.3261,43.1544,M,M,M,280.00,8.00,M,30.16,M,10.00,M,CLR,M,M,M,M,M,M,M,M,KMCW 010705Z AUTO 28008KT 10SM CLR A3016 RMK MADISHF
MCW,2017-04-01 07:15,-93.3261,43.1544,M,M,M,280.00,8.00,M,30.17,M,10.00,M,CLR,M,M,M,M,M,M,M,M,KMCW 010715Z AUTO 28008KT 10SM CLR A3017 RMK MADISHF
MCW,2017-04-01 07:20,-93.3261,43.1544,M,M,M,280.00,7.00,M,30.17,M,10.00,M,CLR,M,M,M,M,M,M,M,M,KMCW 010720Z AUTO 28007KT 10SM CLR A3017 RMK MADISHF
MCW,2017-04-01 07:25,-93.3261,43.1544,M,M,M,280.00,6.00,M,30.17,M,10.00,M,CLR,M,M,M,M,M,M,M,M,KMCW 010725Z AUTO 28006KT 10SM CLR A3017 RMK MADISHF
MCW,2017-04-01 07:30,-93.3261,43.1544,M,M,M,290.00,6.00,M,30.17,M,10.00,M,CLR,M,M,M,M,M,M,M,M,KMCW 010730Z AUTO 29006KT 10SM CLR A3017 RMK MADISHF
MCW,2017-04-01 07:35,-93.3261,43.1544,M,M,M,290.00,7.00,M,30.17,M,10.00,M,CLR,M,M,M,M,M,M,M,M,KMCW 010735Z AUTO 29007KT 10SM CLR A3017 RMK MADISHF
MCW,2017-04-01 07:50,-93.3261,43.1544,M,M,M,300.00,6.00,M,30.17,M,10.00,M,CLR,M,M,M,M,M,M,M,M,KMCW 010750Z AUTO 30006KT 10SM CLR A3017 RMK MADISHF
MCW,2017-04-01 07:53,-93.3261,43.1544,33.10,30.90,91.51,300.00,6.00,0.00,30.17,1022.10,10.00,M,CLR,M,M,M,M,M,M,M,M,KMCW 010753Z AUTO 30006KT 10SM CLR 01/M01 A3017 RMK AO2 SLP221 T00061006
MCW,2017-04-01 07:55,-93.3261,43.1544,M,M,M,290.00,6.00,M,30.17,M,10.00,M,CLR,M,M,M,M,M,M,M,M,KMCW 010755Z AUTO 29006KT 10SM CLR A3017 RMK MADISHF
MCW,2017-04-01 08:00,-93.3261,43.1544,M,M,M,280.00,5.00,M,30.17,M,10.00,M,CLR,M,M,M,M,M,M,M,M,KMCW 010800Z AUTO 28005KT 10SM CLR A3017 RMK MADISHF
MCW,2017-04-01 08:05,-93.3261,43.1544,M,M,M,290.00,7.00,M,30.17,M,10.00,M,CLR,M,M,M,M,M,M,M,M,KMCW 010805Z AUTO 29007KT 10SM CLR A3017 RMK MADISHF
MCW,2017-04-01 08:10,-93.3261,43.1544,M,M,M,290.00,7.00,M,30.17,M,10.00,M,CLR,M,M,M,M,M,M,M,M,KMCW 010810Z AUTO 29007KT 10SM CLR A3017 RMK MADISHF
MCW,2017-04-01 08:15,-93.3261,43.1544,M,M,M,290.00,7.00,M,30.18,M,10.00,M,CLR,M,M,M,M,M,M,M,M,KMCW 010815Z AUTO 29007KT 10SM CLR A3018 RMK MADISHF
MCW,2017-04-01 08:30,-93.3261,43.1544,M,M,M,280.00,6.00,M,30.18,M,10.00,M,CLR,M,M,M,M,M,M,M,M,KMCW 010830Z AUTO 28006KT 10SM CLR A3018 RMK MADISHF
MCW,2017-04-01 08:35,-93.3261,43.1544,M,M,M,280.00,6.00,M,30.18,M,10.00,M,CLR,M,M,M,M,M,M,M,M,KMCW 010835Z AUTO 28006KT 10SM CLR A3018 RMK MADISHF
MCW,2017-04-01 08:40,-93.3261,43.1544,M,M,M,280.00,6.00,M,30.18,M,10.00,M,CLR,M,M,M,M,M,M,M,M,KMCW 010840Z AUTO 28006KT 10SM CLR A3018 RMK MADISHF
MCW,2017-04-01 08:45,-93.3261,43.1544,M,M,M,280.00,5.00,M,30.18,M,10.00,M,CLR,M,M,M,M,M,M,M,M,KMCW 010845Z AUTO 28005KT 10SM CLR A3018 RMK MADISHF
MCW,2017-04-01 08:50,-93.3261,43.1544,M,M,M,290.00,6.00,M,30.18,M,10.00,M,CLR,M,M,M,M,M,M,M,M,KMCW 010850Z AUTO 29006KT 10SM CLR A3018 RMK MADISHF
MCW,2017-04-01 08:53,-93.3261,43.1544,32.00,30.90,95.65,300.00,6.00,0.00,30.17,1022.30,10.00,M,CLR,M,M,M,M,M,M,M,M,KMCW 010853Z AUTO 30006KT 10SM CLR 00/M01 A3017 RMK AO2 SLP223 T00001006 51007
MCW,2017-04-01 09:00,-93.3261,43.1544,M,M,M,300.00,5.00,M,30.17,M,10.00,M,CLR,M,M,M,M,M,M,M,M,KMCW 010900Z AUTO 30005KT 10SM CLR A3017 RMK MADISHF
MCW,2017-04-01 09:05,-93.3261,43.1544,M,M,M,300.00,7.00,M,30.17,M,9.00,M,CLR,M,M,M,M,M,M,M,M,KMCW 010905Z AUTO 30007KT 9SM CLR A3017 RMK MADISHF
MCW,2017-04-01 09:10,-93.3261,43.1544,M,M,M,300.00,6.00,M,30.17,M,9.00,M,CLR,M,M,M,M,M,M,M,M,KMCW 010910Z AUTO 30006KT 9SM CLR A3017 RMK MADISHF
MCW,2017-04-01 09:15,-93.3261,43.1544,M,M,M,290.00,6.00,M,30.17,M,9.00,M,CLR,M,M,M,M,M,M,M,M,KMCW 010915Z AUTO 29006KT 9SM CLR A3017 RMK MADISHF
MCW,2017-04-01 09:20,-93.3261,43.1544,M,M,M,280.00,4.00,M,30.17,M,8.00,M,CLR,M,M,M,M,M,M,M,M,KMCW 010920Z AUTO 28004KT 8SM CLR A3017 RMK MADISHF
MCW,2017-04-01 09:25,-93.3261,43.1544,M,M,M,300.00,4.00,M,30.17,M,8.00,M,CLR,M,M,M,M,M,M,M,M,KMCW 010925Z AUTO 30004KT 8SM CLR A3017 RMK MADISHF
MCW,2017-04-01 09:30,-93.3261,43.1544,M,M,M,290.00,5.00,M,30.17,M,8.00,M,CLR,M,M,M,M,M,M,M,M,KMCW 010930Z AUTO 29005KT 8SM CLR A3017 RMK MADISHF
MCW,2017-04-01 09:35,-93.3261,43.1544,M,M,M,290.00,5.00,M,30.17,M,7.00,M,CLR,M,M,M,M,M,M,M,M,KMCW 010935Z AUTO 29005KT 7SM CLR A3017 RMK MADISHF
MCW,2017-04-01 09:40,-93.3261,43.1544,M,M,M,280.00,4.00,M,30.17,M,7.00,M,CLR,M,M,M,M,M,M,M,M,KMCW 010940Z AUTO 28004KT 7SM CLR A3017 RMK MADISHF
MCW,2017-04-01 09:45,-93.3261,43.1544,M,M,M,280.00,5.00,M,30.17,M,7.00,M,CLR,M,M,M,M,M,M,M,M,KMCW 010945Z AUTO 28005KT 7SM CLR A3017 RMK MADISHF
MCW,2017-04-01 09:50,-93.3261,43.1544,M,M,M,280.00,5.00,M,30.18,M,8.00,M,CLR,M,M,M,M,M,M,M,M,KMCW 010950Z AUTO 28005KT 8SM CLR A3018 RMK MADISHF
MCW,2017-04-01 09:53,-93.3261,43.1544,30.90,30.00,96.41,280.00,4.00,0.00,30.18,1022.70,8.00,M,CLR,M,M,M,M,M,M,M,M,KMCW 010953Z AUTO 28004KT 8SM CLR M01/M01 A3018 RMK AO2 SLP227 T10061011
MCW,2017-04-01 09:55,-93.3261,43.1544,M,M,M,280.00,4.00,M,30.18,M,8.00,M,CLR,M,M,M,M,M,M,M,M,KMCW 010955Z AUTO 28004KT 8SM CLR A3018 RMK MADISHF
MCW,2017-04-01 10:05,-93.3261,43.1544,M,M,M,300.00,5.00,M,30.18,M,8.00,M,CLR,M,M,M,M,M,M,M,M,KMCW 011005Z AUTO 30005KT 8SM CLR A3018 RMK MADISHF
MCW,2017-04-01 10:10,-93.3261,43.1544,M,M,M,300.00,5.00,M,30.18,M,7.00,M,CLR,M,M,M,M,M,M,M,M,KMCW 011010Z AUTO 30005KT 7SM CLR A3018 RMK MADISHF
MCW,2017-04-01 10:15,-93.3261,43.1544,M,M,M,290.00,5.00,M,30.18,M,7.00,M,CLR,M,M,M,M,M,M,M,M,KMCW 011015Z AUTO 29005KT 7SM CLR A3018 RMK MADISHF
MCW,2017-04-01 10:20,-93.3261,43.1544,M,M,M,300.00,6.00,M,30.19,M,7.00,M,CLR,M,M,M,M,M,M,M,M,KMCW 011020Z AUTO 30006KT 7SM CLR A3019 RMK MADISHF
MCW,2017-04-01 10:30,-93.3261,43.1544,M,M,M,290.00,7.00,M,30.19,M,8.00,M,CLR,M,M,M,M,M,M,M,M,KMCW 011030Z AUTO 29007KT 8SM CLR A3019 RMK MADISHF
MCW,2017-04-01 10:35,-93.3261,43.1544,M,M,M,300.00,7.00,M,30.19,M,8.00,M,CLR,M,M,M,M,M,M,M,M,KMCW 011035Z AUTO 30007KT 8SM CLR A3019 RMK MADISHF
MCW,2017-04-01 10:40,-93.3261,43.1544,M,M,M,300.00,7.00,M,30.19,M,8.00,M,CLR,M,M,M,M,M,M,M,M,KMCW 011040Z AUTO 30007KT 8SM CLR A3019 RMK MADISHF
MCW,2017-04-01 10:45,-93.3261,43.1544,M,M,M,300.00,7.00,M,30.20,M,8.00,M,CLR,M,M,M,M,M,M,M,M,KMCW 011045Z AUTO 30007KT 8SM CLR A3020 RMK MADISHF
MCW,2017-04-01 10:50,-93.3261,43.1544,M,M,M,300.00,7.00,M,30.20,M,7.00,M,CLR,M,M,M,M,M,M,M,M,KMCW 011050Z AUTO 30007KT 7SM CLR A3020 RMK MADISHF
MCW,2017-04-01 10:53,-93.3261,43.1544,33.10,30.90,91.51,300.00,7.00,0.00,30.20,1023.20,7.00,M,CLR,M,M,M,M,M,M,M,M,KMCW 011053Z AUTO 30007KT 7SM CLR 01/M01 A3020 RMK AO2 SLP232 T00061006
MCW,2017-04-01 10:55,-93.3261,43.1544,M,M,M,290.00,8.00,M,30.20,M,7.00,M,CLR,M,M,M,M,M,M,M,M,KMCW 011055Z AUTO 29008KT 7SM CLR A3020 RMK MADISHF
MCW,2017-04-01 11:05,-93.3261,43.1544,M,M,M,290.00,7.00,M,30.21,M,8.00,M,CLR,M,M,M,M,M,M,M,M,KMCW 011105Z AUTO 29007KT 8SM CLR A3021 RMK MADISHF
MCW,2017-04-01 11:10,-93.3261,43.1544,M,M,M,290.00,7.00,M,30.20,M,8.00,M,CLR,M,M,M,M,M,M,M,M,KMCW 011110Z AUTO 29007KT 8SM CLR A3020 RMK MADISHF
MCW,2017-04-01 11:15,-93.3261,43.1544,M,M,M,300.00,6.00,M,30.20,M,8.00,M,CLR,M,M,M,M,M,M,M,M,KMCW 011115Z AUTO 30006KT 8SM CLR A3020 RMK MADISHF
MCW,2017-04-01 11:20,-93.3261,43.1544,M,M,M,300.00,6.00,M,30.20,M,8.00,M,CLR,M,M,M,M,M,M,M,M,KMCW 011120Z AUTO 30006KT 8SM CLR A3020 RMK MADISHF
MCW,2017-04-01 11:25,-93.3261,43.1544,M,M,M,320.00,6.00,M,30.20,M,7.00,M,CLR,M,M,M,M,M,M,M,M,KMCW 011125Z AUTO 32006KT 7SM CLR A3020 RMK MADISHF
MCW,2017-04-01 11:35,-93.3261,43.1544,M,M,M,310.00,6.00,M,30.21,M,6.00,M,CLR,M,M,M,M,M,M,M,BR,KMCW 011135Z AUTO 31006KT 6SM BR CLR A3021 RMK MADISHF
MCW,2017-04-01 11:40,-93.3261,43.1544,M,M,M,310.00,6.00,M,30.21,M,6.00,M,CLR,M,M,M,M,M,M,M,BR,KMCW 011140Z AUTO 31006KT 6SM BR CLR A3021 RMK MADISHF
MCW,2017-04-01 11:45,-93.3261,43.1544,M,M,M,300.00,6.00,M,30.21,M,6.00,M,CLR,M,M,M,M,M,M,M,BR,KMCW 011145Z AUTO 30006KT 6SM BR CLR A3021 RMK MADISHF
MCW,2017-04-01 11:50,-93.3261,43.1544,M,M,M,300.00,6.00,M,30.22,M,6.00,M,CLR,M,M,M,M,M,M,M,BR,KMCW 011150Z AUTO 30006KT 6SM BR CLR A3022 RMK MADISHF
MCW,2017-04-01 11:53,-93.3261,43.1544,30.90,28.90,92.18,300.00,6.00,0.00,30.22,1023.80,6.00,M,CLR,M,M,M,M,M,M,M,BR,KMCW 011153Z AUTO 30006KT 6SM BR CLR M01/M02 A3022 RMK AO2 SLP238 T10061017 10017 21011 53015
MCW,2017-04-01 11:55,-93.3261,43.1544,M,M,M,300.00,6.00,M,30.22,M,6.00,M,CLR,M,M,M,M,M,M,M,BR,KMCW 011155Z AUTO 30006KT 6SM BR CLR A3022 RMK MADISHF
MCW,2017-04-01 12:05,-93.3261,43.1544,M,M,M,270.00,5.00,M,30.22,M,6.00,M,CLR,M,M,M,M,M,M,M,BR,KMCW 011205Z AUTO 27005KT 6SM BR CLR A3022 RMK MADISHF
MCW,2017-04-01 12:10,-93.3261,43.1544,M,M,M,280.00,5.00,M,30.23,M,6.00,M,CLR,M,M,M,M,M,M,M,BR,KMCW 011210Z AUTO 28005KT 6SM BR CLR A3023 RMK MADISHF
MCW,2017-04-01 12:15,-93.3261,43.1544,M,M,M,270.00,5.00,M,30.23,M,5.00,M,CLR,M,M,M,M,M,M,M,BR,KMCW 011215Z AUTO 27005KT 5SM BR CLR A3023 RMK MADISHF
MCW,2017-04-01 12:20,-93.3261,43.1544,M,M,M,280.00,5.00,M,30.23,M,5.00,M,CLR,M,M,M,M,M,M,M,BR,KMCW 011220Z AUTO 28005KT 5SM BR CLR A3023 RMK MADISHF
MCW,2017-04-01 12:25,-93.3261,43.1544,M,M,M,280.00,5.00,M,30.23,M,5.00,M,CLR,M,M,M,M,M,M,M,BR,KMCW 011225Z AUTO 28005KT 5SM BR CLR A3023 RMK MADISHF
MCW,2017-04-01 12:30,-93.3261,43.1544,M,M,M,270.00,5.00,M,30.23,M,5.00,M,CLR,M,M,M,M,M,M,M,BR,KMCW 011230Z AUTO 27005KT 5SM BR CLR A3023 RMK MADISHF
MCW,2017-04-01 12:35,-93.3261,43.1544,M,M,M,270.00,5.00,M,30.23,M,5.00,M,CLR,M,M,M,M,M,M,M,BR,KMCW 011235Z AUTO 27005KT 5SM BR CLR A3023 RMK MADISHF
MCW,2017-04-01 12:40,-93.3261,43.1544,M,M,M,270.00,5.00,M,30.23,M,5.00,M,CLR,M,M,M,M,M,M,M,BR,KMCW 011240Z AUTO 27005KT 5SM BR CLR A3023 RMK MADISHF
MCW,2017-04-01 12:45,-93.3261,43.1544,M,M,M,280.00,5.00,M,30.23,M,5.00,M,CLR,M,M,M,M,M,M,M,BR,KMCW 011245Z AUTO 28005KT 5SM BR CLR A3023 RMK MADISHF
MCW,2017-04-01 12:50,-93.3261,43.1544,M,M,M,290.00,5.00,M,30.23,M,5.00,M,CLR,M,M,M,M,M,M,M,BR,KMCW 011250Z AUTO 29005KT 5SM BR CLR A3023 RMK MADISHF
MCW,2017-04-01 12:53,-93.3261,43.1544,33.10,32.00,95.67,290.00,5.00,0.00,30.23,1024.30,5.00,M,CLR,M,M,M,M,M,M,M,BR,KMCW 011253Z AUTO 29005KT 5SM BR CLR 01/00 A3023 RMK AO2 SLP243 T00060000
MCW,2017-04-01 12:55,-93.3261,43.1544,M,M,M,290.00,6.00,M,30.23,M,5.00,M,CLR,M,M,M,M,M,M,M,BR,KMCW 011255Z AUTO 29006KT 5SM BR CLR A3023 RMK MADISHF
MCW,2017-04-01 13:15,-93.3261,43.1544,M,M,M,310.00,4.00,M,30.23,M,6.00,M,CLR,M,M,M,M,M,M,M,BR,KMCW 011315Z AUTO 31004KT 6SM BR CLR A3023 RMK MADISHF
MCW,2017-04-01 13:20,-93.3261,43.1544,M,M,M,300.00,6.00,M,30.24,M,6.00,M,CLR,M,M,M,M,M,M,M,BR,KMCW 011320Z AUTO 30006KT 6SM BR CLR A3024 RMK MADISHF
MCW,2017-04-01 13:25,-93.3261,43.1544,M,M,M,300.00,6.00,M,30.24,M,7.00,M,CLR,M,M,M,M,M,M,M,M,KMCW 011325Z AUTO 30006KT 7SM CLR A3024 RMK MADISHF
MCW,2017-04-01 13:30,-93.3261,43.1544,M,M,M,310.00,5.00,M,30.24,M,7.00,M,CLR,M,M,M,M,M,M,M,M,KMCW 011330Z AUTO 31005KT 7SM CLR A3024 RMK MADISHF
MCW,2017-04-01 13:35,-93.3261,43.1544,M,M,M,310.00,5.00,M,30.24,M,7.00,M,CLR,M,M,M,M,M,M,M,M,KMCW 011335Z AUTO 31005KT 7SM CLR A3024 RMK MADISHF
MCW,2017-04-01 13:45,-93.3261,43.1544,M,M,M,310.00,5.00,M,30.24,M,8.00,M,CLR,M,M,M,M,M,M,M,M,KMCW 011345Z AUTO 31005KT 8SM CLR A3024 RMK MADISHF
MCW,2017-04-01 13:50,-93.3261,43.1544,M,M,M,320.00,6.00,M,30.24,M,8.00,M,CLR,M,M,M,M,M,M,M,M,KMCW 011350Z AUTO 32006KT 8SM CLR A3024 RMK MADISHF
MCW,2017-04-01 13:53,-93.3261,43.1544,41.00,37.90,88.62,320.00,6.00,0.00,30.24,1024.40,8.00,M,CLR,M,M,M,M,M,M,M,M,KMCW 011353Z AUTO 32006KT 8SM CLR 05/03 A3024 RMK AO2 SLP244 T00500033
MCW,2017-04-01 13:55,-93.3261,43.1544,M,M,M,320.00,6.00,M,30.24,M,8.00,M,CLR,M,M,M,M,M,M,M,M,KMCW 011355Z AUTO 32006KT 8SM CLR A3024 RMK MADISHF
MCW,2017-04-01 14:00,-93.3261,43.1544,M,M,M,330.00,5.00,M,30.24,M,9.00,M,CLR,M,M,M,M,M,M,M,M,KMCW 011400Z AUTO 33005KT 9SM CLR A3024 RMK MADISHF
MCW,2017-04-01 14:05,-93.3261,43.1544,M,M,M,330.00,5.00,M,30.24,M,9.00,M,CLR,M,M,M,M,M,M,M,M,KMCW 011405Z AUTO 33005KT 9SM CLR A3024 RMK MADISHF
MCW,2017-04-01 14:20,-93.3261,43.1544,M,M,M,330.00,6.00,M,30.25,M,9.00,M,CLR,M,M,M,M,M,M,M,M,KMCW 011420Z AUTO 33006KT 9SM CLR A3025 RMK MADISHF
MCW,2017-04-01 14:25,-93.3261,43.1544,M,M,M,320.00,6.00,M,30.25,M,9.00,M,CLR,M,M,M,M,M,M,M,M,KMCW 011425Z AUTO 32006KT 9SM CLR A3025 RMK MADISHF
MCW,2017-04-01 14:30,-93.3261,43.1544,M,M,M,330.00,5.00,M,30.24,M,9.00,M,FEW,M,M,M,12000.00,M,M,M,M,KMCW 011430Z AUTO 33005KT 9SM FEW120 A3024 RMK MADISHF
MCW,2017-04-01 14:35,-93.3261,43.1544,M,M,M,340.00,5.00,M,30.25,M,9.00,M,FEW,M,M,M,12000.00,M,M,M,M,KMCW 011435Z AUTO 34005KT 9SM FEW120 A3025 RMK MADISHF
MCW,2017-04-01 14:40,-93.3261,43.1544,M,M,M,320.00,5.00,M,30.25,M,9.00,M,FEW,M,M,M,12000.00,M,M,M,M,KMCW 011440Z AUTO 32005KT 9SM FEW120 A3025 RMK MADISHF
MCW,2017-04-01 14:53,-93.3261,43.1544,43.00,37.90,82.04,300.00,4.00,0.00,30.25,1024.90,10.00,M,SCT,M,M,M,12000.00,M,M,M,M,KMCW 011453Z AUTO 30004KT 10SM SCT120 06/03 A3025 RMK AO2 SLP249 T00610033 53010
MCW,2017-04-01 14:55,-93.3261,43.1544,M,M,M,300.00,3.00,M,30.25,M,10.00,M,BKN,M,M,M,12000.00,M,M,M,M,KMCW 011455Z AUTO 30003KT 10SM BKN120 A3025 RMK MADISHF
MCW,2017-04-01 15:00,-93.3261,43.1544,M,M,M,300.00,3.00,M,30.25,M,10.00,M,BKN,M,M,M,12000.00,M,M,M,M,KMCW 011500Z AUTO 30003KT 10SM BKN120 A3025 RMK MADISHF
MCW,2017-04-01 15:05,-93.3261,43.1544,M,M,M,280.00,3.00,M,30.24,M,10.00,M,BKN,M,M,M,12000.00,M,M,M,M,KMCW 011505Z AUTO 28003KT 10SM BKN120 A3024 RMK MADISHF
MCW,2017-04-01 15:10,-93.3261,43.1544,M,M,M,290.00,3.00,M,30.24,M,10.00,M,OVC,M,M,M,12000.00,M,M,M,M,KMCW 011510Z AUTO 29003KT 10SM OVC120 A3024 RMK MADISHF
MCW,2017-04-01 15:15,-93.3261,43.1544,M,M,M,300.00,4.00,M,30.24,M,10.00,M,OVC,M,M,M,12000.00,M,M,M,M,KMCW 011515Z AUTO 30004KT 10SM OVC120 A3024 RMK MADISHF
MCW,2017-04-01 15:20,-93.3261,43.1544,M,M,M,300.00,4.00,M,30.24,M,10.00,M,OVC,M,M,M,12000.00,M,M,M,M,KMCW 011520Z AUTO 30004KT 10SM OVC120 A3024 RMK MADISHF
MCW,2017-04-01 15:35,-93.3261,43.1544,M,M,M,310.00,5.00,M,30.24,M,10.00,M,BKN,M,M,M,12000.00,M,M,M,M,KMCW 011535Z AUTO 31005KT 10SM BKN120 A3024 RMK MADISHF
MCW,2017-04-01 15:40,-93.3261,43.1544,M,M,M,330.00,5.00,M,30.24,M,10.00,M,BKN,M,M,M,12000.00,M,M,M,M,KMCW 011540Z AUTO 33005KT 10SM BKN120 A3024 RMK MADISHF
MCW,2017-04-01 15:45,-93.3261,43.1544,M,M,M,340.00,5.00,M,30.24,M,10.00,M,BKN,M,M,M,12000.00,M,M,M,M,KMCW 011545Z AUTO 34005KT 10SM BKN120 A3024 RMK MADISHF
MCW,2017-04-01 15:50,-93.3261,43.1544,M,M,M,310.00,3.00,M,30.24,M,10.00,M,BKN,M,M,M,12000.00,M,M,M,M,KMCW 011550Z AUTO 31003KT 10SM BKN120 A3024 RMK MADISHF
MCW,2017-04-01 15:53,-93.3261,43.1544,51.10,37.90,60.46,310.00,5.00,0.00,30.24,1024.40,10.00,M,BKN,M,M,M,12000.00,M,M,M,M,KMCW 011553Z AUTO 31005KT 10SM BKN120 11/03 A3024 RMK AO2 SLP244 T01060033
MCW,2017-04-01 16:05,-93.3261,43.1544,M,M,M,290.00,4.00,M,30.24,M,10.00,M,BKN,M,M,M,12000.00,M,M,M,M,KMCW 011605Z AUTO 29004KT 10SM BKN120 A3024 RMK MADISHF
MCW,2017-04-01 16:10,-93.3261,43.1544,M,M,M,290.00,4.00,M,30.24,M,10.00,M,BKN,M,M,M,12000.00,M,M,M,M,KMCW 011610Z AUTO 29004KT 10SM BKN120 A3024 RMK MADISHF
MCW,2017-04-01 16:15,-93.3261,43.1544,M,M,M,310.00,3.00,M,30.24,M,10.00,M,BKN,M,M,M,12000.00,M,M,M,M,KMCW 011615Z AUTO 31003KT 10SM BKN120 A3024 RMK MADISHF
MCW,2017-04-01 16:20,-93.3261,43.1544,M,M,M,310.00,3.00,M,30.25,M,10.00,M,OVC,M,M,M,12000.00,M,M,M,M,KMCW 011620Z AUTO 31003KT 10SM OVC120 A3025 RMK VRB03KT  MADISHF
MCW,2017-04-01 16:40,-93.3261,43.1544,M,M,M,320.00,3.00,M,30.24,M,10.00,M,BKN,M,M,M,11000.00,M,M,M,M,KMCW 011640Z AUTO 32003KT 10SM BKN110 A3024 RMK MADISHF
MCW,2017-04-01 16:45,-93.3261,43.1544,M,M,M,310.00,3.00,M,30.24,M,10.00,M,BKN,M,M,M,11000.00,M,M,M,M,KMCW 011645Z AUTO 31003KT 10SM BKN110 A3024 RMK MADISHF
MCW,2017-04-01 16:50,-93.3261,43.1544,M,M,M,260.00,3.00,M,30.24,M,10.00,M,SCT,M,M,M,11000.00,M,M,M,M,KMCW 011650Z AUTO 26003KT 10SM SCT110 A3024 RMK VRB03KT  MADISHF
MCW,2017-04-01 16:53,-93.3261,43.1544,54.00,30.90,41.11,M,3.00,0.00,30.24,1024.30,10.00,M,SCT,M,M,M,11000.00,M,M,M,M,KMCW 011653Z AUTO VRB03KT 10SM SCT110 12/M01 A3024 RMK AO2 SLP243 T01221006
MCW,2017-04-01 16:55,-93.3261,43.1544,M,M,M,250.00,4.00,M,30.24,M,10.00,M,SCT,M,M,M,11000.00,M,M,M,M,KMCW 011655Z AUTO 25004KT 10SM SCT110 A3024 RMK VRB04KT  MADISHF
MCW,2017-04-01 17:00,-93.3261,43.1544,M,M,M,330.00,3.00,M,30.24,M,10.00,M,FEW,M,M,M,11000.00,M,M,M,M,KMCW 011700Z AUTO 33003KT 10SM FEW110 A3024 RMK VRB03KT  MADISHF
MCW,2017-04-01 17:05,-93.3261,43.1544,M,M,M,320.00,4.00,M,30.24,M,10.00,M,FEW,M,M,M,11000.00,M,M,M,M,KMCW 011705Z AUTO 32004KT 10SM FEW110 A3024 RMK MADISHF
MCW,2017-04-01 17:10,-93.3261,43.1544,M,M,M,0.00,0.00,M,30.24,M,10.00,M,CLR,M,M,M,M,M,M,M,M,KMCW 011710Z AUTO 00000KT 10SM CLR A3024 RMK MADISHF
MCW,2017-04-01 17:25,-93.3261,43.1544,M,M,M,0.00,0.00,M,30.23,M,10.00,M,CLR,M,M,M,M,M,M,M,M,KMCW 011725Z AUTO 00000KT 10SM CLR A3023 RMK MADISHF
MCW,2017-04-01 17:30,-93.3261,43.1544,M,M,M,300.00,3.00,M,30.23,M,10.00,M,CLR,M,M,M,M,M,M,M,M,KMCW 011730Z AUTO 30003KT 10SM CLR A3023 RMK VRB03KT  MADISHF
MCW,2017-04-01 17:35,-93.3261,43.1544,M,M,M,360.00,4.00,M,30.23,M,10.00,M,CLR,M,M,M,M,M,M,M,M,KMCW 011735Z AUTO 36004KT 10SM CLR A3023 RMK VRB04KT  MADISHF
MCW,2017-04-01 17:40,-93.3261,43.1544,M,M,M,50.00,3.00,M,30.23,M,10.00,M,CLR,M,M,M,M,M,M,M,M,KMCW 011740Z AUTO 05003KT 10SM CLR A3023 RMK VRB03KT  MADISHF
MCW,2017-04-01 17:45,-93.3261,43.1544,M,M,M,260.00,4.00,M,30.23,M,10.00,M,CLR,M,M,M,M,M,M,M,M,KMCW 011745Z AUTO 26004KT 10SM CLR A3023 RMK MADISHF
MCW,2017-04-01 17:50,-93.3261,43.1544,M,M,M,270.00,3.00,M,30.22,M,10.00,M,CLR,M,M,M,M,M,M,M,M,KMCW 011750Z AUTO 27003KT 10SM CLR A3022 RMK VRB03KT  MADISHF
MCW,2017-04-01 17:53,-93.3261,43.1544,55.90,27.00,32.71,270.00,4.00,0.00,30.22,1023.60,10.00,M,CLR,M,M,M,M,M,M,M,M,KMCW 011753Z AUTO 27004KT 10SM CLR 13/M03 A3022 RMK AO2 SLP236 T01331028 10139 21011 58009
MCW,2017-04-01 17:55,-93.3261,43.1544,M,M,M,250.00,3.00,M,30.22,M,10.00,M,CLR,M,M,M,M,M,M,M,M,KMCW 011755Z AUTO 25003KT 10SM CLR A3022 RMK MADISHF
MCW,2017-04-01 18:00,-93.3261,43.1544,M,M,M,300.00,3.00,M,30.23,M,10.00,M,CLR,M,M,M,M,M,M,M,M,KMCW 011800Z AUTO 30003KT 10SM CLR A3023 RMK VRB03KT  MADISHF
MCW,2017-04-01 18:05,-93.3261,43.1544,M,M,M,320.00,3.00,M,30.22,M,10.00,M,CLR,M,M,M,M,M,M,M,M,KMCW 011805Z AUTO 32003KT 10SM CLR A3022 RMK VRB03KT  MADISHF
MCW,2017-04-01 18:10,-93.3261,43.1544,M,M,M,0.00,0.00,M,30.22,M,10.00,M,CLR,M,M,M,M,M,M,M,M,KMCW 011810Z AUTO 00000KT 10SM CLR A3022 RMK MADISHF
MCW,2017-04-01 18:15,-93.3261,43.1544,M,M,M,M,M,M,30.22,M,10.00,M,CLR,M,M,M,M,M,M,M,M,KMCW 011815Z AUTO /////KT 10SM CLR A3022 RMK MADISHF
MCW,2017-04-01 18:25,-93.3261,43.1544,M,M,M,320.00,3.00,M,30.21,M,10.00,M,FEW,M,M,M,11000.00,M,M,M,M,KMCW 011825Z AUTO 32003KT 10SM FEW110 A3021 RMK VRB03KT  MADISHF
MCW,2017-04-01 18:30,-93.3261,43.1544,M,M,M,0.00,0.00,M,30.22,M,10.00,M,FEW,M,M,M,11000.00,M,M,M,M,KMCW 011830Z AUTO 00000KT 10SM FEW110 A3022 RMK MADISHF
MCW,2017-04-01 18:35,-93.3261,43.1544,M,M,M,0.00,0.00,M,30.21,M,10.00,M,SCT,M,M,M,11000.00,M,M,M,M,KMCW 011835Z AUTO 00000KT 10SM SCT110 A3021 RMK MADISHF
MCW,2017-04-01 18:40,-93.3261,43.1544,M,M,M,0.00,0.00,M,30.21,M,10.00,M,BKN,M,M,M,11000.00,M,M,M,M,KMCW 011840Z AUTO 00000KT 10SM BKN110 A3021 RMK MADISHF
MCW,2017-04-01 18:45,-93.3261,43.1544,M,M,M,30.00,4.00,M,30.21,M,10.00,M,BKN,M,M,M,11000.00,M,M,M,M,KMCW 011845Z AUTO 03004KT 10SM BKN110 A3021 RMK VRB04KT  MADISHF
MCW,2017-04-01 18:50,-93.3261,43.1544,M,M,M,30.00,4.00,M,30.21,M,10.00,M,BKN,M,M,M,11000.00,M,M,M,M,KMCW 011850Z AUTO 03004KT 10SM BKN110 A3021 RMK VRB04KT  MADISHF
MCW,2017-04-01 18:53,-93.3261,43.1544,59.00,21.90,23.64,M,5.00,0.00,30.21,1023.00,10.00,M,OVC,M,M,M,11000.00,M,M,M,M,KMCW 011853Z AUTO VRB05KT 10SM OVC110 15/M06 A3021 RMK AO2 SLP230 T01501056
MCW,2017-04-01 18:55,-93.3261,43.1544,M,M,M,20.00,5.00,M,30.21,M,10.00,M,OVC,M,M,M,11000.00,M,M,M,M,KMCW 011855Z AUTO 02005KT 10SM OVC110 A3021 RMK MADISHF
MCW,2017-04-01 19:00,-93.3261,43.1544,M,M,M,360.00,3.00,M,30.21,M,10.00,M,OVC,M,M,M,11000.00,M,M,M,M,KMCW 011900Z AUTO 36003KT 10SM OVC110 A3021 RMK VRB03KT  MADISHF
MCW,2017-04-01 19:05,-93.3261,43.1544,M,M,M,0.00,0.00,M,30.20,M,10.00,M,OVC,M,M,M,11000.00,M,M,M,M,KMCW 011905Z AUTO 00000KT 10SM OVC110 A3020 RMK MADISHF
MCW,2017-04-01 19:10,-93.3261,43.1544,M,M,M,10.00,6.00,M,30.20,M,10.00,M,OVC,M,M,M,11000.00,M,M,M,M,KMCW 011910Z AUTO 01006KT 10SM OVC110 A3020 RMK MADISHF
MCW,2017-04-01 19:15,-93.3261,43.1544,M,M,M,50.00,4.00,M,30.20,M,10.00,M,OVC,M,M,M,11000.00,M,M,M,M,KMCW 011915Z AUTO 05004KT 10SM OVC110 A3020 RMK MADISHF
MCW,2017-04-01 19:25,-93.3261,43.1544,M,M,M,20.00,4.00,M,30.20,M,10.00,M,OVC,M,M,M,11000.00,M,M,M,M,KMCW 011925Z AUTO 02004KT 10SM OVC110 A3020 RMK MADISHF
MCW,2017-04-01 19:30,-93.3261,43.1544,M,M,M,0.00,0.00,M,30.19,M,10.00,M,BKN,M,M,M,11000.00,M,M,M,M,KMCW 011930Z AUTO 00000KT 10SM BKN110 A3019 RMK MADISHF
MCW,2017-04-01 19:35,-93.3261,43.1544,M,M,M,80.00,4.00,M,30.19,M,10.00,M,BKN,M,M,M,11000.00,M,M,M,M,KMCW 011935Z AUTO 08004KT 10SM BKN110 A3019 RMK MADISHF
MCW,2017-04-01 19:40,-93.3261,43.1544,M,M,M,70.00,3.00,M,30.19,M,10.00,M,SCT,M,M,M,11000.00,M,M,M,M,KMCW 011940Z AUTO 07003KT 10SM SCT110 A3019 RMK MADISHF
MCW,2017-04-01 19:45,-93.3261,43.1544,M,M,M,60.00,4.00,M,30.19,M,10.00,M,SCT,M,M,M,11000.00,M,M,M,M,KMCW 011945Z AUTO 06004KT 10SM SCT110 A3019 RMK MADISHF
MCW,2017-04-01 19:50,-93.3261,43.1544,M,M,M,70.00,3.00,M,30.19,M,10.00,M,FEW,M,M,M,11000.00,M,M,M,M,KMCW 011950Z AUTO 07003KT 10SM FEW110 A3019 RMK VRB03KT  MADISHF
MCW,2017-04-01 19:53,-93.3261,43.1544,59.00,24.10,25.93,90.00,4.00,0.00,30.19,1022.40,10.00,M,FEW,M,M,M,11000.00,M,M,M,M,KMCW 011953Z AUTO 09004KT 10SM FEW110 15/M04 A3019 RMK AO2 SLP224 T01501044
MCW,2017-04-01 19:55,-93.3261,43.1544,M,M,M,90.00,3.00,M,30.19,M,10.00,M,CLR,M,M,M,M,M,M,M,M,KMCW 011955Z AUTO 09003KT 10SM CLR A3019 RMK VRB03KT  MADISHF
MCW,2017-04-01 20:00,-93.3261,43.1544,M,M,M,0.00,0.00,M,30.18,M,10.00,M,CLR,M,M,M,M,M,M,M,M,KMCW 012000Z AUTO 00000KT 10SM CLR A3018 RMK MADISHF
MCW,2017-04-01 20:05,-93.3261,43.1544,M,M,M,0.00,0.00,M,30.18,M,10.00,M,CLR,M,M,M,M,M,M,M,M,KMCW 012005Z AUTO 00000KT 10SM CLR A3018 RMK MADISHF
MCW,2017-04-01 20:10,-93.3261,43.1544,M,M,M,0.00,0.00,M,30.18,M,10.00,M,CLR,M,M,M,M,M,M,M,M,KMCW 012010Z AUTO 00000KT 10SM CLR A3018 RMK MADISHF
MCW,2017-04-01 20:15,-93.3261,43.1544,M,M,M,10.00,3.00,M,30.18,M,10.00,M,CLR,M,M,M,M,M,M,M,M,KMCW 012015Z AUTO 01003KT 10SM CLR A3018 RMK MADISHF
MCW,2017-04-01 20:20,-93.3261,43.1544,M,M,M,350.00,3.00,M,30.18,M,10.00,M,CLR,M,M,M,M,M,M,M,M,KMCW 012020Z AUTO 35003KT 10SM CLR A3018 RMK VRB03KT  MADISHF
MCW,2017-04-01 20:35,-93.3261,43.1544,M,M,M,0.00,0.00,M,30.18,M,10.00,M,CLR,M,M,M,M,M,M,M,M,KMCW 012035Z AUTO 00000KT 10SM CLR A3018 RMK MADISHF
MCW,2017-04-01 20:40,-93.3261,43.1544,M,M,M,320.00,3.00,M,30.18,M,10.00,M,CLR,M,M,M,M,M,M,M,M,KMCW 012040Z AUTO 32003KT 10SM CLR A3018 RMK MADISHF
MCW,2017-04-01 20:45,-93.3261,43.1544,M,M,M,330.00,3.00,M,30.18,M,10.00,M,CLR,M,M,M,M,M,M,M,M,KMCW 012045Z AUTO 33003KT 10SM CLR A3018 RMK MADISHF
MCW,2017-04-01 20:50,-93.3261,43.1544,M,M,M,330.00,3.00,M,30.18,M,10.00,M,CLR,M,M,M,M,M,M,M,M,KMCW 012050Z AUTO 33003KT 10SM CLR A3018 RMK MADISHF
MCW,2017-04-01 20:53,-93.3261,43.1544,60.10,23.00,23.81,360.00,3.00,0.00,30.18,1022.00,10.00,M,CLR,M,M,M,M,M,M,M,M,KMCW 012053Z AUTO 36003KT 10SM CLR 16/M05 A3018 RMK AO2 SLP220 T01561050 56016
MCW,2017-04-01 20:55,-93.3261,43.1544,M,M,M,0.00,0.00,M,30.17,M,10.00,M,CLR,M,M,M,M,M,M,M,M,KMCW 012055Z AUTO 00000KT 10SM CLR A3017 RMK MADISHF
MCW,2017-04-01 21:00,-93.3261,43.1544,M,M,M,300.00,4.00,M,30.17,M,10.00,M,CLR,M,M,M,M,M,M,M,M,KMCW 012100Z AUTO 30004KT 10SM CLR A3017 RMK MADISHF
MCW,2017-04-01 21:10,-93.3261,43.1544,M,M,M,200.00,3.00,M,30.17,M,10.00,M,CLR,M,M,M,M,M,M,M,M,KMCW 012110Z AUTO 20003KT 10SM CLR A3017 RMK MADISHF
MCW,2017-04-01 21:15,-93.3261,43.1544,M,M,M,200.00,3.00,M,30.17,M,10.00,M,CLR,M,M,M,M,M,M,M,M,KMCW 012115Z AUTO 20003KT 10SM CLR A3017 RMK MADISHF
MCW,2017-04-01 21:20,-93.3261,43.1544,M,M,M,0.00,0.00,M,30.17,M,10.00,M,CLR,M,M,M,M,M,M,M,M,KMCW 012120Z AUTO 00000KT 10SM CLR A3017 RMK MADISHF
MCW,2017-04-01 21:25,-93.3261,43.1544,M,M,M,0.00,0.00,M,30.17,M,10.00,M,CLR,M,M,M,M,M,M,M,M,KMCW 012125Z AUTO 00000KT 10SM CLR A3017 RMK MADISHF
MCW,2017-04-01 21:30,-93.3261,43.1544,M,M,M,0.00,0.00,M,30.17,M,10.00,M,CLR,M,M,M,M,M,M,M,M,KMCW 012130Z AUTO 00000KT 10SM CLR A3017 RMK MADISHF
MCW,2017-04-01 21:45,-93.3261,43.1544,M,M,M,130.00,3.00,M,30.16,M,10.00,M,CLR,M,M,M,M,M,M,M,M,KMCW 012145Z AUTO 13003KT 10SM CLR A3016 RMK MADISHF
MCW,2017-04-01 21:50,-93.3261,43.1544,M,M,M,0.00,0.00,M,30.16,M,10.00,M,CLR,M,M,M,M,M,M,M,M,KMCW 012150Z AUTO 00000KT 10SM CLR A3016 RMK MADISHF
MCW,2017-04-01 21:53,-93.3261,43.1544,59.00,23.00,24.76,M,3.00,0.00,30.16,1021.50,10.00,M,CLR,M,M,M,M,M,M,M,M,KMCW 012153Z AUTO VRB03KT 10SM CLR 15/M05 A3016 RMK AO2 SLP215 T01501050
MCW,2017-04-01 21:55,-93.3261,43.1544,M,M,M,150.00,3.00,M,30.16,M,10.00,M,CLR,M,M,M,M,M,M,M,M,KMCW 012155Z AUTO 15003KT 10SM CLR A3016 RMK MADISHF
MCW,2017-04-01 22:00,-93.3261,43.1544,M,M,M,0.00,0.00,M,30.16,M,10.00,M,CLR,M,M,M,M,M,M,M,M,KMCW 012200Z AUTO 00000KT 10SM CLR A3016 RMK MADISHF
MCW,2017-04-01 22:15,-93.3261,43.1544,M,M,M,0.00,0.00,M,30.17,M,10.00,M,CLR,M,M,M,M,M,M,M,M,KMCW 012215Z AUTO 00000KT 10SM CLR A3017 RMK MADISHF
MCW,2017-04-01 22:20,-93.3261,43.1544,M,M,M,0.00,0.00,M,30.17,M,10.00,M,CLR,M,M,M,M,M,M,M,M,KMCW 012220Z AUTO 00000KT 10SM CLR A3017 RMK MADISHF
MCW,2017-04-01 22:25,-93.3261,43.1544,M,M,M,250.00,3.00,M,30.17,M,10.00,M,CLR,M,M,M,M,M,M,M,M,KMCW 012225Z AUTO 25003KT 10SM CLR A3017 RMK MADISHF
MCW,2017-04-01 22:30,-93.3261,43.1544,M,M,M,0.00,0.00,M,30.17,M,10.00,M,CLR,M,M,M,M,M,M,M,M,KMCW 012230Z AUTO 00000KT 10SM CLR A3017 RMK MADISHF
MCW,2017-04-01 22:45,-93.3261,43.1544,M,M,M,180.00,5.00,M,30.16,M,10.00,M,CLR,M,M,M,M,M,M,M,M,KMCW 012245Z AUTO 18005KT 10SM CLR A3016 RMK MADISHF
MCW,2017-04-01 22:50,-93.3261,43.1544,M,M,M,170.00,4.00,M,30.17,M,10.00,M,CLR,M,M,M,M,M,M,M,M,KMCW 012250Z AUTO 17004KT 10SM CLR A3017 RMK MADISHF
MCW,2017-04-01 22:53,-93.3261,43.1544,59.00,26.10,28.18,0.00,0.00,0.00,30.16,1021.60,10.00,M,CLR,M,M,M,M,M,M,M,M,KMCW 012253Z AUTO 00000KT 10SM CLR 15/M03 A3016 RMK AO2 SLP216 T01501033
MCW,2017-04-01 22:55,-93.3261,43.1544,M,M,M,0.00,0.00,M,30.16,M,10.00,M,CLR,M,M,M,M,M,M,M,M,KMCW 012255Z AUTO 00000KT 10SM CLR A3016 RMK MADISHF
MCW,2017-04-01 23:00,-93.3261,43.1544,M,M,M,0.00,0.00,M,30.16,M,10.00,M,CLR,M,M,M,M,M,M,M,M,KMCW 012300Z AUTO 00000KT 10SM CLR A3016 RMK MADISHF
MCW,2017-04-01 23:10,-93.3261,43.1544,M,M,M,140.00,3.00,M,30.15,M,10.00,M,CLR,M,M,M,M,M,M,M,M,KMCW 012310Z AUTO 14003KT 10SM CLR A3015 RMK MADISHF
MCW,2017-04-01 23:15,-93.3261,43.1544,M,M,M,150.00,4.00,M,30.16,M,10.00,M,CLR,M,M,M,M,M,M,M,M,KMCW 012315Z AUTO 15004KT 10SM CLR A3016 RMK MADISHF
MCW,2017-04-01 23:20,-93.3261,43.1544,M,M,M,140.00,3.00,M,30.15,M,10.00,M,CLR,M,M,M,M,M,M,M,M,KMCW 012320Z AUTO 14003KT 10SM CLR A3015 RMK MADISHF
MCW,2017-04-01 23:25,-93.3261,43.1544,M,M,M,140.00,5.00,M,30.15,M,10.00,M,CLR,M,M,M,M,M,M,M,M,KMCW 012325Z AUTO 14005KT 10SM CLR A3015 RMK MADISHF
MCW,2017-04-01 23:30,-93.3261,43.1544,M,M,M,140.00,4.00,M,30.15,M,10.00,M,CLR,M,M,M,M,M,M,M,M,KMCW 012330Z AUTO 14004KT 10SM CLR A3015 RMK MADISHF
MCW,2017-04-01 23:35,-93.3261,43.1544,M,M,M,0.00,0.00,M,30.16,M,10.00,M,CLR,M,M,M,M,M,M,M,M,KMCW 012335Z AUTO 00000KT 10SM CLR A3016 RMK MADISHF
MCW,2017-04-01 23:45,-93.3261,43.1544,M,M,M,150.00,5.00,M,30.16,M,10.00,M,CLR,M,M,M,M,M,M,M,M,KMCW 012345Z AUTO 15005KT 10SM CLR A3016 RMK MADISHF
MCW,2017-04-01 23:50,-93.3261,43.1544,M,M,M,160.00,5.00,M,30.16,M,10.00,M,CLR,M,M,M,M,M,M,M,M,KMCW 012350Z AUTO 16005KT 10SM CLR A3016 RMK MADISHF
MCW,2017-04-01 23:53,-93.3261,43.1544,54.00,32.00,42.98,150.00,5.00,0.00,30.15,1021.40,10.00,M,CLR,M,M,M,M,M,M,M,M,KMCW 012353Z AUTO 15005KT 10SM CLR 12/00 A3015 RMK AO2 SLP214 T01220000 10161 20122 56007
MCW,2017-04-01 23:55,-93.3261,43.1544,M,M,M,150.00,5.00,M,M,M,10.00,M,CLR,M,M,M,M,M,M,M,M,KMCW 012355Z AUTO 15005KT 10SM CLR RMK MADISHF
