#DEBUG: Format Typ    -> comma
#DEBUG: Time Period   -> 2017-04-01 00:00:00+00:00 2017-04-02 00:00:00+00:00
#DEBUG: Time Zone     -> Etc/UTC
#DEBUG: Data Contact   -> daryl herzmann akrherz@iastate.edu 515-294-5978
#DEBUG: Entries Found -> -1
station,valid,lon,lat,tmpf, dwpf, relh, drct, sknt, p01i, alti, mslp, vsby, gust, skyc1, skyc2, skyc3, skyc4, skyl1, skyl2, skyl3, skyl4, presentwx, metar
MGW,2017-04-01 00:00,-79.9163,39.6429,M,M,M,230.00,4.00,M,29.69,M,10.00,M,BKN,OVC,M,M,999.00,1600.00,M,M,M,KMGW 010000Z AUTO 23004KT 10SM BKN009 OVC016 A2969 RMK CIG 6V13  MADISHF
MGW,2017-04-01 00:05,-79.9163,39.6429,M,M,M,220.00,5.00,M,29.69,M,10.00,M,SCT,OVC,M,M,700.00,1300.00,M,M,M,KMGW 010005Z AUTO 22005KT 10SM SCT007 OVC013 A2969 RMK MADISHF
MGW,2017-04-01 00:10,-79.9163,39.6429,M,M,M,220.00,6.00,M,29.69,M,10.00,M,SCT,OVC,M,M,700.00,1500.00,M,M,M,KMGW 010010Z AUTO 22006KT 10SM SCT007 OVC015 A2969 RMK MADISHF
MGW,2017-04-01 00:15,-79.9163,39.6429,M,M,M,220.00,5.00,M,29.69,M,10.00,M,SCT,OVC,M,M,800.00,1300.00,M,M,M,KMGW 010015Z AUTO 22005KT 10SM SCT008 OVC013 A2969 RMK MADISHF
MGW,2017-04-01 00:20,-79.9163,39.6429,M,M,M,220.00,4.00,M,29.69,M,10.00,M,SCT,OVC,M,M,800.00,1300.00,M,M,M,KMGW 010020Z AUTO 22004KT 10SM SCT008 OVC013 A2969 RMK MADISHF
MGW,2017-04-01 00:25,-79.9163,39.6429,M,M,M,220.00,4.00,M,29.70,M,10.00,M,FEW,BKN,OVC,M,800.00,1300.00,3300.00,M,M,KMGW 010025Z AUTO 22004KT 10SM FEW008 BKN013 OVC033 A2970 RMK MADISHF
MGW,2017-04-01 00:30,-79.9163,39.6429,M,M,M,210.00,4.00,M,29.70,M,10.00,M,FEW,BKN,OVC,M,800.00,1300.00,5500.00,M,M,KMGW 010030Z AUTO 21004KT 10SM FEW008 BKN013 OVC055 A2970 RMK MADISHF
MGW,2017-04-01 00:35,-79.9163,39.6429,M,M,M,220.00,4.00,M,29.70,M,10.00,M,BKN,BKN,OVC,M,1300.00,3000.00,5500.00,M,M,KMGW 010035Z AUTO 22004KT 10SM BKN013 BKN030 OVC055 A2970 RMK MADISHF
MGW,2017-04-01 00:40,-79.9163,39.6429,M,M,M,220.00,6.00,M,29.70,M,10.00,M,BKN,BKN,OVC,M,1300.00,3000.00,5500.00,M,M,KMGW 010040Z AUTO 22006KT 10SM BKN013 BKN030 OVC055 A2970 RMK MADISHF
MGW,2017-04-01 00:45,-79.9163,39.6429,M,M,M,210.00,3.00,M,29.70,M,10.00,M,FEW,BKN,OVC,M,800.00,1300.00,3000.00,M,-RA,KMGW 010045Z AUTO 21003KT 10SM -RA FEW008 BKN013 OVC030 A2970 RMK MADISHF
MGW,2017-04-01 00:50,-79.9163,39.6429,M,M,M,220.00,6.00,M,29.71,M,9.00,M,FEW,BKN,OVC,M,600.00,1300.00,3000.00,M,-RA,KMGW 010050Z AUTO 22006KT 9SM -RA FEW006 BKN013 OVC030 A2971 RMK MADISHF
MGW,2017-04-01 00:53,-79.9163,39.6429,53.10,50.00,89.18,220.00,4.00,0.00,29.71,1005.80,8.00,M,SCT,BKN,OVC,M,600.00,1300.00,3000.00,M,-RA,KMGW 010053Z 22004KT 8SM -RA SCT006 BKN013 OVC030 12/10 A2971 RMK AO2 RAB43 SLP058 P0000 T01170100
MGW,2017-04-01 00:55,-79.9163,39.6429,M,M,M,210.00,4.00,0.01,29.71,M,7.00,M,SCT,BKN,OVC,M,600.00,1300.00,3000.00,M,-RA,KMGW 010055Z AUTO 21004KT 7SM -RA SCT006 BKN013 OVC030 A2971 RMK P0001 MADISHF
MGW,2017-04-01 01:00,-79.9163,39.6429,M,M,M,230.00,3.00,0.01,29.71,M,6.00,M,SCT,BKN,OVC,M,400.00,800.00,1300.00,M,-RA BR,KMGW 010100Z AUTO 23003KT 6SM -RA BR SCT004 BKN008 OVC013 A2971 RMK P0001 VRB03KT CIG 6V10  MADISHF
MGW,2017-04-01 01:02,-79.9163,39.6429,53.10,50.00,89.18,200.00,5.00,0.01,29.71,M,5.00,M,BKN,OVC,M,M,400.00,1300.00,M,M,-RA BR,KMGW 010102Z AUTO 20005KT 5SM -RA BR BKN004 OVC013 12/10 A2971 RMK AO2 P0001 T01170100
MGW,2017-04-01 01:04,-79.9163,39.6429,53.10,50.00,89.18,210.00,5.00,0.01,29.71,M,5.00,M,BKN,BKN,OVC,M,400.00,900.00,1300.00,M,-RA BR,KMGW 010104Z 21005KT 5SM -RA BR BKN004 BKN009 OVC013 12/10 A2971 RMK AO2 P0001 T01170100
MGW,2017-04-01 01:05,-79.9163,39.6429,M,M,M,210.00,6.00,0.02,29.71,M,3.00,M,BKN,OVC,M,M,400.00,1300.00,M,M,-RA BR,KMGW 010105Z AUTO 21006KT 3SM -RA BR BKN004 OVC013 A2971 RMK P0002 MADISHF
MGW,2017-04-01 01:06,-79.9163,39.6429,53.10,50.00,89.18,200.00,7.00,0.02,29.71,M,3.00,M,BKN,BKN,OVC,M,400.00,900.00,1300.00,M,-RA BR,KMGW 010106Z 20007KT 3SM -RA BR BKN004 BKN009 OVC013 12/10 A2971 RMK AO2 P0002 T01170100
MGW,2017-04-01 01:10,-79.9163,39.6429,M,M,M,210.00,6.00,0.02,29.71,M,3.00,M,BKN,OVC,M,M,600.00,1300.00,M,M,-RA BR,KMGW 010110Z AUTO 21006KT 3SM -RA BR BKN006 OVC013 A2971 RMK P0002 VRB06KT  MADISHF
MGW,2017-04-01 01:13,-79.9163,39.6429,53.10,50.00,89.18,230.00,9.00,0.03,29.71,M,3.00,M,BKN,BKN,OVC,M,600.00,1300.00,2400.00,M,RA BR,KMGW 010113Z 23009KT 3SM RA BR BKN006 BKN013 OVC024 12/10 A2971 RMK AO2 P0003 T01170100
MGW,2017-04-01 01:15,-79.9163,39.6429,M,M,M,210.00,8.00,0.04,29.71,M,3.00,M,BKN,OVC,M,M,600.00,1300.00,M,M,RA BR,KMGW 010115Z AUTO 21008KT 3SM RA BR BKN006 OVC013 A2971 RMK P0004 MADISHF
MGW,2017-04-01 01:20,-79.9163,39.6429,M,M,M,210.00,8.00,0.05,29.72,M,3.00,M,SCT,BKN,OVC,M,400.00,800.00,2600.00,M,RA BR,KMGW 010120Z AUTO 21008KT 3SM RA BR SCT004 BKN008 OVC026 A2972 RMK P0005 MADISHF
MGW,2017-04-01 01:24,-79.9163,39.6429,52.00,48.90,89.13,200.00,7.00,0.07,29.72,M,2.50,M,SCT,BKN,OVC,M,400.00,1000.00,3000.00,M,RA BR,KMGW 010124Z 20007KT 2 1/2SM RA BR SCT004 BKN010 OVC030 11/09 A2972 RMK AO2 P0007 T01110094
MGW,2017-04-01 01:25,-79.9163,39.6429,M,M,M,200.00,7.00,0.08,29.72,M,2.50,M,SCT,BKN,OVC,M,400.00,999.00,3000.00,M,RA BR,KMGW 010125Z AUTO 20007KT 2 1/2SM RA BR SCT004 BKN009 OVC030 A2972 RMK P0008 MADISHF
MGW,2017-04-01 01:30,-79.9163,39.6429,M,M,M,210.00,6.00,0.09,29.72,M,2.00,M,SCT,BKN,OVC,M,600.00,1500.00,2900.00,M,RA BR,KMGW 010130Z AUTO 21006KT 2SM RA BR SCT006 BKN015 OVC029 A2972 RMK P0009 MADISHF
MGW,2017-04-01 01:35,-79.9163,39.6429,M,M,M,200.00,5.00,0.11,29.72,M,2.00,M,BKN,BKN,OVC,M,400.00,1500.00,2200.00,M,RA BR,KMGW 010135Z AUTO 20005KT 2SM RA BR BKN004 BKN015 OVC022 A2972 RMK P0011 MADISHF
MGW,2017-04-01 01:39,-79.9163,39.6429,52.00,50.00,92.86,210.00,6.00,0.13,29.72,M,2.00,M,FEW,BKN,OVC,M,300.00,600.00,2700.00,M,RA BR,KMGW 010139Z 21006KT 2SM RA BR FEW003 BKN006 OVC027 11/10 A2972 RMK AO2 P0013 T01110100
MGW,2017-04-01 01:40,-79.9163,39.6429,M,M,M,200.00,6.00,0.13,29.72,M,2.00,M,BKN,BKN,OVC,M,600.00,1699.00,2400.00,M,RA BR,KMGW 010140Z AUTO 20006KT 2SM RA BR BKN006 BKN016 OVC024 A2972 RMK P0013 MADISHF
MGW,2017-04-01 01:45,-79.9163,39.6429,M,M,M,220.00,5.00,0.14,29.72,M,2.50,M,BKN,BKN,OVC,M,400.00,800.00,1600.00,M,RA BR,KMGW 010145Z AUTO 22005KT 2 1/2SM RA BR BKN004 BKN008 OVC016 A2972 RMK P0014 VRB05KT  MADISHF
MGW,2017-04-01 01:48,-79.9163,39.6429,51.80,48.20,87.47,220.00,6.00,0.15,29.72,M,3.00,M,BKN,BKN,OVC,M,400.00,800.00,1600.00,M,-RA BR,KMGW 010148Z 22006KT 3SM -RA BR BKN004 BKN008 OVC016 11/09 A2972 RMK AO2 P0015
MGW,2017-04-01 01:50,-79.9163,39.6429,M,M,M,210.00,5.00,0.15,29.72,M,3.00,M,BKN,OVC,M,M,600.00,1400.00,M,M,-RA BR,KMGW 010150Z AUTO 21005KT 3SM -RA BR BKN006 OVC014 A2972 RMK P0015 MADISHF
MGW,2017-04-01 01:53,-79.9163,39.6429,52.00,48.90,89.13,210.00,6.00,0.15,29.73,1006.50,3.00,M,BKN,BKN,OVC,M,600.00,1100.00,1700.00,M,-RA BR,KMGW 010153Z 21006KT 3SM -RA BR BKN006 BKN011 OVC017 11/09 A2973 RMK AO2 SLP065 P0015 T01110094
MGW,2017-04-01 01:55,-79.9163,39.6429,M,M,M,200.00,5.00,0.01,29.73,M,3.50,M,BKN,OVC,M,M,600.00,1100.00,M,M,-RA BR,KMGW 010155Z AUTO 20005KT 3SM -RA BR BKN006 OVC011 A2973 RMK P0001 MADISHF
MGW,2017-04-01 02:00,-79.9163,39.6429,M,M,M,210.00,6.00,0.01,29.73,M,4.00,M,BKN,OVC,M,M,600.00,1100.00,M,M,-RA BR,KMGW 010200Z AUTO 21006KT 4SM -RA BR BKN006 OVC011 A2973 RMK P0001 MADISHF
MGW,2017-04-01 02:05,-79.9163,39.6429,M,M,M,200.00,5.00,0.01,29.73,M,6.00,M,BKN,OVC,M,M,600.00,1100.00,M,M,-RA BR,KMGW 010205Z AUTO 20005KT 6SM -RA BR BKN006 OVC011 A2973 RMK P0001 MADISHF
MGW,2017-04-01 02:10,-79.9163,39.6429,M,M,M,200.00,5.00,0.01,29.73,M,9.00,M,BKN,OVC,M,M,600.00,1100.00,M,M,-RA,KMGW 010210Z AUTO 20005KT 9SM -RA BKN006 OVC011 A2973 RMK P0001 MADISHF
MGW,2017-04-01 02:15,-79.9163,39.6429,M,M,M,210.00,5.00,0.02,29.73,M,8.00,M,OVC,M,M,M,600.00,M,M,M,-RA,KMGW 010215Z AUTO 21005KT 8SM -RA OVC006 A2973 RMK P0002 MADISHF
MGW,2017-04-01 02:20,-79.9163,39.6429,M,M,M,220.00,4.00,0.02,29.73,M,7.00,M,BKN,OVC,M,M,600.00,999.00,M,M,-RA,KMGW 010220Z AUTO 22004KT 7SM -RA BKN006 OVC009 A2973 RMK P0002 MADISHF
MGW,2017-04-01 02:25,-79.9163,39.6429,M,M,M,220.00,6.00,0.02,29.73,M,7.00,M,OVC,M,M,M,600.00,M,M,M,-RA,KMGW 010225Z AUTO 22006KT 7SM -RA OVC006 A2973 RMK P0002 MADISHF
MGW,2017-04-01 02:30,-79.9163,39.6429,M,M,M,220.00,6.00,0.03,29.73,M,6.00,M,OVC,M,M,M,600.00,M,M,M,-RA BR,KMGW 010230Z AUTO 22006KT 6SM -RA BR OVC006 A2973 RMK P0003 MADISHF
MGW,2017-04-01 02:35,-79.9163,39.6429,M,M,M,220.00,7.00,0.03,29.73,M,7.00,M,OVC,M,M,M,600.00,M,M,M,-RA,KMGW 010235Z AUTO 22007KT 7SM -RA OVC006 A2973 RMK P0003 MADISHF
MGW,2017-04-01 02:40,-79.9163,39.6429,M,M,M,220.00,7.00,0.03,29.73,M,9.00,M,OVC,M,M,M,600.00,M,M,M,-RA,KMGW 010240Z AUTO 22007KT 9SM -RA OVC006 A2973 RMK P0003 MADISHF
MGW,2017-04-01 02:45,-79.9163,39.6429,M,M,M,220.00,7.00,0.03,29.73,M,10.00,M,OVC,M,M,M,600.00,M,M,M,M,KMGW 010245Z AUTO 22007KT 10SM OVC006 A2973 RMK P0003 MADISHF
MGW,2017-04-01 02:50,-79.9163,39.6429,M,M,M,220.00,5.00,0.03,29.73,M,10.00,M,OVC,M,M,M,600.00,M,M,M,M,KMGW 010250Z AUTO 22005KT 10SM OVC006 A2973 RMK P0003 CIG 4V9  MADISHF
MGW,2017-04-01 02:53,-79.9163,39.6429,51.10,48.90,92.14,220.00,6.00,0.03,29.73,1006.70,10.00,M,OVC,M,M,M,600.00,M,M,M,M,KMGW 010253Z 22006KT 10SM OVC006 11/09 A2973 RMK AO2 RAE41 CIG 004V009 SLP067 P0003 60018 T01060094 51015
MGW,2017-04-01 02:55,-79.9163,39.6429,M,M,M,230.00,6.00,M,29.73,M,10.00,M,OVC,M,M,M,600.00,M,M,M,M,KMGW 010255Z AUTO 23006KT 10SM OVC006 A2973 RMK CIG 4V9  MADISHF
MGW,2017-04-01 03:00,-79.9163,39.6429,M,M,M,230.00,7.00,M,29.73,M,9.00,M,OVC,M,M,M,600.00,M,M,M,M,KMGW 010300Z AUTO 23007KT 9SM OVC006 A2973 RMK WND 18V24  MADISHF
MGW,2017-04-01 03:05,-79.9163,39.6429,M,M,M,210.00,5.00,M,29.73,M,6.00,M,OVC,M,M,M,600.00,M,M,M,BR,KMGW 010305Z AUTO 21005KT 6SM BR OVC006 A2973 RMK MADISHF
MGW,2017-04-01 03:10,-79.9163,39.6429,M,M,M,220.00,8.00,M,29.73,M,5.00,M,OVC,M,M,M,499.00,M,M,M,-RA BR,KMGW 010310Z AUTO 22008KT 5SM -RA BR OVC004 A2973 RMK MADISHF
MGW,2017-04-01 03:15,-79.9163,39.6429,M,M,M,220.00,5.00,M,29.73,M,6.00,M,OVC,M,M,M,499.00,M,M,M,-RA BR,KMGW 010315Z AUTO 22005KT 6SM -RA BR OVC004 A2973 RMK VRB05KT  MADISHF
MGW,2017-04-01 03:20,-79.9163,39.6429,M,M,M,230.00,7.00,M,29.73,M,5.00,M,OVC,M,M,M,499.00,M,M,M,BR,KMGW 010320Z AUTO 23007KT 5SM BR OVC004 A2973 RMK MADISHF
MGW,2017-04-01 03:25,-79.9163,39.6429,M,M,M,230.00,6.00,0.01,29.73,M,3.00,M,OVC,M,M,M,499.00,M,M,M,-RA BR,KMGW 010325Z AUTO 23006KT 3SM -RA BR OVC004 A2973 RMK P0001 CIG 4V9  MADISHF
MGW,2017-04-01 03:30,-79.9163,39.6429,M,M,M,220.00,7.00,0.01,29.74,M,2.50,M,OVC,M,M,M,499.00,M,M,M,-RA BR,KMGW 010330Z AUTO 22007KT 2 1/2SM -RA BR OVC004 A2974 RMK P0001 MADISHF
MGW,2017-04-01 03:33,-79.9163,39.6429,51.10,48.90,92.14,230.00,7.00,0.01,29.74,M,2.50,M,OVC,M,M,M,500.00,M,M,M,-RA BR,KMGW 010333Z AUTO 23007KT 2 1/2SM -RA BR OVC005 11/09 A2974 RMK AO2 RAB06 P0001 T01060094
MGW,2017-04-01 03:35,-79.9163,39.6429,M,M,M,240.00,6.00,0.02,29.74,M,3.00,M,OVC,M,M,M,499.00,M,M,M,-RA BR,KMGW 010335Z AUTO 24006KT 3SM -RA BR OVC004 A2974 RMK P0002 MADISHF
MGW,2017-04-01 03:40,-79.9163,39.6429,M,M,M,230.00,5.00,0.02,29.74,M,3.50,M,OVC,M,M,M,499.00,M,M,M,-RA BR,KMGW 010340Z AUTO 23005KT 3SM -RA BR OVC004 A2974 RMK P0002 VRB05KT  MADISHF
MGW,2017-04-01 03:41,-79.9163,39.6429,51.10,48.90,92.14,M,6.00,0.02,29.74,M,4.00,M,OVC,M,M,M,500.00,M,M,M,-RA BR,KMGW 010341Z AUTO VRB06KT 4SM -RA BR OVC005 11/09 A2974 RMK AO2 RAB06 P0002 T01060094
MGW,2017-04-01 03:45,-79.9163,39.6429,M,M,M,230.00,6.00,0.02,29.74,M,4.00,M,OVC,M,M,M,499.00,M,M,M,BR,KMGW 010345Z AUTO 23006KT 4SM BR OVC004 A2974 RMK P0002 MADISHF
MGW,2017-04-01 03:50,-79.9163,39.6429,M,M,M,230.00,7.00,0.02,29.74,M,5.00,M,OVC,M,M,M,499.00,M,M,M,BR,KMGW 010350Z AUTO 23007KT 5SM BR OVC004 A2974 RMK P0002 MADISHF
MGW,2017-04-01 03:53,-79.9163,39.6429,51.10,48.90,92.14,230.00,6.00,0.02,29.74,1007.00,5.00,M,OVC,M,M,M,500.00,M,M,M,BR,KMGW 010353Z AUTO 23006KT 5SM BR OVC005 11/09 A2974 RMK AO2 RAB06E42 SLP070 P0002 T01060094
MGW,2017-04-01 03:55,-79.9163,39.6429,M,M,M,240.00,6.00,M,29.74,M,5.00,M,OVC,M,M,M,499.00,M,M,M,BR,KMGW 010355Z AUTO 24006KT 5SM BR OVC004 A2974 RMK MADISHF
MGW,2017-04-01 04:00,-79.9163,39.6429,M,M,M,220.00,7.00,M,29.74,M,5.00,M,OVC,M,M,M,499.00,M,M,M,BR,KMGW 010400Z AUTO 22007KT 5SM BR OVC004 A2974 RMK CIG 4V10  MADISHF
MGW,2017-04-01 04:05,-79.9163,39.6429,M,M,M,220.00,6.00,M,29.74,M,5.00,M,BKN,OVC,M,M,499.00,999.00,M,M,BR,KMGW 010405Z AUTO 22006KT 5SM BR BKN004 OVC009 A2974 RMK MADISHF
MGW,2017-04-01 04:10,-79.9163,39.6429,M,M,M,230.00,7.00,M,29.74,M,7.00,M,OVC,M,M,M,499.00,M,M,M,M,KMGW 010410Z AUTO 23007KT 7SM OVC004 A2974 RMK CIG 4V9  MADISHF
MGW,2017-04-01 04:15,-79.9163,39.6429,M,M,M,230.00,7.00,M,29.74,M,9.00,M,BKN,OVC,M,M,499.00,1100.00,M,M,M,KMGW 010415Z AUTO 23007KT 9SM BKN004 OVC011 A2974 RMK MADISHF
MGW,2017-04-01 04:20,-79.9163,39.6429,M,M,M,230.00,6.00,M,29.74,M,10.00,M,OVC,M,M,M,800.00,M,M,M,M,KMGW 010420Z AUTO 23006KT 10SM OVC008 A2974 RMK CIG 5V11  MADISHF
MGW,2017-04-01 04:25,-79.9163,39.6429,M,M,M,220.00,6.00,M,29.74,M,10.00,M,OVC,M,M,M,800.00,M,M,M,M,KMGW 010425Z AUTO 22006KT 10SM OVC008 A2974 RMK CIG 5V11  MADISHF
MGW,2017-04-01 04:30,-79.9163,39.6429,M,M,M,230.00,6.00,M,29.74,M,10.00,M,OVC,M,M,M,800.00,M,M,M,M,KMGW 010430Z AUTO 23006KT 10SM OVC008 A2974 RMK CIG 5V11  MADISHF
MGW,2017-04-01 04:35,-79.9163,39.6429,M,M,M,250.00,6.00,M,29.74,M,8.00,M,OVC,M,M,M,800.00,M,M,M,M,KMGW 010435Z AUTO 25006KT 8SM OVC008 A2974 RMK CIG 6V11  MADISHF
MGW,2017-04-01 04:40,-79.9163,39.6429,M,M,M,230.00,4.00,M,29.75,M,5.00,M,OVC,M,M,M,800.00,M,M,M,BR,KMGW 010440Z AUTO 23004KT 5SM BR OVC008 A2975 RMK VRB04KT CIG 5V10  MADISHF
MGW,2017-04-01 04:45,-79.9163,39.6429,M,M,M,230.00,6.00,M,29.75,M,5.00,M,OVC,M,M,M,600.00,M,M,M,BR,KMGW 010445Z AUTO 23006KT 5SM BR OVC006 A2975 RMK MADISHF
MGW,2017-04-01 04:50,-79.9163,39.6429,M,M,M,230.00,6.00,M,29.75,M,4.00,M,OVC,M,M,M,600.00,M,M,M,BR,KMGW 010450Z AUTO 23006KT 4SM BR OVC006 A2975 RMK VRB06KT  MADISHF
MGW,2017-04-01 04:53,-79.9163,39.6429,51.10,48.90,92.14,240.00,5.00,0.00,29.75,1007.30,4.00,M,OVC,M,M,M,600.00,M,M,M,BR,KMGW 010453Z AUTO 24005KT 4SM BR OVC006 11/09 A2975 RMK AO2 SLP073 T01060094 401670106
MGW,2017-04-01 04:55,-79.9163,39.6429,M,M,M,230.00,6.00,M,29.75,M,4.00,M,OVC,M,M,M,600.00,M,M,M,BR,KMGW 010455Z AUTO 23006KT 4SM BR OVC006 A2975 RMK CIG 5V9  MADISHF
MGW,2017-04-01 05:00,-79.9163,39.6429,M,M,M,230.00,7.00,M,29.75,M,4.00,M,OVC,M,M,M,600.00,M,M,M,BR,KMGW 010500Z AUTO 23007KT 4SM BR OVC006 A2975 RMK CIG 5V11  MADISHF
MGW,2017-04-01 05:05,-79.9163,39.6429,M,M,M,230.00,5.00,M,29.75,M,4.00,M,OVC,M,M,M,600.00,M,M,M,BR,KMGW 010505Z AUTO 23005KT 4SM BR OVC006 A2975 RMK MADISHF
MGW,2017-04-01 05:10,-79.9163,39.6429,M,M,M,230.00,7.00,M,29.75,M,4.00,M,OVC,M,M,M,600.00,M,M,M,BR,KMGW 010510Z AUTO 23007KT 4SM BR OVC006 A2975 RMK CIG 4V10  MADISHF
MGW,2017-04-01 05:15,-79.9163,39.6429,M,M,M,250.00,3.00,M,29.75,M,6.00,M,OVC,M,M,M,600.00,M,M,M,BR,KMGW 010515Z AUTO 25003KT 6SM BR OVC006 A2975 RMK VRB03KT  MADISHF
MGW,2017-04-01 05:20,-79.9163,39.6429,M,M,M,230.00,5.00,M,29.75,M,9.00,M,OVC,M,M,M,600.00,M,M,M,M,KMGW 010520Z AUTO 23005KT 9SM OVC006 A2975 RMK MADISHF
MGW,2017-04-01 05:25,-79.9163,39.6429,M,M,M,230.00,6.00,M,29.75,M,10.00,M,BKN,OVC,M,M,499.00,900.00,M,M,M,KMGW 010525Z AUTO 23006KT 10SM BKN004 OVC009 A2975 RMK MADISHF
MGW,2017-04-01 05:30,-79.9163,39.6429,M,M,M,240.00,4.00,M,29.76,M,8.00,M,BKN,OVC,M,M,499.00,900.00,M,M,M,KMGW 010530Z AUTO 24004KT 8SM BKN004 OVC009 A2976 RMK VRB04KT CIG 4V8  MADISHF
MGW,2017-04-01 05:35,-79.9163,39.6429,M,M,M,260.00,4.00,M,29.76,M,5.00,M,OVC,M,M,M,499.00,M,M,M,-RA BR,KMGW 010535Z AUTO 26004KT 5SM -RA BR OVC004 A2976 RMK VRB04KT CIG 4V10  MADISHF
MGW,2017-04-01 05:40,-79.9163,39.6429,M,M,M,300.00,9.00,0.01,29.76,M,4.00,15.00,OVC,M,M,M,499.00,M,M,M,-RA BR,KMGW 010540Z AUTO 30009G15KT 4SM -RA BR OVC004 A2976 RMK P0001 CIG 4V10  MADISHF
MGW,2017-04-01 05:45,-79.9163,39.6429,M,M,M,320.00,9.00,0.01,29.77,M,7.00,M,OVC,M,M,M,499.00,M,M,M,-RA,KMGW 010545Z AUTO 32009KT 7SM -RA OVC004 A2977 RMK P0001 CIG 4V10  MADISHF
MGW,2017-04-01 05:50,-79.9163,39.6429,M,M,M,320.00,9.00,0.01,29.78,M,9.00,M,OVC,M,M,M,700.00,M,M,M,M,KMGW 010550Z AUTO 32009KT 9SM OVC007 A2978 RMK P0001 CIG 4V10  MADISHF
MGW,2017-04-01 05:53,-79.9163,39.6429,48.90,46.00,89.67,310.00,7.00,0.01,29.78,1008.40,9.00,16.00,OVC,M,M,M,700.00,M,M,M,M,KMGW 010553Z AUTO 31007G16KT 9SM OVC007 09/08 A2978 RMK AO2 RAB33E47 CIG 004V010 PRESRR SLP084 P0001 60021 T00940078 10117 20094 53016
MGW,2017-04-01 05:55,-79.9163,39.6429,M,M,M,320.00,7.00,M,29.78,M,9.00,M,OVC,M,M,M,700.00,M,M,M,M,KMGW 010555Z AUTO 32007KT 9SM OVC007 A2978 RMK WND 27V35  MADISHF
MGW,2017-04-01 06:00,-79.9163,39.6429,M,M,M,320.00,10.00,M,29.79,M,10.00,17.00,OVC,M,M,M,600.00,M,M,M,M,KMGW 010600Z AUTO 32010G17KT 10SM OVC006 A2979 RMK WND 29V35 CIG 4V10  MADISHF
MGW,2017-04-01 06:05,-79.9163,39.6429,M,M,M,320.00,9.00,M,29.79,M,10.00,15.00,OVC,M,M,M,600.00,M,M,M,M,KMGW 010605Z AUTO 32009G15KT 10SM OVC006 A2979 RMK MADISHF
MGW,2017-04-01 06:10,-79.9163,39.6429,M,M,M,310.00,5.00,M,29.80,M,10.00,M,OVC,M,M,M,600.00,M,M,M,M,KMGW 010610Z AUTO 31005KT 10SM OVC006 A2980 RMK MADISHF
MGW,2017-04-01 06:15,-79.9163,39.6429,M,M,M,310.00,7.00,M,29.80,M,10.00,M,OVC,M,M,M,700.00,M,M,M,M,KMGW 010615Z AUTO 31007KT 10SM OVC007 A2980 RMK MADISHF
MGW,2017-04-01 06:20,-79.9163,39.6429,M,M,M,310.00,8.00,M,29.80,M,10.00,M,OVC,M,M,M,700.00,M,M,M,M,KMGW 010620Z AUTO 31008KT 10SM OVC007 A2980 RMK CIG 5V10  MADISHF
MGW,2017-04-01 06:25,-79.9163,39.6429,M,M,M,310.00,8.00,M,29.81,M,10.00,M,OVC,M,M,M,700.00,M,M,M,-RA,KMGW 010625Z AUTO 31008KT 10SM -RA OVC007 A2981 RMK CIG 6V13  MADISHF
MGW,2017-04-01 06:30,-79.9163,39.6429,M,M,M,310.00,7.00,M,29.81,M,9.00,M,BKN,OVC,M,M,700.00,1300.00,M,M,-RA,KMGW 010630Z AUTO 31007KT 9SM -RA BKN007 OVC013 A2981 RMK WND 29V36 CIG 6V10  MADISHF
MGW,2017-04-01 06:35,-79.9163,39.6429,M,M,M,330.00,8.00,M,29.82,M,8.00,M,BKN,OVC,M,M,800.00,1300.00,M,M,-RA,KMGW 010635Z AUTO 33008KT 8SM -RA BKN008 OVC013 A2982 RMK CIG 6V10  MADISHF
MGW,2017-04-01 06:40,-79.9163,39.6429,M,M,M,330.00,5.00,M,29.82,M,9.00,M,OVC,M,M,M,800.00,M,M,M,M,KMGW 010640Z AUTO 33005KT 9SM OVC008 A2982 RMK CIG 6V10  MADISHF
MGW,2017-04-01 06:45,-79.9163,39.6429,M,M,M,320.00,5.00,M,29.83,M,9.00,M,OVC,M,M,M,800.00,M,M,M,M,KMGW 010645Z AUTO 32005KT 9SM OVC008 A2983 RMK CIG 6V12  MADISHF
MGW,2017-04-01 06:50,-79.9163,39.6429,M,M,M,340.00,4.00,M,29.83,M,9.00,M,OVC,M,M,M,800.00,M,M,M,M,KMGW 010650Z AUTO 34004KT 9SM OVC008 A2983 RMK VRB04KT CIG 6V12  MADISHF
MGW,2017-04-01 06:53,-79.9163,39.6429,45.00,42.10,89.49,330.00,5.00,0.00,29.83,1010.30,9.00,M,OVC,M,M,M,800.00,M,M,M,M,KMGW 010653Z AUTO 33005KT 9SM OVC008 07/06 A2983 RMK AO2 RAB21E36 CIG 005V010 SLP103 P0000 T00720056
MGW,2017-04-01 06:55,-79.9163,39.6429,M,M,M,330.00,4.00,M,29.83,M,9.00,M,OVC,M,M,M,600.00,M,M,M,-RA,KMGW 010655Z AUTO 33004KT 9SM -RA OVC006 A2983 RMK CIG 5V10  MADISHF
MGW,2017-04-01 07:00,-79.9163,39.6429,M,M,M,320.00,5.00,0.01,29.83,M,7.00,M,OVC,M,M,M,600.00,M,M,M,-RA,KMGW 010700Z AUTO 32005KT 7SM -RA OVC006 A2983 RMK P0001 CIG 5V9  MADISHF
MGW,2017-04-01 07:05,-79.9163,39.6429,M,M,M,310.00,4.00,0.01,29.84,M,7.00,M,OVC,M,M,M,600.00,M,M,M,-RA,KMGW 010705Z AUTO 31004KT 7SM -RA OVC006 A2984 RMK P0001 MADISHF
MGW,2017-04-01 07:10,-79.9163,39.6429,M,M,M,300.00,5.00,0.01,29.84,M,7.00,M,OVC,M,M,M,600.00,M,M,M,-RA,KMGW 010710Z AUTO 30005KT 7SM -RA OVC006 A2984 RMK P0001 VRB05KT  MADISHF
MGW,2017-04-01 07:15,-79.9163,39.6429,M,M,M,290.00,6.00,0.02,29.84,M,7.00,M,OVC,M,M,M,600.00,M,M,M,-RA,KMGW 010715Z AUTO 29006KT 7SM -RA OVC006 A2984 RMK P0002 CIG 5V9  MADISHF
MGW,2017-04-01 07:20,-79.9163,39.6429,M,M,M,300.00,6.00,0.02,29.85,M,7.00,M,BKN,OVC,M,M,600.00,999.00,M,M,-RA,KMGW 010720Z AUTO 30006KT 7SM -RA BKN006 OVC009 A2985 RMK P0002 MADISHF
MGW,2017-04-01 07:25,-79.9163,39.6429,M,M,M,290.00,4.00,0.03,29.85,M,6.00,M,OVC,M,M,M,800.00,M,M,M,-RA BR,KMGW 010725Z AUTO 29004KT 6SM -RA BR OVC008 A2985 RMK P0003 CIG 5V12  MADISHF
MGW,2017-04-01 07:30,-79.9163,39.6429,M,M,M,290.00,5.00,0.03,29.85,M,6.00,M,OVC,M,M,M,800.00,M,M,M,-RA BR,KMGW 010730Z AUTO 29005KT 6SM -RA BR OVC008 A2985 RMK P0003 CIG 5V13  MADISHF
MGW,2017-04-01 07:35,-79.9163,39.6429,M,M,M,300.00,4.00,0.03,29.85,M,8.00,M,OVC,M,M,M,999.00,M,M,M,-RA,KMGW 010735Z AUTO 30004KT 8SM -RA OVC009 A2985 RMK P0003 CIG 6V13  MADISHF
MGW,2017-04-01 07:40,-79.9163,39.6429,45.00,41.00,85.77,310.00,7.00,0.03,29.86,M,10.00,M,BKN,OVC,M,M,1000.00,1600.00,M,M,M,KMGW 010740Z AUTO 31007KT 290V350 10SM BKN010 OVC016 07/05 A2986 RMK AO2 RAB0654E39 CIG 007V011 P0003 T00720050
MGW,2017-04-01 07:45,-79.9163,39.6429,M,M,M,300.00,4.00,0.03,29.86,M,10.00,M,BKN,OVC,M,M,999.00,1800.00,M,M,M,KMGW 010745Z AUTO 30004KT 10SM BKN009 OVC018 A2986 RMK P0003 VRB04KT  MADISHF
MGW,2017-04-01 07:50,-79.9163,39.6429,M,M,M,310.00,3.00,0.03,29.86,M,10.00,M,BKN,OVC,M,M,1100.00,1800.00,M,M,M,KMGW 010750Z AUTO 31003KT 10SM BKN011 OVC018 A2986 RMK P0003 VRB03KT  MADISHF
MGW,2017-04-01 07:53,-79.9163,39.6429,45.00,41.00,85.77,310.00,3.00,0.03,29.86,1011.30,10.00,M,OVC,M,M,M,1100.00,M,M,M,M,KMGW 010753Z AUTO 31003KT 10SM OVC011 07/05 A2986 RMK AO2 RAB0654E39 SLP113 P0003 T00720050
MGW,2017-04-01 07:55,-79.9163,39.6429,M,M,M,300.00,3.00,M,29.86,M,10.00,M,OVC,M,M,M,1100.00,M,M,M,M,KMGW 010755Z AUTO 30003KT 10SM OVC011 A2986 RMK MADISHF
MGW,2017-04-01 08:00,-79.9163,39.6429,M,M,M,310.00,4.00,M,29.86,M,10.00,M,BKN,OVC,M,M,1100.00,1699.00,M,M,M,KMGW 010800Z AUTO 31004KT 10SM BKN011 OVC016 A2986 RMK MADISHF
MGW,2017-04-01 08:05,-79.9163,39.6429,M,M,M,310.00,4.00,M,29.87,M,10.00,M,OVC,M,M,M,1300.00,M,M,M,M,KMGW 010805Z AUTO 31004KT 10SM OVC013 A2987 RMK MADISHF
MGW,2017-04-01 08:10,-79.9163,39.6429,M,M,M,300.00,3.00,M,29.87,M,10.00,M,BKN,OVC,M,M,1100.00,1699.00,M,M,M,KMGW 010810Z AUTO 30003KT 10SM BKN011 OVC016 A2987 RMK VRB03KT  MADISHF
MGW,2017-04-01 08:15,-79.9163,39.6429,M,M,M,0.00,0.00,M,29.87,M,6.00,M,BKN,OVC,M,M,1100.00,1800.00,M,M,BR,KMGW 010815Z AUTO 00000KT 6SM BR BKN011 OVC018 A2987 RMK MADISHF
MGW,2017-04-01 08:20,-79.9163,39.6429,M,M,M,300.00,3.00,M,29.88,M,4.00,M,BKN,OVC,M,M,1100.00,1800.00,M,M,-RA BR,KMGW 010820Z AUTO 30003KT 4SM -RA BR BKN011 OVC018 A2988 RMK VRB03KT  MADISHF
MGW,2017-04-01 08:25,-79.9163,39.6429,M,M,M,300.00,4.00,0.01,29.88,M,4.00,M,BKN,OVC,M,M,1200.00,1699.00,M,M,-RA BR,KMGW 010825Z AUTO 30004KT 4SM -RA BR BKN012 OVC016 A2988 RMK P0001 MADISHF
MGW,2017-04-01 08:30,-79.9163,39.6429,M,M,M,290.00,4.00,0.01,29.88,M,6.00,M,OVC,M,M,M,1200.00,M,M,M,BR,KMGW 010830Z AUTO 29004KT 6SM BR OVC012 A2988 RMK P0001 VRB04KT  MADISHF
MGW,2017-04-01 08:35,-79.9163,39.6429,M,M,M,0.00,0.00,0.01,29.89,M,9.00,M,FEW,OVC,M,M,999.00,1500.00,M,M,M,KMGW 010835Z AUTO 00000KT 9SM FEW009 OVC015 A2989 RMK P0001 MADISHF
MGW,2017-04-01 08:39,-79.9163,39.6429,44.10,41.00,88.77,300.00,4.00,0.01,29.89,M,9.00,M,FEW,OVC,M,M,1000.00,1500.00,M,M,M,KMGW 010839Z AUTO 30004KT 9SM FEW010 OVC015 07/05 A2989 RMK AO2 RAB16E29 P0001 T00670050
MGW,2017-04-01 08:40,-79.9163,39.6429,M,M,M,300.00,4.00,0.01,29.89,M,9.00,M,FEW,OVC,M,M,999.00,1500.00,M,M,M,KMGW 010840Z AUTO 30004KT 9SM FEW009 OVC015 A2989 RMK P0001 MADISHF
MGW,2017-04-01 08:45,-79.9163,39.6429,M,M,M,300.00,4.00,0.01,29.89,M,8.00,M,OVC,M,M,M,1500.00,M,M,M,-RA,KMGW 010845Z AUTO 30004KT 8SM -RA OVC015 A2989 RMK P0001 MADISHF
MGW,2017-04-01 08:50,-79.9163,39.6429,M,M,M,290.00,5.00,0.01,29.89,M,7.00,M,OVC,M,M,M,1300.00,M,M,M,-RA,KMGW 010850Z AUTO 29005KT 7SM -RA OVC013 A2989 RMK P0001 MADISHF
MGW,2017-04-01 08:53,-79.9163,39.6429,44.10,39.90,85.06,M,3.00,0.01,29.89,1012.40,7.00,M,OVC,M,M,M,1300.00,M,M,M,-RA,KMGW 010853Z AUTO VRB03KT 7SM -RA OVC013 07/04 A2989 RMK AO2 RAB16E29B44 SLP124 P0001 60004 T00670044 51037
MGW,2017-04-01 08:55,-79.9163,39.6429,M,M,M,320.00,3.00,M,29.89,M,8.00,M,OVC,M,M,M,1300.00,M,M,M,-RA,KMGW 010855Z AUTO 32003KT 8SM -RA OVC013 A2989 RMK VRB03KT  MADISHF
MGW,2017-04-01 09:00,-79.9163,39.6429,M,M,M,300.00,5.00,M,29.90,M,5.00,M,SCT,OVC,M,M,999.00,1500.00,M,M,-RA BR,KMGW 010900Z AUTO 30005KT 5SM -RA BR SCT009 OVC015 A2990 RMK MADISHF
MGW,2017-04-01 09:05,-79.9163,39.6429,M,M,M,310.00,3.00,0.01,29.90,M,3.00,M,SCT,BKN,OVC,M,600.00,999.00,1500.00,M,-RA BR,KMGW 010905Z AUTO 31003KT 3SM -RA BR SCT006 BKN009 OVC015 A2990 RMK P0001 MADISHF
MGW,2017-04-01 09:06,-79.9163,39.6429,44.10,41.00,88.77,320.00,4.00,0.01,29.90,M,2.50,M,SCT,OVC,M,M,600.00,1200.00,M,M,-RA BR,KMGW 010906Z AUTO 32004KT 2 1/2SM -RA BR SCT006 OVC012 07/05 A2990 RMK AO2 P0001 T00670050
MGW,2017-04-01 09:10,-79.9163,39.6429,M,M,M,300.00,6.00,0.01,29.90,M,2.00,M,BKN,OVC,M,M,600.00,1200.00,M,M,-RA BR,KMGW 010910Z AUTO 30006KT 2SM -RA BR BKN006 OVC012 A2990 RMK P0001 VRB06KT CIG 5V9  MADISHF
MGW,2017-04-01 09:15,-79.9163,39.6429,43.00,39.90,88.71,300.00,5.00,0.02,29.91,M,2.50,M,SCT,BKN,OVC,M,600.00,900.00,1600.00,M,-RA BR,KMGW 010915Z AUTO 30005KT 2 1/2SM -RA BR SCT006 BKN009 OVC016 06/04 A2991 RMK AO2 CIG 008V011 P0002 T00610044
MGW,2017-04-01 09:20,-79.9163,39.6429,M,M,M,300.00,5.00,0.02,29.91,M,2.50,M,SCT,BKN,OVC,M,600.00,900.00,1600.00,M,-RA BR,KMGW 010920Z AUTO 30005KT 2 1/2SM -RA BR SCT006 BKN009 OVC016 A2991 RMK P0002 CIG 8V11  MADISHF
MGW,2017-04-01 09:25,-79.9163,39.6429,M,M,M,300.00,4.00,0.02,29.91,M,2.50,M,BKN,OVC,M,M,600.00,1200.00,M,M,-RA BR,KMGW 010925Z AUTO 30004KT 2 1/2SM -RA BR BKN006 OVC012 A2991 RMK P0002 CIG 4V9  MADISHF
MGW,2017-04-01 09:30,-79.9163,39.6429,M,M,M,300.00,4.00,0.03,29.92,M,3.00,M,BKN,OVC,M,M,600.00,1200.00,M,M,-RA BR,KMGW 010930Z AUTO 30004KT 3SM -RA BR BKN006 OVC012 A2992 RMK P0003 CIG 3V10  MADISHF
MGW,2017-04-01 09:33,-79.9163,39.6429,43.00,41.00,92.58,300.00,4.00,0.03,29.92,M,3.00,M,BKN,OVC,M,M,600.00,1200.00,M,M,-RA BR,KMGW 010933Z AUTO 30004KT 3SM -RA BR BKN006 OVC012 06/05 A2992 RMK AO2 CIG 003V009 P0003 T00610050
MGW,2017-04-01 09:35,-79.9163,39.6429,M,M,M,300.00,5.00,0.03,29.92,M,3.00,M,BKN,BKN,OVC,M,400.00,800.00,1200.00,M,-RA BR,KMGW 010935Z AUTO 30005KT 3SM -RA BR BKN004 BKN008 OVC012 A2992 RMK P0003 CIG 3V7  MADISHF
MGW,2017-04-01 09:40,-79.9163,39.6429,M,M,M,310.00,6.00,0.03,29.92,M,3.50,M,BKN,BKN,OVC,M,400.00,800.00,1300.00,M,-RA BR,KMGW 010940Z AUTO 31006KT 3SM -RA BR BKN004 BKN008 OVC013 A2992 RMK P0003 CIG 3V7  MADISHF
MGW,2017-04-01 09:41,-79.9163,39.6429,43.00,41.00,92.58,300.00,5.00,0.03,29.92,M,3.00,M,BKN,BKN,OVC,M,400.00,800.00,1300.00,M,BR,KMGW 010941Z AUTO 30005KT 3SM BR BKN004 BKN008 OVC013 06/05 A2992 RMK AO2 RAE41 CIG 003V007 P0003 T00610050
MGW,2017-04-01 09:45,-79.9163,39.6429,M,M,M,300.00,4.00,0.03,29.93,M,3.50,M,BKN,BKN,OVC,M,400.00,800.00,1300.00,M,BR,KMGW 010945Z AUTO 30004KT 3SM BR BKN004 BKN008 OVC013 A2993 RMK P0003 VRB04KT CIG 3V7  MADISHF
MGW,2017-04-01 09:50,-79.9163,39.6429,M,M,M,300.00,4.00,0.04,29.93,M,2.50,M,BKN,OVC,M,M,400.00,800.00,M,M,-RA BR,KMGW 010950Z AUTO 30004KT 2 1/2SM -RA BR BKN004 OVC008 A2993 RMK P0004 MADISHF
MGW,2017-04-01 09:53,-79.9163,39.6429,43.00,41.00,92.58,300.00,6.00,0.05,29.93,1013.90,2.50,M,BKN,OVC,M,M,400.00,1000.00,M,M,RA BR,KMGW 010953Z AUTO 30006KT 2 1/2SM RA BR BKN004 OVC010 06/05 A2993 RMK AO2 RAE41B47 CIG 002V006 SLP139 P0005 T00610050
MGW,2017-04-01 09:55,-79.9163,39.6429,M,M,M,300.00,7.00,M,29.94,M,3.00,M,BKN,OVC,M,M,400.00,999.00,M,M,-RA BR,KMGW 010955Z AUTO 30007KT 3SM -RA BR BKN004 OVC009 A2994 RMK WND 26V34 CIG 2V7  MADISHF
MGW,2017-04-01 10:00,-79.9163,39.6429,M,M,M,300.00,4.00,M,29.94,M,5.00,M,BKN,OVC,M,M,400.00,999.00,M,M,-RA BR,KMGW 011000Z AUTO 30004KT 5SM -RA BR BKN004 OVC009 A2994 RMK VRB04KT CIG 2V6  MADISHF
MGW,2017-04-01 10:01,-79.9163,39.6429,43.00,39.90,88.71,M,4.00,0.00,29.94,M,5.00,M,BKN,OVC,M,M,600.00,1000.00,M,M,-RA BR,KMGW 011001Z AUTO VRB04KT 5SM -RA BR BKN006 OVC010 06/04 A2994 RMK AO2 CIG 002V010 P0000 T00610044
MGW,2017-04-01 10:05,-79.9163,39.6429,M,M,M,300.00,5.00,M,29.94,M,6.00,M,BKN,OVC,M,M,600.00,999.00,M,M,BR,KMGW 011005Z AUTO 30005KT 6SM BR BKN006 OVC009 A2994 RMK VRB05KT CIG 2V9  MADISHF
MGW,2017-04-01 10:10,-79.9163,39.6429,M,M,M,310.00,4.00,M,29.95,M,6.00,M,BKN,OVC,M,M,400.00,999.00,M,M,BR,KMGW 011010Z AUTO 31004KT 6SM BR BKN004 OVC009 A2995 RMK CIG 2V8  MADISHF
MGW,2017-04-01 10:12,-79.9163,39.6429,43.00,39.90,88.71,M,5.00,0.00,29.95,M,6.00,M,BKN,OVC,M,M,400.00,1000.00,M,M,BR,KMGW 011012Z AUTO VRB05KT 6SM BR BKN004 OVC010 06/04 A2995 RMK AO2 RAE05 CIG 002V008 P0000 T00610044
MGW,2017-04-01 10:15,-79.9163,39.6429,M,M,M,300.00,4.00,M,29.95,M,7.00,M,BKN,OVC,M,M,700.00,999.00,M,M,M,KMGW 011015Z AUTO 30004KT 7SM BKN007 OVC009 A2995 RMK CIG 2V9  MADISHF
MGW,2017-04-01 10:19,-79.9163,39.6429,43.00,39.90,88.71,310.00,5.00,0.00,29.95,M,7.00,M,BKN,OVC,M,M,700.00,1000.00,M,M,M,KMGW 011019Z AUTO 31005KT 7SM BKN007 OVC010 06/04 A2995 RMK AO2 RAE05 CIG 003V009 P0000 T00610044
MGW,2017-04-01 10:20,-79.9163,39.6429,M,M,M,310.00,3.00,M,29.95,M,7.00,M,BKN,OVC,M,M,700.00,999.00,M,M,M,KMGW 011020Z AUTO 31003KT 7SM BKN007 OVC009 A2995 RMK CIG 4V9  MADISHF
MGW,2017-04-01 10:25,-79.9163,39.6429,M,M,M,310.00,4.00,0.01,29.95,M,5.00,M,OVC,M,M,M,700.00,M,M,M,-RA BR,KMGW 011025Z AUTO 31004KT 5SM -RA BR OVC007 A2995 RMK P0001 CIG 4V9  MADISHF
MGW,2017-04-01 10:30,-79.9163,39.6429,M,M,M,300.00,3.00,0.02,29.96,M,4.00,M,OVC,M,M,M,700.00,M,M,M,-RA BR,KMGW 011030Z AUTO 30003KT 4SM -RA BR OVC007 A2996 RMK P0002 CIG 4V9  MADISHF
MGW,2017-04-01 10:35,-79.9163,39.6429,M,M,M,320.00,3.00,0.02,29.96,M,4.00,M,OVC,M,M,M,700.00,M,M,M,-RA BR,KMGW 011035Z AUTO 32003KT 4SM -RA BR OVC007 A2996 RMK P0002 CIG 4V9  MADISHF
MGW,2017-04-01 10:40,-79.9163,39.6429,M,M,M,310.00,4.00,0.02,29.97,M,7.00,M,BKN,OVC,M,M,700.00,1200.00,M,M,-RA,KMGW 011040Z AUTO 31004KT 7SM -RA BKN007 OVC012 A2997 RMK P0002 CIG 5V9  MADISHF
MGW,2017-04-01 10:45,-79.9163,39.6429,M,M,M,320.00,4.00,0.02,29.97,M,9.00,M,BKN,OVC,M,M,700.00,1200.00,M,M,-RA,KMGW 011045Z AUTO 32004KT 9SM -RA BKN007 OVC012 A2997 RMK P0002 CIG 5V9  MADISHF
MGW,2017-04-01 10:50,-79.9163,39.6429,M,M,M,300.00,6.00,0.02,29.97,M,10.00,M,BKN,OVC,M,M,700.00,1200.00,M,M,M,KMGW 011050Z AUTO 30006KT 10SM BKN007 OVC012 A2997 RMK P0002 CIG 5V8  MADISHF
MGW,2017-04-01 10:53,-79.9163,39.6429,42.10,39.00,88.67,M,4.00,0.02,29.98,1015.40,10.00,M,BKN,OVC,M,M,700.00,1200.00,M,M,M,KMGW 011053Z VRB04KT 10SM BKN007 OVC012 06/04 A2998 RMK AO2 RAE05B23E46 CIG 005V011 SLP154 P0002 T00560039
MGW,2017-04-01 10:55,-79.9163,39.6429,M,M,M,290.00,4.00,M,29.98,M,10.00,M,BKN,OVC,M,M,900.00,1200.00,M,M,M,KMGW 011055Z AUTO 29004KT 10SM BKN009 OVC012 A2998 RMK VRB04KT CIG 5V11  MADISHF
MGW,2017-04-01 11:00,-79.9163,39.6429,M,M,M,310.00,6.00,M,29.98,M,10.00,M,BKN,OVC,M,M,900.00,1200.00,M,M,M,KMGW 011100Z AUTO 31006KT 10SM BKN009 OVC012 A2998 RMK CIG 5V11  MADISHF
MGW,2017-04-01 11:05,-79.9163,39.6429,M,M,M,310.00,5.00,M,29.97,M,10.00,M,OVC,M,M,M,1100.00,M,M,M,M,KMGW 011105Z AUTO 31005KT 10SM OVC011 A2997 RMK VRB05KT  MADISHF
MGW,2017-04-01 11:09,-79.9163,39.6429,42.10,39.00,88.67,300.00,5.00,0.00,29.97,M,10.00,M,OVC,M,M,M,1100.00,M,M,M,M,KMGW 011109Z 30005KT 10SM OVC011 06/04 A2997 RMK AO2 T00560039
MGW,2017-04-01 11:10,-79.9163,39.6429,M,M,M,300.00,5.00,M,29.97,M,10.00,M,OVC,M,M,M,1100.00,M,M,M,M,KMGW 011110Z AUTO 30005KT 10SM OVC011 A2997 RMK MADISHF
MGW,2017-04-01 11:15,-79.9163,39.6429,M,M,M,290.00,4.00,M,29.97,M,10.00,M,OVC,M,M,M,1100.00,M,M,M,M,KMGW 011115Z AUTO 29004KT 10SM OVC011 A2997 RMK MADISHF
MGW,2017-04-01 11:20,-79.9163,39.6429,M,M,M,280.00,5.00,M,29.97,M,10.00,M,OVC,M,M,M,1100.00,M,M,M,M,KMGW 011120Z AUTO 28005KT 10SM OVC011 A2997 RMK CIG 6V13  MADISHF
MGW,2017-04-01 11:25,-79.9163,39.6429,M,M,M,290.00,7.00,M,29.97,M,10.00,M,OVC,M,M,M,1100.00,M,M,M,M,KMGW 011125Z AUTO 29007KT 10SM OVC011 A2997 RMK MADISHF
MGW,2017-04-01 11:30,-79.9163,39.6429,M,M,M,290.00,6.00,M,29.97,M,10.00,M,SCT,OVC,M,M,800.00,1300.00,M,M,M,KMGW 011130Z AUTO 29006KT 10SM SCT008 OVC013 A2997 RMK MADISHF
MGW,2017-04-01 11:33,-79.9163,39.6429,42.10,37.90,84.93,310.00,5.00,0.00,29.98,M,10.00,M,FEW,OVC,M,M,800.00,1300.00,M,M,M,KMGW 011133Z 31005KT 10SM FEW008 OVC013 06/03 A2998 RMK AO2 T00560033
MGW,2017-04-01 11:35,-79.9163,39.6429,M,M,M,300.00,5.00,M,29.98,M,10.00,M,FEW,OVC,M,M,800.00,1300.00,M,M,M,KMGW 011135Z AUTO 30005KT 10SM FEW008 OVC013 A2998 RMK MADISHF
MGW,2017-04-01 11:40,-79.9163,39.6429,M,M,M,290.00,4.00,M,29.98,M,10.00,M,FEW,OVC,M,M,800.00,1300.00,M,M,M,KMGW 011140Z AUTO 29004KT 10SM FEW008 OVC013 A2998 RMK MADISHF
MGW,2017-04-01 11:45,-79.9163,39.6429,M,M,M,280.00,4.00,M,29.98,M,10.00,M,FEW,OVC,M,M,800.00,1300.00,M,M,M,KMGW 011145Z AUTO 28004KT 10SM FEW008 OVC013 A2998 RMK MADISHF
MGW,2017-04-01 11:50,-79.9163,39.6429,M,M,M,280.00,3.00,M,29.98,M,10.00,M,OVC,M,M,M,1300.00,M,M,M,M,KMGW 011150Z AUTO 28003KT 10SM OVC013 A2998 RMK MADISHF
MGW,2017-04-01 11:53,-79.9163,39.6429,42.10,39.00,88.67,0.00,0.00,0.00,29.98,1015.50,10.00,M,OVC,M,M,M,1300.00,M,M,M,M,KMGW 011153Z 00000KT 10SM OVC013 06/04 A2998 RMK AO2 SLP155 60011 70086 T00560039 10094 20056 51028
MGW,2017-04-01 11:55,-79.9163,39.6429,M,M,M,250.00,3.00,M,29.98,M,10.00,M,OVC,M,M,M,1300.00,M,M,M,M,KMGW 011155Z AUTO 25003KT 10SM OVC013 A2998 RMK VRB03KT  MADISHF
MGW,2017-04-01 12:00,-79.9163,39.6429,M,M,M,260.00,3.00,M,29.98,M,10.00,M,OVC,M,M,M,1300.00,M,M,M,M,KMGW 011200Z AUTO 26003KT 10SM OVC013 A2998 RMK MADISHF
MGW,2017-04-01 12:05,-79.9163,39.6429,M,M,M,270.00,3.00,M,29.98,M,10.00,M,OVC,M,M,M,1300.00,M,M,M,M,KMGW 011205Z AUTO 27003KT 10SM OVC013 A2998 RMK VRB03KT  MADISHF
MGW,2017-04-01 12:10,-79.9163,39.6429,M,M,M,280.00,4.00,M,29.99,M,10.00,M,BKN,OVC,M,M,1300.00,1999.00,M,M,M,KMGW 011210Z AUTO 28004KT 10SM BKN013 OVC019 A2999 RMK MADISHF
MGW,2017-04-01 12:15,-79.9163,39.6429,M,M,M,290.00,4.00,M,29.99,M,10.00,M,BKN,OVC,M,M,1200.00,1999.00,M,M,M,KMGW 011215Z AUTO 29004KT 10SM BKN012 OVC019 A2999 RMK MADISHF
MGW,2017-04-01 12:20,-79.9163,39.6429,M,M,M,290.00,4.00,M,30.00,M,10.00,M,BKN,OVC,M,M,1200.00,1999.00,M,M,M,KMGW 011220Z AUTO 29004KT 10SM BKN012 OVC019 A3000 RMK MADISHF
MGW,2017-04-01 12:25,-79.9163,39.6429,M,M,M,290.00,4.00,M,30.00,M,10.00,M,OVC,M,M,M,999.00,M,M,M,M,KMGW 011225Z AUTO 29004KT 10SM OVC009 A3000 RMK MADISHF
MGW,2017-04-01 12:30,-79.9163,39.6429,M,M,M,280.00,6.00,M,30.00,M,10.00,M,BKN,OVC,M,M,999.00,1500.00,M,M,M,KMGW 011230Z AUTO 28006KT 10SM BKN009 OVC015 A3000 RMK CIG 8V14  MADISHF
MGW,2017-04-01 12:35,-79.9163,39.6429,M,M,M,280.00,5.00,M,30.00,M,10.00,M,BKN,OVC,M,M,999.00,1699.00,M,M,M,KMGW 011235Z AUTO 28005KT 10SM BKN009 OVC016 A3000 RMK CIG 8V13  MADISHF
MGW,2017-04-01 12:40,-79.9163,39.6429,M,M,M,280.00,5.00,M,30.00,M,10.00,M,BKN,OVC,M,M,900.00,1500.00,M,M,M,KMGW 011240Z AUTO 28005KT 10SM BKN009 OVC015 A3000 RMK MADISHF
MGW,2017-04-01 12:45,-79.9163,39.6429,M,M,M,290.00,7.00,M,30.01,M,10.00,M,BKN,OVC,M,M,900.00,1500.00,M,M,M,KMGW 011245Z AUTO 29007KT 10SM BKN009 OVC015 A3001 RMK MADISHF
MGW,2017-04-01 12:46,-79.9163,39.6429,42.10,37.90,84.93,280.00,5.00,0.00,30.01,M,10.00,M,BKN,OVC,M,M,900.00,1500.00,M,M,M,KMGW 011246Z 28005KT 10SM BKN009 OVC015 06/03 A3001 RMK AO2 T00560033
MGW,2017-04-01 12:50,-79.9163,39.6429,M,M,M,270.00,6.00,M,30.01,M,10.00,M,BKN,OVC,M,M,900.00,1500.00,M,M,M,KMGW 011250Z AUTO 27006KT 10SM BKN009 OVC015 A3001 RMK MADISHF
MGW,2017-04-01 12:53,-79.9163,39.6429,42.10,37.90,84.93,290.00,4.00,0.00,30.01,1016.40,10.00,M,BKN,OVC,M,M,1100.00,1700.00,M,M,M,KMGW 011253Z 29004KT 10SM BKN011 OVC017 06/03 A3001 RMK AO2 SLP164 T00560033
MGW,2017-04-01 12:55,-79.9163,39.6429,M,M,M,270.00,6.00,M,30.01,M,10.00,M,BKN,OVC,M,M,1100.00,1699.00,M,M,M,KMGW 011255Z AUTO 27006KT 10SM BKN011 OVC016 A3001 RMK MADISHF
MGW,2017-04-01 13:00,-79.9163,39.6429,M,M,M,270.00,5.00,M,30.01,M,10.00,M,BKN,OVC,M,M,1100.00,1699.00,M,M,M,KMGW 011300Z AUTO 27005KT 10SM BKN011 OVC016 A3001 RMK MADISHF
MGW,2017-04-01 13:05,-79.9163,39.6429,M,M,M,260.00,5.00,M,30.01,M,10.00,M,BKN,OVC,M,M,900.00,1500.00,M,M,M,KMGW 011305Z AUTO 26005KT 10SM BKN009 OVC015 A3001 RMK VRB05KT CIG 8V12  MADISHF
MGW,2017-04-01 13:10,-79.9163,39.6429,M,M,M,270.00,6.00,M,30.01,M,10.00,M,BKN,OVC,M,M,1100.00,1800.00,M,M,M,KMGW 011310Z AUTO 27006KT 10SM BKN011 OVC018 A3001 RMK MADISHF
MGW,2017-04-01 13:15,-79.9163,39.6429,M,M,M,270.00,4.00,M,30.01,M,10.00,M,OVC,M,M,M,1100.00,M,M,M,M,KMGW 011315Z AUTO 27004KT 10SM OVC011 A3001 RMK VRB04KT  MADISHF
MGW,2017-04-01 13:20,-79.9163,39.6429,M,M,M,260.00,7.00,M,30.01,M,10.00,M,OVC,M,M,M,1100.00,M,M,M,M,KMGW 011320Z AUTO 26007KT 10SM OVC011 A3001 RMK MADISHF
MGW,2017-04-01 13:25,-79.9163,39.6429,M,M,M,280.00,6.00,M,30.01,M,10.00,M,OVC,M,M,M,1100.00,M,M,M,M,KMGW 011325Z AUTO 28006KT 10SM OVC011 A3001 RMK MADISHF
MGW,2017-04-01 13:30,-79.9163,39.6429,M,M,M,270.00,8.00,M,30.01,M,10.00,M,OVC,M,M,M,1100.00,M,M,M,M,KMGW 011330Z AUTO 27008KT 10SM OVC011 A3001 RMK CIG 8V14  MADISHF
MGW,2017-04-01 13:35,-79.9163,39.6429,M,M,M,280.00,6.00,M,30.01,M,10.00,M,BKN,OVC,M,M,1100.00,1600.00,M,M,M,KMGW 011335Z AUTO 28006KT 10SM BKN011 OVC016 A3001 RMK CIG 9V13  MADISHF
MGW,2017-04-01 13:40,-79.9163,39.6429,M,M,M,280.00,6.00,M,30.02,M,10.00,M,OVC,M,M,M,1300.00,M,M,M,M,KMGW 011340Z AUTO 28006KT 10SM OVC013 A3002 RMK MADISHF
MGW,2017-04-01 13:45,-79.9163,39.6429,M,M,M,280.00,6.00,M,30.02,M,10.00,M,OVC,M,M,M,1300.00,M,M,M,M,KMGW 011345Z AUTO 28006KT 10SM OVC013 A3002 RMK MADISHF
MGW,2017-04-01 13:50,-79.9163,39.6429,M,M,M,300.00,6.00,M,30.03,M,10.00,M,OVC,M,M,M,1300.00,M,M,M,M,KMGW 011350Z AUTO 30006KT 10SM OVC013 A3003 RMK MADISHF
MGW,2017-04-01 13:53,-79.9163,39.6429,42.10,37.00,81.98,300.00,5.00,0.00,30.03,1017.10,10.00,M,OVC,M,M,M,1300.00,M,M,M,M,KMGW 011353Z 30005KT 10SM OVC013 06/03 A3003 RMK AO2 SLP171 T00560028
MGW,2017-04-01 13:55,-79.9163,39.6429,M,M,M,310.00,8.00,M,30.02,M,10.00,M,OVC,M,M,M,1300.00,M,M,M,M,KMGW 011355Z AUTO 31008KT 10SM OVC013 A3002 RMK WND 28V34  MADISHF
MGW,2017-04-01 14:00,-79.9163,39.6429,M,M,M,300.00,5.00,M,30.03,M,10.00,M,OVC,M,M,M,1400.00,M,M,M,M,KMGW 011400Z AUTO 30005KT 10SM OVC014 A3003 RMK VRB05KT  MADISHF
MGW,2017-04-01 14:05,-79.9163,39.6429,M,M,M,300.00,7.00,M,30.03,M,10.00,M,OVC,M,M,M,1400.00,M,M,M,M,KMGW 011405Z AUTO 30007KT 10SM OVC014 A3003 RMK MADISHF
MGW,2017-04-01 14:10,-79.9163,39.6429,M,M,M,300.00,5.00,M,30.04,M,10.00,M,OVC,M,M,M,1500.00,M,M,M,M,KMGW 011410Z AUTO 30005KT 10SM OVC015 A3004 RMK VRB05KT  MADISHF
MGW,2017-04-01 14:15,-79.9163,39.6429,M,M,M,290.00,7.00,M,30.04,M,10.00,M,OVC,M,M,M,1500.00,M,M,M,M,KMGW 011415Z AUTO 29007KT 10SM OVC015 A3004 RMK WND 27V33  MADISHF
MGW,2017-04-01 14:16,-79.9163,39.6429,42.10,37.00,81.98,M,6.00,0.00,30.04,M,10.00,M,OVC,M,M,M,1500.00,M,M,M,M,KMGW 011416Z VRB06KT 10SM OVC015 06/03 A3004 RMK AO2 T00560028
MGW,2017-04-01 14:20,-79.9163,39.6429,M,M,M,300.00,6.00,M,30.05,M,10.00,M,OVC,M,M,M,1500.00,M,M,M,M,KMGW 011420Z AUTO 30006KT 10SM OVC015 A3005 RMK MADISHF
MGW,2017-04-01 14:25,-79.9163,39.6429,M,M,M,300.00,7.00,M,30.05,M,10.00,M,OVC,M,M,M,1500.00,M,M,M,M,KMGW 011425Z AUTO 30007KT 10SM OVC015 A3005 RMK MADISHF
MGW,2017-04-01 14:30,-79.9163,39.6429,M,M,M,300.00,10.00,M,30.05,M,10.00,M,OVC,M,M,M,1500.00,M,M,M,M,KMGW 011430Z AUTO 30010KT 10SM OVC015 A3005 RMK MADISHF
MGW,2017-04-01 14:35,-79.9163,39.6429,M,M,M,290.00,8.00,M,30.06,M,10.00,M,OVC,M,M,M,1300.00,M,M,M,M,KMGW 011435Z AUTO 29008KT 10SM OVC013 A3006 RMK MADISHF
MGW,2017-04-01 14:38,-79.9163,39.6429,42.10,36.00,78.80,300.00,7.00,0.00,30.06,M,10.00,16.00,OVC,M,M,M,1300.00,M,M,M,M,KMGW 011438Z 30007G16KT 10SM OVC013 06/02 A3006 RMK AO2 T00560022
MGW,2017-04-01 14:40,-79.9163,39.6429,M,M,M,300.00,7.00,M,30.06,M,10.00,M,OVC,M,M,M,1300.00,M,M,M,M,KMGW 011440Z AUTO 30007KT 10SM OVC013 A3006 RMK WND 28V34  MADISHF
MGW,2017-04-01 14:45,-79.9163,39.6429,M,M,M,300.00,7.00,M,30.06,M,10.00,M,OVC,M,M,M,1300.00,M,M,M,M,KMGW 011445Z AUTO 30007KT 10SM OVC013 A3006 RMK MADISHF
MGW,2017-04-01 14:50,-79.9163,39.6429,M,M,M,310.00,5.00,M,30.05,M,10.00,M,OVC,M,M,M,1300.00,M,M,M,M,KMGW 011450Z AUTO 31005KT 10SM OVC013 A3005 RMK MADISHF
MGW,2017-04-01 14:53,-79.9163,39.6429,42.10,36.00,78.80,310.00,4.00,0.00,30.05,1018.10,10.00,M,OVC,M,M,M,1300.00,M,M,M,M,KMGW 011453Z 31004KT 10SM OVC013 06/02 A3005 RMK AO2 SLP181 T00560022 52024
MGW,2017-04-01 14:55,-79.9163,39.6429,M,M,M,310.00,5.00,M,30.06,M,10.00,M,OVC,M,M,M,1300.00,M,M,M,M,KMGW 011455Z AUTO 31005KT 10SM OVC013 A3006 RMK MADISHF
MGW,2017-04-01 15:00,-79.9163,39.6429,M,M,M,310.00,5.00,M,30.06,M,10.00,M,OVC,M,M,M,1300.00,M,M,M,M,KMGW 011500Z AUTO 31005KT 10SM OVC013 A3006 RMK MADISHF
MGW,2017-04-01 15:05,-79.9163,39.6429,M,M,M,310.00,4.00,M,30.06,M,10.00,M,OVC,M,M,M,1300.00,M,M,M,M,KMGW 011505Z AUTO 31004KT 10SM OVC013 A3006 RMK VRB04KT  MADISHF
MGW,2017-04-01 15:10,-79.9163,39.6429,M,M,M,300.00,4.00,M,30.06,M,10.00,M,OVC,M,M,M,1200.00,M,M,M,M,KMGW 011510Z AUTO 30004KT 10SM OVC012 A3006 RMK MADISHF
MGW,2017-04-01 15:15,-79.9163,39.6429,M,M,M,310.00,5.00,M,30.06,M,10.00,M,OVC,M,M,M,1200.00,M,M,M,M,KMGW 011515Z AUTO 31005KT 10SM OVC012 A3006 RMK MADISHF
MGW,2017-04-01 15:20,-79.9163,39.6429,M,M,M,300.00,4.00,M,30.06,M,10.00,M,OVC,M,M,M,1100.00,M,M,M,M,KMGW 011520Z AUTO 30004KT 10SM OVC011 A3006 RMK MADISHF
MGW,2017-04-01 15:25,-79.9163,39.6429,M,M,M,310.00,5.00,M,30.06,M,10.00,M,OVC,M,M,M,1100.00,M,M,M,M,KMGW 011525Z AUTO 31005KT 10SM OVC011 A3006 RMK VRB05KT  MADISHF
MGW,2017-04-01 15:30,-79.9163,39.6429,M,M,M,310.00,4.00,M,30.07,M,10.00,M,OVC,M,M,M,999.00,M,M,M,M,KMGW 011530Z AUTO 31004KT 10SM OVC009 A3007 RMK MADISHF
MGW,2017-04-01 15:35,-79.9163,39.6429,M,M,M,300.00,4.00,M,30.06,M,10.00,M,OVC,M,M,M,999.00,M,M,M,M,KMGW 011535Z AUTO 30004KT 10SM OVC009 A3006 RMK MADISHF
MGW,2017-04-01 15:40,-79.9163,39.6429,M,M,M,310.00,7.00,M,30.06,M,10.00,M,OVC,M,M,M,999.00,M,M,M,M,KMGW 011540Z AUTO 31007KT 10SM OVC009 A3006 RMK CIG 9V13  MADISHF
MGW,2017-04-01 15:45,-79.9163,39.6429,M,M,M,300.00,6.00,M,30.07,M,10.00,M,OVC,M,M,M,999.00,M,M,M,M,KMGW 011545Z AUTO 30006KT 10SM OVC009 A3007 RMK CIG 9V13  MADISHF
MGW,2017-04-01 15:50,-79.9163,39.6429,M,M,M,300.00,5.00,M,30.07,M,10.00,M,OVC,M,M,M,999.00,M,M,M,M,KMGW 011550Z AUTO 30005KT 10SM OVC009 A3007 RMK MADISHF
MGW,2017-04-01 15:53,-79.9163,39.6429,42.10,37.00,81.98,310.00,5.00,0.00,30.07,1018.60,10.00,M,OVC,M,M,M,1000.00,M,M,M,M,KMGW 011553Z 31005KT 10SM OVC010 06/03 A3007 RMK AO2 CIG 009V013 SLP186 T00560028
MGW,2017-04-01 15:55,-79.9163,39.6429,M,M,M,300.00,5.00,M,30.07,M,10.00,M,OVC,M,M,M,999.00,M,M,M,M,KMGW 011555Z AUTO 30005KT 10SM OVC009 A3007 RMK CIG 8V13  MADISHF
MGW,2017-04-01 16:00,-79.9163,39.6429,M,M,M,310.00,3.00,M,30.06,M,10.00,M,OVC,M,M,M,999.00,M,M,M,M,KMGW 011600Z AUTO 31003KT 10SM OVC009 A3006 RMK VRB03KT CIG 8V13  MADISHF
MGW,2017-04-01 16:05,-79.9163,39.6429,M,M,M,310.00,3.00,M,30.06,M,10.00,M,OVC,M,M,M,800.00,M,M,M,M,KMGW 011605Z AUTO 31003KT 10SM OVC008 A3006 RMK CIG 7V12  MADISHF
MGW,2017-04-01 16:07,-79.9163,39.6429,41.00,37.00,85.54,M,4.00,0.00,30.06,M,10.00,M,OVC,M,M,M,800.00,M,M,M,M,KMGW 011607Z VRB04KT 10SM OVC008 05/03 A3006 RMK AO2 CIG 007V012 T00500028
MGW,2017-04-01 16:10,-79.9163,39.6429,M,M,M,310.00,4.00,M,30.06,M,10.00,M,OVC,M,M,M,800.00,M,M,M,M,KMGW 011610Z AUTO 31004KT 10SM OVC008 A3006 RMK CIG 7V10  MADISHF
MGW,2017-04-01 16:15,-79.9163,39.6429,M,M,M,320.00,4.00,M,30.06,M,9.00,M,OVC,M,M,M,800.00,M,M,M,M,KMGW 011615Z AUTO 32004KT 9SM OVC008 A3006 RMK CIG 6V11  MADISHF
MGW,2017-04-01 16:20,-79.9163,39.6429,M,M,M,320.00,3.00,M,30.06,M,8.00,M,OVC,M,M,M,700.00,M,M,M,M,KMGW 011620Z AUTO 32003KT 8SM OVC007 A3006 RMK VRB03KT CIG 6V10  MADISHF
MGW,2017-04-01 16:25,-79.9163,39.6429,M,M,M,320.00,3.00,M,30.06,M,7.00,M,OVC,M,M,M,700.00,M,M,M,M,KMGW 011625Z AUTO 32003KT 7SM OVC007 A3006 RMK MADISHF
MGW,2017-04-01 16:30,-79.9163,39.6429,M,M,M,300.00,4.00,M,30.06,M,7.00,M,OVC,M,M,M,700.00,M,M,M,M,KMGW 011630Z AUTO 30004KT 7SM OVC007 A3006 RMK MADISHF
MGW,2017-04-01 16:35,-79.9163,39.6429,M,M,M,310.00,3.00,M,30.06,M,7.00,M,OVC,M,M,M,700.00,M,M,M,M,KMGW 011635Z AUTO 31003KT 7SM OVC007 A3006 RMK VRB03KT  MADISHF
MGW,2017-04-01 16:40,-79.9163,39.6429,M,M,M,310.00,3.00,M,30.06,M,7.00,M,OVC,M,M,M,700.00,M,M,M,M,KMGW 011640Z AUTO 31003KT 7SM OVC007 A3006 RMK VRB03KT  MADISHF
MGW,2017-04-01 16:45,-79.9163,39.6429,M,M,M,310.00,5.00,M,30.06,M,8.00,M,OVC,M,M,M,700.00,M,M,M,M,KMGW 011645Z AUTO 31005KT 8SM OVC007 A3006 RMK MADISHF
MGW,2017-04-01 16:50,-79.9163,39.6429,M,M,M,290.00,5.00,M,30.06,M,9.00,M,OVC,M,M,M,700.00,M,M,M,M,KMGW 011650Z AUTO 29005KT 9SM OVC007 A3006 RMK MADISHF
MGW,2017-04-01 16:53,-79.9163,39.6429,41.00,37.00,85.54,M,3.00,0.00,30.06,1018.30,10.00,M,OVC,M,M,M,700.00,M,M,M,M,KMGW 011653Z VRB03KT 10SM OVC007 05/03 A3006 RMK AO2 SLP183 T00500028
MGW,2017-04-01 16:55,-79.9163,39.6429,M,M,M,300.00,3.00,M,30.06,M,10.00,M,OVC,M,M,M,700.00,M,M,M,M,KMGW 011655Z AUTO 30003KT 10SM OVC007 A3006 RMK CIG 6V11  MADISHF
MGW,2017-04-01 17:00,-79.9163,39.6429,M,M,M,300.00,5.00,M,30.06,M,10.00,M,BKN,OVC,M,M,700.00,1300.00,M,M,M,KMGW 011700Z AUTO 30005KT 10SM BKN007 OVC013 A3006 RMK CIG 6V10  MADISHF
MGW,2017-04-01 17:05,-79.9163,39.6429,M,M,M,310.00,7.00,M,30.07,M,10.00,M,OVC,M,M,M,900.00,M,M,M,M,KMGW 011705Z AUTO 31007KT 10SM OVC009 A3007 RMK CIG 6V12  MADISHF
MGW,2017-04-01 17:10,-79.9163,39.6429,M,M,M,320.00,4.00,M,30.06,M,10.00,M,BKN,OVC,M,M,700.00,1300.00,M,M,M,KMGW 011710Z AUTO 32004KT 10SM BKN007 OVC013 A3006 RMK MADISHF
MGW,2017-04-01 17:15,-79.9163,39.6429,M,M,M,310.00,5.00,M,30.07,M,10.00,M,BKN,OVC,M,M,900.00,1300.00,M,M,M,KMGW 011715Z AUTO 31005KT 10SM BKN009 OVC013 A3007 RMK VRB05KT CIG 7V12  MADISHF
MGW,2017-04-01 17:20,-79.9163,39.6429,M,M,M,320.00,3.00,M,30.07,M,10.00,M,OVC,M,M,M,1300.00,M,M,M,M,KMGW 011720Z AUTO 32003KT 10SM OVC013 A3007 RMK MADISHF
MGW,2017-04-01 17:25,-79.9163,39.6429,M,M,M,320.00,4.00,M,30.07,M,10.00,M,OVC,M,M,M,1100.00,M,M,M,M,KMGW 011725Z AUTO 32004KT 10SM OVC011 A3007 RMK VRB04KT  MADISHF
MGW,2017-04-01 17:26,-79.9163,39.6429,42.10,37.00,81.98,M,3.00,0.00,30.07,M,10.00,M,OVC,M,M,M,1100.00,M,M,M,M,KMGW 011726Z VRB03KT 10SM OVC011 06/03 A3007 RMK AO2 T00560028
MGW,2017-04-01 17:30,-79.9163,39.6429,M,M,M,320.00,5.00,M,30.07,M,10.00,M,OVC,M,M,M,1100.00,M,M,M,M,KMGW 011730Z AUTO 32005KT 10SM OVC011 A3007 RMK MADISHF
MGW,2017-04-01 17:35,-79.9163,39.6429,M,M,M,300.00,3.00,M,30.08,M,10.00,M,OVC,M,M,M,1100.00,M,M,M,M,KMGW 011735Z AUTO 30003KT 10SM OVC011 A3008 RMK MADISHF
MGW,2017-04-01 17:40,-79.9163,39.6429,M,M,M,300.00,4.00,M,30.08,M,10.00,M,OVC,M,M,M,1100.00,M,M,M,M,KMGW 011740Z AUTO 30004KT 10SM OVC011 A3008 RMK MADISHF
MGW,2017-04-01 17:45,-79.9163,39.6429,M,M,M,310.00,4.00,M,30.08,M,10.00,M,OVC,M,M,M,1100.00,M,M,M,M,KMGW 011745Z AUTO 31004KT 10SM OVC011 A3008 RMK MADISHF
MGW,2017-04-01 17:50,-79.9163,39.6429,M,M,M,310.00,5.00,M,30.08,M,10.00,M,OVC,M,M,M,1100.00,M,M,M,M,KMGW 011750Z AUTO 31005KT 10SM OVC011 A3008 RMK VRB05KT  MADISHF
MGW,2017-04-01 17:53,-79.9163,39.6429,42.10,37.00,81.98,M,5.00,0.00,30.08,1019.20,10.00,M,OVC,M,M,M,1100.00,M,M,M,M,KMGW 011753Z VRB05KT 10SM OVC011 06/03 A3008 RMK AO2 SLP192 T00560028 10061 20050 53010
MGW,2017-04-01 17:55,-79.9163,39.6429,M,M,M,290.00,6.00,M,30.08,M,10.00,M,OVC,M,M,M,1100.00,M,M,M,M,KMGW 011755Z AUTO 29006KT 10SM OVC011 A3008 RMK MADISHF
MGW,2017-04-01 18:00,-79.9163,39.6429,M,M,M,290.00,5.00,M,30.08,M,10.00,M,OVC,M,M,M,1300.00,M,M,M,M,KMGW 011800Z AUTO 29005KT 10SM OVC013 A3008 RMK MADISHF
MGW,2017-04-01 18:05,-79.9163,39.6429,M,M,M,290.00,5.00,M,30.08,M,10.00,M,OVC,M,M,M,1300.00,M,M,M,M,KMGW 011805Z AUTO 29005KT 10SM OVC013 A3008 RMK MADISHF
MGW,2017-04-01 18:10,-79.9163,39.6429,M,M,M,290.00,5.00,M,30.08,M,10.00,M,OVC,M,M,M,1300.00,M,M,M,M,KMGW 011810Z AUTO 29005KT 10SM OVC013 A3008 RMK VRB05KT  MADISHF
MGW,2017-04-01 18:15,-79.9163,39.6429,M,M,M,280.00,4.00,M,30.08,M,10.00,M,OVC,M,M,M,1400.00,M,M,M,M,KMGW 011815Z AUTO 28004KT 10SM OVC014 A3008 RMK MADISHF
MGW,2017-04-01 18:20,-79.9163,39.6429,M,M,M,290.00,4.00,M,30.09,M,10.00,M,OVC,M,M,M,1400.00,M,M,M,M,KMGW 011820Z AUTO 29004KT 10SM OVC014 A3009 RMK MADISHF
MGW,2017-04-01 18:25,-79.9163,39.6429,M,M,M,280.00,5.00,M,30.08,M,10.00,M,OVC,M,M,M,1400.00,M,M,M,M,KMGW 011825Z AUTO 28005KT 10SM OVC014 A3008 RMK MADISHF
MGW,2017-04-01 18:30,-79.9163,39.6429,M,M,M,260.00,5.00,M,30.08,M,10.00,M,OVC,M,M,M,1400.00,M,M,M,M,KMGW 011830Z AUTO 26005KT 10SM OVC014 A3008 RMK VRB05KT  MADISHF
MGW,2017-04-01 18:35,-79.9163,39.6429,M,M,M,270.00,4.00,M,30.08,M,10.00,M,OVC,M,M,M,1300.00,M,M,M,M,KMGW 011835Z AUTO 27004KT 10SM OVC013 A3008 RMK MADISHF
MGW,2017-04-01 18:40,-79.9163,39.6429,M,M,M,290.00,6.00,M,30.08,M,10.00,M,OVC,M,M,M,1300.00,M,M,M,M,KMGW 011840Z AUTO 29006KT 10SM OVC013 A3008 RMK MADISHF
MGW,2017-04-01 18:45,-79.9163,39.6429,M,M,M,260.00,6.00,M,30.08,M,10.00,M,OVC,M,M,M,1300.00,M,M,M,M,KMGW 011845Z AUTO 26006KT 10SM OVC013 A3008 RMK VRB06KT  MADISHF
MGW,2017-04-01 18:50,-79.9163,39.6429,M,M,M,270.00,7.00,M,30.08,M,10.00,M,OVC,M,M,M,1300.00,M,M,M,M,KMGW 011850Z AUTO 27007KT 10SM OVC013 A3008 RMK MADISHF
MGW,2017-04-01 18:53,-79.9163,39.6429,42.10,36.00,78.80,280.00,6.00,0.00,30.08,1019.10,10.00,M,OVC,M,M,M,1300.00,M,M,M,M,KMGW 011853Z 28006KT 10SM OVC013 06/02 A3008 RMK AO2 SLP191 T00560022
MGW,2017-04-01 18:55,-79.9163,39.6429,M,M,M,270.00,6.00,M,30.08,M,10.00,M,OVC,M,M,M,1300.00,M,M,M,M,KMGW 011855Z AUTO 27006KT 10SM OVC013 A3008 RMK MADISHF
MGW,2017-04-01 19:00,-79.9163,39.6429,M,M,M,290.00,7.00,M,30.08,M,10.00,M,OVC,M,M,M,1300.00,M,M,M,M,KMGW 011900Z AUTO 29007KT 10SM OVC013 A3008 RMK MADISHF
MGW,2017-04-01 19:05,-79.9163,39.6429,M,M,M,290.00,6.00,M,30.08,M,10.00,M,OVC,M,M,M,1300.00,M,M,M,M,KMGW 011905Z AUTO 29006KT 10SM OVC013 A3008 RMK MADISHF
MGW,2017-04-01 19:10,-79.9163,39.6429,M,M,M,300.00,5.00,M,30.08,M,10.00,M,OVC,M,M,M,1300.00,M,M,M,M,KMGW 011910Z AUTO 30005KT 10SM OVC013 A3008 RMK MADISHF
MGW,2017-04-01 19:15,-79.9163,39.6429,M,M,M,310.00,6.00,M,30.09,M,10.00,M,OVC,M,M,M,1500.00,M,M,M,M,KMGW 011915Z AUTO 31006KT 10SM OVC015 A3009 RMK MADISHF
MGW,2017-04-01 19:20,-79.9163,39.6429,M,M,M,310.00,3.00,M,30.08,M,10.00,M,OVC,M,M,M,1500.00,M,M,M,M,KMGW 011920Z AUTO 31003KT 10SM OVC015 A3008 RMK VRB03KT  MADISHF
MGW,2017-04-01 19:25,-79.9163,39.6429,M,M,M,300.00,4.00,M,30.08,M,10.00,M,OVC,M,M,M,1500.00,M,M,M,M,KMGW 011925Z AUTO 30004KT 10SM OVC015 A3008 RMK VRB04KT  MADISHF
MGW,2017-04-01 19:30,-79.9163,39.6429,M,M,M,300.00,6.00,M,30.08,M,10.00,M,OVC,M,M,M,1500.00,M,M,M,M,KMGW 011930Z AUTO 30006KT 10SM OVC015 A3008 RMK VRB06KT  MADISHF
MGW,2017-04-01 19:35,-79.9163,39.6429,M,M,M,290.00,4.00,M,30.08,M,10.00,M,OVC,M,M,M,1500.00,M,M,M,M,KMGW 011935Z AUTO 29004KT 10SM OVC015 A3008 RMK VRB04KT  MADISHF
MGW,2017-04-01 19:40,-79.9163,39.6429,M,M,M,290.00,5.00,M,30.09,M,10.00,M,OVC,M,M,M,1500.00,M,M,M,M,KMGW 011940Z AUTO 29005KT 10SM OVC015 A3009 RMK VRB05KT  MADISHF
MGW,2017-04-01 19:45,-79.9163,39.6429,M,M,M,290.00,4.00,M,30.09,M,10.00,M,OVC,M,M,M,1500.00,M,M,M,M,KMGW 011945Z AUTO 29004KT 10SM OVC015 A3009 RMK VRB04KT  MADISHF
MGW,2017-04-01 19:50,-79.9163,39.6429,M,M,M,290.00,6.00,M,30.09,M,10.00,M,OVC,M,M,M,1500.00,M,M,M,M,KMGW 011950Z AUTO 29006KT 10SM OVC015 A3009 RMK MADISHF
MGW,2017-04-01 19:53,-79.9163,39.6429,44.10,36.00,72.99,M,3.00,0.00,30.09,1019.30,10.00,M,OVC,M,M,M,1500.00,M,M,M,M,KMGW 011953Z VRB03KT 10SM OVC015 07/02 A3009 RMK AO2 SLP193 T00670022
MGW,2017-04-01 19:55,-79.9163,39.6429,M,M,M,300.00,3.00,M,30.09,M,10.00,M,OVC,M,M,M,1699.00,M,M,M,M,KMGW 011955Z AUTO 30003KT 10SM OVC016 A3009 RMK VRB03KT  MADISHF
MGW,2017-04-01 20:00,-79.9163,39.6429,M,M,M,300.00,4.00,M,30.09,M,10.00,M,OVC,M,M,M,1699.00,M,M,M,M,KMGW 012000Z AUTO 30004KT 10SM OVC016 A3009 RMK VRB04KT  MADISHF
MGW,2017-04-01 20:05,-79.9163,39.6429,M,M,M,310.00,4.00,M,30.09,M,10.00,M,OVC,M,M,M,1900.00,M,M,M,M,KMGW 012005Z AUTO 31004KT 10SM OVC019 A3009 RMK MADISHF
MGW,2017-04-01 20:10,-79.9163,39.6429,M,M,M,290.00,4.00,M,30.09,M,10.00,M,OVC,M,M,M,1900.00,M,M,M,M,KMGW 012010Z AUTO 29004KT 10SM OVC019 A3009 RMK MADISHF
MGW,2017-04-01 20:15,-79.9163,39.6429,M,M,M,290.00,6.00,M,30.09,M,10.00,M,OVC,M,M,M,1699.00,M,M,M,M,KMGW 012015Z AUTO 29006KT 10SM OVC016 A3009 RMK MADISHF
MGW,2017-04-01 20:20,-79.9163,39.6429,M,M,M,300.00,5.00,M,30.09,M,10.00,M,BKN,OVC,M,M,1699.00,2100.00,M,M,M,KMGW 012020Z AUTO 30005KT 10SM BKN016 OVC021 A3009 RMK MADISHF
MGW,2017-04-01 20:25,-79.9163,39.6429,M,M,M,280.00,5.00,M,30.09,M,10.00,M,OVC,M,M,M,1699.00,M,M,M,M,KMGW 012025Z AUTO 28005KT 10SM OVC016 A3009 RMK MADISHF
MGW,2017-04-01 20:30,-79.9163,39.6429,M,M,M,280.00,5.00,M,30.09,M,10.00,M,OVC,M,M,M,1699.00,M,M,M,M,KMGW 012030Z AUTO 28005KT 10SM OVC016 A3009 RMK MADISHF
MGW,2017-04-01 20:35,-79.9163,39.6429,M,M,M,280.00,7.00,M,30.10,M,10.00,M,OVC,M,M,M,1699.00,M,M,M,M,KMGW 012035Z AUTO 28007KT 10SM OVC016 A3010 RMK MADISHF
MGW,2017-04-01 20:40,-79.9163,39.6429,M,M,M,270.00,6.00,M,30.10,M,10.00,M,OVC,M,M,M,1699.00,M,M,M,M,KMGW 012040Z AUTO 27006KT 10SM OVC016 A3010 RMK MADISHF
MGW,2017-04-01 20:45,-79.9163,39.6429,M,M,M,280.00,6.00,M,30.11,M,10.00,M,OVC,M,M,M,1699.00,M,M,M,M,KMGW 012045Z AUTO 28006KT 10SM OVC016 A3011 RMK MADISHF
MGW,2017-04-01 20:50,-79.9163,39.6429,M,M,M,290.00,6.00,M,30.11,M,10.00,M,OVC,M,M,M,1699.00,M,M,M,M,KMGW 012050Z AUTO 29006KT 10SM OVC016 A3011 RMK VRB06KT  MADISHF
MGW,2017-04-01 20:53,-79.9163,39.6429,44.10,36.00,72.99,290.00,9.00,0.00,30.11,1020.30,10.00,M,OVC,M,M,M,1700.00,M,M,M,M,KMGW 012053Z 29009KT 10SM OVC017 07/02 A3011 RMK AO2 SLP203 T00670022 53010
MGW,2017-04-01 20:55,-79.9163,39.6429,M,M,M,290.00,7.00,M,30.11,M,10.00,M,OVC,M,M,M,1699.00,M,M,M,M,KMGW 012055Z AUTO 29007KT 10SM OVC016 A3011 RMK MADISHF
MGW,2017-04-01 21:00,-79.9163,39.6429,M,M,M,310.00,3.00,M,30.12,M,10.00,M,OVC,M,M,M,1699.00,M,M,M,M,KMGW 012100Z AUTO 31003KT 10SM OVC016 A3012 RMK VRB03KT  MADISHF
MGW,2017-04-01 21:05,-79.9163,39.6429,M,M,M,300.00,6.00,M,30.12,M,10.00,M,OVC,M,M,M,1699.00,M,M,M,M,KMGW 012105Z AUTO 30006KT 10SM OVC016 A3012 RMK VRB06KT  MADISHF
MGW,2017-04-01 21:10,-79.9163,39.6429,M,M,M,290.00,4.00,M,30.12,M,10.00,M,OVC,M,M,M,1699.00,M,M,M,M,KMGW 012110Z AUTO 29004KT 10SM OVC016 A3012 RMK MADISHF
MGW,2017-04-01 21:15,-79.9163,39.6429,M,M,M,280.00,6.00,M,30.12,M,10.00,M,OVC,M,M,M,1699.00,M,M,M,M,KMGW 012115Z AUTO 28006KT 10SM OVC016 A3012 RMK VRB06KT  MADISHF
MGW,2017-04-01 21:20,-79.9163,39.6429,M,M,M,270.00,7.00,M,30.12,M,10.00,M,OVC,M,M,M,1699.00,M,M,M,M,KMGW 012120Z AUTO 27007KT 10SM OVC016 A3012 RMK MADISHF
MGW,2017-04-01 21:25,-79.9163,39.6429,M,M,M,280.00,8.00,M,30.13,M,10.00,M,OVC,M,M,M,1699.00,M,M,M,M,KMGW 012125Z AUTO 28008KT 10SM OVC016 A3013 RMK MADISHF
MGW,2017-04-01 21:30,-79.9163,39.6429,M,M,M,290.00,6.00,M,30.13,M,10.00,M,OVC,M,M,M,1699.00,M,M,M,M,KMGW 012130Z AUTO 29006KT 10SM OVC016 A3013 RMK MADISHF
MGW,2017-04-01 21:35,-79.9163,39.6429,M,M,M,300.00,6.00,M,30.13,M,10.00,M,OVC,M,M,M,1699.00,M,M,M,M,KMGW 012135Z AUTO 30006KT 10SM OVC016 A3013 RMK VRB06KT  MADISHF
MGW,2017-04-01 21:40,-79.9163,39.6429,M,M,M,290.00,5.00,M,30.13,M,10.00,M,OVC,M,M,M,1699.00,M,M,M,M,KMGW 012140Z AUTO 29005KT 10SM OVC016 A3013 RMK MADISHF
MGW,2017-04-01 21:45,-79.9163,39.6429,M,M,M,310.00,3.00,M,30.14,M,10.00,M,OVC,M,M,M,1699.00,M,M,M,M,KMGW 012145Z AUTO 31003KT 10SM OVC016 A3014 RMK VRB03KT  MADISHF
MGW,2017-04-01 21:50,-79.9163,39.6429,M,M,M,270.00,6.00,M,30.14,M,10.00,M,OVC,M,M,M,1699.00,M,M,M,M,KMGW 012150Z AUTO 27006KT 10SM OVC016 A3014 RMK MADISHF
MGW,2017-04-01 21:53,-79.9163,39.6429,44.10,36.00,72.99,290.00,7.00,0.00,30.14,1021.20,10.00,M,OVC,M,M,M,1700.00,M,M,M,M,KMGW 012153Z 29007KT 260V330 10SM OVC017 07/02 A3014 RMK AO2 SLP212 T00670022
MGW,2017-04-01 21:55,-79.9163,39.6429,M,M,M,290.00,4.00,M,30.14,M,10.00,M,OVC,M,M,M,1699.00,M,M,M,M,KMGW 012155Z AUTO 29004KT 10SM OVC016 A3014 RMK MADISHF
MGW,2017-04-01 22:00,-79.9163,39.6429,M,M,M,300.00,5.00,M,30.15,M,10.00,M,OVC,M,M,M,1699.00,M,M,M,M,KMGW 012200Z AUTO 30005KT 10SM OVC016 A3015 RMK MADISHF
MGW,2017-04-01 22:05,-79.9163,39.6429,M,M,M,300.00,5.00,M,30.15,M,10.00,M,OVC,M,M,M,1900.00,M,M,M,M,KMGW 012205Z AUTO 30005KT 10SM OVC019 A3015 RMK MADISHF
MGW,2017-04-01 22:10,-79.9163,39.6429,M,M,M,300.00,5.00,M,30.15,M,10.00,M,OVC,M,M,M,1900.00,M,M,M,M,KMGW 012210Z AUTO 30005KT 10SM OVC019 A3015 RMK VRB05KT  MADISHF
MGW,2017-04-01 22:15,-79.9163,39.6429,M,M,M,320.00,4.00,M,30.16,M,10.00,M,OVC,M,M,M,1900.00,M,M,M,M,KMGW 012215Z AUTO 32004KT 10SM OVC019 A3016 RMK MADISHF
MGW,2017-04-01 22:20,-79.9163,39.6429,M,M,M,310.00,5.00,M,30.16,M,10.00,M,OVC,M,M,M,1900.00,M,M,M,M,KMGW 012220Z AUTO 31005KT 10SM OVC019 A3016 RMK MADISHF
MGW,2017-04-01 22:25,-79.9163,39.6429,M,M,M,300.00,5.00,M,30.16,M,10.00,M,OVC,M,M,M,2100.00,M,M,M,M,KMGW 012225Z AUTO 30005KT 10SM OVC021 A3016 RMK MADISHF
MGW,2017-04-01 22:30,-79.9163,39.6429,M,M,M,300.00,4.00,M,30.16,M,10.00,M,OVC,M,M,M,1900.00,M,M,M,M,KMGW 012230Z AUTO 30004KT 10SM OVC019 A3016 RMK MADISHF
MGW,2017-04-01 22:35,-79.9163,39.6429,M,M,M,310.00,3.00,M,30.16,M,10.00,M,BKN,OVC,M,M,1900.00,2500.00,M,M,M,KMGW 012235Z AUTO 31003KT 10SM BKN019 OVC025 A3016 RMK MADISHF
MGW,2017-04-01 22:40,-79.9163,39.6429,M,M,M,300.00,4.00,M,30.16,M,10.00,M,BKN,OVC,M,M,1900.00,2500.00,M,M,M,KMGW 012240Z AUTO 30004KT 10SM BKN019 OVC025 A3016 RMK VRB04KT  MADISHF
MGW,2017-04-01 22:45,-79.9163,39.6429,M,M,M,310.00,4.00,M,30.17,M,10.00,M,OVC,M,M,M,1900.00,M,M,M,M,KMGW 012245Z AUTO 31004KT 10SM OVC019 A3017 RMK MADISHF
MGW,2017-04-01 22:50,-79.9163,39.6429,M,M,M,310.00,5.00,M,30.17,M,10.00,M,OVC,M,M,M,1900.00,M,M,M,M,KMGW 012250Z AUTO 31005KT 10SM OVC019 A3017 RMK MADISHF
MGW,2017-04-01 22:53,-79.9163,39.6429,44.10,36.00,72.99,310.00,7.00,0.00,30.17,1022.10,10.00,M,OVC,M,M,M,1900.00,M,M,M,M,KMGW 012253Z 31007KT 10SM OVC019 07/02 A3017 RMK AO2 SLP221 T00670022
MGW,2017-04-01 22:55,-79.9163,39.6429,M,M,M,320.00,6.00,M,30.17,M,10.00,M,OVC,M,M,M,1900.00,M,M,M,M,KMGW 012255Z AUTO 32006KT 10SM OVC019 A3017 RMK MADISHF
MGW,2017-04-01 23:00,-79.9163,39.6429,M,M,M,310.00,6.00,M,30.17,M,10.00,M,OVC,M,M,M,1900.00,M,M,M,M,KMGW 012300Z AUTO 31006KT 10SM OVC019 A3017 RMK MADISHF
MGW,2017-04-01 23:05,-79.9163,39.6429,M,M,M,310.00,5.00,M,30.17,M,10.00,M,OVC,M,M,M,1900.00,M,M,M,M,KMGW 012305Z AUTO 31005KT 10SM OVC019 A3017 RMK MADISHF
MGW,2017-04-01 23:10,-79.9163,39.6429,M,M,M,300.00,6.00,M,30.18,M,10.00,M,OVC,M,M,M,1900.00,M,M,M,M,KMGW 012310Z AUTO 30006KT 10SM OVC019 A3018 RMK MADISHF
MGW,2017-04-01 23:15,-79.9163,39.6429,M,M,M,300.00,5.00,M,30.18,M,10.00,M,OVC,M,M,M,2100.00,M,M,M,M,KMGW 012315Z AUTO 30005KT 10SM OVC021 A3018 RMK MADISHF
MGW,2017-04-01 23:20,-79.9163,39.6429,M,M,M,310.00,5.00,M,30.18,M,10.00,M,OVC,M,M,M,2100.00,M,M,M,M,KMGW 012320Z AUTO 31005KT 10SM OVC021 A3018 RMK VRB05KT  MADISHF
MGW,2017-04-01 23:25,-79.9163,39.6429,M,M,M,310.00,5.00,M,30.18,M,10.00,M,OVC,M,M,M,1900.00,M,M,M,M,KMGW 012325Z AUTO 31005KT 10SM OVC019 A3018 RMK MADISHF
MGW,2017-04-01 23:30,-79.9163,39.6429,M,M,M,300.00,7.00,M,30.18,M,10.00,M,OVC,M,M,M,2100.00,M,M,M,M,KMGW 012330Z AUTO 30007KT 10SM OVC021 A3018 RMK MADISHF
MGW,2017-04-01 23:35,-79.9163,39.6429,M,M,M,310.00,5.00,M,30.18,M,10.00,M,OVC,M,M,M,2100.00,M,M,M,M,KMGW 012335Z AUTO 31005KT 10SM OVC021 A3018 RMK MADISHF
MGW,2017-04-01 23:40,-79.9163,39.6429,M,M,M,310.00,6.00,M,30.18,M,10.00,M,OVC,M,M,M,1900.00,M,M,M,M,KMGW 012340Z AUTO 31006KT 10SM OVC019 A3018 RMK VRB06KT  MADISHF
MGW,2017-04-01 23:45,-79.9163,39.6429,M,M,M,310.00,4.00,M,30.18,M,10.00,M,OVC,M,M,M,1900.00,M,M,M,M,KMGW 012345Z AUTO 31004KT 10SM OVC019 A3018 RMK MADISHF
MGW,2017-04-01 23:50,-79.9163,39.6429,M,M,M,320.00,4.00,M,30.18,M,10.00,M,OVC,M,M,M,1900.00,M,M,M,M,KMGW 012350Z AUTO 32004KT 10SM OVC019 A3018 RMK VRB04KT  MADISHF
MGW,2017-04-01 23:53,-79.9163,39.6429,43.00,35.10,73.45,M,5.00,0.00,30.18,1022.70,10.00,M,OVC,M,M,M,1900.00,M,M,M,M,KMGW 012353Z VRB05KT 10SM OVC019 06/02 A3018 RMK AO2 SLP227 T00610017 10072 20056 51023
MGW,2017-04-01 23:55,-79.9163,39.6429,M,M,M,320.00,3.00,M,30.19,M,10.00,M,OVC,M,M,M,1900.00,M,M,M,M,KMGW 012355Z AUTO 32003KT 10SM OVC019 A3019 RMK VRB03KT  MADISHF
