#DEBUG: Format Typ    -> comma
#DEBUG: Time Period   -> 2017-04-01 00:00:00+00:00 2017-04-02 00:00:00+00:00
#DEBUG: Time Zone     -> Etc/UTC
#DEBUG: Data Contact   -> daryl herzmann akrherz@iastate.edu 515-294-5978
#DEBUG: Entries Found -> -1
station,valid,lon,lat,tmpf, dwpf, relh, drct, sknt, p01i, alti, mslp, vsby, gust, skyc1, skyc2, skyc3, skyc4, skyl1, skyl2, skyl3, skyl4, presentwx, metar
MHE,2017-04-01 00:00,-98.0386,43.7748,M,M,M,50.00,8.00,M,30.05,M,10.00,M,CLR,M,M,M,M,M,M,M,M,KMHE 010000Z AUTO 05008KT 10SM CLR A3005 RMK MADISHF
MHE,2017-04-01 00:05,-98.0386,43.7748,M,M,M,60.00,7.00,M,30.05,M,10.00,M,CLR,M,M,M,M,M,M,M,M,KMHE 010005Z AUTO 06007KT 10SM CLR A3005 RMK MADISHF
MHE,2017-04-01 00:10,-98.0386,43.7748,M,M,M,60.00,10.00,M,30.05,M,10.00,M,CLR,M,M,M,M,M,M,M,M,KMHE 010010Z AUTO 06010KT 10SM CLR A3005 RMK MADISHF
MHE,2017-04-01 00:15,-98.0386,43.7748,M,M,M,60.00,9.00,M,30.06,M,10.00,M,CLR,M,M,M,M,M,M,M,M,KMHE 010015Z AUTO 06009KT 10SM CLR A3006 RMK MADISHF
MHE,2017-04-01 00:20,-98.0386,43.7748,M,M,M,60.00,8.00,M,30.06,M,10.00,M,CLR,M,M,M,M,M,M,M,M,KMHE 010020Z AUTO 06008KT 10SM CLR A3006 RMK MADISHF
MHE,2017-04-01 00:25,-98.0386,43.7748,M,M,M,70.00,8.00,M,30.06,M,10.00,M,CLR,M,M,M,M,M,M,M,M,KMHE 010025Z AUTO 07008KT 10SM CLR A3006 RMK MADISHF
MHE,2017-04-01 00:35,-98.0386,43.7748,M,M,M,60.00,7.00,M,30.06,M,10.00,M,CLR,M,M,M,M,M,M,M,M,KMHE 010035Z AUTO 06007KT 10SM CLR A3006 RMK MADISHF
MHE,2017-04-01 00:40,-98.0386,43.7748,M,M,M,50.00,6.00,M,30.07,M,10.00,M,CLR,M,M,M,M,M,M,M,M,KMHE 010040Z AUTO 05006KT 10SM CLR A3007 RMK MADISHF
MHE,2017-04-01 00:45,-98.0386,43.7748,M,M,M,40.00,6.00,M,30.07,M,10.00,M,CLR,M,M,M,M,M,M,M,M,KMHE 010045Z AUTO 04006KT 10SM CLR A3007 RMK MADISHF
MHE,2017-04-01 00:50,-98.0386,43.7748,M,M,M,30.00,4.00,M,30.07,M,10.00,M,CLR,M,M,M,M,M,M,M,M,KMHE 010050Z AUTO 03004KT 10SM CLR A3007 RMK MADISHF
MHE,2017-04-01 00:53,-98.0386,43.7748,51.10,28.90,42.16,20.00,4.00,0.00,30.08,1019.20,10.00,M,CLR,M,M,M,M,M,M,M,M,KMHE 010053Z AUTO 02004KT 10SM CLR 11/M02 A3008 RMK AO2 SLP192 T01061017
MHE,2017-04-01 00:55,-98.0386,43.7748,M,M,M,10.00,5.00,M,30.08,M,10.00,M,CLR,M,M,M,M,M,M,M,M,KMHE 010055Z AUTO 01005KT 10SM CLR A3008 RMK MADISHF
MHE,2017-04-01 01:00,-98.0386,43.7748,M,M,M,20.00,5.00,M,30.08,M,10.00,M,CLR,M,M,M,M,M,M,M,M,KMHE 010100Z AUTO 02005KT 10SM CLR A3008 RMK MADISHF
MHE,2017-04-01 01:05,-98.0386,43.7748,M,M,M,20.00,5.00,M,30.08,M,10.00,M,CLR,M,M,M,M,M,M,M,M,KMHE 010105Z AUTO 02005KT 10SM CLR A3008 RMK MADISHF
MHE,2017-04-01 01:10,-98.0386,43.7748,M,M,M,30.00,6.00,M,30.08,M,10.00,M,CLR,M,M,M,M,M,M,M,M,KMHE 010110Z AUTO 03006KT 10SM CLR A3008 RMK MADISHF
MHE,2017-04-01 01:15,-98.0386,43.7748,M,M,M,30.00,5.00,M,30.08,M,10.00,M,CLR,M,M,M,M,M,M,M,M,KMHE 010115Z AUTO 03005KT 10SM CLR A3008 RMK MADISHF
MHE,2017-04-01 01:20,-98.0386,43.7748,M,M,M,30.00,4.00,M,30.09,M,10.00,M,CLR,M,M,M,M,M,M,M,M,KMHE 010120Z AUTO 03004KT 10SM CLR A3009 RMK MADISHF
MHE,2017-04-01 01:30,-98.0386,43.7748,M,M,M,40.00,5.00,M,30.09,M,10.00,M,CLR,M,M,M,M,M,M,M,M,KMHE 010130Z AUTO 04005KT 10SM CLR A3009 RMK MADISHF
MHE,2017-04-01 01:35,-98.0386,43.7748,M,M,M,40.00,6.00,M,30.09,M,10.00,M,CLR,M,M,M,M,M,M,M,M,KMHE 010135Z AUTO 04006KT 10SM CLR A3009 RMK MADISHF
MHE,2017-04-01 01:40,-98.0386,43.7748,M,M,M,40.00,7.00,M,30.09,M,10.00,M,CLR,M,M,M,M,M,M,M,M,KMHE 010140Z AUTO 04007KT 10SM CLR A3009 RMK MADISHF
MHE,2017-04-01 01:45,-98.0386,43.7748,M,M,M,40.00,6.00,M,30.09,M,10.00,M,CLR,M,M,M,M,M,M,M,M,KMHE 010145Z AUTO 04006KT 10SM CLR A3009 RMK MADISHF
MHE,2017-04-01 01:50,-98.0386,43.7748,M,M,M,50.00,6.00,M,30.10,M,10.00,M,CLR,M,M,M,M,M,M,M,M,KMHE 010150Z AUTO 05006KT 10SM CLR A3010 RMK MADISHF
MHE,2017-04-01 01:53,-98.0386,43.7748,48.00,28.90,47.32,40.00,6.00,0.00,30.10,1019.90,10.00,M,CLR,M,M,M,M,M,M,M,M,KMHE 010153Z AUTO 04006KT 10SM CLR 09/M02 A3010 RMK AO2 SLP199 T00891017
MHE,2017-04-01 01:55,-98.0386,43.7748,M,M,M,40.00,6.00,M,30.10,M,10.00,M,CLR,M,M,M,M,M,M,M,M,KMHE 010155Z AUTO 04006KT 10SM CLR A3010 RMK MADISHF
MHE,2017-04-01 02:00,-98.0386,43.7748,M,M,M,30.00,5.00,M,30.10,M,10.00,M,CLR,M,M,M,M,M,M,M,M,KMHE 010200Z AUTO 03005KT 10SM CLR A3010 RMK MADISHF
MHE,2017-04-01 02:10,-98.0386,43.7748,M,M,M,40.00,5.00,M,30.11,M,10.00,M,CLR,M,M,M,M,M,M,M,M,KMHE 010210Z AUTO 04005KT 10SM CLR A3011 RMK MADISHF
MHE,2017-04-01 02:15,-98.0386,43.7748,M,M,M,50.00,5.00,M,30.11,M,10.00,M,CLR,M,M,M,M,M,M,M,M,KMHE 010215Z AUTO 05005KT 10SM CLR A3011 RMK MADISHF
MHE,2017-04-01 02:20,-98.0386,43.7748,M,M,M,60.00,3.00,M,30.11,M,10.00,M,CLR,M,M,M,M,M,M,M,M,KMHE 010220Z AUTO 06003KT 10SM CLR A3011 RMK MADISHF
MHE,2017-04-01 02:30,-98.0386,43.7748,M,M,M,60.00,3.00,M,30.12,M,10.00,M,CLR,M,M,M,M,M,M,M,M,KMHE 010230Z AUTO 06003KT 10SM CLR A3012 RMK MADISHF
MHE,2017-04-01 02:35,-98.0386,43.7748,M,M,M,60.00,4.00,M,30.12,M,10.00,M,CLR,M,M,M,M,M,M,M,M,KMHE 010235Z AUTO 06004KT 10SM CLR A3012 RMK MADISHF
MHE,2017-04-01 02:40,-98.0386,43.7748,M,M,M,70.00,3.00,M,30.12,M,10.00,M,CLR,M,M,M,M,M,M,M,M,KMHE 010240Z AUTO 07003KT 10SM CLR A3012 RMK MADISHF
MHE,2017-04-01 02:45,-98.0386,43.7748,M,M,M,80.00,4.00,M,30.12,M,10.00,M,CLR,M,M,M,M,M,M,M,M,KMHE 010245Z AUTO 08004KT 10SM CLR A3012 RMK MADISHF
MHE,2017-04-01 02:50,-98.0386,43.7748,M,M,M,70.00,4.00,M,30.12,M,10.00,M,CLR,M,M,M,M,M,M,M,M,KMHE 010250Z AUTO 07004KT 10SM CLR A3012 RMK MADISHF
MHE,2017-04-01 02:53,-98.0386,43.7748,46.90,28.90,49.32,70.00,4.00,0.00,30.13,1020.80,10.00,M,CLR,M,M,M,M,M,M,M,M,KMHE 010253Z AUTO 07004KT 10SM CLR 08/M02 A3013 RMK AO2 SLP208 T00831017 53024
MHE,2017-04-01 02:55,-98.0386,43.7748,M,M,M,70.00,3.00,M,30.13,M,10.00,M,CLR,M,M,M,M,M,M,M,M,KMHE 010255Z AUTO 07003KT 10SM CLR A3013 RMK MADISHF
MHE,2017-04-01 03:05,-98.0386,43.7748,M,M,M,70.00,3.00,M,30.13,M,10.00,M,CLR,M,M,M,M,M,M,M,M,KMHE 010305Z AUTO 07003KT 10SM CLR A3013 RMK MADISHF
MHE,2017-04-01 03:10,-98.0386,43.7748,M,M,M,60.00,3.00,M,30.13,M,10.00,M,CLR,M,M,M,M,M,M,M,M,KMHE 010310Z AUTO 06003KT 10SM CLR A3013 RMK MADISHF
MHE,2017-04-01 03:15,-98.0386,43.7748,M,M,M,60.00,3.00,M,30.13,M,10.00,M,CLR,M,M,M,M,M,M,M,M,KMHE 010315Z AUTO 06003KT 10SM CLR A3013 RMK MADISHF
MHE,2017-04-01 03:20,-98.0386,43.7748,M,M,M,70.00,3.00,M,30.13,M,10.00,M,CLR,M,M,M,M,M,M,M,M,KMHE 010320Z AUTO 07003KT 10SM CLR A3013 RMK MADISHF
MHE,2017-04-01 03:25,-98.0386,43.7748,M,M,M,70.00,3.00,M,30.14,M,10.00,M,CLR,M,M,M,M,M,M,M,M,KMHE 010325Z AUTO 07003KT 10SM CLR A3014 RMK MADISHF
MHE,2017-04-01 03:30,-98.0386,43.7748,M,M,M,60.00,3.00,M,30.14,M,10.00,M,CLR,M,M,M,M,M,M,M,M,KMHE 010330Z AUTO 06003KT 10SM CLR A3014 RMK MADISHF
MHE,2017-04-01 03:35,-98.0386,43.7748,M,M,M,60.00,3.00,M,30.14,M,10.00,M,CLR,M,M,M,M,M,M,M,M,KMHE 010335Z AUTO 06003KT 10SM CLR A3014 RMK MADISHF
MHE,2017-04-01 03:40,-98.0386,43.7748,M,M,M,60.00,3.00,M,30.14,M,10.00,M,CLR,M,M,M,M,M,M,M,M,KMHE 010340Z AUTO 06003KT 10SM CLR A3014 RMK MADISHF
MHE,2017-04-01 03:45,-98.0386,43.7748,M,M,M,70.00,4.00,M,30.14,M,10.00,M,CLR,M,M,M,M,M,M,M,M,KMHE 010345Z AUTO 07004KT 10SM CLR A3014 RMK MADISHF
MHE,2017-04-01 03:50,-98.0386,43.7748,M,M,M,80.00,3.00,M,30.14,M,10.00,M,CLR,M,M,M,M,M,M,M,M,KMHE 010350Z AUTO 08003KT 10SM CLR A3014 RMK MADISHF
MHE,2017-04-01 03:53,-98.0386,43.7748,46.00,30.90,55.36,80.00,4.00,0.00,30.14,1021.20,10.00,M,CLR,M,M,M,M,M,M,M,M,KMHE 010353Z AUTO 08004KT 10SM CLR 08/M01 A3014 RMK AO2 SLP212 T00781006
MHE,2017-04-01 03:55,-98.0386,43.7748,M,M,M,80.00,3.00,M,30.14,M,10.00,M,CLR,M,M,M,M,M,M,M,M,KMHE 010355Z AUTO 08003KT 10SM CLR A3014 RMK MADISHF
MHE,2017-04-01 04:00,-98.0386,43.7748,M,M,M,90.00,3.00,M,30.14,M,10.00,M,CLR,M,M,M,M,M,M,M,M,KMHE 010400Z AUTO 09003KT 10SM CLR A3014 RMK MADISHF
MHE,2017-04-01 04:05,-98.0386,43.7748,M,M,M,0.00,0.00,M,30.15,M,10.00,M,CLR,M,M,M,M,M,M,M,M,KMHE 010405Z AUTO 00000KT 10SM CLR A3015 RMK MADISHF
MHE,2017-04-01 04:10,-98.0386,43.7748,M,M,M,0.00,0.00,M,30.15,M,10.00,M,CLR,M,M,M,M,M,M,M,M,KMHE 010410Z AUTO 00000KT 10SM CLR A3015 RMK MADISHF
MHE,2017-04-01 04:15,-98.0386,43.7748,M,M,M,40.00,3.00,M,30.15,M,10.00,M,CLR,M,M,M,M,M,M,M,M,KMHE 010415Z AUTO 04003KT 10SM CLR A3015 RMK MADISHF
MHE,2017-04-01 04:20,-98.0386,43.7748,M,M,M,50.00,3.00,M,30.15,M,10.00,M,CLR,M,M,M,M,M,M,M,M,KMHE 010420Z AUTO 05003KT 10SM CLR A3015 RMK MADISHF
MHE,2017-04-01 04:25,-98.0386,43.7748,M,M,M,50.00,4.00,M,30.15,M,10.00,M,CLR,M,M,M,M,M,M,M,M,KMHE 010425Z AUTO 05004KT 10SM CLR A3015 RMK MADISHF
MHE,2017-04-01 04:30,-98.0386,43.7748,M,M,M,60.00,4.00,M,30.15,M,10.00,M,CLR,M,M,M,M,M,M,M,M,KMHE 010430Z AUTO 06004KT 10SM CLR A3015 RMK MADISHF
MHE,2017-04-01 04:35,-98.0386,43.7748,M,M,M,50.00,3.00,M,30.15,M,10.00,M,CLR,M,M,M,M,M,M,M,M,KMHE 010435Z AUTO 05003KT 10SM CLR A3015 RMK MADISHF
MHE,2017-04-01 04:40,-98.0386,43.7748,M,M,M,50.00,4.00,M,30.15,M,10.00,M,CLR,M,M,M,M,M,M,M,M,KMHE 010440Z AUTO 05004KT 10SM CLR A3015 RMK MADISHF
MHE,2017-04-01 04:45,-98.0386,43.7748,M,M,M,60.00,4.00,M,30.15,M,10.00,M,CLR,M,M,M,M,M,M,M,M,KMHE 010445Z AUTO 06004KT 10SM CLR A3015 RMK MADISHF
MHE,2017-04-01 04:50,-98.0386,43.7748,M,M,M,60.00,4.00,M,30.15,M,10.00,M,CLR,M,M,M,M,M,M,M,M,KMHE 010450Z AUTO 06004KT 10SM CLR A3015 RMK MADISHF
MHE,2017-04-01 04:53,-98.0386,43.7748,46.00,32.00,57.87,60.00,3.00,0.00,30.15,1021.60,10.00,M,CLR,M,M,M,M,M,M,M,M,KMHE 010453Z AUTO 06003KT 10SM CLR 08/00 A3015 RMK AO2 SLP216 T00780000
MHE,2017-04-01 04:55,-98.0386,43.7748,M,M,M,60.00,3.00,M,30.16,M,10.00,M,CLR,M,M,M,M,M,M,M,M,KMHE 010455Z AUTO 06003KT 10SM CLR A3016 RMK MADISHF
MHE,2017-04-01 05:00,-98.0386,43.7748,M,M,M,0.00,0.00,M,30.16,M,10.00,M,CLR,M,M,M,M,M,M,M,M,KMHE 010500Z AUTO 00000KT 10SM CLR A3016 RMK MADISHF
MHE,2017-04-01 05:05,-98.0386,43.7748,M,M,M,60.00,3.00,M,30.16,M,10.00,M,CLR,M,M,M,M,M,M,M,M,KMHE 010505Z AUTO 06003KT 10SM CLR A3016 RMK MADISHF
MHE,2017-04-01 05:15,-98.0386,43.7748,M,M,M,60.00,3.00,M,30.16,M,10.00,M,CLR,M,M,M,M,M,M,M,M,KMHE 010515Z AUTO 06003KT 10SM CLR A3016 RMK MADISHF
MHE,2017-04-01 05:20,-98.0386,43.7748,M,M,M,0.00,0.00,M,30.16,M,10.00,M,CLR,M,M,M,M,M,M,M,M,KMHE 010520Z AUTO 00000KT 10SM CLR A3016 RMK MADISHF
MHE,2017-04-01 05:25,-98.0386,43.7748,M,M,M,0.00,0.00,M,30.17,M,10.00,M,CLR,M,M,M,M,M,M,M,M,KMHE 010525Z AUTO 00000KT 10SM CLR A3017 RMK MADISHF
MHE,2017-04-01 05:30,-98.0386,43.7748,M,M,M,0.00,0.00,M,30.17,M,10.00,M,CLR,M,M,M,M,M,M,M,M,KMHE 010530Z AUTO 00000KT 10SM CLR A3017 RMK MADISHF
MHE,2017-04-01 05:35,-98.0386,43.7748,M,M,M,0.00,0.00,M,30.17,M,10.00,M,CLR,M,M,M,M,M,M,M,M,KMHE 010535Z AUTO 00000KT 10SM CLR A3017 RMK MADISHF
MHE,2017-04-01 05:40,-98.0386,43.7748,M,M,M,0.00,0.00,M,30.17,M,10.00,M,CLR,M,M,M,M,M,M,M,M,KMHE 010540Z AUTO 00000KT 10SM CLR A3017 RMK MADISHF
MHE,2017-04-01 05:45,-98.0386,43.7748,M,M,M,0.00,0.00,M,30.17,M,10.00,M,CLR,M,M,M,M,M,M,M,M,KMHE 010545Z AUTO 00000KT 10SM CLR A3017 RMK MADISHF
MHE,2017-04-01 05:50,-98.0386,43.7748,M,M,M,0.00,0.00,M,30.17,M,10.00,M,CLR,M,M,M,M,M,M,M,M,KMHE 010550Z AUTO 00000KT 10SM CLR A3017 RMK MADISHF
MHE,2017-04-01 05:53,-98.0386,43.7748,44.10,33.10,65.02,0.00,0.00,0.00,30.17,1022.20,10.00,M,CLR,M,M,M,M,M,M,M,M,KMHE 010553Z AUTO 00000KT 10SM CLR 07/01 A3017 RMK AO2 SLP222 T00670006 10139 20061 401670033 53016
MHE,2017-04-01 05:55,-98.0386,43.7748,M,M,M,0.00,0.00,M,30.17,M,10.00,M,CLR,M,M,M,M,M,M,M,M,KMHE 010555Z AUTO 00000KT 10SM CLR A3017 RMK MADISHF
MHE,2017-04-01 06:00,-98.0386,43.7748,M,M,M,0.00,0.00,M,30.18,M,10.00,M,CLR,M,M,M,M,M,M,M,M,KMHE 010600Z AUTO 00000KT 10SM CLR A3018 RMK MADISHF
MHE,2017-04-01 06:10,-98.0386,43.7748,M,M,M,0.00,0.00,M,30.18,M,10.00,M,CLR,M,M,M,M,M,M,M,M,KMHE 010610Z AUTO 00000KT 10SM CLR A3018 RMK MADISHF
MHE,2017-04-01 06:15,-98.0386,43.7748,M,M,M,0.00,0.00,M,30.18,M,10.00,M,CLR,M,M,M,M,M,M,M,M,KMHE 010615Z AUTO 00000KT 10SM CLR A3018 RMK MADISHF
MHE,2017-04-01 06:20,-98.0386,43.7748,M,M,M,0.00,0.00,M,30.18,M,10.00,M,CLR,M,M,M,M,M,M,M,M,KMHE 010620Z AUTO 00000KT 10SM CLR A3018 RMK MADISHF
MHE,2017-04-01 06:30,-98.0386,43.7748,M,M,M,310.00,3.00,M,30.19,M,10.00,M,CLR,M,M,M,M,M,M,M,M,KMHE 010630Z AUTO 31003KT 10SM CLR A3019 RMK MADISHF
MHE,2017-04-01 06:35,-98.0386,43.7748,M,M,M,300.00,3.00,M,30.19,M,10.00,M,CLR,M,M,M,M,M,M,M,M,KMHE 010635Z AUTO 30003KT 10SM CLR A3019 RMK MADISHF
MHE,2017-04-01 06:45,-98.0386,43.7748,M,M,M,0.00,0.00,M,30.19,M,10.00,M,CLR,M,M,M,M,M,M,M,M,KMHE 010645Z AUTO 00000KT 10SM CLR A3019 RMK MADISHF
MHE,2017-04-01 06:50,-98.0386,43.7748,M,M,M,0.00,0.00,M,30.19,M,10.00,M,CLR,M,M,M,M,M,M,M,M,KMHE 010650Z AUTO 00000KT 10SM CLR A3019 RMK MADISHF
MHE,2017-04-01 06:53,-98.0386,43.7748,43.00,34.00,70.30,0.00,0.00,0.00,30.19,1022.90,10.00,M,CLR,M,M,M,M,M,M,M,M,KMHE 010653Z AUTO 00000KT 10SM CLR 06/01 A3019 RMK AO2 SLP229 T00610011
MHE,2017-04-01 06:55,-98.0386,43.7748,M,M,M,190.00,3.00,M,30.19,M,10.00,M,CLR,M,M,M,M,M,M,M,M,KMHE 010655Z AUTO 19003KT 10SM CLR A3019 RMK MADISHF
MHE,2017-04-01 07:05,-98.0386,43.7748,M,M,M,0.00,0.00,M,30.19,M,10.00,M,CLR,M,M,M,M,M,M,M,M,KMHE 010705Z AUTO 00000KT 10SM CLR A3019 RMK MADISHF
MHE,2017-04-01 07:10,-98.0386,43.7748,M,M,M,0.00,0.00,M,30.19,M,10.00,M,CLR,M,M,M,M,M,M,M,M,KMHE 010710Z AUTO 00000KT 10SM CLR A3019 RMK MADISHF
MHE,2017-04-01 07:15,-98.0386,43.7748,M,M,M,0.00,0.00,M,30.19,M,10.00,M,CLR,M,M,M,M,M,M,M,M,KMHE 010715Z AUTO 00000KT 10SM CLR A3019 RMK MADISHF
MHE,2017-04-01 07:20,-98.0386,43.7748,M,M,M,0.00,0.00,M,30.19,M,10.00,M,CLR,M,M,M,M,M,M,M,M,KMHE 010720Z AUTO 00000KT 10SM CLR A3019 RMK MADISHF
MHE,2017-04-01 07:25,-98.0386,43.7748,M,M,M,0.00,0.00,M,30.19,M,10.00,M,FEW,M,M,M,12000.00,M,M,M,M,KMHE 010725Z AUTO 00000KT 10SM FEW120 A3019 RMK MADISHF
MHE,2017-04-01 07:30,-98.0386,43.7748,M,M,M,0.00,0.00,M,30.19,M,10.00,M,SCT,M,M,M,12000.00,M,M,M,M,KMHE 010730Z AUTO 00000KT 10SM SCT120 A3019 RMK MADISHF
MHE,2017-04-01 07:35,-98.0386,43.7748,M,M,M,0.00,0.00,M,30.19,M,10.00,M,BKN,M,M,M,11000.00,M,M,M,M,KMHE 010735Z AUTO 00000KT 10SM BKN110 A3019 RMK MADISHF
MHE,2017-04-01 07:40,-98.0386,43.7748,M,M,M,0.00,0.00,M,30.19,M,10.00,M,BKN,M,M,M,11000.00,M,M,M,M,KMHE 010740Z AUTO 00000KT 10SM BKN110 A3019 RMK MADISHF
MHE,2017-04-01 07:45,-98.0386,43.7748,M,M,M,0.00,0.00,M,30.19,M,10.00,M,BKN,M,M,M,11000.00,M,M,M,M,KMHE 010745Z AUTO 00000KT 10SM BKN110 A3019 RMK MADISHF
MHE,2017-04-01 07:50,-98.0386,43.7748,M,M,M,0.00,0.00,M,30.19,M,10.00,M,OVC,M,M,M,10000.00,M,M,M,M,KMHE 010750Z AUTO 00000KT 10SM OVC100 A3019 RMK MADISHF
MHE,2017-04-01 07:53,-98.0386,43.7748,42.10,35.10,76.04,0.00,0.00,0.00,30.19,1022.70,10.00,M,OVC,M,M,M,10000.00,M,M,M,M,KMHE 010753Z AUTO 00000KT 10SM OVC100 06/02 A3019 RMK AO2 SLP227 T00560017
MHE,2017-04-01 07:55,-98.0386,43.7748,M,M,M,0.00,0.00,M,30.19,M,10.00,M,OVC,M,M,M,10000.00,M,M,M,M,KMHE 010755Z AUTO 00000KT 10SM OVC100 A3019 RMK MADISHF
MHE,2017-04-01 08:05,-98.0386,43.7748,M,M,M,0.00,0.00,M,30.19,M,10.00,M,OVC,M,M,M,10000.00,M,M,M,M,KMHE 010805Z AUTO 00000KT 10SM OVC100 A3019 RMK MADISHF
MHE,2017-04-01 08:10,-98.0386,43.7748,M,M,M,0.00,0.00,M,30.19,M,10.00,M,OVC,M,M,M,10000.00,M,M,M,M,KMHE 010810Z AUTO 00000KT 10SM OVC100 A3019 RMK MADISHF
MHE,2017-04-01 08:20,-98.0386,43.7748,M,M,M,0.00,0.00,M,30.20,M,10.00,M,OVC,M,M,M,10000.00,M,M,M,M,KMHE 010820Z AUTO 00000KT 10SM OVC100 A3020 RMK MADISHF
MHE,2017-04-01 08:25,-98.0386,43.7748,M,M,M,0.00,0.00,M,30.20,M,10.00,M,OVC,M,M,M,10000.00,M,M,M,M,KMHE 010825Z AUTO 00000KT 10SM OVC100 A3020 RMK MADISHF
MHE,2017-04-01 08:30,-98.0386,43.7748,M,M,M,0.00,0.00,M,30.20,M,10.00,M,OVC,M,M,M,11000.00,M,M,M,M,KMHE 010830Z AUTO 00000KT 10SM OVC110 A3020 RMK MADISHF
MHE,2017-04-01 08:40,-98.0386,43.7748,M,M,M,0.00,0.00,M,30.20,M,10.00,M,OVC,M,M,M,11000.00,M,M,M,M,KMHE 010840Z AUTO 00000KT 10SM OVC110 A3020 RMK MADISHF
MHE,2017-04-01 08:45,-98.0386,43.7748,M,M,M,0.00,0.00,M,30.20,M,10.00,M,OVC,M,M,M,11000.00,M,M,M,M,KMHE 010845Z AUTO 00000KT 10SM OVC110 A3020 RMK MADISHF
MHE,2017-04-01 08:50,-98.0386,43.7748,M,M,M,0.00,0.00,M,30.20,M,10.00,M,BKN,M,M,M,11000.00,M,M,M,M,KMHE 010850Z AUTO 00000KT 10SM BKN110 A3020 RMK MADISHF
MHE,2017-04-01 08:53,-98.0386,43.7748,42.10,35.10,76.04,0.00,0.00,0.00,30.19,1023.00,10.00,M,BKN,M,M,M,11000.00,M,M,M,M,KMHE 010853Z AUTO 00000KT 10SM BKN110 06/02 A3019 RMK AO2 SLP230 T00560017 51007
MHE,2017-04-01 09:00,-98.0386,43.7748,M,M,M,0.00,0.00,M,30.20,M,10.00,M,BKN,M,M,M,11000.00,M,M,M,M,KMHE 010900Z AUTO 00000KT 10SM BKN110 A3020 RMK MADISHF
MHE,2017-04-01 09:05,-98.0386,43.7748,M,M,M,0.00,0.00,M,30.20,M,10.00,M,BKN,M,M,M,11000.00,M,M,M,M,KMHE 010905Z AUTO 00000KT 10SM BKN110 A3020 RMK MADISHF
MHE,2017-04-01 09:10,-98.0386,43.7748,M,M,M,0.00,0.00,M,30.20,M,10.00,M,BKN,M,M,M,11000.00,M,M,M,M,KMHE 010910Z AUTO 00000KT 10SM BKN110 A3020 RMK MADISHF
MHE,2017-04-01 09:15,-98.0386,43.7748,M,M,M,0.00,0.00,M,30.20,M,10.00,M,BKN,M,M,M,10000.00,M,M,M,M,KMHE 010915Z AUTO 00000KT 10SM BKN100 A3020 RMK MADISHF
MHE,2017-04-01 09:20,-98.0386,43.7748,M,M,M,0.00,0.00,M,30.19,M,10.00,M,OVC,M,M,M,10000.00,M,M,M,M,KMHE 010920Z AUTO 00000KT 10SM OVC100 A3019 RMK MADISHF
MHE,2017-04-01 09:25,-98.0386,43.7748,M,M,M,0.00,0.00,M,30.19,M,10.00,M,OVC,M,M,M,10000.00,M,M,M,M,KMHE 010925Z AUTO 00000KT 10SM OVC100 A3019 RMK MADISHF
MHE,2017-04-01 09:30,-98.0386,43.7748,M,M,M,0.00,0.00,M,30.19,M,10.00,M,OVC,M,M,M,10000.00,M,M,M,M,KMHE 010930Z AUTO 00000KT 10SM OVC100 A3019 RMK MADISHF
MHE,2017-04-01 09:35,-98.0386,43.7748,M,M,M,0.00,0.00,M,30.19,M,10.00,M,OVC,M,M,M,10000.00,M,M,M,M,KMHE 010935Z AUTO 00000KT 10SM OVC100 A3019 RMK MADISHF
MHE,2017-04-01 09:40,-98.0386,43.7748,M,M,M,0.00,0.00,M,30.19,M,10.00,M,BKN,OVC,M,M,10000.00,12000.00,M,M,M,KMHE 010940Z AUTO 00000KT 10SM BKN100 OVC120 A3019 RMK MADISHF
MHE,2017-04-01 09:45,-98.0386,43.7748,M,M,M,0.00,0.00,M,30.19,M,10.00,M,BKN,BKN,M,M,10000.00,12000.00,M,M,M,KMHE 010945Z AUTO 00000KT 10SM BKN100 BKN120 A3019 RMK MADISHF
MHE,2017-04-01 09:50,-98.0386,43.7748,M,M,M,0.00,0.00,M,30.19,M,10.00,M,BKN,BKN,M,M,10000.00,12000.00,M,M,M,KMHE 010950Z AUTO 00000KT 10SM BKN100 BKN120 A3019 RMK MADISHF
MHE,2017-04-01 09:53,-98.0386,43.7748,41.00,35.10,79.34,160.00,3.00,0.00,30.19,1022.90,10.00,M,BKN,BKN,M,M,10000.00,12000.00,M,M,M,KMHE 010953Z AUTO 16003KT 10SM BKN100 BKN120 05/02 A3019 RMK AO2 SLP229 T00500017
MHE,2017-04-01 09:55,-98.0386,43.7748,M,M,M,150.00,3.00,M,30.19,M,10.00,M,SCT,BKN,M,M,10000.00,12000.00,M,M,M,KMHE 010955Z AUTO 15003KT 10SM SCT100 BKN120 A3019 RMK MADISHF
MHE,2017-04-01 10:00,-98.0386,43.7748,M,M,M,160.00,3.00,M,30.19,M,10.00,M,SCT,BKN,M,M,10000.00,12000.00,M,M,M,KMHE 011000Z AUTO 16003KT 10SM SCT100 BKN120 A3019 RMK MADISHF
MHE,2017-04-01 10:05,-98.0386,43.7748,M,M,M,0.00,0.00,M,30.19,M,10.00,M,FEW,BKN,M,M,10000.00,12000.00,M,M,M,KMHE 011005Z AUTO 00000KT 10SM FEW100 BKN120 A3019 RMK MADISHF
MHE,2017-04-01 10:15,-98.0386,43.7748,M,M,M,0.00,0.00,M,30.20,M,10.00,M,BKN,M,M,M,12000.00,M,M,M,M,KMHE 011015Z AUTO 00000KT 10SM BKN120 A3020 RMK MADISHF
MHE,2017-04-01 10:20,-98.0386,43.7748,M,M,M,0.00,0.00,M,30.20,M,10.00,M,BKN,M,M,M,12000.00,M,M,M,M,KMHE 011020Z AUTO 00000KT 10SM BKN120 A3020 RMK MADISHF
MHE,2017-04-01 10:25,-98.0386,43.7748,M,M,M,0.00,0.00,M,30.21,M,10.00,M,OVC,M,M,M,12000.00,M,M,M,M,KMHE 011025Z AUTO 00000KT 10SM OVC120 A3021 RMK MADISHF
MHE,2017-04-01 10:30,-98.0386,43.7748,M,M,M,0.00,0.00,M,30.21,M,10.00,M,OVC,M,M,M,12000.00,M,M,M,M,KMHE 011030Z AUTO 00000KT 10SM OVC120 A3021 RMK MADISHF
MHE,2017-04-01 10:35,-98.0386,43.7748,M,M,M,0.00,0.00,M,30.21,M,10.00,M,OVC,M,M,M,11000.00,M,M,M,M,KMHE 011035Z AUTO 00000KT 10SM OVC110 A3021 RMK MADISHF
MHE,2017-04-01 10:40,-98.0386,43.7748,M,M,M,0.00,0.00,M,30.21,M,10.00,M,OVC,M,M,M,11000.00,M,M,M,M,KMHE 011040Z AUTO 00000KT 10SM OVC110 A3021 RMK MADISHF
MHE,2017-04-01 10:45,-98.0386,43.7748,M,M,M,0.00,0.00,M,30.21,M,10.00,M,OVC,M,M,M,11000.00,M,M,M,M,KMHE 011045Z AUTO 00000KT 10SM OVC110 A3021 RMK MADISHF
MHE,2017-04-01 10:50,-98.0386,43.7748,M,M,M,0.00,0.00,M,30.20,M,10.00,M,OVC,M,M,M,11000.00,M,M,M,M,KMHE 011050Z AUTO 00000KT 10SM OVC110 A3020 RMK MADISHF
MHE,2017-04-01 10:53,-98.0386,43.7748,41.00,35.10,79.34,0.00,0.00,0.00,30.20,1023.20,10.00,M,BKN,M,M,M,11000.00,M,M,M,M,KMHE 011053Z AUTO 00000KT 10SM BKN110 05/02 A3020 RMK AO2 SLP232 T00500017
MHE,2017-04-01 10:55,-98.0386,43.7748,M,M,M,0.00,0.00,M,30.20,M,10.00,M,BKN,M,M,M,11000.00,M,M,M,M,KMHE 011055Z AUTO 00000KT 10SM BKN110 A3020 RMK MADISHF
MHE,2017-04-01 11:00,-98.0386,43.7748,M,M,M,0.00,0.00,M,30.21,M,10.00,M,BKN,M,M,M,11000.00,M,M,M,M,KMHE 011100Z AUTO 00000KT 10SM BKN110 A3021 RMK MADISHF
MHE,2017-04-01 11:10,-98.0386,43.7748,M,M,M,0.00,0.00,M,30.21,M,10.00,M,BKN,M,M,M,11000.00,M,M,M,M,KMHE 011110Z AUTO 00000KT 10SM BKN110 A3021 RMK MADISHF
MHE,2017-04-01 11:15,-98.0386,43.7748,M,M,M,0.00,0.00,M,30.22,M,10.00,M,BKN,M,M,M,11000.00,M,M,M,M,KMHE 011115Z AUTO 00000KT 10SM BKN110 A3022 RMK MADISHF
MHE,2017-04-01 11:20,-98.0386,43.7748,M,M,M,180.00,4.00,M,30.22,M,10.00,M,BKN,M,M,M,11000.00,M,M,M,M,KMHE 011120Z AUTO 18004KT 10SM BKN110 A3022 RMK MADISHF
MHE,2017-04-01 11:25,-98.0386,43.7748,M,M,M,180.00,4.00,M,30.22,M,10.00,M,OVC,M,M,M,11000.00,M,M,M,M,KMHE 011125Z AUTO 18004KT 10SM OVC110 A3022 RMK MADISHF
MHE,2017-04-01 11:30,-98.0386,43.7748,M,M,M,190.00,5.00,M,30.22,M,10.00,M,OVC,M,M,M,11000.00,M,M,M,M,KMHE 011130Z AUTO 19005KT 10SM OVC110 A3022 RMK MADISHF
MHE,2017-04-01 11:35,-98.0386,43.7748,M,M,M,190.00,5.00,M,30.23,M,10.00,M,OVC,M,M,M,11000.00,M,M,M,M,KMHE 011135Z AUTO 19005KT 10SM OVC110 A3023 RMK MADISHF
MHE,2017-04-01 11:40,-98.0386,43.7748,M,M,M,200.00,4.00,M,30.23,M,10.00,M,OVC,M,M,M,11000.00,M,M,M,M,KMHE 011140Z AUTO 20004KT 10SM OVC110 A3023 RMK MADISHF
MHE,2017-04-01 11:45,-98.0386,43.7748,M,M,M,210.00,4.00,M,30.22,M,10.00,M,OVC,M,M,M,11000.00,M,M,M,M,KMHE 011145Z AUTO 21004KT 10SM OVC110 A3022 RMK MADISHF
MHE,2017-04-01 11:50,-98.0386,43.7748,M,M,M,210.00,4.00,M,30.22,M,10.00,M,OVC,M,M,M,11000.00,M,M,M,M,KMHE 011150Z AUTO 21004KT 10SM OVC110 A3022 RMK MADISHF
MHE,2017-04-01 11:53,-98.0386,43.7748,43.00,36.00,76.12,240.00,3.00,0.00,30.22,1023.90,10.00,M,OVC,M,M,M,11000.00,M,M,M,M,KMHE 011153Z AUTO 24003KT 10SM OVC110 06/02 A3022 RMK AO2 SLP239 T00610022 10072 20044 53008
MHE,2017-04-01 11:55,-98.0386,43.7748,M,M,M,250.00,3.00,M,30.22,M,10.00,M,OVC,M,M,M,11000.00,M,M,M,M,KMHE 011155Z AUTO 25003KT 10SM OVC110 A3022 RMK MADISHF
MHE,2017-04-01 12:00,-98.0386,43.7748,M,M,M,0.00,0.00,M,30.21,M,10.00,M,OVC,M,M,M,11000.00,M,M,M,M,KMHE 011200Z AUTO 00000KT 10SM OVC110 A3021 RMK MADISHF
MHE,2017-04-01 12:05,-98.0386,43.7748,M,M,M,0.00,0.00,M,30.22,M,10.00,M,OVC,M,M,M,11000.00,M,M,M,M,KMHE 011205Z AUTO 00000KT 10SM OVC110 A3022 RMK MADISHF
MHE,2017-04-01 12:10,-98.0386,43.7748,M,M,M,240.00,3.00,M,30.22,M,10.00,M,OVC,M,M,M,11000.00,M,M,M,M,KMHE 011210Z AUTO 24003KT 10SM OVC110 A3022 RMK MADISHF
MHE,2017-04-01 12:15,-98.0386,43.7748,M,M,M,0.00,0.00,M,30.22,M,10.00,M,OVC,M,M,M,11000.00,M,M,M,M,KMHE 011215Z AUTO 00000KT 10SM OVC110 A3022 RMK MADISHF
MHE,2017-04-01 12:20,-98.0386,43.7748,M,M,M,0.00,0.00,M,30.23,M,10.00,M,OVC,M,M,M,11000.00,M,M,M,M,KMHE 011220Z AUTO 00000KT 10SM OVC110 A3023 RMK MADISHF
MHE,2017-04-01 12:25,-98.0386,43.7748,M,M,M,0.00,0.00,M,30.23,M,10.00,M,OVC,M,M,M,11000.00,M,M,M,M,KMHE 011225Z AUTO 00000KT 10SM OVC110 A3023 RMK MADISHF
MHE,2017-04-01 12:30,-98.0386,43.7748,M,M,M,0.00,0.00,M,30.23,M,10.00,M,OVC,M,M,M,11000.00,M,M,M,M,KMHE 011230Z AUTO 00000KT 10SM OVC110 A3023 RMK MADISHF
MHE,2017-04-01 12:35,-98.0386,43.7748,M,M,M,0.00,0.00,M,30.24,M,10.00,M,OVC,M,M,M,11000.00,M,M,M,M,KMHE 011235Z AUTO 00000KT 10SM OVC110 A3024 RMK MADISHF
MHE,2017-04-01 12:40,-98.0386,43.7748,M,M,M,190.00,3.00,M,30.25,M,10.00,M,OVC,M,M,M,11000.00,M,M,M,M,KMHE 011240Z AUTO 19003KT 10SM OVC110 A3025 RMK MADISHF
MHE,2017-04-01 12:45,-98.0386,43.7748,M,M,M,180.00,4.00,M,30.25,M,10.00,M,OVC,M,M,M,11000.00,M,M,M,M,KMHE 011245Z AUTO 18004KT 10SM OVC110 A3025 RMK MADISHF
MHE,2017-04-01 12:50,-98.0386,43.7748,M,M,M,170.00,5.00,M,30.25,M,10.00,M,OVC,M,M,M,11000.00,M,M,M,M,KMHE 011250Z AUTO 17005KT 10SM OVC110 A3025 RMK MADISHF
MHE,2017-04-01 12:53,-98.0386,43.7748,43.00,37.00,79.19,170.00,5.00,0.00,30.24,1024.90,10.00,M,OVC,M,M,M,11000.00,M,M,M,M,KMHE 011253Z AUTO 17005KT 10SM OVC110 06/03 A3024 RMK AO2 SLP249 T00610028
MHE,2017-04-01 13:00,-98.0386,43.7748,M,M,M,190.00,5.00,M,30.25,M,10.00,M,OVC,M,M,M,11000.00,M,M,M,M,KMHE 011300Z AUTO 19005KT 10SM OVC110 A3025 RMK MADISHF
MHE,2017-04-01 13:05,-98.0386,43.7748,M,M,M,200.00,3.00,M,30.25,M,10.00,M,OVC,M,M,M,11000.00,M,M,M,M,KMHE 011305Z AUTO 20003KT 10SM OVC110 A3025 RMK MADISHF
MHE,2017-04-01 13:10,-98.0386,43.7748,M,M,M,220.00,3.00,M,30.25,M,10.00,M,OVC,M,M,M,11000.00,M,M,M,M,KMHE 011310Z AUTO 22003KT 10SM OVC110 A3025 RMK MADISHF
MHE,2017-04-01 13:15,-98.0386,43.7748,M,M,M,210.00,3.00,M,30.25,M,10.00,M,OVC,M,M,M,11000.00,M,M,M,M,KMHE 011315Z AUTO 21003KT 10SM OVC110 A3025 RMK MADISHF
MHE,2017-04-01 13:20,-98.0386,43.7748,M,M,M,0.00,0.00,M,30.25,M,10.00,M,BKN,M,M,M,11000.00,M,M,M,M,KMHE 011320Z AUTO 00000KT 10SM BKN110 A3025 RMK MADISHF
MHE,2017-04-01 13:25,-98.0386,43.7748,M,M,M,0.00,0.00,M,30.25,M,10.00,M,BKN,M,M,M,11000.00,M,M,M,M,KMHE 011325Z AUTO 00000KT 10SM BKN110 A3025 RMK MADISHF
MHE,2017-04-01 13:35,-98.0386,43.7748,M,M,M,0.00,0.00,M,30.25,M,10.00,M,SCT,M,M,M,11000.00,M,M,M,M,KMHE 011335Z AUTO 00000KT 10SM SCT110 A3025 RMK MADISHF
MHE,2017-04-01 13:40,-98.0386,43.7748,M,M,M,0.00,0.00,M,30.25,M,10.00,M,FEW,M,M,M,11000.00,M,M,M,M,KMHE 011340Z AUTO 00000KT 10SM FEW110 A3025 RMK MADISHF
MHE,2017-04-01 13:45,-98.0386,43.7748,M,M,M,180.00,3.00,M,30.24,M,10.00,M,FEW,M,M,M,11000.00,M,M,M,M,KMHE 011345Z AUTO 18003KT 10SM FEW110 A3024 RMK MADISHF
MHE,2017-04-01 13:50,-98.0386,43.7748,M,M,M,190.00,4.00,M,30.24,M,10.00,M,CLR,M,M,M,M,M,M,M,M,KMHE 011350Z AUTO 19004KT 10SM CLR A3024 RMK MADISHF
MHE,2017-04-01 13:53,-98.0386,43.7748,45.00,37.00,73.37,190.00,3.00,0.00,30.24,1024.70,10.00,M,CLR,M,M,M,M,M,M,M,M,KMHE 011353Z AUTO 19003KT 10SM CLR 07/03 A3024 RMK AO2 SLP247 T00720028
MHE,2017-04-01 13:55,-98.0386,43.7748,M,M,M,200.00,3.00,M,30.24,M,10.00,M,CLR,M,M,M,M,M,M,M,M,KMHE 011355Z AUTO 20003KT 10SM CLR A3024 RMK MADISHF
MHE,2017-04-01 14:00,-98.0386,43.7748,M,M,M,180.00,3.00,M,30.24,M,10.00,M,CLR,M,M,M,M,M,M,M,M,KMHE 011400Z AUTO 18003KT 10SM CLR A3024 RMK MADISHF
MHE,2017-04-01 14:05,-98.0386,43.7748,M,M,M,190.00,3.00,M,30.24,M,10.00,M,CLR,M,M,M,M,M,M,M,M,KMHE 011405Z AUTO 19003KT 10SM CLR A3024 RMK MADISHF
MHE,2017-04-01 14:10,-98.0386,43.7748,M,M,M,190.00,4.00,M,30.24,M,10.00,M,CLR,M,M,M,M,M,M,M,M,KMHE 011410Z AUTO 19004KT 10SM CLR A3024 RMK MADISHF
MHE,2017-04-01 14:15,-98.0386,43.7748,M,M,M,180.00,4.00,M,30.24,M,10.00,M,CLR,M,M,M,M,M,M,M,M,KMHE 011415Z AUTO 18004KT 10SM CLR A3024 RMK MADISHF
MHE,2017-04-01 14:20,-98.0386,43.7748,M,M,M,210.00,5.00,M,30.24,M,10.00,M,CLR,M,M,M,M,M,M,M,M,KMHE 011420Z AUTO 21005KT 10SM CLR A3024 RMK MADISHF
MHE,2017-04-01 14:25,-98.0386,43.7748,M,M,M,200.00,5.00,M,30.23,M,10.00,M,CLR,M,M,M,M,M,M,M,M,KMHE 011425Z AUTO 20005KT 10SM CLR A3023 RMK MADISHF
MHE,2017-04-01 14:30,-98.0386,43.7748,M,M,M,200.00,4.00,M,30.24,M,10.00,M,CLR,M,M,M,M,M,M,M,M,KMHE 011430Z AUTO 20004KT 10SM CLR A3024 RMK MADISHF
MHE,2017-04-01 14:35,-98.0386,43.7748,M,M,M,190.00,3.00,M,30.24,M,10.00,M,CLR,M,M,M,M,M,M,M,M,KMHE 011435Z AUTO 19003KT 10SM CLR A3024 RMK MADISHF
MHE,2017-04-01 14:40,-98.0386,43.7748,M,M,M,220.00,3.00,M,30.24,M,10.00,M,CLR,M,M,M,M,M,M,M,M,KMHE 011440Z AUTO 22003KT 10SM CLR A3024 RMK MADISHF
MHE,2017-04-01 14:45,-98.0386,43.7748,M,M,M,190.00,4.00,M,30.24,M,10.00,M,CLR,M,M,M,M,M,M,M,M,KMHE 011445Z AUTO 19004KT 10SM CLR A3024 RMK MADISHF
MHE,2017-04-01 14:50,-98.0386,43.7748,M,M,M,200.00,5.00,M,30.24,M,10.00,M,CLR,M,M,M,M,M,M,M,M,KMHE 011450Z AUTO 20005KT 10SM CLR A3024 RMK MADISHF
MHE,2017-04-01 14:53,-98.0386,43.7748,51.10,37.90,60.46,M,3.00,0.00,30.24,1024.50,10.00,M,CLR,M,M,M,M,M,M,M,M,KMHE 011453Z AUTO VRB03KT 10SM CLR 11/03 A3024 RMK AO2 SLP245 T01060033 50005
MHE,2017-04-01 14:55,-98.0386,43.7748,M,M,M,200.00,4.00,M,30.24,M,10.00,M,CLR,M,M,M,M,M,M,M,M,KMHE 011455Z AUTO 20004KT 10SM CLR A3024 RMK MADISHF
MHE,2017-04-01 15:00,-98.0386,43.7748,M,M,M,200.00,4.00,M,30.23,M,10.00,M,CLR,M,M,M,M,M,M,M,M,KMHE 011500Z AUTO 20004KT 10SM CLR A3023 RMK MADISHF
MHE,2017-04-01 15:05,-98.0386,43.7748,M,M,M,230.00,4.00,M,30.24,M,10.00,M,CLR,M,M,M,M,M,M,M,M,KMHE 011505Z AUTO 23004KT 10SM CLR A3024 RMK VRB04KT  MADISHF
MHE,2017-04-01 15:10,-98.0386,43.7748,M,M,M,210.00,4.00,M,30.24,M,10.00,M,CLR,M,M,M,M,M,M,M,M,KMHE 011510Z AUTO 21004KT 10SM CLR A3024 RMK MADISHF
MHE,2017-04-01 15:15,-98.0386,43.7748,M,M,M,220.00,6.00,M,30.24,M,10.00,M,CLR,M,M,M,M,M,M,M,M,KMHE 011515Z AUTO 22006KT 10SM CLR A3024 RMK MADISHF
MHE,2017-04-01 15:20,-98.0386,43.7748,M,M,M,200.00,6.00,M,30.24,M,10.00,M,CLR,M,M,M,M,M,M,M,M,KMHE 011520Z AUTO 20006KT 10SM CLR A3024 RMK MADISHF
MHE,2017-04-01 15:25,-98.0386,43.7748,M,M,M,240.00,4.00,M,30.24,M,10.00,M,CLR,M,M,M,M,M,M,M,M,KMHE 011525Z AUTO 24004KT 10SM CLR A3024 RMK MADISHF
MHE,2017-04-01 15:30,-98.0386,43.7748,M,M,M,210.00,6.00,M,30.24,M,10.00,M,CLR,M,M,M,M,M,M,M,M,KMHE 011530Z AUTO 21006KT 10SM CLR A3024 RMK MADISHF
MHE,2017-04-01 15:35,-98.0386,43.7748,M,M,M,220.00,5.00,M,30.24,M,10.00,M,CLR,M,M,M,M,M,M,M,M,KMHE 011535Z AUTO 22005KT 10SM CLR A3024 RMK MADISHF
MHE,2017-04-01 15:40,-98.0386,43.7748,M,M,M,200.00,5.00,M,30.24,M,10.00,M,CLR,M,M,M,M,M,M,M,M,KMHE 011540Z AUTO 20005KT 10SM CLR A3024 RMK MADISHF
MHE,2017-04-01 15:45,-98.0386,43.7748,M,M,M,240.00,5.00,M,30.24,M,10.00,M,CLR,M,M,M,M,M,M,M,M,KMHE 011545Z AUTO 24005KT 10SM CLR A3024 RMK MADISHF
MHE,2017-04-01 15:50,-98.0386,43.7748,M,M,M,210.00,6.00,M,30.25,M,10.00,M,CLR,M,M,M,M,M,M,M,M,KMHE 011550Z AUTO 21006KT 10SM CLR A3025 RMK MADISHF
MHE,2017-04-01 15:53,-98.0386,43.7748,55.00,36.00,48.62,240.00,5.00,0.00,30.25,1024.70,10.00,M,CLR,M,M,M,M,M,M,M,M,KMHE 011553Z AUTO 24005KT 10SM CLR 13/02 A3025 RMK AO2 SLP247 T01280022
MHE,2017-04-01 15:55,-98.0386,43.7748,M,M,M,240.00,4.00,M,30.25,M,10.00,M,CLR,M,M,M,M,M,M,M,M,KMHE 011555Z AUTO 24004KT 10SM CLR A3025 RMK VRB04KT  MADISHF
MHE,2017-04-01 16:00,-98.0386,43.7748,M,M,M,190.00,5.00,M,30.25,M,10.00,M,CLR,M,M,M,M,M,M,M,M,KMHE 011600Z AUTO 19005KT 10SM CLR A3025 RMK MADISHF
MHE,2017-04-01 16:05,-98.0386,43.7748,M,M,M,210.00,4.00,M,30.25,M,10.00,M,CLR,M,M,M,M,M,M,M,M,KMHE 011605Z AUTO 21004KT 10SM CLR A3025 RMK MADISHF
MHE,2017-04-01 16:10,-98.0386,43.7748,M,M,M,210.00,5.00,M,30.25,M,10.00,M,CLR,M,M,M,M,M,M,M,M,KMHE 011610Z AUTO 21005KT 10SM CLR A3025 RMK MADISHF
MHE,2017-04-01 16:15,-98.0386,43.7748,M,M,M,0.00,0.00,M,30.25,M,10.00,M,FEW,M,M,M,11000.00,M,M,M,M,KMHE 011615Z AUTO 00000KT 10SM FEW110 A3025 RMK MADISHF
MHE,2017-04-01 16:20,-98.0386,43.7748,M,M,M,0.00,0.00,M,30.24,M,10.00,M,FEW,M,M,M,11000.00,M,M,M,M,KMHE 011620Z AUTO 00000KT 10SM FEW110 A3024 RMK MADISHF
MHE,2017-04-01 16:25,-98.0386,43.7748,M,M,M,0.00,0.00,M,30.24,M,10.00,M,FEW,M,M,M,11000.00,M,M,M,M,KMHE 011625Z AUTO 00000KT 10SM FEW110 A3024 RMK MADISHF
MHE,2017-04-01 16:30,-98.0386,43.7748,M,M,M,130.00,4.00,M,30.24,M,10.00,M,FEW,M,M,M,11000.00,M,M,M,M,KMHE 011630Z AUTO 13004KT 10SM FEW110 A3024 RMK VRB04KT  MADISHF
MHE,2017-04-01 16:35,-98.0386,43.7748,M,M,M,160.00,5.00,M,30.24,M,10.00,M,FEW,M,M,M,11000.00,M,M,M,M,KMHE 011635Z AUTO 16005KT 10SM FEW110 A3024 RMK MADISHF
MHE,2017-04-01 16:40,-98.0386,43.7748,M,M,M,0.00,0.00,M,30.23,M,10.00,M,CLR,M,M,M,M,M,M,M,M,KMHE 011640Z AUTO 00000KT 10SM CLR A3023 RMK MADISHF
MHE,2017-04-01 16:45,-98.0386,43.7748,M,M,M,0.00,0.00,M,30.23,M,10.00,M,CLR,M,M,M,M,M,M,M,M,KMHE 011645Z AUTO 00000KT 10SM CLR A3023 RMK MADISHF
MHE,2017-04-01 16:50,-98.0386,43.7748,M,M,M,190.00,4.00,M,30.23,M,10.00,M,CLR,M,M,M,M,M,M,M,M,KMHE 011650Z AUTO 19004KT 10SM CLR A3023 RMK MADISHF
MHE,2017-04-01 16:53,-98.0386,43.7748,57.00,33.10,40.28,0.00,0.00,0.00,30.23,1024.00,10.00,M,CLR,M,M,M,M,M,M,M,M,KMHE 011653Z AUTO 00000KT 10SM CLR 14/01 A3023 RMK AO2 SLP240 T01390006
MHE,2017-04-01 16:55,-98.0386,43.7748,M,M,M,0.00,0.00,M,30.23,M,10.00,M,CLR,M,M,M,M,M,M,M,M,KMHE 011655Z AUTO 00000KT 10SM CLR A3023 RMK MADISHF
MHE,2017-04-01 17:00,-98.0386,43.7748,M,M,M,160.00,6.00,M,30.23,M,10.00,M,CLR,M,M,M,M,M,M,M,M,KMHE 011700Z AUTO 16006KT 10SM CLR A3023 RMK MADISHF
MHE,2017-04-01 17:05,-98.0386,43.7748,M,M,M,160.00,6.00,M,30.22,M,10.00,M,CLR,M,M,M,M,M,M,M,M,KMHE 011705Z AUTO 16006KT 10SM CLR A3022 RMK VRB06KT  MADISHF
MHE,2017-04-01 17:15,-98.0386,43.7748,M,M,M,0.00,0.00,M,30.22,M,10.00,M,CLR,M,M,M,M,M,M,M,M,KMHE 011715Z AUTO 00000KT 10SM CLR A3022 RMK MADISHF
MHE,2017-04-01 17:20,-98.0386,43.7748,M,M,M,0.00,0.00,M,30.21,M,10.00,M,CLR,M,M,M,M,M,M,M,M,KMHE 011720Z AUTO 00000KT 10SM CLR A3021 RMK MADISHF
MHE,2017-04-01 17:25,-98.0386,43.7748,M,M,M,0.00,0.00,M,30.21,M,10.00,M,CLR,M,M,M,M,M,M,M,M,KMHE 011725Z AUTO 00000KT 10SM CLR A3021 RMK MADISHF
MHE,2017-04-01 17:35,-98.0386,43.7748,M,M,M,140.00,9.00,M,30.21,M,10.00,M,CLR,M,M,M,M,M,M,M,M,KMHE 011735Z AUTO 14009KT 10SM CLR A3021 RMK MADISHF
MHE,2017-04-01 17:40,-98.0386,43.7748,M,M,M,110.00,6.00,M,30.21,M,10.00,M,CLR,M,M,M,M,M,M,M,M,KMHE 011740Z AUTO 11006KT 10SM CLR A3021 RMK MADISHF
MHE,2017-04-01 17:45,-98.0386,43.7748,M,M,M,80.00,3.00,M,30.21,M,10.00,M,FEW,M,M,M,10000.00,M,M,M,M,KMHE 011745Z AUTO 08003KT 10SM FEW100 A3021 RMK VRB03KT  MADISHF
MHE,2017-04-01 17:50,-98.0386,43.7748,M,M,M,170.00,5.00,M,30.21,M,10.00,M,SCT,M,M,M,10000.00,M,M,M,M,KMHE 011750Z AUTO 17005KT 10SM SCT100 A3021 RMK VRB05KT  MADISHF
MHE,2017-04-01 17:53,-98.0386,43.7748,59.00,32.00,35.87,M,6.00,0.00,30.21,1023.40,10.00,M,BKN,M,M,M,10000.00,M,M,M,M,KMHE 011753Z AUTO VRB06KT 10SM BKN100 15/00 A3021 RMK AO2 SLP234 T01500000 10150 20050 58008
MHE,2017-04-01 17:55,-98.0386,43.7748,M,M,M,190.00,9.00,M,30.21,M,10.00,M,BKN,M,M,M,10000.00,M,M,M,M,KMHE 011755Z AUTO 19009KT 10SM BKN100 A3021 RMK MADISHF
MHE,2017-04-01 18:00,-98.0386,43.7748,M,M,M,180.00,8.00,M,30.21,M,10.00,M,BKN,M,M,M,10000.00,M,M,M,M,KMHE 011800Z AUTO 18008KT 10SM BKN100 A3021 RMK MADISHF
MHE,2017-04-01 18:05,-98.0386,43.7748,M,M,M,160.00,8.00,M,30.21,M,10.00,M,BKN,M,M,M,10000.00,M,M,M,M,KMHE 011805Z AUTO 16008KT 10SM BKN100 A3021 RMK MADISHF
MHE,2017-04-01 18:10,-98.0386,43.7748,M,M,M,180.00,7.00,M,30.21,M,10.00,M,OVC,M,M,M,10000.00,M,M,M,M,KMHE 011810Z AUTO 18007KT 10SM OVC100 A3021 RMK MADISHF
MHE,2017-04-01 18:15,-98.0386,43.7748,M,M,M,190.00,5.00,M,30.20,M,10.00,M,OVC,M,M,M,10000.00,M,M,M,M,KMHE 011815Z AUTO 19005KT 10SM OVC100 A3020 RMK MADISHF
MHE,2017-04-01 18:20,-98.0386,43.7748,M,M,M,140.00,6.00,M,30.20,M,10.00,M,OVC,M,M,M,10000.00,M,M,M,M,KMHE 011820Z AUTO 14006KT 10SM OVC100 A3020 RMK MADISHF
MHE,2017-04-01 18:25,-98.0386,43.7748,M,M,M,160.00,9.00,M,30.20,M,10.00,M,OVC,M,M,M,10000.00,M,M,M,M,KMHE 011825Z AUTO 16009KT 10SM OVC100 A3020 RMK MADISHF
MHE,2017-04-01 18:30,-98.0386,43.7748,M,M,M,150.00,6.00,M,30.20,M,10.00,M,OVC,M,M,M,10000.00,M,M,M,M,KMHE 011830Z AUTO 15006KT 10SM OVC100 A3020 RMK MADISHF
MHE,2017-04-01 18:35,-98.0386,43.7748,M,M,M,150.00,7.00,M,30.19,M,10.00,M,OVC,M,M,M,10000.00,M,M,M,M,KMHE 011835Z AUTO 15007KT 10SM OVC100 A3019 RMK MADISHF
MHE,2017-04-01 18:40,-98.0386,43.7748,M,M,M,150.00,6.00,M,30.19,M,10.00,M,BKN,M,M,M,10000.00,M,M,M,M,KMHE 011840Z AUTO 15006KT 10SM BKN100 A3019 RMK VRB06KT  MADISHF
MHE,2017-04-01 18:50,-98.0386,43.7748,M,M,M,150.00,3.00,M,30.19,M,8.00,M,BKN,M,M,M,10000.00,M,M,M,M,KMHE 011850Z AUTO 15003KT 8SM BKN100 A3019 RMK VRB03KT  MADISHF
MHE,2017-04-01 18:53,-98.0386,43.7748,57.90,30.90,35.69,150.00,6.00,0.00,30.19,1022.70,7.00,M,FEW,BKN,M,M,4900.00,10000.00,M,M,M,KMHE 011853Z AUTO 15006KT 7SM FEW049 BKN100 14/M01 A3019 RMK AO2 SLP227 T01441006
MHE,2017-04-01 18:55,-98.0386,43.7748,M,M,M,120.00,6.00,M,30.19,M,7.00,M,FEW,BKN,M,M,5500.00,10000.00,M,M,M,KMHE 011855Z AUTO 12006KT 7SM FEW055 BKN100 A3019 RMK MADISHF
MHE,2017-04-01 19:00,-98.0386,43.7748,M,M,M,110.00,5.00,M,30.18,M,9.00,M,FEW,BKN,M,M,5500.00,10000.00,M,M,M,KMHE 011900Z AUTO 11005KT 9SM FEW055 BKN100 A3018 RMK VRB05KT  MADISHF
MHE,2017-04-01 19:10,-98.0386,43.7748,M,M,M,80.00,4.00,M,30.17,M,10.00,M,FEW,M,M,M,10000.00,M,M,M,M,KMHE 011910Z AUTO 08004KT 10SM FEW100 A3017 RMK MADISHF
MHE,2017-04-01 19:15,-98.0386,43.7748,M,M,M,130.00,8.00,M,30.17,M,10.00,M,FEW,M,M,M,10000.00,M,M,M,M,KMHE 011915Z AUTO 13008KT 10SM FEW100 A3017 RMK MADISHF
MHE,2017-04-01 19:20,-98.0386,43.7748,M,M,M,130.00,7.00,M,30.17,M,10.00,M,FEW,M,M,M,10000.00,M,M,M,M,KMHE 011920Z AUTO 13007KT 10SM FEW100 A3017 RMK MADISHF
MHE,2017-04-01 19:30,-98.0386,43.7748,M,M,M,150.00,7.00,M,30.17,M,10.00,M,CLR,M,M,M,M,M,M,M,M,KMHE 011930Z AUTO 15007KT 10SM CLR A3017 RMK MADISHF
MHE,2017-04-01 19:35,-98.0386,43.7748,M,M,M,140.00,8.00,M,30.16,M,10.00,M,CLR,M,M,M,M,M,M,M,M,KMHE 011935Z AUTO 14008KT 10SM CLR A3016 RMK MADISHF
MHE,2017-04-01 19:40,-98.0386,43.7748,M,M,M,90.00,8.00,M,30.16,M,10.00,M,CLR,M,M,M,M,M,M,M,M,KMHE 011940Z AUTO 09008KT 10SM CLR A3016 RMK MADISHF
MHE,2017-04-01 19:45,-98.0386,43.7748,M,M,M,160.00,7.00,M,30.16,M,10.00,M,CLR,M,M,M,M,M,M,M,M,KMHE 011945Z AUTO 16007KT 10SM CLR A3016 RMK MADISHF
MHE,2017-04-01 19:50,-98.0386,43.7748,M,M,M,140.00,10.00,M,30.16,M,10.00,M,CLR,M,M,M,M,M,M,M,M,KMHE 011950Z AUTO 14010KT 10SM CLR A3016 RMK MADISHF
MHE,2017-04-01 19:53,-98.0386,43.7748,60.10,32.00,34.49,140.00,12.00,0.00,30.16,1021.80,10.00,M,CLR,M,M,M,M,M,M,M,M,KMHE 011953Z AUTO 14012KT 10SM CLR 16/00 A3016 RMK AO2 SLP218 T01560000
MHE,2017-04-01 19:55,-98.0386,43.7748,M,M,M,140.00,11.00,M,30.16,M,10.00,M,CLR,M,M,M,M,M,M,M,M,KMHE 011955Z AUTO 14011KT 10SM CLR A3016 RMK MADISHF
MHE,2017-04-01 20:00,-98.0386,43.7748,M,M,M,150.00,7.00,M,30.16,M,10.00,M,CLR,M,M,M,M,M,M,M,M,KMHE 012000Z AUTO 15007KT 10SM CLR A3016 RMK MADISHF
MHE,2017-04-01 20:10,-98.0386,43.7748,M,M,M,160.00,7.00,M,30.16,M,10.00,M,CLR,M,M,M,M,M,M,M,M,KMHE 012010Z AUTO 16007KT 10SM CLR A3016 RMK MADISHF
MHE,2017-04-01 20:15,-98.0386,43.7748,M,M,M,170.00,11.00,M,30.16,M,10.00,M,CLR,M,M,M,M,M,M,M,M,KMHE 012015Z AUTO 17011KT 10SM CLR A3016 RMK MADISHF
MHE,2017-04-01 20:20,-98.0386,43.7748,M,M,M,180.00,6.00,M,30.16,M,10.00,M,CLR,M,M,M,M,M,M,M,M,KMHE 012020Z AUTO 18006KT 10SM CLR A3016 RMK MADISHF
MHE,2017-04-01 20:30,-98.0386,43.7748,M,M,M,160.00,9.00,M,30.15,M,10.00,M,CLR,M,M,M,M,M,M,M,M,KMHE 012030Z AUTO 16009KT 10SM CLR A3015 RMK MADISHF
MHE,2017-04-01 20:35,-98.0386,43.7748,M,M,M,140.00,9.00,M,30.15,M,10.00,M,CLR,M,M,M,M,M,M,M,M,KMHE 012035Z AUTO 14009KT 10SM CLR A3015 RMK MADISHF
MHE,2017-04-01 20:40,-98.0386,43.7748,M,M,M,180.00,4.00,M,30.15,M,10.00,M,CLR,M,M,M,M,M,M,M,M,KMHE 012040Z AUTO 18004KT 10SM CLR A3015 RMK VRB04KT  MADISHF
MHE,2017-04-01 20:50,-98.0386,43.7748,M,M,M,160.00,11.00,M,30.15,M,10.00,M,CLR,M,M,M,M,M,M,M,M,KMHE 012050Z AUTO 16011KT 10SM CLR A3015 RMK MADISHF
MHE,2017-04-01 20:53,-98.0386,43.7748,60.10,30.90,32.99,160.00,9.00,0.00,30.14,1021.20,10.00,M,CLR,M,M,M,M,M,M,M,M,KMHE 012053Z AUTO 16009KT 10SM CLR 16/M01 A3014 RMK AO2 SLP212 T01561006 56022
MHE,2017-04-01 20:55,-98.0386,43.7748,M,M,M,160.00,6.00,M,30.14,M,10.00,M,CLR,M,M,M,M,M,M,M,M,KMHE 012055Z AUTO 16006KT 10SM CLR A3014 RMK MADISHF
MHE,2017-04-01 21:00,-98.0386,43.7748,M,M,M,150.00,8.00,M,30.14,M,10.00,M,CLR,M,M,M,M,M,M,M,M,KMHE 012100Z AUTO 15008KT 10SM CLR A3014 RMK MADISHF
MHE,2017-04-01 21:10,-98.0386,43.7748,M,M,M,170.00,8.00,M,30.14,M,10.00,M,CLR,M,M,M,M,M,M,M,M,KMHE 012110Z AUTO 17008KT 10SM CLR A3014 RMK MADISHF
MHE,2017-04-01 21:15,-98.0386,43.7748,M,M,M,180.00,11.00,M,30.14,M,10.00,M,CLR,M,M,M,M,M,M,M,M,KMHE 012115Z AUTO 18011KT 10SM CLR A3014 RMK MADISHF
MHE,2017-04-01 21:20,-98.0386,43.7748,M,M,M,190.00,6.00,M,30.14,M,10.00,M,CLR,M,M,M,M,M,M,M,M,KMHE 012120Z AUTO 19006KT 10SM CLR A3014 RMK VRB06KT  MADISHF
MHE,2017-04-01 21:25,-98.0386,43.7748,M,M,M,170.00,11.00,M,30.14,M,10.00,M,CLR,M,M,M,M,M,M,M,M,KMHE 012125Z AUTO 17011KT 10SM CLR A3014 RMK MADISHF
MHE,2017-04-01 21:30,-98.0386,43.7748,M,M,M,180.00,13.00,M,30.14,M,10.00,18.00,CLR,M,M,M,M,M,M,M,M,KMHE 012130Z AUTO 18013G18KT 10SM CLR A3014 RMK MADISHF
MHE,2017-04-01 21:35,-98.0386,43.7748,M,M,M,140.00,11.00,M,30.14,M,10.00,M,CLR,M,M,M,M,M,M,M,M,KMHE 012135Z AUTO 14011KT 10SM CLR A3014 RMK MADISHF
MHE,2017-04-01 21:40,-98.0386,43.7748,M,M,M,160.00,11.00,M,30.13,M,10.00,M,CLR,M,M,M,M,M,M,M,M,KMHE 012140Z AUTO 16011KT 10SM CLR A3013 RMK MADISHF
MHE,2017-04-01 21:45,-98.0386,43.7748,M,M,M,170.00,6.00,M,30.13,M,10.00,M,CLR,M,M,M,M,M,M,M,M,KMHE 012145Z AUTO 17006KT 10SM CLR A3013 RMK VRB06KT  MADISHF
MHE,2017-04-01 21:50,-98.0386,43.7748,M,M,M,150.00,10.00,M,30.13,M,10.00,M,CLR,M,M,M,M,M,M,M,M,KMHE 012150Z AUTO 15010KT 10SM CLR A3013 RMK MADISHF
MHE,2017-04-01 21:53,-98.0386,43.7748,61.00,32.00,33.40,170.00,12.00,0.00,30.12,1020.50,10.00,16.00,CLR,M,M,M,M,M,M,M,M,KMHE 012153Z AUTO 17012G16KT 10SM CLR 16/00 A3012 RMK AO2 SLP205 T01610000
MHE,2017-04-01 21:55,-98.0386,43.7748,M,M,M,150.00,11.00,M,30.13,M,10.00,M,CLR,M,M,M,M,M,M,M,M,KMHE 012155Z AUTO 15011KT 10SM CLR A3013 RMK MADISHF
MHE,2017-04-01 22:05,-98.0386,43.7748,M,M,M,150.00,13.00,M,30.13,M,10.00,M,CLR,M,M,M,M,M,M,M,M,KMHE 012205Z AUTO 15013KT 10SM CLR A3013 RMK MADISHF
MHE,2017-04-01 22:10,-98.0386,43.7748,M,M,M,170.00,10.00,M,30.13,M,10.00,M,CLR,M,M,M,M,M,M,M,M,KMHE 012210Z AUTO 17010KT 10SM CLR A3013 RMK MADISHF
MHE,2017-04-01 22:15,-98.0386,43.7748,M,M,M,190.00,7.00,M,30.13,M,10.00,M,CLR,M,M,M,M,M,M,M,M,KMHE 012215Z AUTO 19007KT 10SM CLR A3013 RMK MADISHF
MHE,2017-04-01 22:25,-98.0386,43.7748,M,M,M,170.00,11.00,M,30.12,M,10.00,16.00,CLR,M,M,M,M,M,M,M,M,KMHE 012225Z AUTO 17011G16KT 10SM CLR A3012 RMK MADISHF
MHE,2017-04-01 22:30,-98.0386,43.7748,M,M,M,170.00,10.00,M,30.12,M,10.00,M,CLR,M,M,M,M,M,M,M,M,KMHE 012230Z AUTO 17010KT 10SM CLR A3012 RMK MADISHF
MHE,2017-04-01 22:35,-98.0386,43.7748,M,M,M,160.00,13.00,M,30.12,M,10.00,M,CLR,M,M,M,M,M,M,M,M,KMHE 012235Z AUTO 16013KT 10SM CLR A3012 RMK MADISHF
MHE,2017-04-01 22:40,-98.0386,43.7748,M,M,M,150.00,11.00,M,30.12,M,10.00,M,CLR,M,M,M,M,M,M,M,M,KMHE 012240Z AUTO 15011KT 10SM CLR A3012 RMK MADISHF
MHE,2017-04-01 22:45,-98.0386,43.7748,M,M,M,170.00,10.00,M,30.12,M,10.00,M,CLR,M,M,M,M,M,M,M,M,KMHE 012245Z AUTO 17010KT 10SM CLR A3012 RMK MADISHF
MHE,2017-04-01 22:50,-98.0386,43.7748,M,M,M,160.00,9.00,M,30.12,M,10.00,M,CLR,M,M,M,M,M,M,M,M,KMHE 012250Z AUTO 16009KT 10SM CLR A3012 RMK MADISHF
MHE,2017-04-01 22:53,-98.0386,43.7748,59.00,33.10,37.49,190.00,11.00,0.00,30.12,1020.30,10.00,M,CLR,M,M,M,M,M,M,M,M,KMHE 012253Z AUTO 19011KT 10SM CLR 15/01 A3012 RMK AO2 SLP203 T01500006
MHE,2017-04-01 22:55,-98.0386,43.7748,M,M,M,180.00,11.00,M,30.12,M,10.00,M,CLR,M,M,M,M,M,M,M,M,KMHE 012255Z AUTO 18011KT 10SM CLR A3012 RMK MADISHF
MHE,2017-04-01 23:00,-98.0386,43.7748,M,M,M,160.00,13.00,M,30.12,M,10.00,M,CLR,M,M,M,M,M,M,M,M,KMHE 012300Z AUTO 16013KT 10SM CLR A3012 RMK MADISHF
MHE,2017-04-01 23:05,-98.0386,43.7748,M,M,M,170.00,11.00,M,30.12,M,10.00,M,CLR,M,M,M,M,M,M,M,M,KMHE 012305Z AUTO 17011KT 10SM CLR A3012 RMK MADISHF
MHE,2017-04-01 23:10,-98.0386,43.7748,M,M,M,160.00,12.00,M,30.12,M,10.00,M,CLR,M,M,M,M,M,M,M,M,KMHE 012310Z AUTO 16012KT 10SM CLR A3012 RMK MADISHF
MHE,2017-04-01 23:15,-98.0386,43.7748,M,M,M,160.00,12.00,M,30.11,M,10.00,M,CLR,M,M,M,M,M,M,M,M,KMHE 012315Z AUTO 16012KT 10SM CLR A3011 RMK MADISHF
MHE,2017-04-01 23:20,-98.0386,43.7748,M,M,M,160.00,10.00,M,30.11,M,10.00,M,CLR,M,M,M,M,M,M,M,M,KMHE 012320Z AUTO 16010KT 10SM CLR A3011 RMK MADISHF
MHE,2017-04-01 23:25,-98.0386,43.7748,M,M,M,170.00,11.00,M,30.11,M,10.00,M,CLR,M,M,M,M,M,M,M,M,KMHE 012325Z AUTO 17011KT 10SM CLR A3011 RMK MADISHF
MHE,2017-04-01 23:30,-98.0386,43.7748,M,M,M,170.00,11.00,M,30.11,M,10.00,M,CLR,M,M,M,M,M,M,M,M,KMHE 012330Z AUTO 17011KT 10SM CLR A3011 RMK MADISHF
MHE,2017-04-01 23:35,-98.0386,43.7748,M,M,M,150.00,13.00,M,30.11,M,10.00,M,CLR,M,M,M,M,M,M,M,M,KMHE 012335Z AUTO 15013KT 10SM CLR A3011 RMK MADISHF
MHE,2017-04-01 23:40,-98.0386,43.7748,M,M,M,170.00,12.00,M,30.11,M,10.00,M,CLR,M,M,M,M,M,M,M,M,KMHE 012340Z AUTO 17012KT 10SM CLR A3011 RMK MADISHF
MHE,2017-04-01 23:45,-98.0386,43.7748,M,M,M,170.00,11.00,M,30.11,M,10.00,M,CLR,M,M,M,M,M,M,M,M,KMHE 012345Z AUTO 17011KT 10SM CLR A3011 RMK MADISHF
MHE,2017-04-01 23:50,-98.0386,43.7748,M,M,M,180.00,10.00,M,30.11,M,10.00,M,CLR,M,M,M,M,M,M,M,M,KMHE 012350Z AUTO 18010KT 10SM CLR A3011 RMK MADISHF
MHE,2017-04-01 23:53,-98.0386,43.7748,57.00,32.00,38.54,170.00,12.00,0.00,30.11,1020.00,10.00,M,CLR,M,M,M,M,M,M,M,M,KMHE 012353Z AUTO 17012KT 10SM CLR 14/00 A3011 RMK AO2 SLP200 T01390000 10167 20139 56012
