#DEBUG: Format Typ    -> comma
#DEBUG: Time Period   -> 2017-04-01 00:00:00+00:00 2017-04-02 00:00:00+00:00
#DEBUG: Time Zone     -> Etc/UTC
#DEBUG: Data Contact   -> daryl herzmann akrherz@iastate.edu 515-294-5978
#DEBUG: Entries Found -> -1
station,valid,lon,lat,tmpf, dwpf, relh, drct, sknt, p01i, alti, mslp, vsby, gust, skyc1, skyc2, skyc3, skyc4, skyl1, skyl2, skyl3, skyl4, presentwx, metar
MHT,2017-04-01 00:00,-71.4357,42.9328,M,M,M,50.00,4.00,0.01,30.06,M,1.25,M,FEW,OVC,M,M,800.00,1400.00,M,M,-SN BR,KMHT 010000Z AUTO 05004KT 1 1/2SM -SN BR FEW008 OVC014 A3006 RMK P0001  4/003 MADISHF
MHT,2017-04-01 00:05,-71.4357,42.9328,M,M,M,50.00,4.00,0.02,30.06,M,1.25,M,SCT,OVC,M,M,700.00,1400.00,M,M,-SN BR,KMHT 010005Z AUTO 05004KT 1 1/2SM -SN BR SCT007 OVC014 A3006 RMK P0002  4/003 MADISHF
MHT,2017-04-01 00:10,-71.4357,42.9328,M,M,M,50.00,4.00,0.02,30.06,M,1.25,M,SCT,OVC,M,M,700.00,1400.00,M,M,-SN BR,KMHT 010010Z AUTO 05004KT 1 1/2SM -SN BR SCT007 OVC014 A3006 RMK P0002 VRB04KT 4/003 MADISHF
MHT,2017-04-01 00:15,-71.4357,42.9328,M,M,M,50.00,4.00,0.03,30.06,M,1.25,M,SCT,OVC,M,M,700.00,1400.00,M,M,-SN BR,KMHT 010015Z AUTO 05004KT 1 1/2SM -SN BR SCT007 OVC014 A3006 RMK P0003  4/003 MADISHF
MHT,2017-04-01 00:20,-71.4357,42.9328,M,M,M,50.00,4.00,0.03,30.06,M,1.25,M,SCT,OVC,M,M,700.00,1400.00,M,M,-SN BR,KMHT 010020Z AUTO 05004KT 1 1/2SM -SN BR SCT007 OVC014 A3006 RMK P0003 VRB04KT 4/003 MADISHF
MHT,2017-04-01 00:25,-71.4357,42.9328,M,M,M,50.00,3.00,0.03,30.06,M,1.25,M,SCT,OVC,M,M,700.00,1400.00,M,M,-SN BR,KMHT 010025Z AUTO 05003KT 1 1/2SM -SN BR SCT007 OVC014 A3006 RMK P0003  4/003 MADISHF
MHT,2017-04-01 00:30,-71.4357,42.9328,M,M,M,40.00,5.00,0.04,30.06,M,1.25,M,SCT,OVC,M,M,700.00,1400.00,M,M,-SN BR,KMHT 010030Z AUTO 04005KT 1 1/2SM -SN BR SCT007 OVC014 A3006 RMK P0004  4/003 MADISHF
MHT,2017-04-01 00:35,-71.4357,42.9328,M,M,M,50.00,5.00,0.04,30.06,M,1.00,M,SCT,OVC,M,M,700.00,1400.00,M,M,-SN BR,KMHT 010035Z AUTO 05005KT 1SM -SN BR SCT007 OVC014 A3006 RMK P0004  4/003 MADISHF
MHT,2017-04-01 00:40,-71.4357,42.9328,M,M,M,50.00,4.00,0.05,30.06,M,1.00,M,SCT,OVC,M,M,700.00,1400.00,M,M,-SN BR,KMHT 010040Z AUTO 05004KT 1SM -SN BR SCT007 OVC014 A3006 RMK P0005  4/003 MADISHF
MHT,2017-04-01 00:45,-71.4357,42.9328,M,M,M,50.00,4.00,0.05,30.06,M,1.00,M,SCT,OVC,M,M,700.00,1400.00,M,M,-SN BR,KMHT 010045Z AUTO 05004KT 1SM -SN BR SCT007 OVC014 A3006 RMK P0005  4/003 MADISHF
MHT,2017-04-01 00:50,-71.4357,42.9328,M,M,M,40.00,5.00,0.06,30.06,M,1.00,M,SCT,OVC,M,M,700.00,1200.00,M,M,-SN BR,KMHT 010050Z AUTO 04005KT 1SM -SN BR SCT007 OVC012 A3006 RMK P0006  4/003 MADISHF
MHT,2017-04-01 00:53,-71.4357,42.9328,32.00,28.00,84.98,50.00,5.00,0.07,30.05,1019.50,1.00,M,SCT,OVC,M,M,700.00,1200.00,M,M,-SN BR,KMHT 010053Z 05005KT 1SM R35/6000VP6000FT -SN BR SCT007 OVC012 00/M02 A3005 RMK AO2 SLP195 4/003 P0007 T00001022
MHT,2017-04-01 00:55,-71.4357,42.9328,M,M,M,40.00,4.00,M,30.05,M,1.00,M,FEW,OVC,M,M,700.00,1200.00,M,M,-SN BR,KMHT 010055Z AUTO 04004KT 1SM -SN BR FEW007 OVC012 A3005 RMK MADISHF
MHT,2017-04-01 01:00,-71.4357,42.9328,M,M,M,30.00,5.00,0.01,30.05,M,1.00,M,SCT,OVC,M,M,600.00,1100.00,M,M,-SN BR,KMHT 010100Z AUTO 03005KT 1SM -SN BR SCT006 OVC011 A3005 RMK P0001 MADISHF
MHT,2017-04-01 01:05,-71.4357,42.9328,M,M,M,40.00,4.00,0.02,30.05,M,1.25,M,OVC,M,M,M,1100.00,M,M,M,-SN BR,KMHT 010105Z AUTO 04004KT 1 1/2SM -SN BR OVC011 A3005 RMK P0002 MADISHF
MHT,2017-04-01 01:10,-71.4357,42.9328,M,M,M,40.00,5.00,0.02,30.05,M,1.75,M,SCT,OVC,M,M,800.00,1300.00,M,M,-SN BR,KMHT 010110Z AUTO 04005KT 2SM -SN BR SCT008 OVC013 A3005 RMK P0002 MADISHF
MHT,2017-04-01 01:15,-71.4357,42.9328,M,M,M,40.00,5.00,0.03,30.05,M,3.00,M,SCT,OVC,M,M,800.00,1300.00,M,M,-SN BR,KMHT 010115Z AUTO 04005KT 3SM -SN BR SCT008 OVC013 A3005 RMK P0003 MADISHF
MHT,2017-04-01 01:18,-71.4357,42.9328,32.00,28.90,88.17,30.00,4.00,0.03,30.05,M,1.00,M,BKN,OVC,M,M,700.00,1300.00,M,M,-SN BR,KMHT 010118Z 03004KT 1SM R35/P6000FT -SN BR BKN007 OVC013 00/M02 A3005 RMK AO2 SFC VIS 3 P0003 T00001017
MHT,2017-04-01 01:20,-71.4357,42.9328,M,M,M,40.00,5.00,0.04,30.05,M,3.00,M,BKN,OVC,M,M,700.00,1300.00,M,M,-SN BR,KMHT 010120Z AUTO 04005KT 3SM -SN BR BKN007 OVC013 A3005 RMK P0004 MADISHF
MHT,2017-04-01 01:25,-71.4357,42.9328,M,M,M,40.00,5.00,0.04,30.05,M,2.50,M,BKN,OVC,M,M,700.00,1300.00,M,M,-SN BR,KMHT 010125Z AUTO 04005KT 2 1/2SM -SN BR BKN007 OVC013 A3005 RMK P0004 MADISHF
MHT,2017-04-01 01:30,-71.4357,42.9328,32.00,28.00,84.98,60.00,6.00,0.05,30.05,M,3.00,M,SCT,OVC,M,M,700.00,1200.00,M,M,-SN BR,KMHT 010130Z 06006KT 3SM -SN BR SCT007 OVC012 00/M02 A3005 RMK AO2 SFC VIS 4 P0005 T00001022
MHT,2017-04-01 01:35,-71.4357,42.9328,M,M,M,50.00,5.00,0.05,30.05,M,5.00,M,OVC,M,M,M,1200.00,M,M,M,-SN BR,KMHT 010135Z AUTO 05005KT 5SM -SN BR OVC012 A3005 RMK P0005 MADISHF
MHT,2017-04-01 01:40,-71.4357,42.9328,M,M,M,60.00,5.00,0.06,30.04,M,4.00,M,OVC,M,M,M,1200.00,M,M,M,-PL -SN BR,KMHT 010140Z AUTO 06005KT 4SM -PL -SN BR OVC012 A3004 RMK P0006 MADISHF
MHT,2017-04-01 01:41,-71.4357,42.9328,32.00,28.00,84.98,50.00,5.00,0.06,30.04,M,4.00,M,OVC,M,M,M,1200.00,M,M,M,-SNPL BR,KMHT 010141Z 05005KT 4SM -SNPL BR OVC012 00/M02 A3004 RMK AO2 PLB40 P0006 T00001022
MHT,2017-04-01 01:45,-71.4357,42.9328,M,M,M,40.00,5.00,0.07,30.04,M,4.00,M,OVC,M,M,M,1100.00,M,M,M,-PL -SN BR,KMHT 010145Z AUTO 04005KT 4SM -PL -SN BR OVC011 A3004 RMK P0007 MADISHF
MHT,2017-04-01 01:50,-71.4357,42.9328,M,M,M,50.00,6.00,0.07,30.04,M,4.00,M,OVC,M,M,M,1100.00,M,M,M,-PL -SN BR,KMHT 010150Z AUTO 05006KT 4SM -PL -SN BR OVC011 A3004 RMK P0007 MADISHF
MHT,2017-04-01 01:53,-71.4357,42.9328,32.00,28.00,84.98,60.00,5.00,0.08,30.04,1018.90,4.00,M,FEW,OVC,M,M,700.00,1100.00,M,M,-SNPL BR,KMHT 010153Z 06005KT 4SM -SNPL BR FEW007 OVC011 00/M02 A3004 RMK AO2 PLB40 SLP189 SNINCR 1/5 P0008 T00001022
MHT,2017-04-01 01:55,-71.4357,42.9328,M,M,M,70.00,5.00,M,30.04,M,4.00,M,OVC,M,M,M,1100.00,M,M,M,-PL -SN BR,KMHT 010155Z AUTO 07005KT 4SM -PL -SN BR OVC011 A3004 RMK MADISHF
MHT,2017-04-01 02:00,-71.4357,42.9328,M,M,M,50.00,3.00,M,30.03,M,4.00,M,OVC,M,M,M,1100.00,M,M,M,-PL -SN BR,KMHT 010200Z AUTO 05003KT 4SM -PL -SN BR OVC011 A3003 RMK VRB03KT  MADISHF
MHT,2017-04-01 02:05,-71.4357,42.9328,M,M,M,60.00,7.00,0.01,30.03,M,3.50,M,OVC,M,M,M,1100.00,M,M,M,-PL -SN BR,KMHT 010205Z AUTO 06007KT 3SM -PL -SN BR OVC011 A3003 RMK P0001 MADISHF
MHT,2017-04-01 02:10,-71.4357,42.9328,M,M,M,60.00,5.00,0.02,30.02,M,3.00,M,OVC,M,M,M,1100.00,M,M,M,-PL -SN BR,KMHT 010210Z AUTO 06005KT 3SM -PL -SN BR OVC011 A3002 RMK P0002 MADISHF
MHT,2017-04-01 02:14,-71.4357,42.9328,32.00,28.90,88.17,70.00,7.00,0.02,30.02,M,2.50,M,FEW,OVC,M,M,600.00,1100.00,M,M,-SNPL BR,KMHT 010214Z 07007KT 2 1/2SM -SNPL BR FEW006 OVC011 00/M02 A3002 RMK AO2 P0002 T00001017
MHT,2017-04-01 02:15,-71.4357,42.9328,M,M,M,50.00,5.00,0.02,30.02,M,2.50,M,OVC,M,M,M,1100.00,M,M,M,-PL -SN BR,KMHT 010215Z AUTO 05005KT 2 1/2SM -PL -SN BR OVC011 A3002 RMK P0002 MADISHF
MHT,2017-04-01 02:20,-71.4357,42.9328,M,M,M,60.00,5.00,0.03,30.02,M,2.00,M,SCT,BKN,OVC,M,800.00,1100.00,1999.00,M,-PL -SN BR,KMHT 010220Z AUTO 06005KT 2SM -PL -SN BR SCT008 BKN011 OVC019 A3002 RMK P0003 MADISHF
MHT,2017-04-01 02:25,-71.4357,42.9328,M,M,M,60.00,6.00,0.03,30.01,M,1.75,M,SCT,BKN,OVC,M,800.00,1300.00,1999.00,M,-PL -SN BR,KMHT 010225Z AUTO 06006KT 2SM -PL -SN BR SCT008 BKN013 OVC019 A3001 RMK P0003 MADISHF
MHT,2017-04-01 02:26,-71.4357,42.9328,32.00,28.90,88.17,70.00,6.00,0.03,30.01,M,1.50,M,SCT,BKN,OVC,M,800.00,1300.00,1700.00,M,-SNPL BR,KMHT 010226Z 07006KT 1 1/2SM -SNPL BR SCT008 BKN013 OVC017 00/M02 A3001 RMK AO2 P0003 T00001017
MHT,2017-04-01 02:30,-71.4357,42.9328,M,M,M,50.00,6.00,0.04,30.01,M,1.50,M,BKN,OVC,M,M,999.00,1500.00,M,M,-PL -SN BR,KMHT 010230Z AUTO 05006KT 1 1/2SM -PL -SN BR BKN009 OVC015 A3001 RMK P0004 MADISHF
MHT,2017-04-01 02:35,-71.4357,42.9328,M,M,M,70.00,6.00,0.04,30.01,M,1.00,M,OVC,M,M,M,1100.00,M,M,M,-PL -SN BR,KMHT 010235Z AUTO 07006KT 1SM -PL -SN BR OVC011 A3001 RMK P0004 MADISHF
MHT,2017-04-01 02:40,-71.4357,42.9328,M,M,M,70.00,5.00,0.04,30.01,M,1.00,M,SCT,OVC,M,M,800.00,1200.00,M,M,-PL -SN BR,KMHT 010240Z AUTO 07005KT 1SM -PL -SN BR SCT008 OVC012 A3001 RMK P0004 MADISHF
MHT,2017-04-01 02:45,-71.4357,42.9328,M,M,M,60.00,6.00,0.05,30.01,M,1.00,M,FEW,OVC,M,M,800.00,1200.00,M,M,-PL -SN BR,KMHT 010245Z AUTO 06006KT 1SM -PL -SN BR FEW008 OVC012 A3001 RMK P0005 MADISHF
MHT,2017-04-01 02:50,-71.4357,42.9328,M,M,M,60.00,5.00,0.05,30.00,M,1.25,M,SCT,OVC,M,M,800.00,1200.00,M,M,-PL -SN BR,KMHT 010250Z AUTO 06005KT 1 1/2SM -PL -SN BR SCT008 OVC012 A3000 RMK P0005 MADISHF
MHT,2017-04-01 02:53,-71.4357,42.9328,32.00,28.90,88.17,50.00,6.00,0.05,30.00,1017.80,1.25,M,SCT,OVC,M,M,800.00,1200.00,M,M,-SNPL BR,KMHT 010253Z 05006KT 1 1/4SM -SNPL BR SCT008 OVC012 00/M02 A3000 RMK AO2 SLP178 P0005 60020 T00001017 58021
MHT,2017-04-01 02:55,-71.4357,42.9328,M,M,M,60.00,5.00,M,30.00,M,1.25,M,SCT,OVC,M,M,800.00,1200.00,M,M,-PL -SN BR,KMHT 010255Z AUTO 06005KT 1 1/2SM -PL -SN BR SCT008 OVC012 A3000 RMK MADISHF
MHT,2017-04-01 03:00,-71.4357,42.9328,M,M,M,50.00,5.00,0.01,30.00,M,1.25,M,OVC,M,M,M,999.00,M,M,M,-PL -SN BR,KMHT 010300Z AUTO 05005KT 1 1/2SM -PL -SN BR OVC009 A3000 RMK P0001 MADISHF
MHT,2017-04-01 03:05,-71.4357,42.9328,M,M,M,80.00,7.00,0.01,30.00,M,2.00,M,BKN,OVC,M,M,999.00,1400.00,M,M,-PL -SN BR,KMHT 010305Z AUTO 08007KT 2SM -PL -SN BR BKN009 OVC014 A3000 RMK P0001 WND 04V11  MADISHF
MHT,2017-04-01 03:10,-71.4357,42.9328,M,M,M,80.00,6.00,0.01,29.99,M,1.50,M,BKN,OVC,M,M,999.00,1600.00,M,M,-PL -SN BR,KMHT 010310Z AUTO 08006KT 1 1/2SM -PL -SN BR BKN009 OVC016 A2999 RMK P0001 MADISHF
MHT,2017-04-01 03:13,-71.4357,42.9328,33.10,28.90,84.36,90.00,5.00,0.02,29.99,M,4.00,M,FEW,BKN,OVC,M,700.00,1000.00,1600.00,M,-SNPL BR,KMHT 010313Z 09005KT 4SM -SNPL BR FEW007 BKN010 OVC016 01/M02 A2999 RMK AO2 P0002 T00061017
MHT,2017-04-01 03:15,-71.4357,42.9328,M,M,M,80.00,6.00,0.02,29.99,M,5.00,M,BKN,OVC,M,M,999.00,1999.00,M,M,-PL -SN BR,KMHT 010315Z AUTO 08006KT 5SM -PL -SN BR BKN009 OVC019 A2999 RMK P0002 MADISHF
MHT,2017-04-01 03:20,-71.4357,42.9328,M,M,M,80.00,6.00,0.02,29.99,M,5.00,M,BKN,OVC,M,M,999.00,1500.00,M,M,-PL -SN BR,KMHT 010320Z AUTO 08006KT 5SM -PL -SN BR BKN009 OVC015 A2999 RMK P0002 MADISHF
MHT,2017-04-01 03:25,-71.4357,42.9328,M,M,M,70.00,7.00,0.03,29.99,M,5.00,M,BKN,BKN,OVC,M,1200.00,1699.00,3800.00,M,-PL -SN BR,KMHT 010325Z AUTO 07007KT 5SM -PL -SN BR BKN012 BKN016 OVC038 A2999 RMK P0003 MADISHF
MHT,2017-04-01 03:30,-71.4357,42.9328,M,M,M,80.00,6.00,0.03,29.99,M,5.00,M,BKN,OVC,M,M,1200.00,3800.00,M,M,-PL -SN BR,KMHT 010330Z AUTO 08006KT 5SM -PL -SN BR BKN012 OVC038 A2999 RMK P0003 MADISHF
MHT,2017-04-01 03:35,-71.4357,42.9328,M,M,M,70.00,7.00,0.04,29.98,M,4.00,M,BKN,OVC,M,M,1200.00,3800.00,M,M,-PL -SN BR,KMHT 010335Z AUTO 07007KT 4SM -PL -SN BR BKN012 OVC038 A2998 RMK P0004 MADISHF
MHT,2017-04-01 03:40,-71.4357,42.9328,M,M,M,70.00,8.00,0.04,29.98,M,4.00,M,SCT,BKN,OVC,M,999.00,1500.00,3800.00,M,-PL -SN BR,KMHT 010340Z AUTO 07008KT 4SM -PL -SN BR SCT009 BKN015 OVC038 A2998 RMK P0004 MADISHF
MHT,2017-04-01 03:45,-71.4357,42.9328,M,M,M,80.00,6.00,0.05,29.98,M,4.00,M,FEW,BKN,OVC,M,700.00,999.00,3800.00,M,-PL -SN BR,KMHT 010345Z AUTO 08006KT 4SM -PL -SN BR FEW007 BKN009 OVC038 A2998 RMK P0005 MADISHF
MHT,2017-04-01 03:50,-71.4357,42.9328,M,M,M,90.00,8.00,0.05,29.98,M,3.00,M,FEW,BKN,OVC,M,800.00,1300.00,3200.00,M,-PL -SN BR,KMHT 010350Z AUTO 09008KT 3SM -PL -SN BR FEW008 BKN013 OVC032 A2998 RMK P0005 MADISHF
MHT,2017-04-01 03:53,-71.4357,42.9328,33.10,28.90,84.36,90.00,6.00,0.06,29.98,1017.00,1.50,M,FEW,BKN,OVC,M,800.00,1300.00,3200.00,M,-SNPL BR,KMHT 010353Z 09006KT 1 1/2SM -SNPL BR FEW008 BKN013 OVC032 01/M02 A2998 RMK AO2 SLP170 P0006 T00061017
MHT,2017-04-01 03:55,-71.4357,42.9328,M,M,M,90.00,7.00,M,29.98,M,1.50,M,FEW,BKN,OVC,M,800.00,1300.00,2300.00,M,-PL -SN BR,KMHT 010355Z AUTO 09007KT 1 1/2SM -PL -SN BR FEW008 BKN013 OVC023 A2998 RMK MADISHF
MHT,2017-04-01 04:00,-71.4357,42.9328,M,M,M,70.00,6.00,0.01,29.98,M,1.50,M,FEW,BKN,OVC,M,800.00,1300.00,2300.00,M,-PL -SN BR,KMHT 010400Z AUTO 07006KT 1 1/2SM -PL -SN BR FEW008 BKN013 OVC023 A2998 RMK P0001 MADISHF
MHT,2017-04-01 04:05,-71.4357,42.9328,M,M,M,60.00,5.00,0.02,29.98,M,1.50,M,FEW,BKN,OVC,M,800.00,1300.00,2300.00,M,-PL -SN BR,KMHT 010405Z AUTO 06005KT 1 1/2SM -PL -SN BR FEW008 BKN013 OVC023 A2998 RMK P0002 MADISHF
MHT,2017-04-01 04:10,-71.4357,42.9328,M,M,M,60.00,6.00,0.03,29.97,M,1.25,M,FEW,BKN,OVC,M,800.00,1300.00,2300.00,M,-PL -SN BR,KMHT 010410Z AUTO 06006KT 1 1/2SM -PL -SN BR FEW008 BKN013 OVC023 A2997 RMK P0003 MADISHF
MHT,2017-04-01 04:15,-71.4357,42.9328,M,M,M,40.00,4.00,0.03,29.97,M,1.00,M,FEW,BKN,OVC,M,800.00,1300.00,2300.00,M,-PL -SN BR,KMHT 010415Z AUTO 04004KT 1SM -PL -SN BR FEW008 BKN013 OVC023 A2997 RMK P0003 MADISHF
MHT,2017-04-01 04:20,-71.4357,42.9328,M,M,M,30.00,6.00,0.04,29.97,M,1.00,M,FEW,BKN,OVC,M,800.00,1300.00,2300.00,M,-PL -SN BR,KMHT 010420Z AUTO 03006KT 1SM -PL -SN BR FEW008 BKN013 OVC023 A2997 RMK P0004 MADISHF
MHT,2017-04-01 04:25,-71.4357,42.9328,M,M,M,40.00,4.00,0.05,29.97,M,1.00,M,FEW,OVC,M,M,800.00,1300.00,M,M,-PL -SN BR,KMHT 010425Z AUTO 04004KT 1SM -PL -SN BR FEW008 OVC013 A2997 RMK P0005 MADISHF
MHT,2017-04-01 04:30,-71.4357,42.9328,33.10,30.00,88.23,50.00,4.00,0.06,29.96,M,0.75,M,SCT,OVC,M,M,800.00,1300.00,M,M,-SNPL BR,KMHT 010430Z 05004KT 3/4SM R35/6000VP6000FT -SNPL BR SCT008 OVC013 01/M01 A2996 RMK AO2 P0006 T00061011
MHT,2017-04-01 04:35,-71.4357,42.9328,M,M,M,50.00,5.00,0.07,29.96,M,0.75,M,SCT,OVC,M,M,800.00,1300.00,M,M,-PL -SN BR,KMHT 010435Z AUTO 05005KT 1SM -PL -SN BR SCT008 OVC013 A2996 RMK P0007 MADISHF
MHT,2017-04-01 04:40,-71.4357,42.9328,M,M,M,50.00,4.00,0.08,29.96,M,0.75,M,SCT,OVC,M,M,800.00,1300.00,M,M,-PL -SN BR,KMHT 010440Z AUTO 05004KT 1SM -PL -SN BR SCT008 OVC013 A2996 RMK P0008 MADISHF
MHT,2017-04-01 04:45,-71.4357,42.9328,M,M,M,40.00,5.00,0.09,29.96,M,0.75,M,SCT,OVC,M,M,800.00,1300.00,M,M,-PL -SN BR,KMHT 010445Z AUTO 04005KT 1SM -PL -SN BR SCT008 OVC013 A2996 RMK P0009 MADISHF
MHT,2017-04-01 04:50,-71.4357,42.9328,M,M,M,40.00,5.00,0.09,29.95,M,0.75,M,OVC,M,M,M,900.00,M,M,M,-PL -SN BR,KMHT 010450Z AUTO 04005KT 1SM -PL -SN BR OVC009 A2995 RMK P0009 MADISHF
MHT,2017-04-01 04:53,-71.4357,42.9328,33.10,30.00,88.23,40.00,6.00,0.10,29.95,1016.10,0.75,M,OVC,M,M,M,900.00,M,M,M,-SNPL BR,KMHT 010453Z 04006KT 3/4SM R35/5500VP6000FT -SNPL BR OVC009 01/M01 A2995 RMK AO2 SLP161 P0010 T00061011 400281006
MHT,2017-04-01 04:55,-71.4357,42.9328,M,M,M,50.00,7.00,M,29.95,M,0.75,M,VV ,M,M,M,800.00,M,M,M,-PL -SN BR,KMHT 010455Z AUTO 05007KT 1SM -PL -SN BR VV008 A2995 RMK MADISHF
MHT,2017-04-01 05:00,-71.4357,42.9328,M,M,M,50.00,6.00,0.01,29.95,M,0.75,M,OVC,M,M,M,800.00,M,M,M,-PL -SN BR,KMHT 010500Z AUTO 05006KT 1SM -PL -SN BR OVC008 A2995 RMK P0001 MADISHF
MHT,2017-04-01 05:05,-71.4357,42.9328,M,M,M,60.00,9.00,0.01,29.95,M,0.75,M,VV ,M,M,M,900.00,M,M,M,-PL -SN BR,KMHT 010505Z AUTO 06009KT 1SM -PL -SN BR VV009 A2995 RMK P0001 MADISHF
MHT,2017-04-01 05:10,-71.4357,42.9328,M,M,M,60.00,6.00,0.02,29.94,M,0.75,M,SCT,OVC,M,M,499.00,900.00,M,M,-PL -SN BR,KMHT 010510Z AUTO 06006KT 1SM -PL -SN BR SCT004 OVC009 A2994 RMK P0002 MADISHF
MHT,2017-04-01 05:12,-71.4357,42.9328,33.10,30.00,88.23,60.00,7.00,0.02,29.94,M,1.00,M,SCT,OVC,M,M,500.00,900.00,M,M,-SNPL BR,KMHT 010512Z 06007KT 1SM R35/P6000FT -SNPL BR SCT005 OVC009 01/M01 A2994 RMK AO2 VIS 3/4V1 1/2 P0002 T00061011
MHT,2017-04-01 05:15,-71.4357,42.9328,M,M,M,50.00,7.00,0.03,29.94,M,1.00,M,SCT,OVC,M,M,499.00,900.00,M,M,-PL -SN BR,KMHT 010515Z AUTO 05007KT 1SM -PL -SN BR SCT004 OVC009 A2994 RMK P0003  VIS 3/4V1 1/2 MADISHF
MHT,2017-04-01 05:20,-71.4357,42.9328,M,M,M,70.00,7.00,0.03,29.94,M,1.00,M,SCT,OVC,M,M,499.00,900.00,M,M,-PL -SN BR,KMHT 010520Z AUTO 07007KT 1SM -PL -SN BR SCT004 OVC009 A2994 RMK P0003  VIS 3/4V1 1/2 MADISHF
MHT,2017-04-01 05:25,-71.4357,42.9328,M,M,M,60.00,6.00,0.04,29.94,M,1.25,M,SCT,OVC,M,M,499.00,900.00,M,M,-PL -SN BR,KMHT 010525Z AUTO 06006KT 1 1/2SM -PL -SN BR SCT004 OVC009 A2994 RMK P0004  VIS 3/4V1 1/2 MADISHF
MHT,2017-04-01 05:30,-71.4357,42.9328,M,M,M,70.00,7.00,0.04,29.94,M,1.75,M,SCT,OVC,M,M,499.00,900.00,M,M,-PL -SN BR,KMHT 010530Z AUTO 07007KT 2SM -PL -SN BR SCT004 OVC009 A2994 RMK P0004  VIS 3/4V1 1/2 MADISHF
MHT,2017-04-01 05:32,-71.4357,42.9328,33.10,30.00,88.23,80.00,8.00,0.04,29.94,M,2.00,M,FEW,OVC,M,M,500.00,1300.00,M,M,-SNPL BR,KMHT 010532Z 08008KT 2SM -SNPL BR FEW005 OVC013 01/M01 A2994 RMK AO2 VIS 3/4V1 1/2 P0004 T00061011
MHT,2017-04-01 05:35,-71.4357,42.9328,M,M,M,70.00,7.00,0.05,29.94,M,2.00,M,FEW,OVC,M,M,499.00,1300.00,M,M,-PL -SN BR,KMHT 010535Z AUTO 07007KT 2SM -PL -SN BR FEW004 OVC013 A2994 RMK P0005 MADISHF
MHT,2017-04-01 05:40,-71.4357,42.9328,M,M,M,70.00,7.00,0.05,29.94,M,1.75,M,FEW,OVC,M,M,499.00,1300.00,M,M,-PL -SN BR,KMHT 010540Z AUTO 07007KT 2SM -PL -SN BR FEW004 OVC013 A2994 RMK P0005 MADISHF
MHT,2017-04-01 05:45,-71.4357,42.9328,M,M,M,80.00,7.00,0.06,29.94,M,2.00,M,FEW,OVC,M,M,499.00,1300.00,M,M,-PL -SN BR,KMHT 010545Z AUTO 08007KT 2SM -PL -SN BR FEW004 OVC013 A2994 RMK P0006 MADISHF
MHT,2017-04-01 05:50,-71.4357,42.9328,M,M,M,60.00,9.00,0.06,29.94,M,2.00,M,FEW,OVC,M,M,499.00,999.00,M,M,-PL -SN BR,KMHT 010550Z AUTO 06009KT 2SM -PL -SN BR FEW004 OVC009 A2994 RMK P0006 MADISHF
MHT,2017-04-01 05:53,-71.4357,42.9328,33.10,30.00,88.23,70.00,7.00,0.07,29.94,1015.50,1.00,M,FEW,OVC,M,M,500.00,1000.00,M,M,-SNPL BR,KMHT 010553Z 07007KT 1SM R35/6000VP6000FT -SNPL BR FEW005 OVC010 01/M01 A2994 RMK AO2 SLP155 4/006 P0007 60043 T00061011 10006 20000 56023
MHT,2017-04-01 05:55,-71.4357,42.9328,M,M,M,60.00,6.00,M,29.94,M,1.00,M,OVC,M,M,M,999.00,M,M,M,-PL -SN BR,KMHT 010555Z AUTO 06006KT 1SM -PL -SN BR OVC009 A2994 RMK MADISHF
MHT,2017-04-01 06:00,-71.4357,42.9328,M,M,M,60.00,7.00,M,29.93,M,0.75,M,OVC,M,M,M,999.00,M,M,M,-PL -SN BR,KMHT 010600Z AUTO 06007KT 1SM -PL -SN BR OVC009 A2993 RMK MADISHF
MHT,2017-04-01 06:05,-71.4357,42.9328,M,M,M,60.00,9.00,0.01,29.93,M,1.00,M,OVC,M,M,M,999.00,M,M,M,-PL -SN BR,KMHT 010605Z AUTO 06009KT 1SM -PL -SN BR OVC009 A2993 RMK P0001 MADISHF
MHT,2017-04-01 06:10,-71.4357,42.9328,M,M,M,50.00,8.00,0.02,29.92,M,0.75,M,VV ,M,M,M,999.00,M,M,M,-PL -SN BR,KMHT 010610Z AUTO 05008KT 1SM -PL -SN BR VV009 A2992 RMK P0002 MADISHF
MHT,2017-04-01 06:13,-71.4357,42.9328,33.10,30.00,88.23,60.00,9.00,0.02,29.93,M,0.75,M,VV ,M,M,M,1000.00,M,M,M,-SNPL BR,KMHT 010613Z 06009KT 030V090 3/4SM R35/5500VP6000FT -SNPL BR VV010 01/M01 A2993 RMK AO2 P0002 T00061011
MHT,2017-04-01 06:15,-71.4357,42.9328,M,M,M,70.00,8.00,0.02,29.93,M,0.75,M,VV ,M,M,M,900.00,M,M,M,-PL -SN BR,KMHT 010615Z AUTO 07008KT 1SM -PL -SN BR VV009 A2993 RMK P0002 MADISHF
MHT,2017-04-01 06:16,-71.4357,42.9328,33.10,30.00,88.23,60.00,7.00,0.02,29.92,M,0.75,M,VV ,M,M,M,900.00,M,M,M,-SNPL BR,KMHT 010616Z 06007KT 3/4SM R35/5500VP6000FT -SNPL BR VV009 01/M01 A2992 RMK AO2 P0002 T00061011
MHT,2017-04-01 06:20,-71.4357,42.9328,M,M,M,50.00,8.00,0.02,29.92,M,0.75,M,VV ,M,M,M,800.00,M,M,M,-PL -SN BR,KMHT 010620Z AUTO 05008KT 1SM -PL -SN BR VV008 A2992 RMK P0002 MADISHF
MHT,2017-04-01 06:25,-71.4357,42.9328,M,M,M,60.00,8.00,0.03,29.92,M,0.75,M,VV ,M,M,M,800.00,M,M,M,-PL -SN BR,KMHT 010625Z AUTO 06008KT 1SM -PL -SN BR VV008 A2992 RMK P0003 MADISHF
MHT,2017-04-01 06:30,-71.4357,42.9328,M,M,M,40.00,8.00,0.04,29.91,M,0.75,M,VV ,M,M,M,800.00,M,M,M,-PL -SN BR,KMHT 010630Z AUTO 04008KT 1SM -PL -SN BR VV008 A2991 RMK P0004 MADISHF
MHT,2017-04-01 06:35,-71.4357,42.9328,M,M,M,50.00,9.00,0.04,29.91,M,0.75,M,VV ,M,M,M,800.00,M,M,M,-PL -SN BR,KMHT 010635Z AUTO 05009KT 1SM -PL -SN BR VV008 A2991 RMK P0004 MADISHF
MHT,2017-04-01 06:40,-71.4357,42.9328,M,M,M,40.00,6.00,0.05,29.91,M,0.75,M,VV ,M,M,M,800.00,M,M,M,-PL -SN BR,KMHT 010640Z AUTO 04006KT 1SM -PL -SN BR VV008 A2991 RMK P0005 MADISHF
MHT,2017-04-01 06:45,-71.4357,42.9328,M,M,M,50.00,7.00,0.06,29.90,M,0.75,M,VV ,M,M,M,800.00,M,M,M,-PL -SN BR,KMHT 010645Z AUTO 05007KT 1SM -PL -SN BR VV008 A2990 RMK P0006 MADISHF
MHT,2017-04-01 06:50,-71.4357,42.9328,M,M,M,50.00,7.00,0.06,29.90,M,0.75,M,VV ,M,M,M,800.00,M,M,M,-PL -SN BR,KMHT 010650Z AUTO 05007KT 1SM -PL -SN BR VV008 A2990 RMK P0006  SNINCR 1/7 MADISHF
MHT,2017-04-01 06:53,-71.4357,42.9328,33.10,30.00,88.23,60.00,9.00,0.07,29.90,1014.30,1.00,M,VV ,M,M,M,800.00,M,M,M,-SNPL BR,KMHT 010653Z 06009KT 1SM R35/6000VP6000FT -SNPL BR VV008 01/M01 A2990 RMK AO2 SLP143 SNINCR 1/7 P0007 T00061011
MHT,2017-04-01 06:55,-71.4357,42.9328,M,M,M,60.00,10.00,M,29.90,M,1.00,M,VV ,M,M,M,900.00,M,M,M,-PL -SN BR,KMHT 010655Z AUTO 06010KT 1SM -PL -SN BR VV009 A2990 RMK MADISHF
MHT,2017-04-01 07:00,-71.4357,42.9328,M,M,M,50.00,7.00,0.01,29.90,M,1.00,M,VV ,M,M,M,900.00,M,M,M,-PL -SN BR,KMHT 010700Z AUTO 05007KT 1SM -PL -SN BR VV009 A2990 RMK P0001 MADISHF
MHT,2017-04-01 07:05,-71.4357,42.9328,M,M,M,50.00,9.00,0.02,29.89,M,1.00,M,VV ,M,M,M,900.00,M,M,M,-PL -SN BR,KMHT 010705Z AUTO 05009KT 1SM -PL -SN BR VV009 A2989 RMK P0002 MADISHF
MHT,2017-04-01 07:10,-71.4357,42.9328,M,M,M,50.00,9.00,0.03,29.89,M,0.75,M,BKN,OVC,M,M,900.00,1500.00,M,M,-PL -SN BR,KMHT 010710Z AUTO 05009KT 1SM -PL -SN BR BKN009 OVC015 A2989 RMK P0003 MADISHF
MHT,2017-04-01 07:15,-71.4357,42.9328,M,M,M,50.00,8.00,0.03,29.89,M,1.00,M,BKN,OVC,M,M,900.00,1500.00,M,M,-PL -SN BR,KMHT 010715Z AUTO 05008KT 1SM -PL -SN BR BKN009 OVC015 A2989 RMK P0003 MADISHF
MHT,2017-04-01 07:20,-71.4357,42.9328,M,M,M,60.00,9.00,0.03,29.89,M,1.50,M,BKN,OVC,M,M,900.00,1500.00,M,M,-PL -SN BR,KMHT 010720Z AUTO 06009KT 1 1/2SM -PL -SN BR BKN009 OVC015 A2989 RMK P0003 MADISHF
MHT,2017-04-01 07:25,-71.4357,42.9328,M,M,M,60.00,8.00,0.04,29.89,M,1.75,M,BKN,OVC,M,M,900.00,1500.00,M,M,-PL -SN BR,KMHT 010725Z AUTO 06008KT 2SM -PL -SN BR BKN009 OVC015 A2989 RMK P0004 MADISHF
MHT,2017-04-01 07:30,-71.4357,42.9328,M,M,M,60.00,9.00,0.04,29.89,M,1.75,M,BKN,OVC,M,M,900.00,1500.00,M,M,-PL -SN BR,KMHT 010730Z AUTO 06009KT 2SM -PL -SN BR BKN009 OVC015 A2989 RMK P0004 MADISHF
MHT,2017-04-01 07:32,-71.4357,42.9328,33.10,30.00,88.23,70.00,7.00,0.05,29.89,M,2.50,M,BKN,OVC,M,M,800.00,1500.00,M,M,-SNPL BR,KMHT 010732Z 07007KT 010V090 2 1/2SM -SNPL BR BKN008 OVC015 01/M01 A2989 RMK AO2 P0005 T00061011
MHT,2017-04-01 07:35,-71.4357,42.9328,M,M,M,50.00,7.00,0.05,29.89,M,2.50,M,BKN,OVC,M,M,800.00,1500.00,M,M,-PL -SN BR,KMHT 010735Z AUTO 05007KT 2 1/2SM -PL -SN BR BKN008 OVC015 A2989 RMK P0005 MADISHF
MHT,2017-04-01 07:40,-71.4357,42.9328,M,M,M,60.00,7.00,0.06,29.88,M,2.50,M,BKN,OVC,M,M,800.00,1500.00,M,M,-PL -SN BR,KMHT 010740Z AUTO 06007KT 2 1/2SM -PL -SN BR BKN008 OVC015 A2988 RMK P0006 MADISHF
MHT,2017-04-01 07:45,-71.4357,42.9328,M,M,M,60.00,10.00,0.06,29.88,M,2.50,M,BKN,OVC,M,M,800.00,1500.00,M,M,-PL -SN BR,KMHT 010745Z AUTO 06010KT 2 1/2SM -PL -SN BR BKN008 OVC015 A2988 RMK P0006 MADISHF
MHT,2017-04-01 07:50,-71.4357,42.9328,M,M,M,50.00,10.00,0.07,29.87,M,2.50,15.00,BKN,OVC,M,M,800.00,1500.00,M,M,-PL -SN BR,KMHT 010750Z AUTO 05010G15KT 2 1/2SM -PL -SN BR BKN008 OVC015 A2987 RMK P0007 MADISHF
MHT,2017-04-01 07:53,-71.4357,42.9328,33.10,30.00,88.23,50.00,9.00,0.07,29.87,1013.50,2.50,M,FEW,BKN,OVC,M,800.00,1200.00,1800.00,M,-SNPL BR,KMHT 010753Z 05009KT 2 1/2SM -SNPL BR FEW008 BKN012 OVC018 01/M01 A2987 RMK AO2 SLP135 P0007 T00061011
MHT,2017-04-01 07:55,-71.4357,42.9328,M,M,M,50.00,10.00,M,29.87,M,2.50,16.00,BKN,OVC,M,M,1200.00,1800.00,M,M,-PL -SN BR,KMHT 010755Z AUTO 05010G16KT 2 1/2SM -PL -SN BR BKN012 OVC018 A2987 RMK MADISHF
MHT,2017-04-01 08:00,-71.4357,42.9328,M,M,M,50.00,9.00,0.01,29.87,M,2.50,M,OVC,M,M,M,1200.00,M,M,M,-PL -SN BR,KMHT 010800Z AUTO 05009KT 2 1/2SM -PL -SN BR OVC012 A2987 RMK P0001 MADISHF
MHT,2017-04-01 08:05,-71.4357,42.9328,M,M,M,50.00,8.00,0.01,29.87,M,2.50,M,BKN,OVC,M,M,1200.00,1699.00,M,M,-PL -SN BR,KMHT 010805Z AUTO 05008KT 2 1/2SM -PL -SN BR BKN012 OVC016 A2987 RMK P0001 MADISHF
MHT,2017-04-01 08:10,-71.4357,42.9328,33.10,30.00,88.23,60.00,7.00,0.02,29.87,M,4.00,M,FEW,BKN,OVC,M,800.00,1200.00,1700.00,M,-SNPL BR,KMHT 010810Z 06007KT 4SM -SNPL BR FEW008 BKN012 OVC017 01/M01 A2987 RMK AO2 P0002 T00061011
MHT,2017-04-01 08:15,-71.4357,42.9328,M,M,M,50.00,7.00,0.03,29.87,M,4.00,M,FEW,BKN,OVC,M,800.00,1200.00,1699.00,M,-PL -SN BR,KMHT 010815Z AUTO 05007KT 4SM -PL -SN BR FEW008 BKN012 OVC016 A2987 RMK P0003 MADISHF
MHT,2017-04-01 08:20,-71.4357,42.9328,M,M,M,40.00,9.00,0.03,29.87,M,3.50,15.00,FEW,BKN,OVC,M,800.00,1200.00,1699.00,M,-PL -SN BR,KMHT 010820Z AUTO 04009G15KT 3SM -PL -SN BR FEW008 BKN012 OVC016 A2987 RMK P0003 WND 01V07  MADISHF
MHT,2017-04-01 08:25,-71.4357,42.9328,M,M,M,50.00,9.00,0.04,29.87,M,3.50,M,SCT,OVC,M,M,800.00,1200.00,M,M,-PL -SN BR,KMHT 010825Z AUTO 05009KT 3SM -PL -SN BR SCT008 OVC012 A2987 RMK P0004 MADISHF
MHT,2017-04-01 08:30,-71.4357,42.9328,M,M,M,60.00,10.00,0.05,29.87,M,3.00,M,BKN,OVC,M,M,1200.00,1699.00,M,M,-PL -SN BR,KMHT 010830Z AUTO 06010KT 3SM -PL -SN BR BKN012 OVC016 A2987 RMK P0005 MADISHF
MHT,2017-04-01 08:35,-71.4357,42.9328,M,M,M,40.00,9.00,0.05,29.87,M,4.00,M,FEW,BKN,OVC,M,800.00,1200.00,1699.00,M,-PL -SN BR,KMHT 010835Z AUTO 04009KT 4SM -PL -SN BR FEW008 BKN012 OVC016 A2987 RMK P0005 MADISHF
MHT,2017-04-01 08:40,-71.4357,42.9328,M,M,M,50.00,10.00,0.06,29.87,M,4.00,M,FEW,BKN,OVC,M,800.00,1200.00,1699.00,M,-PL -SN BR,KMHT 010840Z AUTO 05010KT 4SM -PL -SN BR FEW008 BKN012 OVC016 A2987 RMK P0006 MADISHF
MHT,2017-04-01 08:45,-71.4357,42.9328,M,M,M,30.00,10.00,0.07,29.86,M,3.00,16.00,BKN,OVC,M,M,1200.00,1999.00,M,M,-PL -SN BR,KMHT 010845Z AUTO 03010G16KT 3SM -PL -SN BR BKN012 OVC019 A2986 RMK P0007 MADISHF
MHT,2017-04-01 08:50,-71.4357,42.9328,M,M,M,50.00,10.00,0.08,29.86,M,5.00,M,FEW,BKN,OVC,M,800.00,1200.00,1999.00,M,-PL -SN BR,KMHT 010850Z AUTO 05010KT 5SM -PL -SN BR FEW008 BKN012 OVC019 A2986 RMK P0008 MADISHF
MHT,2017-04-01 08:53,-71.4357,42.9328,33.10,28.90,84.36,40.00,10.00,0.08,29.86,1013.00,5.00,17.00,FEW,BKN,OVC,M,800.00,1200.00,2000.00,M,-SNPL BR,KMHT 010853Z 04010G17KT 5SM -SNPL BR FEW008 BKN012 OVC020 01/M02 A2986 RMK AO2 SLP130 P0008 60022 T00061017 56025
MHT,2017-04-01 08:55,-71.4357,42.9328,M,M,M,M,M,M,29.86,M,3.00,M,SCT,OVC,M,M,900.00,1400.00,M,M,-PL -SN BR,KMHT 010855Z AUTO /////KT 3SM -PL -SN BR SCT009 OVC014 A2986 RMK MADISHF
MHT,2017-04-01 09:00,-71.4357,42.9328,M,M,M,40.00,6.00,M,29.86,M,4.00,M,BKN,OVC,M,M,1200.00,1600.00,M,M,-PL -SN BR,KMHT 010900Z AUTO 04006KT 4SM -PL -SN BR BKN012 OVC016 A2986 RMK VRB06KT  MADISHF
MHT,2017-04-01 09:05,-71.4357,42.9328,M,M,M,40.00,11.00,M,29.86,M,3.50,16.00,BKN,OVC,M,M,1200.00,1600.00,M,M,-PL -SN BR,KMHT 010905Z AUTO 04011G16KT 3SM -PL -SN BR BKN012 OVC016 A2986 RMK MADISHF
MHT,2017-04-01 09:10,-71.4357,42.9328,M,M,M,50.00,11.00,0.01,29.85,M,3.50,M,BKN,OVC,M,M,1200.00,1800.00,M,M,-PL -SN BR,KMHT 010910Z AUTO 05011KT 3SM -PL -SN BR BKN012 OVC018 A2985 RMK P0001 MADISHF
MHT,2017-04-01 09:15,-71.4357,42.9328,M,M,M,M,M,0.01,29.85,M,3.50,M,BKN,OVC,M,M,1200.00,1699.00,M,M,-PL -SN BR,KMHT 010915Z AUTO /////KT 3SM -PL -SN BR BKN012 OVC016 A2985 RMK P0001 MADISHF
MHT,2017-04-01 09:20,-71.4357,42.9328,M,M,M,40.00,9.00,0.01,29.85,M,3.00,15.00,BKN,OVC,M,M,1200.00,1699.00,M,M,-PL -SN BR,KMHT 010920Z AUTO 04009G15KT 3SM -PL -SN BR BKN012 OVC016 A2985 RMK P0001 MADISHF
MHT,2017-04-01 09:25,-71.4357,42.9328,M,M,M,30.00,10.00,0.02,29.85,M,3.00,M,BKN,OVC,M,M,1200.00,1699.00,M,M,-PL -SN BR,KMHT 010925Z AUTO 03010KT 3SM -PL -SN BR BKN012 OVC016 A2985 RMK P0002 MADISHF
MHT,2017-04-01 09:30,-71.4357,42.9328,M,M,M,50.00,9.00,0.02,29.85,M,3.00,M,BKN,OVC,M,M,1200.00,1699.00,M,M,-PL -SN BR,KMHT 010930Z AUTO 05009KT 3SM -PL -SN BR BKN012 OVC016 A2985 RMK P0002 MADISHF
MHT,2017-04-01 09:35,-71.4357,42.9328,M,M,M,50.00,12.00,0.02,29.85,M,3.00,M,BKN,OVC,M,M,1200.00,1800.00,M,M,-PL -SN BR,KMHT 010935Z AUTO 05012KT 3SM -PL -SN BR BKN012 OVC018 A2985 RMK P0002 MADISHF
MHT,2017-04-01 09:40,-71.4357,42.9328,M,M,M,50.00,9.00,0.03,29.85,M,3.00,M,BKN,OVC,M,M,1200.00,1800.00,M,M,-PL -SN BR,KMHT 010940Z AUTO 05009KT 3SM -PL -SN BR BKN012 OVC018 A2985 RMK P0003 MADISHF
MHT,2017-04-01 09:45,-71.4357,42.9328,M,M,M,40.00,8.00,0.03,29.85,M,3.00,M,BKN,OVC,M,M,1200.00,1699.00,M,M,-PL -SN BR,KMHT 010945Z AUTO 04008KT 3SM -PL -SN BR BKN012 OVC016 A2985 RMK P0003 MADISHF
MHT,2017-04-01 09:50,-71.4357,42.9328,M,M,M,40.00,8.00,0.04,29.85,M,5.00,M,FEW,BKN,OVC,M,700.00,1200.00,1699.00,M,-PL -SN BR,KMHT 010950Z AUTO 04008KT 5SM -PL -SN BR FEW007 BKN012 OVC016 A2985 RMK P0004 MADISHF
MHT,2017-04-01 09:53,-71.4357,42.9328,34.00,30.00,85.11,50.00,9.00,0.04,29.85,1012.60,5.00,M,FEW,BKN,OVC,M,700.00,1200.00,1700.00,M,-SNPL BR,KMHT 010953Z 05009KT 5SM -SNPL BR FEW007 BKN012 OVC017 01/M01 A2985 RMK AO2 SLP126 P0004 T00111011
MHT,2017-04-01 09:55,-71.4357,42.9328,M,M,M,40.00,9.00,M,29.85,M,3.00,M,OVC,M,M,M,1200.00,M,M,M,-PL -SN BR,KMHT 010955Z AUTO 04009KT 3SM -PL -SN BR OVC012 A2985 RMK WND 36V07  MADISHF
MHT,2017-04-01 10:00,-71.4357,42.9328,M,M,M,M,M,0.01,29.85,M,3.00,M,OVC,M,M,M,1200.00,M,M,M,-PL -SN BR,KMHT 011000Z AUTO /////KT 3SM -PL -SN BR OVC012 A2985 RMK P0001 MADISHF
MHT,2017-04-01 10:05,-71.4357,42.9328,M,M,M,40.00,7.00,0.01,29.85,M,3.00,M,OVC,M,M,M,1300.00,M,M,M,-PL -SN BR,KMHT 011005Z AUTO 04007KT 3SM -PL -SN BR OVC013 A2985 RMK P0001 MADISHF
MHT,2017-04-01 10:10,-71.4357,42.9328,M,M,M,40.00,10.00,0.02,29.85,M,3.50,M,OVC,M,M,M,1300.00,M,M,M,-PL -SN BR,KMHT 011010Z AUTO 04010KT 3SM -PL -SN BR OVC013 A2985 RMK P0002 MADISHF
MHT,2017-04-01 10:15,-71.4357,42.9328,M,M,M,40.00,9.00,0.02,29.85,M,4.00,15.00,OVC,M,M,M,1200.00,M,M,M,-PL -SN BR,KMHT 011015Z AUTO 04009G15KT 4SM -PL -SN BR OVC012 A2985 RMK P0002 MADISHF
MHT,2017-04-01 10:20,-71.4357,42.9328,M,M,M,M,M,0.02,29.85,M,4.00,M,OVC,M,M,M,1200.00,M,M,M,-PL -SN BR,KMHT 011020Z AUTO /////KT 4SM -PL -SN BR OVC012 A2985 RMK P0002 MADISHF
MHT,2017-04-01 10:25,-71.4357,42.9328,M,M,M,30.00,9.00,0.02,29.85,M,4.00,M,OVC,M,M,M,1300.00,M,M,M,-PL -SN BR,KMHT 011025Z AUTO 03009KT 4SM -PL -SN BR OVC013 A2985 RMK P0002 MADISHF
MHT,2017-04-01 10:26,-71.4357,42.9328,34.00,30.00,85.11,40.00,10.00,0.02,29.85,M,2.00,17.00,OVC,M,M,M,1300.00,M,M,M,-PLSN BR,KMHT 011026Z 04010G17KT 010V080 2SM -PLSN BR OVC013 01/M01 A2985 RMK AO2 P0002 T00111011
MHT,2017-04-01 10:30,-71.4357,42.9328,M,M,M,40.00,10.00,0.03,29.85,M,2.00,M,OVC,M,M,M,1100.00,M,M,M,-SN BR,KMHT 011030Z AUTO 04010KT 2SM -SN BR OVC011 A2985 RMK P0003 MADISHF
MHT,2017-04-01 10:35,-71.4357,42.9328,M,M,M,M,M,0.03,29.85,M,2.00,M,OVC,M,M,M,1300.00,M,M,M,-SN BR,KMHT 011035Z AUTO /////KT 2SM -SN BR OVC013 A2985 RMK P0003 MADISHF
MHT,2017-04-01 10:40,-71.4357,42.9328,M,M,M,30.00,10.00,0.03,29.85,M,2.00,M,BKN,OVC,M,M,1300.00,1800.00,M,M,-SN BR,KMHT 011040Z AUTO 03010KT 2SM -SN BR BKN013 OVC018 A2985 RMK P0003 MADISHF
MHT,2017-04-01 10:45,-71.4357,42.9328,M,M,M,M,M,0.03,29.85,M,2.00,M,BKN,OVC,M,M,1300.00,1800.00,M,M,-SN BR,KMHT 011045Z AUTO /////KT 2SM -SN BR BKN013 OVC018 A2985 RMK P0003 MADISHF
MHT,2017-04-01 10:50,-71.4357,42.9328,M,M,M,M,M,0.04,29.85,M,2.00,M,BKN,OVC,M,M,999.00,1500.00,M,M,-SN BR,KMHT 011050Z AUTO /////KT 2SM -SN BR BKN009 OVC015 A2985 RMK P0004 MADISHF
MHT,2017-04-01 10:53,-71.4357,42.9328,34.00,30.00,85.11,30.00,9.00,0.04,29.85,1012.60,1.00,20.00,BKN,OVC,M,M,1000.00,1500.00,M,M,-PLSN BR,KMHT 011053Z 03009G20KT 1SM R35/P6000FT -PLSN BR BKN010 OVC015 01/M01 A2985 RMK AO2 SLP126 P0004 T00111011
MHT,2017-04-01 10:55,-71.4357,42.9328,M,M,M,M,M,M,29.85,M,1.00,M,BKN,OVC,M,M,999.00,1500.00,M,M,-SN BR,KMHT 011055Z AUTO /////KT 1SM -SN BR BKN009 OVC015 A2985 RMK MADISHF
MHT,2017-04-01 11:00,-71.4357,42.9328,M,M,M,30.00,9.00,M,29.85,M,1.00,M,OVC,M,M,M,1300.00,M,M,M,-SN BR,KMHT 011100Z AUTO 03009KT 1SM -SN BR OVC013 A2985 RMK MADISHF
MHT,2017-04-01 11:05,-71.4357,42.9328,M,M,M,M,M,M,29.85,M,1.00,M,OVC,M,M,M,1200.00,M,M,M,-SN BR,KMHT 011105Z AUTO /////KT 1SM -SN BR OVC012 A2985 RMK MADISHF
MHT,2017-04-01 11:10,-71.4357,42.9328,M,M,M,30.00,10.00,0.01,29.85,M,1.00,M,BKN,OVC,M,M,999.00,1600.00,M,M,-SN BR,KMHT 011110Z AUTO 03010KT 1SM -SN BR BKN009 OVC016 A2985 RMK P0001 MADISHF
MHT,2017-04-01 11:15,-71.4357,42.9328,M,M,M,30.00,9.00,0.01,29.85,M,1.00,M,OVC,M,M,M,1200.00,M,M,M,-SN BR,KMHT 011115Z AUTO 03009KT 1SM -SN BR OVC012 A2985 RMK P0001 MADISHF
MHT,2017-04-01 11:20,-71.4357,42.9328,M,M,M,30.00,9.00,0.02,29.85,M,1.00,14.00,OVC,M,M,M,1200.00,M,M,M,-SN BR,KMHT 011120Z AUTO 03009G14KT 1SM -SN BR OVC012 A2985 RMK P0002 MADISHF
MHT,2017-04-01 11:25,-71.4357,42.9328,M,M,M,40.00,7.00,0.02,29.85,M,1.00,M,OVC,M,M,M,1200.00,M,M,M,-SN BR,KMHT 011125Z AUTO 04007KT 1SM -SN BR OVC012 A2985 RMK P0002 MADISHF
MHT,2017-04-01 11:30,-71.4357,42.9328,34.00,30.00,85.11,40.00,12.00,0.02,29.85,M,1.00,18.00,OVC,M,M,M,900.00,M,M,M,-SNPL BR,KMHT 011130Z 04012G18KT 1SM R35/P6000FT -SNPL BR OVC009 01/M01 A2985 RMK AO2 P0002 T00111011
MHT,2017-04-01 11:35,-71.4357,42.9328,M,M,M,30.00,10.00,0.03,29.85,M,1.00,M,OVC,M,M,M,900.00,M,M,M,-SN BR,KMHT 011135Z AUTO 03010KT 1SM -SN BR OVC009 A2985 RMK P0003 MADISHF
MHT,2017-04-01 11:40,-71.4357,42.9328,M,M,M,30.00,10.00,0.03,29.85,M,1.00,M,OVC,M,M,M,900.00,M,M,M,-SN BR,KMHT 011140Z AUTO 03010KT 1SM -SN BR OVC009 A2985 RMK P0003 MADISHF
MHT,2017-04-01 11:45,-71.4357,42.9328,M,M,M,30.00,11.00,0.03,29.85,M,1.00,M,OVC,M,M,M,900.00,M,M,M,-SN BR,KMHT 011145Z AUTO 03011KT 1SM -SN BR OVC009 A2985 RMK P0003 MADISHF
MHT,2017-04-01 11:50,-71.4357,42.9328,M,M,M,30.00,8.00,0.04,29.85,M,1.00,M,OVC,M,M,M,900.00,M,M,M,-SN BR,KMHT 011150Z AUTO 03008KT 1SM -SN BR OVC009 A2985 RMK P0004  4/008 MADISHF
MHT,2017-04-01 11:53,-71.4357,42.9328,34.00,30.00,85.11,30.00,13.00,0.04,29.85,1012.80,1.00,19.00,OVC,M,M,M,900.00,M,M,M,-SN BR,KMHT 011153Z 03013G19KT 1SM R35/5500VP6000FT -SN BR OVC009 01/M01 A2985 RMK AO2 TWR VIS 1 1/2 PLE51 SLP128 4/008 P0004 60034 70108 T00111011 10011 20006 55003
MHT,2017-04-01 11:55,-71.4357,42.9328,M,M,M,30.00,10.00,M,29.85,M,1.25,M,BKN,OVC,M,M,900.00,1600.00,M,M,-SN BR,KMHT 011155Z AUTO 03010KT 1 1/2SM -SN BR BKN009 OVC016 A2985 RMK MADISHF
MHT,2017-04-01 12:00,-71.4357,42.9328,M,M,M,30.00,10.00,M,29.85,M,1.00,M,BKN,OVC,M,M,900.00,1600.00,M,M,-SN BR,KMHT 011200Z AUTO 03010KT 1SM -SN BR BKN009 OVC016 A2985 RMK MADISHF
MHT,2017-04-01 12:05,-71.4357,42.9328,M,M,M,30.00,9.00,M,29.86,M,1.00,M,BKN,OVC,M,M,900.00,1600.00,M,M,-SN BR,KMHT 011205Z AUTO 03009KT 1SM -SN BR BKN009 OVC016 A2986 RMK MADISHF
MHT,2017-04-01 12:10,-71.4357,42.9328,M,M,M,M,M,0.01,29.86,M,1.00,M,BKN,OVC,M,M,900.00,1600.00,M,M,-SN BR,KMHT 011210Z AUTO /////KT 1SM -SN BR BKN009 OVC016 A2986 RMK P0001 MADISHF
MHT,2017-04-01 12:15,-71.4357,42.9328,M,M,M,30.00,10.00,0.01,29.85,M,1.00,16.00,BKN,OVC,M,M,900.00,1600.00,M,M,-SN BR,KMHT 011215Z AUTO 03010G16KT 1SM -SN BR BKN009 OVC016 A2985 RMK P0001 MADISHF
MHT,2017-04-01 12:20,-71.4357,42.9328,M,M,M,20.00,10.00,0.01,29.85,M,1.00,M,BKN,OVC,M,M,900.00,1600.00,M,M,-SN BR,KMHT 011220Z AUTO 02010KT 1SM -SN BR BKN009 OVC016 A2985 RMK P0001 MADISHF
MHT,2017-04-01 12:25,-71.4357,42.9328,M,M,M,30.00,10.00,0.01,29.86,M,1.00,M,BKN,OVC,M,M,900.00,1600.00,M,M,-SN BR,KMHT 011225Z AUTO 03010KT 1SM -SN BR BKN009 OVC016 A2986 RMK P0001 MADISHF
MHT,2017-04-01 12:30,-71.4357,42.9328,M,M,M,M,M,0.01,29.85,M,1.00,M,BKN,OVC,M,M,900.00,1600.00,M,M,-SN BR,KMHT 011230Z AUTO /////KT 1SM -SN BR BKN009 OVC016 A2985 RMK P0001 MADISHF
MHT,2017-04-01 12:35,-71.4357,42.9328,M,M,M,M,M,0.01,29.85,M,1.00,M,BKN,OVC,M,M,900.00,1600.00,M,M,-SN BR,KMHT 011235Z AUTO /////KT 1SM -SN BR BKN009 OVC016 A2985 RMK P0001 MADISHF
MHT,2017-04-01 12:40,-71.4357,42.9328,M,M,M,30.00,10.00,0.02,29.85,M,1.00,15.00,BKN,OVC,M,M,900.00,1600.00,M,M,-SN BR,KMHT 011240Z AUTO 03010G15KT 1SM -SN BR BKN009 OVC016 A2985 RMK P0002 MADISHF
MHT,2017-04-01 12:45,-71.4357,42.9328,M,M,M,M,M,0.02,29.85,M,1.00,M,BKN,OVC,M,M,900.00,1600.00,M,M,-SN BR,KMHT 011245Z AUTO /////KT 1SM -SN BR BKN009 OVC016 A2985 RMK P0002 MADISHF
MHT,2017-04-01 12:50,-71.4357,42.9328,M,M,M,30.00,10.00,0.02,29.85,M,0.75,M,BKN,OVC,M,M,999.00,1400.00,M,M,-SN BR,KMHT 011250Z AUTO 03010KT 1SM -SN BR BKN009 OVC014 A2985 RMK P0002 MADISHF
MHT,2017-04-01 12:53,-71.4357,42.9328,34.00,30.00,85.11,30.00,10.00,0.02,29.85,1012.80,0.75,M,BKN,OVC,M,M,1000.00,1400.00,M,M,-SN BR,KMHT 011253Z 03010KT 3/4SM R35/4500V5500FT -SN BR BKN010 OVC014 01/M01 A2985 RMK AO2 TWR VIS 1 1/2 SLP128 P0002 T00111011
MHT,2017-04-01 12:55,-71.4357,42.9328,M,M,M,20.00,8.00,M,29.86,M,0.75,M,BKN,OVC,M,M,999.00,1400.00,M,M,-SN BR,KMHT 011255Z AUTO 02008KT 1SM -SN BR BKN009 OVC014 A2986 RMK MADISHF
MHT,2017-04-01 13:00,-71.4357,42.9328,M,M,M,20.00,10.00,0.01,29.86,M,0.75,M,BKN,OVC,M,M,999.00,1500.00,M,M,-SN BR,KMHT 011300Z AUTO 02010KT 1SM -SN BR BKN009 OVC015 A2986 RMK P0001 MADISHF
MHT,2017-04-01 13:05,-71.4357,42.9328,M,M,M,M,M,0.01,29.86,M,0.75,M,BKN,OVC,M,M,999.00,1500.00,M,M,-SN BR,KMHT 011305Z AUTO /////KT 1SM -SN BR BKN009 OVC015 A2986 RMK P0001 MADISHF
MHT,2017-04-01 13:10,-71.4357,42.9328,M,M,M,M,M,0.01,29.86,M,0.75,M,BKN,OVC,M,M,999.00,1400.00,M,M,-SN BR,KMHT 011310Z AUTO /////KT 1SM -SN BR BKN009 OVC014 A2986 RMK P0001 MADISHF
MHT,2017-04-01 13:15,-71.4357,42.9328,M,M,M,30.00,10.00,0.02,29.87,M,0.75,M,OVC,M,M,M,1100.00,M,M,M,-SN BR,KMHT 011315Z AUTO 03010KT 1SM -SN BR OVC011 A2987 RMK P0002 MADISHF
MHT,2017-04-01 13:20,-71.4357,42.9328,M,M,M,20.00,10.00,0.02,29.87,M,0.75,M,BKN,OVC,M,M,1100.00,1699.00,M,M,-SN BR,KMHT 011320Z AUTO 02010KT 1SM -SN BR BKN011 OVC016 A2987 RMK P0002 MADISHF
MHT,2017-04-01 13:25,-71.4357,42.9328,M,M,M,20.00,10.00,0.02,29.87,M,0.75,M,BKN,OVC,M,M,1100.00,1699.00,M,M,-SN BR,KMHT 011325Z AUTO 02010KT 1SM -SN BR BKN011 OVC016 A2987 RMK P0002 MADISHF
MHT,2017-04-01 13:27,-71.4357,42.9328,34.00,30.00,85.11,30.00,12.00,0.02,29.87,M,0.75,M,BKN,OVC,M,M,800.00,1300.00,M,M,-SN BR,KMHT 011327Z 03012KT 3/4SM R35/4500V6000FT -SN BR BKN008 OVC013 01/M01 A2987 RMK AO2 TWR VIS 1 1/2 P0002 T00111011
MHT,2017-04-01 13:30,-71.4357,42.9328,M,M,M,30.00,11.00,0.02,29.87,M,0.75,M,BKN,OVC,M,M,999.00,1600.00,M,M,-SN BR,KMHT 011330Z AUTO 03011KT 1SM -SN BR BKN009 OVC016 A2987 RMK P0002 MADISHF
MHT,2017-04-01 13:35,-71.4357,42.9328,34.00,30.00,85.11,20.00,9.00,0.03,29.87,M,0.75,M,BKN,OVC,M,M,1000.00,1400.00,M,M,-SN BR,KMHT 011335Z 02009KT 3/4SM R35/4000V5000FT -SN BR BKN010 OVC014 01/M01 A2987 RMK AO2 TWR VIS 1 1/2 P0003 T00111011
MHT,2017-04-01 13:40,-71.4357,42.9328,M,M,M,M,M,0.03,29.88,M,0.75,M,BKN,OVC,M,M,999.00,1200.00,M,M,-SN BR,KMHT 011340Z AUTO /////KT 1SM -SN BR BKN009 OVC012 A2988 RMK P0003 MADISHF
MHT,2017-04-01 13:45,-71.4357,42.9328,M,M,M,20.00,9.00,0.03,29.88,M,0.75,M,BKN,OVC,M,M,999.00,1200.00,M,M,-SN BR,KMHT 011345Z AUTO 02009KT 1SM -SN BR BKN009 OVC012 A2988 RMK P0003 MADISHF
MHT,2017-04-01 13:50,-71.4357,42.9328,M,M,M,20.00,9.00,0.04,29.88,M,0.75,M,BKN,OVC,M,M,999.00,1200.00,M,M,-SN BR,KMHT 011350Z AUTO 02009KT 1SM -SN BR BKN009 OVC012 A2988 RMK P0004 MADISHF
MHT,2017-04-01 13:53,-71.4357,42.9328,34.00,30.00,85.11,20.00,10.00,0.04,29.88,1013.70,0.50,18.00,SCT,OVC,M,M,700.00,1200.00,M,M,SN FG,KMHT 011353Z 02010G18KT 1/2SM R35/4000V4500FT SN FG SCT007 OVC012 01/M01 A2988 RMK AO2 TWR VIS 1 1/2 SLP137 P0004 T00111011
MHT,2017-04-01 13:55,-71.4357,42.9328,M,M,M,30.00,11.00,M,29.88,M,0.75,M,BKN,OVC,M,M,999.00,1400.00,M,M,-SN BR,KMHT 011355Z AUTO 03011KT 1SM -SN BR BKN009 OVC014 A2988 RMK MADISHF
MHT,2017-04-01 14:00,-71.4357,42.9328,M,M,M,20.00,10.00,M,29.88,M,0.75,M,SCT,OVC,M,M,700.00,1200.00,M,M,-SN BR,KMHT 011400Z AUTO 02010KT 1SM -SN BR SCT007 OVC012 A2988 RMK MADISHF
MHT,2017-04-01 14:05,-71.4357,42.9328,M,M,M,10.00,11.00,M,29.88,M,0.50,M,BKN,OVC,M,M,999.00,1400.00,M,M,SN FG,KMHT 011405Z AUTO 01011KT 1/2SM SN FG BKN009 OVC014 A2988 RMK MADISHF
MHT,2017-04-01 14:10,-71.4357,42.9328,M,M,M,20.00,10.00,0.01,29.88,M,0.50,M,BKN,OVC,M,M,999.00,1400.00,M,M,SN FG,KMHT 011410Z AUTO 02010KT 1/2SM SN FG BKN009 OVC014 A2988 RMK P0001 MADISHF
MHT,2017-04-01 14:15,-71.4357,42.9328,M,M,M,10.00,9.00,0.01,29.89,M,0.50,M,BKN,OVC,M,M,999.00,1400.00,M,M,SN FG,KMHT 011415Z AUTO 01009KT 1/2SM SN FG BKN009 OVC014 A2989 RMK P0001 MADISHF
MHT,2017-04-01 14:20,-71.4357,42.9328,M,M,M,M,M,0.01,29.88,M,0.50,M,BKN,OVC,M,M,999.00,1400.00,M,M,SN FG,KMHT 011420Z AUTO /////KT 1/2SM SN FG BKN009 OVC014 A2988 RMK P0001 MADISHF
MHT,2017-04-01 14:25,-71.4357,42.9328,M,M,M,10.00,10.00,0.01,29.88,M,0.50,M,BKN,OVC,M,M,999.00,1400.00,M,M,SN FG,KMHT 011425Z AUTO 01010KT 1/2SM SN FG BKN009 OVC014 A2988 RMK P0001 MADISHF
MHT,2017-04-01 14:30,-71.4357,42.9328,M,M,M,10.00,10.00,0.02,29.88,M,0.50,M,BKN,OVC,M,M,999.00,1400.00,M,M,SN FG,KMHT 011430Z AUTO 01010KT 1/2SM SN FG BKN009 OVC014 A2988 RMK P0002 MADISHF
MHT,2017-04-01 14:35,-71.4357,42.9328,M,M,M,M,M,0.02,29.89,M,0.50,M,BKN,OVC,M,M,999.00,1400.00,M,M,SN FG,KMHT 011435Z AUTO /////KT 1/2SM SN FG BKN009 OVC014 A2989 RMK P0002 MADISHF
MHT,2017-04-01 14:40,-71.4357,42.9328,M,M,M,10.00,11.00,0.02,29.89,M,0.50,M,BKN,OVC,M,M,999.00,1400.00,M,M,SN FG,KMHT 011440Z AUTO 01011KT 1/2SM SN FG BKN009 OVC014 A2989 RMK P0002 MADISHF
MHT,2017-04-01 14:45,-71.4357,42.9328,M,M,M,10.00,12.00,0.02,29.89,M,0.50,M,BKN,OVC,M,M,999.00,1400.00,M,M,SN FG,KMHT 011445Z AUTO 01012KT 1/2SM SN FG BKN009 OVC014 A2989 RMK P0002 MADISHF
MHT,2017-04-01 14:50,-71.4357,42.9328,M,M,M,10.00,11.00,0.02,29.89,M,0.50,M,OVC,M,M,M,800.00,M,M,M,SN FG,KMHT 011450Z AUTO 01011KT 1/2SM SN FG OVC008 A2989 RMK P0002 MADISHF
MHT,2017-04-01 14:53,-71.4357,42.9328,33.10,30.00,88.23,10.00,11.00,0.02,29.89,1013.90,0.50,M,SCT,OVC,M,M,600.00,1000.00,M,M,SN FG,KMHT 011453Z 01011KT 1/2SM R35/3500V5000FT SN FG SCT006 OVC010 01/M01 A2989 RMK AO2 TWR VIS 1 1/2 SLP139 P0002 60008 T00061011 53011
MHT,2017-04-01 14:55,-71.4357,42.9328,M,M,M,10.00,11.00,M,29.89,M,0.75,M,SCT,OVC,M,M,600.00,999.00,M,M,-SN BR,KMHT 011455Z AUTO 01011KT 1SM -SN BR SCT006 OVC009 A2989 RMK MADISHF
MHT,2017-04-01 15:00,-71.4357,42.9328,M,M,M,10.00,11.00,M,29.89,M,0.75,M,OVC,M,M,M,999.00,M,M,M,-SN BR,KMHT 011500Z AUTO 01011KT 1SM -SN BR OVC009 A2989 RMK MADISHF
MHT,2017-04-01 15:05,-71.4357,42.9328,M,M,M,10.00,12.00,0.01,29.89,M,0.50,M,OVC,M,M,M,999.00,M,M,M,SN FG,KMHT 011505Z AUTO 01012KT 1/2SM SN FG OVC009 A2989 RMK P0001 MADISHF
MHT,2017-04-01 15:10,-71.4357,42.9328,M,M,M,10.00,11.00,0.01,29.89,M,0.50,M,OVC,M,M,M,999.00,M,M,M,SN FG,KMHT 011510Z AUTO 01011KT 1/2SM SN FG OVC009 A2989 RMK P0001 MADISHF
MHT,2017-04-01 15:15,-71.4357,42.9328,M,M,M,M,M,0.01,29.89,M,0.50,M,OVC,M,M,M,999.00,M,M,M,SN FG,KMHT 011515Z AUTO /////KT 1/2SM SN FG OVC009 A2989 RMK P0001 MADISHF
MHT,2017-04-01 15:20,-71.4357,42.9328,M,M,M,10.00,11.00,0.01,29.89,M,0.50,M,OVC,M,M,M,999.00,M,M,M,SN FG,KMHT 011520Z AUTO 01011KT 1/2SM SN FG OVC009 A2989 RMK P0001 MADISHF
MHT,2017-04-01 15:22,-71.4357,42.9328,33.10,30.00,88.23,10.00,13.00,0.01,29.89,M,0.25,M,BKN,OVC,M,M,700.00,1000.00,M,M,SN FG,KMHT 011522Z 01013KT 1/4SM R35/3000V4000FT SN FG BKN007 OVC010 01/M01 A2989 RMK AO2 TWR VIS 3/4 P0001 T00061011
MHT,2017-04-01 15:25,-71.4357,42.9328,M,M,M,M,M,0.01,29.89,M,0.25,M,BKN,OVC,M,M,700.00,999.00,M,M,SN FG,KMHT 011525Z AUTO /////KT 1/4SM SN FG BKN007 OVC009 A2989 RMK P0001 MADISHF
MHT,2017-04-01 15:30,-71.4357,42.9328,M,M,M,M,M,0.01,29.89,M,0.25,M,BKN,OVC,M,M,700.00,999.00,M,M,SN FG,KMHT 011530Z AUTO /////KT 1/4SM SN FG BKN007 OVC009 A2989 RMK P0001 MADISHF
MHT,2017-04-01 15:35,-71.4357,42.9328,M,M,M,10.00,12.00,0.01,29.89,M,0.25,M,BKN,OVC,M,M,700.00,999.00,M,M,SN FG,KMHT 011535Z AUTO 01012KT 1/4SM SN FG BKN007 OVC009 A2989 RMK P0001 MADISHF
MHT,2017-04-01 15:40,-71.4357,42.9328,M,M,M,M,M,0.01,29.89,M,0.25,M,BKN,OVC,M,M,700.00,999.00,M,M,SN FG,KMHT 011540Z AUTO /////KT 1/4SM SN FG BKN007 OVC009 A2989 RMK P0001 MADISHF
MHT,2017-04-01 15:45,-71.4357,42.9328,M,M,M,10.00,12.00,0.02,29.89,M,0.25,M,BKN,OVC,M,M,700.00,999.00,M,M,SN FG,KMHT 011545Z AUTO 01012KT 1/4SM SN FG BKN007 OVC009 A2989 RMK P0002 MADISHF
MHT,2017-04-01 15:50,-71.4357,42.9328,M,M,M,10.00,11.00,0.02,29.89,M,0.25,M,SCT,OVC,M,M,700.00,999.00,M,M,SN FG,KMHT 011550Z AUTO 01011KT 1/4SM SN FG SCT007 OVC009 A2989 RMK P0002 MADISHF
MHT,2017-04-01 15:53,-71.4357,42.9328,34.00,30.00,85.11,20.00,12.00,0.02,29.89,1013.70,0.25,M,SCT,OVC,M,M,700.00,1000.00,M,M,SN FG,KMHT 011553Z 02012KT 1/4SM R35/3000V4000FT SN FG SCT007 OVC010 01/M01 A2989 RMK AO2 TWR VIS 3/4 SLP137 P0002 T00111011
MHT,2017-04-01 15:55,-71.4357,42.9328,M,M,M,M,M,M,29.89,M,0.25,M,OVC,M,M,M,999.00,M,M,M,SN FG,KMHT 011555Z AUTO /////KT 1/4SM SN FG OVC009 A2989 RMK MADISHF
MHT,2017-04-01 16:00,-71.4357,42.9328,M,M,M,M,M,M,29.89,M,0.25,M,OVC,M,M,M,999.00,M,M,M,SN FG,KMHT 011600Z AUTO /////KT 1/4SM SN FG OVC009 A2989 RMK MADISHF
MHT,2017-04-01 16:05,-71.4357,42.9328,M,M,M,M,M,M,29.88,M,0.25,M,OVC,M,M,M,999.00,M,M,M,SN FG,KMHT 011605Z AUTO /////KT 1/4SM SN FG OVC009 A2988 RMK MADISHF
MHT,2017-04-01 16:07,-71.4357,42.9328,34.00,30.00,85.11,10.00,14.00,0.00,29.88,M,0.50,19.00,FEW,OVC,M,M,800.00,1000.00,M,M,SN FG,KMHT 011607Z 01014G19KT 1/2SM R35/3500V6000FT SN FG FEW008 OVC010 01/M01 A2988 RMK AO2 TWR VIS 3/4 P0000 T00111011
MHT,2017-04-01 16:10,-71.4357,42.9328,M,M,M,M,M,M,29.88,M,0.50,M,FEW,OVC,M,M,800.00,999.00,M,M,SN FG,KMHT 011610Z AUTO /////KT 1/2SM SN FG FEW008 OVC009 A2988 RMK MADISHF
MHT,2017-04-01 16:15,-71.4357,42.9328,M,M,M,M,M,M,29.88,M,0.50,M,FEW,OVC,M,M,800.00,999.00,M,M,SN FG,KMHT 011615Z AUTO /////KT 1/2SM SN FG FEW008 OVC009 A2988 RMK MADISHF
MHT,2017-04-01 16:20,-71.4357,42.9328,M,M,M,20.00,11.00,M,29.88,M,0.50,M,FEW,OVC,M,M,800.00,999.00,M,M,SN FG,KMHT 011620Z AUTO 02011KT 1/2SM SN FG FEW008 OVC009 A2988 RMK MADISHF
MHT,2017-04-01 16:25,-71.4357,42.9328,M,M,M,20.00,11.00,M,29.88,M,0.50,M,FEW,OVC,M,M,800.00,999.00,M,M,SN FG,KMHT 011625Z AUTO 02011KT 1/2SM SN FG FEW008 OVC009 A2988 RMK MADISHF
MHT,2017-04-01 16:30,-71.4357,42.9328,M,M,M,M,M,M,29.88,M,0.50,M,FEW,OVC,M,M,800.00,999.00,M,M,SN FG,KMHT 011630Z AUTO /////KT 1/2SM SN FG FEW008 OVC009 A2988 RMK MADISHF
MHT,2017-04-01 16:35,-71.4357,42.9328,M,M,M,M,M,M,29.88,M,0.50,M,FEW,OVC,M,M,800.00,999.00,M,M,SN FG,KMHT 011635Z AUTO /////KT 1/2SM SN FG FEW008 OVC009 A2988 RMK MADISHF
MHT,2017-04-01 16:40,-71.4357,42.9328,M,M,M,M,M,M,29.88,M,0.50,M,FEW,OVC,M,M,800.00,999.00,M,M,SN FG,KMHT 011640Z AUTO /////KT 1/2SM SN FG FEW008 OVC009 A2988 RMK MADISHF
MHT,2017-04-01 16:45,-71.4357,42.9328,M,M,M,10.00,10.00,M,29.88,M,0.50,M,FEW,OVC,M,M,800.00,999.00,M,M,-SN FG,KMHT 011645Z AUTO 01010KT 1/2SM -SN FG FEW008 OVC009 A2988 RMK MADISHF
MHT,2017-04-01 16:50,-71.4357,42.9328,M,M,M,10.00,14.00,M,29.88,M,0.75,M,FEW,BKN,OVC,M,800.00,1300.00,1800.00,M,-SN BR,KMHT 011650Z AUTO 01014KT 1SM -SN BR FEW008 BKN013 OVC018 A2988 RMK MADISHF
MHT,2017-04-01 16:53,-71.4357,42.9328,34.00,30.00,85.11,10.00,15.00,0.00,29.88,1013.60,0.75,M,FEW,BKN,OVC,M,800.00,1300.00,1800.00,M,-SN BR,KMHT 011653Z 01015KT 3/4SM R35/5000VP6000FT -SN BR FEW008 BKN013 OVC018 01/M01 A2988 RMK AO2 TWR VIS 1 SLP136 P0000 T00111011
MHT,2017-04-01 16:55,-71.4357,42.9328,M,M,M,10.00,11.00,M,29.88,M,0.75,M,BKN,OVC,M,M,999.00,1800.00,M,M,-SN BR,KMHT 011655Z AUTO 01011KT 1SM -SN BR BKN009 OVC018 A2988 RMK MADISHF
MHT,2017-04-01 17:00,-71.4357,42.9328,M,M,M,M,M,M,29.88,M,0.75,M,BKN,OVC,M,M,999.00,1800.00,M,M,-SN BR,KMHT 011700Z AUTO /////KT 1SM -SN BR BKN009 OVC018 A2988 RMK MADISHF
MHT,2017-04-01 17:05,-71.4357,42.9328,M,M,M,10.00,12.00,M,29.88,M,0.75,M,BKN,OVC,M,M,999.00,1800.00,M,M,-SN BR,KMHT 011705Z AUTO 01012KT 1SM -SN BR BKN009 OVC018 A2988 RMK MADISHF
MHT,2017-04-01 17:10,-71.4357,42.9328,M,M,M,10.00,11.00,M,29.88,M,0.75,M,BKN,OVC,M,M,999.00,1800.00,M,M,-SN BR,KMHT 011710Z AUTO 01011KT 1SM -SN BR BKN009 OVC018 A2988 RMK MADISHF
MHT,2017-04-01 17:15,-71.4357,42.9328,M,M,M,M,M,M,29.88,M,0.75,M,BKN,OVC,M,M,999.00,1800.00,M,M,-SN BR,KMHT 011715Z AUTO /////KT 1SM -SN BR BKN009 OVC018 A2988 RMK MADISHF
MHT,2017-04-01 17:20,-71.4357,42.9328,M,M,M,20.00,11.00,M,29.88,M,0.75,M,BKN,OVC,M,M,999.00,1800.00,M,M,-SN BR,KMHT 011720Z AUTO 02011KT 1SM -SN BR BKN009 OVC018 A2988 RMK MADISHF
MHT,2017-04-01 17:22,-71.4357,42.9328,34.00,30.00,85.11,20.00,12.00,0.00,29.88,M,1.00,M,BKN,OVC,M,M,1200.00,2000.00,M,M,-SN BR,KMHT 011722Z 02012KT 1SM R35/P6000FT -SN BR BKN012 OVC020 01/M01 A2988 RMK AO2 P0000 T00111011
MHT,2017-04-01 17:25,-71.4357,42.9328,M,M,M,30.00,11.00,M,29.88,M,1.00,16.00,BKN,OVC,M,M,1200.00,1999.00,M,M,-SN BR,KMHT 011725Z AUTO 03011G16KT 1SM -SN BR BKN012 OVC019 A2988 RMK MADISHF
MHT,2017-04-01 17:30,-71.4357,42.9328,M,M,M,20.00,11.00,M,29.88,M,1.00,M,BKN,OVC,M,M,1400.00,2200.00,M,M,-SN BR,KMHT 011730Z AUTO 02011KT 1SM -SN BR BKN014 OVC022 A2988 RMK MADISHF
MHT,2017-04-01 17:35,-71.4357,42.9328,M,M,M,20.00,10.00,M,29.88,M,1.00,M,BKN,OVC,M,M,1400.00,2200.00,M,M,-SN BR,KMHT 011735Z AUTO 02010KT 1SM -SN BR BKN014 OVC022 A2988 RMK MADISHF
MHT,2017-04-01 17:40,-71.4357,42.9328,M,M,M,10.00,10.00,M,29.88,M,1.00,M,BKN,OVC,M,M,1400.00,2200.00,M,M,-SN BR,KMHT 011740Z AUTO 01010KT 1SM -SN BR BKN014 OVC022 A2988 RMK MADISHF
MHT,2017-04-01 17:45,-71.4357,42.9328,M,M,M,20.00,9.00,M,29.88,M,3.00,M,FEW,BKN,OVC,M,999.00,1300.00,2200.00,M,-SN BR,KMHT 011745Z AUTO 02009KT 3SM -SN BR FEW009 BKN013 OVC022 A2988 RMK MADISHF
MHT,2017-04-01 17:50,-71.4357,42.9328,33.80,30.20,86.49,10.00,12.00,0.00,29.88,M,1.00,M,SCT,BKN,OVC,M,1000.00,1500.00,2200.00,M,BR,KMHT 011750Z 01012KT 1SM R35/P6000FT BR SCT010 BKN015 OVC022 01/M01 A2988 RMK AO2 TWR VIS 2 1/2 SNEMM P0000
MHT,2017-04-01 17:53,-71.4357,42.9328,34.00,30.00,85.11,10.00,11.00,0.00,29.88,1013.60,2.50,M,SCT,BKN,OVC,M,1000.00,1500.00,2000.00,M,-SN BR,KMHT 011753Z 01011KT 2 1/2SM -SN BR SCT010 BKN015 OVC020 01/M01 A2988 RMK AO2 SNEMMB52 SLP136 P0000 60010 T00111011 10011 20006 57002 $
MHT,2017-04-01 17:55,-71.4357,42.9328,M,M,M,10.00,11.00,M,29.88,M,2.50,M,SCT,BKN,OVC,M,999.00,1500.00,1999.00,M,-SN BR,KMHT 011755Z AUTO 01011KT 2 1/2SM -SN BR SCT009 BKN015 OVC019 A2988 RMK MADISHF
MHT,2017-04-01 18:00,-71.4357,42.9328,M,M,M,10.00,12.00,M,29.88,M,2.50,M,BKN,OVC,M,M,1500.00,1999.00,M,M,-SN BR,KMHT 011800Z AUTO 01012KT 2 1/2SM -SN BR BKN015 OVC019 A2988 RMK MADISHF
MHT,2017-04-01 18:05,-71.4357,42.9328,M,M,M,M,M,M,29.88,M,2.50,M,SCT,BKN,OVC,M,999.00,1500.00,1999.00,M,-SN,KMHT 011805Z AUTO /////KT 2 1/2SM -SN SCT009 BKN015 OVC019 A2988 RMK MADISHF
MHT,2017-04-01 18:10,-71.4357,42.9328,M,M,M,M,M,M,29.88,M,2.00,M,SCT,BKN,OVC,M,999.00,1500.00,1999.00,M,-SN,KMHT 011810Z AUTO /////KT 2SM -SN SCT009 BKN015 OVC019 A2988 RMK MADISHF
MHT,2017-04-01 18:15,-71.4357,42.9328,M,M,M,M,M,M,29.88,M,2.00,M,BKN,OVC,M,M,1500.00,1999.00,M,M,-SN,KMHT 011815Z AUTO /////KT 2SM -SN BKN015 OVC019 A2988 RMK MADISHF
MHT,2017-04-01 18:20,-71.4357,42.9328,M,M,M,M,M,M,29.88,M,2.00,M,BKN,OVC,M,M,1500.00,2200.00,M,M,-SN,KMHT 011820Z AUTO /////KT 2SM -SN BKN015 OVC022 A2988 RMK MADISHF
MHT,2017-04-01 18:25,-71.4357,42.9328,M,M,M,30.00,11.00,M,29.87,M,2.00,M,SCT,OVC,M,M,1200.00,1800.00,M,M,-SN BR,KMHT 011825Z AUTO 03011KT 2SM -SN BR SCT012 OVC018 A2987 RMK MADISHF
MHT,2017-04-01 18:30,-71.4357,42.9328,M,M,M,M,M,M,29.87,M,2.00,17.00,FEW,BKN,OVC,M,999.00,1699.00,2200.00,M,-SN BR,KMHT 011830Z AUTO /////G17KT 2SM -SN BR FEW009 BKN016 OVC022 A2987 RMK MADISHF
MHT,2017-04-01 18:35,-71.4357,42.9328,M,M,M,30.00,11.00,M,29.87,M,2.00,M,FEW,BKN,OVC,M,1200.00,1699.00,2500.00,M,-SN BR,KMHT 011835Z AUTO 03011KT 2SM -SN BR FEW012 BKN016 OVC025 A2987 RMK MADISHF
MHT,2017-04-01 18:40,-71.4357,42.9328,M,M,M,10.00,9.00,M,29.87,M,2.00,M,BKN,OVC,M,M,1500.00,1999.00,M,M,-SN BR,KMHT 011840Z AUTO 01009KT 2SM -SN BR BKN015 OVC019 A2987 RMK MADISHF
MHT,2017-04-01 18:45,-71.4357,42.9328,M,M,M,10.00,9.00,M,29.87,M,2.00,M,SCT,OVC,M,M,1300.00,1999.00,M,M,-SN BR,KMHT 011845Z AUTO 01009KT 2SM -SN BR SCT013 OVC019 A2987 RMK MADISHF
MHT,2017-04-01 18:50,-71.4357,42.9328,M,M,M,10.00,8.00,M,29.87,M,2.00,M,FEW,BKN,OVC,M,999.00,1699.00,2200.00,M,-SN BR,KMHT 011850Z AUTO 01008KT 2SM -SN BR FEW009 BKN016 OVC022 A2987 RMK MADISHF
MHT,2017-04-01 18:53,-71.4357,42.9328,35.10,30.90,84.49,20.00,10.00,0.00,29.87,1013.30,2.50,M,BKN,OVC,M,M,1000.00,2000.00,M,M,-SN BR,KMHT 011853Z 02010KT 2 1/2SM -SN BR BKN010 OVC020 02/M01 A2987 RMK AO2 SLP133 P0000 T00171006 $
MHT,2017-04-01 18:55,-71.4357,42.9328,M,M,M,10.00,8.00,M,29.87,M,2.50,M,BKN,OVC,M,M,999.00,2200.00,M,M,-SN BR,KMHT 011855Z AUTO 01008KT 2 1/2SM -SN BR BKN009 OVC022 A2987 RMK MADISHF
MHT,2017-04-01 19:00,-71.4357,42.9328,M,M,M,360.00,7.00,M,29.87,M,2.50,M,BKN,BKN,OVC,M,999.00,1699.00,2700.00,M,-SN BR,KMHT 011900Z AUTO 36007KT 2 1/2SM -SN BR BKN009 BKN016 OVC027 A2987 RMK MADISHF
MHT,2017-04-01 19:05,-71.4357,42.9328,M,M,M,350.00,10.00,M,29.87,M,2.50,M,BKN,BKN,OVC,M,999.00,1699.00,2700.00,M,-SN BR,KMHT 011905Z AUTO 35010KT 2 1/2SM -SN BR BKN009 BKN016 OVC027 A2987 RMK MADISHF
MHT,2017-04-01 19:10,-71.4357,42.9328,M,M,M,10.00,12.00,M,29.88,M,2.50,M,BKN,BKN,OVC,M,999.00,1699.00,2700.00,M,-SN,KMHT 011910Z AUTO 01012KT 2 1/2SM -SN BKN009 BKN016 OVC027 A2988 RMK MADISHF
MHT,2017-04-01 19:15,-71.4357,42.9328,M,M,M,M,M,M,29.88,M,2.00,M,BKN,OVC,M,M,999.00,2500.00,M,M,-SN,KMHT 011915Z AUTO /////KT 2SM -SN BKN009 OVC025 A2988 RMK MADISHF
MHT,2017-04-01 19:20,-71.4357,42.9328,M,M,M,20.00,12.00,M,29.88,M,2.50,M,SCT,BKN,OVC,M,999.00,1300.00,2800.00,M,-SN,KMHT 011920Z AUTO 02012KT 2 1/2SM -SN SCT009 BKN013 OVC028 A2988 RMK MADISHF
MHT,2017-04-01 19:25,-71.4357,42.9328,M,M,M,10.00,10.00,M,29.88,M,2.50,M,SCT,BKN,OVC,M,999.00,1400.00,2800.00,M,-SN,KMHT 011925Z AUTO 01010KT 2 1/2SM -SN SCT009 BKN014 OVC028 A2988 RMK MADISHF
MHT,2017-04-01 19:30,-71.4357,42.9328,35.10,30.00,81.46,30.00,12.00,0.00,29.88,M,2.50,M,FEW,BKN,OVC,M,900.00,1900.00,3000.00,M,-SN,KMHT 011930Z 03012KT 2 1/2SM -SN FEW009 BKN019 OVC030 02/M01 A2988 RMK AO2 SFC VIS 3 P0000 T00171011 $
MHT,2017-04-01 19:35,-71.4357,42.9328,M,M,M,20.00,12.00,M,29.88,M,3.00,M,SCT,BKN,OVC,M,900.00,1500.00,4100.00,M,-SN,KMHT 011935Z AUTO 02012KT 3SM -SN SCT009 BKN015 OVC041 A2988 RMK MADISHF
MHT,2017-04-01 19:40,-71.4357,42.9328,M,M,M,10.00,11.00,M,29.89,M,2.50,M,FEW,BKN,OVC,M,900.00,1500.00,4100.00,M,-SN,KMHT 011940Z AUTO 01011KT 2 1/2SM -SN FEW009 BKN015 OVC041 A2989 RMK MADISHF
MHT,2017-04-01 19:45,-71.4357,42.9328,M,M,M,10.00,12.00,M,29.89,M,2.50,M,SCT,BKN,OVC,M,1200.00,1999.00,3399.00,M,-SN,KMHT 011945Z AUTO 01012KT 2 1/2SM -SN SCT012 BKN019 OVC033 A2989 RMK MADISHF
MHT,2017-04-01 19:50,-71.4357,42.9328,M,M,M,10.00,9.00,M,29.90,M,2.50,M,SCT,BKN,OVC,M,900.00,1999.00,3500.00,M,-SN BR,KMHT 011950Z AUTO 01009KT 2 1/2SM -SN BR SCT009 BKN019 OVC035 A2990 RMK MADISHF
MHT,2017-04-01 19:53,-71.4357,42.9328,34.00,30.00,85.11,350.00,8.00,0.00,29.90,1014.20,1.50,M,SCT,BKN,OVC,M,900.00,1400.00,3300.00,M,-SN BR,KMHT 011953Z 35008KT 1 1/2SM -SN BR SCT009 BKN014 OVC033 01/M01 A2990 RMK AO2 SLP142 P0000 T00111011 $
MHT,2017-04-01 19:55,-71.4357,42.9328,M,M,M,350.00,7.00,0.01,29.90,M,1.75,M,SCT,BKN,OVC,M,900.00,1400.00,2500.00,M,-SN BR,KMHT 011955Z AUTO 35007KT 2SM -SN BR SCT009 BKN014 OVC025 A2990 RMK P0001 MADISHF
MHT,2017-04-01 20:00,-71.4357,42.9328,M,M,M,360.00,8.00,0.01,29.90,M,2.00,M,SCT,BKN,OVC,M,999.00,1600.00,2700.00,M,-SN BR,KMHT 012000Z AUTO 36008KT 2SM -SN BR SCT009 BKN016 OVC027 A2990 RMK P0001 MADISHF
MHT,2017-04-01 20:05,-71.4357,42.9328,M,M,M,10.00,9.00,0.01,29.90,M,2.00,M,SCT,BKN,OVC,M,999.00,1400.00,2700.00,M,-SN BR,KMHT 012005Z AUTO 01009KT 2SM -SN BR SCT009 BKN014 OVC027 A2990 RMK P0001 MADISHF
MHT,2017-04-01 20:10,-71.4357,42.9328,M,M,M,10.00,9.00,0.01,29.90,M,1.50,M,SCT,BKN,OVC,M,999.00,1400.00,2700.00,M,-SN BR,KMHT 012010Z AUTO 01009KT 1 1/2SM -SN BR SCT009 BKN014 OVC027 A2990 RMK P0001 MADISHF
MHT,2017-04-01 20:15,-71.4357,42.9328,M,M,M,30.00,9.00,0.01,29.90,M,1.75,M,SCT,BKN,OVC,M,999.00,1400.00,2700.00,M,-SN BR,KMHT 012015Z AUTO 03009KT 2SM -SN BR SCT009 BKN014 OVC027 A2990 RMK P0001 MADISHF
MHT,2017-04-01 20:20,-71.4357,42.9328,M,M,M,20.00,7.00,0.01,29.90,M,2.50,M,SCT,BKN,OVC,M,999.00,1400.00,2700.00,M,-SN BR,KMHT 012020Z AUTO 02007KT 2 1/2SM -SN BR SCT009 BKN014 OVC027 A2990 RMK P0001 MADISHF
MHT,2017-04-01 20:25,-71.4357,42.9328,M,M,M,20.00,9.00,0.01,29.90,M,4.00,M,FEW,BKN,OVC,M,999.00,1600.00,3500.00,M,-SN BR,KMHT 012025Z AUTO 02009KT 4SM -SN BR FEW009 BKN016 OVC035 A2990 RMK P0001 MADISHF
MHT,2017-04-01 20:26,-71.4357,42.9328,34.00,30.90,88.27,20.00,9.00,0.01,29.90,M,3.00,M,FEW,BKN,OVC,M,800.00,1500.00,3500.00,M,-SN BR,KMHT 012026Z 02009KT 3SM -SN BR FEW008 BKN015 OVC035 01/M01 A2990 RMK AO2 P0001 T00111006 $
MHT,2017-04-01 20:30,-71.4357,42.9328,34.00,30.00,85.11,20.00,8.00,0.01,29.90,M,2.00,M,FEW,BKN,OVC,M,900.00,1500.00,2100.00,M,-SN BR,KMHT 012030Z 02008KT 2SM R35/5500VP6000FT -SN BR FEW009 BKN015 OVC021 01/M01 A2990 RMK AO2 P0001 T00111011 $
MHT,2017-04-01 20:35,-71.4357,42.9328,M,M,M,10.00,8.00,0.01,29.91,M,2.00,M,FEW,BKN,OVC,M,900.00,1500.00,1900.00,M,-SN BR,KMHT 012035Z AUTO 01008KT 2SM -SN BR FEW009 BKN015 OVC019 A2991 RMK P0001 MADISHF
MHT,2017-04-01 20:40,-71.4357,42.9328,M,M,M,10.00,6.00,0.01,29.91,M,2.50,M,BKN,OVC,M,M,1500.00,1900.00,M,M,-SN BR,KMHT 012040Z AUTO 01006KT 2 1/2SM -SN BR BKN015 OVC019 A2991 RMK P0001 MADISHF
MHT,2017-04-01 20:45,-71.4357,42.9328,M,M,M,10.00,8.00,0.01,29.91,M,2.50,M,BKN,OVC,M,M,1500.00,1900.00,M,M,-SN BR,KMHT 012045Z AUTO 01008KT 2 1/2SM -SN BR BKN015 OVC019 A2991 RMK P0001 MADISHF
MHT,2017-04-01 20:50,-71.4357,42.9328,M,M,M,350.00,8.00,0.01,29.92,M,3.00,M,BKN,OVC,M,M,1500.00,1900.00,M,M,-SN BR,KMHT 012050Z AUTO 35008KT 3SM -SN BR BKN015 OVC019 A2992 RMK P0001 MADISHF
MHT,2017-04-01 20:53,-71.4357,42.9328,34.00,30.90,88.27,340.00,6.00,0.01,29.92,1014.80,2.00,M,FEW,SCT,OVC,M,800.00,1500.00,4000.00,M,-SN BR,KMHT 012053Z 34006KT 2SM -SN BR FEW008 SCT015 OVC040 01/M01 A2992 RMK AO2 SFC VIS 3 SLP148 P0001 60001 T00111006 53013 $
MHT,2017-04-01 20:55,-71.4357,42.9328,M,M,M,340.00,7.00,M,29.92,M,4.00,M,FEW,SCT,OVC,M,700.00,1100.00,4100.00,M,-SN BR,KMHT 012055Z AUTO 34007KT 4SM -SN BR FEW007 SCT011 OVC041 A2992 RMK MADISHF
MHT,2017-04-01 20:59,-71.4357,42.9328,34.00,30.90,88.27,360.00,8.00,0.00,29.92,M,6.00,M,BKN,BKN,OVC,M,900.00,1500.00,4300.00,M,-SN BR,KMHT 012059Z 36008KT 6SM -SN BR BKN009 BKN015 OVC043 01/M01 A2992 RMK AO2 P0000 T00111006 $
MHT,2017-04-01 21:00,-71.4357,42.9328,M,M,M,360.00,8.00,M,29.92,M,6.00,M,BKN,BKN,OVC,M,800.00,1500.00,4300.00,M,-SN BR,KMHT 012100Z AUTO 36008KT 6SM -SN BR BKN008 BKN015 OVC043 A2992 RMK MADISHF
MHT,2017-04-01 21:05,-71.4357,42.9328,M,M,M,350.00,9.00,0.01,29.93,M,8.00,M,BKN,BKN,OVC,M,800.00,1300.00,4300.00,M,-SN,KMHT 012105Z AUTO 35009KT 8SM -SN BKN008 BKN013 OVC043 A2993 RMK P0001 MADISHF
MHT,2017-04-01 21:07,-71.4357,42.9328,35.10,30.00,81.46,350.00,10.00,0.01,29.93,M,8.00,M,SCT,BKN,OVC,M,800.00,1600.00,3000.00,M,-SN,KMHT 012107Z 35010KT 8SM -SN SCT008 BKN016 OVC030 02/M01 A2993 RMK AO2 P0001 T00171011 $
MHT,2017-04-01 21:10,-71.4357,42.9328,M,M,M,350.00,10.00,0.01,29.93,M,8.00,M,FEW,BKN,OVC,M,800.00,1800.00,4200.00,M,-SN,KMHT 012110Z AUTO 35010KT 8SM -SN FEW008 BKN018 OVC042 A2993 RMK P0001 MADISHF
MHT,2017-04-01 21:15,-71.4357,42.9328,M,M,M,350.00,10.00,0.01,29.94,M,6.00,M,FEW,BKN,OVC,M,800.00,1900.00,3200.00,M,-SN,KMHT 012115Z AUTO 35010KT 6SM -SN FEW008 BKN019 OVC032 A2994 RMK P0001 MADISHF
MHT,2017-04-01 21:20,-71.4357,42.9328,M,M,M,10.00,11.00,0.01,29.94,M,6.00,M,SCT,BKN,OVC,M,1400.00,1900.00,3800.00,M,-SN,KMHT 012120Z AUTO 01011KT 6SM -SN SCT014 BKN019 OVC038 A2994 RMK P0001 MADISHF
MHT,2017-04-01 21:25,-71.4357,42.9328,M,M,M,340.00,8.00,0.01,29.94,M,8.00,M,FEW,BKN,OVC,M,1200.00,1800.00,3300.00,M,-SN,KMHT 012125Z AUTO 34008KT 8SM -SN FEW012 BKN018 OVC033 A2994 RMK P0001 MADISHF
MHT,2017-04-01 21:30,-71.4357,42.9328,M,M,M,340.00,8.00,0.01,29.94,M,6.00,M,SCT,BKN,OVC,M,900.00,1800.00,3100.00,M,-SN,KMHT 012130Z AUTO 34008KT 6SM -SN SCT009 BKN018 OVC031 A2994 RMK P0001 MADISHF
MHT,2017-04-01 21:35,-71.4357,42.9328,M,M,M,340.00,9.00,0.01,29.94,M,4.00,M,SCT,BKN,OVC,M,600.00,999.00,3600.00,M,-SN BR,KMHT 012135Z AUTO 34009KT 4SM -SN BR SCT006 BKN009 OVC036 A2994 RMK P0001 MADISHF
MHT,2017-04-01 21:36,-71.4357,42.9328,34.00,30.90,88.27,350.00,8.00,0.01,29.94,M,3.00,M,BKN,OVC,M,M,600.00,1000.00,M,M,-SN BR,KMHT 012136Z 35008KT 3SM -SN BR BKN006 OVC010 01/M01 A2994 RMK AO2 P0001 T00111006 $
MHT,2017-04-01 21:40,-71.4357,42.9328,M,M,M,350.00,9.00,0.01,29.94,M,3.00,M,SCT,BKN,OVC,M,600.00,900.00,3600.00,M,-SN BR,KMHT 012140Z AUTO 35009KT 3SM -SN BR SCT006 BKN009 OVC036 A2994 RMK P0001 MADISHF
MHT,2017-04-01 21:45,-71.4357,42.9328,M,M,M,350.00,9.00,0.01,29.95,M,3.00,M,BKN,BKN,OVC,M,600.00,1200.00,2800.00,M,-SN BR,KMHT 012145Z AUTO 35009KT 3SM -SN BR BKN006 BKN012 OVC028 A2995 RMK P0001 MADISHF
MHT,2017-04-01 21:50,-71.4357,42.9328,M,M,M,350.00,8.00,0.01,29.95,M,3.00,M,BKN,BKN,OVC,M,600.00,1200.00,2300.00,M,-SN BR,KMHT 012150Z AUTO 35008KT 3SM -SN BR BKN006 BKN012 OVC023 A2995 RMK P0001 MADISHF
MHT,2017-04-01 21:53,-71.4357,42.9328,34.00,30.90,88.27,340.00,7.00,0.01,29.95,1016.00,3.00,M,FEW,SCT,OVC,M,500.00,1000.00,2000.00,M,-SN BR,KMHT 012153Z 34007KT 3SM -SN BR FEW005 SCT010 OVC020 01/M01 A2995 RMK AO2 SLP160 P0001 T00111006 $
MHT,2017-04-01 21:55,-71.4357,42.9328,M,M,M,340.00,8.00,M,29.95,M,3.00,M,FEW,SCT,OVC,M,499.00,1200.00,2300.00,M,-SN BR,KMHT 012155Z AUTO 34008KT 3SM -SN BR FEW004 SCT012 OVC023 A2995 RMK MADISHF
MHT,2017-04-01 22:00,-71.4357,42.9328,M,M,M,340.00,8.00,M,29.95,M,3.00,M,FEW,SCT,OVC,M,499.00,1200.00,2300.00,M,-SN BR,KMHT 012200Z AUTO 34008KT 3SM -SN BR FEW004 SCT012 OVC023 A2995 RMK MADISHF
MHT,2017-04-01 22:04,-71.4357,42.9328,34.00,30.90,88.27,340.00,7.00,0.00,29.95,M,1.50,M,BKN,BKN,OVC,M,600.00,1100.00,1500.00,M,-SN BR,KMHT 012204Z 34007KT 1 1/2SM -SN BR BKN006 BKN011 OVC015 01/M01 A2995 RMK AO2 P0000 T00111006 $
MHT,2017-04-01 22:05,-71.4357,42.9328,M,M,M,340.00,7.00,M,29.95,M,1.50,M,BKN,OVC,M,M,600.00,1500.00,M,M,-SN BR,KMHT 012205Z AUTO 34007KT 1 1/2SM -SN BR BKN006 OVC015 A2995 RMK MADISHF
MHT,2017-04-01 22:10,-71.4357,42.9328,M,M,M,350.00,8.00,0.01,29.96,M,1.75,M,BKN,BKN,OVC,M,600.00,999.00,1699.00,M,-SN BR,KMHT 012210Z AUTO 35008KT 2SM -SN BR BKN006 BKN009 OVC016 A2996 RMK P0001 MADISHF
MHT,2017-04-01 22:14,-71.4357,42.9328,34.00,30.90,88.27,350.00,8.00,0.01,29.96,M,3.00,M,SCT,OVC,M,M,600.00,1500.00,M,M,-SN BR,KMHT 012214Z 35008KT 3SM -SN BR SCT006 OVC015 01/M01 A2996 RMK AO2 P0001 T00111006 $
MHT,2017-04-01 22:15,-71.4357,42.9328,M,M,M,350.00,8.00,0.01,29.96,M,3.00,M,SCT,OVC,M,M,600.00,1500.00,M,M,-SN BR,KMHT 012215Z AUTO 35008KT 3SM -SN BR SCT006 OVC015 A2996 RMK P0001 MADISHF
MHT,2017-04-01 22:20,-71.4357,42.9328,M,M,M,350.00,7.00,0.01,29.96,M,3.00,M,SCT,OVC,M,M,600.00,1500.00,M,M,-SN BR,KMHT 012220Z AUTO 35007KT 3SM -SN BR SCT006 OVC015 A2996 RMK P0001 MADISHF
MHT,2017-04-01 22:25,-71.4357,42.9328,M,M,M,350.00,7.00,0.01,29.96,M,3.00,M,SCT,OVC,M,M,600.00,1500.00,M,M,-SN BR,KMHT 012225Z AUTO 35007KT 3SM -SN BR SCT006 OVC015 A2996 RMK P0001 MADISHF
MHT,2017-04-01 22:30,-71.4357,42.9328,M,M,M,350.00,7.00,0.01,29.96,M,3.00,M,SCT,OVC,M,M,600.00,1500.00,M,M,-SN BR,KMHT 012230Z AUTO 35007KT 3SM -SN BR SCT006 OVC015 A2996 RMK P0001 MADISHF
MHT,2017-04-01 22:35,-71.4357,42.9328,M,M,M,350.00,7.00,0.01,29.96,M,3.00,M,SCT,OVC,M,M,600.00,1500.00,M,M,-SN BR,KMHT 012235Z AUTO 35007KT 3SM -SN BR SCT006 OVC015 A2996 RMK P0001 MADISHF
MHT,2017-04-01 22:40,-71.4357,42.9328,M,M,M,350.00,7.00,0.01,29.96,M,3.50,M,SCT,OVC,M,M,600.00,1500.00,M,M,-SN BR,KMHT 012240Z AUTO 35007KT 3SM -SN BR SCT006 OVC015 A2996 RMK P0001 MADISHF
MHT,2017-04-01 22:45,-71.4357,42.9328,M,M,M,340.00,7.00,0.01,29.97,M,4.00,M,SCT,OVC,M,M,600.00,1500.00,M,M,-SN BR,KMHT 012245Z AUTO 34007KT 4SM -SN BR SCT006 OVC015 A2997 RMK P0001 MADISHF
MHT,2017-04-01 22:50,-71.4357,42.9328,M,M,M,340.00,7.00,0.01,29.97,M,5.00,M,SCT,OVC,M,M,600.00,1500.00,M,M,-SN BR,KMHT 012250Z AUTO 34007KT 5SM -SN BR SCT006 OVC015 A2997 RMK P0001 MADISHF
MHT,2017-04-01 22:53,-71.4357,42.9328,34.00,30.90,88.27,340.00,8.00,0.01,29.97,1016.60,7.00,M,SCT,BKN,OVC,M,600.00,1500.00,2700.00,M,-SN,KMHT 012253Z 34008KT 7SM -SN SCT006 BKN015 OVC027 01/M01 A2997 RMK AO2 SLP166 P0001 T00111006 $
MHT,2017-04-01 22:55,-71.4357,42.9328,M,M,M,340.00,8.00,M,29.97,M,7.00,M,SCT,OVC,M,M,900.00,1500.00,M,M,-SN,KMHT 012255Z AUTO 34008KT 7SM -SN SCT009 OVC015 A2997 RMK MADISHF
MHT,2017-04-01 23:00,-71.4357,42.9328,M,M,M,340.00,9.00,M,29.97,M,8.00,M,SCT,OVC,M,M,900.00,1500.00,M,M,-SN,KMHT 012300Z AUTO 34009KT 8SM -SN SCT009 OVC015 A2997 RMK MADISHF
MHT,2017-04-01 23:05,-71.4357,42.9328,M,M,M,340.00,10.00,M,29.97,M,8.00,M,SCT,OVC,M,M,900.00,1500.00,M,M,-SN,KMHT 012305Z AUTO 34010KT 8SM -SN SCT009 OVC015 A2997 RMK MADISHF
MHT,2017-04-01 23:10,-71.4357,42.9328,M,M,M,340.00,11.00,M,29.97,M,9.00,M,SCT,BKN,OVC,M,900.00,1500.00,2700.00,M,-SN,KMHT 012310Z AUTO 34011KT 9SM -SN SCT009 BKN015 OVC027 A2997 RMK MADISHF
MHT,2017-04-01 23:14,-71.4357,42.9328,34.00,30.00,85.11,350.00,10.00,0.00,29.97,M,10.00,M,FEW,SCT,OVC,M,900.00,2700.00,8000.00,M,M,KMHT 012314Z 35010KT 10SM FEW009 SCT027 OVC080 01/M01 A2997 RMK AO2 SNE13 P0000 T00111011 $
MHT,2017-04-01 23:15,-71.4357,42.9328,M,M,M,350.00,9.00,M,29.97,M,10.00,M,FEW,SCT,OVC,M,900.00,2700.00,7999.00,M,M,KMHT 012315Z AUTO 35009KT 10SM FEW009 SCT027 OVC079 A2997 RMK  4/008 MADISHF
MHT,2017-04-01 23:20,-71.4357,42.9328,M,M,M,350.00,9.00,M,29.97,M,10.00,M,FEW,SCT,OVC,M,900.00,2700.00,7999.00,M,M,KMHT 012320Z AUTO 35009KT 10SM FEW009 SCT027 OVC079 A2997 RMK  4/008 MADISHF
MHT,2017-04-01 23:25,-71.4357,42.9328,M,M,M,350.00,9.00,M,29.97,M,10.00,M,FEW,SCT,OVC,M,1100.00,2900.00,7999.00,M,M,KMHT 012325Z AUTO 35009KT 10SM FEW011 SCT029 OVC079 A2997 RMK  4/008 MADISHF
MHT,2017-04-01 23:30,-71.4357,42.9328,M,M,M,350.00,9.00,M,29.97,M,10.00,M,FEW,OVC,M,M,2900.00,7500.00,M,M,M,KMHT 012330Z AUTO 35009KT 10SM FEW029 OVC075 A2997 RMK  4/008 MADISHF
MHT,2017-04-01 23:35,-71.4357,42.9328,M,M,M,350.00,9.00,M,29.97,M,10.00,M,FEW,BKN,OVC,M,2900.00,7000.00,7999.00,M,M,KMHT 012335Z AUTO 35009KT 10SM FEW029 BKN070 OVC079 A2997 RMK  4/008 MADISHF
MHT,2017-04-01 23:40,-71.4357,42.9328,M,M,M,350.00,8.00,M,29.97,M,10.00,M,FEW,BKN,OVC,M,2900.00,7000.00,7999.00,M,M,KMHT 012340Z AUTO 35008KT 10SM FEW029 BKN070 OVC079 A2997 RMK  4/008 MADISHF
MHT,2017-04-01 23:45,-71.4357,42.9328,M,M,M,350.00,8.00,M,29.97,M,10.00,M,FEW,OVC,M,M,2900.00,7000.00,M,M,M,KMHT 012345Z AUTO 35008KT 10SM FEW029 OVC070 A2997 RMK  4/008 MADISHF
MHT,2017-04-01 23:50,-71.4357,42.9328,M,M,M,360.00,7.00,M,29.97,M,10.00,M,FEW,OVC,M,M,3000.00,6500.00,M,M,M,KMHT 012350Z AUTO 36007KT 10SM FEW030 OVC065 A2997 RMK  4/008 MADISHF
MHT,2017-04-01 23:53,-71.4357,42.9328,34.00,30.00,85.11,360.00,7.00,0.00,29.97,1016.50,10.00,M,FEW,OVC,M,M,3000.00,6500.00,M,M,M,KMHT 012353Z 36007KT 10SM FEW030 OVC065 01/M01 A2997 RMK AO2 SNE13 SLP165 4/008 P0000 60003 T00111011 10017 20011 50016 $
MHT,2017-04-01 23:55,-71.4357,42.9328,M,M,M,360.00,7.00,M,29.97,M,10.00,M,BKN,OVC,M,M,7000.00,7999.00,M,M,M,KMHT 012355Z AUTO 36007KT 10SM BKN070 OVC079 A2997 RMK MADISHF
