#DEBUG: Format Typ    -> comma
#DEBUG: Time Period   -> 2017-04-01 00:00:00+00:00 2017-04-02 00:00:00+00:00
#DEBUG: Time Zone     -> Etc/UTC
#DEBUG: Data Contact   -> daryl herzmann akrherz@iastate.edu 515-294-5978
#DEBUG: Entries Found -> -1
station,valid,lon,lat,tmpf, dwpf, relh, drct, sknt, p01i, alti, mslp, vsby, gust, skyc1, skyc2, skyc3, skyc4, skyl1, skyl2, skyl3, skyl4, presentwx, metar
MIV,2017-04-01 00:00,-75.0783,39.3661,M,M,M,160.00,4.00,M,29.62,M,2.50,M,OVC,M,M,M,200.00,M,M,M,BR,KMIV 010000Z AUTO 16004KT 2 1/2SM BR OVC002 A2962 RMK MADISHF
MIV,2017-04-01 00:05,-75.0783,39.3661,M,M,M,150.00,4.00,M,29.63,M,2.50,M,OVC,M,M,M,200.00,M,M,M,BR,KMIV 010005Z AUTO 15004KT 2 1/2SM BR OVC002 A2963 RMK MADISHF
MIV,2017-04-01 00:10,-75.0783,39.3661,M,M,M,170.00,4.00,M,29.63,M,2.00,M,OVC,M,M,M,200.00,M,M,M,BR,KMIV 010010Z AUTO 17004KT 2SM BR OVC002 A2963 RMK MADISHF
MIV,2017-04-01 00:15,-75.0783,39.3661,M,M,M,160.00,4.00,M,29.63,M,2.00,M,OVC,M,M,M,200.00,M,M,M,BR,KMIV 010015Z AUTO 16004KT 2SM BR OVC002 A2963 RMK MADISHF
MIV,2017-04-01 00:20,-75.0783,39.3661,M,M,M,160.00,3.00,M,29.63,M,1.75,M,OVC,M,M,M,200.00,M,M,M,BR,KMIV 010020Z AUTO 16003KT 2SM BR OVC002 A2963 RMK VRB03KT  MADISHF
MIV,2017-04-01 00:23,-75.0783,39.3661,53.10,53.10,100.00,150.00,4.00,0.00,29.62,M,1.50,M,OVC,M,M,M,200.00,M,M,M,BR,KMIV 010023Z AUTO 15004KT 1 1/2SM BR OVC002 12/12 A2962 RMK AO2 T01170117
MIV,2017-04-01 00:25,-75.0783,39.3661,M,M,M,160.00,4.00,M,29.62,M,1.50,M,OVC,M,M,M,200.00,M,M,M,BR,KMIV 010025Z AUTO 16004KT 1 1/2SM BR OVC002 A2962 RMK MADISHF
MIV,2017-04-01 00:30,-75.0783,39.3661,M,M,M,160.00,3.00,M,29.61,M,1.25,M,OVC,M,M,M,200.00,M,M,M,BR,KMIV 010030Z AUTO 16003KT 1 1/2SM BR OVC002 A2961 RMK MADISHF
MIV,2017-04-01 00:35,-75.0783,39.3661,M,M,M,0.00,0.00,M,29.62,M,1.25,M,OVC,M,M,M,200.00,M,M,M,BR,KMIV 010035Z AUTO 00000KT 1 1/2SM BR OVC002 A2962 RMK MADISHF
MIV,2017-04-01 00:40,-75.0783,39.3661,M,M,M,0.00,0.00,M,29.62,M,1.00,M,OVC,M,M,M,200.00,M,M,M,BR,KMIV 010040Z AUTO 00000KT 1SM BR OVC002 A2962 RMK MADISHF
MIV,2017-04-01 00:45,-75.0783,39.3661,M,M,M,150.00,3.00,M,29.62,M,1.00,M,OVC,M,M,M,200.00,M,M,M,BR,KMIV 010045Z AUTO 15003KT 1SM BR OVC002 A2962 RMK MADISHF
MIV,2017-04-01 00:50,-75.0783,39.3661,M,M,M,160.00,3.00,M,29.62,M,0.75,M,OVC,M,M,M,200.00,M,M,M,BR,KMIV 010050Z AUTO 16003KT 1SM BR OVC002 A2962 RMK MADISHF
MIV,2017-04-01 00:54,-75.0783,39.3661,53.10,53.10,100.00,0.00,0.00,0.00,29.62,1002.80,1.00,M,OVC,M,M,M,200.00,M,M,M,BR,KMIV 010054Z AUTO 00000KT 1SM BR OVC002 12/12 A2962 RMK AO2 SLP028 T01170117
MIV,2017-04-01 00:55,-75.0783,39.3661,M,M,M,160.00,3.00,M,29.62,M,1.00,M,OVC,M,M,M,200.00,M,M,M,BR,KMIV 010055Z AUTO 16003KT 1SM BR OVC002 A2962 RMK MADISHF
MIV,2017-04-01 01:00,-75.0783,39.3661,M,M,M,160.00,3.00,M,29.62,M,1.00,M,OVC,M,M,M,200.00,M,M,M,BR,KMIV 010100Z AUTO 16003KT 1SM BR OVC002 A2962 RMK MADISHF
MIV,2017-04-01 01:05,-75.0783,39.3661,M,M,M,0.00,0.00,M,29.61,M,1.25,M,OVC,M,M,M,200.00,M,M,M,BR,KMIV 010105Z AUTO 00000KT 1 1/2SM BR OVC002 A2961 RMK MADISHF
MIV,2017-04-01 01:10,-75.0783,39.3661,M,M,M,0.00,0.00,M,29.61,M,1.25,M,OVC,M,M,M,200.00,M,M,M,BR,KMIV 010110Z AUTO 00000KT 1 1/2SM BR OVC002 A2961 RMK MADISHF
MIV,2017-04-01 01:15,-75.0783,39.3661,M,M,M,0.00,0.00,M,29.61,M,1.25,M,OVC,M,M,M,200.00,M,M,M,BR,KMIV 010115Z AUTO 00000KT 1 1/2SM BR OVC002 A2961 RMK MADISHF
MIV,2017-04-01 01:20,-75.0783,39.3661,M,M,M,0.00,0.00,M,29.61,M,1.25,M,OVC,M,M,M,200.00,M,M,M,BR,KMIV 010120Z AUTO 00000KT 1 1/2SM BR OVC002 A2961 RMK MADISHF
MIV,2017-04-01 01:25,-75.0783,39.3661,M,M,M,0.00,0.00,M,29.61,M,1.25,M,OVC,M,M,M,200.00,M,M,M,BR,KMIV 010125Z AUTO 00000KT 1 1/2SM BR OVC002 A2961 RMK MADISHF
MIV,2017-04-01 01:30,-75.0783,39.3661,M,M,M,0.00,0.00,M,29.61,M,1.25,M,OVC,M,M,M,200.00,M,M,M,BR,KMIV 010130Z AUTO 00000KT 1 1/2SM BR OVC002 A2961 RMK MADISHF
MIV,2017-04-01 01:35,-75.0783,39.3661,M,M,M,0.00,0.00,M,29.60,M,1.25,M,OVC,M,M,M,200.00,M,M,M,BR,KMIV 010135Z AUTO 00000KT 1 1/2SM BR OVC002 A2960 RMK MADISHF
MIV,2017-04-01 01:40,-75.0783,39.3661,M,M,M,0.00,0.00,M,29.60,M,1.25,M,OVC,M,M,M,200.00,M,M,M,BR,KMIV 010140Z AUTO 00000KT 1 1/2SM BR OVC002 A2960 RMK MADISHF
MIV,2017-04-01 01:45,-75.0783,39.3661,M,M,M,0.00,0.00,M,29.60,M,1.25,M,OVC,M,M,M,200.00,M,M,M,BR,KMIV 010145Z AUTO 00000KT 1 1/2SM BR OVC002 A2960 RMK MADISHF
MIV,2017-04-01 01:50,-75.0783,39.3661,M,M,M,0.00,0.00,M,29.60,M,1.00,M,OVC,M,M,M,200.00,M,M,M,BR,KMIV 010150Z AUTO 00000KT 1SM BR OVC002 A2960 RMK MADISHF
MIV,2017-04-01 01:54,-75.0783,39.3661,54.00,54.00,100.00,310.00,4.00,0.00,29.60,1002.30,1.00,M,OVC,M,M,M,200.00,M,M,M,BR,KMIV 010154Z AUTO 31004KT 1SM BR OVC002 12/12 A2960 RMK AO2 SLP023 T01220122
MIV,2017-04-01 01:55,-75.0783,39.3661,M,M,M,300.00,4.00,M,29.60,M,1.00,M,OVC,M,M,M,200.00,M,M,M,BR,KMIV 010155Z AUTO 30004KT 1SM BR OVC002 A2960 RMK MADISHF
MIV,2017-04-01 02:00,-75.0783,39.3661,M,M,M,290.00,5.00,M,29.61,M,1.00,M,OVC,M,M,M,200.00,M,M,M,BR,KMIV 010200Z AUTO 29005KT 1SM BR OVC002 A2961 RMK MADISHF
MIV,2017-04-01 02:05,-75.0783,39.3661,M,M,M,280.00,7.00,M,29.60,M,1.75,M,OVC,M,M,M,200.00,M,M,M,BR,KMIV 010205Z AUTO 28007KT 2SM BR OVC002 A2960 RMK MADISHF
MIV,2017-04-01 02:10,-75.0783,39.3661,M,M,M,290.00,6.00,M,29.60,M,2.00,M,OVC,M,M,M,200.00,M,M,M,BR,KMIV 010210Z AUTO 29006KT 2SM BR OVC002 A2960 RMK MADISHF
MIV,2017-04-01 02:15,-75.0783,39.3661,M,M,M,290.00,5.00,M,29.60,M,1.50,M,OVC,M,M,M,200.00,M,M,M,BR,KMIV 010215Z AUTO 29005KT 1 1/2SM BR OVC002 A2960 RMK MADISHF
MIV,2017-04-01 02:20,-75.0783,39.3661,M,M,M,280.00,3.00,M,29.60,M,1.50,M,OVC,M,M,M,200.00,M,M,M,BR,KMIV 010220Z AUTO 28003KT 1 1/2SM BR OVC002 A2960 RMK MADISHF
MIV,2017-04-01 02:25,-75.0783,39.3661,M,M,M,290.00,3.00,M,29.60,M,1.50,M,OVC,M,M,M,200.00,M,M,M,BR,KMIV 010225Z AUTO 29003KT 1 1/2SM BR OVC002 A2960 RMK MADISHF
MIV,2017-04-01 02:30,-75.0783,39.3661,M,M,M,0.00,0.00,M,29.59,M,1.25,M,OVC,M,M,M,200.00,M,M,M,BR,KMIV 010230Z AUTO 00000KT 1 1/2SM BR OVC002 A2959 RMK MADISHF
MIV,2017-04-01 02:35,-75.0783,39.3661,M,M,M,270.00,3.00,M,29.60,M,1.00,M,OVC,M,M,M,200.00,M,M,M,BR,KMIV 010235Z AUTO 27003KT 1SM BR OVC002 A2960 RMK MADISHF
MIV,2017-04-01 02:40,-75.0783,39.3661,M,M,M,0.00,0.00,M,29.59,M,1.00,M,OVC,M,M,M,200.00,M,M,M,BR,KMIV 010240Z AUTO 00000KT 1SM BR OVC002 A2959 RMK MADISHF
MIV,2017-04-01 02:45,-75.0783,39.3661,M,M,M,300.00,5.00,M,29.59,M,0.75,M,OVC,M,M,M,200.00,M,M,M,BR,KMIV 010245Z AUTO 30005KT 1SM BR OVC002 A2959 RMK MADISHF
MIV,2017-04-01 02:49,-75.0783,39.3661,53.60,53.60,100.00,300.00,6.00,0.00,29.59,M,0.75,M,OVC,M,M,M,200.00,M,M,M,BR,KMIV 010249Z AUTO 30006KT 3/4SM BR OVC002 12/12 A2959 RMK AO2 $
MIV,2017-04-01 02:50,-75.0783,39.3661,M,M,M,300.00,5.00,M,29.59,M,1.00,M,OVC,M,M,M,200.00,M,M,M,BR,KMIV 010250Z AUTO 30005KT 1SM BR OVC002 A2959 RMK MADISHF
MIV,2017-04-01 02:54,-75.0783,39.3661,54.00,54.00,100.00,310.00,6.00,0.00,29.58,1001.70,1.00,M,OVC,M,M,M,200.00,M,M,M,BR,KMIV 010254Z AUTO 31006KT 1SM BR OVC002 12/12 A2958 RMK AO2 SLP017 T01220122 56012 $
MIV,2017-04-01 02:55,-75.0783,39.3661,M,M,M,310.00,5.00,M,29.58,M,1.00,M,OVC,M,M,M,200.00,M,M,M,BR,KMIV 010255Z AUTO 31005KT 1SM BR OVC002 A2958 RMK MADISHF
MIV,2017-04-01 03:00,-75.0783,39.3661,M,M,M,300.00,6.00,M,29.59,M,0.75,M,VV ,M,M,M,200.00,M,M,M,BR,KMIV 010300Z AUTO 30006KT 1SM BR VV002 A2959 RMK MADISHF
MIV,2017-04-01 03:04,-75.0783,39.3661,54.00,54.00,100.00,310.00,6.00,0.00,29.59,M,0.75,M,VV ,M,M,M,200.00,M,M,M,BR,KMIV 010304Z AUTO 31006KT 3/4SM BR VV002 12/12 A2959 RMK AO2 T01220122 $
MIV,2017-04-01 03:05,-75.0783,39.3661,M,M,M,310.00,6.00,M,29.58,M,0.75,M,VV ,M,M,M,200.00,M,M,M,BR,KMIV 010305Z AUTO 31006KT 1SM BR VV002 A2958 RMK MADISHF
MIV,2017-04-01 03:10,-75.0783,39.3661,M,M,M,300.00,5.00,M,29.58,M,0.75,M,OVC,M,M,M,200.00,M,M,M,BR,KMIV 010310Z AUTO 30005KT 1SM BR OVC002 A2958 RMK MADISHF
MIV,2017-04-01 03:15,-75.0783,39.3661,M,M,M,300.00,6.00,M,29.58,M,0.75,M,OVC,M,M,M,200.00,M,M,M,BR,KMIV 010315Z AUTO 30006KT 1SM BR OVC002 A2958 RMK MADISHF
MIV,2017-04-01 03:20,-75.0783,39.3661,M,M,M,290.00,5.00,M,29.58,M,1.00,M,OVC,M,M,M,200.00,M,M,M,BR,KMIV 010320Z AUTO 29005KT 1SM BR OVC002 A2958 RMK MADISHF
MIV,2017-04-01 03:25,-75.0783,39.3661,M,M,M,310.00,6.00,M,29.58,M,0.75,M,OVC,M,M,M,200.00,M,M,M,BR,KMIV 010325Z AUTO 31006KT 1SM BR OVC002 A2958 RMK MADISHF
MIV,2017-04-01 03:30,-75.0783,39.3661,M,M,M,320.00,7.00,M,29.58,M,0.75,M,OVC,M,M,M,200.00,M,M,M,BR,KMIV 010330Z AUTO 32007KT 1SM BR OVC002 A2958 RMK MADISHF
MIV,2017-04-01 03:35,-75.0783,39.3661,M,M,M,300.00,8.00,M,29.58,M,1.00,M,OVC,M,M,M,200.00,M,M,M,BR,KMIV 010335Z AUTO 30008KT 1SM BR OVC002 A2958 RMK MADISHF
MIV,2017-04-01 03:39,-75.0783,39.3661,52.00,52.00,100.00,290.00,9.00,0.00,29.59,M,1.00,M,OVC,M,M,M,200.00,M,M,M,BR,KMIV 010339Z AUTO 29009KT 1SM BR OVC002 11/11 A2959 RMK AO2 T01110111 $
MIV,2017-04-01 03:40,-75.0783,39.3661,M,M,M,280.00,9.00,M,29.59,M,1.00,M,OVC,M,M,M,200.00,M,M,M,BR,KMIV 010340Z AUTO 28009KT 1SM BR OVC002 A2959 RMK MADISHF
MIV,2017-04-01 03:45,-75.0783,39.3661,M,M,M,290.00,11.00,M,29.60,M,1.50,M,OVC,M,M,M,200.00,M,M,M,BR,KMIV 010345Z AUTO 29011KT 1 1/2SM BR OVC002 A2960 RMK MADISHF
MIV,2017-04-01 03:50,-75.0783,39.3661,M,M,M,290.00,9.00,M,29.60,M,2.00,M,OVC,M,M,M,200.00,M,M,M,BR,KMIV 010350Z AUTO 29009KT 2SM BR OVC002 A2960 RMK MADISHF
MIV,2017-04-01 03:54,-75.0783,39.3661,50.00,50.00,100.00,310.00,8.00,0.00,29.60,1002.00,1.75,M,OVC,M,M,M,200.00,M,M,M,BR,KMIV 010354Z AUTO 31008KT 1 3/4SM BR OVC002 10/10 A2960 RMK AO2 SLP020 T01000100 $
MIV,2017-04-01 03:55,-75.0783,39.3661,M,M,M,310.00,8.00,M,29.60,M,1.75,M,OVC,M,M,M,200.00,M,M,M,BR,KMIV 010355Z AUTO 31008KT 2SM BR OVC002 A2960 RMK MADISHF
MIV,2017-04-01 04:00,-75.0783,39.3661,M,M,M,340.00,9.00,M,29.59,M,2.00,M,OVC,M,M,M,200.00,M,M,M,BR,KMIV 010400Z AUTO 34009KT 2SM BR OVC002 A2959 RMK MADISHF
MIV,2017-04-01 04:05,-75.0783,39.3661,M,M,M,340.00,11.00,M,29.59,M,1.75,M,OVC,M,M,M,200.00,M,M,M,BR,KMIV 010405Z AUTO 34011KT 2SM BR OVC002 A2959 RMK MADISHF
MIV,2017-04-01 04:10,-75.0783,39.3661,M,M,M,330.00,10.00,M,29.60,M,1.50,M,OVC,M,M,M,200.00,M,M,M,BR,KMIV 010410Z AUTO 33010KT 1 1/2SM BR OVC002 A2960 RMK MADISHF
MIV,2017-04-01 04:15,-75.0783,39.3661,M,M,M,310.00,8.00,M,29.60,M,1.50,M,OVC,M,M,M,200.00,M,M,M,BR,KMIV 010415Z AUTO 31008KT 1 1/2SM BR OVC002 A2960 RMK MADISHF
MIV,2017-04-01 04:20,-75.0783,39.3661,M,M,M,310.00,10.00,M,29.60,M,1.25,M,OVC,M,M,M,200.00,M,M,M,BR,KMIV 010420Z AUTO 31010KT 1 1/2SM BR OVC002 A2960 RMK MADISHF
MIV,2017-04-01 04:25,-75.0783,39.3661,M,M,M,320.00,11.00,M,29.59,M,1.50,M,OVC,M,M,M,200.00,M,M,M,BR,KMIV 010425Z AUTO 32011KT 1 1/2SM BR OVC002 A2959 RMK MADISHF
MIV,2017-04-01 04:30,-75.0783,39.3661,M,M,M,310.00,8.00,M,29.60,M,1.25,M,OVC,M,M,M,200.00,M,M,M,BR,KMIV 010430Z AUTO 31008KT 1 1/2SM BR OVC002 A2960 RMK MADISHF
MIV,2017-04-01 04:35,-75.0783,39.3661,M,M,M,330.00,7.00,M,29.60,M,1.25,M,OVC,M,M,M,200.00,M,M,M,BR,KMIV 010435Z AUTO 33007KT 1 1/2SM BR OVC002 A2960 RMK MADISHF
MIV,2017-04-01 04:40,-75.0783,39.3661,M,M,M,310.00,8.00,M,29.59,M,1.25,M,OVC,M,M,M,200.00,M,M,M,BR,KMIV 010440Z AUTO 31008KT 1 1/2SM BR OVC002 A2959 RMK MADISHF
MIV,2017-04-01 04:45,-75.0783,39.3661,M,M,M,330.00,8.00,M,29.59,M,1.25,M,OVC,M,M,M,200.00,M,M,M,BR,KMIV 010445Z AUTO 33008KT 1 1/2SM BR OVC002 A2959 RMK MADISHF
MIV,2017-04-01 04:50,-75.0783,39.3661,M,M,M,330.00,11.00,M,29.58,M,1.25,M,OVC,M,M,M,200.00,M,M,M,BR,KMIV 010450Z AUTO 33011KT 1 1/2SM BR OVC002 A2958 RMK MADISHF
MIV,2017-04-01 04:54,-75.0783,39.3661,46.00,46.00,100.00,330.00,8.00,0.00,29.58,1001.50,1.25,M,OVC,M,M,M,200.00,M,M,M,BR,KMIV 010454Z AUTO 33008KT 1 1/4SM BR OVC002 08/08 A2958 RMK AO2 SLP015 T00780078 401390039 $
MIV,2017-04-01 04:55,-75.0783,39.3661,M,M,M,320.00,10.00,M,29.58,M,1.25,M,OVC,M,M,M,200.00,M,M,M,BR,KMIV 010455Z AUTO 32010KT 1 1/2SM BR OVC002 A2958 RMK MADISHF
MIV,2017-04-01 05:00,-75.0783,39.3661,M,M,M,320.00,9.00,M,29.58,M,1.50,M,OVC,M,M,M,200.00,M,M,M,BR,KMIV 010500Z AUTO 32009KT 1 1/2SM BR OVC002 A2958 RMK MADISHF
MIV,2017-04-01 05:05,-75.0783,39.3661,M,M,M,320.00,7.00,M,29.58,M,1.50,M,OVC,M,M,M,200.00,M,M,M,-RA BR,KMIV 010505Z AUTO 32007KT 1 1/2SM -RA BR OVC002 A2958 RMK MADISHF
MIV,2017-04-01 05:10,-75.0783,39.3661,M,M,M,320.00,7.00,M,29.58,M,1.75,M,OVC,M,M,M,200.00,M,M,M,-RA BR,KMIV 010510Z AUTO 32007KT 2SM -RA BR OVC002 A2958 RMK MADISHF
MIV,2017-04-01 05:15,-75.0783,39.3661,M,M,M,330.00,10.00,M,29.59,M,2.00,M,OVC,M,M,M,200.00,M,M,M,BR,KMIV 010515Z AUTO 33010KT 2SM BR OVC002 A2959 RMK MADISHF
MIV,2017-04-01 05:17,-75.0783,39.3661,45.00,45.00,100.00,340.00,9.00,0.01,29.58,M,2.00,M,OVC,M,M,M,200.00,M,M,M,BR,KMIV 010517Z AUTO 34009KT 2SM BR OVC002 07/07 A2958 RMK AO2 RAB01E13 P0001 T00720072 $
MIV,2017-04-01 05:20,-75.0783,39.3661,M,M,M,340.00,10.00,0.01,29.58,M,2.50,M,OVC,M,M,M,200.00,M,M,M,-RA BR,KMIV 010520Z AUTO 34010KT 2 1/2SM -RA BR OVC002 A2958 RMK P0001 MADISHF
MIV,2017-04-01 05:25,-75.0783,39.3661,M,M,M,350.00,11.00,0.01,29.59,M,3.00,M,OVC,M,M,M,200.00,M,M,M,-RA BR,KMIV 010525Z AUTO 35011KT 3SM -RA BR OVC002 A2959 RMK P0001 MADISHF
MIV,2017-04-01 05:30,-75.0783,39.3661,M,M,M,330.00,10.00,0.01,29.60,M,4.00,M,OVC,M,M,M,200.00,M,M,M,BR,KMIV 010530Z AUTO 33010KT 4SM BR OVC002 A2960 RMK P0001 MADISHF
MIV,2017-04-01 05:31,-75.0783,39.3661,45.00,45.00,100.00,340.00,8.00,0.01,29.60,M,4.00,M,OVC,M,M,M,200.00,M,M,M,BR,KMIV 010531Z AUTO 34008KT 4SM BR OVC002 07/07 A2960 RMK AO2 RAB01E13B18E28 P0001 T00720072 $
MIV,2017-04-01 05:35,-75.0783,39.3661,M,M,M,330.00,8.00,0.01,29.60,M,4.00,M,OVC,M,M,M,200.00,M,M,M,BR,KMIV 010535Z AUTO 33008KT 4SM BR OVC002 A2960 RMK P0001 MADISHF
MIV,2017-04-01 05:40,-75.0783,39.3661,M,M,M,340.00,8.00,0.01,29.61,M,4.00,M,OVC,M,M,M,300.00,M,M,M,BR,KMIV 010540Z AUTO 34008KT 4SM BR OVC003 A2961 RMK P0001 MADISHF
MIV,2017-04-01 05:45,-75.0783,39.3661,M,M,M,330.00,10.00,0.01,29.60,M,5.00,M,OVC,M,M,M,300.00,M,M,M,BR,KMIV 010545Z AUTO 33010KT 5SM BR OVC003 A2960 RMK P0001 MADISHF
MIV,2017-04-01 05:50,-75.0783,39.3661,M,M,M,330.00,8.00,0.01,29.61,M,5.00,M,OVC,M,M,M,300.00,M,M,M,BR,KMIV 010550Z AUTO 33008KT 5SM BR OVC003 A2961 RMK P0001 MADISHF
MIV,2017-04-01 05:54,-75.0783,39.3661,44.10,44.10,100.00,330.00,9.00,0.01,29.61,1002.60,5.00,M,OVC,M,M,M,300.00,M,M,M,BR,KMIV 010554Z AUTO 33009KT 5SM BR OVC003 07/07 A2961 RMK AO2 RAB01E13B18E28 SLP026 P0001 60001 T00670067 10122 20067 53009 $
MIV,2017-04-01 05:55,-75.0783,39.3661,M,M,M,330.00,9.00,M,29.61,M,5.00,M,OVC,M,M,M,300.00,M,M,M,BR,KMIV 010555Z AUTO 33009KT 5SM BR OVC003 A2961 RMK MADISHF
MIV,2017-04-01 06:00,-75.0783,39.3661,M,M,M,340.00,7.00,M,29.61,M,5.00,M,OVC,M,M,M,300.00,M,M,M,BR,KMIV 010600Z AUTO 34007KT 5SM BR OVC003 A2961 RMK MADISHF
MIV,2017-04-01 06:05,-75.0783,39.3661,M,M,M,330.00,10.00,M,29.61,M,5.00,M,OVC,M,M,M,300.00,M,M,M,BR,KMIV 010605Z AUTO 33010KT 5SM BR OVC003 A2961 RMK MADISHF
MIV,2017-04-01 06:10,-75.0783,39.3661,M,M,M,340.00,9.00,M,29.61,M,6.00,M,OVC,M,M,M,300.00,M,M,M,BR,KMIV 010610Z AUTO 34009KT 6SM BR OVC003 A2961 RMK MADISHF
MIV,2017-04-01 06:15,-75.0783,39.3661,M,M,M,330.00,8.00,M,29.62,M,6.00,M,OVC,M,M,M,300.00,M,M,M,BR,KMIV 010615Z AUTO 33008KT 6SM BR OVC003 A2962 RMK MADISHF
MIV,2017-04-01 06:20,-75.0783,39.3661,M,M,M,330.00,8.00,M,29.62,M,8.00,M,OVC,M,M,M,300.00,M,M,M,M,KMIV 010620Z AUTO 33008KT 8SM OVC003 A2962 RMK MADISHF
MIV,2017-04-01 06:25,-75.0783,39.3661,M,M,M,320.00,6.00,M,29.62,M,9.00,M,OVC,M,M,M,300.00,M,M,M,M,KMIV 010625Z AUTO 32006KT 9SM OVC003 A2962 RMK MADISHF
MIV,2017-04-01 06:30,-75.0783,39.3661,M,M,M,320.00,7.00,M,29.62,M,9.00,M,OVC,M,M,M,300.00,M,M,M,M,KMIV 010630Z AUTO 32007KT 9SM OVC003 A2962 RMK MADISHF
MIV,2017-04-01 06:35,-75.0783,39.3661,M,M,M,330.00,7.00,M,29.62,M,9.00,M,OVC,M,M,M,400.00,M,M,M,M,KMIV 010635Z AUTO 33007KT 9SM OVC004 A2962 RMK MADISHF
MIV,2017-04-01 06:40,-75.0783,39.3661,M,M,M,330.00,9.00,M,29.62,M,8.00,M,OVC,M,M,M,400.00,M,M,M,M,KMIV 010640Z AUTO 33009KT 8SM OVC004 A2962 RMK MADISHF
MIV,2017-04-01 06:45,-75.0783,39.3661,M,M,M,330.00,9.00,M,29.62,M,9.00,M,OVC,M,M,M,400.00,M,M,M,M,KMIV 010645Z AUTO 33009KT 9SM OVC004 A2962 RMK MADISHF
MIV,2017-04-01 06:50,-75.0783,39.3661,M,M,M,330.00,10.00,M,29.62,M,10.00,M,OVC,M,M,M,400.00,M,M,M,M,KMIV 010650Z AUTO 33010KT 10SM OVC004 A2962 RMK MADISHF
MIV,2017-04-01 06:54,-75.0783,39.3661,43.00,43.00,100.00,340.00,10.00,0.00,29.62,1003.00,10.00,M,OVC,M,M,M,500.00,M,M,M,M,KMIV 010654Z AUTO 34010KT 10SM OVC005 06/06 A2962 RMK AO2 SLP030 T00610061 $
MIV,2017-04-01 06:55,-75.0783,39.3661,M,M,M,340.00,9.00,M,29.62,M,10.00,M,OVC,M,M,M,499.00,M,M,M,M,KMIV 010655Z AUTO 34009KT 10SM OVC004 A2962 RMK MADISHF
MIV,2017-04-01 07:00,-75.0783,39.3661,M,M,M,330.00,9.00,M,29.63,M,10.00,M,OVC,M,M,M,499.00,M,M,M,M,KMIV 010700Z AUTO 33009KT 10SM OVC004 A2963 RMK MADISHF
MIV,2017-04-01 07:05,-75.0783,39.3661,M,M,M,320.00,7.00,M,29.63,M,10.00,M,OVC,M,M,M,499.00,M,M,M,M,KMIV 010705Z AUTO 32007KT 10SM OVC004 A2963 RMK MADISHF
MIV,2017-04-01 07:10,-75.0783,39.3661,M,M,M,330.00,9.00,M,29.63,M,10.00,M,OVC,M,M,M,600.00,M,M,M,M,KMIV 010710Z AUTO 33009KT 10SM OVC006 A2963 RMK MADISHF
MIV,2017-04-01 07:15,-75.0783,39.3661,M,M,M,340.00,10.00,M,29.63,M,10.00,M,OVC,M,M,M,600.00,M,M,M,M,KMIV 010715Z AUTO 34010KT 10SM OVC006 A2963 RMK CIG 5V9  MADISHF
MIV,2017-04-01 07:20,-75.0783,39.3661,M,M,M,330.00,10.00,M,29.63,M,10.00,M,OVC,M,M,M,600.00,M,M,M,M,KMIV 010720Z AUTO 33010KT 10SM OVC006 A2963 RMK CIG 5V10  MADISHF
MIV,2017-04-01 07:25,-75.0783,39.3661,M,M,M,340.00,8.00,M,29.63,M,10.00,M,OVC,M,M,M,800.00,M,M,M,M,KMIV 010725Z AUTO 34008KT 10SM OVC008 A2963 RMK MADISHF
MIV,2017-04-01 07:30,-75.0783,39.3661,M,M,M,350.00,10.00,M,29.63,M,10.00,M,OVC,M,M,M,800.00,M,M,M,M,KMIV 010730Z AUTO 35010KT 10SM OVC008 A2963 RMK MADISHF
MIV,2017-04-01 07:35,-75.0783,39.3661,M,M,M,330.00,8.00,M,29.63,M,9.00,M,OVC,M,M,M,800.00,M,M,M,M,KMIV 010735Z AUTO 33008KT 9SM OVC008 A2963 RMK MADISHF
MIV,2017-04-01 07:40,-75.0783,39.3661,M,M,M,340.00,9.00,M,29.63,M,8.00,M,OVC,M,M,M,800.00,M,M,M,M,KMIV 010740Z AUTO 34009KT 8SM OVC008 A2963 RMK MADISHF
MIV,2017-04-01 07:45,-75.0783,39.3661,M,M,M,330.00,8.00,M,29.64,M,9.00,M,OVC,M,M,M,700.00,M,M,M,M,KMIV 010745Z AUTO 33008KT 9SM OVC007 A2964 RMK MADISHF
MIV,2017-04-01 07:50,-75.0783,39.3661,M,M,M,340.00,9.00,M,29.64,M,10.00,M,OVC,M,M,M,700.00,M,M,M,M,KMIV 010750Z AUTO 34009KT 10SM OVC007 A2964 RMK MADISHF
MIV,2017-04-01 07:54,-75.0783,39.3661,43.00,43.00,100.00,330.00,6.00,0.00,29.64,1003.60,9.00,M,OVC,M,M,M,700.00,M,M,M,M,KMIV 010754Z AUTO 33006KT 9SM OVC007 06/06 A2964 RMK AO2 SLP036 T00610061 $
MIV,2017-04-01 07:55,-75.0783,39.3661,M,M,M,330.00,6.00,M,29.64,M,9.00,M,OVC,M,M,M,600.00,M,M,M,M,KMIV 010755Z AUTO 33006KT 9SM OVC006 A2964 RMK MADISHF
MIV,2017-04-01 08:00,-75.0783,39.3661,M,M,M,330.00,8.00,M,29.64,M,9.00,M,OVC,M,M,M,600.00,M,M,M,M,KMIV 010800Z AUTO 33008KT 9SM OVC006 A2964 RMK MADISHF
MIV,2017-04-01 08:05,-75.0783,39.3661,M,M,M,320.00,8.00,M,29.64,M,7.00,M,OVC,M,M,M,600.00,M,M,M,M,KMIV 010805Z AUTO 32008KT 7SM OVC006 A2964 RMK MADISHF
MIV,2017-04-01 08:10,-75.0783,39.3661,M,M,M,320.00,9.00,M,29.64,M,6.00,M,OVC,M,M,M,600.00,M,M,M,BR,KMIV 010810Z AUTO 32009KT 6SM BR OVC006 A2964 RMK CIG 4V9  MADISHF
MIV,2017-04-01 08:15,-75.0783,39.3661,M,M,M,330.00,8.00,M,29.65,M,5.00,M,OVC,M,M,M,600.00,M,M,M,BR,KMIV 010815Z AUTO 33008KT 5SM BR OVC006 A2965 RMK MADISHF
MIV,2017-04-01 08:20,-75.0783,39.3661,M,M,M,320.00,10.00,M,29.65,M,5.00,M,OVC,M,M,M,600.00,M,M,M,BR,KMIV 010820Z AUTO 32010KT 5SM BR OVC006 A2965 RMK MADISHF
MIV,2017-04-01 08:25,-75.0783,39.3661,M,M,M,310.00,11.00,M,29.65,M,4.00,M,OVC,M,M,M,499.00,M,M,M,BR,KMIV 010825Z AUTO 31011KT 4SM BR OVC004 A2965 RMK MADISHF
MIV,2017-04-01 08:30,-75.0783,39.3661,M,M,M,310.00,9.00,M,29.66,M,3.50,M,OVC,M,M,M,499.00,M,M,M,BR,KMIV 010830Z AUTO 31009KT 3SM BR OVC004 A2966 RMK MADISHF
MIV,2017-04-01 08:35,-75.0783,39.3661,M,M,M,320.00,10.00,M,29.66,M,4.00,M,OVC,M,M,M,499.00,M,M,M,BR,KMIV 010835Z AUTO 32010KT 4SM BR OVC004 A2966 RMK MADISHF
MIV,2017-04-01 08:40,-75.0783,39.3661,M,M,M,320.00,11.00,M,29.66,M,5.00,18.00,OVC,M,M,M,499.00,M,M,M,BR,KMIV 010840Z AUTO 32011G18KT 5SM BR OVC004 A2966 RMK MADISHF
MIV,2017-04-01 08:45,-75.0783,39.3661,M,M,M,330.00,10.00,M,29.67,M,8.00,M,OVC,M,M,M,499.00,M,M,M,M,KMIV 010845Z AUTO 33010KT 8SM OVC004 A2967 RMK MADISHF
MIV,2017-04-01 08:50,-75.0783,39.3661,M,M,M,340.00,10.00,M,29.67,M,10.00,M,OVC,M,M,M,499.00,M,M,M,M,KMIV 010850Z AUTO 34010KT 10SM OVC004 A2967 RMK CIG 4V9  MADISHF
MIV,2017-04-01 08:54,-75.0783,39.3661,42.10,41.00,95.84,340.00,9.00,0.00,29.67,1004.50,10.00,M,OVC,M,M,M,500.00,M,M,M,M,KMIV 010854Z AUTO 34009KT 10SM OVC005 06/05 A2967 RMK AO2 CIG 004V009 SLP045 T00560050 53019 $
MIV,2017-04-01 08:55,-75.0783,39.3661,M,M,M,330.00,9.00,M,29.67,M,10.00,M,OVC,M,M,M,499.00,M,M,M,M,KMIV 010855Z AUTO 33009KT 10SM OVC004 A2967 RMK CIG 4V9  MADISHF
MIV,2017-04-01 09:00,-75.0783,39.3661,M,M,M,320.00,9.00,M,29.67,M,9.00,M,OVC,M,M,M,600.00,M,M,M,M,KMIV 010900Z AUTO 32009KT 9SM OVC006 A2967 RMK MADISHF
MIV,2017-04-01 09:05,-75.0783,39.3661,M,M,M,320.00,9.00,M,29.67,M,9.00,M,OVC,M,M,M,600.00,M,M,M,M,KMIV 010905Z AUTO 32009KT 9SM OVC006 A2967 RMK MADISHF
MIV,2017-04-01 09:10,-75.0783,39.3661,M,M,M,330.00,12.00,M,29.68,M,10.00,M,OVC,M,M,M,600.00,M,M,M,M,KMIV 010910Z AUTO 33012KT 10SM OVC006 A2968 RMK CIG 5V9  MADISHF
MIV,2017-04-01 09:15,-75.0783,39.3661,M,M,M,330.00,9.00,M,29.68,M,10.00,M,OVC,M,M,M,600.00,M,M,M,M,KMIV 010915Z AUTO 33009KT 10SM OVC006 A2968 RMK CIG 5V9  MADISHF
MIV,2017-04-01 09:20,-75.0783,39.3661,M,M,M,330.00,13.00,M,29.68,M,10.00,M,OVC,M,M,M,700.00,M,M,M,M,KMIV 010920Z AUTO 33013KT 10SM OVC007 A2968 RMK CIG 5V9  MADISHF
MIV,2017-04-01 09:25,-75.0783,39.3661,M,M,M,320.00,9.00,M,29.69,M,10.00,M,OVC,M,M,M,700.00,M,M,M,M,KMIV 010925Z AUTO 32009KT 10SM OVC007 A2969 RMK MADISHF
MIV,2017-04-01 09:30,-75.0783,39.3661,M,M,M,330.00,9.00,M,29.69,M,10.00,M,OVC,M,M,M,700.00,M,M,M,M,KMIV 010930Z AUTO 33009KT 10SM OVC007 A2969 RMK MADISHF
MIV,2017-04-01 09:35,-75.0783,39.3661,M,M,M,320.00,9.00,M,29.69,M,10.00,M,BKN,OVC,M,M,700.00,1200.00,M,M,M,KMIV 010935Z AUTO 32009KT 10SM BKN007 OVC012 A2969 RMK MADISHF
MIV,2017-04-01 09:40,-75.0783,39.3661,M,M,M,340.00,11.00,M,29.69,M,10.00,17.00,BKN,OVC,M,M,700.00,1200.00,M,M,M,KMIV 010940Z AUTO 34011G17KT 10SM BKN007 OVC012 A2969 RMK MADISHF
MIV,2017-04-01 09:45,-75.0783,39.3661,M,M,M,330.00,10.00,M,29.70,M,10.00,M,BKN,OVC,M,M,700.00,1200.00,M,M,M,KMIV 010945Z AUTO 33010KT 10SM BKN007 OVC012 A2970 RMK MADISHF
MIV,2017-04-01 09:50,-75.0783,39.3661,M,M,M,320.00,7.00,M,29.70,M,10.00,M,OVC,M,M,M,700.00,M,M,M,M,KMIV 010950Z AUTO 32007KT 10SM OVC007 A2970 RMK CIG 6V12  MADISHF
MIV,2017-04-01 09:54,-75.0783,39.3661,39.90,39.90,100.00,320.00,8.00,0.00,29.70,1005.60,9.00,M,OVC,M,M,M,700.00,M,M,M,M,KMIV 010954Z AUTO 32008KT 9SM OVC007 04/04 A2970 RMK AO2 CIG 006V012 SLP056 T00440044 $
MIV,2017-04-01 09:55,-75.0783,39.3661,M,M,M,320.00,8.00,M,29.70,M,9.00,M,BKN,OVC,M,M,700.00,1200.00,M,M,M,KMIV 010955Z AUTO 32008KT 9SM BKN007 OVC012 A2970 RMK MADISHF
MIV,2017-04-01 10:00,-75.0783,39.3661,M,M,M,320.00,9.00,M,29.70,M,9.00,M,BKN,OVC,M,M,700.00,1200.00,M,M,M,KMIV 011000Z AUTO 32009KT 9SM BKN007 OVC012 A2970 RMK MADISHF
MIV,2017-04-01 10:05,-75.0783,39.3661,M,M,M,320.00,8.00,M,29.71,M,10.00,M,BKN,OVC,M,M,700.00,1200.00,M,M,M,KMIV 011005Z AUTO 32008KT 10SM BKN007 OVC012 A2971 RMK MADISHF
MIV,2017-04-01 10:10,-75.0783,39.3661,M,M,M,330.00,12.00,M,29.71,M,10.00,20.00,OVC,M,M,M,700.00,M,M,M,M,KMIV 011010Z AUTO 33012G20KT 10SM OVC007 A2971 RMK CIG 6V12  MADISHF
MIV,2017-04-01 10:15,-75.0783,39.3661,M,M,M,320.00,9.00,M,29.71,M,10.00,M,OVC,M,M,M,700.00,M,M,M,M,KMIV 011015Z AUTO 32009KT 10SM OVC007 A2971 RMK CIG 6V10  MADISHF
MIV,2017-04-01 10:20,-75.0783,39.3661,M,M,M,320.00,10.00,M,29.71,M,10.00,M,OVC,M,M,M,700.00,M,M,M,M,KMIV 011020Z AUTO 32010KT 10SM OVC007 A2971 RMK CIG 6V10  MADISHF
MIV,2017-04-01 10:25,-75.0783,39.3661,M,M,M,320.00,13.00,M,29.72,M,10.00,20.00,OVC,M,M,M,700.00,M,M,M,M,KMIV 011025Z AUTO 32013G20KT 10SM OVC007 A2972 RMK CIG 6V10  MADISHF
MIV,2017-04-01 10:30,-75.0783,39.3661,M,M,M,330.00,12.00,M,29.72,M,10.00,M,BKN,OVC,M,M,800.00,1200.00,M,M,M,KMIV 011030Z AUTO 33012KT 10SM BKN008 OVC012 A2972 RMK CIG 6V10  MADISHF
MIV,2017-04-01 10:35,-75.0783,39.3661,M,M,M,340.00,9.00,M,29.72,M,10.00,M,BKN,OVC,M,M,999.00,1900.00,M,M,M,KMIV 011035Z AUTO 34009KT 10SM BKN009 OVC019 A2972 RMK MADISHF
MIV,2017-04-01 10:37,-75.0783,39.3661,39.90,39.00,96.55,330.00,9.00,0.00,29.72,M,10.00,17.00,SCT,BKN,OVC,M,800.00,1200.00,1900.00,M,M,KMIV 011037Z AUTO 33009G17KT 10SM SCT008 BKN012 OVC019 04/04 A2972 RMK AO2 T00440039 $
MIV,2017-04-01 10:40,-75.0783,39.3661,M,M,M,330.00,10.00,M,29.72,M,10.00,M,BKN,OVC,M,M,1200.00,1900.00,M,M,M,KMIV 011040Z AUTO 33010KT 10SM BKN012 OVC019 A2972 RMK MADISHF
MIV,2017-04-01 10:45,-75.0783,39.3661,M,M,M,330.00,11.00,M,29.73,M,10.00,M,OVC,M,M,M,999.00,M,M,M,M,KMIV 011045Z AUTO 33011KT 10SM OVC009 A2973 RMK MADISHF
MIV,2017-04-01 10:50,-75.0783,39.3661,M,M,M,340.00,11.00,M,29.73,M,10.00,M,BKN,OVC,M,M,999.00,1800.00,M,M,M,KMIV 011050Z AUTO 34011KT 10SM BKN009 OVC018 A2973 RMK MADISHF
MIV,2017-04-01 10:54,-75.0783,39.3661,39.90,39.00,96.55,330.00,9.00,0.00,29.74,1006.80,10.00,16.00,OVC,M,M,M,1200.00,M,M,M,M,KMIV 011054Z AUTO 33009G16KT 10SM OVC012 04/04 A2974 RMK AO2 SLP068 T00440039 $
MIV,2017-04-01 10:55,-75.0783,39.3661,M,M,M,340.00,10.00,M,29.74,M,10.00,17.00,OVC,M,M,M,1200.00,M,M,M,M,KMIV 011055Z AUTO 34010G17KT 10SM OVC012 A2974 RMK MADISHF
MIV,2017-04-01 11:00,-75.0783,39.3661,M,M,M,330.00,9.00,M,29.74,M,10.00,M,OVC,M,M,M,1200.00,M,M,M,M,KMIV 011100Z AUTO 33009KT 10SM OVC012 A2974 RMK MADISHF
MIV,2017-04-01 11:05,-75.0783,39.3661,M,M,M,330.00,9.00,M,29.74,M,10.00,M,OVC,M,M,M,999.00,M,M,M,M,KMIV 011105Z AUTO 33009KT 10SM OVC009 A2974 RMK CIG 9V14  MADISHF
MIV,2017-04-01 11:10,-75.0783,39.3661,M,M,M,330.00,8.00,M,29.74,M,10.00,M,OVC,M,M,M,999.00,M,M,M,M,KMIV 011110Z AUTO 33008KT 10SM OVC009 A2974 RMK CIG 9V14  MADISHF
MIV,2017-04-01 11:15,-75.0783,39.3661,M,M,M,320.00,11.00,M,29.75,M,10.00,M,OVC,M,M,M,999.00,M,M,M,M,KMIV 011115Z AUTO 32011KT 10SM OVC009 A2975 RMK MADISHF
MIV,2017-04-01 11:20,-75.0783,39.3661,M,M,M,340.00,10.00,M,29.75,M,10.00,M,OVC,M,M,M,999.00,M,M,M,M,KMIV 011120Z AUTO 34010KT 10SM OVC009 A2975 RMK MADISHF
MIV,2017-04-01 11:25,-75.0783,39.3661,M,M,M,340.00,11.00,M,29.75,M,10.00,M,OVC,M,M,M,999.00,M,M,M,M,KMIV 011125Z AUTO 34011KT 10SM OVC009 A2975 RMK MADISHF
MIV,2017-04-01 11:30,-75.0783,39.3661,M,M,M,330.00,11.00,M,29.75,M,10.00,M,OVC,M,M,M,1100.00,M,M,M,M,KMIV 011130Z AUTO 33011KT 10SM OVC011 A2975 RMK MADISHF
MIV,2017-04-01 11:35,-75.0783,39.3661,M,M,M,330.00,9.00,M,29.76,M,10.00,M,OVC,M,M,M,1100.00,M,M,M,M,KMIV 011135Z AUTO 33009KT 10SM OVC011 A2976 RMK MADISHF
MIV,2017-04-01 11:40,-75.0783,39.3661,M,M,M,330.00,10.00,M,29.76,M,10.00,M,OVC,M,M,M,1100.00,M,M,M,M,KMIV 011140Z AUTO 33010KT 10SM OVC011 A2976 RMK MADISHF
MIV,2017-04-01 11:45,-75.0783,39.3661,M,M,M,330.00,11.00,M,29.76,M,10.00,M,OVC,M,M,M,1100.00,M,M,M,M,KMIV 011145Z AUTO 33011KT 10SM OVC011 A2976 RMK MADISHF
MIV,2017-04-01 11:50,-75.0783,39.3661,M,M,M,330.00,10.00,M,29.76,M,10.00,M,OVC,M,M,M,1200.00,M,M,M,M,KMIV 011150Z AUTO 33010KT 10SM OVC012 A2976 RMK MADISHF
MIV,2017-04-01 11:54,-75.0783,39.3661,41.00,39.00,92.52,330.00,7.00,0.00,29.77,1007.80,10.00,M,OVC,M,M,M,1200.00,M,M,M,M,KMIV 011154Z AUTO 33007KT 10SM OVC012 05/04 A2977 RMK AO2 SLP078 70097 T00500039 10067 20044 51033 $
MIV,2017-04-01 11:55,-75.0783,39.3661,M,M,M,330.00,8.00,M,29.77,M,10.00,M,OVC,M,M,M,1200.00,M,M,M,M,KMIV 011155Z AUTO 33008KT 10SM OVC012 A2977 RMK MADISHF
MIV,2017-04-01 12:00,-75.0783,39.3661,M,M,M,320.00,11.00,M,29.77,M,10.00,16.00,OVC,M,M,M,1200.00,M,M,M,M,KMIV 011200Z AUTO 32011G16KT 10SM OVC012 A2977 RMK MADISHF
MIV,2017-04-01 12:05,-75.0783,39.3661,M,M,M,320.00,14.00,M,29.77,M,10.00,M,BKN,OVC,M,M,1200.00,1999.00,M,M,M,KMIV 011205Z AUTO 32014KT 10SM BKN012 OVC019 A2977 RMK MADISHF
MIV,2017-04-01 12:10,-75.0783,39.3661,M,M,M,310.00,13.00,M,29.78,M,10.00,20.00,BKN,OVC,M,M,1400.00,2200.00,M,M,M,KMIV 011210Z AUTO 31013G20KT 10SM BKN014 OVC022 A2978 RMK MADISHF
MIV,2017-04-01 12:15,-75.0783,39.3661,M,M,M,330.00,13.00,M,29.78,M,10.00,20.00,BKN,OVC,M,M,1400.00,1999.00,M,M,M,KMIV 011215Z AUTO 33013G20KT 10SM BKN014 OVC019 A2978 RMK MADISHF
MIV,2017-04-01 12:20,-75.0783,39.3661,M,M,M,330.00,11.00,M,29.78,M,10.00,M,BKN,OVC,M,M,1400.00,2200.00,M,M,M,KMIV 011220Z AUTO 33011KT 10SM BKN014 OVC022 A2978 RMK MADISHF
MIV,2017-04-01 12:25,-75.0783,39.3661,M,M,M,320.00,10.00,M,29.78,M,10.00,M,BKN,OVC,M,M,1400.00,2200.00,M,M,M,KMIV 011225Z AUTO 32010KT 10SM BKN014 OVC022 A2978 RMK MADISHF
MIV,2017-04-01 12:30,-75.0783,39.3661,M,M,M,330.00,13.00,M,29.78,M,10.00,M,BKN,OVC,M,M,1400.00,2200.00,M,M,M,KMIV 011230Z AUTO 33013KT 10SM BKN014 OVC022 A2978 RMK MADISHF
MIV,2017-04-01 12:35,-75.0783,39.3661,M,M,M,340.00,11.00,M,29.79,M,10.00,M,BKN,BKN,OVC,M,1400.00,2200.00,5500.00,M,M,KMIV 011235Z AUTO 34011KT 10SM BKN014 BKN022 OVC055 A2979 RMK MADISHF
MIV,2017-04-01 12:40,-75.0783,39.3661,M,M,M,340.00,14.00,M,29.79,M,10.00,19.00,BKN,OVC,M,M,1400.00,5000.00,M,M,M,KMIV 011240Z AUTO 34014G19KT 10SM BKN014 OVC050 A2979 RMK MADISHF
MIV,2017-04-01 12:45,-75.0783,39.3661,M,M,M,320.00,13.00,M,29.79,M,10.00,M,OVC,M,M,M,1400.00,M,M,M,M,KMIV 011245Z AUTO 32013KT 10SM OVC014 A2979 RMK MADISHF
MIV,2017-04-01 12:50,-75.0783,39.3661,M,M,M,330.00,13.00,M,29.79,M,10.00,M,OVC,M,M,M,1400.00,M,M,M,M,KMIV 011250Z AUTO 33013KT 10SM OVC014 A2979 RMK MADISHF
MIV,2017-04-01 12:54,-75.0783,39.3661,42.10,37.90,84.93,330.00,9.00,0.00,29.79,1008.50,10.00,20.00,OVC,M,M,M,1400.00,M,M,M,M,KMIV 011254Z AUTO 33009G20KT 10SM OVC014 06/03 A2979 RMK AO2 SLP085 T00560033 $
MIV,2017-04-01 12:55,-75.0783,39.3661,M,M,M,330.00,9.00,M,29.79,M,10.00,M,OVC,M,M,M,1400.00,M,M,M,M,KMIV 011255Z AUTO 33009KT 10SM OVC014 A2979 RMK MADISHF
MIV,2017-04-01 13:00,-75.0783,39.3661,M,M,M,330.00,12.00,M,29.79,M,10.00,M,OVC,M,M,M,1400.00,M,M,M,M,KMIV 011300Z AUTO 33012KT 10SM OVC014 A2979 RMK MADISHF
MIV,2017-04-01 13:05,-75.0783,39.3661,M,M,M,330.00,14.00,M,29.79,M,10.00,19.00,OVC,M,M,M,1400.00,M,M,M,M,KMIV 011305Z AUTO 33014G19KT 10SM OVC014 A2979 RMK MADISHF
MIV,2017-04-01 13:10,-75.0783,39.3661,M,M,M,350.00,12.00,M,29.79,M,10.00,M,OVC,M,M,M,1400.00,M,M,M,M,KMIV 011310Z AUTO 35012KT 10SM OVC014 A2979 RMK MADISHF
MIV,2017-04-01 13:15,-75.0783,39.3661,M,M,M,340.00,11.00,M,29.79,M,10.00,M,OVC,M,M,M,1400.00,M,M,M,M,KMIV 011315Z AUTO 34011KT 10SM OVC014 A2979 RMK MADISHF
MIV,2017-04-01 13:20,-75.0783,39.3661,M,M,M,340.00,12.00,M,29.80,M,10.00,M,OVC,M,M,M,1400.00,M,M,M,M,KMIV 011320Z AUTO 34012KT 10SM OVC014 A2980 RMK MADISHF
MIV,2017-04-01 13:25,-75.0783,39.3661,M,M,M,330.00,13.00,M,29.80,M,10.00,19.00,OVC,M,M,M,1400.00,M,M,M,M,KMIV 011325Z AUTO 33013G19KT 10SM OVC014 A2980 RMK MADISHF
MIV,2017-04-01 13:30,-75.0783,39.3661,M,M,M,340.00,11.00,M,29.80,M,10.00,M,OVC,M,M,M,1600.00,M,M,M,M,KMIV 011330Z AUTO 34011KT 10SM OVC016 A2980 RMK MADISHF
MIV,2017-04-01 13:32,-75.0783,39.3661,43.00,37.90,82.04,330.00,12.00,0.00,29.80,M,10.00,20.00,OVC,M,M,M,1600.00,M,M,M,M,KMIV 011332Z AUTO 33012G20KT 10SM OVC016 06/03 A2980 RMK AO2 T00610033 $
MIV,2017-04-01 13:35,-75.0783,39.3661,M,M,M,330.00,12.00,M,29.81,M,10.00,M,OVC,M,M,M,1600.00,M,M,M,M,KMIV 011335Z AUTO 33012KT 10SM OVC016 A2981 RMK MADISHF
MIV,2017-04-01 13:40,-75.0783,39.3661,M,M,M,330.00,11.00,M,29.80,M,10.00,M,OVC,M,M,M,1600.00,M,M,M,M,KMIV 011340Z AUTO 33011KT 10SM OVC016 A2980 RMK MADISHF
MIV,2017-04-01 13:45,-75.0783,39.3661,M,M,M,340.00,10.00,M,29.81,M,10.00,15.00,OVC,M,M,M,1800.00,M,M,M,M,KMIV 011345Z AUTO 34010G15KT 10SM OVC018 A2981 RMK MADISHF
MIV,2017-04-01 13:50,-75.0783,39.3661,M,M,M,320.00,12.00,M,29.81,M,10.00,18.00,OVC,M,M,M,1800.00,M,M,M,M,KMIV 011350Z AUTO 32012G18KT 10SM OVC018 A2981 RMK MADISHF
MIV,2017-04-01 13:54,-75.0783,39.3661,43.00,37.90,82.04,320.00,8.00,0.00,29.81,1009.40,10.00,18.00,OVC,M,M,M,1800.00,M,M,M,M,KMIV 011354Z AUTO 32008G18KT 10SM OVC018 06/03 A2981 RMK AO2 SLP094 T00610033 $
MIV,2017-04-01 13:55,-75.0783,39.3661,M,M,M,330.00,9.00,M,29.81,M,10.00,M,OVC,M,M,M,1800.00,M,M,M,M,KMIV 011355Z AUTO 33009KT 10SM OVC018 A2981 RMK MADISHF
MIV,2017-04-01 14:00,-75.0783,39.3661,M,M,M,320.00,13.00,M,29.82,M,10.00,M,OVC,M,M,M,1800.00,M,M,M,M,KMIV 011400Z AUTO 32013KT 10SM OVC018 A2982 RMK MADISHF
MIV,2017-04-01 14:05,-75.0783,39.3661,M,M,M,330.00,9.00,M,29.82,M,10.00,M,BKN,OVC,M,M,1800.00,9000.00,M,M,M,KMIV 011405Z AUTO 33009KT 10SM BKN018 OVC090 A2982 RMK MADISHF
MIV,2017-04-01 14:10,-75.0783,39.3661,M,M,M,320.00,15.00,M,29.82,M,10.00,M,BKN,OVC,M,M,1999.00,9000.00,M,M,M,KMIV 011410Z AUTO 32015KT 10SM BKN019 OVC090 A2982 RMK MADISHF
MIV,2017-04-01 14:15,-75.0783,39.3661,M,M,M,340.00,11.00,M,29.82,M,10.00,M,BKN,BKN,M,M,1999.00,2500.00,M,M,M,KMIV 011415Z AUTO 34011KT 10SM BKN019 BKN025 A2982 RMK MADISHF
MIV,2017-04-01 14:20,-75.0783,39.3661,M,M,M,340.00,13.00,M,29.82,M,10.00,M,SCT,BKN,M,M,1800.00,2300.00,M,M,M,KMIV 011420Z AUTO 34013KT 10SM SCT018 BKN023 A2982 RMK MADISHF
MIV,2017-04-01 14:25,-75.0783,39.3661,M,M,M,320.00,11.00,M,29.82,M,10.00,M,BKN,BKN,M,M,1999.00,2500.00,M,M,M,KMIV 011425Z AUTO 32011KT 10SM BKN019 BKN025 A2982 RMK MADISHF
MIV,2017-04-01 14:30,-75.0783,39.3661,M,M,M,M,M,M,29.83,M,10.00,M,BKN,BKN,M,M,1999.00,2500.00,M,M,M,KMIV 011430Z AUTO /////KT 10SM BKN019 BKN025 A2983 RMK MADISHF
MIV,2017-04-01 14:35,-75.0783,39.3661,M,M,M,310.00,12.00,M,29.83,M,10.00,M,OVC,M,M,M,1999.00,M,M,M,M,KMIV 011435Z AUTO 31012KT 10SM OVC019 A2983 RMK MADISHF
MIV,2017-04-01 14:40,-75.0783,39.3661,M,M,M,310.00,13.00,M,29.83,M,10.00,M,BKN,OVC,M,M,1999.00,2700.00,M,M,M,KMIV 011440Z AUTO 31013KT 10SM BKN019 OVC027 A2983 RMK MADISHF
MIV,2017-04-01 14:45,-75.0783,39.3661,M,M,M,340.00,12.00,M,29.83,M,10.00,M,OVC,M,M,M,2200.00,M,M,M,M,KMIV 011445Z AUTO 34012KT 10SM OVC022 A2983 RMK MADISHF
MIV,2017-04-01 14:50,-75.0783,39.3661,M,M,M,350.00,15.00,M,29.83,M,10.00,M,OVC,M,M,M,2200.00,M,M,M,M,KMIV 011450Z AUTO 35015KT 10SM OVC022 A2983 RMK MADISHF
MIV,2017-04-01 14:54,-75.0783,39.3661,46.00,37.90,73.18,330.00,11.00,0.00,29.83,1010.00,10.00,19.00,OVC,M,M,M,2200.00,M,M,M,M,KMIV 011454Z AUTO 33011G19KT 10SM OVC022 08/03 A2983 RMK AO2 SLP100 T00780033 51022 $
MIV,2017-04-01 14:55,-75.0783,39.3661,M,M,M,330.00,13.00,M,29.83,M,10.00,M,OVC,M,M,M,2200.00,M,M,M,M,KMIV 011455Z AUTO 33013KT 10SM OVC022 A2983 RMK MADISHF
MIV,2017-04-01 15:00,-75.0783,39.3661,M,M,M,330.00,13.00,M,29.83,M,10.00,M,OVC,M,M,M,2200.00,M,M,M,M,KMIV 011500Z AUTO 33013KT 10SM OVC022 A2983 RMK MADISHF
MIV,2017-04-01 15:05,-75.0783,39.3661,M,M,M,320.00,13.00,M,29.84,M,10.00,M,OVC,M,M,M,2200.00,M,M,M,M,KMIV 011505Z AUTO 32013KT 10SM OVC022 A2984 RMK MADISHF
MIV,2017-04-01 15:10,-75.0783,39.3661,M,M,M,320.00,14.00,M,29.84,M,10.00,M,OVC,M,M,M,2200.00,M,M,M,M,KMIV 011510Z AUTO 32014KT 10SM OVC022 A2984 RMK MADISHF
MIV,2017-04-01 15:15,-75.0783,39.3661,M,M,M,330.00,12.00,M,29.84,M,10.00,M,OVC,M,M,M,2200.00,M,M,M,M,KMIV 011515Z AUTO 33012KT 10SM OVC022 A2984 RMK MADISHF
MIV,2017-04-01 15:20,-75.0783,39.3661,M,M,M,330.00,12.00,M,29.84,M,10.00,17.00,OVC,M,M,M,2400.00,M,M,M,M,KMIV 011520Z AUTO 33012G17KT 10SM OVC024 A2984 RMK MADISHF
MIV,2017-04-01 15:25,-75.0783,39.3661,M,M,M,320.00,10.00,M,29.84,M,10.00,M,OVC,M,M,M,2400.00,M,M,M,M,KMIV 011525Z AUTO 32010KT 10SM OVC024 A2984 RMK MADISHF
MIV,2017-04-01 15:30,-75.0783,39.3661,M,M,M,340.00,12.00,M,29.84,M,10.00,M,OVC,M,M,M,2400.00,M,M,M,M,KMIV 011530Z AUTO 34012KT 10SM OVC024 A2984 RMK MADISHF
MIV,2017-04-01 15:35,-75.0783,39.3661,M,M,M,340.00,15.00,M,29.83,M,10.00,M,OVC,M,M,M,2400.00,M,M,M,M,KMIV 011535Z AUTO 34015KT 10SM OVC024 A2983 RMK MADISHF
MIV,2017-04-01 15:40,-75.0783,39.3661,M,M,M,330.00,14.00,M,29.83,M,10.00,M,OVC,M,M,M,2400.00,M,M,M,M,KMIV 011540Z AUTO 33014KT 10SM OVC024 A2983 RMK MADISHF
MIV,2017-04-01 15:45,-75.0783,39.3661,M,M,M,340.00,18.00,M,29.84,M,10.00,M,OVC,M,M,M,2400.00,M,M,M,M,KMIV 011545Z AUTO 34018KT 10SM OVC024 A2984 RMK MADISHF
MIV,2017-04-01 15:50,-75.0783,39.3661,M,M,M,330.00,14.00,M,29.84,M,10.00,M,OVC,M,M,M,2400.00,M,M,M,M,KMIV 011550Z AUTO 33014KT 10SM OVC024 A2984 RMK MADISHF
MIV,2017-04-01 15:54,-75.0783,39.3661,46.90,37.90,70.73,330.00,16.00,0.00,29.84,1010.30,10.00,24.00,OVC,M,M,M,2400.00,M,M,M,M,KMIV 011554Z AUTO 33016G24KT 10SM OVC024 08/03 A2984 RMK AO2 PK WND 35026/1543 SLP103 T00830033 $
MIV,2017-04-01 15:55,-75.0783,39.3661,M,M,M,330.00,16.00,M,29.84,M,10.00,M,OVC,M,M,M,2400.00,M,M,M,M,KMIV 011555Z AUTO 33016KT 10SM OVC024 A2984 RMK MADISHF
MIV,2017-04-01 16:00,-75.0783,39.3661,M,M,M,320.00,13.00,M,29.84,M,10.00,20.00,OVC,M,M,M,2600.00,M,M,M,M,KMIV 011600Z AUTO 32013G20KT 10SM OVC026 A2984 RMK MADISHF
MIV,2017-04-01 16:05,-75.0783,39.3661,M,M,M,330.00,16.00,M,29.84,M,10.00,M,OVC,M,M,M,2600.00,M,M,M,M,KMIV 011605Z AUTO 33016KT 10SM OVC026 A2984 RMK MADISHF
MIV,2017-04-01 16:10,-75.0783,39.3661,M,M,M,340.00,12.00,M,29.84,M,10.00,17.00,OVC,M,M,M,2800.00,M,M,M,M,KMIV 011610Z AUTO 34012G17KT 10SM OVC028 A2984 RMK MADISHF
MIV,2017-04-01 16:15,-75.0783,39.3661,M,M,M,340.00,15.00,M,29.84,M,10.00,M,BKN,OVC,M,M,2800.00,3300.00,M,M,M,KMIV 011615Z AUTO 34015KT 10SM BKN028 OVC033 A2984 RMK MADISHF
MIV,2017-04-01 16:20,-75.0783,39.3661,M,M,M,M,M,M,29.84,M,10.00,M,OVC,M,M,M,2800.00,M,M,M,M,KMIV 011620Z AUTO /////KT 10SM OVC028 A2984 RMK MADISHF
MIV,2017-04-01 16:25,-75.0783,39.3661,M,M,M,350.00,17.00,M,29.85,M,10.00,M,OVC,M,M,M,3000.00,M,M,M,M,KMIV 011625Z AUTO 35017KT 10SM OVC030 A2985 RMK MADISHF
MIV,2017-04-01 16:30,-75.0783,39.3661,M,M,M,360.00,15.00,M,29.85,M,10.00,M,BKN,OVC,M,M,2700.00,3200.00,M,M,M,KMIV 011630Z AUTO 36015KT 10SM BKN027 OVC032 A2985 RMK MADISHF
MIV,2017-04-01 16:35,-75.0783,39.3661,M,M,M,350.00,12.00,M,29.85,M,10.00,M,BKN,OVC,M,M,2700.00,3200.00,M,M,M,KMIV 011635Z AUTO 35012KT 10SM BKN027 OVC032 A2985 RMK MADISHF
MIV,2017-04-01 16:40,-75.0783,39.3661,M,M,M,340.00,10.00,M,29.85,M,10.00,M,BKN,OVC,M,M,2700.00,3200.00,M,M,M,KMIV 011640Z AUTO 34010KT 10SM BKN027 OVC032 A2985 RMK MADISHF
MIV,2017-04-01 16:45,-75.0783,39.3661,M,M,M,350.00,13.00,M,29.86,M,10.00,18.00,OVC,M,M,M,2700.00,M,M,M,M,KMIV 011645Z AUTO 35013G18KT 10SM OVC027 A2986 RMK MADISHF
MIV,2017-04-01 16:50,-75.0783,39.3661,M,M,M,320.00,12.00,M,29.85,M,10.00,M,OVC,M,M,M,2700.00,M,M,M,M,KMIV 011650Z AUTO 32012KT 10SM OVC027 A2985 RMK MADISHF
MIV,2017-04-01 16:54,-75.0783,39.3661,48.00,37.90,67.87,320.00,12.00,0.00,29.86,1010.90,10.00,19.00,BKN,OVC,M,M,2800.00,3300.00,M,M,M,KMIV 011654Z AUTO 32012G19KT 10SM BKN028 OVC033 09/03 A2986 RMK AO2 PK WND 35031/1619 SLP109 T00890033 $
MIV,2017-04-01 16:55,-75.0783,39.3661,M,M,M,320.00,13.00,M,29.86,M,10.00,M,BKN,OVC,M,M,2800.00,3300.00,M,M,M,KMIV 011655Z AUTO 32013KT 10SM BKN028 OVC033 A2986 RMK MADISHF
MIV,2017-04-01 17:00,-75.0783,39.3661,M,M,M,320.00,14.00,M,29.85,M,10.00,M,BKN,OVC,M,M,2800.00,3300.00,M,M,M,KMIV 011700Z AUTO 32014KT 10SM BKN028 OVC033 A2985 RMK MADISHF
MIV,2017-04-01 17:05,-75.0783,39.3661,M,M,M,330.00,10.00,M,29.86,M,10.00,16.00,OVC,M,M,M,3100.00,M,M,M,M,KMIV 011705Z AUTO 33010G16KT 10SM OVC031 A2986 RMK MADISHF
MIV,2017-04-01 17:10,-75.0783,39.3661,48.90,37.90,65.62,310.00,10.00,0.00,29.86,M,10.00,21.00,OVC,M,M,M,3100.00,M,M,M,M,KMIV 011710Z AUTO 31010G21KT 10SM OVC031 09/03 A2986 RMK AO2 T00940033 $
MIV,2017-04-01 17:15,-75.0783,39.3661,M,M,M,320.00,14.00,M,29.86,M,10.00,M,BKN,OVC,M,M,2900.00,3399.00,M,M,M,KMIV 011715Z AUTO 32014KT 10SM BKN029 OVC033 A2986 RMK MADISHF
MIV,2017-04-01 17:20,-75.0783,39.3661,M,M,M,320.00,13.00,M,29.86,M,10.00,M,BKN,OVC,M,M,2900.00,3399.00,M,M,M,KMIV 011720Z AUTO 32013KT 10SM BKN029 OVC033 A2986 RMK MADISHF
MIV,2017-04-01 17:21,-75.0783,39.3661,48.90,37.90,65.62,330.00,11.00,0.00,29.86,M,10.00,19.00,OVC,M,M,M,2900.00,M,M,M,M,KMIV 011721Z AUTO 33011G19KT 10SM OVC029 09/03 A2986 RMK AO2 T00940033 $
MIV,2017-04-01 17:25,-75.0783,39.3661,M,M,M,340.00,12.00,M,29.86,M,10.00,M,BKN,OVC,M,M,3100.00,3500.00,M,M,M,KMIV 011725Z AUTO 34012KT 10SM BKN031 OVC035 A2986 RMK MADISHF
MIV,2017-04-01 17:28,-75.0783,39.3661,50.00,39.00,65.75,340.00,10.00,0.00,29.86,M,10.00,M,BKN,OVC,M,M,3100.00,3500.00,M,M,M,KMIV 011728Z AUTO 34010KT 10SM BKN031 OVC035 10/04 A2986 RMK AO2 T01000039 $
MIV,2017-04-01 17:30,-75.0783,39.3661,M,M,M,330.00,12.00,M,29.86,M,10.00,M,BKN,OVC,M,M,2900.00,3500.00,M,M,M,KMIV 011730Z AUTO 33012KT 10SM BKN029 OVC035 A2986 RMK MADISHF
MIV,2017-04-01 17:35,-75.0783,39.3661,M,M,M,320.00,8.00,M,29.86,M,10.00,M,OVC,M,M,M,3300.00,M,M,M,M,KMIV 011735Z AUTO 32008KT 10SM OVC033 A2986 RMK MADISHF
MIV,2017-04-01 17:40,-75.0783,39.3661,M,M,M,340.00,12.00,M,29.86,M,10.00,M,OVC,M,M,M,3300.00,M,M,M,M,KMIV 011740Z AUTO 34012KT 10SM OVC033 A2986 RMK MADISHF
MIV,2017-04-01 17:45,-75.0783,39.3661,M,M,M,330.00,11.00,M,29.86,M,10.00,M,OVC,M,M,M,3300.00,M,M,M,M,KMIV 011745Z AUTO 33011KT 10SM OVC033 A2986 RMK MADISHF
MIV,2017-04-01 17:50,-75.0783,39.3661,M,M,M,320.00,8.00,M,29.86,M,10.00,M,OVC,M,M,M,3300.00,M,M,M,M,KMIV 011750Z AUTO 32008KT 10SM OVC033 A2986 RMK MADISHF
MIV,2017-04-01 17:54,-75.0783,39.3661,50.00,37.90,62.98,310.00,12.00,0.00,29.86,1011.00,10.00,M,OVC,M,M,M,3200.00,M,M,M,M,KMIV 011754Z AUTO 31012KT 10SM OVC032 10/03 A2986 RMK AO2 SLP110 T01000033 10100 20050 51010 $
MIV,2017-04-01 17:55,-75.0783,39.3661,M,M,M,310.00,12.00,M,29.86,M,10.00,17.00,OVC,M,M,M,3200.00,M,M,M,M,KMIV 011755Z AUTO 31012G17KT 10SM OVC032 A2986 RMK MADISHF
MIV,2017-04-01 18:00,-75.0783,39.3661,M,M,M,320.00,11.00,M,29.86,M,10.00,M,OVC,M,M,M,3200.00,M,M,M,M,KMIV 011800Z AUTO 32011KT 10SM OVC032 A2986 RMK MADISHF
MIV,2017-04-01 18:05,-75.0783,39.3661,M,M,M,320.00,15.00,M,29.87,M,10.00,M,OVC,M,M,M,3200.00,M,M,M,M,KMIV 011805Z AUTO 32015KT 10SM OVC032 A2987 RMK MADISHF
MIV,2017-04-01 18:10,-75.0783,39.3661,M,M,M,300.00,13.00,M,29.87,M,10.00,M,OVC,M,M,M,3000.00,M,M,M,M,KMIV 011810Z AUTO 30013KT 10SM OVC030 A2987 RMK MADISHF
MIV,2017-04-01 18:15,-75.0783,39.3661,M,M,M,M,M,M,29.87,M,10.00,M,OVC,M,M,M,3200.00,M,M,M,M,KMIV 011815Z AUTO /////KT 10SM OVC032 A2987 RMK MADISHF
MIV,2017-04-01 18:20,-75.0783,39.3661,M,M,M,320.00,12.00,M,29.87,M,10.00,M,OVC,M,M,M,3200.00,M,M,M,M,KMIV 011820Z AUTO 32012KT 10SM OVC032 A2987 RMK MADISHF
MIV,2017-04-01 18:25,-75.0783,39.3661,M,M,M,330.00,12.00,M,29.87,M,10.00,M,OVC,M,M,M,3399.00,M,M,M,M,KMIV 011825Z AUTO 33012KT 10SM OVC033 A2987 RMK WND 30V36  MADISHF
MIV,2017-04-01 18:30,-75.0783,39.3661,M,M,M,320.00,12.00,M,29.87,M,10.00,M,OVC,M,M,M,3399.00,M,M,M,M,KMIV 011830Z AUTO 32012KT 10SM OVC033 A2987 RMK MADISHF
MIV,2017-04-01 18:35,-75.0783,39.3661,M,M,M,340.00,14.00,M,29.86,M,10.00,M,OVC,M,M,M,3500.00,M,M,M,M,KMIV 011835Z AUTO 34014KT 10SM OVC035 A2986 RMK MADISHF
MIV,2017-04-01 18:40,-75.0783,39.3661,M,M,M,320.00,12.00,M,29.86,M,10.00,M,OVC,M,M,M,3700.00,M,M,M,M,KMIV 011840Z AUTO 32012KT 10SM OVC037 A2986 RMK MADISHF
MIV,2017-04-01 18:45,-75.0783,39.3661,M,M,M,320.00,16.00,M,29.86,M,10.00,M,OVC,M,M,M,3700.00,M,M,M,M,KMIV 011845Z AUTO 32016KT 10SM OVC037 A2986 RMK MADISHF
MIV,2017-04-01 18:50,-75.0783,39.3661,M,M,M,340.00,14.00,M,29.86,M,10.00,M,OVC,M,M,M,3700.00,M,M,M,M,KMIV 011850Z AUTO 34014KT 10SM OVC037 A2986 RMK MADISHF
MIV,2017-04-01 18:54,-75.0783,39.3661,53.10,39.90,60.73,310.00,12.00,0.00,29.86,1011.10,10.00,21.00,OVC,M,M,M,3700.00,M,M,M,M,KMIV 011854Z AUTO 31012G21KT 10SM OVC037 12/04 A2986 RMK AO2 SLP111 T01170044 $
MIV,2017-04-01 18:55,-75.0783,39.3661,M,M,M,330.00,15.00,M,29.86,M,10.00,20.00,OVC,M,M,M,3700.00,M,M,M,M,KMIV 011855Z AUTO 33015G20KT 10SM OVC037 A2986 RMK MADISHF
MIV,2017-04-01 19:00,-75.0783,39.3661,M,M,M,320.00,14.00,M,29.86,M,10.00,M,OVC,M,M,M,3700.00,M,M,M,M,KMIV 011900Z AUTO 32014KT 10SM OVC037 A2986 RMK WND 30V36  MADISHF
MIV,2017-04-01 19:05,-75.0783,39.3661,M,M,M,320.00,14.00,M,29.87,M,10.00,M,OVC,M,M,M,3700.00,M,M,M,M,KMIV 011905Z AUTO 32014KT 10SM OVC037 A2987 RMK WND 29V35  MADISHF
MIV,2017-04-01 19:10,-75.0783,39.3661,M,M,M,330.00,11.00,M,29.87,M,10.00,M,OVC,M,M,M,3800.00,M,M,M,M,KMIV 011910Z AUTO 33011KT 10SM OVC038 A2987 RMK MADISHF
MIV,2017-04-01 19:15,-75.0783,39.3661,M,M,M,330.00,11.00,M,29.86,M,10.00,M,OVC,M,M,M,3800.00,M,M,M,M,KMIV 011915Z AUTO 33011KT 10SM OVC038 A2986 RMK MADISHF
MIV,2017-04-01 19:20,-75.0783,39.3661,M,M,M,350.00,14.00,M,29.86,M,10.00,M,OVC,M,M,M,3800.00,M,M,M,M,KMIV 011920Z AUTO 35014KT 10SM OVC038 A2986 RMK MADISHF
MIV,2017-04-01 19:25,-75.0783,39.3661,M,M,M,310.00,10.00,M,29.86,M,10.00,15.00,OVC,M,M,M,3800.00,M,M,M,M,KMIV 011925Z AUTO 31010G15KT 10SM OVC038 A2986 RMK MADISHF
MIV,2017-04-01 19:30,-75.0783,39.3661,M,M,M,310.00,8.00,M,29.86,M,10.00,M,OVC,M,M,M,3800.00,M,M,M,M,KMIV 011930Z AUTO 31008KT 10SM OVC038 A2986 RMK MADISHF
MIV,2017-04-01 19:35,-75.0783,39.3661,M,M,M,320.00,13.00,M,29.87,M,10.00,19.00,OVC,M,M,M,3800.00,M,M,M,M,KMIV 011935Z AUTO 32013G19KT 10SM OVC038 A2987 RMK MADISHF
MIV,2017-04-01 19:40,-75.0783,39.3661,M,M,M,330.00,15.00,M,29.87,M,10.00,M,OVC,M,M,M,3700.00,M,M,M,M,KMIV 011940Z AUTO 33015KT 10SM OVC037 A2987 RMK MADISHF
MIV,2017-04-01 19:45,-75.0783,39.3661,M,M,M,340.00,16.00,M,29.87,M,10.00,M,OVC,M,M,M,3700.00,M,M,M,M,KMIV 011945Z AUTO 34016KT 10SM OVC037 A2987 RMK MADISHF
MIV,2017-04-01 19:50,-75.0783,39.3661,M,M,M,330.00,15.00,M,29.88,M,10.00,M,OVC,M,M,M,3800.00,M,M,M,M,KMIV 011950Z AUTO 33015KT 10SM OVC038 A2988 RMK MADISHF
MIV,2017-04-01 19:54,-75.0783,39.3661,53.10,39.00,58.64,330.00,13.00,0.00,29.88,1011.70,10.00,26.00,OVC,M,M,M,3800.00,M,M,M,M,KMIV 011954Z AUTO 33013G26KT 10SM OVC038 12/04 A2988 RMK AO2 PK WND 31026/1948 SLP117 T01170039 $
MIV,2017-04-01 19:55,-75.0783,39.3661,M,M,M,330.00,14.00,M,29.88,M,10.00,20.00,OVC,M,M,M,3800.00,M,M,M,M,KMIV 011955Z AUTO 33014G20KT 10SM OVC038 A2988 RMK MADISHF
MIV,2017-04-01 20:00,-75.0783,39.3661,M,M,M,320.00,11.00,M,29.88,M,10.00,20.00,OVC,M,M,M,3800.00,M,M,M,M,KMIV 012000Z AUTO 32011G20KT 10SM OVC038 A2988 RMK MADISHF
MIV,2017-04-01 20:05,-75.0783,39.3661,M,M,M,320.00,11.00,M,29.88,M,10.00,M,OVC,M,M,M,3800.00,M,M,M,M,KMIV 012005Z AUTO 32011KT 10SM OVC038 A2988 RMK MADISHF
MIV,2017-04-01 20:10,-75.0783,39.3661,M,M,M,320.00,14.00,M,29.88,M,10.00,M,OVC,M,M,M,3800.00,M,M,M,M,KMIV 012010Z AUTO 32014KT 10SM OVC038 A2988 RMK MADISHF
MIV,2017-04-01 20:15,-75.0783,39.3661,M,M,M,320.00,11.00,M,29.89,M,10.00,M,OVC,M,M,M,3800.00,M,M,M,M,KMIV 012015Z AUTO 32011KT 10SM OVC038 A2989 RMK WND 30V36  MADISHF
MIV,2017-04-01 20:20,-75.0783,39.3661,M,M,M,330.00,11.00,M,29.89,M,10.00,M,OVC,M,M,M,3999.00,M,M,M,M,KMIV 012020Z AUTO 33011KT 10SM OVC039 A2989 RMK MADISHF
MIV,2017-04-01 20:25,-75.0783,39.3661,M,M,M,330.00,14.00,M,29.89,M,10.00,M,OVC,M,M,M,3999.00,M,M,M,M,KMIV 012025Z AUTO 33014KT 10SM OVC039 A2989 RMK MADISHF
MIV,2017-04-01 20:30,-75.0783,39.3661,M,M,M,320.00,11.00,M,29.89,M,10.00,M,OVC,M,M,M,3999.00,M,M,M,M,KMIV 012030Z AUTO 32011KT 10SM OVC039 A2989 RMK MADISHF
MIV,2017-04-01 20:35,-75.0783,39.3661,M,M,M,320.00,12.00,M,29.89,M,10.00,M,OVC,M,M,M,4200.00,M,M,M,M,KMIV 012035Z AUTO 32012KT 10SM OVC042 A2989 RMK MADISHF
MIV,2017-04-01 20:40,-75.0783,39.3661,M,M,M,340.00,15.00,M,29.89,M,10.00,20.00,OVC,M,M,M,4200.00,M,M,M,M,KMIV 012040Z AUTO 34015G20KT 10SM OVC042 A2989 RMK MADISHF
MIV,2017-04-01 20:45,-75.0783,39.3661,M,M,M,330.00,13.00,M,29.90,M,10.00,M,OVC,M,M,M,4200.00,M,M,M,M,KMIV 012045Z AUTO 33013KT 10SM OVC042 A2990 RMK MADISHF
MIV,2017-04-01 20:50,-75.0783,39.3661,M,M,M,330.00,13.00,M,29.90,M,10.00,M,OVC,M,M,M,4200.00,M,M,M,M,KMIV 012050Z AUTO 33013KT 10SM OVC042 A2990 RMK MADISHF
MIV,2017-04-01 20:54,-75.0783,39.3661,53.10,39.00,58.64,340.00,15.00,0.00,29.90,1012.40,10.00,22.00,OVC,M,M,M,4100.00,M,M,M,M,KMIV 012054Z AUTO 34015G22KT 10SM OVC041 12/04 A2990 RMK AO2 SLP124 T01170039 53014 $
MIV,2017-04-01 20:55,-75.0783,39.3661,M,M,M,330.00,15.00,M,29.90,M,10.00,M,OVC,M,M,M,4100.00,M,M,M,M,KMIV 012055Z AUTO 33015KT 10SM OVC041 A2990 RMK MADISHF
MIV,2017-04-01 21:00,-75.0783,39.3661,M,M,M,340.00,17.00,M,29.90,M,10.00,22.00,OVC,M,M,M,4100.00,M,M,M,M,KMIV 012100Z AUTO 34017G22KT 10SM OVC041 A2990 RMK MADISHF
MIV,2017-04-01 21:05,-75.0783,39.3661,M,M,M,310.00,12.00,M,29.90,M,10.00,M,OVC,M,M,M,4100.00,M,M,M,M,KMIV 012105Z AUTO 31012KT 10SM OVC041 A2990 RMK MADISHF
MIV,2017-04-01 21:10,-75.0783,39.3661,M,M,M,330.00,12.00,M,29.91,M,10.00,M,OVC,M,M,M,4100.00,M,M,M,M,KMIV 012110Z AUTO 33012KT 10SM OVC041 A2991 RMK MADISHF
MIV,2017-04-01 21:15,-75.0783,39.3661,M,M,M,310.00,15.00,M,29.91,M,10.00,M,OVC,M,M,M,4100.00,M,M,M,M,KMIV 012115Z AUTO 31015KT 10SM OVC041 A2991 RMK MADISHF
MIV,2017-04-01 21:20,-75.0783,39.3661,M,M,M,320.00,11.00,M,29.90,M,10.00,M,OVC,M,M,M,4100.00,M,M,M,M,KMIV 012120Z AUTO 32011KT 10SM OVC041 A2990 RMK MADISHF
MIV,2017-04-01 21:25,-75.0783,39.3661,M,M,M,330.00,12.00,M,29.91,M,10.00,M,OVC,M,M,M,4100.00,M,M,M,M,KMIV 012125Z AUTO 33012KT 10SM OVC041 A2991 RMK MADISHF
MIV,2017-04-01 21:30,-75.0783,39.3661,M,M,M,330.00,14.00,M,29.91,M,10.00,19.00,OVC,M,M,M,4100.00,M,M,M,M,KMIV 012130Z AUTO 33014G19KT 10SM OVC041 A2991 RMK MADISHF
MIV,2017-04-01 21:35,-75.0783,39.3661,M,M,M,310.00,12.00,M,29.91,M,10.00,18.00,BKN,M,M,M,4100.00,M,M,M,M,KMIV 012135Z AUTO 31012G18KT 10SM BKN041 A2991 RMK MADISHF
MIV,2017-04-01 21:40,-75.0783,39.3661,M,M,M,320.00,17.00,M,29.92,M,10.00,M,BKN,M,M,M,4200.00,M,M,M,M,KMIV 012140Z AUTO 32017KT 10SM BKN042 A2992 RMK MADISHF
MIV,2017-04-01 21:45,-75.0783,39.3661,M,M,M,330.00,13.00,M,29.92,M,10.00,20.00,OVC,M,M,M,4200.00,M,M,M,M,KMIV 012145Z AUTO 33013G20KT 10SM OVC042 A2992 RMK MADISHF
MIV,2017-04-01 21:50,-75.0783,39.3661,M,M,M,330.00,12.00,M,29.92,M,10.00,18.00,BKN,M,M,M,4200.00,M,M,M,M,KMIV 012150Z AUTO 33012G18KT 10SM BKN042 A2992 RMK MADISHF
MIV,2017-04-01 21:54,-75.0783,39.3661,53.10,37.90,56.17,320.00,16.00,0.00,29.92,1013.10,10.00,24.00,BKN,M,M,M,4200.00,M,M,M,M,KMIV 012154Z AUTO 32016G24KT 10SM BKN042 12/03 A2992 RMK AO2 SLP131 T01170033 $
MIV,2017-04-01 21:55,-75.0783,39.3661,M,M,M,310.00,14.00,M,29.92,M,10.00,M,BKN,M,M,M,4200.00,M,M,M,M,KMIV 012155Z AUTO 31014KT 10SM BKN042 A2992 RMK MADISHF
MIV,2017-04-01 22:00,-75.0783,39.3661,M,M,M,320.00,12.00,M,29.93,M,10.00,18.00,BKN,M,M,M,4200.00,M,M,M,M,KMIV 012200Z AUTO 32012G18KT 10SM BKN042 A2993 RMK MADISHF
MIV,2017-04-01 22:05,-75.0783,39.3661,M,M,M,320.00,14.00,M,29.93,M,10.00,M,BKN,M,M,M,4200.00,M,M,M,M,KMIV 012205Z AUTO 32014KT 10SM BKN042 A2993 RMK MADISHF
MIV,2017-04-01 22:10,-75.0783,39.3661,M,M,M,320.00,11.00,M,29.94,M,10.00,M,OVC,M,M,M,3999.00,M,M,M,M,KMIV 012210Z AUTO 32011KT 10SM OVC039 A2994 RMK MADISHF
MIV,2017-04-01 22:15,-75.0783,39.3661,M,M,M,330.00,12.00,M,29.94,M,10.00,M,BKN,M,M,M,3999.00,M,M,M,M,KMIV 012215Z AUTO 33012KT 10SM BKN039 A2994 RMK MADISHF
MIV,2017-04-01 22:20,-75.0783,39.3661,M,M,M,340.00,13.00,M,29.95,M,10.00,M,OVC,M,M,M,3999.00,M,M,M,M,KMIV 012220Z AUTO 34013KT 10SM OVC039 A2995 RMK MADISHF
MIV,2017-04-01 22:25,-75.0783,39.3661,M,M,M,340.00,11.00,M,29.95,M,10.00,M,OVC,M,M,M,4200.00,M,M,M,M,KMIV 012225Z AUTO 34011KT 10SM OVC042 A2995 RMK MADISHF
MIV,2017-04-01 22:30,-75.0783,39.3661,M,M,M,340.00,9.00,M,29.95,M,10.00,M,OVC,M,M,M,4200.00,M,M,M,M,KMIV 012230Z AUTO 34009KT 10SM OVC042 A2995 RMK MADISHF
MIV,2017-04-01 22:35,-75.0783,39.3661,M,M,M,320.00,12.00,M,29.95,M,10.00,M,OVC,M,M,M,4200.00,M,M,M,M,KMIV 012235Z AUTO 32012KT 10SM OVC042 A2995 RMK MADISHF
MIV,2017-04-01 22:40,-75.0783,39.3661,M,M,M,330.00,9.00,M,29.95,M,10.00,M,OVC,M,M,M,4200.00,M,M,M,M,KMIV 012240Z AUTO 33009KT 10SM OVC042 A2995 RMK MADISHF
MIV,2017-04-01 22:45,-75.0783,39.3661,M,M,M,340.00,9.00,M,29.96,M,10.00,M,OVC,M,M,M,4300.00,M,M,M,M,KMIV 012245Z AUTO 34009KT 10SM OVC043 A2996 RMK MADISHF
MIV,2017-04-01 22:50,-75.0783,39.3661,M,M,M,320.00,8.00,M,29.96,M,10.00,M,OVC,M,M,M,4300.00,M,M,M,M,KMIV 012250Z AUTO 32008KT 10SM OVC043 A2996 RMK MADISHF
MIV,2017-04-01 22:54,-75.0783,39.3661,51.10,39.00,63.12,340.00,10.00,0.00,29.96,1014.30,10.00,M,OVC,M,M,M,4300.00,M,M,M,M,KMIV 012254Z AUTO 34010KT 10SM OVC043 11/04 A2996 RMK AO2 SLP143 T01060039 $
MIV,2017-04-01 22:55,-75.0783,39.3661,M,M,M,330.00,9.00,M,29.96,M,10.00,M,OVC,M,M,M,4300.00,M,M,M,M,KMIV 012255Z AUTO 33009KT 10SM OVC043 A2996 RMK MADISHF
MIV,2017-04-01 23:00,-75.0783,39.3661,M,M,M,320.00,9.00,M,29.96,M,10.00,M,OVC,M,M,M,4300.00,M,M,M,M,KMIV 012300Z AUTO 32009KT 10SM OVC043 A2996 RMK MADISHF
MIV,2017-04-01 23:05,-75.0783,39.3661,M,M,M,320.00,9.00,M,29.96,M,10.00,M,OVC,M,M,M,4400.00,M,M,M,M,KMIV 012305Z AUTO 32009KT 10SM OVC044 A2996 RMK MADISHF
MIV,2017-04-01 23:10,-75.0783,39.3661,M,M,M,330.00,8.00,M,29.97,M,10.00,M,OVC,M,M,M,4400.00,M,M,M,M,KMIV 012310Z AUTO 33008KT 10SM OVC044 A2997 RMK MADISHF
MIV,2017-04-01 23:15,-75.0783,39.3661,M,M,M,340.00,8.00,M,29.97,M,10.00,M,OVC,M,M,M,4400.00,M,M,M,M,KMIV 012315Z AUTO 34008KT 10SM OVC044 A2997 RMK MADISHF
MIV,2017-04-01 23:20,-75.0783,39.3661,M,M,M,340.00,10.00,M,29.98,M,10.00,M,OVC,M,M,M,4400.00,M,M,M,M,KMIV 012320Z AUTO 34010KT 10SM OVC044 A2998 RMK MADISHF
MIV,2017-04-01 23:25,-75.0783,39.3661,M,M,M,330.00,11.00,M,29.98,M,10.00,M,OVC,M,M,M,4400.00,M,M,M,M,KMIV 012325Z AUTO 33011KT 10SM OVC044 A2998 RMK MADISHF
MIV,2017-04-01 23:30,-75.0783,39.3661,M,M,M,340.00,11.00,M,29.98,M,10.00,M,OVC,M,M,M,4400.00,M,M,M,M,KMIV 012330Z AUTO 34011KT 10SM OVC044 A2998 RMK MADISHF
MIV,2017-04-01 23:35,-75.0783,39.3661,M,M,M,340.00,14.00,M,29.99,M,10.00,M,OVC,M,M,M,4400.00,M,M,M,M,KMIV 012335Z AUTO 34014KT 10SM OVC044 A2999 RMK MADISHF
MIV,2017-04-01 23:40,-75.0783,39.3661,M,M,M,330.00,11.00,M,29.99,M,10.00,M,OVC,M,M,M,4400.00,M,M,M,M,KMIV 012340Z AUTO 33011KT 10SM OVC044 A2999 RMK MADISHF
MIV,2017-04-01 23:45,-75.0783,39.3661,M,M,M,330.00,7.00,M,29.99,M,10.00,M,OVC,M,M,M,4400.00,M,M,M,M,KMIV 012345Z AUTO 33007KT 10SM OVC044 A2999 RMK MADISHF
MIV,2017-04-01 23:50,-75.0783,39.3661,M,M,M,340.00,9.00,M,30.00,M,10.00,M,OVC,M,M,M,4300.00,M,M,M,M,KMIV 012350Z AUTO 34009KT 10SM OVC043 A3000 RMK MADISHF
MIV,2017-04-01 23:54,-75.0783,39.3661,50.00,37.90,62.98,340.00,7.00,0.00,30.00,1015.60,10.00,M,OVC,M,M,M,4300.00,M,M,M,M,KMIV 012354Z AUTO 34007KT 10SM OVC043 10/03 A3000 RMK AO2 SLP156 T01000033 10122 20100 53033 $
MIV,2017-04-01 23:55,-75.0783,39.3661,M,M,M,340.00,8.00,M,30.00,M,10.00,M,OVC,M,M,M,4100.00,M,M,M,M,KMIV 012355Z AUTO 34008KT 10SM OVC041 A3000 RMK MADISHF
