#DEBUG: Format Typ    -> comma
#DEBUG: Time Period   -> 2017-04-01 00:00:00+00:00 2017-04-02 00:00:00+00:00
#DEBUG: Time Zone     -> Etc/UTC
#DEBUG: Data Contact   -> daryl herzmann akrherz@iastate.edu 515-294-5978
#DEBUG: Entries Found -> -1
station,valid,lon,lat,tmpf, dwpf, relh, drct, sknt, p01i, alti, mslp, vsby, gust, skyc1, skyc2, skyc3, skyc4, skyl1, skyl2, skyl3, skyl4, presentwx, metar
MIW,2017-04-01 00:00,-92.9163,42.1106,M,M,M,30.00,10.00,M,30.04,M,10.00,M,OVC,M,M,M,1900.00,M,M,M,M,KMIW 010000Z AUTO 03010KT 10SM OVC019 A3004 RMK MADISHF
MIW,2017-04-01 00:05,-92.9163,42.1106,M,M,M,30.00,9.00,M,30.04,M,10.00,M,OVC,M,M,M,1900.00,M,M,M,M,KMIW 010005Z AUTO 03009KT 10SM OVC019 A3004 RMK MADISHF
MIW,2017-04-01 00:10,-92.9163,42.1106,M,M,M,30.00,8.00,M,30.04,M,10.00,M,OVC,M,M,M,1900.00,M,M,M,M,KMIW 010010Z AUTO 03008KT 10SM OVC019 A3004 RMK MADISHF
MIW,2017-04-01 00:15,-92.9163,42.1106,M,M,M,30.00,10.00,M,30.04,M,10.00,M,OVC,M,M,M,1900.00,M,M,M,M,KMIW 010015Z AUTO 03010KT 10SM OVC019 A3004 RMK MADISHF
MIW,2017-04-01 00:20,-92.9163,42.1106,M,M,M,40.00,7.00,M,30.03,M,10.00,M,OVC,M,M,M,1999.00,M,M,M,M,KMIW 010020Z AUTO 04007KT 10SM OVC019 A3003 RMK MADISHF
MIW,2017-04-01 00:25,-92.9163,42.1106,M,M,M,40.00,9.00,M,30.03,M,10.00,M,OVC,M,M,M,1999.00,M,M,M,M,KMIW 010025Z AUTO 04009KT 10SM OVC019 A3003 RMK MADISHF
MIW,2017-04-01 00:30,-92.9163,42.1106,M,M,M,40.00,7.00,M,30.03,M,10.00,M,OVC,M,M,M,1999.00,M,M,M,M,KMIW 010030Z AUTO 04007KT 10SM OVC019 A3003 RMK MADISHF
MIW,2017-04-01 00:35,-92.9163,42.1106,M,M,M,40.00,10.00,M,30.04,M,10.00,M,OVC,M,M,M,1999.00,M,M,M,M,KMIW 010035Z AUTO 04010KT 10SM OVC019 A3004 RMK MADISHF
MIW,2017-04-01 00:40,-92.9163,42.1106,M,M,M,40.00,9.00,M,30.04,M,10.00,M,OVC,M,M,M,1999.00,M,M,M,M,KMIW 010040Z AUTO 04009KT 10SM OVC019 A3004 RMK MADISHF
MIW,2017-04-01 00:45,-92.9163,42.1106,M,M,M,50.00,7.00,M,30.04,M,10.00,M,OVC,M,M,M,1999.00,M,M,M,M,KMIW 010045Z AUTO 05007KT 10SM OVC019 A3004 RMK MADISHF
MIW,2017-04-01 00:50,-92.9163,42.1106,M,M,M,50.00,6.00,M,30.04,M,10.00,M,OVC,M,M,M,1999.00,M,M,M,M,KMIW 010050Z AUTO 05006KT 10SM OVC019 A3004 RMK MADISHF
MIW,2017-04-01 00:53,-92.9163,42.1106,42.10,37.00,81.98,50.00,5.00,0.00,30.05,1018.20,10.00,M,OVC,M,M,M,2000.00,M,M,M,M,KMIW 010053Z AUTO 05005KT 10SM OVC020 06/03 A3005 RMK AO2 SLP182 T00560028
MIW,2017-04-01 00:55,-92.9163,42.1106,M,M,M,60.00,5.00,M,30.05,M,10.00,M,OVC,M,M,M,1999.00,M,M,M,M,KMIW 010055Z AUTO 06005KT 10SM OVC019 A3005 RMK MADISHF
MIW,2017-04-01 01:00,-92.9163,42.1106,M,M,M,50.00,4.00,M,30.05,M,10.00,M,OVC,M,M,M,1999.00,M,M,M,M,KMIW 010100Z AUTO 05004KT 10SM OVC019 A3005 RMK MADISHF
MIW,2017-04-01 01:05,-92.9163,42.1106,M,M,M,60.00,6.00,M,30.06,M,10.00,M,OVC,M,M,M,1999.00,M,M,M,M,KMIW 010105Z AUTO 06006KT 10SM OVC019 A3006 RMK MADISHF
MIW,2017-04-01 01:10,-92.9163,42.1106,M,M,M,70.00,9.00,M,30.06,M,10.00,M,OVC,M,M,M,1999.00,M,M,M,M,KMIW 010110Z AUTO 07009KT 10SM OVC019 A3006 RMK MADISHF
MIW,2017-04-01 01:15,-92.9163,42.1106,M,M,M,50.00,6.00,M,30.06,M,10.00,M,OVC,M,M,M,1999.00,M,M,M,M,KMIW 010115Z AUTO 05006KT 10SM OVC019 A3006 RMK MADISHF
MIW,2017-04-01 01:20,-92.9163,42.1106,M,M,M,40.00,3.00,M,30.07,M,10.00,M,OVC,M,M,M,1999.00,M,M,M,M,KMIW 010120Z AUTO 04003KT 10SM OVC019 A3007 RMK MADISHF
MIW,2017-04-01 01:25,-92.9163,42.1106,M,M,M,50.00,4.00,M,30.07,M,10.00,M,OVC,M,M,M,1999.00,M,M,M,M,KMIW 010125Z AUTO 05004KT 10SM OVC019 A3007 RMK MADISHF
MIW,2017-04-01 01:30,-92.9163,42.1106,M,M,M,70.00,4.00,M,30.07,M,10.00,M,OVC,M,M,M,2200.00,M,M,M,M,KMIW 010130Z AUTO 07004KT 10SM OVC022 A3007 RMK MADISHF
MIW,2017-04-01 01:35,-92.9163,42.1106,M,M,M,90.00,3.00,M,30.08,M,10.00,M,OVC,M,M,M,2200.00,M,M,M,M,KMIW 010135Z AUTO 09003KT 10SM OVC022 A3008 RMK MADISHF
MIW,2017-04-01 01:40,-92.9163,42.1106,M,M,M,120.00,4.00,M,30.08,M,10.00,M,OVC,M,M,M,2200.00,M,M,M,M,KMIW 010140Z AUTO 12004KT 10SM OVC022 A3008 RMK MADISHF
MIW,2017-04-01 01:45,-92.9163,42.1106,M,M,M,140.00,4.00,M,30.09,M,10.00,M,OVC,M,M,M,2400.00,M,M,M,M,KMIW 010145Z AUTO 14004KT 10SM OVC024 A3009 RMK MADISHF
MIW,2017-04-01 01:50,-92.9163,42.1106,M,M,M,140.00,4.00,M,30.10,M,10.00,M,OVC,M,M,M,2400.00,M,M,M,M,KMIW 010150Z AUTO 14004KT 10SM OVC024 A3010 RMK MADISHF
MIW,2017-04-01 01:53,-92.9163,42.1106,42.10,36.00,78.80,150.00,3.00,0.00,30.10,1019.90,10.00,M,OVC,M,M,M,2400.00,M,M,M,M,KMIW 010153Z AUTO 15003KT 10SM OVC024 06/02 A3010 RMK AO2 SLP199 T00560022
MIW,2017-04-01 01:55,-92.9163,42.1106,M,M,M,150.00,3.00,M,30.10,M,10.00,M,OVC,M,M,M,2400.00,M,M,M,M,KMIW 010155Z AUTO 15003KT 10SM OVC024 A3010 RMK MADISHF
MIW,2017-04-01 02:00,-92.9163,42.1106,M,M,M,130.00,3.00,M,30.10,M,10.00,M,OVC,M,M,M,2400.00,M,M,M,M,KMIW 010200Z AUTO 13003KT 10SM OVC024 A3010 RMK MADISHF
MIW,2017-04-01 02:05,-92.9163,42.1106,M,M,M,150.00,3.00,M,30.10,M,10.00,M,OVC,M,M,M,2400.00,M,M,M,M,KMIW 010205Z AUTO 15003KT 10SM OVC024 A3010 RMK MADISHF
MIW,2017-04-01 02:10,-92.9163,42.1106,M,M,M,0.00,0.00,M,30.10,M,10.00,M,OVC,M,M,M,2400.00,M,M,M,M,KMIW 010210Z AUTO 00000KT 10SM OVC024 A3010 RMK MADISHF
MIW,2017-04-01 02:15,-92.9163,42.1106,M,M,M,0.00,0.00,M,30.10,M,10.00,M,OVC,M,M,M,2500.00,M,M,M,M,KMIW 010215Z AUTO 00000KT 10SM OVC025 A3010 RMK MADISHF
MIW,2017-04-01 02:20,-92.9163,42.1106,M,M,M,0.00,0.00,M,30.10,M,10.00,M,OVC,M,M,M,2500.00,M,M,M,M,KMIW 010220Z AUTO 00000KT 10SM OVC025 A3010 RMK MADISHF
MIW,2017-04-01 02:25,-92.9163,42.1106,M,M,M,0.00,0.00,M,30.10,M,10.00,M,OVC,M,M,M,2600.00,M,M,M,M,KMIW 010225Z AUTO 00000KT 10SM OVC026 A3010 RMK MADISHF
MIW,2017-04-01 02:30,-92.9163,42.1106,M,M,M,0.00,0.00,M,30.10,M,10.00,M,OVC,M,M,M,2600.00,M,M,M,M,KMIW 010230Z AUTO 00000KT 10SM OVC026 A3010 RMK MADISHF
MIW,2017-04-01 02:35,-92.9163,42.1106,M,M,M,0.00,0.00,M,30.09,M,10.00,M,OVC,M,M,M,2800.00,M,M,M,M,KMIW 010235Z AUTO 00000KT 10SM OVC028 A3009 RMK MADISHF
MIW,2017-04-01 02:40,-92.9163,42.1106,M,M,M,0.00,0.00,M,30.09,M,10.00,M,BKN,M,M,M,2800.00,M,M,M,M,KMIW 010240Z AUTO 00000KT 10SM BKN028 A3009 RMK MADISHF
MIW,2017-04-01 02:45,-92.9163,42.1106,M,M,M,0.00,0.00,M,30.09,M,10.00,M,SCT,M,M,M,2800.00,M,M,M,M,KMIW 010245Z AUTO 00000KT 10SM SCT028 A3009 RMK MADISHF
MIW,2017-04-01 02:50,-92.9163,42.1106,M,M,M,0.00,0.00,M,30.10,M,10.00,M,SCT,M,M,M,2800.00,M,M,M,M,KMIW 010250Z AUTO 00000KT 10SM SCT028 A3010 RMK MADISHF
MIW,2017-04-01 02:51,-92.9163,42.1106,39.20,35.60,86.79,0.00,0.00,0.00,30.10,M,10.00,M,SCT,M,M,M,2800.00,M,M,M,M,KMIW 010251Z AUTO 00000KT 10SM SCT028 04/02 A3010 RMK AO2
MIW,2017-04-01 02:53,-92.9163,42.1106,39.00,36.00,88.87,270.00,3.00,0.00,30.10,1020.00,10.00,M,FEW,M,M,M,2800.00,M,M,M,M,KMIW 010253Z AUTO 27003KT 10SM FEW028 04/02 A3010 RMK AO2 SLP200 T00390022 51018
MIW,2017-04-01 02:55,-92.9163,42.1106,M,M,M,270.00,3.00,M,30.10,M,10.00,M,FEW,M,M,M,2800.00,M,M,M,M,KMIW 010255Z AUTO 27003KT 10SM FEW028 A3010 RMK MADISHF
MIW,2017-04-01 03:00,-92.9163,42.1106,M,M,M,300.00,3.00,M,30.10,M,10.00,M,FEW,M,M,M,2800.00,M,M,M,M,KMIW 010300Z AUTO 30003KT 10SM FEW028 A3010 RMK MADISHF
MIW,2017-04-01 03:05,-92.9163,42.1106,M,M,M,290.00,3.00,M,30.10,M,10.00,M,CLR,M,M,M,M,M,M,M,M,KMIW 010305Z AUTO 29003KT 10SM CLR A3010 RMK MADISHF
MIW,2017-04-01 03:10,-92.9163,42.1106,M,M,M,280.00,3.00,M,30.11,M,10.00,M,CLR,M,M,M,M,M,M,M,M,KMIW 010310Z AUTO 28003KT 10SM CLR A3011 RMK MADISHF
MIW,2017-04-01 03:15,-92.9163,42.1106,M,M,M,290.00,3.00,M,30.11,M,10.00,M,CLR,M,M,M,M,M,M,M,M,KMIW 010315Z AUTO 29003KT 10SM CLR A3011 RMK MADISHF
MIW,2017-04-01 03:20,-92.9163,42.1106,M,M,M,300.00,3.00,M,30.11,M,10.00,M,CLR,M,M,M,M,M,M,M,M,KMIW 010320Z AUTO 30003KT 10SM CLR A3011 RMK MADISHF
MIW,2017-04-01 03:25,-92.9163,42.1106,M,M,M,320.00,3.00,M,30.11,M,10.00,M,CLR,M,M,M,M,M,M,M,M,KMIW 010325Z AUTO 32003KT 10SM CLR A3011 RMK MADISHF
MIW,2017-04-01 03:30,-92.9163,42.1106,M,M,M,300.00,3.00,M,30.11,M,10.00,M,CLR,M,M,M,M,M,M,M,M,KMIW 010330Z AUTO 30003KT 10SM CLR A3011 RMK MADISHF
MIW,2017-04-01 03:35,-92.9163,42.1106,M,M,M,320.00,4.00,M,30.11,M,10.00,M,CLR,M,M,M,M,M,M,M,M,KMIW 010335Z AUTO 32004KT 10SM CLR A3011 RMK MADISHF
MIW,2017-04-01 03:40,-92.9163,42.1106,M,M,M,320.00,4.00,M,30.11,M,10.00,M,CLR,M,M,M,M,M,M,M,M,KMIW 010340Z AUTO 32004KT 10SM CLR A3011 RMK MADISHF
MIW,2017-04-01 03:45,-92.9163,42.1106,M,M,M,320.00,4.00,M,30.11,M,10.00,M,CLR,M,M,M,M,M,M,M,M,KMIW 010345Z AUTO 32004KT 10SM CLR A3011 RMK MADISHF
MIW,2017-04-01 03:50,-92.9163,42.1106,M,M,M,310.00,4.00,M,30.11,M,10.00,M,CLR,M,M,M,M,M,M,M,M,KMIW 010350Z AUTO 31004KT 10SM CLR A3011 RMK MADISHF
MIW,2017-04-01 03:53,-92.9163,42.1106,37.00,35.10,92.76,310.00,4.00,0.00,30.11,1020.50,10.00,M,CLR,M,M,M,M,M,M,M,M,KMIW 010353Z AUTO 31004KT 10SM CLR 03/02 A3011 RMK AO2 SLP205 T00280017
MIW,2017-04-01 03:55,-92.9163,42.1106,M,M,M,300.00,4.00,M,30.11,M,10.00,M,CLR,M,M,M,M,M,M,M,M,KMIW 010355Z AUTO 30004KT 10SM CLR A3011 RMK MADISHF
MIW,2017-04-01 04:00,-92.9163,42.1106,M,M,M,290.00,4.00,M,30.11,M,10.00,M,CLR,M,M,M,M,M,M,M,M,KMIW 010400Z AUTO 29004KT 10SM CLR A3011 RMK MADISHF
MIW,2017-04-01 04:05,-92.9163,42.1106,M,M,M,280.00,4.00,M,30.12,M,10.00,M,CLR,M,M,M,M,M,M,M,M,KMIW 010405Z AUTO 28004KT 10SM CLR A3012 RMK MADISHF
MIW,2017-04-01 04:10,-92.9163,42.1106,M,M,M,300.00,3.00,M,30.12,M,10.00,M,CLR,M,M,M,M,M,M,M,M,KMIW 010410Z AUTO 30003KT 10SM CLR A3012 RMK MADISHF
MIW,2017-04-01 04:15,-92.9163,42.1106,M,M,M,310.00,4.00,M,30.12,M,10.00,M,CLR,M,M,M,M,M,M,M,M,KMIW 010415Z AUTO 31004KT 10SM CLR A3012 RMK MADISHF
MIW,2017-04-01 04:20,-92.9163,42.1106,M,M,M,320.00,5.00,M,30.12,M,10.00,M,CLR,M,M,M,M,M,M,M,M,KMIW 010420Z AUTO 32005KT 10SM CLR A3012 RMK MADISHF
MIW,2017-04-01 04:25,-92.9163,42.1106,M,M,M,330.00,5.00,M,30.12,M,10.00,M,CLR,M,M,M,M,M,M,M,M,KMIW 010425Z AUTO 33005KT 10SM CLR A3012 RMK MADISHF
MIW,2017-04-01 04:30,-92.9163,42.1106,M,M,M,340.00,6.00,M,30.12,M,10.00,M,CLR,M,M,M,M,M,M,M,M,KMIW 010430Z AUTO 34006KT 10SM CLR A3012 RMK MADISHF
MIW,2017-04-01 04:35,-92.9163,42.1106,M,M,M,340.00,6.00,M,30.12,M,10.00,M,CLR,M,M,M,M,M,M,M,M,KMIW 010435Z AUTO 34006KT 10SM CLR A3012 RMK MADISHF
MIW,2017-04-01 04:40,-92.9163,42.1106,M,M,M,350.00,7.00,M,30.12,M,10.00,M,CLR,M,M,M,M,M,M,M,M,KMIW 010440Z AUTO 35007KT 10SM CLR A3012 RMK MADISHF
MIW,2017-04-01 04:45,-92.9163,42.1106,M,M,M,350.00,8.00,M,30.12,M,10.00,M,CLR,M,M,M,M,M,M,M,M,KMIW 010445Z AUTO 35008KT 10SM CLR A3012 RMK MADISHF
MIW,2017-04-01 04:50,-92.9163,42.1106,M,M,M,360.00,7.00,M,30.12,M,10.00,M,CLR,M,M,M,M,M,M,M,M,KMIW 010450Z AUTO 36007KT 10SM CLR A3012 RMK MADISHF
MIW,2017-04-01 04:53,-92.9163,42.1106,35.10,34.00,95.71,360.00,6.00,0.00,30.12,1020.80,10.00,M,CLR,M,M,M,M,M,M,M,M,KMIW 010453Z AUTO 36006KT 10SM CLR 02/01 A3012 RMK AO2 SLP208 T00170011
MIW,2017-04-01 04:55,-92.9163,42.1106,M,M,M,350.00,6.00,M,30.12,M,10.00,M,CLR,M,M,M,M,M,M,M,M,KMIW 010455Z AUTO 35006KT 10SM CLR A3012 RMK MADISHF
MIW,2017-04-01 05:00,-92.9163,42.1106,M,M,M,350.00,8.00,M,30.12,M,10.00,M,CLR,M,M,M,M,M,M,M,M,KMIW 010500Z AUTO 35008KT 10SM CLR A3012 RMK MADISHF
MIW,2017-04-01 05:05,-92.9163,42.1106,M,M,M,340.00,7.00,M,30.13,M,10.00,M,CLR,M,M,M,M,M,M,M,M,KMIW 010505Z AUTO 34007KT 10SM CLR A3013 RMK MADISHF
MIW,2017-04-01 05:10,-92.9163,42.1106,M,M,M,330.00,6.00,M,30.13,M,10.00,M,CLR,M,M,M,M,M,M,M,M,KMIW 010510Z AUTO 33006KT 10SM CLR A3013 RMK MADISHF
MIW,2017-04-01 05:15,-92.9163,42.1106,M,M,M,340.00,6.00,M,30.13,M,10.00,M,CLR,M,M,M,M,M,M,M,M,KMIW 010515Z AUTO 34006KT 10SM CLR A3013 RMK MADISHF
MIW,2017-04-01 05:20,-92.9163,42.1106,M,M,M,330.00,5.00,M,30.13,M,10.00,M,CLR,M,M,M,M,M,M,M,M,KMIW 010520Z AUTO 33005KT 10SM CLR A3013 RMK MADISHF
MIW,2017-04-01 05:25,-92.9163,42.1106,M,M,M,340.00,4.00,M,30.13,M,10.00,M,CLR,M,M,M,M,M,M,M,M,KMIW 010525Z AUTO 34004KT 10SM CLR A3013 RMK MADISHF
MIW,2017-04-01 05:30,-92.9163,42.1106,M,M,M,330.00,3.00,M,30.13,M,10.00,M,CLR,M,M,M,M,M,M,M,M,KMIW 010530Z AUTO 33003KT 10SM CLR A3013 RMK MADISHF
MIW,2017-04-01 05:35,-92.9163,42.1106,M,M,M,330.00,4.00,M,30.13,M,10.00,M,CLR,M,M,M,M,M,M,M,M,KMIW 010535Z AUTO 33004KT 10SM CLR A3013 RMK MADISHF
MIW,2017-04-01 05:40,-92.9163,42.1106,M,M,M,330.00,4.00,M,30.13,M,10.00,M,CLR,M,M,M,M,M,M,M,M,KMIW 010540Z AUTO 33004KT 10SM CLR A3013 RMK MADISHF
MIW,2017-04-01 05:45,-92.9163,42.1106,M,M,M,330.00,3.00,M,30.13,M,10.00,M,CLR,M,M,M,M,M,M,M,M,KMIW 010545Z AUTO 33003KT 10SM CLR A3013 RMK MADISHF
MIW,2017-04-01 05:50,-92.9163,42.1106,M,M,M,330.00,4.00,M,30.13,M,10.00,M,CLR,M,M,M,M,M,M,M,M,KMIW 010550Z AUTO 33004KT 10SM CLR A3013 RMK MADISHF
MIW,2017-04-01 05:53,-92.9163,42.1106,34.00,32.00,92.29,320.00,4.00,0.00,30.13,1021.30,10.00,M,CLR,M,M,M,M,M,M,M,M,KMIW 010553Z AUTO 32004KT 10SM CLR 01/00 A3013 RMK AO2 SLP213 T00110000 10056 20011 400670011 53011
MIW,2017-04-01 05:55,-92.9163,42.1106,M,M,M,320.00,4.00,M,30.14,M,10.00,M,CLR,M,M,M,M,M,M,M,M,KMIW 010555Z AUTO 32004KT 10SM CLR A3014 RMK MADISHF
MIW,2017-04-01 06:00,-92.9163,42.1106,M,M,M,310.00,4.00,M,30.14,M,10.00,M,CLR,M,M,M,M,M,M,M,M,KMIW 010600Z AUTO 31004KT 10SM CLR A3014 RMK MADISHF
MIW,2017-04-01 06:05,-92.9163,42.1106,M,M,M,310.00,4.00,M,30.14,M,10.00,M,CLR,M,M,M,M,M,M,M,M,KMIW 010605Z AUTO 31004KT 10SM CLR A3014 RMK MADISHF
MIW,2017-04-01 06:10,-92.9163,42.1106,M,M,M,320.00,5.00,M,30.14,M,10.00,M,CLR,M,M,M,M,M,M,M,M,KMIW 010610Z AUTO 32005KT 10SM CLR A3014 RMK MADISHF
MIW,2017-04-01 06:15,-92.9163,42.1106,M,M,M,320.00,5.00,M,30.14,M,10.00,M,CLR,M,M,M,M,M,M,M,M,KMIW 010615Z AUTO 32005KT 10SM CLR A3014 RMK MADISHF
MIW,2017-04-01 06:20,-92.9163,42.1106,M,M,M,310.00,5.00,M,30.14,M,10.00,M,CLR,M,M,M,M,M,M,M,M,KMIW 010620Z AUTO 31005KT 10SM CLR A3014 RMK MADISHF
MIW,2017-04-01 06:25,-92.9163,42.1106,M,M,M,310.00,4.00,M,30.14,M,10.00,M,CLR,M,M,M,M,M,M,M,M,KMIW 010625Z AUTO 31004KT 10SM CLR A3014 RMK MADISHF
MIW,2017-04-01 06:30,-92.9163,42.1106,M,M,M,290.00,4.00,M,30.14,M,10.00,M,CLR,M,M,M,M,M,M,M,M,KMIW 010630Z AUTO 29004KT 10SM CLR A3014 RMK MADISHF
MIW,2017-04-01 06:35,-92.9163,42.1106,M,M,M,280.00,4.00,M,30.15,M,10.00,M,CLR,M,M,M,M,M,M,M,M,KMIW 010635Z AUTO 28004KT 10SM CLR A3015 RMK MADISHF
MIW,2017-04-01 06:40,-92.9163,42.1106,M,M,M,280.00,3.00,M,30.15,M,10.00,M,CLR,M,M,M,M,M,M,M,M,KMIW 010640Z AUTO 28003KT 10SM CLR A3015 RMK MADISHF
MIW,2017-04-01 06:45,-92.9163,42.1106,M,M,M,280.00,3.00,M,30.15,M,10.00,M,CLR,M,M,M,M,M,M,M,M,KMIW 010645Z AUTO 28003KT 10SM CLR A3015 RMK MADISHF
MIW,2017-04-01 06:50,-92.9163,42.1106,M,M,M,270.00,3.00,M,30.15,M,10.00,M,CLR,M,M,M,M,M,M,M,M,KMIW 010650Z AUTO 27003KT 10SM CLR A3015 RMK MADISHF
MIW,2017-04-01 06:53,-92.9163,42.1106,32.00,32.00,100.00,270.00,3.00,0.00,30.15,1021.80,10.00,M,CLR,M,M,M,M,M,M,M,M,KMIW 010653Z AUTO 27003KT 10SM CLR 00/00 A3015 RMK AO2 SLP218 T00000000
MIW,2017-04-01 06:55,-92.9163,42.1106,M,M,M,270.00,3.00,M,30.15,M,10.00,M,CLR,M,M,M,M,M,M,M,M,KMIW 010655Z AUTO 27003KT 10SM CLR A3015 RMK MADISHF
MIW,2017-04-01 07:00,-92.9163,42.1106,M,M,M,280.00,4.00,M,30.15,M,10.00,M,CLR,M,M,M,M,M,M,M,M,KMIW 010700Z AUTO 28004KT 10SM CLR A3015 RMK MADISHF
MIW,2017-04-01 07:05,-92.9163,42.1106,M,M,M,280.00,3.00,M,30.15,M,10.00,M,CLR,M,M,M,M,M,M,M,M,KMIW 010705Z AUTO 28003KT 10SM CLR A3015 RMK MADISHF
MIW,2017-04-01 07:10,-92.9163,42.1106,M,M,M,270.00,4.00,M,30.16,M,10.00,M,CLR,M,M,M,M,M,M,M,M,KMIW 010710Z AUTO 27004KT 10SM CLR A3016 RMK MADISHF
MIW,2017-04-01 07:15,-92.9163,42.1106,M,M,M,280.00,4.00,M,30.16,M,10.00,M,CLR,M,M,M,M,M,M,M,M,KMIW 010715Z AUTO 28004KT 10SM CLR A3016 RMK MADISHF
MIW,2017-04-01 07:20,-92.9163,42.1106,M,M,M,300.00,5.00,M,30.16,M,10.00,M,CLR,M,M,M,M,M,M,M,M,KMIW 010720Z AUTO 30005KT 10SM CLR A3016 RMK MADISHF
MIW,2017-04-01 07:25,-92.9163,42.1106,M,M,M,290.00,5.00,M,30.16,M,10.00,M,CLR,M,M,M,M,M,M,M,M,KMIW 010725Z AUTO 29005KT 10SM CLR A3016 RMK MADISHF
MIW,2017-04-01 07:30,-92.9163,42.1106,M,M,M,280.00,5.00,M,30.17,M,10.00,M,CLR,M,M,M,M,M,M,M,M,KMIW 010730Z AUTO 28005KT 10SM CLR A3017 RMK MADISHF
MIW,2017-04-01 07:35,-92.9163,42.1106,M,M,M,280.00,5.00,M,30.17,M,10.00,M,CLR,M,M,M,M,M,M,M,M,KMIW 010735Z AUTO 28005KT 10SM CLR A3017 RMK MADISHF
MIW,2017-04-01 07:40,-92.9163,42.1106,M,M,M,270.00,5.00,M,30.17,M,10.00,M,CLR,M,M,M,M,M,M,M,M,KMIW 010740Z AUTO 27005KT 10SM CLR A3017 RMK MADISHF
MIW,2017-04-01 07:45,-92.9163,42.1106,M,M,M,280.00,5.00,M,30.17,M,10.00,M,CLR,M,M,M,M,M,M,M,M,KMIW 010745Z AUTO 28005KT 10SM CLR A3017 RMK MADISHF
MIW,2017-04-01 07:50,-92.9163,42.1106,M,M,M,280.00,5.00,M,30.17,M,10.00,M,CLR,M,M,M,M,M,M,M,M,KMIW 010750Z AUTO 28005KT 10SM CLR A3017 RMK MADISHF
MIW,2017-04-01 07:53,-92.9163,42.1106,33.10,32.00,95.67,280.00,5.00,0.00,30.17,1022.40,10.00,M,CLR,M,M,M,M,M,M,M,M,KMIW 010753Z AUTO 28005KT 10SM CLR 01/00 A3017 RMK AO2 SLP224 T00060000
MIW,2017-04-01 07:55,-92.9163,42.1106,M,M,M,280.00,5.00,M,30.17,M,10.00,M,CLR,M,M,M,M,M,M,M,M,KMIW 010755Z AUTO 28005KT 10SM CLR A3017 RMK MADISHF
MIW,2017-04-01 08:00,-92.9163,42.1106,M,M,M,290.00,6.00,M,30.17,M,10.00,M,CLR,M,M,M,M,M,M,M,M,KMIW 010800Z AUTO 29006KT 10SM CLR A3017 RMK MADISHF
MIW,2017-04-01 08:05,-92.9163,42.1106,M,M,M,290.00,5.00,M,30.17,M,10.00,M,CLR,M,M,M,M,M,M,M,M,KMIW 010805Z AUTO 29005KT 10SM CLR A3017 RMK MADISHF
MIW,2017-04-01 08:10,-92.9163,42.1106,M,M,M,290.00,5.00,M,30.17,M,10.00,M,CLR,M,M,M,M,M,M,M,M,KMIW 010810Z AUTO 29005KT 10SM CLR A3017 RMK MADISHF
MIW,2017-04-01 08:15,-92.9163,42.1106,M,M,M,300.00,5.00,M,30.17,M,10.00,M,CLR,M,M,M,M,M,M,M,M,KMIW 010815Z AUTO 30005KT 10SM CLR A3017 RMK MADISHF
MIW,2017-04-01 08:20,-92.9163,42.1106,M,M,M,300.00,6.00,M,30.17,M,10.00,M,CLR,M,M,M,M,M,M,M,M,KMIW 010820Z AUTO 30006KT 10SM CLR A3017 RMK MADISHF
MIW,2017-04-01 08:25,-92.9163,42.1106,M,M,M,300.00,6.00,M,30.17,M,10.00,M,CLR,M,M,M,M,M,M,M,M,KMIW 010825Z AUTO 30006KT 10SM CLR A3017 RMK MADISHF
MIW,2017-04-01 08:30,-92.9163,42.1106,M,M,M,310.00,6.00,M,30.17,M,10.00,M,CLR,M,M,M,M,M,M,M,M,KMIW 010830Z AUTO 31006KT 10SM CLR A3017 RMK MADISHF
MIW,2017-04-01 08:35,-92.9163,42.1106,M,M,M,310.00,5.00,M,30.17,M,10.00,M,CLR,M,M,M,M,M,M,M,M,KMIW 010835Z AUTO 31005KT 10SM CLR A3017 RMK MADISHF
MIW,2017-04-01 08:40,-92.9163,42.1106,M,M,M,310.00,4.00,M,30.17,M,10.00,M,CLR,M,M,M,M,M,M,M,M,KMIW 010840Z AUTO 31004KT 10SM CLR A3017 RMK MADISHF
MIW,2017-04-01 08:45,-92.9163,42.1106,M,M,M,330.00,5.00,M,30.17,M,10.00,M,CLR,M,M,M,M,M,M,M,M,KMIW 010845Z AUTO 33005KT 10SM CLR A3017 RMK MADISHF
MIW,2017-04-01 08:50,-92.9163,42.1106,M,M,M,330.00,4.00,M,30.16,M,10.00,M,CLR,M,M,M,M,M,M,M,M,KMIW 010850Z AUTO 33004KT 10SM CLR A3016 RMK MADISHF
MIW,2017-04-01 08:53,-92.9163,42.1106,30.90,30.90,100.00,330.00,4.00,0.00,30.16,1022.20,10.00,M,CLR,M,M,M,M,M,M,M,M,KMIW 010853Z AUTO 33004KT 10SM CLR M01/M01 A3016 RMK AO2 SLP222 T10061006 50009
MIW,2017-04-01 08:55,-92.9163,42.1106,M,M,M,330.00,4.00,M,30.16,M,10.00,M,CLR,M,M,M,M,M,M,M,M,KMIW 010855Z AUTO 33004KT 10SM CLR A3016 RMK MADISHF
MIW,2017-04-01 09:00,-92.9163,42.1106,M,M,M,330.00,4.00,M,30.16,M,10.00,M,CLR,M,M,M,M,M,M,M,M,KMIW 010900Z AUTO 33004KT 10SM CLR A3016 RMK MADISHF
MIW,2017-04-01 09:05,-92.9163,42.1106,M,M,M,340.00,4.00,M,30.16,M,10.00,M,CLR,M,M,M,M,M,M,M,M,KMIW 010905Z AUTO 34004KT 10SM CLR A3016 RMK MADISHF
MIW,2017-04-01 09:10,-92.9163,42.1106,M,M,M,340.00,4.00,M,30.16,M,10.00,M,CLR,M,M,M,M,M,M,M,M,KMIW 010910Z AUTO 34004KT 10SM CLR A3016 RMK MADISHF
MIW,2017-04-01 09:15,-92.9163,42.1106,M,M,M,340.00,3.00,M,30.15,M,10.00,M,CLR,M,M,M,M,M,M,M,M,KMIW 010915Z AUTO 34003KT 10SM CLR A3015 RMK MADISHF
MIW,2017-04-01 09:20,-92.9163,42.1106,M,M,M,0.00,0.00,M,30.15,M,10.00,M,CLR,M,M,M,M,M,M,M,M,KMIW 010920Z AUTO 00000KT 10SM CLR A3015 RMK MADISHF
MIW,2017-04-01 09:25,-92.9163,42.1106,M,M,M,0.00,0.00,M,30.15,M,9.00,M,CLR,M,M,M,M,M,M,M,M,KMIW 010925Z AUTO 00000KT 9SM CLR A3015 RMK MADISHF
MIW,2017-04-01 09:30,-92.9163,42.1106,M,M,M,0.00,0.00,M,30.15,M,8.00,M,CLR,M,M,M,M,M,M,M,M,KMIW 010930Z AUTO 00000KT 8SM CLR A3015 RMK MADISHF
MIW,2017-04-01 09:35,-92.9163,42.1106,M,M,M,0.00,0.00,M,30.16,M,8.00,M,CLR,M,M,M,M,M,M,M,M,KMIW 010935Z AUTO 00000KT 8SM CLR A3016 RMK MADISHF
MIW,2017-04-01 09:40,-92.9163,42.1106,M,M,M,0.00,0.00,M,30.16,M,8.00,M,CLR,M,M,M,M,M,M,M,M,KMIW 010940Z AUTO 00000KT 8SM CLR A3016 RMK MADISHF
MIW,2017-04-01 09:45,-92.9163,42.1106,M,M,M,330.00,3.00,M,30.16,M,8.00,M,CLR,M,M,M,M,M,M,M,M,KMIW 010945Z AUTO 33003KT 8SM CLR A3016 RMK MADISHF
MIW,2017-04-01 09:50,-92.9163,42.1106,M,M,M,0.00,0.00,M,30.17,M,8.00,M,CLR,M,M,M,M,M,M,M,M,KMIW 010950Z AUTO 00000KT 8SM CLR A3017 RMK MADISHF
MIW,2017-04-01 09:53,-92.9163,42.1106,30.90,30.90,100.00,300.00,3.00,0.00,30.17,1022.40,8.00,M,CLR,M,M,M,M,M,M,M,M,KMIW 010953Z AUTO 30003KT 8SM CLR M01/M01 A3017 RMK AO2 SLP224 T10061006
MIW,2017-04-01 09:55,-92.9163,42.1106,M,M,M,310.00,3.00,M,30.17,M,8.00,M,CLR,M,M,M,M,M,M,M,M,KMIW 010955Z AUTO 31003KT 8SM CLR A3017 RMK MADISHF
MIW,2017-04-01 10:00,-92.9163,42.1106,M,M,M,290.00,3.00,M,30.17,M,8.00,M,CLR,M,M,M,M,M,M,M,M,KMIW 011000Z AUTO 29003KT 8SM CLR A3017 RMK MADISHF
MIW,2017-04-01 10:05,-92.9163,42.1106,M,M,M,260.00,3.00,M,30.17,M,8.00,M,CLR,M,M,M,M,M,M,M,M,KMIW 011005Z AUTO 26003KT 8SM CLR A3017 RMK MADISHF
MIW,2017-04-01 10:10,-92.9163,42.1106,M,M,M,260.00,3.00,M,30.17,M,8.00,M,CLR,M,M,M,M,M,M,M,M,KMIW 011010Z AUTO 26003KT 8SM CLR A3017 RMK MADISHF
MIW,2017-04-01 10:15,-92.9163,42.1106,M,M,M,250.00,3.00,M,30.17,M,8.00,M,CLR,M,M,M,M,M,M,M,M,KMIW 011015Z AUTO 25003KT 8SM CLR A3017 RMK MADISHF
MIW,2017-04-01 10:20,-92.9163,42.1106,M,M,M,250.00,3.00,M,30.18,M,9.00,M,CLR,M,M,M,M,M,M,M,M,KMIW 011020Z AUTO 25003KT 9SM CLR A3018 RMK MADISHF
MIW,2017-04-01 10:25,-92.9163,42.1106,M,M,M,260.00,3.00,M,30.18,M,9.00,M,CLR,M,M,M,M,M,M,M,M,KMIW 011025Z AUTO 26003KT 9SM CLR A3018 RMK MADISHF
MIW,2017-04-01 10:30,-92.9163,42.1106,M,M,M,270.00,3.00,M,30.18,M,9.00,M,CLR,M,M,M,M,M,M,M,M,KMIW 011030Z AUTO 27003KT 9SM CLR A3018 RMK MADISHF
MIW,2017-04-01 10:35,-92.9163,42.1106,M,M,M,270.00,3.00,M,30.18,M,9.00,M,CLR,M,M,M,M,M,M,M,M,KMIW 011035Z AUTO 27003KT 9SM CLR A3018 RMK MADISHF
MIW,2017-04-01 10:40,-92.9163,42.1106,M,M,M,260.00,3.00,M,30.18,M,9.00,M,CLR,M,M,M,M,M,M,M,M,KMIW 011040Z AUTO 26003KT 9SM CLR A3018 RMK MADISHF
MIW,2017-04-01 10:45,-92.9163,42.1106,M,M,M,280.00,3.00,M,30.19,M,9.00,M,CLR,M,M,M,M,M,M,M,M,KMIW 011045Z AUTO 28003KT 9SM CLR A3019 RMK MADISHF
MIW,2017-04-01 10:50,-92.9163,42.1106,M,M,M,280.00,3.00,M,30.19,M,8.00,M,CLR,M,M,M,M,M,M,M,M,KMIW 011050Z AUTO 28003KT 8SM CLR A3019 RMK MADISHF
MIW,2017-04-01 10:53,-92.9163,42.1106,32.00,30.90,95.65,280.00,4.00,0.00,30.19,1023.10,8.00,M,CLR,M,M,M,M,M,M,M,M,KMIW 011053Z AUTO 28004KT 8SM CLR 00/M01 A3019 RMK AO2 SLP231 T00001006
MIW,2017-04-01 10:55,-92.9163,42.1106,M,M,M,280.00,4.00,M,30.19,M,8.00,M,CLR,M,M,M,M,M,M,M,M,KMIW 011055Z AUTO 28004KT 8SM CLR A3019 RMK MADISHF
MIW,2017-04-01 11:00,-92.9163,42.1106,M,M,M,270.00,4.00,M,30.20,M,7.00,M,CLR,M,M,M,M,M,M,M,M,KMIW 011100Z AUTO 27004KT 7SM CLR A3020 RMK MADISHF
MIW,2017-04-01 11:05,-92.9163,42.1106,M,M,M,270.00,4.00,M,30.20,M,7.00,M,CLR,M,M,M,M,M,M,M,M,KMIW 011105Z AUTO 27004KT 7SM CLR A3020 RMK MADISHF
MIW,2017-04-01 11:10,-92.9163,42.1106,M,M,M,270.00,5.00,M,30.20,M,7.00,M,CLR,M,M,M,M,M,M,M,M,KMIW 011110Z AUTO 27005KT 7SM CLR A3020 RMK MADISHF
MIW,2017-04-01 11:15,-92.9163,42.1106,M,M,M,280.00,5.00,M,30.20,M,8.00,M,CLR,M,M,M,M,M,M,M,M,KMIW 011115Z AUTO 28005KT 8SM CLR A3020 RMK MADISHF
MIW,2017-04-01 11:20,-92.9163,42.1106,M,M,M,280.00,5.00,M,30.20,M,8.00,M,CLR,M,M,M,M,M,M,M,M,KMIW 011120Z AUTO 28005KT 8SM CLR A3020 RMK MADISHF
MIW,2017-04-01 11:25,-92.9163,42.1106,M,M,M,280.00,6.00,M,30.21,M,8.00,M,CLR,M,M,M,M,M,M,M,M,KMIW 011125Z AUTO 28006KT 8SM CLR A3021 RMK MADISHF
MIW,2017-04-01 11:30,-92.9163,42.1106,M,M,M,280.00,5.00,M,30.22,M,9.00,M,CLR,M,M,M,M,M,M,M,M,KMIW 011130Z AUTO 28005KT 9SM CLR A3022 RMK MADISHF
MIW,2017-04-01 11:35,-92.9163,42.1106,M,M,M,280.00,5.00,M,30.22,M,8.00,M,CLR,M,M,M,M,M,M,M,M,KMIW 011135Z AUTO 28005KT 8SM CLR A3022 RMK MADISHF
MIW,2017-04-01 11:40,-92.9163,42.1106,M,M,M,280.00,5.00,M,30.22,M,8.00,M,CLR,M,M,M,M,M,M,M,M,KMIW 011140Z AUTO 28005KT 8SM CLR A3022 RMK MADISHF
MIW,2017-04-01 11:45,-92.9163,42.1106,M,M,M,280.00,4.00,M,30.22,M,8.00,M,CLR,M,M,M,M,M,M,M,M,KMIW 011145Z AUTO 28004KT 8SM CLR A3022 RMK MADISHF
MIW,2017-04-01 11:50,-92.9163,42.1106,M,M,M,290.00,4.00,M,30.21,M,7.00,M,CLR,M,M,M,M,M,M,M,M,KMIW 011150Z AUTO 29004KT 7SM CLR A3021 RMK MADISHF
MIW,2017-04-01 11:53,-92.9163,42.1106,32.00,32.00,100.00,300.00,5.00,0.00,30.22,1024.10,7.00,M,CLR,M,M,M,M,M,M,M,M,KMIW 011153Z AUTO 30005KT 7SM CLR 00/00 A3022 RMK AO2 SLP241 T00000000 10011 21011 53018
MIW,2017-04-01 11:55,-92.9163,42.1106,M,M,M,290.00,5.00,M,30.22,M,7.00,M,CLR,M,M,M,M,M,M,M,M,KMIW 011155Z AUTO 29005KT 7SM CLR A3022 RMK MADISHF
MIW,2017-04-01 12:00,-92.9163,42.1106,M,M,M,300.00,5.00,M,30.22,M,6.00,M,CLR,M,M,M,M,M,M,M,BR,KMIW 011200Z AUTO 30005KT 6SM BR CLR A3022 RMK MADISHF
MIW,2017-04-01 12:05,-92.9163,42.1106,M,M,M,300.00,6.00,M,30.22,M,6.00,M,CLR,M,M,M,M,M,M,M,BR,KMIW 011205Z AUTO 30006KT 6SM BR CLR A3022 RMK MADISHF
MIW,2017-04-01 12:10,-92.9163,42.1106,M,M,M,300.00,6.00,M,30.23,M,6.00,M,CLR,M,M,M,M,M,M,M,BR,KMIW 011210Z AUTO 30006KT 6SM BR CLR A3023 RMK MADISHF
MIW,2017-04-01 12:15,-92.9163,42.1106,M,M,M,300.00,6.00,M,30.23,M,6.00,M,CLR,M,M,M,M,M,M,M,BR,KMIW 011215Z AUTO 30006KT 6SM BR CLR A3023 RMK MADISHF
MIW,2017-04-01 12:20,-92.9163,42.1106,M,M,M,290.00,6.00,M,30.23,M,7.00,M,CLR,M,M,M,M,M,M,M,M,KMIW 011220Z AUTO 29006KT 7SM CLR A3023 RMK MADISHF
MIW,2017-04-01 12:25,-92.9163,42.1106,M,M,M,280.00,5.00,M,30.23,M,7.00,M,CLR,M,M,M,M,M,M,M,M,KMIW 011225Z AUTO 28005KT 7SM CLR A3023 RMK MADISHF
MIW,2017-04-01 12:30,-92.9163,42.1106,M,M,M,280.00,5.00,M,30.23,M,7.00,M,CLR,M,M,M,M,M,M,M,M,KMIW 011230Z AUTO 28005KT 7SM CLR A3023 RMK MADISHF
MIW,2017-04-01 12:35,-92.9163,42.1106,M,M,M,280.00,4.00,M,30.24,M,7.00,M,CLR,M,M,M,M,M,M,M,M,KMIW 011235Z AUTO 28004KT 7SM CLR A3024 RMK MADISHF
MIW,2017-04-01 12:40,-92.9163,42.1106,M,M,M,270.00,4.00,M,30.24,M,8.00,M,CLR,M,M,M,M,M,M,M,M,KMIW 011240Z AUTO 27004KT 8SM CLR A3024 RMK MADISHF
MIW,2017-04-01 12:45,-92.9163,42.1106,M,M,M,290.00,4.00,M,30.24,M,8.00,M,CLR,M,M,M,M,M,M,M,M,KMIW 011245Z AUTO 29004KT 8SM CLR A3024 RMK MADISHF
MIW,2017-04-01 12:50,-92.9163,42.1106,M,M,M,290.00,5.00,M,30.24,M,8.00,M,CLR,M,M,M,M,M,M,M,M,KMIW 011250Z AUTO 29005KT 8SM CLR A3024 RMK MADISHF
MIW,2017-04-01 12:53,-92.9163,42.1106,35.10,34.00,95.71,300.00,3.00,0.00,30.24,1024.70,7.00,M,CLR,M,M,M,M,M,M,M,M,KMIW 011253Z AUTO 30003KT 7SM CLR 02/01 A3024 RMK AO2 SLP247 T00170011
MIW,2017-04-01 12:55,-92.9163,42.1106,M,M,M,300.00,3.00,M,30.24,M,7.00,M,CLR,M,M,M,M,M,M,M,M,KMIW 011255Z AUTO 30003KT 7SM CLR A3024 RMK MADISHF
MIW,2017-04-01 13:00,-92.9163,42.1106,M,M,M,300.00,3.00,M,30.24,M,8.00,M,CLR,M,M,M,M,M,M,M,M,KMIW 011300Z AUTO 30003KT 8SM CLR A3024 RMK MADISHF
MIW,2017-04-01 13:05,-92.9163,42.1106,M,M,M,0.00,0.00,M,30.24,M,8.00,M,CLR,M,M,M,M,M,M,M,M,KMIW 011305Z AUTO 00000KT 8SM CLR A3024 RMK MADISHF
MIW,2017-04-01 13:10,-92.9163,42.1106,M,M,M,0.00,0.00,M,30.24,M,9.00,M,CLR,M,M,M,M,M,M,M,M,KMIW 011310Z AUTO 00000KT 9SM CLR A3024 RMK MADISHF
MIW,2017-04-01 13:15,-92.9163,42.1106,M,M,M,0.00,0.00,M,30.24,M,9.00,M,CLR,M,M,M,M,M,M,M,M,KMIW 011315Z AUTO 00000KT 9SM CLR A3024 RMK MADISHF
MIW,2017-04-01 13:20,-92.9163,42.1106,M,M,M,0.00,0.00,M,30.24,M,9.00,M,CLR,M,M,M,M,M,M,M,M,KMIW 011320Z AUTO 00000KT 9SM CLR A3024 RMK MADISHF
MIW,2017-04-01 13:25,-92.9163,42.1106,M,M,M,0.00,0.00,M,30.24,M,9.00,M,CLR,M,M,M,M,M,M,M,M,KMIW 011325Z AUTO 00000KT 9SM CLR A3024 RMK MADISHF
MIW,2017-04-01 13:30,-92.9163,42.1106,M,M,M,0.00,0.00,M,30.24,M,10.00,M,CLR,M,M,M,M,M,M,M,M,KMIW 011330Z AUTO 00000KT 10SM CLR A3024 RMK MADISHF
MIW,2017-04-01 13:35,-92.9163,42.1106,M,M,M,0.00,0.00,M,30.24,M,10.00,M,CLR,M,M,M,M,M,M,M,M,KMIW 011335Z AUTO 00000KT 10SM CLR A3024 RMK MADISHF
MIW,2017-04-01 13:40,-92.9163,42.1106,M,M,M,0.00,0.00,M,30.23,M,10.00,M,CLR,M,M,M,M,M,M,M,M,KMIW 011340Z AUTO 00000KT 10SM CLR A3023 RMK MADISHF
MIW,2017-04-01 13:45,-92.9163,42.1106,M,M,M,0.00,0.00,M,30.23,M,10.00,M,CLR,M,M,M,M,M,M,M,M,KMIW 011345Z AUTO 00000KT 10SM CLR A3023 RMK MADISHF
MIW,2017-04-01 13:50,-92.9163,42.1106,M,M,M,340.00,3.00,M,30.23,M,10.00,M,CLR,M,M,M,M,M,M,M,M,KMIW 011350Z AUTO 34003KT 10SM CLR A3023 RMK MADISHF
MIW,2017-04-01 13:53,-92.9163,42.1106,39.90,37.00,89.27,340.00,3.00,0.00,30.23,1024.30,10.00,M,CLR,M,M,M,M,M,M,M,M,KMIW 011353Z AUTO 34003KT 10SM CLR 04/03 A3023 RMK AO2 SLP243 T00440028
MIW,2017-04-01 13:55,-92.9163,42.1106,M,M,M,340.00,3.00,M,30.23,M,10.00,M,CLR,M,M,M,M,M,M,M,M,KMIW 011355Z AUTO 34003KT 10SM CLR A3023 RMK MADISHF
MIW,2017-04-01 14:00,-92.9163,42.1106,M,M,M,340.00,3.00,M,30.22,M,10.00,M,CLR,M,M,M,M,M,M,M,M,KMIW 011400Z AUTO 34003KT 10SM CLR A3022 RMK MADISHF
MIW,2017-04-01 14:05,-92.9163,42.1106,M,M,M,0.00,0.00,M,30.23,M,10.00,M,CLR,M,M,M,M,M,M,M,M,KMIW 011405Z AUTO 00000KT 10SM CLR A3023 RMK MADISHF
MIW,2017-04-01 14:10,-92.9163,42.1106,M,M,M,320.00,3.00,M,30.22,M,10.00,M,CLR,M,M,M,M,M,M,M,M,KMIW 011410Z AUTO 32003KT 10SM CLR A3022 RMK MADISHF
MIW,2017-04-01 14:15,-92.9163,42.1106,M,M,M,310.00,3.00,M,30.23,M,10.00,M,CLR,M,M,M,M,M,M,M,M,KMIW 011415Z AUTO 31003KT 10SM CLR A3023 RMK MADISHF
MIW,2017-04-01 14:20,-92.9163,42.1106,M,M,M,300.00,3.00,M,30.23,M,10.00,M,CLR,M,M,M,M,M,M,M,M,KMIW 011420Z AUTO 30003KT 10SM CLR A3023 RMK MADISHF
MIW,2017-04-01 14:25,-92.9163,42.1106,M,M,M,310.00,3.00,M,30.23,M,10.00,M,CLR,M,M,M,M,M,M,M,M,KMIW 011425Z AUTO 31003KT 10SM CLR A3023 RMK MADISHF
MIW,2017-04-01 14:30,-92.9163,42.1106,M,M,M,310.00,4.00,M,30.23,M,10.00,M,CLR,M,M,M,M,M,M,M,M,KMIW 011430Z AUTO 31004KT 10SM CLR A3023 RMK MADISHF
MIW,2017-04-01 14:35,-92.9163,42.1106,M,M,M,310.00,5.00,M,30.24,M,10.00,M,CLR,M,M,M,M,M,M,M,M,KMIW 011435Z AUTO 31005KT 10SM CLR A3024 RMK MADISHF
MIW,2017-04-01 14:40,-92.9163,42.1106,M,M,M,310.00,6.00,M,30.24,M,10.00,M,CLR,M,M,M,M,M,M,M,M,KMIW 011440Z AUTO 31006KT 10SM CLR A3024 RMK MADISHF
MIW,2017-04-01 14:45,-92.9163,42.1106,M,M,M,300.00,5.00,M,30.24,M,10.00,M,CLR,M,M,M,M,M,M,M,M,KMIW 011445Z AUTO 30005KT 10SM CLR A3024 RMK MADISHF
MIW,2017-04-01 14:50,-92.9163,42.1106,M,M,M,290.00,4.00,M,30.24,M,10.00,M,CLR,M,M,M,M,M,M,M,M,KMIW 011450Z AUTO 29004KT 10SM CLR A3024 RMK MADISHF
MIW,2017-04-01 14:53,-92.9163,42.1106,45.00,39.00,79.36,280.00,5.00,0.00,30.24,1024.60,10.00,M,CLR,M,M,M,M,M,M,M,M,KMIW 011453Z AUTO 28005KT 10SM CLR 07/04 A3024 RMK AO2 SLP246 T00720039 51007
MIW,2017-04-01 14:55,-92.9163,42.1106,M,M,M,300.00,4.00,M,30.24,M,10.00,M,CLR,M,M,M,M,M,M,M,M,KMIW 011455Z AUTO 30004KT 10SM CLR A3024 RMK MADISHF
MIW,2017-04-01 15:00,-92.9163,42.1106,M,M,M,290.00,4.00,M,30.24,M,10.00,M,CLR,M,M,M,M,M,M,M,M,KMIW 011500Z AUTO 29004KT 10SM CLR A3024 RMK MADISHF
MIW,2017-04-01 15:05,-92.9163,42.1106,M,M,M,320.00,4.00,M,30.24,M,10.00,M,CLR,M,M,M,M,M,M,M,M,KMIW 011505Z AUTO 32004KT 10SM CLR A3024 RMK MADISHF
MIW,2017-04-01 15:10,-92.9163,42.1106,M,M,M,300.00,4.00,M,30.24,M,10.00,M,CLR,M,M,M,M,M,M,M,M,KMIW 011510Z AUTO 30004KT 10SM CLR A3024 RMK MADISHF
MIW,2017-04-01 15:15,-92.9163,42.1106,M,M,M,300.00,6.00,M,30.24,M,10.00,M,CLR,M,M,M,M,M,M,M,M,KMIW 011515Z AUTO 30006KT 10SM CLR A3024 RMK MADISHF
MIW,2017-04-01 15:20,-92.9163,42.1106,M,M,M,300.00,7.00,M,30.24,M,10.00,M,CLR,M,M,M,M,M,M,M,M,KMIW 011520Z AUTO 30007KT 10SM CLR A3024 RMK MADISHF
MIW,2017-04-01 15:25,-92.9163,42.1106,M,M,M,310.00,5.00,M,30.24,M,10.00,M,CLR,M,M,M,M,M,M,M,M,KMIW 011525Z AUTO 31005KT 10SM CLR A3024 RMK MADISHF
MIW,2017-04-01 15:30,-92.9163,42.1106,M,M,M,300.00,5.00,M,30.24,M,10.00,M,CLR,M,M,M,M,M,M,M,M,KMIW 011530Z AUTO 30005KT 10SM CLR A3024 RMK MADISHF
MIW,2017-04-01 15:35,-92.9163,42.1106,M,M,M,300.00,4.00,M,30.24,M,10.00,M,CLR,M,M,M,M,M,M,M,M,KMIW 011535Z AUTO 30004KT 10SM CLR A3024 RMK MADISHF
MIW,2017-04-01 15:40,-92.9163,42.1106,M,M,M,300.00,4.00,M,30.24,M,10.00,M,CLR,M,M,M,M,M,M,M,M,KMIW 011540Z AUTO 30004KT 10SM CLR A3024 RMK MADISHF
MIW,2017-04-01 15:45,-92.9163,42.1106,M,M,M,270.00,5.00,M,30.24,M,10.00,M,CLR,M,M,M,M,M,M,M,M,KMIW 011545Z AUTO 27005KT 10SM CLR A3024 RMK MADISHF
MIW,2017-04-01 15:50,-92.9163,42.1106,M,M,M,280.00,4.00,M,30.25,M,10.00,M,CLR,M,M,M,M,M,M,M,M,KMIW 011550Z AUTO 28004KT 10SM CLR A3025 RMK MADISHF
MIW,2017-04-01 15:53,-92.9163,42.1106,50.00,37.90,62.98,250.00,4.00,0.00,30.25,1024.80,10.00,M,CLR,M,M,M,M,M,M,M,M,KMIW 011553Z AUTO 25004KT 10SM CLR 10/03 A3025 RMK AO2 SLP248 T01000033
MIW,2017-04-01 15:55,-92.9163,42.1106,M,M,M,280.00,6.00,M,30.24,M,10.00,M,CLR,M,M,M,M,M,M,M,M,KMIW 011555Z AUTO 28006KT 10SM CLR A3024 RMK MADISHF
MIW,2017-04-01 16:00,-92.9163,42.1106,M,M,M,270.00,6.00,M,30.24,M,10.00,M,CLR,M,M,M,M,M,M,M,M,KMIW 011600Z AUTO 27006KT 10SM CLR A3024 RMK MADISHF
MIW,2017-04-01 16:05,-92.9163,42.1106,M,M,M,300.00,4.00,M,30.24,M,10.00,M,CLR,M,M,M,M,M,M,M,M,KMIW 011605Z AUTO 30004KT 10SM CLR A3024 RMK VRB04KT  MADISHF
MIW,2017-04-01 16:10,-92.9163,42.1106,M,M,M,290.00,5.00,M,30.24,M,10.00,M,CLR,M,M,M,M,M,M,M,M,KMIW 011610Z AUTO 29005KT 10SM CLR A3024 RMK MADISHF
MIW,2017-04-01 16:15,-92.9163,42.1106,M,M,M,290.00,6.00,M,30.24,M,10.00,M,CLR,M,M,M,M,M,M,M,M,KMIW 011615Z AUTO 29006KT 10SM CLR A3024 RMK MADISHF
MIW,2017-04-01 16:20,-92.9163,42.1106,M,M,M,280.00,5.00,M,30.24,M,10.00,M,CLR,M,M,M,M,M,M,M,M,KMIW 011620Z AUTO 28005KT 10SM CLR A3024 RMK MADISHF
MIW,2017-04-01 16:25,-92.9163,42.1106,M,M,M,260.00,7.00,M,30.25,M,10.00,M,CLR,M,M,M,M,M,M,M,M,KMIW 011625Z AUTO 26007KT 10SM CLR A3025 RMK MADISHF
MIW,2017-04-01 16:30,-92.9163,42.1106,M,M,M,270.00,6.00,M,30.25,M,10.00,M,CLR,M,M,M,M,M,M,M,M,KMIW 011630Z AUTO 27006KT 10SM CLR A3025 RMK MADISHF
MIW,2017-04-01 16:35,-92.9163,42.1106,M,M,M,280.00,5.00,M,30.24,M,10.00,M,CLR,M,M,M,M,M,M,M,M,KMIW 011635Z AUTO 28005KT 10SM CLR A3024 RMK MADISHF
MIW,2017-04-01 16:40,-92.9163,42.1106,M,M,M,310.00,6.00,M,30.24,M,10.00,M,CLR,M,M,M,M,M,M,M,M,KMIW 011640Z AUTO 31006KT 10SM CLR A3024 RMK MADISHF
MIW,2017-04-01 16:45,-92.9163,42.1106,M,M,M,290.00,6.00,M,30.24,M,10.00,M,CLR,M,M,M,M,M,M,M,M,KMIW 011645Z AUTO 29006KT 10SM CLR A3024 RMK MADISHF
MIW,2017-04-01 16:50,-92.9163,42.1106,M,M,M,260.00,6.00,M,30.24,M,10.00,M,CLR,M,M,M,M,M,M,M,M,KMIW 011650Z AUTO 26006KT 10SM CLR A3024 RMK MADISHF
MIW,2017-04-01 16:53,-92.9163,42.1106,52.00,37.90,58.48,290.00,7.00,0.00,30.24,1024.60,10.00,M,CLR,M,M,M,M,M,M,M,M,KMIW 011653Z AUTO 29007KT 10SM CLR 11/03 A3024 RMK AO2 SLP246 T01110033
MIW,2017-04-01 16:55,-92.9163,42.1106,M,M,M,290.00,7.00,M,30.24,M,10.00,M,CLR,M,M,M,M,M,M,M,M,KMIW 011655Z AUTO 29007KT 10SM CLR A3024 RMK MADISHF
MIW,2017-04-01 17:00,-92.9163,42.1106,M,M,M,300.00,8.00,M,30.24,M,10.00,M,CLR,M,M,M,M,M,M,M,M,KMIW 011700Z AUTO 30008KT 10SM CLR A3024 RMK MADISHF
MIW,2017-04-01 17:05,-92.9163,42.1106,M,M,M,290.00,7.00,M,30.24,M,10.00,M,CLR,M,M,M,M,M,M,M,M,KMIW 011705Z AUTO 29007KT 10SM CLR A3024 RMK MADISHF
MIW,2017-04-01 17:10,-92.9163,42.1106,M,M,M,330.00,4.00,M,30.24,M,10.00,M,CLR,M,M,M,M,M,M,M,M,KMIW 011710Z AUTO 33004KT 10SM CLR A3024 RMK VRB04KT  MADISHF
MIW,2017-04-01 17:15,-92.9163,42.1106,M,M,M,M,M,M,30.24,M,10.00,M,CLR,M,M,M,M,M,M,M,M,KMIW 011715Z AUTO /////KT 10SM CLR A3024 RMK MADISHF
MIW,2017-04-01 17:20,-92.9163,42.1106,M,M,M,290.00,6.00,M,30.23,M,10.00,M,CLR,M,M,M,M,M,M,M,M,KMIW 011720Z AUTO 29006KT 10SM CLR A3023 RMK MADISHF
MIW,2017-04-01 17:25,-92.9163,42.1106,M,M,M,290.00,5.00,M,30.23,M,10.00,M,CLR,M,M,M,M,M,M,M,M,KMIW 011725Z AUTO 29005KT 10SM CLR A3023 RMK MADISHF
MIW,2017-04-01 17:30,-92.9163,42.1106,M,M,M,300.00,4.00,M,30.23,M,10.00,M,CLR,M,M,M,M,M,M,M,M,KMIW 011730Z AUTO 30004KT 10SM CLR A3023 RMK MADISHF
MIW,2017-04-01 17:35,-92.9163,42.1106,M,M,M,290.00,4.00,M,30.23,M,10.00,M,CLR,M,M,M,M,M,M,M,M,KMIW 011735Z AUTO 29004KT 10SM CLR A3023 RMK VRB04KT  MADISHF
MIW,2017-04-01 17:40,-92.9163,42.1106,M,M,M,270.00,4.00,M,30.23,M,10.00,M,CLR,M,M,M,M,M,M,M,M,KMIW 011740Z AUTO 27004KT 10SM CLR A3023 RMK MADISHF
MIW,2017-04-01 17:45,-92.9163,42.1106,M,M,M,270.00,7.00,M,30.23,M,10.00,M,CLR,M,M,M,M,M,M,M,M,KMIW 011745Z AUTO 27007KT 10SM CLR A3023 RMK MADISHF
MIW,2017-04-01 17:50,-92.9163,42.1106,M,M,M,260.00,5.00,M,30.22,M,10.00,M,CLR,M,M,M,M,M,M,M,M,KMIW 011750Z AUTO 26005KT 10SM CLR A3022 RMK MADISHF
MIW,2017-04-01 17:53,-92.9163,42.1106,53.10,37.00,54.21,M,4.00,0.00,30.22,1023.90,10.00,M,CLR,M,M,M,M,M,M,M,M,KMIW 011753Z AUTO VRB04KT 10SM CLR 12/03 A3022 RMK AO2 SLP239 T01170028 10122 21011 58006
MIW,2017-04-01 17:55,-92.9163,42.1106,M,M,M,300.00,4.00,M,30.22,M,10.00,M,CLR,M,M,M,M,M,M,M,M,KMIW 011755Z AUTO 30004KT 10SM CLR A3022 RMK VRB04KT  MADISHF
MIW,2017-04-01 18:00,-92.9163,42.1106,M,M,M,270.00,5.00,M,30.21,M,10.00,M,CLR,M,M,M,M,M,M,M,M,KMIW 011800Z AUTO 27005KT 10SM CLR A3021 RMK MADISHF
MIW,2017-04-01 18:05,-92.9163,42.1106,M,M,M,280.00,3.00,M,30.21,M,10.00,M,CLR,M,M,M,M,M,M,M,M,KMIW 011805Z AUTO 28003KT 10SM CLR A3021 RMK VRB03KT  MADISHF
MIW,2017-04-01 18:10,-92.9163,42.1106,M,M,M,310.00,3.00,M,30.21,M,10.00,M,CLR,M,M,M,M,M,M,M,M,KMIW 011810Z AUTO 31003KT 10SM CLR A3021 RMK VRB03KT  MADISHF
MIW,2017-04-01 18:15,-92.9163,42.1106,M,M,M,0.00,0.00,M,30.21,M,10.00,M,CLR,M,M,M,M,M,M,M,M,KMIW 011815Z AUTO 00000KT 10SM CLR A3021 RMK MADISHF
MIW,2017-04-01 18:20,-92.9163,42.1106,M,M,M,310.00,5.00,M,30.21,M,10.00,M,CLR,M,M,M,M,M,M,M,M,KMIW 011820Z AUTO 31005KT 10SM CLR A3021 RMK MADISHF
MIW,2017-04-01 18:25,-92.9163,42.1106,M,M,M,350.00,3.00,M,30.21,M,10.00,M,CLR,M,M,M,M,M,M,M,M,KMIW 011825Z AUTO 35003KT 10SM CLR A3021 RMK VRB03KT  MADISHF
MIW,2017-04-01 18:30,-92.9163,42.1106,M,M,M,0.00,0.00,M,30.21,M,10.00,M,FEW,M,M,M,12000.00,M,M,M,M,KMIW 011830Z AUTO 00000KT 10SM FEW120 A3021 RMK MADISHF
MIW,2017-04-01 18:35,-92.9163,42.1106,M,M,M,260.00,5.00,M,30.21,M,10.00,M,SCT,M,M,M,12000.00,M,M,M,M,KMIW 011835Z AUTO 26005KT 10SM SCT120 A3021 RMK VRB05KT  MADISHF
MIW,2017-04-01 18:40,-92.9163,42.1106,M,M,M,210.00,4.00,M,30.21,M,10.00,M,SCT,M,M,M,12000.00,M,M,M,M,KMIW 011840Z AUTO 21004KT 10SM SCT120 A3021 RMK VRB04KT  MADISHF
MIW,2017-04-01 18:45,-92.9163,42.1106,M,M,M,260.00,6.00,M,30.21,M,10.00,M,FEW,M,M,M,12000.00,M,M,M,M,KMIW 011845Z AUTO 26006KT 10SM FEW120 A3021 RMK MADISHF
MIW,2017-04-01 18:50,-92.9163,42.1106,M,M,M,0.00,0.00,M,30.21,M,10.00,M,SCT,M,M,M,12000.00,M,M,M,M,KMIW 011850Z AUTO 00000KT 10SM SCT120 A3021 RMK MADISHF
MIW,2017-04-01 18:53,-92.9163,42.1106,54.00,36.00,50.42,320.00,4.00,0.00,30.21,1023.50,10.00,M,SCT,M,M,M,12000.00,M,M,M,M,KMIW 011853Z AUTO 32004KT 10SM SCT120 12/02 A3021 RMK AO2 SLP235 T01220022
MIW,2017-04-01 18:55,-92.9163,42.1106,M,M,M,330.00,3.00,M,30.21,M,10.00,M,SCT,M,M,M,12000.00,M,M,M,M,KMIW 011855Z AUTO 33003KT 10SM SCT120 A3021 RMK MADISHF
MIW,2017-04-01 19:00,-92.9163,42.1106,M,M,M,10.00,3.00,M,30.21,M,10.00,M,FEW,M,M,M,12000.00,M,M,M,M,KMIW 011900Z AUTO 01003KT 10SM FEW120 A3021 RMK MADISHF
MIW,2017-04-01 19:05,-92.9163,42.1106,M,M,M,290.00,5.00,M,30.20,M,10.00,M,SCT,M,M,M,12000.00,M,M,M,M,KMIW 011905Z AUTO 29005KT 10SM SCT120 A3020 RMK MADISHF
MIW,2017-04-01 19:10,-92.9163,42.1106,M,M,M,270.00,3.00,M,30.20,M,10.00,M,SCT,M,M,M,12000.00,M,M,M,M,KMIW 011910Z AUTO 27003KT 10SM SCT120 A3020 RMK VRB03KT  MADISHF
MIW,2017-04-01 19:15,-92.9163,42.1106,M,M,M,0.00,0.00,M,30.20,M,10.00,M,BKN,M,M,M,12000.00,M,M,M,M,KMIW 011915Z AUTO 00000KT 10SM BKN120 A3020 RMK MADISHF
MIW,2017-04-01 19:20,-92.9163,42.1106,M,M,M,0.00,0.00,M,30.20,M,10.00,M,BKN,M,M,M,12000.00,M,M,M,M,KMIW 011920Z AUTO 00000KT 10SM BKN120 A3020 RMK MADISHF
MIW,2017-04-01 19:25,-92.9163,42.1106,M,M,M,340.00,5.00,M,30.20,M,10.00,M,BKN,M,M,M,12000.00,M,M,M,M,KMIW 011925Z AUTO 34005KT 10SM BKN120 A3020 RMK MADISHF
MIW,2017-04-01 19:30,-92.9163,42.1106,M,M,M,320.00,6.00,M,30.20,M,10.00,M,BKN,M,M,M,12000.00,M,M,M,M,KMIW 011930Z AUTO 32006KT 10SM BKN120 A3020 RMK MADISHF
MIW,2017-04-01 19:35,-92.9163,42.1106,M,M,M,340.00,4.00,M,30.20,M,10.00,M,BKN,M,M,M,12000.00,M,M,M,M,KMIW 011935Z AUTO 34004KT 10SM BKN120 A3020 RMK MADISHF
MIW,2017-04-01 19:40,-92.9163,42.1106,M,M,M,0.00,0.00,M,30.20,M,10.00,M,BKN,M,M,M,12000.00,M,M,M,M,KMIW 011940Z AUTO 00000KT 10SM BKN120 A3020 RMK MADISHF
MIW,2017-04-01 19:45,-92.9163,42.1106,M,M,M,0.00,0.00,M,30.20,M,10.00,M,SCT,M,M,M,12000.00,M,M,M,M,KMIW 011945Z AUTO 00000KT 10SM SCT120 A3020 RMK MADISHF
MIW,2017-04-01 19:50,-92.9163,42.1106,M,M,M,300.00,4.00,M,30.20,M,10.00,M,FEW,M,M,M,11000.00,M,M,M,M,KMIW 011950Z AUTO 30004KT 10SM FEW110 A3020 RMK MADISHF
MIW,2017-04-01 19:53,-92.9163,42.1106,55.00,35.10,46.91,290.00,4.00,0.00,30.20,1023.10,10.00,M,FEW,M,M,M,11000.00,M,M,M,M,KMIW 011953Z AUTO 29004KT 10SM FEW110 13/02 A3020 RMK AO2 SLP231 T01280017
MIW,2017-04-01 19:55,-92.9163,42.1106,M,M,M,320.00,4.00,M,30.20,M,10.00,M,FEW,M,M,M,11000.00,M,M,M,M,KMIW 011955Z AUTO 32004KT 10SM FEW110 A3020 RMK MADISHF
MIW,2017-04-01 20:00,-92.9163,42.1106,M,M,M,270.00,3.00,M,30.19,M,10.00,M,CLR,M,M,M,M,M,M,M,M,KMIW 012000Z AUTO 27003KT 10SM CLR A3019 RMK MADISHF
MIW,2017-04-01 20:05,-92.9163,42.1106,M,M,M,280.00,3.00,M,30.19,M,10.00,M,CLR,M,M,M,M,M,M,M,M,KMIW 012005Z AUTO 28003KT 10SM CLR A3019 RMK VRB03KT  MADISHF
MIW,2017-04-01 20:10,-92.9163,42.1106,M,M,M,0.00,0.00,M,30.19,M,10.00,M,FEW,M,M,M,12000.00,M,M,M,M,KMIW 012010Z AUTO 00000KT 10SM FEW120 A3019 RMK MADISHF
MIW,2017-04-01 20:15,-92.9163,42.1106,M,M,M,0.00,0.00,M,30.19,M,10.00,M,SCT,M,M,M,12000.00,M,M,M,M,KMIW 012015Z AUTO 00000KT 10SM SCT120 A3019 RMK MADISHF
MIW,2017-04-01 20:20,-92.9163,42.1106,M,M,M,0.00,0.00,M,30.19,M,10.00,M,SCT,M,M,M,12000.00,M,M,M,M,KMIW 012020Z AUTO 00000KT 10SM SCT120 A3019 RMK MADISHF
MIW,2017-04-01 20:25,-92.9163,42.1106,M,M,M,0.00,0.00,M,30.19,M,10.00,M,BKN,M,M,M,12000.00,M,M,M,M,KMIW 012025Z AUTO 00000KT 10SM BKN120 A3019 RMK MADISHF
MIW,2017-04-01 20:30,-92.9163,42.1106,M,M,M,290.00,3.00,M,30.19,M,10.00,M,BKN,M,M,M,12000.00,M,M,M,M,KMIW 012030Z AUTO 29003KT 10SM BKN120 A3019 RMK MADISHF
MIW,2017-04-01 20:35,-92.9163,42.1106,M,M,M,300.00,3.00,M,30.19,M,10.00,M,OVC,M,M,M,12000.00,M,M,M,M,KMIW 012035Z AUTO 30003KT 10SM OVC120 A3019 RMK MADISHF
MIW,2017-04-01 20:40,-92.9163,42.1106,M,M,M,0.00,0.00,M,30.19,M,10.00,M,OVC,M,M,M,12000.00,M,M,M,M,KMIW 012040Z AUTO 00000KT 10SM OVC120 A3019 RMK MADISHF
MIW,2017-04-01 20:45,-92.9163,42.1106,M,M,M,330.00,3.00,M,30.18,M,10.00,M,OVC,M,M,M,12000.00,M,M,M,M,KMIW 012045Z AUTO 33003KT 10SM OVC120 A3018 RMK MADISHF
MIW,2017-04-01 20:50,-92.9163,42.1106,M,M,M,320.00,3.00,M,30.18,M,10.00,M,OVC,M,M,M,12000.00,M,M,M,M,KMIW 012050Z AUTO 32003KT 10SM OVC120 A3018 RMK MADISHF
MIW,2017-04-01 20:53,-92.9163,42.1106,54.00,33.10,44.92,0.00,0.00,0.00,30.18,1022.50,10.00,M,OVC,M,M,M,12000.00,M,M,M,M,KMIW 012053Z AUTO 00000KT 10SM OVC120 12/01 A3018 RMK AO2 SLP225 T01220006 58013
MIW,2017-04-01 20:55,-92.9163,42.1106,M,M,M,0.00,0.00,M,30.18,M,10.00,M,OVC,M,M,M,12000.00,M,M,M,M,KMIW 012055Z AUTO 00000KT 10SM OVC120 A3018 RMK MADISHF
MIW,2017-04-01 21:00,-92.9163,42.1106,M,M,M,0.00,0.00,M,30.18,M,10.00,M,OVC,M,M,M,12000.00,M,M,M,M,KMIW 012100Z AUTO 00000KT 10SM OVC120 A3018 RMK MADISHF
MIW,2017-04-01 21:05,-92.9163,42.1106,M,M,M,0.00,0.00,M,30.17,M,10.00,M,OVC,M,M,M,12000.00,M,M,M,M,KMIW 012105Z AUTO 00000KT 10SM OVC120 A3017 RMK MADISHF
MIW,2017-04-01 21:10,-92.9163,42.1106,M,M,M,320.00,3.00,M,30.17,M,10.00,M,OVC,M,M,M,12000.00,M,M,M,M,KMIW 012110Z AUTO 32003KT 10SM OVC120 A3017 RMK MADISHF
MIW,2017-04-01 21:15,-92.9163,42.1106,M,M,M,340.00,3.00,M,30.17,M,10.00,M,OVC,M,M,M,11000.00,M,M,M,M,KMIW 012115Z AUTO 34003KT 10SM OVC110 A3017 RMK MADISHF
MIW,2017-04-01 21:20,-92.9163,42.1106,M,M,M,350.00,3.00,M,30.17,M,10.00,M,OVC,M,M,M,11000.00,M,M,M,M,KMIW 012120Z AUTO 35003KT 10SM OVC110 A3017 RMK MADISHF
MIW,2017-04-01 21:25,-92.9163,42.1106,M,M,M,360.00,4.00,M,30.17,M,10.00,M,OVC,M,M,M,11000.00,M,M,M,M,KMIW 012125Z AUTO 36004KT 10SM OVC110 A3017 RMK MADISHF
MIW,2017-04-01 21:30,-92.9163,42.1106,M,M,M,340.00,4.00,M,30.17,M,10.00,M,OVC,M,M,M,11000.00,M,M,M,M,KMIW 012130Z AUTO 34004KT 10SM OVC110 A3017 RMK MADISHF
MIW,2017-04-01 21:35,-92.9163,42.1106,M,M,M,350.00,3.00,M,30.17,M,10.00,M,OVC,M,M,M,11000.00,M,M,M,M,KMIW 012135Z AUTO 35003KT 10SM OVC110 A3017 RMK MADISHF
MIW,2017-04-01 21:40,-92.9163,42.1106,M,M,M,350.00,3.00,M,30.17,M,10.00,M,OVC,M,M,M,11000.00,M,M,M,M,KMIW 012140Z AUTO 35003KT 10SM OVC110 A3017 RMK MADISHF
MIW,2017-04-01 21:45,-92.9163,42.1106,M,M,M,360.00,3.00,M,30.17,M,10.00,M,OVC,M,M,M,11000.00,M,M,M,M,KMIW 012145Z AUTO 36003KT 10SM OVC110 A3017 RMK MADISHF
MIW,2017-04-01 21:50,-92.9163,42.1106,M,M,M,0.00,0.00,M,30.18,M,10.00,M,OVC,M,M,M,11000.00,M,M,M,M,KMIW 012150Z AUTO 00000KT 10SM OVC110 A3018 RMK MADISHF
MIW,2017-04-01 21:53,-92.9163,42.1106,54.00,35.10,48.65,0.00,0.00,0.00,30.18,1022.50,10.00,M,OVC,M,M,M,10000.00,M,M,M,M,KMIW 012153Z AUTO 00000KT 10SM OVC100 12/02 A3018 RMK AO2 SLP225 T01220017
MIW,2017-04-01 21:55,-92.9163,42.1106,M,M,M,0.00,0.00,M,30.18,M,10.00,M,OVC,M,M,M,10000.00,M,M,M,M,KMIW 012155Z AUTO 00000KT 10SM OVC100 A3018 RMK MADISHF
MIW,2017-04-01 22:00,-92.9163,42.1106,M,M,M,0.00,0.00,M,30.18,M,10.00,M,OVC,M,M,M,10000.00,M,M,M,M,KMIW 012200Z AUTO 00000KT 10SM OVC100 A3018 RMK MADISHF
MIW,2017-04-01 22:05,-92.9163,42.1106,M,M,M,0.00,0.00,M,30.18,M,10.00,M,OVC,M,M,M,10000.00,M,M,M,M,KMIW 012205Z AUTO 00000KT 10SM OVC100 A3018 RMK MADISHF
MIW,2017-04-01 22:10,-92.9163,42.1106,M,M,M,0.00,0.00,M,30.18,M,10.00,M,OVC,M,M,M,10000.00,M,M,M,M,KMIW 012210Z AUTO 00000KT 10SM OVC100 A3018 RMK MADISHF
MIW,2017-04-01 22:15,-92.9163,42.1106,M,M,M,0.00,0.00,M,30.18,M,10.00,M,OVC,M,M,M,10000.00,M,M,M,M,KMIW 012215Z AUTO 00000KT 10SM OVC100 A3018 RMK MADISHF
MIW,2017-04-01 22:20,-92.9163,42.1106,M,M,M,0.00,0.00,M,30.17,M,10.00,M,OVC,M,M,M,10000.00,M,M,M,M,KMIW 012220Z AUTO 00000KT 10SM OVC100 A3017 RMK MADISHF
MIW,2017-04-01 22:25,-92.9163,42.1106,M,M,M,180.00,3.00,M,30.17,M,10.00,M,BKN,OVC,M,M,9500.00,11000.00,M,M,M,KMIW 012225Z AUTO 18003KT 10SM BKN095 OVC110 A3017 RMK MADISHF
MIW,2017-04-01 22:30,-92.9163,42.1106,M,M,M,0.00,0.00,M,30.17,M,10.00,M,BKN,OVC,M,M,9500.00,11000.00,M,M,M,KMIW 012230Z AUTO 00000KT 10SM BKN095 OVC110 A3017 RMK MADISHF
MIW,2017-04-01 22:35,-92.9163,42.1106,M,M,M,210.00,3.00,M,30.17,M,10.00,M,BKN,OVC,M,M,10000.00,11000.00,M,M,M,KMIW 012235Z AUTO 21003KT 10SM BKN100 OVC110 A3017 RMK MADISHF
MIW,2017-04-01 22:40,-92.9163,42.1106,M,M,M,0.00,0.00,M,30.17,M,10.00,M,BKN,OVC,M,M,9500.00,11000.00,M,M,M,KMIW 012240Z AUTO 00000KT 10SM BKN095 OVC110 A3017 RMK MADISHF
MIW,2017-04-01 22:45,-92.9163,42.1106,M,M,M,0.00,0.00,M,30.17,M,10.00,M,BKN,OVC,M,M,9500.00,11000.00,M,M,M,KMIW 012245Z AUTO 00000KT 10SM BKN095 OVC110 A3017 RMK MADISHF
MIW,2017-04-01 22:50,-92.9163,42.1106,M,M,M,0.00,0.00,M,30.17,M,10.00,M,BKN,OVC,M,M,9500.00,11000.00,M,M,M,KMIW 012250Z AUTO 00000KT 10SM BKN095 OVC110 A3017 RMK MADISHF
MIW,2017-04-01 22:53,-92.9163,42.1106,54.00,35.10,48.65,0.00,0.00,0.00,30.16,1022.00,10.00,M,BKN,OVC,M,M,9500.00,11000.00,M,M,M,KMIW 012253Z AUTO 00000KT 10SM BKN095 OVC110 12/02 A3016 RMK AO2 SLP220 T01220017
MIW,2017-04-01 22:55,-92.9163,42.1106,M,M,M,0.00,0.00,M,30.16,M,10.00,M,BKN,OVC,M,M,9500.00,11000.00,M,M,M,KMIW 012255Z AUTO 00000KT 10SM BKN095 OVC110 A3016 RMK MADISHF
MIW,2017-04-01 23:00,-92.9163,42.1106,M,M,M,0.00,0.00,M,30.16,M,10.00,M,OVC,M,M,M,10000.00,M,M,M,M,KMIW 012300Z AUTO 00000KT 10SM OVC100 A3016 RMK MADISHF
MIW,2017-04-01 23:05,-92.9163,42.1106,M,M,M,0.00,0.00,M,30.16,M,10.00,M,OVC,M,M,M,10000.00,M,M,M,M,KMIW 012305Z AUTO 00000KT 10SM OVC100 A3016 RMK MADISHF
MIW,2017-04-01 23:10,-92.9163,42.1106,M,M,M,0.00,0.00,M,30.16,M,10.00,M,OVC,M,M,M,10000.00,M,M,M,M,KMIW 012310Z AUTO 00000KT 10SM OVC100 A3016 RMK MADISHF
MIW,2017-04-01 23:15,-92.9163,42.1106,M,M,M,0.00,0.00,M,30.15,M,10.00,M,OVC,M,M,M,10000.00,M,M,M,M,KMIW 012315Z AUTO 00000KT 10SM OVC100 A3015 RMK MADISHF
MIW,2017-04-01 23:20,-92.9163,42.1106,M,M,M,0.00,0.00,M,30.16,M,10.00,M,BKN,OVC,M,M,9000.00,10000.00,M,M,M,KMIW 012320Z AUTO 00000KT 10SM BKN090 OVC100 A3016 RMK MADISHF
MIW,2017-04-01 23:25,-92.9163,42.1106,M,M,M,0.00,0.00,M,30.16,M,10.00,M,BKN,OVC,M,M,9000.00,10000.00,M,M,M,KMIW 012325Z AUTO 00000KT 10SM BKN090 OVC100 A3016 RMK MADISHF
MIW,2017-04-01 23:30,-92.9163,42.1106,M,M,M,0.00,0.00,M,30.16,M,10.00,M,OVC,M,M,M,9000.00,M,M,M,M,KMIW 012330Z AUTO 00000KT 10SM OVC090 A3016 RMK MADISHF
MIW,2017-04-01 23:35,-92.9163,42.1106,M,M,M,0.00,0.00,M,30.16,M,10.00,M,OVC,M,M,M,9000.00,M,M,M,M,KMIW 012335Z AUTO 00000KT 10SM OVC090 A3016 RMK MADISHF
MIW,2017-04-01 23:40,-92.9163,42.1106,M,M,M,0.00,0.00,M,30.16,M,10.00,M,OVC,M,M,M,9000.00,M,M,M,M,KMIW 012340Z AUTO 00000KT 10SM OVC090 A3016 RMK MADISHF
MIW,2017-04-01 23:45,-92.9163,42.1106,M,M,M,0.00,0.00,M,30.16,M,10.00,M,OVC,M,M,M,9000.00,M,M,M,M,KMIW 012345Z AUTO 00000KT 10SM OVC090 A3016 RMK MADISHF
MIW,2017-04-01 23:50,-92.9163,42.1106,M,M,M,0.00,0.00,M,30.16,M,10.00,M,OVC,M,M,M,9000.00,M,M,M,M,KMIW 012350Z AUTO 00000KT 10SM OVC090 A3016 RMK MADISHF
MIW,2017-04-01 23:53,-92.9163,42.1106,53.10,37.00,54.21,210.00,3.00,0.00,30.16,1021.80,10.00,M,OVC,M,M,M,9000.00,M,M,M,M,KMIW 012353Z AUTO 21003KT 10SM OVC090 12/03 A3016 RMK AO2 SLP218 T01170028 10128 20117 58007
MIW,2017-04-01 23:55,-92.9163,42.1106,M,M,M,220.00,4.00,M,30.16,M,10.00,M,OVC,M,M,M,9000.00,M,M,M,M,KMIW 012355Z AUTO 22004KT 10SM OVC090 A3016 RMK MADISHF
