#DEBUG: Format Typ    -> comma
#DEBUG: Time Period   -> 2017-04-01 00:00:00+00:00 2017-04-02 00:00:00+00:00
#DEBUG: Time Zone     -> Etc/UTC
#DEBUG: Data Contact   -> daryl herzmann akrherz@iastate.edu 515-294-5978
#DEBUG: Entries Found -> -1
station,valid,lon,lat,tmpf, dwpf, relh, drct, sknt, p01i, alti, mslp, vsby, gust, skyc1, skyc2, skyc3, skyc4, skyl1, skyl2, skyl3, skyl4, presentwx, metar
MMK,2017-04-01 00:00,-72.8300,41.5100,M,M,M,50.00,6.00,0.01,29.92,M,5.00,M,OVC,M,M,M,1400.00,M,M,M,RA BR,KMMK 010000Z AUTO 05006KT 5SM RA BR OVC014 A2992 RMK P0001 MADISHF
MMK,2017-04-01 00:05,-72.8300,41.5100,M,M,M,50.00,6.00,0.01,29.92,M,5.00,M,OVC,M,M,M,1400.00,M,M,M,RA BR,KMMK 010005Z AUTO 05006KT 5SM RA BR OVC014 A2992 RMK P0001 MADISHF
MMK,2017-04-01 00:10,-72.8300,41.5100,M,M,M,50.00,5.00,0.02,29.92,M,5.00,M,OVC,M,M,M,1500.00,M,M,M,RA BR,KMMK 010010Z AUTO 05005KT 5SM RA BR OVC015 A2992 RMK P0002 MADISHF
MMK,2017-04-01 00:13,-72.8300,41.5100,37.90,34.00,85.69,60.00,8.00,0.02,29.92,M,5.00,M,OVC,M,M,M,1500.00,M,M,M,RA BR,KMMK 010013Z AUTO 06008KT 030V090 5SM RA BR OVC015 03/01 A2992 RMK AO2 P0002 T00330011 TSNO
MMK,2017-04-01 00:15,-72.8300,41.5100,M,M,M,70.00,6.00,0.02,29.92,M,5.00,M,OVC,M,M,M,1500.00,M,M,M,RA BR,KMMK 010015Z AUTO 07006KT 5SM RA BR OVC015 A2992 RMK P0002 MADISHF
MMK,2017-04-01 00:20,-72.8300,41.5100,M,M,M,60.00,8.00,0.03,29.92,M,5.00,M,OVC,M,M,M,1500.00,M,M,M,RA,KMMK 010020Z AUTO 06008KT 5SM RA OVC015 A2992 RMK P0003 MADISHF
MMK,2017-04-01 00:25,-72.8300,41.5100,M,M,M,60.00,7.00,0.03,29.92,M,6.00,M,OVC,M,M,M,1500.00,M,M,M,RA,KMMK 010025Z AUTO 06007KT 6SM RA OVC015 A2992 RMK P0003 MADISHF
MMK,2017-04-01 00:30,-72.8300,41.5100,M,M,M,50.00,7.00,0.03,29.91,M,6.00,M,OVC,M,M,M,1500.00,M,M,M,RA,KMMK 010030Z AUTO 05007KT 6SM RA OVC015 A2991 RMK P0003 MADISHF
MMK,2017-04-01 00:35,-72.8300,41.5100,M,M,M,80.00,7.00,0.03,29.91,M,6.00,M,OVC,M,M,M,1500.00,M,M,M,-RA,KMMK 010035Z AUTO 08007KT 6SM -RA OVC015 A2991 RMK P0003 MADISHF
MMK,2017-04-01 00:40,-72.8300,41.5100,M,M,M,60.00,7.00,0.03,29.91,M,7.00,M,OVC,M,M,M,1500.00,M,M,M,-RA,KMMK 010040Z AUTO 06007KT 7SM -RA OVC015 A2991 RMK P0003 MADISHF
MMK,2017-04-01 00:45,-72.8300,41.5100,M,M,M,50.00,9.00,0.04,29.91,M,6.00,M,OVC,M,M,M,1500.00,M,M,M,RA,KMMK 010045Z AUTO 05009KT 6SM RA OVC015 A2991 RMK P0004 WND 01V09  MADISHF
MMK,2017-04-01 00:50,-72.8300,41.5100,M,M,M,30.00,5.00,0.04,29.91,M,6.00,M,OVC,M,M,M,1500.00,M,M,M,RA,KMMK 010050Z AUTO 03005KT 6SM RA OVC015 A2991 RMK P0004 VRB05G15KT  MADISHF
MMK,2017-04-01 00:53,-72.8300,41.5100,37.90,33.10,82.66,M,6.00,0.05,29.91,1012.80,7.00,14.00,OVC,M,M,M,1500.00,M,M,M,RA,KMMK 010053Z AUTO VRB06G14KT 7SM RA OVC015 03/01 A2991 RMK AO2 SLP128 P0005 T00330006 TSNO
MMK,2017-04-01 00:55,-72.8300,41.5100,M,M,M,50.00,7.00,M,29.91,M,7.00,M,OVC,M,M,M,1500.00,M,M,M,RA,KMMK 010055Z AUTO 05007KT 7SM RA OVC015 A2991 RMK WND 02V09  MADISHF
MMK,2017-04-01 01:00,-72.8300,41.5100,M,M,M,40.00,7.00,0.01,29.90,M,6.00,M,BKN,OVC,M,M,1500.00,1900.00,M,M,RA BR,KMMK 010100Z AUTO 04007KT 6SM RA BR BKN015 OVC019 A2990 RMK P0001 MADISHF
MMK,2017-04-01 01:05,-72.8300,41.5100,M,M,M,60.00,5.00,0.02,29.90,M,5.00,M,OVC,M,M,M,1500.00,M,M,M,RA BR,KMMK 010105Z AUTO 06005KT 5SM RA BR OVC015 A2990 RMK P0002 VRB05KT  MADISHF
MMK,2017-04-01 01:10,-72.8300,41.5100,M,M,M,60.00,6.00,0.02,29.90,M,5.00,M,BKN,OVC,M,M,1500.00,1900.00,M,M,RA BR,KMMK 010110Z AUTO 06006KT 5SM RA BR BKN015 OVC019 A2990 RMK P0002 VRB06KT  MADISHF
MMK,2017-04-01 01:15,-72.8300,41.5100,M,M,M,60.00,7.00,0.03,29.90,M,5.00,M,BKN,OVC,M,M,1500.00,1900.00,M,M,RA BR,KMMK 010115Z AUTO 06007KT 5SM RA BR BKN015 OVC019 A2990 RMK P0003 MADISHF
MMK,2017-04-01 01:20,-72.8300,41.5100,M,M,M,50.00,8.00,0.03,29.90,M,6.00,M,BKN,OVC,M,M,1400.00,1900.00,M,M,RA BR,KMMK 010120Z AUTO 05008KT 6SM RA BR BKN014 OVC019 A2990 RMK P0003 MADISHF
MMK,2017-04-01 01:24,-72.8300,41.5100,37.00,33.10,85.64,60.00,7.00,0.03,29.90,M,6.00,M,OVC,M,M,M,1400.00,M,M,M,RA BR,KMMK 010124Z AUTO 06007KT 6SM RA BR OVC014 03/01 A2990 RMK AO2 P0003 T00280006 TSNO
MMK,2017-04-01 01:25,-72.8300,41.5100,M,M,M,60.00,7.00,0.04,29.90,M,6.00,M,OVC,M,M,M,1400.00,M,M,M,RA BR,KMMK 010125Z AUTO 06007KT 6SM RA BR OVC014 A2990 RMK P0004 MADISHF
MMK,2017-04-01 01:30,-72.8300,41.5100,M,M,M,50.00,4.00,0.04,29.89,M,6.00,M,BKN,OVC,M,M,1400.00,1999.00,M,M,RA BR,KMMK 010130Z AUTO 05004KT 6SM RA BR BKN014 OVC019 A2989 RMK P0004 VRB04KT  MADISHF
MMK,2017-04-01 01:35,-72.8300,41.5100,M,M,M,70.00,7.00,0.04,29.89,M,5.00,M,OVC,M,M,M,1400.00,M,M,M,RA BR,KMMK 010135Z AUTO 07007KT 5SM RA BR OVC014 A2989 RMK P0004 MADISHF
MMK,2017-04-01 01:40,-72.8300,41.5100,M,M,M,60.00,9.00,0.05,29.89,M,5.00,M,OVC,M,M,M,1600.00,M,M,M,RA BR,KMMK 010140Z AUTO 06009KT 5SM RA BR OVC016 A2989 RMK P0005 WND 02V10  MADISHF
MMK,2017-04-01 01:45,-72.8300,41.5100,M,M,M,60.00,8.00,0.05,29.89,M,5.00,M,OVC,M,M,M,1600.00,M,M,M,RA BR,KMMK 010145Z AUTO 06008KT 5SM RA BR OVC016 A2989 RMK P0005 MADISHF
MMK,2017-04-01 01:46,-72.8300,41.5100,37.00,33.10,85.64,60.00,10.00,0.05,29.89,M,5.00,M,OVC,M,M,M,1600.00,M,M,M,RA BR,KMMK 010146Z AUTO 06010KT 5SM RA BR OVC016 03/01 A2989 RMK AO2 P0005 T00280006 TSNO
MMK,2017-04-01 01:50,-72.8300,41.5100,M,M,M,60.00,6.00,0.05,29.89,M,4.00,M,OVC,M,M,M,1600.00,M,M,M,-RA BR,KMMK 010150Z AUTO 06006KT 4SM -RA BR OVC016 A2989 RMK P0005 MADISHF
MMK,2017-04-01 01:53,-72.8300,41.5100,37.00,33.10,85.64,M,6.00,0.05,29.89,1012.20,4.00,M,BKN,OVC,M,M,1600.00,2000.00,M,M,-RA BR,KMMK 010153Z AUTO VRB06KT 4SM -RA BR BKN016 OVC020 03/01 A2989 RMK AO2 SLP122 P0005 T00280006 TSNO
MMK,2017-04-01 01:55,-72.8300,41.5100,M,M,M,50.00,6.00,M,29.89,M,4.00,M,OVC,M,M,M,1600.00,M,M,M,-RA BR,KMMK 010155Z AUTO 05006KT 4SM -RA BR OVC016 A2989 RMK MADISHF
MMK,2017-04-01 02:00,-72.8300,41.5100,M,M,M,M,M,M,29.89,M,4.00,M,OVC,M,M,M,1600.00,M,M,M,-RA BR,KMMK 010200Z AUTO /////KT 4SM -RA BR OVC016 A2989 RMK MADISHF
MMK,2017-04-01 02:05,-72.8300,41.5100,M,M,M,50.00,8.00,M,29.88,M,4.00,M,OVC,M,M,M,1500.00,M,M,M,-RA BR,KMMK 010205Z AUTO 05008KT 4SM -RA BR OVC015 A2988 RMK WND 02V08  MADISHF
MMK,2017-04-01 02:10,-72.8300,41.5100,M,M,M,60.00,6.00,M,29.88,M,5.00,M,BKN,OVC,M,M,1500.00,1999.00,M,M,RA BR,KMMK 010210Z AUTO 06006KT 5SM RA BR BKN015 OVC019 A2988 RMK MADISHF
MMK,2017-04-01 02:15,-72.8300,41.5100,M,M,M,60.00,9.00,M,29.88,M,5.00,M,OVC,M,M,M,1500.00,M,M,M,-RA BR,KMMK 010215Z AUTO 06009KT 5SM -RA BR OVC015 A2988 RMK MADISHF
MMK,2017-04-01 02:20,-72.8300,41.5100,M,M,M,60.00,6.00,0.01,29.88,M,5.00,M,OVC,M,M,M,1500.00,M,M,M,RA BR,KMMK 010220Z AUTO 06006KT 5SM RA BR OVC015 A2988 RMK P0001 MADISHF
MMK,2017-04-01 02:25,-72.8300,41.5100,M,M,M,50.00,4.00,0.01,29.88,M,4.00,M,BKN,OVC,M,M,1500.00,1900.00,M,M,RA BR,KMMK 010225Z AUTO 05004KT 4SM RA BR BKN015 OVC019 A2988 RMK P0001 MADISHF
MMK,2017-04-01 02:30,-72.8300,41.5100,M,M,M,50.00,6.00,0.02,29.87,M,4.00,M,BKN,OVC,M,M,1500.00,1900.00,M,M,RA BR,KMMK 010230Z AUTO 05006KT 4SM RA BR BKN015 OVC019 A2987 RMK P0002 VRB06KT  MADISHF
MMK,2017-04-01 02:35,-72.8300,41.5100,M,M,M,70.00,9.00,0.02,29.86,M,4.00,M,BKN,OVC,M,M,1300.00,1999.00,M,M,-RA BR,KMMK 010235Z AUTO 07009KT 4SM -RA BR BKN013 OVC019 A2986 RMK P0002 MADISHF
MMK,2017-04-01 02:40,-72.8300,41.5100,M,M,M,40.00,7.00,0.02,29.86,M,5.00,M,BKN,OVC,M,M,1500.00,1999.00,M,M,-RA BR,KMMK 010240Z AUTO 04007KT 5SM -RA BR BKN015 OVC019 A2986 RMK P0002 MADISHF
MMK,2017-04-01 02:45,-72.8300,41.5100,M,M,M,70.00,7.00,0.02,29.86,M,5.00,M,BKN,OVC,M,M,1300.00,1999.00,M,M,-RA BR,KMMK 010245Z AUTO 07007KT 5SM -RA BR BKN013 OVC019 A2986 RMK P0002 MADISHF
MMK,2017-04-01 02:50,-72.8300,41.5100,M,M,M,60.00,9.00,0.02,29.85,M,5.00,M,BKN,OVC,M,M,1300.00,1999.00,M,M,-RA BR,KMMK 010250Z AUTO 06009KT 5SM -RA BR BKN013 OVC019 A2985 RMK P0002 MADISHF
MMK,2017-04-01 02:53,-72.8300,41.5100,37.00,32.00,81.93,60.00,9.00,0.02,29.85,1010.80,5.00,15.00,OVC,M,M,M,1500.00,M,M,M,-RA,KMMK 010253Z AUTO 06009G15KT 5SM -RA OVC015 03/00 A2985 RMK AO2 SLP108 P0002 60012 T00280000 58026 TSNO
MMK,2017-04-01 02:55,-72.8300,41.5100,M,M,M,60.00,8.00,M,29.84,M,5.00,M,BKN,OVC,M,M,1500.00,1999.00,M,M,-RA,KMMK 010255Z AUTO 06008KT 5SM -RA BKN015 OVC019 A2984 RMK MADISHF
MMK,2017-04-01 03:00,-72.8300,41.5100,M,M,M,50.00,8.00,M,29.84,M,4.00,M,OVC,M,M,M,1500.00,M,M,M,-RA BR,KMMK 010300Z AUTO 05008KT 4SM -RA BR OVC015 A2984 RMK WND 01V08  MADISHF
MMK,2017-04-01 03:05,-72.8300,41.5100,M,M,M,40.00,6.00,M,29.84,M,4.00,M,OVC,M,M,M,1500.00,M,M,M,-RA,KMMK 010305Z AUTO 04006KT 4SM -RA OVC015 A2984 RMK VRB06G15KT  MADISHF
MMK,2017-04-01 03:10,-72.8300,41.5100,M,M,M,50.00,6.00,M,29.84,M,4.00,M,OVC,M,M,M,1500.00,M,M,M,-RA BR,KMMK 010310Z AUTO 05006KT 4SM -RA BR OVC015 A2984 RMK MADISHF
MMK,2017-04-01 03:15,-72.8300,41.5100,M,M,M,60.00,7.00,M,29.84,M,3.50,M,OVC,M,M,M,1500.00,M,M,M,-RA BR,KMMK 010315Z AUTO 06007KT 3SM -RA BR OVC015 A2984 RMK MADISHF
MMK,2017-04-01 03:20,-72.8300,41.5100,M,M,M,50.00,10.00,M,29.83,M,3.00,M,BKN,OVC,M,M,1300.00,1900.00,M,M,-RA BR,KMMK 010320Z AUTO 05010KT 3SM -RA BR BKN013 OVC019 A2983 RMK MADISHF
MMK,2017-04-01 03:21,-72.8300,41.5100,37.00,33.10,85.64,50.00,9.00,0.00,29.83,M,2.50,14.00,BKN,OVC,M,M,1300.00,1900.00,M,M,-RA BR,KMMK 010321Z AUTO 05009G14KT 2 1/2SM -RA BR BKN013 OVC019 03/01 A2983 RMK AO2 P0000 T00280006 TSNO
MMK,2017-04-01 03:25,-72.8300,41.5100,M,M,M,50.00,7.00,M,29.83,M,2.50,M,BKN,OVC,M,M,1300.00,1699.00,M,M,-RA BR,KMMK 010325Z AUTO 05007KT 2 1/2SM -RA BR BKN013 OVC016 A2983 RMK WND 36V08  MADISHF
MMK,2017-04-01 03:30,-72.8300,41.5100,M,M,M,60.00,7.00,M,29.83,M,2.50,M,SCT,BKN,OVC,M,1300.00,1699.00,2200.00,M,-RA BR,KMMK 010330Z AUTO 06007KT 2 1/2SM -RA BR SCT013 BKN016 OVC022 A2983 RMK MADISHF
MMK,2017-04-01 03:33,-72.8300,41.5100,37.00,33.10,85.64,40.00,10.00,0.00,29.82,M,3.00,16.00,SCT,OVC,M,M,1200.00,1900.00,M,M,-RA BR,KMMK 010333Z AUTO 04010G16KT 3SM -RA BR SCT012 OVC019 03/01 A2982 RMK AO2 P0000 T00280006 TSNO
MMK,2017-04-01 03:35,-72.8300,41.5100,M,M,M,60.00,8.00,M,29.83,M,3.00,M,BKN,OVC,M,M,1200.00,1900.00,M,M,-RA,KMMK 010335Z AUTO 06008KT 3SM -RA BKN012 OVC019 A2983 RMK MADISHF
MMK,2017-04-01 03:40,-72.8300,41.5100,M,M,M,50.00,8.00,M,29.82,M,3.50,M,BKN,OVC,M,M,1400.00,1900.00,M,M,-RA BR,KMMK 010340Z AUTO 05008KT 3SM -RA BR BKN014 OVC019 A2982 RMK MADISHF
MMK,2017-04-01 03:41,-72.8300,41.5100,37.00,33.10,85.64,40.00,7.00,0.00,29.82,M,3.00,M,BKN,OVC,M,M,1400.00,1900.00,M,M,-RA BR,KMMK 010341Z AUTO 04007KT 3SM -RA BR BKN014 OVC019 03/01 A2982 RMK AO2 P0000 T00280006 TSNO
MMK,2017-04-01 03:45,-72.8300,41.5100,M,M,M,20.00,8.00,M,29.82,M,3.00,M,BKN,OVC,M,M,1400.00,1900.00,M,M,-RA BR,KMMK 010345Z AUTO 02008KT 3SM -RA BR BKN014 OVC019 A2982 RMK MADISHF
MMK,2017-04-01 03:50,-72.8300,41.5100,M,M,M,30.00,4.00,0.01,29.82,M,3.00,M,BKN,OVC,M,M,1400.00,1900.00,M,M,RA BR,KMMK 010350Z AUTO 03004KT 3SM RA BR BKN014 OVC019 A2982 RMK P0001 VRB04G14KT  MADISHF
MMK,2017-04-01 03:53,-72.8300,41.5100,36.00,33.10,89.09,40.00,8.00,0.02,29.82,1010.00,2.50,M,BKN,OVC,M,M,1400.00,1900.00,M,M,RA BR,KMMK 010353Z AUTO 04008KT 2 1/2SM RA BR BKN014 OVC019 02/01 A2982 RMK AO2 SLP100 P0002 T00220006 TSNO
MMK,2017-04-01 03:55,-72.8300,41.5100,M,M,M,40.00,5.00,M,29.82,M,2.50,M,BKN,OVC,M,M,1200.00,1900.00,M,M,RA BR,KMMK 010355Z AUTO 04005KT 2 1/2SM RA BR BKN012 OVC019 A2982 RMK VRB05KT  MADISHF
MMK,2017-04-01 03:58,-72.8300,41.5100,36.00,33.10,89.09,60.00,7.00,0.01,29.82,M,3.00,M,FEW,OVC,M,M,900.00,1400.00,M,M,RA BR,KMMK 010358Z AUTO 06007KT 3SM RA BR FEW009 OVC014 02/01 A2982 RMK AO2 P0001 T00220006 TSNO
MMK,2017-04-01 04:00,-72.8300,41.5100,M,M,M,50.00,5.00,0.02,29.82,M,3.00,M,FEW,OVC,M,M,900.00,1400.00,M,M,RA BR,KMMK 010400Z AUTO 05005KT 3SM RA BR FEW009 OVC014 A2982 RMK P0002 MADISHF
MMK,2017-04-01 04:05,-72.8300,41.5100,M,M,M,20.00,6.00,0.02,29.82,M,3.00,M,FEW,OVC,M,M,800.00,1300.00,M,M,+RA BR,KMMK 010405Z AUTO 02006KT 3SM +RA BR FEW008 OVC013 A2982 RMK P0002 MADISHF
MMK,2017-04-01 04:10,-72.8300,41.5100,M,M,M,20.00,6.00,0.02,29.82,M,3.00,M,FEW,OVC,M,M,800.00,1300.00,M,M,-RA BR,KMMK 010410Z AUTO 02006KT 3SM -RA BR FEW008 OVC013 A2982 RMK P0002 MADISHF
MMK,2017-04-01 04:15,-72.8300,41.5100,M,M,M,10.00,6.00,0.02,29.82,M,3.00,M,BKN,OVC,M,M,999.00,1600.00,M,M,-RA BR,KMMK 010415Z AUTO 01006KT 3SM -RA BR BKN009 OVC016 A2982 RMK P0002 MADISHF
MMK,2017-04-01 04:20,-72.8300,41.5100,M,M,M,20.00,8.00,0.02,29.81,M,2.50,M,FEW,OVC,M,M,800.00,1400.00,M,M,-RA BR,KMMK 010420Z AUTO 02008KT 2 1/2SM -RA BR FEW008 OVC014 A2981 RMK P0002 MADISHF
MMK,2017-04-01 04:25,-72.8300,41.5100,M,M,M,20.00,4.00,0.02,29.82,M,3.00,M,FEW,OVC,M,M,800.00,1400.00,M,M,RA BR,KMMK 010425Z AUTO 02004KT 3SM RA BR FEW008 OVC014 A2982 RMK P0002 MADISHF
MMK,2017-04-01 04:30,-72.8300,41.5100,M,M,M,10.00,6.00,0.02,29.81,M,4.00,M,OVC,M,M,M,1400.00,M,M,M,-RA BR,KMMK 010430Z AUTO 01006KT 4SM -RA BR OVC014 A2981 RMK P0002 MADISHF
MMK,2017-04-01 04:35,-72.8300,41.5100,M,M,M,10.00,5.00,0.02,29.81,M,4.00,M,FEW,OVC,M,M,900.00,1400.00,M,M,-RA BR,KMMK 010435Z AUTO 01005KT 4SM -RA BR FEW009 OVC014 A2981 RMK P0002 VRB05KT  MADISHF
MMK,2017-04-01 04:40,-72.8300,41.5100,M,M,M,20.00,6.00,0.02,29.81,M,5.00,M,OVC,M,M,M,1400.00,M,M,M,-RA BR,KMMK 010440Z AUTO 02006KT 5SM -RA BR OVC014 A2981 RMK P0002 MADISHF
MMK,2017-04-01 04:45,-72.8300,41.5100,M,M,M,10.00,7.00,0.02,29.81,M,4.00,M,OVC,M,M,M,1400.00,M,M,M,-RA BR,KMMK 010445Z AUTO 01007KT 4SM -RA BR OVC014 A2981 RMK P0002 WND 34V04  MADISHF
MMK,2017-04-01 04:50,-72.8300,41.5100,M,M,M,10.00,5.00,0.02,29.81,M,4.00,M,FEW,OVC,M,M,800.00,1400.00,M,M,-RA BR,KMMK 010450Z AUTO 01005KT 4SM -RA BR FEW008 OVC014 A2981 RMK P0002 MADISHF
MMK,2017-04-01 04:53,-72.8300,41.5100,36.00,33.10,89.09,20.00,7.00,0.02,29.81,1009.60,3.00,M,OVC,M,M,M,1400.00,M,M,M,-RA BR,KMMK 010453Z AUTO 02007KT 3SM -RA BR OVC014 02/01 A2981 RMK AO2 SLP096 P0002 T00220006 400500022 TSNO
MMK,2017-04-01 04:55,-72.8300,41.5100,M,M,M,10.00,6.00,M,29.81,M,3.50,M,FEW,OVC,M,M,800.00,1400.00,M,M,-RA BR,KMMK 010455Z AUTO 01006KT 3SM -RA BR FEW008 OVC014 A2981 RMK MADISHF
MMK,2017-04-01 05:00,-72.8300,41.5100,M,M,M,10.00,9.00,M,29.81,M,3.50,14.00,BKN,OVC,M,M,1400.00,1999.00,M,M,-RA BR,KMMK 010500Z AUTO 01009G14KT 3SM -RA BR BKN014 OVC019 A2981 RMK WND 34V05  MADISHF
MMK,2017-04-01 05:05,-72.8300,41.5100,M,M,M,360.00,6.00,M,29.81,M,3.50,M,BKN,OVC,M,M,1400.00,1900.00,M,M,-RA BR,KMMK 010505Z AUTO 36006KT 3SM -RA BR BKN014 OVC019 A2981 RMK MADISHF
MMK,2017-04-01 05:10,-72.8300,41.5100,M,M,M,10.00,6.00,M,29.80,M,3.00,M,OVC,M,M,M,1300.00,M,M,M,-RA BR,KMMK 010510Z AUTO 01006KT 3SM -RA BR OVC013 A2980 RMK MADISHF
MMK,2017-04-01 05:15,-72.8300,41.5100,M,M,M,10.00,7.00,M,29.80,M,3.00,M,BKN,OVC,M,M,1300.00,1800.00,M,M,-RA BR,KMMK 010515Z AUTO 01007KT 3SM -RA BR BKN013 OVC018 A2980 RMK MADISHF
MMK,2017-04-01 05:20,-72.8300,41.5100,M,M,M,20.00,8.00,0.01,29.80,M,3.00,M,BKN,OVC,M,M,1300.00,1800.00,M,M,RA BR,KMMK 010520Z AUTO 02008KT 3SM RA BR BKN013 OVC018 A2980 RMK P0001 MADISHF
MMK,2017-04-01 05:25,-72.8300,41.5100,M,M,M,20.00,7.00,0.01,29.79,M,3.00,M,BKN,OVC,M,M,1100.00,1800.00,M,M,-RA BR,KMMK 010525Z AUTO 02007KT 3SM -RA BR BKN011 OVC018 A2979 RMK P0001 MADISHF
MMK,2017-04-01 05:30,-72.8300,41.5100,M,M,M,10.00,6.00,0.01,29.79,M,3.00,M,FEW,BKN,OVC,M,600.00,1100.00,1800.00,M,-RA BR,KMMK 010530Z AUTO 01006KT 3SM -RA BR FEW006 BKN011 OVC018 A2979 RMK P0001 MADISHF
MMK,2017-04-01 05:32,-72.8300,41.5100,36.00,33.10,89.09,20.00,6.00,0.01,29.79,M,3.00,M,FEW,OVC,M,M,600.00,1500.00,M,M,-RA BR,KMMK 010532Z AUTO 02006KT 3SM -RA BR FEW006 OVC015 02/01 A2979 RMK AO2 P0001 T00220006 TSNO
MMK,2017-04-01 05:35,-72.8300,41.5100,M,M,M,20.00,7.00,0.01,29.79,M,3.00,M,SCT,OVC,M,M,1100.00,1699.00,M,M,-RA BR,KMMK 010535Z AUTO 02007KT 3SM -RA BR SCT011 OVC016 A2979 RMK P0001 MADISHF
MMK,2017-04-01 05:40,-72.8300,41.5100,M,M,M,10.00,7.00,0.01,29.79,M,3.00,M,FEW,SCT,OVC,M,700.00,1200.00,1800.00,M,-RA BR,KMMK 010540Z AUTO 01007KT 3SM -RA BR FEW007 SCT012 OVC018 A2979 RMK P0001 MADISHF
MMK,2017-04-01 05:45,-72.8300,41.5100,M,M,M,20.00,7.00,0.01,29.78,M,2.50,M,FEW,BKN,OVC,M,700.00,1400.00,1999.00,M,-RA BR,KMMK 010545Z AUTO 02007KT 2 1/2SM -RA BR FEW007 BKN014 OVC019 A2978 RMK P0001 WND 35V05  MADISHF
MMK,2017-04-01 05:48,-72.8300,41.5100,35.60,33.80,93.08,20.00,8.00,0.01,29.78,M,2.50,M,FEW,OVC,M,M,700.00,1400.00,M,M,RA BR,KMMK 010548Z AUTO 02008KT 2 1/2SM RA BR FEW007 OVC014 02/01 A2978 RMK AO2 P0001 TSNO
MMK,2017-04-01 05:50,-72.8300,41.5100,M,M,M,10.00,7.00,0.01,29.78,M,2.50,M,FEW,OVC,M,M,900.00,1600.00,M,M,RA BR,KMMK 010550Z AUTO 01007KT 2 1/2SM RA BR FEW009 OVC016 A2978 RMK P0001 MADISHF
MMK,2017-04-01 05:53,-72.8300,41.5100,36.00,33.10,89.09,10.00,7.00,0.01,29.78,1008.40,3.00,M,FEW,OVC,M,M,700.00,1600.00,M,M,-RA BR,KMMK 010553Z AUTO 01007KT 3SM -RA BR FEW007 OVC016 02/01 A2978 RMK AO2 SLP084 P0001 60017 T00220006 10033 20022 56016 TSNO
MMK,2017-04-01 05:55,-72.8300,41.5100,M,M,M,10.00,8.00,M,29.78,M,3.00,M,FEW,OVC,M,M,700.00,1600.00,M,M,-RA BR,KMMK 010555Z AUTO 01008KT 3SM -RA BR FEW007 OVC016 A2978 RMK MADISHF
MMK,2017-04-01 06:00,-72.8300,41.5100,M,M,M,20.00,7.00,M,29.77,M,3.00,M,SCT,OVC,M,M,900.00,1600.00,M,M,-RA BR,KMMK 010600Z AUTO 02007KT 3SM -RA BR SCT009 OVC016 A2977 RMK MADISHF
MMK,2017-04-01 06:05,-72.8300,41.5100,M,M,M,10.00,6.00,M,29.77,M,3.50,M,SCT,BKN,OVC,M,900.00,1600.00,1999.00,M,-RA BR,KMMK 010605Z AUTO 01006KT 3SM -RA BR SCT009 BKN016 OVC019 A2977 RMK VRB06KT  MADISHF
MMK,2017-04-01 06:10,-72.8300,41.5100,M,M,M,360.00,7.00,M,29.77,M,4.00,M,FEW,BKN,OVC,M,700.00,1500.00,2100.00,M,-RA BR,KMMK 010610Z AUTO 36007KT 4SM -RA BR FEW007 BKN015 OVC021 A2977 RMK MADISHF
MMK,2017-04-01 06:15,-72.8300,41.5100,M,M,M,10.00,6.00,M,29.77,M,3.50,M,SCT,OVC,M,M,900.00,1699.00,M,M,-RA BR,KMMK 010615Z AUTO 01006KT 3SM -RA BR SCT009 OVC016 A2977 RMK MADISHF
MMK,2017-04-01 06:20,-72.8300,41.5100,M,M,M,20.00,8.00,M,29.76,M,4.00,M,BKN,BKN,OVC,M,900.00,1200.00,1900.00,M,-RA BR,KMMK 010620Z AUTO 02008KT 4SM -RA BR BKN009 BKN012 OVC019 A2976 RMK MADISHF
MMK,2017-04-01 06:23,-72.8300,41.5100,36.00,33.10,89.09,M,6.00,0.00,29.76,M,4.00,M,FEW,BKN,OVC,M,600.00,900.00,1700.00,M,-RA BR,KMMK 010623Z AUTO VRB06KT 4SM -RA BR FEW006 BKN009 OVC017 02/01 A2976 RMK AO2 P0000 T00220006 TSNO
MMK,2017-04-01 06:25,-72.8300,41.5100,M,M,M,20.00,8.00,M,29.76,M,5.00,M,BKN,BKN,OVC,M,900.00,1200.00,1900.00,M,-RA BR,KMMK 010625Z AUTO 02008KT 5SM -RA BR BKN009 BKN012 OVC019 A2976 RMK MADISHF
MMK,2017-04-01 06:30,-72.8300,41.5100,M,M,M,20.00,8.00,0.00,29.76,M,6.00,M,BKN,BKN,OVC,M,900.00,1200.00,1900.00,M,UP BR,KMMK 010630Z AUTO 02008KT 6SM UP BR BKN009 BKN012 OVC019 A2976 RMK P0000 MADISHF
MMK,2017-04-01 06:35,-72.8300,41.5100,M,M,M,20.00,7.00,M,29.76,M,6.00,M,SCT,BKN,OVC,M,700.00,1200.00,1900.00,M,BR,KMMK 010635Z AUTO 02007KT 6SM BR SCT007 BKN012 OVC019 A2976 RMK WND 34V05  MADISHF
MMK,2017-04-01 06:40,-72.8300,41.5100,M,M,M,10.00,7.00,M,29.76,M,6.00,M,BKN,BKN,OVC,M,700.00,1200.00,1900.00,M,BR,KMMK 010640Z AUTO 01007KT 6SM BR BKN007 BKN012 OVC019 A2976 RMK MADISHF
MMK,2017-04-01 06:45,-72.8300,41.5100,M,M,M,20.00,10.00,M,29.76,M,5.00,M,BKN,BKN,OVC,M,900.00,1200.00,1900.00,M,-RA BR,KMMK 010645Z AUTO 02010KT 5SM -RA BR BKN009 BKN012 OVC019 A2976 RMK MADISHF
MMK,2017-04-01 06:50,-72.8300,41.5100,M,M,M,10.00,8.00,M,29.75,M,4.00,M,BKN,BKN,OVC,M,700.00,1200.00,1900.00,M,-RA BR,KMMK 010650Z AUTO 01008KT 4SM -RA BR BKN007 BKN012 OVC019 A2975 RMK MADISHF
MMK,2017-04-01 06:53,-72.8300,41.5100,36.00,33.10,89.09,10.00,10.00,0.00,29.75,1007.60,4.00,M,SCT,BKN,OVC,M,700.00,1200.00,1700.00,M,-RA BR,KMMK 010653Z AUTO 01010KT 4SM -RA BR SCT007 BKN012 OVC017 02/01 A2975 RMK AO2 UPB29E32 SLP076 P0000 T00220006 TSNO
MMK,2017-04-01 06:55,-72.8300,41.5100,M,M,M,360.00,8.00,M,29.75,M,4.00,M,SCT,BKN,OVC,M,700.00,1200.00,1699.00,M,-RA BR,KMMK 010655Z AUTO 36008KT 4SM -RA BR SCT007 BKN012 OVC016 A2975 RMK WND 33V03  MADISHF
MMK,2017-04-01 07:00,-72.8300,41.5100,M,M,M,360.00,9.00,M,29.75,M,5.00,M,BKN,OVC,M,M,700.00,1400.00,M,M,-RA BR,KMMK 010700Z AUTO 36009KT 5SM -RA BR BKN007 OVC014 A2975 RMK MADISHF
MMK,2017-04-01 07:02,-72.8300,41.5100,36.00,33.10,89.09,10.00,9.00,0.00,29.75,M,6.00,M,BKN,OVC,M,M,700.00,1400.00,M,M,-RA BR,KMMK 010702Z AUTO 01009KT 6SM -RA BR BKN007 OVC014 02/01 A2975 RMK AO2 P0000 T00220006 TSNO
MMK,2017-04-01 07:05,-72.8300,41.5100,M,M,M,20.00,6.00,M,29.75,M,6.00,M,BKN,OVC,M,M,800.00,1400.00,M,M,-RA BR,KMMK 010705Z AUTO 02006KT 6SM -RA BR BKN008 OVC014 A2975 RMK MADISHF
MMK,2017-04-01 07:10,-72.8300,41.5100,M,M,M,20.00,8.00,M,29.74,M,5.00,M,BKN,OVC,M,M,800.00,1200.00,M,M,-RA BR,KMMK 010710Z AUTO 02008KT 5SM -RA BR BKN008 OVC012 A2974 RMK MADISHF
MMK,2017-04-01 07:15,-72.8300,41.5100,M,M,M,10.00,8.00,M,29.73,M,3.50,M,BKN,OVC,M,M,700.00,1200.00,M,M,-RA BR,KMMK 010715Z AUTO 01008KT 3SM -RA BR BKN007 OVC012 A2973 RMK MADISHF
MMK,2017-04-01 07:20,-72.8300,41.5100,M,M,M,20.00,9.00,M,29.73,M,3.00,M,BKN,OVC,M,M,700.00,1500.00,M,M,-RA BR,KMMK 010720Z AUTO 02009KT 3SM -RA BR BKN007 OVC015 A2973 RMK MADISHF
MMK,2017-04-01 07:25,-72.8300,41.5100,M,M,M,20.00,7.00,M,29.73,M,4.00,M,BKN,OVC,M,M,700.00,1500.00,M,M,-RA BR,KMMK 010725Z AUTO 02007KT 4SM -RA BR BKN007 OVC015 A2973 RMK WND 35V06  MADISHF
MMK,2017-04-01 07:30,-72.8300,41.5100,M,M,M,10.00,10.00,M,29.73,M,4.00,15.00,OVC,M,M,M,700.00,M,M,M,-RA BR,KMMK 010730Z AUTO 01010G15KT 4SM -RA BR OVC007 A2973 RMK MADISHF
MMK,2017-04-01 07:35,-72.8300,41.5100,M,M,M,20.00,10.00,M,29.72,M,5.00,M,OVC,M,M,M,700.00,M,M,M,-RA BR,KMMK 010735Z AUTO 02010KT 5SM -RA BR OVC007 A2972 RMK MADISHF
MMK,2017-04-01 07:40,-72.8300,41.5100,M,M,M,20.00,9.00,M,29.72,M,5.00,M,BKN,OVC,M,M,700.00,1200.00,M,M,-RA BR,KMMK 010740Z AUTO 02009KT 5SM -RA BR BKN007 OVC012 A2972 RMK MADISHF
MMK,2017-04-01 07:45,-72.8300,41.5100,M,M,M,20.00,8.00,M,29.72,M,5.00,M,BKN,OVC,M,M,700.00,1200.00,M,M,-RA BR,KMMK 010745Z AUTO 02008KT 5SM -RA BR BKN007 OVC012 A2972 RMK MADISHF
MMK,2017-04-01 07:50,-72.8300,41.5100,M,M,M,10.00,7.00,M,29.72,M,5.00,M,OVC,M,M,M,700.00,M,M,M,-RA BR,KMMK 010750Z AUTO 01007KT 5SM -RA BR OVC007 A2972 RMK MADISHF
MMK,2017-04-01 07:53,-72.8300,41.5100,36.00,33.10,89.09,10.00,9.00,0.00,29.72,1006.50,5.00,M,OVC,M,M,M,700.00,M,M,M,-RA BR,KMMK 010753Z AUTO 01009KT 5SM -RA BR OVC007 02/01 A2972 RMK AO2 SLP065 P0000 T00220006 TSNO
MMK,2017-04-01 07:55,-72.8300,41.5100,M,M,M,20.00,7.00,M,29.72,M,4.00,M,OVC,M,M,M,700.00,M,M,M,-RA BR,KMMK 010755Z AUTO 02007KT 4SM -RA BR OVC007 A2972 RMK WND 34V07  MADISHF
MMK,2017-04-01 08:00,-72.8300,41.5100,M,M,M,20.00,8.00,M,29.71,M,3.50,M,OVC,M,M,M,700.00,M,M,M,-RA BR,KMMK 010800Z AUTO 02008KT 3SM -RA BR OVC007 A2971 RMK MADISHF
MMK,2017-04-01 08:05,-72.8300,41.5100,M,M,M,20.00,8.00,M,29.71,M,3.50,M,OVC,M,M,M,700.00,M,M,M,-RA BR,KMMK 010805Z AUTO 02008KT 3SM -RA BR OVC007 A2971 RMK MADISHF
MMK,2017-04-01 08:10,-72.8300,41.5100,M,M,M,20.00,9.00,M,29.71,M,4.00,M,OVC,M,M,M,700.00,M,M,M,-RA BR,KMMK 010810Z AUTO 02009KT 4SM -RA BR OVC007 A2971 RMK MADISHF
MMK,2017-04-01 08:15,-72.8300,41.5100,M,M,M,20.00,8.00,0.00,29.71,M,4.00,M,OVC,M,M,M,700.00,M,M,M,UP BR,KMMK 010815Z AUTO 02008KT 4SM UP BR OVC007 A2971 RMK P0000 WND 35V06  MADISHF
MMK,2017-04-01 08:20,-72.8300,41.5100,M,M,M,30.00,10.00,0.00,29.71,M,4.00,15.00,OVC,M,M,M,700.00,M,M,M,UP BR,KMMK 010820Z AUTO 03010G15KT 4SM UP BR OVC007 A2971 RMK P0000 WND 34V05  MADISHF
MMK,2017-04-01 08:25,-72.8300,41.5100,M,M,M,10.00,9.00,0.00,29.71,M,4.00,M,OVC,M,M,M,700.00,M,M,M,UP BR,KMMK 010825Z AUTO 01009KT 4SM UP BR OVC007 A2971 RMK P0000 MADISHF
MMK,2017-04-01 08:30,-72.8300,41.5100,M,M,M,10.00,10.00,0.00,29.71,M,4.00,M,OVC,M,M,M,700.00,M,M,M,UP BR,KMMK 010830Z AUTO 01010KT 4SM UP BR OVC007 A2971 RMK P0000 CIG 6V10  MADISHF
MMK,2017-04-01 08:35,-72.8300,41.5100,M,M,M,20.00,10.00,0.00,29.71,M,5.00,M,OVC,M,M,M,700.00,M,M,M,UP BR,KMMK 010835Z AUTO 02010KT 5SM UP BR OVC007 A2971 RMK P0000 CIG 6V9  MADISHF
MMK,2017-04-01 08:40,-72.8300,41.5100,M,M,M,30.00,11.00,0.00,29.70,M,4.00,M,OVC,M,M,M,700.00,M,M,M,UP BR,KMMK 010840Z AUTO 03011KT 4SM UP BR OVC007 A2970 RMK P0000 CIG 6V13  MADISHF
MMK,2017-04-01 08:45,-72.8300,41.5100,M,M,M,10.00,10.00,0.00,29.70,M,3.00,M,OVC,M,M,M,700.00,M,M,M,UP BR,KMMK 010845Z AUTO 01010KT 3SM UP BR OVC007 A2970 RMK P0000 MADISHF
MMK,2017-04-01 08:50,-72.8300,41.5100,M,M,M,10.00,9.00,M,29.70,M,3.00,M,OVC,M,M,M,800.00,M,M,M,-RA BR,KMMK 010850Z AUTO 01009KT 3SM -RA BR OVC008 A2970 RMK MADISHF
MMK,2017-04-01 08:53,-72.8300,41.5100,36.00,33.10,89.09,10.00,7.00,0.00,29.70,1006.00,3.00,M,BKN,OVC,M,M,800.00,1100.00,M,M,-RA BR,KMMK 010853Z AUTO 01007KT 3SM -RA BR BKN008 OVC011 02/01 A2970 RMK AO2 RAE15B46UPB15E46 SLP060 P0000 60000 T00220006 56024 TSNO
MMK,2017-04-01 08:55,-72.8300,41.5100,M,M,M,10.00,7.00,M,29.70,M,3.00,M,BKN,OVC,M,M,800.00,1100.00,M,M,-RA BR,KMMK 010855Z AUTO 01007KT 3SM -RA BR BKN008 OVC011 A2970 RMK MADISHF
MMK,2017-04-01 09:00,-72.8300,41.5100,M,M,M,10.00,13.00,M,29.70,M,3.00,18.00,BKN,OVC,M,M,800.00,1100.00,M,M,-RA BR,KMMK 010900Z AUTO 01013G18KT 3SM -RA BR BKN008 OVC011 A2970 RMK MADISHF
MMK,2017-04-01 09:05,-72.8300,41.5100,M,M,M,10.00,10.00,M,29.70,M,3.50,M,BKN,OVC,M,M,700.00,1100.00,M,M,-RA BR,KMMK 010905Z AUTO 01010KT 3SM -RA BR BKN007 OVC011 A2970 RMK MADISHF
MMK,2017-04-01 09:10,-72.8300,41.5100,M,M,M,10.00,11.00,M,29.70,M,4.00,17.00,BKN,OVC,M,M,700.00,1400.00,M,M,-RA BR,KMMK 010910Z AUTO 01011G17KT 4SM -RA BR BKN007 OVC014 A2970 RMK MADISHF
MMK,2017-04-01 09:15,-72.8300,41.5100,M,M,M,10.00,9.00,M,29.70,M,4.00,15.00,BKN,OVC,M,M,700.00,1400.00,M,M,-RA BR,KMMK 010915Z AUTO 01009G15KT 4SM -RA BR BKN007 OVC014 A2970 RMK MADISHF
MMK,2017-04-01 09:20,-72.8300,41.5100,M,M,M,10.00,10.00,M,29.70,M,4.00,16.00,BKN,OVC,M,M,700.00,1400.00,M,M,-RA BR,KMMK 010920Z AUTO 01010G16KT 4SM -RA BR BKN007 OVC014 A2970 RMK MADISHF
MMK,2017-04-01 09:25,-72.8300,41.5100,M,M,M,360.00,12.00,M,29.71,M,4.00,M,BKN,OVC,M,M,700.00,1200.00,M,M,-RA BR,KMMK 010925Z AUTO 36012KT 4SM -RA BR BKN007 OVC012 A2971 RMK MADISHF
MMK,2017-04-01 09:30,-72.8300,41.5100,M,M,M,10.00,12.00,M,29.71,M,4.00,M,BKN,OVC,M,M,700.00,1500.00,M,M,-RA BR,KMMK 010930Z AUTO 01012KT 4SM -RA BR BKN007 OVC015 A2971 RMK MADISHF
MMK,2017-04-01 09:35,-72.8300,41.5100,M,M,M,10.00,10.00,M,29.71,M,4.00,M,BKN,OVC,M,M,700.00,1300.00,M,M,-RA BR,KMMK 010935Z AUTO 01010KT 4SM -RA BR BKN007 OVC013 A2971 RMK MADISHF
MMK,2017-04-01 09:40,-72.8300,41.5100,M,M,M,360.00,9.00,M,29.71,M,4.00,M,BKN,OVC,M,M,700.00,1300.00,M,M,-RA BR,KMMK 010940Z AUTO 36009KT 4SM -RA BR BKN007 OVC013 A2971 RMK WND 34V04  MADISHF
MMK,2017-04-01 09:45,-72.8300,41.5100,M,M,M,360.00,11.00,M,29.71,M,4.00,M,BKN,OVC,M,M,700.00,1300.00,M,M,-RA BR,KMMK 010945Z AUTO 36011KT 4SM -RA BR BKN007 OVC013 A2971 RMK MADISHF
MMK,2017-04-01 09:50,-72.8300,41.5100,M,M,M,10.00,11.00,M,29.72,M,4.00,M,OVC,M,M,M,700.00,M,M,M,-RA BR,KMMK 010950Z AUTO 01011KT 4SM -RA BR OVC007 A2972 RMK MADISHF
MMK,2017-04-01 09:53,-72.8300,41.5100,36.00,33.10,89.09,10.00,10.00,0.00,29.71,1006.40,4.00,16.00,OVC,M,M,M,700.00,M,M,M,-RA BR,KMMK 010953Z AUTO 01010G16KT 4SM -RA BR OVC007 02/01 A2971 RMK AO2 SLP064 P0000 T00220006 TSNO
MMK,2017-04-01 09:55,-72.8300,41.5100,M,M,M,360.00,9.00,M,29.71,M,3.50,M,OVC,M,M,M,700.00,M,M,M,-RA BR,KMMK 010955Z AUTO 36009KT 3SM -RA BR OVC007 A2971 RMK MADISHF
MMK,2017-04-01 10:00,-72.8300,41.5100,M,M,M,350.00,10.00,M,29.71,M,3.00,M,OVC,M,M,M,700.00,M,M,M,-RA BR,KMMK 011000Z AUTO 35010KT 3SM -RA BR OVC007 A2971 RMK CIG 6V12  MADISHF
MMK,2017-04-01 10:05,-72.8300,41.5100,M,M,M,360.00,10.00,M,29.72,M,3.00,M,OVC,M,M,M,700.00,M,M,M,-RA BR,KMMK 011005Z AUTO 36010KT 3SM -RA BR OVC007 A2972 RMK CIG 6V10  MADISHF
MMK,2017-04-01 10:10,-72.8300,41.5100,M,M,M,360.00,13.00,M,29.72,M,3.50,19.00,OVC,M,M,M,700.00,M,M,M,-RA BR,KMMK 011010Z AUTO 36013G19KT 3SM -RA BR OVC007 A2972 RMK MADISHF
MMK,2017-04-01 10:15,-72.8300,41.5100,M,M,M,10.00,9.00,M,29.72,M,3.00,14.00,OVC,M,M,M,700.00,M,M,M,-RA BR,KMMK 011015Z AUTO 01009G14KT 3SM -RA BR OVC007 A2972 RMK MADISHF
MMK,2017-04-01 10:20,-72.8300,41.5100,M,M,M,10.00,12.00,M,29.72,M,3.00,M,OVC,M,M,M,800.00,M,M,M,-RA BR,KMMK 011020Z AUTO 01012KT 3SM -RA BR OVC008 A2972 RMK MADISHF
MMK,2017-04-01 10:25,-72.8300,41.5100,M,M,M,360.00,11.00,M,29.72,M,3.50,M,OVC,M,M,M,800.00,M,M,M,-RA BR,KMMK 011025Z AUTO 36011KT 3SM -RA BR OVC008 A2972 RMK MADISHF
MMK,2017-04-01 10:30,-72.8300,41.5100,M,M,M,360.00,8.00,M,29.72,M,3.50,M,OVC,M,M,M,800.00,M,M,M,-RA BR,KMMK 011030Z AUTO 36008KT 3SM -RA BR OVC008 A2972 RMK MADISHF
MMK,2017-04-01 10:35,-72.8300,41.5100,M,M,M,10.00,12.00,M,29.72,M,3.50,17.00,OVC,M,M,M,800.00,M,M,M,-RA BR,KMMK 011035Z AUTO 01012G17KT 3SM -RA BR OVC008 A2972 RMK MADISHF
MMK,2017-04-01 10:40,-72.8300,41.5100,M,M,M,360.00,8.00,M,29.72,M,4.00,M,OVC,M,M,M,900.00,M,M,M,-RA BR,KMMK 011040Z AUTO 36008KT 4SM -RA BR OVC009 A2972 RMK MADISHF
MMK,2017-04-01 10:45,-72.8300,41.5100,M,M,M,10.00,10.00,M,29.72,M,3.00,M,OVC,M,M,M,900.00,M,M,M,-RA BR,KMMK 011045Z AUTO 01010KT 3SM -RA BR OVC009 A2972 RMK MADISHF
MMK,2017-04-01 10:50,-72.8300,41.5100,M,M,M,360.00,12.00,M,29.72,M,2.50,M,OVC,M,M,M,800.00,M,M,M,-RA BR,KMMK 011050Z AUTO 36012KT 2 1/2SM -RA BR OVC008 A2972 RMK MADISHF
MMK,2017-04-01 10:53,-72.8300,41.5100,36.00,33.10,89.09,360.00,11.00,0.00,29.72,1006.50,2.50,18.00,OVC,M,M,M,800.00,M,M,M,-RA BR,KMMK 011053Z AUTO 36011G18KT 2 1/2SM -RA BR OVC008 02/01 A2972 RMK AO2 SLP065 P0000 T00220006 TSNO
MMK,2017-04-01 10:55,-72.8300,41.5100,M,M,M,360.00,13.00,M,29.72,M,2.50,M,OVC,M,M,M,800.00,M,M,M,-RA BR,KMMK 011055Z AUTO 36013KT 2 1/2SM -RA BR OVC008 A2972 RMK MADISHF
MMK,2017-04-01 11:00,-72.8300,41.5100,M,M,M,360.00,11.00,0.00,29.72,M,2.50,M,OVC,M,M,M,800.00,M,M,M,UP BR,KMMK 011100Z AUTO 36011KT 2 1/2SM UP BR OVC008 A2972 RMK P0000 MADISHF
MMK,2017-04-01 11:05,-72.8300,41.5100,M,M,M,360.00,12.00,0.00,29.72,M,2.50,M,OVC,M,M,M,800.00,M,M,M,UP BR,KMMK 011105Z AUTO 36012KT 2 1/2SM UP BR OVC008 A2972 RMK P0000 MADISHF
MMK,2017-04-01 11:10,-72.8300,41.5100,M,M,M,360.00,14.00,M,29.72,M,2.50,19.00,OVC,M,M,M,800.00,M,M,M,-RA BR,KMMK 011110Z AUTO 36014G19KT 2 1/2SM -RA BR OVC008 A2972 RMK MADISHF
MMK,2017-04-01 11:15,-72.8300,41.5100,M,M,M,360.00,12.00,M,29.73,M,2.50,M,OVC,M,M,M,800.00,M,M,M,-RA BR,KMMK 011115Z AUTO 36012KT 2 1/2SM -RA BR OVC008 A2973 RMK CIG 7V12  MADISHF
MMK,2017-04-01 11:20,-72.8300,41.5100,M,M,M,360.00,10.00,M,29.73,M,2.50,15.00,OVC,M,M,M,800.00,M,M,M,-RA BR,KMMK 011120Z AUTO 36010G15KT 2 1/2SM -RA BR OVC008 A2973 RMK CIG 7V12  MADISHF
MMK,2017-04-01 11:25,-72.8300,41.5100,M,M,M,360.00,11.00,M,29.73,M,2.50,M,OVC,M,M,M,800.00,M,M,M,-RA BR,KMMK 011125Z AUTO 36011KT 2 1/2SM -RA BR OVC008 A2973 RMK MADISHF
MMK,2017-04-01 11:30,-72.8300,41.5100,M,M,M,10.00,10.00,M,29.73,M,2.50,16.00,OVC,M,M,M,800.00,M,M,M,-RA BR,KMMK 011130Z AUTO 01010G16KT 2 1/2SM -RA BR OVC008 A2973 RMK CIG 7V12  MADISHF
MMK,2017-04-01 11:35,-72.8300,41.5100,M,M,M,360.00,10.00,M,29.73,M,3.00,15.00,OVC,M,M,M,800.00,M,M,M,-RA BR,KMMK 011135Z AUTO 36010G15KT 3SM -RA BR OVC008 A2973 RMK CIG 7V12  MADISHF
MMK,2017-04-01 11:40,-72.8300,41.5100,37.00,33.10,85.64,360.00,9.00,0.00,29.73,M,3.00,21.00,OVC,M,M,M,800.00,M,M,M,-RA BR,KMMK 011140Z AUTO 36009G21KT 3SM -RA BR OVC008 03/01 A2973 RMK AO2 UPB1059E09 CIG 007V012 P0000 T00280006 TSNO
MMK,2017-04-01 11:45,-72.8300,41.5100,M,M,M,360.00,11.00,M,29.73,M,3.00,M,OVC,M,M,M,800.00,M,M,M,-RA BR,KMMK 011145Z AUTO 36011KT 3SM -RA BR OVC008 A2973 RMK CIG 7V12  MADISHF
MMK,2017-04-01 11:50,-72.8300,41.5100,M,M,M,360.00,10.00,M,29.74,M,3.00,19.00,OVC,M,M,M,800.00,M,M,M,-RA BR,KMMK 011150Z AUTO 36010G19KT 3SM -RA BR OVC008 A2974 RMK WND 33V04 CIG 7V12  MADISHF
MMK,2017-04-01 11:53,-72.8300,41.5100,37.00,33.10,85.64,360.00,14.00,0.00,29.74,1007.10,3.00,21.00,OVC,M,M,M,800.00,M,M,M,-RA BR,KMMK 011153Z AUTO 36014G21KT 3SM -RA BR OVC008 03/01 A2974 RMK AO2 UPB1059E09 CIG 007V011 SLP071 P0000 60000 70044 T00280006 10028 20022 53011 TSNO
MMK,2017-04-01 11:55,-72.8300,41.5100,M,M,M,360.00,11.00,M,29.74,M,3.00,16.00,OVC,M,M,M,800.00,M,M,M,-RA BR,KMMK 011155Z AUTO 36011G16KT 3SM -RA BR OVC008 A2974 RMK CIG 7V11  MADISHF
MMK,2017-04-01 12:00,-72.8300,41.5100,M,M,M,360.00,10.00,M,29.74,M,3.00,18.00,OVC,M,M,M,800.00,M,M,M,-RA BR,KMMK 011200Z AUTO 36010G18KT 3SM -RA BR OVC008 A2974 RMK WND 33V04 CIG 7V12  MADISHF
MMK,2017-04-01 12:05,-72.8300,41.5100,M,M,M,360.00,12.00,M,29.74,M,3.00,M,OVC,M,M,M,900.00,M,M,M,-RA BR,KMMK 011205Z AUTO 36012KT 3SM -RA BR OVC009 A2974 RMK CIG 7V12  MADISHF
MMK,2017-04-01 12:10,-72.8300,41.5100,M,M,M,10.00,12.00,M,29.74,M,3.50,M,OVC,M,M,M,900.00,M,M,M,-RA BR,KMMK 011210Z AUTO 01012KT 3SM -RA BR OVC009 A2974 RMK MADISHF
MMK,2017-04-01 12:15,-72.8300,41.5100,M,M,M,10.00,12.00,M,29.74,M,3.50,M,OVC,M,M,M,900.00,M,M,M,-RA BR,KMMK 011215Z AUTO 01012KT 3SM -RA BR OVC009 A2974 RMK MADISHF
MMK,2017-04-01 12:20,-72.8300,41.5100,M,M,M,360.00,11.00,M,29.74,M,3.00,M,OVC,M,M,M,900.00,M,M,M,-RA BR,KMMK 011220Z AUTO 36011KT 3SM -RA BR OVC009 A2974 RMK CIG 8V14  MADISHF
MMK,2017-04-01 12:25,-72.8300,41.5100,M,M,M,360.00,14.00,M,29.74,M,3.00,M,OVC,M,M,M,999.00,M,M,M,-RA BR,KMMK 011225Z AUTO 36014KT 3SM -RA BR OVC009 A2974 RMK CIG 8V14  MADISHF
MMK,2017-04-01 12:28,-72.8300,41.5100,37.00,33.10,85.64,360.00,10.00,0.00,29.74,M,3.00,22.00,OVC,M,M,M,1000.00,M,M,M,-RA BR,KMMK 011228Z AUTO 36010G22KT 3SM -RA BR OVC010 03/01 A2974 RMK AO2 PK WND 04027/1206 CIG 008V014 P0000 T00280006 TSNO
MMK,2017-04-01 12:30,-72.8300,41.5100,M,M,M,360.00,13.00,M,29.75,M,3.50,18.00,OVC,M,M,M,999.00,M,M,M,-RA BR,KMMK 011230Z AUTO 36013G18KT 3SM -RA BR OVC009 A2975 RMK CIG 8V14  MADISHF
MMK,2017-04-01 12:35,-72.8300,41.5100,M,M,M,M,M,M,29.74,M,3.00,22.00,OVC,M,M,M,999.00,M,M,M,-RA BR,KMMK 011235Z AUTO /////G22KT 3SM -RA BR OVC009 A2974 RMK CIG 8V14  MADISHF
MMK,2017-04-01 12:40,-72.8300,41.5100,M,M,M,360.00,12.00,0.00,29.75,M,2.50,M,OVC,M,M,M,999.00,M,M,M,UP BR,KMMK 011240Z AUTO 36012KT 2 1/2SM UP BR OVC009 A2975 RMK P0000 MADISHF
MMK,2017-04-01 12:45,-72.8300,41.5100,37.00,33.10,85.64,350.00,14.00,0.00,29.75,M,2.50,22.00,OVC,M,M,M,1000.00,M,M,M,-RA BR,KMMK 011245Z AUTO 35014G22KT 2 1/2SM -RA BR OVC010 03/01 A2975 RMK AO2 PK WND 04027/1206 UPB40E41 P0000 T00280006 TSNO
MMK,2017-04-01 12:50,-72.8300,41.5100,M,M,M,360.00,13.00,0.00,29.75,M,3.00,M,OVC,M,M,M,1100.00,M,M,M,UP BR,KMMK 011250Z AUTO 36013KT 3SM UP BR OVC011 A2975 RMK P0000 MADISHF
MMK,2017-04-01 12:53,-72.8300,41.5100,37.00,33.10,85.64,360.00,16.00,0.00,29.75,1007.40,2.50,25.00,OVC,M,M,M,1100.00,M,M,M,UP BR,KMMK 011253Z AUTO 36016G25KT 2 1/2SM UP BR OVC011 03/01 A2975 RMK AO2 PK WND 04027/1206 RAE48UPB40E41B48 SLP074 P0000 T00280006 TSNO
MMK,2017-04-01 12:55,-72.8300,41.5100,M,M,M,360.00,16.00,0.00,29.75,M,2.50,21.00,OVC,M,M,M,1100.00,M,M,M,UP BR,KMMK 011255Z AUTO 36016G21KT 2 1/2SM UP BR OVC011 A2975 RMK P0000 MADISHF
MMK,2017-04-01 13:00,-72.8300,41.5100,M,M,M,M,M,M,29.75,M,2.50,M,OVC,M,M,M,1100.00,M,M,M,-RA BR,KMMK 011300Z AUTO /////KT 2 1/2SM -RA BR OVC011 A2975 RMK MADISHF
MMK,2017-04-01 13:05,-72.8300,41.5100,M,M,M,360.00,14.00,M,29.75,M,3.00,M,OVC,M,M,M,1100.00,M,M,M,-RA BR,KMMK 011305Z AUTO 36014KT 3SM -RA BR OVC011 A2975 RMK MADISHF
MMK,2017-04-01 13:08,-72.8300,41.5100,37.00,33.10,85.64,10.00,12.00,0.00,29.75,M,3.00,24.00,OVC,M,M,M,1100.00,M,M,M,-RA BR,KMMK 011308Z AUTO 01012G24KT 3SM -RA BR OVC011 03/01 A2975 RMK AO2 PK WND 02026/1257 UPE00RAB00 P0000 T00280006 TSNO
MMK,2017-04-01 13:10,-72.8300,41.5100,M,M,M,360.00,17.00,M,29.75,M,3.00,M,OVC,M,M,M,1100.00,M,M,M,-RA BR,KMMK 011310Z AUTO 36017KT 3SM -RA BR OVC011 A2975 RMK MADISHF
MMK,2017-04-01 13:15,-72.8300,41.5100,M,M,M,360.00,13.00,M,29.75,M,3.00,M,OVC,M,M,M,1100.00,M,M,M,-RA BR,KMMK 011315Z AUTO 36013KT 3SM -RA BR OVC011 A2975 RMK MADISHF
MMK,2017-04-01 13:20,-72.8300,41.5100,M,M,M,360.00,16.00,M,29.75,M,3.00,M,OVC,M,M,M,1300.00,M,M,M,-RA,KMMK 011320Z AUTO 36016KT 3SM -RA OVC013 A2975 RMK MADISHF
MMK,2017-04-01 13:25,-72.8300,41.5100,M,M,M,M,M,M,29.75,M,3.00,M,OVC,M,M,M,1300.00,M,M,M,-RA,KMMK 011325Z AUTO /////KT 3SM -RA OVC013 A2975 RMK MADISHF
MMK,2017-04-01 13:30,-72.8300,41.5100,M,M,M,360.00,17.00,M,29.75,M,3.00,22.00,OVC,M,M,M,1300.00,M,M,M,-RA,KMMK 011330Z AUTO 36017G22KT 3SM -RA OVC013 A2975 RMK MADISHF
MMK,2017-04-01 13:35,-72.8300,41.5100,M,M,M,360.00,14.00,M,29.75,M,2.50,22.00,BKN,OVC,M,M,1200.00,1800.00,M,M,-RA,KMMK 011335Z AUTO 36014G22KT 2 1/2SM -RA BKN012 OVC018 A2975 RMK MADISHF
MMK,2017-04-01 13:39,-72.8300,41.5100,37.90,33.10,82.66,360.00,17.00,0.00,29.75,M,2.50,28.00,OVC,M,M,M,1200.00,M,M,M,-RA,KMMK 011339Z AUTO 36017G28KT 2 1/2SM -RA OVC012 03/01 A2975 RMK AO2 PK WND 02028/1339 UPE00RAB00 P0000 T00330006 TSNO
MMK,2017-04-01 13:40,-72.8300,41.5100,M,M,M,M,M,M,29.75,M,2.50,M,OVC,M,M,M,1200.00,M,M,M,-RA,KMMK 011340Z AUTO /////KT 2 1/2SM -RA OVC012 A2975 RMK MADISHF
MMK,2017-04-01 13:45,-72.8300,41.5100,M,M,M,360.00,12.00,M,29.75,M,2.50,17.00,OVC,M,M,M,1200.00,M,M,M,-RA,KMMK 011345Z AUTO 36012G17KT 2 1/2SM -RA OVC012 A2975 RMK MADISHF
MMK,2017-04-01 13:50,-72.8300,41.5100,M,M,M,360.00,15.00,M,29.76,M,3.00,M,OVC,M,M,M,1200.00,M,M,M,-RA BR,KMMK 011350Z AUTO 36015KT 3SM -RA BR OVC012 A2976 RMK MADISHF
MMK,2017-04-01 13:53,-72.8300,41.5100,37.90,34.00,85.69,360.00,17.00,0.00,29.76,1007.90,3.00,24.00,OVC,M,M,M,1200.00,M,M,M,-RA BR,KMMK 011353Z AUTO 36017G24KT 3SM -RA BR OVC012 03/01 A2976 RMK AO2 PK WND 02028/1339 UPE00RAB00 SLP079 P0000 T00330011 TSNO
MMK,2017-04-01 13:55,-72.8300,41.5100,M,M,M,360.00,15.00,M,29.76,M,3.00,M,OVC,M,M,M,1200.00,M,M,M,-RA,KMMK 011355Z AUTO 36015KT 3SM -RA OVC012 A2976 RMK MADISHF
MMK,2017-04-01 14:00,-72.8300,41.5100,M,M,M,360.00,15.00,M,29.76,M,3.50,20.00,OVC,M,M,M,1200.00,M,M,M,-RA BR,KMMK 011400Z AUTO 36015G20KT 3SM -RA BR OVC012 A2976 RMK MADISHF
MMK,2017-04-01 14:05,-72.8300,41.5100,M,M,M,360.00,15.00,M,29.76,M,4.00,M,OVC,M,M,M,1200.00,M,M,M,-RA BR,KMMK 011405Z AUTO 36015KT 4SM -RA BR OVC012 A2976 RMK MADISHF
MMK,2017-04-01 14:10,-72.8300,41.5100,M,M,M,360.00,14.00,M,29.76,M,4.00,19.00,OVC,M,M,M,1200.00,M,M,M,-RA BR,KMMK 011410Z AUTO 36014G19KT 4SM -RA BR OVC012 A2976 RMK MADISHF
MMK,2017-04-01 14:15,-72.8300,41.5100,M,M,M,M,M,M,29.77,M,4.00,M,OVC,M,M,M,1200.00,M,M,M,-RA BR,KMMK 011415Z AUTO /////KT 4SM -RA BR OVC012 A2977 RMK MADISHF
MMK,2017-04-01 14:20,-72.8300,41.5100,M,M,M,360.00,13.00,M,29.77,M,5.00,M,OVC,M,M,M,1200.00,M,M,M,-RA BR,KMMK 011420Z AUTO 36013KT 5SM -RA BR OVC012 A2977 RMK MADISHF
MMK,2017-04-01 14:25,-72.8300,41.5100,M,M,M,360.00,14.00,M,29.77,M,5.00,M,OVC,M,M,M,1300.00,M,M,M,-RA,KMMK 011425Z AUTO 36014KT 5SM -RA OVC013 A2977 RMK MADISHF
MMK,2017-04-01 14:30,-72.8300,41.5100,M,M,M,360.00,17.00,M,29.77,M,6.00,M,OVC,M,M,M,1300.00,M,M,M,-RA,KMMK 011430Z AUTO 36017KT 6SM -RA OVC013 A2977 RMK MADISHF
MMK,2017-04-01 14:35,-72.8300,41.5100,M,M,M,M,M,M,29.78,M,7.00,24.00,OVC,M,M,M,1300.00,M,M,M,-RA,KMMK 011435Z AUTO /////G24KT 7SM -RA OVC013 A2978 RMK MADISHF
MMK,2017-04-01 14:40,-72.8300,41.5100,M,M,M,360.00,14.00,M,29.78,M,8.00,20.00,OVC,M,M,M,1300.00,M,M,M,-RA,KMMK 011440Z AUTO 36014G20KT 8SM -RA OVC013 A2978 RMK MADISHF
MMK,2017-04-01 14:45,-72.8300,41.5100,M,M,M,360.00,15.00,M,29.78,M,10.00,21.00,OVC,M,M,M,1400.00,M,M,M,-RA,KMMK 011445Z AUTO 36015G21KT 10SM -RA OVC014 A2978 RMK MADISHF
MMK,2017-04-01 14:50,-72.8300,41.5100,M,M,M,360.00,14.00,M,29.78,M,10.00,19.00,OVC,M,M,M,1400.00,M,M,M,M,KMMK 011450Z AUTO 36014G19KT 10SM OVC014 A2978 RMK MADISHF
MMK,2017-04-01 14:53,-72.8300,41.5100,39.00,33.10,79.17,360.00,13.00,0.00,29.78,1008.70,10.00,26.00,OVC,M,M,M,1400.00,M,M,M,M,KMMK 011453Z AUTO 36013G26KT 10SM OVC014 04/01 A2978 RMK AO2 PK WND 01028/1407 RAE47 SLP087 P0000 60000 T00390006 53016 TSNO
MMK,2017-04-01 14:55,-72.8300,41.5100,M,M,M,M,M,M,29.78,M,10.00,M,OVC,M,M,M,1600.00,M,M,M,M,KMMK 011455Z AUTO /////KT 10SM OVC016 A2978 RMK MADISHF
MMK,2017-04-01 15:00,-72.8300,41.5100,M,M,M,10.00,15.00,M,29.78,M,10.00,25.00,OVC,M,M,M,1600.00,M,M,M,M,KMMK 011500Z AUTO 01015G25KT 10SM OVC016 A2978 RMK MADISHF
MMK,2017-04-01 15:01,-72.8300,41.5100,39.00,33.10,79.17,10.00,15.00,0.00,29.78,M,10.00,27.00,OVC,M,M,M,1600.00,M,M,M,M,KMMK 011501Z AUTO 01015G27KT 10SM OVC016 04/01 A2978 RMK AO2 PK WND 01027/1457 T00390006 TSNO
MMK,2017-04-01 15:05,-72.8300,41.5100,M,M,M,10.00,14.00,M,29.78,M,10.00,19.00,OVC,M,M,M,1600.00,M,M,M,M,KMMK 011505Z AUTO 01014G19KT 10SM OVC016 A2978 RMK MADISHF
MMK,2017-04-01 15:10,-72.8300,41.5100,M,M,M,10.00,13.00,M,29.79,M,10.00,M,OVC,M,M,M,1600.00,M,M,M,M,KMMK 011510Z AUTO 01013KT 10SM OVC016 A2979 RMK MADISHF
MMK,2017-04-01 15:15,-72.8300,41.5100,M,M,M,360.00,15.00,M,29.79,M,10.00,26.00,OVC,M,M,M,1600.00,M,M,M,M,KMMK 011515Z AUTO 36015G26KT 10SM OVC016 A2979 RMK MADISHF
MMK,2017-04-01 15:20,-72.8300,41.5100,M,M,M,350.00,12.00,M,29.79,M,10.00,M,OVC,M,M,M,1600.00,M,M,M,M,KMMK 011520Z AUTO 35012KT 10SM OVC016 A2979 RMK MADISHF
MMK,2017-04-01 15:25,-72.8300,41.5100,M,M,M,M,M,M,29.79,M,10.00,M,OVC,M,M,M,1600.00,M,M,M,M,KMMK 011525Z AUTO /////KT 10SM OVC016 A2979 RMK MADISHF
MMK,2017-04-01 15:30,-72.8300,41.5100,M,M,M,360.00,15.00,M,29.79,M,10.00,M,OVC,M,M,M,1699.00,M,M,M,M,KMMK 011530Z AUTO 36015KT 10SM OVC016 A2979 RMK MADISHF
MMK,2017-04-01 15:35,-72.8300,41.5100,M,M,M,10.00,14.00,M,29.79,M,10.00,21.00,BKN,OVC,M,M,1699.00,2200.00,M,M,M,KMMK 011535Z AUTO 01014G21KT 10SM BKN016 OVC022 A2979 RMK MADISHF
MMK,2017-04-01 15:40,-72.8300,41.5100,M,M,M,M,M,M,29.79,M,10.00,M,OVC,M,M,M,1699.00,M,M,M,M,KMMK 011540Z AUTO /////KT 10SM OVC016 A2979 RMK MADISHF
MMK,2017-04-01 15:45,-72.8300,41.5100,M,M,M,M,M,M,29.79,M,10.00,24.00,OVC,M,M,M,1699.00,M,M,M,M,KMMK 011545Z AUTO /////G24KT 10SM OVC016 A2979 RMK MADISHF
MMK,2017-04-01 15:50,-72.8300,41.5100,M,M,M,360.00,17.00,M,29.79,M,10.00,23.00,OVC,M,M,M,1900.00,M,M,M,M,KMMK 011550Z AUTO 36017G23KT 10SM OVC019 A2979 RMK MADISHF
MMK,2017-04-01 15:53,-72.8300,41.5100,39.90,33.10,76.44,10.00,13.00,0.00,29.79,1009.00,10.00,24.00,OVC,M,M,M,1900.00,M,M,M,M,KMMK 011553Z AUTO 01013G24KT 10SM OVC019 04/01 A2979 RMK AO2 PK WND 01028/1517 SLP090 T00440006 TSNO
MMK,2017-04-01 15:55,-72.8300,41.5100,M,M,M,360.00,13.00,M,29.79,M,10.00,M,OVC,M,M,M,1900.00,M,M,M,M,KMMK 011555Z AUTO 36013KT 10SM OVC019 A2979 RMK MADISHF
MMK,2017-04-01 16:00,-72.8300,41.5100,M,M,M,M,M,M,29.79,M,10.00,21.00,OVC,M,M,M,1900.00,M,M,M,M,KMMK 011600Z AUTO /////G21KT 10SM OVC019 A2979 RMK MADISHF
MMK,2017-04-01 16:05,-72.8300,41.5100,M,M,M,360.00,14.00,M,29.79,M,10.00,M,OVC,M,M,M,1900.00,M,M,M,M,KMMK 011605Z AUTO 36014KT 10SM OVC019 A2979 RMK MADISHF
MMK,2017-04-01 16:10,-72.8300,41.5100,M,M,M,360.00,12.00,M,29.80,M,10.00,M,OVC,M,M,M,1900.00,M,M,M,-RA,KMMK 011610Z AUTO 36012KT 10SM -RA OVC019 A2980 RMK MADISHF
MMK,2017-04-01 16:15,-72.8300,41.5100,M,M,M,360.00,14.00,M,29.80,M,10.00,M,BKN,OVC,M,M,1900.00,2500.00,M,M,-RA,KMMK 011615Z AUTO 36014KT 10SM -RA BKN019 OVC025 A2980 RMK MADISHF
MMK,2017-04-01 16:20,-72.8300,41.5100,M,M,M,360.00,16.00,M,29.80,M,10.00,M,BKN,OVC,M,M,1900.00,2500.00,M,M,-RA,KMMK 011620Z AUTO 36016KT 10SM -RA BKN019 OVC025 A2980 RMK MADISHF
MMK,2017-04-01 16:25,-72.8300,41.5100,M,M,M,10.00,15.00,M,29.79,M,10.00,M,BKN,OVC,M,M,1900.00,2500.00,M,M,-RA,KMMK 011625Z AUTO 01015KT 10SM -RA BKN019 OVC025 A2979 RMK MADISHF
MMK,2017-04-01 16:30,-72.8300,41.5100,M,M,M,M,M,M,29.79,M,10.00,M,OVC,M,M,M,1900.00,M,M,M,-RA,KMMK 011630Z AUTO /////KT 10SM -RA OVC019 A2979 RMK MADISHF
MMK,2017-04-01 16:35,-72.8300,41.5100,M,M,M,M,M,M,29.80,M,10.00,M,BKN,OVC,M,M,1699.00,2300.00,M,M,-RA,KMMK 011635Z AUTO /////KT 10SM -RA BKN016 OVC023 A2980 RMK MADISHF
MMK,2017-04-01 16:40,-72.8300,41.5100,M,M,M,M,M,M,29.80,M,10.00,M,SCT,BKN,OVC,M,1699.00,2100.00,2600.00,M,-RA,KMMK 011640Z AUTO /////KT 10SM -RA SCT016 BKN021 OVC026 A2980 RMK MADISHF
MMK,2017-04-01 16:45,-72.8300,41.5100,M,M,M,M,M,M,29.80,M,10.00,M,BKN,OVC,M,M,1699.00,2300.00,M,M,-RA,KMMK 011645Z AUTO /////KT 10SM -RA BKN016 OVC023 A2980 RMK MADISHF
MMK,2017-04-01 16:50,-72.8300,41.5100,M,M,M,M,M,M,29.80,M,10.00,M,BKN,OVC,M,M,1699.00,2500.00,M,M,-RA,KMMK 011650Z AUTO /////KT 10SM -RA BKN016 OVC025 A2980 RMK MADISHF
MMK,2017-04-01 16:53,-72.8300,41.5100,39.90,33.10,76.44,10.00,18.00,0.00,29.80,1009.30,10.00,29.00,BKN,OVC,M,M,1900.00,2500.00,M,M,-RA,KMMK 011653Z AUTO 01018G29KT 10SM -RA BKN019 OVC025 04/01 A2980 RMK AO2 PK WND 02033/1557 RAB09 SLP093 P0000 T00440006 TSNO
MMK,2017-04-01 16:55,-72.8300,41.5100,M,M,M,M,M,M,29.80,M,10.00,M,BKN,OVC,M,M,1900.00,2500.00,M,M,-RA,KMMK 011655Z AUTO /////KT 10SM -RA BKN019 OVC025 A2980 RMK MADISHF
MMK,2017-04-01 17:00,-72.8300,41.5100,M,M,M,M,M,M,29.80,M,10.00,24.00,BKN,OVC,M,M,1699.00,2300.00,M,M,-RA,KMMK 011700Z AUTO /////G24KT 10SM -RA BKN016 OVC023 A2980 RMK MADISHF
MMK,2017-04-01 17:05,-72.8300,41.5100,M,M,M,360.00,12.00,M,29.80,M,10.00,18.00,BKN,OVC,M,M,1699.00,2500.00,M,M,-RA,KMMK 011705Z AUTO 36012G18KT 10SM -RA BKN016 OVC025 A2980 RMK MADISHF
MMK,2017-04-01 17:10,-72.8300,41.5100,M,M,M,M,M,M,29.80,M,10.00,M,BKN,BKN,OVC,M,1699.00,2200.00,2700.00,M,M,KMMK 011710Z AUTO /////KT 10SM BKN016 BKN022 OVC027 A2980 RMK MADISHF
MMK,2017-04-01 17:15,-72.8300,41.5100,M,M,M,M,M,M,29.81,M,10.00,M,BKN,OVC,M,M,1999.00,2700.00,M,M,M,KMMK 011715Z AUTO /////KT 10SM BKN019 OVC027 A2981 RMK MADISHF
MMK,2017-04-01 17:20,-72.8300,41.5100,M,M,M,360.00,13.00,M,29.82,M,10.00,M,BKN,OVC,M,M,1900.00,2700.00,M,M,M,KMMK 011720Z AUTO 36013KT 10SM BKN019 OVC027 A2982 RMK WND 32V02  MADISHF
MMK,2017-04-01 17:25,-72.8300,41.5100,M,M,M,M,M,M,29.82,M,10.00,M,BKN,OVC,M,M,1699.00,2300.00,M,M,M,KMMK 011725Z AUTO /////KT 10SM BKN016 OVC023 A2982 RMK MADISHF
MMK,2017-04-01 17:30,-72.8300,41.5100,M,M,M,M,M,M,29.82,M,10.00,M,BKN,OVC,M,M,1699.00,2300.00,M,M,M,KMMK 011730Z AUTO /////KT 10SM BKN016 OVC023 A2982 RMK MADISHF
MMK,2017-04-01 17:35,-72.8300,41.5100,M,M,M,M,M,M,29.82,M,10.00,M,BKN,OVC,M,M,1900.00,2300.00,M,M,M,KMMK 011735Z AUTO /////KT 10SM BKN019 OVC023 A2982 RMK MADISHF
MMK,2017-04-01 17:40,-72.8300,41.5100,M,M,M,350.00,12.00,M,29.83,M,10.00,M,BKN,OVC,M,M,1900.00,2600.00,M,M,M,KMMK 011740Z AUTO 35012KT 10SM BKN019 OVC026 A2983 RMK MADISHF
MMK,2017-04-01 17:45,-72.8300,41.5100,M,M,M,M,M,M,29.82,M,10.00,M,BKN,OVC,M,M,1900.00,2600.00,M,M,M,KMMK 011745Z AUTO /////KT 10SM BKN019 OVC026 A2982 RMK MADISHF
MMK,2017-04-01 17:50,-72.8300,41.5100,M,M,M,360.00,15.00,M,29.82,M,10.00,M,BKN,OVC,M,M,2100.00,2800.00,M,M,M,KMMK 011750Z AUTO 36015KT 10SM BKN021 OVC028 A2982 RMK MADISHF
MMK,2017-04-01 17:53,-72.8300,41.5100,41.00,32.00,70.08,340.00,14.00,0.00,29.82,1009.90,10.00,25.00,BKN,OVC,M,M,2100.00,2800.00,M,M,M,KMMK 011753Z AUTO 34014G25KT 10SM BKN021 OVC028 05/00 A2982 RMK AO2 PK WND 01029/1656 RAE10 SLP099 P0000 60000 T00500000 10050 20028 53013 TSNO
MMK,2017-04-01 17:55,-72.8300,41.5100,M,M,M,350.00,10.00,M,29.82,M,10.00,M,BKN,OVC,M,M,2100.00,2800.00,M,M,M,KMMK 011755Z AUTO 35010KT 10SM BKN021 OVC028 A2982 RMK MADISHF
MMK,2017-04-01 18:00,-72.8300,41.5100,M,M,M,M,M,M,29.82,M,10.00,M,BKN,OVC,M,M,2100.00,2800.00,M,M,M,KMMK 011800Z AUTO /////KT 10SM BKN021 OVC028 A2982 RMK MADISHF
MMK,2017-04-01 18:05,-72.8300,41.5100,M,M,M,360.00,17.00,M,29.83,M,10.00,M,BKN,OVC,M,M,2100.00,2800.00,M,M,M,KMMK 011805Z AUTO 36017KT 10SM BKN021 OVC028 A2983 RMK MADISHF
MMK,2017-04-01 18:10,-72.8300,41.5100,M,M,M,360.00,14.00,M,29.83,M,10.00,M,BKN,OVC,M,M,2100.00,2600.00,M,M,M,KMMK 011810Z AUTO 36014KT 10SM BKN021 OVC026 A2983 RMK MADISHF
MMK,2017-04-01 18:15,-72.8300,41.5100,M,M,M,360.00,11.00,M,29.84,M,10.00,M,BKN,OVC,M,M,2100.00,2600.00,M,M,M,KMMK 011815Z AUTO 36011KT 10SM BKN021 OVC026 A2984 RMK MADISHF
MMK,2017-04-01 18:20,-72.8300,41.5100,M,M,M,M,M,M,29.83,M,10.00,M,BKN,OVC,M,M,2100.00,2700.00,M,M,M,KMMK 011820Z AUTO /////KT 10SM BKN021 OVC027 A2983 RMK MADISHF
MMK,2017-04-01 18:25,-72.8300,41.5100,M,M,M,360.00,12.00,M,29.83,M,10.00,M,BKN,OVC,M,M,2100.00,2700.00,M,M,M,KMMK 011825Z AUTO 36012KT 10SM BKN021 OVC027 A2983 RMK MADISHF
MMK,2017-04-01 18:30,-72.8300,41.5100,M,M,M,360.00,14.00,M,29.83,M,10.00,M,BKN,BKN,OVC,M,2100.00,2700.00,3500.00,M,-RA,KMMK 011830Z AUTO 36014KT 10SM -RA BKN021 BKN027 OVC035 A2983 RMK MADISHF
MMK,2017-04-01 18:35,-72.8300,41.5100,M,M,M,M,M,M,29.82,M,10.00,M,BKN,BKN,OVC,M,2100.00,2700.00,3800.00,M,-RA,KMMK 011835Z AUTO /////KT 10SM -RA BKN021 BKN027 OVC038 A2982 RMK MADISHF
MMK,2017-04-01 18:40,-72.8300,41.5100,M,M,M,10.00,14.00,M,29.83,M,10.00,M,BKN,OVC,M,M,2100.00,2700.00,M,M,-RA,KMMK 011840Z AUTO 01014KT 10SM -RA BKN021 OVC027 A2983 RMK MADISHF
MMK,2017-04-01 18:45,-72.8300,41.5100,M,M,M,10.00,13.00,M,29.82,M,10.00,19.00,BKN,BKN,OVC,M,2100.00,2700.00,3900.00,M,M,KMMK 011845Z AUTO 01013G19KT 10SM BKN021 BKN027 OVC039 A2982 RMK MADISHF
MMK,2017-04-01 18:50,-72.8300,41.5100,M,M,M,360.00,13.00,M,29.82,M,10.00,M,SCT,BKN,OVC,M,2100.00,2600.00,3900.00,M,M,KMMK 011850Z AUTO 36013KT 10SM SCT021 BKN026 OVC039 A2982 RMK MADISHF
MMK,2017-04-01 18:53,-72.8300,41.5100,42.10,33.10,70.20,10.00,13.00,0.00,29.82,1009.70,10.00,22.00,SCT,BKN,OVC,M,2100.00,2800.00,3900.00,M,M,KMMK 011853Z AUTO 01013G22KT 10SM SCT021 BKN028 OVC039 06/01 A2982 RMK AO2 PK WND 36028/1832 RAB30E43 SLP097 P0000 T00560006 TSNO
MMK,2017-04-01 18:55,-72.8300,41.5100,M,M,M,M,M,M,29.82,M,10.00,M,SCT,BKN,OVC,M,2100.00,2800.00,3900.00,M,M,KMMK 011855Z AUTO /////KT 10SM SCT021 BKN028 OVC039 A2982 RMK MADISHF
MMK,2017-04-01 19:00,-72.8300,41.5100,M,M,M,M,M,M,29.82,M,10.00,M,BKN,BKN,OVC,M,2300.00,2800.00,3900.00,M,M,KMMK 011900Z AUTO /////KT 10SM BKN023 BKN028 OVC039 A2982 RMK MADISHF
MMK,2017-04-01 19:05,-72.8300,41.5100,M,M,M,M,M,M,29.82,M,10.00,M,FEW,BKN,OVC,M,2100.00,2600.00,3900.00,M,M,KMMK 011905Z AUTO /////KT 10SM FEW021 BKN026 OVC039 A2982 RMK MADISHF
MMK,2017-04-01 19:10,-72.8300,41.5100,M,M,M,10.00,13.00,M,29.82,M,10.00,M,SCT,BKN,OVC,M,2300.00,2800.00,3900.00,M,M,KMMK 011910Z AUTO 01013KT 10SM SCT023 BKN028 OVC039 A2982 RMK MADISHF
MMK,2017-04-01 19:15,-72.8300,41.5100,M,M,M,M,M,M,29.83,M,10.00,M,BKN,BKN,OVC,M,2300.00,2900.00,3900.00,M,M,KMMK 011915Z AUTO /////KT 10SM BKN023 BKN029 OVC039 A2983 RMK MADISHF
MMK,2017-04-01 19:20,-72.8300,41.5100,M,M,M,M,M,M,29.83,M,10.00,M,BKN,BKN,OVC,M,2300.00,3100.00,3900.00,M,M,KMMK 011920Z AUTO /////KT 10SM BKN023 BKN031 OVC039 A2983 RMK MADISHF
MMK,2017-04-01 19:25,-72.8300,41.5100,M,M,M,10.00,14.00,M,29.84,M,10.00,M,FEW,BKN,OVC,M,2300.00,2700.00,4100.00,M,M,KMMK 011925Z AUTO 01014KT 10SM FEW023 BKN027 OVC041 A2984 RMK MADISHF
MMK,2017-04-01 19:30,-72.8300,41.5100,M,M,M,M,M,M,29.84,M,10.00,M,BKN,BKN,OVC,M,2400.00,2900.00,4200.00,M,M,KMMK 011930Z AUTO /////KT 10SM BKN024 BKN029 OVC042 A2984 RMK MADISHF
MMK,2017-04-01 19:35,-72.8300,41.5100,M,M,M,M,M,M,29.85,M,10.00,M,BKN,OVC,M,M,2600.00,4200.00,M,M,M,KMMK 011935Z AUTO /////KT 10SM BKN026 OVC042 A2985 RMK MADISHF
MMK,2017-04-01 19:40,-72.8300,41.5100,M,M,M,360.00,15.00,M,29.85,M,10.00,M,BKN,OVC,M,M,2600.00,4200.00,M,M,M,KMMK 011940Z AUTO 36015KT 10SM BKN026 OVC042 A2985 RMK MADISHF
MMK,2017-04-01 19:45,-72.8300,41.5100,M,M,M,360.00,14.00,M,29.86,M,10.00,22.00,BKN,OVC,M,M,2600.00,3200.00,M,M,M,KMMK 011945Z AUTO 36014G22KT 10SM BKN026 OVC032 A2986 RMK MADISHF
MMK,2017-04-01 19:50,-72.8300,41.5100,M,M,M,M,M,M,29.86,M,10.00,M,BKN,OVC,M,M,2600.00,3200.00,M,M,M,KMMK 011950Z AUTO /////KT 10SM BKN026 OVC032 A2986 RMK MADISHF
MMK,2017-04-01 19:53,-72.8300,41.5100,42.10,30.90,64.24,350.00,14.00,0.00,29.86,1011.30,10.00,24.00,OVC,M,M,M,2700.00,M,M,M,M,KMMK 011953Z AUTO 35014G24KT 10SM OVC027 06/M01 A2986 RMK AO2 PK WND 01029/1857 SLP113 T00561006 TSNO
MMK,2017-04-01 19:55,-72.8300,41.5100,M,M,M,360.00,13.00,M,29.87,M,10.00,M,OVC,M,M,M,2700.00,M,M,M,M,KMMK 011955Z AUTO 36013KT 10SM OVC027 A2987 RMK MADISHF
MMK,2017-04-01 20:00,-72.8300,41.5100,M,M,M,350.00,16.00,M,29.87,M,10.00,M,OVC,M,M,M,2700.00,M,M,M,M,KMMK 012000Z AUTO 35016KT 10SM OVC027 A2987 RMK MADISHF
MMK,2017-04-01 20:05,-72.8300,41.5100,M,M,M,360.00,14.00,M,29.87,M,10.00,M,OVC,M,M,M,2700.00,M,M,M,M,KMMK 012005Z AUTO 36014KT 10SM OVC027 A2987 RMK MADISHF
MMK,2017-04-01 20:10,-72.8300,41.5100,M,M,M,340.00,11.00,M,29.88,M,10.00,M,OVC,M,M,M,2900.00,M,M,M,M,KMMK 012010Z AUTO 34011KT 10SM OVC029 A2988 RMK MADISHF
MMK,2017-04-01 20:15,-72.8300,41.5100,M,M,M,M,M,M,29.88,M,10.00,M,OVC,M,M,M,2900.00,M,M,M,M,KMMK 012015Z AUTO /////KT 10SM OVC029 A2988 RMK MADISHF
MMK,2017-04-01 20:20,-72.8300,41.5100,M,M,M,360.00,11.00,M,29.88,M,10.00,M,OVC,M,M,M,2900.00,M,M,M,M,KMMK 012020Z AUTO 36011KT 10SM OVC029 A2988 RMK MADISHF
MMK,2017-04-01 20:25,-72.8300,41.5100,M,M,M,M,M,M,29.88,M,10.00,M,OVC,M,M,M,2900.00,M,M,M,M,KMMK 012025Z AUTO /////KT 10SM OVC029 A2988 RMK MADISHF
MMK,2017-04-01 20:30,-72.8300,41.5100,M,M,M,360.00,12.00,M,29.89,M,10.00,20.00,OVC,M,M,M,2900.00,M,M,M,M,KMMK 012030Z AUTO 36012G20KT 10SM OVC029 A2989 RMK MADISHF
MMK,2017-04-01 20:35,-72.8300,41.5100,M,M,M,350.00,11.00,M,29.89,M,10.00,M,OVC,M,M,M,2900.00,M,M,M,M,KMMK 012035Z AUTO 35011KT 10SM OVC029 A2989 RMK MADISHF
MMK,2017-04-01 20:40,-72.8300,41.5100,M,M,M,M,M,M,29.89,M,10.00,M,OVC,M,M,M,2900.00,M,M,M,M,KMMK 012040Z AUTO /////KT 10SM OVC029 A2989 RMK MADISHF
MMK,2017-04-01 20:45,-72.8300,41.5100,M,M,M,360.00,14.00,M,29.89,M,10.00,M,OVC,M,M,M,2900.00,M,M,M,M,KMMK 012045Z AUTO 36014KT 10SM OVC029 A2989 RMK MADISHF
MMK,2017-04-01 20:50,-72.8300,41.5100,M,M,M,350.00,12.00,M,29.90,M,10.00,M,OVC,M,M,M,3000.00,M,M,M,M,KMMK 012050Z AUTO 35012KT 10SM OVC030 A2990 RMK MADISHF
MMK,2017-04-01 20:53,-72.8300,41.5100,42.10,30.90,64.24,360.00,11.00,0.00,29.90,1012.50,10.00,21.00,OVC,M,M,M,3000.00,M,M,M,M,KMMK 012053Z AUTO 36011G21KT 10SM OVC030 06/M01 A2990 RMK AO2 SLP125 60000 T00561006 53026 TSNO
MMK,2017-04-01 20:55,-72.8300,41.5100,M,M,M,360.00,10.00,M,29.90,M,10.00,M,OVC,M,M,M,3000.00,M,M,M,M,KMMK 012055Z AUTO 36010KT 10SM OVC030 A2990 RMK MADISHF
MMK,2017-04-01 21:00,-72.8300,41.5100,M,M,M,M,M,M,29.90,M,10.00,M,BKN,OVC,M,M,3200.00,5500.00,M,M,M,KMMK 012100Z AUTO /////KT 10SM BKN032 OVC055 A2990 RMK MADISHF
MMK,2017-04-01 21:05,-72.8300,41.5100,M,M,M,10.00,11.00,M,29.91,M,10.00,M,BKN,OVC,M,M,3200.00,5500.00,M,M,M,KMMK 012105Z AUTO 01011KT 10SM BKN032 OVC055 A2991 RMK MADISHF
MMK,2017-04-01 21:10,-72.8300,41.5100,M,M,M,M,M,M,29.91,M,10.00,17.00,FEW,BKN,OVC,M,2600.00,3200.00,5000.00,M,M,KMMK 012110Z AUTO /////G17KT 10SM FEW026 BKN032 OVC050 A2991 RMK MADISHF
MMK,2017-04-01 21:15,-72.8300,41.5100,M,M,M,M,M,M,29.91,M,10.00,M,FEW,BKN,OVC,M,2600.00,3200.00,5000.00,M,M,KMMK 012115Z AUTO /////KT 10SM FEW026 BKN032 OVC050 A2991 RMK MADISHF
MMK,2017-04-01 21:20,-72.8300,41.5100,M,M,M,360.00,11.00,M,29.91,M,10.00,M,FEW,BKN,OVC,M,2700.00,5000.00,6000.00,M,M,KMMK 012120Z AUTO 36011KT 10SM FEW027 BKN050 OVC060 A2991 RMK MADISHF
MMK,2017-04-01 21:25,-72.8300,41.5100,M,M,M,360.00,7.00,M,29.91,M,10.00,M,SCT,BKN,OVC,M,2700.00,5000.00,6000.00,M,M,KMMK 012125Z AUTO 36007KT 10SM SCT027 BKN050 OVC060 A2991 RMK MADISHF
MMK,2017-04-01 21:30,-72.8300,41.5100,M,M,M,10.00,8.00,M,29.91,M,10.00,M,SCT,BKN,OVC,M,2900.00,5000.00,6000.00,M,M,KMMK 012130Z AUTO 01008KT 10SM SCT029 BKN050 OVC060 A2991 RMK MADISHF
MMK,2017-04-01 21:35,-72.8300,41.5100,M,M,M,M,M,M,29.91,M,10.00,19.00,SCT,BKN,OVC,M,2900.00,5000.00,6000.00,M,M,KMMK 012135Z AUTO /////G19KT 10SM SCT029 BKN050 OVC060 A2991 RMK MADISHF
MMK,2017-04-01 21:40,-72.8300,41.5100,M,M,M,10.00,12.00,M,29.92,M,10.00,17.00,SCT,OVC,M,M,2700.00,6000.00,M,M,M,KMMK 012140Z AUTO 01012G17KT 10SM SCT027 OVC060 A2992 RMK MADISHF
MMK,2017-04-01 21:45,-72.8300,41.5100,M,M,M,10.00,12.00,M,29.92,M,10.00,M,SCT,BKN,OVC,M,2500.00,3000.00,6000.00,M,M,KMMK 012145Z AUTO 01012KT 10SM SCT025 BKN030 OVC060 A2992 RMK MADISHF
MMK,2017-04-01 21:50,-72.8300,41.5100,M,M,M,350.00,11.00,M,29.93,M,10.00,M,SCT,BKN,OVC,M,2300.00,2800.00,6000.00,M,M,KMMK 012150Z AUTO 35011KT 10SM SCT023 BKN028 OVC060 A2993 RMK MADISHF
MMK,2017-04-01 21:53,-72.8300,41.5100,42.10,32.00,67.17,350.00,11.00,0.00,29.93,1013.50,10.00,M,SCT,BKN,OVC,M,2300.00,2800.00,6000.00,M,M,KMMK 012153Z AUTO 35011KT 10SM SCT023 BKN028 OVC060 06/00 A2993 RMK AO2 SLP135 T00560000 TSNO
MMK,2017-04-01 21:55,-72.8300,41.5100,M,M,M,340.00,11.00,M,29.93,M,10.00,M,BKN,BKN,OVC,M,2300.00,2800.00,6000.00,M,M,KMMK 012155Z AUTO 34011KT 10SM BKN023 BKN028 OVC060 A2993 RMK MADISHF
MMK,2017-04-01 22:00,-72.8300,41.5100,M,M,M,M,M,M,29.94,M,10.00,20.00,BKN,BKN,OVC,M,2300.00,2800.00,6000.00,M,M,KMMK 012200Z AUTO /////G20KT 10SM BKN023 BKN028 OVC060 A2994 RMK MADISHF
MMK,2017-04-01 22:05,-72.8300,41.5100,M,M,M,M,M,M,29.94,M,10.00,M,BKN,OVC,M,M,2300.00,2800.00,M,M,M,KMMK 012205Z AUTO /////KT 10SM BKN023 OVC028 A2994 RMK MADISHF
MMK,2017-04-01 22:10,-72.8300,41.5100,M,M,M,360.00,14.00,M,29.94,M,10.00,M,OVC,M,M,M,2500.00,M,M,M,M,KMMK 012210Z AUTO 36014KT 10SM OVC025 A2994 RMK MADISHF
MMK,2017-04-01 22:15,-72.8300,41.5100,M,M,M,340.00,10.00,M,29.95,M,10.00,M,OVC,M,M,M,2500.00,M,M,M,M,KMMK 012215Z AUTO 34010KT 10SM OVC025 A2995 RMK MADISHF
MMK,2017-04-01 22:20,-72.8300,41.5100,M,M,M,350.00,12.00,M,29.95,M,10.00,M,OVC,M,M,M,2500.00,M,M,M,M,KMMK 012220Z AUTO 35012KT 10SM OVC025 A2995 RMK MADISHF
MMK,2017-04-01 22:25,-72.8300,41.5100,M,M,M,360.00,10.00,M,29.95,M,10.00,M,BKN,OVC,M,M,2500.00,2900.00,M,M,M,KMMK 012225Z AUTO 36010KT 10SM BKN025 OVC029 A2995 RMK MADISHF
MMK,2017-04-01 22:30,-72.8300,41.5100,M,M,M,360.00,10.00,M,29.95,M,10.00,M,BKN,OVC,M,M,2700.00,3600.00,M,M,M,KMMK 012230Z AUTO 36010KT 10SM BKN027 OVC036 A2995 RMK WND 32V02  MADISHF
MMK,2017-04-01 22:35,-72.8300,41.5100,M,M,M,360.00,13.00,M,29.96,M,10.00,M,BKN,OVC,M,M,2700.00,3399.00,M,M,M,KMMK 012235Z AUTO 36013KT 10SM BKN027 OVC033 A2996 RMK MADISHF
MMK,2017-04-01 22:40,-72.8300,41.5100,M,M,M,360.00,14.00,M,29.96,M,10.00,M,SCT,BKN,OVC,M,2400.00,3000.00,3600.00,M,M,KMMK 012240Z AUTO 36014KT 10SM SCT024 BKN030 OVC036 A2996 RMK MADISHF
MMK,2017-04-01 22:45,-72.8300,41.5100,M,M,M,M,M,M,29.96,M,10.00,M,SCT,OVC,M,M,2600.00,3600.00,M,M,M,KMMK 012245Z AUTO /////KT 10SM SCT026 OVC036 A2996 RMK MADISHF
MMK,2017-04-01 22:49,-72.8300,41.5100,42.80,32.00,65.38,10.00,11.00,0.00,29.96,M,10.00,18.00,FEW,BKN,OVC,M,2600.00,3600.00,4900.00,M,M,KMMK 012249Z AUTO 01011G18KT 10SM FEW026 BKN036 OVC049 06/00 A2996 RMK AO2 TSNO
MMK,2017-04-01 22:50,-72.8300,41.5100,M,M,M,360.00,11.00,M,29.96,M,10.00,M,FEW,BKN,OVC,M,2600.00,3600.00,4900.00,M,M,KMMK 012250Z AUTO 36011KT 10SM FEW026 BKN036 OVC049 A2996 RMK MADISHF
MMK,2017-04-01 22:53,-72.8300,41.5100,41.00,32.00,70.08,10.00,12.00,0.00,29.96,1014.70,10.00,18.00,FEW,BKN,OVC,M,2800.00,3800.00,6000.00,M,M,KMMK 012253Z AUTO 01012G18KT 10SM FEW028 BKN038 OVC060 05/00 A2996 RMK AO2 SLP147 T00500000 TSNO
MMK,2017-04-01 22:55,-72.8300,41.5100,M,M,M,360.00,11.00,M,29.96,M,10.00,M,FEW,SCT,OVC,M,2800.00,3800.00,5500.00,M,M,KMMK 012255Z AUTO 36011KT 10SM FEW028 SCT038 OVC055 A2996 RMK MADISHF
MMK,2017-04-01 23:00,-72.8300,41.5100,M,M,M,10.00,6.00,M,29.96,M,10.00,M,FEW,BKN,OVC,M,2400.00,4900.00,7000.00,M,M,KMMK 012300Z AUTO 01006KT 10SM FEW024 BKN049 OVC070 A2996 RMK MADISHF
MMK,2017-04-01 23:05,-72.8300,41.5100,M,M,M,10.00,11.00,M,29.96,M,10.00,M,FEW,BKN,OVC,M,2400.00,4900.00,6000.00,M,M,KMMK 012305Z AUTO 01011KT 10SM FEW024 BKN049 OVC060 A2996 RMK MADISHF
MMK,2017-04-01 23:10,-72.8300,41.5100,M,M,M,10.00,10.00,M,29.97,M,10.00,M,FEW,BKN,OVC,M,2100.00,4900.00,6500.00,M,M,KMMK 012310Z AUTO 01010KT 10SM FEW021 BKN049 OVC065 A2997 RMK MADISHF
MMK,2017-04-01 23:15,-72.8300,41.5100,M,M,M,10.00,12.00,M,29.97,M,10.00,M,SCT,BKN,OVC,M,2100.00,5000.00,6500.00,M,M,KMMK 012315Z AUTO 01012KT 10SM SCT021 BKN050 OVC065 A2997 RMK MADISHF
MMK,2017-04-01 23:20,-72.8300,41.5100,M,M,M,M,M,M,29.97,M,10.00,20.00,BKN,BKN,OVC,M,2200.00,4800.00,6500.00,M,M,KMMK 012320Z AUTO /////G20KT 10SM BKN022 BKN048 OVC065 A2997 RMK MADISHF
MMK,2017-04-01 23:23,-72.8300,41.5100,41.00,32.00,70.08,350.00,15.00,0.00,29.97,M,10.00,21.00,BKN,BKN,OVC,M,2400.00,2800.00,7000.00,M,M,KMMK 012323Z AUTO 35015G21KT 10SM BKN024 BKN028 OVC070 05/00 A2997 RMK AO2 T00500000 TSNO
MMK,2017-04-01 23:25,-72.8300,41.5100,M,M,M,M,M,M,29.97,M,10.00,M,BKN,BKN,OVC,M,2400.00,2800.00,7000.00,M,M,KMMK 012325Z AUTO /////KT 10SM BKN024 BKN028 OVC070 A2997 RMK MADISHF
MMK,2017-04-01 23:30,-72.8300,41.5100,M,M,M,M,M,M,29.97,M,10.00,M,SCT,BKN,OVC,M,2200.00,2800.00,6000.00,M,M,KMMK 012330Z AUTO /////KT 10SM SCT022 BKN028 OVC060 A2997 RMK MADISHF
MMK,2017-04-01 23:35,-72.8300,41.5100,M,M,M,360.00,9.00,M,29.97,M,10.00,M,SCT,SCT,OVC,M,2200.00,2900.00,5000.00,M,M,KMMK 012335Z AUTO 36009KT 10SM SCT022 SCT029 OVC050 A2997 RMK MADISHF
MMK,2017-04-01 23:40,-72.8300,41.5100,M,M,M,350.00,10.00,M,29.97,M,10.00,M,FEW,SCT,OVC,M,2300.00,2800.00,5000.00,M,M,KMMK 012340Z AUTO 35010KT 10SM FEW023 SCT028 OVC050 A2997 RMK MADISHF
MMK,2017-04-01 23:41,-72.8300,41.5100,39.90,30.90,69.96,360.00,11.00,0.00,29.97,M,10.00,18.00,FEW,SCT,OVC,M,2300.00,2800.00,5000.00,M,M,KMMK 012341Z AUTO 36011G18KT 10SM FEW023 SCT028 OVC050 04/M01 A2997 RMK AO2 T00441006 TSNO
MMK,2017-04-01 23:45,-72.8300,41.5100,M,M,M,360.00,12.00,M,29.98,M,10.00,18.00,FEW,FEW,OVC,M,2300.00,2800.00,5000.00,M,M,KMMK 012345Z AUTO 36012G18KT 10SM FEW023 FEW028 OVC050 A2998 RMK MADISHF
MMK,2017-04-01 23:50,-72.8300,41.5100,M,M,M,350.00,13.00,M,29.98,M,10.00,M,FEW,OVC,M,M,2800.00,5000.00,M,M,M,KMMK 012350Z AUTO 35013KT 10SM FEW028 OVC050 A2998 RMK MADISHF
MMK,2017-04-01 23:53,-72.8300,41.5100,39.90,30.90,69.96,360.00,12.00,0.00,29.98,1015.20,10.00,20.00,BKN,OVC,M,M,5000.00,9000.00,M,M,M,KMMK 012353Z AUTO 36012G20KT 10SM BKN050 OVC090 04/M01 A2998 RMK AO2 SLP152 60000 T00441006 10061 20044 51017 TSNO
MMK,2017-04-01 23:55,-72.8300,41.5100,M,M,M,360.00,11.00,M,29.98,M,10.00,M,BKN,OVC,M,M,5000.00,9000.00,M,M,M,KMMK 012355Z AUTO 36011KT 10SM BKN050 OVC090 A2998 RMK MADISHF
