#DEBUG: Format Typ    -> comma
#DEBUG: Time Period   -> 2017-04-01 00:00:00+00:00 2017-04-02 00:00:00+00:00
#DEBUG: Time Zone     -> Etc/UTC
#DEBUG: Data Contact   -> daryl herzmann akrherz@iastate.edu 515-294-5978
#DEBUG: Entries Found -> -1
station,valid,lon,lat,tmpf, dwpf, relh, drct, sknt, p01i, alti, mslp, vsby, gust, skyc1, skyc2, skyc3, skyc4, skyl1, skyl2, skyl3, skyl4, presentwx, metar
MMU,2017-04-01 00:45,-74.4149,40.7993,37.40,37.40,100.00,70.00,12.00,0.00,29.78,M,4.00,18.00,OVC,M,M,M,800.00,M,M,M,RA BR,KMMU 010045Z 07012G18KT 4SM RA BR OVC008 03/03 A2978
MMU,2017-04-01 01:45,-74.4149,40.7993,37.40,37.40,100.00,60.00,11.00,0.00,29.77,M,4.00,18.00,OVC,M,M,M,800.00,M,M,M,-RA BR,KMMU 010145Z 06011G18KT 4SM -RA BR OVC008 03/03 A2977
MMU,2017-04-01 03:15,-74.4149,40.7993,37.40,37.40,100.00,50.00,10.00,0.01,29.73,M,3.00,18.00,OVC,M,M,M,800.00,M,M,M,RA,KMMU 010315Z AUTO 05010G18KT 3SM RA OVC008 03/03 A2973 RMK AO2 P0001
MMU,2017-04-01 03:35,-74.4149,40.7993,37.40,37.40,100.00,50.00,9.00,0.02,29.72,M,5.00,15.00,OVC,M,M,M,800.00,M,M,M,-RA,KMMU 010335Z AUTO 05009G15KT 5SM -RA OVC008 03/03 A2972 RMK AO2 P0002
MMU,2017-04-01 03:55,-74.4149,40.7993,37.40,37.40,100.00,50.00,9.00,0.00,29.71,M,5.00,15.00,OVC,M,M,M,800.00,M,M,M,-RA,KMMU 010355Z AUTO 05009G15KT 5SM -RA OVC008 03/03 A2971 RMK AO2
MMU,2017-04-01 04:15,-74.4149,40.7993,37.40,37.40,100.00,50.00,10.00,0.00,29.71,M,5.00,18.00,OVC,M,M,M,800.00,M,M,M,-DZ,KMMU 010415Z AUTO 05010G18KT 5SM -DZ OVC008 03/03 A2971 RMK AO2
MMU,2017-04-01 04:35,-74.4149,40.7993,37.40,37.40,100.00,40.00,10.00,0.00,29.71,M,7.00,21.00,OVC,M,M,M,800.00,M,M,M,M,KMMU 010435Z AUTO 04010G21KT 7SM OVC008 03/03 A2971 RMK AO2
MMU,2017-04-01 04:55,-74.4149,40.7993,37.40,37.40,100.00,50.00,10.00,0.00,29.70,M,5.00,16.00,OVC,M,M,M,800.00,M,M,M,BR,KMMU 010455Z AUTO 05010G16KT 5SM BR OVC008 03/03 A2970 RMK AO2
MMU,2017-04-01 05:15,-74.4149,40.7993,37.40,37.40,100.00,40.00,11.00,0.00,29.70,M,4.00,15.00,OVC,M,M,M,800.00,M,M,M,BR,KMMU 010515Z AUTO 04011G15KT 4SM BR OVC008 03/03 A2970 RMK AO2
MMU,2017-04-01 05:35,-74.4149,40.7993,37.40,37.40,100.00,40.00,13.00,0.00,29.69,M,4.00,19.00,OVC,M,M,M,800.00,M,M,M,BR,KMMU 010535Z AUTO 04013G19KT 4SM BR OVC008 03/03 A2969 RMK AO2
MMU,2017-04-01 05:55,-74.4149,40.7993,37.40,37.40,100.00,40.00,10.00,0.00,29.69,M,3.00,M,OVC,M,M,M,800.00,M,M,M,-DZ,KMMU 010555Z AUTO 04010KT 3SM -DZ OVC008 03/03 A2969 RMK AO2
MMU,2017-04-01 06:15,-74.4149,40.7993,37.40,37.40,100.00,30.00,11.00,0.00,29.69,M,3.00,15.00,OVC,M,M,M,800.00,M,M,M,-DZ,KMMU 010615Z AUTO 03011G15KT 3SM -DZ OVC008 03/03 A2969 RMK AO2
MMU,2017-04-01 06:35,-74.4149,40.7993,37.40,37.40,100.00,40.00,10.00,0.00,29.69,M,3.00,14.00,OVC,M,M,M,600.00,M,M,M,-DZ,KMMU 010635Z AUTO 04010G14KT 3SM -DZ OVC006 03/03 A2969 RMK AO2
MMU,2017-04-01 06:55,-74.4149,40.7993,35.60,35.60,100.00,20.00,11.00,0.00,29.69,M,3.00,14.00,OVC,M,M,M,600.00,M,M,M,-DZ,KMMU 010655Z AUTO 02011G14KT 3SM -DZ OVC006 02/02 A2969 RMK AO2
MMU,2017-04-01 07:15,-74.4149,40.7993,35.60,35.60,100.00,10.00,10.00,0.00,29.68,M,3.00,16.00,OVC,M,M,M,600.00,M,M,M,-DZ,KMMU 010715Z AUTO 01010G16KT 3SM -DZ OVC006 02/02 A2968 RMK AO2
MMU,2017-04-01 07:35,-74.4149,40.7993,35.60,35.60,100.00,20.00,8.00,0.00,29.68,M,4.00,15.00,OVC,M,M,M,600.00,M,M,M,BR,KMMU 010735Z AUTO 02008G15KT 4SM BR OVC006 02/02 A2968 RMK AO2
MMU,2017-04-01 07:55,-74.4149,40.7993,35.60,35.60,100.00,20.00,9.00,0.00,29.69,M,5.00,M,OVC,M,M,M,800.00,M,M,M,BR,KMMU 010755Z AUTO 02009KT 5SM BR OVC008 02/02 A2969 RMK AO2
MMU,2017-04-01 08:15,-74.4149,40.7993,35.60,35.60,100.00,10.00,9.00,0.00,29.69,M,4.00,M,OVC,M,M,M,800.00,M,M,M,BR,KMMU 010815Z AUTO 01009KT 4SM BR OVC008 02/02 A2969 RMK AO2
MMU,2017-04-01 08:35,-74.4149,40.7993,35.60,35.60,100.00,10.00,6.00,0.00,29.69,M,2.50,M,OVC,M,M,M,800.00,M,M,M,DZ,KMMU 010835Z AUTO 01006KT 2 1/2SM DZ OVC008 02/02 A2969 RMK AO2
MMU,2017-04-01 08:55,-74.4149,40.7993,35.60,35.60,100.00,360.00,7.00,0.00,29.69,M,4.00,M,OVC,M,M,M,800.00,M,M,M,-DZ,KMMU 010855Z AUTO 36007KT 4SM -DZ OVC008 02/02 A2969 RMK AO2
MMU,2017-04-01 09:15,-74.4149,40.7993,35.60,35.60,100.00,360.00,8.00,0.00,29.70,M,10.00,M,BKN,OVC,M,M,1000.00,1400.00,M,M,M,KMMU 010915Z AUTO 36008KT 10SM BKN010 OVC014 02/02 A2970 RMK AO2
MMU,2017-04-01 09:35,-74.4149,40.7993,35.60,35.60,100.00,10.00,7.00,0.00,29.71,M,10.00,M,OVC,M,M,M,1400.00,M,M,M,M,KMMU 010935Z AUTO 01007KT 10SM OVC014 02/02 A2971 RMK AO2
MMU,2017-04-01 09:55,-74.4149,40.7993,35.60,35.60,100.00,360.00,6.00,0.00,29.72,M,10.00,M,OVC,M,M,M,1400.00,M,M,M,M,KMMU 010955Z AUTO 36006KT 10SM OVC014 02/02 A2972 RMK AO2
MMU,2017-04-01 10:15,-74.4149,40.7993,35.60,35.60,100.00,350.00,7.00,0.00,29.73,M,10.00,M,OVC,M,M,M,1400.00,M,M,M,M,KMMU 011015Z AUTO 35007KT 10SM OVC014 02/02 A2973 RMK AO2
MMU,2017-04-01 10:35,-74.4149,40.7993,35.60,35.60,100.00,350.00,8.00,0.00,29.74,M,7.00,M,OVC,M,M,M,1400.00,M,M,M,M,KMMU 011035Z AUTO 35008KT 7SM OVC014 02/02 A2974 RMK AO2
MMU,2017-04-01 10:55,-74.4149,40.7993,35.60,35.60,100.00,350.00,6.00,0.00,29.75,M,10.00,M,OVC,M,M,M,1400.00,M,M,M,M,KMMU 011055Z AUTO 35006KT 10SM OVC014 02/02 A2975 RMK AO2
MMU,2017-04-01 11:15,-74.4149,40.7993,35.60,35.60,100.00,350.00,6.00,0.00,29.75,M,10.00,M,OVC,M,M,M,1600.00,M,M,M,M,KMMU 011115Z AUTO 35006KT 10SM OVC016 02/02 A2975 RMK AO2
MMU,2017-04-01 11:35,-74.4149,40.7993,35.60,35.60,100.00,350.00,6.00,0.00,29.76,M,10.00,M,OVC,M,M,M,1800.00,M,M,M,M,KMMU 011135Z AUTO 35006KT 10SM OVC018 02/02 A2976 RMK AO2
MMU,2017-04-01 11:45,-74.4149,40.7993,37.40,33.80,86.69,10.00,10.00,0.00,29.77,M,10.00,14.00,OVC,M,M,M,1800.00,M,M,M,M,KMMU 011145Z 01010G14KT 10SM OVC018 03/01 A2977
MMU,2017-04-01 12:45,-74.4149,40.7993,39.20,35.60,86.79,10.00,7.00,0.00,29.79,M,10.00,14.00,OVC,M,M,M,1800.00,M,M,M,M,KMMU 011245Z 01007G14KT 10SM OVC018 04/02 A2979
MMU,2017-04-01 13:50,-74.4149,40.7993,41.00,35.60,80.93,20.00,13.00,0.00,29.82,M,10.00,21.00,OVC,M,M,M,1800.00,M,M,M,M,KMMU 011350Z 02013G21KT 10SM OVC018 05/02 A2982
MMU,2017-04-01 14:50,-74.4149,40.7993,42.80,35.60,75.50,40.00,13.00,0.00,29.83,M,10.00,22.00,OVC,M,M,M,2200.00,M,M,M,M,KMMU 011450Z 04013G22KT 10SM OVC022 06/02 A2983
MMU,2017-04-01 15:45,-74.4149,40.7993,42.80,33.80,70.28,360.00,13.00,0.00,29.84,M,10.00,20.00,OVC,M,M,M,2200.00,M,M,M,M,KMMU 011545Z 36013G20KT 10SM OVC022 06/01 A2984
MMU,2017-04-01 16:45,-74.4149,40.7993,46.40,35.60,65.83,10.00,10.00,0.00,29.85,M,15.00,19.00,OVC,M,M,M,2400.00,M,M,M,M,KMMU 011645Z 01010G19KT 15SM OVC024 08/02 A2985
MMU,2017-04-01 17:45,-74.4149,40.7993,46.40,35.60,65.83,30.00,10.00,0.00,29.86,M,15.00,16.00,OVC,M,M,M,3000.00,M,M,M,M,KMMU 011745Z 03010G16KT 15SM OVC030 08/02 A2986
MMU,2017-04-01 18:45,-74.4149,40.7993,48.20,35.60,61.52,10.00,8.00,0.00,29.87,M,10.00,18.00,BKN,M,M,M,4000.00,M,M,M,M,KMMU 011845Z 01008G18KT 10SM BKN040 09/02 A2987
MMU,2017-04-01 19:50,-74.4149,40.7993,48.20,35.60,61.52,350.00,7.00,0.00,29.88,M,10.00,M,BKN,M,M,M,3200.00,M,M,M,M,KMMU 011950Z 35007KT 10SM BKN032 09/02 A2988
MMU,2017-04-01 20:50,-74.4149,40.7993,48.20,35.60,61.52,350.00,4.00,0.00,29.91,M,10.00,M,OVC,M,M,M,3400.00,M,M,M,M,KMMU 012050Z 35004KT 10SM OVC034 09/02 A2991
MMU,2017-04-01 21:58,-74.4149,40.7993,48.20,35.60,61.52,360.00,8.00,0.00,29.94,M,10.00,M,OVC,M,M,M,3900.00,M,M,M,M,KMMU 012158Z 36008KT 10SM OVC039 09/02 A2994
MMU,2017-04-01 22:54,-74.4149,40.7993,48.20,35.60,61.52,360.00,7.00,0.00,29.97,M,15.00,16.00,BKN,M,M,M,3500.00,M,M,M,M,KMMU 012254Z 36007G16KT 15SM BKN035 09/02 A2997
MMU,2017-04-01 23:45,-74.4149,40.7993,46.40,35.60,65.83,20.00,9.00,0.00,29.99,M,15.00,14.00,BKN,M,M,M,4000.00,M,M,M,M,KMMU 012345Z 02009G14KT 15SM BKN040 08/02 A2999
