#DEBUG: Format Typ    -> comma
#DEBUG: Time Period   -> 2017-04-01 00:00:00+00:00 2017-04-02 00:00:00+00:00
#DEBUG: Time Zone     -> Etc/UTC
#DEBUG: Data Contact   -> daryl herzmann akrherz@iastate.edu 515-294-5978
#DEBUG: Entries Found -> -1
station,valid,lon,lat,tmpf, dwpf, relh, drct, sknt, p01i, alti, mslp, vsby, gust, skyc1, skyc2, skyc3, skyc4, skyl1, skyl2, skyl3, skyl4, presentwx, metar
MPV,2017-04-01 00:00,-72.5623,44.2035,M,M,M,150.00,7.00,M,M,M,1.00,M,VV ,M,M,M,1300.00,M,M,M,-SN BR,KMPV 010000Z AUTO 15007KT 1SM -SN BR VV013 RMK MADISHF
MPV,2017-04-01 00:10,-72.5623,44.2035,M,M,M,150.00,6.00,0.01,M,M,1.00,M,VV ,M,M,M,1200.00,M,M,M,-SN BR,KMPV 010010Z AUTO 15006KT 1SM -SN BR VV012 RMK P0001 MADISHF
MPV,2017-04-01 00:15,-72.5623,44.2035,M,M,M,150.00,5.00,0.02,M,M,1.00,M,VV ,M,M,M,1200.00,M,M,M,-SN BR,KMPV 010015Z AUTO 15005KT 1SM -SN BR VV012 RMK P0002 MADISHF
MPV,2017-04-01 00:20,-72.5623,44.2035,M,M,M,150.00,7.00,0.02,M,M,1.00,M,FEW,OVC,M,M,800.00,1200.00,M,M,-SN BR,KMPV 010020Z AUTO 15007KT 1SM -SN BR FEW008 OVC012 RMK P0002 MADISHF
MPV,2017-04-01 00:25,-72.5623,44.2035,M,M,M,150.00,6.00,0.03,M,M,1.00,M,FEW,OVC,M,M,800.00,1200.00,M,M,-SN BR,KMPV 010025Z AUTO 15006KT 1SM -SN BR FEW008 OVC012 RMK P0003 MADISHF
MPV,2017-04-01 00:30,-72.5623,44.2035,M,M,M,160.00,6.00,0.03,M,M,1.00,M,VV ,M,M,M,1100.00,M,M,M,-SN BR,KMPV 010030Z AUTO 16006KT 1SM -SN BR VV011 RMK P0003 MADISHF
MPV,2017-04-01 00:35,-72.5623,44.2035,M,M,M,160.00,7.00,0.03,M,M,1.00,M,FEW,OVC,M,M,600.00,1200.00,M,M,-SN BR,KMPV 010035Z AUTO 16007KT 1SM -SN BR FEW006 OVC012 RMK P0003 MADISHF
MPV,2017-04-01 00:40,-72.5623,44.2035,M,M,M,160.00,5.00,0.04,M,M,1.00,M,FEW,OVC,M,M,700.00,1200.00,M,M,-SN BR,KMPV 010040Z AUTO 16005KT 1SM -SN BR FEW007 OVC012 RMK P0004 MADISHF
MPV,2017-04-01 00:45,-72.5623,44.2035,M,M,M,150.00,7.00,0.04,M,M,1.00,M,FEW,OVC,M,M,700.00,1200.00,M,M,-SN BR,KMPV 010045Z AUTO 15007KT 1SM -SN BR FEW007 OVC012 RMK P0004 MADISHF
MPV,2017-04-01 00:50,-72.5623,44.2035,M,M,M,150.00,5.00,0.04,M,M,1.00,M,VV ,M,M,M,1300.00,M,M,M,-SN BR,KMPV 010050Z AUTO 15005KT 1SM -SN BR VV013 RMK P0004 MADISHF
MPV,2017-04-01 00:51,-72.5623,44.2035,30.00,28.90,95.61,150.00,5.00,0.05,30.02,1018.20,1.00,M,VV ,M,M,M,1200.00,M,M,M,-SN BR,KMPV 010051Z AUTO 15005KT 1SM -SN BR VV012 M01/M02 A3002 RMK AO2 SLP182 P0005 T10111017
MPV,2017-04-01 01:00,-72.5623,44.2035,30.00,28.90,95.61,170.00,3.00,0.00,30.02,M,0.75,M,VV ,M,M,M,1200.00,M,M,M,-SN BR,KMPV 010100Z AUTO 17003KT 3/4SM -SN BR VV012 M01/M02 A3002 RMK AO2 P0000 T10111017
MPV,2017-04-01 01:05,-72.5623,44.2035,M,M,M,0.00,0.00,0.01,M,M,1.00,M,VV ,M,M,M,1200.00,M,M,M,-SN BR,KMPV 010105Z AUTO 00000KT 1SM -SN BR VV012 RMK P0001 MADISHF
MPV,2017-04-01 01:10,-72.5623,44.2035,M,M,M,170.00,3.00,0.01,M,M,1.00,M,VV ,M,M,M,1200.00,M,M,M,-SN BR,KMPV 010110Z AUTO 17003KT 1SM -SN BR VV012 RMK P0001 MADISHF
MPV,2017-04-01 01:15,-72.5623,44.2035,M,M,M,160.00,3.00,0.02,M,M,0.75,M,VV ,M,M,M,1100.00,M,M,M,-SN BR,KMPV 010115Z AUTO 16003KT 1SM -SN BR VV011 RMK P0002 MADISHF
MPV,2017-04-01 01:20,-72.5623,44.2035,M,M,M,0.00,0.00,0.02,M,M,1.00,M,VV ,M,M,M,999.00,M,M,M,-SN BR,KMPV 010120Z AUTO 00000KT 1SM -SN BR VV009 RMK P0002 MADISHF
MPV,2017-04-01 01:23,-72.5623,44.2035,30.00,30.00,100.00,0.00,0.00,0.02,30.02,M,1.00,M,VV ,M,M,M,1000.00,M,M,M,-SN BR,KMPV 010123Z AUTO 00000KT 1SM -SN BR VV010 M01/M01 A3002 RMK AO2 P0002 T10111011
MPV,2017-04-01 01:25,-72.5623,44.2035,M,M,M,0.00,0.00,0.02,M,M,1.00,M,VV ,M,M,M,999.00,M,M,M,-SN BR,KMPV 010125Z AUTO 00000KT 1SM -SN BR VV009 RMK P0002 MADISHF
MPV,2017-04-01 01:30,-72.5623,44.2035,M,M,M,160.00,4.00,0.03,M,M,1.00,M,FEW,OVC,M,M,700.00,1100.00,M,M,-SN BR,KMPV 010130Z AUTO 16004KT 1SM -SN BR FEW007 OVC011 RMK P0003 MADISHF
MPV,2017-04-01 01:35,-72.5623,44.2035,M,M,M,170.00,4.00,0.03,M,M,1.00,M,VV ,M,M,M,1100.00,M,M,M,-SN BR,KMPV 010135Z AUTO 17004KT 1SM -SN BR VV011 RMK P0003 MADISHF
MPV,2017-04-01 01:40,-72.5623,44.2035,M,M,M,170.00,4.00,0.03,M,M,1.00,M,FEW,OVC,M,M,700.00,1200.00,M,M,-SN BR,KMPV 010140Z AUTO 17004KT 1SM -SN BR FEW007 OVC012 RMK P0003 MADISHF
MPV,2017-04-01 01:42,-72.5623,44.2035,30.00,28.90,95.61,170.00,3.00,0.04,30.02,M,1.00,M,FEW,OVC,M,M,700.00,1200.00,M,M,-SN BR,KMPV 010142Z AUTO 17003KT 1SM -SN BR FEW007 OVC012 M01/M02 A3002 RMK AO2 P0004 T10111017
MPV,2017-04-01 01:45,-72.5623,44.2035,M,M,M,170.00,5.00,0.04,M,M,1.00,M,FEW,OVC,M,M,700.00,1200.00,M,M,-SN BR,KMPV 010145Z AUTO 17005KT 1SM -SN BR FEW007 OVC012 RMK P0004 MADISHF
MPV,2017-04-01 01:50,-72.5623,44.2035,M,M,M,150.00,4.00,0.04,M,M,1.00,M,FEW,OVC,M,M,800.00,1200.00,M,M,-SN BR,KMPV 010150Z AUTO 15004KT 1SM -SN BR FEW008 OVC012 RMK P0004 MADISHF
MPV,2017-04-01 01:51,-72.5623,44.2035,30.00,28.90,95.61,140.00,5.00,0.04,30.01,1017.70,1.25,M,FEW,OVC,M,M,800.00,1200.00,M,M,-SN BR,KMPV 010151Z AUTO 14005KT 1 1/4SM -SN BR FEW008 OVC012 M01/M02 A3001 RMK AO2 SLP177 P0004 T10111017
MPV,2017-04-01 01:55,-72.5623,44.2035,M,M,M,150.00,5.00,M,M,M,1.25,M,FEW,OVC,M,M,700.00,1300.00,M,M,-SN BR,KMPV 010155Z AUTO 15005KT 1 1/2SM -SN BR FEW007 OVC013 RMK MADISHF
MPV,2017-04-01 02:00,-72.5623,44.2035,M,M,M,160.00,4.00,0.01,M,M,1.25,M,BKN,OVC,M,M,1300.00,1800.00,M,M,-SN BR,KMPV 010200Z AUTO 16004KT 1 1/2SM -SN BR BKN013 OVC018 RMK P0001 MADISHF
MPV,2017-04-01 02:10,-72.5623,44.2035,M,M,M,180.00,3.00,0.01,M,M,1.25,M,FEW,OVC,M,M,900.00,1500.00,M,M,-SN BR,KMPV 010210Z AUTO 18003KT 1 1/2SM -SN BR FEW009 OVC015 RMK P0001 MADISHF
MPV,2017-04-01 02:15,-72.5623,44.2035,M,M,M,160.00,5.00,0.02,M,M,1.25,M,BKN,OVC,M,M,1300.00,1699.00,M,M,-SN BR,KMPV 010215Z AUTO 16005KT 1 1/2SM -SN BR BKN013 OVC016 RMK P0002 MADISHF
MPV,2017-04-01 02:20,-72.5623,44.2035,M,M,M,160.00,5.00,0.02,M,M,1.00,M,OVC,M,M,M,1300.00,M,M,M,-SN BR,KMPV 010220Z AUTO 16005KT 1SM -SN BR OVC013 RMK P0002 MADISHF
MPV,2017-04-01 02:22,-72.5623,44.2035,30.00,28.90,95.61,160.00,4.00,0.02,30.00,M,1.00,M,VV ,M,M,M,1200.00,M,M,M,-SN BR,KMPV 010222Z AUTO 16004KT 1SM -SN BR VV012 M01/M02 A3000 RMK AO2 P0002 T10111017
MPV,2017-04-01 02:25,-72.5623,44.2035,M,M,M,180.00,3.00,0.03,M,M,1.00,M,VV ,M,M,M,1200.00,M,M,M,-SN BR,KMPV 010225Z AUTO 18003KT 1SM -SN BR VV012 RMK P0003 MADISHF
MPV,2017-04-01 02:30,-72.5623,44.2035,M,M,M,150.00,6.00,0.03,M,M,1.00,M,FEW,OVC,M,M,700.00,1300.00,M,M,-SN BR,KMPV 010230Z AUTO 15006KT 1SM -SN BR FEW007 OVC013 RMK P0003 MADISHF
MPV,2017-04-01 02:33,-72.5623,44.2035,30.00,28.90,95.61,160.00,6.00,0.03,29.99,M,1.25,M,OVC,M,M,M,1300.00,M,M,M,-SN BR,KMPV 010233Z AUTO 16006KT 1 1/4SM -SN BR OVC013 M01/M02 A2999 RMK AO2 P0003 T10111017
MPV,2017-04-01 02:35,-72.5623,44.2035,M,M,M,160.00,6.00,0.03,M,M,1.25,M,OVC,M,M,M,1300.00,M,M,M,-SN BR,KMPV 010235Z AUTO 16006KT 1 1/2SM -SN BR OVC013 RMK P0003 MADISHF
MPV,2017-04-01 02:40,-72.5623,44.2035,M,M,M,160.00,7.00,0.04,M,M,1.25,M,OVC,M,M,M,1500.00,M,M,M,-SN BR,KMPV 010240Z AUTO 16007KT 1 1/2SM -SN BR OVC015 RMK P0004 MADISHF
MPV,2017-04-01 02:43,-72.5623,44.2035,30.00,28.00,92.15,150.00,5.00,0.04,29.99,M,1.25,M,OVC,M,M,M,1500.00,M,M,M,-SN BR,KMPV 010243Z AUTO 15005KT 1 1/4SM -SN BR OVC015 M01/M02 A2999 RMK AO2 P0004 T10111022
MPV,2017-04-01 02:45,-72.5623,44.2035,M,M,M,150.00,6.00,0.04,M,M,1.25,M,OVC,M,M,M,1500.00,M,M,M,-SN BR,KMPV 010245Z AUTO 15006KT 1 1/2SM -SN BR OVC015 RMK P0004 MADISHF
MPV,2017-04-01 02:50,-72.5623,44.2035,M,M,M,150.00,6.00,0.04,M,M,1.00,M,VV ,M,M,M,1400.00,M,M,M,-SN BR,KMPV 010250Z AUTO 15006KT 1SM -SN BR VV014 RMK P0004 MADISHF
MPV,2017-04-01 02:51,-72.5623,44.2035,30.00,28.90,95.61,160.00,7.00,0.04,29.99,1016.90,1.00,M,VV ,M,M,M,1400.00,M,M,M,-SN BR,KMPV 010251Z AUTO 16007KT 1SM -SN BR VV014 M01/M02 A2999 RMK AO2 SLP169 P0004 60013 T10111017 58013
MPV,2017-04-01 02:55,-72.5623,44.2035,M,M,M,170.00,6.00,0.01,M,M,1.00,M,VV ,M,M,M,1400.00,M,M,M,-SN BR,KMPV 010255Z AUTO 17006KT 1SM -SN BR VV014 RMK P0001 MADISHF
MPV,2017-04-01 03:05,-72.5623,44.2035,M,M,M,180.00,5.00,0.01,M,M,1.00,M,VV ,M,M,M,1400.00,M,M,M,-SN BR,KMPV 010305Z AUTO 18005KT 1SM -SN BR VV014 RMK P0001 MADISHF
MPV,2017-04-01 03:10,-72.5623,44.2035,M,M,M,180.00,3.00,0.02,M,M,1.00,M,VV ,M,M,M,1400.00,M,M,M,-SN BR,KMPV 010310Z AUTO 18003KT 1SM -SN BR VV014 RMK P0002 MADISHF
MPV,2017-04-01 03:15,-72.5623,44.2035,M,M,M,170.00,3.00,0.02,M,M,1.00,M,BKN,OVC,M,M,1300.00,1800.00,M,M,-SN BR,KMPV 010315Z AUTO 17003KT 1SM -SN BR BKN013 OVC018 RMK P0002 MADISHF
MPV,2017-04-01 03:20,-72.5623,44.2035,M,M,M,180.00,3.00,0.02,M,M,1.00,M,VV ,M,M,M,1400.00,M,M,M,-SN BR,KMPV 010320Z AUTO 18003KT 1SM -SN BR VV014 RMK P0002 MADISHF
MPV,2017-04-01 03:25,-72.5623,44.2035,M,M,M,0.00,0.00,0.03,M,M,1.00,M,VV ,M,M,M,1400.00,M,M,M,-SN BR,KMPV 010325Z AUTO 00000KT 1SM -SN BR VV014 RMK P0003 MADISHF
MPV,2017-04-01 03:30,-72.5623,44.2035,M,M,M,180.00,3.00,0.03,M,M,1.25,M,OVC,M,M,M,1500.00,M,M,M,-SN BR,KMPV 010330Z AUTO 18003KT 1 1/2SM -SN BR OVC015 RMK P0003 MADISHF
MPV,2017-04-01 03:35,-72.5623,44.2035,M,M,M,180.00,3.00,0.03,M,M,1.25,M,OVC,M,M,M,1500.00,M,M,M,-SN BR,KMPV 010335Z AUTO 18003KT 1 1/2SM -SN BR OVC015 RMK P0003 MADISHF
MPV,2017-04-01 03:36,-72.5623,44.2035,30.00,28.90,95.61,180.00,4.00,0.03,29.98,M,1.25,M,OVC,M,M,M,1500.00,M,M,M,-SN BR,KMPV 010336Z AUTO 18004KT 1 1/4SM -SN BR OVC015 M01/M02 A2998 RMK AO2 P0003 T10111017
MPV,2017-04-01 03:40,-72.5623,44.2035,M,M,M,170.00,3.00,0.04,M,M,1.25,M,OVC,M,M,M,1500.00,M,M,M,-SN BR,KMPV 010340Z AUTO 17003KT 1 1/2SM -SN BR OVC015 RMK P0004 MADISHF
MPV,2017-04-01 03:45,-72.5623,44.2035,M,M,M,170.00,3.00,0.04,M,M,1.25,M,OVC,M,M,M,1500.00,M,M,M,-SN BR,KMPV 010345Z AUTO 17003KT 1 1/2SM -SN BR OVC015 RMK P0004 MADISHF
MPV,2017-04-01 03:50,-72.5623,44.2035,M,M,M,170.00,4.00,0.04,M,M,1.00,M,VV ,M,M,M,1500.00,M,M,M,-SN BR,KMPV 010350Z AUTO 17004KT 1SM -SN BR VV015 RMK P0004 MADISHF
MPV,2017-04-01 03:51,-72.5623,44.2035,30.00,28.90,95.61,170.00,4.00,0.04,29.97,1016.50,1.00,M,VV ,M,M,M,1500.00,M,M,M,-SN BR,KMPV 010351Z AUTO 17004KT 1SM -SN BR VV015 M01/M02 A2997 RMK AO2 SLP165 P0004 T10111017
MPV,2017-04-01 03:55,-72.5623,44.2035,M,M,M,170.00,4.00,0.01,M,M,1.00,M,VV ,M,M,M,1500.00,M,M,M,-SN BR,KMPV 010355Z AUTO 17004KT 1SM -SN BR VV015 RMK P0001 MADISHF
MPV,2017-04-01 04:00,-72.5623,44.2035,M,M,M,170.00,3.00,0.01,M,M,1.00,M,VV ,M,M,M,1500.00,M,M,M,-SN BR,KMPV 010400Z AUTO 17003KT 1SM -SN BR VV015 RMK P0001 MADISHF
MPV,2017-04-01 04:05,-72.5623,44.2035,M,M,M,0.00,0.00,0.01,M,M,1.25,M,OVC,M,M,M,1600.00,M,M,M,-SN BR,KMPV 010405Z AUTO 00000KT 1 1/2SM -SN BR OVC016 RMK P0001 MADISHF
MPV,2017-04-01 04:08,-72.5623,44.2035,30.00,28.90,95.61,160.00,3.00,0.02,29.97,M,1.50,M,OVC,M,M,M,1600.00,M,M,M,-SN BR,KMPV 010408Z AUTO 16003KT 1 1/2SM -SN BR OVC016 M01/M02 A2997 RMK AO2 P0002 T10111017
MPV,2017-04-01 04:10,-72.5623,44.2035,M,M,M,0.00,0.00,0.02,M,M,1.50,M,OVC,M,M,M,1600.00,M,M,M,-SN BR,KMPV 010410Z AUTO 00000KT 1 1/2SM -SN BR OVC016 RMK P0002 MADISHF
MPV,2017-04-01 04:25,-72.5623,44.2035,M,M,M,0.00,0.00,0.02,M,M,1.50,M,OVC,M,M,M,1699.00,M,M,M,-SN BR,KMPV 010425Z AUTO 00000KT 1 1/2SM -SN BR OVC016 RMK P0002 MADISHF
MPV,2017-04-01 04:30,-72.5623,44.2035,M,M,M,0.00,0.00,0.03,M,M,1.25,M,OVC,M,M,M,1800.00,M,M,M,-SN BR,KMPV 010430Z AUTO 00000KT 1 1/2SM -SN BR OVC018 RMK P0003 MADISHF
MPV,2017-04-01 04:35,-72.5623,44.2035,M,M,M,0.00,0.00,0.03,M,M,1.25,M,OVC,M,M,M,1800.00,M,M,M,-SN BR,KMPV 010435Z AUTO 00000KT 1 1/2SM -SN BR OVC018 RMK P0003 MADISHF
MPV,2017-04-01 04:40,-72.5623,44.2035,M,M,M,0.00,0.00,0.03,M,M,1.50,M,OVC,M,M,M,1699.00,M,M,M,-SN BR,KMPV 010440Z AUTO 00000KT 1 1/2SM -SN BR OVC016 RMK P0003 MADISHF
MPV,2017-04-01 04:45,-72.5623,44.2035,M,M,M,0.00,0.00,0.04,M,M,1.25,M,OVC,M,M,M,1699.00,M,M,M,-SN BR,KMPV 010445Z AUTO 00000KT 1 1/2SM -SN BR OVC016 RMK P0004 MADISHF
MPV,2017-04-01 04:49,-72.5623,44.2035,30.20,28.40,92.92,0.00,0.00,0.04,29.95,M,1.00,M,VV ,M,M,M,1500.00,M,M,M,-SN BR,KMPV 010449Z AUTO 00000KT 1SM -SN BR VV015 M01/M02 A2995 RMK AO2 P0004
MPV,2017-04-01 04:50,-72.5623,44.2035,M,M,M,0.00,0.00,0.04,M,M,1.00,M,VV ,M,M,M,1500.00,M,M,M,-SN BR,KMPV 010450Z AUTO 00000KT 1SM -SN BR VV015 RMK P0004 MADISHF
MPV,2017-04-01 04:51,-72.5623,44.2035,30.00,28.90,95.61,0.00,0.00,0.04,29.95,1015.80,1.00,M,VV ,M,M,M,1500.00,M,M,M,-SN BR,KMPV 010451Z AUTO 00000KT 1SM -SN BR VV015 M01/M02 A2995 RMK AO2 SLP158 P0004 T10111017 400111017
MPV,2017-04-01 04:55,-72.5623,44.2035,M,M,M,0.00,0.00,M,M,M,1.25,M,OVC,M,M,M,1500.00,M,M,M,-SN BR,KMPV 010455Z AUTO 00000KT 1 1/2SM -SN BR OVC015 RMK MADISHF
MPV,2017-04-01 04:59,-72.5623,44.2035,30.00,28.90,95.61,0.00,0.00,0.01,29.95,M,1.25,M,OVC,M,M,M,1500.00,M,M,M,-SN BR,KMPV 010459Z AUTO 00000KT 1 1/4SM -SN BR OVC015 M01/M02 A2995 RMK AO2 P0001 T10111017
MPV,2017-04-01 05:00,-72.5623,44.2035,M,M,M,0.00,0.00,0.01,M,M,1.25,M,OVC,M,M,M,1500.00,M,M,M,-SN BR,KMPV 010500Z AUTO 00000KT 1 1/2SM -SN BR OVC015 RMK P0001 MADISHF
MPV,2017-04-01 05:07,-72.5623,44.2035,28.90,28.90,100.00,0.00,0.00,0.01,29.95,M,1.50,M,OVC,M,M,M,1600.00,M,M,M,-SN BR,KMPV 010507Z AUTO 00000KT 1 1/2SM -SN BR OVC016 M02/M02 A2995 RMK AO2 P0001 T10171017
MPV,2017-04-01 05:20,-72.5623,44.2035,M,M,M,0.00,0.00,0.01,M,M,1.50,M,OVC,M,M,M,1699.00,M,M,M,-SN BR,KMPV 010520Z AUTO 00000KT 1 1/2SM -SN BR OVC016 RMK P0001 MADISHF
MPV,2017-04-01 05:25,-72.5623,44.2035,M,M,M,0.00,0.00,0.02,M,M,1.50,M,OVC,M,M,M,1699.00,M,M,M,-SN BR,KMPV 010525Z AUTO 00000KT 1 1/2SM -SN BR OVC016 RMK P0002 MADISHF
MPV,2017-04-01 05:30,-72.5623,44.2035,M,M,M,0.00,0.00,0.02,M,M,1.25,M,OVC,M,M,M,1699.00,M,M,M,-SN BR,KMPV 010530Z AUTO 00000KT 1 1/2SM -SN BR OVC016 RMK P0002 MADISHF
MPV,2017-04-01 05:34,-72.5623,44.2035,28.90,28.90,100.00,0.00,0.00,0.02,29.95,M,1.25,M,OVC,M,M,M,1500.00,M,M,M,-SN BR,KMPV 010534Z AUTO 00000KT 1 1/4SM -SN BR OVC015 M02/M02 A2995 RMK AO2 P0002 T10171017
MPV,2017-04-01 05:35,-72.5623,44.2035,M,M,M,0.00,0.00,0.02,M,M,1.25,M,OVC,M,M,M,1500.00,M,M,M,-SN BR,KMPV 010535Z AUTO 00000KT 1 1/2SM -SN BR OVC015 RMK P0002 MADISHF
MPV,2017-04-01 05:40,-72.5623,44.2035,M,M,M,0.00,0.00,0.03,M,M,1.00,M,VV ,M,M,M,1500.00,M,M,M,-SN BR,KMPV 010540Z AUTO 00000KT 1SM -SN BR VV015 RMK P0003 MADISHF
MPV,2017-04-01 05:43,-72.5623,44.2035,28.90,28.90,100.00,0.00,0.00,0.03,29.95,M,1.00,M,VV ,M,M,M,1500.00,M,M,M,-SN BR,KMPV 010543Z AUTO 00000KT 1SM -SN BR VV015 M02/M02 A2995 RMK AO2 P0003 T10171017
MPV,2017-04-01 05:45,-72.5623,44.2035,M,M,M,0.00,0.00,0.03,M,M,1.00,M,VV ,M,M,M,1500.00,M,M,M,-SN BR,KMPV 010545Z AUTO 00000KT 1SM -SN BR VV015 RMK P0003 MADISHF
MPV,2017-04-01 05:50,-72.5623,44.2035,M,M,M,0.00,0.00,0.04,M,M,1.00,M,VV ,M,M,M,1300.00,M,M,M,-SN BR,KMPV 010550Z AUTO 00000KT 1SM -SN BR VV013 RMK P0004 MADISHF
MPV,2017-04-01 05:51,-72.5623,44.2035,28.90,28.90,100.00,0.00,0.00,0.04,29.94,1015.50,1.00,M,VV ,M,M,M,1300.00,M,M,M,-SN BR,KMPV 010551Z AUTO 00000KT 1SM -SN BR VV013 M02/M02 A2994 RMK AO2 SLP155 P0004 60025 T10171017 11011 21017 56009
MPV,2017-04-01 06:01,-72.5623,44.2035,28.90,28.90,100.00,0.00,0.00,0.01,29.94,M,0.75,M,VV ,M,M,M,1100.00,M,M,M,-SN BR,KMPV 010601Z AUTO 00000KT 3/4SM -SN BR VV011 M02/M02 A2994 RMK AO2 P0001 T10171017
MPV,2017-04-01 06:05,-72.5623,44.2035,M,M,M,0.00,0.00,0.01,M,M,0.75,M,VV ,M,M,M,1100.00,M,M,M,-SN BR,KMPV 010605Z AUTO 00000KT 1SM -SN BR VV011 RMK P0001 MADISHF
MPV,2017-04-01 06:10,-72.5623,44.2035,M,M,M,0.00,0.00,0.01,M,M,1.00,M,VV ,M,M,M,1100.00,M,M,M,-SN BR,KMPV 010610Z AUTO 00000KT 1SM -SN BR VV011 RMK P0001 MADISHF
MPV,2017-04-01 06:13,-72.5623,44.2035,28.90,28.90,100.00,0.00,0.00,0.02,29.93,M,1.00,M,VV ,M,M,M,1100.00,M,M,M,-SN BR,KMPV 010613Z AUTO 00000KT 1SM -SN BR VV011 M02/M02 A2993 RMK AO2 P0002 T10171017
MPV,2017-04-01 06:15,-72.5623,44.2035,M,M,M,0.00,0.00,0.02,M,M,1.00,M,VV ,M,M,M,1200.00,M,M,M,-SN BR,KMPV 010615Z AUTO 00000KT 1SM -SN BR VV012 RMK P0002 MADISHF
MPV,2017-04-01 06:20,-72.5623,44.2035,M,M,M,0.00,0.00,0.02,M,M,1.00,M,VV ,M,M,M,1400.00,M,M,M,-SN BR,KMPV 010620Z AUTO 00000KT 1SM -SN BR VV014 RMK P0002 MADISHF
MPV,2017-04-01 06:23,-72.5623,44.2035,28.90,28.90,100.00,0.00,0.00,0.02,29.93,M,1.25,M,OVC,M,M,M,1500.00,M,M,M,-SN BR,KMPV 010623Z AUTO 00000KT 1 1/4SM -SN BR OVC015 M02/M02 A2993 RMK AO2 P0002 T10171017
MPV,2017-04-01 06:25,-72.5623,44.2035,M,M,M,0.00,0.00,0.02,M,M,1.25,M,OVC,M,M,M,1500.00,M,M,M,-SN BR,KMPV 010625Z AUTO 00000KT 1 1/2SM -SN BR OVC015 RMK P0002 MADISHF
MPV,2017-04-01 06:30,-72.5623,44.2035,M,M,M,0.00,0.00,0.02,M,M,1.75,M,FEW,BKN,OVC,M,1100.00,1699.00,2400.00,M,-SN BR,KMPV 010630Z AUTO 00000KT 2SM -SN BR FEW011 BKN016 OVC024 RMK P0002 MADISHF
MPV,2017-04-01 06:32,-72.5623,44.2035,28.90,28.90,100.00,0.00,0.00,0.02,29.93,M,2.00,M,FEW,BKN,OVC,M,1100.00,1700.00,3800.00,M,-SN BR,KMPV 010632Z AUTO 00000KT 2SM -SN BR FEW011 BKN017 OVC038 M02/M02 A2993 RMK AO2 P0002 T10171017
MPV,2017-04-01 06:35,-72.5623,44.2035,M,M,M,0.00,0.00,0.02,M,M,2.00,M,FEW,BKN,OVC,M,1100.00,1900.00,3800.00,M,-SN BR,KMPV 010635Z AUTO 00000KT 2SM -SN BR FEW011 BKN019 OVC038 RMK P0002 MADISHF
MPV,2017-04-01 06:45,-72.5623,44.2035,M,M,M,0.00,0.00,0.03,M,M,2.00,M,BKN,OVC,M,M,2100.00,3900.00,M,M,-SN BR,KMPV 010645Z AUTO 00000KT 2SM -SN BR BKN021 OVC039 RMK P0003 MADISHF
MPV,2017-04-01 06:50,-72.5623,44.2035,M,M,M,0.00,0.00,0.03,M,M,1.50,M,BKN,OVC,M,M,1900.00,2400.00,M,M,-SN BR,KMPV 010650Z AUTO 00000KT 1 1/2SM -SN BR BKN019 OVC024 RMK P0003 MADISHF
MPV,2017-04-01 06:51,-72.5623,44.2035,28.90,28.90,100.00,0.00,0.00,0.03,29.93,1015.00,1.50,M,BKN,OVC,M,M,1900.00,2400.00,M,M,-SN BR,KMPV 010651Z AUTO 00000KT 1 1/2SM -SN BR BKN019 OVC024 M02/M02 A2993 RMK AO2 SLP150 P0003 T10171017
MPV,2017-04-01 06:55,-72.5623,44.2035,M,M,M,0.00,0.00,M,M,M,1.25,M,BKN,OVC,M,M,1900.00,2400.00,M,M,-SN BR,KMPV 010655Z AUTO 00000KT 1 1/2SM -SN BR BKN019 OVC024 RMK MADISHF
MPV,2017-04-01 07:00,-72.5623,44.2035,M,M,M,0.00,0.00,M,M,M,1.50,M,OVC,M,M,M,1900.00,M,M,M,-SN BR,KMPV 010700Z AUTO 00000KT 1 1/2SM -SN BR OVC019 RMK MADISHF
MPV,2017-04-01 07:05,-72.5623,44.2035,M,M,M,0.00,0.00,0.01,M,M,1.50,M,OVC,M,M,M,1699.00,M,M,M,-SN BR,KMPV 010705Z AUTO 00000KT 1 1/2SM -SN BR OVC016 RMK P0001 MADISHF
MPV,2017-04-01 07:10,-72.5623,44.2035,M,M,M,0.00,0.00,0.01,M,M,1.50,M,OVC,M,M,M,1699.00,M,M,M,-SN BR,KMPV 010710Z AUTO 00000KT 1 1/2SM -SN BR OVC016 RMK P0001 MADISHF
MPV,2017-04-01 07:19,-72.5623,44.2035,28.90,28.90,100.00,0.00,0.00,0.01,29.92,M,1.25,M,OVC,M,M,M,1500.00,M,M,M,-SN BR,KMPV 010719Z AUTO 00000KT 1 1/4SM -SN BR OVC015 M02/M02 A2992 RMK AO2 P0001 T10171017
MPV,2017-04-01 07:20,-72.5623,44.2035,M,M,M,0.00,0.00,0.01,M,M,1.25,M,OVC,M,M,M,1500.00,M,M,M,-SN BR,KMPV 010720Z AUTO 00000KT 1 1/2SM -SN BR OVC015 RMK P0001 MADISHF
MPV,2017-04-01 07:25,-72.5623,44.2035,M,M,M,0.00,0.00,0.02,M,M,1.50,M,OVC,M,M,M,1699.00,M,M,M,-SN BR,KMPV 010725Z AUTO 00000KT 1 1/2SM -SN BR OVC016 RMK P0002 MADISHF
MPV,2017-04-01 07:28,-72.5623,44.2035,28.90,28.90,100.00,0.00,0.00,0.02,29.92,M,1.50,M,OVC,M,M,M,1700.00,M,M,M,-SN BR,KMPV 010728Z AUTO 00000KT 1 1/2SM -SN BR OVC017 M02/M02 A2992 RMK AO2 P0002 T10171017
MPV,2017-04-01 07:30,-72.5623,44.2035,M,M,M,0.00,0.00,0.02,M,M,1.50,M,OVC,M,M,M,1699.00,M,M,M,-SN BR,KMPV 010730Z AUTO 00000KT 1 1/2SM -SN BR OVC016 RMK P0002 MADISHF
MPV,2017-04-01 07:35,-72.5623,44.2035,M,M,M,0.00,0.00,0.02,M,M,1.50,M,BKN,OVC,M,M,1699.00,2400.00,M,M,-SN BR,KMPV 010735Z AUTO 00000KT 1 1/2SM -SN BR BKN016 OVC024 RMK P0002 MADISHF
MPV,2017-04-01 07:40,-72.5623,44.2035,M,M,M,0.00,0.00,0.02,M,M,1.50,M,BKN,OVC,M,M,1800.00,2400.00,M,M,-SN BR,KMPV 010740Z AUTO 00000KT 1 1/2SM -SN BR BKN018 OVC024 RMK P0002 MADISHF
MPV,2017-04-01 07:45,-72.5623,44.2035,M,M,M,0.00,0.00,0.03,M,M,1.25,M,OVC,M,M,M,1800.00,M,M,M,-SN BR,KMPV 010745Z AUTO 00000KT 1 1/2SM -SN BR OVC018 RMK P0003 MADISHF
MPV,2017-04-01 07:50,-72.5623,44.2035,M,M,M,0.00,0.00,0.03,M,M,1.25,M,OVC,M,M,M,1600.00,M,M,M,-SN BR,KMPV 010750Z AUTO 00000KT 1 1/2SM -SN BR OVC016 RMK P0003 MADISHF
MPV,2017-04-01 07:51,-72.5623,44.2035,28.90,28.90,100.00,0.00,0.00,0.03,29.92,1014.70,1.25,M,OVC,M,M,M,1600.00,M,M,M,-SN BR,KMPV 010751Z AUTO 00000KT 1 1/4SM -SN BR OVC016 M02/M02 A2992 RMK AO2 SLP147 P0003 T10171017
MPV,2017-04-01 07:55,-72.5623,44.2035,M,M,M,0.00,0.00,0.01,M,M,1.00,M,VV ,M,M,M,1500.00,M,M,M,-SN BR,KMPV 010755Z AUTO 00000KT 1SM -SN BR VV015 RMK P0001 MADISHF
MPV,2017-04-01 07:57,-72.5623,44.2035,28.90,28.90,100.00,0.00,0.00,0.01,29.92,M,1.00,M,VV ,M,M,M,1400.00,M,M,M,-SN BR,KMPV 010757Z AUTO 00000KT 1SM -SN BR VV014 M02/M02 A2992 RMK AO2 P0001 T10171017
MPV,2017-04-01 08:00,-72.5623,44.2035,M,M,M,0.00,0.00,0.01,M,M,1.00,M,VV ,M,M,M,1400.00,M,M,M,-SN BR,KMPV 010800Z AUTO 00000KT 1SM -SN BR VV014 RMK P0001 MADISHF
MPV,2017-04-01 08:05,-72.5623,44.2035,M,M,M,0.00,0.00,0.01,M,M,1.25,M,OVC,M,M,M,1400.00,M,M,M,-SN BR,KMPV 010805Z AUTO 00000KT 1 1/2SM -SN BR OVC014 RMK P0001 MADISHF
MPV,2017-04-01 08:11,-72.5623,44.2035,28.90,28.90,100.00,0.00,0.00,0.02,29.91,M,1.25,M,FEW,OVC,M,M,300.00,1400.00,M,M,-SN BR,KMPV 010811Z AUTO 00000KT 1 1/4SM -SN BR FEW003 OVC014 M02/M02 A2991 RMK AO2 P0002 T10171017
MPV,2017-04-01 08:15,-72.5623,44.2035,M,M,M,0.00,0.00,0.02,M,M,1.50,M,FEW,BKN,OVC,M,300.00,1400.00,2100.00,M,-SN BR,KMPV 010815Z AUTO 00000KT 1 1/2SM -SN BR FEW003 BKN014 OVC021 RMK P0002 MADISHF
MPV,2017-04-01 08:20,-72.5623,44.2035,M,M,M,0.00,0.00,0.02,M,M,1.50,M,FEW,OVC,M,M,300.00,1400.00,M,M,-SN BR,KMPV 010820Z AUTO 00000KT 1 1/2SM -SN BR FEW003 OVC014 RMK P0002 MADISHF
MPV,2017-04-01 08:21,-72.5623,44.2035,28.90,28.90,100.00,0.00,0.00,0.02,29.91,M,1.50,M,FEW,OVC,M,M,300.00,1400.00,M,M,-SN BR,KMPV 010821Z AUTO 00000KT 1 1/2SM -SN BR FEW003 OVC014 M02/M02 A2991 RMK AO2 P0002 T10171017
MPV,2017-04-01 08:25,-72.5623,44.2035,M,M,M,0.00,0.00,0.02,M,M,1.50,M,SCT,OVC,M,M,300.00,1600.00,M,M,-SN BR,KMPV 010825Z AUTO 00000KT 1 1/2SM -SN BR SCT003 OVC016 RMK P0002 MADISHF
MPV,2017-04-01 08:30,-72.5623,44.2035,M,M,M,0.00,0.00,0.02,M,M,1.50,M,SCT,BKN,OVC,M,300.00,1600.00,2100.00,M,-SN BR,KMPV 010830Z AUTO 00000KT 1 1/2SM -SN BR SCT003 BKN016 OVC021 RMK P0002 MADISHF
MPV,2017-04-01 08:31,-72.5623,44.2035,28.90,28.90,100.00,0.00,0.00,0.02,29.91,M,1.50,M,SCT,OVC,M,M,300.00,1800.00,M,M,-SN BR,KMPV 010831Z AUTO 00000KT 1 1/2SM -SN BR SCT003 OVC018 M02/M02 A2991 RMK AO2 P0002 T10171017
MPV,2017-04-01 08:35,-72.5623,44.2035,M,M,M,0.00,0.00,0.03,M,M,1.50,M,SCT,OVC,M,M,400.00,1800.00,M,M,-SN BR,KMPV 010835Z AUTO 00000KT 1 1/2SM -SN BR SCT004 OVC018 RMK P0003 MADISHF
MPV,2017-04-01 08:40,-72.5623,44.2035,M,M,M,0.00,0.00,0.03,M,M,1.50,M,SCT,OVC,M,M,400.00,1800.00,M,M,-SN BR,KMPV 010840Z AUTO 00000KT 1 1/2SM -SN BR SCT004 OVC018 RMK P0003 MADISHF
MPV,2017-04-01 08:45,-72.5623,44.2035,M,M,M,0.00,0.00,0.03,M,M,1.50,M,SCT,OVC,M,M,499.00,1800.00,M,M,-SN BR,KMPV 010845Z AUTO 00000KT 1 1/2SM -SN BR SCT004 OVC018 RMK P0003 MADISHF
MPV,2017-04-01 08:50,-72.5623,44.2035,M,M,M,0.00,0.00,0.03,M,M,1.50,M,FEW,OVC,M,M,499.00,1600.00,M,M,-SN BR,KMPV 010850Z AUTO 00000KT 1 1/2SM -SN BR FEW004 OVC016 RMK P0003 MADISHF
MPV,2017-04-01 08:51,-72.5623,44.2035,28.90,28.90,100.00,0.00,0.00,0.03,29.92,1014.70,1.50,M,FEW,OVC,M,M,500.00,1600.00,M,M,-SN BR,KMPV 010851Z AUTO 00000KT 1 1/2SM -SN BR FEW005 OVC016 M02/M02 A2992 RMK AO2 SLP147 P0003 60009 T10171017 56008
MPV,2017-04-01 09:05,-72.5623,44.2035,M,M,M,0.00,0.00,0.01,M,M,1.50,M,FEW,OVC,M,M,499.00,1600.00,M,M,-SN BR,KMPV 010905Z AUTO 00000KT 1 1/2SM -SN BR FEW004 OVC016 RMK P0001 MADISHF
MPV,2017-04-01 09:10,-72.5623,44.2035,M,M,M,0.00,0.00,0.01,M,M,1.50,M,OVC,M,M,M,1500.00,M,M,M,-SN BR,KMPV 010910Z AUTO 00000KT 1 1/2SM -SN BR OVC015 RMK P0001 MADISHF
MPV,2017-04-01 09:15,-72.5623,44.2035,M,M,M,0.00,0.00,0.01,M,M,1.25,M,OVC,M,M,M,1500.00,M,M,M,-SN BR,KMPV 010915Z AUTO 00000KT 1 1/2SM -SN BR OVC015 RMK P0001 MADISHF
MPV,2017-04-01 09:19,-72.5623,44.2035,28.90,28.90,100.00,0.00,0.00,0.02,29.92,M,1.25,M,OVC,M,M,M,1500.00,M,M,M,-SN BR,KMPV 010919Z AUTO 00000KT 1 1/4SM -SN BR OVC015 M02/M02 A2992 RMK AO2 P0002 T10171017
MPV,2017-04-01 09:20,-72.5623,44.2035,M,M,M,0.00,0.00,0.02,M,M,1.25,M,OVC,M,M,M,1300.00,M,M,M,-SN BR,KMPV 010920Z AUTO 00000KT 1 1/2SM -SN BR OVC013 RMK P0002 MADISHF
MPV,2017-04-01 09:26,-72.5623,44.2035,28.90,28.90,100.00,0.00,0.00,0.02,29.92,M,1.00,M,VV ,M,M,M,1200.00,M,M,M,-SN BR,KMPV 010926Z AUTO 00000KT 1SM -SN BR VV012 M02/M02 A2992 RMK AO2 P0002 T10171017
MPV,2017-04-01 09:35,-72.5623,44.2035,M,M,M,0.00,0.00,0.03,M,M,1.00,M,VV ,M,M,M,1100.00,M,M,M,-SN BR,KMPV 010935Z AUTO 00000KT 1SM -SN BR VV011 RMK P0003 MADISHF
MPV,2017-04-01 09:40,-72.5623,44.2035,M,M,M,0.00,0.00,0.03,M,M,1.00,M,VV ,M,M,M,1100.00,M,M,M,-SN BR,KMPV 010940Z AUTO 00000KT 1SM -SN BR VV011 RMK P0003 MADISHF
MPV,2017-04-01 09:45,-72.5623,44.2035,M,M,M,0.00,0.00,0.04,M,M,1.00,M,VV ,M,M,M,1100.00,M,M,M,-SN BR,KMPV 010945Z AUTO 00000KT 1SM -SN BR VV011 RMK P0004 MADISHF
MPV,2017-04-01 09:50,-72.5623,44.2035,M,M,M,0.00,0.00,0.04,M,M,1.00,M,VV ,M,M,M,1100.00,M,M,M,-SN BR,KMPV 010950Z AUTO 00000KT 1SM -SN BR VV011 RMK P0004 MADISHF
MPV,2017-04-01 09:51,-72.5623,44.2035,28.90,28.90,100.00,0.00,0.00,0.04,29.92,1014.90,1.00,M,VV ,M,M,M,1200.00,M,M,M,-SN BR,KMPV 010951Z AUTO 00000KT 1SM -SN BR VV012 M02/M02 A2992 RMK AO2 SLP149 P0004 T10171017
MPV,2017-04-01 09:55,-72.5623,44.2035,M,M,M,0.00,0.00,M,M,M,1.00,M,VV ,M,M,M,1200.00,M,M,M,-SN BR,KMPV 010955Z AUTO 00000KT 1SM -SN BR VV012 RMK MADISHF
MPV,2017-04-01 10:00,-72.5623,44.2035,M,M,M,0.00,0.00,0.01,M,M,1.00,M,VV ,M,M,M,1200.00,M,M,M,-SN BR,KMPV 011000Z AUTO 00000KT 1SM -SN BR VV012 RMK P0001 MADISHF
MPV,2017-04-01 10:05,-72.5623,44.2035,M,M,M,0.00,0.00,0.01,M,M,1.00,M,VV ,M,M,M,1300.00,M,M,M,-SN BR,KMPV 011005Z AUTO 00000KT 1SM -SN BR VV013 RMK P0001 MADISHF
MPV,2017-04-01 10:09,-72.5623,44.2035,28.90,28.90,100.00,0.00,0.00,0.01,29.93,M,1.25,M,OVC,M,M,M,1500.00,M,M,M,-SN BR,KMPV 011009Z AUTO 00000KT 1 1/4SM -SN BR OVC015 M02/M02 A2993 RMK AO2 P0001 T10171017
MPV,2017-04-01 10:15,-72.5623,44.2035,M,M,M,0.00,0.00,0.01,M,M,1.75,M,OVC,M,M,M,1699.00,M,M,M,-SN BR,KMPV 011015Z AUTO 00000KT 2SM -SN BR OVC016 RMK P0001 MADISHF
MPV,2017-04-01 10:16,-72.5623,44.2035,28.90,28.90,100.00,0.00,0.00,0.01,29.93,M,1.75,M,OVC,M,M,M,1700.00,M,M,M,-SN BR,KMPV 011016Z AUTO 00000KT 1 3/4SM -SN BR OVC017 M02/M02 A2993 RMK AO2 P0001 T10171017
MPV,2017-04-01 10:20,-72.5623,44.2035,M,M,M,0.00,0.00,0.02,M,M,1.75,M,OVC,M,M,M,1699.00,M,M,M,-SN BR,KMPV 011020Z AUTO 00000KT 2SM -SN BR OVC016 RMK P0002 MADISHF
MPV,2017-04-01 10:25,-72.5623,44.2035,M,M,M,0.00,0.00,0.02,M,M,1.75,M,OVC,M,M,M,1699.00,M,M,M,-SN BR,KMPV 011025Z AUTO 00000KT 2SM -SN BR OVC016 RMK P0002 MADISHF
MPV,2017-04-01 10:30,-72.5623,44.2035,M,M,M,0.00,0.00,0.02,M,M,1.75,M,OVC,M,M,M,1800.00,M,M,M,-SN BR,KMPV 011030Z AUTO 00000KT 2SM -SN BR OVC018 RMK P0002 MADISHF
MPV,2017-04-01 10:35,-72.5623,44.2035,M,M,M,0.00,0.00,0.02,M,M,1.50,M,OVC,M,M,M,1800.00,M,M,M,-SN BR,KMPV 011035Z AUTO 00000KT 1 1/2SM -SN BR OVC018 RMK P0002 MADISHF
MPV,2017-04-01 10:40,-72.5623,44.2035,M,M,M,0.00,0.00,0.02,M,M,1.50,M,OVC,M,M,M,1800.00,M,M,M,-SN BR,KMPV 011040Z AUTO 00000KT 1 1/2SM -SN BR OVC018 RMK P0002 MADISHF
MPV,2017-04-01 10:45,-72.5623,44.2035,M,M,M,0.00,0.00,0.03,M,M,1.25,M,OVC,M,M,M,1800.00,M,M,M,-SN BR,KMPV 011045Z AUTO 00000KT 1 1/2SM -SN BR OVC018 RMK P0003 MADISHF
MPV,2017-04-01 10:49,-72.5623,44.2035,28.40,28.40,100.00,0.00,0.00,0.03,29.93,M,1.00,M,VV ,M,M,M,1700.00,M,M,M,-SN BR,KMPV 011049Z AUTO 00000KT 1SM -SN BR VV017 M02/M02 A2993 RMK AO2 P0003
MPV,2017-04-01 10:50,-72.5623,44.2035,M,M,M,0.00,0.00,0.03,M,M,1.00,M,VV ,M,M,M,1699.00,M,M,M,-SN BR,KMPV 011050Z AUTO 00000KT 1SM -SN BR VV016 RMK P0003 MADISHF
MPV,2017-04-01 10:51,-72.5623,44.2035,28.90,28.90,100.00,0.00,0.00,0.03,29.93,1015.20,1.00,M,VV ,M,M,M,1800.00,M,M,M,-SN BR,KMPV 011051Z AUTO 00000KT 1SM -SN BR VV018 M02/M02 A2993 RMK AO2 SLP152 P0003 T10171017
MPV,2017-04-01 11:00,-72.5623,44.2035,M,M,M,0.00,0.00,M,M,M,1.00,M,VV ,M,M,M,1800.00,M,M,M,-SN BR,KMPV 011100Z AUTO 00000KT 1SM -SN BR VV018 RMK MADISHF
MPV,2017-04-01 11:05,-72.5623,44.2035,M,M,M,0.00,0.00,M,M,M,1.00,M,VV ,M,M,M,1900.00,M,M,M,-SN BR,KMPV 011105Z AUTO 00000KT 1SM -SN BR VV019 RMK MADISHF
MPV,2017-04-01 11:10,-72.5623,44.2035,M,M,M,0.00,0.00,0.01,M,M,1.00,M,FEW,OVC,M,M,499.00,1900.00,M,M,-SN BR,KMPV 011110Z AUTO 00000KT 1SM -SN BR FEW004 OVC019 RMK P0001 MADISHF
MPV,2017-04-01 11:13,-72.5623,44.2035,28.90,28.90,100.00,0.00,0.00,0.01,29.94,M,1.00,M,SCT,OVC,M,M,500.00,1900.00,M,M,-SN BR,KMPV 011113Z AUTO 00000KT 1SM -SN BR SCT005 OVC019 M02/M02 A2994 RMK AO2 P0001 T10171017
MPV,2017-04-01 11:15,-72.5623,44.2035,M,M,M,0.00,0.00,0.01,M,M,1.00,M,SCT,OVC,M,M,499.00,1900.00,M,M,-SN BR,KMPV 011115Z AUTO 00000KT 1SM -SN BR SCT004 OVC019 RMK P0001 MADISHF
MPV,2017-04-01 11:20,-72.5623,44.2035,M,M,M,0.00,0.00,0.01,M,M,1.00,M,BKN,OVC,M,M,700.00,1900.00,M,M,-SN BR,KMPV 011120Z AUTO 00000KT 1SM -SN BR BKN007 OVC019 RMK P0001 MADISHF
MPV,2017-04-01 11:21,-72.5623,44.2035,28.90,28.90,100.00,0.00,0.00,0.01,29.94,M,1.25,M,BKN,OVC,M,M,700.00,1900.00,M,M,-SN BR,KMPV 011121Z AUTO 00000KT 1 1/4SM -SN BR BKN007 OVC019 M02/M02 A2994 RMK AO2 P0001 T10171017
MPV,2017-04-01 11:25,-72.5623,44.2035,M,M,M,0.00,0.00,0.01,M,M,1.25,M,BKN,OVC,M,M,700.00,1900.00,M,M,-SN BR,KMPV 011125Z AUTO 00000KT 1 1/2SM -SN BR BKN007 OVC019 RMK P0001 MADISHF
MPV,2017-04-01 11:30,-72.5623,44.2035,M,M,M,0.00,0.00,0.01,M,M,1.25,M,BKN,OVC,M,M,600.00,1900.00,M,M,-SN BR,KMPV 011130Z AUTO 00000KT 1 1/2SM -SN BR BKN006 OVC019 RMK P0001 MADISHF
MPV,2017-04-01 11:35,-72.5623,44.2035,M,M,M,0.00,0.00,0.01,M,M,1.25,M,BKN,OVC,M,M,600.00,1900.00,M,M,-SN BR,KMPV 011135Z AUTO 00000KT 1 1/2SM -SN BR BKN006 OVC019 RMK P0001 MADISHF
MPV,2017-04-01 11:40,-72.5623,44.2035,M,M,M,0.00,0.00,0.01,M,M,1.25,M,SCT,OVC,M,M,600.00,1900.00,M,M,-SN BR,KMPV 011140Z AUTO 00000KT 1 1/2SM -SN BR SCT006 OVC019 RMK P0001 MADISHF
MPV,2017-04-01 11:45,-72.5623,44.2035,M,M,M,0.00,0.00,0.01,M,M,1.25,M,SCT,OVC,M,M,600.00,1999.00,M,M,-SN BR,KMPV 011145Z AUTO 00000KT 1 1/2SM -SN BR SCT006 OVC019 RMK P0001 MADISHF
MPV,2017-04-01 11:46,-72.5623,44.2035,30.20,30.20,100.00,0.00,0.00,0.00,29.95,M,1.25,M,SCT,OVC,M,M,600.00,2000.00,M,M,-SN BR,KMPV 011146Z AUTO 00000KT 1 1/4SM -SN BR SCT006 OVC020 M01/M01 A2995
MPV,2017-04-01 11:50,-72.5623,44.2035,M,M,M,0.00,0.00,0.01,M,M,1.25,M,FEW,OVC,M,M,600.00,1999.00,M,M,-SN BR,KMPV 011150Z AUTO 00000KT 1 1/2SM -SN BR FEW006 OVC019 RMK P0001 MADISHF
MPV,2017-04-01 11:51,-72.5623,44.2035,30.00,30.00,100.00,0.00,0.00,0.01,29.95,1015.60,1.25,M,FEW,OVC,M,M,600.00,2000.00,M,M,-SN BR,KMPV 011151Z AUTO 00000KT 1 1/4SM -SN BR FEW006 OVC020 M01/M01 A2995 RMK AO2 SLP156 P0001 60017 70066 T10111011 11011 21017 51007
MPV,2017-04-01 12:05,-72.5623,44.2035,M,M,M,0.00,0.00,0.01,M,M,1.25,M,OVC,M,M,M,1900.00,M,M,M,-SN BR,KMPV 011205Z AUTO 00000KT 1 1/2SM -SN BR OVC019 RMK P0001 MADISHF
MPV,2017-04-01 12:10,-72.5623,44.2035,M,M,M,0.00,0.00,0.01,M,M,1.25,M,OVC,M,M,M,1900.00,M,M,M,-SN BR,KMPV 011210Z AUTO 00000KT 1 1/2SM -SN BR OVC019 RMK P0001 MADISHF
MPV,2017-04-01 12:15,-72.5623,44.2035,M,M,M,0.00,0.00,0.01,M,M,1.25,M,FEW,OVC,M,M,200.00,1800.00,M,M,-SN BR,KMPV 011215Z AUTO 00000KT 1 1/2SM -SN BR FEW002 OVC018 RMK P0001 MADISHF
MPV,2017-04-01 12:20,-72.5623,44.2035,M,M,M,0.00,0.00,0.01,M,M,1.50,M,FEW,OVC,M,M,200.00,1999.00,M,M,-SN BR,KMPV 011220Z AUTO 00000KT 1 1/2SM -SN BR FEW002 OVC019 RMK P0001 MADISHF
MPV,2017-04-01 12:23,-72.5623,44.2035,30.00,30.00,100.00,0.00,0.00,0.01,29.95,M,1.50,M,FEW,OVC,M,M,200.00,2000.00,M,M,-SN BR,KMPV 011223Z AUTO 00000KT 1 1/2SM -SN BR FEW002 OVC020 M01/M01 A2995 RMK AO2 P0001 T10111011
MPV,2017-04-01 12:25,-72.5623,44.2035,M,M,M,0.00,0.00,0.01,M,M,1.50,M,FEW,OVC,M,M,200.00,1999.00,M,M,-SN BR,KMPV 011225Z AUTO 00000KT 1 1/2SM -SN BR FEW002 OVC019 RMK P0001 MADISHF
MPV,2017-04-01 12:30,-72.5623,44.2035,M,M,M,0.00,0.00,0.01,M,M,1.25,M,SCT,OVC,M,M,200.00,1999.00,M,M,-SN BR,KMPV 011230Z AUTO 00000KT 1 1/2SM -SN BR SCT002 OVC019 RMK P0001 MADISHF
MPV,2017-04-01 12:34,-72.5623,44.2035,30.00,30.00,100.00,0.00,0.00,0.01,29.95,M,1.25,M,SCT,OVC,M,M,200.00,2000.00,M,M,-SN BR,KMPV 011234Z AUTO 00000KT 1 1/4SM -SN BR SCT002 OVC020 M01/M01 A2995 RMK AO2 P0001 T10111011
MPV,2017-04-01 12:35,-72.5623,44.2035,M,M,M,0.00,0.00,0.01,M,M,1.00,M,SCT,OVC,M,M,200.00,1999.00,M,M,-SN BR,KMPV 011235Z AUTO 00000KT 1SM -SN BR SCT002 OVC019 RMK P0001 MADISHF
MPV,2017-04-01 12:40,-72.5623,44.2035,M,M,M,0.00,0.00,0.02,M,M,1.00,M,SCT,OVC,M,M,200.00,1800.00,M,M,-SN BR,KMPV 011240Z AUTO 00000KT 1SM -SN BR SCT002 OVC018 RMK P0002 MADISHF
MPV,2017-04-01 12:41,-72.5623,44.2035,30.00,30.00,100.00,0.00,0.00,0.02,29.95,M,1.00,M,SCT,OVC,M,M,200.00,1800.00,M,M,-SN BR,KMPV 011241Z AUTO 00000KT 1SM -SN BR SCT002 OVC018 M01/M01 A2995 RMK AO2 P0002 T10111011
MPV,2017-04-01 12:45,-72.5623,44.2035,M,M,M,0.00,0.00,0.02,M,M,1.00,M,SCT,OVC,M,M,200.00,1800.00,M,M,-SN BR,KMPV 011245Z AUTO 00000KT 1SM -SN BR SCT002 OVC018 RMK P0002 MADISHF
MPV,2017-04-01 12:50,-72.5623,44.2035,M,M,M,0.00,0.00,0.02,M,M,1.25,M,SCT,OVC,M,M,200.00,1800.00,M,M,-SN BR,KMPV 011250Z AUTO 00000KT 1 1/2SM -SN BR SCT002 OVC018 RMK P0002 MADISHF
MPV,2017-04-01 12:51,-72.5623,44.2035,30.00,30.00,100.00,0.00,0.00,0.02,29.95,1015.90,1.25,M,SCT,BKN,OVC,M,200.00,2000.00,3700.00,M,-SN BR,KMPV 011251Z AUTO 00000KT 1 1/4SM -SN BR SCT002 BKN020 OVC037 M01/M01 A2995 RMK AO2 SLP159 P0002 T10111011
MPV,2017-04-01 13:00,-72.5623,44.2035,30.00,30.00,100.00,0.00,0.00,0.00,29.96,M,1.75,M,SCT,BKN,OVC,M,200.00,2400.00,3700.00,M,-SN BR,KMPV 011300Z AUTO 00000KT 1 3/4SM -SN BR SCT002 BKN024 OVC037 M01/M01 A2996 RMK AO2 P0000 T10111011
MPV,2017-04-01 13:05,-72.5623,44.2035,M,M,M,0.00,0.00,M,M,M,1.75,M,SCT,OVC,M,M,200.00,2400.00,M,M,-SN BR,KMPV 011305Z AUTO 00000KT 2SM -SN BR SCT002 OVC024 RMK MADISHF
MPV,2017-04-01 13:10,-72.5623,44.2035,M,M,M,0.00,0.00,M,M,M,1.75,M,BKN,OVC,M,M,400.00,2400.00,M,M,-SN BR,KMPV 011310Z AUTO 00000KT 2SM -SN BR BKN004 OVC024 RMK MADISHF
MPV,2017-04-01 13:15,-72.5623,44.2035,M,M,M,340.00,3.00,M,M,M,1.75,M,BKN,OVC,M,M,400.00,2400.00,M,M,-SN BR,KMPV 011315Z AUTO 34003KT 2SM -SN BR BKN004 OVC024 RMK MADISHF
MPV,2017-04-01 13:16,-72.5623,44.2035,30.90,30.90,100.00,350.00,3.00,0.00,29.96,M,1.75,M,BKN,OVC,M,M,400.00,2600.00,M,M,-SN BR,KMPV 011316Z AUTO 35003KT 1 3/4SM -SN BR BKN004 OVC026 M01/M01 A2996 RMK AO2 P0000 T10061006
MPV,2017-04-01 13:20,-72.5623,44.2035,M,M,M,0.00,0.00,M,M,M,1.50,M,BKN,OVC,M,M,400.00,2600.00,M,M,-SN BR,KMPV 011320Z AUTO 00000KT 1 1/2SM -SN BR BKN004 OVC026 RMK MADISHF
MPV,2017-04-01 13:25,-72.5623,44.2035,M,M,M,0.00,0.00,M,M,M,1.50,M,BKN,BKN,OVC,M,300.00,800.00,2600.00,M,-SN BR,KMPV 011325Z AUTO 00000KT 1 1/2SM -SN BR BKN003 BKN008 OVC026 RMK MADISHF
MPV,2017-04-01 13:30,-72.5623,44.2035,M,M,M,0.00,0.00,0.01,M,M,2.00,M,BKN,OVC,M,M,300.00,800.00,M,M,-SN BR,KMPV 011330Z AUTO 00000KT 2SM -SN BR BKN003 OVC008 RMK P0001 MADISHF
MPV,2017-04-01 13:31,-72.5623,44.2035,30.90,30.90,100.00,0.00,0.00,0.01,29.96,M,2.00,M,OVC,M,M,M,500.00,M,M,M,-SN BR,KMPV 011331Z AUTO 00000KT 2SM -SN BR OVC005 M01/M01 A2996 RMK AO2 P0001 T10061006
MPV,2017-04-01 13:38,-72.5623,44.2035,30.90,30.90,100.00,0.00,0.00,0.01,29.96,M,2.50,M,BKN,OVC,M,M,300.00,700.00,M,M,-SN BR,KMPV 011338Z AUTO 00000KT 2 1/2SM -SN BR BKN003 OVC007 M01/M01 A2996 RMK AO2 P0001 T10061006
MPV,2017-04-01 13:40,-72.5623,44.2035,M,M,M,310.00,3.00,0.01,M,M,2.50,M,BKN,OVC,M,M,300.00,700.00,M,M,-SN BR,KMPV 011340Z AUTO 31003KT 2 1/2SM -SN BR BKN003 OVC007 RMK P0001 MADISHF
MPV,2017-04-01 13:45,-72.5623,44.2035,M,M,M,0.00,0.00,0.01,M,M,2.50,M,BKN,OVC,M,M,300.00,700.00,M,M,-SN BR,KMPV 011345Z AUTO 00000KT 2 1/2SM -SN BR BKN003 OVC007 RMK P0001 MADISHF
MPV,2017-04-01 13:50,-72.5623,44.2035,M,M,M,320.00,3.00,0.01,M,M,2.50,M,BKN,OVC,M,M,300.00,700.00,M,M,-SN BR,KMPV 011350Z AUTO 32003KT 2 1/2SM -SN BR BKN003 OVC007 RMK P0001 MADISHF
MPV,2017-04-01 13:51,-72.5623,44.2035,30.90,30.90,100.00,320.00,3.00,0.01,29.96,1016.10,2.50,M,OVC,M,M,M,300.00,M,M,M,-SN BR,KMPV 011351Z AUTO 32003KT 2 1/2SM -SN BR OVC003 M01/M01 A2996 RMK AO2 SLP161 P0001 T10061006
MPV,2017-04-01 13:55,-72.5623,44.2035,M,M,M,320.00,3.00,M,M,M,2.50,M,OVC,M,M,M,300.00,M,M,M,-SN BR,KMPV 011355Z AUTO 32003KT 2 1/2SM -SN BR OVC003 RMK MADISHF
MPV,2017-04-01 14:00,-72.5623,44.2035,M,M,M,310.00,3.00,M,M,M,2.50,M,OVC,M,M,M,300.00,M,M,M,-SN BR,KMPV 011400Z AUTO 31003KT 2 1/2SM -SN BR OVC003 RMK MADISHF
MPV,2017-04-01 14:05,-72.5623,44.2035,M,M,M,320.00,3.00,M,M,M,2.50,M,OVC,M,M,M,300.00,M,M,M,-SN BR,KMPV 011405Z AUTO 32003KT 2 1/2SM -SN BR OVC003 RMK MADISHF
MPV,2017-04-01 14:10,-72.5623,44.2035,M,M,M,340.00,4.00,M,M,M,2.50,M,OVC,M,M,M,300.00,M,M,M,-SN BR,KMPV 011410Z AUTO 34004KT 2 1/2SM -SN BR OVC003 RMK MADISHF
MPV,2017-04-01 14:30,-72.5623,44.2035,M,M,M,350.00,4.00,M,M,M,2.00,M,OVC,M,M,M,400.00,M,M,M,-SN BR,KMPV 011430Z AUTO 35004KT 2SM -SN BR OVC004 RMK MADISHF
MPV,2017-04-01 14:35,-72.5623,44.2035,M,M,M,350.00,3.00,M,M,M,2.50,M,OVC,M,M,M,400.00,M,M,M,-SN BR,KMPV 011435Z AUTO 35003KT 2 1/2SM -SN BR OVC004 RMK MADISHF
MPV,2017-04-01 14:40,-72.5623,44.2035,M,M,M,350.00,3.00,M,M,M,2.50,M,OVC,M,M,M,400.00,M,M,M,-SN BR,KMPV 011440Z AUTO 35003KT 2 1/2SM -SN BR OVC004 RMK MADISHF
MPV,2017-04-01 14:45,-72.5623,44.2035,M,M,M,350.00,3.00,M,M,M,2.50,M,OVC,M,M,M,400.00,M,M,M,-SN BR,KMPV 011445Z AUTO 35003KT 2 1/2SM -SN BR OVC004 RMK MADISHF
MPV,2017-04-01 14:50,-72.5623,44.2035,M,M,M,0.00,0.00,0.01,M,M,2.00,M,OVC,M,M,M,400.00,M,M,M,-SN BR,KMPV 011450Z AUTO 00000KT 2SM -SN BR OVC004 RMK P0001 MADISHF
MPV,2017-04-01 14:51,-72.5623,44.2035,32.00,32.00,100.00,350.00,3.00,0.01,29.97,1016.20,2.00,M,OVC,M,M,M,400.00,M,M,M,-SN BR,KMPV 011451Z AUTO 35003KT 2SM -SN BR OVC004 00/00 A2997 RMK AO2 SLP162 P0001 60004 T00000000 51006
MPV,2017-04-01 14:55,-72.5623,44.2035,M,M,M,360.00,4.00,M,M,M,2.00,M,OVC,M,M,M,400.00,M,M,M,-SN BR,KMPV 011455Z AUTO 36004KT 2SM -SN BR OVC004 RMK MADISHF
MPV,2017-04-01 15:00,-72.5623,44.2035,M,M,M,10.00,4.00,M,M,M,2.00,M,OVC,M,M,M,400.00,M,M,M,-SN BR,KMPV 011500Z AUTO 01004KT 2SM -SN BR OVC004 RMK MADISHF
MPV,2017-04-01 15:10,-72.5623,44.2035,M,M,M,340.00,4.00,M,M,M,2.00,M,OVC,M,M,M,400.00,M,M,M,-SN BR,KMPV 011510Z AUTO 34004KT 2SM -SN BR OVC004 RMK MADISHF
MPV,2017-04-01 15:15,-72.5623,44.2035,M,M,M,350.00,3.00,M,M,M,1.75,M,BKN,BKN,OVC,M,400.00,900.00,2700.00,M,-SN BR,KMPV 011515Z AUTO 35003KT 2SM -SN BR BKN004 BKN009 OVC027 RMK MADISHF
MPV,2017-04-01 15:17,-72.5623,44.2035,32.00,32.00,100.00,10.00,3.00,0.00,29.97,M,1.75,M,BKN,OVC,M,M,400.00,2700.00,M,M,-SN BR,KMPV 011517Z AUTO 01003KT 1 3/4SM -SN BR BKN004 OVC027 00/00 A2997 RMK AO2 P0000 T00000000
MPV,2017-04-01 15:20,-72.5623,44.2035,M,M,M,0.00,0.00,M,M,M,2.00,M,BKN,OVC,M,M,400.00,3000.00,M,M,-SN BR,KMPV 011520Z AUTO 00000KT 2SM -SN BR BKN004 OVC030 RMK MADISHF
MPV,2017-04-01 15:24,-72.5623,44.2035,32.00,32.00,100.00,360.00,4.00,0.00,29.97,M,2.00,M,BKN,BKN,OVC,M,400.00,1000.00,2700.00,M,-SN BR,KMPV 011524Z AUTO 36004KT 2SM -SN BR BKN004 BKN010 OVC027 00/00 A2997 RMK AO2 P0000 T00000000
MPV,2017-04-01 15:25,-72.5623,44.2035,M,M,M,350.00,4.00,M,M,M,2.00,M,BKN,BKN,OVC,M,400.00,999.00,2700.00,M,-SN BR,KMPV 011525Z AUTO 35004KT 2SM -SN BR BKN004 BKN009 OVC027 RMK MADISHF
MPV,2017-04-01 15:30,-72.5623,44.2035,M,M,M,360.00,4.00,M,M,M,1.75,M,BKN,BKN,OVC,M,400.00,999.00,2500.00,M,-SN BR,KMPV 011530Z AUTO 36004KT 2SM -SN BR BKN004 BKN009 OVC025 RMK MADISHF
MPV,2017-04-01 15:34,-72.5623,44.2035,32.00,32.00,100.00,350.00,3.00,0.00,29.97,M,1.50,M,BKN,BKN,OVC,M,600.00,1000.00,2500.00,M,-SN BR,KMPV 011534Z AUTO 35003KT 1 1/2SM -SN BR BKN006 BKN010 OVC025 00/00 A2997 RMK AO2 P0000 T00000000
MPV,2017-04-01 15:35,-72.5623,44.2035,M,M,M,0.00,0.00,M,M,M,1.50,M,BKN,BKN,OVC,M,600.00,999.00,2500.00,M,-SN BR,KMPV 011535Z AUTO 00000KT 1 1/2SM -SN BR BKN006 BKN009 OVC025 RMK MADISHF
MPV,2017-04-01 15:39,-72.5623,44.2035,33.10,32.00,95.67,360.00,3.00,0.00,29.97,M,1.25,M,BKN,BKN,OVC,M,400.00,1000.00,2300.00,M,-SN BR,KMPV 011539Z AUTO 36003KT 1 1/4SM -SN BR BKN004 BKN010 OVC023 01/00 A2997 RMK AO2 P0000 T00060000
MPV,2017-04-01 15:40,-72.5623,44.2035,M,M,M,10.00,3.00,M,M,M,1.25,M,BKN,BKN,OVC,M,400.00,999.00,2300.00,M,-SN BR,KMPV 011540Z AUTO 01003KT 1 1/2SM -SN BR BKN004 BKN009 OVC023 RMK MADISHF
MPV,2017-04-01 15:45,-72.5623,44.2035,M,M,M,10.00,4.00,0.01,M,M,1.25,M,BKN,BKN,OVC,M,400.00,999.00,2300.00,M,-SN BR,KMPV 011545Z AUTO 01004KT 1 1/2SM -SN BR BKN004 BKN009 OVC023 RMK P0001 MADISHF
MPV,2017-04-01 15:50,-72.5623,44.2035,M,M,M,10.00,3.00,0.01,M,M,1.25,M,BKN,OVC,M,M,400.00,999.00,M,M,-SN BR,KMPV 011550Z AUTO 01003KT 1 1/2SM -SN BR BKN004 OVC009 RMK P0001 MADISHF
MPV,2017-04-01 15:51,-72.5623,44.2035,33.10,32.00,95.67,360.00,4.00,0.01,29.96,1016.10,1.25,M,BKN,OVC,M,M,400.00,1000.00,M,M,-SN BR,KMPV 011551Z AUTO 36004KT 1 1/4SM -SN BR BKN004 OVC010 01/00 A2996 RMK AO2 SLP161 P0001 T00060000
MPV,2017-04-01 16:00,-72.5623,44.2035,33.10,32.00,95.67,360.00,5.00,0.00,29.96,M,1.25,M,BKN,OVC,M,M,500.00,2200.00,M,M,-SN BR,KMPV 011600Z AUTO 36005KT 1 1/4SM -SN BR BKN005 OVC022 01/00 A2996 RMK AO2 P0000 T00060000
MPV,2017-04-01 16:05,-72.5623,44.2035,M,M,M,360.00,3.00,M,M,M,1.75,M,BKN,OVC,M,M,499.00,2200.00,M,M,-SN BR,KMPV 011605Z AUTO 36003KT 2SM -SN BR BKN004 OVC022 RMK MADISHF
MPV,2017-04-01 16:07,-72.5623,44.2035,33.10,33.10,100.00,20.00,3.00,0.00,29.96,M,1.75,M,BKN,OVC,M,M,500.00,2200.00,M,M,-SN BR,KMPV 011607Z AUTO 02003KT 1 3/4SM -SN BR BKN005 OVC022 01/01 A2996 RMK AO2 P0000 T00060006
MPV,2017-04-01 16:10,-72.5623,44.2035,M,M,M,360.00,5.00,M,M,M,2.00,M,BKN,OVC,M,M,499.00,2900.00,M,M,-SN BR,KMPV 011610Z AUTO 36005KT 2SM -SN BR BKN004 OVC029 RMK MADISHF
MPV,2017-04-01 16:15,-72.5623,44.2035,M,M,M,10.00,3.00,M,M,M,2.00,M,BKN,OVC,M,M,499.00,1200.00,M,M,-SN BR,KMPV 011615Z AUTO 01003KT 2SM -SN BR BKN004 OVC012 RMK MADISHF
MPV,2017-04-01 16:16,-72.5623,44.2035,33.10,32.00,95.67,10.00,4.00,0.00,29.96,M,2.00,M,BKN,OVC,M,M,500.00,1200.00,M,M,-SN BR,KMPV 011616Z AUTO 01004KT 2SM -SN BR BKN005 OVC012 01/00 A2996 RMK AO2 P0000 T00060000
MPV,2017-04-01 16:20,-72.5623,44.2035,M,M,M,10.00,4.00,M,M,M,2.50,M,BKN,OVC,M,M,499.00,1200.00,M,M,-SN BR,KMPV 011620Z AUTO 01004KT 2 1/2SM -SN BR BKN004 OVC012 RMK MADISHF
MPV,2017-04-01 16:25,-72.5623,44.2035,M,M,M,10.00,3.00,M,M,M,2.50,M,BKN,OVC,M,M,499.00,1200.00,M,M,-SN BR,KMPV 011625Z AUTO 01003KT 2 1/2SM -SN BR BKN004 OVC012 RMK MADISHF
MPV,2017-04-01 16:30,-72.5623,44.2035,M,M,M,10.00,4.00,M,M,M,2.50,M,BKN,OVC,M,M,499.00,1200.00,M,M,-SN BR,KMPV 011630Z AUTO 01004KT 2 1/2SM -SN BR BKN004 OVC012 RMK MADISHF
MPV,2017-04-01 16:40,-72.5623,44.2035,M,M,M,360.00,4.00,M,M,M,2.50,M,BKN,BKN,OVC,M,499.00,1100.00,2900.00,M,-SN BR,KMPV 011640Z AUTO 36004KT 2 1/2SM -SN BR BKN004 BKN011 OVC029 RMK MADISHF
MPV,2017-04-01 16:45,-72.5623,44.2035,M,M,M,360.00,5.00,M,M,M,2.00,M,BKN,BKN,OVC,M,499.00,1100.00,2900.00,M,-SN BR,KMPV 011645Z AUTO 36005KT 2SM -SN BR BKN004 BKN011 OVC029 RMK MADISHF
MPV,2017-04-01 16:50,-72.5623,44.2035,M,M,M,20.00,4.00,0.01,M,M,1.75,M,BKN,BKN,OVC,M,499.00,1100.00,2700.00,M,-SN BR,KMPV 011650Z AUTO 02004KT 2SM -SN BR BKN004 BKN011 OVC027 RMK P0001 MADISHF
MPV,2017-04-01 16:51,-72.5623,44.2035,33.10,32.00,95.67,20.00,4.00,0.01,29.96,1016.10,1.50,M,BKN,BKN,OVC,M,500.00,1100.00,2700.00,M,-SN BR,KMPV 011651Z AUTO 02004KT 1 1/2SM -SN BR BKN005 BKN011 OVC027 01/00 A2996 RMK AO2 SLP161 P0001 T00060000
MPV,2017-04-01 16:55,-72.5623,44.2035,M,M,M,360.00,7.00,M,M,M,1.25,M,BKN,BKN,OVC,M,499.00,1100.00,2700.00,M,-SN BR,KMPV 011655Z AUTO 36007KT 1 1/2SM -SN BR BKN004 BKN011 OVC027 RMK MADISHF
MPV,2017-04-01 16:59,-72.5623,44.2035,33.10,32.00,95.67,360.00,5.00,0.00,29.97,M,1.25,M,BKN,BKN,OVC,M,500.00,1300.00,2700.00,M,-SN BR,KMPV 011659Z AUTO 36005KT 1 1/4SM -SN BR BKN005 BKN013 OVC027 01/00 A2997 RMK AO2 P0000 T00060000
MPV,2017-04-01 17:00,-72.5623,44.2035,M,M,M,350.00,5.00,M,M,M,1.25,M,SCT,BKN,OVC,M,499.00,999.00,2200.00,M,-SN BR,KMPV 011700Z AUTO 35005KT 1 1/2SM -SN BR SCT004 BKN009 OVC022 RMK MADISHF
MPV,2017-04-01 17:03,-72.5623,44.2035,33.10,32.00,95.67,360.00,4.00,0.00,29.96,M,1.50,M,SCT,BKN,OVC,M,500.00,1000.00,2200.00,M,-SN BR,KMPV 011703Z AUTO 36004KT 1 1/2SM -SN BR SCT005 BKN010 OVC022 01/00 A2996 RMK AO2 P0000 T00060000
MPV,2017-04-01 17:05,-72.5623,44.2035,M,M,M,10.00,4.00,M,M,M,1.50,M,SCT,BKN,OVC,M,499.00,999.00,2200.00,M,-SN BR,KMPV 011705Z AUTO 01004KT 1 1/2SM -SN BR SCT004 BKN009 OVC022 RMK MADISHF
MPV,2017-04-01 17:10,-72.5623,44.2035,M,M,M,350.00,4.00,M,M,M,1.50,M,BKN,BKN,OVC,M,499.00,999.00,1999.00,M,-SN BR,KMPV 011710Z AUTO 35004KT 1 1/2SM -SN BR BKN004 BKN009 OVC019 RMK MADISHF
MPV,2017-04-01 17:13,-72.5623,44.2035,33.10,33.10,100.00,340.00,5.00,0.00,29.96,M,1.25,M,BKN,BKN,OVC,M,500.00,1300.00,1800.00,M,-SN BR,KMPV 011713Z AUTO 34005KT 1 1/4SM -SN BR BKN005 BKN013 OVC018 01/01 A2996 RMK AO2 P0000 T00060006
MPV,2017-04-01 17:15,-72.5623,44.2035,M,M,M,350.00,6.00,M,M,M,1.25,M,BKN,BKN,OVC,M,499.00,900.00,1500.00,M,-SN BR,KMPV 011715Z AUTO 35006KT 1 1/2SM -SN BR BKN004 BKN009 OVC015 RMK MADISHF
MPV,2017-04-01 17:20,-72.5623,44.2035,M,M,M,360.00,4.00,0.01,M,M,1.00,M,BKN,OVC,M,M,499.00,1300.00,M,M,-SN BR,KMPV 011720Z AUTO 36004KT 1SM -SN BR BKN004 OVC013 RMK P0001 MADISHF
MPV,2017-04-01 17:21,-72.5623,44.2035,33.10,32.00,95.67,360.00,4.00,0.01,29.96,M,0.75,M,BKN,OVC,M,M,500.00,1300.00,M,M,-SN BR,KMPV 011721Z AUTO 36004KT 3/4SM -SN BR BKN005 OVC013 01/00 A2996 RMK AO2 P0001 T00060000
MPV,2017-04-01 17:25,-72.5623,44.2035,M,M,M,350.00,4.00,0.01,M,M,0.75,M,BKN,OVC,M,M,499.00,1300.00,M,M,-SN BR,KMPV 011725Z AUTO 35004KT 1SM -SN BR BKN004 OVC013 RMK P0001 MADISHF
MPV,2017-04-01 17:30,-72.5623,44.2035,M,M,M,350.00,5.00,0.01,M,M,1.00,M,BKN,OVC,M,M,499.00,1200.00,M,M,-SN BR,KMPV 011730Z AUTO 35005KT 1SM -SN BR BKN004 OVC012 RMK P0001 MADISHF
MPV,2017-04-01 17:35,-72.5623,44.2035,M,M,M,360.00,6.00,0.02,M,M,1.00,M,BKN,OVC,M,M,499.00,1200.00,M,M,-SN BR,KMPV 011735Z AUTO 36006KT 1SM -SN BR BKN004 OVC012 RMK P0002 MADISHF
MPV,2017-04-01 17:36,-72.5623,44.2035,33.10,33.10,100.00,360.00,6.00,0.02,29.96,M,1.00,M,BKN,OVC,M,M,500.00,1200.00,M,M,-SN BR,KMPV 011736Z AUTO 36006KT 1SM -SN BR BKN005 OVC012 01/01 A2996 RMK AO2 P0002 T00060006
MPV,2017-04-01 17:45,-72.5623,44.2035,M,M,M,30.00,4.00,0.02,M,M,1.00,M,BKN,OVC,M,M,499.00,1400.00,M,M,-SN BR,KMPV 011745Z AUTO 03004KT 1SM -SN BR BKN004 OVC014 RMK P0002 MADISHF
MPV,2017-04-01 17:51,-72.5623,44.2035,33.10,32.00,95.67,10.00,5.00,0.02,29.96,1016.00,1.25,M,BKN,BKN,OVC,M,500.00,1100.00,3200.00,M,-SN BR,KMPV 011751Z AUTO 01005KT 1 1/4SM -SN BR BKN005 BKN011 OVC032 01/00 A2996 RMK AO2 SLP160 P0002 60008 T00060000 10006 21011 58002
MPV,2017-04-01 18:06,-72.5623,44.2035,33.10,32.00,95.67,20.00,4.00,0.01,29.96,M,1.00,M,BKN,BKN,OVC,M,500.00,1200.00,2300.00,M,-SN BR,KMPV 011806Z AUTO 02004KT 1SM -SN BR BKN005 BKN012 OVC023 01/00 A2996 RMK AO2 P0001 T00060000
MPV,2017-04-01 18:12,-72.5623,44.2035,33.10,33.10,100.00,60.00,5.00,0.01,29.95,M,1.25,M,SCT,BKN,OVC,M,500.00,1400.00,3100.00,M,-SN BR,KMPV 011812Z AUTO 06005KT 1 1/4SM -SN BR SCT005 BKN014 OVC031 01/01 A2995 RMK AO2 P0001 T00060006
MPV,2017-04-01 18:18,-72.5623,44.2035,33.10,32.00,95.67,50.00,4.00,0.01,29.94,M,1.50,M,SCT,BKN,OVC,M,500.00,2500.00,3300.00,M,-SN BR,KMPV 011818Z AUTO 05004KT 1 1/2SM -SN BR SCT005 BKN025 OVC033 01/00 A2994 RMK AO2 P0001 T00060000
MPV,2017-04-01 18:20,-72.5623,44.2035,M,M,M,50.00,3.00,0.01,M,M,1.75,M,SCT,BKN,OVC,M,499.00,2500.00,3600.00,M,-SN BR,KMPV 011820Z AUTO 05003KT 2SM -SN BR SCT004 BKN025 OVC036 RMK P0001 MADISHF
MPV,2017-04-01 18:25,-72.5623,44.2035,M,M,M,0.00,0.00,0.01,M,M,2.00,M,SCT,BKN,OVC,M,499.00,2800.00,3600.00,M,-SN BR,KMPV 011825Z AUTO 00000KT 2SM -SN BR SCT004 BKN028 OVC036 RMK P0001 MADISHF
MPV,2017-04-01 18:29,-72.5623,44.2035,34.00,33.10,96.46,0.00,0.00,0.01,29.94,M,3.00,M,SCT,BKN,OVC,M,500.00,2800.00,3600.00,M,-SN BR,KMPV 011829Z AUTO 00000KT 3SM -SN BR SCT005 BKN028 OVC036 01/01 A2994 RMK AO2 P0001 T00110006
MPV,2017-04-01 18:30,-72.5623,44.2035,M,M,M,0.00,0.00,0.01,M,M,3.00,M,SCT,BKN,OVC,M,499.00,2800.00,3600.00,M,-SN BR,KMPV 011830Z AUTO 00000KT 3SM -SN BR SCT004 BKN028 OVC036 RMK P0001 MADISHF
MPV,2017-04-01 18:35,-72.5623,44.2035,M,M,M,30.00,3.00,0.01,M,M,4.00,M,SCT,BKN,OVC,M,499.00,1200.00,3600.00,M,-SN BR,KMPV 011835Z AUTO 03003KT 4SM -SN BR SCT004 BKN012 OVC036 RMK P0001 MADISHF
MPV,2017-04-01 18:37,-72.5623,44.2035,34.00,33.10,96.46,0.00,0.00,0.01,29.94,M,4.00,M,BKN,BKN,OVC,M,700.00,2700.00,3600.00,M,-SN BR,KMPV 011837Z AUTO 00000KT 4SM -SN BR BKN007 BKN027 OVC036 01/01 A2994 RMK AO2 P0001 T00110006
MPV,2017-04-01 18:40,-72.5623,44.2035,M,M,M,30.00,3.00,0.01,M,M,5.00,M,BKN,BKN,OVC,M,700.00,1300.00,3600.00,M,-SN BR,KMPV 011840Z AUTO 03003KT 5SM -SN BR BKN007 BKN013 OVC036 RMK P0001 VRB03KT  MADISHF
MPV,2017-04-01 18:45,-72.5623,44.2035,M,M,M,20.00,3.00,0.01,M,M,7.00,M,SCT,BKN,OVC,M,800.00,1300.00,4600.00,M,-SN,KMPV 011845Z AUTO 02003KT 7SM -SN SCT008 BKN013 OVC046 RMK P0001 MADISHF
MPV,2017-04-01 18:46,-72.5623,44.2035,33.80,33.80,100.00,M,3.00,0.01,29.94,M,8.00,M,SCT,BKN,OVC,M,800.00,1500.00,4600.00,M,M,KMPV 011846Z AUTO VRB03KT 8SM SCT008 BKN015 OVC046 01/01 A2994 RMK AO2 SNE46 P0001
MPV,2017-04-01 18:47,-72.5623,44.2035,34.00,33.10,96.46,M,4.00,0.01,29.94,1015.40,8.00,M,SCT,BKN,OVC,M,800.00,1500.00,4600.00,M,M,KMPV 011847Z AUTO VRB04KT 8SM SCT008 BKN015 OVC046 01/01 A2994 RMK AO2 SNE46 SLP154 P0001 T00110006
MPV,2017-04-01 18:55,-72.5623,44.2035,M,M,M,340.00,4.00,M,M,M,10.00,M,FEW,SCT,OVC,M,499.00,800.00,1500.00,M,M,KMPV 011855Z AUTO 34004KT 10SM FEW004 SCT008 OVC015 RMK MADISHF
MPV,2017-04-01 19:00,-72.5623,44.2035,M,M,M,350.00,4.00,M,M,M,10.00,M,SCT,OVC,M,M,800.00,1500.00,M,M,M,KMPV 011900Z AUTO 35004KT 10SM SCT008 OVC015 RMK MADISHF
MPV,2017-04-01 19:05,-72.5623,44.2035,M,M,M,310.00,6.00,M,M,M,10.00,M,BKN,OVC,M,M,800.00,1500.00,M,M,M,KMPV 011905Z AUTO 31006KT 10SM BKN008 OVC015 RMK MADISHF
MPV,2017-04-01 19:07,-72.5623,44.2035,34.00,32.00,92.29,330.00,5.00,0.00,29.95,M,10.00,M,BKN,OVC,M,M,800.00,1500.00,M,M,M,KMPV 011907Z AUTO 33005KT 10SM BKN008 OVC015 01/00 A2995 RMK AO2 T00110000
MPV,2017-04-01 19:10,-72.5623,44.2035,M,M,M,320.00,4.00,M,M,M,10.00,M,SCT,BKN,OVC,M,600.00,999.00,1500.00,M,M,KMPV 011910Z AUTO 32004KT 10SM SCT006 BKN009 OVC015 RMK MADISHF
MPV,2017-04-01 19:15,-72.5623,44.2035,34.00,33.10,96.46,330.00,4.00,0.00,29.95,M,10.00,M,SCT,BKN,OVC,M,600.00,1300.00,1800.00,M,M,KMPV 011915Z AUTO 33004KT 10SM SCT006 BKN013 OVC018 01/01 A2995 RMK AO2 T00110006
MPV,2017-04-01 19:20,-72.5623,44.2035,M,M,M,310.00,4.00,M,M,M,10.00,M,FEW,BKN,OVC,M,600.00,1300.00,1900.00,M,M,KMPV 011920Z AUTO 31004KT 10SM FEW006 BKN013 OVC019 RMK MADISHF
MPV,2017-04-01 19:25,-72.5623,44.2035,M,M,M,320.00,3.00,M,M,M,10.00,M,FEW,SCT,OVC,M,800.00,1100.00,1900.00,M,M,KMPV 011925Z AUTO 32003KT 10SM FEW008 SCT011 OVC019 RMK MADISHF
MPV,2017-04-01 19:28,-72.5623,44.2035,34.00,33.10,96.46,330.00,3.00,0.00,29.95,M,10.00,M,FEW,BKN,OVC,M,800.00,1900.00,5500.00,M,M,KMPV 011928Z AUTO 33003KT 10SM FEW008 BKN019 OVC055 01/01 A2995 RMK AO2 T00110006
MPV,2017-04-01 19:30,-72.5623,44.2035,M,M,M,350.00,4.00,M,M,M,10.00,M,FEW,BKN,OVC,M,600.00,1900.00,5500.00,M,M,KMPV 011930Z AUTO 35004KT 10SM FEW006 BKN019 OVC055 RMK MADISHF
MPV,2017-04-01 19:35,-72.5623,44.2035,M,M,M,340.00,3.00,M,M,M,10.00,M,SCT,BKN,OVC,M,900.00,1900.00,5500.00,M,M,KMPV 011935Z AUTO 34003KT 10SM SCT009 BKN019 OVC055 RMK MADISHF
MPV,2017-04-01 19:40,-72.5623,44.2035,M,M,M,10.00,4.00,M,M,M,10.00,M,SCT,BKN,OVC,M,900.00,1699.00,5500.00,M,M,KMPV 011940Z AUTO 01004KT 10SM SCT009 BKN016 OVC055 RMK MADISHF
MPV,2017-04-01 19:45,-72.5623,44.2035,M,M,M,20.00,4.00,M,M,M,8.00,M,BKN,BKN,OVC,M,900.00,1900.00,5500.00,M,-SN,KMPV 011945Z AUTO 02004KT 8SM -SN BKN009 BKN019 OVC055 RMK MADISHF
MPV,2017-04-01 19:48,-72.5623,44.2035,33.80,32.00,93.03,20.00,5.00,0.00,29.96,M,6.00,M,BKN,BKN,OVC,M,800.00,1900.00,5500.00,M,-SN BR,KMPV 011948Z AUTO 02005KT 6SM -SN BR BKN008 BKN019 OVC055 01/00 A2996 RMK AO2 SNB43 P0000
MPV,2017-04-01 19:51,-72.5623,44.2035,34.00,32.00,92.29,360.00,5.00,0.00,29.96,1015.90,4.00,M,BKN,BKN,OVC,M,800.00,1900.00,5500.00,M,-SN BR,KMPV 011951Z AUTO 36005KT 4SM -SN BR BKN008 BKN019 OVC055 01/00 A2996 RMK AO2 SNB43 SLP159 P0000 T00110000
MPV,2017-04-01 19:59,-72.5623,44.2035,34.00,33.10,96.46,340.00,5.00,0.00,29.96,M,2.00,M,BKN,OVC,M,M,800.00,1500.00,M,M,-SN BR,KMPV 011959Z AUTO 34005KT 2SM -SN BR BKN008 OVC015 01/01 A2996 RMK AO2 P0000 T00110006
MPV,2017-04-01 20:00,-72.5623,44.2035,M,M,M,340.00,4.00,M,M,M,2.00,M,BKN,OVC,M,M,800.00,1500.00,M,M,-SN BR,KMPV 012000Z AUTO 34004KT 2SM -SN BR BKN008 OVC015 RMK MADISHF
MPV,2017-04-01 20:05,-72.5623,44.2035,M,M,M,340.00,5.00,0.01,M,M,3.00,M,FEW,BKN,OVC,M,400.00,800.00,1600.00,M,-SN BR,KMPV 012005Z AUTO 34005KT 3SM -SN BR FEW004 BKN008 OVC016 RMK P0001 MADISHF
MPV,2017-04-01 20:10,-72.5623,44.2035,M,M,M,330.00,5.00,0.01,M,M,4.00,M,FEW,BKN,OVC,M,400.00,800.00,1999.00,M,-SN BR,KMPV 012010Z AUTO 33005KT 4SM -SN BR FEW004 BKN008 OVC019 RMK P0001 MADISHF
MPV,2017-04-01 20:11,-72.5623,44.2035,34.00,34.00,100.00,330.00,5.00,0.01,29.97,M,4.00,M,BKN,BKN,OVC,M,600.00,1300.00,2000.00,M,-SN BR,KMPV 012011Z AUTO 33005KT 4SM -SN BR BKN006 BKN013 OVC020 01/01 A2997 RMK AO2 P0001 T00110011
MPV,2017-04-01 20:15,-72.5623,44.2035,M,M,M,320.00,6.00,0.01,M,M,3.50,M,FEW,BKN,OVC,M,400.00,800.00,1999.00,M,-SN BR,KMPV 012015Z AUTO 32006KT 3SM -SN BR FEW004 BKN008 OVC019 RMK P0001 MADISHF
MPV,2017-04-01 20:20,-72.5623,44.2035,M,M,M,310.00,6.00,0.01,M,M,3.00,M,FEW,BKN,OVC,M,400.00,1400.00,1999.00,M,-SN BR,KMPV 012020Z AUTO 31006KT 3SM -SN BR FEW004 BKN014 OVC019 RMK P0001 MADISHF
MPV,2017-04-01 20:25,-72.5623,44.2035,M,M,M,320.00,4.00,0.01,M,M,3.00,M,SCT,BKN,OVC,M,400.00,1400.00,1999.00,M,-SN BR,KMPV 012025Z AUTO 32004KT 3SM -SN BR SCT004 BKN014 OVC019 RMK P0001 MADISHF
MPV,2017-04-01 20:26,-72.5623,44.2035,33.10,33.10,100.00,320.00,4.00,0.01,29.97,M,3.00,M,SCT,BKN,OVC,M,400.00,1400.00,2000.00,M,-SN BR,KMPV 012026Z AUTO 32004KT 3SM -SN BR SCT004 BKN014 OVC020 01/01 A2997 RMK AO2 P0001 T00060006
MPV,2017-04-01 20:30,-72.5623,44.2035,M,M,M,320.00,3.00,0.01,M,M,3.50,M,SCT,BKN,OVC,M,400.00,1600.00,2200.00,M,-SN BR,KMPV 012030Z AUTO 32003KT 3SM -SN BR SCT004 BKN016 OVC022 RMK P0001 MADISHF
MPV,2017-04-01 20:35,-72.5623,44.2035,33.10,33.10,100.00,0.00,0.00,0.01,29.97,M,4.00,M,SCT,BKN,OVC,M,600.00,1600.00,3100.00,M,-SN BR,KMPV 012035Z AUTO 00000KT 4SM -SN BR SCT006 BKN016 OVC031 01/01 A2997 RMK AO2 P0001 T00060006
MPV,2017-04-01 20:43,-72.5623,44.2035,34.00,34.00,100.00,0.00,0.00,0.01,29.97,M,4.00,M,BKN,BKN,OVC,M,400.00,1600.00,2400.00,M,BR,KMPV 012043Z AUTO 00000KT 4SM BR BKN004 BKN016 OVC024 01/01 A2997 RMK AO2 SNE40 P0001 T00110011
MPV,2017-04-01 20:50,-72.5623,44.2035,M,M,M,320.00,3.00,0.01,M,M,6.00,M,BKN,OVC,M,M,400.00,2400.00,M,M,BR,KMPV 012050Z AUTO 32003KT 6SM BR BKN004 OVC024 RMK P0001 MADISHF
MPV,2017-04-01 20:51,-72.5623,44.2035,34.00,34.00,100.00,310.00,3.00,0.01,29.98,1016.70,7.00,M,BKN,OVC,M,M,400.00,2400.00,M,M,M,KMPV 012051Z AUTO 31003KT 7SM BKN004 OVC024 01/01 A2998 RMK AO2 SNE40 SLP167 P0001 60002 T00110011 53013
MPV,2017-04-01 20:55,-72.5623,44.2035,M,M,M,350.00,3.00,M,M,M,7.00,M,BKN,OVC,M,M,400.00,2400.00,M,M,M,KMPV 012055Z AUTO 35003KT 7SM BKN004 OVC024 RMK MADISHF
MPV,2017-04-01 21:00,-72.5623,44.2035,M,M,M,10.00,3.00,M,M,M,7.00,M,OVC,M,M,M,400.00,M,M,M,M,KMPV 012100Z AUTO 01003KT 7SM OVC004 RMK MADISHF
MPV,2017-04-01 21:05,-72.5623,44.2035,M,M,M,340.00,3.00,M,M,M,6.00,M,BKN,OVC,M,M,400.00,900.00,M,M,-RA BR,KMPV 012105Z AUTO 34003KT 6SM -RA BR BKN004 OVC009 RMK CIG 2V7  MADISHF
MPV,2017-04-01 21:10,-72.5623,44.2035,M,M,M,0.00,0.00,M,M,M,6.00,M,BKN,OVC,M,M,400.00,900.00,M,M,-RA BR,KMPV 012110Z AUTO 00000KT 6SM -RA BR BKN004 OVC009 RMK CIG 2V7  MADISHF
MPV,2017-04-01 21:15,-72.5623,44.2035,M,M,M,0.00,0.00,M,M,M,7.00,M,SCT,BKN,OVC,M,400.00,900.00,1400.00,M,M,KMPV 012115Z AUTO 00000KT 7SM SCT004 BKN009 OVC014 RMK MADISHF
MPV,2017-04-01 21:19,-72.5623,44.2035,34.00,34.00,100.00,0.00,0.00,0.00,29.98,M,9.00,M,FEW,BKN,OVC,M,400.00,900.00,1400.00,M,M,KMPV 012119Z AUTO 00000KT 9SM FEW004 BKN009 OVC014 01/01 A2998 RMK AO2 RAB03E12 CIG 006V011 P0000 T00110011
MPV,2017-04-01 21:20,-72.5623,44.2035,M,M,M,0.00,0.00,M,M,M,10.00,M,FEW,SCT,OVC,M,400.00,900.00,1400.00,M,M,KMPV 012120Z AUTO 00000KT 10SM FEW004 SCT009 OVC014 RMK MADISHF
MPV,2017-04-01 21:26,-72.5623,44.2035,34.00,33.10,96.46,0.00,0.00,0.00,29.98,M,10.00,M,FEW,SCT,OVC,M,500.00,800.00,1400.00,M,M,KMPV 012126Z AUTO 00000KT 10SM FEW005 SCT008 OVC014 01/01 A2998 RMK AO2 RAB03E12 P0000 T00110006
MPV,2017-04-01 21:43,-72.5623,44.2035,34.00,34.00,100.00,0.00,0.00,0.00,29.99,M,6.00,M,BKN,OVC,M,M,600.00,1400.00,M,M,BR,KMPV 012143Z AUTO 00000KT 6SM BR BKN006 OVC014 01/01 A2999 RMK AO2 RAB03E12 CIG 004V008 P0000 T00110011
MPV,2017-04-01 21:45,-72.5623,44.2035,M,M,M,0.00,0.00,M,M,M,6.00,M,BKN,OVC,M,M,600.00,1400.00,M,M,BR,KMPV 012145Z AUTO 00000KT 6SM BR BKN006 OVC014 RMK CIG 4V8  MADISHF
MPV,2017-04-01 21:50,-72.5623,44.2035,M,M,M,0.00,0.00,M,M,M,5.00,M,BKN,OVC,M,M,600.00,1400.00,M,M,BR,KMPV 012150Z AUTO 00000KT 5SM BR BKN006 OVC014 RMK CIG 4V8  MADISHF
MPV,2017-04-01 21:51,-72.5623,44.2035,34.00,34.00,100.00,0.00,0.00,0.00,30.00,1017.20,5.00,M,BKN,OVC,M,M,600.00,1400.00,M,M,BR,KMPV 012151Z AUTO 00000KT 5SM BR BKN006 OVC014 01/01 A3000 RMK AO2 RAB03E12 CIG 004V008 SLP172 P0000 T00110011
MPV,2017-04-01 21:55,-72.5623,44.2035,M,M,M,0.00,0.00,M,M,M,5.00,M,BKN,OVC,M,M,600.00,1400.00,M,M,BR,KMPV 012155Z AUTO 00000KT 5SM BR BKN006 OVC014 RMK CIG 4V8  MADISHF
MPV,2017-04-01 22:00,-72.5623,44.2035,M,M,M,0.00,0.00,M,M,M,7.00,M,SCT,OVC,M,M,600.00,1400.00,M,M,M,KMPV 012200Z AUTO 00000KT 7SM SCT006 OVC014 RMK MADISHF
MPV,2017-04-01 22:04,-72.5623,44.2035,34.00,34.00,100.00,0.00,0.00,0.00,30.00,M,6.00,M,SCT,OVC,M,M,600.00,1400.00,M,M,BR,KMPV 012204Z AUTO 00000KT 6SM BR SCT006 OVC014 01/01 A3000 RMK AO2 T00110011
MPV,2017-04-01 22:05,-72.5623,44.2035,M,M,M,300.00,3.00,M,M,M,6.00,M,SCT,OVC,M,M,600.00,1400.00,M,M,BR,KMPV 012205Z AUTO 30003KT 6SM BR SCT006 OVC014 RMK MADISHF
MPV,2017-04-01 22:35,-72.5623,44.2035,M,M,M,0.00,0.00,M,M,M,4.00,M,FEW,OVC,M,M,300.00,1400.00,M,M,BR,KMPV 012235Z AUTO 00000KT 4SM BR FEW003 OVC014 RMK MADISHF
MPV,2017-04-01 22:40,-72.5623,44.2035,M,M,M,0.00,0.00,M,M,M,3.50,M,SCT,OVC,M,M,300.00,1400.00,M,M,BR,KMPV 012240Z AUTO 00000KT 3SM BR SCT003 OVC014 RMK MADISHF
MPV,2017-04-01 22:45,-72.5623,44.2035,M,M,M,0.00,0.00,M,M,M,3.00,M,BKN,OVC,M,M,300.00,1400.00,M,M,BR,KMPV 012245Z AUTO 00000KT 3SM BR BKN003 OVC014 RMK MADISHF
MPV,2017-04-01 22:49,-72.5623,44.2035,33.80,33.80,100.00,0.00,0.00,0.00,30.00,M,3.00,M,BKN,OVC,M,M,300.00,1400.00,M,M,BR,KMPV 012249Z AUTO 00000KT 3SM BR BKN003 OVC014 01/01 A3000 RMK AO2
MPV,2017-04-01 22:50,-72.5623,44.2035,M,M,M,0.00,0.00,M,M,M,3.00,M,BKN,OVC,M,M,300.00,1400.00,M,M,BR,KMPV 012250Z AUTO 00000KT 3SM BR BKN003 OVC014 RMK MADISHF
MPV,2017-04-01 22:51,-72.5623,44.2035,33.10,33.10,100.00,0.00,0.00,0.00,30.00,1017.20,3.00,M,BKN,OVC,M,M,300.00,1400.00,M,M,BR,KMPV 012251Z AUTO 00000KT 3SM BR BKN003 OVC014 01/01 A3000 RMK AO2 SLP172 T00060006
MPV,2017-04-01 22:55,-72.5623,44.2035,M,M,M,0.00,0.00,M,M,M,3.00,M,BKN,OVC,M,M,300.00,1400.00,M,M,BR,KMPV 012255Z AUTO 00000KT 3SM BR BKN003 OVC014 RMK MADISHF
MPV,2017-04-01 23:00,-72.5623,44.2035,M,M,M,310.00,3.00,0.00,M,M,3.50,M,OVC,M,M,M,200.00,M,M,M,UP BR,KMPV 012300Z AUTO 31003KT 3SM UP BR OVC002 RMK P0000 MADISHF
MPV,2017-04-01 23:04,-72.5623,44.2035,33.10,33.10,100.00,0.00,0.00,0.00,30.00,M,4.00,M,OVC,M,M,M,200.00,M,M,M,UP BR,KMPV 012304Z AUTO 00000KT 4SM UP BR OVC002 01/01 A3000 RMK AO2 UPB2256 CIG 001V005 P0000 T00060006
MPV,2017-04-01 23:05,-72.5623,44.2035,M,M,M,0.00,0.00,0.00,M,M,4.00,M,OVC,M,M,M,200.00,M,M,M,UP BR,KMPV 012305Z AUTO 00000KT 4SM UP BR OVC002 RMK P0000 CIG 1V5  MADISHF
MPV,2017-04-01 23:20,-72.5623,44.2035,M,M,M,0.00,0.00,M,M,M,5.00,M,BKN,BKN,OVC,M,200.00,600.00,1200.00,M,-SN BR,KMPV 012320Z AUTO 00000KT 5SM -SN BR BKN002 BKN006 OVC012 RMK MADISHF
MPV,2017-04-01 23:25,-72.5623,44.2035,M,M,M,0.00,0.00,M,M,M,6.00,M,SCT,OVC,M,M,200.00,1200.00,M,M,-SN BR,KMPV 012325Z AUTO 00000KT 6SM -SN BR SCT002 OVC012 RMK MADISHF
MPV,2017-04-01 23:30,-72.5623,44.2035,33.10,33.10,100.00,0.00,0.00,0.00,30.00,M,8.00,M,SCT,OVC,M,M,200.00,1300.00,M,M,-SN,KMPV 012330Z AUTO 00000KT 8SM -SN SCT002 OVC013 01/01 A3000 RMK AO2 UPB2256E06SNB06 P0000 T00060006
MPV,2017-04-01 23:35,-72.5623,44.2035,M,M,M,0.00,0.00,M,M,M,9.00,M,FEW,OVC,M,M,200.00,1300.00,M,M,M,KMPV 012335Z AUTO 00000KT 9SM FEW002 OVC013 RMK MADISHF
MPV,2017-04-01 23:40,-72.5623,44.2035,M,M,M,0.00,0.00,M,M,M,9.00,M,FEW,OVC,M,M,200.00,1300.00,M,M,M,KMPV 012340Z AUTO 00000KT 9SM FEW002 OVC013 RMK MADISHF
MPV,2017-04-01 23:45,-72.5623,44.2035,M,M,M,0.00,0.00,M,M,M,10.00,M,OVC,M,M,M,1300.00,M,M,M,M,KMPV 012345Z AUTO 00000KT 10SM OVC013 RMK MADISHF
MPV,2017-04-01 23:50,-72.5623,44.2035,M,M,M,0.00,0.00,M,M,M,10.00,M,FEW,OVC,M,M,700.00,1300.00,M,M,M,KMPV 012350Z AUTO 00000KT 10SM FEW007 OVC013 RMK MADISHF
MPV,2017-04-01 23:51,-72.5623,44.2035,33.10,33.10,100.00,0.00,0.00,0.00,30.00,1017.20,10.00,M,FEW,OVC,M,M,700.00,1300.00,M,M,M,KMPV 012351Z AUTO 00000KT 10SM FEW007 OVC013 01/01 A3000 RMK AO2 UPB2256E06SNB06E35 SLP172 P0000 60002 T00060006 10011 20006 51000
