#DEBUG: Format Typ    -> comma
#DEBUG: Time Period   -> 2017-04-01 00:00:00+00:00 2017-04-02 00:00:00+00:00
#DEBUG: Time Zone     -> Etc/UTC
#DEBUG: Data Contact   -> daryl herzmann akrherz@iastate.edu 515-294-5978
#DEBUG: Entries Found -> -1
station,valid,lon,lat,tmpf, dwpf, relh, drct, sknt, p01i, alti, mslp, vsby, gust, skyc1, skyc2, skyc3, skyc4, skyl1, skyl2, skyl3, skyl4, presentwx, metar
MRB,2017-04-01 00:00,-77.9847,39.4019,M,M,M,60.00,3.00,M,29.68,M,8.00,M,OVC,M,M,M,800.00,M,M,M,M,KMRB 010000Z AUTO 06003KT 8SM OVC008 A2968 RMK MADISHF
MRB,2017-04-01 00:05,-77.9847,39.4019,M,M,M,70.00,3.00,M,29.67,M,7.00,M,OVC,M,M,M,800.00,M,M,M,M,KMRB 010005Z AUTO 07003KT 7SM OVC008 A2967 RMK MADISHF
MRB,2017-04-01 00:10,-77.9847,39.4019,M,M,M,70.00,3.00,M,29.67,M,7.00,M,OVC,M,M,M,800.00,M,M,M,M,KMRB 010010Z AUTO 07003KT 7SM OVC008 A2967 RMK CIG 7V11  MADISHF
MRB,2017-04-01 00:15,-77.9847,39.4019,M,M,M,110.00,3.00,M,29.67,M,6.00,M,OVC,M,M,M,800.00,M,M,M,BR,KMRB 010015Z AUTO 11003KT 6SM BR OVC008 A2967 RMK CIG 7V12  MADISHF
MRB,2017-04-01 00:20,-77.9847,39.4019,M,M,M,120.00,3.00,M,29.67,M,6.00,M,BKN,OVC,M,M,900.00,5500.00,M,M,BR,KMRB 010020Z AUTO 12003KT 6SM BR BKN009 OVC055 A2967 RMK MADISHF
MRB,2017-04-01 00:25,-77.9847,39.4019,M,M,M,120.00,3.00,M,29.67,M,5.00,M,BKN,OVC,M,M,900.00,6000.00,M,M,BR,KMRB 010025Z AUTO 12003KT 5SM BR BKN009 OVC060 A2967 RMK MADISHF
MRB,2017-04-01 00:30,-77.9847,39.4019,M,M,M,100.00,3.00,M,29.67,M,5.00,M,BKN,OVC,M,M,900.00,6000.00,M,M,BR,KMRB 010030Z AUTO 10003KT 5SM BR BKN009 OVC060 A2967 RMK MADISHF
MRB,2017-04-01 00:35,-77.9847,39.4019,M,M,M,100.00,3.00,M,29.68,M,5.00,M,BKN,OVC,M,M,999.00,6000.00,M,M,BR,KMRB 010035Z AUTO 10003KT 5SM BR BKN009 OVC060 A2968 RMK MADISHF
MRB,2017-04-01 00:40,-77.9847,39.4019,43.00,42.10,96.60,0.00,0.00,0.00,29.68,M,5.00,M,BKN,OVC,M,M,1000.00,6000.00,M,M,BR,KMRB 010040Z 00000KT 5SM BR BKN010 OVC060 06/06 A2968 RMK AO2 T00610056
MRB,2017-04-01 00:45,-77.9847,39.4019,M,M,M,0.00,0.00,M,29.68,M,5.00,M,BKN,OVC,M,M,999.00,6000.00,M,M,BR,KMRB 010045Z AUTO 00000KT 5SM BR BKN009 OVC060 A2968 RMK MADISHF
MRB,2017-04-01 00:50,-77.9847,39.4019,M,M,M,0.00,0.00,M,29.68,M,5.00,M,OVC,M,M,M,900.00,M,M,M,BR,KMRB 010050Z AUTO 00000KT 5SM BR OVC009 A2968 RMK MADISHF
MRB,2017-04-01 00:53,-77.9847,39.4019,44.10,42.10,92.62,50.00,3.00,0.00,29.68,1005.20,5.00,M,OVC,M,M,M,900.00,M,M,M,BR,KMRB 010053Z 05003KT 5SM BR OVC009 07/06 A2968 RMK AO2 CIG 005V011 SLP052 T00670056
MRB,2017-04-01 00:55,-77.9847,39.4019,M,M,M,0.00,0.00,M,29.68,M,5.00,M,OVC,M,M,M,900.00,M,M,M,BR,KMRB 010055Z AUTO 00000KT 5SM BR OVC009 A2968 RMK CIG 5V10  MADISHF
MRB,2017-04-01 01:00,-77.9847,39.4019,M,M,M,0.00,0.00,M,29.68,M,5.00,M,OVC,M,M,M,800.00,M,M,M,BR,KMRB 010100Z AUTO 00000KT 5SM BR OVC008 A2968 RMK CIG 5V10  MADISHF
MRB,2017-04-01 01:05,-77.9847,39.4019,M,M,M,0.00,0.00,M,29.67,M,5.00,M,OVC,M,M,M,800.00,M,M,M,BR,KMRB 010105Z AUTO 00000KT 5SM BR OVC008 A2967 RMK CIG 5V9  MADISHF
MRB,2017-04-01 01:10,-77.9847,39.4019,M,M,M,20.00,3.00,M,29.67,M,5.00,M,OVC,M,M,M,800.00,M,M,M,BR,KMRB 010110Z AUTO 02003KT 5SM BR OVC008 A2967 RMK CIG 5V9  MADISHF
MRB,2017-04-01 01:15,-77.9847,39.4019,M,M,M,360.00,3.00,M,29.68,M,5.00,M,OVC,M,M,M,800.00,M,M,M,BR,KMRB 010115Z AUTO 36003KT 5SM BR OVC008 A2968 RMK MADISHF
MRB,2017-04-01 01:20,-77.9847,39.4019,M,M,M,0.00,0.00,M,29.68,M,5.00,M,OVC,M,M,M,800.00,M,M,M,BR,KMRB 010120Z AUTO 00000KT 5SM BR OVC008 A2968 RMK MADISHF
MRB,2017-04-01 01:25,-77.9847,39.4019,M,M,M,0.00,0.00,M,29.68,M,4.00,M,OVC,M,M,M,700.00,M,M,M,BR,KMRB 010125Z AUTO 00000KT 4SM BR OVC007 A2968 RMK CIG 4V9  MADISHF
MRB,2017-04-01 01:30,-77.9847,39.4019,M,M,M,0.00,0.00,M,29.68,M,4.00,M,OVC,M,M,M,700.00,M,M,M,BR,KMRB 010130Z AUTO 00000KT 4SM BR OVC007 A2968 RMK CIG 4V9  MADISHF
MRB,2017-04-01 01:35,-77.9847,39.4019,M,M,M,0.00,0.00,M,29.68,M,4.00,M,OVC,M,M,M,499.00,M,M,M,BR,KMRB 010135Z AUTO 00000KT 4SM BR OVC004 A2968 RMK CIG 4V8  MADISHF
MRB,2017-04-01 01:40,-77.9847,39.4019,M,M,M,0.00,0.00,M,29.68,M,4.00,M,OVC,M,M,M,499.00,M,M,M,BR,KMRB 010140Z AUTO 00000KT 4SM BR OVC004 A2968 RMK CIG 4V8  MADISHF
MRB,2017-04-01 01:45,-77.9847,39.4019,M,M,M,0.00,0.00,M,29.68,M,4.00,M,OVC,M,M,M,499.00,M,M,M,BR,KMRB 010145Z AUTO 00000KT 4SM BR OVC004 A2968 RMK CIG 4V8  MADISHF
MRB,2017-04-01 01:50,-77.9847,39.4019,M,M,M,0.00,0.00,M,29.67,M,4.00,M,OVC,M,M,M,499.00,M,M,M,BR,KMRB 010150Z AUTO 00000KT 4SM BR OVC004 A2967 RMK MADISHF
MRB,2017-04-01 01:53,-77.9847,39.4019,44.10,42.10,92.62,0.00,0.00,0.00,29.68,1005.10,4.00,M,OVC,M,M,M,500.00,M,M,M,BR,KMRB 010153Z 00000KT 4SM BR OVC005 07/06 A2968 RMK AO2 SLP051 T00670056
MRB,2017-04-01 01:55,-77.9847,39.4019,M,M,M,0.00,0.00,M,29.67,M,4.00,M,OVC,M,M,M,499.00,M,M,M,BR,KMRB 010155Z AUTO 00000KT 4SM BR OVC004 A2967 RMK MADISHF
MRB,2017-04-01 02:00,-77.9847,39.4019,M,M,M,0.00,0.00,M,29.67,M,4.00,M,OVC,M,M,M,499.00,M,M,M,BR,KMRB 010200Z AUTO 00000KT 4SM BR OVC004 A2967 RMK MADISHF
MRB,2017-04-01 02:05,-77.9847,39.4019,M,M,M,0.00,0.00,M,29.67,M,4.00,M,OVC,M,M,M,400.00,M,M,M,BR,KMRB 010205Z AUTO 00000KT 4SM BR OVC004 A2967 RMK MADISHF
MRB,2017-04-01 02:10,-77.9847,39.4019,M,M,M,0.00,0.00,M,29.67,M,4.00,M,OVC,M,M,M,400.00,M,M,M,BR,KMRB 010210Z AUTO 00000KT 4SM BR OVC004 A2967 RMK MADISHF
MRB,2017-04-01 02:11,-77.9847,39.4019,43.00,42.10,96.60,0.00,0.00,0.00,29.67,M,4.00,M,OVC,M,M,M,400.00,M,M,M,BR,KMRB 010211Z 00000KT 4SM BR OVC004 06/06 A2967 RMK AO2 T00610056
MRB,2017-04-01 02:15,-77.9847,39.4019,M,M,M,150.00,3.00,M,29.67,M,4.00,M,OVC,M,M,M,400.00,M,M,M,BR,KMRB 010215Z AUTO 15003KT 4SM BR OVC004 A2967 RMK MADISHF
MRB,2017-04-01 02:20,-77.9847,39.4019,M,M,M,0.00,0.00,M,29.67,M,4.00,M,OVC,M,M,M,400.00,M,M,M,BR,KMRB 010220Z AUTO 00000KT 4SM BR OVC004 A2967 RMK MADISHF
MRB,2017-04-01 02:25,-77.9847,39.4019,M,M,M,0.00,0.00,M,29.67,M,4.00,M,OVC,M,M,M,400.00,M,M,M,BR,KMRB 010225Z AUTO 00000KT 4SM BR OVC004 A2967 RMK MADISHF
MRB,2017-04-01 02:30,-77.9847,39.4019,M,M,M,0.00,0.00,M,29.67,M,4.00,M,OVC,M,M,M,400.00,M,M,M,BR,KMRB 010230Z AUTO 00000KT 4SM BR OVC004 A2967 RMK MADISHF
MRB,2017-04-01 02:35,-77.9847,39.4019,M,M,M,0.00,0.00,M,29.67,M,4.00,M,OVC,M,M,M,400.00,M,M,M,BR,KMRB 010235Z AUTO 00000KT 4SM BR OVC004 A2967 RMK MADISHF
MRB,2017-04-01 02:40,-77.9847,39.4019,M,M,M,0.00,0.00,M,29.67,M,4.00,M,OVC,M,M,M,400.00,M,M,M,BR,KMRB 010240Z AUTO 00000KT 4SM BR OVC004 A2967 RMK MADISHF
MRB,2017-04-01 02:45,-77.9847,39.4019,M,M,M,0.00,0.00,M,29.67,M,4.00,M,OVC,M,M,M,400.00,M,M,M,BR,KMRB 010245Z AUTO 00000KT 4SM BR OVC004 A2967 RMK MADISHF
MRB,2017-04-01 02:50,-77.9847,39.4019,M,M,M,0.00,0.00,M,29.67,M,4.00,M,OVC,M,M,M,400.00,M,M,M,BR,KMRB 010250Z AUTO 00000KT 4SM BR OVC004 A2967 RMK MADISHF
MRB,2017-04-01 02:53,-77.9847,39.4019,44.10,42.10,92.62,0.00,0.00,0.00,29.66,1004.70,4.00,M,OVC,M,M,M,400.00,M,M,M,BR,KMRB 010253Z AUTO 00000KT 4SM BR OVC004 07/06 A2966 RMK AO2 SLP047 T00670056 58005 TSNO
MRB,2017-04-01 02:55,-77.9847,39.4019,M,M,M,0.00,0.00,M,29.66,M,4.00,M,OVC,M,M,M,400.00,M,M,M,BR,KMRB 010255Z AUTO 00000KT 4SM BR OVC004 A2966 RMK MADISHF
MRB,2017-04-01 03:00,-77.9847,39.4019,M,M,M,0.00,0.00,M,29.66,M,4.00,M,OVC,M,M,M,400.00,M,M,M,BR,KMRB 010300Z AUTO 00000KT 4SM BR OVC004 A2966 RMK MADISHF
MRB,2017-04-01 03:05,-77.9847,39.4019,M,M,M,0.00,0.00,M,29.66,M,4.00,M,OVC,M,M,M,400.00,M,M,M,BR,KMRB 010305Z AUTO 00000KT 4SM BR OVC004 A2966 RMK MADISHF
MRB,2017-04-01 03:10,-77.9847,39.4019,M,M,M,0.00,0.00,M,29.66,M,4.00,M,OVC,M,M,M,300.00,M,M,M,BR,KMRB 010310Z AUTO 00000KT 4SM BR OVC003 A2966 RMK MADISHF
MRB,2017-04-01 03:15,-77.9847,39.4019,M,M,M,0.00,0.00,M,29.66,M,4.00,M,OVC,M,M,M,300.00,M,M,M,BR,KMRB 010315Z AUTO 00000KT 4SM BR OVC003 A2966 RMK MADISHF
MRB,2017-04-01 03:20,-77.9847,39.4019,M,M,M,0.00,0.00,M,29.66,M,4.00,M,OVC,M,M,M,300.00,M,M,M,BR,KMRB 010320Z AUTO 00000KT 4SM BR OVC003 A2966 RMK MADISHF
MRB,2017-04-01 03:25,-77.9847,39.4019,M,M,M,0.00,0.00,M,29.66,M,4.00,M,OVC,M,M,M,300.00,M,M,M,BR,KMRB 010325Z AUTO 00000KT 4SM BR OVC003 A2966 RMK MADISHF
MRB,2017-04-01 03:30,-77.9847,39.4019,M,M,M,80.00,3.00,M,29.66,M,4.00,M,OVC,M,M,M,300.00,M,M,M,BR,KMRB 010330Z AUTO 08003KT 4SM BR OVC003 A2966 RMK MADISHF
MRB,2017-04-01 03:35,-77.9847,39.4019,M,M,M,0.00,0.00,M,29.66,M,4.00,M,OVC,M,M,M,300.00,M,M,M,BR,KMRB 010335Z AUTO 00000KT 4SM BR OVC003 A2966 RMK MADISHF
MRB,2017-04-01 03:40,-77.9847,39.4019,M,M,M,70.00,3.00,M,29.66,M,4.00,M,OVC,M,M,M,300.00,M,M,M,BR,KMRB 010340Z AUTO 07003KT 4SM BR OVC003 A2966 RMK MADISHF
MRB,2017-04-01 03:45,-77.9847,39.4019,M,M,M,0.00,0.00,M,29.66,M,4.00,M,OVC,M,M,M,300.00,M,M,M,BR,KMRB 010345Z AUTO 00000KT 4SM BR OVC003 A2966 RMK MADISHF
MRB,2017-04-01 03:50,-77.9847,39.4019,M,M,M,0.00,0.00,M,29.66,M,4.00,M,OVC,M,M,M,400.00,M,M,M,BR,KMRB 010350Z AUTO 00000KT 4SM BR OVC004 A2966 RMK MADISHF
MRB,2017-04-01 03:53,-77.9847,39.4019,44.10,42.10,92.62,30.00,3.00,0.00,29.66,1004.70,4.00,M,OVC,M,M,M,400.00,M,M,M,BR,KMRB 010353Z AUTO 03003KT 4SM BR OVC004 07/06 A2966 RMK AO2 SLP047 T00670056 TSNO
MRB,2017-04-01 03:55,-77.9847,39.4019,M,M,M,40.00,3.00,M,29.66,M,4.00,M,OVC,M,M,M,400.00,M,M,M,BR,KMRB 010355Z AUTO 04003KT 4SM BR OVC004 A2966 RMK MADISHF
MRB,2017-04-01 04:00,-77.9847,39.4019,M,M,M,60.00,3.00,M,29.66,M,4.00,M,OVC,M,M,M,400.00,M,M,M,BR,KMRB 010400Z AUTO 06003KT 4SM BR OVC004 A2966 RMK MADISHF
MRB,2017-04-01 04:05,-77.9847,39.4019,M,M,M,60.00,3.00,M,29.66,M,4.00,M,OVC,M,M,M,400.00,M,M,M,BR,KMRB 010405Z AUTO 06003KT 4SM BR OVC004 A2966 RMK MADISHF
MRB,2017-04-01 04:10,-77.9847,39.4019,M,M,M,0.00,0.00,M,29.66,M,4.00,M,OVC,M,M,M,400.00,M,M,M,BR,KMRB 010410Z AUTO 00000KT 4SM BR OVC004 A2966 RMK MADISHF
MRB,2017-04-01 04:15,-77.9847,39.4019,M,M,M,0.00,0.00,M,29.66,M,4.00,M,OVC,M,M,M,400.00,M,M,M,BR,KMRB 010415Z AUTO 00000KT 4SM BR OVC004 A2966 RMK MADISHF
MRB,2017-04-01 04:20,-77.9847,39.4019,M,M,M,30.00,4.00,M,29.67,M,4.00,M,OVC,M,M,M,400.00,M,M,M,-RA BR,KMRB 010420Z AUTO 03004KT 4SM -RA BR OVC004 A2967 RMK MADISHF
MRB,2017-04-01 04:25,-77.9847,39.4019,M,M,M,50.00,4.00,M,29.67,M,4.00,M,OVC,M,M,M,400.00,M,M,M,-RA BR,KMRB 010425Z AUTO 05004KT 4SM -RA BR OVC004 A2967 RMK MADISHF
MRB,2017-04-01 04:30,-77.9847,39.4019,M,M,M,30.00,4.00,M,29.67,M,3.50,M,OVC,M,M,M,400.00,M,M,M,-RA BR,KMRB 010430Z AUTO 03004KT 3SM -RA BR OVC004 A2967 RMK MADISHF
MRB,2017-04-01 04:35,-77.9847,39.4019,M,M,M,30.00,5.00,M,29.67,M,3.50,M,OVC,M,M,M,400.00,M,M,M,-RA BR,KMRB 010435Z AUTO 03005KT 3SM -RA BR OVC004 A2967 RMK MADISHF
MRB,2017-04-01 04:40,-77.9847,39.4019,M,M,M,40.00,5.00,M,29.67,M,3.50,M,OVC,M,M,M,400.00,M,M,M,-RA BR,KMRB 010440Z AUTO 04005KT 3SM -RA BR OVC004 A2967 RMK MADISHF
MRB,2017-04-01 04:45,-77.9847,39.4019,M,M,M,40.00,4.00,M,29.68,M,3.50,M,OVC,M,M,M,400.00,M,M,M,-RA BR,KMRB 010445Z AUTO 04004KT 3SM -RA BR OVC004 A2968 RMK MADISHF
MRB,2017-04-01 04:50,-77.9847,39.4019,M,M,M,50.00,3.00,M,29.68,M,3.00,M,OVC,M,M,M,400.00,M,M,M,-RA BR,KMRB 010450Z AUTO 05003KT 3SM -RA BR OVC004 A2968 RMK MADISHF
MRB,2017-04-01 04:53,-77.9847,39.4019,43.00,42.10,96.60,40.00,4.00,0.00,29.68,1005.20,3.00,M,OVC,M,M,M,400.00,M,M,M,-RA BR,KMRB 010453Z AUTO 04004KT 3SM -RA BR OVC004 06/06 A2968 RMK AO2 RAB19 SLP052 P0000 T00610056 400890050 TSNO
MRB,2017-04-01 04:55,-77.9847,39.4019,M,M,M,40.00,3.00,M,29.68,M,3.00,M,OVC,M,M,M,400.00,M,M,M,-RA BR,KMRB 010455Z AUTO 04003KT 3SM -RA BR OVC004 A2968 RMK MADISHF
MRB,2017-04-01 05:00,-77.9847,39.4019,M,M,M,30.00,4.00,M,29.68,M,3.00,M,OVC,M,M,M,300.00,M,M,M,-RA BR,KMRB 010500Z AUTO 03004KT 3SM -RA BR OVC003 A2968 RMK MADISHF
MRB,2017-04-01 05:05,-77.9847,39.4019,M,M,M,30.00,5.00,0.01,29.68,M,3.00,M,OVC,M,M,M,300.00,M,M,M,BR,KMRB 010505Z AUTO 03005KT 3SM BR OVC003 A2968 RMK P0001 MADISHF
MRB,2017-04-01 05:10,-77.9847,39.4019,M,M,M,30.00,4.00,0.01,29.68,M,3.00,M,OVC,M,M,M,300.00,M,M,M,BR,KMRB 010510Z AUTO 03004KT 3SM BR OVC003 A2968 RMK P0001 MADISHF
MRB,2017-04-01 05:15,-77.9847,39.4019,M,M,M,30.00,5.00,0.01,29.68,M,3.00,M,OVC,M,M,M,300.00,M,M,M,-RA BR,KMRB 010515Z AUTO 03005KT 3SM -RA BR OVC003 A2968 RMK P0001 MADISHF
MRB,2017-04-01 05:20,-77.9847,39.4019,M,M,M,40.00,4.00,0.01,29.68,M,3.00,M,OVC,M,M,M,300.00,M,M,M,-RA BR,KMRB 010520Z AUTO 04004KT 3SM -RA BR OVC003 A2968 RMK P0001 MADISHF
MRB,2017-04-01 05:25,-77.9847,39.4019,M,M,M,30.00,5.00,0.01,29.68,M,3.00,M,OVC,M,M,M,300.00,M,M,M,BR,KMRB 010525Z AUTO 03005KT 3SM BR OVC003 A2968 RMK P0001 MADISHF
MRB,2017-04-01 05:30,-77.9847,39.4019,M,M,M,20.00,6.00,0.01,29.68,M,2.50,M,OVC,M,M,M,300.00,M,M,M,BR,KMRB 010530Z AUTO 02006KT 2 1/2SM BR OVC003 A2968 RMK P0001 MADISHF
MRB,2017-04-01 05:35,-77.9847,39.4019,M,M,M,20.00,5.00,0.01,29.68,M,2.50,M,OVC,M,M,M,300.00,M,M,M,BR,KMRB 010535Z AUTO 02005KT 2 1/2SM BR OVC003 A2968 RMK P0001 MADISHF
MRB,2017-04-01 05:36,-77.9847,39.4019,43.00,42.10,96.60,30.00,5.00,0.01,29.68,M,2.50,M,OVC,M,M,M,300.00,M,M,M,BR,KMRB 010536Z AUTO 03005KT 2 1/2SM BR OVC003 06/06 A2968 RMK AO2 RAE24 P0001 T00610056 TSNO
MRB,2017-04-01 05:40,-77.9847,39.4019,M,M,M,20.00,5.00,0.01,29.68,M,2.50,M,OVC,M,M,M,300.00,M,M,M,BR,KMRB 010540Z AUTO 02005KT 2 1/2SM BR OVC003 A2968 RMK P0001 MADISHF
MRB,2017-04-01 05:45,-77.9847,39.4019,M,M,M,10.00,4.00,0.01,29.68,M,2.50,M,OVC,M,M,M,300.00,M,M,M,-RA BR,KMRB 010545Z AUTO 01004KT 2 1/2SM -RA BR OVC003 A2968 RMK P0001 MADISHF
MRB,2017-04-01 05:50,-77.9847,39.4019,M,M,M,20.00,4.00,0.01,29.68,M,2.00,M,BKN,OVC,M,M,300.00,3000.00,M,M,-RA BR,KMRB 010550Z AUTO 02004KT 2SM -RA BR BKN003 OVC030 A2968 RMK P0001 MADISHF
MRB,2017-04-01 05:53,-77.9847,39.4019,43.00,42.10,96.60,10.00,3.00,0.01,29.68,1005.30,2.00,M,BKN,OVC,M,M,300.00,3000.00,M,M,-RA BR,KMRB 010553Z AUTO 01003KT 2SM -RA BR BKN003 OVC030 06/06 A2968 RMK AO2 RAE24B42 SLP053 P0001 60001 T00610056 10067 20061 53006 TSNO
MRB,2017-04-01 05:55,-77.9847,39.4019,M,M,M,10.00,4.00,M,29.68,M,2.00,M,BKN,OVC,M,M,300.00,3000.00,M,M,-RA BR,KMRB 010555Z AUTO 01004KT 2SM -RA BR BKN003 OVC030 A2968 RMK MADISHF
MRB,2017-04-01 06:00,-77.9847,39.4019,M,M,M,10.00,3.00,M,29.68,M,2.50,M,SCT,OVC,M,M,400.00,3200.00,M,M,BR,KMRB 010600Z AUTO 01003KT 2 1/2SM BR SCT004 OVC032 A2968 RMK MADISHF
MRB,2017-04-01 06:04,-77.9847,39.4019,43.00,42.10,96.60,20.00,3.00,0.00,29.68,M,2.50,M,SCT,OVC,M,M,400.00,3400.00,M,M,BR,KMRB 010604Z AUTO 02003KT 2 1/2SM BR SCT004 OVC034 06/06 A2968 RMK AO2 RAE0557 P0000 T00610056 TSNO
MRB,2017-04-01 06:05,-77.9847,39.4019,M,M,M,20.00,3.00,M,29.68,M,2.50,M,SCT,OVC,M,M,400.00,3399.00,M,M,BR,KMRB 010605Z AUTO 02003KT 2 1/2SM BR SCT004 OVC033 A2968 RMK MADISHF
MRB,2017-04-01 06:10,-77.9847,39.4019,M,M,M,20.00,3.00,M,29.68,M,2.00,M,SCT,BKN,OVC,M,400.00,3000.00,3600.00,M,BR,KMRB 010610Z AUTO 02003KT 2SM BR SCT004 BKN030 OVC036 A2968 RMK MADISHF
MRB,2017-04-01 06:15,-77.9847,39.4019,M,M,M,30.00,3.00,M,29.69,M,1.75,M,SCT,OVC,M,M,400.00,3300.00,M,M,BR,KMRB 010615Z AUTO 03003KT 2SM BR SCT004 OVC033 A2969 RMK MADISHF
MRB,2017-04-01 06:20,-77.9847,39.4019,43.00,42.10,96.60,30.00,4.00,0.00,29.69,M,1.50,M,SCT,OVC,M,M,300.00,3300.00,M,M,-RA BR,KMRB 010620Z AUTO 03004KT 1 1/2SM -RA BR SCT003 OVC033 06/06 A2969 RMK AO2 RAE0557B19 P0000 T00610056 TSNO
MRB,2017-04-01 06:25,-77.9847,39.4019,M,M,M,20.00,4.00,0.01,29.69,M,1.50,M,BKN,OVC,M,M,300.00,3300.00,M,M,BR,KMRB 010625Z AUTO 02004KT 1 1/2SM BR BKN003 OVC033 A2969 RMK P0001 MADISHF
MRB,2017-04-01 06:28,-77.9847,39.4019,43.00,42.10,96.60,20.00,4.00,0.01,29.69,M,1.75,M,BKN,BKN,OVC,M,300.00,2600.00,3300.00,M,BR,KMRB 010628Z AUTO 02004KT 1 3/4SM BR BKN003 BKN026 OVC033 06/06 A2969 RMK AO2 RAE0557B19E25 P0001 T00610056 TSNO
MRB,2017-04-01 06:30,-77.9847,39.4019,M,M,M,20.00,4.00,0.01,29.69,M,1.75,M,BKN,BKN,OVC,M,300.00,900.00,3300.00,M,BR,KMRB 010630Z AUTO 02004KT 2SM BR BKN003 BKN009 OVC033 A2969 RMK P0001 MADISHF
MRB,2017-04-01 06:35,-77.9847,39.4019,M,M,M,20.00,3.00,0.01,29.69,M,1.50,M,BKN,BKN,OVC,M,300.00,2300.00,3100.00,M,BR,KMRB 010635Z AUTO 02003KT 1 1/2SM BR BKN003 BKN023 OVC031 A2969 RMK P0001 MADISHF
MRB,2017-04-01 06:40,-77.9847,39.4019,M,M,M,20.00,3.00,0.01,29.69,M,1.50,M,BKN,BKN,OVC,M,300.00,999.00,2100.00,M,-RA BR,KMRB 010640Z AUTO 02003KT 1 1/2SM -RA BR BKN003 BKN009 OVC021 A2969 RMK P0001 MADISHF
MRB,2017-04-01 06:45,-77.9847,39.4019,M,M,M,20.00,4.00,0.01,29.70,M,1.50,M,BKN,BKN,OVC,M,300.00,999.00,2300.00,M,-RA BR,KMRB 010645Z AUTO 02004KT 1 1/2SM -RA BR BKN003 BKN009 OVC023 A2970 RMK P0001 MADISHF
MRB,2017-04-01 06:50,-77.9847,39.4019,M,M,M,30.00,4.00,0.01,29.70,M,2.00,M,BKN,BKN,OVC,M,300.00,999.00,2300.00,M,-RA BR,KMRB 010650Z AUTO 03004KT 2SM -RA BR BKN003 BKN009 OVC023 A2970 RMK P0001 MADISHF
MRB,2017-04-01 06:53,-77.9847,39.4019,44.10,42.10,92.62,40.00,4.00,0.02,29.70,1006.00,1.75,M,BKN,BKN,OVC,M,300.00,1000.00,2300.00,M,-RA BR,KMRB 010653Z AUTO 04004KT 1 3/4SM -RA BR BKN003 BKN010 OVC023 07/06 A2970 RMK AO2 RAE0557B19 SLP060 P0002 T00670056 TSNO
MRB,2017-04-01 06:55,-77.9847,39.4019,M,M,M,40.00,4.00,M,29.70,M,1.75,M,BKN,BKN,OVC,M,300.00,999.00,2300.00,M,-RA BR,KMRB 010655Z AUTO 04004KT 2SM -RA BR BKN003 BKN009 OVC023 A2970 RMK MADISHF
MRB,2017-04-01 07:00,-77.9847,39.4019,M,M,M,40.00,5.00,M,29.71,M,2.00,M,BKN,BKN,OVC,M,300.00,999.00,2200.00,M,-RA BR,KMRB 010700Z AUTO 04005KT 2SM -RA BR BKN003 BKN009 OVC022 A2971 RMK MADISHF
MRB,2017-04-01 07:05,-77.9847,39.4019,M,M,M,30.00,5.00,M,29.71,M,2.50,M,BKN,BKN,OVC,M,300.00,999.00,2600.00,M,-RA BR,KMRB 010705Z AUTO 03005KT 2 1/2SM -RA BR BKN003 BKN009 OVC026 A2971 RMK MADISHF
MRB,2017-04-01 07:06,-77.9847,39.4019,43.00,42.10,96.60,30.00,5.00,0.00,29.71,M,3.00,M,BKN,BKN,OVC,M,300.00,1000.00,2600.00,M,-RA BR,KMRB 010706Z AUTO 03005KT 3SM -RA BR BKN003 BKN010 OVC026 06/06 A2971 RMK AO2 P0000 T00610056 TSNO
MRB,2017-04-01 07:10,-77.9847,39.4019,M,M,M,30.00,5.00,M,29.71,M,3.50,M,BKN,OVC,M,M,300.00,2600.00,M,M,-RA BR,KMRB 010710Z AUTO 03005KT 3SM -RA BR BKN003 OVC026 A2971 RMK MADISHF
MRB,2017-04-01 07:15,-77.9847,39.4019,M,M,M,30.00,5.00,M,29.71,M,4.00,M,BKN,OVC,M,M,300.00,2800.00,M,M,-RA BR,KMRB 010715Z AUTO 03005KT 4SM -RA BR BKN003 OVC028 A2971 RMK MADISHF
MRB,2017-04-01 07:20,-77.9847,39.4019,M,M,M,30.00,4.00,M,29.72,M,4.00,M,SCT,OVC,M,M,300.00,3000.00,M,M,-RA BR,KMRB 010720Z AUTO 03004KT 4SM -RA BR SCT003 OVC030 A2972 RMK MADISHF
MRB,2017-04-01 07:22,-77.9847,39.4019,44.10,42.10,92.62,30.00,5.00,0.00,29.72,M,4.00,M,SCT,OVC,M,M,300.00,3000.00,M,M,-RA BR,KMRB 010722Z AUTO 03005KT 4SM -RA BR SCT003 OVC030 07/06 A2972 RMK AO2 P0000 T00670056 TSNO
MRB,2017-04-01 07:25,-77.9847,39.4019,M,M,M,30.00,5.00,M,29.72,M,4.00,M,SCT,BKN,OVC,M,300.00,3000.00,3700.00,M,BR,KMRB 010725Z AUTO 03005KT 4SM BR SCT003 BKN030 OVC037 A2972 RMK MADISHF
MRB,2017-04-01 07:30,-77.9847,39.4019,M,M,M,30.00,5.00,M,29.72,M,4.00,M,FEW,BKN,OVC,M,300.00,2900.00,3700.00,M,BR,KMRB 010730Z AUTO 03005KT 4SM BR FEW003 BKN029 OVC037 A2972 RMK MADISHF
MRB,2017-04-01 07:35,-77.9847,39.4019,M,M,M,20.00,5.00,M,29.72,M,4.00,M,SCT,BKN,OVC,M,2900.00,3900.00,5000.00,M,BR,KMRB 010735Z AUTO 02005KT 4SM BR SCT029 BKN039 OVC050 A2972 RMK MADISHF
MRB,2017-04-01 07:40,-77.9847,39.4019,M,M,M,20.00,5.00,M,29.72,M,4.00,M,SCT,BKN,OVC,M,3200.00,3900.00,5000.00,M,BR,KMRB 010740Z AUTO 02005KT 4SM BR SCT032 BKN039 OVC050 A2972 RMK MADISHF
MRB,2017-04-01 07:45,-77.9847,39.4019,M,M,M,20.00,5.00,M,29.72,M,4.00,M,FEW,BKN,OVC,M,3200.00,3900.00,5000.00,M,BR,KMRB 010745Z AUTO 02005KT 4SM BR FEW032 BKN039 OVC050 A2972 RMK MADISHF
MRB,2017-04-01 07:50,-77.9847,39.4019,M,M,M,20.00,5.00,M,29.73,M,4.00,M,SCT,OVC,M,M,3900.00,5000.00,M,M,BR,KMRB 010750Z AUTO 02005KT 4SM BR SCT039 OVC050 A2973 RMK MADISHF
MRB,2017-04-01 07:53,-77.9847,39.4019,44.10,42.10,92.62,30.00,5.00,0.00,29.73,1006.80,4.00,M,FEW,OVC,M,M,3900.00,5000.00,M,M,BR,KMRB 010753Z AUTO 03005KT 4SM BR FEW039 OVC050 07/06 A2973 RMK AO2 RAE24 SLP068 P0000 T00670056 TSNO
MRB,2017-04-01 07:55,-77.9847,39.4019,M,M,M,30.00,5.00,M,29.73,M,4.00,M,FEW,OVC,M,M,3900.00,5000.00,M,M,BR,KMRB 010755Z AUTO 03005KT 4SM BR FEW039 OVC050 A2973 RMK MADISHF
MRB,2017-04-01 08:00,-77.9847,39.4019,M,M,M,30.00,6.00,M,29.73,M,4.00,M,OVC,M,M,M,4800.00,M,M,M,BR,KMRB 010800Z AUTO 03006KT 4SM BR OVC048 A2973 RMK MADISHF
MRB,2017-04-01 08:05,-77.9847,39.4019,M,M,M,20.00,5.00,M,29.73,M,4.00,M,OVC,M,M,M,4500.00,M,M,M,BR,KMRB 010805Z AUTO 02005KT 4SM BR OVC045 A2973 RMK MADISHF
MRB,2017-04-01 08:10,-77.9847,39.4019,M,M,M,10.00,4.00,M,29.73,M,4.00,M,OVC,M,M,M,4700.00,M,M,M,BR,KMRB 010810Z AUTO 01004KT 4SM BR OVC047 A2973 RMK MADISHF
MRB,2017-04-01 08:15,-77.9847,39.4019,M,M,M,20.00,5.00,M,29.73,M,5.00,M,OVC,M,M,M,4500.00,M,M,M,BR,KMRB 010815Z AUTO 02005KT 5SM BR OVC045 A2973 RMK MADISHF
MRB,2017-04-01 08:20,-77.9847,39.4019,M,M,M,360.00,5.00,M,29.74,M,5.00,M,OVC,M,M,M,4500.00,M,M,M,BR,KMRB 010820Z AUTO 36005KT 5SM BR OVC045 A2974 RMK MADISHF
MRB,2017-04-01 08:25,-77.9847,39.4019,M,M,M,360.00,5.00,M,29.74,M,5.00,M,OVC,M,M,M,4500.00,M,M,M,BR,KMRB 010825Z AUTO 36005KT 5SM BR OVC045 A2974 RMK MADISHF
MRB,2017-04-01 08:30,-77.9847,39.4019,M,M,M,360.00,5.00,M,29.74,M,6.00,M,OVC,M,M,M,4400.00,M,M,M,BR,KMRB 010830Z AUTO 36005KT 6SM BR OVC044 A2974 RMK MADISHF
MRB,2017-04-01 08:35,-77.9847,39.4019,M,M,M,360.00,6.00,M,29.75,M,7.00,M,OVC,M,M,M,4400.00,M,M,M,M,KMRB 010835Z AUTO 36006KT 7SM OVC044 A2975 RMK MADISHF
MRB,2017-04-01 08:40,-77.9847,39.4019,M,M,M,10.00,5.00,M,29.75,M,8.00,M,OVC,M,M,M,4200.00,M,M,M,M,KMRB 010840Z AUTO 01005KT 8SM OVC042 A2975 RMK MADISHF
MRB,2017-04-01 08:45,-77.9847,39.4019,M,M,M,10.00,6.00,M,29.75,M,8.00,M,OVC,M,M,M,3999.00,M,M,M,M,KMRB 010845Z AUTO 01006KT 8SM OVC039 A2975 RMK MADISHF
MRB,2017-04-01 08:50,-77.9847,39.4019,M,M,M,10.00,5.00,M,29.75,M,8.00,M,SCT,OVC,M,M,3000.00,3999.00,M,M,M,KMRB 010850Z AUTO 01005KT 8SM SCT030 OVC039 A2975 RMK MADISHF
MRB,2017-04-01 08:53,-77.9847,39.4019,45.00,43.00,92.65,20.00,5.00,0.00,29.76,1007.80,8.00,M,SCT,OVC,M,M,3000.00,4000.00,M,M,M,KMRB 010853Z AUTO 02005KT 8SM SCT030 OVC040 07/06 A2976 RMK AO2 SLP078 60002 T00720061 53024 TSNO
MRB,2017-04-01 08:55,-77.9847,39.4019,M,M,M,20.00,6.00,M,29.76,M,8.00,M,BKN,OVC,M,M,3000.00,3999.00,M,M,M,KMRB 010855Z AUTO 02006KT 8SM BKN030 OVC039 A2976 RMK MADISHF
MRB,2017-04-01 09:00,-77.9847,39.4019,M,M,M,20.00,5.00,M,29.76,M,8.00,M,BKN,OVC,M,M,3000.00,3800.00,M,M,M,KMRB 010900Z AUTO 02005KT 8SM BKN030 OVC038 A2976 RMK MADISHF
MRB,2017-04-01 09:05,-77.9847,39.4019,M,M,M,30.00,5.00,M,29.76,M,7.00,M,BKN,OVC,M,M,3000.00,3800.00,M,M,M,KMRB 010905Z AUTO 03005KT 7SM BKN030 OVC038 A2976 RMK MADISHF
MRB,2017-04-01 09:10,-77.9847,39.4019,M,M,M,20.00,4.00,M,29.76,M,6.00,M,BKN,OVC,M,M,3000.00,3800.00,M,M,BR,KMRB 010910Z AUTO 02004KT 6SM BR BKN030 OVC038 A2976 RMK MADISHF
MRB,2017-04-01 09:15,-77.9847,39.4019,M,M,M,10.00,4.00,M,29.77,M,6.00,M,BKN,OVC,M,M,3000.00,3800.00,M,M,BR,KMRB 010915Z AUTO 01004KT 6SM BR BKN030 OVC038 A2977 RMK MADISHF
MRB,2017-04-01 09:20,-77.9847,39.4019,M,M,M,10.00,4.00,M,29.77,M,6.00,M,BKN,OVC,M,M,3000.00,3800.00,M,M,BR,KMRB 010920Z AUTO 01004KT 6SM BR BKN030 OVC038 A2977 RMK MADISHF
MRB,2017-04-01 09:25,-77.9847,39.4019,M,M,M,360.00,4.00,M,29.77,M,7.00,M,BKN,OVC,M,M,3000.00,3900.00,M,M,M,KMRB 010925Z AUTO 36004KT 7SM BKN030 OVC039 A2977 RMK MADISHF
MRB,2017-04-01 09:30,-77.9847,39.4019,M,M,M,360.00,5.00,M,29.77,M,8.00,M,BKN,OVC,M,M,3000.00,3900.00,M,M,M,KMRB 010930Z AUTO 36005KT 8SM BKN030 OVC039 A2977 RMK MADISHF
MRB,2017-04-01 09:35,-77.9847,39.4019,M,M,M,350.00,6.00,M,29.77,M,9.00,M,OVC,M,M,M,2800.00,M,M,M,M,KMRB 010935Z AUTO 35006KT 9SM OVC028 A2977 RMK MADISHF
MRB,2017-04-01 09:38,-77.9847,39.4019,46.00,43.00,89.20,350.00,6.00,0.00,29.77,M,10.00,M,OVC,M,M,M,2800.00,M,M,M,M,KMRB 010938Z AUTO 35006KT 10SM OVC028 08/06 A2977 RMK AO2 T00780061 TSNO
MRB,2017-04-01 09:40,-77.9847,39.4019,M,M,M,350.00,6.00,M,29.78,M,10.00,M,OVC,M,M,M,2800.00,M,M,M,M,KMRB 010940Z AUTO 35006KT 10SM OVC028 A2978 RMK MADISHF
MRB,2017-04-01 09:45,-77.9847,39.4019,M,M,M,340.00,6.00,M,29.78,M,10.00,M,OVC,M,M,M,2800.00,M,M,M,M,KMRB 010945Z AUTO 34006KT 10SM OVC028 A2978 RMK MADISHF
MRB,2017-04-01 09:50,-77.9847,39.4019,M,M,M,350.00,5.00,M,29.78,M,10.00,M,OVC,M,M,M,2800.00,M,M,M,M,KMRB 010950Z AUTO 35005KT 10SM OVC028 A2978 RMK MADISHF
MRB,2017-04-01 09:53,-77.9847,39.4019,46.00,43.00,89.20,350.00,6.00,0.00,29.78,1008.80,10.00,M,OVC,M,M,M,2600.00,M,M,M,M,KMRB 010953Z AUTO 35006KT 10SM OVC026 08/06 A2978 RMK AO2 SLP088 T00780061 TSNO
MRB,2017-04-01 09:55,-77.9847,39.4019,M,M,M,350.00,7.00,M,29.78,M,10.00,M,OVC,M,M,M,2600.00,M,M,M,M,KMRB 010955Z AUTO 35007KT 10SM OVC026 A2978 RMK MADISHF
MRB,2017-04-01 10:00,-77.9847,39.4019,M,M,M,350.00,6.00,M,29.79,M,10.00,M,OVC,M,M,M,2600.00,M,M,M,M,KMRB 011000Z AUTO 35006KT 10SM OVC026 A2979 RMK MADISHF
MRB,2017-04-01 10:05,-77.9847,39.4019,M,M,M,340.00,6.00,M,29.79,M,10.00,M,OVC,M,M,M,2600.00,M,M,M,M,KMRB 011005Z AUTO 34006KT 10SM OVC026 A2979 RMK MADISHF
MRB,2017-04-01 10:10,-77.9847,39.4019,M,M,M,320.00,6.00,M,29.79,M,10.00,M,OVC,M,M,M,2700.00,M,M,M,M,KMRB 011010Z AUTO 32006KT 10SM OVC027 A2979 RMK MADISHF
MRB,2017-04-01 10:15,-77.9847,39.4019,M,M,M,320.00,6.00,M,29.80,M,10.00,M,OVC,M,M,M,2700.00,M,M,M,M,KMRB 011015Z AUTO 32006KT 10SM OVC027 A2980 RMK MADISHF
MRB,2017-04-01 10:20,-77.9847,39.4019,M,M,M,320.00,6.00,M,29.80,M,10.00,M,OVC,M,M,M,2700.00,M,M,M,M,KMRB 011020Z AUTO 32006KT 10SM OVC027 A2980 RMK MADISHF
MRB,2017-04-01 10:25,-77.9847,39.4019,M,M,M,310.00,5.00,M,29.81,M,10.00,M,OVC,M,M,M,2700.00,M,M,M,M,KMRB 011025Z AUTO 31005KT 10SM OVC027 A2981 RMK MADISHF
MRB,2017-04-01 10:30,-77.9847,39.4019,M,M,M,310.00,7.00,M,29.81,M,10.00,M,OVC,M,M,M,2700.00,M,M,M,M,KMRB 011030Z AUTO 31007KT 10SM OVC027 A2981 RMK MADISHF
MRB,2017-04-01 10:35,-77.9847,39.4019,M,M,M,300.00,7.00,M,29.81,M,10.00,M,OVC,M,M,M,2700.00,M,M,M,M,KMRB 011035Z AUTO 30007KT 10SM OVC027 A2981 RMK MADISHF
MRB,2017-04-01 10:40,-77.9847,39.4019,M,M,M,290.00,7.00,M,29.81,M,10.00,M,OVC,M,M,M,2700.00,M,M,M,M,KMRB 011040Z AUTO 29007KT 10SM OVC027 A2981 RMK MADISHF
MRB,2017-04-01 10:45,-77.9847,39.4019,M,M,M,300.00,9.00,M,29.82,M,10.00,M,OVC,M,M,M,2700.00,M,M,M,M,KMRB 011045Z AUTO 30009KT 10SM OVC027 A2982 RMK MADISHF
MRB,2017-04-01 10:50,-77.9847,39.4019,M,M,M,300.00,9.00,M,29.82,M,10.00,M,OVC,M,M,M,2700.00,M,M,M,M,KMRB 011050Z AUTO 30009KT 10SM OVC027 A2982 RMK MADISHF
MRB,2017-04-01 10:53,-77.9847,39.4019,48.90,43.00,79.98,290.00,8.00,0.00,29.82,1010.00,10.00,M,OVC,M,M,M,2700.00,M,M,M,M,KMRB 011053Z AUTO 29008KT 10SM OVC027 09/06 A2982 RMK AO2 SLP100 T00940061 TSNO
MRB,2017-04-01 10:55,-77.9847,39.4019,M,M,M,290.00,10.00,M,29.82,M,10.00,M,OVC,M,M,M,2700.00,M,M,M,M,KMRB 011055Z AUTO 29010KT 10SM OVC027 A2982 RMK MADISHF
MRB,2017-04-01 11:00,-77.9847,39.4019,M,M,M,290.00,12.00,M,29.83,M,10.00,M,OVC,M,M,M,2700.00,M,M,M,M,KMRB 011100Z AUTO 29012KT 10SM OVC027 A2983 RMK MADISHF
MRB,2017-04-01 11:05,-77.9847,39.4019,M,M,M,M,M,M,29.83,M,10.00,M,OVC,M,M,M,2700.00,M,M,M,M,KMRB 011105Z AUTO /////KT 10SM OVC027 A2983 RMK MADISHF
MRB,2017-04-01 11:10,-77.9847,39.4019,M,M,M,M,M,M,29.84,M,10.00,M,OVC,M,M,M,2700.00,M,M,M,M,KMRB 011110Z AUTO /////KT 10SM OVC027 A2984 RMK MADISHF
MRB,2017-04-01 11:15,-77.9847,39.4019,M,M,M,M,M,M,29.84,M,10.00,M,OVC,M,M,M,2700.00,M,M,M,M,KMRB 011115Z AUTO /////KT 10SM OVC027 A2984 RMK MADISHF
MRB,2017-04-01 11:20,-77.9847,39.4019,M,M,M,M,M,M,29.84,M,10.00,M,OVC,M,M,M,2700.00,M,M,M,M,KMRB 011120Z AUTO /////KT 10SM OVC027 A2984 RMK MADISHF
MRB,2017-04-01 11:25,-77.9847,39.4019,M,M,M,M,M,M,29.85,M,10.00,M,OVC,M,M,M,2700.00,M,M,M,M,KMRB 011125Z AUTO /////KT 10SM OVC027 A2985 RMK MADISHF
MRB,2017-04-01 11:30,-77.9847,39.4019,M,M,M,M,M,M,29.85,M,10.00,M,OVC,M,M,M,2700.00,M,M,M,M,KMRB 011130Z AUTO /////KT 10SM OVC027 A2985 RMK MADISHF
MRB,2017-04-01 11:35,-77.9847,39.4019,M,M,M,M,M,M,29.85,M,10.00,M,OVC,M,M,M,2700.00,M,M,M,M,KMRB 011135Z AUTO /////KT 10SM OVC027 A2985 RMK MADISHF
MRB,2017-04-01 11:40,-77.9847,39.4019,M,M,M,M,M,M,29.85,M,10.00,M,OVC,M,M,M,2900.00,M,M,M,M,KMRB 011140Z AUTO /////KT 10SM OVC029 A2985 RMK MADISHF
MRB,2017-04-01 11:45,-77.9847,39.4019,M,M,M,M,M,M,29.86,M,10.00,M,OVC,M,M,M,2900.00,M,M,M,M,KMRB 011145Z AUTO /////KT 10SM OVC029 A2986 RMK MADISHF
MRB,2017-04-01 11:50,-77.9847,39.4019,M,M,M,M,M,M,29.86,M,10.00,M,OVC,M,M,M,2900.00,M,M,M,M,KMRB 011150Z AUTO /////KT 10SM OVC029 A2986 RMK MADISHF
MRB,2017-04-01 11:53,-77.9847,39.4019,50.00,39.90,68.10,300.00,13.00,0.00,29.86,1011.20,10.00,22.00,OVC,M,M,M,2900.00,M,M,M,M,KMRB 011153Z 30013G22KT 10SM OVC029 10/04 A2986 RMK AO2 SLP112 60002 70078 T01000044 10100 20061 53034
MRB,2017-04-01 11:55,-77.9847,39.4019,M,M,M,M,M,M,29.86,M,10.00,M,OVC,M,M,M,2900.00,M,M,M,M,KMRB 011155Z AUTO /////KT 10SM OVC029 A2986 RMK MADISHF
MRB,2017-04-01 12:00,-77.9847,39.4019,M,M,M,M,M,M,29.86,M,10.00,M,OVC,M,M,M,2900.00,M,M,M,M,KMRB 011200Z AUTO /////KT 10SM OVC029 A2986 RMK MADISHF
MRB,2017-04-01 12:05,-77.9847,39.4019,M,M,M,310.00,14.00,M,29.86,M,10.00,M,OVC,M,M,M,2900.00,M,M,M,M,KMRB 011205Z AUTO 31014KT 10SM OVC029 A2986 RMK MADISHF
MRB,2017-04-01 12:10,-77.9847,39.4019,M,M,M,300.00,13.00,M,29.86,M,10.00,M,OVC,M,M,M,2900.00,M,M,M,M,KMRB 011210Z AUTO 30013KT 10SM OVC029 A2986 RMK MADISHF
MRB,2017-04-01 12:15,-77.9847,39.4019,M,M,M,300.00,10.00,M,29.86,M,10.00,15.00,OVC,M,M,M,2900.00,M,M,M,M,KMRB 011215Z AUTO 30010G15KT 10SM OVC029 A2986 RMK MADISHF
MRB,2017-04-01 12:20,-77.9847,39.4019,M,M,M,310.00,10.00,M,29.87,M,10.00,M,BKN,OVC,M,M,2700.00,3200.00,M,M,M,KMRB 011220Z AUTO 31010KT 10SM BKN027 OVC032 A2987 RMK MADISHF
MRB,2017-04-01 12:25,-77.9847,39.4019,M,M,M,300.00,13.00,M,29.87,M,10.00,M,OVC,M,M,M,2700.00,M,M,M,M,KMRB 011225Z AUTO 30013KT 10SM OVC027 A2987 RMK MADISHF
MRB,2017-04-01 12:30,-77.9847,39.4019,M,M,M,290.00,11.00,M,29.87,M,10.00,M,OVC,M,M,M,2700.00,M,M,M,M,KMRB 011230Z AUTO 29011KT 10SM OVC027 A2987 RMK MADISHF
MRB,2017-04-01 12:35,-77.9847,39.4019,M,M,M,M,M,M,29.87,M,10.00,M,OVC,M,M,M,2800.00,M,M,M,M,KMRB 011235Z AUTO /////KT 10SM OVC028 A2987 RMK MADISHF
MRB,2017-04-01 12:40,-77.9847,39.4019,M,M,M,290.00,12.00,M,29.88,M,10.00,M,OVC,M,M,M,2800.00,M,M,M,M,KMRB 011240Z AUTO 29012KT 10SM OVC028 A2988 RMK MADISHF
MRB,2017-04-01 12:45,-77.9847,39.4019,M,M,M,300.00,12.00,M,29.88,M,10.00,M,OVC,M,M,M,2800.00,M,M,M,M,KMRB 011245Z AUTO 30012KT 10SM OVC028 A2988 RMK MADISHF
MRB,2017-04-01 12:50,-77.9847,39.4019,M,M,M,300.00,12.00,M,29.88,M,10.00,M,OVC,M,M,M,2600.00,M,M,M,M,KMRB 011250Z AUTO 30012KT 10SM OVC026 A2988 RMK MADISHF
MRB,2017-04-01 12:53,-77.9847,39.4019,48.90,39.90,70.95,310.00,12.00,0.00,29.88,1011.80,10.00,M,OVC,M,M,M,2600.00,M,M,M,M,KMRB 011253Z 31012KT 10SM OVC026 09/04 A2988 RMK AO2 SLP118 T00940044
MRB,2017-04-01 12:55,-77.9847,39.4019,M,M,M,310.00,14.00,M,29.88,M,10.00,M,OVC,M,M,M,2600.00,M,M,M,M,KMRB 011255Z AUTO 31014KT 10SM OVC026 A2988 RMK MADISHF
MRB,2017-04-01 13:00,-77.9847,39.4019,M,M,M,300.00,13.00,M,29.88,M,10.00,M,OVC,M,M,M,2600.00,M,M,M,M,KMRB 011300Z AUTO 30013KT 10SM OVC026 A2988 RMK MADISHF
MRB,2017-04-01 13:05,-77.9847,39.4019,M,M,M,290.00,10.00,M,29.87,M,10.00,M,OVC,M,M,M,2600.00,M,M,M,M,KMRB 011305Z AUTO 29010KT 10SM OVC026 A2987 RMK MADISHF
MRB,2017-04-01 13:10,-77.9847,39.4019,M,M,M,300.00,12.00,M,29.88,M,10.00,M,OVC,M,M,M,2600.00,M,M,M,M,KMRB 011310Z AUTO 30012KT 10SM OVC026 A2988 RMK MADISHF
MRB,2017-04-01 13:15,-77.9847,39.4019,M,M,M,300.00,13.00,M,29.88,M,10.00,M,OVC,M,M,M,2600.00,M,M,M,M,KMRB 011315Z AUTO 30013KT 10SM OVC026 A2988 RMK MADISHF
MRB,2017-04-01 13:20,-77.9847,39.4019,M,M,M,300.00,11.00,M,29.89,M,10.00,M,OVC,M,M,M,2600.00,M,M,M,M,KMRB 011320Z AUTO 30011KT 10SM OVC026 A2989 RMK MADISHF
MRB,2017-04-01 13:25,-77.9847,39.4019,M,M,M,310.00,15.00,M,29.89,M,10.00,M,OVC,M,M,M,2600.00,M,M,M,M,KMRB 011325Z AUTO 31015KT 10SM OVC026 A2989 RMK MADISHF
MRB,2017-04-01 13:30,-77.9847,39.4019,M,M,M,300.00,12.00,M,29.89,M,10.00,M,OVC,M,M,M,2500.00,M,M,M,M,KMRB 011330Z AUTO 30012KT 10SM OVC025 A2989 RMK MADISHF
MRB,2017-04-01 13:35,-77.9847,39.4019,M,M,M,M,M,M,29.89,M,10.00,M,OVC,M,M,M,2500.00,M,M,M,M,KMRB 011335Z AUTO /////KT 10SM OVC025 A2989 RMK MADISHF
MRB,2017-04-01 13:40,-77.9847,39.4019,M,M,M,310.00,12.00,M,29.89,M,10.00,M,OVC,M,M,M,2500.00,M,M,M,M,KMRB 011340Z AUTO 31012KT 10SM OVC025 A2989 RMK MADISHF
MRB,2017-04-01 13:45,-77.9847,39.4019,M,M,M,310.00,13.00,M,29.90,M,10.00,M,OVC,M,M,M,2500.00,M,M,M,M,KMRB 011345Z AUTO 31013KT 10SM OVC025 A2990 RMK MADISHF
MRB,2017-04-01 13:50,-77.9847,39.4019,M,M,M,320.00,13.00,M,29.90,M,10.00,M,OVC,M,M,M,2500.00,M,M,M,M,KMRB 011350Z AUTO 32013KT 10SM OVC025 A2990 RMK MADISHF
MRB,2017-04-01 13:53,-77.9847,39.4019,50.00,39.90,68.10,310.00,15.00,0.00,29.90,1012.70,10.00,19.00,OVC,M,M,M,2500.00,M,M,M,M,KMRB 011353Z 31015G19KT 10SM OVC025 10/04 A2990 RMK AO2 SLP127 T01000044
MRB,2017-04-01 13:55,-77.9847,39.4019,M,M,M,M,M,M,29.90,M,10.00,M,OVC,M,M,M,2500.00,M,M,M,M,KMRB 011355Z AUTO /////KT 10SM OVC025 A2990 RMK MADISHF
MRB,2017-04-01 14:00,-77.9847,39.4019,M,M,M,310.00,16.00,M,29.90,M,10.00,M,OVC,M,M,M,2500.00,M,M,M,M,KMRB 011400Z AUTO 31016KT 10SM OVC025 A2990 RMK MADISHF
MRB,2017-04-01 14:05,-77.9847,39.4019,M,M,M,300.00,14.00,M,29.90,M,10.00,M,OVC,M,M,M,2500.00,M,M,M,M,KMRB 011405Z AUTO 30014KT 10SM OVC025 A2990 RMK MADISHF
MRB,2017-04-01 14:10,-77.9847,39.4019,M,M,M,310.00,18.00,M,29.90,M,10.00,M,OVC,M,M,M,2500.00,M,M,M,M,KMRB 011410Z AUTO 31018KT 10SM OVC025 A2990 RMK MADISHF
MRB,2017-04-01 14:15,-77.9847,39.4019,M,M,M,M,M,M,29.90,M,10.00,M,OVC,M,M,M,2500.00,M,M,M,M,KMRB 011415Z AUTO /////KT 10SM OVC025 A2990 RMK MADISHF
MRB,2017-04-01 14:20,-77.9847,39.4019,M,M,M,320.00,15.00,M,29.90,M,10.00,M,OVC,M,M,M,2700.00,M,M,M,M,KMRB 011420Z AUTO 32015KT 10SM OVC027 A2990 RMK MADISHF
MRB,2017-04-01 14:25,-77.9847,39.4019,M,M,M,M,M,M,29.90,M,10.00,M,OVC,M,M,M,2700.00,M,M,M,M,KMRB 011425Z AUTO /////KT 10SM OVC027 A2990 RMK MADISHF
MRB,2017-04-01 14:30,-77.9847,39.4019,M,M,M,M,M,M,29.91,M,10.00,M,BKN,M,M,M,2700.00,M,M,M,M,KMRB 011430Z AUTO /////KT 10SM BKN027 A2991 RMK MADISHF
MRB,2017-04-01 14:35,-77.9847,39.4019,M,M,M,M,M,M,29.91,M,10.00,M,BKN,M,M,M,2700.00,M,M,M,M,KMRB 011435Z AUTO /////KT 10SM BKN027 A2991 RMK MADISHF
MRB,2017-04-01 14:40,-77.9847,39.4019,M,M,M,300.00,13.00,M,29.91,M,10.00,M,BKN,M,M,M,2700.00,M,M,M,M,KMRB 011440Z AUTO 30013KT 10SM BKN027 A2991 RMK MADISHF
MRB,2017-04-01 14:45,-77.9847,39.4019,M,M,M,M,M,M,29.91,M,10.00,M,SCT,M,M,M,2600.00,M,M,M,M,KMRB 011445Z AUTO /////KT 10SM SCT026 A2991 RMK MADISHF
MRB,2017-04-01 14:50,-77.9847,39.4019,M,M,M,300.00,15.00,M,29.92,M,10.00,M,SCT,M,M,M,2600.00,M,M,M,M,KMRB 011450Z AUTO 30015KT 10SM SCT026 A2992 RMK MADISHF
MRB,2017-04-01 14:51,-77.9847,39.4019,50.00,39.20,66.27,300.00,15.00,0.00,29.92,M,10.00,22.00,SCT,M,M,M,2600.00,M,M,M,M,KMRB 011451Z 30015G22KT 10SM SCT026 10/04 A2992 RMK AO2
MRB,2017-04-01 14:53,-77.9847,39.4019,50.00,39.90,68.10,320.00,14.00,0.00,29.92,1013.20,10.00,22.00,SCT,M,M,M,2600.00,M,M,M,M,KMRB 011453Z 32014G22KT 10SM SCT026 10/04 A2992 RMK AO2 SLP132 T01000044 51014
MRB,2017-04-01 14:55,-77.9847,39.4019,M,M,M,310.00,14.00,M,29.92,M,10.00,M,SCT,M,M,M,2600.00,M,M,M,M,KMRB 011455Z AUTO 31014KT 10SM SCT026 A2992 RMK MADISHF
MRB,2017-04-01 15:00,-77.9847,39.4019,M,M,M,M,M,M,29.92,M,10.00,20.00,SCT,M,M,M,2600.00,M,M,M,M,KMRB 011500Z AUTO /////G20KT 10SM SCT026 A2992 RMK MADISHF
MRB,2017-04-01 15:05,-77.9847,39.4019,M,M,M,M,M,M,29.93,M,10.00,M,BKN,M,M,M,2800.00,M,M,M,M,KMRB 011505Z AUTO /////KT 10SM BKN028 A2993 RMK MADISHF
MRB,2017-04-01 15:10,-77.9847,39.4019,51.10,39.90,65.38,300.00,14.00,0.00,29.93,M,10.00,26.00,BKN,M,M,M,2800.00,M,M,M,M,KMRB 011510Z 30014G26KT 10SM BKN028 11/04 A2993 RMK AO2 PK WND 33026/1507 T01060044
MRB,2017-04-01 15:15,-77.9847,39.4019,M,M,M,M,M,M,29.93,M,10.00,M,BKN,M,M,M,2800.00,M,M,M,M,KMRB 011515Z AUTO /////KT 10SM BKN028 A2993 RMK MADISHF
MRB,2017-04-01 15:20,-77.9847,39.4019,M,M,M,310.00,15.00,M,29.93,M,10.00,M,BKN,BKN,M,M,2800.00,9500.00,M,M,M,KMRB 011520Z AUTO 31015KT 10SM BKN028 BKN095 A2993 RMK MADISHF
MRB,2017-04-01 15:25,-77.9847,39.4019,M,M,M,M,M,M,29.93,M,10.00,M,BKN,OVC,M,M,2800.00,9500.00,M,M,M,KMRB 011525Z AUTO /////KT 10SM BKN028 OVC095 A2993 RMK MADISHF
MRB,2017-04-01 15:30,-77.9847,39.4019,M,M,M,300.00,18.00,M,29.93,M,10.00,M,BKN,BKN,M,M,2800.00,9500.00,M,M,M,KMRB 011530Z AUTO 30018KT 10SM BKN028 BKN095 A2993 RMK MADISHF
MRB,2017-04-01 15:35,-77.9847,39.4019,M,M,M,M,M,M,29.94,M,10.00,M,BKN,BKN,M,M,2800.00,9500.00,M,M,M,KMRB 011535Z AUTO /////KT 10SM BKN028 BKN095 A2994 RMK MADISHF
MRB,2017-04-01 15:40,-77.9847,39.4019,M,M,M,310.00,13.00,M,29.94,M,10.00,M,BKN,BKN,M,M,2600.00,9500.00,M,M,M,KMRB 011540Z AUTO 31013KT 10SM BKN026 BKN095 A2994 RMK MADISHF
MRB,2017-04-01 15:45,-77.9847,39.4019,M,M,M,M,M,M,29.94,M,10.00,M,BKN,BKN,BKN,M,2600.00,3399.00,9500.00,M,M,KMRB 011545Z AUTO /////KT 10SM BKN026 BKN033 BKN095 A2994 RMK MADISHF
MRB,2017-04-01 15:50,-77.9847,39.4019,M,M,M,310.00,16.00,M,29.94,M,10.00,M,BKN,BKN,M,M,2800.00,9500.00,M,M,M,KMRB 011550Z AUTO 31016KT 10SM BKN028 BKN095 A2994 RMK MADISHF
MRB,2017-04-01 15:53,-77.9847,39.4019,52.00,39.00,61.06,310.00,12.00,0.00,29.94,1014.10,10.00,23.00,BKN,M,M,M,2800.00,M,M,M,M,KMRB 011553Z 31012G23KT 10SM BKN028 11/04 A2994 RMK AO2 PK WND 33026/1507 SLP141 T01110039
MRB,2017-04-01 15:55,-77.9847,39.4019,M,M,M,M,M,M,29.94,M,10.00,M,BKN,M,M,M,2800.00,M,M,M,M,KMRB 011555Z AUTO /////KT 10SM BKN028 A2994 RMK MADISHF
MRB,2017-04-01 16:00,-77.9847,39.4019,M,M,M,M,M,M,29.94,M,10.00,24.00,BKN,M,M,M,2800.00,M,M,M,M,KMRB 011600Z AUTO /////G24KT 10SM BKN028 A2994 RMK MADISHF
MRB,2017-04-01 16:05,-77.9847,39.4019,M,M,M,M,M,M,29.94,M,10.00,M,BKN,M,M,M,2800.00,M,M,M,M,KMRB 011605Z AUTO /////KT 10SM BKN028 A2994 RMK MADISHF
MRB,2017-04-01 16:10,-77.9847,39.4019,M,M,M,310.00,14.00,M,29.94,M,10.00,M,BKN,M,M,M,2900.00,M,M,M,M,KMRB 011610Z AUTO 31014KT 10SM BKN029 A2994 RMK MADISHF
MRB,2017-04-01 16:15,-77.9847,39.4019,M,M,M,M,M,M,29.94,M,10.00,M,OVC,M,M,M,2900.00,M,M,M,M,KMRB 011615Z AUTO /////KT 10SM OVC029 A2994 RMK MADISHF
MRB,2017-04-01 16:20,-77.9847,39.4019,M,M,M,M,M,M,29.94,M,10.00,M,OVC,M,M,M,2900.00,M,M,M,M,KMRB 011620Z AUTO /////KT 10SM OVC029 A2994 RMK MADISHF
MRB,2017-04-01 16:25,-77.9847,39.4019,M,M,M,M,M,M,29.95,M,10.00,M,OVC,M,M,M,3000.00,M,M,M,M,KMRB 011625Z AUTO /////KT 10SM OVC030 A2995 RMK MADISHF
MRB,2017-04-01 16:27,-77.9847,39.4019,51.10,39.00,63.12,300.00,11.00,0.00,29.94,M,10.00,19.00,OVC,M,M,M,3000.00,M,M,M,M,KMRB 011627Z 30011G19KT 10SM OVC030 11/04 A2994 RMK AO2 PK WND 31027/1602 T01060039
MRB,2017-04-01 16:30,-77.9847,39.4019,M,M,M,M,M,M,29.95,M,10.00,M,OVC,M,M,M,3000.00,M,M,M,M,KMRB 011630Z AUTO /////KT 10SM OVC030 A2995 RMK MADISHF
MRB,2017-04-01 16:35,-77.9847,39.4019,M,M,M,280.00,15.00,M,29.95,M,10.00,M,OVC,M,M,M,3000.00,M,M,M,M,KMRB 011635Z AUTO 28015KT 10SM OVC030 A2995 RMK MADISHF
MRB,2017-04-01 16:40,-77.9847,39.4019,M,M,M,M,M,M,29.95,M,10.00,M,BKN,OVC,M,M,3000.00,3399.00,M,M,M,KMRB 011640Z AUTO /////KT 10SM BKN030 OVC033 A2995 RMK MADISHF
MRB,2017-04-01 16:45,-77.9847,39.4019,M,M,M,M,M,M,29.95,M,10.00,M,BKN,OVC,M,M,3000.00,3600.00,M,M,M,KMRB 011645Z AUTO /////KT 10SM BKN030 OVC036 A2995 RMK MADISHF
MRB,2017-04-01 16:50,-77.9847,39.4019,M,M,M,320.00,11.00,M,29.95,M,10.00,M,OVC,M,M,M,3200.00,M,M,M,M,KMRB 011650Z AUTO 32011KT 10SM OVC032 A2995 RMK MADISHF
MRB,2017-04-01 16:53,-77.9847,39.4019,51.10,39.00,63.12,300.00,12.00,0.00,29.95,1014.30,10.00,25.00,BKN,OVC,M,M,2900.00,3500.00,M,M,M,KMRB 011653Z 30012G25KT 10SM BKN029 OVC035 11/04 A2995 RMK AO2 PK WND 31027/1602 SLP143 T01060039
MRB,2017-04-01 16:55,-77.9847,39.4019,M,M,M,310.00,13.00,M,29.95,M,10.00,M,BKN,OVC,M,M,2900.00,3500.00,M,M,M,KMRB 011655Z AUTO 31013KT 10SM BKN029 OVC035 A2995 RMK MADISHF
MRB,2017-04-01 17:00,-77.9847,39.4019,M,M,M,M,M,M,29.95,M,10.00,M,BKN,OVC,M,M,2900.00,3500.00,M,M,M,KMRB 011700Z AUTO /////KT 10SM BKN029 OVC035 A2995 RMK MADISHF
MRB,2017-04-01 17:05,-77.9847,39.4019,M,M,M,270.00,14.00,M,29.95,M,10.00,19.00,BKN,OVC,M,M,2900.00,3500.00,M,M,M,KMRB 011705Z AUTO 27014G19KT 10SM BKN029 OVC035 A2995 RMK MADISHF
MRB,2017-04-01 17:10,-77.9847,39.4019,M,M,M,280.00,13.00,M,29.95,M,10.00,M,OVC,M,M,M,2800.00,M,M,M,M,KMRB 011710Z AUTO 28013KT 10SM OVC028 A2995 RMK MADISHF
MRB,2017-04-01 17:15,-77.9847,39.4019,M,M,M,300.00,13.00,M,29.95,M,10.00,19.00,OVC,M,M,M,2800.00,M,M,M,M,KMRB 011715Z AUTO 30013G19KT 10SM OVC028 A2995 RMK MADISHF
MRB,2017-04-01 17:20,-77.9847,39.4019,M,M,M,300.00,13.00,M,29.96,M,10.00,M,OVC,M,M,M,2800.00,M,M,M,M,KMRB 011720Z AUTO 30013KT 10SM OVC028 A2996 RMK MADISHF
MRB,2017-04-01 17:25,-77.9847,39.4019,M,M,M,M,M,M,29.96,M,10.00,M,BKN,M,M,M,2800.00,M,M,M,M,KMRB 011725Z AUTO /////KT 10SM BKN028 A2996 RMK MADISHF
MRB,2017-04-01 17:30,-77.9847,39.4019,M,M,M,300.00,14.00,M,29.96,M,10.00,M,BKN,BKN,OVC,M,2800.00,3700.00,6000.00,M,M,KMRB 011730Z AUTO 30014KT 10SM BKN028 BKN037 OVC060 A2996 RMK MADISHF
MRB,2017-04-01 17:35,-77.9847,39.4019,M,M,M,310.00,12.00,M,29.96,M,10.00,M,BKN,OVC,M,M,3000.00,6000.00,M,M,M,KMRB 011735Z AUTO 31012KT 10SM BKN030 OVC060 A2996 RMK MADISHF
MRB,2017-04-01 17:40,-77.9847,39.4019,M,M,M,M,M,M,29.96,M,10.00,20.00,BKN,OVC,M,M,3000.00,6000.00,M,M,M,KMRB 011740Z AUTO /////G20KT 10SM BKN030 OVC060 A2996 RMK MADISHF
MRB,2017-04-01 17:41,-77.9847,39.4019,53.10,39.00,58.64,290.00,15.00,0.00,29.96,M,10.00,20.00,BKN,OVC,M,M,3000.00,6000.00,M,M,M,KMRB 011741Z 29015G20KT 10SM BKN030 OVC060 12/04 A2996 RMK AO2 T01170039
MRB,2017-04-01 17:45,-77.9847,39.4019,M,M,M,290.00,13.00,M,29.96,M,10.00,M,BKN,OVC,M,M,3000.00,6000.00,M,M,M,KMRB 011745Z AUTO 29013KT 10SM BKN030 OVC060 A2996 RMK MADISHF
MRB,2017-04-01 17:50,-77.9847,39.4019,M,M,M,310.00,18.00,M,29.95,M,10.00,M,BKN,BKN,M,M,3100.00,6000.00,M,M,M,KMRB 011750Z AUTO 31018KT 10SM BKN031 BKN060 A2995 RMK MADISHF
MRB,2017-04-01 17:53,-77.9847,39.4019,53.10,39.00,58.64,310.00,15.00,0.00,29.95,1014.40,10.00,23.00,BKN,BKN,M,M,3100.00,6000.00,M,M,M,KMRB 011753Z 31015G23KT 10SM BKN031 BKN060 12/04 A2995 RMK AO2 SLP144 T01170039 10128 20094 51012
MRB,2017-04-01 17:55,-77.9847,39.4019,M,M,M,M,M,M,29.95,M,10.00,M,SCT,SCT,M,M,3100.00,6000.00,M,M,M,KMRB 011755Z AUTO /////KT 10SM SCT031 SCT060 A2995 RMK MADISHF
MRB,2017-04-01 18:00,-77.9847,39.4019,M,M,M,M,M,M,29.95,M,10.00,22.00,SCT,M,M,M,3200.00,M,M,M,M,KMRB 011800Z AUTO /////G22KT 10SM SCT032 A2995 RMK MADISHF
MRB,2017-04-01 18:05,-77.9847,39.4019,M,M,M,M,M,M,29.95,M,10.00,M,FEW,M,M,M,3200.00,M,M,M,M,KMRB 011805Z AUTO /////KT 10SM FEW032 A2995 RMK MADISHF
MRB,2017-04-01 18:10,-77.9847,39.4019,M,M,M,M,M,M,29.95,M,10.00,M,FEW,M,M,M,3200.00,M,M,M,M,KMRB 011810Z AUTO /////KT 10SM FEW032 A2995 RMK MADISHF
MRB,2017-04-01 18:15,-77.9847,39.4019,M,M,M,M,M,M,29.96,M,10.00,24.00,CLR,M,M,M,M,M,M,M,M,KMRB 011815Z AUTO /////G24KT 10SM CLR A2996 RMK MADISHF
MRB,2017-04-01 18:20,-77.9847,39.4019,M,M,M,M,M,M,29.96,M,10.00,M,CLR,M,M,M,M,M,M,M,M,KMRB 011820Z AUTO /////KT 10SM CLR A2996 RMK MADISHF
MRB,2017-04-01 18:25,-77.9847,39.4019,M,M,M,M,M,M,29.96,M,10.00,M,CLR,M,M,M,M,M,M,M,M,KMRB 011825Z AUTO /////KT 10SM CLR A2996 RMK MADISHF
MRB,2017-04-01 18:30,-77.9847,39.4019,M,M,M,M,M,M,29.96,M,10.00,M,CLR,M,M,M,M,M,M,M,M,KMRB 011830Z AUTO /////KT 10SM CLR A2996 RMK MADISHF
MRB,2017-04-01 18:35,-77.9847,39.4019,M,M,M,M,M,M,29.97,M,10.00,M,SCT,M,M,M,5000.00,M,M,M,M,KMRB 011835Z AUTO /////KT 10SM SCT050 A2997 RMK MADISHF
MRB,2017-04-01 18:40,-77.9847,39.4019,M,M,M,310.00,14.00,M,29.97,M,10.00,19.00,BKN,M,M,M,5000.00,M,M,M,M,KMRB 011840Z AUTO 31014G19KT 10SM BKN050 A2997 RMK MADISHF
MRB,2017-04-01 18:45,-77.9847,39.4019,M,M,M,M,M,M,29.98,M,10.00,M,BKN,M,M,M,5000.00,M,M,M,M,KMRB 011845Z AUTO /////KT 10SM BKN050 A2998 RMK MADISHF
MRB,2017-04-01 18:50,-77.9847,39.4019,M,M,M,290.00,15.00,M,29.98,M,10.00,M,BKN,M,M,M,5000.00,M,M,M,M,KMRB 011850Z AUTO 29015KT 10SM BKN050 A2998 RMK MADISHF
MRB,2017-04-01 18:53,-77.9847,39.4019,54.00,39.00,56.74,300.00,17.00,0.00,29.98,1015.40,10.00,23.00,FEW,BKN,M,M,3500.00,5000.00,M,M,M,KMRB 011853Z 30017G23KT 10SM FEW035 BKN050 12/04 A2998 RMK AO2 PK WND 31030/1826 SLP154 T01220039
MRB,2017-04-01 18:55,-77.9847,39.4019,M,M,M,310.00,14.00,M,29.98,M,10.00,M,FEW,OVC,M,M,3500.00,5000.00,M,M,M,KMRB 011855Z AUTO 31014KT 10SM FEW035 OVC050 A2998 RMK MADISHF
MRB,2017-04-01 19:00,-77.9847,39.4019,M,M,M,M,M,M,29.98,M,10.00,M,SCT,OVC,M,M,3500.00,5000.00,M,M,M,KMRB 011900Z AUTO /////KT 10SM SCT035 OVC050 A2998 RMK MADISHF
MRB,2017-04-01 19:05,-77.9847,39.4019,M,M,M,310.00,10.00,M,29.98,M,10.00,M,SCT,OVC,M,M,3500.00,5000.00,M,M,M,KMRB 011905Z AUTO 31010KT 10SM SCT035 OVC050 A2998 RMK MADISHF
MRB,2017-04-01 19:10,-77.9847,39.4019,M,M,M,300.00,11.00,M,29.98,M,10.00,M,BKN,OVC,M,M,3500.00,5000.00,M,M,M,KMRB 011910Z AUTO 30011KT 10SM BKN035 OVC050 A2998 RMK MADISHF
MRB,2017-04-01 19:15,-77.9847,39.4019,M,M,M,300.00,11.00,M,29.98,M,10.00,M,BKN,OVC,M,M,3500.00,5000.00,M,M,M,KMRB 011915Z AUTO 30011KT 10SM BKN035 OVC050 A2998 RMK MADISHF
MRB,2017-04-01 19:20,-77.9847,39.4019,M,M,M,M,M,M,29.98,M,10.00,M,OVC,M,M,M,3500.00,M,M,M,M,KMRB 011920Z AUTO /////KT 10SM OVC035 A2998 RMK MADISHF
MRB,2017-04-01 19:25,-77.9847,39.4019,M,M,M,320.00,12.00,M,29.98,M,10.00,M,OVC,M,M,M,3500.00,M,M,M,M,KMRB 011925Z AUTO 32012KT 10SM OVC035 A2998 RMK MADISHF
MRB,2017-04-01 19:30,-77.9847,39.4019,M,M,M,320.00,11.00,M,29.98,M,10.00,M,OVC,M,M,M,3500.00,M,M,M,M,KMRB 011930Z AUTO 32011KT 10SM OVC035 A2998 RMK MADISHF
MRB,2017-04-01 19:35,-77.9847,39.4019,M,M,M,300.00,11.00,M,29.98,M,10.00,M,BKN,OVC,M,M,3600.00,5000.00,M,M,M,KMRB 011935Z AUTO 30011KT 10SM BKN036 OVC050 A2998 RMK MADISHF
MRB,2017-04-01 19:40,-77.9847,39.4019,M,M,M,300.00,9.00,M,29.98,M,10.00,M,BKN,OVC,M,M,3600.00,5000.00,M,M,M,KMRB 011940Z AUTO 30009KT 10SM BKN036 OVC050 A2998 RMK MADISHF
MRB,2017-04-01 19:45,-77.9847,39.4019,M,M,M,300.00,14.00,M,29.98,M,10.00,M,BKN,OVC,M,M,3600.00,5000.00,M,M,M,KMRB 011945Z AUTO 30014KT 10SM BKN036 OVC050 A2998 RMK MADISHF
MRB,2017-04-01 19:50,-77.9847,39.4019,M,M,M,280.00,13.00,M,29.98,M,10.00,M,BKN,OVC,M,M,3600.00,4800.00,M,M,M,KMRB 011950Z AUTO 28013KT 10SM BKN036 OVC048 A2998 RMK MADISHF
MRB,2017-04-01 19:53,-77.9847,39.4019,52.00,37.00,56.45,280.00,14.00,0.00,29.98,1015.40,10.00,M,BKN,OVC,M,M,3600.00,4800.00,M,M,M,KMRB 011953Z AUTO 28014KT 10SM BKN036 OVC048 11/03 A2998 RMK AO2 SLP154 T01110028 TSNO
MRB,2017-04-01 19:55,-77.9847,39.4019,M,M,M,280.00,14.00,M,29.98,M,10.00,M,BKN,OVC,M,M,3600.00,4800.00,M,M,M,KMRB 011955Z AUTO 28014KT 10SM BKN036 OVC048 A2998 RMK MADISHF
MRB,2017-04-01 20:00,-77.9847,39.4019,M,M,M,M,M,M,29.98,M,10.00,M,BKN,BKN,OVC,M,3600.00,4500.00,5000.00,M,M,KMRB 012000Z AUTO /////KT 10SM BKN036 BKN045 OVC050 A2998 RMK MADISHF
MRB,2017-04-01 20:05,-77.9847,39.4019,M,M,M,290.00,14.00,M,29.99,M,10.00,M,BKN,OVC,M,M,3600.00,4500.00,M,M,M,KMRB 012005Z AUTO 29014KT 10SM BKN036 OVC045 A2999 RMK MADISHF
MRB,2017-04-01 20:10,-77.9847,39.4019,M,M,M,M,M,M,29.99,M,10.00,M,OVC,M,M,M,3800.00,M,M,M,M,KMRB 012010Z AUTO /////KT 10SM OVC038 A2999 RMK MADISHF
MRB,2017-04-01 20:15,-77.9847,39.4019,M,M,M,280.00,14.00,M,29.99,M,10.00,M,OVC,M,M,M,3800.00,M,M,M,M,KMRB 012015Z AUTO 28014KT 10SM OVC038 A2999 RMK MADISHF
MRB,2017-04-01 20:20,-77.9847,39.4019,M,M,M,300.00,14.00,M,29.99,M,10.00,M,OVC,M,M,M,3600.00,M,M,M,M,KMRB 012020Z AUTO 30014KT 10SM OVC036 A2999 RMK MADISHF
MRB,2017-04-01 20:25,-77.9847,39.4019,M,M,M,310.00,13.00,M,30.00,M,10.00,M,OVC,M,M,M,3600.00,M,M,M,M,KMRB 012025Z AUTO 31013KT 10SM OVC036 A3000 RMK MADISHF
MRB,2017-04-01 20:30,-77.9847,39.4019,M,M,M,310.00,13.00,M,30.00,M,10.00,M,OVC,M,M,M,3600.00,M,M,M,M,KMRB 012030Z AUTO 31013KT 10SM OVC036 A3000 RMK MADISHF
MRB,2017-04-01 20:35,-77.9847,39.4019,M,M,M,M,M,M,30.00,M,10.00,M,OVC,M,M,M,3600.00,M,M,M,M,KMRB 012035Z AUTO /////KT 10SM OVC036 A3000 RMK MADISHF
MRB,2017-04-01 20:40,-77.9847,39.4019,M,M,M,300.00,11.00,M,30.00,M,10.00,M,OVC,M,M,M,3700.00,M,M,M,M,KMRB 012040Z AUTO 30011KT 10SM OVC037 A3000 RMK MADISHF
MRB,2017-04-01 20:45,-77.9847,39.4019,M,M,M,M,M,M,30.00,M,10.00,M,OVC,M,M,M,3700.00,M,M,M,M,KMRB 012045Z AUTO /////KT 10SM OVC037 A3000 RMK MADISHF
MRB,2017-04-01 20:50,-77.9847,39.4019,M,M,M,300.00,12.00,M,30.00,M,10.00,M,OVC,M,M,M,3600.00,M,M,M,M,KMRB 012050Z AUTO 30012KT 10SM OVC036 A3000 RMK MADISHF
MRB,2017-04-01 20:53,-77.9847,39.4019,52.00,37.00,56.45,300.00,12.00,0.00,30.00,1016.20,10.00,21.00,OVC,M,M,M,3600.00,M,M,M,M,KMRB 012053Z AUTO 30012G21KT 10SM OVC036 11/03 A3000 RMK AO2 SLP162 T01110028 51018 TSNO
MRB,2017-04-01 20:55,-77.9847,39.4019,M,M,M,320.00,13.00,M,30.01,M,10.00,M,OVC,M,M,M,3600.00,M,M,M,M,KMRB 012055Z AUTO 32013KT 10SM OVC036 A3001 RMK MADISHF
MRB,2017-04-01 21:00,-77.9847,39.4019,M,M,M,320.00,13.00,M,30.01,M,10.00,M,OVC,M,M,M,3600.00,M,M,M,M,KMRB 012100Z AUTO 32013KT 10SM OVC036 A3001 RMK MADISHF
MRB,2017-04-01 21:05,-77.9847,39.4019,M,M,M,320.00,13.00,M,30.02,M,10.00,M,OVC,M,M,M,3600.00,M,M,M,M,KMRB 012105Z AUTO 32013KT 10SM OVC036 A3002 RMK MADISHF
MRB,2017-04-01 21:10,-77.9847,39.4019,M,M,M,M,M,M,30.02,M,10.00,M,OVC,M,M,M,3399.00,M,M,M,M,KMRB 012110Z AUTO /////KT 10SM OVC033 A3002 RMK MADISHF
MRB,2017-04-01 21:15,-77.9847,39.4019,M,M,M,320.00,12.00,M,30.02,M,10.00,M,OVC,M,M,M,3399.00,M,M,M,M,KMRB 012115Z AUTO 32012KT 10SM OVC033 A3002 RMK MADISHF
MRB,2017-04-01 21:20,-77.9847,39.4019,M,M,M,300.00,13.00,M,30.02,M,10.00,M,OVC,M,M,M,3200.00,M,M,M,M,KMRB 012120Z AUTO 30013KT 10SM OVC032 A3002 RMK WND 27V34  MADISHF
MRB,2017-04-01 21:25,-77.9847,39.4019,M,M,M,M,M,M,30.03,M,10.00,M,OVC,M,M,M,3200.00,M,M,M,M,KMRB 012125Z AUTO /////KT 10SM OVC032 A3003 RMK MADISHF
MRB,2017-04-01 21:30,-77.9847,39.4019,M,M,M,290.00,9.00,M,30.03,M,10.00,M,OVC,M,M,M,3200.00,M,M,M,M,KMRB 012130Z AUTO 29009KT 10SM OVC032 A3003 RMK WND 27V33  MADISHF
MRB,2017-04-01 21:35,-77.9847,39.4019,M,M,M,310.00,12.00,M,30.03,M,10.00,M,OVC,M,M,M,3200.00,M,M,M,M,KMRB 012135Z AUTO 31012KT 10SM OVC032 A3003 RMK MADISHF
MRB,2017-04-01 21:40,-77.9847,39.4019,M,M,M,290.00,11.00,M,30.03,M,10.00,M,OVC,M,M,M,3200.00,M,M,M,M,KMRB 012140Z AUTO 29011KT 10SM OVC032 A3003 RMK MADISHF
MRB,2017-04-01 21:45,-77.9847,39.4019,M,M,M,310.00,8.00,M,30.03,M,10.00,M,OVC,M,M,M,3100.00,M,M,M,M,KMRB 012145Z AUTO 31008KT 10SM OVC031 A3003 RMK MADISHF
MRB,2017-04-01 21:50,-77.9847,39.4019,M,M,M,310.00,10.00,M,30.04,M,10.00,M,OVC,M,M,M,3100.00,M,M,M,M,KMRB 012150Z AUTO 31010KT 10SM OVC031 A3004 RMK MADISHF
MRB,2017-04-01 21:53,-77.9847,39.4019,48.90,37.00,63.34,320.00,14.00,0.00,30.04,1017.50,10.00,18.00,OVC,M,M,M,3100.00,M,M,M,M,KMRB 012153Z AUTO 32014G18KT 10SM OVC031 09/03 A3004 RMK AO2 SLP175 T00940028 TSNO
MRB,2017-04-01 21:55,-77.9847,39.4019,M,M,M,310.00,13.00,M,30.05,M,10.00,M,OVC,M,M,M,3100.00,M,M,M,M,KMRB 012155Z AUTO 31013KT 10SM OVC031 A3005 RMK MADISHF
MRB,2017-04-01 22:00,-77.9847,39.4019,M,M,M,290.00,12.00,M,30.05,M,10.00,M,OVC,M,M,M,2900.00,M,M,M,M,KMRB 012200Z AUTO 29012KT 10SM OVC029 A3005 RMK MADISHF
MRB,2017-04-01 22:02,-77.9847,39.4019,48.00,37.00,65.51,300.00,13.00,0.00,30.05,M,10.00,M,OVC,M,M,M,2900.00,M,M,M,M,KMRB 012202Z AUTO 30013KT 10SM OVC029 09/03 A3005 RMK AO2 T00890028 TSNO
MRB,2017-04-01 22:05,-77.9847,39.4019,M,M,M,M,M,M,30.05,M,10.00,M,OVC,M,M,M,2900.00,M,M,M,M,KMRB 012205Z AUTO /////KT 10SM OVC029 A3005 RMK MADISHF
MRB,2017-04-01 22:10,-77.9847,39.4019,M,M,M,M,M,M,30.06,M,10.00,M,OVC,M,M,M,2900.00,M,M,M,M,KMRB 012210Z AUTO /////KT 10SM OVC029 A3006 RMK MADISHF
MRB,2017-04-01 22:15,-77.9847,39.4019,M,M,M,M,M,M,30.06,M,10.00,M,OVC,M,M,M,2700.00,M,M,M,M,KMRB 012215Z AUTO /////KT 10SM OVC027 A3006 RMK MADISHF
MRB,2017-04-01 22:20,-77.9847,39.4019,M,M,M,300.00,9.00,M,30.07,M,10.00,14.00,OVC,M,M,M,2700.00,M,M,M,M,KMRB 012220Z AUTO 30009G14KT 10SM OVC027 A3007 RMK MADISHF
MRB,2017-04-01 22:25,-77.9847,39.4019,M,M,M,M,M,M,30.07,M,10.00,M,OVC,M,M,M,2700.00,M,M,M,M,KMRB 012225Z AUTO /////KT 10SM OVC027 A3007 RMK MADISHF
MRB,2017-04-01 22:30,-77.9847,39.4019,M,M,M,310.00,13.00,M,30.07,M,10.00,M,OVC,M,M,M,2700.00,M,M,M,M,KMRB 012230Z AUTO 31013KT 10SM OVC027 A3007 RMK MADISHF
MRB,2017-04-01 22:35,-77.9847,39.4019,M,M,M,320.00,14.00,M,30.08,M,10.00,M,OVC,M,M,M,2700.00,M,M,M,M,KMRB 012235Z AUTO 32014KT 10SM OVC027 A3008 RMK MADISHF
MRB,2017-04-01 22:40,-77.9847,39.4019,M,M,M,320.00,12.00,M,30.08,M,10.00,M,OVC,M,M,M,2700.00,M,M,M,M,KMRB 012240Z AUTO 32012KT 10SM OVC027 A3008 RMK MADISHF
MRB,2017-04-01 22:45,-77.9847,39.4019,M,M,M,310.00,11.00,M,30.08,M,10.00,16.00,OVC,M,M,M,2600.00,M,M,M,M,KMRB 012245Z AUTO 31011G16KT 10SM OVC026 A3008 RMK MADISHF
MRB,2017-04-01 22:50,-77.9847,39.4019,M,M,M,310.00,13.00,M,30.08,M,10.00,M,OVC,M,M,M,2600.00,M,M,M,M,KMRB 012250Z AUTO 31013KT 10SM OVC026 A3008 RMK MADISHF
MRB,2017-04-01 22:53,-77.9847,39.4019,48.00,37.00,65.51,300.00,11.00,0.00,30.09,1019.00,10.00,M,OVC,M,M,M,2600.00,M,M,M,M,KMRB 012253Z AUTO 30011KT 10SM OVC026 09/03 A3009 RMK AO2 SLP190 T00890028 TSNO
MRB,2017-04-01 22:55,-77.9847,39.4019,M,M,M,300.00,11.00,M,30.09,M,10.00,M,OVC,M,M,M,2600.00,M,M,M,M,KMRB 012255Z AUTO 30011KT 10SM OVC026 A3009 RMK MADISHF
MRB,2017-04-01 23:00,-77.9847,39.4019,M,M,M,300.00,13.00,M,30.09,M,10.00,M,OVC,M,M,M,2600.00,M,M,M,M,KMRB 012300Z AUTO 30013KT 10SM OVC026 A3009 RMK MADISHF
MRB,2017-04-01 23:05,-77.9847,39.4019,M,M,M,310.00,13.00,M,30.09,M,10.00,M,OVC,M,M,M,2800.00,M,M,M,M,KMRB 012305Z AUTO 31013KT 10SM OVC028 A3009 RMK MADISHF
MRB,2017-04-01 23:10,-77.9847,39.4019,M,M,M,M,M,M,30.09,M,10.00,M,OVC,M,M,M,2800.00,M,M,M,M,KMRB 012310Z AUTO /////KT 10SM OVC028 A3009 RMK MADISHF
MRB,2017-04-01 23:15,-77.9847,39.4019,M,M,M,310.00,11.00,M,30.09,M,10.00,M,OVC,M,M,M,2800.00,M,M,M,M,KMRB 012315Z AUTO 31011KT 10SM OVC028 A3009 RMK MADISHF
MRB,2017-04-01 23:20,-77.9847,39.4019,M,M,M,320.00,11.00,M,30.09,M,10.00,M,OVC,M,M,M,2800.00,M,M,M,M,KMRB 012320Z AUTO 32011KT 10SM OVC028 A3009 RMK MADISHF
MRB,2017-04-01 23:25,-77.9847,39.4019,M,M,M,310.00,11.00,M,30.10,M,10.00,M,OVC,M,M,M,2800.00,M,M,M,M,KMRB 012325Z AUTO 31011KT 10SM OVC028 A3010 RMK MADISHF
MRB,2017-04-01 23:30,-77.9847,39.4019,M,M,M,310.00,12.00,M,30.10,M,10.00,M,OVC,M,M,M,2800.00,M,M,M,M,KMRB 012330Z AUTO 31012KT 10SM OVC028 A3010 RMK MADISHF
MRB,2017-04-01 23:35,-77.9847,39.4019,M,M,M,300.00,11.00,M,30.10,M,10.00,M,OVC,M,M,M,2800.00,M,M,M,M,KMRB 012335Z AUTO 30011KT 10SM OVC028 A3010 RMK MADISHF
MRB,2017-04-01 23:40,-77.9847,39.4019,M,M,M,310.00,9.00,M,30.10,M,10.00,M,OVC,M,M,M,2900.00,M,M,M,M,KMRB 012340Z AUTO 31009KT 10SM OVC029 A3010 RMK MADISHF
MRB,2017-04-01 23:45,-77.9847,39.4019,M,M,M,330.00,9.00,M,30.10,M,10.00,M,OVC,M,M,M,2900.00,M,M,M,M,KMRB 012345Z AUTO 33009KT 10SM OVC029 A3010 RMK MADISHF
MRB,2017-04-01 23:50,-77.9847,39.4019,M,M,M,330.00,9.00,M,30.11,M,10.00,M,OVC,M,M,M,2800.00,M,M,M,M,KMRB 012350Z AUTO 33009KT 10SM OVC028 A3011 RMK MADISHF
MRB,2017-04-01 23:53,-77.9847,39.4019,46.90,37.00,68.27,330.00,9.00,0.00,30.11,1019.70,10.00,M,OVC,M,M,M,2800.00,M,M,M,M,KMRB 012353Z AUTO 33009KT 280V340 10SM OVC028 08/03 A3011 RMK AO2 SLP197 T00830028 10128 20083 51035 TSNO
MRB,2017-04-01 23:55,-77.9847,39.4019,M,M,M,340.00,9.00,M,30.11,M,10.00,M,OVC,M,M,M,2800.00,M,M,M,M,KMRB 012355Z AUTO 34009KT 10SM OVC028 A3011 RMK MADISHF
