#DEBUG: Format Typ    -> comma
#DEBUG: Time Period   -> 2017-04-01 00:00:00+00:00 2017-04-02 00:00:00+00:00
#DEBUG: Time Zone     -> Etc/UTC
#DEBUG: Data Contact   -> daryl herzmann akrherz@iastate.edu 515-294-5978
#DEBUG: Entries Found -> -1
station,valid,lon,lat,tmpf, dwpf, relh, drct, sknt, p01i, alti, mslp, vsby, gust, skyc1, skyc2, skyc3, skyc4, skyl1, skyl2, skyl3, skyl4, presentwx, metar
MTN,2017-04-01 00:45,-76.4138,39.3257,50.00,50.00,100.00,300.00,7.00,0.00,29.66,M,6.00,M,OVC,M,M,M,700.00,M,M,M,-RA,KMTN 010045Z 30007KT 6SM -RA OVC007 10/10 A2966
MTN,2017-04-01 01:45,-76.4138,39.3257,50.00,50.00,100.00,280.00,8.00,0.00,29.67,M,10.00,M,OVC,M,M,M,700.00,M,M,M,-RA,KMTN 010145Z 28008KT 10SM -RA OVC007 10/10 A2967 RMK LAST
MTN,2017-04-01 02:18,-76.4138,39.3257,48.20,48.20,100.00,330.00,5.00,0.00,29.66,M,10.00,M,OVC,M,M,M,700.00,M,M,M,M,KMTN 010218Z AUTO 33005KT 10SM OVC007 09/09 A2966 RMK AO2
MTN,2017-04-01 02:39,-76.4138,39.3257,46.40,46.40,100.00,310.00,4.00,0.00,29.66,M,10.00,M,OVC,M,M,M,700.00,M,M,M,M,KMTN 010239Z AUTO 31004KT 10SM OVC007 08/08 A2966 RMK AO2
MTN,2017-04-01 02:57,-76.4138,39.3257,46.40,46.40,100.00,320.00,4.00,0.00,29.67,M,7.00,M,OVC,M,M,M,700.00,M,M,M,M,KMTN 010257Z AUTO 32004KT 7SM OVC007 08/08 A2967 RMK AO2
MTN,2017-04-01 03:18,-76.4138,39.3257,46.40,46.40,100.00,310.00,6.00,0.00,29.66,M,7.00,M,OVC,M,M,M,700.00,M,M,M,M,KMTN 010318Z AUTO 31006KT 7SM OVC007 08/08 A2966 RMK AO2
MTN,2017-04-01 03:39,-76.4138,39.3257,46.40,46.40,100.00,320.00,3.00,0.00,29.66,M,7.00,M,OVC,M,M,M,700.00,M,M,M,M,KMTN 010339Z AUTO 32003KT 7SM OVC007 08/08 A2966 RMK AO2
MTN,2017-04-01 03:57,-76.4138,39.3257,46.40,46.40,100.00,310.00,5.00,0.00,29.66,M,7.00,M,OVC,M,M,M,700.00,M,M,M,M,KMTN 010357Z AUTO 31005KT 7SM OVC007 08/08 A2966 RMK AO2
MTN,2017-04-01 04:18,-76.4138,39.3257,46.40,46.40,100.00,0.00,0.00,0.00,29.67,M,7.00,M,OVC,M,M,M,700.00,M,M,M,M,KMTN 010418Z AUTO 00000KT 7SM OVC007 08/08 A2967 RMK AO2
MTN,2017-04-01 04:39,-76.4138,39.3257,46.40,46.40,100.00,300.00,7.00,0.00,29.67,M,7.00,M,OVC,M,M,M,700.00,M,M,M,M,KMTN 010439Z AUTO 30007KT 7SM OVC007 08/08 A2967 RMK AO2
MTN,2017-04-01 04:57,-76.4138,39.3257,46.40,46.40,100.00,300.00,5.00,0.00,29.67,M,7.00,M,OVC,M,M,M,700.00,M,M,M,M,KMTN 010457Z AUTO 30005KT 7SM OVC007 08/08 A2967 RMK AO2
MTN,2017-04-01 05:18,-76.4138,39.3257,46.40,46.40,100.00,300.00,5.00,0.00,29.67,M,10.00,M,OVC,M,M,M,900.00,M,M,M,M,KMTN 010518Z AUTO 30005KT 10SM OVC009 08/08 A2967 RMK AO2
MTN,2017-04-01 05:39,-76.4138,39.3257,44.60,44.60,100.00,300.00,6.00,0.00,29.68,M,10.00,M,OVC,M,M,M,900.00,M,M,M,M,KMTN 010539Z AUTO 30006KT 10SM OVC009 07/07 A2968 RMK AO2
MTN,2017-04-01 05:57,-76.4138,39.3257,44.60,44.60,100.00,300.00,4.00,0.00,29.68,M,10.00,M,OVC,M,M,M,900.00,M,M,M,M,KMTN 010557Z AUTO 30004KT 10SM OVC009 07/07 A2968 RMK AO2
MTN,2017-04-01 06:18,-76.4138,39.3257,44.60,44.60,100.00,330.00,3.00,0.00,29.68,M,10.00,M,OVC,M,M,M,900.00,M,M,M,M,KMTN 010618Z AUTO 33003KT 10SM OVC009 07/07 A2968 RMK AO2 LTG DSNT SE
MTN,2017-04-01 06:39,-76.4138,39.3257,44.60,44.60,100.00,310.00,4.00,0.00,29.69,M,10.00,M,OVC,M,M,M,900.00,M,M,M,M,KMTN 010639Z AUTO 31004KT 10SM OVC009 07/07 A2969 RMK AO2
MTN,2017-04-01 06:57,-76.4138,39.3257,44.60,44.60,100.00,0.00,0.00,0.00,29.69,M,10.00,M,OVC,M,M,M,900.00,M,M,M,M,KMTN 010657Z AUTO 00000KT 10SM OVC009 07/07 A2969 RMK AO2
MTN,2017-04-01 07:18,-76.4138,39.3257,44.60,44.60,100.00,300.00,4.00,0.00,29.70,M,7.00,M,OVC,M,M,M,900.00,M,M,M,M,KMTN 010718Z AUTO 30004KT 7SM OVC009 07/07 A2970 RMK AO2
MTN,2017-04-01 07:39,-76.4138,39.3257,44.60,44.60,100.00,310.00,5.00,0.00,29.71,M,10.00,M,OVC,M,M,M,1100.00,M,M,M,M,KMTN 010739Z AUTO 31005KT 10SM OVC011 07/07 A2971 RMK AO2
MTN,2017-04-01 07:57,-76.4138,39.3257,44.60,44.60,100.00,310.00,6.00,0.00,29.72,M,7.00,M,OVC,M,M,M,1100.00,M,M,M,M,KMTN 010757Z AUTO 31006KT 7SM OVC011 07/07 A2972 RMK AO2
MTN,2017-04-01 08:18,-76.4138,39.3257,44.60,44.60,100.00,300.00,8.00,0.00,29.74,M,7.00,M,OVC,M,M,M,1100.00,M,M,M,M,KMTN 010818Z AUTO 30008KT 7SM OVC011 07/07 A2974 RMK AO2
MTN,2017-04-01 08:39,-76.4138,39.3257,44.60,44.60,100.00,290.00,8.00,0.00,29.74,M,7.00,M,OVC,M,M,M,1100.00,M,M,M,DZ,KMTN 010839Z AUTO 29008KT 7SM DZ OVC011 07/07 A2974 RMK AO2
MTN,2017-04-01 08:57,-76.4138,39.3257,44.60,42.80,93.35,300.00,7.00,0.00,29.76,M,7.00,M,BKN,OVC,M,M,1300.00,1900.00,M,M,-RA,KMTN 010857Z AUTO 30007KT 7SM -RA BKN013 OVC019 07/06 A2976 RMK AO2
MTN,2017-04-01 09:18,-76.4138,39.3257,44.60,42.80,93.35,320.00,6.00,0.00,29.76,M,10.00,M,BKN,OVC,M,M,1300.00,1900.00,M,M,M,KMTN 010918Z AUTO 32006KT 10SM BKN013 OVC019 07/06 A2976 RMK AO2
MTN,2017-04-01 09:30,-76.4138,39.3257,44.60,42.80,93.35,300.00,6.00,0.00,29.76,M,10.00,M,BKN,OVC,M,M,1300.00,1700.00,M,M,M,KMTN 010930Z AUTO 30006KT 10SM BKN013 OVC017 07/06 A2976 RMK AO2
MTN,2017-04-01 09:45,-76.4138,39.3257,44.60,42.80,93.35,290.00,13.00,0.00,29.77,M,10.00,M,OVC,M,M,M,1400.00,M,M,M,M,KMTN 010945Z 29013KT 10SM OVC014 07/06 A2977 RMK FIRST
MTN,2017-04-01 10:45,-76.4138,39.3257,44.60,42.80,93.35,320.00,10.00,0.00,29.80,M,10.00,M,BKN,BKN,OVC,M,1300.00,6000.00,9000.00,M,M,KMTN 011045Z 32010KT 10SM BKN013 BKN060 OVC090 07/06 A2980
MTN,2017-04-01 11:45,-76.4138,39.3257,44.60,42.80,93.35,310.00,10.00,0.00,29.84,M,10.00,M,SCT,BKN,BKN,M,1300.00,6000.00,8500.00,M,M,KMTN 011145Z 31010KT 10SM SCT013 BKN060 BKN085 07/06 A2984
MTN,2017-04-01 12:54,-76.4138,39.3257,46.40,44.60,93.40,310.00,6.00,0.00,29.86,M,10.00,M,OVC,M,M,M,5000.00,M,M,M,M,KMTN 011254Z 31006KT 10SM OVC050 08/07 A2986
MTN,2017-04-01 13:45,-76.4138,39.3257,51.80,46.40,81.74,300.00,6.00,0.00,29.87,M,10.00,M,SCT,SCT,BKN,M,2500.00,5000.00,8500.00,M,M,KMTN 011345Z 30006KT 10SM SCT025 SCT050 BKN085 11/08 A2987
MTN,2017-04-01 14:25,-76.4138,39.3257,53.60,46.40,76.50,310.00,15.00,0.00,29.88,M,10.00,M,BKN,BKN,BKN,M,2500.00,3900.00,4900.00,M,M,KMTN 011425Z 31015KT 10SM BKN025 BKN039 BKN049 12/08 A2988
MTN,2017-04-01 14:50,-76.4138,39.3257,53.60,46.40,76.50,310.00,12.00,0.00,29.88,M,10.00,M,BKN,M,M,M,2700.00,M,M,M,M,KMTN 011450Z 31012KT 10SM BKN027 12/08 A2988
MTN,2017-04-01 15:45,-76.4138,39.3257,53.60,44.60,71.45,320.00,12.00,0.00,29.89,M,10.00,18.00,OVC,M,M,M,3300.00,M,M,M,M,KMTN 011545Z 32012G18KT 10SM OVC033 12/07 A2989
MTN,2017-04-01 16:45,-76.4138,39.3257,53.60,46.40,76.50,300.00,16.00,0.00,29.90,M,10.00,24.00,OVC,M,M,M,2900.00,M,M,M,M,KMTN 011645Z 30016G24KT 10SM OVC029 12/08 A2990
MTN,2017-04-01 17:45,-76.4138,39.3257,55.40,46.40,71.64,290.00,17.00,0.00,29.92,M,10.00,22.00,BKN,OVC,M,M,3300.00,4000.00,M,M,M,KMTN 011745Z 29017G22KT 10SM BKN033 OVC040 13/08 A2992
MTN,2017-04-01 18:45,-76.4138,39.3257,55.40,46.40,71.64,280.00,19.00,0.00,29.92,M,10.00,24.00,BKN,M,M,M,3300.00,M,M,M,M,KMTN 011845Z 28019G24KT 10SM BKN033 13/08 A2992
MTN,2017-04-01 19:45,-76.4138,39.3257,59.00,46.40,62.92,310.00,14.00,0.00,29.94,M,10.00,22.00,BKN,M,M,M,3800.00,M,M,M,M,KMTN 011945Z 31014G22KT 10SM BKN038 15/08 A2994
MTN,2017-04-01 20:45,-76.4138,39.3257,55.40,42.80,62.46,290.00,10.00,0.00,29.97,M,10.00,17.00,BKN,M,M,M,4000.00,M,M,M,M,KMTN 012045Z 29010G17KT 10SM BKN040 13/06 A2997
MTN,2017-04-01 21:45,-76.4138,39.3257,53.60,42.80,66.70,300.00,15.00,0.00,30.00,M,10.00,22.00,OVC,M,M,M,4000.00,M,M,M,M,KMTN 012145Z 30015G22KT 10SM OVC040 12/06 A3000
MTN,2017-04-01 22:45,-76.4138,39.3257,53.60,41.00,62.23,300.00,9.00,0.00,30.04,M,10.00,17.00,OVC,M,M,M,4000.00,M,M,M,M,KMTN 012245Z 30009G17KT 10SM OVC040 12/05 A3004
MTN,2017-04-01 23:45,-76.4138,39.3257,51.80,42.80,71.26,290.00,13.00,0.00,30.07,M,10.00,16.00,OVC,M,M,M,4000.00,M,M,M,M,KMTN 012345Z 29013G16KT 10SM OVC040 11/06 A3007
