#DEBUG: Format Typ    -> comma
#DEBUG: Time Period   -> 2017-04-01 00:00:00+00:00 2017-04-02 00:00:00+00:00
#DEBUG: Time Zone     -> Etc/UTC
#DEBUG: Data Contact   -> daryl herzmann akrherz@iastate.edu 515-294-5978
#DEBUG: Entries Found -> -1
station,valid,lon,lat,tmpf, dwpf, relh, drct, sknt, p01i, alti, mslp, vsby, gust, skyc1, skyc2, skyc3, skyc4, skyl1, skyl2, skyl3, skyl4, presentwx, metar
MVL,2017-04-01 00:00,-72.6140,44.5346,M,M,M,0.00,0.00,M,30.01,M,1.25,M,BKN,OVC,M,M,1800.00,2200.00,M,M,-SN BR,KMVL 010000Z AUTO 00000KT 1 1/2SM -SN BR BKN018 OVC022 A3001 RMK MADISHF
MVL,2017-04-01 00:05,-72.6140,44.5346,M,M,M,170.00,4.00,M,30.01,M,1.00,M,FEW,OVC,M,M,400.00,1600.00,M,M,-SN BR,KMVL 010005Z AUTO 17004KT 1SM -SN BR FEW004 OVC016 A3001 RMK MADISHF
MVL,2017-04-01 00:08,-72.6140,44.5346,30.90,30.90,100.00,0.00,0.00,0.00,30.00,M,1.00,M,FEW,OVC,M,M,400.00,1600.00,M,M,-SN BR,KMVL 010008Z AUTO 00000KT 1SM -SN BR FEW004 OVC016 M01/M01 A3000 RMK AO2 P0000 T10061006
MVL,2017-04-01 00:10,-72.6140,44.5346,M,M,M,160.00,3.00,M,30.01,M,1.00,M,FEW,OVC,M,M,400.00,1400.00,M,M,-SN BR,KMVL 010010Z AUTO 16003KT 1SM -SN BR FEW004 OVC014 A3001 RMK MADISHF
MVL,2017-04-01 00:11,-72.6140,44.5346,30.90,30.90,100.00,170.00,3.00,0.00,30.01,M,0.75,M,FEW,OVC,M,M,400.00,1400.00,M,M,-SN BR,KMVL 010011Z AUTO 17003KT 3/4SM -SN BR FEW004 OVC014 M01/M01 A3001 RMK AO2 P0000 T10061006
MVL,2017-04-01 00:15,-72.6140,44.5346,M,M,M,190.00,3.00,M,30.01,M,0.75,M,BKN,OVC,M,M,1400.00,1999.00,M,M,-SN BR,KMVL 010015Z AUTO 19003KT 1SM -SN BR BKN014 OVC019 A3001 RMK MADISHF
MVL,2017-04-01 00:20,-72.6140,44.5346,M,M,M,170.00,3.00,M,30.00,M,0.75,M,FEW,OVC,M,M,499.00,1300.00,M,M,-SN BR,KMVL 010020Z AUTO 17003KT 1SM -SN BR FEW004 OVC013 A3000 RMK MADISHF
MVL,2017-04-01 00:25,-72.6140,44.5346,M,M,M,170.00,3.00,M,30.00,M,0.75,M,FEW,OVC,M,M,499.00,1300.00,M,M,-SN BR,KMVL 010025Z AUTO 17003KT 1SM -SN BR FEW004 OVC013 A3000 RMK MADISHF
MVL,2017-04-01 00:30,-72.6140,44.5346,M,M,M,170.00,3.00,M,30.01,M,1.00,M,SCT,OVC,M,M,499.00,1200.00,M,M,-SN BR,KMVL 010030Z AUTO 17003KT 1SM -SN BR SCT004 OVC012 A3001 RMK MADISHF
MVL,2017-04-01 00:32,-72.6140,44.5346,30.00,30.00,100.00,0.00,0.00,0.00,30.01,M,1.00,M,SCT,OVC,M,M,400.00,1200.00,M,M,-SN BR,KMVL 010032Z AUTO 00000KT 1SM -SN BR SCT004 OVC012 M01/M01 A3001 RMK AO2 P0000 T10111011
MVL,2017-04-01 00:35,-72.6140,44.5346,M,M,M,170.00,3.00,M,30.01,M,1.00,M,SCT,OVC,M,M,400.00,1200.00,M,M,-SN BR,KMVL 010035Z AUTO 17003KT 1SM -SN BR SCT004 OVC012 A3001 RMK MADISHF
MVL,2017-04-01 00:40,-72.6140,44.5346,M,M,M,180.00,3.00,M,30.01,M,1.00,M,SCT,OVC,M,M,400.00,1200.00,M,M,-SN BR,KMVL 010040Z AUTO 18003KT 1SM -SN BR SCT004 OVC012 A3001 RMK MADISHF
MVL,2017-04-01 00:45,-72.6140,44.5346,M,M,M,190.00,3.00,M,30.01,M,1.00,M,FEW,OVC,M,M,400.00,1200.00,M,M,-SN BR,KMVL 010045Z AUTO 19003KT 1SM -SN BR FEW004 OVC012 A3001 RMK MADISHF
MVL,2017-04-01 00:50,-72.6140,44.5346,M,M,M,190.00,3.00,M,30.01,M,1.00,M,FEW,OVC,M,M,400.00,1200.00,M,M,-SN BR,KMVL 010050Z AUTO 19003KT 1SM -SN BR FEW004 OVC012 A3001 RMK MADISHF
MVL,2017-04-01 00:54,-72.6140,44.5346,30.00,30.00,100.00,170.00,3.00,0.00,30.01,1017.20,1.00,M,FEW,OVC,M,M,400.00,1300.00,M,M,-SN BR,KMVL 010054Z AUTO 17003KT 1SM -SN BR FEW004 OVC013 M01/M01 A3001 RMK AO2 SLP172 P0000 T10111011
MVL,2017-04-01 00:55,-72.6140,44.5346,M,M,M,160.00,3.00,M,30.01,M,0.75,M,FEW,OVC,M,M,400.00,1300.00,M,M,-SN BR,KMVL 010055Z AUTO 16003KT 1SM -SN BR FEW004 OVC013 A3001 RMK MADISHF
MVL,2017-04-01 01:00,-72.6140,44.5346,M,M,M,170.00,4.00,M,30.01,M,0.75,M,FEW,OVC,M,M,600.00,1300.00,M,M,-SN BR,KMVL 010100Z AUTO 17004KT 1SM -SN BR FEW006 OVC013 A3001 RMK MADISHF
MVL,2017-04-01 01:01,-72.6140,44.5346,30.00,30.00,100.00,170.00,3.00,0.00,30.01,M,0.75,M,FEW,OVC,M,M,600.00,1300.00,M,M,-SN BR,KMVL 010101Z AUTO 17003KT 3/4SM -SN BR FEW006 OVC013 M01/M01 A3001 RMK AO2 P0000 T10111011
MVL,2017-04-01 01:05,-72.6140,44.5346,M,M,M,0.00,0.00,M,30.01,M,0.75,M,FEW,OVC,M,M,600.00,1300.00,M,M,-SN BR,KMVL 010105Z AUTO 00000KT 1SM -SN BR FEW006 OVC013 A3001 RMK MADISHF
MVL,2017-04-01 01:10,-72.6140,44.5346,M,M,M,170.00,4.00,M,30.01,M,0.75,M,FEW,OVC,M,M,600.00,1300.00,M,M,-SN BR,KMVL 010110Z AUTO 17004KT 1SM -SN BR FEW006 OVC013 A3001 RMK MADISHF
MVL,2017-04-01 01:15,-72.6140,44.5346,M,M,M,0.00,0.00,M,30.01,M,0.75,M,FEW,OVC,M,M,600.00,1300.00,M,M,-SN BR,KMVL 010115Z AUTO 00000KT 1SM -SN BR FEW006 OVC013 A3001 RMK MADISHF
MVL,2017-04-01 01:20,-72.6140,44.5346,M,M,M,170.00,3.00,M,30.01,M,0.75,M,FEW,OVC,M,M,600.00,1100.00,M,M,-SN BR,KMVL 010120Z AUTO 17003KT 1SM -SN BR FEW006 OVC011 A3001 RMK MADISHF
MVL,2017-04-01 01:25,-72.6140,44.5346,M,M,M,0.00,0.00,M,30.01,M,0.75,M,SCT,OVC,M,M,600.00,1100.00,M,M,-SN BR,KMVL 010125Z AUTO 00000KT 1SM -SN BR SCT006 OVC011 A3001 RMK MADISHF
MVL,2017-04-01 01:30,-72.6140,44.5346,M,M,M,0.00,0.00,M,30.01,M,0.75,M,FEW,OVC,M,M,600.00,1100.00,M,M,-SN BR,KMVL 010130Z AUTO 00000KT 1SM -SN BR FEW006 OVC011 A3001 RMK MADISHF
MVL,2017-04-01 01:35,-72.6140,44.5346,M,M,M,210.00,3.00,M,30.00,M,1.00,M,FEW,OVC,M,M,600.00,1100.00,M,M,-SN BR,KMVL 010135Z AUTO 21003KT 1SM -SN BR FEW006 OVC011 A3000 RMK MADISHF
MVL,2017-04-01 01:37,-72.6140,44.5346,30.00,30.00,100.00,210.00,3.00,0.00,30.00,M,1.00,M,FEW,OVC,M,M,600.00,1100.00,M,M,-SN BR,KMVL 010137Z AUTO 21003KT 1SM -SN BR FEW006 OVC011 M01/M01 A3000 RMK AO2 P0000 T10111011
MVL,2017-04-01 01:40,-72.6140,44.5346,M,M,M,190.00,3.00,M,30.00,M,1.00,M,FEW,OVC,M,M,499.00,1200.00,M,M,-SN BR,KMVL 010140Z AUTO 19003KT 1SM -SN BR FEW004 OVC012 A3000 RMK MADISHF
MVL,2017-04-01 01:45,-72.6140,44.5346,M,M,M,0.00,0.00,M,30.00,M,0.75,M,FEW,OVC,M,M,499.00,1200.00,M,M,-SN BR,KMVL 010145Z AUTO 00000KT 1SM -SN BR FEW004 OVC012 A3000 RMK MADISHF
MVL,2017-04-01 01:50,-72.6140,44.5346,30.20,30.20,100.00,210.00,3.00,0.00,30.00,M,0.75,M,VV ,M,M,M,1100.00,M,M,M,-SN BR,KMVL 010150Z AUTO 21003KT 3/4SM -SN BR VV011 M01/M01 A3000 RMK AO2 P0000
MVL,2017-04-01 01:54,-72.6140,44.5346,30.00,30.00,100.00,180.00,3.00,0.00,30.00,1016.70,0.75,M,VV ,M,M,M,1100.00,M,M,M,-SN BR,KMVL 010154Z AUTO 18003KT 3/4SM -SN BR VV011 M01/M01 A3000 RMK AO2 SLP167 P0000 T10111011
MVL,2017-04-01 01:55,-72.6140,44.5346,M,M,M,170.00,3.00,M,M,M,0.75,M,VV ,M,M,M,1100.00,M,M,M,-SN BR,KMVL 010155Z AUTO 17003KT 1SM -SN BR VV011 RMK MADISHF
MVL,2017-04-01 02:00,-72.6140,44.5346,M,M,M,150.00,4.00,M,29.99,M,0.75,M,FEW,OVC,M,M,600.00,999.00,M,M,-SN BR,KMVL 010200Z AUTO 15004KT 1SM -SN BR FEW006 OVC009 A2999 RMK MADISHF
MVL,2017-04-01 02:05,-72.6140,44.5346,28.90,28.90,100.00,150.00,3.00,0.00,29.99,M,0.50,M,SCT,OVC,M,M,400.00,1000.00,M,M,SN FZFG,KMVL 010205Z AUTO 15003KT 1/2SM SN FZFG SCT004 OVC010 M02/M02 A2999 RMK AO2 P0000 T10171017
MVL,2017-04-01 02:10,-72.6140,44.5346,M,M,M,150.00,3.00,M,29.99,M,0.75,M,SCT,OVC,M,M,400.00,999.00,M,M,-SN BR,KMVL 010210Z AUTO 15003KT 1SM -SN BR SCT004 OVC009 A2999 RMK MADISHF
MVL,2017-04-01 02:15,-72.6140,44.5346,M,M,M,160.00,3.00,M,29.99,M,0.75,M,SCT,OVC,M,M,499.00,900.00,M,M,-SN BR,KMVL 010215Z AUTO 16003KT 1SM -SN BR SCT004 OVC009 A2999 RMK MADISHF
MVL,2017-04-01 02:20,-72.6140,44.5346,M,M,M,160.00,4.00,M,29.99,M,0.75,M,SCT,OVC,M,M,499.00,900.00,M,M,-SN BR,KMVL 010220Z AUTO 16004KT 1SM -SN BR SCT004 OVC009 A2999 RMK MADISHF
MVL,2017-04-01 02:21,-72.6140,44.5346,28.90,28.90,100.00,160.00,4.00,0.00,29.99,M,0.75,M,SCT,OVC,M,M,500.00,900.00,M,M,-SN BR,KMVL 010221Z AUTO 16004KT 3/4SM -SN BR SCT005 OVC009 M02/M02 A2999 RMK AO2 P0000 T10171017
MVL,2017-04-01 02:25,-72.6140,44.5346,M,M,M,0.00,0.00,M,29.98,M,0.75,M,SCT,BKN,OVC,M,499.00,900.00,1300.00,M,-SN BR,KMVL 010225Z AUTO 00000KT 1SM -SN BR SCT004 BKN009 OVC013 A2998 RMK MADISHF
MVL,2017-04-01 02:30,-72.6140,44.5346,M,M,M,0.00,0.00,M,29.98,M,0.75,M,SCT,OVC,M,M,499.00,1100.00,M,M,-SN BR,KMVL 010230Z AUTO 00000KT 1SM -SN BR SCT004 OVC011 A2998 RMK MADISHF
MVL,2017-04-01 02:35,-72.6140,44.5346,28.90,28.90,100.00,0.00,0.00,0.00,29.98,M,0.75,M,SCT,OVC,M,M,500.00,1100.00,M,M,-SN BR,KMVL 010235Z AUTO 00000KT 3/4SM -SN BR SCT005 OVC011 M02/M02 A2998 RMK AO2 P0000 T10171017
MVL,2017-04-01 02:40,-72.6140,44.5346,M,M,M,0.00,0.00,M,29.98,M,0.75,M,FEW,OVC,M,M,400.00,1100.00,M,M,-SN BR,KMVL 010240Z AUTO 00000KT 1SM -SN BR FEW004 OVC011 A2998 RMK MADISHF
MVL,2017-04-01 02:45,-72.6140,44.5346,M,M,M,0.00,0.00,M,29.98,M,0.75,M,FEW,OVC,M,M,400.00,1100.00,M,M,-SN BR,KMVL 010245Z AUTO 00000KT 1SM -SN BR FEW004 OVC011 A2998 RMK MADISHF
MVL,2017-04-01 02:50,-72.6140,44.5346,M,M,M,0.00,0.00,M,29.97,M,0.75,M,FEW,OVC,M,M,400.00,1100.00,M,M,-SN BR,KMVL 010250Z AUTO 00000KT 1SM -SN BR FEW004 OVC011 A2997 RMK MADISHF
MVL,2017-04-01 02:54,-72.6140,44.5346,28.90,28.90,100.00,0.00,0.00,0.00,29.97,1015.90,0.75,M,FEW,OVC,M,M,400.00,1100.00,M,M,-SN BR,KMVL 010254Z AUTO 00000KT 3/4SM -SN BR FEW004 OVC011 M02/M02 A2997 RMK AO2 SLP159 P0000 60000 T10171017 58013
MVL,2017-04-01 02:55,-72.6140,44.5346,M,M,M,0.00,0.00,M,29.97,M,0.75,M,SCT,OVC,M,M,400.00,1100.00,M,M,-SN BR,KMVL 010255Z AUTO 00000KT 1SM -SN BR SCT004 OVC011 A2997 RMK MADISHF
MVL,2017-04-01 03:00,-72.6140,44.5346,M,M,M,0.00,0.00,M,29.97,M,0.75,M,FEW,OVC,M,M,400.00,1100.00,M,M,-SN BR,KMVL 010300Z AUTO 00000KT 1SM -SN BR FEW004 OVC011 A2997 RMK MADISHF
MVL,2017-04-01 03:05,-72.6140,44.5346,M,M,M,0.00,0.00,M,29.97,M,1.00,M,FEW,OVC,M,M,400.00,1100.00,M,M,-SN BR,KMVL 010305Z AUTO 00000KT 1SM -SN BR FEW004 OVC011 A2997 RMK MADISHF
MVL,2017-04-01 03:10,-72.6140,44.5346,28.90,28.90,100.00,0.00,0.00,0.00,29.97,M,1.25,M,FEW,BKN,OVC,M,500.00,1100.00,1700.00,M,-SN BR,KMVL 010310Z AUTO 00000KT 1 1/4SM -SN BR FEW005 BKN011 OVC017 M02/M02 A2997 RMK AO2 P0000 T10171017
MVL,2017-04-01 03:15,-72.6140,44.5346,M,M,M,160.00,3.00,M,29.97,M,1.25,M,FEW,OVC,M,M,499.00,1400.00,M,M,-SN BR,KMVL 010315Z AUTO 16003KT 1 1/2SM -SN BR FEW004 OVC014 A2997 RMK MADISHF
MVL,2017-04-01 03:20,-72.6140,44.5346,M,M,M,M,M,M,M,M,M,M,M,M,M,M,M,M,M,M,M,KMVL 010320Z AUTO /////KT RMK MADISHF
MVL,2017-04-01 03:25,-72.6140,44.5346,M,M,M,140.00,3.00,M,29.97,M,M,M,M,M,M,M,M,M,M,M,SN,KMVL 010325Z AUTO 14003KT SN A2997 RMK MADISHF
MVL,2017-04-01 03:30,-72.6140,44.5346,M,M,M,180.00,3.00,M,29.97,M,0.75,M,M,M,M,M,M,M,M,M,-SN BR,KMVL 010330Z AUTO 18003KT 1SM -SN BR A2997 RMK VRB03KT  MADISHF
MVL,2017-04-01 03:35,-72.6140,44.5346,28.90,28.90,100.00,160.00,3.00,0.00,29.96,M,0.50,M,M,M,M,M,M,M,M,M,SN FZFG,KMVL 010335Z AUTO 16003KT 1/2SM SN FZFG M02/M02 A2996 RMK AO2 SNB21 P0000 T10171017 $
MVL,2017-04-01 03:40,-72.6140,44.5346,M,M,M,0.00,0.00,M,29.96,M,0.75,M,M,M,M,M,M,M,M,M,-SN BR,KMVL 010340Z AUTO 00000KT 1SM -SN BR A2996 RMK MADISHF
MVL,2017-04-01 03:45,-72.6140,44.5346,M,M,M,0.00,0.00,M,29.96,M,0.75,M,M,M,M,M,M,M,M,M,-SN BR,KMVL 010345Z AUTO 00000KT 1SM -SN BR A2996 RMK MADISHF
MVL,2017-04-01 03:50,-72.6140,44.5346,28.40,28.40,100.00,0.00,0.00,0.00,29.96,M,1.00,M,SCT,BKN,OVC,M,500.00,900.00,1500.00,M,-SN BR,KMVL 010350Z AUTO 00000KT 1SM -SN BR SCT005 BKN009 OVC015 M02/M02 A2996 RMK AO2 SNB21 P0000 $
MVL,2017-04-01 03:54,-72.6140,44.5346,28.90,28.90,100.00,150.00,3.00,0.00,29.96,1015.50,1.00,M,SCT,BKN,OVC,M,500.00,900.00,1500.00,M,-SN BR,KMVL 010354Z AUTO 15003KT 1SM -SN BR SCT005 BKN009 OVC015 M02/M02 A2996 RMK AO2 SNB21 SLP155 P0000 T10171017 $
MVL,2017-04-01 03:55,-72.6140,44.5346,M,M,M,150.00,3.00,M,29.96,M,1.00,M,SCT,BKN,OVC,M,499.00,900.00,1500.00,M,-SN BR,KMVL 010355Z AUTO 15003KT 1SM -SN BR SCT004 BKN009 OVC015 A2996 RMK MADISHF
MVL,2017-04-01 04:00,-72.6140,44.5346,M,M,M,0.00,0.00,M,29.96,M,1.00,M,SCT,BKN,OVC,M,499.00,1200.00,1800.00,M,-SN BR,KMVL 010400Z AUTO 00000KT 1SM -SN BR SCT004 BKN012 OVC018 A2996 RMK MADISHF
MVL,2017-04-01 04:04,-72.6140,44.5346,28.90,28.90,100.00,0.00,0.00,0.00,29.96,M,1.00,M,FEW,OVC,M,M,500.00,1400.00,M,M,-SN BR,KMVL 010404Z AUTO 00000KT 1SM -SN BR FEW005 OVC014 M02/M02 A2996 RMK AO2 P0000 T10171017 $
MVL,2017-04-01 04:05,-72.6140,44.5346,M,M,M,0.00,0.00,M,29.96,M,1.00,M,FEW,OVC,M,M,499.00,1400.00,M,M,-SN BR,KMVL 010405Z AUTO 00000KT 1SM -SN BR FEW004 OVC014 A2996 RMK MADISHF
MVL,2017-04-01 04:10,-72.6140,44.5346,M,M,M,170.00,3.00,M,29.96,M,1.00,M,FEW,OVC,M,M,499.00,1400.00,M,M,-SN BR,KMVL 010410Z AUTO 17003KT 1SM -SN BR FEW004 OVC014 A2996 RMK MADISHF
MVL,2017-04-01 04:15,-72.6140,44.5346,M,M,M,160.00,3.00,M,29.96,M,1.00,M,FEW,OVC,M,M,499.00,1400.00,M,M,-SN BR,KMVL 010415Z AUTO 16003KT 1SM -SN BR FEW004 OVC014 A2996 RMK MADISHF
MVL,2017-04-01 04:20,-72.6140,44.5346,M,M,M,0.00,0.00,M,29.96,M,1.00,M,FEW,OVC,M,M,499.00,1400.00,M,M,-SN BR,KMVL 010420Z AUTO 00000KT 1SM -SN BR FEW004 OVC014 A2996 RMK MADISHF
MVL,2017-04-01 04:25,-72.6140,44.5346,M,M,M,160.00,3.00,M,29.96,M,1.00,M,FEW,OVC,M,M,499.00,1400.00,M,M,-SN BR,KMVL 010425Z AUTO 16003KT 1SM -SN BR FEW004 OVC014 A2996 RMK MADISHF
MVL,2017-04-01 04:30,-72.6140,44.5346,M,M,M,0.00,0.00,M,29.96,M,1.00,M,FEW,FEW,OVC,M,499.00,999.00,1400.00,M,-SN BR,KMVL 010430Z AUTO 00000KT 1SM -SN BR FEW004 FEW009 OVC014 A2996 RMK MADISHF
MVL,2017-04-01 04:35,-72.6140,44.5346,M,M,M,0.00,0.00,M,29.95,M,1.00,M,FEW,OVC,M,M,499.00,1400.00,M,M,-SN BR,KMVL 010435Z AUTO 00000KT 1SM -SN BR FEW004 OVC014 A2995 RMK MADISHF
MVL,2017-04-01 04:40,-72.6140,44.5346,M,M,M,0.00,0.00,M,29.95,M,1.00,M,FEW,OVC,M,M,499.00,1400.00,M,M,-SN BR,KMVL 010440Z AUTO 00000KT 1SM -SN BR FEW004 OVC014 A2995 RMK MADISHF
MVL,2017-04-01 04:45,-72.6140,44.5346,M,M,M,0.00,0.00,M,29.95,M,1.00,M,FEW,BKN,OVC,M,499.00,1400.00,1900.00,M,-SN BR,KMVL 010445Z AUTO 00000KT 1SM -SN BR FEW004 BKN014 OVC019 A2995 RMK MADISHF
MVL,2017-04-01 04:50,-72.6140,44.5346,M,M,M,0.00,0.00,M,29.95,M,1.25,M,FEW,OVC,M,M,499.00,1400.00,M,M,-SN BR,KMVL 010450Z AUTO 00000KT 1 1/2SM -SN BR FEW004 OVC014 A2995 RMK MADISHF
MVL,2017-04-01 04:52,-72.6140,44.5346,28.40,28.40,100.00,0.00,0.00,0.00,29.95,M,1.25,M,OVC,M,M,M,1400.00,M,M,M,-SN BR,KMVL 010452Z AUTO 00000KT 1 1/4SM -SN BR OVC014 M02/M02 A2995 RMK AO2 P0000 $
MVL,2017-04-01 04:54,-72.6140,44.5346,28.90,28.90,100.00,0.00,0.00,0.00,29.95,1015.10,1.50,M,OVC,M,M,M,1400.00,M,M,M,-SN BR,KMVL 010454Z AUTO 00000KT 1 1/2SM -SN BR OVC014 M02/M02 A2995 RMK AO2 SLP151 P0000 T10171017 400221022 $
MVL,2017-04-01 04:55,-72.6140,44.5346,M,M,M,0.00,0.00,M,29.95,M,1.50,M,BKN,OVC,M,M,1400.00,2200.00,M,M,-SN BR,KMVL 010455Z AUTO 00000KT 1 1/2SM -SN BR BKN014 OVC022 A2995 RMK MADISHF
MVL,2017-04-01 05:00,-72.6140,44.5346,M,M,M,0.00,0.00,M,29.95,M,1.25,M,OVC,M,M,M,1600.00,M,M,M,-SN BR,KMVL 010500Z AUTO 00000KT 1 1/2SM -SN BR OVC016 A2995 RMK MADISHF
MVL,2017-04-01 05:03,-72.6140,44.5346,28.90,28.90,100.00,0.00,0.00,0.00,29.95,M,1.25,M,OVC,M,M,M,1600.00,M,M,M,-SN BR,KMVL 010503Z AUTO 00000KT 1 1/4SM -SN BR OVC016 M02/M02 A2995 RMK AO2 P0000 T10171017 $
MVL,2017-04-01 05:05,-72.6140,44.5346,M,M,M,0.00,0.00,M,29.95,M,1.25,M,OVC,M,M,M,1600.00,M,M,M,-SN BR,KMVL 010505Z AUTO 00000KT 1 1/2SM -SN BR OVC016 A2995 RMK MADISHF
MVL,2017-04-01 05:10,-72.6140,44.5346,M,M,M,0.00,0.00,M,29.95,M,1.25,M,OVC,M,M,M,1800.00,M,M,M,-SN BR,KMVL 010510Z AUTO 00000KT 1 1/2SM -SN BR OVC018 A2995 RMK MADISHF
MVL,2017-04-01 05:15,-72.6140,44.5346,M,M,M,0.00,0.00,M,29.95,M,1.25,M,OVC,M,M,M,1800.00,M,M,M,-SN BR,KMVL 010515Z AUTO 00000KT 1 1/2SM -SN BR OVC018 A2995 RMK MADISHF
MVL,2017-04-01 05:20,-72.6140,44.5346,M,M,M,0.00,0.00,M,29.94,M,1.25,M,OVC,M,M,M,1800.00,M,M,M,-SN BR,KMVL 010520Z AUTO 00000KT 1 1/2SM -SN BR OVC018 A2994 RMK MADISHF
MVL,2017-04-01 05:25,-72.6140,44.5346,M,M,M,0.00,0.00,M,29.94,M,1.50,M,OVC,M,M,M,1999.00,M,M,M,-SN BR,KMVL 010525Z AUTO 00000KT 1 1/2SM -SN BR OVC019 A2994 RMK MADISHF
MVL,2017-04-01 05:30,-72.6140,44.5346,M,M,M,0.00,0.00,M,29.94,M,1.50,M,OVC,M,M,M,1999.00,M,M,M,-SN BR,KMVL 010530Z AUTO 00000KT 1 1/2SM -SN BR OVC019 A2994 RMK MADISHF
MVL,2017-04-01 05:35,-72.6140,44.5346,M,M,M,170.00,3.00,M,29.94,M,1.50,M,OVC,M,M,M,1999.00,M,M,M,-SN BR,KMVL 010535Z AUTO 17003KT 1 1/2SM -SN BR OVC019 A2994 RMK MADISHF
MVL,2017-04-01 05:40,-72.6140,44.5346,M,M,M,180.00,3.00,M,29.94,M,1.50,M,OVC,M,M,M,2200.00,M,M,M,-SN BR,KMVL 010540Z AUTO 18003KT 1 1/2SM -SN BR OVC022 A2994 RMK MADISHF
MVL,2017-04-01 05:45,-72.6140,44.5346,M,M,M,170.00,3.00,M,29.94,M,1.75,M,OVC,M,M,M,2200.00,M,M,M,-SN BR,KMVL 010545Z AUTO 17003KT 2SM -SN BR OVC022 A2994 RMK MADISHF
MVL,2017-04-01 05:50,-72.6140,44.5346,M,M,M,170.00,3.00,M,29.94,M,1.75,M,OVC,M,M,M,2200.00,M,M,M,-SN BR,KMVL 010550Z AUTO 17003KT 2SM -SN BR OVC022 A2994 RMK MADISHF
MVL,2017-04-01 05:54,-72.6140,44.5346,28.00,28.00,100.00,170.00,3.00,0.00,29.94,1014.70,1.50,M,FEW,OVC,M,M,1200.00,2200.00,M,M,-SN BR,KMVL 010554Z AUTO 17003KT 1 1/2SM -SN BR FEW012 OVC022 M02/M02 A2994 RMK AO2 SLP147 P0000 60000 T10221022 11006 21022 56008 $
MVL,2017-04-01 05:55,-72.6140,44.5346,M,M,M,170.00,3.00,M,M,M,1.50,M,FEW,OVC,M,M,1200.00,2200.00,M,M,-SN BR,KMVL 010555Z AUTO 17003KT 1 1/2SM -SN BR FEW012 OVC022 RMK MADISHF
MVL,2017-04-01 06:00,-72.6140,44.5346,M,M,M,170.00,4.00,M,29.94,M,1.50,M,FEW,OVC,M,M,1200.00,2200.00,M,M,-SN BR,KMVL 010600Z AUTO 17004KT 1 1/2SM -SN BR FEW012 OVC022 A2994 RMK MADISHF
MVL,2017-04-01 06:05,-72.6140,44.5346,M,M,M,180.00,3.00,M,29.93,M,1.50,M,FEW,OVC,M,M,1200.00,2400.00,M,M,-SN BR,KMVL 010605Z AUTO 18003KT 1 1/2SM -SN BR FEW012 OVC024 A2993 RMK MADISHF
MVL,2017-04-01 06:10,-72.6140,44.5346,M,M,M,180.00,3.00,M,29.93,M,1.50,M,FEW,OVC,M,M,1200.00,2400.00,M,M,-SN BR,KMVL 010610Z AUTO 18003KT 1 1/2SM -SN BR FEW012 OVC024 A2993 RMK MADISHF
MVL,2017-04-01 06:15,-72.6140,44.5346,M,M,M,180.00,3.00,M,29.93,M,1.50,M,FEW,OVC,M,M,1200.00,2400.00,M,M,-SN BR,KMVL 010615Z AUTO 18003KT 1 1/2SM -SN BR FEW012 OVC024 A2993 RMK MADISHF
MVL,2017-04-01 06:20,-72.6140,44.5346,M,M,M,160.00,4.00,M,29.93,M,1.75,M,FEW,OVC,M,M,1200.00,2600.00,M,M,-SN BR,KMVL 010620Z AUTO 16004KT 2SM -SN BR FEW012 OVC026 A2993 RMK MADISHF
MVL,2017-04-01 06:25,-72.6140,44.5346,M,M,M,170.00,4.00,M,29.93,M,1.50,M,OVC,M,M,M,2600.00,M,M,M,-SN BR,KMVL 010625Z AUTO 17004KT 1 1/2SM -SN BR OVC026 A2993 RMK MADISHF
MVL,2017-04-01 06:30,-72.6140,44.5346,M,M,M,170.00,3.00,M,29.93,M,1.25,M,OVC,M,M,M,2400.00,M,M,M,-SN BR,KMVL 010630Z AUTO 17003KT 1 1/2SM -SN BR OVC024 A2993 RMK MADISHF
MVL,2017-04-01 06:35,-72.6140,44.5346,M,M,M,180.00,3.00,M,29.93,M,1.00,M,OVC,M,M,M,2200.00,M,M,M,-SN BR,KMVL 010635Z AUTO 18003KT 1SM -SN BR OVC022 A2993 RMK MADISHF
MVL,2017-04-01 06:40,-72.6140,44.5346,28.00,28.00,100.00,170.00,3.00,0.00,29.93,M,0.75,M,VV ,M,M,M,1800.00,M,M,M,-SN BR,KMVL 010640Z AUTO 17003KT 3/4SM -SN BR VV018 M02/M02 A2993 RMK AO2 P0000 T10221022 $
MVL,2017-04-01 06:45,-72.6140,44.5346,M,M,M,170.00,4.00,M,29.93,M,1.00,M,VV ,M,M,M,1600.00,M,M,M,-SN BR,KMVL 010645Z AUTO 17004KT 1SM -SN BR VV016 A2993 RMK MADISHF
MVL,2017-04-01 06:49,-72.6140,44.5346,28.40,28.40,100.00,160.00,4.00,0.00,29.93,M,1.00,M,VV ,M,M,M,1400.00,M,M,M,-SN BR,KMVL 010649Z AUTO 16004KT 1SM -SN BR VV014 M02/M02 A2993 RMK AO2 P0000 $
MVL,2017-04-01 06:50,-72.6140,44.5346,M,M,M,160.00,4.00,M,29.93,M,1.00,M,VV ,M,M,M,1400.00,M,M,M,-SN BR,KMVL 010650Z AUTO 16004KT 1SM -SN BR VV014 A2993 RMK MADISHF
MVL,2017-04-01 06:54,-72.6140,44.5346,28.00,28.00,100.00,160.00,4.00,0.00,29.93,1014.30,0.75,M,VV ,M,M,M,1200.00,M,M,M,-SN BR,KMVL 010654Z AUTO 16004KT 3/4SM -SN BR VV012 M02/M02 A2993 RMK AO2 SLP143 P0000 T10221022 $
MVL,2017-04-01 06:55,-72.6140,44.5346,M,M,M,160.00,4.00,M,29.93,M,0.75,M,VV ,M,M,M,1200.00,M,M,M,-SN BR,KMVL 010655Z AUTO 16004KT 1SM -SN BR VV012 A2993 RMK MADISHF
MVL,2017-04-01 07:00,-72.6140,44.5346,M,M,M,0.00,0.00,M,29.93,M,0.75,M,VV ,M,M,M,1100.00,M,M,M,-SN BR,KMVL 010700Z AUTO 00000KT 1SM -SN BR VV011 A2993 RMK MADISHF
MVL,2017-04-01 07:05,-72.6140,44.5346,M,M,M,160.00,3.00,M,29.93,M,0.75,M,VV ,M,M,M,1100.00,M,M,M,-SN BR,KMVL 010705Z AUTO 16003KT 1SM -SN BR VV011 A2993 RMK MADISHF
MVL,2017-04-01 07:10,-72.6140,44.5346,M,M,M,160.00,3.00,M,29.92,M,1.00,M,VV ,M,M,M,1400.00,M,M,M,-SN BR,KMVL 010710Z AUTO 16003KT 1SM -SN BR VV014 A2992 RMK MADISHF
MVL,2017-04-01 07:11,-72.6140,44.5346,28.00,28.00,100.00,160.00,3.00,0.00,29.92,M,1.00,M,VV ,M,M,M,1500.00,M,M,M,-SN BR,KMVL 010711Z AUTO 16003KT 1SM -SN BR VV015 M02/M02 A2992 RMK AO2 P0000 T10221022 $
MVL,2017-04-01 07:15,-72.6140,44.5346,M,M,M,160.00,3.00,M,29.92,M,1.25,M,OVC,M,M,M,1800.00,M,M,M,-SN BR,KMVL 010715Z AUTO 16003KT 1 1/2SM -SN BR OVC018 A2992 RMK MADISHF
MVL,2017-04-01 07:19,-72.6140,44.5346,28.00,28.00,100.00,0.00,0.00,0.00,29.92,M,1.75,M,OVC,M,M,M,1800.00,M,M,M,-SN BR,KMVL 010719Z AUTO 00000KT 1 3/4SM -SN BR OVC018 M02/M02 A2992 RMK AO2 P0000 T10221022 $
MVL,2017-04-01 07:20,-72.6140,44.5346,M,M,M,0.00,0.00,M,29.92,M,1.75,M,OVC,M,M,M,1800.00,M,M,M,-SN BR,KMVL 010720Z AUTO 00000KT 2SM -SN BR OVC018 A2992 RMK MADISHF
MVL,2017-04-01 07:25,-72.6140,44.5346,M,M,M,150.00,4.00,M,29.92,M,1.50,M,FEW,OVC,M,M,300.00,1999.00,M,M,-SN BR,KMVL 010725Z AUTO 15004KT 1 1/2SM -SN BR FEW003 OVC019 A2992 RMK MADISHF
MVL,2017-04-01 07:30,-72.6140,44.5346,28.00,28.00,100.00,0.00,0.00,0.00,29.92,M,1.75,M,FEW,OVC,M,M,300.00,2200.00,M,M,-SN BR,KMVL 010730Z AUTO 00000KT 1 3/4SM -SN BR FEW003 OVC022 M02/M02 A2992 RMK AO2 P0000 T10221022 $
MVL,2017-04-01 07:35,-72.6140,44.5346,M,M,M,150.00,3.00,M,29.92,M,2.00,M,FEW,OVC,M,M,300.00,2400.00,M,M,-SN BR,KMVL 010735Z AUTO 15003KT 2SM -SN BR FEW003 OVC024 A2992 RMK MADISHF
MVL,2017-04-01 07:40,-72.6140,44.5346,M,M,M,160.00,3.00,M,29.92,M,2.00,M,FEW,OVC,M,M,300.00,2400.00,M,M,-SN BR,KMVL 010740Z AUTO 16003KT 2SM -SN BR FEW003 OVC024 A2992 RMK MADISHF
MVL,2017-04-01 07:41,-72.6140,44.5346,28.00,28.00,100.00,170.00,3.00,0.00,29.92,M,2.00,M,FEW,OVC,M,M,300.00,2400.00,M,M,-SN BR,KMVL 010741Z AUTO 17003KT 2SM -SN BR FEW003 OVC024 M02/M02 A2992 RMK AO2 P0000 T10221022 $
MVL,2017-04-01 07:45,-72.6140,44.5346,M,M,M,0.00,0.00,M,29.92,M,2.00,M,OVC,M,M,M,2400.00,M,M,M,-SN BR,KMVL 010745Z AUTO 00000KT 2SM -SN BR OVC024 A2992 RMK MADISHF
MVL,2017-04-01 07:50,-72.6140,44.5346,M,M,M,0.00,0.00,M,29.92,M,2.50,M,OVC,M,M,M,2600.00,M,M,M,-SN BR,KMVL 010750Z AUTO 00000KT 2 1/2SM -SN BR OVC026 A2992 RMK MADISHF
MVL,2017-04-01 07:54,-72.6140,44.5346,28.00,28.00,100.00,0.00,0.00,0.00,29.92,1014.00,2.50,M,OVC,M,M,M,2800.00,M,M,M,-SN BR,KMVL 010754Z AUTO 00000KT 2 1/2SM -SN BR OVC028 M02/M02 A2992 RMK AO2 SLP140 P0000 T10221022 $
MVL,2017-04-01 07:55,-72.6140,44.5346,M,M,M,0.00,0.00,M,29.92,M,2.50,M,FEW,OVC,M,M,600.00,2800.00,M,M,-SN BR,KMVL 010755Z AUTO 00000KT 2 1/2SM -SN BR FEW006 OVC028 A2992 RMK MADISHF
MVL,2017-04-01 08:00,-72.6140,44.5346,M,M,M,0.00,0.00,M,29.91,M,2.00,M,OVC,M,M,M,2600.00,M,M,M,-SN BR,KMVL 010800Z AUTO 00000KT 2SM -SN BR OVC026 A2991 RMK MADISHF
MVL,2017-04-01 08:05,-72.6140,44.5346,M,M,M,0.00,0.00,M,29.92,M,1.75,M,OVC,M,M,M,2600.00,M,M,M,-SN BR,KMVL 010805Z AUTO 00000KT 2SM -SN BR OVC026 A2992 RMK MADISHF
MVL,2017-04-01 08:10,-72.6140,44.5346,M,M,M,0.00,0.00,M,29.92,M,2.00,M,OVC,M,M,M,2600.00,M,M,M,-SN BR,KMVL 010810Z AUTO 00000KT 2SM -SN BR OVC026 A2992 RMK MADISHF
MVL,2017-04-01 08:15,-72.6140,44.5346,M,M,M,0.00,0.00,M,29.92,M,2.00,M,OVC,M,M,M,2800.00,M,M,M,-SN BR,KMVL 010815Z AUTO 00000KT 2SM -SN BR OVC028 A2992 RMK MADISHF
MVL,2017-04-01 08:20,-72.6140,44.5346,M,M,M,0.00,0.00,M,29.91,M,2.00,M,OVC,M,M,M,2800.00,M,M,M,-SN BR,KMVL 010820Z AUTO 00000KT 2SM -SN BR OVC028 A2991 RMK MADISHF
MVL,2017-04-01 08:25,-72.6140,44.5346,M,M,M,0.00,0.00,M,29.91,M,2.00,M,OVC,M,M,M,2600.00,M,M,M,-SN BR,KMVL 010825Z AUTO 00000KT 2SM -SN BR OVC026 A2991 RMK MADISHF
MVL,2017-04-01 08:30,-72.6140,44.5346,M,M,M,0.00,0.00,M,29.91,M,2.00,M,OVC,M,M,M,2600.00,M,M,M,-SN BR,KMVL 010830Z AUTO 00000KT 2SM -SN BR OVC026 A2991 RMK MADISHF
MVL,2017-04-01 08:35,-72.6140,44.5346,M,M,M,0.00,0.00,M,29.91,M,1.75,M,OVC,M,M,M,2600.00,M,M,M,-SN BR,KMVL 010835Z AUTO 00000KT 2SM -SN BR OVC026 A2991 RMK MADISHF
MVL,2017-04-01 08:40,-72.6140,44.5346,M,M,M,0.00,0.00,M,29.91,M,1.75,M,OVC,M,M,M,2400.00,M,M,M,-SN BR,KMVL 010840Z AUTO 00000KT 2SM -SN BR OVC024 A2991 RMK MADISHF
MVL,2017-04-01 08:45,-72.6140,44.5346,M,M,M,0.00,0.00,M,29.91,M,1.75,M,OVC,M,M,M,2400.00,M,M,M,-SN BR,KMVL 010845Z AUTO 00000KT 2SM -SN BR OVC024 A2991 RMK MADISHF
MVL,2017-04-01 08:46,-72.6140,44.5346,28.00,28.00,100.00,0.00,0.00,0.00,29.91,M,1.75,M,OVC,M,M,M,2400.00,M,M,M,-SN BR,KMVL 010846Z AUTO 00000KT 1 3/4SM -SN BR OVC024 M02/M02 A2991 RMK AO2 P0000 T10221022 $
MVL,2017-04-01 08:50,-72.6140,44.5346,M,M,M,0.00,0.00,M,29.91,M,2.00,M,OVC,M,M,M,2400.00,M,M,M,-SN BR,KMVL 010850Z AUTO 00000KT 2SM -SN BR OVC024 A2991 RMK MADISHF
MVL,2017-04-01 08:54,-72.6140,44.5346,28.00,28.00,100.00,0.00,0.00,0.00,29.91,1013.90,2.00,M,OVC,M,M,M,2400.00,M,M,M,-SN BR,KMVL 010854Z AUTO 00000KT 2SM -SN BR OVC024 M02/M02 A2991 RMK AO2 SLP139 P0000 60000 T10221022 56008 $
MVL,2017-04-01 08:55,-72.6140,44.5346,M,M,M,0.00,0.00,M,29.91,M,2.00,M,OVC,M,M,M,2400.00,M,M,M,-SN BR,KMVL 010855Z AUTO 00000KT 2SM -SN BR OVC024 A2991 RMK MADISHF
MVL,2017-04-01 09:00,-72.6140,44.5346,M,M,M,0.00,0.00,M,29.92,M,2.50,M,OVC,M,M,M,2400.00,M,M,M,-SN BR,KMVL 010900Z AUTO 00000KT 2 1/2SM -SN BR OVC024 A2992 RMK MADISHF
MVL,2017-04-01 09:05,-72.6140,44.5346,M,M,M,0.00,0.00,M,29.92,M,2.00,M,OVC,M,M,M,2600.00,M,M,M,-SN BR,KMVL 010905Z AUTO 00000KT 2SM -SN BR OVC026 A2992 RMK MADISHF
MVL,2017-04-01 09:10,-72.6140,44.5346,M,M,M,0.00,0.00,M,29.92,M,2.50,M,OVC,M,M,M,2800.00,M,M,M,-SN BR,KMVL 010910Z AUTO 00000KT 2 1/2SM -SN BR OVC028 A2992 RMK MADISHF
MVL,2017-04-01 09:15,-72.6140,44.5346,M,M,M,0.00,0.00,M,29.92,M,2.50,M,OVC,M,M,M,2800.00,M,M,M,-SN BR,KMVL 010915Z AUTO 00000KT 2 1/2SM -SN BR OVC028 A2992 RMK MADISHF
MVL,2017-04-01 09:20,-72.6140,44.5346,M,M,M,0.00,0.00,M,29.92,M,2.50,M,OVC,M,M,M,3000.00,M,M,M,-SN BR,KMVL 010920Z AUTO 00000KT 2 1/2SM -SN BR OVC030 A2992 RMK MADISHF
MVL,2017-04-01 09:24,-72.6140,44.5346,28.00,28.00,100.00,0.00,0.00,0.00,29.92,M,2.50,M,OVC,M,M,M,3000.00,M,M,M,-SN BR,KMVL 010924Z AUTO 00000KT 2 1/2SM -SN BR OVC030 M02/M02 A2992 RMK AO2 P0000 T10221022 $
MVL,2017-04-01 09:25,-72.6140,44.5346,M,M,M,0.00,0.00,M,29.92,M,2.50,M,OVC,M,M,M,3000.00,M,M,M,-SN BR,KMVL 010925Z AUTO 00000KT 2 1/2SM -SN BR OVC030 A2992 RMK MADISHF
MVL,2017-04-01 09:30,-72.6140,44.5346,M,M,M,0.00,0.00,M,29.92,M,2.50,M,OVC,M,M,M,3000.00,M,M,M,-SN BR,KMVL 010930Z AUTO 00000KT 2 1/2SM -SN BR OVC030 A2992 RMK MADISHF
MVL,2017-04-01 09:35,-72.6140,44.5346,M,M,M,0.00,0.00,M,29.92,M,2.50,M,FEW,OVC,M,M,700.00,3100.00,M,M,-SN BR,KMVL 010935Z AUTO 00000KT 2 1/2SM -SN BR FEW007 OVC031 A2992 RMK MADISHF
MVL,2017-04-01 09:39,-72.6140,44.5346,28.00,28.00,100.00,0.00,0.00,0.00,29.92,M,2.50,M,FEW,OVC,M,M,700.00,3100.00,M,M,-SN BR,KMVL 010939Z AUTO 00000KT 2 1/2SM -SN BR FEW007 OVC031 M02/M02 A2992 RMK AO2 P0000 T10221022 $
MVL,2017-04-01 09:40,-72.6140,44.5346,M,M,M,0.00,0.00,M,29.92,M,2.50,M,FEW,OVC,M,M,700.00,3100.00,M,M,-SN BR,KMVL 010940Z AUTO 00000KT 2 1/2SM -SN BR FEW007 OVC031 A2992 RMK MADISHF
MVL,2017-04-01 09:45,-72.6140,44.5346,M,M,M,0.00,0.00,M,29.92,M,2.50,M,OVC,M,M,M,3100.00,M,M,M,-SN BR,KMVL 010945Z AUTO 00000KT 2 1/2SM -SN BR OVC031 A2992 RMK MADISHF
MVL,2017-04-01 09:50,-72.6140,44.5346,M,M,M,0.00,0.00,M,29.92,M,2.50,M,OVC,M,M,M,3000.00,M,M,M,-SN BR,KMVL 010950Z AUTO 00000KT 2 1/2SM -SN BR OVC030 A2992 RMK MADISHF
MVL,2017-04-01 09:54,-72.6140,44.5346,28.00,28.00,100.00,0.00,0.00,0.00,29.93,1014.40,2.50,M,OVC,M,M,M,3000.00,M,M,M,-SN BR,KMVL 010954Z AUTO 00000KT 2 1/2SM -SN BR OVC030 M02/M02 A2993 RMK AO2 SLP144 P0000 T10221022 $
MVL,2017-04-01 09:55,-72.6140,44.5346,M,M,M,0.00,0.00,M,M,M,2.50,M,OVC,M,M,M,3000.00,M,M,M,-SN BR,KMVL 010955Z AUTO 00000KT 2 1/2SM -SN BR OVC030 RMK MADISHF
MVL,2017-04-01 10:00,-72.6140,44.5346,M,M,M,0.00,0.00,M,29.93,M,2.50,M,OVC,M,M,M,3000.00,M,M,M,-SN BR,KMVL 011000Z AUTO 00000KT 2 1/2SM -SN BR OVC030 A2993 RMK MADISHF
MVL,2017-04-01 10:05,-72.6140,44.5346,M,M,M,0.00,0.00,M,29.93,M,2.50,M,OVC,M,M,M,3200.00,M,M,M,-SN BR,KMVL 011005Z AUTO 00000KT 2 1/2SM -SN BR OVC032 A2993 RMK MADISHF
MVL,2017-04-01 10:10,-72.6140,44.5346,M,M,M,0.00,0.00,M,29.93,M,2.50,M,OVC,M,M,M,3200.00,M,M,M,-SN BR,KMVL 011010Z AUTO 00000KT 2 1/2SM -SN BR OVC032 A2993 RMK MADISHF
MVL,2017-04-01 10:15,-72.6140,44.5346,M,M,M,0.00,0.00,M,29.93,M,2.00,M,OVC,M,M,M,3000.00,M,M,M,-SN BR,KMVL 011015Z AUTO 00000KT 2SM -SN BR OVC030 A2993 RMK MADISHF
MVL,2017-04-01 10:19,-72.6140,44.5346,28.00,28.00,100.00,0.00,0.00,0.00,29.93,M,2.00,M,FEW,OVC,M,M,600.00,2800.00,M,M,-SN BR,KMVL 011019Z AUTO 00000KT 2SM -SN BR FEW006 OVC028 M02/M02 A2993 RMK AO2 P0000 T10221022 $
MVL,2017-04-01 10:20,-72.6140,44.5346,M,M,M,0.00,0.00,M,29.93,M,1.75,M,FEW,OVC,M,M,600.00,2800.00,M,M,-SN BR,KMVL 011020Z AUTO 00000KT 2SM -SN BR FEW006 OVC028 A2993 RMK MADISHF
MVL,2017-04-01 10:25,-72.6140,44.5346,M,M,M,0.00,0.00,M,29.93,M,1.50,M,FEW,OVC,M,M,600.00,2600.00,M,M,-SN BR,KMVL 011025Z AUTO 00000KT 1 1/2SM -SN BR FEW006 OVC026 A2993 RMK MADISHF
MVL,2017-04-01 10:26,-72.6140,44.5346,28.00,28.00,100.00,0.00,0.00,0.00,29.93,M,1.50,M,FEW,OVC,M,M,600.00,2600.00,M,M,-SN BR,KMVL 011026Z AUTO 00000KT 1 1/2SM -SN BR FEW006 OVC026 M02/M02 A2993 RMK AO2 P0000 T10221022 $
MVL,2017-04-01 10:30,-72.6140,44.5346,M,M,M,0.00,0.00,M,29.93,M,1.25,M,FEW,OVC,M,M,499.00,2400.00,M,M,-SN BR,KMVL 011030Z AUTO 00000KT 1 1/2SM -SN BR FEW004 OVC024 A2993 RMK MADISHF
MVL,2017-04-01 10:35,-72.6140,44.5346,M,M,M,0.00,0.00,M,29.93,M,1.25,M,FEW,OVC,M,M,499.00,2200.00,M,M,-SN BR,KMVL 011035Z AUTO 00000KT 1 1/2SM -SN BR FEW004 OVC022 A2993 RMK MADISHF
MVL,2017-04-01 10:40,-72.6140,44.5346,M,M,M,0.00,0.00,M,29.93,M,1.50,M,FEW,OVC,M,M,499.00,2200.00,M,M,-SN BR,KMVL 011040Z AUTO 00000KT 1 1/2SM -SN BR FEW004 OVC022 A2993 RMK MADISHF
MVL,2017-04-01 10:45,-72.6140,44.5346,M,M,M,0.00,0.00,M,29.93,M,1.75,M,FEW,OVC,M,M,499.00,2800.00,M,M,-SN BR,KMVL 011045Z AUTO 00000KT 2SM -SN BR FEW004 OVC028 A2993 RMK MADISHF
MVL,2017-04-01 10:50,-72.6140,44.5346,M,M,M,0.00,0.00,M,29.93,M,1.50,M,OVC,M,M,M,3000.00,M,M,M,-SN BR,KMVL 011050Z AUTO 00000KT 1 1/2SM -SN BR OVC030 A2993 RMK MADISHF
MVL,2017-04-01 10:54,-72.6140,44.5346,28.00,28.00,100.00,0.00,0.00,0.00,29.93,1014.70,1.25,M,OVC,M,M,M,3200.00,M,M,M,-SN BR,KMVL 011054Z AUTO 00000KT 1 1/4SM -SN BR OVC032 M02/M02 A2993 RMK AO2 SLP147 P0000 T10221022 $
MVL,2017-04-01 10:55,-72.6140,44.5346,M,M,M,0.00,0.00,M,29.93,M,1.25,M,OVC,M,M,M,3200.00,M,M,M,-SN BR,KMVL 011055Z AUTO 00000KT 1 1/2SM -SN BR OVC032 A2993 RMK MADISHF
MVL,2017-04-01 11:00,-72.6140,44.5346,M,M,M,0.00,0.00,M,29.94,M,1.50,M,FEW,OVC,M,M,1100.00,3399.00,M,M,-SN BR,KMVL 011100Z AUTO 00000KT 1 1/2SM -SN BR FEW011 OVC033 A2994 RMK MADISHF
MVL,2017-04-01 11:05,-72.6140,44.5346,M,M,M,0.00,0.00,M,29.93,M,1.50,M,FEW,SCT,OVC,M,400.00,1100.00,3600.00,M,-SN BR,KMVL 011105Z AUTO 00000KT 1 1/2SM -SN BR FEW004 SCT011 OVC036 A2993 RMK MADISHF
MVL,2017-04-01 11:08,-72.6140,44.5346,28.00,28.00,100.00,0.00,0.00,0.00,29.94,M,1.50,M,SCT,OVC,M,M,400.00,3600.00,M,M,-SN BR,KMVL 011108Z AUTO 00000KT 1 1/2SM -SN BR SCT004 OVC036 M02/M02 A2994 RMK AO2 P0000 T10221022 $
MVL,2017-04-01 11:10,-72.6140,44.5346,M,M,M,0.00,0.00,M,29.94,M,1.50,M,SCT,OVC,M,M,400.00,3600.00,M,M,-SN BR,KMVL 011110Z AUTO 00000KT 1 1/2SM -SN BR SCT004 OVC036 A2994 RMK MADISHF
MVL,2017-04-01 11:15,-72.6140,44.5346,M,M,M,0.00,0.00,M,29.94,M,1.50,M,SCT,OVC,M,M,600.00,3600.00,M,M,-SN BR,KMVL 011115Z AUTO 00000KT 1 1/2SM -SN BR SCT006 OVC036 A2994 RMK MADISHF
MVL,2017-04-01 11:20,-72.6140,44.5346,M,M,M,0.00,0.00,M,29.94,M,1.25,M,SCT,BKN,OVC,M,600.00,2200.00,3399.00,M,-SN BR,KMVL 011120Z AUTO 00000KT 1 1/2SM -SN BR SCT006 BKN022 OVC033 A2994 RMK MADISHF
MVL,2017-04-01 11:25,-72.6140,44.5346,28.00,28.00,100.00,0.00,0.00,0.00,29.94,M,1.25,M,FEW,BKN,OVC,M,400.00,2200.00,3200.00,M,-SN BR,KMVL 011125Z AUTO 00000KT 1 1/4SM -SN BR FEW004 BKN022 OVC032 M02/M02 A2994 RMK AO2 P0000 T10221022 $
MVL,2017-04-01 11:30,-72.6140,44.5346,M,M,M,0.00,0.00,M,29.94,M,1.25,M,SCT,BKN,OVC,M,400.00,2400.00,3000.00,M,-SN BR,KMVL 011130Z AUTO 00000KT 1 1/2SM -SN BR SCT004 BKN024 OVC030 A2994 RMK MADISHF
MVL,2017-04-01 11:35,-72.6140,44.5346,M,M,M,0.00,0.00,M,29.94,M,1.50,M,FEW,BKN,OVC,M,600.00,2400.00,3000.00,M,-SN BR,KMVL 011135Z AUTO 00000KT 1 1/2SM -SN BR FEW006 BKN024 OVC030 A2994 RMK MADISHF
MVL,2017-04-01 11:40,-72.6140,44.5346,M,M,M,0.00,0.00,M,29.95,M,1.50,M,FEW,BKN,OVC,M,400.00,2300.00,2800.00,M,-SN BR,KMVL 011140Z AUTO 00000KT 1 1/2SM -SN BR FEW004 BKN023 OVC028 A2995 RMK MADISHF
MVL,2017-04-01 11:45,-72.6140,44.5346,M,M,M,0.00,0.00,M,29.95,M,1.25,M,FEW,SCT,OVC,M,400.00,1400.00,2400.00,M,-SN BR,KMVL 011145Z AUTO 00000KT 1 1/2SM -SN BR FEW004 SCT014 OVC024 A2995 RMK MADISHF
MVL,2017-04-01 11:50,-72.6140,44.5346,M,M,M,0.00,0.00,M,29.95,M,1.25,M,FEW,OVC,M,M,1400.00,2400.00,M,M,-SN BR,KMVL 011150Z AUTO 00000KT 1 1/2SM -SN BR FEW014 OVC024 A2995 RMK MADISHF
MVL,2017-04-01 11:54,-72.6140,44.5346,28.90,28.90,100.00,0.00,0.00,0.00,29.95,1015.20,1.00,M,FEW,OVC,M,M,1400.00,2200.00,M,M,-SN BR,KMVL 011154Z AUTO 00000KT 1SM -SN BR FEW014 OVC022 M02/M02 A2995 RMK AO2 SLP152 P0000 60000 70003 T10171017 11017 21022 53007 $
MVL,2017-04-01 11:55,-72.6140,44.5346,M,M,M,0.00,0.00,M,29.95,M,1.00,M,FEW,OVC,M,M,1300.00,2200.00,M,M,-SN BR,KMVL 011155Z AUTO 00000KT 1SM -SN BR FEW013 OVC022 A2995 RMK MADISHF
MVL,2017-04-01 12:00,-72.6140,44.5346,M,M,M,0.00,0.00,M,29.95,M,1.00,M,FEW,OVC,M,M,1300.00,2200.00,M,M,-SN BR,KMVL 011200Z AUTO 00000KT 1SM -SN BR FEW013 OVC022 A2995 RMK MADISHF
MVL,2017-04-01 12:05,-72.6140,44.5346,M,M,M,0.00,0.00,M,29.95,M,1.00,M,FEW,OVC,M,M,1300.00,2200.00,M,M,-SN BR,KMVL 011205Z AUTO 00000KT 1SM -SN BR FEW013 OVC022 A2995 RMK MADISHF
MVL,2017-04-01 12:10,-72.6140,44.5346,M,M,M,0.00,0.00,M,29.95,M,1.00,M,OVC,M,M,M,2200.00,M,M,M,-SN BR,KMVL 011210Z AUTO 00000KT 1SM -SN BR OVC022 A2995 RMK MADISHF
MVL,2017-04-01 12:15,-72.6140,44.5346,M,M,M,0.00,0.00,M,29.95,M,1.00,M,OVC,M,M,M,2200.00,M,M,M,-SN BR,KMVL 011215Z AUTO 00000KT 1SM -SN BR OVC022 A2995 RMK MADISHF
MVL,2017-04-01 12:20,-72.6140,44.5346,M,M,M,0.00,0.00,M,29.95,M,1.00,M,VV ,M,M,M,1999.00,M,M,M,-SN BR,KMVL 011220Z AUTO 00000KT 1SM -SN BR VV019 A2995 RMK MADISHF
MVL,2017-04-01 12:25,-72.6140,44.5346,M,M,M,10.00,3.00,M,29.95,M,0.75,M,VV ,M,M,M,1999.00,M,M,M,-SN BR,KMVL 011225Z AUTO 01003KT 1SM -SN BR VV019 A2995 RMK MADISHF
MVL,2017-04-01 12:28,-72.6140,44.5346,28.90,28.90,100.00,10.00,3.00,0.00,29.95,M,0.75,M,VV ,M,M,M,2000.00,M,M,M,-SN BR,KMVL 011228Z AUTO 01003KT 3/4SM -SN BR VV020 M02/M02 A2995 RMK AO2 P0000 T10171017 $
MVL,2017-04-01 12:30,-72.6140,44.5346,M,M,M,10.00,3.00,M,29.95,M,0.75,M,VV ,M,M,M,1999.00,M,M,M,-SN BR,KMVL 011230Z AUTO 01003KT 1SM -SN BR VV019 A2995 RMK MADISHF
MVL,2017-04-01 12:35,-72.6140,44.5346,M,M,M,20.00,3.00,M,29.95,M,1.00,M,OVC,M,M,M,1999.00,M,M,M,-SN BR,KMVL 011235Z AUTO 02003KT 1SM -SN BR OVC019 A2995 RMK MADISHF
MVL,2017-04-01 12:38,-72.6140,44.5346,28.90,28.90,100.00,20.00,3.00,0.00,29.95,M,1.25,M,OVC,M,M,M,2200.00,M,M,M,-SN BR,KMVL 011238Z AUTO 02003KT 1 1/4SM -SN BR OVC022 M02/M02 A2995 RMK AO2 P0000 T10171017 $
MVL,2017-04-01 12:40,-72.6140,44.5346,M,M,M,20.00,3.00,M,29.95,M,1.25,M,OVC,M,M,M,2200.00,M,M,M,-SN BR,KMVL 011240Z AUTO 02003KT 1 1/2SM -SN BR OVC022 A2995 RMK MADISHF
MVL,2017-04-01 12:45,-72.6140,44.5346,M,M,M,10.00,3.00,M,29.95,M,1.25,M,FEW,BKN,OVC,M,1900.00,2400.00,3500.00,M,-SN BR,KMVL 011245Z AUTO 01003KT 1 1/2SM -SN BR FEW019 BKN024 OVC035 A2995 RMK MADISHF
MVL,2017-04-01 12:50,-72.6140,44.5346,M,M,M,10.00,3.00,M,29.95,M,1.25,M,FEW,BKN,OVC,M,2200.00,2700.00,3500.00,M,-SN BR,KMVL 011250Z AUTO 01003KT 1 1/2SM -SN BR FEW022 BKN027 OVC035 A2995 RMK MADISHF
MVL,2017-04-01 12:54,-72.6140,44.5346,30.00,30.00,100.00,10.00,3.00,0.00,29.95,1015.40,1.50,M,FEW,BKN,OVC,M,1700.00,2700.00,3600.00,M,-SN BR,KMVL 011254Z AUTO 01003KT 1 1/2SM -SN BR FEW017 BKN027 OVC036 M01/M01 A2995 RMK AO2 SLP154 P0000 T10111011 $
MVL,2017-04-01 12:55,-72.6140,44.5346,M,M,M,360.00,3.00,M,29.95,M,1.50,M,FEW,BKN,OVC,M,1699.00,2900.00,3600.00,M,-SN BR,KMVL 011255Z AUTO 36003KT 1 1/2SM -SN BR FEW016 BKN029 OVC036 A2995 RMK MADISHF
MVL,2017-04-01 13:00,-72.6140,44.5346,M,M,M,20.00,3.00,M,29.96,M,2.00,M,FEW,BKN,OVC,M,1699.00,2900.00,3600.00,M,-SN BR,KMVL 011300Z AUTO 02003KT 2SM -SN BR FEW016 BKN029 OVC036 A2996 RMK MADISHF
MVL,2017-04-01 13:05,-72.6140,44.5346,M,M,M,10.00,4.00,M,29.96,M,2.50,M,FEW,BKN,OVC,M,1100.00,2900.00,3700.00,M,-SN BR,KMVL 011305Z AUTO 01004KT 2 1/2SM -SN BR FEW011 BKN029 OVC037 A2996 RMK MADISHF
MVL,2017-04-01 13:06,-72.6140,44.5346,30.00,30.00,100.00,10.00,4.00,0.00,29.96,M,2.50,M,FEW,BKN,OVC,M,1100.00,2000.00,3700.00,M,-SN BR,KMVL 011306Z AUTO 01004KT 2 1/2SM -SN BR FEW011 BKN020 OVC037 M01/M01 A2996 RMK AO2 P0000 T10111011 $
MVL,2017-04-01 13:10,-72.6140,44.5346,M,M,M,10.00,4.00,M,29.96,M,3.00,M,SCT,BKN,OVC,M,1100.00,1999.00,3399.00,M,-SN BR,KMVL 011310Z AUTO 01004KT 3SM -SN BR SCT011 BKN019 OVC033 A2996 RMK MADISHF
MVL,2017-04-01 13:15,-72.6140,44.5346,M,M,M,350.00,3.00,M,29.96,M,4.00,M,FEW,BKN,OVC,M,1100.00,1999.00,3600.00,M,-SN BR,KMVL 011315Z AUTO 35003KT 4SM -SN BR FEW011 BKN019 OVC036 A2996 RMK MADISHF
MVL,2017-04-01 13:16,-72.6140,44.5346,30.00,30.00,100.00,350.00,3.00,0.00,29.96,M,4.00,M,FEW,BKN,OVC,M,1100.00,2200.00,3600.00,M,-SN BR,KMVL 011316Z AUTO 35003KT 4SM -SN BR FEW011 BKN022 OVC036 M01/M01 A2996 RMK AO2 P0000 T10111011 $
MVL,2017-04-01 13:20,-72.6140,44.5346,M,M,M,10.00,4.00,M,29.96,M,5.00,M,FEW,BKN,OVC,M,1100.00,1999.00,3800.00,M,BR,KMVL 011320Z AUTO 01004KT 5SM BR FEW011 BKN019 OVC038 A2996 RMK MADISHF
MVL,2017-04-01 13:25,-72.6140,44.5346,M,M,M,360.00,4.00,M,29.96,M,6.00,M,SCT,BKN,OVC,M,1100.00,1699.00,3999.00,M,BR,KMVL 011325Z AUTO 36004KT 6SM BR SCT011 BKN016 OVC039 A2996 RMK MADISHF
MVL,2017-04-01 13:30,-72.6140,44.5346,M,M,M,20.00,4.00,M,29.96,M,5.00,M,FEW,BKN,OVC,M,1100.00,1900.00,3999.00,M,-SN BR,KMVL 011330Z AUTO 02004KT 5SM -SN BR FEW011 BKN019 OVC039 A2996 RMK MADISHF
MVL,2017-04-01 13:35,-72.6140,44.5346,M,M,M,20.00,4.00,M,29.96,M,3.50,M,SCT,BKN,OVC,M,1100.00,1900.00,3999.00,M,-SN BR,KMVL 011335Z AUTO 02004KT 3SM -SN BR SCT011 BKN019 OVC039 A2996 RMK MADISHF
MVL,2017-04-01 13:40,-72.6140,44.5346,M,M,M,10.00,4.00,M,29.96,M,3.00,M,FEW,BKN,OVC,M,1100.00,1900.00,3999.00,M,-SN BR,KMVL 011340Z AUTO 01004KT 3SM -SN BR FEW011 BKN019 OVC039 A2996 RMK MADISHF
MVL,2017-04-01 13:45,-72.6140,44.5346,M,M,M,10.00,4.00,M,29.96,M,3.50,M,FEW,BKN,OVC,M,800.00,1900.00,3800.00,M,-SN BR,KMVL 011345Z AUTO 01004KT 3SM -SN BR FEW008 BKN019 OVC038 A2996 RMK MADISHF
MVL,2017-04-01 13:50,-72.6140,44.5346,M,M,M,10.00,4.00,M,29.96,M,3.50,M,FEW,BKN,OVC,M,999.00,1900.00,3800.00,M,-SN BR,KMVL 011350Z AUTO 01004KT 3SM -SN BR FEW009 BKN019 OVC038 A2996 RMK MADISHF
MVL,2017-04-01 13:54,-72.6140,44.5346,30.90,30.00,96.41,10.00,4.00,0.00,29.96,1015.60,3.00,M,SCT,BKN,OVC,M,1000.00,1900.00,3300.00,M,-SN BR,KMVL 011354Z AUTO 01004KT 3SM -SN BR SCT010 BKN019 OVC033 M01/M01 A2996 RMK AO2 SLP156 P0000 T10061011 $
MVL,2017-04-01 13:55,-72.6140,44.5346,M,M,M,10.00,5.00,M,29.96,M,3.00,M,SCT,BKN,OVC,M,999.00,1900.00,3300.00,M,-SN BR,KMVL 011355Z AUTO 01005KT 3SM -SN BR SCT009 BKN019 OVC033 A2996 RMK MADISHF
MVL,2017-04-01 13:59,-72.6140,44.5346,32.00,30.00,92.22,10.00,5.00,0.00,29.96,M,2.50,M,SCT,BKN,OVC,M,1000.00,1400.00,3100.00,M,-SN BR,KMVL 011359Z AUTO 01005KT 2 1/2SM -SN BR SCT010 BKN014 OVC031 00/M01 A2996 RMK AO2 P0000 T00001011 $
MVL,2017-04-01 14:00,-72.6140,44.5346,M,M,M,10.00,5.00,M,29.96,M,2.00,M,SCT,BKN,OVC,M,999.00,1400.00,1900.00,M,-SN BR,KMVL 011400Z AUTO 01005KT 2SM -SN BR SCT009 BKN014 OVC019 A2996 RMK MADISHF
MVL,2017-04-01 14:05,-72.6140,44.5346,M,M,M,10.00,5.00,M,29.96,M,2.00,M,SCT,BKN,OVC,M,999.00,1800.00,3300.00,M,-SN BR,KMVL 011405Z AUTO 01005KT 2SM -SN BR SCT009 BKN018 OVC033 A2996 RMK MADISHF
MVL,2017-04-01 14:09,-72.6140,44.5346,32.00,30.00,92.22,10.00,5.00,0.00,29.97,M,2.00,M,SCT,BKN,OVC,M,800.00,1300.00,2900.00,M,-SN BR,KMVL 011409Z AUTO 01005KT 2SM -SN BR SCT008 BKN013 OVC029 00/M01 A2997 RMK AO2 P0000 T00001011 $
MVL,2017-04-01 14:10,-72.6140,44.5346,M,M,M,20.00,5.00,M,29.97,M,2.00,M,SCT,BKN,OVC,M,800.00,1300.00,2900.00,M,-SN BR,KMVL 011410Z AUTO 02005KT 2SM -SN BR SCT008 BKN013 OVC029 A2997 RMK MADISHF
MVL,2017-04-01 14:15,-72.6140,44.5346,M,M,M,10.00,4.00,M,29.97,M,2.00,M,SCT,BKN,OVC,M,800.00,1500.00,3100.00,M,-SN BR,KMVL 011415Z AUTO 01004KT 2SM -SN BR SCT008 BKN015 OVC031 A2997 RMK MADISHF
MVL,2017-04-01 14:17,-72.6140,44.5346,32.00,30.90,95.65,360.00,4.00,0.00,29.97,M,2.50,M,SCT,BKN,OVC,M,800.00,1500.00,3100.00,M,-SN BR,KMVL 011417Z AUTO 36004KT 2 1/2SM -SN BR SCT008 BKN015 OVC031 00/M01 A2997 RMK AO2 P0000 T00001006 $
MVL,2017-04-01 14:20,-72.6140,44.5346,M,M,M,360.00,3.00,0.01,29.97,M,2.50,M,SCT,BKN,OVC,M,800.00,1500.00,3399.00,M,-SN BR,KMVL 011420Z AUTO 36003KT 2 1/2SM -SN BR SCT008 BKN015 OVC033 A2997 RMK P0001 MADISHF
MVL,2017-04-01 14:25,-72.6140,44.5346,M,M,M,10.00,4.00,0.01,29.97,M,2.50,M,SCT,BKN,OVC,M,800.00,1500.00,3399.00,M,-SN BR,KMVL 011425Z AUTO 01004KT 2 1/2SM -SN BR SCT008 BKN015 OVC033 A2997 RMK P0001 MADISHF
MVL,2017-04-01 14:30,-72.6140,44.5346,M,M,M,10.00,5.00,0.01,29.97,M,2.50,M,SCT,BKN,OVC,M,800.00,1699.00,3200.00,M,-SN BR,KMVL 011430Z AUTO 01005KT 2 1/2SM -SN BR SCT008 BKN016 OVC032 A2997 RMK P0001 MADISHF
MVL,2017-04-01 14:35,-72.6140,44.5346,M,M,M,360.00,5.00,0.01,29.97,M,3.00,M,SCT,BKN,OVC,M,800.00,1699.00,3000.00,M,-SN BR,KMVL 011435Z AUTO 36005KT 3SM -SN BR SCT008 BKN016 OVC030 A2997 RMK P0001 MADISHF
MVL,2017-04-01 14:37,-72.6140,44.5346,32.00,30.90,95.65,10.00,5.00,0.01,29.97,M,3.00,M,SCT,BKN,OVC,M,800.00,2100.00,3300.00,M,-SN BR,KMVL 011437Z AUTO 01005KT 3SM -SN BR SCT008 BKN021 OVC033 00/M01 A2997 RMK AO2 P0001 T00001006 $
MVL,2017-04-01 14:40,-72.6140,44.5346,M,M,M,350.00,5.00,0.01,29.97,M,3.00,M,SCT,BKN,OVC,M,800.00,2100.00,3300.00,M,-SN BR,KMVL 011440Z AUTO 35005KT 3SM -SN BR SCT008 BKN021 OVC033 A2997 RMK P0001 MADISHF
MVL,2017-04-01 14:45,-72.6140,44.5346,M,M,M,10.00,5.00,0.01,29.97,M,3.00,M,FEW,BKN,OVC,M,300.00,800.00,3300.00,M,-SN BR,KMVL 011445Z AUTO 01005KT 3SM -SN BR FEW003 BKN008 OVC033 A2997 RMK P0001 MADISHF
MVL,2017-04-01 14:49,-72.6140,44.5346,32.00,30.20,92.97,10.00,5.00,0.01,29.97,M,3.00,M,BKN,BKN,OVC,M,600.00,2100.00,3300.00,M,-SN BR,KMVL 011449Z AUTO 01005KT 3SM -SN BR BKN006 BKN021 OVC033 00/M01 A2997 RMK AO2 P0001 $
MVL,2017-04-01 14:50,-72.6140,44.5346,M,M,M,10.00,5.00,0.01,29.97,M,3.00,M,BKN,BKN,OVC,M,600.00,2100.00,3300.00,M,-SN BR,KMVL 011450Z AUTO 01005KT 3SM -SN BR BKN006 BKN021 OVC033 A2997 RMK P0001 MADISHF
MVL,2017-04-01 14:54,-72.6140,44.5346,32.00,30.90,95.65,340.00,5.00,0.01,29.97,1015.80,3.00,M,BKN,BKN,OVC,M,600.00,1500.00,3300.00,M,-SN BR,KMVL 011454Z AUTO 34005KT 3SM -SN BR BKN006 BKN015 OVC033 00/M01 A2997 RMK AO2 SLP158 P0001 60001 T00001006 51005 $
MVL,2017-04-01 14:55,-72.6140,44.5346,M,M,M,340.00,5.00,M,M,M,3.00,M,BKN,BKN,OVC,M,600.00,1500.00,3300.00,M,-SN BR,KMVL 011455Z AUTO 34005KT 3SM -SN BR BKN006 BKN015 OVC033 RMK MADISHF
MVL,2017-04-01 15:00,-72.6140,44.5346,M,M,M,10.00,4.00,0.01,M,M,2.50,M,BKN,BKN,OVC,M,600.00,1699.00,3600.00,M,-SN BR,KMVL 011500Z AUTO 01004KT 2 1/2SM -SN BR BKN006 BKN016 OVC036 RMK P0001 MADISHF
MVL,2017-04-01 15:05,-72.6140,44.5346,32.00,30.90,95.65,360.00,4.00,0.01,29.97,M,2.50,M,BKN,OVC,M,M,600.00,1700.00,M,M,-SN BR,KMVL 011505Z AUTO 36004KT 2 1/2SM -SN BR BKN006 OVC017 00/M01 A2997 RMK AO2 P0001 T00001006 $
MVL,2017-04-01 15:10,-72.6140,44.5346,M,M,M,330.00,4.00,0.01,29.97,M,3.00,M,OVC,M,M,M,600.00,M,M,M,-SN BR,KMVL 011510Z AUTO 33004KT 3SM -SN BR OVC006 A2997 RMK P0001 CIG 3V10  MADISHF
MVL,2017-04-01 15:15,-72.6140,44.5346,32.00,30.90,95.65,320.00,5.00,0.01,29.97,M,3.00,M,BKN,OVC,M,M,600.00,1400.00,M,M,-SN BR,KMVL 011515Z AUTO 32005KT 3SM -SN BR BKN006 OVC014 00/M01 A2997 RMK AO2 CIG 003V009 P0001 T00001006 $
MVL,2017-04-01 15:20,-72.6140,44.5346,M,M,M,340.00,4.00,0.01,29.97,M,3.00,M,BKN,OVC,M,M,600.00,1400.00,M,M,-SN BR,KMVL 011520Z AUTO 34004KT 3SM -SN BR BKN006 OVC014 A2997 RMK P0001 MADISHF
MVL,2017-04-01 15:25,-72.6140,44.5346,M,M,M,340.00,5.00,0.01,29.97,M,3.00,M,BKN,BKN,M,M,600.00,3999.00,M,M,-SN BR,KMVL 011525Z AUTO 34005KT 3SM -SN BR BKN006 BKN039 A2997 RMK P0001 MADISHF
MVL,2017-04-01 15:30,-72.6140,44.5346,M,M,M,340.00,5.00,0.02,29.97,M,2.50,M,BKN,BKN,OVC,M,600.00,2500.00,3800.00,M,-SN BR,KMVL 011530Z AUTO 34005KT 2 1/2SM -SN BR BKN006 BKN025 OVC038 A2997 RMK P0002 MADISHF
MVL,2017-04-01 15:33,-72.6140,44.5346,33.10,30.90,91.51,340.00,5.00,0.02,29.97,M,2.00,M,SCT,BKN,OVC,M,600.00,2100.00,3600.00,M,-SN BR,KMVL 011533Z AUTO 34005KT 2SM -SN BR SCT006 BKN021 OVC036 01/M01 A2997 RMK AO2 P0002 T00061006 $
MVL,2017-04-01 15:35,-72.6140,44.5346,M,M,M,340.00,5.00,0.02,29.97,M,2.00,M,SCT,BKN,OVC,M,600.00,2100.00,3600.00,M,-SN BR,KMVL 011535Z AUTO 34005KT 2SM -SN BR SCT006 BKN021 OVC036 A2997 RMK P0002 MADISHF
MVL,2017-04-01 15:40,-72.6140,44.5346,M,M,M,330.00,5.00,0.02,29.97,M,2.00,M,SCT,BKN,OVC,M,700.00,2100.00,3800.00,M,-SN BR,KMVL 011540Z AUTO 33005KT 2SM -SN BR SCT007 BKN021 OVC038 A2997 RMK P0002 MADISHF
MVL,2017-04-01 15:45,-72.6140,44.5346,M,M,M,360.00,4.00,0.03,29.97,M,2.00,M,SCT,BKN,OVC,M,700.00,2500.00,3300.00,M,-SN BR,KMVL 011545Z AUTO 36004KT 2SM -SN BR SCT007 BKN025 OVC033 A2997 RMK P0003 MADISHF
MVL,2017-04-01 15:50,-72.6140,44.5346,M,M,M,340.00,4.00,0.03,29.97,M,2.00,M,SCT,BKN,OVC,M,700.00,2900.00,3600.00,M,-SN BR,KMVL 011550Z AUTO 34004KT 2SM -SN BR SCT007 BKN029 OVC036 A2997 RMK P0003 MADISHF
MVL,2017-04-01 15:54,-72.6140,44.5346,33.10,30.90,91.51,340.00,3.00,0.03,29.97,1015.80,2.00,M,FEW,BKN,OVC,M,600.00,2700.00,3500.00,M,-SN BR,KMVL 011554Z AUTO 34003KT 2SM -SN BR FEW006 BKN027 OVC035 01/M01 A2997 RMK AO2 SLP158 P0003 T00061006 $
MVL,2017-04-01 15:55,-72.6140,44.5346,M,M,M,340.00,3.00,0.01,M,M,1.75,M,FEW,BKN,OVC,M,600.00,2500.00,3500.00,M,-SN BR,KMVL 011555Z AUTO 34003KT 2SM -SN BR FEW006 BKN025 OVC035 RMK P0001 MADISHF
MVL,2017-04-01 16:00,-72.6140,44.5346,M,M,M,350.00,4.00,0.01,29.97,M,1.50,M,SCT,BKN,OVC,M,600.00,2300.00,3300.00,M,-SN BR,KMVL 011600Z AUTO 35004KT 1 1/2SM -SN BR SCT006 BKN023 OVC033 A2997 RMK P0001 MADISHF
MVL,2017-04-01 16:01,-72.6140,44.5346,33.10,30.90,91.51,350.00,3.00,0.01,29.97,M,1.25,M,SCT,BKN,OVC,M,600.00,2300.00,3300.00,M,-SN BR,KMVL 011601Z AUTO 35003KT 1 1/4SM -SN BR SCT006 BKN023 OVC033 01/M01 A2997 RMK AO2 P0001 T00061006 $
MVL,2017-04-01 16:05,-72.6140,44.5346,M,M,M,360.00,3.00,0.01,29.97,M,1.00,M,BKN,OVC,M,M,600.00,2300.00,M,M,-SN BR,KMVL 011605Z AUTO 36003KT 1SM -SN BR BKN006 OVC023 A2997 RMK P0001 MADISHF
MVL,2017-04-01 16:10,-72.6140,44.5346,33.10,30.90,91.51,360.00,5.00,0.02,29.97,M,0.75,M,BKN,BKN,OVC,M,600.00,2200.00,2700.00,M,-SN BR,KMVL 011610Z AUTO 36005KT 3/4SM -SN BR BKN006 BKN022 OVC027 01/M01 A2997 RMK AO2 P0002 T00061006 $
MVL,2017-04-01 16:15,-72.6140,44.5346,M,M,M,360.00,4.00,0.02,29.97,M,0.75,M,BKN,BKN,OVC,M,600.00,1699.00,3200.00,M,-SN BR,KMVL 011615Z AUTO 36004KT 1SM -SN BR BKN006 BKN016 OVC032 A2997 RMK P0002 MADISHF
MVL,2017-04-01 16:20,-72.6140,44.5346,33.10,30.90,91.51,10.00,5.00,0.02,29.97,M,1.00,M,SCT,OVC,M,M,500.00,1700.00,M,M,-SN BR,KMVL 011620Z AUTO 01005KT 1SM -SN BR SCT005 OVC017 01/M01 A2997 RMK AO2 P0002 T00061006 $
MVL,2017-04-01 16:25,-72.6140,44.5346,M,M,M,10.00,4.00,0.03,29.97,M,1.00,M,SCT,OVC,M,M,499.00,1699.00,M,M,-SN BR,KMVL 011625Z AUTO 01004KT 1SM -SN BR SCT004 OVC016 A2997 RMK P0003 MADISHF
MVL,2017-04-01 16:30,-72.6140,44.5346,M,M,M,10.00,4.00,0.03,29.97,M,1.25,M,SCT,OVC,M,M,499.00,1699.00,M,M,-SN BR,KMVL 011630Z AUTO 01004KT 1 1/2SM -SN BR SCT004 OVC016 A2997 RMK P0003 MADISHF
MVL,2017-04-01 16:33,-72.6140,44.5346,33.10,30.90,91.51,10.00,4.00,0.03,29.97,M,1.25,M,SCT,BKN,OVC,M,500.00,1700.00,2900.00,M,-SN BR,KMVL 011633Z AUTO 01004KT 1 1/4SM -SN BR SCT005 BKN017 OVC029 01/M01 A2997 RMK AO2 P0003 T00061006 $
MVL,2017-04-01 16:35,-72.6140,44.5346,M,M,M,10.00,4.00,0.03,29.97,M,1.25,M,FEW,SCT,OVC,M,499.00,800.00,1699.00,M,-SN BR,KMVL 011635Z AUTO 01004KT 1 1/2SM -SN BR FEW004 SCT008 OVC016 A2997 RMK P0003 MADISHF
MVL,2017-04-01 16:40,-72.6140,44.5346,M,M,M,10.00,4.00,0.04,29.97,M,1.25,M,SCT,BKN,OVC,M,499.00,1699.00,2900.00,M,-SN BR,KMVL 011640Z AUTO 01004KT 1 1/2SM -SN BR SCT004 BKN016 OVC029 A2997 RMK P0004 MADISHF
MVL,2017-04-01 16:45,-72.6140,44.5346,M,M,M,10.00,5.00,0.04,29.97,M,1.25,M,SCT,SCT,OVC,M,499.00,800.00,1699.00,M,-SN BR,KMVL 011645Z AUTO 01005KT 1 1/2SM -SN BR SCT004 SCT008 OVC016 A2997 RMK P0004 MADISHF
MVL,2017-04-01 16:50,-72.6140,44.5346,M,M,M,360.00,5.00,0.05,29.97,M,1.25,M,SCT,BKN,OVC,M,499.00,900.00,1699.00,M,-SN BR,KMVL 011650Z AUTO 36005KT 1 1/2SM -SN BR SCT004 BKN009 OVC016 A2997 RMK P0005 MADISHF
MVL,2017-04-01 16:51,-72.6140,44.5346,33.80,30.20,86.49,360.00,5.00,0.05,29.97,M,1.25,M,BKN,OVC,M,M,500.00,1700.00,M,M,-SN BR,KMVL 011651Z AUTO 36005KT 1 1/4SM -SN BR BKN005 OVC017 01/M01 A2997 RMK AO2 P0005 $
MVL,2017-04-01 16:54,-72.6140,44.5346,33.10,30.90,91.51,350.00,5.00,0.05,29.97,1015.80,1.25,M,SCT,BKN,OVC,M,500.00,900.00,1700.00,M,-SN BR,KMVL 011654Z AUTO 35005KT 1 1/4SM -SN BR SCT005 BKN009 OVC017 01/M01 A2997 RMK AO2 SLP158 P0005 T00061006 $
MVL,2017-04-01 16:55,-72.6140,44.5346,M,M,M,340.00,5.00,M,M,M,1.50,M,SCT,BKN,OVC,M,499.00,900.00,1699.00,M,-SN BR,KMVL 011655Z AUTO 34005KT 1 1/2SM -SN BR SCT004 BKN009 OVC016 RMK MADISHF
MVL,2017-04-01 17:00,-72.6140,44.5346,M,M,M,10.00,5.00,0.01,29.97,M,1.75,M,BKN,BKN,OVC,M,499.00,900.00,1699.00,M,-SN BR,KMVL 011700Z AUTO 01005KT 2SM -SN BR BKN004 BKN009 OVC016 A2997 RMK P0001 MADISHF
MVL,2017-04-01 17:02,-72.6140,44.5346,33.10,30.90,91.51,360.00,5.00,0.01,29.96,M,1.75,M,BKN,BKN,OVC,M,400.00,800.00,1700.00,M,-SN BR,KMVL 011702Z AUTO 36005KT 1 3/4SM -SN BR BKN004 BKN008 OVC017 01/M01 A2996 RMK AO2 P0001 T00061006 $
MVL,2017-04-01 17:05,-72.6140,44.5346,M,M,M,350.00,4.00,0.01,29.96,M,1.75,M,SCT,BKN,OVC,M,400.00,800.00,1699.00,M,-SN BR,KMVL 011705Z AUTO 35004KT 2SM -SN BR SCT004 BKN008 OVC016 A2996 RMK P0001 MADISHF
MVL,2017-04-01 17:10,-72.6140,44.5346,M,M,M,360.00,4.00,0.02,29.96,M,1.75,M,BKN,OVC,M,M,600.00,1699.00,M,M,-SN BR,KMVL 011710Z AUTO 36004KT 2SM -SN BR BKN006 OVC016 A2996 RMK P0002 MADISHF
MVL,2017-04-01 17:11,-72.6140,44.5346,33.10,30.90,91.51,360.00,4.00,0.02,29.96,M,1.75,M,BKN,OVC,M,M,600.00,1700.00,M,M,-SN BR,KMVL 011711Z AUTO 36004KT 1 3/4SM -SN BR BKN006 OVC017 01/M01 A2996 RMK AO2 P0002 T00061006
MVL,2017-04-01 17:15,-72.6140,44.5346,M,M,M,360.00,4.00,0.03,M,M,2.00,M,BKN,OVC,M,M,600.00,1699.00,M,M,-SN BR,KMVL 011715Z AUTO 36004KT 2SM -SN BR BKN006 OVC016 RMK P0003 MADISHF
MVL,2017-04-01 17:19,-72.6140,44.5346,33.10,30.90,91.51,350.00,4.00,0.03,29.96,M,2.00,M,OVC,M,M,M,600.00,M,M,M,-SN BR,KMVL 011719Z AUTO 35004KT 2SM -SN BR OVC006 01/M01 A2996 RMK AO2 P0003 T00061006
MVL,2017-04-01 17:20,-72.6140,44.5346,M,M,M,350.00,4.00,0.04,M,M,2.00,M,OVC,M,M,M,600.00,M,M,M,-SN BR,KMVL 011720Z AUTO 35004KT 2SM -SN BR OVC006 RMK P0004 MADISHF
MVL,2017-04-01 17:25,-72.6140,44.5346,M,M,M,360.00,5.00,0.04,M,M,2.50,M,BKN,OVC,M,M,600.00,999.00,M,M,-SN BR,KMVL 011725Z AUTO 36005KT 2 1/2SM -SN BR BKN006 OVC009 RMK P0004 MADISHF
MVL,2017-04-01 17:30,-72.6140,44.5346,M,M,M,350.00,5.00,0.05,29.96,M,2.50,M,BKN,BKN,OVC,M,600.00,999.00,1800.00,M,-SN BR,KMVL 011730Z AUTO 35005KT 2 1/2SM -SN BR BKN006 BKN009 OVC018 A2996 RMK P0005 MADISHF
MVL,2017-04-01 17:35,-72.6140,44.5346,M,M,M,350.00,5.00,0.06,M,M,2.50,M,BKN,OVC,M,M,700.00,1999.00,M,M,-SN BR,KMVL 011735Z AUTO 35005KT 2 1/2SM -SN BR BKN007 OVC019 RMK P0006 MADISHF
MVL,2017-04-01 17:40,-72.6140,44.5346,M,M,M,10.00,4.00,0.07,M,M,3.50,M,SCT,BKN,OVC,M,499.00,900.00,4900.00,M,-SN BR,KMVL 011740Z AUTO 01004KT 3SM -SN BR SCT004 BKN009 OVC049 RMK P0007 MADISHF
MVL,2017-04-01 17:44,-72.6140,44.5346,33.10,30.90,91.51,10.00,4.00,0.07,29.96,M,5.00,M,BKN,BKN,OVC,M,500.00,3300.00,4900.00,M,-SN BR,KMVL 011744Z AUTO 01004KT 5SM -SN BR BKN005 BKN033 OVC049 01/M01 A2996 RMK AO2 P0007 T00061006
MVL,2017-04-01 17:45,-72.6140,44.5346,M,M,M,360.00,4.00,0.07,M,M,6.00,M,BKN,BKN,OVC,M,700.00,3300.00,4900.00,M,-SN BR,KMVL 011745Z AUTO 36004KT 6SM -SN BR BKN007 BKN033 OVC049 RMK P0007 MADISHF
MVL,2017-04-01 17:50,-72.6140,44.5346,M,M,M,360.00,5.00,0.08,29.96,M,8.00,M,BKN,BKN,OVC,M,700.00,3100.00,4900.00,M,-SN,KMVL 011750Z AUTO 36005KT 8SM -SN BKN007 BKN031 OVC049 A2996 RMK P0008 MADISHF
MVL,2017-04-01 17:51,-72.6140,44.5346,33.80,30.20,86.49,360.00,5.00,0.08,29.96,M,8.00,M,BKN,BKN,OVC,M,700.00,2800.00,4900.00,M,-SN,KMVL 011751Z AUTO 36005KT 8SM -SN BKN007 BKN028 OVC049 01/M01 A2996 RMK AO2 P0008
MVL,2017-04-01 17:54,-72.6140,44.5346,33.10,30.90,91.51,10.00,4.00,0.09,29.96,1015.40,9.00,M,BKN,BKN,OVC,M,700.00,2800.00,4900.00,M,M,KMVL 011754Z AUTO 01004KT 9SM BKN007 BKN028 OVC049 01/M01 A2996 RMK AO2 SNE54 SLP154 P0009 60018 T00061006 10006 21017 58004
MVL,2017-04-01 17:55,-72.6140,44.5346,M,M,M,20.00,5.00,M,M,M,9.00,M,BKN,BKN,OVC,M,700.00,2800.00,4900.00,M,M,KMVL 011755Z AUTO 02005KT 9SM BKN007 BKN028 OVC049 RMK MADISHF
MVL,2017-04-01 18:00,-72.6140,44.5346,M,M,M,360.00,4.00,0.01,29.95,M,7.00,M,BKN,BKN,OVC,M,700.00,3500.00,4900.00,M,-SN,KMVL 011800Z AUTO 36004KT 7SM -SN BKN007 BKN035 OVC049 A2995 RMK P0001 MADISHF
MVL,2017-04-01 18:05,-72.6140,44.5346,M,M,M,350.00,4.00,0.02,29.95,M,7.00,M,BKN,BKN,OVC,M,800.00,3500.00,4900.00,M,-SN,KMVL 011805Z AUTO 35004KT 7SM -SN BKN008 BKN035 OVC049 A2995 RMK P0002 MADISHF
MVL,2017-04-01 18:10,-72.6140,44.5346,M,M,M,350.00,4.00,0.02,29.95,M,7.00,M,BKN,OVC,M,M,800.00,2900.00,M,M,-SN,KMVL 011810Z AUTO 35004KT 7SM -SN BKN008 OVC029 A2995 RMK P0002 MADISHF
MVL,2017-04-01 18:15,-72.6140,44.5346,M,M,M,340.00,4.00,0.03,29.95,M,7.00,M,BKN,OVC,M,M,800.00,2900.00,M,M,-SN,KMVL 011815Z AUTO 34004KT 7SM -SN BKN008 OVC029 A2995 RMK P0003 MADISHF
MVL,2017-04-01 18:20,-72.6140,44.5346,M,M,M,30.00,4.00,0.04,29.94,M,9.00,M,BKN,OVC,M,M,800.00,2900.00,M,M,-SN,KMVL 011820Z AUTO 03004KT 9SM -SN BKN008 OVC029 A2994 RMK P0004 VRB04KT  MADISHF
MVL,2017-04-01 18:25,-72.6140,44.5346,M,M,M,350.00,3.00,0.05,29.94,M,9.00,M,BKN,OVC,M,M,800.00,3100.00,M,M,M,KMVL 011825Z AUTO 35003KT 9SM BKN008 OVC031 A2994 RMK P0005 MADISHF
MVL,2017-04-01 18:30,-72.6140,44.5346,M,M,M,350.00,4.00,0.06,29.95,M,10.00,M,SCT,BKN,OVC,M,800.00,1300.00,3100.00,M,M,KMVL 011830Z AUTO 35004KT 10SM SCT008 BKN013 OVC031 A2995 RMK P0006 MADISHF
MVL,2017-04-01 18:33,-72.6140,44.5346,34.00,34.00,100.00,20.00,4.00,0.07,29.95,M,10.00,M,SCT,BKN,OVC,M,800.00,1300.00,3100.00,M,M,KMVL 011833Z AUTO 02004KT 10SM SCT008 BKN013 OVC031 01/01 A2995 RMK AO2 UPB19E20SNB1757E19B20E21 P0007 T00110011
MVL,2017-04-01 18:35,-72.6140,44.5346,M,M,M,360.00,4.00,0.07,M,M,10.00,M,FEW,SCT,OVC,M,800.00,1300.00,3100.00,M,M,KMVL 011835Z AUTO 36004KT 10SM FEW008 SCT013 OVC031 RMK P0007 MADISHF
MVL,2017-04-01 18:40,-72.6140,44.5346,M,M,M,360.00,4.00,0.08,M,M,10.00,M,FEW,SCT,OVC,M,800.00,1200.00,3100.00,M,M,KMVL 011840Z AUTO 36004KT 10SM FEW008 SCT012 OVC031 RMK P0008 MADISHF
MVL,2017-04-01 18:41,-72.6140,44.5346,34.00,34.00,100.00,340.00,4.00,0.08,29.95,M,10.00,M,FEW,SCT,OVC,M,800.00,1200.00,3100.00,M,M,KMVL 011841Z AUTO 34004KT 10SM FEW008 SCT012 OVC031 01/01 A2995 RMK AO2 UPB19E20SNB1757E19B20E21 P0008 T00110011
MVL,2017-04-01 18:45,-72.6140,44.5346,M,M,M,330.00,4.00,0.09,M,M,10.00,M,FEW,SCT,OVC,M,800.00,1300.00,2900.00,M,M,KMVL 011845Z AUTO 33004KT 10SM FEW008 SCT013 OVC029 RMK P0009 MADISHF
MVL,2017-04-01 18:50,-72.6140,44.5346,M,M,M,320.00,3.00,0.09,29.95,M,10.00,M,SCT,OVC,M,M,1300.00,2900.00,M,M,M,KMVL 011850Z AUTO 32003KT 10SM SCT013 OVC029 A2995 RMK P0009 MADISHF
MVL,2017-04-01 18:54,-72.6140,44.5346,34.00,34.00,100.00,330.00,3.00,0.10,29.95,1015.30,10.00,M,SCT,OVC,M,M,1300.00,3000.00,M,M,M,KMVL 011854Z AUTO 33003KT 10SM SCT013 OVC030 01/01 A2995 RMK AO2 UPB19E20SNB1757E19B20E21 SLP153 P0010 T00110011
MVL,2017-04-01 18:55,-72.6140,44.5346,M,M,M,330.00,4.00,M,M,M,10.00,M,SCT,OVC,M,M,1300.00,3000.00,M,M,M,KMVL 011855Z AUTO 33004KT 10SM SCT013 OVC030 RMK MADISHF
MVL,2017-04-01 19:00,-72.6140,44.5346,M,M,M,340.00,3.00,0.01,M,M,10.00,M,SCT,OVC,M,M,1300.00,2800.00,M,M,M,KMVL 011900Z AUTO 34003KT 10SM SCT013 OVC028 RMK P0001 MADISHF
MVL,2017-04-01 19:05,-72.6140,44.5346,M,M,M,340.00,3.00,0.02,M,M,10.00,M,FEW,FEW,OVC,M,1400.00,2100.00,2800.00,M,M,KMVL 011905Z AUTO 34003KT 10SM FEW014 FEW021 OVC028 RMK P0002 MADISHF
MVL,2017-04-01 19:06,-72.6140,44.5346,35.10,35.10,100.00,350.00,3.00,0.02,29.96,M,10.00,M,FEW,FEW,OVC,M,1400.00,2100.00,2800.00,M,M,KMVL 011906Z AUTO 35003KT 10SM FEW014 FEW021 OVC028 02/02 A2996 RMK AO2 P0002 T00170017 $
MVL,2017-04-01 19:10,-72.6140,44.5346,M,M,M,340.00,4.00,0.03,M,M,10.00,M,FEW,SCT,OVC,M,1400.00,2100.00,2800.00,M,M,KMVL 011910Z AUTO 34004KT 10SM FEW014 SCT021 OVC028 RMK P0003 MADISHF
MVL,2017-04-01 19:15,-72.6140,44.5346,M,M,M,340.00,3.00,0.04,M,M,10.00,M,FEW,FEW,OVC,M,1400.00,2100.00,2800.00,M,M,KMVL 011915Z AUTO 34003KT 10SM FEW014 FEW021 OVC028 RMK P0004 MADISHF
MVL,2017-04-01 19:20,-72.6140,44.5346,M,M,M,360.00,4.00,0.05,M,M,9.00,M,SCT,OVC,M,M,1800.00,2800.00,M,M,-SN,KMVL 011920Z AUTO 36004KT 9SM -SN SCT018 OVC028 RMK P0005 MADISHF
MVL,2017-04-01 19:25,-72.6140,44.5346,M,M,M,10.00,6.00,0.06,29.96,M,6.00,M,SCT,BKN,OVC,M,800.00,1800.00,2800.00,M,-SN BR,KMVL 011925Z AUTO 01006KT 6SM -SN BR SCT008 BKN018 OVC028 A2996 RMK P0006 MADISHF
MVL,2017-04-01 19:27,-72.6140,44.5346,34.00,32.00,92.29,360.00,5.00,0.06,29.96,M,5.00,M,SCT,BKN,OVC,M,800.00,2000.00,2800.00,M,-SN BR,KMVL 011927Z AUTO 36005KT 5SM -SN BR SCT008 BKN020 OVC028 01/00 A2996 RMK AO2 SNB19 P0006 T00110000
MVL,2017-04-01 19:30,-72.6140,44.5346,M,M,M,350.00,4.00,0.07,29.96,M,4.00,M,SCT,BKN,OVC,M,800.00,1999.00,2800.00,M,-SN BR,KMVL 011930Z AUTO 35004KT 4SM -SN BR SCT008 BKN019 OVC028 A2996 RMK P0007 MADISHF
MVL,2017-04-01 19:35,-72.6140,44.5346,M,M,M,350.00,4.00,0.08,29.96,M,4.00,M,SCT,BKN,OVC,M,700.00,1999.00,2600.00,M,-SN BR,KMVL 011935Z AUTO 35004KT 4SM -SN BR SCT007 BKN019 OVC026 A2996 RMK P0008 MADISHF
MVL,2017-04-01 19:40,-72.6140,44.5346,M,M,M,350.00,5.00,0.09,M,M,4.00,M,SCT,OVC,M,M,700.00,2300.00,M,M,-SN BR,KMVL 011940Z AUTO 35005KT 4SM -SN BR SCT007 OVC023 RMK P0009 MADISHF
MVL,2017-04-01 19:45,-72.6140,44.5346,M,M,M,360.00,4.00,0.10,M,M,4.00,M,BKN,OVC,M,M,700.00,2100.00,M,M,-SN BR,KMVL 011945Z AUTO 36004KT 4SM -SN BR BKN007 OVC021 RMK P0010 MADISHF
MVL,2017-04-01 19:49,-72.6140,44.5346,33.80,33.80,100.00,10.00,5.00,0.10,29.96,M,4.00,M,BKN,BKN,OVC,M,700.00,2400.00,2900.00,M,-SN BR,KMVL 011949Z AUTO 01005KT 4SM -SN BR BKN007 BKN024 OVC029 01/01 A2996 RMK AO2 SNB19 P0010
MVL,2017-04-01 19:50,-72.6140,44.5346,M,M,M,10.00,5.00,0.11,29.96,M,4.00,M,BKN,BKN,OVC,M,700.00,2400.00,2900.00,M,-SN BR,KMVL 011950Z AUTO 01005KT 4SM -SN BR BKN007 BKN024 OVC029 A2996 RMK P0011 MADISHF
MVL,2017-04-01 19:54,-72.6140,44.5346,34.00,33.10,96.46,360.00,4.00,0.12,29.96,1015.60,4.00,M,SCT,BKN,OVC,M,700.00,2800.00,4100.00,M,-SN BR,KMVL 011954Z AUTO 36004KT 4SM -SN BR SCT007 BKN028 OVC041 01/01 A2996 RMK AO2 SNB19 SLP156 P0012 T00110006
MVL,2017-04-01 19:55,-72.6140,44.5346,M,M,M,360.00,4.00,M,M,M,5.00,M,FEW,BKN,OVC,M,700.00,2800.00,4100.00,M,-SN BR,KMVL 011955Z AUTO 36004KT 5SM -SN BR FEW007 BKN028 OVC041 RMK MADISHF
MVL,2017-04-01 20:00,-72.6140,44.5346,M,M,M,360.00,4.00,0.01,M,M,6.00,M,FEW,BKN,OVC,M,700.00,3500.00,5000.00,M,UP BR,KMVL 012000Z AUTO 36004KT 6SM UP BR FEW007 BKN035 OVC050 RMK P0001 MADISHF
MVL,2017-04-01 20:02,-72.6140,44.5346,34.00,33.10,96.46,360.00,3.00,0.01,29.97,M,6.00,M,FEW,BKN,OVC,M,700.00,3500.00,5000.00,M,UP BR,KMVL 012002Z AUTO 36003KT 6SM UP BR FEW007 BKN035 OVC050 01/01 A2997 RMK AO2 UPB1959SNE1959 P0001 T00110006
MVL,2017-04-01 20:05,-72.6140,44.5346,M,M,M,360.00,3.00,0.02,M,M,8.00,M,FEW,BKN,OVC,M,700.00,3800.00,5000.00,M,M,KMVL 012005Z AUTO 36003KT 8SM FEW007 BKN038 OVC050 RMK P0002 MADISHF
MVL,2017-04-01 20:10,-72.6140,44.5346,M,M,M,10.00,3.00,0.02,29.97,M,10.00,M,FEW,SCT,OVC,M,700.00,4300.00,5000.00,M,M,KMVL 012010Z AUTO 01003KT 10SM FEW007 SCT043 OVC050 A2997 RMK P0002 MADISHF
MVL,2017-04-01 20:15,-72.6140,44.5346,M,M,M,10.00,3.00,0.03,M,M,10.00,M,FEW,OVC,M,M,4100.00,5000.00,M,M,M,KMVL 012015Z AUTO 01003KT 10SM FEW041 OVC050 RMK P0003 MADISHF
MVL,2017-04-01 20:20,-72.6140,44.5346,M,M,M,0.00,0.00,0.04,M,M,10.00,M,OVC,M,M,M,5000.00,M,M,M,M,KMVL 012020Z AUTO 00000KT 10SM OVC050 RMK P0004 MADISHF
MVL,2017-04-01 20:25,-72.6140,44.5346,M,M,M,0.00,0.00,0.05,M,M,10.00,M,OVC,M,M,M,5000.00,M,M,M,M,KMVL 012025Z AUTO 00000KT 10SM OVC050 RMK P0005 MADISHF
MVL,2017-04-01 20:30,-72.6140,44.5346,M,M,M,0.00,0.00,0.06,29.97,M,10.00,M,OVC,M,M,M,5500.00,M,M,M,M,KMVL 012030Z AUTO 00000KT 10SM OVC055 A2997 RMK P0006 MADISHF
MVL,2017-04-01 20:35,-72.6140,44.5346,M,M,M,0.00,0.00,0.07,M,M,10.00,M,FEW,FEW,OVC,M,900.00,3999.00,5500.00,M,M,KMVL 012035Z AUTO 00000KT 10SM FEW009 FEW039 OVC055 RMK P0007 MADISHF
MVL,2017-04-01 20:40,-72.6140,44.5346,M,M,M,0.00,0.00,0.08,M,M,10.00,M,FEW,SCT,OVC,M,900.00,3999.00,5500.00,M,M,KMVL 012040Z AUTO 00000KT 10SM FEW009 SCT039 OVC055 RMK P0008 MADISHF
MVL,2017-04-01 20:45,-72.6140,44.5346,M,M,M,0.00,0.00,0.09,M,M,10.00,M,FEW,BKN,OVC,M,900.00,3999.00,5500.00,M,M,KMVL 012045Z AUTO 00000KT 10SM FEW009 BKN039 OVC055 RMK P0009 MADISHF
MVL,2017-04-01 20:50,-72.6140,44.5346,M,M,M,0.00,0.00,0.10,29.98,M,10.00,M,FEW,BKN,OVC,M,900.00,3999.00,5500.00,M,M,KMVL 012050Z AUTO 00000KT 10SM FEW009 BKN039 OVC055 A2998 RMK P0010 MADISHF
MVL,2017-04-01 20:54,-72.6140,44.5346,35.10,33.10,92.32,10.00,3.00,0.10,29.98,1016.10,10.00,M,FEW,BKN,OVC,M,900.00,4000.00,5000.00,M,M,KMVL 012054Z AUTO 01003KT 10SM FEW009 BKN040 OVC050 02/01 A2998 RMK AO2 UPB1959E03SNE1959 SLP161 P0010 60032 T00170006 53008
MVL,2017-04-01 20:55,-72.6140,44.5346,M,M,M,10.00,3.00,M,M,M,10.00,M,FEW,BKN,OVC,M,900.00,3999.00,5000.00,M,M,KMVL 012055Z AUTO 01003KT 10SM FEW009 BKN039 OVC050 RMK MADISHF
MVL,2017-04-01 21:00,-72.6140,44.5346,M,M,M,40.00,3.00,0.01,M,M,10.00,M,FEW,BKN,OVC,M,900.00,3999.00,5500.00,M,M,KMVL 012100Z AUTO 04003KT 10SM FEW009 BKN039 OVC055 RMK P0001 MADISHF
MVL,2017-04-01 21:05,-72.6140,44.5346,M,M,M,0.00,0.00,0.01,M,M,10.00,M,SCT,OVC,M,M,3999.00,5500.00,M,M,M,KMVL 012105Z AUTO 00000KT 10SM SCT039 OVC055 RMK P0001 MADISHF
MVL,2017-04-01 21:10,-72.6140,44.5346,M,M,M,0.00,0.00,0.01,29.98,M,10.00,M,FEW,OVC,M,M,3999.00,5500.00,M,M,M,KMVL 012110Z AUTO 00000KT 10SM FEW039 OVC055 A2998 RMK P0001 MADISHF
MVL,2017-04-01 21:15,-72.6140,44.5346,M,M,M,0.00,0.00,0.01,29.98,M,10.00,M,FEW,OVC,M,M,3999.00,5500.00,M,M,M,KMVL 012115Z AUTO 00000KT 10SM FEW039 OVC055 A2998 RMK P0001 MADISHF
MVL,2017-04-01 21:20,-72.6140,44.5346,M,M,M,0.00,0.00,0.01,29.98,M,10.00,M,FEW,OVC,M,M,3999.00,5500.00,M,M,M,KMVL 012120Z AUTO 00000KT 10SM FEW039 OVC055 A2998 RMK P0001 MADISHF
MVL,2017-04-01 21:25,-72.6140,44.5346,M,M,M,0.00,0.00,0.01,M,M,10.00,M,FEW,OVC,M,M,3999.00,5500.00,M,M,M,KMVL 012125Z AUTO 00000KT 10SM FEW039 OVC055 RMK P0001 MADISHF
MVL,2017-04-01 21:30,-72.6140,44.5346,M,M,M,0.00,0.00,0.01,29.98,M,10.00,M,OVC,M,M,M,5000.00,M,M,M,M,KMVL 012130Z AUTO 00000KT 10SM OVC050 A2998 RMK P0001 MADISHF
MVL,2017-04-01 21:35,-72.6140,44.5346,M,M,M,0.00,0.00,0.01,M,M,10.00,M,OVC,M,M,M,5000.00,M,M,M,M,KMVL 012135Z AUTO 00000KT 10SM OVC050 RMK P0001 MADISHF
MVL,2017-04-01 21:40,-72.6140,44.5346,M,M,M,0.00,0.00,0.01,M,M,10.00,M,FEW,OVC,M,M,3999.00,5000.00,M,M,M,KMVL 012140Z AUTO 00000KT 10SM FEW039 OVC050 RMK P0001 MADISHF
MVL,2017-04-01 21:45,-72.6140,44.5346,M,M,M,0.00,0.00,0.01,M,M,10.00,M,FEW,OVC,M,M,3999.00,5000.00,M,M,M,KMVL 012145Z AUTO 00000KT 10SM FEW039 OVC050 RMK P0001 MADISHF
MVL,2017-04-01 21:50,-72.6140,44.5346,M,M,M,0.00,0.00,0.01,M,M,10.00,M,FEW,OVC,M,M,2700.00,4800.00,M,M,M,KMVL 012150Z AUTO 00000KT 10SM FEW027 OVC048 RMK P0001 MADISHF
MVL,2017-04-01 21:54,-72.6140,44.5346,35.10,33.10,92.32,0.00,0.00,0.01,29.99,1016.50,10.00,M,FEW,SCT,OVC,M,2700.00,3500.00,4800.00,M,M,KMVL 012154Z AUTO 00000KT 10SM FEW027 SCT035 OVC048 02/01 A2999 RMK AO2 SLP165 P0001 T00170006
MVL,2017-04-01 21:55,-72.6140,44.5346,M,M,M,0.00,0.00,M,29.99,M,10.00,M,FEW,SCT,OVC,M,2700.00,3500.00,4800.00,M,M,KMVL 012155Z AUTO 00000KT 10SM FEW027 SCT035 OVC048 A2999 RMK MADISHF
MVL,2017-04-01 22:00,-72.6140,44.5346,M,M,M,0.00,0.00,M,29.99,M,10.00,M,FEW,SCT,OVC,M,3100.00,3800.00,4800.00,M,M,KMVL 012200Z AUTO 00000KT 10SM FEW031 SCT038 OVC048 A2999 RMK MADISHF
MVL,2017-04-01 22:05,-72.6140,44.5346,M,M,M,0.00,0.00,M,29.99,M,10.00,M,FEW,OVC,M,M,3100.00,4500.00,M,M,M,KMVL 012205Z AUTO 00000KT 10SM FEW031 OVC045 A2999 RMK MADISHF
MVL,2017-04-01 22:10,-72.6140,44.5346,M,M,M,0.00,0.00,0.01,29.99,M,10.00,M,FEW,BKN,OVC,M,2700.00,3700.00,4700.00,M,-RA,KMVL 012210Z AUTO 00000KT 10SM -RA FEW027 BKN037 OVC047 A2999 RMK P0001 MADISHF
MVL,2017-04-01 22:15,-72.6140,44.5346,M,M,M,0.00,0.00,0.01,29.99,M,10.00,M,FEW,BKN,OVC,M,2700.00,3700.00,4700.00,M,-RA,KMVL 012215Z AUTO 00000KT 10SM -RA FEW027 BKN037 OVC047 A2999 RMK P0001 MADISHF
MVL,2017-04-01 22:20,-72.6140,44.5346,M,M,M,0.00,0.00,0.01,29.99,M,10.00,M,SCT,BKN,OVC,M,2700.00,3700.00,4700.00,M,-RA,KMVL 012220Z AUTO 00000KT 10SM -RA SCT027 BKN037 OVC047 A2999 RMK P0001 MADISHF
MVL,2017-04-01 22:25,-72.6140,44.5346,M,M,M,0.00,0.00,0.02,M,M,10.00,M,SCT,BKN,OVC,M,2700.00,3500.00,4700.00,M,-RA,KMVL 012225Z AUTO 00000KT 10SM -RA SCT027 BKN035 OVC047 RMK P0002 MADISHF
MVL,2017-04-01 22:30,-72.6140,44.5346,M,M,M,20.00,3.00,0.02,M,M,10.00,M,FEW,BKN,OVC,M,1800.00,3300.00,4700.00,M,-RA,KMVL 012230Z AUTO 02003KT 10SM -RA FEW018 BKN033 OVC047 RMK P0002 MADISHF
MVL,2017-04-01 22:35,-72.6140,44.5346,M,M,M,10.00,3.00,0.02,M,M,10.00,M,SCT,BKN,OVC,M,1600.00,2600.00,3300.00,M,-RA,KMVL 012235Z AUTO 01003KT 10SM -RA SCT016 BKN026 OVC033 RMK P0002 MADISHF
MVL,2017-04-01 22:37,-72.6140,44.5346,34.00,33.10,96.46,10.00,3.00,0.02,29.99,M,10.00,M,FEW,BKN,OVC,M,1200.00,2600.00,3100.00,M,-RA,KMVL 012237Z AUTO 01003KT 10SM -RA FEW012 BKN026 OVC031 01/01 A2999 RMK AO2 UPB06E23RAB10 P0002 T00110006
MVL,2017-04-01 22:40,-72.6140,44.5346,M,M,M,10.00,3.00,0.02,29.99,M,10.00,M,SCT,BKN,OVC,M,1100.00,1600.00,2700.00,M,-RA,KMVL 012240Z AUTO 01003KT 10SM -RA SCT011 BKN016 OVC027 A2999 RMK P0002 MADISHF
MVL,2017-04-01 22:45,-72.6140,44.5346,M,M,M,30.00,3.00,0.03,29.99,M,10.00,M,BKN,BKN,OVC,M,1100.00,1600.00,2700.00,M,-RA,KMVL 012245Z AUTO 03003KT 10SM -RA BKN011 BKN016 OVC027 A2999 RMK P0003 MADISHF
MVL,2017-04-01 22:50,-72.6140,44.5346,33.80,33.80,100.00,0.00,0.00,0.03,29.99,M,10.00,M,BKN,BKN,OVC,M,1100.00,1900.00,2700.00,M,-RA,KMVL 012250Z AUTO 00000KT 10SM -RA BKN011 BKN019 OVC027 01/01 A2999 RMK AO2 UPB06E23RAB10 P0003
MVL,2017-04-01 22:54,-72.6140,44.5346,34.00,34.00,100.00,0.00,0.00,0.03,29.99,1016.50,10.00,M,SCT,BKN,OVC,M,1100.00,1700.00,2400.00,M,-RA,KMVL 012254Z AUTO 00000KT 10SM -RA SCT011 BKN017 OVC024 01/01 A2999 RMK AO2 UPB06E23RAB10 SLP165 P0003 T00110011
MVL,2017-04-01 22:55,-72.6140,44.5346,M,M,M,0.00,0.00,M,29.99,M,10.00,M,SCT,BKN,OVC,M,1100.00,1699.00,2400.00,M,-RA,KMVL 012255Z AUTO 00000KT 10SM -RA SCT011 BKN016 OVC024 A2999 RMK MADISHF
MVL,2017-04-01 23:00,-72.6140,44.5346,M,M,M,0.00,0.00,M,29.99,M,10.00,M,BKN,BKN,OVC,M,1100.00,1699.00,2400.00,M,-RA,KMVL 012300Z AUTO 00000KT 10SM -RA BKN011 BKN016 OVC024 A2999 RMK MADISHF
MVL,2017-04-01 23:02,-72.6140,44.5346,34.00,34.00,100.00,0.00,0.00,0.00,29.99,M,10.00,M,BKN,BKN,OVC,M,1100.00,2000.00,2400.00,M,-RA,KMVL 012302Z AUTO 00000KT 10SM -RA BKN011 BKN020 OVC024 01/01 A2999 RMK AO2 P0000 T00110011
MVL,2017-04-01 23:05,-72.6140,44.5346,M,M,M,0.00,0.00,0.01,29.99,M,10.00,M,BKN,BKN,OVC,M,1100.00,1999.00,2400.00,M,-RA,KMVL 012305Z AUTO 00000KT 10SM -RA BKN011 BKN019 OVC024 A2999 RMK P0001 CIG 8V12  MADISHF
MVL,2017-04-01 23:10,-72.6140,44.5346,M,M,M,0.00,0.00,0.01,29.99,M,10.00,M,BKN,BKN,OVC,M,900.00,1300.00,2500.00,M,-RA,KMVL 012310Z AUTO 00000KT 10SM -RA BKN009 BKN013 OVC025 A2999 RMK P0001 MADISHF
MVL,2017-04-01 23:12,-72.6140,44.5346,34.00,34.00,100.00,0.00,0.00,0.01,29.99,M,10.00,M,BKN,BKN,OVC,M,900.00,1300.00,2500.00,M,-RA,KMVL 012312Z AUTO 00000KT 10SM -RA BKN009 BKN013 OVC025 01/01 A2999 RMK AO2 P0001 T00110011
MVL,2017-04-01 23:15,-72.6140,44.5346,M,M,M,0.00,0.00,0.01,29.99,M,10.00,M,BKN,BKN,OVC,M,900.00,1999.00,2500.00,M,-RA,KMVL 012315Z AUTO 00000KT 10SM -RA BKN009 BKN019 OVC025 A2999 RMK P0001 CIG 6V11  MADISHF
MVL,2017-04-01 23:20,-72.6140,44.5346,M,M,M,0.00,0.00,0.01,29.99,M,10.00,M,BKN,OVC,M,M,700.00,2500.00,M,M,-RA,KMVL 012320Z AUTO 00000KT 10SM -RA BKN007 OVC025 A2999 RMK P0001 CIG 5V10  MADISHF
MVL,2017-04-01 23:25,-72.6140,44.5346,M,M,M,0.00,0.00,0.01,29.99,M,10.00,M,BKN,OVC,M,M,700.00,2500.00,M,M,-RA,KMVL 012325Z AUTO 00000KT 10SM -RA BKN007 OVC025 A2999 RMK P0001 CIG 5V10  MADISHF
MVL,2017-04-01 23:30,-72.6140,44.5346,M,M,M,0.00,0.00,0.01,29.99,M,10.00,M,OVC,M,M,M,700.00,M,M,M,-RA,KMVL 012330Z AUTO 00000KT 10SM -RA OVC007 A2999 RMK P0001 CIG 4V9  MADISHF
MVL,2017-04-01 23:35,-72.6140,44.5346,M,M,M,30.00,3.00,0.01,29.99,M,10.00,M,OVC,M,M,M,600.00,M,M,M,M,KMVL 012335Z AUTO 03003KT 10SM OVC006 A2999 RMK P0001 CIG 4V9  MADISHF
MVL,2017-04-01 23:40,-72.6140,44.5346,M,M,M,0.00,0.00,0.02,29.99,M,10.00,M,OVC,M,M,M,600.00,M,M,M,M,KMVL 012340Z AUTO 00000KT 10SM OVC006 A2999 RMK P0002 CIG 4V8  MADISHF
MVL,2017-04-01 23:45,-72.6140,44.5346,M,M,M,0.00,0.00,0.02,29.99,M,10.00,M,OVC,M,M,M,600.00,M,M,M,UP,KMVL 012345Z AUTO 00000KT 10SM UP OVC006 A2999 RMK P0002 CIG 4V9  MADISHF
MVL,2017-04-01 23:50,-72.6140,44.5346,M,M,M,0.00,0.00,0.02,29.99,M,10.00,M,OVC,M,M,M,800.00,M,M,M,UP,KMVL 012350Z AUTO 00000KT 10SM UP OVC008 A2999 RMK P0002 CIG 4V11  MADISHF
MVL,2017-04-01 23:54,-72.6140,44.5346,33.10,33.10,100.00,20.00,3.00,0.02,29.99,1016.60,10.00,M,OVC,M,M,M,800.00,M,M,M,M,KMVL 012354Z AUTO 02003KT 10SM OVC008 01/01 A2999 RMK AO2 RAE35B51E52UPB41E51 CIG 004V011 SLP166 P0002 60038 T00060006 10017 20006 53001
MVL,2017-04-01 23:55,-72.6140,44.5346,M,M,M,20.00,3.00,M,29.99,M,10.00,M,OVC,M,M,M,800.00,M,M,M,M,KMVL 012355Z AUTO 02003KT 10SM OVC008 A2999 RMK CIG 4V11  MADISHF
