#DEBUG: Format Typ    -> comma
#DEBUG: Time Period   -> 2017-04-01 00:00:00+00:00 2017-04-02 00:00:00+00:00
#DEBUG: Time Zone     -> Etc/UTC
#DEBUG: Data Contact   -> daryl herzmann akrherz@iastate.edu 515-294-5978
#DEBUG: Entries Found -> -1
station,valid,lon,lat,tmpf, dwpf, relh, drct, sknt, p01i, alti, mslp, vsby, gust, skyc1, skyc2, skyc3, skyc4, skyl1, skyl2, skyl3, skyl4, presentwx, metar
MVY,2017-04-01 00:00,-70.6150,41.3931,M,M,M,100.00,13.00,M,30.01,M,8.00,M,SCT,BKN,OVC,M,1200.00,1999.00,3000.00,M,-RA,KMVY 010000Z AUTO 10013KT 8SM -RA SCT012 BKN019 OVC030 A3001 RMK MADISHF
MVY,2017-04-01 00:05,-70.6150,41.3931,M,M,M,90.00,14.00,M,30.01,M,8.00,20.00,FEW,BKN,OVC,M,1200.00,1999.00,3100.00,M,-RA,KMVY 010005Z AUTO 09014G20KT 8SM -RA FEW012 BKN019 OVC031 A3001 RMK MADISHF
MVY,2017-04-01 00:10,-70.6150,41.3931,M,M,M,100.00,16.00,0.01,30.00,M,7.00,M,SCT,SCT,OVC,M,1200.00,1999.00,3100.00,M,-RA,KMVY 010010Z AUTO 10016KT 7SM -RA SCT012 SCT019 OVC031 A3000 RMK P0001 MADISHF
MVY,2017-04-01 00:15,-70.6150,41.3931,M,M,M,90.00,14.00,0.01,30.00,M,6.00,M,SCT,BKN,OVC,M,1200.00,1999.00,3100.00,M,-RA BR,KMVY 010015Z AUTO 09014KT 6SM -RA BR SCT012 BKN019 OVC031 A3000 RMK P0001 MADISHF
MVY,2017-04-01 00:20,-70.6150,41.3931,M,M,M,100.00,16.00,0.01,30.00,M,6.00,M,BKN,BKN,OVC,M,1300.00,1999.00,3100.00,M,-RA BR,KMVY 010020Z AUTO 10016KT 6SM -RA BR BKN013 BKN019 OVC031 A3000 RMK P0001 MADISHF
MVY,2017-04-01 00:25,-70.6150,41.3931,M,M,M,90.00,14.00,0.02,30.00,M,7.00,M,BKN,BKN,OVC,M,1300.00,1999.00,3100.00,M,-RA,KMVY 010025Z AUTO 09014KT 7SM -RA BKN013 BKN019 OVC031 A3000 RMK P0002 MADISHF
MVY,2017-04-01 00:26,-70.6150,41.3931,37.00,33.10,85.64,90.00,15.00,0.02,30.00,M,7.00,24.00,FEW,BKN,OVC,M,1000.00,1300.00,3100.00,M,-RA,KMVY 010026Z AUTO 09015G24KT 7SM -RA FEW010 BKN013 OVC031 03/01 A3000 RMK AO2 P0002 T00280006 TSNO
MVY,2017-04-01 00:30,-70.6150,41.3931,M,M,M,90.00,14.00,0.02,30.00,M,7.00,M,FEW,BKN,OVC,M,999.00,1500.00,3100.00,M,-RA,KMVY 010030Z AUTO 09014KT 7SM -RA FEW009 BKN015 OVC031 A3000 RMK P0002 MADISHF
MVY,2017-04-01 00:35,-70.6150,41.3931,M,M,M,90.00,15.00,0.03,30.00,M,7.00,M,BKN,BKN,OVC,M,1200.00,1900.00,3100.00,M,-RA,KMVY 010035Z AUTO 09015KT 7SM -RA BKN012 BKN019 OVC031 A3000 RMK P0003 MADISHF
MVY,2017-04-01 00:40,-70.6150,41.3931,M,M,M,90.00,17.00,0.03,30.00,M,8.00,M,SCT,BKN,OVC,M,1200.00,1900.00,3100.00,M,-RA,KMVY 010040Z AUTO 09017KT 8SM -RA SCT012 BKN019 OVC031 A3000 RMK P0003 MADISHF
MVY,2017-04-01 00:45,-70.6150,41.3931,M,M,M,90.00,17.00,0.03,29.99,M,8.00,M,SCT,BKN,OVC,M,1200.00,2200.00,3100.00,M,-RA,KMVY 010045Z AUTO 09017KT 8SM -RA SCT012 BKN022 OVC031 A2999 RMK P0003 MADISHF
MVY,2017-04-01 00:50,-70.6150,41.3931,37.40,33.80,86.69,90.00,12.00,0.04,30.00,M,7.00,23.00,SCT,BKN,OVC,M,1200.00,2000.00,3100.00,M,-RA,KMVY 010050Z AUTO 09012G23KT 7SM -RA SCT012 BKN020 OVC031 03/01 A3000 RMK AO2 P0004 TSNO
MVY,2017-04-01 00:53,-70.6150,41.3931,37.00,34.00,88.78,100.00,13.00,0.04,29.99,1015.70,7.00,23.00,SCT,BKN,OVC,M,1200.00,2000.00,3100.00,M,-RA,KMVY 010053Z AUTO 10013G23KT 7SM -RA SCT012 BKN020 OVC031 03/01 A2999 RMK AO2 SLP157 P0004 T00280011 TSNO
MVY,2017-04-01 00:55,-70.6150,41.3931,M,M,M,100.00,16.00,M,29.99,M,7.00,M,SCT,BKN,OVC,M,1200.00,1999.00,3100.00,M,-RA,KMVY 010055Z AUTO 10016KT 7SM -RA SCT012 BKN019 OVC031 A2999 RMK MADISHF
MVY,2017-04-01 01:00,-70.6150,41.3931,M,M,M,100.00,15.00,0.01,29.99,M,7.00,M,SCT,BKN,OVC,M,1200.00,1999.00,3000.00,M,-RA,KMVY 010100Z AUTO 10015KT 7SM -RA SCT012 BKN019 OVC030 A2999 RMK P0001 MADISHF
MVY,2017-04-01 01:05,-70.6150,41.3931,M,M,M,90.00,17.00,0.02,29.98,M,6.00,M,SCT,BKN,OVC,M,1200.00,1999.00,3000.00,M,RA BR,KMVY 010105Z AUTO 09017KT 6SM RA BR SCT012 BKN019 OVC030 A2998 RMK P0002 MADISHF
MVY,2017-04-01 01:10,-70.6150,41.3931,M,M,M,100.00,17.00,0.02,29.98,M,6.00,M,SCT,BKN,OVC,M,1200.00,1900.00,3000.00,M,RA BR,KMVY 010110Z AUTO 10017KT 6SM RA BR SCT012 BKN019 OVC030 A2998 RMK P0002 MADISHF
MVY,2017-04-01 01:15,-70.6150,41.3931,M,M,M,90.00,14.00,0.03,29.97,M,6.00,M,SCT,BKN,OVC,M,1200.00,2100.00,3000.00,M,RA BR,KMVY 010115Z AUTO 09014KT 6SM RA BR SCT012 BKN021 OVC030 A2997 RMK P0003 MADISHF
MVY,2017-04-01 01:20,-70.6150,41.3931,M,M,M,90.00,12.00,0.04,29.97,M,6.00,M,SCT,BKN,OVC,M,999.00,1400.00,3000.00,M,RA BR,KMVY 010120Z AUTO 09012KT 6SM RA BR SCT009 BKN014 OVC030 A2997 RMK P0004 MADISHF
MVY,2017-04-01 01:22,-70.6150,41.3931,37.00,34.00,88.78,90.00,17.00,0.04,29.97,M,6.00,23.00,SCT,BKN,OVC,M,1000.00,1400.00,3000.00,M,RA BR,KMVY 010122Z AUTO 09017G23KT 6SM RA BR SCT010 BKN014 OVC030 03/01 A2997 RMK AO2 P0004 T00280011 TSNO
MVY,2017-04-01 01:25,-70.6150,41.3931,M,M,M,100.00,18.00,0.05,29.97,M,5.00,M,SCT,BKN,OVC,M,1200.00,1900.00,3000.00,M,RA BR,KMVY 010125Z AUTO 10018KT 5SM RA BR SCT012 BKN019 OVC030 A2997 RMK P0005 MADISHF
MVY,2017-04-01 01:29,-70.6150,41.3931,37.00,34.00,88.78,100.00,13.00,0.05,29.97,M,5.00,24.00,SCT,BKN,OVC,M,1000.00,1900.00,2900.00,M,RA BR,KMVY 010129Z AUTO 10013G24KT 5SM RA BR SCT010 BKN019 OVC029 03/01 A2997 RMK AO2 P0005 T00280011 TSNO
MVY,2017-04-01 01:30,-70.6150,41.3931,M,M,M,90.00,14.00,0.05,29.97,M,5.00,M,SCT,BKN,OVC,M,999.00,1900.00,2900.00,M,RA BR,KMVY 010130Z AUTO 09014KT 5SM RA BR SCT009 BKN019 OVC029 A2997 RMK P0005 MADISHF
MVY,2017-04-01 01:35,-70.6150,41.3931,M,M,M,90.00,19.00,0.06,29.97,M,5.00,M,SCT,BKN,OVC,M,999.00,1900.00,2900.00,M,RA BR,KMVY 010135Z AUTO 09019KT 5SM RA BR SCT009 BKN019 OVC029 A2997 RMK P0006 MADISHF
MVY,2017-04-01 01:40,-70.6150,41.3931,M,M,M,100.00,15.00,0.07,29.96,M,5.00,M,SCT,BKN,OVC,M,999.00,1699.00,2700.00,M,RA BR,KMVY 010140Z AUTO 10015KT 5SM RA BR SCT009 BKN016 OVC027 A2996 RMK P0007 MADISHF
MVY,2017-04-01 01:45,-70.6150,41.3931,M,M,M,100.00,17.00,0.07,29.96,M,6.00,M,BKN,BKN,OVC,M,999.00,1900.00,2800.00,M,RA BR,KMVY 010145Z AUTO 10017KT 6SM RA BR BKN009 BKN019 OVC028 A2996 RMK P0007 MADISHF
MVY,2017-04-01 01:50,-70.6150,41.3931,M,M,M,100.00,18.00,0.08,29.96,M,6.00,M,BKN,BKN,OVC,M,999.00,1900.00,2700.00,M,RA BR,KMVY 010150Z AUTO 10018KT 6SM RA BR BKN009 BKN019 OVC027 A2996 RMK P0008 MADISHF
MVY,2017-04-01 01:51,-70.6150,41.3931,37.40,33.80,86.69,100.00,15.00,0.08,29.96,M,6.00,28.00,BKN,BKN,OVC,M,1000.00,1900.00,2700.00,M,RA BR,KMVY 010151Z AUTO 10015G28KT 6SM RA BR BKN010 BKN019 OVC027 03/01 A2996 RMK AO2 PK WND 11028/0149 P0008 TSNO
MVY,2017-04-01 01:53,-70.6150,41.3931,37.00,34.00,88.78,100.00,14.00,0.09,29.96,1014.50,5.00,28.00,SCT,BKN,OVC,M,1000.00,1900.00,2700.00,M,RA BR,KMVY 010153Z AUTO 10014G28KT 5SM RA BR SCT010 BKN019 OVC027 03/01 A2996 RMK AO2 PK WND 11028/0149 SLP145 P0009 T00280011 TSNO
MVY,2017-04-01 01:55,-70.6150,41.3931,M,M,M,100.00,16.00,M,29.96,M,5.00,M,SCT,BKN,OVC,M,999.00,1900.00,2700.00,M,RA BR,KMVY 010155Z AUTO 10016KT 5SM RA BR SCT009 BKN019 OVC027 A2996 RMK MADISHF
MVY,2017-04-01 02:00,-70.6150,41.3931,M,M,M,100.00,15.00,0.01,29.95,M,5.00,M,SCT,BKN,OVC,M,999.00,1600.00,2400.00,M,RA BR,KMVY 010200Z AUTO 10015KT 5SM RA BR SCT009 BKN016 OVC024 A2995 RMK P0001 MADISHF
MVY,2017-04-01 02:05,-70.6150,41.3931,M,M,M,100.00,17.00,0.02,29.95,M,5.00,M,SCT,BKN,OVC,M,999.00,1300.00,2400.00,M,RA BR,KMVY 010205Z AUTO 10017KT 5SM RA BR SCT009 BKN013 OVC024 A2995 RMK P0002 MADISHF
MVY,2017-04-01 02:10,-70.6150,41.3931,37.00,34.00,88.78,100.00,18.00,0.02,29.94,M,5.00,24.00,SCT,BKN,OVC,M,1000.00,1300.00,2300.00,M,RA BR,KMVY 010210Z AUTO 10018G24KT 5SM RA BR SCT010 BKN013 OVC023 03/01 A2994 RMK AO2 P0002 T00280011 TSNO
MVY,2017-04-01 02:15,-70.6150,41.3931,M,M,M,90.00,17.00,0.03,29.94,M,6.00,M,SCT,BKN,OVC,M,999.00,1500.00,2500.00,M,RA BR,KMVY 010215Z AUTO 09017KT 6SM RA BR SCT009 BKN015 OVC025 A2994 RMK P0003 MADISHF
MVY,2017-04-01 02:20,-70.6150,41.3931,M,M,M,100.00,16.00,0.04,29.93,M,6.00,M,SCT,BKN,OVC,M,999.00,1400.00,2500.00,M,RA BR,KMVY 010220Z AUTO 10016KT 6SM RA BR SCT009 BKN014 OVC025 A2993 RMK P0004 MADISHF
MVY,2017-04-01 02:25,-70.6150,41.3931,M,M,M,90.00,18.00,0.04,29.93,M,6.00,M,SCT,BKN,OVC,M,999.00,1400.00,2500.00,M,RA BR,KMVY 010225Z AUTO 09018KT 6SM RA BR SCT009 BKN014 OVC025 A2993 RMK P0004 MADISHF
MVY,2017-04-01 02:30,-70.6150,41.3931,M,M,M,100.00,17.00,0.05,29.93,M,5.00,M,SCT,BKN,OVC,M,999.00,1400.00,2500.00,M,RA BR,KMVY 010230Z AUTO 10017KT 5SM RA BR SCT009 BKN014 OVC025 A2993 RMK P0005 MADISHF
MVY,2017-04-01 02:35,-70.6150,41.3931,M,M,M,90.00,18.00,0.05,29.92,M,5.00,M,SCT,BKN,OVC,M,999.00,1400.00,2500.00,M,RA BR,KMVY 010235Z AUTO 09018KT 5SM RA BR SCT009 BKN014 OVC025 A2992 RMK P0005 MADISHF
MVY,2017-04-01 02:40,-70.6150,41.3931,M,M,M,100.00,19.00,0.06,29.92,M,5.00,M,FEW,SCT,OVC,M,999.00,1600.00,2500.00,M,RA BR,KMVY 010240Z AUTO 10019KT 5SM RA BR FEW009 SCT016 OVC025 A2992 RMK P0006 MADISHF
MVY,2017-04-01 02:42,-70.6150,41.3931,37.00,34.00,88.78,100.00,19.00,0.06,29.92,M,5.00,26.00,FEW,SCT,OVC,M,1000.00,1600.00,2500.00,M,RA BR,KMVY 010242Z AUTO 10019G26KT 5SM RA BR FEW010 SCT016 OVC025 03/01 A2992 RMK AO2 PK WND 10026/0231 P0006 T00280011 TSNO
MVY,2017-04-01 02:45,-70.6150,41.3931,M,M,M,90.00,17.00,0.07,29.91,M,5.00,M,FEW,SCT,OVC,M,999.00,1600.00,2500.00,M,RA BR,KMVY 010245Z AUTO 09017KT 5SM RA BR FEW009 SCT016 OVC025 A2991 RMK P0007 MADISHF
MVY,2017-04-01 02:50,-70.6150,41.3931,M,M,M,100.00,16.00,0.08,29.91,M,5.00,M,FEW,SCT,OVC,M,800.00,1400.00,2500.00,M,RA BR,KMVY 010250Z AUTO 10016KT 5SM RA BR FEW008 SCT014 OVC025 A2991 RMK P0008 MADISHF
MVY,2017-04-01 02:53,-70.6150,41.3931,37.00,35.10,92.76,90.00,16.00,0.08,29.91,1012.80,5.00,25.00,FEW,SCT,OVC,M,800.00,1400.00,2400.00,M,-RA BR,KMVY 010253Z AUTO 09016G25KT 5SM -RA BR FEW008 SCT014 OVC024 03/02 A2991 RMK AO2 PK WND 10026/0231 SLP128 P0008 60021 T00280017 58029 TSNO
MVY,2017-04-01 02:55,-70.6150,41.3931,M,M,M,90.00,21.00,M,29.91,M,5.00,M,FEW,BKN,OVC,M,800.00,1400.00,2400.00,M,-RA BR,KMVY 010255Z AUTO 09021KT 5SM -RA BR FEW008 BKN014 OVC024 A2991 RMK MADISHF
MVY,2017-04-01 03:00,-70.6150,41.3931,37.90,35.10,89.53,90.00,18.00,0.01,29.91,M,6.00,27.00,SCT,BKN,OVC,M,1000.00,1400.00,2400.00,M,-RA BR,KMVY 010300Z AUTO 09018G27KT 6SM -RA BR SCT010 BKN014 OVC024 03/02 A2991 RMK AO2 PK WND 09027/0254 P0001 T00330017 TSNO
MVY,2017-04-01 03:05,-70.6150,41.3931,M,M,M,90.00,17.00,0.01,29.90,M,7.00,M,BKN,OVC,M,M,999.00,2400.00,M,M,-RA,KMVY 010305Z AUTO 09017KT 7SM -RA BKN009 OVC024 A2990 RMK P0001 MADISHF
MVY,2017-04-01 03:10,-70.6150,41.3931,M,M,M,90.00,16.00,0.02,29.90,M,7.00,M,BKN,BKN,OVC,M,999.00,1600.00,2400.00,M,-RA,KMVY 010310Z AUTO 09016KT 7SM -RA BKN009 BKN016 OVC024 A2990 RMK P0002 MADISHF
MVY,2017-04-01 03:15,-70.6150,41.3931,M,M,M,90.00,19.00,0.02,29.90,M,7.00,M,BKN,OVC,M,M,999.00,1600.00,M,M,-RA,KMVY 010315Z AUTO 09019KT 7SM -RA BKN009 OVC016 A2990 RMK P0002 MADISHF
MVY,2017-04-01 03:20,-70.6150,41.3931,M,M,M,100.00,20.00,0.03,29.90,M,6.00,M,BKN,OVC,M,M,999.00,1400.00,M,M,RA BR,KMVY 010320Z AUTO 10020KT 6SM RA BR BKN009 OVC014 A2990 RMK P0003 MADISHF
MVY,2017-04-01 03:25,-70.6150,41.3931,M,M,M,90.00,18.00,0.04,29.90,M,5.00,M,BKN,OVC,M,M,999.00,1400.00,M,M,RA BR,KMVY 010325Z AUTO 09018KT 5SM RA BR BKN009 OVC014 A2990 RMK P0004 MADISHF
MVY,2017-04-01 03:30,-70.6150,41.3931,M,M,M,90.00,20.00,0.05,29.89,M,5.00,M,BKN,OVC,M,M,999.00,1600.00,M,M,RA BR,KMVY 010330Z AUTO 09020KT 5SM RA BR BKN009 OVC016 A2989 RMK P0005 MADISHF
MVY,2017-04-01 03:35,-70.6150,41.3931,M,M,M,90.00,21.00,0.07,29.89,M,4.00,M,BKN,BKN,OVC,M,999.00,1600.00,2300.00,M,RA BR,KMVY 010335Z AUTO 09021KT 4SM RA BR BKN009 BKN016 OVC023 A2989 RMK P0007 MADISHF
MVY,2017-04-01 03:40,-70.6150,41.3931,M,M,M,90.00,21.00,0.07,29.88,M,5.00,M,BKN,BKN,OVC,M,1200.00,1900.00,2300.00,M,-RA BR,KMVY 010340Z AUTO 09021KT 5SM -RA BR BKN012 BKN019 OVC023 A2988 RMK P0007 MADISHF
MVY,2017-04-01 03:45,-70.6150,41.3931,M,M,M,90.00,18.00,0.07,29.88,M,6.00,M,BKN,BKN,OVC,M,999.00,1699.00,2300.00,M,-RA BR,KMVY 010345Z AUTO 09018KT 6SM -RA BR BKN009 BKN016 OVC023 A2988 RMK P0007 MADISHF
MVY,2017-04-01 03:50,-70.6150,41.3931,M,M,M,90.00,18.00,0.08,29.88,M,7.00,M,BKN,OVC,M,M,999.00,1900.00,M,M,-RA,KMVY 010350Z AUTO 09018KT 7SM -RA BKN009 OVC019 A2988 RMK P0008 CIG 7V17  MADISHF
MVY,2017-04-01 03:53,-70.6150,41.3931,37.90,35.10,89.53,90.00,14.00,0.08,29.88,1011.80,6.00,25.00,BKN,OVC,M,M,1000.00,1700.00,M,M,-RA BR,KMVY 010353Z AUTO 09014G25KT 6SM -RA BR BKN010 OVC017 03/02 A2988 RMK AO2 PK WND 09028/0336 CIG 007V013 SLP118 P0008 T00330017 TSNO
MVY,2017-04-01 03:55,-70.6150,41.3931,M,M,M,90.00,18.00,0.01,29.88,M,6.00,M,BKN,BKN,OVC,M,999.00,1300.00,2100.00,M,-RA BR,KMVY 010355Z AUTO 09018KT 6SM -RA BR BKN009 BKN013 OVC021 A2988 RMK P0001 CIG 7V10  MADISHF
MVY,2017-04-01 04:00,-70.6150,41.3931,M,M,M,90.00,18.00,0.02,29.88,M,5.00,M,BKN,OVC,M,M,999.00,1699.00,M,M,RA BR,KMVY 010400Z AUTO 09018KT 5SM RA BR BKN009 OVC016 A2988 RMK P0002 CIG 7V13  MADISHF
MVY,2017-04-01 04:05,-70.6150,41.3931,M,M,M,100.00,18.00,0.03,29.88,M,5.00,M,BKN,OVC,M,M,999.00,1699.00,M,M,RA BR,KMVY 010405Z AUTO 10018KT 5SM RA BR BKN009 OVC016 A2988 RMK P0003 CIG 7V15  MADISHF
MVY,2017-04-01 04:10,-70.6150,41.3931,M,M,M,90.00,18.00,0.04,29.88,M,5.00,M,BKN,OVC,M,M,999.00,2300.00,M,M,RA BR,KMVY 010410Z AUTO 09018KT 5SM RA BR BKN009 OVC023 A2988 RMK P0004 CIG 7V15  MADISHF
MVY,2017-04-01 04:15,-70.6150,41.3931,M,M,M,90.00,20.00,0.05,29.87,M,5.00,M,BKN,OVC,M,M,999.00,2300.00,M,M,RA BR,KMVY 010415Z AUTO 09020KT 5SM RA BR BKN009 OVC023 A2987 RMK P0005 MADISHF
MVY,2017-04-01 04:20,-70.6150,41.3931,M,M,M,90.00,17.00,0.05,29.87,M,5.00,M,BKN,BKN,OVC,M,999.00,1400.00,2300.00,M,RA BR,KMVY 010420Z AUTO 09017KT 5SM RA BR BKN009 BKN014 OVC023 A2987 RMK P0005 CIG 7V13  MADISHF
MVY,2017-04-01 04:25,-70.6150,41.3931,M,M,M,90.00,19.00,0.06,29.87,M,5.00,M,BKN,BKN,OVC,M,999.00,1800.00,2300.00,M,RA BR,KMVY 010425Z AUTO 09019KT 5SM RA BR BKN009 BKN018 OVC023 A2987 RMK P0006 MADISHF
MVY,2017-04-01 04:30,-70.6150,41.3931,M,M,M,90.00,19.00,0.07,29.87,M,4.00,M,BKN,OVC,M,M,1200.00,2100.00,M,M,RA BR,KMVY 010430Z AUTO 09019KT 4SM RA BR BKN012 OVC021 A2987 RMK P0007 MADISHF
MVY,2017-04-01 04:35,-70.6150,41.3931,M,M,M,90.00,21.00,0.08,29.86,M,4.00,M,SCT,BKN,OVC,M,999.00,1400.00,2100.00,M,RA BR,KMVY 010435Z AUTO 09021KT 4SM RA BR SCT009 BKN014 OVC021 A2986 RMK P0008 MADISHF
MVY,2017-04-01 04:40,-70.6150,41.3931,M,M,M,90.00,17.00,0.10,29.86,M,3.00,M,SCT,BKN,OVC,M,999.00,1400.00,2100.00,M,RA BR,KMVY 010440Z AUTO 09017KT 3SM RA BR SCT009 BKN014 OVC021 A2986 RMK P0010 MADISHF
MVY,2017-04-01 04:45,-70.6150,41.3931,M,M,M,90.00,23.00,0.11,29.85,M,4.00,M,FEW,SCT,OVC,M,999.00,1300.00,2100.00,M,RA BR,KMVY 010445Z AUTO 09023KT 4SM RA BR FEW009 SCT013 OVC021 A2985 RMK P0011 MADISHF
MVY,2017-04-01 04:49,-70.6150,41.3931,37.40,35.60,93.14,90.00,15.00,0.11,29.85,M,4.00,29.00,FEW,SCT,OVC,M,1000.00,1300.00,2100.00,M,RA BR,KMVY 010449Z AUTO 09015G29KT 4SM RA BR FEW010 SCT013 OVC021 03/02 A2985 RMK AO2 PK WND 11030/0422 P0011 TSNO
MVY,2017-04-01 04:50,-70.6150,41.3931,M,M,M,90.00,15.00,0.11,29.85,M,4.00,M,SCT,SCT,OVC,M,999.00,1300.00,2100.00,M,RA BR,KMVY 010450Z AUTO 09015KT 4SM RA BR SCT009 SCT013 OVC021 A2985 RMK P0011 MADISHF
MVY,2017-04-01 04:53,-70.6150,41.3931,37.90,35.10,89.53,90.00,20.00,0.12,29.85,1010.70,4.00,29.00,SCT,BKN,OVC,M,1000.00,1300.00,2100.00,M,RA BR,KMVY 010453Z AUTO 09020G29KT 4SM RA BR SCT010 BKN013 OVC021 03/02 A2985 RMK AO2 PK WND 11030/0422 SLP107 P0012 T00330017 400560022 TSNO
MVY,2017-04-01 04:55,-70.6150,41.3931,M,M,M,90.00,21.00,M,29.84,M,4.00,M,SCT,BKN,OVC,M,999.00,1300.00,2100.00,M,RA BR,KMVY 010455Z AUTO 09021KT 4SM RA BR SCT009 BKN013 OVC021 A2984 RMK MADISHF
MVY,2017-04-01 05:00,-70.6150,41.3931,M,M,M,90.00,18.00,0.01,29.85,M,5.00,M,BKN,OVC,M,M,999.00,1900.00,M,M,-RA BR,KMVY 010500Z AUTO 09018KT 5SM -RA BR BKN009 OVC019 A2985 RMK P0001 MADISHF
MVY,2017-04-01 05:05,-70.6150,41.3931,M,M,M,90.00,21.00,0.01,29.84,M,5.00,M,BKN,OVC,M,M,999.00,1900.00,M,M,RA BR,KMVY 010505Z AUTO 09021KT 5SM RA BR BKN009 OVC019 A2984 RMK P0001 MADISHF
MVY,2017-04-01 05:10,-70.6150,41.3931,M,M,M,90.00,19.00,0.02,29.84,M,5.00,M,BKN,BKN,OVC,M,999.00,1400.00,1999.00,M,RA BR,KMVY 010510Z AUTO 09019KT 5SM RA BR BKN009 BKN014 OVC019 A2984 RMK P0002 CIG 7V12  MADISHF
MVY,2017-04-01 05:15,-70.6150,41.3931,M,M,M,90.00,18.00,0.03,29.84,M,5.00,M,BKN,OVC,M,M,999.00,1400.00,M,M,RA BR,KMVY 010515Z AUTO 09018KT 5SM RA BR BKN009 OVC014 A2984 RMK P0003 CIG 7V12  MADISHF
MVY,2017-04-01 05:20,-70.6150,41.3931,M,M,M,90.00,17.00,0.04,29.84,M,5.00,M,BKN,OVC,M,M,999.00,1600.00,M,M,RA BR,KMVY 010520Z AUTO 09017KT 5SM RA BR BKN009 OVC016 A2984 RMK P0004 MADISHF
MVY,2017-04-01 05:25,-70.6150,41.3931,M,M,M,90.00,21.00,0.06,29.83,M,5.00,M,OVC,M,M,M,999.00,M,M,M,RA BR,KMVY 010525Z AUTO 09021KT 5SM RA BR OVC009 A2983 RMK P0006 MADISHF
MVY,2017-04-01 05:30,-70.6150,41.3931,M,M,M,80.00,19.00,0.07,29.83,M,5.00,M,BKN,OVC,M,M,999.00,1500.00,M,M,RA BR,KMVY 010530Z AUTO 08019KT 5SM RA BR BKN009 OVC015 A2983 RMK P0007 MADISHF
MVY,2017-04-01 05:35,-70.6150,41.3931,M,M,M,80.00,19.00,0.07,29.82,M,5.00,M,OVC,M,M,M,999.00,M,M,M,RA BR,KMVY 010535Z AUTO 08019KT 5SM RA BR OVC009 A2982 RMK P0007 MADISHF
MVY,2017-04-01 05:40,-70.6150,41.3931,M,M,M,80.00,19.00,0.08,29.81,M,5.00,M,OVC,M,M,M,999.00,M,M,M,RA BR,KMVY 010540Z AUTO 08019KT 5SM RA BR OVC009 A2981 RMK P0008 MADISHF
MVY,2017-04-01 05:45,-70.6150,41.3931,M,M,M,90.00,17.00,0.09,29.81,M,5.00,M,OVC,M,M,M,999.00,M,M,M,RA BR,KMVY 010545Z AUTO 09017KT 5SM RA BR OVC009 A2981 RMK P0009 MADISHF
MVY,2017-04-01 05:50,-70.6150,41.3931,M,M,M,90.00,23.00,0.10,29.80,M,4.00,M,OVC,M,M,M,999.00,M,M,M,RA BR,KMVY 010550Z AUTO 09023KT 4SM RA BR OVC009 A2980 RMK P0010 MADISHF
MVY,2017-04-01 05:53,-70.6150,41.3931,37.90,35.10,89.53,90.00,19.00,0.10,29.80,1009.10,4.00,31.00,OVC,M,M,M,1000.00,M,M,M,RA BR,KMVY 010553Z AUTO 09019G31KT 4SM RA BR OVC010 03/02 A2980 RMK AO2 PK WND 08031/0548 PRESFR SLP091 P0010 60051 T00330017 10033 20028 58027 TSNO
MVY,2017-04-01 05:55,-70.6150,41.3931,M,M,M,90.00,22.00,0.01,29.80,M,4.00,M,OVC,M,M,M,999.00,M,M,M,RA BR,KMVY 010555Z AUTO 09022KT 4SM RA BR OVC009 A2980 RMK P0001 MADISHF
MVY,2017-04-01 06:00,-70.6150,41.3931,M,M,M,90.00,19.00,0.01,29.79,M,5.00,M,OVC,M,M,M,900.00,M,M,M,-RA BR,KMVY 010600Z AUTO 09019KT 5SM -RA BR OVC009 A2979 RMK P0001 MADISHF
MVY,2017-04-01 06:03,-70.6150,41.3931,37.90,35.10,89.53,90.00,19.00,0.01,29.79,M,5.00,29.00,OVC,M,M,M,900.00,M,M,M,-RA BR,KMVY 010603Z AUTO 09019G29KT 5SM -RA BR OVC009 03/02 A2979 RMK AO2 PK WND 09029/0601 PRESFR P0001 T00330017 TSNO
MVY,2017-04-01 06:05,-70.6150,41.3931,M,M,M,90.00,18.00,0.02,29.79,M,5.00,M,OVC,M,M,M,900.00,M,M,M,-RA BR,KMVY 010605Z AUTO 09018KT 5SM -RA BR OVC009 A2979 RMK P0002 MADISHF
MVY,2017-04-01 06:10,-70.6150,41.3931,M,M,M,90.00,22.00,0.03,29.78,M,4.00,M,OVC,M,M,M,900.00,M,M,M,RA BR,KMVY 010610Z AUTO 09022KT 4SM RA BR OVC009 A2978 RMK P0003 MADISHF
MVY,2017-04-01 06:15,-70.6150,41.3931,M,M,M,90.00,23.00,0.04,29.77,M,3.00,M,BKN,OVC,M,M,900.00,1300.00,M,M,RA BR,KMVY 010615Z AUTO 09023KT 3SM RA BR BKN009 OVC013 A2977 RMK P0004 MADISHF
MVY,2017-04-01 06:20,-70.6150,41.3931,M,M,M,90.00,22.00,0.05,29.76,M,3.00,M,BKN,OVC,M,M,800.00,1300.00,M,M,RA BR,KMVY 010620Z AUTO 09022KT 3SM RA BR BKN008 OVC013 A2976 RMK P0005 MADISHF
MVY,2017-04-01 06:25,-70.6150,41.3931,M,M,M,90.00,20.00,0.06,29.76,M,3.50,M,BKN,OVC,M,M,800.00,1300.00,M,M,RA BR,KMVY 010625Z AUTO 09020KT 3SM RA BR BKN008 OVC013 A2976 RMK P0006 MADISHF
MVY,2017-04-01 06:30,-70.6150,41.3931,M,M,M,90.00,21.00,0.07,29.76,M,4.00,M,BKN,OVC,M,M,800.00,1200.00,M,M,RA BR,KMVY 010630Z AUTO 09021KT 4SM RA BR BKN008 OVC012 A2976 RMK P0007 MADISHF
MVY,2017-04-01 06:35,-70.6150,41.3931,M,M,M,90.00,22.00,0.08,29.75,M,4.00,M,BKN,OVC,M,M,800.00,1200.00,M,M,RA BR,KMVY 010635Z AUTO 09022KT 4SM RA BR BKN008 OVC012 A2975 RMK P0008 MADISHF
MVY,2017-04-01 06:40,-70.6150,41.3931,M,M,M,90.00,24.00,0.10,29.75,M,4.00,M,BKN,OVC,M,M,800.00,1200.00,M,M,RA BR,KMVY 010640Z AUTO 09024KT 4SM RA BR BKN008 OVC012 A2975 RMK P0010 MADISHF
MVY,2017-04-01 06:45,-70.6150,41.3931,M,M,M,90.00,21.00,0.11,29.75,M,4.00,M,OVC,M,M,M,800.00,M,M,M,RA BR,KMVY 010645Z AUTO 09021KT 4SM RA BR OVC008 A2975 RMK P0011 MADISHF
MVY,2017-04-01 06:50,-70.6150,41.3931,M,M,M,90.00,23.00,0.13,29.74,M,4.00,M,OVC,M,M,M,800.00,M,M,M,RA BR,KMVY 010650Z AUTO 09023KT 4SM RA BR OVC008 A2974 RMK P0013 MADISHF
MVY,2017-04-01 06:53,-70.6150,41.3931,39.00,36.00,88.87,100.00,20.00,0.13,29.74,1007.10,4.00,32.00,BKN,OVC,M,M,800.00,1100.00,M,M,RA BR,KMVY 010653Z AUTO 10020G32KT 4SM RA BR BKN008 OVC011 04/02 A2974 RMK AO2 PK WND 09038/0642 SLP071 P0013 T00390022 TSNO
MVY,2017-04-01 06:55,-70.6150,41.3931,M,M,M,90.00,17.00,0.01,29.74,M,4.00,M,OVC,M,M,M,800.00,M,M,M,RA BR,KMVY 010655Z AUTO 09017KT 4SM RA BR OVC008 A2974 RMK P0001 MADISHF
MVY,2017-04-01 07:00,-70.6150,41.3931,M,M,M,90.00,20.00,0.03,29.74,M,4.00,26.00,OVC,M,M,M,800.00,M,M,M,RA BR,KMVY 010700Z AUTO 09020G26KT 4SM RA BR OVC008 A2974 RMK P0003 MADISHF
MVY,2017-04-01 07:05,-70.6150,41.3931,M,M,M,90.00,20.00,0.04,29.74,M,4.00,M,OVC,M,M,M,800.00,M,M,M,RA BR,KMVY 010705Z AUTO 09020KT 4SM RA BR OVC008 A2974 RMK P0004 MADISHF
MVY,2017-04-01 07:10,-70.6150,41.3931,M,M,M,90.00,20.00,0.06,29.73,M,3.50,M,OVC,M,M,M,700.00,M,M,M,RA BR,KMVY 010710Z AUTO 09020KT 3SM RA BR OVC007 A2973 RMK P0006 MADISHF
MVY,2017-04-01 07:15,-70.6150,41.3931,M,M,M,90.00,22.00,0.07,29.73,M,3.00,M,OVC,M,M,M,700.00,M,M,M,RA BR,KMVY 010715Z AUTO 09022KT 3SM RA BR OVC007 A2973 RMK P0007 MADISHF
MVY,2017-04-01 07:20,-70.6150,41.3931,M,M,M,90.00,20.00,0.08,29.72,M,3.50,M,OVC,M,M,M,700.00,M,M,M,RA BR,KMVY 010720Z AUTO 09020KT 3SM RA BR OVC007 A2972 RMK P0008 MADISHF
MVY,2017-04-01 07:25,-70.6150,41.3931,M,M,M,90.00,20.00,0.10,29.73,M,4.00,M,OVC,M,M,M,700.00,M,M,M,RA BR,KMVY 010725Z AUTO 09020KT 4SM RA BR OVC007 A2973 RMK P0010 MADISHF
MVY,2017-04-01 07:30,-70.6150,41.3931,M,M,M,90.00,24.00,0.13,29.72,M,3.50,M,OVC,M,M,M,700.00,M,M,M,RA BR,KMVY 010730Z AUTO 09024KT 3SM RA BR OVC007 A2972 RMK P0013 MADISHF
MVY,2017-04-01 07:35,-70.6150,41.3931,M,M,M,90.00,21.00,0.15,29.72,M,3.50,M,OVC,M,M,M,700.00,M,M,M,+RA BR,KMVY 010735Z AUTO 09021KT 3SM +RA BR OVC007 A2972 RMK P0015 MADISHF
MVY,2017-04-01 07:40,-70.6150,41.3931,M,M,M,90.00,21.00,0.16,29.71,M,3.50,M,OVC,M,M,M,700.00,M,M,M,RA BR,KMVY 010740Z AUTO 09021KT 3SM RA BR OVC007 A2971 RMK P0016 MADISHF
MVY,2017-04-01 07:45,-70.6150,41.3931,M,M,M,90.00,21.00,0.17,29.71,M,4.00,M,OVC,M,M,M,700.00,M,M,M,RA BR,KMVY 010745Z AUTO 09021KT 4SM RA BR OVC007 A2971 RMK P0017 MADISHF
MVY,2017-04-01 07:50,-70.6150,41.3931,M,M,M,90.00,23.00,0.18,29.71,M,5.00,M,OVC,M,M,M,700.00,M,M,M,RA BR,KMVY 010750Z AUTO 09023KT 5SM RA BR OVC007 A2971 RMK P0018 MADISHF
MVY,2017-04-01 07:53,-70.6150,41.3931,39.00,37.00,92.45,90.00,18.00,0.18,29.71,1006.00,5.00,30.00,OVC,M,M,M,700.00,M,M,M,RA BR,KMVY 010753Z AUTO 09018G30KT 5SM RA BR OVC007 04/03 A2971 RMK AO2 PK WND 10034/0729 SLP060 P0018 T00390028 TSNO
MVY,2017-04-01 07:55,-70.6150,41.3931,M,M,M,90.00,16.00,0.01,29.71,M,5.00,M,OVC,M,M,M,700.00,M,M,M,RA BR,KMVY 010755Z AUTO 09016KT 5SM RA BR OVC007 A2971 RMK P0001 MADISHF
MVY,2017-04-01 08:00,-70.6150,41.3931,M,M,M,90.00,19.00,0.03,29.70,M,4.00,24.00,OVC,M,M,M,700.00,M,M,M,RA BR,KMVY 010800Z AUTO 09019G24KT 4SM RA BR OVC007 A2970 RMK P0003 MADISHF
MVY,2017-04-01 08:05,-70.6150,41.3931,M,M,M,90.00,16.00,0.04,29.70,M,4.00,M,OVC,M,M,M,700.00,M,M,M,RA BR,KMVY 010805Z AUTO 09016KT 4SM RA BR OVC007 A2970 RMK P0004 MADISHF
MVY,2017-04-01 08:10,-70.6150,41.3931,M,M,M,90.00,16.00,0.06,29.70,M,3.50,M,OVC,M,M,M,700.00,M,M,M,+RA BR,KMVY 010810Z AUTO 09016KT 3SM +RA BR OVC007 A2970 RMK P0006 MADISHF
MVY,2017-04-01 08:15,-70.6150,41.3931,M,M,M,90.00,16.00,0.09,29.70,M,3.00,M,OVC,M,M,M,700.00,M,M,M,+RA BR,KMVY 010815Z AUTO 09016KT 3SM +RA BR OVC007 A2970 RMK P0009 MADISHF
MVY,2017-04-01 08:20,-70.6150,41.3931,M,M,M,90.00,19.00,0.11,29.69,M,3.00,M,OVC,M,M,M,700.00,M,M,M,RA BR,KMVY 010820Z AUTO 09019KT 3SM RA BR OVC007 A2969 RMK P0011 MADISHF
MVY,2017-04-01 08:25,-70.6150,41.3931,M,M,M,90.00,18.00,0.12,29.69,M,4.00,M,OVC,M,M,M,700.00,M,M,M,RA BR,KMVY 010825Z AUTO 09018KT 4SM RA BR OVC007 A2969 RMK P0012 MADISHF
MVY,2017-04-01 08:30,-70.6150,41.3931,M,M,M,80.00,16.00,0.14,29.68,M,4.00,M,OVC,M,M,M,700.00,M,M,M,RA BR,KMVY 010830Z AUTO 08016KT 4SM RA BR OVC007 A2968 RMK P0014 MADISHF
MVY,2017-04-01 08:35,-70.6150,41.3931,M,M,M,90.00,17.00,0.15,29.68,M,4.00,M,OVC,M,M,M,700.00,M,M,M,RA BR,KMVY 010835Z AUTO 09017KT 4SM RA BR OVC007 A2968 RMK P0015 MADISHF
MVY,2017-04-01 08:40,-70.6150,41.3931,M,M,M,90.00,18.00,0.16,29.67,M,4.00,M,OVC,M,M,M,700.00,M,M,M,RA BR,KMVY 010840Z AUTO 09018KT 4SM RA BR OVC007 A2967 RMK P0016 MADISHF
MVY,2017-04-01 08:45,-70.6150,41.3931,M,M,M,90.00,23.00,0.17,29.67,M,4.00,M,OVC,M,M,M,600.00,M,M,M,RA BR,KMVY 010845Z AUTO 09023KT 4SM RA BR OVC006 A2967 RMK P0017 MADISHF
MVY,2017-04-01 08:50,-70.6150,41.3931,M,M,M,80.00,18.00,0.19,29.67,M,3.50,M,OVC,M,M,M,600.00,M,M,M,+RA BR,KMVY 010850Z AUTO 08018KT 3SM +RA BR OVC006 A2967 RMK P0019 MADISHF
MVY,2017-04-01 08:53,-70.6150,41.3931,39.90,37.00,89.27,80.00,17.00,0.20,29.67,1004.70,3.00,31.00,OVC,M,M,M,600.00,M,M,M,+RA BR,KMVY 010853Z AUTO 08017G31KT 3SM +RA BR OVC006 04/03 A2967 RMK AO2 PK WND 09032/0757 SLP047 P0020 60051 T00440028 56044 TSNO
MVY,2017-04-01 08:55,-70.6150,41.3931,M,M,M,80.00,15.00,M,29.67,M,3.50,M,OVC,M,M,M,600.00,M,M,M,RA BR,KMVY 010855Z AUTO 08015KT 3SM RA BR OVC006 A2967 RMK MADISHF
MVY,2017-04-01 09:00,-70.6150,41.3931,M,M,M,80.00,20.00,0.02,29.67,M,4.00,26.00,OVC,M,M,M,600.00,M,M,M,RA BR,KMVY 010900Z AUTO 08020G26KT 4SM RA BR OVC006 A2967 RMK P0002 MADISHF
MVY,2017-04-01 09:05,-70.6150,41.3931,M,M,M,70.00,20.00,0.04,29.66,M,4.00,M,OVC,M,M,M,600.00,M,M,M,RA BR,KMVY 010905Z AUTO 07020KT 4SM RA BR OVC006 A2966 RMK P0004 MADISHF
MVY,2017-04-01 09:10,-70.6150,41.3931,M,M,M,90.00,22.00,0.07,29.66,M,3.00,M,OVC,M,M,M,600.00,M,M,M,+RA BR,KMVY 010910Z AUTO 09022KT 3SM +RA BR OVC006 A2966 RMK P0007 MADISHF
MVY,2017-04-01 09:15,-70.6150,41.3931,M,M,M,90.00,20.00,0.10,29.65,M,3.00,M,OVC,M,M,M,700.00,M,M,M,+RA BR,KMVY 010915Z AUTO 09020KT 3SM +RA BR OVC007 A2965 RMK P0010 MADISHF
MVY,2017-04-01 09:20,-70.6150,41.3931,M,M,M,80.00,20.00,0.13,29.65,M,2.50,M,OVC,M,M,M,700.00,M,M,M,+RA BR,KMVY 010920Z AUTO 08020KT 2 1/2SM +RA BR OVC007 A2965 RMK P0013 MADISHF
MVY,2017-04-01 09:23,-70.6150,41.3931,39.90,37.00,89.27,80.00,23.00,0.15,29.65,M,2.50,30.00,OVC,M,M,M,700.00,M,M,M,+RA BR,KMVY 010923Z AUTO 08023G30KT 2 1/2SM +RA BR OVC007 04/03 A2965 RMK AO2 PK WND 10035/0910 P0015 T00440028 TSNO
MVY,2017-04-01 09:25,-70.6150,41.3931,M,M,M,80.00,20.00,0.17,29.65,M,2.50,M,OVC,M,M,M,700.00,M,M,M,+RA BR,KMVY 010925Z AUTO 08020KT 2 1/2SM +RA BR OVC007 A2965 RMK P0017 MADISHF
MVY,2017-04-01 09:30,-70.6150,41.3931,M,M,M,80.00,19.00,0.19,29.65,M,2.50,M,OVC,M,M,M,700.00,M,M,M,+RA BR,KMVY 010930Z AUTO 08019KT 2 1/2SM +RA BR OVC007 A2965 RMK P0019 MADISHF
MVY,2017-04-01 09:35,-70.6150,41.3931,M,M,M,70.00,18.00,0.21,29.64,M,3.00,M,OVC,M,M,M,700.00,M,M,M,+RA BR,KMVY 010935Z AUTO 07018KT 3SM +RA BR OVC007 A2964 RMK P0021 MADISHF
MVY,2017-04-01 09:39,-70.6150,41.3931,39.90,37.90,92.48,80.00,23.00,0.24,29.64,M,3.00,32.00,OVC,M,M,M,700.00,M,M,M,+RA BR,KMVY 010939Z AUTO 08023G32KT 3SM +RA BR OVC007 04/03 A2964 RMK AO2 PK WND 10035/0910 P0024 T00440033 TSNO
MVY,2017-04-01 09:40,-70.6150,41.3931,M,M,M,70.00,21.00,0.24,29.64,M,3.00,M,OVC,M,M,M,700.00,M,M,M,+RA BR,KMVY 010940Z AUTO 07021KT 3SM +RA BR OVC007 A2964 RMK P0024 MADISHF
MVY,2017-04-01 09:45,-70.6150,41.3931,M,M,M,70.00,17.00,0.26,29.63,M,3.00,M,OVC,M,M,M,700.00,M,M,M,RA BR,KMVY 010945Z AUTO 07017KT 3SM RA BR OVC007 A2963 RMK P0026 MADISHF
MVY,2017-04-01 09:50,-70.6150,41.3931,M,M,M,70.00,17.00,0.28,29.63,M,3.00,M,OVC,M,M,M,700.00,M,M,M,RA BR,KMVY 010950Z AUTO 07017KT 3SM RA BR OVC007 A2963 RMK P0028 MADISHF
MVY,2017-04-01 09:53,-70.6150,41.3931,39.90,37.90,92.48,80.00,19.00,0.29,29.64,1003.50,3.00,26.00,OVC,M,M,M,600.00,M,M,M,+RA BR,KMVY 010953Z AUTO 08019G26KT 3SM +RA BR OVC006 04/03 A2964 RMK AO2 PK WND 10035/0910 SLP035 P0029 T00440033 TSNO
MVY,2017-04-01 09:55,-70.6150,41.3931,M,M,M,70.00,20.00,0.01,29.64,M,3.50,M,OVC,M,M,M,600.00,M,M,M,+RA BR,KMVY 010955Z AUTO 07020KT 3SM +RA BR OVC006 A2964 RMK P0001 MADISHF
MVY,2017-04-01 10:00,-70.6150,41.3931,M,M,M,80.00,21.00,0.05,29.63,M,3.50,M,OVC,M,M,M,600.00,M,M,M,+RA BR,KMVY 011000Z AUTO 08021KT 3SM +RA BR OVC006 A2963 RMK P0005 MADISHF
MVY,2017-04-01 10:05,-70.6150,41.3931,M,M,M,70.00,24.00,0.06,29.62,M,4.00,M,OVC,M,M,M,600.00,M,M,M,RA BR,KMVY 011005Z AUTO 07024KT 4SM RA BR OVC006 A2962 RMK P0006 MADISHF
MVY,2017-04-01 10:10,-70.6150,41.3931,M,M,M,80.00,19.00,0.07,29.62,M,4.00,M,OVC,M,M,M,600.00,M,M,M,RA BR,KMVY 011010Z AUTO 08019KT 4SM RA BR OVC006 A2962 RMK P0007 MADISHF
MVY,2017-04-01 10:15,-70.6150,41.3931,M,M,M,80.00,21.00,0.09,29.62,M,4.00,M,OVC,M,M,M,600.00,M,M,M,RA BR,KMVY 011015Z AUTO 08021KT 4SM RA BR OVC006 A2962 RMK P0009 MADISHF
MVY,2017-04-01 10:20,-70.6150,41.3931,M,M,M,80.00,21.00,0.10,29.61,M,4.00,M,OVC,M,M,M,600.00,M,M,M,RA BR,KMVY 011020Z AUTO 08021KT 4SM RA BR OVC006 A2961 RMK P0010 MADISHF
MVY,2017-04-01 10:25,-70.6150,41.3931,M,M,M,80.00,23.00,0.11,29.60,M,4.00,M,OVC,M,M,M,600.00,M,M,M,RA BR,KMVY 011025Z AUTO 08023KT 4SM RA BR OVC006 A2960 RMK P0011 MADISHF
MVY,2017-04-01 10:30,-70.6150,41.3931,M,M,M,80.00,24.00,0.12,29.60,M,4.00,M,OVC,M,M,M,600.00,M,M,M,RA BR,KMVY 011030Z AUTO 08024KT 4SM RA BR OVC006 A2960 RMK P0012 MADISHF
MVY,2017-04-01 10:35,-70.6150,41.3931,M,M,M,80.00,19.00,0.13,29.60,M,4.00,M,OVC,M,M,M,600.00,M,M,M,RA BR,KMVY 011035Z AUTO 08019KT 4SM RA BR OVC006 A2960 RMK P0013 MADISHF
MVY,2017-04-01 10:40,-70.6150,41.3931,M,M,M,80.00,24.00,0.15,29.59,M,3.50,M,OVC,M,M,M,600.00,M,M,M,RA BR,KMVY 011040Z AUTO 08024KT 3SM RA BR OVC006 A2959 RMK P0015 MADISHF
MVY,2017-04-01 10:45,-70.6150,41.3931,M,M,M,80.00,25.00,0.16,29.59,M,3.00,M,OVC,M,M,M,600.00,M,M,M,RA BR,KMVY 011045Z AUTO 08025KT 3SM RA BR OVC006 A2959 RMK P0016 MADISHF
MVY,2017-04-01 10:50,-70.6150,41.3931,M,M,M,80.00,23.00,0.17,29.59,M,4.00,M,OVC,M,M,M,600.00,M,M,M,RA BR,KMVY 011050Z AUTO 08023KT 4SM RA BR OVC006 A2959 RMK P0017 MADISHF
MVY,2017-04-01 10:53,-70.6150,41.3931,41.00,37.90,88.62,80.00,23.00,0.18,29.59,1002.10,4.00,33.00,OVC,M,M,M,600.00,M,M,M,RA BR,KMVY 011053Z 08023G33KT 4SM RA BR OVC006 05/03 A2959 RMK AO2 PK WND 06036/1038 SLP021 P0018 T00500033
MVY,2017-04-01 10:55,-70.6150,41.3931,M,M,M,80.00,21.00,M,29.59,M,4.00,M,OVC,M,M,M,600.00,M,M,M,RA BR,KMVY 011055Z AUTO 08021KT 4SM RA BR OVC006 A2959 RMK MADISHF
MVY,2017-04-01 11:00,-70.6150,41.3931,M,M,M,70.00,24.00,0.01,29.59,M,4.00,M,OVC,M,M,M,600.00,M,M,M,RA BR,KMVY 011100Z AUTO 07024KT 4SM RA BR OVC006 A2959 RMK P0001 MADISHF
MVY,2017-04-01 11:05,-70.6150,41.3931,M,M,M,80.00,21.00,0.02,29.60,M,3.50,M,OVC,M,M,M,600.00,M,M,M,RA BR,KMVY 011105Z AUTO 08021KT 3SM RA BR OVC006 A2960 RMK P0002 MADISHF
MVY,2017-04-01 11:10,-70.6150,41.3931,M,M,M,80.00,20.00,0.05,29.61,M,2.50,M,OVC,M,M,M,600.00,M,M,M,+RA BR,KMVY 011110Z AUTO 08020KT 2 1/2SM +RA BR OVC006 A2961 RMK P0005 MADISHF
MVY,2017-04-01 11:13,-70.6150,41.3931,41.00,39.00,92.52,70.00,21.00,0.07,29.61,M,1.75,30.00,OVC,M,M,M,600.00,M,M,M,+RA BR,KMVY 011113Z 07021G30KT 1 3/4SM R24/5500VP6000FT +RA BR OVC006 05/04 A2961 RMK AO2 PK WND 07030/1113 P0007 T00500039
MVY,2017-04-01 11:15,-70.6150,41.3931,M,M,M,70.00,18.00,0.08,29.61,M,1.50,M,OVC,M,M,M,600.00,M,M,M,+RA BR,KMVY 011115Z AUTO 07018KT 1 1/2SM +RA BR OVC006 A2961 RMK P0008 MADISHF
MVY,2017-04-01 11:20,-70.6150,41.3931,M,M,M,70.00,22.00,0.10,29.61,M,1.50,M,BKN,OVC,M,M,600.00,999.00,M,M,RA BR,KMVY 011120Z AUTO 07022KT 1 1/2SM RA BR BKN006 OVC009 A2961 RMK P0010 MADISHF
MVY,2017-04-01 11:25,-70.6150,41.3931,M,M,M,70.00,17.00,0.11,29.62,M,1.50,M,BKN,OVC,M,M,600.00,999.00,M,M,RA BR,KMVY 011125Z AUTO 07017KT 1 1/2SM RA BR BKN006 OVC009 A2962 RMK P0011 MADISHF
MVY,2017-04-01 11:30,-70.6150,41.3931,M,M,M,70.00,17.00,0.14,29.62,M,1.25,M,BKN,OVC,M,M,600.00,999.00,M,M,+RA BR,KMVY 011130Z AUTO 07017KT 1 1/2SM +RA BR BKN006 OVC009 A2962 RMK P0014 MADISHF
MVY,2017-04-01 11:35,-70.6150,41.3931,M,M,M,60.00,20.00,0.16,29.63,M,1.00,M,BKN,OVC,M,M,600.00,1100.00,M,M,+RA BR,KMVY 011135Z AUTO 06020KT 1SM +RA BR BKN006 OVC011 A2963 RMK P0016 MADISHF
MVY,2017-04-01 11:40,-70.6150,41.3931,M,M,M,70.00,18.00,0.17,29.63,M,1.25,M,OVC,M,M,M,800.00,M,M,M,RA BR,KMVY 011140Z AUTO 07018KT 1 1/2SM RA BR OVC008 A2963 RMK P0017 MADISHF
MVY,2017-04-01 11:45,-70.6150,41.3931,M,M,M,60.00,18.00,0.19,29.63,M,1.25,M,BKN,OVC,M,M,600.00,999.00,M,M,RA BR,KMVY 011145Z AUTO 06018KT 1 1/2SM RA BR BKN006 OVC009 A2963 RMK P0019 MADISHF
MVY,2017-04-01 11:50,-70.6150,41.3931,M,M,M,60.00,17.00,0.21,29.63,M,1.25,M,BKN,OVC,M,M,600.00,999.00,M,M,RA BR,KMVY 011150Z AUTO 06017KT 1 1/2SM RA BR BKN006 OVC009 A2963 RMK P0021 MADISHF
MVY,2017-04-01 11:53,-70.6150,41.3931,41.00,39.00,92.52,60.00,18.00,0.22,29.63,1003.50,1.00,29.00,OVC,M,M,M,800.00,M,M,M,RA BR,KMVY 011153Z 06018G29KT 1SM R24/5000VP6000FT RA BR OVC008 05/04 A2963 RMK AO2 PK WND 07030/1113 SLP035 P0022 60120 70189 T00500039 10050 20033 55012
MVY,2017-04-01 11:55,-70.6150,41.3931,M,M,M,60.00,18.00,0.01,29.63,M,1.00,M,OVC,M,M,M,800.00,M,M,M,RA BR,KMVY 011155Z AUTO 06018KT 1SM RA BR OVC008 A2963 RMK P0001 MADISHF
MVY,2017-04-01 12:00,-70.6150,41.3931,M,M,M,60.00,17.00,0.02,29.63,M,1.00,M,OVC,M,M,M,800.00,M,M,M,RA BR,KMVY 011200Z AUTO 06017KT 1SM RA BR OVC008 A2963 RMK P0002 MADISHF
MVY,2017-04-01 12:05,-70.6150,41.3931,M,M,M,60.00,17.00,0.04,29.63,M,1.00,M,OVC,M,M,M,800.00,M,M,M,RA BR,KMVY 011205Z AUTO 06017KT 1SM RA BR OVC008 A2963 RMK P0004 MADISHF
MVY,2017-04-01 12:10,-70.6150,41.3931,M,M,M,50.00,17.00,0.06,29.63,M,1.25,M,BKN,OVC,M,M,600.00,999.00,M,M,RA BR,KMVY 011210Z AUTO 05017KT 1 1/2SM RA BR BKN006 OVC009 A2963 RMK P0006 MADISHF
MVY,2017-04-01 12:15,-70.6150,41.3931,M,M,M,50.00,22.00,0.08,29.62,M,1.00,M,OVC,M,M,M,600.00,M,M,M,+RA BR,KMVY 011215Z AUTO 05022KT 1SM +RA BR OVC006 A2962 RMK P0008 MADISHF
MVY,2017-04-01 12:20,-70.6150,41.3931,M,M,M,50.00,18.00,0.09,29.62,M,1.00,M,SCT,OVC,M,M,600.00,900.00,M,M,RA BR,KMVY 011220Z AUTO 05018KT 1SM RA BR SCT006 OVC009 A2962 RMK P0009 MADISHF
MVY,2017-04-01 12:25,-70.6150,41.3931,M,M,M,50.00,21.00,0.11,29.61,M,1.00,M,SCT,OVC,M,M,499.00,900.00,M,M,+RA BR,KMVY 011225Z AUTO 05021KT 1SM +RA BR SCT004 OVC009 A2961 RMK P0011 MADISHF
MVY,2017-04-01 12:30,-70.6150,41.3931,M,M,M,50.00,21.00,0.13,29.61,M,1.00,M,FEW,OVC,M,M,499.00,900.00,M,M,RA BR,KMVY 011230Z AUTO 05021KT 1SM RA BR FEW004 OVC009 A2961 RMK P0013 MADISHF
MVY,2017-04-01 12:35,-70.6150,41.3931,M,M,M,50.00,21.00,0.14,29.61,M,1.25,M,FEW,BKN,OVC,M,499.00,900.00,1600.00,M,RA BR,KMVY 011235Z AUTO 05021KT 1 1/2SM RA BR FEW004 BKN009 OVC016 A2961 RMK P0014 MADISHF
MVY,2017-04-01 12:40,-70.6150,41.3931,M,M,M,50.00,19.00,0.16,29.61,M,1.25,M,FEW,BKN,OVC,M,499.00,900.00,1600.00,M,RA BR,KMVY 011240Z AUTO 05019KT 1 1/2SM RA BR FEW004 BKN009 OVC016 A2961 RMK P0016 MADISHF
MVY,2017-04-01 12:45,-70.6150,41.3931,M,M,M,50.00,20.00,0.17,29.61,M,1.25,M,FEW,BKN,OVC,M,499.00,1100.00,1800.00,M,RA BR,KMVY 011245Z AUTO 05020KT 1 1/2SM RA BR FEW004 BKN011 OVC018 A2961 RMK P0017 MADISHF
MVY,2017-04-01 12:50,-70.6150,41.3931,M,M,M,50.00,20.00,0.18,29.61,M,1.25,M,FEW,BKN,OVC,M,499.00,1100.00,1800.00,M,RA BR,KMVY 011250Z AUTO 05020KT 1 1/2SM RA BR FEW004 BKN011 OVC018 A2961 RMK P0018 MADISHF
MVY,2017-04-01 12:51,-70.6150,41.3931,41.00,39.20,93.24,50.00,22.00,0.19,29.61,M,1.25,27.00,FEW,BKN,OVC,M,500.00,1100.00,1800.00,M,RA BR,KMVY 011251Z 05022G27KT 1 1/4SM R24/5000V6000FT RA BR FEW005 BKN011 OVC018 05/04 A2961 RMK AO2 PK WND 04030/1214 P0019
MVY,2017-04-01 12:53,-70.6150,41.3931,41.00,39.00,92.52,50.00,19.00,0.19,29.61,1002.70,1.25,27.00,FEW,BKN,OVC,M,500.00,1100.00,1800.00,M,RA BR,KMVY 011253Z 05019G27KT 1 1/4SM R24/5000V6000FT RA BR FEW005 BKN011 OVC018 05/04 A2961 RMK AO2 PK WND 04030/1214 SLP027 P0019 T00500039
MVY,2017-04-01 12:55,-70.6150,41.3931,M,M,M,50.00,21.00,0.01,29.61,M,1.25,M,SCT,BKN,OVC,M,499.00,1100.00,1800.00,M,RA BR,KMVY 011255Z AUTO 05021KT 1 1/2SM RA BR SCT004 BKN011 OVC018 A2961 RMK P0001 MADISHF
MVY,2017-04-01 13:00,-70.6150,41.3931,M,M,M,50.00,21.00,0.02,29.61,M,1.25,M,FEW,BKN,OVC,M,499.00,1100.00,1800.00,M,+RA BR,KMVY 011300Z AUTO 05021KT 1 1/2SM +RA BR FEW004 BKN011 OVC018 A2961 RMK P0002 MADISHF
MVY,2017-04-01 13:05,-70.6150,41.3931,M,M,M,50.00,19.00,0.03,29.61,M,1.50,M,SCT,BKN,OVC,M,499.00,1100.00,1999.00,M,RA BR,KMVY 011305Z AUTO 05019KT 1 1/2SM RA BR SCT004 BKN011 OVC019 A2961 RMK P0003 MADISHF
MVY,2017-04-01 13:10,-70.6150,41.3931,M,M,M,40.00,22.00,0.04,29.61,M,1.75,M,SCT,OVC,M,M,499.00,1100.00,M,M,RA BR,KMVY 011310Z AUTO 04022KT 2SM RA BR SCT004 OVC011 A2961 RMK P0004 MADISHF
MVY,2017-04-01 13:15,-70.6150,41.3931,M,M,M,40.00,20.00,0.05,29.61,M,2.00,M,SCT,BKN,OVC,M,499.00,1100.00,1800.00,M,-RA BR,KMVY 011315Z AUTO 04020KT 2SM -RA BR SCT004 BKN011 OVC018 A2961 RMK P0005 MADISHF
MVY,2017-04-01 13:17,-70.6150,41.3931,41.00,39.00,92.52,40.00,21.00,0.05,29.61,M,2.50,32.00,SCT,BKN,OVC,M,500.00,1100.00,1800.00,M,-RA BR,KMVY 011317Z 04021G32KT 2 1/2SM -RA BR SCT005 BKN011 OVC018 05/04 A2961 RMK AO2 PK WND 04032/1310 P0005 T00500039
MVY,2017-04-01 13:20,-70.6150,41.3931,M,M,M,40.00,22.00,0.05,29.61,M,2.00,M,SCT,OVC,M,M,499.00,1100.00,M,M,RA BR,KMVY 011320Z AUTO 04022KT 2SM RA BR SCT004 OVC011 A2961 RMK P0005 MADISHF
MVY,2017-04-01 13:25,-70.6150,41.3931,M,M,M,40.00,20.00,0.08,29.61,M,1.50,M,SCT,OVC,M,M,499.00,1100.00,M,M,RA BR,KMVY 011325Z AUTO 04020KT 1 1/2SM RA BR SCT004 OVC011 A2961 RMK P0008 MADISHF
MVY,2017-04-01 13:28,-70.6150,41.3931,41.00,39.00,92.52,40.00,20.00,0.08,29.61,M,1.50,28.00,SCT,OVC,M,M,500.00,1300.00,M,M,RA BR,KMVY 011328Z 04020G28KT 1 1/2SM R24/4500VP6000FT RA BR SCT005 OVC013 05/04 A2961 RMK AO2 PK WND 04032/1310 P0008 T00500039
MVY,2017-04-01 13:30,-70.6150,41.3931,M,M,M,40.00,22.00,0.09,29.61,M,1.50,M,SCT,OVC,M,M,499.00,1300.00,M,M,RA BR,KMVY 011330Z AUTO 04022KT 1 1/2SM RA BR SCT004 OVC013 A2961 RMK P0009 MADISHF
MVY,2017-04-01 13:35,-70.6150,41.3931,M,M,M,40.00,22.00,0.10,29.61,M,2.00,M,SCT,OVC,M,M,499.00,1300.00,M,M,RA BR,KMVY 011335Z AUTO 04022KT 2SM RA BR SCT004 OVC013 A2961 RMK P0010 MADISHF
MVY,2017-04-01 13:39,-70.6150,41.3931,41.00,39.00,92.52,40.00,19.00,0.10,29.61,M,2.00,30.00,SCT,OVC,M,M,500.00,1300.00,M,M,RA BR,KMVY 011339Z 04019G30KT 2SM R24/6000VP6000FT RA BR SCT005 OVC013 05/04 A2961 RMK AO2 PK WND 04032/1310 P0010 T00500039
MVY,2017-04-01 13:40,-70.6150,41.3931,M,M,M,40.00,20.00,0.10,29.61,M,2.00,M,SCT,OVC,M,M,499.00,1300.00,M,M,RA BR,KMVY 011340Z AUTO 04020KT 2SM RA BR SCT004 OVC013 A2961 RMK P0010 MADISHF
MVY,2017-04-01 13:45,-70.6150,41.3931,M,M,M,40.00,24.00,0.11,29.61,M,2.50,M,SCT,OVC,M,M,499.00,1300.00,M,M,-RA BR,KMVY 011345Z AUTO 04024KT 2 1/2SM -RA BR SCT004 OVC013 A2961 RMK P0011 MADISHF
MVY,2017-04-01 13:50,-70.6150,41.3931,M,M,M,40.00,20.00,0.11,29.61,M,2.50,M,SCT,OVC,M,M,499.00,1300.00,M,M,-RA BR,KMVY 011350Z AUTO 04020KT 2 1/2SM -RA BR SCT004 OVC013 A2961 RMK P0011 MADISHF
MVY,2017-04-01 13:53,-70.6150,41.3931,41.00,39.00,92.52,40.00,20.00,0.12,29.61,1002.80,2.00,29.00,SCT,OVC,M,M,500.00,1200.00,M,M,-RA BR,KMVY 011353Z 04020G29KT 2SM R24/6000VP6000FT -RA BR SCT005 OVC012 05/04 A2961 RMK AO2 PK WND 04032/1310 SLP028 P0012 T00500039
MVY,2017-04-01 13:55,-70.6150,41.3931,M,M,M,40.00,19.00,M,29.61,M,2.00,M,BKN,OVC,M,M,499.00,1200.00,M,M,-RA BR,KMVY 011355Z AUTO 04019KT 2SM -RA BR BKN004 OVC012 A2961 RMK MADISHF
MVY,2017-04-01 14:00,-70.6150,41.3931,41.00,39.00,92.52,40.00,22.00,0.02,29.61,M,2.00,30.00,BKN,OVC,M,M,500.00,1200.00,M,M,RA BR,KMVY 011400Z 04022G30KT 2SM RA BR BKN005 OVC012 05/04 A2961 RMK AO2 PK WND 05030/1357 P0002 T00500039
MVY,2017-04-01 14:05,-70.6150,41.3931,M,M,M,40.00,20.00,0.03,29.61,M,2.50,M,BKN,OVC,M,M,499.00,999.00,M,M,RA BR,KMVY 011405Z AUTO 04020KT 2 1/2SM RA BR BKN004 OVC009 A2961 RMK P0003 MADISHF
MVY,2017-04-01 14:10,-70.6150,41.3931,M,M,M,40.00,20.00,0.04,29.61,M,2.50,M,BKN,OVC,M,M,700.00,999.00,M,M,RA BR,KMVY 011410Z AUTO 04020KT 2 1/2SM RA BR BKN007 OVC009 A2961 RMK P0004 MADISHF
MVY,2017-04-01 14:15,-70.6150,41.3931,M,M,M,40.00,22.00,0.05,29.61,M,2.50,M,BKN,OVC,M,M,499.00,999.00,M,M,RA BR,KMVY 011415Z AUTO 04022KT 2 1/2SM RA BR BKN004 OVC009 A2961 RMK P0005 MADISHF
MVY,2017-04-01 14:17,-70.6150,41.3931,41.00,39.00,92.52,40.00,22.00,0.06,29.61,M,3.00,31.00,SCT,OVC,M,M,500.00,1000.00,M,M,RA BR,KMVY 011417Z 04022G31KT 3SM RA BR SCT005 OVC010 05/04 A2961 RMK AO2 PK WND 03031/1415 P0006 T00500039
MVY,2017-04-01 14:20,-70.6150,41.3931,M,M,M,30.00,24.00,0.06,29.61,M,3.00,M,SCT,OVC,M,M,499.00,999.00,M,M,RA BR,KMVY 011420Z AUTO 03024KT 3SM RA BR SCT004 OVC009 A2961 RMK P0006 MADISHF
MVY,2017-04-01 14:25,-70.6150,41.3931,M,M,M,40.00,22.00,0.07,29.61,M,3.00,M,SCT,OVC,M,M,499.00,1100.00,M,M,RA BR,KMVY 011425Z AUTO 04022KT 3SM RA BR SCT004 OVC011 A2961 RMK P0007 MADISHF
MVY,2017-04-01 14:30,-70.6150,41.3931,M,M,M,40.00,23.00,0.09,29.61,M,2.50,M,SCT,OVC,M,M,600.00,1100.00,M,M,RA BR,KMVY 011430Z AUTO 04023KT 2 1/2SM RA BR SCT006 OVC011 A2961 RMK P0009 MADISHF
MVY,2017-04-01 14:33,-70.6150,41.3931,42.10,39.00,88.67,40.00,23.00,0.09,29.61,M,2.50,35.00,SCT,OVC,M,M,600.00,1100.00,M,M,RA BR,KMVY 011433Z 04023G35KT 2 1/2SM RA BR SCT006 OVC011 06/04 A2961 RMK AO2 PK WND 03035/1426 P0009 T00560039
MVY,2017-04-01 14:35,-70.6150,41.3931,M,M,M,30.00,22.00,0.10,29.60,M,2.50,M,SCT,OVC,M,M,600.00,1200.00,M,M,RA BR,KMVY 011435Z AUTO 03022KT 2 1/2SM RA BR SCT006 OVC012 A2960 RMK P0010 MADISHF
MVY,2017-04-01 14:40,-70.6150,41.3931,M,M,M,40.00,23.00,0.11,29.61,M,2.00,M,FEW,OVC,M,M,600.00,1200.00,M,M,RA BR,KMVY 011440Z AUTO 04023KT 2SM RA BR FEW006 OVC012 A2961 RMK P0011 MADISHF
MVY,2017-04-01 14:45,-70.6150,41.3931,M,M,M,30.00,21.00,0.12,29.61,M,2.50,M,SCT,OVC,M,M,600.00,1200.00,M,M,RA BR,KMVY 011445Z AUTO 03021KT 2 1/2SM RA BR SCT006 OVC012 A2961 RMK P0012 MADISHF
MVY,2017-04-01 14:50,-70.6150,41.3931,M,M,M,30.00,21.00,0.12,29.60,M,2.50,M,SCT,OVC,M,M,600.00,1200.00,M,M,-RA BR,KMVY 011450Z AUTO 03021KT 2 1/2SM -RA BR SCT006 OVC012 A2960 RMK P0012 MADISHF
MVY,2017-04-01 14:53,-70.6150,41.3931,42.10,39.00,88.67,40.00,19.00,0.12,29.61,1002.50,2.50,29.00,BKN,OVC,M,M,600.00,1200.00,M,M,-RA BR,KMVY 011453Z 04019G29KT 2 1/2SM -RA BR BKN006 OVC012 06/04 A2961 RMK AO2 PK WND 03035/1426 SLP025 P0012 60043 T00560039 58003
MVY,2017-04-01 14:55,-70.6150,41.3931,M,M,M,30.00,21.00,0.01,29.60,M,2.50,M,BKN,OVC,M,M,600.00,1200.00,M,M,-RA BR,KMVY 011455Z AUTO 03021KT 2 1/2SM -RA BR BKN006 OVC012 A2960 RMK P0001 MADISHF
MVY,2017-04-01 15:00,-70.6150,41.3931,M,M,M,30.00,21.00,0.01,29.60,M,2.50,M,BKN,OVC,M,M,600.00,1200.00,M,M,-RA BR,KMVY 011500Z AUTO 03021KT 2 1/2SM -RA BR BKN006 OVC012 A2960 RMK P0001 MADISHF
MVY,2017-04-01 15:05,-70.6150,41.3931,M,M,M,30.00,21.00,0.02,29.60,M,2.00,M,BKN,OVC,M,M,600.00,1200.00,M,M,-RA BR,KMVY 011505Z AUTO 03021KT 2SM -RA BR BKN006 OVC012 A2960 RMK P0002 MADISHF
MVY,2017-04-01 15:10,-70.6150,41.3931,M,M,M,30.00,22.00,0.02,29.60,M,2.00,M,BKN,OVC,M,M,600.00,1200.00,M,M,-RA BR,KMVY 011510Z AUTO 03022KT 2SM -RA BR BKN006 OVC012 A2960 RMK P0002 MADISHF
MVY,2017-04-01 15:15,-70.6150,41.3931,M,M,M,30.00,23.00,0.03,29.60,M,2.00,M,BKN,OVC,M,M,600.00,1200.00,M,M,-RA BR,KMVY 011515Z AUTO 03023KT 2SM -RA BR BKN006 OVC012 A2960 RMK P0003 MADISHF
MVY,2017-04-01 15:20,-70.6150,41.3931,M,M,M,30.00,21.00,0.03,29.60,M,2.00,M,BKN,OVC,M,M,600.00,1200.00,M,M,-RA BR,KMVY 011520Z AUTO 03021KT 2SM -RA BR BKN006 OVC012 A2960 RMK P0003 MADISHF
MVY,2017-04-01 15:25,-70.6150,41.3931,M,M,M,30.00,22.00,0.04,29.60,M,2.50,M,BKN,OVC,M,M,600.00,1200.00,M,M,-RA BR,KMVY 011525Z AUTO 03022KT 2 1/2SM -RA BR BKN006 OVC012 A2960 RMK P0004 MADISHF
MVY,2017-04-01 15:30,-70.6150,41.3931,M,M,M,30.00,21.00,0.05,29.60,M,2.00,M,BKN,OVC,M,M,600.00,1200.00,M,M,RA BR,KMVY 011530Z AUTO 03021KT 2SM RA BR BKN006 OVC012 A2960 RMK P0005 MADISHF
MVY,2017-04-01 15:35,-70.6150,41.3931,M,M,M,30.00,21.00,0.07,29.60,M,1.75,M,BKN,OVC,M,M,600.00,1200.00,M,M,RA BR,KMVY 011535Z AUTO 03021KT 2SM RA BR BKN006 OVC012 A2960 RMK P0007 MADISHF
MVY,2017-04-01 15:38,-70.6150,41.3931,41.00,39.00,92.52,30.00,19.00,0.08,29.60,M,1.50,32.00,BKN,OVC,M,M,600.00,1200.00,M,M,RA BR,KMVY 011538Z 03019G32KT 1 1/2SM R24/5000VP6000FT RA BR BKN006 OVC012 05/04 A2960 RMK AO2 PK WND 03032/1534 P0008 T00500039
MVY,2017-04-01 15:40,-70.6150,41.3931,M,M,M,30.00,22.00,0.09,29.60,M,1.50,M,BKN,OVC,M,M,600.00,1200.00,M,M,RA BR,KMVY 011540Z AUTO 03022KT 1 1/2SM RA BR BKN006 OVC012 A2960 RMK P0009 MADISHF
MVY,2017-04-01 15:45,-70.6150,41.3931,M,M,M,30.00,23.00,0.10,29.60,M,1.75,M,BKN,OVC,M,M,600.00,1200.00,M,M,RA BR,KMVY 011545Z AUTO 03023KT 2SM RA BR BKN006 OVC012 A2960 RMK P0010 MADISHF
MVY,2017-04-01 15:50,-70.6150,41.3931,M,M,M,30.00,21.00,0.11,29.60,M,2.00,M,BKN,OVC,M,M,600.00,1200.00,M,M,RA BR,KMVY 011550Z AUTO 03021KT 2SM RA BR BKN006 OVC012 A2960 RMK P0011 MADISHF
MVY,2017-04-01 15:53,-70.6150,41.3931,41.00,37.90,88.62,30.00,26.00,0.12,29.60,1002.30,2.00,32.00,BKN,OVC,M,M,600.00,1200.00,M,M,-RA BR,KMVY 011553Z 03026G32KT 2SM R24/6000VP6000FT -RA BR BKN006 OVC012 05/03 A2960 RMK AO2 PK WND 03033/1541 SLP023 P0012 T00500033
MVY,2017-04-01 15:55,-70.6150,41.3931,M,M,M,30.00,21.00,M,29.60,M,2.00,M,SCT,OVC,M,M,600.00,1200.00,M,M,-RA BR,KMVY 011555Z AUTO 03021KT 2SM -RA BR SCT006 OVC012 A2960 RMK MADISHF
MVY,2017-04-01 16:00,-70.6150,41.3931,41.00,37.90,88.62,30.00,22.00,0.00,29.59,M,2.00,35.00,SCT,OVC,M,M,600.00,1100.00,M,M,-RA BR,KMVY 011600Z 03022G35KT 2SM -RA BR SCT006 OVC011 05/03 A2959 RMK AO2 PK WND 02035/1559 P0000 T00500033
MVY,2017-04-01 16:05,-70.6150,41.3931,M,M,M,30.00,24.00,0.01,29.59,M,2.00,M,SCT,OVC,M,M,600.00,1100.00,M,M,-RA BR,KMVY 011605Z AUTO 03024KT 2SM -RA BR SCT006 OVC011 A2959 RMK P0001 MADISHF
MVY,2017-04-01 16:10,-70.6150,41.3931,M,M,M,30.00,23.00,0.01,29.59,M,2.00,M,SCT,OVC,M,M,800.00,1100.00,M,M,-RA BR,KMVY 011610Z AUTO 03023KT 2SM -RA BR SCT008 OVC011 A2959 RMK P0001 MADISHF
MVY,2017-04-01 16:15,-70.6150,41.3931,M,M,M,20.00,23.00,0.01,29.59,M,2.00,M,SCT,OVC,M,M,800.00,1100.00,M,M,-RA BR,KMVY 011615Z AUTO 02023KT 2SM -RA BR SCT008 OVC011 A2959 RMK P0001 MADISHF
MVY,2017-04-01 16:20,-70.6150,41.3931,M,M,M,30.00,22.00,0.02,29.59,M,2.00,M,BKN,OVC,M,M,700.00,1100.00,M,M,-RA BR,KMVY 011620Z AUTO 03022KT 2SM -RA BR BKN007 OVC011 A2959 RMK P0002 MADISHF
MVY,2017-04-01 16:23,-70.6150,41.3931,41.00,37.90,88.62,30.00,21.00,0.02,29.58,M,1.75,33.00,BKN,OVC,M,M,700.00,1100.00,M,M,-RA BR,KMVY 011623Z 03021G33KT 1 3/4SM R24/5500VP6000FT -RA BR BKN007 OVC011 05/03 A2958 RMK AO2 PK WND 03037/1603 P0002 T00500033
MVY,2017-04-01 16:25,-70.6150,41.3931,M,M,M,30.00,27.00,0.03,29.58,M,1.75,M,OVC,M,M,M,900.00,M,M,M,-RA BR,KMVY 011625Z AUTO 03027KT 2SM -RA BR OVC009 A2958 RMK P0003 MADISHF
MVY,2017-04-01 16:30,-70.6150,41.3931,M,M,M,30.00,26.00,0.03,29.59,M,1.75,M,OVC,M,M,M,900.00,M,M,M,-RA BR,KMVY 011630Z AUTO 03026KT 2SM -RA BR OVC009 A2959 RMK P0003 MADISHF
MVY,2017-04-01 16:35,-70.6150,41.3931,M,M,M,30.00,26.00,0.04,29.59,M,1.75,M,BKN,OVC,M,M,700.00,1100.00,M,M,-RA BR,KMVY 011635Z AUTO 03026KT 2SM -RA BR BKN007 OVC011 A2959 RMK P0004 MADISHF
MVY,2017-04-01 16:40,-70.6150,41.3931,M,M,M,30.00,24.00,0.04,29.59,M,1.75,M,BKN,OVC,M,M,700.00,1100.00,M,M,-RA BR,KMVY 011640Z AUTO 03024KT 2SM -RA BR BKN007 OVC011 A2959 RMK P0004 MADISHF
MVY,2017-04-01 16:45,-70.6150,41.3931,M,M,M,20.00,25.00,0.05,29.59,M,1.75,M,OVC,M,M,M,700.00,M,M,M,-RA BR,KMVY 011645Z AUTO 02025KT 2SM -RA BR OVC007 A2959 RMK P0005 MADISHF
MVY,2017-04-01 16:50,-70.6150,41.3931,M,M,M,20.00,26.00,0.05,29.59,M,1.75,M,OVC,M,M,M,800.00,M,M,M,-RA BR,KMVY 011650Z AUTO 02026KT 2SM -RA BR OVC008 A2959 RMK P0005 MADISHF
MVY,2017-04-01 16:53,-70.6150,41.3931,39.90,37.00,89.27,30.00,27.00,0.05,29.59,1002.00,1.75,41.00,OVC,M,M,M,800.00,M,M,M,-RA BR,KMVY 011653Z 03027G41KT 1 3/4SM R24/6000VP6000FT -RA BR OVC008 04/03 A2959 RMK AO2 PK WND 02041/1644 SLP020 P0005 T00440028
MVY,2017-04-01 16:55,-70.6150,41.3931,M,M,M,20.00,26.00,M,29.59,M,1.75,35.00,BKN,OVC,M,M,800.00,1100.00,M,M,-RA BR,KMVY 011655Z AUTO 02026G35KT 2SM -RA BR BKN008 OVC011 A2959 RMK MADISHF
MVY,2017-04-01 17:00,-70.6150,41.3931,M,M,M,30.00,24.00,M,29.59,M,2.00,M,BKN,OVC,M,M,800.00,1200.00,M,M,-RA BR,KMVY 011700Z AUTO 03024KT 2SM -RA BR BKN008 OVC012 A2959 RMK MADISHF
MVY,2017-04-01 17:02,-70.6150,41.3931,39.90,37.00,89.27,20.00,23.00,0.00,29.59,M,2.00,36.00,BKN,OVC,M,M,800.00,1200.00,M,M,-RA BR,KMVY 011702Z 02023G36KT 2SM -RA BR BKN008 OVC012 04/03 A2959 RMK AO2 PK WND 04036/1655 P0000 T00440028
MVY,2017-04-01 17:05,-70.6150,41.3931,M,M,M,30.00,29.00,0.01,29.59,M,2.00,M,BKN,OVC,M,M,800.00,1200.00,M,M,-RA BR,KMVY 011705Z AUTO 03029KT 2SM -RA BR BKN008 OVC012 A2959 RMK P0001 MADISHF
MVY,2017-04-01 17:10,-70.6150,41.3931,M,M,M,20.00,24.00,0.01,29.59,M,2.00,M,OVC,M,M,M,999.00,M,M,M,-RA BR,KMVY 011710Z AUTO 02024KT 2SM -RA BR OVC009 A2959 RMK P0001 MADISHF
MVY,2017-04-01 17:15,-70.6150,41.3931,M,M,M,20.00,25.00,0.01,29.59,M,2.50,M,OVC,M,M,M,999.00,M,M,M,-RA BR,KMVY 011715Z AUTO 02025KT 2 1/2SM -RA BR OVC009 A2959 RMK P0001 MADISHF
MVY,2017-04-01 17:16,-70.6150,41.3931,39.00,37.00,92.45,20.00,24.00,0.01,29.60,M,2.50,37.00,OVC,M,M,M,1000.00,M,M,M,-RA BR,KMVY 011716Z 02024G37KT 2 1/2SM -RA BR OVC010 04/03 A2960 RMK AO2 PK WND 02037/1707 P0001 T00390028
MVY,2017-04-01 17:20,-70.6150,41.3931,M,M,M,20.00,29.00,0.01,29.59,M,2.50,M,OVC,M,M,M,999.00,M,M,M,-RA BR,KMVY 011720Z AUTO 02029KT 2 1/2SM -RA BR OVC009 A2959 RMK P0001 MADISHF
MVY,2017-04-01 17:25,-70.6150,41.3931,M,M,M,20.00,24.00,0.01,29.59,M,3.00,M,OVC,M,M,M,999.00,M,M,M,-RA BR,KMVY 011725Z AUTO 02024KT 3SM -RA BR OVC009 A2959 RMK P0001 MADISHF
MVY,2017-04-01 17:30,-70.6150,41.3931,M,M,M,20.00,23.00,0.01,29.60,M,3.00,M,BKN,OVC,M,M,999.00,1400.00,M,M,-RA BR,KMVY 011730Z AUTO 02023KT 3SM -RA BR BKN009 OVC014 A2960 RMK P0001 MADISHF
MVY,2017-04-01 17:31,-70.6150,41.3931,39.00,37.00,92.45,20.00,22.00,0.01,29.60,M,3.00,37.00,BKN,OVC,M,M,1000.00,1600.00,M,M,-RA BR,KMVY 011731Z 02022G37KT 3SM -RA BR BKN010 OVC016 04/03 A2960 RMK AO2 PK WND 03038/1719 P0001 T00390028
MVY,2017-04-01 17:35,-70.6150,41.3931,M,M,M,20.00,22.00,0.01,29.60,M,3.00,M,BKN,OVC,M,M,999.00,1600.00,M,M,-RA BR,KMVY 011735Z AUTO 02022KT 3SM -RA BR BKN009 OVC016 A2960 RMK P0001 MADISHF
MVY,2017-04-01 17:40,-70.6150,41.3931,M,M,M,20.00,26.00,0.01,29.60,M,3.00,M,BKN,OVC,M,M,999.00,1600.00,M,M,-RA BR,KMVY 011740Z AUTO 02026KT 3SM -RA BR BKN009 OVC016 A2960 RMK P0001 MADISHF
MVY,2017-04-01 17:45,-70.6150,41.3931,M,M,M,20.00,28.00,0.01,29.60,M,3.00,M,BKN,OVC,M,M,999.00,1500.00,M,M,-RA BR,KMVY 011745Z AUTO 02028KT 3SM -RA BR BKN009 OVC015 A2960 RMK P0001 MADISHF
MVY,2017-04-01 17:50,-70.6150,41.3931,M,M,M,20.00,23.00,0.01,29.61,M,3.00,M,BKN,OVC,M,M,999.00,1500.00,M,M,-RA BR,KMVY 011750Z AUTO 02023KT 3SM -RA BR BKN009 OVC015 A2961 RMK P0001 MADISHF
MVY,2017-04-01 17:53,-70.6150,41.3931,39.00,36.00,88.87,20.00,24.00,0.01,29.60,1002.40,3.00,41.00,BKN,OVC,M,M,1000.00,1500.00,M,M,-RA BR,KMVY 011753Z 02024G41KT 3SM -RA BR BKN010 OVC015 04/02 A2960 RMK AO2 PK WND 01041/1743 SLP024 P0001 60061 T00390022 10056 20039 55001
MVY,2017-04-01 17:55,-70.6150,41.3931,M,M,M,20.00,27.00,M,29.61,M,3.00,32.00,OVC,M,M,M,1300.00,M,M,M,-RA BR,KMVY 011755Z AUTO 02027G32KT 3SM -RA BR OVC013 A2961 RMK MADISHF
MVY,2017-04-01 18:00,-70.6150,41.3931,M,M,M,20.00,24.00,M,29.61,M,3.00,30.00,OVC,M,M,M,1300.00,M,M,M,-RA BR,KMVY 011800Z AUTO 02024G30KT 3SM -RA BR OVC013 A2961 RMK MADISHF
MVY,2017-04-01 18:05,-70.6150,41.3931,M,M,M,20.00,27.00,M,29.61,M,3.00,37.00,OVC,M,M,M,1200.00,M,M,M,-RA BR,KMVY 011805Z AUTO 02027G37KT 3SM -RA BR OVC012 A2961 RMK MADISHF
MVY,2017-04-01 18:10,-70.6150,41.3931,M,M,M,20.00,25.00,M,29.61,M,3.00,M,OVC,M,M,M,1200.00,M,M,M,-RA BR,KMVY 011810Z AUTO 02025KT 3SM -RA BR OVC012 A2961 RMK MADISHF
MVY,2017-04-01 18:15,-70.6150,41.3931,M,M,M,10.00,24.00,0.01,29.61,M,3.00,M,BKN,OVC,M,M,999.00,1400.00,M,M,-RA BR,KMVY 011815Z AUTO 01024KT 3SM -RA BR BKN009 OVC014 A2961 RMK P0001 MADISHF
MVY,2017-04-01 18:20,-70.6150,41.3931,M,M,M,20.00,22.00,0.01,29.61,M,2.50,M,OVC,M,M,M,999.00,M,M,M,-RA BR,KMVY 011820Z AUTO 02022KT 2 1/2SM -RA BR OVC009 A2961 RMK P0001 MADISHF
MVY,2017-04-01 18:23,-70.6150,41.3931,39.00,36.00,88.87,20.00,23.00,0.01,29.61,M,2.50,32.00,BKN,OVC,M,M,1000.00,1400.00,M,M,-RA BR,KMVY 011823Z 02023G32KT 2 1/2SM -RA BR BKN010 OVC014 04/02 A2961 RMK AO2 PK WND 02038/1805 P0001 T00390022
MVY,2017-04-01 18:25,-70.6150,41.3931,M,M,M,20.00,24.00,0.01,29.61,M,2.50,M,OVC,M,M,M,999.00,M,M,M,-RA BR,KMVY 011825Z AUTO 02024KT 2 1/2SM -RA BR OVC009 A2961 RMK P0001 MADISHF
MVY,2017-04-01 18:30,-70.6150,41.3931,M,M,M,20.00,24.00,0.01,29.61,M,2.50,M,BKN,OVC,M,M,900.00,1500.00,M,M,-RA BR,KMVY 011830Z AUTO 02024KT 2 1/2SM -RA BR BKN009 OVC015 A2961 RMK P0001 MADISHF
MVY,2017-04-01 18:33,-70.6150,41.3931,39.00,36.00,88.87,20.00,22.00,0.02,29.61,M,2.50,39.00,BKN,OVC,M,M,900.00,1500.00,M,M,-RA BR,KMVY 011833Z 02022G39KT 2 1/2SM -RA BR BKN009 OVC015 04/02 A2961 RMK AO2 PK WND 02039/1828 P0002 T00390022
MVY,2017-04-01 18:35,-70.6150,41.3931,M,M,M,20.00,28.00,0.02,29.61,M,2.00,33.00,BKN,OVC,M,M,900.00,1500.00,M,M,-RA BR,KMVY 011835Z AUTO 02028G33KT 2SM -RA BR BKN009 OVC015 A2961 RMK P0002 MADISHF
MVY,2017-04-01 18:40,-70.6150,41.3931,M,M,M,10.00,28.00,0.02,29.61,M,2.00,34.00,OVC,M,M,M,1100.00,M,M,M,-RA BR,KMVY 011840Z AUTO 01028G34KT 2SM -RA BR OVC011 A2961 RMK P0002 MADISHF
MVY,2017-04-01 18:45,-70.6150,41.3931,39.00,36.00,88.87,20.00,25.00,0.03,29.61,M,2.00,42.00,OVC,M,M,M,1100.00,M,M,M,-RA BR,KMVY 011845Z 02025G42KT 2SM -RA BR OVC011 04/02 A2961 RMK AO2 PK WND 02042/1841 P0003 T00390022
MVY,2017-04-01 18:50,-70.6150,41.3931,M,M,M,20.00,22.00,0.03,29.62,M,2.00,M,BKN,OVC,M,M,1100.00,1400.00,M,M,-RA BR,KMVY 011850Z AUTO 02022KT 2SM -RA BR BKN011 OVC014 A2962 RMK P0003 MADISHF
MVY,2017-04-01 18:53,-70.6150,41.3931,39.00,37.00,92.45,20.00,25.00,0.04,29.61,1002.70,2.00,34.00,OVC,M,M,M,1100.00,M,M,M,-RA BR,KMVY 011853Z 02025G34KT 2SM -RA BR OVC011 04/03 A2961 RMK AO2 PK WND 02042/1841 SLP027 P0004 T00390028
MVY,2017-04-01 18:55,-70.6150,41.3931,M,M,M,10.00,26.00,M,29.61,M,2.00,M,OVC,M,M,M,1100.00,M,M,M,-RA BR,KMVY 011855Z AUTO 01026KT 2SM -RA BR OVC011 A2961 RMK MADISHF
MVY,2017-04-01 19:00,-70.6150,41.3931,M,M,M,10.00,24.00,M,29.62,M,2.50,29.00,OVC,M,M,M,999.00,M,M,M,-RA BR,KMVY 011900Z AUTO 01024G29KT 2 1/2SM -RA BR OVC009 A2962 RMK MADISHF
MVY,2017-04-01 19:05,-70.6150,41.3931,M,M,M,10.00,26.00,0.01,29.62,M,2.50,41.00,BKN,OVC,M,M,900.00,1200.00,M,M,-RA BR,KMVY 011905Z AUTO 01026G41KT 2 1/2SM -RA BR BKN009 OVC012 A2962 RMK P0001 MADISHF
MVY,2017-04-01 19:10,-70.6150,41.3931,M,M,M,10.00,26.00,0.01,29.62,M,2.50,35.00,BKN,OVC,M,M,900.00,1200.00,M,M,-RA BR,KMVY 011910Z AUTO 01026G35KT 2 1/2SM -RA BR BKN009 OVC012 A2962 RMK P0001 MADISHF
MVY,2017-04-01 19:15,-70.6150,41.3931,M,M,M,10.00,25.00,0.02,29.63,M,3.00,32.00,OVC,M,M,M,1100.00,M,M,M,-RA BR,KMVY 011915Z AUTO 01025G32KT 3SM -RA BR OVC011 A2963 RMK P0002 MADISHF
MVY,2017-04-01 19:16,-70.6150,41.3931,39.00,36.00,88.87,10.00,24.00,0.02,29.62,M,3.00,36.00,BKN,OVC,M,M,900.00,1300.00,M,M,-RA BR,KMVY 011916Z 01024G36KT 3SM -RA BR BKN009 OVC013 04/02 A2962 RMK AO2 PK WND 01042/1905 P0002 T00390022
MVY,2017-04-01 19:20,-70.6150,41.3931,M,M,M,10.00,23.00,0.02,29.62,M,3.00,32.00,OVC,M,M,M,900.00,M,M,M,-RA BR,KMVY 011920Z AUTO 01023G32KT 3SM -RA BR OVC009 A2962 RMK P0002 MADISHF
MVY,2017-04-01 19:25,-70.6150,41.3931,M,M,M,20.00,24.00,0.03,29.62,M,4.00,M,OVC,M,M,M,900.00,M,M,M,-RA BR,KMVY 011925Z AUTO 02024KT 4SM -RA BR OVC009 A2962 RMK P0003 MADISHF
MVY,2017-04-01 19:30,-70.6150,41.3931,M,M,M,10.00,25.00,0.03,29.62,M,4.00,30.00,OVC,M,M,M,999.00,M,M,M,-RA BR,KMVY 011930Z AUTO 01025G30KT 4SM -RA BR OVC009 A2962 RMK P0003 MADISHF
MVY,2017-04-01 19:34,-70.6150,41.3931,39.00,36.00,88.87,10.00,26.00,0.04,29.63,M,3.00,34.00,OVC,M,M,M,1000.00,M,M,M,-RA BR,KMVY 011934Z 01026G34KT 3SM -RA BR OVC010 04/02 A2963 RMK AO2 PK WND 01042/1905 P0004 T00390022
MVY,2017-04-01 19:35,-70.6150,41.3931,M,M,M,20.00,26.00,0.04,29.63,M,3.50,M,OVC,M,M,M,999.00,M,M,M,-RA BR,KMVY 011935Z AUTO 02026KT 3SM -RA BR OVC009 A2963 RMK P0004 MADISHF
MVY,2017-04-01 19:40,-70.6150,41.3931,M,M,M,20.00,25.00,0.04,29.63,M,4.00,33.00,OVC,M,M,M,999.00,M,M,M,-RA BR,KMVY 011940Z AUTO 02025G33KT 4SM -RA BR OVC009 A2963 RMK P0004 MADISHF
MVY,2017-04-01 19:45,-70.6150,41.3931,M,M,M,20.00,22.00,0.04,29.64,M,5.00,28.00,OVC,M,M,M,1200.00,M,M,M,-RA BR,KMVY 011945Z AUTO 02022G28KT 5SM -RA BR OVC012 A2964 RMK P0004 MADISHF
MVY,2017-04-01 19:50,-70.6150,41.3931,M,M,M,20.00,24.00,0.05,29.64,M,5.00,29.00,SCT,OVC,M,M,900.00,1200.00,M,M,-RA BR,KMVY 011950Z AUTO 02024G29KT 5SM -RA BR SCT009 OVC012 A2964 RMK P0005 MADISHF
MVY,2017-04-01 19:53,-70.6150,41.3931,39.00,36.00,88.87,20.00,26.00,0.05,29.64,1003.70,5.00,38.00,OVC,M,M,M,1200.00,M,M,M,-RA BR,KMVY 011953Z 02026G38KT 5SM -RA BR OVC012 04/02 A2964 RMK AO2 PK WND 01042/1905 SLP037 P0005 T00390022
MVY,2017-04-01 19:55,-70.6150,41.3931,M,M,M,10.00,25.00,M,29.64,M,5.00,30.00,OVC,M,M,M,1200.00,M,M,M,-RA BR,KMVY 011955Z AUTO 01025G30KT 5SM -RA BR OVC012 A2964 RMK MADISHF
MVY,2017-04-01 20:00,-70.6150,41.3931,M,M,M,20.00,24.00,M,29.64,M,5.00,35.00,OVC,M,M,M,1200.00,M,M,M,-RA BR,KMVY 012000Z AUTO 02024G35KT 5SM -RA BR OVC012 A2964 RMK MADISHF
MVY,2017-04-01 20:05,-70.6150,41.3931,M,M,M,10.00,23.00,M,29.65,M,6.00,M,OVC,M,M,M,1200.00,M,M,M,-RA BR,KMVY 012005Z AUTO 01023KT 6SM -RA BR OVC012 A2965 RMK MADISHF
MVY,2017-04-01 20:10,-70.6150,41.3931,M,M,M,10.00,23.00,0.01,29.65,M,7.00,29.00,OVC,M,M,M,1200.00,M,M,M,-RA,KMVY 012010Z AUTO 01023G29KT 7SM -RA OVC012 A2965 RMK P0001 MADISHF
MVY,2017-04-01 20:15,-70.6150,41.3931,M,M,M,20.00,25.00,0.01,29.65,M,9.00,M,OVC,M,M,M,1200.00,M,M,M,-RA,KMVY 012015Z AUTO 02025KT 9SM -RA OVC012 A2965 RMK P0001 MADISHF
MVY,2017-04-01 20:20,-70.6150,41.3931,M,M,M,20.00,23.00,0.01,29.66,M,10.00,33.00,OVC,M,M,M,1200.00,M,M,M,-RA,KMVY 012020Z AUTO 02023G33KT 10SM -RA OVC012 A2966 RMK P0001 MADISHF
MVY,2017-04-01 20:25,-70.6150,41.3931,M,M,M,20.00,21.00,0.01,29.66,M,10.00,27.00,BKN,OVC,M,M,999.00,1400.00,M,M,-RA,KMVY 012025Z AUTO 02021G27KT 10SM -RA BKN009 OVC014 A2966 RMK P0001 MADISHF
MVY,2017-04-01 20:30,-70.6150,41.3931,M,M,M,20.00,22.00,0.01,29.66,M,10.00,29.00,OVC,M,M,M,999.00,M,M,M,M,KMVY 012030Z AUTO 02022G29KT 10SM OVC009 A2966 RMK P0001 MADISHF
MVY,2017-04-01 20:35,-70.6150,41.3931,M,M,M,10.00,20.00,0.01,29.67,M,10.00,27.00,OVC,M,M,M,999.00,M,M,M,M,KMVY 012035Z AUTO 01020G27KT 10SM OVC009 A2967 RMK P0001 MADISHF
MVY,2017-04-01 20:40,-70.6150,41.3931,M,M,M,10.00,23.00,0.01,29.68,M,10.00,M,OVC,M,M,M,999.00,M,M,M,M,KMVY 012040Z AUTO 01023KT 10SM OVC009 A2968 RMK P0001 MADISHF
MVY,2017-04-01 20:45,-70.6150,41.3931,M,M,M,20.00,24.00,0.01,29.68,M,10.00,M,OVC,M,M,M,999.00,M,M,M,M,KMVY 012045Z AUTO 02024KT 10SM OVC009 A2968 RMK P0001 MADISHF
MVY,2017-04-01 20:50,-70.6150,41.3931,M,M,M,10.00,22.00,0.01,29.69,M,10.00,M,OVC,M,M,M,999.00,M,M,M,M,KMVY 012050Z AUTO 01022KT 10SM OVC009 A2969 RMK P0001 MADISHF
MVY,2017-04-01 20:53,-70.6150,41.3931,39.00,36.00,88.87,10.00,20.00,0.01,29.69,1005.30,10.00,35.00,OVC,M,M,M,1000.00,M,M,M,M,KMVY 012053Z 01020G35KT 10SM OVC010 04/02 A2969 RMK AO2 PK WND 01036/2000 RAE30 SLP053 P0001 60010 T00390022 53027
MVY,2017-04-01 20:55,-70.6150,41.3931,M,M,M,10.00,23.00,M,29.69,M,10.00,28.00,BKN,OVC,M,M,999.00,1400.00,M,M,M,KMVY 012055Z AUTO 01023G28KT 10SM BKN009 OVC014 A2969 RMK MADISHF
MVY,2017-04-01 21:00,-70.6150,41.3931,M,M,M,10.00,19.00,M,29.70,M,10.00,M,OVC,M,M,M,1200.00,M,M,M,M,KMVY 012100Z AUTO 01019KT 10SM OVC012 A2970 RMK MADISHF
MVY,2017-04-01 21:05,-70.6150,41.3931,M,M,M,10.00,20.00,M,29.70,M,10.00,26.00,BKN,OVC,M,M,1200.00,1600.00,M,M,M,KMVY 012105Z AUTO 01020G26KT 10SM BKN012 OVC016 A2970 RMK MADISHF
MVY,2017-04-01 21:10,-70.6150,41.3931,M,M,M,10.00,22.00,M,29.71,M,10.00,27.00,BKN,OVC,M,M,999.00,1500.00,M,M,M,KMVY 012110Z AUTO 01022G27KT 10SM BKN009 OVC015 A2971 RMK MADISHF
MVY,2017-04-01 21:15,-70.6150,41.3931,M,M,M,10.00,20.00,M,29.72,M,9.00,M,OVC,M,M,M,999.00,M,M,M,M,KMVY 012115Z AUTO 01020KT 9SM OVC009 A2972 RMK MADISHF
MVY,2017-04-01 21:20,-70.6150,41.3931,M,M,M,360.00,20.00,M,29.72,M,7.00,27.00,OVC,M,M,M,999.00,M,M,M,M,KMVY 012120Z AUTO 36020G27KT 7SM OVC009 A2972 RMK MADISHF
MVY,2017-04-01 21:25,-70.6150,41.3931,M,M,M,360.00,18.00,M,29.73,M,5.00,25.00,OVC,M,M,M,999.00,M,M,M,-RA BR,KMVY 012125Z AUTO 36018G25KT 5SM -RA BR OVC009 A2973 RMK MADISHF
MVY,2017-04-01 21:30,-70.6150,41.3931,M,M,M,360.00,17.00,M,29.74,M,5.00,23.00,OVC,M,M,M,999.00,M,M,M,-RA BR,KMVY 012130Z AUTO 36017G23KT 5SM -RA BR OVC009 A2974 RMK MADISHF
MVY,2017-04-01 21:35,-70.6150,41.3931,M,M,M,360.00,17.00,M,29.74,M,5.00,24.00,OVC,M,M,M,999.00,M,M,M,-RA BR,KMVY 012135Z AUTO 36017G24KT 5SM -RA BR OVC009 A2974 RMK MADISHF
MVY,2017-04-01 21:40,-70.6150,41.3931,M,M,M,360.00,20.00,M,29.75,M,6.00,M,OVC,M,M,M,999.00,M,M,M,-RA BR,KMVY 012140Z AUTO 36020KT 6SM -RA BR OVC009 A2975 RMK MADISHF
MVY,2017-04-01 21:45,-70.6150,41.3931,M,M,M,360.00,18.00,M,29.75,M,4.00,27.00,OVC,M,M,M,900.00,M,M,M,-SN BR,KMVY 012145Z AUTO 36018G27KT 4SM -SN BR OVC009 A2975 RMK MADISHF
MVY,2017-04-01 21:50,-70.6150,41.3931,M,M,M,360.00,19.00,M,29.76,M,2.00,26.00,OVC,M,M,M,900.00,M,M,M,-SN BR,KMVY 012150Z AUTO 36019G26KT 2SM -SN BR OVC009 A2976 RMK MADISHF
MVY,2017-04-01 21:53,-70.6150,41.3931,37.90,35.10,89.53,360.00,20.00,0.01,29.76,1007.90,1.75,29.00,OVC,M,M,M,900.00,M,M,M,-SN BR,KMVY 012153Z AUTO 36020G29KT 1 3/4SM -SN BR OVC009 03/02 A2976 RMK AO2 PK WND 01034/2056 RAB22E42SNB42 SLP079 P0001 T00330017 TSNO
MVY,2017-04-01 21:55,-70.6150,41.3931,M,M,M,360.00,23.00,M,29.77,M,1.75,30.00,OVC,M,M,M,900.00,M,M,M,-SN BR,KMVY 012155Z AUTO 36023G30KT 2SM -SN BR OVC009 A2977 RMK MADISHF
MVY,2017-04-01 21:57,-70.6150,41.3931,37.90,35.10,89.53,360.00,20.00,0.00,29.77,M,2.00,31.00,BKN,OVC,M,M,1000.00,1300.00,M,M,-SN BR,KMVY 012157Z AUTO 36020G31KT 2SM -SN BR BKN010 OVC013 03/02 A2977 RMK AO2 PK WND 01031/2155 PRESRR P0000 T00330017 TSNO
MVY,2017-04-01 22:00,-70.6150,41.3931,M,M,M,360.00,16.00,M,29.77,M,2.00,21.00,OVC,M,M,M,999.00,M,M,M,-SN BR,KMVY 012200Z AUTO 36016G21KT 2SM -SN BR OVC009 A2977 RMK MADISHF
MVY,2017-04-01 22:05,-70.6150,41.3931,M,M,M,360.00,17.00,M,29.78,M,1.50,M,BKN,OVC,M,M,999.00,1300.00,M,M,-SN BR,KMVY 012205Z AUTO 36017KT 1 1/2SM -SN BR BKN009 OVC013 A2978 RMK MADISHF
MVY,2017-04-01 22:06,-70.6150,41.3931,37.90,35.10,89.53,360.00,16.00,0.01,29.78,M,1.50,28.00,BKN,OVC,M,M,900.00,1300.00,M,M,-SN BR,KMVY 012206Z AUTO 36016G28KT 1 1/2SM R24/6000VP6000FT -SN BR BKN009 OVC013 03/02 A2978 RMK AO2 PK WND 01031/2155 PRESRR P0001 T00330017 TSNO
MVY,2017-04-01 22:10,-70.6150,41.3931,M,M,M,360.00,20.00,0.01,29.78,M,1.25,29.00,OVC,M,M,M,900.00,M,M,M,-SN BR,KMVY 012210Z AUTO 36020G29KT 1 1/2SM -SN BR OVC009 A2978 RMK P0001 MADISHF
MVY,2017-04-01 22:15,-70.6150,41.3931,M,M,M,10.00,16.00,0.01,29.78,M,1.00,21.00,BKN,OVC,M,M,900.00,1400.00,M,M,-SN BR,KMVY 012215Z AUTO 01016G21KT 1SM -SN BR BKN009 OVC014 A2978 RMK P0001 MADISHF
MVY,2017-04-01 22:20,-70.6150,41.3931,M,M,M,10.00,19.00,0.02,29.78,M,1.00,25.00,BKN,OVC,M,M,1100.00,1400.00,M,M,-SN BR,KMVY 012220Z AUTO 01019G25KT 1SM -SN BR BKN011 OVC014 A2978 RMK P0002 MADISHF
MVY,2017-04-01 22:25,-70.6150,41.3931,37.90,35.10,89.53,10.00,19.00,0.02,29.78,M,1.25,32.00,OVC,M,M,M,1100.00,M,M,M,-SN BR,KMVY 012225Z AUTO 01019G32KT 1 1/4SM -SN BR OVC011 03/02 A2978 RMK AO2 PK WND 03032/2218 P0002 T00330017 TSNO
MVY,2017-04-01 22:30,-70.6150,41.3931,M,M,M,10.00,21.00,0.02,29.78,M,1.75,M,OVC,M,M,M,1100.00,M,M,M,-SN BR,KMVY 012230Z AUTO 01021KT 2SM -SN BR OVC011 A2978 RMK P0002 MADISHF
MVY,2017-04-01 22:34,-70.6150,41.3931,37.90,35.10,89.53,360.00,21.00,0.02,29.79,M,2.50,33.00,BKN,OVC,M,M,900.00,1300.00,M,M,-SN BR,KMVY 012234Z AUTO 36021G33KT 2 1/2SM -SN BR BKN009 OVC013 03/02 A2979 RMK AO2 PK WND 01033/2234 P0002 T00330017 TSNO
MVY,2017-04-01 22:35,-70.6150,41.3931,M,M,M,10.00,21.00,0.02,29.79,M,3.00,M,BKN,OVC,M,M,900.00,1300.00,M,M,-SN BR,KMVY 012235Z AUTO 01021KT 3SM -SN BR BKN009 OVC013 A2979 RMK P0002 MADISHF
MVY,2017-04-01 22:40,-70.6150,41.3931,M,M,M,10.00,17.00,0.02,29.79,M,4.00,M,BKN,OVC,M,M,900.00,1300.00,M,M,-SN BR,KMVY 012240Z AUTO 01017KT 4SM -SN BR BKN009 OVC013 A2979 RMK P0002 MADISHF
MVY,2017-04-01 22:41,-70.6150,41.3931,37.90,35.10,89.53,10.00,15.00,0.02,29.80,M,4.00,33.00,BKN,OVC,M,M,900.00,1300.00,M,M,-RA BR,KMVY 012241Z AUTO 01015G33KT 4SM -RA BR BKN009 OVC013 03/02 A2980 RMK AO2 PK WND 01033/2234 RAB41SNE41 P0002 T00330017 TSNO
MVY,2017-04-01 22:45,-70.6150,41.3931,M,M,M,10.00,21.00,0.02,29.80,M,4.00,M,OVC,M,M,M,900.00,M,M,M,-RA BR,KMVY 012245Z AUTO 01021KT 4SM -RA BR OVC009 A2980 RMK P0002 MADISHF
MVY,2017-04-01 22:50,-70.6150,41.3931,M,M,M,360.00,16.00,0.02,29.81,M,6.00,M,OVC,M,M,M,900.00,M,M,M,-RA BR,KMVY 012250Z AUTO 36016KT 6SM -RA BR OVC009 A2981 RMK P0002 MADISHF
MVY,2017-04-01 22:53,-70.6150,41.3931,37.00,35.10,92.76,10.00,16.00,0.02,29.81,1009.40,7.00,30.00,OVC,M,M,M,900.00,M,M,M,UP,KMVY 012253Z AUTO 01016G30KT 7SM UP OVC009 03/02 A2981 RMK AO2 PK WND 01033/2234 RAB41E51UPB51SNE41 SLP094 P0002 T00280017 TSNO
MVY,2017-04-01 22:55,-70.6150,41.3931,M,M,M,360.00,14.00,0.00,29.81,M,7.00,M,OVC,M,M,M,900.00,M,M,M,UP,KMVY 012255Z AUTO 36014KT 7SM UP OVC009 A2981 RMK P0000 MADISHF
MVY,2017-04-01 23:00,-70.6150,41.3931,M,M,M,360.00,19.00,M,29.81,M,9.00,26.00,OVC,M,M,M,900.00,M,M,M,M,KMVY 012300Z AUTO 36019G26KT 9SM OVC009 A2981 RMK MADISHF
MVY,2017-04-01 23:05,-70.6150,41.3931,M,M,M,360.00,17.00,M,29.81,M,10.00,24.00,OVC,M,M,M,900.00,M,M,M,M,KMVY 012305Z AUTO 36017G24KT 10SM OVC009 A2981 RMK CIG 7V12  MADISHF
MVY,2017-04-01 23:10,-70.6150,41.3931,M,M,M,10.00,19.00,M,29.81,M,10.00,M,OVC,M,M,M,900.00,M,M,M,M,KMVY 012310Z AUTO 01019KT 10SM OVC009 A2981 RMK CIG 7V12  MADISHF
MVY,2017-04-01 23:15,-70.6150,41.3931,M,M,M,10.00,22.00,M,29.82,M,10.00,28.00,OVC,M,M,M,900.00,M,M,M,M,KMVY 012315Z AUTO 01022G28KT 10SM OVC009 A2982 RMK CIG 7V12  MADISHF
MVY,2017-04-01 23:20,-70.6150,41.3931,M,M,M,10.00,20.00,M,29.82,M,10.00,25.00,OVC,M,M,M,900.00,M,M,M,M,KMVY 012320Z AUTO 01020G25KT 10SM OVC009 A2982 RMK CIG 8V12  MADISHF
MVY,2017-04-01 23:25,-70.6150,41.3931,M,M,M,360.00,19.00,M,29.82,M,9.00,25.00,OVC,M,M,M,999.00,M,M,M,M,KMVY 012325Z AUTO 36019G25KT 9SM OVC009 A2982 RMK CIG 8V12  MADISHF
MVY,2017-04-01 23:30,-70.6150,41.3931,37.00,34.00,88.78,360.00,16.00,0.00,29.82,M,8.00,30.00,OVC,M,M,M,1000.00,M,M,M,M,KMVY 012330Z AUTO 36016G30KT 8SM OVC010 03/01 A2982 RMK AO2 PK WND 36032/2301 UPE2258 CIG 008V012 P0000 T00280011 TSNO
MVY,2017-04-01 23:35,-70.6150,41.3931,M,M,M,360.00,19.00,M,29.83,M,7.00,M,OVC,M,M,M,999.00,M,M,M,M,KMVY 012335Z AUTO 36019KT 7SM OVC009 A2983 RMK CIG 8V12  MADISHF
MVY,2017-04-01 23:40,-70.6150,41.3931,M,M,M,360.00,17.00,M,29.83,M,7.00,M,OVC,M,M,M,999.00,M,M,M,M,KMVY 012340Z AUTO 36017KT 7SM OVC009 A2983 RMK CIG 8V13  MADISHF
MVY,2017-04-01 23:45,-70.6150,41.3931,M,M,M,10.00,21.00,M,29.83,M,6.00,M,OVC,M,M,M,999.00,M,M,M,BR,KMVY 012345Z AUTO 01021KT 6SM BR OVC009 A2983 RMK CIG 8V14  MADISHF
MVY,2017-04-01 23:50,-70.6150,41.3931,M,M,M,360.00,18.00,0.00,29.84,M,6.00,M,OVC,M,M,M,999.00,M,M,M,UP BR,KMVY 012350Z AUTO 36018KT 6SM UP BR OVC009 A2984 RMK P0000 CIG 8V12  MADISHF
MVY,2017-04-01 23:53,-70.6150,41.3931,37.00,34.00,88.78,360.00,19.00,0.00,29.84,1010.40,6.00,29.00,OVC,M,M,M,1000.00,M,M,M,UP BR,KMVY 012353Z AUTO 36019G29KT 6SM UP BR OVC010 03/01 A2984 RMK AO2 PK WND 36032/2301 UPE2258B43 CIG 008V012 SLP104 P0000 60013 T00280011 10044 20028 51051 TSNO
MVY,2017-04-01 23:55,-70.6150,41.3931,M,M,M,360.00,20.00,0.00,29.84,M,6.00,M,OVC,M,M,M,999.00,M,M,M,UP BR,KMVY 012355Z AUTO 36020KT 6SM UP BR OVC009 A2984 RMK P0000 CIG 8V12  MADISHF
