#DEBUG: Format Typ    -> comma
#DEBUG: Time Period   -> 2017-04-01 00:00:00+00:00 2017-04-02 00:00:00+00:00
#DEBUG: Time Zone     -> Etc/UTC
#DEBUG: Data Contact   -> daryl herzmann akrherz@iastate.edu 515-294-5978
#DEBUG: Entries Found -> -1
station,valid,lon,lat,tmpf, dwpf, relh, drct, sknt, p01i, alti, mslp, vsby, gust, skyc1, skyc2, skyc3, skyc4, skyl1, skyl2, skyl3, skyl4, presentwx, metar
N60,2017-04-01 00:52,-101.4394,47.6458,46.00,39.00,76.40,310.00,5.00,0.00,30.13,1021.70,M,M,M,M,M,M,M,M,M,M,M,KN60 010052Z AUTO 31005KT 08/04 A3013 RMK AO1 SLP217 T00780039
N60,2017-04-01 01:52,-101.4394,47.6458,41.00,37.90,88.62,360.00,7.00,0.00,30.14,1022.30,M,M,M,M,M,M,M,M,M,M,M,KN60 010152Z AUTO 36007KT 05/03 A3014 RMK AO1 SLP223 T00500033
N60,2017-04-01 02:52,-101.4394,47.6458,39.00,37.90,95.78,20.00,5.00,0.00,30.15,1022.60,M,M,M,M,M,M,M,M,M,M,M,KN60 010252Z AUTO 02005KT 04/03 A3015 RMK AO1 SLP226 T00390033 53008
N60,2017-04-01 03:52,-101.4394,47.6458,39.90,39.00,96.55,30.00,4.00,0.00,30.18,1023.40,M,M,M,M,M,M,M,M,M,M,M,KN60 010352Z AUTO 03004KT 04/04 A3018 RMK AO1 SLP234 T00440039
N60,2017-04-01 04:52,-101.4394,47.6458,39.90,39.00,96.55,M,3.00,0.00,30.19,1023.80,M,M,M,M,M,M,M,M,M,M,M,KN60 010452Z AUTO VRB03KT 04/04 A3019 RMK AO1 SLP238 T00440039
N60,2017-04-01 05:52,-101.4394,47.6458,39.00,37.90,95.78,40.00,4.00,0.00,30.20,1024.00,M,M,M,M,M,M,M,M,M,M,M,KN60 010552Z AUTO 04004KT 04/03 A3020 RMK AO1 SLP240 T00390033 10083 20039 401060006 51016
N60,2017-04-01 06:52,-101.4394,47.6458,39.00,37.90,95.78,60.00,3.00,0.00,30.21,1024.20,M,M,M,M,M,M,M,M,M,M,M,KN60 010652Z AUTO 06003KT 04/03 A3021 RMK AO1 SLP242 T00390033
N60,2017-04-01 07:52,-101.4394,47.6458,37.90,37.90,100.00,100.00,5.00,0.00,30.19,1023.80,M,M,M,M,M,M,M,M,M,M,M,KN60 010752Z AUTO 10005KT 03/03 A3019 RMK AO1 SLP238 T00330033
N60,2017-04-01 08:52,-101.4394,47.6458,37.90,37.00,96.52,100.00,4.00,0.00,30.19,1023.60,M,M,M,M,M,M,M,M,M,M,M,KN60 010852Z AUTO 10004KT 03/03 A3019 RMK AO1 SLP236 T00330028 58004
N60,2017-04-01 09:52,-101.4394,47.6458,37.00,36.00,96.13,130.00,4.00,0.00,30.19,1023.80,M,M,M,M,M,M,M,M,M,M,M,KN60 010952Z AUTO 13004KT 03/02 A3019 RMK AO1 SLP238 T00280022
N60,2017-04-01 10:52,-101.4394,47.6458,37.00,37.00,100.00,90.00,5.00,0.00,30.19,1023.70,M,M,M,M,M,M,M,M,M,M,M,KN60 011052Z AUTO 09005KT 03/03 A3019 RMK AO1 SLP237 T00280028
N60,2017-04-01 11:52,-101.4394,47.6458,37.00,37.00,100.00,120.00,4.00,0.00,30.18,1023.60,M,M,M,M,M,M,M,M,M,M,M,KN60 011152Z AUTO 12004KT 03/03 A3018 RMK AO1 SLP236 T00280028 10039 20028 58001
N60,2017-04-01 12:52,-101.4394,47.6458,37.00,37.00,100.00,110.00,3.00,0.00,30.18,1023.60,M,M,M,M,M,M,M,M,M,M,M,KN60 011252Z AUTO 11003KT 03/03 A3018 RMK AO1 SLP236 T00280028
N60,2017-04-01 13:52,-101.4394,47.6458,37.00,37.00,100.00,110.00,6.00,0.00,30.18,1023.90,M,M,M,M,M,M,M,M,M,M,M,KN60 011352Z AUTO 11006KT 03/03 A3018 RMK AO1 SLP239 T00280028
N60,2017-04-01 14:52,-101.4394,47.6458,37.90,37.90,100.00,110.00,3.00,0.00,30.16,1023.00,M,M,M,M,M,M,M,M,M,M,M,KN60 011452Z AUTO 11003KT 03/03 A3016 RMK AO1 SLP230 T00330033 58008
N60,2017-04-01 15:52,-101.4394,47.6458,39.90,39.90,100.00,140.00,4.00,0.00,30.16,1023.20,M,M,M,M,M,M,M,M,M,M,M,KN60 011552Z AUTO 14004KT 04/04 A3016 RMK AO1 SLP232 T00440044
N60,2017-04-01 16:52,-101.4394,47.6458,42.10,41.00,95.84,170.00,8.00,0.00,30.15,1022.70,M,M,M,M,M,M,M,M,M,M,M,KN60 011652Z AUTO 17008KT 06/05 A3015 RMK AO1 SLP227 T00560050
N60,2017-04-01 17:52,-101.4394,47.6458,46.90,42.10,83.28,170.00,7.00,0.00,30.12,1021.20,M,M,M,M,M,M,M,M,M,M,M,KN60 011752Z AUTO 17007KT 08/06 A3012 RMK AO1 SLP212 T00830056 10083 20028 58013
N60,2017-04-01 18:52,-101.4394,47.6458,52.00,42.10,68.86,M,5.00,0.00,30.07,1019.50,M,M,M,M,M,M,M,M,M,M,M,KN60 011852Z AUTO VRB05KT 11/06 A3007 RMK AO1 SLP195 T01110056
N60,2017-04-01 19:52,-101.4394,47.6458,59.00,39.00,47.35,200.00,12.00,0.00,30.03,1017.70,M,M,M,M,M,M,M,M,M,M,M,KN60 011952Z AUTO 20012KT 15/04 A3003 RMK AO1 SLP177 T01500039
N60,2017-04-01 20:52,-101.4394,47.6458,61.00,35.10,37.81,210.00,10.00,0.00,29.99,1016.50,M,M,M,M,M,M,M,M,M,M,M,KN60 012052Z AUTO 21010KT 16/02 A2999 RMK AO1 SLP165 T01610017 56039
N60,2017-04-01 21:52,-101.4394,47.6458,62.10,34.00,34.81,210.00,12.00,0.00,29.96,1015.20,M,M,M,M,M,M,M,M,M,M,M,KN60 012152Z AUTO 21012KT 17/01 A2996 RMK AO1 SLP152 T01670011
N60,2017-04-01 22:52,-101.4394,47.6458,57.90,36.00,43.78,200.00,13.00,0.00,29.94,1014.70,M,M,M,M,M,M,M,M,M,M,M,KN60 012252Z AUTO 20013KT 14/02 A2994 RMK AO1 SLP147 T01440022
N60,2017-04-01 23:52,-101.4394,47.6458,55.90,35.10,45.40,190.00,11.00,0.00,29.91,1013.80,M,M,M,M,M,M,M,M,M,M,M,KN60 012352Z AUTO 19011KT 13/02 A2991 RMK AO1 SLP138 T01330017 10167 20083 56027
