#DEBUG: Format Typ    -> comma
#DEBUG: Time Period   -> 2017-04-01 00:00:00+00:00 2017-04-02 00:00:00+00:00
#DEBUG: Time Zone     -> Etc/UTC
#DEBUG: Data Contact   -> daryl herzmann akrherz@iastate.edu 515-294-5978
#DEBUG: Entries Found -> -1
station,valid,lon,lat,tmpf, dwpf, relh, drct, sknt, p01i, alti, mslp, vsby, gust, skyc1, skyc2, skyc3, skyc4, skyl1, skyl2, skyl3, skyl4, presentwx, metar
NEL,2017-04-01 00:00,-74.3536,40.0334,59.00,48.20,67.33,60.00,11.00,0.08,29.67,M,1.75,M,SCT,BKN,OVC,M,500.00,1000.00,2400.00,M,RA,KNEL 010000Z AUTO 06011KT 1 3/4SM RA SCT005 BKN010 OVC024 15/09 A2967 RMK AO2 VIS 1 1/4V2 1/2 P0008 $
NEL,2017-04-01 00:08,-74.3536,40.0334,57.20,46.40,67.12,40.00,9.00,0.09,29.66,M,2.00,M,FEW,BKN,OVC,M,500.00,1800.00,2500.00,M,RA,KNEL 010008Z AUTO 04009KT 2SM RA FEW005 BKN018 OVC025 14/08 A2966 RMK AO2 P0009 $
NEL,2017-04-01 00:28,-74.3536,40.0334,55.90,46.90,71.69,50.00,8.00,0.10,29.65,1004.10,2.00,M,BKN,OVC,M,M,2300.00,2800.00,M,M,-RA,KNEL 010028Z AUTO 05008KT 2SM -RA BKN023 OVC028 13/08 A2965 RMK AO2 SLP041 P0010 60081 T01330083 10156 20111 58046 $
NEL,2017-04-01 00:52,-74.3536,40.0334,57.90,46.90,66.70,50.00,9.00,0.00,29.66,M,5.00,M,BKN,OVC,M,M,1500.00,2100.00,M,M,-RA,KNEL 010052Z AUTO 05009KT 5SM -RA BKN015 OVC021 14/08 A2966 RMK AO2 P0000 T01440083 $
NEL,2017-04-01 01:00,-74.3536,40.0334,57.20,46.40,67.12,50.00,9.00,0.00,29.65,M,2.50,M,FEW,OVC,M,M,400.00,1300.00,M,M,-RA,KNEL 010100Z AUTO 05009KT 2 1/2SM -RA FEW004 OVC013 14/08 A2965 RMK AO2 P0000 $
NEL,2017-04-01 01:09,-74.3536,40.0334,55.40,46.40,71.64,50.00,9.00,0.00,29.65,M,1.50,M,SCT,OVC,M,M,400.00,1300.00,M,M,-RA,KNEL 010109Z AUTO 05009KT 1 1/2SM -RA SCT004 OVC013 13/08 A2965 RMK AO2 P0000 $
NEL,2017-04-01 01:23,-74.3536,40.0334,57.20,46.40,67.12,50.00,10.00,0.00,29.64,M,4.00,M,BKN,OVC,M,M,500.00,1100.00,M,M,-RA,KNEL 010123Z AUTO 05010KT 4SM -RA BKN005 OVC011 14/08 A2964 RMK AO2 P0000 $
NEL,2017-04-01 01:39,-74.3536,40.0334,53.60,46.40,76.50,50.00,9.00,0.00,29.64,M,4.00,14.00,OVC,M,M,M,400.00,M,M,M,HZ,KNEL 010139Z AUTO 05009G14KT 4SM HZ OVC004 12/08 A2964 RMK AO2 RAE25 P0000 $
NEL,2017-04-01 02:00,-74.3536,40.0334,53.60,44.60,71.45,40.00,8.00,0.00,29.63,M,4.00,M,OVC,M,M,M,500.00,M,M,M,HZ,KNEL 010200Z AUTO 04008KT 4SM HZ OVC005 12/07 A2963 RMK AO2 RAE0125 P0000 $
NEL,2017-04-01 02:06,-74.3536,40.0334,53.10,45.00,73.89,40.00,8.00,0.00,29.63,1003.10,3.00,M,OVC,M,M,M,500.00,M,M,M,HZ,KNEL 010206Z AUTO 04008KT 3SM HZ OVC005 12/07 A2963 RMK AO2 RAE0125 SLP031 P0000 T01170072 $
NEL,2017-04-01 02:12,-74.3536,40.0334,52.00,45.00,76.94,30.00,7.00,0.00,29.63,M,2.50,M,OVC,M,M,M,400.00,M,M,M,HZ,KNEL 010212Z AUTO 03007KT 2 1/2SM HZ OVC004 11/07 A2963 RMK AO2 T01110072 $
NEL,2017-04-01 02:48,-74.3536,40.0334,52.00,44.10,74.35,40.00,7.00,0.00,29.61,M,3.00,M,OVC,M,M,M,400.00,M,M,M,HZ,KNEL 010248Z AUTO 04007KT 3SM HZ OVC004 11/07 A2961 RMK AO2 T01110067 $
NEL,2017-04-01 03:00,-74.3536,40.0334,54.00,44.10,69.09,40.00,8.00,0.00,29.61,1002.50,3.00,16.00,OVC,M,M,M,400.00,M,M,M,HZ,KNEL 010300Z AUTO 04008G16KT 360V070 3SM HZ OVC004 12/07 A2961 RMK AO2 SLP025 60066 T01220067 58003 $
NEL,2017-04-01 03:08,-74.3536,40.0334,51.10,44.10,76.86,30.00,6.00,0.00,29.61,M,2.50,M,OVC,M,M,M,400.00,M,M,M,HZ,KNEL 010308Z AUTO 03006KT 2 1/2SM HZ OVC004 11/07 A2961 RMK AO2 T01060067 $
NEL,2017-04-01 03:26,-74.3536,40.0334,53.10,44.10,71.40,30.00,7.00,0.00,29.61,M,1.75,16.00,OVC,M,M,M,400.00,M,M,M,HZ,KNEL 010326Z AUTO 03007G16KT 1 3/4SM HZ OVC004 12/07 A2961 RMK AO2 T01170067 $
NEL,2017-04-01 04:00,-74.3536,40.0334,52.00,43.00,71.28,40.00,7.00,0.00,29.59,1001.80,1.50,19.00,OVC,M,M,M,400.00,M,M,M,HZ,KNEL 010400Z AUTO 04007G19KT 1 1/2SM HZ OVC004 11/06 A2959 RMK AO2 SLP018 T01110061 $
NEL,2017-04-01 05:02,-74.3536,40.0334,48.90,41.00,74.05,40.00,9.00,0.00,29.59,M,3.00,17.00,OVC,M,M,M,500.00,M,M,M,HZ,KNEL 010502Z AUTO 04009G17KT 3SM HZ OVC005 09/05 A2959 RMK AO2 T00940050 $
NEL,2017-04-01 07:00,-74.3536,40.0334,45.00,39.90,82.19,M,4.00,0.00,29.60,1002.30,2.00,M,OVC,M,M,M,600.00,M,M,M,HZ,KNEL 010700Z AUTO VRB04KT 2SM HZ OVC006 07/04 A2960 RMK AO2 CIG 005V010 SLP023 T00720044 $
NEL,2017-04-01 07:49,-74.3536,40.0334,44.10,39.00,82.12,M,6.00,0.00,29.61,M,3.00,14.00,OVC,M,M,M,700.00,M,M,M,HZ,KNEL 010749Z AUTO VRB06G14KT 3SM HZ OVC007 07/04 A2961 RMK AO2 T00670039 $
NEL,2017-04-01 08:00,-74.3536,40.0334,44.60,39.20,81.20,M,5.00,0.00,29.61,M,2.50,M,OVC,M,M,M,700.00,M,M,M,HZ,KNEL 010800Z AUTO VRB05KT 2 1/2SM HZ OVC007 07/04 A2961 RMK AO2 $
NEL,2017-04-01 08:06,-74.3536,40.0334,44.60,37.40,75.68,350.00,7.00,0.00,29.61,M,3.00,M,OVC,M,M,M,700.00,M,M,M,HZ,KNEL 010806Z AUTO 35007KT 3SM HZ OVC007 07/03 A2961 RMK AO2 $
NEL,2017-04-01 08:14,-74.3536,40.0334,42.80,37.40,81.07,350.00,7.00,0.00,29.61,M,2.50,M,OVC,M,M,M,700.00,M,M,M,HZ,KNEL 010814Z AUTO 35007KT 2 1/2SM HZ OVC007 06/03 A2961 RMK AO2 $
NEL,2017-04-01 08:32,-74.3536,40.0334,42.80,37.40,81.07,350.00,6.00,0.00,29.62,M,3.00,M,OVC,M,M,M,600.00,M,M,M,HZ,KNEL 010832Z AUTO 35006KT 3SM HZ OVC006 06/03 A2962 RMK AO2 $
NEL,2017-04-01 09:00,-74.3536,40.0334,43.00,37.90,82.04,360.00,8.00,0.00,29.63,1003.30,3.00,M,OVC,M,M,M,600.00,M,M,M,HZ,KNEL 010900Z AUTO 36008KT 320V050 3SM HZ OVC006 06/03 A2963 RMK AO2 SLP033 T00610033 53001 $
NEL,2017-04-01 10:00,-74.3536,40.0334,44.60,37.40,75.68,340.00,7.00,0.00,29.67,M,2.50,M,OVC,M,M,M,800.00,M,M,M,HZ,KNEL 011000Z AUTO 34007KT 2 1/2SM HZ OVC008 07/03 A2967 RMK AO2 CIG 006V011 $
NEL,2017-04-01 10:07,-74.3536,40.0334,44.60,37.40,75.68,M,6.00,0.00,29.67,M,3.00,M,OVC,M,M,M,700.00,M,M,M,HZ,KNEL 011007Z AUTO VRB06KT 3SM HZ OVC007 07/03 A2967 RMK AO2 CIG 006V011 $
NEL,2017-04-01 11:00,-74.3536,40.0334,44.60,37.40,75.68,M,6.00,0.00,29.70,M,2.50,M,OVC,M,M,M,800.00,M,M,M,HZ,KNEL 011100Z AUTO VRB06KT 2 1/2SM HZ OVC008 07/03 A2970 RMK AO2 CIG 006V011 $
NEL,2017-04-01 11:06,-74.3536,40.0334,44.10,36.00,72.99,340.00,6.00,0.00,29.70,1005.70,2.00,M,OVC,M,M,M,800.00,M,M,M,HZ,KNEL 011106Z AUTO 34006KT 2SM HZ OVC008 07/02 A2970 RMK AO2 CIG 006V011 SLP057 T00670022 $
NEL,2017-04-01 11:19,-74.3536,40.0334,45.00,37.00,73.37,M,6.00,0.00,29.71,M,3.00,M,OVC,M,M,M,900.00,M,M,M,HZ,KNEL 011119Z AUTO VRB06KT 3SM HZ OVC009 07/03 A2971 RMK AO2 CIG 006V011 T00720028 $
NEL,2017-04-01 12:00,-74.3536,40.0334,46.00,37.00,70.64,330.00,7.00,0.00,29.74,1006.80,7.00,M,OVC,M,M,M,900.00,M,M,M,M,KNEL 011200Z AUTO 33007KT 300V360 7SM OVC009 08/03 A2974 RMK AO2 CIG 007V014 SLP068 7//// T00780028 10089 20056 53012 $
NEL,2017-04-01 12:18,-74.3536,40.0334,46.00,36.00,67.90,340.00,7.00,0.00,29.74,M,8.00,M,OVC,M,M,M,1000.00,M,M,M,M,KNEL 011218Z AUTO 34007KT 310V010 8SM OVC010 08/02 A2974 RMK AO2 T00780022 $
NEL,2017-04-01 13:00,-74.3536,40.0334,45.00,37.00,73.37,330.00,7.00,0.00,29.76,1007.50,10.00,M,OVC,M,M,M,1000.00,M,M,M,M,KNEL 011300Z AUTO 33007KT 10SM OVC010 07/03 A2976 RMK AO2 SLP075 T00720028 $
NEL,2017-04-01 14:00,-74.3536,40.0334,46.40,37.40,70.68,M,6.00,0.00,29.77,M,10.00,15.00,OVC,M,M,M,1500.00,M,M,M,M,KNEL 011400Z AUTO VRB06G15KT 10SM OVC015 08/03 A2977 RMK AO2 $
NEL,2017-04-01 14:06,-74.3536,40.0334,46.90,37.00,68.27,340.00,8.00,0.00,29.78,1008.20,10.00,15.00,OVC,M,M,M,1500.00,M,M,M,M,KNEL 011406Z AUTO 34008G15KT 10SM OVC015 08/03 A2978 RMK AO2 SLP082 T00830028 $
NEL,2017-04-01 15:00,-74.3536,40.0334,52.00,36.00,54.26,M,6.00,0.00,29.80,1009.10,10.00,M,OVC,M,M,M,1800.00,M,M,M,M,KNEL 011500Z AUTO VRB06KT 10SM OVC018 11/02 A2980 RMK AO2 SLP091 T01110022 51014 $
NEL,2017-04-01 19:00,-74.3536,40.0334,57.90,36.00,43.78,310.00,8.00,0.00,29.84,1010.20,10.00,17.00,OVC,M,M,M,3700.00,M,M,M,M,KNEL 011900Z AUTO 31008G17KT 280V340 10SM OVC037 14/02 A2984 RMK AO2 SLP102 T01440022 $
NEL,2017-04-01 20:00,-74.3536,40.0334,60.10,37.00,42.09,330.00,11.00,0.00,29.85,1010.60,10.00,17.00,OVC,M,M,M,3800.00,M,M,M,M,KNEL 012000Z AUTO 33011G17KT 10SM OVC038 16/03 A2985 RMK AO2 SLP106 T01560028 $
NEL,2017-04-01 21:00,-74.3536,40.0334,59.00,37.00,43.78,340.00,7.00,0.00,29.88,1011.90,10.00,M,OVC,M,M,M,3400.00,M,M,M,M,KNEL 012100Z AUTO 34007KT 300V010 10SM OVC034 15/03 A2988 RMK AO2 SLP119 T01500028 53015 $
NEL,2017-04-01 22:00,-74.3536,40.0334,57.90,36.00,43.78,340.00,5.00,0.00,29.91,1012.70,10.00,M,OVC,M,M,M,4200.00,M,M,M,M,KNEL 012200Z AUTO 34005KT 10SM OVC042 14/02 A2991 RMK AO2 SLP127 T01440022 $
NEL,2017-04-01 23:00,-74.3536,40.0334,55.00,36.00,48.62,340.00,5.00,0.00,29.94,1013.80,10.00,M,OVC,M,M,M,4300.00,M,M,M,M,KNEL 012300Z AUTO 34005KT 10SM OVC043 13/02 A2994 RMK AO2 SLP138 T01280022 $
