#DEBUG: Format Typ    -> comma
#DEBUG: Time Period   -> 2017-04-01 00:00:00+00:00 2017-04-02 00:00:00+00:00
#DEBUG: Time Zone     -> Etc/UTC
#DEBUG: Data Contact   -> daryl herzmann akrherz@iastate.edu 515-294-5978
#DEBUG: Entries Found -> -1
station,valid,lon,lat,tmpf, dwpf, relh, drct, sknt, p01i, alti, mslp, vsby, gust, skyc1, skyc2, skyc3, skyc4, skyl1, skyl2, skyl3, skyl4, presentwx, metar
ONX,2017-04-01 00:00,-76.0154,36.3999,67.10,67.10,100.00,170.00,8.00,0.00,29.57,M,10.00,M,OVC,M,M,M,1300.00,M,M,M,M,KONX 010000Z AUTO 17008KT 10SM OVC013 20/20 A2957 RMK AO2 T01950195
ONX,2017-04-01 00:20,-76.0154,36.3999,66.90,66.90,100.00,220.00,9.00,0.00,29.59,M,10.00,14.00,OVC,M,M,M,1300.00,M,M,M,M,KONX 010020Z AUTO 22009G14KT 180V240 10SM OVC013 19/19 A2959 RMK AO2 T01940194
ONX,2017-04-01 00:40,-76.0154,36.3999,64.80,62.60,92.58,230.00,12.00,0.16,29.63,M,3.00,24.00,SCT,BKN,OVC,M,1300.00,2500.00,5500.00,M,+RA,KONX 010040Z AUTO 23012G24KT 3SM +RA SCT013 BKN025 OVC055 18/17 A2963 RMK AO2 P0016 T01820170
ONX,2017-04-01 01:05,-76.0154,36.3999,60.10,60.10,100.00,240.00,7.00,0.01,29.64,M,5.00,M,SCT,BKN,OVC,M,2500.00,4800.00,7000.00,M,-RA,KONX 010105Z AUTO 24007KT 5SM -RA SCT025 BKN048 OVC070 16/16 A2964 RMK AO2 P0001 T01560156
ONX,2017-04-01 01:25,-76.0154,36.3999,59.90,59.90,100.00,240.00,8.00,0.02,29.64,M,10.00,M,SCT,BKN,OVC,M,4800.00,7000.00,9000.00,M,-RA,KONX 010125Z AUTO 24008KT 10SM -RA SCT048 BKN070 OVC090 16/16 A2964 RMK AO2 P0002 T01550155
ONX,2017-04-01 01:45,-76.0154,36.3999,59.40,59.40,100.00,210.00,3.00,0.02,29.64,M,10.00,M,BKN,OVC,M,M,7000.00,8000.00,M,M,M,KONX 010145Z AUTO 21003KT 10SM BKN070 OVC080 15/15 A2964 RMK AO2 P0002 T01520152
ONX,2017-04-01 02:05,-76.0154,36.3999,59.20,59.20,100.00,220.00,9.00,0.00,29.66,M,10.00,M,OVC,M,M,M,7000.00,M,M,M,M,KONX 010205Z AUTO 22009KT 10SM OVC070 15/15 A2966 RMK AO2 T01510151
ONX,2017-04-01 02:25,-76.0154,36.3999,59.20,59.20,100.00,210.00,4.00,0.00,29.67,M,10.00,M,OVC,M,M,M,7000.00,M,M,M,RA,KONX 010225Z AUTO 21004KT 10SM RA OVC070 15/15 A2967 RMK AO2 T01510151
ONX,2017-04-01 02:45,-76.0154,36.3999,59.50,59.50,100.00,230.00,8.00,0.01,29.66,M,10.00,M,BKN,OVC,M,M,7000.00,9000.00,M,M,RA,KONX 010245Z AUTO 23008KT 10SM RA BKN070 OVC090 15/15 A2966 RMK AO2 P0001 T01530153
ONX,2017-04-01 03:05,-76.0154,36.3999,59.90,59.90,100.00,230.00,7.00,0.00,29.67,M,10.00,M,BKN,OVC,M,M,7000.00,9000.00,M,M,RA,KONX 010305Z AUTO 23007KT 10SM RA BKN070 OVC090 16/16 A2967 RMK AO2 T01550155
ONX,2017-04-01 03:25,-76.0154,36.3999,59.90,59.90,100.00,240.00,5.00,0.01,29.67,M,10.00,M,SCT,OVC,M,M,2200.00,8000.00,M,M,M,KONX 010325Z AUTO 24005KT 10SM SCT022 OVC080 16/16 A2967 RMK AO2 P0001 T01550155
ONX,2017-04-01 03:40,-76.0154,36.3999,60.10,60.10,100.00,250.00,7.00,0.01,29.68,M,10.00,M,SCT,BKN,OVC,M,1400.00,2200.00,8000.00,M,M,KONX 010340Z AUTO 25007KT 10SM SCT014 BKN022 OVC080 16/16 A2968 RMK AO2 P0001 T01560156
ONX,2017-04-01 04:00,-76.0154,36.3999,60.30,60.30,100.00,260.00,7.00,0.00,29.68,M,10.00,M,BKN,BKN,OVC,M,800.00,1400.00,8000.00,M,M,KONX 010400Z AUTO 26007KT 10SM BKN008 BKN014 OVC080 16/16 A2968 RMK AO2 T01570157
ONX,2017-04-01 04:20,-76.0154,36.3999,60.30,60.30,100.00,260.00,8.00,0.00,29.68,M,10.00,M,SCT,SCT,OVC,M,700.00,1200.00,8000.00,M,M,KONX 010420Z AUTO 26008KT 10SM SCT007 SCT012 OVC080 16/16 A2968 RMK AO2 T01570157
ONX,2017-04-01 04:40,-76.0154,36.3999,60.10,60.10,100.00,270.00,8.00,0.00,29.69,M,10.00,M,SCT,OVC,M,M,8000.00,9000.00,M,M,M,KONX 010440Z AUTO 27008KT 10SM SCT080 OVC090 16/16 A2969 RMK AO2 T01560156
ONX,2017-04-01 05:00,-76.0154,36.3999,59.70,59.70,100.00,270.00,8.00,0.00,29.70,M,10.00,M,SCT,BKN,OVC,M,7000.00,9000.00,12000.00,M,M,KONX 010500Z AUTO 27008KT 10SM SCT070 BKN090 OVC120 15/15 A2970 RMK AO2 T01540154
ONX,2017-04-01 05:20,-76.0154,36.3999,59.20,59.20,100.00,270.00,8.00,0.00,29.70,M,10.00,M,SCT,M,M,M,9000.00,M,M,M,M,KONX 010520Z AUTO 27008KT 10SM SCT090 15/15 A2970 RMK AO2 T01510151
ONX,2017-04-01 05:40,-76.0154,36.3999,58.60,58.60,100.00,260.00,8.00,0.00,29.70,M,10.00,M,CLR,M,M,M,M,M,M,M,M,KONX 010540Z AUTO 26008KT 10SM CLR 15/15 A2970 RMK AO2 T01480148
ONX,2017-04-01 06:00,-76.0154,36.3999,58.30,58.30,100.00,260.00,8.00,0.00,29.71,M,10.00,M,CLR,M,M,M,M,M,M,M,M,KONX 010600Z AUTO 26008KT 10SM CLR 15/15 A2971 RMK AO2 T01460146
ONX,2017-04-01 06:20,-76.0154,36.3999,58.10,58.10,100.00,270.00,8.00,0.00,29.71,M,10.00,M,SCT,M,M,M,600.00,M,M,M,M,KONX 010620Z AUTO 27008KT 10SM SCT006 15/15 A2971 RMK AO2 T01450145
ONX,2017-04-01 06:40,-76.0154,36.3999,58.10,58.10,100.00,260.00,5.00,0.00,29.71,M,10.00,M,SCT,SCT,M,M,600.00,1200.00,M,M,M,KONX 010640Z AUTO 26005KT 10SM SCT006 SCT012 15/15 A2971 RMK AO2 T01450145
ONX,2017-04-01 07:00,-76.0154,36.3999,57.70,57.70,100.00,260.00,6.00,0.00,29.71,M,10.00,M,CLR,M,M,M,M,M,M,M,M,KONX 010700Z AUTO 26006KT 10SM CLR 14/14 A2971 RMK AO2 T01430143
ONX,2017-04-01 07:20,-76.0154,36.3999,57.20,57.20,100.00,260.00,6.00,0.00,29.71,M,10.00,M,CLR,M,M,M,M,M,M,M,M,KONX 010720Z AUTO 26006KT 10SM CLR 14/14 A2971 RMK AO2 T01400140
ONX,2017-04-01 07:40,-76.0154,36.3999,56.70,56.70,100.00,260.00,5.00,0.00,29.71,M,10.00,M,CLR,M,M,M,M,M,M,M,M,KONX 010740Z AUTO 26005KT 10SM CLR 14/14 A2971 RMK AO2 T01370137
ONX,2017-04-01 08:00,-76.0154,36.3999,56.10,56.10,100.00,250.00,7.00,0.00,29.72,M,10.00,M,CLR,M,M,M,M,M,M,M,M,KONX 010800Z AUTO 25007KT 10SM CLR 13/13 A2972 RMK AO2 T01340134
ONX,2017-04-01 08:20,-76.0154,36.3999,55.40,55.40,100.00,270.00,8.00,0.00,29.72,M,10.00,M,CLR,M,M,M,M,M,M,M,M,KONX 010820Z AUTO 27008KT 10SM CLR 13/13 A2972 RMK AO2 T01300130
ONX,2017-04-01 08:40,-76.0154,36.3999,54.90,54.30,97.84,270.00,7.00,0.00,29.73,M,10.00,M,CLR,M,M,M,M,M,M,M,M,KONX 010840Z AUTO 27007KT 10SM CLR 13/12 A2973 RMK AO2 T01270124
ONX,2017-04-01 09:00,-76.0154,36.3999,54.50,53.20,95.36,270.00,7.00,0.00,29.74,M,10.00,M,CLR,M,M,M,M,M,M,M,M,KONX 010900Z AUTO 27007KT 10SM CLR 13/12 A2974 RMK AO2 T01250118
ONX,2017-04-01 09:20,-76.0154,36.3999,54.00,52.20,93.61,270.00,6.00,0.00,29.74,M,10.00,M,CLR,M,M,M,M,M,M,M,M,KONX 010920Z AUTO 27006KT 10SM CLR 12/11 A2974 RMK AO2 T01220112
ONX,2017-04-01 09:40,-76.0154,36.3999,53.60,51.80,93.60,260.00,6.00,0.00,29.75,M,10.00,M,CLR,M,M,M,M,M,M,M,M,KONX 010940Z AUTO 26006KT 10SM CLR 12/11 A2975 RMK AO2 T01200110
ONX,2017-04-01 10:00,-76.0154,36.3999,53.60,51.30,91.88,260.00,8.00,0.00,29.76,M,10.00,M,CLR,M,M,M,M,M,M,M,M,KONX 011000Z AUTO 26008KT 10SM CLR 12/11 A2976 RMK AO2 T01200107
ONX,2017-04-01 10:20,-76.0154,36.3999,53.60,50.70,89.86,270.00,7.00,0.00,29.77,M,10.00,M,CLR,M,M,M,M,M,M,M,M,KONX 011020Z AUTO 27007KT 10SM CLR 12/10 A2977 RMK AO2 T01200104
ONX,2017-04-01 10:40,-76.0154,36.3999,53.40,50.20,88.86,260.00,7.00,0.00,29.78,M,10.00,M,CLR,M,M,M,M,M,M,M,M,KONX 011040Z AUTO 26007KT 10SM CLR 12/10 A2978 RMK AO2 T01190101
ONX,2017-04-01 11:00,-76.0154,36.3999,53.40,50.00,88.20,260.00,7.00,0.00,29.80,M,10.00,M,CLR,M,M,M,M,M,M,M,M,KONX 011100Z AUTO 26007KT 10SM CLR 12/10 A2980 RMK AO2 T01190100
ONX,2017-04-01 11:20,-76.0154,36.3999,53.10,50.20,89.84,260.00,5.00,0.00,29.81,M,10.00,M,CLR,M,M,M,M,M,M,M,M,KONX 011120Z AUTO 26005KT 10SM CLR 12/10 A2981 RMK AO2 T01170101
ONX,2017-04-01 11:40,-76.0154,36.3999,53.40,50.50,89.86,250.00,6.00,0.00,29.82,M,10.00,M,CLR,M,M,M,M,M,M,M,M,KONX 011140Z AUTO 25006KT 10SM CLR 12/10 A2982 RMK AO2 T01190103
ONX,2017-04-01 12:20,-76.0154,36.3999,54.70,50.20,84.74,280.00,6.00,0.00,29.84,M,10.00,M,BKN,M,M,M,7000.00,M,M,M,M,KONX 011220Z AUTO 28006KT 250V310 10SM BKN070 13/10 A2984 RMK AO2 T01260101
ONX,2017-04-01 12:40,-76.0154,36.3999,56.10,50.00,79.94,280.00,7.00,0.00,29.84,M,10.00,M,SCT,M,M,M,7000.00,M,M,M,M,KONX 011240Z AUTO 28007KT 10SM SCT070 13/10 A2984 RMK AO2 T01340100
ONX,2017-04-01 13:00,-76.0154,36.3999,57.70,50.00,75.45,290.00,5.00,0.00,29.84,M,10.00,M,CLR,M,M,M,M,M,M,M,M,KONX 011300Z AUTO 29005KT 10SM CLR 14/10 A2984 RMK AO2 T01430100
ONX,2017-04-01 13:20,-76.0154,36.3999,58.80,49.80,71.99,340.00,8.00,0.00,29.86,M,10.00,16.00,SCT,M,M,M,5000.00,M,M,M,M,KONX 011320Z AUTO 34008G16KT 10SM SCT050 15/10 A2986 RMK AO2 T01490099
ONX,2017-04-01 13:40,-76.0154,36.3999,59.20,49.50,70.18,330.00,11.00,0.00,29.88,M,10.00,18.00,CLR,M,M,M,M,M,M,M,M,KONX 011340Z AUTO 33011G18KT 10SM CLR 15/10 A2988 RMK AO2 T01510097
ONX,2017-04-01 14:00,-76.0154,36.3999,59.50,49.80,70.22,340.00,10.00,0.00,29.88,M,10.00,14.00,CLR,M,M,M,M,M,M,M,M,KONX 011400Z AUTO 34010G14KT 10SM CLR 15/10 A2988 RMK AO2 T01530099
ONX,2017-04-01 14:20,-76.0154,36.3999,60.40,50.20,69.02,350.00,8.00,0.00,29.89,M,10.00,15.00,SCT,SCT,M,M,2200.00,5000.00,M,M,M,KONX 011420Z AUTO 35008G15KT 310V010 10SM SCT022 SCT050 16/10 A2989 RMK AO2 T01580101
ONX,2017-04-01 14:40,-76.0154,36.3999,61.20,49.80,66.10,340.00,10.00,0.00,29.89,M,10.00,M,BKN,M,M,M,5000.00,M,M,M,M,KONX 011440Z AUTO 34010KT 10SM BKN050 16/10 A2989 RMK AO2 T01620099
ONX,2017-04-01 15:00,-76.0154,36.3999,61.70,49.60,64.45,350.00,7.00,0.00,29.89,M,10.00,14.00,SCT,M,M,M,5000.00,M,M,M,M,KONX 011500Z AUTO 35007G14KT 10SM SCT050 17/10 A2989 RMK AO2 T01650098
ONX,2017-04-01 15:20,-76.0154,36.3999,62.10,49.30,62.84,340.00,8.00,0.00,29.89,M,10.00,M,CLR,M,M,M,M,M,M,M,M,KONX 011520Z AUTO 34008KT 300V010 10SM CLR 17/10 A2989 RMK AO2 T01670096
ONX,2017-04-01 15:40,-76.0154,36.3999,62.60,49.50,62.21,350.00,7.00,0.00,29.89,M,10.00,14.00,CLR,M,M,M,M,M,M,M,M,KONX 011540Z AUTO 35007G14KT 310V020 10SM CLR 17/10 A2989 RMK AO2 T01700097
ONX,2017-04-01 16:00,-76.0154,36.3999,63.30,49.60,60.92,330.00,8.00,0.00,29.89,M,10.00,M,SCT,M,M,M,3000.00,M,M,M,M,KONX 011600Z AUTO 33008KT 10SM SCT030 17/10 A2989 RMK AO2 T01740098
ONX,2017-04-01 16:20,-76.0154,36.3999,64.00,49.50,59.22,340.00,9.00,0.00,29.89,M,10.00,M,CLR,M,M,M,M,M,M,M,M,KONX 011620Z AUTO 34009KT 320V020 10SM CLR 18/10 A2989 RMK AO2 T01780097
ONX,2017-04-01 16:40,-76.0154,36.3999,64.60,49.60,58.21,320.00,5.00,0.00,29.89,M,10.00,M,BKN,BKN,M,M,3300.00,3900.00,M,M,M,KONX 011640Z AUTO 32005KT 10SM BKN033 BKN039 18/10 A2989 RMK AO2 T01810098
ONX,2017-04-01 17:00,-76.0154,36.3999,64.40,49.50,58.40,310.00,5.00,0.00,29.89,M,10.00,14.00,BKN,BKN,M,M,3300.00,4000.00,M,M,M,KONX 011700Z AUTO 31005G14KT 10SM BKN033 BKN040 18/10 A2989 RMK AO2 T01800097
ONX,2017-04-01 17:20,-76.0154,36.3999,65.80,49.60,55.83,310.00,9.00,0.00,29.90,M,10.00,14.00,BKN,M,M,M,3500.00,M,M,M,M,KONX 011720Z AUTO 31009G14KT 10SM BKN035 19/10 A2990 RMK AO2 T01880098
ONX,2017-04-01 17:40,-76.0154,36.3999,65.70,49.80,56.44,350.00,7.00,0.00,29.90,M,10.00,M,BKN,OVC,M,M,3700.00,4300.00,M,M,M,KONX 011740Z AUTO 35007KT 10SM BKN037 OVC043 19/10 A2990 RMK AO2 T01870099
ONX,2017-04-01 18:00,-76.0154,36.3999,66.00,49.30,54.82,340.00,12.00,0.00,29.90,M,10.00,17.00,BKN,BKN,BKN,M,3700.00,4300.00,5000.00,M,M,KONX 011800Z AUTO 34012G17KT 10SM BKN037 BKN043 BKN050 19/10 A2990 RMK AO2 T01890096
ONX,2017-04-01 18:20,-76.0154,36.3999,66.90,49.50,53.54,300.00,8.00,0.00,29.90,M,10.00,17.00,BKN,BKN,M,M,3900.00,5000.00,M,M,M,KONX 011820Z AUTO 30008G17KT 260V320 10SM BKN039 BKN050 19/10 A2990 RMK AO2 T01940097
ONX,2017-04-01 18:40,-76.0154,36.3999,68.20,49.50,51.19,320.00,10.00,0.00,29.90,M,10.00,14.00,SCT,BKN,M,M,3900.00,5000.00,M,M,M,KONX 011840Z AUTO 32010G14KT 10SM SCT039 BKN050 20/10 A2990 RMK AO2 T02010097
ONX,2017-04-01 19:00,-76.0154,36.3999,67.60,49.30,51.87,300.00,6.00,0.00,29.90,M,10.00,M,SCT,OVC,M,M,4300.00,5000.00,M,M,M,KONX 011900Z AUTO 30006KT 10SM SCT043 OVC050 20/10 A2990 RMK AO2 T01980096
ONX,2017-04-01 19:20,-76.0154,36.3999,66.60,49.30,53.69,310.00,8.00,0.00,29.90,M,10.00,M,SCT,OVC,M,M,4400.00,5000.00,M,M,M,KONX 011920Z AUTO 31008KT 10SM SCT044 OVC050 19/10 A2990 RMK AO2 T01920096
ONX,2017-04-01 19:40,-76.0154,36.3999,66.60,49.60,54.30,300.00,6.00,0.00,29.90,M,10.00,M,SCT,BKN,OVC,M,4100.00,5000.00,5500.00,M,M,KONX 011940Z AUTO 30006KT 10SM SCT041 BKN050 OVC055 19/10 A2990 RMK AO2 T01920098
ONX,2017-04-01 20:00,-76.0154,36.3999,67.60,49.60,52.45,320.00,8.00,0.00,29.91,M,10.00,M,SCT,SCT,M,M,5000.00,5500.00,M,M,M,KONX 012000Z AUTO 32008KT 10SM SCT050 SCT055 20/10 A2991 RMK AO2 T01980098
ONX,2017-04-01 20:20,-76.0154,36.3999,67.80,49.50,51.90,310.00,5.00,0.00,29.91,M,10.00,M,BKN,M,M,M,6000.00,M,M,M,M,KONX 012020Z AUTO 31005KT 10SM BKN060 20/10 A2991 RMK AO2 T01990097
ONX,2017-04-01 20:45,-76.0154,36.3999,67.10,48.70,51.60,320.00,3.00,0.00,29.92,M,10.00,M,BKN,M,M,M,6000.00,M,M,M,M,KONX 012045Z AUTO 32003KT 10SM BKN060 20/09 A2992 RMK AO2 T01950093
ONX,2017-04-01 21:05,-76.0154,36.3999,67.10,48.90,51.99,360.00,7.00,0.00,29.91,M,10.00,M,BKN,M,M,M,6000.00,M,M,M,M,KONX 012105Z AUTO 36007KT 10SM BKN060 20/09 A2991 RMK AO2 T01950094
ONX,2017-04-01 21:25,-76.0154,36.3999,67.80,49.50,51.90,360.00,3.00,0.00,29.92,M,10.00,M,SCT,M,M,M,7000.00,M,M,M,M,KONX 012125Z AUTO 36003KT 10SM SCT070 20/10 A2992 RMK AO2 T01990097
ONX,2017-04-01 21:45,-76.0154,36.3999,67.50,49.10,51.66,350.00,6.00,0.00,29.92,M,10.00,M,SCT,SCT,M,M,5500.00,7000.00,M,M,M,KONX 012145Z AUTO 35006KT 10SM SCT055 SCT070 20/10 A2992 RMK AO2 T01970095
ONX,2017-04-01 22:05,-76.0154,36.3999,66.00,50.00,56.27,50.00,5.00,0.00,29.94,M,10.00,M,BKN,M,M,M,5500.00,M,M,M,M,KONX 012205Z AUTO 05005KT 10SM BKN055 19/10 A2994 RMK AO2 T01890100
ONX,2017-04-01 22:25,-76.0154,36.3999,62.60,50.20,63.85,70.00,5.00,0.00,29.94,M,10.00,M,SCT,M,M,M,5000.00,M,M,M,M,KONX 012225Z AUTO 07005KT 10SM SCT050 17/10 A2994 RMK AO2 T01700101
ONX,2017-04-01 22:45,-76.0154,36.3999,60.80,50.00,67.54,70.00,5.00,0.00,29.95,M,10.00,M,CLR,M,M,M,M,M,M,M,M,KONX 012245Z AUTO 07005KT 10SM CLR 16/10 A2995 RMK AO2 T01600100
ONX,2017-04-01 23:05,-76.0154,36.3999,58.50,49.50,71.96,70.00,6.00,0.00,29.96,M,10.00,M,CLR,M,M,M,M,M,M,M,M,KONX 012305Z AUTO 07006KT 10SM CLR 15/10 A2996 RMK AO2 T01470097
ONX,2017-04-01 23:25,-76.0154,36.3999,57.20,49.50,75.41,90.00,3.00,0.00,29.97,M,10.00,M,CLR,M,M,M,M,M,M,M,M,KONX 012325Z AUTO 09003KT 10SM CLR 14/10 A2997 RMK AO2 T01400097
ONX,2017-04-01 23:45,-76.0154,36.3999,56.80,50.00,77.94,90.00,3.00,0.00,29.98,M,10.00,M,BKN,M,M,M,6500.00,M,M,M,M,KONX 012345Z AUTO 09003KT 10SM BKN065 14/10 A2998 RMK AO2 T01380100
