#DEBUG: Format Typ    -> comma
#DEBUG: Time Period   -> 2017-04-01 00:00:00+00:00 2017-04-02 00:00:00+00:00
#DEBUG: Time Zone     -> Etc/UTC
#DEBUG: Data Contact   -> daryl herzmann akrherz@iastate.edu 515-294-5978
#DEBUG: Entries Found -> -1
station,valid,lon,lat,tmpf, dwpf, relh, drct, sknt, p01i, alti, mslp, vsby, gust, skyc1, skyc2, skyc3, skyc4, skyl1, skyl2, skyl3, skyl4, presentwx, metar
ORS,2017-04-01 00:15,-122.9100,48.7100,51.80,41.00,66.48,0.00,0.00,0.00,30.29,M,7.00,M,FEW,M,M,M,6500.00,M,M,M,M,KORS 010015Z AUTO 00000KT 7SM FEW065 11/05 A3029 RMK AO2
ORS,2017-04-01 00:35,-122.9100,48.7100,51.80,41.00,66.48,210.00,3.00,0.00,30.29,M,7.00,M,SCT,M,M,M,6500.00,M,M,M,M,KORS 010035Z AUTO 21003KT 7SM SCT065 11/05 A3029 RMK AO2
ORS,2017-04-01 00:55,-122.9100,48.7100,51.80,41.00,66.48,0.00,0.00,0.00,30.28,M,7.00,M,BKN,M,M,M,6500.00,M,M,M,M,KORS 010055Z AUTO 00000KT 7SM BKN065 11/05 A3028 RMK AO2
ORS,2017-04-01 01:15,-122.9100,48.7100,50.00,41.00,71.07,100.00,3.00,0.00,30.26,M,8.00,M,BKN,M,M,M,6500.00,M,M,M,M,KORS 010115Z AUTO 10003KT 8SM BKN065 10/05 A3026 RMK AO2
ORS,2017-04-01 01:35,-122.9100,48.7100,50.00,41.00,71.07,50.00,3.00,0.00,30.26,M,7.00,M,SCT,M,M,M,6500.00,M,M,M,M,KORS 010135Z AUTO 05003KT 7SM SCT065 10/05 A3026 RMK AO2
ORS,2017-04-01 01:55,-122.9100,48.7100,50.00,41.00,71.07,360.00,3.00,0.00,30.26,M,7.00,M,SCT,M,M,M,6500.00,M,M,M,M,KORS 010155Z AUTO 36003KT 7SM SCT065 10/05 A3026 RMK AO2
ORS,2017-04-01 02:15,-122.9100,48.7100,48.20,42.80,81.47,350.00,4.00,0.00,30.26,M,7.00,M,FEW,M,M,M,6500.00,M,M,M,M,KORS 010215Z AUTO 35004KT 7SM FEW065 09/06 A3026 RMK AO2
ORS,2017-04-01 02:35,-122.9100,48.7100,48.20,41.00,76.01,0.00,0.00,0.00,30.25,M,7.00,M,CLR,M,M,M,M,M,M,M,M,KORS 010235Z AUTO 00000KT 7SM CLR 09/05 A3025 RMK AO2
ORS,2017-04-01 02:55,-122.9100,48.7100,48.20,42.80,81.47,M,M,0.00,30.24,M,8.00,M,CLR,M,M,M,M,M,M,M,M,KORS 010255Z AUTO 8SM CLR 09/06 A3024 RMK AO2
ORS,2017-04-01 03:15,-122.9100,48.7100,46.40,42.80,87.19,M,M,0.00,30.24,M,8.00,M,BKN,M,M,M,6500.00,M,M,M,M,KORS 010315Z AUTO 8SM BKN065 08/06 A3024 RMK AO2
ORS,2017-04-01 03:35,-122.9100,48.7100,46.40,42.80,87.19,0.00,0.00,0.00,30.24,M,8.00,M,OVC,M,M,M,6500.00,M,M,M,M,KORS 010335Z AUTO 00000KT 8SM OVC065 08/06 A3024 RMK AO2
ORS,2017-04-01 03:55,-122.9100,48.7100,48.20,41.00,76.01,0.00,0.00,0.00,30.24,M,8.00,M,OVC,M,M,M,6500.00,M,M,M,M,KORS 010355Z AUTO 00000KT 8SM OVC065 09/05 A3024 RMK AO2
ORS,2017-04-01 04:15,-122.9100,48.7100,46.40,41.00,81.34,0.00,0.00,0.00,30.24,M,8.00,M,OVC,M,M,M,6500.00,M,M,M,M,KORS 010415Z AUTO 00000KT 8SM OVC065 08/05 A3024 RMK AO2
ORS,2017-04-01 04:35,-122.9100,48.7100,46.40,41.00,81.34,0.00,0.00,0.00,30.24,M,8.00,M,OVC,M,M,M,5500.00,M,M,M,M,KORS 010435Z AUTO 00000KT 8SM OVC055 08/05 A3024 RMK AO2
ORS,2017-04-01 04:55,-122.9100,48.7100,46.40,41.00,81.34,0.00,0.00,0.00,30.23,M,8.00,M,BKN,M,M,M,5500.00,M,M,M,M,KORS 010455Z AUTO 00000KT 8SM BKN055 08/05 A3023 RMK AO2
ORS,2017-04-01 05:15,-122.9100,48.7100,46.40,41.00,81.34,0.00,0.00,0.00,30.25,M,8.00,M,OVC,M,M,M,5500.00,M,M,M,M,KORS 010515Z AUTO 00000KT 8SM OVC055 08/05 A3025 RMK AO2
ORS,2017-04-01 05:35,-122.9100,48.7100,46.40,42.80,87.19,0.00,0.00,0.00,30.24,M,7.00,M,OVC,M,M,M,5500.00,M,M,M,M,KORS 010535Z AUTO 00000KT 7SM OVC055 08/06 A3024 RMK AO2
ORS,2017-04-01 05:55,-122.9100,48.7100,46.40,42.80,87.19,0.00,0.00,0.00,30.24,M,7.00,M,OVC,M,M,M,5500.00,M,M,M,M,KORS 010555Z AUTO 00000KT 7SM OVC055 08/06 A3024 RMK AO2
ORS,2017-04-01 06:15,-122.9100,48.7100,46.40,42.80,87.19,0.00,0.00,0.00,30.23,M,6.00,M,OVC,M,M,M,5500.00,M,M,M,BR,KORS 010615Z AUTO 00000KT 6SM BR OVC055 08/06 A3023 RMK AO2
ORS,2017-04-01 06:35,-122.9100,48.7100,46.40,42.80,87.19,0.00,0.00,0.00,30.22,M,7.00,M,BKN,M,M,M,5500.00,M,M,M,-RA,KORS 010635Z AUTO 00000KT 7SM -RA BKN055 08/06 A3022 RMK AO2
ORS,2017-04-01 06:55,-122.9100,48.7100,46.40,44.60,93.40,0.00,0.00,0.00,30.21,M,6.00,M,CLR,M,M,M,M,M,M,M,-RA,KORS 010655Z AUTO 00000KT 6SM -RA CLR 08/07 A3021 RMK AO2
ORS,2017-04-01 07:15,-122.9100,48.7100,46.40,44.60,93.40,0.00,0.00,0.00,30.19,M,6.00,M,FEW,M,M,M,5500.00,M,M,M,-RA,KORS 010715Z AUTO 00000KT 6SM -RA FEW055 08/07 A3019 RMK AO2
ORS,2017-04-01 07:35,-122.9100,48.7100,46.40,44.60,93.40,0.00,0.00,0.00,30.19,M,5.00,M,BKN,M,M,M,5500.00,M,M,M,BR,KORS 010735Z AUTO 00000KT 5SM BR BKN055 08/07 A3019 RMK AO2
ORS,2017-04-01 07:55,-122.9100,48.7100,46.40,44.60,93.40,0.00,0.00,0.00,30.18,M,7.00,M,SCT,M,M,M,5500.00,M,M,M,M,KORS 010755Z AUTO 00000KT 7SM SCT055 08/07 A3018 RMK AO2
ORS,2017-04-01 08:15,-122.9100,48.7100,46.40,44.60,93.40,0.00,0.00,0.00,30.19,M,5.00,M,CLR,M,M,M,M,M,M,M,BR,KORS 010815Z AUTO 00000KT 5SM BR CLR 08/07 A3019 RMK AO2
ORS,2017-04-01 08:35,-122.9100,48.7100,46.40,44.60,93.40,0.00,0.00,0.00,30.18,M,4.00,M,BKN,M,M,M,3500.00,M,M,M,-RA,KORS 010835Z AUTO 00000KT 4SM -RA BKN035 08/07 A3018 RMK AO2
ORS,2017-04-01 08:55,-122.9100,48.7100,46.40,44.60,93.40,0.00,0.00,0.00,30.17,M,5.00,M,OVC,M,M,M,3500.00,M,M,M,-RA,KORS 010855Z AUTO 00000KT 5SM -RA OVC035 08/07 A3017 RMK AO2
ORS,2017-04-01 09:15,-122.9100,48.7100,44.60,44.60,100.00,330.00,3.00,0.01,30.17,M,4.00,M,OVC,M,M,M,3500.00,M,M,M,-RA,KORS 010915Z AUTO 33003KT 4SM -RA OVC035 07/07 A3017 RMK AO2 P0001
ORS,2017-04-01 09:35,-122.9100,48.7100,44.60,44.60,100.00,0.00,0.00,0.02,30.17,M,3.00,M,SCT,OVC,M,M,2500.00,3500.00,M,M,-RA,KORS 010935Z AUTO 00000KT 3SM -RA SCT025 OVC035 07/07 A3017 RMK AO2 P0002
ORS,2017-04-01 09:55,-122.9100,48.7100,44.60,44.60,100.00,0.00,0.00,0.03,30.17,M,3.00,M,FEW,BKN,OVC,M,100.00,2100.00,3400.00,M,-RA,KORS 010955Z AUTO 00000KT 3SM -RA FEW001 BKN021 OVC034 07/07 A3017 RMK AO2 P0003
ORS,2017-04-01 10:15,-122.9100,48.7100,44.60,44.60,100.00,0.00,0.00,0.02,30.15,M,2.50,M,SCT,BKN,OVC,M,100.00,2300.00,3100.00,M,RA,KORS 011015Z AUTO 00000KT 2 1/2SM RA SCT001 BKN023 OVC031 07/07 A3015 RMK AO2 P0002
ORS,2017-04-01 10:35,-122.9100,48.7100,44.60,44.60,100.00,0.00,0.00,0.03,30.15,M,4.00,M,FEW,SCT,BKN,M,200.00,2900.00,4600.00,M,-RA,KORS 011035Z AUTO 00000KT 4SM -RA FEW002 SCT029 BKN046 07/07 A3015 RMK AO2 P0003
ORS,2017-04-01 10:55,-122.9100,48.7100,44.60,44.60,100.00,0.00,0.00,0.04,30.14,M,4.00,M,BKN,M,M,M,4600.00,M,M,M,-RA,KORS 011055Z AUTO 00000KT 4SM -RA BKN046 07/07 A3014 RMK AO2 P0004
ORS,2017-04-01 11:15,-122.9100,48.7100,44.60,44.60,100.00,0.00,0.00,0.01,30.14,M,5.00,M,FEW,SCT,OVC,M,200.00,3300.00,4200.00,M,-RA,KORS 011115Z AUTO 00000KT 5SM -RA FEW002 SCT033 OVC042 07/07 A3014 RMK AO2 P0001
ORS,2017-04-01 11:35,-122.9100,48.7100,44.60,44.60,100.00,0.00,0.00,0.01,30.13,M,5.00,M,FEW,SCT,BKN,M,300.00,1600.00,3400.00,M,-RA,KORS 011135Z AUTO 00000KT 5SM -RA FEW003 SCT016 BKN034 07/07 A3013 RMK AO2 P0001
ORS,2017-04-01 11:55,-122.9100,48.7100,44.60,44.60,100.00,320.00,3.00,0.01,30.15,M,5.00,M,SCT,BKN,OVC,M,400.00,1600.00,3800.00,M,-RA,KORS 011155Z AUTO 32003KT 5SM -RA SCT004 BKN016 OVC038 07/07 A3015 RMK AO2 P0001
ORS,2017-04-01 12:15,-122.9100,48.7100,44.60,44.60,100.00,0.00,0.00,0.01,30.14,M,2.50,M,BKN,OVC,M,M,300.00,1400.00,M,M,-RA,KORS 011215Z AUTO 00000KT 2 1/2SM -RA BKN003 OVC014 07/07 A3014 RMK AO2 P0001
ORS,2017-04-01 12:35,-122.9100,48.7100,44.60,44.60,100.00,0.00,0.00,0.03,30.14,M,1.50,M,OVC,M,M,M,300.00,M,M,M,RA,KORS 011235Z AUTO 00000KT 1 1/2SM RA OVC003 07/07 A3014 RMK AO2 P0003
ORS,2017-04-01 12:55,-122.9100,48.7100,44.60,44.60,100.00,0.00,0.00,0.07,30.14,M,2.50,M,BKN,BKN,OVC,M,100.00,600.00,1000.00,M,RA,KORS 011255Z AUTO 00000KT 2 1/2SM RA BKN001 BKN006 OVC010 07/07 A3014 RMK AO2 P0007
ORS,2017-04-01 13:15,-122.9100,48.7100,44.60,44.60,100.00,0.00,0.00,0.01,30.14,M,3.00,M,SCT,OVC,M,M,100.00,1000.00,M,M,-RA,KORS 011315Z AUTO 00000KT 3SM -RA SCT001 OVC010 07/07 A3014 RMK AO2 P0001
ORS,2017-04-01 13:35,-122.9100,48.7100,44.60,44.60,100.00,0.00,0.00,0.01,30.14,M,3.00,M,BKN,OVC,M,M,200.00,1000.00,M,M,-RA,KORS 011335Z AUTO 00000KT 3SM -RA BKN002 OVC010 07/07 A3014 RMK AO2 P0001
ORS,2017-04-01 13:55,-122.9100,48.7100,44.60,44.60,100.00,0.00,0.00,0.03,30.14,M,1.75,M,OVC,M,M,M,200.00,M,M,M,-RA,KORS 011355Z AUTO 00000KT 1 3/4SM -RA OVC002 07/07 A3014 RMK AO2 P0003
ORS,2017-04-01 14:15,-122.9100,48.7100,44.60,44.60,100.00,90.00,3.00,0.03,30.15,M,2.50,M,OVC,M,M,M,200.00,M,M,M,RA,KORS 011415Z AUTO 09003KT 2 1/2SM RA OVC002 07/07 A3015 RMK AO2 P0003
ORS,2017-04-01 14:35,-122.9100,48.7100,44.60,44.60,100.00,0.00,0.00,0.04,30.15,M,3.00,M,OVC,M,M,M,200.00,M,M,M,-RA,KORS 011435Z AUTO 00000KT 3SM -RA OVC002 07/07 A3015 RMK AO2 P0004
ORS,2017-04-01 14:55,-122.9100,48.7100,44.60,44.60,100.00,0.00,0.00,0.05,30.15,M,1.25,M,OVC,M,M,M,200.00,M,M,M,-RA,KORS 011455Z AUTO 00000KT 1 1/4SM -RA OVC002 07/07 A3015 RMK AO2 P0005
ORS,2017-04-01 15:15,-122.9100,48.7100,46.40,46.40,100.00,0.00,0.00,0.01,30.16,M,1.50,M,OVC,M,M,M,100.00,M,M,M,-RA,KORS 011515Z AUTO 00000KT 1 1/2SM -RA OVC001 08/08 A3016 RMK AO2 P0001
ORS,2017-04-01 15:35,-122.9100,48.7100,46.40,46.40,100.00,0.00,0.00,0.01,30.15,M,2.50,M,BKN,OVC,M,M,200.00,700.00,M,M,-RA,KORS 011535Z AUTO 00000KT 2 1/2SM -RA BKN002 OVC007 08/08 A3015 RMK AO2 P0001
ORS,2017-04-01 15:55,-122.9100,48.7100,46.40,46.40,100.00,0.00,0.00,0.01,30.17,M,2.00,M,SCT,BKN,OVC,M,100.00,500.00,1300.00,M,BR,KORS 011555Z AUTO 00000KT 2SM BR SCT001 BKN005 OVC013 08/08 A3017 RMK AO2 P0001
ORS,2017-04-01 16:15,-122.9100,48.7100,46.40,46.40,100.00,230.00,4.00,0.00,30.17,M,1.25,M,SCT,OVC,M,M,200.00,1300.00,M,M,-RA,KORS 011615Z AUTO 23004KT 1 1/4SM -RA SCT002 OVC013 08/08 A3017 RMK AO2
ORS,2017-04-01 16:35,-122.9100,48.7100,46.40,46.40,100.00,190.00,5.00,0.00,30.17,M,1.75,M,SCT,BKN,OVC,M,200.00,1300.00,2200.00,M,BR,KORS 011635Z AUTO 19005KT 1 3/4SM BR SCT002 BKN013 OVC022 08/08 A3017 RMK AO2
ORS,2017-04-01 16:55,-122.9100,48.7100,46.40,46.40,100.00,190.00,7.00,0.00,30.17,M,2.50,M,FEW,FEW,SCT,M,300.00,1000.00,1500.00,M,BR,KORS 011655Z AUTO 19007KT 2 1/2SM BR FEW003 FEW010 SCT015 08/08 A3017 RMK AO2
ORS,2017-04-01 17:15,-122.9100,48.7100,46.40,46.40,100.00,190.00,6.00,0.00,30.17,M,3.00,M,FEW,SCT,M,M,1600.00,2600.00,M,M,BR,KORS 011715Z AUTO 19006KT 3SM BR FEW016 SCT026 08/08 A3017 RMK AO2
ORS,2017-04-01 17:35,-122.9100,48.7100,46.40,46.40,100.00,190.00,7.00,0.00,30.18,M,7.00,M,SCT,BKN,M,M,1300.00,2800.00,M,M,M,KORS 011735Z AUTO 19007KT 7SM SCT013 BKN028 08/08 A3018 RMK AO2
ORS,2017-04-01 17:55,-122.9100,48.7100,48.20,46.40,93.45,180.00,5.00,0.00,30.19,M,7.00,M,FEW,BKN,M,M,1000.00,2800.00,M,M,M,KORS 011755Z AUTO 18005KT 7SM FEW010 BKN028 09/08 A3019 RMK AO2
ORS,2017-04-01 18:15,-122.9100,48.7100,48.20,46.40,93.45,180.00,4.00,0.00,30.19,M,7.00,M,BKN,OVC,M,M,1000.00,2800.00,M,M,M,KORS 011815Z AUTO 18004KT 7SM BKN010 OVC028 09/08 A3019 RMK AO2
ORS,2017-04-01 18:35,-122.9100,48.7100,48.20,46.40,93.45,180.00,5.00,0.00,30.19,M,7.00,M,OVC,M,M,M,1000.00,M,M,M,M,KORS 011835Z AUTO 18005KT 7SM OVC010 09/08 A3019 RMK AO2
ORS,2017-04-01 18:55,-122.9100,48.7100,48.20,46.40,93.45,170.00,6.00,0.00,30.20,M,5.00,M,OVC,M,M,M,1000.00,M,M,M,BR,KORS 011855Z AUTO 17006KT 5SM BR OVC010 09/08 A3020 RMK AO2
ORS,2017-04-01 19:15,-122.9100,48.7100,48.20,46.40,93.45,180.00,4.00,0.00,30.20,M,5.00,M,OVC,M,M,M,800.00,M,M,M,BR,KORS 011915Z AUTO 18004KT 5SM BR OVC008 09/08 A3020 RMK AO2
ORS,2017-04-01 19:35,-122.9100,48.7100,48.20,46.40,93.45,180.00,6.00,0.00,30.21,M,6.00,M,OVC,M,M,M,800.00,M,M,M,BR,KORS 011935Z AUTO 18006KT 6SM BR OVC008 09/08 A3021 RMK AO2
ORS,2017-04-01 19:55,-122.9100,48.7100,50.00,46.40,87.37,190.00,8.00,0.00,30.21,M,8.00,M,BKN,OVC,M,M,800.00,4000.00,M,M,M,KORS 011955Z AUTO 19008KT 030V040 8SM BKN008 OVC040 10/08 A3021 RMK AO2
ORS,2017-04-01 20:15,-122.9100,48.7100,50.00,46.40,87.37,190.00,8.00,0.00,30.21,M,9.00,M,SCT,BKN,BKN,M,800.00,3400.00,4000.00,M,M,KORS 012015Z AUTO 19008KT 030V040 9SM SCT008 BKN034 BKN040 10/08 A3021 RMK AO2
ORS,2017-04-01 20:35,-122.9100,48.7100,50.00,46.40,87.37,190.00,6.00,0.00,30.21,M,8.00,M,SCT,SCT,BKN,M,800.00,1600.00,3400.00,M,M,KORS 012035Z AUTO 19006KT 8SM SCT008 SCT016 BKN034 10/08 A3021 RMK AO2
ORS,2017-04-01 20:55,-122.9100,48.7100,50.00,46.40,87.37,200.00,8.00,0.00,30.21,M,8.00,M,SCT,SCT,BKN,M,1000.00,1600.00,4900.00,M,M,KORS 012055Z AUTO 20008KT 8SM SCT010 SCT016 BKN049 10/08 A3021 RMK AO2
ORS,2017-04-01 21:15,-122.9100,48.7100,50.00,46.40,87.37,200.00,8.00,0.00,30.22,M,7.00,M,FEW,BKN,M,M,1500.00,4900.00,M,M,M,KORS 012115Z AUTO 20008KT 7SM FEW015 BKN049 10/08 A3022 RMK AO2
ORS,2017-04-01 21:35,-122.9100,48.7100,50.00,46.40,87.37,200.00,7.00,0.00,30.21,M,8.00,M,FEW,OVC,M,M,1600.00,4700.00,M,M,M,KORS 012135Z AUTO 20007KT 8SM FEW016 OVC047 10/08 A3021 RMK AO2
ORS,2017-04-01 21:55,-122.9100,48.7100,50.00,46.40,87.37,210.00,5.00,0.00,30.21,M,7.00,M,OVC,M,M,M,4700.00,M,M,M,M,KORS 012155Z AUTO 21005KT 7SM OVC047 10/08 A3021 RMK AO2
ORS,2017-04-01 22:15,-122.9100,48.7100,51.80,46.40,81.74,180.00,5.00,0.00,30.21,M,8.00,M,OVC,M,M,M,4700.00,M,M,M,M,KORS 012215Z AUTO 18005KT 8SM OVC047 11/08 A3021 RMK AO2
ORS,2017-04-01 22:35,-122.9100,48.7100,53.60,46.40,76.50,180.00,4.00,0.00,30.21,M,9.00,M,BKN,M,M,M,4700.00,M,M,M,M,KORS 012235Z AUTO 18004KT 9SM BKN047 12/08 A3021 RMK AO2
ORS,2017-04-01 22:55,-122.9100,48.7100,53.60,46.40,76.50,200.00,5.00,0.00,30.22,M,8.00,M,SCT,SCT,BKN,M,1900.00,3800.00,4700.00,M,M,KORS 012255Z AUTO 20005KT 8SM SCT019 SCT038 BKN047 12/08 A3022 RMK AO2
ORS,2017-04-01 23:15,-122.9100,48.7100,53.60,46.40,76.50,210.00,4.00,0.00,30.21,M,8.00,M,FEW,SCT,BKN,M,1900.00,3600.00,4900.00,M,M,KORS 012315Z AUTO 21004KT 8SM FEW019 SCT036 BKN049 12/08 A3021 RMK AO2
ORS,2017-04-01 23:35,-122.9100,48.7100,53.60,46.40,76.50,180.00,3.00,0.00,30.21,M,9.00,M,BKN,M,M,M,4900.00,M,M,M,M,KORS 012335Z AUTO 18003KT 9SM BKN049 12/08 A3021 RMK AO2
ORS,2017-04-01 23:55,-122.9100,48.7100,51.80,46.40,81.74,0.00,0.00,0.00,30.21,M,9.00,M,FEW,SCT,SCT,M,2200.00,3700.00,4700.00,M,M,KORS 012355Z AUTO 00000KT 9SM FEW022 SCT037 SCT047 11/08 A3021 RMK AO2
