#DEBUG: Format Typ    -> comma
#DEBUG: Time Period   -> 2017-04-01 00:00:00+00:00 2017-04-02 00:00:00+00:00
#DEBUG: Time Zone     -> Etc/UTC
#DEBUG: Data Contact   -> daryl herzmann akrherz@iastate.edu 515-294-5978
#DEBUG: Entries Found -> -1
station,valid,lon,lat,tmpf, dwpf, relh, drct, sknt, p01i, alti, mslp, vsby, gust, skyc1, skyc2, skyc3, skyc4, skyl1, skyl2, skyl3, skyl4, presentwx, metar
OTM,2017-04-01 00:00,-92.4446,41.1008,M,M,M,30.00,9.00,M,30.03,M,10.00,M,OVC,M,M,M,1699.00,M,M,M,M,KOTM 010000Z AUTO 03009KT 10SM OVC016 A3003 RMK MADISHF
OTM,2017-04-01 00:05,-92.4446,41.1008,M,M,M,10.00,6.00,M,30.04,M,10.00,M,OVC,M,M,M,1699.00,M,M,M,M,KOTM 010005Z AUTO 01006KT 10SM OVC016 A3004 RMK MADISHF
OTM,2017-04-01 00:10,-92.4446,41.1008,M,M,M,360.00,7.00,M,30.04,M,10.00,M,OVC,M,M,M,1699.00,M,M,M,M,KOTM 010010Z AUTO 36007KT 10SM OVC016 A3004 RMK MADISHF
OTM,2017-04-01 00:15,-92.4446,41.1008,M,M,M,10.00,7.00,M,30.04,M,10.00,M,OVC,M,M,M,1699.00,M,M,M,M,KOTM 010015Z AUTO 01007KT 10SM OVC016 A3004 RMK MADISHF
OTM,2017-04-01 00:30,-92.4446,41.1008,M,M,M,10.00,6.00,M,30.04,M,10.00,M,OVC,M,M,M,1699.00,M,M,M,M,KOTM 010030Z AUTO 01006KT 10SM OVC016 A3004 RMK MADISHF
OTM,2017-04-01 00:35,-92.4446,41.1008,M,M,M,360.00,7.00,M,30.05,M,10.00,M,OVC,M,M,M,1699.00,M,M,M,M,KOTM 010035Z AUTO 36007KT 10SM OVC016 A3005 RMK MADISHF
OTM,2017-04-01 00:40,-92.4446,41.1008,M,M,M,360.00,7.00,M,30.05,M,10.00,M,OVC,M,M,M,1699.00,M,M,M,M,KOTM 010040Z AUTO 36007KT 10SM OVC016 A3005 RMK MADISHF
OTM,2017-04-01 00:45,-92.4446,41.1008,M,M,M,10.00,8.00,M,30.06,M,10.00,M,OVC,M,M,M,1699.00,M,M,M,M,KOTM 010045Z AUTO 01008KT 10SM OVC016 A3006 RMK MADISHF
OTM,2017-04-01 00:50,-92.4446,41.1008,M,M,M,30.00,8.00,M,30.06,M,10.00,M,OVC,M,M,M,1699.00,M,M,M,M,KOTM 010050Z AUTO 03008KT 10SM OVC016 A3006 RMK MADISHF
OTM,2017-04-01 00:53,-92.4446,41.1008,43.00,37.00,79.19,10.00,6.00,0.00,30.07,1018.60,10.00,M,OVC,M,M,M,1700.00,M,M,M,M,KOTM 010053Z AUTO 01006KT 10SM OVC017 06/03 A3007 RMK AO2 SLP186 T00610028
OTM,2017-04-01 00:55,-92.4446,41.1008,M,M,M,10.00,8.00,M,30.07,M,10.00,M,OVC,M,M,M,1699.00,M,M,M,M,KOTM 010055Z AUTO 01008KT 10SM OVC016 A3007 RMK MADISHF
OTM,2017-04-01 01:00,-92.4446,41.1008,M,M,M,10.00,8.00,M,30.07,M,10.00,M,OVC,M,M,M,1699.00,M,M,M,M,KOTM 010100Z AUTO 01008KT 10SM OVC016 A3007 RMK MADISHF
OTM,2017-04-01 01:15,-92.4446,41.1008,M,M,M,360.00,6.00,M,30.08,M,10.00,M,OVC,M,M,M,1699.00,M,M,M,M,KOTM 010115Z AUTO 36006KT 10SM OVC016 A3008 RMK MADISHF
OTM,2017-04-01 01:20,-92.4446,41.1008,M,M,M,360.00,6.00,M,30.08,M,10.00,M,OVC,M,M,M,1699.00,M,M,M,M,KOTM 010120Z AUTO 36006KT 10SM OVC016 A3008 RMK MADISHF
OTM,2017-04-01 01:25,-92.4446,41.1008,M,M,M,360.00,8.00,M,30.07,M,10.00,M,OVC,M,M,M,1699.00,M,M,M,M,KOTM 010125Z AUTO 36008KT 10SM OVC016 A3007 RMK MADISHF
OTM,2017-04-01 01:30,-92.4446,41.1008,M,M,M,10.00,8.00,M,30.08,M,10.00,M,OVC,M,M,M,1699.00,M,M,M,M,KOTM 010130Z AUTO 01008KT 10SM OVC016 A3008 RMK MADISHF
OTM,2017-04-01 01:35,-92.4446,41.1008,M,M,M,20.00,6.00,M,30.08,M,10.00,M,OVC,M,M,M,1699.00,M,M,M,M,KOTM 010135Z AUTO 02006KT 10SM OVC016 A3008 RMK MADISHF
OTM,2017-04-01 01:40,-92.4446,41.1008,M,M,M,10.00,5.00,M,30.09,M,10.00,M,OVC,M,M,M,1699.00,M,M,M,M,KOTM 010140Z AUTO 01005KT 10SM OVC016 A3009 RMK MADISHF
OTM,2017-04-01 01:50,-92.4446,41.1008,M,M,M,30.00,6.00,M,30.08,M,10.00,M,OVC,M,M,M,1699.00,M,M,M,M,KOTM 010150Z AUTO 03006KT 10SM OVC016 A3008 RMK MADISHF
OTM,2017-04-01 01:53,-92.4446,41.1008,43.00,37.90,82.04,30.00,6.00,0.00,30.08,1019.20,10.00,M,OVC,M,M,M,1700.00,M,M,M,M,KOTM 010153Z AUTO 03006KT 10SM OVC017 06/03 A3008 RMK AO2 SLP192 T00610033
OTM,2017-04-01 01:55,-92.4446,41.1008,M,M,M,30.00,5.00,M,30.08,M,10.00,M,OVC,M,M,M,1699.00,M,M,M,M,KOTM 010155Z AUTO 03005KT 10SM OVC016 A3008 RMK MADISHF
OTM,2017-04-01 02:00,-92.4446,41.1008,M,M,M,20.00,5.00,M,30.08,M,10.00,M,OVC,M,M,M,1699.00,M,M,M,M,KOTM 010200Z AUTO 02005KT 10SM OVC016 A3008 RMK MADISHF
OTM,2017-04-01 02:05,-92.4446,41.1008,M,M,M,30.00,7.00,M,30.09,M,10.00,M,OVC,M,M,M,1699.00,M,M,M,M,KOTM 010205Z AUTO 03007KT 10SM OVC016 A3009 RMK MADISHF
OTM,2017-04-01 02:10,-92.4446,41.1008,M,M,M,10.00,7.00,M,30.09,M,10.00,M,OVC,M,M,M,1699.00,M,M,M,M,KOTM 010210Z AUTO 01007KT 10SM OVC016 A3009 RMK MADISHF
OTM,2017-04-01 02:15,-92.4446,41.1008,M,M,M,20.00,8.00,M,30.08,M,10.00,M,OVC,M,M,M,1699.00,M,M,M,M,KOTM 010215Z AUTO 02008KT 10SM OVC016 A3008 RMK MADISHF
OTM,2017-04-01 02:30,-92.4446,41.1008,M,M,M,50.00,6.00,M,30.10,M,10.00,M,OVC,M,M,M,1699.00,M,M,M,M,KOTM 010230Z AUTO 05006KT 10SM OVC016 A3010 RMK MADISHF
OTM,2017-04-01 02:35,-92.4446,41.1008,M,M,M,30.00,7.00,M,30.11,M,10.00,M,OVC,M,M,M,1699.00,M,M,M,M,KOTM 010235Z AUTO 03007KT 10SM OVC016 A3011 RMK MADISHF
OTM,2017-04-01 02:40,-92.4446,41.1008,M,M,M,30.00,4.00,M,30.11,M,10.00,M,OVC,M,M,M,1800.00,M,M,M,M,KOTM 010240Z AUTO 03004KT 10SM OVC018 A3011 RMK MADISHF
OTM,2017-04-01 02:45,-92.4446,41.1008,M,M,M,30.00,5.00,M,30.11,M,10.00,M,OVC,M,M,M,1800.00,M,M,M,M,KOTM 010245Z AUTO 03005KT 10SM OVC018 A3011 RMK MADISHF
OTM,2017-04-01 02:50,-92.4446,41.1008,M,M,M,30.00,6.00,M,30.10,M,10.00,M,OVC,M,M,M,1800.00,M,M,M,M,KOTM 010250Z AUTO 03006KT 10SM OVC018 A3010 RMK MADISHF
OTM,2017-04-01 02:53,-92.4446,41.1008,43.00,37.00,79.19,30.00,8.00,0.00,30.10,1019.90,10.00,M,OVC,M,M,M,1800.00,M,M,M,M,KOTM 010253Z AUTO 03008KT 10SM OVC018 06/03 A3010 RMK AO2 SLP199 T00610028 51026
OTM,2017-04-01 03:00,-92.4446,41.1008,M,M,M,40.00,7.00,M,30.10,M,10.00,M,OVC,M,M,M,1800.00,M,M,M,M,KOTM 010300Z AUTO 04007KT 10SM OVC018 A3010 RMK MADISHF
OTM,2017-04-01 03:05,-92.4446,41.1008,M,M,M,30.00,7.00,M,30.10,M,10.00,M,OVC,M,M,M,1800.00,M,M,M,M,KOTM 010305Z AUTO 03007KT 10SM OVC018 A3010 RMK MADISHF
OTM,2017-04-01 03:10,-92.4446,41.1008,M,M,M,30.00,8.00,M,30.11,M,10.00,M,OVC,M,M,M,1800.00,M,M,M,M,KOTM 010310Z AUTO 03008KT 10SM OVC018 A3011 RMK MADISHF
OTM,2017-04-01 03:15,-92.4446,41.1008,M,M,M,40.00,8.00,M,30.11,M,10.00,M,OVC,M,M,M,1800.00,M,M,M,M,KOTM 010315Z AUTO 04008KT 10SM OVC018 A3011 RMK MADISHF
OTM,2017-04-01 03:20,-92.4446,41.1008,M,M,M,40.00,6.00,M,30.11,M,10.00,M,OVC,M,M,M,1800.00,M,M,M,M,KOTM 010320Z AUTO 04006KT 10SM OVC018 A3011 RMK MADISHF
OTM,2017-04-01 03:25,-92.4446,41.1008,M,M,M,40.00,4.00,M,30.11,M,10.00,M,OVC,M,M,M,1800.00,M,M,M,M,KOTM 010325Z AUTO 04004KT 10SM OVC018 A3011 RMK MADISHF
OTM,2017-04-01 03:30,-92.4446,41.1008,M,M,M,10.00,3.00,M,30.11,M,10.00,M,OVC,M,M,M,1900.00,M,M,M,M,KOTM 010330Z AUTO 01003KT 10SM OVC019 A3011 RMK MADISHF
OTM,2017-04-01 03:50,-92.4446,41.1008,M,M,M,40.00,3.00,M,30.11,M,10.00,M,OVC,M,M,M,1900.00,M,M,M,M,KOTM 010350Z AUTO 04003KT 10SM OVC019 A3011 RMK MADISHF
OTM,2017-04-01 03:53,-92.4446,41.1008,43.00,37.00,79.19,30.00,4.00,0.00,30.11,1020.20,10.00,M,OVC,M,M,M,1900.00,M,M,M,M,KOTM 010353Z AUTO 03004KT 10SM OVC019 06/03 A3011 RMK AO2 SLP202 T00610028
OTM,2017-04-01 03:55,-92.4446,41.1008,M,M,M,40.00,5.00,M,30.11,M,10.00,M,OVC,M,M,M,1900.00,M,M,M,M,KOTM 010355Z AUTO 04005KT 10SM OVC019 A3011 RMK MADISHF
OTM,2017-04-01 04:00,-92.4446,41.1008,M,M,M,30.00,5.00,M,30.11,M,10.00,M,OVC,M,M,M,1900.00,M,M,M,M,KOTM 010400Z AUTO 03005KT 10SM OVC019 A3011 RMK MADISHF
OTM,2017-04-01 04:05,-92.4446,41.1008,M,M,M,40.00,6.00,M,30.12,M,10.00,M,OVC,M,M,M,1900.00,M,M,M,M,KOTM 010405Z AUTO 04006KT 10SM OVC019 A3012 RMK MADISHF
OTM,2017-04-01 04:15,-92.4446,41.1008,M,M,M,50.00,5.00,M,30.11,M,10.00,M,OVC,M,M,M,1800.00,M,M,M,M,KOTM 010415Z AUTO 05005KT 10SM OVC018 A3011 RMK MADISHF
OTM,2017-04-01 04:20,-92.4446,41.1008,M,M,M,50.00,7.00,M,30.11,M,10.00,M,OVC,M,M,M,1800.00,M,M,M,M,KOTM 010420Z AUTO 05007KT 10SM OVC018 A3011 RMK MADISHF
OTM,2017-04-01 04:25,-92.4446,41.1008,M,M,M,50.00,5.00,M,30.11,M,10.00,M,OVC,M,M,M,1800.00,M,M,M,M,KOTM 010425Z AUTO 05005KT 10SM OVC018 A3011 RMK MADISHF
OTM,2017-04-01 04:30,-92.4446,41.1008,M,M,M,50.00,6.00,M,30.11,M,10.00,M,OVC,M,M,M,1800.00,M,M,M,M,KOTM 010430Z AUTO 05006KT 10SM OVC018 A3011 RMK MADISHF
OTM,2017-04-01 04:35,-92.4446,41.1008,M,M,M,50.00,5.00,M,30.11,M,10.00,M,OVC,M,M,M,1900.00,M,M,M,M,KOTM 010435Z AUTO 05005KT 10SM OVC019 A3011 RMK MADISHF
OTM,2017-04-01 04:40,-92.4446,41.1008,M,M,M,60.00,5.00,M,30.11,M,10.00,M,OVC,M,M,M,1900.00,M,M,M,M,KOTM 010440Z AUTO 06005KT 10SM OVC019 A3011 RMK MADISHF
OTM,2017-04-01 04:45,-92.4446,41.1008,M,M,M,70.00,4.00,M,30.11,M,10.00,M,OVC,M,M,M,1900.00,M,M,M,M,KOTM 010445Z AUTO 07004KT 10SM OVC019 A3011 RMK MADISHF
OTM,2017-04-01 04:50,-92.4446,41.1008,M,M,M,50.00,3.00,M,30.11,M,10.00,M,OVC,M,M,M,1999.00,M,M,M,M,KOTM 010450Z AUTO 05003KT 10SM OVC019 A3011 RMK MADISHF
OTM,2017-04-01 04:53,-92.4446,41.1008,42.10,37.00,81.98,50.00,3.00,0.00,30.11,1020.10,10.00,M,BKN,M,M,M,2000.00,M,M,M,M,KOTM 010453Z AUTO 05003KT 10SM BKN020 06/03 A3011 RMK AO2 SLP201 T00560028
OTM,2017-04-01 05:00,-92.4446,41.1008,M,M,M,0.00,0.00,M,30.10,M,10.00,M,SCT,M,M,M,1999.00,M,M,M,M,KOTM 010500Z AUTO 00000KT 10SM SCT019 A3010 RMK MADISHF
OTM,2017-04-01 05:05,-92.4446,41.1008,M,M,M,0.00,0.00,M,30.12,M,10.00,M,SCT,M,M,M,1999.00,M,M,M,M,KOTM 010505Z AUTO 00000KT 10SM SCT019 A3012 RMK MADISHF
OTM,2017-04-01 05:06,-92.4446,41.1008,41.00,36.00,82.22,0.00,0.00,0.00,30.12,M,10.00,M,SCT,M,M,M,2000.00,M,M,M,M,KOTM 010506Z AUTO 00000KT 10SM SCT020 05/02 A3012 RMK AO2 T00500022
OTM,2017-04-01 05:10,-92.4446,41.1008,M,M,M,0.00,0.00,M,30.12,M,10.00,M,FEW,M,M,M,1999.00,M,M,M,M,KOTM 010510Z AUTO 00000KT 10SM FEW019 A3012 RMK MADISHF
OTM,2017-04-01 05:15,-92.4446,41.1008,M,M,M,0.00,0.00,M,30.13,M,10.00,M,FEW,M,M,M,1999.00,M,M,M,M,KOTM 010515Z AUTO 00000KT 10SM FEW019 A3013 RMK MADISHF
OTM,2017-04-01 05:20,-92.4446,41.1008,M,M,M,0.00,0.00,M,30.13,M,10.00,M,CLR,M,M,M,M,M,M,M,M,KOTM 010520Z AUTO 00000KT 10SM CLR A3013 RMK MADISHF
OTM,2017-04-01 05:25,-92.4446,41.1008,M,M,M,0.00,0.00,M,30.13,M,10.00,M,CLR,M,M,M,M,M,M,M,M,KOTM 010525Z AUTO 00000KT 10SM CLR A3013 RMK MADISHF
OTM,2017-04-01 05:30,-92.4446,41.1008,M,M,M,0.00,0.00,M,30.13,M,10.00,M,CLR,M,M,M,M,M,M,M,M,KOTM 010530Z AUTO 00000KT 10SM CLR A3013 RMK MADISHF
OTM,2017-04-01 05:35,-92.4446,41.1008,M,M,M,0.00,0.00,M,30.13,M,10.00,M,CLR,M,M,M,M,M,M,M,M,KOTM 010535Z AUTO 00000KT 10SM CLR A3013 RMK MADISHF
OTM,2017-04-01 05:40,-92.4446,41.1008,M,M,M,0.00,0.00,M,30.13,M,10.00,M,CLR,M,M,M,M,M,M,M,M,KOTM 010540Z AUTO 00000KT 10SM CLR A3013 RMK MADISHF
OTM,2017-04-01 05:45,-92.4446,41.1008,M,M,M,0.00,0.00,M,30.13,M,10.00,M,CLR,M,M,M,M,M,M,M,M,KOTM 010545Z AUTO 00000KT 10SM CLR A3013 RMK MADISHF
OTM,2017-04-01 05:50,-92.4446,41.1008,M,M,M,0.00,0.00,M,30.13,M,10.00,M,CLR,M,M,M,M,M,M,M,M,KOTM 010550Z AUTO 00000KT 10SM CLR A3013 RMK MADISHF
OTM,2017-04-01 05:53,-92.4446,41.1008,39.00,37.00,92.45,0.00,0.00,0.00,30.14,1020.90,10.00,M,CLR,M,M,M,M,M,M,M,M,KOTM 010553Z AUTO 00000KT 10SM CLR 04/03 A3014 RMK AO2 SLP209 T00390028 10061 20017 400610017 53010
OTM,2017-04-01 05:55,-92.4446,41.1008,M,M,M,0.00,0.00,M,30.14,M,10.00,M,CLR,M,M,M,M,M,M,M,M,KOTM 010555Z AUTO 00000KT 10SM CLR A3014 RMK MADISHF
OTM,2017-04-01 06:00,-92.4446,41.1008,M,M,M,0.00,0.00,M,30.14,M,10.00,M,CLR,M,M,M,M,M,M,M,M,KOTM 010600Z AUTO 00000KT 10SM CLR A3014 RMK MADISHF
OTM,2017-04-01 06:10,-92.4446,41.1008,M,M,M,0.00,0.00,M,30.14,M,10.00,M,CLR,M,M,M,M,M,M,M,M,KOTM 010610Z AUTO 00000KT 10SM CLR A3014 RMK MADISHF
OTM,2017-04-01 06:15,-92.4446,41.1008,M,M,M,0.00,0.00,M,30.14,M,10.00,M,CLR,M,M,M,M,M,M,M,M,KOTM 010615Z AUTO 00000KT 10SM CLR A3014 RMK MADISHF
OTM,2017-04-01 06:20,-92.4446,41.1008,M,M,M,0.00,0.00,M,30.14,M,10.00,M,CLR,M,M,M,M,M,M,M,M,KOTM 010620Z AUTO 00000KT 10SM CLR A3014 RMK MADISHF
OTM,2017-04-01 06:25,-92.4446,41.1008,M,M,M,0.00,0.00,M,30.14,M,10.00,M,CLR,M,M,M,M,M,M,M,M,KOTM 010625Z AUTO 00000KT 10SM CLR A3014 RMK MADISHF
OTM,2017-04-01 06:30,-92.4446,41.1008,M,M,M,0.00,0.00,M,30.14,M,10.00,M,CLR,M,M,M,M,M,M,M,M,KOTM 010630Z AUTO 00000KT 10SM CLR A3014 RMK MADISHF
OTM,2017-04-01 06:35,-92.4446,41.1008,M,M,M,0.00,0.00,M,30.14,M,10.00,M,CLR,M,M,M,M,M,M,M,M,KOTM 010635Z AUTO 00000KT 10SM CLR A3014 RMK MADISHF
OTM,2017-04-01 06:40,-92.4446,41.1008,M,M,M,310.00,3.00,M,30.15,M,10.00,M,CLR,M,M,M,M,M,M,M,M,KOTM 010640Z AUTO 31003KT 10SM CLR A3015 RMK MADISHF
OTM,2017-04-01 06:53,-92.4446,41.1008,36.00,34.00,92.35,0.00,0.00,0.00,30.15,1021.50,10.00,M,CLR,M,M,M,M,M,M,M,M,KOTM 010653Z AUTO 00000KT 10SM CLR 02/01 A3015 RMK AO2 SLP215 T00220011
OTM,2017-04-01 06:55,-92.4446,41.1008,M,M,M,0.00,0.00,M,30.15,M,10.00,M,CLR,M,M,M,M,M,M,M,M,KOTM 010655Z AUTO 00000KT 10SM CLR A3015 RMK MADISHF
OTM,2017-04-01 07:00,-92.4446,41.1008,M,M,M,340.00,3.00,M,30.15,M,10.00,M,CLR,M,M,M,M,M,M,M,M,KOTM 010700Z AUTO 34003KT 10SM CLR A3015 RMK MADISHF
OTM,2017-04-01 07:05,-92.4446,41.1008,M,M,M,340.00,3.00,M,30.15,M,10.00,M,CLR,M,M,M,M,M,M,M,M,KOTM 010705Z AUTO 34003KT 10SM CLR A3015 RMK MADISHF
OTM,2017-04-01 07:10,-92.4446,41.1008,M,M,M,340.00,3.00,M,30.15,M,10.00,M,CLR,M,M,M,M,M,M,M,M,KOTM 010710Z AUTO 34003KT 10SM CLR A3015 RMK MADISHF
OTM,2017-04-01 07:15,-92.4446,41.1008,M,M,M,330.00,3.00,M,30.15,M,10.00,M,CLR,M,M,M,M,M,M,M,M,KOTM 010715Z AUTO 33003KT 10SM CLR A3015 RMK MADISHF
OTM,2017-04-01 07:20,-92.4446,41.1008,M,M,M,320.00,3.00,M,30.16,M,10.00,M,CLR,M,M,M,M,M,M,M,M,KOTM 010720Z AUTO 32003KT 10SM CLR A3016 RMK MADISHF
OTM,2017-04-01 07:25,-92.4446,41.1008,M,M,M,310.00,4.00,M,30.16,M,10.00,M,CLR,M,M,M,M,M,M,M,M,KOTM 010725Z AUTO 31004KT 10SM CLR A3016 RMK MADISHF
OTM,2017-04-01 07:30,-92.4446,41.1008,M,M,M,320.00,4.00,M,30.17,M,10.00,M,CLR,M,M,M,M,M,M,M,M,KOTM 010730Z AUTO 32004KT 10SM CLR A3017 RMK MADISHF
OTM,2017-04-01 07:35,-92.4446,41.1008,M,M,M,330.00,4.00,M,30.16,M,10.00,M,CLR,M,M,M,M,M,M,M,M,KOTM 010735Z AUTO 33004KT 10SM CLR A3016 RMK MADISHF
OTM,2017-04-01 07:40,-92.4446,41.1008,M,M,M,320.00,4.00,M,30.17,M,10.00,M,CLR,M,M,M,M,M,M,M,M,KOTM 010740Z AUTO 32004KT 10SM CLR A3017 RMK MADISHF
OTM,2017-04-01 07:45,-92.4446,41.1008,M,M,M,320.00,4.00,M,30.17,M,10.00,M,CLR,M,M,M,M,M,M,M,M,KOTM 010745Z AUTO 32004KT 10SM CLR A3017 RMK MADISHF
OTM,2017-04-01 07:53,-92.4446,41.1008,36.00,35.10,96.49,330.00,5.00,0.00,30.17,1022.20,10.00,M,CLR,M,M,M,M,M,M,M,M,KOTM 010753Z AUTO 33005KT 10SM CLR 02/02 A3017 RMK AO2 SLP222 T00220017
OTM,2017-04-01 07:55,-92.4446,41.1008,M,M,M,330.00,5.00,M,30.17,M,10.00,M,CLR,M,M,M,M,M,M,M,M,KOTM 010755Z AUTO 33005KT 10SM CLR A3017 RMK MADISHF
OTM,2017-04-01 08:00,-92.4446,41.1008,M,M,M,330.00,4.00,M,30.17,M,10.00,M,CLR,M,M,M,M,M,M,M,M,KOTM 010800Z AUTO 33004KT 10SM CLR A3017 RMK MADISHF
OTM,2017-04-01 08:05,-92.4446,41.1008,M,M,M,340.00,4.00,M,30.17,M,10.00,M,CLR,M,M,M,M,M,M,M,M,KOTM 010805Z AUTO 34004KT 10SM CLR A3017 RMK MADISHF
OTM,2017-04-01 08:10,-92.4446,41.1008,M,M,M,330.00,4.00,M,30.17,M,10.00,M,CLR,M,M,M,M,M,M,M,M,KOTM 010810Z AUTO 33004KT 10SM CLR A3017 RMK MADISHF
OTM,2017-04-01 08:15,-92.4446,41.1008,M,M,M,330.00,5.00,M,30.17,M,10.00,M,CLR,M,M,M,M,M,M,M,M,KOTM 010815Z AUTO 33005KT 10SM CLR A3017 RMK MADISHF
OTM,2017-04-01 08:20,-92.4446,41.1008,M,M,M,340.00,5.00,M,30.17,M,10.00,M,CLR,M,M,M,M,M,M,M,M,KOTM 010820Z AUTO 34005KT 10SM CLR A3017 RMK MADISHF
OTM,2017-04-01 08:25,-92.4446,41.1008,M,M,M,340.00,6.00,M,30.17,M,10.00,M,CLR,M,M,M,M,M,M,M,M,KOTM 010825Z AUTO 34006KT 10SM CLR A3017 RMK MADISHF
OTM,2017-04-01 08:35,-92.4446,41.1008,M,M,M,350.00,7.00,M,30.17,M,10.00,M,CLR,M,M,M,M,M,M,M,M,KOTM 010835Z AUTO 35007KT 10SM CLR A3017 RMK MADISHF
OTM,2017-04-01 08:40,-92.4446,41.1008,M,M,M,350.00,7.00,M,30.17,M,10.00,M,CLR,M,M,M,M,M,M,M,M,KOTM 010840Z AUTO 35007KT 10SM CLR A3017 RMK MADISHF
OTM,2017-04-01 08:45,-92.4446,41.1008,M,M,M,360.00,6.00,M,30.17,M,10.00,M,CLR,M,M,M,M,M,M,M,M,KOTM 010845Z AUTO 36006KT 10SM CLR A3017 RMK MADISHF
OTM,2017-04-01 08:50,-92.4446,41.1008,M,M,M,360.00,7.00,M,30.17,M,10.00,M,CLR,M,M,M,M,M,M,M,M,KOTM 010850Z AUTO 36007KT 10SM CLR A3017 RMK MADISHF
OTM,2017-04-01 08:53,-92.4446,41.1008,36.00,35.10,96.49,360.00,7.00,0.00,30.17,1022.20,10.00,M,CLR,M,M,M,M,M,M,M,M,KOTM 010853Z AUTO 36007KT 10SM CLR 02/02 A3017 RMK AO2 SLP222 T00220017 51011
OTM,2017-04-01 08:55,-92.4446,41.1008,M,M,M,360.00,7.00,M,30.17,M,10.00,M,CLR,M,M,M,M,M,M,M,M,KOTM 010855Z AUTO 36007KT 10SM CLR A3017 RMK MADISHF
OTM,2017-04-01 09:00,-92.4446,41.1008,M,M,M,10.00,5.00,M,30.17,M,10.00,M,CLR,M,M,M,M,M,M,M,M,KOTM 010900Z AUTO 01005KT 10SM CLR A3017 RMK MADISHF
OTM,2017-04-01 09:05,-92.4446,41.1008,M,M,M,360.00,5.00,M,30.16,M,10.00,M,CLR,M,M,M,M,M,M,M,M,KOTM 010905Z AUTO 36005KT 10SM CLR A3016 RMK MADISHF
OTM,2017-04-01 09:10,-92.4446,41.1008,M,M,M,360.00,5.00,M,30.17,M,10.00,M,CLR,M,M,M,M,M,M,M,M,KOTM 010910Z AUTO 36005KT 10SM CLR A3017 RMK MADISHF
OTM,2017-04-01 09:15,-92.4446,41.1008,M,M,M,360.00,4.00,M,30.17,M,10.00,M,CLR,M,M,M,M,M,M,M,M,KOTM 010915Z AUTO 36004KT 10SM CLR A3017 RMK MADISHF
OTM,2017-04-01 09:20,-92.4446,41.1008,M,M,M,360.00,4.00,M,30.17,M,10.00,M,CLR,M,M,M,M,M,M,M,M,KOTM 010920Z AUTO 36004KT 10SM CLR A3017 RMK MADISHF
OTM,2017-04-01 09:25,-92.4446,41.1008,M,M,M,360.00,4.00,M,30.17,M,10.00,M,CLR,M,M,M,M,M,M,M,M,KOTM 010925Z AUTO 36004KT 10SM CLR A3017 RMK MADISHF
OTM,2017-04-01 09:30,-92.4446,41.1008,M,M,M,360.00,4.00,M,30.17,M,10.00,M,CLR,M,M,M,M,M,M,M,M,KOTM 010930Z AUTO 36004KT 10SM CLR A3017 RMK MADISHF
OTM,2017-04-01 09:45,-92.4446,41.1008,M,M,M,360.00,3.00,M,30.17,M,10.00,M,CLR,M,M,M,M,M,M,M,M,KOTM 010945Z AUTO 36003KT 10SM CLR A3017 RMK MADISHF
OTM,2017-04-01 09:50,-92.4446,41.1008,M,M,M,0.00,0.00,M,30.18,M,7.00,M,CLR,M,M,M,M,M,M,M,M,KOTM 010950Z AUTO 00000KT 7SM CLR A3018 RMK MADISHF
OTM,2017-04-01 09:53,-92.4446,41.1008,33.10,32.00,95.67,0.00,0.00,0.00,30.18,1022.60,5.00,M,CLR,M,M,M,M,M,M,M,BR,KOTM 010953Z AUTO 00000KT 5SM BR CLR 01/00 A3018 RMK AO2 SLP226 T00060000
OTM,2017-04-01 09:55,-92.4446,41.1008,M,M,M,340.00,3.00,M,30.18,M,5.00,M,CLR,M,M,M,M,M,M,M,BR,KOTM 010955Z AUTO 34003KT 5SM BR CLR A3018 RMK MADISHF
OTM,2017-04-01 10:00,-92.4446,41.1008,M,M,M,340.00,4.00,M,30.18,M,6.00,M,CLR,M,M,M,M,M,M,M,BR,KOTM 011000Z AUTO 34004KT 6SM BR CLR A3018 RMK MADISHF
OTM,2017-04-01 10:05,-92.4446,41.1008,M,M,M,360.00,4.00,M,30.18,M,10.00,M,CLR,M,M,M,M,M,M,M,M,KOTM 011005Z AUTO 36004KT 10SM CLR A3018 RMK MADISHF
OTM,2017-04-01 10:10,-92.4446,41.1008,M,M,M,360.00,3.00,M,30.18,M,10.00,M,CLR,M,M,M,M,M,M,M,M,KOTM 011010Z AUTO 36003KT 10SM CLR A3018 RMK MADISHF
OTM,2017-04-01 10:15,-92.4446,41.1008,M,M,M,340.00,3.00,M,30.18,M,10.00,M,CLR,M,M,M,M,M,M,M,M,KOTM 011015Z AUTO 34003KT 10SM CLR A3018 RMK MADISHF
OTM,2017-04-01 10:20,-92.4446,41.1008,M,M,M,340.00,3.00,M,30.18,M,10.00,M,CLR,M,M,M,M,M,M,M,M,KOTM 011020Z AUTO 34003KT 10SM CLR A3018 RMK MADISHF
OTM,2017-04-01 10:25,-92.4446,41.1008,M,M,M,350.00,3.00,M,30.18,M,10.00,M,CLR,M,M,M,M,M,M,M,M,KOTM 011025Z AUTO 35003KT 10SM CLR A3018 RMK MADISHF
OTM,2017-04-01 10:35,-92.4446,41.1008,M,M,M,360.00,3.00,M,30.17,M,10.00,M,CLR,M,M,M,M,M,M,M,M,KOTM 011035Z AUTO 36003KT 10SM CLR A3017 RMK MADISHF
OTM,2017-04-01 10:40,-92.4446,41.1008,M,M,M,0.00,0.00,M,30.18,M,10.00,M,CLR,M,M,M,M,M,M,M,M,KOTM 011040Z AUTO 00000KT 10SM CLR A3018 RMK MADISHF
OTM,2017-04-01 10:45,-92.4446,41.1008,M,M,M,0.00,0.00,M,30.19,M,10.00,M,CLR,M,M,M,M,M,M,M,M,KOTM 011045Z AUTO 00000KT 10SM CLR A3019 RMK MADISHF
OTM,2017-04-01 10:50,-92.4446,41.1008,M,M,M,0.00,0.00,M,30.19,M,10.00,M,CLR,M,M,M,M,M,M,M,M,KOTM 011050Z AUTO 00000KT 10SM CLR A3019 RMK MADISHF
OTM,2017-04-01 10:53,-92.4446,41.1008,33.10,33.10,100.00,0.00,0.00,0.00,30.19,1023.10,9.00,M,CLR,M,M,M,M,M,M,M,M,KOTM 011053Z AUTO 00000KT 9SM CLR 01/01 A3019 RMK AO2 SLP231 T00060006
OTM,2017-04-01 10:55,-92.4446,41.1008,M,M,M,0.00,0.00,M,30.19,M,9.00,M,CLR,M,M,M,M,M,M,M,M,KOTM 011055Z AUTO 00000KT 9SM CLR A3019 RMK MADISHF
OTM,2017-04-01 11:00,-92.4446,41.1008,M,M,M,0.00,0.00,M,30.19,M,8.00,M,CLR,M,M,M,M,M,M,M,M,KOTM 011100Z AUTO 00000KT 8SM CLR A3019 RMK MADISHF
OTM,2017-04-01 11:10,-92.4446,41.1008,M,M,M,0.00,0.00,M,30.19,M,7.00,M,CLR,M,M,M,M,M,M,M,M,KOTM 011110Z AUTO 00000KT 7SM CLR A3019 RMK MADISHF
OTM,2017-04-01 11:15,-92.4446,41.1008,M,M,M,0.00,0.00,M,30.20,M,6.00,M,CLR,M,M,M,M,M,M,M,BR,KOTM 011115Z AUTO 00000KT 6SM BR CLR A3020 RMK MADISHF
OTM,2017-04-01 11:20,-92.4446,41.1008,M,M,M,0.00,0.00,M,30.19,M,6.00,M,CLR,M,M,M,M,M,M,M,BR,KOTM 011120Z AUTO 00000KT 6SM BR CLR A3019 RMK MADISHF
OTM,2017-04-01 11:25,-92.4446,41.1008,M,M,M,0.00,0.00,M,30.20,M,7.00,M,CLR,M,M,M,M,M,M,M,M,KOTM 011125Z AUTO 00000KT 7SM CLR A3020 RMK MADISHF
OTM,2017-04-01 11:30,-92.4446,41.1008,M,M,M,290.00,3.00,M,30.21,M,10.00,M,CLR,M,M,M,M,M,M,M,M,KOTM 011130Z AUTO 29003KT 10SM CLR A3021 RMK MADISHF
OTM,2017-04-01 11:35,-92.4446,41.1008,M,M,M,300.00,4.00,M,30.21,M,9.00,M,CLR,M,M,M,M,M,M,M,M,KOTM 011135Z AUTO 30004KT 9SM CLR A3021 RMK MADISHF
OTM,2017-04-01 11:45,-92.4446,41.1008,M,M,M,320.00,4.00,M,30.22,M,9.00,M,CLR,M,M,M,M,M,M,M,M,KOTM 011145Z AUTO 32004KT 9SM CLR A3022 RMK MADISHF
OTM,2017-04-01 11:50,-92.4446,41.1008,M,M,M,310.00,4.00,M,30.22,M,10.00,M,CLR,M,M,M,M,M,M,M,M,KOTM 011150Z AUTO 31004KT 10SM CLR A3022 RMK MADISHF
OTM,2017-04-01 11:53,-92.4446,41.1008,33.10,32.00,95.67,320.00,4.00,0.00,30.22,1024.20,10.00,M,CLR,M,M,M,M,M,M,M,M,KOTM 011153Z AUTO 32004KT 10SM CLR 01/00 A3022 RMK AO2 SLP242 T00060000 10033 20000 53018
OTM,2017-04-01 11:55,-92.4446,41.1008,M,M,M,320.00,5.00,M,30.23,M,10.00,M,CLR,M,M,M,M,M,M,M,M,KOTM 011155Z AUTO 32005KT 10SM CLR A3023 RMK MADISHF
OTM,2017-04-01 12:00,-92.4446,41.1008,M,M,M,310.00,4.00,M,30.23,M,10.00,M,CLR,M,M,M,M,M,M,M,M,KOTM 011200Z AUTO 31004KT 10SM CLR A3023 RMK MADISHF
OTM,2017-04-01 12:15,-92.4446,41.1008,M,M,M,330.00,5.00,M,30.23,M,8.00,M,CLR,M,M,M,M,M,M,M,M,KOTM 011215Z AUTO 33005KT 8SM CLR A3023 RMK MADISHF
OTM,2017-04-01 12:20,-92.4446,41.1008,M,M,M,340.00,5.00,M,30.23,M,9.00,M,CLR,M,M,M,M,M,M,M,M,KOTM 011220Z AUTO 34005KT 9SM CLR A3023 RMK MADISHF
OTM,2017-04-01 12:25,-92.4446,41.1008,M,M,M,340.00,5.00,M,30.23,M,9.00,M,CLR,M,M,M,M,M,M,M,M,KOTM 011225Z AUTO 34005KT 9SM CLR A3023 RMK MADISHF
OTM,2017-04-01 12:30,-92.4446,41.1008,M,M,M,350.00,4.00,M,30.23,M,9.00,M,CLR,M,M,M,M,M,M,M,M,KOTM 011230Z AUTO 35004KT 9SM CLR A3023 RMK MADISHF
OTM,2017-04-01 12:35,-92.4446,41.1008,M,M,M,350.00,5.00,M,30.24,M,10.00,M,CLR,M,M,M,M,M,M,M,M,KOTM 011235Z AUTO 35005KT 10SM CLR A3024 RMK MADISHF
OTM,2017-04-01 12:45,-92.4446,41.1008,M,M,M,360.00,6.00,M,30.24,M,10.00,M,CLR,M,M,M,M,M,M,M,M,KOTM 011245Z AUTO 36006KT 10SM CLR A3024 RMK MADISHF
OTM,2017-04-01 12:50,-92.4446,41.1008,M,M,M,360.00,6.00,M,30.24,M,10.00,M,CLR,M,M,M,M,M,M,M,M,KOTM 011250Z AUTO 36006KT 10SM CLR A3024 RMK MADISHF
OTM,2017-04-01 12:53,-92.4446,41.1008,36.00,35.10,96.49,360.00,6.00,0.00,30.24,1024.50,10.00,M,CLR,M,M,M,M,M,M,M,M,KOTM 011253Z AUTO 36006KT 10SM CLR 02/02 A3024 RMK AO2 SLP245 T00220017
OTM,2017-04-01 12:55,-92.4446,41.1008,M,M,M,360.00,6.00,M,30.24,M,10.00,M,CLR,M,M,M,M,M,M,M,M,KOTM 011255Z AUTO 36006KT 10SM CLR A3024 RMK MADISHF
OTM,2017-04-01 13:00,-92.4446,41.1008,M,M,M,360.00,6.00,M,30.25,M,10.00,M,CLR,M,M,M,M,M,M,M,M,KOTM 011300Z AUTO 36006KT 10SM CLR A3025 RMK MADISHF
OTM,2017-04-01 13:05,-92.4446,41.1008,M,M,M,360.00,6.00,M,30.25,M,10.00,M,CLR,M,M,M,M,M,M,M,M,KOTM 011305Z AUTO 36006KT 10SM CLR A3025 RMK MADISHF
OTM,2017-04-01 13:10,-92.4446,41.1008,M,M,M,10.00,6.00,M,30.25,M,10.00,M,CLR,M,M,M,M,M,M,M,M,KOTM 011310Z AUTO 01006KT 10SM CLR A3025 RMK MADISHF
OTM,2017-04-01 13:20,-92.4446,41.1008,M,M,M,10.00,7.00,M,30.24,M,10.00,M,CLR,M,M,M,M,M,M,M,M,KOTM 011320Z AUTO 01007KT 10SM CLR A3024 RMK MADISHF
OTM,2017-04-01 13:25,-92.4446,41.1008,M,M,M,20.00,6.00,M,30.24,M,10.00,M,CLR,M,M,M,M,M,M,M,M,KOTM 011325Z AUTO 02006KT 10SM CLR A3024 RMK MADISHF
OTM,2017-04-01 13:30,-92.4446,41.1008,M,M,M,30.00,6.00,M,30.24,M,10.00,M,CLR,M,M,M,M,M,M,M,M,KOTM 011330Z AUTO 03006KT 10SM CLR A3024 RMK MADISHF
OTM,2017-04-01 13:35,-92.4446,41.1008,M,M,M,20.00,7.00,M,30.24,M,10.00,M,CLR,M,M,M,M,M,M,M,M,KOTM 011335Z AUTO 02007KT 10SM CLR A3024 RMK MADISHF
OTM,2017-04-01 13:40,-92.4446,41.1008,M,M,M,20.00,5.00,M,30.23,M,10.00,M,CLR,M,M,M,M,M,M,M,M,KOTM 011340Z AUTO 02005KT 10SM CLR A3023 RMK MADISHF
OTM,2017-04-01 13:50,-92.4446,41.1008,M,M,M,10.00,6.00,M,30.25,M,10.00,M,CLR,M,M,M,M,M,M,M,M,KOTM 011350Z AUTO 01006KT 10SM CLR A3025 RMK MADISHF
OTM,2017-04-01 13:53,-92.4446,41.1008,39.90,37.00,89.27,10.00,5.00,0.00,30.25,1024.80,10.00,M,CLR,M,M,M,M,M,M,M,M,KOTM 011353Z AUTO 01005KT 10SM CLR 04/03 A3025 RMK AO2 SLP248 T00440028
OTM,2017-04-01 13:55,-92.4446,41.1008,M,M,M,10.00,5.00,M,30.25,M,10.00,M,CLR,M,M,M,M,M,M,M,M,KOTM 011355Z AUTO 01005KT 10SM CLR A3025 RMK MADISHF
OTM,2017-04-01 14:00,-92.4446,41.1008,M,M,M,20.00,4.00,M,30.25,M,10.00,M,CLR,M,M,M,M,M,M,M,M,KOTM 011400Z AUTO 02004KT 10SM CLR A3025 RMK MADISHF
OTM,2017-04-01 14:05,-92.4446,41.1008,M,M,M,30.00,5.00,M,30.25,M,10.00,M,CLR,M,M,M,M,M,M,M,M,KOTM 011405Z AUTO 03005KT 10SM CLR A3025 RMK MADISHF
OTM,2017-04-01 14:10,-92.4446,41.1008,M,M,M,20.00,5.00,M,30.24,M,10.00,M,CLR,M,M,M,M,M,M,M,M,KOTM 011410Z AUTO 02005KT 10SM CLR A3024 RMK MADISHF
OTM,2017-04-01 14:15,-92.4446,41.1008,M,M,M,20.00,5.00,M,30.24,M,10.00,M,CLR,M,M,M,M,M,M,M,M,KOTM 011415Z AUTO 02005KT 10SM CLR A3024 RMK MADISHF
OTM,2017-04-01 14:25,-92.4446,41.1008,M,M,M,20.00,4.00,M,30.24,M,10.00,M,CLR,M,M,M,M,M,M,M,M,KOTM 011425Z AUTO 02004KT 10SM CLR A3024 RMK MADISHF
OTM,2017-04-01 14:30,-92.4446,41.1008,M,M,M,10.00,3.00,M,30.24,M,10.00,M,CLR,M,M,M,M,M,M,M,M,KOTM 011430Z AUTO 01003KT 10SM CLR A3024 RMK MADISHF
OTM,2017-04-01 14:35,-92.4446,41.1008,M,M,M,10.00,4.00,M,30.23,M,10.00,M,CLR,M,M,M,M,M,M,M,M,KOTM 011435Z AUTO 01004KT 10SM CLR A3023 RMK MADISHF
OTM,2017-04-01 14:40,-92.4446,41.1008,M,M,M,10.00,5.00,M,30.24,M,10.00,M,CLR,M,M,M,M,M,M,M,M,KOTM 011440Z AUTO 01005KT 10SM CLR A3024 RMK MADISHF
OTM,2017-04-01 14:45,-92.4446,41.1008,M,M,M,20.00,4.00,M,30.24,M,10.00,M,CLR,M,M,M,M,M,M,M,M,KOTM 011445Z AUTO 02004KT 10SM CLR A3024 RMK MADISHF
OTM,2017-04-01 14:50,-92.4446,41.1008,M,M,M,20.00,4.00,M,30.24,M,10.00,M,CLR,M,M,M,M,M,M,M,M,KOTM 011450Z AUTO 02004KT 10SM CLR A3024 RMK MADISHF
OTM,2017-04-01 14:53,-92.4446,41.1008,46.00,37.90,73.18,360.00,3.00,0.00,30.24,1024.60,10.00,M,CLR,M,M,M,M,M,M,M,M,KOTM 011453Z AUTO 36003KT 10SM CLR 08/03 A3024 RMK AO2 SLP246 T00780033 50007
OTM,2017-04-01 14:55,-92.4446,41.1008,M,M,M,20.00,3.00,M,30.24,M,10.00,M,CLR,M,M,M,M,M,M,M,M,KOTM 011455Z AUTO 02003KT 10SM CLR A3024 RMK MADISHF
OTM,2017-04-01 15:00,-92.4446,41.1008,M,M,M,20.00,3.00,M,30.24,M,10.00,M,CLR,M,M,M,M,M,M,M,M,KOTM 011500Z AUTO 02003KT 10SM CLR A3024 RMK MADISHF
OTM,2017-04-01 15:05,-92.4446,41.1008,M,M,M,0.00,0.00,M,30.25,M,10.00,M,CLR,M,M,M,M,M,M,M,M,KOTM 011505Z AUTO 00000KT 10SM CLR A3025 RMK MADISHF
OTM,2017-04-01 15:10,-92.4446,41.1008,M,M,M,0.00,0.00,M,30.25,M,10.00,M,CLR,M,M,M,M,M,M,M,M,KOTM 011510Z AUTO 00000KT 10SM CLR A3025 RMK MADISHF
OTM,2017-04-01 15:15,-92.4446,41.1008,M,M,M,0.00,0.00,M,30.24,M,10.00,M,CLR,M,M,M,M,M,M,M,M,KOTM 011515Z AUTO 00000KT 10SM CLR A3024 RMK MADISHF
OTM,2017-04-01 15:20,-92.4446,41.1008,M,M,M,0.00,0.00,M,30.24,M,10.00,M,CLR,M,M,M,M,M,M,M,M,KOTM 011520Z AUTO 00000KT 10SM CLR A3024 RMK MADISHF
OTM,2017-04-01 15:25,-92.4446,41.1008,M,M,M,0.00,0.00,M,30.24,M,10.00,M,CLR,M,M,M,M,M,M,M,M,KOTM 011525Z AUTO 00000KT 10SM CLR A3024 RMK MADISHF
OTM,2017-04-01 15:30,-92.4446,41.1008,M,M,M,110.00,3.00,M,30.24,M,10.00,M,CLR,M,M,M,M,M,M,M,M,KOTM 011530Z AUTO 11003KT 10SM CLR A3024 RMK MADISHF
OTM,2017-04-01 15:40,-92.4446,41.1008,M,M,M,0.00,0.00,M,30.25,M,10.00,M,CLR,M,M,M,M,M,M,M,M,KOTM 011540Z AUTO 00000KT 10SM CLR A3025 RMK MADISHF
OTM,2017-04-01 15:45,-92.4446,41.1008,M,M,M,40.00,4.00,M,30.25,M,10.00,M,CLR,M,M,M,M,M,M,M,M,KOTM 011545Z AUTO 04004KT 10SM CLR A3025 RMK MADISHF
OTM,2017-04-01 15:50,-92.4446,41.1008,M,M,M,0.00,0.00,M,30.26,M,10.00,M,CLR,M,M,M,M,M,M,M,M,KOTM 011550Z AUTO 00000KT 10SM CLR A3026 RMK MADISHF
OTM,2017-04-01 15:53,-92.4446,41.1008,48.90,36.00,60.88,0.00,0.00,0.00,30.26,1025.10,10.00,M,CLR,M,M,M,M,M,M,M,M,KOTM 011553Z AUTO 00000KT 10SM CLR 09/02 A3026 RMK AO2 SLP251 T00940022
OTM,2017-04-01 15:55,-92.4446,41.1008,M,M,M,0.00,0.00,M,30.26,M,10.00,M,CLR,M,M,M,M,M,M,M,M,KOTM 011555Z AUTO 00000KT 10SM CLR A3026 RMK MADISHF
OTM,2017-04-01 16:00,-92.4446,41.1008,M,M,M,0.00,0.00,M,30.26,M,10.00,M,CLR,M,M,M,M,M,M,M,M,KOTM 011600Z AUTO 00000KT 10SM CLR A3026 RMK MADISHF
OTM,2017-04-01 16:10,-92.4446,41.1008,M,M,M,0.00,0.00,M,30.26,M,10.00,M,CLR,M,M,M,M,M,M,M,M,KOTM 011610Z AUTO 00000KT 10SM CLR A3026 RMK MADISHF
OTM,2017-04-01 16:15,-92.4446,41.1008,M,M,M,40.00,4.00,M,30.26,M,10.00,M,CLR,M,M,M,M,M,M,M,M,KOTM 011615Z AUTO 04004KT 10SM CLR A3026 RMK MADISHF
OTM,2017-04-01 16:20,-92.4446,41.1008,M,M,M,0.00,0.00,M,30.26,M,10.00,M,CLR,M,M,M,M,M,M,M,M,KOTM 011620Z AUTO 00000KT 10SM CLR A3026 RMK MADISHF
OTM,2017-04-01 16:25,-92.4446,41.1008,M,M,M,0.00,0.00,M,30.25,M,10.00,M,CLR,M,M,M,M,M,M,M,M,KOTM 011625Z AUTO 00000KT 10SM CLR A3025 RMK MADISHF
OTM,2017-04-01 16:30,-92.4446,41.1008,M,M,M,100.00,3.00,M,30.26,M,10.00,M,CLR,M,M,M,M,M,M,M,M,KOTM 011630Z AUTO 10003KT 10SM CLR A3026 RMK MADISHF
OTM,2017-04-01 16:35,-92.4446,41.1008,M,M,M,100.00,4.00,M,30.25,M,10.00,M,CLR,M,M,M,M,M,M,M,M,KOTM 011635Z AUTO 10004KT 10SM CLR A3025 RMK MADISHF
OTM,2017-04-01 16:40,-92.4446,41.1008,M,M,M,0.00,0.00,M,30.25,M,10.00,M,CLR,M,M,M,M,M,M,M,M,KOTM 011640Z AUTO 00000KT 10SM CLR A3025 RMK MADISHF
OTM,2017-04-01 16:45,-92.4446,41.1008,M,M,M,160.00,3.00,M,30.25,M,10.00,M,CLR,M,M,M,M,M,M,M,M,KOTM 011645Z AUTO 16003KT 10SM CLR A3025 RMK MADISHF
OTM,2017-04-01 16:50,-92.4446,41.1008,M,M,M,190.00,3.00,M,30.25,M,10.00,M,CLR,M,M,M,M,M,M,M,M,KOTM 011650Z AUTO 19003KT 10SM CLR A3025 RMK VRB03KT  MADISHF
OTM,2017-04-01 16:53,-92.4446,41.1008,51.10,37.00,58.36,M,3.00,0.00,30.25,1024.80,10.00,M,CLR,M,M,M,M,M,M,M,M,KOTM 011653Z AUTO VRB03KT 10SM CLR 11/03 A3025 RMK AO2 SLP248 T01060028
OTM,2017-04-01 17:05,-92.4446,41.1008,M,M,M,110.00,4.00,M,30.25,M,10.00,M,CLR,M,M,M,M,M,M,M,M,KOTM 011705Z AUTO 11004KT 10SM CLR A3025 RMK VRB04KT  MADISHF
OTM,2017-04-01 17:10,-92.4446,41.1008,M,M,M,160.00,3.00,M,30.25,M,10.00,M,CLR,M,M,M,M,M,M,M,M,KOTM 011710Z AUTO 16003KT 10SM CLR A3025 RMK VRB03KT  MADISHF
OTM,2017-04-01 17:15,-92.4446,41.1008,M,M,M,200.00,4.00,M,30.25,M,10.00,M,CLR,M,M,M,M,M,M,M,M,KOTM 011715Z AUTO 20004KT 10SM CLR A3025 RMK VRB04KT  MADISHF
OTM,2017-04-01 17:20,-92.4446,41.1008,M,M,M,170.00,3.00,M,30.24,M,10.00,M,CLR,M,M,M,M,M,M,M,M,KOTM 011720Z AUTO 17003KT 10SM CLR A3024 RMK VRB03KT  MADISHF
OTM,2017-04-01 17:35,-92.4446,41.1008,M,M,M,0.00,0.00,M,30.24,M,10.00,M,CLR,M,M,M,M,M,M,M,M,KOTM 011735Z AUTO 00000KT 10SM CLR A3024 RMK MADISHF
OTM,2017-04-01 17:40,-92.4446,41.1008,M,M,M,80.00,5.00,M,30.23,M,10.00,M,CLR,M,M,M,M,M,M,M,M,KOTM 011740Z AUTO 08005KT 10SM CLR A3023 RMK MADISHF
OTM,2017-04-01 17:45,-92.4446,41.1008,M,M,M,110.00,6.00,M,30.23,M,10.00,M,CLR,M,M,M,M,M,M,M,M,KOTM 011745Z AUTO 11006KT 10SM CLR A3023 RMK MADISHF
OTM,2017-04-01 17:50,-92.4446,41.1008,M,M,M,190.00,3.00,M,30.24,M,10.00,M,CLR,M,M,M,M,M,M,M,M,KOTM 011750Z AUTO 19003KT 10SM CLR A3024 RMK MADISHF
OTM,2017-04-01 17:53,-92.4446,41.1008,53.10,36.00,52.11,M,4.00,0.00,30.24,1024.20,10.00,M,CLR,M,M,M,M,M,M,M,M,KOTM 011753Z AUTO VRB04KT 10SM CLR 12/02 A3024 RMK AO2 SLP242 T01170022 10117 20000 58003
OTM,2017-04-01 17:55,-92.4446,41.1008,M,M,M,100.00,5.00,M,30.23,M,10.00,M,CLR,M,M,M,M,M,M,M,M,KOTM 011755Z AUTO 10005KT 10SM CLR A3023 RMK MADISHF
OTM,2017-04-01 18:05,-92.4446,41.1008,M,M,M,110.00,3.00,M,30.23,M,10.00,M,CLR,M,M,M,M,M,M,M,M,KOTM 011805Z AUTO 11003KT 10SM CLR A3023 RMK VRB03KT  MADISHF
OTM,2017-04-01 18:10,-92.4446,41.1008,M,M,M,110.00,6.00,M,30.23,M,10.00,M,CLR,M,M,M,M,M,M,M,M,KOTM 011810Z AUTO 11006KT 10SM CLR A3023 RMK MADISHF
OTM,2017-04-01 18:15,-92.4446,41.1008,M,M,M,70.00,7.00,M,30.22,M,10.00,M,CLR,M,M,M,M,M,M,M,M,KOTM 011815Z AUTO 07007KT 10SM CLR A3022 RMK MADISHF
OTM,2017-04-01 18:20,-92.4446,41.1008,M,M,M,80.00,6.00,M,30.22,M,10.00,M,CLR,M,M,M,M,M,M,M,M,KOTM 011820Z AUTO 08006KT 10SM CLR A3022 RMK MADISHF
OTM,2017-04-01 18:30,-92.4446,41.1008,M,M,M,110.00,6.00,M,30.22,M,10.00,M,CLR,M,M,M,M,M,M,M,M,KOTM 011830Z AUTO 11006KT 10SM CLR A3022 RMK VRB06KT  MADISHF
OTM,2017-04-01 18:35,-92.4446,41.1008,M,M,M,100.00,6.00,M,30.22,M,10.00,M,CLR,M,M,M,M,M,M,M,M,KOTM 011835Z AUTO 10006KT 10SM CLR A3022 RMK MADISHF
OTM,2017-04-01 18:40,-92.4446,41.1008,M,M,M,100.00,5.00,M,30.22,M,10.00,M,CLR,M,M,M,M,M,M,M,M,KOTM 011840Z AUTO 10005KT 10SM CLR A3022 RMK MADISHF
OTM,2017-04-01 18:45,-92.4446,41.1008,M,M,M,120.00,7.00,M,30.22,M,10.00,M,CLR,M,M,M,M,M,M,M,M,KOTM 011845Z AUTO 12007KT 10SM CLR A3022 RMK MADISHF
OTM,2017-04-01 18:50,-92.4446,41.1008,M,M,M,110.00,5.00,M,30.22,M,10.00,M,CLR,M,M,M,M,M,M,M,M,KOTM 011850Z AUTO 11005KT 10SM CLR A3022 RMK MADISHF
OTM,2017-04-01 18:53,-92.4446,41.1008,54.00,37.00,52.45,80.00,4.00,0.00,30.22,1023.70,10.00,M,CLR,M,M,M,M,M,M,M,M,KOTM 011853Z AUTO 08004KT 10SM CLR 12/03 A3022 RMK AO2 SLP237 T01220028
OTM,2017-04-01 18:55,-92.4446,41.1008,M,M,M,70.00,5.00,M,30.22,M,10.00,M,CLR,M,M,M,M,M,M,M,M,KOTM 011855Z AUTO 07005KT 10SM CLR A3022 RMK MADISHF
OTM,2017-04-01 19:00,-92.4446,41.1008,M,M,M,110.00,6.00,M,30.22,M,10.00,M,CLR,M,M,M,M,M,M,M,M,KOTM 011900Z AUTO 11006KT 10SM CLR A3022 RMK MADISHF
OTM,2017-04-01 19:05,-92.4446,41.1008,M,M,M,0.00,0.00,M,30.22,M,10.00,M,CLR,M,M,M,M,M,M,M,M,KOTM 011905Z AUTO 00000KT 10SM CLR A3022 RMK MADISHF
OTM,2017-04-01 19:10,-92.4446,41.1008,M,M,M,110.00,4.00,M,30.21,M,10.00,M,CLR,M,M,M,M,M,M,M,M,KOTM 011910Z AUTO 11004KT 10SM CLR A3021 RMK MADISHF
OTM,2017-04-01 19:15,-92.4446,41.1008,M,M,M,100.00,5.00,M,30.21,M,10.00,M,CLR,M,M,M,M,M,M,M,M,KOTM 011915Z AUTO 10005KT 10SM CLR A3021 RMK MADISHF
OTM,2017-04-01 19:20,-92.4446,41.1008,M,M,M,150.00,5.00,M,30.21,M,10.00,M,CLR,M,M,M,M,M,M,M,M,KOTM 011920Z AUTO 15005KT 10SM CLR A3021 RMK MADISHF
OTM,2017-04-01 19:30,-92.4446,41.1008,M,M,M,120.00,4.00,M,30.21,M,10.00,M,CLR,M,M,M,M,M,M,M,M,KOTM 011930Z AUTO 12004KT 10SM CLR A3021 RMK MADISHF
OTM,2017-04-01 19:35,-92.4446,41.1008,M,M,M,80.00,3.00,M,30.21,M,10.00,M,CLR,M,M,M,M,M,M,M,M,KOTM 011935Z AUTO 08003KT 10SM CLR A3021 RMK VRB03KT  MADISHF
OTM,2017-04-01 19:40,-92.4446,41.1008,M,M,M,80.00,6.00,M,30.20,M,10.00,M,CLR,M,M,M,M,M,M,M,M,KOTM 011940Z AUTO 08006KT 10SM CLR A3020 RMK MADISHF
OTM,2017-04-01 19:45,-92.4446,41.1008,M,M,M,80.00,8.00,M,30.20,M,10.00,M,CLR,M,M,M,M,M,M,M,M,KOTM 011945Z AUTO 08008KT 10SM CLR A3020 RMK MADISHF
OTM,2017-04-01 19:50,-92.4446,41.1008,M,M,M,110.00,5.00,M,30.19,M,10.00,M,CLR,M,M,M,M,M,M,M,M,KOTM 011950Z AUTO 11005KT 10SM CLR A3019 RMK MADISHF
OTM,2017-04-01 19:53,-92.4446,41.1008,55.00,37.90,52.40,80.00,8.00,0.00,30.19,1022.60,10.00,M,CLR,M,M,M,M,M,M,M,M,KOTM 011953Z AUTO 08008KT 10SM CLR 13/03 A3019 RMK AO2 PRESFR SLP226 T01280033
OTM,2017-04-01 19:55,-92.4446,41.1008,M,M,M,80.00,7.00,M,30.19,M,10.00,M,CLR,M,M,M,M,M,M,M,M,KOTM 011955Z AUTO 08007KT 10SM CLR A3019 RMK MADISHF
OTM,2017-04-01 20:05,-92.4446,41.1008,M,M,M,0.00,0.00,M,30.19,M,10.00,M,CLR,M,M,M,M,M,M,M,M,KOTM 012005Z AUTO 00000KT 10SM CLR A3019 RMK MADISHF
OTM,2017-04-01 20:10,-92.4446,41.1008,M,M,M,100.00,4.00,M,30.20,M,10.00,M,CLR,M,M,M,M,M,M,M,M,KOTM 012010Z AUTO 10004KT 10SM CLR A3020 RMK MADISHF
OTM,2017-04-01 20:15,-92.4446,41.1008,M,M,M,80.00,5.00,M,30.19,M,10.00,M,FEW,M,M,M,12000.00,M,M,M,M,KOTM 012015Z AUTO 08005KT 10SM FEW120 A3019 RMK MADISHF
OTM,2017-04-01 20:20,-92.4446,41.1008,M,M,M,80.00,5.00,M,30.19,M,10.00,M,SCT,M,M,M,12000.00,M,M,M,M,KOTM 012020Z AUTO 08005KT 10SM SCT120 A3019 RMK MADISHF
OTM,2017-04-01 20:25,-92.4446,41.1008,M,M,M,80.00,3.00,M,30.19,M,10.00,M,BKN,M,M,M,12000.00,M,M,M,M,KOTM 012025Z AUTO 08003KT 10SM BKN120 A3019 RMK MADISHF
OTM,2017-04-01 20:30,-92.4446,41.1008,M,M,M,80.00,5.00,M,30.18,M,10.00,M,BKN,M,M,M,11000.00,M,M,M,M,KOTM 012030Z AUTO 08005KT 10SM BKN110 A3018 RMK MADISHF
OTM,2017-04-01 20:45,-92.4446,41.1008,M,M,M,120.00,4.00,M,30.17,M,10.00,M,BKN,M,M,M,11000.00,M,M,M,M,KOTM 012045Z AUTO 12004KT 10SM BKN110 A3017 RMK MADISHF
OTM,2017-04-01 20:50,-92.4446,41.1008,M,M,M,110.00,5.00,M,30.17,M,10.00,M,BKN,M,M,M,11000.00,M,M,M,M,KOTM 012050Z AUTO 11005KT 10SM BKN110 A3017 RMK MADISHF
OTM,2017-04-01 20:53,-92.4446,41.1008,54.00,37.00,52.45,120.00,6.00,0.00,30.17,1022.00,10.00,M,BKN,M,M,M,11000.00,M,M,M,M,KOTM 012053Z AUTO 12006KT 10SM BKN110 12/03 A3017 RMK AO2 SLP220 T01220028 58022
OTM,2017-04-01 20:55,-92.4446,41.1008,M,M,M,120.00,5.00,M,30.17,M,10.00,M,BKN,M,M,M,11000.00,M,M,M,M,KOTM 012055Z AUTO 12005KT 10SM BKN110 A3017 RMK MADISHF
OTM,2017-04-01 21:00,-92.4446,41.1008,M,M,M,100.00,4.00,M,30.17,M,10.00,M,BKN,M,M,M,11000.00,M,M,M,M,KOTM 012100Z AUTO 10004KT 10SM BKN110 A3017 RMK MADISHF
OTM,2017-04-01 21:05,-92.4446,41.1008,M,M,M,120.00,6.00,M,30.17,M,10.00,M,SCT,M,M,M,11000.00,M,M,M,M,KOTM 012105Z AUTO 12006KT 10SM SCT110 A3017 RMK MADISHF
OTM,2017-04-01 21:20,-92.4446,41.1008,M,M,M,150.00,3.00,M,30.18,M,10.00,M,SCT,M,M,M,12000.00,M,M,M,M,KOTM 012120Z AUTO 15003KT 10SM SCT120 A3018 RMK MADISHF
OTM,2017-04-01 21:25,-92.4446,41.1008,M,M,M,0.00,0.00,M,30.18,M,10.00,M,FEW,M,M,M,12000.00,M,M,M,M,KOTM 012125Z AUTO 00000KT 10SM FEW120 A3018 RMK MADISHF
OTM,2017-04-01 21:30,-92.4446,41.1008,M,M,M,0.00,0.00,M,30.18,M,10.00,M,FEW,M,M,M,12000.00,M,M,M,M,KOTM 012130Z AUTO 00000KT 10SM FEW120 A3018 RMK MADISHF
OTM,2017-04-01 21:35,-92.4446,41.1008,M,M,M,80.00,4.00,M,30.18,M,10.00,M,SCT,M,M,M,12000.00,M,M,M,M,KOTM 012135Z AUTO 08004KT 10SM SCT120 A3018 RMK MADISHF
OTM,2017-04-01 21:40,-92.4446,41.1008,M,M,M,100.00,4.00,M,30.16,M,10.00,M,BKN,M,M,M,12000.00,M,M,M,M,KOTM 012140Z AUTO 10004KT 10SM BKN120 A3016 RMK MADISHF
OTM,2017-04-01 21:50,-92.4446,41.1008,M,M,M,100.00,4.00,M,30.17,M,10.00,M,BKN,M,M,M,12000.00,M,M,M,M,KOTM 012150Z AUTO 10004KT 10SM BKN120 A3017 RMK MADISHF
OTM,2017-04-01 21:53,-92.4446,41.1008,55.00,37.00,50.58,100.00,6.00,0.00,30.18,1022.20,10.00,M,BKN,M,M,M,12000.00,M,M,M,M,KOTM 012153Z AUTO 10006KT 10SM BKN120 13/03 A3018 RMK AO2 SLP222 T01280028
OTM,2017-04-01 21:55,-92.4446,41.1008,M,M,M,90.00,4.00,M,30.18,M,10.00,M,BKN,M,M,M,12000.00,M,M,M,M,KOTM 012155Z AUTO 09004KT 10SM BKN120 A3018 RMK MADISHF
OTM,2017-04-01 22:00,-92.4446,41.1008,M,M,M,100.00,3.00,M,30.17,M,10.00,M,OVC,M,M,M,12000.00,M,M,M,M,KOTM 012200Z AUTO 10003KT 10SM OVC120 A3017 RMK MADISHF
OTM,2017-04-01 22:05,-92.4446,41.1008,M,M,M,120.00,3.00,M,30.17,M,10.00,M,OVC,M,M,M,12000.00,M,M,M,M,KOTM 012205Z AUTO 12003KT 10SM OVC120 A3017 RMK MADISHF
OTM,2017-04-01 22:10,-92.4446,41.1008,M,M,M,130.00,3.00,M,30.17,M,10.00,M,OVC,M,M,M,12000.00,M,M,M,M,KOTM 012210Z AUTO 13003KT 10SM OVC120 A3017 RMK MADISHF
OTM,2017-04-01 22:15,-92.4446,41.1008,M,M,M,0.00,0.00,M,30.18,M,10.00,M,OVC,M,M,M,12000.00,M,M,M,M,KOTM 012215Z AUTO 00000KT 10SM OVC120 A3018 RMK MADISHF
OTM,2017-04-01 22:20,-92.4446,41.1008,M,M,M,140.00,3.00,M,30.18,M,10.00,M,OVC,M,M,M,12000.00,M,M,M,M,KOTM 012220Z AUTO 14003KT 10SM OVC120 A3018 RMK MADISHF
OTM,2017-04-01 22:25,-92.4446,41.1008,M,M,M,0.00,0.00,M,30.18,M,10.00,M,BKN,M,M,M,12000.00,M,M,M,M,KOTM 012225Z AUTO 00000KT 10SM BKN120 A3018 RMK MADISHF
OTM,2017-04-01 22:30,-92.4446,41.1008,M,M,M,0.00,0.00,M,30.18,M,10.00,M,BKN,M,M,M,12000.00,M,M,M,M,KOTM 012230Z AUTO 00000KT 10SM BKN120 A3018 RMK MADISHF
OTM,2017-04-01 22:35,-92.4446,41.1008,M,M,M,100.00,5.00,M,30.17,M,10.00,M,BKN,M,M,M,12000.00,M,M,M,M,KOTM 012235Z AUTO 10005KT 10SM BKN120 A3017 RMK MADISHF
OTM,2017-04-01 22:40,-92.4446,41.1008,M,M,M,100.00,4.00,M,30.17,M,10.00,M,BKN,M,M,M,12000.00,M,M,M,M,KOTM 012240Z AUTO 10004KT 10SM BKN120 A3017 RMK MADISHF
OTM,2017-04-01 22:45,-92.4446,41.1008,M,M,M,90.00,6.00,M,30.17,M,10.00,M,BKN,M,M,M,11000.00,M,M,M,M,KOTM 012245Z AUTO 09006KT 10SM BKN110 A3017 RMK MADISHF
OTM,2017-04-01 22:50,-92.4446,41.1008,M,M,M,90.00,5.00,M,30.17,M,10.00,M,BKN,M,M,M,11000.00,M,M,M,M,KOTM 012250Z AUTO 09005KT 10SM BKN110 A3017 RMK MADISHF
OTM,2017-04-01 22:53,-92.4446,41.1008,55.00,36.00,48.62,100.00,4.00,0.00,30.17,1022.00,10.00,M,BKN,M,M,M,11000.00,M,M,M,M,KOTM 012253Z AUTO 10004KT 10SM BKN110 13/02 A3017 RMK AO2 SLP220 T01280022
OTM,2017-04-01 22:55,-92.4446,41.1008,M,M,M,110.00,4.00,M,30.17,M,10.00,M,BKN,M,M,M,11000.00,M,M,M,M,KOTM 012255Z AUTO 11004KT 10SM BKN110 A3017 RMK MADISHF
OTM,2017-04-01 23:00,-92.4446,41.1008,M,M,M,80.00,6.00,M,30.17,M,10.00,M,BKN,M,M,M,11000.00,M,M,M,M,KOTM 012300Z AUTO 08006KT 10SM BKN110 A3017 RMK MADISHF
OTM,2017-04-01 23:05,-92.4446,41.1008,M,M,M,90.00,5.00,M,30.17,M,10.00,M,BKN,M,M,M,11000.00,M,M,M,M,KOTM 012305Z AUTO 09005KT 10SM BKN110 A3017 RMK MADISHF
OTM,2017-04-01 23:20,-92.4446,41.1008,M,M,M,110.00,5.00,M,30.17,M,10.00,M,BKN,M,M,M,11000.00,M,M,M,M,KOTM 012320Z AUTO 11005KT 10SM BKN110 A3017 RMK MADISHF
OTM,2017-04-01 23:25,-92.4446,41.1008,M,M,M,90.00,5.00,M,30.17,M,10.00,M,BKN,M,M,M,11000.00,M,M,M,M,KOTM 012325Z AUTO 09005KT 10SM BKN110 A3017 RMK MADISHF
OTM,2017-04-01 23:30,-92.4446,41.1008,M,M,M,100.00,4.00,M,30.17,M,10.00,M,BKN,M,M,M,11000.00,M,M,M,M,KOTM 012330Z AUTO 10004KT 10SM BKN110 A3017 RMK MADISHF
OTM,2017-04-01 23:35,-92.4446,41.1008,M,M,M,110.00,4.00,M,30.16,M,10.00,M,BKN,M,M,M,11000.00,M,M,M,M,KOTM 012335Z AUTO 11004KT 10SM BKN110 A3016 RMK MADISHF
OTM,2017-04-01 23:40,-92.4446,41.1008,M,M,M,120.00,4.00,M,30.16,M,10.00,M,SCT,BKN,M,M,10000.00,12000.00,M,M,M,KOTM 012340Z AUTO 12004KT 10SM SCT100 BKN120 A3016 RMK MADISHF
OTM,2017-04-01 23:50,-92.4446,41.1008,M,M,M,140.00,5.00,M,30.16,M,10.00,M,OVC,M,M,M,11000.00,M,M,M,M,KOTM 012350Z AUTO 14005KT 10SM OVC110 A3016 RMK MADISHF
OTM,2017-04-01 23:53,-92.4446,41.1008,53.10,39.00,58.64,140.00,4.00,0.00,30.16,1021.90,10.00,M,OVC,M,M,M,11000.00,M,M,M,M,KOTM 012353Z AUTO 14004KT 10SM OVC110 12/04 A3016 RMK AO2 SLP219 T01170039 10133 20117 58002
OTM,2017-04-01 23:55,-92.4446,41.1008,M,M,M,140.00,4.00,M,30.16,M,10.00,M,OVC,M,M,M,11000.00,M,M,M,M,KOTM 012355Z AUTO 14004KT 10SM OVC110 A3016 RMK MADISHF
