#DEBUG: Format Typ    -> comma
#DEBUG: Time Period   -> 2017-04-01 00:00:00+00:00 2017-04-02 00:00:00+00:00
#DEBUG: Time Zone     -> Etc/UTC
#DEBUG: Data Contact   -> daryl herzmann akrherz@iastate.edu 515-294-5978
#DEBUG: Entries Found -> -1
station,valid,lon,lat,tmpf, dwpf, relh, drct, sknt, p01i, alti, mslp, vsby, gust, skyc1, skyc2, skyc3, skyc4, skyl1, skyl2, skyl3, skyl4, presentwx, metar
OVS,2017-04-01 00:00,-90.6775,43.1561,M,M,M,220.00,3.00,M,30.02,M,10.00,M,CLR,M,M,M,M,M,M,M,M,KOVS 010000Z AUTO 22003KT 10SM CLR A3002 RMK MADISHF
OVS,2017-04-01 00:05,-90.6775,43.1561,M,M,M,230.00,4.00,M,30.02,M,10.00,M,CLR,M,M,M,M,M,M,M,M,KOVS 010005Z AUTO 23004KT 10SM CLR A3002 RMK MADISHF
OVS,2017-04-01 00:10,-90.6775,43.1561,M,M,M,220.00,4.00,M,30.02,M,10.00,M,CLR,M,M,M,M,M,M,M,M,KOVS 010010Z AUTO 22004KT 10SM CLR A3002 RMK MADISHF
OVS,2017-04-01 00:15,-90.6775,43.1561,M,M,M,220.00,6.00,M,30.02,M,10.00,M,CLR,M,M,M,M,M,M,M,M,KOVS 010015Z AUTO 22006KT 10SM CLR A3002 RMK MADISHF
OVS,2017-04-01 00:20,-90.6775,43.1561,M,M,M,230.00,5.00,M,30.02,M,10.00,M,CLR,M,M,M,M,M,M,M,M,KOVS 010020Z AUTO 23005KT 10SM CLR A3002 RMK MADISHF
OVS,2017-04-01 00:25,-90.6775,43.1561,M,M,M,220.00,5.00,M,30.03,M,10.00,M,CLR,M,M,M,M,M,M,M,M,KOVS 010025Z AUTO 22005KT 10SM CLR A3003 RMK MADISHF
OVS,2017-04-01 00:30,-90.6775,43.1561,M,M,M,220.00,5.00,M,30.03,M,10.00,M,CLR,M,M,M,M,M,M,M,M,KOVS 010030Z AUTO 22005KT 10SM CLR A3003 RMK MADISHF
OVS,2017-04-01 00:35,-90.6775,43.1561,M,M,M,210.00,4.00,M,30.02,M,10.00,M,CLR,M,M,M,M,M,M,M,M,KOVS 010035Z AUTO 21004KT 10SM CLR A3002 RMK MADISHF
OVS,2017-04-01 00:40,-90.6775,43.1561,M,M,M,200.00,4.00,M,30.02,M,10.00,M,CLR,M,M,M,M,M,M,M,M,KOVS 010040Z AUTO 20004KT 10SM CLR A3002 RMK MADISHF
OVS,2017-04-01 00:45,-90.6775,43.1561,M,M,M,220.00,4.00,M,30.03,M,10.00,M,CLR,M,M,M,M,M,M,M,M,KOVS 010045Z AUTO 22004KT 10SM CLR A3003 RMK MADISHF
OVS,2017-04-01 00:50,-90.6775,43.1561,M,M,M,190.00,4.00,M,30.02,M,10.00,M,CLR,M,M,M,M,M,M,M,M,KOVS 010050Z AUTO 19004KT 10SM CLR A3002 RMK MADISHF
OVS,2017-04-01 00:53,-90.6775,43.1561,45.00,34.00,65.13,190.00,3.00,0.00,30.02,1017.20,10.00,M,CLR,M,M,M,M,M,M,M,M,KOVS 010053Z AUTO 19003KT 10SM CLR 07/01 A3002 RMK AO2 SLP172 T00720011
OVS,2017-04-01 00:55,-90.6775,43.1561,M,M,M,190.00,3.00,M,30.02,M,10.00,M,CLR,M,M,M,M,M,M,M,M,KOVS 010055Z AUTO 19003KT 10SM CLR A3002 RMK MADISHF
OVS,2017-04-01 01:00,-90.6775,43.1561,M,M,M,0.00,0.00,M,30.02,M,10.00,M,CLR,M,M,M,M,M,M,M,M,KOVS 010100Z AUTO 00000KT 10SM CLR A3002 RMK MADISHF
OVS,2017-04-01 01:05,-90.6775,43.1561,M,M,M,0.00,0.00,M,30.02,M,10.00,M,CLR,M,M,M,M,M,M,M,M,KOVS 010105Z AUTO 00000KT 10SM CLR A3002 RMK MADISHF
OVS,2017-04-01 01:10,-90.6775,43.1561,M,M,M,0.00,0.00,M,30.03,M,6.00,M,CLR,M,M,M,M,M,M,M,HZ,KOVS 010110Z AUTO 00000KT 6SM HZ CLR A3003 RMK MADISHF
OVS,2017-04-01 01:15,-90.6775,43.1561,M,M,M,260.00,3.00,M,30.04,M,6.00,M,CLR,M,M,M,M,M,M,M,HZ,KOVS 010115Z AUTO 26003KT 6SM HZ CLR A3004 RMK MADISHF
OVS,2017-04-01 01:20,-90.6775,43.1561,M,M,M,0.00,0.00,M,30.04,M,10.00,M,CLR,M,M,M,M,M,M,M,M,KOVS 010120Z AUTO 00000KT 10SM CLR A3004 RMK MADISHF
OVS,2017-04-01 01:25,-90.6775,43.1561,M,M,M,220.00,3.00,M,30.04,M,10.00,M,CLR,M,M,M,M,M,M,M,M,KOVS 010125Z AUTO 22003KT 10SM CLR A3004 RMK MADISHF
OVS,2017-04-01 01:30,-90.6775,43.1561,M,M,M,0.00,0.00,M,30.03,M,10.00,M,CLR,M,M,M,M,M,M,M,M,KOVS 010130Z AUTO 00000KT 10SM CLR A3003 RMK MADISHF
OVS,2017-04-01 01:35,-90.6775,43.1561,M,M,M,170.00,3.00,M,30.03,M,10.00,M,CLR,M,M,M,M,M,M,M,M,KOVS 010135Z AUTO 17003KT 10SM CLR A3003 RMK MADISHF
OVS,2017-04-01 01:40,-90.6775,43.1561,M,M,M,0.00,0.00,M,30.03,M,9.00,M,CLR,M,M,M,M,M,M,M,M,KOVS 010140Z AUTO 00000KT 9SM CLR A3003 RMK MADISHF
OVS,2017-04-01 01:45,-90.6775,43.1561,M,M,M,0.00,0.00,M,30.04,M,6.00,M,CLR,M,M,M,M,M,M,M,HZ,KOVS 010145Z AUTO 00000KT 6SM HZ CLR A3004 RMK MADISHF
OVS,2017-04-01 01:50,-90.6775,43.1561,M,M,M,220.00,3.00,M,30.04,M,5.00,M,CLR,M,M,M,M,M,M,M,HZ,KOVS 010150Z AUTO 22003KT 5SM HZ CLR A3004 RMK MADISHF
OVS,2017-04-01 01:53,-90.6775,43.1561,39.90,34.00,79.25,210.00,4.00,0.00,30.04,1017.90,5.00,M,CLR,M,M,M,M,M,M,M,HZ,KOVS 010153Z AUTO 21004KT 5SM HZ CLR 04/01 A3004 RMK AO2 SLP179 T00440011
OVS,2017-04-01 01:55,-90.6775,43.1561,M,M,M,230.00,3.00,M,30.04,M,7.00,M,CLR,M,M,M,M,M,M,M,M,KOVS 010155Z AUTO 23003KT 7SM CLR A3004 RMK MADISHF
OVS,2017-04-01 02:00,-90.6775,43.1561,M,M,M,0.00,0.00,M,30.04,M,10.00,M,CLR,M,M,M,M,M,M,M,M,KOVS 010200Z AUTO 00000KT 10SM CLR A3004 RMK MADISHF
OVS,2017-04-01 02:05,-90.6775,43.1561,M,M,M,0.00,0.00,M,30.05,M,10.00,M,CLR,M,M,M,M,M,M,M,M,KOVS 010205Z AUTO 00000KT 10SM CLR A3005 RMK MADISHF
OVS,2017-04-01 02:10,-90.6775,43.1561,M,M,M,200.00,3.00,M,30.05,M,10.00,M,CLR,M,M,M,M,M,M,M,M,KOVS 010210Z AUTO 20003KT 10SM CLR A3005 RMK MADISHF
OVS,2017-04-01 02:15,-90.6775,43.1561,M,M,M,220.00,3.00,M,30.05,M,10.00,M,CLR,M,M,M,M,M,M,M,M,KOVS 010215Z AUTO 22003KT 10SM CLR A3005 RMK MADISHF
OVS,2017-04-01 02:20,-90.6775,43.1561,M,M,M,0.00,0.00,M,30.05,M,10.00,M,CLR,M,M,M,M,M,M,M,M,KOVS 010220Z AUTO 00000KT 10SM CLR A3005 RMK MADISHF
OVS,2017-04-01 02:25,-90.6775,43.1561,M,M,M,240.00,3.00,M,30.06,M,10.00,M,CLR,M,M,M,M,M,M,M,M,KOVS 010225Z AUTO 24003KT 10SM CLR A3006 RMK MADISHF
OVS,2017-04-01 02:30,-90.6775,43.1561,M,M,M,0.00,0.00,M,30.05,M,10.00,M,CLR,M,M,M,M,M,M,M,M,KOVS 010230Z AUTO 00000KT 10SM CLR A3005 RMK MADISHF
OVS,2017-04-01 02:35,-90.6775,43.1561,M,M,M,0.00,0.00,M,30.05,M,10.00,M,CLR,M,M,M,M,M,M,M,M,KOVS 010235Z AUTO 00000KT 10SM CLR A3005 RMK MADISHF
OVS,2017-04-01 02:40,-90.6775,43.1561,M,M,M,0.00,0.00,M,30.05,M,8.00,M,CLR,M,M,M,M,M,M,M,M,KOVS 010240Z AUTO 00000KT 8SM CLR A3005 RMK MADISHF
OVS,2017-04-01 02:45,-90.6775,43.1561,M,M,M,200.00,3.00,M,30.06,M,8.00,M,CLR,M,M,M,M,M,M,M,M,KOVS 010245Z AUTO 20003KT 8SM CLR A3006 RMK MADISHF
OVS,2017-04-01 02:50,-90.6775,43.1561,M,M,M,230.00,3.00,M,30.06,M,10.00,M,CLR,M,M,M,M,M,M,M,M,KOVS 010250Z AUTO 23003KT 10SM CLR A3006 RMK MADISHF
OVS,2017-04-01 02:53,-90.6775,43.1561,37.90,34.00,85.69,230.00,3.00,0.00,30.06,1018.60,10.00,M,CLR,M,M,M,M,M,M,M,M,KOVS 010253Z AUTO 23003KT 10SM CLR 03/01 A3006 RMK AO2 SLP186 T00330011 53014
OVS,2017-04-01 02:55,-90.6775,43.1561,M,M,M,0.00,0.00,M,30.06,M,10.00,M,CLR,M,M,M,M,M,M,M,M,KOVS 010255Z AUTO 00000KT 10SM CLR A3006 RMK MADISHF
OVS,2017-04-01 03:00,-90.6775,43.1561,M,M,M,0.00,0.00,M,30.06,M,10.00,M,CLR,M,M,M,M,M,M,M,M,KOVS 010300Z AUTO 00000KT 10SM CLR A3006 RMK MADISHF
OVS,2017-04-01 03:05,-90.6775,43.1561,M,M,M,0.00,0.00,M,30.07,M,10.00,M,CLR,M,M,M,M,M,M,M,M,KOVS 010305Z AUTO 00000KT 10SM CLR A3007 RMK MADISHF
OVS,2017-04-01 03:10,-90.6775,43.1561,M,M,M,0.00,0.00,M,30.07,M,10.00,M,CLR,M,M,M,M,M,M,M,M,KOVS 010310Z AUTO 00000KT 10SM CLR A3007 RMK MADISHF
OVS,2017-04-01 03:15,-90.6775,43.1561,M,M,M,0.00,0.00,M,30.07,M,10.00,M,CLR,M,M,M,M,M,M,M,M,KOVS 010315Z AUTO 00000KT 10SM CLR A3007 RMK MADISHF
OVS,2017-04-01 03:20,-90.6775,43.1561,M,M,M,0.00,0.00,M,30.07,M,10.00,M,CLR,M,M,M,M,M,M,M,M,KOVS 010320Z AUTO 00000KT 10SM CLR A3007 RMK MADISHF
OVS,2017-04-01 03:25,-90.6775,43.1561,M,M,M,0.00,0.00,M,30.08,M,10.00,M,CLR,M,M,M,M,M,M,M,M,KOVS 010325Z AUTO 00000KT 10SM CLR A3008 RMK MADISHF
OVS,2017-04-01 03:30,-90.6775,43.1561,M,M,M,230.00,3.00,M,30.08,M,10.00,M,CLR,M,M,M,M,M,M,M,M,KOVS 010330Z AUTO 23003KT 10SM CLR A3008 RMK MADISHF
OVS,2017-04-01 03:35,-90.6775,43.1561,M,M,M,220.00,3.00,M,30.08,M,10.00,M,CLR,M,M,M,M,M,M,M,M,KOVS 010335Z AUTO 22003KT 10SM CLR A3008 RMK MADISHF
OVS,2017-04-01 03:40,-90.6775,43.1561,M,M,M,210.00,3.00,M,30.08,M,10.00,M,CLR,M,M,M,M,M,M,M,M,KOVS 010340Z AUTO 21003KT 10SM CLR A3008 RMK MADISHF
OVS,2017-04-01 03:45,-90.6775,43.1561,M,M,M,200.00,4.00,M,30.08,M,10.00,M,CLR,M,M,M,M,M,M,M,M,KOVS 010345Z AUTO 20004KT 10SM CLR A3008 RMK MADISHF
OVS,2017-04-01 03:50,-90.6775,43.1561,M,M,M,200.00,4.00,M,30.08,M,10.00,M,CLR,M,M,M,M,M,M,M,M,KOVS 010350Z AUTO 20004KT 10SM CLR A3008 RMK MADISHF
OVS,2017-04-01 03:53,-90.6775,43.1561,37.00,33.10,85.64,200.00,4.00,0.00,30.08,1019.40,10.00,M,CLR,M,M,M,M,M,M,M,M,KOVS 010353Z AUTO 20004KT 10SM CLR 03/01 A3008 RMK AO2 SLP194 T00280006
OVS,2017-04-01 03:55,-90.6775,43.1561,M,M,M,200.00,4.00,M,30.08,M,10.00,M,CLR,M,M,M,M,M,M,M,M,KOVS 010355Z AUTO 20004KT 10SM CLR A3008 RMK MADISHF
OVS,2017-04-01 04:00,-90.6775,43.1561,M,M,M,220.00,4.00,M,30.09,M,10.00,M,CLR,M,M,M,M,M,M,M,M,KOVS 010400Z AUTO 22004KT 10SM CLR A3009 RMK MADISHF
OVS,2017-04-01 04:05,-90.6775,43.1561,M,M,M,230.00,3.00,M,30.09,M,10.00,M,CLR,M,M,M,M,M,M,M,M,KOVS 010405Z AUTO 23003KT 10SM CLR A3009 RMK MADISHF
OVS,2017-04-01 04:10,-90.6775,43.1561,M,M,M,230.00,3.00,M,30.09,M,10.00,M,CLR,M,M,M,M,M,M,M,M,KOVS 010410Z AUTO 23003KT 10SM CLR A3009 RMK MADISHF
OVS,2017-04-01 04:15,-90.6775,43.1561,M,M,M,210.00,3.00,M,30.09,M,10.00,M,CLR,M,M,M,M,M,M,M,M,KOVS 010415Z AUTO 21003KT 10SM CLR A3009 RMK MADISHF
OVS,2017-04-01 04:20,-90.6775,43.1561,M,M,M,200.00,4.00,M,30.09,M,10.00,M,CLR,M,M,M,M,M,M,M,M,KOVS 010420Z AUTO 20004KT 10SM CLR A3009 RMK MADISHF
OVS,2017-04-01 04:25,-90.6775,43.1561,M,M,M,200.00,4.00,M,30.09,M,10.00,M,CLR,M,M,M,M,M,M,M,M,KOVS 010425Z AUTO 20004KT 10SM CLR A3009 RMK MADISHF
OVS,2017-04-01 04:30,-90.6775,43.1561,M,M,M,200.00,4.00,M,30.10,M,10.00,M,CLR,M,M,M,M,M,M,M,M,KOVS 010430Z AUTO 20004KT 10SM CLR A3010 RMK MADISHF
OVS,2017-04-01 04:35,-90.6775,43.1561,M,M,M,210.00,4.00,M,30.10,M,10.00,M,CLR,M,M,M,M,M,M,M,M,KOVS 010435Z AUTO 21004KT 10SM CLR A3010 RMK MADISHF
OVS,2017-04-01 04:40,-90.6775,43.1561,M,M,M,210.00,5.00,M,30.10,M,10.00,M,CLR,M,M,M,M,M,M,M,M,KOVS 010440Z AUTO 21005KT 10SM CLR A3010 RMK MADISHF
OVS,2017-04-01 04:45,-90.6775,43.1561,M,M,M,210.00,5.00,M,30.10,M,10.00,M,CLR,M,M,M,M,M,M,M,M,KOVS 010445Z AUTO 21005KT 10SM CLR A3010 RMK MADISHF
OVS,2017-04-01 04:50,-90.6775,43.1561,M,M,M,200.00,4.00,M,30.10,M,10.00,M,CLR,M,M,M,M,M,M,M,M,KOVS 010450Z AUTO 20004KT 10SM CLR A3010 RMK MADISHF
OVS,2017-04-01 04:53,-90.6775,43.1561,37.00,33.10,85.64,200.00,4.00,0.00,30.10,1020.00,10.00,M,CLR,M,M,M,M,M,M,M,M,KOVS 010453Z AUTO 20004KT 10SM CLR 03/01 A3010 RMK AO2 SLP200 T00280006
OVS,2017-04-01 04:55,-90.6775,43.1561,M,M,M,200.00,4.00,M,30.10,M,10.00,M,CLR,M,M,M,M,M,M,M,M,KOVS 010455Z AUTO 20004KT 10SM CLR A3010 RMK MADISHF
OVS,2017-04-01 05:00,-90.6775,43.1561,M,M,M,200.00,4.00,M,30.10,M,10.00,M,CLR,M,M,M,M,M,M,M,M,KOVS 010500Z AUTO 20004KT 10SM CLR A3010 RMK MADISHF
OVS,2017-04-01 05:05,-90.6775,43.1561,M,M,M,210.00,4.00,M,30.10,M,10.00,M,CLR,M,M,M,M,M,M,M,M,KOVS 010505Z AUTO 21004KT 10SM CLR A3010 RMK MADISHF
OVS,2017-04-01 05:10,-90.6775,43.1561,M,M,M,210.00,3.00,M,30.11,M,10.00,M,CLR,M,M,M,M,M,M,M,M,KOVS 010510Z AUTO 21003KT 10SM CLR A3011 RMK MADISHF
OVS,2017-04-01 05:15,-90.6775,43.1561,M,M,M,210.00,3.00,M,30.11,M,10.00,M,CLR,M,M,M,M,M,M,M,M,KOVS 010515Z AUTO 21003KT 10SM CLR A3011 RMK MADISHF
OVS,2017-04-01 05:20,-90.6775,43.1561,M,M,M,230.00,3.00,M,30.11,M,10.00,M,CLR,M,M,M,M,M,M,M,M,KOVS 010520Z AUTO 23003KT 10SM CLR A3011 RMK MADISHF
OVS,2017-04-01 05:25,-90.6775,43.1561,M,M,M,0.00,0.00,M,30.11,M,10.00,M,CLR,M,M,M,M,M,M,M,M,KOVS 010525Z AUTO 00000KT 10SM CLR A3011 RMK MADISHF
OVS,2017-04-01 05:30,-90.6775,43.1561,M,M,M,0.00,0.00,M,30.11,M,10.00,M,CLR,M,M,M,M,M,M,M,M,KOVS 010530Z AUTO 00000KT 10SM CLR A3011 RMK MADISHF
OVS,2017-04-01 05:35,-90.6775,43.1561,M,M,M,230.00,3.00,M,30.11,M,10.00,M,CLR,M,M,M,M,M,M,M,M,KOVS 010535Z AUTO 23003KT 10SM CLR A3011 RMK MADISHF
OVS,2017-04-01 05:40,-90.6775,43.1561,M,M,M,220.00,3.00,M,30.11,M,10.00,M,CLR,M,M,M,M,M,M,M,M,KOVS 010540Z AUTO 22003KT 10SM CLR A3011 RMK MADISHF
OVS,2017-04-01 05:45,-90.6775,43.1561,M,M,M,0.00,0.00,M,30.11,M,10.00,M,CLR,M,M,M,M,M,M,M,M,KOVS 010545Z AUTO 00000KT 10SM CLR A3011 RMK MADISHF
OVS,2017-04-01 05:50,-90.6775,43.1561,M,M,M,0.00,0.00,M,30.11,M,10.00,M,CLR,M,M,M,M,M,M,M,M,KOVS 010550Z AUTO 00000KT 10SM CLR A3011 RMK MADISHF
OVS,2017-04-01 05:53,-90.6775,43.1561,34.00,32.00,92.29,0.00,0.00,0.00,30.11,1020.40,10.00,M,CLR,M,M,M,M,M,M,M,M,KOVS 010553Z AUTO 00000KT 10SM CLR 01/00 A3011 RMK AO2 SLP204 T00110000 10100 20011 401110011 51018
OVS,2017-04-01 05:55,-90.6775,43.1561,M,M,M,0.00,0.00,M,30.11,M,10.00,M,CLR,M,M,M,M,M,M,M,M,KOVS 010555Z AUTO 00000KT 10SM CLR A3011 RMK MADISHF
OVS,2017-04-01 06:00,-90.6775,43.1561,M,M,M,0.00,0.00,M,30.12,M,10.00,M,CLR,M,M,M,M,M,M,M,M,KOVS 010600Z AUTO 00000KT 10SM CLR A3012 RMK MADISHF
OVS,2017-04-01 06:05,-90.6775,43.1561,M,M,M,0.00,0.00,M,30.12,M,10.00,M,CLR,M,M,M,M,M,M,M,M,KOVS 010605Z AUTO 00000KT 10SM CLR A3012 RMK MADISHF
OVS,2017-04-01 06:10,-90.6775,43.1561,M,M,M,0.00,0.00,M,30.12,M,9.00,M,CLR,M,M,M,M,M,M,M,M,KOVS 010610Z AUTO 00000KT 9SM CLR A3012 RMK MADISHF
OVS,2017-04-01 06:15,-90.6775,43.1561,M,M,M,0.00,0.00,M,30.12,M,8.00,M,CLR,M,M,M,M,M,M,M,M,KOVS 010615Z AUTO 00000KT 8SM CLR A3012 RMK MADISHF
OVS,2017-04-01 06:20,-90.6775,43.1561,M,M,M,0.00,0.00,M,30.12,M,4.00,M,CLR,M,M,M,M,M,M,M,BR,KOVS 010620Z AUTO 00000KT 4SM BR CLR A3012 RMK MADISHF
OVS,2017-04-01 06:25,-90.6775,43.1561,M,M,M,0.00,0.00,M,30.12,M,3.50,M,CLR,M,M,M,M,M,M,M,BR,KOVS 010625Z AUTO 00000KT 3SM BR CLR A3012 RMK MADISHF
OVS,2017-04-01 06:30,-90.6775,43.1561,M,M,M,0.00,0.00,M,30.12,M,6.00,M,CLR,M,M,M,M,M,M,M,BR,KOVS 010630Z AUTO 00000KT 6SM BR CLR A3012 RMK MADISHF
OVS,2017-04-01 06:35,-90.6775,43.1561,M,M,M,0.00,0.00,M,30.12,M,9.00,M,CLR,M,M,M,M,M,M,M,M,KOVS 010635Z AUTO 00000KT 9SM CLR A3012 RMK MADISHF
OVS,2017-04-01 06:40,-90.6775,43.1561,M,M,M,240.00,3.00,M,30.12,M,9.00,M,CLR,M,M,M,M,M,M,M,M,KOVS 010640Z AUTO 24003KT 9SM CLR A3012 RMK MADISHF
OVS,2017-04-01 06:45,-90.6775,43.1561,M,M,M,0.00,0.00,M,30.13,M,6.00,M,CLR,M,M,M,M,M,M,M,BR,KOVS 010645Z AUTO 00000KT 6SM BR CLR A3013 RMK MADISHF
OVS,2017-04-01 06:50,-90.6775,43.1561,M,M,M,0.00,0.00,M,30.13,M,4.00,M,CLR,M,M,M,M,M,M,M,BR,KOVS 010650Z AUTO 00000KT 4SM BR CLR A3013 RMK MADISHF
OVS,2017-04-01 06:53,-90.6775,43.1561,33.10,30.00,88.23,0.00,0.00,0.00,30.13,1020.90,4.00,M,CLR,M,M,M,M,M,M,M,BR,KOVS 010653Z AUTO 00000KT 4SM BR CLR 01/M01 A3013 RMK AO2 SLP209 T00061011
OVS,2017-04-01 06:55,-90.6775,43.1561,M,M,M,0.00,0.00,M,30.13,M,3.50,M,CLR,M,M,M,M,M,M,M,BR,KOVS 010655Z AUTO 00000KT 3SM BR CLR A3013 RMK MADISHF
OVS,2017-04-01 07:00,-90.6775,43.1561,M,M,M,240.00,3.00,M,30.13,M,2.50,M,CLR,M,M,M,M,M,M,M,BR,KOVS 010700Z AUTO 24003KT 2 1/2SM BR CLR A3013 RMK MADISHF
OVS,2017-04-01 07:05,-90.6775,43.1561,M,M,M,240.00,3.00,M,30.13,M,2.50,M,CLR,M,M,M,M,M,M,M,BR,KOVS 010705Z AUTO 24003KT 2 1/2SM BR CLR A3013 RMK MADISHF
OVS,2017-04-01 07:06,-90.6775,43.1561,32.00,30.90,95.65,240.00,3.00,0.00,30.13,M,2.50,M,CLR,M,M,M,M,M,M,M,BR,KOVS 010706Z AUTO 24003KT 2 1/2SM BR CLR 00/M01 A3013 RMK AO2 T00001006
OVS,2017-04-01 07:10,-90.6775,43.1561,M,M,M,220.00,3.00,M,30.13,M,4.00,M,CLR,M,M,M,M,M,M,M,BR,KOVS 010710Z AUTO 22003KT 4SM BR CLR A3013 RMK MADISHF
OVS,2017-04-01 07:13,-90.6775,43.1561,33.10,30.90,91.51,220.00,3.00,0.00,30.13,M,6.00,M,CLR,M,M,M,M,M,M,M,BR,KOVS 010713Z AUTO 22003KT 6SM BR CLR 01/M01 A3013 RMK AO2 T00061006
OVS,2017-04-01 07:15,-90.6775,43.1561,M,M,M,210.00,4.00,M,30.13,M,7.00,M,CLR,M,M,M,M,M,M,M,M,KOVS 010715Z AUTO 21004KT 7SM CLR A3013 RMK MADISHF
OVS,2017-04-01 07:20,-90.6775,43.1561,M,M,M,210.00,3.00,M,30.13,M,10.00,M,CLR,M,M,M,M,M,M,M,M,KOVS 010720Z AUTO 21003KT 10SM CLR A3013 RMK MADISHF
OVS,2017-04-01 07:25,-90.6775,43.1561,M,M,M,200.00,3.00,M,30.13,M,10.00,M,CLR,M,M,M,M,M,M,M,M,KOVS 010725Z AUTO 20003KT 10SM CLR A3013 RMK MADISHF
OVS,2017-04-01 07:30,-90.6775,43.1561,M,M,M,0.00,0.00,M,30.13,M,10.00,M,CLR,M,M,M,M,M,M,M,M,KOVS 010730Z AUTO 00000KT 10SM CLR A3013 RMK MADISHF
OVS,2017-04-01 07:35,-90.6775,43.1561,M,M,M,0.00,0.00,M,30.13,M,9.00,M,CLR,M,M,M,M,M,M,M,M,KOVS 010735Z AUTO 00000KT 9SM CLR A3013 RMK MADISHF
OVS,2017-04-01 07:40,-90.6775,43.1561,M,M,M,0.00,0.00,M,30.13,M,7.00,M,CLR,M,M,M,M,M,M,M,M,KOVS 010740Z AUTO 00000KT 7SM CLR A3013 RMK MADISHF
OVS,2017-04-01 07:45,-90.6775,43.1561,M,M,M,0.00,0.00,M,30.13,M,6.00,M,CLR,M,M,M,M,M,M,M,BR,KOVS 010745Z AUTO 00000KT 6SM BR CLR A3013 RMK MADISHF
OVS,2017-04-01 07:50,-90.6775,43.1561,M,M,M,0.00,0.00,M,30.13,M,5.00,M,CLR,M,M,M,M,M,M,M,BR,KOVS 010750Z AUTO 00000KT 5SM BR CLR A3013 RMK MADISHF
OVS,2017-04-01 07:53,-90.6775,43.1561,30.00,28.90,95.61,0.00,0.00,0.00,30.13,1021.10,5.00,M,CLR,M,M,M,M,M,M,M,BR,KOVS 010753Z AUTO 00000KT 5SM BR CLR M01/M02 A3013 RMK AO2 SLP211 T10111017
OVS,2017-04-01 07:55,-90.6775,43.1561,M,M,M,0.00,0.00,M,30.14,M,5.00,M,CLR,M,M,M,M,M,M,M,BR,KOVS 010755Z AUTO 00000KT 5SM BR CLR A3014 RMK MADISHF
OVS,2017-04-01 08:00,-90.6775,43.1561,M,M,M,0.00,0.00,M,30.14,M,7.00,M,CLR,M,M,M,M,M,M,M,M,KOVS 010800Z AUTO 00000KT 7SM CLR A3014 RMK MADISHF
OVS,2017-04-01 08:05,-90.6775,43.1561,M,M,M,0.00,0.00,M,30.14,M,8.00,M,CLR,M,M,M,M,M,M,M,M,KOVS 010805Z AUTO 00000KT 8SM CLR A3014 RMK MADISHF
OVS,2017-04-01 08:10,-90.6775,43.1561,M,M,M,0.00,0.00,M,30.14,M,6.00,M,CLR,M,M,M,M,M,M,M,BR,KOVS 010810Z AUTO 00000KT 6SM BR CLR A3014 RMK MADISHF
OVS,2017-04-01 08:15,-90.6775,43.1561,M,M,M,0.00,0.00,M,30.14,M,4.00,M,CLR,M,M,M,M,M,M,M,BR,KOVS 010815Z AUTO 00000KT 4SM BR CLR A3014 RMK MADISHF
OVS,2017-04-01 08:20,-90.6775,43.1561,M,M,M,0.00,0.00,M,30.14,M,3.00,M,CLR,M,M,M,M,M,M,M,BR,KOVS 010820Z AUTO 00000KT 3SM BR CLR A3014 RMK MADISHF
OVS,2017-04-01 08:25,-90.6775,43.1561,M,M,M,0.00,0.00,M,30.14,M,3.00,M,CLR,M,M,M,M,M,M,M,BR,KOVS 010825Z AUTO 00000KT 3SM BR CLR A3014 RMK MADISHF
OVS,2017-04-01 08:30,-90.6775,43.1561,M,M,M,0.00,0.00,M,30.14,M,4.00,M,CLR,M,M,M,M,M,M,M,BR,KOVS 010830Z AUTO 00000KT 4SM BR CLR A3014 RMK MADISHF
OVS,2017-04-01 08:35,-90.6775,43.1561,M,M,M,0.00,0.00,M,30.14,M,4.00,M,CLR,M,M,M,M,M,M,M,BR,KOVS 010835Z AUTO 00000KT 4SM BR CLR A3014 RMK MADISHF
OVS,2017-04-01 08:40,-90.6775,43.1561,M,M,M,0.00,0.00,M,30.14,M,4.00,M,CLR,M,M,M,M,M,M,M,BR,KOVS 010840Z AUTO 00000KT 4SM BR CLR A3014 RMK MADISHF
OVS,2017-04-01 08:45,-90.6775,43.1561,M,M,M,0.00,0.00,M,30.14,M,4.00,M,CLR,M,M,M,M,M,M,M,BR,KOVS 010845Z AUTO 00000KT 4SM BR CLR A3014 RMK MADISHF
OVS,2017-04-01 08:50,-90.6775,43.1561,M,M,M,0.00,0.00,M,30.14,M,4.00,M,CLR,M,M,M,M,M,M,M,BR,KOVS 010850Z AUTO 00000KT 4SM BR CLR A3014 RMK MADISHF
OVS,2017-04-01 08:53,-90.6775,43.1561,30.00,27.00,88.44,0.00,0.00,0.00,30.15,1021.50,4.00,M,CLR,M,M,M,M,M,M,M,BR,KOVS 010853Z AUTO 00000KT 4SM BR CLR M01/M03 A3015 RMK AO2 SLP215 T10111028 51010
OVS,2017-04-01 08:55,-90.6775,43.1561,M,M,M,0.00,0.00,M,30.15,M,4.00,M,CLR,M,M,M,M,M,M,M,BR,KOVS 010855Z AUTO 00000KT 4SM BR CLR A3015 RMK MADISHF
OVS,2017-04-01 09:00,-90.6775,43.1561,M,M,M,0.00,0.00,M,30.15,M,4.00,M,CLR,M,M,M,M,M,M,M,BR,KOVS 010900Z AUTO 00000KT 4SM BR CLR A3015 RMK MADISHF
OVS,2017-04-01 09:05,-90.6775,43.1561,M,M,M,0.00,0.00,M,30.15,M,2.50,M,CLR,M,M,M,M,M,M,M,BR,KOVS 010905Z AUTO 00000KT 2 1/2SM BR CLR A3015 RMK MADISHF
OVS,2017-04-01 09:10,-90.6775,43.1561,M,M,M,0.00,0.00,M,30.16,M,2.50,M,CLR,M,M,M,M,M,M,M,BR,KOVS 010910Z AUTO 00000KT 2 1/2SM BR CLR A3016 RMK MADISHF
OVS,2017-04-01 09:11,-90.6775,43.1561,30.00,28.90,95.61,0.00,0.00,0.00,30.16,M,2.50,M,CLR,M,M,M,M,M,M,M,BR,KOVS 010911Z AUTO 00000KT 2 1/2SM BR CLR M01/M02 A3016 RMK AO2 T10111017
OVS,2017-04-01 09:15,-90.6775,43.1561,M,M,M,0.00,0.00,M,30.15,M,3.00,M,CLR,M,M,M,M,M,M,M,BR,KOVS 010915Z AUTO 00000KT 3SM BR CLR A3015 RMK MADISHF
OVS,2017-04-01 09:19,-90.6775,43.1561,30.00,28.90,95.61,0.00,0.00,0.00,30.15,M,3.00,M,CLR,M,M,M,M,M,M,M,BR,KOVS 010919Z AUTO 00000KT 3SM BR CLR M01/M02 A3015 RMK AO2 T10111017
OVS,2017-04-01 09:20,-90.6775,43.1561,M,M,M,0.00,0.00,M,30.15,M,4.00,M,CLR,M,M,M,M,M,M,M,BR,KOVS 010920Z AUTO 00000KT 4SM BR CLR A3015 RMK MADISHF
OVS,2017-04-01 09:25,-90.6775,43.1561,M,M,M,0.00,0.00,M,30.15,M,4.00,M,CLR,M,M,M,M,M,M,M,BR,KOVS 010925Z AUTO 00000KT 4SM BR CLR A3015 RMK MADISHF
OVS,2017-04-01 09:30,-90.6775,43.1561,M,M,M,0.00,0.00,M,30.16,M,5.00,M,CLR,M,M,M,M,M,M,M,BR,KOVS 010930Z AUTO 00000KT 5SM BR CLR A3016 RMK MADISHF
OVS,2017-04-01 09:35,-90.6775,43.1561,M,M,M,0.00,0.00,M,30.16,M,6.00,M,CLR,M,M,M,M,M,M,M,BR,KOVS 010935Z AUTO 00000KT 6SM BR CLR A3016 RMK MADISHF
OVS,2017-04-01 09:40,-90.6775,43.1561,M,M,M,0.00,0.00,M,30.16,M,5.00,M,CLR,M,M,M,M,M,M,M,BR,KOVS 010940Z AUTO 00000KT 5SM BR CLR A3016 RMK MADISHF
OVS,2017-04-01 09:45,-90.6775,43.1561,M,M,M,0.00,0.00,M,30.16,M,5.00,M,CLR,M,M,M,M,M,M,M,BR,KOVS 010945Z AUTO 00000KT 5SM BR CLR A3016 RMK MADISHF
OVS,2017-04-01 09:50,-90.6775,43.1561,30.20,28.40,92.92,0.00,0.00,0.00,30.16,M,1.50,M,CLR,M,M,M,M,M,M,M,BR,KOVS 010950Z AUTO 00000KT 1 1/2SM BR CLR M01/M02 A3016 RMK AO2
OVS,2017-04-01 09:53,-90.6775,43.1561,30.00,27.00,88.44,0.00,0.00,0.00,30.16,1021.90,1.00,M,CLR,M,M,M,M,M,M,M,BR,KOVS 010953Z AUTO 00000KT 1SM BR CLR M01/M03 A3016 RMK AO2 SLP219 T10111028
OVS,2017-04-01 09:55,-90.6775,43.1561,M,M,M,0.00,0.00,M,30.16,M,1.00,M,CLR,M,M,M,M,M,M,M,BR,KOVS 010955Z AUTO 00000KT 1SM BR CLR A3016 RMK MADISHF
OVS,2017-04-01 10:00,-90.6775,43.1561,M,M,M,0.00,0.00,M,30.16,M,1.25,M,CLR,M,M,M,M,M,M,M,BR,KOVS 011000Z AUTO 00000KT 1 1/2SM BR CLR A3016 RMK MADISHF
OVS,2017-04-01 10:05,-90.6775,43.1561,M,M,M,0.00,0.00,M,30.16,M,1.25,M,CLR,M,M,M,M,M,M,M,BR,KOVS 011005Z AUTO 00000KT 1 1/2SM BR CLR A3016 RMK MADISHF
OVS,2017-04-01 10:06,-90.6775,43.1561,30.00,27.00,88.44,0.00,0.00,0.00,30.16,M,1.25,M,CLR,M,M,M,M,M,M,M,BR,KOVS 011006Z AUTO 00000KT 1 1/4SM BR CLR M01/M03 A3016 RMK AO2 I1000 T10111028
OVS,2017-04-01 10:10,-90.6775,43.1561,M,M,M,0.00,0.00,M,30.16,M,1.75,M,CLR,M,M,M,M,M,M,M,BR,KOVS 011010Z AUTO 00000KT 2SM BR CLR A3016 RMK MADISHF
OVS,2017-04-01 10:15,-90.6775,43.1561,M,M,M,0.00,0.00,M,30.15,M,1.25,M,CLR,M,M,M,M,M,M,M,BR,KOVS 011015Z AUTO 00000KT 1 1/2SM BR CLR A3015 RMK MADISHF
OVS,2017-04-01 10:20,-90.6775,43.1561,M,M,M,0.00,0.00,M,30.16,M,1.00,M,CLR,M,M,M,M,M,M,M,BR,KOVS 011020Z AUTO 00000KT 1SM BR CLR A3016 RMK MADISHF
OVS,2017-04-01 10:21,-90.6775,43.1561,28.90,27.00,92.49,0.00,0.00,0.00,30.16,M,0.75,M,CLR,M,M,M,M,M,M,M,BR,KOVS 011021Z AUTO 00000KT 3/4SM BR CLR M02/M03 A3016 RMK AO2 I1000 T10171028
OVS,2017-04-01 10:25,-90.6775,43.1561,M,M,M,0.00,0.00,M,30.16,M,0.50,M,CLR,M,M,M,M,M,M,M,FZFG,KOVS 011025Z AUTO 00000KT 1/2SM FZFG CLR A3016 RMK MADISHF
OVS,2017-04-01 10:30,-90.6775,43.1561,M,M,M,0.00,0.00,M,30.15,M,0.50,M,CLR,M,M,M,M,M,M,M,FZFG,KOVS 011030Z AUTO 00000KT 1/2SM FZFG CLR A3015 RMK MADISHF
OVS,2017-04-01 10:35,-90.6775,43.1561,M,M,M,0.00,0.00,M,30.16,M,0.75,M,VV ,M,M,M,200.00,M,M,M,BR,KOVS 011035Z AUTO 00000KT 1SM BR VV002 A3016 RMK MADISHF
OVS,2017-04-01 10:40,-90.6775,43.1561,M,M,M,0.00,0.00,M,30.16,M,0.75,M,VV ,M,M,M,100.00,M,M,M,BR,KOVS 011040Z AUTO 00000KT 1SM BR VV001 A3016 RMK MADISHF
OVS,2017-04-01 10:41,-90.6775,43.1561,28.90,27.00,92.49,0.00,0.00,0.00,30.16,M,0.75,M,VV ,M,M,M,100.00,M,M,M,BR,KOVS 011041Z AUTO 00000KT 3/4SM BR VV001 M02/M03 A3016 RMK AO2 I1001 T10171028
OVS,2017-04-01 10:45,-90.6775,43.1561,M,M,M,0.00,0.00,M,30.17,M,0.25,M,VV ,M,M,M,100.00,M,M,M,FZFG,KOVS 011045Z AUTO 00000KT 1/4SM FZFG VV001 A3017 RMK MADISHF
OVS,2017-04-01 10:50,-90.6775,43.1561,M,M,M,0.00,0.00,M,30.17,M,0.24,M,VV ,M,M,M,100.00,M,M,M,FZFG,KOVS 011050Z AUTO 00000KT 1/4SM FZFG VV001 A3017 RMK MADISHF
OVS,2017-04-01 10:53,-90.6775,43.1561,28.00,27.00,95.97,0.00,0.00,0.00,30.18,1022.60,0.25,M,VV ,M,M,M,100.00,M,M,M,FZFG,KOVS 011053Z AUTO 00000KT 1/4SM FZFG VV001 M02/M03 A3018 RMK AO2 PRESRR SLP226 I1001 T10221028
OVS,2017-04-01 10:55,-90.6775,43.1561,M,M,M,0.00,0.00,M,30.18,M,0.24,M,VV ,M,M,M,100.00,M,M,M,FZFG,KOVS 011055Z AUTO 00000KT 1/4SM FZFG VV001 A3018 RMK MADISHF
OVS,2017-04-01 11:00,-90.6775,43.1561,M,M,M,0.00,0.00,M,30.18,M,0.25,M,VV ,M,M,M,100.00,M,M,M,FZFG,KOVS 011100Z AUTO 00000KT 1/4SM FZFG VV001 A3018 RMK MADISHF
OVS,2017-04-01 11:05,-90.6775,43.1561,M,M,M,0.00,0.00,M,30.18,M,0.25,M,VV ,M,M,M,100.00,M,M,M,FZFG,KOVS 011105Z AUTO 00000KT 1/4SM FZFG VV001 A3018 RMK MADISHF
OVS,2017-04-01 11:10,-90.6775,43.1561,M,M,M,0.00,0.00,M,30.19,M,0.50,M,VV ,M,M,M,100.00,M,M,M,FZFG,KOVS 011110Z AUTO 00000KT 1/2SM FZFG VV001 A3019 RMK MADISHF
OVS,2017-04-01 11:15,-90.6775,43.1561,M,M,M,0.00,0.00,M,30.19,M,0.50,M,VV ,M,M,M,100.00,M,M,M,FZFG,KOVS 011115Z AUTO 00000KT 1/2SM FZFG VV001 A3019 RMK MADISHF
OVS,2017-04-01 11:20,-90.6775,43.1561,M,M,M,0.00,0.00,M,30.19,M,0.50,M,VV ,M,M,M,200.00,M,M,M,FZFG,KOVS 011120Z AUTO 00000KT 1/2SM FZFG VV002 A3019 RMK MADISHF
OVS,2017-04-01 11:25,-90.6775,43.1561,M,M,M,0.00,0.00,M,30.19,M,0.50,M,VV ,M,M,M,200.00,M,M,M,FZFG,KOVS 011125Z AUTO 00000KT 1/2SM FZFG VV002 A3019 RMK MADISHF
OVS,2017-04-01 11:30,-90.6775,43.1561,M,M,M,0.00,0.00,M,30.19,M,0.50,M,VV ,M,M,M,200.00,M,M,M,FZFG,KOVS 011130Z AUTO 00000KT 1/2SM FZFG VV002 A3019 RMK MADISHF
OVS,2017-04-01 11:35,-90.6775,43.1561,M,M,M,0.00,0.00,M,30.20,M,0.50,M,VV ,M,M,M,200.00,M,M,M,FZFG,KOVS 011135Z AUTO 00000KT 1/2SM FZFG VV002 A3020 RMK MADISHF
OVS,2017-04-01 11:40,-90.6775,43.1561,M,M,M,0.00,0.00,M,30.20,M,0.25,M,VV ,M,M,M,200.00,M,M,M,FZFG,KOVS 011140Z AUTO 00000KT 1/4SM FZFG VV002 A3020 RMK MADISHF
OVS,2017-04-01 11:45,-90.6775,43.1561,M,M,M,0.00,0.00,M,30.20,M,0.24,M,VV ,M,M,M,200.00,M,M,M,FZFG,KOVS 011145Z AUTO 00000KT 1/4SM FZFG VV002 A3020 RMK MADISHF
OVS,2017-04-01 11:50,-90.6775,43.1561,M,M,M,0.00,0.00,M,30.20,M,0.24,M,VV ,M,M,M,100.00,M,M,M,FZFG,KOVS 011150Z AUTO 00000KT 1/4SM FZFG VV001 A3020 RMK MADISHF
OVS,2017-04-01 11:53,-90.6775,43.1561,30.00,28.00,92.15,0.00,0.00,0.00,30.20,1023.30,0.25,M,VV ,M,M,M,100.00,M,M,M,FZFG,KOVS 011153Z AUTO 00000KT M1/4SM FZFG VV001 M01/M02 A3020 RMK AO2 SLP233 I1000 I6001 T10111022 10011 21022 53018
OVS,2017-04-01 11:55,-90.6775,43.1561,M,M,M,0.00,0.00,M,30.20,M,0.13,M,VV ,M,M,M,100.00,M,M,M,FZFG,KOVS 011155Z AUTO 00000KT 1/4SM FZFG VV001 A3020 RMK MADISHF
OVS,2017-04-01 12:00,-90.6775,43.1561,M,M,M,0.00,0.00,M,30.21,M,0.13,M,VV ,M,M,M,100.00,M,M,M,FZFG,KOVS 011200Z AUTO 00000KT 1/4SM FZFG VV001 A3021 RMK MADISHF
OVS,2017-04-01 12:05,-90.6775,43.1561,M,M,M,0.00,0.00,M,30.21,M,0.13,M,VV ,M,M,M,100.00,M,M,M,FZFG,KOVS 011205Z AUTO 00000KT 1/4SM FZFG VV001 A3021 RMK MADISHF
OVS,2017-04-01 12:10,-90.6775,43.1561,M,M,M,0.00,0.00,M,30.21,M,0.13,M,VV ,M,M,M,200.00,M,M,M,FZFG,KOVS 011210Z AUTO 00000KT 1/4SM FZFG VV002 A3021 RMK MADISHF
OVS,2017-04-01 12:15,-90.6775,43.1561,M,M,M,0.00,0.00,M,30.21,M,0.13,M,VV ,M,M,M,200.00,M,M,M,FZFG,KOVS 011215Z AUTO 00000KT 1/4SM FZFG VV002 A3021 RMK MADISHF
OVS,2017-04-01 12:20,-90.6775,43.1561,M,M,M,0.00,0.00,M,30.21,M,0.24,M,VV ,M,M,M,200.00,M,M,M,FZFG,KOVS 011220Z AUTO 00000KT 1/4SM FZFG VV002 A3021 RMK MADISHF
OVS,2017-04-01 12:25,-90.6775,43.1561,M,M,M,0.00,0.00,M,30.21,M,0.24,M,VV ,M,M,M,200.00,M,M,M,FZFG,KOVS 011225Z AUTO 00000KT 1/4SM FZFG VV002 A3021 RMK MADISHF
OVS,2017-04-01 12:30,-90.6775,43.1561,M,M,M,0.00,0.00,M,30.22,M,0.24,M,VV ,M,M,M,200.00,M,M,M,FZFG,KOVS 011230Z AUTO 00000KT 1/4SM FZFG VV002 A3022 RMK MADISHF
OVS,2017-04-01 12:35,-90.6775,43.1561,M,M,M,0.00,0.00,M,30.22,M,0.24,M,VV ,M,M,M,200.00,M,M,M,FZFG,KOVS 011235Z AUTO 00000KT 1/4SM FZFG VV002 A3022 RMK MADISHF
OVS,2017-04-01 12:40,-90.6775,43.1561,M,M,M,0.00,0.00,M,30.22,M,0.24,M,VV ,M,M,M,200.00,M,M,M,FZFG,KOVS 011240Z AUTO 00000KT 1/4SM FZFG VV002 A3022 RMK MADISHF
OVS,2017-04-01 12:45,-90.6775,43.1561,M,M,M,0.00,0.00,M,30.23,M,0.24,M,VV ,M,M,M,200.00,M,M,M,FZFG,KOVS 011245Z AUTO 00000KT 1/4SM FZFG VV002 A3023 RMK MADISHF
OVS,2017-04-01 12:50,-90.6775,43.1561,M,M,M,0.00,0.00,M,30.23,M,0.13,M,VV ,M,M,M,200.00,M,M,M,FZFG,KOVS 011250Z AUTO 00000KT 1/4SM FZFG VV002 A3023 RMK MADISHF
OVS,2017-04-01 12:53,-90.6775,43.1561,30.90,30.90,100.00,0.00,0.00,0.00,30.23,1024.30,0.25,M,VV ,M,M,M,200.00,M,M,M,FZFG,KOVS 011253Z AUTO 00000KT M1/4SM FZFG VV002 M01/M01 A3023 RMK AO2 SLP243 T10061006
OVS,2017-04-01 12:55,-90.6775,43.1561,M,M,M,0.00,0.00,M,30.23,M,0.24,M,VV ,M,M,M,200.00,M,M,M,FG,KOVS 011255Z AUTO 00000KT 1/4SM FG VV002 A3023 RMK MADISHF
OVS,2017-04-01 13:00,-90.6775,43.1561,M,M,M,0.00,0.00,M,30.23,M,0.24,M,VV ,M,M,M,200.00,M,M,M,FG,KOVS 011300Z AUTO 00000KT 1/4SM FG VV002 A3023 RMK MADISHF
OVS,2017-04-01 13:05,-90.6775,43.1561,M,M,M,0.00,0.00,M,30.23,M,0.25,M,VV ,M,M,M,200.00,M,M,M,FG,KOVS 011305Z AUTO 00000KT 1/4SM FG VV002 A3023 RMK MADISHF
OVS,2017-04-01 13:10,-90.6775,43.1561,M,M,M,0.00,0.00,M,30.24,M,0.25,M,VV ,M,M,M,200.00,M,M,M,FG,KOVS 011310Z AUTO 00000KT 1/4SM FG VV002 A3024 RMK MADISHF
OVS,2017-04-01 13:15,-90.6775,43.1561,M,M,M,0.00,0.00,M,30.23,M,0.24,M,VV ,M,M,M,200.00,M,M,M,FG,KOVS 011315Z AUTO 00000KT 1/4SM FG VV002 A3023 RMK MADISHF
OVS,2017-04-01 13:20,-90.6775,43.1561,M,M,M,0.00,0.00,M,30.23,M,0.24,M,VV ,M,M,M,200.00,M,M,M,FG,KOVS 011320Z AUTO 00000KT 1/4SM FG VV002 A3023 RMK MADISHF
OVS,2017-04-01 13:25,-90.6775,43.1561,M,M,M,0.00,0.00,M,30.23,M,0.13,M,VV ,M,M,M,200.00,M,M,M,FG,KOVS 011325Z AUTO 00000KT 1/4SM FG VV002 A3023 RMK MADISHF
OVS,2017-04-01 13:30,-90.6775,43.1561,M,M,M,0.00,0.00,M,30.23,M,0.13,M,VV ,M,M,M,200.00,M,M,M,FG,KOVS 011330Z AUTO 00000KT 1/4SM FG VV002 A3023 RMK MADISHF
OVS,2017-04-01 13:35,-90.6775,43.1561,M,M,M,0.00,0.00,M,30.23,M,0.13,M,VV ,M,M,M,200.00,M,M,M,FG,KOVS 011335Z AUTO 00000KT 1/4SM FG VV002 A3023 RMK MADISHF
OVS,2017-04-01 13:40,-90.6775,43.1561,M,M,M,0.00,0.00,M,30.23,M,0.13,M,VV ,M,M,M,200.00,M,M,M,FG,KOVS 011340Z AUTO 00000KT 1/4SM FG VV002 A3023 RMK MADISHF
OVS,2017-04-01 13:45,-90.6775,43.1561,M,M,M,0.00,0.00,M,30.23,M,0.13,M,VV ,M,M,M,200.00,M,M,M,FG,KOVS 011345Z AUTO 00000KT 1/4SM FG VV002 A3023 RMK MADISHF
OVS,2017-04-01 13:50,-90.6775,43.1561,M,M,M,0.00,0.00,M,30.23,M,0.13,M,VV ,M,M,M,200.00,M,M,M,FG,KOVS 011350Z AUTO 00000KT 1/4SM FG VV002 A3023 RMK MADISHF
OVS,2017-04-01 13:53,-90.6775,43.1561,33.10,32.00,95.67,0.00,0.00,0.00,30.23,1024.60,0.25,M,VV ,M,M,M,200.00,M,M,M,FG,KOVS 011353Z AUTO 00000KT 1/4SM FG VV002 01/00 A3023 RMK AO2 SLP246 T00060000
OVS,2017-04-01 13:55,-90.6775,43.1561,M,M,M,0.00,0.00,M,30.23,M,0.24,M,VV ,M,M,M,200.00,M,M,M,FG,KOVS 011355Z AUTO 00000KT 1/4SM FG VV002 A3023 RMK MADISHF
OVS,2017-04-01 14:00,-90.6775,43.1561,M,M,M,0.00,0.00,M,30.24,M,0.24,M,VV ,M,M,M,200.00,M,M,M,FG,KOVS 011400Z AUTO 00000KT 1/4SM FG VV002 A3024 RMK MADISHF
OVS,2017-04-01 14:05,-90.6775,43.1561,M,M,M,0.00,0.00,M,30.24,M,0.24,M,VV ,M,M,M,200.00,M,M,M,FG,KOVS 011405Z AUTO 00000KT 1/4SM FG VV002 A3024 RMK MADISHF
OVS,2017-04-01 14:10,-90.6775,43.1561,M,M,M,0.00,0.00,M,30.24,M,0.24,M,VV ,M,M,M,200.00,M,M,M,FG,KOVS 011410Z AUTO 00000KT 1/4SM FG VV002 A3024 RMK MADISHF
OVS,2017-04-01 14:15,-90.6775,43.1561,M,M,M,0.00,0.00,M,30.24,M,0.24,M,VV ,M,M,M,200.00,M,M,M,FG,KOVS 011415Z AUTO 00000KT 1/4SM FG VV002 A3024 RMK MADISHF
OVS,2017-04-01 14:20,-90.6775,43.1561,M,M,M,0.00,0.00,M,30.24,M,0.25,M,VV ,M,M,M,200.00,M,M,M,FG,KOVS 011420Z AUTO 00000KT 1/4SM FG VV002 A3024 RMK MADISHF
OVS,2017-04-01 14:25,-90.6775,43.1561,M,M,M,220.00,3.00,M,30.24,M,0.75,M,VV ,M,M,M,200.00,M,M,M,BR,KOVS 011425Z AUTO 22003KT 1SM BR VV002 A3024 RMK MADISHF
OVS,2017-04-01 14:27,-90.6775,43.1561,36.00,35.10,96.49,0.00,0.00,0.00,30.24,M,1.50,M,BKN,M,M,M,200.00,M,M,M,BR,KOVS 011427Z AUTO 00000KT 1 1/2SM BR BKN002 02/02 A3024 RMK AO2 T00220017
OVS,2017-04-01 14:29,-90.6775,43.1561,36.00,35.10,96.49,0.00,0.00,0.00,30.24,M,4.00,M,BKN,M,M,M,200.00,M,M,M,BR,KOVS 011429Z AUTO 00000KT 4SM BR BKN002 02/02 A3024 RMK AO2 T00220017
OVS,2017-04-01 14:30,-90.6775,43.1561,M,M,M,0.00,0.00,M,30.24,M,6.00,M,BKN,M,M,M,200.00,M,M,M,BR,KOVS 011430Z AUTO 00000KT 6SM BR BKN002 A3024 RMK MADISHF
OVS,2017-04-01 14:35,-90.6775,43.1561,M,M,M,0.00,0.00,M,30.24,M,9.00,M,SCT,M,M,M,200.00,M,M,M,M,KOVS 011435Z AUTO 00000KT 9SM SCT002 A3024 RMK MADISHF
OVS,2017-04-01 14:38,-90.6775,43.1561,37.90,36.00,92.78,0.00,0.00,0.00,30.24,M,10.00,M,SCT,M,M,M,200.00,M,M,M,M,KOVS 011438Z AUTO 00000KT 10SM SCT002 03/02 A3024 RMK AO2 T00330022
OVS,2017-04-01 14:40,-90.6775,43.1561,M,M,M,0.00,0.00,M,30.24,M,10.00,M,FEW,M,M,M,200.00,M,M,M,M,KOVS 011440Z AUTO 00000KT 10SM FEW002 A3024 RMK MADISHF
OVS,2017-04-01 14:45,-90.6775,43.1561,M,M,M,0.00,0.00,M,30.24,M,10.00,M,FEW,M,M,M,200.00,M,M,M,M,KOVS 011445Z AUTO 00000KT 10SM FEW002 A3024 RMK MADISHF
OVS,2017-04-01 14:50,-90.6775,43.1561,M,M,M,0.00,0.00,M,30.24,M,10.00,M,CLR,M,M,M,M,M,M,M,M,KOVS 011450Z AUTO 00000KT 10SM CLR A3024 RMK MADISHF
OVS,2017-04-01 14:53,-90.6775,43.1561,39.00,37.00,92.45,0.00,0.00,0.00,30.24,1024.80,10.00,M,CLR,M,M,M,M,M,M,M,M,KOVS 011453Z AUTO 00000KT 10SM CLR 04/03 A3024 RMK AO2 SLP248 T00390028 51015
OVS,2017-04-01 14:55,-90.6775,43.1561,M,M,M,0.00,0.00,M,30.24,M,10.00,M,CLR,M,M,M,M,M,M,M,M,KOVS 011455Z AUTO 00000KT 10SM CLR A3024 RMK MADISHF
OVS,2017-04-01 15:00,-90.6775,43.1561,M,M,M,0.00,0.00,M,30.24,M,10.00,M,CLR,M,M,M,M,M,M,M,M,KOVS 011500Z AUTO 00000KT 10SM CLR A3024 RMK MADISHF
OVS,2017-04-01 15:05,-90.6775,43.1561,M,M,M,0.00,0.00,M,30.24,M,10.00,M,CLR,M,M,M,M,M,M,M,M,KOVS 011505Z AUTO 00000KT 10SM CLR A3024 RMK MADISHF
OVS,2017-04-01 15:10,-90.6775,43.1561,M,M,M,0.00,0.00,M,30.24,M,10.00,M,CLR,M,M,M,M,M,M,M,M,KOVS 011510Z AUTO 00000KT 10SM CLR A3024 RMK MADISHF
OVS,2017-04-01 15:15,-90.6775,43.1561,M,M,M,0.00,0.00,M,30.24,M,10.00,M,CLR,M,M,M,M,M,M,M,M,KOVS 011515Z AUTO 00000KT 10SM CLR A3024 RMK MADISHF
OVS,2017-04-01 15:20,-90.6775,43.1561,M,M,M,0.00,0.00,M,30.24,M,10.00,M,CLR,M,M,M,M,M,M,M,M,KOVS 011520Z AUTO 00000KT 10SM CLR A3024 RMK MADISHF
OVS,2017-04-01 15:25,-90.6775,43.1561,M,M,M,0.00,0.00,M,30.25,M,10.00,M,CLR,M,M,M,M,M,M,M,M,KOVS 011525Z AUTO 00000KT 10SM CLR A3025 RMK MADISHF
OVS,2017-04-01 15:30,-90.6775,43.1561,M,M,M,0.00,0.00,M,30.25,M,10.00,M,CLR,M,M,M,M,M,M,M,M,KOVS 011530Z AUTO 00000KT 10SM CLR A3025 RMK MADISHF
OVS,2017-04-01 15:35,-90.6775,43.1561,M,M,M,0.00,0.00,M,30.25,M,10.00,M,CLR,M,M,M,M,M,M,M,M,KOVS 011535Z AUTO 00000KT 10SM CLR A3025 RMK MADISHF
OVS,2017-04-01 15:40,-90.6775,43.1561,M,M,M,0.00,0.00,M,30.25,M,10.00,M,CLR,M,M,M,M,M,M,M,M,KOVS 011540Z AUTO 00000KT 10SM CLR A3025 RMK MADISHF
OVS,2017-04-01 15:45,-90.6775,43.1561,M,M,M,0.00,0.00,M,30.24,M,10.00,M,CLR,M,M,M,M,M,M,M,M,KOVS 011545Z AUTO 00000KT 10SM CLR A3024 RMK MADISHF
OVS,2017-04-01 15:50,-90.6775,43.1561,M,M,M,0.00,0.00,M,30.24,M,10.00,M,CLR,M,M,M,M,M,M,M,M,KOVS 011550Z AUTO 00000KT 10SM CLR A3024 RMK MADISHF
OVS,2017-04-01 15:53,-90.6775,43.1561,46.90,36.00,65.63,220.00,3.00,0.00,30.24,1024.70,10.00,M,CLR,M,M,M,M,M,M,M,M,KOVS 011553Z AUTO 22003KT 10SM CLR 08/02 A3024 RMK AO2 SLP247 T00830022
OVS,2017-04-01 15:55,-90.6775,43.1561,M,M,M,0.00,0.00,M,30.24,M,10.00,M,CLR,M,M,M,M,M,M,M,M,KOVS 011555Z AUTO 00000KT 10SM CLR A3024 RMK MADISHF
OVS,2017-04-01 16:00,-90.6775,43.1561,M,M,M,0.00,0.00,M,30.24,M,10.00,M,CLR,M,M,M,M,M,M,M,M,KOVS 011600Z AUTO 00000KT 10SM CLR A3024 RMK MADISHF
OVS,2017-04-01 16:05,-90.6775,43.1561,M,M,M,0.00,0.00,M,30.24,M,10.00,M,CLR,M,M,M,M,M,M,M,M,KOVS 011605Z AUTO 00000KT 10SM CLR A3024 RMK MADISHF
OVS,2017-04-01 16:10,-90.6775,43.1561,M,M,M,0.00,0.00,M,30.24,M,10.00,M,CLR,M,M,M,M,M,M,M,M,KOVS 011610Z AUTO 00000KT 10SM CLR A3024 RMK MADISHF
OVS,2017-04-01 16:15,-90.6775,43.1561,M,M,M,250.00,3.00,M,30.24,M,10.00,M,CLR,M,M,M,M,M,M,M,M,KOVS 011615Z AUTO 25003KT 10SM CLR A3024 RMK MADISHF
OVS,2017-04-01 16:20,-90.6775,43.1561,M,M,M,0.00,0.00,M,30.24,M,10.00,M,CLR,M,M,M,M,M,M,M,M,KOVS 011620Z AUTO 00000KT 10SM CLR A3024 RMK MADISHF
OVS,2017-04-01 16:25,-90.6775,43.1561,M,M,M,280.00,4.00,M,30.24,M,10.00,M,CLR,M,M,M,M,M,M,M,M,KOVS 011625Z AUTO 28004KT 10SM CLR A3024 RMK MADISHF
OVS,2017-04-01 16:30,-90.6775,43.1561,M,M,M,0.00,0.00,M,30.24,M,10.00,M,CLR,M,M,M,M,M,M,M,M,KOVS 011630Z AUTO 00000KT 10SM CLR A3024 RMK MADISHF
OVS,2017-04-01 16:35,-90.6775,43.1561,M,M,M,0.00,0.00,M,30.24,M,10.00,M,CLR,M,M,M,M,M,M,M,M,KOVS 011635Z AUTO 00000KT 10SM CLR A3024 RMK MADISHF
OVS,2017-04-01 16:40,-90.6775,43.1561,M,M,M,240.00,3.00,M,30.23,M,10.00,M,CLR,M,M,M,M,M,M,M,M,KOVS 011640Z AUTO 24003KT 10SM CLR A3023 RMK MADISHF
OVS,2017-04-01 16:45,-90.6775,43.1561,M,M,M,0.00,0.00,M,30.23,M,10.00,M,CLR,M,M,M,M,M,M,M,M,KOVS 011645Z AUTO 00000KT 10SM CLR A3023 RMK MADISHF
OVS,2017-04-01 16:50,-90.6775,43.1561,M,M,M,0.00,0.00,M,30.23,M,10.00,M,CLR,M,M,M,M,M,M,M,M,KOVS 011650Z AUTO 00000KT 10SM CLR A3023 RMK MADISHF
OVS,2017-04-01 16:53,-90.6775,43.1561,53.10,36.00,52.11,0.00,0.00,0.00,30.23,1024.20,10.00,M,CLR,M,M,M,M,M,M,M,M,KOVS 011653Z AUTO 00000KT 10SM CLR 12/02 A3023 RMK AO2 SLP242 T01170022
OVS,2017-04-01 16:55,-90.6775,43.1561,M,M,M,0.00,0.00,M,30.23,M,10.00,M,CLR,M,M,M,M,M,M,M,M,KOVS 011655Z AUTO 00000KT 10SM CLR A3023 RMK MADISHF
OVS,2017-04-01 17:00,-90.6775,43.1561,M,M,M,0.00,0.00,M,30.23,M,10.00,M,CLR,M,M,M,M,M,M,M,M,KOVS 011700Z AUTO 00000KT 10SM CLR A3023 RMK MADISHF
OVS,2017-04-01 17:05,-90.6775,43.1561,M,M,M,250.00,3.00,M,30.23,M,10.00,M,CLR,M,M,M,M,M,M,M,M,KOVS 011705Z AUTO 25003KT 10SM CLR A3023 RMK MADISHF
OVS,2017-04-01 17:10,-90.6775,43.1561,M,M,M,260.00,3.00,M,30.22,M,10.00,M,CLR,M,M,M,M,M,M,M,M,KOVS 011710Z AUTO 26003KT 10SM CLR A3022 RMK VRB03KT  MADISHF
OVS,2017-04-01 17:15,-90.6775,43.1561,M,M,M,0.00,0.00,M,30.22,M,10.00,M,CLR,M,M,M,M,M,M,M,M,KOVS 011715Z AUTO 00000KT 10SM CLR A3022 RMK MADISHF
OVS,2017-04-01 17:20,-90.6775,43.1561,M,M,M,0.00,0.00,M,30.22,M,10.00,M,CLR,M,M,M,M,M,M,M,M,KOVS 011720Z AUTO 00000KT 10SM CLR A3022 RMK MADISHF
OVS,2017-04-01 17:25,-90.6775,43.1561,M,M,M,240.00,4.00,M,30.22,M,10.00,M,CLR,M,M,M,M,M,M,M,M,KOVS 011725Z AUTO 24004KT 10SM CLR A3022 RMK VRB04KT  MADISHF
OVS,2017-04-01 17:30,-90.6775,43.1561,M,M,M,240.00,3.00,M,30.22,M,10.00,M,CLR,M,M,M,M,M,M,M,M,KOVS 011730Z AUTO 24003KT 10SM CLR A3022 RMK MADISHF
OVS,2017-04-01 17:35,-90.6775,43.1561,M,M,M,0.00,0.00,M,30.22,M,10.00,M,CLR,M,M,M,M,M,M,M,M,KOVS 011735Z AUTO 00000KT 10SM CLR A3022 RMK MADISHF
OVS,2017-04-01 17:40,-90.6775,43.1561,M,M,M,210.00,4.00,M,30.22,M,10.00,M,CLR,M,M,M,M,M,M,M,M,KOVS 011740Z AUTO 21004KT 10SM CLR A3022 RMK MADISHF
OVS,2017-04-01 17:45,-90.6775,43.1561,M,M,M,0.00,0.00,M,30.22,M,10.00,M,CLR,M,M,M,M,M,M,M,M,KOVS 011745Z AUTO 00000KT 10SM CLR A3022 RMK MADISHF
OVS,2017-04-01 17:50,-90.6775,43.1561,M,M,M,0.00,0.00,M,30.21,M,10.00,M,CLR,M,M,M,M,M,M,M,M,KOVS 011750Z AUTO 00000KT 10SM CLR A3021 RMK MADISHF
OVS,2017-04-01 17:53,-90.6775,43.1561,57.90,32.00,37.31,M,3.00,0.00,30.22,1023.70,10.00,M,CLR,M,M,M,M,M,M,M,M,KOVS 011753Z AUTO VRB03KT 10SM CLR 14/00 A3022 RMK AO2 SLP237 T01440000 10144 21022 58009
OVS,2017-04-01 17:55,-90.6775,43.1561,M,M,M,190.00,3.00,M,30.22,M,10.00,M,CLR,M,M,M,M,M,M,M,M,KOVS 011755Z AUTO 19003KT 10SM CLR A3022 RMK VRB03KT  MADISHF
OVS,2017-04-01 18:00,-90.6775,43.1561,M,M,M,330.00,3.00,M,30.22,M,10.00,M,CLR,M,M,M,M,M,M,M,M,KOVS 011800Z AUTO 33003KT 10SM CLR A3022 RMK VRB03KT  MADISHF
OVS,2017-04-01 18:05,-90.6775,43.1561,M,M,M,270.00,5.00,M,30.21,M,10.00,M,CLR,M,M,M,M,M,M,M,M,KOVS 011805Z AUTO 27005KT 10SM CLR A3021 RMK VRB05KT  MADISHF
OVS,2017-04-01 18:10,-90.6775,43.1561,M,M,M,0.00,0.00,M,30.21,M,10.00,M,CLR,M,M,M,M,M,M,M,M,KOVS 011810Z AUTO 00000KT 10SM CLR A3021 RMK MADISHF
OVS,2017-04-01 18:15,-90.6775,43.1561,M,M,M,0.00,0.00,M,30.21,M,10.00,M,CLR,M,M,M,M,M,M,M,M,KOVS 011815Z AUTO 00000KT 10SM CLR A3021 RMK MADISHF
OVS,2017-04-01 18:20,-90.6775,43.1561,M,M,M,300.00,3.00,M,30.21,M,10.00,M,CLR,M,M,M,M,M,M,M,M,KOVS 011820Z AUTO 30003KT 10SM CLR A3021 RMK VRB03KT  MADISHF
OVS,2017-04-01 18:25,-90.6775,43.1561,M,M,M,330.00,3.00,M,30.20,M,10.00,M,CLR,M,M,M,M,M,M,M,M,KOVS 011825Z AUTO 33003KT 10SM CLR A3020 RMK VRB03KT  MADISHF
OVS,2017-04-01 18:30,-90.6775,43.1561,M,M,M,190.00,5.00,M,30.20,M,10.00,M,CLR,M,M,M,M,M,M,M,M,KOVS 011830Z AUTO 19005KT 10SM CLR A3020 RMK MADISHF
OVS,2017-04-01 18:35,-90.6775,43.1561,M,M,M,0.00,0.00,M,30.20,M,10.00,M,CLR,M,M,M,M,M,M,M,M,KOVS 011835Z AUTO 00000KT 10SM CLR A3020 RMK MADISHF
OVS,2017-04-01 18:40,-90.6775,43.1561,M,M,M,190.00,4.00,M,30.20,M,10.00,M,CLR,M,M,M,M,M,M,M,M,KOVS 011840Z AUTO 19004KT 10SM CLR A3020 RMK VRB04KT  MADISHF
OVS,2017-04-01 18:45,-90.6775,43.1561,M,M,M,260.00,4.00,M,30.20,M,10.00,M,CLR,M,M,M,M,M,M,M,M,KOVS 011845Z AUTO 26004KT 10SM CLR A3020 RMK MADISHF
OVS,2017-04-01 18:50,-90.6775,43.1561,M,M,M,220.00,4.00,M,30.20,M,10.00,M,CLR,M,M,M,M,M,M,M,M,KOVS 011850Z AUTO 22004KT 10SM CLR A3020 RMK MADISHF
OVS,2017-04-01 18:53,-90.6775,43.1561,60.10,16.00,17.66,200.00,5.00,0.00,30.19,1022.90,10.00,M,CLR,M,M,M,M,M,M,M,M,KOVS 011853Z AUTO 20005KT 10SM CLR 16/M09 A3019 RMK AO2 SLP229 T01561089
OVS,2017-04-01 18:55,-90.6775,43.1561,M,M,M,210.00,4.00,M,30.19,M,10.00,M,CLR,M,M,M,M,M,M,M,M,KOVS 011855Z AUTO 21004KT 10SM CLR A3019 RMK MADISHF
OVS,2017-04-01 19:00,-90.6775,43.1561,M,M,M,180.00,3.00,M,30.19,M,10.00,M,CLR,M,M,M,M,M,M,M,M,KOVS 011900Z AUTO 18003KT 10SM CLR A3019 RMK VRB03KT  MADISHF
OVS,2017-04-01 19:05,-90.6775,43.1561,M,M,M,0.00,0.00,M,30.19,M,10.00,M,CLR,M,M,M,M,M,M,M,M,KOVS 011905Z AUTO 00000KT 10SM CLR A3019 RMK MADISHF
OVS,2017-04-01 19:10,-90.6775,43.1561,M,M,M,0.00,0.00,M,30.18,M,10.00,M,CLR,M,M,M,M,M,M,M,M,KOVS 011910Z AUTO 00000KT 10SM CLR A3018 RMK MADISHF
OVS,2017-04-01 19:15,-90.6775,43.1561,M,M,M,240.00,3.00,M,30.18,M,10.00,M,CLR,M,M,M,M,M,M,M,M,KOVS 011915Z AUTO 24003KT 10SM CLR A3018 RMK MADISHF
OVS,2017-04-01 19:20,-90.6775,43.1561,M,M,M,0.00,0.00,M,30.18,M,10.00,M,CLR,M,M,M,M,M,M,M,M,KOVS 011920Z AUTO 00000KT 10SM CLR A3018 RMK MADISHF
OVS,2017-04-01 19:25,-90.6775,43.1561,M,M,M,300.00,3.00,M,30.18,M,10.00,M,CLR,M,M,M,M,M,M,M,M,KOVS 011925Z AUTO 30003KT 10SM CLR A3018 RMK VRB03KT  MADISHF
OVS,2017-04-01 19:30,-90.6775,43.1561,M,M,M,350.00,4.00,M,30.18,M,10.00,M,CLR,M,M,M,M,M,M,M,M,KOVS 011930Z AUTO 35004KT 10SM CLR A3018 RMK MADISHF
OVS,2017-04-01 19:35,-90.6775,43.1561,M,M,M,350.00,3.00,M,30.18,M,10.00,M,CLR,M,M,M,M,M,M,M,M,KOVS 011935Z AUTO 35003KT 10SM CLR A3018 RMK VRB03KT  MADISHF
OVS,2017-04-01 19:40,-90.6775,43.1561,M,M,M,330.00,4.00,M,30.18,M,10.00,M,CLR,M,M,M,M,M,M,M,M,KOVS 011940Z AUTO 33004KT 10SM CLR A3018 RMK MADISHF
OVS,2017-04-01 19:45,-90.6775,43.1561,M,M,M,330.00,4.00,M,30.18,M,10.00,M,CLR,M,M,M,M,M,M,M,M,KOVS 011945Z AUTO 33004KT 10SM CLR A3018 RMK VRB04KT  MADISHF
OVS,2017-04-01 19:50,-90.6775,43.1561,M,M,M,0.00,0.00,M,30.18,M,10.00,M,CLR,M,M,M,M,M,M,M,M,KOVS 011950Z AUTO 00000KT 10SM CLR A3018 RMK MADISHF
OVS,2017-04-01 19:53,-90.6775,43.1561,62.10,21.00,20.38,0.00,0.00,0.00,30.17,1022.20,10.00,M,CLR,M,M,M,M,M,M,M,M,KOVS 011953Z AUTO 00000KT 10SM CLR 17/M06 A3017 RMK AO2 SLP222 T01671061
OVS,2017-04-01 19:55,-90.6775,43.1561,M,M,M,180.00,3.00,M,30.17,M,10.00,M,CLR,M,M,M,M,M,M,M,M,KOVS 011955Z AUTO 18003KT 10SM CLR A3017 RMK VRB03KT  MADISHF
OVS,2017-04-01 20:00,-90.6775,43.1561,M,M,M,210.00,4.00,M,30.17,M,10.00,M,CLR,M,M,M,M,M,M,M,M,KOVS 012000Z AUTO 21004KT 10SM CLR A3017 RMK VRB04KT  MADISHF
OVS,2017-04-01 20:05,-90.6775,43.1561,M,M,M,190.00,3.00,M,30.17,M,10.00,M,CLR,M,M,M,M,M,M,M,M,KOVS 012005Z AUTO 19003KT 10SM CLR A3017 RMK VRB03KT  MADISHF
OVS,2017-04-01 20:10,-90.6775,43.1561,M,M,M,260.00,6.00,M,30.17,M,10.00,M,CLR,M,M,M,M,M,M,M,M,KOVS 012010Z AUTO 26006KT 10SM CLR A3017 RMK MADISHF
OVS,2017-04-01 20:15,-90.6775,43.1561,M,M,M,280.00,6.00,M,30.17,M,10.00,M,CLR,M,M,M,M,M,M,M,M,KOVS 012015Z AUTO 28006KT 10SM CLR A3017 RMK MADISHF
OVS,2017-04-01 20:20,-90.6775,43.1561,M,M,M,300.00,3.00,M,30.17,M,10.00,M,CLR,M,M,M,M,M,M,M,M,KOVS 012020Z AUTO 30003KT 10SM CLR A3017 RMK VRB03KT  MADISHF
OVS,2017-04-01 20:25,-90.6775,43.1561,M,M,M,260.00,4.00,M,30.16,M,10.00,M,CLR,M,M,M,M,M,M,M,M,KOVS 012025Z AUTO 26004KT 10SM CLR A3016 RMK VRB04KT  MADISHF
OVS,2017-04-01 20:30,-90.6775,43.1561,M,M,M,230.00,6.00,M,30.16,M,10.00,M,CLR,M,M,M,M,M,M,M,M,KOVS 012030Z AUTO 23006KT 10SM CLR A3016 RMK MADISHF
OVS,2017-04-01 20:35,-90.6775,43.1561,M,M,M,240.00,5.00,M,30.16,M,10.00,M,CLR,M,M,M,M,M,M,M,M,KOVS 012035Z AUTO 24005KT 10SM CLR A3016 RMK VRB05KT  MADISHF
OVS,2017-04-01 20:40,-90.6775,43.1561,M,M,M,230.00,3.00,M,30.16,M,10.00,M,CLR,M,M,M,M,M,M,M,M,KOVS 012040Z AUTO 23003KT 10SM CLR A3016 RMK VRB03KT  MADISHF
OVS,2017-04-01 20:45,-90.6775,43.1561,M,M,M,240.00,6.00,M,30.16,M,10.00,M,CLR,M,M,M,M,M,M,M,M,KOVS 012045Z AUTO 24006KT 10SM CLR A3016 RMK MADISHF
OVS,2017-04-01 20:50,-90.6775,43.1561,M,M,M,260.00,5.00,M,30.16,M,10.00,M,CLR,M,M,M,M,M,M,M,M,KOVS 012050Z AUTO 26005KT 10SM CLR A3016 RMK MADISHF
OVS,2017-04-01 20:53,-90.6775,43.1561,63.00,21.90,20.52,280.00,5.00,0.00,30.16,1021.70,10.00,M,CLR,M,M,M,M,M,M,M,M,KOVS 012053Z AUTO 28005KT 10SM CLR 17/M06 A3016 RMK AO2 SLP217 T01721056 56019
OVS,2017-04-01 20:55,-90.6775,43.1561,M,M,M,250.00,4.00,M,30.16,M,10.00,M,CLR,M,M,M,M,M,M,M,M,KOVS 012055Z AUTO 25004KT 10SM CLR A3016 RMK VRB04KT  MADISHF
OVS,2017-04-01 21:00,-90.6775,43.1561,M,M,M,0.00,0.00,M,30.16,M,10.00,M,CLR,M,M,M,M,M,M,M,M,KOVS 012100Z AUTO 00000KT 10SM CLR A3016 RMK MADISHF
OVS,2017-04-01 21:05,-90.6775,43.1561,M,M,M,330.00,4.00,M,30.16,M,10.00,M,CLR,M,M,M,M,M,M,M,M,KOVS 012105Z AUTO 33004KT 10SM CLR A3016 RMK VRB04KT  MADISHF
OVS,2017-04-01 21:10,-90.6775,43.1561,M,M,M,300.00,3.00,M,30.16,M,10.00,M,CLR,M,M,M,M,M,M,M,M,KOVS 012110Z AUTO 30003KT 10SM CLR A3016 RMK MADISHF
OVS,2017-04-01 21:15,-90.6775,43.1561,M,M,M,300.00,3.00,M,30.15,M,10.00,M,CLR,M,M,M,M,M,M,M,M,KOVS 012115Z AUTO 30003KT 10SM CLR A3015 RMK MADISHF
OVS,2017-04-01 21:20,-90.6775,43.1561,M,M,M,280.00,4.00,M,30.15,M,10.00,M,CLR,M,M,M,M,M,M,M,M,KOVS 012120Z AUTO 28004KT 10SM CLR A3015 RMK MADISHF
OVS,2017-04-01 21:25,-90.6775,43.1561,M,M,M,270.00,3.00,M,30.15,M,10.00,M,CLR,M,M,M,M,M,M,M,M,KOVS 012125Z AUTO 27003KT 10SM CLR A3015 RMK VRB03KT  MADISHF
OVS,2017-04-01 21:30,-90.6775,43.1561,M,M,M,0.00,0.00,M,30.15,M,10.00,M,CLR,M,M,M,M,M,M,M,M,KOVS 012130Z AUTO 00000KT 10SM CLR A3015 RMK MADISHF
OVS,2017-04-01 21:35,-90.6775,43.1561,M,M,M,230.00,3.00,M,30.15,M,10.00,M,CLR,M,M,M,M,M,M,M,M,KOVS 012135Z AUTO 23003KT 10SM CLR A3015 RMK VRB03KT  MADISHF
OVS,2017-04-01 21:40,-90.6775,43.1561,M,M,M,0.00,0.00,M,30.15,M,10.00,M,CLR,M,M,M,M,M,M,M,M,KOVS 012140Z AUTO 00000KT 10SM CLR A3015 RMK MADISHF
OVS,2017-04-01 21:45,-90.6775,43.1561,M,M,M,310.00,3.00,M,30.15,M,10.00,M,CLR,M,M,M,M,M,M,M,M,KOVS 012145Z AUTO 31003KT 10SM CLR A3015 RMK VRB03KT  MADISHF
OVS,2017-04-01 21:50,-90.6775,43.1561,M,M,M,270.00,3.00,M,30.15,M,10.00,M,CLR,M,M,M,M,M,M,M,M,KOVS 012150Z AUTO 27003KT 10SM CLR A3015 RMK VRB03KT  MADISHF
OVS,2017-04-01 21:53,-90.6775,43.1561,63.00,24.10,22.50,290.00,4.00,0.00,30.15,1021.40,10.00,M,CLR,M,M,M,M,M,M,M,M,KOVS 012153Z AUTO 29004KT 10SM CLR 17/M04 A3015 RMK AO2 SLP214 T01721044
OVS,2017-04-01 21:55,-90.6775,43.1561,M,M,M,280.00,4.00,M,30.15,M,10.00,M,CLR,M,M,M,M,M,M,M,M,KOVS 012155Z AUTO 28004KT 10SM CLR A3015 RMK MADISHF
OVS,2017-04-01 22:00,-90.6775,43.1561,M,M,M,270.00,5.00,M,30.15,M,10.00,M,CLR,M,M,M,M,M,M,M,M,KOVS 012200Z AUTO 27005KT 10SM CLR A3015 RMK MADISHF
OVS,2017-04-01 22:05,-90.6775,43.1561,M,M,M,210.00,3.00,M,30.15,M,10.00,M,CLR,M,M,M,M,M,M,M,M,KOVS 012205Z AUTO 21003KT 10SM CLR A3015 RMK MADISHF
OVS,2017-04-01 22:10,-90.6775,43.1561,M,M,M,270.00,3.00,M,30.15,M,10.00,M,CLR,M,M,M,M,M,M,M,M,KOVS 012210Z AUTO 27003KT 10SM CLR A3015 RMK MADISHF
OVS,2017-04-01 22:15,-90.6775,43.1561,M,M,M,240.00,4.00,M,30.15,M,10.00,M,CLR,M,M,M,M,M,M,M,M,KOVS 012215Z AUTO 24004KT 10SM CLR A3015 RMK MADISHF
OVS,2017-04-01 22:20,-90.6775,43.1561,M,M,M,0.00,0.00,M,30.15,M,10.00,M,CLR,M,M,M,M,M,M,M,M,KOVS 012220Z AUTO 00000KT 10SM CLR A3015 RMK MADISHF
OVS,2017-04-01 22:25,-90.6775,43.1561,M,M,M,230.00,3.00,M,30.15,M,10.00,M,CLR,M,M,M,M,M,M,M,M,KOVS 012225Z AUTO 23003KT 10SM CLR A3015 RMK MADISHF
OVS,2017-04-01 22:30,-90.6775,43.1561,M,M,M,0.00,0.00,M,30.15,M,10.00,M,CLR,M,M,M,M,M,M,M,M,KOVS 012230Z AUTO 00000KT 10SM CLR A3015 RMK MADISHF
OVS,2017-04-01 22:35,-90.6775,43.1561,M,M,M,280.00,3.00,M,30.15,M,10.00,M,CLR,M,M,M,M,M,M,M,M,KOVS 012235Z AUTO 28003KT 10SM CLR A3015 RMK MADISHF
OVS,2017-04-01 22:40,-90.6775,43.1561,M,M,M,0.00,0.00,M,30.15,M,10.00,M,CLR,M,M,M,M,M,M,M,M,KOVS 012240Z AUTO 00000KT 10SM CLR A3015 RMK MADISHF
OVS,2017-04-01 22:45,-90.6775,43.1561,M,M,M,270.00,5.00,M,30.15,M,10.00,M,CLR,M,M,M,M,M,M,M,M,KOVS 012245Z AUTO 27005KT 10SM CLR A3015 RMK MADISHF
OVS,2017-04-01 22:50,-90.6775,43.1561,M,M,M,320.00,3.00,M,30.15,M,10.00,M,CLR,M,M,M,M,M,M,M,M,KOVS 012250Z AUTO 32003KT 10SM CLR A3015 RMK MADISHF
OVS,2017-04-01 22:53,-90.6775,43.1561,63.00,25.00,23.36,40.00,3.00,0.00,30.16,1021.60,10.00,M,CLR,M,M,M,M,M,M,M,M,KOVS 012253Z AUTO 04003KT 10SM CLR 17/M04 A3016 RMK AO2 SLP216 T01721039
OVS,2017-04-01 22:55,-90.6775,43.1561,M,M,M,0.00,0.00,M,30.16,M,10.00,M,CLR,M,M,M,M,M,M,M,M,KOVS 012255Z AUTO 00000KT 10SM CLR A3016 RMK MADISHF
OVS,2017-04-01 23:00,-90.6775,43.1561,M,M,M,290.00,3.00,M,30.16,M,10.00,M,CLR,M,M,M,M,M,M,M,M,KOVS 012300Z AUTO 29003KT 10SM CLR A3016 RMK MADISHF
OVS,2017-04-01 23:05,-90.6775,43.1561,M,M,M,260.00,4.00,M,30.16,M,10.00,M,CLR,M,M,M,M,M,M,M,M,KOVS 012305Z AUTO 26004KT 10SM CLR A3016 RMK MADISHF
OVS,2017-04-01 23:10,-90.6775,43.1561,M,M,M,250.00,4.00,M,30.16,M,10.00,M,CLR,M,M,M,M,M,M,M,M,KOVS 012310Z AUTO 25004KT 10SM CLR A3016 RMK MADISHF
OVS,2017-04-01 23:15,-90.6775,43.1561,M,M,M,260.00,4.00,M,30.16,M,10.00,M,CLR,M,M,M,M,M,M,M,M,KOVS 012315Z AUTO 26004KT 10SM CLR A3016 RMK VRB04KT  MADISHF
OVS,2017-04-01 23:20,-90.6775,43.1561,M,M,M,190.00,4.00,M,30.16,M,10.00,M,CLR,M,M,M,M,M,M,M,M,KOVS 012320Z AUTO 19004KT 10SM CLR A3016 RMK MADISHF
OVS,2017-04-01 23:25,-90.6775,43.1561,M,M,M,200.00,5.00,M,30.16,M,10.00,M,CLR,M,M,M,M,M,M,M,M,KOVS 012325Z AUTO 20005KT 10SM CLR A3016 RMK MADISHF
OVS,2017-04-01 23:30,-90.6775,43.1561,M,M,M,190.00,4.00,M,30.16,M,10.00,M,CLR,M,M,M,M,M,M,M,M,KOVS 012330Z AUTO 19004KT 10SM CLR A3016 RMK MADISHF
OVS,2017-04-01 23:35,-90.6775,43.1561,M,M,M,200.00,6.00,M,30.16,M,10.00,M,CLR,M,M,M,M,M,M,M,M,KOVS 012335Z AUTO 20006KT 10SM CLR A3016 RMK MADISHF
OVS,2017-04-01 23:40,-90.6775,43.1561,M,M,M,190.00,5.00,M,30.16,M,10.00,M,CLR,M,M,M,M,M,M,M,M,KOVS 012340Z AUTO 19005KT 10SM CLR A3016 RMK MADISHF
OVS,2017-04-01 23:45,-90.6775,43.1561,M,M,M,190.00,5.00,M,30.16,M,10.00,M,CLR,M,M,M,M,M,M,M,M,KOVS 012345Z AUTO 19005KT 10SM CLR A3016 RMK MADISHF
OVS,2017-04-01 23:50,-90.6775,43.1561,M,M,M,190.00,6.00,M,30.16,M,10.00,M,CLR,M,M,M,M,M,M,M,M,KOVS 012350Z AUTO 19006KT 10SM CLR A3016 RMK MADISHF
OVS,2017-04-01 23:53,-90.6775,43.1561,60.10,26.10,27.10,190.00,7.00,0.00,30.16,1021.60,10.00,M,CLR,M,M,M,M,M,M,M,M,KOVS 012353Z AUTO 19007KT 10SM CLR 16/M03 A3016 RMK AO2 SLP216 T01561033 10178 20139 56001
OVS,2017-04-01 23:55,-90.6775,43.1561,M,M,M,190.00,6.00,M,30.15,M,10.00,M,CLR,M,M,M,M,M,M,M,M,KOVS 012355Z AUTO 19006KT 10SM CLR A3015 RMK MADISHF
