#DEBUG: Format Typ    -> comma
#DEBUG: Time Period   -> 2017-04-01 00:00:00+00:00 2017-04-02 00:00:00+00:00
#DEBUG: Time Zone     -> Etc/UTC
#DEBUG: Data Contact   -> daryl herzmann akrherz@iastate.edu 515-294-5978
#DEBUG: Entries Found -> -1
station,valid,lon,lat,tmpf, dwpf, relh, drct, sknt, p01i, alti, mslp, vsby, gust, skyc1, skyc2, skyc3, skyc4, skyl1, skyl2, skyl3, skyl4, presentwx, metar
OXC,2017-04-01 00:00,-73.1354,41.4741,M,M,M,90.00,10.00,M,29.87,M,10.00,17.00,BKN,OVC,M,M,600.00,1400.00,M,M,M,KOXC 010000Z AUTO 09010G17KT 10SM BKN006 OVC014 A2987 RMK WND 06V12  MADISHF
OXC,2017-04-01 00:05,-73.1354,41.4741,M,M,M,M,M,M,29.87,M,9.00,19.00,BKN,OVC,M,M,800.00,1400.00,M,M,M,KOXC 010005Z AUTO /////G19KT 9SM BKN008 OVC014 A2987 RMK MADISHF
OXC,2017-04-01 00:10,-73.1354,41.4741,M,M,M,90.00,10.00,M,29.87,M,7.00,23.00,BKN,OVC,M,M,800.00,1400.00,M,M,M,KOXC 010010Z AUTO 09010G23KT 7SM BKN008 OVC014 A2987 RMK MADISHF
OXC,2017-04-01 00:15,-73.1354,41.4741,M,M,M,M,M,M,29.87,M,7.00,23.00,BKN,OVC,M,M,800.00,1600.00,M,M,M,KOXC 010015Z AUTO /////G23KT 7SM BKN008 OVC016 A2987 RMK MADISHF
OXC,2017-04-01 00:20,-73.1354,41.4741,M,M,M,90.00,11.00,M,29.87,M,7.00,21.00,BKN,OVC,M,M,800.00,1400.00,M,M,M,KOXC 010020Z AUTO 09011G21KT 7SM BKN008 OVC014 A2987 RMK MADISHF
OXC,2017-04-01 00:25,-73.1354,41.4741,M,M,M,90.00,9.00,M,29.86,M,8.00,21.00,BKN,OVC,M,M,800.00,1400.00,M,M,M,KOXC 010025Z AUTO 09009G21KT 8SM BKN008 OVC014 A2986 RMK MADISHF
OXC,2017-04-01 00:30,-73.1354,41.4741,M,M,M,M,M,M,29.86,M,7.00,15.00,BKN,OVC,M,M,800.00,1400.00,M,M,M,KOXC 010030Z AUTO /////G15KT 7SM BKN008 OVC014 A2986 RMK MADISHF
OXC,2017-04-01 00:35,-73.1354,41.4741,M,M,M,80.00,10.00,M,29.86,M,7.00,17.00,BKN,OVC,M,M,800.00,1400.00,M,M,M,KOXC 010035Z AUTO 08010G17KT 7SM BKN008 OVC014 A2986 RMK MADISHF
OXC,2017-04-01 00:40,-73.1354,41.4741,M,M,M,M,M,M,29.86,M,7.00,18.00,BKN,OVC,M,M,800.00,1400.00,M,M,M,KOXC 010040Z AUTO /////G18KT 7SM BKN008 OVC014 A2986 RMK WND 06V12  MADISHF
OXC,2017-04-01 00:45,-73.1354,41.4741,M,M,M,M,M,M,29.86,M,5.00,19.00,BKN,OVC,M,M,800.00,1400.00,M,M,M,KOXC 010045Z AUTO /////G19KT 5SM BKN008 OVC014 A2986 RMK MADISHF
OXC,2017-04-01 00:50,-73.1354,41.4741,M,M,M,90.00,12.00,M,29.85,M,4.00,19.00,BKN,OVC,M,M,800.00,1400.00,M,M,M,KOXC 010050Z AUTO 09012G19KT 4SM BKN008 OVC014 A2985 RMK MADISHF
OXC,2017-04-01 00:55,-73.1354,41.4741,M,M,M,M,M,M,29.85,M,5.00,19.00,BKN,OVC,M,M,800.00,1400.00,M,M,M,KOXC 010055Z AUTO /////G19KT 5SM BKN008 OVC014 A2985 RMK MADISHF
OXC,2017-04-01 01:00,-73.1354,41.4741,M,M,M,M,M,M,29.85,M,4.00,19.00,BKN,OVC,M,M,800.00,1400.00,M,M,M,KOXC 010100Z AUTO /////G19KT 4SM BKN008 OVC014 A2985 RMK MADISHF
OXC,2017-04-01 01:05,-73.1354,41.4741,M,M,M,M,M,M,29.85,M,4.00,19.00,BKN,OVC,M,M,800.00,1400.00,M,M,M,KOXC 010105Z AUTO /////G19KT 4SM BKN008 OVC014 A2985 RMK MADISHF
OXC,2017-04-01 01:10,-73.1354,41.4741,M,M,M,90.00,9.00,M,29.85,M,5.00,19.00,BKN,OVC,M,M,800.00,1400.00,M,M,M,KOXC 010110Z AUTO 09009G19KT 5SM BKN008 OVC014 A2985 RMK MADISHF
OXC,2017-04-01 01:15,-73.1354,41.4741,33.80,30.20,86.49,90.00,9.00,0.02,29.85,M,6.00,21.00,BKN,OVC,M,M,800.00,1400.00,M,M,M,KOXC 010115Z AUTO 09009G21KT 060V130 6SM BKN008 OVC014 01/M01 A2985 RMK AO1 P0002
OXC,2017-04-01 01:20,-73.1354,41.4741,M,M,M,M,M,M,29.85,M,6.00,21.00,BKN,OVC,M,M,800.00,1400.00,M,M,M,KOXC 010120Z AUTO /////G21KT 6SM BKN008 OVC014 A2985 RMK WND 06V12  MADISHF
OXC,2017-04-01 01:25,-73.1354,41.4741,M,M,M,80.00,9.00,M,29.85,M,5.00,17.00,BKN,OVC,M,M,800.00,1600.00,M,M,M,KOXC 010125Z AUTO 08009G17KT 5SM BKN008 OVC016 A2985 RMK MADISHF
OXC,2017-04-01 01:30,-73.1354,41.4741,M,M,M,80.00,12.00,M,29.85,M,4.00,18.00,BKN,OVC,M,M,800.00,1600.00,M,M,M,KOXC 010130Z AUTO 08012G18KT 4SM BKN008 OVC016 A2985 RMK MADISHF
OXC,2017-04-01 01:35,-73.1354,41.4741,33.80,30.20,86.49,90.00,10.00,0.03,29.85,M,3.00,18.00,BKN,OVC,M,M,800.00,1400.00,M,M,M,KOXC 010135Z AUTO 09010G18KT 050V110 3SM BKN008 OVC014 01/M01 A2985 RMK AO1 P0003
OXC,2017-04-01 01:40,-73.1354,41.4741,M,M,M,80.00,10.00,M,29.84,M,2.50,15.00,BKN,OVC,M,M,800.00,1400.00,M,M,M,KOXC 010140Z AUTO 08010G15KT 2 1/2SM BKN008 OVC014 A2984 RMK WND 05V11  MADISHF
OXC,2017-04-01 01:45,-73.1354,41.4741,M,M,M,80.00,9.00,M,29.84,M,2.50,18.00,BKN,OVC,M,M,800.00,1400.00,M,M,M,KOXC 010145Z AUTO 08009G18KT 2 1/2SM BKN008 OVC014 A2984 RMK MADISHF
OXC,2017-04-01 01:50,-73.1354,41.4741,M,M,M,70.00,13.00,M,29.84,M,2.50,18.00,BKN,OVC,M,M,800.00,1400.00,M,M,M,KOXC 010150Z AUTO 07013G18KT 2 1/2SM BKN008 OVC014 A2984 RMK WND 05V11  MADISHF
OXC,2017-04-01 01:55,-73.1354,41.4741,33.80,28.40,80.36,90.00,8.00,0.07,29.84,M,2.50,17.00,BKN,OVC,M,M,800.00,1400.00,M,M,M,KOXC 010155Z AUTO 09008G17KT 2 1/2SM BKN008 OVC014 01/M02 A2984 RMK AO1 P0007
OXC,2017-04-01 02:00,-73.1354,41.4741,M,M,M,80.00,11.00,M,29.84,M,3.00,17.00,BKN,OVC,M,M,800.00,1400.00,M,M,M,KOXC 010200Z AUTO 08011G17KT 3SM BKN008 OVC014 A2984 RMK MADISHF
OXC,2017-04-01 02:05,-73.1354,41.4741,M,M,M,80.00,11.00,M,29.83,M,3.00,19.00,BKN,OVC,M,M,800.00,1400.00,M,M,M,KOXC 010205Z AUTO 08011G19KT 3SM BKN008 OVC014 A2983 RMK MADISHF
OXC,2017-04-01 02:10,-73.1354,41.4741,M,M,M,90.00,11.00,M,29.83,M,3.00,19.00,BKN,OVC,M,M,800.00,1600.00,M,M,M,KOXC 010210Z AUTO 09011G19KT 3SM BKN008 OVC016 A2983 RMK MADISHF
OXC,2017-04-01 02:15,-73.1354,41.4741,33.80,28.40,80.36,80.00,14.00,0.02,29.82,M,3.00,18.00,BKN,OVC,M,M,800.00,1600.00,M,M,M,KOXC 010215Z AUTO 08014G18KT 3SM BKN008 OVC016 01/M02 A2982 RMK AO1 P0002
OXC,2017-04-01 02:20,-73.1354,41.4741,M,M,M,80.00,12.00,M,29.82,M,3.00,20.00,BKN,OVC,M,M,800.00,1600.00,M,M,M,KOXC 010220Z AUTO 08012G20KT 3SM BKN008 OVC016 A2982 RMK MADISHF
OXC,2017-04-01 02:25,-73.1354,41.4741,M,M,M,80.00,12.00,M,29.81,M,3.00,20.00,BKN,OVC,M,M,800.00,1600.00,M,M,M,KOXC 010225Z AUTO 08012G20KT 3SM BKN008 OVC016 A2981 RMK MADISHF
OXC,2017-04-01 02:30,-73.1354,41.4741,M,M,M,80.00,12.00,M,29.81,M,3.00,19.00,BKN,OVC,M,M,800.00,1600.00,M,M,M,KOXC 010230Z AUTO 08012G19KT 3SM BKN008 OVC016 A2981 RMK WND 05V11  MADISHF
OXC,2017-04-01 02:35,-73.1354,41.4741,33.80,28.40,80.36,80.00,12.00,0.04,29.81,M,4.00,19.00,BKN,OVC,M,M,800.00,1600.00,M,M,M,KOXC 010235Z AUTO 08012G19KT 4SM BKN008 OVC016 01/M02 A2981 RMK AO1 P0004
OXC,2017-04-01 02:45,-73.1354,41.4741,M,M,M,80.00,10.00,M,29.80,M,2.50,18.00,BKN,OVC,M,M,800.00,1600.00,M,M,M,KOXC 010245Z AUTO 08010G18KT 2 1/2SM BKN008 OVC016 A2980 RMK MADISHF
OXC,2017-04-01 02:50,-73.1354,41.4741,M,M,M,M,M,M,29.80,M,2.00,23.00,OVC,M,M,M,800.00,M,M,M,M,KOXC 010250Z AUTO /////G23KT 2SM OVC008 A2980 RMK MADISHF
OXC,2017-04-01 02:55,-73.1354,41.4741,33.80,28.40,80.36,80.00,7.00,0.04,29.79,M,2.00,23.00,OVC,M,M,M,800.00,M,M,M,M,KOXC 010255Z AUTO 08007G23KT 2SM OVC008 01/M02 A2979 RMK AO1 P0004 60019 57027
OXC,2017-04-01 03:00,-73.1354,41.4741,M,M,M,80.00,10.00,M,29.79,M,2.50,20.00,BKN,OVC,M,M,800.00,1300.00,M,M,M,KOXC 010300Z AUTO 08010G20KT 2 1/2SM BKN008 OVC013 A2979 RMK MADISHF
OXC,2017-04-01 03:05,-73.1354,41.4741,M,M,M,70.00,10.00,M,29.79,M,2.50,20.00,OVC,M,M,M,600.00,M,M,M,M,KOXC 010305Z AUTO 07010G20KT 2 1/2SM OVC006 A2979 RMK MADISHF
OXC,2017-04-01 03:15,-73.1354,41.4741,33.80,28.40,80.36,70.00,11.00,0.02,29.79,M,1.50,18.00,OVC,M,M,M,600.00,M,M,M,M,KOXC 010315Z AUTO 07011G18KT 030V090 1 1/2SM OVC006 01/M02 A2979 RMK AO1 P0002
OXC,2017-04-01 03:25,-73.1354,41.4741,M,M,M,80.00,9.00,M,29.78,M,1.75,18.00,OVC,M,M,M,600.00,M,M,M,M,KOXC 010325Z AUTO 08009G18KT 2SM OVC006 A2978 RMK MADISHF
OXC,2017-04-01 03:30,-73.1354,41.4741,M,M,M,70.00,11.00,M,29.78,M,2.00,18.00,OVC,M,M,M,600.00,M,M,M,M,KOXC 010330Z AUTO 07011G18KT 2SM OVC006 A2978 RMK MADISHF
OXC,2017-04-01 03:35,-73.1354,41.4741,33.80,28.40,80.36,70.00,13.00,0.04,29.78,M,2.00,19.00,BKN,OVC,M,M,600.00,1600.00,M,M,M,KOXC 010335Z AUTO 07013G19KT 2SM BKN006 OVC016 01/M02 A2978 RMK AO1 P0004
OXC,2017-04-01 03:40,-73.1354,41.4741,M,M,M,80.00,12.00,M,29.78,M,2.00,19.00,BKN,OVC,M,M,600.00,1600.00,M,M,M,KOXC 010340Z AUTO 08012G19KT 2SM BKN006 OVC016 A2978 RMK MADISHF
OXC,2017-04-01 03:45,-73.1354,41.4741,M,M,M,90.00,8.00,M,29.78,M,2.50,19.00,BKN,OVC,M,M,600.00,1500.00,M,M,M,KOXC 010345Z AUTO 09008G19KT 2 1/2SM BKN006 OVC015 A2978 RMK WND 04V10  MADISHF
OXC,2017-04-01 03:55,-73.1354,41.4741,M,M,M,70.00,11.00,M,29.78,M,2.50,20.00,BKN,BKN,OVC,M,600.00,1300.00,1999.00,M,M,KOXC 010355Z AUTO 07011G20KT 2 1/2SM BKN006 BKN013 OVC019 A2978 RMK WND 03V10  MADISHF
OXC,2017-04-01 04:05,-73.1354,41.4741,M,M,M,60.00,9.00,M,29.78,M,2.00,15.00,BKN,OVC,M,M,600.00,1500.00,M,M,M,KOXC 010405Z AUTO 06009G15KT 2SM BKN006 OVC015 A2978 RMK MADISHF
OXC,2017-04-01 04:10,-73.1354,41.4741,M,M,M,70.00,9.00,M,29.79,M,2.00,M,BKN,OVC,M,M,600.00,1300.00,M,M,M,KOXC 010410Z AUTO 07009KT 2SM BKN006 OVC013 A2979 RMK MADISHF
OXC,2017-04-01 04:15,-73.1354,41.4741,33.80,28.40,80.36,60.00,10.00,0.01,29.78,M,2.00,17.00,BKN,OVC,M,M,600.00,1300.00,M,M,M,KOXC 010415Z AUTO 06010G17KT 2SM BKN006 OVC013 01/M02 A2978 RMK AO1 P0001
OXC,2017-04-01 04:20,-73.1354,41.4741,M,M,M,70.00,11.00,M,29.78,M,2.00,17.00,BKN,OVC,M,M,600.00,1300.00,M,M,M,KOXC 010420Z AUTO 07011G17KT 2SM BKN006 OVC013 A2978 RMK MADISHF
OXC,2017-04-01 04:25,-73.1354,41.4741,M,M,M,60.00,8.00,M,29.78,M,2.50,15.00,BKN,OVC,M,M,600.00,1500.00,M,M,M,KOXC 010425Z AUTO 06008G15KT 2 1/2SM BKN006 OVC015 A2978 RMK MADISHF
OXC,2017-04-01 04:30,-73.1354,41.4741,M,M,M,70.00,11.00,M,29.78,M,2.50,15.00,BKN,OVC,M,M,499.00,1300.00,M,M,M,KOXC 010430Z AUTO 07011G15KT 2 1/2SM BKN004 OVC013 A2978 RMK MADISHF
OXC,2017-04-01 04:35,-73.1354,41.4741,M,M,M,70.00,10.00,M,29.78,M,2.50,17.00,BKN,OVC,M,M,499.00,1300.00,M,M,M,KOXC 010435Z AUTO 07010G17KT 2 1/2SM BKN004 OVC013 A2978 RMK WND 03V09  MADISHF
OXC,2017-04-01 04:45,-73.1354,41.4741,M,M,M,70.00,12.00,M,29.77,M,3.00,19.00,BKN,OVC,M,M,499.00,1300.00,M,M,M,KOXC 010445Z AUTO 07012G19KT 3SM BKN004 OVC013 A2977 RMK MADISHF
OXC,2017-04-01 04:50,-73.1354,41.4741,M,M,M,70.00,10.00,M,29.77,M,3.00,19.00,BKN,OVC,M,M,499.00,1300.00,M,M,M,KOXC 010450Z AUTO 07010G19KT 3SM BKN004 OVC013 A2977 RMK MADISHF
OXC,2017-04-01 04:55,-73.1354,41.4741,33.80,28.40,80.36,70.00,10.00,0.03,29.77,M,3.00,17.00,BKN,OVC,M,M,500.00,1300.00,M,M,M,KOXC 010455Z AUTO 07010G17KT 3SM BKN005 OVC013 01/M02 A2977 RMK AO1 P0003 400300010
OXC,2017-04-01 05:00,-73.1354,41.4741,M,M,M,70.00,11.00,M,29.76,M,3.00,20.00,BKN,OVC,M,M,499.00,1300.00,M,M,M,KOXC 010500Z AUTO 07011G20KT 3SM BKN004 OVC013 A2976 RMK MADISHF
OXC,2017-04-01 05:05,-73.1354,41.4741,M,M,M,70.00,13.00,M,29.76,M,3.00,20.00,BKN,OVC,M,M,499.00,1300.00,M,M,M,KOXC 010505Z AUTO 07013G20KT 3SM BKN004 OVC013 A2976 RMK MADISHF
OXC,2017-04-01 05:10,-73.1354,41.4741,M,M,M,70.00,12.00,M,29.75,M,3.00,20.00,BKN,OVC,M,M,499.00,1300.00,M,M,M,KOXC 010510Z AUTO 07012G20KT 3SM BKN004 OVC013 A2975 RMK MADISHF
OXC,2017-04-01 05:15,-73.1354,41.4741,33.80,28.40,80.36,60.00,12.00,0.00,29.75,M,3.00,20.00,BKN,OVC,M,M,500.00,1300.00,M,M,M,KOXC 010515Z AUTO 06012G20KT 3SM BKN005 OVC013 01/M02 A2975 RMK AO1
OXC,2017-04-01 05:25,-73.1354,41.4741,M,M,M,70.00,10.00,M,29.75,M,3.00,19.00,BKN,OVC,M,M,499.00,1300.00,M,M,M,KOXC 010525Z AUTO 07010G19KT 3SM BKN004 OVC013 A2975 RMK MADISHF
OXC,2017-04-01 05:30,-73.1354,41.4741,M,M,M,70.00,13.00,M,29.74,M,4.00,20.00,OVC,M,M,M,499.00,M,M,M,M,KOXC 010530Z AUTO 07013G20KT 4SM OVC004 A2974 RMK WND 04V10  MADISHF
OXC,2017-04-01 05:35,-73.1354,41.4741,33.80,28.40,80.36,70.00,12.00,0.00,29.74,M,4.00,20.00,BKN,OVC,M,M,500.00,1200.00,M,M,M,KOXC 010535Z AUTO 07012G20KT 4SM BKN005 OVC012 01/M02 A2974 RMK AO1
OXC,2017-04-01 05:40,-73.1354,41.4741,M,M,M,M,M,M,29.73,M,5.00,20.00,BKN,OVC,M,M,499.00,1200.00,M,M,M,KOXC 010540Z AUTO /////G20KT 5SM BKN004 OVC012 A2973 RMK MADISHF
OXC,2017-04-01 05:45,-73.1354,41.4741,M,M,M,80.00,10.00,M,29.73,M,5.00,20.00,OVC,M,M,M,499.00,M,M,M,M,KOXC 010545Z AUTO 08010G20KT 5SM OVC004 A2973 RMK MADISHF
OXC,2017-04-01 05:50,-73.1354,41.4741,M,M,M,70.00,11.00,M,29.73,M,5.00,20.00,BKN,OVC,M,M,499.00,1200.00,M,M,M,KOXC 010550Z AUTO 07011G20KT 5SM BKN004 OVC012 A2973 RMK MADISHF
OXC,2017-04-01 05:55,-73.1354,41.4741,33.80,28.40,80.36,70.00,12.00,0.01,29.73,M,5.00,20.00,OVC,M,M,M,500.00,M,M,M,M,KOXC 010555Z AUTO 07012G20KT 5SM OVC005 01/M02 A2973 RMK AO1 P0001 60030 10020 20010 57020
OXC,2017-04-01 06:05,-73.1354,41.4741,M,M,M,M,M,M,29.72,M,7.00,20.00,OVC,M,M,M,499.00,M,M,M,M,KOXC 010605Z AUTO /////G20KT 7SM OVC004 A2972 RMK MADISHF
OXC,2017-04-01 06:10,-73.1354,41.4741,M,M,M,70.00,10.00,M,29.71,M,7.00,20.00,OVC,M,M,M,499.00,M,M,M,M,KOXC 010610Z AUTO 07010G20KT 7SM OVC004 A2971 RMK MADISHF
OXC,2017-04-01 06:15,-73.1354,41.4741,33.80,28.40,80.36,60.00,12.00,0.00,29.71,M,5.00,20.00,OVC,M,M,M,500.00,M,M,M,M,KOXC 010615Z AUTO 06012G20KT 5SM OVC005 01/M02 A2971 RMK AO1
OXC,2017-04-01 06:20,-73.1354,41.4741,M,M,M,60.00,13.00,M,29.72,M,5.00,20.00,OVC,M,M,M,499.00,M,M,M,M,KOXC 010620Z AUTO 06013G20KT 5SM OVC004 A2972 RMK MADISHF
OXC,2017-04-01 06:30,-73.1354,41.4741,M,M,M,M,M,M,29.71,M,5.00,20.00,OVC,M,M,M,499.00,M,M,M,M,KOXC 010630Z AUTO /////G20KT 5SM OVC004 A2971 RMK MADISHF
OXC,2017-04-01 06:35,-73.1354,41.4741,33.80,28.40,80.36,60.00,11.00,0.00,29.71,M,5.00,20.00,OVC,M,M,M,500.00,M,M,M,M,KOXC 010635Z AUTO 06011G20KT 5SM OVC005 01/M02 A2971 RMK AO1
OXC,2017-04-01 06:45,-73.1354,41.4741,M,M,M,60.00,11.00,M,29.70,M,4.00,19.00,OVC,M,M,M,499.00,M,M,M,M,KOXC 010645Z AUTO 06011G19KT 4SM OVC004 A2970 RMK WND 03V09  MADISHF
OXC,2017-04-01 06:50,-73.1354,41.4741,M,M,M,70.00,15.00,M,29.70,M,4.00,21.00,OVC,M,M,M,499.00,M,M,M,M,KOXC 010650Z AUTO 07015G21KT 4SM OVC004 A2970 RMK WND 04V10  MADISHF
OXC,2017-04-01 06:55,-73.1354,41.4741,33.80,28.40,80.36,60.00,14.00,0.01,29.70,M,3.00,21.00,OVC,M,M,M,500.00,M,M,M,M,KOXC 010655Z AUTO 06014G21KT 3SM OVC005 01/M02 A2970 RMK AO1 P0001
OXC,2017-04-01 07:00,-73.1354,41.4741,M,M,M,M,M,M,29.70,M,4.00,21.00,OVC,M,M,M,499.00,M,M,M,M,KOXC 010700Z AUTO /////G21KT 4SM OVC004 A2970 RMK MADISHF
OXC,2017-04-01 07:10,-73.1354,41.4741,M,M,M,M,M,M,29.69,M,5.00,22.00,OVC,M,M,M,499.00,M,M,M,M,KOXC 010710Z AUTO /////G22KT 5SM OVC004 A2969 RMK MADISHF
OXC,2017-04-01 07:15,-73.1354,41.4741,33.80,28.40,80.36,50.00,14.00,0.00,29.69,M,5.00,22.00,OVC,M,M,M,500.00,M,M,M,M,KOXC 010715Z AUTO 05014G22KT 5SM OVC005 01/M02 A2969 RMK AO1
OXC,2017-04-01 07:20,-73.1354,41.4741,M,M,M,50.00,12.00,M,29.69,M,5.00,19.00,OVC,M,M,M,499.00,M,M,M,M,KOXC 010720Z AUTO 05012G19KT 5SM OVC004 A2969 RMK WND 02V08  MADISHF
OXC,2017-04-01 07:25,-73.1354,41.4741,M,M,M,M,M,M,29.69,M,7.00,21.00,OVC,M,M,M,600.00,M,M,M,M,KOXC 010725Z AUTO /////G21KT 7SM OVC006 A2969 RMK MADISHF
OXC,2017-04-01 07:30,-73.1354,41.4741,M,M,M,50.00,12.00,M,29.69,M,6.00,21.00,OVC,M,M,M,600.00,M,M,M,M,KOXC 010730Z AUTO 05012G21KT 6SM OVC006 A2969 RMK MADISHF
OXC,2017-04-01 07:35,-73.1354,41.4741,33.80,28.40,80.36,50.00,11.00,0.00,29.68,M,5.00,20.00,OVC,M,M,M,600.00,M,M,M,M,KOXC 010735Z AUTO 05011G20KT 5SM OVC006 01/M02 A2968 RMK AO1
OXC,2017-04-01 07:40,-73.1354,41.4741,M,M,M,M,M,M,29.68,M,5.00,23.00,OVC,M,M,M,600.00,M,M,M,M,KOXC 010740Z AUTO /////G23KT 5SM OVC006 A2968 RMK MADISHF
OXC,2017-04-01 07:50,-73.1354,41.4741,M,M,M,50.00,11.00,M,29.68,M,6.00,21.00,OVC,M,M,M,600.00,M,M,M,M,KOXC 010750Z AUTO 05011G21KT 6SM OVC006 A2968 RMK MADISHF
OXC,2017-04-01 07:55,-73.1354,41.4741,33.80,28.40,80.36,50.00,13.00,0.01,29.67,M,5.00,21.00,OVC,M,M,M,600.00,M,M,M,M,KOXC 010755Z AUTO 05013G21KT 5SM OVC006 01/M02 A2967 RMK AO1 P0001
OXC,2017-04-01 08:00,-73.1354,41.4741,M,M,M,M,M,M,29.67,M,3.00,22.00,OVC,M,M,M,600.00,M,M,M,M,KOXC 010800Z AUTO /////G22KT 3SM OVC006 A2967 RMK MADISHF
OXC,2017-04-01 08:05,-73.1354,41.4741,M,M,M,M,M,M,29.66,M,3.00,23.00,OVC,M,M,M,600.00,M,M,M,M,KOXC 010805Z AUTO /////G23KT 3SM OVC006 A2966 RMK MADISHF
OXC,2017-04-01 08:10,-73.1354,41.4741,M,M,M,M,M,M,29.66,M,2.50,24.00,OVC,M,M,M,600.00,M,M,M,M,KOXC 010810Z AUTO /////G24KT 2 1/2SM OVC006 A2966 RMK MADISHF
OXC,2017-04-01 08:15,-73.1354,41.4741,33.80,28.40,80.36,60.00,14.00,0.00,29.66,M,2.00,24.00,OVC,M,M,M,600.00,M,M,M,M,KOXC 010815Z AUTO 06014G24KT 2SM OVC006 01/M02 A2966 RMK AO1
OXC,2017-04-01 08:20,-73.1354,41.4741,M,M,M,M,M,M,29.66,M,2.00,25.00,OVC,M,M,M,600.00,M,M,M,M,KOXC 010820Z AUTO /////G25KT 2SM OVC006 A2966 RMK MADISHF
OXC,2017-04-01 08:30,-73.1354,41.4741,M,M,M,M,M,M,29.67,M,2.00,26.00,OVC,M,M,M,600.00,M,M,M,M,KOXC 010830Z AUTO /////G26KT 2SM OVC006 A2967 RMK MADISHF
OXC,2017-04-01 08:35,-73.1354,41.4741,33.80,28.40,80.36,30.00,14.00,0.00,29.67,M,2.00,21.00,OVC,M,M,M,600.00,M,M,M,M,KOXC 010835Z AUTO 03014G21KT 2SM OVC006 01/M02 A2967 RMK AO1
OXC,2017-04-01 08:40,-73.1354,41.4741,M,M,M,M,M,M,29.67,M,2.00,20.00,OVC,M,M,M,600.00,M,M,M,M,KOXC 010840Z AUTO /////G20KT 2SM OVC006 A2967 RMK MADISHF
OXC,2017-04-01 08:45,-73.1354,41.4741,M,M,M,M,M,M,29.67,M,2.00,19.00,OVC,M,M,M,600.00,M,M,M,M,KOXC 010845Z AUTO /////G19KT 2SM OVC006 A2967 RMK MADISHF
OXC,2017-04-01 08:55,-73.1354,41.4741,33.80,28.40,80.36,50.00,14.00,0.01,29.67,M,2.00,25.00,OVC,M,M,M,600.00,M,M,M,M,KOXC 010855Z AUTO 05014G25KT 2SM OVC006 01/M02 A2967 RMK AO1 P0001 60003 57020
OXC,2017-04-01 09:00,-73.1354,41.4741,M,M,M,M,M,M,29.67,M,1.75,25.00,OVC,M,M,M,600.00,M,M,M,M,KOXC 010900Z AUTO /////G25KT 2SM OVC006 A2967 RMK MADISHF
OXC,2017-04-01 09:10,-73.1354,41.4741,M,M,M,50.00,11.00,M,29.68,M,1.75,21.00,OVC,M,M,M,800.00,M,M,M,M,KOXC 010910Z AUTO 05011G21KT 2SM OVC008 A2968 RMK MADISHF
OXC,2017-04-01 09:15,-73.1354,41.4741,33.80,28.40,80.36,50.00,15.00,0.00,29.68,M,2.00,20.00,OVC,M,M,M,800.00,M,M,M,M,KOXC 010915Z AUTO 05015G20KT 2SM OVC008 01/M02 A2968 RMK AO1
OXC,2017-04-01 09:20,-73.1354,41.4741,M,M,M,M,M,M,29.68,M,2.00,25.00,OVC,M,M,M,800.00,M,M,M,M,KOXC 010920Z AUTO /////G25KT 2SM OVC008 A2968 RMK MADISHF
OXC,2017-04-01 09:25,-73.1354,41.4741,M,M,M,M,M,M,29.68,M,2.50,26.00,OVC,M,M,M,800.00,M,M,M,M,KOXC 010925Z AUTO /////G26KT 2 1/2SM OVC008 A2968 RMK MADISHF
OXC,2017-04-01 09:30,-73.1354,41.4741,M,M,M,M,M,M,29.68,M,2.50,26.00,OVC,M,M,M,800.00,M,M,M,M,KOXC 010930Z AUTO /////G26KT 2 1/2SM OVC008 A2968 RMK MADISHF
OXC,2017-04-01 09:35,-73.1354,41.4741,33.80,28.40,80.36,40.00,12.00,0.00,29.68,M,2.50,19.00,OVC,M,M,M,800.00,M,M,M,M,KOXC 010935Z AUTO 04012G19KT 2 1/2SM OVC008 01/M02 A2968 RMK AO1
OXC,2017-04-01 09:45,-73.1354,41.4741,M,M,M,M,M,M,29.68,M,2.50,23.00,OVC,M,M,M,800.00,M,M,M,M,KOXC 010945Z AUTO /////G23KT 2 1/2SM OVC008 A2968 RMK MADISHF
OXC,2017-04-01 09:50,-73.1354,41.4741,M,M,M,40.00,13.00,M,29.68,M,2.50,20.00,BKN,OVC,M,M,800.00,1400.00,M,M,M,KOXC 010950Z AUTO 04013G20KT 2 1/2SM BKN008 OVC014 A2968 RMK MADISHF
OXC,2017-04-01 09:55,-73.1354,41.4741,33.80,28.40,80.36,40.00,15.00,0.00,29.68,M,2.00,23.00,OVC,M,M,M,800.00,M,M,M,M,KOXC 010955Z AUTO 04015G23KT 2SM OVC008 01/M02 A2968 RMK AO1
OXC,2017-04-01 10:00,-73.1354,41.4741,M,M,M,M,M,M,29.68,M,2.00,23.00,OVC,M,M,M,800.00,M,M,M,M,KOXC 011000Z AUTO /////G23KT 2SM OVC008 A2968 RMK MADISHF
OXC,2017-04-01 10:05,-73.1354,41.4741,M,M,M,40.00,11.00,M,29.69,M,2.00,23.00,OVC,M,M,M,800.00,M,M,M,M,KOXC 011005Z AUTO 04011G23KT 2SM OVC008 A2969 RMK MADISHF
OXC,2017-04-01 10:10,-73.1354,41.4741,M,M,M,M,M,M,29.69,M,1.75,21.00,OVC,M,M,M,800.00,M,M,M,M,KOXC 011010Z AUTO /////G21KT 2SM OVC008 A2969 RMK MADISHF
OXC,2017-04-01 10:15,-73.1354,41.4741,M,M,M,M,M,M,29.68,M,1.75,21.00,OVC,M,M,M,800.00,M,M,M,M,KOXC 011015Z AUTO /////G21KT 2SM OVC008 A2968 RMK MADISHF
OXC,2017-04-01 10:20,-73.1354,41.4741,M,M,M,M,M,M,29.68,M,2.00,21.00,OVC,M,M,M,800.00,M,M,M,M,KOXC 011020Z AUTO /////G21KT 2SM OVC008 A2968 RMK MADISHF
OXC,2017-04-01 10:25,-73.1354,41.4741,M,M,M,M,M,M,29.68,M,2.00,25.00,OVC,M,M,M,800.00,M,M,M,M,KOXC 011025Z AUTO /////G25KT 2SM OVC008 A2968 RMK MADISHF
OXC,2017-04-01 10:30,-73.1354,41.4741,M,M,M,40.00,13.00,M,29.69,M,2.00,25.00,BKN,OVC,M,M,800.00,1400.00,M,M,M,KOXC 011030Z AUTO 04013G25KT 2SM BKN008 OVC014 A2969 RMK MADISHF
OXC,2017-04-01 10:40,-73.1354,41.4741,M,M,M,M,M,M,29.69,M,2.50,26.00,BKN,OVC,M,M,800.00,1400.00,M,M,M,KOXC 011040Z AUTO /////G26KT 2 1/2SM BKN008 OVC014 A2969 RMK MADISHF
OXC,2017-04-01 10:50,-73.1354,41.4741,M,M,M,M,M,M,29.70,M,3.00,22.00,BKN,OVC,M,M,800.00,1400.00,M,M,M,KOXC 011050Z AUTO /////G22KT 3SM BKN008 OVC014 A2970 RMK MADISHF
OXC,2017-04-01 10:55,-73.1354,41.4741,M,M,M,M,M,M,29.70,M,3.00,22.00,BKN,OVC,M,M,800.00,1400.00,M,M,M,KOXC 011055Z AUTO /////G22KT 3SM BKN008 OVC014 A2970 RMK MADISHF
OXC,2017-04-01 11:00,-73.1354,41.4741,M,M,M,M,M,M,29.70,M,3.00,22.00,BKN,OVC,M,M,800.00,1400.00,M,M,M,KOXC 011100Z AUTO /////G22KT 3SM BKN008 OVC014 A2970 RMK MADISHF
OXC,2017-04-01 11:05,-73.1354,41.4741,M,M,M,M,M,M,29.70,M,3.00,22.00,BKN,OVC,M,M,800.00,1400.00,M,M,M,KOXC 011105Z AUTO /////G22KT 3SM BKN008 OVC014 A2970 RMK MADISHF
OXC,2017-04-01 11:10,-73.1354,41.4741,M,M,M,M,M,M,29.71,M,3.00,22.00,BKN,OVC,M,M,800.00,1400.00,M,M,M,KOXC 011110Z AUTO /////G22KT 3SM BKN008 OVC014 A2971 RMK MADISHF
OXC,2017-04-01 11:15,-73.1354,41.4741,M,M,M,M,M,M,29.71,M,3.00,21.00,BKN,OVC,M,M,800.00,1400.00,M,M,M,KOXC 011115Z AUTO /////G21KT 3SM BKN008 OVC014 A2971 RMK MADISHF
OXC,2017-04-01 11:20,-73.1354,41.4741,M,M,M,M,M,M,29.71,M,4.00,23.00,BKN,OVC,M,M,800.00,1400.00,M,M,M,KOXC 011120Z AUTO /////G23KT 4SM BKN008 OVC014 A2971 RMK MADISHF
OXC,2017-04-01 11:30,-73.1354,41.4741,M,M,M,M,M,M,29.71,M,3.00,27.00,BKN,OVC,M,M,800.00,1600.00,M,M,M,KOXC 011130Z AUTO /////G27KT 3SM BKN008 OVC016 A2971 RMK MADISHF
OXC,2017-04-01 11:35,-73.1354,41.4741,M,M,M,M,M,M,29.71,M,4.00,26.00,BKN,OVC,M,M,800.00,1600.00,M,M,M,KOXC 011135Z AUTO /////G26KT 4SM BKN008 OVC016 A2971 RMK MADISHF
OXC,2017-04-01 11:40,-73.1354,41.4741,M,M,M,M,M,M,29.71,M,3.00,24.00,BKN,OVC,M,M,800.00,1600.00,M,M,M,KOXC 011140Z AUTO /////G24KT 3SM BKN008 OVC016 A2971 RMK MADISHF
OXC,2017-04-01 11:45,-73.1354,41.4741,M,M,M,M,M,M,29.71,M,3.00,25.00,BKN,OVC,M,M,800.00,1600.00,M,M,M,KOXC 011145Z AUTO /////G25KT 3SM BKN008 OVC016 A2971 RMK MADISHF
OXC,2017-04-01 11:50,-73.1354,41.4741,M,M,M,M,M,M,29.72,M,3.00,27.00,SCT,BKN,OVC,M,800.00,1600.00,3600.00,M,M,KOXC 011150Z AUTO /////G27KT 3SM SCT008 BKN016 OVC036 A2972 RMK MADISHF
OXC,2017-04-01 11:55,-73.1354,41.4741,M,M,M,M,M,M,29.72,M,3.00,27.00,SCT,BKN,OVC,M,800.00,1600.00,3600.00,M,M,KOXC 011155Z AUTO /////G27KT 3SM SCT008 BKN016 OVC036 A2972 RMK MADISHF
OXC,2017-04-01 12:00,-73.1354,41.4741,M,M,M,M,M,M,29.72,M,3.00,22.00,SCT,BKN,OVC,M,800.00,1600.00,3600.00,M,M,KOXC 011200Z AUTO /////G22KT 3SM SCT008 BKN016 OVC036 A2972 RMK MADISHF
OXC,2017-04-01 12:10,-73.1354,41.4741,M,M,M,M,M,M,29.72,M,3.00,22.00,SCT,BKN,OVC,M,800.00,1800.00,3600.00,M,M,KOXC 011210Z AUTO /////G22KT 3SM SCT008 BKN018 OVC036 A2972 RMK MADISHF
OXC,2017-04-01 12:15,-73.1354,41.4741,M,M,M,M,M,M,29.73,M,4.00,26.00,SCT,OVC,M,M,800.00,1600.00,M,M,M,KOXC 011215Z AUTO /////G26KT 4SM SCT008 OVC016 A2973 RMK MADISHF
OXC,2017-04-01 12:20,-73.1354,41.4741,M,M,M,M,M,M,29.72,M,4.00,26.00,SCT,OVC,M,M,800.00,1600.00,M,M,M,KOXC 011220Z AUTO /////G26KT 4SM SCT008 OVC016 A2972 RMK MADISHF
OXC,2017-04-01 12:25,-73.1354,41.4741,M,M,M,M,M,M,29.73,M,3.00,26.00,SCT,OVC,M,M,999.00,1600.00,M,M,M,KOXC 011225Z AUTO /////G26KT 3SM SCT009 OVC016 A2973 RMK MADISHF
OXC,2017-04-01 12:30,-73.1354,41.4741,M,M,M,M,M,M,29.73,M,3.00,25.00,SCT,OVC,M,M,999.00,1600.00,M,M,M,KOXC 011230Z AUTO /////G25KT 3SM SCT009 OVC016 A2973 RMK MADISHF
OXC,2017-04-01 12:35,-73.1354,41.4741,M,M,M,M,M,M,29.73,M,3.00,26.00,SCT,OVC,M,M,999.00,1600.00,M,M,M,KOXC 011235Z AUTO /////G26KT 3SM SCT009 OVC016 A2973 RMK MADISHF
OXC,2017-04-01 12:40,-73.1354,41.4741,M,M,M,M,M,M,29.73,M,3.00,26.00,SCT,OVC,M,M,999.00,1600.00,M,M,M,KOXC 011240Z AUTO /////G26KT 3SM SCT009 OVC016 A2973 RMK MADISHF
OXC,2017-04-01 12:50,-73.1354,41.4741,M,M,M,M,M,M,29.73,M,5.00,25.00,SCT,OVC,M,M,999.00,1800.00,M,M,M,KOXC 011250Z AUTO /////G25KT 5SM SCT009 OVC018 A2973 RMK MADISHF
OXC,2017-04-01 12:55,-73.1354,41.4741,M,M,M,M,M,M,29.73,M,6.00,24.00,SCT,BKN,OVC,M,999.00,1800.00,3100.00,M,M,KOXC 011255Z AUTO /////G24KT 6SM SCT009 BKN018 OVC031 A2973 RMK MADISHF
OXC,2017-04-01 13:00,-73.1354,41.4741,M,M,M,M,M,M,29.73,M,6.00,25.00,SCT,BKN,OVC,M,999.00,1800.00,3100.00,M,M,KOXC 011300Z AUTO /////G25KT 6SM SCT009 BKN018 OVC031 A2973 RMK MADISHF
OXC,2017-04-01 13:05,-73.1354,41.4741,M,M,M,M,M,M,29.73,M,5.00,25.00,SCT,BKN,OVC,M,999.00,1800.00,3900.00,M,M,KOXC 011305Z AUTO /////G25KT 5SM SCT009 BKN018 OVC039 A2973 RMK MADISHF
OXC,2017-04-01 13:10,-73.1354,41.4741,M,M,M,M,M,M,29.73,M,5.00,24.00,FEW,SCT,BKN,M,999.00,1400.00,1800.00,M,M,KOXC 011310Z AUTO /////G24KT 5SM FEW009 SCT014 BKN018 A2973 RMK MADISHF
OXC,2017-04-01 13:15,-73.1354,41.4741,M,M,M,M,M,M,29.73,M,5.00,25.00,SCT,BKN,OVC,M,1200.00,1800.00,2400.00,M,M,KOXC 011315Z AUTO /////G25KT 5SM SCT012 BKN018 OVC024 A2973 RMK MADISHF
OXC,2017-04-01 13:20,-73.1354,41.4741,M,M,M,M,M,M,29.73,M,7.00,25.00,SCT,BKN,OVC,M,1200.00,1800.00,3900.00,M,M,KOXC 011320Z AUTO /////G25KT 7SM SCT012 BKN018 OVC039 A2973 RMK MADISHF
OXC,2017-04-01 13:25,-73.1354,41.4741,M,M,M,M,M,M,29.73,M,9.00,28.00,SCT,BKN,OVC,M,1200.00,1800.00,3900.00,M,M,KOXC 011325Z AUTO /////G28KT 9SM SCT012 BKN018 OVC039 A2973 RMK WND 36V06  MADISHF
OXC,2017-04-01 13:30,-73.1354,41.4741,M,M,M,M,M,M,29.73,M,9.00,28.00,SCT,BKN,OVC,M,1200.00,1800.00,4100.00,M,M,KOXC 011330Z AUTO /////G28KT 9SM SCT012 BKN018 OVC041 A2973 RMK MADISHF
OXC,2017-04-01 13:35,-73.1354,41.4741,M,M,M,M,M,M,29.73,M,10.00,26.00,FEW,BKN,OVC,M,1200.00,1800.00,4100.00,M,M,KOXC 011335Z AUTO /////G26KT 10SM FEW012 BKN018 OVC041 A2973 RMK MADISHF
OXC,2017-04-01 13:40,-73.1354,41.4741,M,M,M,M,M,M,29.74,M,10.00,27.00,FEW,BKN,OVC,M,1200.00,1800.00,4100.00,M,M,KOXC 011340Z AUTO /////G27KT 10SM FEW012 BKN018 OVC041 A2974 RMK MADISHF
OXC,2017-04-01 13:45,-73.1354,41.4741,M,M,M,M,M,M,29.74,M,9.00,27.00,FEW,BKN,OVC,M,1200.00,1800.00,4100.00,M,M,KOXC 011345Z AUTO /////G27KT 9SM FEW012 BKN018 OVC041 A2974 RMK MADISHF
OXC,2017-04-01 13:50,-73.1354,41.4741,M,M,M,30.00,17.00,M,29.74,M,9.00,27.00,FEW,BKN,OVC,M,1200.00,1800.00,4100.00,M,M,KOXC 011350Z AUTO 03017G27KT 9SM FEW012 BKN018 OVC041 A2974 RMK MADISHF
OXC,2017-04-01 13:55,-73.1354,41.4741,M,M,M,M,M,M,29.75,M,10.00,27.00,FEW,BKN,OVC,M,1200.00,1800.00,4100.00,M,M,KOXC 011355Z AUTO /////G27KT 10SM FEW012 BKN018 OVC041 A2975 RMK MADISHF
OXC,2017-04-01 14:00,-73.1354,41.4741,M,M,M,M,M,M,29.75,M,10.00,25.00,FEW,BKN,OVC,M,1200.00,1800.00,4100.00,M,M,KOXC 011400Z AUTO /////G25KT 10SM FEW012 BKN018 OVC041 A2975 RMK MADISHF
OXC,2017-04-01 14:05,-73.1354,41.4741,M,M,M,M,M,M,29.76,M,10.00,24.00,FEW,BKN,OVC,M,1200.00,1800.00,3700.00,M,M,KOXC 011405Z AUTO /////G24KT 10SM FEW012 BKN018 OVC037 A2976 RMK MADISHF
OXC,2017-04-01 14:10,-73.1354,41.4741,M,M,M,M,M,M,29.76,M,10.00,24.00,SCT,BKN,OVC,M,1200.00,1800.00,4200.00,M,M,KOXC 011410Z AUTO /////G24KT 10SM SCT012 BKN018 OVC042 A2976 RMK WND 35V06  MADISHF
OXC,2017-04-01 14:15,-73.1354,41.4741,M,M,M,M,M,M,29.76,M,10.00,23.00,SCT,OVC,M,M,1200.00,1800.00,M,M,M,KOXC 011415Z AUTO /////G23KT 10SM SCT012 OVC018 A2976 RMK WND 34V04  MADISHF
OXC,2017-04-01 14:20,-73.1354,41.4741,M,M,M,M,M,M,29.77,M,10.00,23.00,BKN,OVC,M,M,1500.00,1999.00,M,M,M,KOXC 011420Z AUTO /////G23KT 10SM BKN015 OVC019 A2977 RMK MADISHF
OXC,2017-04-01 14:25,-73.1354,41.4741,M,M,M,M,M,M,29.77,M,10.00,23.00,SCT,OVC,M,M,1300.00,1999.00,M,M,M,KOXC 011425Z AUTO /////G23KT 10SM SCT013 OVC019 A2977 RMK MADISHF
OXC,2017-04-01 14:30,-73.1354,41.4741,M,M,M,M,M,M,29.77,M,10.00,22.00,BKN,OVC,M,M,1300.00,1999.00,M,M,M,KOXC 011430Z AUTO /////G22KT 10SM BKN013 OVC019 A2977 RMK MADISHF
OXC,2017-04-01 14:35,-73.1354,41.4741,M,M,M,M,M,M,29.77,M,10.00,24.00,BKN,OVC,M,M,1300.00,1999.00,M,M,M,KOXC 011435Z AUTO /////G24KT 10SM BKN013 OVC019 A2977 RMK MADISHF
OXC,2017-04-01 14:40,-73.1354,41.4741,M,M,M,M,M,M,29.78,M,9.00,24.00,BKN,OVC,M,M,1300.00,1999.00,M,M,M,KOXC 011440Z AUTO /////G24KT 9SM BKN013 OVC019 A2978 RMK MADISHF
OXC,2017-04-01 14:45,-73.1354,41.4741,M,M,M,M,M,M,29.78,M,9.00,24.00,BKN,BKN,OVC,M,1300.00,1999.00,2500.00,M,M,KOXC 011445Z AUTO /////G24KT 9SM BKN013 BKN019 OVC025 A2978 RMK MADISHF
OXC,2017-04-01 14:50,-73.1354,41.4741,M,M,M,20.00,17.00,M,29.78,M,9.00,24.00,BKN,OVC,M,M,1300.00,1800.00,M,M,M,KOXC 011450Z AUTO 02017G24KT 9SM BKN013 OVC018 A2978 RMK MADISHF
OXC,2017-04-01 14:55,-73.1354,41.4741,M,M,M,M,M,M,29.78,M,10.00,22.00,BKN,OVC,M,M,1300.00,1800.00,M,M,M,KOXC 011455Z AUTO /////G22KT 10SM BKN013 OVC018 A2978 RMK MADISHF
OXC,2017-04-01 15:00,-73.1354,41.4741,M,M,M,M,M,M,29.78,M,10.00,22.00,SCT,OVC,M,M,1300.00,2100.00,M,M,M,KOXC 011500Z AUTO /////G22KT 10SM SCT013 OVC021 A2978 RMK MADISHF
OXC,2017-04-01 15:05,-73.1354,41.4741,M,M,M,M,M,M,29.78,M,10.00,22.00,SCT,OVC,M,M,1300.00,2100.00,M,M,M,KOXC 011505Z AUTO /////G22KT 10SM SCT013 OVC021 A2978 RMK MADISHF
OXC,2017-04-01 15:10,-73.1354,41.4741,M,M,M,M,M,M,29.79,M,10.00,21.00,SCT,OVC,M,M,1300.00,2100.00,M,M,M,KOXC 011510Z AUTO /////G21KT 10SM SCT013 OVC021 A2979 RMK MADISHF
OXC,2017-04-01 15:15,-73.1354,41.4741,M,M,M,M,M,M,29.78,M,10.00,M,BKN,OVC,M,M,1600.00,2100.00,M,M,M,KOXC 011515Z AUTO /////KT 10SM BKN016 OVC021 A2978 RMK MADISHF
OXC,2017-04-01 15:20,-73.1354,41.4741,M,M,M,M,M,M,29.78,M,10.00,23.00,BKN,OVC,M,M,1600.00,2100.00,M,M,M,KOXC 011520Z AUTO /////G23KT 10SM BKN016 OVC021 A2978 RMK MADISHF
OXC,2017-04-01 15:25,-73.1354,41.4741,M,M,M,M,M,M,29.78,M,10.00,26.00,BKN,OVC,M,M,1600.00,2300.00,M,M,M,KOXC 011525Z AUTO /////G26KT 10SM BKN016 OVC023 A2978 RMK MADISHF
OXC,2017-04-01 15:30,-73.1354,41.4741,M,M,M,M,M,M,29.78,M,10.00,26.00,BKN,OVC,M,M,1600.00,2300.00,M,M,M,KOXC 011530Z AUTO /////G26KT 10SM BKN016 OVC023 A2978 RMK MADISHF
OXC,2017-04-01 15:35,-73.1354,41.4741,M,M,M,M,M,M,29.79,M,10.00,25.00,BKN,OVC,M,M,1600.00,2300.00,M,M,M,KOXC 011535Z AUTO /////G25KT 10SM BKN016 OVC023 A2979 RMK MADISHF
OXC,2017-04-01 15:40,-73.1354,41.4741,M,M,M,M,M,M,29.79,M,10.00,25.00,BKN,OVC,M,M,1600.00,2300.00,M,M,M,KOXC 011540Z AUTO /////G25KT 10SM BKN016 OVC023 A2979 RMK MADISHF
OXC,2017-04-01 15:45,-73.1354,41.4741,M,M,M,M,M,M,29.79,M,10.00,25.00,BKN,OVC,M,M,1800.00,2300.00,M,M,M,KOXC 011545Z AUTO /////G25KT 10SM BKN018 OVC023 A2979 RMK MADISHF
OXC,2017-04-01 15:50,-73.1354,41.4741,M,M,M,20.00,18.00,M,29.79,M,10.00,24.00,BKN,OVC,M,M,1800.00,2300.00,M,M,M,KOXC 011550Z AUTO 02018G24KT 10SM BKN018 OVC023 A2979 RMK MADISHF
OXC,2017-04-01 15:55,-73.1354,41.4741,M,M,M,M,M,M,29.79,M,10.00,24.00,BKN,OVC,M,M,1800.00,2500.00,M,M,M,KOXC 011555Z AUTO /////G24KT 10SM BKN018 OVC025 A2979 RMK MADISHF
OXC,2017-04-01 16:00,-73.1354,41.4741,M,M,M,M,M,M,29.79,M,10.00,26.00,BKN,OVC,M,M,1800.00,2500.00,M,M,M,KOXC 011600Z AUTO /////G26KT 10SM BKN018 OVC025 A2979 RMK MADISHF
OXC,2017-04-01 16:05,-73.1354,41.4741,M,M,M,M,M,M,29.79,M,10.00,26.00,BKN,OVC,M,M,1800.00,2500.00,M,M,M,KOXC 011605Z AUTO /////G26KT 10SM BKN018 OVC025 A2979 RMK MADISHF
OXC,2017-04-01 16:10,-73.1354,41.4741,M,M,M,M,M,M,29.79,M,10.00,23.00,BKN,OVC,M,M,2100.00,2500.00,M,M,M,KOXC 011610Z AUTO /////G23KT 10SM BKN021 OVC025 A2979 RMK MADISHF
OXC,2017-04-01 16:15,-73.1354,41.4741,M,M,M,M,M,M,29.79,M,10.00,24.00,BKN,OVC,M,M,2100.00,2700.00,M,M,M,KOXC 011615Z AUTO /////G24KT 10SM BKN021 OVC027 A2979 RMK MADISHF
OXC,2017-04-01 16:20,-73.1354,41.4741,M,M,M,M,M,M,29.79,M,10.00,25.00,BKN,OVC,M,M,2100.00,2700.00,M,M,M,KOXC 011620Z AUTO /////G25KT 10SM BKN021 OVC027 A2979 RMK MADISHF
OXC,2017-04-01 16:25,-73.1354,41.4741,M,M,M,M,M,M,29.79,M,10.00,25.00,BKN,OVC,M,M,2100.00,2900.00,M,M,M,KOXC 011625Z AUTO /////G25KT 10SM BKN021 OVC029 A2979 RMK MADISHF
OXC,2017-04-01 16:30,-73.1354,41.4741,M,M,M,M,M,M,29.79,M,10.00,24.00,BKN,OVC,M,M,2100.00,2900.00,M,M,M,KOXC 011630Z AUTO /////G24KT 10SM BKN021 OVC029 A2979 RMK MADISHF
OXC,2017-04-01 16:35,-73.1354,41.4741,M,M,M,M,M,M,29.79,M,10.00,24.00,BKN,OVC,M,M,2100.00,2900.00,M,M,M,KOXC 011635Z AUTO /////G24KT 10SM BKN021 OVC029 A2979 RMK MADISHF
OXC,2017-04-01 16:40,-73.1354,41.4741,M,M,M,M,M,M,29.79,M,10.00,26.00,BKN,OVC,M,M,2100.00,2900.00,M,M,M,KOXC 011640Z AUTO /////G26KT 10SM BKN021 OVC029 A2979 RMK MADISHF
OXC,2017-04-01 16:45,-73.1354,41.4741,M,M,M,M,M,M,29.79,M,10.00,31.00,BKN,OVC,M,M,2100.00,3100.00,M,M,M,KOXC 011645Z AUTO /////G31KT 10SM BKN021 OVC031 A2979 RMK MADISHF
OXC,2017-04-01 16:50,-73.1354,41.4741,M,M,M,30.00,19.00,M,29.79,M,10.00,31.00,SCT,BKN,OVC,M,2100.00,2900.00,3500.00,M,M,KOXC 011650Z AUTO 03019G31KT 10SM SCT021 BKN029 OVC035 A2979 RMK MADISHF
OXC,2017-04-01 16:55,-73.1354,41.4741,M,M,M,M,M,M,29.80,M,10.00,28.00,SCT,OVC,M,M,2100.00,3200.00,M,M,M,KOXC 011655Z AUTO /////G28KT 10SM SCT021 OVC032 A2980 RMK MADISHF
OXC,2017-04-01 17:00,-73.1354,41.4741,M,M,M,M,M,M,29.80,M,10.00,28.00,SCT,BKN,OVC,M,2300.00,2900.00,3399.00,M,M,KOXC 011700Z AUTO /////G28KT 10SM SCT023 BKN029 OVC033 A2980 RMK WND 36V07  MADISHF
OXC,2017-04-01 17:05,-73.1354,41.4741,M,M,M,M,M,M,29.80,M,10.00,27.00,SCT,OVC,M,M,2300.00,3200.00,M,M,M,KOXC 011705Z AUTO /////G27KT 10SM SCT023 OVC032 A2980 RMK MADISHF
OXC,2017-04-01 17:10,-73.1354,41.4741,M,M,M,M,M,M,29.81,M,10.00,27.00,SCT,OVC,M,M,2300.00,3200.00,M,M,M,KOXC 011710Z AUTO /////G27KT 10SM SCT023 OVC032 A2981 RMK MADISHF
OXC,2017-04-01 17:15,-73.1354,41.4741,M,M,M,30.00,12.00,M,29.81,M,10.00,21.00,SCT,OVC,M,M,2300.00,3000.00,M,M,M,KOXC 011715Z AUTO 03012G21KT 10SM SCT023 OVC030 A2981 RMK MADISHF
OXC,2017-04-01 17:20,-73.1354,41.4741,M,M,M,M,M,M,29.81,M,10.00,25.00,SCT,OVC,M,M,2300.00,3200.00,M,M,M,KOXC 011720Z AUTO /////G25KT 10SM SCT023 OVC032 A2981 RMK MADISHF
OXC,2017-04-01 17:25,-73.1354,41.4741,M,M,M,M,M,M,29.82,M,10.00,25.00,BKN,OVC,M,M,2300.00,3200.00,M,M,M,KOXC 011725Z AUTO /////G25KT 10SM BKN023 OVC032 A2982 RMK MADISHF
OXC,2017-04-01 17:30,-73.1354,41.4741,M,M,M,M,M,M,29.82,M,10.00,23.00,BKN,OVC,M,M,2300.00,3000.00,M,M,M,KOXC 011730Z AUTO /////G23KT 10SM BKN023 OVC030 A2982 RMK WND 35V05  MADISHF
OXC,2017-04-01 17:35,-73.1354,41.4741,M,M,M,M,M,M,29.82,M,10.00,21.00,BKN,OVC,M,M,2300.00,3000.00,M,M,M,KOXC 011735Z AUTO /////G21KT 10SM BKN023 OVC030 A2982 RMK MADISHF
OXC,2017-04-01 17:40,-73.1354,41.4741,M,M,M,M,M,M,29.82,M,10.00,24.00,BKN,OVC,M,M,2300.00,3000.00,M,M,M,KOXC 011740Z AUTO /////G24KT 10SM BKN023 OVC030 A2982 RMK MADISHF
OXC,2017-04-01 17:45,-73.1354,41.4741,M,M,M,M,M,M,29.82,M,10.00,27.00,BKN,OVC,M,M,2300.00,3000.00,M,M,M,KOXC 011745Z AUTO /////G27KT 10SM BKN023 OVC030 A2982 RMK MADISHF
OXC,2017-04-01 17:50,-73.1354,41.4741,M,M,M,M,M,M,29.82,M,10.00,27.00,BKN,OVC,M,M,2300.00,3000.00,M,M,M,KOXC 011750Z AUTO /////G27KT 10SM BKN023 OVC030 A2982 RMK MADISHF
OXC,2017-04-01 17:55,-73.1354,41.4741,M,M,M,M,M,M,29.82,M,10.00,25.00,BKN,OVC,M,M,2300.00,3000.00,M,M,M,KOXC 011755Z AUTO /////G25KT 10SM BKN023 OVC030 A2982 RMK MADISHF
OXC,2017-04-01 18:00,-73.1354,41.4741,M,M,M,M,M,M,29.82,M,10.00,25.00,BKN,OVC,M,M,2300.00,3000.00,M,M,M,KOXC 011800Z AUTO /////G25KT 10SM BKN023 OVC030 A2982 RMK MADISHF
OXC,2017-04-01 18:05,-73.1354,41.4741,M,M,M,30.00,17.00,M,29.82,M,10.00,24.00,BKN,OVC,M,M,2300.00,3000.00,M,M,M,KOXC 011805Z AUTO 03017G24KT 10SM BKN023 OVC030 A2982 RMK MADISHF
OXC,2017-04-01 18:10,-73.1354,41.4741,M,M,M,M,M,M,29.82,M,10.00,23.00,BKN,OVC,M,M,2300.00,3000.00,M,M,M,KOXC 011810Z AUTO /////G23KT 10SM BKN023 OVC030 A2982 RMK MADISHF
OXC,2017-04-01 18:15,-73.1354,41.4741,M,M,M,M,M,M,29.81,M,10.00,21.00,SCT,OVC,M,M,2300.00,3000.00,M,M,M,KOXC 011815Z AUTO /////G21KT 10SM SCT023 OVC030 A2981 RMK MADISHF
OXC,2017-04-01 18:20,-73.1354,41.4741,M,M,M,M,M,M,29.81,M,10.00,21.00,SCT,OVC,M,M,2300.00,3200.00,M,M,M,KOXC 011820Z AUTO /////G21KT 10SM SCT023 OVC032 A2981 RMK MADISHF
OXC,2017-04-01 18:25,-73.1354,41.4741,M,M,M,M,M,M,29.81,M,10.00,23.00,SCT,BKN,OVC,M,2300.00,3000.00,3399.00,M,M,KOXC 011825Z AUTO /////G23KT 10SM SCT023 BKN030 OVC033 A2981 RMK MADISHF
OXC,2017-04-01 18:30,-73.1354,41.4741,M,M,M,10.00,19.00,M,29.81,M,10.00,23.00,FEW,BKN,OVC,M,2300.00,3000.00,4500.00,M,M,KOXC 011830Z AUTO 01019G23KT 10SM FEW023 BKN030 OVC045 A2981 RMK MADISHF
OXC,2017-04-01 18:35,-73.1354,41.4741,M,M,M,M,M,M,29.81,M,10.00,24.00,FEW,BKN,OVC,M,2100.00,3000.00,3500.00,M,M,KOXC 011835Z AUTO /////G24KT 10SM FEW021 BKN030 OVC035 A2981 RMK MADISHF
OXC,2017-04-01 18:40,-73.1354,41.4741,M,M,M,M,M,M,29.81,M,10.00,25.00,SCT,OVC,M,M,2100.00,3300.00,M,M,M,KOXC 011840Z AUTO /////G25KT 10SM SCT021 OVC033 A2981 RMK MADISHF
OXC,2017-04-01 18:45,-73.1354,41.4741,M,M,M,M,M,M,29.81,M,10.00,28.00,BKN,BKN,OVC,M,2100.00,3000.00,3500.00,M,M,KOXC 011845Z AUTO /////G28KT 10SM BKN021 BKN030 OVC035 A2981 RMK MADISHF
OXC,2017-04-01 18:50,-73.1354,41.4741,M,M,M,10.00,19.00,M,29.82,M,10.00,28.00,BKN,BKN,OVC,M,2100.00,3000.00,3500.00,M,M,KOXC 011850Z AUTO 01019G28KT 10SM BKN021 BKN030 OVC035 A2982 RMK MADISHF
OXC,2017-04-01 18:55,-73.1354,41.4741,M,M,M,M,M,M,29.82,M,10.00,24.00,SCT,BKN,OVC,M,2100.00,3000.00,3500.00,M,M,KOXC 011855Z AUTO /////G24KT 10SM SCT021 BKN030 OVC035 A2982 RMK MADISHF
OXC,2017-04-01 19:00,-73.1354,41.4741,M,M,M,M,M,M,29.82,M,10.00,30.00,SCT,BKN,OVC,M,2100.00,2600.00,3200.00,M,M,KOXC 011900Z AUTO /////G30KT 10SM SCT021 BKN026 OVC032 A2982 RMK MADISHF
OXC,2017-04-01 19:05,-73.1354,41.4741,M,M,M,M,M,M,29.83,M,10.00,30.00,SCT,BKN,OVC,M,2100.00,2900.00,3399.00,M,M,KOXC 011905Z AUTO /////G30KT 10SM SCT021 BKN029 OVC033 A2983 RMK MADISHF
OXC,2017-04-01 19:10,-73.1354,41.4741,M,M,M,M,M,M,29.83,M,10.00,23.00,SCT,BKN,OVC,M,2100.00,2600.00,3200.00,M,M,KOXC 011910Z AUTO /////G23KT 10SM SCT021 BKN026 OVC032 A2983 RMK MADISHF
OXC,2017-04-01 19:15,-73.1354,41.4741,M,M,M,M,M,M,29.83,M,10.00,24.00,SCT,BKN,OVC,M,2100.00,2800.00,3200.00,M,M,KOXC 011915Z AUTO /////G24KT 10SM SCT021 BKN028 OVC032 A2983 RMK MADISHF
OXC,2017-04-01 19:20,-73.1354,41.4741,M,M,M,M,M,M,29.84,M,10.00,24.00,BKN,OVC,M,M,2100.00,3200.00,M,M,M,KOXC 011920Z AUTO /////G24KT 10SM BKN021 OVC032 A2984 RMK MADISHF
OXC,2017-04-01 19:25,-73.1354,41.4741,M,M,M,M,M,M,29.84,M,10.00,24.00,BKN,BKN,OVC,M,2100.00,2700.00,3399.00,M,M,KOXC 011925Z AUTO /////G24KT 10SM BKN021 BKN027 OVC033 A2984 RMK MADISHF
OXC,2017-04-01 19:30,-73.1354,41.4741,M,M,M,M,M,M,29.85,M,10.00,21.00,BKN,OVC,M,M,2100.00,2700.00,M,M,M,KOXC 011930Z AUTO /////G21KT 10SM BKN021 OVC027 A2985 RMK MADISHF
OXC,2017-04-01 19:35,-73.1354,41.4741,M,M,M,M,M,M,29.86,M,10.00,22.00,BKN,OVC,M,M,2100.00,2700.00,M,M,M,KOXC 011935Z AUTO /////G22KT 10SM BKN021 OVC027 A2986 RMK MADISHF
OXC,2017-04-01 19:40,-73.1354,41.4741,M,M,M,360.00,12.00,M,29.86,M,10.00,22.00,BKN,OVC,M,M,2100.00,2900.00,M,M,M,KOXC 011940Z AUTO 36012G22KT 10SM BKN021 OVC029 A2986 RMK MADISHF
OXC,2017-04-01 19:45,-73.1354,41.4741,M,M,M,M,M,M,29.86,M,10.00,22.00,BKN,OVC,M,M,2100.00,2900.00,M,M,M,KOXC 011945Z AUTO /////G22KT 10SM BKN021 OVC029 A2986 RMK MADISHF
OXC,2017-04-01 19:50,-73.1354,41.4741,M,M,M,M,M,M,29.87,M,10.00,22.00,BKN,OVC,M,M,2100.00,2600.00,M,M,M,KOXC 011950Z AUTO /////G22KT 10SM BKN021 OVC026 A2987 RMK MADISHF
OXC,2017-04-01 19:55,-73.1354,41.4741,M,M,M,M,M,M,29.86,M,10.00,22.00,BKN,OVC,M,M,2100.00,2700.00,M,M,M,KOXC 011955Z AUTO /////G22KT 10SM BKN021 OVC027 A2986 RMK MADISHF
OXC,2017-04-01 20:00,-73.1354,41.4741,M,M,M,M,M,M,29.87,M,10.00,24.00,BKN,OVC,M,M,2300.00,3000.00,M,M,M,KOXC 012000Z AUTO /////G24KT 10SM BKN023 OVC030 A2987 RMK MADISHF
OXC,2017-04-01 20:05,-73.1354,41.4741,M,M,M,M,M,M,29.87,M,10.00,24.00,BKN,BKN,OVC,M,2500.00,3000.00,3999.00,M,M,KOXC 012005Z AUTO /////G24KT 10SM BKN025 BKN030 OVC039 A2987 RMK MADISHF
OXC,2017-04-01 20:10,-73.1354,41.4741,M,M,M,M,M,M,29.87,M,10.00,19.00,SCT,BKN,OVC,M,2200.00,2800.00,3999.00,M,M,KOXC 012010Z AUTO /////G19KT 10SM SCT022 BKN028 OVC039 A2987 RMK MADISHF
OXC,2017-04-01 20:15,-73.1354,41.4741,M,M,M,M,M,M,29.87,M,9.00,19.00,FEW,BKN,OVC,M,1999.00,2800.00,3999.00,M,M,KOXC 012015Z AUTO /////G19KT 9SM FEW019 BKN028 OVC039 A2987 RMK MADISHF
OXC,2017-04-01 20:20,-73.1354,41.4741,M,M,M,M,M,M,29.87,M,7.00,19.00,FEW,BKN,OVC,M,1999.00,2800.00,4200.00,M,M,KOXC 012020Z AUTO /////G19KT 7SM FEW019 BKN028 OVC042 A2987 RMK MADISHF
OXC,2017-04-01 20:25,-73.1354,41.4741,M,M,M,M,M,M,29.88,M,6.00,M,FEW,SCT,BKN,M,1800.00,2700.00,3600.00,M,M,KOXC 012025Z AUTO /////KT 6SM FEW018 SCT027 BKN036 A2988 RMK MADISHF
OXC,2017-04-01 20:30,-73.1354,41.4741,M,M,M,350.00,14.00,M,29.88,M,7.00,19.00,FEW,SCT,BKN,M,1800.00,2600.00,3800.00,M,M,KOXC 012030Z AUTO 35014G19KT 7SM FEW018 SCT026 BKN038 A2988 RMK MADISHF
OXC,2017-04-01 20:35,-73.1354,41.4741,M,M,M,M,M,M,29.89,M,9.00,21.00,SCT,BKN,OVC,M,1800.00,3100.00,4300.00,M,M,KOXC 012035Z AUTO /////G21KT 9SM SCT018 BKN031 OVC043 A2989 RMK MADISHF
OXC,2017-04-01 20:40,-73.1354,41.4741,M,M,M,M,M,M,29.89,M,7.00,21.00,FEW,SCT,BKN,M,1800.00,2500.00,3100.00,M,M,KOXC 012040Z AUTO /////G21KT 7SM FEW018 SCT025 BKN031 A2989 RMK MADISHF
OXC,2017-04-01 20:45,-73.1354,41.4741,M,M,M,M,M,M,29.89,M,5.00,M,FEW,SCT,BKN,M,1999.00,2500.00,3500.00,M,M,KOXC 012045Z AUTO /////KT 5SM FEW019 SCT025 BKN035 A2989 RMK MADISHF
OXC,2017-04-01 20:50,-73.1354,41.4741,M,M,M,360.00,17.00,M,29.90,M,5.00,21.00,SCT,BKN,OVC,M,1999.00,2500.00,4400.00,M,M,KOXC 012050Z AUTO 36017G21KT 5SM SCT019 BKN025 OVC044 A2990 RMK MADISHF
OXC,2017-04-01 20:55,-73.1354,41.4741,M,M,M,M,M,M,29.90,M,8.00,21.00,FEW,BKN,OVC,M,1800.00,2500.00,4600.00,M,M,KOXC 012055Z AUTO /////G21KT 8SM FEW018 BKN025 OVC046 A2990 RMK MADISHF
OXC,2017-04-01 21:00,-73.1354,41.4741,M,M,M,M,M,M,29.90,M,10.00,18.00,FEW,SCT,BKN,M,1999.00,2500.00,3500.00,M,M,KOXC 012100Z AUTO /////G18KT 10SM FEW019 SCT025 BKN035 A2990 RMK MADISHF
OXC,2017-04-01 21:05,-73.1354,41.4741,M,M,M,M,M,M,29.90,M,10.00,18.00,SCT,BKN,OVC,M,1999.00,3500.00,4400.00,M,M,KOXC 012105Z AUTO /////G18KT 10SM SCT019 BKN035 OVC044 A2990 RMK MADISHF
OXC,2017-04-01 21:10,-73.1354,41.4741,M,M,M,M,M,M,29.90,M,10.00,21.00,FEW,SCT,BKN,M,1699.00,2400.00,3500.00,M,M,KOXC 012110Z AUTO /////G21KT 10SM FEW016 SCT024 BKN035 A2990 RMK MADISHF
OXC,2017-04-01 21:15,-73.1354,41.4741,M,M,M,M,M,M,29.90,M,10.00,21.00,SCT,BKN,OVC,M,1800.00,2300.00,4800.00,M,M,KOXC 012115Z AUTO /////G21KT 10SM SCT018 BKN023 OVC048 A2990 RMK MADISHF
OXC,2017-04-01 21:20,-73.1354,41.4741,M,M,M,M,M,M,29.90,M,10.00,20.00,SCT,BKN,OVC,M,1800.00,2200.00,4800.00,M,M,KOXC 012120Z AUTO /////G20KT 10SM SCT018 BKN022 OVC048 A2990 RMK MADISHF
OXC,2017-04-01 21:25,-73.1354,41.4741,M,M,M,M,M,M,29.90,M,10.00,20.00,SCT,BKN,OVC,M,1800.00,3399.00,7500.00,M,M,KOXC 012125Z AUTO /////G20KT 10SM SCT018 BKN033 OVC075 A2990 RMK MADISHF
OXC,2017-04-01 21:30,-73.1354,41.4741,M,M,M,10.00,17.00,M,29.90,M,10.00,20.00,SCT,BKN,OVC,M,1999.00,5000.00,7500.00,M,M,KOXC 012130Z AUTO 01017G20KT 10SM SCT019 BKN050 OVC075 A2990 RMK MADISHF
OXC,2017-04-01 21:35,-73.1354,41.4741,M,M,M,M,M,M,29.91,M,10.00,20.00,FEW,SCT,BKN,M,1800.00,3000.00,6000.00,M,M,KOXC 012135Z AUTO /////G20KT 10SM FEW018 SCT030 BKN060 A2991 RMK MADISHF
OXC,2017-04-01 21:40,-73.1354,41.4741,M,M,M,M,M,M,29.91,M,10.00,23.00,FEW,BKN,OVC,M,1800.00,2600.00,7500.00,M,M,KOXC 012140Z AUTO /////G23KT 10SM FEW018 BKN026 OVC075 A2991 RMK MADISHF
OXC,2017-04-01 21:45,-73.1354,41.4741,M,M,M,M,M,M,29.92,M,10.00,23.00,SCT,BKN,OVC,M,1999.00,2600.00,7500.00,M,M,KOXC 012145Z AUTO /////G23KT 10SM SCT019 BKN026 OVC075 A2992 RMK MADISHF
OXC,2017-04-01 21:50,-73.1354,41.4741,M,M,M,M,M,M,29.92,M,10.00,23.00,FEW,SCT,BKN,M,1999.00,2600.00,3300.00,M,M,KOXC 012150Z AUTO /////G23KT 10SM FEW019 SCT026 BKN033 A2992 RMK MADISHF
OXC,2017-04-01 21:55,-73.1354,41.4741,M,M,M,360.00,12.00,M,29.92,M,10.00,M,FEW,SCT,BKN,M,1800.00,2600.00,3500.00,M,M,KOXC 012155Z AUTO 36012KT 10SM FEW018 SCT026 BKN035 A2992 RMK MADISHF
OXC,2017-04-01 22:00,-73.1354,41.4741,M,M,M,M,M,M,29.92,M,10.00,18.00,FEW,SCT,OVC,M,1800.00,2600.00,3500.00,M,M,KOXC 012200Z AUTO /////G18KT 10SM FEW018 SCT026 OVC035 A2992 RMK MADISHF
OXC,2017-04-01 22:05,-73.1354,41.4741,M,M,M,M,M,M,29.92,M,10.00,19.00,FEW,FEW,OVC,M,1800.00,2600.00,3500.00,M,M,KOXC 012205Z AUTO /////G19KT 10SM FEW018 FEW026 OVC035 A2992 RMK MADISHF
OXC,2017-04-01 22:10,-73.1354,41.4741,M,M,M,M,M,M,29.93,M,10.00,19.00,FEW,OVC,M,M,1800.00,3500.00,M,M,M,KOXC 012210Z AUTO /////G19KT 10SM FEW018 OVC035 A2993 RMK MADISHF
OXC,2017-04-01 22:15,-73.1354,41.4741,M,M,M,M,M,M,29.93,M,10.00,19.00,BKN,OVC,M,M,3500.00,4900.00,M,M,M,KOXC 012215Z AUTO /////G19KT 10SM BKN035 OVC049 A2993 RMK MADISHF
OXC,2017-04-01 22:20,-73.1354,41.4741,M,M,M,M,M,M,29.93,M,10.00,M,FEW,BKN,OVC,M,2600.00,3500.00,4900.00,M,M,KOXC 012220Z AUTO /////KT 10SM FEW026 BKN035 OVC049 A2993 RMK MADISHF
OXC,2017-04-01 22:25,-73.1354,41.4741,M,M,M,M,M,M,29.93,M,7.00,M,FEW,SCT,BKN,M,1800.00,2600.00,3500.00,M,M,KOXC 012225Z AUTO /////KT 7SM FEW018 SCT026 BKN035 A2993 RMK MADISHF
OXC,2017-04-01 22:30,-73.1354,41.4741,M,M,M,M,M,M,29.94,M,4.00,M,SCT,BKN,OVC,M,1800.00,2400.00,3500.00,M,M,KOXC 012230Z AUTO /////KT 4SM SCT018 BKN024 OVC035 A2994 RMK MADISHF
OXC,2017-04-01 22:35,-73.1354,41.4741,M,M,M,360.00,10.00,M,29.94,M,4.00,M,FEW,BKN,OVC,M,1200.00,1600.00,4900.00,M,M,KOXC 012235Z AUTO 36010KT 4SM FEW012 BKN016 OVC049 A2994 RMK MADISHF
OXC,2017-04-01 22:40,-73.1354,41.4741,M,M,M,M,M,M,29.95,M,7.00,15.00,SCT,BKN,OVC,M,1600.00,2600.00,4800.00,M,M,KOXC 012240Z AUTO /////G15KT 7SM SCT016 BKN026 OVC048 A2995 RMK MADISHF
OXC,2017-04-01 22:45,-73.1354,41.4741,M,M,M,M,M,M,29.95,M,9.00,15.00,SCT,BKN,OVC,M,1600.00,2100.00,4800.00,M,M,KOXC 012245Z AUTO /////G15KT 9SM SCT016 BKN021 OVC048 A2995 RMK MADISHF
OXC,2017-04-01 22:50,-73.1354,41.4741,M,M,M,360.00,11.00,M,29.95,M,8.00,M,SCT,BKN,OVC,M,1600.00,2100.00,4800.00,M,M,KOXC 012250Z AUTO 36011KT 8SM SCT016 BKN021 OVC048 A2995 RMK MADISHF
OXC,2017-04-01 22:55,-73.1354,41.4741,M,M,M,360.00,10.00,M,29.95,M,9.00,M,FEW,SCT,BKN,M,1400.00,1999.00,2600.00,M,M,KOXC 012255Z AUTO 36010KT 9SM FEW014 SCT019 BKN026 A2995 RMK MADISHF
OXC,2017-04-01 23:00,-73.1354,41.4741,M,M,M,M,M,M,29.95,M,10.00,M,FEW,SCT,OVC,M,1400.00,2600.00,4900.00,M,M,KOXC 012300Z AUTO /////KT 10SM FEW014 SCT026 OVC049 A2995 RMK MADISHF
OXC,2017-04-01 23:05,-73.1354,41.4741,M,M,M,M,M,M,29.95,M,10.00,21.00,FEW,SCT,OVC,M,1800.00,4200.00,4900.00,M,M,KOXC 012305Z AUTO /////G21KT 10SM FEW018 SCT042 OVC049 A2995 RMK MADISHF
OXC,2017-04-01 23:10,-73.1354,41.4741,M,M,M,M,M,M,29.95,M,10.00,21.00,FEW,SCT,OVC,M,1699.00,4400.00,4900.00,M,M,KOXC 012310Z AUTO /////G21KT 10SM FEW016 SCT044 OVC049 A2995 RMK MADISHF
OXC,2017-04-01 23:15,-73.1354,41.4741,M,M,M,M,M,M,29.95,M,10.00,M,FEW,SCT,BKN,M,2400.00,4400.00,5000.00,M,M,KOXC 012315Z AUTO /////KT 10SM FEW024 SCT044 BKN050 A2995 RMK MADISHF
OXC,2017-04-01 23:20,-73.1354,41.4741,M,M,M,M,M,M,29.95,M,10.00,M,FEW,BKN,OVC,M,4400.00,5000.00,7999.00,M,M,KOXC 012320Z AUTO /////KT 10SM FEW044 BKN050 OVC079 A2995 RMK MADISHF
OXC,2017-04-01 23:25,-73.1354,41.4741,M,M,M,M,M,M,29.95,M,10.00,M,FEW,SCT,OVC,M,4400.00,5000.00,7999.00,M,M,KOXC 012325Z AUTO /////KT 10SM FEW044 SCT050 OVC079 A2995 RMK MADISHF
OXC,2017-04-01 23:30,-73.1354,41.4741,M,M,M,M,M,M,29.95,M,10.00,M,FEW,SCT,OVC,M,4400.00,5000.00,7999.00,M,M,KOXC 012330Z AUTO /////KT 10SM FEW044 SCT050 OVC079 A2995 RMK MADISHF
OXC,2017-04-01 23:35,-73.1354,41.4741,M,M,M,M,M,M,29.96,M,10.00,M,FEW,OVC,M,M,4400.00,7999.00,M,M,M,KOXC 012335Z AUTO /////KT 10SM FEW044 OVC079 A2996 RMK MADISHF
OXC,2017-04-01 23:40,-73.1354,41.4741,M,M,M,M,M,M,29.96,M,10.00,M,FEW,BKN,OVC,M,4400.00,7000.00,7999.00,M,M,KOXC 012340Z AUTO /////KT 10SM FEW044 BKN070 OVC079 A2996 RMK MADISHF
OXC,2017-04-01 23:45,-73.1354,41.4741,M,M,M,360.00,12.00,M,29.96,M,10.00,M,FEW,BKN,OVC,M,4100.00,7000.00,7999.00,M,M,KOXC 012345Z AUTO 36012KT 10SM FEW041 BKN070 OVC079 A2996 RMK MADISHF
OXC,2017-04-01 23:50,-73.1354,41.4741,M,M,M,360.00,11.00,M,29.97,M,10.00,M,FEW,SCT,OVC,M,1800.00,4100.00,7000.00,M,M,KOXC 012350Z AUTO 36011KT 10SM FEW018 SCT041 OVC070 A2997 RMK MADISHF
OXC,2017-04-01 23:55,-73.1354,41.4741,M,M,M,360.00,11.00,M,29.97,M,10.00,M,SCT,BKN,OVC,M,1800.00,4100.00,7000.00,M,M,KOXC 012355Z AUTO 36011KT 10SM SCT018 BKN041 OVC070 A2997 RMK MADISHF
