#DEBUG: Format Typ    -> comma
#DEBUG: Time Period   -> 2017-04-01 00:00:00+00:00 2017-04-02 00:00:00+00:00
#DEBUG: Time Zone     -> Etc/UTC
#DEBUG: Data Contact   -> daryl herzmann akrherz@iastate.edu 515-294-5978
#DEBUG: Entries Found -> -1
station,valid,lon,lat,tmpf, dwpf, relh, drct, sknt, p01i, alti, mslp, vsby, gust, skyc1, skyc2, skyc3, skyc4, skyl1, skyl2, skyl3, skyl4, presentwx, metar
OZR,2017-04-01 00:26,-85.7134,31.2758,71.60,50.00,46.43,0.00,0.00,0.00,29.88,1011.90,10.00,M,CLR,M,M,M,M,M,M,M,M,KOZR 010026Z AUTO 00000KT 10SM CLR 22/10 A2988 RMK AO2 SLP119
OZR,2017-04-01 00:56,-85.7134,31.2758,70.20,51.10,50.73,300.00,3.00,0.00,29.88,1011.90,10.00,M,CLR,M,M,M,M,M,M,M,M,KOZR 010056Z AUTO 30003KT 10SM CLR 21/11 A2988 RMK AO2 SLP119 T02120106
OZR,2017-04-01 01:28,-85.7134,31.2758,68.00,51.80,56.13,300.00,3.00,0.00,29.90,1012.60,10.00,M,CLR,M,M,M,M,M,M,M,M,KOZR 010128Z AUTO 30003KT 10SM CLR 20/11 A2990 RMK AO2 SLP126
OZR,2017-04-01 01:56,-85.7134,31.2758,67.10,52.70,59.85,290.00,4.00,0.00,29.91,1012.90,10.00,M,CLR,M,M,M,M,M,M,M,M,KOZR 010156Z AUTO 29004KT 10SM CLR 20/12 A2991 RMK AO2 SLP129 T01950115
OZR,2017-04-01 02:54,-85.7134,31.2758,66.20,51.80,59.74,310.00,4.00,0.00,29.93,1013.60,10.00,M,CLR,M,M,M,M,M,M,M,M,KOZR 010254Z AUTO 31004KT 10SM CLR 19/11 A2993 RMK AO2 SLP136
OZR,2017-04-01 02:56,-85.7134,31.2758,66.20,52.30,60.85,310.00,4.00,0.00,29.93,1013.60,10.00,M,CLR,M,M,M,M,M,M,M,M,KOZR 010256Z AUTO 31004KT 10SM CLR 19/11 A2993 RMK AO2 SLP136 T01900113 52022
OZR,2017-04-01 03:56,-85.7134,31.2758,61.30,52.20,71.98,0.00,0.00,0.00,29.94,1013.90,10.00,M,CLR,M,M,M,M,M,M,M,M,KOZR 010356Z AUTO 00000KT 10SM CLR 16/11 A2994 RMK AO2 SLP139 T01630112
OZR,2017-04-01 04:56,-85.7134,31.2758,57.60,53.10,84.91,0.00,0.00,0.00,29.94,1013.90,10.00,M,CLR,M,M,M,M,M,M,M,M,KOZR 010456Z AUTO 00000KT 10SM CLR 14/12 A2994 RMK AO2 SLP139 T01420117
OZR,2017-04-01 05:56,-85.7134,31.2758,57.20,52.30,83.65,0.00,0.00,0.00,29.94,1013.90,10.00,M,CLR,M,M,M,M,M,M,M,M,KOZR 010556Z AUTO 00000KT 10SM CLR 14/11 A2994 RMK AO2 SLP139 T01400113 10231 20136 402660136 50005
OZR,2017-04-01 06:56,-85.7134,31.2758,55.80,52.90,89.96,0.00,0.00,0.00,29.95,1014.30,10.00,M,CLR,M,M,M,M,M,M,M,M,KOZR 010656Z AUTO 00000KT 10SM CLR 13/12 A2995 RMK AO2 SLP143 T01320116
OZR,2017-04-01 07:56,-85.7134,31.2758,54.10,52.20,93.27,0.00,0.00,0.00,29.96,1014.60,10.00,M,CLR,M,M,M,M,M,M,M,M,KOZR 010756Z AUTO 00000KT 10SM CLR 12/11 A2996 RMK AO2 SLP146 T01230112
OZR,2017-04-01 08:56,-85.7134,31.2758,53.60,51.30,91.88,0.00,0.00,0.00,29.97,1015.00,10.00,M,CLR,M,M,M,M,M,M,M,M,KOZR 010856Z AUTO 00000KT 10SM CLR 12/11 A2997 RMK AO2 SLP150 T01200107 52009
OZR,2017-04-01 09:56,-85.7134,31.2758,50.90,49.30,94.22,0.00,0.00,0.00,29.98,1015.30,10.00,M,CLR,M,M,M,M,M,M,M,M,KOZR 010956Z AUTO 00000KT 10SM CLR 11/10 A2998 RMK AO2 SLP153 T01050096
OZR,2017-04-01 10:42,-85.7134,31.2758,51.80,50.00,93.55,0.00,0.00,0.00,30.00,1016.00,10.00,M,CLR,M,M,M,M,M,M,M,M,KOZR 011042Z AUTO 00000KT 10SM CLR 11/10 A3000 RMK AO2 SLP160
OZR,2017-04-01 10:56,-85.7134,31.2758,50.20,48.20,92.81,0.00,0.00,0.00,30.00,1016.00,10.00,M,CLR,M,M,M,M,M,M,M,M,KOZR 011056Z AUTO 00000KT 10SM CLR 10/09 A3000 RMK AO2 SLP160 T01010090
OZR,2017-04-01 11:20,-85.7134,31.2758,50.00,48.20,93.50,40.00,3.00,0.00,30.02,1016.70,10.00,M,CLR,M,M,M,M,M,M,M,M,KOZR 011120Z AUTO 04003KT 10SM CLR 10/09 A3002 RMK AO2 SLP167
OZR,2017-04-01 11:56,-85.7134,31.2758,51.80,49.30,91.14,0.00,0.00,0.00,30.03,1017.00,10.00,M,CLR,M,M,M,M,M,M,M,M,KOZR 011156Z AUTO 00000KT 10SM CLR 11/10 A3003 RMK AO2 SLP170 T01100096 10140 20098 52020
OZR,2017-04-01 12:33,-85.7134,31.2758,55.40,51.80,87.65,0.00,0.00,0.00,30.05,1017.70,10.00,M,CLR,M,M,M,M,M,M,M,M,KOZR 011233Z AUTO 00000KT 10SM CLR 13/11 A3005 RMK AO2 SLP177
OZR,2017-04-01 12:56,-85.7134,31.2758,58.80,52.70,80.15,20.00,3.00,0.00,30.05,1017.70,10.00,M,CLR,M,M,M,M,M,M,M,M,KOZR 011256Z AUTO 02003KT 10SM CLR 15/12 A3005 RMK AO2 SLP177 T01490115
OZR,2017-04-01 13:52,-85.7134,31.2758,64.40,53.60,67.95,50.00,6.00,0.00,30.07,1018.30,10.00,M,CLR,M,M,M,M,M,M,M,M,KOZR 011352Z AUTO 05006KT 10SM CLR 18/12 A3007 RMK AO2 SLP183
OZR,2017-04-01 13:56,-85.7134,31.2758,64.80,52.30,63.88,50.00,5.00,0.00,30.07,1018.30,10.00,M,CLR,M,M,M,M,M,M,M,M,KOZR 011356Z AUTO 05005KT 10SM CLR 18/11 A3007 RMK AO2 SLP183 T01820113
OZR,2017-04-01 14:56,-85.7134,31.2758,70.30,52.90,54.02,50.00,4.00,0.00,30.07,1018.30,10.00,M,CLR,M,M,M,M,M,M,M,M,KOZR 011456Z AUTO 05004KT 10SM CLR 21/12 A3007 RMK AO2 SLP183 T02130116 52014
OZR,2017-04-01 15:56,-85.7134,31.2758,74.10,50.20,43.00,0.00,0.00,0.00,30.07,1018.30,10.00,M,CLR,M,M,M,M,M,M,M,M,KOZR 011556Z AUTO 00000KT 10SM CLR 23/10 A3007 RMK AO2 SLP183 T02340101
OZR,2017-04-01 16:56,-85.7134,31.2758,77.00,49.50,38.03,0.00,0.00,0.00,30.06,1018.00,10.00,M,CLR,M,M,M,M,M,M,M,M,KOZR 011656Z AUTO 00000KT 10SM CLR 25/10 A3006 RMK AO2 SLP180 T02500097
OZR,2017-04-01 17:56,-85.7134,31.2758,78.80,49.60,35.97,240.00,3.00,0.00,30.05,1017.60,10.00,M,CLR,M,M,M,M,M,M,M,M,KOZR 011756Z AUTO 24003KT 10SM CLR 26/10 A3005 RMK AO2 SLP176 T02600098 10260 20109 58006
OZR,2017-04-01 18:38,-85.7134,31.2758,80.60,48.20,32.18,330.00,7.00,0.00,30.03,1017.00,10.00,M,CLR,M,M,M,M,M,M,M,M,KOZR 011838Z AUTO 33007KT 10SM CLR 27/09 A3003 RMK AO2 SLP170
OZR,2017-04-01 18:56,-85.7134,31.2758,81.00,48.40,32.00,40.00,3.00,0.00,30.03,1017.00,10.00,M,CLR,M,M,M,M,M,M,M,M,KOZR 011856Z AUTO 04003KT 10SM CLR 27/09 A3003 RMK AO2 SLP170 T02720091
OZR,2017-04-01 19:32,-85.7134,31.2758,82.40,44.60,26.49,260.00,4.00,0.00,30.01,1016.30,10.00,M,CLR,M,M,M,M,M,M,M,M,KOZR 011932Z AUTO 26004KT 10SM CLR 28/07 A3001 RMK AO2 SLP163
OZR,2017-04-01 19:56,-85.7134,31.2758,82.40,46.00,27.93,0.00,0.00,0.00,30.01,1016.30,10.00,M,CLR,M,M,M,M,M,M,M,M,KOZR 011956Z AUTO 00000KT 10SM CLR 28/08 A3001 RMK AO2 SLP163 T02800078
OZR,2017-04-01 20:25,-85.7134,31.2758,82.40,48.20,30.35,350.00,8.00,0.00,29.99,1015.60,10.00,M,CLR,M,M,M,M,M,M,M,M,KOZR 012025Z AUTO 35008KT 10SM CLR 28/09 A2999 RMK AO2 SLP156
OZR,2017-04-01 20:56,-85.7134,31.2758,83.80,48.20,29.00,240.00,5.00,0.00,29.99,1015.60,10.00,M,CLR,M,M,M,M,M,M,M,M,KOZR 012056Z AUTO 24005KT 10SM CLR 29/09 A2999 RMK AO2 SLP156 T02880090 57019
OZR,2017-04-01 21:56,-85.7134,31.2758,83.10,47.50,28.90,330.00,3.00,0.00,30.00,1016.00,10.00,M,CLR,M,M,M,M,M,M,M,M,KOZR 012156Z AUTO 33003KT 10SM CLR 28/09 A3000 RMK AO2 SLP160 T02840086
OZR,2017-04-01 22:56,-85.7134,31.2758,82.00,47.50,29.95,300.00,4.00,0.00,30.00,1016.00,10.00,M,CLR,M,M,M,M,M,M,M,M,KOZR 012256Z AUTO 30004KT 10SM CLR 28/09 A3000 RMK AO2 SLP160 T02780086
OZR,2017-04-01 23:56,-85.7134,31.2758,78.10,49.60,36.81,340.00,3.00,0.00,30.01,1016.30,10.00,M,CLR,M,M,M,M,M,M,M,M,KOZR 012356Z AUTO 34003KT 10SM CLR 26/10 A3001 RMK AO2 SLP163 T02560098 10289 20256 53003
