#DEBUG: Format Typ    -> comma
#DEBUG: Time Period   -> 2017-04-01 00:00:00+00:00 2017-04-02 00:00:00+00:00
#DEBUG: Time Zone     -> Etc/UTC
#DEBUG: Data Contact   -> daryl herzmann akrherz@iastate.edu 515-294-5978
#DEBUG: Entries Found -> -1
station,valid,lon,lat,tmpf, dwpf, relh, drct, sknt, p01i, alti, mslp, vsby, gust, skyc1, skyc2, skyc3, skyc4, skyl1, skyl2, skyl3, skyl4, presentwx, metar
P69,2017-04-01 00:52,-115.5964,46.1442,52.00,45.00,76.94,0.00,0.00,0.00,30.19,1023.00,M,M,M,M,M,M,M,M,M,M,M,KP69 010052Z AUTO 00000KT 11/07 A3019 RMK AO1 SLP230 T01110072 $
P69,2017-04-01 01:52,-115.5964,46.1442,48.90,44.10,83.42,10.00,3.00,0.00,30.20,1023.40,M,M,M,M,M,M,M,M,M,M,M,KP69 010152Z AUTO 01003KT 09/07 A3020 RMK AO1 SLP234 T00940067 $
P69,2017-04-01 02:52,-115.5964,46.1442,46.00,41.00,82.58,0.00,0.00,0.00,30.21,1024.10,M,M,M,M,M,M,M,M,M,M,M,KP69 010252Z AUTO 00000KT 08/05 A3021 RMK AO1 SLP241 T00780050 53005 $
P69,2017-04-01 03:52,-115.5964,46.1442,45.00,41.00,85.77,0.00,0.00,0.00,30.23,1024.80,M,M,M,M,M,M,M,M,M,M,M,KP69 010352Z AUTO 00000KT 07/05 A3023 RMK AO1 SLP248 T00720050 $
P69,2017-04-01 04:52,-115.5964,46.1442,44.10,41.00,88.77,0.00,0.00,0.00,30.24,1025.00,M,M,M,M,M,M,M,M,M,M,M,KP69 010452Z AUTO 00000KT 07/05 A3024 RMK AO1 SLP250 T00670050 $
P69,2017-04-01 05:52,-115.5964,46.1442,43.00,39.90,88.71,0.00,0.00,0.00,30.25,1024.90,M,M,M,M,M,M,M,M,M,M,M,KP69 010552Z AUTO 00000KT 06/04 A3025 RMK AO1 SLP249 T00610044 10122 20061 51011 $
P69,2017-04-01 06:52,-115.5964,46.1442,43.00,39.00,85.66,310.00,3.00,0.00,30.23,1024.40,M,M,M,M,M,M,M,M,M,M,M,KP69 010652Z AUTO 31003KT 06/04 A3023 RMK AO1 SLP244 T00610039 $
P69,2017-04-01 07:52,-115.5964,46.1442,43.00,39.00,85.66,0.00,0.00,0.00,30.25,1024.80,M,M,M,M,M,M,M,M,M,M,M,KP69 010752Z AUTO 00000KT 06/04 A3025 RMK AO1 SLP248 T00610039 401500050 $
P69,2017-04-01 08:52,-115.5964,46.1442,43.00,39.00,85.66,0.00,0.00,0.00,30.25,1024.70,M,M,M,M,M,M,M,M,M,M,M,KP69 010852Z AUTO 00000KT 06/04 A3025 RMK AO1 SLP247 T00610039 53002 $
P69,2017-04-01 09:52,-115.5964,46.1442,42.10,39.00,88.67,330.00,3.00,0.00,30.22,1023.90,M,M,M,M,M,M,M,M,M,M,M,KP69 010952Z AUTO 33003KT 06/04 A3022 RMK AO1 SLP239 T00560039 $
P69,2017-04-01 10:52,-115.5964,46.1442,42.10,39.00,88.67,0.00,0.00,0.00,30.20,1023.00,M,M,M,M,M,M,M,M,M,M,M,KP69 011052Z AUTO 00000KT 06/04 A3020 RMK AO1 SLP230 T00560039 $
P69,2017-04-01 11:52,-115.5964,46.1442,41.00,39.00,92.52,10.00,3.00,0.00,30.18,1022.70,M,M,M,M,M,M,M,M,M,M,M,KP69 011152Z AUTO 01003KT 05/04 A3018 RMK AO1 SLP227 7//// T00500039 10067 20050 56022 $
P69,2017-04-01 12:52,-115.5964,46.1442,39.90,37.00,89.27,330.00,4.00,0.00,30.21,1023.70,M,M,M,M,M,M,M,M,M,M,M,KP69 011252Z AUTO 33004KT 04/03 A3021 RMK AO1 PRESRR SLP237 T00440028 $
P69,2017-04-01 13:52,-115.5964,46.1442,39.00,37.00,92.45,0.00,0.00,0.00,30.23,1024.60,M,M,M,M,M,M,M,M,M,M,M,KP69 011352Z AUTO 00000KT 04/03 A3023 RMK AO1 SLP246 T00390028 $
P69,2017-04-01 14:52,-115.5964,46.1442,41.00,37.90,88.62,0.00,0.00,0.00,30.22,1024.20,M,M,M,M,M,M,M,M,M,M,M,KP69 011452Z AUTO 00000KT 05/03 A3022 RMK AO1 SLP242 T00500033 50011 $
P69,2017-04-01 15:52,-115.5964,46.1442,43.00,37.90,82.04,350.00,3.00,0.00,30.21,1023.90,M,M,M,M,M,M,M,M,M,M,M,KP69 011552Z AUTO 35003KT 06/03 A3021 RMK AO1 SLP239 T00610033 $
P69,2017-04-01 16:52,-115.5964,46.1442,51.10,39.90,65.38,0.00,0.00,0.00,30.18,1022.60,M,M,M,M,M,M,M,M,M,M,M,KP69 011652Z AUTO 00000KT 11/04 A3018 RMK AO1 SLP226 T01060044 $
P69,2017-04-01 17:52,-115.5964,46.1442,55.00,39.00,54.70,360.00,3.00,0.00,30.15,1021.20,M,M,M,M,M,M,M,M,M,M,M,KP69 011752Z AUTO 36003KT 13/04 A3015 RMK AO1 SLP212 T01280039 10128 20039 58023 $
P69,2017-04-01 18:52,-115.5964,46.1442,60.10,39.00,45.53,0.00,0.00,0.00,30.08,1018.60,M,M,M,M,M,M,M,M,M,M,M,KP69 011852Z AUTO 00000KT 16/04 A3008 RMK AO1 PRESFR SLP186 T01560039 $
P69,2017-04-01 19:52,-115.5964,46.1442,61.00,41.00,47.66,10.00,3.00,0.00,30.07,1018.10,M,M,M,M,M,M,M,M,M,M,M,KP69 011952Z AUTO 01003KT 16/05 A3007 RMK AO1 SLP181 T01610050 $
P69,2017-04-01 20:52,-115.5964,46.1442,60.10,45.00,57.37,360.00,3.00,0.00,30.06,1017.80,M,M,M,M,M,M,M,M,M,M,M,KP69 012052Z AUTO 36003KT 16/07 A3006 RMK AO1 SLP178 T01560072 56029 $
P69,2017-04-01 21:52,-115.5964,46.1442,60.10,46.90,61.65,0.00,0.00,0.00,30.04,1017.50,M,M,M,M,M,M,M,M,M,M,M,KP69 012152Z AUTO 00000KT 16/08 A3004 RMK AO1 SLP175 T01560083 $
P69,2017-04-01 22:52,-115.5964,46.1442,55.90,46.90,71.69,0.00,0.00,0.00,30.04,1017.50,M,M,M,M,M,M,M,M,M,M,M,KP69 012252Z AUTO 00000KT 13/08 A3004 RMK AO1 SLP175 T01330083 $
P69,2017-04-01 23:52,-115.5964,46.1442,55.00,46.90,74.08,0.00,0.00,0.00,30.05,1018.20,M,M,M,M,M,M,M,M,M,M,M,KP69 012352Z AUTO 00000KT 13/08 A3005 RMK AO1 SLP182 T01280083 10172 20128 55001 $
