#DEBUG: Format Typ    -> comma
#DEBUG: Time Period   -> 2017-04-01 00:00:00+00:00 2017-04-02 00:00:00+00:00
#DEBUG: Time Zone     -> Etc/UTC
#DEBUG: Data Contact   -> daryl herzmann akrherz@iastate.edu 515-294-5978
#DEBUG: Entries Found -> -1
station,valid,lon,lat,tmpf, dwpf, relh, drct, sknt, p01i, alti, mslp, vsby, gust, skyc1, skyc2, skyc3, skyc4, skyl1, skyl2, skyl3, skyl4, presentwx, metar
PADK,2017-04-01 00:00,-176.6460,51.8780,M,M,M,360.00,8.00,M,29.77,M,10.00,M,FEW,BKN,OVC,M,3300.00,4800.00,6000.00,M,M,PADK 010000Z AUTO 36008KT 10SM FEW033 BKN048 OVC060 A2977 RMK MADISHF
PADK,2017-04-01 00:05,-176.6460,51.8780,M,M,M,10.00,9.00,M,29.77,M,10.00,M,FEW,SCT,BKN,M,3300.00,3900.00,4800.00,M,M,PADK 010005Z AUTO 01009KT 10SM FEW033 SCT039 BKN048 A2977 RMK MADISHF
PADK,2017-04-01 00:10,-176.6460,51.8780,M,M,M,360.00,7.00,M,29.77,M,10.00,M,FEW,SCT,OVC,M,3300.00,4600.00,5500.00,M,M,PADK 010010Z AUTO 36007KT 10SM FEW033 SCT046 OVC055 A2977 RMK MADISHF
PADK,2017-04-01 00:15,-176.6460,51.8780,M,M,M,10.00,10.00,M,29.77,M,10.00,M,FEW,BKN,OVC,M,3300.00,5000.00,5500.00,M,M,PADK 010015Z AUTO 01010KT 10SM FEW033 BKN050 OVC055 A2977 RMK MADISHF
PADK,2017-04-01 00:16,-176.6460,51.8780,33.80,17.60,51.04,360.00,10.00,0.00,29.77,M,10.00,M,FEW,BKN,OVC,M,3300.00,5000.00,5500.00,M,M,PADK 010016Z AUTO 36010KT 10SM FEW033 BKN050 OVC055 01/M08 A2977 RMK AO1
PADK,2017-04-01 00:20,-176.6460,51.8780,M,M,M,10.00,10.00,M,29.77,M,10.00,M,FEW,SCT,OVC,M,3000.00,5000.00,5500.00,M,M,PADK 010020Z AUTO 01010KT 10SM FEW030 SCT050 OVC055 A2977 RMK MADISHF
PADK,2017-04-01 00:25,-176.6460,51.8780,M,M,M,10.00,9.00,M,29.77,M,10.00,M,FEW,OVC,M,M,3500.00,5000.00,M,M,M,PADK 010025Z AUTO 01009KT 10SM FEW035 OVC050 A2977 RMK MADISHF
PADK,2017-04-01 00:30,-176.6460,51.8780,M,M,M,10.00,8.00,M,29.77,M,10.00,M,FEW,OVC,M,M,4200.00,5000.00,M,M,M,PADK 010030Z AUTO 01008KT 10SM FEW042 OVC050 A2977 RMK MADISHF
PADK,2017-04-01 00:35,-176.6460,51.8780,M,M,M,20.00,8.00,M,29.78,M,10.00,M,OVC,M,M,M,6000.00,M,M,M,M,PADK 010035Z AUTO 02008KT 10SM OVC060 A2978 RMK MADISHF
PADK,2017-04-01 00:36,-176.6460,51.8780,33.80,17.60,51.04,20.00,8.00,0.00,29.78,M,10.00,M,OVC,M,M,M,6000.00,M,M,M,M,PADK 010036Z AUTO 02008KT 10SM OVC060 01/M08 A2978 RMK AO1
PADK,2017-04-01 00:40,-176.6460,51.8780,M,M,M,30.00,9.00,M,29.78,M,10.00,M,FEW,OVC,M,M,2800.00,6000.00,M,M,M,PADK 010040Z AUTO 03009KT 10SM FEW028 OVC060 A2978 RMK MADISHF
PADK,2017-04-01 00:45,-176.6460,51.8780,M,M,M,30.00,7.00,M,29.78,M,9.00,M,FEW,SCT,OVC,M,3000.00,4100.00,6000.00,M,M,PADK 010045Z AUTO 03007KT 9SM FEW030 SCT041 OVC060 A2978 RMK MADISHF
PADK,2017-04-01 00:50,-176.6460,51.8780,M,M,M,40.00,7.00,M,29.78,M,7.00,M,FEW,SCT,BKN,M,2400.00,3000.00,5000.00,M,M,PADK 010050Z AUTO 04007KT 7SM FEW024 SCT030 BKN050 A2978 RMK MADISHF
PADK,2017-04-01 00:56,-176.6460,51.8780,32.00,21.20,63.99,20.00,7.00,0.00,29.78,M,4.00,M,FEW,SCT,BKN,M,2400.00,3200.00,3900.00,M,M,PADK 010056Z AUTO 02007KT 4SM FEW024 SCT032 BKN039 00/M06 A2978 RMK AO1
PADK,2017-04-01 01:00,-176.6460,51.8780,M,M,M,20.00,5.00,M,29.78,M,3.00,M,FEW,SCT,BKN,M,1400.00,2400.00,3200.00,M,M,PADK 010100Z AUTO 02005KT 3SM FEW014 SCT024 BKN032 A2978 RMK MADISHF
PADK,2017-04-01 01:05,-176.6460,51.8780,M,M,M,20.00,5.00,M,29.78,M,3.00,M,SCT,BKN,OVC,M,1400.00,2300.00,5000.00,M,M,PADK 010105Z AUTO 02005KT 3SM SCT014 BKN023 OVC050 A2978 RMK MADISHF
PADK,2017-04-01 01:10,-176.6460,51.8780,M,M,M,30.00,5.00,M,29.78,M,5.00,M,FEW,SCT,BKN,M,1400.00,2200.00,3200.00,M,M,PADK 010110Z AUTO 03005KT 5SM FEW014 SCT022 BKN032 A2978 RMK MADISHF
PADK,2017-04-01 01:15,-176.6460,51.8780,M,M,M,40.00,6.00,M,29.78,M,10.00,M,FEW,SCT,BKN,M,1400.00,2400.00,3000.00,M,M,PADK 010115Z AUTO 04006KT 10SM FEW014 SCT024 BKN030 A2978 RMK MADISHF
PADK,2017-04-01 01:16,-176.6460,51.8780,33.80,19.40,55.14,40.00,6.00,0.00,29.78,M,10.00,M,FEW,SCT,BKN,M,1400.00,2600.00,3600.00,M,M,PADK 010116Z AUTO 04006KT 10SM FEW014 SCT026 BKN036 01/M07 A2978 RMK AO1
PADK,2017-04-01 01:20,-176.6460,51.8780,M,M,M,40.00,4.00,M,29.78,M,10.00,M,FEW,SCT,BKN,M,1400.00,2600.00,3600.00,M,M,PADK 010120Z AUTO 04004KT 10SM FEW014 SCT026 BKN036 A2978 RMK MADISHF
PADK,2017-04-01 01:25,-176.6460,51.8780,M,M,M,30.00,7.00,M,29.78,M,10.00,M,FEW,SCT,BKN,M,1400.00,2600.00,3600.00,M,M,PADK 010125Z AUTO 03007KT 10SM FEW014 SCT026 BKN036 A2978 RMK MADISHF
PADK,2017-04-01 01:30,-176.6460,51.8780,M,M,M,30.00,6.00,M,29.78,M,10.00,M,SCT,BKN,OVC,M,2800.00,3800.00,5000.00,M,M,PADK 010130Z AUTO 03006KT 10SM SCT028 BKN038 OVC050 A2978 RMK MADISHF
PADK,2017-04-01 01:36,-176.6460,51.8780,33.80,19.40,55.14,20.00,7.00,0.00,29.78,M,10.00,M,SCT,BKN,OVC,M,2800.00,3800.00,6000.00,M,M,PADK 010136Z AUTO 02007KT 10SM SCT028 BKN038 OVC060 01/M07 A2978 RMK AO1
PADK,2017-04-01 01:40,-176.6460,51.8780,M,M,M,10.00,5.00,M,29.78,M,10.00,M,SCT,BKN,OVC,M,2800.00,3500.00,6000.00,M,M,PADK 010140Z AUTO 01005KT 10SM SCT028 BKN035 OVC060 A2978 RMK MADISHF
PADK,2017-04-01 01:45,-176.6460,51.8780,M,M,M,10.00,8.00,M,29.78,M,10.00,M,FEW,SCT,BKN,M,2200.00,3000.00,3700.00,M,M,PADK 010145Z AUTO 01008KT 10SM FEW022 SCT030 BKN037 A2978 RMK MADISHF
PADK,2017-04-01 01:50,-176.6460,51.8780,M,M,M,10.00,6.00,M,29.78,M,10.00,M,FEW,SCT,BKN,M,2200.00,2600.00,3100.00,M,M,PADK 010150Z AUTO 01006KT 10SM FEW022 SCT026 BKN031 A2978 RMK MADISHF
PADK,2017-04-01 01:56,-176.6460,51.8780,33.80,21.20,59.53,20.00,7.00,0.00,29.78,M,9.00,M,FEW,BKN,OVC,M,2200.00,2800.00,3800.00,M,M,PADK 010156Z AUTO 02007KT 9SM FEW022 BKN028 OVC038 01/M06 A2978 RMK AO1
PADK,2017-04-01 02:00,-176.6460,51.8780,M,M,M,30.00,6.00,M,29.78,M,9.00,M,FEW,BKN,OVC,M,2200.00,2800.00,4200.00,M,M,PADK 010200Z AUTO 03006KT 9SM FEW022 BKN028 OVC042 A2978 RMK MADISHF
PADK,2017-04-01 02:05,-176.6460,51.8780,M,M,M,10.00,6.00,M,29.78,M,10.00,M,FEW,SCT,BKN,M,2200.00,2800.00,3999.00,M,M,PADK 010205Z AUTO 01006KT 10SM FEW022 SCT028 BKN039 A2978 RMK MADISHF
PADK,2017-04-01 02:10,-176.6460,51.8780,M,M,M,30.00,6.00,M,29.78,M,10.00,M,FEW,SCT,OVC,M,2200.00,2800.00,3999.00,M,M,PADK 010210Z AUTO 03006KT 10SM FEW022 SCT028 OVC039 A2978 RMK MADISHF
PADK,2017-04-01 02:15,-176.6460,51.8780,M,M,M,30.00,6.00,M,29.79,M,10.00,M,SCT,BKN,OVC,M,2800.00,3500.00,3999.00,M,M,PADK 010215Z AUTO 03006KT 10SM SCT028 BKN035 OVC039 A2979 RMK MADISHF
PADK,2017-04-01 02:16,-176.6460,51.8780,33.80,19.40,55.14,40.00,5.00,0.00,29.79,M,10.00,M,BKN,BKN,OVC,M,2800.00,3500.00,4000.00,M,M,PADK 010216Z AUTO 04005KT 10SM BKN028 BKN035 OVC040 01/M07 A2979 RMK AO1
PADK,2017-04-01 02:20,-176.6460,51.8780,M,M,M,40.00,6.00,M,29.79,M,10.00,M,SCT,BKN,OVC,M,2800.00,3300.00,3999.00,M,M,PADK 010220Z AUTO 04006KT 10SM SCT028 BKN033 OVC039 A2979 RMK MADISHF
PADK,2017-04-01 02:30,-176.6460,51.8780,M,M,M,40.00,6.00,M,29.78,M,10.00,M,SCT,OVC,M,M,3000.00,3999.00,M,M,M,PADK 010230Z AUTO 04006KT 10SM SCT030 OVC039 A2978 RMK MADISHF
PADK,2017-04-01 02:35,-176.6460,51.8780,M,M,M,30.00,5.00,M,29.78,M,10.00,M,SCT,BKN,OVC,M,3000.00,3500.00,3999.00,M,M,PADK 010235Z AUTO 03005KT 10SM SCT030 BKN035 OVC039 A2978 RMK MADISHF
PADK,2017-04-01 02:36,-176.6460,51.8780,33.80,21.20,59.53,10.00,5.00,0.00,29.78,M,10.00,M,SCT,BKN,OVC,M,3000.00,3500.00,4000.00,M,M,PADK 010236Z AUTO 01005KT 10SM SCT030 BKN035 OVC040 01/M06 A2978 RMK AO1
PADK,2017-04-01 02:40,-176.6460,51.8780,M,M,M,20.00,5.00,M,29.78,M,10.00,M,FEW,BKN,OVC,M,2700.00,3500.00,4200.00,M,M,PADK 010240Z AUTO 02005KT 10SM FEW027 BKN035 OVC042 A2978 RMK MADISHF
PADK,2017-04-01 02:45,-176.6460,51.8780,M,M,M,360.00,6.00,M,29.78,M,10.00,M,SCT,BKN,OVC,M,3000.00,3500.00,6500.00,M,M,PADK 010245Z AUTO 36006KT 10SM SCT030 BKN035 OVC065 A2978 RMK MADISHF
PADK,2017-04-01 02:50,-176.6460,51.8780,M,M,M,30.00,6.00,M,29.78,M,10.00,M,FEW,BKN,OVC,M,2700.00,3500.00,6500.00,M,M,PADK 010250Z AUTO 03006KT 10SM FEW027 BKN035 OVC065 A2978 RMK MADISHF
PADK,2017-04-01 02:55,-176.6460,51.8780,M,M,M,50.00,6.00,M,29.78,M,10.00,M,FEW,BKN,OVC,M,2700.00,3600.00,6500.00,M,M,PADK 010255Z AUTO 05006KT 10SM FEW027 BKN036 OVC065 A2978 RMK MADISHF
PADK,2017-04-01 02:56,-176.6460,51.8780,35.60,19.40,51.33,50.00,6.00,0.00,29.78,M,10.00,M,FEW,BKN,OVC,M,2700.00,3600.00,6500.00,M,M,PADK 010256Z AUTO 05006KT 10SM FEW027 BKN036 OVC065 02/M07 A2978 RMK AO1 52003
PADK,2017-04-01 03:00,-176.6460,51.8780,M,M,M,50.00,6.00,M,29.78,M,10.00,M,SCT,BKN,OVC,M,3000.00,3800.00,6500.00,M,M,PADK 010300Z AUTO 05006KT 10SM SCT030 BKN038 OVC065 A2978 RMK MADISHF
PADK,2017-04-01 03:05,-176.6460,51.8780,M,M,M,50.00,6.00,M,29.78,M,10.00,M,SCT,BKN,OVC,M,2800.00,3500.00,6500.00,M,M,PADK 010305Z AUTO 05006KT 10SM SCT028 BKN035 OVC065 A2978 RMK MADISHF
PADK,2017-04-01 03:10,-176.6460,51.8780,M,M,M,30.00,6.00,M,29.78,M,10.00,M,SCT,SCT,OVC,M,2800.00,3700.00,6500.00,M,M,PADK 010310Z AUTO 03006KT 10SM SCT028 SCT037 OVC065 A2978 RMK MADISHF
PADK,2017-04-01 03:15,-176.6460,51.8780,M,M,M,50.00,5.00,M,29.78,M,10.00,M,SCT,BKN,OVC,M,3000.00,3700.00,6500.00,M,M,PADK 010315Z AUTO 05005KT 10SM SCT030 BKN037 OVC065 A2978 RMK MADISHF
PADK,2017-04-01 03:16,-176.6460,51.8780,35.60,17.60,47.51,50.00,6.00,0.00,29.78,M,10.00,M,SCT,OVC,M,M,3000.00,6500.00,M,M,M,PADK 010316Z AUTO 05006KT 10SM SCT030 OVC065 02/M08 A2978 RMK AO1
PADK,2017-04-01 03:20,-176.6460,51.8780,M,M,M,50.00,6.00,M,29.79,M,10.00,M,BKN,OVC,M,M,3000.00,6500.00,M,M,M,PADK 010320Z AUTO 05006KT 10SM BKN030 OVC065 A2979 RMK MADISHF
PADK,2017-04-01 03:25,-176.6460,51.8780,M,M,M,40.00,6.00,M,29.79,M,10.00,M,BKN,OVC,M,M,3000.00,6500.00,M,M,M,PADK 010325Z AUTO 04006KT 10SM BKN030 OVC065 A2979 RMK MADISHF
PADK,2017-04-01 03:30,-176.6460,51.8780,M,M,M,50.00,6.00,M,29.79,M,10.00,M,BKN,BKN,OVC,M,3000.00,3500.00,6500.00,M,M,PADK 010330Z AUTO 05006KT 10SM BKN030 BKN035 OVC065 A2979 RMK MADISHF
PADK,2017-04-01 03:35,-176.6460,51.8780,M,M,M,60.00,7.00,M,29.78,M,10.00,M,BKN,OVC,M,M,3200.00,4200.00,M,M,M,PADK 010335Z AUTO 06007KT 10SM BKN032 OVC042 A2978 RMK MADISHF
PADK,2017-04-01 03:36,-176.6460,51.8780,33.80,17.60,51.04,60.00,6.00,0.00,29.78,M,10.00,M,BKN,OVC,M,M,3200.00,4200.00,M,M,M,PADK 010336Z AUTO 06006KT 10SM BKN032 OVC042 01/M08 A2978 RMK AO1
PADK,2017-04-01 03:40,-176.6460,51.8780,M,M,M,50.00,5.00,M,29.78,M,10.00,M,BKN,BKN,OVC,M,3200.00,3999.00,6000.00,M,M,PADK 010340Z AUTO 05005KT 10SM BKN032 BKN039 OVC060 A2978 RMK MADISHF
PADK,2017-04-01 03:45,-176.6460,51.8780,M,M,M,50.00,7.00,M,29.79,M,10.00,M,BKN,BKN,OVC,M,3200.00,3999.00,6000.00,M,M,PADK 010345Z AUTO 05007KT 10SM BKN032 BKN039 OVC060 A2979 RMK MADISHF
PADK,2017-04-01 03:50,-176.6460,51.8780,M,M,M,20.00,6.00,M,29.78,M,10.00,M,BKN,BKN,OVC,M,3000.00,3500.00,6000.00,M,M,PADK 010350Z AUTO 02006KT 10SM BKN030 BKN035 OVC060 A2978 RMK MADISHF
PADK,2017-04-01 03:55,-176.6460,51.8780,M,M,M,10.00,7.00,M,29.78,M,10.00,M,SCT,BKN,OVC,M,3000.00,3500.00,6000.00,M,M,PADK 010355Z AUTO 01007KT 10SM SCT030 BKN035 OVC060 A2978 RMK MADISHF
PADK,2017-04-01 03:56,-176.6460,51.8780,33.80,17.60,51.04,20.00,6.00,0.00,29.79,M,10.00,M,SCT,OVC,M,M,3000.00,3500.00,M,M,M,PADK 010356Z AUTO 02006KT 10SM SCT030 OVC035 01/M08 A2979 RMK AO1
PADK,2017-04-01 04:00,-176.6460,51.8780,M,M,M,10.00,7.00,M,29.79,M,10.00,M,FEW,BKN,OVC,M,2800.00,3500.00,6000.00,M,M,PADK 010400Z AUTO 01007KT 10SM FEW028 BKN035 OVC060 A2979 RMK MADISHF
PADK,2017-04-01 04:05,-176.6460,51.8780,M,M,M,20.00,5.00,M,29.79,M,10.00,M,FEW,BKN,OVC,M,2800.00,3500.00,6000.00,M,M,PADK 010405Z AUTO 02005KT 10SM FEW028 BKN035 OVC060 A2979 RMK MADISHF
PADK,2017-04-01 04:10,-176.6460,51.8780,M,M,M,10.00,6.00,M,29.79,M,10.00,M,FEW,SCT,OVC,M,2800.00,3500.00,6000.00,M,M,PADK 010410Z AUTO 01006KT 10SM FEW028 SCT035 OVC060 A2979 RMK MADISHF
PADK,2017-04-01 04:15,-176.6460,51.8780,M,M,M,20.00,6.00,M,29.79,M,10.00,M,SCT,OVC,M,M,3500.00,6000.00,M,M,M,PADK 010415Z AUTO 02006KT 10SM SCT035 OVC060 A2979 RMK MADISHF
PADK,2017-04-01 04:16,-176.6460,51.8780,33.80,17.60,51.04,30.00,5.00,0.00,29.79,M,10.00,M,SCT,OVC,M,M,3500.00,6000.00,M,M,M,PADK 010416Z AUTO 03005KT 10SM SCT035 OVC060 01/M08 A2979 RMK AO1
PADK,2017-04-01 04:20,-176.6460,51.8780,M,M,M,20.00,4.00,M,29.79,M,10.00,M,FEW,SCT,OVC,M,2600.00,3500.00,6000.00,M,M,PADK 010420Z AUTO 02004KT 10SM FEW026 SCT035 OVC060 A2979 RMK MADISHF
PADK,2017-04-01 04:25,-176.6460,51.8780,M,M,M,60.00,7.00,M,29.79,M,10.00,M,SCT,BKN,OVC,M,2600.00,3700.00,6000.00,M,M,PADK 010425Z AUTO 06007KT 10SM SCT026 BKN037 OVC060 A2979 RMK MADISHF
PADK,2017-04-01 04:30,-176.6460,51.8780,M,M,M,60.00,8.00,M,29.79,M,10.00,M,SCT,SCT,OVC,M,2600.00,3500.00,6000.00,M,M,PADK 010430Z AUTO 06008KT 10SM SCT026 SCT035 OVC060 A2979 RMK MADISHF
PADK,2017-04-01 04:35,-176.6460,51.8780,M,M,M,60.00,6.00,M,29.79,M,10.00,M,SCT,SCT,OVC,M,2600.00,3500.00,6000.00,M,M,PADK 010435Z AUTO 06006KT 10SM SCT026 SCT035 OVC060 A2979 RMK MADISHF
PADK,2017-04-01 04:36,-176.6460,51.8780,33.80,17.60,51.04,50.00,5.00,0.00,29.79,M,10.00,M,SCT,SCT,OVC,M,2600.00,3500.00,6000.00,M,M,PADK 010436Z AUTO 05005KT 10SM SCT026 SCT035 OVC060 01/M08 A2979 RMK AO1
PADK,2017-04-01 04:40,-176.6460,51.8780,M,M,M,50.00,6.00,M,29.79,M,10.00,M,SCT,BKN,OVC,M,2600.00,3500.00,6000.00,M,M,PADK 010440Z AUTO 05006KT 10SM SCT026 BKN035 OVC060 A2979 RMK MADISHF
PADK,2017-04-01 04:45,-176.6460,51.8780,M,M,M,50.00,6.00,M,29.79,M,10.00,M,FEW,BKN,OVC,M,2600.00,3700.00,6000.00,M,M,PADK 010445Z AUTO 05006KT 10SM FEW026 BKN037 OVC060 A2979 RMK MADISHF
PADK,2017-04-01 04:50,-176.6460,51.8780,M,M,M,50.00,6.00,M,29.80,M,10.00,M,FEW,BKN,OVC,M,2600.00,3900.00,6000.00,M,M,PADK 010450Z AUTO 05006KT 10SM FEW026 BKN039 OVC060 A2980 RMK MADISHF
PADK,2017-04-01 04:55,-176.6460,51.8780,M,M,M,60.00,6.00,M,29.80,M,10.00,M,BKN,BKN,OVC,M,3900.00,4800.00,6000.00,M,M,PADK 010455Z AUTO 06006KT 10SM BKN039 BKN048 OVC060 A2980 RMK MADISHF
PADK,2017-04-01 04:56,-176.6460,51.8780,33.80,19.40,55.14,60.00,6.00,0.00,29.80,M,10.00,M,SCT,BKN,OVC,M,3900.00,4800.00,6000.00,M,M,PADK 010456Z AUTO 06006KT 10SM SCT039 BKN048 OVC060 01/M07 A2980 RMK AO1
PADK,2017-04-01 05:00,-176.6460,51.8780,M,M,M,60.00,6.00,M,29.80,M,10.00,M,FEW,BKN,OVC,M,3600.00,4300.00,6000.00,M,M,PADK 010500Z AUTO 06006KT 10SM FEW036 BKN043 OVC060 A2980 RMK MADISHF
PADK,2017-04-01 05:05,-176.6460,51.8780,M,M,M,60.00,5.00,M,29.80,M,10.00,M,FEW,BKN,OVC,M,2300.00,3900.00,6000.00,M,M,PADK 010505Z AUTO 06005KT 10SM FEW023 BKN039 OVC060 A2980 RMK MADISHF
PADK,2017-04-01 05:10,-176.6460,51.8780,M,M,M,60.00,6.00,M,29.80,M,10.00,M,SCT,BKN,OVC,M,2500.00,3900.00,5000.00,M,M,PADK 010510Z AUTO 06006KT 10SM SCT025 BKN039 OVC050 A2980 RMK MADISHF
PADK,2017-04-01 05:15,-176.6460,51.8780,M,M,M,60.00,6.00,M,29.80,M,10.00,M,SCT,BKN,OVC,M,2500.00,4100.00,5000.00,M,M,PADK 010515Z AUTO 06006KT 10SM SCT025 BKN041 OVC050 A2980 RMK MADISHF
PADK,2017-04-01 05:16,-176.6460,51.8780,33.80,17.60,51.04,60.00,6.00,0.00,29.81,M,10.00,M,SCT,BKN,OVC,M,2500.00,3000.00,5000.00,M,M,PADK 010516Z AUTO 06006KT 10SM SCT025 BKN030 OVC050 01/M08 A2981 RMK AO1
PADK,2017-04-01 05:20,-176.6460,51.8780,M,M,M,60.00,5.00,M,29.80,M,10.00,M,SCT,BKN,OVC,M,2500.00,3000.00,4800.00,M,M,PADK 010520Z AUTO 06005KT 10SM SCT025 BKN030 OVC048 A2980 RMK MADISHF
PADK,2017-04-01 05:25,-176.6460,51.8780,M,M,M,60.00,5.00,M,29.81,M,10.00,M,SCT,BKN,OVC,M,2500.00,3000.00,3999.00,M,M,PADK 010525Z AUTO 06005KT 10SM SCT025 BKN030 OVC039 A2981 RMK MADISHF
PADK,2017-04-01 05:30,-176.6460,51.8780,M,M,M,60.00,4.00,M,29.81,M,10.00,M,SCT,BKN,OVC,M,2500.00,3200.00,3900.00,M,M,PADK 010530Z AUTO 06004KT 10SM SCT025 BKN032 OVC039 A2981 RMK MADISHF
PADK,2017-04-01 05:35,-176.6460,51.8780,M,M,M,60.00,5.00,M,29.81,M,10.00,M,SCT,OVC,M,M,2500.00,3200.00,M,M,M,PADK 010535Z AUTO 06005KT 10SM SCT025 OVC032 A2981 RMK MADISHF
PADK,2017-04-01 05:36,-176.6460,51.8780,32.00,17.60,54.87,60.00,4.00,0.00,29.81,M,10.00,M,SCT,OVC,M,M,2500.00,3200.00,M,M,M,PADK 010536Z AUTO 06004KT 10SM SCT025 OVC032 00/M08 A2981 RMK AO1
PADK,2017-04-01 05:40,-176.6460,51.8780,M,M,M,60.00,4.00,M,29.81,M,10.00,M,FEW,OVC,M,M,2500.00,3399.00,M,M,M,PADK 010540Z AUTO 06004KT 10SM FEW025 OVC033 A2981 RMK MADISHF
PADK,2017-04-01 05:45,-176.6460,51.8780,M,M,M,40.00,5.00,M,29.81,M,10.00,M,FEW,OVC,M,M,2500.00,3399.00,M,M,M,PADK 010545Z AUTO 04005KT 10SM FEW025 OVC033 A2981 RMK MADISHF
PADK,2017-04-01 05:50,-176.6460,51.8780,M,M,M,40.00,4.00,M,29.81,M,10.00,M,BKN,BKN,OVC,M,3399.00,3900.00,6000.00,M,M,PADK 010550Z AUTO 04004KT 10SM BKN033 BKN039 OVC060 A2981 RMK MADISHF
PADK,2017-04-01 05:55,-176.6460,51.8780,M,M,M,40.00,5.00,M,29.81,M,10.00,M,BKN,OVC,M,M,3399.00,3999.00,M,M,M,PADK 010555Z AUTO 04005KT 10SM BKN033 OVC039 A2981 RMK MADISHF
PADK,2017-04-01 05:56,-176.6460,51.8780,32.00,17.60,54.87,30.00,5.00,0.00,29.82,M,10.00,M,BKN,OVC,M,M,3400.00,4000.00,M,M,M,PADK 010556Z AUTO 03005KT 10SM BKN034 OVC040 00/M08 A2982 RMK AO1 10020 20000 52014
PADK,2017-04-01 06:00,-176.6460,51.8780,M,M,M,360.00,4.00,M,29.82,M,10.00,M,BKN,OVC,M,M,3399.00,3999.00,M,M,M,PADK 010600Z AUTO 36004KT 10SM BKN033 OVC039 A2982 RMK MADISHF
PADK,2017-04-01 06:05,-176.6460,51.8780,M,M,M,350.00,6.00,M,29.82,M,10.00,M,BKN,OVC,M,M,3399.00,4600.00,M,M,M,PADK 010605Z AUTO 35006KT 10SM BKN033 OVC046 A2982 RMK MADISHF
PADK,2017-04-01 06:10,-176.6460,51.8780,M,M,M,350.00,6.00,M,29.82,M,10.00,M,BKN,OVC,M,M,3399.00,4400.00,M,M,M,PADK 010610Z AUTO 35006KT 10SM BKN033 OVC044 A2982 RMK MADISHF
PADK,2017-04-01 06:15,-176.6460,51.8780,M,M,M,350.00,5.00,M,29.82,M,10.00,M,SCT,BKN,OVC,M,3399.00,4400.00,6000.00,M,M,PADK 010615Z AUTO 35005KT 10SM SCT033 BKN044 OVC060 A2982 RMK MADISHF
PADK,2017-04-01 06:16,-176.6460,51.8780,32.00,19.40,59.27,350.00,5.00,0.00,29.82,M,10.00,M,SCT,BKN,OVC,M,3400.00,4400.00,6000.00,M,M,PADK 010616Z AUTO 35005KT 10SM SCT034 BKN044 OVC060 00/M07 A2982 RMK AO1
PADK,2017-04-01 06:20,-176.6460,51.8780,M,M,M,350.00,5.00,M,29.82,M,10.00,M,SCT,BKN,OVC,M,3600.00,4400.00,6000.00,M,M,PADK 010620Z AUTO 35005KT 10SM SCT036 BKN044 OVC060 A2982 RMK MADISHF
PADK,2017-04-01 06:25,-176.6460,51.8780,M,M,M,350.00,5.00,M,29.82,M,10.00,M,FEW,BKN,OVC,M,3300.00,4100.00,6000.00,M,M,PADK 010625Z AUTO 35005KT 10SM FEW033 BKN041 OVC060 A2982 RMK MADISHF
PADK,2017-04-01 06:30,-176.6460,51.8780,M,M,M,350.00,5.00,M,29.82,M,10.00,M,BKN,BKN,OVC,M,4100.00,4800.00,6000.00,M,M,PADK 010630Z AUTO 35005KT 10SM BKN041 BKN048 OVC060 A2982 RMK MADISHF
PADK,2017-04-01 06:35,-176.6460,51.8780,M,M,M,350.00,5.00,M,29.82,M,10.00,M,BKN,BKN,OVC,M,4300.00,5000.00,6000.00,M,M,PADK 010635Z AUTO 35005KT 10SM BKN043 BKN050 OVC060 A2982 RMK MADISHF
PADK,2017-04-01 06:36,-176.6460,51.8780,30.20,19.40,63.75,350.00,5.00,0.00,29.82,M,10.00,M,BKN,BKN,OVC,M,4300.00,5000.00,6000.00,M,M,PADK 010636Z AUTO 35005KT 10SM BKN043 BKN050 OVC060 M01/M07 A2982 RMK AO1
PADK,2017-04-01 06:40,-176.6460,51.8780,M,M,M,350.00,3.00,M,29.82,M,10.00,M,BKN,BKN,OVC,M,4300.00,5000.00,6000.00,M,M,PADK 010640Z AUTO 35003KT 10SM BKN043 BKN050 OVC060 A2982 RMK MADISHF
PADK,2017-04-01 06:45,-176.6460,51.8780,M,M,M,350.00,3.00,M,29.83,M,10.00,M,SCT,BKN,OVC,M,4300.00,4800.00,6000.00,M,M,PADK 010645Z AUTO 35003KT 10SM SCT043 BKN048 OVC060 A2983 RMK MADISHF
PADK,2017-04-01 06:50,-176.6460,51.8780,M,M,M,350.00,3.00,M,29.83,M,10.00,M,SCT,BKN,OVC,M,4300.00,4800.00,6000.00,M,M,PADK 010650Z AUTO 35003KT 10SM SCT043 BKN048 OVC060 A2983 RMK MADISHF
PADK,2017-04-01 06:55,-176.6460,51.8780,M,M,M,350.00,3.00,M,29.83,M,10.00,M,SCT,OVC,M,M,4600.00,6000.00,M,M,M,PADK 010655Z AUTO 35003KT 10SM SCT046 OVC060 A2983 RMK MADISHF
PADK,2017-04-01 06:56,-176.6460,51.8780,30.20,17.60,59.01,350.00,3.00,0.00,29.83,M,10.00,M,SCT,OVC,M,M,4600.00,6000.00,M,M,M,PADK 010656Z AUTO 35003KT 10SM SCT046 OVC060 M01/M08 A2983 RMK AO1
PADK,2017-04-01 07:00,-176.6460,51.8780,M,M,M,0.00,0.00,M,29.83,M,10.00,M,FEW,OVC,M,M,4600.00,6000.00,M,M,M,PADK 010700Z AUTO 00000KT 10SM FEW046 OVC060 A2983 RMK MADISHF
PADK,2017-04-01 07:05,-176.6460,51.8780,M,M,M,350.00,3.00,M,29.83,M,10.00,M,FEW,OVC,M,M,4800.00,6000.00,M,M,M,PADK 010705Z AUTO 35003KT 10SM FEW048 OVC060 A2983 RMK MADISHF
PADK,2017-04-01 07:10,-176.6460,51.8780,M,M,M,350.00,3.00,M,29.83,M,10.00,M,FEW,OVC,M,M,4800.00,6000.00,M,M,M,PADK 010710Z AUTO 35003KT 10SM FEW048 OVC060 A2983 RMK MADISHF
PADK,2017-04-01 07:15,-176.6460,51.8780,M,M,M,350.00,3.00,M,29.83,M,10.00,M,OVC,M,M,M,6000.00,M,M,M,M,PADK 010715Z AUTO 35003KT 10SM OVC060 A2983 RMK MADISHF
PADK,2017-04-01 07:16,-176.6460,51.8780,30.20,19.40,63.75,350.00,4.00,0.00,29.83,M,10.00,M,OVC,M,M,M,6000.00,M,M,M,M,PADK 010716Z AUTO 35004KT 10SM OVC060 M01/M07 A2983 RMK AO1
PADK,2017-04-01 07:20,-176.6460,51.8780,M,M,M,350.00,4.00,M,29.83,M,10.00,M,OVC,M,M,M,6000.00,M,M,M,M,PADK 010720Z AUTO 35004KT 10SM OVC060 A2983 RMK MADISHF
PADK,2017-04-01 07:25,-176.6460,51.8780,M,M,M,350.00,4.00,M,29.83,M,10.00,M,OVC,M,M,M,6000.00,M,M,M,M,PADK 010725Z AUTO 35004KT 10SM OVC060 A2983 RMK MADISHF
PADK,2017-04-01 07:30,-176.6460,51.8780,M,M,M,350.00,4.00,M,29.83,M,10.00,M,OVC,M,M,M,6000.00,M,M,M,M,PADK 010730Z AUTO 35004KT 10SM OVC060 A2983 RMK MADISHF
PADK,2017-04-01 07:35,-176.6460,51.8780,M,M,M,350.00,4.00,M,29.83,M,10.00,M,OVC,M,M,M,6000.00,M,M,M,M,PADK 010735Z AUTO 35004KT 10SM OVC060 A2983 RMK MADISHF
PADK,2017-04-01 07:36,-176.6460,51.8780,30.20,17.60,59.01,350.00,4.00,0.00,29.83,M,10.00,M,OVC,M,M,M,6000.00,M,M,M,M,PADK 010736Z AUTO 35004KT 10SM OVC060 M01/M08 A2983 RMK AO1
PADK,2017-04-01 07:40,-176.6460,51.8780,M,M,M,350.00,4.00,M,29.84,M,10.00,M,OVC,M,M,M,6000.00,M,M,M,M,PADK 010740Z AUTO 35004KT 10SM OVC060 A2984 RMK MADISHF
PADK,2017-04-01 07:45,-176.6460,51.8780,M,M,M,350.00,4.00,M,29.84,M,10.00,M,OVC,M,M,M,6000.00,M,M,M,M,PADK 010745Z AUTO 35004KT 10SM OVC060 A2984 RMK MADISHF
PADK,2017-04-01 07:50,-176.6460,51.8780,M,M,M,350.00,3.00,M,29.84,M,10.00,M,OVC,M,M,M,6000.00,M,M,M,M,PADK 010750Z AUTO 35003KT 10SM OVC060 A2984 RMK MADISHF
PADK,2017-04-01 07:55,-176.6460,51.8780,M,M,M,350.00,3.00,M,29.84,M,10.00,M,OVC,M,M,M,6000.00,M,M,M,M,PADK 010755Z AUTO 35003KT 10SM OVC060 A2984 RMK MADISHF
PADK,2017-04-01 07:56,-176.6460,51.8780,30.20,17.60,59.01,0.00,0.00,0.00,29.84,M,10.00,M,OVC,M,M,M,6000.00,M,M,M,M,PADK 010756Z AUTO 00000KT 10SM OVC060 M01/M08 A2984 RMK AO1
PADK,2017-04-01 08:00,-176.6460,51.8780,M,M,M,350.00,3.00,M,29.84,M,10.00,M,OVC,M,M,M,6000.00,M,M,M,M,PADK 010800Z AUTO 35003KT 10SM OVC060 A2984 RMK MADISHF
PADK,2017-04-01 08:05,-176.6460,51.8780,M,M,M,350.00,3.00,M,29.84,M,10.00,M,OVC,M,M,M,6000.00,M,M,M,M,PADK 010805Z AUTO 35003KT 10SM OVC060 A2984 RMK MADISHF
PADK,2017-04-01 08:10,-176.6460,51.8780,M,M,M,350.00,4.00,M,29.84,M,10.00,M,OVC,M,M,M,6000.00,M,M,M,M,PADK 010810Z AUTO 35004KT 10SM OVC060 A2984 RMK MADISHF
PADK,2017-04-01 08:15,-176.6460,51.8780,M,M,M,350.00,4.00,M,29.84,M,10.00,M,OVC,M,M,M,6000.00,M,M,M,M,PADK 010815Z AUTO 35004KT 10SM OVC060 A2984 RMK MADISHF
PADK,2017-04-01 08:16,-176.6460,51.8780,30.20,17.60,59.01,350.00,5.00,0.00,29.84,M,10.00,M,OVC,M,M,M,6000.00,M,M,M,M,PADK 010816Z AUTO 35005KT 10SM OVC060 M01/M08 A2984 RMK AO1
PADK,2017-04-01 08:20,-176.6460,51.8780,M,M,M,350.00,4.00,M,29.84,M,10.00,M,OVC,M,M,M,6000.00,M,M,M,M,PADK 010820Z AUTO 35004KT 10SM OVC060 A2984 RMK MADISHF
PADK,2017-04-01 08:25,-176.6460,51.8780,M,M,M,350.00,4.00,M,29.84,M,10.00,M,OVC,M,M,M,6000.00,M,M,M,M,PADK 010825Z AUTO 35004KT 10SM OVC060 A2984 RMK MADISHF
PADK,2017-04-01 08:30,-176.6460,51.8780,M,M,M,350.00,3.00,M,29.84,M,10.00,M,OVC,M,M,M,6000.00,M,M,M,M,PADK 010830Z AUTO 35003KT 10SM OVC060 A2984 RMK MADISHF
PADK,2017-04-01 08:35,-176.6460,51.8780,M,M,M,350.00,3.00,M,29.85,M,10.00,M,OVC,M,M,M,6000.00,M,M,M,M,PADK 010835Z AUTO 35003KT 10SM OVC060 A2985 RMK MADISHF
PADK,2017-04-01 08:36,-176.6460,51.8780,28.40,17.60,63.51,350.00,3.00,0.00,29.85,M,10.00,M,OVC,M,M,M,6000.00,M,M,M,M,PADK 010836Z AUTO 35003KT 10SM OVC060 M02/M08 A2985 RMK AO1
PADK,2017-04-01 08:40,-176.6460,51.8780,M,M,M,350.00,3.00,M,29.85,M,10.00,M,OVC,M,M,M,6000.00,M,M,M,M,PADK 010840Z AUTO 35003KT 10SM OVC060 A2985 RMK MADISHF
PADK,2017-04-01 08:45,-176.6460,51.8780,M,M,M,350.00,3.00,M,29.85,M,10.00,M,FEW,FEW,OVC,M,2300.00,3000.00,6000.00,M,M,PADK 010845Z AUTO 35003KT 10SM FEW023 FEW030 OVC060 A2985 RMK MADISHF
PADK,2017-04-01 08:50,-176.6460,51.8780,M,M,M,350.00,3.00,M,29.85,M,10.00,M,FEW,FEW,OVC,M,2300.00,3500.00,6000.00,M,M,PADK 010850Z AUTO 35003KT 10SM FEW023 FEW035 OVC060 A2985 RMK MADISHF
PADK,2017-04-01 08:55,-176.6460,51.8780,M,M,M,350.00,4.00,M,29.85,M,10.00,M,FEW,SCT,OVC,M,2300.00,3000.00,6000.00,M,M,PADK 010855Z AUTO 35004KT 10SM FEW023 SCT030 OVC060 A2985 RMK MADISHF
PADK,2017-04-01 08:56,-176.6460,51.8780,30.20,17.60,59.01,350.00,4.00,0.00,29.85,M,10.00,M,FEW,SCT,BKN,M,2300.00,3000.00,3500.00,M,M,PADK 010856Z AUTO 35004KT 10SM FEW023 SCT030 BKN035 M01/M08 A2985 RMK AO1 52010
PADK,2017-04-01 09:00,-176.6460,51.8780,M,M,M,0.00,0.00,M,29.85,M,10.00,M,FEW,SCT,BKN,M,2300.00,3000.00,3500.00,M,M,PADK 010900Z AUTO 00000KT 10SM FEW023 SCT030 BKN035 A2985 RMK MADISHF
PADK,2017-04-01 09:05,-176.6460,51.8780,M,M,M,350.00,3.00,M,29.85,M,10.00,M,FEW,SCT,OVC,M,2300.00,3000.00,6000.00,M,M,PADK 010905Z AUTO 35003KT 10SM FEW023 SCT030 OVC060 A2985 RMK MADISHF
PADK,2017-04-01 09:10,-176.6460,51.8780,M,M,M,350.00,3.00,M,29.85,M,10.00,M,FEW,SCT,OVC,M,2300.00,3000.00,6000.00,M,M,PADK 010910Z AUTO 35003KT 10SM FEW023 SCT030 OVC060 A2985 RMK MADISHF
PADK,2017-04-01 09:15,-176.6460,51.8780,M,M,M,350.00,3.00,M,29.85,M,10.00,M,SCT,BKN,OVC,M,2300.00,3500.00,6000.00,M,M,PADK 010915Z AUTO 35003KT 10SM SCT023 BKN035 OVC060 A2985 RMK MADISHF
PADK,2017-04-01 09:16,-176.6460,51.8780,30.20,17.60,59.01,350.00,3.00,0.00,29.85,M,10.00,M,SCT,BKN,OVC,M,2300.00,2900.00,6000.00,M,M,PADK 010916Z AUTO 35003KT 10SM SCT023 BKN029 OVC060 M01/M08 A2985 RMK AO1
PADK,2017-04-01 09:20,-176.6460,51.8780,M,M,M,0.00,0.00,M,29.85,M,10.00,M,SCT,BKN,OVC,M,2300.00,3100.00,6000.00,M,M,PADK 010920Z AUTO 00000KT 10SM SCT023 BKN031 OVC060 A2985 RMK MADISHF
PADK,2017-04-01 09:25,-176.6460,51.8780,M,M,M,0.00,0.00,M,29.85,M,10.00,M,SCT,BKN,OVC,M,2300.00,3100.00,6000.00,M,M,PADK 010925Z AUTO 00000KT 10SM SCT023 BKN031 OVC060 A2985 RMK MADISHF
PADK,2017-04-01 09:30,-176.6460,51.8780,M,M,M,0.00,0.00,M,29.85,M,10.00,M,FEW,BKN,OVC,M,2300.00,3100.00,6000.00,M,M,PADK 010930Z AUTO 00000KT 10SM FEW023 BKN031 OVC060 A2985 RMK MADISHF
PADK,2017-04-01 09:35,-176.6460,51.8780,M,M,M,350.00,3.00,M,29.85,M,10.00,M,FEW,BKN,OVC,M,2300.00,3100.00,6000.00,M,M,PADK 010935Z AUTO 35003KT 10SM FEW023 BKN031 OVC060 A2985 RMK MADISHF
PADK,2017-04-01 09:36,-176.6460,51.8780,30.20,17.60,59.01,350.00,4.00,0.00,29.85,M,10.00,M,FEW,BKN,OVC,M,2300.00,3100.00,6000.00,M,M,PADK 010936Z AUTO 35004KT 10SM FEW023 BKN031 OVC060 M01/M08 A2985 RMK AO1
PADK,2017-04-01 09:40,-176.6460,51.8780,M,M,M,350.00,5.00,M,29.85,M,10.00,M,FEW,BKN,OVC,M,2300.00,3100.00,6000.00,M,M,PADK 010940Z AUTO 35005KT 10SM FEW023 BKN031 OVC060 A2985 RMK MADISHF
PADK,2017-04-01 09:45,-176.6460,51.8780,M,M,M,350.00,4.00,M,29.85,M,10.00,M,FEW,BKN,OVC,M,2300.00,3300.00,6000.00,M,M,PADK 010945Z AUTO 35004KT 10SM FEW023 BKN033 OVC060 A2985 RMK MADISHF
PADK,2017-04-01 09:50,-176.6460,51.8780,M,M,M,360.00,3.00,M,29.85,M,10.00,M,BKN,BKN,OVC,M,3300.00,5000.00,6000.00,M,M,PADK 010950Z AUTO 36003KT 10SM BKN033 BKN050 OVC060 A2985 RMK MADISHF
PADK,2017-04-01 09:55,-176.6460,51.8780,M,M,M,360.00,3.00,M,29.85,M,10.00,M,SCT,BKN,OVC,M,3300.00,5000.00,6000.00,M,M,PADK 010955Z AUTO 36003KT 10SM SCT033 BKN050 OVC060 A2985 RMK MADISHF
PADK,2017-04-01 09:56,-176.6460,51.8780,30.20,21.20,68.83,360.00,3.00,0.00,29.85,M,10.00,M,SCT,BKN,OVC,M,3300.00,5000.00,6000.00,M,M,PADK 010956Z AUTO 36003KT 10SM SCT033 BKN050 OVC060 M01/M06 A2985 RMK AO1
PADK,2017-04-01 10:00,-176.6460,51.8780,M,M,M,360.00,4.00,M,29.85,M,10.00,M,SCT,SCT,OVC,M,3300.00,5000.00,6000.00,M,M,PADK 011000Z AUTO 36004KT 10SM SCT033 SCT050 OVC060 A2985 RMK MADISHF
PADK,2017-04-01 10:05,-176.6460,51.8780,M,M,M,360.00,4.00,M,29.85,M,10.00,M,FEW,SCT,OVC,M,2200.00,3100.00,6000.00,M,M,PADK 011005Z AUTO 36004KT 10SM FEW022 SCT031 OVC060 A2985 RMK MADISHF
PADK,2017-04-01 10:10,-176.6460,51.8780,M,M,M,360.00,4.00,M,29.85,M,10.00,M,SCT,SCT,OVC,M,2200.00,3600.00,6000.00,M,M,PADK 011010Z AUTO 36004KT 10SM SCT022 SCT036 OVC060 A2985 RMK MADISHF
PADK,2017-04-01 10:15,-176.6460,51.8780,M,M,M,10.00,4.00,M,29.85,M,10.00,M,FEW,OVC,M,M,2200.00,6000.00,M,M,M,PADK 011015Z AUTO 01004KT 10SM FEW022 OVC060 A2985 RMK MADISHF
PADK,2017-04-01 10:16,-176.6460,51.8780,30.20,21.20,68.83,10.00,4.00,0.00,29.85,M,10.00,M,FEW,OVC,M,M,2200.00,6000.00,M,M,M,PADK 011016Z AUTO 01004KT 10SM FEW022 OVC060 M01/M06 A2985 RMK AO1
PADK,2017-04-01 10:20,-176.6460,51.8780,M,M,M,20.00,4.00,M,29.85,M,10.00,M,FEW,OVC,M,M,2200.00,6000.00,M,M,M,PADK 011020Z AUTO 02004KT 10SM FEW022 OVC060 A2985 RMK MADISHF
PADK,2017-04-01 10:25,-176.6460,51.8780,M,M,M,20.00,4.00,M,29.85,M,10.00,M,FEW,SCT,OVC,M,2200.00,2800.00,6000.00,M,M,PADK 011025Z AUTO 02004KT 10SM FEW022 SCT028 OVC060 A2985 RMK MADISHF
PADK,2017-04-01 10:30,-176.6460,51.8780,M,M,M,20.00,5.00,M,29.85,M,10.00,M,SCT,SCT,OVC,M,2200.00,2800.00,6000.00,M,M,PADK 011030Z AUTO 02005KT 10SM SCT022 SCT028 OVC060 A2985 RMK MADISHF
PADK,2017-04-01 10:35,-176.6460,51.8780,M,M,M,20.00,4.00,M,29.85,M,10.00,M,FEW,FEW,OVC,M,2200.00,3000.00,6000.00,M,M,PADK 011035Z AUTO 02004KT 10SM FEW022 FEW030 OVC060 A2985 RMK MADISHF
PADK,2017-04-01 10:36,-176.6460,51.8780,30.20,21.20,68.83,20.00,4.00,0.00,29.85,M,10.00,M,FEW,FEW,OVC,M,2200.00,3000.00,6000.00,M,M,PADK 011036Z AUTO 02004KT 10SM FEW022 FEW030 OVC060 M01/M06 A2985 RMK AO1
PADK,2017-04-01 10:40,-176.6460,51.8780,M,M,M,20.00,4.00,M,29.85,M,10.00,M,FEW,SCT,OVC,M,2200.00,3399.00,6000.00,M,M,PADK 011040Z AUTO 02004KT 10SM FEW022 SCT033 OVC060 A2985 RMK MADISHF
PADK,2017-04-01 10:45,-176.6460,51.8780,M,M,M,20.00,3.00,M,29.85,M,10.00,M,FEW,SCT,OVC,M,2200.00,3399.00,6000.00,M,M,PADK 011045Z AUTO 02003KT 10SM FEW022 SCT033 OVC060 A2985 RMK MADISHF
PADK,2017-04-01 10:50,-176.6460,51.8780,M,M,M,0.00,0.00,M,29.85,M,10.00,M,FEW,SCT,BKN,M,2200.00,3100.00,4600.00,M,M,PADK 011050Z AUTO 00000KT 10SM FEW022 SCT031 BKN046 A2985 RMK MADISHF
PADK,2017-04-01 10:55,-176.6460,51.8780,M,M,M,350.00,4.00,M,29.85,M,10.00,M,FEW,SCT,BKN,M,2200.00,3100.00,4600.00,M,M,PADK 011055Z AUTO 35004KT 10SM FEW022 SCT031 BKN046 A2985 RMK MADISHF
PADK,2017-04-01 10:56,-176.6460,51.8780,30.20,21.20,68.83,350.00,4.00,0.00,29.85,M,10.00,M,FEW,SCT,OVC,M,3100.00,4000.00,6000.00,M,M,PADK 011056Z AUTO 35004KT 10SM FEW031 SCT040 OVC060 M01/M06 A2985 RMK AO1
PADK,2017-04-01 11:00,-176.6460,51.8780,M,M,M,350.00,4.00,M,29.86,M,10.00,M,FEW,SCT,OVC,M,3200.00,3999.00,6000.00,M,M,PADK 011100Z AUTO 35004KT 10SM FEW032 SCT039 OVC060 A2986 RMK MADISHF
PADK,2017-04-01 11:05,-176.6460,51.8780,M,M,M,350.00,4.00,M,29.86,M,10.00,M,FEW,SCT,OVC,M,2300.00,3900.00,6000.00,M,M,PADK 011105Z AUTO 35004KT 10SM FEW023 SCT039 OVC060 A2986 RMK MADISHF
PADK,2017-04-01 11:10,-176.6460,51.8780,M,M,M,350.00,4.00,M,29.86,M,10.00,M,SCT,OVC,M,M,2600.00,6000.00,M,M,M,PADK 011110Z AUTO 35004KT 10SM SCT026 OVC060 A2986 RMK MADISHF
PADK,2017-04-01 11:15,-176.6460,51.8780,M,M,M,350.00,5.00,M,29.86,M,10.00,M,SCT,BKN,OVC,M,2600.00,4300.00,6000.00,M,M,PADK 011115Z AUTO 35005KT 10SM SCT026 BKN043 OVC060 A2986 RMK MADISHF
PADK,2017-04-01 11:16,-176.6460,51.8780,30.20,19.40,63.75,350.00,4.00,0.00,29.86,M,10.00,M,FEW,SCT,BKN,M,2600.00,3300.00,4300.00,M,M,PADK 011116Z AUTO 35004KT 10SM FEW026 SCT033 BKN043 M01/M07 A2986 RMK AO1
PADK,2017-04-01 11:20,-176.6460,51.8780,M,M,M,350.00,5.00,M,29.86,M,10.00,M,FEW,SCT,OVC,M,2600.00,3300.00,6000.00,M,M,PADK 011120Z AUTO 35005KT 10SM FEW026 SCT033 OVC060 A2986 RMK MADISHF
PADK,2017-04-01 11:25,-176.6460,51.8780,M,M,M,350.00,5.00,M,29.85,M,10.00,M,FEW,FEW,OVC,M,2600.00,3300.00,6000.00,M,M,PADK 011125Z AUTO 35005KT 10SM FEW026 FEW033 OVC060 A2985 RMK MADISHF
PADK,2017-04-01 11:30,-176.6460,51.8780,M,M,M,350.00,5.00,M,29.85,M,10.00,M,FEW,FEW,OVC,M,2600.00,3300.00,6000.00,M,M,PADK 011130Z AUTO 35005KT 10SM FEW026 FEW033 OVC060 A2985 RMK MADISHF
PADK,2017-04-01 11:35,-176.6460,51.8780,M,M,M,350.00,5.00,M,29.86,M,10.00,M,FEW,FEW,OVC,M,2600.00,3300.00,6000.00,M,M,PADK 011135Z AUTO 35005KT 10SM FEW026 FEW033 OVC060 A2986 RMK MADISHF
PADK,2017-04-01 11:36,-176.6460,51.8780,30.20,19.40,63.75,350.00,5.00,0.00,29.86,M,10.00,M,FEW,FEW,OVC,M,2600.00,3300.00,6000.00,M,M,PADK 011136Z AUTO 35005KT 10SM FEW026 FEW033 OVC060 M01/M07 A2986 RMK AO1
PADK,2017-04-01 11:40,-176.6460,51.8780,M,M,M,350.00,5.00,M,29.86,M,10.00,M,FEW,OVC,M,M,3300.00,6000.00,M,M,M,PADK 011140Z AUTO 35005KT 10SM FEW033 OVC060 A2986 RMK MADISHF
PADK,2017-04-01 11:45,-176.6460,51.8780,M,M,M,350.00,5.00,M,29.86,M,10.00,M,OVC,M,M,M,6000.00,M,M,M,M,PADK 011145Z AUTO 35005KT 10SM OVC060 A2986 RMK MADISHF
PADK,2017-04-01 11:50,-176.6460,51.8780,M,M,M,350.00,5.00,M,29.86,M,10.00,M,OVC,M,M,M,6000.00,M,M,M,M,PADK 011150Z AUTO 35005KT 10SM OVC060 A2986 RMK MADISHF
PADK,2017-04-01 11:55,-176.6460,51.8780,M,M,M,350.00,6.00,M,29.86,M,10.00,M,OVC,M,M,M,6000.00,M,M,M,M,PADK 011155Z AUTO 35006KT 10SM OVC060 A2986 RMK MADISHF
PADK,2017-04-01 11:56,-176.6460,51.8780,28.40,19.40,68.61,350.00,6.00,0.00,29.86,M,10.00,M,OVC,M,M,M,6000.00,M,M,M,M,PADK 011156Z AUTO 35006KT 10SM OVC060 M02/M07 A2986 RMK AO1 10000 21020 52003
PADK,2017-04-01 12:00,-176.6460,51.8780,M,M,M,360.00,5.00,M,29.86,M,10.00,M,OVC,M,M,M,6000.00,M,M,M,M,PADK 011200Z AUTO 36005KT 10SM OVC060 A2986 RMK MADISHF
PADK,2017-04-01 12:05,-176.6460,51.8780,M,M,M,360.00,6.00,M,29.86,M,10.00,M,OVC,M,M,M,6000.00,M,M,M,M,PADK 011205Z AUTO 36006KT 10SM OVC060 A2986 RMK MADISHF
PADK,2017-04-01 12:10,-176.6460,51.8780,M,M,M,360.00,3.00,M,29.86,M,10.00,M,OVC,M,M,M,6000.00,M,M,M,M,PADK 011210Z AUTO 36003KT 10SM OVC060 A2986 RMK MADISHF
PADK,2017-04-01 12:15,-176.6460,51.8780,M,M,M,360.00,3.00,M,29.86,M,10.00,M,OVC,M,M,M,6000.00,M,M,M,M,PADK 011215Z AUTO 36003KT 10SM OVC060 A2986 RMK MADISHF
PADK,2017-04-01 12:16,-176.6460,51.8780,28.40,19.40,68.61,360.00,3.00,0.00,29.86,M,10.00,M,OVC,M,M,M,6000.00,M,M,M,M,PADK 011216Z AUTO 36003KT 10SM OVC060 M02/M07 A2986 RMK AO1
PADK,2017-04-01 12:20,-176.6460,51.8780,M,M,M,360.00,4.00,M,29.86,M,10.00,M,FEW,OVC,M,M,2200.00,6000.00,M,M,M,PADK 011220Z AUTO 36004KT 10SM FEW022 OVC060 A2986 RMK MADISHF
PADK,2017-04-01 12:25,-176.6460,51.8780,M,M,M,360.00,5.00,M,29.86,M,10.00,M,SCT,OVC,M,M,2200.00,6000.00,M,M,M,PADK 011225Z AUTO 36005KT 10SM SCT022 OVC060 A2986 RMK MADISHF
PADK,2017-04-01 12:30,-176.6460,51.8780,M,M,M,360.00,4.00,M,29.86,M,10.00,M,BKN,OVC,M,M,2200.00,6000.00,M,M,M,PADK 011230Z AUTO 36004KT 10SM BKN022 OVC060 A2986 RMK MADISHF
PADK,2017-04-01 12:35,-176.6460,51.8780,M,M,M,360.00,4.00,M,29.86,M,10.00,M,BKN,OVC,M,M,2200.00,6000.00,M,M,M,PADK 011235Z AUTO 36004KT 10SM BKN022 OVC060 A2986 RMK MADISHF
PADK,2017-04-01 12:36,-176.6460,51.8780,30.20,19.40,63.75,360.00,4.00,0.00,29.86,M,10.00,M,BKN,OVC,M,M,2200.00,6000.00,M,M,M,PADK 011236Z AUTO 36004KT 10SM BKN022 OVC060 M01/M07 A2986 RMK AO1
PADK,2017-04-01 12:40,-176.6460,51.8780,M,M,M,20.00,5.00,M,29.86,M,10.00,M,BKN,OVC,M,M,2200.00,6000.00,M,M,M,PADK 011240Z AUTO 02005KT 10SM BKN022 OVC060 A2986 RMK MADISHF
PADK,2017-04-01 12:45,-176.6460,51.8780,M,M,M,50.00,6.00,M,29.86,M,10.00,M,BKN,BKN,OVC,M,2200.00,2700.00,6000.00,M,M,PADK 011245Z AUTO 05006KT 10SM BKN022 BKN027 OVC060 A2986 RMK MADISHF
PADK,2017-04-01 12:50,-176.6460,51.8780,M,M,M,60.00,6.00,M,29.86,M,10.00,M,BKN,BKN,OVC,M,2200.00,2700.00,6000.00,M,M,PADK 011250Z AUTO 06006KT 10SM BKN022 BKN027 OVC060 A2986 RMK MADISHF
PADK,2017-04-01 12:55,-176.6460,51.8780,M,M,M,60.00,7.00,M,29.86,M,10.00,M,SCT,BKN,OVC,M,2200.00,2700.00,6000.00,M,M,PADK 011255Z AUTO 06007KT 10SM SCT022 BKN027 OVC060 A2986 RMK MADISHF
PADK,2017-04-01 12:56,-176.6460,51.8780,30.20,21.20,68.83,60.00,7.00,0.00,29.86,M,10.00,M,SCT,BKN,OVC,M,2200.00,2700.00,6000.00,M,M,PADK 011256Z AUTO 06007KT 10SM SCT022 BKN027 OVC060 M01/M06 A2986 RMK AO1
PADK,2017-04-01 13:00,-176.6460,51.8780,M,M,M,50.00,5.00,M,29.86,M,10.00,M,FEW,SCT,OVC,M,2200.00,2700.00,6000.00,M,M,PADK 011300Z AUTO 05005KT 10SM FEW022 SCT027 OVC060 A2986 RMK MADISHF
PADK,2017-04-01 13:05,-176.6460,51.8780,M,M,M,30.00,3.00,M,29.86,M,10.00,M,FEW,SCT,OVC,M,2200.00,2700.00,6000.00,M,M,PADK 011305Z AUTO 03003KT 10SM FEW022 SCT027 OVC060 A2986 RMK MADISHF
PADK,2017-04-01 13:10,-176.6460,51.8780,M,M,M,360.00,5.00,M,29.86,M,10.00,M,FEW,OVC,M,M,2700.00,6000.00,M,M,M,PADK 011310Z AUTO 36005KT 10SM FEW027 OVC060 A2986 RMK MADISHF
PADK,2017-04-01 13:15,-176.6460,51.8780,M,M,M,360.00,4.00,M,29.86,M,10.00,M,OVC,M,M,M,6000.00,M,M,M,M,PADK 011315Z AUTO 36004KT 10SM OVC060 A2986 RMK MADISHF
PADK,2017-04-01 13:16,-176.6460,51.8780,30.20,21.20,68.83,360.00,4.00,0.00,29.86,M,10.00,M,OVC,M,M,M,6000.00,M,M,M,M,PADK 011316Z AUTO 36004KT 10SM OVC060 M01/M06 A2986 RMK AO1
PADK,2017-04-01 13:20,-176.6460,51.8780,M,M,M,360.00,4.00,M,29.86,M,10.00,M,OVC,M,M,M,6000.00,M,M,M,M,PADK 011320Z AUTO 36004KT 10SM OVC060 A2986 RMK MADISHF
PADK,2017-04-01 13:25,-176.6460,51.8780,M,M,M,360.00,3.00,M,29.86,M,10.00,M,OVC,M,M,M,6000.00,M,M,M,M,PADK 011325Z AUTO 36003KT 10SM OVC060 A2986 RMK MADISHF
PADK,2017-04-01 13:30,-176.6460,51.8780,M,M,M,360.00,4.00,M,29.86,M,10.00,M,OVC,M,M,M,6000.00,M,M,M,M,PADK 011330Z AUTO 36004KT 10SM OVC060 A2986 RMK MADISHF
PADK,2017-04-01 13:35,-176.6460,51.8780,M,M,M,360.00,4.00,M,29.86,M,10.00,M,OVC,M,M,M,6000.00,M,M,M,M,PADK 011335Z AUTO 36004KT 10SM OVC060 A2986 RMK MADISHF
PADK,2017-04-01 13:36,-176.6460,51.8780,28.40,19.40,68.61,360.00,4.00,0.00,29.86,M,10.00,M,OVC,M,M,M,6000.00,M,M,M,M,PADK 011336Z AUTO 36004KT 10SM OVC060 M02/M07 A2986 RMK AO1
PADK,2017-04-01 13:40,-176.6460,51.8780,M,M,M,360.00,4.00,M,29.86,M,10.00,M,OVC,M,M,M,6000.00,M,M,M,M,PADK 011340Z AUTO 36004KT 10SM OVC060 A2986 RMK MADISHF
PADK,2017-04-01 13:45,-176.6460,51.8780,M,M,M,360.00,4.00,M,29.86,M,10.00,M,OVC,M,M,M,6000.00,M,M,M,M,PADK 011345Z AUTO 36004KT 10SM OVC060 A2986 RMK MADISHF
PADK,2017-04-01 13:50,-176.6460,51.8780,M,M,M,360.00,4.00,M,29.86,M,10.00,M,OVC,M,M,M,6000.00,M,M,M,M,PADK 011350Z AUTO 36004KT 10SM OVC060 A2986 RMK MADISHF
PADK,2017-04-01 13:55,-176.6460,51.8780,M,M,M,360.00,4.00,M,29.86,M,10.00,M,OVC,M,M,M,6000.00,M,M,M,M,PADK 011355Z AUTO 36004KT 10SM OVC060 A2986 RMK MADISHF
PADK,2017-04-01 13:56,-176.6460,51.8780,28.40,17.60,63.51,360.00,4.00,0.00,29.86,M,10.00,M,OVC,M,M,M,6000.00,M,M,M,M,PADK 011356Z AUTO 36004KT 10SM OVC060 M02/M08 A2986 RMK AO1
PADK,2017-04-01 14:00,-176.6460,51.8780,M,M,M,360.00,4.00,M,29.86,M,10.00,M,OVC,M,M,M,6000.00,M,M,M,M,PADK 011400Z AUTO 36004KT 10SM OVC060 A2986 RMK MADISHF
PADK,2017-04-01 14:05,-176.6460,51.8780,M,M,M,360.00,4.00,M,29.86,M,10.00,M,OVC,M,M,M,6000.00,M,M,M,M,PADK 011405Z AUTO 36004KT 10SM OVC060 A2986 RMK MADISHF
PADK,2017-04-01 14:10,-176.6460,51.8780,M,M,M,360.00,4.00,M,29.86,M,10.00,M,OVC,M,M,M,6000.00,M,M,M,M,PADK 011410Z AUTO 36004KT 10SM OVC060 A2986 RMK MADISHF
PADK,2017-04-01 14:15,-176.6460,51.8780,M,M,M,360.00,3.00,M,29.86,M,10.00,M,OVC,M,M,M,6000.00,M,M,M,M,PADK 011415Z AUTO 36003KT 10SM OVC060 A2986 RMK MADISHF
PADK,2017-04-01 14:16,-176.6460,51.8780,28.40,19.40,68.61,360.00,3.00,0.00,29.86,M,10.00,M,OVC,M,M,M,6000.00,M,M,M,M,PADK 011416Z AUTO 36003KT 10SM OVC060 M02/M07 A2986 RMK AO1
PADK,2017-04-01 14:20,-176.6460,51.8780,M,M,M,360.00,3.00,M,29.86,M,10.00,M,OVC,M,M,M,6000.00,M,M,M,M,PADK 011420Z AUTO 36003KT 10SM OVC060 A2986 RMK MADISHF
PADK,2017-04-01 14:25,-176.6460,51.8780,M,M,M,360.00,4.00,M,29.86,M,10.00,M,OVC,M,M,M,6000.00,M,M,M,M,PADK 011425Z AUTO 36004KT 10SM OVC060 A2986 RMK MADISHF
PADK,2017-04-01 14:30,-176.6460,51.8780,M,M,M,360.00,3.00,M,29.86,M,10.00,M,OVC,M,M,M,6000.00,M,M,M,M,PADK 011430Z AUTO 36003KT 10SM OVC060 A2986 RMK MADISHF
PADK,2017-04-01 14:35,-176.6460,51.8780,M,M,M,360.00,3.00,M,29.86,M,10.00,M,OVC,M,M,M,6000.00,M,M,M,M,PADK 011435Z AUTO 36003KT 10SM OVC060 A2986 RMK MADISHF
PADK,2017-04-01 14:36,-176.6460,51.8780,28.40,19.40,68.61,360.00,3.00,0.00,29.86,M,10.00,M,OVC,M,M,M,6000.00,M,M,M,M,PADK 011436Z AUTO 36003KT 10SM OVC060 M02/M07 A2986 RMK AO1
PADK,2017-04-01 14:40,-176.6460,51.8780,M,M,M,0.00,0.00,M,29.86,M,10.00,M,OVC,M,M,M,6000.00,M,M,M,M,PADK 011440Z AUTO 00000KT 10SM OVC060 A2986 RMK MADISHF
PADK,2017-04-01 14:45,-176.6460,51.8780,M,M,M,360.00,3.00,M,29.86,M,10.00,M,OVC,M,M,M,6000.00,M,M,M,M,PADK 011445Z AUTO 36003KT 10SM OVC060 A2986 RMK MADISHF
PADK,2017-04-01 14:50,-176.6460,51.8780,M,M,M,360.00,3.00,M,29.86,M,10.00,M,OVC,M,M,M,6000.00,M,M,M,M,PADK 011450Z AUTO 36003KT 10SM OVC060 A2986 RMK MADISHF
PADK,2017-04-01 14:55,-176.6460,51.8780,M,M,M,360.00,3.00,M,29.86,M,10.00,M,OVC,M,M,M,6000.00,M,M,M,M,PADK 011455Z AUTO 36003KT 10SM OVC060 A2986 RMK MADISHF
PADK,2017-04-01 14:56,-176.6460,51.8780,28.40,19.40,68.61,360.00,3.00,0.00,29.86,M,10.00,M,OVC,M,M,M,6000.00,M,M,M,M,PADK 011456Z AUTO 36003KT 10SM OVC060 M02/M07 A2986 RMK AO1 54000
PADK,2017-04-01 15:00,-176.6460,51.8780,M,M,M,360.00,3.00,M,29.86,M,10.00,M,OVC,M,M,M,6000.00,M,M,M,M,PADK 011500Z AUTO 36003KT 10SM OVC060 A2986 RMK MADISHF
PADK,2017-04-01 15:05,-176.6460,51.8780,M,M,M,360.00,3.00,M,29.86,M,10.00,M,OVC,M,M,M,6000.00,M,M,M,M,PADK 011505Z AUTO 36003KT 10SM OVC060 A2986 RMK MADISHF
PADK,2017-04-01 15:10,-176.6460,51.8780,M,M,M,360.00,4.00,M,29.86,M,10.00,M,OVC,M,M,M,6000.00,M,M,M,M,PADK 011510Z AUTO 36004KT 10SM OVC060 A2986 RMK MADISHF
PADK,2017-04-01 15:15,-176.6460,51.8780,M,M,M,360.00,4.00,M,29.86,M,10.00,M,OVC,M,M,M,6000.00,M,M,M,M,PADK 011515Z AUTO 36004KT 10SM OVC060 A2986 RMK MADISHF
PADK,2017-04-01 15:16,-176.6460,51.8780,28.40,19.40,68.61,360.00,4.00,0.00,29.86,M,10.00,M,OVC,M,M,M,6000.00,M,M,M,M,PADK 011516Z AUTO 36004KT 10SM OVC060 M02/M07 A2986 RMK AO1
PADK,2017-04-01 15:20,-176.6460,51.8780,M,M,M,360.00,4.00,M,29.86,M,10.00,M,OVC,M,M,M,6000.00,M,M,M,M,PADK 011520Z AUTO 36004KT 10SM OVC060 A2986 RMK MADISHF
PADK,2017-04-01 15:25,-176.6460,51.8780,M,M,M,360.00,4.00,M,29.86,M,10.00,M,OVC,M,M,M,6000.00,M,M,M,M,PADK 011525Z AUTO 36004KT 10SM OVC060 A2986 RMK MADISHF
PADK,2017-04-01 15:30,-176.6460,51.8780,M,M,M,360.00,4.00,M,29.86,M,10.00,M,OVC,M,M,M,6000.00,M,M,M,M,PADK 011530Z AUTO 36004KT 10SM OVC060 A2986 RMK MADISHF
PADK,2017-04-01 15:35,-176.6460,51.8780,M,M,M,360.00,4.00,M,29.86,M,10.00,M,OVC,M,M,M,6000.00,M,M,M,M,PADK 011535Z AUTO 36004KT 10SM OVC060 A2986 RMK MADISHF
PADK,2017-04-01 15:36,-176.6460,51.8780,28.40,19.40,68.61,360.00,4.00,0.00,29.86,M,10.00,M,OVC,M,M,M,6000.00,M,M,M,M,PADK 011536Z AUTO 36004KT 10SM OVC060 M02/M07 A2986 RMK AO1
PADK,2017-04-01 15:40,-176.6460,51.8780,M,M,M,360.00,4.00,M,29.86,M,10.00,M,OVC,M,M,M,6000.00,M,M,M,M,PADK 011540Z AUTO 36004KT 10SM OVC060 A2986 RMK MADISHF
PADK,2017-04-01 15:45,-176.6460,51.8780,M,M,M,360.00,4.00,M,29.86,M,10.00,M,OVC,M,M,M,6000.00,M,M,M,M,PADK 011545Z AUTO 36004KT 10SM OVC060 A2986 RMK MADISHF
PADK,2017-04-01 15:50,-176.6460,51.8780,M,M,M,360.00,4.00,M,29.86,M,10.00,M,OVC,M,M,M,6000.00,M,M,M,M,PADK 011550Z AUTO 36004KT 10SM OVC060 A2986 RMK MADISHF
PADK,2017-04-01 15:55,-176.6460,51.8780,M,M,M,360.00,4.00,M,29.86,M,10.00,M,OVC,M,M,M,6000.00,M,M,M,M,PADK 011555Z AUTO 36004KT 10SM OVC060 A2986 RMK MADISHF
PADK,2017-04-01 15:56,-176.6460,51.8780,28.40,19.40,68.61,360.00,5.00,0.00,29.86,M,10.00,M,OVC,M,M,M,6000.00,M,M,M,M,PADK 011556Z AUTO 36005KT 10SM OVC060 M02/M07 A2986 RMK AO1
PADK,2017-04-01 16:00,-176.6460,51.8780,M,M,M,360.00,5.00,M,29.86,M,10.00,M,OVC,M,M,M,6000.00,M,M,M,M,PADK 011600Z AUTO 36005KT 10SM OVC060 A2986 RMK MADISHF
PADK,2017-04-01 16:05,-176.6460,51.8780,M,M,M,360.00,4.00,M,29.86,M,10.00,M,OVC,M,M,M,6000.00,M,M,M,M,PADK 011605Z AUTO 36004KT 10SM OVC060 A2986 RMK MADISHF
PADK,2017-04-01 16:10,-176.6460,51.8780,M,M,M,360.00,4.00,M,29.86,M,10.00,M,OVC,M,M,M,6000.00,M,M,M,M,PADK 011610Z AUTO 36004KT 10SM OVC060 A2986 RMK MADISHF
PADK,2017-04-01 16:15,-176.6460,51.8780,M,M,M,360.00,4.00,M,29.86,M,10.00,M,OVC,M,M,M,6000.00,M,M,M,M,PADK 011615Z AUTO 36004KT 10SM OVC060 A2986 RMK MADISHF
PADK,2017-04-01 16:16,-176.6460,51.8780,28.40,19.40,68.61,360.00,4.00,0.00,29.86,M,10.00,M,OVC,M,M,M,6000.00,M,M,M,M,PADK 011616Z AUTO 36004KT 10SM OVC060 M02/M07 A2986 RMK AO1
PADK,2017-04-01 16:20,-176.6460,51.8780,M,M,M,360.00,5.00,M,29.86,M,10.00,M,OVC,M,M,M,6000.00,M,M,M,M,PADK 011620Z AUTO 36005KT 10SM OVC060 A2986 RMK MADISHF
PADK,2017-04-01 16:25,-176.6460,51.8780,M,M,M,360.00,4.00,M,29.86,M,10.00,M,OVC,M,M,M,6000.00,M,M,M,M,PADK 011625Z AUTO 36004KT 10SM OVC060 A2986 RMK MADISHF
PADK,2017-04-01 16:30,-176.6460,51.8780,M,M,M,360.00,4.00,M,29.86,M,10.00,M,OVC,M,M,M,6000.00,M,M,M,M,PADK 011630Z AUTO 36004KT 10SM OVC060 A2986 RMK MADISHF
PADK,2017-04-01 16:35,-176.6460,51.8780,M,M,M,360.00,5.00,M,29.86,M,10.00,M,OVC,M,M,M,6000.00,M,M,M,M,PADK 011635Z AUTO 36005KT 10SM OVC060 A2986 RMK MADISHF
PADK,2017-04-01 16:36,-176.6460,51.8780,28.40,17.60,63.51,360.00,5.00,0.00,29.86,M,10.00,M,OVC,M,M,M,6000.00,M,M,M,M,PADK 011636Z AUTO 36005KT 10SM OVC060 M02/M08 A2986 RMK AO1
PADK,2017-04-01 16:40,-176.6460,51.8780,M,M,M,360.00,4.00,M,29.86,M,10.00,M,OVC,M,M,M,6000.00,M,M,M,M,PADK 011640Z AUTO 36004KT 10SM OVC060 A2986 RMK MADISHF
PADK,2017-04-01 16:45,-176.6460,51.8780,M,M,M,360.00,4.00,M,29.86,M,10.00,M,OVC,M,M,M,6000.00,M,M,M,M,PADK 011645Z AUTO 36004KT 10SM OVC060 A2986 RMK MADISHF
PADK,2017-04-01 16:50,-176.6460,51.8780,M,M,M,360.00,4.00,M,29.86,M,10.00,M,OVC,M,M,M,6000.00,M,M,M,M,PADK 011650Z AUTO 36004KT 10SM OVC060 A2986 RMK MADISHF
PADK,2017-04-01 16:55,-176.6460,51.8780,M,M,M,360.00,5.00,M,29.86,M,10.00,M,OVC,M,M,M,6000.00,M,M,M,M,PADK 011655Z AUTO 36005KT 10SM OVC060 A2986 RMK MADISHF
PADK,2017-04-01 16:56,-176.6460,51.8780,28.40,17.60,63.51,360.00,5.00,0.00,29.86,M,10.00,M,OVC,M,M,M,6000.00,M,M,M,M,PADK 011656Z AUTO 36005KT 10SM OVC060 M02/M08 A2986 RMK AO1
PADK,2017-04-01 17:00,-176.6460,51.8780,M,M,M,360.00,5.00,M,29.86,M,10.00,M,OVC,M,M,M,6000.00,M,M,M,M,PADK 011700Z AUTO 36005KT 10SM OVC060 A2986 RMK MADISHF
PADK,2017-04-01 17:05,-176.6460,51.8780,M,M,M,360.00,5.00,M,29.86,M,10.00,M,OVC,M,M,M,6000.00,M,M,M,M,PADK 011705Z AUTO 36005KT 10SM OVC060 A2986 RMK MADISHF
PADK,2017-04-01 17:10,-176.6460,51.8780,M,M,M,360.00,5.00,M,29.86,M,10.00,M,OVC,M,M,M,6000.00,M,M,M,M,PADK 011710Z AUTO 36005KT 10SM OVC060 A2986 RMK MADISHF
PADK,2017-04-01 17:15,-176.6460,51.8780,M,M,M,360.00,4.00,M,29.86,M,10.00,M,OVC,M,M,M,6000.00,M,M,M,M,PADK 011715Z AUTO 36004KT 10SM OVC060 A2986 RMK MADISHF
PADK,2017-04-01 17:16,-176.6460,51.8780,28.40,19.40,68.61,0.00,0.00,0.00,29.87,M,10.00,M,OVC,M,M,M,6000.00,M,M,M,M,PADK 011716Z AUTO 00000KT 10SM OVC060 M02/M07 A2987 RMK AO1
PADK,2017-04-01 17:20,-176.6460,51.8780,M,M,M,30.00,3.00,M,29.87,M,10.00,M,FEW,SCT,OVC,M,2400.00,3500.00,6000.00,M,M,PADK 011720Z AUTO 03003KT 10SM FEW024 SCT035 OVC060 A2987 RMK MADISHF
PADK,2017-04-01 17:25,-176.6460,51.8780,M,M,M,50.00,3.00,M,29.87,M,10.00,M,FEW,SCT,OVC,M,1400.00,3500.00,6000.00,M,M,PADK 011725Z AUTO 05003KT 10SM FEW014 SCT035 OVC060 A2987 RMK MADISHF
PADK,2017-04-01 17:30,-176.6460,51.8780,M,M,M,70.00,5.00,M,29.87,M,10.00,M,FEW,SCT,OVC,M,1400.00,3500.00,6000.00,M,M,PADK 011730Z AUTO 07005KT 10SM FEW014 SCT035 OVC060 A2987 RMK MADISHF
PADK,2017-04-01 17:35,-176.6460,51.8780,M,M,M,70.00,5.00,M,29.87,M,10.00,M,FEW,FEW,OVC,M,2400.00,3600.00,6000.00,M,M,PADK 011735Z AUTO 07005KT 10SM FEW024 FEW036 OVC060 A2987 RMK MADISHF
PADK,2017-04-01 17:36,-176.6460,51.8780,32.00,21.20,63.99,70.00,5.00,0.00,29.87,M,10.00,M,FEW,FEW,OVC,M,2400.00,3600.00,6000.00,M,M,PADK 011736Z AUTO 07005KT 10SM FEW024 FEW036 OVC060 00/M06 A2987 RMK AO1
PADK,2017-04-01 17:40,-176.6460,51.8780,M,M,M,80.00,6.00,M,29.87,M,10.00,M,FEW,FEW,OVC,M,2400.00,3600.00,6000.00,M,M,PADK 011740Z AUTO 08006KT 10SM FEW024 FEW036 OVC060 A2987 RMK MADISHF
PADK,2017-04-01 17:45,-176.6460,51.8780,M,M,M,110.00,8.00,M,29.87,M,10.00,M,FEW,FEW,OVC,M,2400.00,3600.00,6000.00,M,M,PADK 011745Z AUTO 11008KT 10SM FEW024 FEW036 OVC060 A2987 RMK MADISHF
PADK,2017-04-01 17:50,-176.6460,51.8780,M,M,M,120.00,8.00,M,29.87,M,10.00,M,OVC,M,M,M,6000.00,M,M,M,M,PADK 011750Z AUTO 12008KT 10SM OVC060 A2987 RMK MADISHF
PADK,2017-04-01 17:55,-176.6460,51.8780,M,M,M,110.00,7.00,M,29.87,M,10.00,M,OVC,M,M,M,6000.00,M,M,M,M,PADK 011755Z AUTO 11007KT 10SM OVC060 A2987 RMK MADISHF
PADK,2017-04-01 17:56,-176.6460,51.8780,32.00,21.20,63.99,110.00,7.00,0.00,29.87,M,10.00,M,OVC,M,M,M,6000.00,M,M,M,M,PADK 011756Z AUTO 11007KT 10SM OVC060 00/M06 A2987 RMK AO1 10000 21020 52003
PADK,2017-04-01 18:00,-176.6460,51.8780,M,M,M,110.00,7.00,M,29.87,M,10.00,M,OVC,M,M,M,6000.00,M,M,M,M,PADK 011800Z AUTO 11007KT 10SM OVC060 A2987 RMK MADISHF
PADK,2017-04-01 18:05,-176.6460,51.8780,M,M,M,110.00,6.00,M,29.88,M,10.00,M,OVC,M,M,M,6000.00,M,M,M,M,PADK 011805Z AUTO 11006KT 10SM OVC060 A2988 RMK MADISHF
PADK,2017-04-01 18:10,-176.6460,51.8780,M,M,M,110.00,7.00,M,29.88,M,10.00,M,OVC,M,M,M,6000.00,M,M,M,M,PADK 011810Z AUTO 11007KT 10SM OVC060 A2988 RMK MADISHF
PADK,2017-04-01 18:15,-176.6460,51.8780,M,M,M,120.00,7.00,M,29.88,M,10.00,M,OVC,M,M,M,6000.00,M,M,M,M,PADK 011815Z AUTO 12007KT 10SM OVC060 A2988 RMK MADISHF
PADK,2017-04-01 18:16,-176.6460,51.8780,32.00,19.40,59.27,110.00,6.00,0.00,29.88,M,10.00,M,OVC,M,M,M,6000.00,M,M,M,M,PADK 011816Z AUTO 11006KT 10SM OVC060 00/M07 A2988 RMK AO1
PADK,2017-04-01 18:20,-176.6460,51.8780,M,M,M,110.00,6.00,M,29.88,M,10.00,M,OVC,M,M,M,6000.00,M,M,M,M,PADK 011820Z AUTO 11006KT 10SM OVC060 A2988 RMK MADISHF
PADK,2017-04-01 18:25,-176.6460,51.8780,M,M,M,110.00,4.00,M,29.88,M,10.00,M,OVC,M,M,M,6000.00,M,M,M,M,PADK 011825Z AUTO 11004KT 10SM OVC060 A2988 RMK MADISHF
PADK,2017-04-01 18:30,-176.6460,51.8780,M,M,M,110.00,3.00,M,29.88,M,10.00,M,OVC,M,M,M,6000.00,M,M,M,M,PADK 011830Z AUTO 11003KT 10SM OVC060 A2988 RMK MADISHF
PADK,2017-04-01 18:35,-176.6460,51.8780,M,M,M,110.00,3.00,M,29.88,M,10.00,M,OVC,M,M,M,6000.00,M,M,M,M,PADK 011835Z AUTO 11003KT 10SM OVC060 A2988 RMK MADISHF
PADK,2017-04-01 18:36,-176.6460,51.8780,33.80,19.40,55.14,110.00,3.00,0.00,29.88,M,10.00,M,OVC,M,M,M,6000.00,M,M,M,M,PADK 011836Z AUTO 11003KT 10SM OVC060 01/M07 A2988 RMK AO1
PADK,2017-04-01 18:40,-176.6460,51.8780,M,M,M,0.00,0.00,M,29.88,M,10.00,M,OVC,M,M,M,6000.00,M,M,M,M,PADK 011840Z AUTO 00000KT 10SM OVC060 A2988 RMK MADISHF
PADK,2017-04-01 18:45,-176.6460,51.8780,M,M,M,0.00,0.00,M,29.88,M,10.00,M,OVC,M,M,M,6000.00,M,M,M,M,PADK 011845Z AUTO 00000KT 10SM OVC060 A2988 RMK MADISHF
PADK,2017-04-01 18:50,-176.6460,51.8780,M,M,M,10.00,4.00,M,29.88,M,10.00,M,OVC,M,M,M,6000.00,M,M,M,M,PADK 011850Z AUTO 01004KT 10SM OVC060 A2988 RMK MADISHF
PADK,2017-04-01 18:55,-176.6460,51.8780,M,M,M,10.00,4.00,M,29.88,M,10.00,M,OVC,M,M,M,6000.00,M,M,M,M,PADK 011855Z AUTO 01004KT 10SM OVC060 A2988 RMK MADISHF
PADK,2017-04-01 18:56,-176.6460,51.8780,33.80,21.20,59.53,10.00,5.00,0.00,29.88,M,10.00,M,OVC,M,M,M,6000.00,M,M,M,M,PADK 011856Z AUTO 01005KT 10SM OVC060 01/M06 A2988 RMK AO1
PADK,2017-04-01 19:00,-176.6460,51.8780,M,M,M,10.00,5.00,M,29.88,M,10.00,M,OVC,M,M,M,6000.00,M,M,M,M,PADK 011900Z AUTO 01005KT 10SM OVC060 A2988 RMK MADISHF
PADK,2017-04-01 19:05,-176.6460,51.8780,M,M,M,360.00,7.00,M,29.88,M,10.00,M,FEW,OVC,M,M,3200.00,6000.00,M,M,M,PADK 011905Z AUTO 36007KT 10SM FEW032 OVC060 A2988 RMK MADISHF
PADK,2017-04-01 19:10,-176.6460,51.8780,M,M,M,360.00,7.00,M,29.88,M,10.00,M,FEW,OVC,M,M,3200.00,6000.00,M,M,M,PADK 011910Z AUTO 36007KT 10SM FEW032 OVC060 A2988 RMK MADISHF
PADK,2017-04-01 19:15,-176.6460,51.8780,M,M,M,360.00,10.00,M,29.88,M,10.00,M,FEW,SCT,OVC,M,2500.00,3200.00,6000.00,M,M,PADK 011915Z AUTO 36010KT 10SM FEW025 SCT032 OVC060 A2988 RMK MADISHF
PADK,2017-04-01 19:16,-176.6460,51.8780,33.80,21.20,59.53,360.00,9.00,0.00,29.88,M,10.00,M,FEW,SCT,OVC,M,2500.00,3200.00,6000.00,M,M,PADK 011916Z AUTO 36009KT 10SM FEW025 SCT032 OVC060 01/M06 A2988 RMK AO1
PADK,2017-04-01 19:20,-176.6460,51.8780,M,M,M,360.00,9.00,M,29.89,M,10.00,M,FEW,SCT,OVC,M,2500.00,3200.00,6000.00,M,M,PADK 011920Z AUTO 36009KT 10SM FEW025 SCT032 OVC060 A2989 RMK MADISHF
PADK,2017-04-01 19:25,-176.6460,51.8780,M,M,M,360.00,8.00,M,29.89,M,10.00,M,SCT,OVC,M,M,3399.00,6000.00,M,M,M,PADK 011925Z AUTO 36008KT 10SM SCT033 OVC060 A2989 RMK MADISHF
PADK,2017-04-01 19:30,-176.6460,51.8780,M,M,M,360.00,8.00,M,29.89,M,10.00,M,FEW,OVC,M,M,3399.00,6000.00,M,M,M,PADK 011930Z AUTO 36008KT 10SM FEW033 OVC060 A2989 RMK MADISHF
PADK,2017-04-01 19:35,-176.6460,51.8780,M,M,M,360.00,8.00,M,29.88,M,10.00,M,FEW,OVC,M,M,3399.00,6000.00,M,M,M,PADK 011935Z AUTO 36008KT 10SM FEW033 OVC060 A2988 RMK MADISHF
PADK,2017-04-01 19:36,-176.6460,51.8780,33.80,19.40,55.14,360.00,8.00,0.00,29.88,M,10.00,M,FEW,OVC,M,M,3400.00,6000.00,M,M,M,PADK 011936Z AUTO 36008KT 10SM FEW034 OVC060 01/M07 A2988 RMK AO1
PADK,2017-04-01 19:40,-176.6460,51.8780,M,M,M,360.00,8.00,M,29.88,M,10.00,M,FEW,OVC,M,M,3399.00,6000.00,M,M,M,PADK 011940Z AUTO 36008KT 10SM FEW033 OVC060 A2988 RMK MADISHF
PADK,2017-04-01 19:45,-176.6460,51.8780,M,M,M,360.00,8.00,M,29.89,M,10.00,M,FEW,OVC,M,M,3399.00,6000.00,M,M,M,PADK 011945Z AUTO 36008KT 10SM FEW033 OVC060 A2989 RMK MADISHF
PADK,2017-04-01 19:50,-176.6460,51.8780,M,M,M,360.00,9.00,M,29.88,M,9.00,M,FEW,OVC,M,M,3399.00,6000.00,M,M,M,PADK 011950Z AUTO 36009KT 9SM FEW033 OVC060 A2988 RMK MADISHF
PADK,2017-04-01 19:55,-176.6460,51.8780,M,M,M,360.00,7.00,M,29.89,M,4.00,M,FEW,FEW,OVC,M,2500.00,3399.00,6000.00,M,M,PADK 011955Z AUTO 36007KT 4SM FEW025 FEW033 OVC060 A2989 RMK MADISHF
PADK,2017-04-01 19:56,-176.6460,51.8780,33.80,21.20,59.53,360.00,6.00,0.00,29.89,M,3.00,M,FEW,OVC,M,M,2500.00,6000.00,M,M,M,PADK 011956Z AUTO 36006KT 3SM FEW025 OVC060 01/M06 A2989 RMK AO1
PADK,2017-04-01 20:00,-176.6460,51.8780,M,M,M,350.00,5.00,M,29.89,M,2.50,M,FEW,SCT,OVC,M,1800.00,2500.00,6000.00,M,M,PADK 012000Z AUTO 35005KT 2 1/2SM FEW018 SCT025 OVC060 A2989 RMK MADISHF
PADK,2017-04-01 20:05,-176.6460,51.8780,M,M,M,M,6.00,M,29.89,M,3.00,M,SCT,OVC,M,M,1999.00,6000.00,M,M,M,PADK 012005Z AUTO ///06KT 3SM SCT019 OVC060 A2989 RMK MADISHF
PADK,2017-04-01 20:10,-176.6460,51.8780,M,M,M,360.00,6.00,M,29.89,M,8.00,M,FEW,FEW,OVC,M,1800.00,2500.00,6000.00,M,M,PADK 012010Z AUTO 36006KT 8SM FEW018 FEW025 OVC060 A2989 RMK MADISHF
PADK,2017-04-01 20:15,-176.6460,51.8780,M,M,M,360.00,8.00,M,29.89,M,10.00,M,FEW,FEW,OVC,M,1800.00,2500.00,6000.00,M,M,PADK 012015Z AUTO 36008KT 10SM FEW018 FEW025 OVC060 A2989 RMK MADISHF
PADK,2017-04-01 20:16,-176.6460,51.8780,33.80,19.40,55.14,360.00,7.00,0.00,29.89,M,10.00,M,FEW,FEW,OVC,M,1800.00,2500.00,6000.00,M,M,PADK 012016Z AUTO 36007KT 10SM FEW018 FEW025 OVC060 01/M07 A2989 RMK AO1
PADK,2017-04-01 20:20,-176.6460,51.8780,M,M,M,360.00,7.00,M,29.89,M,10.00,M,FEW,FEW,OVC,M,1800.00,2500.00,6000.00,M,M,PADK 012020Z AUTO 36007KT 10SM FEW018 FEW025 OVC060 A2989 RMK MADISHF
PADK,2017-04-01 20:25,-176.6460,51.8780,M,M,M,360.00,8.00,M,29.89,M,10.00,M,FEW,OVC,M,M,1800.00,6000.00,M,M,M,PADK 012025Z AUTO 36008KT 10SM FEW018 OVC060 A2989 RMK MADISHF
PADK,2017-04-01 20:30,-176.6460,51.8780,M,M,M,350.00,8.00,M,29.89,M,10.00,M,OVC,M,M,M,6000.00,M,M,M,M,PADK 012030Z AUTO 35008KT 10SM OVC060 A2989 RMK MADISHF
PADK,2017-04-01 20:35,-176.6460,51.8780,M,M,M,350.00,8.00,M,29.89,M,10.00,M,OVC,M,M,M,6000.00,M,M,M,M,PADK 012035Z AUTO 35008KT 10SM OVC060 A2989 RMK MADISHF
PADK,2017-04-01 20:36,-176.6460,51.8780,33.80,21.20,59.53,350.00,8.00,0.00,29.89,M,10.00,M,OVC,M,M,M,6000.00,M,M,M,M,PADK 012036Z AUTO 35008KT 10SM OVC060 01/M06 A2989 RMK AO1
PADK,2017-04-01 20:40,-176.6460,51.8780,M,M,M,350.00,9.00,M,29.89,M,10.00,M,OVC,M,M,M,6000.00,M,M,M,M,PADK 012040Z AUTO 35009KT 10SM OVC060 A2989 RMK MADISHF
PADK,2017-04-01 20:45,-176.6460,51.8780,M,M,M,350.00,6.00,M,29.90,M,10.00,M,OVC,M,M,M,6000.00,M,M,M,M,PADK 012045Z AUTO 35006KT 10SM OVC060 A2990 RMK MADISHF
PADK,2017-04-01 20:50,-176.6460,51.8780,M,M,M,360.00,7.00,M,29.90,M,10.00,M,OVC,M,M,M,6000.00,M,M,M,M,PADK 012050Z AUTO 36007KT 10SM OVC060 A2990 RMK MADISHF
PADK,2017-04-01 20:55,-176.6460,51.8780,M,M,M,360.00,7.00,M,29.90,M,10.00,M,OVC,M,M,M,6000.00,M,M,M,M,PADK 012055Z AUTO 36007KT 10SM OVC060 A2990 RMK MADISHF
PADK,2017-04-01 20:56,-176.6460,51.8780,33.80,19.40,55.14,360.00,7.00,0.00,29.90,M,10.00,M,OVC,M,M,M,6000.00,M,M,M,M,PADK 012056Z AUTO 36007KT 10SM OVC060 01/M07 A2990 RMK AO1 52010
PADK,2017-04-01 21:00,-176.6460,51.8780,M,M,M,340.00,6.00,M,29.89,M,10.00,M,OVC,M,M,M,6000.00,M,M,M,M,PADK 012100Z AUTO 34006KT 10SM OVC060 A2989 RMK MADISHF
PADK,2017-04-01 21:05,-176.6460,51.8780,M,M,M,360.00,5.00,M,29.90,M,10.00,M,OVC,M,M,M,6000.00,M,M,M,M,PADK 012105Z AUTO 36005KT 10SM OVC060 A2990 RMK MADISHF
PADK,2017-04-01 21:10,-176.6460,51.8780,M,M,M,10.00,5.00,M,29.90,M,10.00,M,OVC,M,M,M,6000.00,M,M,M,M,PADK 012110Z AUTO 01005KT 10SM OVC060 A2990 RMK MADISHF
PADK,2017-04-01 21:15,-176.6460,51.8780,M,M,M,30.00,3.00,M,29.90,M,10.00,M,OVC,M,M,M,6000.00,M,M,M,M,PADK 012115Z AUTO 03003KT 10SM OVC060 A2990 RMK MADISHF
PADK,2017-04-01 21:16,-176.6460,51.8780,35.60,21.20,55.41,30.00,3.00,0.00,29.90,M,10.00,M,OVC,M,M,M,6000.00,M,M,M,M,PADK 012116Z AUTO 03003KT 10SM OVC060 02/M06 A2990 RMK AO1
PADK,2017-04-01 21:20,-176.6460,51.8780,M,M,M,30.00,3.00,M,29.90,M,10.00,M,OVC,M,M,M,6000.00,M,M,M,M,PADK 012120Z AUTO 03003KT 10SM OVC060 A2990 RMK MADISHF
PADK,2017-04-01 21:25,-176.6460,51.8780,M,M,M,20.00,5.00,M,29.90,M,10.00,M,OVC,M,M,M,6000.00,M,M,M,M,PADK 012125Z AUTO 02005KT 10SM OVC060 A2990 RMK MADISHF
PADK,2017-04-01 21:30,-176.6460,51.8780,M,M,M,10.00,5.00,M,29.90,M,10.00,M,FEW,OVC,M,M,3300.00,6000.00,M,M,M,PADK 012130Z AUTO 01005KT 10SM FEW033 OVC060 A2990 RMK MADISHF
PADK,2017-04-01 21:35,-176.6460,51.8780,M,M,M,360.00,11.00,M,29.90,M,10.00,M,FEW,OVC,M,M,3100.00,6000.00,M,M,M,PADK 012135Z AUTO 36011KT 10SM FEW031 OVC060 A2990 RMK MADISHF
PADK,2017-04-01 21:36,-176.6460,51.8780,35.60,19.40,51.33,360.00,10.00,0.00,29.90,M,10.00,M,FEW,FEW,OVC,M,2600.00,3100.00,6000.00,M,M,PADK 012136Z AUTO 36010KT 10SM FEW026 FEW031 OVC060 02/M07 A2990 RMK AO1
PADK,2017-04-01 21:40,-176.6460,51.8780,M,M,M,20.00,8.00,M,29.90,M,10.00,M,SCT,SCT,OVC,M,2600.00,3100.00,6000.00,M,M,PADK 012140Z AUTO 02008KT 10SM SCT026 SCT031 OVC060 A2990 RMK MADISHF
PADK,2017-04-01 21:45,-176.6460,51.8780,M,M,M,40.00,9.00,M,29.90,M,10.00,M,SCT,BKN,OVC,M,2600.00,3200.00,6000.00,M,M,PADK 012145Z AUTO 04009KT 10SM SCT026 BKN032 OVC060 A2990 RMK MADISHF
PADK,2017-04-01 21:50,-176.6460,51.8780,M,M,M,30.00,8.00,M,29.90,M,10.00,M,SCT,BKN,OVC,M,2600.00,3100.00,6000.00,M,M,PADK 012150Z AUTO 03008KT 10SM SCT026 BKN031 OVC060 A2990 RMK MADISHF
PADK,2017-04-01 21:55,-176.6460,51.8780,M,M,M,40.00,7.00,M,29.91,M,10.00,M,FEW,BKN,OVC,M,2600.00,3500.00,6000.00,M,M,PADK 012155Z AUTO 04007KT 10SM FEW026 BKN035 OVC060 A2991 RMK MADISHF
PADK,2017-04-01 21:56,-176.6460,51.8780,35.60,21.20,55.41,40.00,7.00,0.00,29.91,M,10.00,M,SCT,BKN,OVC,M,2800.00,3700.00,5000.00,M,M,PADK 012156Z AUTO 04007KT 10SM SCT028 BKN037 OVC050 02/M06 A2991 RMK AO1
PADK,2017-04-01 22:00,-176.6460,51.8780,M,M,M,50.00,6.00,M,29.91,M,10.00,M,SCT,BKN,OVC,M,2700.00,3700.00,5000.00,M,M,PADK 012200Z AUTO 05006KT 10SM SCT027 BKN037 OVC050 A2991 RMK MADISHF
PADK,2017-04-01 22:05,-176.6460,51.8780,M,M,M,30.00,3.00,M,29.91,M,10.00,M,FEW,SCT,OVC,M,2500.00,3000.00,4700.00,M,M,PADK 012205Z AUTO 03003KT 10SM FEW025 SCT030 OVC047 A2991 RMK MADISHF
PADK,2017-04-01 22:10,-176.6460,51.8780,M,M,M,0.00,0.00,M,29.91,M,10.00,M,FEW,SCT,OVC,M,2900.00,4200.00,4700.00,M,M,PADK 012210Z AUTO 00000KT 10SM FEW029 SCT042 OVC047 A2991 RMK MADISHF
PADK,2017-04-01 22:15,-176.6460,51.8780,M,M,M,50.00,3.00,M,29.91,M,10.00,M,FEW,BKN,OVC,M,3399.00,4700.00,5500.00,M,M,PADK 012215Z AUTO 05003KT 10SM FEW033 BKN047 OVC055 A2991 RMK MADISHF
PADK,2017-04-01 22:16,-176.6460,51.8780,35.60,17.60,47.51,50.00,3.00,0.00,29.91,M,10.00,M,FEW,BKN,OVC,M,3400.00,4700.00,5500.00,M,M,PADK 012216Z AUTO 05003KT 10SM FEW034 BKN047 OVC055 02/M08 A2991 RMK AO1
PADK,2017-04-01 22:20,-176.6460,51.8780,M,M,M,50.00,4.00,M,29.91,M,10.00,M,BKN,OVC,M,M,4700.00,5500.00,M,M,M,PADK 012220Z AUTO 05004KT 10SM BKN047 OVC055 A2991 RMK MADISHF
PADK,2017-04-01 22:25,-176.6460,51.8780,M,M,M,0.00,0.00,M,29.91,M,10.00,M,SCT,OVC,M,M,4700.00,5500.00,M,M,M,PADK 012225Z AUTO 00000KT 10SM SCT047 OVC055 A2991 RMK MADISHF
PADK,2017-04-01 22:30,-176.6460,51.8780,M,M,M,70.00,5.00,M,29.91,M,10.00,M,FEW,BKN,OVC,M,3999.00,4900.00,5500.00,M,M,PADK 012230Z AUTO 07005KT 10SM FEW039 BKN049 OVC055 A2991 RMK MADISHF
PADK,2017-04-01 22:35,-176.6460,51.8780,M,M,M,70.00,3.00,M,29.91,M,10.00,M,FEW,SCT,OVC,M,3999.00,4600.00,5500.00,M,M,PADK 012235Z AUTO 07003KT 10SM FEW039 SCT046 OVC055 A2991 RMK MADISHF
PADK,2017-04-01 22:36,-176.6460,51.8780,35.60,17.60,47.51,70.00,4.00,0.00,29.91,M,10.00,M,FEW,BKN,OVC,M,4000.00,5500.00,6500.00,M,M,PADK 012236Z AUTO 07004KT 10SM FEW040 BKN055 OVC065 02/M08 A2991 RMK AO1
PADK,2017-04-01 22:40,-176.6460,51.8780,M,M,M,70.00,3.00,M,29.91,M,10.00,M,FEW,OVC,M,M,4400.00,5500.00,M,M,M,PADK 012240Z AUTO 07003KT 10SM FEW044 OVC055 A2991 RMK MADISHF
PADK,2017-04-01 22:45,-176.6460,51.8780,M,M,M,50.00,10.00,M,29.91,M,10.00,M,FEW,SCT,OVC,M,4100.00,5000.00,5500.00,M,M,PADK 012245Z AUTO 05010KT 10SM FEW041 SCT050 OVC055 A2991 RMK MADISHF
PADK,2017-04-01 22:50,-176.6460,51.8780,M,M,M,50.00,12.00,M,29.91,M,10.00,M,FEW,SCT,OVC,M,2500.00,4300.00,5500.00,M,M,PADK 012250Z AUTO 05012KT 10SM FEW025 SCT043 OVC055 A2991 RMK MADISHF
PADK,2017-04-01 22:55,-176.6460,51.8780,M,M,M,50.00,11.00,M,29.91,M,10.00,M,FEW,SCT,BKN,M,2500.00,3399.00,3999.00,M,M,PADK 012255Z AUTO 05011KT 10SM FEW025 SCT033 BKN039 A2991 RMK MADISHF
PADK,2017-04-01 22:56,-176.6460,51.8780,35.60,19.40,51.33,40.00,11.00,0.00,29.91,M,10.00,M,FEW,SCT,BKN,M,2500.00,3400.00,4000.00,M,M,PADK 012256Z AUTO 04011KT 10SM FEW025 SCT034 BKN040 02/M07 A2991 RMK AO1
PADK,2017-04-01 23:00,-176.6460,51.8780,M,M,M,50.00,10.00,M,29.91,M,10.00,M,FEW,BKN,OVC,M,3300.00,4200.00,6000.00,M,M,PADK 012300Z AUTO 05010KT 10SM FEW033 BKN042 OVC060 A2991 RMK MADISHF
PADK,2017-04-01 23:05,-176.6460,51.8780,M,M,M,50.00,9.00,M,29.91,M,10.00,M,FEW,SCT,BKN,M,3600.00,4400.00,5000.00,M,M,PADK 012305Z AUTO 05009KT 10SM FEW036 SCT044 BKN050 A2991 RMK MADISHF
PADK,2017-04-01 23:10,-176.6460,51.8780,M,M,M,50.00,9.00,M,29.91,M,10.00,M,FEW,SCT,BKN,M,2400.00,3600.00,4800.00,M,M,PADK 012310Z AUTO 05009KT 10SM FEW024 SCT036 BKN048 A2991 RMK MADISHF
PADK,2017-04-01 23:15,-176.6460,51.8780,M,M,M,40.00,7.00,M,29.91,M,10.00,M,FEW,SCT,BKN,M,2400.00,3399.00,4800.00,M,M,PADK 012315Z AUTO 04007KT 10SM FEW024 SCT033 BKN048 A2991 RMK MADISHF
PADK,2017-04-01 23:16,-176.6460,51.8780,35.60,21.20,55.41,40.00,8.00,0.00,29.91,M,10.00,M,FEW,SCT,OVC,M,2400.00,3400.00,4800.00,M,M,PADK 012316Z AUTO 04008KT 10SM FEW024 SCT034 OVC048 02/M06 A2991 RMK AO1
PADK,2017-04-01 23:20,-176.6460,51.8780,M,M,M,20.00,8.00,M,29.91,M,10.00,M,FEW,BKN,OVC,M,3399.00,4800.00,5500.00,M,M,PADK 012320Z AUTO 02008KT 10SM FEW033 BKN048 OVC055 A2991 RMK MADISHF
PADK,2017-04-01 23:25,-176.6460,51.8780,M,M,M,20.00,6.00,M,29.91,M,10.00,M,FEW,BKN,OVC,M,2500.00,4800.00,5500.00,M,M,PADK 012325Z AUTO 02006KT 10SM FEW025 BKN048 OVC055 A2991 RMK MADISHF
PADK,2017-04-01 23:30,-176.6460,51.8780,M,M,M,70.00,8.00,M,29.91,M,10.00,M,FEW,BKN,OVC,M,2500.00,4800.00,5500.00,M,M,PADK 012330Z AUTO 07008KT 10SM FEW025 BKN048 OVC055 A2991 RMK MADISHF
PADK,2017-04-01 23:35,-176.6460,51.8780,M,M,M,50.00,8.00,M,29.91,M,10.00,M,FEW,BKN,OVC,M,2500.00,4800.00,5500.00,M,M,PADK 012335Z AUTO 05008KT 10SM FEW025 BKN048 OVC055 A2991 RMK MADISHF
PADK,2017-04-01 23:36,-176.6460,51.8780,37.40,21.20,51.61,50.00,8.00,0.00,29.91,M,10.00,M,FEW,BKN,OVC,M,2500.00,4800.00,5500.00,M,M,PADK 012336Z AUTO 05008KT 10SM FEW025 BKN048 OVC055 03/M06 A2991 RMK AO1
PADK,2017-04-01 23:40,-176.6460,51.8780,M,M,M,60.00,6.00,M,29.91,M,10.00,M,FEW,SCT,OVC,M,2900.00,4700.00,5500.00,M,M,PADK 012340Z AUTO 06006KT 10SM FEW029 SCT047 OVC055 A2991 RMK MADISHF
PADK,2017-04-01 23:45,-176.6460,51.8780,M,M,M,60.00,8.00,M,29.91,M,10.00,M,FEW,SCT,OVC,M,2900.00,4800.00,5500.00,M,M,PADK 012345Z AUTO 06008KT 10SM FEW029 SCT048 OVC055 A2991 RMK MADISHF
PADK,2017-04-01 23:50,-176.6460,51.8780,M,M,M,50.00,9.00,M,29.91,M,10.00,M,FEW,OVC,M,M,2900.00,5500.00,M,M,M,PADK 012350Z AUTO 05009KT 10SM FEW029 OVC055 A2991 RMK MADISHF
PADK,2017-04-01 23:55,-176.6460,51.8780,M,M,M,60.00,7.00,M,29.91,M,10.00,M,FEW,OVC,M,M,4800.00,5500.00,M,M,M,PADK 012355Z AUTO 06007KT 10SM FEW048 OVC055 A2991 RMK MADISHF
PADK,2017-04-01 23:56,-176.6460,51.8780,37.40,15.80,40.93,60.00,8.00,0.00,29.91,M,10.00,M,FEW,BKN,OVC,M,4800.00,5500.00,6500.00,M,M,PADK 012356Z AUTO 06008KT 10SM FEW048 BKN055 OVC065 03/M09 A2991 RMK AO1 10030 20000 400301020 52003
