#DEBUG: Format Typ    -> comma
#DEBUG: Time Period   -> 2017-04-01 00:00:00+00:00 2017-04-02 00:00:00+00:00
#DEBUG: Time Zone     -> Etc/UTC
#DEBUG: Data Contact   -> daryl herzmann akrherz@iastate.edu 515-294-5978
#DEBUG: Entries Found -> -1
station,valid,lon,lat,tmpf, dwpf, relh, drct, sknt, p01i, alti, mslp, vsby, gust, skyc1, skyc2, skyc3, skyc4, skyl1, skyl2, skyl3, skyl4, presentwx, metar
PAFM,2017-04-01 00:00,-157.8575,67.1063,M,M,M,M,M,M,29.48,M,10.00,M,CLR,M,M,M,M,M,M,M,M,PAFM 010000Z AUTO /////KT 10SM CLR A2948 RMK MADISHF
PAFM,2017-04-01 00:05,-157.8575,67.1063,M,M,M,M,M,M,29.49,M,10.00,M,CLR,M,M,M,M,M,M,M,M,PAFM 010005Z AUTO /////KT 10SM CLR A2949 RMK MADISHF
PAFM,2017-04-01 00:10,-157.8575,67.1063,M,M,M,M,M,M,29.49,M,10.00,M,CLR,M,M,M,M,M,M,M,M,PAFM 010010Z AUTO /////KT 10SM CLR A2949 RMK MADISHF
PAFM,2017-04-01 00:20,-157.8575,67.1063,M,M,M,M,M,M,29.49,M,10.00,M,CLR,M,M,M,M,M,M,M,M,PAFM 010020Z AUTO /////KT 10SM CLR A2949 RMK MADISHF
PAFM,2017-04-01 00:25,-157.8575,67.1063,M,M,M,20.00,12.00,M,29.48,M,10.00,M,CLR,M,M,M,M,M,M,M,M,PAFM 010025Z AUTO 02012KT 10SM CLR A2948 RMK MADISHF
PAFM,2017-04-01 00:30,-157.8575,67.1063,M,M,M,20.00,12.00,M,29.48,M,10.00,M,CLR,M,M,M,M,M,M,M,M,PAFM 010030Z AUTO 02012KT 10SM CLR A2948 RMK MADISHF
PAFM,2017-04-01 00:35,-157.8575,67.1063,M,M,M,20.00,13.00,M,29.48,M,10.00,M,CLR,M,M,M,M,M,M,M,M,PAFM 010035Z AUTO 02013KT 10SM CLR A2948 RMK MADISHF
PAFM,2017-04-01 00:40,-157.8575,67.1063,M,M,M,M,M,M,29.48,M,10.00,M,CLR,M,M,M,M,M,M,M,M,PAFM 010040Z AUTO /////KT 10SM CLR A2948 RMK MADISHF
PAFM,2017-04-01 00:45,-157.8575,67.1063,M,M,M,20.00,11.00,M,29.48,M,10.00,M,CLR,M,M,M,M,M,M,M,M,PAFM 010045Z AUTO 02011KT 10SM CLR A2948 RMK MADISHF
PAFM,2017-04-01 00:50,-157.8575,67.1063,M,M,M,20.00,9.00,M,29.48,M,10.00,M,CLR,M,M,M,M,M,M,M,M,PAFM 010050Z AUTO 02009KT 10SM CLR A2948 RMK MADISHF
PAFM,2017-04-01 00:55,-157.8575,67.1063,M,M,M,10.00,10.00,M,29.48,M,10.00,M,CLR,M,M,M,M,M,M,M,M,PAFM 010055Z AUTO 01010KT 10SM CLR A2948 RMK MADISHF
PAFM,2017-04-01 00:56,-157.8575,67.1063,19.90,5.00,51.77,10.00,10.00,0.00,29.48,999.70,10.00,M,CLR,M,M,M,M,M,M,M,M,PAFM 010056Z AUTO 01010KT 10SM CLR M07/M15 A2948 RMK AO2 SLP997 T10671150 FZRANO
PAFM,2017-04-01 01:00,-157.8575,67.1063,M,M,M,M,M,M,29.48,M,10.00,M,CLR,M,M,M,M,M,M,M,M,PAFM 010100Z AUTO /////KT 10SM CLR A2948 RMK MADISHF
PAFM,2017-04-01 01:05,-157.8575,67.1063,M,M,M,M,M,M,29.48,M,10.00,M,CLR,M,M,M,M,M,M,M,M,PAFM 010105Z AUTO /////KT 10SM CLR A2948 RMK MADISHF
PAFM,2017-04-01 01:10,-157.8575,67.1063,M,M,M,M,M,M,29.48,M,10.00,17.00,CLR,M,M,M,M,M,M,M,M,PAFM 010110Z AUTO /////G17KT 10SM CLR A2948 RMK MADISHF
PAFM,2017-04-01 01:15,-157.8575,67.1063,M,M,M,M,M,M,29.48,M,10.00,M,CLR,M,M,M,M,M,M,M,M,PAFM 010115Z AUTO /////KT 10SM CLR A2948 RMK MADISHF
PAFM,2017-04-01 01:20,-157.8575,67.1063,M,M,M,20.00,11.00,M,29.48,M,10.00,M,CLR,M,M,M,M,M,M,M,M,PAFM 010120Z AUTO 02011KT 10SM CLR A2948 RMK MADISHF
PAFM,2017-04-01 01:25,-157.8575,67.1063,M,M,M,M,M,M,29.48,M,10.00,M,CLR,M,M,M,M,M,M,M,M,PAFM 010125Z AUTO /////KT 10SM CLR A2948 RMK MADISHF
PAFM,2017-04-01 01:30,-157.8575,67.1063,M,M,M,20.00,10.00,M,29.48,M,10.00,M,CLR,M,M,M,M,M,M,M,M,PAFM 010130Z AUTO 02010KT 10SM CLR A2948 RMK MADISHF
PAFM,2017-04-01 01:35,-157.8575,67.1063,M,M,M,M,M,M,29.48,M,10.00,M,CLR,M,M,M,M,M,M,M,M,PAFM 010135Z AUTO /////KT 10SM CLR A2948 RMK MADISHF
PAFM,2017-04-01 01:40,-157.8575,67.1063,M,M,M,20.00,13.00,M,29.48,M,10.00,M,CLR,M,M,M,M,M,M,M,M,PAFM 010140Z AUTO 02013KT 10SM CLR A2948 RMK MADISHF
PAFM,2017-04-01 01:45,-157.8575,67.1063,M,M,M,M,M,M,29.48,M,10.00,M,CLR,M,M,M,M,M,M,M,M,PAFM 010145Z AUTO /////KT 10SM CLR A2948 RMK MADISHF
PAFM,2017-04-01 01:50,-157.8575,67.1063,M,M,M,20.00,12.00,M,29.48,M,10.00,M,CLR,M,M,M,M,M,M,M,M,PAFM 010150Z AUTO 02012KT 10SM CLR A2948 RMK MADISHF
PAFM,2017-04-01 01:55,-157.8575,67.1063,M,M,M,M,M,M,29.48,M,10.00,M,CLR,M,M,M,M,M,M,M,M,PAFM 010155Z AUTO /////KT 10SM CLR A2948 RMK MADISHF
PAFM,2017-04-01 01:56,-157.8575,67.1063,19.00,5.00,53.80,20.00,10.00,0.00,29.48,999.70,10.00,M,CLR,M,M,M,M,M,M,M,M,PAFM 010156Z AUTO 02010KT 10SM CLR M07/M15 A2948 RMK AO2 SLP997 T10721150 FZRANO
PAFM,2017-04-01 02:05,-157.8575,67.1063,M,M,M,20.00,10.00,M,29.48,M,10.00,M,CLR,M,M,M,M,M,M,M,M,PAFM 010205Z AUTO 02010KT 10SM CLR A2948 RMK MADISHF
PAFM,2017-04-01 02:10,-157.8575,67.1063,M,M,M,20.00,12.00,M,29.48,M,10.00,M,CLR,M,M,M,M,M,M,M,M,PAFM 010210Z AUTO 02012KT 10SM CLR A2948 RMK MADISHF
PAFM,2017-04-01 02:15,-157.8575,67.1063,M,M,M,20.00,12.00,M,29.47,M,10.00,M,CLR,M,M,M,M,M,M,M,M,PAFM 010215Z AUTO 02012KT 10SM CLR A2947 RMK MADISHF
PAFM,2017-04-01 02:20,-157.8575,67.1063,M,M,M,20.00,11.00,M,29.48,M,10.00,M,CLR,M,M,M,M,M,M,M,M,PAFM 010220Z AUTO 02011KT 10SM CLR A2948 RMK MADISHF
PAFM,2017-04-01 02:25,-157.8575,67.1063,M,M,M,20.00,12.00,M,29.47,M,10.00,M,CLR,M,M,M,M,M,M,M,M,PAFM 010225Z AUTO 02012KT 10SM CLR A2947 RMK MADISHF
PAFM,2017-04-01 02:30,-157.8575,67.1063,M,M,M,10.00,11.00,M,29.47,M,10.00,M,CLR,M,M,M,M,M,M,M,M,PAFM 010230Z AUTO 01011KT 10SM CLR A2947 RMK MADISHF
PAFM,2017-04-01 02:35,-157.8575,67.1063,M,M,M,M,M,M,29.47,M,10.00,M,CLR,M,M,M,M,M,M,M,M,PAFM 010235Z AUTO /////KT 10SM CLR A2947 RMK MADISHF
PAFM,2017-04-01 02:40,-157.8575,67.1063,M,M,M,20.00,11.00,M,29.47,M,10.00,M,CLR,M,M,M,M,M,M,M,M,PAFM 010240Z AUTO 02011KT 10SM CLR A2947 RMK MADISHF
PAFM,2017-04-01 02:45,-157.8575,67.1063,M,M,M,20.00,12.00,M,29.47,M,10.00,17.00,CLR,M,M,M,M,M,M,M,M,PAFM 010245Z AUTO 02012G17KT 10SM CLR A2947 RMK MADISHF
PAFM,2017-04-01 02:50,-157.8575,67.1063,M,M,M,M,M,M,29.47,M,10.00,M,CLR,M,M,M,M,M,M,M,M,PAFM 010250Z AUTO /////KT 10SM CLR A2947 RMK MADISHF
PAFM,2017-04-01 02:55,-157.8575,67.1063,M,M,M,M,M,M,29.47,M,10.00,M,CLR,M,M,M,M,M,M,M,M,PAFM 010255Z AUTO /////KT 10SM CLR A2947 RMK MADISHF
PAFM,2017-04-01 02:56,-157.8575,67.1063,18.00,3.90,53.40,20.00,12.00,0.00,29.47,999.40,10.00,M,CLR,M,M,M,M,M,M,M,M,PAFM 010256Z AUTO 02012KT 10SM CLR M08/M16 A2947 RMK AO2 SLP994 T10781156 57006 FZRANO
PAFM,2017-04-01 03:00,-157.8575,67.1063,M,M,M,M,M,M,29.47,M,10.00,M,CLR,M,M,M,M,M,M,M,M,PAFM 010300Z AUTO /////KT 10SM CLR A2947 RMK MADISHF
PAFM,2017-04-01 03:05,-157.8575,67.1063,M,M,M,M,M,M,29.47,M,10.00,M,CLR,M,M,M,M,M,M,M,M,PAFM 010305Z AUTO /////KT 10SM CLR A2947 RMK MADISHF
PAFM,2017-04-01 03:10,-157.8575,67.1063,M,M,M,M,M,M,29.47,M,10.00,M,CLR,M,M,M,M,M,M,M,M,PAFM 010310Z AUTO /////KT 10SM CLR A2947 RMK MADISHF
PAFM,2017-04-01 03:15,-157.8575,67.1063,M,M,M,20.00,12.00,M,29.47,M,10.00,M,CLR,M,M,M,M,M,M,M,M,PAFM 010315Z AUTO 02012KT 10SM CLR A2947 RMK MADISHF
PAFM,2017-04-01 03:20,-157.8575,67.1063,M,M,M,10.00,11.00,M,29.47,M,10.00,M,CLR,M,M,M,M,M,M,M,M,PAFM 010320Z AUTO 01011KT 10SM CLR A2947 RMK MADISHF
PAFM,2017-04-01 03:25,-157.8575,67.1063,M,M,M,20.00,13.00,M,29.47,M,10.00,M,CLR,M,M,M,M,M,M,M,M,PAFM 010325Z AUTO 02013KT 10SM CLR A2947 RMK MADISHF
PAFM,2017-04-01 03:30,-157.8575,67.1063,M,M,M,20.00,12.00,M,29.47,M,10.00,M,CLR,M,M,M,M,M,M,M,M,PAFM 010330Z AUTO 02012KT 10SM CLR A2947 RMK MADISHF
PAFM,2017-04-01 03:35,-157.8575,67.1063,M,M,M,M,M,M,29.47,M,10.00,M,CLR,M,M,M,M,M,M,M,M,PAFM 010335Z AUTO /////KT 10SM CLR A2947 RMK MADISHF
PAFM,2017-04-01 03:40,-157.8575,67.1063,M,M,M,M,M,M,29.47,M,10.00,M,CLR,M,M,M,M,M,M,M,M,PAFM 010340Z AUTO /////KT 10SM CLR A2947 RMK MADISHF
PAFM,2017-04-01 03:45,-157.8575,67.1063,M,M,M,20.00,13.00,M,29.47,M,10.00,M,CLR,M,M,M,M,M,M,M,M,PAFM 010345Z AUTO 02013KT 10SM CLR A2947 RMK MADISHF
PAFM,2017-04-01 03:50,-157.8575,67.1063,M,M,M,20.00,11.00,M,29.47,M,10.00,M,CLR,M,M,M,M,M,M,M,M,PAFM 010350Z AUTO 02011KT 10SM CLR A2947 RMK MADISHF
PAFM,2017-04-01 03:55,-157.8575,67.1063,M,M,M,M,M,M,29.47,M,10.00,M,CLR,M,M,M,M,M,M,M,M,PAFM 010355Z AUTO /////KT 10SM CLR A2947 RMK MADISHF
PAFM,2017-04-01 03:56,-157.8575,67.1063,16.00,3.90,58.22,20.00,14.00,0.00,29.47,999.40,10.00,M,CLR,M,M,M,M,M,M,M,M,PAFM 010356Z AUTO 02014KT 10SM CLR M09/M16 A2947 RMK AO2 SLP994 T10891156 FZRANO
PAFM,2017-04-01 04:00,-157.8575,67.1063,M,M,M,M,M,M,29.47,M,10.00,M,CLR,M,M,M,M,M,M,M,M,PAFM 010400Z AUTO /////KT 10SM CLR A2947 RMK MADISHF
PAFM,2017-04-01 04:05,-157.8575,67.1063,M,M,M,M,M,M,29.47,M,10.00,M,CLR,M,M,M,M,M,M,M,M,PAFM 010405Z AUTO /////KT 10SM CLR A2947 RMK MADISHF
PAFM,2017-04-01 04:10,-157.8575,67.1063,M,M,M,M,M,M,29.47,M,10.00,M,CLR,M,M,M,M,M,M,M,M,PAFM 010410Z AUTO /////KT 10SM CLR A2947 RMK MADISHF
PAFM,2017-04-01 04:15,-157.8575,67.1063,M,M,M,20.00,10.00,M,29.47,M,10.00,M,CLR,M,M,M,M,M,M,M,M,PAFM 010415Z AUTO 02010KT 10SM CLR A2947 RMK MADISHF
PAFM,2017-04-01 04:20,-157.8575,67.1063,M,M,M,M,M,M,29.47,M,10.00,M,CLR,M,M,M,M,M,M,M,M,PAFM 010420Z AUTO /////KT 10SM CLR A2947 RMK MADISHF
PAFM,2017-04-01 04:25,-157.8575,67.1063,M,M,M,30.00,11.00,M,29.48,M,10.00,16.00,CLR,M,M,M,M,M,M,M,M,PAFM 010425Z AUTO 03011G16KT 10SM CLR A2948 RMK MADISHF
PAFM,2017-04-01 04:30,-157.8575,67.1063,M,M,M,30.00,13.00,M,29.48,M,10.00,M,CLR,M,M,M,M,M,M,M,M,PAFM 010430Z AUTO 03013KT 10SM CLR A2948 RMK MADISHF
PAFM,2017-04-01 04:35,-157.8575,67.1063,M,M,M,20.00,10.00,M,29.48,M,10.00,M,CLR,M,M,M,M,M,M,M,M,PAFM 010435Z AUTO 02010KT 10SM CLR A2948 RMK MADISHF
PAFM,2017-04-01 04:40,-157.8575,67.1063,M,M,M,M,M,M,29.47,M,10.00,M,CLR,M,M,M,M,M,M,M,M,PAFM 010440Z AUTO /////KT 10SM CLR A2947 RMK MADISHF
PAFM,2017-04-01 04:45,-157.8575,67.1063,M,M,M,M,M,M,29.48,M,10.00,M,CLR,M,M,M,M,M,M,M,M,PAFM 010445Z AUTO /////KT 10SM CLR A2948 RMK MADISHF
PAFM,2017-04-01 04:50,-157.8575,67.1063,M,M,M,M,M,M,29.47,M,10.00,M,CLR,M,M,M,M,M,M,M,M,PAFM 010450Z AUTO /////KT 10SM CLR A2947 RMK MADISHF
PAFM,2017-04-01 04:55,-157.8575,67.1063,M,M,M,20.00,13.00,M,29.47,M,10.00,M,CLR,M,M,M,M,M,M,M,M,PAFM 010455Z AUTO 02013KT 10SM CLR A2947 RMK MADISHF
PAFM,2017-04-01 04:56,-157.8575,67.1063,14.00,3.00,60.94,20.00,12.00,0.00,29.48,999.60,10.00,M,CLR,M,M,M,M,M,M,M,M,PAFM 010456Z AUTO 02012KT 10SM CLR M10/M16 A2948 RMK AO2 SLP996 T11001161 FZRANO
PAFM,2017-04-01 05:00,-157.8575,67.1063,M,M,M,20.00,12.00,M,29.48,M,10.00,M,CLR,M,M,M,M,M,M,M,M,PAFM 010500Z AUTO 02012KT 10SM CLR A2948 RMK MADISHF
PAFM,2017-04-01 05:05,-157.8575,67.1063,M,M,M,20.00,11.00,M,29.48,M,10.00,M,CLR,M,M,M,M,M,M,M,M,PAFM 010505Z AUTO 02011KT 10SM CLR A2948 RMK MADISHF
PAFM,2017-04-01 05:10,-157.8575,67.1063,M,M,M,M,M,M,29.48,M,10.00,M,CLR,M,M,M,M,M,M,M,M,PAFM 010510Z AUTO /////KT 10SM CLR A2948 RMK MADISHF
PAFM,2017-04-01 05:15,-157.8575,67.1063,M,M,M,20.00,10.00,M,29.48,M,10.00,M,CLR,M,M,M,M,M,M,M,M,PAFM 010515Z AUTO 02010KT 10SM CLR A2948 RMK MADISHF
PAFM,2017-04-01 05:20,-157.8575,67.1063,M,M,M,M,M,M,29.48,M,10.00,M,CLR,M,M,M,M,M,M,M,M,PAFM 010520Z AUTO /////KT 10SM CLR A2948 RMK MADISHF
PAFM,2017-04-01 05:30,-157.8575,67.1063,M,M,M,10.00,10.00,M,29.48,M,10.00,M,CLR,M,M,M,M,M,M,M,M,PAFM 010530Z AUTO 01010KT 10SM CLR A2948 RMK MADISHF
PAFM,2017-04-01 05:35,-157.8575,67.1063,M,M,M,M,M,M,29.48,M,10.00,M,CLR,M,M,M,M,M,M,M,M,PAFM 010535Z AUTO /////KT 10SM CLR A2948 RMK MADISHF
PAFM,2017-04-01 05:40,-157.8575,67.1063,M,M,M,M,M,M,29.48,M,10.00,M,CLR,M,M,M,M,M,M,M,M,PAFM 010540Z AUTO /////KT 10SM CLR A2948 RMK MADISHF
PAFM,2017-04-01 05:45,-157.8575,67.1063,M,M,M,20.00,11.00,M,29.48,M,10.00,M,CLR,M,M,M,M,M,M,M,M,PAFM 010545Z AUTO 02011KT 10SM CLR A2948 RMK MADISHF
PAFM,2017-04-01 05:50,-157.8575,67.1063,M,M,M,20.00,11.00,M,29.48,M,10.00,M,CLR,M,M,M,M,M,M,M,M,PAFM 010550Z AUTO 02011KT 10SM CLR A2948 RMK MADISHF
PAFM,2017-04-01 05:55,-157.8575,67.1063,M,M,M,20.00,10.00,M,29.48,M,10.00,M,CLR,M,M,M,M,M,M,M,M,PAFM 010555Z AUTO 02010KT 10SM CLR A2948 RMK MADISHF
PAFM,2017-04-01 05:56,-157.8575,67.1063,12.90,1.90,60.78,20.00,9.00,0.00,29.48,999.80,10.00,M,CLR,M,M,M,M,M,M,M,M,PAFM 010556Z AUTO 02009KT 10SM CLR M11/M17 A2948 RMK AO2 SLP998 T11061167 11067 21106 53005 FZRANO
PAFM,2017-04-01 06:00,-157.8575,67.1063,M,M,M,20.00,9.00,M,29.48,M,10.00,M,CLR,M,M,M,M,M,M,M,M,PAFM 010600Z AUTO 02009KT 10SM CLR A2948 RMK MADISHF
PAFM,2017-04-01 06:05,-157.8575,67.1063,M,M,M,20.00,10.00,M,29.48,M,10.00,M,CLR,M,M,M,M,M,M,M,M,PAFM 010605Z AUTO 02010KT 10SM CLR A2948 RMK MADISHF
PAFM,2017-04-01 06:10,-157.8575,67.1063,M,M,M,20.00,10.00,M,29.49,M,10.00,M,CLR,M,M,M,M,M,M,M,M,PAFM 010610Z AUTO 02010KT 10SM CLR A2949 RMK MADISHF
PAFM,2017-04-01 06:15,-157.8575,67.1063,M,M,M,10.00,11.00,M,29.49,M,10.00,M,CLR,M,M,M,M,M,M,M,M,PAFM 010615Z AUTO 01011KT 10SM CLR A2949 RMK MADISHF
PAFM,2017-04-01 06:25,-157.8575,67.1063,M,M,M,10.00,9.00,M,29.49,M,10.00,M,CLR,M,M,M,M,M,M,M,M,PAFM 010625Z AUTO 01009KT 10SM CLR A2949 RMK MADISHF
PAFM,2017-04-01 06:30,-157.8575,67.1063,M,M,M,10.00,9.00,M,29.49,M,10.00,M,CLR,M,M,M,M,M,M,M,M,PAFM 010630Z AUTO 01009KT 10SM CLR A2949 RMK MADISHF
PAFM,2017-04-01 06:35,-157.8575,67.1063,M,M,M,10.00,8.00,M,29.49,M,10.00,M,CLR,M,M,M,M,M,M,M,M,PAFM 010635Z AUTO 01008KT 10SM CLR A2949 RMK MADISHF
PAFM,2017-04-01 06:40,-157.8575,67.1063,M,M,M,10.00,10.00,M,29.49,M,10.00,M,CLR,M,M,M,M,M,M,M,M,PAFM 010640Z AUTO 01010KT 10SM CLR A2949 RMK MADISHF
PAFM,2017-04-01 06:45,-157.8575,67.1063,M,M,M,20.00,12.00,M,29.49,M,10.00,M,CLR,M,M,M,M,M,M,M,M,PAFM 010645Z AUTO 02012KT 10SM CLR A2949 RMK MADISHF
PAFM,2017-04-01 06:50,-157.8575,67.1063,M,M,M,M,M,M,29.49,M,10.00,M,CLR,M,M,M,M,M,M,M,M,PAFM 010650Z AUTO /////KT 10SM CLR A2949 RMK MADISHF
PAFM,2017-04-01 06:55,-157.8575,67.1063,M,M,M,M,M,M,29.49,M,10.00,M,CLR,M,M,M,M,M,M,M,M,PAFM 010655Z AUTO /////KT 10SM CLR A2949 RMK MADISHF
PAFM,2017-04-01 06:56,-157.8575,67.1063,12.00,1.90,63.25,20.00,11.00,0.00,29.49,1000.00,10.00,M,CLR,M,M,M,M,M,M,M,M,PAFM 010656Z AUTO 02011KT 10SM CLR M11/M17 A2949 RMK AO2 SLP000 T11111167 FZRANO
PAFM,2017-04-01 07:05,-157.8575,67.1063,M,M,M,M,M,M,29.49,M,10.00,M,CLR,M,M,M,M,M,M,M,M,PAFM 010705Z AUTO /////KT 10SM CLR A2949 RMK MADISHF
PAFM,2017-04-01 07:10,-157.8575,67.1063,M,M,M,20.00,12.00,M,29.49,M,10.00,M,CLR,M,M,M,M,M,M,M,M,PAFM 010710Z AUTO 02012KT 10SM CLR A2949 RMK MADISHF
PAFM,2017-04-01 07:15,-157.8575,67.1063,M,M,M,20.00,11.00,M,29.49,M,10.00,M,CLR,M,M,M,M,M,M,M,M,PAFM 010715Z AUTO 02011KT 10SM CLR A2949 RMK MADISHF
PAFM,2017-04-01 07:20,-157.8575,67.1063,M,M,M,20.00,11.00,M,29.49,M,10.00,M,CLR,M,M,M,M,M,M,M,M,PAFM 010720Z AUTO 02011KT 10SM CLR A2949 RMK MADISHF
PAFM,2017-04-01 07:25,-157.8575,67.1063,M,M,M,20.00,11.00,M,29.49,M,10.00,M,CLR,M,M,M,M,M,M,M,M,PAFM 010725Z AUTO 02011KT 10SM CLR A2949 RMK MADISHF
PAFM,2017-04-01 07:30,-157.8575,67.1063,M,M,M,20.00,12.00,M,29.49,M,10.00,M,CLR,M,M,M,M,M,M,M,M,PAFM 010730Z AUTO 02012KT 10SM CLR A2949 RMK MADISHF
PAFM,2017-04-01 07:35,-157.8575,67.1063,M,M,M,10.00,9.00,M,29.49,M,10.00,M,CLR,M,M,M,M,M,M,M,M,PAFM 010735Z AUTO 01009KT 10SM CLR A2949 RMK MADISHF
PAFM,2017-04-01 07:40,-157.8575,67.1063,M,M,M,10.00,11.00,M,29.49,M,10.00,M,CLR,M,M,M,M,M,M,M,M,PAFM 010740Z AUTO 01011KT 10SM CLR A2949 RMK MADISHF
PAFM,2017-04-01 07:45,-157.8575,67.1063,M,M,M,10.00,9.00,M,29.49,M,10.00,M,CLR,M,M,M,M,M,M,M,M,PAFM 010745Z AUTO 01009KT 10SM CLR A2949 RMK MADISHF
PAFM,2017-04-01 07:50,-157.8575,67.1063,M,M,M,10.00,8.00,M,29.49,M,10.00,M,CLR,M,M,M,M,M,M,M,M,PAFM 010750Z AUTO 01008KT 10SM CLR A2949 RMK MADISHF
PAFM,2017-04-01 07:55,-157.8575,67.1063,M,M,M,10.00,8.00,M,29.49,M,10.00,M,CLR,M,M,M,M,M,M,M,M,PAFM 010755Z AUTO 01008KT 10SM CLR A2949 RMK MADISHF
PAFM,2017-04-01 07:56,-157.8575,67.1063,10.90,1.90,66.41,10.00,8.00,0.00,29.49,1000.20,10.00,M,CLR,M,M,M,M,M,M,M,M,PAFM 010756Z AUTO 01008KT 10SM CLR M12/M17 A2949 RMK AO2 SLP002 T11171167 410671217 FZRANO
PAFM,2017-04-01 08:00,-157.8575,67.1063,M,M,M,20.00,7.00,M,29.50,M,10.00,M,CLR,M,M,M,M,M,M,M,M,PAFM 010800Z AUTO 02007KT 10SM CLR A2950 RMK MADISHF
PAFM,2017-04-01 08:05,-157.8575,67.1063,M,M,M,20.00,7.00,M,29.50,M,10.00,M,CLR,M,M,M,M,M,M,M,M,PAFM 010805Z AUTO 02007KT 10SM CLR A2950 RMK MADISHF
PAFM,2017-04-01 08:10,-157.8575,67.1063,M,M,M,20.00,7.00,M,29.50,M,10.00,M,CLR,M,M,M,M,M,M,M,M,PAFM 010810Z AUTO 02007KT 10SM CLR A2950 RMK MADISHF
PAFM,2017-04-01 08:15,-157.8575,67.1063,M,M,M,10.00,6.00,M,29.50,M,10.00,M,CLR,M,M,M,M,M,M,M,M,PAFM 010815Z AUTO 01006KT 10SM CLR A2950 RMK MADISHF
PAFM,2017-04-01 08:20,-157.8575,67.1063,M,M,M,360.00,9.00,M,29.50,M,10.00,M,CLR,M,M,M,M,M,M,M,M,PAFM 010820Z AUTO 36009KT 10SM CLR A2950 RMK MADISHF
PAFM,2017-04-01 08:25,-157.8575,67.1063,M,M,M,10.00,10.00,M,29.50,M,10.00,M,CLR,M,M,M,M,M,M,M,M,PAFM 010825Z AUTO 01010KT 10SM CLR A2950 RMK MADISHF
PAFM,2017-04-01 08:30,-157.8575,67.1063,M,M,M,10.00,9.00,M,29.50,M,10.00,M,CLR,M,M,M,M,M,M,M,M,PAFM 010830Z AUTO 01009KT 10SM CLR A2950 RMK MADISHF
PAFM,2017-04-01 08:35,-157.8575,67.1063,M,M,M,M,M,M,29.49,M,10.00,M,CLR,M,M,M,M,M,M,M,M,PAFM 010835Z AUTO /////KT 10SM CLR A2949 RMK MADISHF
PAFM,2017-04-01 08:40,-157.8575,67.1063,M,M,M,360.00,12.00,M,29.49,M,10.00,M,CLR,M,M,M,M,M,M,M,M,PAFM 010840Z AUTO 36012KT 10SM CLR A2949 RMK MADISHF
PAFM,2017-04-01 08:45,-157.8575,67.1063,M,M,M,10.00,8.00,M,29.50,M,10.00,M,CLR,M,M,M,M,M,M,M,M,PAFM 010845Z AUTO 01008KT 10SM CLR A2950 RMK MADISHF
PAFM,2017-04-01 08:50,-157.8575,67.1063,M,M,M,20.00,7.00,M,29.50,M,10.00,M,CLR,M,M,M,M,M,M,M,M,PAFM 010850Z AUTO 02007KT 10SM CLR A2950 RMK MADISHF
PAFM,2017-04-01 08:55,-157.8575,67.1063,M,M,M,20.00,8.00,M,29.50,M,10.00,M,CLR,M,M,M,M,M,M,M,M,PAFM 010855Z AUTO 02008KT 10SM CLR A2950 RMK MADISHF
PAFM,2017-04-01 08:56,-157.8575,67.1063,10.90,1.90,66.41,20.00,9.00,0.00,29.50,1000.30,10.00,M,CLR,M,M,M,M,M,M,M,M,PAFM 010856Z AUTO 02009KT 10SM CLR M12/M17 A2950 RMK AO2 SLP003 T11171167 51005 FZRANO
PAFM,2017-04-01 09:00,-157.8575,67.1063,M,M,M,360.00,9.00,M,29.50,M,10.00,M,CLR,M,M,M,M,M,M,M,M,PAFM 010900Z AUTO 36009KT 10SM CLR A2950 RMK MADISHF
PAFM,2017-04-01 09:05,-157.8575,67.1063,M,M,M,M,M,M,29.50,M,10.00,M,CLR,M,M,M,M,M,M,M,M,PAFM 010905Z AUTO /////KT 10SM CLR A2950 RMK MADISHF
PAFM,2017-04-01 09:10,-157.8575,67.1063,M,M,M,10.00,11.00,M,29.50,M,10.00,M,CLR,M,M,M,M,M,M,M,M,PAFM 010910Z AUTO 01011KT 10SM CLR A2950 RMK MADISHF
PAFM,2017-04-01 09:15,-157.8575,67.1063,M,M,M,10.00,8.00,M,29.51,M,10.00,M,CLR,M,M,M,M,M,M,M,M,PAFM 010915Z AUTO 01008KT 10SM CLR A2951 RMK MADISHF
PAFM,2017-04-01 09:20,-157.8575,67.1063,M,M,M,360.00,7.00,M,29.51,M,10.00,M,CLR,M,M,M,M,M,M,M,M,PAFM 010920Z AUTO 36007KT 10SM CLR A2951 RMK MADISHF
PAFM,2017-04-01 09:25,-157.8575,67.1063,M,M,M,360.00,7.00,M,29.51,M,10.00,M,CLR,M,M,M,M,M,M,M,M,PAFM 010925Z AUTO 36007KT 10SM CLR A2951 RMK MADISHF
PAFM,2017-04-01 09:30,-157.8575,67.1063,M,M,M,10.00,9.00,M,29.50,M,10.00,M,CLR,M,M,M,M,M,M,M,M,PAFM 010930Z AUTO 01009KT 10SM CLR A2950 RMK MADISHF
PAFM,2017-04-01 09:35,-157.8575,67.1063,M,M,M,10.00,9.00,M,29.51,M,10.00,M,CLR,M,M,M,M,M,M,M,M,PAFM 010935Z AUTO 01009KT 10SM CLR A2951 RMK MADISHF
PAFM,2017-04-01 09:40,-157.8575,67.1063,M,M,M,360.00,9.00,M,29.50,M,10.00,M,CLR,M,M,M,M,M,M,M,M,PAFM 010940Z AUTO 36009KT 10SM CLR A2950 RMK MADISHF
PAFM,2017-04-01 09:45,-157.8575,67.1063,M,M,M,360.00,6.00,M,29.51,M,10.00,M,CLR,M,M,M,M,M,M,M,M,PAFM 010945Z AUTO 36006KT 10SM CLR A2951 RMK MADISHF
PAFM,2017-04-01 09:50,-157.8575,67.1063,M,M,M,10.00,7.00,M,29.51,M,10.00,M,CLR,M,M,M,M,M,M,M,M,PAFM 010950Z AUTO 01007KT 10SM CLR A2951 RMK MADISHF
PAFM,2017-04-01 09:55,-157.8575,67.1063,M,M,M,350.00,6.00,M,29.51,M,10.00,M,CLR,M,M,M,M,M,M,M,M,PAFM 010955Z AUTO 35006KT 10SM CLR A2951 RMK MADISHF
PAFM,2017-04-01 09:56,-157.8575,67.1063,10.90,1.00,63.69,350.00,6.00,0.00,29.51,1000.60,10.00,M,CLR,M,M,M,M,M,M,M,M,PAFM 010956Z AUTO 35006KT 10SM CLR M12/M17 A2951 RMK AO2 SLP006 T11171172 FZRANO
PAFM,2017-04-01 10:00,-157.8575,67.1063,M,M,M,340.00,6.00,M,29.51,M,10.00,M,CLR,M,M,M,M,M,M,M,M,PAFM 011000Z AUTO 34006KT 10SM CLR A2951 RMK MADISHF
PAFM,2017-04-01 10:05,-157.8575,67.1063,M,M,M,340.00,6.00,M,29.51,M,10.00,M,CLR,M,M,M,M,M,M,M,M,PAFM 011005Z AUTO 34006KT 10SM CLR A2951 RMK MADISHF
PAFM,2017-04-01 10:10,-157.8575,67.1063,M,M,M,350.00,5.00,M,29.51,M,10.00,M,CLR,M,M,M,M,M,M,M,M,PAFM 011010Z AUTO 35005KT 10SM CLR A2951 RMK MADISHF
PAFM,2017-04-01 10:15,-157.8575,67.1063,M,M,M,340.00,4.00,M,29.51,M,10.00,M,CLR,M,M,M,M,M,M,M,M,PAFM 011015Z AUTO 34004KT 10SM CLR A2951 RMK MADISHF
PAFM,2017-04-01 10:25,-157.8575,67.1063,M,M,M,0.00,0.00,M,29.51,M,10.00,M,CLR,M,M,M,M,M,M,M,M,PAFM 011025Z AUTO 00000KT 10SM CLR A2951 RMK MADISHF
PAFM,2017-04-01 10:30,-157.8575,67.1063,M,M,M,0.00,0.00,M,29.51,M,10.00,M,CLR,M,M,M,M,M,M,M,M,PAFM 011030Z AUTO 00000KT 10SM CLR A2951 RMK MADISHF
PAFM,2017-04-01 10:35,-157.8575,67.1063,M,M,M,10.00,4.00,M,29.51,M,10.00,M,CLR,M,M,M,M,M,M,M,M,PAFM 011035Z AUTO 01004KT 10SM CLR A2951 RMK MADISHF
PAFM,2017-04-01 10:40,-157.8575,67.1063,M,M,M,350.00,5.00,M,29.51,M,10.00,M,CLR,M,M,M,M,M,M,M,M,PAFM 011040Z AUTO 35005KT 10SM CLR A2951 RMK MADISHF
PAFM,2017-04-01 10:45,-157.8575,67.1063,M,M,M,360.00,6.00,M,29.52,M,10.00,M,CLR,M,M,M,M,M,M,M,M,PAFM 011045Z AUTO 36006KT 10SM CLR A2952 RMK MADISHF
PAFM,2017-04-01 10:50,-157.8575,67.1063,M,M,M,10.00,7.00,M,29.51,M,10.00,M,CLR,M,M,M,M,M,M,M,M,PAFM 011050Z AUTO 01007KT 10SM CLR A2951 RMK MADISHF
PAFM,2017-04-01 10:55,-157.8575,67.1063,M,M,M,360.00,7.00,M,29.51,M,10.00,M,CLR,M,M,M,M,M,M,M,M,PAFM 011055Z AUTO 36007KT 10SM CLR A2951 RMK MADISHF
PAFM,2017-04-01 10:56,-157.8575,67.1063,10.00,1.00,66.29,360.00,6.00,0.00,29.51,1000.80,10.00,M,CLR,M,M,M,M,M,M,M,M,PAFM 011056Z AUTO 36006KT 10SM CLR M12/M17 A2951 RMK AO2 SLP008 T11221172 FZRANO
PAFM,2017-04-01 11:00,-157.8575,67.1063,M,M,M,10.00,6.00,M,29.51,M,10.00,M,CLR,M,M,M,M,M,M,M,M,PAFM 011100Z AUTO 01006KT 10SM CLR A2951 RMK MADISHF
PAFM,2017-04-01 11:05,-157.8575,67.1063,M,M,M,10.00,6.00,M,29.51,M,10.00,M,CLR,M,M,M,M,M,M,M,M,PAFM 011105Z AUTO 01006KT 10SM CLR A2951 RMK MADISHF
PAFM,2017-04-01 11:10,-157.8575,67.1063,M,M,M,10.00,4.00,M,29.51,M,10.00,M,CLR,M,M,M,M,M,M,M,M,PAFM 011110Z AUTO 01004KT 10SM CLR A2951 RMK MADISHF
PAFM,2017-04-01 11:15,-157.8575,67.1063,M,M,M,350.00,5.00,M,29.51,M,10.00,M,CLR,M,M,M,M,M,M,M,M,PAFM 011115Z AUTO 35005KT 10SM CLR A2951 RMK MADISHF
PAFM,2017-04-01 11:20,-157.8575,67.1063,M,M,M,350.00,7.00,M,29.51,M,10.00,M,CLR,M,M,M,M,M,M,M,M,PAFM 011120Z AUTO 35007KT 10SM CLR A2951 RMK MADISHF
PAFM,2017-04-01 11:25,-157.8575,67.1063,M,M,M,360.00,8.00,M,29.51,M,10.00,M,CLR,M,M,M,M,M,M,M,M,PAFM 011125Z AUTO 36008KT 10SM CLR A2951 RMK MADISHF
PAFM,2017-04-01 11:30,-157.8575,67.1063,M,M,M,350.00,5.00,M,29.51,M,10.00,M,CLR,M,M,M,M,M,M,M,M,PAFM 011130Z AUTO 35005KT 10SM CLR A2951 RMK MADISHF
PAFM,2017-04-01 11:35,-157.8575,67.1063,M,M,M,360.00,6.00,M,29.51,M,10.00,M,CLR,M,M,M,M,M,M,M,M,PAFM 011135Z AUTO 36006KT 10SM CLR A2951 RMK MADISHF
PAFM,2017-04-01 11:40,-157.8575,67.1063,M,M,M,360.00,8.00,M,29.51,M,10.00,M,CLR,M,M,M,M,M,M,M,M,PAFM 011140Z AUTO 36008KT 10SM CLR A2951 RMK MADISHF
PAFM,2017-04-01 11:45,-157.8575,67.1063,M,M,M,360.00,4.00,M,29.51,M,10.00,M,CLR,M,M,M,M,M,M,M,M,PAFM 011145Z AUTO 36004KT 10SM CLR A2951 RMK MADISHF
PAFM,2017-04-01 11:50,-157.8575,67.1063,M,M,M,10.00,3.00,M,29.51,M,10.00,M,CLR,M,M,M,M,M,M,M,M,PAFM 011150Z AUTO 01003KT 10SM CLR A2951 RMK MADISHF
PAFM,2017-04-01 11:55,-157.8575,67.1063,M,M,M,30.00,4.00,M,29.51,M,10.00,M,CLR,M,M,M,M,M,M,M,M,PAFM 011155Z AUTO 03004KT 10SM CLR A2951 RMK MADISHF
PAFM,2017-04-01 11:56,-157.8575,67.1063,10.00,1.00,66.29,30.00,3.00,0.00,29.51,1000.70,10.00,M,CLR,M,M,M,M,M,M,M,M,PAFM 011156Z AUTO 03003KT 10SM CLR M12/M17 A2951 RMK AO2 SLP007 T11221172 11106 21128 50004 FZRANO
PAFM,2017-04-01 12:00,-157.8575,67.1063,M,M,M,20.00,3.00,M,29.51,M,10.00,M,CLR,M,M,M,M,M,M,M,M,PAFM 011200Z AUTO 02003KT 10SM CLR A2951 RMK MADISHF
PAFM,2017-04-01 12:05,-157.8575,67.1063,M,M,M,350.00,3.00,M,29.51,M,10.00,M,CLR,M,M,M,M,M,M,M,M,PAFM 011205Z AUTO 35003KT 10SM CLR A2951 RMK MADISHF
PAFM,2017-04-01 12:10,-157.8575,67.1063,M,M,M,360.00,6.00,M,29.51,M,10.00,M,CLR,M,M,M,M,M,M,M,M,PAFM 011210Z AUTO 36006KT 10SM CLR A2951 RMK MADISHF
PAFM,2017-04-01 12:15,-157.8575,67.1063,M,M,M,350.00,5.00,M,29.51,M,10.00,M,CLR,M,M,M,M,M,M,M,M,PAFM 011215Z AUTO 35005KT 10SM CLR A2951 RMK MADISHF
PAFM,2017-04-01 12:20,-157.8575,67.1063,M,M,M,40.00,5.00,M,29.51,M,10.00,M,CLR,M,M,M,M,M,M,M,M,PAFM 011220Z AUTO 04005KT 10SM CLR A2951 RMK MADISHF
PAFM,2017-04-01 12:25,-157.8575,67.1063,M,M,M,40.00,7.00,M,29.51,M,10.00,M,CLR,M,M,M,M,M,M,M,M,PAFM 011225Z AUTO 04007KT 10SM CLR A2951 RMK MADISHF
PAFM,2017-04-01 12:30,-157.8575,67.1063,M,M,M,30.00,6.00,M,29.51,M,10.00,M,CLR,M,M,M,M,M,M,M,M,PAFM 011230Z AUTO 03006KT 10SM CLR A2951 RMK MADISHF
PAFM,2017-04-01 12:35,-157.8575,67.1063,M,M,M,340.00,3.00,M,29.51,M,10.00,M,CLR,M,M,M,M,M,M,M,M,PAFM 011235Z AUTO 34003KT 10SM CLR A2951 RMK MADISHF
PAFM,2017-04-01 12:40,-157.8575,67.1063,M,M,M,20.00,5.00,M,29.51,M,10.00,M,CLR,M,M,M,M,M,M,M,M,PAFM 011240Z AUTO 02005KT 10SM CLR A2951 RMK MADISHF
PAFM,2017-04-01 12:45,-157.8575,67.1063,M,M,M,330.00,4.00,M,29.51,M,10.00,M,CLR,M,M,M,M,M,M,M,M,PAFM 011245Z AUTO 33004KT 10SM CLR A2951 RMK MADISHF
PAFM,2017-04-01 12:50,-157.8575,67.1063,M,M,M,290.00,4.00,M,29.51,M,10.00,M,CLR,M,M,M,M,M,M,M,M,PAFM 011250Z AUTO 29004KT 10SM CLR A2951 RMK MADISHF
PAFM,2017-04-01 12:55,-157.8575,67.1063,M,M,M,280.00,4.00,M,29.51,M,10.00,M,CLR,M,M,M,M,M,M,M,M,PAFM 011255Z AUTO 28004KT 10SM CLR A2951 RMK MADISHF
PAFM,2017-04-01 12:56,-157.8575,67.1063,7.00,0.00,72.41,280.00,4.00,0.00,29.51,1000.70,10.00,M,CLR,M,M,M,M,M,M,M,M,PAFM 011256Z AUTO 28004KT 10SM CLR M14/M18 A2951 RMK AO2 SLP007 T11391178 FZRANO
PAFM,2017-04-01 13:00,-157.8575,67.1063,M,M,M,300.00,4.00,M,29.51,M,10.00,M,CLR,M,M,M,M,M,M,M,M,PAFM 011300Z AUTO 30004KT 10SM CLR A2951 RMK MADISHF
PAFM,2017-04-01 13:05,-157.8575,67.1063,M,M,M,310.00,5.00,M,29.51,M,10.00,M,CLR,M,M,M,M,M,M,M,M,PAFM 011305Z AUTO 31005KT 10SM CLR A2951 RMK MADISHF
PAFM,2017-04-01 13:10,-157.8575,67.1063,M,M,M,280.00,4.00,M,29.51,M,10.00,M,CLR,M,M,M,M,M,M,M,M,PAFM 011310Z AUTO 28004KT 10SM CLR A2951 RMK MADISHF
PAFM,2017-04-01 13:15,-157.8575,67.1063,M,M,M,300.00,3.00,M,29.51,M,10.00,M,CLR,M,M,M,M,M,M,M,M,PAFM 011315Z AUTO 30003KT 10SM CLR A2951 RMK MADISHF
PAFM,2017-04-01 13:20,-157.8575,67.1063,M,M,M,310.00,4.00,M,29.51,M,10.00,M,CLR,M,M,M,M,M,M,M,M,PAFM 011320Z AUTO 31004KT 10SM CLR A2951 RMK MADISHF
PAFM,2017-04-01 13:25,-157.8575,67.1063,M,M,M,330.00,3.00,M,29.51,M,10.00,M,CLR,M,M,M,M,M,M,M,M,PAFM 011325Z AUTO 33003KT 10SM CLR A2951 RMK MADISHF
PAFM,2017-04-01 13:30,-157.8575,67.1063,M,M,M,300.00,4.00,M,29.51,M,10.00,M,CLR,M,M,M,M,M,M,M,M,PAFM 011330Z AUTO 30004KT 10SM CLR A2951 RMK MADISHF
PAFM,2017-04-01 13:35,-157.8575,67.1063,M,M,M,0.00,0.00,M,29.52,M,10.00,M,CLR,M,M,M,M,M,M,M,M,PAFM 011335Z AUTO 00000KT 10SM CLR A2952 RMK MADISHF
PAFM,2017-04-01 13:40,-157.8575,67.1063,M,M,M,320.00,3.00,M,29.52,M,10.00,M,CLR,M,M,M,M,M,M,M,M,PAFM 011340Z AUTO 32003KT 10SM CLR A2952 RMK MADISHF
PAFM,2017-04-01 13:45,-157.8575,67.1063,M,M,M,0.00,0.00,M,29.52,M,10.00,M,CLR,M,M,M,M,M,M,M,M,PAFM 011345Z AUTO 00000KT 10SM CLR A2952 RMK MADISHF
PAFM,2017-04-01 13:55,-157.8575,67.1063,M,M,M,0.00,0.00,M,29.52,M,10.00,M,CLR,M,M,M,M,M,M,M,M,PAFM 011355Z AUTO 00000KT 10SM CLR A2952 RMK MADISHF
PAFM,2017-04-01 13:56,-157.8575,67.1063,7.00,0.00,72.41,0.00,0.00,0.00,29.52,1001.00,10.00,M,CLR,M,M,M,M,M,M,M,M,PAFM 011356Z AUTO 00000KT 10SM CLR M14/M18 A2952 RMK AO2 SLP010 T11391178 FZRANO
PAFM,2017-04-01 14:00,-157.8575,67.1063,M,M,M,330.00,3.00,M,29.52,M,10.00,M,CLR,M,M,M,M,M,M,M,M,PAFM 011400Z AUTO 33003KT 10SM CLR A2952 RMK VRB03KT  MADISHF
PAFM,2017-04-01 14:05,-157.8575,67.1063,M,M,M,330.00,5.00,M,29.52,M,10.00,M,CLR,M,M,M,M,M,M,M,M,PAFM 011405Z AUTO 33005KT 10SM CLR A2952 RMK MADISHF
PAFM,2017-04-01 14:10,-157.8575,67.1063,M,M,M,320.00,3.00,M,29.52,M,10.00,M,CLR,M,M,M,M,M,M,M,M,PAFM 011410Z AUTO 32003KT 10SM CLR A2952 RMK MADISHF
PAFM,2017-04-01 14:15,-157.8575,67.1063,M,M,M,270.00,4.00,M,29.52,M,10.00,M,CLR,M,M,M,M,M,M,M,M,PAFM 011415Z AUTO 27004KT 10SM CLR A2952 RMK MADISHF
PAFM,2017-04-01 14:20,-157.8575,67.1063,M,M,M,290.00,3.00,M,29.52,M,10.00,M,CLR,M,M,M,M,M,M,M,M,PAFM 011420Z AUTO 29003KT 10SM CLR A2952 RMK VRB03KT  MADISHF
PAFM,2017-04-01 14:25,-157.8575,67.1063,M,M,M,270.00,4.00,M,29.52,M,10.00,M,FEW,M,M,M,5000.00,M,M,M,M,PAFM 011425Z AUTO 27004KT 10SM FEW050 A2952 RMK MADISHF
PAFM,2017-04-01 14:30,-157.8575,67.1063,M,M,M,300.00,3.00,M,29.52,M,10.00,M,SCT,M,M,M,5000.00,M,M,M,M,PAFM 011430Z AUTO 30003KT 10SM SCT050 A2952 RMK MADISHF
PAFM,2017-04-01 14:35,-157.8575,67.1063,M,M,M,0.00,0.00,M,29.52,M,10.00,M,SCT,M,M,M,5000.00,M,M,M,M,PAFM 011435Z AUTO 00000KT 10SM SCT050 A2952 RMK MADISHF
PAFM,2017-04-01 14:40,-157.8575,67.1063,M,M,M,270.00,4.00,M,29.52,M,10.00,M,SCT,M,M,M,5000.00,M,M,M,M,PAFM 011440Z AUTO 27004KT 10SM SCT050 A2952 RMK MADISHF
PAFM,2017-04-01 14:45,-157.8575,67.1063,M,M,M,280.00,3.00,M,29.52,M,10.00,M,FEW,M,M,M,5000.00,M,M,M,M,PAFM 011445Z AUTO 28003KT 10SM FEW050 A2952 RMK MADISHF
PAFM,2017-04-01 14:50,-157.8575,67.1063,M,M,M,320.00,3.00,M,29.52,M,10.00,M,SCT,M,M,M,5000.00,M,M,M,M,PAFM 011450Z AUTO 32003KT 10SM SCT050 A2952 RMK VRB03KT  MADISHF
PAFM,2017-04-01 14:55,-157.8575,67.1063,M,M,M,290.00,3.00,M,29.52,M,10.00,M,BKN,M,M,M,5000.00,M,M,M,M,PAFM 011455Z AUTO 29003KT 10SM BKN050 A2952 RMK MADISHF
PAFM,2017-04-01 14:56,-157.8575,67.1063,6.10,0.00,75.43,300.00,3.00,0.00,29.52,1001.20,10.00,M,BKN,M,M,M,5000.00,M,M,M,M,PAFM 011456Z AUTO 30003KT 10SM BKN050 M14/M18 A2952 RMK AO2 SLP012 T11441178 53004 FZRANO
PAFM,2017-04-01 15:00,-157.8575,67.1063,M,M,M,0.00,0.00,M,29.52,M,10.00,M,BKN,M,M,M,5000.00,M,M,M,M,PAFM 011500Z AUTO 00000KT 10SM BKN050 A2952 RMK MADISHF
PAFM,2017-04-01 15:05,-157.8575,67.1063,M,M,M,0.00,0.00,M,29.53,M,10.00,M,BKN,M,M,M,5000.00,M,M,M,M,PAFM 011505Z AUTO 00000KT 10SM BKN050 A2953 RMK MADISHF
PAFM,2017-04-01 15:10,-157.8575,67.1063,M,M,M,310.00,3.00,M,29.53,M,10.00,M,BKN,M,M,M,5000.00,M,M,M,M,PAFM 011510Z AUTO 31003KT 10SM BKN050 A2953 RMK MADISHF
PAFM,2017-04-01 15:15,-157.8575,67.1063,M,M,M,0.00,0.00,M,29.53,M,10.00,M,OVC,M,M,M,5000.00,M,M,M,M,PAFM 011515Z AUTO 00000KT 10SM OVC050 A2953 RMK MADISHF
PAFM,2017-04-01 15:20,-157.8575,67.1063,M,M,M,0.00,0.00,M,29.53,M,10.00,M,OVC,M,M,M,5000.00,M,M,M,M,PAFM 011520Z AUTO 00000KT 10SM OVC050 A2953 RMK MADISHF
PAFM,2017-04-01 15:25,-157.8575,67.1063,M,M,M,0.00,0.00,M,29.53,M,10.00,M,OVC,M,M,M,5000.00,M,M,M,M,PAFM 011525Z AUTO 00000KT 10SM OVC050 A2953 RMK MADISHF
PAFM,2017-04-01 15:30,-157.8575,67.1063,M,M,M,330.00,3.00,M,29.53,M,10.00,M,OVC,M,M,M,5000.00,M,M,M,M,PAFM 011530Z AUTO 33003KT 10SM OVC050 A2953 RMK VRB03KT  MADISHF
PAFM,2017-04-01 15:35,-157.8575,67.1063,M,M,M,320.00,5.00,M,29.53,M,10.00,M,OVC,M,M,M,5000.00,M,M,M,M,PAFM 011535Z AUTO 32005KT 10SM OVC050 A2953 RMK MADISHF
PAFM,2017-04-01 15:40,-157.8575,67.1063,M,M,M,300.00,3.00,M,29.53,M,10.00,M,OVC,M,M,M,5000.00,M,M,M,M,PAFM 011540Z AUTO 30003KT 10SM OVC050 A2953 RMK MADISHF
PAFM,2017-04-01 15:45,-157.8575,67.1063,M,M,M,320.00,3.00,M,29.53,M,10.00,M,OVC,M,M,M,5000.00,M,M,M,M,PAFM 011545Z AUTO 32003KT 10SM OVC050 A2953 RMK VRB03KT  MADISHF
PAFM,2017-04-01 15:50,-157.8575,67.1063,M,M,M,350.00,4.00,M,29.52,M,10.00,M,OVC,M,M,M,5000.00,M,M,M,M,PAFM 011550Z AUTO 35004KT 10SM OVC050 A2952 RMK MADISHF
PAFM,2017-04-01 15:55,-157.8575,67.1063,M,M,M,0.00,0.00,M,29.53,M,10.00,M,OVC,M,M,M,5000.00,M,M,M,M,PAFM 011555Z AUTO 00000KT 10SM OVC050 A2953 RMK MADISHF
PAFM,2017-04-01 15:56,-157.8575,67.1063,9.00,1.00,69.33,0.00,0.00,0.00,29.53,1001.30,10.00,M,OVC,M,M,M,5000.00,M,M,M,M,PAFM 011556Z AUTO 00000KT 10SM OVC050 M13/M17 A2953 RMK AO2 SLP013 T11281172 FZRANO
PAFM,2017-04-01 16:00,-157.8575,67.1063,M,M,M,0.00,0.00,M,29.53,M,10.00,M,OVC,M,M,M,5000.00,M,M,M,M,PAFM 011600Z AUTO 00000KT 10SM OVC050 A2953 RMK MADISHF
PAFM,2017-04-01 16:05,-157.8575,67.1063,M,M,M,0.00,0.00,M,29.53,M,10.00,M,OVC,M,M,M,5000.00,M,M,M,M,PAFM 011605Z AUTO 00000KT 10SM OVC050 A2953 RMK MADISHF
PAFM,2017-04-01 16:10,-157.8575,67.1063,M,M,M,360.00,3.00,M,29.53,M,10.00,M,OVC,M,M,M,5000.00,M,M,M,M,PAFM 011610Z AUTO 36003KT 10SM OVC050 A2953 RMK VRB03KT  MADISHF
PAFM,2017-04-01 16:15,-157.8575,67.1063,M,M,M,10.00,4.00,M,29.53,M,10.00,M,OVC,M,M,M,5000.00,M,M,M,M,PAFM 011615Z AUTO 01004KT 10SM OVC050 A2953 RMK MADISHF
PAFM,2017-04-01 16:20,-157.8575,67.1063,M,M,M,30.00,4.00,M,29.53,M,10.00,M,OVC,M,M,M,5000.00,M,M,M,M,PAFM 011620Z AUTO 03004KT 10SM OVC050 A2953 RMK MADISHF
PAFM,2017-04-01 16:25,-157.8575,67.1063,M,M,M,40.00,6.00,M,29.53,M,10.00,M,OVC,M,M,M,5000.00,M,M,M,M,PAFM 011625Z AUTO 04006KT 10SM OVC050 A2953 RMK MADISHF
PAFM,2017-04-01 16:30,-157.8575,67.1063,M,M,M,20.00,6.00,M,29.53,M,10.00,M,OVC,M,M,M,5000.00,M,M,M,M,PAFM 011630Z AUTO 02006KT 10SM OVC050 A2953 RMK MADISHF
PAFM,2017-04-01 16:35,-157.8575,67.1063,M,M,M,30.00,6.00,M,29.53,M,10.00,M,OVC,M,M,M,5000.00,M,M,M,M,PAFM 011635Z AUTO 03006KT 10SM OVC050 A2953 RMK MADISHF
PAFM,2017-04-01 16:40,-157.8575,67.1063,M,M,M,30.00,9.00,M,29.53,M,10.00,M,OVC,M,M,M,5000.00,M,M,M,M,PAFM 011640Z AUTO 03009KT 10SM OVC050 A2953 RMK MADISHF
PAFM,2017-04-01 16:45,-157.8575,67.1063,M,M,M,30.00,10.00,M,29.53,M,10.00,M,OVC,M,M,M,5000.00,M,M,M,M,PAFM 011645Z AUTO 03010KT 10SM OVC050 A2953 RMK MADISHF
PAFM,2017-04-01 16:50,-157.8575,67.1063,M,M,M,350.00,6.00,M,29.53,M,10.00,M,OVC,M,M,M,5000.00,M,M,M,M,PAFM 011650Z AUTO 35006KT 10SM OVC050 A2953 RMK VRB06KT  MADISHF
PAFM,2017-04-01 16:55,-157.8575,67.1063,M,M,M,280.00,6.00,M,29.53,M,10.00,M,OVC,M,M,M,5000.00,M,M,M,M,PAFM 011655Z AUTO 28006KT 10SM OVC050 A2953 RMK MADISHF
PAFM,2017-04-01 16:56,-157.8575,67.1063,10.00,1.00,66.29,280.00,6.00,0.00,29.53,1001.50,10.00,M,OVC,M,M,M,5000.00,M,M,M,M,PAFM 011656Z AUTO 28006KT 10SM OVC050 M12/M17 A2953 RMK AO2 SLP015 T11221172 FZRANO
PAFM,2017-04-01 17:00,-157.8575,67.1063,M,M,M,300.00,4.00,M,29.54,M,10.00,M,OVC,M,M,M,5000.00,M,M,M,M,PAFM 011700Z AUTO 30004KT 10SM OVC050 A2954 RMK MADISHF
PAFM,2017-04-01 17:05,-157.8575,67.1063,M,M,M,300.00,4.00,M,29.54,M,10.00,M,OVC,M,M,M,5500.00,M,M,M,M,PAFM 011705Z AUTO 30004KT 10SM OVC055 A2954 RMK MADISHF
PAFM,2017-04-01 17:10,-157.8575,67.1063,M,M,M,280.00,3.00,M,29.53,M,10.00,M,OVC,M,M,M,5500.00,M,M,M,M,PAFM 011710Z AUTO 28003KT 10SM OVC055 A2953 RMK MADISHF
PAFM,2017-04-01 17:15,-157.8575,67.1063,M,M,M,270.00,3.00,M,29.54,M,10.00,M,OVC,M,M,M,5500.00,M,M,M,M,PAFM 011715Z AUTO 27003KT 10SM OVC055 A2954 RMK MADISHF
PAFM,2017-04-01 17:20,-157.8575,67.1063,M,M,M,310.00,3.00,M,29.54,M,10.00,M,OVC,M,M,M,5500.00,M,M,M,M,PAFM 011720Z AUTO 31003KT 10SM OVC055 A2954 RMK VRB03KT  MADISHF
PAFM,2017-04-01 17:25,-157.8575,67.1063,M,M,M,0.00,0.00,M,29.54,M,10.00,M,OVC,M,M,M,5500.00,M,M,M,M,PAFM 011725Z AUTO 00000KT 10SM OVC055 A2954 RMK MADISHF
PAFM,2017-04-01 17:30,-157.8575,67.1063,M,M,M,0.00,0.00,M,29.54,M,10.00,M,OVC,M,M,M,5500.00,M,M,M,M,PAFM 011730Z AUTO 00000KT 10SM OVC055 A2954 RMK MADISHF
PAFM,2017-04-01 17:35,-157.8575,67.1063,M,M,M,300.00,4.00,M,29.54,M,10.00,M,OVC,M,M,M,5500.00,M,M,M,M,PAFM 011735Z AUTO 30004KT 10SM OVC055 A2954 RMK MADISHF
PAFM,2017-04-01 17:40,-157.8575,67.1063,M,M,M,260.00,5.00,M,29.54,M,10.00,M,OVC,M,M,M,5500.00,M,M,M,M,PAFM 011740Z AUTO 26005KT 10SM OVC055 A2954 RMK MADISHF
PAFM,2017-04-01 17:45,-157.8575,67.1063,M,M,M,250.00,3.00,M,29.54,M,10.00,M,OVC,M,M,M,5500.00,M,M,M,M,PAFM 011745Z AUTO 25003KT 10SM OVC055 A2954 RMK MADISHF
PAFM,2017-04-01 17:50,-157.8575,67.1063,M,M,M,0.00,0.00,M,29.54,M,10.00,M,OVC,M,M,M,5500.00,M,M,M,M,PAFM 011750Z AUTO 00000KT 10SM OVC055 A2954 RMK MADISHF
PAFM,2017-04-01 17:55,-157.8575,67.1063,M,M,M,290.00,4.00,M,29.54,M,10.00,M,OVC,M,M,M,5500.00,M,M,M,M,PAFM 011755Z AUTO 29004KT 10SM OVC055 A2954 RMK MADISHF
PAFM,2017-04-01 17:56,-157.8575,67.1063,10.00,1.90,69.13,290.00,4.00,0.00,29.54,1001.70,10.00,M,OVC,M,M,M,5500.00,M,M,M,M,PAFM 011756Z AUTO 29004KT 10SM OVC055 M12/M17 A2954 RMK AO2 SLP017 T11221167 11111 21150 53005 FZRANO
PAFM,2017-04-01 18:00,-157.8575,67.1063,M,M,M,290.00,3.00,M,29.54,M,10.00,M,OVC,M,M,M,5500.00,M,M,M,M,PAFM 011800Z AUTO 29003KT 10SM OVC055 A2954 RMK MADISHF
PAFM,2017-04-01 18:05,-157.8575,67.1063,M,M,M,280.00,4.00,M,29.54,M,10.00,M,OVC,M,M,M,5500.00,M,M,M,M,PAFM 011805Z AUTO 28004KT 10SM OVC055 A2954 RMK MADISHF
PAFM,2017-04-01 18:10,-157.8575,67.1063,M,M,M,310.00,4.00,M,29.54,M,10.00,M,OVC,M,M,M,5500.00,M,M,M,M,PAFM 011810Z AUTO 31004KT 10SM OVC055 A2954 RMK VRB04KT  MADISHF
PAFM,2017-04-01 18:15,-157.8575,67.1063,M,M,M,330.00,4.00,M,29.54,M,10.00,M,OVC,M,M,M,5500.00,M,M,M,M,PAFM 011815Z AUTO 33004KT 10SM OVC055 A2954 RMK MADISHF
PAFM,2017-04-01 18:20,-157.8575,67.1063,M,M,M,70.00,3.00,M,29.54,M,10.00,M,OVC,M,M,M,6000.00,M,M,M,M,PAFM 011820Z AUTO 07003KT 10SM OVC060 A2954 RMK VRB03KT  MADISHF
PAFM,2017-04-01 18:25,-157.8575,67.1063,M,M,M,20.00,5.00,M,29.54,M,10.00,M,OVC,M,M,M,6000.00,M,M,M,M,PAFM 011825Z AUTO 02005KT 10SM OVC060 A2954 RMK MADISHF
PAFM,2017-04-01 18:30,-157.8575,67.1063,M,M,M,60.00,4.00,M,29.55,M,10.00,M,OVC,M,M,M,6000.00,M,M,M,M,PAFM 011830Z AUTO 06004KT 10SM OVC060 A2955 RMK MADISHF
PAFM,2017-04-01 18:35,-157.8575,67.1063,M,M,M,360.00,4.00,M,29.55,M,10.00,M,OVC,M,M,M,6000.00,M,M,M,M,PAFM 011835Z AUTO 36004KT 10SM OVC060 A2955 RMK VRB04KT  MADISHF
PAFM,2017-04-01 18:40,-157.8575,67.1063,M,M,M,10.00,4.00,M,29.55,M,10.00,M,OVC,M,M,M,6000.00,M,M,M,M,PAFM 011840Z AUTO 01004KT 10SM OVC060 A2955 RMK VRB04KT  MADISHF
PAFM,2017-04-01 18:45,-157.8575,67.1063,M,M,M,10.00,7.00,M,29.54,M,10.00,M,OVC,M,M,M,6000.00,M,M,M,M,PAFM 011845Z AUTO 01007KT 10SM OVC060 A2954 RMK MADISHF
PAFM,2017-04-01 18:50,-157.8575,67.1063,M,M,M,50.00,3.00,M,29.55,M,10.00,M,OVC,M,M,M,6000.00,M,M,M,M,PAFM 011850Z AUTO 05003KT 10SM OVC060 A2955 RMK VRB03KT  MADISHF
PAFM,2017-04-01 18:55,-157.8575,67.1063,M,M,M,60.00,4.00,M,29.55,M,10.00,M,OVC,M,M,M,6000.00,M,M,M,M,PAFM 011855Z AUTO 06004KT 10SM OVC060 A2955 RMK MADISHF
PAFM,2017-04-01 18:56,-157.8575,67.1063,17.10,3.90,55.51,70.00,4.00,0.00,29.55,1001.90,10.00,M,OVC,M,M,M,6000.00,M,M,M,M,PAFM 011856Z AUTO 07004KT 10SM OVC060 M08/M16 A2955 RMK AO2 SLP019 T10831156 FZRANO
PAFM,2017-04-01 19:00,-157.8575,67.1063,M,M,M,70.00,3.00,M,29.55,M,10.00,M,OVC,M,M,M,6000.00,M,M,M,M,PAFM 011900Z AUTO 07003KT 10SM OVC060 A2955 RMK VRB03KT  MADISHF
PAFM,2017-04-01 19:05,-157.8575,67.1063,M,M,M,30.00,5.00,M,29.55,M,10.00,M,OVC,M,M,M,6000.00,M,M,M,M,PAFM 011905Z AUTO 03005KT 10SM OVC060 A2955 RMK VRB05KT  MADISHF
PAFM,2017-04-01 19:10,-157.8575,67.1063,M,M,M,20.00,8.00,M,29.54,M,10.00,M,OVC,M,M,M,6000.00,M,M,M,M,PAFM 011910Z AUTO 02008KT 10SM OVC060 A2954 RMK MADISHF
PAFM,2017-04-01 19:15,-157.8575,67.1063,M,M,M,70.00,5.00,M,29.55,M,10.00,M,OVC,M,M,M,6000.00,M,M,M,M,PAFM 011915Z AUTO 07005KT 10SM OVC060 A2955 RMK VRB05KT  MADISHF
PAFM,2017-04-01 19:20,-157.8575,67.1063,M,M,M,50.00,8.00,M,29.55,M,10.00,M,OVC,M,M,M,6000.00,M,M,M,M,PAFM 011920Z AUTO 05008KT 10SM OVC060 A2955 RMK MADISHF
PAFM,2017-04-01 19:25,-157.8575,67.1063,M,M,M,80.00,4.00,M,29.55,M,10.00,M,OVC,M,M,M,6000.00,M,M,M,M,PAFM 011925Z AUTO 08004KT 10SM OVC060 A2955 RMK MADISHF
PAFM,2017-04-01 19:30,-157.8575,67.1063,M,M,M,50.00,6.00,M,29.55,M,10.00,M,OVC,M,M,M,6000.00,M,M,M,M,PAFM 011930Z AUTO 05006KT 10SM OVC060 A2955 RMK MADISHF
PAFM,2017-04-01 19:35,-157.8575,67.1063,M,M,M,50.00,7.00,M,29.55,M,10.00,M,OVC,M,M,M,6000.00,M,M,M,M,PAFM 011935Z AUTO 05007KT 10SM OVC060 A2955 RMK MADISHF
PAFM,2017-04-01 19:40,-157.8575,67.1063,M,M,M,60.00,4.00,M,29.55,M,10.00,M,OVC,M,M,M,6000.00,M,M,M,M,PAFM 011940Z AUTO 06004KT 10SM OVC060 A2955 RMK MADISHF
PAFM,2017-04-01 19:45,-157.8575,67.1063,M,M,M,100.00,4.00,M,29.55,M,10.00,M,OVC,M,M,M,6000.00,M,M,M,M,PAFM 011945Z AUTO 10004KT 10SM OVC060 A2955 RMK MADISHF
PAFM,2017-04-01 19:50,-157.8575,67.1063,M,M,M,100.00,3.00,M,29.55,M,10.00,M,OVC,M,M,M,6000.00,M,M,M,M,PAFM 011950Z AUTO 10003KT 10SM OVC060 A2955 RMK MADISHF
PAFM,2017-04-01 19:55,-157.8575,67.1063,M,M,M,90.00,3.00,M,29.55,M,10.00,M,OVC,M,M,M,6000.00,M,M,M,M,PAFM 011955Z AUTO 09003KT 10SM OVC060 A2955 RMK VRB03KT  MADISHF
PAFM,2017-04-01 19:56,-157.8575,67.1063,18.00,5.00,56.16,120.00,3.00,0.00,29.55,1002.00,10.00,M,OVC,M,M,M,6000.00,M,M,M,M,PAFM 011956Z AUTO 12003KT 10SM OVC060 M08/M15 A2955 RMK AO2 SLP020 T10781150 FZRANO
PAFM,2017-04-01 20:00,-157.8575,67.1063,M,M,M,0.00,0.00,M,29.55,M,10.00,M,OVC,M,M,M,6000.00,M,M,M,M,PAFM 012000Z AUTO 00000KT 10SM OVC060 A2955 RMK MADISHF
PAFM,2017-04-01 20:05,-157.8575,67.1063,M,M,M,150.00,4.00,M,29.55,M,10.00,M,OVC,M,M,M,6000.00,M,M,M,M,PAFM 012005Z AUTO 15004KT 10SM OVC060 A2955 RMK VRB04KT  MADISHF
PAFM,2017-04-01 20:15,-157.8575,67.1063,M,M,M,0.00,0.00,M,29.55,M,10.00,M,OVC,M,M,M,6000.00,M,M,M,M,PAFM 012015Z AUTO 00000KT 10SM OVC060 A2955 RMK MADISHF
PAFM,2017-04-01 20:20,-157.8575,67.1063,M,M,M,160.00,3.00,M,29.55,M,10.00,M,OVC,M,M,M,6000.00,M,M,M,M,PAFM 012020Z AUTO 16003KT 10SM OVC060 A2955 RMK VRB03KT  MADISHF
PAFM,2017-04-01 20:25,-157.8575,67.1063,M,M,M,200.00,3.00,M,29.56,M,10.00,M,OVC,M,M,M,6000.00,M,M,M,M,PAFM 012025Z AUTO 20003KT 10SM OVC060 A2956 RMK MADISHF
PAFM,2017-04-01 20:30,-157.8575,67.1063,M,M,M,180.00,4.00,M,29.56,M,10.00,M,OVC,M,M,M,6000.00,M,M,M,M,PAFM 012030Z AUTO 18004KT 10SM OVC060 A2956 RMK MADISHF
PAFM,2017-04-01 20:40,-157.8575,67.1063,M,M,M,0.00,0.00,M,29.56,M,10.00,M,OVC,M,M,M,6000.00,M,M,M,M,PAFM 012040Z AUTO 00000KT 10SM OVC060 A2956 RMK MADISHF
PAFM,2017-04-01 20:45,-157.8575,67.1063,M,M,M,180.00,3.00,M,29.56,M,10.00,M,OVC,M,M,M,6000.00,M,M,M,M,PAFM 012045Z AUTO 18003KT 10SM OVC060 A2956 RMK MADISHF
PAFM,2017-04-01 20:50,-157.8575,67.1063,M,M,M,180.00,3.00,M,29.56,M,10.00,M,OVC,M,M,M,6000.00,M,M,M,M,PAFM 012050Z AUTO 18003KT 10SM OVC060 A2956 RMK MADISHF
PAFM,2017-04-01 20:55,-157.8575,67.1063,M,M,M,0.00,0.00,M,29.56,M,10.00,M,OVC,M,M,M,6000.00,M,M,M,M,PAFM 012055Z AUTO 00000KT 10SM OVC060 A2956 RMK MADISHF
PAFM,2017-04-01 20:56,-157.8575,67.1063,19.00,5.00,53.80,0.00,0.00,0.00,29.56,1002.40,10.00,M,OVC,M,M,M,6000.00,M,M,M,M,PAFM 012056Z AUTO 00000KT 10SM OVC060 M07/M15 A2956 RMK AO2 SLP024 T10721150 53007 FZRANO
PAFM,2017-04-01 21:00,-157.8575,67.1063,M,M,M,0.00,0.00,M,29.56,M,10.00,M,OVC,M,M,M,6000.00,M,M,M,M,PAFM 012100Z AUTO 00000KT 10SM OVC060 A2956 RMK MADISHF
PAFM,2017-04-01 21:05,-157.8575,67.1063,M,M,M,0.00,0.00,M,29.56,M,10.00,M,OVC,M,M,M,6000.00,M,M,M,M,PAFM 012105Z AUTO 00000KT 10SM OVC060 A2956 RMK MADISHF
PAFM,2017-04-01 21:10,-157.8575,67.1063,M,M,M,0.00,0.00,M,29.56,M,10.00,M,OVC,M,M,M,6000.00,M,M,M,M,PAFM 012110Z AUTO 00000KT 10SM OVC060 A2956 RMK MADISHF
PAFM,2017-04-01 21:15,-157.8575,67.1063,M,M,M,0.00,0.00,M,29.56,M,10.00,M,OVC,M,M,M,6000.00,M,M,M,M,PAFM 012115Z AUTO 00000KT 10SM OVC060 A2956 RMK MADISHF
PAFM,2017-04-01 21:20,-157.8575,67.1063,M,M,M,0.00,0.00,M,29.57,M,10.00,M,OVC,M,M,M,6000.00,M,M,M,M,PAFM 012120Z AUTO 00000KT 10SM OVC060 A2957 RMK MADISHF
PAFM,2017-04-01 21:25,-157.8575,67.1063,M,M,M,0.00,0.00,M,29.57,M,10.00,M,OVC,M,M,M,6000.00,M,M,M,M,PAFM 012125Z AUTO 00000KT 10SM OVC060 A2957 RMK MADISHF
PAFM,2017-04-01 21:30,-157.8575,67.1063,M,M,M,0.00,0.00,M,29.57,M,10.00,M,OVC,M,M,M,6000.00,M,M,M,M,PAFM 012130Z AUTO 00000KT 10SM OVC060 A2957 RMK MADISHF
PAFM,2017-04-01 21:35,-157.8575,67.1063,M,M,M,190.00,3.00,M,29.56,M,10.00,M,OVC,M,M,M,6000.00,M,M,M,M,PAFM 012135Z AUTO 19003KT 10SM OVC060 A2956 RMK MADISHF
PAFM,2017-04-01 21:40,-157.8575,67.1063,M,M,M,70.00,4.00,M,29.57,M,10.00,M,OVC,M,M,M,6000.00,M,M,M,M,PAFM 012140Z AUTO 07004KT 10SM OVC060 A2957 RMK VRB04KT  MADISHF
PAFM,2017-04-01 21:45,-157.8575,67.1063,M,M,M,80.00,3.00,M,29.57,M,10.00,M,OVC,M,M,M,6000.00,M,M,M,M,PAFM 012145Z AUTO 08003KT 10SM OVC060 A2957 RMK MADISHF
PAFM,2017-04-01 21:50,-157.8575,67.1063,M,M,M,50.00,4.00,M,29.57,M,10.00,M,OVC,M,M,M,6000.00,M,M,M,M,PAFM 012150Z AUTO 05004KT 10SM OVC060 A2957 RMK MADISHF
PAFM,2017-04-01 21:56,-157.8575,67.1063,21.90,6.10,50.01,50.00,5.00,0.00,29.57,1002.70,10.00,M,OVC,M,M,M,6000.00,M,M,M,M,PAFM 012156Z AUTO 05005KT 10SM OVC060 M06/M14 A2957 RMK AO2 SLP027 T10561144 FZRANO
PAFM,2017-04-01 22:00,-157.8575,67.1063,M,M,M,80.00,4.00,M,29.57,M,10.00,M,OVC,M,M,M,6000.00,M,M,M,M,PAFM 012200Z AUTO 08004KT 10SM OVC060 A2957 RMK MADISHF
PAFM,2017-04-01 22:05,-157.8575,67.1063,M,M,M,100.00,3.00,M,29.57,M,10.00,M,OVC,M,M,M,5500.00,M,M,M,M,PAFM 012205Z AUTO 10003KT 10SM OVC055 A2957 RMK MADISHF
PAFM,2017-04-01 22:10,-157.8575,67.1063,M,M,M,140.00,3.00,M,29.57,M,10.00,M,OVC,M,M,M,5500.00,M,M,M,M,PAFM 012210Z AUTO 14003KT 10SM OVC055 A2957 RMK MADISHF
PAFM,2017-04-01 22:15,-157.8575,67.1063,M,M,M,0.00,0.00,M,29.57,M,10.00,M,OVC,M,M,M,5500.00,M,M,M,M,PAFM 012215Z AUTO 00000KT 10SM OVC055 A2957 RMK MADISHF
PAFM,2017-04-01 22:20,-157.8575,67.1063,M,M,M,90.00,3.00,M,29.57,M,10.00,M,OVC,M,M,M,5500.00,M,M,M,M,PAFM 012220Z AUTO 09003KT 10SM OVC055 A2957 RMK MADISHF
PAFM,2017-04-01 22:25,-157.8575,67.1063,M,M,M,160.00,3.00,M,29.57,M,10.00,M,OVC,M,M,M,5500.00,M,M,M,M,PAFM 012225Z AUTO 16003KT 10SM OVC055 A2957 RMK MADISHF
PAFM,2017-04-01 22:30,-157.8575,67.1063,M,M,M,170.00,3.00,M,29.57,M,10.00,M,OVC,M,M,M,5500.00,M,M,M,M,PAFM 012230Z AUTO 17003KT 10SM OVC055 A2957 RMK MADISHF
PAFM,2017-04-01 22:35,-157.8575,67.1063,M,M,M,160.00,3.00,M,29.57,M,10.00,M,OVC,M,M,M,5500.00,M,M,M,M,PAFM 012235Z AUTO 16003KT 10SM OVC055 A2957 RMK MADISHF
PAFM,2017-04-01 22:40,-157.8575,67.1063,M,M,M,180.00,3.00,M,29.57,M,10.00,M,OVC,M,M,M,5500.00,M,M,M,M,PAFM 012240Z AUTO 18003KT 10SM OVC055 A2957 RMK MADISHF
PAFM,2017-04-01 22:45,-157.8575,67.1063,M,M,M,180.00,3.00,M,29.57,M,10.00,M,OVC,M,M,M,5500.00,M,M,M,M,PAFM 012245Z AUTO 18003KT 10SM OVC055 A2957 RMK MADISHF
PAFM,2017-04-01 22:50,-157.8575,67.1063,M,M,M,0.00,0.00,M,29.57,M,10.00,M,OVC,M,M,M,5500.00,M,M,M,M,PAFM 012250Z AUTO 00000KT 10SM OVC055 A2957 RMK MADISHF
PAFM,2017-04-01 22:55,-157.8575,67.1063,M,M,M,0.00,0.00,M,29.58,M,10.00,M,OVC,M,M,M,5500.00,M,M,M,M,PAFM 012255Z AUTO 00000KT 10SM OVC055 A2958 RMK MADISHF
PAFM,2017-04-01 22:56,-157.8575,67.1063,25.00,9.00,50.07,0.00,0.00,0.00,29.57,1002.90,10.00,M,OVC,M,M,M,5500.00,M,M,M,M,PAFM 012256Z AUTO 00000KT 10SM OVC055 M04/M13 A2957 RMK AO2 SLP029 T10391128 FZRANO
PAFM,2017-04-01 23:00,-157.8575,67.1063,M,M,M,180.00,3.00,M,29.57,M,10.00,M,OVC,M,M,M,5500.00,M,M,M,M,PAFM 012300Z AUTO 18003KT 10SM OVC055 A2957 RMK MADISHF
PAFM,2017-04-01 23:05,-157.8575,67.1063,M,M,M,120.00,4.00,M,29.58,M,10.00,M,OVC,M,M,M,5500.00,M,M,M,M,PAFM 012305Z AUTO 12004KT 10SM OVC055 A2958 RMK MADISHF
PAFM,2017-04-01 23:10,-157.8575,67.1063,M,M,M,0.00,0.00,M,29.58,M,10.00,M,OVC,M,M,M,5500.00,M,M,M,M,PAFM 012310Z AUTO 00000KT 10SM OVC055 A2958 RMK MADISHF
PAFM,2017-04-01 23:15,-157.8575,67.1063,M,M,M,170.00,4.00,M,29.58,M,10.00,M,OVC,M,M,M,5500.00,M,M,M,M,PAFM 012315Z AUTO 17004KT 10SM OVC055 A2958 RMK MADISHF
PAFM,2017-04-01 23:20,-157.8575,67.1063,M,M,M,0.00,0.00,M,29.58,M,10.00,M,OVC,M,M,M,5500.00,M,M,M,M,PAFM 012320Z AUTO 00000KT 10SM OVC055 A2958 RMK MADISHF
PAFM,2017-04-01 23:25,-157.8575,67.1063,M,M,M,0.00,0.00,M,29.58,M,10.00,M,OVC,M,M,M,5500.00,M,M,M,M,PAFM 012325Z AUTO 00000KT 10SM OVC055 A2958 RMK MADISHF
PAFM,2017-04-01 23:30,-157.8575,67.1063,M,M,M,0.00,0.00,M,29.58,M,10.00,M,OVC,M,M,M,5500.00,M,M,M,M,PAFM 012330Z AUTO 00000KT 10SM OVC055 A2958 RMK MADISHF
PAFM,2017-04-01 23:35,-157.8575,67.1063,M,M,M,0.00,0.00,M,29.58,M,10.00,M,OVC,M,M,M,5500.00,M,M,M,M,PAFM 012335Z AUTO 00000KT 10SM OVC055 A2958 RMK MADISHF
PAFM,2017-04-01 23:40,-157.8575,67.1063,M,M,M,0.00,0.00,M,29.58,M,10.00,M,OVC,M,M,M,5500.00,M,M,M,M,PAFM 012340Z AUTO 00000KT 10SM OVC055 A2958 RMK MADISHF
PAFM,2017-04-01 23:45,-157.8575,67.1063,M,M,M,0.00,0.00,M,29.58,M,10.00,M,OVC,M,M,M,5500.00,M,M,M,M,PAFM 012345Z AUTO 00000KT 10SM OVC055 A2958 RMK MADISHF
PAFM,2017-04-01 23:50,-157.8575,67.1063,M,M,M,90.00,3.00,M,29.58,M,10.00,M,OVC,M,M,M,5500.00,M,M,M,M,PAFM 012350Z AUTO 09003KT 10SM OVC055 A2958 RMK MADISHF
PAFM,2017-04-01 23:55,-157.8575,67.1063,M,M,M,0.00,0.00,M,29.58,M,10.00,M,OVC,M,M,M,5500.00,M,M,M,M,PAFM 012355Z AUTO 00000KT 10SM OVC055 A2958 RMK MADISHF
PAFM,2017-04-01 23:56,-157.8575,67.1063,26.10,9.00,47.83,0.00,0.00,0.00,29.58,1003.00,10.00,M,OVC,M,M,M,5500.00,M,M,M,M,PAFM 012356Z AUTO 00000KT 10SM OVC055 M03/M13 A2958 RMK AO2 SLP030 T10331128 11028 21122 51005 FZRANO
