#DEBUG: Format Typ    -> comma
#DEBUG: Time Period   -> 2017-04-01 00:00:00+00:00 2017-04-02 00:00:00+00:00
#DEBUG: Time Zone     -> Etc/UTC
#DEBUG: Data Contact   -> daryl herzmann akrherz@iastate.edu 515-294-5978
#DEBUG: Entries Found -> -1
station,valid,lon,lat,tmpf, dwpf, relh, drct, sknt, p01i, alti, mslp, vsby, gust, skyc1, skyc2, skyc3, skyc4, skyl1, skyl2, skyl3, skyl4, presentwx, metar
PAGN,2017-04-01 00:00,-134.5851,57.5036,M,M,M,90.00,5.00,M,29.74,M,10.00,M,OVC,M,M,M,2900.00,M,M,M,M,PAGN 010000Z AUTO 09005KT 10SM OVC029 A2974 RMK VRB05KT  MADISHF
PAGN,2017-04-01 00:05,-134.5851,57.5036,M,M,M,90.00,7.00,M,29.74,M,10.00,M,BKN,OVC,M,M,2700.00,3300.00,M,M,M,PAGN 010005Z AUTO 09007KT 10SM BKN027 OVC033 A2974 RMK MADISHF
PAGN,2017-04-01 00:10,-134.5851,57.5036,M,M,M,90.00,6.00,M,29.74,M,10.00,M,BKN,OVC,M,M,2900.00,3300.00,M,M,M,PAGN 010010Z AUTO 09006KT 10SM BKN029 OVC033 A2974 RMK MADISHF
PAGN,2017-04-01 00:15,-134.5851,57.5036,M,M,M,90.00,6.00,M,29.74,M,10.00,M,OVC,M,M,M,2900.00,M,M,M,M,PAGN 010015Z AUTO 09006KT 10SM OVC029 A2974 RMK MADISHF
PAGN,2017-04-01 00:20,-134.5851,57.5036,M,M,M,70.00,4.00,M,29.74,M,10.00,M,OVC,M,M,M,2700.00,M,M,M,M,PAGN 010020Z AUTO 07004KT 10SM OVC027 A2974 RMK MADISHF
PAGN,2017-04-01 00:25,-134.5851,57.5036,M,M,M,60.00,4.00,M,29.74,M,10.00,M,OVC,M,M,M,2700.00,M,M,M,M,PAGN 010025Z AUTO 06004KT 10SM OVC027 A2974 RMK MADISHF
PAGN,2017-04-01 00:30,-134.5851,57.5036,M,M,M,70.00,4.00,M,29.74,M,10.00,M,OVC,M,M,M,2700.00,M,M,M,M,PAGN 010030Z AUTO 07004KT 10SM OVC027 A2974 RMK MADISHF
PAGN,2017-04-01 00:35,-134.5851,57.5036,M,M,M,70.00,3.00,M,29.74,M,10.00,M,OVC,M,M,M,2700.00,M,M,M,M,PAGN 010035Z AUTO 07003KT 10SM OVC027 A2974 RMK MADISHF
PAGN,2017-04-01 00:45,-134.5851,57.5036,M,M,M,60.00,5.00,M,29.74,M,10.00,M,OVC,M,M,M,2700.00,M,M,M,M,PAGN 010045Z AUTO 06005KT 10SM OVC027 A2974 RMK MADISHF
PAGN,2017-04-01 00:50,-134.5851,57.5036,M,M,M,50.00,4.00,M,29.74,M,10.00,M,OVC,M,M,M,2700.00,M,M,M,M,PAGN 010050Z AUTO 05004KT 10SM OVC027 A2974 RMK MADISHF
PAGN,2017-04-01 00:55,-134.5851,57.5036,M,M,M,70.00,4.00,M,29.74,M,10.00,M,OVC,M,M,M,2700.00,M,M,M,M,PAGN 010055Z AUTO 07004KT 10SM OVC027 A2974 RMK MADISHF
PAGN,2017-04-01 00:56,-134.5851,57.5036,44.10,39.90,85.06,70.00,5.00,0.00,29.74,1006.00,10.00,M,OVC,M,M,M,2700.00,M,M,M,M,PAGN 010056Z AUTO 07005KT 10SM OVC027 07/04 A2974 RMK AO2 SLP060 T00670044
PAGN,2017-04-01 01:00,-134.5851,57.5036,M,M,M,60.00,5.00,M,29.74,M,10.00,M,OVC,M,M,M,2700.00,M,M,M,M,PAGN 010100Z AUTO 06005KT 10SM OVC027 A2974 RMK MADISHF
PAGN,2017-04-01 01:05,-134.5851,57.5036,M,M,M,70.00,5.00,M,29.74,M,10.00,M,BKN,OVC,M,M,2700.00,3300.00,M,M,M,PAGN 010105Z AUTO 07005KT 10SM BKN027 OVC033 A2974 RMK MADISHF
PAGN,2017-04-01 01:10,-134.5851,57.5036,M,M,M,60.00,4.00,M,29.74,M,10.00,M,BKN,OVC,M,M,2700.00,3300.00,M,M,M,PAGN 010110Z AUTO 06004KT 10SM BKN027 OVC033 A2974 RMK MADISHF
PAGN,2017-04-01 01:20,-134.5851,57.5036,M,M,M,70.00,4.00,M,29.74,M,10.00,M,OVC,M,M,M,2900.00,M,M,M,M,PAGN 010120Z AUTO 07004KT 10SM OVC029 A2974 RMK MADISHF
PAGN,2017-04-01 01:25,-134.5851,57.5036,M,M,M,70.00,4.00,M,29.74,M,10.00,M,OVC,M,M,M,2900.00,M,M,M,M,PAGN 010125Z AUTO 07004KT 10SM OVC029 A2974 RMK MADISHF
PAGN,2017-04-01 01:30,-134.5851,57.5036,M,M,M,80.00,3.00,M,29.74,M,10.00,M,OVC,M,M,M,2900.00,M,M,M,-RA,PAGN 010130Z AUTO 08003KT 10SM -RA OVC029 A2974 RMK MADISHF
PAGN,2017-04-01 01:35,-134.5851,57.5036,M,M,M,70.00,3.00,M,29.74,M,10.00,M,OVC,M,M,M,2900.00,M,M,M,-RA,PAGN 010135Z AUTO 07003KT 10SM -RA OVC029 A2974 RMK MADISHF
PAGN,2017-04-01 01:40,-134.5851,57.5036,M,M,M,80.00,3.00,M,29.74,M,10.00,M,OVC,M,M,M,2900.00,M,M,M,-RA,PAGN 010140Z AUTO 08003KT 10SM -RA OVC029 A2974 RMK MADISHF
PAGN,2017-04-01 01:45,-134.5851,57.5036,M,M,M,100.00,4.00,M,29.74,M,10.00,M,OVC,M,M,M,2900.00,M,M,M,M,PAGN 010145Z AUTO 10004KT 10SM OVC029 A2974 RMK MADISHF
PAGN,2017-04-01 01:50,-134.5851,57.5036,M,M,M,100.00,3.00,M,29.74,M,10.00,M,OVC,M,M,M,2700.00,M,M,M,M,PAGN 010150Z AUTO 10003KT 10SM OVC027 A2974 RMK MADISHF
PAGN,2017-04-01 01:55,-134.5851,57.5036,M,M,M,110.00,3.00,M,29.74,M,10.00,M,OVC,M,M,M,2700.00,M,M,M,M,PAGN 010155Z AUTO 11003KT 10SM OVC027 A2974 RMK MADISHF
PAGN,2017-04-01 01:56,-134.5851,57.5036,43.00,39.90,88.71,110.00,3.00,0.00,29.74,1006.10,10.00,M,OVC,M,M,M,2700.00,M,M,M,M,PAGN 010156Z AUTO 11003KT 10SM OVC027 06/04 A2974 RMK AO2 RAB29E43 SLP061 P0000 T00610044
PAGN,2017-04-01 02:00,-134.5851,57.5036,M,M,M,130.00,4.00,M,29.74,M,10.00,M,OVC,M,M,M,2700.00,M,M,M,M,PAGN 010200Z AUTO 13004KT 10SM OVC027 A2974 RMK MADISHF
PAGN,2017-04-01 02:05,-134.5851,57.5036,M,M,M,0.00,0.00,M,29.74,M,10.00,M,OVC,M,M,M,2700.00,M,M,M,M,PAGN 010205Z AUTO 00000KT 10SM OVC027 A2974 RMK MADISHF
PAGN,2017-04-01 02:15,-134.5851,57.5036,M,M,M,80.00,3.00,M,29.74,M,10.00,M,OVC,M,M,M,2700.00,M,M,M,-RA,PAGN 010215Z AUTO 08003KT 10SM -RA OVC027 A2974 RMK MADISHF
PAGN,2017-04-01 02:20,-134.5851,57.5036,M,M,M,0.00,0.00,M,29.74,M,10.00,M,BKN,OVC,M,M,2900.00,3500.00,M,M,-RA,PAGN 010220Z AUTO 00000KT 10SM -RA BKN029 OVC035 A2974 RMK MADISHF
PAGN,2017-04-01 02:25,-134.5851,57.5036,M,M,M,90.00,3.00,M,29.74,M,10.00,M,BKN,OVC,M,M,2900.00,3500.00,M,M,-RA,PAGN 010225Z AUTO 09003KT 10SM -RA BKN029 OVC035 A2974 RMK MADISHF
PAGN,2017-04-01 02:30,-134.5851,57.5036,M,M,M,80.00,3.00,M,29.74,M,10.00,M,BKN,OVC,M,M,2900.00,3500.00,M,M,M,PAGN 010230Z AUTO 08003KT 10SM BKN029 OVC035 A2974 RMK MADISHF
PAGN,2017-04-01 02:35,-134.5851,57.5036,M,M,M,70.00,5.00,M,29.74,M,10.00,M,FEW,OVC,M,M,2900.00,3500.00,M,M,M,PAGN 010235Z AUTO 07005KT 10SM FEW029 OVC035 A2974 RMK MADISHF
PAGN,2017-04-01 02:39,-134.5851,57.5036,42.80,39.20,86.99,60.00,3.00,0.00,29.74,M,10.00,M,FEW,OVC,M,M,2900.00,3500.00,M,M,M,PAGN 010239Z AUTO 06003KT 10SM FEW029 OVC035 06/04 A2974 RMK AO2 RAB15E29 P0000
PAGN,2017-04-01 02:40,-134.5851,57.5036,M,M,M,70.00,4.00,M,29.74,M,10.00,M,FEW,OVC,M,M,2900.00,3500.00,M,M,M,PAGN 010240Z AUTO 07004KT 10SM FEW029 OVC035 A2974 RMK MADISHF
PAGN,2017-04-01 02:45,-134.5851,57.5036,M,M,M,90.00,3.00,M,29.74,M,10.00,M,OVC,M,M,M,3500.00,M,M,M,M,PAGN 010245Z AUTO 09003KT 10SM OVC035 A2974 RMK MADISHF
PAGN,2017-04-01 02:50,-134.5851,57.5036,M,M,M,110.00,3.00,M,29.74,M,10.00,M,OVC,M,M,M,3500.00,M,M,M,M,PAGN 010250Z AUTO 11003KT 10SM OVC035 A2974 RMK MADISHF
PAGN,2017-04-01 02:55,-134.5851,57.5036,M,M,M,90.00,4.00,M,29.74,M,10.00,M,OVC,M,M,M,3500.00,M,M,M,M,PAGN 010255Z AUTO 09004KT 10SM OVC035 A2974 RMK MADISHF
PAGN,2017-04-01 02:56,-134.5851,57.5036,43.00,39.90,88.71,80.00,4.00,0.00,29.74,1006.10,10.00,M,OVC,M,M,M,3500.00,M,M,M,M,PAGN 010256Z AUTO 08004KT 10SM OVC035 06/04 A2974 RMK AO2 RAB15E29 SLP061 P0000 60000 T00610044 55000
PAGN,2017-04-01 03:00,-134.5851,57.5036,M,M,M,70.00,4.00,M,29.74,M,10.00,M,OVC,M,M,M,3300.00,M,M,M,M,PAGN 010300Z AUTO 07004KT 10SM OVC033 A2974 RMK MADISHF
PAGN,2017-04-01 03:05,-134.5851,57.5036,M,M,M,70.00,4.00,M,29.74,M,10.00,M,OVC,M,M,M,3500.00,M,M,M,M,PAGN 010305Z AUTO 07004KT 10SM OVC035 A2974 RMK MADISHF
PAGN,2017-04-01 03:10,-134.5851,57.5036,M,M,M,0.00,0.00,M,29.74,M,10.00,M,OVC,M,M,M,3500.00,M,M,M,M,PAGN 010310Z AUTO 00000KT 10SM OVC035 A2974 RMK MADISHF
PAGN,2017-04-01 03:15,-134.5851,57.5036,M,M,M,0.00,0.00,M,29.74,M,10.00,M,OVC,M,M,M,3500.00,M,M,M,M,PAGN 010315Z AUTO 00000KT 10SM OVC035 A2974 RMK MADISHF
PAGN,2017-04-01 03:20,-134.5851,57.5036,M,M,M,0.00,0.00,M,29.74,M,10.00,M,OVC,M,M,M,3500.00,M,M,M,M,PAGN 010320Z AUTO 00000KT 10SM OVC035 A2974 RMK MADISHF
PAGN,2017-04-01 03:25,-134.5851,57.5036,M,M,M,0.00,0.00,M,29.74,M,10.00,M,OVC,M,M,M,3700.00,M,M,M,M,PAGN 010325Z AUTO 00000KT 10SM OVC037 A2974 RMK MADISHF
PAGN,2017-04-01 03:30,-134.5851,57.5036,M,M,M,0.00,0.00,M,29.74,M,10.00,M,OVC,M,M,M,3700.00,M,M,M,M,PAGN 010330Z AUTO 00000KT 10SM OVC037 A2974 RMK MADISHF
PAGN,2017-04-01 03:35,-134.5851,57.5036,M,M,M,0.00,0.00,M,29.74,M,10.00,M,OVC,M,M,M,3700.00,M,M,M,M,PAGN 010335Z AUTO 00000KT 10SM OVC037 A2974 RMK MADISHF
PAGN,2017-04-01 03:45,-134.5851,57.5036,M,M,M,0.00,0.00,M,29.74,M,10.00,M,OVC,M,M,M,3700.00,M,M,M,M,PAGN 010345Z AUTO 00000KT 10SM OVC037 A2974 RMK MADISHF
PAGN,2017-04-01 03:50,-134.5851,57.5036,M,M,M,0.00,0.00,M,29.74,M,10.00,M,OVC,M,M,M,3700.00,M,M,M,M,PAGN 010350Z AUTO 00000KT 10SM OVC037 A2974 RMK MADISHF
PAGN,2017-04-01 03:55,-134.5851,57.5036,M,M,M,0.00,0.00,M,29.74,M,10.00,M,OVC,M,M,M,3700.00,M,M,M,M,PAGN 010355Z AUTO 00000KT 10SM OVC037 A2974 RMK MADISHF
PAGN,2017-04-01 03:56,-134.5851,57.5036,42.10,39.90,91.84,0.00,0.00,0.00,29.74,1006.10,10.00,M,OVC,M,M,M,3700.00,M,M,M,M,PAGN 010356Z AUTO 00000KT 10SM OVC037 06/04 A2974 RMK AO2 SLP061 T00560044
PAGN,2017-04-01 04:00,-134.5851,57.5036,M,M,M,0.00,0.00,M,29.74,M,10.00,M,OVC,M,M,M,3700.00,M,M,M,M,PAGN 010400Z AUTO 00000KT 10SM OVC037 A2974 RMK MADISHF
PAGN,2017-04-01 04:05,-134.5851,57.5036,M,M,M,0.00,0.00,M,29.74,M,10.00,M,OVC,M,M,M,3700.00,M,M,M,M,PAGN 010405Z AUTO 00000KT 10SM OVC037 A2974 RMK MADISHF
PAGN,2017-04-01 04:10,-134.5851,57.5036,M,M,M,90.00,4.00,M,29.74,M,10.00,M,OVC,M,M,M,3700.00,M,M,M,M,PAGN 010410Z AUTO 09004KT 10SM OVC037 A2974 RMK MADISHF
PAGN,2017-04-01 04:15,-134.5851,57.5036,M,M,M,110.00,3.00,M,29.74,M,10.00,M,OVC,M,M,M,3700.00,M,M,M,M,PAGN 010415Z AUTO 11003KT 10SM OVC037 A2974 RMK MADISHF
PAGN,2017-04-01 04:20,-134.5851,57.5036,M,M,M,0.00,0.00,M,29.74,M,10.00,M,OVC,M,M,M,3700.00,M,M,M,M,PAGN 010420Z AUTO 00000KT 10SM OVC037 A2974 RMK MADISHF
PAGN,2017-04-01 04:25,-134.5851,57.5036,M,M,M,0.00,0.00,M,29.75,M,10.00,M,OVC,M,M,M,3700.00,M,M,M,M,PAGN 010425Z AUTO 00000KT 10SM OVC037 A2975 RMK MADISHF
PAGN,2017-04-01 04:30,-134.5851,57.5036,M,M,M,0.00,0.00,M,29.75,M,10.00,M,OVC,M,M,M,3900.00,M,M,M,M,PAGN 010430Z AUTO 00000KT 10SM OVC039 A2975 RMK MADISHF
PAGN,2017-04-01 04:35,-134.5851,57.5036,M,M,M,0.00,0.00,M,29.75,M,10.00,M,OVC,M,M,M,3900.00,M,M,M,M,PAGN 010435Z AUTO 00000KT 10SM OVC039 A2975 RMK MADISHF
PAGN,2017-04-01 04:40,-134.5851,57.5036,M,M,M,0.00,0.00,M,29.75,M,10.00,M,OVC,M,M,M,3900.00,M,M,M,M,PAGN 010440Z AUTO 00000KT 10SM OVC039 A2975 RMK MADISHF
PAGN,2017-04-01 04:45,-134.5851,57.5036,M,M,M,0.00,0.00,M,29.75,M,10.00,M,OVC,M,M,M,3900.00,M,M,M,M,PAGN 010445Z AUTO 00000KT 10SM OVC039 A2975 RMK MADISHF
PAGN,2017-04-01 04:50,-134.5851,57.5036,M,M,M,0.00,0.00,M,29.75,M,10.00,M,OVC,M,M,M,3900.00,M,M,M,M,PAGN 010450Z AUTO 00000KT 10SM OVC039 A2975 RMK MADISHF
PAGN,2017-04-01 04:55,-134.5851,57.5036,M,M,M,0.00,0.00,M,29.75,M,10.00,M,OVC,M,M,M,3900.00,M,M,M,M,PAGN 010455Z AUTO 00000KT 10SM OVC039 A2975 RMK MADISHF
PAGN,2017-04-01 04:56,-134.5851,57.5036,41.00,39.90,95.82,0.00,0.00,0.00,29.75,1006.30,10.00,M,OVC,M,M,M,3900.00,M,M,M,M,PAGN 010456Z AUTO 00000KT 10SM OVC039 05/04 A2975 RMK AO2 SLP063 T00500044
PAGN,2017-04-01 05:00,-134.5851,57.5036,M,M,M,0.00,0.00,M,29.75,M,10.00,M,OVC,M,M,M,3700.00,M,M,M,M,PAGN 010500Z AUTO 00000KT 10SM OVC037 A2975 RMK MADISHF
PAGN,2017-04-01 05:05,-134.5851,57.5036,M,M,M,0.00,0.00,M,29.75,M,10.00,M,OVC,M,M,M,3700.00,M,M,M,M,PAGN 010505Z AUTO 00000KT 10SM OVC037 A2975 RMK MADISHF
PAGN,2017-04-01 05:10,-134.5851,57.5036,M,M,M,0.00,0.00,M,29.75,M,10.00,M,OVC,M,M,M,3700.00,M,M,M,M,PAGN 010510Z AUTO 00000KT 10SM OVC037 A2975 RMK MADISHF
PAGN,2017-04-01 05:15,-134.5851,57.5036,M,M,M,0.00,0.00,M,29.75,M,10.00,M,BKN,OVC,M,M,3700.00,4700.00,M,M,M,PAGN 010515Z AUTO 00000KT 10SM BKN037 OVC047 A2975 RMK MADISHF
PAGN,2017-04-01 05:20,-134.5851,57.5036,M,M,M,0.00,0.00,M,29.75,M,10.00,M,OVC,M,M,M,3500.00,M,M,M,M,PAGN 010520Z AUTO 00000KT 10SM OVC035 A2975 RMK MADISHF
PAGN,2017-04-01 05:25,-134.5851,57.5036,M,M,M,0.00,0.00,M,29.75,M,10.00,M,OVC,M,M,M,3500.00,M,M,M,M,PAGN 010525Z AUTO 00000KT 10SM OVC035 A2975 RMK MADISHF
PAGN,2017-04-01 05:30,-134.5851,57.5036,M,M,M,0.00,0.00,M,29.75,M,10.00,M,OVC,M,M,M,3500.00,M,M,M,M,PAGN 010530Z AUTO 00000KT 10SM OVC035 A2975 RMK MADISHF
PAGN,2017-04-01 05:35,-134.5851,57.5036,M,M,M,0.00,0.00,M,29.75,M,10.00,M,OVC,M,M,M,3300.00,M,M,M,M,PAGN 010535Z AUTO 00000KT 10SM OVC033 A2975 RMK MADISHF
PAGN,2017-04-01 05:40,-134.5851,57.5036,M,M,M,0.00,0.00,M,29.75,M,10.00,M,OVC,M,M,M,3300.00,M,M,M,M,PAGN 010540Z AUTO 00000KT 10SM OVC033 A2975 RMK MADISHF
PAGN,2017-04-01 05:45,-134.5851,57.5036,M,M,M,80.00,4.00,M,29.75,M,10.00,M,OVC,M,M,M,3300.00,M,M,M,M,PAGN 010545Z AUTO 08004KT 10SM OVC033 A2975 RMK MADISHF
PAGN,2017-04-01 05:50,-134.5851,57.5036,M,M,M,70.00,5.00,M,29.76,M,10.00,M,OVC,M,M,M,3300.00,M,M,M,M,PAGN 010550Z AUTO 07005KT 10SM OVC033 A2976 RMK MADISHF
PAGN,2017-04-01 05:55,-134.5851,57.5036,M,M,M,70.00,4.00,M,29.76,M,10.00,M,OVC,M,M,M,3300.00,M,M,M,M,PAGN 010555Z AUTO 07004KT 10SM OVC033 A2976 RMK MADISHF
PAGN,2017-04-01 05:56,-134.5851,57.5036,42.10,39.00,88.67,70.00,4.00,0.00,29.76,1006.60,10.00,M,OVC,M,M,M,3300.00,M,M,M,M,PAGN 010556Z AUTO 07004KT 10SM OVC033 06/04 A2976 RMK AO2 SLP066 60000 T00560039 10072 20050 53005
PAGN,2017-04-01 06:00,-134.5851,57.5036,M,M,M,90.00,3.00,M,29.76,M,10.00,M,OVC,M,M,M,3300.00,M,M,M,M,PAGN 010600Z AUTO 09003KT 10SM OVC033 A2976 RMK MADISHF
PAGN,2017-04-01 06:05,-134.5851,57.5036,M,M,M,0.00,0.00,M,29.76,M,10.00,M,OVC,M,M,M,3300.00,M,M,M,M,PAGN 010605Z AUTO 00000KT 10SM OVC033 A2976 RMK MADISHF
PAGN,2017-04-01 06:10,-134.5851,57.5036,M,M,M,0.00,0.00,M,29.76,M,10.00,M,OVC,M,M,M,3300.00,M,M,M,M,PAGN 010610Z AUTO 00000KT 10SM OVC033 A2976 RMK MADISHF
PAGN,2017-04-01 06:15,-134.5851,57.5036,M,M,M,40.00,3.00,M,29.76,M,10.00,M,OVC,M,M,M,3300.00,M,M,M,M,PAGN 010615Z AUTO 04003KT 10SM OVC033 A2976 RMK VRB03KT  MADISHF
PAGN,2017-04-01 06:20,-134.5851,57.5036,M,M,M,20.00,3.00,M,29.76,M,10.00,M,BKN,OVC,M,M,3300.00,4700.00,M,M,M,PAGN 010620Z AUTO 02003KT 10SM BKN033 OVC047 A2976 RMK VRB03KT  MADISHF
PAGN,2017-04-01 06:25,-134.5851,57.5036,M,M,M,0.00,0.00,M,29.76,M,10.00,M,BKN,OVC,M,M,3300.00,4700.00,M,M,M,PAGN 010625Z AUTO 00000KT 10SM BKN033 OVC047 A2976 RMK MADISHF
PAGN,2017-04-01 06:30,-134.5851,57.5036,M,M,M,0.00,0.00,M,29.76,M,10.00,M,BKN,OVC,M,M,3300.00,4900.00,M,M,M,PAGN 010630Z AUTO 00000KT 10SM BKN033 OVC049 A2976 RMK MADISHF
PAGN,2017-04-01 06:35,-134.5851,57.5036,M,M,M,0.00,0.00,0.01,29.76,M,10.00,M,BKN,OVC,M,M,3300.00,4900.00,M,M,M,PAGN 010635Z AUTO 00000KT 10SM BKN033 OVC049 A2976 RMK P0001 MADISHF
PAGN,2017-04-01 06:40,-134.5851,57.5036,M,M,M,0.00,0.00,0.01,29.76,M,10.00,M,BKN,OVC,M,M,3600.00,4500.00,M,M,M,PAGN 010640Z AUTO 00000KT 10SM BKN036 OVC045 A2976 RMK P0001 MADISHF
PAGN,2017-04-01 06:45,-134.5851,57.5036,M,M,M,0.00,0.00,0.01,29.76,M,10.00,M,BKN,OVC,M,M,3399.00,4900.00,M,M,M,PAGN 010645Z AUTO 00000KT 10SM BKN033 OVC049 A2976 RMK P0001 MADISHF
PAGN,2017-04-01 06:50,-134.5851,57.5036,M,M,M,0.00,0.00,0.01,29.76,M,10.00,M,OVC,M,M,M,3399.00,M,M,M,M,PAGN 010650Z AUTO 00000KT 10SM OVC033 A2976 RMK P0001 MADISHF
PAGN,2017-04-01 06:55,-134.5851,57.5036,M,M,M,0.00,0.00,0.01,29.76,M,10.00,M,OVC,M,M,M,3399.00,M,M,M,M,PAGN 010655Z AUTO 00000KT 10SM OVC033 A2976 RMK P0001 MADISHF
PAGN,2017-04-01 06:56,-134.5851,57.5036,41.00,39.90,95.82,0.00,0.00,0.01,29.76,1006.70,10.00,M,OVC,M,M,M,3400.00,M,M,M,M,PAGN 010656Z AUTO 00000KT 10SM OVC034 05/04 A2976 RMK AO2 SLP067 P0001 T00500044
PAGN,2017-04-01 07:00,-134.5851,57.5036,M,M,M,0.00,0.00,M,29.76,M,10.00,M,OVC,M,M,M,3399.00,M,M,M,M,PAGN 010700Z AUTO 00000KT 10SM OVC033 A2976 RMK MADISHF
PAGN,2017-04-01 07:05,-134.5851,57.5036,M,M,M,50.00,3.00,M,29.76,M,10.00,M,OVC,M,M,M,3399.00,M,M,M,M,PAGN 010705Z AUTO 05003KT 10SM OVC033 A2976 RMK MADISHF
PAGN,2017-04-01 07:10,-134.5851,57.5036,M,M,M,80.00,3.00,M,29.76,M,10.00,M,OVC,M,M,M,3200.00,M,M,M,M,PAGN 010710Z AUTO 08003KT 10SM OVC032 A2976 RMK MADISHF
PAGN,2017-04-01 07:15,-134.5851,57.5036,M,M,M,70.00,3.00,M,29.76,M,10.00,M,OVC,M,M,M,3200.00,M,M,M,M,PAGN 010715Z AUTO 07003KT 10SM OVC032 A2976 RMK MADISHF
PAGN,2017-04-01 07:20,-134.5851,57.5036,M,M,M,0.00,0.00,M,29.76,M,10.00,M,OVC,M,M,M,3200.00,M,M,M,M,PAGN 010720Z AUTO 00000KT 10SM OVC032 A2976 RMK MADISHF
PAGN,2017-04-01 07:25,-134.5851,57.5036,M,M,M,0.00,0.00,M,29.76,M,10.00,M,OVC,M,M,M,3200.00,M,M,M,M,PAGN 010725Z AUTO 00000KT 10SM OVC032 A2976 RMK MADISHF
PAGN,2017-04-01 07:30,-134.5851,57.5036,M,M,M,0.00,0.00,M,29.76,M,10.00,M,OVC,M,M,M,3200.00,M,M,M,M,PAGN 010730Z AUTO 00000KT 10SM OVC032 A2976 RMK MADISHF
PAGN,2017-04-01 07:35,-134.5851,57.5036,M,M,M,0.00,0.00,M,29.76,M,10.00,M,OVC,M,M,M,3200.00,M,M,M,M,PAGN 010735Z AUTO 00000KT 10SM OVC032 A2976 RMK MADISHF
PAGN,2017-04-01 07:40,-134.5851,57.5036,M,M,M,0.00,0.00,M,29.76,M,10.00,M,OVC,M,M,M,3200.00,M,M,M,M,PAGN 010740Z AUTO 00000KT 10SM OVC032 A2976 RMK MADISHF
PAGN,2017-04-01 07:45,-134.5851,57.5036,M,M,M,90.00,3.00,M,29.76,M,10.00,M,BKN,OVC,M,M,3200.00,5000.00,M,M,M,PAGN 010745Z AUTO 09003KT 10SM BKN032 OVC050 A2976 RMK VRB03KT  MADISHF
PAGN,2017-04-01 07:50,-134.5851,57.5036,M,M,M,80.00,3.00,M,29.76,M,10.00,M,BKN,OVC,M,M,3200.00,5000.00,M,M,M,PAGN 010750Z AUTO 08003KT 10SM BKN032 OVC050 A2976 RMK MADISHF
PAGN,2017-04-01 07:55,-134.5851,57.5036,M,M,M,110.00,3.00,M,29.76,M,10.00,M,BKN,OVC,M,M,3200.00,5000.00,M,M,M,PAGN 010755Z AUTO 11003KT 10SM BKN032 OVC050 A2976 RMK VRB03KT  MADISHF
PAGN,2017-04-01 07:56,-134.5851,57.5036,42.10,39.00,88.67,M,3.00,0.00,29.76,1006.70,10.00,M,BKN,OVC,M,M,3200.00,5000.00,M,M,M,PAGN 010756Z AUTO VRB03KT 10SM BKN032 OVC050 06/04 A2976 RMK AO2 SLP067 T00560039
PAGN,2017-04-01 08:00,-134.5851,57.5036,M,M,M,0.00,0.00,M,29.76,M,10.00,M,BKN,OVC,M,M,3399.00,5000.00,M,M,M,PAGN 010800Z AUTO 00000KT 10SM BKN033 OVC050 A2976 RMK MADISHF
PAGN,2017-04-01 08:05,-134.5851,57.5036,M,M,M,0.00,0.00,M,29.76,M,10.00,M,FEW,BKN,OVC,M,2900.00,3399.00,5000.00,M,M,PAGN 010805Z AUTO 00000KT 10SM FEW029 BKN033 OVC050 A2976 RMK MADISHF
PAGN,2017-04-01 08:10,-134.5851,57.5036,M,M,M,0.00,0.00,M,29.76,M,10.00,M,FEW,BKN,OVC,M,2900.00,3600.00,5000.00,M,M,PAGN 010810Z AUTO 00000KT 10SM FEW029 BKN036 OVC050 A2976 RMK MADISHF
PAGN,2017-04-01 08:15,-134.5851,57.5036,M,M,M,0.00,0.00,M,29.76,M,10.00,M,OVC,M,M,M,3600.00,M,M,M,M,PAGN 010815Z AUTO 00000KT 10SM OVC036 A2976 RMK MADISHF
PAGN,2017-04-01 08:20,-134.5851,57.5036,M,M,M,80.00,4.00,M,29.76,M,10.00,M,OVC,M,M,M,3600.00,M,M,M,M,PAGN 010820Z AUTO 08004KT 10SM OVC036 A2976 RMK MADISHF
PAGN,2017-04-01 08:25,-134.5851,57.5036,M,M,M,60.00,4.00,M,29.76,M,10.00,M,BKN,OVC,M,M,3800.00,10000.00,M,M,M,PAGN 010825Z AUTO 06004KT 10SM BKN038 OVC100 A2976 RMK MADISHF
PAGN,2017-04-01 08:30,-134.5851,57.5036,M,M,M,70.00,4.00,M,29.76,M,10.00,M,SCT,BKN,OVC,M,3800.00,10000.00,12000.00,M,M,PAGN 010830Z AUTO 07004KT 10SM SCT038 BKN100 OVC120 A2976 RMK MADISHF
PAGN,2017-04-01 08:35,-134.5851,57.5036,M,M,M,70.00,3.00,M,29.76,M,10.00,M,SCT,BKN,OVC,M,3800.00,10000.00,12000.00,M,M,PAGN 010835Z AUTO 07003KT 10SM SCT038 BKN100 OVC120 A2976 RMK MADISHF
PAGN,2017-04-01 08:40,-134.5851,57.5036,M,M,M,90.00,3.00,M,29.76,M,10.00,M,SCT,BKN,BKN,M,3800.00,10000.00,12000.00,M,M,PAGN 010840Z AUTO 09003KT 10SM SCT038 BKN100 BKN120 A2976 RMK VRB03KT  MADISHF
PAGN,2017-04-01 08:45,-134.5851,57.5036,M,M,M,90.00,3.00,M,29.76,M,10.00,M,BKN,BKN,OVC,M,3800.00,10000.00,12000.00,M,M,PAGN 010845Z AUTO 09003KT 10SM BKN038 BKN100 OVC120 A2976 RMK VRB03KT  MADISHF
PAGN,2017-04-01 08:50,-134.5851,57.5036,M,M,M,0.00,0.00,M,29.76,M,10.00,M,BKN,OVC,M,M,3600.00,11000.00,M,M,M,PAGN 010850Z AUTO 00000KT 10SM BKN036 OVC110 A2976 RMK MADISHF
PAGN,2017-04-01 08:55,-134.5851,57.5036,M,M,M,70.00,3.00,M,29.76,M,10.00,M,BKN,OVC,M,M,3600.00,11000.00,M,M,M,PAGN 010855Z AUTO 07003KT 10SM BKN036 OVC110 A2976 RMK MADISHF
PAGN,2017-04-01 08:56,-134.5851,57.5036,41.00,39.00,92.52,80.00,3.00,0.00,29.76,1006.70,10.00,M,BKN,OVC,M,M,3600.00,11000.00,M,M,M,PAGN 010856Z AUTO 08003KT 10SM BKN036 OVC110 05/04 A2976 RMK AO2 SLP067 60001 T00500039 400720039 50001
PAGN,2017-04-01 09:00,-134.5851,57.5036,M,M,M,0.00,0.00,M,29.76,M,10.00,M,BKN,BKN,OVC,M,3600.00,5000.00,12000.00,M,M,PAGN 010900Z AUTO 00000KT 10SM BKN036 BKN050 OVC120 A2976 RMK MADISHF
PAGN,2017-04-01 09:05,-134.5851,57.5036,M,M,M,0.00,0.00,M,29.76,M,10.00,M,BKN,OVC,M,M,3600.00,5000.00,M,M,M,PAGN 010905Z AUTO 00000KT 10SM BKN036 OVC050 A2976 RMK MADISHF
PAGN,2017-04-01 09:10,-134.5851,57.5036,M,M,M,0.00,0.00,M,29.76,M,10.00,M,BKN,OVC,M,M,3600.00,4800.00,M,M,M,PAGN 010910Z AUTO 00000KT 10SM BKN036 OVC048 A2976 RMK MADISHF
PAGN,2017-04-01 09:15,-134.5851,57.5036,M,M,M,0.00,0.00,M,29.76,M,10.00,M,SCT,OVC,M,M,3600.00,4600.00,M,M,M,PAGN 010915Z AUTO 00000KT 10SM SCT036 OVC046 A2976 RMK MADISHF
PAGN,2017-04-01 09:20,-134.5851,57.5036,M,M,M,0.00,0.00,M,29.76,M,10.00,M,FEW,OVC,M,M,3399.00,4600.00,M,M,M,PAGN 010920Z AUTO 00000KT 10SM FEW033 OVC046 A2976 RMK MADISHF
PAGN,2017-04-01 09:25,-134.5851,57.5036,M,M,M,0.00,0.00,M,29.76,M,10.00,M,FEW,BKN,M,M,3600.00,4600.00,M,M,M,PAGN 010925Z AUTO 00000KT 10SM FEW036 BKN046 A2976 RMK MADISHF
PAGN,2017-04-01 09:30,-134.5851,57.5036,M,M,M,0.00,0.00,M,29.76,M,10.00,M,BKN,M,M,M,4600.00,M,M,M,M,PAGN 010930Z AUTO 00000KT 10SM BKN046 A2976 RMK MADISHF
PAGN,2017-04-01 09:35,-134.5851,57.5036,M,M,M,0.00,0.00,M,29.76,M,10.00,M,BKN,M,M,M,4600.00,M,M,M,M,PAGN 010935Z AUTO 00000KT 10SM BKN046 A2976 RMK MADISHF
PAGN,2017-04-01 09:40,-134.5851,57.5036,M,M,M,90.00,3.00,M,29.76,M,10.00,M,BKN,BKN,M,M,4600.00,12000.00,M,M,M,PAGN 010940Z AUTO 09003KT 10SM BKN046 BKN120 A2976 RMK VRB03KT  MADISHF
PAGN,2017-04-01 09:45,-134.5851,57.5036,M,M,M,80.00,3.00,M,29.76,M,10.00,M,SCT,BKN,BKN,M,3300.00,4600.00,12000.00,M,M,PAGN 010945Z AUTO 08003KT 10SM SCT033 BKN046 BKN120 A2976 RMK MADISHF
PAGN,2017-04-01 09:50,-134.5851,57.5036,M,M,M,0.00,0.00,M,29.76,M,10.00,M,SCT,BKN,BKN,M,3300.00,4600.00,12000.00,M,M,PAGN 010950Z AUTO 00000KT 10SM SCT033 BKN046 BKN120 A2976 RMK MADISHF
PAGN,2017-04-01 09:55,-134.5851,57.5036,M,M,M,0.00,0.00,M,29.76,M,10.00,M,BKN,BKN,OVC,M,3300.00,4600.00,12000.00,M,M,PAGN 010955Z AUTO 00000KT 10SM BKN033 BKN046 OVC120 A2976 RMK MADISHF
PAGN,2017-04-01 09:56,-134.5851,57.5036,39.90,39.00,96.55,0.00,0.00,0.00,29.76,1006.70,10.00,M,BKN,BKN,OVC,M,3300.00,4600.00,12000.00,M,M,PAGN 010956Z AUTO 00000KT 10SM BKN033 BKN046 OVC120 04/04 A2976 RMK AO2 SLP067 T00440039
PAGN,2017-04-01 10:00,-134.5851,57.5036,M,M,M,120.00,3.00,M,29.76,M,10.00,M,BKN,BKN,OVC,M,3300.00,4600.00,12000.00,M,M,PAGN 011000Z AUTO 12003KT 10SM BKN033 BKN046 OVC120 A2976 RMK VRB03KT  MADISHF
PAGN,2017-04-01 10:05,-134.5851,57.5036,M,M,M,0.00,0.00,M,29.76,M,10.00,M,BKN,BKN,OVC,M,3300.00,4600.00,12000.00,M,M,PAGN 011005Z AUTO 00000KT 10SM BKN033 BKN046 OVC120 A2976 RMK MADISHF
PAGN,2017-04-01 10:10,-134.5851,57.5036,M,M,M,0.00,0.00,M,29.76,M,10.00,M,BKN,OVC,M,M,3300.00,4800.00,M,M,M,PAGN 011010Z AUTO 00000KT 10SM BKN033 OVC048 A2976 RMK MADISHF
PAGN,2017-04-01 10:15,-134.5851,57.5036,M,M,M,0.00,0.00,M,29.76,M,10.00,M,OVC,M,M,M,3300.00,M,M,M,M,PAGN 011015Z AUTO 00000KT 10SM OVC033 A2976 RMK MADISHF
PAGN,2017-04-01 10:25,-134.5851,57.5036,M,M,M,0.00,0.00,M,29.76,M,10.00,M,OVC,M,M,M,3300.00,M,M,M,M,PAGN 011025Z AUTO 00000KT 10SM OVC033 A2976 RMK MADISHF
PAGN,2017-04-01 10:30,-134.5851,57.5036,M,M,M,0.00,0.00,M,29.76,M,10.00,M,OVC,M,M,M,3300.00,M,M,M,M,PAGN 011030Z AUTO 00000KT 10SM OVC033 A2976 RMK MADISHF
PAGN,2017-04-01 10:35,-134.5851,57.5036,M,M,M,0.00,0.00,M,29.76,M,10.00,M,OVC,M,M,M,3300.00,M,M,M,M,PAGN 011035Z AUTO 00000KT 10SM OVC033 A2976 RMK MADISHF
PAGN,2017-04-01 10:40,-134.5851,57.5036,M,M,M,0.00,0.00,M,29.76,M,10.00,M,OVC,M,M,M,3300.00,M,M,M,M,PAGN 011040Z AUTO 00000KT 10SM OVC033 A2976 RMK MADISHF
PAGN,2017-04-01 10:45,-134.5851,57.5036,M,M,M,70.00,4.00,M,29.76,M,10.00,M,OVC,M,M,M,3500.00,M,M,M,M,PAGN 011045Z AUTO 07004KT 10SM OVC035 A2976 RMK MADISHF
PAGN,2017-04-01 10:50,-134.5851,57.5036,M,M,M,70.00,3.00,M,29.76,M,10.00,M,OVC,M,M,M,3500.00,M,M,M,M,PAGN 011050Z AUTO 07003KT 10SM OVC035 A2976 RMK MADISHF
PAGN,2017-04-01 10:55,-134.5851,57.5036,M,M,M,0.00,0.00,M,29.76,M,10.00,M,OVC,M,M,M,3500.00,M,M,M,M,PAGN 011055Z AUTO 00000KT 10SM OVC035 A2976 RMK MADISHF
PAGN,2017-04-01 10:56,-134.5851,57.5036,41.00,39.00,92.52,0.00,0.00,0.00,29.75,1006.50,10.00,M,OVC,M,M,M,3500.00,M,M,M,M,PAGN 011056Z AUTO 00000KT 10SM OVC035 05/04 A2975 RMK AO2 SLP065 T00500039
PAGN,2017-04-01 11:00,-134.5851,57.5036,M,M,M,60.00,3.00,M,29.75,M,10.00,M,OVC,M,M,M,3500.00,M,M,M,M,PAGN 011100Z AUTO 06003KT 10SM OVC035 A2975 RMK MADISHF
PAGN,2017-04-01 11:05,-134.5851,57.5036,M,M,M,60.00,4.00,M,29.76,M,10.00,M,OVC,M,M,M,3500.00,M,M,M,M,PAGN 011105Z AUTO 06004KT 10SM OVC035 A2976 RMK MADISHF
PAGN,2017-04-01 11:10,-134.5851,57.5036,M,M,M,60.00,4.00,M,29.75,M,10.00,M,OVC,M,M,M,3500.00,M,M,M,M,PAGN 011110Z AUTO 06004KT 10SM OVC035 A2975 RMK MADISHF
PAGN,2017-04-01 11:15,-134.5851,57.5036,M,M,M,70.00,4.00,M,29.75,M,10.00,M,OVC,M,M,M,3300.00,M,M,M,M,PAGN 011115Z AUTO 07004KT 10SM OVC033 A2975 RMK VRB04KT  MADISHF
PAGN,2017-04-01 11:20,-134.5851,57.5036,M,M,M,70.00,4.00,M,29.76,M,10.00,M,OVC,M,M,M,3300.00,M,M,M,M,PAGN 011120Z AUTO 07004KT 10SM OVC033 A2976 RMK MADISHF
PAGN,2017-04-01 11:25,-134.5851,57.5036,M,M,M,70.00,4.00,M,29.75,M,10.00,M,OVC,M,M,M,3300.00,M,M,M,M,PAGN 011125Z AUTO 07004KT 10SM OVC033 A2975 RMK MADISHF
PAGN,2017-04-01 11:30,-134.5851,57.5036,M,M,M,60.00,4.00,M,29.75,M,10.00,M,OVC,M,M,M,3300.00,M,M,M,M,PAGN 011130Z AUTO 06004KT 10SM OVC033 A2975 RMK MADISHF
PAGN,2017-04-01 11:35,-134.5851,57.5036,M,M,M,60.00,5.00,M,29.75,M,10.00,M,OVC,M,M,M,3300.00,M,M,M,M,PAGN 011135Z AUTO 06005KT 10SM OVC033 A2975 RMK MADISHF
PAGN,2017-04-01 11:40,-134.5851,57.5036,M,M,M,70.00,4.00,M,29.75,M,10.00,M,OVC,M,M,M,3300.00,M,M,M,M,PAGN 011140Z AUTO 07004KT 10SM OVC033 A2975 RMK MADISHF
PAGN,2017-04-01 11:45,-134.5851,57.5036,M,M,M,60.00,3.00,M,29.75,M,10.00,M,OVC,M,M,M,3300.00,M,M,M,-RA,PAGN 011145Z AUTO 06003KT 10SM -RA OVC033 A2975 RMK MADISHF
PAGN,2017-04-01 11:50,-134.5851,57.5036,M,M,M,0.00,0.00,M,29.75,M,10.00,M,OVC,M,M,M,3100.00,M,M,M,-RA,PAGN 011150Z AUTO 00000KT 10SM -RA OVC031 A2975 RMK MADISHF
PAGN,2017-04-01 11:55,-134.5851,57.5036,M,M,M,0.00,0.00,M,29.75,M,10.00,M,OVC,M,M,M,3100.00,M,M,M,-RA,PAGN 011155Z AUTO 00000KT 10SM -RA OVC031 A2975 RMK MADISHF
PAGN,2017-04-01 11:56,-134.5851,57.5036,41.00,39.00,92.52,0.00,0.00,0.00,29.75,1006.40,10.00,M,OVC,M,M,M,3100.00,M,M,M,-RA,PAGN 011156Z AUTO 00000KT 10SM -RA OVC031 05/04 A2975 RMK AO2 RAB44 SLP064 P0000 60001 70014 T00500039 10056 20044 58003
PAGN,2017-04-01 12:05,-134.5851,57.5036,M,M,M,0.00,0.00,M,29.75,M,10.00,M,OVC,M,M,M,2900.00,M,M,M,-RA,PAGN 011205Z AUTO 00000KT 10SM -RA OVC029 A2975 RMK MADISHF
PAGN,2017-04-01 12:10,-134.5851,57.5036,M,M,M,0.00,0.00,0.01,29.75,M,10.00,M,OVC,M,M,M,3100.00,M,M,M,-RA,PAGN 011210Z AUTO 00000KT 10SM -RA OVC031 A2975 RMK P0001 MADISHF
PAGN,2017-04-01 12:15,-134.5851,57.5036,M,M,M,0.00,0.00,0.01,29.75,M,10.00,M,OVC,M,M,M,3100.00,M,M,M,-RA,PAGN 011215Z AUTO 00000KT 10SM -RA OVC031 A2975 RMK P0001 MADISHF
PAGN,2017-04-01 12:20,-134.5851,57.5036,M,M,M,0.00,0.00,0.01,29.75,M,10.00,M,OVC,M,M,M,3100.00,M,M,M,-RA,PAGN 011220Z AUTO 00000KT 10SM -RA OVC031 A2975 RMK P0001 MADISHF
PAGN,2017-04-01 12:25,-134.5851,57.5036,M,M,M,0.00,0.00,0.01,29.75,M,10.00,M,OVC,M,M,M,3100.00,M,M,M,-RA,PAGN 011225Z AUTO 00000KT 10SM -RA OVC031 A2975 RMK P0001 MADISHF
PAGN,2017-04-01 12:30,-134.5851,57.5036,M,M,M,0.00,0.00,0.01,29.75,M,10.00,M,OVC,M,M,M,3100.00,M,M,M,-RA,PAGN 011230Z AUTO 00000KT 10SM -RA OVC031 A2975 RMK P0001 MADISHF
PAGN,2017-04-01 12:35,-134.5851,57.5036,M,M,M,0.00,0.00,0.01,29.75,M,10.00,M,OVC,M,M,M,3100.00,M,M,M,M,PAGN 011235Z AUTO 00000KT 10SM OVC031 A2975 RMK P0001 MADISHF
PAGN,2017-04-01 12:40,-134.5851,57.5036,M,M,M,100.00,3.00,0.01,29.75,M,10.00,M,OVC,M,M,M,3100.00,M,M,M,M,PAGN 011240Z AUTO 10003KT 10SM OVC031 A2975 RMK P0001 MADISHF
PAGN,2017-04-01 12:45,-134.5851,57.5036,M,M,M,140.00,3.00,0.01,29.75,M,10.00,M,OVC,M,M,M,3100.00,M,M,M,M,PAGN 011245Z AUTO 14003KT 10SM OVC031 A2975 RMK P0001 MADISHF
PAGN,2017-04-01 12:50,-134.5851,57.5036,M,M,M,110.00,3.00,0.01,29.75,M,10.00,M,OVC,M,M,M,3100.00,M,M,M,M,PAGN 011250Z AUTO 11003KT 10SM OVC031 A2975 RMK P0001 MADISHF
PAGN,2017-04-01 12:55,-134.5851,57.5036,M,M,M,150.00,3.00,0.01,29.75,M,10.00,M,BKN,OVC,M,M,3300.00,4100.00,M,M,M,PAGN 011255Z AUTO 15003KT 10SM BKN033 OVC041 A2975 RMK P0001 MADISHF
PAGN,2017-04-01 12:56,-134.5851,57.5036,39.90,39.00,96.55,160.00,3.00,0.01,29.75,1006.30,10.00,M,OVC,M,M,M,3300.00,M,M,M,M,PAGN 011256Z AUTO 16003KT 10SM OVC033 04/04 A2975 RMK AO2 RAE33 SLP063 P0001 T00440039
PAGN,2017-04-01 13:00,-134.5851,57.5036,M,M,M,0.00,0.00,M,29.75,M,10.00,M,BKN,OVC,M,M,3300.00,4100.00,M,M,M,PAGN 011300Z AUTO 00000KT 10SM BKN033 OVC041 A2975 RMK MADISHF
PAGN,2017-04-01 13:05,-134.5851,57.5036,M,M,M,0.00,0.00,M,29.75,M,10.00,M,OVC,M,M,M,3300.00,M,M,M,M,PAGN 011305Z AUTO 00000KT 10SM OVC033 A2975 RMK MADISHF
PAGN,2017-04-01 13:10,-134.5851,57.5036,M,M,M,60.00,4.00,M,29.75,M,10.00,M,OVC,M,M,M,3300.00,M,M,M,M,PAGN 011310Z AUTO 06004KT 10SM OVC033 A2975 RMK MADISHF
PAGN,2017-04-01 13:15,-134.5851,57.5036,M,M,M,70.00,3.00,M,29.75,M,10.00,M,OVC,M,M,M,3300.00,M,M,M,M,PAGN 011315Z AUTO 07003KT 10SM OVC033 A2975 RMK MADISHF
PAGN,2017-04-01 13:20,-134.5851,57.5036,M,M,M,0.00,0.00,M,29.74,M,10.00,M,OVC,M,M,M,3300.00,M,M,M,M,PAGN 011320Z AUTO 00000KT 10SM OVC033 A2974 RMK MADISHF
PAGN,2017-04-01 13:25,-134.5851,57.5036,M,M,M,60.00,3.00,M,29.74,M,10.00,M,OVC,M,M,M,3300.00,M,M,M,M,PAGN 011325Z AUTO 06003KT 10SM OVC033 A2974 RMK MADISHF
PAGN,2017-04-01 13:30,-134.5851,57.5036,M,M,M,0.00,0.00,M,29.74,M,10.00,M,BKN,OVC,M,M,3300.00,3999.00,M,M,M,PAGN 011330Z AUTO 00000KT 10SM BKN033 OVC039 A2974 RMK MADISHF
PAGN,2017-04-01 13:35,-134.5851,57.5036,M,M,M,70.00,3.00,M,29.74,M,10.00,M,BKN,OVC,M,M,3300.00,3999.00,M,M,-RA,PAGN 011335Z AUTO 07003KT 10SM -RA BKN033 OVC039 A2974 RMK VRB03KT  MADISHF
PAGN,2017-04-01 13:40,-134.5851,57.5036,M,M,M,90.00,3.00,M,29.74,M,10.00,M,BKN,OVC,M,M,3300.00,4200.00,M,M,-RA,PAGN 011340Z AUTO 09003KT 10SM -RA BKN033 OVC042 A2974 RMK MADISHF
PAGN,2017-04-01 13:45,-134.5851,57.5036,M,M,M,0.00,0.00,M,29.74,M,10.00,M,BKN,OVC,M,M,3100.00,3800.00,M,M,-RA,PAGN 011345Z AUTO 00000KT 10SM -RA BKN031 OVC038 A2974 RMK MADISHF
PAGN,2017-04-01 13:50,-134.5851,57.5036,M,M,M,0.00,0.00,M,29.74,M,10.00,M,BKN,OVC,M,M,3300.00,4100.00,M,M,-RA,PAGN 011350Z AUTO 00000KT 10SM -RA BKN033 OVC041 A2974 RMK MADISHF
PAGN,2017-04-01 13:55,-134.5851,57.5036,M,M,M,80.00,3.00,M,29.74,M,10.00,M,BKN,OVC,M,M,3399.00,4100.00,M,M,-RA,PAGN 011355Z AUTO 08003KT 10SM -RA BKN033 OVC041 A2974 RMK MADISHF
PAGN,2017-04-01 14:00,-134.5851,57.5036,M,M,M,0.00,0.00,M,29.74,M,10.00,M,OVC,M,M,M,3399.00,M,M,M,-RA,PAGN 011400Z AUTO 00000KT 10SM -RA OVC033 A2974 RMK MADISHF
PAGN,2017-04-01 14:05,-134.5851,57.5036,M,M,M,90.00,3.00,M,29.74,M,10.00,M,FEW,OVC,M,M,3000.00,3800.00,M,M,-RA,PAGN 011405Z AUTO 09003KT 10SM -RA FEW030 OVC038 A2974 RMK MADISHF
PAGN,2017-04-01 14:10,-134.5851,57.5036,M,M,M,0.00,0.00,M,29.74,M,10.00,M,FEW,OVC,M,M,3000.00,3800.00,M,M,-RA,PAGN 011410Z AUTO 00000KT 10SM -RA FEW030 OVC038 A2974 RMK MADISHF
PAGN,2017-04-01 14:15,-134.5851,57.5036,M,M,M,60.00,3.00,M,29.74,M,10.00,M,OVC,M,M,M,3600.00,M,M,M,M,PAGN 011415Z AUTO 06003KT 10SM OVC036 A2974 RMK MADISHF
PAGN,2017-04-01 14:20,-134.5851,57.5036,M,M,M,70.00,4.00,M,29.74,M,10.00,M,OVC,M,M,M,3600.00,M,M,M,-RA,PAGN 011420Z AUTO 07004KT 10SM -RA OVC036 A2974 RMK MADISHF
PAGN,2017-04-01 14:25,-134.5851,57.5036,M,M,M,80.00,3.00,M,29.74,M,10.00,M,OVC,M,M,M,3399.00,M,M,M,-RA,PAGN 011425Z AUTO 08003KT 10SM -RA OVC033 A2974 RMK MADISHF
PAGN,2017-04-01 14:30,-134.5851,57.5036,M,M,M,80.00,3.00,M,29.74,M,10.00,M,OVC,M,M,M,3399.00,M,M,M,-RA,PAGN 011430Z AUTO 08003KT 10SM -RA OVC033 A2974 RMK MADISHF
PAGN,2017-04-01 14:35,-134.5851,57.5036,M,M,M,70.00,3.00,M,29.74,M,10.00,M,OVC,M,M,M,3399.00,M,M,M,-RA,PAGN 011435Z AUTO 07003KT 10SM -RA OVC033 A2974 RMK MADISHF
PAGN,2017-04-01 14:40,-134.5851,57.5036,M,M,M,80.00,3.00,M,29.74,M,10.00,M,OVC,M,M,M,3399.00,M,M,M,-RA,PAGN 011440Z AUTO 08003KT 10SM -RA OVC033 A2974 RMK MADISHF
PAGN,2017-04-01 14:45,-134.5851,57.5036,M,M,M,130.00,3.00,M,29.74,M,10.00,M,SCT,OVC,M,M,3000.00,3399.00,M,M,-RA,PAGN 011445Z AUTO 13003KT 10SM -RA SCT030 OVC033 A2974 RMK MADISHF
PAGN,2017-04-01 14:50,-134.5851,57.5036,M,M,M,90.00,3.00,M,29.74,M,10.00,M,SCT,OVC,M,M,2900.00,3600.00,M,M,-RA,PAGN 011450Z AUTO 09003KT 10SM -RA SCT029 OVC036 A2974 RMK MADISHF
PAGN,2017-04-01 14:55,-134.5851,57.5036,M,M,M,90.00,3.00,M,29.74,M,10.00,M,SCT,OVC,M,M,2900.00,3600.00,M,M,-RA,PAGN 011455Z AUTO 09003KT 10SM -RA SCT029 OVC036 A2974 RMK MADISHF
PAGN,2017-04-01 14:56,-134.5851,57.5036,41.00,39.00,92.52,M,3.00,0.00,29.74,1006.10,10.00,M,SCT,OVC,M,M,2900.00,3600.00,M,M,-RA,PAGN 011456Z AUTO VRB03KT 10SM -RA SCT029 OVC036 05/04 A2974 RMK AO2 SLP061 P0000 60001 T00500039 56003
PAGN,2017-04-01 15:00,-134.5851,57.5036,M,M,M,60.00,4.00,M,29.74,M,10.00,M,SCT,OVC,M,M,2900.00,3600.00,M,M,-RA,PAGN 011500Z AUTO 06004KT 10SM -RA SCT029 OVC036 A2974 RMK MADISHF
PAGN,2017-04-01 15:05,-134.5851,57.5036,M,M,M,80.00,3.00,M,29.74,M,10.00,M,OVC,M,M,M,3399.00,M,M,M,-RA,PAGN 011505Z AUTO 08003KT 10SM -RA OVC033 A2974 RMK MADISHF
PAGN,2017-04-01 15:10,-134.5851,57.5036,M,M,M,80.00,3.00,M,29.74,M,10.00,M,FEW,OVC,M,M,2800.00,3399.00,M,M,-RA,PAGN 011510Z AUTO 08003KT 10SM -RA FEW028 OVC033 A2974 RMK VRB03KT  MADISHF
PAGN,2017-04-01 15:15,-134.5851,57.5036,M,M,M,60.00,3.00,0.01,29.74,M,10.00,M,SCT,OVC,M,M,2800.00,3399.00,M,M,-RA,PAGN 011515Z AUTO 06003KT 10SM -RA SCT028 OVC033 A2974 RMK P0001 MADISHF
PAGN,2017-04-01 15:20,-134.5851,57.5036,M,M,M,50.00,4.00,0.01,29.74,M,10.00,M,FEW,OVC,M,M,2800.00,3399.00,M,M,-RA,PAGN 011520Z AUTO 05004KT 10SM -RA FEW028 OVC033 A2974 RMK P0001 MADISHF
PAGN,2017-04-01 15:25,-134.5851,57.5036,M,M,M,60.00,4.00,0.01,29.74,M,10.00,M,OVC,M,M,M,3399.00,M,M,M,-RA,PAGN 011525Z AUTO 06004KT 10SM -RA OVC033 A2974 RMK P0001 MADISHF
PAGN,2017-04-01 15:30,-134.5851,57.5036,M,M,M,70.00,3.00,0.01,29.74,M,10.00,M,OVC,M,M,M,3399.00,M,M,M,-RA,PAGN 011530Z AUTO 07003KT 10SM -RA OVC033 A2974 RMK P0001 MADISHF
PAGN,2017-04-01 15:35,-134.5851,57.5036,M,M,M,60.00,4.00,0.01,29.74,M,10.00,M,SCT,OVC,M,M,2900.00,3600.00,M,M,-RA,PAGN 011535Z AUTO 06004KT 10SM -RA SCT029 OVC036 A2974 RMK P0001 MADISHF
PAGN,2017-04-01 15:40,-134.5851,57.5036,M,M,M,60.00,4.00,0.01,29.74,M,10.00,M,SCT,OVC,M,M,2900.00,3600.00,M,M,-RA,PAGN 011540Z AUTO 06004KT 10SM -RA SCT029 OVC036 A2974 RMK P0001 MADISHF
PAGN,2017-04-01 15:45,-134.5851,57.5036,M,M,M,70.00,4.00,0.01,29.74,M,10.00,M,SCT,OVC,M,M,2900.00,3600.00,M,M,-RA,PAGN 011545Z AUTO 07004KT 10SM -RA SCT029 OVC036 A2974 RMK P0001 VRB04KT  MADISHF
PAGN,2017-04-01 15:50,-134.5851,57.5036,M,M,M,70.00,3.00,0.01,29.74,M,10.00,M,BKN,OVC,M,M,2900.00,3800.00,M,M,-RA,PAGN 011550Z AUTO 07003KT 10SM -RA BKN029 OVC038 A2974 RMK P0001 MADISHF
PAGN,2017-04-01 15:55,-134.5851,57.5036,M,M,M,60.00,5.00,0.01,29.74,M,10.00,M,BKN,OVC,M,M,2900.00,3800.00,M,M,-RA,PAGN 011555Z AUTO 06005KT 10SM -RA BKN029 OVC038 A2974 RMK P0001 MADISHF
PAGN,2017-04-01 15:56,-134.5851,57.5036,42.10,39.00,88.67,70.00,4.00,0.01,29.74,1005.80,10.00,M,BKN,OVC,M,M,2900.00,3800.00,M,M,-RA,PAGN 011556Z AUTO 07004KT 10SM -RA BKN029 OVC038 06/04 A2974 RMK AO2 SLP058 P0001 T00560039
PAGN,2017-04-01 16:00,-134.5851,57.5036,M,M,M,70.00,5.00,M,29.74,M,10.00,M,SCT,OVC,M,M,2900.00,3800.00,M,M,-RA,PAGN 011600Z AUTO 07005KT 10SM -RA SCT029 OVC038 A2974 RMK MADISHF
PAGN,2017-04-01 16:05,-134.5851,57.5036,M,M,M,60.00,4.00,M,29.73,M,10.00,M,SCT,OVC,M,M,2900.00,3800.00,M,M,-RA,PAGN 011605Z AUTO 06004KT 10SM -RA SCT029 OVC038 A2973 RMK MADISHF
PAGN,2017-04-01 16:06,-134.5851,57.5036,42.80,39.20,86.99,70.00,4.00,0.00,29.73,M,10.00,M,FEW,OVC,M,M,2900.00,3800.00,M,M,-RA,PAGN 011606Z AUTO 07004KT 10SM -RA FEW029 OVC038 06/04 A2973 RMK AO2 P0000
PAGN,2017-04-01 16:10,-134.5851,57.5036,M,M,M,70.00,3.00,M,29.73,M,10.00,M,SCT,OVC,M,M,2900.00,3800.00,M,M,-RA,PAGN 011610Z AUTO 07003KT 10SM -RA SCT029 OVC038 A2973 RMK MADISHF
PAGN,2017-04-01 16:15,-134.5851,57.5036,M,M,M,70.00,4.00,M,29.73,M,10.00,M,SCT,OVC,M,M,2900.00,3800.00,M,M,-RA,PAGN 011615Z AUTO 07004KT 10SM -RA SCT029 OVC038 A2973 RMK MADISHF
PAGN,2017-04-01 16:20,-134.5851,57.5036,M,M,M,80.00,4.00,M,29.74,M,10.00,M,SCT,OVC,M,M,2900.00,3800.00,M,M,-RA,PAGN 011620Z AUTO 08004KT 10SM -RA SCT029 OVC038 A2974 RMK MADISHF
PAGN,2017-04-01 16:25,-134.5851,57.5036,M,M,M,60.00,4.00,0.01,29.73,M,10.00,M,FEW,OVC,M,M,3100.00,3800.00,M,M,-RA,PAGN 011625Z AUTO 06004KT 10SM -RA FEW031 OVC038 A2973 RMK P0001 MADISHF
PAGN,2017-04-01 16:30,-134.5851,57.5036,M,M,M,70.00,5.00,0.01,29.73,M,10.00,M,SCT,OVC,M,M,3100.00,3800.00,M,M,-RA,PAGN 011630Z AUTO 07005KT 10SM -RA SCT031 OVC038 A2973 RMK P0001 MADISHF
PAGN,2017-04-01 16:35,-134.5851,57.5036,M,M,M,70.00,4.00,0.01,29.74,M,10.00,M,SCT,OVC,M,M,3000.00,3800.00,M,M,-RA,PAGN 011635Z AUTO 07004KT 10SM -RA SCT030 OVC038 A2974 RMK P0001 MADISHF
PAGN,2017-04-01 16:40,-134.5851,57.5036,M,M,M,80.00,4.00,0.01,29.74,M,10.00,M,BKN,OVC,M,M,3000.00,3800.00,M,M,-RA,PAGN 011640Z AUTO 08004KT 10SM -RA BKN030 OVC038 A2974 RMK P0001 MADISHF
PAGN,2017-04-01 16:45,-134.5851,57.5036,M,M,M,60.00,4.00,0.01,29.74,M,10.00,M,BKN,OVC,M,M,3000.00,3800.00,M,M,-RA,PAGN 011645Z AUTO 06004KT 10SM -RA BKN030 OVC038 A2974 RMK P0001 MADISHF
PAGN,2017-04-01 16:50,-134.5851,57.5036,M,M,M,60.00,3.00,0.01,29.73,M,10.00,M,BKN,OVC,M,M,3000.00,3900.00,M,M,-RA,PAGN 011650Z AUTO 06003KT 10SM -RA BKN030 OVC039 A2973 RMK P0001 MADISHF
PAGN,2017-04-01 16:55,-134.5851,57.5036,M,M,M,0.00,0.00,0.01,29.73,M,10.00,M,SCT,OVC,M,M,3000.00,4200.00,M,M,-RA,PAGN 011655Z AUTO 00000KT 10SM -RA SCT030 OVC042 A2973 RMK P0001 MADISHF
PAGN,2017-04-01 16:56,-134.5851,57.5036,42.10,39.90,91.84,80.00,3.00,0.01,29.73,1005.80,10.00,M,SCT,OVC,M,M,3000.00,4200.00,M,M,-RA,PAGN 011656Z AUTO 08003KT 10SM -RA SCT030 OVC042 06/04 A2973 RMK AO2 SLP058 P0001 T00560044
PAGN,2017-04-01 17:05,-134.5851,57.5036,M,M,M,80.00,3.00,M,29.73,M,10.00,M,FEW,BKN,OVC,M,3000.00,4400.00,6000.00,M,M,PAGN 011705Z AUTO 08003KT 10SM FEW030 BKN044 OVC060 A2973 RMK MADISHF
PAGN,2017-04-01 17:10,-134.5851,57.5036,M,M,M,0.00,0.00,M,29.73,M,10.00,M,FEW,BKN,OVC,M,3000.00,4200.00,6000.00,M,M,PAGN 011710Z AUTO 00000KT 10SM FEW030 BKN042 OVC060 A2973 RMK MADISHF
PAGN,2017-04-01 17:15,-134.5851,57.5036,M,M,M,100.00,4.00,M,29.73,M,10.00,M,BKN,OVC,M,M,4500.00,6000.00,M,M,M,PAGN 011715Z AUTO 10004KT 10SM BKN045 OVC060 A2973 RMK MADISHF
PAGN,2017-04-01 17:20,-134.5851,57.5036,M,M,M,100.00,4.00,M,29.73,M,10.00,M,FEW,BKN,OVC,M,3000.00,4500.00,7500.00,M,M,PAGN 011720Z AUTO 10004KT 10SM FEW030 BKN045 OVC075 A2973 RMK MADISHF
PAGN,2017-04-01 17:25,-134.5851,57.5036,M,M,M,90.00,4.00,M,29.73,M,10.00,M,FEW,BKN,OVC,M,3000.00,4500.00,7500.00,M,M,PAGN 011725Z AUTO 09004KT 10SM FEW030 BKN045 OVC075 A2973 RMK MADISHF
PAGN,2017-04-01 17:30,-134.5851,57.5036,M,M,M,90.00,6.00,M,29.73,M,10.00,M,FEW,BKN,OVC,M,3200.00,4500.00,6500.00,M,M,PAGN 011730Z AUTO 09006KT 10SM FEW032 BKN045 OVC065 A2973 RMK MADISHF
PAGN,2017-04-01 17:35,-134.5851,57.5036,M,M,M,100.00,6.00,M,29.73,M,10.00,M,SCT,BKN,OVC,M,3200.00,4600.00,6500.00,M,M,PAGN 011735Z AUTO 10006KT 10SM SCT032 BKN046 OVC065 A2973 RMK MADISHF
PAGN,2017-04-01 17:40,-134.5851,57.5036,M,M,M,110.00,6.00,M,29.73,M,10.00,M,SCT,BKN,OVC,M,3200.00,4300.00,6000.00,M,M,PAGN 011740Z AUTO 11006KT 10SM SCT032 BKN043 OVC060 A2973 RMK MADISHF
PAGN,2017-04-01 17:45,-134.5851,57.5036,M,M,M,110.00,6.00,M,29.74,M,10.00,M,BKN,BKN,OVC,M,3200.00,4300.00,7000.00,M,M,PAGN 011745Z AUTO 11006KT 10SM BKN032 BKN043 OVC070 A2974 RMK MADISHF
PAGN,2017-04-01 17:50,-134.5851,57.5036,M,M,M,110.00,6.00,M,29.74,M,10.00,M,BKN,OVC,M,M,3200.00,4300.00,M,M,M,PAGN 011750Z AUTO 11006KT 10SM BKN032 OVC043 A2974 RMK MADISHF
PAGN,2017-04-01 17:55,-134.5851,57.5036,M,M,M,100.00,5.00,M,29.73,M,10.00,M,BKN,OVC,M,M,3200.00,4100.00,M,M,M,PAGN 011755Z AUTO 10005KT 10SM BKN032 OVC041 A2973 RMK MADISHF
PAGN,2017-04-01 17:56,-134.5851,57.5036,44.10,39.00,82.12,110.00,5.00,0.00,29.74,1005.80,10.00,M,BKN,OVC,M,M,3200.00,3900.00,M,M,M,PAGN 011756Z AUTO 11005KT 10SM BKN032 OVC039 07/04 A2974 RMK AO2 RAE04 SLP058 P0000 60003 T00670039 10067 20044 55000
PAGN,2017-04-01 18:00,-134.5851,57.5036,M,M,M,90.00,8.00,M,29.74,M,10.00,M,BKN,OVC,M,M,3200.00,4100.00,M,M,-RA,PAGN 011800Z AUTO 09008KT 10SM -RA BKN032 OVC041 A2974 RMK MADISHF
PAGN,2017-04-01 18:05,-134.5851,57.5036,M,M,M,110.00,7.00,M,29.74,M,10.00,M,BKN,OVC,M,M,3200.00,4300.00,M,M,-RA,PAGN 011805Z AUTO 11007KT 10SM -RA BKN032 OVC043 A2974 RMK MADISHF
PAGN,2017-04-01 18:10,-134.5851,57.5036,M,M,M,100.00,7.00,M,29.74,M,10.00,M,SCT,OVC,M,M,3200.00,4300.00,M,M,-RA,PAGN 011810Z AUTO 10007KT 10SM -RA SCT032 OVC043 A2974 RMK MADISHF
PAGN,2017-04-01 18:15,-134.5851,57.5036,M,M,M,100.00,6.00,M,29.74,M,10.00,M,SCT,BKN,OVC,M,3200.00,4300.00,7000.00,M,-RA,PAGN 011815Z AUTO 10006KT 10SM -RA SCT032 BKN043 OVC070 A2974 RMK MADISHF
PAGN,2017-04-01 18:20,-134.5851,57.5036,M,M,M,100.00,6.00,M,29.74,M,10.00,M,FEW,OVC,M,M,3200.00,4300.00,M,M,M,PAGN 011820Z AUTO 10006KT 10SM FEW032 OVC043 A2974 RMK MADISHF
PAGN,2017-04-01 18:25,-134.5851,57.5036,M,M,M,90.00,5.00,M,29.74,M,10.00,M,FEW,BKN,OVC,M,3200.00,4100.00,4900.00,M,-RA,PAGN 011825Z AUTO 09005KT 10SM -RA FEW032 BKN041 OVC049 A2974 RMK MADISHF
PAGN,2017-04-01 18:30,-134.5851,57.5036,M,M,M,90.00,4.00,M,29.74,M,10.00,M,BKN,OVC,M,M,3900.00,4900.00,M,M,-RA,PAGN 011830Z AUTO 09004KT 10SM -RA BKN039 OVC049 A2974 RMK MADISHF
PAGN,2017-04-01 18:35,-134.5851,57.5036,M,M,M,70.00,4.00,M,29.74,M,10.00,M,BKN,BKN,OVC,M,3500.00,4200.00,4900.00,M,-RA,PAGN 011835Z AUTO 07004KT 10SM -RA BKN035 BKN042 OVC049 A2974 RMK MADISHF
PAGN,2017-04-01 18:40,-134.5851,57.5036,M,M,M,70.00,3.00,M,29.75,M,10.00,M,BKN,OVC,M,M,3500.00,4500.00,M,M,-RA,PAGN 011840Z AUTO 07003KT 10SM -RA BKN035 OVC045 A2975 RMK MADISHF
PAGN,2017-04-01 18:45,-134.5851,57.5036,M,M,M,80.00,4.00,M,29.75,M,10.00,M,OVC,M,M,M,3500.00,M,M,M,-RA,PAGN 011845Z AUTO 08004KT 10SM -RA OVC035 A2975 RMK MADISHF
PAGN,2017-04-01 18:50,-134.5851,57.5036,M,M,M,90.00,4.00,M,29.75,M,10.00,M,OVC,M,M,M,3500.00,M,M,M,-RA,PAGN 011850Z AUTO 09004KT 10SM -RA OVC035 A2975 RMK MADISHF
PAGN,2017-04-01 18:55,-134.5851,57.5036,M,M,M,80.00,4.00,M,29.75,M,10.00,M,OVC,M,M,M,3500.00,M,M,M,-RA,PAGN 011855Z AUTO 08004KT 10SM -RA OVC035 A2975 RMK MADISHF
PAGN,2017-04-01 18:56,-134.5851,57.5036,43.00,39.00,85.66,90.00,4.00,0.00,29.75,1006.40,10.00,M,OVC,M,M,M,3500.00,M,M,M,-RA,PAGN 011856Z AUTO 09004KT 10SM -RA OVC035 06/04 A2975 RMK AO2 RAB1758 SLP064 P0000 T00610039
PAGN,2017-04-01 19:00,-134.5851,57.5036,M,M,M,100.00,3.00,M,29.75,M,10.00,M,OVC,M,M,M,3500.00,M,M,M,-RA,PAGN 011900Z AUTO 10003KT 10SM -RA OVC035 A2975 RMK MADISHF
PAGN,2017-04-01 19:05,-134.5851,57.5036,M,M,M,100.00,4.00,0.01,29.75,M,10.00,M,OVC,M,M,M,3700.00,M,M,M,-RA,PAGN 011905Z AUTO 10004KT 10SM -RA OVC037 A2975 RMK P0001 MADISHF
PAGN,2017-04-01 19:15,-134.5851,57.5036,M,M,M,90.00,4.00,0.01,29.76,M,8.00,M,OVC,M,M,M,3500.00,M,M,M,-RA,PAGN 011915Z AUTO 09004KT 8SM -RA OVC035 A2976 RMK P0001 MADISHF
PAGN,2017-04-01 19:20,-134.5851,57.5036,M,M,M,110.00,4.00,0.02,29.76,M,10.00,M,BKN,OVC,M,M,3300.00,4200.00,M,M,-RA,PAGN 011920Z AUTO 11004KT 10SM -RA BKN033 OVC042 A2976 RMK P0002 MADISHF
PAGN,2017-04-01 19:25,-134.5851,57.5036,M,M,M,100.00,3.00,0.02,29.76,M,10.00,M,OVC,M,M,M,3300.00,M,M,M,-RA,PAGN 011925Z AUTO 10003KT 10SM -RA OVC033 A2976 RMK P0002 MADISHF
PAGN,2017-04-01 19:30,-134.5851,57.5036,M,M,M,0.00,0.00,0.02,29.76,M,10.00,M,OVC,M,M,M,3300.00,M,M,M,RA,PAGN 011930Z AUTO 00000KT 10SM RA OVC033 A2976 RMK P0002 MADISHF
PAGN,2017-04-01 19:35,-134.5851,57.5036,M,M,M,0.00,0.00,0.03,29.76,M,10.00,M,OVC,M,M,M,3300.00,M,M,M,-RA,PAGN 011935Z AUTO 00000KT 10SM -RA OVC033 A2976 RMK P0003 MADISHF
PAGN,2017-04-01 19:40,-134.5851,57.5036,M,M,M,0.00,0.00,0.03,29.76,M,10.00,M,OVC,M,M,M,3300.00,M,M,M,-RA,PAGN 011940Z AUTO 00000KT 10SM -RA OVC033 A2976 RMK P0003 MADISHF
PAGN,2017-04-01 19:45,-134.5851,57.5036,M,M,M,0.00,0.00,0.04,29.76,M,10.00,M,OVC,M,M,M,3300.00,M,M,M,-RA,PAGN 011945Z AUTO 00000KT 10SM -RA OVC033 A2976 RMK P0004 MADISHF
PAGN,2017-04-01 19:50,-134.5851,57.5036,M,M,M,0.00,0.00,0.04,29.77,M,10.00,M,FEW,OVC,M,M,2800.00,3500.00,M,M,-RA,PAGN 011950Z AUTO 00000KT 10SM -RA FEW028 OVC035 A2977 RMK P0004 MADISHF
PAGN,2017-04-01 19:55,-134.5851,57.5036,M,M,M,0.00,0.00,0.04,29.77,M,10.00,M,SCT,OVC,M,M,2800.00,3500.00,M,M,-RA,PAGN 011955Z AUTO 00000KT 10SM -RA SCT028 OVC035 A2977 RMK P0004 MADISHF
PAGN,2017-04-01 19:56,-134.5851,57.5036,43.00,39.90,88.71,0.00,0.00,0.04,29.77,1007.00,10.00,M,OVC,M,M,M,3100.00,M,M,M,-RA,PAGN 011956Z AUTO 00000KT 10SM -RA OVC031 06/04 A2977 RMK AO2 SLP070 P0004 T00610044
PAGN,2017-04-01 20:00,-134.5851,57.5036,M,M,M,0.00,0.00,M,29.77,M,10.00,M,OVC,M,M,M,3200.00,M,M,M,-RA,PAGN 012000Z AUTO 00000KT 10SM -RA OVC032 A2977 RMK MADISHF
PAGN,2017-04-01 20:05,-134.5851,57.5036,M,M,M,0.00,0.00,0.01,29.77,M,10.00,M,BKN,OVC,M,M,2900.00,3500.00,M,M,-RA,PAGN 012005Z AUTO 00000KT 10SM -RA BKN029 OVC035 A2977 RMK P0001 MADISHF
PAGN,2017-04-01 20:09,-134.5851,57.5036,42.80,39.20,86.99,0.00,0.00,0.01,29.78,M,9.00,M,BKN,OVC,M,M,2900.00,3500.00,M,M,-RA,PAGN 012009Z AUTO 00000KT 9SM -RA BKN029 OVC035 06/04 A2978 RMK AO2 P0001
PAGN,2017-04-01 20:10,-134.5851,57.5036,M,M,M,0.00,0.00,0.01,29.78,M,9.00,M,BKN,OVC,M,M,2900.00,3500.00,M,M,-RA,PAGN 012010Z AUTO 00000KT 9SM -RA BKN029 OVC035 A2978 RMK P0001 MADISHF
PAGN,2017-04-01 20:15,-134.5851,57.5036,M,M,M,0.00,0.00,0.02,29.78,M,8.00,M,BKN,OVC,M,M,2700.00,3399.00,M,M,RA,PAGN 012015Z AUTO 00000KT 8SM RA BKN027 OVC033 A2978 RMK P0002 MADISHF
PAGN,2017-04-01 20:20,-134.5851,57.5036,M,M,M,0.00,0.00,0.02,29.78,M,8.00,M,BKN,OVC,M,M,2700.00,3399.00,M,M,-RA,PAGN 012020Z AUTO 00000KT 8SM -RA BKN027 OVC033 A2978 RMK P0002 MADISHF
PAGN,2017-04-01 20:25,-134.5851,57.5036,M,M,M,0.00,0.00,0.03,29.78,M,7.00,M,OVC,M,M,M,2700.00,M,M,M,RA,PAGN 012025Z AUTO 00000KT 7SM RA OVC027 A2978 RMK P0003 MADISHF
PAGN,2017-04-01 20:30,-134.5851,57.5036,M,M,M,0.00,0.00,0.04,29.78,M,5.00,M,OVC,M,M,M,2500.00,M,M,M,-RA BR,PAGN 012030Z AUTO 00000KT 5SM -RA BR OVC025 A2978 RMK P0004 MADISHF
PAGN,2017-04-01 20:35,-134.5851,57.5036,M,M,M,0.00,0.00,0.04,29.79,M,5.00,M,BKN,OVC,M,M,2500.00,3600.00,M,M,-RA BR,PAGN 012035Z AUTO 00000KT 5SM -RA BR BKN025 OVC036 A2979 RMK P0004 MADISHF
PAGN,2017-04-01 20:40,-134.5851,57.5036,M,M,M,140.00,3.00,0.04,29.79,M,7.00,M,BKN,BKN,OVC,M,2300.00,2800.00,4800.00,M,-RA,PAGN 012040Z AUTO 14003KT 7SM -RA BKN023 BKN028 OVC048 A2979 RMK P0004 MADISHF
PAGN,2017-04-01 20:45,-134.5851,57.5036,M,M,M,160.00,5.00,0.04,29.79,M,10.00,M,BKN,BKN,OVC,M,2300.00,2800.00,3999.00,M,-RA,PAGN 012045Z AUTO 16005KT 10SM -RA BKN023 BKN028 OVC039 A2979 RMK P0004 MADISHF
PAGN,2017-04-01 20:50,-134.5851,57.5036,M,M,M,160.00,4.00,0.05,29.79,M,10.00,M,BKN,BKN,OVC,M,2300.00,3100.00,4800.00,M,-RA,PAGN 012050Z AUTO 16004KT 10SM -RA BKN023 BKN031 OVC048 A2979 RMK P0005 VRB04KT  MADISHF
PAGN,2017-04-01 20:55,-134.5851,57.5036,M,M,M,140.00,5.00,0.05,29.79,M,10.00,M,SCT,BKN,OVC,M,2300.00,3100.00,5000.00,M,-RA,PAGN 012055Z AUTO 14005KT 10SM -RA SCT023 BKN031 OVC050 A2979 RMK P0005 MADISHF
PAGN,2017-04-01 20:56,-134.5851,57.5036,43.00,39.90,88.71,150.00,4.00,0.05,29.79,1007.80,10.00,M,SCT,BKN,OVC,M,2300.00,3800.00,5000.00,M,-RA,PAGN 012056Z AUTO 15004KT 10SM -RA SCT023 BKN038 OVC050 06/04 A2979 RMK AO2 SLP078 P0005 60009 T00610044 53020
PAGN,2017-04-01 21:00,-134.5851,57.5036,M,M,M,120.00,4.00,M,29.80,M,10.00,M,FEW,BKN,OVC,M,2300.00,3800.00,4800.00,M,-RA,PAGN 012100Z AUTO 12004KT 10SM -RA FEW023 BKN038 OVC048 A2980 RMK MADISHF
PAGN,2017-04-01 21:05,-134.5851,57.5036,M,M,M,110.00,3.00,M,29.80,M,10.00,M,FEW,BKN,OVC,M,2100.00,4200.00,4800.00,M,-RA,PAGN 012105Z AUTO 11003KT 10SM -RA FEW021 BKN042 OVC048 A2980 RMK MADISHF
PAGN,2017-04-01 21:10,-134.5851,57.5036,M,M,M,130.00,3.00,M,29.80,M,10.00,M,FEW,SCT,OVC,M,2100.00,3800.00,4900.00,M,-RA,PAGN 012110Z AUTO 13003KT 10SM -RA FEW021 SCT038 OVC049 A2980 RMK MADISHF
PAGN,2017-04-01 21:15,-134.5851,57.5036,M,M,M,130.00,3.00,M,29.80,M,10.00,M,FEW,OVC,M,M,2700.00,4700.00,M,M,-RA,PAGN 012115Z AUTO 13003KT 10SM -RA FEW027 OVC047 A2980 RMK MADISHF
PAGN,2017-04-01 21:20,-134.5851,57.5036,M,M,M,150.00,4.00,M,29.80,M,10.00,M,FEW,OVC,M,M,3100.00,4600.00,M,M,-RA,PAGN 012120Z AUTO 15004KT 10SM -RA FEW031 OVC046 A2980 RMK MADISHF
PAGN,2017-04-01 21:25,-134.5851,57.5036,M,M,M,150.00,4.00,M,29.80,M,10.00,M,SCT,BKN,OVC,M,3100.00,4200.00,4900.00,M,-RA,PAGN 012125Z AUTO 15004KT 10SM -RA SCT031 BKN042 OVC049 A2980 RMK MADISHF
PAGN,2017-04-01 21:30,-134.5851,57.5036,M,M,M,150.00,4.00,M,29.81,M,10.00,M,SCT,BKN,OVC,M,3100.00,4200.00,4900.00,M,-RA,PAGN 012130Z AUTO 15004KT 10SM -RA SCT031 BKN042 OVC049 A2981 RMK MADISHF
PAGN,2017-04-01 21:35,-134.5851,57.5036,M,M,M,140.00,4.00,M,29.81,M,10.00,M,SCT,BKN,OVC,M,3100.00,3900.00,5000.00,M,-RA,PAGN 012135Z AUTO 14004KT 10SM -RA SCT031 BKN039 OVC050 A2981 RMK MADISHF
PAGN,2017-04-01 21:40,-134.5851,57.5036,M,M,M,150.00,4.00,M,29.81,M,10.00,M,BKN,OVC,M,M,3300.00,4300.00,M,M,-RA,PAGN 012140Z AUTO 15004KT 10SM -RA BKN033 OVC043 A2981 RMK MADISHF
PAGN,2017-04-01 21:45,-134.5851,57.5036,M,M,M,180.00,3.00,M,29.81,M,10.00,M,BKN,OVC,M,M,3500.00,4700.00,M,M,-RA,PAGN 012145Z AUTO 18003KT 10SM -RA BKN035 OVC047 A2981 RMK MADISHF
PAGN,2017-04-01 21:50,-134.5851,57.5036,M,M,M,170.00,3.00,M,29.81,M,10.00,M,BKN,OVC,M,M,3500.00,4700.00,M,M,-RA,PAGN 012150Z AUTO 17003KT 10SM -RA BKN035 OVC047 A2981 RMK MADISHF
PAGN,2017-04-01 21:55,-134.5851,57.5036,M,M,M,160.00,5.00,M,29.82,M,10.00,M,BKN,OVC,M,M,3300.00,4500.00,M,M,-RA,PAGN 012155Z AUTO 16005KT 10SM -RA BKN033 OVC045 A2982 RMK MADISHF
PAGN,2017-04-01 21:56,-134.5851,57.5036,44.10,39.90,85.06,170.00,5.00,0.00,29.82,1008.70,10.00,M,BKN,OVC,M,M,3300.00,4500.00,M,M,-RA,PAGN 012156Z AUTO 17005KT 10SM -RA BKN033 OVC045 07/04 A2982 RMK AO2 SLP087 P0000 T00670044
PAGN,2017-04-01 22:00,-134.5851,57.5036,M,M,M,170.00,5.00,M,29.82,M,10.00,M,FEW,BKN,OVC,M,2800.00,3600.00,4500.00,M,-RA,PAGN 012200Z AUTO 17005KT 10SM -RA FEW028 BKN036 OVC045 A2982 RMK MADISHF
PAGN,2017-04-01 22:05,-134.5851,57.5036,M,M,M,160.00,3.00,M,29.82,M,10.00,M,BKN,BKN,OVC,M,2800.00,3900.00,4800.00,M,-RA,PAGN 012205Z AUTO 16003KT 10SM -RA BKN028 BKN039 OVC048 A2982 RMK VRB03KT  MADISHF
PAGN,2017-04-01 22:10,-134.5851,57.5036,M,M,M,0.00,0.00,M,29.83,M,10.00,M,BKN,BKN,OVC,M,2800.00,3700.00,4600.00,M,-RA,PAGN 012210Z AUTO 00000KT 10SM -RA BKN028 BKN037 OVC046 A2983 RMK MADISHF
PAGN,2017-04-01 22:11,-134.5851,57.5036,44.60,41.00,87.09,0.00,0.00,0.00,29.83,M,10.00,M,BKN,OVC,M,M,2800.00,4400.00,M,M,-RA,PAGN 012211Z AUTO 00000KT 10SM -RA BKN028 OVC044 07/05 A2983 RMK AO2 P0000
PAGN,2017-04-01 22:15,-134.5851,57.5036,M,M,M,0.00,0.00,M,29.83,M,10.00,M,BKN,OVC,M,M,3000.00,4600.00,M,M,-RA,PAGN 012215Z AUTO 00000KT 10SM -RA BKN030 OVC046 A2983 RMK MADISHF
PAGN,2017-04-01 22:18,-134.5851,57.5036,44.60,41.00,87.09,0.00,0.00,0.00,29.83,M,10.00,M,FEW,BKN,OVC,M,2400.00,3000.00,4600.00,M,-RA,PAGN 012218Z AUTO 00000KT 10SM -RA FEW024 BKN030 OVC046 07/05 A2983 RMK AO2 P0000
PAGN,2017-04-01 22:20,-134.5851,57.5036,M,M,M,0.00,0.00,M,29.83,M,10.00,M,FEW,OVC,M,M,2400.00,3000.00,M,M,-RA,PAGN 012220Z AUTO 00000KT 10SM -RA FEW024 OVC030 A2983 RMK MADISHF
PAGN,2017-04-01 22:25,-134.5851,57.5036,M,M,M,0.00,0.00,M,29.84,M,10.00,M,FEW,OVC,M,M,2400.00,3000.00,M,M,-RA,PAGN 012225Z AUTO 00000KT 10SM -RA FEW024 OVC030 A2984 RMK MADISHF
PAGN,2017-04-01 22:30,-134.5851,57.5036,M,M,M,0.00,0.00,M,29.84,M,10.00,M,FEW,SCT,OVC,M,1800.00,2200.00,3000.00,M,M,PAGN 012230Z AUTO 00000KT 10SM FEW018 SCT022 OVC030 A2984 RMK MADISHF
PAGN,2017-04-01 22:35,-134.5851,57.5036,M,M,M,0.00,0.00,M,29.84,M,10.00,M,SCT,BKN,OVC,M,1800.00,2200.00,3000.00,M,M,PAGN 012235Z AUTO 00000KT 10SM SCT018 BKN022 OVC030 A2984 RMK MADISHF
PAGN,2017-04-01 22:40,-134.5851,57.5036,M,M,M,0.00,0.00,M,29.84,M,10.00,M,SCT,BKN,OVC,M,1800.00,2200.00,3000.00,M,M,PAGN 012240Z AUTO 00000KT 10SM SCT018 BKN022 OVC030 A2984 RMK MADISHF
PAGN,2017-04-01 22:41,-134.5851,57.5036,44.60,39.20,81.20,0.00,0.00,0.00,29.84,M,10.00,M,SCT,BKN,OVC,M,1800.00,2200.00,3000.00,M,M,PAGN 012241Z AUTO 00000KT 10SM SCT018 BKN022 OVC030 07/04 A2984 RMK AO2 RAE27 P0000
PAGN,2017-04-01 22:45,-134.5851,57.5036,M,M,M,0.00,0.00,M,29.85,M,10.00,M,SCT,BKN,OVC,M,1800.00,2200.00,3000.00,M,M,PAGN 012245Z AUTO 00000KT 10SM SCT018 BKN022 OVC030 A2985 RMK MADISHF
PAGN,2017-04-01 22:50,-134.5851,57.5036,M,M,M,0.00,0.00,M,29.85,M,10.00,M,SCT,OVC,M,M,1800.00,3000.00,M,M,M,PAGN 012250Z AUTO 00000KT 10SM SCT018 OVC030 A2985 RMK MADISHF
PAGN,2017-04-01 22:52,-134.5851,57.5036,44.60,39.20,81.20,M,3.00,0.00,29.85,M,10.00,M,SCT,OVC,M,M,1800.00,3000.00,M,M,M,PAGN 012252Z AUTO VRB03KT 10SM SCT018 OVC030 07/04 A2985 RMK AO2 RAE27 P0000
PAGN,2017-04-01 22:55,-134.5851,57.5036,M,M,M,0.00,0.00,M,29.85,M,10.00,M,SCT,OVC,M,M,1800.00,3000.00,M,M,M,PAGN 012255Z AUTO 00000KT 10SM SCT018 OVC030 A2985 RMK MADISHF
PAGN,2017-04-01 22:56,-134.5851,57.5036,44.10,39.00,82.12,0.00,0.00,0.00,29.85,1009.70,10.00,M,SCT,OVC,M,M,1800.00,3000.00,M,M,M,PAGN 012256Z AUTO 00000KT 10SM SCT018 OVC030 07/04 A2985 RMK AO2 RAE27 SLP097 P0000 T00670039
PAGN,2017-04-01 23:00,-134.5851,57.5036,M,M,M,0.00,0.00,M,29.85,M,10.00,M,SCT,OVC,M,M,1800.00,3000.00,M,M,M,PAGN 012300Z AUTO 00000KT 10SM SCT018 OVC030 A2985 RMK MADISHF
PAGN,2017-04-01 23:05,-134.5851,57.5036,M,M,M,10.00,3.00,M,29.85,M,10.00,M,FEW,OVC,M,M,1800.00,3000.00,M,M,M,PAGN 012305Z AUTO 01003KT 10SM FEW018 OVC030 A2985 RMK VRB03KT  MADISHF
PAGN,2017-04-01 23:10,-134.5851,57.5036,M,M,M,0.00,0.00,M,29.85,M,10.00,M,FEW,OVC,M,M,1800.00,3200.00,M,M,M,PAGN 012310Z AUTO 00000KT 10SM FEW018 OVC032 A2985 RMK MADISHF
PAGN,2017-04-01 23:15,-134.5851,57.5036,M,M,M,0.00,0.00,M,29.86,M,10.00,M,FEW,OVC,M,M,1800.00,3200.00,M,M,M,PAGN 012315Z AUTO 00000KT 10SM FEW018 OVC032 A2986 RMK MADISHF
PAGN,2017-04-01 23:20,-134.5851,57.5036,M,M,M,0.00,0.00,M,29.86,M,10.00,M,FEW,BKN,OVC,M,1800.00,3200.00,8500.00,M,-RA,PAGN 012320Z AUTO 00000KT 10SM -RA FEW018 BKN032 OVC085 A2986 RMK MADISHF
PAGN,2017-04-01 23:25,-134.5851,57.5036,M,M,M,0.00,0.00,M,29.86,M,10.00,M,BKN,BKN,OVC,M,3200.00,4700.00,8500.00,M,-RA,PAGN 012325Z AUTO 00000KT 10SM -RA BKN032 BKN047 OVC085 A2986 RMK MADISHF
PAGN,2017-04-01 23:30,-134.5851,57.5036,M,M,M,190.00,4.00,M,29.86,M,10.00,M,SCT,BKN,OVC,M,3200.00,4500.00,6500.00,M,-RA,PAGN 012330Z AUTO 19004KT 10SM -RA SCT032 BKN045 OVC065 A2986 RMK VRB04KT  MADISHF
PAGN,2017-04-01 23:35,-134.5851,57.5036,M,M,M,160.00,3.00,M,29.86,M,10.00,M,SCT,BKN,OVC,M,3200.00,4300.00,6500.00,M,M,PAGN 012335Z AUTO 16003KT 10SM SCT032 BKN043 OVC065 A2986 RMK VRB03KT  MADISHF
PAGN,2017-04-01 23:40,-134.5851,57.5036,M,M,M,190.00,4.00,M,29.86,M,10.00,M,FEW,BKN,OVC,M,3300.00,4200.00,6000.00,M,M,PAGN 012340Z AUTO 19004KT 10SM FEW033 BKN042 OVC060 A2986 RMK VRB04KT  MADISHF
PAGN,2017-04-01 23:45,-134.5851,57.5036,M,M,M,0.00,0.00,M,29.86,M,10.00,M,BKN,OVC,M,M,3999.00,5000.00,M,M,M,PAGN 012345Z AUTO 00000KT 10SM BKN039 OVC050 A2986 RMK MADISHF
PAGN,2017-04-01 23:50,-134.5851,57.5036,M,M,M,190.00,3.00,M,29.87,M,10.00,M,BKN,BKN,OVC,M,3999.00,5000.00,6500.00,M,M,PAGN 012350Z AUTO 19003KT 10SM BKN039 BKN050 OVC065 A2987 RMK VRB03KT  MADISHF
PAGN,2017-04-01 23:55,-134.5851,57.5036,M,M,M,0.00,0.00,M,29.87,M,10.00,M,BKN,BKN,OVC,M,3999.00,4600.00,6500.00,M,M,PAGN 012355Z AUTO 00000KT 10SM BKN039 BKN046 OVC065 A2987 RMK MADISHF
PAGN,2017-04-01 23:56,-134.5851,57.5036,45.00,37.90,76.01,M,3.00,0.00,29.87,1010.40,10.00,M,BKN,BKN,OVC,M,4000.00,4800.00,6500.00,M,M,PAGN 012356Z AUTO VRB03KT 10SM BKN040 BKN048 OVC065 07/03 A2987 RMK AO2 RAB20E32 SLP104 P0000 60009 T00720033 10072 20061 51018
