#DEBUG: Format Typ    -> comma
#DEBUG: Time Period   -> 2017-04-01 00:00:00+00:00 2017-04-02 00:00:00+00:00
#DEBUG: Time Zone     -> Etc/UTC
#DEBUG: Data Contact   -> daryl herzmann akrherz@iastate.edu 515-294-5978
#DEBUG: Entries Found -> -1
station,valid,lon,lat,tmpf, dwpf, relh, drct, sknt, p01i, alti, mslp, vsby, gust, skyc1, skyc2, skyc3, skyc4, skyl1, skyl2, skyl3, skyl4, presentwx, metar
PANI,2017-04-01 00:00,-159.5430,61.5816,M,M,M,340.00,6.00,M,29.14,M,3.00,M,SCT,BKN,OVC,M,1900.00,3600.00,5000.00,M,M,PANI 010000Z AUTO 34006KT 3SM SCT019 BKN036 OVC050 A2914 RMK MADISHF
PANI,2017-04-01 00:05,-159.5430,61.5816,M,M,M,350.00,5.00,M,29.14,M,4.00,M,SCT,BKN,OVC,M,1900.00,3999.00,5000.00,M,M,PANI 010005Z AUTO 35005KT 4SM SCT019 BKN039 OVC050 A2914 RMK MADISHF
PANI,2017-04-01 00:10,-159.5430,61.5816,M,M,M,340.00,6.00,M,29.13,M,2.00,M,SCT,BKN,OVC,M,1699.00,3700.00,4400.00,M,M,PANI 010010Z AUTO 34006KT 2SM SCT016 BKN037 OVC044 A2913 RMK MADISHF
PANI,2017-04-01 00:15,-159.5430,61.5816,M,M,M,350.00,5.00,M,29.13,M,1.50,M,SCT,OVC,M,M,2500.00,3700.00,M,M,M,PANI 010015Z AUTO 35005KT 1 1/2SM SCT025 OVC037 A2913 RMK MADISHF
PANI,2017-04-01 00:16,-159.5430,61.5816,24.80,21.20,85.96,350.00,6.00,0.00,29.13,M,1.50,M,BKN,OVC,M,M,3700.00,4500.00,M,M,M,PANI 010016Z AUTO 35006KT 1 1/2SM BKN037 OVC045 M04/M06 A2913 RMK AO1
PANI,2017-04-01 00:20,-159.5430,61.5816,M,M,M,330.00,6.00,M,29.13,M,1.50,M,BKN,OVC,M,M,3399.00,4200.00,M,M,M,PANI 010020Z AUTO 33006KT 1 1/2SM BKN033 OVC042 A2913 RMK MADISHF
PANI,2017-04-01 00:25,-159.5430,61.5816,M,M,M,340.00,6.00,M,29.13,M,1.50,M,BKN,OVC,M,M,3600.00,4700.00,M,M,M,PANI 010025Z AUTO 34006KT 1 1/2SM BKN036 OVC047 A2913 RMK MADISHF
PANI,2017-04-01 00:30,-159.5430,61.5816,M,M,M,340.00,5.00,M,29.13,M,2.50,M,SCT,OVC,M,M,3399.00,4100.00,M,M,M,PANI 010030Z AUTO 34005KT 2 1/2SM SCT033 OVC041 A2913 RMK MADISHF
PANI,2017-04-01 00:35,-159.5430,61.5816,M,M,M,340.00,8.00,M,29.13,M,3.00,M,SCT,OVC,M,M,3500.00,4300.00,M,M,M,PANI 010035Z AUTO 34008KT 3SM SCT035 OVC043 A2913 RMK MADISHF
PANI,2017-04-01 00:36,-159.5430,61.5816,24.80,21.20,85.96,340.00,6.00,0.00,29.13,M,3.00,M,SCT,OVC,M,M,3500.00,4300.00,M,M,M,PANI 010036Z AUTO 34006KT 3SM SCT035 OVC043 M04/M06 A2913 RMK AO1
PANI,2017-04-01 00:40,-159.5430,61.5816,M,M,M,350.00,6.00,M,29.13,M,3.00,M,SCT,OVC,M,M,3500.00,4300.00,M,M,M,PANI 010040Z AUTO 35006KT 3SM SCT035 OVC043 A2913 RMK MADISHF
PANI,2017-04-01 00:45,-159.5430,61.5816,M,M,M,360.00,6.00,M,29.13,M,3.00,M,OVC,M,M,M,3999.00,M,M,M,M,PANI 010045Z AUTO 36006KT 3SM OVC039 A2913 RMK MADISHF
PANI,2017-04-01 00:50,-159.5430,61.5816,M,M,M,360.00,5.00,M,29.13,M,3.00,M,OVC,M,M,M,3999.00,M,M,M,M,PANI 010050Z AUTO 36005KT 3SM OVC039 A2913 RMK MADISHF
PANI,2017-04-01 00:55,-159.5430,61.5816,M,M,M,350.00,6.00,M,29.13,M,3.00,M,BKN,OVC,M,M,3700.00,4300.00,M,M,M,PANI 010055Z AUTO 35006KT 3SM BKN037 OVC043 A2913 RMK MADISHF
PANI,2017-04-01 00:56,-159.5430,61.5816,26.60,21.20,79.77,350.00,6.00,0.00,29.13,M,3.00,M,BKN,OVC,M,M,3700.00,4300.00,M,M,M,PANI 010056Z AUTO 35006KT 3SM BKN037 OVC043 M03/M06 A2913 RMK AO1
PANI,2017-04-01 01:00,-159.5430,61.5816,M,M,M,350.00,5.00,M,29.13,M,2.00,M,BKN,OVC,M,M,3500.00,4300.00,M,M,M,PANI 010100Z AUTO 35005KT 2SM BKN035 OVC043 A2913 RMK MADISHF
PANI,2017-04-01 01:05,-159.5430,61.5816,M,M,M,350.00,5.00,M,29.13,M,1.25,M,BKN,OVC,M,M,3500.00,4300.00,M,M,M,PANI 010105Z AUTO 35005KT 1 1/2SM BKN035 OVC043 A2913 RMK MADISHF
PANI,2017-04-01 01:10,-159.5430,61.5816,M,M,M,360.00,5.00,M,29.13,M,1.50,M,SCT,OVC,M,M,2900.00,3700.00,M,M,M,PANI 010110Z AUTO 36005KT 1 1/2SM SCT029 OVC037 A2913 RMK MADISHF
PANI,2017-04-01 01:15,-159.5430,61.5816,M,M,M,360.00,6.00,M,29.13,M,1.50,M,SCT,OVC,M,M,2700.00,3700.00,M,M,M,PANI 010115Z AUTO 36006KT 1 1/2SM SCT027 OVC037 A2913 RMK MADISHF
PANI,2017-04-01 01:16,-159.5430,61.5816,26.60,23.00,86.07,360.00,5.00,0.00,29.13,M,1.50,M,SCT,BKN,OVC,M,2700.00,3400.00,4000.00,M,M,PANI 010116Z AUTO 36005KT 1 1/2SM SCT027 BKN034 OVC040 M03/M05 A2913 RMK AO1
PANI,2017-04-01 01:20,-159.5430,61.5816,M,M,M,350.00,7.00,M,29.13,M,1.75,M,SCT,BKN,OVC,M,2700.00,3300.00,4200.00,M,M,PANI 010120Z AUTO 35007KT 2SM SCT027 BKN033 OVC042 A2913 RMK MADISHF
PANI,2017-04-01 01:25,-159.5430,61.5816,M,M,M,350.00,6.00,M,29.12,M,3.00,M,FEW,SCT,BKN,M,2700.00,3399.00,4200.00,M,M,PANI 010125Z AUTO 35006KT 3SM FEW027 SCT033 BKN042 A2912 RMK MADISHF
PANI,2017-04-01 01:30,-159.5430,61.5816,M,M,M,350.00,6.00,M,29.13,M,5.00,M,FEW,SCT,OVC,M,2800.00,4200.00,5000.00,M,M,PANI 010130Z AUTO 35006KT 5SM FEW028 SCT042 OVC050 A2913 RMK MADISHF
PANI,2017-04-01 01:35,-159.5430,61.5816,M,M,M,350.00,8.00,M,29.12,M,5.00,M,FEW,SCT,OVC,M,2500.00,3999.00,5000.00,M,M,PANI 010135Z AUTO 35008KT 5SM FEW025 SCT039 OVC050 A2912 RMK MADISHF
PANI,2017-04-01 01:36,-159.5430,61.5816,26.60,23.00,86.07,350.00,8.00,0.00,29.12,M,5.00,M,FEW,SCT,OVC,M,2500.00,4200.00,5000.00,M,M,PANI 010136Z AUTO 35008KT 5SM FEW025 SCT042 OVC050 M03/M05 A2912 RMK AO1
PANI,2017-04-01 01:40,-159.5430,61.5816,M,M,M,350.00,8.00,M,29.12,M,3.00,M,FEW,SCT,OVC,M,2500.00,4700.00,5000.00,M,M,PANI 010140Z AUTO 35008KT 3SM FEW025 SCT047 OVC050 A2912 RMK MADISHF
PANI,2017-04-01 01:45,-159.5430,61.5816,M,M,M,350.00,6.00,M,29.12,M,4.00,M,FEW,SCT,OVC,M,4100.00,4700.00,6000.00,M,M,PANI 010145Z AUTO 35006KT 4SM FEW041 SCT047 OVC060 A2912 RMK MADISHF
PANI,2017-04-01 01:50,-159.5430,61.5816,M,M,M,340.00,8.00,M,29.13,M,7.00,M,FEW,SCT,OVC,M,3600.00,4400.00,6000.00,M,M,PANI 010150Z AUTO 34008KT 7SM FEW036 SCT044 OVC060 A2913 RMK MADISHF
PANI,2017-04-01 01:55,-159.5430,61.5816,M,M,M,340.00,7.00,M,29.12,M,4.00,M,FEW,BKN,OVC,M,3800.00,4400.00,6000.00,M,M,PANI 010155Z AUTO 34007KT 4SM FEW038 BKN044 OVC060 A2912 RMK MADISHF
PANI,2017-04-01 01:56,-159.5430,61.5816,26.60,23.00,86.07,340.00,7.00,0.00,29.12,M,3.00,M,SCT,BKN,OVC,M,3800.00,4400.00,6000.00,M,M,PANI 010156Z AUTO 34007KT 3SM SCT038 BKN044 OVC060 M03/M05 A2912 RMK AO1
PANI,2017-04-01 02:00,-159.5430,61.5816,M,M,M,340.00,8.00,M,29.12,M,2.00,M,SCT,BKN,OVC,M,3800.00,4400.00,6000.00,M,M,PANI 010200Z AUTO 34008KT 2SM SCT038 BKN044 OVC060 A2912 RMK MADISHF
PANI,2017-04-01 02:05,-159.5430,61.5816,M,M,M,350.00,9.00,M,29.13,M,1.75,M,SCT,BKN,OVC,M,3800.00,4400.00,5000.00,M,M,PANI 010205Z AUTO 35009KT 2SM SCT038 BKN044 OVC050 A2913 RMK MADISHF
PANI,2017-04-01 02:10,-159.5430,61.5816,M,M,M,350.00,8.00,M,29.12,M,2.50,M,FEW,SCT,OVC,M,3800.00,4400.00,5000.00,M,M,PANI 010210Z AUTO 35008KT 2 1/2SM FEW038 SCT044 OVC050 A2912 RMK MADISHF
PANI,2017-04-01 02:15,-159.5430,61.5816,M,M,M,350.00,7.00,M,29.12,M,7.00,M,FEW,SCT,OVC,M,3800.00,4400.00,5000.00,M,M,PANI 010215Z AUTO 35007KT 7SM FEW038 SCT044 OVC050 A2912 RMK MADISHF
PANI,2017-04-01 02:16,-159.5430,61.5816,26.60,21.20,79.77,350.00,8.00,0.00,29.12,M,8.00,M,FEW,SCT,OVC,M,3800.00,4400.00,5000.00,M,M,PANI 010216Z AUTO 35008KT 8SM FEW038 SCT044 OVC050 M03/M06 A2912 RMK AO1
PANI,2017-04-01 02:20,-159.5430,61.5816,M,M,M,340.00,8.00,M,29.12,M,10.00,M,FEW,OVC,M,M,4200.00,5000.00,M,M,M,PANI 010220Z AUTO 34008KT 10SM FEW042 OVC050 A2912 RMK MADISHF
PANI,2017-04-01 02:30,-159.5430,61.5816,M,M,M,340.00,8.00,M,29.12,M,10.00,M,OVC,M,M,M,5000.00,M,M,M,M,PANI 010230Z AUTO 34008KT 10SM OVC050 A2912 RMK WND 32V02  MADISHF
PANI,2017-04-01 02:35,-159.5430,61.5816,M,M,M,350.00,7.00,M,29.12,M,10.00,M,OVC,M,M,M,5000.00,M,M,M,M,PANI 010235Z AUTO 35007KT 10SM OVC050 A2912 RMK MADISHF
PANI,2017-04-01 02:36,-159.5430,61.5816,26.60,21.20,79.77,340.00,8.00,0.00,29.12,M,10.00,M,OVC,M,M,M,5000.00,M,M,M,M,PANI 010236Z AUTO 34008KT 10SM OVC050 M03/M06 A2912 RMK AO1
PANI,2017-04-01 02:40,-159.5430,61.5816,M,M,M,350.00,8.00,M,29.12,M,10.00,M,OVC,M,M,M,5000.00,M,M,M,M,PANI 010240Z AUTO 35008KT 10SM OVC050 A2912 RMK MADISHF
PANI,2017-04-01 02:45,-159.5430,61.5816,M,M,M,350.00,7.00,M,29.12,M,10.00,M,OVC,M,M,M,6000.00,M,M,M,M,PANI 010245Z AUTO 35007KT 10SM OVC060 A2912 RMK MADISHF
PANI,2017-04-01 02:50,-159.5430,61.5816,M,M,M,340.00,7.00,M,29.12,M,10.00,M,FEW,OVC,M,M,4500.00,6000.00,M,M,M,PANI 010250Z AUTO 34007KT 10SM FEW045 OVC060 A2912 RMK MADISHF
PANI,2017-04-01 02:55,-159.5430,61.5816,M,M,M,350.00,8.00,M,29.12,M,10.00,M,FEW,OVC,M,M,4500.00,6000.00,M,M,M,PANI 010255Z AUTO 35008KT 10SM FEW045 OVC060 A2912 RMK MADISHF
PANI,2017-04-01 02:56,-159.5430,61.5816,28.40,21.20,74.08,350.00,7.00,0.00,29.12,M,10.00,M,FEW,OVC,M,M,4500.00,6000.00,M,M,M,PANI 010256Z AUTO 35007KT 10SM FEW045 OVC060 M02/M06 A2912 RMK AO1 57007
PANI,2017-04-01 03:00,-159.5430,61.5816,M,M,M,350.00,8.00,M,29.12,M,10.00,M,OVC,M,M,M,6000.00,M,M,M,M,PANI 010300Z AUTO 35008KT 10SM OVC060 A2912 RMK MADISHF
PANI,2017-04-01 03:05,-159.5430,61.5816,M,M,M,350.00,9.00,M,29.12,M,10.00,M,OVC,M,M,M,6000.00,M,M,M,M,PANI 010305Z AUTO 35009KT 10SM OVC060 A2912 RMK MADISHF
PANI,2017-04-01 03:10,-159.5430,61.5816,M,M,M,350.00,6.00,M,29.12,M,10.00,M,OVC,M,M,M,6000.00,M,M,M,M,PANI 010310Z AUTO 35006KT 10SM OVC060 A2912 RMK MADISHF
PANI,2017-04-01 03:15,-159.5430,61.5816,M,M,M,10.00,5.00,M,29.12,M,10.00,M,OVC,M,M,M,6000.00,M,M,M,M,PANI 010315Z AUTO 01005KT 10SM OVC060 A2912 RMK MADISHF
PANI,2017-04-01 03:16,-159.5430,61.5816,28.40,21.20,74.08,360.00,6.00,0.00,29.12,M,10.00,M,OVC,M,M,M,6000.00,M,M,M,M,PANI 010316Z AUTO 36006KT 10SM OVC060 M02/M06 A2912 RMK AO1
PANI,2017-04-01 03:20,-159.5430,61.5816,M,M,M,350.00,6.00,M,29.12,M,10.00,M,OVC,M,M,M,6000.00,M,M,M,M,PANI 010320Z AUTO 35006KT 10SM OVC060 A2912 RMK MADISHF
PANI,2017-04-01 03:25,-159.5430,61.5816,M,M,M,360.00,5.00,M,29.12,M,10.00,M,OVC,M,M,M,6000.00,M,M,M,M,PANI 010325Z AUTO 36005KT 10SM OVC060 A2912 RMK MADISHF
PANI,2017-04-01 03:30,-159.5430,61.5816,M,M,M,350.00,7.00,M,29.12,M,10.00,M,OVC,M,M,M,6000.00,M,M,M,M,PANI 010330Z AUTO 35007KT 10SM OVC060 A2912 RMK MADISHF
PANI,2017-04-01 03:35,-159.5430,61.5816,M,M,M,360.00,7.00,M,29.12,M,10.00,M,BKN,OVC,M,M,6000.00,7500.00,M,M,M,PANI 010335Z AUTO 36007KT 10SM BKN060 OVC075 A2912 RMK MADISHF
PANI,2017-04-01 03:36,-159.5430,61.5816,28.40,21.20,74.08,350.00,7.00,0.00,29.12,M,10.00,M,BKN,OVC,M,M,6000.00,7500.00,M,M,M,PANI 010336Z AUTO 35007KT 10SM BKN060 OVC075 M02/M06 A2912 RMK AO1
PANI,2017-04-01 03:40,-159.5430,61.5816,M,M,M,360.00,6.00,M,29.12,M,10.00,M,BKN,BKN,OVC,M,6000.00,7500.00,8500.00,M,M,PANI 010340Z AUTO 36006KT 10SM BKN060 BKN075 OVC085 A2912 RMK MADISHF
PANI,2017-04-01 03:45,-159.5430,61.5816,M,M,M,360.00,6.00,M,29.12,M,10.00,M,BKN,OVC,M,M,6000.00,8500.00,M,M,M,PANI 010345Z AUTO 36006KT 10SM BKN060 OVC085 A2912 RMK MADISHF
PANI,2017-04-01 03:50,-159.5430,61.5816,M,M,M,360.00,6.00,M,29.12,M,10.00,M,SCT,OVC,M,M,6000.00,8500.00,M,M,M,PANI 010350Z AUTO 36006KT 10SM SCT060 OVC085 A2912 RMK MADISHF
PANI,2017-04-01 03:55,-159.5430,61.5816,M,M,M,10.00,9.00,M,29.12,M,10.00,M,SCT,OVC,M,M,6000.00,8500.00,M,M,M,PANI 010355Z AUTO 01009KT 10SM SCT060 OVC085 A2912 RMK MADISHF
PANI,2017-04-01 03:56,-159.5430,61.5816,28.40,21.20,74.08,10.00,8.00,0.00,29.12,M,10.00,M,SCT,OVC,M,M,6000.00,8500.00,M,M,M,PANI 010356Z AUTO 01008KT 10SM SCT060 OVC085 M02/M06 A2912 RMK AO1
PANI,2017-04-01 04:00,-159.5430,61.5816,M,M,M,360.00,7.00,M,29.13,M,10.00,M,SCT,OVC,M,M,6000.00,8500.00,M,M,M,PANI 010400Z AUTO 36007KT 10SM SCT060 OVC085 A2913 RMK MADISHF
PANI,2017-04-01 04:05,-159.5430,61.5816,M,M,M,360.00,7.00,M,29.12,M,10.00,M,BKN,OVC,M,M,6000.00,8500.00,M,M,M,PANI 010405Z AUTO 36007KT 10SM BKN060 OVC085 A2912 RMK MADISHF
PANI,2017-04-01 04:10,-159.5430,61.5816,M,M,M,360.00,7.00,M,29.12,M,10.00,M,FEW,BKN,OVC,M,5000.00,6000.00,8500.00,M,M,PANI 010410Z AUTO 36007KT 10SM FEW050 BKN060 OVC085 A2912 RMK MADISHF
PANI,2017-04-01 04:15,-159.5430,61.5816,M,M,M,360.00,6.00,M,29.12,M,10.00,M,SCT,BKN,OVC,M,5000.00,6000.00,8500.00,M,M,PANI 010415Z AUTO 36006KT 10SM SCT050 BKN060 OVC085 A2912 RMK MADISHF
PANI,2017-04-01 04:16,-159.5430,61.5816,28.40,21.20,74.08,350.00,7.00,0.00,29.13,M,10.00,M,SCT,BKN,OVC,M,5000.00,6000.00,8500.00,M,M,PANI 010416Z AUTO 35007KT 10SM SCT050 BKN060 OVC085 M02/M06 A2913 RMK AO1
PANI,2017-04-01 04:20,-159.5430,61.5816,M,M,M,350.00,6.00,M,29.13,M,10.00,M,FEW,BKN,OVC,M,4100.00,5000.00,6000.00,M,M,PANI 010420Z AUTO 35006KT 10SM FEW041 BKN050 OVC060 A2913 RMK MADISHF
PANI,2017-04-01 04:25,-159.5430,61.5816,M,M,M,360.00,6.00,M,29.13,M,10.00,M,FEW,OVC,M,M,4100.00,6000.00,M,M,M,PANI 010425Z AUTO 36006KT 10SM FEW041 OVC060 A2913 RMK MADISHF
PANI,2017-04-01 04:30,-159.5430,61.5816,M,M,M,350.00,5.00,M,29.13,M,10.00,M,FEW,OVC,M,M,4100.00,6000.00,M,M,M,PANI 010430Z AUTO 35005KT 10SM FEW041 OVC060 A2913 RMK MADISHF
PANI,2017-04-01 04:35,-159.5430,61.5816,M,M,M,340.00,4.00,M,29.13,M,10.00,M,FEW,OVC,M,M,4100.00,6000.00,M,M,M,PANI 010435Z AUTO 34004KT 10SM FEW041 OVC060 A2913 RMK MADISHF
PANI,2017-04-01 04:36,-159.5430,61.5816,28.40,21.20,74.08,340.00,4.00,0.00,29.13,M,10.00,M,FEW,SCT,OVC,M,4100.00,5000.00,6000.00,M,M,PANI 010436Z AUTO 34004KT 10SM FEW041 SCT050 OVC060 M02/M06 A2913 RMK AO1
PANI,2017-04-01 04:40,-159.5430,61.5816,M,M,M,360.00,5.00,M,29.13,M,10.00,M,FEW,BKN,OVC,M,4100.00,6000.00,6500.00,M,M,PANI 010440Z AUTO 36005KT 10SM FEW041 BKN060 OVC065 A2913 RMK MADISHF
PANI,2017-04-01 04:45,-159.5430,61.5816,M,M,M,360.00,4.00,M,29.13,M,10.00,M,FEW,BKN,OVC,M,4100.00,6000.00,7500.00,M,M,PANI 010445Z AUTO 36004KT 10SM FEW041 BKN060 OVC075 A2913 RMK MADISHF
PANI,2017-04-01 04:50,-159.5430,61.5816,M,M,M,340.00,4.00,M,29.13,M,10.00,M,SCT,BKN,OVC,M,6000.00,6500.00,7500.00,M,M,PANI 010450Z AUTO 34004KT 10SM SCT060 BKN065 OVC075 A2913 RMK MADISHF
PANI,2017-04-01 04:55,-159.5430,61.5816,M,M,M,340.00,3.00,M,29.13,M,10.00,M,BKN,BKN,OVC,M,5000.00,6000.00,7500.00,M,M,PANI 010455Z AUTO 34003KT 10SM BKN050 BKN060 OVC075 A2913 RMK MADISHF
PANI,2017-04-01 04:56,-159.5430,61.5816,28.40,21.20,74.08,340.00,3.00,0.00,29.13,M,10.00,M,BKN,BKN,OVC,M,5000.00,6000.00,7500.00,M,M,PANI 010456Z AUTO 34003KT 10SM BKN050 BKN060 OVC075 M02/M06 A2913 RMK AO1
PANI,2017-04-01 05:00,-159.5430,61.5816,M,M,M,340.00,3.00,M,29.13,M,10.00,M,BKN,BKN,OVC,M,5000.00,6000.00,7500.00,M,M,PANI 010500Z AUTO 34003KT 10SM BKN050 BKN060 OVC075 A2913 RMK MADISHF
PANI,2017-04-01 05:05,-159.5430,61.5816,M,M,M,340.00,3.00,M,29.13,M,10.00,M,BKN,OVC,M,M,5000.00,7500.00,M,M,M,PANI 010505Z AUTO 34003KT 10SM BKN050 OVC075 A2913 RMK MADISHF
PANI,2017-04-01 05:10,-159.5430,61.5816,M,M,M,0.00,0.00,M,29.13,M,10.00,M,FEW,BKN,OVC,M,4400.00,5000.00,7500.00,M,M,PANI 010510Z AUTO 00000KT 10SM FEW044 BKN050 OVC075 A2913 RMK MADISHF
PANI,2017-04-01 05:15,-159.5430,61.5816,M,M,M,350.00,4.00,M,29.13,M,10.00,M,OVC,M,M,M,4800.00,M,M,M,M,PANI 010515Z AUTO 35004KT 10SM OVC048 A2913 RMK MADISHF
PANI,2017-04-01 05:16,-159.5430,61.5816,30.20,23.00,74.26,350.00,4.00,0.00,29.13,M,10.00,M,OVC,M,M,M,4800.00,M,M,M,M,PANI 010516Z AUTO 35004KT 10SM OVC048 M01/M05 A2913 RMK AO1
PANI,2017-04-01 05:20,-159.5430,61.5816,M,M,M,360.00,4.00,M,29.13,M,10.00,M,OVC,M,M,M,4800.00,M,M,M,M,PANI 010520Z AUTO 36004KT 10SM OVC048 A2913 RMK MADISHF
PANI,2017-04-01 05:25,-159.5430,61.5816,M,M,M,360.00,6.00,M,29.14,M,10.00,M,BKN,OVC,M,M,4800.00,6000.00,M,M,M,PANI 010525Z AUTO 36006KT 10SM BKN048 OVC060 A2914 RMK MADISHF
PANI,2017-04-01 05:30,-159.5430,61.5816,M,M,M,10.00,5.00,M,29.14,M,10.00,M,SCT,OVC,M,M,4600.00,6000.00,M,M,M,PANI 010530Z AUTO 01005KT 10SM SCT046 OVC060 A2914 RMK MADISHF
PANI,2017-04-01 05:35,-159.5430,61.5816,M,M,M,360.00,7.00,M,29.14,M,10.00,M,BKN,OVC,M,M,4600.00,6000.00,M,M,M,PANI 010535Z AUTO 36007KT 10SM BKN046 OVC060 A2914 RMK MADISHF
PANI,2017-04-01 05:36,-159.5430,61.5816,30.20,24.80,80.07,360.00,6.00,0.00,29.14,M,10.00,M,BKN,OVC,M,M,4600.00,6000.00,M,M,M,PANI 010536Z AUTO 36006KT 10SM BKN046 OVC060 M01/M04 A2914 RMK AO1
PANI,2017-04-01 05:40,-159.5430,61.5816,M,M,M,10.00,3.00,M,29.14,M,10.00,M,BKN,OVC,M,M,4600.00,6000.00,M,M,M,PANI 010540Z AUTO 01003KT 10SM BKN046 OVC060 A2914 RMK MADISHF
PANI,2017-04-01 05:45,-159.5430,61.5816,M,M,M,20.00,5.00,M,29.15,M,10.00,M,SCT,BKN,OVC,M,3999.00,4600.00,6000.00,M,M,PANI 010545Z AUTO 02005KT 10SM SCT039 BKN046 OVC060 A2915 RMK MADISHF
PANI,2017-04-01 05:50,-159.5430,61.5816,M,M,M,10.00,5.00,M,29.14,M,10.00,M,SCT,BKN,OVC,M,3800.00,4400.00,6000.00,M,M,PANI 010550Z AUTO 01005KT 10SM SCT038 BKN044 OVC060 A2914 RMK MADISHF
PANI,2017-04-01 05:55,-159.5430,61.5816,M,M,M,10.00,4.00,M,29.15,M,10.00,M,SCT,BKN,OVC,M,3999.00,4600.00,6000.00,M,M,PANI 010555Z AUTO 01004KT 10SM SCT039 BKN046 OVC060 A2915 RMK MADISHF
PANI,2017-04-01 05:56,-159.5430,61.5816,30.20,24.80,80.07,10.00,4.00,0.00,29.15,M,10.00,M,FEW,BKN,OVC,M,3800.00,4600.00,6000.00,M,M,PANI 010556Z AUTO 01004KT 10SM FEW038 BKN046 OVC060 M01/M04 A2915 RMK AO1 11010 21040 52010
PANI,2017-04-01 06:00,-159.5430,61.5816,M,M,M,360.00,5.00,M,29.15,M,10.00,M,SCT,OVC,M,M,3800.00,4600.00,M,M,M,PANI 010600Z AUTO 36005KT 10SM SCT038 OVC046 A2915 RMK MADISHF
PANI,2017-04-01 06:05,-159.5430,61.5816,M,M,M,10.00,4.00,M,29.15,M,10.00,M,BKN,OVC,M,M,3600.00,4600.00,M,M,M,PANI 010605Z AUTO 01004KT 10SM BKN036 OVC046 A2915 RMK MADISHF
PANI,2017-04-01 06:10,-159.5430,61.5816,M,M,M,360.00,6.00,M,29.15,M,10.00,M,BKN,OVC,M,M,3600.00,4600.00,M,M,M,PANI 010610Z AUTO 36006KT 10SM BKN036 OVC046 A2915 RMK MADISHF
PANI,2017-04-01 06:15,-159.5430,61.5816,M,M,M,360.00,5.00,M,29.15,M,10.00,M,BKN,OVC,M,M,3600.00,4600.00,M,M,M,PANI 010615Z AUTO 36005KT 10SM BKN036 OVC046 A2915 RMK MADISHF
PANI,2017-04-01 06:16,-159.5430,61.5816,30.20,24.80,80.07,10.00,5.00,0.00,29.15,M,10.00,M,BKN,OVC,M,M,3600.00,4600.00,M,M,M,PANI 010616Z AUTO 01005KT 10SM BKN036 OVC046 M01/M04 A2915 RMK AO1
PANI,2017-04-01 06:20,-159.5430,61.5816,M,M,M,360.00,5.00,M,29.15,M,10.00,M,BKN,OVC,M,M,3600.00,4600.00,M,M,M,PANI 010620Z AUTO 36005KT 10SM BKN036 OVC046 A2915 RMK MADISHF
PANI,2017-04-01 06:25,-159.5430,61.5816,M,M,M,10.00,4.00,M,29.15,M,10.00,M,BKN,OVC,M,M,3800.00,4400.00,M,M,M,PANI 010625Z AUTO 01004KT 10SM BKN038 OVC044 A2915 RMK MADISHF
PANI,2017-04-01 06:30,-159.5430,61.5816,M,M,M,10.00,5.00,M,29.16,M,10.00,M,FEW,BKN,OVC,M,2800.00,3600.00,4400.00,M,M,PANI 010630Z AUTO 01005KT 10SM FEW028 BKN036 OVC044 A2916 RMK MADISHF
PANI,2017-04-01 06:35,-159.5430,61.5816,M,M,M,350.00,5.00,M,29.16,M,7.00,M,BKN,OVC,M,M,3300.00,4200.00,M,M,M,PANI 010635Z AUTO 35005KT 7SM BKN033 OVC042 A2916 RMK MADISHF
PANI,2017-04-01 06:36,-159.5430,61.5816,30.20,24.80,80.07,350.00,5.00,0.00,29.16,M,7.00,M,BKN,OVC,M,M,3300.00,4200.00,M,M,M,PANI 010636Z AUTO 35005KT 7SM BKN033 OVC042 M01/M04 A2916 RMK AO1
PANI,2017-04-01 06:40,-159.5430,61.5816,M,M,M,10.00,5.00,M,29.16,M,6.00,M,BKN,OVC,M,M,3300.00,4400.00,M,M,M,PANI 010640Z AUTO 01005KT 6SM BKN033 OVC044 A2916 RMK MADISHF
PANI,2017-04-01 06:45,-159.5430,61.5816,M,M,M,10.00,4.00,M,29.16,M,7.00,M,FEW,BKN,OVC,M,2800.00,3500.00,4400.00,M,M,PANI 010645Z AUTO 01004KT 7SM FEW028 BKN035 OVC044 A2916 RMK MADISHF
PANI,2017-04-01 06:50,-159.5430,61.5816,M,M,M,10.00,5.00,M,29.16,M,7.00,M,FEW,BKN,OVC,M,2800.00,3500.00,4200.00,M,M,PANI 010650Z AUTO 01005KT 7SM FEW028 BKN035 OVC042 A2916 RMK MADISHF
PANI,2017-04-01 06:55,-159.5430,61.5816,M,M,M,10.00,3.00,M,29.16,M,6.00,M,BKN,OVC,M,M,3300.00,4200.00,M,M,M,PANI 010655Z AUTO 01003KT 6SM BKN033 OVC042 A2916 RMK MADISHF
PANI,2017-04-01 06:56,-159.5430,61.5816,30.20,26.60,86.28,360.00,4.00,0.00,29.16,M,6.00,M,BKN,OVC,M,M,3300.00,4200.00,M,M,M,PANI 010656Z AUTO 36004KT 6SM BKN033 OVC042 M01/M03 A2916 RMK AO1
PANI,2017-04-01 07:00,-159.5430,61.5816,M,M,M,360.00,3.00,M,29.16,M,5.00,M,BKN,OVC,M,M,3100.00,3800.00,M,M,M,PANI 010700Z AUTO 36003KT 5SM BKN031 OVC038 A2916 RMK MADISHF
PANI,2017-04-01 07:05,-159.5430,61.5816,M,M,M,0.00,0.00,M,29.16,M,4.00,M,BKN,OVC,M,M,3100.00,3800.00,M,M,M,PANI 010705Z AUTO 00000KT 4SM BKN031 OVC038 A2916 RMK MADISHF
PANI,2017-04-01 07:10,-159.5430,61.5816,M,M,M,350.00,4.00,M,29.17,M,3.00,M,OVC,M,M,M,3100.00,M,M,M,M,PANI 010710Z AUTO 35004KT 3SM OVC031 A2917 RMK MADISHF
PANI,2017-04-01 07:15,-159.5430,61.5816,M,M,M,360.00,3.00,M,29.16,M,4.00,M,OVC,M,M,M,3100.00,M,M,M,M,PANI 010715Z AUTO 36003KT 4SM OVC031 A2916 RMK MADISHF
PANI,2017-04-01 07:16,-159.5430,61.5816,30.20,26.60,86.28,360.00,3.00,0.00,29.16,M,3.00,M,OVC,M,M,M,3100.00,M,M,M,M,PANI 010716Z AUTO 36003KT 3SM OVC031 M01/M03 A2916 RMK AO1
PANI,2017-04-01 07:20,-159.5430,61.5816,M,M,M,0.00,0.00,M,29.16,M,3.00,M,OVC,M,M,M,3100.00,M,M,M,M,PANI 010720Z AUTO 00000KT 3SM OVC031 A2916 RMK MADISHF
PANI,2017-04-01 07:25,-159.5430,61.5816,M,M,M,20.00,3.00,M,29.16,M,3.00,M,OVC,M,M,M,2900.00,M,M,M,M,PANI 010725Z AUTO 02003KT 3SM OVC029 A2916 RMK MADISHF
PANI,2017-04-01 07:30,-159.5430,61.5816,M,M,M,10.00,3.00,M,29.17,M,3.00,M,BKN,OVC,M,M,2900.00,3999.00,M,M,M,PANI 010730Z AUTO 01003KT 3SM BKN029 OVC039 A2917 RMK MADISHF
PANI,2017-04-01 07:35,-159.5430,61.5816,M,M,M,10.00,4.00,M,29.17,M,5.00,M,BKN,OVC,M,M,2900.00,3999.00,M,M,M,PANI 010735Z AUTO 01004KT 5SM BKN029 OVC039 A2917 RMK MADISHF
PANI,2017-04-01 07:36,-159.5430,61.5816,30.20,28.40,92.92,10.00,3.00,0.01,29.17,M,5.00,M,BKN,OVC,M,M,2900.00,4000.00,M,M,M,PANI 010736Z AUTO 01003KT 5SM BKN029 OVC040 M01/M02 A2917 RMK AO1 P0001
PANI,2017-04-01 07:40,-159.5430,61.5816,M,M,M,10.00,4.00,M,29.17,M,5.00,M,BKN,OVC,M,M,2900.00,4200.00,M,M,M,PANI 010740Z AUTO 01004KT 5SM BKN029 OVC042 A2917 RMK MADISHF
PANI,2017-04-01 07:45,-159.5430,61.5816,M,M,M,30.00,3.00,M,29.17,M,4.00,M,BKN,OVC,M,M,2900.00,4100.00,M,M,M,PANI 010745Z AUTO 03003KT 4SM BKN029 OVC041 A2917 RMK MADISHF
PANI,2017-04-01 07:50,-159.5430,61.5816,M,M,M,20.00,3.00,M,29.18,M,3.00,M,OVC,M,M,M,2900.00,M,M,M,M,PANI 010750Z AUTO 02003KT 3SM OVC029 A2918 RMK MADISHF
PANI,2017-04-01 07:55,-159.5430,61.5816,M,M,M,10.00,5.00,M,29.17,M,3.00,M,OVC,M,M,M,2900.00,M,M,M,M,PANI 010755Z AUTO 01005KT 3SM OVC029 A2917 RMK MADISHF
PANI,2017-04-01 07:56,-159.5430,61.5816,30.20,28.40,92.92,10.00,5.00,0.01,29.17,M,3.00,M,OVC,M,M,M,2900.00,M,M,M,M,PANI 010756Z AUTO 01005KT 3SM OVC029 M01/M02 A2917 RMK AO1 P0001
PANI,2017-04-01 08:00,-159.5430,61.5816,M,M,M,20.00,3.00,M,29.18,M,3.00,M,OVC,M,M,M,2900.00,M,M,M,M,PANI 010800Z AUTO 02003KT 3SM OVC029 A2918 RMK MADISHF
PANI,2017-04-01 08:05,-159.5430,61.5816,M,M,M,10.00,3.00,M,29.18,M,4.00,M,BKN,OVC,M,M,2900.00,3500.00,M,M,M,PANI 010805Z AUTO 01003KT 4SM BKN029 OVC035 A2918 RMK MADISHF
PANI,2017-04-01 08:10,-159.5430,61.5816,M,M,M,20.00,4.00,M,29.18,M,5.00,M,FEW,OVC,M,M,1500.00,3100.00,M,M,M,PANI 010810Z AUTO 02004KT 5SM FEW015 OVC031 A2918 RMK MADISHF
PANI,2017-04-01 08:15,-159.5430,61.5816,M,M,M,20.00,5.00,M,29.18,M,5.00,M,OVC,M,M,M,3100.00,M,M,M,M,PANI 010815Z AUTO 02005KT 5SM OVC031 A2918 RMK MADISHF
PANI,2017-04-01 08:16,-159.5430,61.5816,30.20,28.40,92.92,20.00,4.00,0.00,29.18,M,5.00,M,OVC,M,M,M,3100.00,M,M,M,M,PANI 010816Z AUTO 02004KT 5SM OVC031 M01/M02 A2918 RMK AO1
PANI,2017-04-01 08:20,-159.5430,61.5816,M,M,M,10.00,3.00,M,29.18,M,5.00,M,BKN,OVC,M,M,3100.00,3800.00,M,M,M,PANI 010820Z AUTO 01003KT 5SM BKN031 OVC038 A2918 RMK MADISHF
PANI,2017-04-01 08:25,-159.5430,61.5816,M,M,M,10.00,3.00,M,29.18,M,6.00,M,OVC,M,M,M,3399.00,M,M,M,M,PANI 010825Z AUTO 01003KT 6SM OVC033 A2918 RMK MADISHF
PANI,2017-04-01 08:30,-159.5430,61.5816,M,M,M,10.00,4.00,M,29.18,M,7.00,M,OVC,M,M,M,3399.00,M,M,M,M,PANI 010830Z AUTO 01004KT 7SM OVC033 A2918 RMK MADISHF
PANI,2017-04-01 08:35,-159.5430,61.5816,M,M,M,10.00,4.00,M,29.18,M,7.00,M,BKN,OVC,M,M,3399.00,3999.00,M,M,M,PANI 010835Z AUTO 01004KT 7SM BKN033 OVC039 A2918 RMK MADISHF
PANI,2017-04-01 08:36,-159.5430,61.5816,32.00,28.40,86.39,10.00,4.00,0.01,29.18,M,7.00,M,BKN,OVC,M,M,3400.00,4200.00,M,M,M,PANI 010836Z AUTO 01004KT 7SM BKN034 OVC042 00/M02 A2918 RMK AO1 P0001
PANI,2017-04-01 08:40,-159.5430,61.5816,M,M,M,10.00,5.00,M,29.18,M,8.00,M,SCT,BKN,OVC,M,3399.00,4200.00,5000.00,M,M,PANI 010840Z AUTO 01005KT 8SM SCT033 BKN042 OVC050 A2918 RMK MADISHF
PANI,2017-04-01 08:45,-159.5430,61.5816,M,M,M,360.00,4.00,M,29.18,M,10.00,M,SCT,SCT,OVC,M,3399.00,3999.00,4800.00,M,M,PANI 010845Z AUTO 36004KT 10SM SCT033 SCT039 OVC048 A2918 RMK MADISHF
PANI,2017-04-01 08:50,-159.5430,61.5816,M,M,M,20.00,5.00,M,29.18,M,10.00,M,FEW,SCT,OVC,M,3399.00,3999.00,4800.00,M,M,PANI 010850Z AUTO 02005KT 10SM FEW033 SCT039 OVC048 A2918 RMK MADISHF
PANI,2017-04-01 08:55,-159.5430,61.5816,M,M,M,10.00,3.00,M,29.18,M,10.00,M,FEW,OVC,M,M,3600.00,4600.00,M,M,M,PANI 010855Z AUTO 01003KT 10SM FEW036 OVC046 A2918 RMK MADISHF
PANI,2017-04-01 08:56,-159.5430,61.5816,30.20,28.40,92.92,10.00,3.00,0.01,29.18,M,10.00,M,FEW,OVC,M,M,3600.00,4600.00,M,M,M,PANI 010856Z AUTO 01003KT 10SM FEW036 OVC046 M01/M02 A2918 RMK AO1 P0001 60002 52010
PANI,2017-04-01 09:00,-159.5430,61.5816,M,M,M,10.00,6.00,M,29.19,M,10.00,M,BKN,OVC,M,M,4600.00,5000.00,M,M,M,PANI 010900Z AUTO 01006KT 10SM BKN046 OVC050 A2919 RMK MADISHF
PANI,2017-04-01 09:05,-159.5430,61.5816,M,M,M,10.00,6.00,M,29.19,M,10.00,M,BKN,OVC,M,M,4600.00,5000.00,M,M,M,PANI 010905Z AUTO 01006KT 10SM BKN046 OVC050 A2919 RMK MADISHF
PANI,2017-04-01 09:10,-159.5430,61.5816,M,M,M,10.00,6.00,M,29.19,M,10.00,M,SCT,OVC,M,M,4300.00,5000.00,M,M,M,PANI 010910Z AUTO 01006KT 10SM SCT043 OVC050 A2919 RMK MADISHF
PANI,2017-04-01 09:15,-159.5430,61.5816,M,M,M,20.00,4.00,M,29.19,M,10.00,M,BKN,OVC,M,M,4300.00,5000.00,M,M,M,PANI 010915Z AUTO 02004KT 10SM BKN043 OVC050 A2919 RMK MADISHF
PANI,2017-04-01 09:16,-159.5430,61.5816,32.00,28.40,86.39,20.00,4.00,0.00,29.19,M,10.00,M,BKN,OVC,M,M,4300.00,5000.00,M,M,M,PANI 010916Z AUTO 02004KT 10SM BKN043 OVC050 00/M02 A2919 RMK AO1
PANI,2017-04-01 09:20,-159.5430,61.5816,M,M,M,20.00,3.00,M,29.19,M,10.00,M,BKN,OVC,M,M,4100.00,5000.00,M,M,M,PANI 010920Z AUTO 02003KT 10SM BKN041 OVC050 A2919 RMK MADISHF
PANI,2017-04-01 09:25,-159.5430,61.5816,M,M,M,10.00,4.00,M,29.19,M,10.00,M,BKN,OVC,M,M,3900.00,5000.00,M,M,M,PANI 010925Z AUTO 01004KT 10SM BKN039 OVC050 A2919 RMK MADISHF
PANI,2017-04-01 09:30,-159.5430,61.5816,M,M,M,20.00,5.00,M,29.19,M,10.00,M,BKN,OVC,M,M,4100.00,5000.00,M,M,M,PANI 010930Z AUTO 02005KT 10SM BKN041 OVC050 A2919 RMK MADISHF
PANI,2017-04-01 09:35,-159.5430,61.5816,M,M,M,10.00,4.00,M,29.20,M,10.00,M,FEW,BKN,OVC,M,3700.00,4300.00,5000.00,M,M,PANI 010935Z AUTO 01004KT 10SM FEW037 BKN043 OVC050 A2920 RMK MADISHF
PANI,2017-04-01 09:36,-159.5430,61.5816,32.00,28.40,86.39,360.00,3.00,0.00,29.20,M,10.00,M,SCT,BKN,OVC,M,3700.00,4300.00,5000.00,M,M,PANI 010936Z AUTO 36003KT 10SM SCT037 BKN043 OVC050 00/M02 A2920 RMK AO1
PANI,2017-04-01 09:40,-159.5430,61.5816,M,M,M,360.00,4.00,M,29.20,M,10.00,M,BKN,OVC,M,M,4100.00,5000.00,M,M,M,PANI 010940Z AUTO 36004KT 10SM BKN041 OVC050 A2920 RMK MADISHF
PANI,2017-04-01 09:45,-159.5430,61.5816,M,M,M,10.00,4.00,M,29.20,M,10.00,M,OVC,M,M,M,4100.00,M,M,M,M,PANI 010945Z AUTO 01004KT 10SM OVC041 A2920 RMK MADISHF
PANI,2017-04-01 09:50,-159.5430,61.5816,M,M,M,360.00,5.00,M,29.20,M,10.00,M,OVC,M,M,M,4100.00,M,M,M,M,PANI 010950Z AUTO 36005KT 10SM OVC041 A2920 RMK MADISHF
PANI,2017-04-01 09:55,-159.5430,61.5816,M,M,M,10.00,4.00,M,29.20,M,10.00,M,OVC,M,M,M,4100.00,M,M,M,M,PANI 010955Z AUTO 01004KT 10SM OVC041 A2920 RMK MADISHF
PANI,2017-04-01 09:56,-159.5430,61.5816,32.00,26.60,80.22,10.00,4.00,0.00,29.20,M,10.00,M,OVC,M,M,M,4100.00,M,M,M,M,PANI 010956Z AUTO 01004KT 10SM OVC041 00/M03 A2920 RMK AO1
PANI,2017-04-01 10:00,-159.5430,61.5816,M,M,M,10.00,4.00,M,29.20,M,10.00,M,OVC,M,M,M,4100.00,M,M,M,M,PANI 011000Z AUTO 01004KT 10SM OVC041 A2920 RMK MADISHF
PANI,2017-04-01 10:05,-159.5430,61.5816,M,M,M,10.00,5.00,M,29.20,M,10.00,M,OVC,M,M,M,4100.00,M,M,M,M,PANI 011005Z AUTO 01005KT 10SM OVC041 A2920 RMK MADISHF
PANI,2017-04-01 10:10,-159.5430,61.5816,M,M,M,360.00,5.00,M,29.20,M,10.00,M,BKN,BKN,OVC,M,4100.00,4700.00,5500.00,M,M,PANI 011010Z AUTO 36005KT 10SM BKN041 BKN047 OVC055 A2920 RMK MADISHF
PANI,2017-04-01 10:15,-159.5430,61.5816,M,M,M,20.00,3.00,M,29.20,M,10.00,M,BKN,OVC,M,M,4300.00,5500.00,M,M,M,PANI 011015Z AUTO 02003KT 10SM BKN043 OVC055 A2920 RMK MADISHF
PANI,2017-04-01 10:16,-159.5430,61.5816,30.20,26.60,86.28,10.00,4.00,0.00,29.20,M,10.00,M,BKN,OVC,M,M,4300.00,5500.00,M,M,M,PANI 011016Z AUTO 01004KT 10SM BKN043 OVC055 M01/M03 A2920 RMK AO1
PANI,2017-04-01 10:20,-159.5430,61.5816,M,M,M,360.00,4.00,M,29.20,M,10.00,M,SCT,OVC,M,M,4100.00,5500.00,M,M,M,PANI 011020Z AUTO 36004KT 10SM SCT041 OVC055 A2920 RMK MADISHF
PANI,2017-04-01 10:25,-159.5430,61.5816,M,M,M,360.00,6.00,M,29.20,M,10.00,M,SCT,OVC,M,M,4300.00,5500.00,M,M,M,PANI 011025Z AUTO 36006KT 10SM SCT043 OVC055 A2920 RMK MADISHF
PANI,2017-04-01 10:30,-159.5430,61.5816,M,M,M,10.00,4.00,M,29.21,M,10.00,M,FEW,OVC,M,M,4300.00,5500.00,M,M,M,PANI 011030Z AUTO 01004KT 10SM FEW043 OVC055 A2921 RMK MADISHF
PANI,2017-04-01 10:35,-159.5430,61.5816,M,M,M,350.00,4.00,M,29.21,M,10.00,M,OVC,M,M,M,5500.00,M,M,M,M,PANI 011035Z AUTO 35004KT 10SM OVC055 A2921 RMK MADISHF
PANI,2017-04-01 10:36,-159.5430,61.5816,30.20,26.60,86.28,360.00,5.00,0.00,29.21,M,10.00,M,OVC,M,M,M,5000.00,M,M,M,M,PANI 011036Z AUTO 36005KT 10SM OVC050 M01/M03 A2921 RMK AO1
PANI,2017-04-01 10:40,-159.5430,61.5816,M,M,M,10.00,3.00,M,29.21,M,10.00,M,OVC,M,M,M,5000.00,M,M,M,M,PANI 011040Z AUTO 01003KT 10SM OVC050 A2921 RMK MADISHF
PANI,2017-04-01 10:45,-159.5430,61.5816,M,M,M,10.00,3.00,M,29.21,M,10.00,M,OVC,M,M,M,5000.00,M,M,M,M,PANI 011045Z AUTO 01003KT 10SM OVC050 A2921 RMK MADISHF
PANI,2017-04-01 10:50,-159.5430,61.5816,M,M,M,10.00,4.00,M,29.21,M,10.00,M,OVC,M,M,M,5000.00,M,M,M,M,PANI 011050Z AUTO 01004KT 10SM OVC050 A2921 RMK MADISHF
PANI,2017-04-01 10:55,-159.5430,61.5816,M,M,M,10.00,4.00,M,29.21,M,10.00,M,OVC,M,M,M,5000.00,M,M,M,M,PANI 011055Z AUTO 01004KT 10SM OVC050 A2921 RMK MADISHF
PANI,2017-04-01 10:56,-159.5430,61.5816,30.20,26.60,86.28,10.00,5.00,0.00,29.21,M,10.00,M,OVC,M,M,M,5000.00,M,M,M,M,PANI 011056Z AUTO 01005KT 10SM OVC050 M01/M03 A2921 RMK AO1
PANI,2017-04-01 11:00,-159.5430,61.5816,M,M,M,360.00,3.00,M,29.21,M,10.00,M,OVC,M,M,M,5000.00,M,M,M,M,PANI 011100Z AUTO 36003KT 10SM OVC050 A2921 RMK MADISHF
PANI,2017-04-01 11:05,-159.5430,61.5816,M,M,M,360.00,4.00,M,29.21,M,10.00,M,OVC,M,M,M,5000.00,M,M,M,M,PANI 011105Z AUTO 36004KT 10SM OVC050 A2921 RMK MADISHF
PANI,2017-04-01 11:10,-159.5430,61.5816,M,M,M,360.00,4.00,M,29.21,M,10.00,M,OVC,M,M,M,5000.00,M,M,M,M,PANI 011110Z AUTO 36004KT 10SM OVC050 A2921 RMK MADISHF
PANI,2017-04-01 11:15,-159.5430,61.5816,M,M,M,10.00,3.00,M,29.21,M,10.00,M,OVC,M,M,M,5000.00,M,M,M,M,PANI 011115Z AUTO 01003KT 10SM OVC050 A2921 RMK MADISHF
PANI,2017-04-01 11:16,-159.5430,61.5816,30.20,26.60,86.28,360.00,4.00,0.00,29.21,M,10.00,M,OVC,M,M,M,5000.00,M,M,M,M,PANI 011116Z AUTO 36004KT 10SM OVC050 M01/M03 A2921 RMK AO1
PANI,2017-04-01 11:20,-159.5430,61.5816,M,M,M,360.00,4.00,M,29.21,M,10.00,M,BKN,OVC,M,M,4800.00,5000.00,M,M,M,PANI 011120Z AUTO 36004KT 10SM BKN048 OVC050 A2921 RMK MADISHF
PANI,2017-04-01 11:25,-159.5430,61.5816,M,M,M,350.00,3.00,M,29.21,M,10.00,M,BKN,OVC,M,M,4800.00,5000.00,M,M,M,PANI 011125Z AUTO 35003KT 10SM BKN048 OVC050 A2921 RMK MADISHF
PANI,2017-04-01 11:30,-159.5430,61.5816,M,M,M,360.00,3.00,M,29.21,M,10.00,M,BKN,OVC,M,M,4800.00,6000.00,M,M,M,PANI 011130Z AUTO 36003KT 10SM BKN048 OVC060 A2921 RMK MADISHF
PANI,2017-04-01 11:35,-159.5430,61.5816,M,M,M,350.00,4.00,M,29.21,M,10.00,M,OVC,M,M,M,5000.00,M,M,M,M,PANI 011135Z AUTO 35004KT 10SM OVC050 A2921 RMK MADISHF
PANI,2017-04-01 11:36,-159.5430,61.5816,30.20,26.60,86.28,360.00,3.00,0.00,29.21,M,10.00,M,OVC,M,M,M,5000.00,M,M,M,M,PANI 011136Z AUTO 36003KT 10SM OVC050 M01/M03 A2921 RMK AO1
PANI,2017-04-01 11:40,-159.5430,61.5816,M,M,M,360.00,4.00,M,29.21,M,10.00,M,OVC,M,M,M,5000.00,M,M,M,M,PANI 011140Z AUTO 36004KT 10SM OVC050 A2921 RMK MADISHF
PANI,2017-04-01 11:45,-159.5430,61.5816,M,M,M,10.00,3.00,M,29.22,M,10.00,M,OVC,M,M,M,5000.00,M,M,M,M,PANI 011145Z AUTO 01003KT 10SM OVC050 A2922 RMK MADISHF
PANI,2017-04-01 11:50,-159.5430,61.5816,M,M,M,10.00,3.00,M,29.22,M,10.00,M,OVC,M,M,M,5000.00,M,M,M,M,PANI 011150Z AUTO 01003KT 10SM OVC050 A2922 RMK MADISHF
PANI,2017-04-01 11:55,-159.5430,61.5816,M,M,M,360.00,4.00,M,29.22,M,10.00,M,OVC,M,M,M,5000.00,M,M,M,M,PANI 011155Z AUTO 36004KT 10SM OVC050 A2922 RMK MADISHF
PANI,2017-04-01 11:56,-159.5430,61.5816,30.20,26.60,86.28,360.00,4.00,0.00,29.22,M,10.00,M,OVC,M,M,M,5000.00,M,M,M,M,PANI 011156Z AUTO 36004KT 10SM OVC050 M01/M03 A2922 RMK AO1 60002 70003 10000 21010 52014
PANI,2017-04-01 12:00,-159.5430,61.5816,M,M,M,360.00,5.00,M,29.22,M,10.00,M,FEW,OVC,M,M,4400.00,5000.00,M,M,M,PANI 011200Z AUTO 36005KT 10SM FEW044 OVC050 A2922 RMK MADISHF
PANI,2017-04-01 12:05,-159.5430,61.5816,M,M,M,360.00,4.00,M,29.22,M,10.00,M,SCT,OVC,M,M,4400.00,5000.00,M,M,M,PANI 011205Z AUTO 36004KT 10SM SCT044 OVC050 A2922 RMK MADISHF
PANI,2017-04-01 12:10,-159.5430,61.5816,M,M,M,10.00,3.00,M,29.22,M,10.00,M,SCT,OVC,M,M,4400.00,5000.00,M,M,M,PANI 011210Z AUTO 01003KT 10SM SCT044 OVC050 A2922 RMK MADISHF
PANI,2017-04-01 12:15,-159.5430,61.5816,M,M,M,20.00,3.00,M,29.22,M,10.00,M,FEW,OVC,M,M,4200.00,5000.00,M,M,M,PANI 011215Z AUTO 02003KT 10SM FEW042 OVC050 A2922 RMK MADISHF
PANI,2017-04-01 12:16,-159.5430,61.5816,30.20,26.60,86.28,0.00,0.00,0.00,29.22,M,10.00,M,SCT,OVC,M,M,4400.00,5000.00,M,M,M,PANI 011216Z AUTO 00000KT 10SM SCT044 OVC050 M01/M03 A2922 RMK AO1
PANI,2017-04-01 12:20,-159.5430,61.5816,M,M,M,0.00,0.00,M,29.23,M,10.00,M,FEW,OVC,M,M,4200.00,5000.00,M,M,M,PANI 011220Z AUTO 00000KT 10SM FEW042 OVC050 A2923 RMK MADISHF
PANI,2017-04-01 12:25,-159.5430,61.5816,M,M,M,360.00,3.00,M,29.22,M,10.00,M,OVC,M,M,M,5000.00,M,M,M,M,PANI 011225Z AUTO 36003KT 10SM OVC050 A2922 RMK MADISHF
PANI,2017-04-01 12:30,-159.5430,61.5816,M,M,M,0.00,0.00,M,29.22,M,10.00,M,FEW,OVC,M,M,4200.00,5000.00,M,M,M,PANI 011230Z AUTO 00000KT 10SM FEW042 OVC050 A2922 RMK MADISHF
PANI,2017-04-01 12:35,-159.5430,61.5816,M,M,M,20.00,4.00,M,29.23,M,10.00,M,OVC,M,M,M,5000.00,M,M,M,M,PANI 011235Z AUTO 02004KT 10SM OVC050 A2923 RMK MADISHF
PANI,2017-04-01 12:36,-159.5430,61.5816,30.20,26.60,86.28,20.00,4.00,0.00,29.23,M,10.00,M,OVC,M,M,M,5000.00,M,M,M,M,PANI 011236Z AUTO 02004KT 10SM OVC050 M01/M03 A2923 RMK AO1
PANI,2017-04-01 12:40,-159.5430,61.5816,M,M,M,0.00,0.00,M,29.22,M,10.00,M,OVC,M,M,M,5000.00,M,M,M,M,PANI 011240Z AUTO 00000KT 10SM OVC050 A2922 RMK MADISHF
PANI,2017-04-01 12:45,-159.5430,61.5816,M,M,M,0.00,0.00,M,29.23,M,10.00,M,BKN,OVC,M,M,4800.00,6000.00,M,M,M,PANI 011245Z AUTO 00000KT 10SM BKN048 OVC060 A2923 RMK MADISHF
PANI,2017-04-01 12:50,-159.5430,61.5816,M,M,M,350.00,4.00,M,29.23,M,10.00,M,BKN,OVC,M,M,5000.00,6500.00,M,M,M,PANI 011250Z AUTO 35004KT 10SM BKN050 OVC065 A2923 RMK MADISHF
PANI,2017-04-01 12:55,-159.5430,61.5816,M,M,M,350.00,4.00,M,29.23,M,10.00,M,SCT,BKN,OVC,M,4800.00,6000.00,7999.00,M,M,PANI 011255Z AUTO 35004KT 10SM SCT048 BKN060 OVC079 A2923 RMK MADISHF
PANI,2017-04-01 12:56,-159.5430,61.5816,30.20,26.60,86.28,350.00,3.00,0.00,29.23,M,10.00,M,SCT,BKN,OVC,M,4800.00,6000.00,8000.00,M,M,PANI 011256Z AUTO 35003KT 10SM SCT048 BKN060 OVC080 M01/M03 A2923 RMK AO1
PANI,2017-04-01 13:00,-159.5430,61.5816,M,M,M,0.00,0.00,M,29.23,M,10.00,M,FEW,SCT,BKN,M,4800.00,6000.00,7999.00,M,M,PANI 011300Z AUTO 00000KT 10SM FEW048 SCT060 BKN079 A2923 RMK MADISHF
PANI,2017-04-01 13:05,-159.5430,61.5816,M,M,M,0.00,0.00,M,29.23,M,10.00,M,SCT,BKN,OVC,M,5000.00,7999.00,9000.00,M,M,PANI 011305Z AUTO 00000KT 10SM SCT050 BKN079 OVC090 A2923 RMK MADISHF
PANI,2017-04-01 13:10,-159.5430,61.5816,M,M,M,0.00,0.00,M,29.23,M,10.00,M,FEW,SCT,BKN,M,5000.00,6500.00,7999.00,M,M,PANI 011310Z AUTO 00000KT 10SM FEW050 SCT065 BKN079 A2923 RMK MADISHF
PANI,2017-04-01 13:15,-159.5430,61.5816,M,M,M,0.00,0.00,M,29.23,M,10.00,M,FEW,SCT,BKN,M,6000.00,7999.00,9500.00,M,M,PANI 011315Z AUTO 00000KT 10SM FEW060 SCT079 BKN095 A2923 RMK MADISHF
PANI,2017-04-01 13:16,-159.5430,61.5816,30.20,26.60,86.28,0.00,0.00,0.00,29.23,M,10.00,M,FEW,SCT,BKN,M,5000.00,8000.00,9500.00,M,M,PANI 011316Z AUTO 00000KT 10SM FEW050 SCT080 BKN095 M01/M03 A2923 RMK AO1
PANI,2017-04-01 13:20,-159.5430,61.5816,M,M,M,10.00,3.00,M,29.23,M,10.00,M,FEW,BKN,BKN,M,7999.00,9500.00,12000.00,M,M,PANI 011320Z AUTO 01003KT 10SM FEW079 BKN095 BKN120 A2923 RMK MADISHF
PANI,2017-04-01 13:25,-159.5430,61.5816,M,M,M,20.00,3.00,M,29.23,M,10.00,M,FEW,BKN,BKN,M,7000.00,9500.00,12000.00,M,M,PANI 011325Z AUTO 02003KT 10SM FEW070 BKN095 BKN120 A2923 RMK MADISHF
PANI,2017-04-01 13:30,-159.5430,61.5816,M,M,M,10.00,3.00,M,29.24,M,10.00,M,BKN,BKN,M,M,9500.00,12000.00,M,M,M,PANI 011330Z AUTO 01003KT 10SM BKN095 BKN120 A2924 RMK MADISHF
PANI,2017-04-01 13:35,-159.5430,61.5816,M,M,M,0.00,0.00,M,29.24,M,10.00,M,FEW,BKN,M,M,3900.00,9500.00,M,M,M,PANI 011335Z AUTO 00000KT 10SM FEW039 BKN095 A2924 RMK MADISHF
PANI,2017-04-01 13:36,-159.5430,61.5816,30.20,26.60,86.28,10.00,3.00,0.00,29.24,M,10.00,M,FEW,BKN,M,M,3900.00,9500.00,M,M,M,PANI 011336Z AUTO 01003KT 10SM FEW039 BKN095 M01/M03 A2924 RMK AO1
PANI,2017-04-01 13:40,-159.5430,61.5816,M,M,M,0.00,0.00,M,29.24,M,10.00,M,SCT,BKN,BKN,M,4100.00,10000.00,12000.00,M,M,PANI 011340Z AUTO 00000KT 10SM SCT041 BKN100 BKN120 A2924 RMK MADISHF
PANI,2017-04-01 13:45,-159.5430,61.5816,M,M,M,10.00,4.00,M,29.24,M,10.00,M,SCT,BKN,OVC,M,4100.00,5000.00,10000.00,M,M,PANI 011345Z AUTO 01004KT 10SM SCT041 BKN050 OVC100 A2924 RMK MADISHF
PANI,2017-04-01 13:50,-159.5430,61.5816,M,M,M,20.00,3.00,M,29.24,M,10.00,M,FEW,BKN,OVC,M,4100.00,5000.00,10000.00,M,M,PANI 011350Z AUTO 02003KT 10SM FEW041 BKN050 OVC100 A2924 RMK MADISHF
PANI,2017-04-01 13:55,-159.5430,61.5816,M,M,M,0.00,0.00,M,29.24,M,10.00,M,FEW,BKN,OVC,M,4100.00,5000.00,11000.00,M,M,PANI 011355Z AUTO 00000KT 10SM FEW041 BKN050 OVC110 A2924 RMK MADISHF
PANI,2017-04-01 13:56,-159.5430,61.5816,30.20,26.60,86.28,0.00,0.00,0.00,29.24,M,10.00,M,FEW,BKN,OVC,M,4100.00,5000.00,11000.00,M,M,PANI 011356Z AUTO 00000KT 10SM FEW041 BKN050 OVC110 M01/M03 A2924 RMK AO1
PANI,2017-04-01 14:00,-159.5430,61.5816,M,M,M,0.00,0.00,M,29.24,M,10.00,M,FEW,BKN,OVC,M,4100.00,5000.00,11000.00,M,M,PANI 011400Z AUTO 00000KT 10SM FEW041 BKN050 OVC110 A2924 RMK MADISHF
PANI,2017-04-01 14:05,-159.5430,61.5816,M,M,M,30.00,3.00,M,29.24,M,10.00,M,FEW,BKN,M,M,4100.00,5000.00,M,M,M,PANI 011405Z AUTO 03003KT 10SM FEW041 BKN050 A2924 RMK MADISHF
PANI,2017-04-01 14:10,-159.5430,61.5816,M,M,M,30.00,3.00,M,29.24,M,10.00,M,FEW,BKN,M,M,3100.00,5000.00,M,M,M,PANI 011410Z AUTO 03003KT 10SM FEW031 BKN050 A2924 RMK MADISHF
PANI,2017-04-01 14:15,-159.5430,61.5816,M,M,M,30.00,3.00,M,29.24,M,10.00,M,FEW,BKN,M,M,3100.00,5000.00,M,M,M,PANI 011415Z AUTO 03003KT 10SM FEW031 BKN050 A2924 RMK MADISHF
PANI,2017-04-01 14:16,-159.5430,61.5816,30.20,26.60,86.28,0.00,0.00,0.00,29.24,M,10.00,M,FEW,BKN,M,M,3100.00,5000.00,M,M,M,PANI 011416Z AUTO 00000KT 10SM FEW031 BKN050 M01/M03 A2924 RMK AO1
PANI,2017-04-01 14:20,-159.5430,61.5816,M,M,M,0.00,0.00,M,29.24,M,10.00,M,FEW,BKN,BKN,M,3100.00,5000.00,12000.00,M,M,PANI 011420Z AUTO 00000KT 10SM FEW031 BKN050 BKN120 A2924 RMK MADISHF
PANI,2017-04-01 14:25,-159.5430,61.5816,M,M,M,0.00,0.00,M,29.25,M,10.00,M,FEW,BKN,BKN,M,3100.00,5000.00,12000.00,M,M,PANI 011425Z AUTO 00000KT 10SM FEW031 BKN050 BKN120 A2925 RMK MADISHF
PANI,2017-04-01 14:30,-159.5430,61.5816,M,M,M,30.00,3.00,M,29.25,M,10.00,M,FEW,BKN,BKN,M,3100.00,5000.00,12000.00,M,M,PANI 011430Z AUTO 03003KT 10SM FEW031 BKN050 BKN120 A2925 RMK MADISHF
PANI,2017-04-01 14:35,-159.5430,61.5816,M,M,M,0.00,0.00,M,29.25,M,10.00,M,FEW,BKN,OVC,M,3100.00,5000.00,12000.00,M,M,PANI 011435Z AUTO 00000KT 10SM FEW031 BKN050 OVC120 A2925 RMK MADISHF
PANI,2017-04-01 14:36,-159.5430,61.5816,30.20,26.60,86.28,10.00,3.00,0.00,29.25,M,10.00,M,FEW,BKN,OVC,M,3100.00,5000.00,12000.00,M,M,PANI 011436Z AUTO 01003KT 10SM FEW031 BKN050 OVC120 M01/M03 A2925 RMK AO1
PANI,2017-04-01 14:40,-159.5430,61.5816,M,M,M,0.00,0.00,M,29.25,M,10.00,M,OVC,M,M,M,6000.00,M,M,M,M,PANI 011440Z AUTO 00000KT 10SM OVC060 A2925 RMK MADISHF
PANI,2017-04-01 14:45,-159.5430,61.5816,M,M,M,0.00,0.00,M,29.25,M,10.00,M,OVC,M,M,M,6000.00,M,M,M,M,PANI 011445Z AUTO 00000KT 10SM OVC060 A2925 RMK MADISHF
PANI,2017-04-01 14:50,-159.5430,61.5816,M,M,M,0.00,0.00,M,29.25,M,10.00,M,OVC,M,M,M,6000.00,M,M,M,M,PANI 011450Z AUTO 00000KT 10SM OVC060 A2925 RMK MADISHF
PANI,2017-04-01 14:55,-159.5430,61.5816,M,M,M,0.00,0.00,M,29.25,M,10.00,M,BKN,OVC,M,M,6000.00,11000.00,M,M,M,PANI 011455Z AUTO 00000KT 10SM BKN060 OVC110 A2925 RMK MADISHF
PANI,2017-04-01 14:56,-159.5430,61.5816,30.20,26.60,86.28,0.00,0.00,0.00,29.25,M,10.00,M,BKN,OVC,M,M,6000.00,11000.00,M,M,M,PANI 011456Z AUTO 00000KT 10SM BKN060 OVC110 M01/M03 A2925 RMK AO1 52010
PANI,2017-04-01 15:00,-159.5430,61.5816,M,M,M,0.00,0.00,M,29.26,M,10.00,M,BKN,BKN,M,M,6000.00,11000.00,M,M,M,PANI 011500Z AUTO 00000KT 10SM BKN060 BKN110 A2926 RMK MADISHF
PANI,2017-04-01 15:05,-159.5430,61.5816,M,M,M,10.00,3.00,M,29.26,M,10.00,M,SCT,BKN,M,M,6000.00,12000.00,M,M,M,PANI 011505Z AUTO 01003KT 10SM SCT060 BKN120 A2926 RMK MADISHF
PANI,2017-04-01 15:10,-159.5430,61.5816,M,M,M,30.00,3.00,M,29.26,M,10.00,M,SCT,BKN,M,M,6000.00,12000.00,M,M,M,PANI 011510Z AUTO 03003KT 10SM SCT060 BKN120 A2926 RMK MADISHF
PANI,2017-04-01 15:15,-159.5430,61.5816,M,M,M,0.00,0.00,M,29.26,M,10.00,M,SCT,BKN,M,M,6000.00,11000.00,M,M,M,PANI 011515Z AUTO 00000KT 10SM SCT060 BKN110 A2926 RMK MADISHF
PANI,2017-04-01 15:16,-159.5430,61.5816,30.20,26.60,86.28,0.00,0.00,0.00,29.26,M,10.00,M,SCT,BKN,M,M,6000.00,11000.00,M,M,M,PANI 011516Z AUTO 00000KT 10SM SCT060 BKN110 M01/M03 A2926 RMK AO1
PANI,2017-04-01 15:20,-159.5430,61.5816,M,M,M,0.00,0.00,M,29.26,M,10.00,M,SCT,BKN,M,M,6000.00,11000.00,M,M,M,PANI 011520Z AUTO 00000KT 10SM SCT060 BKN110 A2926 RMK MADISHF
PANI,2017-04-01 15:25,-159.5430,61.5816,M,M,M,0.00,0.00,M,29.26,M,10.00,M,FEW,SCT,BKN,M,4200.00,6000.00,12000.00,M,M,PANI 011525Z AUTO 00000KT 10SM FEW042 SCT060 BKN120 A2926 RMK MADISHF
PANI,2017-04-01 15:30,-159.5430,61.5816,M,M,M,0.00,0.00,M,29.26,M,10.00,M,FEW,SCT,BKN,M,4200.00,6000.00,11000.00,M,M,PANI 011530Z AUTO 00000KT 10SM FEW042 SCT060 BKN110 A2926 RMK MADISHF
PANI,2017-04-01 15:35,-159.5430,61.5816,M,M,M,350.00,3.00,M,29.26,M,10.00,M,FEW,SCT,BKN,M,4200.00,6000.00,11000.00,M,M,PANI 011535Z AUTO 35003KT 10SM FEW042 SCT060 BKN110 A2926 RMK MADISHF
PANI,2017-04-01 15:36,-159.5430,61.5816,30.20,26.60,86.28,350.00,3.00,0.00,29.26,M,10.00,M,FEW,SCT,BKN,M,4200.00,6000.00,11000.00,M,M,PANI 011536Z AUTO 35003KT 10SM FEW042 SCT060 BKN110 M01/M03 A2926 RMK AO1
PANI,2017-04-01 15:40,-159.5430,61.5816,M,M,M,0.00,0.00,M,29.26,M,10.00,M,FEW,FEW,BKN,M,4200.00,6000.00,11000.00,M,M,PANI 011540Z AUTO 00000KT 10SM FEW042 FEW060 BKN110 A2926 RMK MADISHF
PANI,2017-04-01 15:45,-159.5430,61.5816,M,M,M,0.00,0.00,M,29.26,M,10.00,M,FEW,FEW,BKN,M,4200.00,6000.00,10000.00,M,M,PANI 011545Z AUTO 00000KT 10SM FEW042 FEW060 BKN100 A2926 RMK MADISHF
PANI,2017-04-01 15:50,-159.5430,61.5816,M,M,M,30.00,3.00,M,29.26,M,10.00,M,FEW,BKN,M,M,4200.00,10000.00,M,M,M,PANI 011550Z AUTO 03003KT 10SM FEW042 BKN100 A2926 RMK MADISHF
PANI,2017-04-01 15:55,-159.5430,61.5816,M,M,M,0.00,0.00,M,29.27,M,10.00,M,BKN,M,M,M,10000.00,M,M,M,M,PANI 011555Z AUTO 00000KT 10SM BKN100 A2927 RMK MADISHF
PANI,2017-04-01 15:56,-159.5430,61.5816,30.20,26.60,86.28,0.00,0.00,0.00,29.27,M,10.00,M,BKN,M,M,M,10000.00,M,M,M,M,PANI 011556Z AUTO 00000KT 10SM BKN100 M01/M03 A2927 RMK AO1
PANI,2017-04-01 16:00,-159.5430,61.5816,M,M,M,20.00,3.00,M,29.27,M,10.00,M,BKN,M,M,M,10000.00,M,M,M,M,PANI 011600Z AUTO 02003KT 10SM BKN100 A2927 RMK MADISHF
PANI,2017-04-01 16:05,-159.5430,61.5816,M,M,M,30.00,4.00,M,29.27,M,10.00,M,SCT,BKN,M,M,5500.00,10000.00,M,M,M,PANI 011605Z AUTO 03004KT 10SM SCT055 BKN100 A2927 RMK MADISHF
PANI,2017-04-01 16:10,-159.5430,61.5816,M,M,M,20.00,3.00,M,29.27,M,10.00,M,SCT,BKN,M,M,5500.00,10000.00,M,M,M,PANI 011610Z AUTO 02003KT 10SM SCT055 BKN100 A2927 RMK MADISHF
PANI,2017-04-01 16:15,-159.5430,61.5816,M,M,M,30.00,3.00,M,29.27,M,10.00,M,SCT,BKN,M,M,5000.00,9000.00,M,M,M,PANI 011615Z AUTO 03003KT 10SM SCT050 BKN090 A2927 RMK MADISHF
PANI,2017-04-01 16:16,-159.5430,61.5816,30.20,26.60,86.28,30.00,4.00,0.00,29.27,M,10.00,M,SCT,BKN,M,M,5000.00,9000.00,M,M,M,PANI 011616Z AUTO 03004KT 10SM SCT050 BKN090 M01/M03 A2927 RMK AO1
PANI,2017-04-01 16:20,-159.5430,61.5816,M,M,M,20.00,3.00,M,29.27,M,10.00,M,FEW,BKN,M,M,5000.00,9000.00,M,M,M,PANI 011620Z AUTO 02003KT 10SM FEW050 BKN090 A2927 RMK MADISHF
PANI,2017-04-01 16:25,-159.5430,61.5816,M,M,M,0.00,0.00,M,29.27,M,10.00,M,FEW,BKN,M,M,5000.00,9000.00,M,M,M,PANI 011625Z AUTO 00000KT 10SM FEW050 BKN090 A2927 RMK MADISHF
PANI,2017-04-01 16:30,-159.5430,61.5816,M,M,M,0.00,0.00,M,29.27,M,10.00,M,FEW,OVC,M,M,5000.00,9000.00,M,M,M,PANI 011630Z AUTO 00000KT 10SM FEW050 OVC090 A2927 RMK MADISHF
PANI,2017-04-01 16:35,-159.5430,61.5816,M,M,M,0.00,0.00,M,29.27,M,10.00,M,FEW,OVC,M,M,5000.00,9000.00,M,M,M,PANI 011635Z AUTO 00000KT 10SM FEW050 OVC090 A2927 RMK MADISHF
PANI,2017-04-01 16:36,-159.5430,61.5816,30.20,26.60,86.28,0.00,0.00,0.00,29.27,M,10.00,M,FEW,OVC,M,M,5000.00,9000.00,M,M,M,PANI 011636Z AUTO 00000KT 10SM FEW050 OVC090 M01/M03 A2927 RMK AO1
PANI,2017-04-01 16:40,-159.5430,61.5816,M,M,M,0.00,0.00,M,29.27,M,10.00,M,OVC,M,M,M,9000.00,M,M,M,M,PANI 011640Z AUTO 00000KT 10SM OVC090 A2927 RMK MADISHF
PANI,2017-04-01 16:45,-159.5430,61.5816,M,M,M,30.00,3.00,M,29.28,M,10.00,M,OVC,M,M,M,9000.00,M,M,M,M,PANI 011645Z AUTO 03003KT 10SM OVC090 A2928 RMK MADISHF
PANI,2017-04-01 16:50,-159.5430,61.5816,M,M,M,0.00,0.00,M,29.28,M,10.00,M,FEW,OVC,M,M,6500.00,9000.00,M,M,M,PANI 011650Z AUTO 00000KT 10SM FEW065 OVC090 A2928 RMK MADISHF
PANI,2017-04-01 16:55,-159.5430,61.5816,M,M,M,0.00,0.00,M,29.28,M,10.00,M,SCT,OVC,M,M,6500.00,9000.00,M,M,M,PANI 011655Z AUTO 00000KT 10SM SCT065 OVC090 A2928 RMK MADISHF
PANI,2017-04-01 16:56,-159.5430,61.5816,30.20,26.60,86.28,0.00,0.00,0.00,29.28,M,10.00,M,SCT,OVC,M,M,6500.00,9000.00,M,M,M,PANI 011656Z AUTO 00000KT 10SM SCT065 OVC090 M01/M03 A2928 RMK AO1
PANI,2017-04-01 17:00,-159.5430,61.5816,M,M,M,0.00,0.00,M,29.29,M,10.00,M,SCT,OVC,M,M,6500.00,9000.00,M,M,M,PANI 011700Z AUTO 00000KT 10SM SCT065 OVC090 A2929 RMK MADISHF
PANI,2017-04-01 17:05,-159.5430,61.5816,M,M,M,0.00,0.00,M,29.28,M,10.00,M,FEW,OVC,M,M,6500.00,9000.00,M,M,M,PANI 011705Z AUTO 00000KT 10SM FEW065 OVC090 A2928 RMK MADISHF
PANI,2017-04-01 17:10,-159.5430,61.5816,M,M,M,30.00,3.00,M,29.29,M,10.00,M,FEW,OVC,M,M,6500.00,9000.00,M,M,M,PANI 011710Z AUTO 03003KT 10SM FEW065 OVC090 A2929 RMK MADISHF
PANI,2017-04-01 17:15,-159.5430,61.5816,M,M,M,0.00,0.00,M,29.29,M,10.00,M,FEW,OVC,M,M,6500.00,7999.00,M,M,M,PANI 011715Z AUTO 00000KT 10SM FEW065 OVC079 A2929 RMK MADISHF
PANI,2017-04-01 17:16,-159.5430,61.5816,30.20,26.60,86.28,0.00,0.00,0.00,29.29,M,10.00,M,FEW,OVC,M,M,6500.00,8000.00,M,M,M,PANI 011716Z AUTO 00000KT 10SM FEW065 OVC080 M01/M03 A2929 RMK AO1
PANI,2017-04-01 17:20,-159.5430,61.5816,M,M,M,0.00,0.00,M,29.29,M,10.00,M,FEW,OVC,M,M,6500.00,7999.00,M,M,M,PANI 011720Z AUTO 00000KT 10SM FEW065 OVC079 A2929 RMK MADISHF
PANI,2017-04-01 17:25,-159.5430,61.5816,M,M,M,0.00,0.00,M,29.29,M,10.00,M,OVC,M,M,M,7999.00,M,M,M,M,PANI 011725Z AUTO 00000KT 10SM OVC079 A2929 RMK MADISHF
PANI,2017-04-01 17:30,-159.5430,61.5816,M,M,M,0.00,0.00,M,29.29,M,10.00,M,OVC,M,M,M,7999.00,M,M,M,M,PANI 011730Z AUTO 00000KT 10SM OVC079 A2929 RMK MADISHF
PANI,2017-04-01 17:35,-159.5430,61.5816,M,M,M,0.00,0.00,M,29.29,M,10.00,M,FEW,OVC,M,M,4400.00,7999.00,M,M,M,PANI 011735Z AUTO 00000KT 10SM FEW044 OVC079 A2929 RMK MADISHF
PANI,2017-04-01 17:36,-159.5430,61.5816,30.20,26.60,86.28,0.00,0.00,0.00,29.29,M,10.00,M,FEW,OVC,M,M,4400.00,8000.00,M,M,M,PANI 011736Z AUTO 00000KT 10SM FEW044 OVC080 M01/M03 A2929 RMK AO1
PANI,2017-04-01 17:40,-159.5430,61.5816,M,M,M,0.00,0.00,M,29.30,M,10.00,M,FEW,SCT,OVC,M,4200.00,5500.00,7999.00,M,M,PANI 011740Z AUTO 00000KT 10SM FEW042 SCT055 OVC079 A2930 RMK MADISHF
PANI,2017-04-01 17:45,-159.5430,61.5816,M,M,M,0.00,0.00,M,29.30,M,10.00,M,FEW,FEW,OVC,M,4200.00,5500.00,7999.00,M,M,PANI 011745Z AUTO 00000KT 10SM FEW042 FEW055 OVC079 A2930 RMK MADISHF
PANI,2017-04-01 17:50,-159.5430,61.5816,M,M,M,0.00,0.00,M,29.30,M,10.00,M,FEW,FEW,OVC,M,4200.00,5500.00,7999.00,M,M,PANI 011750Z AUTO 00000KT 10SM FEW042 FEW055 OVC079 A2930 RMK MADISHF
PANI,2017-04-01 17:55,-159.5430,61.5816,M,M,M,0.00,0.00,M,29.30,M,10.00,M,FEW,SCT,OVC,M,4200.00,5500.00,7999.00,M,M,PANI 011755Z AUTO 00000KT 10SM FEW042 SCT055 OVC079 A2930 RMK MADISHF
PANI,2017-04-01 17:56,-159.5430,61.5816,30.20,26.60,86.28,0.00,0.00,0.00,29.30,M,10.00,M,FEW,SCT,OVC,M,4200.00,5500.00,8000.00,M,M,PANI 011756Z AUTO 00000KT 10SM FEW042 SCT055 OVC080 M01/M03 A2930 RMK AO1 11010 21010 52017
PANI,2017-04-01 18:00,-159.5430,61.5816,M,M,M,0.00,0.00,M,29.30,M,10.00,M,FEW,BKN,OVC,M,4200.00,5500.00,7999.00,M,M,PANI 011800Z AUTO 00000KT 10SM FEW042 BKN055 OVC079 A2930 RMK MADISHF
PANI,2017-04-01 18:05,-159.5430,61.5816,M,M,M,0.00,0.00,M,29.31,M,10.00,M,BKN,OVC,M,M,5500.00,7999.00,M,M,M,PANI 011805Z AUTO 00000KT 10SM BKN055 OVC079 A2931 RMK MADISHF
PANI,2017-04-01 18:10,-159.5430,61.5816,M,M,M,30.00,3.00,M,29.31,M,10.00,M,BKN,OVC,M,M,5500.00,7999.00,M,M,M,PANI 011810Z AUTO 03003KT 10SM BKN055 OVC079 A2931 RMK MADISHF
PANI,2017-04-01 18:15,-159.5430,61.5816,M,M,M,0.00,0.00,M,29.31,M,10.00,M,BKN,BKN,OVC,M,5500.00,6500.00,7999.00,M,M,PANI 011815Z AUTO 00000KT 10SM BKN055 BKN065 OVC079 A2931 RMK MADISHF
PANI,2017-04-01 18:16,-159.5430,61.5816,30.20,26.60,86.28,0.00,0.00,0.00,29.31,M,10.00,M,BKN,OVC,M,M,5500.00,6500.00,M,M,M,PANI 011816Z AUTO 00000KT 10SM BKN055 OVC065 M01/M03 A2931 RMK AO1
PANI,2017-04-01 18:20,-159.5430,61.5816,M,M,M,30.00,3.00,M,29.31,M,10.00,M,OVC,M,M,M,5500.00,M,M,M,M,PANI 011820Z AUTO 03003KT 10SM OVC055 A2931 RMK MADISHF
PANI,2017-04-01 18:25,-159.5430,61.5816,M,M,M,0.00,0.00,M,29.31,M,10.00,M,OVC,M,M,M,5500.00,M,M,M,M,PANI 011825Z AUTO 00000KT 10SM OVC055 A2931 RMK MADISHF
PANI,2017-04-01 18:30,-159.5430,61.5816,M,M,M,0.00,0.00,M,29.31,M,10.00,M,OVC,M,M,M,5000.00,M,M,M,M,PANI 011830Z AUTO 00000KT 10SM OVC050 A2931 RMK MADISHF
PANI,2017-04-01 18:35,-159.5430,61.5816,M,M,M,0.00,0.00,M,29.31,M,9.00,M,OVC,M,M,M,5000.00,M,M,M,M,PANI 011835Z AUTO 00000KT 9SM OVC050 A2931 RMK MADISHF
PANI,2017-04-01 18:36,-159.5430,61.5816,30.20,28.40,92.92,0.00,0.00,0.00,29.31,M,9.00,M,OVC,M,M,M,5000.00,M,M,M,M,PANI 011836Z AUTO 00000KT 9SM OVC050 M01/M02 A2931 RMK AO1
PANI,2017-04-01 18:40,-159.5430,61.5816,M,M,M,0.00,0.00,M,29.31,M,9.00,M,OVC,M,M,M,5000.00,M,M,M,M,PANI 011840Z AUTO 00000KT 9SM OVC050 A2931 RMK MADISHF
PANI,2017-04-01 18:45,-159.5430,61.5816,M,M,M,0.00,0.00,M,29.31,M,10.00,M,SCT,OVC,M,M,4800.00,5000.00,M,M,M,PANI 011845Z AUTO 00000KT 10SM SCT048 OVC050 A2931 RMK MADISHF
PANI,2017-04-01 18:50,-159.5430,61.5816,M,M,M,0.00,0.00,M,29.32,M,10.00,M,OVC,M,M,M,5000.00,M,M,M,M,PANI 011850Z AUTO 00000KT 10SM OVC050 A2932 RMK MADISHF
PANI,2017-04-01 18:55,-159.5430,61.5816,M,M,M,0.00,0.00,M,29.32,M,10.00,M,OVC,M,M,M,5000.00,M,M,M,M,PANI 011855Z AUTO 00000KT 10SM OVC050 A2932 RMK MADISHF
PANI,2017-04-01 18:56,-159.5430,61.5816,30.20,28.40,92.92,0.00,0.00,0.00,29.32,M,10.00,M,OVC,M,M,M,5000.00,M,M,M,M,PANI 011856Z AUTO 00000KT 10SM OVC050 M01/M02 A2932 RMK AO1
PANI,2017-04-01 19:00,-159.5430,61.5816,M,M,M,0.00,0.00,M,29.32,M,10.00,M,SCT,OVC,M,M,4800.00,5000.00,M,M,M,PANI 011900Z AUTO 00000KT 10SM SCT048 OVC050 A2932 RMK MADISHF
PANI,2017-04-01 19:05,-159.5430,61.5816,M,M,M,0.00,0.00,M,29.32,M,10.00,M,FEW,OVC,M,M,4600.00,5000.00,M,M,M,PANI 011905Z AUTO 00000KT 10SM FEW046 OVC050 A2932 RMK MADISHF
PANI,2017-04-01 19:10,-159.5430,61.5816,M,M,M,0.00,0.00,M,29.32,M,10.00,M,OVC,M,M,M,5000.00,M,M,M,M,PANI 011910Z AUTO 00000KT 10SM OVC050 A2932 RMK MADISHF
PANI,2017-04-01 19:15,-159.5430,61.5816,M,M,M,0.00,0.00,M,29.32,M,10.00,M,OVC,M,M,M,5000.00,M,M,M,M,PANI 011915Z AUTO 00000KT 10SM OVC050 A2932 RMK MADISHF
PANI,2017-04-01 19:16,-159.5430,61.5816,32.00,28.40,86.39,0.00,0.00,0.00,29.32,M,10.00,M,OVC,M,M,M,5000.00,M,M,M,M,PANI 011916Z AUTO 00000KT 10SM OVC050 00/M02 A2932 RMK AO1
PANI,2017-04-01 19:20,-159.5430,61.5816,M,M,M,0.00,0.00,M,29.32,M,10.00,M,FEW,OVC,M,M,4600.00,6000.00,M,M,M,PANI 011920Z AUTO 00000KT 10SM FEW046 OVC060 A2932 RMK MADISHF
PANI,2017-04-01 19:25,-159.5430,61.5816,M,M,M,0.00,0.00,M,29.33,M,10.00,M,SCT,OVC,M,M,4900.00,6000.00,M,M,M,PANI 011925Z AUTO 00000KT 10SM SCT049 OVC060 A2933 RMK MADISHF
PANI,2017-04-01 19:30,-159.5430,61.5816,M,M,M,30.00,3.00,M,29.33,M,10.00,M,BKN,OVC,M,M,6000.00,6500.00,M,M,M,PANI 011930Z AUTO 03003KT 10SM BKN060 OVC065 A2933 RMK MADISHF
PANI,2017-04-01 19:35,-159.5430,61.5816,M,M,M,30.00,3.00,M,29.33,M,10.00,M,SCT,OVC,M,M,5000.00,7000.00,M,M,M,PANI 011935Z AUTO 03003KT 10SM SCT050 OVC070 A2933 RMK MADISHF
PANI,2017-04-01 19:36,-159.5430,61.5816,32.00,28.40,86.39,30.00,3.00,0.00,29.33,M,10.00,M,BKN,OVC,M,M,6000.00,7000.00,M,M,M,PANI 011936Z AUTO 03003KT 10SM BKN060 OVC070 00/M02 A2933 RMK AO1
PANI,2017-04-01 19:40,-159.5430,61.5816,M,M,M,30.00,3.00,M,29.33,M,10.00,M,OVC,M,M,M,6000.00,M,M,M,M,PANI 011940Z AUTO 03003KT 10SM OVC060 A2933 RMK MADISHF
PANI,2017-04-01 19:45,-159.5430,61.5816,M,M,M,0.00,0.00,M,29.34,M,10.00,M,OVC,M,M,M,6000.00,M,M,M,M,PANI 011945Z AUTO 00000KT 10SM OVC060 A2934 RMK MADISHF
PANI,2017-04-01 19:50,-159.5430,61.5816,M,M,M,0.00,0.00,M,29.34,M,10.00,M,BKN,OVC,M,M,6000.00,7000.00,M,M,M,PANI 011950Z AUTO 00000KT 10SM BKN060 OVC070 A2934 RMK MADISHF
PANI,2017-04-01 19:55,-159.5430,61.5816,M,M,M,30.00,3.00,M,29.34,M,10.00,M,BKN,OVC,M,M,6000.00,7000.00,M,M,M,PANI 011955Z AUTO 03003KT 10SM BKN060 OVC070 A2934 RMK MADISHF
PANI,2017-04-01 19:56,-159.5430,61.5816,32.00,28.40,86.39,30.00,3.00,0.00,29.34,M,10.00,M,BKN,OVC,M,M,6000.00,7000.00,M,M,M,PANI 011956Z AUTO 03003KT 10SM BKN060 OVC070 00/M02 A2934 RMK AO1
PANI,2017-04-01 20:00,-159.5430,61.5816,M,M,M,30.00,3.00,M,29.34,M,10.00,M,BKN,OVC,M,M,6000.00,7000.00,M,M,M,PANI 012000Z AUTO 03003KT 10SM BKN060 OVC070 A2934 RMK MADISHF
PANI,2017-04-01 20:05,-159.5430,61.5816,M,M,M,30.00,4.00,M,29.34,M,10.00,M,OVC,M,M,M,6000.00,M,M,M,M,PANI 012005Z AUTO 03004KT 10SM OVC060 A2934 RMK MADISHF
PANI,2017-04-01 20:10,-159.5430,61.5816,M,M,M,30.00,4.00,M,29.34,M,10.00,M,OVC,M,M,M,6000.00,M,M,M,M,PANI 012010Z AUTO 03004KT 10SM OVC060 A2934 RMK MADISHF
PANI,2017-04-01 20:15,-159.5430,61.5816,M,M,M,30.00,3.00,M,29.34,M,10.00,M,OVC,M,M,M,6000.00,M,M,M,M,PANI 012015Z AUTO 03003KT 10SM OVC060 A2934 RMK MADISHF
PANI,2017-04-01 20:16,-159.5430,61.5816,32.00,26.60,80.22,30.00,3.00,0.00,29.34,M,10.00,M,OVC,M,M,M,6000.00,M,M,M,M,PANI 012016Z AUTO 03003KT 10SM OVC060 00/M03 A2934 RMK AO1
PANI,2017-04-01 20:20,-159.5430,61.5816,M,M,M,30.00,3.00,M,29.34,M,10.00,M,OVC,M,M,M,6000.00,M,M,M,M,PANI 012020Z AUTO 03003KT 10SM OVC060 A2934 RMK MADISHF
PANI,2017-04-01 20:25,-159.5430,61.5816,M,M,M,30.00,3.00,M,29.34,M,10.00,M,OVC,M,M,M,6000.00,M,M,M,M,PANI 012025Z AUTO 03003KT 10SM OVC060 A2934 RMK MADISHF
PANI,2017-04-01 20:30,-159.5430,61.5816,M,M,M,0.00,0.00,M,29.34,M,10.00,M,OVC,M,M,M,6000.00,M,M,M,M,PANI 012030Z AUTO 00000KT 10SM OVC060 A2934 RMK MADISHF
PANI,2017-04-01 20:35,-159.5430,61.5816,M,M,M,30.00,3.00,M,29.35,M,10.00,M,OVC,M,M,M,6000.00,M,M,M,M,PANI 012035Z AUTO 03003KT 10SM OVC060 A2935 RMK MADISHF
PANI,2017-04-01 20:36,-159.5430,61.5816,33.80,26.60,74.63,30.00,3.00,0.00,29.35,M,10.00,M,OVC,M,M,M,6000.00,M,M,M,M,PANI 012036Z AUTO 03003KT 10SM OVC060 01/M03 A2935 RMK AO1
PANI,2017-04-01 20:40,-159.5430,61.5816,M,M,M,0.00,0.00,M,29.35,M,10.00,M,OVC,M,M,M,6000.00,M,M,M,M,PANI 012040Z AUTO 00000KT 10SM OVC060 A2935 RMK MADISHF
PANI,2017-04-01 20:45,-159.5430,61.5816,M,M,M,30.00,3.00,M,29.35,M,10.00,M,OVC,M,M,M,6000.00,M,M,M,M,PANI 012045Z AUTO 03003KT 10SM OVC060 A2935 RMK MADISHF
PANI,2017-04-01 20:50,-159.5430,61.5816,M,M,M,30.00,3.00,M,29.35,M,10.00,M,OVC,M,M,M,6000.00,M,M,M,M,PANI 012050Z AUTO 03003KT 10SM OVC060 A2935 RMK MADISHF
PANI,2017-04-01 20:55,-159.5430,61.5816,M,M,M,30.00,4.00,M,29.35,M,10.00,M,OVC,M,M,M,6000.00,M,M,M,M,PANI 012055Z AUTO 03004KT 10SM OVC060 A2935 RMK MADISHF
PANI,2017-04-01 20:56,-159.5430,61.5816,33.80,28.40,80.36,30.00,3.00,0.00,29.35,M,10.00,M,OVC,M,M,M,6000.00,M,M,M,M,PANI 012056Z AUTO 03003KT 10SM OVC060 01/M02 A2935 RMK AO1 52017
PANI,2017-04-01 21:00,-159.5430,61.5816,M,M,M,30.00,3.00,M,29.35,M,10.00,M,OVC,M,M,M,6000.00,M,M,M,M,PANI 012100Z AUTO 03003KT 10SM OVC060 A2935 RMK MADISHF
PANI,2017-04-01 21:05,-159.5430,61.5816,M,M,M,30.00,3.00,M,29.36,M,10.00,M,OVC,M,M,M,5000.00,M,M,M,M,PANI 012105Z AUTO 03003KT 10SM OVC050 A2936 RMK MADISHF
PANI,2017-04-01 21:10,-159.5430,61.5816,M,M,M,20.00,3.00,M,29.36,M,10.00,M,OVC,M,M,M,5000.00,M,M,M,M,PANI 012110Z AUTO 02003KT 10SM OVC050 A2936 RMK MADISHF
PANI,2017-04-01 21:15,-159.5430,61.5816,M,M,M,30.00,3.00,M,29.36,M,10.00,M,OVC,M,M,M,5000.00,M,M,M,M,PANI 012115Z AUTO 03003KT 10SM OVC050 A2936 RMK MADISHF
PANI,2017-04-01 21:16,-159.5430,61.5816,35.60,28.40,74.80,20.00,3.00,0.00,29.36,M,10.00,M,SCT,OVC,M,M,5000.00,5500.00,M,M,M,PANI 012116Z AUTO 02003KT 10SM SCT050 OVC055 02/M02 A2936 RMK AO1
PANI,2017-04-01 21:20,-159.5430,61.5816,M,M,M,30.00,3.00,M,29.36,M,10.00,M,OVC,M,M,M,6000.00,M,M,M,M,PANI 012120Z AUTO 03003KT 10SM OVC060 A2936 RMK MADISHF
PANI,2017-04-01 21:25,-159.5430,61.5816,M,M,M,30.00,4.00,M,29.36,M,10.00,M,OVC,M,M,M,6000.00,M,M,M,M,PANI 012125Z AUTO 03004KT 10SM OVC060 A2936 RMK MADISHF
PANI,2017-04-01 21:30,-159.5430,61.5816,M,M,M,30.00,3.00,M,29.36,M,10.00,M,OVC,M,M,M,6000.00,M,M,M,M,PANI 012130Z AUTO 03003KT 10SM OVC060 A2936 RMK MADISHF
PANI,2017-04-01 21:35,-159.5430,61.5816,M,M,M,30.00,3.00,M,29.37,M,10.00,M,OVC,M,M,M,6000.00,M,M,M,M,PANI 012135Z AUTO 03003KT 10SM OVC060 A2937 RMK MADISHF
PANI,2017-04-01 21:36,-159.5430,61.5816,35.60,28.40,74.80,30.00,3.00,0.00,29.37,M,10.00,M,OVC,M,M,M,6000.00,M,M,M,M,PANI 012136Z AUTO 03003KT 10SM OVC060 02/M02 A2937 RMK AO1
PANI,2017-04-01 21:40,-159.5430,61.5816,M,M,M,0.00,0.00,M,29.37,M,10.00,M,OVC,M,M,M,6000.00,M,M,M,M,PANI 012140Z AUTO 00000KT 10SM OVC060 A2937 RMK MADISHF
PANI,2017-04-01 21:45,-159.5430,61.5816,M,M,M,0.00,0.00,M,29.37,M,10.00,M,OVC,M,M,M,6000.00,M,M,M,M,PANI 012145Z AUTO 00000KT 10SM OVC060 A2937 RMK MADISHF
PANI,2017-04-01 21:50,-159.5430,61.5816,M,M,M,0.00,0.00,M,29.37,M,10.00,M,OVC,M,M,M,6000.00,M,M,M,M,PANI 012150Z AUTO 00000KT 10SM OVC060 A2937 RMK MADISHF
PANI,2017-04-01 21:55,-159.5430,61.5816,M,M,M,0.00,0.00,M,29.37,M,10.00,M,OVC,M,M,M,6000.00,M,M,M,M,PANI 012155Z AUTO 00000KT 10SM OVC060 A2937 RMK MADISHF
PANI,2017-04-01 21:56,-159.5430,61.5816,37.40,28.40,69.67,0.00,0.00,0.00,29.37,M,10.00,M,OVC,M,M,M,6000.00,M,M,M,M,PANI 012156Z AUTO 00000KT 10SM OVC060 03/M02 A2937 RMK AO1
PANI,2017-04-01 22:00,-159.5430,61.5816,M,M,M,0.00,0.00,M,29.37,M,10.00,M,OVC,M,M,M,6000.00,M,M,M,M,PANI 012200Z AUTO 00000KT 10SM OVC060 A2937 RMK MADISHF
PANI,2017-04-01 22:05,-159.5430,61.5816,M,M,M,0.00,0.00,M,29.37,M,10.00,M,BKN,OVC,M,M,6000.00,6500.00,M,M,M,PANI 012205Z AUTO 00000KT 10SM BKN060 OVC065 A2937 RMK MADISHF
PANI,2017-04-01 22:10,-159.5430,61.5816,M,M,M,0.00,0.00,M,29.37,M,10.00,M,BKN,OVC,M,M,4900.00,6000.00,M,M,M,PANI 012210Z AUTO 00000KT 10SM BKN049 OVC060 A2937 RMK MADISHF
PANI,2017-04-01 22:15,-159.5430,61.5816,M,M,M,0.00,0.00,M,29.37,M,10.00,M,FEW,BKN,OVC,M,4200.00,4900.00,6000.00,M,M,PANI 012215Z AUTO 00000KT 10SM FEW042 BKN049 OVC060 A2937 RMK MADISHF
PANI,2017-04-01 22:16,-159.5430,61.5816,37.40,30.20,74.98,0.00,0.00,0.00,29.37,M,10.00,M,BKN,OVC,M,M,4700.00,6000.00,M,M,M,PANI 012216Z AUTO 00000KT 10SM BKN047 OVC060 03/M01 A2937 RMK AO1
PANI,2017-04-01 22:20,-159.5430,61.5816,M,M,M,0.00,0.00,M,29.37,M,10.00,M,FEW,BKN,OVC,M,3600.00,4400.00,6000.00,M,M,PANI 012220Z AUTO 00000KT 10SM FEW036 BKN044 OVC060 A2937 RMK MADISHF
PANI,2017-04-01 22:25,-159.5430,61.5816,M,M,M,0.00,0.00,M,29.37,M,10.00,M,SCT,BKN,OVC,M,3600.00,4400.00,6000.00,M,M,PANI 012225Z AUTO 00000KT 10SM SCT036 BKN044 OVC060 A2937 RMK MADISHF
PANI,2017-04-01 22:30,-159.5430,61.5816,M,M,M,0.00,0.00,M,29.37,M,10.00,M,SCT,BKN,OVC,M,3600.00,4400.00,5000.00,M,M,PANI 012230Z AUTO 00000KT 10SM SCT036 BKN044 OVC050 A2937 RMK MADISHF
PANI,2017-04-01 22:35,-159.5430,61.5816,M,M,M,0.00,0.00,M,29.37,M,10.00,M,BKN,OVC,M,M,3600.00,4400.00,M,M,M,PANI 012235Z AUTO 00000KT 10SM BKN036 OVC044 A2937 RMK MADISHF
PANI,2017-04-01 22:36,-159.5430,61.5816,37.40,30.20,74.98,0.00,0.00,0.00,29.37,M,10.00,M,BKN,BKN,OVC,M,3600.00,4200.00,4800.00,M,M,PANI 012236Z AUTO 00000KT 10SM BKN036 BKN042 OVC048 03/M01 A2937 RMK AO1
PANI,2017-04-01 22:40,-159.5430,61.5816,M,M,M,30.00,3.00,M,29.38,M,10.00,M,BKN,OVC,M,M,3600.00,4500.00,M,M,M,PANI 012240Z AUTO 03003KT 10SM BKN036 OVC045 A2938 RMK MADISHF
PANI,2017-04-01 22:45,-159.5430,61.5816,M,M,M,0.00,0.00,M,29.38,M,10.00,M,BKN,OVC,M,M,3600.00,4300.00,M,M,M,PANI 012245Z AUTO 00000KT 10SM BKN036 OVC043 A2938 RMK MADISHF
PANI,2017-04-01 22:50,-159.5430,61.5816,M,M,M,20.00,3.00,M,29.38,M,10.00,M,BKN,OVC,M,M,3600.00,4300.00,M,M,M,PANI 012250Z AUTO 02003KT 10SM BKN036 OVC043 A2938 RMK MADISHF
PANI,2017-04-01 22:55,-159.5430,61.5816,M,M,M,30.00,4.00,M,29.38,M,10.00,M,BKN,OVC,M,M,3600.00,4300.00,M,M,M,PANI 012255Z AUTO 03004KT 10SM BKN036 OVC043 A2938 RMK MADISHF
PANI,2017-04-01 22:56,-159.5430,61.5816,37.40,30.20,74.98,20.00,5.00,0.00,29.38,M,10.00,M,BKN,OVC,M,M,3600.00,4300.00,M,M,M,PANI 012256Z AUTO 02005KT 10SM BKN036 OVC043 03/M01 A2938 RMK AO1
PANI,2017-04-01 23:00,-159.5430,61.5816,M,M,M,20.00,5.00,M,29.38,M,10.00,M,BKN,OVC,M,M,3600.00,4300.00,M,M,M,PANI 012300Z AUTO 02005KT 10SM BKN036 OVC043 A2938 RMK MADISHF
PANI,2017-04-01 23:05,-159.5430,61.5816,M,M,M,30.00,4.00,M,29.38,M,10.00,M,BKN,OVC,M,M,3600.00,4300.00,M,M,M,PANI 012305Z AUTO 03004KT 10SM BKN036 OVC043 A2938 RMK MADISHF
PANI,2017-04-01 23:10,-159.5430,61.5816,M,M,M,20.00,4.00,M,29.38,M,10.00,M,BKN,OVC,M,M,3600.00,4500.00,M,M,M,PANI 012310Z AUTO 02004KT 10SM BKN036 OVC045 A2938 RMK MADISHF
PANI,2017-04-01 23:15,-159.5430,61.5816,M,M,M,30.00,4.00,M,29.38,M,10.00,M,BKN,OVC,M,M,3800.00,4500.00,M,M,M,PANI 012315Z AUTO 03004KT 10SM BKN038 OVC045 A2938 RMK MADISHF
PANI,2017-04-01 23:16,-159.5430,61.5816,37.40,32.00,80.65,30.00,4.00,0.00,29.38,M,10.00,M,BKN,OVC,M,M,3800.00,4500.00,M,M,M,PANI 012316Z AUTO 03004KT 10SM BKN038 OVC045 03/00 A2938 RMK AO1
PANI,2017-04-01 23:20,-159.5430,61.5816,M,M,M,20.00,4.00,M,29.39,M,10.00,M,BKN,OVC,M,M,3900.00,4600.00,M,M,M,PANI 012320Z AUTO 02004KT 10SM BKN039 OVC046 A2939 RMK MADISHF
PANI,2017-04-01 23:25,-159.5430,61.5816,M,M,M,30.00,4.00,M,29.39,M,10.00,M,BKN,OVC,M,M,3900.00,4600.00,M,M,M,PANI 012325Z AUTO 03004KT 10SM BKN039 OVC046 A2939 RMK MADISHF
PANI,2017-04-01 23:30,-159.5430,61.5816,M,M,M,40.00,5.00,M,29.39,M,10.00,M,BKN,OVC,M,M,3900.00,4600.00,M,M,M,PANI 012330Z AUTO 04005KT 10SM BKN039 OVC046 A2939 RMK MADISHF
PANI,2017-04-01 23:35,-159.5430,61.5816,M,M,M,40.00,5.00,M,29.39,M,10.00,M,BKN,OVC,M,M,3900.00,4600.00,M,M,M,PANI 012335Z AUTO 04005KT 10SM BKN039 OVC046 A2939 RMK MADISHF
PANI,2017-04-01 23:36,-159.5430,61.5816,37.40,32.00,80.65,40.00,5.00,0.00,29.39,M,10.00,M,OVC,M,M,M,4100.00,M,M,M,M,PANI 012336Z AUTO 04005KT 10SM OVC041 03/00 A2939 RMK AO1
PANI,2017-04-01 23:40,-159.5430,61.5816,M,M,M,30.00,4.00,M,29.39,M,10.00,M,BKN,OVC,M,M,4100.00,4700.00,M,M,M,PANI 012340Z AUTO 03004KT 10SM BKN041 OVC047 A2939 RMK MADISHF
PANI,2017-04-01 23:45,-159.5430,61.5816,M,M,M,40.00,3.00,M,29.39,M,10.00,M,BKN,OVC,M,M,4200.00,4800.00,M,M,M,PANI 012345Z AUTO 04003KT 10SM BKN042 OVC048 A2939 RMK MADISHF
PANI,2017-04-01 23:50,-159.5430,61.5816,M,M,M,40.00,3.00,M,29.39,M,10.00,M,BKN,OVC,M,M,4200.00,4800.00,M,M,M,PANI 012350Z AUTO 04003KT 10SM BKN042 OVC048 A2939 RMK MADISHF
PANI,2017-04-01 23:55,-159.5430,61.5816,M,M,M,40.00,4.00,M,29.39,M,10.00,M,BKN,OVC,M,M,4400.00,5000.00,M,M,M,PANI 012355Z AUTO 04004KT 10SM BKN044 OVC050 A2939 RMK MADISHF
PANI,2017-04-01 23:56,-159.5430,61.5816,39.20,33.80,80.79,40.00,4.00,0.00,29.39,M,10.00,M,BKN,OVC,M,M,4400.00,5000.00,M,M,M,PANI 012356Z AUTO 04004KT 10SM BKN044 OVC050 04/01 A2939 RMK AO1 10040 21010 400401040 52014
