#DEBUG: Format Typ    -> comma
#DEBUG: Time Period   -> 2017-04-01 00:00:00+00:00 2017-04-02 00:00:00+00:00
#DEBUG: Time Zone     -> Etc/UTC
#DEBUG: Data Contact   -> daryl herzmann akrherz@iastate.edu 515-294-5978
#DEBUG: Entries Found -> -1
station,valid,lon,lat,tmpf, dwpf, relh, drct, sknt, p01i, alti, mslp, vsby, gust, skyc1, skyc2, skyc3, skyc4, skyl1, skyl2, skyl3, skyl4, presentwx, metar
PANV,2017-04-01 00:00,-160.1901,62.6473,M,M,M,30.00,11.00,M,29.19,M,10.00,16.00,FEW,OVC,M,M,4300.00,6000.00,M,M,M,PANV 010000Z AUTO 03011G16KT 10SM FEW043 OVC060 A2919 RMK MADISHF
PANV,2017-04-01 00:05,-160.1901,62.6473,M,M,M,50.00,12.00,M,29.19,M,10.00,16.00,SCT,OVC,M,M,4300.00,5000.00,M,M,M,PANV 010005Z AUTO 05012G16KT 10SM SCT043 OVC050 A2919 RMK MADISHF
PANV,2017-04-01 00:10,-160.1901,62.6473,M,M,M,20.00,11.00,M,29.19,M,10.00,15.00,BKN,OVC,M,M,4100.00,5000.00,M,M,M,PANV 010010Z AUTO 02011G15KT 10SM BKN041 OVC050 A2919 RMK MADISHF
PANV,2017-04-01 00:15,-160.1901,62.6473,M,M,M,20.00,10.00,M,29.18,M,10.00,15.00,BKN,OVC,M,M,4100.00,5000.00,M,M,M,PANV 010015Z AUTO 02010G15KT 10SM BKN041 OVC050 A2918 RMK MADISHF
PANV,2017-04-01 00:16,-160.1901,62.6473,26.60,12.20,54.03,30.00,10.00,0.00,29.18,M,10.00,15.00,BKN,OVC,M,M,3900.00,4800.00,M,M,M,PANV 010016Z AUTO 03010G15KT 10SM BKN039 OVC048 M03/M11 A2918 RMK AO1
PANV,2017-04-01 00:20,-160.1901,62.6473,M,M,M,30.00,9.00,M,29.18,M,10.00,M,BKN,OVC,M,M,3900.00,4800.00,M,M,M,PANV 010020Z AUTO 03009KT 10SM BKN039 OVC048 A2918 RMK MADISHF
PANV,2017-04-01 00:25,-160.1901,62.6473,M,M,M,20.00,10.00,M,29.18,M,10.00,M,BKN,OVC,M,M,3999.00,4800.00,M,M,M,PANV 010025Z AUTO 02010KT 10SM BKN039 OVC048 A2918 RMK MADISHF
PANV,2017-04-01 00:30,-160.1901,62.6473,M,M,M,20.00,12.00,M,29.18,M,10.00,M,SCT,BKN,OVC,M,3800.00,4500.00,5000.00,M,M,PANV 010030Z AUTO 02012KT 10SM SCT038 BKN045 OVC050 A2918 RMK MADISHF
PANV,2017-04-01 00:35,-160.1901,62.6473,M,M,M,30.00,11.00,M,29.18,M,10.00,M,FEW,BKN,OVC,M,3800.00,4500.00,5000.00,M,M,PANV 010035Z AUTO 03011KT 10SM FEW038 BKN045 OVC050 A2918 RMK MADISHF
PANV,2017-04-01 00:36,-160.1901,62.6473,26.60,14.00,58.49,30.00,12.00,0.00,29.18,M,10.00,M,FEW,BKN,OVC,M,3800.00,4500.00,5000.00,M,M,PANV 010036Z AUTO 03012KT 10SM FEW038 BKN045 OVC050 M03/M10 A2918 RMK AO1
PANV,2017-04-01 00:40,-160.1901,62.6473,M,M,M,20.00,10.00,M,29.18,M,10.00,M,FEW,BKN,OVC,M,3999.00,4800.00,5000.00,M,M,PANV 010040Z AUTO 02010KT 10SM FEW039 BKN048 OVC050 A2918 RMK MADISHF
PANV,2017-04-01 00:45,-160.1901,62.6473,M,M,M,40.00,10.00,M,29.18,M,10.00,15.00,SCT,BKN,OVC,M,3999.00,4700.00,5000.00,M,M,PANV 010045Z AUTO 04010G15KT 10SM SCT039 BKN047 OVC050 A2918 RMK MADISHF
PANV,2017-04-01 00:50,-160.1901,62.6473,M,M,M,20.00,10.00,M,29.18,M,10.00,16.00,FEW,SCT,BKN,M,3300.00,3999.00,4500.00,M,M,PANV 010050Z AUTO 02010G16KT 10SM FEW033 SCT039 BKN045 A2918 RMK MADISHF
PANV,2017-04-01 00:55,-160.1901,62.6473,M,M,M,30.00,14.00,M,29.18,M,10.00,19.00,BKN,BKN,OVC,M,3700.00,4500.00,5000.00,M,M,PANV 010055Z AUTO 03014G19KT 10SM BKN037 BKN045 OVC050 A2918 RMK MADISHF
PANV,2017-04-01 00:56,-160.1901,62.6473,28.40,14.00,54.31,30.00,12.00,0.00,29.18,M,10.00,19.00,BKN,BKN,OVC,M,3700.00,4500.00,5000.00,M,M,PANV 010056Z AUTO 03012G19KT 10SM BKN037 BKN045 OVC050 M02/M10 A2918 RMK AO1
PANV,2017-04-01 01:00,-160.1901,62.6473,M,M,M,40.00,9.00,M,29.18,M,10.00,19.00,BKN,BKN,OVC,M,3700.00,4300.00,5000.00,M,M,PANV 010100Z AUTO 04009G19KT 10SM BKN037 BKN043 OVC050 A2918 RMK MADISHF
PANV,2017-04-01 01:05,-160.1901,62.6473,M,M,M,30.00,11.00,M,29.18,M,10.00,19.00,FEW,BKN,OVC,M,3500.00,4200.00,5000.00,M,M,PANV 010105Z AUTO 03011G19KT 10SM FEW035 BKN042 OVC050 A2918 RMK MADISHF
PANV,2017-04-01 01:10,-160.1901,62.6473,M,M,M,30.00,11.00,M,29.18,M,10.00,M,SCT,BKN,OVC,M,3700.00,4500.00,5000.00,M,M,PANV 010110Z AUTO 03011KT 10SM SCT037 BKN045 OVC050 A2918 RMK MADISHF
PANV,2017-04-01 01:15,-160.1901,62.6473,M,M,M,40.00,10.00,M,29.18,M,10.00,M,BKN,OVC,M,M,3900.00,5000.00,M,M,M,PANV 010115Z AUTO 04010KT 10SM BKN039 OVC050 A2918 RMK MADISHF
PANV,2017-04-01 01:16,-160.1901,62.6473,28.40,14.00,54.31,30.00,10.00,0.00,29.18,M,10.00,M,BKN,OVC,M,M,3900.00,5000.00,M,M,M,PANV 010116Z AUTO 03010KT 10SM BKN039 OVC050 M02/M10 A2918 RMK AO1
PANV,2017-04-01 01:20,-160.1901,62.6473,M,M,M,30.00,8.00,M,29.18,M,10.00,M,BKN,OVC,M,M,4100.00,5000.00,M,M,M,PANV 010120Z AUTO 03008KT 10SM BKN041 OVC050 A2918 RMK MADISHF
PANV,2017-04-01 01:25,-160.1901,62.6473,M,M,M,20.00,14.00,M,29.18,M,10.00,M,SCT,OVC,M,M,4100.00,5000.00,M,M,M,PANV 010125Z AUTO 02014KT 10SM SCT041 OVC050 A2918 RMK MADISHF
PANV,2017-04-01 01:30,-160.1901,62.6473,M,M,M,30.00,10.00,M,29.18,M,10.00,16.00,FEW,OVC,M,M,4100.00,5000.00,M,M,M,PANV 010130Z AUTO 03010G16KT 10SM FEW041 OVC050 A2918 RMK MADISHF
PANV,2017-04-01 01:35,-160.1901,62.6473,M,M,M,20.00,10.00,M,29.18,M,10.00,M,FEW,BKN,BKN,M,4100.00,5000.00,9000.00,M,M,PANV 010135Z AUTO 02010KT 10SM FEW041 BKN050 BKN090 A2918 RMK MADISHF
PANV,2017-04-01 01:36,-160.1901,62.6473,28.40,14.00,54.31,20.00,9.00,0.00,29.18,M,10.00,M,FEW,SCT,BKN,M,4100.00,4600.00,5000.00,M,M,PANV 010136Z AUTO 02009KT 10SM FEW041 SCT046 BKN050 M02/M10 A2918 RMK AO1
PANV,2017-04-01 01:40,-160.1901,62.6473,M,M,M,20.00,13.00,M,29.18,M,10.00,M,FEW,SCT,BKN,M,4100.00,5000.00,6500.00,M,M,PANV 010140Z AUTO 02013KT 10SM FEW041 SCT050 BKN065 A2918 RMK MADISHF
PANV,2017-04-01 01:45,-160.1901,62.6473,M,M,M,30.00,11.00,M,29.18,M,10.00,15.00,FEW,BKN,OVC,M,4500.00,6500.00,9000.00,M,M,PANV 010145Z AUTO 03011G15KT 10SM FEW045 BKN065 OVC090 A2918 RMK MADISHF
PANV,2017-04-01 01:50,-160.1901,62.6473,M,M,M,30.00,9.00,M,29.18,M,10.00,M,SCT,BKN,OVC,M,5500.00,6500.00,8500.00,M,M,PANV 010150Z AUTO 03009KT 10SM SCT055 BKN065 OVC085 A2918 RMK MADISHF
PANV,2017-04-01 01:55,-160.1901,62.6473,M,M,M,30.00,9.00,M,29.18,M,10.00,M,BKN,BKN,OVC,M,5500.00,7000.00,8500.00,M,M,PANV 010155Z AUTO 03009KT 10SM BKN055 BKN070 OVC085 A2918 RMK MADISHF
PANV,2017-04-01 01:56,-160.1901,62.6473,28.40,14.00,54.31,30.00,8.00,0.00,29.18,M,10.00,M,BKN,BKN,OVC,M,5500.00,7000.00,8500.00,M,M,PANV 010156Z AUTO 03008KT 10SM BKN055 BKN070 OVC085 M02/M10 A2918 RMK AO1
PANV,2017-04-01 02:00,-160.1901,62.6473,M,M,M,40.00,11.00,M,29.18,M,10.00,M,BKN,BKN,OVC,M,6000.00,7000.00,8500.00,M,M,PANV 010200Z AUTO 04011KT 10SM BKN060 BKN070 OVC085 A2918 RMK MADISHF
PANV,2017-04-01 02:05,-160.1901,62.6473,M,M,M,30.00,9.00,M,29.18,M,10.00,M,OVC,M,M,M,6000.00,M,M,M,M,PANV 010205Z AUTO 03009KT 10SM OVC060 A2918 RMK MADISHF
PANV,2017-04-01 02:10,-160.1901,62.6473,M,M,M,30.00,11.00,M,29.18,M,10.00,M,SCT,OVC,M,M,4900.00,6000.00,M,M,M,PANV 010210Z AUTO 03011KT 10SM SCT049 OVC060 A2918 RMK MADISHF
PANV,2017-04-01 02:15,-160.1901,62.6473,M,M,M,20.00,12.00,M,29.17,M,10.00,M,SCT,OVC,M,M,4900.00,6000.00,M,M,M,PANV 010215Z AUTO 02012KT 10SM SCT049 OVC060 A2917 RMK MADISHF
PANV,2017-04-01 02:16,-160.1901,62.6473,30.20,15.80,54.59,20.00,11.00,0.00,29.17,M,10.00,M,BKN,OVC,M,M,4900.00,6000.00,M,M,M,PANV 010216Z AUTO 02011KT 10SM BKN049 OVC060 M01/M09 A2917 RMK AO1
PANV,2017-04-01 02:20,-160.1901,62.6473,M,M,M,30.00,9.00,M,29.17,M,10.00,M,FEW,OVC,M,M,4700.00,5000.00,M,M,M,PANV 010220Z AUTO 03009KT 10SM FEW047 OVC050 A2917 RMK MADISHF
PANV,2017-04-01 02:25,-160.1901,62.6473,M,M,M,30.00,7.00,M,29.18,M,10.00,M,FEW,BKN,OVC,M,4700.00,5000.00,6500.00,M,M,PANV 010225Z AUTO 03007KT 10SM FEW047 BKN050 OVC065 A2918 RMK MADISHF
PANV,2017-04-01 02:30,-160.1901,62.6473,M,M,M,30.00,10.00,M,29.17,M,10.00,15.00,FEW,BKN,OVC,M,4700.00,5500.00,7000.00,M,M,PANV 010230Z AUTO 03010G15KT 10SM FEW047 BKN055 OVC070 A2917 RMK MADISHF
PANV,2017-04-01 02:35,-160.1901,62.6473,M,M,M,20.00,10.00,M,29.17,M,10.00,15.00,FEW,BKN,OVC,M,4700.00,5500.00,9000.00,M,M,PANV 010235Z AUTO 02010G15KT 10SM FEW047 BKN055 OVC090 A2917 RMK MADISHF
PANV,2017-04-01 02:36,-160.1901,62.6473,30.20,15.80,54.59,20.00,11.00,0.00,29.17,M,10.00,15.00,FEW,BKN,OVC,M,4700.00,5500.00,9000.00,M,M,PANV 010236Z AUTO 02011G15KT 10SM FEW047 BKN055 OVC090 M01/M09 A2917 RMK AO1
PANV,2017-04-01 02:40,-160.1901,62.6473,M,M,M,20.00,9.00,M,29.17,M,10.00,M,FEW,BKN,OVC,M,4900.00,5500.00,9000.00,M,M,PANV 010240Z AUTO 02009KT 10SM FEW049 BKN055 OVC090 A2917 RMK MADISHF
PANV,2017-04-01 02:45,-160.1901,62.6473,M,M,M,20.00,11.00,M,29.17,M,10.00,M,BKN,OVC,M,M,5500.00,7500.00,M,M,M,PANV 010245Z AUTO 02011KT 10SM BKN055 OVC075 A2917 RMK MADISHF
PANV,2017-04-01 02:50,-160.1901,62.6473,M,M,M,20.00,10.00,M,29.17,M,10.00,14.00,BKN,BKN,OVC,M,5500.00,7500.00,9000.00,M,M,PANV 010250Z AUTO 02010G14KT 10SM BKN055 BKN075 OVC090 A2917 RMK WND 34V04  MADISHF
PANV,2017-04-01 02:55,-160.1901,62.6473,M,M,M,20.00,7.00,M,29.17,M,10.00,14.00,FEW,SCT,BKN,M,3700.00,5500.00,7500.00,M,M,PANV 010255Z AUTO 02007G14KT 10SM FEW037 SCT055 BKN075 A2917 RMK MADISHF
PANV,2017-04-01 02:56,-160.1901,62.6473,30.20,15.80,54.59,20.00,7.00,0.00,29.17,M,10.00,14.00,FEW,SCT,BKN,M,3700.00,5500.00,7500.00,M,M,PANV 010256Z AUTO 02007G14KT 10SM FEW037 SCT055 BKN075 M01/M09 A2917 RMK AO1 57007
PANV,2017-04-01 03:00,-160.1901,62.6473,M,M,M,30.00,8.00,M,29.17,M,10.00,M,FEW,SCT,BKN,M,3700.00,5500.00,7500.00,M,M,PANV 010300Z AUTO 03008KT 10SM FEW037 SCT055 BKN075 A2917 RMK MADISHF
PANV,2017-04-01 03:05,-160.1901,62.6473,M,M,M,30.00,9.00,M,29.17,M,10.00,M,SCT,SCT,BKN,M,5500.00,7500.00,9000.00,M,M,PANV 010305Z AUTO 03009KT 10SM SCT055 SCT075 BKN090 A2917 RMK MADISHF
PANV,2017-04-01 03:10,-160.1901,62.6473,M,M,M,20.00,8.00,M,29.17,M,10.00,M,FEW,SCT,BKN,M,5500.00,7500.00,9000.00,M,M,PANV 010310Z AUTO 02008KT 10SM FEW055 SCT075 BKN090 A2917 RMK MADISHF
PANV,2017-04-01 03:16,-160.1901,62.6473,30.20,15.80,54.59,20.00,10.00,0.00,29.18,M,10.00,M,BKN,M,M,M,9000.00,M,M,M,M,PANV 010316Z AUTO 02010KT 10SM BKN090 M01/M09 A2918 RMK AO1
PANV,2017-04-01 03:20,-160.1901,62.6473,M,M,M,20.00,9.00,M,29.18,M,10.00,M,BKN,M,M,M,9000.00,M,M,M,M,PANV 010320Z AUTO 02009KT 10SM BKN090 A2918 RMK MADISHF
PANV,2017-04-01 03:25,-160.1901,62.6473,M,M,M,20.00,9.00,M,29.18,M,10.00,M,FEW,BKN,M,M,6000.00,10000.00,M,M,M,PANV 010325Z AUTO 02009KT 10SM FEW060 BKN100 A2918 RMK MADISHF
PANV,2017-04-01 03:30,-160.1901,62.6473,M,M,M,20.00,11.00,M,29.18,M,10.00,M,SCT,BKN,M,M,5000.00,10000.00,M,M,M,PANV 010330Z AUTO 02011KT 10SM SCT050 BKN100 A2918 RMK MADISHF
PANV,2017-04-01 03:35,-160.1901,62.6473,M,M,M,20.00,9.00,M,29.18,M,10.00,M,BKN,OVC,M,M,5000.00,10000.00,M,M,M,PANV 010335Z AUTO 02009KT 10SM BKN050 OVC100 A2918 RMK MADISHF
PANV,2017-04-01 03:36,-160.1901,62.6473,30.20,15.80,54.59,20.00,10.00,0.00,29.18,M,10.00,M,BKN,OVC,M,M,5000.00,10000.00,M,M,M,PANV 010336Z AUTO 02010KT 10SM BKN050 OVC100 M01/M09 A2918 RMK AO1
PANV,2017-04-01 03:45,-160.1901,62.6473,M,M,M,20.00,10.00,M,29.18,M,10.00,M,SCT,BKN,OVC,M,4500.00,5000.00,10000.00,M,M,PANV 010345Z AUTO 02010KT 10SM SCT045 BKN050 OVC100 A2918 RMK MADISHF
PANV,2017-04-01 03:50,-160.1901,62.6473,M,M,M,30.00,10.00,M,29.18,M,10.00,M,FEW,BKN,OVC,M,4300.00,5000.00,8500.00,M,M,PANV 010350Z AUTO 03010KT 10SM FEW043 BKN050 OVC085 A2918 RMK MADISHF
PANV,2017-04-01 03:55,-160.1901,62.6473,M,M,M,20.00,9.00,M,29.18,M,10.00,M,FEW,BKN,OVC,M,4200.00,5000.00,9000.00,M,M,PANV 010355Z AUTO 02009KT 10SM FEW042 BKN050 OVC090 A2918 RMK MADISHF
PANV,2017-04-01 03:56,-160.1901,62.6473,30.20,15.80,54.59,20.00,9.00,0.00,29.18,M,10.00,M,FEW,BKN,OVC,M,4200.00,5000.00,9000.00,M,M,PANV 010356Z AUTO 02009KT 10SM FEW042 BKN050 OVC090 M01/M09 A2918 RMK AO1
PANV,2017-04-01 04:05,-160.1901,62.6473,M,M,M,20.00,9.00,M,29.18,M,10.00,M,FEW,SCT,OVC,M,4200.00,4800.00,9000.00,M,M,PANV 010405Z AUTO 02009KT 10SM FEW042 SCT048 OVC090 A2918 RMK MADISHF
PANV,2017-04-01 04:10,-160.1901,62.6473,M,M,M,30.00,9.00,M,29.18,M,10.00,M,FEW,OVC,M,M,4200.00,9000.00,M,M,M,PANV 010410Z AUTO 03009KT 10SM FEW042 OVC090 A2918 RMK MADISHF
PANV,2017-04-01 04:15,-160.1901,62.6473,M,M,M,30.00,10.00,M,29.18,M,10.00,M,OVC,M,M,M,9000.00,M,M,M,M,PANV 010415Z AUTO 03010KT 10SM OVC090 A2918 RMK MADISHF
PANV,2017-04-01 04:16,-160.1901,62.6473,30.20,15.80,54.59,30.00,10.00,0.00,29.18,M,10.00,M,OVC,M,M,M,9000.00,M,M,M,M,PANV 010416Z AUTO 03010KT 10SM OVC090 M01/M09 A2918 RMK AO1
PANV,2017-04-01 04:20,-160.1901,62.6473,M,M,M,20.00,10.00,M,29.18,M,10.00,M,OVC,M,M,M,9000.00,M,M,M,M,PANV 010420Z AUTO 02010KT 10SM OVC090 A2918 RMK MADISHF
PANV,2017-04-01 04:30,-160.1901,62.6473,M,M,M,20.00,11.00,M,29.18,M,10.00,15.00,OVC,M,M,M,9000.00,M,M,M,M,PANV 010430Z AUTO 02011G15KT 10SM OVC090 A2918 RMK MADISHF
PANV,2017-04-01 04:35,-160.1901,62.6473,M,M,M,30.00,12.00,M,29.18,M,10.00,16.00,OVC,M,M,M,9000.00,M,M,M,M,PANV 010435Z AUTO 03012G16KT 10SM OVC090 A2918 RMK MADISHF
PANV,2017-04-01 04:36,-160.1901,62.6473,30.20,15.80,54.59,30.00,12.00,0.00,29.18,M,10.00,16.00,OVC,M,M,M,9000.00,M,M,M,M,PANV 010436Z AUTO 03012G16KT 10SM OVC090 M01/M09 A2918 RMK AO1
PANV,2017-04-01 04:45,-160.1901,62.6473,M,M,M,30.00,11.00,M,29.18,M,10.00,M,OVC,M,M,M,10000.00,M,M,M,M,PANV 010445Z AUTO 03011KT 10SM OVC100 A2918 RMK MADISHF
PANV,2017-04-01 04:50,-160.1901,62.6473,M,M,M,20.00,10.00,M,29.18,M,10.00,M,OVC,M,M,M,9000.00,M,M,M,M,PANV 010450Z AUTO 02010KT 10SM OVC090 A2918 RMK MADISHF
PANV,2017-04-01 04:56,-160.1901,62.6473,28.40,15.80,58.75,20.00,10.00,0.00,29.18,M,10.00,M,OVC,M,M,M,9000.00,M,M,M,M,PANV 010456Z AUTO 02010KT 10SM OVC090 M02/M09 A2918 RMK AO1
PANV,2017-04-01 05:00,-160.1901,62.6473,M,M,M,30.00,10.00,M,29.19,M,10.00,M,OVC,M,M,M,9000.00,M,M,M,M,PANV 010500Z AUTO 03010KT 10SM OVC090 A2919 RMK MADISHF
PANV,2017-04-01 05:05,-160.1901,62.6473,M,M,M,20.00,11.00,M,29.19,M,10.00,M,OVC,M,M,M,9000.00,M,M,M,M,PANV 010505Z AUTO 02011KT 10SM OVC090 A2919 RMK MADISHF
PANV,2017-04-01 05:10,-160.1901,62.6473,M,M,M,20.00,11.00,M,29.19,M,10.00,M,OVC,M,M,M,7999.00,M,M,M,M,PANV 010510Z AUTO 02011KT 10SM OVC079 A2919 RMK MADISHF
PANV,2017-04-01 05:16,-160.1901,62.6473,28.40,15.80,58.75,20.00,9.00,0.00,29.19,M,10.00,M,OVC,M,M,M,8000.00,M,M,M,M,PANV 010516Z AUTO 02009KT 10SM OVC080 M02/M09 A2919 RMK AO1
PANV,2017-04-01 05:20,-160.1901,62.6473,M,M,M,20.00,10.00,M,29.19,M,10.00,M,OVC,M,M,M,7999.00,M,M,M,M,PANV 010520Z AUTO 02010KT 10SM OVC079 A2919 RMK MADISHF
PANV,2017-04-01 05:25,-160.1901,62.6473,M,M,M,30.00,9.00,M,29.19,M,10.00,M,OVC,M,M,M,7999.00,M,M,M,M,PANV 010525Z AUTO 03009KT 10SM OVC079 A2919 RMK MADISHF
PANV,2017-04-01 05:35,-160.1901,62.6473,M,M,M,20.00,9.00,M,29.19,M,10.00,M,SCT,OVC,M,M,6500.00,7999.00,M,M,M,PANV 010535Z AUTO 02009KT 10SM SCT065 OVC079 A2919 RMK MADISHF
PANV,2017-04-01 05:36,-160.1901,62.6473,28.40,15.80,58.75,20.00,9.00,0.00,29.19,M,10.00,M,SCT,OVC,M,M,6500.00,8000.00,M,M,M,PANV 010536Z AUTO 02009KT 10SM SCT065 OVC080 M02/M09 A2919 RMK AO1
PANV,2017-04-01 05:40,-160.1901,62.6473,M,M,M,20.00,9.00,M,29.19,M,10.00,M,BKN,OVC,M,M,6500.00,7999.00,M,M,M,PANV 010540Z AUTO 02009KT 10SM BKN065 OVC079 A2919 RMK MADISHF
PANV,2017-04-01 05:45,-160.1901,62.6473,M,M,M,20.00,9.00,M,29.20,M,10.00,M,SCT,OVC,M,M,6500.00,7999.00,M,M,M,PANV 010545Z AUTO 02009KT 10SM SCT065 OVC079 A2920 RMK MADISHF
PANV,2017-04-01 05:50,-160.1901,62.6473,M,M,M,30.00,9.00,M,29.20,M,10.00,M,SCT,OVC,M,M,6500.00,7999.00,M,M,M,PANV 010550Z AUTO 03009KT 10SM SCT065 OVC079 A2920 RMK MADISHF
PANV,2017-04-01 05:55,-160.1901,62.6473,M,M,M,30.00,9.00,M,29.20,M,10.00,M,BKN,OVC,M,M,6500.00,7999.00,M,M,M,PANV 010555Z AUTO 03009KT 10SM BKN065 OVC079 A2920 RMK MADISHF
PANV,2017-04-01 05:56,-160.1901,62.6473,28.40,15.80,58.75,30.00,9.00,0.00,29.20,M,10.00,M,BKN,OVC,M,M,6500.00,8000.00,M,M,M,PANV 010556Z AUTO 03009KT 10SM BKN065 OVC080 M02/M09 A2920 RMK AO1 11010 21030 52010
PANV,2017-04-01 06:00,-160.1901,62.6473,M,M,M,30.00,8.00,M,29.20,M,10.00,M,SCT,OVC,M,M,6500.00,7999.00,M,M,M,PANV 010600Z AUTO 03008KT 10SM SCT065 OVC079 A2920 RMK MADISHF
PANV,2017-04-01 06:10,-160.1901,62.6473,M,M,M,30.00,10.00,M,29.20,M,10.00,M,FEW,FEW,OVC,M,5000.00,6500.00,7999.00,M,M,PANV 010610Z AUTO 03010KT 10SM FEW050 FEW065 OVC079 A2920 RMK MADISHF
PANV,2017-04-01 06:16,-160.1901,62.6473,28.40,15.80,58.75,20.00,9.00,0.00,29.20,M,10.00,14.00,FEW,BKN,OVC,M,5000.00,6500.00,8000.00,M,M,PANV 010616Z AUTO 02009G14KT 10SM FEW050 BKN065 OVC080 M02/M09 A2920 RMK AO1
PANV,2017-04-01 06:20,-160.1901,62.6473,M,M,M,30.00,11.00,M,29.20,M,10.00,14.00,BKN,BKN,OVC,M,6500.00,7999.00,11000.00,M,M,PANV 010620Z AUTO 03011G14KT 10SM BKN065 BKN079 OVC110 A2920 RMK MADISHF
PANV,2017-04-01 06:25,-160.1901,62.6473,M,M,M,30.00,8.00,M,29.21,M,10.00,M,BKN,OVC,M,M,6500.00,7999.00,M,M,M,PANV 010625Z AUTO 03008KT 10SM BKN065 OVC079 A2921 RMK MADISHF
PANV,2017-04-01 06:30,-160.1901,62.6473,M,M,M,30.00,9.00,M,29.21,M,10.00,M,FEW,BKN,OVC,M,6500.00,7000.00,7999.00,M,M,PANV 010630Z AUTO 03009KT 10SM FEW065 BKN070 OVC079 A2921 RMK MADISHF
PANV,2017-04-01 06:35,-160.1901,62.6473,M,M,M,30.00,11.00,M,29.21,M,10.00,16.00,SCT,OVC,M,M,6500.00,7000.00,M,M,M,PANV 010635Z AUTO 03011G16KT 10SM SCT065 OVC070 A2921 RMK MADISHF
PANV,2017-04-01 06:36,-160.1901,62.6473,28.40,15.80,58.75,30.00,10.00,0.00,29.21,M,10.00,16.00,SCT,OVC,M,M,6500.00,7000.00,M,M,M,PANV 010636Z AUTO 03010G16KT 10SM SCT065 OVC070 M02/M09 A2921 RMK AO1
PANV,2017-04-01 06:40,-160.1901,62.6473,M,M,M,30.00,10.00,M,29.21,M,10.00,16.00,SCT,OVC,M,M,6500.00,7000.00,M,M,M,PANV 010640Z AUTO 03010G16KT 10SM SCT065 OVC070 A2921 RMK MADISHF
PANV,2017-04-01 06:45,-160.1901,62.6473,M,M,M,30.00,11.00,M,29.21,M,10.00,14.00,BKN,OVC,M,M,6500.00,7000.00,M,M,M,PANV 010645Z AUTO 03011G14KT 10SM BKN065 OVC070 A2921 RMK MADISHF
PANV,2017-04-01 06:50,-160.1901,62.6473,M,M,M,30.00,10.00,M,29.21,M,10.00,14.00,BKN,OVC,M,M,5500.00,6500.00,M,M,M,PANV 010650Z AUTO 03010G14KT 10SM BKN055 OVC065 A2921 RMK MADISHF
PANV,2017-04-01 06:55,-160.1901,62.6473,M,M,M,30.00,12.00,M,29.21,M,10.00,M,BKN,OVC,M,M,5500.00,6500.00,M,M,M,PANV 010655Z AUTO 03012KT 10SM BKN055 OVC065 A2921 RMK MADISHF
PANV,2017-04-01 06:56,-160.1901,62.6473,28.40,15.80,58.75,30.00,12.00,0.00,29.21,M,10.00,M,BKN,OVC,M,M,5500.00,6500.00,M,M,M,PANV 010656Z AUTO 03012KT 10SM BKN055 OVC065 M02/M09 A2921 RMK AO1
PANV,2017-04-01 07:00,-160.1901,62.6473,M,M,M,30.00,12.00,M,29.21,M,10.00,M,BKN,OVC,M,M,5500.00,6500.00,M,M,M,PANV 010700Z AUTO 03012KT 10SM BKN055 OVC065 A2921 RMK MADISHF
PANV,2017-04-01 07:05,-160.1901,62.6473,M,M,M,30.00,11.00,M,29.21,M,10.00,16.00,BKN,OVC,M,M,5500.00,6500.00,M,M,M,PANV 010705Z AUTO 03011G16KT 10SM BKN055 OVC065 A2921 RMK MADISHF
PANV,2017-04-01 07:10,-160.1901,62.6473,M,M,M,30.00,10.00,M,29.22,M,10.00,16.00,OVC,M,M,M,5500.00,M,M,M,M,PANV 010710Z AUTO 03010G16KT 10SM OVC055 A2922 RMK MADISHF
PANV,2017-04-01 07:15,-160.1901,62.6473,M,M,M,40.00,10.00,M,29.22,M,10.00,M,OVC,M,M,M,5500.00,M,M,M,M,PANV 010715Z AUTO 04010KT 10SM OVC055 A2922 RMK MADISHF
PANV,2017-04-01 07:16,-160.1901,62.6473,28.40,15.80,58.75,40.00,10.00,0.00,29.22,M,10.00,M,OVC,M,M,M,5500.00,M,M,M,M,PANV 010716Z AUTO 04010KT 10SM OVC055 M02/M09 A2922 RMK AO1
PANV,2017-04-01 07:25,-160.1901,62.6473,M,M,M,30.00,10.00,M,29.22,M,10.00,M,OVC,M,M,M,5500.00,M,M,M,M,PANV 010725Z AUTO 03010KT 10SM OVC055 A2922 RMK MADISHF
PANV,2017-04-01 07:30,-160.1901,62.6473,M,M,M,30.00,12.00,M,29.22,M,10.00,16.00,FEW,FEW,OVC,M,3100.00,3700.00,5500.00,M,M,PANV 010730Z AUTO 03012G16KT 10SM FEW031 FEW037 OVC055 A2922 RMK MADISHF
PANV,2017-04-01 07:35,-160.1901,62.6473,M,M,M,30.00,9.00,M,29.22,M,10.00,16.00,FEW,SCT,OVC,M,3100.00,3900.00,5500.00,M,M,PANV 010735Z AUTO 03009G16KT 10SM FEW031 SCT039 OVC055 A2922 RMK MADISHF
PANV,2017-04-01 07:36,-160.1901,62.6473,28.40,15.80,58.75,30.00,9.00,0.00,29.22,M,10.00,16.00,FEW,SCT,OVC,M,3100.00,3900.00,5500.00,M,M,PANV 010736Z AUTO 03009G16KT 10SM FEW031 SCT039 OVC055 M02/M09 A2922 RMK AO1
PANV,2017-04-01 07:40,-160.1901,62.6473,M,M,M,30.00,9.00,M,29.23,M,10.00,M,FEW,SCT,OVC,M,3100.00,4100.00,5500.00,M,M,PANV 010740Z AUTO 03009KT 10SM FEW031 SCT041 OVC055 A2923 RMK MADISHF
PANV,2017-04-01 07:45,-160.1901,62.6473,M,M,M,30.00,10.00,M,29.23,M,10.00,M,FEW,BKN,OVC,M,3100.00,3900.00,5500.00,M,M,PANV 010745Z AUTO 03010KT 10SM FEW031 BKN039 OVC055 A2923 RMK MADISHF
PANV,2017-04-01 07:50,-160.1901,62.6473,M,M,M,40.00,11.00,M,29.23,M,10.00,16.00,FEW,BKN,OVC,M,3100.00,3900.00,5500.00,M,M,PANV 010750Z AUTO 04011G16KT 10SM FEW031 BKN039 OVC055 A2923 RMK MADISHF
PANV,2017-04-01 07:55,-160.1901,62.6473,M,M,M,30.00,11.00,M,29.23,M,10.00,16.00,FEW,SCT,BKN,M,3100.00,3700.00,4300.00,M,M,PANV 010755Z AUTO 03011G16KT 10SM FEW031 SCT037 BKN043 A2923 RMK MADISHF
PANV,2017-04-01 07:56,-160.1901,62.6473,28.40,15.80,58.75,30.00,11.00,0.00,29.23,M,10.00,M,FEW,BKN,OVC,M,3100.00,4000.00,6000.00,M,M,PANV 010756Z AUTO 03011KT 10SM FEW031 BKN040 OVC060 M02/M09 A2923 RMK AO1
PANV,2017-04-01 08:10,-160.1901,62.6473,M,M,M,30.00,10.00,M,29.23,M,10.00,M,FEW,BKN,OVC,M,3900.00,4600.00,6000.00,M,M,PANV 010810Z AUTO 03010KT 10SM FEW039 BKN046 OVC060 A2923 RMK MADISHF
PANV,2017-04-01 08:15,-160.1901,62.6473,M,M,M,30.00,13.00,M,29.23,M,10.00,16.00,FEW,BKN,OVC,M,3200.00,4400.00,5000.00,M,M,PANV 010815Z AUTO 03013G16KT 10SM FEW032 BKN044 OVC050 A2923 RMK MADISHF
PANV,2017-04-01 08:16,-160.1901,62.6473,28.40,15.80,58.75,30.00,13.00,0.00,29.23,M,10.00,16.00,FEW,BKN,OVC,M,3200.00,4400.00,5000.00,M,M,PANV 010816Z AUTO 03013G16KT 10SM FEW032 BKN044 OVC050 M02/M09 A2923 RMK AO1
PANV,2017-04-01 08:20,-160.1901,62.6473,M,M,M,30.00,10.00,M,29.23,M,10.00,16.00,FEW,BKN,OVC,M,3200.00,4700.00,5500.00,M,M,PANV 010820Z AUTO 03010G16KT 10SM FEW032 BKN047 OVC055 A2923 RMK MADISHF
PANV,2017-04-01 08:25,-160.1901,62.6473,M,M,M,30.00,11.00,M,29.23,M,10.00,M,BKN,OVC,M,M,4700.00,5500.00,M,M,M,PANV 010825Z AUTO 03011KT 10SM BKN047 OVC055 A2923 RMK MADISHF
PANV,2017-04-01 08:30,-160.1901,62.6473,M,M,M,30.00,12.00,M,29.23,M,10.00,M,FEW,BKN,OVC,M,3200.00,4700.00,5500.00,M,M,PANV 010830Z AUTO 03012KT 10SM FEW032 BKN047 OVC055 A2923 RMK MADISHF
PANV,2017-04-01 08:35,-160.1901,62.6473,M,M,M,30.00,11.00,M,29.23,M,10.00,M,FEW,SCT,BKN,M,3000.00,3600.00,4700.00,M,M,PANV 010835Z AUTO 03011KT 10SM FEW030 SCT036 BKN047 A2923 RMK MADISHF
PANV,2017-04-01 08:36,-160.1901,62.6473,28.40,17.60,63.51,30.00,10.00,0.00,29.23,M,10.00,M,SCT,SCT,OVC,M,2800.00,3600.00,4700.00,M,M,PANV 010836Z AUTO 03010KT 10SM SCT028 SCT036 OVC047 M02/M08 A2923 RMK AO1
PANV,2017-04-01 08:40,-160.1901,62.6473,M,M,M,30.00,12.00,M,29.23,M,10.00,M,SCT,BKN,OVC,M,2800.00,3300.00,4700.00,M,M,PANV 010840Z AUTO 03012KT 10SM SCT028 BKN033 OVC047 A2923 RMK MADISHF
PANV,2017-04-01 08:45,-160.1901,62.6473,M,M,M,30.00,11.00,M,29.23,M,10.00,16.00,SCT,BKN,OVC,M,2600.00,3300.00,4700.00,M,M,PANV 010845Z AUTO 03011G16KT 10SM SCT026 BKN033 OVC047 A2923 RMK MADISHF
PANV,2017-04-01 08:50,-160.1901,62.6473,M,M,M,30.00,11.00,M,29.23,M,10.00,16.00,BKN,BKN,OVC,M,2600.00,3300.00,4700.00,M,M,PANV 010850Z AUTO 03011G16KT 10SM BKN026 BKN033 OVC047 A2923 RMK MADISHF
PANV,2017-04-01 08:55,-160.1901,62.6473,M,M,M,30.00,12.00,M,29.23,M,10.00,M,BKN,BKN,OVC,M,2600.00,3300.00,4700.00,M,M,PANV 010855Z AUTO 03012KT 10SM BKN026 BKN033 OVC047 A2923 RMK MADISHF
PANV,2017-04-01 08:56,-160.1901,62.6473,28.40,15.80,58.75,30.00,12.00,0.00,29.23,M,10.00,M,BKN,BKN,OVC,M,2600.00,3300.00,4700.00,M,M,PANV 010856Z AUTO 03012KT 10SM BKN026 BKN033 OVC047 M02/M09 A2923 RMK AO1 52010
PANV,2017-04-01 09:00,-160.1901,62.6473,M,M,M,30.00,11.00,M,29.23,M,10.00,M,BKN,BKN,OVC,M,2600.00,3300.00,4700.00,M,M,PANV 010900Z AUTO 03011KT 10SM BKN026 BKN033 OVC047 A2923 RMK MADISHF
PANV,2017-04-01 09:05,-160.1901,62.6473,M,M,M,30.00,11.00,M,29.24,M,10.00,16.00,BKN,OVC,M,M,2600.00,4700.00,M,M,M,PANV 010905Z AUTO 03011G16KT 10SM BKN026 OVC047 A2924 RMK MADISHF
PANV,2017-04-01 09:10,-160.1901,62.6473,M,M,M,30.00,11.00,M,29.24,M,10.00,16.00,BKN,OVC,M,M,2600.00,4700.00,M,M,M,PANV 010910Z AUTO 03011G16KT 10SM BKN026 OVC047 A2924 RMK MADISHF
PANV,2017-04-01 09:15,-160.1901,62.6473,M,M,M,30.00,11.00,M,29.24,M,10.00,M,BKN,OVC,M,M,2600.00,4700.00,M,M,M,PANV 010915Z AUTO 03011KT 10SM BKN026 OVC047 A2924 RMK MADISHF
PANV,2017-04-01 09:16,-160.1901,62.6473,28.40,17.60,63.51,30.00,11.00,0.00,29.24,M,10.00,M,BKN,OVC,M,M,2600.00,4700.00,M,M,M,PANV 010916Z AUTO 03011KT 10SM BKN026 OVC047 M02/M08 A2924 RMK AO1
PANV,2017-04-01 09:20,-160.1901,62.6473,M,M,M,20.00,9.00,M,29.24,M,10.00,M,BKN,BKN,OVC,M,2600.00,3200.00,4700.00,M,M,PANV 010920Z AUTO 02009KT 10SM BKN026 BKN032 OVC047 A2924 RMK MADISHF
PANV,2017-04-01 09:25,-160.1901,62.6473,M,M,M,20.00,10.00,M,29.24,M,10.00,M,BKN,OVC,M,M,2600.00,3200.00,M,M,M,PANV 010925Z AUTO 02010KT 10SM BKN026 OVC032 A2924 RMK MADISHF
PANV,2017-04-01 09:30,-160.1901,62.6473,M,M,M,30.00,11.00,M,29.24,M,10.00,M,SCT,BKN,OVC,M,2600.00,3200.00,4800.00,M,M,PANV 010930Z AUTO 03011KT 10SM SCT026 BKN032 OVC048 A2924 RMK MADISHF
PANV,2017-04-01 09:35,-160.1901,62.6473,M,M,M,30.00,11.00,M,29.24,M,10.00,M,SCT,BKN,OVC,M,2600.00,3200.00,7000.00,M,M,PANV 010935Z AUTO 03011KT 10SM SCT026 BKN032 OVC070 A2924 RMK MADISHF
PANV,2017-04-01 09:36,-160.1901,62.6473,28.40,17.60,63.51,20.00,11.00,0.00,29.24,M,10.00,M,SCT,BKN,OVC,M,2600.00,3200.00,7000.00,M,M,PANV 010936Z AUTO 02011KT 10SM SCT026 BKN032 OVC070 M02/M08 A2924 RMK AO1
PANV,2017-04-01 09:40,-160.1901,62.6473,M,M,M,30.00,12.00,M,29.24,M,10.00,16.00,FEW,SCT,BKN,M,2600.00,3200.00,5500.00,M,M,PANV 010940Z AUTO 03012G16KT 10SM FEW026 SCT032 BKN055 A2924 RMK MADISHF
PANV,2017-04-01 09:45,-160.1901,62.6473,M,M,M,30.00,10.00,M,29.24,M,10.00,16.00,SCT,BKN,OVC,M,3200.00,5500.00,7000.00,M,M,PANV 010945Z AUTO 03010G16KT 10SM SCT032 BKN055 OVC070 A2924 RMK MADISHF
PANV,2017-04-01 09:50,-160.1901,62.6473,M,M,M,20.00,11.00,M,29.24,M,10.00,15.00,FEW,SCT,BKN,M,3200.00,4800.00,5500.00,M,M,PANV 010950Z AUTO 02011G15KT 10SM FEW032 SCT048 BKN055 A2924 RMK MADISHF
PANV,2017-04-01 09:55,-160.1901,62.6473,M,M,M,20.00,9.00,M,29.24,M,10.00,15.00,FEW,SCT,BKN,M,3200.00,5000.00,6500.00,M,M,PANV 010955Z AUTO 02009G15KT 10SM FEW032 SCT050 BKN065 A2924 RMK MADISHF
PANV,2017-04-01 09:56,-160.1901,62.6473,28.40,17.60,63.51,20.00,10.00,0.00,29.24,M,10.00,15.00,FEW,SCT,BKN,M,3200.00,5000.00,6500.00,M,M,PANV 010956Z AUTO 02010G15KT 10SM FEW032 SCT050 BKN065 M02/M08 A2924 RMK AO1
PANV,2017-04-01 10:00,-160.1901,62.6473,M,M,M,20.00,10.00,M,29.24,M,10.00,M,SCT,SCT,OVC,M,5000.00,6500.00,11000.00,M,M,PANV 011000Z AUTO 02010KT 10SM SCT050 SCT065 OVC110 A2924 RMK MADISHF
PANV,2017-04-01 10:05,-160.1901,62.6473,M,M,M,20.00,9.00,M,29.24,M,10.00,14.00,FEW,BKN,OVC,M,3000.00,5000.00,11000.00,M,M,PANV 011005Z AUTO 02009G14KT 10SM FEW030 BKN050 OVC110 A2924 RMK MADISHF
PANV,2017-04-01 10:10,-160.1901,62.6473,M,M,M,30.00,9.00,M,29.24,M,10.00,15.00,FEW,SCT,BKN,M,3200.00,3999.00,5000.00,M,M,PANV 011010Z AUTO 03009G15KT 10SM FEW032 SCT039 BKN050 A2924 RMK MADISHF
PANV,2017-04-01 10:15,-160.1901,62.6473,M,M,M,30.00,10.00,M,29.25,M,10.00,15.00,SCT,BKN,OVC,M,3200.00,5000.00,11000.00,M,M,PANV 011015Z AUTO 03010G15KT 10SM SCT032 BKN050 OVC110 A2925 RMK MADISHF
PANV,2017-04-01 10:16,-160.1901,62.6473,28.40,15.80,58.75,30.00,9.00,0.00,29.25,M,10.00,15.00,SCT,BKN,OVC,M,3200.00,5000.00,11000.00,M,M,PANV 011016Z AUTO 03009G15KT 10SM SCT032 BKN050 OVC110 M02/M09 A2925 RMK AO1
PANV,2017-04-01 10:20,-160.1901,62.6473,M,M,M,30.00,10.00,M,29.25,M,10.00,M,FEW,BKN,OVC,M,2800.00,3399.00,11000.00,M,M,PANV 011020Z AUTO 03010KT 10SM FEW028 BKN033 OVC110 A2925 RMK MADISHF
PANV,2017-04-01 10:25,-160.1901,62.6473,M,M,M,30.00,9.00,M,29.25,M,10.00,M,SCT,BKN,OVC,M,2600.00,3399.00,5500.00,M,M,PANV 011025Z AUTO 03009KT 10SM SCT026 BKN033 OVC055 A2925 RMK MADISHF
PANV,2017-04-01 10:30,-160.1901,62.6473,M,M,M,20.00,11.00,M,29.25,M,10.00,M,SCT,BKN,OVC,M,2600.00,3200.00,4800.00,M,M,PANV 011030Z AUTO 02011KT 10SM SCT026 BKN032 OVC048 A2925 RMK MADISHF
PANV,2017-04-01 10:36,-160.1901,62.6473,28.40,15.80,58.75,30.00,10.00,0.00,29.25,M,10.00,M,FEW,BKN,OVC,M,2600.00,3200.00,4800.00,M,M,PANV 011036Z AUTO 03010KT 10SM FEW026 BKN032 OVC048 M02/M09 A2925 RMK AO1
PANV,2017-04-01 10:40,-160.1901,62.6473,M,M,M,20.00,10.00,M,29.25,M,10.00,M,FEW,BKN,OVC,M,2600.00,3200.00,4800.00,M,M,PANV 011040Z AUTO 02010KT 10SM FEW026 BKN032 OVC048 A2925 RMK MADISHF
PANV,2017-04-01 10:45,-160.1901,62.6473,M,M,M,30.00,10.00,M,29.25,M,10.00,M,FEW,BKN,OVC,M,2600.00,3399.00,4500.00,M,M,PANV 011045Z AUTO 03010KT 10SM FEW026 BKN033 OVC045 A2925 RMK MADISHF
PANV,2017-04-01 10:50,-160.1901,62.6473,M,M,M,30.00,10.00,M,29.25,M,10.00,M,FEW,BKN,OVC,M,2600.00,3399.00,4700.00,M,M,PANV 011050Z AUTO 03010KT 10SM FEW026 BKN033 OVC047 A2925 RMK MADISHF
PANV,2017-04-01 10:55,-160.1901,62.6473,M,M,M,30.00,10.00,M,29.25,M,10.00,M,BKN,OVC,M,M,3500.00,4300.00,M,M,M,PANV 011055Z AUTO 03010KT 10SM BKN035 OVC043 A2925 RMK MADISHF
PANV,2017-04-01 10:56,-160.1901,62.6473,28.40,15.80,58.75,30.00,10.00,0.00,29.25,M,10.00,15.00,BKN,OVC,M,M,3700.00,4700.00,M,M,M,PANV 011056Z AUTO 03010G15KT 10SM BKN037 OVC047 M02/M09 A2925 RMK AO1
PANV,2017-04-01 11:00,-160.1901,62.6473,M,M,M,30.00,10.00,M,29.25,M,10.00,15.00,OVC,M,M,M,3700.00,M,M,M,M,PANV 011100Z AUTO 03010G15KT 10SM OVC037 A2925 RMK MADISHF
PANV,2017-04-01 11:05,-160.1901,62.6473,M,M,M,40.00,9.00,M,29.25,M,10.00,15.00,BKN,OVC,M,M,3900.00,4400.00,M,M,M,PANV 011105Z AUTO 04009G15KT 10SM BKN039 OVC044 A2925 RMK MADISHF
PANV,2017-04-01 11:10,-160.1901,62.6473,M,M,M,30.00,10.00,M,29.25,M,10.00,M,BKN,OVC,M,M,3700.00,4600.00,M,M,M,PANV 011110Z AUTO 03010KT 10SM BKN037 OVC046 A2925 RMK MADISHF
PANV,2017-04-01 11:15,-160.1901,62.6473,M,M,M,30.00,9.00,M,29.25,M,10.00,14.00,SCT,OVC,M,M,3900.00,4800.00,M,M,M,PANV 011115Z AUTO 03009G14KT 10SM SCT039 OVC048 A2925 RMK MADISHF
PANV,2017-04-01 11:16,-160.1901,62.6473,28.40,15.80,58.75,30.00,10.00,0.00,29.25,M,10.00,14.00,SCT,OVC,M,M,3900.00,4800.00,M,M,M,PANV 011116Z AUTO 03010G14KT 10SM SCT039 OVC048 M02/M09 A2925 RMK AO1
PANV,2017-04-01 11:20,-160.1901,62.6473,M,M,M,30.00,10.00,M,29.25,M,10.00,14.00,SCT,OVC,M,M,3900.00,4800.00,M,M,M,PANV 011120Z AUTO 03010G14KT 10SM SCT039 OVC048 A2925 RMK MADISHF
PANV,2017-04-01 11:25,-160.1901,62.6473,M,M,M,30.00,10.00,M,29.26,M,10.00,14.00,SCT,OVC,M,M,4100.00,4800.00,M,M,M,PANV 011125Z AUTO 03010G14KT 10SM SCT041 OVC048 A2926 RMK MADISHF
PANV,2017-04-01 11:30,-160.1901,62.6473,M,M,M,30.00,10.00,M,29.26,M,10.00,M,SCT,OVC,M,M,4100.00,4800.00,M,M,M,PANV 011130Z AUTO 03010KT 10SM SCT041 OVC048 A2926 RMK MADISHF
PANV,2017-04-01 11:35,-160.1901,62.6473,M,M,M,40.00,10.00,M,29.26,M,10.00,M,SCT,OVC,M,M,3900.00,4800.00,M,M,M,PANV 011135Z AUTO 04010KT 10SM SCT039 OVC048 A2926 RMK MADISHF
PANV,2017-04-01 11:36,-160.1901,62.6473,28.40,15.80,58.75,40.00,11.00,0.00,29.26,M,10.00,16.00,SCT,OVC,M,M,3900.00,4800.00,M,M,M,PANV 011136Z AUTO 04011G16KT 10SM SCT039 OVC048 M02/M09 A2926 RMK AO1
PANV,2017-04-01 11:40,-160.1901,62.6473,M,M,M,40.00,9.00,M,29.26,M,10.00,16.00,BKN,OVC,M,M,3900.00,4800.00,M,M,M,PANV 011140Z AUTO 04009G16KT 10SM BKN039 OVC048 A2926 RMK MADISHF
PANV,2017-04-01 11:45,-160.1901,62.6473,M,M,M,30.00,11.00,M,29.26,M,10.00,16.00,BKN,OVC,M,M,3900.00,4800.00,M,M,M,PANV 011145Z AUTO 03011G16KT 10SM BKN039 OVC048 A2926 RMK MADISHF
PANV,2017-04-01 11:50,-160.1901,62.6473,M,M,M,40.00,9.00,M,29.26,M,10.00,15.00,BKN,OVC,M,M,3900.00,4800.00,M,M,M,PANV 011150Z AUTO 04009G15KT 10SM BKN039 OVC048 A2926 RMK MADISHF
PANV,2017-04-01 11:55,-160.1901,62.6473,M,M,M,30.00,9.00,M,29.26,M,10.00,M,OVC,M,M,M,3700.00,M,M,M,M,PANV 011155Z AUTO 03009KT 10SM OVC037 A2926 RMK MADISHF
PANV,2017-04-01 11:56,-160.1901,62.6473,28.40,15.80,58.75,40.00,9.00,0.00,29.26,M,10.00,M,OVC,M,M,M,3700.00,M,M,M,M,PANV 011156Z AUTO 04009KT 10SM OVC037 M02/M09 A2926 RMK AO1 11020 21020 52010
PANV,2017-04-01 12:00,-160.1901,62.6473,M,M,M,40.00,9.00,M,29.26,M,10.00,M,OVC,M,M,M,3700.00,M,M,M,M,PANV 011200Z AUTO 04009KT 10SM OVC037 A2926 RMK MADISHF
PANV,2017-04-01 12:05,-160.1901,62.6473,M,M,M,40.00,10.00,M,29.27,M,10.00,M,OVC,M,M,M,3700.00,M,M,M,M,PANV 011205Z AUTO 04010KT 10SM OVC037 A2927 RMK MADISHF
PANV,2017-04-01 12:10,-160.1901,62.6473,M,M,M,30.00,10.00,M,29.26,M,10.00,M,OVC,M,M,M,3700.00,M,M,M,M,PANV 011210Z AUTO 03010KT 10SM OVC037 A2926 RMK MADISHF
PANV,2017-04-01 12:15,-160.1901,62.6473,M,M,M,40.00,9.00,M,29.27,M,10.00,M,OVC,M,M,M,3500.00,M,M,M,M,PANV 011215Z AUTO 04009KT 10SM OVC035 A2927 RMK MADISHF
PANV,2017-04-01 12:16,-160.1901,62.6473,28.40,15.80,58.75,30.00,10.00,0.00,29.27,M,10.00,M,OVC,M,M,M,3500.00,M,M,M,M,PANV 011216Z AUTO 03010KT 10SM OVC035 M02/M09 A2927 RMK AO1
PANV,2017-04-01 12:20,-160.1901,62.6473,M,M,M,30.00,9.00,M,29.27,M,10.00,M,OVC,M,M,M,3500.00,M,M,M,M,PANV 011220Z AUTO 03009KT 10SM OVC035 A2927 RMK MADISHF
PANV,2017-04-01 12:25,-160.1901,62.6473,M,M,M,40.00,11.00,M,29.26,M,10.00,M,SCT,OVC,M,M,3000.00,3500.00,M,M,M,PANV 011225Z AUTO 04011KT 10SM SCT030 OVC035 A2926 RMK MADISHF
PANV,2017-04-01 12:30,-160.1901,62.6473,M,M,M,30.00,9.00,M,29.27,M,10.00,M,BKN,OVC,M,M,2700.00,3500.00,M,M,M,PANV 011230Z AUTO 03009KT 10SM BKN027 OVC035 A2927 RMK MADISHF
PANV,2017-04-01 12:35,-160.1901,62.6473,M,M,M,30.00,11.00,M,29.27,M,10.00,M,SCT,OVC,M,M,2500.00,3300.00,M,M,M,PANV 011235Z AUTO 03011KT 10SM SCT025 OVC033 A2927 RMK MADISHF
PANV,2017-04-01 12:36,-160.1901,62.6473,28.40,15.80,58.75,30.00,10.00,0.00,29.27,M,10.00,M,SCT,OVC,M,M,2500.00,3300.00,M,M,M,PANV 011236Z AUTO 03010KT 10SM SCT025 OVC033 M02/M09 A2927 RMK AO1
PANV,2017-04-01 12:40,-160.1901,62.6473,M,M,M,30.00,11.00,M,29.27,M,10.00,15.00,BKN,OVC,M,M,2700.00,3300.00,M,M,M,PANV 011240Z AUTO 03011G15KT 10SM BKN027 OVC033 A2927 RMK MADISHF
PANV,2017-04-01 12:45,-160.1901,62.6473,M,M,M,30.00,11.00,M,29.27,M,10.00,15.00,BKN,OVC,M,M,2700.00,3600.00,M,M,M,PANV 011245Z AUTO 03011G15KT 10SM BKN027 OVC036 A2927 RMK MADISHF
PANV,2017-04-01 12:50,-160.1901,62.6473,M,M,M,30.00,11.00,M,29.27,M,10.00,M,SCT,BKN,OVC,M,2700.00,3300.00,3900.00,M,M,PANV 011250Z AUTO 03011KT 10SM SCT027 BKN033 OVC039 A2927 RMK MADISHF
PANV,2017-04-01 12:55,-160.1901,62.6473,M,M,M,30.00,11.00,M,29.27,M,9.00,M,SCT,OVC,M,M,2700.00,3700.00,M,M,M,PANV 011255Z AUTO 03011KT 9SM SCT027 OVC037 A2927 RMK MADISHF
PANV,2017-04-01 12:56,-160.1901,62.6473,28.40,15.80,58.75,40.00,11.00,0.00,29.27,M,9.00,M,SCT,OVC,M,M,2700.00,3700.00,M,M,M,PANV 011256Z AUTO 04011KT 9SM SCT027 OVC037 M02/M09 A2927 RMK AO1
PANV,2017-04-01 13:00,-160.1901,62.6473,M,M,M,30.00,10.00,M,29.27,M,8.00,M,FEW,OVC,M,M,2700.00,3700.00,M,M,M,PANV 011300Z AUTO 03010KT 8SM FEW027 OVC037 A2927 RMK MADISHF
PANV,2017-04-01 13:05,-160.1901,62.6473,M,M,M,30.00,9.00,M,29.27,M,9.00,15.00,FEW,BKN,OVC,M,2700.00,3700.00,5000.00,M,M,PANV 011305Z AUTO 03009G15KT 9SM FEW027 BKN037 OVC050 A2927 RMK MADISHF
PANV,2017-04-01 13:10,-160.1901,62.6473,M,M,M,30.00,10.00,M,29.27,M,10.00,15.00,BKN,BKN,OVC,M,3700.00,4900.00,5000.00,M,M,PANV 011310Z AUTO 03010G15KT 10SM BKN037 BKN049 OVC050 A2927 RMK MADISHF
PANV,2017-04-01 13:15,-160.1901,62.6473,M,M,M,30.00,11.00,M,29.27,M,10.00,M,BKN,OVC,M,M,3700.00,5000.00,M,M,M,PANV 011315Z AUTO 03011KT 10SM BKN037 OVC050 A2927 RMK MADISHF
PANV,2017-04-01 13:16,-160.1901,62.6473,28.40,15.80,58.75,30.00,10.00,0.00,29.27,M,10.00,M,SCT,BKN,OVC,M,3700.00,4800.00,5000.00,M,M,PANV 011316Z AUTO 03010KT 10SM SCT037 BKN048 OVC050 M02/M09 A2927 RMK AO1
PANV,2017-04-01 13:20,-160.1901,62.6473,M,M,M,30.00,11.00,M,29.27,M,10.00,M,FEW,SCT,BKN,M,2700.00,3700.00,4800.00,M,M,PANV 011320Z AUTO 03011KT 10SM FEW027 SCT037 BKN048 A2927 RMK MADISHF
PANV,2017-04-01 13:25,-160.1901,62.6473,M,M,M,30.00,10.00,M,29.27,M,10.00,M,SCT,BKN,OVC,M,2700.00,3600.00,5500.00,M,M,PANV 011325Z AUTO 03010KT 10SM SCT027 BKN036 OVC055 A2927 RMK MADISHF
PANV,2017-04-01 13:30,-160.1901,62.6473,M,M,M,30.00,10.00,M,29.27,M,10.00,15.00,SCT,BKN,OVC,M,2900.00,3800.00,5500.00,M,M,PANV 011330Z AUTO 03010G15KT 10SM SCT029 BKN038 OVC055 A2927 RMK MADISHF
PANV,2017-04-01 13:35,-160.1901,62.6473,M,M,M,20.00,13.00,M,29.27,M,10.00,M,BKN,BKN,OVC,M,3100.00,3800.00,4800.00,M,M,PANV 011335Z AUTO 02013KT 10SM BKN031 BKN038 OVC048 A2927 RMK MADISHF
PANV,2017-04-01 13:36,-160.1901,62.6473,28.40,15.80,58.75,30.00,13.00,0.00,29.27,M,10.00,M,FEW,BKN,OVC,M,2800.00,3300.00,4800.00,M,M,PANV 011336Z AUTO 03013KT 10SM FEW028 BKN033 OVC048 M02/M09 A2927 RMK AO1
PANV,2017-04-01 13:40,-160.1901,62.6473,M,M,M,30.00,12.00,M,29.27,M,10.00,16.00,FEW,BKN,OVC,M,2800.00,3300.00,4800.00,M,M,PANV 011340Z AUTO 03012G16KT 10SM FEW028 BKN033 OVC048 A2927 RMK MADISHF
PANV,2017-04-01 13:45,-160.1901,62.6473,M,M,M,30.00,9.00,M,29.27,M,10.00,16.00,SCT,BKN,OVC,M,2800.00,3500.00,4300.00,M,M,PANV 011345Z AUTO 03009G16KT 10SM SCT028 BKN035 OVC043 A2927 RMK MADISHF
PANV,2017-04-01 13:50,-160.1901,62.6473,M,M,M,30.00,10.00,M,29.27,M,10.00,M,SCT,BKN,OVC,M,2800.00,3200.00,3900.00,M,M,PANV 011350Z AUTO 03010KT 10SM SCT028 BKN032 OVC039 A2927 RMK MADISHF
PANV,2017-04-01 13:55,-160.1901,62.6473,M,M,M,30.00,10.00,M,29.27,M,10.00,M,SCT,BKN,OVC,M,2800.00,3700.00,5000.00,M,M,PANV 011355Z AUTO 03010KT 10SM SCT028 BKN037 OVC050 A2927 RMK MADISHF
PANV,2017-04-01 13:56,-160.1901,62.6473,28.40,17.60,63.51,30.00,10.00,0.00,29.27,M,10.00,M,FEW,BKN,OVC,M,2800.00,3400.00,5000.00,M,M,PANV 011356Z AUTO 03010KT 10SM FEW028 BKN034 OVC050 M02/M08 A2927 RMK AO1
PANV,2017-04-01 14:00,-160.1901,62.6473,M,M,M,30.00,10.00,M,29.27,M,10.00,M,FEW,SCT,BKN,M,2800.00,3399.00,4200.00,M,M,PANV 011400Z AUTO 03010KT 10SM FEW028 SCT033 BKN042 A2927 RMK MADISHF
PANV,2017-04-01 14:05,-160.1901,62.6473,M,M,M,30.00,11.00,M,29.27,M,10.00,M,SCT,BKN,OVC,M,2800.00,3700.00,5000.00,M,M,PANV 011405Z AUTO 03011KT 10SM SCT028 BKN037 OVC050 A2927 RMK MADISHF
PANV,2017-04-01 14:10,-160.1901,62.6473,M,M,M,30.00,10.00,M,29.27,M,10.00,M,SCT,BKN,OVC,M,2800.00,3700.00,5000.00,M,M,PANV 011410Z AUTO 03010KT 10SM SCT028 BKN037 OVC050 A2927 RMK MADISHF
PANV,2017-04-01 14:15,-160.1901,62.6473,M,M,M,30.00,10.00,M,29.27,M,10.00,14.00,SCT,BKN,OVC,M,3000.00,3500.00,5000.00,M,M,PANV 011415Z AUTO 03010G14KT 10SM SCT030 BKN035 OVC050 A2927 RMK MADISHF
PANV,2017-04-01 14:16,-160.1901,62.6473,28.40,15.80,58.75,30.00,11.00,0.00,29.27,M,10.00,15.00,SCT,BKN,OVC,M,3000.00,3500.00,5000.00,M,M,PANV 011416Z AUTO 03011G15KT 10SM SCT030 BKN035 OVC050 M02/M09 A2927 RMK AO1
PANV,2017-04-01 14:20,-160.1901,62.6473,M,M,M,30.00,10.00,M,29.27,M,10.00,15.00,FEW,SCT,BKN,M,1800.00,3000.00,3500.00,M,M,PANV 011420Z AUTO 03010G15KT 10SM FEW018 SCT030 BKN035 A2927 RMK MADISHF
PANV,2017-04-01 14:25,-160.1901,62.6473,M,M,M,30.00,9.00,M,29.28,M,10.00,15.00,SCT,OVC,M,M,1800.00,3300.00,M,M,M,PANV 011425Z AUTO 03009G15KT 10SM SCT018 OVC033 A2928 RMK MADISHF
PANV,2017-04-01 14:30,-160.1901,62.6473,M,M,M,30.00,10.00,M,29.28,M,10.00,M,BKN,OVC,M,M,1800.00,3300.00,M,M,M,PANV 011430Z AUTO 03010KT 10SM BKN018 OVC033 A2928 RMK MADISHF
PANV,2017-04-01 14:35,-160.1901,62.6473,M,M,M,30.00,11.00,M,29.28,M,10.00,M,BKN,OVC,M,M,1800.00,3300.00,M,M,M,PANV 011435Z AUTO 03011KT 10SM BKN018 OVC033 A2928 RMK MADISHF
PANV,2017-04-01 14:36,-160.1901,62.6473,28.40,15.80,58.75,20.00,11.00,0.00,29.28,M,10.00,M,BKN,BKN,OVC,M,1800.00,3000.00,3500.00,M,M,PANV 011436Z AUTO 02011KT 10SM BKN018 BKN030 OVC035 M02/M09 A2928 RMK AO1
PANV,2017-04-01 14:40,-160.1901,62.6473,M,M,M,30.00,10.00,M,29.28,M,10.00,M,BKN,BKN,OVC,M,1800.00,2400.00,3399.00,M,M,PANV 011440Z AUTO 03010KT 10SM BKN018 BKN024 OVC033 A2928 RMK MADISHF
PANV,2017-04-01 14:45,-160.1901,62.6473,M,M,M,30.00,11.00,M,29.28,M,10.00,M,BKN,OVC,M,M,1999.00,2700.00,M,M,M,PANV 011445Z AUTO 03011KT 10SM BKN019 OVC027 A2928 RMK MADISHF
PANV,2017-04-01 14:50,-160.1901,62.6473,M,M,M,30.00,10.00,M,29.28,M,10.00,M,BKN,BKN,OVC,M,1999.00,2500.00,3000.00,M,M,PANV 011450Z AUTO 03010KT 10SM BKN019 BKN025 OVC030 A2928 RMK MADISHF
PANV,2017-04-01 14:55,-160.1901,62.6473,M,M,M,20.00,10.00,M,29.28,M,10.00,M,BKN,OVC,M,M,2200.00,3000.00,M,M,M,PANV 011455Z AUTO 02010KT 10SM BKN022 OVC030 A2928 RMK MADISHF
PANV,2017-04-01 14:56,-160.1901,62.6473,28.40,15.80,58.75,20.00,10.00,0.00,29.28,M,10.00,M,BKN,OVC,M,M,2200.00,3000.00,M,M,M,PANV 011456Z AUTO 02010KT 10SM BKN022 OVC030 M02/M09 A2928 RMK AO1 52007
PANV,2017-04-01 15:00,-160.1901,62.6473,M,M,M,30.00,10.00,M,29.28,M,10.00,M,BKN,OVC,M,M,2200.00,3000.00,M,M,M,PANV 011500Z AUTO 03010KT 10SM BKN022 OVC030 A2928 RMK MADISHF
PANV,2017-04-01 15:05,-160.1901,62.6473,M,M,M,30.00,10.00,M,29.29,M,10.00,M,BKN,OVC,M,M,2200.00,3000.00,M,M,M,PANV 011505Z AUTO 03010KT 10SM BKN022 OVC030 A2929 RMK MADISHF
PANV,2017-04-01 15:10,-160.1901,62.6473,M,M,M,30.00,10.00,M,29.29,M,10.00,16.00,OVC,M,M,M,2200.00,M,M,M,M,PANV 011510Z AUTO 03010G16KT 10SM OVC022 A2929 RMK MADISHF
PANV,2017-04-01 15:15,-160.1901,62.6473,M,M,M,20.00,9.00,M,29.29,M,10.00,16.00,BKN,OVC,M,M,2200.00,2800.00,M,M,M,PANV 011515Z AUTO 02009G16KT 10SM BKN022 OVC028 A2929 RMK MADISHF
PANV,2017-04-01 15:16,-160.1901,62.6473,28.40,15.80,58.75,20.00,9.00,0.00,29.29,M,10.00,16.00,BKN,OVC,M,M,2200.00,2800.00,M,M,M,PANV 011516Z AUTO 02009G16KT 10SM BKN022 OVC028 M02/M09 A2929 RMK AO1
PANV,2017-04-01 15:20,-160.1901,62.6473,M,M,M,30.00,10.00,M,29.29,M,10.00,M,OVC,M,M,M,1999.00,M,M,M,M,PANV 011520Z AUTO 03010KT 10SM OVC019 A2929 RMK MADISHF
PANV,2017-04-01 15:25,-160.1901,62.6473,M,M,M,30.00,11.00,M,29.29,M,10.00,M,OVC,M,M,M,1999.00,M,M,M,M,PANV 011525Z AUTO 03011KT 10SM OVC019 A2929 RMK MADISHF
PANV,2017-04-01 15:30,-160.1901,62.6473,M,M,M,30.00,11.00,M,29.29,M,10.00,M,OVC,M,M,M,1999.00,M,M,M,M,PANV 011530Z AUTO 03011KT 10SM OVC019 A2929 RMK MADISHF
PANV,2017-04-01 15:35,-160.1901,62.6473,M,M,M,30.00,11.00,M,29.29,M,10.00,M,OVC,M,M,M,1999.00,M,M,M,M,PANV 011535Z AUTO 03011KT 10SM OVC019 A2929 RMK MADISHF
PANV,2017-04-01 15:36,-160.1901,62.6473,28.40,15.80,58.75,30.00,11.00,0.00,29.29,M,10.00,M,OVC,M,M,M,2000.00,M,M,M,M,PANV 011536Z AUTO 03011KT 10SM OVC020 M02/M09 A2929 RMK AO1
PANV,2017-04-01 15:40,-160.1901,62.6473,M,M,M,20.00,11.00,M,29.29,M,10.00,M,OVC,M,M,M,1999.00,M,M,M,M,PANV 011540Z AUTO 02011KT 10SM OVC019 A2929 RMK MADISHF
PANV,2017-04-01 15:45,-160.1901,62.6473,M,M,M,30.00,10.00,M,29.30,M,10.00,M,OVC,M,M,M,1999.00,M,M,M,M,PANV 011545Z AUTO 03010KT 10SM OVC019 A2930 RMK MADISHF
PANV,2017-04-01 15:50,-160.1901,62.6473,M,M,M,30.00,11.00,M,29.30,M,10.00,M,OVC,M,M,M,1999.00,M,M,M,M,PANV 011550Z AUTO 03011KT 10SM OVC019 A2930 RMK MADISHF
PANV,2017-04-01 15:55,-160.1901,62.6473,M,M,M,30.00,11.00,M,29.30,M,10.00,M,OVC,M,M,M,1999.00,M,M,M,M,PANV 011555Z AUTO 03011KT 10SM OVC019 A2930 RMK MADISHF
PANV,2017-04-01 15:56,-160.1901,62.6473,28.40,15.80,58.75,30.00,10.00,0.00,29.30,M,10.00,M,OVC,M,M,M,2000.00,M,M,M,M,PANV 011556Z AUTO 03010KT 10SM OVC020 M02/M09 A2930 RMK AO1
PANV,2017-04-01 16:00,-160.1901,62.6473,M,M,M,20.00,9.00,M,29.30,M,10.00,M,BKN,OVC,M,M,1999.00,2500.00,M,M,M,PANV 011600Z AUTO 02009KT 10SM BKN019 OVC025 A2930 RMK MADISHF
PANV,2017-04-01 16:05,-160.1901,62.6473,M,M,M,30.00,9.00,M,29.30,M,10.00,M,BKN,BKN,OVC,M,1999.00,2500.00,3100.00,M,M,PANV 011605Z AUTO 03009KT 10SM BKN019 BKN025 OVC031 A2930 RMK MADISHF
PANV,2017-04-01 16:10,-160.1901,62.6473,M,M,M,30.00,8.00,M,29.30,M,10.00,M,BKN,BKN,OVC,M,1999.00,2500.00,3100.00,M,M,PANV 011610Z AUTO 03008KT 10SM BKN019 BKN025 OVC031 A2930 RMK MADISHF
PANV,2017-04-01 16:15,-160.1901,62.6473,M,M,M,30.00,9.00,M,29.30,M,10.00,M,BKN,OVC,M,M,1999.00,2700.00,M,M,M,PANV 011615Z AUTO 03009KT 10SM BKN019 OVC027 A2930 RMK MADISHF
PANV,2017-04-01 16:16,-160.1901,62.6473,28.40,15.80,58.75,40.00,10.00,0.00,29.30,M,10.00,M,BKN,OVC,M,M,2000.00,2700.00,M,M,M,PANV 011616Z AUTO 04010KT 10SM BKN020 OVC027 M02/M09 A2930 RMK AO1
PANV,2017-04-01 16:20,-160.1901,62.6473,M,M,M,40.00,7.00,M,29.31,M,10.00,M,BKN,OVC,M,M,1999.00,2900.00,M,M,M,PANV 011620Z AUTO 04007KT 10SM BKN019 OVC029 A2931 RMK MADISHF
PANV,2017-04-01 16:25,-160.1901,62.6473,M,M,M,40.00,9.00,M,29.31,M,10.00,M,BKN,OVC,M,M,1999.00,3000.00,M,M,M,PANV 011625Z AUTO 04009KT 10SM BKN019 OVC030 A2931 RMK MADISHF
PANV,2017-04-01 16:30,-160.1901,62.6473,M,M,M,30.00,8.00,M,29.31,M,10.00,M,BKN,OVC,M,M,1999.00,3000.00,M,M,M,PANV 011630Z AUTO 03008KT 10SM BKN019 OVC030 A2931 RMK MADISHF
PANV,2017-04-01 16:35,-160.1901,62.6473,M,M,M,30.00,8.00,M,29.31,M,10.00,M,BKN,BKN,OVC,M,1999.00,2800.00,3600.00,M,M,PANV 011635Z AUTO 03008KT 10SM BKN019 BKN028 OVC036 A2931 RMK MADISHF
PANV,2017-04-01 16:36,-160.1901,62.6473,28.40,15.80,58.75,30.00,9.00,0.00,29.31,M,10.00,M,BKN,BKN,OVC,M,2000.00,2800.00,3600.00,M,M,PANV 011636Z AUTO 03009KT 10SM BKN020 BKN028 OVC036 M02/M09 A2931 RMK AO1
PANV,2017-04-01 16:40,-160.1901,62.6473,M,M,M,30.00,9.00,M,29.31,M,10.00,M,BKN,BKN,OVC,M,1999.00,2800.00,3600.00,M,M,PANV 011640Z AUTO 03009KT 10SM BKN019 BKN028 OVC036 A2931 RMK MADISHF
PANV,2017-04-01 16:45,-160.1901,62.6473,M,M,M,40.00,8.00,M,29.31,M,10.00,M,BKN,OVC,M,M,1999.00,3600.00,M,M,M,PANV 011645Z AUTO 04008KT 10SM BKN019 OVC036 A2931 RMK MADISHF
PANV,2017-04-01 16:50,-160.1901,62.6473,M,M,M,30.00,8.00,M,29.31,M,10.00,M,BKN,BKN,OVC,M,2200.00,3000.00,3600.00,M,M,PANV 011650Z AUTO 03008KT 10SM BKN022 BKN030 OVC036 A2931 RMK MADISHF
PANV,2017-04-01 16:55,-160.1901,62.6473,M,M,M,40.00,9.00,M,29.31,M,10.00,M,BKN,BKN,OVC,M,2200.00,3000.00,3600.00,M,M,PANV 011655Z AUTO 04009KT 10SM BKN022 BKN030 OVC036 A2931 RMK MADISHF
PANV,2017-04-01 16:56,-160.1901,62.6473,28.40,15.80,58.75,40.00,9.00,0.00,29.31,M,10.00,M,BKN,BKN,OVC,M,2200.00,3000.00,3600.00,M,M,PANV 011656Z AUTO 04009KT 10SM BKN022 BKN030 OVC036 M02/M09 A2931 RMK AO1
PANV,2017-04-01 17:00,-160.1901,62.6473,M,M,M,30.00,9.00,M,29.31,M,10.00,M,BKN,OVC,M,M,2200.00,3000.00,M,M,M,PANV 011700Z AUTO 03009KT 10SM BKN022 OVC030 A2931 RMK MADISHF
PANV,2017-04-01 17:05,-160.1901,62.6473,M,M,M,40.00,9.00,M,29.32,M,10.00,M,BKN,OVC,M,M,2200.00,3000.00,M,M,M,PANV 011705Z AUTO 04009KT 10SM BKN022 OVC030 A2932 RMK MADISHF
PANV,2017-04-01 17:10,-160.1901,62.6473,M,M,M,30.00,9.00,M,29.32,M,10.00,M,BKN,OVC,M,M,2200.00,2800.00,M,M,M,PANV 011710Z AUTO 03009KT 10SM BKN022 OVC028 A2932 RMK MADISHF
PANV,2017-04-01 17:15,-160.1901,62.6473,M,M,M,30.00,10.00,M,29.32,M,10.00,M,BKN,OVC,M,M,2200.00,2800.00,M,M,M,PANV 011715Z AUTO 03010KT 10SM BKN022 OVC028 A2932 RMK MADISHF
PANV,2017-04-01 17:16,-160.1901,62.6473,28.40,15.80,58.75,30.00,10.00,0.00,29.32,M,10.00,M,SCT,OVC,M,M,2200.00,2800.00,M,M,M,PANV 011716Z AUTO 03010KT 10SM SCT022 OVC028 M02/M09 A2932 RMK AO1
PANV,2017-04-01 17:20,-160.1901,62.6473,M,M,M,30.00,10.00,M,29.32,M,10.00,M,SCT,OVC,M,M,2200.00,3000.00,M,M,M,PANV 011720Z AUTO 03010KT 10SM SCT022 OVC030 A2932 RMK MADISHF
PANV,2017-04-01 17:25,-160.1901,62.6473,M,M,M,30.00,10.00,M,29.32,M,10.00,M,SCT,OVC,M,M,2200.00,3200.00,M,M,M,PANV 011725Z AUTO 03010KT 10SM SCT022 OVC032 A2932 RMK MADISHF
PANV,2017-04-01 17:30,-160.1901,62.6473,M,M,M,30.00,9.00,M,29.32,M,10.00,M,FEW,SCT,OVC,M,2200.00,3000.00,3800.00,M,M,PANV 011730Z AUTO 03009KT 10SM FEW022 SCT030 OVC038 A2932 RMK MADISHF
PANV,2017-04-01 17:35,-160.1901,62.6473,M,M,M,30.00,10.00,M,29.32,M,10.00,M,BKN,OVC,M,M,3300.00,3999.00,M,M,M,PANV 011735Z AUTO 03010KT 10SM BKN033 OVC039 A2932 RMK MADISHF
PANV,2017-04-01 17:36,-160.1901,62.6473,28.40,15.80,58.75,30.00,9.00,0.00,29.32,M,10.00,M,BKN,OVC,M,M,3300.00,4000.00,M,M,M,PANV 011736Z AUTO 03009KT 10SM BKN033 OVC040 M02/M09 A2932 RMK AO1
PANV,2017-04-01 17:40,-160.1901,62.6473,M,M,M,30.00,11.00,M,29.33,M,10.00,M,BKN,OVC,M,M,3300.00,3999.00,M,M,M,PANV 011740Z AUTO 03011KT 10SM BKN033 OVC039 A2933 RMK MADISHF
PANV,2017-04-01 17:45,-160.1901,62.6473,M,M,M,30.00,10.00,M,29.33,M,10.00,M,SCT,BKN,OVC,M,2100.00,3500.00,3999.00,M,M,PANV 011745Z AUTO 03010KT 10SM SCT021 BKN035 OVC039 A2933 RMK MADISHF
PANV,2017-04-01 17:50,-160.1901,62.6473,M,M,M,30.00,10.00,M,29.33,M,10.00,M,SCT,SCT,OVC,M,2100.00,2900.00,3700.00,M,M,PANV 011750Z AUTO 03010KT 10SM SCT021 SCT029 OVC037 A2933 RMK MADISHF
PANV,2017-04-01 17:55,-160.1901,62.6473,M,M,M,30.00,9.00,M,29.33,M,10.00,M,FEW,BKN,OVC,M,2100.00,3399.00,3999.00,M,M,PANV 011755Z AUTO 03009KT 10SM FEW021 BKN033 OVC039 A2933 RMK MADISHF
PANV,2017-04-01 17:56,-160.1901,62.6473,28.40,15.80,58.75,30.00,9.00,0.00,29.33,M,10.00,M,FEW,FEW,OVC,M,2100.00,3000.00,3600.00,M,M,PANV 011756Z AUTO 03009KT 10SM FEW021 FEW030 OVC036 M02/M09 A2933 RMK AO1 11020 21020 52017
PANV,2017-04-01 18:00,-160.1901,62.6473,M,M,M,30.00,8.00,M,29.33,M,10.00,M,FEW,BKN,OVC,M,2100.00,3600.00,4100.00,M,M,PANV 011800Z AUTO 03008KT 10SM FEW021 BKN036 OVC041 A2933 RMK MADISHF
PANV,2017-04-01 18:05,-160.1901,62.6473,M,M,M,40.00,10.00,M,29.33,M,10.00,M,FEW,SCT,BKN,M,2100.00,3000.00,3399.00,M,M,PANV 011805Z AUTO 04010KT 10SM FEW021 SCT030 BKN033 A2933 RMK MADISHF
PANV,2017-04-01 18:10,-160.1901,62.6473,M,M,M,30.00,8.00,M,29.34,M,10.00,M,FEW,BKN,OVC,M,2100.00,3399.00,4100.00,M,M,PANV 011810Z AUTO 03008KT 10SM FEW021 BKN033 OVC041 A2934 RMK MADISHF
PANV,2017-04-01 18:15,-160.1901,62.6473,M,M,M,50.00,8.00,M,29.34,M,10.00,M,FEW,BKN,OVC,M,2100.00,3000.00,3399.00,M,M,PANV 011815Z AUTO 05008KT 10SM FEW021 BKN030 OVC033 A2934 RMK MADISHF
PANV,2017-04-01 18:16,-160.1901,62.6473,28.40,15.80,58.75,40.00,7.00,0.00,29.34,M,10.00,M,FEW,BKN,OVC,M,2100.00,3000.00,3400.00,M,M,PANV 011816Z AUTO 04007KT 10SM FEW021 BKN030 OVC034 M02/M09 A2934 RMK AO1
PANV,2017-04-01 18:20,-160.1901,62.6473,M,M,M,40.00,8.00,M,29.34,M,10.00,M,SCT,BKN,OVC,M,2100.00,3000.00,4100.00,M,M,PANV 011820Z AUTO 04008KT 10SM SCT021 BKN030 OVC041 A2934 RMK MADISHF
PANV,2017-04-01 18:25,-160.1901,62.6473,M,M,M,40.00,8.00,M,29.34,M,10.00,M,SCT,BKN,OVC,M,2100.00,3000.00,3800.00,M,M,PANV 011825Z AUTO 04008KT 10SM SCT021 BKN030 OVC038 A2934 RMK MADISHF
PANV,2017-04-01 18:30,-160.1901,62.6473,M,M,M,40.00,10.00,M,29.34,M,10.00,M,BKN,OVC,M,M,2100.00,3300.00,M,M,M,PANV 011830Z AUTO 04010KT 10SM BKN021 OVC033 A2934 RMK MADISHF
PANV,2017-04-01 18:35,-160.1901,62.6473,M,M,M,40.00,8.00,M,29.34,M,10.00,M,BKN,OVC,M,M,2100.00,3300.00,M,M,M,PANV 011835Z AUTO 04008KT 10SM BKN021 OVC033 A2934 RMK MADISHF
PANV,2017-04-01 18:36,-160.1901,62.6473,28.40,15.80,58.75,30.00,9.00,0.00,29.34,M,10.00,M,BKN,OVC,M,M,2100.00,3300.00,M,M,M,PANV 011836Z AUTO 03009KT 10SM BKN021 OVC033 M02/M09 A2934 RMK AO1
PANV,2017-04-01 18:40,-160.1901,62.6473,M,M,M,40.00,8.00,M,29.35,M,10.00,M,BKN,OVC,M,M,2100.00,3300.00,M,M,M,PANV 011840Z AUTO 04008KT 10SM BKN021 OVC033 A2935 RMK MADISHF
PANV,2017-04-01 18:45,-160.1901,62.6473,M,M,M,30.00,7.00,M,29.35,M,10.00,M,SCT,OVC,M,M,2100.00,3300.00,M,M,M,PANV 011845Z AUTO 03007KT 10SM SCT021 OVC033 A2935 RMK MADISHF
PANV,2017-04-01 18:50,-160.1901,62.6473,M,M,M,40.00,8.00,M,29.35,M,9.00,M,SCT,OVC,M,M,2100.00,3300.00,M,M,M,PANV 011850Z AUTO 04008KT 9SM SCT021 OVC033 A2935 RMK MADISHF
PANV,2017-04-01 18:55,-160.1901,62.6473,M,M,M,20.00,8.00,M,29.35,M,8.00,M,SCT,OVC,M,M,2300.00,3200.00,M,M,M,PANV 011855Z AUTO 02008KT 8SM SCT023 OVC032 A2935 RMK MADISHF
PANV,2017-04-01 18:56,-160.1901,62.6473,28.40,17.60,63.51,30.00,7.00,0.00,29.35,M,8.00,M,SCT,OVC,M,M,2300.00,3200.00,M,M,M,PANV 011856Z AUTO 03007KT 8SM SCT023 OVC032 M02/M08 A2935 RMK AO1
PANV,2017-04-01 19:00,-160.1901,62.6473,M,M,M,30.00,10.00,M,29.35,M,8.00,M,BKN,OVC,M,M,2300.00,3200.00,M,M,M,PANV 011900Z AUTO 03010KT 8SM BKN023 OVC032 A2935 RMK MADISHF
PANV,2017-04-01 19:05,-160.1901,62.6473,M,M,M,40.00,8.00,M,29.35,M,10.00,M,BKN,OVC,M,M,2300.00,3200.00,M,M,M,PANV 011905Z AUTO 04008KT 10SM BKN023 OVC032 A2935 RMK MADISHF
PANV,2017-04-01 19:10,-160.1901,62.6473,M,M,M,50.00,10.00,M,29.35,M,10.00,M,SCT,OVC,M,M,2300.00,3200.00,M,M,M,PANV 011910Z AUTO 05010KT 10SM SCT023 OVC032 A2935 RMK MADISHF
PANV,2017-04-01 19:15,-160.1901,62.6473,M,M,M,40.00,11.00,M,29.35,M,10.00,M,SCT,OVC,M,M,2500.00,3200.00,M,M,M,PANV 011915Z AUTO 04011KT 10SM SCT025 OVC032 A2935 RMK MADISHF
PANV,2017-04-01 19:16,-160.1901,62.6473,28.40,17.60,63.51,40.00,12.00,0.00,29.35,M,10.00,M,SCT,OVC,M,M,2500.00,3200.00,M,M,M,PANV 011916Z AUTO 04012KT 10SM SCT025 OVC032 M02/M08 A2935 RMK AO1
PANV,2017-04-01 19:20,-160.1901,62.6473,M,M,M,50.00,10.00,M,29.36,M,7.00,M,SCT,OVC,M,M,2500.00,3200.00,M,M,M,PANV 011920Z AUTO 05010KT 7SM SCT025 OVC032 A2936 RMK MADISHF
PANV,2017-04-01 19:25,-160.1901,62.6473,M,M,M,40.00,10.00,M,29.36,M,5.00,M,SCT,OVC,M,M,2500.00,3200.00,M,M,M,PANV 011925Z AUTO 04010KT 5SM SCT025 OVC032 A2936 RMK MADISHF
PANV,2017-04-01 19:30,-160.1901,62.6473,M,M,M,40.00,9.00,M,29.36,M,5.00,M,SCT,OVC,M,M,2500.00,3399.00,M,M,M,PANV 011930Z AUTO 04009KT 5SM SCT025 OVC033 A2936 RMK MADISHF
PANV,2017-04-01 19:35,-160.1901,62.6473,M,M,M,30.00,11.00,M,29.36,M,5.00,14.00,SCT,OVC,M,M,2500.00,3399.00,M,M,M,PANV 011935Z AUTO 03011G14KT 5SM SCT025 OVC033 A2936 RMK MADISHF
PANV,2017-04-01 19:36,-160.1901,62.6473,28.40,17.60,63.51,40.00,10.00,0.00,29.36,M,5.00,14.00,FEW,OVC,M,M,2500.00,3400.00,M,M,M,PANV 011936Z AUTO 04010G14KT 5SM FEW025 OVC034 M02/M08 A2936 RMK AO1
PANV,2017-04-01 19:40,-160.1901,62.6473,M,M,M,40.00,8.00,M,29.36,M,5.00,14.00,FEW,OVC,M,M,2500.00,3399.00,M,M,M,PANV 011940Z AUTO 04008G14KT 5SM FEW025 OVC033 A2936 RMK MADISHF
PANV,2017-04-01 19:45,-160.1901,62.6473,M,M,M,40.00,7.00,M,29.36,M,5.00,M,FEW,OVC,M,M,2500.00,3399.00,M,M,M,PANV 011945Z AUTO 04007KT 5SM FEW025 OVC033 A2936 RMK MADISHF
PANV,2017-04-01 19:50,-160.1901,62.6473,M,M,M,60.00,9.00,M,29.36,M,6.00,M,SCT,OVC,M,M,2600.00,3399.00,M,M,M,PANV 011950Z AUTO 06009KT 6SM SCT026 OVC033 A2936 RMK MADISHF
PANV,2017-04-01 19:55,-160.1901,62.6473,M,M,M,40.00,7.00,M,29.36,M,5.00,M,SCT,OVC,M,M,2600.00,3399.00,M,M,M,PANV 011955Z AUTO 04007KT 5SM SCT026 OVC033 A2936 RMK MADISHF
PANV,2017-04-01 19:56,-160.1901,62.6473,28.40,19.40,68.61,40.00,7.00,0.00,29.36,M,5.00,M,SCT,OVC,M,M,2600.00,3400.00,M,M,M,PANV 011956Z AUTO 04007KT 5SM SCT026 OVC034 M02/M07 A2936 RMK AO1
PANV,2017-04-01 20:00,-160.1901,62.6473,M,M,M,50.00,10.00,M,29.36,M,4.00,M,BKN,OVC,M,M,2400.00,3399.00,M,M,M,PANV 012000Z AUTO 05010KT 4SM BKN024 OVC033 A2936 RMK MADISHF
PANV,2017-04-01 20:05,-160.1901,62.6473,M,M,M,30.00,8.00,M,29.36,M,3.00,M,BKN,OVC,M,M,2200.00,3399.00,M,M,M,PANV 012005Z AUTO 03008KT 3SM BKN022 OVC033 A2936 RMK MADISHF
PANV,2017-04-01 20:10,-160.1901,62.6473,M,M,M,30.00,8.00,M,29.36,M,3.00,M,BKN,OVC,M,M,2200.00,3399.00,M,M,M,PANV 012010Z AUTO 03008KT 3SM BKN022 OVC033 A2936 RMK MADISHF
PANV,2017-04-01 20:15,-160.1901,62.6473,M,M,M,40.00,8.00,M,29.37,M,3.00,M,BKN,OVC,M,M,2200.00,3000.00,M,M,M,PANV 012015Z AUTO 04008KT 3SM BKN022 OVC030 A2937 RMK MADISHF
PANV,2017-04-01 20:16,-160.1901,62.6473,28.40,19.40,68.61,40.00,8.00,0.00,29.37,M,3.00,M,BKN,OVC,M,M,2200.00,3300.00,M,M,M,PANV 012016Z AUTO 04008KT 3SM BKN022 OVC033 M02/M07 A2937 RMK AO1
PANV,2017-04-01 20:20,-160.1901,62.6473,M,M,M,30.00,8.00,M,29.37,M,3.00,M,OVC,M,M,M,2200.00,M,M,M,M,PANV 012020Z AUTO 03008KT 3SM OVC022 A2937 RMK VSBY 250V400  MADISHF
PANV,2017-04-01 20:25,-160.1901,62.6473,M,M,M,30.00,10.00,M,29.37,M,2.50,M,OVC,M,M,M,2200.00,M,M,M,M,PANV 012025Z AUTO 03010KT 2 1/2SM OVC022 A2937 RMK MADISHF
PANV,2017-04-01 20:30,-160.1901,62.6473,M,M,M,50.00,9.00,M,29.37,M,2.00,M,OVC,M,M,M,2200.00,M,M,M,M,PANV 012030Z AUTO 05009KT 2SM OVC022 A2937 RMK MADISHF
PANV,2017-04-01 20:35,-160.1901,62.6473,M,M,M,40.00,9.00,M,29.37,M,2.00,M,OVC,M,M,M,2200.00,M,M,M,M,PANV 012035Z AUTO 04009KT 2SM OVC022 A2937 RMK MADISHF
PANV,2017-04-01 20:36,-160.1901,62.6473,28.40,19.40,68.61,30.00,9.00,0.00,29.37,M,2.00,M,OVC,M,M,M,2200.00,M,M,M,M,PANV 012036Z AUTO 03009KT 2SM OVC022 M02/M07 A2937 RMK AO1
PANV,2017-04-01 20:40,-160.1901,62.6473,M,M,M,40.00,8.00,M,29.37,M,2.50,M,OVC,M,M,M,2200.00,M,M,M,M,PANV 012040Z AUTO 04008KT 2 1/2SM OVC022 A2937 RMK MADISHF
PANV,2017-04-01 20:45,-160.1901,62.6473,M,M,M,30.00,9.00,M,29.37,M,3.00,M,OVC,M,M,M,2200.00,M,M,M,M,PANV 012045Z AUTO 03009KT 3SM OVC022 A2937 RMK MADISHF
PANV,2017-04-01 20:50,-160.1901,62.6473,M,M,M,40.00,9.00,M,29.38,M,2.50,M,OVC,M,M,M,2200.00,M,M,M,M,PANV 012050Z AUTO 04009KT 2 1/2SM OVC022 A2938 RMK MADISHF
PANV,2017-04-01 20:55,-160.1901,62.6473,M,M,M,40.00,8.00,M,29.38,M,2.00,M,OVC,M,M,M,2200.00,M,M,M,M,PANV 012055Z AUTO 04008KT 2SM OVC022 A2938 RMK VSBY 175V300  MADISHF
PANV,2017-04-01 20:56,-160.1901,62.6473,28.40,21.20,74.08,40.00,7.00,0.00,29.38,M,2.00,M,OVC,M,M,M,2200.00,M,M,M,M,PANV 012056Z AUTO 04007KT 2SM OVC022 M02/M06 A2938 RMK AO1 VIS 1 3/4V3 52017
PANV,2017-04-01 21:00,-160.1901,62.6473,M,M,M,20.00,8.00,M,29.38,M,2.50,M,OVC,M,M,M,1999.00,M,M,M,M,PANV 012100Z AUTO 02008KT 2 1/2SM OVC019 A2938 RMK VSBY 175V500  MADISHF
PANV,2017-04-01 21:05,-160.1901,62.6473,M,M,M,30.00,8.00,M,29.38,M,4.00,M,OVC,M,M,M,1999.00,M,M,M,M,PANV 012105Z AUTO 03008KT 4SM OVC019 A2938 RMK MADISHF
PANV,2017-04-01 21:10,-160.1901,62.6473,M,M,M,20.00,9.00,M,29.38,M,4.00,M,OVC,M,M,M,1800.00,M,M,M,M,PANV 012110Z AUTO 02009KT 4SM OVC018 A2938 RMK MADISHF
PANV,2017-04-01 21:15,-160.1901,62.6473,M,M,M,30.00,8.00,M,29.39,M,3.00,M,OVC,M,M,M,1800.00,M,M,M,M,PANV 012115Z AUTO 03008KT 3SM OVC018 A2939 RMK MADISHF
PANV,2017-04-01 21:16,-160.1901,62.6473,28.40,21.20,74.08,30.00,8.00,0.00,29.39,M,3.00,M,OVC,M,M,M,1800.00,M,M,M,M,PANV 012116Z AUTO 03008KT 3SM OVC018 M02/M06 A2939 RMK AO1
PANV,2017-04-01 21:20,-160.1901,62.6473,M,M,M,30.00,9.00,M,29.39,M,2.50,M,OVC,M,M,M,1800.00,M,M,M,M,PANV 012120Z AUTO 03009KT 2 1/2SM OVC018 A2939 RMK MADISHF
PANV,2017-04-01 21:25,-160.1901,62.6473,M,M,M,20.00,7.00,M,29.39,M,2.50,M,OVC,M,M,M,1800.00,M,M,M,M,PANV 012125Z AUTO 02007KT 2 1/2SM OVC018 A2939 RMK MADISHF
PANV,2017-04-01 21:30,-160.1901,62.6473,M,M,M,20.00,9.00,M,29.39,M,3.00,M,OVC,M,M,M,1800.00,M,M,M,M,PANV 012130Z AUTO 02009KT 3SM OVC018 A2939 RMK MADISHF
PANV,2017-04-01 21:35,-160.1901,62.6473,M,M,M,30.00,9.00,M,29.39,M,3.00,M,OVC,M,M,M,1800.00,M,M,M,M,PANV 012135Z AUTO 03009KT 3SM OVC018 A2939 RMK MADISHF
PANV,2017-04-01 21:36,-160.1901,62.6473,28.40,23.00,79.92,30.00,9.00,0.00,29.39,M,3.00,M,OVC,M,M,M,1800.00,M,M,M,M,PANV 012136Z AUTO 03009KT 3SM OVC018 M02/M05 A2939 RMK AO1
PANV,2017-04-01 21:40,-160.1901,62.6473,M,M,M,30.00,10.00,M,29.39,M,3.00,M,OVC,M,M,M,1800.00,M,M,M,M,PANV 012140Z AUTO 03010KT 3SM OVC018 A2939 RMK MADISHF
PANV,2017-04-01 21:45,-160.1901,62.6473,M,M,M,30.00,9.00,M,29.39,M,3.00,M,OVC,M,M,M,1800.00,M,M,M,M,PANV 012145Z AUTO 03009KT 3SM OVC018 A2939 RMK MADISHF
PANV,2017-04-01 21:50,-160.1901,62.6473,M,M,M,20.00,9.00,M,29.39,M,3.00,M,OVC,M,M,M,1800.00,M,M,M,M,PANV 012150Z AUTO 02009KT 3SM OVC018 A2939 RMK MADISHF
PANV,2017-04-01 21:55,-160.1901,62.6473,M,M,M,30.00,9.00,M,29.39,M,2.50,M,OVC,M,M,M,1999.00,M,M,M,M,PANV 012155Z AUTO 03009KT 2 1/2SM OVC019 A2939 RMK MADISHF
PANV,2017-04-01 21:56,-160.1901,62.6473,28.40,23.00,79.92,30.00,10.00,0.00,29.39,M,2.50,M,OVC,M,M,M,2000.00,M,M,M,M,PANV 012156Z AUTO 03010KT 2 1/2SM OVC020 M02/M05 A2939 RMK AO1
PANV,2017-04-01 22:00,-160.1901,62.6473,M,M,M,30.00,9.00,M,29.39,M,1.75,M,OVC,M,M,M,1999.00,M,M,M,M,PANV 012200Z AUTO 03009KT 2SM OVC019 A2939 RMK MADISHF
PANV,2017-04-01 22:05,-160.1901,62.6473,M,M,M,20.00,7.00,M,29.39,M,1.75,M,OVC,M,M,M,1999.00,M,M,M,M,PANV 012205Z AUTO 02007KT 2SM OVC019 A2939 RMK MADISHF
PANV,2017-04-01 22:10,-160.1901,62.6473,M,M,M,20.00,8.00,M,29.39,M,1.75,M,OVC,M,M,M,1999.00,M,M,M,M,PANV 012210Z AUTO 02008KT 2SM OVC019 A2939 RMK MADISHF
PANV,2017-04-01 22:15,-160.1901,62.6473,M,M,M,30.00,9.00,M,29.39,M,2.00,M,OVC,M,M,M,1999.00,M,M,M,M,PANV 012215Z AUTO 03009KT 2SM OVC019 A2939 RMK MADISHF
PANV,2017-04-01 22:16,-160.1901,62.6473,30.20,24.80,80.07,30.00,9.00,0.00,29.39,M,2.00,M,OVC,M,M,M,2000.00,M,M,M,M,PANV 012216Z AUTO 03009KT 2SM OVC020 M01/M04 A2939 RMK AO1
PANV,2017-04-01 22:20,-160.1901,62.6473,M,M,M,20.00,10.00,M,29.40,M,2.50,M,OVC,M,M,M,1999.00,M,M,M,M,PANV 012220Z AUTO 02010KT 2 1/2SM OVC019 A2940 RMK MADISHF
PANV,2017-04-01 22:25,-160.1901,62.6473,M,M,M,30.00,9.00,M,29.40,M,2.50,M,OVC,M,M,M,1999.00,M,M,M,M,PANV 012225Z AUTO 03009KT 2 1/2SM OVC019 A2940 RMK MADISHF
PANV,2017-04-01 22:30,-160.1901,62.6473,M,M,M,20.00,8.00,M,29.40,M,3.00,M,OVC,M,M,M,1999.00,M,M,M,M,PANV 012230Z AUTO 02008KT 3SM OVC019 A2940 RMK MADISHF
PANV,2017-04-01 22:35,-160.1901,62.6473,M,M,M,30.00,8.00,M,29.40,M,5.00,M,OVC,M,M,M,1999.00,M,M,M,M,PANV 012235Z AUTO 03008KT 5SM OVC019 A2940 RMK MADISHF
PANV,2017-04-01 22:36,-160.1901,62.6473,30.20,24.80,80.07,30.00,8.00,0.00,29.40,M,5.00,M,OVC,M,M,M,1800.00,M,M,M,M,PANV 012236Z AUTO 03008KT 5SM OVC018 M01/M04 A2940 RMK AO1
PANV,2017-04-01 22:40,-160.1901,62.6473,M,M,M,20.00,10.00,M,29.40,M,8.00,M,OVC,M,M,M,1800.00,M,M,M,M,PANV 012240Z AUTO 02010KT 8SM OVC018 A2940 RMK MADISHF
PANV,2017-04-01 22:45,-160.1901,62.6473,M,M,M,20.00,8.00,M,29.40,M,9.00,M,OVC,M,M,M,1800.00,M,M,M,M,PANV 012245Z AUTO 02008KT 9SM OVC018 A2940 RMK MADISHF
PANV,2017-04-01 22:50,-160.1901,62.6473,M,M,M,40.00,9.00,M,29.40,M,10.00,M,OVC,M,M,M,1600.00,M,M,M,M,PANV 012250Z AUTO 04009KT 10SM OVC016 A2940 RMK MADISHF
PANV,2017-04-01 22:55,-160.1901,62.6473,M,M,M,40.00,9.00,M,29.40,M,10.00,M,BKN,OVC,M,M,1600.00,2300.00,M,M,M,PANV 012255Z AUTO 04009KT 10SM BKN016 OVC023 A2940 RMK MADISHF
PANV,2017-04-01 22:56,-160.1901,62.6473,32.00,24.80,74.44,40.00,9.00,0.00,29.40,M,10.00,M,OVC,M,M,M,1600.00,M,M,M,M,PANV 012256Z AUTO 04009KT 10SM OVC016 00/M04 A2940 RMK AO1
PANV,2017-04-01 23:00,-160.1901,62.6473,M,M,M,50.00,9.00,M,29.40,M,10.00,M,BKN,OVC,M,M,1600.00,2200.00,M,M,M,PANV 012300Z AUTO 05009KT 10SM BKN016 OVC022 A2940 RMK MADISHF
PANV,2017-04-01 23:05,-160.1901,62.6473,M,M,M,50.00,8.00,M,29.40,M,10.00,M,BKN,OVC,M,M,1600.00,2200.00,M,M,M,PANV 012305Z AUTO 05008KT 10SM BKN016 OVC022 A2940 RMK MADISHF
PANV,2017-04-01 23:10,-160.1901,62.6473,M,M,M,50.00,8.00,M,29.40,M,10.00,M,OVC,M,M,M,1600.00,M,M,M,M,PANV 012310Z AUTO 05008KT 10SM OVC016 A2940 RMK MADISHF
PANV,2017-04-01 23:15,-160.1901,62.6473,M,M,M,40.00,8.00,M,29.40,M,10.00,M,OVC,M,M,M,1600.00,M,M,M,M,PANV 012315Z AUTO 04008KT 10SM OVC016 A2940 RMK MADISHF
PANV,2017-04-01 23:16,-160.1901,62.6473,32.00,24.80,74.44,40.00,8.00,0.00,29.40,M,10.00,M,OVC,M,M,M,1600.00,M,M,M,M,PANV 012316Z AUTO 04008KT 10SM OVC016 00/M04 A2940 RMK AO1
PANV,2017-04-01 23:20,-160.1901,62.6473,M,M,M,40.00,8.00,M,29.40,M,10.00,M,OVC,M,M,M,1600.00,M,M,M,M,PANV 012320Z AUTO 04008KT 10SM OVC016 A2940 RMK MADISHF
PANV,2017-04-01 23:25,-160.1901,62.6473,M,M,M,20.00,7.00,M,29.40,M,10.00,M,OVC,M,M,M,1600.00,M,M,M,M,PANV 012325Z AUTO 02007KT 10SM OVC016 A2940 RMK MADISHF
PANV,2017-04-01 23:30,-160.1901,62.6473,M,M,M,20.00,7.00,M,29.40,M,10.00,M,OVC,M,M,M,1600.00,M,M,M,M,PANV 012330Z AUTO 02007KT 10SM OVC016 A2940 RMK MADISHF
PANV,2017-04-01 23:35,-160.1901,62.6473,M,M,M,20.00,8.00,M,29.40,M,10.00,M,OVC,M,M,M,1600.00,M,M,M,M,PANV 012335Z AUTO 02008KT 10SM OVC016 A2940 RMK MADISHF
PANV,2017-04-01 23:36,-160.1901,62.6473,32.00,24.80,74.44,20.00,8.00,0.00,29.40,M,10.00,M,OVC,M,M,M,1600.00,M,M,M,M,PANV 012336Z AUTO 02008KT 10SM OVC016 00/M04 A2940 RMK AO1
PANV,2017-04-01 23:40,-160.1901,62.6473,M,M,M,20.00,7.00,M,29.40,M,10.00,M,OVC,M,M,M,1600.00,M,M,M,M,PANV 012340Z AUTO 02007KT 10SM OVC016 A2940 RMK MADISHF
PANV,2017-04-01 23:45,-160.1901,62.6473,M,M,M,40.00,6.00,M,29.41,M,10.00,M,OVC,M,M,M,1600.00,M,M,M,M,PANV 012345Z AUTO 04006KT 10SM OVC016 A2941 RMK MADISHF
PANV,2017-04-01 23:50,-160.1901,62.6473,M,M,M,40.00,6.00,M,29.41,M,10.00,M,OVC,M,M,M,1600.00,M,M,M,M,PANV 012350Z AUTO 04006KT 10SM OVC016 A2941 RMK MADISHF
PANV,2017-04-01 23:55,-160.1901,62.6473,M,M,M,50.00,7.00,M,29.40,M,10.00,M,BKN,OVC,M,M,1600.00,3000.00,M,M,M,PANV 012355Z AUTO 05007KT 10SM BKN016 OVC030 A2940 RMK MADISHF
PANV,2017-04-01 23:56,-160.1901,62.6473,33.80,24.80,69.25,50.00,7.00,0.00,29.40,M,10.00,M,BKN,OVC,M,M,1600.00,3000.00,M,M,M,PANV 012356Z AUTO 05007KT 10SM BKN016 OVC030 01/M04 A2940 RMK AO1 10010 21020 400101030 52007
