#DEBUG: Format Typ    -> comma
#DEBUG: Time Period   -> 2017-04-01 00:00:00+00:00 2017-04-02 00:00:00+00:00
#DEBUG: Time Zone     -> Etc/UTC
#DEBUG: Data Contact   -> daryl herzmann akrherz@iastate.edu 515-294-5978
#DEBUG: Entries Found -> -1
station,valid,lon,lat,tmpf, dwpf, relh, drct, sknt, p01i, alti, mslp, vsby, gust, skyc1, skyc2, skyc3, skyc4, skyl1, skyl2, skyl3, skyl4, presentwx, metar
PARC,2017-04-01 00:00,-145.5794,68.1147,M,M,M,350.00,8.00,M,29.33,M,10.00,M,CLR,M,M,M,M,M,M,M,M,PARC 010000Z AUTO 35008KT 10SM CLR A2933 RMK MADISHF
PARC,2017-04-01 00:05,-145.5794,68.1147,M,M,M,350.00,7.00,M,29.33,M,10.00,M,CLR,M,M,M,M,M,M,M,M,PARC 010005Z AUTO 35007KT 10SM CLR A2933 RMK MADISHF
PARC,2017-04-01 00:10,-145.5794,68.1147,M,M,M,350.00,6.00,M,29.34,M,10.00,M,CLR,M,M,M,M,M,M,M,M,PARC 010010Z AUTO 35006KT 10SM CLR A2934 RMK MADISHF
PARC,2017-04-01 00:15,-145.5794,68.1147,M,M,M,350.00,7.00,M,29.33,M,10.00,M,FEW,M,M,M,5000.00,M,M,M,M,PARC 010015Z AUTO 35007KT 10SM FEW050 A2933 RMK MADISHF
PARC,2017-04-01 00:20,-145.5794,68.1147,M,M,M,350.00,7.00,M,29.33,M,10.00,M,SCT,M,M,M,5000.00,M,M,M,M,PARC 010020Z AUTO 35007KT 10SM SCT050 A2933 RMK MADISHF
PARC,2017-04-01 00:25,-145.5794,68.1147,M,M,M,350.00,7.00,M,29.34,M,10.00,M,SCT,M,M,M,5000.00,M,M,M,M,PARC 010025Z AUTO 35007KT 10SM SCT050 A2934 RMK MADISHF
PARC,2017-04-01 00:35,-145.5794,68.1147,M,M,M,10.00,7.00,M,29.33,M,10.00,M,BKN,M,M,M,5000.00,M,M,M,M,PARC 010035Z AUTO 01007KT 10SM BKN050 A2933 RMK MADISHF
PARC,2017-04-01 01:30,-145.5794,68.1147,M,M,M,360.00,5.00,M,29.33,M,10.00,M,SCT,M,M,M,5000.00,M,M,M,M,PARC 010130Z AUTO 36005KT 10SM SCT050 A2933 RMK MADISHF
PARC,2017-04-01 04:56,-145.5794,68.1147,12.90,5.00,70.13,20.00,4.00,0.00,29.35,1000.40,10.00,M,CLR,M,M,M,M,M,M,M,M,PARC 010456Z AUTO 02004KT 10SM CLR M11/M15 A2935 RMK AO2 SLP004 T11061150 FZRANO
PARC,2017-04-01 05:05,-145.5794,68.1147,M,M,M,20.00,3.00,M,29.35,M,10.00,M,CLR,M,M,M,M,M,M,M,M,PARC 010505Z AUTO 02003KT 10SM CLR A2935 RMK MADISHF
PARC,2017-04-01 05:10,-145.5794,68.1147,M,M,M,10.00,4.00,M,29.35,M,10.00,M,CLR,M,M,M,M,M,M,M,M,PARC 010510Z AUTO 01004KT 10SM CLR A2935 RMK MADISHF
PARC,2017-04-01 05:15,-145.5794,68.1147,M,M,M,360.00,4.00,M,29.35,M,10.00,M,CLR,M,M,M,M,M,M,M,M,PARC 010515Z AUTO 36004KT 10SM CLR A2935 RMK MADISHF
PARC,2017-04-01 05:20,-145.5794,68.1147,M,M,M,350.00,4.00,M,29.35,M,10.00,M,CLR,M,M,M,M,M,M,M,M,PARC 010520Z AUTO 35004KT 10SM CLR A2935 RMK MADISHF
PARC,2017-04-01 05:25,-145.5794,68.1147,M,M,M,350.00,5.00,M,29.35,M,10.00,M,CLR,M,M,M,M,M,M,M,M,PARC 010525Z AUTO 35005KT 10SM CLR A2935 RMK MADISHF
PARC,2017-04-01 05:30,-145.5794,68.1147,M,M,M,360.00,5.00,M,29.35,M,10.00,M,CLR,M,M,M,M,M,M,M,M,PARC 010530Z AUTO 36005KT 10SM CLR A2935 RMK MADISHF
PARC,2017-04-01 05:35,-145.5794,68.1147,M,M,M,360.00,4.00,M,29.35,M,10.00,M,CLR,M,M,M,M,M,M,M,M,PARC 010535Z AUTO 36004KT 10SM CLR A2935 RMK MADISHF
PARC,2017-04-01 05:40,-145.5794,68.1147,M,M,M,360.00,4.00,M,29.35,M,10.00,M,CLR,M,M,M,M,M,M,M,M,PARC 010540Z AUTO 36004KT 10SM CLR A2935 RMK MADISHF
PARC,2017-04-01 05:45,-145.5794,68.1147,M,M,M,360.00,5.00,M,29.35,M,10.00,M,CLR,M,M,M,M,M,M,M,M,PARC 010545Z AUTO 36005KT 10SM CLR A2935 RMK MADISHF
PARC,2017-04-01 05:50,-145.5794,68.1147,M,M,M,10.00,5.00,M,29.35,M,10.00,M,CLR,M,M,M,M,M,M,M,M,PARC 010550Z AUTO 01005KT 10SM CLR A2935 RMK MADISHF
PARC,2017-04-01 05:55,-145.5794,68.1147,M,M,M,10.00,6.00,M,29.36,M,10.00,M,CLR,M,M,M,M,M,M,M,M,PARC 010555Z AUTO 01006KT 10SM CLR A2936 RMK MADISHF
PARC,2017-04-01 05:56,-145.5794,68.1147,10.90,3.90,72.85,20.00,7.00,0.00,29.36,1000.60,10.00,M,CLR,M,M,M,M,M,M,M,M,PARC 010556Z AUTO 02007KT 10SM CLR M12/M16 A2936 RMK AO2 SLP006 T11171156 11022 21117 53007 FZRANO
PARC,2017-04-01 06:00,-145.5794,68.1147,M,M,M,10.00,7.00,M,29.36,M,10.00,M,CLR,M,M,M,M,M,M,M,M,PARC 010600Z AUTO 01007KT 10SM CLR A2936 RMK MADISHF
PARC,2017-04-01 06:05,-145.5794,68.1147,M,M,M,10.00,6.00,M,29.36,M,10.00,M,CLR,M,M,M,M,M,M,M,M,PARC 010605Z AUTO 01006KT 10SM CLR A2936 RMK MADISHF
PARC,2017-04-01 06:10,-145.5794,68.1147,M,M,M,20.00,5.00,M,29.36,M,10.00,M,CLR,M,M,M,M,M,M,M,M,PARC 010610Z AUTO 02005KT 10SM CLR A2936 RMK MADISHF
PARC,2017-04-01 06:15,-145.5794,68.1147,M,M,M,20.00,6.00,M,29.36,M,10.00,M,CLR,M,M,M,M,M,M,M,M,PARC 010615Z AUTO 02006KT 10SM CLR A2936 RMK MADISHF
PARC,2017-04-01 06:20,-145.5794,68.1147,M,M,M,10.00,6.00,M,29.36,M,10.00,M,CLR,M,M,M,M,M,M,M,M,PARC 010620Z AUTO 01006KT 10SM CLR A2936 RMK MADISHF
PARC,2017-04-01 06:25,-145.5794,68.1147,M,M,M,10.00,6.00,M,29.36,M,10.00,M,CLR,M,M,M,M,M,M,M,M,PARC 010625Z AUTO 01006KT 10SM CLR A2936 RMK MADISHF
PARC,2017-04-01 06:30,-145.5794,68.1147,M,M,M,360.00,5.00,M,29.36,M,10.00,M,CLR,M,M,M,M,M,M,M,M,PARC 010630Z AUTO 36005KT 10SM CLR A2936 RMK MADISHF
PARC,2017-04-01 06:35,-145.5794,68.1147,M,M,M,350.00,4.00,M,29.36,M,10.00,M,CLR,M,M,M,M,M,M,M,M,PARC 010635Z AUTO 35004KT 10SM CLR A2936 RMK MADISHF
PARC,2017-04-01 06:40,-145.5794,68.1147,M,M,M,340.00,4.00,M,29.36,M,10.00,M,CLR,M,M,M,M,M,M,M,M,PARC 010640Z AUTO 34004KT 10SM CLR A2936 RMK MADISHF
PARC,2017-04-01 06:45,-145.5794,68.1147,M,M,M,350.00,5.00,M,29.36,M,10.00,M,CLR,M,M,M,M,M,M,M,M,PARC 010645Z AUTO 35005KT 10SM CLR A2936 RMK MADISHF
PARC,2017-04-01 06:50,-145.5794,68.1147,M,M,M,340.00,5.00,M,29.36,M,10.00,M,CLR,M,M,M,M,M,M,M,M,PARC 010650Z AUTO 34005KT 10SM CLR A2936 RMK MADISHF
PARC,2017-04-01 06:55,-145.5794,68.1147,M,M,M,350.00,3.00,M,29.36,M,10.00,M,CLR,M,M,M,M,M,M,M,M,PARC 010655Z AUTO 35003KT 10SM CLR A2936 RMK MADISHF
PARC,2017-04-01 06:56,-145.5794,68.1147,9.00,3.00,76.08,350.00,3.00,0.00,29.36,1000.70,10.00,M,CLR,M,M,M,M,M,M,M,M,PARC 010656Z AUTO 35003KT 10SM CLR M13/M16 A2936 RMK AO2 SLP007 T11281161 FZRANO
PARC,2017-04-01 07:00,-145.5794,68.1147,M,M,M,340.00,3.00,M,29.36,M,10.00,M,CLR,M,M,M,M,M,M,M,M,PARC 010700Z AUTO 34003KT 10SM CLR A2936 RMK MADISHF
PARC,2017-04-01 07:05,-145.5794,68.1147,M,M,M,340.00,4.00,M,29.36,M,10.00,M,CLR,M,M,M,M,M,M,M,M,PARC 010705Z AUTO 34004KT 10SM CLR A2936 RMK MADISHF
PARC,2017-04-01 07:10,-145.5794,68.1147,M,M,M,0.00,0.00,M,29.36,M,10.00,M,FEW,M,M,M,12000.00,M,M,M,M,PARC 010710Z AUTO 00000KT 10SM FEW120 A2936 RMK MADISHF
PARC,2017-04-01 07:15,-145.5794,68.1147,M,M,M,340.00,3.00,M,29.36,M,10.00,M,SCT,M,M,M,12000.00,M,M,M,M,PARC 010715Z AUTO 34003KT 10SM SCT120 A2936 RMK MADISHF
PARC,2017-04-01 07:20,-145.5794,68.1147,M,M,M,340.00,3.00,M,29.36,M,10.00,M,SCT,M,M,M,12000.00,M,M,M,M,PARC 010720Z AUTO 34003KT 10SM SCT120 A2936 RMK MADISHF
PARC,2017-04-01 07:25,-145.5794,68.1147,M,M,M,330.00,5.00,M,29.37,M,10.00,M,SCT,M,M,M,12000.00,M,M,M,M,PARC 010725Z AUTO 33005KT 10SM SCT120 A2937 RMK MADISHF
PARC,2017-04-01 07:30,-145.5794,68.1147,M,M,M,350.00,5.00,M,29.37,M,10.00,M,FEW,M,M,M,12000.00,M,M,M,M,PARC 010730Z AUTO 35005KT 10SM FEW120 A2937 RMK MADISHF
PARC,2017-04-01 07:35,-145.5794,68.1147,M,M,M,360.00,4.00,M,29.36,M,10.00,M,FEW,M,M,M,12000.00,M,M,M,M,PARC 010735Z AUTO 36004KT 10SM FEW120 A2936 RMK MADISHF
PARC,2017-04-01 07:40,-145.5794,68.1147,M,M,M,360.00,3.00,M,29.36,M,10.00,M,FEW,M,M,M,12000.00,M,M,M,M,PARC 010740Z AUTO 36003KT 10SM FEW120 A2936 RMK MADISHF
PARC,2017-04-01 07:45,-145.5794,68.1147,M,M,M,360.00,3.00,M,29.36,M,10.00,M,CLR,M,M,M,M,M,M,M,M,PARC 010745Z AUTO 36003KT 10SM CLR A2936 RMK MADISHF
PARC,2017-04-01 07:50,-145.5794,68.1147,M,M,M,340.00,3.00,M,29.37,M,10.00,M,CLR,M,M,M,M,M,M,M,M,PARC 010750Z AUTO 34003KT 10SM CLR A2937 RMK MADISHF
PARC,2017-04-01 07:55,-145.5794,68.1147,M,M,M,350.00,3.00,M,29.37,M,10.00,M,CLR,M,M,M,M,M,M,M,M,PARC 010755Z AUTO 35003KT 10SM CLR A2937 RMK MADISHF
PARC,2017-04-01 07:56,-145.5794,68.1147,9.00,3.00,76.08,350.00,3.00,0.00,29.37,1000.60,10.00,M,CLR,M,M,M,M,M,M,M,M,PARC 010756Z AUTO 35003KT 10SM CLR M13/M16 A2937 RMK AO2 SLP006 T11281161 FZRANO
PARC,2017-04-01 08:00,-145.5794,68.1147,M,M,M,360.00,4.00,M,29.37,M,10.00,M,CLR,M,M,M,M,M,M,M,M,PARC 010800Z AUTO 36004KT 10SM CLR A2937 RMK MADISHF
PARC,2017-04-01 08:05,-145.5794,68.1147,M,M,M,10.00,4.00,M,29.36,M,9.00,M,FEW,M,M,M,12000.00,M,M,M,M,PARC 010805Z AUTO 01004KT 9SM FEW120 A2936 RMK MADISHF
PARC,2017-04-01 08:10,-145.5794,68.1147,M,M,M,360.00,5.00,M,29.36,M,8.00,M,SCT,M,M,M,12000.00,M,M,M,M,PARC 010810Z AUTO 36005KT 8SM SCT120 A2936 RMK MADISHF
PARC,2017-04-01 08:15,-145.5794,68.1147,M,M,M,20.00,5.00,M,29.36,M,9.00,M,BKN,M,M,M,12000.00,M,M,M,M,PARC 010815Z AUTO 02005KT 9SM BKN120 A2936 RMK MADISHF
PARC,2017-04-01 08:20,-145.5794,68.1147,M,M,M,50.00,4.00,M,29.37,M,9.00,M,BKN,M,M,M,12000.00,M,M,M,M,PARC 010820Z AUTO 05004KT 9SM BKN120 A2937 RMK MADISHF
PARC,2017-04-01 08:25,-145.5794,68.1147,M,M,M,40.00,5.00,M,29.37,M,9.00,M,BKN,M,M,M,12000.00,M,M,M,M,PARC 010825Z AUTO 04005KT 9SM BKN120 A2937 RMK MADISHF
PARC,2017-04-01 08:30,-145.5794,68.1147,M,M,M,40.00,5.00,M,29.37,M,10.00,M,OVC,M,M,M,12000.00,M,M,M,M,PARC 010830Z AUTO 04005KT 10SM OVC120 A2937 RMK MADISHF
PARC,2017-04-01 08:35,-145.5794,68.1147,M,M,M,10.00,4.00,M,29.37,M,10.00,M,OVC,M,M,M,12000.00,M,M,M,M,PARC 010835Z AUTO 01004KT 10SM OVC120 A2937 RMK MADISHF
PARC,2017-04-01 08:40,-145.5794,68.1147,M,M,M,10.00,5.00,M,29.37,M,10.00,M,OVC,M,M,M,12000.00,M,M,M,M,PARC 010840Z AUTO 01005KT 10SM OVC120 A2937 RMK MADISHF
PARC,2017-04-01 08:45,-145.5794,68.1147,M,M,M,360.00,4.00,M,29.37,M,10.00,M,BKN,M,M,M,12000.00,M,M,M,M,PARC 010845Z AUTO 36004KT 10SM BKN120 A2937 RMK MADISHF
PARC,2017-04-01 08:50,-145.5794,68.1147,M,M,M,0.00,0.00,M,29.37,M,10.00,M,BKN,M,M,M,12000.00,M,M,M,M,PARC 010850Z AUTO 00000KT 10SM BKN120 A2937 RMK MADISHF
PARC,2017-04-01 08:55,-145.5794,68.1147,M,M,M,0.00,0.00,M,29.37,M,10.00,M,BKN,M,M,M,12000.00,M,M,M,M,PARC 010855Z AUTO 00000KT 10SM BKN120 A2937 RMK MADISHF
PARC,2017-04-01 08:56,-145.5794,68.1147,8.10,1.90,75.29,0.00,0.00,0.00,29.37,1000.70,10.00,M,BKN,M,M,M,12000.00,M,M,M,M,PARC 010856Z AUTO 00000KT 10SM BKN120 M13/M17 A2937 RMK AO2 SLP007 T11331167 410221144 53006 FZRANO
PARC,2017-04-01 09:00,-145.5794,68.1147,M,M,M,0.00,0.00,M,29.38,M,10.00,M,BKN,M,M,M,12000.00,M,M,M,M,PARC 010900Z AUTO 00000KT 10SM BKN120 A2938 RMK MADISHF
PARC,2017-04-01 09:05,-145.5794,68.1147,M,M,M,0.00,0.00,M,29.38,M,10.00,M,BKN,M,M,M,12000.00,M,M,M,M,PARC 010905Z AUTO 00000KT 10SM BKN120 A2938 RMK MADISHF
PARC,2017-04-01 09:10,-145.5794,68.1147,M,M,M,350.00,4.00,M,29.38,M,10.00,M,BKN,M,M,M,12000.00,M,M,M,M,PARC 010910Z AUTO 35004KT 10SM BKN120 A2938 RMK MADISHF
PARC,2017-04-01 09:15,-145.5794,68.1147,M,M,M,350.00,4.00,M,29.38,M,10.00,M,OVC,M,M,M,12000.00,M,M,M,M,PARC 010915Z AUTO 35004KT 10SM OVC120 A2938 RMK MADISHF
PARC,2017-04-01 09:20,-145.5794,68.1147,M,M,M,350.00,4.00,M,29.38,M,10.00,M,BKN,M,M,M,12000.00,M,M,M,M,PARC 010920Z AUTO 35004KT 10SM BKN120 A2938 RMK MADISHF
PARC,2017-04-01 09:25,-145.5794,68.1147,M,M,M,360.00,5.00,M,29.38,M,10.00,M,BKN,M,M,M,12000.00,M,M,M,M,PARC 010925Z AUTO 36005KT 10SM BKN120 A2938 RMK MADISHF
PARC,2017-04-01 09:30,-145.5794,68.1147,M,M,M,360.00,4.00,M,29.38,M,10.00,M,SCT,M,M,M,12000.00,M,M,M,M,PARC 010930Z AUTO 36004KT 10SM SCT120 A2938 RMK MADISHF
PARC,2017-04-01 09:35,-145.5794,68.1147,M,M,M,40.00,3.00,M,29.38,M,10.00,M,SCT,M,M,M,12000.00,M,M,M,M,PARC 010935Z AUTO 04003KT 10SM SCT120 A2938 RMK MADISHF
PARC,2017-04-01 09:40,-145.5794,68.1147,M,M,M,20.00,4.00,M,29.38,M,10.00,M,FEW,M,M,M,12000.00,M,M,M,M,PARC 010940Z AUTO 02004KT 10SM FEW120 A2938 RMK MADISHF
PARC,2017-04-01 09:45,-145.5794,68.1147,M,M,M,10.00,5.00,M,29.38,M,10.00,M,SCT,M,M,M,12000.00,M,M,M,M,PARC 010945Z AUTO 01005KT 10SM SCT120 A2938 RMK MADISHF
PARC,2017-04-01 09:50,-145.5794,68.1147,M,M,M,360.00,5.00,M,29.38,M,10.00,M,BKN,M,M,M,12000.00,M,M,M,M,PARC 010950Z AUTO 36005KT 10SM BKN120 A2938 RMK MADISHF
PARC,2017-04-01 09:55,-145.5794,68.1147,M,M,M,10.00,4.00,M,29.38,M,10.00,M,BKN,M,M,M,12000.00,M,M,M,M,PARC 010955Z AUTO 01004KT 10SM BKN120 A2938 RMK MADISHF
PARC,2017-04-01 09:56,-145.5794,68.1147,8.10,3.00,79.23,10.00,4.00,0.00,29.38,1000.70,10.00,M,BKN,M,M,M,12000.00,M,M,M,M,PARC 010956Z AUTO 01004KT 10SM BKN120 M13/M16 A2938 RMK AO2 SLP007 T11331161 FZRANO
PARC,2017-04-01 10:00,-145.5794,68.1147,M,M,M,360.00,5.00,M,29.38,M,10.00,M,BKN,M,M,M,11000.00,M,M,M,M,PARC 011000Z AUTO 36005KT 10SM BKN110 A2938 RMK MADISHF
PARC,2017-04-01 10:05,-145.5794,68.1147,M,M,M,10.00,5.00,M,29.38,M,10.00,M,OVC,M,M,M,11000.00,M,M,M,M,PARC 011005Z AUTO 01005KT 10SM OVC110 A2938 RMK MADISHF
PARC,2017-04-01 10:10,-145.5794,68.1147,M,M,M,10.00,4.00,M,29.38,M,10.00,M,OVC,M,M,M,11000.00,M,M,M,M,PARC 011010Z AUTO 01004KT 10SM OVC110 A2938 RMK MADISHF
PARC,2017-04-01 10:15,-145.5794,68.1147,M,M,M,20.00,4.00,M,29.38,M,10.00,M,OVC,M,M,M,11000.00,M,M,M,M,PARC 011015Z AUTO 02004KT 10SM OVC110 A2938 RMK MADISHF
PARC,2017-04-01 10:20,-145.5794,68.1147,M,M,M,20.00,4.00,M,29.38,M,10.00,M,OVC,M,M,M,10000.00,M,M,M,M,PARC 011020Z AUTO 02004KT 10SM OVC100 A2938 RMK MADISHF
PARC,2017-04-01 10:25,-145.5794,68.1147,M,M,M,10.00,4.00,M,29.38,M,10.00,M,OVC,M,M,M,10000.00,M,M,M,M,PARC 011025Z AUTO 01004KT 10SM OVC100 A2938 RMK MADISHF
PARC,2017-04-01 10:30,-145.5794,68.1147,M,M,M,360.00,5.00,M,29.38,M,10.00,M,OVC,M,M,M,10000.00,M,M,M,M,PARC 011030Z AUTO 36005KT 10SM OVC100 A2938 RMK MADISHF
PARC,2017-04-01 10:35,-145.5794,68.1147,M,M,M,350.00,3.00,M,29.38,M,10.00,M,OVC,M,M,M,10000.00,M,M,M,M,PARC 011035Z AUTO 35003KT 10SM OVC100 A2938 RMK MADISHF
PARC,2017-04-01 10:40,-145.5794,68.1147,M,M,M,330.00,3.00,M,29.38,M,10.00,M,OVC,M,M,M,10000.00,M,M,M,M,PARC 011040Z AUTO 33003KT 10SM OVC100 A2938 RMK MADISHF
PARC,2017-04-01 10:45,-145.5794,68.1147,M,M,M,320.00,3.00,M,29.37,M,10.00,M,OVC,M,M,M,9500.00,M,M,M,M,PARC 011045Z AUTO 32003KT 10SM OVC095 A2937 RMK MADISHF
PARC,2017-04-01 10:50,-145.5794,68.1147,M,M,M,340.00,4.00,M,29.38,M,10.00,M,OVC,M,M,M,9500.00,M,M,M,M,PARC 011050Z AUTO 34004KT 10SM OVC095 A2938 RMK MADISHF
PARC,2017-04-01 10:55,-145.5794,68.1147,M,M,M,350.00,3.00,M,29.38,M,10.00,M,OVC,M,M,M,9000.00,M,M,M,M,PARC 011055Z AUTO 35003KT 10SM OVC090 A2938 RMK MADISHF
PARC,2017-04-01 10:56,-145.5794,68.1147,7.00,1.90,79.13,360.00,3.00,0.00,29.38,1000.70,10.00,M,OVC,M,M,M,9000.00,M,M,M,M,PARC 011056Z AUTO 36003KT 10SM OVC090 M14/M17 A2938 RMK AO2 SLP007 T11391167 FZRANO
PARC,2017-04-01 11:00,-145.5794,68.1147,M,M,M,0.00,0.00,M,29.38,M,10.00,M,OVC,M,M,M,9000.00,M,M,M,M,PARC 011100Z AUTO 00000KT 10SM OVC090 A2938 RMK MADISHF
PARC,2017-04-01 11:05,-145.5794,68.1147,M,M,M,0.00,0.00,M,29.38,M,10.00,M,OVC,M,M,M,8500.00,M,M,M,M,PARC 011105Z AUTO 00000KT 10SM OVC085 A2938 RMK MADISHF
PARC,2017-04-01 11:10,-145.5794,68.1147,M,M,M,0.00,0.00,M,29.38,M,10.00,M,OVC,M,M,M,7999.00,M,M,M,M,PARC 011110Z AUTO 00000KT 10SM OVC079 A2938 RMK MADISHF
PARC,2017-04-01 11:15,-145.5794,68.1147,M,M,M,0.00,0.00,M,29.38,M,10.00,M,OVC,M,M,M,7999.00,M,M,M,M,PARC 011115Z AUTO 00000KT 10SM OVC079 A2938 RMK MADISHF
PARC,2017-04-01 11:20,-145.5794,68.1147,M,M,M,230.00,3.00,M,29.38,M,10.00,M,OVC,M,M,M,7999.00,M,M,M,M,PARC 011120Z AUTO 23003KT 10SM OVC079 A2938 RMK VRB03KT  MADISHF
PARC,2017-04-01 11:25,-145.5794,68.1147,M,M,M,260.00,3.00,M,29.38,M,10.00,M,OVC,M,M,M,7999.00,M,M,M,M,PARC 011125Z AUTO 26003KT 10SM OVC079 A2938 RMK VRB03KT  MADISHF
PARC,2017-04-01 11:35,-145.5794,68.1147,M,M,M,270.00,3.00,M,29.38,M,10.00,M,OVC,M,M,M,7999.00,M,M,M,M,PARC 011135Z AUTO 27003KT 10SM OVC079 A2938 RMK MADISHF
PARC,2017-04-01 11:40,-145.5794,68.1147,M,M,M,290.00,3.00,M,29.38,M,10.00,M,OVC,M,M,M,7999.00,M,M,M,M,PARC 011140Z AUTO 29003KT 10SM OVC079 A2938 RMK MADISHF
PARC,2017-04-01 11:45,-145.5794,68.1147,M,M,M,300.00,3.00,M,29.38,M,10.00,M,OVC,M,M,M,7999.00,M,M,M,M,PARC 011145Z AUTO 30003KT 10SM OVC079 A2938 RMK MADISHF
PARC,2017-04-01 11:50,-145.5794,68.1147,M,M,M,340.00,3.00,M,29.38,M,10.00,M,OVC,M,M,M,7999.00,M,M,M,M,PARC 011150Z AUTO 34003KT 10SM OVC079 A2938 RMK MADISHF
PARC,2017-04-01 11:55,-145.5794,68.1147,M,M,M,340.00,3.00,M,29.37,M,10.00,M,OVC,M,M,M,7999.00,M,M,M,M,PARC 011155Z AUTO 34003KT 10SM OVC079 A2937 RMK MADISHF
PARC,2017-04-01 11:56,-145.5794,68.1147,9.00,3.90,79.31,340.00,3.00,0.00,29.37,1000.40,10.00,M,OVC,M,M,M,8000.00,M,M,M,M,PARC 011156Z AUTO 34003KT 10SM OVC080 M13/M16 A2937 RMK AO2 SLP004 T11281156 11117 21139 50000 FZRANO
PARC,2017-04-01 12:05,-145.5794,68.1147,M,M,M,30.00,3.00,M,29.38,M,10.00,M,OVC,M,M,M,7999.00,M,M,M,M,PARC 011205Z AUTO 03003KT 10SM OVC079 A2938 RMK MADISHF
PARC,2017-04-01 12:10,-145.5794,68.1147,M,M,M,0.00,0.00,M,29.38,M,10.00,M,FEW,BKN,OVC,M,6000.00,7999.00,10000.00,M,M,PARC 011210Z AUTO 00000KT 10SM FEW060 BKN079 OVC100 A2938 RMK MADISHF
PARC,2017-04-01 12:15,-145.5794,68.1147,M,M,M,0.00,0.00,M,29.37,M,10.00,M,SCT,BKN,OVC,M,6000.00,7999.00,10000.00,M,M,PARC 011215Z AUTO 00000KT 10SM SCT060 BKN079 OVC100 A2937 RMK MADISHF
PARC,2017-04-01 12:20,-145.5794,68.1147,M,M,M,350.00,3.00,M,29.37,M,10.00,M,BKN,OVC,M,M,6000.00,7999.00,M,M,M,PARC 011220Z AUTO 35003KT 10SM BKN060 OVC079 A2937 RMK MADISHF
PARC,2017-04-01 12:25,-145.5794,68.1147,M,M,M,300.00,3.00,M,29.37,M,10.00,M,BKN,OVC,M,M,6000.00,7999.00,M,M,M,PARC 011225Z AUTO 30003KT 10SM BKN060 OVC079 A2937 RMK MADISHF
PARC,2017-04-01 12:30,-145.5794,68.1147,M,M,M,310.00,3.00,M,29.37,M,10.00,M,BKN,BKN,OVC,M,6000.00,7999.00,10000.00,M,M,PARC 011230Z AUTO 31003KT 10SM BKN060 BKN079 OVC100 A2937 RMK MADISHF
PARC,2017-04-01 12:35,-145.5794,68.1147,M,M,M,0.00,0.00,M,29.37,M,10.00,M,BKN,OVC,M,M,6000.00,10000.00,M,M,M,PARC 011235Z AUTO 00000KT 10SM BKN060 OVC100 A2937 RMK MADISHF
PARC,2017-04-01 12:40,-145.5794,68.1147,M,M,M,0.00,0.00,M,29.38,M,10.00,M,BKN,OVC,M,M,6000.00,10000.00,M,M,M,PARC 011240Z AUTO 00000KT 10SM BKN060 OVC100 A2938 RMK MADISHF
PARC,2017-04-01 12:45,-145.5794,68.1147,M,M,M,0.00,0.00,M,29.38,M,10.00,M,BKN,OVC,M,M,6000.00,10000.00,M,M,M,PARC 011245Z AUTO 00000KT 10SM BKN060 OVC100 A2938 RMK MADISHF
PARC,2017-04-01 12:50,-145.5794,68.1147,M,M,M,0.00,0.00,M,29.38,M,10.00,M,BKN,OVC,M,M,6000.00,10000.00,M,M,M,PARC 011250Z AUTO 00000KT 10SM BKN060 OVC100 A2938 RMK MADISHF
PARC,2017-04-01 12:55,-145.5794,68.1147,M,M,M,0.00,0.00,M,29.38,M,10.00,M,BKN,OVC,M,M,6000.00,10000.00,M,M,M,PARC 011255Z AUTO 00000KT 10SM BKN060 OVC100 A2938 RMK MADISHF
PARC,2017-04-01 12:56,-145.5794,68.1147,10.00,3.90,75.83,0.00,0.00,0.00,29.37,1000.40,10.00,M,BKN,OVC,M,M,6000.00,10000.00,M,M,M,PARC 011256Z AUTO 00000KT 10SM BKN060 OVC100 M12/M16 A2937 RMK AO2 SLP004 T11221156 FZRANO
PARC,2017-04-01 13:00,-145.5794,68.1147,M,M,M,0.00,0.00,M,29.37,M,10.00,M,OVC,M,M,M,6000.00,M,M,M,M,PARC 011300Z AUTO 00000KT 10SM OVC060 A2937 RMK MADISHF
PARC,2017-04-01 13:05,-145.5794,68.1147,M,M,M,0.00,0.00,M,29.38,M,10.00,M,OVC,M,M,M,6000.00,M,M,M,M,PARC 011305Z AUTO 00000KT 10SM OVC060 A2938 RMK MADISHF
PARC,2017-04-01 13:10,-145.5794,68.1147,M,M,M,360.00,3.00,M,29.37,M,10.00,M,OVC,M,M,M,6000.00,M,M,M,M,PARC 011310Z AUTO 36003KT 10SM OVC060 A2937 RMK MADISHF
PARC,2017-04-01 13:15,-145.5794,68.1147,M,M,M,340.00,3.00,M,29.37,M,10.00,M,OVC,M,M,M,6000.00,M,M,M,M,PARC 011315Z AUTO 34003KT 10SM OVC060 A2937 RMK MADISHF
PARC,2017-04-01 13:20,-145.5794,68.1147,M,M,M,340.00,3.00,M,29.37,M,10.00,M,OVC,M,M,M,6000.00,M,M,M,M,PARC 011320Z AUTO 34003KT 10SM OVC060 A2937 RMK MADISHF
PARC,2017-04-01 13:25,-145.5794,68.1147,M,M,M,350.00,4.00,M,29.37,M,10.00,M,OVC,M,M,M,6500.00,M,M,M,M,PARC 011325Z AUTO 35004KT 10SM OVC065 A2937 RMK MADISHF
PARC,2017-04-01 13:30,-145.5794,68.1147,M,M,M,360.00,4.00,M,29.37,M,10.00,M,OVC,M,M,M,6000.00,M,M,M,M,PARC 011330Z AUTO 36004KT 10SM OVC060 A2937 RMK MADISHF
PARC,2017-04-01 13:35,-145.5794,68.1147,M,M,M,340.00,3.00,M,29.37,M,10.00,M,OVC,M,M,M,6500.00,M,M,M,M,PARC 011335Z AUTO 34003KT 10SM OVC065 A2937 RMK MADISHF
PARC,2017-04-01 13:40,-145.5794,68.1147,M,M,M,340.00,3.00,M,29.38,M,10.00,M,OVC,M,M,M,6500.00,M,M,M,M,PARC 011340Z AUTO 34003KT 10SM OVC065 A2938 RMK MADISHF
PARC,2017-04-01 13:45,-145.5794,68.1147,M,M,M,360.00,3.00,M,29.38,M,10.00,M,OVC,M,M,M,6500.00,M,M,M,M,PARC 011345Z AUTO 36003KT 10SM OVC065 A2938 RMK MADISHF
PARC,2017-04-01 13:50,-145.5794,68.1147,M,M,M,10.00,3.00,M,29.37,M,10.00,M,OVC,M,M,M,6500.00,M,M,M,M,PARC 011350Z AUTO 01003KT 10SM OVC065 A2937 RMK MADISHF
PARC,2017-04-01 13:55,-145.5794,68.1147,M,M,M,0.00,0.00,M,29.37,M,10.00,M,OVC,M,M,M,6000.00,M,M,M,M,PARC 011355Z AUTO 00000KT 10SM OVC060 A2937 RMK MADISHF
PARC,2017-04-01 13:56,-145.5794,68.1147,10.90,3.90,72.85,0.00,0.00,0.00,29.37,1000.40,10.00,M,OVC,M,M,M,6000.00,M,M,M,M,PARC 011356Z AUTO 00000KT 10SM OVC060 M12/M16 A2937 RMK AO2 SLP004 T11171156 FZRANO
PARC,2017-04-01 14:00,-145.5794,68.1147,M,M,M,0.00,0.00,M,29.38,M,10.00,M,OVC,M,M,M,6000.00,M,M,M,M,PARC 011400Z AUTO 00000KT 10SM OVC060 A2938 RMK MADISHF
PARC,2017-04-01 14:05,-145.5794,68.1147,M,M,M,0.00,0.00,M,29.38,M,10.00,M,OVC,M,M,M,6000.00,M,M,M,M,PARC 011405Z AUTO 00000KT 10SM OVC060 A2938 RMK MADISHF
PARC,2017-04-01 14:10,-145.5794,68.1147,M,M,M,40.00,3.00,M,29.38,M,10.00,M,OVC,M,M,M,6000.00,M,M,M,M,PARC 011410Z AUTO 04003KT 10SM OVC060 A2938 RMK MADISHF
PARC,2017-04-01 14:15,-145.5794,68.1147,M,M,M,30.00,3.00,M,29.38,M,10.00,M,OVC,M,M,M,6000.00,M,M,M,M,PARC 011415Z AUTO 03003KT 10SM OVC060 A2938 RMK MADISHF
PARC,2017-04-01 14:20,-145.5794,68.1147,M,M,M,0.00,0.00,M,29.38,M,10.00,M,OVC,M,M,M,5500.00,M,M,M,M,PARC 011420Z AUTO 00000KT 10SM OVC055 A2938 RMK MADISHF
PARC,2017-04-01 14:25,-145.5794,68.1147,M,M,M,0.00,0.00,M,29.38,M,10.00,M,OVC,M,M,M,5500.00,M,M,M,M,PARC 011425Z AUTO 00000KT 10SM OVC055 A2938 RMK MADISHF
PARC,2017-04-01 14:30,-145.5794,68.1147,M,M,M,0.00,0.00,M,29.38,M,10.00,M,OVC,M,M,M,5500.00,M,M,M,M,PARC 011430Z AUTO 00000KT 10SM OVC055 A2938 RMK MADISHF
PARC,2017-04-01 14:35,-145.5794,68.1147,M,M,M,0.00,0.00,M,29.38,M,10.00,M,OVC,M,M,M,5500.00,M,M,M,M,PARC 011435Z AUTO 00000KT 10SM OVC055 A2938 RMK MADISHF
PARC,2017-04-01 14:40,-145.5794,68.1147,M,M,M,0.00,0.00,M,29.38,M,10.00,M,OVC,M,M,M,5500.00,M,M,M,M,PARC 011440Z AUTO 00000KT 10SM OVC055 A2938 RMK MADISHF
PARC,2017-04-01 14:45,-145.5794,68.1147,M,M,M,260.00,3.00,M,29.38,M,10.00,M,OVC,M,M,M,6000.00,M,M,M,M,PARC 011445Z AUTO 26003KT 10SM OVC060 A2938 RMK MADISHF
PARC,2017-04-01 14:50,-145.5794,68.1147,M,M,M,0.00,0.00,M,29.38,M,10.00,M,OVC,M,M,M,6000.00,M,M,M,M,PARC 011450Z AUTO 00000KT 10SM OVC060 A2938 RMK MADISHF
PARC,2017-04-01 14:55,-145.5794,68.1147,M,M,M,0.00,0.00,M,29.38,M,10.00,M,OVC,M,M,M,6000.00,M,M,M,M,PARC 011455Z AUTO 00000KT 10SM OVC060 A2938 RMK MADISHF
PARC,2017-04-01 14:56,-145.5794,68.1147,10.90,5.00,76.62,0.00,0.00,0.00,29.38,1000.70,10.00,M,OVC,M,M,M,6000.00,M,M,M,M,PARC 011456Z AUTO 00000KT 10SM OVC060 M12/M15 A2938 RMK AO2 SLP007 T11171150 53002 FZRANO
PARC,2017-04-01 15:00,-145.5794,68.1147,M,M,M,0.00,0.00,M,29.38,M,10.00,M,OVC,M,M,M,6000.00,M,M,M,M,PARC 011500Z AUTO 00000KT 10SM OVC060 A2938 RMK MADISHF
PARC,2017-04-01 15:05,-145.5794,68.1147,M,M,M,0.00,0.00,M,29.39,M,10.00,M,OVC,M,M,M,6000.00,M,M,M,M,PARC 011505Z AUTO 00000KT 10SM OVC060 A2939 RMK MADISHF
PARC,2017-04-01 15:10,-145.5794,68.1147,M,M,M,0.00,0.00,M,29.39,M,10.00,M,OVC,M,M,M,5500.00,M,M,M,M,PARC 011510Z AUTO 00000KT 10SM OVC055 A2939 RMK MADISHF
PARC,2017-04-01 15:15,-145.5794,68.1147,M,M,M,0.00,0.00,M,29.39,M,10.00,M,OVC,M,M,M,5500.00,M,M,M,M,PARC 011515Z AUTO 00000KT 10SM OVC055 A2939 RMK MADISHF
PARC,2017-04-01 15:20,-145.5794,68.1147,M,M,M,0.00,0.00,M,29.39,M,10.00,M,OVC,M,M,M,5500.00,M,M,M,M,PARC 011520Z AUTO 00000KT 10SM OVC055 A2939 RMK MADISHF
PARC,2017-04-01 15:25,-145.5794,68.1147,M,M,M,0.00,0.00,M,29.39,M,10.00,M,OVC,M,M,M,5500.00,M,M,M,M,PARC 011525Z AUTO 00000KT 10SM OVC055 A2939 RMK MADISHF
PARC,2017-04-01 15:30,-145.5794,68.1147,M,M,M,0.00,0.00,M,29.39,M,10.00,M,OVC,M,M,M,5500.00,M,M,M,M,PARC 011530Z AUTO 00000KT 10SM OVC055 A2939 RMK MADISHF
PARC,2017-04-01 15:35,-145.5794,68.1147,M,M,M,0.00,0.00,M,29.39,M,10.00,M,OVC,M,M,M,6000.00,M,M,M,M,PARC 011535Z AUTO 00000KT 10SM OVC060 A2939 RMK MADISHF
PARC,2017-04-01 15:40,-145.5794,68.1147,M,M,M,0.00,0.00,M,29.39,M,10.00,M,OVC,M,M,M,6000.00,M,M,M,M,PARC 011540Z AUTO 00000KT 10SM OVC060 A2939 RMK MADISHF
PARC,2017-04-01 15:45,-145.5794,68.1147,M,M,M,0.00,0.00,M,29.39,M,10.00,M,OVC,M,M,M,6000.00,M,M,M,M,PARC 011545Z AUTO 00000KT 10SM OVC060 A2939 RMK MADISHF
PARC,2017-04-01 15:50,-145.5794,68.1147,M,M,M,0.00,0.00,M,29.39,M,10.00,M,BKN,OVC,M,M,6000.00,8500.00,M,M,M,PARC 011550Z AUTO 00000KT 10SM BKN060 OVC085 A2939 RMK MADISHF
PARC,2017-04-01 15:55,-145.5794,68.1147,M,M,M,0.00,0.00,M,29.39,M,10.00,M,BKN,OVC,M,M,6000.00,8500.00,M,M,M,PARC 011555Z AUTO 00000KT 10SM BKN060 OVC085 A2939 RMK MADISHF
PARC,2017-04-01 15:56,-145.5794,68.1147,12.90,6.10,73.74,0.00,0.00,0.00,29.39,1001.10,10.00,M,FEW,BKN,OVC,M,5000.00,6000.00,8500.00,M,M,PARC 011556Z AUTO 00000KT 10SM FEW050 BKN060 OVC085 M11/M14 A2939 RMK AO2 SLP011 T11061144 FZRANO
PARC,2017-04-01 16:00,-145.5794,68.1147,M,M,M,330.00,3.00,M,29.39,M,10.00,M,SCT,BKN,OVC,M,5000.00,6500.00,8500.00,M,M,PARC 011600Z AUTO 33003KT 10SM SCT050 BKN065 OVC085 A2939 RMK MADISHF
PARC,2017-04-01 16:05,-145.5794,68.1147,M,M,M,340.00,3.00,M,29.39,M,10.00,M,BKN,OVC,M,M,6000.00,7999.00,M,M,M,PARC 011605Z AUTO 34003KT 10SM BKN060 OVC079 A2939 RMK MADISHF
PARC,2017-04-01 16:10,-145.5794,68.1147,M,M,M,0.00,0.00,M,29.39,M,10.00,M,BKN,OVC,M,M,6000.00,8500.00,M,M,M,PARC 011610Z AUTO 00000KT 10SM BKN060 OVC085 A2939 RMK MADISHF
PARC,2017-04-01 16:15,-145.5794,68.1147,M,M,M,330.00,3.00,M,29.39,M,10.00,M,SCT,BKN,OVC,M,4900.00,6000.00,7999.00,M,M,PARC 011615Z AUTO 33003KT 10SM SCT049 BKN060 OVC079 A2939 RMK MADISHF
PARC,2017-04-01 16:20,-145.5794,68.1147,M,M,M,0.00,0.00,M,29.39,M,10.00,M,OVC,M,M,M,5500.00,M,M,M,M,PARC 011620Z AUTO 00000KT 10SM OVC055 A2939 RMK MADISHF
PARC,2017-04-01 16:25,-145.5794,68.1147,M,M,M,0.00,0.00,M,29.39,M,10.00,M,BKN,OVC,M,M,4900.00,6500.00,M,M,M,PARC 011625Z AUTO 00000KT 10SM BKN049 OVC065 A2939 RMK MADISHF
PARC,2017-04-01 16:30,-145.5794,68.1147,M,M,M,0.00,0.00,M,29.39,M,10.00,M,OVC,M,M,M,5500.00,M,M,M,M,PARC 011630Z AUTO 00000KT 10SM OVC055 A2939 RMK MADISHF
PARC,2017-04-01 16:35,-145.5794,68.1147,M,M,M,0.00,0.00,M,29.40,M,10.00,M,BKN,OVC,M,M,5000.00,6000.00,M,M,-SN,PARC 011635Z AUTO 00000KT 10SM -SN BKN050 OVC060 A2940 RMK MADISHF
PARC,2017-04-01 16:40,-145.5794,68.1147,M,M,M,0.00,0.00,M,29.40,M,8.00,M,FEW,BKN,OVC,M,3800.00,4800.00,5500.00,M,-SN,PARC 011640Z AUTO 00000KT 8SM -SN FEW038 BKN048 OVC055 A2940 RMK MADISHF
PARC,2017-04-01 16:45,-145.5794,68.1147,M,M,M,0.00,0.00,M,29.40,M,6.00,M,SCT,OVC,M,M,3600.00,4800.00,M,M,-SN,PARC 011645Z AUTO 00000KT 6SM -SN SCT036 OVC048 A2940 RMK MADISHF
PARC,2017-04-01 16:50,-145.5794,68.1147,M,M,M,250.00,3.00,M,29.40,M,6.00,M,FEW,BKN,OVC,M,3200.00,4100.00,5000.00,M,-SN,PARC 011650Z AUTO 25003KT 6SM -SN FEW032 BKN041 OVC050 A2940 RMK MADISHF
PARC,2017-04-01 16:55,-145.5794,68.1147,M,M,M,0.00,0.00,M,29.40,M,7.00,M,BKN,OVC,M,M,4100.00,5000.00,M,M,-SN,PARC 011655Z AUTO 00000KT 7SM -SN BKN041 OVC050 A2940 RMK MADISHF
PARC,2017-04-01 16:56,-145.5794,68.1147,15.10,7.00,69.75,0.00,0.00,0.00,29.40,1001.70,8.00,M,BKN,OVC,M,M,4100.00,5000.00,M,M,-SN,PARC 011656Z AUTO 00000KT 8SM -SN BKN041 OVC050 M09/M14 A2940 RMK AO2 SNB33 SLP017 P0000 T10941139 FZRANO
PARC,2017-04-01 17:00,-145.5794,68.1147,M,M,M,0.00,0.00,M,29.40,M,8.00,M,BKN,OVC,M,M,3700.00,4500.00,M,M,-SN,PARC 011700Z AUTO 00000KT 8SM -SN BKN037 OVC045 A2940 RMK MADISHF
PARC,2017-04-01 17:05,-145.5794,68.1147,M,M,M,0.00,0.00,M,29.40,M,6.00,M,FEW,BKN,OVC,M,2800.00,3700.00,4500.00,M,-SN,PARC 011705Z AUTO 00000KT 6SM -SN FEW028 BKN037 OVC045 A2940 RMK MADISHF
PARC,2017-04-01 17:10,-145.5794,68.1147,M,M,M,0.00,0.00,M,29.40,M,4.00,M,FEW,OVC,M,M,2800.00,3700.00,M,M,-SN,PARC 011710Z AUTO 00000KT 4SM -SN FEW028 OVC037 A2940 RMK MADISHF
PARC,2017-04-01 17:15,-145.5794,68.1147,M,M,M,0.00,0.00,M,29.40,M,4.00,M,BKN,OVC,M,M,3800.00,4500.00,M,M,-SN,PARC 011715Z AUTO 00000KT 4SM -SN BKN038 OVC045 A2940 RMK MADISHF
PARC,2017-04-01 17:20,-145.5794,68.1147,M,M,M,0.00,0.00,M,29.40,M,6.00,M,SCT,OVC,M,M,3600.00,4500.00,M,M,-SN,PARC 011720Z AUTO 00000KT 6SM -SN SCT036 OVC045 A2940 RMK MADISHF
PARC,2017-04-01 17:25,-145.5794,68.1147,M,M,M,0.00,0.00,M,29.40,M,4.00,M,BKN,OVC,M,M,3500.00,4500.00,M,M,-SN,PARC 011725Z AUTO 00000KT 4SM -SN BKN035 OVC045 A2940 RMK MADISHF
PARC,2017-04-01 17:30,-145.5794,68.1147,M,M,M,0.00,0.00,M,29.40,M,2.50,M,BKN,OVC,M,M,3500.00,4500.00,M,M,-SN,PARC 011730Z AUTO 00000KT 2 1/2SM -SN BKN035 OVC045 A2940 RMK MADISHF
PARC,2017-04-01 17:34,-145.5794,68.1147,17.60,8.60,67.28,20.00,3.00,0.00,29.40,M,2.00,M,BKN,OVC,M,M,3500.00,4500.00,M,M,-SN,PARC 011734Z AUTO 02003KT 2SM -SN BKN035 OVC045 M08/M13 A2940 RMK AO2 VIS 1 1/4V5 P0000 FZRANO
PARC,2017-04-01 17:35,-145.5794,68.1147,M,M,M,0.00,0.00,M,29.40,M,2.50,M,BKN,OVC,M,M,3500.00,4500.00,M,M,-SN,PARC 011735Z AUTO 00000KT 2 1/2SM -SN BKN035 OVC045 A2940 RMK MADISHF
PARC,2017-04-01 17:40,-145.5794,68.1147,M,M,M,10.00,3.00,M,29.40,M,4.00,M,BKN,OVC,M,M,3300.00,4300.00,M,M,-SN,PARC 011740Z AUTO 01003KT 4SM -SN BKN033 OVC043 A2940 RMK MADISHF
PARC,2017-04-01 17:43,-145.5794,68.1147,17.60,8.60,67.28,10.00,3.00,0.00,29.40,M,6.00,M,BKN,OVC,M,M,3300.00,4300.00,M,M,-SN,PARC 011743Z AUTO 01003KT 6SM -SN BKN033 OVC043 M08/M13 A2940 RMK AO2 P0000 FZRANO
PARC,2017-04-01 17:45,-145.5794,68.1147,M,M,M,0.00,0.00,M,29.40,M,7.00,M,SCT,OVC,M,M,2900.00,3600.00,M,M,-SN,PARC 011745Z AUTO 00000KT 7SM -SN SCT029 OVC036 A2940 RMK MADISHF
PARC,2017-04-01 17:50,-145.5794,68.1147,M,M,M,0.00,0.00,M,29.40,M,6.00,M,SCT,OVC,M,M,2400.00,3399.00,M,M,-SN,PARC 011750Z AUTO 00000KT 6SM -SN SCT024 OVC033 A2940 RMK MADISHF
PARC,2017-04-01 17:55,-145.5794,68.1147,M,M,M,20.00,3.00,M,29.40,M,4.00,M,FEW,BKN,OVC,M,1999.00,2700.00,3399.00,M,-SN,PARC 011755Z AUTO 02003KT 4SM -SN FEW019 BKN027 OVC033 A2940 RMK MADISHF
PARC,2017-04-01 17:56,-145.5794,68.1147,17.10,10.90,76.20,20.00,3.00,0.00,29.40,1001.80,4.00,M,FEW,BKN,OVC,M,2000.00,2700.00,4500.00,M,-SN,PARC 011756Z AUTO 02003KT 4SM -SN FEW020 BKN027 OVC045 M08/M12 A2940 RMK AO2 SLP018 P0000 60000 T10831117 11083 21128 51006 FZRANO
PARC,2017-04-01 18:00,-145.5794,68.1147,M,M,M,10.00,3.00,M,29.40,M,5.00,M,FEW,BKN,OVC,M,1999.00,3399.00,4700.00,M,-SN,PARC 011800Z AUTO 01003KT 5SM -SN FEW019 BKN033 OVC047 A2940 RMK MADISHF
PARC,2017-04-01 18:04,-145.5794,68.1147,17.60,10.40,72.93,0.00,0.00,0.00,29.40,M,6.00,M,FEW,BKN,OVC,M,2000.00,3400.00,4900.00,M,-SN,PARC 011804Z AUTO 00000KT 6SM -SN FEW020 BKN034 OVC049 M08/M12 A2940 RMK AO2 P0000 FZRANO
PARC,2017-04-01 18:05,-145.5794,68.1147,M,M,M,0.00,0.00,M,29.40,M,6.00,M,FEW,SCT,OVC,M,1999.00,2700.00,4900.00,M,-SN,PARC 011805Z AUTO 00000KT 6SM -SN FEW019 SCT027 OVC049 A2940 RMK MADISHF
PARC,2017-04-01 18:10,-145.5794,68.1147,M,M,M,360.00,3.00,M,29.40,M,8.00,M,FEW,SCT,OVC,M,1999.00,3500.00,4700.00,M,-SN,PARC 011810Z AUTO 36003KT 8SM -SN FEW019 SCT035 OVC047 A2940 RMK MADISHF
PARC,2017-04-01 18:15,-145.5794,68.1147,M,M,M,10.00,4.00,M,29.40,M,9.00,M,FEW,BKN,OVC,M,1999.00,3500.00,4700.00,M,M,PARC 011815Z AUTO 01004KT 9SM FEW019 BKN035 OVC047 A2940 RMK MADISHF
PARC,2017-04-01 18:25,-145.5794,68.1147,M,M,M,10.00,3.00,M,29.40,M,10.00,M,FEW,BKN,OVC,M,2900.00,3600.00,4900.00,M,M,PARC 011825Z AUTO 01003KT 10SM FEW029 BKN036 OVC049 A2940 RMK MADISHF
PARC,2017-04-01 18:30,-145.5794,68.1147,M,M,M,10.00,4.00,M,29.40,M,10.00,M,BKN,BKN,BKN,M,3399.00,4300.00,5000.00,M,M,PARC 011830Z AUTO 01004KT 10SM BKN033 BKN043 BKN050 A2940 RMK MADISHF
PARC,2017-04-01 18:35,-145.5794,68.1147,M,M,M,20.00,4.00,M,29.40,M,10.00,M,FEW,SCT,BKN,M,2900.00,3600.00,4400.00,M,M,PARC 011835Z AUTO 02004KT 10SM FEW029 SCT036 BKN044 A2940 RMK MADISHF
PARC,2017-04-01 18:40,-145.5794,68.1147,M,M,M,20.00,3.00,M,29.40,M,10.00,M,FEW,SCT,M,M,3100.00,3800.00,M,M,M,PARC 011840Z AUTO 02003KT 10SM FEW031 SCT038 A2940 RMK MADISHF
PARC,2017-04-01 18:45,-145.5794,68.1147,M,M,M,360.00,3.00,M,29.40,M,10.00,M,FEW,SCT,M,M,3600.00,7000.00,M,M,M,PARC 011845Z AUTO 36003KT 10SM FEW036 SCT070 A2940 RMK MADISHF
PARC,2017-04-01 18:50,-145.5794,68.1147,M,M,M,10.00,3.00,M,29.40,M,10.00,M,FEW,SCT,BKN,M,3600.00,5000.00,7000.00,M,M,PARC 011850Z AUTO 01003KT 10SM FEW036 SCT050 BKN070 A2940 RMK MADISHF
PARC,2017-04-01 18:55,-145.5794,68.1147,M,M,M,20.00,3.00,M,29.41,M,10.00,M,SCT,BKN,BKN,M,4700.00,5500.00,7000.00,M,M,PARC 011855Z AUTO 02003KT 10SM SCT047 BKN055 BKN070 A2941 RMK MADISHF
PARC,2017-04-01 18:56,-145.5794,68.1147,18.00,10.90,73.30,20.00,3.00,0.00,29.41,1002.00,10.00,M,SCT,BKN,M,M,4700.00,6000.00,M,M,M,PARC 011856Z AUTO 02003KT 10SM SCT047 BKN060 M08/M12 A2941 RMK AO2 SNE15 SLP020 P0000 T10781117 FZRANO
PARC,2017-04-01 19:00,-145.5794,68.1147,M,M,M,0.00,0.00,M,29.41,M,10.00,M,BKN,BKN,BKN,M,4700.00,5500.00,7000.00,M,M,PARC 011900Z AUTO 00000KT 10SM BKN047 BKN055 BKN070 A2941 RMK MADISHF
PARC,2017-04-01 19:05,-145.5794,68.1147,M,M,M,0.00,0.00,M,29.41,M,10.00,M,SCT,BKN,BKN,M,4700.00,6000.00,12000.00,M,M,PARC 011905Z AUTO 00000KT 10SM SCT047 BKN060 BKN120 A2941 RMK MADISHF
PARC,2017-04-01 19:10,-145.5794,68.1147,M,M,M,0.00,0.00,M,29.41,M,10.00,M,SCT,BKN,BKN,M,4700.00,6000.00,12000.00,M,M,PARC 011910Z AUTO 00000KT 10SM SCT047 BKN060 BKN120 A2941 RMK MADISHF
PARC,2017-04-01 19:15,-145.5794,68.1147,M,M,M,0.00,0.00,M,29.41,M,10.00,M,SCT,BKN,M,M,4700.00,6500.00,M,M,M,PARC 011915Z AUTO 00000KT 10SM SCT047 BKN065 A2941 RMK MADISHF
PARC,2017-04-01 19:20,-145.5794,68.1147,M,M,M,0.00,0.00,M,29.41,M,10.00,M,FEW,BKN,M,M,4700.00,6500.00,M,M,M,PARC 011920Z AUTO 00000KT 10SM FEW047 BKN065 A2941 RMK MADISHF
PARC,2017-04-01 19:25,-145.5794,68.1147,M,M,M,0.00,0.00,M,29.41,M,10.00,M,FEW,BKN,M,M,4700.00,6500.00,M,M,M,PARC 011925Z AUTO 00000KT 10SM FEW047 BKN065 A2941 RMK MADISHF
PARC,2017-04-01 19:30,-145.5794,68.1147,M,M,M,0.00,0.00,M,29.41,M,10.00,M,SCT,M,M,M,6500.00,M,M,M,M,PARC 011930Z AUTO 00000KT 10SM SCT065 A2941 RMK MADISHF
PARC,2017-04-01 19:35,-145.5794,68.1147,M,M,M,0.00,0.00,M,29.41,M,10.00,M,BKN,M,M,M,6500.00,M,M,M,M,PARC 011935Z AUTO 00000KT 10SM BKN065 A2941 RMK MADISHF
PARC,2017-04-01 19:40,-145.5794,68.1147,M,M,M,0.00,0.00,M,29.41,M,10.00,M,SCT,M,M,M,6500.00,M,M,M,M,PARC 011940Z AUTO 00000KT 10SM SCT065 A2941 RMK MADISHF
PARC,2017-04-01 19:45,-145.5794,68.1147,M,M,M,0.00,0.00,M,29.41,M,10.00,M,SCT,M,M,M,6500.00,M,M,M,M,PARC 011945Z AUTO 00000KT 10SM SCT065 A2941 RMK MADISHF
PARC,2017-04-01 19:50,-145.5794,68.1147,M,M,M,0.00,0.00,M,29.41,M,10.00,M,SCT,M,M,M,6500.00,M,M,M,M,PARC 011950Z AUTO 00000KT 10SM SCT065 A2941 RMK MADISHF
PARC,2017-04-01 19:55,-145.5794,68.1147,M,M,M,10.00,3.00,M,29.41,M,10.00,M,BKN,M,M,M,6500.00,M,M,M,M,PARC 011955Z AUTO 01003KT 10SM BKN065 A2941 RMK VRB03KT  MADISHF
PARC,2017-04-01 19:56,-145.5794,68.1147,28.90,12.00,48.72,M,3.00,0.00,29.41,1001.50,10.00,M,BKN,M,M,M,6500.00,M,M,M,M,PARC 011956Z AUTO VRB03KT 10SM BKN065 M02/M11 A2941 RMK AO2 SLP015 T10171111 FZRANO
PARC,2017-04-01 20:00,-145.5794,68.1147,M,M,M,340.00,3.00,M,29.40,M,10.00,M,BKN,M,M,M,6500.00,M,M,M,M,PARC 012000Z AUTO 34003KT 10SM BKN065 A2940 RMK MADISHF
PARC,2017-04-01 20:05,-145.5794,68.1147,M,M,M,0.00,0.00,M,29.41,M,10.00,M,SCT,M,M,M,6500.00,M,M,M,M,PARC 012005Z AUTO 00000KT 10SM SCT065 A2941 RMK MADISHF
PARC,2017-04-01 20:10,-145.5794,68.1147,M,M,M,0.00,0.00,M,29.40,M,10.00,M,SCT,M,M,M,6500.00,M,M,M,M,PARC 012010Z AUTO 00000KT 10SM SCT065 A2940 RMK MADISHF
PARC,2017-04-01 20:15,-145.5794,68.1147,M,M,M,10.00,4.00,M,29.41,M,10.00,M,FEW,M,M,M,6500.00,M,M,M,M,PARC 012015Z AUTO 01004KT 10SM FEW065 A2941 RMK MADISHF
PARC,2017-04-01 20:20,-145.5794,68.1147,M,M,M,350.00,4.00,M,29.41,M,10.00,M,FEW,M,M,M,6000.00,M,M,M,M,PARC 012020Z AUTO 35004KT 10SM FEW060 A2941 RMK MADISHF
PARC,2017-04-01 20:25,-145.5794,68.1147,M,M,M,20.00,3.00,M,29.41,M,10.00,M,CLR,M,M,M,M,M,M,M,M,PARC 012025Z AUTO 02003KT 10SM CLR A2941 RMK MADISHF
PARC,2017-04-01 20:30,-145.5794,68.1147,M,M,M,10.00,3.00,M,29.41,M,10.00,M,CLR,M,M,M,M,M,M,M,M,PARC 012030Z AUTO 01003KT 10SM CLR A2941 RMK MADISHF
PARC,2017-04-01 20:35,-145.5794,68.1147,M,M,M,350.00,4.00,M,29.41,M,10.00,M,CLR,M,M,M,M,M,M,M,M,PARC 012035Z AUTO 35004KT 10SM CLR A2941 RMK MADISHF
PARC,2017-04-01 20:40,-145.5794,68.1147,M,M,M,350.00,4.00,M,29.41,M,10.00,M,CLR,M,M,M,M,M,M,M,M,PARC 012040Z AUTO 35004KT 10SM CLR A2941 RMK MADISHF
PARC,2017-04-01 20:45,-145.5794,68.1147,M,M,M,350.00,5.00,M,29.41,M,10.00,M,CLR,M,M,M,M,M,M,M,M,PARC 012045Z AUTO 35005KT 10SM CLR A2941 RMK MADISHF
PARC,2017-04-01 20:50,-145.5794,68.1147,M,M,M,360.00,4.00,M,29.41,M,10.00,M,CLR,M,M,M,M,M,M,M,M,PARC 012050Z AUTO 36004KT 10SM CLR A2941 RMK MADISHF
PARC,2017-04-01 20:55,-145.5794,68.1147,M,M,M,350.00,5.00,M,29.41,M,10.00,M,CLR,M,M,M,M,M,M,M,M,PARC 012055Z AUTO 35005KT 10SM CLR A2941 RMK MADISHF
PARC,2017-04-01 20:56,-145.5794,68.1147,30.00,12.90,48.48,360.00,5.00,0.00,29.41,1001.60,10.00,M,CLR,M,M,M,M,M,M,M,M,PARC 012056Z AUTO 36005KT 10SM CLR M01/M11 A2941 RMK AO2 SLP016 60000 T10111106 51003 FZRANO
PARC,2017-04-01 21:00,-145.5794,68.1147,M,M,M,20.00,6.00,M,29.41,M,10.00,M,CLR,M,M,M,M,M,M,M,M,PARC 012100Z AUTO 02006KT 10SM CLR A2941 RMK MADISHF
PARC,2017-04-01 21:05,-145.5794,68.1147,M,M,M,10.00,6.00,M,29.41,M,10.00,M,CLR,M,M,M,M,M,M,M,M,PARC 012105Z AUTO 01006KT 10SM CLR A2941 RMK MADISHF
PARC,2017-04-01 21:10,-145.5794,68.1147,M,M,M,10.00,5.00,M,29.41,M,10.00,M,CLR,M,M,M,M,M,M,M,M,PARC 012110Z AUTO 01005KT 10SM CLR A2941 RMK MADISHF
PARC,2017-04-01 21:15,-145.5794,68.1147,M,M,M,10.00,7.00,M,29.41,M,10.00,M,CLR,M,M,M,M,M,M,M,M,PARC 012115Z AUTO 01007KT 10SM CLR A2941 RMK MADISHF
PARC,2017-04-01 21:20,-145.5794,68.1147,M,M,M,10.00,5.00,M,29.41,M,10.00,M,CLR,M,M,M,M,M,M,M,M,PARC 012120Z AUTO 01005KT 10SM CLR A2941 RMK MADISHF
PARC,2017-04-01 21:25,-145.5794,68.1147,M,M,M,10.00,6.00,M,29.41,M,10.00,M,CLR,M,M,M,M,M,M,M,M,PARC 012125Z AUTO 01006KT 10SM CLR A2941 RMK MADISHF
PARC,2017-04-01 21:30,-145.5794,68.1147,M,M,M,20.00,6.00,M,29.41,M,10.00,M,CLR,M,M,M,M,M,M,M,M,PARC 012130Z AUTO 02006KT 10SM CLR A2941 RMK MADISHF
PARC,2017-04-01 21:35,-145.5794,68.1147,M,M,M,360.00,6.00,M,29.41,M,10.00,M,CLR,M,M,M,M,M,M,M,M,PARC 012135Z AUTO 36006KT 10SM CLR A2941 RMK MADISHF
PARC,2017-04-01 21:40,-145.5794,68.1147,M,M,M,360.00,4.00,M,29.41,M,10.00,M,CLR,M,M,M,M,M,M,M,M,PARC 012140Z AUTO 36004KT 10SM CLR A2941 RMK MADISHF
PARC,2017-04-01 21:45,-145.5794,68.1147,M,M,M,360.00,5.00,M,29.41,M,10.00,M,CLR,M,M,M,M,M,M,M,M,PARC 012145Z AUTO 36005KT 10SM CLR A2941 RMK MADISHF
PARC,2017-04-01 21:50,-145.5794,68.1147,M,M,M,350.00,8.00,M,29.41,M,10.00,M,FEW,M,M,M,11000.00,M,M,M,M,PARC 012150Z AUTO 35008KT 10SM FEW110 A2941 RMK MADISHF
PARC,2017-04-01 21:55,-145.5794,68.1147,M,M,M,360.00,6.00,M,29.42,M,10.00,M,SCT,M,M,M,10000.00,M,M,M,M,PARC 012155Z AUTO 36006KT 10SM SCT100 A2942 RMK MADISHF
PARC,2017-04-01 21:56,-145.5794,68.1147,28.90,12.90,50.70,360.00,6.00,0.00,29.42,1001.80,10.00,M,SCT,M,M,M,10000.00,M,M,M,M,PARC 012156Z AUTO 36006KT 10SM SCT100 M02/M11 A2942 RMK AO2 SLP018 T10171106 FZRANO
PARC,2017-04-01 22:00,-145.5794,68.1147,M,M,M,360.00,6.00,M,29.42,M,10.00,M,FEW,SCT,M,M,4800.00,10000.00,M,M,M,PARC 012200Z AUTO 36006KT 10SM FEW048 SCT100 A2942 RMK MADISHF
PARC,2017-04-01 22:05,-145.5794,68.1147,M,M,M,360.00,7.00,M,29.42,M,10.00,M,SCT,BKN,M,M,4800.00,10000.00,M,M,M,PARC 012205Z AUTO 36007KT 10SM SCT048 BKN100 A2942 RMK MADISHF
PARC,2017-04-01 22:10,-145.5794,68.1147,M,M,M,360.00,6.00,M,29.42,M,10.00,M,BKN,BKN,M,M,4600.00,10000.00,M,M,M,PARC 012210Z AUTO 36006KT 10SM BKN046 BKN100 A2942 RMK MADISHF
PARC,2017-04-01 22:15,-145.5794,68.1147,M,M,M,360.00,7.00,M,29.42,M,10.00,M,BKN,BKN,M,M,4600.00,10000.00,M,M,M,PARC 012215Z AUTO 36007KT 10SM BKN046 BKN100 A2942 RMK MADISHF
PARC,2017-04-01 22:20,-145.5794,68.1147,M,M,M,360.00,7.00,M,29.42,M,10.00,M,BKN,OVC,M,M,4600.00,10000.00,M,M,M,PARC 012220Z AUTO 36007KT 10SM BKN046 OVC100 A2942 RMK MADISHF
PARC,2017-04-01 22:25,-145.5794,68.1147,M,M,M,360.00,7.00,M,29.42,M,10.00,M,OVC,M,M,M,4600.00,M,M,M,M,PARC 012225Z AUTO 36007KT 10SM OVC046 A2942 RMK MADISHF
PARC,2017-04-01 22:30,-145.5794,68.1147,M,M,M,340.00,7.00,M,29.42,M,10.00,M,BKN,OVC,M,M,4600.00,10000.00,M,M,M,PARC 012230Z AUTO 34007KT 10SM BKN046 OVC100 A2942 RMK MADISHF
PARC,2017-04-01 22:35,-145.5794,68.1147,M,M,M,360.00,6.00,M,29.42,M,10.00,M,BKN,OVC,M,M,4600.00,10000.00,M,M,M,PARC 012235Z AUTO 36006KT 10SM BKN046 OVC100 A2942 RMK MADISHF
PARC,2017-04-01 22:40,-145.5794,68.1147,M,M,M,360.00,7.00,M,29.42,M,10.00,M,BKN,OVC,M,M,4600.00,10000.00,M,M,M,PARC 012240Z AUTO 36007KT 10SM BKN046 OVC100 A2942 RMK MADISHF
PARC,2017-04-01 22:45,-145.5794,68.1147,M,M,M,360.00,6.00,M,29.42,M,10.00,M,BKN,OVC,M,M,4600.00,10000.00,M,M,M,PARC 012245Z AUTO 36006KT 10SM BKN046 OVC100 A2942 RMK MADISHF
PARC,2017-04-01 22:50,-145.5794,68.1147,M,M,M,360.00,6.00,M,29.42,M,10.00,M,BKN,OVC,M,M,4600.00,10000.00,M,M,M,PARC 012250Z AUTO 36006KT 10SM BKN046 OVC100 A2942 RMK MADISHF
PARC,2017-04-01 22:55,-145.5794,68.1147,M,M,M,10.00,6.00,M,29.42,M,10.00,M,BKN,OVC,M,M,4600.00,10000.00,M,M,M,PARC 012255Z AUTO 01006KT 10SM BKN046 OVC100 A2942 RMK MADISHF
PARC,2017-04-01 22:56,-145.5794,68.1147,30.00,14.00,50.88,10.00,5.00,0.00,29.42,1002.10,10.00,M,BKN,OVC,M,M,4600.00,10000.00,M,M,M,PARC 012256Z AUTO 01005KT 10SM BKN046 OVC100 M01/M10 A2942 RMK AO2 SLP021 T10111100 FZRANO
PARC,2017-04-01 23:00,-145.5794,68.1147,M,M,M,10.00,5.00,M,29.43,M,10.00,M,BKN,OVC,M,M,4600.00,10000.00,M,M,M,PARC 012300Z AUTO 01005KT 10SM BKN046 OVC100 A2943 RMK MADISHF
PARC,2017-04-01 23:05,-145.5794,68.1147,M,M,M,360.00,6.00,M,29.43,M,10.00,M,BKN,OVC,M,M,4600.00,10000.00,M,M,M,PARC 012305Z AUTO 36006KT 10SM BKN046 OVC100 A2943 RMK MADISHF
PARC,2017-04-01 23:10,-145.5794,68.1147,M,M,M,360.00,5.00,M,29.43,M,10.00,M,BKN,OVC,M,M,4600.00,10000.00,M,M,M,PARC 012310Z AUTO 36005KT 10SM BKN046 OVC100 A2943 RMK MADISHF
PARC,2017-04-01 23:15,-145.5794,68.1147,M,M,M,350.00,5.00,M,29.43,M,10.00,M,FEW,BKN,OVC,M,3800.00,4600.00,10000.00,M,M,PARC 012315Z AUTO 35005KT 10SM FEW038 BKN046 OVC100 A2943 RMK MADISHF
PARC,2017-04-01 23:20,-145.5794,68.1147,M,M,M,340.00,6.00,M,29.43,M,10.00,M,FEW,OVC,M,M,3600.00,4600.00,M,M,M,PARC 012320Z AUTO 34006KT 10SM FEW036 OVC046 A2943 RMK MADISHF
PARC,2017-04-01 23:25,-145.5794,68.1147,M,M,M,360.00,6.00,M,29.43,M,10.00,M,FEW,OVC,M,M,3600.00,4400.00,M,M,M,PARC 012325Z AUTO 36006KT 10SM FEW036 OVC044 A2943 RMK MADISHF
PARC,2017-04-01 23:30,-145.5794,68.1147,M,M,M,360.00,4.00,M,29.43,M,10.00,M,SCT,OVC,M,M,3800.00,4400.00,M,M,M,PARC 012330Z AUTO 36004KT 10SM SCT038 OVC044 A2943 RMK MADISHF
PARC,2017-04-01 23:35,-145.5794,68.1147,M,M,M,350.00,5.00,M,29.43,M,10.00,M,BKN,OVC,M,M,3600.00,4400.00,M,M,M,PARC 012335Z AUTO 35005KT 10SM BKN036 OVC044 A2943 RMK MADISHF
PARC,2017-04-01 23:40,-145.5794,68.1147,M,M,M,340.00,5.00,M,29.43,M,10.00,M,BKN,OVC,M,M,3600.00,4400.00,M,M,M,PARC 012340Z AUTO 34005KT 10SM BKN036 OVC044 A2943 RMK MADISHF
PARC,2017-04-01 23:45,-145.5794,68.1147,M,M,M,350.00,4.00,M,29.42,M,10.00,M,BKN,OVC,M,M,3399.00,4400.00,M,M,M,PARC 012345Z AUTO 35004KT 10SM BKN033 OVC044 A2942 RMK MADISHF
PARC,2017-04-01 23:50,-145.5794,68.1147,M,M,M,360.00,5.00,M,29.42,M,10.00,M,SCT,OVC,M,M,3399.00,4400.00,M,M,M,PARC 012350Z AUTO 36005KT 10SM SCT033 OVC044 A2942 RMK MADISHF
PARC,2017-04-01 23:56,-145.5794,68.1147,35.10,12.90,39.49,330.00,4.00,0.00,29.42,1001.80,10.00,M,SCT,OVC,M,M,3400.00,4600.00,M,M,M,PARC 012356Z AUTO 33004KT 10SM SCT034 OVC046 02/M11 A2942 RMK AO2 SLP018 60000 T00171106 10017 21083 51005 FZRANO
