#DEBUG: Format Typ    -> comma
#DEBUG: Time Period   -> 2017-04-01 00:00:00+00:00 2017-04-02 00:00:00+00:00
#DEBUG: Time Zone     -> Etc/UTC
#DEBUG: Data Contact   -> daryl herzmann akrherz@iastate.edu 515-294-5978
#DEBUG: Entries Found -> -1
station,valid,lon,lat,tmpf, dwpf, relh, drct, sknt, p01i, alti, mslp, vsby, gust, skyc1, skyc2, skyc3, skyc4, skyl1, skyl2, skyl3, skyl4, presentwx, metar
PDK,2017-04-01 00:00,-84.3020,33.8756,M,M,M,280.00,7.00,M,29.86,M,10.00,M,CLR,M,M,M,M,M,M,M,M,KPDK 010000Z AUTO 28007KT 10SM CLR A2986 RMK MADISHF
PDK,2017-04-01 00:05,-84.3020,33.8756,M,M,M,290.00,10.00,M,29.86,M,10.00,M,CLR,M,M,M,M,M,M,M,M,KPDK 010005Z AUTO 29010KT 10SM CLR A2986 RMK MADISHF
PDK,2017-04-01 00:10,-84.3020,33.8756,M,M,M,290.00,6.00,M,29.86,M,10.00,M,CLR,M,M,M,M,M,M,M,M,KPDK 010010Z AUTO 29006KT 10SM CLR A2986 RMK MADISHF
PDK,2017-04-01 00:15,-84.3020,33.8756,M,M,M,280.00,7.00,M,29.86,M,10.00,M,CLR,M,M,M,M,M,M,M,M,KPDK 010015Z AUTO 28007KT 10SM CLR A2986 RMK MADISHF
PDK,2017-04-01 00:20,-84.3020,33.8756,M,M,M,290.00,8.00,M,29.86,M,10.00,M,CLR,M,M,M,M,M,M,M,M,KPDK 010020Z AUTO 29008KT 10SM CLR A2986 RMK MADISHF
PDK,2017-04-01 00:25,-84.3020,33.8756,M,M,M,290.00,8.00,M,29.86,M,10.00,M,CLR,M,M,M,M,M,M,M,M,KPDK 010025Z AUTO 29008KT 10SM CLR A2986 RMK MADISHF
PDK,2017-04-01 00:30,-84.3020,33.8756,M,M,M,300.00,8.00,M,29.87,M,10.00,M,CLR,M,M,M,M,M,M,M,M,KPDK 010030Z AUTO 30008KT 10SM CLR A2987 RMK MADISHF
PDK,2017-04-01 00:35,-84.3020,33.8756,M,M,M,280.00,9.00,M,29.87,M,10.00,M,CLR,M,M,M,M,M,M,M,M,KPDK 010035Z AUTO 28009KT 10SM CLR A2987 RMK MADISHF
PDK,2017-04-01 00:40,-84.3020,33.8756,M,M,M,290.00,9.00,M,29.87,M,10.00,M,CLR,M,M,M,M,M,M,M,M,KPDK 010040Z AUTO 29009KT 10SM CLR A2987 RMK MADISHF
PDK,2017-04-01 00:45,-84.3020,33.8756,M,M,M,290.00,8.00,M,29.87,M,10.00,M,CLR,M,M,M,M,M,M,M,M,KPDK 010045Z AUTO 29008KT 10SM CLR A2987 RMK MADISHF
PDK,2017-04-01 00:50,-84.3020,33.8756,M,M,M,290.00,8.00,M,29.88,M,10.00,M,CLR,M,M,M,M,M,M,M,M,KPDK 010050Z AUTO 29008KT 10SM CLR A2988 RMK MADISHF
PDK,2017-04-01 00:53,-84.3020,33.8756,64.00,43.00,46.32,290.00,9.00,0.00,29.88,1011.20,10.00,M,CLR,M,M,M,M,M,M,M,M,KPDK 010053Z 29009KT 10SM CLR 18/06 A2988 RMK AO2 SLP112 T01780061
PDK,2017-04-01 00:55,-84.3020,33.8756,M,M,M,290.00,8.00,M,29.88,M,10.00,M,CLR,M,M,M,M,M,M,M,M,KPDK 010055Z AUTO 29008KT 10SM CLR A2988 RMK MADISHF
PDK,2017-04-01 01:00,-84.3020,33.8756,M,M,M,290.00,8.00,M,29.88,M,10.00,M,CLR,M,M,M,M,M,M,M,M,KPDK 010100Z AUTO 29008KT 10SM CLR A2988 RMK MADISHF
PDK,2017-04-01 01:05,-84.3020,33.8756,M,M,M,290.00,7.00,M,29.88,M,10.00,M,CLR,M,M,M,M,M,M,M,M,KPDK 010105Z AUTO 29007KT 10SM CLR A2988 RMK MADISHF
PDK,2017-04-01 01:10,-84.3020,33.8756,M,M,M,290.00,6.00,M,29.89,M,10.00,M,CLR,M,M,M,M,M,M,M,M,KPDK 010110Z AUTO 29006KT 10SM CLR A2989 RMK MADISHF
PDK,2017-04-01 01:15,-84.3020,33.8756,M,M,M,300.00,7.00,M,29.89,M,10.00,M,CLR,M,M,M,M,M,M,M,M,KPDK 010115Z AUTO 30007KT 10SM CLR A2989 RMK MADISHF
PDK,2017-04-01 01:20,-84.3020,33.8756,M,M,M,300.00,7.00,M,29.89,M,10.00,M,CLR,M,M,M,M,M,M,M,M,KPDK 010120Z AUTO 30007KT 10SM CLR A2989 RMK MADISHF
PDK,2017-04-01 01:25,-84.3020,33.8756,M,M,M,290.00,5.00,M,29.89,M,10.00,M,CLR,M,M,M,M,M,M,M,M,KPDK 010125Z AUTO 29005KT 10SM CLR A2989 RMK VRB05KT  MADISHF
PDK,2017-04-01 01:30,-84.3020,33.8756,M,M,M,300.00,6.00,M,29.90,M,10.00,M,CLR,M,M,M,M,M,M,M,M,KPDK 010130Z AUTO 30006KT 10SM CLR A2990 RMK MADISHF
PDK,2017-04-01 01:35,-84.3020,33.8756,M,M,M,300.00,6.00,M,29.90,M,10.00,M,CLR,M,M,M,M,M,M,M,M,KPDK 010135Z AUTO 30006KT 10SM CLR A2990 RMK MADISHF
PDK,2017-04-01 01:40,-84.3020,33.8756,M,M,M,290.00,5.00,M,29.90,M,10.00,M,CLR,M,M,M,M,M,M,M,M,KPDK 010140Z AUTO 29005KT 10SM CLR A2990 RMK MADISHF
PDK,2017-04-01 01:45,-84.3020,33.8756,M,M,M,290.00,4.00,M,29.90,M,10.00,M,CLR,M,M,M,M,M,M,M,M,KPDK 010145Z AUTO 29004KT 10SM CLR A2990 RMK MADISHF
PDK,2017-04-01 01:50,-84.3020,33.8756,M,M,M,290.00,3.00,M,29.90,M,10.00,M,CLR,M,M,M,M,M,M,M,M,KPDK 010150Z AUTO 29003KT 10SM CLR A2990 RMK MADISHF
PDK,2017-04-01 01:53,-84.3020,33.8756,62.10,44.10,51.64,290.00,5.00,0.00,29.91,1012.10,10.00,M,CLR,M,M,M,M,M,M,M,M,KPDK 010153Z 29005KT 10SM CLR 17/07 A2991 RMK AO2 SLP121 T01670067
PDK,2017-04-01 01:55,-84.3020,33.8756,M,M,M,290.00,4.00,M,29.91,M,10.00,M,CLR,M,M,M,M,M,M,M,M,KPDK 010155Z AUTO 29004KT 10SM CLR A2991 RMK MADISHF
PDK,2017-04-01 02:00,-84.3020,33.8756,M,M,M,300.00,4.00,M,29.91,M,10.00,M,CLR,M,M,M,M,M,M,M,M,KPDK 010200Z AUTO 30004KT 10SM CLR A2991 RMK MADISHF
PDK,2017-04-01 02:05,-84.3020,33.8756,M,M,M,290.00,3.00,M,29.91,M,10.00,M,CLR,M,M,M,M,M,M,M,M,KPDK 010205Z AUTO 29003KT 10SM CLR A2991 RMK MADISHF
PDK,2017-04-01 02:10,-84.3020,33.8756,M,M,M,280.00,5.00,M,29.91,M,10.00,M,CLR,M,M,M,M,M,M,M,M,KPDK 010210Z AUTO 28005KT 10SM CLR A2991 RMK MADISHF
PDK,2017-04-01 02:15,-84.3020,33.8756,M,M,M,280.00,4.00,M,29.91,M,10.00,M,CLR,M,M,M,M,M,M,M,M,KPDK 010215Z AUTO 28004KT 10SM CLR A2991 RMK MADISHF
PDK,2017-04-01 02:20,-84.3020,33.8756,M,M,M,280.00,4.00,M,29.91,M,10.00,M,CLR,M,M,M,M,M,M,M,M,KPDK 010220Z AUTO 28004KT 10SM CLR A2991 RMK MADISHF
PDK,2017-04-01 02:25,-84.3020,33.8756,M,M,M,270.00,4.00,M,29.91,M,10.00,M,CLR,M,M,M,M,M,M,M,M,KPDK 010225Z AUTO 27004KT 10SM CLR A2991 RMK MADISHF
PDK,2017-04-01 02:30,-84.3020,33.8756,M,M,M,290.00,6.00,M,29.91,M,10.00,M,CLR,M,M,M,M,M,M,M,M,KPDK 010230Z AUTO 29006KT 10SM CLR A2991 RMK MADISHF
PDK,2017-04-01 02:35,-84.3020,33.8756,M,M,M,280.00,5.00,M,29.92,M,10.00,M,CLR,M,M,M,M,M,M,M,M,KPDK 010235Z AUTO 28005KT 10SM CLR A2992 RMK MADISHF
PDK,2017-04-01 02:40,-84.3020,33.8756,M,M,M,290.00,6.00,M,29.92,M,10.00,M,CLR,M,M,M,M,M,M,M,M,KPDK 010240Z AUTO 29006KT 10SM CLR A2992 RMK MADISHF
PDK,2017-04-01 02:45,-84.3020,33.8756,M,M,M,290.00,5.00,M,29.92,M,10.00,M,CLR,M,M,M,M,M,M,M,M,KPDK 010245Z AUTO 29005KT 10SM CLR A2992 RMK MADISHF
PDK,2017-04-01 02:50,-84.3020,33.8756,M,M,M,290.00,6.00,M,29.92,M,10.00,M,CLR,M,M,M,M,M,M,M,M,KPDK 010250Z AUTO 29006KT 10SM CLR A2992 RMK MADISHF
PDK,2017-04-01 02:53,-84.3020,33.8756,60.10,44.10,55.44,290.00,6.00,0.00,29.92,1012.60,10.00,M,CLR,M,M,M,M,M,M,M,M,KPDK 010253Z 29006KT 10SM CLR 16/07 A2992 RMK AO2 SLP126 T01560067 51022
PDK,2017-04-01 02:55,-84.3020,33.8756,M,M,M,300.00,7.00,M,29.92,M,10.00,M,CLR,M,M,M,M,M,M,M,M,KPDK 010255Z AUTO 30007KT 10SM CLR A2992 RMK MADISHF
PDK,2017-04-01 03:00,-84.3020,33.8756,M,M,M,300.00,6.00,M,29.92,M,10.00,M,CLR,M,M,M,M,M,M,M,M,KPDK 010300Z AUTO 30006KT 10SM CLR A2992 RMK MADISHF
PDK,2017-04-01 03:05,-84.3020,33.8756,M,M,M,300.00,5.00,M,29.92,M,10.00,M,CLR,M,M,M,M,M,M,M,M,KPDK 010305Z AUTO 30005KT 10SM CLR A2992 RMK MADISHF
PDK,2017-04-01 03:10,-84.3020,33.8756,M,M,M,310.00,7.00,M,29.92,M,10.00,M,CLR,M,M,M,M,M,M,M,M,KPDK 010310Z AUTO 31007KT 10SM CLR A2992 RMK MADISHF
PDK,2017-04-01 03:15,-84.3020,33.8756,M,M,M,310.00,6.00,M,29.92,M,10.00,M,CLR,M,M,M,M,M,M,M,M,KPDK 010315Z AUTO 31006KT 10SM CLR A2992 RMK MADISHF
PDK,2017-04-01 03:20,-84.3020,33.8756,M,M,M,310.00,8.00,M,29.92,M,10.00,M,CLR,M,M,M,M,M,M,M,M,KPDK 010320Z AUTO 31008KT 10SM CLR A2992 RMK MADISHF
PDK,2017-04-01 03:25,-84.3020,33.8756,M,M,M,310.00,7.00,M,29.92,M,10.00,M,CLR,M,M,M,M,M,M,M,M,KPDK 010325Z AUTO 31007KT 10SM CLR A2992 RMK MADISHF
PDK,2017-04-01 03:30,-84.3020,33.8756,M,M,M,320.00,7.00,M,29.93,M,10.00,M,CLR,M,M,M,M,M,M,M,M,KPDK 010330Z AUTO 32007KT 10SM CLR A2993 RMK MADISHF
PDK,2017-04-01 03:35,-84.3020,33.8756,M,M,M,310.00,6.00,M,29.93,M,10.00,M,CLR,M,M,M,M,M,M,M,M,KPDK 010335Z AUTO 31006KT 10SM CLR A2993 RMK MADISHF
PDK,2017-04-01 03:40,-84.3020,33.8756,M,M,M,310.00,6.00,M,29.93,M,10.00,M,CLR,M,M,M,M,M,M,M,M,KPDK 010340Z AUTO 31006KT 10SM CLR A2993 RMK MADISHF
PDK,2017-04-01 03:45,-84.3020,33.8756,M,M,M,310.00,7.00,M,29.93,M,10.00,M,CLR,M,M,M,M,M,M,M,M,KPDK 010345Z AUTO 31007KT 10SM CLR A2993 RMK MADISHF
PDK,2017-04-01 03:50,-84.3020,33.8756,M,M,M,310.00,6.00,M,29.93,M,10.00,M,CLR,M,M,M,M,M,M,M,M,KPDK 010350Z AUTO 31006KT 10SM CLR A2993 RMK MADISHF
PDK,2017-04-01 03:53,-84.3020,33.8756,60.10,44.10,55.44,310.00,7.00,0.00,29.93,1012.90,10.00,M,CLR,M,M,M,M,M,M,M,M,KPDK 010353Z 31007KT 10SM CLR 16/07 A2993 RMK AO2 SLP129 T01560067
PDK,2017-04-01 03:55,-84.3020,33.8756,M,M,M,310.00,7.00,M,29.93,M,10.00,M,CLR,M,M,M,M,M,M,M,M,KPDK 010355Z AUTO 31007KT 10SM CLR A2993 RMK MADISHF
PDK,2017-04-01 04:00,-84.3020,33.8756,M,M,M,310.00,5.00,M,29.93,M,10.00,M,CLR,M,M,M,M,M,M,M,M,KPDK 010400Z AUTO 31005KT 10SM CLR A2993 RMK MADISHF
PDK,2017-04-01 04:05,-84.3020,33.8756,M,M,M,300.00,5.00,M,29.93,M,10.00,M,CLR,M,M,M,M,M,M,M,M,KPDK 010405Z AUTO 30005KT 10SM CLR A2993 RMK MADISHF
PDK,2017-04-01 04:10,-84.3020,33.8756,M,M,M,300.00,6.00,M,29.93,M,10.00,M,CLR,M,M,M,M,M,M,M,M,KPDK 010410Z AUTO 30006KT 10SM CLR A2993 RMK MADISHF
PDK,2017-04-01 04:15,-84.3020,33.8756,M,M,M,300.00,5.00,M,29.93,M,10.00,M,CLR,M,M,M,M,M,M,M,M,KPDK 010415Z AUTO 30005KT 10SM CLR A2993 RMK MADISHF
PDK,2017-04-01 04:20,-84.3020,33.8756,M,M,M,300.00,5.00,M,29.94,M,10.00,M,CLR,M,M,M,M,M,M,M,M,KPDK 010420Z AUTO 30005KT 10SM CLR A2994 RMK MADISHF
PDK,2017-04-01 04:25,-84.3020,33.8756,M,M,M,290.00,5.00,M,29.94,M,10.00,M,CLR,M,M,M,M,M,M,M,M,KPDK 010425Z AUTO 29005KT 10SM CLR A2994 RMK MADISHF
PDK,2017-04-01 04:30,-84.3020,33.8756,M,M,M,290.00,6.00,M,29.94,M,10.00,M,CLR,M,M,M,M,M,M,M,M,KPDK 010430Z AUTO 29006KT 10SM CLR A2994 RMK MADISHF
PDK,2017-04-01 04:35,-84.3020,33.8756,M,M,M,290.00,5.00,M,29.94,M,10.00,M,CLR,M,M,M,M,M,M,M,M,KPDK 010435Z AUTO 29005KT 10SM CLR A2994 RMK MADISHF
PDK,2017-04-01 04:40,-84.3020,33.8756,M,M,M,280.00,6.00,M,29.94,M,10.00,M,CLR,M,M,M,M,M,M,M,M,KPDK 010440Z AUTO 28006KT 10SM CLR A2994 RMK MADISHF
PDK,2017-04-01 04:45,-84.3020,33.8756,M,M,M,290.00,6.00,M,29.94,M,10.00,M,CLR,M,M,M,M,M,M,M,M,KPDK 010445Z AUTO 29006KT 10SM CLR A2994 RMK MADISHF
PDK,2017-04-01 04:50,-84.3020,33.8756,M,M,M,290.00,4.00,M,29.94,M,10.00,M,CLR,M,M,M,M,M,M,M,M,KPDK 010450Z AUTO 29004KT 10SM CLR A2994 RMK MADISHF
PDK,2017-04-01 04:53,-84.3020,33.8756,57.90,45.00,62.07,280.00,4.00,0.00,29.94,1013.30,10.00,M,CLR,M,M,M,M,M,M,M,M,KPDK 010453Z 28004KT 10SM CLR 14/07 A2994 RMK AO2 SLP133 T01440072 402170144
PDK,2017-04-01 04:55,-84.3020,33.8756,M,M,M,280.00,4.00,M,29.94,M,10.00,M,CLR,M,M,M,M,M,M,M,M,KPDK 010455Z AUTO 28004KT 10SM CLR A2994 RMK MADISHF
PDK,2017-04-01 05:00,-84.3020,33.8756,M,M,M,280.00,4.00,M,29.95,M,10.00,M,CLR,M,M,M,M,M,M,M,M,KPDK 010500Z AUTO 28004KT 10SM CLR A2995 RMK MADISHF
PDK,2017-04-01 05:05,-84.3020,33.8756,M,M,M,270.00,4.00,M,29.94,M,10.00,M,CLR,M,M,M,M,M,M,M,M,KPDK 010505Z AUTO 27004KT 10SM CLR A2994 RMK MADISHF
PDK,2017-04-01 05:10,-84.3020,33.8756,M,M,M,280.00,5.00,M,29.94,M,10.00,M,CLR,M,M,M,M,M,M,M,M,KPDK 010510Z AUTO 28005KT 10SM CLR A2994 RMK MADISHF
PDK,2017-04-01 05:15,-84.3020,33.8756,M,M,M,290.00,5.00,M,29.95,M,10.00,M,CLR,M,M,M,M,M,M,M,M,KPDK 010515Z AUTO 29005KT 10SM CLR A2995 RMK MADISHF
PDK,2017-04-01 05:20,-84.3020,33.8756,M,M,M,280.00,5.00,M,29.95,M,10.00,M,CLR,M,M,M,M,M,M,M,M,KPDK 010520Z AUTO 28005KT 10SM CLR A2995 RMK MADISHF
PDK,2017-04-01 05:25,-84.3020,33.8756,M,M,M,290.00,5.00,M,29.95,M,10.00,M,CLR,M,M,M,M,M,M,M,M,KPDK 010525Z AUTO 29005KT 10SM CLR A2995 RMK MADISHF
PDK,2017-04-01 05:30,-84.3020,33.8756,M,M,M,280.00,4.00,M,29.95,M,10.00,M,CLR,M,M,M,M,M,M,M,M,KPDK 010530Z AUTO 28004KT 10SM CLR A2995 RMK MADISHF
PDK,2017-04-01 05:35,-84.3020,33.8756,M,M,M,290.00,5.00,M,29.95,M,10.00,M,CLR,M,M,M,M,M,M,M,M,KPDK 010535Z AUTO 29005KT 10SM CLR A2995 RMK MADISHF
PDK,2017-04-01 05:40,-84.3020,33.8756,M,M,M,290.00,4.00,M,29.95,M,10.00,M,CLR,M,M,M,M,M,M,M,M,KPDK 010540Z AUTO 29004KT 10SM CLR A2995 RMK MADISHF
PDK,2017-04-01 05:45,-84.3020,33.8756,M,M,M,290.00,4.00,M,29.95,M,10.00,M,CLR,M,M,M,M,M,M,M,M,KPDK 010545Z AUTO 29004KT 10SM CLR A2995 RMK MADISHF
PDK,2017-04-01 05:50,-84.3020,33.8756,M,M,M,280.00,4.00,M,29.95,M,10.00,M,CLR,M,M,M,M,M,M,M,M,KPDK 010550Z AUTO 28004KT 10SM CLR A2995 RMK MADISHF
PDK,2017-04-01 05:53,-84.3020,33.8756,57.00,45.00,64.12,280.00,4.00,0.00,29.95,1013.50,10.00,M,CLR,M,M,M,M,M,M,M,M,KPDK 010553Z 28004KT 10SM CLR 14/07 A2995 RMK AO2 SLP135 T01390072 10183 20139 51009
PDK,2017-04-01 05:55,-84.3020,33.8756,M,M,M,280.00,4.00,M,29.95,M,10.00,M,CLR,M,M,M,M,M,M,M,M,KPDK 010555Z AUTO 28004KT 10SM CLR A2995 RMK MADISHF
PDK,2017-04-01 06:00,-84.3020,33.8756,M,M,M,280.00,4.00,M,29.95,M,10.00,M,CLR,M,M,M,M,M,M,M,M,KPDK 010600Z AUTO 28004KT 10SM CLR A2995 RMK MADISHF
PDK,2017-04-01 06:05,-84.3020,33.8756,M,M,M,290.00,4.00,M,29.95,M,10.00,M,CLR,M,M,M,M,M,M,M,M,KPDK 010605Z AUTO 29004KT 10SM CLR A2995 RMK MADISHF
PDK,2017-04-01 06:10,-84.3020,33.8756,M,M,M,280.00,4.00,M,29.95,M,10.00,M,CLR,M,M,M,M,M,M,M,M,KPDK 010610Z AUTO 28004KT 10SM CLR A2995 RMK MADISHF
PDK,2017-04-01 06:15,-84.3020,33.8756,M,M,M,290.00,4.00,M,29.95,M,10.00,M,CLR,M,M,M,M,M,M,M,M,KPDK 010615Z AUTO 29004KT 10SM CLR A2995 RMK MADISHF
PDK,2017-04-01 06:20,-84.3020,33.8756,M,M,M,290.00,4.00,M,29.95,M,10.00,M,CLR,M,M,M,M,M,M,M,M,KPDK 010620Z AUTO 29004KT 10SM CLR A2995 RMK MADISHF
PDK,2017-04-01 06:25,-84.3020,33.8756,M,M,M,290.00,3.00,M,29.95,M,10.00,M,CLR,M,M,M,M,M,M,M,M,KPDK 010625Z AUTO 29003KT 10SM CLR A2995 RMK MADISHF
PDK,2017-04-01 06:30,-84.3020,33.8756,M,M,M,310.00,5.00,M,29.95,M,10.00,M,CLR,M,M,M,M,M,M,M,M,KPDK 010630Z AUTO 31005KT 10SM CLR A2995 RMK MADISHF
PDK,2017-04-01 06:35,-84.3020,33.8756,M,M,M,310.00,5.00,M,29.95,M,10.00,M,CLR,M,M,M,M,M,M,M,M,KPDK 010635Z AUTO 31005KT 10SM CLR A2995 RMK MADISHF
PDK,2017-04-01 06:40,-84.3020,33.8756,M,M,M,310.00,8.00,M,29.96,M,10.00,M,CLR,M,M,M,M,M,M,M,M,KPDK 010640Z AUTO 31008KT 10SM CLR A2996 RMK MADISHF
PDK,2017-04-01 06:45,-84.3020,33.8756,M,M,M,300.00,8.00,M,29.96,M,10.00,M,CLR,M,M,M,M,M,M,M,M,KPDK 010645Z AUTO 30008KT 10SM CLR A2996 RMK MADISHF
PDK,2017-04-01 06:50,-84.3020,33.8756,M,M,M,310.00,8.00,M,29.96,M,10.00,M,CLR,M,M,M,M,M,M,M,M,KPDK 010650Z AUTO 31008KT 10SM CLR A2996 RMK MADISHF
PDK,2017-04-01 06:53,-84.3020,33.8756,57.00,45.00,64.12,310.00,8.00,0.00,29.96,1013.70,10.00,M,CLR,M,M,M,M,M,M,M,M,KPDK 010653Z 31008KT 10SM CLR 14/07 A2996 RMK AO2 SLP137 T01390072
PDK,2017-04-01 06:55,-84.3020,33.8756,M,M,M,310.00,7.00,M,29.95,M,10.00,M,CLR,M,M,M,M,M,M,M,M,KPDK 010655Z AUTO 31007KT 10SM CLR A2995 RMK MADISHF
PDK,2017-04-01 07:00,-84.3020,33.8756,M,M,M,320.00,9.00,M,29.96,M,10.00,M,CLR,M,M,M,M,M,M,M,M,KPDK 010700Z AUTO 32009KT 10SM CLR A2996 RMK MADISHF
PDK,2017-04-01 07:05,-84.3020,33.8756,M,M,M,320.00,8.00,M,29.96,M,10.00,M,CLR,M,M,M,M,M,M,M,M,KPDK 010705Z AUTO 32008KT 10SM CLR A2996 RMK MADISHF
PDK,2017-04-01 07:10,-84.3020,33.8756,M,M,M,310.00,7.00,M,29.96,M,10.00,M,CLR,M,M,M,M,M,M,M,M,KPDK 010710Z AUTO 31007KT 10SM CLR A2996 RMK MADISHF
PDK,2017-04-01 07:15,-84.3020,33.8756,M,M,M,310.00,6.00,M,29.96,M,10.00,M,CLR,M,M,M,M,M,M,M,M,KPDK 010715Z AUTO 31006KT 10SM CLR A2996 RMK MADISHF
PDK,2017-04-01 07:20,-84.3020,33.8756,M,M,M,310.00,7.00,M,29.96,M,10.00,M,CLR,M,M,M,M,M,M,M,M,KPDK 010720Z AUTO 31007KT 10SM CLR A2996 RMK MADISHF
PDK,2017-04-01 07:25,-84.3020,33.8756,M,M,M,310.00,8.00,M,29.96,M,10.00,M,CLR,M,M,M,M,M,M,M,M,KPDK 010725Z AUTO 31008KT 10SM CLR A2996 RMK MADISHF
PDK,2017-04-01 07:30,-84.3020,33.8756,M,M,M,320.00,7.00,M,29.96,M,10.00,M,CLR,M,M,M,M,M,M,M,M,KPDK 010730Z AUTO 32007KT 10SM CLR A2996 RMK MADISHF
PDK,2017-04-01 07:35,-84.3020,33.8756,M,M,M,310.00,7.00,M,29.96,M,10.00,M,CLR,M,M,M,M,M,M,M,M,KPDK 010735Z AUTO 31007KT 10SM CLR A2996 RMK MADISHF
PDK,2017-04-01 07:40,-84.3020,33.8756,M,M,M,320.00,8.00,M,29.96,M,10.00,M,CLR,M,M,M,M,M,M,M,M,KPDK 010740Z AUTO 32008KT 10SM CLR A2996 RMK MADISHF
PDK,2017-04-01 07:45,-84.3020,33.8756,M,M,M,320.00,7.00,M,29.96,M,10.00,M,CLR,M,M,M,M,M,M,M,M,KPDK 010745Z AUTO 32007KT 10SM CLR A2996 RMK MADISHF
PDK,2017-04-01 07:50,-84.3020,33.8756,M,M,M,320.00,7.00,M,29.96,M,10.00,M,CLR,M,M,M,M,M,M,M,M,KPDK 010750Z AUTO 32007KT 10SM CLR A2996 RMK MADISHF
PDK,2017-04-01 07:53,-84.3020,33.8756,55.90,46.00,69.30,320.00,6.00,0.00,29.96,1013.80,10.00,M,CLR,M,M,M,M,M,M,M,M,KPDK 010753Z 32006KT 10SM CLR 13/08 A2996 RMK AO2 SLP138 T01330078
PDK,2017-04-01 07:55,-84.3020,33.8756,M,M,M,310.00,7.00,M,29.96,M,10.00,M,CLR,M,M,M,M,M,M,M,M,KPDK 010755Z AUTO 31007KT 10SM CLR A2996 RMK MADISHF
PDK,2017-04-01 08:00,-84.3020,33.8756,M,M,M,320.00,6.00,M,29.96,M,10.00,M,CLR,M,M,M,M,M,M,M,M,KPDK 010800Z AUTO 32006KT 10SM CLR A2996 RMK MADISHF
PDK,2017-04-01 08:05,-84.3020,33.8756,M,M,M,320.00,7.00,M,29.96,M,10.00,M,CLR,M,M,M,M,M,M,M,M,KPDK 010805Z AUTO 32007KT 10SM CLR A2996 RMK MADISHF
PDK,2017-04-01 08:10,-84.3020,33.8756,M,M,M,320.00,7.00,M,29.96,M,10.00,M,CLR,M,M,M,M,M,M,M,M,KPDK 010810Z AUTO 32007KT 10SM CLR A2996 RMK MADISHF
PDK,2017-04-01 08:15,-84.3020,33.8756,M,M,M,310.00,6.00,M,29.96,M,10.00,M,CLR,M,M,M,M,M,M,M,M,KPDK 010815Z AUTO 31006KT 10SM CLR A2996 RMK MADISHF
PDK,2017-04-01 08:20,-84.3020,33.8756,M,M,M,310.00,6.00,M,29.96,M,10.00,M,CLR,M,M,M,M,M,M,M,M,KPDK 010820Z AUTO 31006KT 10SM CLR A2996 RMK MADISHF
PDK,2017-04-01 08:25,-84.3020,33.8756,M,M,M,310.00,6.00,M,29.96,M,10.00,M,CLR,M,M,M,M,M,M,M,M,KPDK 010825Z AUTO 31006KT 10SM CLR A2996 RMK MADISHF
PDK,2017-04-01 08:30,-84.3020,33.8756,M,M,M,310.00,7.00,M,29.96,M,10.00,M,CLR,M,M,M,M,M,M,M,M,KPDK 010830Z AUTO 31007KT 10SM CLR A2996 RMK MADISHF
PDK,2017-04-01 08:35,-84.3020,33.8756,M,M,M,310.00,6.00,M,29.97,M,10.00,M,CLR,M,M,M,M,M,M,M,M,KPDK 010835Z AUTO 31006KT 10SM CLR A2997 RMK MADISHF
PDK,2017-04-01 08:40,-84.3020,33.8756,M,M,M,300.00,7.00,M,29.97,M,10.00,M,CLR,M,M,M,M,M,M,M,M,KPDK 010840Z AUTO 30007KT 10SM CLR A2997 RMK MADISHF
PDK,2017-04-01 08:45,-84.3020,33.8756,M,M,M,310.00,7.00,M,29.97,M,10.00,M,CLR,M,M,M,M,M,M,M,M,KPDK 010845Z AUTO 31007KT 10SM CLR A2997 RMK MADISHF
PDK,2017-04-01 08:50,-84.3020,33.8756,M,M,M,310.00,7.00,M,29.97,M,10.00,M,CLR,M,M,M,M,M,M,M,M,KPDK 010850Z AUTO 31007KT 10SM CLR A2997 RMK MADISHF
PDK,2017-04-01 08:53,-84.3020,33.8756,55.00,45.00,68.93,310.00,6.00,0.00,29.97,1014.30,10.00,M,CLR,M,M,M,M,M,M,M,M,KPDK 010853Z 31006KT 10SM CLR 13/07 A2997 RMK AO2 SLP143 T01280072 53008
PDK,2017-04-01 08:55,-84.3020,33.8756,M,M,M,300.00,5.00,M,29.97,M,10.00,M,CLR,M,M,M,M,M,M,M,M,KPDK 010855Z AUTO 30005KT 10SM CLR A2997 RMK MADISHF
PDK,2017-04-01 09:00,-84.3020,33.8756,M,M,M,310.00,6.00,M,29.97,M,10.00,M,CLR,M,M,M,M,M,M,M,M,KPDK 010900Z AUTO 31006KT 10SM CLR A2997 RMK MADISHF
PDK,2017-04-01 09:05,-84.3020,33.8756,M,M,M,300.00,7.00,M,29.97,M,10.00,M,CLR,M,M,M,M,M,M,M,M,KPDK 010905Z AUTO 30007KT 10SM CLR A2997 RMK MADISHF
PDK,2017-04-01 09:10,-84.3020,33.8756,M,M,M,290.00,6.00,M,29.98,M,10.00,M,CLR,M,M,M,M,M,M,M,M,KPDK 010910Z AUTO 29006KT 10SM CLR A2998 RMK MADISHF
PDK,2017-04-01 09:15,-84.3020,33.8756,M,M,M,290.00,6.00,M,29.98,M,10.00,M,CLR,M,M,M,M,M,M,M,M,KPDK 010915Z AUTO 29006KT 10SM CLR A2998 RMK MADISHF
PDK,2017-04-01 09:20,-84.3020,33.8756,M,M,M,300.00,6.00,M,29.98,M,10.00,M,CLR,M,M,M,M,M,M,M,M,KPDK 010920Z AUTO 30006KT 10SM CLR A2998 RMK MADISHF
PDK,2017-04-01 09:25,-84.3020,33.8756,M,M,M,290.00,5.00,M,29.98,M,10.00,M,CLR,M,M,M,M,M,M,M,M,KPDK 010925Z AUTO 29005KT 10SM CLR A2998 RMK MADISHF
PDK,2017-04-01 09:30,-84.3020,33.8756,M,M,M,300.00,5.00,M,29.98,M,10.00,M,CLR,M,M,M,M,M,M,M,M,KPDK 010930Z AUTO 30005KT 10SM CLR A2998 RMK MADISHF
PDK,2017-04-01 09:35,-84.3020,33.8756,M,M,M,300.00,6.00,M,29.98,M,10.00,M,CLR,M,M,M,M,M,M,M,M,KPDK 010935Z AUTO 30006KT 10SM CLR A2998 RMK MADISHF
PDK,2017-04-01 09:40,-84.3020,33.8756,M,M,M,300.00,6.00,M,29.98,M,10.00,M,CLR,M,M,M,M,M,M,M,M,KPDK 010940Z AUTO 30006KT 10SM CLR A2998 RMK MADISHF
PDK,2017-04-01 09:45,-84.3020,33.8756,M,M,M,300.00,6.00,M,29.98,M,10.00,M,CLR,M,M,M,M,M,M,M,M,KPDK 010945Z AUTO 30006KT 10SM CLR A2998 RMK MADISHF
PDK,2017-04-01 09:50,-84.3020,33.8756,M,M,M,310.00,6.00,M,29.98,M,10.00,M,CLR,M,M,M,M,M,M,M,M,KPDK 010950Z AUTO 31006KT 10SM CLR A2998 RMK MADISHF
PDK,2017-04-01 09:53,-84.3020,33.8756,53.10,45.00,73.89,310.00,6.00,0.00,29.98,1014.70,10.00,M,CLR,M,M,M,M,M,M,M,M,KPDK 010953Z 31006KT 10SM CLR 12/07 A2998 RMK AO2 SLP147 T01170072
PDK,2017-04-01 09:55,-84.3020,33.8756,M,M,M,310.00,7.00,M,29.98,M,10.00,M,CLR,M,M,M,M,M,M,M,M,KPDK 010955Z AUTO 31007KT 10SM CLR A2998 RMK MADISHF
PDK,2017-04-01 10:00,-84.3020,33.8756,M,M,M,310.00,7.00,M,29.98,M,10.00,M,CLR,M,M,M,M,M,M,M,M,KPDK 011000Z AUTO 31007KT 10SM CLR A2998 RMK MADISHF
PDK,2017-04-01 10:05,-84.3020,33.8756,M,M,M,310.00,7.00,M,29.99,M,10.00,M,CLR,M,M,M,M,M,M,M,M,KPDK 011005Z AUTO 31007KT 10SM CLR A2999 RMK MADISHF
PDK,2017-04-01 10:10,-84.3020,33.8756,M,M,M,300.00,6.00,M,29.99,M,10.00,M,CLR,M,M,M,M,M,M,M,M,KPDK 011010Z AUTO 30006KT 10SM CLR A2999 RMK MADISHF
PDK,2017-04-01 10:15,-84.3020,33.8756,M,M,M,300.00,6.00,M,29.99,M,10.00,M,CLR,M,M,M,M,M,M,M,M,KPDK 011015Z AUTO 30006KT 10SM CLR A2999 RMK MADISHF
PDK,2017-04-01 10:20,-84.3020,33.8756,M,M,M,300.00,7.00,M,29.99,M,10.00,M,CLR,M,M,M,M,M,M,M,M,KPDK 011020Z AUTO 30007KT 10SM CLR A2999 RMK MADISHF
PDK,2017-04-01 10:25,-84.3020,33.8756,M,M,M,300.00,6.00,M,30.00,M,10.00,M,CLR,M,M,M,M,M,M,M,M,KPDK 011025Z AUTO 30006KT 10SM CLR A3000 RMK MADISHF
PDK,2017-04-01 10:30,-84.3020,33.8756,M,M,M,290.00,6.00,M,30.00,M,10.00,M,CLR,M,M,M,M,M,M,M,M,KPDK 011030Z AUTO 29006KT 10SM CLR A3000 RMK MADISHF
PDK,2017-04-01 10:35,-84.3020,33.8756,M,M,M,290.00,6.00,M,30.00,M,10.00,M,CLR,M,M,M,M,M,M,M,M,KPDK 011035Z AUTO 29006KT 10SM CLR A3000 RMK MADISHF
PDK,2017-04-01 10:40,-84.3020,33.8756,M,M,M,280.00,5.00,M,30.01,M,10.00,M,CLR,M,M,M,M,M,M,M,M,KPDK 011040Z AUTO 28005KT 10SM CLR A3001 RMK MADISHF
PDK,2017-04-01 10:45,-84.3020,33.8756,M,M,M,280.00,5.00,M,30.01,M,10.00,M,CLR,M,M,M,M,M,M,M,M,KPDK 011045Z AUTO 28005KT 10SM CLR A3001 RMK MADISHF
PDK,2017-04-01 10:50,-84.3020,33.8756,M,M,M,280.00,5.00,M,30.01,M,10.00,M,CLR,M,M,M,M,M,M,M,M,KPDK 011050Z AUTO 28005KT 10SM CLR A3001 RMK MADISHF
PDK,2017-04-01 10:53,-84.3020,33.8756,52.00,45.00,76.94,290.00,6.00,0.00,30.01,1015.70,10.00,M,CLR,M,M,M,M,M,M,M,M,KPDK 011053Z 29006KT 10SM CLR 11/07 A3001 RMK AO2 SLP157 T01110072
PDK,2017-04-01 10:55,-84.3020,33.8756,M,M,M,290.00,5.00,M,30.01,M,10.00,M,CLR,M,M,M,M,M,M,M,M,KPDK 011055Z AUTO 29005KT 10SM CLR A3001 RMK MADISHF
PDK,2017-04-01 11:00,-84.3020,33.8756,M,M,M,290.00,6.00,M,30.01,M,10.00,M,CLR,M,M,M,M,M,M,M,M,KPDK 011100Z AUTO 29006KT 10SM CLR A3001 RMK MADISHF
PDK,2017-04-01 11:05,-84.3020,33.8756,M,M,M,290.00,6.00,M,30.01,M,10.00,M,CLR,M,M,M,M,M,M,M,M,KPDK 011105Z AUTO 29006KT 10SM CLR A3001 RMK MADISHF
PDK,2017-04-01 11:10,-84.3020,33.8756,M,M,M,290.00,5.00,M,30.02,M,10.00,M,CLR,M,M,M,M,M,M,M,M,KPDK 011110Z AUTO 29005KT 10SM CLR A3002 RMK MADISHF
PDK,2017-04-01 11:15,-84.3020,33.8756,M,M,M,290.00,5.00,M,30.02,M,10.00,M,CLR,M,M,M,M,M,M,M,M,KPDK 011115Z AUTO 29005KT 10SM CLR A3002 RMK MADISHF
PDK,2017-04-01 11:20,-84.3020,33.8756,M,M,M,280.00,6.00,M,30.02,M,10.00,M,CLR,M,M,M,M,M,M,M,M,KPDK 011120Z AUTO 28006KT 10SM CLR A3002 RMK MADISHF
PDK,2017-04-01 11:25,-84.3020,33.8756,M,M,M,280.00,6.00,M,30.02,M,10.00,M,CLR,M,M,M,M,M,M,M,M,KPDK 011125Z AUTO 28006KT 10SM CLR A3002 RMK MADISHF
PDK,2017-04-01 11:30,-84.3020,33.8756,M,M,M,290.00,6.00,M,30.03,M,10.00,M,CLR,M,M,M,M,M,M,M,M,KPDK 011130Z AUTO 29006KT 10SM CLR A3003 RMK MADISHF
PDK,2017-04-01 11:35,-84.3020,33.8756,M,M,M,280.00,5.00,M,30.03,M,10.00,M,CLR,M,M,M,M,M,M,M,M,KPDK 011135Z AUTO 28005KT 10SM CLR A3003 RMK MADISHF
PDK,2017-04-01 11:40,-84.3020,33.8756,M,M,M,290.00,4.00,M,30.03,M,10.00,M,CLR,M,M,M,M,M,M,M,M,KPDK 011140Z AUTO 29004KT 10SM CLR A3003 RMK MADISHF
PDK,2017-04-01 11:45,-84.3020,33.8756,M,M,M,290.00,5.00,M,30.03,M,10.00,M,CLR,M,M,M,M,M,M,M,M,KPDK 011145Z AUTO 29005KT 10SM CLR A3003 RMK MADISHF
PDK,2017-04-01 11:50,-84.3020,33.8756,M,M,M,290.00,5.00,M,30.03,M,10.00,M,CLR,M,M,M,M,M,M,M,M,KPDK 011150Z AUTO 29005KT 10SM CLR A3003 RMK MADISHF
PDK,2017-04-01 11:53,-84.3020,33.8756,52.00,45.00,76.94,290.00,5.00,0.00,30.04,1016.70,10.00,M,CLR,M,M,M,M,M,M,M,M,KPDK 011153Z 29005KT 10SM CLR 11/07 A3004 RMK AO2 SLP167 T01110072 10139 20106 53021
PDK,2017-04-01 11:55,-84.3020,33.8756,M,M,M,290.00,5.00,M,30.04,M,10.00,M,CLR,M,M,M,M,M,M,M,M,KPDK 011155Z AUTO 29005KT 10SM CLR A3004 RMK MADISHF
PDK,2017-04-01 12:00,-84.3020,33.8756,M,M,M,290.00,6.00,M,30.04,M,10.00,M,CLR,M,M,M,M,M,M,M,M,KPDK 011200Z AUTO 29006KT 10SM CLR A3004 RMK MADISHF
PDK,2017-04-01 12:05,-84.3020,33.8756,M,M,M,290.00,8.00,M,30.04,M,10.00,M,CLR,M,M,M,M,M,M,M,M,KPDK 011205Z AUTO 29008KT 10SM CLR A3004 RMK MADISHF
PDK,2017-04-01 12:10,-84.3020,33.8756,M,M,M,300.00,7.00,M,30.04,M,10.00,M,CLR,M,M,M,M,M,M,M,M,KPDK 011210Z AUTO 30007KT 10SM CLR A3004 RMK MADISHF
PDK,2017-04-01 12:15,-84.3020,33.8756,M,M,M,310.00,8.00,M,30.04,M,10.00,M,CLR,M,M,M,M,M,M,M,M,KPDK 011215Z AUTO 31008KT 10SM CLR A3004 RMK MADISHF
PDK,2017-04-01 12:20,-84.3020,33.8756,M,M,M,300.00,9.00,M,30.04,M,10.00,M,CLR,M,M,M,M,M,M,M,M,KPDK 011220Z AUTO 30009KT 10SM CLR A3004 RMK MADISHF
PDK,2017-04-01 12:25,-84.3020,33.8756,M,M,M,300.00,7.00,M,30.05,M,10.00,M,CLR,M,M,M,M,M,M,M,M,KPDK 011225Z AUTO 30007KT 10SM CLR A3005 RMK MADISHF
PDK,2017-04-01 12:30,-84.3020,33.8756,M,M,M,310.00,8.00,M,30.05,M,10.00,M,CLR,M,M,M,M,M,M,M,M,KPDK 011230Z AUTO 31008KT 10SM CLR A3005 RMK MADISHF
PDK,2017-04-01 12:35,-84.3020,33.8756,M,M,M,300.00,7.00,M,30.05,M,10.00,M,CLR,M,M,M,M,M,M,M,M,KPDK 011235Z AUTO 30007KT 10SM CLR A3005 RMK MADISHF
PDK,2017-04-01 12:40,-84.3020,33.8756,M,M,M,320.00,6.00,M,30.06,M,10.00,M,CLR,M,M,M,M,M,M,M,M,KPDK 011240Z AUTO 32006KT 10SM CLR A3006 RMK MADISHF
PDK,2017-04-01 12:45,-84.3020,33.8756,M,M,M,310.00,7.00,M,30.06,M,10.00,M,CLR,M,M,M,M,M,M,M,M,KPDK 011245Z AUTO 31007KT 10SM CLR A3006 RMK MADISHF
PDK,2017-04-01 12:50,-84.3020,33.8756,M,M,M,320.00,12.00,M,30.06,M,10.00,M,CLR,M,M,M,M,M,M,M,M,KPDK 011250Z AUTO 32012KT 10SM CLR A3006 RMK MADISHF
PDK,2017-04-01 12:53,-84.3020,33.8756,55.90,46.00,69.30,310.00,11.00,0.00,30.06,1017.40,10.00,M,CLR,M,M,M,M,M,M,M,M,KPDK 011253Z 31011KT 10SM CLR 13/08 A3006 RMK AO2 SLP174 T01330078
PDK,2017-04-01 12:55,-84.3020,33.8756,M,M,M,310.00,9.00,M,30.06,M,10.00,M,CLR,M,M,M,M,M,M,M,M,KPDK 011255Z AUTO 31009KT 10SM CLR A3006 RMK MADISHF
PDK,2017-04-01 13:00,-84.3020,33.8756,M,M,M,310.00,9.00,M,30.06,M,10.00,M,CLR,M,M,M,M,M,M,M,M,KPDK 011300Z AUTO 31009KT 10SM CLR A3006 RMK MADISHF
PDK,2017-04-01 13:05,-84.3020,33.8756,M,M,M,310.00,8.00,M,30.06,M,10.00,M,CLR,M,M,M,M,M,M,M,M,KPDK 011305Z AUTO 31008KT 10SM CLR A3006 RMK MADISHF
PDK,2017-04-01 13:10,-84.3020,33.8756,M,M,M,310.00,10.00,M,30.06,M,10.00,M,CLR,M,M,M,M,M,M,M,M,KPDK 011310Z AUTO 31010KT 10SM CLR A3006 RMK MADISHF
PDK,2017-04-01 13:15,-84.3020,33.8756,M,M,M,340.00,11.00,M,30.06,M,10.00,M,CLR,M,M,M,M,M,M,M,M,KPDK 011315Z AUTO 34011KT 10SM CLR A3006 RMK MADISHF
PDK,2017-04-01 13:20,-84.3020,33.8756,M,M,M,310.00,10.00,M,30.06,M,10.00,M,CLR,M,M,M,M,M,M,M,M,KPDK 011320Z AUTO 31010KT 10SM CLR A3006 RMK MADISHF
PDK,2017-04-01 13:25,-84.3020,33.8756,M,M,M,330.00,9.00,M,30.06,M,10.00,14.00,CLR,M,M,M,M,M,M,M,M,KPDK 011325Z AUTO 33009G14KT 10SM CLR A3006 RMK MADISHF
PDK,2017-04-01 13:30,-84.3020,33.8756,M,M,M,330.00,13.00,M,30.06,M,10.00,M,CLR,M,M,M,M,M,M,M,M,KPDK 011330Z AUTO 33013KT 10SM CLR A3006 RMK MADISHF
PDK,2017-04-01 13:35,-84.3020,33.8756,M,M,M,310.00,9.00,M,30.06,M,10.00,M,CLR,M,M,M,M,M,M,M,M,KPDK 011335Z AUTO 31009KT 10SM CLR A3006 RMK MADISHF
PDK,2017-04-01 13:40,-84.3020,33.8756,M,M,M,310.00,11.00,M,30.06,M,10.00,M,CLR,M,M,M,M,M,M,M,M,KPDK 011340Z AUTO 31011KT 10SM CLR A3006 RMK MADISHF
PDK,2017-04-01 13:45,-84.3020,33.8756,M,M,M,320.00,9.00,M,30.05,M,10.00,M,CLR,M,M,M,M,M,M,M,M,KPDK 011345Z AUTO 32009KT 10SM CLR A3005 RMK MADISHF
PDK,2017-04-01 13:50,-84.3020,33.8756,M,M,M,320.00,11.00,M,30.06,M,10.00,M,CLR,M,M,M,M,M,M,M,M,KPDK 011350Z AUTO 32011KT 10SM CLR A3006 RMK MADISHF
PDK,2017-04-01 13:53,-84.3020,33.8756,59.00,46.00,61.98,310.00,11.00,0.00,30.06,1017.40,10.00,M,CLR,M,M,M,M,M,M,M,M,KPDK 011353Z 31011KT 10SM CLR 15/08 A3006 RMK AO2 SLP174 T01500078
PDK,2017-04-01 13:55,-84.3020,33.8756,M,M,M,310.00,9.00,M,30.06,M,10.00,M,CLR,M,M,M,M,M,M,M,M,KPDK 011355Z AUTO 31009KT 10SM CLR A3006 RMK MADISHF
PDK,2017-04-01 14:00,-84.3020,33.8756,M,M,M,320.00,10.00,M,30.06,M,10.00,M,CLR,M,M,M,M,M,M,M,M,KPDK 011400Z AUTO 32010KT 10SM CLR A3006 RMK MADISHF
PDK,2017-04-01 14:05,-84.3020,33.8756,M,M,M,310.00,12.00,M,30.06,M,10.00,M,CLR,M,M,M,M,M,M,M,M,KPDK 011405Z AUTO 31012KT 10SM CLR A3006 RMK MADISHF
PDK,2017-04-01 14:10,-84.3020,33.8756,M,M,M,320.00,15.00,M,30.06,M,10.00,M,CLR,M,M,M,M,M,M,M,M,KPDK 011410Z AUTO 32015KT 10SM CLR A3006 RMK MADISHF
PDK,2017-04-01 14:15,-84.3020,33.8756,M,M,M,330.00,11.00,M,30.06,M,10.00,M,CLR,M,M,M,M,M,M,M,M,KPDK 011415Z AUTO 33011KT 10SM CLR A3006 RMK MADISHF
PDK,2017-04-01 14:20,-84.3020,33.8756,M,M,M,340.00,10.00,M,30.06,M,10.00,M,CLR,M,M,M,M,M,M,M,M,KPDK 011420Z AUTO 34010KT 10SM CLR A3006 RMK MADISHF
PDK,2017-04-01 14:25,-84.3020,33.8756,M,M,M,330.00,8.00,M,30.06,M,10.00,M,CLR,M,M,M,M,M,M,M,M,KPDK 011425Z AUTO 33008KT 10SM CLR A3006 RMK MADISHF
PDK,2017-04-01 14:30,-84.3020,33.8756,M,M,M,320.00,11.00,M,30.06,M,10.00,M,CLR,M,M,M,M,M,M,M,M,KPDK 011430Z AUTO 32011KT 10SM CLR A3006 RMK MADISHF
PDK,2017-04-01 14:35,-84.3020,33.8756,M,M,M,310.00,12.00,M,30.06,M,10.00,M,CLR,M,M,M,M,M,M,M,M,KPDK 011435Z AUTO 31012KT 10SM CLR A3006 RMK MADISHF
PDK,2017-04-01 14:40,-84.3020,33.8756,M,M,M,320.00,10.00,M,30.06,M,10.00,M,CLR,M,M,M,M,M,M,M,M,KPDK 011440Z AUTO 32010KT 10SM CLR A3006 RMK MADISHF
PDK,2017-04-01 14:45,-84.3020,33.8756,M,M,M,310.00,11.00,M,30.06,M,10.00,M,CLR,M,M,M,M,M,M,M,M,KPDK 011445Z AUTO 31011KT 10SM CLR A3006 RMK MADISHF
PDK,2017-04-01 14:50,-84.3020,33.8756,M,M,M,310.00,11.00,M,30.06,M,10.00,M,CLR,M,M,M,M,M,M,M,M,KPDK 011450Z AUTO 31011KT 10SM CLR A3006 RMK MADISHF
PDK,2017-04-01 14:53,-84.3020,33.8756,64.00,46.00,51.93,310.00,12.00,0.00,30.06,1017.40,10.00,M,CLR,M,M,M,M,M,M,M,M,KPDK 011453Z 31012KT 10SM CLR 18/08 A3006 RMK AO2 SLP174 T01780078 51008
PDK,2017-04-01 14:55,-84.3020,33.8756,M,M,M,300.00,11.00,M,30.06,M,10.00,M,CLR,M,M,M,M,M,M,M,M,KPDK 011455Z AUTO 30011KT 10SM CLR A3006 RMK MADISHF
PDK,2017-04-01 15:00,-84.3020,33.8756,M,M,M,300.00,10.00,M,30.06,M,10.00,M,CLR,M,M,M,M,M,M,M,M,KPDK 011500Z AUTO 30010KT 10SM CLR A3006 RMK MADISHF
PDK,2017-04-01 15:05,-84.3020,33.8756,M,M,M,310.00,13.00,M,30.06,M,10.00,M,CLR,M,M,M,M,M,M,M,M,KPDK 011505Z AUTO 31013KT 10SM CLR A3006 RMK MADISHF
PDK,2017-04-01 15:10,-84.3020,33.8756,M,M,M,290.00,12.00,M,30.06,M,10.00,M,CLR,M,M,M,M,M,M,M,M,KPDK 011510Z AUTO 29012KT 10SM CLR A3006 RMK MADISHF
PDK,2017-04-01 15:15,-84.3020,33.8756,M,M,M,300.00,11.00,M,30.06,M,10.00,M,CLR,M,M,M,M,M,M,M,M,KPDK 011515Z AUTO 30011KT 10SM CLR A3006 RMK MADISHF
PDK,2017-04-01 15:20,-84.3020,33.8756,M,M,M,310.00,14.00,M,30.06,M,10.00,M,CLR,M,M,M,M,M,M,M,M,KPDK 011520Z AUTO 31014KT 10SM CLR A3006 RMK MADISHF
PDK,2017-04-01 15:25,-84.3020,33.8756,M,M,M,310.00,12.00,M,30.06,M,10.00,M,CLR,M,M,M,M,M,M,M,M,KPDK 011525Z AUTO 31012KT 10SM CLR A3006 RMK WND 29V35  MADISHF
PDK,2017-04-01 15:30,-84.3020,33.8756,M,M,M,M,M,M,30.06,M,10.00,M,CLR,M,M,M,M,M,M,M,M,KPDK 011530Z AUTO /////KT 10SM CLR A3006 RMK MADISHF
PDK,2017-04-01 15:35,-84.3020,33.8756,M,M,M,310.00,13.00,M,30.06,M,10.00,M,CLR,M,M,M,M,M,M,M,M,KPDK 011535Z AUTO 31013KT 10SM CLR A3006 RMK MADISHF
PDK,2017-04-01 15:40,-84.3020,33.8756,M,M,M,M,M,M,30.06,M,10.00,M,CLR,M,M,M,M,M,M,M,M,KPDK 011540Z AUTO /////KT 10SM CLR A3006 RMK MADISHF
PDK,2017-04-01 15:45,-84.3020,33.8756,M,M,M,320.00,14.00,M,30.06,M,10.00,M,CLR,M,M,M,M,M,M,M,M,KPDK 011545Z AUTO 32014KT 10SM CLR A3006 RMK MADISHF
PDK,2017-04-01 15:50,-84.3020,33.8756,M,M,M,320.00,11.00,M,30.06,M,10.00,17.00,CLR,M,M,M,M,M,M,M,M,KPDK 011550Z AUTO 32011G17KT 10SM CLR A3006 RMK MADISHF
PDK,2017-04-01 15:53,-84.3020,33.8756,66.90,45.00,45.19,320.00,13.00,0.00,30.06,1017.10,10.00,18.00,CLR,M,M,M,M,M,M,M,M,KPDK 011553Z 32013G18KT 10SM CLR 19/07 A3006 RMK AO2 SLP171 T01940072
PDK,2017-04-01 15:55,-84.3020,33.8756,M,M,M,M,M,M,30.06,M,10.00,M,CLR,M,M,M,M,M,M,M,M,KPDK 011555Z AUTO /////KT 10SM CLR A3006 RMK MADISHF
PDK,2017-04-01 16:00,-84.3020,33.8756,M,M,M,320.00,13.00,M,30.06,M,10.00,M,CLR,M,M,M,M,M,M,M,M,KPDK 011600Z AUTO 32013KT 10SM CLR A3006 RMK MADISHF
PDK,2017-04-01 16:05,-84.3020,33.8756,M,M,M,M,M,M,30.06,M,10.00,M,CLR,M,M,M,M,M,M,M,M,KPDK 011605Z AUTO /////KT 10SM CLR A3006 RMK MADISHF
PDK,2017-04-01 16:10,-84.3020,33.8756,M,M,M,300.00,12.00,M,30.06,M,10.00,M,CLR,M,M,M,M,M,M,M,M,KPDK 011610Z AUTO 30012KT 10SM CLR A3006 RMK MADISHF
PDK,2017-04-01 16:15,-84.3020,33.8756,M,M,M,320.00,11.00,M,30.06,M,10.00,M,CLR,M,M,M,M,M,M,M,M,KPDK 011615Z AUTO 32011KT 10SM CLR A3006 RMK MADISHF
PDK,2017-04-01 16:20,-84.3020,33.8756,M,M,M,320.00,11.00,M,30.06,M,10.00,M,CLR,M,M,M,M,M,M,M,M,KPDK 011620Z AUTO 32011KT 10SM CLR A3006 RMK MADISHF
PDK,2017-04-01 16:25,-84.3020,33.8756,M,M,M,310.00,7.00,M,30.06,M,10.00,M,CLR,M,M,M,M,M,M,M,M,KPDK 011625Z AUTO 31007KT 10SM CLR A3006 RMK MADISHF
PDK,2017-04-01 16:30,-84.3020,33.8756,M,M,M,320.00,11.00,M,30.06,M,10.00,M,CLR,M,M,M,M,M,M,M,M,KPDK 011630Z AUTO 32011KT 10SM CLR A3006 RMK MADISHF
PDK,2017-04-01 16:35,-84.3020,33.8756,M,M,M,330.00,10.00,M,30.06,M,10.00,M,CLR,M,M,M,M,M,M,M,M,KPDK 011635Z AUTO 33010KT 10SM CLR A3006 RMK MADISHF
PDK,2017-04-01 16:40,-84.3020,33.8756,M,M,M,300.00,9.00,M,30.06,M,10.00,M,CLR,M,M,M,M,M,M,M,M,KPDK 011640Z AUTO 30009KT 10SM CLR A3006 RMK MADISHF
PDK,2017-04-01 16:45,-84.3020,33.8756,M,M,M,310.00,8.00,M,30.06,M,10.00,M,CLR,M,M,M,M,M,M,M,M,KPDK 011645Z AUTO 31008KT 10SM CLR A3006 RMK MADISHF
PDK,2017-04-01 16:50,-84.3020,33.8756,M,M,M,310.00,9.00,M,30.06,M,10.00,M,CLR,M,M,M,M,M,M,M,M,KPDK 011650Z AUTO 31009KT 10SM CLR A3006 RMK MADISHF
PDK,2017-04-01 16:53,-84.3020,33.8756,69.10,46.00,43.52,290.00,9.00,0.00,30.06,1017.10,10.00,M,CLR,M,M,M,M,M,M,M,M,KPDK 011653Z 29009KT 10SM CLR 21/08 A3006 RMK AO2 SLP171 T02060078
PDK,2017-04-01 16:55,-84.3020,33.8756,M,M,M,280.00,10.00,M,30.06,M,10.00,M,CLR,M,M,M,M,M,M,M,M,KPDK 011655Z AUTO 28010KT 10SM CLR A3006 RMK MADISHF
PDK,2017-04-01 17:00,-84.3020,33.8756,M,M,M,290.00,11.00,M,30.06,M,10.00,M,CLR,M,M,M,M,M,M,M,M,KPDK 011700Z AUTO 29011KT 10SM CLR A3006 RMK MADISHF
PDK,2017-04-01 17:05,-84.3020,33.8756,M,M,M,270.00,10.00,M,30.06,M,10.00,M,CLR,M,M,M,M,M,M,M,M,KPDK 011705Z AUTO 27010KT 10SM CLR A3006 RMK WND 25V31  MADISHF
PDK,2017-04-01 17:10,-84.3020,33.8756,M,M,M,300.00,10.00,M,30.06,M,10.00,M,CLR,M,M,M,M,M,M,M,M,KPDK 011710Z AUTO 30010KT 10SM CLR A3006 RMK MADISHF
PDK,2017-04-01 17:15,-84.3020,33.8756,M,M,M,320.00,9.00,M,30.06,M,10.00,M,CLR,M,M,M,M,M,M,M,M,KPDK 011715Z AUTO 32009KT 10SM CLR A3006 RMK MADISHF
PDK,2017-04-01 17:20,-84.3020,33.8756,M,M,M,M,M,M,30.06,M,10.00,M,CLR,M,M,M,M,M,M,M,M,KPDK 011720Z AUTO /////KT 10SM CLR A3006 RMK MADISHF
PDK,2017-04-01 17:25,-84.3020,33.8756,M,M,M,290.00,9.00,M,30.06,M,10.00,M,CLR,M,M,M,M,M,M,M,M,KPDK 011725Z AUTO 29009KT 10SM CLR A3006 RMK MADISHF
PDK,2017-04-01 17:30,-84.3020,33.8756,M,M,M,290.00,9.00,M,30.05,M,10.00,M,CLR,M,M,M,M,M,M,M,M,KPDK 011730Z AUTO 29009KT 10SM CLR A3005 RMK MADISHF
PDK,2017-04-01 17:35,-84.3020,33.8756,M,M,M,270.00,10.00,M,30.05,M,10.00,M,CLR,M,M,M,M,M,M,M,M,KPDK 011735Z AUTO 27010KT 10SM CLR A3005 RMK MADISHF
PDK,2017-04-01 17:40,-84.3020,33.8756,M,M,M,290.00,9.00,M,30.05,M,10.00,M,CLR,M,M,M,M,M,M,M,M,KPDK 011740Z AUTO 29009KT 10SM CLR A3005 RMK MADISHF
PDK,2017-04-01 17:45,-84.3020,33.8756,M,M,M,280.00,4.00,M,30.05,M,10.00,M,CLR,M,M,M,M,M,M,M,M,KPDK 011745Z AUTO 28004KT 10SM CLR A3005 RMK MADISHF
PDK,2017-04-01 17:50,-84.3020,33.8756,M,M,M,290.00,6.00,M,30.05,M,10.00,M,CLR,M,M,M,M,M,M,M,M,KPDK 011750Z AUTO 29006KT 10SM CLR A3005 RMK MADISHF
PDK,2017-04-01 17:53,-84.3020,33.8756,71.10,46.90,42.05,M,6.00,0.00,30.05,1016.80,10.00,M,CLR,M,M,M,M,M,M,M,M,KPDK 011753Z VRB06KT 10SM CLR 22/08 A3005 RMK AO2 SLP168 T02170083 10217 20111 58003
PDK,2017-04-01 17:55,-84.3020,33.8756,M,M,M,320.00,13.00,M,30.05,M,10.00,M,CLR,M,M,M,M,M,M,M,M,KPDK 011755Z AUTO 32013KT 10SM CLR A3005 RMK MADISHF
PDK,2017-04-01 18:00,-84.3020,33.8756,M,M,M,320.00,7.00,M,30.05,M,10.00,M,CLR,M,M,M,M,M,M,M,M,KPDK 011800Z AUTO 32007KT 10SM CLR A3005 RMK MADISHF
PDK,2017-04-01 18:05,-84.3020,33.8756,M,M,M,290.00,5.00,M,30.05,M,10.00,M,CLR,M,M,M,M,M,M,M,M,KPDK 011805Z AUTO 29005KT 10SM CLR A3005 RMK MADISHF
PDK,2017-04-01 18:10,-84.3020,33.8756,M,M,M,M,M,M,30.05,M,10.00,M,CLR,M,M,M,M,M,M,M,M,KPDK 011810Z AUTO /////KT 10SM CLR A3005 RMK MADISHF
PDK,2017-04-01 18:15,-84.3020,33.8756,M,M,M,280.00,9.00,M,30.05,M,10.00,M,CLR,M,M,M,M,M,M,M,M,KPDK 011815Z AUTO 28009KT 10SM CLR A3005 RMK MADISHF
PDK,2017-04-01 18:20,-84.3020,33.8756,M,M,M,320.00,12.00,M,30.05,M,10.00,M,CLR,M,M,M,M,M,M,M,M,KPDK 011820Z AUTO 32012KT 10SM CLR A3005 RMK MADISHF
PDK,2017-04-01 18:25,-84.3020,33.8756,M,M,M,330.00,4.00,M,30.05,M,10.00,M,CLR,M,M,M,M,M,M,M,M,KPDK 011825Z AUTO 33004KT 10SM CLR A3005 RMK VRB04G14KT  MADISHF
PDK,2017-04-01 18:30,-84.3020,33.8756,M,M,M,270.00,8.00,M,30.05,M,10.00,M,CLR,M,M,M,M,M,M,M,M,KPDK 011830Z AUTO 27008KT 10SM CLR A3005 RMK MADISHF
PDK,2017-04-01 18:35,-84.3020,33.8756,M,M,M,290.00,9.00,M,30.05,M,10.00,M,CLR,M,M,M,M,M,M,M,M,KPDK 011835Z AUTO 29009KT 10SM CLR A3005 RMK MADISHF
PDK,2017-04-01 18:40,-84.3020,33.8756,M,M,M,330.00,7.00,M,30.05,M,10.00,M,CLR,M,M,M,M,M,M,M,M,KPDK 011840Z AUTO 33007KT 10SM CLR A3005 RMK MADISHF
PDK,2017-04-01 18:45,-84.3020,33.8756,M,M,M,290.00,8.00,M,30.04,M,10.00,M,CLR,M,M,M,M,M,M,M,M,KPDK 011845Z AUTO 29008KT 10SM CLR A3004 RMK WND 25V34  MADISHF
PDK,2017-04-01 18:50,-84.3020,33.8756,M,M,M,280.00,11.00,M,30.04,M,10.00,M,CLR,M,M,M,M,M,M,M,M,KPDK 011850Z AUTO 28011KT 10SM CLR A3004 RMK MADISHF
PDK,2017-04-01 18:53,-84.3020,33.8756,73.00,46.90,39.43,300.00,9.00,0.00,30.04,1016.40,10.00,16.00,CLR,M,M,M,M,M,M,M,M,KPDK 011853Z 30009G16KT 10SM CLR 23/08 A3004 RMK AO2 SLP164 T02280083
PDK,2017-04-01 18:55,-84.3020,33.8756,M,M,M,320.00,11.00,M,30.04,M,10.00,M,CLR,M,M,M,M,M,M,M,M,KPDK 011855Z AUTO 32011KT 10SM CLR A3004 RMK MADISHF
PDK,2017-04-01 19:00,-84.3020,33.8756,M,M,M,310.00,10.00,M,30.04,M,10.00,M,CLR,M,M,M,M,M,M,M,M,KPDK 011900Z AUTO 31010KT 10SM CLR A3004 RMK MADISHF
PDK,2017-04-01 19:05,-84.3020,33.8756,M,M,M,300.00,10.00,M,30.04,M,10.00,M,CLR,M,M,M,M,M,M,M,M,KPDK 011905Z AUTO 30010KT 10SM CLR A3004 RMK MADISHF
PDK,2017-04-01 19:10,-84.3020,33.8756,M,M,M,290.00,11.00,M,30.03,M,10.00,M,CLR,M,M,M,M,M,M,M,M,KPDK 011910Z AUTO 29011KT 10SM CLR A3003 RMK WND 25V32  MADISHF
PDK,2017-04-01 19:15,-84.3020,33.8756,M,M,M,290.00,8.00,M,30.03,M,10.00,M,CLR,M,M,M,M,M,M,M,M,KPDK 011915Z AUTO 29008KT 10SM CLR A3003 RMK MADISHF
PDK,2017-04-01 19:20,-84.3020,33.8756,M,M,M,300.00,11.00,M,30.03,M,10.00,M,CLR,M,M,M,M,M,M,M,M,KPDK 011920Z AUTO 30011KT 10SM CLR A3003 RMK MADISHF
PDK,2017-04-01 19:25,-84.3020,33.8756,M,M,M,320.00,6.00,M,30.03,M,10.00,M,CLR,M,M,M,M,M,M,M,M,KPDK 011925Z AUTO 32006KT 10SM CLR A3003 RMK MADISHF
PDK,2017-04-01 19:30,-84.3020,33.8756,M,M,M,290.00,10.00,M,30.03,M,10.00,17.00,CLR,M,M,M,M,M,M,M,M,KPDK 011930Z AUTO 29010G17KT 10SM CLR A3003 RMK WND 26V33  MADISHF
PDK,2017-04-01 19:35,-84.3020,33.8756,M,M,M,290.00,10.00,M,30.03,M,10.00,M,CLR,M,M,M,M,M,M,M,M,KPDK 011935Z AUTO 29010KT 10SM CLR A3003 RMK MADISHF
PDK,2017-04-01 19:40,-84.3020,33.8756,M,M,M,300.00,10.00,M,30.03,M,10.00,M,CLR,M,M,M,M,M,M,M,M,KPDK 011940Z AUTO 30010KT 10SM CLR A3003 RMK MADISHF
PDK,2017-04-01 19:45,-84.3020,33.8756,M,M,M,310.00,8.00,M,30.03,M,10.00,M,CLR,M,M,M,M,M,M,M,M,KPDK 011945Z AUTO 31008KT 10SM CLR A3003 RMK MADISHF
PDK,2017-04-01 19:50,-84.3020,33.8756,M,M,M,M,M,M,30.03,M,10.00,M,CLR,M,M,M,M,M,M,M,M,KPDK 011950Z AUTO /////KT 10SM CLR A3003 RMK MADISHF
PDK,2017-04-01 19:53,-84.3020,33.8756,73.90,45.00,35.60,270.00,13.00,0.00,30.03,1015.90,10.00,19.00,CLR,M,M,M,M,M,M,M,M,KPDK 011953Z 27013G19KT 240V310 10SM CLR 23/07 A3003 RMK AO2 SLP159 T02330072
PDK,2017-04-01 19:55,-84.3020,33.8756,M,M,M,300.00,11.00,M,30.02,M,10.00,M,CLR,M,M,M,M,M,M,M,M,KPDK 011955Z AUTO 30011KT 10SM CLR A3002 RMK MADISHF
PDK,2017-04-01 20:00,-84.3020,33.8756,M,M,M,320.00,13.00,M,30.02,M,10.00,M,CLR,M,M,M,M,M,M,M,M,KPDK 012000Z AUTO 32013KT 10SM CLR A3002 RMK MADISHF
PDK,2017-04-01 20:05,-84.3020,33.8756,M,M,M,320.00,10.00,M,30.02,M,10.00,M,CLR,M,M,M,M,M,M,M,M,KPDK 012005Z AUTO 32010KT 10SM CLR A3002 RMK MADISHF
PDK,2017-04-01 20:10,-84.3020,33.8756,M,M,M,320.00,11.00,M,30.02,M,10.00,M,CLR,M,M,M,M,M,M,M,M,KPDK 012010Z AUTO 32011KT 10SM CLR A3002 RMK MADISHF
PDK,2017-04-01 20:15,-84.3020,33.8756,M,M,M,310.00,8.00,M,30.02,M,10.00,M,CLR,M,M,M,M,M,M,M,M,KPDK 012015Z AUTO 31008KT 10SM CLR A3002 RMK MADISHF
PDK,2017-04-01 20:20,-84.3020,33.8756,M,M,M,320.00,10.00,M,30.02,M,10.00,M,CLR,M,M,M,M,M,M,M,M,KPDK 012020Z AUTO 32010KT 10SM CLR A3002 RMK MADISHF
PDK,2017-04-01 20:25,-84.3020,33.8756,M,M,M,340.00,9.00,M,30.02,M,10.00,M,CLR,M,M,M,M,M,M,M,M,KPDK 012025Z AUTO 34009KT 10SM CLR A3002 RMK MADISHF
PDK,2017-04-01 20:30,-84.3020,33.8756,M,M,M,270.00,9.00,M,30.02,M,10.00,M,CLR,M,M,M,M,M,M,M,M,KPDK 012030Z AUTO 27009KT 10SM CLR A3002 RMK MADISHF
PDK,2017-04-01 20:35,-84.3020,33.8756,M,M,M,290.00,8.00,M,30.02,M,10.00,M,CLR,M,M,M,M,M,M,M,M,KPDK 012035Z AUTO 29008KT 10SM CLR A3002 RMK MADISHF
PDK,2017-04-01 20:40,-84.3020,33.8756,M,M,M,280.00,9.00,M,30.02,M,10.00,15.00,CLR,M,M,M,M,M,M,M,M,KPDK 012040Z AUTO 28009G15KT 10SM CLR A3002 RMK MADISHF
PDK,2017-04-01 20:45,-84.3020,33.8756,M,M,M,270.00,9.00,M,30.02,M,10.00,M,CLR,M,M,M,M,M,M,M,M,KPDK 012045Z AUTO 27009KT 10SM CLR A3002 RMK MADISHF
PDK,2017-04-01 20:50,-84.3020,33.8756,M,M,M,310.00,13.00,M,30.02,M,10.00,18.00,CLR,M,M,M,M,M,M,M,M,KPDK 012050Z AUTO 31013G18KT 10SM CLR A3002 RMK MADISHF
PDK,2017-04-01 20:53,-84.3020,33.8756,75.00,44.10,33.16,300.00,11.00,0.00,30.02,1015.70,10.00,19.00,CLR,M,M,M,M,M,M,M,M,KPDK 012053Z 30011G19KT 10SM CLR 24/07 A3002 RMK AO2 SLP157 T02390067 56010
PDK,2017-04-01 20:55,-84.3020,33.8756,M,M,M,280.00,10.00,M,30.02,M,10.00,M,CLR,M,M,M,M,M,M,M,M,KPDK 012055Z AUTO 28010KT 10SM CLR A3002 RMK MADISHF
PDK,2017-04-01 21:00,-84.3020,33.8756,M,M,M,330.00,11.00,M,30.02,M,10.00,M,CLR,M,M,M,M,M,M,M,M,KPDK 012100Z AUTO 33011KT 10SM CLR A3002 RMK MADISHF
PDK,2017-04-01 21:05,-84.3020,33.8756,M,M,M,310.00,11.00,M,30.02,M,10.00,M,CLR,M,M,M,M,M,M,M,M,KPDK 012105Z AUTO 31011KT 10SM CLR A3002 RMK MADISHF
PDK,2017-04-01 21:10,-84.3020,33.8756,M,M,M,310.00,9.00,M,30.02,M,10.00,M,CLR,M,M,M,M,M,M,M,M,KPDK 012110Z AUTO 31009KT 10SM CLR A3002 RMK MADISHF
PDK,2017-04-01 21:15,-84.3020,33.8756,M,M,M,320.00,10.00,M,30.02,M,10.00,M,CLR,M,M,M,M,M,M,M,M,KPDK 012115Z AUTO 32010KT 10SM CLR A3002 RMK MADISHF
PDK,2017-04-01 21:20,-84.3020,33.8756,M,M,M,330.00,10.00,M,30.02,M,10.00,M,CLR,M,M,M,M,M,M,M,M,KPDK 012120Z AUTO 33010KT 10SM CLR A3002 RMK MADISHF
PDK,2017-04-01 21:25,-84.3020,33.8756,M,M,M,310.00,9.00,M,30.02,M,10.00,15.00,CLR,M,M,M,M,M,M,M,M,KPDK 012125Z AUTO 31009G15KT 10SM CLR A3002 RMK MADISHF
PDK,2017-04-01 21:30,-84.3020,33.8756,M,M,M,320.00,12.00,M,30.02,M,10.00,M,CLR,M,M,M,M,M,M,M,M,KPDK 012130Z AUTO 32012KT 10SM CLR A3002 RMK MADISHF
PDK,2017-04-01 21:35,-84.3020,33.8756,M,M,M,330.00,11.00,M,30.02,M,10.00,M,CLR,M,M,M,M,M,M,M,M,KPDK 012135Z AUTO 33011KT 10SM CLR A3002 RMK MADISHF
PDK,2017-04-01 21:40,-84.3020,33.8756,M,M,M,310.00,10.00,M,30.02,M,10.00,M,CLR,M,M,M,M,M,M,M,M,KPDK 012140Z AUTO 31010KT 10SM CLR A3002 RMK MADISHF
PDK,2017-04-01 21:45,-84.3020,33.8756,M,M,M,320.00,10.00,M,30.02,M,10.00,M,CLR,M,M,M,M,M,M,M,M,KPDK 012145Z AUTO 32010KT 10SM CLR A3002 RMK MADISHF
PDK,2017-04-01 21:50,-84.3020,33.8756,M,M,M,280.00,9.00,M,30.03,M,10.00,M,CLR,M,M,M,M,M,M,M,M,KPDK 012150Z AUTO 28009KT 10SM CLR A3003 RMK MADISHF
PDK,2017-04-01 21:53,-84.3020,33.8756,73.90,43.00,32.98,290.00,10.00,0.00,30.03,1016.00,10.00,M,CLR,M,M,M,M,M,M,M,M,KPDK 012153Z 29010KT 10SM CLR 23/06 A3003 RMK AO2 SLP160 T02330061
PDK,2017-04-01 21:55,-84.3020,33.8756,M,M,M,300.00,12.00,M,30.03,M,10.00,M,CLR,M,M,M,M,M,M,M,M,KPDK 012155Z AUTO 30012KT 10SM CLR A3003 RMK MADISHF
PDK,2017-04-01 22:00,-84.3020,33.8756,M,M,M,310.00,9.00,M,30.03,M,10.00,M,CLR,M,M,M,M,M,M,M,M,KPDK 012200Z AUTO 31009KT 10SM CLR A3003 RMK MADISHF
PDK,2017-04-01 22:05,-84.3020,33.8756,M,M,M,300.00,9.00,M,30.03,M,10.00,M,CLR,M,M,M,M,M,M,M,M,KPDK 012205Z AUTO 30009KT 10SM CLR A3003 RMK MADISHF
PDK,2017-04-01 22:10,-84.3020,33.8756,M,M,M,290.00,10.00,M,30.03,M,10.00,M,CLR,M,M,M,M,M,M,M,M,KPDK 012210Z AUTO 29010KT 10SM CLR A3003 RMK MADISHF
PDK,2017-04-01 22:15,-84.3020,33.8756,M,M,M,M,M,M,30.03,M,10.00,M,CLR,M,M,M,M,M,M,M,M,KPDK 012215Z AUTO /////KT 10SM CLR A3003 RMK MADISHF
PDK,2017-04-01 22:20,-84.3020,33.8756,M,M,M,M,M,M,30.03,M,10.00,M,CLR,M,M,M,M,M,M,M,M,KPDK 012220Z AUTO /////KT 10SM CLR A3003 RMK MADISHF
PDK,2017-04-01 22:25,-84.3020,33.8756,M,M,M,290.00,10.00,M,30.03,M,10.00,M,CLR,M,M,M,M,M,M,M,M,KPDK 012225Z AUTO 29010KT 10SM CLR A3003 RMK MADISHF
PDK,2017-04-01 22:30,-84.3020,33.8756,M,M,M,310.00,12.00,M,30.03,M,10.00,M,CLR,M,M,M,M,M,M,M,M,KPDK 012230Z AUTO 31012KT 10SM CLR A3003 RMK MADISHF
PDK,2017-04-01 22:35,-84.3020,33.8756,M,M,M,300.00,11.00,M,30.03,M,10.00,M,CLR,M,M,M,M,M,M,M,M,KPDK 012235Z AUTO 30011KT 10SM CLR A3003 RMK MADISHF
PDK,2017-04-01 22:40,-84.3020,33.8756,M,M,M,300.00,10.00,M,30.03,M,10.00,M,CLR,M,M,M,M,M,M,M,M,KPDK 012240Z AUTO 30010KT 10SM CLR A3003 RMK MADISHF
PDK,2017-04-01 22:45,-84.3020,33.8756,M,M,M,310.00,11.00,M,30.03,M,10.00,M,CLR,M,M,M,M,M,M,M,M,KPDK 012245Z AUTO 31011KT 10SM CLR A3003 RMK MADISHF
PDK,2017-04-01 22:50,-84.3020,33.8756,M,M,M,310.00,10.00,M,30.04,M,10.00,M,CLR,M,M,M,M,M,M,M,M,KPDK 012250Z AUTO 31010KT 10SM CLR A3004 RMK MADISHF
PDK,2017-04-01 22:53,-84.3020,33.8756,73.00,42.10,32.84,310.00,10.00,0.00,30.04,1016.50,10.00,M,CLR,M,M,M,M,M,M,M,M,KPDK 012253Z 31010KT 10SM CLR 23/06 A3004 RMK AO2 SLP165 T02280056
PDK,2017-04-01 22:55,-84.3020,33.8756,M,M,M,310.00,10.00,M,30.04,M,10.00,M,CLR,M,M,M,M,M,M,M,M,KPDK 012255Z AUTO 31010KT 10SM CLR A3004 RMK MADISHF
PDK,2017-04-01 23:00,-84.3020,33.8756,M,M,M,310.00,9.00,M,30.04,M,10.00,M,CLR,M,M,M,M,M,M,M,M,KPDK 012300Z AUTO 31009KT 10SM CLR A3004 RMK MADISHF
PDK,2017-04-01 23:05,-84.3020,33.8756,M,M,M,290.00,10.00,M,30.04,M,10.00,M,CLR,M,M,M,M,M,M,M,M,KPDK 012305Z AUTO 29010KT 10SM CLR A3004 RMK MADISHF
PDK,2017-04-01 23:10,-84.3020,33.8756,M,M,M,310.00,10.00,M,30.04,M,10.00,M,CLR,M,M,M,M,M,M,M,M,KPDK 012310Z AUTO 31010KT 10SM CLR A3004 RMK WND 27V33  MADISHF
PDK,2017-04-01 23:15,-84.3020,33.8756,M,M,M,290.00,10.00,M,30.04,M,10.00,M,CLR,M,M,M,M,M,M,M,M,KPDK 012315Z AUTO 29010KT 10SM CLR A3004 RMK MADISHF
PDK,2017-04-01 23:20,-84.3020,33.8756,M,M,M,310.00,9.00,M,30.04,M,10.00,M,CLR,M,M,M,M,M,M,M,M,KPDK 012320Z AUTO 31009KT 10SM CLR A3004 RMK MADISHF
PDK,2017-04-01 23:25,-84.3020,33.8756,M,M,M,320.00,9.00,M,30.04,M,10.00,M,CLR,M,M,M,M,M,M,M,M,KPDK 012325Z AUTO 32009KT 10SM CLR A3004 RMK MADISHF
PDK,2017-04-01 23:30,-84.3020,33.8756,M,M,M,300.00,9.00,M,30.04,M,10.00,M,CLR,M,M,M,M,M,M,M,M,KPDK 012330Z AUTO 30009KT 10SM CLR A3004 RMK MADISHF
PDK,2017-04-01 23:35,-84.3020,33.8756,M,M,M,290.00,9.00,M,30.04,M,10.00,M,CLR,M,M,M,M,M,M,M,M,KPDK 012335Z AUTO 29009KT 10SM CLR A3004 RMK MADISHF
PDK,2017-04-01 23:40,-84.3020,33.8756,M,M,M,300.00,6.00,M,30.04,M,10.00,M,CLR,M,M,M,M,M,M,M,M,KPDK 012340Z AUTO 30006KT 10SM CLR A3004 RMK MADISHF
PDK,2017-04-01 23:45,-84.3020,33.8756,M,M,M,310.00,8.00,M,30.04,M,10.00,M,CLR,M,M,M,M,M,M,M,M,KPDK 012345Z AUTO 31008KT 10SM CLR A3004 RMK MADISHF
PDK,2017-04-01 23:50,-84.3020,33.8756,M,M,M,310.00,8.00,M,30.04,M,10.00,M,CLR,M,M,M,M,M,M,M,M,KPDK 012350Z AUTO 31008KT 10SM CLR A3004 RMK MADISHF
PDK,2017-04-01 23:53,-84.3020,33.8756,69.10,43.00,38.82,310.00,7.00,0.00,30.05,1017.00,10.00,M,CLR,M,M,M,M,M,M,M,M,KPDK 012353Z 31007KT 10SM CLR 21/06 A3005 RMK AO2 SLP170 T02060061 10239 20206 53008
PDK,2017-04-01 23:55,-84.3020,33.8756,M,M,M,310.00,7.00,M,30.05,M,10.00,M,CLR,M,M,M,M,M,M,M,M,KPDK 012355Z AUTO 31007KT 10SM CLR A3005 RMK MADISHF
