#DEBUG: Format Typ    -> comma
#DEBUG: Time Period   -> 2017-04-01 00:00:00+00:00 2017-04-02 00:00:00+00:00
#DEBUG: Time Zone     -> Etc/UTC
#DEBUG: Data Contact   -> daryl herzmann akrherz@iastate.edu 515-294-5978
#DEBUG: Entries Found -> -1
station,valid,lon,lat,tmpf, dwpf, relh, drct, sknt, p01i, alti, mslp, vsby, gust, skyc1, skyc2, skyc3, skyc4, skyl1, skyl2, skyl3, skyl4, presentwx, metar
PHJR,2017-04-01 00:00,-158.0703,21.3073,M,M,M,130.00,11.00,M,30.07,M,10.00,M,BKN,M,M,M,5000.00,M,M,M,M,PHJR 010000Z AUTO 13011KT 10SM BKN050 A3007 RMK MADISHF
PHJR,2017-04-01 00:05,-158.0703,21.3073,M,M,M,120.00,12.00,M,30.07,M,10.00,M,FEW,BKN,M,M,4200.00,5000.00,M,M,M,PHJR 010005Z AUTO 12012KT 10SM FEW042 BKN050 A3007 RMK MADISHF
PHJR,2017-04-01 00:10,-158.0703,21.3073,M,M,M,130.00,11.00,M,30.06,M,10.00,M,FEW,BKN,M,M,4200.00,5000.00,M,M,M,PHJR 010010Z AUTO 13011KT 10SM FEW042 BKN050 A3006 RMK MADISHF
PHJR,2017-04-01 00:15,-158.0703,21.3073,M,M,M,130.00,9.00,M,30.06,M,10.00,15.00,FEW,BKN,BKN,M,4200.00,5000.00,6500.00,M,M,PHJR 010015Z AUTO 13009G15KT 10SM FEW042 BKN050 BKN065 A3006 RMK MADISHF
PHJR,2017-04-01 00:20,-158.0703,21.3073,M,M,M,130.00,10.00,M,30.06,M,10.00,15.00,BKN,BKN,M,M,5000.00,6000.00,M,M,M,PHJR 010020Z AUTO 13010G15KT 10SM BKN050 BKN060 A3006 RMK MADISHF
PHJR,2017-04-01 00:25,-158.0703,21.3073,M,M,M,120.00,10.00,M,30.06,M,10.00,M,BKN,BKN,M,M,5000.00,6000.00,M,M,M,PHJR 010025Z AUTO 12010KT 10SM BKN050 BKN060 A3006 RMK WND 09V15  MADISHF
PHJR,2017-04-01 00:30,-158.0703,21.3073,M,M,M,130.00,12.00,M,30.06,M,10.00,17.00,BKN,M,M,M,5000.00,M,M,M,M,PHJR 010030Z AUTO 13012G17KT 10SM BKN050 A3006 RMK MADISHF
PHJR,2017-04-01 00:35,-158.0703,21.3073,M,M,M,120.00,11.00,M,30.05,M,10.00,16.00,BKN,BKN,M,M,5000.00,6000.00,M,M,M,PHJR 010035Z AUTO 12011G16KT 10SM BKN050 BKN060 A3005 RMK MADISHF
PHJR,2017-04-01 00:40,-158.0703,21.3073,M,M,M,120.00,12.00,M,30.05,M,10.00,17.00,BKN,M,M,M,5000.00,M,M,M,M,PHJR 010040Z AUTO 12012G17KT 10SM BKN050 A3005 RMK MADISHF
PHJR,2017-04-01 00:45,-158.0703,21.3073,M,M,M,130.00,10.00,M,30.05,M,10.00,15.00,BKN,M,M,M,5000.00,M,M,M,M,PHJR 010045Z AUTO 13010G15KT 10SM BKN050 A3005 RMK MADISHF
PHJR,2017-04-01 00:50,-158.0703,21.3073,M,M,M,130.00,10.00,M,30.05,M,10.00,M,BKN,BKN,M,M,5000.00,6000.00,M,M,M,PHJR 010050Z AUTO 13010KT 10SM BKN050 BKN060 A3005 RMK MADISHF
PHJR,2017-04-01 00:53,-158.0703,21.3073,84.90,66.00,53.21,120.00,11.00,0.00,30.05,1018.20,10.00,17.00,BKN,BKN,M,M,5000.00,5500.00,M,M,M,PHJR 010053Z AUTO 12011G17KT 10SM BKN050 BKN055 29/19 A3005 RMK AO2 SLP182 T02940189 TSNO
PHJR,2017-04-01 00:55,-158.0703,21.3073,M,M,M,120.00,8.00,M,30.05,M,10.00,M,BKN,BKN,M,M,5000.00,5500.00,M,M,M,PHJR 010055Z AUTO 12008KT 10SM BKN050 BKN055 A3005 RMK WND 11V17  MADISHF
PHJR,2017-04-01 01:00,-158.0703,21.3073,M,M,M,120.00,12.00,M,30.05,M,10.00,M,SCT,BKN,M,M,4800.00,5500.00,M,M,M,PHJR 010100Z AUTO 12012KT 10SM SCT048 BKN055 A3005 RMK MADISHF
PHJR,2017-04-01 01:05,-158.0703,21.3073,M,M,M,120.00,13.00,M,30.05,M,10.00,M,FEW,SCT,M,M,4700.00,5500.00,M,M,M,PHJR 010105Z AUTO 12013KT 10SM FEW047 SCT055 A3005 RMK MADISHF
PHJR,2017-04-01 01:10,-158.0703,21.3073,M,M,M,130.00,11.00,M,30.05,M,10.00,18.00,SCT,BKN,M,M,4600.00,5500.00,M,M,M,PHJR 010110Z AUTO 13011G18KT 10SM SCT046 BKN055 A3005 RMK MADISHF
PHJR,2017-04-01 01:15,-158.0703,21.3073,M,M,M,120.00,7.00,M,30.04,M,10.00,M,SCT,BKN,M,M,4600.00,5500.00,M,M,M,PHJR 010115Z AUTO 12007KT 10SM SCT046 BKN055 A3004 RMK MADISHF
PHJR,2017-04-01 01:20,-158.0703,21.3073,M,M,M,120.00,8.00,M,30.04,M,10.00,M,SCT,SCT,M,M,4600.00,5500.00,M,M,M,PHJR 010120Z AUTO 12008KT 10SM SCT046 SCT055 A3004 RMK WND 08V15  MADISHF
PHJR,2017-04-01 01:25,-158.0703,21.3073,M,M,M,110.00,8.00,M,30.04,M,10.00,M,FEW,SCT,M,M,4600.00,5500.00,M,M,M,PHJR 010125Z AUTO 11008KT 10SM FEW046 SCT055 A3004 RMK MADISHF
PHJR,2017-04-01 01:30,-158.0703,21.3073,M,M,M,130.00,11.00,M,30.04,M,10.00,M,FEW,FEW,M,M,4500.00,5500.00,M,M,M,PHJR 010130Z AUTO 13011KT 10SM FEW045 FEW055 A3004 RMK MADISHF
PHJR,2017-04-01 01:35,-158.0703,21.3073,M,M,M,110.00,7.00,M,30.04,M,10.00,M,FEW,FEW,M,M,4500.00,6000.00,M,M,M,PHJR 010135Z AUTO 11007KT 10SM FEW045 FEW060 A3004 RMK WND 09V16  MADISHF
PHJR,2017-04-01 01:40,-158.0703,21.3073,M,M,M,120.00,10.00,M,30.04,M,10.00,16.00,CLR,M,M,M,M,M,M,M,M,PHJR 010140Z AUTO 12010G16KT 10SM CLR A3004 RMK MADISHF
PHJR,2017-04-01 01:45,-158.0703,21.3073,M,M,M,120.00,7.00,M,30.04,M,10.00,M,CLR,M,M,M,M,M,M,M,M,PHJR 010145Z AUTO 12007KT 10SM CLR A3004 RMK WND 08V15  MADISHF
PHJR,2017-04-01 01:50,-158.0703,21.3073,M,M,M,120.00,10.00,M,30.04,M,10.00,16.00,CLR,M,M,M,M,M,M,M,M,PHJR 010150Z AUTO 12010G16KT 10SM CLR A3004 RMK MADISHF
PHJR,2017-04-01 01:53,-158.0703,21.3073,84.00,66.00,54.77,120.00,12.00,0.00,30.04,1017.80,10.00,17.00,CLR,M,M,M,M,M,M,M,M,PHJR 010153Z 12012G17KT 10SM CLR 29/19 A3004 RMK AO2 SLP178 T02890189
PHJR,2017-04-01 01:55,-158.0703,21.3073,M,M,M,120.00,9.00,M,30.04,M,10.00,M,CLR,M,M,M,M,M,M,M,M,PHJR 010155Z AUTO 12009KT 10SM CLR A3004 RMK MADISHF
PHJR,2017-04-01 02:00,-158.0703,21.3073,M,M,M,130.00,10.00,M,30.04,M,10.00,M,FEW,M,M,M,4700.00,M,M,M,M,PHJR 010200Z AUTO 13010KT 10SM FEW047 A3004 RMK MADISHF
PHJR,2017-04-01 02:05,-158.0703,21.3073,M,M,M,120.00,10.00,M,30.04,M,10.00,18.00,FEW,M,M,M,4900.00,M,M,M,M,PHJR 010205Z AUTO 12010G18KT 10SM FEW049 A3004 RMK MADISHF
PHJR,2017-04-01 02:10,-158.0703,21.3073,M,M,M,120.00,11.00,M,30.04,M,10.00,18.00,FEW,M,M,M,4900.00,M,M,M,M,PHJR 010210Z AUTO 12011G18KT 10SM FEW049 A3004 RMK MADISHF
PHJR,2017-04-01 02:15,-158.0703,21.3073,M,M,M,120.00,10.00,M,30.04,M,10.00,18.00,FEW,M,M,M,4900.00,M,M,M,M,PHJR 010215Z AUTO 12010G18KT 10SM FEW049 A3004 RMK MADISHF
PHJR,2017-04-01 02:20,-158.0703,21.3073,M,M,M,120.00,9.00,M,30.04,M,10.00,14.00,FEW,M,M,M,4700.00,M,M,M,M,PHJR 010220Z AUTO 12009G14KT 10SM FEW047 A3004 RMK MADISHF
PHJR,2017-04-01 02:25,-158.0703,21.3073,M,M,M,130.00,9.00,M,30.04,M,10.00,14.00,FEW,M,M,M,4700.00,M,M,M,M,PHJR 010225Z AUTO 13009G14KT 10SM FEW047 A3004 RMK MADISHF
PHJR,2017-04-01 02:30,-158.0703,21.3073,M,M,M,120.00,9.00,M,30.04,M,10.00,15.00,FEW,M,M,M,4700.00,M,M,M,M,PHJR 010230Z AUTO 12009G15KT 10SM FEW047 A3004 RMK MADISHF
PHJR,2017-04-01 02:35,-158.0703,21.3073,M,M,M,120.00,8.00,M,30.04,M,10.00,M,SCT,M,M,M,4700.00,M,M,M,M,PHJR 010235Z AUTO 12008KT 10SM SCT047 A3004 RMK MADISHF
PHJR,2017-04-01 02:40,-158.0703,21.3073,M,M,M,110.00,7.00,M,30.04,M,10.00,M,SCT,M,M,M,4700.00,M,M,M,M,PHJR 010240Z AUTO 11007KT 10SM SCT047 A3004 RMK WND 07V15  MADISHF
PHJR,2017-04-01 02:45,-158.0703,21.3073,M,M,M,70.00,6.00,M,30.04,M,10.00,M,SCT,BKN,M,M,4700.00,5500.00,M,M,M,PHJR 010245Z AUTO 07006KT 10SM SCT047 BKN055 A3004 RMK MADISHF
PHJR,2017-04-01 02:50,-158.0703,21.3073,M,M,M,90.00,6.00,M,30.04,M,10.00,M,SCT,BKN,M,M,4500.00,5500.00,M,M,M,PHJR 010250Z AUTO 09006KT 10SM SCT045 BKN055 A3004 RMK VRB06KT  MADISHF
PHJR,2017-04-01 02:53,-158.0703,21.3073,84.90,63.00,47.91,80.00,7.00,0.00,30.04,1017.80,10.00,M,BKN,BKN,M,M,4700.00,5500.00,M,M,M,PHJR 010253Z 08007KT 10SM BKN047 BKN055 29/17 A3004 RMK AO2 SLP178 T02940172 55009
PHJR,2017-04-01 02:55,-158.0703,21.3073,M,M,M,80.00,8.00,M,30.04,M,10.00,M,BKN,BKN,M,M,4500.00,5500.00,M,M,M,PHJR 010255Z AUTO 08008KT 10SM BKN045 BKN055 A3004 RMK MADISHF
PHJR,2017-04-01 03:00,-158.0703,21.3073,M,M,M,80.00,3.00,M,30.04,M,10.00,M,BKN,BKN,M,M,4700.00,6000.00,M,M,M,PHJR 010300Z AUTO 08003KT 10SM BKN047 BKN060 A3004 RMK MADISHF
PHJR,2017-04-01 03:05,-158.0703,21.3073,M,M,M,70.00,5.00,M,30.04,M,10.00,M,FEW,BKN,M,M,4500.00,5500.00,M,M,M,PHJR 010305Z AUTO 07005KT 10SM FEW045 BKN055 A3004 RMK MADISHF
PHJR,2017-04-01 03:10,-158.0703,21.3073,M,M,M,40.00,6.00,M,30.04,M,10.00,M,FEW,SCT,M,M,4300.00,5500.00,M,M,M,PHJR 010310Z AUTO 04006KT 10SM FEW043 SCT055 A3004 RMK VRB06KT  MADISHF
PHJR,2017-04-01 03:15,-158.0703,21.3073,M,M,M,60.00,6.00,M,30.04,M,10.00,M,SCT,BKN,M,M,4300.00,5500.00,M,M,M,PHJR 010315Z AUTO 06006KT 10SM SCT043 BKN055 A3004 RMK MADISHF
PHJR,2017-04-01 03:20,-158.0703,21.3073,M,M,M,60.00,10.00,M,30.05,M,10.00,M,SCT,BKN,M,M,4100.00,5500.00,M,M,M,PHJR 010320Z AUTO 06010KT 10SM SCT041 BKN055 A3005 RMK MADISHF
PHJR,2017-04-01 03:25,-158.0703,21.3073,M,M,M,60.00,7.00,M,30.05,M,10.00,M,BKN,BKN,M,M,4100.00,4800.00,M,M,M,PHJR 010325Z AUTO 06007KT 10SM BKN041 BKN048 A3005 RMK MADISHF
PHJR,2017-04-01 03:30,-158.0703,21.3073,M,M,M,70.00,5.00,M,30.05,M,10.00,M,SCT,BKN,M,M,4100.00,4800.00,M,M,M,PHJR 010330Z AUTO 07005KT 10SM SCT041 BKN048 A3005 RMK MADISHF
PHJR,2017-04-01 03:35,-158.0703,21.3073,M,M,M,60.00,5.00,M,30.05,M,10.00,M,BKN,M,M,M,4300.00,M,M,M,M,PHJR 010335Z AUTO 06005KT 10SM BKN043 A3005 RMK VRB05KT  MADISHF
PHJR,2017-04-01 03:40,-158.0703,21.3073,M,M,M,70.00,6.00,M,30.06,M,10.00,M,SCT,BKN,M,M,3999.00,4800.00,M,M,M,PHJR 010340Z AUTO 07006KT 10SM SCT039 BKN048 A3006 RMK MADISHF
PHJR,2017-04-01 03:45,-158.0703,21.3073,M,M,M,60.00,5.00,M,30.06,M,10.00,M,BKN,M,M,M,4500.00,M,M,M,M,PHJR 010345Z AUTO 06005KT 10SM BKN045 A3006 RMK MADISHF
PHJR,2017-04-01 03:50,-158.0703,21.3073,M,M,M,50.00,7.00,M,30.06,M,10.00,M,FEW,BKN,M,M,3999.00,4900.00,M,M,M,PHJR 010350Z AUTO 05007KT 10SM FEW039 BKN049 A3006 RMK MADISHF
PHJR,2017-04-01 03:53,-158.0703,21.3073,82.00,63.00,52.62,70.00,6.00,0.00,30.06,1018.50,10.00,M,SCT,BKN,M,M,4000.00,4900.00,M,M,M,PHJR 010353Z 07006KT 10SM SCT040 BKN049 28/17 A3006 RMK AO2 SLP185 T02780172
PHJR,2017-04-01 03:55,-158.0703,21.3073,M,M,M,60.00,6.00,M,30.06,M,10.00,M,BKN,BKN,M,M,4200.00,4900.00,M,M,M,PHJR 010355Z AUTO 06006KT 10SM BKN042 BKN049 A3006 RMK MADISHF
PHJR,2017-04-01 04:00,-158.0703,21.3073,M,M,M,70.00,6.00,M,30.06,M,10.00,M,BKN,BKN,M,M,4200.00,4900.00,M,M,M,PHJR 010400Z AUTO 07006KT 10SM BKN042 BKN049 A3006 RMK MADISHF
PHJR,2017-04-01 04:05,-158.0703,21.3073,M,M,M,70.00,5.00,M,30.06,M,10.00,M,BKN,BKN,M,M,4200.00,4900.00,M,M,M,PHJR 010405Z AUTO 07005KT 10SM BKN042 BKN049 A3006 RMK MADISHF
PHJR,2017-04-01 04:10,-158.0703,21.3073,M,M,M,70.00,4.00,M,30.07,M,10.00,M,SCT,BKN,M,M,4200.00,4900.00,M,M,M,PHJR 010410Z AUTO 07004KT 10SM SCT042 BKN049 A3007 RMK VRB04KT  MADISHF
PHJR,2017-04-01 04:15,-158.0703,21.3073,M,M,M,70.00,5.00,M,30.07,M,10.00,M,SCT,SCT,M,M,4200.00,5000.00,M,M,M,PHJR 010415Z AUTO 07005KT 10SM SCT042 SCT050 A3007 RMK MADISHF
PHJR,2017-04-01 04:20,-158.0703,21.3073,M,M,M,70.00,6.00,M,30.07,M,10.00,M,FEW,SCT,M,M,4200.00,5000.00,M,M,M,PHJR 010420Z AUTO 07006KT 10SM FEW042 SCT050 A3007 RMK MADISHF
PHJR,2017-04-01 04:25,-158.0703,21.3073,M,M,M,70.00,5.00,M,30.07,M,10.00,M,FEW,FEW,M,M,3999.00,5000.00,M,M,M,PHJR 010425Z AUTO 07005KT 10SM FEW039 FEW050 A3007 RMK MADISHF
PHJR,2017-04-01 04:30,-158.0703,21.3073,M,M,M,70.00,6.00,M,30.07,M,10.00,M,CLR,M,M,M,M,M,M,M,M,PHJR 010430Z AUTO 07006KT 10SM CLR A3007 RMK MADISHF
PHJR,2017-04-01 04:35,-158.0703,21.3073,M,M,M,60.00,6.00,M,30.08,M,10.00,M,CLR,M,M,M,M,M,M,M,M,PHJR 010435Z AUTO 06006KT 10SM CLR A3008 RMK MADISHF
PHJR,2017-04-01 04:40,-158.0703,21.3073,M,M,M,50.00,8.00,M,30.08,M,10.00,M,CLR,M,M,M,M,M,M,M,M,PHJR 010440Z AUTO 05008KT 10SM CLR A3008 RMK MADISHF
PHJR,2017-04-01 04:45,-158.0703,21.3073,M,M,M,50.00,6.00,M,30.08,M,10.00,M,CLR,M,M,M,M,M,M,M,M,PHJR 010445Z AUTO 05006KT 10SM CLR A3008 RMK VRB06KT  MADISHF
PHJR,2017-04-01 04:50,-158.0703,21.3073,M,M,M,50.00,6.00,M,30.08,M,10.00,M,CLR,M,M,M,M,M,M,M,M,PHJR 010450Z AUTO 05006KT 10SM CLR A3008 RMK MADISHF
PHJR,2017-04-01 04:53,-158.0703,21.3073,79.00,64.00,60.11,60.00,5.00,0.00,30.08,1019.30,10.00,M,CLR,M,M,M,M,M,M,M,M,PHJR 010453Z 06005KT 10SM CLR 26/18 A3008 RMK AO2 SLP193 T02610178
PHJR,2017-04-01 04:55,-158.0703,21.3073,M,M,M,60.00,5.00,M,30.09,M,10.00,M,CLR,M,M,M,M,M,M,M,M,PHJR 010455Z AUTO 06005KT 10SM CLR A3009 RMK MADISHF
PHJR,2017-04-01 05:00,-158.0703,21.3073,M,M,M,50.00,5.00,M,30.09,M,10.00,M,CLR,M,M,M,M,M,M,M,M,PHJR 010500Z AUTO 05005KT 10SM CLR A3009 RMK MADISHF
PHJR,2017-04-01 05:05,-158.0703,21.3073,M,M,M,50.00,4.00,M,30.09,M,10.00,M,CLR,M,M,M,M,M,M,M,M,PHJR 010505Z AUTO 05004KT 10SM CLR A3009 RMK MADISHF
PHJR,2017-04-01 05:10,-158.0703,21.3073,M,M,M,50.00,4.00,M,30.09,M,10.00,M,CLR,M,M,M,M,M,M,M,M,PHJR 010510Z AUTO 05004KT 10SM CLR A3009 RMK MADISHF
PHJR,2017-04-01 05:15,-158.0703,21.3073,M,M,M,50.00,4.00,M,30.09,M,10.00,M,CLR,M,M,M,M,M,M,M,M,PHJR 010515Z AUTO 05004KT 10SM CLR A3009 RMK MADISHF
PHJR,2017-04-01 05:20,-158.0703,21.3073,M,M,M,50.00,4.00,M,30.10,M,10.00,M,CLR,M,M,M,M,M,M,M,M,PHJR 010520Z AUTO 05004KT 10SM CLR A3010 RMK MADISHF
PHJR,2017-04-01 05:25,-158.0703,21.3073,M,M,M,60.00,4.00,M,30.10,M,10.00,M,CLR,M,M,M,M,M,M,M,M,PHJR 010525Z AUTO 06004KT 10SM CLR A3010 RMK MADISHF
PHJR,2017-04-01 05:30,-158.0703,21.3073,M,M,M,50.00,4.00,M,30.10,M,10.00,M,CLR,M,M,M,M,M,M,M,M,PHJR 010530Z AUTO 05004KT 10SM CLR A3010 RMK MADISHF
PHJR,2017-04-01 05:35,-158.0703,21.3073,M,M,M,60.00,4.00,M,30.10,M,10.00,M,CLR,M,M,M,M,M,M,M,M,PHJR 010535Z AUTO 06004KT 10SM CLR A3010 RMK MADISHF
PHJR,2017-04-01 05:40,-158.0703,21.3073,M,M,M,70.00,4.00,M,30.10,M,10.00,M,FEW,M,M,M,200.00,M,M,M,M,PHJR 010540Z AUTO 07004KT 10SM FEW002 A3010 RMK MADISHF
PHJR,2017-04-01 05:44,-158.0703,21.3073,77.00,64.00,64.21,70.00,4.00,0.00,30.10,M,10.00,M,SCT,M,M,M,200.00,M,M,M,M,PHJR 010544Z 07004KT 10SM SCT002 25/18 A3010 RMK AO2 T02500178
PHJR,2017-04-01 05:45,-158.0703,21.3073,M,M,M,60.00,4.00,M,30.10,M,10.00,M,SCT,M,M,M,200.00,M,M,M,M,PHJR 010545Z AUTO 06004KT 10SM SCT002 A3010 RMK MADISHF
PHJR,2017-04-01 05:50,-158.0703,21.3073,M,M,M,70.00,4.00,M,30.11,M,10.00,M,FEW,M,M,M,300.00,M,M,M,M,PHJR 010550Z AUTO 07004KT 10SM FEW003 A3011 RMK MADISHF
PHJR,2017-04-01 05:53,-158.0703,21.3073,77.00,64.00,64.21,70.00,5.00,0.00,30.11,1020.20,10.00,M,FEW,M,M,M,300.00,M,M,M,M,PHJR 010553Z 07005KT 10SM FEW003 25/18 A3011 RMK AO2 SLP202 T02500178 10300 20250 53023
PHJR,2017-04-01 05:55,-158.0703,21.3073,M,M,M,60.00,4.00,M,30.11,M,10.00,M,FEW,M,M,M,300.00,M,M,M,M,PHJR 010555Z AUTO 06004KT 10SM FEW003 A3011 RMK MADISHF
PHJR,2017-04-01 06:00,-158.0703,21.3073,M,M,M,60.00,4.00,M,30.11,M,10.00,M,FEW,M,M,M,300.00,M,M,M,M,PHJR 010600Z AUTO 06004KT 10SM FEW003 A3011 RMK MADISHF
PHJR,2017-04-01 06:05,-158.0703,21.3073,M,M,M,60.00,4.00,M,30.11,M,10.00,M,FEW,M,M,M,300.00,M,M,M,M,PHJR 010605Z AUTO 06004KT 10SM FEW003 A3011 RMK MADISHF
PHJR,2017-04-01 06:10,-158.0703,21.3073,M,M,M,50.00,4.00,M,30.11,M,10.00,M,CLR,M,M,M,M,M,M,M,M,PHJR 010610Z AUTO 05004KT 10SM CLR A3011 RMK MADISHF
PHJR,2017-04-01 06:15,-158.0703,21.3073,M,M,M,50.00,4.00,M,30.12,M,10.00,M,CLR,M,M,M,M,M,M,M,M,PHJR 010615Z AUTO 05004KT 10SM CLR A3012 RMK MADISHF
PHJR,2017-04-01 06:20,-158.0703,21.3073,M,M,M,60.00,4.00,M,30.12,M,10.00,M,CLR,M,M,M,M,M,M,M,M,PHJR 010620Z AUTO 06004KT 10SM CLR A3012 RMK MADISHF
PHJR,2017-04-01 06:25,-158.0703,21.3073,M,M,M,60.00,3.00,M,30.12,M,10.00,M,CLR,M,M,M,M,M,M,M,M,PHJR 010625Z AUTO 06003KT 10SM CLR A3012 RMK MADISHF
PHJR,2017-04-01 06:30,-158.0703,21.3073,M,M,M,60.00,3.00,M,30.12,M,10.00,M,CLR,M,M,M,M,M,M,M,M,PHJR 010630Z AUTO 06003KT 10SM CLR A3012 RMK MADISHF
PHJR,2017-04-01 06:35,-158.0703,21.3073,M,M,M,60.00,4.00,M,30.12,M,10.00,M,CLR,M,M,M,M,M,M,M,M,PHJR 010635Z AUTO 06004KT 10SM CLR A3012 RMK MADISHF
PHJR,2017-04-01 06:40,-158.0703,21.3073,M,M,M,50.00,4.00,M,30.12,M,10.00,M,CLR,M,M,M,M,M,M,M,M,PHJR 010640Z AUTO 05004KT 10SM CLR A3012 RMK MADISHF
PHJR,2017-04-01 06:45,-158.0703,21.3073,M,M,M,40.00,3.00,M,30.13,M,10.00,M,CLR,M,M,M,M,M,M,M,M,PHJR 010645Z AUTO 04003KT 10SM CLR A3013 RMK MADISHF
PHJR,2017-04-01 06:50,-158.0703,21.3073,M,M,M,50.00,4.00,M,30.13,M,10.00,M,CLR,M,M,M,M,M,M,M,M,PHJR 010650Z AUTO 05004KT 10SM CLR A3013 RMK MADISHF
PHJR,2017-04-01 06:53,-158.0703,21.3073,75.00,64.00,68.64,40.00,4.00,0.00,30.13,1020.80,10.00,M,CLR,M,M,M,M,M,M,M,M,PHJR 010653Z 04004KT 10SM CLR 24/18 A3013 RMK AO2 SLP208 T02390178
PHJR,2017-04-01 06:55,-158.0703,21.3073,M,M,M,40.00,4.00,M,30.13,M,10.00,M,CLR,M,M,M,M,M,M,M,M,PHJR 010655Z AUTO 04004KT 10SM CLR A3013 RMK MADISHF
PHJR,2017-04-01 07:00,-158.0703,21.3073,M,M,M,40.00,5.00,M,30.13,M,10.00,M,CLR,M,M,M,M,M,M,M,M,PHJR 010700Z AUTO 04005KT 10SM CLR A3013 RMK MADISHF
PHJR,2017-04-01 07:05,-158.0703,21.3073,M,M,M,50.00,4.00,M,30.13,M,10.00,M,CLR,M,M,M,M,M,M,M,M,PHJR 010705Z AUTO 05004KT 10SM CLR A3013 RMK MADISHF
PHJR,2017-04-01 07:10,-158.0703,21.3073,M,M,M,50.00,5.00,M,30.13,M,10.00,M,CLR,M,M,M,M,M,M,M,M,PHJR 010710Z AUTO 05005KT 10SM CLR A3013 RMK MADISHF
PHJR,2017-04-01 07:15,-158.0703,21.3073,M,M,M,50.00,3.00,M,30.13,M,10.00,M,CLR,M,M,M,M,M,M,M,M,PHJR 010715Z AUTO 05003KT 10SM CLR A3013 RMK MADISHF
PHJR,2017-04-01 07:20,-158.0703,21.3073,M,M,M,50.00,5.00,M,30.13,M,10.00,M,CLR,M,M,M,M,M,M,M,M,PHJR 010720Z AUTO 05005KT 10SM CLR A3013 RMK MADISHF
PHJR,2017-04-01 07:25,-158.0703,21.3073,M,M,M,40.00,5.00,M,30.13,M,10.00,M,CLR,M,M,M,M,M,M,M,M,PHJR 010725Z AUTO 04005KT 10SM CLR A3013 RMK MADISHF
PHJR,2017-04-01 07:30,-158.0703,21.3073,M,M,M,40.00,4.00,M,30.14,M,10.00,M,CLR,M,M,M,M,M,M,M,M,PHJR 010730Z AUTO 04004KT 10SM CLR A3014 RMK MADISHF
PHJR,2017-04-01 07:35,-158.0703,21.3073,M,M,M,50.00,5.00,M,30.13,M,10.00,M,CLR,M,M,M,M,M,M,M,M,PHJR 010735Z AUTO 05005KT 10SM CLR A3013 RMK MADISHF
PHJR,2017-04-01 07:40,-158.0703,21.3073,M,M,M,60.00,5.00,M,30.14,M,10.00,M,CLR,M,M,M,M,M,M,M,M,PHJR 010740Z AUTO 06005KT 10SM CLR A3014 RMK MADISHF
PHJR,2017-04-01 07:45,-158.0703,21.3073,M,M,M,60.00,4.00,M,30.14,M,10.00,M,CLR,M,M,M,M,M,M,M,M,PHJR 010745Z AUTO 06004KT 10SM CLR A3014 RMK MADISHF
PHJR,2017-04-01 07:50,-158.0703,21.3073,M,M,M,50.00,6.00,M,30.14,M,10.00,M,CLR,M,M,M,M,M,M,M,M,PHJR 010750Z AUTO 05006KT 10SM CLR A3014 RMK MADISHF
PHJR,2017-04-01 07:53,-158.0703,21.3073,75.00,64.00,68.64,40.00,6.00,0.00,30.14,1021.20,10.00,M,CLR,M,M,M,M,M,M,M,M,PHJR 010753Z AUTO 04006KT 10SM CLR 24/18 A3014 RMK AO2 SLP212 T02390178 TSNO
PHJR,2017-04-01 07:55,-158.0703,21.3073,M,M,M,50.00,5.00,M,30.14,M,10.00,M,CLR,M,M,M,M,M,M,M,M,PHJR 010755Z AUTO 05005KT 10SM CLR A3014 RMK MADISHF
PHJR,2017-04-01 08:00,-158.0703,21.3073,M,M,M,40.00,4.00,M,30.14,M,10.00,M,CLR,M,M,M,M,M,M,M,M,PHJR 010800Z AUTO 04004KT 10SM CLR A3014 RMK MADISHF
PHJR,2017-04-01 08:05,-158.0703,21.3073,M,M,M,40.00,5.00,M,30.14,M,10.00,M,CLR,M,M,M,M,M,M,M,M,PHJR 010805Z AUTO 04005KT 10SM CLR A3014 RMK MADISHF
PHJR,2017-04-01 08:10,-158.0703,21.3073,M,M,M,50.00,4.00,M,30.14,M,10.00,M,CLR,M,M,M,M,M,M,M,M,PHJR 010810Z AUTO 05004KT 10SM CLR A3014 RMK MADISHF
PHJR,2017-04-01 08:15,-158.0703,21.3073,M,M,M,40.00,5.00,M,30.14,M,10.00,M,CLR,M,M,M,M,M,M,M,M,PHJR 010815Z AUTO 04005KT 10SM CLR A3014 RMK MADISHF
PHJR,2017-04-01 08:20,-158.0703,21.3073,M,M,M,50.00,5.00,M,30.14,M,10.00,M,CLR,M,M,M,M,M,M,M,M,PHJR 010820Z AUTO 05005KT 10SM CLR A3014 RMK MADISHF
PHJR,2017-04-01 08:25,-158.0703,21.3073,M,M,M,50.00,5.00,M,30.14,M,10.00,M,CLR,M,M,M,M,M,M,M,M,PHJR 010825Z AUTO 05005KT 10SM CLR A3014 RMK MADISHF
PHJR,2017-04-01 08:30,-158.0703,21.3073,M,M,M,60.00,4.00,M,30.14,M,10.00,M,CLR,M,M,M,M,M,M,M,M,PHJR 010830Z AUTO 06004KT 10SM CLR A3014 RMK MADISHF
PHJR,2017-04-01 08:35,-158.0703,21.3073,M,M,M,60.00,4.00,M,30.14,M,10.00,M,CLR,M,M,M,M,M,M,M,M,PHJR 010835Z AUTO 06004KT 10SM CLR A3014 RMK MADISHF
PHJR,2017-04-01 08:40,-158.0703,21.3073,M,M,M,50.00,6.00,M,30.14,M,10.00,M,CLR,M,M,M,M,M,M,M,M,PHJR 010840Z AUTO 05006KT 10SM CLR A3014 RMK MADISHF
PHJR,2017-04-01 08:45,-158.0703,21.3073,M,M,M,60.00,4.00,M,30.14,M,10.00,M,CLR,M,M,M,M,M,M,M,M,PHJR 010845Z AUTO 06004KT 10SM CLR A3014 RMK MADISHF
PHJR,2017-04-01 08:50,-158.0703,21.3073,M,M,M,50.00,4.00,M,30.14,M,10.00,M,CLR,M,M,M,M,M,M,M,M,PHJR 010850Z AUTO 05004KT 10SM CLR A3014 RMK MADISHF
PHJR,2017-04-01 08:53,-158.0703,21.3073,73.90,64.00,71.21,50.00,5.00,0.00,30.14,1021.20,10.00,M,CLR,M,M,M,M,M,M,M,M,PHJR 010853Z AUTO 05005KT 10SM CLR 23/18 A3014 RMK AO2 SLP212 T02330178 51011 TSNO
PHJR,2017-04-01 08:55,-158.0703,21.3073,M,M,M,60.00,5.00,M,30.14,M,10.00,M,CLR,M,M,M,M,M,M,M,M,PHJR 010855Z AUTO 06005KT 10SM CLR A3014 RMK MADISHF
PHJR,2017-04-01 09:00,-158.0703,21.3073,M,M,M,60.00,5.00,M,30.14,M,10.00,M,FEW,M,M,M,7999.00,M,M,M,M,PHJR 010900Z AUTO 06005KT 10SM FEW079 A3014 RMK MADISHF
PHJR,2017-04-01 09:05,-158.0703,21.3073,M,M,M,40.00,5.00,M,30.14,M,10.00,M,FEW,M,M,M,7999.00,M,M,M,M,PHJR 010905Z AUTO 04005KT 10SM FEW079 A3014 RMK MADISHF
PHJR,2017-04-01 09:10,-158.0703,21.3073,M,M,M,50.00,6.00,M,30.14,M,10.00,M,FEW,M,M,M,7999.00,M,M,M,M,PHJR 010910Z AUTO 05006KT 10SM FEW079 A3014 RMK MADISHF
PHJR,2017-04-01 09:15,-158.0703,21.3073,M,M,M,60.00,4.00,M,30.14,M,10.00,M,FEW,M,M,M,7999.00,M,M,M,M,PHJR 010915Z AUTO 06004KT 10SM FEW079 A3014 RMK MADISHF
PHJR,2017-04-01 09:20,-158.0703,21.3073,M,M,M,60.00,5.00,M,30.14,M,10.00,M,FEW,M,M,M,7999.00,M,M,M,M,PHJR 010920Z AUTO 06005KT 10SM FEW079 A3014 RMK MADISHF
PHJR,2017-04-01 09:25,-158.0703,21.3073,M,M,M,50.00,5.00,M,30.14,M,10.00,M,FEW,M,M,M,7999.00,M,M,M,M,PHJR 010925Z AUTO 05005KT 10SM FEW079 A3014 RMK MADISHF
PHJR,2017-04-01 09:30,-158.0703,21.3073,M,M,M,50.00,4.00,M,30.14,M,10.00,M,FEW,M,M,M,7500.00,M,M,M,M,PHJR 010930Z AUTO 05004KT 10SM FEW075 A3014 RMK MADISHF
PHJR,2017-04-01 09:35,-158.0703,21.3073,M,M,M,50.00,5.00,M,30.14,M,10.00,M,FEW,M,M,M,7500.00,M,M,M,M,PHJR 010935Z AUTO 05005KT 10SM FEW075 A3014 RMK MADISHF
PHJR,2017-04-01 09:40,-158.0703,21.3073,M,M,M,50.00,5.00,M,30.14,M,10.00,M,FEW,M,M,M,7500.00,M,M,M,M,PHJR 010940Z AUTO 05005KT 10SM FEW075 A3014 RMK MADISHF
PHJR,2017-04-01 09:45,-158.0703,21.3073,M,M,M,50.00,4.00,M,30.14,M,10.00,M,SCT,M,M,M,7500.00,M,M,M,M,PHJR 010945Z AUTO 05004KT 10SM SCT075 A3014 RMK MADISHF
PHJR,2017-04-01 09:50,-158.0703,21.3073,M,M,M,60.00,4.00,M,30.14,M,10.00,M,SCT,M,M,M,7500.00,M,M,M,M,PHJR 010950Z AUTO 06004KT 10SM SCT075 A3014 RMK MADISHF
PHJR,2017-04-01 09:53,-158.0703,21.3073,73.90,64.90,73.49,60.00,4.00,0.00,30.14,1021.20,10.00,M,SCT,M,M,M,7500.00,M,M,M,M,PHJR 010953Z AUTO 06004KT 10SM SCT075 23/18 A3014 RMK AO2 SLP212 T02330183 403170217 TSNO
PHJR,2017-04-01 09:55,-158.0703,21.3073,M,M,M,60.00,4.00,M,30.14,M,10.00,M,SCT,M,M,M,7500.00,M,M,M,M,PHJR 010955Z AUTO 06004KT 10SM SCT075 A3014 RMK MADISHF
PHJR,2017-04-01 10:00,-158.0703,21.3073,M,M,M,60.00,4.00,M,30.14,M,10.00,M,BKN,M,M,M,7000.00,M,M,M,M,PHJR 011000Z AUTO 06004KT 10SM BKN070 A3014 RMK MADISHF
PHJR,2017-04-01 10:05,-158.0703,21.3073,M,M,M,50.00,4.00,M,30.14,M,10.00,M,FEW,BKN,M,M,4200.00,7000.00,M,M,M,PHJR 011005Z AUTO 05004KT 10SM FEW042 BKN070 A3014 RMK MADISHF
PHJR,2017-04-01 10:10,-158.0703,21.3073,M,M,M,60.00,5.00,M,30.14,M,10.00,M,FEW,BKN,M,M,4400.00,7000.00,M,M,M,PHJR 011010Z AUTO 06005KT 10SM FEW044 BKN070 A3014 RMK MADISHF
PHJR,2017-04-01 10:15,-158.0703,21.3073,M,M,M,60.00,3.00,M,30.13,M,10.00,M,FEW,OVC,M,M,4400.00,7000.00,M,M,M,PHJR 011015Z AUTO 06003KT 10SM FEW044 OVC070 A3013 RMK MADISHF
PHJR,2017-04-01 10:20,-158.0703,21.3073,M,M,M,0.00,0.00,M,30.13,M,10.00,M,FEW,OVC,M,M,4400.00,6500.00,M,M,M,PHJR 011020Z AUTO 00000KT 10SM FEW044 OVC065 A3013 RMK MADISHF
PHJR,2017-04-01 10:25,-158.0703,21.3073,M,M,M,0.00,0.00,M,30.13,M,10.00,M,FEW,OVC,M,M,4400.00,6500.00,M,M,M,PHJR 011025Z AUTO 00000KT 10SM FEW044 OVC065 A3013 RMK MADISHF
PHJR,2017-04-01 10:30,-158.0703,21.3073,M,M,M,60.00,3.00,M,30.13,M,10.00,M,BKN,OVC,M,M,6500.00,7500.00,M,M,M,PHJR 011030Z AUTO 06003KT 10SM BKN065 OVC075 A3013 RMK MADISHF
PHJR,2017-04-01 10:35,-158.0703,21.3073,M,M,M,60.00,4.00,M,30.13,M,10.00,M,SCT,OVC,M,M,5500.00,7000.00,M,M,M,PHJR 011035Z AUTO 06004KT 10SM SCT055 OVC070 A3013 RMK MADISHF
PHJR,2017-04-01 10:40,-158.0703,21.3073,M,M,M,70.00,3.00,M,30.13,M,10.00,M,BKN,OVC,M,M,6000.00,7500.00,M,M,M,PHJR 011040Z AUTO 07003KT 10SM BKN060 OVC075 A3013 RMK MADISHF
PHJR,2017-04-01 10:45,-158.0703,21.3073,M,M,M,60.00,4.00,M,30.13,M,10.00,M,BKN,OVC,M,M,6000.00,7500.00,M,M,M,PHJR 011045Z AUTO 06004KT 10SM BKN060 OVC075 A3013 RMK MADISHF
PHJR,2017-04-01 10:50,-158.0703,21.3073,M,M,M,60.00,4.00,M,30.13,M,10.00,M,OVC,M,M,M,7000.00,M,M,M,M,PHJR 011050Z AUTO 06004KT 10SM OVC070 A3013 RMK MADISHF
PHJR,2017-04-01 10:53,-158.0703,21.3073,75.00,64.90,70.83,70.00,3.00,0.00,30.13,1020.90,10.00,M,BKN,M,M,M,7000.00,M,M,M,M,PHJR 011053Z AUTO 07003KT 10SM BKN070 24/18 A3013 RMK AO2 SLP209 T02390183 TSNO
PHJR,2017-04-01 10:55,-158.0703,21.3073,M,M,M,60.00,3.00,M,30.13,M,10.00,M,BKN,M,M,M,7000.00,M,M,M,M,PHJR 011055Z AUTO 06003KT 10SM BKN070 A3013 RMK MADISHF
PHJR,2017-04-01 11:00,-158.0703,21.3073,M,M,M,60.00,4.00,M,30.13,M,10.00,M,FEW,SCT,M,M,6000.00,7500.00,M,M,M,PHJR 011100Z AUTO 06004KT 10SM FEW060 SCT075 A3013 RMK MADISHF
PHJR,2017-04-01 11:05,-158.0703,21.3073,M,M,M,50.00,3.00,M,30.13,M,10.00,M,FEW,SCT,M,M,6000.00,7500.00,M,M,M,PHJR 011105Z AUTO 05003KT 10SM FEW060 SCT075 A3013 RMK MADISHF
PHJR,2017-04-01 11:10,-158.0703,21.3073,M,M,M,50.00,4.00,M,30.13,M,10.00,M,FEW,SCT,M,M,5500.00,7500.00,M,M,M,PHJR 011110Z AUTO 05004KT 10SM FEW055 SCT075 A3013 RMK MADISHF
PHJR,2017-04-01 11:15,-158.0703,21.3073,M,M,M,60.00,3.00,M,30.13,M,10.00,M,FEW,FEW,M,M,5000.00,7500.00,M,M,M,PHJR 011115Z AUTO 06003KT 10SM FEW050 FEW075 A3013 RMK MADISHF
PHJR,2017-04-01 11:20,-158.0703,21.3073,M,M,M,30.00,4.00,M,30.13,M,10.00,M,CLR,M,M,M,M,M,M,M,M,PHJR 011120Z AUTO 03004KT 10SM CLR A3013 RMK MADISHF
PHJR,2017-04-01 11:25,-158.0703,21.3073,M,M,M,40.00,4.00,M,30.13,M,10.00,M,FEW,M,M,M,5500.00,M,M,M,M,PHJR 011125Z AUTO 04004KT 10SM FEW055 A3013 RMK MADISHF
PHJR,2017-04-01 11:30,-158.0703,21.3073,M,M,M,40.00,4.00,M,30.12,M,10.00,M,FEW,M,M,M,5500.00,M,M,M,M,PHJR 011130Z AUTO 04004KT 10SM FEW055 A3012 RMK MADISHF
PHJR,2017-04-01 11:35,-158.0703,21.3073,M,M,M,50.00,3.00,M,30.12,M,10.00,M,FEW,M,M,M,5500.00,M,M,M,M,PHJR 011135Z AUTO 05003KT 10SM FEW055 A3012 RMK MADISHF
PHJR,2017-04-01 11:40,-158.0703,21.3073,M,M,M,50.00,4.00,M,30.12,M,10.00,M,FEW,M,M,M,6000.00,M,M,M,M,PHJR 011140Z AUTO 05004KT 10SM FEW060 A3012 RMK MADISHF
PHJR,2017-04-01 11:45,-158.0703,21.3073,M,M,M,50.00,4.00,M,30.12,M,10.00,M,FEW,M,M,M,6000.00,M,M,M,M,PHJR 011145Z AUTO 05004KT 10SM FEW060 A3012 RMK MADISHF
PHJR,2017-04-01 11:50,-158.0703,21.3073,M,M,M,40.00,5.00,M,30.12,M,10.00,M,CLR,M,M,M,M,M,M,M,M,PHJR 011150Z AUTO 04005KT 10SM CLR A3012 RMK MADISHF
PHJR,2017-04-01 11:53,-158.0703,21.3073,73.90,64.90,73.49,50.00,4.00,0.00,30.12,1020.40,10.00,M,CLR,M,M,M,M,M,M,M,M,PHJR 011153Z AUTO 05004KT 10SM CLR 23/18 A3012 RMK AO2 SLP204 T02330183 10250 20228 58008 TSNO
PHJR,2017-04-01 11:55,-158.0703,21.3073,M,M,M,50.00,4.00,M,30.12,M,10.00,M,CLR,M,M,M,M,M,M,M,M,PHJR 011155Z AUTO 05004KT 10SM CLR A3012 RMK MADISHF
PHJR,2017-04-01 12:00,-158.0703,21.3073,M,M,M,40.00,4.00,M,30.11,M,10.00,M,CLR,M,M,M,M,M,M,M,M,PHJR 011200Z AUTO 04004KT 10SM CLR A3011 RMK MADISHF
PHJR,2017-04-01 12:05,-158.0703,21.3073,M,M,M,40.00,4.00,M,30.11,M,10.00,M,CLR,M,M,M,M,M,M,M,M,PHJR 011205Z AUTO 04004KT 10SM CLR A3011 RMK MADISHF
PHJR,2017-04-01 12:10,-158.0703,21.3073,M,M,M,40.00,5.00,M,30.11,M,10.00,M,CLR,M,M,M,M,M,M,M,M,PHJR 011210Z AUTO 04005KT 10SM CLR A3011 RMK MADISHF
PHJR,2017-04-01 12:15,-158.0703,21.3073,M,M,M,40.00,4.00,M,30.11,M,10.00,M,CLR,M,M,M,M,M,M,M,M,PHJR 011215Z AUTO 04004KT 10SM CLR A3011 RMK MADISHF
PHJR,2017-04-01 12:20,-158.0703,21.3073,M,M,M,40.00,4.00,M,30.11,M,10.00,M,CLR,M,M,M,M,M,M,M,M,PHJR 011220Z AUTO 04004KT 10SM CLR A3011 RMK MADISHF
PHJR,2017-04-01 12:25,-158.0703,21.3073,M,M,M,40.00,5.00,M,30.11,M,10.00,M,CLR,M,M,M,M,M,M,M,M,PHJR 011225Z AUTO 04005KT 10SM CLR A3011 RMK MADISHF
PHJR,2017-04-01 12:30,-158.0703,21.3073,M,M,M,50.00,6.00,M,30.11,M,10.00,M,CLR,M,M,M,M,M,M,M,M,PHJR 011230Z AUTO 05006KT 10SM CLR A3011 RMK MADISHF
PHJR,2017-04-01 12:35,-158.0703,21.3073,M,M,M,60.00,4.00,M,30.10,M,10.00,M,CLR,M,M,M,M,M,M,M,M,PHJR 011235Z AUTO 06004KT 10SM CLR A3010 RMK MADISHF
PHJR,2017-04-01 12:40,-158.0703,21.3073,M,M,M,60.00,5.00,M,30.10,M,10.00,M,CLR,M,M,M,M,M,M,M,M,PHJR 011240Z AUTO 06005KT 10SM CLR A3010 RMK MADISHF
PHJR,2017-04-01 12:45,-158.0703,21.3073,M,M,M,50.00,4.00,M,30.10,M,10.00,M,CLR,M,M,M,M,M,M,M,M,PHJR 011245Z AUTO 05004KT 10SM CLR A3010 RMK MADISHF
PHJR,2017-04-01 12:50,-158.0703,21.3073,M,M,M,50.00,4.00,M,30.10,M,10.00,M,CLR,M,M,M,M,M,M,M,M,PHJR 011250Z AUTO 05004KT 10SM CLR A3010 RMK MADISHF
PHJR,2017-04-01 12:53,-158.0703,21.3073,73.90,64.90,73.49,40.00,5.00,0.00,30.10,1019.90,10.00,M,FEW,M,M,M,3800.00,M,M,M,M,PHJR 011253Z AUTO 04005KT 10SM FEW038 23/18 A3010 RMK AO2 SLP199 T02330183 TSNO
PHJR,2017-04-01 12:55,-158.0703,21.3073,M,M,M,40.00,4.00,M,30.10,M,10.00,M,FEW,M,M,M,3800.00,M,M,M,M,PHJR 011255Z AUTO 04004KT 10SM FEW038 A3010 RMK MADISHF
PHJR,2017-04-01 13:00,-158.0703,21.3073,M,M,M,60.00,4.00,M,30.10,M,10.00,M,FEW,M,M,M,3800.00,M,M,M,M,PHJR 011300Z AUTO 06004KT 10SM FEW038 A3010 RMK MADISHF
PHJR,2017-04-01 13:05,-158.0703,21.3073,M,M,M,60.00,4.00,M,30.10,M,10.00,M,FEW,M,M,M,3800.00,M,M,M,M,PHJR 011305Z AUTO 06004KT 10SM FEW038 A3010 RMK MADISHF
PHJR,2017-04-01 13:10,-158.0703,21.3073,M,M,M,60.00,3.00,M,30.10,M,10.00,M,FEW,M,M,M,3900.00,M,M,M,M,PHJR 011310Z AUTO 06003KT 10SM FEW039 A3010 RMK MADISHF
PHJR,2017-04-01 13:15,-158.0703,21.3073,M,M,M,50.00,4.00,M,30.10,M,10.00,M,FEW,M,M,M,3900.00,M,M,M,M,PHJR 011315Z AUTO 05004KT 10SM FEW039 A3010 RMK MADISHF
PHJR,2017-04-01 13:20,-158.0703,21.3073,M,M,M,60.00,4.00,M,30.10,M,10.00,M,FEW,M,M,M,3900.00,M,M,M,M,PHJR 011320Z AUTO 06004KT 10SM FEW039 A3010 RMK MADISHF
PHJR,2017-04-01 13:25,-158.0703,21.3073,M,M,M,60.00,5.00,M,30.10,M,10.00,M,CLR,M,M,M,M,M,M,M,M,PHJR 011325Z AUTO 06005KT 10SM CLR A3010 RMK MADISHF
PHJR,2017-04-01 13:30,-158.0703,21.3073,M,M,M,50.00,5.00,M,30.10,M,10.00,M,CLR,M,M,M,M,M,M,M,M,PHJR 011330Z AUTO 05005KT 10SM CLR A3010 RMK MADISHF
PHJR,2017-04-01 13:35,-158.0703,21.3073,M,M,M,60.00,5.00,M,30.10,M,10.00,M,CLR,M,M,M,M,M,M,M,M,PHJR 011335Z AUTO 06005KT 10SM CLR A3010 RMK MADISHF
PHJR,2017-04-01 13:40,-158.0703,21.3073,M,M,M,50.00,5.00,M,30.10,M,10.00,M,CLR,M,M,M,M,M,M,M,M,PHJR 011340Z AUTO 05005KT 10SM CLR A3010 RMK MADISHF
PHJR,2017-04-01 13:45,-158.0703,21.3073,M,M,M,50.00,6.00,M,30.10,M,10.00,M,CLR,M,M,M,M,M,M,M,M,PHJR 011345Z AUTO 05006KT 10SM CLR A3010 RMK MADISHF
PHJR,2017-04-01 13:50,-158.0703,21.3073,M,M,M,60.00,4.00,M,30.10,M,10.00,M,CLR,M,M,M,M,M,M,M,M,PHJR 011350Z AUTO 06004KT 10SM CLR A3010 RMK MADISHF
PHJR,2017-04-01 13:53,-158.0703,21.3073,73.90,64.00,71.21,60.00,5.00,0.00,30.09,1019.70,10.00,M,CLR,M,M,M,M,M,M,M,M,PHJR 011353Z AUTO 06005KT 10SM CLR 23/18 A3009 RMK AO2 SLP197 T02330178 TSNO
PHJR,2017-04-01 13:55,-158.0703,21.3073,M,M,M,50.00,6.00,M,30.09,M,10.00,M,CLR,M,M,M,M,M,M,M,M,PHJR 011355Z AUTO 05006KT 10SM CLR A3009 RMK MADISHF
PHJR,2017-04-01 14:00,-158.0703,21.3073,M,M,M,60.00,6.00,M,30.09,M,10.00,M,CLR,M,M,M,M,M,M,M,M,PHJR 011400Z AUTO 06006KT 10SM CLR A3009 RMK MADISHF
PHJR,2017-04-01 14:05,-158.0703,21.3073,M,M,M,60.00,6.00,M,30.09,M,10.00,M,CLR,M,M,M,M,M,M,M,M,PHJR 011405Z AUTO 06006KT 10SM CLR A3009 RMK MADISHF
PHJR,2017-04-01 14:10,-158.0703,21.3073,M,M,M,50.00,4.00,M,30.09,M,10.00,M,CLR,M,M,M,M,M,M,M,M,PHJR 011410Z AUTO 05004KT 10SM CLR A3009 RMK MADISHF
PHJR,2017-04-01 14:15,-158.0703,21.3073,M,M,M,60.00,5.00,M,30.10,M,10.00,M,CLR,M,M,M,M,M,M,M,M,PHJR 011415Z AUTO 06005KT 10SM CLR A3010 RMK MADISHF
PHJR,2017-04-01 14:20,-158.0703,21.3073,M,M,M,60.00,4.00,M,30.10,M,10.00,M,CLR,M,M,M,M,M,M,M,M,PHJR 011420Z AUTO 06004KT 10SM CLR A3010 RMK MADISHF
PHJR,2017-04-01 14:25,-158.0703,21.3073,M,M,M,60.00,4.00,M,30.10,M,10.00,M,CLR,M,M,M,M,M,M,M,M,PHJR 011425Z AUTO 06004KT 10SM CLR A3010 RMK MADISHF
PHJR,2017-04-01 14:30,-158.0703,21.3073,M,M,M,60.00,4.00,M,30.09,M,10.00,M,CLR,M,M,M,M,M,M,M,M,PHJR 011430Z AUTO 06004KT 10SM CLR A3009 RMK MADISHF
PHJR,2017-04-01 14:35,-158.0703,21.3073,M,M,M,50.00,4.00,M,30.10,M,10.00,M,CLR,M,M,M,M,M,M,M,M,PHJR 011435Z AUTO 05004KT 10SM CLR A3010 RMK MADISHF
PHJR,2017-04-01 14:40,-158.0703,21.3073,M,M,M,60.00,5.00,M,30.10,M,10.00,M,CLR,M,M,M,M,M,M,M,M,PHJR 011440Z AUTO 06005KT 10SM CLR A3010 RMK MADISHF
PHJR,2017-04-01 14:45,-158.0703,21.3073,M,M,M,60.00,4.00,M,30.10,M,10.00,M,CLR,M,M,M,M,M,M,M,M,PHJR 011445Z AUTO 06004KT 10SM CLR A3010 RMK MADISHF
PHJR,2017-04-01 14:50,-158.0703,21.3073,M,M,M,60.00,5.00,M,30.10,M,10.00,M,CLR,M,M,M,M,M,M,M,M,PHJR 011450Z AUTO 06005KT 10SM CLR A3010 RMK MADISHF
PHJR,2017-04-01 14:53,-158.0703,21.3073,73.00,63.00,70.87,60.00,4.00,0.00,30.10,1019.80,10.00,M,CLR,M,M,M,M,M,M,M,M,PHJR 011453Z AUTO 06004KT 10SM CLR 23/17 A3010 RMK AO2 SLP198 T02280172 55006 TSNO
PHJR,2017-04-01 14:55,-158.0703,21.3073,M,M,M,70.00,4.00,M,30.10,M,10.00,M,CLR,M,M,M,M,M,M,M,M,PHJR 011455Z AUTO 07004KT 10SM CLR A3010 RMK MADISHF
PHJR,2017-04-01 15:00,-158.0703,21.3073,M,M,M,70.00,4.00,M,30.10,M,10.00,M,CLR,M,M,M,M,M,M,M,M,PHJR 011500Z AUTO 07004KT 10SM CLR A3010 RMK MADISHF
PHJR,2017-04-01 15:05,-158.0703,21.3073,M,M,M,60.00,4.00,M,30.10,M,10.00,M,CLR,M,M,M,M,M,M,M,M,PHJR 011505Z AUTO 06004KT 10SM CLR A3010 RMK MADISHF
PHJR,2017-04-01 15:10,-158.0703,21.3073,M,M,M,60.00,4.00,M,30.10,M,10.00,M,CLR,M,M,M,M,M,M,M,M,PHJR 011510Z AUTO 06004KT 10SM CLR A3010 RMK MADISHF
PHJR,2017-04-01 15:15,-158.0703,21.3073,M,M,M,60.00,4.00,M,30.10,M,10.00,M,CLR,M,M,M,M,M,M,M,M,PHJR 011515Z AUTO 06004KT 10SM CLR A3010 RMK MADISHF
PHJR,2017-04-01 15:20,-158.0703,21.3073,M,M,M,70.00,5.00,M,30.10,M,10.00,M,CLR,M,M,M,M,M,M,M,M,PHJR 011520Z AUTO 07005KT 10SM CLR A3010 RMK MADISHF
PHJR,2017-04-01 15:25,-158.0703,21.3073,M,M,M,60.00,5.00,M,30.11,M,10.00,M,CLR,M,M,M,M,M,M,M,M,PHJR 011525Z AUTO 06005KT 10SM CLR A3011 RMK MADISHF
PHJR,2017-04-01 15:30,-158.0703,21.3073,M,M,M,60.00,4.00,M,30.11,M,10.00,M,CLR,M,M,M,M,M,M,M,M,PHJR 011530Z AUTO 06004KT 10SM CLR A3011 RMK MADISHF
PHJR,2017-04-01 15:35,-158.0703,21.3073,M,M,M,60.00,5.00,M,30.11,M,10.00,M,CLR,M,M,M,M,M,M,M,M,PHJR 011535Z AUTO 06005KT 10SM CLR A3011 RMK MADISHF
PHJR,2017-04-01 15:40,-158.0703,21.3073,M,M,M,50.00,5.00,M,30.11,M,10.00,M,CLR,M,M,M,M,M,M,M,M,PHJR 011540Z AUTO 05005KT 10SM CLR A3011 RMK MADISHF
PHJR,2017-04-01 15:45,-158.0703,21.3073,M,M,M,60.00,5.00,M,30.11,M,10.00,M,CLR,M,M,M,M,M,M,M,M,PHJR 011545Z AUTO 06005KT 10SM CLR A3011 RMK MADISHF
PHJR,2017-04-01 15:50,-158.0703,21.3073,M,M,M,60.00,5.00,M,30.11,M,10.00,M,CLR,M,M,M,M,M,M,M,M,PHJR 011550Z AUTO 06005KT 10SM CLR A3011 RMK MADISHF
PHJR,2017-04-01 15:53,-158.0703,21.3073,73.00,63.00,70.87,50.00,5.00,0.00,30.11,1020.30,10.00,M,CLR,M,M,M,M,M,M,M,M,PHJR 011553Z 05005KT 10SM CLR 23/17 A3011 RMK AO2 SLP203 T02280172
PHJR,2017-04-01 15:55,-158.0703,21.3073,M,M,M,50.00,5.00,M,30.11,M,10.00,M,CLR,M,M,M,M,M,M,M,M,PHJR 011555Z AUTO 05005KT 10SM CLR A3011 RMK MADISHF
PHJR,2017-04-01 16:00,-158.0703,21.3073,M,M,M,50.00,3.00,M,30.11,M,10.00,M,CLR,M,M,M,M,M,M,M,M,PHJR 011600Z AUTO 05003KT 10SM CLR A3011 RMK MADISHF
PHJR,2017-04-01 16:05,-158.0703,21.3073,M,M,M,50.00,4.00,M,30.11,M,10.00,M,CLR,M,M,M,M,M,M,M,M,PHJR 011605Z AUTO 05004KT 10SM CLR A3011 RMK MADISHF
PHJR,2017-04-01 16:10,-158.0703,21.3073,M,M,M,50.00,3.00,M,30.11,M,10.00,M,CLR,M,M,M,M,M,M,M,M,PHJR 011610Z AUTO 05003KT 10SM CLR A3011 RMK MADISHF
PHJR,2017-04-01 16:15,-158.0703,21.3073,M,M,M,50.00,4.00,M,30.12,M,10.00,M,CLR,M,M,M,M,M,M,M,M,PHJR 011615Z AUTO 05004KT 10SM CLR A3012 RMK MADISHF
PHJR,2017-04-01 16:20,-158.0703,21.3073,M,M,M,40.00,3.00,M,30.12,M,10.00,M,CLR,M,M,M,M,M,M,M,M,PHJR 011620Z AUTO 04003KT 10SM CLR A3012 RMK MADISHF
PHJR,2017-04-01 16:25,-158.0703,21.3073,M,M,M,40.00,4.00,M,30.12,M,10.00,M,CLR,M,M,M,M,M,M,M,M,PHJR 011625Z AUTO 04004KT 10SM CLR A3012 RMK MADISHF
PHJR,2017-04-01 16:30,-158.0703,21.3073,M,M,M,40.00,4.00,M,30.12,M,10.00,M,CLR,M,M,M,M,M,M,M,M,PHJR 011630Z AUTO 04004KT 10SM CLR A3012 RMK MADISHF
PHJR,2017-04-01 16:35,-158.0703,21.3073,M,M,M,50.00,4.00,M,30.12,M,10.00,M,CLR,M,M,M,M,M,M,M,M,PHJR 011635Z AUTO 05004KT 10SM CLR A3012 RMK MADISHF
PHJR,2017-04-01 16:40,-158.0703,21.3073,M,M,M,50.00,4.00,M,30.12,M,10.00,M,CLR,M,M,M,M,M,M,M,M,PHJR 011640Z AUTO 05004KT 10SM CLR A3012 RMK MADISHF
PHJR,2017-04-01 16:45,-158.0703,21.3073,M,M,M,50.00,4.00,M,30.12,M,10.00,M,CLR,M,M,M,M,M,M,M,M,PHJR 011645Z AUTO 05004KT 10SM CLR A3012 RMK MADISHF
PHJR,2017-04-01 16:50,-158.0703,21.3073,M,M,M,50.00,4.00,M,30.12,M,10.00,M,CLR,M,M,M,M,M,M,M,M,PHJR 011650Z AUTO 05004KT 10SM CLR A3012 RMK MADISHF
PHJR,2017-04-01 16:53,-158.0703,21.3073,72.00,63.00,73.31,50.00,5.00,0.00,30.12,1020.60,10.00,M,CLR,M,M,M,M,M,M,M,M,PHJR 011653Z 05005KT 10SM CLR 22/17 A3012 RMK AO2 SLP206 T02220172
PHJR,2017-04-01 16:55,-158.0703,21.3073,M,M,M,60.00,4.00,M,30.12,M,10.00,M,CLR,M,M,M,M,M,M,M,M,PHJR 011655Z AUTO 06004KT 10SM CLR A3012 RMK MADISHF
PHJR,2017-04-01 17:00,-158.0703,21.3073,M,M,M,40.00,4.00,M,30.12,M,10.00,M,CLR,M,M,M,M,M,M,M,M,PHJR 011700Z AUTO 04004KT 10SM CLR A3012 RMK MADISHF
PHJR,2017-04-01 17:05,-158.0703,21.3073,M,M,M,50.00,5.00,M,30.12,M,10.00,M,CLR,M,M,M,M,M,M,M,M,PHJR 011705Z AUTO 05005KT 10SM CLR A3012 RMK MADISHF
PHJR,2017-04-01 17:10,-158.0703,21.3073,M,M,M,60.00,4.00,M,30.12,M,10.00,M,CLR,M,M,M,M,M,M,M,M,PHJR 011710Z AUTO 06004KT 10SM CLR A3012 RMK MADISHF
PHJR,2017-04-01 17:15,-158.0703,21.3073,M,M,M,50.00,4.00,M,30.12,M,10.00,M,CLR,M,M,M,M,M,M,M,M,PHJR 011715Z AUTO 05004KT 10SM CLR A3012 RMK MADISHF
PHJR,2017-04-01 17:20,-158.0703,21.3073,M,M,M,60.00,4.00,M,30.12,M,10.00,M,CLR,M,M,M,M,M,M,M,M,PHJR 011720Z AUTO 06004KT 10SM CLR A3012 RMK MADISHF
PHJR,2017-04-01 17:25,-158.0703,21.3073,M,M,M,60.00,4.00,M,30.12,M,10.00,M,CLR,M,M,M,M,M,M,M,M,PHJR 011725Z AUTO 06004KT 10SM CLR A3012 RMK MADISHF
PHJR,2017-04-01 17:30,-158.0703,21.3073,M,M,M,50.00,4.00,M,30.13,M,10.00,M,CLR,M,M,M,M,M,M,M,M,PHJR 011730Z AUTO 05004KT 10SM CLR A3013 RMK MADISHF
PHJR,2017-04-01 17:35,-158.0703,21.3073,M,M,M,60.00,4.00,M,30.13,M,10.00,M,CLR,M,M,M,M,M,M,M,M,PHJR 011735Z AUTO 06004KT 10SM CLR A3013 RMK MADISHF
PHJR,2017-04-01 17:40,-158.0703,21.3073,M,M,M,40.00,6.00,M,30.13,M,10.00,M,CLR,M,M,M,M,M,M,M,M,PHJR 011740Z AUTO 04006KT 10SM CLR A3013 RMK MADISHF
PHJR,2017-04-01 17:45,-158.0703,21.3073,M,M,M,50.00,4.00,M,30.13,M,10.00,M,CLR,M,M,M,M,M,M,M,M,PHJR 011745Z AUTO 05004KT 10SM CLR A3013 RMK VRB04KT  MADISHF
PHJR,2017-04-01 17:50,-158.0703,21.3073,M,M,M,60.00,4.00,M,30.13,M,10.00,M,CLR,M,M,M,M,M,M,M,M,PHJR 011750Z AUTO 06004KT 10SM CLR A3013 RMK MADISHF
PHJR,2017-04-01 17:53,-158.0703,21.3073,78.10,64.90,63.90,50.00,5.00,0.00,30.13,1020.90,10.00,M,CLR,M,M,M,M,M,M,M,M,PHJR 011753Z 05005KT 10SM CLR 26/18 A3013 RMK AO2 SLP209 T02560183 10256 20217 51012
PHJR,2017-04-01 17:55,-158.0703,21.3073,M,M,M,40.00,6.00,M,30.13,M,10.00,M,CLR,M,M,M,M,M,M,M,M,PHJR 011755Z AUTO 04006KT 10SM CLR A3013 RMK MADISHF
PHJR,2017-04-01 18:00,-158.0703,21.3073,M,M,M,60.00,3.00,M,30.13,M,10.00,M,CLR,M,M,M,M,M,M,M,M,PHJR 011800Z AUTO 06003KT 10SM CLR A3013 RMK VRB03KT  MADISHF
PHJR,2017-04-01 18:05,-158.0703,21.3073,M,M,M,60.00,6.00,M,30.13,M,10.00,M,CLR,M,M,M,M,M,M,M,M,PHJR 011805Z AUTO 06006KT 10SM CLR A3013 RMK MADISHF
PHJR,2017-04-01 18:10,-158.0703,21.3073,M,M,M,50.00,8.00,M,30.13,M,10.00,M,CLR,M,M,M,M,M,M,M,M,PHJR 011810Z AUTO 05008KT 10SM CLR A3013 RMK WND 01V09  MADISHF
PHJR,2017-04-01 18:15,-158.0703,21.3073,M,M,M,60.00,8.00,M,30.13,M,10.00,M,CLR,M,M,M,M,M,M,M,M,PHJR 011815Z AUTO 06008KT 10SM CLR A3013 RMK MADISHF
PHJR,2017-04-01 18:20,-158.0703,21.3073,M,M,M,70.00,10.00,M,30.13,M,10.00,M,CLR,M,M,M,M,M,M,M,M,PHJR 011820Z AUTO 07010KT 10SM CLR A3013 RMK MADISHF
PHJR,2017-04-01 18:25,-158.0703,21.3073,M,M,M,70.00,9.00,M,30.13,M,10.00,M,CLR,M,M,M,M,M,M,M,M,PHJR 011825Z AUTO 07009KT 10SM CLR A3013 RMK WND 04V11  MADISHF
PHJR,2017-04-01 18:30,-158.0703,21.3073,M,M,M,60.00,8.00,M,30.13,M,10.00,M,CLR,M,M,M,M,M,M,M,M,PHJR 011830Z AUTO 06008KT 10SM CLR A3013 RMK MADISHF
PHJR,2017-04-01 18:35,-158.0703,21.3073,M,M,M,60.00,8.00,M,30.13,M,10.00,M,CLR,M,M,M,M,M,M,M,M,PHJR 011835Z AUTO 06008KT 10SM CLR A3013 RMK MADISHF
PHJR,2017-04-01 18:40,-158.0703,21.3073,M,M,M,80.00,6.00,M,30.13,M,10.00,M,CLR,M,M,M,M,M,M,M,M,PHJR 011840Z AUTO 08006KT 10SM CLR A3013 RMK VRB06G15KT  MADISHF
PHJR,2017-04-01 18:45,-158.0703,21.3073,M,M,M,80.00,6.00,M,30.14,M,10.00,M,CLR,M,M,M,M,M,M,M,M,PHJR 011845Z AUTO 08006KT 10SM CLR A3014 RMK VRB06KT  MADISHF
PHJR,2017-04-01 18:50,-158.0703,21.3073,M,M,M,70.00,7.00,M,30.14,M,10.00,M,CLR,M,M,M,M,M,M,M,M,PHJR 011850Z AUTO 07007KT 10SM CLR A3014 RMK MADISHF
PHJR,2017-04-01 18:53,-158.0703,21.3073,82.90,63.00,51.10,80.00,7.00,0.00,30.13,1021.00,10.00,M,CLR,M,M,M,M,M,M,M,M,PHJR 011853Z 08007KT 040V160 10SM CLR 28/17 A3013 RMK AO2 SLP210 T02830172
PHJR,2017-04-01 18:55,-158.0703,21.3073,M,M,M,70.00,9.00,M,30.14,M,10.00,M,CLR,M,M,M,M,M,M,M,M,PHJR 011855Z AUTO 07009KT 10SM CLR A3014 RMK MADISHF
PHJR,2017-04-01 19:00,-158.0703,21.3073,M,M,M,60.00,9.00,M,30.14,M,10.00,15.00,CLR,M,M,M,M,M,M,M,M,PHJR 011900Z AUTO 06009G15KT 10SM CLR A3014 RMK MADISHF
PHJR,2017-04-01 19:05,-158.0703,21.3073,M,M,M,50.00,8.00,M,30.14,M,10.00,M,CLR,M,M,M,M,M,M,M,M,PHJR 011905Z AUTO 05008KT 10SM CLR A3014 RMK WND 02V08  MADISHF
PHJR,2017-04-01 19:10,-158.0703,21.3073,M,M,M,80.00,5.00,M,30.14,M,10.00,M,CLR,M,M,M,M,M,M,M,M,PHJR 011910Z AUTO 08005KT 10SM CLR A3014 RMK MADISHF
PHJR,2017-04-01 19:15,-158.0703,21.3073,M,M,M,80.00,8.00,M,30.14,M,10.00,M,CLR,M,M,M,M,M,M,M,M,PHJR 011915Z AUTO 08008KT 10SM CLR A3014 RMK WND 04V10  MADISHF
PHJR,2017-04-01 19:20,-158.0703,21.3073,M,M,M,70.00,9.00,M,30.14,M,10.00,M,CLR,M,M,M,M,M,M,M,M,PHJR 011920Z AUTO 07009KT 10SM CLR A3014 RMK MADISHF
PHJR,2017-04-01 19:25,-158.0703,21.3073,M,M,M,70.00,7.00,M,30.14,M,10.00,M,CLR,M,M,M,M,M,M,M,M,PHJR 011925Z AUTO 07007KT 10SM CLR A3014 RMK WND 04V11  MADISHF
PHJR,2017-04-01 19:30,-158.0703,21.3073,M,M,M,70.00,8.00,M,30.14,M,10.00,M,CLR,M,M,M,M,M,M,M,M,PHJR 011930Z AUTO 07008KT 10SM CLR A3014 RMK MADISHF
PHJR,2017-04-01 19:35,-158.0703,21.3073,M,M,M,70.00,11.00,M,30.14,M,10.00,17.00,CLR,M,M,M,M,M,M,M,M,PHJR 011935Z AUTO 07011G17KT 10SM CLR A3014 RMK MADISHF
PHJR,2017-04-01 19:40,-158.0703,21.3073,M,M,M,70.00,5.00,M,30.14,M,10.00,M,CLR,M,M,M,M,M,M,M,M,PHJR 011940Z AUTO 07005KT 10SM CLR A3014 RMK VRB05G18KT  MADISHF
PHJR,2017-04-01 19:45,-158.0703,21.3073,M,M,M,80.00,8.00,M,30.14,M,10.00,M,CLR,M,M,M,M,M,M,M,M,PHJR 011945Z AUTO 08008KT 10SM CLR A3014 RMK MADISHF
PHJR,2017-04-01 19:50,-158.0703,21.3073,M,M,M,50.00,8.00,M,30.14,M,10.00,M,FEW,M,M,M,3900.00,M,M,M,M,PHJR 011950Z AUTO 05008KT 10SM FEW039 A3014 RMK MADISHF
PHJR,2017-04-01 19:53,-158.0703,21.3073,84.90,63.00,47.91,70.00,8.00,0.00,30.14,1021.20,10.00,14.00,FEW,M,M,M,3900.00,M,M,M,M,PHJR 011953Z 07008G14KT 10SM FEW039 29/17 A3014 RMK AO2 SLP212 T02940172
PHJR,2017-04-01 19:55,-158.0703,21.3073,M,M,M,90.00,7.00,M,30.14,M,10.00,M,FEW,M,M,M,3900.00,M,M,M,M,PHJR 011955Z AUTO 09007KT 10SM FEW039 A3014 RMK WND 06V13  MADISHF
PHJR,2017-04-01 20:00,-158.0703,21.3073,M,M,M,90.00,7.00,M,30.14,M,10.00,M,FEW,M,M,M,3900.00,M,M,M,M,PHJR 012000Z AUTO 09007KT 10SM FEW039 A3014 RMK WND 05V12  MADISHF
PHJR,2017-04-01 20:05,-158.0703,21.3073,M,M,M,60.00,8.00,M,30.14,M,10.00,M,FEW,M,M,M,3900.00,M,M,M,M,PHJR 012005Z AUTO 06008KT 10SM FEW039 A3014 RMK MADISHF
PHJR,2017-04-01 20:10,-158.0703,21.3073,M,M,M,70.00,8.00,M,30.14,M,10.00,M,SCT,M,M,M,3900.00,M,M,M,M,PHJR 012010Z AUTO 07008KT 10SM SCT039 A3014 RMK MADISHF
PHJR,2017-04-01 20:15,-158.0703,21.3073,M,M,M,80.00,7.00,M,30.14,M,10.00,M,SCT,M,M,M,3900.00,M,M,M,M,PHJR 012015Z AUTO 08007KT 10SM SCT039 A3014 RMK MADISHF
PHJR,2017-04-01 20:20,-158.0703,21.3073,M,M,M,90.00,7.00,M,30.14,M,10.00,M,SCT,M,M,M,3900.00,M,M,M,M,PHJR 012020Z AUTO 09007KT 10SM SCT039 A3014 RMK WND 05V14  MADISHF
PHJR,2017-04-01 20:25,-158.0703,21.3073,M,M,M,70.00,10.00,M,30.14,M,10.00,M,FEW,M,M,M,3900.00,M,M,M,M,PHJR 012025Z AUTO 07010KT 10SM FEW039 A3014 RMK WND 03V10  MADISHF
PHJR,2017-04-01 20:30,-158.0703,21.3073,M,M,M,100.00,9.00,M,30.14,M,10.00,15.00,FEW,M,M,M,3999.00,M,M,M,M,PHJR 012030Z AUTO 10009G15KT 10SM FEW039 A3014 RMK MADISHF
PHJR,2017-04-01 20:35,-158.0703,21.3073,M,M,M,90.00,9.00,M,30.14,M,10.00,14.00,FEW,M,M,M,4200.00,M,M,M,M,PHJR 012035Z AUTO 09009G14KT 10SM FEW042 A3014 RMK MADISHF
PHJR,2017-04-01 20:40,-158.0703,21.3073,M,M,M,90.00,7.00,M,30.14,M,10.00,M,FEW,M,M,M,4200.00,M,M,M,M,PHJR 012040Z AUTO 09007KT 10SM FEW042 A3014 RMK WND 05V12  MADISHF
PHJR,2017-04-01 20:45,-158.0703,21.3073,M,M,M,110.00,9.00,M,30.14,M,10.00,16.00,FEW,M,M,M,4400.00,M,M,M,M,PHJR 012045Z AUTO 11009G16KT 10SM FEW044 A3014 RMK MADISHF
PHJR,2017-04-01 20:50,-158.0703,21.3073,M,M,M,80.00,8.00,M,30.14,M,10.00,M,FEW,M,M,M,4600.00,M,M,M,M,PHJR 012050Z AUTO 08008KT 10SM FEW046 A3014 RMK WND 06V13  MADISHF
PHJR,2017-04-01 20:53,-158.0703,21.3073,86.00,62.10,44.81,120.00,8.00,0.00,30.14,1021.30,10.00,17.00,FEW,M,M,M,4400.00,M,M,M,M,PHJR 012053Z 12008G17KT 10SM FEW044 30/17 A3014 RMK AO2 SLP213 T03000167 52004
PHJR,2017-04-01 20:55,-158.0703,21.3073,M,M,M,110.00,8.00,M,30.14,M,10.00,M,FEW,M,M,M,4400.00,M,M,M,M,PHJR 012055Z AUTO 11008KT 10SM FEW044 A3014 RMK WND 07V14  MADISHF
PHJR,2017-04-01 21:00,-158.0703,21.3073,M,M,M,110.00,8.00,M,30.14,M,10.00,M,SCT,SCT,M,M,4400.00,5000.00,M,M,M,PHJR 012100Z AUTO 11008KT 10SM SCT044 SCT050 A3014 RMK WND 07V15  MADISHF
PHJR,2017-04-01 21:05,-158.0703,21.3073,M,M,M,120.00,7.00,M,30.14,M,10.00,M,SCT,SCT,M,M,4500.00,5500.00,M,M,M,PHJR 012105Z AUTO 12007KT 10SM SCT045 SCT055 A3014 RMK WND 08V15  MADISHF
PHJR,2017-04-01 21:10,-158.0703,21.3073,M,M,M,80.00,6.00,M,30.14,M,10.00,M,SCT,SCT,M,M,4500.00,5500.00,M,M,M,PHJR 012110Z AUTO 08006KT 10SM SCT045 SCT055 A3014 RMK VRB06G15KT  MADISHF
PHJR,2017-04-01 21:15,-158.0703,21.3073,M,M,M,80.00,9.00,M,30.14,M,10.00,15.00,SCT,BKN,M,M,4300.00,5500.00,M,M,M,PHJR 012115Z AUTO 08009G15KT 10SM SCT043 BKN055 A3014 RMK MADISHF
PHJR,2017-04-01 21:20,-158.0703,21.3073,M,M,M,100.00,9.00,M,30.14,M,10.00,M,BKN,M,M,M,4300.00,M,M,M,M,PHJR 012120Z AUTO 10009KT 10SM BKN043 A3014 RMK MADISHF
PHJR,2017-04-01 21:25,-158.0703,21.3073,M,M,M,90.00,9.00,M,30.14,M,10.00,M,BKN,M,M,M,4300.00,M,M,M,M,PHJR 012125Z AUTO 09009KT 10SM BKN043 A3014 RMK MADISHF
PHJR,2017-04-01 21:30,-158.0703,21.3073,M,M,M,80.00,8.00,M,30.14,M,10.00,M,BKN,BKN,M,M,4300.00,6500.00,M,M,M,PHJR 012130Z AUTO 08008KT 10SM BKN043 BKN065 A3014 RMK WND 05V11  MADISHF
PHJR,2017-04-01 21:35,-158.0703,21.3073,M,M,M,90.00,5.00,M,30.13,M,10.00,M,BKN,M,M,M,4300.00,M,M,M,M,PHJR 012135Z AUTO 09005KT 10SM BKN043 A3013 RMK VRB05KT  MADISHF
PHJR,2017-04-01 21:40,-158.0703,21.3073,M,M,M,110.00,7.00,M,30.13,M,10.00,M,BKN,M,M,M,4100.00,M,M,M,M,PHJR 012140Z AUTO 11007KT 10SM BKN041 A3013 RMK WND 07V14  MADISHF
PHJR,2017-04-01 21:45,-158.0703,21.3073,M,M,M,60.00,10.00,M,30.13,M,10.00,15.00,BKN,M,M,M,4100.00,M,M,M,M,PHJR 012145Z AUTO 06010G15KT 10SM BKN041 A3013 RMK MADISHF
PHJR,2017-04-01 21:50,-158.0703,21.3073,M,M,M,70.00,10.00,M,30.13,M,10.00,M,BKN,BKN,M,M,4100.00,5500.00,M,M,M,PHJR 012150Z AUTO 07010KT 10SM BKN041 BKN055 A3013 RMK MADISHF
PHJR,2017-04-01 21:53,-158.0703,21.3073,86.00,62.10,44.81,60.00,7.00,0.00,30.13,1020.90,10.00,16.00,BKN,BKN,M,M,4300.00,5500.00,M,M,M,PHJR 012153Z 06007G16KT 10SM BKN043 BKN055 30/17 A3013 RMK AO2 SLP209 T03000167
PHJR,2017-04-01 21:55,-158.0703,21.3073,M,M,M,90.00,8.00,M,30.13,M,10.00,M,BKN,BKN,M,M,4300.00,5000.00,M,M,M,PHJR 012155Z AUTO 09008KT 10SM BKN043 BKN050 A3013 RMK MADISHF
PHJR,2017-04-01 22:00,-158.0703,21.3073,M,M,M,100.00,9.00,M,30.13,M,10.00,M,BKN,M,M,M,4500.00,M,M,M,M,PHJR 012200Z AUTO 10009KT 10SM BKN045 A3013 RMK MADISHF
PHJR,2017-04-01 22:05,-158.0703,21.3073,M,M,M,80.00,8.00,M,30.12,M,10.00,M,SCT,BKN,M,M,4300.00,5500.00,M,M,M,PHJR 012205Z AUTO 08008KT 10SM SCT043 BKN055 A3012 RMK WND 05V14  MADISHF
PHJR,2017-04-01 22:10,-158.0703,21.3073,M,M,M,70.00,9.00,M,30.12,M,10.00,M,SCT,BKN,M,M,4300.00,5500.00,M,M,M,PHJR 012210Z AUTO 07009KT 10SM SCT043 BKN055 A3012 RMK WND 05V12  MADISHF
PHJR,2017-04-01 22:15,-158.0703,21.3073,M,M,M,110.00,9.00,M,30.12,M,10.00,14.00,SCT,SCT,M,M,4500.00,5500.00,M,M,M,PHJR 012215Z AUTO 11009G14KT 10SM SCT045 SCT055 A3012 RMK WND 08V15  MADISHF
PHJR,2017-04-01 22:20,-158.0703,21.3073,M,M,M,110.00,7.00,M,30.12,M,10.00,M,SCT,SCT,M,M,4500.00,5500.00,M,M,M,PHJR 012220Z AUTO 11007KT 10SM SCT045 SCT055 A3012 RMK WND 05V16  MADISHF
PHJR,2017-04-01 22:25,-158.0703,21.3073,M,M,M,100.00,7.00,M,30.12,M,10.00,M,SCT,M,M,M,4500.00,M,M,M,M,PHJR 012225Z AUTO 10007KT 10SM SCT045 A3012 RMK MADISHF
PHJR,2017-04-01 22:30,-158.0703,21.3073,M,M,M,110.00,9.00,M,30.12,M,10.00,M,BKN,BKN,M,M,4500.00,6000.00,M,M,M,PHJR 012230Z AUTO 11009KT 10SM BKN045 BKN060 A3012 RMK WND 08V14  MADISHF
PHJR,2017-04-01 22:35,-158.0703,21.3073,M,M,M,100.00,8.00,M,30.12,M,10.00,M,SCT,SCT,M,M,4500.00,6000.00,M,M,M,PHJR 012235Z AUTO 10008KT 10SM SCT045 SCT060 A3012 RMK WND 05V13  MADISHF
PHJR,2017-04-01 22:40,-158.0703,21.3073,M,M,M,120.00,9.00,M,30.11,M,10.00,15.00,SCT,SCT,M,M,4500.00,6000.00,M,M,M,PHJR 012240Z AUTO 12009G15KT 10SM SCT045 SCT060 A3011 RMK MADISHF
PHJR,2017-04-01 22:45,-158.0703,21.3073,M,M,M,100.00,8.00,M,30.11,M,10.00,M,SCT,SCT,M,M,4500.00,5500.00,M,M,M,PHJR 012245Z AUTO 10008KT 10SM SCT045 SCT055 A3011 RMK WND 07V14  MADISHF
PHJR,2017-04-01 22:50,-158.0703,21.3073,M,M,M,80.00,6.00,M,30.11,M,10.00,M,BKN,M,M,M,4700.00,M,M,M,M,PHJR 012250Z AUTO 08006KT 10SM BKN047 A3011 RMK VRB06KT  MADISHF
PHJR,2017-04-01 22:53,-158.0703,21.3073,84.90,63.00,47.91,80.00,7.00,0.00,30.11,1020.10,10.00,M,SCT,SCT,M,M,4700.00,5500.00,M,M,M,PHJR 012253Z 08007KT 050V120 10SM SCT047 SCT055 29/17 A3011 RMK AO2 SLP201 T02940172
PHJR,2017-04-01 22:55,-158.0703,21.3073,M,M,M,90.00,10.00,M,30.11,M,10.00,M,SCT,SCT,M,M,4700.00,5500.00,M,M,M,PHJR 012255Z AUTO 09010KT 10SM SCT047 SCT055 A3011 RMK MADISHF
PHJR,2017-04-01 23:00,-158.0703,21.3073,M,M,M,80.00,9.00,M,30.10,M,10.00,M,SCT,M,M,M,4500.00,M,M,M,M,PHJR 012300Z AUTO 08009KT 10SM SCT045 A3010 RMK WND 06V12  MADISHF
PHJR,2017-04-01 23:05,-158.0703,21.3073,M,M,M,80.00,6.00,M,30.10,M,10.00,M,SCT,M,M,M,4500.00,M,M,M,M,PHJR 012305Z AUTO 08006KT 10SM SCT045 A3010 RMK VRB06KT  MADISHF
PHJR,2017-04-01 23:10,-158.0703,21.3073,M,M,M,100.00,6.00,M,30.10,M,10.00,M,SCT,M,M,M,4600.00,M,M,M,M,PHJR 012310Z AUTO 10006KT 10SM SCT046 A3010 RMK MADISHF
PHJR,2017-04-01 23:15,-158.0703,21.3073,M,M,M,90.00,6.00,M,30.10,M,10.00,M,SCT,M,M,M,4800.00,M,M,M,M,PHJR 012315Z AUTO 09006KT 10SM SCT048 A3010 RMK VRB06KT  MADISHF
PHJR,2017-04-01 23:20,-158.0703,21.3073,M,M,M,120.00,7.00,M,30.10,M,10.00,M,SCT,M,M,M,4800.00,M,M,M,M,PHJR 012320Z AUTO 12007KT 10SM SCT048 A3010 RMK MADISHF
PHJR,2017-04-01 23:25,-158.0703,21.3073,M,M,M,100.00,9.00,M,30.10,M,10.00,M,SCT,M,M,M,4800.00,M,M,M,M,PHJR 012325Z AUTO 10009KT 10SM SCT048 A3010 RMK MADISHF
PHJR,2017-04-01 23:30,-158.0703,21.3073,M,M,M,100.00,6.00,M,30.09,M,10.00,M,SCT,M,M,M,4700.00,M,M,M,M,PHJR 012330Z AUTO 10006KT 10SM SCT047 A3009 RMK VRB06G15KT  MADISHF
PHJR,2017-04-01 23:35,-158.0703,21.3073,M,M,M,120.00,8.00,M,30.09,M,10.00,M,SCT,M,M,M,4700.00,M,M,M,M,PHJR 012335Z AUTO 12008KT 10SM SCT047 A3009 RMK MADISHF
PHJR,2017-04-01 23:40,-158.0703,21.3073,M,M,M,110.00,8.00,M,30.09,M,10.00,M,SCT,M,M,M,4700.00,M,M,M,M,PHJR 012340Z AUTO 11008KT 10SM SCT047 A3009 RMK MADISHF
PHJR,2017-04-01 23:45,-158.0703,21.3073,M,M,M,100.00,8.00,M,30.09,M,10.00,M,SCT,M,M,M,4700.00,M,M,M,M,PHJR 012345Z AUTO 10008KT 10SM SCT047 A3009 RMK WND 07V13  MADISHF
PHJR,2017-04-01 23:50,-158.0703,21.3073,M,M,M,80.00,6.00,M,30.09,M,10.00,M,SCT,BKN,M,M,4500.00,5500.00,M,M,M,PHJR 012350Z AUTO 08006KT 10SM SCT045 BKN055 A3009 RMK VRB06G17KT  MADISHF
PHJR,2017-04-01 23:53,-158.0703,21.3073,86.00,63.00,46.25,80.00,10.00,0.00,30.09,1019.50,10.00,17.00,SCT,BKN,M,M,4500.00,5500.00,M,M,M,PHJR 012353Z 08010G17KT 10SM SCT045 BKN055 30/17 A3009 RMK AO2 SLP195 T03000172 10311 20256 58018
PHJR,2017-04-01 23:55,-158.0703,21.3073,M,M,M,100.00,8.00,M,30.09,M,10.00,M,SCT,SCT,M,M,4700.00,5500.00,M,M,M,PHJR 012355Z AUTO 10008KT 10SM SCT047 SCT055 A3009 RMK MADISHF
