#DEBUG: Format Typ    -> comma
#DEBUG: Time Period   -> 2017-04-01 00:00:00+00:00 2017-04-02 00:00:00+00:00
#DEBUG: Time Zone     -> Etc/UTC
#DEBUG: Data Contact   -> daryl herzmann akrherz@iastate.edu 515-294-5978
#DEBUG: Entries Found -> -1
station,valid,lon,lat,tmpf, dwpf, relh, drct, sknt, p01i, alti, mslp, vsby, gust, skyc1, skyc2, skyc3, skyc4, skyl1, skyl2, skyl3, skyl4, presentwx, metar
PHKO,2017-04-01 00:00,-156.0456,19.7388,M,M,M,240.00,11.00,M,30.01,M,10.00,M,SCT,M,M,M,5500.00,M,M,M,M,PHKO 010000Z AUTO 24011KT 10SM SCT055 A3001 RMK MADISHF
PHKO,2017-04-01 00:05,-156.0456,19.7388,M,M,M,230.00,10.00,M,30.01,M,10.00,M,SCT,M,M,M,5500.00,M,M,M,M,PHKO 010005Z AUTO 23010KT 10SM SCT055 A3001 RMK MADISHF
PHKO,2017-04-01 00:10,-156.0456,19.7388,M,M,M,230.00,10.00,M,30.01,M,10.00,M,SCT,M,M,M,5500.00,M,M,M,M,PHKO 010010Z AUTO 23010KT 10SM SCT055 A3001 RMK MADISHF
PHKO,2017-04-01 00:15,-156.0456,19.7388,M,M,M,230.00,10.00,M,30.01,M,10.00,M,SCT,M,M,M,5500.00,M,M,M,M,PHKO 010015Z AUTO 23010KT 10SM SCT055 A3001 RMK MADISHF
PHKO,2017-04-01 00:20,-156.0456,19.7388,M,M,M,230.00,10.00,M,30.01,M,10.00,M,SCT,M,M,M,5500.00,M,M,M,M,PHKO 010020Z AUTO 23010KT 10SM SCT055 A3001 RMK MADISHF
PHKO,2017-04-01 00:25,-156.0456,19.7388,M,M,M,240.00,9.00,M,30.01,M,10.00,M,SCT,M,M,M,5500.00,M,M,M,M,PHKO 010025Z AUTO 24009KT 10SM SCT055 A3001 RMK MADISHF
PHKO,2017-04-01 00:30,-156.0456,19.7388,M,M,M,230.00,10.00,M,30.01,M,10.00,M,SCT,M,M,M,5500.00,M,M,M,M,PHKO 010030Z AUTO 23010KT 10SM SCT055 A3001 RMK MADISHF
PHKO,2017-04-01 00:35,-156.0456,19.7388,M,M,M,250.00,8.00,M,30.00,M,10.00,M,SCT,M,M,M,5500.00,M,M,M,M,PHKO 010035Z AUTO 25008KT 10SM SCT055 A3000 RMK MADISHF
PHKO,2017-04-01 00:40,-156.0456,19.7388,M,M,M,240.00,9.00,M,30.01,M,10.00,M,SCT,M,M,M,5500.00,M,M,M,M,PHKO 010040Z AUTO 24009KT 10SM SCT055 A3001 RMK MADISHF
PHKO,2017-04-01 00:45,-156.0456,19.7388,M,M,M,250.00,9.00,M,30.00,M,10.00,M,SCT,M,M,M,5500.00,M,M,M,M,PHKO 010045Z AUTO 25009KT 10SM SCT055 A3000 RMK MADISHF
PHKO,2017-04-01 00:50,-156.0456,19.7388,M,M,M,250.00,9.00,M,30.00,M,10.00,M,SCT,SCT,M,M,5500.00,7500.00,M,M,M,PHKO 010050Z AUTO 25009KT 10SM SCT055 SCT075 A3000 RMK MADISHF
PHKO,2017-04-01 00:53,-156.0456,19.7388,82.00,64.90,56.24,250.00,9.00,0.00,30.00,1016.00,10.00,M,SCT,SCT,M,M,5500.00,7500.00,M,M,M,PHKO 010053Z 25009KT 10SM SCT055 SCT075 28/18 A3000 RMK AO2 SLP160 T02780183
PHKO,2017-04-01 00:55,-156.0456,19.7388,M,M,M,240.00,10.00,M,30.00,M,10.00,M,CLR,M,M,M,M,M,M,M,M,PHKO 010055Z AUTO 24010KT 10SM CLR A3000 RMK MADISHF
PHKO,2017-04-01 01:00,-156.0456,19.7388,M,M,M,250.00,10.00,M,30.00,M,10.00,M,CLR,M,M,M,M,M,M,M,M,PHKO 010100Z AUTO 25010KT 10SM CLR A3000 RMK MADISHF
PHKO,2017-04-01 01:05,-156.0456,19.7388,M,M,M,250.00,9.00,M,30.00,M,10.00,M,FEW,M,M,M,6000.00,M,M,M,M,PHKO 010105Z AUTO 25009KT 10SM FEW060 A3000 RMK MADISHF
PHKO,2017-04-01 01:10,-156.0456,19.7388,M,M,M,250.00,9.00,M,30.00,M,10.00,M,FEW,M,M,M,6000.00,M,M,M,M,PHKO 010110Z AUTO 25009KT 10SM FEW060 A3000 RMK MADISHF
PHKO,2017-04-01 01:15,-156.0456,19.7388,M,M,M,240.00,9.00,M,30.00,M,10.00,M,SCT,M,M,M,6000.00,M,M,M,M,PHKO 010115Z AUTO 24009KT 10SM SCT060 A3000 RMK MADISHF
PHKO,2017-04-01 01:20,-156.0456,19.7388,M,M,M,250.00,9.00,M,30.00,M,10.00,M,BKN,M,M,M,6000.00,M,M,M,M,PHKO 010120Z AUTO 25009KT 10SM BKN060 A3000 RMK MADISHF
PHKO,2017-04-01 01:25,-156.0456,19.7388,M,M,M,240.00,8.00,M,30.00,M,10.00,M,BKN,M,M,M,6000.00,M,M,M,M,PHKO 010125Z AUTO 24008KT 10SM BKN060 A3000 RMK MADISHF
PHKO,2017-04-01 01:30,-156.0456,19.7388,M,M,M,260.00,10.00,M,30.00,M,10.00,M,BKN,M,M,M,6000.00,M,M,M,M,PHKO 010130Z AUTO 26010KT 10SM BKN060 A3000 RMK MADISHF
PHKO,2017-04-01 01:35,-156.0456,19.7388,M,M,M,260.00,11.00,M,30.00,M,10.00,M,BKN,M,M,M,6000.00,M,M,M,M,PHKO 010135Z AUTO 26011KT 10SM BKN060 A3000 RMK MADISHF
PHKO,2017-04-01 01:40,-156.0456,19.7388,M,M,M,260.00,11.00,M,30.00,M,10.00,M,BKN,M,M,M,6000.00,M,M,M,M,PHKO 010140Z AUTO 26011KT 10SM BKN060 A3000 RMK MADISHF
PHKO,2017-04-01 01:45,-156.0456,19.7388,M,M,M,250.00,9.00,M,30.00,M,10.00,M,SCT,M,M,M,6000.00,M,M,M,M,PHKO 010145Z AUTO 25009KT 10SM SCT060 A3000 RMK MADISHF
PHKO,2017-04-01 01:50,-156.0456,19.7388,M,M,M,260.00,9.00,M,30.00,M,10.00,M,SCT,M,M,M,6000.00,M,M,M,M,PHKO 010150Z AUTO 26009KT 10SM SCT060 A3000 RMK MADISHF
PHKO,2017-04-01 01:53,-156.0456,19.7388,82.00,63.00,52.62,260.00,10.00,0.00,30.00,1016.00,10.00,M,FEW,SCT,M,M,3500.00,6000.00,M,M,M,PHKO 010153Z 26010KT 10SM FEW035 SCT060 28/17 A3000 RMK AO2 SLP160 T02780172
PHKO,2017-04-01 01:55,-156.0456,19.7388,M,M,M,250.00,9.00,M,30.00,M,10.00,M,FEW,M,M,M,6500.00,M,M,M,M,PHKO 010155Z AUTO 25009KT 10SM FEW065 A3000 RMK MADISHF
PHKO,2017-04-01 02:00,-156.0456,19.7388,M,M,M,260.00,9.00,M,30.00,M,10.00,M,FEW,M,M,M,6000.00,M,M,M,M,PHKO 010200Z AUTO 26009KT 10SM FEW060 A3000 RMK MADISHF
PHKO,2017-04-01 02:05,-156.0456,19.7388,M,M,M,250.00,10.00,M,30.00,M,10.00,M,CLR,M,M,M,M,M,M,M,M,PHKO 010205Z AUTO 25010KT 10SM CLR A3000 RMK MADISHF
PHKO,2017-04-01 02:10,-156.0456,19.7388,M,M,M,260.00,10.00,M,30.00,M,10.00,M,CLR,M,M,M,M,M,M,M,M,PHKO 010210Z AUTO 26010KT 10SM CLR A3000 RMK MADISHF
PHKO,2017-04-01 02:15,-156.0456,19.7388,M,M,M,250.00,10.00,M,30.00,M,10.00,M,CLR,M,M,M,M,M,M,M,M,PHKO 010215Z AUTO 25010KT 10SM CLR A3000 RMK MADISHF
PHKO,2017-04-01 02:20,-156.0456,19.7388,M,M,M,250.00,9.00,M,30.00,M,10.00,M,FEW,M,M,M,5500.00,M,M,M,M,PHKO 010220Z AUTO 25009KT 10SM FEW055 A3000 RMK MADISHF
PHKO,2017-04-01 02:25,-156.0456,19.7388,M,M,M,250.00,9.00,M,30.00,M,10.00,M,FEW,M,M,M,5500.00,M,M,M,M,PHKO 010225Z AUTO 25009KT 10SM FEW055 A3000 RMK MADISHF
PHKO,2017-04-01 02:30,-156.0456,19.7388,M,M,M,250.00,9.00,M,30.00,M,10.00,M,FEW,M,M,M,5500.00,M,M,M,M,PHKO 010230Z AUTO 25009KT 10SM FEW055 A3000 RMK MADISHF
PHKO,2017-04-01 02:35,-156.0456,19.7388,M,M,M,250.00,9.00,M,30.00,M,10.00,M,FEW,M,M,M,5500.00,M,M,M,M,PHKO 010235Z AUTO 25009KT 10SM FEW055 A3000 RMK MADISHF
PHKO,2017-04-01 02:40,-156.0456,19.7388,M,M,M,250.00,9.00,M,30.00,M,10.00,M,FEW,M,M,M,5500.00,M,M,M,M,PHKO 010240Z AUTO 25009KT 10SM FEW055 A3000 RMK MADISHF
PHKO,2017-04-01 02:45,-156.0456,19.7388,M,M,M,250.00,8.00,M,30.00,M,10.00,M,FEW,M,M,M,5500.00,M,M,M,M,PHKO 010245Z AUTO 25008KT 10SM FEW055 A3000 RMK MADISHF
PHKO,2017-04-01 02:50,-156.0456,19.7388,M,M,M,260.00,7.00,M,30.00,M,10.00,M,FEW,SCT,M,M,5500.00,7500.00,M,M,M,PHKO 010250Z AUTO 26007KT 10SM FEW055 SCT075 A3000 RMK MADISHF
PHKO,2017-04-01 02:53,-156.0456,19.7388,80.10,64.90,59.83,260.00,6.00,0.00,30.00,1016.10,10.00,M,FEW,SCT,M,M,5500.00,7500.00,M,M,M,PHKO 010253Z 26006KT 10SM FEW055 SCT075 27/18 A3000 RMK AO2 SLP161 T02670183 55004
PHKO,2017-04-01 02:55,-156.0456,19.7388,M,M,M,270.00,7.00,M,30.00,M,10.00,M,CLR,M,M,M,M,M,M,M,M,PHKO 010255Z AUTO 27007KT 10SM CLR A3000 RMK MADISHF
PHKO,2017-04-01 03:00,-156.0456,19.7388,M,M,M,270.00,6.00,M,30.01,M,10.00,M,CLR,M,M,M,M,M,M,M,M,PHKO 010300Z AUTO 27006KT 10SM CLR A3001 RMK MADISHF
PHKO,2017-04-01 03:05,-156.0456,19.7388,M,M,M,280.00,5.00,M,30.01,M,10.00,M,CLR,M,M,M,M,M,M,M,M,PHKO 010305Z AUTO 28005KT 10SM CLR A3001 RMK MADISHF
PHKO,2017-04-01 03:10,-156.0456,19.7388,M,M,M,250.00,6.00,M,30.01,M,10.00,M,CLR,M,M,M,M,M,M,M,M,PHKO 010310Z AUTO 25006KT 10SM CLR A3001 RMK MADISHF
PHKO,2017-04-01 03:15,-156.0456,19.7388,M,M,M,240.00,7.00,M,30.01,M,10.00,M,CLR,M,M,M,M,M,M,M,M,PHKO 010315Z AUTO 24007KT 10SM CLR A3001 RMK MADISHF
PHKO,2017-04-01 03:20,-156.0456,19.7388,M,M,M,260.00,7.00,M,30.01,M,10.00,M,FEW,M,M,M,5000.00,M,M,M,M,PHKO 010320Z AUTO 26007KT 10SM FEW050 A3001 RMK MADISHF
PHKO,2017-04-01 03:25,-156.0456,19.7388,M,M,M,260.00,6.00,M,30.01,M,10.00,M,SCT,M,M,M,5500.00,M,M,M,M,PHKO 010325Z AUTO 26006KT 10SM SCT055 A3001 RMK MADISHF
PHKO,2017-04-01 03:30,-156.0456,19.7388,M,M,M,260.00,6.00,M,30.00,M,10.00,M,SCT,M,M,M,5500.00,M,M,M,M,PHKO 010330Z AUTO 26006KT 10SM SCT055 A3000 RMK MADISHF
PHKO,2017-04-01 03:35,-156.0456,19.7388,M,M,M,260.00,5.00,M,30.00,M,10.00,M,BKN,M,M,M,5500.00,M,M,M,M,PHKO 010335Z AUTO 26005KT 10SM BKN055 A3000 RMK MADISHF
PHKO,2017-04-01 03:40,-156.0456,19.7388,M,M,M,260.00,6.00,M,30.00,M,10.00,M,BKN,M,M,M,5500.00,M,M,M,M,PHKO 010340Z AUTO 26006KT 10SM BKN055 A3000 RMK MADISHF
PHKO,2017-04-01 03:45,-156.0456,19.7388,M,M,M,260.00,6.00,M,30.01,M,10.00,M,BKN,M,M,M,5500.00,M,M,M,M,PHKO 010345Z AUTO 26006KT 10SM BKN055 A3001 RMK MADISHF
PHKO,2017-04-01 03:50,-156.0456,19.7388,M,M,M,240.00,5.00,M,30.01,M,10.00,M,SCT,M,M,M,5500.00,M,M,M,M,PHKO 010350Z AUTO 24005KT 10SM SCT055 A3001 RMK MADISHF
PHKO,2017-04-01 03:53,-156.0456,19.7388,80.10,64.90,59.83,270.00,5.00,0.00,30.01,1016.20,10.00,M,SCT,M,M,M,5500.00,M,M,M,M,PHKO 010353Z 27005KT 10SM SCT055 27/18 A3001 RMK AO2 SLP162 T02670183
PHKO,2017-04-01 03:55,-156.0456,19.7388,M,M,M,260.00,6.00,M,30.01,M,10.00,M,BKN,M,M,M,5500.00,M,M,M,M,PHKO 010355Z AUTO 26006KT 10SM BKN055 A3001 RMK MADISHF
PHKO,2017-04-01 04:00,-156.0456,19.7388,M,M,M,280.00,6.00,M,30.01,M,10.00,M,BKN,M,M,M,5500.00,M,M,M,M,PHKO 010400Z AUTO 28006KT 10SM BKN055 A3001 RMK MADISHF
PHKO,2017-04-01 04:05,-156.0456,19.7388,M,M,M,260.00,6.00,M,30.01,M,10.00,M,FEW,BKN,M,M,4500.00,5500.00,M,M,M,PHKO 010405Z AUTO 26006KT 10SM FEW045 BKN055 A3001 RMK MADISHF
PHKO,2017-04-01 04:10,-156.0456,19.7388,M,M,M,280.00,5.00,M,30.01,M,10.00,M,FEW,BKN,M,M,4500.00,5500.00,M,M,M,PHKO 010410Z AUTO 28005KT 10SM FEW045 BKN055 A3001 RMK MADISHF
PHKO,2017-04-01 04:15,-156.0456,19.7388,M,M,M,260.00,5.00,M,30.01,M,10.00,M,FEW,BKN,M,M,4500.00,5500.00,M,M,M,PHKO 010415Z AUTO 26005KT 10SM FEW045 BKN055 A3001 RMK MADISHF
PHKO,2017-04-01 04:20,-156.0456,19.7388,M,M,M,260.00,5.00,M,30.02,M,10.00,M,BKN,M,M,M,5000.00,M,M,M,M,PHKO 010420Z AUTO 26005KT 10SM BKN050 A3002 RMK MADISHF
PHKO,2017-04-01 04:25,-156.0456,19.7388,M,M,M,270.00,4.00,M,30.02,M,10.00,M,BKN,M,M,M,5000.00,M,M,M,M,PHKO 010425Z AUTO 27004KT 10SM BKN050 A3002 RMK MADISHF
PHKO,2017-04-01 04:30,-156.0456,19.7388,M,M,M,260.00,3.00,M,30.02,M,10.00,M,BKN,M,M,M,5000.00,M,M,M,M,PHKO 010430Z AUTO 26003KT 10SM BKN050 A3002 RMK MADISHF
PHKO,2017-04-01 04:35,-156.0456,19.7388,M,M,M,250.00,3.00,M,30.02,M,10.00,M,OVC,M,M,M,5000.00,M,M,M,M,PHKO 010435Z AUTO 25003KT 10SM OVC050 A3002 RMK MADISHF
PHKO,2017-04-01 04:40,-156.0456,19.7388,M,M,M,240.00,4.00,M,30.02,M,10.00,M,OVC,M,M,M,5000.00,M,M,M,M,PHKO 010440Z AUTO 24004KT 10SM OVC050 A3002 RMK MADISHF
PHKO,2017-04-01 04:45,-156.0456,19.7388,M,M,M,250.00,3.00,M,30.02,M,10.00,M,OVC,M,M,M,5000.00,M,M,M,M,PHKO 010445Z AUTO 25003KT 10SM OVC050 A3002 RMK MADISHF
PHKO,2017-04-01 04:50,-156.0456,19.7388,M,M,M,250.00,3.00,M,30.02,M,10.00,M,OVC,M,M,M,5000.00,M,M,M,M,PHKO 010450Z AUTO 25003KT 10SM OVC050 A3002 RMK MADISHF
PHKO,2017-04-01 04:53,-156.0456,19.7388,79.00,64.90,62.03,250.00,3.00,0.00,30.02,1016.70,10.00,M,OVC,M,M,M,5000.00,M,M,M,M,PHKO 010453Z 25003KT 10SM OVC050 26/18 A3002 RMK AO2 SLP167 T02610183
PHKO,2017-04-01 04:55,-156.0456,19.7388,M,M,M,240.00,3.00,M,30.02,M,10.00,M,OVC,M,M,M,5000.00,M,M,M,M,PHKO 010455Z AUTO 24003KT 10SM OVC050 A3002 RMK MADISHF
PHKO,2017-04-01 05:00,-156.0456,19.7388,M,M,M,260.00,3.00,M,30.03,M,10.00,M,OVC,M,M,M,5000.00,M,M,M,M,PHKO 010500Z AUTO 26003KT 10SM OVC050 A3003 RMK MADISHF
PHKO,2017-04-01 05:05,-156.0456,19.7388,M,M,M,0.00,0.00,M,30.03,M,10.00,M,OVC,M,M,M,5500.00,M,M,M,M,PHKO 010505Z AUTO 00000KT 10SM OVC055 A3003 RMK MADISHF
PHKO,2017-04-01 05:10,-156.0456,19.7388,M,M,M,0.00,0.00,M,30.03,M,10.00,M,OVC,M,M,M,5500.00,M,M,M,M,PHKO 010510Z AUTO 00000KT 10SM OVC055 A3003 RMK MADISHF
PHKO,2017-04-01 05:15,-156.0456,19.7388,M,M,M,220.00,3.00,M,30.03,M,10.00,M,OVC,M,M,M,5500.00,M,M,M,M,PHKO 010515Z AUTO 22003KT 10SM OVC055 A3003 RMK MADISHF
PHKO,2017-04-01 05:20,-156.0456,19.7388,M,M,M,190.00,3.00,M,30.03,M,10.00,M,OVC,M,M,M,5500.00,M,M,M,M,PHKO 010520Z AUTO 19003KT 10SM OVC055 A3003 RMK MADISHF
PHKO,2017-04-01 05:25,-156.0456,19.7388,M,M,M,0.00,0.00,M,30.03,M,10.00,M,OVC,M,M,M,5500.00,M,M,M,M,PHKO 010525Z AUTO 00000KT 10SM OVC055 A3003 RMK MADISHF
PHKO,2017-04-01 05:30,-156.0456,19.7388,M,M,M,220.00,3.00,M,30.03,M,10.00,M,OVC,M,M,M,5500.00,M,M,M,M,PHKO 010530Z AUTO 22003KT 10SM OVC055 A3003 RMK MADISHF
PHKO,2017-04-01 05:35,-156.0456,19.7388,M,M,M,0.00,0.00,M,30.03,M,10.00,M,BKN,M,M,M,5500.00,M,M,M,M,PHKO 010535Z AUTO 00000KT 10SM BKN055 A3003 RMK MADISHF
PHKO,2017-04-01 05:40,-156.0456,19.7388,M,M,M,220.00,4.00,M,30.04,M,10.00,M,BKN,M,M,M,5500.00,M,M,M,M,PHKO 010540Z AUTO 22004KT 10SM BKN055 A3004 RMK MADISHF
PHKO,2017-04-01 05:45,-156.0456,19.7388,M,M,M,0.00,0.00,M,30.04,M,10.00,M,SCT,M,M,M,5500.00,M,M,M,M,PHKO 010545Z AUTO 00000KT 10SM SCT055 A3004 RMK MADISHF
PHKO,2017-04-01 05:50,-156.0456,19.7388,M,M,M,0.00,0.00,M,30.04,M,10.00,M,SCT,M,M,M,5500.00,M,M,M,M,PHKO 010550Z AUTO 00000KT 10SM SCT055 A3004 RMK MADISHF
PHKO,2017-04-01 05:53,-156.0456,19.7388,78.10,64.00,61.92,220.00,3.00,0.00,30.04,1017.40,10.00,M,FEW,M,M,M,5500.00,M,M,M,M,PHKO 010553Z 22003KT 10SM FEW055 26/18 A3004 RMK AO2 SLP174 T02560178 10289 20256 53013
PHKO,2017-04-01 05:55,-156.0456,19.7388,M,M,M,0.00,0.00,M,30.04,M,10.00,M,FEW,M,M,M,5500.00,M,M,M,M,PHKO 010555Z AUTO 00000KT 10SM FEW055 A3004 RMK MADISHF
PHKO,2017-04-01 06:00,-156.0456,19.7388,M,M,M,0.00,0.00,M,30.05,M,10.00,M,FEW,M,M,M,5500.00,M,M,M,M,PHKO 010600Z AUTO 00000KT 10SM FEW055 A3005 RMK MADISHF
PHKO,2017-04-01 06:05,-156.0456,19.7388,M,M,M,0.00,0.00,M,30.05,M,10.00,M,CLR,M,M,M,M,M,M,M,M,PHKO 010605Z AUTO 00000KT 10SM CLR A3005 RMK MADISHF
PHKO,2017-04-01 06:10,-156.0456,19.7388,M,M,M,0.00,0.00,M,30.05,M,10.00,M,CLR,M,M,M,M,M,M,M,M,PHKO 010610Z AUTO 00000KT 10SM CLR A3005 RMK MADISHF
PHKO,2017-04-01 06:15,-156.0456,19.7388,M,M,M,180.00,3.00,M,30.05,M,10.00,M,CLR,M,M,M,M,M,M,M,M,PHKO 010615Z AUTO 18003KT 10SM CLR A3005 RMK MADISHF
PHKO,2017-04-01 06:20,-156.0456,19.7388,M,M,M,0.00,0.00,M,30.06,M,10.00,M,CLR,M,M,M,M,M,M,M,M,PHKO 010620Z AUTO 00000KT 10SM CLR A3006 RMK MADISHF
PHKO,2017-04-01 06:25,-156.0456,19.7388,M,M,M,0.00,0.00,M,30.06,M,10.00,M,CLR,M,M,M,M,M,M,M,M,PHKO 010625Z AUTO 00000KT 10SM CLR A3006 RMK MADISHF
PHKO,2017-04-01 06:30,-156.0456,19.7388,M,M,M,180.00,4.00,M,30.06,M,10.00,M,CLR,M,M,M,M,M,M,M,M,PHKO 010630Z AUTO 18004KT 10SM CLR A3006 RMK MADISHF
PHKO,2017-04-01 06:35,-156.0456,19.7388,M,M,M,200.00,3.00,M,30.06,M,10.00,M,CLR,M,M,M,M,M,M,M,M,PHKO 010635Z AUTO 20003KT 10SM CLR A3006 RMK MADISHF
PHKO,2017-04-01 06:40,-156.0456,19.7388,M,M,M,170.00,5.00,M,30.06,M,10.00,M,CLR,M,M,M,M,M,M,M,M,PHKO 010640Z AUTO 17005KT 10SM CLR A3006 RMK MADISHF
PHKO,2017-04-01 06:45,-156.0456,19.7388,M,M,M,170.00,4.00,M,30.06,M,10.00,M,CLR,M,M,M,M,M,M,M,M,PHKO 010645Z AUTO 17004KT 10SM CLR A3006 RMK MADISHF
PHKO,2017-04-01 06:50,-156.0456,19.7388,M,M,M,170.00,5.00,M,30.06,M,10.00,M,FEW,M,M,M,5500.00,M,M,M,M,PHKO 010650Z AUTO 17005KT 10SM FEW055 A3006 RMK MADISHF
PHKO,2017-04-01 06:53,-156.0456,19.7388,78.10,64.00,61.92,180.00,5.00,0.00,30.06,1018.10,10.00,M,FEW,M,M,M,5500.00,M,M,M,M,PHKO 010653Z 18005KT 10SM FEW055 26/18 A3006 RMK AO2 SLP181 T02560178
PHKO,2017-04-01 06:55,-156.0456,19.7388,M,M,M,180.00,5.00,M,30.06,M,10.00,M,CLR,M,M,M,M,M,M,M,M,PHKO 010655Z AUTO 18005KT 10SM CLR A3006 RMK MADISHF
PHKO,2017-04-01 07:00,-156.0456,19.7388,M,M,M,180.00,5.00,M,30.06,M,10.00,M,CLR,M,M,M,M,M,M,M,M,PHKO 010700Z AUTO 18005KT 10SM CLR A3006 RMK MADISHF
PHKO,2017-04-01 07:05,-156.0456,19.7388,M,M,M,160.00,5.00,M,30.07,M,10.00,M,CLR,M,M,M,M,M,M,M,M,PHKO 010705Z AUTO 16005KT 10SM CLR A3007 RMK MADISHF
PHKO,2017-04-01 07:10,-156.0456,19.7388,M,M,M,160.00,5.00,M,30.07,M,10.00,M,CLR,M,M,M,M,M,M,M,M,PHKO 010710Z AUTO 16005KT 10SM CLR A3007 RMK MADISHF
PHKO,2017-04-01 07:15,-156.0456,19.7388,M,M,M,160.00,5.00,M,30.07,M,10.00,M,CLR,M,M,M,M,M,M,M,M,PHKO 010715Z AUTO 16005KT 10SM CLR A3007 RMK MADISHF
PHKO,2017-04-01 07:20,-156.0456,19.7388,M,M,M,150.00,5.00,M,30.07,M,10.00,M,CLR,M,M,M,M,M,M,M,M,PHKO 010720Z AUTO 15005KT 10SM CLR A3007 RMK MADISHF
PHKO,2017-04-01 07:25,-156.0456,19.7388,M,M,M,140.00,5.00,M,30.07,M,10.00,M,CLR,M,M,M,M,M,M,M,M,PHKO 010725Z AUTO 14005KT 10SM CLR A3007 RMK MADISHF
PHKO,2017-04-01 07:30,-156.0456,19.7388,M,M,M,140.00,5.00,M,30.07,M,10.00,M,CLR,M,M,M,M,M,M,M,M,PHKO 010730Z AUTO 14005KT 10SM CLR A3007 RMK MADISHF
PHKO,2017-04-01 07:35,-156.0456,19.7388,M,M,M,130.00,5.00,M,30.07,M,10.00,M,CLR,M,M,M,M,M,M,M,M,PHKO 010735Z AUTO 13005KT 10SM CLR A3007 RMK MADISHF
PHKO,2017-04-01 07:40,-156.0456,19.7388,M,M,M,130.00,5.00,M,30.08,M,10.00,M,CLR,M,M,M,M,M,M,M,M,PHKO 010740Z AUTO 13005KT 10SM CLR A3008 RMK MADISHF
PHKO,2017-04-01 07:45,-156.0456,19.7388,M,M,M,120.00,5.00,M,30.08,M,10.00,M,CLR,M,M,M,M,M,M,M,M,PHKO 010745Z AUTO 12005KT 10SM CLR A3008 RMK MADISHF
PHKO,2017-04-01 07:50,-156.0456,19.7388,M,M,M,120.00,5.00,M,30.08,M,10.00,M,CLR,M,M,M,M,M,M,M,M,PHKO 010750Z AUTO 12005KT 10SM CLR A3008 RMK MADISHF
PHKO,2017-04-01 07:53,-156.0456,19.7388,77.00,63.00,62.00,120.00,5.00,0.00,30.08,1018.50,10.00,M,CLR,M,M,M,M,M,M,M,M,PHKO 010753Z 12005KT 10SM CLR 25/17 A3008 RMK AO2 SLP185 T02500172
PHKO,2017-04-01 07:55,-156.0456,19.7388,M,M,M,120.00,5.00,M,30.08,M,10.00,M,CLR,M,M,M,M,M,M,M,M,PHKO 010755Z AUTO 12005KT 10SM CLR A3008 RMK MADISHF
PHKO,2017-04-01 08:00,-156.0456,19.7388,M,M,M,120.00,6.00,M,30.08,M,10.00,M,CLR,M,M,M,M,M,M,M,M,PHKO 010800Z AUTO 12006KT 10SM CLR A3008 RMK MADISHF
PHKO,2017-04-01 08:05,-156.0456,19.7388,M,M,M,120.00,5.00,M,30.08,M,10.00,M,CLR,M,M,M,M,M,M,M,M,PHKO 010805Z AUTO 12005KT 10SM CLR A3008 RMK MADISHF
PHKO,2017-04-01 08:10,-156.0456,19.7388,M,M,M,120.00,5.00,M,30.08,M,10.00,M,CLR,M,M,M,M,M,M,M,M,PHKO 010810Z AUTO 12005KT 10SM CLR A3008 RMK MADISHF
PHKO,2017-04-01 08:15,-156.0456,19.7388,M,M,M,120.00,6.00,M,30.08,M,10.00,M,CLR,M,M,M,M,M,M,M,M,PHKO 010815Z AUTO 12006KT 10SM CLR A3008 RMK MADISHF
PHKO,2017-04-01 08:20,-156.0456,19.7388,M,M,M,110.00,6.00,M,30.08,M,10.00,M,CLR,M,M,M,M,M,M,M,M,PHKO 010820Z AUTO 11006KT 10SM CLR A3008 RMK MADISHF
PHKO,2017-04-01 08:25,-156.0456,19.7388,M,M,M,110.00,6.00,M,30.08,M,10.00,M,FEW,M,M,M,5000.00,M,M,M,M,PHKO 010825Z AUTO 11006KT 10SM FEW050 A3008 RMK MADISHF
PHKO,2017-04-01 08:30,-156.0456,19.7388,M,M,M,110.00,6.00,M,30.08,M,10.00,M,FEW,M,M,M,5000.00,M,M,M,M,PHKO 010830Z AUTO 11006KT 10SM FEW050 A3008 RMK MADISHF
PHKO,2017-04-01 08:35,-156.0456,19.7388,M,M,M,110.00,7.00,M,30.08,M,10.00,M,FEW,M,M,M,5000.00,M,M,M,M,PHKO 010835Z AUTO 11007KT 10SM FEW050 A3008 RMK MADISHF
PHKO,2017-04-01 08:40,-156.0456,19.7388,M,M,M,110.00,6.00,M,30.08,M,10.00,M,FEW,M,M,M,5000.00,M,M,M,M,PHKO 010840Z AUTO 11006KT 10SM FEW050 A3008 RMK MADISHF
PHKO,2017-04-01 08:45,-156.0456,19.7388,M,M,M,110.00,5.00,M,30.08,M,10.00,M,FEW,M,M,M,5000.00,M,M,M,M,PHKO 010845Z AUTO 11005KT 10SM FEW050 A3008 RMK MADISHF
PHKO,2017-04-01 08:50,-156.0456,19.7388,M,M,M,100.00,6.00,M,30.08,M,10.00,M,FEW,M,M,M,5000.00,M,M,M,M,PHKO 010850Z AUTO 10006KT 10SM FEW050 A3008 RMK MADISHF
PHKO,2017-04-01 08:53,-156.0456,19.7388,75.90,63.00,64.31,100.00,5.00,0.00,30.08,1018.60,10.00,M,FEW,M,M,M,5500.00,M,M,M,M,PHKO 010853Z AUTO 10005KT 10SM FEW055 24/17 A3008 RMK AO2 SLP186 T02440172 51012 TSNO
PHKO,2017-04-01 08:55,-156.0456,19.7388,M,M,M,110.00,6.00,M,30.08,M,10.00,M,FEW,M,M,M,5500.00,M,M,M,M,PHKO 010855Z AUTO 11006KT 10SM FEW055 A3008 RMK MADISHF
PHKO,2017-04-01 09:00,-156.0456,19.7388,M,M,M,110.00,6.00,M,30.08,M,10.00,M,FEW,M,M,M,5500.00,M,M,M,M,PHKO 010900Z AUTO 11006KT 10SM FEW055 A3008 RMK MADISHF
PHKO,2017-04-01 09:05,-156.0456,19.7388,M,M,M,110.00,5.00,M,30.08,M,10.00,M,FEW,M,M,M,5500.00,M,M,M,M,PHKO 010905Z AUTO 11005KT 10SM FEW055 A3008 RMK MADISHF
PHKO,2017-04-01 09:10,-156.0456,19.7388,M,M,M,110.00,5.00,M,30.08,M,10.00,M,FEW,M,M,M,5500.00,M,M,M,M,PHKO 010910Z AUTO 11005KT 10SM FEW055 A3008 RMK MADISHF
PHKO,2017-04-01 09:15,-156.0456,19.7388,M,M,M,100.00,5.00,M,30.08,M,10.00,M,FEW,M,M,M,5500.00,M,M,M,M,PHKO 010915Z AUTO 10005KT 10SM FEW055 A3008 RMK MADISHF
PHKO,2017-04-01 09:20,-156.0456,19.7388,M,M,M,100.00,5.00,M,30.08,M,10.00,M,FEW,M,M,M,5500.00,M,M,M,M,PHKO 010920Z AUTO 10005KT 10SM FEW055 A3008 RMK MADISHF
PHKO,2017-04-01 09:25,-156.0456,19.7388,M,M,M,110.00,5.00,M,30.08,M,10.00,M,CLR,M,M,M,M,M,M,M,M,PHKO 010925Z AUTO 11005KT 10SM CLR A3008 RMK MADISHF
PHKO,2017-04-01 09:30,-156.0456,19.7388,M,M,M,110.00,5.00,M,30.08,M,10.00,M,CLR,M,M,M,M,M,M,M,M,PHKO 010930Z AUTO 11005KT 10SM CLR A3008 RMK MADISHF
PHKO,2017-04-01 09:35,-156.0456,19.7388,M,M,M,100.00,4.00,M,30.08,M,10.00,M,CLR,M,M,M,M,M,M,M,M,PHKO 010935Z AUTO 10004KT 10SM CLR A3008 RMK MADISHF
PHKO,2017-04-01 09:40,-156.0456,19.7388,M,M,M,100.00,4.00,M,30.08,M,10.00,M,FEW,M,M,M,5000.00,M,M,M,M,PHKO 010940Z AUTO 10004KT 10SM FEW050 A3008 RMK MADISHF
PHKO,2017-04-01 09:45,-156.0456,19.7388,M,M,M,80.00,4.00,M,30.08,M,10.00,M,SCT,M,M,M,5000.00,M,M,M,M,PHKO 010945Z AUTO 08004KT 10SM SCT050 A3008 RMK MADISHF
PHKO,2017-04-01 09:50,-156.0456,19.7388,M,M,M,50.00,6.00,M,30.08,M,10.00,M,SCT,M,M,M,5000.00,M,M,M,M,PHKO 010950Z AUTO 05006KT 10SM SCT050 A3008 RMK MADISHF
PHKO,2017-04-01 09:53,-156.0456,19.7388,75.90,60.10,58.04,60.00,6.00,0.00,30.07,1018.40,10.00,M,SCT,M,M,M,5000.00,M,M,M,M,PHKO 010953Z AUTO 06006KT 10SM SCT050 24/16 A3007 RMK AO2 SLP184 T02440156 402940206 TSNO
PHKO,2017-04-01 09:55,-156.0456,19.7388,M,M,M,60.00,5.00,M,30.07,M,10.00,M,BKN,M,M,M,5000.00,M,M,M,M,PHKO 010955Z AUTO 06005KT 10SM BKN050 A3007 RMK MADISHF
PHKO,2017-04-01 10:00,-156.0456,19.7388,M,M,M,50.00,5.00,M,30.07,M,10.00,M,BKN,M,M,M,5000.00,M,M,M,M,PHKO 011000Z AUTO 05005KT 10SM BKN050 A3007 RMK MADISHF
PHKO,2017-04-01 10:05,-156.0456,19.7388,M,M,M,40.00,3.00,M,30.07,M,10.00,M,BKN,M,M,M,5500.00,M,M,M,M,PHKO 011005Z AUTO 04003KT 10SM BKN055 A3007 RMK MADISHF
PHKO,2017-04-01 10:10,-156.0456,19.7388,M,M,M,40.00,4.00,M,30.07,M,10.00,M,BKN,M,M,M,5500.00,M,M,M,M,PHKO 011010Z AUTO 04004KT 10SM BKN055 A3007 RMK MADISHF
PHKO,2017-04-01 10:15,-156.0456,19.7388,M,M,M,30.00,4.00,M,30.07,M,10.00,M,BKN,M,M,M,5500.00,M,M,M,M,PHKO 011015Z AUTO 03004KT 10SM BKN055 A3007 RMK MADISHF
PHKO,2017-04-01 10:20,-156.0456,19.7388,M,M,M,50.00,3.00,M,30.07,M,10.00,M,BKN,M,M,M,6000.00,M,M,M,M,PHKO 011020Z AUTO 05003KT 10SM BKN060 A3007 RMK MADISHF
PHKO,2017-04-01 10:25,-156.0456,19.7388,M,M,M,70.00,3.00,M,30.07,M,10.00,M,OVC,M,M,M,6000.00,M,M,M,M,PHKO 011025Z AUTO 07003KT 10SM OVC060 A3007 RMK MADISHF
PHKO,2017-04-01 10:30,-156.0456,19.7388,M,M,M,90.00,4.00,M,30.07,M,10.00,M,OVC,M,M,M,6000.00,M,M,M,M,PHKO 011030Z AUTO 09004KT 10SM OVC060 A3007 RMK MADISHF
PHKO,2017-04-01 10:35,-156.0456,19.7388,M,M,M,90.00,3.00,M,30.06,M,10.00,M,OVC,M,M,M,6000.00,M,M,M,M,PHKO 011035Z AUTO 09003KT 10SM OVC060 A3006 RMK MADISHF
PHKO,2017-04-01 10:40,-156.0456,19.7388,M,M,M,100.00,4.00,M,30.06,M,10.00,M,OVC,M,M,M,6500.00,M,M,M,M,PHKO 011040Z AUTO 10004KT 10SM OVC065 A3006 RMK MADISHF
PHKO,2017-04-01 10:45,-156.0456,19.7388,M,M,M,100.00,3.00,M,30.06,M,10.00,M,OVC,M,M,M,7000.00,M,M,M,M,PHKO 011045Z AUTO 10003KT 10SM OVC070 A3006 RMK MADISHF
PHKO,2017-04-01 10:50,-156.0456,19.7388,M,M,M,120.00,3.00,M,30.06,M,10.00,M,OVC,M,M,M,7000.00,M,M,M,M,PHKO 011050Z AUTO 12003KT 10SM OVC070 A3006 RMK MADISHF
PHKO,2017-04-01 10:53,-156.0456,19.7388,77.00,61.00,57.77,120.00,3.00,0.00,30.06,1017.90,10.00,M,BKN,BKN,M,M,7000.00,8000.00,M,M,M,PHKO 011053Z AUTO 12003KT 10SM BKN070 BKN080 25/16 A3006 RMK AO2 SLP179 T02500161 TSNO
PHKO,2017-04-01 10:55,-156.0456,19.7388,M,M,M,120.00,3.00,M,30.06,M,10.00,M,BKN,BKN,M,M,7000.00,7999.00,M,M,M,PHKO 011055Z AUTO 12003KT 10SM BKN070 BKN079 A3006 RMK MADISHF
PHKO,2017-04-01 11:00,-156.0456,19.7388,M,M,M,120.00,3.00,M,30.06,M,10.00,M,SCT,M,M,M,7000.00,M,M,M,M,PHKO 011100Z AUTO 12003KT 10SM SCT070 A3006 RMK MADISHF
PHKO,2017-04-01 11:05,-156.0456,19.7388,M,M,M,110.00,4.00,M,30.06,M,10.00,M,SCT,M,M,M,7000.00,M,M,M,M,PHKO 011105Z AUTO 11004KT 10SM SCT070 A3006 RMK MADISHF
PHKO,2017-04-01 11:10,-156.0456,19.7388,M,M,M,110.00,4.00,M,30.06,M,10.00,M,FEW,M,M,M,7500.00,M,M,M,M,PHKO 011110Z AUTO 11004KT 10SM FEW075 A3006 RMK MADISHF
PHKO,2017-04-01 11:15,-156.0456,19.7388,M,M,M,100.00,4.00,M,30.06,M,10.00,M,FEW,M,M,M,7500.00,M,M,M,M,PHKO 011115Z AUTO 10004KT 10SM FEW075 A3006 RMK MADISHF
PHKO,2017-04-01 11:20,-156.0456,19.7388,M,M,M,90.00,4.00,M,30.06,M,10.00,M,CLR,M,M,M,M,M,M,M,M,PHKO 011120Z AUTO 09004KT 10SM CLR A3006 RMK MADISHF
PHKO,2017-04-01 11:25,-156.0456,19.7388,M,M,M,60.00,4.00,M,30.06,M,10.00,M,CLR,M,M,M,M,M,M,M,M,PHKO 011125Z AUTO 06004KT 10SM CLR A3006 RMK MADISHF
PHKO,2017-04-01 11:30,-156.0456,19.7388,M,M,M,70.00,3.00,M,30.05,M,10.00,M,FEW,M,M,M,6000.00,M,M,M,M,PHKO 011130Z AUTO 07003KT 10SM FEW060 A3005 RMK MADISHF
PHKO,2017-04-01 11:35,-156.0456,19.7388,M,M,M,80.00,3.00,M,30.05,M,10.00,M,SCT,M,M,M,6000.00,M,M,M,M,PHKO 011135Z AUTO 08003KT 10SM SCT060 A3005 RMK MADISHF
PHKO,2017-04-01 11:40,-156.0456,19.7388,M,M,M,90.00,3.00,M,30.05,M,10.00,M,BKN,M,M,M,6000.00,M,M,M,M,PHKO 011140Z AUTO 09003KT 10SM BKN060 A3005 RMK MADISHF
PHKO,2017-04-01 11:45,-156.0456,19.7388,M,M,M,100.00,4.00,M,30.05,M,10.00,M,SCT,M,M,M,6000.00,M,M,M,M,PHKO 011145Z AUTO 10004KT 10SM SCT060 A3005 RMK MADISHF
PHKO,2017-04-01 11:50,-156.0456,19.7388,M,M,M,110.00,4.00,M,30.05,M,10.00,M,SCT,M,M,M,6000.00,M,M,M,M,PHKO 011150Z AUTO 11004KT 10SM SCT060 A3005 RMK MADISHF
PHKO,2017-04-01 11:53,-156.0456,19.7388,75.00,62.10,64.20,110.00,5.00,0.00,30.05,1017.70,10.00,M,SCT,M,M,M,6000.00,M,M,M,M,PHKO 011153Z AUTO 11005KT 10SM SCT060 24/17 A3005 RMK AO2 SLP177 T02390167 10256 20239 58009 TSNO
PHKO,2017-04-01 11:55,-156.0456,19.7388,M,M,M,110.00,4.00,M,30.05,M,10.00,M,SCT,M,M,M,6000.00,M,M,M,M,PHKO 011155Z AUTO 11004KT 10SM SCT060 A3005 RMK MADISHF
PHKO,2017-04-01 12:00,-156.0456,19.7388,M,M,M,110.00,4.00,M,30.05,M,10.00,M,SCT,M,M,M,6000.00,M,M,M,M,PHKO 011200Z AUTO 11004KT 10SM SCT060 A3005 RMK MADISHF
PHKO,2017-04-01 12:05,-156.0456,19.7388,M,M,M,110.00,4.00,M,30.05,M,10.00,M,BKN,M,M,M,6000.00,M,M,M,M,PHKO 011205Z AUTO 11004KT 10SM BKN060 A3005 RMK MADISHF
PHKO,2017-04-01 12:10,-156.0456,19.7388,M,M,M,110.00,4.00,M,30.05,M,10.00,M,BKN,M,M,M,6000.00,M,M,M,M,PHKO 011210Z AUTO 11004KT 10SM BKN060 A3005 RMK MADISHF
PHKO,2017-04-01 12:15,-156.0456,19.7388,M,M,M,110.00,4.00,M,30.05,M,10.00,M,BKN,M,M,M,6000.00,M,M,M,M,PHKO 011215Z AUTO 11004KT 10SM BKN060 A3005 RMK MADISHF
PHKO,2017-04-01 12:20,-156.0456,19.7388,M,M,M,110.00,5.00,M,30.05,M,10.00,M,BKN,M,M,M,6000.00,M,M,M,M,PHKO 011220Z AUTO 11005KT 10SM BKN060 A3005 RMK MADISHF
PHKO,2017-04-01 12:25,-156.0456,19.7388,M,M,M,110.00,4.00,M,30.04,M,10.00,M,OVC,M,M,M,6000.00,M,M,M,M,PHKO 011225Z AUTO 11004KT 10SM OVC060 A3004 RMK MADISHF
PHKO,2017-04-01 12:30,-156.0456,19.7388,M,M,M,110.00,4.00,M,30.04,M,10.00,M,OVC,M,M,M,6000.00,M,M,M,M,PHKO 011230Z AUTO 11004KT 10SM OVC060 A3004 RMK MADISHF
PHKO,2017-04-01 12:35,-156.0456,19.7388,M,M,M,110.00,4.00,M,30.04,M,10.00,M,OVC,M,M,M,6000.00,M,M,M,M,PHKO 011235Z AUTO 11004KT 10SM OVC060 A3004 RMK MADISHF
PHKO,2017-04-01 12:40,-156.0456,19.7388,M,M,M,110.00,4.00,M,30.04,M,10.00,M,OVC,M,M,M,6000.00,M,M,M,M,PHKO 011240Z AUTO 11004KT 10SM OVC060 A3004 RMK MADISHF
PHKO,2017-04-01 12:45,-156.0456,19.7388,M,M,M,120.00,4.00,M,30.04,M,10.00,M,OVC,M,M,M,6000.00,M,M,M,M,PHKO 011245Z AUTO 12004KT 10SM OVC060 A3004 RMK MADISHF
PHKO,2017-04-01 12:50,-156.0456,19.7388,M,M,M,110.00,4.00,M,30.04,M,10.00,M,OVC,M,M,M,6000.00,M,M,M,M,PHKO 011250Z AUTO 11004KT 10SM OVC060 A3004 RMK MADISHF
PHKO,2017-04-01 12:53,-156.0456,19.7388,75.90,62.10,62.30,110.00,4.00,0.00,30.04,1017.20,10.00,M,OVC,M,M,M,6000.00,M,M,M,M,PHKO 011253Z AUTO 11004KT 10SM OVC060 24/17 A3004 RMK AO2 SLP172 T02440167 TSNO
PHKO,2017-04-01 12:55,-156.0456,19.7388,M,M,M,110.00,4.00,M,30.04,M,10.00,M,OVC,M,M,M,6000.00,M,M,M,M,PHKO 011255Z AUTO 11004KT 10SM OVC060 A3004 RMK MADISHF
PHKO,2017-04-01 13:00,-156.0456,19.7388,M,M,M,110.00,5.00,M,30.04,M,10.00,M,BKN,M,M,M,6000.00,M,M,M,M,PHKO 011300Z AUTO 11005KT 10SM BKN060 A3004 RMK MADISHF
PHKO,2017-04-01 13:05,-156.0456,19.7388,M,M,M,110.00,5.00,M,30.04,M,10.00,M,BKN,M,M,M,6000.00,M,M,M,M,PHKO 011305Z AUTO 11005KT 10SM BKN060 A3004 RMK MADISHF
PHKO,2017-04-01 13:10,-156.0456,19.7388,M,M,M,110.00,5.00,M,30.04,M,10.00,M,BKN,M,M,M,6000.00,M,M,M,M,PHKO 011310Z AUTO 11005KT 10SM BKN060 A3004 RMK MADISHF
PHKO,2017-04-01 13:15,-156.0456,19.7388,M,M,M,110.00,4.00,M,30.04,M,10.00,M,SCT,M,M,M,6000.00,M,M,M,M,PHKO 011315Z AUTO 11004KT 10SM SCT060 A3004 RMK MADISHF
PHKO,2017-04-01 13:20,-156.0456,19.7388,M,M,M,110.00,4.00,M,30.04,M,10.00,M,FEW,M,M,M,6000.00,M,M,M,M,PHKO 011320Z AUTO 11004KT 10SM FEW060 A3004 RMK MADISHF
PHKO,2017-04-01 13:25,-156.0456,19.7388,M,M,M,110.00,4.00,M,30.04,M,10.00,M,FEW,M,M,M,6500.00,M,M,M,M,PHKO 011325Z AUTO 11004KT 10SM FEW065 A3004 RMK MADISHF
PHKO,2017-04-01 13:30,-156.0456,19.7388,M,M,M,100.00,5.00,M,30.04,M,10.00,M,CLR,M,M,M,M,M,M,M,M,PHKO 011330Z AUTO 10005KT 10SM CLR A3004 RMK MADISHF
PHKO,2017-04-01 13:35,-156.0456,19.7388,M,M,M,100.00,4.00,M,30.03,M,10.00,M,CLR,M,M,M,M,M,M,M,M,PHKO 011335Z AUTO 10004KT 10SM CLR A3003 RMK MADISHF
PHKO,2017-04-01 13:40,-156.0456,19.7388,M,M,M,100.00,4.00,M,30.04,M,10.00,M,CLR,M,M,M,M,M,M,M,M,PHKO 011340Z AUTO 10004KT 10SM CLR A3004 RMK MADISHF
PHKO,2017-04-01 13:45,-156.0456,19.7388,M,M,M,110.00,4.00,M,30.04,M,10.00,M,CLR,M,M,M,M,M,M,M,M,PHKO 011345Z AUTO 11004KT 10SM CLR A3004 RMK MADISHF
PHKO,2017-04-01 13:50,-156.0456,19.7388,M,M,M,110.00,4.00,M,30.04,M,10.00,M,CLR,M,M,M,M,M,M,M,M,PHKO 011350Z AUTO 11004KT 10SM CLR A3004 RMK MADISHF
PHKO,2017-04-01 13:53,-156.0456,19.7388,73.90,61.00,64.07,100.00,4.00,0.00,30.04,1017.10,10.00,M,CLR,M,M,M,M,M,M,M,M,PHKO 011353Z AUTO 10004KT 10SM CLR 23/16 A3004 RMK AO2 SLP171 T02330161 TSNO
PHKO,2017-04-01 13:55,-156.0456,19.7388,M,M,M,100.00,4.00,M,30.04,M,10.00,M,CLR,M,M,M,M,M,M,M,M,PHKO 011355Z AUTO 10004KT 10SM CLR A3004 RMK MADISHF
PHKO,2017-04-01 14:00,-156.0456,19.7388,M,M,M,90.00,5.00,M,30.04,M,10.00,M,CLR,M,M,M,M,M,M,M,M,PHKO 011400Z AUTO 09005KT 10SM CLR A3004 RMK MADISHF
PHKO,2017-04-01 14:05,-156.0456,19.7388,M,M,M,90.00,4.00,M,30.04,M,10.00,M,CLR,M,M,M,M,M,M,M,M,PHKO 011405Z AUTO 09004KT 10SM CLR A3004 RMK MADISHF
PHKO,2017-04-01 14:10,-156.0456,19.7388,M,M,M,100.00,4.00,M,30.04,M,10.00,M,CLR,M,M,M,M,M,M,M,M,PHKO 011410Z AUTO 10004KT 10SM CLR A3004 RMK MADISHF
PHKO,2017-04-01 14:15,-156.0456,19.7388,M,M,M,100.00,5.00,M,30.04,M,10.00,M,CLR,M,M,M,M,M,M,M,M,PHKO 011415Z AUTO 10005KT 10SM CLR A3004 RMK MADISHF
PHKO,2017-04-01 14:20,-156.0456,19.7388,M,M,M,110.00,5.00,M,30.04,M,10.00,M,CLR,M,M,M,M,M,M,M,M,PHKO 011420Z AUTO 11005KT 10SM CLR A3004 RMK MADISHF
PHKO,2017-04-01 14:25,-156.0456,19.7388,M,M,M,110.00,5.00,M,30.04,M,10.00,M,CLR,M,M,M,M,M,M,M,M,PHKO 011425Z AUTO 11005KT 10SM CLR A3004 RMK MADISHF
PHKO,2017-04-01 14:30,-156.0456,19.7388,M,M,M,100.00,6.00,M,30.04,M,10.00,M,CLR,M,M,M,M,M,M,M,M,PHKO 011430Z AUTO 10006KT 10SM CLR A3004 RMK MADISHF
PHKO,2017-04-01 14:35,-156.0456,19.7388,M,M,M,110.00,6.00,M,30.04,M,10.00,M,CLR,M,M,M,M,M,M,M,M,PHKO 011435Z AUTO 11006KT 10SM CLR A3004 RMK MADISHF
PHKO,2017-04-01 14:40,-156.0456,19.7388,M,M,M,110.00,6.00,M,30.04,M,10.00,M,CLR,M,M,M,M,M,M,M,M,PHKO 011440Z AUTO 11006KT 10SM CLR A3004 RMK MADISHF
PHKO,2017-04-01 14:45,-156.0456,19.7388,M,M,M,110.00,6.00,M,30.04,M,10.00,M,CLR,M,M,M,M,M,M,M,M,PHKO 011445Z AUTO 11006KT 10SM CLR A3004 RMK MADISHF
PHKO,2017-04-01 14:50,-156.0456,19.7388,M,M,M,100.00,6.00,M,30.04,M,10.00,M,CLR,M,M,M,M,M,M,M,M,PHKO 011450Z AUTO 10006KT 10SM CLR A3004 RMK MADISHF
PHKO,2017-04-01 14:53,-156.0456,19.7388,73.90,62.10,66.61,110.00,6.00,0.00,30.04,1017.20,10.00,M,CLR,M,M,M,M,M,M,M,M,PHKO 011453Z AUTO 11006KT 10SM CLR 23/17 A3004 RMK AO2 SLP172 T02330167 55004 TSNO
PHKO,2017-04-01 14:55,-156.0456,19.7388,M,M,M,110.00,5.00,M,30.04,M,10.00,M,CLR,M,M,M,M,M,M,M,M,PHKO 011455Z AUTO 11005KT 10SM CLR A3004 RMK MADISHF
PHKO,2017-04-01 15:00,-156.0456,19.7388,M,M,M,100.00,6.00,M,30.04,M,10.00,M,CLR,M,M,M,M,M,M,M,M,PHKO 011500Z AUTO 10006KT 10SM CLR A3004 RMK MADISHF
PHKO,2017-04-01 15:05,-156.0456,19.7388,M,M,M,100.00,6.00,M,30.04,M,10.00,M,CLR,M,M,M,M,M,M,M,M,PHKO 011505Z AUTO 10006KT 10SM CLR A3004 RMK MADISHF
PHKO,2017-04-01 15:10,-156.0456,19.7388,M,M,M,90.00,5.00,M,30.05,M,10.00,M,CLR,M,M,M,M,M,M,M,M,PHKO 011510Z AUTO 09005KT 10SM CLR A3005 RMK MADISHF
PHKO,2017-04-01 15:15,-156.0456,19.7388,M,M,M,100.00,4.00,M,30.05,M,10.00,M,CLR,M,M,M,M,M,M,M,M,PHKO 011515Z AUTO 10004KT 10SM CLR A3005 RMK MADISHF
PHKO,2017-04-01 15:20,-156.0456,19.7388,M,M,M,110.00,5.00,M,30.05,M,10.00,M,CLR,M,M,M,M,M,M,M,M,PHKO 011520Z AUTO 11005KT 10SM CLR A3005 RMK MADISHF
PHKO,2017-04-01 15:25,-156.0456,19.7388,M,M,M,110.00,5.00,M,30.05,M,10.00,M,CLR,M,M,M,M,M,M,M,M,PHKO 011525Z AUTO 11005KT 10SM CLR A3005 RMK MADISHF
PHKO,2017-04-01 15:30,-156.0456,19.7388,M,M,M,110.00,5.00,M,30.05,M,10.00,M,CLR,M,M,M,M,M,M,M,M,PHKO 011530Z AUTO 11005KT 10SM CLR A3005 RMK MADISHF
PHKO,2017-04-01 15:35,-156.0456,19.7388,M,M,M,90.00,4.00,M,30.05,M,10.00,M,FEW,M,M,M,2900.00,M,M,M,M,PHKO 011535Z AUTO 09004KT 10SM FEW029 A3005 RMK MADISHF
PHKO,2017-04-01 15:40,-156.0456,19.7388,M,M,M,80.00,4.00,M,30.05,M,10.00,M,FEW,FEW,M,M,2400.00,2900.00,M,M,M,PHKO 011540Z AUTO 08004KT 10SM FEW024 FEW029 A3005 RMK MADISHF
PHKO,2017-04-01 15:45,-156.0456,19.7388,M,M,M,80.00,3.00,M,30.05,M,10.00,M,SCT,M,M,M,2400.00,M,M,M,M,PHKO 011545Z AUTO 08003KT 10SM SCT024 A3005 RMK MADISHF
PHKO,2017-04-01 15:50,-156.0456,19.7388,M,M,M,60.00,3.00,M,30.05,M,10.00,M,BKN,M,M,M,2400.00,M,M,M,M,PHKO 011550Z AUTO 06003KT 10SM BKN024 A3005 RMK MADISHF
PHKO,2017-04-01 15:53,-156.0456,19.7388,73.00,62.10,68.66,50.00,4.00,0.00,30.05,1017.70,10.00,M,BKN,M,M,M,2600.00,M,M,M,M,PHKO 011553Z 05004KT 10SM BKN026 23/17 A3005 RMK AO2 SLP177 T02280167
PHKO,2017-04-01 15:55,-156.0456,19.7388,M,M,M,50.00,4.00,M,30.05,M,10.00,M,BKN,M,M,M,2600.00,M,M,M,M,PHKO 011555Z AUTO 05004KT 10SM BKN026 A3005 RMK MADISHF
PHKO,2017-04-01 16:00,-156.0456,19.7388,M,M,M,70.00,5.00,M,30.05,M,10.00,M,BKN,M,M,M,2600.00,M,M,M,M,PHKO 011600Z AUTO 07005KT 10SM BKN026 A3005 RMK MADISHF
PHKO,2017-04-01 16:05,-156.0456,19.7388,M,M,M,80.00,5.00,M,30.05,M,10.00,M,SCT,M,M,M,2600.00,M,M,M,M,PHKO 011605Z AUTO 08005KT 10SM SCT026 A3005 RMK MADISHF
PHKO,2017-04-01 16:10,-156.0456,19.7388,M,M,M,80.00,4.00,M,30.05,M,10.00,M,SCT,M,M,M,2600.00,M,M,M,M,PHKO 011610Z AUTO 08004KT 10SM SCT026 A3005 RMK MADISHF
PHKO,2017-04-01 16:11,-156.0456,19.7388,73.00,62.10,68.66,80.00,4.00,0.00,30.06,M,10.00,M,SCT,M,M,M,2600.00,M,M,M,M,PHKO 011611Z 08004KT 10SM SCT026 23/17 A3006 RMK AO2 T02280167
PHKO,2017-04-01 16:15,-156.0456,19.7388,M,M,M,80.00,5.00,M,30.06,M,10.00,M,SCT,M,M,M,2600.00,M,M,M,M,PHKO 011615Z AUTO 08005KT 10SM SCT026 A3006 RMK MADISHF
PHKO,2017-04-01 16:20,-156.0456,19.7388,M,M,M,90.00,4.00,M,30.06,M,10.00,M,FEW,M,M,M,2600.00,M,M,M,M,PHKO 011620Z AUTO 09004KT 10SM FEW026 A3006 RMK MADISHF
PHKO,2017-04-01 16:25,-156.0456,19.7388,M,M,M,90.00,4.00,M,30.06,M,10.00,M,CLR,M,M,M,M,M,M,M,M,PHKO 011625Z AUTO 09004KT 10SM CLR A3006 RMK MADISHF
PHKO,2017-04-01 16:30,-156.0456,19.7388,M,M,M,90.00,4.00,M,30.06,M,10.00,M,CLR,M,M,M,M,M,M,M,M,PHKO 011630Z AUTO 09004KT 10SM CLR A3006 RMK MADISHF
PHKO,2017-04-01 16:35,-156.0456,19.7388,M,M,M,90.00,3.00,M,30.06,M,10.00,M,CLR,M,M,M,M,M,M,M,M,PHKO 011635Z AUTO 09003KT 10SM CLR A3006 RMK MADISHF
PHKO,2017-04-01 16:40,-156.0456,19.7388,M,M,M,70.00,5.00,M,30.06,M,10.00,M,CLR,M,M,M,M,M,M,M,M,PHKO 011640Z AUTO 07005KT 10SM CLR A3006 RMK MADISHF
PHKO,2017-04-01 16:45,-156.0456,19.7388,M,M,M,80.00,5.00,M,30.06,M,10.00,M,CLR,M,M,M,M,M,M,M,M,PHKO 011645Z AUTO 08005KT 10SM CLR A3006 RMK MADISHF
PHKO,2017-04-01 16:50,-156.0456,19.7388,M,M,M,80.00,6.00,M,30.07,M,10.00,M,CLR,M,M,M,M,M,M,M,M,PHKO 011650Z AUTO 08006KT 10SM CLR A3007 RMK MADISHF
PHKO,2017-04-01 16:53,-156.0456,19.7388,73.00,63.00,70.87,80.00,5.00,0.00,30.07,1018.10,10.00,M,CLR,M,M,M,M,M,M,M,M,PHKO 011653Z 08005KT 10SM CLR 23/17 A3007 RMK AO2 SLP181 T02280172
PHKO,2017-04-01 16:55,-156.0456,19.7388,M,M,M,80.00,5.00,M,30.07,M,10.00,M,CLR,M,M,M,M,M,M,M,M,PHKO 011655Z AUTO 08005KT 10SM CLR A3007 RMK MADISHF
PHKO,2017-04-01 17:00,-156.0456,19.7388,M,M,M,90.00,4.00,M,30.07,M,10.00,M,CLR,M,M,M,M,M,M,M,M,PHKO 011700Z AUTO 09004KT 10SM CLR A3007 RMK MADISHF
PHKO,2017-04-01 17:05,-156.0456,19.7388,M,M,M,100.00,3.00,M,30.07,M,10.00,M,CLR,M,M,M,M,M,M,M,M,PHKO 011705Z AUTO 10003KT 10SM CLR A3007 RMK MADISHF
PHKO,2017-04-01 17:10,-156.0456,19.7388,M,M,M,100.00,5.00,M,30.07,M,10.00,M,CLR,M,M,M,M,M,M,M,M,PHKO 011710Z AUTO 10005KT 10SM CLR A3007 RMK MADISHF
PHKO,2017-04-01 17:15,-156.0456,19.7388,M,M,M,110.00,4.00,M,30.07,M,10.00,M,CLR,M,M,M,M,M,M,M,M,PHKO 011715Z AUTO 11004KT 10SM CLR A3007 RMK MADISHF
PHKO,2017-04-01 17:20,-156.0456,19.7388,M,M,M,110.00,4.00,M,30.07,M,10.00,M,CLR,M,M,M,M,M,M,M,M,PHKO 011720Z AUTO 11004KT 10SM CLR A3007 RMK MADISHF
PHKO,2017-04-01 17:25,-156.0456,19.7388,M,M,M,100.00,3.00,M,30.07,M,10.00,M,CLR,M,M,M,M,M,M,M,M,PHKO 011725Z AUTO 10003KT 10SM CLR A3007 RMK MADISHF
PHKO,2017-04-01 17:30,-156.0456,19.7388,M,M,M,60.00,3.00,M,30.07,M,10.00,M,CLR,M,M,M,M,M,M,M,M,PHKO 011730Z AUTO 06003KT 10SM CLR A3007 RMK MADISHF
PHKO,2017-04-01 17:35,-156.0456,19.7388,M,M,M,60.00,3.00,M,30.07,M,10.00,M,CLR,M,M,M,M,M,M,M,M,PHKO 011735Z AUTO 06003KT 10SM CLR A3007 RMK MADISHF
PHKO,2017-04-01 17:40,-156.0456,19.7388,M,M,M,90.00,4.00,M,30.08,M,10.00,M,CLR,M,M,M,M,M,M,M,M,PHKO 011740Z AUTO 09004KT 10SM CLR A3008 RMK MADISHF
PHKO,2017-04-01 17:45,-156.0456,19.7388,M,M,M,100.00,3.00,M,30.08,M,10.00,M,CLR,M,M,M,M,M,M,M,M,PHKO 011745Z AUTO 10003KT 10SM CLR A3008 RMK MADISHF
PHKO,2017-04-01 17:50,-156.0456,19.7388,M,M,M,130.00,3.00,M,30.08,M,10.00,M,FEW,M,M,M,3999.00,M,M,M,M,PHKO 011750Z AUTO 13003KT 10SM FEW039 A3008 RMK MADISHF
PHKO,2017-04-01 17:53,-156.0456,19.7388,77.00,64.90,66.27,150.00,4.00,0.00,30.08,1018.60,10.00,M,FEW,M,M,M,4000.00,M,M,M,M,PHKO 011753Z 15004KT 10SM FEW040 25/18 A3008 RMK AO2 SLP186 T02500183 10250 20228 52014
PHKO,2017-04-01 17:55,-156.0456,19.7388,M,M,M,140.00,4.00,M,30.08,M,10.00,M,CLR,M,M,M,M,M,M,M,M,PHKO 011755Z AUTO 14004KT 10SM CLR A3008 RMK MADISHF
PHKO,2017-04-01 18:00,-156.0456,19.7388,M,M,M,170.00,4.00,M,30.08,M,10.00,M,CLR,M,M,M,M,M,M,M,M,PHKO 011800Z AUTO 17004KT 10SM CLR A3008 RMK MADISHF
PHKO,2017-04-01 18:05,-156.0456,19.7388,M,M,M,0.00,0.00,M,30.08,M,10.00,M,CLR,M,M,M,M,M,M,M,M,PHKO 011805Z AUTO 00000KT 10SM CLR A3008 RMK MADISHF
PHKO,2017-04-01 18:10,-156.0456,19.7388,M,M,M,170.00,4.00,M,30.08,M,10.00,M,CLR,M,M,M,M,M,M,M,M,PHKO 011810Z AUTO 17004KT 10SM CLR A3008 RMK VRB04KT  MADISHF
PHKO,2017-04-01 18:15,-156.0456,19.7388,M,M,M,210.00,6.00,M,30.08,M,10.00,M,CLR,M,M,M,M,M,M,M,M,PHKO 011815Z AUTO 21006KT 10SM CLR A3008 RMK MADISHF
PHKO,2017-04-01 18:20,-156.0456,19.7388,M,M,M,200.00,6.00,M,30.08,M,10.00,M,CLR,M,M,M,M,M,M,M,M,PHKO 011820Z AUTO 20006KT 10SM CLR A3008 RMK MADISHF
PHKO,2017-04-01 18:25,-156.0456,19.7388,M,M,M,190.00,5.00,M,30.08,M,10.00,M,CLR,M,M,M,M,M,M,M,M,PHKO 011825Z AUTO 19005KT 10SM CLR A3008 RMK MADISHF
PHKO,2017-04-01 18:30,-156.0456,19.7388,M,M,M,200.00,6.00,M,30.08,M,10.00,M,CLR,M,M,M,M,M,M,M,M,PHKO 011830Z AUTO 20006KT 10SM CLR A3008 RMK MADISHF
PHKO,2017-04-01 18:35,-156.0456,19.7388,M,M,M,180.00,7.00,M,30.08,M,10.00,M,CLR,M,M,M,M,M,M,M,M,PHKO 011835Z AUTO 18007KT 10SM CLR A3008 RMK MADISHF
PHKO,2017-04-01 18:40,-156.0456,19.7388,M,M,M,150.00,5.00,M,30.08,M,10.00,M,CLR,M,M,M,M,M,M,M,M,PHKO 011840Z AUTO 15005KT 10SM CLR A3008 RMK MADISHF
PHKO,2017-04-01 18:45,-156.0456,19.7388,M,M,M,200.00,5.00,M,30.08,M,10.00,M,CLR,M,M,M,M,M,M,M,M,PHKO 011845Z AUTO 20005KT 10SM CLR A3008 RMK MADISHF
PHKO,2017-04-01 18:50,-156.0456,19.7388,M,M,M,160.00,7.00,M,30.08,M,10.00,M,CLR,M,M,M,M,M,M,M,M,PHKO 011850Z AUTO 16007KT 10SM CLR A3008 RMK MADISHF
PHKO,2017-04-01 18:53,-156.0456,19.7388,80.10,64.90,59.83,190.00,8.00,0.00,30.08,1018.80,10.00,M,SCT,M,M,M,4000.00,M,M,M,M,PHKO 011853Z 19008KT 10SM SCT040 27/18 A3008 RMK AO2 SLP188 T02670183
PHKO,2017-04-01 18:55,-156.0456,19.7388,M,M,M,200.00,8.00,M,30.08,M,10.00,M,CLR,M,M,M,M,M,M,M,M,PHKO 011855Z AUTO 20008KT 10SM CLR A3008 RMK MADISHF
PHKO,2017-04-01 19:00,-156.0456,19.7388,M,M,M,200.00,9.00,M,30.08,M,10.00,M,CLR,M,M,M,M,M,M,M,M,PHKO 011900Z AUTO 20009KT 10SM CLR A3008 RMK MADISHF
PHKO,2017-04-01 19:05,-156.0456,19.7388,M,M,M,190.00,7.00,M,30.08,M,10.00,M,CLR,M,M,M,M,M,M,M,M,PHKO 011905Z AUTO 19007KT 10SM CLR A3008 RMK MADISHF
PHKO,2017-04-01 19:10,-156.0456,19.7388,M,M,M,200.00,9.00,M,30.08,M,10.00,M,CLR,M,M,M,M,M,M,M,M,PHKO 011910Z AUTO 20009KT 10SM CLR A3008 RMK MADISHF
PHKO,2017-04-01 19:15,-156.0456,19.7388,M,M,M,210.00,9.00,M,30.08,M,10.00,M,CLR,M,M,M,M,M,M,M,M,PHKO 011915Z AUTO 21009KT 10SM CLR A3008 RMK MADISHF
PHKO,2017-04-01 19:20,-156.0456,19.7388,M,M,M,210.00,9.00,M,30.08,M,10.00,M,CLR,M,M,M,M,M,M,M,M,PHKO 011920Z AUTO 21009KT 10SM CLR A3008 RMK MADISHF
PHKO,2017-04-01 19:25,-156.0456,19.7388,M,M,M,200.00,9.00,M,30.08,M,10.00,M,CLR,M,M,M,M,M,M,M,M,PHKO 011925Z AUTO 20009KT 10SM CLR A3008 RMK MADISHF
PHKO,2017-04-01 19:30,-156.0456,19.7388,M,M,M,190.00,10.00,M,30.08,M,10.00,M,CLR,M,M,M,M,M,M,M,M,PHKO 011930Z AUTO 19010KT 10SM CLR A3008 RMK MADISHF
PHKO,2017-04-01 19:35,-156.0456,19.7388,M,M,M,190.00,10.00,M,30.08,M,10.00,M,CLR,M,M,M,M,M,M,M,M,PHKO 011935Z AUTO 19010KT 10SM CLR A3008 RMK MADISHF
PHKO,2017-04-01 19:40,-156.0456,19.7388,M,M,M,200.00,10.00,M,30.08,M,10.00,M,CLR,M,M,M,M,M,M,M,M,PHKO 011940Z AUTO 20010KT 10SM CLR A3008 RMK MADISHF
PHKO,2017-04-01 19:45,-156.0456,19.7388,M,M,M,200.00,8.00,M,30.08,M,10.00,M,CLR,M,M,M,M,M,M,M,M,PHKO 011945Z AUTO 20008KT 10SM CLR A3008 RMK MADISHF
PHKO,2017-04-01 19:50,-156.0456,19.7388,M,M,M,200.00,9.00,M,30.08,M,10.00,M,FEW,M,M,M,4500.00,M,M,M,M,PHKO 011950Z AUTO 20009KT 10SM FEW045 A3008 RMK MADISHF
PHKO,2017-04-01 19:53,-156.0456,19.7388,80.10,66.00,62.17,210.00,9.00,0.00,30.08,1018.60,10.00,M,FEW,M,M,M,4500.00,M,M,M,M,PHKO 011953Z 21009KT 10SM FEW045 27/19 A3008 RMK AO2 SLP186 T02670189
PHKO,2017-04-01 19:55,-156.0456,19.7388,M,M,M,210.00,9.00,M,30.08,M,10.00,M,CLR,M,M,M,M,M,M,M,M,PHKO 011955Z AUTO 21009KT 10SM CLR A3008 RMK MADISHF
PHKO,2017-04-01 20:00,-156.0456,19.7388,M,M,M,200.00,8.00,M,30.08,M,10.00,M,CLR,M,M,M,M,M,M,M,M,PHKO 012000Z AUTO 20008KT 10SM CLR A3008 RMK MADISHF
PHKO,2017-04-01 20:05,-156.0456,19.7388,M,M,M,190.00,8.00,M,30.08,M,10.00,M,CLR,M,M,M,M,M,M,M,M,PHKO 012005Z AUTO 19008KT 10SM CLR A3008 RMK MADISHF
PHKO,2017-04-01 20:10,-156.0456,19.7388,M,M,M,210.00,8.00,M,30.08,M,10.00,M,CLR,M,M,M,M,M,M,M,M,PHKO 012010Z AUTO 21008KT 10SM CLR A3008 RMK MADISHF
PHKO,2017-04-01 20:15,-156.0456,19.7388,M,M,M,210.00,10.00,M,30.08,M,10.00,M,CLR,M,M,M,M,M,M,M,M,PHKO 012015Z AUTO 21010KT 10SM CLR A3008 RMK MADISHF
PHKO,2017-04-01 20:20,-156.0456,19.7388,M,M,M,190.00,10.00,M,30.08,M,10.00,M,CLR,M,M,M,M,M,M,M,M,PHKO 012020Z AUTO 19010KT 10SM CLR A3008 RMK MADISHF
PHKO,2017-04-01 20:25,-156.0456,19.7388,M,M,M,210.00,9.00,M,30.08,M,10.00,M,CLR,M,M,M,M,M,M,M,M,PHKO 012025Z AUTO 21009KT 10SM CLR A3008 RMK MADISHF
PHKO,2017-04-01 20:30,-156.0456,19.7388,M,M,M,190.00,8.00,M,30.08,M,10.00,M,CLR,M,M,M,M,M,M,M,M,PHKO 012030Z AUTO 19008KT 10SM CLR A3008 RMK MADISHF
PHKO,2017-04-01 20:35,-156.0456,19.7388,M,M,M,200.00,9.00,M,30.08,M,10.00,M,CLR,M,M,M,M,M,M,M,M,PHKO 012035Z AUTO 20009KT 10SM CLR A3008 RMK MADISHF
PHKO,2017-04-01 20:40,-156.0456,19.7388,M,M,M,190.00,9.00,M,30.08,M,10.00,M,CLR,M,M,M,M,M,M,M,M,PHKO 012040Z AUTO 19009KT 10SM CLR A3008 RMK MADISHF
PHKO,2017-04-01 20:45,-156.0456,19.7388,M,M,M,190.00,9.00,M,30.08,M,10.00,M,CLR,M,M,M,M,M,M,M,M,PHKO 012045Z AUTO 19009KT 10SM CLR A3008 RMK MADISHF
PHKO,2017-04-01 20:50,-156.0456,19.7388,M,M,M,210.00,9.00,M,30.08,M,10.00,M,CLR,M,M,M,M,M,M,M,M,PHKO 012050Z AUTO 21009KT 10SM CLR A3008 RMK MADISHF
PHKO,2017-04-01 20:53,-156.0456,19.7388,82.00,66.90,60.28,200.00,9.00,0.00,30.07,1018.40,10.00,M,CLR,M,M,M,M,M,M,M,M,PHKO 012053Z 20009KT 10SM CLR 28/19 A3007 RMK AO2 SLP184 T02780194 58002
PHKO,2017-04-01 20:55,-156.0456,19.7388,M,M,M,210.00,10.00,M,30.07,M,10.00,M,SCT,M,M,M,5500.00,M,M,M,M,PHKO 012055Z AUTO 21010KT 10SM SCT055 A3007 RMK MADISHF
PHKO,2017-04-01 21:00,-156.0456,19.7388,M,M,M,180.00,9.00,M,30.08,M,10.00,M,SCT,M,M,M,5500.00,M,M,M,M,PHKO 012100Z AUTO 18009KT 10SM SCT055 A3008 RMK MADISHF
PHKO,2017-04-01 21:05,-156.0456,19.7388,M,M,M,190.00,9.00,M,30.07,M,10.00,M,SCT,M,M,M,5500.00,M,M,M,M,PHKO 012105Z AUTO 19009KT 10SM SCT055 A3007 RMK MADISHF
PHKO,2017-04-01 21:10,-156.0456,19.7388,M,M,M,200.00,9.00,M,30.07,M,10.00,M,SCT,M,M,M,5500.00,M,M,M,M,PHKO 012110Z AUTO 20009KT 10SM SCT055 A3007 RMK MADISHF
PHKO,2017-04-01 21:15,-156.0456,19.7388,M,M,M,210.00,10.00,M,30.07,M,10.00,M,SCT,M,M,M,5500.00,M,M,M,M,PHKO 012115Z AUTO 21010KT 10SM SCT055 A3007 RMK MADISHF
PHKO,2017-04-01 21:20,-156.0456,19.7388,M,M,M,190.00,10.00,M,30.07,M,10.00,M,SCT,M,M,M,5500.00,M,M,M,M,PHKO 012120Z AUTO 19010KT 10SM SCT055 A3007 RMK MADISHF
PHKO,2017-04-01 21:25,-156.0456,19.7388,M,M,M,200.00,10.00,M,30.07,M,10.00,M,SCT,M,M,M,5500.00,M,M,M,M,PHKO 012125Z AUTO 20010KT 10SM SCT055 A3007 RMK MADISHF
PHKO,2017-04-01 21:30,-156.0456,19.7388,M,M,M,210.00,10.00,M,30.07,M,10.00,M,SCT,M,M,M,5500.00,M,M,M,M,PHKO 012130Z AUTO 21010KT 10SM SCT055 A3007 RMK MADISHF
PHKO,2017-04-01 21:35,-156.0456,19.7388,M,M,M,210.00,9.00,M,30.07,M,10.00,M,SCT,M,M,M,5500.00,M,M,M,M,PHKO 012135Z AUTO 21009KT 10SM SCT055 A3007 RMK MADISHF
PHKO,2017-04-01 21:40,-156.0456,19.7388,M,M,M,210.00,9.00,M,30.07,M,10.00,M,SCT,M,M,M,5500.00,M,M,M,M,PHKO 012140Z AUTO 21009KT 10SM SCT055 A3007 RMK MADISHF
PHKO,2017-04-01 21:45,-156.0456,19.7388,M,M,M,190.00,10.00,M,30.06,M,10.00,M,SCT,M,M,M,5500.00,M,M,M,M,PHKO 012145Z AUTO 19010KT 10SM SCT055 A3006 RMK MADISHF
PHKO,2017-04-01 21:50,-156.0456,19.7388,M,M,M,200.00,11.00,M,30.06,M,10.00,M,SCT,M,M,M,5500.00,M,M,M,M,PHKO 012150Z AUTO 20011KT 10SM SCT055 A3006 RMK MADISHF
PHKO,2017-04-01 21:53,-156.0456,19.7388,82.00,66.90,60.28,190.00,9.00,0.00,30.06,1018.10,10.00,M,SCT,M,M,M,5500.00,M,M,M,M,PHKO 012153Z 19009KT 10SM SCT055 28/19 A3006 RMK AO2 SLP181 T02780194
PHKO,2017-04-01 21:55,-156.0456,19.7388,M,M,M,210.00,11.00,M,30.06,M,10.00,M,CLR,M,M,M,M,M,M,M,M,PHKO 012155Z AUTO 21011KT 10SM CLR A3006 RMK MADISHF
PHKO,2017-04-01 22:00,-156.0456,19.7388,M,M,M,200.00,10.00,M,30.06,M,10.00,M,CLR,M,M,M,M,M,M,M,M,PHKO 012200Z AUTO 20010KT 10SM CLR A3006 RMK MADISHF
PHKO,2017-04-01 22:05,-156.0456,19.7388,M,M,M,200.00,10.00,M,30.06,M,10.00,M,CLR,M,M,M,M,M,M,M,M,PHKO 012205Z AUTO 20010KT 10SM CLR A3006 RMK MADISHF
PHKO,2017-04-01 22:10,-156.0456,19.7388,M,M,M,200.00,11.00,M,30.06,M,10.00,M,CLR,M,M,M,M,M,M,M,M,PHKO 012210Z AUTO 20011KT 10SM CLR A3006 RMK MADISHF
PHKO,2017-04-01 22:15,-156.0456,19.7388,M,M,M,200.00,9.00,M,30.06,M,10.00,M,CLR,M,M,M,M,M,M,M,M,PHKO 012215Z AUTO 20009KT 10SM CLR A3006 RMK MADISHF
PHKO,2017-04-01 22:20,-156.0456,19.7388,M,M,M,200.00,10.00,M,30.06,M,10.00,M,CLR,M,M,M,M,M,M,M,M,PHKO 012220Z AUTO 20010KT 10SM CLR A3006 RMK MADISHF
PHKO,2017-04-01 22:25,-156.0456,19.7388,M,M,M,200.00,11.00,M,30.06,M,10.00,M,CLR,M,M,M,M,M,M,M,M,PHKO 012225Z AUTO 20011KT 10SM CLR A3006 RMK MADISHF
PHKO,2017-04-01 22:30,-156.0456,19.7388,M,M,M,190.00,11.00,M,30.05,M,10.00,M,CLR,M,M,M,M,M,M,M,M,PHKO 012230Z AUTO 19011KT 10SM CLR A3005 RMK MADISHF
PHKO,2017-04-01 22:35,-156.0456,19.7388,M,M,M,210.00,11.00,M,30.05,M,10.00,M,CLR,M,M,M,M,M,M,M,M,PHKO 012235Z AUTO 21011KT 10SM CLR A3005 RMK MADISHF
PHKO,2017-04-01 22:40,-156.0456,19.7388,M,M,M,210.00,11.00,M,30.05,M,10.00,M,CLR,M,M,M,M,M,M,M,M,PHKO 012240Z AUTO 21011KT 10SM CLR A3005 RMK MADISHF
PHKO,2017-04-01 22:45,-156.0456,19.7388,M,M,M,180.00,12.00,M,30.05,M,10.00,M,CLR,M,M,M,M,M,M,M,M,PHKO 012245Z AUTO 18012KT 10SM CLR A3005 RMK MADISHF
PHKO,2017-04-01 22:50,-156.0456,19.7388,M,M,M,210.00,11.00,M,30.05,M,10.00,M,SCT,M,M,M,5500.00,M,M,M,M,PHKO 012250Z AUTO 21011KT 10SM SCT055 A3005 RMK MADISHF
PHKO,2017-04-01 22:53,-156.0456,19.7388,82.90,66.90,58.55,180.00,11.00,0.00,30.05,1017.40,10.00,M,SCT,M,M,M,5500.00,M,M,M,M,PHKO 012253Z 18011KT 10SM SCT055 28/19 A3005 RMK AO2 SLP174 T02830194
PHKO,2017-04-01 22:55,-156.0456,19.7388,M,M,M,200.00,11.00,M,30.04,M,10.00,M,CLR,M,M,M,M,M,M,M,M,PHKO 012255Z AUTO 20011KT 10SM CLR A3004 RMK MADISHF
PHKO,2017-04-01 23:00,-156.0456,19.7388,M,M,M,180.00,12.00,M,30.04,M,10.00,M,CLR,M,M,M,M,M,M,M,M,PHKO 012300Z AUTO 18012KT 10SM CLR A3004 RMK MADISHF
PHKO,2017-04-01 23:05,-156.0456,19.7388,M,M,M,200.00,11.00,M,30.04,M,10.00,M,CLR,M,M,M,M,M,M,M,M,PHKO 012305Z AUTO 20011KT 10SM CLR A3004 RMK MADISHF
PHKO,2017-04-01 23:10,-156.0456,19.7388,M,M,M,210.00,11.00,M,30.04,M,10.00,M,CLR,M,M,M,M,M,M,M,M,PHKO 012310Z AUTO 21011KT 10SM CLR A3004 RMK MADISHF
PHKO,2017-04-01 23:15,-156.0456,19.7388,M,M,M,200.00,11.00,M,30.04,M,10.00,M,CLR,M,M,M,M,M,M,M,M,PHKO 012315Z AUTO 20011KT 10SM CLR A3004 RMK MADISHF
PHKO,2017-04-01 23:20,-156.0456,19.7388,M,M,M,220.00,11.00,M,30.03,M,10.00,M,CLR,M,M,M,M,M,M,M,M,PHKO 012320Z AUTO 22011KT 10SM CLR A3003 RMK MADISHF
PHKO,2017-04-01 23:25,-156.0456,19.7388,M,M,M,210.00,11.00,M,30.03,M,10.00,M,CLR,M,M,M,M,M,M,M,M,PHKO 012325Z AUTO 21011KT 10SM CLR A3003 RMK MADISHF
PHKO,2017-04-01 23:30,-156.0456,19.7388,M,M,M,210.00,11.00,M,30.03,M,10.00,M,CLR,M,M,M,M,M,M,M,M,PHKO 012330Z AUTO 21011KT 10SM CLR A3003 RMK MADISHF
PHKO,2017-04-01 23:35,-156.0456,19.7388,M,M,M,200.00,12.00,M,30.03,M,10.00,M,CLR,M,M,M,M,M,M,M,M,PHKO 012335Z AUTO 20012KT 10SM CLR A3003 RMK MADISHF
PHKO,2017-04-01 23:40,-156.0456,19.7388,M,M,M,210.00,12.00,M,30.03,M,10.00,M,SCT,M,M,M,5500.00,M,M,M,M,PHKO 012340Z AUTO 21012KT 10SM SCT055 A3003 RMK MADISHF
PHKO,2017-04-01 23:45,-156.0456,19.7388,M,M,M,200.00,12.00,M,30.03,M,10.00,M,SCT,M,M,M,5500.00,M,M,M,M,PHKO 012345Z AUTO 20012KT 10SM SCT055 A3003 RMK MADISHF
PHKO,2017-04-01 23:50,-156.0456,19.7388,M,M,M,210.00,11.00,M,30.03,M,10.00,M,SCT,M,M,M,5500.00,M,M,M,M,PHKO 012350Z AUTO 21011KT 10SM SCT055 A3003 RMK MADISHF
PHKO,2017-04-01 23:53,-156.0456,19.7388,82.90,66.90,58.55,200.00,12.00,0.00,30.03,1016.80,10.00,M,SCT,M,M,M,5500.00,M,M,M,M,PHKO 012353Z 20012KT 10SM SCT055 28/19 A3003 RMK AO2 SLP168 T02830194 10289 20250 58017
PHKO,2017-04-01 23:55,-156.0456,19.7388,M,M,M,200.00,12.00,M,30.03,M,10.00,M,CLR,M,M,M,M,M,M,M,M,PHKO 012355Z AUTO 20012KT 10SM CLR A3003 RMK MADISHF
