#DEBUG: Format Typ    -> comma
#DEBUG: Time Period   -> 2017-04-01 00:00:00+00:00 2017-04-02 00:00:00+00:00
#DEBUG: Time Zone     -> Etc/UTC
#DEBUG: Data Contact   -> daryl herzmann akrherz@iastate.edu 515-294-5978
#DEBUG: Entries Found -> -1
station,valid,lon,lat,tmpf, dwpf, relh, drct, sknt, p01i, alti, mslp, vsby, gust, skyc1, skyc2, skyc3, skyc4, skyl1, skyl2, skyl3, skyl4, presentwx, metar
PHLI,2017-04-01 00:00,-159.3406,21.9839,M,M,M,60.00,8.00,M,30.09,M,10.00,M,SCT,M,M,M,1800.00,M,M,M,M,PHLI 010000Z AUTO 06008KT 10SM SCT018 A3009 RMK MADISHF
PHLI,2017-04-01 00:05,-159.3406,21.9839,M,M,M,70.00,8.00,M,30.09,M,10.00,M,SCT,SCT,M,M,1800.00,2400.00,M,M,M,PHLI 010005Z AUTO 07008KT 10SM SCT018 SCT024 A3009 RMK MADISHF
PHLI,2017-04-01 00:10,-159.3406,21.9839,M,M,M,70.00,10.00,M,30.09,M,10.00,M,SCT,BKN,M,M,1999.00,3999.00,M,M,M,PHLI 010010Z AUTO 07010KT 10SM SCT019 BKN039 A3009 RMK MADISHF
PHLI,2017-04-01 00:15,-159.3406,21.9839,M,M,M,70.00,10.00,M,30.09,M,10.00,M,SCT,SCT,BKN,M,1999.00,2800.00,3999.00,M,M,PHLI 010015Z AUTO 07010KT 10SM SCT019 SCT028 BKN039 A3009 RMK MADISHF
PHLI,2017-04-01 00:20,-159.3406,21.9839,M,M,M,70.00,11.00,M,30.08,M,10.00,M,SCT,SCT,BKN,M,1999.00,2800.00,3999.00,M,M,PHLI 010020Z AUTO 07011KT 10SM SCT019 SCT028 BKN039 A3008 RMK MADISHF
PHLI,2017-04-01 00:25,-159.3406,21.9839,M,M,M,80.00,10.00,M,30.08,M,10.00,M,SCT,SCT,BKN,M,1999.00,2800.00,3999.00,M,M,PHLI 010025Z AUTO 08010KT 10SM SCT019 SCT028 BKN039 A3008 RMK MADISHF
PHLI,2017-04-01 00:30,-159.3406,21.9839,M,M,M,70.00,10.00,M,30.08,M,10.00,M,SCT,SCT,BKN,M,1999.00,2800.00,3999.00,M,M,PHLI 010030Z AUTO 07010KT 10SM SCT019 SCT028 BKN039 A3008 RMK MADISHF
PHLI,2017-04-01 00:35,-159.3406,21.9839,M,M,M,70.00,10.00,M,30.08,M,10.00,M,SCT,SCT,BKN,M,1999.00,2800.00,3999.00,M,M,PHLI 010035Z AUTO 07010KT 10SM SCT019 SCT028 BKN039 A3008 RMK MADISHF
PHLI,2017-04-01 00:40,-159.3406,21.9839,M,M,M,70.00,10.00,M,30.07,M,10.00,M,SCT,SCT,BKN,M,1999.00,2800.00,3999.00,M,M,PHLI 010040Z AUTO 07010KT 10SM SCT019 SCT028 BKN039 A3007 RMK MADISHF
PHLI,2017-04-01 00:45,-159.3406,21.9839,M,M,M,70.00,11.00,M,30.07,M,10.00,M,SCT,SCT,BKN,M,1999.00,2800.00,3999.00,M,M,PHLI 010045Z AUTO 07011KT 10SM SCT019 SCT028 BKN039 A3007 RMK MADISHF
PHLI,2017-04-01 00:50,-159.3406,21.9839,M,M,M,70.00,9.00,M,30.07,M,10.00,M,FEW,SCT,M,M,2200.00,3100.00,M,M,M,PHLI 010050Z AUTO 07009KT 10SM FEW022 SCT031 A3007 RMK MADISHF
PHLI,2017-04-01 00:53,-159.3406,21.9839,80.10,68.00,66.62,70.00,10.00,0.00,30.07,1018.00,10.00,M,SCT,SCT,M,M,2200.00,3100.00,M,M,M,PHLI 010053Z 07010KT 10SM SCT022 SCT031 27/20 A3007 RMK AO2 SLP180 T02670200
PHLI,2017-04-01 00:55,-159.3406,21.9839,M,M,M,70.00,10.00,M,30.07,M,10.00,M,SCT,SCT,M,M,2200.00,3100.00,M,M,M,PHLI 010055Z AUTO 07010KT 10SM SCT022 SCT031 A3007 RMK MADISHF
PHLI,2017-04-01 01:00,-159.3406,21.9839,M,M,M,70.00,10.00,M,30.07,M,10.00,M,SCT,BKN,M,M,2200.00,3100.00,M,M,M,PHLI 010100Z AUTO 07010KT 10SM SCT022 BKN031 A3007 RMK MADISHF
PHLI,2017-04-01 01:05,-159.3406,21.9839,M,M,M,70.00,11.00,M,30.07,M,10.00,M,SCT,BKN,M,M,1999.00,3100.00,M,M,M,PHLI 010105Z AUTO 07011KT 10SM SCT019 BKN031 A3007 RMK MADISHF
PHLI,2017-04-01 01:10,-159.3406,21.9839,M,M,M,80.00,9.00,M,30.07,M,10.00,M,SCT,SCT,M,M,1999.00,3100.00,M,M,M,PHLI 010110Z AUTO 08009KT 10SM SCT019 SCT031 A3007 RMK MADISHF
PHLI,2017-04-01 01:15,-159.3406,21.9839,M,M,M,70.00,9.00,M,30.07,M,10.00,M,SCT,SCT,M,M,1999.00,3100.00,M,M,M,PHLI 010115Z AUTO 07009KT 10SM SCT019 SCT031 A3007 RMK MADISHF
PHLI,2017-04-01 01:20,-159.3406,21.9839,M,M,M,70.00,9.00,M,30.07,M,10.00,M,SCT,M,M,M,1999.00,M,M,M,M,PHLI 010120Z AUTO 07009KT 10SM SCT019 A3007 RMK MADISHF
PHLI,2017-04-01 01:25,-159.3406,21.9839,M,M,M,80.00,10.00,M,30.06,M,10.00,M,FEW,M,M,M,1999.00,M,M,M,M,PHLI 010125Z AUTO 08010KT 10SM FEW019 A3006 RMK MADISHF
PHLI,2017-04-01 01:30,-159.3406,21.9839,M,M,M,70.00,9.00,M,30.06,M,10.00,M,FEW,M,M,M,1999.00,M,M,M,M,PHLI 010130Z AUTO 07009KT 10SM FEW019 A3006 RMK MADISHF
PHLI,2017-04-01 01:35,-159.3406,21.9839,M,M,M,80.00,9.00,M,30.06,M,10.00,M,FEW,M,M,M,1999.00,M,M,M,M,PHLI 010135Z AUTO 08009KT 10SM FEW019 A3006 RMK MADISHF
PHLI,2017-04-01 01:40,-159.3406,21.9839,M,M,M,60.00,10.00,M,30.06,M,10.00,M,FEW,M,M,M,1900.00,M,M,M,M,PHLI 010140Z AUTO 06010KT 10SM FEW019 A3006 RMK MADISHF
PHLI,2017-04-01 01:45,-159.3406,21.9839,M,M,M,70.00,10.00,M,30.06,M,10.00,M,CLR,M,M,M,M,M,M,M,M,PHLI 010145Z AUTO 07010KT 10SM CLR A3006 RMK MADISHF
PHLI,2017-04-01 01:50,-159.3406,21.9839,M,M,M,80.00,8.00,M,30.06,M,10.00,M,CLR,M,M,M,M,M,M,M,M,PHLI 010150Z AUTO 08008KT 10SM CLR A3006 RMK MADISHF
PHLI,2017-04-01 01:53,-159.3406,21.9839,80.10,68.00,66.62,70.00,9.00,0.00,30.06,1017.70,10.00,M,CLR,M,M,M,M,M,M,M,M,PHLI 010153Z 07009KT 10SM CLR 27/20 A3006 RMK AO2 SLP177 T02670200
PHLI,2017-04-01 01:55,-159.3406,21.9839,M,M,M,60.00,9.00,M,30.06,M,10.00,M,CLR,M,M,M,M,M,M,M,M,PHLI 010155Z AUTO 06009KT 10SM CLR A3006 RMK MADISHF
PHLI,2017-04-01 02:00,-159.3406,21.9839,M,M,M,70.00,9.00,M,30.06,M,10.00,M,CLR,M,M,M,M,M,M,M,M,PHLI 010200Z AUTO 07009KT 10SM CLR A3006 RMK MADISHF
PHLI,2017-04-01 02:05,-159.3406,21.9839,M,M,M,70.00,9.00,M,30.06,M,10.00,M,CLR,M,M,M,M,M,M,M,M,PHLI 010205Z AUTO 07009KT 10SM CLR A3006 RMK MADISHF
PHLI,2017-04-01 02:10,-159.3406,21.9839,M,M,M,80.00,8.00,M,30.06,M,10.00,M,CLR,M,M,M,M,M,M,M,M,PHLI 010210Z AUTO 08008KT 10SM CLR A3006 RMK MADISHF
PHLI,2017-04-01 02:15,-159.3406,21.9839,M,M,M,70.00,10.00,M,30.07,M,10.00,M,CLR,M,M,M,M,M,M,M,M,PHLI 010215Z AUTO 07010KT 10SM CLR A3007 RMK MADISHF
PHLI,2017-04-01 02:20,-159.3406,21.9839,M,M,M,70.00,9.00,M,30.07,M,10.00,M,FEW,M,M,M,2200.00,M,M,M,M,PHLI 010220Z AUTO 07009KT 10SM FEW022 A3007 RMK MADISHF
PHLI,2017-04-01 02:25,-159.3406,21.9839,M,M,M,70.00,10.00,M,30.07,M,10.00,M,FEW,M,M,M,2200.00,M,M,M,M,PHLI 010225Z AUTO 07010KT 10SM FEW022 A3007 RMK MADISHF
PHLI,2017-04-01 02:30,-159.3406,21.9839,M,M,M,70.00,12.00,M,30.07,M,10.00,M,SCT,M,M,M,2200.00,M,M,M,M,PHLI 010230Z AUTO 07012KT 10SM SCT022 A3007 RMK MADISHF
PHLI,2017-04-01 02:35,-159.3406,21.9839,M,M,M,70.00,10.00,M,30.07,M,10.00,M,SCT,M,M,M,2200.00,M,M,M,M,PHLI 010235Z AUTO 07010KT 10SM SCT022 A3007 RMK MADISHF
PHLI,2017-04-01 02:40,-159.3406,21.9839,M,M,M,60.00,11.00,M,30.07,M,10.00,M,BKN,M,M,M,2200.00,M,M,M,M,PHLI 010240Z AUTO 06011KT 10SM BKN022 A3007 RMK MADISHF
PHLI,2017-04-01 02:45,-159.3406,21.9839,M,M,M,80.00,10.00,M,30.07,M,10.00,M,BKN,BKN,M,M,2200.00,2800.00,M,M,M,PHLI 010245Z AUTO 08010KT 10SM BKN022 BKN028 A3007 RMK MADISHF
PHLI,2017-04-01 02:46,-159.3406,21.9839,78.10,66.00,66.39,80.00,10.00,0.00,30.07,M,10.00,M,BKN,BKN,M,M,2200.00,2800.00,M,M,M,PHLI 010246Z 08010KT 10SM BKN022 BKN028 26/19 A3007 RMK AO2 T02560189
PHLI,2017-04-01 02:50,-159.3406,21.9839,M,M,M,70.00,10.00,M,30.07,M,10.00,M,BKN,M,M,M,2200.00,M,M,M,M,PHLI 010250Z AUTO 07010KT 10SM BKN022 A3007 RMK MADISHF
PHLI,2017-04-01 02:53,-159.3406,21.9839,78.10,66.00,66.39,70.00,10.00,0.00,30.07,1018.00,10.00,M,BKN,BKN,M,M,2200.00,3100.00,M,M,M,PHLI 010253Z 07010KT 10SM BKN022 BKN031 26/19 A3007 RMK AO2 SLP180 T02560189 55007
PHLI,2017-04-01 02:55,-159.3406,21.9839,M,M,M,60.00,9.00,M,30.07,M,10.00,M,BKN,BKN,M,M,2200.00,3100.00,M,M,M,PHLI 010255Z AUTO 06009KT 10SM BKN022 BKN031 A3007 RMK MADISHF
PHLI,2017-04-01 03:00,-159.3406,21.9839,M,M,M,60.00,10.00,M,30.07,M,10.00,M,BKN,BKN,M,M,2200.00,3100.00,M,M,M,PHLI 010300Z AUTO 06010KT 10SM BKN022 BKN031 A3007 RMK MADISHF
PHLI,2017-04-01 03:05,-159.3406,21.9839,M,M,M,70.00,9.00,M,30.08,M,10.00,M,BKN,OVC,M,M,2200.00,2800.00,M,M,M,PHLI 010305Z AUTO 07009KT 10SM BKN022 OVC028 A3008 RMK MADISHF
PHLI,2017-04-01 03:10,-159.3406,21.9839,M,M,M,60.00,10.00,M,30.08,M,10.00,M,BKN,OVC,M,M,2200.00,2800.00,M,M,M,PHLI 010310Z AUTO 06010KT 10SM BKN022 OVC028 A3008 RMK MADISHF
PHLI,2017-04-01 03:15,-159.3406,21.9839,M,M,M,60.00,9.00,M,30.08,M,10.00,M,BKN,OVC,M,M,2200.00,2800.00,M,M,M,PHLI 010315Z AUTO 06009KT 10SM BKN022 OVC028 A3008 RMK MADISHF
PHLI,2017-04-01 03:20,-159.3406,21.9839,M,M,M,60.00,10.00,M,30.08,M,10.00,M,BKN,OVC,M,M,1999.00,2800.00,M,M,M,PHLI 010320Z AUTO 06010KT 10SM BKN019 OVC028 A3008 RMK MADISHF
PHLI,2017-04-01 03:25,-159.3406,21.9839,M,M,M,60.00,10.00,M,30.08,M,10.00,M,BKN,BKN,OVC,M,1999.00,2800.00,3300.00,M,M,PHLI 010325Z AUTO 06010KT 10SM BKN019 BKN028 OVC033 A3008 RMK MADISHF
PHLI,2017-04-01 03:30,-159.3406,21.9839,M,M,M,70.00,10.00,M,30.08,M,10.00,M,SCT,BKN,BKN,M,2200.00,2700.00,3300.00,M,M,PHLI 010330Z AUTO 07010KT 10SM SCT022 BKN027 BKN033 A3008 RMK MADISHF
PHLI,2017-04-01 03:35,-159.3406,21.9839,M,M,M,70.00,10.00,M,30.08,M,10.00,M,SCT,BKN,M,M,2100.00,3200.00,M,M,M,PHLI 010335Z AUTO 07010KT 10SM SCT021 BKN032 A3008 RMK MADISHF
PHLI,2017-04-01 03:40,-159.3406,21.9839,M,M,M,60.00,10.00,M,30.09,M,10.00,M,FEW,SCT,BKN,M,2100.00,2600.00,3100.00,M,M,PHLI 010340Z AUTO 06010KT 10SM FEW021 SCT026 BKN031 A3009 RMK MADISHF
PHLI,2017-04-01 03:45,-159.3406,21.9839,M,M,M,60.00,10.00,M,30.09,M,10.00,M,FEW,SCT,BKN,M,2100.00,2800.00,3300.00,M,M,PHLI 010345Z AUTO 06010KT 10SM FEW021 SCT028 BKN033 A3009 RMK MADISHF
PHLI,2017-04-01 03:46,-159.3406,21.9839,77.00,66.00,68.85,60.00,9.00,0.00,30.09,M,10.00,M,FEW,SCT,BKN,M,2000.00,2800.00,3300.00,M,M,PHLI 010346Z 06009KT 10SM FEW020 SCT028 BKN033 25/19 A3009 RMK AO2 T02500189
PHLI,2017-04-01 03:50,-159.3406,21.9839,M,M,M,60.00,10.00,M,30.09,M,10.00,M,FEW,BKN,M,M,2400.00,3300.00,M,M,M,PHLI 010350Z AUTO 06010KT 10SM FEW024 BKN033 A3009 RMK MADISHF
PHLI,2017-04-01 03:53,-159.3406,21.9839,77.00,66.00,68.85,60.00,9.00,0.00,30.09,1018.60,10.00,M,BKN,M,M,M,3300.00,M,M,M,M,PHLI 010353Z 06009KT 10SM BKN033 25/19 A3009 RMK AO2 SLP186 T02500189
PHLI,2017-04-01 03:55,-159.3406,21.9839,M,M,M,60.00,10.00,M,30.09,M,10.00,M,BKN,M,M,M,3300.00,M,M,M,M,PHLI 010355Z AUTO 06010KT 10SM BKN033 A3009 RMK MADISHF
PHLI,2017-04-01 04:00,-159.3406,21.9839,M,M,M,60.00,9.00,M,30.09,M,10.00,M,FEW,OVC,M,M,2300.00,3300.00,M,M,M,PHLI 010400Z AUTO 06009KT 10SM FEW023 OVC033 A3009 RMK MADISHF
PHLI,2017-04-01 04:05,-159.3406,21.9839,M,M,M,70.00,10.00,M,30.09,M,10.00,M,SCT,OVC,M,M,2300.00,3300.00,M,M,M,PHLI 010405Z AUTO 07010KT 10SM SCT023 OVC033 A3009 RMK MADISHF
PHLI,2017-04-01 04:10,-159.3406,21.9839,M,M,M,60.00,10.00,M,30.09,M,10.00,M,FEW,SCT,OVC,M,2100.00,2500.00,3300.00,M,M,PHLI 010410Z AUTO 06010KT 10SM FEW021 SCT025 OVC033 A3009 RMK MADISHF
PHLI,2017-04-01 04:15,-159.3406,21.9839,M,M,M,60.00,9.00,M,30.10,M,10.00,M,SCT,OVC,M,M,2100.00,3500.00,M,M,M,PHLI 010415Z AUTO 06009KT 10SM SCT021 OVC035 A3010 RMK MADISHF
PHLI,2017-04-01 04:20,-159.3406,21.9839,M,M,M,50.00,9.00,M,30.10,M,10.00,M,FEW,BKN,M,M,2100.00,3500.00,M,M,M,PHLI 010420Z AUTO 05009KT 10SM FEW021 BKN035 A3010 RMK MADISHF
PHLI,2017-04-01 04:25,-159.3406,21.9839,M,M,M,60.00,10.00,M,30.10,M,10.00,M,FEW,BKN,M,M,2100.00,3600.00,M,M,M,PHLI 010425Z AUTO 06010KT 10SM FEW021 BKN036 A3010 RMK MADISHF
PHLI,2017-04-01 04:30,-159.3406,21.9839,M,M,M,60.00,8.00,M,30.10,M,10.00,M,FEW,SCT,M,M,2100.00,3600.00,M,M,M,PHLI 010430Z AUTO 06008KT 10SM FEW021 SCT036 A3010 RMK MADISHF
PHLI,2017-04-01 04:35,-159.3406,21.9839,M,M,M,50.00,9.00,M,30.10,M,10.00,M,FEW,SCT,M,M,2100.00,3600.00,M,M,M,PHLI 010435Z AUTO 05009KT 10SM FEW021 SCT036 A3010 RMK MADISHF
PHLI,2017-04-01 04:40,-159.3406,21.9839,M,M,M,50.00,9.00,M,30.10,M,10.00,M,FEW,SCT,M,M,2100.00,3800.00,M,M,M,PHLI 010440Z AUTO 05009KT 10SM FEW021 SCT038 A3010 RMK MADISHF
PHLI,2017-04-01 04:45,-159.3406,21.9839,M,M,M,50.00,9.00,M,30.10,M,10.00,M,SCT,M,M,M,2100.00,M,M,M,M,PHLI 010445Z AUTO 05009KT 10SM SCT021 A3010 RMK MADISHF
PHLI,2017-04-01 04:50,-159.3406,21.9839,M,M,M,60.00,9.00,M,30.10,M,10.00,M,SCT,M,M,M,2100.00,M,M,M,M,PHLI 010450Z AUTO 06009KT 10SM SCT021 A3010 RMK MADISHF
PHLI,2017-04-01 04:53,-159.3406,21.9839,75.90,66.00,71.41,60.00,10.00,0.00,30.10,1019.10,10.00,M,SCT,M,M,M,2100.00,M,M,M,M,PHLI 010453Z 06010KT 10SM SCT021 24/19 A3010 RMK AO2 SLP191 T02440189
PHLI,2017-04-01 04:55,-159.3406,21.9839,M,M,M,60.00,10.00,M,30.10,M,10.00,M,SCT,M,M,M,2100.00,M,M,M,M,PHLI 010455Z AUTO 06010KT 10SM SCT021 A3010 RMK MADISHF
PHLI,2017-04-01 05:00,-159.3406,21.9839,M,M,M,50.00,10.00,M,30.11,M,10.00,M,BKN,M,M,M,2100.00,M,M,M,M,PHLI 010500Z AUTO 05010KT 10SM BKN021 A3011 RMK MADISHF
PHLI,2017-04-01 05:04,-159.3406,21.9839,75.90,66.90,73.68,60.00,10.00,0.00,30.11,M,10.00,M,BKN,M,M,M,2300.00,M,M,M,M,PHLI 010504Z 06010KT 10SM BKN023 24/19 A3011 RMK AO2 T02440194
PHLI,2017-04-01 05:05,-159.3406,21.9839,M,M,M,60.00,10.00,M,30.11,M,10.00,M,BKN,M,M,M,2300.00,M,M,M,M,PHLI 010505Z AUTO 06010KT 10SM BKN023 A3011 RMK MADISHF
PHLI,2017-04-01 05:10,-159.3406,21.9839,M,M,M,60.00,10.00,M,30.11,M,10.00,M,BKN,M,M,M,2300.00,M,M,M,M,PHLI 010510Z AUTO 06010KT 10SM BKN023 A3011 RMK MADISHF
PHLI,2017-04-01 05:15,-159.3406,21.9839,M,M,M,60.00,10.00,M,30.11,M,10.00,M,BKN,M,M,M,2300.00,M,M,M,M,PHLI 010515Z AUTO 06010KT 10SM BKN023 A3011 RMK MADISHF
PHLI,2017-04-01 05:20,-159.3406,21.9839,M,M,M,60.00,11.00,M,30.11,M,10.00,M,BKN,M,M,M,2300.00,M,M,M,M,PHLI 010520Z AUTO 06011KT 10SM BKN023 A3011 RMK MADISHF
PHLI,2017-04-01 05:25,-159.3406,21.9839,M,M,M,60.00,10.00,M,30.12,M,10.00,M,BKN,M,M,M,2400.00,M,M,M,M,PHLI 010525Z AUTO 06010KT 10SM BKN024 A3012 RMK MADISHF
PHLI,2017-04-01 05:30,-159.3406,21.9839,M,M,M,50.00,11.00,M,30.12,M,10.00,M,BKN,M,M,M,2200.00,M,M,M,M,PHLI 010530Z AUTO 05011KT 10SM BKN022 A3012 RMK MADISHF
PHLI,2017-04-01 05:35,-159.3406,21.9839,M,M,M,60.00,11.00,M,30.12,M,10.00,M,BKN,M,M,M,2200.00,M,M,M,M,PHLI 010535Z AUTO 06011KT 10SM BKN022 A3012 RMK MADISHF
PHLI,2017-04-01 05:40,-159.3406,21.9839,M,M,M,60.00,10.00,M,30.12,M,10.00,M,BKN,BKN,M,M,2200.00,2900.00,M,M,M,PHLI 010540Z AUTO 06010KT 10SM BKN022 BKN029 A3012 RMK MADISHF
PHLI,2017-04-01 05:45,-159.3406,21.9839,M,M,M,60.00,12.00,M,30.12,M,10.00,M,SCT,BKN,BKN,M,1900.00,2500.00,3100.00,M,M,PHLI 010545Z AUTO 06012KT 10SM SCT019 BKN025 BKN031 A3012 RMK MADISHF
PHLI,2017-04-01 05:50,-159.3406,21.9839,M,M,M,60.00,11.00,M,30.12,M,10.00,M,SCT,SCT,BKN,M,1900.00,2900.00,4300.00,M,M,PHLI 010550Z AUTO 06011KT 10SM SCT019 SCT029 BKN043 A3012 RMK MADISHF
PHLI,2017-04-01 05:53,-159.3406,21.9839,75.90,66.90,73.68,60.00,10.00,0.00,30.12,1019.80,10.00,M,SCT,SCT,BKN,M,1900.00,2900.00,4300.00,M,M,PHLI 010553Z 06010KT 10SM SCT019 SCT029 BKN043 24/19 A3012 RMK AO2 SLP198 T02440194 10272 20244 53017
PHLI,2017-04-01 05:55,-159.3406,21.9839,M,M,M,60.00,10.00,M,30.13,M,10.00,M,FEW,SCT,BKN,M,1900.00,2500.00,4300.00,M,M,PHLI 010555Z AUTO 06010KT 10SM FEW019 SCT025 BKN043 A3013 RMK MADISHF
PHLI,2017-04-01 06:00,-159.3406,21.9839,M,M,M,60.00,9.00,M,30.13,M,10.00,M,FEW,SCT,BKN,M,1900.00,2500.00,4300.00,M,M,PHLI 010600Z AUTO 06009KT 10SM FEW019 SCT025 BKN043 A3013 RMK MADISHF
PHLI,2017-04-01 06:05,-159.3406,21.9839,M,M,M,70.00,11.00,M,30.13,M,10.00,M,SCT,BKN,BKN,M,1999.00,2600.00,4300.00,M,M,PHLI 010605Z AUTO 07011KT 10SM SCT019 BKN026 BKN043 A3013 RMK MADISHF
PHLI,2017-04-01 06:09,-159.3406,21.9839,75.90,66.90,73.68,70.00,12.00,0.00,30.13,M,10.00,M,SCT,BKN,BKN,M,2200.00,2700.00,3700.00,M,M,PHLI 010609Z 07012KT 10SM SCT022 BKN027 BKN037 24/19 A3013 RMK AO2 T02440194
PHLI,2017-04-01 06:10,-159.3406,21.9839,M,M,M,70.00,12.00,M,30.13,M,10.00,M,SCT,SCT,BKN,M,2200.00,2700.00,4400.00,M,M,PHLI 010610Z AUTO 07012KT 10SM SCT022 SCT027 BKN044 A3013 RMK MADISHF
PHLI,2017-04-01 06:15,-159.3406,21.9839,M,M,M,70.00,13.00,M,30.13,M,10.00,M,FEW,SCT,BKN,M,2200.00,3100.00,4400.00,M,M,PHLI 010615Z AUTO 07013KT 10SM FEW022 SCT031 BKN044 A3013 RMK MADISHF
PHLI,2017-04-01 06:16,-159.3406,21.9839,75.90,66.90,73.68,70.00,13.00,0.00,30.13,M,10.00,M,FEW,SCT,BKN,M,2200.00,3100.00,4400.00,M,M,PHLI 010616Z 07013KT 10SM FEW022 SCT031 BKN044 24/19 A3013 RMK AO2 T02440194
PHLI,2017-04-01 06:20,-159.3406,21.9839,M,M,M,70.00,13.00,M,30.13,M,10.00,M,FEW,SCT,BKN,M,2200.00,3100.00,4400.00,M,M,PHLI 010620Z AUTO 07013KT 10SM FEW022 SCT031 BKN044 A3013 RMK MADISHF
PHLI,2017-04-01 06:25,-159.3406,21.9839,M,M,M,60.00,12.00,M,30.14,M,10.00,M,FEW,SCT,BKN,M,2100.00,2800.00,4800.00,M,M,PHLI 010625Z AUTO 06012KT 10SM FEW021 SCT028 BKN048 A3014 RMK MADISHF
PHLI,2017-04-01 06:30,-159.3406,21.9839,M,M,M,60.00,13.00,M,30.14,M,10.00,M,FEW,SCT,BKN,M,2100.00,3200.00,4500.00,M,M,PHLI 010630Z AUTO 06013KT 10SM FEW021 SCT032 BKN045 A3014 RMK MADISHF
PHLI,2017-04-01 06:35,-159.3406,21.9839,M,M,M,60.00,12.00,M,30.14,M,10.00,M,FEW,SCT,BKN,M,2100.00,3900.00,5000.00,M,M,PHLI 010635Z AUTO 06012KT 10SM FEW021 SCT039 BKN050 A3014 RMK MADISHF
PHLI,2017-04-01 06:40,-159.3406,21.9839,M,M,M,60.00,11.00,M,30.14,M,10.00,M,FEW,SCT,BKN,M,2100.00,2800.00,4300.00,M,M,PHLI 010640Z AUTO 06011KT 10SM FEW021 SCT028 BKN043 A3014 RMK MADISHF
PHLI,2017-04-01 06:45,-159.3406,21.9839,M,M,M,60.00,11.00,M,30.14,M,10.00,M,FEW,SCT,BKN,M,2100.00,4300.00,5000.00,M,M,PHLI 010645Z AUTO 06011KT 10SM FEW021 SCT043 BKN050 A3014 RMK MADISHF
PHLI,2017-04-01 06:50,-159.3406,21.9839,M,M,M,60.00,13.00,M,30.15,M,10.00,M,FEW,SCT,BKN,M,2100.00,4400.00,5000.00,M,M,PHLI 010650Z AUTO 06013KT 10SM FEW021 SCT044 BKN050 A3015 RMK MADISHF
PHLI,2017-04-01 06:53,-159.3406,21.9839,75.00,66.90,75.92,70.00,12.00,0.00,30.15,1020.50,10.00,M,FEW,SCT,SCT,M,2100.00,4000.00,5000.00,M,M,PHLI 010653Z 07012KT 10SM FEW021 SCT040 SCT050 24/19 A3015 RMK AO2 SLP205 T02390194
PHLI,2017-04-01 06:55,-159.3406,21.9839,M,M,M,70.00,11.00,M,30.15,M,10.00,M,FEW,SCT,BKN,M,2100.00,2700.00,5000.00,M,M,PHLI 010655Z AUTO 07011KT 10SM FEW021 SCT027 BKN050 A3015 RMK MADISHF
PHLI,2017-04-01 07:00,-159.3406,21.9839,M,M,M,70.00,11.00,M,30.15,M,10.00,M,FEW,SCT,SCT,M,1999.00,3600.00,4300.00,M,M,PHLI 010700Z AUTO 07011KT 10SM FEW019 SCT036 SCT043 A3015 RMK MADISHF
PHLI,2017-04-01 07:05,-159.3406,21.9839,M,M,M,70.00,13.00,M,30.15,M,10.00,M,FEW,FEW,SCT,M,1999.00,3600.00,4500.00,M,M,PHLI 010705Z AUTO 07013KT 10SM FEW019 FEW036 SCT045 A3015 RMK MADISHF
PHLI,2017-04-01 07:10,-159.3406,21.9839,M,M,M,70.00,13.00,M,30.15,M,10.00,M,FEW,FEW,M,M,1999.00,4500.00,M,M,M,PHLI 010710Z AUTO 07013KT 10SM FEW019 FEW045 A3015 RMK MADISHF
PHLI,2017-04-01 07:15,-159.3406,21.9839,M,M,M,70.00,16.00,M,30.15,M,10.00,M,FEW,SCT,SCT,M,1999.00,3200.00,4500.00,M,M,PHLI 010715Z AUTO 07016KT 10SM FEW019 SCT032 SCT045 A3015 RMK MADISHF
PHLI,2017-04-01 07:20,-159.3406,21.9839,M,M,M,60.00,12.00,M,30.15,M,10.00,M,SCT,SCT,BKN,M,2100.00,3399.00,4500.00,M,M,PHLI 010720Z AUTO 06012KT 10SM SCT021 SCT033 BKN045 A3015 RMK MADISHF
PHLI,2017-04-01 07:25,-159.3406,21.9839,M,M,M,70.00,15.00,M,30.15,M,10.00,M,SCT,BKN,BKN,M,1900.00,3399.00,4500.00,M,M,PHLI 010725Z AUTO 07015KT 10SM SCT019 BKN033 BKN045 A3015 RMK MADISHF
PHLI,2017-04-01 07:30,-159.3406,21.9839,M,M,M,70.00,12.00,M,30.16,M,10.00,M,FEW,SCT,M,M,1900.00,3399.00,M,M,M,PHLI 010730Z AUTO 07012KT 10SM FEW019 SCT033 A3016 RMK MADISHF
PHLI,2017-04-01 07:35,-159.3406,21.9839,M,M,M,70.00,12.00,M,30.15,M,10.00,M,FEW,SCT,M,M,1900.00,3399.00,M,M,M,PHLI 010735Z AUTO 07012KT 10SM FEW019 SCT033 A3015 RMK MADISHF
PHLI,2017-04-01 07:40,-159.3406,21.9839,M,M,M,60.00,12.00,M,30.15,M,10.00,M,FEW,SCT,M,M,1900.00,3300.00,M,M,M,PHLI 010740Z AUTO 06012KT 10SM FEW019 SCT033 A3015 RMK MADISHF
PHLI,2017-04-01 07:45,-159.3406,21.9839,M,M,M,60.00,12.00,M,30.15,M,10.00,M,FEW,M,M,M,1999.00,M,M,M,M,PHLI 010745Z AUTO 06012KT 10SM FEW019 A3015 RMK MADISHF
PHLI,2017-04-01 07:50,-159.3406,21.9839,M,M,M,60.00,12.00,M,30.16,M,10.00,M,FEW,M,M,M,1999.00,M,M,M,M,PHLI 010750Z AUTO 06012KT 10SM FEW019 A3016 RMK MADISHF
PHLI,2017-04-01 07:53,-159.3406,21.9839,75.00,66.90,75.92,60.00,10.00,0.00,30.16,1020.90,10.00,M,FEW,SCT,M,M,2000.00,4800.00,M,M,M,PHLI 010753Z 06010KT 10SM FEW020 SCT048 24/19 A3016 RMK AO2 SLP209 T02390194
PHLI,2017-04-01 07:55,-159.3406,21.9839,M,M,M,60.00,12.00,M,30.16,M,10.00,M,SCT,M,M,M,4800.00,M,M,M,M,PHLI 010755Z AUTO 06012KT 10SM SCT048 A3016 RMK MADISHF
PHLI,2017-04-01 08:00,-159.3406,21.9839,M,M,M,60.00,11.00,M,30.16,M,10.00,M,SCT,M,M,M,4800.00,M,M,M,M,PHLI 010800Z AUTO 06011KT 10SM SCT048 A3016 RMK MADISHF
PHLI,2017-04-01 08:05,-159.3406,21.9839,M,M,M,60.00,11.00,M,30.16,M,10.00,M,FEW,SCT,M,M,2300.00,4900.00,M,M,M,PHLI 010805Z AUTO 06011KT 10SM FEW023 SCT049 A3016 RMK MADISHF
PHLI,2017-04-01 08:10,-159.3406,21.9839,M,M,M,60.00,12.00,M,30.16,M,10.00,M,SCT,BKN,M,M,2300.00,4900.00,M,M,M,PHLI 010810Z AUTO 06012KT 10SM SCT023 BKN049 A3016 RMK MADISHF
PHLI,2017-04-01 08:15,-159.3406,21.9839,M,M,M,60.00,11.00,M,30.16,M,10.00,M,FEW,BKN,M,M,2100.00,5500.00,M,M,M,PHLI 010815Z AUTO 06011KT 10SM FEW021 BKN055 A3016 RMK MADISHF
PHLI,2017-04-01 08:20,-159.3406,21.9839,M,M,M,60.00,11.00,M,30.16,M,10.00,M,FEW,OVC,M,M,2100.00,5500.00,M,M,M,PHLI 010820Z AUTO 06011KT 10SM FEW021 OVC055 A3016 RMK MADISHF
PHLI,2017-04-01 08:25,-159.3406,21.9839,M,M,M,60.00,12.00,M,30.16,M,10.00,M,FEW,OVC,M,M,2200.00,6000.00,M,M,M,PHLI 010825Z AUTO 06012KT 10SM FEW022 OVC060 A3016 RMK MADISHF
PHLI,2017-04-01 08:30,-159.3406,21.9839,M,M,M,60.00,13.00,M,30.16,M,10.00,M,FEW,OVC,M,M,2200.00,6000.00,M,M,M,PHLI 010830Z AUTO 06013KT 10SM FEW022 OVC060 A3016 RMK MADISHF
PHLI,2017-04-01 08:35,-159.3406,21.9839,M,M,M,60.00,12.00,M,30.16,M,10.00,M,FEW,OVC,M,M,1999.00,5500.00,M,M,M,PHLI 010835Z AUTO 06012KT 10SM FEW019 OVC055 A3016 RMK MADISHF
PHLI,2017-04-01 08:40,-159.3406,21.9839,M,M,M,60.00,11.00,M,30.16,M,10.00,M,FEW,OVC,M,M,2300.00,5500.00,M,M,M,PHLI 010840Z AUTO 06011KT 10SM FEW023 OVC055 A3016 RMK MADISHF
PHLI,2017-04-01 08:45,-159.3406,21.9839,M,M,M,60.00,12.00,M,30.16,M,10.00,M,FEW,OVC,M,M,2300.00,5500.00,M,M,M,PHLI 010845Z AUTO 06012KT 10SM FEW023 OVC055 A3016 RMK MADISHF
PHLI,2017-04-01 08:50,-159.3406,21.9839,M,M,M,60.00,12.00,M,30.16,M,10.00,M,FEW,BKN,OVC,M,2300.00,5000.00,6000.00,M,M,PHLI 010850Z AUTO 06012KT 10SM FEW023 BKN050 OVC060 A3016 RMK MADISHF
PHLI,2017-04-01 08:53,-159.3406,21.9839,75.00,66.90,75.92,60.00,12.00,0.00,30.16,1021.10,10.00,M,FEW,BKN,OVC,M,2300.00,5000.00,6000.00,M,M,PHLI 010853Z AUTO 06012KT 10SM FEW023 BKN050 OVC060 24/19 A3016 RMK AO2 SLP211 T02390194 51013 TSNO
PHLI,2017-04-01 08:55,-159.3406,21.9839,M,M,M,60.00,12.00,M,30.16,M,10.00,M,FEW,OVC,M,M,2300.00,5000.00,M,M,M,PHLI 010855Z AUTO 06012KT 10SM FEW023 OVC050 A3016 RMK MADISHF
PHLI,2017-04-01 09:00,-159.3406,21.9839,M,M,M,60.00,13.00,M,30.16,M,10.00,M,FEW,OVC,M,M,2300.00,5000.00,M,M,M,PHLI 010900Z AUTO 06013KT 10SM FEW023 OVC050 A3016 RMK MADISHF
PHLI,2017-04-01 09:05,-159.3406,21.9839,M,M,M,60.00,12.00,M,30.16,M,10.00,M,FEW,OVC,M,M,2300.00,5000.00,M,M,M,PHLI 010905Z AUTO 06012KT 10SM FEW023 OVC050 A3016 RMK MADISHF
PHLI,2017-04-01 09:10,-159.3406,21.9839,M,M,M,60.00,11.00,M,30.16,M,10.00,M,SCT,OVC,M,M,2300.00,5000.00,M,M,M,PHLI 010910Z AUTO 06011KT 10SM SCT023 OVC050 A3016 RMK MADISHF
PHLI,2017-04-01 09:15,-159.3406,21.9839,M,M,M,60.00,13.00,M,30.16,M,10.00,M,SCT,OVC,M,M,2300.00,5000.00,M,M,M,PHLI 010915Z AUTO 06013KT 10SM SCT023 OVC050 A3016 RMK MADISHF
PHLI,2017-04-01 09:20,-159.3406,21.9839,M,M,M,60.00,12.00,M,30.16,M,10.00,M,FEW,OVC,M,M,2200.00,5000.00,M,M,M,PHLI 010920Z AUTO 06012KT 10SM FEW022 OVC050 A3016 RMK MADISHF
PHLI,2017-04-01 09:25,-159.3406,21.9839,M,M,M,60.00,12.00,M,30.16,M,10.00,M,FEW,OVC,M,M,2200.00,5000.00,M,M,M,PHLI 010925Z AUTO 06012KT 10SM FEW022 OVC050 A3016 RMK MADISHF
PHLI,2017-04-01 09:30,-159.3406,21.9839,M,M,M,60.00,12.00,M,30.16,M,10.00,M,SCT,OVC,M,M,2200.00,5500.00,M,M,M,PHLI 010930Z AUTO 06012KT 10SM SCT022 OVC055 A3016 RMK MADISHF
PHLI,2017-04-01 09:35,-159.3406,21.9839,M,M,M,60.00,12.00,M,30.16,M,10.00,M,BKN,OVC,M,M,1999.00,5500.00,M,M,M,PHLI 010935Z AUTO 06012KT 10SM BKN019 OVC055 A3016 RMK MADISHF
PHLI,2017-04-01 09:38,-159.3406,21.9839,75.00,68.00,78.86,50.00,11.00,0.00,30.15,M,10.00,M,BKN,OVC,M,M,2200.00,5500.00,M,M,M,PHLI 010938Z AUTO 05011KT 10SM BKN022 OVC055 24/20 A3015 RMK AO2 T02390200 TSNO
PHLI,2017-04-01 09:40,-159.3406,21.9839,M,M,M,60.00,11.00,M,30.15,M,10.00,M,BKN,OVC,M,M,2200.00,5500.00,M,M,M,PHLI 010940Z AUTO 06011KT 10SM BKN022 OVC055 A3015 RMK MADISHF
PHLI,2017-04-01 09:45,-159.3406,21.9839,M,M,M,60.00,13.00,M,30.15,M,10.00,M,SCT,BKN,OVC,M,1999.00,2600.00,5500.00,M,M,PHLI 010945Z AUTO 06013KT 10SM SCT019 BKN026 OVC055 A3015 RMK MADISHF
PHLI,2017-04-01 09:50,-159.3406,21.9839,M,M,M,50.00,12.00,M,30.15,M,10.00,M,BKN,OVC,M,M,1999.00,5500.00,M,M,M,PHLI 010950Z AUTO 05012KT 10SM BKN019 OVC055 A3015 RMK MADISHF
PHLI,2017-04-01 09:53,-159.3406,21.9839,75.00,68.00,78.86,50.00,12.00,0.00,30.15,1020.80,10.00,M,BKN,BKN,OVC,M,1800.00,2300.00,5500.00,M,M,PHLI 010953Z AUTO 05012KT 10SM BKN018 BKN023 OVC055 24/20 A3015 RMK AO2 SLP208 T02390200 402720228 TSNO
PHLI,2017-04-01 09:55,-159.3406,21.9839,M,M,M,50.00,12.00,M,30.15,M,10.00,M,BKN,OVC,M,M,1999.00,2500.00,M,M,M,PHLI 010955Z AUTO 05012KT 10SM BKN019 OVC025 A3015 RMK MADISHF
PHLI,2017-04-01 10:00,-159.3406,21.9839,M,M,M,60.00,10.00,M,30.15,M,10.00,M,BKN,BKN,OVC,M,1999.00,2500.00,4600.00,M,M,PHLI 011000Z AUTO 06010KT 10SM BKN019 BKN025 OVC046 A3015 RMK MADISHF
PHLI,2017-04-01 10:05,-159.3406,21.9839,M,M,M,70.00,11.00,M,30.15,M,10.00,M,BKN,BKN,OVC,M,1800.00,2500.00,4600.00,M,M,PHLI 011005Z AUTO 07011KT 10SM BKN018 BKN025 OVC046 A3015 RMK MADISHF
PHLI,2017-04-01 10:10,-159.3406,21.9839,M,M,M,60.00,13.00,M,30.15,M,10.00,M,BKN,BKN,OVC,M,1800.00,2500.00,4600.00,M,M,PHLI 011010Z AUTO 06013KT 10SM BKN018 BKN025 OVC046 A3015 RMK MADISHF
PHLI,2017-04-01 10:15,-159.3406,21.9839,M,M,M,60.00,10.00,M,30.15,M,10.00,15.00,SCT,BKN,OVC,M,1800.00,2500.00,4600.00,M,M,PHLI 011015Z AUTO 06010G15KT 10SM SCT018 BKN025 OVC046 A3015 RMK MADISHF
PHLI,2017-04-01 10:20,-159.3406,21.9839,M,M,M,60.00,12.00,M,30.15,M,10.00,M,SCT,SCT,OVC,M,1800.00,2500.00,4800.00,M,M,PHLI 011020Z AUTO 06012KT 10SM SCT018 SCT025 OVC048 A3015 RMK MADISHF
PHLI,2017-04-01 10:25,-159.3406,21.9839,M,M,M,60.00,13.00,M,30.15,M,10.00,M,FEW,SCT,OVC,M,1800.00,2500.00,4800.00,M,M,PHLI 011025Z AUTO 06013KT 10SM FEW018 SCT025 OVC048 A3015 RMK MADISHF
PHLI,2017-04-01 10:26,-159.3406,21.9839,75.00,66.90,75.92,60.00,12.00,0.00,30.15,M,10.00,M,FEW,SCT,OVC,M,1800.00,2500.00,4800.00,M,M,PHLI 011026Z 06012KT 10SM FEW018 SCT025 OVC048 24/19 A3015 RMK AO2 T02390194
PHLI,2017-04-01 10:30,-159.3406,21.9839,M,M,M,60.00,13.00,M,30.15,M,10.00,M,FEW,SCT,OVC,M,1800.00,2500.00,4700.00,M,M,PHLI 011030Z AUTO 06013KT 10SM FEW018 SCT025 OVC047 A3015 RMK MADISHF
PHLI,2017-04-01 10:35,-159.3406,21.9839,M,M,M,60.00,12.00,M,30.15,M,10.00,M,FEW,OVC,M,M,1800.00,4700.00,M,M,M,PHLI 011035Z AUTO 06012KT 10SM FEW018 OVC047 A3015 RMK MADISHF
PHLI,2017-04-01 10:40,-159.3406,21.9839,M,M,M,60.00,10.00,M,30.15,M,10.00,M,SCT,OVC,M,M,1800.00,4700.00,M,M,M,PHLI 011040Z AUTO 06010KT 10SM SCT018 OVC047 A3015 RMK MADISHF
PHLI,2017-04-01 10:45,-159.3406,21.9839,M,M,M,60.00,11.00,M,30.15,M,10.00,M,FEW,OVC,M,M,1800.00,4700.00,M,M,M,PHLI 011045Z AUTO 06011KT 10SM FEW018 OVC047 A3015 RMK MADISHF
PHLI,2017-04-01 10:50,-159.3406,21.9839,M,M,M,60.00,11.00,M,30.15,M,10.00,M,FEW,FEW,OVC,M,1800.00,2300.00,4800.00,M,M,PHLI 011050Z AUTO 06011KT 10SM FEW018 FEW023 OVC048 A3015 RMK MADISHF
PHLI,2017-04-01 10:53,-159.3406,21.9839,75.00,68.00,78.86,60.00,11.00,0.00,30.15,1020.50,10.00,M,FEW,SCT,OVC,M,1900.00,2400.00,4800.00,M,M,PHLI 011053Z 06011KT 10SM FEW019 SCT024 OVC048 24/20 A3015 RMK AO2 SLP205 T02390200
PHLI,2017-04-01 10:55,-159.3406,21.9839,M,M,M,60.00,11.00,M,30.15,M,10.00,M,SCT,OVC,M,M,2100.00,4800.00,M,M,M,PHLI 011055Z AUTO 06011KT 10SM SCT021 OVC048 A3015 RMK MADISHF
PHLI,2017-04-01 11:00,-159.3406,21.9839,M,M,M,70.00,11.00,M,30.14,M,10.00,M,FEW,SCT,BKN,M,1900.00,2500.00,4800.00,M,M,PHLI 011100Z AUTO 07011KT 10SM FEW019 SCT025 BKN048 A3014 RMK MADISHF
PHLI,2017-04-01 11:05,-159.3406,21.9839,M,M,M,60.00,11.00,M,30.14,M,10.00,M,FEW,SCT,BKN,M,1900.00,2500.00,4900.00,M,M,PHLI 011105Z AUTO 06011KT 10SM FEW019 SCT025 BKN049 A3014 RMK MADISHF
PHLI,2017-04-01 11:10,-159.3406,21.9839,M,M,M,60.00,12.00,M,30.14,M,10.00,M,SCT,SCT,BKN,M,1900.00,2500.00,4900.00,M,M,PHLI 011110Z AUTO 06012KT 10SM SCT019 SCT025 BKN049 A3014 RMK MADISHF
PHLI,2017-04-01 11:15,-159.3406,21.9839,M,M,M,60.00,11.00,M,30.14,M,10.00,M,SCT,SCT,BKN,M,1900.00,2500.00,4900.00,M,M,PHLI 011115Z AUTO 06011KT 10SM SCT019 SCT025 BKN049 A3014 RMK MADISHF
PHLI,2017-04-01 11:20,-159.3406,21.9839,M,M,M,70.00,13.00,M,30.14,M,10.00,M,SCT,SCT,BKN,M,1900.00,2500.00,4900.00,M,M,PHLI 011120Z AUTO 07013KT 10SM SCT019 SCT025 BKN049 A3014 RMK MADISHF
PHLI,2017-04-01 11:25,-159.3406,21.9839,M,M,M,70.00,16.00,M,30.14,M,10.00,M,SCT,SCT,BKN,M,1900.00,2500.00,4900.00,M,M,PHLI 011125Z AUTO 07016KT 10SM SCT019 SCT025 BKN049 A3014 RMK MADISHF
PHLI,2017-04-01 11:30,-159.3406,21.9839,M,M,M,70.00,13.00,M,30.14,M,10.00,M,SCT,BKN,M,M,1900.00,5000.00,M,M,M,PHLI 011130Z AUTO 07013KT 10SM SCT019 BKN050 A3014 RMK MADISHF
PHLI,2017-04-01 11:35,-159.3406,21.9839,M,M,M,70.00,13.00,M,30.14,M,10.00,M,FEW,SCT,OVC,M,1900.00,2300.00,5000.00,M,M,PHLI 011135Z AUTO 07013KT 10SM FEW019 SCT023 OVC050 A3014 RMK MADISHF
PHLI,2017-04-01 11:40,-159.3406,21.9839,M,M,M,60.00,13.00,M,30.14,M,10.00,M,FEW,FEW,OVC,M,1600.00,2100.00,5000.00,M,M,PHLI 011140Z AUTO 06013KT 10SM FEW016 FEW021 OVC050 A3014 RMK MADISHF
PHLI,2017-04-01 11:45,-159.3406,21.9839,M,M,M,60.00,12.00,M,30.14,M,10.00,M,FEW,FEW,OVC,M,1600.00,2100.00,5000.00,M,M,PHLI 011145Z AUTO 06012KT 10SM FEW016 FEW021 OVC050 A3014 RMK MADISHF
PHLI,2017-04-01 11:50,-159.3406,21.9839,M,M,M,60.00,11.00,M,30.14,M,10.00,M,FEW,FEW,OVC,M,1600.00,2100.00,5000.00,M,M,PHLI 011150Z AUTO 06011KT 10SM FEW016 FEW021 OVC050 A3014 RMK MADISHF
PHLI,2017-04-01 11:53,-159.3406,21.9839,73.90,68.00,81.82,70.00,11.00,0.00,30.14,1020.10,10.00,M,FEW,OVC,M,M,1800.00,5000.00,M,M,M,PHLI 011153Z 07011KT 10SM FEW018 OVC050 23/20 A3014 RMK AO2 SLP201 T02330200 10244 20233 58009
PHLI,2017-04-01 11:55,-159.3406,21.9839,M,M,M,60.00,12.00,M,30.14,M,10.00,M,OVC,M,M,M,5500.00,M,M,M,M,PHLI 011155Z AUTO 06012KT 10SM OVC055 A3014 RMK MADISHF
PHLI,2017-04-01 12:00,-159.3406,21.9839,M,M,M,70.00,12.00,M,30.13,M,10.00,M,OVC,M,M,M,5500.00,M,M,M,M,PHLI 011200Z AUTO 07012KT 10SM OVC055 A3013 RMK MADISHF
PHLI,2017-04-01 12:05,-159.3406,21.9839,M,M,M,70.00,10.00,M,30.13,M,10.00,M,BKN,M,M,M,5500.00,M,M,M,M,PHLI 011205Z AUTO 07010KT 10SM BKN055 A3013 RMK MADISHF
PHLI,2017-04-01 12:10,-159.3406,21.9839,M,M,M,70.00,11.00,M,30.13,M,10.00,M,BKN,M,M,M,5500.00,M,M,M,M,PHLI 011210Z AUTO 07011KT 10SM BKN055 A3013 RMK MADISHF
PHLI,2017-04-01 12:15,-159.3406,21.9839,M,M,M,70.00,11.00,M,30.13,M,10.00,M,SCT,M,M,M,5500.00,M,M,M,M,PHLI 011215Z AUTO 07011KT 10SM SCT055 A3013 RMK MADISHF
PHLI,2017-04-01 12:20,-159.3406,21.9839,M,M,M,70.00,12.00,M,30.13,M,10.00,M,SCT,M,M,M,6000.00,M,M,M,M,PHLI 011220Z AUTO 07012KT 10SM SCT060 A3013 RMK MADISHF
PHLI,2017-04-01 12:25,-159.3406,21.9839,M,M,M,70.00,11.00,M,30.13,M,10.00,M,BKN,M,M,M,5500.00,M,M,M,M,PHLI 011225Z AUTO 07011KT 10SM BKN055 A3013 RMK MADISHF
PHLI,2017-04-01 12:30,-159.3406,21.9839,M,M,M,80.00,11.00,M,30.12,M,10.00,M,BKN,M,M,M,5000.00,M,M,M,M,PHLI 011230Z AUTO 08011KT 10SM BKN050 A3012 RMK MADISHF
PHLI,2017-04-01 12:35,-159.3406,21.9839,M,M,M,80.00,11.00,M,30.12,M,10.00,M,BKN,M,M,M,5000.00,M,M,M,M,PHLI 011235Z AUTO 08011KT 10SM BKN050 A3012 RMK MADISHF
PHLI,2017-04-01 12:40,-159.3406,21.9839,M,M,M,80.00,11.00,M,30.11,M,10.00,M,BKN,M,M,M,5000.00,M,M,M,M,PHLI 011240Z AUTO 08011KT 10SM BKN050 A3011 RMK MADISHF
PHLI,2017-04-01 12:45,-159.3406,21.9839,M,M,M,70.00,11.00,M,30.12,M,10.00,M,SCT,M,M,M,5000.00,M,M,M,M,PHLI 011245Z AUTO 07011KT 10SM SCT050 A3012 RMK MADISHF
PHLI,2017-04-01 12:50,-159.3406,21.9839,M,M,M,70.00,11.00,M,30.12,M,10.00,M,FEW,BKN,M,M,1699.00,5000.00,M,M,M,PHLI 011250Z AUTO 07011KT 10SM FEW016 BKN050 A3012 RMK MADISHF
PHLI,2017-04-01 12:53,-159.3406,21.9839,73.90,66.90,78.77,60.00,10.00,0.00,30.12,1019.50,10.00,M,FEW,SCT,SCT,M,1700.00,5000.00,8000.00,M,M,PHLI 011253Z 06010KT 10SM FEW017 SCT050 SCT080 23/19 A3012 RMK AO2 SLP195 T02330194
PHLI,2017-04-01 12:55,-159.3406,21.9839,M,M,M,60.00,10.00,M,30.12,M,10.00,M,FEW,SCT,BKN,M,1699.00,5000.00,7999.00,M,M,PHLI 011255Z AUTO 06010KT 10SM FEW016 SCT050 BKN079 A3012 RMK MADISHF
PHLI,2017-04-01 13:00,-159.3406,21.9839,M,M,M,70.00,10.00,M,30.12,M,10.00,M,SCT,SCT,BKN,M,1699.00,5000.00,7999.00,M,M,PHLI 011300Z AUTO 07010KT 10SM SCT016 SCT050 BKN079 A3012 RMK MADISHF
PHLI,2017-04-01 13:05,-159.3406,21.9839,M,M,M,60.00,10.00,M,30.12,M,10.00,M,SCT,BKN,M,M,1699.00,7999.00,M,M,M,PHLI 011305Z AUTO 06010KT 10SM SCT016 BKN079 A3012 RMK MADISHF
PHLI,2017-04-01 13:10,-159.3406,21.9839,M,M,M,70.00,10.00,M,30.11,M,10.00,M,BKN,BKN,M,M,1699.00,7999.00,M,M,M,PHLI 011310Z AUTO 07010KT 10SM BKN016 BKN079 A3011 RMK MADISHF
PHLI,2017-04-01 13:15,-159.3406,21.9839,M,M,M,60.00,10.00,M,30.11,M,10.00,M,SCT,BKN,M,M,1699.00,7999.00,M,M,M,PHLI 011315Z AUTO 06010KT 10SM SCT016 BKN079 A3011 RMK MADISHF
PHLI,2017-04-01 13:20,-159.3406,21.9839,M,M,M,60.00,9.00,M,30.11,M,10.00,M,SCT,BKN,M,M,1699.00,7999.00,M,M,M,PHLI 011320Z AUTO 06009KT 10SM SCT016 BKN079 A3011 RMK MADISHF
PHLI,2017-04-01 13:25,-159.3406,21.9839,M,M,M,70.00,9.00,M,30.11,M,10.00,M,SCT,BKN,M,M,1699.00,7999.00,M,M,M,PHLI 011325Z AUTO 07009KT 10SM SCT016 BKN079 A3011 RMK MADISHF
PHLI,2017-04-01 13:30,-159.3406,21.9839,M,M,M,60.00,10.00,M,30.11,M,10.00,M,SCT,BKN,M,M,1699.00,7999.00,M,M,M,PHLI 011330Z AUTO 06010KT 10SM SCT016 BKN079 A3011 RMK MADISHF
PHLI,2017-04-01 13:35,-159.3406,21.9839,M,M,M,60.00,10.00,M,30.11,M,10.00,M,SCT,BKN,M,M,1699.00,7999.00,M,M,M,PHLI 011335Z AUTO 06010KT 10SM SCT016 BKN079 A3011 RMK MADISHF
PHLI,2017-04-01 13:40,-159.3406,21.9839,M,M,M,90.00,13.00,M,30.11,M,10.00,M,SCT,BKN,M,M,1699.00,7999.00,M,M,M,PHLI 011340Z AUTO 09013KT 10SM SCT016 BKN079 A3011 RMK MADISHF
PHLI,2017-04-01 13:45,-159.3406,21.9839,M,M,M,70.00,15.00,M,30.11,M,10.00,M,SCT,BKN,M,M,1699.00,7999.00,M,M,M,PHLI 011345Z AUTO 07015KT 10SM SCT016 BKN079 A3011 RMK MADISHF
PHLI,2017-04-01 13:50,-159.3406,21.9839,M,M,M,80.00,12.00,M,30.11,M,10.00,M,SCT,BKN,M,M,1699.00,7999.00,M,M,M,PHLI 011350Z AUTO 08012KT 10SM SCT016 BKN079 A3011 RMK MADISHF
PHLI,2017-04-01 13:53,-159.3406,21.9839,75.00,66.90,75.92,90.00,12.00,0.00,30.11,1019.10,10.00,M,SCT,BKN,M,M,1700.00,8000.00,M,M,M,PHLI 011353Z 09012KT 10SM SCT017 BKN080 24/19 A3011 RMK AO2 SLP191 T02390194
PHLI,2017-04-01 13:55,-159.3406,21.9839,M,M,M,80.00,12.00,M,30.11,M,10.00,M,FEW,BKN,OVC,M,1699.00,2300.00,7000.00,M,M,PHLI 011355Z AUTO 08012KT 10SM FEW016 BKN023 OVC070 A3011 RMK MADISHF
PHLI,2017-04-01 14:00,-159.3406,21.9839,75.00,66.90,75.92,80.00,13.00,0.00,30.11,M,10.00,M,BKN,BKN,OVC,M,2000.00,2600.00,7000.00,M,M,PHLI 011400Z 08013KT 10SM BKN020 BKN026 OVC070 24/19 A3011 RMK AO2 T02390194
PHLI,2017-04-01 14:05,-159.3406,21.9839,M,M,M,80.00,13.00,M,30.10,M,10.00,M,BKN,BKN,OVC,M,2200.00,2600.00,7000.00,M,M,PHLI 011405Z AUTO 08013KT 10SM BKN022 BKN026 OVC070 A3010 RMK MADISHF
PHLI,2017-04-01 14:10,-159.3406,21.9839,M,M,M,80.00,14.00,M,30.11,M,10.00,M,BKN,OVC,M,M,2200.00,7000.00,M,M,M,PHLI 011410Z AUTO 08014KT 10SM BKN022 OVC070 A3011 RMK MADISHF
PHLI,2017-04-01 14:15,-159.3406,21.9839,M,M,M,80.00,13.00,M,30.11,M,10.00,M,BKN,BKN,OVC,M,1999.00,2500.00,7000.00,M,M,PHLI 011415Z AUTO 08013KT 10SM BKN019 BKN025 OVC070 A3011 RMK MADISHF
PHLI,2017-04-01 14:20,-159.3406,21.9839,M,M,M,80.00,12.00,M,30.11,M,10.00,M,BKN,BKN,OVC,M,1999.00,2500.00,6500.00,M,M,PHLI 011420Z AUTO 08012KT 10SM BKN019 BKN025 OVC065 A3011 RMK MADISHF
PHLI,2017-04-01 14:25,-159.3406,21.9839,M,M,M,70.00,12.00,M,30.11,M,10.00,M,SCT,OVC,M,M,1999.00,6500.00,M,M,M,PHLI 011425Z AUTO 07012KT 10SM SCT019 OVC065 A3011 RMK MADISHF
PHLI,2017-04-01 14:30,-159.3406,21.9839,M,M,M,70.00,12.00,M,30.11,M,10.00,M,BKN,OVC,M,M,1999.00,6500.00,M,M,M,PHLI 011430Z AUTO 07012KT 10SM BKN019 OVC065 A3011 RMK MADISHF
PHLI,2017-04-01 14:35,-159.3406,21.9839,M,M,M,70.00,13.00,M,30.11,M,10.00,M,SCT,BKN,OVC,M,1900.00,2400.00,6500.00,M,M,PHLI 011435Z AUTO 07013KT 10SM SCT019 BKN024 OVC065 A3011 RMK MADISHF
PHLI,2017-04-01 14:40,-159.3406,21.9839,M,M,M,70.00,16.00,M,30.11,M,10.00,M,SCT,BKN,OVC,M,1900.00,2400.00,6500.00,M,M,PHLI 011440Z AUTO 07016KT 10SM SCT019 BKN024 OVC065 A3011 RMK MADISHF
PHLI,2017-04-01 14:45,-159.3406,21.9839,M,M,M,70.00,12.00,M,30.11,M,10.00,M,BKN,OVC,M,M,2100.00,6500.00,M,M,M,PHLI 011445Z AUTO 07012KT 10SM BKN021 OVC065 A3011 RMK MADISHF
PHLI,2017-04-01 14:50,-159.3406,21.9839,M,M,M,70.00,13.00,M,30.11,M,10.00,M,BKN,BKN,M,M,2100.00,7000.00,M,M,M,PHLI 011450Z AUTO 07013KT 10SM BKN021 BKN070 A3011 RMK MADISHF
PHLI,2017-04-01 14:53,-159.3406,21.9839,73.90,66.00,76.36,80.00,14.00,0.00,30.11,1019.40,10.00,M,SCT,SCT,BKN,M,1900.00,2400.00,7000.00,M,M,PHLI 011453Z 08014KT 10SM SCT019 SCT024 BKN070 23/19 A3011 RMK AO2 SLP194 T02330189 55007
PHLI,2017-04-01 14:55,-159.3406,21.9839,M,M,M,80.00,14.00,M,30.11,M,10.00,M,FEW,SCT,BKN,M,1900.00,2400.00,7000.00,M,M,PHLI 011455Z AUTO 08014KT 10SM FEW019 SCT024 BKN070 A3011 RMK MADISHF
PHLI,2017-04-01 15:00,-159.3406,21.9839,M,M,M,90.00,14.00,M,30.11,M,10.00,M,FEW,SCT,OVC,M,1900.00,2400.00,7000.00,M,M,PHLI 011500Z AUTO 09014KT 10SM FEW019 SCT024 OVC070 A3011 RMK MADISHF
PHLI,2017-04-01 15:05,-159.3406,21.9839,M,M,M,90.00,13.00,M,30.11,M,10.00,M,FEW,SCT,OVC,M,1900.00,5500.00,7000.00,M,M,PHLI 011505Z AUTO 09013KT 10SM FEW019 SCT055 OVC070 A3011 RMK MADISHF
PHLI,2017-04-01 15:10,-159.3406,21.9839,M,M,M,80.00,13.00,M,30.12,M,10.00,M,FEW,FEW,OVC,M,1900.00,5500.00,7000.00,M,M,PHLI 011510Z AUTO 08013KT 10SM FEW019 FEW055 OVC070 A3012 RMK MADISHF
PHLI,2017-04-01 15:15,-159.3406,21.9839,M,M,M,90.00,14.00,M,30.12,M,10.00,M,FEW,FEW,OVC,M,1900.00,5500.00,7000.00,M,M,PHLI 011515Z AUTO 09014KT 10SM FEW019 FEW055 OVC070 A3012 RMK MADISHF
PHLI,2017-04-01 15:20,-159.3406,21.9839,M,M,M,80.00,13.00,M,30.12,M,10.00,18.00,SCT,SCT,OVC,M,2100.00,5500.00,7000.00,M,M,PHLI 011520Z AUTO 08013G18KT 10SM SCT021 SCT055 OVC070 A3012 RMK MADISHF
PHLI,2017-04-01 15:25,-159.3406,21.9839,M,M,M,80.00,14.00,M,30.12,M,10.00,M,SCT,OVC,M,M,2100.00,7000.00,M,M,M,PHLI 011525Z AUTO 08014KT 10SM SCT021 OVC070 A3012 RMK MADISHF
PHLI,2017-04-01 15:30,-159.3406,21.9839,M,M,M,90.00,13.00,M,30.12,M,10.00,M,SCT,BKN,OVC,M,2100.00,2600.00,7000.00,M,M,PHLI 011530Z AUTO 09013KT 10SM SCT021 BKN026 OVC070 A3012 RMK MADISHF
PHLI,2017-04-01 15:32,-159.3406,21.9839,75.00,66.00,73.59,90.00,14.00,0.00,30.12,M,10.00,M,SCT,BKN,OVC,M,2100.00,2600.00,6500.00,M,M,PHLI 011532Z 09014KT 10SM SCT021 BKN026 OVC065 24/19 A3012 RMK AO2 T02390189
PHLI,2017-04-01 15:35,-159.3406,21.9839,M,M,M,90.00,12.00,M,30.12,M,10.00,M,SCT,BKN,OVC,M,2100.00,2600.00,6500.00,M,M,PHLI 011535Z AUTO 09012KT 10SM SCT021 BKN026 OVC065 A3012 RMK MADISHF
PHLI,2017-04-01 15:40,-159.3406,21.9839,M,M,M,80.00,13.00,M,30.12,M,10.00,M,BKN,OVC,M,M,2100.00,6500.00,M,M,M,PHLI 011540Z AUTO 08013KT 10SM BKN021 OVC065 A3012 RMK MADISHF
PHLI,2017-04-01 15:45,-159.3406,21.9839,M,M,M,90.00,14.00,M,30.12,M,10.00,M,BKN,BKN,M,M,2200.00,7000.00,M,M,M,PHLI 011545Z AUTO 09014KT 10SM BKN022 BKN070 A3012 RMK MADISHF
PHLI,2017-04-01 15:50,-159.3406,21.9839,M,M,M,80.00,13.00,M,30.12,M,10.00,M,BKN,BKN,M,M,2200.00,7000.00,M,M,M,PHLI 011550Z AUTO 08013KT 10SM BKN022 BKN070 A3012 RMK MADISHF
PHLI,2017-04-01 15:53,-159.3406,21.9839,73.90,66.00,76.36,90.00,14.00,0.00,30.12,1019.80,10.00,M,SCT,BKN,BKN,M,2000.00,2500.00,7000.00,M,M,PHLI 011553Z AUTO 09014KT 10SM SCT020 BKN025 BKN070 23/19 A3012 RMK AO2 SLP198 T02330189 TSNO
PHLI,2017-04-01 15:55,-159.3406,21.9839,M,M,M,90.00,13.00,M,30.12,M,10.00,M,FEW,BKN,BKN,M,1999.00,2500.00,7000.00,M,M,PHLI 011555Z AUTO 09013KT 10SM FEW019 BKN025 BKN070 A3012 RMK MADISHF
PHLI,2017-04-01 16:00,-159.3406,21.9839,M,M,M,90.00,12.00,M,30.12,M,10.00,M,BKN,M,M,M,1999.00,M,M,M,M,PHLI 011600Z AUTO 09012KT 10SM BKN019 A3012 RMK MADISHF
PHLI,2017-04-01 16:05,-159.3406,21.9839,M,M,M,90.00,13.00,M,30.12,M,10.00,M,SCT,M,M,M,2100.00,M,M,M,M,PHLI 011605Z AUTO 09013KT 10SM SCT021 A3012 RMK MADISHF
PHLI,2017-04-01 16:10,-159.3406,21.9839,M,M,M,80.00,13.00,M,30.12,M,10.00,M,BKN,M,M,M,2100.00,M,M,M,M,PHLI 011610Z AUTO 08013KT 10SM BKN021 A3012 RMK MADISHF
PHLI,2017-04-01 16:15,-159.3406,21.9839,M,M,M,80.00,12.00,M,30.13,M,10.00,M,BKN,M,M,M,2100.00,M,M,M,M,PHLI 011615Z AUTO 08012KT 10SM BKN021 A3013 RMK MADISHF
PHLI,2017-04-01 16:20,-159.3406,21.9839,M,M,M,80.00,13.00,M,30.12,M,10.00,M,BKN,M,M,M,2100.00,M,M,M,M,PHLI 011620Z AUTO 08013KT 10SM BKN021 A3012 RMK MADISHF
PHLI,2017-04-01 16:25,-159.3406,21.9839,M,M,M,80.00,14.00,M,30.13,M,10.00,M,SCT,BKN,M,M,2200.00,7000.00,M,M,M,PHLI 011625Z AUTO 08014KT 10SM SCT022 BKN070 A3013 RMK MADISHF
PHLI,2017-04-01 16:30,-159.3406,21.9839,73.90,66.00,76.36,90.00,13.00,0.00,30.13,M,10.00,M,SCT,BKN,M,M,2200.00,7000.00,M,M,M,PHLI 011630Z AUTO 09013KT 10SM SCT022 BKN070 23/19 A3013 RMK AO2 T02330189 TSNO
PHLI,2017-04-01 16:35,-159.3406,21.9839,M,M,M,70.00,13.00,M,30.13,M,10.00,M,BKN,BKN,M,M,2200.00,7000.00,M,M,M,PHLI 011635Z AUTO 07013KT 10SM BKN022 BKN070 A3013 RMK MADISHF
PHLI,2017-04-01 16:38,-159.3406,21.9839,73.90,66.00,76.36,80.00,12.00,0.00,30.13,M,10.00,M,BKN,BKN,M,M,2200.00,7000.00,M,M,M,PHLI 011638Z AUTO 08012KT 10SM BKN022 BKN070 23/19 A3013 RMK AO2 T02330189 TSNO
PHLI,2017-04-01 16:40,-159.3406,21.9839,M,M,M,80.00,13.00,M,30.13,M,10.00,M,BKN,BKN,M,M,2300.00,7000.00,M,M,M,PHLI 011640Z AUTO 08013KT 10SM BKN023 BKN070 A3013 RMK MADISHF
PHLI,2017-04-01 16:45,-159.3406,21.9839,M,M,M,80.00,14.00,M,30.13,M,10.00,M,BKN,BKN,M,M,2300.00,7000.00,M,M,M,PHLI 011645Z AUTO 08014KT 10SM BKN023 BKN070 A3013 RMK MADISHF
PHLI,2017-04-01 16:50,-159.3406,21.9839,M,M,M,90.00,15.00,M,30.13,M,10.00,M,BKN,BKN,M,M,2300.00,7000.00,M,M,M,PHLI 011650Z AUTO 09015KT 10SM BKN023 BKN070 A3013 RMK MADISHF
PHLI,2017-04-01 16:53,-159.3406,21.9839,75.00,66.00,73.59,90.00,15.00,0.00,30.13,1020.00,10.00,M,BKN,BKN,M,M,2300.00,7000.00,M,M,M,PHLI 011653Z AUTO 09015KT 10SM BKN023 BKN070 24/19 A3013 RMK AO2 SLP200 T02390189 TSNO
PHLI,2017-04-01 16:55,-159.3406,21.9839,M,M,M,90.00,14.00,M,30.13,M,10.00,M,BKN,M,M,M,2300.00,M,M,M,M,PHLI 011655Z AUTO 09014KT 10SM BKN023 A3013 RMK MADISHF
PHLI,2017-04-01 17:00,-159.3406,21.9839,M,M,M,90.00,14.00,M,30.13,M,10.00,M,BKN,M,M,M,2300.00,M,M,M,M,PHLI 011700Z AUTO 09014KT 10SM BKN023 A3013 RMK MADISHF
PHLI,2017-04-01 17:05,-159.3406,21.9839,M,M,M,80.00,13.00,M,30.13,M,10.00,M,BKN,M,M,M,2300.00,M,M,M,M,PHLI 011705Z AUTO 08013KT 10SM BKN023 A3013 RMK MADISHF
PHLI,2017-04-01 17:10,-159.3406,21.9839,M,M,M,80.00,13.00,M,30.13,M,10.00,M,BKN,BKN,M,M,2100.00,2600.00,M,M,M,PHLI 011710Z AUTO 08013KT 10SM BKN021 BKN026 A3013 RMK MADISHF
PHLI,2017-04-01 17:15,-159.3406,21.9839,M,M,M,80.00,16.00,M,30.14,M,10.00,M,BKN,OVC,M,M,2100.00,2600.00,M,M,M,PHLI 011715Z AUTO 08016KT 10SM BKN021 OVC026 A3014 RMK MADISHF
PHLI,2017-04-01 17:20,-159.3406,21.9839,M,M,M,80.00,15.00,M,30.14,M,10.00,M,BKN,OVC,M,M,1999.00,2600.00,M,M,M,PHLI 011720Z AUTO 08015KT 10SM BKN019 OVC026 A3014 RMK MADISHF
PHLI,2017-04-01 17:25,-159.3406,21.9839,M,M,M,80.00,13.00,M,30.14,M,10.00,M,BKN,BKN,M,M,1999.00,2800.00,M,M,M,PHLI 011725Z AUTO 08013KT 10SM BKN019 BKN028 A3014 RMK MADISHF
PHLI,2017-04-01 17:30,-159.3406,21.9839,M,M,M,80.00,14.00,M,30.14,M,10.00,M,SCT,BKN,M,M,1999.00,2800.00,M,M,M,PHLI 011730Z AUTO 08014KT 10SM SCT019 BKN028 A3014 RMK MADISHF
PHLI,2017-04-01 17:35,-159.3406,21.9839,M,M,M,80.00,12.00,M,30.14,M,10.00,M,SCT,BKN,M,M,1999.00,2800.00,M,M,M,PHLI 011735Z AUTO 08012KT 10SM SCT019 BKN028 A3014 RMK MADISHF
PHLI,2017-04-01 17:40,-159.3406,21.9839,M,M,M,80.00,13.00,M,30.15,M,10.00,M,FEW,BKN,M,M,1999.00,2800.00,M,M,M,PHLI 011740Z AUTO 08013KT 10SM FEW019 BKN028 A3015 RMK MADISHF
PHLI,2017-04-01 17:45,-159.3406,21.9839,M,M,M,80.00,11.00,M,30.15,M,10.00,M,SCT,BKN,M,M,2200.00,2800.00,M,M,M,PHLI 011745Z AUTO 08011KT 10SM SCT022 BKN028 A3015 RMK MADISHF
PHLI,2017-04-01 17:50,-159.3406,21.9839,M,M,M,80.00,14.00,M,30.15,M,10.00,M,SCT,BKN,M,M,2200.00,2800.00,M,M,M,PHLI 011750Z AUTO 08014KT 10SM SCT022 BKN028 A3015 RMK MADISHF
PHLI,2017-04-01 17:53,-159.3406,21.9839,75.90,66.00,71.41,80.00,14.00,0.00,30.15,1020.60,10.00,M,SCT,BKN,M,M,2200.00,2700.00,M,M,M,PHLI 011753Z 08014KT 10SM SCT022 BKN027 24/19 A3015 RMK AO2 SLP206 T02440189 10244 20233 53012
PHLI,2017-04-01 17:55,-159.3406,21.9839,M,M,M,80.00,14.00,M,30.15,M,10.00,M,BKN,M,M,M,2500.00,M,M,M,M,PHLI 011755Z AUTO 08014KT 10SM BKN025 A3015 RMK MADISHF
PHLI,2017-04-01 18:00,-159.3406,21.9839,M,M,M,80.00,13.00,M,30.15,M,10.00,M,FEW,SCT,M,M,2200.00,2700.00,M,M,M,PHLI 011800Z AUTO 08013KT 10SM FEW022 SCT027 A3015 RMK MADISHF
PHLI,2017-04-01 18:05,-159.3406,21.9839,77.00,64.90,66.27,80.00,14.00,0.00,30.15,M,10.00,M,SCT,M,M,M,2500.00,M,M,M,M,PHLI 011805Z 08014KT 10SM SCT025 25/18 A3015 RMK AO2 T02500183
PHLI,2017-04-01 18:10,-159.3406,21.9839,M,M,M,80.00,15.00,M,30.16,M,10.00,M,FEW,SCT,M,M,2200.00,2700.00,M,M,M,PHLI 011810Z AUTO 08015KT 10SM FEW022 SCT027 A3016 RMK MADISHF
PHLI,2017-04-01 18:15,-159.3406,21.9839,M,M,M,70.00,14.00,M,30.16,M,10.00,M,SCT,M,M,M,2500.00,M,M,M,M,PHLI 011815Z AUTO 07014KT 10SM SCT025 A3016 RMK MADISHF
PHLI,2017-04-01 18:20,-159.3406,21.9839,M,M,M,80.00,14.00,M,30.16,M,10.00,M,SCT,M,M,M,2500.00,M,M,M,M,PHLI 011820Z AUTO 08014KT 10SM SCT025 A3016 RMK MADISHF
PHLI,2017-04-01 18:25,-159.3406,21.9839,M,M,M,80.00,13.00,M,30.16,M,10.00,M,BKN,M,M,M,2500.00,M,M,M,M,PHLI 011825Z AUTO 08013KT 10SM BKN025 A3016 RMK MADISHF
PHLI,2017-04-01 18:27,-159.3406,21.9839,77.00,66.00,68.85,80.00,12.00,0.00,30.17,M,10.00,M,BKN,M,M,M,2500.00,M,M,M,M,PHLI 011827Z 08012KT 10SM BKN025 25/19 A3017 RMK AO2 T02500189
PHLI,2017-04-01 18:30,-159.3406,21.9839,M,M,M,70.00,13.00,M,30.17,M,10.00,M,BKN,M,M,M,2700.00,M,M,M,M,PHLI 011830Z AUTO 07013KT 10SM BKN027 A3017 RMK MADISHF
PHLI,2017-04-01 18:35,-159.3406,21.9839,M,M,M,70.00,12.00,M,30.17,M,10.00,M,BKN,BKN,M,M,2500.00,3200.00,M,M,M,PHLI 011835Z AUTO 07012KT 10SM BKN025 BKN032 A3017 RMK MADISHF
PHLI,2017-04-01 18:40,-159.3406,21.9839,M,M,M,70.00,13.00,M,30.17,M,10.00,M,BKN,OVC,M,M,2500.00,3200.00,M,M,M,PHLI 011840Z AUTO 07013KT 10SM BKN025 OVC032 A3017 RMK MADISHF
PHLI,2017-04-01 18:45,-159.3406,21.9839,M,M,M,80.00,13.00,M,30.17,M,10.00,M,BKN,OVC,M,M,2400.00,3000.00,M,M,M,PHLI 011845Z AUTO 08013KT 10SM BKN024 OVC030 A3017 RMK MADISHF
PHLI,2017-04-01 18:50,-159.3406,21.9839,M,M,M,70.00,13.00,M,30.17,M,10.00,M,SCT,OVC,M,M,2200.00,2700.00,M,M,M,PHLI 011850Z AUTO 07013KT 10SM SCT022 OVC027 A3017 RMK MADISHF
PHLI,2017-04-01 18:53,-159.3406,21.9839,78.10,66.90,68.49,80.00,13.00,0.00,30.17,1021.40,10.00,M,BKN,OVC,M,M,2400.00,2900.00,M,M,M,PHLI 011853Z 08013KT 10SM BKN024 OVC029 26/19 A3017 RMK AO2 SLP214 T02560194
PHLI,2017-04-01 18:55,-159.3406,21.9839,M,M,M,70.00,14.00,M,30.17,M,10.00,M,BKN,OVC,M,M,2400.00,2900.00,M,M,M,PHLI 011855Z AUTO 07014KT 10SM BKN024 OVC029 A3017 RMK MADISHF
PHLI,2017-04-01 19:00,-159.3406,21.9839,M,M,M,70.00,14.00,M,30.17,M,10.00,M,BKN,OVC,M,M,2400.00,2900.00,M,M,M,PHLI 011900Z AUTO 07014KT 10SM BKN024 OVC029 A3017 RMK MADISHF
PHLI,2017-04-01 19:05,-159.3406,21.9839,M,M,M,70.00,13.00,M,30.17,M,10.00,M,BKN,OVC,M,M,2400.00,3000.00,M,M,M,PHLI 011905Z AUTO 07013KT 10SM BKN024 OVC030 A3017 RMK MADISHF
PHLI,2017-04-01 19:10,-159.3406,21.9839,M,M,M,80.00,13.00,M,30.18,M,10.00,M,OVC,M,M,M,2700.00,M,M,M,M,PHLI 011910Z AUTO 08013KT 10SM OVC027 A3018 RMK MADISHF
PHLI,2017-04-01 19:15,-159.3406,21.9839,M,M,M,80.00,12.00,M,30.18,M,10.00,M,BKN,OVC,M,M,2400.00,2900.00,M,M,M,PHLI 011915Z AUTO 08012KT 10SM BKN024 OVC029 A3018 RMK MADISHF
PHLI,2017-04-01 19:20,-159.3406,21.9839,M,M,M,70.00,12.00,M,30.18,M,10.00,M,BKN,OVC,M,M,2400.00,3100.00,M,M,M,PHLI 011920Z AUTO 07012KT 10SM BKN024 OVC031 A3018 RMK MADISHF
PHLI,2017-04-01 19:25,-159.3406,21.9839,M,M,M,70.00,14.00,M,30.18,M,10.00,M,BKN,OVC,M,M,2500.00,3100.00,M,M,M,PHLI 011925Z AUTO 07014KT 10SM BKN025 OVC031 A3018 RMK MADISHF
PHLI,2017-04-01 19:30,-159.3406,21.9839,M,M,M,80.00,13.00,M,30.18,M,10.00,M,BKN,OVC,M,M,2500.00,3100.00,M,M,M,PHLI 011930Z AUTO 08013KT 10SM BKN025 OVC031 A3018 RMK MADISHF
PHLI,2017-04-01 19:35,-159.3406,21.9839,M,M,M,70.00,12.00,M,30.18,M,10.00,M,BKN,OVC,M,M,2500.00,3100.00,M,M,M,PHLI 011935Z AUTO 07012KT 10SM BKN025 OVC031 A3018 RMK MADISHF
PHLI,2017-04-01 19:40,-159.3406,21.9839,M,M,M,70.00,11.00,M,30.18,M,10.00,M,BKN,OVC,M,M,2500.00,3200.00,M,M,M,PHLI 011940Z AUTO 07011KT 10SM BKN025 OVC032 A3018 RMK MADISHF
PHLI,2017-04-01 19:45,-159.3406,21.9839,M,M,M,60.00,14.00,M,30.17,M,10.00,M,SCT,BKN,OVC,M,2500.00,3000.00,3500.00,M,M,PHLI 011945Z AUTO 06014KT 10SM SCT025 BKN030 OVC035 A3017 RMK MADISHF
PHLI,2017-04-01 19:50,-159.3406,21.9839,M,M,M,70.00,12.00,M,30.18,M,10.00,M,SCT,BKN,M,M,2500.00,3000.00,M,M,M,PHLI 011950Z AUTO 07012KT 10SM SCT025 BKN030 A3018 RMK MADISHF
PHLI,2017-04-01 19:51,-159.3406,21.9839,78.80,66.20,65.33,70.00,12.00,0.00,30.18,M,10.00,M,SCT,BKN,M,M,2500.00,3000.00,M,M,M,PHLI 011951Z 07012KT 10SM SCT025 BKN030 26/19 A3018 RMK AO2
PHLI,2017-04-01 19:53,-159.3406,21.9839,79.00,66.00,64.45,80.00,10.00,0.00,30.18,1021.50,10.00,M,SCT,BKN,M,M,2500.00,3000.00,M,M,M,PHLI 011953Z 08010KT 10SM SCT025 BKN030 26/19 A3018 RMK AO2 SLP215 T02610189
PHLI,2017-04-01 19:55,-159.3406,21.9839,M,M,M,70.00,11.00,M,30.18,M,10.00,M,SCT,BKN,M,M,2300.00,3000.00,M,M,M,PHLI 011955Z AUTO 07011KT 10SM SCT023 BKN030 A3018 RMK MADISHF
PHLI,2017-04-01 20:00,-159.3406,21.9839,M,M,M,70.00,12.00,M,30.18,M,10.00,M,BKN,OVC,M,M,2300.00,3000.00,M,M,M,PHLI 012000Z AUTO 07012KT 10SM BKN023 OVC030 A3018 RMK MADISHF
PHLI,2017-04-01 20:05,-159.3406,21.9839,M,M,M,70.00,12.00,M,30.18,M,10.00,M,SCT,OVC,M,M,2500.00,3000.00,M,M,M,PHLI 012005Z AUTO 07012KT 10SM SCT025 OVC030 A3018 RMK MADISHF
PHLI,2017-04-01 20:10,-159.3406,21.9839,M,M,M,70.00,11.00,M,30.17,M,10.00,M,BKN,OVC,M,M,2500.00,3000.00,M,M,M,PHLI 012010Z AUTO 07011KT 10SM BKN025 OVC030 A3017 RMK MADISHF
PHLI,2017-04-01 20:13,-159.3406,21.9839,79.00,66.90,66.49,70.00,12.00,0.00,30.17,M,10.00,M,BKN,OVC,M,M,2500.00,3000.00,M,M,M,PHLI 012013Z 07012KT 10SM BKN025 OVC030 26/19 A3017 RMK AO2 T02610194
PHLI,2017-04-01 20:15,-159.3406,21.9839,M,M,M,60.00,11.00,M,30.17,M,10.00,M,BKN,OVC,M,M,2500.00,3000.00,M,M,M,PHLI 012015Z AUTO 06011KT 10SM BKN025 OVC030 A3017 RMK MADISHF
PHLI,2017-04-01 20:20,-159.3406,21.9839,M,M,M,70.00,13.00,M,30.17,M,10.00,M,BKN,OVC,M,M,2500.00,3000.00,M,M,M,PHLI 012020Z AUTO 07013KT 10SM BKN025 OVC030 A3017 RMK MADISHF
PHLI,2017-04-01 20:25,-159.3406,21.9839,M,M,M,70.00,12.00,M,30.17,M,10.00,M,BKN,OVC,M,M,2500.00,3300.00,M,M,M,PHLI 012025Z AUTO 07012KT 10SM BKN025 OVC033 A3017 RMK MADISHF
PHLI,2017-04-01 20:30,-159.3406,21.9839,M,M,M,70.00,12.00,M,30.17,M,10.00,M,BKN,OVC,M,M,2500.00,3300.00,M,M,M,PHLI 012030Z AUTO 07012KT 10SM BKN025 OVC033 A3017 RMK MADISHF
PHLI,2017-04-01 20:35,-159.3406,21.9839,M,M,M,70.00,13.00,M,30.18,M,10.00,M,SCT,OVC,M,M,2500.00,3000.00,M,M,M,PHLI 012035Z AUTO 07013KT 10SM SCT025 OVC030 A3018 RMK MADISHF
PHLI,2017-04-01 20:38,-159.3406,21.9839,81.00,66.90,62.28,70.00,12.00,0.00,30.18,M,10.00,M,SCT,OVC,M,M,2500.00,3000.00,M,M,M,PHLI 012038Z 07012KT 10SM SCT025 OVC030 27/19 A3018 RMK AO2 T02720194
PHLI,2017-04-01 20:40,-159.3406,21.9839,M,M,M,70.00,13.00,M,30.18,M,10.00,M,BKN,OVC,M,M,2300.00,3000.00,M,M,M,PHLI 012040Z AUTO 07013KT 10SM BKN023 OVC030 A3018 RMK MADISHF
PHLI,2017-04-01 20:45,-159.3406,21.9839,78.10,66.00,66.39,60.00,12.00,0.00,30.18,M,10.00,M,BKN,OVC,M,M,2300.00,3000.00,M,M,M,PHLI 012045Z 06012KT 10SM BKN023 OVC030 26/19 A3018 RMK AO2 T02560189
PHLI,2017-04-01 20:50,-159.3406,21.9839,M,M,M,60.00,12.00,M,30.18,M,10.00,M,BKN,BKN,OVC,M,2400.00,3000.00,3500.00,M,M,PHLI 012050Z AUTO 06012KT 10SM BKN024 BKN030 OVC035 A3018 RMK MADISHF
PHLI,2017-04-01 20:53,-159.3406,21.9839,79.00,66.90,66.49,60.00,13.00,0.00,30.18,1021.60,10.00,M,BKN,OVC,M,M,2400.00,3000.00,M,M,M,PHLI 012053Z 06013KT 10SM BKN024 OVC030 26/19 A3018 RMK AO2 SLP216 T02610194 51002
PHLI,2017-04-01 20:55,-159.3406,21.9839,M,M,M,60.00,12.00,M,30.18,M,10.00,17.00,BKN,OVC,M,M,2400.00,3300.00,M,M,M,PHLI 012055Z AUTO 06012G17KT 10SM BKN024 OVC033 A3018 RMK MADISHF
PHLI,2017-04-01 21:00,-159.3406,21.9839,M,M,M,60.00,14.00,M,30.18,M,10.00,M,BKN,BKN,OVC,M,2400.00,3000.00,3500.00,M,M,PHLI 012100Z AUTO 06014KT 10SM BKN024 BKN030 OVC035 A3018 RMK MADISHF
PHLI,2017-04-01 21:05,-159.3406,21.9839,M,M,M,60.00,13.00,M,30.18,M,10.00,M,BKN,BKN,OVC,M,2400.00,2900.00,3500.00,M,M,PHLI 012105Z AUTO 06013KT 10SM BKN024 BKN029 OVC035 A3018 RMK MADISHF
PHLI,2017-04-01 21:10,-159.3406,21.9839,M,M,M,60.00,14.00,M,30.18,M,10.00,M,BKN,OVC,M,M,2600.00,3500.00,M,M,M,PHLI 012110Z AUTO 06014KT 10SM BKN026 OVC035 A3018 RMK MADISHF
PHLI,2017-04-01 21:15,-159.3406,21.9839,M,M,M,70.00,12.00,M,30.18,M,10.00,M,SCT,OVC,M,M,2400.00,3100.00,M,M,M,PHLI 012115Z AUTO 07012KT 10SM SCT024 OVC031 A3018 RMK MADISHF
PHLI,2017-04-01 21:20,-159.3406,21.9839,79.00,66.90,66.49,60.00,14.00,0.00,30.18,M,10.00,M,SCT,BKN,OVC,M,2400.00,3100.00,3500.00,M,M,PHLI 012120Z 06014KT 10SM SCT024 BKN031 OVC035 26/19 A3018 RMK AO2 T02610194
PHLI,2017-04-01 21:25,-159.3406,21.9839,M,M,M,70.00,12.00,M,30.18,M,10.00,M,FEW,OVC,M,M,2400.00,2900.00,M,M,M,PHLI 012125Z AUTO 07012KT 10SM FEW024 OVC029 A3018 RMK MADISHF
PHLI,2017-04-01 21:30,-159.3406,21.9839,M,M,M,60.00,11.00,M,30.18,M,10.00,M,SCT,BKN,OVC,M,2400.00,2900.00,3500.00,M,M,PHLI 012130Z AUTO 06011KT 10SM SCT024 BKN029 OVC035 A3018 RMK MADISHF
PHLI,2017-04-01 21:31,-159.3406,21.9839,81.00,66.90,62.28,60.00,12.00,0.00,30.18,M,10.00,M,SCT,BKN,OVC,M,2400.00,2900.00,3500.00,M,M,PHLI 012131Z 06012KT 10SM SCT024 BKN029 OVC035 27/19 A3018 RMK AO2 T02720194
PHLI,2017-04-01 21:35,-159.3406,21.9839,M,M,M,60.00,13.00,M,30.17,M,10.00,M,BKN,OVC,M,M,2400.00,3200.00,M,M,M,PHLI 012135Z AUTO 06013KT 10SM BKN024 OVC032 A3017 RMK MADISHF
PHLI,2017-04-01 21:40,-159.3406,21.9839,M,M,M,60.00,12.00,M,30.17,M,10.00,M,SCT,OVC,M,M,2200.00,3000.00,M,M,M,PHLI 012140Z AUTO 06012KT 10SM SCT022 OVC030 A3017 RMK MADISHF
PHLI,2017-04-01 21:45,-159.3406,21.9839,M,M,M,60.00,13.00,M,30.17,M,10.00,M,BKN,BKN,OVC,M,2400.00,3000.00,3399.00,M,M,PHLI 012145Z AUTO 06013KT 10SM BKN024 BKN030 OVC033 A3017 RMK MADISHF
PHLI,2017-04-01 21:50,-159.3406,21.9839,M,M,M,60.00,13.00,M,30.17,M,10.00,M,BKN,OVC,M,M,2400.00,3000.00,M,M,M,PHLI 012150Z AUTO 06013KT 10SM BKN024 OVC030 A3017 RMK MADISHF
PHLI,2017-04-01 21:53,-159.3406,21.9839,81.00,66.90,62.28,60.00,13.00,0.00,30.17,1021.20,10.00,M,BKN,OVC,M,M,2400.00,2900.00,M,M,M,PHLI 012153Z 06013KT 10SM BKN024 OVC029 27/19 A3017 RMK AO2 SLP212 T02720194
PHLI,2017-04-01 21:55,-159.3406,21.9839,M,M,M,60.00,12.00,M,30.17,M,10.00,M,FEW,BKN,OVC,M,2200.00,2900.00,3600.00,M,M,PHLI 012155Z AUTO 06012KT 10SM FEW022 BKN029 OVC036 A3017 RMK MADISHF
PHLI,2017-04-01 22:00,-159.3406,21.9839,M,M,M,60.00,14.00,M,30.17,M,10.00,M,SCT,BKN,M,M,2500.00,2900.00,M,M,M,PHLI 012200Z AUTO 06014KT 10SM SCT025 BKN029 A3017 RMK MADISHF
PHLI,2017-04-01 22:05,-159.3406,21.9839,M,M,M,50.00,12.00,M,30.16,M,10.00,M,SCT,OVC,M,M,2300.00,2900.00,M,M,M,PHLI 012205Z AUTO 05012KT 10SM SCT023 OVC029 A3016 RMK MADISHF
PHLI,2017-04-01 22:10,-159.3406,21.9839,M,M,M,60.00,12.00,M,30.16,M,10.00,M,OVC,M,M,M,2700.00,M,M,M,M,PHLI 012210Z AUTO 06012KT 10SM OVC027 A3016 RMK MADISHF
PHLI,2017-04-01 22:15,-159.3406,21.9839,M,M,M,60.00,13.00,M,30.16,M,10.00,M,BKN,OVC,M,M,2500.00,2900.00,M,M,M,PHLI 012215Z AUTO 06013KT 10SM BKN025 OVC029 A3016 RMK MADISHF
PHLI,2017-04-01 22:20,-159.3406,21.9839,M,M,M,70.00,11.00,M,30.16,M,10.00,M,SCT,BKN,M,M,2300.00,2900.00,M,M,M,PHLI 012220Z AUTO 07011KT 10SM SCT023 BKN029 A3016 RMK MADISHF
PHLI,2017-04-01 22:25,-159.3406,21.9839,M,M,M,50.00,13.00,M,30.16,M,10.00,M,SCT,BKN,M,M,2300.00,2700.00,M,M,M,PHLI 012225Z AUTO 05013KT 10SM SCT023 BKN027 A3016 RMK MADISHF
PHLI,2017-04-01 22:30,-159.3406,21.9839,M,M,M,60.00,13.00,M,30.16,M,10.00,M,BKN,M,M,M,2300.00,M,M,M,M,PHLI 012230Z AUTO 06013KT 10SM BKN023 A3016 RMK MADISHF
PHLI,2017-04-01 22:35,-159.3406,21.9839,M,M,M,60.00,14.00,M,30.16,M,10.00,M,SCT,BKN,M,M,2400.00,2800.00,M,M,M,PHLI 012235Z AUTO 06014KT 10SM SCT024 BKN028 A3016 RMK MADISHF
PHLI,2017-04-01 22:40,-159.3406,21.9839,M,M,M,60.00,15.00,M,30.15,M,10.00,M,FEW,BKN,M,M,2200.00,2800.00,M,M,M,PHLI 012240Z AUTO 06015KT 10SM FEW022 BKN028 A3015 RMK MADISHF
PHLI,2017-04-01 22:45,-159.3406,21.9839,M,M,M,50.00,12.00,M,30.15,M,10.00,M,SCT,BKN,M,M,2200.00,2800.00,M,M,M,PHLI 012245Z AUTO 05012KT 10SM SCT022 BKN028 A3015 RMK MADISHF
PHLI,2017-04-01 22:50,-159.3406,21.9839,M,M,M,60.00,13.00,M,30.15,M,10.00,M,SCT,BKN,M,M,2100.00,2800.00,M,M,M,PHLI 012250Z AUTO 06013KT 10SM SCT021 BKN028 A3015 RMK MADISHF
PHLI,2017-04-01 22:53,-159.3406,21.9839,81.00,68.00,64.69,60.00,12.00,0.00,30.15,1020.60,10.00,M,SCT,BKN,M,M,2100.00,2800.00,M,M,M,PHLI 012253Z 06012KT 10SM SCT021 BKN028 27/20 A3015 RMK AO2 SLP206 T02720200
PHLI,2017-04-01 22:55,-159.3406,21.9839,M,M,M,60.00,14.00,M,30.15,M,10.00,M,SCT,BKN,M,M,2100.00,2800.00,M,M,M,PHLI 012255Z AUTO 06014KT 10SM SCT021 BKN028 A3015 RMK MADISHF
PHLI,2017-04-01 23:00,-159.3406,21.9839,M,M,M,60.00,12.00,M,30.15,M,10.00,M,SCT,SCT,M,M,2100.00,3100.00,M,M,M,PHLI 012300Z AUTO 06012KT 10SM SCT021 SCT031 A3015 RMK MADISHF
PHLI,2017-04-01 23:04,-159.3406,21.9839,81.00,66.90,62.28,60.00,12.00,0.00,30.15,M,10.00,M,FEW,SCT,M,M,2100.00,2800.00,M,M,M,PHLI 012304Z 06012KT 10SM FEW021 SCT028 27/19 A3015 RMK AO2 T02720194
PHLI,2017-04-01 23:05,-159.3406,21.9839,M,M,M,60.00,12.00,M,30.15,M,10.00,M,FEW,SCT,M,M,2100.00,2800.00,M,M,M,PHLI 012305Z AUTO 06012KT 10SM FEW021 SCT028 A3015 RMK MADISHF
PHLI,2017-04-01 23:10,-159.3406,21.9839,M,M,M,60.00,12.00,M,30.14,M,10.00,M,FEW,M,M,M,1999.00,M,M,M,M,PHLI 012310Z AUTO 06012KT 10SM FEW019 A3014 RMK MADISHF
PHLI,2017-04-01 23:15,-159.3406,21.9839,M,M,M,60.00,13.00,M,30.14,M,10.00,M,FEW,M,M,M,2200.00,M,M,M,M,PHLI 012315Z AUTO 06013KT 10SM FEW022 A3014 RMK MADISHF
PHLI,2017-04-01 23:20,-159.3406,21.9839,M,M,M,50.00,13.00,M,30.14,M,10.00,M,SCT,SCT,M,M,2200.00,2700.00,M,M,M,PHLI 012320Z AUTO 05013KT 10SM SCT022 SCT027 A3014 RMK MADISHF
PHLI,2017-04-01 23:25,-159.3406,21.9839,M,M,M,60.00,14.00,M,30.14,M,10.00,M,FEW,SCT,M,M,2200.00,2900.00,M,M,M,PHLI 012325Z AUTO 06014KT 10SM FEW022 SCT029 A3014 RMK MADISHF
PHLI,2017-04-01 23:30,-159.3406,21.9839,M,M,M,60.00,13.00,M,30.13,M,10.00,M,FEW,SCT,M,M,2200.00,2900.00,M,M,M,PHLI 012330Z AUTO 06013KT 10SM FEW022 SCT029 A3013 RMK MADISHF
PHLI,2017-04-01 23:35,-159.3406,21.9839,M,M,M,70.00,13.00,M,30.13,M,10.00,M,FEW,SCT,M,M,2100.00,2600.00,M,M,M,PHLI 012335Z AUTO 07013KT 10SM FEW021 SCT026 A3013 RMK MADISHF
PHLI,2017-04-01 23:40,-159.3406,21.9839,M,M,M,60.00,13.00,M,30.13,M,10.00,M,FEW,SCT,M,M,2100.00,2600.00,M,M,M,PHLI 012340Z AUTO 06013KT 10SM FEW021 SCT026 A3013 RMK MADISHF
PHLI,2017-04-01 23:45,-159.3406,21.9839,M,M,M,60.00,12.00,M,30.13,M,10.00,M,FEW,SCT,M,M,1999.00,2600.00,M,M,M,PHLI 012345Z AUTO 06012KT 10SM FEW019 SCT026 A3013 RMK MADISHF
PHLI,2017-04-01 23:50,-159.3406,21.9839,M,M,M,60.00,13.00,M,30.13,M,10.00,M,FEW,SCT,M,M,1999.00,2800.00,M,M,M,PHLI 012350Z AUTO 06013KT 10SM FEW019 SCT028 A3013 RMK MADISHF
PHLI,2017-04-01 23:53,-159.3406,21.9839,81.00,66.90,62.28,60.00,12.00,0.00,30.13,1019.90,10.00,M,FEW,FEW,M,M,2000.00,2600.00,M,M,M,PHLI 012353Z 06012KT 10SM FEW020 FEW026 27/19 A3013 RMK AO2 SLP199 T02720194 10278 20244 58017
PHLI,2017-04-01 23:55,-159.3406,21.9839,M,M,M,60.00,11.00,M,30.13,M,10.00,M,FEW,M,M,M,1999.00,M,M,M,M,PHLI 012355Z AUTO 06011KT 10SM FEW019 A3013 RMK MADISHF
