#DEBUG: Format Typ    -> comma
#DEBUG: Time Period   -> 2017-04-01 00:00:00+00:00 2017-04-02 00:00:00+00:00
#DEBUG: Time Zone     -> Etc/UTC
#DEBUG: Data Contact   -> daryl herzmann akrherz@iastate.edu 515-294-5978
#DEBUG: Entries Found -> -1
station,valid,lon,lat,tmpf, dwpf, relh, drct, sknt, p01i, alti, mslp, vsby, gust, skyc1, skyc2, skyc3, skyc4, skyl1, skyl2, skyl3, skyl4, presentwx, metar
PHMK,2017-04-01 00:00,-157.0963,21.1529,M,M,M,30.00,11.00,M,30.05,M,10.00,M,FEW,M,M,M,4700.00,M,M,M,M,PHMK 010000Z AUTO 03011KT 10SM FEW047 A3005 RMK MADISHF
PHMK,2017-04-01 00:04,-157.0963,21.1529,84.00,64.90,52.71,40.00,13.00,0.00,30.05,M,10.00,19.00,SCT,SCT,M,M,4700.00,5500.00,M,M,M,PHMK 010004Z 04013G19KT 10SM SCT047 SCT055 29/18 A3005 RMK AO2 T02890183
PHMK,2017-04-01 00:05,-157.0963,21.1529,M,M,M,30.00,11.00,M,30.05,M,10.00,M,SCT,M,M,M,4700.00,M,M,M,M,PHMK 010005Z AUTO 03011KT 10SM SCT047 A3005 RMK MADISHF
PHMK,2017-04-01 00:10,-157.0963,21.1529,M,M,M,20.00,13.00,M,30.05,M,10.00,M,SCT,M,M,M,4700.00,M,M,M,M,PHMK 010010Z AUTO 02013KT 10SM SCT047 A3005 RMK MADISHF
PHMK,2017-04-01 00:15,-157.0963,21.1529,M,M,M,50.00,14.00,M,30.05,M,10.00,M,FEW,M,M,M,4900.00,M,M,M,M,PHMK 010015Z AUTO 05014KT 10SM FEW049 A3005 RMK MADISHF
PHMK,2017-04-01 00:20,-157.0963,21.1529,M,M,M,40.00,11.00,M,30.05,M,10.00,M,FEW,SCT,M,M,4700.00,5500.00,M,M,M,PHMK 010020Z AUTO 04011KT 10SM FEW047 SCT055 A3005 RMK MADISHF
PHMK,2017-04-01 00:25,-157.0963,21.1529,M,M,M,50.00,13.00,M,30.05,M,10.00,18.00,FEW,FEW,M,M,4900.00,6000.00,M,M,M,PHMK 010025Z AUTO 05013G18KT 10SM FEW049 FEW060 A3005 RMK MADISHF
PHMK,2017-04-01 00:30,-157.0963,21.1529,M,M,M,30.00,14.00,M,30.04,M,10.00,19.00,FEW,M,M,M,4900.00,M,M,M,M,PHMK 010030Z AUTO 03014G19KT 10SM FEW049 A3004 RMK MADISHF
PHMK,2017-04-01 00:35,-157.0963,21.1529,M,M,M,20.00,9.00,M,30.04,M,10.00,M,FEW,M,M,M,5500.00,M,M,M,M,PHMK 010035Z AUTO 02009KT 10SM FEW055 A3004 RMK MADISHF
PHMK,2017-04-01 00:40,-157.0963,21.1529,M,M,M,40.00,10.00,M,30.04,M,10.00,M,FEW,M,M,M,5500.00,M,M,M,M,PHMK 010040Z AUTO 04010KT 10SM FEW055 A3004 RMK MADISHF
PHMK,2017-04-01 00:45,-157.0963,21.1529,M,M,M,40.00,13.00,M,30.04,M,10.00,19.00,CLR,M,M,M,M,M,M,M,M,PHMK 010045Z AUTO 04013G19KT 10SM CLR A3004 RMK MADISHF
PHMK,2017-04-01 00:50,-157.0963,21.1529,M,M,M,50.00,13.00,M,30.04,M,10.00,M,CLR,M,M,M,M,M,M,M,M,PHMK 010050Z AUTO 05013KT 10SM CLR A3004 RMK MADISHF
PHMK,2017-04-01 00:54,-157.0963,21.1529,84.00,64.90,52.71,50.00,13.00,0.00,30.04,1017.20,10.00,20.00,CLR,M,M,M,M,M,M,M,M,PHMK 010054Z 05013G20KT 10SM CLR 29/18 A3004 RMK AO2 SLP172 T02890183
PHMK,2017-04-01 00:55,-157.0963,21.1529,M,M,M,50.00,10.00,M,30.04,M,10.00,M,CLR,M,M,M,M,M,M,M,M,PHMK 010055Z AUTO 05010KT 10SM CLR A3004 RMK MADISHF
PHMK,2017-04-01 01:00,-157.0963,21.1529,M,M,M,40.00,8.00,M,30.03,M,10.00,M,CLR,M,M,M,M,M,M,M,M,PHMK 010100Z AUTO 04008KT 10SM CLR A3003 RMK MADISHF
PHMK,2017-04-01 01:05,-157.0963,21.1529,M,M,M,30.00,12.00,M,30.03,M,10.00,M,CLR,M,M,M,M,M,M,M,M,PHMK 010105Z AUTO 03012KT 10SM CLR A3003 RMK MADISHF
PHMK,2017-04-01 01:10,-157.0963,21.1529,M,M,M,40.00,9.00,M,30.03,M,10.00,14.00,CLR,M,M,M,M,M,M,M,M,PHMK 010110Z AUTO 04009G14KT 10SM CLR A3003 RMK MADISHF
PHMK,2017-04-01 01:15,-157.0963,21.1529,M,M,M,30.00,11.00,M,30.03,M,10.00,M,CLR,M,M,M,M,M,M,M,M,PHMK 010115Z AUTO 03011KT 10SM CLR A3003 RMK MADISHF
PHMK,2017-04-01 01:20,-157.0963,21.1529,M,M,M,30.00,10.00,M,30.03,M,10.00,M,CLR,M,M,M,M,M,M,M,M,PHMK 010120Z AUTO 03010KT 10SM CLR A3003 RMK MADISHF
PHMK,2017-04-01 01:25,-157.0963,21.1529,M,M,M,40.00,11.00,M,30.03,M,10.00,17.00,CLR,M,M,M,M,M,M,M,M,PHMK 010125Z AUTO 04011G17KT 10SM CLR A3003 RMK MADISHF
PHMK,2017-04-01 01:30,-157.0963,21.1529,M,M,M,50.00,11.00,M,30.03,M,10.00,16.00,CLR,M,M,M,M,M,M,M,M,PHMK 010130Z AUTO 05011G16KT 10SM CLR A3003 RMK MADISHF
PHMK,2017-04-01 01:35,-157.0963,21.1529,M,M,M,60.00,13.00,M,30.03,M,10.00,18.00,CLR,M,M,M,M,M,M,M,M,PHMK 010135Z AUTO 06013G18KT 10SM CLR A3003 RMK MADISHF
PHMK,2017-04-01 01:40,-157.0963,21.1529,M,M,M,50.00,11.00,M,30.03,M,10.00,M,CLR,M,M,M,M,M,M,M,M,PHMK 010140Z AUTO 05011KT 10SM CLR A3003 RMK MADISHF
PHMK,2017-04-01 01:45,-157.0963,21.1529,M,M,M,40.00,11.00,M,30.03,M,10.00,M,CLR,M,M,M,M,M,M,M,M,PHMK 010145Z AUTO 04011KT 10SM CLR A3003 RMK WND 36V08  MADISHF
PHMK,2017-04-01 01:50,-157.0963,21.1529,M,M,M,50.00,11.00,M,30.03,M,10.00,M,CLR,M,M,M,M,M,M,M,M,PHMK 010150Z AUTO 05011KT 10SM CLR A3003 RMK MADISHF
PHMK,2017-04-01 01:54,-157.0963,21.1529,82.00,66.00,58.43,40.00,12.00,0.00,30.03,1017.10,10.00,19.00,CLR,M,M,M,M,M,M,M,M,PHMK 010154Z 04012G19KT 10SM CLR 28/19 A3003 RMK AO2 SLP171 T02780189
PHMK,2017-04-01 01:55,-157.0963,21.1529,M,M,M,40.00,12.00,M,30.03,M,10.00,17.00,CLR,M,M,M,M,M,M,M,M,PHMK 010155Z AUTO 04012G17KT 10SM CLR A3003 RMK MADISHF
PHMK,2017-04-01 02:00,-157.0963,21.1529,M,M,M,40.00,8.00,M,30.03,M,10.00,M,CLR,M,M,M,M,M,M,M,M,PHMK 010200Z AUTO 04008KT 10SM CLR A3003 RMK MADISHF
PHMK,2017-04-01 02:05,-157.0963,21.1529,M,M,M,50.00,13.00,M,30.03,M,10.00,M,CLR,M,M,M,M,M,M,M,M,PHMK 010205Z AUTO 05013KT 10SM CLR A3003 RMK MADISHF
PHMK,2017-04-01 02:10,-157.0963,21.1529,M,M,M,40.00,10.00,M,30.03,M,10.00,M,CLR,M,M,M,M,M,M,M,M,PHMK 010210Z AUTO 04010KT 10SM CLR A3003 RMK MADISHF
PHMK,2017-04-01 02:15,-157.0963,21.1529,M,M,M,40.00,12.00,M,30.04,M,10.00,M,FEW,M,M,M,5500.00,M,M,M,M,PHMK 010215Z AUTO 04012KT 10SM FEW055 A3004 RMK MADISHF
PHMK,2017-04-01 02:20,-157.0963,21.1529,M,M,M,50.00,12.00,M,30.04,M,10.00,M,FEW,M,M,M,5500.00,M,M,M,M,PHMK 010220Z AUTO 05012KT 10SM FEW055 A3004 RMK MADISHF
PHMK,2017-04-01 02:25,-157.0963,21.1529,M,M,M,30.00,10.00,M,30.04,M,10.00,15.00,FEW,FEW,M,M,4900.00,6000.00,M,M,M,PHMK 010225Z AUTO 03010G15KT 10SM FEW049 FEW060 A3004 RMK MADISHF
PHMK,2017-04-01 02:30,-157.0963,21.1529,M,M,M,20.00,11.00,M,30.04,M,10.00,M,FEW,FEW,M,M,4900.00,6000.00,M,M,M,PHMK 010230Z AUTO 02011KT 10SM FEW049 FEW060 A3004 RMK MADISHF
PHMK,2017-04-01 02:35,-157.0963,21.1529,M,M,M,30.00,11.00,M,30.04,M,10.00,M,FEW,M,M,M,6000.00,M,M,M,M,PHMK 010235Z AUTO 03011KT 10SM FEW060 A3004 RMK MADISHF
PHMK,2017-04-01 02:40,-157.0963,21.1529,M,M,M,40.00,14.00,M,30.04,M,10.00,M,FEW,M,M,M,5000.00,M,M,M,M,PHMK 010240Z AUTO 04014KT 10SM FEW050 A3004 RMK MADISHF
PHMK,2017-04-01 02:45,-157.0963,21.1529,M,M,M,40.00,9.00,M,30.04,M,10.00,M,CLR,M,M,M,M,M,M,M,M,PHMK 010245Z AUTO 04009KT 10SM CLR A3004 RMK MADISHF
PHMK,2017-04-01 02:50,-157.0963,21.1529,M,M,M,50.00,15.00,M,30.04,M,10.00,20.00,SCT,M,M,M,2800.00,M,M,M,M,PHMK 010250Z AUTO 05015G20KT 10SM SCT028 A3004 RMK MADISHF
PHMK,2017-04-01 02:54,-157.0963,21.1529,80.10,66.90,64.14,50.00,14.00,0.00,30.04,1017.40,10.00,22.00,SCT,M,M,M,2800.00,M,M,M,M,PHMK 010254Z 05014G22KT 10SM SCT028 27/19 A3004 RMK AO2 SLP174 T02670194 55004
PHMK,2017-04-01 02:55,-157.0963,21.1529,M,M,M,50.00,14.00,M,30.04,M,10.00,M,FEW,M,M,M,6000.00,M,M,M,M,PHMK 010255Z AUTO 05014KT 10SM FEW060 A3004 RMK MADISHF
PHMK,2017-04-01 03:00,-157.0963,21.1529,M,M,M,50.00,12.00,M,30.04,M,10.00,M,FEW,M,M,M,5500.00,M,M,M,M,PHMK 010300Z AUTO 05012KT 10SM FEW055 A3004 RMK MADISHF
PHMK,2017-04-01 03:05,-157.0963,21.1529,M,M,M,40.00,10.00,M,30.04,M,10.00,16.00,FEW,M,M,M,6000.00,M,M,M,M,PHMK 010305Z AUTO 04010G16KT 10SM FEW060 A3004 RMK MADISHF
PHMK,2017-04-01 03:10,-157.0963,21.1529,M,M,M,40.00,9.00,M,30.04,M,10.00,15.00,FEW,M,M,M,5500.00,M,M,M,M,PHMK 010310Z AUTO 04009G15KT 10SM FEW055 A3004 RMK MADISHF
PHMK,2017-04-01 03:15,-157.0963,21.1529,M,M,M,20.00,11.00,M,30.04,M,10.00,M,FEW,M,M,M,5500.00,M,M,M,M,PHMK 010315Z AUTO 02011KT 10SM FEW055 A3004 RMK MADISHF
PHMK,2017-04-01 03:20,-157.0963,21.1529,M,M,M,40.00,10.00,M,30.04,M,10.00,M,FEW,M,M,M,5500.00,M,M,M,M,PHMK 010320Z AUTO 04010KT 10SM FEW055 A3004 RMK MADISHF
PHMK,2017-04-01 03:25,-157.0963,21.1529,M,M,M,30.00,9.00,M,30.05,M,10.00,M,FEW,M,M,M,5500.00,M,M,M,M,PHMK 010325Z AUTO 03009KT 10SM FEW055 A3005 RMK MADISHF
PHMK,2017-04-01 03:30,-157.0963,21.1529,M,M,M,30.00,7.00,M,30.05,M,10.00,M,CLR,M,M,M,M,M,M,M,M,PHMK 010330Z AUTO 03007KT 10SM CLR A3005 RMK WND 36V08  MADISHF
PHMK,2017-04-01 03:35,-157.0963,21.1529,M,M,M,30.00,8.00,M,30.05,M,10.00,M,CLR,M,M,M,M,M,M,M,M,PHMK 010335Z AUTO 03008KT 10SM CLR A3005 RMK MADISHF
PHMK,2017-04-01 03:40,-157.0963,21.1529,M,M,M,40.00,9.00,M,30.05,M,10.00,M,CLR,M,M,M,M,M,M,M,M,PHMK 010340Z AUTO 04009KT 10SM CLR A3005 RMK MADISHF
PHMK,2017-04-01 03:45,-157.0963,21.1529,M,M,M,30.00,8.00,M,30.05,M,10.00,M,FEW,M,M,M,2700.00,M,M,M,M,PHMK 010345Z AUTO 03008KT 10SM FEW027 A3005 RMK MADISHF
PHMK,2017-04-01 03:50,-157.0963,21.1529,M,M,M,50.00,10.00,M,30.05,M,10.00,15.00,FEW,M,M,M,2700.00,M,M,M,M,PHMK 010350Z AUTO 05010G15KT 10SM FEW027 A3005 RMK MADISHF
PHMK,2017-04-01 03:54,-157.0963,21.1529,79.00,64.90,62.03,40.00,8.00,0.00,30.05,1017.80,10.00,16.00,FEW,M,M,M,2700.00,M,M,M,M,PHMK 010354Z 04008G16KT 10SM FEW027 26/18 A3005 RMK AO2 SLP178 T02610183
PHMK,2017-04-01 03:55,-157.0963,21.1529,M,M,M,40.00,8.00,M,30.05,M,10.00,M,CLR,M,M,M,M,M,M,M,M,PHMK 010355Z AUTO 04008KT 10SM CLR A3005 RMK MADISHF
PHMK,2017-04-01 04:00,-157.0963,21.1529,M,M,M,40.00,7.00,M,30.06,M,10.00,M,CLR,M,M,M,M,M,M,M,M,PHMK 010400Z AUTO 04007KT 10SM CLR A3006 RMK MADISHF
PHMK,2017-04-01 04:05,-157.0963,21.1529,M,M,M,40.00,7.00,M,30.06,M,10.00,M,CLR,M,M,M,M,M,M,M,M,PHMK 010405Z AUTO 04007KT 10SM CLR A3006 RMK MADISHF
PHMK,2017-04-01 04:10,-157.0963,21.1529,M,M,M,40.00,8.00,M,30.06,M,10.00,M,CLR,M,M,M,M,M,M,M,M,PHMK 010410Z AUTO 04008KT 10SM CLR A3006 RMK MADISHF
PHMK,2017-04-01 04:15,-157.0963,21.1529,M,M,M,30.00,6.00,M,30.06,M,10.00,M,CLR,M,M,M,M,M,M,M,M,PHMK 010415Z AUTO 03006KT 10SM CLR A3006 RMK MADISHF
PHMK,2017-04-01 04:20,-157.0963,21.1529,M,M,M,30.00,9.00,M,30.06,M,10.00,15.00,CLR,M,M,M,M,M,M,M,M,PHMK 010420Z AUTO 03009G15KT 10SM CLR A3006 RMK MADISHF
PHMK,2017-04-01 04:25,-157.0963,21.1529,M,M,M,40.00,9.00,M,30.07,M,10.00,14.00,CLR,M,M,M,M,M,M,M,M,PHMK 010425Z AUTO 04009G14KT 10SM CLR A3007 RMK MADISHF
PHMK,2017-04-01 04:30,-157.0963,21.1529,M,M,M,40.00,10.00,M,30.07,M,10.00,M,CLR,M,M,M,M,M,M,M,M,PHMK 010430Z AUTO 04010KT 10SM CLR A3007 RMK MADISHF
PHMK,2017-04-01 04:35,-157.0963,21.1529,M,M,M,30.00,10.00,M,30.07,M,10.00,M,CLR,M,M,M,M,M,M,M,M,PHMK 010435Z AUTO 03010KT 10SM CLR A3007 RMK MADISHF
PHMK,2017-04-01 04:40,-157.0963,21.1529,M,M,M,40.00,9.00,M,30.07,M,10.00,14.00,CLR,M,M,M,M,M,M,M,M,PHMK 010440Z AUTO 04009G14KT 10SM CLR A3007 RMK MADISHF
PHMK,2017-04-01 04:45,-157.0963,21.1529,M,M,M,40.00,9.00,M,30.07,M,10.00,M,CLR,M,M,M,M,M,M,M,M,PHMK 010445Z AUTO 04009KT 10SM CLR A3007 RMK MADISHF
PHMK,2017-04-01 04:50,-157.0963,21.1529,M,M,M,30.00,7.00,M,30.08,M,10.00,M,CLR,M,M,M,M,M,M,M,M,PHMK 010450Z AUTO 03007KT 10SM CLR A3008 RMK MADISHF
PHMK,2017-04-01 04:54,-157.0963,21.1529,75.00,64.90,70.83,40.00,9.00,0.00,30.08,1018.80,10.00,16.00,CLR,M,M,M,M,M,M,M,M,PHMK 010454Z AUTO 04009G16KT 10SM CLR 24/18 A3008 RMK AO2 SLP188 T02390183 TSNO
PHMK,2017-04-01 04:55,-157.0963,21.1529,M,M,M,40.00,9.00,M,30.08,M,10.00,M,CLR,M,M,M,M,M,M,M,M,PHMK 010455Z AUTO 04009KT 10SM CLR A3008 RMK MADISHF
PHMK,2017-04-01 05:00,-157.0963,21.1529,M,M,M,40.00,8.00,M,30.08,M,10.00,M,CLR,M,M,M,M,M,M,M,M,PHMK 010500Z AUTO 04008KT 10SM CLR A3008 RMK MADISHF
PHMK,2017-04-01 05:05,-157.0963,21.1529,M,M,M,40.00,10.00,M,30.08,M,10.00,M,CLR,M,M,M,M,M,M,M,M,PHMK 010505Z AUTO 04010KT 10SM CLR A3008 RMK MADISHF
PHMK,2017-04-01 05:10,-157.0963,21.1529,M,M,M,40.00,8.00,M,30.08,M,10.00,M,CLR,M,M,M,M,M,M,M,M,PHMK 010510Z AUTO 04008KT 10SM CLR A3008 RMK MADISHF
PHMK,2017-04-01 05:15,-157.0963,21.1529,M,M,M,40.00,8.00,M,30.09,M,10.00,M,CLR,M,M,M,M,M,M,M,M,PHMK 010515Z AUTO 04008KT 10SM CLR A3009 RMK MADISHF
PHMK,2017-04-01 05:20,-157.0963,21.1529,M,M,M,20.00,6.00,M,30.09,M,10.00,M,CLR,M,M,M,M,M,M,M,M,PHMK 010520Z AUTO 02006KT 10SM CLR A3009 RMK MADISHF
PHMK,2017-04-01 05:25,-157.0963,21.1529,M,M,M,60.00,8.00,M,30.09,M,10.00,M,CLR,M,M,M,M,M,M,M,M,PHMK 010525Z AUTO 06008KT 10SM CLR A3009 RMK MADISHF
PHMK,2017-04-01 05:30,-157.0963,21.1529,M,M,M,30.00,9.00,M,30.09,M,10.00,M,CLR,M,M,M,M,M,M,M,M,PHMK 010530Z AUTO 03009KT 10SM CLR A3009 RMK MADISHF
PHMK,2017-04-01 05:35,-157.0963,21.1529,M,M,M,30.00,7.00,M,30.09,M,10.00,M,CLR,M,M,M,M,M,M,M,M,PHMK 010535Z AUTO 03007KT 10SM CLR A3009 RMK MADISHF
PHMK,2017-04-01 05:40,-157.0963,21.1529,M,M,M,50.00,9.00,M,30.09,M,10.00,14.00,CLR,M,M,M,M,M,M,M,M,PHMK 010540Z AUTO 05009G14KT 10SM CLR A3009 RMK MADISHF
PHMK,2017-04-01 05:45,-157.0963,21.1529,M,M,M,30.00,8.00,M,30.10,M,10.00,M,CLR,M,M,M,M,M,M,M,M,PHMK 010545Z AUTO 03008KT 10SM CLR A3010 RMK MADISHF
PHMK,2017-04-01 05:50,-157.0963,21.1529,M,M,M,30.00,8.00,M,30.10,M,10.00,M,CLR,M,M,M,M,M,M,M,M,PHMK 010550Z AUTO 03008KT 10SM CLR A3010 RMK MADISHF
PHMK,2017-04-01 05:54,-157.0963,21.1529,75.00,64.00,68.64,40.00,8.00,0.00,30.10,1019.50,10.00,M,CLR,M,M,M,M,M,M,M,M,PHMK 010554Z AUTO 04008KT 10SM CLR 24/18 A3010 RMK AO2 SLP195 T02390178 10300 20239 53020 TSNO
PHMK,2017-04-01 05:55,-157.0963,21.1529,M,M,M,40.00,8.00,M,30.10,M,10.00,M,CLR,M,M,M,M,M,M,M,M,PHMK 010555Z AUTO 04008KT 10SM CLR A3010 RMK MADISHF
PHMK,2017-04-01 06:00,-157.0963,21.1529,M,M,M,40.00,8.00,M,30.10,M,10.00,M,FEW,M,M,M,5500.00,M,M,M,M,PHMK 010600Z AUTO 04008KT 10SM FEW055 A3010 RMK MADISHF
PHMK,2017-04-01 06:05,-157.0963,21.1529,M,M,M,40.00,7.00,M,30.11,M,10.00,M,FEW,M,M,M,5500.00,M,M,M,M,PHMK 010605Z AUTO 04007KT 10SM FEW055 A3011 RMK MADISHF
PHMK,2017-04-01 06:10,-157.0963,21.1529,M,M,M,50.00,6.00,M,30.11,M,10.00,M,FEW,M,M,M,5500.00,M,M,M,M,PHMK 010610Z AUTO 05006KT 10SM FEW055 A3011 RMK MADISHF
PHMK,2017-04-01 06:15,-157.0963,21.1529,M,M,M,40.00,8.00,M,30.11,M,10.00,M,SCT,M,M,M,5500.00,M,M,M,M,PHMK 010615Z AUTO 04008KT 10SM SCT055 A3011 RMK MADISHF
PHMK,2017-04-01 06:20,-157.0963,21.1529,M,M,M,50.00,10.00,M,30.11,M,10.00,M,BKN,M,M,M,5500.00,M,M,M,M,PHMK 010620Z AUTO 05010KT 10SM BKN055 A3011 RMK MADISHF
PHMK,2017-04-01 06:25,-157.0963,21.1529,M,M,M,60.00,10.00,M,30.11,M,10.00,M,BKN,M,M,M,5500.00,M,M,M,M,PHMK 010625Z AUTO 06010KT 10SM BKN055 A3011 RMK MADISHF
PHMK,2017-04-01 06:30,-157.0963,21.1529,M,M,M,60.00,9.00,M,30.12,M,10.00,M,BKN,M,M,M,5500.00,M,M,M,M,PHMK 010630Z AUTO 06009KT 10SM BKN055 A3012 RMK MADISHF
PHMK,2017-04-01 06:35,-157.0963,21.1529,M,M,M,50.00,9.00,M,30.12,M,10.00,14.00,BKN,M,M,M,5500.00,M,M,M,M,PHMK 010635Z AUTO 05009G14KT 10SM BKN055 A3012 RMK MADISHF
PHMK,2017-04-01 06:40,-157.0963,21.1529,M,M,M,50.00,8.00,M,30.12,M,10.00,M,FEW,BKN,M,M,4700.00,5500.00,M,M,M,PHMK 010640Z AUTO 05008KT 10SM FEW047 BKN055 A3012 RMK MADISHF
PHMK,2017-04-01 06:45,-157.0963,21.1529,M,M,M,40.00,10.00,M,30.12,M,10.00,15.00,SCT,OVC,M,M,4700.00,5500.00,M,M,M,PHMK 010645Z AUTO 04010G15KT 10SM SCT047 OVC055 A3012 RMK MADISHF
PHMK,2017-04-01 06:50,-157.0963,21.1529,M,M,M,50.00,9.00,M,30.12,M,10.00,M,OVC,M,M,M,5000.00,M,M,M,M,PHMK 010650Z AUTO 05009KT 10SM OVC050 A3012 RMK MADISHF
PHMK,2017-04-01 06:54,-157.0963,21.1529,75.90,64.90,68.73,50.00,9.00,0.00,30.12,1020.20,10.00,16.00,BKN,M,M,M,5500.00,M,M,M,M,PHMK 010654Z AUTO 05009G16KT 10SM BKN055 24/18 A3012 RMK AO2 SLP202 T02440183 TSNO
PHMK,2017-04-01 06:55,-157.0963,21.1529,M,M,M,50.00,10.00,M,30.12,M,10.00,M,BKN,M,M,M,5500.00,M,M,M,M,PHMK 010655Z AUTO 05010KT 10SM BKN055 A3012 RMK MADISHF
PHMK,2017-04-01 07:00,-157.0963,21.1529,M,M,M,50.00,12.00,M,30.12,M,10.00,M,FEW,BKN,M,M,4800.00,6000.00,M,M,M,PHMK 010700Z AUTO 05012KT 10SM FEW048 BKN060 A3012 RMK MADISHF
PHMK,2017-04-01 07:05,-157.0963,21.1529,M,M,M,50.00,11.00,M,30.12,M,10.00,M,FEW,OVC,M,M,4800.00,6000.00,M,M,M,PHMK 010705Z AUTO 05011KT 10SM FEW048 OVC060 A3012 RMK MADISHF
PHMK,2017-04-01 07:10,-157.0963,21.1529,M,M,M,40.00,12.00,M,30.13,M,10.00,M,FEW,BKN,M,M,4800.00,6000.00,M,M,M,PHMK 010710Z AUTO 04012KT 10SM FEW048 BKN060 A3013 RMK MADISHF
PHMK,2017-04-01 07:15,-157.0963,21.1529,M,M,M,40.00,10.00,M,30.13,M,10.00,M,BKN,M,M,M,6000.00,M,M,M,M,PHMK 010715Z AUTO 04010KT 10SM BKN060 A3013 RMK MADISHF
PHMK,2017-04-01 07:20,-157.0963,21.1529,M,M,M,50.00,10.00,M,30.13,M,10.00,M,BKN,M,M,M,6000.00,M,M,M,M,PHMK 010720Z AUTO 05010KT 10SM BKN060 A3013 RMK MADISHF
PHMK,2017-04-01 07:25,-157.0963,21.1529,M,M,M,50.00,8.00,M,30.14,M,10.00,M,BKN,M,M,M,6000.00,M,M,M,M,PHMK 010725Z AUTO 05008KT 10SM BKN060 A3014 RMK WND 01V07  MADISHF
PHMK,2017-04-01 07:30,-157.0963,21.1529,M,M,M,60.00,9.00,M,30.14,M,10.00,M,BKN,M,M,M,6000.00,M,M,M,M,PHMK 010730Z AUTO 06009KT 10SM BKN060 A3014 RMK MADISHF
PHMK,2017-04-01 07:35,-157.0963,21.1529,M,M,M,40.00,12.00,M,30.14,M,10.00,M,BKN,M,M,M,6500.00,M,M,M,M,PHMK 010735Z AUTO 04012KT 10SM BKN065 A3014 RMK MADISHF
PHMK,2017-04-01 07:40,-157.0963,21.1529,M,M,M,50.00,14.00,M,30.14,M,10.00,M,OVC,M,M,M,6500.00,M,M,M,M,PHMK 010740Z AUTO 05014KT 10SM OVC065 A3014 RMK MADISHF
PHMK,2017-04-01 07:45,-157.0963,21.1529,M,M,M,50.00,12.00,M,30.14,M,10.00,M,BKN,M,M,M,6500.00,M,M,M,M,PHMK 010745Z AUTO 05012KT 10SM BKN065 A3014 RMK MADISHF
PHMK,2017-04-01 07:50,-157.0963,21.1529,M,M,M,50.00,10.00,M,30.14,M,10.00,15.00,BKN,M,M,M,6500.00,M,M,M,M,PHMK 010750Z AUTO 05010G15KT 10SM BKN065 A3014 RMK MADISHF
PHMK,2017-04-01 07:54,-157.0963,21.1529,75.00,66.90,75.92,40.00,9.00,0.00,30.14,1020.70,10.00,M,FEW,BKN,M,M,4900.00,7000.00,M,M,M,PHMK 010754Z AUTO 04009KT 10SM FEW049 BKN070 24/19 A3014 RMK AO2 SLP207 T02390194 TSNO
PHMK,2017-04-01 07:55,-157.0963,21.1529,M,M,M,30.00,9.00,M,30.14,M,10.00,14.00,FEW,BKN,M,M,4900.00,7000.00,M,M,M,PHMK 010755Z AUTO 03009G14KT 10SM FEW049 BKN070 A3014 RMK MADISHF
PHMK,2017-04-01 08:00,-157.0963,21.1529,M,M,M,30.00,12.00,M,30.14,M,10.00,M,FEW,OVC,M,M,4900.00,6500.00,M,M,M,PHMK 010800Z AUTO 03012KT 10SM FEW049 OVC065 A3014 RMK MADISHF
PHMK,2017-04-01 08:05,-157.0963,21.1529,M,M,M,40.00,11.00,M,30.14,M,10.00,M,OVC,M,M,M,6500.00,M,M,M,M,PHMK 010805Z AUTO 04011KT 10SM OVC065 A3014 RMK MADISHF
PHMK,2017-04-01 08:10,-157.0963,21.1529,M,M,M,40.00,11.00,M,30.14,M,10.00,M,FEW,OVC,M,M,4700.00,6500.00,M,M,M,PHMK 010810Z AUTO 04011KT 10SM FEW047 OVC065 A3014 RMK MADISHF
PHMK,2017-04-01 08:15,-157.0963,21.1529,M,M,M,40.00,11.00,M,30.14,M,10.00,M,FEW,OVC,M,M,4400.00,6500.00,M,M,M,PHMK 010815Z AUTO 04011KT 10SM FEW044 OVC065 A3014 RMK MADISHF
PHMK,2017-04-01 08:20,-157.0963,21.1529,M,M,M,40.00,9.00,M,30.14,M,10.00,M,FEW,OVC,M,M,4800.00,7000.00,M,M,M,PHMK 010820Z AUTO 04009KT 10SM FEW048 OVC070 A3014 RMK MADISHF
PHMK,2017-04-01 08:25,-157.0963,21.1529,M,M,M,30.00,8.00,M,30.14,M,10.00,M,OVC,M,M,M,7000.00,M,M,M,M,PHMK 010825Z AUTO 03008KT 10SM OVC070 A3014 RMK MADISHF
PHMK,2017-04-01 08:30,-157.0963,21.1529,M,M,M,20.00,5.00,M,30.14,M,10.00,M,OVC,M,M,M,7000.00,M,M,M,M,PHMK 010830Z AUTO 02005KT 10SM OVC070 A3014 RMK MADISHF
PHMK,2017-04-01 08:35,-157.0963,21.1529,M,M,M,20.00,7.00,M,30.14,M,10.00,M,OVC,M,M,M,7000.00,M,M,M,M,PHMK 010835Z AUTO 02007KT 10SM OVC070 A3014 RMK MADISHF
PHMK,2017-04-01 08:40,-157.0963,21.1529,M,M,M,20.00,7.00,M,30.14,M,10.00,M,OVC,M,M,M,7000.00,M,M,M,M,PHMK 010840Z AUTO 02007KT 10SM OVC070 A3014 RMK MADISHF
PHMK,2017-04-01 08:45,-157.0963,21.1529,M,M,M,30.00,9.00,M,30.14,M,10.00,M,OVC,M,M,M,7000.00,M,M,M,M,PHMK 010845Z AUTO 03009KT 10SM OVC070 A3014 RMK MADISHF
PHMK,2017-04-01 08:50,-157.0963,21.1529,M,M,M,50.00,9.00,M,30.14,M,10.00,17.00,OVC,M,M,M,7000.00,M,M,M,M,PHMK 010850Z AUTO 05009G17KT 10SM OVC070 A3014 RMK MADISHF
PHMK,2017-04-01 08:54,-157.0963,21.1529,75.00,66.00,73.59,50.00,10.00,0.00,30.15,1020.90,10.00,18.00,OVC,M,M,M,7000.00,M,M,M,M,PHMK 010854Z AUTO 05010G18KT 10SM OVC070 24/19 A3015 RMK AO2 SLP209 T02390189 51015 TSNO
PHMK,2017-04-01 08:55,-157.0963,21.1529,M,M,M,50.00,9.00,M,30.15,M,10.00,M,OVC,M,M,M,7000.00,M,M,M,M,PHMK 010855Z AUTO 05009KT 10SM OVC070 A3015 RMK MADISHF
PHMK,2017-04-01 09:00,-157.0963,21.1529,M,M,M,50.00,8.00,M,30.14,M,10.00,M,BKN,M,M,M,7000.00,M,M,M,M,PHMK 010900Z AUTO 05008KT 10SM BKN070 A3014 RMK MADISHF
PHMK,2017-04-01 09:05,-157.0963,21.1529,M,M,M,40.00,8.00,M,30.14,M,10.00,M,BKN,M,M,M,7000.00,M,M,M,M,PHMK 010905Z AUTO 04008KT 10SM BKN070 A3014 RMK MADISHF
PHMK,2017-04-01 09:10,-157.0963,21.1529,M,M,M,40.00,10.00,M,30.14,M,10.00,M,SCT,M,M,M,7000.00,M,M,M,M,PHMK 010910Z AUTO 04010KT 10SM SCT070 A3014 RMK MADISHF
PHMK,2017-04-01 09:15,-157.0963,21.1529,M,M,M,50.00,8.00,M,30.14,M,10.00,M,FEW,M,M,M,7000.00,M,M,M,M,PHMK 010915Z AUTO 05008KT 10SM FEW070 A3014 RMK MADISHF
PHMK,2017-04-01 09:20,-157.0963,21.1529,M,M,M,40.00,6.00,M,30.14,M,10.00,M,FEW,M,M,M,7000.00,M,M,M,M,PHMK 010920Z AUTO 04006KT 10SM FEW070 A3014 RMK MADISHF
PHMK,2017-04-01 09:25,-157.0963,21.1529,M,M,M,30.00,8.00,M,30.14,M,10.00,M,CLR,M,M,M,M,M,M,M,M,PHMK 010925Z AUTO 03008KT 10SM CLR A3014 RMK MADISHF
PHMK,2017-04-01 09:30,-157.0963,21.1529,M,M,M,20.00,6.00,M,30.14,M,10.00,M,CLR,M,M,M,M,M,M,M,M,PHMK 010930Z AUTO 02006KT 10SM CLR A3014 RMK MADISHF
PHMK,2017-04-01 09:35,-157.0963,21.1529,M,M,M,30.00,9.00,M,30.14,M,10.00,14.00,CLR,M,M,M,M,M,M,M,M,PHMK 010935Z AUTO 03009G14KT 10SM CLR A3014 RMK MADISHF
PHMK,2017-04-01 09:40,-157.0963,21.1529,M,M,M,40.00,10.00,M,30.14,M,10.00,M,CLR,M,M,M,M,M,M,M,M,PHMK 010940Z AUTO 04010KT 10SM CLR A3014 RMK MADISHF
PHMK,2017-04-01 09:45,-157.0963,21.1529,M,M,M,30.00,9.00,M,30.14,M,10.00,M,CLR,M,M,M,M,M,M,M,M,PHMK 010945Z AUTO 03009KT 10SM CLR A3014 RMK MADISHF
PHMK,2017-04-01 09:50,-157.0963,21.1529,M,M,M,30.00,9.00,M,30.13,M,10.00,M,CLR,M,M,M,M,M,M,M,M,PHMK 010950Z AUTO 03009KT 10SM CLR A3013 RMK MADISHF
PHMK,2017-04-01 09:54,-157.0963,21.1529,73.90,66.00,76.36,20.00,7.00,0.00,30.14,1020.50,10.00,M,CLR,M,M,M,M,M,M,M,M,PHMK 010954Z AUTO 02007KT 10SM CLR 23/19 A3014 RMK AO2 SLP205 T02330189 403000217 TSNO
PHMK,2017-04-01 09:55,-157.0963,21.1529,M,M,M,20.00,7.00,M,30.14,M,10.00,M,CLR,M,M,M,M,M,M,M,M,PHMK 010955Z AUTO 02007KT 10SM CLR A3014 RMK MADISHF
PHMK,2017-04-01 10:00,-157.0963,21.1529,M,M,M,20.00,7.00,M,30.14,M,10.00,M,CLR,M,M,M,M,M,M,M,M,PHMK 011000Z AUTO 02007KT 10SM CLR A3014 RMK MADISHF
PHMK,2017-04-01 10:05,-157.0963,21.1529,M,M,M,10.00,6.00,M,30.14,M,10.00,M,CLR,M,M,M,M,M,M,M,M,PHMK 011005Z AUTO 01006KT 10SM CLR A3014 RMK MADISHF
PHMK,2017-04-01 10:10,-157.0963,21.1529,M,M,M,50.00,8.00,M,30.14,M,10.00,M,CLR,M,M,M,M,M,M,M,M,PHMK 011010Z AUTO 05008KT 10SM CLR A3014 RMK MADISHF
PHMK,2017-04-01 10:15,-157.0963,21.1529,M,M,M,40.00,9.00,M,30.13,M,10.00,M,CLR,M,M,M,M,M,M,M,M,PHMK 011015Z AUTO 04009KT 10SM CLR A3013 RMK MADISHF
PHMK,2017-04-01 10:20,-157.0963,21.1529,M,M,M,40.00,8.00,M,30.14,M,10.00,M,CLR,M,M,M,M,M,M,M,M,PHMK 011020Z AUTO 04008KT 10SM CLR A3014 RMK MADISHF
PHMK,2017-04-01 10:25,-157.0963,21.1529,M,M,M,30.00,8.00,M,30.13,M,10.00,M,CLR,M,M,M,M,M,M,M,M,PHMK 011025Z AUTO 03008KT 10SM CLR A3013 RMK MADISHF
PHMK,2017-04-01 10:30,-157.0963,21.1529,M,M,M,50.00,8.00,M,30.13,M,10.00,M,CLR,M,M,M,M,M,M,M,M,PHMK 011030Z AUTO 05008KT 10SM CLR A3013 RMK MADISHF
PHMK,2017-04-01 10:35,-157.0963,21.1529,M,M,M,50.00,11.00,M,30.13,M,10.00,M,CLR,M,M,M,M,M,M,M,M,PHMK 011035Z AUTO 05011KT 10SM CLR A3013 RMK MADISHF
PHMK,2017-04-01 10:40,-157.0963,21.1529,M,M,M,50.00,10.00,M,30.13,M,10.00,M,FEW,M,M,M,3800.00,M,M,M,M,PHMK 011040Z AUTO 05010KT 10SM FEW038 A3013 RMK MADISHF
PHMK,2017-04-01 10:45,-157.0963,21.1529,M,M,M,60.00,13.00,M,30.13,M,10.00,M,FEW,M,M,M,3800.00,M,M,M,M,PHMK 011045Z AUTO 06013KT 10SM FEW038 A3013 RMK MADISHF
PHMK,2017-04-01 10:50,-157.0963,21.1529,M,M,M,50.00,10.00,M,30.13,M,10.00,16.00,FEW,FEW,M,M,3800.00,4700.00,M,M,M,PHMK 011050Z AUTO 05010G16KT 10SM FEW038 FEW047 A3013 RMK MADISHF
PHMK,2017-04-01 10:54,-157.0963,21.1529,73.90,66.00,76.36,60.00,12.00,0.00,30.13,1020.30,10.00,16.00,FEW,SCT,M,M,3800.00,4700.00,M,M,M,PHMK 011054Z AUTO 06012G16KT 10SM FEW038 SCT047 23/19 A3013 RMK AO2 SLP203 T02330189 TSNO
PHMK,2017-04-01 10:55,-157.0963,21.1529,M,M,M,50.00,13.00,M,30.13,M,10.00,M,FEW,SCT,M,M,3800.00,4700.00,M,M,M,PHMK 011055Z AUTO 05013KT 10SM FEW038 SCT047 A3013 RMK MADISHF
PHMK,2017-04-01 11:00,-157.0963,21.1529,M,M,M,50.00,12.00,M,30.12,M,10.00,M,FEW,FEW,M,M,3800.00,4700.00,M,M,M,PHMK 011100Z AUTO 05012KT 10SM FEW038 FEW047 A3012 RMK MADISHF
PHMK,2017-04-01 11:05,-157.0963,21.1529,M,M,M,50.00,14.00,M,30.12,M,10.00,M,FEW,FEW,M,M,3999.00,4800.00,M,M,M,PHMK 011105Z AUTO 05014KT 10SM FEW039 FEW048 A3012 RMK MADISHF
PHMK,2017-04-01 11:10,-157.0963,21.1529,M,M,M,50.00,10.00,M,30.13,M,10.00,M,FEW,M,M,M,4500.00,M,M,M,M,PHMK 011110Z AUTO 05010KT 10SM FEW045 A3013 RMK MADISHF
PHMK,2017-04-01 11:15,-157.0963,21.1529,M,M,M,40.00,7.00,M,30.13,M,10.00,M,FEW,M,M,M,4900.00,M,M,M,M,PHMK 011115Z AUTO 04007KT 10SM FEW049 A3013 RMK MADISHF
PHMK,2017-04-01 11:20,-157.0963,21.1529,M,M,M,40.00,7.00,M,30.13,M,10.00,M,CLR,M,M,M,M,M,M,M,M,PHMK 011120Z AUTO 04007KT 10SM CLR A3013 RMK MADISHF
PHMK,2017-04-01 11:25,-157.0963,21.1529,M,M,M,30.00,6.00,M,30.12,M,10.00,M,CLR,M,M,M,M,M,M,M,M,PHMK 011125Z AUTO 03006KT 10SM CLR A3012 RMK MADISHF
PHMK,2017-04-01 11:30,-157.0963,21.1529,M,M,M,40.00,9.00,M,30.12,M,10.00,M,CLR,M,M,M,M,M,M,M,M,PHMK 011130Z AUTO 04009KT 10SM CLR A3012 RMK MADISHF
PHMK,2017-04-01 11:35,-157.0963,21.1529,M,M,M,50.00,9.00,M,30.12,M,10.00,M,CLR,M,M,M,M,M,M,M,M,PHMK 011135Z AUTO 05009KT 10SM CLR A3012 RMK MADISHF
PHMK,2017-04-01 11:40,-157.0963,21.1529,M,M,M,40.00,8.00,M,30.12,M,10.00,M,CLR,M,M,M,M,M,M,M,M,PHMK 011140Z AUTO 04008KT 10SM CLR A3012 RMK MADISHF
PHMK,2017-04-01 11:45,-157.0963,21.1529,M,M,M,40.00,7.00,M,30.12,M,10.00,M,CLR,M,M,M,M,M,M,M,M,PHMK 011145Z AUTO 04007KT 10SM CLR A3012 RMK MADISHF
PHMK,2017-04-01 11:50,-157.0963,21.1529,M,M,M,50.00,6.00,M,30.12,M,10.00,M,CLR,M,M,M,M,M,M,M,M,PHMK 011150Z AUTO 05006KT 10SM CLR A3012 RMK MADISHF
PHMK,2017-04-01 11:54,-157.0963,21.1529,73.90,62.10,66.61,40.00,6.00,0.00,30.12,1019.90,10.00,M,CLR,M,M,M,M,M,M,M,M,PHMK 011154Z AUTO 04006KT 10SM CLR 23/17 A3012 RMK AO2 SLP199 T02330167 10244 20228 56009 TSNO
PHMK,2017-04-01 11:55,-157.0963,21.1529,M,M,M,40.00,7.00,M,30.12,M,10.00,M,CLR,M,M,M,M,M,M,M,M,PHMK 011155Z AUTO 04007KT 10SM CLR A3012 RMK MADISHF
PHMK,2017-04-01 12:00,-157.0963,21.1529,M,M,M,30.00,6.00,M,30.12,M,10.00,M,CLR,M,M,M,M,M,M,M,M,PHMK 011200Z AUTO 03006KT 10SM CLR A3012 RMK MADISHF
PHMK,2017-04-01 12:05,-157.0963,21.1529,M,M,M,40.00,7.00,M,30.12,M,10.00,M,CLR,M,M,M,M,M,M,M,M,PHMK 011205Z AUTO 04007KT 10SM CLR A3012 RMK MADISHF
PHMK,2017-04-01 12:10,-157.0963,21.1529,M,M,M,40.00,6.00,M,30.11,M,10.00,M,CLR,M,M,M,M,M,M,M,M,PHMK 011210Z AUTO 04006KT 10SM CLR A3011 RMK MADISHF
PHMK,2017-04-01 12:15,-157.0963,21.1529,M,M,M,30.00,7.00,M,30.11,M,10.00,M,CLR,M,M,M,M,M,M,M,M,PHMK 011215Z AUTO 03007KT 10SM CLR A3011 RMK MADISHF
PHMK,2017-04-01 12:20,-157.0963,21.1529,M,M,M,40.00,6.00,M,30.11,M,10.00,M,CLR,M,M,M,M,M,M,M,M,PHMK 011220Z AUTO 04006KT 10SM CLR A3011 RMK MADISHF
PHMK,2017-04-01 12:25,-157.0963,21.1529,M,M,M,30.00,7.00,M,30.10,M,10.00,M,CLR,M,M,M,M,M,M,M,M,PHMK 011225Z AUTO 03007KT 10SM CLR A3010 RMK MADISHF
PHMK,2017-04-01 12:30,-157.0963,21.1529,M,M,M,20.00,7.00,M,30.10,M,10.00,M,CLR,M,M,M,M,M,M,M,M,PHMK 011230Z AUTO 02007KT 10SM CLR A3010 RMK MADISHF
PHMK,2017-04-01 12:35,-157.0963,21.1529,M,M,M,20.00,5.00,M,30.10,M,10.00,M,CLR,M,M,M,M,M,M,M,M,PHMK 011235Z AUTO 02005KT 10SM CLR A3010 RMK MADISHF
PHMK,2017-04-01 12:40,-157.0963,21.1529,M,M,M,30.00,7.00,M,30.10,M,10.00,M,CLR,M,M,M,M,M,M,M,M,PHMK 011240Z AUTO 03007KT 10SM CLR A3010 RMK MADISHF
PHMK,2017-04-01 12:45,-157.0963,21.1529,M,M,M,30.00,7.00,M,30.10,M,10.00,M,CLR,M,M,M,M,M,M,M,M,PHMK 011245Z AUTO 03007KT 10SM CLR A3010 RMK MADISHF
PHMK,2017-04-01 12:50,-157.0963,21.1529,M,M,M,30.00,8.00,M,30.10,M,10.00,M,CLR,M,M,M,M,M,M,M,M,PHMK 011250Z AUTO 03008KT 10SM CLR A3010 RMK MADISHF
PHMK,2017-04-01 12:54,-157.0963,21.1529,73.00,63.00,70.87,40.00,8.00,0.00,30.10,1019.30,10.00,M,CLR,M,M,M,M,M,M,M,M,PHMK 011254Z AUTO 04008KT 10SM CLR 23/17 A3010 RMK AO2 SLP193 T02280172 TSNO
PHMK,2017-04-01 12:55,-157.0963,21.1529,M,M,M,40.00,8.00,M,30.10,M,10.00,M,CLR,M,M,M,M,M,M,M,M,PHMK 011255Z AUTO 04008KT 10SM CLR A3010 RMK MADISHF
PHMK,2017-04-01 13:00,-157.0963,21.1529,M,M,M,40.00,9.00,M,30.10,M,10.00,M,CLR,M,M,M,M,M,M,M,M,PHMK 011300Z AUTO 04009KT 10SM CLR A3010 RMK MADISHF
PHMK,2017-04-01 13:05,-157.0963,21.1529,M,M,M,30.00,8.00,M,30.10,M,10.00,M,CLR,M,M,M,M,M,M,M,M,PHMK 011305Z AUTO 03008KT 10SM CLR A3010 RMK MADISHF
PHMK,2017-04-01 13:10,-157.0963,21.1529,M,M,M,40.00,8.00,M,30.10,M,10.00,M,CLR,M,M,M,M,M,M,M,M,PHMK 011310Z AUTO 04008KT 10SM CLR A3010 RMK MADISHF
PHMK,2017-04-01 13:15,-157.0963,21.1529,M,M,M,40.00,9.00,M,30.10,M,10.00,M,CLR,M,M,M,M,M,M,M,M,PHMK 011315Z AUTO 04009KT 10SM CLR A3010 RMK MADISHF
PHMK,2017-04-01 13:20,-157.0963,21.1529,M,M,M,30.00,9.00,M,30.09,M,10.00,M,CLR,M,M,M,M,M,M,M,M,PHMK 011320Z AUTO 03009KT 10SM CLR A3009 RMK MADISHF
PHMK,2017-04-01 13:25,-157.0963,21.1529,M,M,M,40.00,8.00,M,30.09,M,10.00,M,CLR,M,M,M,M,M,M,M,M,PHMK 011325Z AUTO 04008KT 10SM CLR A3009 RMK MADISHF
PHMK,2017-04-01 13:30,-157.0963,21.1529,M,M,M,20.00,6.00,M,30.09,M,10.00,M,CLR,M,M,M,M,M,M,M,M,PHMK 011330Z AUTO 02006KT 10SM CLR A3009 RMK MADISHF
PHMK,2017-04-01 13:35,-157.0963,21.1529,M,M,M,30.00,7.00,M,30.09,M,10.00,M,CLR,M,M,M,M,M,M,M,M,PHMK 011335Z AUTO 03007KT 10SM CLR A3009 RMK MADISHF
PHMK,2017-04-01 13:40,-157.0963,21.1529,M,M,M,20.00,6.00,M,30.09,M,10.00,M,CLR,M,M,M,M,M,M,M,M,PHMK 011340Z AUTO 02006KT 10SM CLR A3009 RMK MADISHF
PHMK,2017-04-01 13:45,-157.0963,21.1529,M,M,M,20.00,8.00,M,30.09,M,10.00,M,CLR,M,M,M,M,M,M,M,M,PHMK 011345Z AUTO 02008KT 10SM CLR A3009 RMK MADISHF
PHMK,2017-04-01 13:50,-157.0963,21.1529,M,M,M,30.00,9.00,M,30.09,M,10.00,M,CLR,M,M,M,M,M,M,M,M,PHMK 011350Z AUTO 03009KT 10SM CLR A3009 RMK MADISHF
PHMK,2017-04-01 13:54,-157.0963,21.1529,73.00,64.00,73.40,40.00,10.00,0.00,30.09,1019.10,10.00,16.00,CLR,M,M,M,M,M,M,M,M,PHMK 011354Z AUTO 04010G16KT 10SM CLR 23/18 A3009 RMK AO2 SLP191 T02280178 TSNO
PHMK,2017-04-01 13:55,-157.0963,21.1529,M,M,M,30.00,10.00,M,30.09,M,10.00,M,CLR,M,M,M,M,M,M,M,M,PHMK 011355Z AUTO 03010KT 10SM CLR A3009 RMK MADISHF
PHMK,2017-04-01 14:00,-157.0963,21.1529,M,M,M,30.00,10.00,M,30.09,M,10.00,M,CLR,M,M,M,M,M,M,M,M,PHMK 011400Z AUTO 03010KT 10SM CLR A3009 RMK MADISHF
PHMK,2017-04-01 14:05,-157.0963,21.1529,M,M,M,40.00,9.00,M,30.09,M,10.00,M,CLR,M,M,M,M,M,M,M,M,PHMK 011405Z AUTO 04009KT 10SM CLR A3009 RMK MADISHF
PHMK,2017-04-01 14:10,-157.0963,21.1529,M,M,M,30.00,9.00,M,30.09,M,10.00,M,CLR,M,M,M,M,M,M,M,M,PHMK 011410Z AUTO 03009KT 10SM CLR A3009 RMK MADISHF
PHMK,2017-04-01 14:15,-157.0963,21.1529,M,M,M,40.00,7.00,M,30.09,M,10.00,M,CLR,M,M,M,M,M,M,M,M,PHMK 011415Z AUTO 04007KT 10SM CLR A3009 RMK MADISHF
PHMK,2017-04-01 14:20,-157.0963,21.1529,M,M,M,30.00,7.00,M,30.09,M,10.00,M,CLR,M,M,M,M,M,M,M,M,PHMK 011420Z AUTO 03007KT 10SM CLR A3009 RMK MADISHF
PHMK,2017-04-01 14:25,-157.0963,21.1529,M,M,M,50.00,7.00,M,30.09,M,10.00,M,CLR,M,M,M,M,M,M,M,M,PHMK 011425Z AUTO 05007KT 10SM CLR A3009 RMK MADISHF
PHMK,2017-04-01 14:30,-157.0963,21.1529,M,M,M,50.00,7.00,M,30.09,M,10.00,M,CLR,M,M,M,M,M,M,M,M,PHMK 011430Z AUTO 05007KT 10SM CLR A3009 RMK MADISHF
PHMK,2017-04-01 14:35,-157.0963,21.1529,M,M,M,40.00,7.00,M,30.09,M,10.00,M,CLR,M,M,M,M,M,M,M,M,PHMK 011435Z AUTO 04007KT 10SM CLR A3009 RMK MADISHF
PHMK,2017-04-01 14:40,-157.0963,21.1529,M,M,M,30.00,8.00,M,30.09,M,10.00,M,CLR,M,M,M,M,M,M,M,M,PHMK 011440Z AUTO 03008KT 10SM CLR A3009 RMK MADISHF
PHMK,2017-04-01 14:45,-157.0963,21.1529,M,M,M,20.00,6.00,M,30.09,M,10.00,M,CLR,M,M,M,M,M,M,M,M,PHMK 011445Z AUTO 02006KT 10SM CLR A3009 RMK MADISHF
PHMK,2017-04-01 14:50,-157.0963,21.1529,M,M,M,30.00,8.00,M,30.09,M,10.00,M,CLR,M,M,M,M,M,M,M,M,PHMK 011450Z AUTO 03008KT 10SM CLR A3009 RMK MADISHF
PHMK,2017-04-01 14:54,-157.0963,21.1529,73.00,64.00,73.40,30.00,7.00,0.00,30.09,1019.20,10.00,M,CLR,M,M,M,M,M,M,M,M,PHMK 011454Z AUTO 03007KT 10SM CLR 23/18 A3009 RMK AO2 SLP192 T02280178 55008 TSNO
PHMK,2017-04-01 14:55,-157.0963,21.1529,M,M,M,30.00,8.00,M,30.09,M,10.00,M,CLR,M,M,M,M,M,M,M,M,PHMK 011455Z AUTO 03008KT 10SM CLR A3009 RMK MADISHF
PHMK,2017-04-01 15:00,-157.0963,21.1529,M,M,M,30.00,7.00,M,30.10,M,10.00,M,CLR,M,M,M,M,M,M,M,M,PHMK 011500Z AUTO 03007KT 10SM CLR A3010 RMK MADISHF
PHMK,2017-04-01 15:05,-157.0963,21.1529,M,M,M,30.00,8.00,M,30.10,M,10.00,M,CLR,M,M,M,M,M,M,M,M,PHMK 011505Z AUTO 03008KT 10SM CLR A3010 RMK MADISHF
PHMK,2017-04-01 15:10,-157.0963,21.1529,M,M,M,30.00,8.00,M,30.10,M,10.00,M,CLR,M,M,M,M,M,M,M,M,PHMK 011510Z AUTO 03008KT 10SM CLR A3010 RMK MADISHF
PHMK,2017-04-01 15:15,-157.0963,21.1529,M,M,M,40.00,7.00,M,30.10,M,10.00,M,CLR,M,M,M,M,M,M,M,M,PHMK 011515Z AUTO 04007KT 10SM CLR A3010 RMK MADISHF
PHMK,2017-04-01 15:20,-157.0963,21.1529,M,M,M,30.00,8.00,M,30.10,M,10.00,M,CLR,M,M,M,M,M,M,M,M,PHMK 011520Z AUTO 03008KT 10SM CLR A3010 RMK MADISHF
PHMK,2017-04-01 15:25,-157.0963,21.1529,M,M,M,30.00,10.00,M,30.10,M,10.00,M,CLR,M,M,M,M,M,M,M,M,PHMK 011525Z AUTO 03010KT 10SM CLR A3010 RMK MADISHF
PHMK,2017-04-01 15:30,-157.0963,21.1529,M,M,M,30.00,10.00,M,30.10,M,10.00,M,CLR,M,M,M,M,M,M,M,M,PHMK 011530Z AUTO 03010KT 10SM CLR A3010 RMK MADISHF
PHMK,2017-04-01 15:35,-157.0963,21.1529,M,M,M,40.00,7.00,M,30.11,M,10.00,M,CLR,M,M,M,M,M,M,M,M,PHMK 011535Z AUTO 04007KT 10SM CLR A3011 RMK MADISHF
PHMK,2017-04-01 15:40,-157.0963,21.1529,M,M,M,40.00,10.00,M,30.11,M,10.00,M,CLR,M,M,M,M,M,M,M,M,PHMK 011540Z AUTO 04010KT 10SM CLR A3011 RMK MADISHF
PHMK,2017-04-01 15:45,-157.0963,21.1529,M,M,M,40.00,8.00,M,30.11,M,10.00,M,CLR,M,M,M,M,M,M,M,M,PHMK 011545Z AUTO 04008KT 10SM CLR A3011 RMK MADISHF
PHMK,2017-04-01 15:50,-157.0963,21.1529,M,M,M,40.00,9.00,M,30.11,M,10.00,M,CLR,M,M,M,M,M,M,M,M,PHMK 011550Z AUTO 04009KT 10SM CLR A3011 RMK MADISHF
PHMK,2017-04-01 15:54,-157.0963,21.1529,73.00,64.90,75.75,30.00,8.00,0.00,30.11,1019.70,10.00,M,CLR,M,M,M,M,M,M,M,M,PHMK 011554Z 03008KT 10SM CLR 23/18 A3011 RMK AO2 SLP197 T02280183
PHMK,2017-04-01 15:55,-157.0963,21.1529,M,M,M,40.00,8.00,M,30.11,M,10.00,M,CLR,M,M,M,M,M,M,M,M,PHMK 011555Z AUTO 04008KT 10SM CLR A3011 RMK MADISHF
PHMK,2017-04-01 16:00,-157.0963,21.1529,M,M,M,30.00,8.00,M,30.11,M,10.00,M,CLR,M,M,M,M,M,M,M,M,PHMK 011600Z AUTO 03008KT 10SM CLR A3011 RMK MADISHF
PHMK,2017-04-01 16:05,-157.0963,21.1529,M,M,M,30.00,9.00,M,30.11,M,10.00,M,CLR,M,M,M,M,M,M,M,M,PHMK 011605Z AUTO 03009KT 10SM CLR A3011 RMK MADISHF
PHMK,2017-04-01 16:10,-157.0963,21.1529,M,M,M,30.00,9.00,M,30.11,M,10.00,M,CLR,M,M,M,M,M,M,M,M,PHMK 011610Z AUTO 03009KT 10SM CLR A3011 RMK MADISHF
PHMK,2017-04-01 16:15,-157.0963,21.1529,M,M,M,30.00,8.00,M,30.11,M,10.00,M,CLR,M,M,M,M,M,M,M,M,PHMK 011615Z AUTO 03008KT 10SM CLR A3011 RMK MADISHF
PHMK,2017-04-01 16:20,-157.0963,21.1529,M,M,M,30.00,9.00,M,30.11,M,10.00,15.00,CLR,M,M,M,M,M,M,M,M,PHMK 011620Z AUTO 03009G15KT 10SM CLR A3011 RMK MADISHF
PHMK,2017-04-01 16:25,-157.0963,21.1529,M,M,M,30.00,8.00,M,30.11,M,10.00,M,CLR,M,M,M,M,M,M,M,M,PHMK 011625Z AUTO 03008KT 10SM CLR A3011 RMK MADISHF
PHMK,2017-04-01 16:30,-157.0963,21.1529,M,M,M,30.00,11.00,M,30.11,M,10.00,M,CLR,M,M,M,M,M,M,M,M,PHMK 011630Z AUTO 03011KT 10SM CLR A3011 RMK MADISHF
PHMK,2017-04-01 16:35,-157.0963,21.1529,M,M,M,30.00,11.00,M,30.11,M,10.00,M,CLR,M,M,M,M,M,M,M,M,PHMK 011635Z AUTO 03011KT 10SM CLR A3011 RMK MADISHF
PHMK,2017-04-01 16:40,-157.0963,21.1529,M,M,M,30.00,10.00,M,30.11,M,10.00,16.00,CLR,M,M,M,M,M,M,M,M,PHMK 011640Z AUTO 03010G16KT 10SM CLR A3011 RMK MADISHF
PHMK,2017-04-01 16:45,-157.0963,21.1529,M,M,M,30.00,11.00,M,30.11,M,10.00,M,CLR,M,M,M,M,M,M,M,M,PHMK 011645Z AUTO 03011KT 10SM CLR A3011 RMK MADISHF
PHMK,2017-04-01 16:50,-157.0963,21.1529,M,M,M,30.00,10.00,M,30.12,M,10.00,M,CLR,M,M,M,M,M,M,M,M,PHMK 011650Z AUTO 03010KT 10SM CLR A3012 RMK MADISHF
PHMK,2017-04-01 16:54,-157.0963,21.1529,73.90,64.00,71.21,30.00,9.00,0.00,30.12,1020.00,10.00,M,CLR,M,M,M,M,M,M,M,M,PHMK 011654Z 03009KT 10SM CLR 23/18 A3012 RMK AO2 SLP200 T02330178
PHMK,2017-04-01 16:55,-157.0963,21.1529,M,M,M,30.00,9.00,M,30.12,M,10.00,15.00,CLR,M,M,M,M,M,M,M,M,PHMK 011655Z AUTO 03009G15KT 10SM CLR A3012 RMK MADISHF
PHMK,2017-04-01 17:00,-157.0963,21.1529,M,M,M,30.00,12.00,M,30.12,M,10.00,M,CLR,M,M,M,M,M,M,M,M,PHMK 011700Z AUTO 03012KT 10SM CLR A3012 RMK MADISHF
PHMK,2017-04-01 17:05,-157.0963,21.1529,M,M,M,40.00,9.00,M,30.12,M,10.00,M,CLR,M,M,M,M,M,M,M,M,PHMK 011705Z AUTO 04009KT 10SM CLR A3012 RMK MADISHF
PHMK,2017-04-01 17:10,-157.0963,21.1529,M,M,M,40.00,10.00,M,30.12,M,10.00,M,CLR,M,M,M,M,M,M,M,M,PHMK 011710Z AUTO 04010KT 10SM CLR A3012 RMK MADISHF
PHMK,2017-04-01 17:15,-157.0963,21.1529,M,M,M,40.00,9.00,M,30.12,M,10.00,M,CLR,M,M,M,M,M,M,M,M,PHMK 011715Z AUTO 04009KT 10SM CLR A3012 RMK MADISHF
PHMK,2017-04-01 17:20,-157.0963,21.1529,M,M,M,40.00,9.00,M,30.12,M,10.00,15.00,CLR,M,M,M,M,M,M,M,M,PHMK 011720Z AUTO 04009G15KT 10SM CLR A3012 RMK MADISHF
PHMK,2017-04-01 17:25,-157.0963,21.1529,M,M,M,40.00,11.00,M,30.13,M,10.00,M,CLR,M,M,M,M,M,M,M,M,PHMK 011725Z AUTO 04011KT 10SM CLR A3013 RMK MADISHF
PHMK,2017-04-01 17:30,-157.0963,21.1529,M,M,M,40.00,10.00,M,30.13,M,10.00,M,CLR,M,M,M,M,M,M,M,M,PHMK 011730Z AUTO 04010KT 10SM CLR A3013 RMK MADISHF
PHMK,2017-04-01 17:35,-157.0963,21.1529,M,M,M,30.00,11.00,M,30.13,M,10.00,M,CLR,M,M,M,M,M,M,M,M,PHMK 011735Z AUTO 03011KT 10SM CLR A3013 RMK MADISHF
PHMK,2017-04-01 17:40,-157.0963,21.1529,M,M,M,30.00,8.00,M,30.13,M,10.00,M,CLR,M,M,M,M,M,M,M,M,PHMK 011740Z AUTO 03008KT 10SM CLR A3013 RMK WND 36V06  MADISHF
PHMK,2017-04-01 17:45,-157.0963,21.1529,M,M,M,50.00,9.00,M,30.13,M,10.00,M,CLR,M,M,M,M,M,M,M,M,PHMK 011745Z AUTO 05009KT 10SM CLR A3013 RMK MADISHF
PHMK,2017-04-01 17:50,-157.0963,21.1529,M,M,M,50.00,12.00,M,30.13,M,10.00,M,CLR,M,M,M,M,M,M,M,M,PHMK 011750Z AUTO 05012KT 10SM CLR A3013 RMK MADISHF
PHMK,2017-04-01 17:54,-157.0963,21.1529,75.90,66.90,73.68,50.00,12.00,0.00,30.13,1020.50,10.00,M,CLR,M,M,M,M,M,M,M,M,PHMK 011754Z 05012KT 10SM CLR 24/19 A3013 RMK AO2 SLP205 T02440194 10250 20228 52013
PHMK,2017-04-01 17:55,-157.0963,21.1529,M,M,M,50.00,12.00,M,30.13,M,10.00,M,CLR,M,M,M,M,M,M,M,M,PHMK 011755Z AUTO 05012KT 10SM CLR A3013 RMK MADISHF
PHMK,2017-04-01 18:00,-157.0963,21.1529,M,M,M,50.00,14.00,M,30.13,M,10.00,M,CLR,M,M,M,M,M,M,M,M,PHMK 011800Z AUTO 05014KT 10SM CLR A3013 RMK MADISHF
PHMK,2017-04-01 18:05,-157.0963,21.1529,M,M,M,40.00,11.00,M,30.13,M,10.00,17.00,CLR,M,M,M,M,M,M,M,M,PHMK 011805Z AUTO 04011G17KT 10SM CLR A3013 RMK MADISHF
PHMK,2017-04-01 18:10,-157.0963,21.1529,M,M,M,50.00,12.00,M,30.13,M,10.00,18.00,CLR,M,M,M,M,M,M,M,M,PHMK 011810Z AUTO 05012G18KT 10SM CLR A3013 RMK MADISHF
PHMK,2017-04-01 18:15,-157.0963,21.1529,M,M,M,50.00,14.00,M,30.13,M,10.00,20.00,CLR,M,M,M,M,M,M,M,M,PHMK 011815Z AUTO 05014G20KT 10SM CLR A3013 RMK MADISHF
PHMK,2017-04-01 18:20,-157.0963,21.1529,M,M,M,50.00,13.00,M,30.13,M,10.00,M,CLR,M,M,M,M,M,M,M,M,PHMK 011820Z AUTO 05013KT 10SM CLR A3013 RMK MADISHF
PHMK,2017-04-01 18:25,-157.0963,21.1529,M,M,M,40.00,14.00,M,30.13,M,10.00,M,CLR,M,M,M,M,M,M,M,M,PHMK 011825Z AUTO 04014KT 10SM CLR A3013 RMK MADISHF
PHMK,2017-04-01 18:30,-157.0963,21.1529,M,M,M,50.00,12.00,M,30.13,M,10.00,19.00,CLR,M,M,M,M,M,M,M,M,PHMK 011830Z AUTO 05012G19KT 10SM CLR A3013 RMK MADISHF
PHMK,2017-04-01 18:35,-157.0963,21.1529,M,M,M,40.00,10.00,M,30.13,M,10.00,15.00,CLR,M,M,M,M,M,M,M,M,PHMK 011835Z AUTO 04010G15KT 10SM CLR A3013 RMK MADISHF
PHMK,2017-04-01 18:40,-157.0963,21.1529,M,M,M,50.00,11.00,M,30.13,M,10.00,M,CLR,M,M,M,M,M,M,M,M,PHMK 011840Z AUTO 05011KT 10SM CLR A3013 RMK MADISHF
PHMK,2017-04-01 18:45,-157.0963,21.1529,M,M,M,50.00,12.00,M,30.14,M,10.00,M,CLR,M,M,M,M,M,M,M,M,PHMK 011845Z AUTO 05012KT 10SM CLR A3014 RMK MADISHF
PHMK,2017-04-01 18:50,-157.0963,21.1529,M,M,M,50.00,10.00,M,30.14,M,10.00,M,FEW,M,M,M,2900.00,M,M,M,M,PHMK 011850Z AUTO 05010KT 10SM FEW029 A3014 RMK MADISHF
PHMK,2017-04-01 18:54,-157.0963,21.1529,79.00,66.00,64.45,50.00,13.00,0.00,30.14,1020.60,10.00,20.00,FEW,M,M,M,2900.00,M,M,M,M,PHMK 011854Z 05013G20KT 10SM FEW029 26/19 A3014 RMK AO2 SLP206 T02610189
PHMK,2017-04-01 18:55,-157.0963,21.1529,M,M,M,50.00,15.00,M,30.14,M,10.00,M,CLR,M,M,M,M,M,M,M,M,PHMK 011855Z AUTO 05015KT 10SM CLR A3014 RMK MADISHF
PHMK,2017-04-01 19:00,-157.0963,21.1529,M,M,M,40.00,13.00,M,30.14,M,10.00,M,CLR,M,M,M,M,M,M,M,M,PHMK 011900Z AUTO 04013KT 10SM CLR A3014 RMK MADISHF
PHMK,2017-04-01 19:05,-157.0963,21.1529,M,M,M,40.00,13.00,M,30.13,M,10.00,M,CLR,M,M,M,M,M,M,M,M,PHMK 011905Z AUTO 04013KT 10SM CLR A3013 RMK MADISHF
PHMK,2017-04-01 19:10,-157.0963,21.1529,M,M,M,40.00,13.00,M,30.13,M,10.00,M,CLR,M,M,M,M,M,M,M,M,PHMK 011910Z AUTO 04013KT 10SM CLR A3013 RMK MADISHF
PHMK,2017-04-01 19:15,-157.0963,21.1529,M,M,M,30.00,13.00,M,30.13,M,10.00,18.00,CLR,M,M,M,M,M,M,M,M,PHMK 011915Z AUTO 03013G18KT 10SM CLR A3013 RMK MADISHF
PHMK,2017-04-01 19:20,-157.0963,21.1529,M,M,M,40.00,15.00,M,30.13,M,10.00,M,CLR,M,M,M,M,M,M,M,M,PHMK 011920Z AUTO 04015KT 10SM CLR A3013 RMK MADISHF
PHMK,2017-04-01 19:25,-157.0963,21.1529,M,M,M,50.00,15.00,M,30.13,M,10.00,M,CLR,M,M,M,M,M,M,M,M,PHMK 011925Z AUTO 05015KT 10SM CLR A3013 RMK MADISHF
PHMK,2017-04-01 19:30,-157.0963,21.1529,M,M,M,40.00,11.00,M,30.14,M,10.00,M,CLR,M,M,M,M,M,M,M,M,PHMK 011930Z AUTO 04011KT 10SM CLR A3014 RMK MADISHF
PHMK,2017-04-01 19:35,-157.0963,21.1529,M,M,M,60.00,14.00,M,30.13,M,10.00,M,CLR,M,M,M,M,M,M,M,M,PHMK 011935Z AUTO 06014KT 10SM CLR A3013 RMK MADISHF
PHMK,2017-04-01 19:40,-157.0963,21.1529,M,M,M,30.00,14.00,M,30.13,M,10.00,M,CLR,M,M,M,M,M,M,M,M,PHMK 011940Z AUTO 03014KT 10SM CLR A3013 RMK MADISHF
PHMK,2017-04-01 19:45,-157.0963,21.1529,M,M,M,40.00,12.00,M,30.13,M,10.00,17.00,CLR,M,M,M,M,M,M,M,M,PHMK 011945Z AUTO 04012G17KT 10SM CLR A3013 RMK MADISHF
PHMK,2017-04-01 19:50,-157.0963,21.1529,M,M,M,50.00,15.00,M,30.13,M,10.00,M,FEW,M,M,M,2800.00,M,M,M,M,PHMK 011950Z AUTO 05015KT 10SM FEW028 A3013 RMK MADISHF
PHMK,2017-04-01 19:54,-157.0963,21.1529,81.00,64.90,58.10,30.00,11.00,0.00,30.13,1020.60,10.00,21.00,FEW,M,M,M,2800.00,M,M,M,M,PHMK 011954Z 03011G21KT 10SM FEW028 27/18 A3013 RMK AO2 SLP206 T02720183
PHMK,2017-04-01 19:55,-157.0963,21.1529,M,M,M,30.00,12.00,M,30.13,M,10.00,M,CLR,M,M,M,M,M,M,M,M,PHMK 011955Z AUTO 03012KT 10SM CLR A3013 RMK MADISHF
PHMK,2017-04-01 20:00,-157.0963,21.1529,M,M,M,20.00,10.00,M,30.13,M,10.00,M,CLR,M,M,M,M,M,M,M,M,PHMK 012000Z AUTO 02010KT 10SM CLR A3013 RMK MADISHF
PHMK,2017-04-01 20:05,-157.0963,21.1529,M,M,M,40.00,13.00,M,30.13,M,10.00,M,CLR,M,M,M,M,M,M,M,M,PHMK 012005Z AUTO 04013KT 10SM CLR A3013 RMK MADISHF
PHMK,2017-04-01 20:10,-157.0963,21.1529,M,M,M,50.00,17.00,M,30.13,M,10.00,M,CLR,M,M,M,M,M,M,M,M,PHMK 012010Z AUTO 05017KT 10SM CLR A3013 RMK MADISHF
PHMK,2017-04-01 20:15,-157.0963,21.1529,M,M,M,50.00,14.00,M,30.14,M,10.00,M,CLR,M,M,M,M,M,M,M,M,PHMK 012015Z AUTO 05014KT 10SM CLR A3014 RMK MADISHF
PHMK,2017-04-01 20:20,-157.0963,21.1529,M,M,M,40.00,13.00,M,30.14,M,10.00,19.00,CLR,M,M,M,M,M,M,M,M,PHMK 012020Z AUTO 04013G19KT 10SM CLR A3014 RMK MADISHF
PHMK,2017-04-01 20:25,-157.0963,21.1529,M,M,M,30.00,15.00,M,30.14,M,10.00,M,CLR,M,M,M,M,M,M,M,M,PHMK 012025Z AUTO 03015KT 10SM CLR A3014 RMK MADISHF
PHMK,2017-04-01 20:30,-157.0963,21.1529,M,M,M,40.00,14.00,M,30.13,M,10.00,20.00,CLR,M,M,M,M,M,M,M,M,PHMK 012030Z AUTO 04014G20KT 10SM CLR A3013 RMK MADISHF
PHMK,2017-04-01 20:35,-157.0963,21.1529,M,M,M,50.00,18.00,M,30.13,M,10.00,M,CLR,M,M,M,M,M,M,M,M,PHMK 012035Z AUTO 05018KT 10SM CLR A3013 RMK MADISHF
PHMK,2017-04-01 20:40,-157.0963,21.1529,M,M,M,40.00,15.00,M,30.13,M,10.00,M,CLR,M,M,M,M,M,M,M,M,PHMK 012040Z AUTO 04015KT 10SM CLR A3013 RMK WND 35V07  MADISHF
PHMK,2017-04-01 20:45,-157.0963,21.1529,M,M,M,50.00,20.00,M,30.13,M,10.00,27.00,CLR,M,M,M,M,M,M,M,M,PHMK 012045Z AUTO 05020G27KT 10SM CLR A3013 RMK MADISHF
PHMK,2017-04-01 20:50,-157.0963,21.1529,M,M,M,30.00,14.00,M,30.13,M,10.00,20.00,FEW,M,M,M,2700.00,M,M,M,M,PHMK 012050Z AUTO 03014G20KT 10SM FEW027 A3013 RMK WND 36V07  MADISHF
PHMK,2017-04-01 20:54,-157.0963,21.1529,81.00,66.00,60.37,50.00,15.00,0.00,30.13,1020.50,10.00,28.00,FEW,M,M,M,2700.00,M,M,M,M,PHMK 012054Z 05015G28KT 10SM FEW027 27/19 A3013 RMK AO2 PK WND 04028/2045 SLP205 T02720189 50000
PHMK,2017-04-01 20:55,-157.0963,21.1529,M,M,M,40.00,15.00,M,30.13,M,10.00,M,CLR,M,M,M,M,M,M,M,M,PHMK 012055Z AUTO 04015KT 10SM CLR A3013 RMK MADISHF
PHMK,2017-04-01 21:00,-157.0963,21.1529,M,M,M,40.00,13.00,M,30.13,M,10.00,19.00,CLR,M,M,M,M,M,M,M,M,PHMK 012100Z AUTO 04013G19KT 10SM CLR A3013 RMK MADISHF
PHMK,2017-04-01 21:05,-157.0963,21.1529,M,M,M,30.00,14.00,M,30.13,M,10.00,19.00,CLR,M,M,M,M,M,M,M,M,PHMK 012105Z AUTO 03014G19KT 10SM CLR A3013 RMK MADISHF
PHMK,2017-04-01 21:10,-157.0963,21.1529,M,M,M,30.00,13.00,M,30.13,M,10.00,20.00,CLR,M,M,M,M,M,M,M,M,PHMK 012110Z AUTO 03013G20KT 10SM CLR A3013 RMK MADISHF
PHMK,2017-04-01 21:15,-157.0963,21.1529,M,M,M,40.00,13.00,M,30.13,M,10.00,M,CLR,M,M,M,M,M,M,M,M,PHMK 012115Z AUTO 04013KT 10SM CLR A3013 RMK MADISHF
PHMK,2017-04-01 21:20,-157.0963,21.1529,M,M,M,50.00,15.00,M,30.13,M,10.00,20.00,FEW,M,M,M,4700.00,M,M,M,M,PHMK 012120Z AUTO 05015G20KT 10SM FEW047 A3013 RMK MADISHF
PHMK,2017-04-01 21:25,-157.0963,21.1529,M,M,M,50.00,12.00,M,30.13,M,10.00,19.00,FEW,M,M,M,4700.00,M,M,M,M,PHMK 012125Z AUTO 05012G19KT 10SM FEW047 A3013 RMK MADISHF
PHMK,2017-04-01 21:30,-157.0963,21.1529,M,M,M,40.00,15.00,M,30.13,M,10.00,22.00,FEW,M,M,M,4900.00,M,M,M,M,PHMK 012130Z AUTO 04015G22KT 10SM FEW049 A3013 RMK MADISHF
PHMK,2017-04-01 21:35,-157.0963,21.1529,M,M,M,50.00,15.00,M,30.12,M,10.00,M,FEW,M,M,M,4900.00,M,M,M,M,PHMK 012135Z AUTO 05015KT 10SM FEW049 A3012 RMK MADISHF
PHMK,2017-04-01 21:40,-157.0963,21.1529,M,M,M,50.00,16.00,M,30.12,M,10.00,21.00,CLR,M,M,M,M,M,M,M,M,PHMK 012140Z AUTO 05016G21KT 10SM CLR A3012 RMK MADISHF
PHMK,2017-04-01 21:45,-157.0963,21.1529,M,M,M,50.00,12.00,M,30.12,M,10.00,M,CLR,M,M,M,M,M,M,M,M,PHMK 012145Z AUTO 05012KT 10SM CLR A3012 RMK MADISHF
PHMK,2017-04-01 21:50,-157.0963,21.1529,M,M,M,30.00,10.00,M,30.12,M,10.00,16.00,FEW,M,M,M,2700.00,M,M,M,M,PHMK 012150Z AUTO 03010G16KT 10SM FEW027 A3012 RMK MADISHF
PHMK,2017-04-01 21:54,-157.0963,21.1529,84.00,66.00,54.77,40.00,14.00,0.00,30.12,1020.10,10.00,23.00,FEW,M,M,M,2700.00,M,M,M,M,PHMK 012154Z 04014G23KT 10SM FEW027 29/19 A3012 RMK AO2 SLP201 T02890189
PHMK,2017-04-01 21:55,-157.0963,21.1529,M,M,M,30.00,14.00,M,30.12,M,10.00,22.00,CLR,M,M,M,M,M,M,M,M,PHMK 012155Z AUTO 03014G22KT 10SM CLR A3012 RMK MADISHF
PHMK,2017-04-01 22:00,-157.0963,21.1529,M,M,M,40.00,13.00,M,30.12,M,10.00,18.00,CLR,M,M,M,M,M,M,M,M,PHMK 012200Z AUTO 04013G18KT 10SM CLR A3012 RMK MADISHF
PHMK,2017-04-01 22:05,-157.0963,21.1529,M,M,M,40.00,15.00,M,30.11,M,10.00,M,CLR,M,M,M,M,M,M,M,M,PHMK 012205Z AUTO 04015KT 10SM CLR A3011 RMK MADISHF
PHMK,2017-04-01 22:10,-157.0963,21.1529,M,M,M,30.00,14.00,M,30.11,M,10.00,M,CLR,M,M,M,M,M,M,M,M,PHMK 012210Z AUTO 03014KT 10SM CLR A3011 RMK MADISHF
PHMK,2017-04-01 22:15,-157.0963,21.1529,M,M,M,30.00,15.00,M,30.11,M,10.00,M,FEW,M,M,M,5500.00,M,M,M,M,PHMK 012215Z AUTO 03015KT 10SM FEW055 A3011 RMK MADISHF
PHMK,2017-04-01 22:20,-157.0963,21.1529,M,M,M,30.00,12.00,M,30.11,M,10.00,19.00,FEW,M,M,M,5500.00,M,M,M,M,PHMK 012220Z AUTO 03012G19KT 10SM FEW055 A3011 RMK MADISHF
PHMK,2017-04-01 22:25,-157.0963,21.1529,M,M,M,40.00,15.00,M,30.11,M,10.00,M,FEW,M,M,M,6000.00,M,M,M,M,PHMK 012225Z AUTO 04015KT 10SM FEW060 A3011 RMK MADISHF
PHMK,2017-04-01 22:30,-157.0963,21.1529,M,M,M,30.00,16.00,M,30.10,M,10.00,21.00,FEW,SCT,M,M,5000.00,6000.00,M,M,M,PHMK 012230Z AUTO 03016G21KT 10SM FEW050 SCT060 A3010 RMK MADISHF
PHMK,2017-04-01 22:35,-157.0963,21.1529,M,M,M,50.00,17.00,M,30.10,M,10.00,M,FEW,SCT,M,M,5000.00,6000.00,M,M,M,PHMK 012235Z AUTO 05017KT 10SM FEW050 SCT060 A3010 RMK MADISHF
PHMK,2017-04-01 22:40,-157.0963,21.1529,M,M,M,40.00,15.00,M,30.10,M,10.00,22.00,FEW,FEW,M,M,5000.00,6000.00,M,M,M,PHMK 012240Z AUTO 04015G22KT 10SM FEW050 FEW060 A3010 RMK MADISHF
PHMK,2017-04-01 22:45,-157.0963,21.1529,M,M,M,60.00,21.00,M,30.10,M,10.00,M,FEW,M,M,M,6000.00,M,M,M,M,PHMK 012245Z AUTO 06021KT 10SM FEW060 A3010 RMK MADISHF
PHMK,2017-04-01 22:50,-157.0963,21.1529,M,M,M,50.00,17.00,M,30.10,M,10.00,29.00,FEW,M,M,M,6000.00,M,M,M,M,PHMK 012250Z AUTO 05017G29KT 10SM FEW060 A3010 RMK MADISHF
PHMK,2017-04-01 22:54,-157.0963,21.1529,82.90,64.90,54.62,50.00,19.00,0.00,30.10,1019.20,10.00,29.00,CLR,M,M,M,M,M,M,M,M,PHMK 012254Z 05019G29KT 10SM CLR 28/18 A3010 RMK AO2 PK WND 06029/2250 SLP192 T02830183
PHMK,2017-04-01 22:55,-157.0963,21.1529,M,M,M,40.00,16.00,M,30.10,M,10.00,M,CLR,M,M,M,M,M,M,M,M,PHMK 012255Z AUTO 04016KT 10SM CLR A3010 RMK MADISHF
PHMK,2017-04-01 23:00,-157.0963,21.1529,M,M,M,50.00,13.00,M,30.09,M,10.00,20.00,CLR,M,M,M,M,M,M,M,M,PHMK 012300Z AUTO 05013G20KT 10SM CLR A3009 RMK MADISHF
PHMK,2017-04-01 23:05,-157.0963,21.1529,M,M,M,50.00,17.00,M,30.09,M,10.00,M,CLR,M,M,M,M,M,M,M,M,PHMK 012305Z AUTO 05017KT 10SM CLR A3009 RMK MADISHF
PHMK,2017-04-01 23:10,-157.0963,21.1529,M,M,M,40.00,18.00,M,30.09,M,10.00,M,CLR,M,M,M,M,M,M,M,M,PHMK 012310Z AUTO 04018KT 10SM CLR A3009 RMK MADISHF
PHMK,2017-04-01 23:15,-157.0963,21.1529,M,M,M,50.00,20.00,M,30.09,M,10.00,M,CLR,M,M,M,M,M,M,M,M,PHMK 012315Z AUTO 05020KT 10SM CLR A3009 RMK MADISHF
PHMK,2017-04-01 23:20,-157.0963,21.1529,M,M,M,40.00,15.00,M,30.08,M,10.00,22.00,CLR,M,M,M,M,M,M,M,M,PHMK 012320Z AUTO 04015G22KT 10SM CLR A3008 RMK MADISHF
PHMK,2017-04-01 23:25,-157.0963,21.1529,M,M,M,50.00,18.00,M,30.08,M,10.00,M,CLR,M,M,M,M,M,M,M,M,PHMK 012325Z AUTO 05018KT 10SM CLR A3008 RMK MADISHF
PHMK,2017-04-01 23:30,-157.0963,21.1529,M,M,M,40.00,16.00,M,30.08,M,10.00,M,CLR,M,M,M,M,M,M,M,M,PHMK 012330Z AUTO 04016KT 10SM CLR A3008 RMK MADISHF
PHMK,2017-04-01 23:35,-157.0963,21.1529,M,M,M,50.00,15.00,M,30.08,M,10.00,20.00,CLR,M,M,M,M,M,M,M,M,PHMK 012335Z AUTO 05015G20KT 10SM CLR A3008 RMK MADISHF
PHMK,2017-04-01 23:40,-157.0963,21.1529,M,M,M,40.00,15.00,M,30.08,M,10.00,26.00,CLR,M,M,M,M,M,M,M,M,PHMK 012340Z AUTO 04015G26KT 10SM CLR A3008 RMK MADISHF
PHMK,2017-04-01 23:45,-157.0963,21.1529,M,M,M,40.00,18.00,M,30.07,M,10.00,23.00,CLR,M,M,M,M,M,M,M,M,PHMK 012345Z AUTO 04018G23KT 10SM CLR A3007 RMK MADISHF
PHMK,2017-04-01 23:50,-157.0963,21.1529,M,M,M,40.00,18.00,M,30.07,M,10.00,23.00,CLR,M,M,M,M,M,M,M,M,PHMK 012350Z AUTO 04018G23KT 10SM CLR A3007 RMK MADISHF
PHMK,2017-04-01 23:54,-157.0963,21.1529,82.90,64.00,52.93,30.00,15.00,0.00,30.07,1018.30,10.00,24.00,CLR,M,M,M,M,M,M,M,M,PHMK 012354Z 03015G24KT 10SM CLR 28/18 A3007 RMK AO2 PK WND 05028/2323 SLP183 T02830178 10294 20250 58021
PHMK,2017-04-01 23:55,-157.0963,21.1529,M,M,M,30.00,14.00,M,30.07,M,10.00,21.00,CLR,M,M,M,M,M,M,M,M,PHMK 012355Z AUTO 03014G21KT 10SM CLR A3007 RMK MADISHF
