#DEBUG: Format Typ    -> comma
#DEBUG: Time Period   -> 2017-04-01 00:00:00+00:00 2017-04-02 00:00:00+00:00
#DEBUG: Time Zone     -> Etc/UTC
#DEBUG: Data Contact   -> daryl herzmann akrherz@iastate.edu 515-294-5978
#DEBUG: Entries Found -> -1
station,valid,lon,lat,tmpf, dwpf, relh, drct, sknt, p01i, alti, mslp, vsby, gust, skyc1, skyc2, skyc3, skyc4, skyl1, skyl2, skyl3, skyl4, presentwx, metar
PHOG,2017-04-01 00:00,-156.4300,20.9000,M,M,M,70.00,20.00,M,30.02,M,10.00,28.00,FEW,M,M,M,6000.00,M,M,M,M,PHOG 010000Z AUTO 07020G28KT 10SM FEW060 A3002 RMK MADISHF
PHOG,2017-04-01 00:05,-156.4300,20.9000,M,M,M,70.00,16.00,M,30.02,M,10.00,24.00,FEW,M,M,M,6000.00,M,M,M,M,PHOG 010005Z AUTO 07016G24KT 10SM FEW060 A3002 RMK MADISHF
PHOG,2017-04-01 00:10,-156.4300,20.9000,M,M,M,60.00,18.00,M,30.02,M,10.00,M,FEW,M,M,M,6000.00,M,M,M,M,PHOG 010010Z AUTO 06018KT 10SM FEW060 A3002 RMK MADISHF
PHOG,2017-04-01 00:15,-156.4300,20.9000,M,M,M,60.00,21.00,M,30.01,M,10.00,M,FEW,M,M,M,5000.00,M,M,M,M,PHOG 010015Z AUTO 06021KT 10SM FEW050 A3001 RMK MADISHF
PHOG,2017-04-01 00:20,-156.4300,20.9000,M,M,M,70.00,21.00,M,30.02,M,10.00,M,FEW,M,M,M,5000.00,M,M,M,M,PHOG 010020Z AUTO 07021KT 10SM FEW050 A3002 RMK MADISHF
PHOG,2017-04-01 00:25,-156.4300,20.9000,M,M,M,70.00,20.00,M,30.02,M,10.00,M,FEW,M,M,M,5000.00,M,M,M,M,PHOG 010025Z AUTO 07020KT 10SM FEW050 A3002 RMK MADISHF
PHOG,2017-04-01 00:30,-156.4300,20.9000,M,M,M,70.00,20.00,M,30.01,M,10.00,M,FEW,M,M,M,5000.00,M,M,M,M,PHOG 010030Z AUTO 07020KT 10SM FEW050 A3001 RMK MADISHF
PHOG,2017-04-01 00:35,-156.4300,20.9000,M,M,M,60.00,18.00,M,30.01,M,10.00,M,FEW,M,M,M,5000.00,M,M,M,M,PHOG 010035Z AUTO 06018KT 10SM FEW050 A3001 RMK MADISHF
PHOG,2017-04-01 00:40,-156.4300,20.9000,M,M,M,70.00,17.00,M,30.00,M,10.00,M,FEW,M,M,M,5000.00,M,M,M,M,PHOG 010040Z AUTO 07017KT 10SM FEW050 A3000 RMK MADISHF
PHOG,2017-04-01 00:45,-156.4300,20.9000,M,M,M,70.00,14.00,M,30.01,M,10.00,19.00,CLR,M,M,M,M,M,M,M,M,PHOG 010045Z AUTO 07014G19KT 10SM CLR A3001 RMK MADISHF
PHOG,2017-04-01 00:50,-156.4300,20.9000,M,M,M,70.00,18.00,M,30.00,M,10.00,M,SCT,SCT,M,M,3999.00,6000.00,M,M,M,PHOG 010050Z AUTO 07018KT 10SM SCT039 SCT060 A3000 RMK MADISHF
PHOG,2017-04-01 00:54,-156.4300,20.9000,84.90,64.90,51.21,80.00,18.00,0.00,30.00,1016.50,10.00,26.00,SCT,SCT,M,M,4000.00,6000.00,M,M,M,PHOG 010054Z 08018G26KT 10SM SCT040 SCT060 29/18 A3000 RMK AO2 PK WND 06029/2357 SLP165 T02940183
PHOG,2017-04-01 00:55,-156.4300,20.9000,M,M,M,80.00,18.00,M,30.01,M,10.00,M,CLR,M,M,M,M,M,M,M,M,PHOG 010055Z AUTO 08018KT 10SM CLR A3001 RMK MADISHF
PHOG,2017-04-01 01:00,-156.4300,20.9000,M,M,M,70.00,17.00,M,30.00,M,10.00,22.00,CLR,M,M,M,M,M,M,M,M,PHOG 010100Z AUTO 07017G22KT 10SM CLR A3000 RMK MADISHF
PHOG,2017-04-01 01:05,-156.4300,20.9000,M,M,M,50.00,19.00,M,30.00,M,10.00,28.00,FEW,SCT,M,M,3999.00,6000.00,M,M,M,PHOG 010105Z AUTO 05019G28KT 10SM FEW039 SCT060 A3000 RMK MADISHF
PHOG,2017-04-01 01:10,-156.4300,20.9000,M,M,M,50.00,18.00,M,30.00,M,10.00,M,FEW,SCT,M,M,3999.00,6000.00,M,M,M,PHOG 010110Z AUTO 05018KT 10SM FEW039 SCT060 A3000 RMK MADISHF
PHOG,2017-04-01 01:15,-156.4300,20.9000,M,M,M,60.00,16.00,M,30.00,M,10.00,M,FEW,SCT,M,M,3999.00,6000.00,M,M,M,PHOG 010115Z AUTO 06016KT 10SM FEW039 SCT060 A3000 RMK MADISHF
PHOG,2017-04-01 01:20,-156.4300,20.9000,M,M,M,70.00,16.00,M,29.99,M,10.00,M,FEW,SCT,M,M,3999.00,6000.00,M,M,M,PHOG 010120Z AUTO 07016KT 10SM FEW039 SCT060 A2999 RMK MADISHF
PHOG,2017-04-01 01:25,-156.4300,20.9000,M,M,M,60.00,17.00,M,29.99,M,10.00,M,FEW,SCT,M,M,3999.00,6000.00,M,M,M,PHOG 010125Z AUTO 06017KT 10SM FEW039 SCT060 A2999 RMK MADISHF
PHOG,2017-04-01 01:30,-156.4300,20.9000,M,M,M,70.00,19.00,M,29.99,M,10.00,M,FEW,SCT,M,M,3999.00,6000.00,M,M,M,PHOG 010130Z AUTO 07019KT 10SM FEW039 SCT060 A2999 RMK MADISHF
PHOG,2017-04-01 01:35,-156.4300,20.9000,M,M,M,50.00,16.00,M,29.99,M,10.00,M,FEW,SCT,M,M,3999.00,6000.00,M,M,M,PHOG 010135Z AUTO 05016KT 10SM FEW039 SCT060 A2999 RMK MADISHF
PHOG,2017-04-01 01:40,-156.4300,20.9000,M,M,M,70.00,17.00,M,29.99,M,10.00,M,FEW,SCT,M,M,3999.00,6000.00,M,M,M,PHOG 010140Z AUTO 07017KT 10SM FEW039 SCT060 A2999 RMK MADISHF
PHOG,2017-04-01 01:45,-156.4300,20.9000,M,M,M,80.00,12.00,M,29.99,M,10.00,M,FEW,SCT,M,M,3999.00,6000.00,M,M,M,PHOG 010145Z AUTO 08012KT 10SM FEW039 SCT060 A2999 RMK MADISHF
PHOG,2017-04-01 01:50,-156.4300,20.9000,M,M,M,80.00,16.00,M,29.99,M,10.00,M,FEW,SCT,M,M,3500.00,6000.00,M,M,M,PHOG 010150Z AUTO 08016KT 10SM FEW035 SCT060 A2999 RMK MADISHF
PHOG,2017-04-01 01:54,-156.4300,20.9000,91.00,63.00,39.49,60.00,14.00,0.00,29.98,1015.80,10.00,25.00,FEW,SCT,M,M,3500.00,6000.00,M,M,M,PHOG 010154Z 06014G25KT 10SM FEW035 SCT060 33/17 A2998 RMK AO2 PK WND 05028/0105 SLP158 T03280172
PHOG,2017-04-01 01:55,-156.4300,20.9000,M,M,M,60.00,11.00,M,29.98,M,10.00,M,CLR,M,M,M,M,M,M,M,M,PHOG 010155Z AUTO 06011KT 10SM CLR A2998 RMK WND 04V10  MADISHF
PHOG,2017-04-01 02:00,-156.4300,20.9000,M,M,M,70.00,13.00,M,29.98,M,10.00,M,CLR,M,M,M,M,M,M,M,M,PHOG 010200Z AUTO 07013KT 10SM CLR A2998 RMK MADISHF
PHOG,2017-04-01 02:05,-156.4300,20.9000,M,M,M,80.00,18.00,M,29.99,M,10.00,M,CLR,M,M,M,M,M,M,M,M,PHOG 010205Z AUTO 08018KT 10SM CLR A2999 RMK MADISHF
PHOG,2017-04-01 02:10,-156.4300,20.9000,M,M,M,90.00,15.00,M,29.99,M,10.00,M,CLR,M,M,M,M,M,M,M,M,PHOG 010210Z AUTO 09015KT 10SM CLR A2999 RMK MADISHF
PHOG,2017-04-01 02:15,-156.4300,20.9000,M,M,M,90.00,17.00,M,29.99,M,10.00,M,CLR,M,M,M,M,M,M,M,M,PHOG 010215Z AUTO 09017KT 10SM CLR A2999 RMK MADISHF
PHOG,2017-04-01 02:20,-156.4300,20.9000,M,M,M,70.00,13.00,M,29.99,M,10.00,M,CLR,M,M,M,M,M,M,M,M,PHOG 010220Z AUTO 07013KT 10SM CLR A2999 RMK MADISHF
PHOG,2017-04-01 02:25,-156.4300,20.9000,M,M,M,90.00,14.00,M,29.99,M,10.00,M,CLR,M,M,M,M,M,M,M,M,PHOG 010225Z AUTO 09014KT 10SM CLR A2999 RMK MADISHF
PHOG,2017-04-01 02:30,-156.4300,20.9000,M,M,M,80.00,11.00,M,29.99,M,10.00,16.00,CLR,M,M,M,M,M,M,M,M,PHOG 010230Z AUTO 08011G16KT 10SM CLR A2999 RMK MADISHF
PHOG,2017-04-01 02:35,-156.4300,20.9000,M,M,M,80.00,12.00,M,29.99,M,10.00,18.00,FEW,M,M,M,7000.00,M,M,M,M,PHOG 010235Z AUTO 08012G18KT 10SM FEW070 A2999 RMK WND 05V11  MADISHF
PHOG,2017-04-01 02:40,-156.4300,20.9000,M,M,M,80.00,16.00,M,29.99,M,10.00,M,FEW,M,M,M,7000.00,M,M,M,M,PHOG 010240Z AUTO 08016KT 10SM FEW070 A2999 RMK MADISHF
PHOG,2017-04-01 02:45,-156.4300,20.9000,M,M,M,80.00,18.00,M,30.00,M,10.00,M,FEW,M,M,M,6500.00,M,M,M,M,PHOG 010245Z AUTO 08018KT 10SM FEW065 A3000 RMK MADISHF
PHOG,2017-04-01 02:50,-156.4300,20.9000,M,M,M,80.00,12.00,M,30.00,M,10.00,M,FEW,SCT,M,M,3500.00,5500.00,M,M,M,PHOG 010250Z AUTO 08012KT 10SM FEW035 SCT055 A3000 RMK MADISHF
PHOG,2017-04-01 02:54,-156.4300,20.9000,81.00,66.00,60.37,80.00,17.00,0.00,30.00,1016.30,10.00,25.00,FEW,SCT,M,M,3500.00,5500.00,M,M,M,PHOG 010254Z 08017G25KT 10SM FEW035 SCT055 27/19 A3000 RMK AO2 PK WND 09029/0203 SLP163 T02720189 55006
PHOG,2017-04-01 02:55,-156.4300,20.9000,M,M,M,90.00,14.00,M,30.00,M,10.00,M,FEW,M,M,M,6500.00,M,M,M,M,PHOG 010255Z AUTO 09014KT 10SM FEW065 A3000 RMK MADISHF
PHOG,2017-04-01 03:00,-156.4300,20.9000,M,M,M,70.00,10.00,M,29.99,M,10.00,M,FEW,M,M,M,6500.00,M,M,M,M,PHOG 010300Z AUTO 07010KT 10SM FEW065 A2999 RMK MADISHF
PHOG,2017-04-01 03:05,-156.4300,20.9000,M,M,M,80.00,14.00,M,30.00,M,10.00,M,CLR,M,M,M,M,M,M,M,M,PHOG 010305Z AUTO 08014KT 10SM CLR A3000 RMK MADISHF
PHOG,2017-04-01 03:10,-156.4300,20.9000,M,M,M,90.00,13.00,M,30.00,M,10.00,M,CLR,M,M,M,M,M,M,M,M,PHOG 010310Z AUTO 09013KT 10SM CLR A3000 RMK MADISHF
PHOG,2017-04-01 03:15,-156.4300,20.9000,M,M,M,80.00,14.00,M,30.00,M,10.00,19.00,CLR,M,M,M,M,M,M,M,M,PHOG 010315Z AUTO 08014G19KT 10SM CLR A3000 RMK MADISHF
PHOG,2017-04-01 03:20,-156.4300,20.9000,M,M,M,80.00,15.00,M,30.00,M,10.00,M,CLR,M,M,M,M,M,M,M,M,PHOG 010320Z AUTO 08015KT 10SM CLR A3000 RMK MADISHF
PHOG,2017-04-01 03:25,-156.4300,20.9000,M,M,M,80.00,12.00,M,30.01,M,10.00,19.00,CLR,M,M,M,M,M,M,M,M,PHOG 010325Z AUTO 08012G19KT 10SM CLR A3001 RMK MADISHF
PHOG,2017-04-01 03:30,-156.4300,20.9000,M,M,M,70.00,14.00,M,30.01,M,10.00,M,CLR,M,M,M,M,M,M,M,M,PHOG 010330Z AUTO 07014KT 10SM CLR A3001 RMK MADISHF
PHOG,2017-04-01 03:35,-156.4300,20.9000,M,M,M,70.00,15.00,M,30.01,M,10.00,M,CLR,M,M,M,M,M,M,M,M,PHOG 010335Z AUTO 07015KT 10SM CLR A3001 RMK MADISHF
PHOG,2017-04-01 03:40,-156.4300,20.9000,M,M,M,70.00,14.00,M,30.01,M,10.00,M,CLR,M,M,M,M,M,M,M,M,PHOG 010340Z AUTO 07014KT 10SM CLR A3001 RMK MADISHF
PHOG,2017-04-01 03:45,-156.4300,20.9000,M,M,M,70.00,14.00,M,30.02,M,10.00,M,CLR,M,M,M,M,M,M,M,M,PHOG 010345Z AUTO 07014KT 10SM CLR A3002 RMK MADISHF
PHOG,2017-04-01 03:50,-156.4300,20.9000,M,M,M,70.00,15.00,M,30.02,M,10.00,20.00,FEW,SCT,M,M,3500.00,5000.00,M,M,M,PHOG 010350Z AUTO 07015G20KT 10SM FEW035 SCT050 A3002 RMK MADISHF
PHOG,2017-04-01 03:54,-156.4300,20.9000,79.00,66.00,64.45,70.00,12.00,0.00,30.01,1016.90,10.00,21.00,FEW,SCT,M,M,3500.00,5000.00,M,M,M,PHOG 010354Z 07012G21KT 10SM FEW035 SCT050 26/19 A3001 RMK AO2 SLP169 T02610189 $
PHOG,2017-04-01 03:55,-156.4300,20.9000,M,M,M,70.00,12.00,M,30.02,M,10.00,M,CLR,M,M,M,M,M,M,M,M,PHOG 010355Z AUTO 07012KT 10SM CLR A3002 RMK MADISHF
PHOG,2017-04-01 04:00,-156.4300,20.9000,M,M,M,70.00,14.00,M,30.02,M,10.00,20.00,CLR,M,M,M,M,M,M,M,M,PHOG 010400Z AUTO 07014G20KT 10SM CLR A3002 RMK MADISHF
PHOG,2017-04-01 04:05,-156.4300,20.9000,M,M,M,80.00,13.00,M,30.02,M,10.00,18.00,FEW,SCT,M,M,3000.00,6000.00,M,M,M,PHOG 010405Z AUTO 08013G18KT 10SM FEW030 SCT060 A3002 RMK MADISHF
PHOG,2017-04-01 04:10,-156.4300,20.9000,M,M,M,80.00,13.00,M,30.02,M,10.00,M,FEW,SCT,M,M,3000.00,6000.00,M,M,M,PHOG 010410Z AUTO 08013KT 10SM FEW030 SCT060 A3002 RMK MADISHF
PHOG,2017-04-01 04:15,-156.4300,20.9000,M,M,M,70.00,14.00,M,30.03,M,10.00,M,FEW,SCT,M,M,3000.00,6000.00,M,M,M,PHOG 010415Z AUTO 07014KT 10SM FEW030 SCT060 A3003 RMK MADISHF
PHOG,2017-04-01 04:20,-156.4300,20.9000,M,M,M,70.00,14.00,M,30.03,M,10.00,M,FEW,SCT,M,M,3000.00,6000.00,M,M,M,PHOG 010420Z AUTO 07014KT 10SM FEW030 SCT060 A3003 RMK MADISHF
PHOG,2017-04-01 04:25,-156.4300,20.9000,M,M,M,80.00,12.00,M,30.03,M,10.00,M,FEW,SCT,M,M,3000.00,6000.00,M,M,M,PHOG 010425Z AUTO 08012KT 10SM FEW030 SCT060 A3003 RMK MADISHF
PHOG,2017-04-01 04:30,-156.4300,20.9000,M,M,M,70.00,12.00,M,30.03,M,10.00,M,FEW,SCT,M,M,3000.00,6000.00,M,M,M,PHOG 010430Z AUTO 07012KT 10SM FEW030 SCT060 A3003 RMK MADISHF
PHOG,2017-04-01 04:35,-156.4300,20.9000,M,M,M,70.00,14.00,M,30.03,M,10.00,M,FEW,SCT,M,M,3000.00,6000.00,M,M,M,PHOG 010435Z AUTO 07014KT 10SM FEW030 SCT060 A3003 RMK MADISHF
PHOG,2017-04-01 04:40,-156.4300,20.9000,M,M,M,70.00,11.00,M,30.03,M,10.00,M,FEW,SCT,M,M,3000.00,6000.00,M,M,M,PHOG 010440Z AUTO 07011KT 10SM FEW030 SCT060 A3003 RMK MADISHF
PHOG,2017-04-01 04:45,-156.4300,20.9000,M,M,M,70.00,13.00,M,30.04,M,10.00,M,FEW,SCT,M,M,3000.00,6000.00,M,M,M,PHOG 010445Z AUTO 07013KT 10SM FEW030 SCT060 A3004 RMK MADISHF
PHOG,2017-04-01 04:50,-156.4300,20.9000,M,M,M,70.00,14.00,M,30.04,M,10.00,M,FEW,SCT,M,M,3000.00,6000.00,M,M,M,PHOG 010450Z AUTO 07014KT 10SM FEW030 SCT060 A3004 RMK MADISHF
PHOG,2017-04-01 04:54,-156.4300,20.9000,79.00,63.00,58.04,70.00,10.00,0.00,30.04,1017.80,10.00,21.00,CLR,M,M,M,M,M,M,M,M,PHOG 010454Z 07010G21KT 10SM CLR 26/17 A3004 RMK AO2 SLP178 T02610172 $
PHOG,2017-04-01 04:55,-156.4300,20.9000,M,M,M,70.00,12.00,M,30.04,M,10.00,M,CLR,M,M,M,M,M,M,M,M,PHOG 010455Z AUTO 07012KT 10SM CLR A3004 RMK MADISHF
PHOG,2017-04-01 05:00,-156.4300,20.9000,M,M,M,70.00,10.00,M,30.04,M,10.00,M,CLR,M,M,M,M,M,M,M,M,PHOG 010500Z AUTO 07010KT 10SM CLR A3004 RMK MADISHF
PHOG,2017-04-01 05:05,-156.4300,20.9000,M,M,M,60.00,10.00,M,30.04,M,10.00,M,CLR,M,M,M,M,M,M,M,M,PHOG 010505Z AUTO 06010KT 10SM CLR A3004 RMK MADISHF
PHOG,2017-04-01 05:10,-156.4300,20.9000,M,M,M,70.00,12.00,M,30.05,M,10.00,M,CLR,M,M,M,M,M,M,M,M,PHOG 010510Z AUTO 07012KT 10SM CLR A3005 RMK MADISHF
PHOG,2017-04-01 05:15,-156.4300,20.9000,M,M,M,70.00,11.00,M,30.05,M,10.00,M,CLR,M,M,M,M,M,M,M,M,PHOG 010515Z AUTO 07011KT 10SM CLR A3005 RMK MADISHF
PHOG,2017-04-01 05:20,-156.4300,20.9000,M,M,M,70.00,12.00,M,30.05,M,10.00,M,CLR,M,M,M,M,M,M,M,M,PHOG 010520Z AUTO 07012KT 10SM CLR A3005 RMK MADISHF
PHOG,2017-04-01 05:25,-156.4300,20.9000,M,M,M,80.00,9.00,M,30.05,M,10.00,M,CLR,M,M,M,M,M,M,M,M,PHOG 010525Z AUTO 08009KT 10SM CLR A3005 RMK MADISHF
PHOG,2017-04-01 05:30,-156.4300,20.9000,M,M,M,90.00,10.00,M,30.06,M,10.00,M,FEW,M,M,M,4700.00,M,M,M,M,PHOG 010530Z AUTO 09010KT 10SM FEW047 A3006 RMK MADISHF
PHOG,2017-04-01 05:35,-156.4300,20.9000,M,M,M,70.00,11.00,M,30.06,M,10.00,M,SCT,M,M,M,4700.00,M,M,M,M,PHOG 010535Z AUTO 07011KT 10SM SCT047 A3006 RMK MADISHF
PHOG,2017-04-01 05:40,-156.4300,20.9000,M,M,M,80.00,11.00,M,30.06,M,10.00,19.00,BKN,M,M,M,4700.00,M,M,M,M,PHOG 010540Z AUTO 08011G19KT 10SM BKN047 A3006 RMK MADISHF
PHOG,2017-04-01 05:45,-156.4300,20.9000,M,M,M,70.00,12.00,M,30.07,M,10.00,M,BKN,M,M,M,4700.00,M,M,M,M,PHOG 010545Z AUTO 07012KT 10SM BKN047 A3007 RMK MADISHF
PHOG,2017-04-01 05:50,-156.4300,20.9000,M,M,M,70.00,13.00,M,30.07,M,10.00,M,BKN,M,M,M,4600.00,M,M,M,M,PHOG 010550Z AUTO 07013KT 10SM BKN046 A3007 RMK MADISHF
PHOG,2017-04-01 05:54,-156.4300,20.9000,75.00,64.00,68.64,70.00,12.00,0.00,30.07,1018.80,10.00,21.00,BKN,OVC,M,M,4600.00,5500.00,M,M,M,PHOG 010554Z 07012G21KT 10SM BKN046 OVC055 24/18 A3007 RMK AO2 SLP188 T02390178 10339 20239 53025 $
PHOG,2017-04-01 05:55,-156.4300,20.9000,M,M,M,70.00,12.00,M,30.07,M,10.00,M,BKN,OVC,M,M,4600.00,5500.00,M,M,M,PHOG 010555Z AUTO 07012KT 10SM BKN046 OVC055 A3007 RMK MADISHF
PHOG,2017-04-01 06:00,-156.4300,20.9000,M,M,M,70.00,11.00,M,30.07,M,10.00,M,BKN,OVC,M,M,4600.00,5500.00,M,M,M,PHOG 010600Z AUTO 07011KT 10SM BKN046 OVC055 A3007 RMK MADISHF
PHOG,2017-04-01 06:05,-156.4300,20.9000,M,M,M,90.00,9.00,M,30.07,M,10.00,M,SCT,BKN,M,M,4700.00,5500.00,M,M,M,PHOG 010605Z AUTO 09009KT 10SM SCT047 BKN055 A3007 RMK MADISHF
PHOG,2017-04-01 06:10,-156.4300,20.9000,M,M,M,100.00,9.00,M,30.08,M,10.00,M,SCT,BKN,M,M,4700.00,5500.00,M,M,M,PHOG 010610Z AUTO 10009KT 10SM SCT047 BKN055 A3008 RMK MADISHF
PHOG,2017-04-01 06:15,-156.4300,20.9000,M,M,M,80.00,15.00,M,30.08,M,10.00,M,FEW,BKN,M,M,4700.00,5500.00,M,M,M,PHOG 010615Z AUTO 08015KT 10SM FEW047 BKN055 A3008 RMK MADISHF
PHOG,2017-04-01 06:20,-156.4300,20.9000,M,M,M,100.00,12.00,M,30.08,M,10.00,M,BKN,M,M,M,5500.00,M,M,M,M,PHOG 010620Z AUTO 10012KT 10SM BKN055 A3008 RMK MADISHF
PHOG,2017-04-01 06:25,-156.4300,20.9000,M,M,M,90.00,10.00,M,30.09,M,10.00,17.00,SCT,M,M,M,5500.00,M,M,M,M,PHOG 010625Z AUTO 09010G17KT 10SM SCT055 A3009 RMK MADISHF
PHOG,2017-04-01 06:30,-156.4300,20.9000,M,M,M,80.00,12.00,M,30.09,M,10.00,19.00,FEW,M,M,M,5500.00,M,M,M,M,PHOG 010630Z AUTO 08012G19KT 10SM FEW055 A3009 RMK MADISHF
PHOG,2017-04-01 06:35,-156.4300,20.9000,M,M,M,80.00,10.00,M,30.09,M,10.00,15.00,SCT,M,M,M,5500.00,M,M,M,M,PHOG 010635Z AUTO 08010G15KT 10SM SCT055 A3009 RMK MADISHF
PHOG,2017-04-01 06:40,-156.4300,20.9000,M,M,M,70.00,13.00,M,30.09,M,10.00,M,SCT,M,M,M,5500.00,M,M,M,M,PHOG 010640Z AUTO 07013KT 10SM SCT055 A3009 RMK MADISHF
PHOG,2017-04-01 06:45,-156.4300,20.9000,M,M,M,60.00,10.00,M,30.09,M,10.00,M,FEW,M,M,M,5500.00,M,M,M,M,PHOG 010645Z AUTO 06010KT 10SM FEW055 A3009 RMK MADISHF
PHOG,2017-04-01 06:50,-156.4300,20.9000,M,M,M,50.00,12.00,M,30.09,M,10.00,M,FEW,M,M,M,5500.00,M,M,M,M,PHOG 010650Z AUTO 05012KT 10SM FEW055 A3009 RMK MADISHF
PHOG,2017-04-01 06:54,-156.4300,20.9000,75.90,62.10,62.30,80.00,11.00,0.00,30.09,1019.50,10.00,20.00,FEW,M,M,M,5500.00,M,M,M,M,PHOG 010654Z 08011G20KT 10SM FEW055 25/17 A3009 RMK AO2 SLP195 T02440167 $
PHOG,2017-04-01 06:55,-156.4300,20.9000,M,M,M,100.00,10.00,M,30.09,M,10.00,M,FEW,M,M,M,5500.00,M,M,M,M,PHOG 010655Z AUTO 10010KT 10SM FEW055 A3009 RMK MADISHF
PHOG,2017-04-01 07:00,-156.4300,20.9000,M,M,M,100.00,10.00,M,30.10,M,10.00,M,FEW,M,M,M,5500.00,M,M,M,M,PHOG 010700Z AUTO 10010KT 10SM FEW055 A3010 RMK MADISHF
PHOG,2017-04-01 07:05,-156.4300,20.9000,M,M,M,80.00,13.00,M,30.10,M,10.00,18.00,FEW,M,M,M,5500.00,M,M,M,M,PHOG 010705Z AUTO 08013G18KT 10SM FEW055 A3010 RMK MADISHF
PHOG,2017-04-01 07:10,-156.4300,20.9000,M,M,M,70.00,11.00,M,30.10,M,10.00,M,FEW,M,M,M,5500.00,M,M,M,M,PHOG 010710Z AUTO 07011KT 10SM FEW055 A3010 RMK MADISHF
PHOG,2017-04-01 07:15,-156.4300,20.9000,M,M,M,60.00,15.00,M,30.10,M,10.00,M,FEW,M,M,M,6000.00,M,M,M,M,PHOG 010715Z AUTO 06015KT 10SM FEW060 A3010 RMK MADISHF
PHOG,2017-04-01 07:20,-156.4300,20.9000,M,M,M,70.00,11.00,M,30.10,M,10.00,M,FEW,M,M,M,5500.00,M,M,M,M,PHOG 010720Z AUTO 07011KT 10SM FEW055 A3010 RMK MADISHF
PHOG,2017-04-01 07:25,-156.4300,20.9000,M,M,M,90.00,9.00,M,30.10,M,10.00,M,FEW,M,M,M,5500.00,M,M,M,M,PHOG 010725Z AUTO 09009KT 10SM FEW055 A3010 RMK MADISHF
PHOG,2017-04-01 07:30,-156.4300,20.9000,M,M,M,80.00,14.00,M,30.10,M,10.00,M,FEW,M,M,M,6000.00,M,M,M,M,PHOG 010730Z AUTO 08014KT 10SM FEW060 A3010 RMK MADISHF
PHOG,2017-04-01 07:35,-156.4300,20.9000,M,M,M,70.00,15.00,M,30.11,M,10.00,M,FEW,M,M,M,6000.00,M,M,M,M,PHOG 010735Z AUTO 07015KT 10SM FEW060 A3011 RMK MADISHF
PHOG,2017-04-01 07:40,-156.4300,20.9000,M,M,M,60.00,10.00,M,30.11,M,10.00,16.00,CLR,M,M,M,M,M,M,M,M,PHOG 010740Z AUTO 06010G16KT 10SM CLR A3011 RMK MADISHF
PHOG,2017-04-01 07:45,-156.4300,20.9000,M,M,M,60.00,14.00,M,30.10,M,10.00,M,CLR,M,M,M,M,M,M,M,M,PHOG 010745Z AUTO 06014KT 10SM CLR A3010 RMK MADISHF
PHOG,2017-04-01 07:50,-156.4300,20.9000,M,M,M,70.00,15.00,M,30.10,M,10.00,M,CLR,M,M,M,M,M,M,M,M,PHOG 010750Z AUTO 07015KT 10SM CLR A3010 RMK MADISHF
PHOG,2017-04-01 07:54,-156.4300,20.9000,75.00,64.00,68.64,80.00,11.00,0.00,30.11,1019.90,10.00,24.00,CLR,M,M,M,M,M,M,M,M,PHOG 010754Z 08011G24KT 10SM CLR 24/18 A3011 RMK AO2 SLP199 T02390178 $
PHOG,2017-04-01 07:55,-156.4300,20.9000,M,M,M,80.00,11.00,M,30.11,M,10.00,16.00,CLR,M,M,M,M,M,M,M,M,PHOG 010755Z AUTO 08011G16KT 10SM CLR A3011 RMK MADISHF
PHOG,2017-04-01 08:00,-156.4300,20.9000,M,M,M,70.00,13.00,M,30.11,M,10.00,20.00,CLR,M,M,M,M,M,M,M,M,PHOG 010800Z AUTO 07013G20KT 10SM CLR A3011 RMK MADISHF
PHOG,2017-04-01 08:05,-156.4300,20.9000,M,M,M,60.00,11.00,M,30.11,M,10.00,M,CLR,M,M,M,M,M,M,M,M,PHOG 010805Z AUTO 06011KT 10SM CLR A3011 RMK MADISHF
PHOG,2017-04-01 08:10,-156.4300,20.9000,M,M,M,50.00,12.00,M,30.11,M,10.00,18.00,CLR,M,M,M,M,M,M,M,M,PHOG 010810Z AUTO 05012G18KT 10SM CLR A3011 RMK MADISHF
PHOG,2017-04-01 08:15,-156.4300,20.9000,M,M,M,70.00,14.00,M,30.11,M,10.00,M,CLR,M,M,M,M,M,M,M,M,PHOG 010815Z AUTO 07014KT 10SM CLR A3011 RMK MADISHF
PHOG,2017-04-01 08:20,-156.4300,20.9000,M,M,M,80.00,12.00,M,30.12,M,10.00,M,CLR,M,M,M,M,M,M,M,M,PHOG 010820Z AUTO 08012KT 10SM CLR A3012 RMK MADISHF
PHOG,2017-04-01 08:25,-156.4300,20.9000,M,M,M,60.00,7.00,M,30.12,M,10.00,M,CLR,M,M,M,M,M,M,M,M,PHOG 010825Z AUTO 06007KT 10SM CLR A3012 RMK MADISHF
PHOG,2017-04-01 08:30,-156.4300,20.9000,M,M,M,60.00,11.00,M,30.11,M,10.00,M,CLR,M,M,M,M,M,M,M,M,PHOG 010830Z AUTO 06011KT 10SM CLR A3011 RMK MADISHF
PHOG,2017-04-01 08:35,-156.4300,20.9000,M,M,M,60.00,11.00,M,30.11,M,10.00,16.00,CLR,M,M,M,M,M,M,M,M,PHOG 010835Z AUTO 06011G16KT 10SM CLR A3011 RMK MADISHF
PHOG,2017-04-01 08:40,-156.4300,20.9000,M,M,M,50.00,12.00,M,30.11,M,10.00,17.00,CLR,M,M,M,M,M,M,M,M,PHOG 010840Z AUTO 05012G17KT 10SM CLR A3011 RMK MADISHF
PHOG,2017-04-01 08:45,-156.4300,20.9000,M,M,M,60.00,14.00,M,30.11,M,10.00,M,CLR,M,M,M,M,M,M,M,M,PHOG 010845Z AUTO 06014KT 10SM CLR A3011 RMK MADISHF
PHOG,2017-04-01 08:50,-156.4300,20.9000,M,M,M,60.00,15.00,M,30.12,M,10.00,M,CLR,M,M,M,M,M,M,M,M,PHOG 010850Z AUTO 06015KT 10SM CLR A3012 RMK MADISHF
PHOG,2017-04-01 08:54,-156.4300,20.9000,75.00,66.00,73.59,70.00,13.00,0.00,30.12,1020.30,10.00,21.00,CLR,M,M,M,M,M,M,M,M,PHOG 010854Z 07013G21KT 10SM CLR 24/19 A3012 RMK AO2 SLP203 T02390189 51016 $
PHOG,2017-04-01 08:55,-156.4300,20.9000,M,M,M,70.00,14.00,M,30.12,M,10.00,20.00,CLR,M,M,M,M,M,M,M,M,PHOG 010855Z AUTO 07014G20KT 10SM CLR A3012 RMK MADISHF
PHOG,2017-04-01 09:00,-156.4300,20.9000,M,M,M,70.00,11.00,M,30.12,M,10.00,17.00,CLR,M,M,M,M,M,M,M,M,PHOG 010900Z AUTO 07011G17KT 10SM CLR A3012 RMK MADISHF
PHOG,2017-04-01 09:05,-156.4300,20.9000,M,M,M,70.00,8.00,M,30.12,M,10.00,M,CLR,M,M,M,M,M,M,M,M,PHOG 010905Z AUTO 07008KT 10SM CLR A3012 RMK MADISHF
PHOG,2017-04-01 09:10,-156.4300,20.9000,M,M,M,60.00,8.00,M,30.12,M,10.00,M,CLR,M,M,M,M,M,M,M,M,PHOG 010910Z AUTO 06008KT 10SM CLR A3012 RMK MADISHF
PHOG,2017-04-01 09:15,-156.4300,20.9000,M,M,M,60.00,10.00,M,30.12,M,10.00,17.00,CLR,M,M,M,M,M,M,M,M,PHOG 010915Z AUTO 06010G17KT 10SM CLR A3012 RMK MADISHF
PHOG,2017-04-01 09:20,-156.4300,20.9000,M,M,M,60.00,13.00,M,30.12,M,10.00,20.00,CLR,M,M,M,M,M,M,M,M,PHOG 010920Z AUTO 06013G20KT 10SM CLR A3012 RMK MADISHF
PHOG,2017-04-01 09:25,-156.4300,20.9000,M,M,M,60.00,16.00,M,30.12,M,10.00,M,CLR,M,M,M,M,M,M,M,M,PHOG 010925Z AUTO 06016KT 10SM CLR A3012 RMK MADISHF
PHOG,2017-04-01 09:30,-156.4300,20.9000,M,M,M,60.00,13.00,M,30.12,M,10.00,M,CLR,M,M,M,M,M,M,M,M,PHOG 010930Z AUTO 06013KT 10SM CLR A3012 RMK MADISHF
PHOG,2017-04-01 09:35,-156.4300,20.9000,M,M,M,70.00,11.00,M,30.12,M,10.00,M,CLR,M,M,M,M,M,M,M,M,PHOG 010935Z AUTO 07011KT 10SM CLR A3012 RMK MADISHF
PHOG,2017-04-01 09:40,-156.4300,20.9000,M,M,M,80.00,11.00,M,30.11,M,10.00,M,CLR,M,M,M,M,M,M,M,M,PHOG 010940Z AUTO 08011KT 10SM CLR A3011 RMK MADISHF
PHOG,2017-04-01 09:45,-156.4300,20.9000,M,M,M,70.00,10.00,M,30.11,M,10.00,15.00,CLR,M,M,M,M,M,M,M,M,PHOG 010945Z AUTO 07010G15KT 10SM CLR A3011 RMK MADISHF
PHOG,2017-04-01 09:50,-156.4300,20.9000,M,M,M,70.00,12.00,M,30.11,M,10.00,17.00,CLR,M,M,M,M,M,M,M,M,PHOG 010950Z AUTO 07012G17KT 10SM CLR A3011 RMK MADISHF
PHOG,2017-04-01 09:54,-156.4300,20.9000,79.00,64.00,60.11,70.00,14.00,0.00,30.11,1019.90,10.00,20.00,CLR,M,M,M,M,M,M,M,M,PHOG 010954Z AUTO 07014G20KT 10SM CLR 26/18 A3011 RMK AO2 SLP199 T02610178 403610178 TSNO $
PHOG,2017-04-01 09:55,-156.4300,20.9000,M,M,M,80.00,14.00,M,30.10,M,10.00,M,CLR,M,M,M,M,M,M,M,M,PHOG 010955Z AUTO 08014KT 10SM CLR A3010 RMK MADISHF
PHOG,2017-04-01 10:00,-156.4300,20.9000,M,M,M,70.00,17.00,M,30.11,M,10.00,M,CLR,M,M,M,M,M,M,M,M,PHOG 011000Z AUTO 07017KT 10SM CLR A3011 RMK MADISHF
PHOG,2017-04-01 10:05,-156.4300,20.9000,M,M,M,60.00,13.00,M,30.11,M,10.00,18.00,CLR,M,M,M,M,M,M,M,M,PHOG 011005Z AUTO 06013G18KT 10SM CLR A3011 RMK MADISHF
PHOG,2017-04-01 10:10,-156.4300,20.9000,M,M,M,70.00,15.00,M,30.11,M,10.00,M,CLR,M,M,M,M,M,M,M,M,PHOG 011010Z AUTO 07015KT 10SM CLR A3011 RMK MADISHF
PHOG,2017-04-01 10:15,-156.4300,20.9000,M,M,M,70.00,13.00,M,30.11,M,10.00,18.00,CLR,M,M,M,M,M,M,M,M,PHOG 011015Z AUTO 07013G18KT 10SM CLR A3011 RMK MADISHF
PHOG,2017-04-01 10:20,-156.4300,20.9000,M,M,M,60.00,13.00,M,30.11,M,10.00,M,CLR,M,M,M,M,M,M,M,M,PHOG 011020Z AUTO 06013KT 10SM CLR A3011 RMK MADISHF
PHOG,2017-04-01 10:25,-156.4300,20.9000,M,M,M,60.00,14.00,M,30.11,M,10.00,M,CLR,M,M,M,M,M,M,M,M,PHOG 011025Z AUTO 06014KT 10SM CLR A3011 RMK MADISHF
PHOG,2017-04-01 10:30,-156.4300,20.9000,M,M,M,60.00,15.00,M,30.11,M,10.00,M,CLR,M,M,M,M,M,M,M,M,PHOG 011030Z AUTO 06015KT 10SM CLR A3011 RMK MADISHF
PHOG,2017-04-01 10:35,-156.4300,20.9000,M,M,M,60.00,15.00,M,30.11,M,10.00,20.00,CLR,M,M,M,M,M,M,M,M,PHOG 011035Z AUTO 06015G20KT 10SM CLR A3011 RMK MADISHF
PHOG,2017-04-01 10:40,-156.4300,20.9000,M,M,M,50.00,15.00,M,30.11,M,10.00,M,CLR,M,M,M,M,M,M,M,M,PHOG 011040Z AUTO 05015KT 10SM CLR A3011 RMK MADISHF
PHOG,2017-04-01 10:45,-156.4300,20.9000,M,M,M,50.00,12.00,M,30.11,M,10.00,M,CLR,M,M,M,M,M,M,M,M,PHOG 011045Z AUTO 05012KT 10SM CLR A3011 RMK MADISHF
PHOG,2017-04-01 10:50,-156.4300,20.9000,M,M,M,60.00,14.00,M,30.11,M,10.00,21.00,CLR,M,M,M,M,M,M,M,M,PHOG 011050Z AUTO 06014G21KT 10SM CLR A3011 RMK MADISHF
PHOG,2017-04-01 10:54,-156.4300,20.9000,78.10,63.00,59.78,60.00,15.00,0.00,30.11,1020.00,10.00,22.00,CLR,M,M,M,M,M,M,M,M,PHOG 011054Z AUTO 06015G22KT 10SM CLR 26/17 A3011 RMK AO2 SLP200 T02560172 TSNO $
PHOG,2017-04-01 10:55,-156.4300,20.9000,M,M,M,60.00,15.00,M,30.11,M,10.00,20.00,CLR,M,M,M,M,M,M,M,M,PHOG 011055Z AUTO 06015G20KT 10SM CLR A3011 RMK MADISHF
PHOG,2017-04-01 11:00,-156.4300,20.9000,M,M,M,60.00,12.00,M,30.11,M,10.00,M,CLR,M,M,M,M,M,M,M,M,PHOG 011100Z AUTO 06012KT 10SM CLR A3011 RMK MADISHF
PHOG,2017-04-01 11:05,-156.4300,20.9000,M,M,M,50.00,12.00,M,30.11,M,10.00,M,CLR,M,M,M,M,M,M,M,M,PHOG 011105Z AUTO 05012KT 10SM CLR A3011 RMK MADISHF
PHOG,2017-04-01 11:10,-156.4300,20.9000,M,M,M,50.00,12.00,M,30.11,M,10.00,M,CLR,M,M,M,M,M,M,M,M,PHOG 011110Z AUTO 05012KT 10SM CLR A3011 RMK MADISHF
PHOG,2017-04-01 11:15,-156.4300,20.9000,M,M,M,50.00,10.00,M,30.11,M,10.00,M,CLR,M,M,M,M,M,M,M,M,PHOG 011115Z AUTO 05010KT 10SM CLR A3011 RMK MADISHF
PHOG,2017-04-01 11:20,-156.4300,20.9000,M,M,M,60.00,10.00,M,30.11,M,10.00,M,CLR,M,M,M,M,M,M,M,M,PHOG 011120Z AUTO 06010KT 10SM CLR A3011 RMK MADISHF
PHOG,2017-04-01 11:25,-156.4300,20.9000,M,M,M,50.00,11.00,M,30.11,M,10.00,M,CLR,M,M,M,M,M,M,M,M,PHOG 011125Z AUTO 05011KT 10SM CLR A3011 RMK MADISHF
PHOG,2017-04-01 11:30,-156.4300,20.9000,M,M,M,50.00,11.00,M,30.11,M,10.00,M,CLR,M,M,M,M,M,M,M,M,PHOG 011130Z AUTO 05011KT 10SM CLR A3011 RMK MADISHF
PHOG,2017-04-01 11:35,-156.4300,20.9000,M,M,M,50.00,12.00,M,30.11,M,10.00,M,CLR,M,M,M,M,M,M,M,M,PHOG 011135Z AUTO 05012KT 10SM CLR A3011 RMK MADISHF
PHOG,2017-04-01 11:40,-156.4300,20.9000,M,M,M,40.00,13.00,M,30.10,M,10.00,M,CLR,M,M,M,M,M,M,M,M,PHOG 011140Z AUTO 04013KT 10SM CLR A3010 RMK MADISHF
PHOG,2017-04-01 11:45,-156.4300,20.9000,M,M,M,50.00,11.00,M,30.10,M,10.00,M,CLR,M,M,M,M,M,M,M,M,PHOG 011145Z AUTO 05011KT 10SM CLR A3010 RMK MADISHF
PHOG,2017-04-01 11:50,-156.4300,20.9000,M,M,M,50.00,12.00,M,30.10,M,10.00,M,FEW,M,M,M,7000.00,M,M,M,M,PHOG 011150Z AUTO 05012KT 10SM FEW070 A3010 RMK MADISHF
PHOG,2017-04-01 11:54,-156.4300,20.9000,78.10,63.00,59.78,50.00,12.00,0.00,30.10,1019.80,10.00,M,FEW,M,M,M,7000.00,M,M,M,M,PHOG 011154Z AUTO 05012KT 10SM FEW070 26/17 A3010 RMK AO2 SLP198 T02560172 10361 20228 56006 TSNO $
PHOG,2017-04-01 11:55,-156.4300,20.9000,M,M,M,50.00,11.00,M,30.10,M,10.00,M,FEW,M,M,M,7000.00,M,M,M,M,PHOG 011155Z AUTO 05011KT 10SM FEW070 A3010 RMK MADISHF
PHOG,2017-04-01 12:00,-156.4300,20.9000,M,M,M,50.00,12.00,M,30.10,M,10.00,M,FEW,M,M,M,7000.00,M,M,M,M,PHOG 011200Z AUTO 05012KT 10SM FEW070 A3010 RMK MADISHF
PHOG,2017-04-01 12:05,-156.4300,20.9000,M,M,M,50.00,14.00,M,30.10,M,10.00,19.00,SCT,M,M,M,7000.00,M,M,M,M,PHOG 011205Z AUTO 05014G19KT 10SM SCT070 A3010 RMK MADISHF
PHOG,2017-04-01 12:10,-156.4300,20.9000,M,M,M,50.00,13.00,M,30.10,M,10.00,M,SCT,M,M,M,7000.00,M,M,M,M,PHOG 011210Z AUTO 05013KT 10SM SCT070 A3010 RMK MADISHF
PHOG,2017-04-01 12:15,-156.4300,20.9000,M,M,M,50.00,13.00,M,30.09,M,10.00,M,SCT,M,M,M,7000.00,M,M,M,M,PHOG 011215Z AUTO 05013KT 10SM SCT070 A3009 RMK MADISHF
PHOG,2017-04-01 12:20,-156.4300,20.9000,M,M,M,50.00,12.00,M,30.09,M,10.00,M,SCT,M,M,M,7000.00,M,M,M,M,PHOG 011220Z AUTO 05012KT 10SM SCT070 A3009 RMK MADISHF
PHOG,2017-04-01 12:25,-156.4300,20.9000,M,M,M,50.00,12.00,M,30.09,M,10.00,M,FEW,M,M,M,7000.00,M,M,M,M,PHOG 011225Z AUTO 05012KT 10SM FEW070 A3009 RMK MADISHF
PHOG,2017-04-01 12:30,-156.4300,20.9000,M,M,M,50.00,10.00,M,30.08,M,10.00,M,FEW,M,M,M,7000.00,M,M,M,M,PHOG 011230Z AUTO 05010KT 10SM FEW070 A3008 RMK MADISHF
PHOG,2017-04-01 12:35,-156.4300,20.9000,M,M,M,50.00,12.00,M,30.08,M,10.00,M,FEW,M,M,M,7000.00,M,M,M,M,PHOG 011235Z AUTO 05012KT 10SM FEW070 A3008 RMK MADISHF
PHOG,2017-04-01 12:40,-156.4300,20.9000,M,M,M,60.00,10.00,M,30.08,M,10.00,M,CLR,M,M,M,M,M,M,M,M,PHOG 011240Z AUTO 06010KT 10SM CLR A3008 RMK MADISHF
PHOG,2017-04-01 12:45,-156.4300,20.9000,M,M,M,50.00,8.00,M,30.08,M,10.00,M,CLR,M,M,M,M,M,M,M,M,PHOG 011245Z AUTO 05008KT 10SM CLR A3008 RMK MADISHF
PHOG,2017-04-01 12:50,-156.4300,20.9000,M,M,M,60.00,11.00,M,30.08,M,10.00,M,CLR,M,M,M,M,M,M,M,M,PHOG 011250Z AUTO 06011KT 10SM CLR A3008 RMK MADISHF
PHOG,2017-04-01 12:54,-156.4300,20.9000,81.00,62.10,52.66,50.00,8.00,0.00,30.08,1019.20,10.00,M,CLR,M,M,M,M,M,M,M,M,PHOG 011254Z AUTO 05008KT 10SM CLR 27/17 A3008 RMK AO2 SLP192 T02720167 TSNO $
PHOG,2017-04-01 12:55,-156.4300,20.9000,M,M,M,50.00,8.00,M,30.08,M,10.00,M,CLR,M,M,M,M,M,M,M,M,PHOG 011255Z AUTO 05008KT 10SM CLR A3008 RMK MADISHF
PHOG,2017-04-01 13:00,-156.4300,20.9000,M,M,M,60.00,8.00,M,30.08,M,10.00,M,CLR,M,M,M,M,M,M,M,M,PHOG 011300Z AUTO 06008KT 10SM CLR A3008 RMK MADISHF
PHOG,2017-04-01 13:05,-156.4300,20.9000,M,M,M,60.00,10.00,M,30.08,M,10.00,15.00,CLR,M,M,M,M,M,M,M,M,PHOG 011305Z AUTO 06010G15KT 10SM CLR A3008 RMK MADISHF
PHOG,2017-04-01 13:10,-156.4300,20.9000,M,M,M,60.00,12.00,M,30.08,M,10.00,M,CLR,M,M,M,M,M,M,M,M,PHOG 011310Z AUTO 06012KT 10SM CLR A3008 RMK MADISHF
PHOG,2017-04-01 13:15,-156.4300,20.9000,M,M,M,50.00,11.00,M,30.08,M,10.00,M,CLR,M,M,M,M,M,M,M,M,PHOG 011315Z AUTO 05011KT 10SM CLR A3008 RMK MADISHF
PHOG,2017-04-01 13:20,-156.4300,20.9000,M,M,M,60.00,12.00,M,30.08,M,10.00,M,CLR,M,M,M,M,M,M,M,M,PHOG 011320Z AUTO 06012KT 10SM CLR A3008 RMK MADISHF
PHOG,2017-04-01 13:25,-156.4300,20.9000,M,M,M,50.00,13.00,M,30.07,M,10.00,M,CLR,M,M,M,M,M,M,M,M,PHOG 011325Z AUTO 05013KT 10SM CLR A3007 RMK MADISHF
PHOG,2017-04-01 13:30,-156.4300,20.9000,M,M,M,60.00,12.00,M,30.07,M,10.00,M,CLR,M,M,M,M,M,M,M,M,PHOG 011330Z AUTO 06012KT 10SM CLR A3007 RMK MADISHF
PHOG,2017-04-01 13:35,-156.4300,20.9000,M,M,M,60.00,11.00,M,30.07,M,10.00,M,CLR,M,M,M,M,M,M,M,M,PHOG 011335Z AUTO 06011KT 10SM CLR A3007 RMK MADISHF
PHOG,2017-04-01 13:40,-156.4300,20.9000,M,M,M,70.00,10.00,M,30.07,M,10.00,15.00,CLR,M,M,M,M,M,M,M,M,PHOG 011340Z AUTO 07010G15KT 10SM CLR A3007 RMK MADISHF
PHOG,2017-04-01 13:45,-156.4300,20.9000,M,M,M,90.00,9.00,M,30.07,M,10.00,M,CLR,M,M,M,M,M,M,M,M,PHOG 011345Z AUTO 09009KT 10SM CLR A3007 RMK MADISHF
PHOG,2017-04-01 13:50,-156.4300,20.9000,M,M,M,80.00,6.00,M,30.07,M,10.00,M,CLR,M,M,M,M,M,M,M,M,PHOG 011350Z AUTO 08006KT 10SM CLR A3007 RMK MADISHF
PHOG,2017-04-01 13:54,-156.4300,20.9000,80.10,60.10,50.52,70.00,10.00,0.00,30.07,1018.70,10.00,16.00,CLR,M,M,M,M,M,M,M,M,PHOG 011354Z AUTO 07010G16KT 10SM CLR 27/16 A3007 RMK AO2 SLP187 T02670156 TSNO $
PHOG,2017-04-01 13:55,-156.4300,20.9000,M,M,M,60.00,10.00,M,30.07,M,10.00,M,CLR,M,M,M,M,M,M,M,M,PHOG 011355Z AUTO 06010KT 10SM CLR A3007 RMK MADISHF
PHOG,2017-04-01 14:00,-156.4300,20.9000,M,M,M,60.00,10.00,M,30.07,M,10.00,M,CLR,M,M,M,M,M,M,M,M,PHOG 011400Z AUTO 06010KT 10SM CLR A3007 RMK MADISHF
PHOG,2017-04-01 14:05,-156.4300,20.9000,M,M,M,70.00,9.00,M,30.07,M,10.00,M,CLR,M,M,M,M,M,M,M,M,PHOG 011405Z AUTO 07009KT 10SM CLR A3007 RMK MADISHF
PHOG,2017-04-01 14:10,-156.4300,20.9000,M,M,M,60.00,8.00,M,30.07,M,10.00,M,CLR,M,M,M,M,M,M,M,M,PHOG 011410Z AUTO 06008KT 10SM CLR A3007 RMK MADISHF
PHOG,2017-04-01 14:15,-156.4300,20.9000,M,M,M,50.00,9.00,M,30.07,M,10.00,M,CLR,M,M,M,M,M,M,M,M,PHOG 011415Z AUTO 05009KT 10SM CLR A3007 RMK MADISHF
PHOG,2017-04-01 14:20,-156.4300,20.9000,M,M,M,60.00,9.00,M,30.07,M,10.00,M,CLR,M,M,M,M,M,M,M,M,PHOG 011420Z AUTO 06009KT 10SM CLR A3007 RMK MADISHF
PHOG,2017-04-01 14:25,-156.4300,20.9000,M,M,M,50.00,8.00,M,30.07,M,10.00,M,CLR,M,M,M,M,M,M,M,M,PHOG 011425Z AUTO 05008KT 10SM CLR A3007 RMK MADISHF
PHOG,2017-04-01 14:30,-156.4300,20.9000,M,M,M,60.00,9.00,M,30.07,M,10.00,M,CLR,M,M,M,M,M,M,M,M,PHOG 011430Z AUTO 06009KT 10SM CLR A3007 RMK MADISHF
PHOG,2017-04-01 14:35,-156.4300,20.9000,M,M,M,50.00,9.00,M,30.07,M,10.00,M,CLR,M,M,M,M,M,M,M,M,PHOG 011435Z AUTO 05009KT 10SM CLR A3007 RMK MADISHF
PHOG,2017-04-01 14:40,-156.4300,20.9000,M,M,M,50.00,12.00,M,30.07,M,10.00,M,CLR,M,M,M,M,M,M,M,M,PHOG 011440Z AUTO 05012KT 10SM CLR A3007 RMK MADISHF
PHOG,2017-04-01 14:45,-156.4300,20.9000,M,M,M,40.00,13.00,M,30.07,M,10.00,M,CLR,M,M,M,M,M,M,M,M,PHOG 011445Z AUTO 04013KT 10SM CLR A3007 RMK MADISHF
PHOG,2017-04-01 14:50,-156.4300,20.9000,M,M,M,40.00,12.00,M,30.07,M,10.00,M,CLR,M,M,M,M,M,M,M,M,PHOG 011450Z AUTO 04012KT 10SM CLR A3007 RMK MADISHF
PHOG,2017-04-01 14:54,-156.4300,20.9000,81.00,61.00,50.65,50.00,13.00,0.00,30.07,1018.70,10.00,M,CLR,M,M,M,M,M,M,M,M,PHOG 011454Z AUTO 05013KT 10SM CLR 27/16 A3007 RMK AO2 SLP187 T02720161 55010 TSNO $
PHOG,2017-04-01 14:55,-156.4300,20.9000,M,M,M,50.00,13.00,M,30.07,M,10.00,19.00,CLR,M,M,M,M,M,M,M,M,PHOG 011455Z AUTO 05013G19KT 10SM CLR A3007 RMK MADISHF
PHOG,2017-04-01 15:00,-156.4300,20.9000,M,M,M,40.00,16.00,M,30.07,M,10.00,M,CLR,M,M,M,M,M,M,M,M,PHOG 011500Z AUTO 04016KT 10SM CLR A3007 RMK MADISHF
PHOG,2017-04-01 15:05,-156.4300,20.9000,M,M,M,50.00,15.00,M,30.07,M,10.00,M,CLR,M,M,M,M,M,M,M,M,PHOG 011505Z AUTO 05015KT 10SM CLR A3007 RMK MADISHF
PHOG,2017-04-01 15:10,-156.4300,20.9000,M,M,M,50.00,11.00,M,30.08,M,10.00,M,CLR,M,M,M,M,M,M,M,M,PHOG 011510Z AUTO 05011KT 10SM CLR A3008 RMK MADISHF
PHOG,2017-04-01 15:15,-156.4300,20.9000,M,M,M,50.00,10.00,M,30.08,M,10.00,M,CLR,M,M,M,M,M,M,M,M,PHOG 011515Z AUTO 05010KT 10SM CLR A3008 RMK MADISHF
PHOG,2017-04-01 15:20,-156.4300,20.9000,M,M,M,60.00,8.00,M,30.08,M,10.00,M,CLR,M,M,M,M,M,M,M,M,PHOG 011520Z AUTO 06008KT 10SM CLR A3008 RMK MADISHF
PHOG,2017-04-01 15:25,-156.4300,20.9000,M,M,M,50.00,10.00,M,30.08,M,10.00,M,CLR,M,M,M,M,M,M,M,M,PHOG 011525Z AUTO 05010KT 10SM CLR A3008 RMK MADISHF
PHOG,2017-04-01 15:30,-156.4300,20.9000,M,M,M,50.00,13.00,M,30.08,M,10.00,M,CLR,M,M,M,M,M,M,M,M,PHOG 011530Z AUTO 05013KT 10SM CLR A3008 RMK MADISHF
PHOG,2017-04-01 15:35,-156.4300,20.9000,M,M,M,50.00,11.00,M,30.08,M,10.00,M,CLR,M,M,M,M,M,M,M,M,PHOG 011535Z AUTO 05011KT 10SM CLR A3008 RMK MADISHF
PHOG,2017-04-01 15:40,-156.4300,20.9000,M,M,M,50.00,11.00,M,30.08,M,10.00,M,FEW,M,M,M,3500.00,M,M,M,M,PHOG 011540Z AUTO 05011KT 10SM FEW035 A3008 RMK MADISHF
PHOG,2017-04-01 15:45,-156.4300,20.9000,M,M,M,50.00,12.00,M,30.08,M,10.00,M,FEW,M,M,M,3500.00,M,M,M,M,PHOG 011545Z AUTO 05012KT 10SM FEW035 A3008 RMK MADISHF
PHOG,2017-04-01 15:50,-156.4300,20.9000,M,M,M,50.00,11.00,M,30.09,M,10.00,M,FEW,M,M,M,3500.00,M,M,M,M,PHOG 011550Z AUTO 05011KT 10SM FEW035 A3009 RMK MADISHF
PHOG,2017-04-01 15:54,-156.4300,20.9000,73.00,64.00,73.40,50.00,11.00,0.00,30.08,1019.20,10.00,M,FEW,M,M,M,3500.00,M,M,M,M,PHOG 011554Z 05011KT 10SM FEW035 23/18 A3008 RMK AO2 SLP192 T02280178 $
PHOG,2017-04-01 15:55,-156.4300,20.9000,M,M,M,50.00,12.00,M,30.09,M,10.00,M,CLR,M,M,M,M,M,M,M,M,PHOG 011555Z AUTO 05012KT 10SM CLR A3009 RMK MADISHF
PHOG,2017-04-01 16:00,-156.4300,20.9000,M,M,M,50.00,14.00,M,30.08,M,10.00,M,CLR,M,M,M,M,M,M,M,M,PHOG 011600Z AUTO 05014KT 10SM CLR A3008 RMK MADISHF
PHOG,2017-04-01 16:05,-156.4300,20.9000,M,M,M,50.00,14.00,M,30.09,M,10.00,M,CLR,M,M,M,M,M,M,M,M,PHOG 011605Z AUTO 05014KT 10SM CLR A3009 RMK MADISHF
PHOG,2017-04-01 16:10,-156.4300,20.9000,M,M,M,50.00,11.00,M,30.09,M,10.00,M,CLR,M,M,M,M,M,M,M,M,PHOG 011610Z AUTO 05011KT 10SM CLR A3009 RMK MADISHF
PHOG,2017-04-01 16:15,-156.4300,20.9000,M,M,M,50.00,11.00,M,30.09,M,10.00,M,CLR,M,M,M,M,M,M,M,M,PHOG 011615Z AUTO 05011KT 10SM CLR A3009 RMK MADISHF
PHOG,2017-04-01 16:20,-156.4300,20.9000,M,M,M,60.00,11.00,M,30.09,M,10.00,M,CLR,M,M,M,M,M,M,M,M,PHOG 011620Z AUTO 06011KT 10SM CLR A3009 RMK MADISHF
PHOG,2017-04-01 16:25,-156.4300,20.9000,M,M,M,60.00,12.00,M,30.09,M,10.00,M,CLR,M,M,M,M,M,M,M,M,PHOG 011625Z AUTO 06012KT 10SM CLR A3009 RMK MADISHF
PHOG,2017-04-01 16:30,-156.4300,20.9000,M,M,M,60.00,7.00,M,30.09,M,10.00,M,CLR,M,M,M,M,M,M,M,M,PHOG 011630Z AUTO 06007KT 10SM CLR A3009 RMK MADISHF
PHOG,2017-04-01 16:35,-156.4300,20.9000,M,M,M,90.00,3.00,M,30.09,M,10.00,M,CLR,M,M,M,M,M,M,M,M,PHOG 011635Z AUTO 09003KT 10SM CLR A3009 RMK MADISHF
PHOG,2017-04-01 16:40,-156.4300,20.9000,M,M,M,60.00,3.00,M,30.09,M,10.00,M,CLR,M,M,M,M,M,M,M,M,PHOG 011640Z AUTO 06003KT 10SM CLR A3009 RMK VRB03KT  MADISHF
PHOG,2017-04-01 16:45,-156.4300,20.9000,M,M,M,30.00,5.00,M,30.09,M,10.00,M,CLR,M,M,M,M,M,M,M,M,PHOG 011645Z AUTO 03005KT 10SM CLR A3009 RMK MADISHF
PHOG,2017-04-01 16:50,-156.4300,20.9000,M,M,M,50.00,12.00,M,30.09,M,10.00,M,FEW,M,M,M,3500.00,M,M,M,M,PHOG 011650Z AUTO 05012KT 10SM FEW035 A3009 RMK MADISHF
PHOG,2017-04-01 16:54,-156.4300,20.9000,73.00,64.00,73.40,60.00,12.00,0.00,30.10,1019.60,10.00,16.00,FEW,M,M,M,3500.00,M,M,M,M,PHOG 011654Z 06012G16KT 10SM FEW035 23/18 A3010 RMK AO2 SLP196 T02280178 $
PHOG,2017-04-01 16:55,-156.4300,20.9000,M,M,M,60.00,11.00,M,30.10,M,10.00,M,CLR,M,M,M,M,M,M,M,M,PHOG 011655Z AUTO 06011KT 10SM CLR A3010 RMK MADISHF
PHOG,2017-04-01 17:00,-156.4300,20.9000,M,M,M,60.00,9.00,M,30.10,M,10.00,M,CLR,M,M,M,M,M,M,M,M,PHOG 011700Z AUTO 06009KT 10SM CLR A3010 RMK MADISHF
PHOG,2017-04-01 17:05,-156.4300,20.9000,M,M,M,70.00,7.00,M,30.10,M,10.00,M,CLR,M,M,M,M,M,M,M,M,PHOG 011705Z AUTO 07007KT 10SM CLR A3010 RMK MADISHF
PHOG,2017-04-01 17:10,-156.4300,20.9000,M,M,M,80.00,6.00,M,30.10,M,10.00,M,CLR,M,M,M,M,M,M,M,M,PHOG 011710Z AUTO 08006KT 10SM CLR A3010 RMK MADISHF
PHOG,2017-04-01 17:15,-156.4300,20.9000,M,M,M,80.00,6.00,M,30.10,M,10.00,M,CLR,M,M,M,M,M,M,M,M,PHOG 011715Z AUTO 08006KT 10SM CLR A3010 RMK MADISHF
PHOG,2017-04-01 17:20,-156.4300,20.9000,M,M,M,40.00,4.00,M,30.11,M,10.00,M,CLR,M,M,M,M,M,M,M,M,PHOG 011720Z AUTO 04004KT 10SM CLR A3011 RMK MADISHF
PHOG,2017-04-01 17:25,-156.4300,20.9000,M,M,M,50.00,10.00,M,30.11,M,10.00,M,CLR,M,M,M,M,M,M,M,M,PHOG 011725Z AUTO 05010KT 10SM CLR A3011 RMK MADISHF
PHOG,2017-04-01 17:30,-156.4300,20.9000,M,M,M,70.00,11.00,M,30.11,M,10.00,M,FEW,M,M,M,3500.00,M,M,M,M,PHOG 011730Z AUTO 07011KT 10SM FEW035 A3011 RMK MADISHF
PHOG,2017-04-01 17:35,-156.4300,20.9000,M,M,M,80.00,7.00,M,30.11,M,10.00,M,FEW,M,M,M,3500.00,M,M,M,M,PHOG 011735Z AUTO 08007KT 10SM FEW035 A3011 RMK MADISHF
PHOG,2017-04-01 17:40,-156.4300,20.9000,M,M,M,70.00,4.00,M,30.11,M,10.00,M,FEW,M,M,M,3500.00,M,M,M,M,PHOG 011740Z AUTO 07004KT 10SM FEW035 A3011 RMK MADISHF
PHOG,2017-04-01 17:45,-156.4300,20.9000,M,M,M,70.00,7.00,M,30.11,M,10.00,M,FEW,M,M,M,3500.00,M,M,M,M,PHOG 011745Z AUTO 07007KT 10SM FEW035 A3011 RMK MADISHF
PHOG,2017-04-01 17:50,-156.4300,20.9000,M,M,M,60.00,10.00,M,30.11,M,10.00,M,FEW,M,M,M,3500.00,M,M,M,M,PHOG 011750Z AUTO 06010KT 10SM FEW035 A3011 RMK MADISHF
PHOG,2017-04-01 17:54,-156.4300,20.9000,75.00,63.00,66.27,60.00,12.00,0.00,30.11,1020.20,10.00,M,FEW,M,M,M,3500.00,M,M,M,M,PHOG 011754Z 06012KT 10SM FEW035 24/17 A3011 RMK AO2 SLP202 T02390172 10378 20228 53015 $
PHOG,2017-04-01 17:55,-156.4300,20.9000,M,M,M,60.00,10.00,M,30.11,M,10.00,M,CLR,M,M,M,M,M,M,M,M,PHOG 011755Z AUTO 06010KT 10SM CLR A3011 RMK MADISHF
PHOG,2017-04-01 18:00,-156.4300,20.9000,M,M,M,70.00,13.00,M,30.11,M,10.00,M,CLR,M,M,M,M,M,M,M,M,PHOG 011800Z AUTO 07013KT 10SM CLR A3011 RMK MADISHF
PHOG,2017-04-01 18:05,-156.4300,20.9000,M,M,M,70.00,11.00,M,30.11,M,10.00,M,SCT,SCT,M,M,4500.00,6000.00,M,M,M,PHOG 011805Z AUTO 07011KT 10SM SCT045 SCT060 A3011 RMK MADISHF
PHOG,2017-04-01 18:10,-156.4300,20.9000,M,M,M,120.00,9.00,M,30.11,M,10.00,M,SCT,SCT,M,M,4500.00,6000.00,M,M,M,PHOG 011810Z AUTO 12009KT 10SM SCT045 SCT060 A3011 RMK MADISHF
PHOG,2017-04-01 18:15,-156.4300,20.9000,M,M,M,90.00,7.00,M,30.11,M,10.00,M,SCT,SCT,M,M,4500.00,6000.00,M,M,M,PHOG 011815Z AUTO 09007KT 10SM SCT045 SCT060 A3011 RMK MADISHF
PHOG,2017-04-01 18:20,-156.4300,20.9000,M,M,M,70.00,12.00,M,30.11,M,10.00,M,SCT,SCT,M,M,4500.00,6000.00,M,M,M,PHOG 011820Z AUTO 07012KT 10SM SCT045 SCT060 A3011 RMK MADISHF
PHOG,2017-04-01 18:25,-156.4300,20.9000,M,M,M,60.00,15.00,M,30.11,M,10.00,M,SCT,SCT,M,M,4500.00,6000.00,M,M,M,PHOG 011825Z AUTO 06015KT 10SM SCT045 SCT060 A3011 RMK MADISHF
PHOG,2017-04-01 18:30,-156.4300,20.9000,M,M,M,50.00,15.00,M,30.11,M,10.00,M,SCT,SCT,M,M,4500.00,6000.00,M,M,M,PHOG 011830Z AUTO 05015KT 10SM SCT045 SCT060 A3011 RMK MADISHF
PHOG,2017-04-01 18:35,-156.4300,20.9000,M,M,M,60.00,14.00,M,30.11,M,10.00,M,SCT,SCT,M,M,4500.00,6000.00,M,M,M,PHOG 011835Z AUTO 06014KT 10SM SCT045 SCT060 A3011 RMK MADISHF
PHOG,2017-04-01 18:40,-156.4300,20.9000,M,M,M,60.00,12.00,M,30.11,M,10.00,M,SCT,SCT,M,M,4500.00,6000.00,M,M,M,PHOG 011840Z AUTO 06012KT 10SM SCT045 SCT060 A3011 RMK MADISHF
PHOG,2017-04-01 18:45,-156.4300,20.9000,M,M,M,100.00,7.00,M,30.12,M,10.00,M,FEW,SCT,SCT,M,3000.00,4500.00,6000.00,M,M,PHOG 011845Z AUTO 10007KT 10SM FEW030 SCT045 SCT060 A3012 RMK WND 05V15  MADISHF
PHOG,2017-04-01 18:50,-156.4300,20.9000,M,M,M,80.00,11.00,M,30.12,M,10.00,M,FEW,SCT,SCT,M,3000.00,4500.00,6000.00,M,M,PHOG 011850Z AUTO 08011KT 10SM FEW030 SCT045 SCT060 A3012 RMK MADISHF
PHOG,2017-04-01 18:54,-156.4300,20.9000,79.00,66.00,64.45,70.00,14.00,0.00,30.12,1020.40,10.00,19.00,FEW,SCT,SCT,M,3000.00,4500.00,6000.00,M,M,PHOG 011854Z 07014G19KT 10SM FEW030 SCT045 SCT060 26/19 A3012 RMK AO2 SLP204 T02610189 $
PHOG,2017-04-01 18:55,-156.4300,20.9000,M,M,M,50.00,13.00,M,30.12,M,10.00,M,FEW,M,M,M,3200.00,M,M,M,M,PHOG 011855Z AUTO 05013KT 10SM FEW032 A3012 RMK MADISHF
PHOG,2017-04-01 19:00,-156.4300,20.9000,M,M,M,70.00,14.00,M,30.12,M,10.00,M,FEW,SCT,SCT,M,3000.00,4500.00,6000.00,M,M,PHOG 011900Z AUTO 07014KT 10SM FEW030 SCT045 SCT060 A3012 RMK MADISHF
PHOG,2017-04-01 19:05,-156.4300,20.9000,M,M,M,60.00,17.00,M,30.12,M,10.00,M,FEW,SCT,SCT,M,3000.00,4500.00,6000.00,M,M,PHOG 011905Z AUTO 06017KT 10SM FEW030 SCT045 SCT060 A3012 RMK MADISHF
PHOG,2017-04-01 19:10,-156.4300,20.9000,M,M,M,60.00,14.00,M,30.12,M,10.00,M,FEW,SCT,SCT,M,3000.00,4500.00,6000.00,M,M,PHOG 011910Z AUTO 06014KT 10SM FEW030 SCT045 SCT060 A3012 RMK MADISHF
PHOG,2017-04-01 19:15,-156.4300,20.9000,M,M,M,60.00,17.00,M,30.12,M,10.00,M,FEW,SCT,SCT,M,3000.00,4500.00,6000.00,M,M,PHOG 011915Z AUTO 06017KT 10SM FEW030 SCT045 SCT060 A3012 RMK MADISHF
PHOG,2017-04-01 19:20,-156.4300,20.9000,M,M,M,60.00,16.00,M,30.12,M,10.00,M,FEW,SCT,SCT,M,3000.00,4500.00,6000.00,M,M,PHOG 011920Z AUTO 06016KT 10SM FEW030 SCT045 SCT060 A3012 RMK MADISHF
PHOG,2017-04-01 19:25,-156.4300,20.9000,M,M,M,60.00,16.00,M,30.12,M,10.00,M,FEW,SCT,SCT,M,3000.00,4500.00,6000.00,M,M,PHOG 011925Z AUTO 06016KT 10SM FEW030 SCT045 SCT060 A3012 RMK MADISHF
PHOG,2017-04-01 19:30,-156.4300,20.9000,M,M,M,60.00,17.00,M,30.12,M,10.00,M,FEW,SCT,SCT,M,3000.00,4500.00,6000.00,M,M,PHOG 011930Z AUTO 06017KT 10SM FEW030 SCT045 SCT060 A3012 RMK MADISHF
PHOG,2017-04-01 19:35,-156.4300,20.9000,M,M,M,50.00,18.00,M,30.12,M,10.00,M,FEW,SCT,SCT,M,3000.00,4500.00,6000.00,M,M,PHOG 011935Z AUTO 05018KT 10SM FEW030 SCT045 SCT060 A3012 RMK MADISHF
PHOG,2017-04-01 19:40,-156.4300,20.9000,M,M,M,70.00,12.00,M,30.11,M,10.00,M,FEW,SCT,SCT,M,3000.00,4500.00,6000.00,M,M,PHOG 011940Z AUTO 07012KT 10SM FEW030 SCT045 SCT060 A3011 RMK MADISHF
PHOG,2017-04-01 19:45,-156.4300,20.9000,M,M,M,70.00,16.00,M,30.12,M,10.00,M,FEW,SCT,SCT,M,3000.00,4500.00,6000.00,M,M,PHOG 011945Z AUTO 07016KT 10SM FEW030 SCT045 SCT060 A3012 RMK MADISHF
PHOG,2017-04-01 19:50,-156.4300,20.9000,M,M,M,70.00,18.00,M,30.12,M,10.00,M,FEW,SCT,M,M,3000.00,5000.00,M,M,M,PHOG 011950Z AUTO 07018KT 10SM FEW030 SCT050 A3012 RMK MADISHF
PHOG,2017-04-01 19:54,-156.4300,20.9000,81.00,66.00,60.37,80.00,19.00,0.00,30.12,1020.40,10.00,26.00,FEW,SCT,M,M,3000.00,5000.00,M,M,M,PHOG 011954Z 08019G26KT 10SM FEW030 SCT050 27/19 A3012 RMK AO2 PK WND 07026/1948 SLP204 T02720189 $
PHOG,2017-04-01 19:55,-156.4300,20.9000,M,M,M,80.00,18.00,M,30.12,M,10.00,M,CLR,M,M,M,M,M,M,M,M,PHOG 011955Z AUTO 08018KT 10SM CLR A3012 RMK MADISHF
PHOG,2017-04-01 20:00,-156.4300,20.9000,M,M,M,80.00,14.00,M,30.12,M,10.00,M,CLR,M,M,M,M,M,M,M,M,PHOG 012000Z AUTO 08014KT 10SM CLR A3012 RMK MADISHF
PHOG,2017-04-01 20:05,-156.4300,20.9000,M,M,M,70.00,18.00,M,30.12,M,10.00,M,FEW,SCT,M,M,3000.00,5000.00,M,M,M,PHOG 012005Z AUTO 07018KT 10SM FEW030 SCT050 A3012 RMK MADISHF
PHOG,2017-04-01 20:10,-156.4300,20.9000,M,M,M,70.00,13.00,M,30.12,M,10.00,19.00,FEW,SCT,M,M,3000.00,5000.00,M,M,M,PHOG 012010Z AUTO 07013G19KT 10SM FEW030 SCT050 A3012 RMK MADISHF
PHOG,2017-04-01 20:15,-156.4300,20.9000,M,M,M,80.00,16.00,M,30.11,M,10.00,M,FEW,SCT,M,M,3000.00,5000.00,M,M,M,PHOG 012015Z AUTO 08016KT 10SM FEW030 SCT050 A3011 RMK MADISHF
PHOG,2017-04-01 20:20,-156.4300,20.9000,M,M,M,70.00,18.00,M,30.12,M,10.00,M,FEW,SCT,M,M,3000.00,5000.00,M,M,M,PHOG 012020Z AUTO 07018KT 10SM FEW030 SCT050 A3012 RMK MADISHF
PHOG,2017-04-01 20:25,-156.4300,20.9000,M,M,M,80.00,17.00,M,30.11,M,10.00,M,FEW,SCT,M,M,3000.00,5000.00,M,M,M,PHOG 012025Z AUTO 08017KT 10SM FEW030 SCT050 A3011 RMK MADISHF
PHOG,2017-04-01 20:30,-156.4300,20.9000,M,M,M,80.00,16.00,M,30.11,M,10.00,M,FEW,SCT,M,M,3000.00,5000.00,M,M,M,PHOG 012030Z AUTO 08016KT 10SM FEW030 SCT050 A3011 RMK MADISHF
PHOG,2017-04-01 20:35,-156.4300,20.9000,M,M,M,80.00,20.00,M,30.12,M,10.00,M,FEW,SCT,M,M,3000.00,5000.00,M,M,M,PHOG 012035Z AUTO 08020KT 10SM FEW030 SCT050 A3012 RMK MADISHF
PHOG,2017-04-01 20:40,-156.4300,20.9000,M,M,M,80.00,14.00,M,30.11,M,10.00,M,FEW,SCT,M,M,3000.00,5000.00,M,M,M,PHOG 012040Z AUTO 08014KT 10SM FEW030 SCT050 A3011 RMK MADISHF
PHOG,2017-04-01 20:45,-156.4300,20.9000,M,M,M,60.00,18.00,M,30.12,M,10.00,M,FEW,SCT,M,M,3000.00,5000.00,M,M,M,PHOG 012045Z AUTO 06018KT 10SM FEW030 SCT050 A3012 RMK MADISHF
PHOG,2017-04-01 20:50,-156.4300,20.9000,M,M,M,70.00,17.00,M,30.12,M,10.00,M,FEW,SCT,M,M,3000.00,6000.00,M,M,M,PHOG 012050Z AUTO 07017KT 10SM FEW030 SCT060 A3012 RMK MADISHF
PHOG,2017-04-01 20:54,-156.4300,20.9000,81.00,64.90,58.10,70.00,21.00,0.00,30.12,1020.30,10.00,27.00,FEW,SCT,M,M,3000.00,6000.00,M,M,M,PHOG 012054Z 07021G27KT 10SM FEW030 SCT060 27/18 A3012 RMK AO2 PK WND 08029/2035 SLP203 T02720183 50001 $
PHOG,2017-04-01 20:55,-156.4300,20.9000,M,M,M,70.00,19.00,M,30.11,M,10.00,M,FEW,M,M,M,3000.00,M,M,M,M,PHOG 012055Z AUTO 07019KT 10SM FEW030 A3011 RMK MADISHF
PHOG,2017-04-01 21:00,-156.4300,20.9000,M,M,M,80.00,19.00,M,30.11,M,10.00,M,FEW,SCT,M,M,3000.00,6000.00,M,M,M,PHOG 012100Z AUTO 08019KT 10SM FEW030 SCT060 A3011 RMK MADISHF
PHOG,2017-04-01 21:05,-156.4300,20.9000,M,M,M,70.00,16.00,M,30.11,M,10.00,M,FEW,SCT,M,M,3000.00,6000.00,M,M,M,PHOG 012105Z AUTO 07016KT 10SM FEW030 SCT060 A3011 RMK MADISHF
PHOG,2017-04-01 21:10,-156.4300,20.9000,M,M,M,70.00,22.00,M,30.11,M,10.00,30.00,FEW,SCT,M,M,3000.00,6000.00,M,M,M,PHOG 012110Z AUTO 07022G30KT 10SM FEW030 SCT060 A3011 RMK MADISHF
PHOG,2017-04-01 21:15,-156.4300,20.9000,M,M,M,70.00,22.00,M,30.11,M,10.00,M,FEW,SCT,M,M,3000.00,6000.00,M,M,M,PHOG 012115Z AUTO 07022KT 10SM FEW030 SCT060 A3011 RMK MADISHF
PHOG,2017-04-01 21:20,-156.4300,20.9000,M,M,M,70.00,18.00,M,30.12,M,10.00,M,FEW,SCT,M,M,3000.00,6000.00,M,M,M,PHOG 012120Z AUTO 07018KT 10SM FEW030 SCT060 A3012 RMK MADISHF
PHOG,2017-04-01 21:25,-156.4300,20.9000,M,M,M,70.00,19.00,M,30.11,M,10.00,M,FEW,SCT,M,M,3000.00,6000.00,M,M,M,PHOG 012125Z AUTO 07019KT 10SM FEW030 SCT060 A3011 RMK MADISHF
PHOG,2017-04-01 21:30,-156.4300,20.9000,M,M,M,70.00,19.00,M,30.11,M,10.00,M,FEW,SCT,M,M,3000.00,6000.00,M,M,M,PHOG 012130Z AUTO 07019KT 10SM FEW030 SCT060 A3011 RMK MADISHF
PHOG,2017-04-01 21:35,-156.4300,20.9000,M,M,M,90.00,18.00,M,30.11,M,10.00,M,FEW,SCT,M,M,3000.00,6000.00,M,M,M,PHOG 012135Z AUTO 09018KT 10SM FEW030 SCT060 A3011 RMK MADISHF
PHOG,2017-04-01 21:40,-156.4300,20.9000,M,M,M,60.00,19.00,M,30.11,M,10.00,25.00,FEW,SCT,M,M,3000.00,6000.00,M,M,M,PHOG 012140Z AUTO 06019G25KT 10SM FEW030 SCT060 A3011 RMK MADISHF
PHOG,2017-04-01 21:45,-156.4300,20.9000,M,M,M,80.00,18.00,M,30.10,M,10.00,M,FEW,SCT,M,M,3000.00,6000.00,M,M,M,PHOG 012145Z AUTO 08018KT 10SM FEW030 SCT060 A3010 RMK MADISHF
PHOG,2017-04-01 21:50,-156.4300,20.9000,M,M,M,70.00,14.00,M,30.10,M,10.00,20.00,FEW,SCT,M,M,3000.00,6000.00,M,M,M,PHOG 012150Z AUTO 07014G20KT 10SM FEW030 SCT060 A3010 RMK MADISHF
PHOG,2017-04-01 21:54,-156.4300,20.9000,82.00,64.90,56.24,70.00,15.00,0.00,30.10,1019.60,10.00,29.00,FEW,SCT,M,M,3000.00,6000.00,M,M,M,PHOG 012154Z 07015G29KT 10SM FEW030 SCT060 28/18 A3010 RMK AO2 PK WND 07031/2114 SLP196 T02780183 $
PHOG,2017-04-01 21:55,-156.4300,20.9000,M,M,M,70.00,19.00,M,30.10,M,10.00,M,FEW,M,M,M,5500.00,M,M,M,M,PHOG 012155Z AUTO 07019KT 10SM FEW055 A3010 RMK MADISHF
PHOG,2017-04-01 22:00,-156.4300,20.9000,M,M,M,70.00,17.00,M,30.09,M,10.00,M,FEW,SCT,M,M,3500.00,6000.00,M,M,M,PHOG 012200Z AUTO 07017KT 10SM FEW035 SCT060 A3009 RMK MADISHF
PHOG,2017-04-01 22:05,-156.4300,20.9000,M,M,M,80.00,22.00,M,30.09,M,10.00,M,FEW,SCT,M,M,3500.00,6000.00,M,M,M,PHOG 012205Z AUTO 08022KT 10SM FEW035 SCT060 A3009 RMK MADISHF
PHOG,2017-04-01 22:10,-156.4300,20.9000,M,M,M,90.00,23.00,M,30.09,M,10.00,33.00,FEW,SCT,M,M,3500.00,6000.00,M,M,M,PHOG 012210Z AUTO 09023G33KT 10SM FEW035 SCT060 A3009 RMK MADISHF
PHOG,2017-04-01 22:15,-156.4300,20.9000,M,M,M,100.00,20.00,M,30.08,M,10.00,26.00,FEW,SCT,M,M,3500.00,6000.00,M,M,M,PHOG 012215Z AUTO 10020G26KT 10SM FEW035 SCT060 A3008 RMK MADISHF
PHOG,2017-04-01 22:20,-156.4300,20.9000,M,M,M,80.00,21.00,M,30.09,M,10.00,M,FEW,SCT,M,M,3500.00,6000.00,M,M,M,PHOG 012220Z AUTO 08021KT 10SM FEW035 SCT060 A3009 RMK MADISHF
PHOG,2017-04-01 22:25,-156.4300,20.9000,M,M,M,80.00,19.00,M,30.08,M,10.00,M,FEW,SCT,M,M,3500.00,6000.00,M,M,M,PHOG 012225Z AUTO 08019KT 10SM FEW035 SCT060 A3008 RMK MADISHF
PHOG,2017-04-01 22:30,-156.4300,20.9000,M,M,M,80.00,20.00,M,30.09,M,10.00,M,FEW,SCT,M,M,3500.00,6000.00,M,M,M,PHOG 012230Z AUTO 08020KT 10SM FEW035 SCT060 A3009 RMK MADISHF
PHOG,2017-04-01 22:35,-156.4300,20.9000,M,M,M,80.00,22.00,M,30.09,M,10.00,M,FEW,SCT,M,M,3500.00,6000.00,M,M,M,PHOG 012235Z AUTO 08022KT 10SM FEW035 SCT060 A3009 RMK MADISHF
PHOG,2017-04-01 22:40,-156.4300,20.9000,M,M,M,70.00,22.00,M,30.08,M,10.00,M,FEW,SCT,M,M,3500.00,6000.00,M,M,M,PHOG 012240Z AUTO 07022KT 10SM FEW035 SCT060 A3008 RMK MADISHF
PHOG,2017-04-01 22:45,-156.4300,20.9000,M,M,M,80.00,20.00,M,30.08,M,10.00,M,FEW,SCT,M,M,3500.00,6000.00,M,M,M,PHOG 012245Z AUTO 08020KT 10SM FEW035 SCT060 A3008 RMK MADISHF
PHOG,2017-04-01 22:50,-156.4300,20.9000,M,M,M,70.00,23.00,M,30.08,M,10.00,M,FEW,SCT,M,M,3500.00,6000.00,M,M,M,PHOG 012250Z AUTO 07023KT 10SM FEW035 SCT060 A3008 RMK MADISHF
PHOG,2017-04-01 22:54,-156.4300,20.9000,84.00,63.00,49.32,70.00,20.00,0.00,30.07,1018.90,10.00,30.00,FEW,SCT,M,M,3500.00,6000.00,M,M,M,PHOG 012254Z 07020G30KT 10SM FEW035 SCT060 29/17 A3007 RMK AO2 PK WND 09033/2210 SLP189 T02890172 $
PHOG,2017-04-01 22:55,-156.4300,20.9000,M,M,M,70.00,19.00,M,30.08,M,10.00,25.00,CLR,M,M,M,M,M,M,M,M,PHOG 012255Z AUTO 07019G25KT 10SM CLR A3008 RMK MADISHF
PHOG,2017-04-01 23:00,-156.4300,20.9000,M,M,M,80.00,20.00,M,30.07,M,10.00,M,CLR,M,M,M,M,M,M,M,M,PHOG 012300Z AUTO 08020KT 10SM CLR A3007 RMK MADISHF
PHOG,2017-04-01 23:05,-156.4300,20.9000,M,M,M,90.00,16.00,M,30.07,M,10.00,M,CLR,M,M,M,M,M,M,M,M,PHOG 012305Z AUTO 09016KT 10SM CLR A3007 RMK MADISHF
PHOG,2017-04-01 23:10,-156.4300,20.9000,M,M,M,80.00,23.00,M,30.07,M,10.00,M,FEW,SCT,M,M,3000.00,6000.00,M,M,M,PHOG 012310Z AUTO 08023KT 10SM FEW030 SCT060 A3007 RMK MADISHF
PHOG,2017-04-01 23:15,-156.4300,20.9000,M,M,M,80.00,15.00,M,30.06,M,10.00,24.00,FEW,SCT,M,M,3000.00,6000.00,M,M,M,PHOG 012315Z AUTO 08015G24KT 10SM FEW030 SCT060 A3006 RMK MADISHF
PHOG,2017-04-01 23:20,-156.4300,20.9000,M,M,M,80.00,15.00,M,30.06,M,10.00,M,FEW,SCT,M,M,3000.00,6000.00,M,M,M,PHOG 012320Z AUTO 08015KT 10SM FEW030 SCT060 A3006 RMK MADISHF
PHOG,2017-04-01 23:25,-156.4300,20.9000,M,M,M,70.00,20.00,M,30.06,M,10.00,M,FEW,SCT,M,M,3000.00,6000.00,M,M,M,PHOG 012325Z AUTO 07020KT 10SM FEW030 SCT060 A3006 RMK MADISHF
PHOG,2017-04-01 23:30,-156.4300,20.9000,M,M,M,70.00,23.00,M,30.06,M,10.00,M,FEW,SCT,M,M,3000.00,6000.00,M,M,M,PHOG 012330Z AUTO 07023KT 10SM FEW030 SCT060 A3006 RMK MADISHF
PHOG,2017-04-01 23:35,-156.4300,20.9000,M,M,M,70.00,21.00,M,30.06,M,10.00,M,FEW,SCT,M,M,3000.00,6000.00,M,M,M,PHOG 012335Z AUTO 07021KT 10SM FEW030 SCT060 A3006 RMK MADISHF
PHOG,2017-04-01 23:40,-156.4300,20.9000,M,M,M,80.00,22.00,M,30.06,M,10.00,M,FEW,SCT,M,M,3000.00,6000.00,M,M,M,PHOG 012340Z AUTO 08022KT 10SM FEW030 SCT060 A3006 RMK MADISHF
PHOG,2017-04-01 23:45,-156.4300,20.9000,M,M,M,80.00,22.00,M,30.06,M,10.00,M,FEW,SCT,M,M,3000.00,6000.00,M,M,M,PHOG 012345Z AUTO 08022KT 10SM FEW030 SCT060 A3006 RMK MADISHF
PHOG,2017-04-01 23:50,-156.4300,20.9000,M,M,M,80.00,18.00,M,30.06,M,10.00,M,FEW,SCT,M,M,3500.00,6000.00,M,M,M,PHOG 012350Z AUTO 08018KT 10SM FEW035 SCT060 A3006 RMK MADISHF
PHOG,2017-04-01 23:54,-156.4300,20.9000,82.00,64.00,54.50,70.00,20.00,0.00,30.05,1018.20,10.00,31.00,FEW,SCT,M,M,3500.00,6000.00,M,M,M,PHOG 012354Z 07020G31KT 10SM FEW035 SCT060 28/18 A3005 RMK AO2 PK WND 08033/2330 SLP182 T02780178 10367 20250 57021 $
PHOG,2017-04-01 23:55,-156.4300,20.9000,M,M,M,70.00,21.00,M,30.05,M,10.00,26.00,CLR,M,M,M,M,M,M,M,M,PHOG 012355Z AUTO 07021G26KT 10SM CLR A3005 RMK MADISHF
