#DEBUG: Format Typ    -> comma
#DEBUG: Time Period   -> 2017-04-01 00:00:00+00:00 2017-04-02 00:00:00+00:00
#DEBUG: Time Zone     -> Etc/UTC
#DEBUG: Data Contact   -> daryl herzmann akrherz@iastate.edu 515-294-5978
#DEBUG: Entries Found -> -1
station,valid,lon,lat,tmpf, dwpf, relh, drct, sknt, p01i, alti, mslp, vsby, gust, skyc1, skyc2, skyc3, skyc4, skyl1, skyl2, skyl3, skyl4, presentwx, metar
PMU,2017-04-01 00:15,-89.8929,34.3635,69.60,45.10,41.34,260.00,3.00,0.00,29.90,M,10.00,M,CLR,M,M,M,M,M,M,M,M,KPMU 010015Z AUTO 26003KT 10SM CLR 21/07 A2990 RMK AO2 T02090073
PMU,2017-04-01 00:35,-89.8929,34.3635,68.20,45.90,44.71,0.00,0.00,0.00,29.90,M,10.00,M,CLR,M,M,M,M,M,M,M,M,KPMU 010035Z AUTO 00000KT 10SM CLR 20/08 A2990 RMK AO2 T02010077
PMU,2017-04-01 00:55,-89.8929,34.3635,62.60,49.60,62.44,350.00,3.00,0.00,29.92,M,10.00,M,CLR,M,M,M,M,M,M,M,M,KPMU 010055Z AUTO 35003KT 10SM CLR 17/10 A2992 RMK AO2 T01700098
PMU,2017-04-01 01:15,-89.8929,34.3635,59.20,50.50,72.84,0.00,0.00,0.00,29.92,M,10.00,M,CLR,M,M,M,M,M,M,M,M,KPMU 010115Z AUTO 00000KT 10SM CLR 15/10 A2992 RMK AO2 T01510103
PMU,2017-04-01 01:35,-89.8929,34.3635,59.00,50.20,72.55,0.00,0.00,0.00,29.93,M,10.00,M,CLR,M,M,M,M,M,M,M,M,KPMU 010135Z AUTO 00000KT 10SM CLR 15/10 A2993 RMK AO2 T01500101
PMU,2017-04-01 01:55,-89.8929,34.3635,57.70,51.10,78.60,0.00,0.00,0.00,29.94,M,10.00,M,CLR,M,M,M,M,M,M,M,M,KPMU 010155Z AUTO 00000KT 10SM CLR 14/11 A2994 RMK AO2 T01430106
PMU,2017-04-01 02:15,-89.8929,34.3635,56.30,51.60,84.21,0.00,0.00,0.00,29.95,M,10.00,M,CLR,M,M,M,M,M,M,M,M,KPMU 010215Z AUTO 00000KT 10SM CLR 14/11 A2995 RMK AO2 T01350109
PMU,2017-04-01 02:35,-89.8929,34.3635,54.90,51.10,86.98,0.00,0.00,0.00,29.95,M,10.00,M,CLR,M,M,M,M,M,M,M,M,KPMU 010235Z AUTO 00000KT 10SM CLR 13/11 A2995 RMK AO2 T01270106
PMU,2017-04-01 02:55,-89.8929,34.3635,54.30,51.30,89.56,0.00,0.00,0.00,29.96,M,10.00,M,CLR,M,M,M,M,M,M,M,M,KPMU 010255Z AUTO 00000KT 10SM CLR 12/11 A2996 RMK AO2 T01240107
PMU,2017-04-01 03:15,-89.8929,34.3635,53.60,51.10,91.21,70.00,3.00,0.00,29.96,M,10.00,M,CLR,M,M,M,M,M,M,M,M,KPMU 010315Z AUTO 07003KT 10SM CLR 12/11 A2996 RMK AO2 T01200106
PMU,2017-04-01 03:35,-89.8929,34.3635,54.00,50.40,87.58,0.00,0.00,0.00,29.96,M,10.00,M,CLR,M,M,M,M,M,M,M,M,KPMU 010335Z AUTO 00000KT 10SM CLR 12/10 A2996 RMK AO2 T01220102
PMU,2017-04-01 03:55,-89.8929,34.3635,54.10,50.90,88.89,0.00,0.00,0.00,29.97,M,10.00,M,CLR,M,M,M,M,M,M,M,M,KPMU 010355Z AUTO 00000KT 10SM CLR 12/11 A2997 RMK AO2 T01230105
PMU,2017-04-01 04:15,-89.8929,34.3635,54.00,50.40,87.58,0.00,0.00,0.00,29.97,M,10.00,M,CLR,M,M,M,M,M,M,M,M,KPMU 010415Z AUTO 00000KT 10SM CLR 12/10 A2997 RMK AO2 T01220102
PMU,2017-04-01 04:35,-89.8929,34.3635,52.20,49.80,91.50,0.00,0.00,0.00,29.98,M,10.00,M,CLR,M,M,M,M,M,M,M,M,KPMU 010435Z AUTO 00000KT 10SM CLR 11/10 A2998 RMK AO2 T01120099
PMU,2017-04-01 04:55,-89.8929,34.3635,51.10,48.90,92.14,0.00,0.00,0.00,29.98,M,10.00,M,CLR,M,M,M,M,M,M,M,M,KPMU 010455Z AUTO 00000KT 10SM CLR 11/09 A2998 RMK AO2 T01060094
PMU,2017-04-01 05:15,-89.8929,34.3635,52.50,50.40,92.53,0.00,0.00,0.00,29.98,M,10.00,M,CLR,M,M,M,M,M,M,M,M,KPMU 010515Z AUTO 00000KT 10SM CLR 11/10 A2998 RMK AO2 T01140102
PMU,2017-04-01 05:35,-89.8929,34.3635,52.50,49.80,90.49,0.00,0.00,0.00,29.99,M,10.00,M,CLR,M,M,M,M,M,M,M,M,KPMU 010535Z AUTO 00000KT 10SM CLR 11/10 A2999 RMK AO2 T01140099
PMU,2017-04-01 05:55,-89.8929,34.3635,53.80,49.30,84.68,0.00,0.00,0.00,30.00,M,10.00,M,CLR,M,M,M,M,M,M,M,M,KPMU 010555Z AUTO 00000KT 10SM CLR 12/10 A3000 RMK AO2 T01210096 10216 20106 402300065
PMU,2017-04-01 06:15,-89.8929,34.3635,52.70,49.10,87.51,0.00,0.00,0.00,30.01,M,10.00,M,CLR,M,M,M,M,M,M,M,M,KPMU 010615Z AUTO 00000KT 10SM CLR 12/10 A3001 RMK AO2 T01150095
PMU,2017-04-01 06:35,-89.8929,34.3635,51.80,49.50,91.82,0.00,0.00,0.00,30.01,M,10.00,M,CLR,M,M,M,M,M,M,M,M,KPMU 010635Z AUTO 00000KT 10SM CLR 11/10 A3001 RMK AO2 T01100097
PMU,2017-04-01 06:55,-89.8929,34.3635,52.50,50.20,91.85,50.00,3.00,0.00,30.01,M,10.00,M,CLR,M,M,M,M,M,M,M,M,KPMU 010655Z AUTO 05003KT 10SM CLR 11/10 A3001 RMK AO2 T01140101
PMU,2017-04-01 07:15,-89.8929,34.3635,54.90,50.00,83.50,0.00,0.00,0.00,30.02,M,10.00,M,CLR,M,M,M,M,M,M,M,M,KPMU 010715Z AUTO 00000KT 10SM CLR 13/10 A3002 RMK AO2 T01270100
PMU,2017-04-01 07:35,-89.8929,34.3635,55.00,49.60,81.97,70.00,3.00,0.00,30.03,M,10.00,M,CLR,M,M,M,M,M,M,M,M,KPMU 010735Z AUTO 07003KT 10SM CLR 13/10 A3003 RMK AO2 T01280098
PMU,2017-04-01 07:55,-89.8929,34.3635,55.40,49.60,80.78,60.00,4.00,0.00,30.03,M,10.00,M,CLR,M,M,M,M,M,M,M,M,KPMU 010755Z AUTO 06004KT 10SM CLR 13/10 A3003 RMK AO2 T01300098
PMU,2017-04-01 08:15,-89.8929,34.3635,54.50,49.30,82.54,60.00,3.00,0.00,30.03,M,10.00,M,CLR,M,M,M,M,M,M,M,M,KPMU 010815Z AUTO 06003KT 10SM CLR 13/10 A3003 RMK AO2 T01250096
PMU,2017-04-01 08:35,-89.8929,34.3635,53.80,49.30,84.68,80.00,4.00,0.00,30.04,M,10.00,M,CLR,M,M,M,M,M,M,M,M,KPMU 010835Z AUTO 08004KT 10SM CLR 12/10 A3004 RMK AO2 T01210096
PMU,2017-04-01 08:55,-89.8929,34.3635,54.50,48.60,80.41,70.00,4.00,0.00,30.04,M,10.00,M,CLR,M,M,M,M,M,M,M,M,KPMU 010855Z AUTO 07004KT 10SM CLR 13/09 A3004 RMK AO2 T01250092
PMU,2017-04-01 09:15,-89.8929,34.3635,54.10,48.40,80.99,70.00,4.00,0.00,30.04,M,10.00,M,CLR,M,M,M,M,M,M,M,M,KPMU 010915Z AUTO 07004KT 10SM CLR 12/09 A3004 RMK AO2 T01230091
PMU,2017-04-01 09:35,-89.8929,34.3635,54.00,48.60,81.90,70.00,5.00,0.00,30.05,M,10.00,M,CLR,M,M,M,M,M,M,M,M,KPMU 010935Z AUTO 07005KT 10SM CLR 12/09 A3005 RMK AO2 T01220092
PMU,2017-04-01 09:55,-89.8929,34.3635,54.10,48.90,82.52,80.00,4.00,0.00,30.05,M,10.00,M,CLR,M,M,M,M,M,M,M,M,KPMU 010955Z AUTO 08004KT 10SM CLR 12/09 A3005 RMK AO2 T01230094
PMU,2017-04-01 10:15,-89.8929,34.3635,53.80,48.70,82.81,70.00,4.00,0.00,30.06,M,10.00,M,CLR,M,M,M,M,M,M,M,M,KPMU 011015Z AUTO 07004KT 10SM CLR 12/09 A3006 RMK AO2 T01210093
PMU,2017-04-01 10:35,-89.8929,34.3635,53.80,48.70,82.81,70.00,5.00,0.00,30.06,M,10.00,M,CLR,M,M,M,M,M,M,M,M,KPMU 011035Z AUTO 07005KT 10SM CLR 12/09 A3006 RMK AO2 T01210093
PMU,2017-04-01 10:55,-89.8929,34.3635,53.60,48.40,82.48,70.00,5.00,0.00,30.06,M,10.00,M,CLR,M,M,M,M,M,M,M,M,KPMU 011055Z AUTO 07005KT 10SM CLR 12/09 A3006 RMK AO2 T01200091
PMU,2017-04-01 11:15,-89.8929,34.3635,53.10,48.40,84.01,70.00,4.00,0.00,30.07,M,10.00,M,CLR,M,M,M,M,M,M,M,M,KPMU 011115Z AUTO 07004KT 10SM CLR 12/09 A3007 RMK AO2 T01170091
PMU,2017-04-01 11:35,-89.8929,34.3635,53.10,48.20,83.38,70.00,4.00,0.00,30.08,M,10.00,M,CLR,M,M,M,M,M,M,M,M,KPMU 011135Z AUTO 07004KT 10SM CLR 12/09 A3008 RMK AO2 T01170090
PMU,2017-04-01 11:55,-89.8929,34.3635,52.70,48.40,85.25,60.00,4.00,0.00,30.09,M,10.00,M,CLR,M,M,M,M,M,M,M,M,KPMU 011155Z AUTO 06004KT 10SM CLR 12/09 A3009 RMK AO2 T01150091 10130 20105
PMU,2017-04-01 12:15,-89.8929,34.3635,52.90,48.70,85.58,60.00,5.00,0.00,30.09,M,10.00,M,CLR,M,M,M,M,M,M,M,M,KPMU 011215Z AUTO 06005KT 10SM CLR 12/09 A3009 RMK AO2 T01160093
PMU,2017-04-01 12:35,-89.8929,34.3635,53.60,48.60,83.10,60.00,8.00,0.00,30.10,M,10.00,M,CLR,M,M,M,M,M,M,M,M,KPMU 011235Z AUTO 06008KT 10SM CLR 12/09 A3010 RMK AO2 T01200092
PMU,2017-04-01 12:55,-89.8929,34.3635,54.50,48.40,79.81,60.00,8.00,0.00,30.11,M,10.00,M,CLR,M,M,M,M,M,M,M,M,KPMU 011255Z AUTO 06008KT 10SM CLR 13/09 A3011 RMK AO2 T01250091
PMU,2017-04-01 13:15,-89.8929,34.3635,55.00,48.70,79.26,70.00,9.00,0.00,30.11,M,10.00,M,CLR,M,M,M,M,M,M,M,M,KPMU 011315Z AUTO 07009KT 10SM CLR 13/09 A3011 RMK AO2 T01280093
PMU,2017-04-01 13:35,-89.8929,34.3635,55.80,48.70,76.99,60.00,8.00,0.00,30.12,M,10.00,14.00,CLR,M,M,M,M,M,M,M,M,KPMU 011335Z AUTO 06008G14KT 10SM CLR 13/09 A3012 RMK AO2 T01320093
PMU,2017-04-01 13:55,-89.8929,34.3635,56.70,48.90,75.08,50.00,9.00,0.00,30.12,M,10.00,M,CLR,M,M,M,M,M,M,M,M,KPMU 011355Z AUTO 05009KT 10SM CLR 14/09 A3012 RMK AO2 T01370094
PMU,2017-04-01 14:15,-89.8929,34.3635,57.40,49.50,74.87,50.00,6.00,0.00,30.13,M,10.00,M,CLR,M,M,M,M,M,M,M,M,KPMU 011415Z AUTO 05006KT 10SM CLR 14/10 A3013 RMK AO2 T01410097
PMU,2017-04-01 14:35,-89.8929,34.3635,58.60,50.00,73.05,50.00,5.00,0.00,30.13,M,10.00,M,CLR,M,M,M,M,M,M,M,M,KPMU 011435Z AUTO 05005KT 10SM CLR 15/10 A3013 RMK AO2 T01480100
PMU,2017-04-01 14:55,-89.8929,34.3635,60.30,50.20,69.26,40.00,7.00,0.00,30.13,M,10.00,M,CLR,M,M,M,M,M,M,M,M,KPMU 011455Z AUTO 04007KT 10SM CLR 16/10 A3013 RMK AO2 T01570101
PMU,2017-04-01 15:15,-89.8929,34.3635,61.50,49.80,65.40,60.00,6.00,0.00,30.13,M,10.00,M,CLR,M,M,M,M,M,M,M,M,KPMU 011515Z AUTO 06006KT 10SM CLR 16/10 A3013 RMK AO2 T01640099
PMU,2017-04-01 15:35,-89.8929,34.3635,62.60,50.20,63.85,50.00,6.00,0.00,30.13,M,10.00,M,CLR,M,M,M,M,M,M,M,M,KPMU 011535Z AUTO 05006KT 10SM CLR 17/10 A3013 RMK AO2 T01700101
PMU,2017-04-01 15:55,-89.8929,34.3635,64.40,51.40,62.67,70.00,4.00,0.00,30.13,M,10.00,M,CLR,M,M,M,M,M,M,M,M,KPMU 011555Z AUTO 07004KT 10SM CLR 18/11 A3013 RMK AO2 T01800108
PMU,2017-04-01 16:15,-89.8929,34.3635,65.80,51.30,59.46,50.00,4.00,0.00,30.14,M,10.00,M,CLR,M,M,M,M,M,M,M,M,KPMU 011615Z AUTO 05004KT 10SM CLR 19/11 A3014 RMK AO2 T01880107
PMU,2017-04-01 16:35,-89.8929,34.3635,66.40,50.90,57.38,60.00,4.00,0.00,30.13,M,10.00,M,CLR,M,M,M,M,M,M,M,M,KPMU 011635Z AUTO 06004KT 10SM CLR 19/11 A3013 RMK AO2 T01910105
PMU,2017-04-01 16:55,-89.8929,34.3635,67.50,50.70,54.83,70.00,3.00,0.00,30.13,M,10.00,M,CLR,M,M,M,M,M,M,M,M,KPMU 011655Z AUTO 07003KT 10SM CLR 20/10 A3013 RMK AO2 T01970104
PMU,2017-04-01 17:15,-89.8929,34.3635,68.50,51.30,54.17,40.00,4.00,0.00,30.13,M,10.00,M,CLR,M,M,M,M,M,M,M,M,KPMU 011715Z AUTO 04004KT 10SM CLR 20/11 A3013 RMK AO2 T02030107
PMU,2017-04-01 17:35,-89.8929,34.3635,70.90,51.30,49.90,60.00,3.00,0.00,30.12,M,10.00,M,CLR,M,M,M,M,M,M,M,M,KPMU 011735Z AUTO 06003KT 10SM CLR 22/11 A3012 RMK AO2 T02160107
PMU,2017-04-01 17:55,-89.8929,34.3635,72.00,50.40,46.49,20.00,4.00,0.00,30.12,M,10.00,M,CLR,M,M,M,M,M,M,M,M,KPMU 011755Z AUTO 02004KT 10SM CLR 22/10 A3012 RMK AO2 T02220102 10222 20115
PMU,2017-04-01 18:15,-89.8929,34.3635,73.40,49.50,42.89,60.00,4.00,0.00,30.12,M,10.00,M,CLR,M,M,M,M,M,M,M,M,KPMU 011815Z AUTO 06004KT 10SM CLR 23/10 A3012 RMK AO2 T02300097
PMU,2017-04-01 18:35,-89.8929,34.3635,74.10,49.80,42.36,100.00,4.00,0.00,30.11,M,10.00,M,CLR,M,M,M,M,M,M,M,M,KPMU 011835Z AUTO 10004KT 10SM CLR 23/10 A3011 RMK AO2 T02340099
PMU,2017-04-01 18:55,-89.8929,34.3635,74.50,49.80,41.80,0.00,0.00,0.00,30.10,M,10.00,M,CLR,M,M,M,M,M,M,M,M,KPMU 011855Z AUTO 00000KT 10SM CLR 24/10 A3010 RMK AO2 T02360099
PMU,2017-04-01 19:15,-89.8929,34.3635,75.00,51.30,43.46,70.00,3.00,0.00,30.09,M,10.00,M,CLR,M,M,M,M,M,M,M,M,KPMU 011915Z AUTO 07003KT 10SM CLR 24/11 A3009 RMK AO2 T02390107
PMU,2017-04-01 19:35,-89.8929,34.3635,74.70,50.70,42.93,100.00,5.00,0.00,30.09,M,10.00,M,CLR,M,M,M,M,M,M,M,M,KPMU 011935Z AUTO 10005KT 10SM CLR 24/10 A3009 RMK AO2 T02370104
PMU,2017-04-01 19:55,-89.8929,34.3635,76.10,51.60,42.36,90.00,3.00,0.00,30.08,M,10.00,M,CLR,M,M,M,M,M,M,M,M,KPMU 011955Z AUTO 09003KT 10SM CLR 25/11 A3008 RMK AO2 T02450109
PMU,2017-04-01 20:15,-89.8929,34.3635,77.90,51.40,39.61,70.00,5.00,0.00,30.08,M,10.00,M,CLR,M,M,M,M,M,M,M,M,KPMU 012015Z AUTO 07005KT 10SM CLR 26/11 A3008 RMK AO2 T02550108
PMU,2017-04-01 20:35,-89.8929,34.3635,77.20,51.10,40.09,70.00,5.00,0.00,30.07,M,10.00,M,CLR,M,M,M,M,M,M,M,M,KPMU 012035Z AUTO 07005KT 10SM CLR 25/11 A3007 RMK AO2 T02510106
PMU,2017-04-01 20:55,-89.8929,34.3635,77.00,51.30,40.66,0.00,0.00,0.00,30.07,M,10.00,M,CLR,M,M,M,M,M,M,M,M,KPMU 012055Z AUTO 00000KT 10SM CLR 25/11 A3007 RMK AO2 T02500107
PMU,2017-04-01 21:15,-89.8929,34.3635,77.50,50.50,38.82,110.00,3.00,0.00,30.07,M,10.00,M,CLR,M,M,M,M,M,M,M,M,KPMU 012115Z AUTO 11003KT 10SM CLR 25/10 A3007 RMK AO2 T02530103
PMU,2017-04-01 21:35,-89.8929,34.3635,77.70,52.00,40.77,50.00,3.00,0.00,30.06,M,10.00,M,CLR,M,M,M,M,M,M,M,M,KPMU 012135Z AUTO 05003KT 10SM CLR 25/11 A3006 RMK AO2 T02540111
PMU,2017-04-01 21:55,-89.8929,34.3635,77.90,51.10,39.17,40.00,3.00,0.00,30.06,M,10.00,M,CLR,M,M,M,M,M,M,M,M,KPMU 012155Z AUTO 04003KT 10SM CLR 26/11 A3006 RMK AO2 T02550106
PMU,2017-04-01 22:15,-89.8929,34.3635,77.90,50.50,38.31,60.00,4.00,0.00,30.07,M,10.00,M,CLR,M,M,M,M,M,M,M,M,KPMU 012215Z AUTO 06004KT 10SM CLR 26/10 A3007 RMK AO2 T02550103
PMU,2017-04-01 22:35,-89.8929,34.3635,77.90,50.70,38.60,70.00,4.00,0.00,30.06,M,10.00,M,CLR,M,M,M,M,M,M,M,M,KPMU 012235Z AUTO 07004KT 10SM CLR 26/10 A3006 RMK AO2 T02550104
PMU,2017-04-01 22:55,-89.8929,34.3635,77.50,51.60,40.44,60.00,5.00,0.00,30.06,M,10.00,M,CLR,M,M,M,M,M,M,M,M,KPMU 012255Z AUTO 06005KT 10SM CLR 25/11 A3006 RMK AO2 T02530109
PMU,2017-04-01 23:15,-89.8929,34.3635,75.20,51.10,42.85,50.00,5.00,0.00,30.06,M,10.00,M,CLR,M,M,M,M,M,M,M,M,KPMU 012315Z AUTO 05005KT 10SM CLR 24/11 A3006 RMK AO2 T02400106
PMU,2017-04-01 23:35,-89.8929,34.3635,75.60,51.10,42.28,60.00,4.00,0.00,30.06,M,10.00,M,CLR,M,M,M,M,M,M,M,M,KPMU 012335Z AUTO 06004KT 10SM CLR 24/11 A3006 RMK AO2 T02420106
PMU,2017-04-01 23:55,-89.8929,34.3635,73.60,52.00,46.74,60.00,4.00,0.00,30.06,M,10.00,M,CLR,M,M,M,M,M,M,M,M,KPMU 012355Z AUTO 06004KT 10SM CLR 23/11 A3006 RMK AO2 T02310111 10257 20221
