#DEBUG: Format Typ    -> comma
#DEBUG: Time Period   -> 2017-04-01 00:00:00+00:00 2017-04-02 00:00:00+00:00
#DEBUG: Time Zone     -> Etc/UTC
#DEBUG: Data Contact   -> daryl herzmann akrherz@iastate.edu 515-294-5978
#DEBUG: Entries Found -> -1
station,valid,lon,lat,tmpf, dwpf, relh, drct, sknt, p01i, alti, mslp, vsby, gust, skyc1, skyc2, skyc3, skyc4, skyl1, skyl2, skyl3, skyl4, presentwx, metar
PSK,2017-04-01 00:15,-80.6785,37.1373,53.60,43.00,67.21,280.00,8.00,0.00,29.79,M,10.00,15.00,BKN,BKN,BKN,M,3200.00,3900.00,4500.00,M,M,KPSK 010015Z AUTO 28008G15KT 10SM BKN032 BKN039 BKN045 12/06 A2979 RMK AO2 T01200061
PSK,2017-04-01 00:35,-80.6785,37.1373,53.60,43.30,67.99,290.00,11.00,0.00,29.80,M,10.00,17.00,OVC,M,M,M,3200.00,M,M,M,M,KPSK 010035Z AUTO 29011G17KT 10SM OVC032 12/06 A2980 RMK AO2 T01200063
PSK,2017-04-01 00:55,-80.6785,37.1373,52.90,43.70,70.84,280.00,12.00,0.00,29.81,M,10.00,22.00,BKN,OVC,M,M,3000.00,3500.00,M,M,M,KPSK 010055Z AUTO 28012G22KT 10SM BKN030 OVC035 12/07 A2981 RMK AO2 T01160065
PSK,2017-04-01 01:15,-80.6785,37.1373,53.20,43.70,70.06,280.00,9.00,0.00,29.81,M,10.00,17.00,BKN,OVC,M,M,3000.00,3400.00,M,M,M,KPSK 010115Z AUTO 28009G17KT 10SM BKN030 OVC034 12/07 A2981 RMK AO2 T01180065
PSK,2017-04-01 01:35,-80.6785,37.1373,52.70,43.90,71.91,280.00,13.00,0.00,29.82,M,10.00,17.00,OVC,M,M,M,2800.00,M,M,M,M,KPSK 010135Z AUTO 28013G17KT 10SM OVC028 12/07 A2982 RMK AO2 T01150066
PSK,2017-04-01 01:55,-80.6785,37.1373,52.50,44.80,74.97,280.00,9.00,0.00,29.83,M,10.00,16.00,OVC,M,M,M,2600.00,M,M,M,M,KPSK 010155Z AUTO 28009G16KT 10SM OVC026 11/07 A2983 RMK AO2 T01140071
PSK,2017-04-01 02:15,-80.6785,37.1373,52.00,45.10,77.24,270.00,12.00,0.00,29.84,M,10.00,16.00,OVC,M,M,M,2400.00,M,M,M,M,KPSK 010215Z AUTO 27012G16KT 10SM OVC024 11/07 A2984 RMK AO2 T01110073
PSK,2017-04-01 02:35,-80.6785,37.1373,52.70,44.60,73.85,280.00,14.00,0.00,29.84,M,10.00,19.00,OVC,M,M,M,2400.00,M,M,M,M,KPSK 010235Z AUTO 28014G19KT 10SM OVC024 12/07 A2984 RMK AO2 T01150070
PSK,2017-04-01 02:55,-80.6785,37.1373,52.70,44.20,72.73,290.00,10.00,0.00,29.84,M,10.00,15.00,OVC,M,M,M,2600.00,M,M,M,M,KPSK 010255Z AUTO 29010G15KT 10SM OVC026 12/07 A2984 RMK AO2 T01150068
PSK,2017-04-01 03:15,-80.6785,37.1373,52.50,44.60,74.40,270.00,10.00,0.00,29.84,M,10.00,M,OVC,M,M,M,2600.00,M,M,M,M,KPSK 010315Z AUTO 27010KT 10SM OVC026 11/07 A2984 RMK AO2 T01140070
PSK,2017-04-01 03:35,-80.6785,37.1373,52.20,45.10,76.67,280.00,10.00,0.00,29.84,M,10.00,M,OVC,M,M,M,2400.00,M,M,M,M,KPSK 010335Z AUTO 28010KT 10SM OVC024 11/07 A2984 RMK AO2 T01120073
PSK,2017-04-01 03:55,-80.6785,37.1373,52.00,45.50,78.42,280.00,14.00,0.00,29.84,M,10.00,18.00,OVC,M,M,M,2200.00,M,M,M,M,KPSK 010355Z AUTO 28014G18KT 10SM OVC022 11/08 A2984 RMK AO2 T01110075
PSK,2017-04-01 04:15,-80.6785,37.1373,52.00,45.50,78.42,270.00,10.00,0.00,29.84,M,10.00,18.00,OVC,M,M,M,2200.00,M,M,M,M,KPSK 010415Z AUTO 27010G18KT 10SM OVC022 11/08 A2984 RMK AO2 T01110075
PSK,2017-04-01 04:35,-80.6785,37.1373,52.00,45.50,78.42,280.00,19.00,0.00,29.84,M,10.00,24.00,OVC,M,M,M,2200.00,M,M,M,M,KPSK 010435Z AUTO 28019G24KT 10SM OVC022 11/08 A2984 RMK AO2 T01110075
PSK,2017-04-01 04:55,-80.6785,37.1373,52.20,45.30,77.25,280.00,13.00,0.00,29.84,M,10.00,20.00,OVC,M,M,M,2200.00,M,M,M,M,KPSK 010455Z AUTO 28013G20KT 10SM OVC022 11/07 A2984 RMK AO2 T01120074
PSK,2017-04-01 05:15,-80.6785,37.1373,52.00,45.30,77.82,280.00,12.00,0.00,29.84,M,10.00,19.00,OVC,M,M,M,2400.00,M,M,M,M,KPSK 010515Z AUTO 28012G19KT 10SM OVC024 11/07 A2984 RMK AO2 T01110074
PSK,2017-04-01 05:35,-80.6785,37.1373,52.00,45.00,76.94,280.00,10.00,0.00,29.84,M,10.00,M,BKN,OVC,M,M,2200.00,2800.00,M,M,M,KPSK 010535Z AUTO 28010KT 10SM BKN022 OVC028 11/07 A2984 RMK AO2 T01110072
PSK,2017-04-01 05:55,-80.6785,37.1373,51.80,45.50,79.00,280.00,9.00,0.00,29.85,M,10.00,19.00,OVC,M,M,M,2400.00,M,M,M,M,KPSK 010555Z AUTO 28009G19KT 10SM OVC024 11/08 A2985 RMK AO2 T01100075 10121 20110 401770100
PSK,2017-04-01 06:15,-80.6785,37.1373,52.00,45.30,77.82,300.00,11.00,0.00,29.84,M,10.00,14.00,OVC,M,M,M,2200.00,M,M,M,M,KPSK 010615Z AUTO 30011G14KT 10SM OVC022 11/07 A2984 RMK AO2 T01110074
PSK,2017-04-01 06:35,-80.6785,37.1373,51.80,45.00,77.51,280.00,14.00,0.00,29.85,M,10.00,17.00,OVC,M,M,M,2200.00,M,M,M,M,KPSK 010635Z AUTO 28014G17KT 10SM OVC022 11/07 A2985 RMK AO2 T01100072
PSK,2017-04-01 06:55,-80.6785,37.1373,51.80,45.00,77.51,290.00,14.00,0.00,29.85,M,10.00,M,BKN,OVC,M,M,2200.00,2900.00,M,M,M,KPSK 010655Z AUTO 29014KT 10SM BKN022 OVC029 11/07 A2985 RMK AO2 T01100072
PSK,2017-04-01 07:15,-80.6785,37.1373,51.80,45.00,77.51,290.00,13.00,0.00,29.86,M,10.00,17.00,BKN,OVC,M,M,2200.00,2800.00,M,M,M,KPSK 010715Z AUTO 29013G17KT 10SM BKN022 OVC028 11/07 A2986 RMK AO2 T01100072
PSK,2017-04-01 07:35,-80.6785,37.1373,51.80,44.20,75.19,280.00,8.00,0.00,29.87,M,10.00,18.00,OVC,M,M,M,2400.00,M,M,M,M,KPSK 010735Z AUTO 28008G18KT 10SM OVC024 11/07 A2987 RMK AO2 T01100068
PSK,2017-04-01 07:55,-80.6785,37.1373,51.10,45.00,79.54,270.00,10.00,0.00,29.88,M,10.00,M,BKN,OVC,M,M,2400.00,3400.00,M,M,M,KPSK 010755Z AUTO 27010KT 10SM BKN024 OVC034 11/07 A2988 RMK AO2 T01060072
PSK,2017-04-01 08:15,-80.6785,37.1373,51.10,45.50,81.07,280.00,9.00,0.00,29.89,M,10.00,M,BKN,BKN,OVC,M,2200.00,2700.00,3300.00,M,M,KPSK 010815Z AUTO 28009KT 10SM BKN022 BKN027 OVC033 11/08 A2989 RMK AO2 T01060075
PSK,2017-04-01 08:35,-80.6785,37.1373,51.10,44.80,78.94,270.00,10.00,0.00,29.90,M,10.00,15.00,SCT,BKN,OVC,M,2200.00,2800.00,3600.00,M,M,KPSK 010835Z AUTO 27010G15KT 10SM SCT022 BKN028 OVC036 11/07 A2990 RMK AO2 T01060071
PSK,2017-04-01 08:55,-80.6785,37.1373,51.40,44.20,76.30,270.00,11.00,0.00,29.91,M,10.00,22.00,BKN,OVC,M,M,2600.00,3400.00,M,M,M,KPSK 010855Z AUTO 27011G22KT 10SM BKN026 OVC034 11/07 A2991 RMK AO2 T01080068
PSK,2017-04-01 09:10,-80.6785,37.1373,51.40,43.90,75.44,290.00,14.00,0.00,29.91,M,10.00,20.00,BKN,OVC,M,M,2600.00,3200.00,M,M,M,KPSK 010910Z AUTO 29014G20KT 10SM BKN026 OVC032 11/07 A2991 RMK AO2 T01080066
PSK,2017-04-01 09:35,-80.6785,37.1373,51.30,43.90,75.71,270.00,5.00,0.00,29.92,M,10.00,17.00,BKN,OVC,M,M,2600.00,3300.00,M,M,M,KPSK 010935Z AUTO 27005G17KT 10SM BKN026 OVC033 11/07 A2992 RMK AO2 T01070066
PSK,2017-04-01 09:55,-80.6785,37.1373,50.40,44.80,81.02,250.00,8.00,0.00,29.93,M,10.00,M,OVC,M,M,M,2200.00,M,M,M,M,KPSK 010955Z AUTO 25008KT 10SM OVC022 10/07 A2993 RMK AO2 T01020071
PSK,2017-04-01 10:15,-80.6785,37.1373,50.20,44.80,81.62,270.00,5.00,0.00,29.94,M,10.00,M,OVC,M,M,M,2200.00,M,M,M,M,KPSK 011015Z AUTO 27005KT 10SM OVC022 10/07 A2994 RMK AO2 T01010071
PSK,2017-04-01 10:35,-80.6785,37.1373,50.70,44.10,78.01,280.00,9.00,0.00,29.94,M,10.00,14.00,BKN,OVC,M,M,2400.00,2900.00,M,M,M,KPSK 011035Z AUTO 28009G14KT 10SM BKN024 OVC029 10/07 A2994 RMK AO2 T01040067
PSK,2017-04-01 10:55,-80.6785,37.1373,51.10,43.00,73.69,310.00,9.00,0.00,29.95,M,10.00,17.00,OVC,M,M,M,2700.00,M,M,M,M,KPSK 011055Z AUTO 31009G17KT 290V350 10SM OVC027 11/06 A2995 RMK AO2 T01060061
PSK,2017-04-01 11:15,-80.6785,37.1373,51.10,42.80,73.13,290.00,5.00,0.00,29.96,M,10.00,M,OVC,M,M,M,2700.00,M,M,M,M,KPSK 011115Z AUTO 29005KT 10SM OVC027 11/06 A2996 RMK AO2 T01060060
PSK,2017-04-01 11:35,-80.6785,37.1373,51.30,42.40,71.48,280.00,7.00,0.00,29.96,M,10.00,M,OVC,M,M,M,2500.00,M,M,M,M,KPSK 011135Z AUTO 28007KT 10SM OVC025 11/06 A2996 RMK AO2 T01070058
PSK,2017-04-01 11:55,-80.6785,37.1373,51.10,42.80,73.13,300.00,9.00,0.00,29.98,M,10.00,14.00,OVC,M,M,M,2500.00,M,M,M,M,KPSK 011155Z AUTO 30009G14KT 10SM OVC025 11/06 A2998 RMK AO2 70008 T01060060 10111 20101
PSK,2017-04-01 12:15,-80.6785,37.1373,50.90,43.00,74.24,280.00,8.00,0.00,29.98,M,10.00,M,OVC,M,M,M,2500.00,M,M,M,M,KPSK 011215Z AUTO 28008KT 250V310 10SM OVC025 11/06 A2998 RMK AO2 T01050061
PSK,2017-04-01 12:35,-80.6785,37.1373,51.80,42.80,71.26,290.00,10.00,0.00,29.99,M,10.00,14.00,OVC,M,M,M,2500.00,M,M,M,M,KPSK 011235Z AUTO 29010G14KT 10SM OVC025 11/06 A2999 RMK AO2 T01100060
PSK,2017-04-01 12:55,-80.6785,37.1373,52.70,42.60,68.41,300.00,14.00,0.00,29.98,M,10.00,21.00,OVC,M,M,M,2500.00,M,M,M,M,KPSK 011255Z AUTO 30014G21KT 10SM OVC025 12/06 A2998 RMK AO2 T01150059
PSK,2017-04-01 13:15,-80.6785,37.1373,52.20,42.40,69.15,310.00,11.00,0.00,29.98,M,10.00,17.00,OVC,M,M,M,2700.00,M,M,M,M,KPSK 011315Z AUTO 31011G17KT 10SM OVC027 11/06 A2998 RMK AO2 T01120058
PSK,2017-04-01 13:35,-80.6785,37.1373,52.50,42.80,69.45,290.00,7.00,0.00,29.99,M,10.00,15.00,OVC,M,M,M,2700.00,M,M,M,M,KPSK 011335Z AUTO 29007G15KT 10SM OVC027 11/06 A2999 RMK AO2 T01140060
PSK,2017-04-01 13:55,-80.6785,37.1373,52.70,42.60,68.41,330.00,5.00,0.00,30.00,M,10.00,16.00,OVC,M,M,M,2700.00,M,M,M,M,KPSK 011355Z AUTO 33005G16KT 10SM OVC027 12/06 A3000 RMK AO2 T01150059
PSK,2017-04-01 14:15,-80.6785,37.1373,53.20,42.60,67.17,310.00,5.00,0.00,30.00,M,10.00,M,OVC,M,M,M,2700.00,M,M,M,M,KPSK 011415Z AUTO 31005KT 10SM OVC027 12/06 A3000 RMK AO2 T01180059
PSK,2017-04-01 14:35,-80.6785,37.1373,53.60,42.80,66.70,290.00,8.00,0.00,30.02,M,10.00,M,OVC,M,M,M,2700.00,M,M,M,M,KPSK 011435Z AUTO 29008KT 10SM OVC027 12/06 A3002 RMK AO2 T01200060
PSK,2017-04-01 14:55,-80.6785,37.1373,53.60,42.80,66.70,310.00,9.00,0.00,30.03,M,10.00,15.00,OVC,M,M,M,2700.00,M,M,M,M,KPSK 011455Z AUTO 31009G15KT 10SM OVC027 12/06 A3003 RMK AO2 T01200060
PSK,2017-04-01 15:15,-80.6785,37.1373,53.10,42.80,67.93,280.00,10.00,0.00,30.04,M,10.00,14.00,OVC,M,M,M,2700.00,M,M,M,M,KPSK 011515Z AUTO 28010G14KT 10SM OVC027 12/06 A3004 RMK AO2 T01170060
PSK,2017-04-01 15:35,-80.6785,37.1373,52.90,43.50,70.30,280.00,12.00,0.00,30.05,M,10.00,M,OVC,M,M,M,2500.00,M,M,M,M,KPSK 011535Z AUTO 28012KT 10SM OVC025 12/06 A3005 RMK AO2 T01160064
PSK,2017-04-01 15:55,-80.6785,37.1373,52.70,43.50,70.81,330.00,7.00,0.00,30.06,M,10.00,M,OVC,M,M,M,2500.00,M,M,M,M,KPSK 011555Z AUTO 33007KT 10SM OVC025 12/06 A3006 RMK AO2 T01150064
PSK,2017-04-01 16:15,-80.6785,37.1373,54.00,44.10,69.09,290.00,11.00,0.00,30.05,M,10.00,17.00,OVC,M,M,M,2500.00,M,M,M,M,KPSK 011615Z AUTO 29011G17KT 10SM OVC025 12/07 A3005 RMK AO2 T01220067
PSK,2017-04-01 16:35,-80.6785,37.1373,55.20,44.40,66.89,280.00,8.00,0.00,30.05,M,10.00,M,BKN,OVC,M,M,2700.00,3500.00,M,M,M,KPSK 011635Z AUTO 28008KT 10SM BKN027 OVC035 13/07 A3005 RMK AO2 T01290069
PSK,2017-04-01 16:55,-80.6785,37.1373,54.50,43.30,65.79,340.00,8.00,0.00,30.05,M,10.00,M,BKN,OVC,M,M,2700.00,3500.00,M,M,M,KPSK 011655Z AUTO 34008KT 10SM BKN027 OVC035 13/06 A3005 RMK AO2 T01250063
PSK,2017-04-01 17:15,-80.6785,37.1373,55.80,44.40,65.45,280.00,10.00,0.00,30.06,M,10.00,18.00,BKN,OVC,M,M,2700.00,3700.00,M,M,M,KPSK 011715Z AUTO 28010G18KT 10SM BKN027 OVC037 13/07 A3006 RMK AO2 T01320069
PSK,2017-04-01 17:35,-80.6785,37.1373,54.90,44.20,67.11,290.00,10.00,0.00,30.06,M,10.00,18.00,SCT,OVC,M,M,2700.00,3500.00,M,M,M,KPSK 011735Z AUTO 29010G18KT 10SM SCT027 OVC035 13/07 A3006 RMK AO2 T01270068
PSK,2017-04-01 17:55,-80.6785,37.1373,56.10,43.50,62.55,310.00,16.00,0.00,30.06,M,10.00,M,SCT,BKN,M,M,2700.00,3300.00,M,M,M,KPSK 011755Z AUTO 31016KT 10SM SCT027 BKN033 13/06 A3006 RMK AO2 T01340064 10138 20105
PSK,2017-04-01 18:15,-80.6785,37.1373,56.10,43.30,62.07,320.00,12.00,0.00,30.06,M,10.00,19.00,BKN,BKN,M,M,3100.00,3600.00,M,M,M,KPSK 011815Z AUTO 32012G19KT 10SM BKN031 BKN036 13/06 A3006 RMK AO2 T01340063
PSK,2017-04-01 18:35,-80.6785,37.1373,56.30,43.30,61.63,330.00,13.00,0.00,30.06,M,10.00,M,BKN,M,M,M,3100.00,M,M,M,M,KPSK 011835Z AUTO 33013KT 10SM BKN031 14/06 A3006 RMK AO2 T01350063
PSK,2017-04-01 18:55,-80.6785,37.1373,55.00,42.40,62.41,330.00,11.00,0.00,30.07,M,10.00,M,OVC,M,M,M,3100.00,M,M,M,M,KPSK 011855Z AUTO 33011KT 10SM OVC031 13/06 A3007 RMK AO2 T01280058
PSK,2017-04-01 19:15,-80.6785,37.1373,54.90,42.80,63.61,330.00,10.00,0.00,30.07,M,10.00,16.00,OVC,M,M,M,3100.00,M,M,M,M,KPSK 011915Z AUTO 33010G16KT 300V360 10SM OVC031 13/06 A3007 RMK AO2 T01270060
PSK,2017-04-01 19:35,-80.6785,37.1373,54.50,42.60,64.05,330.00,9.00,0.00,30.07,M,10.00,M,OVC,M,M,M,3100.00,M,M,M,M,KPSK 011935Z AUTO 33009KT 10SM OVC031 13/06 A3007 RMK AO2 T01250059
PSK,2017-04-01 19:55,-80.6785,37.1373,54.50,42.10,62.83,310.00,11.00,0.00,30.06,M,10.00,14.00,OVC,M,M,M,3100.00,M,M,M,M,KPSK 011955Z AUTO 31011G14KT 10SM OVC031 13/06 A3006 RMK AO2 T01250056
PSK,2017-04-01 20:15,-80.6785,37.1373,54.00,42.60,65.23,320.00,10.00,0.00,30.07,M,10.00,M,OVC,M,M,M,3100.00,M,M,M,M,KPSK 012015Z AUTO 32010KT 10SM OVC031 12/06 A3007 RMK AO2 T01220059
PSK,2017-04-01 20:35,-80.6785,37.1373,54.30,42.40,64.02,290.00,15.00,0.00,30.08,M,10.00,19.00,OVC,M,M,M,2900.00,M,M,M,M,KPSK 012035Z AUTO 29015G19KT 10SM OVC029 12/06 A3008 RMK AO2 T01240058
PSK,2017-04-01 20:55,-80.6785,37.1373,53.10,41.50,64.62,300.00,12.00,0.00,30.08,M,10.00,M,OVC,M,M,M,2900.00,M,M,M,M,KPSK 012055Z AUTO 30012KT 10SM OVC029 12/05 A3008 RMK AO2 T01170053
PSK,2017-04-01 21:15,-80.6785,37.1373,52.70,42.10,67.11,310.00,14.00,0.00,30.09,M,10.00,18.00,OVC,M,M,M,2700.00,M,M,M,M,KPSK 012115Z AUTO 31014G18KT 10SM OVC027 12/06 A3009 RMK AO2 T01150056
PSK,2017-04-01 21:35,-80.6785,37.1373,52.00,41.70,67.81,300.00,12.00,0.00,30.09,M,10.00,16.00,OVC,M,M,M,2700.00,M,M,M,M,KPSK 012135Z AUTO 30012G16KT 10SM OVC027 11/05 A3009 RMK AO2 T01110054
PSK,2017-04-01 21:55,-80.6785,37.1373,51.30,42.10,70.66,320.00,12.00,0.00,30.10,M,10.00,M,OVC,M,M,M,2500.00,M,M,M,M,KPSK 012155Z AUTO 32012KT 10SM OVC025 11/06 A3010 RMK AO2 T01070056
PSK,2017-04-01 22:15,-80.6785,37.1373,50.50,41.20,70.30,320.00,14.00,0.00,30.11,M,10.00,M,OVC,M,M,M,2500.00,M,M,M,M,KPSK 012215Z AUTO 32014KT 10SM OVC025 10/05 A3011 RMK AO2 T01030051
PSK,2017-04-01 22:35,-80.6785,37.1373,49.80,41.50,73.00,320.00,11.00,0.00,30.12,M,10.00,M,BKN,OVC,M,M,2300.00,2700.00,M,M,M,KPSK 012235Z AUTO 32011KT 10SM BKN023 OVC027 10/05 A3012 RMK AO2 T00990053
PSK,2017-04-01 22:55,-80.6785,37.1373,49.10,39.90,70.42,310.00,17.00,0.00,30.12,M,10.00,23.00,OVC,M,M,M,2300.00,M,M,M,M,KPSK 012255Z AUTO 31017G23KT 10SM OVC023 10/04 A3012 RMK AO2 T00950044
PSK,2017-04-01 23:15,-80.6785,37.1373,48.70,40.10,72.04,300.00,11.00,0.00,30.13,M,10.00,17.00,OVC,M,M,M,2300.00,M,M,M,M,KPSK 012315Z AUTO 30011G17KT 10SM OVC023 09/05 A3013 RMK AO2 T00930045
PSK,2017-04-01 23:35,-80.6785,37.1373,48.70,39.70,70.93,290.00,7.00,0.00,30.14,M,10.00,M,OVC,M,M,M,2500.00,M,M,M,M,KPSK 012335Z AUTO 29007KT 10SM OVC025 09/04 A3014 RMK AO2 T00930043
PSK,2017-04-01 23:55,-80.6785,37.1373,48.20,39.60,71.99,300.00,13.00,0.00,30.15,M,10.00,M,OVC,M,M,M,2500.00,M,M,M,M,KPSK 012355Z AUTO 30013KT 10SM OVC025 09/04 A3015 RMK AO2 T00900042 10135 20090
