#DEBUG: Format Typ    -> comma
#DEBUG: Time Period   -> 2017-04-01 00:00:00+00:00 2017-04-02 00:00:00+00:00
#DEBUG: Time Zone     -> Etc/UTC
#DEBUG: Data Contact   -> daryl herzmann akrherz@iastate.edu 515-294-5978
#DEBUG: Entries Found -> -1
station,valid,lon,lat,tmpf, dwpf, relh, drct, sknt, p01i, alti, mslp, vsby, gust, skyc1, skyc2, skyc3, skyc4, skyl1, skyl2, skyl3, skyl4, presentwx, metar
PSM,2017-04-01 00:16,-70.8233,43.0779,32.00,30.20,92.97,60.00,5.00,0.00,30.08,M,0.75,M,BKN,BKN,OVC,M,300.00,700.00,1500.00,M,-SN BR,KPSM 010016Z 06005KT 3/4SM R16/P6000FT -SN BR BKN003 BKN007 OVC015 00/M01 A3008 RMK AO2A
PSM,2017-04-01 00:58,-70.8233,43.0779,32.70,30.90,92.99,70.00,8.00,0.02,30.08,1019.10,0.75,M,BKN,OVC,M,M,300.00,1100.00,M,M,-SN BR,KPSM 010058Z 07008KT 3/4SM R16/P6000FT -SN BR BKN003 OVC011 00/M01 A3008 RMK AO2A SLP191 P0002 T00041006
PSM,2017-04-01 01:58,-70.8233,43.0779,32.50,31.10,94.51,70.00,6.00,0.02,30.07,1018.60,0.75,M,BKN,OVC,M,M,300.00,800.00,M,M,-SN BR,KPSM 010158Z 07006KT 3/4SM R16/P6000FT -SN BR BKN003 OVC008 00/M00 A3007 RMK A02A SLP186 P0002 T00031005 0214
PSM,2017-04-01 02:25,-70.8233,43.0779,32.00,32.00,100.00,70.00,9.00,0.00,30.04,M,0.50,M,OVC,M,M,M,300.00,M,M,M,SN FG,KPSM 010225Z 07009KT 1/2SM R16/5500FT SN FG OVC003 00/M00 A3004 RMK AO2A PRESFR
PSM,2017-04-01 02:58,-70.8233,43.0779,32.50,31.30,95.28,80.00,10.00,0.11,30.03,1017.40,0.50,M,OVC,M,M,M,300.00,M,M,M,SN FG,KPSM 010258Z 08010KT 1/2SM R16/P6000FT SN FG OVC003 00/M00 A3003 RMK AO2A SLP174 P0011 60015 T00031004
PSM,2017-04-01 03:58,-70.8233,43.0779,32.70,31.50,95.28,80.00,12.00,0.08,30.00,1016.30,0.75,M,BKN,OVC,M,M,300.00,800.00,M,M,-SN BR,KPSM 010358Z 08012KT 3/4SM R16/P6000FT -SN BR BKN003 OVC008 00/M00 A3000 RMK AO2A SLP163 P0008 T00041003
PSM,2017-04-01 04:58,-70.8233,43.0779,32.50,31.50,96.05,70.00,9.00,0.08,30.00,1016.30,0.75,M,BKN,OVC,M,M,300.00,800.00,M,M,-SN BR,KPSM 010458Z 07009KT 3/4SM R16/P6000FT -SN BR BKN003 OVC008 00/00 A3000 RMK AO2A SLP163 P0008 T00031003 400370003
PSM,2017-04-01 05:58,-70.8233,43.0779,32.50,31.50,96.05,70.00,9.00,0.10,29.97,1015.20,0.62,M,BKN,OVC,M,M,300.00,600.00,M,M,-SN BR,KPSM 010558Z 07009KT 5/8SM R16/P6000FT -SN BR BKN003 OVC006 00/M00 A2997 RMK AO2A SLP152 P0010 60041 4/004 T00031003 10005 20003 56024
PSM,2017-04-01 06:58,-70.8233,43.0779,32.70,31.60,95.67,60.00,9.00,0.07,29.95,1014.50,0.75,M,BKN,OVC,M,M,300.00,700.00,M,M,-SN BR,KPSM 010658Z 06009KT 3/4SM R16/P6000FT -SN BR BKN003 OVC007 00/M00 A2995 RMK AO2A SLP145 P0007 T00041002
PSM,2017-04-01 07:58,-70.8233,43.0779,32.70,31.60,95.67,60.00,12.00,0.04,29.92,1013.40,0.75,M,BKN,OVC,M,M,300.00,800.00,M,M,-SN BR,KPSM 010758Z 06012KT 3/4SM R16/P6000FT -SN BR BKN003 OVC008 00/M00 A2992 RMK AO2A SLP134 P0004 T00041002
PSM,2017-04-01 08:58,-70.8233,43.0779,32.90,31.80,95.67,50.00,13.00,0.06,29.89,1012.50,0.75,19.00,OVC,M,M,M,300.00,M,M,M,-SN BR,KPSM 010858Z 05013G19KT 3/4SM R34/P6000FT -SN BR OVC003 01/M00 A2989 RMK AO2A SLP125 P0006 60017 T00051001 58027
PSM,2017-04-01 09:58,-70.8233,43.0779,33.10,31.80,94.90,40.00,13.00,0.03,29.87,1011.90,2.00,21.00,OVC,M,M,M,300.00,M,M,M,-SN BR,KPSM 010958Z 04013G21KT 2SM -SN BR OVC003 01/M00 A2987 RMK AO2A SLP119 P0003 T00061001
PSM,2017-04-01 10:21,-70.8233,43.0779,33.80,32.00,93.03,50.00,12.00,0.00,29.88,M,2.00,M,OVC,M,M,M,400.00,M,M,M,-SNPL BR,KPSM 011021Z 05012KT 2SM -SNPL BR OVC004 01/00 A2988 RMK AO2A PLB20
PSM,2017-04-01 10:58,-70.8233,43.0779,33.40,32.20,95.29,50.00,10.00,0.05,29.88,1012.20,1.50,17.00,OVC,M,M,M,400.00,M,M,M,-SN BR,KPSM 011058Z 05010G17KT 1 1/2SM -SN BR OVC004 01/00 A2988 RMK AO2A PLB20E50 SLP122 P0005 T00080001
PSM,2017-04-01 11:58,-70.8233,43.0779,33.30,31.60,93.39,50.00,12.00,0.07,29.87,1011.80,1.00,18.00,OVC,M,M,M,200.00,M,M,M,-SN BR,KPSM 011158Z 05012G18KT 1SM R34/3500FT -SN BR OVC002 01/00 A2987 RMK AO2A SLP118 P0007 60032 70074 4/006 T00071002 10008 20003
PSM,2017-04-01 12:36,-70.8233,43.0779,32.00,32.00,100.00,40.00,13.00,0.00,29.87,M,1.00,18.00,BKN,OVC,M,M,500.00,1200.00,M,M,-SN BR,KPSM 011236Z 04013G18KT 1SM R34/P6000FT -SN BR BKN005 OVC012 00/00 A2987 RMK AO2A
PSM,2017-04-01 12:58,-70.8233,43.0779,33.30,31.60,93.39,50.00,14.00,0.05,29.87,1011.80,1.00,23.00,BKN,OVC,M,M,600.00,1300.00,M,M,-SN BR,KPSM 011258Z 05014G23KT 1SM R34/4500FT -SN BR BKN006 OVC013 01/00 A2987 RMK AO2A PK WND 04026/41 SLP118 P0005 T00071002
PSM,2017-04-01 13:09,-70.8233,43.0779,32.00,32.00,100.00,50.00,13.00,0.00,29.88,M,0.75,M,SCT,OVC,M,M,200.00,700.00,M,M,-SN BR,KPSM 011309Z 05013KT 3/4SM R34/3500FT -SN BR SCT002 OVC007 00/00 A2988 RMK AO2A
PSM,2017-04-01 13:58,-70.8233,43.0779,33.10,31.30,93.01,40.00,14.00,0.07,29.89,1012.50,0.75,18.00,FEW,OVC,M,M,200.00,800.00,M,M,-SN BR,KPSM 011358Z 04014G18KT 3/4SM R34/5500FT -SN BR FEW002 OVC008 01/00 A2989 RMK AO2A PK WND 04027/26 SLP125 P0007 T00061004
PSM,2017-04-01 14:58,-70.8233,43.0779,33.10,31.30,93.01,30.00,14.00,0.08,29.89,1012.50,0.62,18.00,SCT,OVC,M,M,400.00,1000.00,M,M,-SN BR,KPSM 011458Z 03014G18KT 5/8SM R34/4500FT -SN BR SCT004 OVC010 01/00 A2989 RMK AO2A SLP125 P0008 60020 T00061004 53005
PSM,2017-04-01 15:37,-70.8233,43.0779,32.00,32.00,100.00,40.00,12.00,0.00,29.89,M,0.50,18.00,SCT,OVC,M,M,400.00,900.00,M,M,-SN FG,KPSM 011537Z 04012G18KT 1/2SM R34/3000FT -SN FG SCT004 OVC009 00/00 A2989 RMK AO2A
PSM,2017-04-01 15:58,-70.8233,43.0779,33.10,31.30,93.01,30.00,14.00,0.09,29.89,1012.60,0.50,20.00,VV ,M,M,M,1000.00,M,M,M,-SN FG,KPSM 011558Z 03014G20KT 1/2SM R16/4000FT -SN FG VV010 01/00 A2989 RMK AO2A SLP126 P0009 T00061004
PSM,2017-04-01 16:58,-70.8233,43.0779,32.90,31.10,93.00,30.00,12.00,0.07,29.88,1012.20,0.62,19.00,SCT,OVC,M,M,500.00,900.00,M,M,-SN BR,KPSM 011658Z 03012G19KT 5/8SM R34/3500FT -SN BR SCT005 OVC009 01/00 A2988 RMK AO2A SLP122 P0007 T00051005
PSM,2017-04-01 17:58,-70.8233,43.0779,33.30,31.10,91.52,30.00,12.00,0.09,29.88,M,0.62,M,SCT,OVC,M,M,500.00,1000.00,M,M,-SN BR,KPSM 011758Z 03012KT 5/8SM R34/5500FT -SN BR SCT005 OVC010 01/00 A2988 RMK AO2A SLPNO P0009 60045 4/008 T00071005 10007 20005
PSM,2017-04-01 18:10,-70.8233,43.0779,32.00,32.00,100.00,30.00,13.00,0.00,29.88,M,0.75,18.00,SCT,OVC,M,M,500.00,1100.00,M,M,-SN BR,KPSM 011810Z 03013G18KT 3/4SM R34/P6000FT -SN BR SCT005 OVC011 00/00 A2988 RMK AO2A
PSM,2017-04-01 18:58,-70.8233,43.0779,33.30,30.90,90.78,30.00,10.00,0.09,29.88,1012.10,1.00,22.00,BKN,OVC,M,M,700.00,1300.00,M,M,-SN BR,KPSM 011858Z 03010G22KT 1SM R34/P6000FT -SN BR BKN007 OVC013 01/M01 A2988 RMK AO2A SLP121 P0009 T00071006
PSM,2017-04-01 19:29,-70.8233,43.0779,32.00,32.00,100.00,30.00,12.00,0.00,29.87,M,1.50,19.00,BKN,OVC,M,M,800.00,1500.00,M,M,-SN BR,KPSM 011929Z 03012G19KT 1 1/2SM -SN BR BKN008 OVC015 00/00 A2987 RMK AO2A
PSM,2017-04-01 19:44,-70.8233,43.0779,32.00,32.00,100.00,20.00,13.00,0.00,29.88,M,2.00,18.00,BKN,OVC,M,M,800.00,1400.00,M,M,-SN BR,KPSM 011944Z 02013G18KT 2SM -SN BR BKN008 OVC014 00/00 A2988 RMK AO2A
PSM,2017-04-01 19:58,-70.8233,43.0779,33.30,30.20,88.24,40.00,13.00,0.08,29.88,M,2.00,21.00,BKN,OVC,M,M,900.00,1600.00,M,M,-SN BR,KPSM 011958Z 04013G21KT 2SM -SN BR BKN009 OVC016 01/M01 A2988 RMK AO2A SLPNO P0008 T00071010
PSM,2017-04-01 20:15,-70.8233,43.0779,32.00,32.00,100.00,30.00,11.00,0.00,29.90,M,1.50,20.00,BKN,OVC,M,M,1000.00,1600.00,M,M,-SN BR,KPSM 012015Z 03011G20KT 1 1/2SM -SN BR BKN010 OVC016 00/00 A2990 RMK AO2A PRESRR
PSM,2017-04-01 20:58,-70.8233,43.0779,33.40,30.70,89.69,20.00,10.00,0.06,29.90,1013.20,1.00,16.00,BKN,OVC,M,M,1000.00,1500.00,M,M,-SN BR,KPSM 012058Z 02010G16KT 1SM R34/P6000FT -SN BR BKN010 OVC015 01/M01 A2990 RMK AO2A SLP132 P0006 60023 T00081007 53009
PSM,2017-04-01 21:20,-70.8233,43.0779,32.00,32.00,100.00,20.00,10.00,0.00,29.91,M,1.50,M,BKN,OVC,M,M,900.00,1400.00,M,M,-SN BR,KPSM 012120Z 02010KT 1 1/2SM -SN BR BKN009 OVC014 00/00 A2991 RMK AO2A
PSM,2017-04-01 21:32,-70.8233,43.0779,32.00,32.00,100.00,360.00,11.00,0.00,29.93,M,3.00,M,BKN,OVC,M,M,900.00,1500.00,M,M,-SN BR,KPSM 012132Z 36011KT 3SM -SN BR BKN009 OVC015 00/00 A2993 RMK AO2A PRESRR
PSM,2017-04-01 21:58,-70.8233,43.0779,33.40,30.90,90.42,350.00,9.00,0.06,29.94,1014.20,2.00,M,BKN,OVC,M,M,900.00,1500.00,M,M,-SN BR,KPSM 012158Z 35009KT 2SM -SN BR BKN009 OVC015 01/M01 A2994 RMK AO2A SLP142 P0006 T00081006
PSM,2017-04-01 22:06,-70.8233,43.0779,32.00,32.00,100.00,340.00,9.00,0.00,29.94,M,1.50,M,BKN,OVC,M,M,800.00,1500.00,M,M,-SN BR,KPSM 012206Z 34009KT 1 1/2SM -SN BR BKN008 OVC015 00/00 A2994 RMK AO2A
PSM,2017-04-01 22:58,-70.8233,43.0779,33.40,31.60,93.02,340.00,10.00,0.00,29.96,1014.90,2.00,M,BKN,OVC,M,M,800.00,1800.00,M,M,-RASN BR,KPSM 012258Z 34010KT 2SM -RASN BR BKN008 OVC018 01/00 A2996 RMK AO2A RAB45 SLP149 P0000 T00081002
PSM,2017-04-01 23:58,-70.8233,43.0779,33.30,31.30,92.26,340.00,10.00,0.00,29.97,1015.20,4.00,M,BKN,BKN,OVC,M,800.00,1300.00,2000.00,M,-RA BR,KPSM 012358Z 34010KT 4SM -RA BR BKN008 BKN013 OVC020 01/00 A2997 RMK AO2A SNE40 SLP152 P0000 60026 4/007 T00071004 10009 20006 51023
