#DEBUG: Format Typ    -> comma
#DEBUG: Time Period   -> 2017-04-01 00:00:00+00:00 2017-04-02 00:00:00+00:00
#DEBUG: Time Zone     -> Etc/UTC
#DEBUG: Data Contact   -> daryl herzmann akrherz@iastate.edu 515-294-5978
#DEBUG: Entries Found -> -1
station,valid,lon,lat,tmpf, dwpf, relh, drct, sknt, p01i, alti, mslp, vsby, gust, skyc1, skyc2, skyc3, skyc4, skyl1, skyl2, skyl3, skyl4, presentwx, metar
PVD,2017-04-01 00:00,-71.4325,41.7219,M,M,M,80.00,9.00,0.01,30.01,M,5.00,M,BKN,OVC,M,M,900.00,1400.00,M,M,-RA -PL BR,KPVD 010000Z AUTO 08009KT 5SM -RA -PL BR BKN009 OVC014 A3001 RMK P0001 MADISHF
PVD,2017-04-01 00:05,-71.4325,41.7219,M,M,M,70.00,11.00,0.02,30.01,M,5.00,M,OVC,M,M,M,900.00,M,M,M,-RA -PL BR,KPVD 010005Z AUTO 07011KT 5SM -RA -PL BR OVC009 A3001 RMK P0002 MADISHF
PVD,2017-04-01 00:10,-71.4325,41.7219,M,M,M,70.00,10.00,0.02,30.01,M,5.00,M,OVC,M,M,M,900.00,M,M,M,-RA -PL BR,KPVD 010010Z AUTO 07010KT 5SM -RA -PL BR OVC009 A3001 RMK P0002 MADISHF
PVD,2017-04-01 00:15,-71.4325,41.7219,M,M,M,70.00,11.00,0.03,30.01,M,5.00,M,OVC,M,M,M,999.00,M,M,M,-RA -PL BR,KPVD 010015Z AUTO 07011KT 5SM -RA -PL BR OVC009 A3001 RMK P0003 MADISHF
PVD,2017-04-01 00:20,-71.4325,41.7219,M,M,M,70.00,10.00,0.03,30.01,M,4.00,M,OVC,M,M,M,900.00,M,M,M,-RA -PL BR,KPVD 010020Z AUTO 07010KT 4SM -RA -PL BR OVC009 A3001 RMK P0003 MADISHF
PVD,2017-04-01 00:25,-71.4325,41.7219,M,M,M,80.00,10.00,0.04,30.01,M,4.00,M,OVC,M,M,M,999.00,M,M,M,-RA -PL BR,KPVD 010025Z AUTO 08010KT 4SM -RA -PL BR OVC009 A3001 RMK P0004 MADISHF
PVD,2017-04-01 00:28,-71.4325,41.7219,34.00,30.90,88.27,80.00,11.00,0.05,30.01,M,5.00,M,OVC,M,M,M,1000.00,M,M,M,-PLRA BR,KPVD 010028Z 08011KT 5SM -PLRA BR OVC010 01/M01 A3001 RMK AO2 P0005 T00111006
PVD,2017-04-01 00:30,-71.4325,41.7219,M,M,M,80.00,9.00,0.05,30.01,M,5.00,M,OVC,M,M,M,999.00,M,M,M,-RA -PL BR,KPVD 010030Z AUTO 08009KT 5SM -RA -PL BR OVC009 A3001 RMK P0005 MADISHF
PVD,2017-04-01 00:35,-71.4325,41.7219,M,M,M,70.00,11.00,0.06,30.00,M,5.00,M,OVC,M,M,M,999.00,M,M,M,-RA -PL BR,KPVD 010035Z AUTO 07011KT 5SM -RA -PL BR OVC009 A3000 RMK P0006 MADISHF
PVD,2017-04-01 00:40,-71.4325,41.7219,M,M,M,70.00,11.00,0.06,30.00,M,5.00,M,OVC,M,M,M,999.00,M,M,M,-RA -PL BR,KPVD 010040Z AUTO 07011KT 5SM -RA -PL BR OVC009 A3000 RMK P0006 MADISHF
PVD,2017-04-01 00:45,-71.4325,41.7219,M,M,M,70.00,10.00,0.07,30.00,M,5.00,M,OVC,M,M,M,999.00,M,M,M,-RA -PL BR,KPVD 010045Z AUTO 07010KT 5SM -RA -PL BR OVC009 A3000 RMK P0007 MADISHF
PVD,2017-04-01 00:50,-71.4325,41.7219,M,M,M,70.00,11.00,0.07,30.00,M,5.00,M,OVC,M,M,M,999.00,M,M,M,-RA -PL BR,KPVD 010050Z AUTO 07011KT 5SM -RA -PL BR OVC009 A3000 RMK P0007 MADISHF
PVD,2017-04-01 00:51,-71.4325,41.7219,35.10,32.00,88.33,70.00,12.00,0.08,30.00,1015.90,5.00,M,OVC,M,M,M,1000.00,M,M,M,-PLRA BR,KPVD 010051Z 07012KT 5SM -PLRA BR OVC010 02/00 A3000 RMK AO2 SLP159 P0008 T00170000
PVD,2017-04-01 00:55,-71.4325,41.7219,M,M,M,70.00,11.00,M,30.00,M,5.00,M,OVC,M,M,M,999.00,M,M,M,-RA -PL BR,KPVD 010055Z AUTO 07011KT 5SM -RA -PL BR OVC009 A3000 RMK MADISHF
PVD,2017-04-01 01:00,-71.4325,41.7219,M,M,M,80.00,12.00,0.01,30.00,M,5.00,M,OVC,M,M,M,999.00,M,M,M,-RA -PL BR,KPVD 010100Z AUTO 08012KT 5SM -RA -PL BR OVC009 A3000 RMK P0001 MADISHF
PVD,2017-04-01 01:05,-71.4325,41.7219,M,M,M,70.00,11.00,0.02,30.00,M,5.00,M,BKN,OVC,M,M,1100.00,1600.00,M,M,-RA -PL BR,KPVD 010105Z AUTO 07011KT 5SM -RA -PL BR BKN011 OVC016 A3000 RMK P0002 MADISHF
PVD,2017-04-01 01:10,-71.4325,41.7219,M,M,M,70.00,12.00,0.02,29.99,M,6.00,M,OVC,M,M,M,1100.00,M,M,M,-RA -PL BR,KPVD 010110Z AUTO 07012KT 6SM -RA -PL BR OVC011 A2999 RMK P0002 MADISHF
PVD,2017-04-01 01:15,-71.4325,41.7219,M,M,M,80.00,10.00,0.03,29.99,M,6.00,M,OVC,M,M,M,1100.00,M,M,M,-RA -PL BR,KPVD 010115Z AUTO 08010KT 6SM -RA -PL BR OVC011 A2999 RMK P0003 MADISHF
PVD,2017-04-01 01:20,-71.4325,41.7219,M,M,M,70.00,11.00,0.04,29.99,M,6.00,M,BKN,OVC,M,M,1100.00,1500.00,M,M,-RA -PL BR,KPVD 010120Z AUTO 07011KT 6SM -RA -PL BR BKN011 OVC015 A2999 RMK P0004 MADISHF
PVD,2017-04-01 01:25,-71.4325,41.7219,M,M,M,70.00,11.00,0.04,29.99,M,7.00,M,OVC,M,M,M,1300.00,M,M,M,-RA -PL,KPVD 010125Z AUTO 07011KT 7SM -RA -PL OVC013 A2999 RMK P0004 MADISHF
PVD,2017-04-01 01:30,-71.4325,41.7219,M,M,M,70.00,11.00,0.05,29.99,M,7.00,M,OVC,M,M,M,1300.00,M,M,M,-RA -PL,KPVD 010130Z AUTO 07011KT 7SM -RA -PL OVC013 A2999 RMK P0005 MADISHF
PVD,2017-04-01 01:35,-71.4325,41.7219,M,M,M,70.00,9.00,0.05,29.98,M,6.00,M,OVC,M,M,M,1100.00,M,M,M,-RA -PL BR,KPVD 010135Z AUTO 07009KT 6SM -RA -PL BR OVC011 A2998 RMK P0005 MADISHF
PVD,2017-04-01 01:40,-71.4325,41.7219,M,M,M,70.00,12.00,0.06,29.98,M,7.00,M,OVC,M,M,M,1100.00,M,M,M,-RA -PL,KPVD 010140Z AUTO 07012KT 7SM -RA -PL OVC011 A2998 RMK P0006 MADISHF
PVD,2017-04-01 01:45,-71.4325,41.7219,M,M,M,70.00,12.00,0.07,29.98,M,6.00,M,OVC,M,M,M,1200.00,M,M,M,-RA -PL BR,KPVD 010145Z AUTO 07012KT 6SM -RA -PL BR OVC012 A2998 RMK P0007 MADISHF
PVD,2017-04-01 01:50,-71.4325,41.7219,M,M,M,70.00,9.00,0.08,29.98,M,6.00,M,OVC,M,M,M,1200.00,M,M,M,-RA -PL BR,KPVD 010150Z AUTO 07009KT 6SM -RA -PL BR OVC012 A2998 RMK P0008 MADISHF
PVD,2017-04-01 01:51,-71.4325,41.7219,35.10,32.00,88.33,70.00,9.00,0.08,29.98,1015.10,6.00,17.00,OVC,M,M,M,1200.00,M,M,M,-PLRA BR,KPVD 010151Z 07009G17KT 6SM -PLRA BR OVC012 02/00 A2998 RMK AO2 SLP151 P0008 T00170000
PVD,2017-04-01 01:55,-71.4325,41.7219,M,M,M,60.00,9.00,M,29.98,M,6.00,M,OVC,M,M,M,1200.00,M,M,M,-RA -PL BR,KPVD 010155Z AUTO 06009KT 6SM -RA -PL BR OVC012 A2998 RMK MADISHF
PVD,2017-04-01 02:00,-71.4325,41.7219,M,M,M,60.00,10.00,M,29.97,M,6.00,M,OVC,M,M,M,1200.00,M,M,M,-RA -PL BR,KPVD 010200Z AUTO 06010KT 6SM -RA -PL BR OVC012 A2997 RMK MADISHF
PVD,2017-04-01 02:05,-71.4325,41.7219,M,M,M,70.00,12.00,0.01,29.97,M,6.00,M,OVC,M,M,M,999.00,M,M,M,-RA -PL BR,KPVD 010205Z AUTO 07012KT 6SM -RA -PL BR OVC009 A2997 RMK P0001 MADISHF
PVD,2017-04-01 02:10,-71.4325,41.7219,M,M,M,70.00,12.00,0.01,29.96,M,6.00,M,OVC,M,M,M,999.00,M,M,M,-RA -PL BR,KPVD 010210Z AUTO 07012KT 6SM -RA -PL BR OVC009 A2996 RMK P0001 MADISHF
PVD,2017-04-01 02:15,-71.4325,41.7219,M,M,M,70.00,11.00,0.02,29.95,M,6.00,M,OVC,M,M,M,1200.00,M,M,M,-RA -PL BR,KPVD 010215Z AUTO 07011KT 6SM -RA -PL BR OVC012 A2995 RMK P0002 MADISHF
PVD,2017-04-01 02:20,-71.4325,41.7219,M,M,M,70.00,10.00,0.03,29.95,M,6.00,M,OVC,M,M,M,1200.00,M,M,M,-RA -PL BR,KPVD 010220Z AUTO 07010KT 6SM -RA -PL BR OVC012 A2995 RMK P0003 MADISHF
PVD,2017-04-01 02:25,-71.4325,41.7219,M,M,M,70.00,13.00,0.03,29.95,M,6.00,M,OVC,M,M,M,1200.00,M,M,M,-RA -PL BR,KPVD 010225Z AUTO 07013KT 6SM -RA -PL BR OVC012 A2995 RMK P0003 MADISHF
PVD,2017-04-01 02:30,-71.4325,41.7219,M,M,M,80.00,12.00,0.04,29.94,M,5.00,M,OVC,M,M,M,1200.00,M,M,M,-RA -PL BR,KPVD 010230Z AUTO 08012KT 5SM -RA -PL BR OVC012 A2994 RMK P0004 MADISHF
PVD,2017-04-01 02:35,-71.4325,41.7219,M,M,M,70.00,10.00,0.05,29.94,M,5.00,M,OVC,M,M,M,1200.00,M,M,M,-RA -PL BR,KPVD 010235Z AUTO 07010KT 5SM -RA -PL BR OVC012 A2994 RMK P0005 MADISHF
PVD,2017-04-01 02:40,-71.4325,41.7219,M,M,M,70.00,12.00,0.06,29.94,M,5.00,M,OVC,M,M,M,1200.00,M,M,M,-RA -PL BR,KPVD 010240Z AUTO 07012KT 5SM -RA -PL BR OVC012 A2994 RMK P0006 MADISHF
PVD,2017-04-01 02:45,-71.4325,41.7219,M,M,M,70.00,11.00,0.07,29.94,M,5.00,M,OVC,M,M,M,1200.00,M,M,M,-RA -PL BR,KPVD 010245Z AUTO 07011KT 5SM -RA -PL BR OVC012 A2994 RMK P0007 MADISHF
PVD,2017-04-01 02:50,-71.4325,41.7219,M,M,M,70.00,10.00,0.09,29.93,M,5.00,M,OVC,M,M,M,1200.00,M,M,M,-RA -PL BR,KPVD 010250Z AUTO 07010KT 5SM -RA -PL BR OVC012 A2993 RMK P0009 MADISHF
PVD,2017-04-01 02:51,-71.4325,41.7219,35.10,32.00,88.33,70.00,10.00,0.09,29.93,1013.60,5.00,M,OVC,M,M,M,1200.00,M,M,M,-PLRA BR,KPVD 010251Z 07010KT 5SM -PLRA BR OVC012 02/00 A2993 RMK AO2 SLP136 P0009 60025 T00170000 58026 $
PVD,2017-04-01 02:55,-71.4325,41.7219,M,M,M,70.00,9.00,M,29.93,M,5.00,M,OVC,M,M,M,1200.00,M,M,M,-RA -PL BR,KPVD 010255Z AUTO 07009KT 5SM -RA -PL BR OVC012 A2993 RMK MADISHF
PVD,2017-04-01 03:00,-71.4325,41.7219,M,M,M,70.00,9.00,0.01,29.93,M,5.00,M,OVC,M,M,M,1200.00,M,M,M,-RA -PL BR,KPVD 010300Z AUTO 07009KT 5SM -RA -PL BR OVC012 A2993 RMK P0001 MADISHF
PVD,2017-04-01 03:05,-71.4325,41.7219,M,M,M,70.00,12.00,0.01,29.93,M,4.00,M,OVC,M,M,M,999.00,M,M,M,-RA -PL BR,KPVD 010305Z AUTO 07012KT 4SM -RA -PL BR OVC009 A2993 RMK P0001 MADISHF
PVD,2017-04-01 03:10,-71.4325,41.7219,M,M,M,70.00,10.00,0.03,29.92,M,4.00,M,BKN,OVC,M,M,999.00,1699.00,M,M,-RA -PL BR,KPVD 010310Z AUTO 07010KT 4SM -RA -PL BR BKN009 OVC016 A2992 RMK P0003 MADISHF
PVD,2017-04-01 03:15,-71.4325,41.7219,M,M,M,70.00,11.00,0.04,29.92,M,5.00,M,OVC,M,M,M,1300.00,M,M,M,-RA -PL BR,KPVD 010315Z AUTO 07011KT 5SM -RA -PL BR OVC013 A2992 RMK P0004 MADISHF
PVD,2017-04-01 03:20,-71.4325,41.7219,M,M,M,70.00,13.00,0.05,29.92,M,6.00,M,OVC,M,M,M,1300.00,M,M,M,-RA -PL BR,KPVD 010320Z AUTO 07013KT 6SM -RA -PL BR OVC013 A2992 RMK P0005 MADISHF
PVD,2017-04-01 03:25,-71.4325,41.7219,M,M,M,70.00,9.00,0.05,29.92,M,6.00,M,OVC,M,M,M,1300.00,M,M,M,-RA -PL BR,KPVD 010325Z AUTO 07009KT 6SM -RA -PL BR OVC013 A2992 RMK P0005 MADISHF
PVD,2017-04-01 03:30,-71.4325,41.7219,M,M,M,70.00,11.00,0.06,29.92,M,6.00,M,SCT,OVC,M,M,999.00,1300.00,M,M,-RA -PL BR,KPVD 010330Z AUTO 07011KT 6SM -RA -PL BR SCT009 OVC013 A2992 RMK P0006 MADISHF
PVD,2017-04-01 03:35,-71.4325,41.7219,M,M,M,80.00,13.00,0.06,29.91,M,5.00,M,OVC,M,M,M,1200.00,M,M,M,-RA -PL BR,KPVD 010335Z AUTO 08013KT 5SM -RA -PL BR OVC012 A2991 RMK P0006 MADISHF
PVD,2017-04-01 03:40,-71.4325,41.7219,M,M,M,70.00,11.00,0.07,29.91,M,5.00,M,OVC,M,M,M,1200.00,M,M,M,-RA -PL BR,KPVD 010340Z AUTO 07011KT 5SM -RA -PL BR OVC012 A2991 RMK P0007 MADISHF
PVD,2017-04-01 03:45,-71.4325,41.7219,M,M,M,80.00,9.00,0.08,29.91,M,5.00,M,BKN,OVC,M,M,1200.00,1800.00,M,M,-RA -PL BR,KPVD 010345Z AUTO 08009KT 5SM -RA -PL BR BKN012 OVC018 A2991 RMK P0008 MADISHF
PVD,2017-04-01 03:50,-71.4325,41.7219,M,M,M,70.00,10.00,0.08,29.90,M,5.00,M,BKN,OVC,M,M,1200.00,1800.00,M,M,-RA -PL BR,KPVD 010350Z AUTO 07010KT 5SM -RA -PL BR BKN012 OVC018 A2990 RMK P0008 MADISHF
PVD,2017-04-01 03:51,-71.4325,41.7219,36.00,33.10,89.09,70.00,11.00,0.08,29.90,1012.50,6.00,M,BKN,OVC,M,M,1200.00,1800.00,M,M,-PLRA BR,KPVD 010351Z 07011KT 6SM -PLRA BR BKN012 OVC018 02/01 A2990 RMK AO2 SLP125 P0008 T00220006 $
PVD,2017-04-01 03:55,-71.4325,41.7219,M,M,M,70.00,11.00,0.01,29.90,M,6.00,M,OVC,M,M,M,1200.00,M,M,M,-RA -PL BR,KPVD 010355Z AUTO 07011KT 6SM -RA -PL BR OVC012 A2990 RMK P0001 MADISHF
PVD,2017-04-01 04:00,-71.4325,41.7219,M,M,M,70.00,12.00,0.02,29.89,M,6.00,M,BKN,OVC,M,M,1200.00,1900.00,M,M,-RA -PL BR,KPVD 010400Z AUTO 07012KT 6SM -RA -PL BR BKN012 OVC019 A2989 RMK P0002 MADISHF
PVD,2017-04-01 04:05,-71.4325,41.7219,M,M,M,70.00,11.00,0.02,29.89,M,5.00,M,BKN,OVC,M,M,1200.00,1900.00,M,M,-RA BR,KPVD 010405Z AUTO 07011KT 5SM -RA BR BKN012 OVC019 A2989 RMK P0002 MADISHF
PVD,2017-04-01 04:09,-71.4325,41.7219,36.00,33.10,89.09,70.00,9.00,0.03,29.90,M,4.00,M,BKN,OVC,M,M,1200.00,1700.00,M,M,RA BR,KPVD 010409Z AUTO 07009KT 4SM RA BR BKN012 OVC017 02/01 A2990 RMK AO2 PLE03 P0003 T00220006 TSNO $
PVD,2017-04-01 04:10,-71.4325,41.7219,M,M,M,60.00,8.00,0.03,29.90,M,4.00,M,SCT,OVC,M,M,999.00,1699.00,M,M,RA BR,KPVD 010410Z AUTO 06008KT 4SM RA BR SCT009 OVC016 A2990 RMK P0003 MADISHF
PVD,2017-04-01 04:15,-71.4325,41.7219,M,M,M,60.00,10.00,0.04,29.90,M,4.00,M,OVC,M,M,M,1300.00,M,M,M,RA BR,KPVD 010415Z AUTO 06010KT 4SM RA BR OVC013 A2990 RMK P0004 MADISHF
PVD,2017-04-01 04:20,-71.4325,41.7219,M,M,M,60.00,12.00,0.05,29.90,M,4.00,M,OVC,M,M,M,1300.00,M,M,M,RA BR,KPVD 010420Z AUTO 06012KT 4SM RA BR OVC013 A2990 RMK P0005 MADISHF
PVD,2017-04-01 04:25,-71.4325,41.7219,M,M,M,60.00,10.00,0.07,29.89,M,4.00,M,BKN,OVC,M,M,1100.00,1699.00,M,M,RA BR,KPVD 010425Z AUTO 06010KT 4SM RA BR BKN011 OVC016 A2989 RMK P0007 MADISHF
PVD,2017-04-01 04:30,-71.4325,41.7219,M,M,M,60.00,12.00,0.08,29.89,M,4.00,M,OVC,M,M,M,1100.00,M,M,M,RA BR,KPVD 010430Z AUTO 06012KT 4SM RA BR OVC011 A2989 RMK P0008 MADISHF
PVD,2017-04-01 04:35,-71.4325,41.7219,M,M,M,70.00,10.00,0.09,29.88,M,4.00,M,OVC,M,M,M,1300.00,M,M,M,RA BR,KPVD 010435Z AUTO 07010KT 4SM RA BR OVC013 A2988 RMK P0009 MADISHF
PVD,2017-04-01 04:40,-71.4325,41.7219,M,M,M,70.00,10.00,0.10,29.88,M,4.00,M,OVC,M,M,M,1300.00,M,M,M,RA BR,KPVD 010440Z AUTO 07010KT 4SM RA BR OVC013 A2988 RMK P0010 MADISHF
PVD,2017-04-01 04:45,-71.4325,41.7219,M,M,M,70.00,12.00,0.11,29.87,M,4.00,M,OVC,M,M,M,1200.00,M,M,M,RA BR,KPVD 010445Z AUTO 07012KT 4SM RA BR OVC012 A2987 RMK P0011 MADISHF
PVD,2017-04-01 04:50,-71.4325,41.7219,M,M,M,60.00,11.00,0.12,29.87,M,2.50,M,BKN,OVC,M,M,999.00,1500.00,M,M,RA BR,KPVD 010450Z AUTO 06011KT 2 1/2SM RA BR BKN009 OVC015 A2987 RMK P0012 MADISHF
PVD,2017-04-01 04:51,-71.4325,41.7219,36.00,33.10,89.09,60.00,11.00,0.13,29.87,1011.60,2.50,M,BKN,OVC,M,M,1000.00,1500.00,M,M,RA BR,KPVD 010451Z AUTO 06011KT 2 1/2SM RA BR BKN010 OVC015 02/01 A2987 RMK AO2 PLE03 SLP116 P0013 T00220006 400440011 TSNO $
PVD,2017-04-01 04:55,-71.4325,41.7219,M,M,M,60.00,11.00,0.01,29.87,M,2.50,M,BKN,OVC,M,M,1200.00,1800.00,M,M,RA BR,KPVD 010455Z AUTO 06011KT 2 1/2SM RA BR BKN012 OVC018 A2987 RMK P0001 MADISHF
PVD,2017-04-01 05:00,-71.4325,41.7219,M,M,M,60.00,13.00,0.01,29.86,M,3.00,M,BKN,OVC,M,M,1200.00,1800.00,M,M,-RA BR,KPVD 010500Z AUTO 06013KT 3SM -RA BR BKN012 OVC018 A2986 RMK P0001 MADISHF
PVD,2017-04-01 05:05,-71.4325,41.7219,36.00,33.10,89.09,60.00,12.00,0.02,29.86,M,3.00,M,OVC,M,M,M,1200.00,M,M,M,-RA BR,KPVD 010505Z AUTO 06012KT 3SM -RA BR OVC012 02/01 A2986 RMK AO2 P0002 T00220006 TSNO $
PVD,2017-04-01 05:09,-71.4325,41.7219,36.00,33.10,89.09,70.00,9.00,0.02,29.86,M,2.50,M,SCT,OVC,M,M,800.00,1300.00,M,M,-RA BR,KPVD 010509Z AUTO 07009KT 2 1/2SM -RA BR SCT008 OVC013 02/01 A2986 RMK AO2 P0002 T00220006 TSNO $
PVD,2017-04-01 05:10,-71.4325,41.7219,M,M,M,60.00,11.00,0.02,29.86,M,2.50,M,SCT,OVC,M,M,800.00,1300.00,M,M,-RA BR,KPVD 010510Z AUTO 06011KT 2 1/2SM -RA BR SCT008 OVC013 A2986 RMK P0002 MADISHF
PVD,2017-04-01 05:15,-71.4325,41.7219,M,M,M,60.00,10.00,0.03,29.86,M,2.00,M,BKN,OVC,M,M,700.00,1400.00,M,M,RA BR,KPVD 010515Z AUTO 06010KT 2SM RA BR BKN007 OVC014 A2986 RMK P0003 MADISHF
PVD,2017-04-01 05:20,-71.4325,41.7219,M,M,M,60.00,11.00,0.05,29.85,M,2.00,M,BKN,OVC,M,M,700.00,1400.00,M,M,RA BR,KPVD 010520Z AUTO 06011KT 2SM RA BR BKN007 OVC014 A2985 RMK P0005 MADISHF
PVD,2017-04-01 05:21,-71.4325,41.7219,36.00,33.10,89.09,60.00,10.00,0.05,29.85,M,2.50,M,BKN,OVC,M,M,700.00,1400.00,M,M,RA BR,KPVD 010521Z AUTO 06010KT 2 1/2SM RA BR BKN007 OVC014 02/01 A2985 RMK AO2 P0005 T00220006 TSNO $
PVD,2017-04-01 05:25,-71.4325,41.7219,M,M,M,50.00,12.00,0.05,29.85,M,2.50,M,BKN,OVC,M,M,700.00,1200.00,M,M,RA BR,KPVD 010525Z AUTO 05012KT 2 1/2SM RA BR BKN007 OVC012 A2985 RMK P0005 MADISHF
PVD,2017-04-01 05:30,-71.4325,41.7219,M,M,M,50.00,8.00,0.07,29.86,M,2.50,M,BKN,OVC,M,M,900.00,1400.00,M,M,+RA BR,KPVD 010530Z AUTO 05008KT 2 1/2SM +RA BR BKN009 OVC014 A2986 RMK P0007 MADISHF
PVD,2017-04-01 05:35,-71.4325,41.7219,M,M,M,50.00,8.00,0.09,29.86,M,2.50,M,BKN,OVC,M,M,900.00,1400.00,M,M,+RA BR,KPVD 010535Z AUTO 05008KT 2 1/2SM +RA BR BKN009 OVC014 A2986 RMK P0009 MADISHF
PVD,2017-04-01 05:40,-71.4325,41.7219,M,M,M,60.00,11.00,0.10,29.85,M,3.00,M,BKN,OVC,M,M,900.00,1300.00,M,M,RA BR,KPVD 010540Z AUTO 06011KT 3SM RA BR BKN009 OVC013 A2985 RMK P0010 MADISHF
PVD,2017-04-01 05:45,-71.4325,41.7219,M,M,M,60.00,11.00,0.12,29.84,M,3.00,M,BKN,OVC,M,M,900.00,1200.00,M,M,RA BR,KPVD 010545Z AUTO 06011KT 3SM RA BR BKN009 OVC012 A2984 RMK P0012 MADISHF
PVD,2017-04-01 05:46,-71.4325,41.7219,35.60,33.80,93.08,60.00,11.00,0.00,29.84,M,3.00,M,BKN,OVC,M,M,900.00,1200.00,M,M,RA BR,KPVD 010546Z AUTO 06011KT 3SM RA BR BKN009 OVC012 02/01 A2984
PVD,2017-04-01 05:50,-71.4325,41.7219,M,M,M,60.00,12.00,0.13,29.84,M,3.00,M,SCT,OVC,M,M,800.00,1200.00,M,M,RA BR,KPVD 010550Z AUTO 06012KT 3SM RA BR SCT008 OVC012 A2984 RMK P0013 MADISHF
PVD,2017-04-01 05:51,-71.4325,41.7219,36.00,33.10,89.09,60.00,12.00,0.13,29.84,1010.40,3.00,M,SCT,OVC,M,M,800.00,1200.00,M,M,-RA BR,KPVD 010551Z AUTO 06012KT 3SM -RA BR SCT008 OVC012 02/01 A2984 RMK AO2 SLP104 P0013 60059 T00220006 10022 20011 56022 TSNO $
PVD,2017-04-01 05:55,-71.4325,41.7219,M,M,M,60.00,11.00,0.01,29.84,M,3.50,M,OVC,M,M,M,999.00,M,M,M,RA BR,KPVD 010555Z AUTO 06011KT 3SM RA BR OVC009 A2984 RMK P0001 MADISHF
PVD,2017-04-01 06:00,-71.4325,41.7219,M,M,M,60.00,11.00,0.01,29.83,M,3.50,M,OVC,M,M,M,999.00,M,M,M,RA BR,KPVD 010600Z AUTO 06011KT 3SM RA BR OVC009 A2983 RMK P0001 MADISHF
PVD,2017-04-01 06:05,-71.4325,41.7219,M,M,M,70.00,11.00,0.02,29.83,M,3.50,M,OVC,M,M,M,999.00,M,M,M,-RA BR,KPVD 010605Z AUTO 07011KT 3SM -RA BR OVC009 A2983 RMK P0002 MADISHF
PVD,2017-04-01 06:10,-71.4325,41.7219,M,M,M,70.00,10.00,0.02,29.83,M,4.00,M,OVC,M,M,M,999.00,M,M,M,-RA BR,KPVD 010610Z AUTO 07010KT 4SM -RA BR OVC009 A2983 RMK P0002 MADISHF
PVD,2017-04-01 06:15,-71.4325,41.7219,M,M,M,60.00,9.00,0.03,29.82,M,4.00,M,OVC,M,M,M,999.00,M,M,M,-RA BR,KPVD 010615Z AUTO 06009KT 4SM -RA BR OVC009 A2982 RMK P0003 MADISHF
PVD,2017-04-01 06:20,-71.4325,41.7219,M,M,M,60.00,12.00,0.03,29.82,M,3.50,M,OVC,M,M,M,999.00,M,M,M,-RA BR,KPVD 010620Z AUTO 06012KT 3SM -RA BR OVC009 A2982 RMK P0003 MADISHF
PVD,2017-04-01 06:25,-71.4325,41.7219,M,M,M,60.00,12.00,0.04,29.81,M,3.00,M,BKN,OVC,M,M,999.00,1600.00,M,M,-RA BR,KPVD 010625Z AUTO 06012KT 3SM -RA BR BKN009 OVC016 A2981 RMK P0004 MADISHF
PVD,2017-04-01 06:30,-71.4325,41.7219,M,M,M,70.00,11.00,0.04,29.81,M,3.50,M,BKN,OVC,M,M,999.00,1600.00,M,M,-RA BR,KPVD 010630Z AUTO 07011KT 3SM -RA BR BKN009 OVC016 A2981 RMK P0004 MADISHF
PVD,2017-04-01 06:35,-71.4325,41.7219,M,M,M,60.00,12.00,0.05,29.81,M,4.00,M,BKN,OVC,M,M,1200.00,1800.00,M,M,-RA BR,KPVD 010635Z AUTO 06012KT 4SM -RA BR BKN012 OVC018 A2981 RMK P0005 MADISHF
PVD,2017-04-01 06:40,-71.4325,41.7219,M,M,M,60.00,12.00,0.05,29.81,M,4.00,M,BKN,OVC,M,M,999.00,1600.00,M,M,-RA BR,KPVD 010640Z AUTO 06012KT 4SM -RA BR BKN009 OVC016 A2981 RMK P0005 MADISHF
PVD,2017-04-01 06:45,-71.4325,41.7219,M,M,M,60.00,11.00,0.05,29.80,M,3.50,M,BKN,OVC,M,M,999.00,1600.00,M,M,-RA BR,KPVD 010645Z AUTO 06011KT 3SM -RA BR BKN009 OVC016 A2980 RMK P0005 MADISHF
PVD,2017-04-01 06:50,-71.4325,41.7219,M,M,M,60.00,10.00,0.06,29.80,M,3.50,M,BKN,OVC,M,M,999.00,1500.00,M,M,-RA BR,KPVD 010650Z AUTO 06010KT 3SM -RA BR BKN009 OVC015 A2980 RMK P0006 MADISHF
PVD,2017-04-01 06:51,-71.4325,41.7219,36.00,33.10,89.09,60.00,10.00,0.06,29.80,1009.20,3.00,M,BKN,OVC,M,M,1000.00,1500.00,M,M,-RA BR,KPVD 010651Z AUTO 06010KT 3SM -RA BR BKN010 OVC015 02/01 A2980 RMK AO2 SLP092 P0006 T00220006 TSNO $
PVD,2017-04-01 06:55,-71.4325,41.7219,M,M,M,50.00,11.00,M,29.80,M,3.00,M,BKN,OVC,M,M,999.00,1500.00,M,M,-RA BR,KPVD 010655Z AUTO 05011KT 3SM -RA BR BKN009 OVC015 A2980 RMK MADISHF
PVD,2017-04-01 07:00,-71.4325,41.7219,M,M,M,50.00,11.00,0.01,29.80,M,2.50,M,BKN,OVC,M,M,999.00,1300.00,M,M,-RA BR,KPVD 010700Z AUTO 05011KT 2 1/2SM -RA BR BKN009 OVC013 A2980 RMK P0001 MADISHF
PVD,2017-04-01 07:03,-71.4325,41.7219,36.00,34.00,92.35,50.00,9.00,0.01,29.80,M,2.00,M,BKN,OVC,M,M,1000.00,1300.00,M,M,RA BR,KPVD 010703Z AUTO 05009KT 2SM RA BR BKN010 OVC013 02/01 A2980 RMK AO2 P0001 T00220011 TSNO $
PVD,2017-04-01 07:05,-71.4325,41.7219,M,M,M,60.00,10.00,0.02,29.80,M,2.00,M,OVC,M,M,M,999.00,M,M,M,RA BR,KPVD 010705Z AUTO 06010KT 2SM RA BR OVC009 A2980 RMK P0002 MADISHF
PVD,2017-04-01 07:10,-71.4325,41.7219,M,M,M,50.00,12.00,0.03,29.80,M,2.50,M,BKN,OVC,M,M,999.00,1400.00,M,M,RA BR,KPVD 010710Z AUTO 05012KT 2 1/2SM RA BR BKN009 OVC014 A2980 RMK P0003 MADISHF
PVD,2017-04-01 07:15,-71.4325,41.7219,M,M,M,50.00,12.00,0.03,29.79,M,4.00,M,BKN,OVC,M,M,999.00,1400.00,M,M,-RA BR,KPVD 010715Z AUTO 05012KT 4SM -RA BR BKN009 OVC014 A2979 RMK P0003 MADISHF
PVD,2017-04-01 07:19,-71.4325,41.7219,36.00,34.00,92.35,60.00,10.00,0.04,29.79,M,5.00,M,BKN,OVC,M,M,1000.00,1400.00,M,M,-RA BR,KPVD 010719Z AUTO 06010KT 5SM -RA BR BKN010 OVC014 02/01 A2979 RMK AO2 P0004 T00220011 TSNO $
PVD,2017-04-01 07:20,-71.4325,41.7219,M,M,M,60.00,11.00,0.04,29.79,M,5.00,M,BKN,OVC,M,M,999.00,1400.00,M,M,-RA BR,KPVD 010720Z AUTO 06011KT 5SM -RA BR BKN009 OVC014 A2979 RMK P0004 MADISHF
PVD,2017-04-01 07:25,-71.4325,41.7219,M,M,M,70.00,8.00,0.05,29.78,M,5.00,M,BKN,OVC,M,M,900.00,1400.00,M,M,-RA BR,KPVD 010725Z AUTO 07008KT 5SM -RA BR BKN009 OVC014 A2978 RMK P0005 MADISHF
PVD,2017-04-01 07:27,-71.4325,41.7219,36.00,34.00,92.35,70.00,10.00,0.05,29.78,M,4.00,M,BKN,OVC,M,M,900.00,1400.00,M,M,-RA BR,KPVD 010727Z AUTO 07010KT 4SM -RA BR BKN009 OVC014 02/01 A2978 RMK AO2 P0005 T00220011 TSNO $
PVD,2017-04-01 07:30,-71.4325,41.7219,M,M,M,70.00,11.00,0.05,29.78,M,4.00,M,BKN,OVC,M,M,900.00,1400.00,M,M,RA BR,KPVD 010730Z AUTO 07011KT 4SM RA BR BKN009 OVC014 A2978 RMK P0005 MADISHF
PVD,2017-04-01 07:35,-71.4325,41.7219,M,M,M,60.00,11.00,0.06,29.78,M,3.00,M,BKN,OVC,M,M,999.00,1400.00,M,M,RA BR,KPVD 010735Z AUTO 06011KT 3SM RA BR BKN009 OVC014 A2978 RMK P0006 MADISHF
PVD,2017-04-01 07:37,-71.4325,41.7219,37.00,34.00,88.78,70.00,12.00,0.07,29.77,M,2.50,M,BKN,OVC,M,M,1000.00,1400.00,M,M,RA BR,KPVD 010737Z AUTO 07012KT 2 1/2SM RA BR BKN010 OVC014 03/01 A2977 RMK AO2 P0007 T00280011 TSNO $
PVD,2017-04-01 07:40,-71.4325,41.7219,M,M,M,60.00,12.00,0.07,29.77,M,2.50,M,BKN,OVC,M,M,999.00,1400.00,M,M,RA BR,KPVD 010740Z AUTO 06012KT 2 1/2SM RA BR BKN009 OVC014 A2977 RMK P0007 MADISHF
PVD,2017-04-01 07:45,-71.4325,41.7219,M,M,M,60.00,12.00,0.08,29.77,M,3.00,M,BKN,OVC,M,M,999.00,1400.00,M,M,-RA BR,KPVD 010745Z AUTO 06012KT 3SM -RA BR BKN009 OVC014 A2977 RMK P0008 MADISHF
PVD,2017-04-01 07:49,-71.4325,41.7219,37.40,33.80,86.69,60.00,11.00,0.08,29.76,M,3.00,M,OVC,M,M,M,1000.00,M,M,M,-RA BR,KPVD 010749Z AUTO 06011KT 3SM -RA BR OVC010 03/01 A2976 RMK AO2 P0008 TSNO $
PVD,2017-04-01 07:50,-71.4325,41.7219,M,M,M,60.00,12.00,0.08,29.76,M,3.50,M,OVC,M,M,M,999.00,M,M,M,-RA BR,KPVD 010750Z AUTO 06012KT 3SM -RA BR OVC009 A2976 RMK P0008 MADISHF
PVD,2017-04-01 07:51,-71.4325,41.7219,37.00,34.00,88.78,60.00,13.00,0.08,29.76,1007.80,3.00,M,OVC,M,M,M,1000.00,M,M,M,-RA BR,KPVD 010751Z AUTO 06013KT 3SM -RA BR OVC010 03/01 A2976 RMK AO2 SLP078 P0008 T00280011 TSNO $
PVD,2017-04-01 07:55,-71.4325,41.7219,M,M,M,60.00,12.00,0.01,29.76,M,3.50,M,BKN,OVC,M,M,999.00,1500.00,M,M,-RA BR,KPVD 010755Z AUTO 06012KT 3SM -RA BR BKN009 OVC015 A2976 RMK P0001 MADISHF
PVD,2017-04-01 07:59,-71.4325,41.7219,37.00,34.00,88.78,50.00,13.00,0.02,29.76,M,3.00,M,BKN,OVC,M,M,800.00,1500.00,M,M,RA BR,KPVD 010759Z AUTO 05013KT 3SM RA BR BKN008 OVC015 03/01 A2976 RMK AO2 P0002 T00280011 TSNO $
PVD,2017-04-01 08:00,-71.4325,41.7219,M,M,M,50.00,13.00,0.02,29.76,M,3.50,M,BKN,OVC,M,M,800.00,1500.00,M,M,RA BR,KPVD 010800Z AUTO 05013KT 3SM RA BR BKN008 OVC015 A2976 RMK P0002 MADISHF
PVD,2017-04-01 08:05,-71.4325,41.7219,M,M,M,40.00,12.00,0.02,29.75,M,4.00,M,FEW,BKN,OVC,M,800.00,1200.00,1800.00,M,-RA BR,KPVD 010805Z AUTO 04012KT 4SM -RA BR FEW008 BKN012 OVC018 A2975 RMK P0002 MADISHF
PVD,2017-04-01 08:09,-71.4325,41.7219,37.00,34.00,88.78,50.00,13.00,0.03,29.75,M,6.00,M,FEW,BKN,OVC,M,800.00,1200.00,1800.00,M,-RA BR,KPVD 010809Z AUTO 05013KT 6SM -RA BR FEW008 BKN012 OVC018 03/01 A2975 RMK AO2 P0003 T00280011 TSNO $
PVD,2017-04-01 08:10,-71.4325,41.7219,M,M,M,50.00,13.00,0.03,29.75,M,7.00,M,FEW,BKN,OVC,M,800.00,1200.00,1800.00,M,-RA,KPVD 010810Z AUTO 05013KT 7SM -RA FEW008 BKN012 OVC018 A2975 RMK P0003 MADISHF
PVD,2017-04-01 08:15,-71.4325,41.7219,M,M,M,50.00,14.00,0.03,29.75,M,8.00,M,BKN,OVC,M,M,1200.00,1699.00,M,M,-RA,KPVD 010815Z AUTO 05014KT 8SM -RA BKN012 OVC016 A2975 RMK P0003 MADISHF
PVD,2017-04-01 08:20,-71.4325,41.7219,M,M,M,50.00,12.00,0.03,29.74,M,6.00,M,BKN,OVC,M,M,999.00,1699.00,M,M,-RA BR,KPVD 010820Z AUTO 05012KT 6SM -RA BR BKN009 OVC016 A2974 RMK P0003 MADISHF
PVD,2017-04-01 08:25,-71.4325,41.7219,M,M,M,50.00,14.00,0.04,29.74,M,5.00,M,OVC,M,M,M,1200.00,M,M,M,RA BR,KPVD 010825Z AUTO 05014KT 5SM RA BR OVC012 A2974 RMK P0004 MADISHF
PVD,2017-04-01 08:30,-71.4325,41.7219,M,M,M,M,M,0.05,29.74,M,4.00,M,OVC,M,M,M,1200.00,M,M,M,RA BR,KPVD 010830Z AUTO /////KT 4SM RA BR OVC012 A2974 RMK P0005 MADISHF
PVD,2017-04-01 08:35,-71.4325,41.7219,M,M,M,M,M,0.06,29.73,M,4.00,M,BKN,OVC,M,M,999.00,1600.00,M,M,RA BR,KPVD 010835Z AUTO /////KT 4SM RA BR BKN009 OVC016 A2973 RMK P0006 MADISHF
PVD,2017-04-01 08:40,-71.4325,41.7219,M,M,M,M,M,0.07,29.72,M,4.00,M,OVC,M,M,M,999.00,M,M,M,RA BR,KPVD 010840Z AUTO /////KT 4SM RA BR OVC009 A2972 RMK P0007 MADISHF
PVD,2017-04-01 08:45,-71.4325,41.7219,M,M,M,M,M,0.09,29.72,M,4.00,M,OVC,M,M,M,1200.00,M,M,M,RA BR,KPVD 010845Z AUTO /////KT 4SM RA BR OVC012 A2972 RMK P0009 MADISHF
PVD,2017-04-01 08:50,-71.4325,41.7219,M,M,M,M,M,0.11,29.72,M,4.00,M,OVC,M,M,M,1200.00,M,M,M,+RA BR,KPVD 010850Z AUTO /////KT 4SM +RA BR OVC012 A2972 RMK P0011 MADISHF
PVD,2017-04-01 08:51,-71.4325,41.7219,37.00,34.00,88.78,50.00,15.00,0.11,29.72,1006.40,4.00,23.00,OVC,M,M,M,1200.00,M,M,M,RA BR,KPVD 010851Z AUTO 05015G23KT 4SM RA BR OVC012 03/01 A2972 RMK AO2 SLP064 P0011 60025 T00280011 58027 TSNO $
PVD,2017-04-01 08:55,-71.4325,41.7219,M,M,M,40.00,14.00,0.01,29.72,M,4.00,M,OVC,M,M,M,1200.00,M,M,M,RA BR,KPVD 010855Z AUTO 04014KT 4SM RA BR OVC012 A2972 RMK P0001 MADISHF
PVD,2017-04-01 09:00,-71.4325,41.7219,M,M,M,40.00,14.00,0.01,29.72,M,5.00,M,OVC,M,M,M,1200.00,M,M,M,RA BR,KPVD 010900Z AUTO 04014KT 5SM RA BR OVC012 A2972 RMK P0001 MADISHF
PVD,2017-04-01 09:05,-71.4325,41.7219,M,M,M,M,M,0.02,29.72,M,5.00,M,OVC,M,M,M,1200.00,M,M,M,RA BR,KPVD 010905Z AUTO /////KT 5SM RA BR OVC012 A2972 RMK P0002 MADISHF
PVD,2017-04-01 09:10,-71.4325,41.7219,M,M,M,40.00,12.00,0.04,29.72,M,4.00,M,OVC,M,M,M,1200.00,M,M,M,+RA BR,KPVD 010910Z AUTO 04012KT 4SM +RA BR OVC012 A2972 RMK P0004 MADISHF
PVD,2017-04-01 09:15,-71.4325,41.7219,M,M,M,M,M,0.07,29.72,M,3.50,M,OVC,M,M,M,1300.00,M,M,M,+RA BR,KPVD 010915Z AUTO /////KT 3SM +RA BR OVC013 A2972 RMK P0007 MADISHF
PVD,2017-04-01 09:20,-71.4325,41.7219,M,M,M,40.00,14.00,0.08,29.72,M,3.50,M,OVC,M,M,M,1300.00,M,M,M,+RA BR,KPVD 010920Z AUTO 04014KT 3SM +RA BR OVC013 A2972 RMK P0008 MADISHF
PVD,2017-04-01 09:25,-71.4325,41.7219,M,M,M,M,M,0.10,29.71,M,4.00,M,OVC,M,M,M,1300.00,M,M,M,RA BR,KPVD 010925Z AUTO /////KT 4SM RA BR OVC013 A2971 RMK P0010 MADISHF
PVD,2017-04-01 09:30,-71.4325,41.7219,M,M,M,M,M,0.11,29.71,M,4.00,M,OVC,M,M,M,1300.00,M,M,M,RA BR,KPVD 010930Z AUTO /////KT 4SM RA BR OVC013 A2971 RMK P0011 MADISHF
PVD,2017-04-01 09:35,-71.4325,41.7219,M,M,M,M,M,0.12,29.71,M,4.00,M,OVC,M,M,M,1300.00,M,M,M,RA BR,KPVD 010935Z AUTO /////KT 4SM RA BR OVC013 A2971 RMK P0012 MADISHF
PVD,2017-04-01 09:40,-71.4325,41.7219,M,M,M,40.00,13.00,0.13,29.72,M,4.00,M,OVC,M,M,M,1300.00,M,M,M,RA BR,KPVD 010940Z AUTO 04013KT 4SM RA BR OVC013 A2972 RMK P0013 MADISHF
PVD,2017-04-01 09:45,-71.4325,41.7219,M,M,M,M,M,0.16,29.71,M,3.00,M,OVC,M,M,M,1300.00,M,M,M,+RA BR,KPVD 010945Z AUTO /////KT 3SM +RA BR OVC013 A2971 RMK P0016 MADISHF
PVD,2017-04-01 09:50,-71.4325,41.7219,M,M,M,40.00,17.00,0.18,29.72,M,3.00,M,OVC,M,M,M,1300.00,M,M,M,RA BR,KPVD 010950Z AUTO 04017KT 3SM RA BR OVC013 A2972 RMK P0018 MADISHF
PVD,2017-04-01 09:51,-71.4325,41.7219,37.00,34.00,88.78,40.00,17.00,0.18,29.72,1006.30,3.00,24.00,OVC,M,M,M,1300.00,M,M,M,RA BR,KPVD 010951Z 04017G24KT 3SM RA BR OVC013 03/01 A2972 RMK AO2 SLP063 P0018 T00280011 $
PVD,2017-04-01 09:55,-71.4325,41.7219,M,M,M,40.00,16.00,0.01,29.72,M,3.50,M,OVC,M,M,M,1300.00,M,M,M,RA BR,KPVD 010955Z AUTO 04016KT 3SM RA BR OVC013 A2972 RMK P0001 MADISHF
PVD,2017-04-01 10:00,-71.4325,41.7219,M,M,M,M,M,0.02,29.72,M,4.00,M,OVC,M,M,M,1300.00,M,M,M,RA BR,KPVD 011000Z AUTO /////KT 4SM RA BR OVC013 A2972 RMK P0002 MADISHF
PVD,2017-04-01 10:05,-71.4325,41.7219,M,M,M,40.00,14.00,0.04,29.72,M,4.00,M,OVC,M,M,M,1300.00,M,M,M,+RA BR,KPVD 011005Z AUTO 04014KT 4SM +RA BR OVC013 A2972 RMK P0004 MADISHF
PVD,2017-04-01 10:10,-71.4325,41.7219,M,M,M,30.00,16.00,0.06,29.71,M,4.00,M,OVC,M,M,M,1300.00,M,M,M,RA BR,KPVD 011010Z AUTO 03016KT 4SM RA BR OVC013 A2971 RMK P0006 MADISHF
PVD,2017-04-01 10:15,-71.4325,41.7219,M,M,M,40.00,15.00,0.07,29.71,M,4.00,M,OVC,M,M,M,1300.00,M,M,M,RA BR,KPVD 011015Z AUTO 04015KT 4SM RA BR OVC013 A2971 RMK P0007 MADISHF
PVD,2017-04-01 10:20,-71.4325,41.7219,M,M,M,M,M,0.08,29.71,M,4.00,M,OVC,M,M,M,1400.00,M,M,M,RA BR,KPVD 011020Z AUTO /////KT 4SM RA BR OVC014 A2971 RMK P0008 MADISHF
PVD,2017-04-01 10:25,-71.4325,41.7219,M,M,M,M,M,0.09,29.71,M,4.00,M,SCT,OVC,M,M,1100.00,1600.00,M,M,RA BR,KPVD 011025Z AUTO /////KT 4SM RA BR SCT011 OVC016 A2971 RMK P0009 MADISHF
PVD,2017-04-01 10:30,-71.4325,41.7219,M,M,M,30.00,15.00,0.10,29.71,M,4.00,M,BKN,OVC,M,M,1100.00,1600.00,M,M,RA BR,KPVD 011030Z AUTO 03015KT 4SM RA BR BKN011 OVC016 A2971 RMK P0010 MADISHF
PVD,2017-04-01 10:35,-71.4325,41.7219,M,M,M,M,M,0.11,29.70,M,4.00,M,BKN,OVC,M,M,1100.00,1600.00,M,M,RA BR,KPVD 011035Z AUTO /////KT 4SM RA BR BKN011 OVC016 A2970 RMK P0011 MADISHF
PVD,2017-04-01 10:40,-71.4325,41.7219,M,M,M,30.00,14.00,0.12,29.70,M,4.00,M,BKN,OVC,M,M,1100.00,1600.00,M,M,RA BR,KPVD 011040Z AUTO 03014KT 4SM RA BR BKN011 OVC016 A2970 RMK P0012 MADISHF
PVD,2017-04-01 10:45,-71.4325,41.7219,M,M,M,20.00,15.00,0.14,29.70,M,3.00,M,BKN,OVC,M,M,1100.00,1600.00,M,M,RA BR,KPVD 011045Z AUTO 02015KT 3SM RA BR BKN011 OVC016 A2970 RMK P0014 MADISHF
PVD,2017-04-01 10:49,-71.4325,41.7219,37.40,35.60,93.14,30.00,15.00,0.15,29.70,M,2.50,M,SCT,OVC,M,M,1100.00,1600.00,M,M,RA BR,KPVD 011049Z 03015KT 2 1/2SM RA BR SCT011 OVC016 03/02 A2970 RMK AO2 P0015 $
PVD,2017-04-01 10:50,-71.4325,41.7219,M,M,M,30.00,13.00,0.16,29.70,M,2.50,M,SCT,OVC,M,M,1100.00,1600.00,M,M,RA BR,KPVD 011050Z AUTO 03013KT 2 1/2SM RA BR SCT011 OVC016 A2970 RMK P0016 MADISHF
PVD,2017-04-01 10:51,-71.4325,41.7219,37.90,35.10,89.53,30.00,13.00,0.16,29.70,1005.80,2.00,M,SCT,OVC,M,M,1100.00,1600.00,M,M,RA BR,KPVD 011051Z 03013KT 2SM RA BR SCT011 OVC016 03/02 A2970 RMK AO2 SLP058 P0016 T00330017 $
PVD,2017-04-01 10:55,-71.4325,41.7219,M,M,M,30.00,12.00,0.01,29.71,M,2.00,M,FEW,OVC,M,M,1100.00,1600.00,M,M,RA BR,KPVD 011055Z AUTO 03012KT 2SM RA BR FEW011 OVC016 A2971 RMK P0001 MADISHF
PVD,2017-04-01 11:00,-71.4325,41.7219,M,M,M,30.00,14.00,0.03,29.71,M,2.00,M,FEW,OVC,M,M,700.00,1400.00,M,M,RA BR,KPVD 011100Z AUTO 03014KT 2SM RA BR FEW007 OVC014 A2971 RMK P0003 MADISHF
PVD,2017-04-01 11:05,-71.4325,41.7219,37.90,35.10,89.53,30.00,14.00,0.05,29.71,M,2.00,M,FEW,OVC,M,M,700.00,1400.00,M,M,RA BR,KPVD 011105Z 03014KT 2SM RA BR FEW007 OVC014 03/02 A2971 RMK AO2 P0005 T00330017 $
PVD,2017-04-01 11:10,-71.4325,41.7219,M,M,M,30.00,15.00,0.07,29.71,M,2.00,M,OVC,M,M,M,1400.00,M,M,M,RA BR,KPVD 011110Z AUTO 03015KT 2SM RA BR OVC014 A2971 RMK P0007 MADISHF
PVD,2017-04-01 11:15,-71.4325,41.7219,M,M,M,M,M,0.08,29.71,M,2.00,M,OVC,M,M,M,1400.00,M,M,M,RA BR,KPVD 011115Z AUTO /////KT 2SM RA BR OVC014 A2971 RMK P0008 MADISHF
PVD,2017-04-01 11:20,-71.4325,41.7219,M,M,M,M,M,0.10,29.70,M,2.00,M,OVC,M,M,M,1400.00,M,M,M,RA BR,KPVD 011120Z AUTO /////KT 2SM RA BR OVC014 A2970 RMK P0010 MADISHF
PVD,2017-04-01 11:25,-71.4325,41.7219,M,M,M,30.00,14.00,0.11,29.71,M,2.50,M,OVC,M,M,M,1400.00,M,M,M,RA BR,KPVD 011125Z AUTO 03014KT 2 1/2SM RA BR OVC014 A2971 RMK P0011 MADISHF
PVD,2017-04-01 11:30,-71.4325,41.7219,M,M,M,30.00,18.00,0.13,29.71,M,2.50,M,OVC,M,M,M,1400.00,M,M,M,RA BR,KPVD 011130Z AUTO 03018KT 2 1/2SM RA BR OVC014 A2971 RMK P0013 MADISHF
PVD,2017-04-01 11:35,-71.4325,41.7219,M,M,M,30.00,16.00,0.14,29.71,M,2.50,M,OVC,M,M,M,1400.00,M,M,M,RA BR,KPVD 011135Z AUTO 03016KT 2 1/2SM RA BR OVC014 A2971 RMK P0014 MADISHF
PVD,2017-04-01 11:40,-71.4325,41.7219,M,M,M,30.00,15.00,0.15,29.71,M,2.50,M,FEW,OVC,M,M,800.00,1400.00,M,M,RA BR,KPVD 011140Z AUTO 03015KT 2 1/2SM RA BR FEW008 OVC014 A2971 RMK P0015 MADISHF
PVD,2017-04-01 11:45,-71.4325,41.7219,M,M,M,30.00,15.00,0.16,29.71,M,2.50,M,FEW,OVC,M,M,800.00,1400.00,M,M,RA BR,KPVD 011145Z AUTO 03015KT 2 1/2SM RA BR FEW008 OVC014 A2971 RMK P0016 MADISHF
PVD,2017-04-01 11:50,-71.4325,41.7219,M,M,M,30.00,14.00,0.17,29.71,M,3.00,20.00,OVC,M,M,M,1400.00,M,M,M,RA BR,KPVD 011150Z AUTO 03014G20KT 3SM RA BR OVC014 A2971 RMK P0017 MADISHF
PVD,2017-04-01 11:51,-71.4325,41.7219,39.00,36.00,88.87,30.00,17.00,0.17,29.71,1006.00,3.00,M,OVC,M,M,M,1400.00,M,M,M,RA BR,KPVD 011151Z 03017KT 3SM RA BR OVC014 04/02 A2971 RMK AO2 SLP060 P0017 60076 70172 T00390022 10039 20022 55004 $
PVD,2017-04-01 11:55,-71.4325,41.7219,M,M,M,M,M,0.01,29.71,M,3.50,M,BKN,OVC,M,M,1200.00,1699.00,M,M,RA BR,KPVD 011155Z AUTO /////KT 3SM RA BR BKN012 OVC016 A2971 RMK P0001 MADISHF
PVD,2017-04-01 12:00,-71.4325,41.7219,M,M,M,30.00,14.00,0.02,29.71,M,3.50,M,BKN,OVC,M,M,1200.00,1699.00,M,M,RA BR,KPVD 011200Z AUTO 03014KT 3SM RA BR BKN012 OVC016 A2971 RMK P0002 MADISHF
PVD,2017-04-01 12:05,-71.4325,41.7219,M,M,M,M,M,0.03,29.71,M,3.00,M,OVC,M,M,M,1500.00,M,M,M,RA BR,KPVD 011205Z AUTO /////KT 3SM RA BR OVC015 A2971 RMK P0003 MADISHF
PVD,2017-04-01 12:10,-71.4325,41.7219,M,M,M,M,M,0.04,29.71,M,2.50,M,OVC,M,M,M,1400.00,M,M,M,RA BR,KPVD 011210Z AUTO /////KT 2 1/2SM RA BR OVC014 A2971 RMK P0004 MADISHF
PVD,2017-04-01 12:13,-71.4325,41.7219,39.00,36.00,88.87,30.00,17.00,0.05,29.71,M,2.50,22.00,OVC,M,M,M,1400.00,M,M,M,RA BR,KPVD 011213Z 03017G22KT 2 1/2SM RA BR OVC014 04/02 A2971 RMK AO2 P0005 T00390022 $
PVD,2017-04-01 12:15,-71.4325,41.7219,M,M,M,30.00,13.00,0.06,29.71,M,2.50,M,OVC,M,M,M,1400.00,M,M,M,RA BR,KPVD 011215Z AUTO 03013KT 2 1/2SM RA BR OVC014 A2971 RMK P0006 MADISHF
PVD,2017-04-01 12:20,-71.4325,41.7219,M,M,M,M,M,0.07,29.71,M,2.50,M,OVC,M,M,M,1400.00,M,M,M,RA BR,KPVD 011220Z AUTO /////KT 2 1/2SM RA BR OVC014 A2971 RMK P0007 MADISHF
PVD,2017-04-01 12:25,-71.4325,41.7219,M,M,M,30.00,18.00,0.08,29.71,M,3.00,M,OVC,M,M,M,1400.00,M,M,M,RA BR,KPVD 011225Z AUTO 03018KT 3SM RA BR OVC014 A2971 RMK P0008 MADISHF
PVD,2017-04-01 12:28,-71.4325,41.7219,39.00,36.00,88.87,30.00,18.00,0.09,29.71,M,3.00,M,OVC,M,M,M,1400.00,M,M,M,RA BR,KPVD 011228Z 03018KT 3SM RA BR OVC014 04/02 A2971 RMK AO2 P0009 T00390022 $
PVD,2017-04-01 12:30,-71.4325,41.7219,M,M,M,20.00,18.00,0.09,29.71,M,3.00,M,OVC,M,M,M,1400.00,M,M,M,RA BR,KPVD 011230Z AUTO 02018KT 3SM RA BR OVC014 A2971 RMK P0009 MADISHF
PVD,2017-04-01 12:35,-71.4325,41.7219,M,M,M,M,M,0.09,29.71,M,3.00,M,OVC,M,M,M,1400.00,M,M,M,-RA BR,KPVD 011235Z AUTO /////KT 3SM -RA BR OVC014 A2971 RMK P0009 MADISHF
PVD,2017-04-01 12:40,-71.4325,41.7219,M,M,M,M,M,0.10,29.71,M,3.00,M,OVC,M,M,M,1400.00,M,M,M,-RA BR,KPVD 011240Z AUTO /////KT 3SM -RA BR OVC014 A2971 RMK P0010 MADISHF
PVD,2017-04-01 12:45,-71.4325,41.7219,M,M,M,M,M,0.10,29.71,M,3.00,M,BKN,OVC,M,M,1400.00,1900.00,M,M,-RA BR,KPVD 011245Z AUTO /////KT 3SM -RA BR BKN014 OVC019 A2971 RMK P0010 MADISHF
PVD,2017-04-01 12:50,-71.4325,41.7219,M,M,M,30.00,19.00,0.10,29.70,M,3.00,26.00,BKN,OVC,M,M,1400.00,1800.00,M,M,-RA BR,KPVD 011250Z AUTO 03019G26KT 3SM -RA BR BKN014 OVC018 A2970 RMK P0010 MADISHF
PVD,2017-04-01 12:51,-71.4325,41.7219,39.00,36.00,88.87,30.00,18.00,0.11,29.70,1005.90,3.00,27.00,OVC,M,M,M,1400.00,M,M,M,-RA BR,KPVD 011251Z 03018G27KT 3SM -RA BR OVC014 04/02 A2970 RMK AO2 PK WND 03027/1250 SLP059 P0011 T00390022 $
PVD,2017-04-01 12:55,-71.4325,41.7219,M,M,M,M,M,M,29.70,M,4.00,M,BKN,OVC,M,M,1200.00,1999.00,M,M,-RA BR,KPVD 011255Z AUTO /////KT 4SM -RA BR BKN012 OVC019 A2970 RMK MADISHF
PVD,2017-04-01 13:00,-71.4325,41.7219,M,M,M,M,M,M,29.70,M,4.00,M,BKN,OVC,M,M,1400.00,1999.00,M,M,-RA BR,KPVD 011300Z AUTO /////KT 4SM -RA BR BKN014 OVC019 A2970 RMK MADISHF
PVD,2017-04-01 13:05,-71.4325,41.7219,M,M,M,M,M,M,29.71,M,4.00,M,BKN,OVC,M,M,1400.00,1999.00,M,M,-RA BR,KPVD 011305Z AUTO /////KT 4SM -RA BR BKN014 OVC019 A2971 RMK MADISHF
PVD,2017-04-01 13:10,-71.4325,41.7219,M,M,M,20.00,18.00,M,29.71,M,4.00,M,OVC,M,M,M,1400.00,M,M,M,-RA BR,KPVD 011310Z AUTO 02018KT 4SM -RA BR OVC014 A2971 RMK MADISHF
PVD,2017-04-01 13:15,-71.4325,41.7219,M,M,M,M,M,M,29.71,M,4.00,M,BKN,OVC,M,M,1400.00,2100.00,M,M,-RA BR,KPVD 011315Z AUTO /////KT 4SM -RA BR BKN014 OVC021 A2971 RMK MADISHF
PVD,2017-04-01 13:20,-71.4325,41.7219,M,M,M,20.00,18.00,M,29.71,M,3.00,M,BKN,OVC,M,M,1300.00,1800.00,M,M,-RA BR,KPVD 011320Z AUTO 02018KT 3SM -RA BR BKN013 OVC018 A2971 RMK MADISHF
PVD,2017-04-01 13:25,-71.4325,41.7219,M,M,M,M,M,0.01,29.71,M,3.00,M,BKN,OVC,M,M,1300.00,1800.00,M,M,-RA BR,KPVD 011325Z AUTO /////KT 3SM -RA BR BKN013 OVC018 A2971 RMK P0001 MADISHF
PVD,2017-04-01 13:30,-71.4325,41.7219,M,M,M,M,M,0.01,29.71,M,3.00,M,BKN,OVC,M,M,1200.00,1800.00,M,M,-RA BR,KPVD 011330Z AUTO /////KT 3SM -RA BR BKN012 OVC018 A2971 RMK P0001 MADISHF
PVD,2017-04-01 13:35,-71.4325,41.7219,M,M,M,M,M,0.01,29.71,M,3.00,M,BKN,OVC,M,M,1200.00,1800.00,M,M,-RA BR,KPVD 011335Z AUTO /////KT 3SM -RA BR BKN012 OVC018 A2971 RMK P0001 MADISHF
PVD,2017-04-01 13:40,-71.4325,41.7219,M,M,M,M,M,0.01,29.72,M,2.50,M,OVC,M,M,M,1200.00,M,M,M,-RA BR,KPVD 011340Z AUTO /////KT 2 1/2SM -RA BR OVC012 A2972 RMK P0001 MADISHF
PVD,2017-04-01 13:44,-71.4325,41.7219,39.90,37.00,89.27,30.00,22.00,0.01,29.72,M,2.50,26.00,OVC,M,M,M,1200.00,M,M,M,-RA BR,KPVD 011344Z 03022G26KT 2 1/2SM -RA BR OVC012 04/03 A2972 RMK AO2 PK WND 02027/1318 P0001 T00440028 $
PVD,2017-04-01 13:45,-71.4325,41.7219,M,M,M,M,M,0.01,29.72,M,2.50,M,OVC,M,M,M,1200.00,M,M,M,-RA BR,KPVD 011345Z AUTO /////KT 2 1/2SM -RA BR OVC012 A2972 RMK P0001 MADISHF
PVD,2017-04-01 13:50,-71.4325,41.7219,M,M,M,20.00,16.00,0.01,29.72,M,2.50,M,OVC,M,M,M,1300.00,M,M,M,-RA BR,KPVD 011350Z AUTO 02016KT 2 1/2SM -RA BR OVC013 A2972 RMK P0001 MADISHF
PVD,2017-04-01 13:51,-71.4325,41.7219,39.90,36.00,85.81,30.00,16.00,0.01,29.72,1006.40,2.50,27.00,BKN,OVC,M,M,1000.00,1600.00,M,M,-RA BR,KPVD 011351Z 03016G27KT 2 1/2SM -RA BR BKN010 OVC016 04/02 A2972 RMK AO2 PK WND 02027/1318 SLP064 P0001 T00440022 $
PVD,2017-04-01 13:55,-71.4325,41.7219,M,M,M,30.00,16.00,M,29.72,M,2.50,M,OVC,M,M,M,1200.00,M,M,M,-RA BR,KPVD 011355Z AUTO 03016KT 2 1/2SM -RA BR OVC012 A2972 RMK MADISHF
PVD,2017-04-01 14:00,-71.4325,41.7219,M,M,M,20.00,15.00,0.01,29.73,M,2.00,M,OVC,M,M,M,1200.00,M,M,M,-RA BR,KPVD 011400Z AUTO 02015KT 2SM -RA BR OVC012 A2973 RMK P0001 MADISHF
PVD,2017-04-01 14:05,-71.4325,41.7219,M,M,M,M,M,0.01,29.72,M,1.75,M,OVC,M,M,M,1200.00,M,M,M,-RA BR,KPVD 011405Z AUTO /////KT 2SM -RA BR OVC012 A2972 RMK P0001 MADISHF
PVD,2017-04-01 14:10,-71.4325,41.7219,39.90,37.00,89.27,30.00,21.00,0.02,29.73,M,1.50,27.00,BKN,OVC,M,M,1000.00,1600.00,M,M,-RA BR,KPVD 011410Z 03021G27KT 1 1/2SM -RA BR BKN010 OVC016 04/03 A2973 RMK AO2 PK WND 01027/1403 SFC VIS 1 3/4 P0002 T00440028 $
PVD,2017-04-01 14:15,-71.4325,41.7219,M,M,M,M,M,0.02,29.73,M,1.50,M,BKN,OVC,M,M,999.00,1600.00,M,M,-RA BR,KPVD 011415Z AUTO /////KT 1 1/2SM -RA BR BKN009 OVC016 A2973 RMK P0002 MADISHF
PVD,2017-04-01 14:20,-71.4325,41.7219,M,M,M,M,M,0.02,29.73,M,1.75,M,OVC,M,M,M,1200.00,M,M,M,-RA BR,KPVD 011420Z AUTO /////KT 2SM -RA BR OVC012 A2973 RMK P0002 MADISHF
PVD,2017-04-01 14:25,-71.4325,41.7219,M,M,M,M,M,0.02,29.73,M,1.75,M,BKN,OVC,M,M,900.00,1400.00,M,M,-RA BR,KPVD 011425Z AUTO /////KT 2SM -RA BR BKN009 OVC014 A2973 RMK P0002 MADISHF
PVD,2017-04-01 14:30,-71.4325,41.7219,M,M,M,M,M,0.03,29.73,M,2.00,M,BKN,OVC,M,M,1100.00,1699.00,M,M,-RA BR,KPVD 011430Z AUTO /////KT 2SM -RA BR BKN011 OVC016 A2973 RMK P0003 MADISHF
PVD,2017-04-01 14:35,-71.4325,41.7219,M,M,M,M,M,0.03,29.73,M,1.50,M,BKN,OVC,M,M,900.00,1500.00,M,M,-RA BR,KPVD 011435Z AUTO /////KT 1 1/2SM -RA BR BKN009 OVC015 A2973 RMK P0003 MADISHF
PVD,2017-04-01 14:40,-71.4325,41.7219,M,M,M,M,M,0.03,29.73,M,1.50,M,BKN,OVC,M,M,1200.00,1800.00,M,M,-RA BR,KPVD 011440Z AUTO /////KT 1 1/2SM -RA BR BKN012 OVC018 A2973 RMK P0003 MADISHF
PVD,2017-04-01 14:45,-71.4325,41.7219,M,M,M,M,M,0.04,29.73,M,1.50,M,BKN,OVC,M,M,1200.00,1800.00,M,M,-RA BR,KPVD 011445Z AUTO /////KT 1 1/2SM -RA BR BKN012 OVC018 A2973 RMK P0004 MADISHF
PVD,2017-04-01 14:50,-71.4325,41.7219,M,M,M,20.00,21.00,0.04,29.73,M,1.50,M,OVC,M,M,M,1200.00,M,M,M,-RA BR,KPVD 011450Z AUTO 02021KT 1 1/2SM -RA BR OVC012 A2973 RMK P0004 MADISHF
PVD,2017-04-01 14:51,-71.4325,41.7219,39.00,36.00,88.87,20.00,21.00,0.04,29.73,1006.80,1.50,27.00,BKN,OVC,M,M,1200.00,1800.00,M,M,-RA BR,KPVD 011451Z 02021G27KT 1 1/2SM -RA BR BKN012 OVC018 04/02 A2973 RMK AO2 PK WND 03029/1441 SLP068 P0004 60016 T00390022 53007 $
PVD,2017-04-01 14:55,-71.4325,41.7219,M,M,M,M,M,M,29.73,M,1.50,M,BKN,OVC,M,M,1200.00,1600.00,M,M,-RA BR,KPVD 011455Z AUTO /////KT 1 1/2SM -RA BR BKN012 OVC016 A2973 RMK MADISHF
PVD,2017-04-01 15:00,-71.4325,41.7219,M,M,M,M,M,M,29.73,M,1.50,M,OVC,M,M,M,1200.00,M,M,M,-RA BR,KPVD 011500Z AUTO /////KT 1 1/2SM -RA BR OVC012 A2973 RMK MADISHF
PVD,2017-04-01 15:05,-71.4325,41.7219,M,M,M,M,M,M,29.73,M,1.50,M,OVC,M,M,M,1200.00,M,M,M,-RA BR,KPVD 011505Z AUTO /////KT 1 1/2SM -RA BR OVC012 A2973 RMK MADISHF
PVD,2017-04-01 15:10,-71.4325,41.7219,M,M,M,20.00,20.00,0.01,29.73,M,1.50,M,OVC,M,M,M,1400.00,M,M,M,-RA BR,KPVD 011510Z AUTO 02020KT 1 1/2SM -RA BR OVC014 A2973 RMK P0001 MADISHF
PVD,2017-04-01 15:15,-71.4325,41.7219,M,M,M,M,M,0.01,29.73,M,1.50,M,BKN,OVC,M,M,1200.00,1699.00,M,M,-RA BR,KPVD 011515Z AUTO /////KT 1 1/2SM -RA BR BKN012 OVC016 A2973 RMK P0001 MADISHF
PVD,2017-04-01 15:20,-71.4325,41.7219,M,M,M,M,M,0.01,29.73,M,1.50,M,OVC,M,M,M,1400.00,M,M,M,-RA BR,KPVD 011520Z AUTO /////KT 1 1/2SM -RA BR OVC014 A2973 RMK P0001 MADISHF
PVD,2017-04-01 15:25,-71.4325,41.7219,M,M,M,M,M,0.01,29.73,M,4.00,M,BKN,OVC,M,M,1200.00,1900.00,M,M,-RA BR,KPVD 011525Z AUTO /////KT 4SM -RA BR BKN012 OVC019 A2973 RMK P0001 MADISHF
PVD,2017-04-01 15:30,-71.4325,41.7219,M,M,M,30.00,18.00,0.01,29.73,M,4.00,M,FEW,OVC,M,M,900.00,1400.00,M,M,-RA BR,KPVD 011530Z AUTO 03018KT 4SM -RA BR FEW009 OVC014 A2973 RMK P0001 MADISHF
PVD,2017-04-01 15:35,-71.4325,41.7219,M,M,M,M,M,0.02,29.73,M,4.00,M,BKN,OVC,M,M,1400.00,1900.00,M,M,-RA BR,KPVD 011535Z AUTO /////KT 4SM -RA BR BKN014 OVC019 A2973 RMK P0002 MADISHF
PVD,2017-04-01 15:40,-71.4325,41.7219,M,M,M,M,M,0.02,29.73,M,4.00,M,BKN,OVC,M,M,1300.00,1900.00,M,M,-RA BR,KPVD 011540Z AUTO /////KT 4SM -RA BR BKN013 OVC019 A2973 RMK P0002 MADISHF
PVD,2017-04-01 15:45,-71.4325,41.7219,M,M,M,M,M,0.02,29.73,M,3.50,M,BKN,OVC,M,M,1300.00,1900.00,M,M,-RA BR,KPVD 011545Z AUTO /////KT 3SM -RA BR BKN013 OVC019 A2973 RMK P0002 MADISHF
PVD,2017-04-01 15:50,-71.4325,41.7219,M,M,M,20.00,20.00,0.03,29.73,M,3.50,M,BKN,OVC,M,M,1300.00,1900.00,M,M,-RA BR,KPVD 011550Z AUTO 02020KT 3SM -RA BR BKN013 OVC019 A2973 RMK P0003 MADISHF
PVD,2017-04-01 15:51,-71.4325,41.7219,39.00,35.10,85.76,20.00,20.00,0.03,29.73,1006.90,1.50,28.00,BKN,OVC,M,M,1300.00,1900.00,M,M,-RA BR,KPVD 011551Z 02020G28KT 1 1/2SM -RA BR BKN013 OVC019 04/02 A2973 RMK AO2 PK WND 03033/1538 SFC VIS 3 SLP069 P0003 T00390017 $
PVD,2017-04-01 15:55,-71.4325,41.7219,M,M,M,M,M,M,29.73,M,4.00,27.00,OVC,M,M,M,1300.00,M,M,M,-RA BR,KPVD 011555Z AUTO /////G27KT 4SM -RA BR OVC013 A2973 RMK MADISHF
PVD,2017-04-01 16:00,-71.4325,41.7219,M,M,M,M,M,M,29.74,M,4.00,M,BKN,OVC,M,M,999.00,1500.00,M,M,-RA BR,KPVD 011600Z AUTO /////KT 4SM -RA BR BKN009 OVC015 A2974 RMK MADISHF
PVD,2017-04-01 16:05,-71.4325,41.7219,M,M,M,20.00,19.00,M,29.74,M,4.00,M,BKN,OVC,M,M,999.00,1500.00,M,M,-RA BR,KPVD 011605Z AUTO 02019KT 4SM -RA BR BKN009 OVC015 A2974 RMK MADISHF
PVD,2017-04-01 16:10,-71.4325,41.7219,M,M,M,M,M,M,29.74,M,4.00,M,BKN,OVC,M,M,999.00,1500.00,M,M,-RA BR,KPVD 011610Z AUTO /////KT 4SM -RA BR BKN009 OVC015 A2974 RMK MADISHF
PVD,2017-04-01 16:15,-71.4325,41.7219,M,M,M,M,M,M,29.74,M,4.00,M,BKN,BKN,OVC,M,999.00,1400.00,1900.00,M,-RA BR,KPVD 011615Z AUTO /////KT 4SM -RA BR BKN009 BKN014 OVC019 A2974 RMK MADISHF
PVD,2017-04-01 16:20,-71.4325,41.7219,M,M,M,M,M,M,29.74,M,3.50,M,BKN,OVC,M,M,999.00,1699.00,M,M,-RA BR,KPVD 011620Z AUTO /////KT 3SM -RA BR BKN009 OVC016 A2974 RMK MADISHF
PVD,2017-04-01 16:25,-71.4325,41.7219,M,M,M,M,M,0.01,29.74,M,3.50,M,BKN,OVC,M,M,999.00,1699.00,M,M,-RA BR,KPVD 011625Z AUTO /////KT 3SM -RA BR BKN009 OVC016 A2974 RMK P0001 MADISHF
PVD,2017-04-01 16:30,-71.4325,41.7219,M,M,M,M,M,0.01,29.74,M,3.50,M,BKN,OVC,M,M,999.00,1699.00,M,M,-RA BR,KPVD 011630Z AUTO /////KT 3SM -RA BR BKN009 OVC016 A2974 RMK P0001 MADISHF
PVD,2017-04-01 16:35,-71.4325,41.7219,M,M,M,M,M,0.01,29.74,M,3.00,M,BKN,OVC,M,M,1100.00,1699.00,M,M,-RA BR,KPVD 011635Z AUTO /////KT 3SM -RA BR BKN011 OVC016 A2974 RMK P0001 MADISHF
PVD,2017-04-01 16:40,-71.4325,41.7219,M,M,M,M,M,0.01,29.75,M,3.00,M,SCT,OVC,M,M,999.00,1699.00,M,M,UP BR,KPVD 011640Z AUTO /////KT 3SM UP BR SCT009 OVC016 A2975 RMK P0001 MADISHF
PVD,2017-04-01 16:45,-71.4325,41.7219,M,M,M,M,M,0.01,29.75,M,3.00,M,SCT,OVC,M,M,999.00,1600.00,M,M,UP BR,KPVD 011645Z AUTO /////KT 3SM UP BR SCT009 OVC016 A2975 RMK P0001 MADISHF
PVD,2017-04-01 16:46,-71.4325,41.7219,37.40,33.80,86.69,20.00,24.00,0.01,29.75,M,1.50,30.00,SCT,OVC,M,M,1000.00,1600.00,M,M,UP BR,KPVD 011646Z 02024G30KT 1 1/2SM UP BR SCT010 OVC016 03/01 A2975 RMK AO2 PK WND 02032/1630 SFC VIS 3 RAE38UPB38 P0001
PVD,2017-04-01 16:50,-71.4325,41.7219,M,M,M,10.00,26.00,0.01,29.75,M,3.00,M,BKN,OVC,M,M,1200.00,1900.00,M,M,UP BR,KPVD 011650Z AUTO 01026KT 3SM UP BR BKN012 OVC019 A2975 RMK P0001 MADISHF
PVD,2017-04-01 16:51,-71.4325,41.7219,37.00,33.10,85.64,20.00,24.00,0.01,29.75,1007.30,1.50,32.00,BKN,OVC,M,M,1200.00,1900.00,M,M,UP BR,KPVD 011651Z 02024G32KT 1 1/2SM UP BR BKN012 OVC019 03/01 A2975 RMK AO2 PK WND 01032/1650 SFC VIS 3 RAE38UPB38 SLP073 P0001 T00280006
PVD,2017-04-01 16:55,-71.4325,41.7219,M,M,M,M,M,M,29.75,M,4.00,31.00,BKN,OVC,M,M,1200.00,1900.00,M,M,-RA BR,KPVD 011655Z AUTO /////G31KT 4SM -RA BR BKN012 OVC019 A2975 RMK MADISHF
PVD,2017-04-01 17:00,-71.4325,41.7219,M,M,M,M,M,M,29.75,M,5.00,M,SCT,OVC,M,M,999.00,1500.00,M,M,-RA BR,KPVD 011700Z AUTO /////KT 5SM -RA BR SCT009 OVC015 A2975 RMK MADISHF
PVD,2017-04-01 17:02,-71.4325,41.7219,37.00,33.10,85.64,10.00,24.00,0.00,29.75,M,2.00,31.00,SCT,BKN,OVC,M,1000.00,1500.00,2000.00,M,-RA BR,KPVD 011702Z 01024G31KT 2SM -RA BR SCT010 BKN015 OVC020 03/01 A2975 RMK AO2 PK WND 01031/1655 SFC VIS 5 UPE1654RAB1654 P0000 T00280006
PVD,2017-04-01 17:05,-71.4325,41.7219,M,M,M,M,M,M,29.75,M,5.00,M,BKN,OVC,M,M,1200.00,1999.00,M,M,-RA BR,KPVD 011705Z AUTO /////KT 5SM -RA BR BKN012 OVC019 A2975 RMK MADISHF
PVD,2017-04-01 17:09,-71.4325,41.7219,37.00,33.10,85.64,10.00,25.00,0.00,29.75,M,3.00,33.00,BKN,OVC,M,M,1200.00,2000.00,M,M,UP BR,KPVD 011709Z 01025G33KT 3SM UP BR BKN012 OVC020 03/01 A2975 RMK AO2 PK WND 01033/1708 SFC VIS 6 UPE1654B09RAB1654E09 P0000 T00280006
PVD,2017-04-01 17:10,-71.4325,41.7219,M,M,M,M,M,0.00,29.75,M,6.00,M,BKN,OVC,M,M,1200.00,1999.00,M,M,UP BR,KPVD 011710Z AUTO /////KT 6SM UP BR BKN012 OVC019 A2975 RMK P0000 MADISHF
PVD,2017-04-01 17:15,-71.4325,41.7219,M,M,M,M,M,0.00,29.75,M,7.00,M,BKN,OVC,M,M,1200.00,1999.00,M,M,UP,KPVD 011715Z AUTO /////KT 7SM UP BKN012 OVC019 A2975 RMK P0000 MADISHF
PVD,2017-04-01 17:20,-71.4325,41.7219,M,M,M,M,M,M,29.75,M,8.00,M,BKN,OVC,M,M,1200.00,1999.00,M,M,-RA,KPVD 011720Z AUTO /////KT 8SM -RA BKN012 OVC019 A2975 RMK MADISHF
PVD,2017-04-01 17:25,-71.4325,41.7219,M,M,M,M,M,M,29.75,M,10.00,M,BKN,OVC,M,M,1300.00,1999.00,M,M,-RA,KPVD 011725Z AUTO /////KT 10SM -RA BKN013 OVC019 A2975 RMK MADISHF
PVD,2017-04-01 17:30,-71.4325,41.7219,M,M,M,M,M,M,29.75,M,10.00,M,BKN,OVC,M,M,1300.00,1999.00,M,M,-RA,KPVD 011730Z AUTO /////KT 10SM -RA BKN013 OVC019 A2975 RMK MADISHF
PVD,2017-04-01 17:35,-71.4325,41.7219,M,M,M,M,M,0.00,29.75,M,10.00,M,OVC,M,M,M,1500.00,M,M,M,UP,KPVD 011735Z AUTO /////KT 10SM UP OVC015 A2975 RMK P0000 MADISHF
PVD,2017-04-01 17:40,-71.4325,41.7219,M,M,M,M,M,0.00,29.75,M,10.00,M,OVC,M,M,M,1400.00,M,M,M,UP,KPVD 011740Z AUTO /////KT 10SM UP OVC014 A2975 RMK P0000 MADISHF
PVD,2017-04-01 17:45,-71.4325,41.7219,M,M,M,M,M,0.00,29.75,M,10.00,M,OVC,M,M,M,1600.00,M,M,M,UP,KPVD 011745Z AUTO /////KT 10SM UP OVC016 A2975 RMK P0000 MADISHF
PVD,2017-04-01 17:48,-71.4325,41.7219,37.40,33.80,86.69,10.00,23.00,0.00,29.75,M,10.00,35.00,OVC,M,M,M,1600.00,M,M,M,UP,KPVD 011748Z 01023G35KT 10SM UP OVC016 03/01 A2975 RMK AO2 PK WND 02038/1728 UPE1654B09E18B35RAB1654E09B18E35 P0000
PVD,2017-04-01 17:50,-71.4325,41.7219,M,M,M,20.00,20.00,0.00,29.75,M,10.00,M,BKN,OVC,M,M,1600.00,1999.00,M,M,UP,KPVD 011750Z AUTO 02020KT 10SM UP BKN016 OVC019 A2975 RMK P0000 MADISHF
PVD,2017-04-01 17:51,-71.4325,41.7219,37.00,33.10,85.64,20.00,22.00,0.00,29.75,1007.50,10.00,35.00,BKN,OVC,M,M,1600.00,2000.00,M,M,UP,KPVD 011751Z 02022G35KT 10SM UP BKN016 OVC020 03/01 A2975 RMK AO2 PK WND 02038/1728 UPE1654B09E18B35RAB1654E09B18E35 SLP075 P0000 60020 T00280006 10044 20028 52001
PVD,2017-04-01 17:55,-71.4325,41.7219,M,M,M,M,M,0.00,29.75,M,9.00,M,BKN,OVC,M,M,1400.00,1999.00,M,M,UP,KPVD 011755Z AUTO /////KT 9SM UP BKN014 OVC019 A2975 RMK P0000 MADISHF
PVD,2017-04-01 17:59,-71.4325,41.7219,37.00,32.00,81.93,20.00,26.00,0.00,29.75,M,8.00,35.00,BKN,OVC,M,M,1400.00,2300.00,M,M,UP,KPVD 011759Z 02026G35KT 8SM UP BKN014 OVC023 03/00 A2975 RMK AO2 PK WND 01035/1752 P0000 T00280000
PVD,2017-04-01 18:00,-71.4325,41.7219,M,M,M,M,M,M,29.75,M,7.00,30.00,BKN,OVC,M,M,1400.00,1900.00,M,M,-SN,KPVD 011800Z AUTO /////G30KT 7SM -SN BKN014 OVC019 A2975 RMK MADISHF
PVD,2017-04-01 18:05,-71.4325,41.7219,M,M,M,M,M,M,29.75,M,5.00,M,OVC,M,M,M,1600.00,M,M,M,-SN,KPVD 011805Z AUTO /////KT 5SM -SN OVC016 A2975 RMK MADISHF
PVD,2017-04-01 18:08,-71.4325,41.7219,37.00,32.00,81.93,20.00,24.00,0.00,29.75,M,5.00,36.00,BKN,OVC,M,M,1600.00,2100.00,M,M,-SN,KPVD 011808Z 02024G36KT 5SM -SN BKN016 OVC021 03/00 A2975 RMK AO2 PK WND 02036/1806 UPE00SNB00 P0000 T00280000
PVD,2017-04-01 18:10,-71.4325,41.7219,M,M,M,M,M,M,29.75,M,5.00,M,BKN,OVC,M,M,1600.00,2500.00,M,M,-SN,KPVD 011810Z AUTO /////KT 5SM -SN BKN016 OVC025 A2975 RMK MADISHF
PVD,2017-04-01 18:15,-71.4325,41.7219,M,M,M,20.00,20.00,M,29.76,M,7.00,M,FEW,BKN,OVC,M,999.00,1600.00,2500.00,M,-SN,KPVD 011815Z AUTO 02020KT 7SM -SN FEW009 BKN016 OVC025 A2976 RMK MADISHF
PVD,2017-04-01 18:20,-71.4325,41.7219,M,M,M,M,M,M,29.76,M,8.00,M,BKN,OVC,M,M,1400.00,1999.00,M,M,-SN,KPVD 011820Z AUTO /////KT 8SM -SN BKN014 OVC019 A2976 RMK MADISHF
PVD,2017-04-01 18:25,-71.4325,41.7219,M,M,M,M,M,M,29.76,M,8.00,M,SCT,OVC,M,M,1400.00,1900.00,M,M,-RA,KPVD 011825Z AUTO /////KT 8SM -RA SCT014 OVC019 A2976 RMK MADISHF
PVD,2017-04-01 18:30,-71.4325,41.7219,M,M,M,M,M,M,29.76,M,7.00,M,BKN,OVC,M,M,1400.00,2200.00,M,M,-SN,KPVD 011830Z AUTO /////KT 7SM -SN BKN014 OVC022 A2976 RMK MADISHF
PVD,2017-04-01 18:34,-71.4325,41.7219,37.40,33.80,86.69,20.00,22.00,0.00,29.76,M,8.00,35.00,BKN,BKN,OVC,M,1400.00,1900.00,2400.00,M,-SN,KPVD 011834Z 02022G35KT 8SM -SN BKN014 BKN019 OVC024 03/01 A2976
PVD,2017-04-01 18:35,-71.4325,41.7219,37.40,33.80,86.69,20.00,22.00,0.00,29.76,M,6.00,35.00,BKN,BKN,OVC,M,1400.00,1900.00,2400.00,M,-SN BR,KPVD 011835Z 02022G35KT 6SM -SN BR BKN014 BKN019 OVC024 03/01 A2976
PVD,2017-04-01 18:40,-71.4325,41.7219,M,M,M,M,M,0.00,29.76,M,9.00,M,SCT,BKN,OVC,M,1200.00,1699.00,2200.00,M,UP,KPVD 011840Z AUTO /////KT 9SM UP SCT012 BKN016 OVC022 A2976 RMK P0000 MADISHF
PVD,2017-04-01 18:45,-71.4325,41.7219,M,M,M,M,M,0.00,29.76,M,9.00,M,BKN,OVC,M,M,1400.00,2100.00,M,M,UP,KPVD 011845Z AUTO /////KT 9SM UP BKN014 OVC021 A2976 RMK P0000 MADISHF
PVD,2017-04-01 18:50,-71.4325,41.7219,M,M,M,M,M,M,29.75,M,8.00,M,BKN,OVC,M,M,1400.00,2100.00,M,M,-SN,KPVD 011850Z AUTO /////KT 8SM -SN BKN014 OVC021 A2975 RMK MADISHF
PVD,2017-04-01 18:51,-71.4325,41.7219,37.00,32.00,81.93,20.00,23.00,0.00,29.75,1007.50,8.00,34.00,BKN,OVC,M,M,1400.00,2100.00,M,M,-SN,KPVD 011851Z 02023G34KT 8SM -SN BKN014 OVC021 03/00 A2975 RMK AO2 PK WND 02036/1806 UPE00B38E46RAB22E26B43E44SNB00E38B46 SLP075 P0000 T00280000
PVD,2017-04-01 18:55,-71.4325,41.7219,M,M,M,M,M,M,29.76,M,8.00,M,BKN,OVC,M,M,1400.00,2100.00,M,M,-SN,KPVD 011855Z AUTO /////KT 8SM -SN BKN014 OVC021 A2976 RMK MADISHF
PVD,2017-04-01 19:00,-71.4325,41.7219,M,M,M,M,M,M,29.76,M,7.00,30.00,BKN,OVC,M,M,1400.00,2100.00,M,M,-SN,KPVD 011900Z AUTO /////G30KT 7SM -SN BKN014 OVC021 A2976 RMK MADISHF
PVD,2017-04-01 19:05,-71.4325,41.7219,M,M,M,M,M,M,29.76,M,5.00,33.00,BKN,OVC,M,M,1600.00,2200.00,M,M,-SN BR,KPVD 011905Z AUTO /////G33KT 5SM -SN BR BKN016 OVC022 A2976 RMK MADISHF
PVD,2017-04-01 19:10,-71.4325,41.7219,M,M,M,M,M,M,29.76,M,4.00,M,BKN,OVC,M,M,1600.00,2200.00,M,M,-SN BR,KPVD 011910Z AUTO /////KT 4SM -SN BR BKN016 OVC022 A2976 RMK MADISHF
PVD,2017-04-01 19:11,-71.4325,41.7219,36.00,32.00,85.23,20.00,25.00,0.00,29.76,M,4.00,34.00,OVC,M,M,M,1600.00,M,M,M,-SN BR,KPVD 011911Z 02025G34KT 4SM -SN BR OVC016 02/00 A2976 RMK AO2 PK WND 02034/1856 P0000 T00220000
PVD,2017-04-01 19:15,-71.4325,41.7219,M,M,M,M,M,M,29.76,M,4.00,M,OVC,M,M,M,1500.00,M,M,M,-SN BR,KPVD 011915Z AUTO /////KT 4SM -SN BR OVC015 A2976 RMK MADISHF
PVD,2017-04-01 19:20,-71.4325,41.7219,M,M,M,M,M,M,29.76,M,4.00,M,OVC,M,M,M,1500.00,M,M,M,-SN BR,KPVD 011920Z AUTO /////KT 4SM -SN BR OVC015 A2976 RMK MADISHF
PVD,2017-04-01 19:25,-71.4325,41.7219,M,M,M,M,M,M,29.76,M,5.00,M,BKN,OVC,M,M,1300.00,1999.00,M,M,-SN BR,KPVD 011925Z AUTO /////KT 5SM -SN BR BKN013 OVC019 A2976 RMK MADISHF
PVD,2017-04-01 19:30,-71.4325,41.7219,M,M,M,10.00,20.00,0.00,29.77,M,6.00,M,OVC,M,M,M,1500.00,M,M,M,UP BR,KPVD 011930Z AUTO 01020KT 6SM UP BR OVC015 A2977 RMK P0000 MADISHF
PVD,2017-04-01 19:35,-71.4325,41.7219,M,M,M,M,M,0.00,29.77,M,7.00,M,OVC,M,M,M,1500.00,M,M,M,UP,KPVD 011935Z AUTO /////KT 7SM UP OVC015 A2977 RMK P0000 MADISHF
PVD,2017-04-01 19:40,-71.4325,41.7219,M,M,M,10.00,20.00,M,29.77,M,8.00,M,BKN,OVC,M,M,1400.00,2100.00,M,M,-RA -SN BR,KPVD 011940Z AUTO 01020KT 8SM -RA -SN BR BKN014 OVC021 A2977 RMK MADISHF
PVD,2017-04-01 19:45,-71.4325,41.7219,M,M,M,M,M,M,29.78,M,8.00,M,BKN,OVC,M,M,1500.00,2100.00,M,M,-RA -SN BR,KPVD 011945Z AUTO /////KT 8SM -RA -SN BR BKN015 OVC021 A2978 RMK  RAB00 MADISHF
PVD,2017-04-01 19:50,-71.4325,41.7219,M,M,M,10.00,24.00,M,29.78,M,8.00,M,BKN,OVC,M,M,1300.00,1800.00,M,M,-RA -SN BR,KPVD 011950Z AUTO 01024KT 8SM -RA -SN BR BKN013 OVC018 A2978 RMK  RAB00 MADISHF
PVD,2017-04-01 19:51,-71.4325,41.7219,36.00,32.00,85.23,10.00,21.00,0.00,29.78,1008.40,3.00,32.00,BKN,BKN,OVC,M,1400.00,2500.00,3400.00,M,-SNRA BR,KPVD 011951Z 01021G32KT 3SM -SNRA BR BKN014 BKN025 OVC034 02/00 A2978 RMK AO2 PK WND 02034/1856 SFC VIS 8 SLP084 RAB00 CIG 011V019 P0000 T00220000
PVD,2017-04-01 19:55,-71.4325,41.7219,M,M,M,M,M,M,29.78,M,7.00,M,BKN,OVC,M,M,1400.00,1800.00,M,M,-RA -SN,KPVD 011955Z AUTO /////KT 7SM -RA -SN BKN014 OVC018 A2978 RMK MADISHF
PVD,2017-04-01 20:00,-71.4325,41.7219,M,M,M,M,M,M,29.79,M,6.00,M,BKN,OVC,M,M,1200.00,1800.00,M,M,-RA -SN,KPVD 012000Z AUTO /////KT 6SM -RA -SN BKN012 OVC018 A2979 RMK MADISHF
PVD,2017-04-01 20:05,-71.4325,41.7219,M,M,M,M,M,M,29.80,M,6.00,27.00,BKN,OVC,M,M,1200.00,1800.00,M,M,-RA -SN,KPVD 012005Z AUTO /////G27KT 6SM -RA -SN BKN012 OVC018 A2980 RMK MADISHF
PVD,2017-04-01 20:10,-71.4325,41.7219,M,M,M,360.00,21.00,M,29.80,M,6.00,26.00,OVC,M,M,M,1400.00,M,M,M,-RA -SN,KPVD 012010Z AUTO 36021G26KT 6SM -RA -SN OVC014 A2980 RMK MADISHF
PVD,2017-04-01 20:15,-71.4325,41.7219,M,M,M,360.00,20.00,M,29.81,M,6.00,M,OVC,M,M,M,1400.00,M,M,M,-RA BR,KPVD 012015Z AUTO 36020KT 6SM -RA BR OVC014 A2981 RMK  SNE08 MADISHF
PVD,2017-04-01 20:20,-71.4325,41.7219,M,M,M,M,M,M,29.81,M,8.00,M,BKN,OVC,M,M,1400.00,2100.00,M,M,-RA,KPVD 012020Z AUTO /////KT 8SM -RA BKN014 OVC021 A2981 RMK  SNE08 MADISHF
PVD,2017-04-01 20:25,-71.4325,41.7219,M,M,M,M,M,M,29.82,M,10.00,M,OVC,M,M,M,1600.00,M,M,M,-RA,KPVD 012025Z AUTO /////KT 10SM -RA OVC016 A2982 RMK  SNE08 MADISHF
PVD,2017-04-01 20:30,-71.4325,41.7219,37.00,32.00,81.93,360.00,21.00,0.00,29.82,M,3.00,28.00,FEW,BKN,OVC,M,900.00,1500.00,2300.00,M,-RA,KPVD 012030Z 36021G28KT 3SM -RA FEW009 BKN015 OVC023 03/00 A2982 RMK AO2 PK WND 01032/1959 SFC VIS 9 SNE08 CIG 012V021 P0000 T00280000
PVD,2017-04-01 20:35,-71.4325,41.7219,M,M,M,360.00,19.00,M,29.83,M,9.00,M,BKN,OVC,M,M,1500.00,1900.00,M,M,-RA,KPVD 012035Z AUTO 36019KT 9SM -RA BKN015 OVC019 A2983 RMK  SNE08 CIG 012V021 MADISHF
PVD,2017-04-01 20:40,-71.4325,41.7219,M,M,M,M,M,M,29.83,M,10.00,M,BKN,OVC,M,M,1500.00,1900.00,M,M,-RA,KPVD 012040Z AUTO /////KT 10SM -RA BKN015 OVC019 A2983 RMK  SNE08 CIG 012V021 MADISHF
PVD,2017-04-01 20:45,-71.4325,41.7219,M,M,M,M,M,M,29.83,M,10.00,M,BKN,OVC,M,M,1500.00,2100.00,M,M,-RA,KPVD 012045Z AUTO /////KT 10SM -RA BKN015 OVC021 A2983 RMK  SNE08 CIG 012V021 MADISHF
PVD,2017-04-01 20:50,-71.4325,41.7219,M,M,M,10.00,23.00,M,29.82,M,10.00,M,BKN,BKN,OVC,M,1500.00,2100.00,2900.00,M,-DZ,KPVD 012050Z AUTO 01023KT 10SM -DZ BKN015 BKN021 OVC029 A2982 RMK  SNE08RAE43DZB43 CIG 012V021 MADISHF
PVD,2017-04-01 20:51,-71.4325,41.7219,37.00,33.10,85.64,10.00,20.00,0.00,29.82,1009.80,3.00,31.00,BKN,BKN,OVC,M,1500.00,2100.00,2900.00,M,-DZ,KPVD 012051Z 01020G31KT 3SM -DZ BKN015 BKN021 OVC029 03/01 A2982 RMK AO2 PK WND 01032/1959 SFC VIS 10 SLP098 SNE08RAE43DZB43 CIG 012V021 P0000 60000 T00280006 53023
PVD,2017-04-01 20:55,-71.4325,41.7219,M,M,M,M,M,M,29.82,M,10.00,M,BKN,BKN,OVC,M,1500.00,2100.00,2900.00,M,-DZ,KPVD 012055Z AUTO /////KT 10SM -DZ BKN015 BKN021 OVC029 A2982 RMK MADISHF
PVD,2017-04-01 21:00,-71.4325,41.7219,M,M,M,M,M,M,29.82,M,10.00,M,BKN,BKN,OVC,M,1500.00,2100.00,3100.00,M,-DZ,KPVD 012100Z AUTO /////KT 10SM -DZ BKN015 BKN021 OVC031 A2982 RMK MADISHF
PVD,2017-04-01 21:05,-71.4325,41.7219,M,M,M,M,M,M,29.83,M,10.00,M,BKN,BKN,OVC,M,1500.00,2100.00,3300.00,M,-DZ,KPVD 012105Z AUTO /////KT 10SM -DZ BKN015 BKN021 OVC033 A2983 RMK MADISHF
PVD,2017-04-01 21:10,-71.4325,41.7219,M,M,M,M,M,M,29.84,M,10.00,M,BKN,OVC,M,M,1500.00,3300.00,M,M,-DZ,KPVD 012110Z AUTO /////KT 10SM -DZ BKN015 OVC033 A2984 RMK MADISHF
PVD,2017-04-01 21:15,-71.4325,41.7219,M,M,M,M,M,M,29.84,M,10.00,M,BKN,OVC,M,M,1500.00,3300.00,M,M,-DZ,KPVD 012115Z AUTO /////KT 10SM -DZ BKN015 OVC033 A2984 RMK MADISHF
PVD,2017-04-01 21:20,-71.4325,41.7219,M,M,M,M,M,M,29.85,M,10.00,M,BKN,BKN,OVC,M,1500.00,2100.00,3300.00,M,-DZ,KPVD 012120Z AUTO /////KT 10SM -DZ BKN015 BKN021 OVC033 A2985 RMK MADISHF
PVD,2017-04-01 21:25,-71.4325,41.7219,M,M,M,M,M,M,29.85,M,10.00,M,BKN,BKN,OVC,M,1500.00,2100.00,3300.00,M,-DZ,KPVD 012125Z AUTO /////KT 10SM -DZ BKN015 BKN021 OVC033 A2985 RMK MADISHF
PVD,2017-04-01 21:30,-71.4325,41.7219,M,M,M,M,M,M,29.86,M,10.00,M,BKN,OVC,M,M,1500.00,3999.00,M,M,-DZ,KPVD 012130Z AUTO /////KT 10SM -DZ BKN015 OVC039 A2986 RMK MADISHF
PVD,2017-04-01 21:35,-71.4325,41.7219,M,M,M,M,M,M,29.86,M,10.00,M,OVC,M,M,M,1500.00,M,M,M,-DZ,KPVD 012135Z AUTO /////KT 10SM -DZ OVC015 A2986 RMK MADISHF
PVD,2017-04-01 21:40,-71.4325,41.7219,M,M,M,M,M,M,29.87,M,10.00,M,OVC,M,M,M,1500.00,M,M,M,-DZ,KPVD 012140Z AUTO /////KT 10SM -DZ OVC015 A2987 RMK MADISHF
PVD,2017-04-01 21:45,-71.4325,41.7219,M,M,M,M,M,M,29.88,M,10.00,M,OVC,M,M,M,1699.00,M,M,M,-DZ,KPVD 012145Z AUTO /////KT 10SM -DZ OVC016 A2988 RMK MADISHF
PVD,2017-04-01 21:50,-71.4325,41.7219,M,M,M,M,M,M,29.88,M,10.00,M,BKN,BKN,OVC,M,1699.00,2700.00,3399.00,M,-DZ,KPVD 012150Z AUTO /////KT 10SM -DZ BKN016 BKN027 OVC033 A2988 RMK  CIG 013V022 MADISHF
PVD,2017-04-01 21:51,-71.4325,41.7219,37.00,32.00,81.93,360.00,19.00,0.00,29.88,1011.90,10.00,31.00,BKN,BKN,OVC,M,1700.00,2700.00,3400.00,M,-DZ,KPVD 012151Z 36019G31KT 10SM -DZ BKN017 BKN027 OVC034 03/00 A2988 RMK AO2 PK WND 01032/2126 SLP119 CIG 013V022 P0000 T00280000
PVD,2017-04-01 21:55,-71.4325,41.7219,M,M,M,M,M,M,29.88,M,10.00,M,BKN,OVC,M,M,1699.00,2200.00,M,M,-DZ,KPVD 012155Z AUTO /////KT 10SM -DZ BKN016 OVC022 A2988 RMK MADISHF
PVD,2017-04-01 22:00,-71.4325,41.7219,M,M,M,M,M,M,29.89,M,10.00,M,BKN,OVC,M,M,1699.00,2400.00,M,M,-DZ,KPVD 012200Z AUTO /////KT 10SM -DZ BKN016 OVC024 A2989 RMK MADISHF
PVD,2017-04-01 22:05,-71.4325,41.7219,M,M,M,M,M,M,29.89,M,10.00,M,BKN,OVC,M,M,1699.00,2300.00,M,M,-DZ,KPVD 012205Z AUTO /////KT 10SM -DZ BKN016 OVC023 A2989 RMK MADISHF
PVD,2017-04-01 22:10,-71.4325,41.7219,M,M,M,M,M,M,29.89,M,10.00,M,BKN,OVC,M,M,1699.00,2500.00,M,M,-DZ,KPVD 012210Z AUTO /////KT 10SM -DZ BKN016 OVC025 A2989 RMK MADISHF
PVD,2017-04-01 22:15,-71.4325,41.7219,M,M,M,M,M,M,29.89,M,10.00,M,BKN,BKN,OVC,M,1500.00,1999.00,2500.00,M,-DZ,KPVD 012215Z AUTO /////KT 10SM -DZ BKN015 BKN019 OVC025 A2989 RMK MADISHF
PVD,2017-04-01 22:20,-71.4325,41.7219,M,M,M,M,M,M,29.90,M,10.00,M,BKN,OVC,M,M,1500.00,1999.00,M,M,-DZ,KPVD 012220Z AUTO /////KT 10SM -DZ BKN015 OVC019 A2990 RMK MADISHF
PVD,2017-04-01 22:25,-71.4325,41.7219,M,M,M,M,M,M,29.89,M,10.00,M,BKN,BKN,OVC,M,1500.00,1999.00,2500.00,M,-DZ,KPVD 012225Z AUTO /////KT 10SM -DZ BKN015 BKN019 OVC025 A2989 RMK MADISHF
PVD,2017-04-01 22:30,-71.4325,41.7219,M,M,M,M,M,M,29.90,M,10.00,M,BKN,OVC,M,M,1500.00,1999.00,M,M,-DZ,KPVD 012230Z AUTO /////KT 10SM -DZ BKN015 OVC019 A2990 RMK MADISHF
PVD,2017-04-01 22:35,-71.4325,41.7219,M,M,M,M,M,M,29.90,M,10.00,M,OVC,M,M,M,1500.00,M,M,M,-DZ,KPVD 012235Z AUTO /////KT 10SM -DZ OVC015 A2990 RMK MADISHF
PVD,2017-04-01 22:40,-71.4325,41.7219,M,M,M,M,M,M,29.91,M,10.00,M,OVC,M,M,M,1500.00,M,M,M,-DZ,KPVD 012240Z AUTO /////KT 10SM -DZ OVC015 A2991 RMK MADISHF
PVD,2017-04-01 22:45,-71.4325,41.7219,M,M,M,M,M,M,29.91,M,10.00,M,BKN,BKN,OVC,M,1500.00,1999.00,3900.00,M,-DZ,KPVD 012245Z AUTO /////KT 10SM -DZ BKN015 BKN019 OVC039 A2991 RMK MADISHF
PVD,2017-04-01 22:50,-71.4325,41.7219,M,M,M,M,M,M,29.91,M,10.00,M,BKN,BKN,OVC,M,1500.00,3900.00,6500.00,M,-DZ,KPVD 012250Z AUTO /////KT 10SM -DZ BKN015 BKN039 OVC065 A2991 RMK MADISHF
PVD,2017-04-01 22:51,-71.4325,41.7219,36.00,30.90,81.53,360.00,20.00,0.00,29.91,1012.90,10.00,28.00,BKN,BKN,OVC,M,1500.00,2500.00,6000.00,M,-DZ,KPVD 012251Z 36020G28KT 10SM -DZ BKN015 BKN025 OVC060 02/M01 A2991 RMK AO2 PK WND 36031/2204 SLP129 CIG 011V019 P0000 T00221006
PVD,2017-04-01 22:55,-71.4325,41.7219,M,M,M,360.00,17.00,M,29.91,M,10.00,M,BKN,OVC,M,M,1500.00,6500.00,M,M,-DZ,KPVD 012255Z AUTO 36017KT 10SM -DZ BKN015 OVC065 A2991 RMK MADISHF
PVD,2017-04-01 23:00,-71.4325,41.7219,M,M,M,360.00,18.00,M,29.91,M,10.00,M,BKN,OVC,M,M,1500.00,7000.00,M,M,-DZ,KPVD 012300Z AUTO 36018KT 10SM -DZ BKN015 OVC070 A2991 RMK MADISHF
PVD,2017-04-01 23:05,-71.4325,41.7219,M,M,M,M,M,M,29.92,M,10.00,M,BKN,OVC,M,M,1699.00,7000.00,M,M,-DZ,KPVD 012305Z AUTO /////KT 10SM -DZ BKN016 OVC070 A2992 RMK MADISHF
PVD,2017-04-01 23:10,-71.4325,41.7219,M,M,M,M,M,M,29.92,M,10.00,M,BKN,BKN,OVC,M,1699.00,2200.00,7000.00,M,M,KPVD 012310Z AUTO /////KT 10SM BKN016 BKN022 OVC070 A2992 RMK  DZE05 MADISHF
PVD,2017-04-01 23:15,-71.4325,41.7219,M,M,M,M,M,M,29.92,M,10.00,M,BKN,BKN,OVC,M,1699.00,2200.00,7000.00,M,M,KPVD 012315Z AUTO /////KT 10SM BKN016 BKN022 OVC070 A2992 RMK  DZE05 MADISHF
PVD,2017-04-01 23:20,-71.4325,41.7219,M,M,M,360.00,16.00,M,29.92,M,10.00,M,BKN,BKN,OVC,M,1699.00,2200.00,7000.00,M,M,KPVD 012320Z AUTO 36016KT 10SM BKN016 BKN022 OVC070 A2992 RMK  DZE05 MADISHF
PVD,2017-04-01 23:25,-71.4325,41.7219,M,M,M,M,M,M,29.93,M,10.00,M,BKN,BKN,OVC,M,1699.00,2200.00,7000.00,M,M,KPVD 012325Z AUTO /////KT 10SM BKN016 BKN022 OVC070 A2993 RMK  DZE05 MADISHF
PVD,2017-04-01 23:30,-71.4325,41.7219,M,M,M,M,M,M,29.93,M,10.00,M,BKN,BKN,OVC,M,1600.00,2200.00,7000.00,M,M,KPVD 012330Z AUTO /////KT 10SM BKN016 BKN022 OVC070 A2993 RMK  DZE05 MADISHF
PVD,2017-04-01 23:35,-71.4325,41.7219,M,M,M,M,M,M,29.93,M,10.00,M,BKN,BKN,OVC,M,1600.00,2100.00,6500.00,M,M,KPVD 012335Z AUTO /////KT 10SM BKN016 BKN021 OVC065 A2993 RMK  DZE05 MADISHF
PVD,2017-04-01 23:40,-71.4325,41.7219,M,M,M,M,M,M,29.93,M,10.00,M,BKN,OVC,M,M,1600.00,6500.00,M,M,M,KPVD 012340Z AUTO /////KT 10SM BKN016 OVC065 A2993 RMK  DZE05 MADISHF
PVD,2017-04-01 23:45,-71.4325,41.7219,M,M,M,M,M,M,29.94,M,10.00,M,BKN,BKN,OVC,M,1600.00,4100.00,6500.00,M,M,KPVD 012345Z AUTO /////KT 10SM BKN016 BKN041 OVC065 A2994 RMK  DZE05 MADISHF
PVD,2017-04-01 23:50,-71.4325,41.7219,M,M,M,360.00,18.00,M,29.93,M,10.00,M,BKN,BKN,OVC,M,1600.00,4100.00,6000.00,M,-SN,KPVD 012350Z AUTO 36018KT 10SM -SN BKN016 BKN041 OVC060 A2993 RMK  DZE05SNB25 MADISHF
PVD,2017-04-01 23:51,-71.4325,41.7219,35.10,30.00,81.46,360.00,17.00,0.00,29.93,1013.60,10.00,25.00,BKN,BKN,OVC,M,1600.00,2100.00,6000.00,M,-SN,KPVD 012351Z 36017G25KT 10SM -SN BKN016 BKN021 OVC060 02/M01 A2993 RMK AO2 PK WND 36028/2311 SLP136 DZE05SNB25 P0000 60000 T00171011 10028 20017 51038
PVD,2017-04-01 23:55,-71.4325,41.7219,M,M,M,M,M,M,29.94,M,9.00,M,BKN,BKN,OVC,M,1800.00,4100.00,6000.00,M,-SN,KPVD 012355Z AUTO /////KT 9SM -SN BKN018 BKN041 OVC060 A2994 RMK MADISHF
