#DEBUG: Format Typ    -> comma
#DEBUG: Time Period   -> 2017-04-01 00:00:00+00:00 2017-04-02 00:00:00+00:00
#DEBUG: Time Zone     -> Etc/UTC
#DEBUG: Data Contact   -> daryl herzmann akrherz@iastate.edu 515-294-5978
#DEBUG: Entries Found -> -1
station,valid,lon,lat,tmpf, dwpf, relh, drct, sknt, p01i, alti, mslp, vsby, gust, skyc1, skyc2, skyc3, skyc4, skyl1, skyl2, skyl3, skyl4, presentwx, metar
RCA,2017-04-01 00:58,-103.1036,44.1451,40.60,35.20,80.90,110.00,7.00,0.00,30.10,1021.80,10.00,M,OVC,M,M,M,2500.00,M,M,M,M,KRCA 010058Z AUTO 11007KT 10SM OVC025 05/02 A3010 RMK AO2 SLP218 T00480018
RCA,2017-04-01 01:58,-103.1036,44.1451,40.30,35.60,83.16,150.00,5.00,0.00,30.13,1022.90,10.00,M,OVC,M,M,M,2200.00,M,M,M,M,KRCA 010158Z AUTO 15005KT 10SM OVC022 05/02 A3013 RMK AO2 SLP229 T00460020
RCA,2017-04-01 02:20,-103.1036,44.1451,41.00,35.60,80.93,150.00,6.00,0.00,30.15,M,10.00,M,OVC,M,M,M,2100.00,M,M,M,M,KRCA 010220Z AUTO 15006KT 10SM OVC021 05/02 A3015 RMK AO2
RCA,2017-04-01 02:40,-103.1036,44.1451,41.00,35.60,80.93,170.00,3.00,0.00,30.15,M,10.00,M,OVC,M,M,M,2200.00,M,M,M,M,KRCA 010240Z AUTO 17003KT 10SM OVC022 05/02 A3015 RMK AO2
RCA,2017-04-01 02:58,-103.1036,44.1451,40.10,35.80,84.47,170.00,3.00,0.00,30.16,1023.60,10.00,M,OVC,M,M,M,2300.00,M,M,M,M,KRCA 010258Z AUTO 17003KT 10SM OVC023 05/02 A3016 RMK AO2 SLP236 T00450021
RCA,2017-04-01 03:43,-103.1036,44.1451,39.20,35.60,86.79,230.00,5.00,0.00,30.17,M,10.00,M,SCT,OVC,M,M,2500.00,11000.00,M,M,M,KRCA 010343Z AUTO 23005KT 10SM SCT025 OVC110 04/02 A3017 RMK AO2
RCA,2017-04-01 03:59,-103.1036,44.1451,39.40,35.60,86.12,220.00,4.00,0.00,30.17,1024.00,10.00,M,OVC,M,M,M,11000.00,M,M,M,M,KRCA 010359Z AUTO 22004KT 10SM OVC110 04/02 A3017 RMK AO2 SLP240 T00410020
RCA,2017-04-01 04:58,-103.1036,44.1451,39.20,35.80,87.49,220.00,6.00,0.00,30.17,1023.70,10.00,M,OVC,M,M,M,10000.00,M,M,M,M,KRCA 010458Z AUTO 22006KT 10SM OVC100 04/02 A3017 RMK AO2 SLP237 T00400021
RCA,2017-04-01 05:58,-103.1036,44.1451,38.80,36.10,89.93,200.00,6.00,0.00,30.17,1023.70,10.00,M,BKN,M,M,M,11000.00,M,M,M,M,KRCA 010558Z AUTO 20006KT 10SM BKN110 04/02 A3017 RMK AO2 SLP237 T00380023 10054 20037 50003
RCA,2017-04-01 06:58,-103.1036,44.1451,38.50,36.30,91.71,180.00,4.00,0.00,30.17,1023.70,10.00,M,BKN,M,M,M,10000.00,M,M,M,M,KRCA 010658Z AUTO 18004KT 10SM BKN100 04/02 A3017 RMK AO2 SLP237 T00360024 400620001
RCA,2017-04-01 07:43,-103.1036,44.1451,35.60,35.60,100.00,180.00,6.00,0.00,30.18,M,10.00,M,BKN,M,M,M,2000.00,M,M,M,M,KRCA 010743Z AUTO 18006KT 10SM BKN020 02/02 A3018 RMK AO2 BKN V FEW
RCA,2017-04-01 07:53,-103.1036,44.1451,35.60,35.60,100.00,180.00,6.00,0.00,30.18,M,10.00,M,BKN,M,M,M,1900.00,M,M,M,M,KRCA 010753Z AUTO 18006KT 10SM BKN019 02/02 A3018 RMK AO2
RCA,2017-04-01 07:58,-103.1036,44.1451,35.60,35.40,99.21,180.00,6.00,0.00,30.18,1024.30,10.00,M,BKN,M,M,M,1900.00,M,M,M,M,KRCA 010758Z AUTO 18006KT 10SM BKN019 02/02 A3018 RMK AO2 SLP243 T00200019
RCA,2017-04-01 08:08,-103.1036,44.1451,35.60,35.60,100.00,190.00,6.00,0.00,30.19,M,10.00,M,SCT,BKN,M,M,1900.00,2500.00,M,M,M,KRCA 010808Z AUTO 19006KT 10SM SCT019 BKN025 02/02 A3019 RMK AO2 CIG 019V025 CIG 018 RWY31
RCA,2017-04-01 08:13,-103.1036,44.1451,35.60,35.60,100.00,190.00,7.00,0.00,30.19,M,10.00,M,FEW,SCT,BKN,M,1900.00,2500.00,8000.00,M,M,KRCA 010813Z AUTO 19007KT 10SM FEW019 SCT025 BKN080 02/02 A3019 RMK AO2
RCA,2017-04-01 08:48,-103.1036,44.1451,37.40,37.40,100.00,190.00,7.00,0.00,30.18,M,10.00,M,FEW,BKN,OVC,M,1800.00,2600.00,8000.00,M,M,KRCA 010848Z AUTO 19007KT 10SM FEW018 BKN026 OVC080 03/03 A3018 RMK AO2 CIG 026V080 BKN V SCT
RCA,2017-04-01 08:58,-103.1036,44.1451,37.40,36.30,95.75,200.00,7.00,0.00,30.18,1024.00,10.00,M,BKN,OVC,M,M,2700.00,8000.00,M,M,M,KRCA 010858Z AUTO 20007KT 10SM BKN027 OVC080 03/02 A3018 RMK AO2 SLP240 T00300024 50003
RCA,2017-04-01 09:03,-103.1036,44.1451,37.40,35.60,93.14,200.00,8.00,0.00,30.18,M,10.00,M,SCT,OVC,M,M,2700.00,8000.00,M,M,M,KRCA 010903Z AUTO 20008KT 10SM SCT027 OVC080 03/02 A3018 RMK AO2
RCA,2017-04-01 09:58,-103.1036,44.1451,37.60,36.90,97.28,180.00,5.00,0.00,30.17,1023.70,10.00,M,BKN,OVC,M,M,3200.00,8000.00,M,M,M,KRCA 010958Z AUTO 18005KT 10SM BKN032 OVC080 03/03 A3017 RMK AO2 SLP237 T00310027
RCA,2017-04-01 10:58,-103.1036,44.1451,35.40,35.40,100.00,160.00,5.00,0.00,30.17,1024.00,10.00,M,FEW,M,M,M,3400.00,M,M,M,M,KRCA 011058Z AUTO 16005KT 10SM FEW034 02/02 A3017 RMK AO2 SLP240 T00190019
RCA,2017-04-01 11:58,-103.1036,44.1451,34.90,34.90,100.00,150.00,4.00,0.00,30.16,1023.60,10.00,M,CLR,M,M,M,M,M,M,M,M,KRCA 011158Z AUTO 15004KT 10SM CLR 02/02 A3016 RMK AO2 SLP236 T00160016 10039 20013
RCA,2017-04-01 12:58,-103.1036,44.1451,32.00,32.00,100.00,180.00,7.00,0.00,30.19,1024.90,1.00,M,CLR,M,M,M,M,M,M,M,BR,KRCA 011258Z AUTO 18007KT 1SM R13/P6000FT BR CLR 00/00 A3019 RMK AO2 VIS 1V10 SLP249
RCA,2017-04-01 13:03,-103.1036,44.1451,32.00,32.00,100.00,180.00,7.00,0.00,30.19,M,0.25,M,FEW,M,M,M,2700.00,M,M,M,FG,KRCA 011303Z AUTO 18007KT 1/4SM R13/P6000FT FG FEW027 00/00 A3019 RMK AO2 VIS 1/4V10
RCA,2017-04-01 13:08,-103.1036,44.1451,32.00,32.00,100.00,190.00,7.00,0.00,30.19,M,0.25,M,SCT,M,M,M,2600.00,M,M,M,FG,KRCA 011308Z AUTO 19007KT 1/4SM R13/1400FT FG SCT026 00/00 A3019 RMK AO2 VIS 1/4V3/4
RCA,2017-04-01 13:13,-103.1036,44.1451,33.80,33.80,100.00,190.00,6.00,0.00,30.19,M,0.25,M,BKN,M,M,M,2500.00,M,M,M,FG,KRCA 011313Z AUTO 19006KT 1/4SM R13/2000FT FG BKN025 01/01 A3019 RMK AO2
RCA,2017-04-01 13:18,-103.1036,44.1451,33.80,33.80,100.00,190.00,6.00,0.00,30.19,M,0.75,M,BKN,M,M,M,2500.00,M,M,M,BR,KRCA 011318Z AUTO 19006KT 3/4SM R13/P6000FT BR BKN025 01/01 A3019 RMK AO2 VIS 1/4V3/4
RCA,2017-04-01 13:23,-103.1036,44.1451,33.80,33.80,100.00,190.00,6.00,0.00,30.19,M,3.00,M,BKN,M,M,M,2400.00,M,M,M,BR,KRCA 011323Z AUTO 19006KT 3SM BR BKN024 01/01 A3019 RMK AO2
RCA,2017-04-01 13:33,-103.1036,44.1451,35.60,35.60,100.00,190.00,8.00,0.00,30.18,M,2.50,M,BKN,M,M,M,2400.00,M,M,M,BR,KRCA 011333Z AUTO 19008KT 2 1/2SM BR BKN024 02/02 A3018 RMK AO2 VIS 2 1/2V4 BKN V OVC
RCA,2017-04-01 13:38,-103.1036,44.1451,35.60,35.60,100.00,190.00,9.00,0.00,30.18,M,3.00,M,BKN,M,M,M,2400.00,M,M,M,BR,KRCA 011338Z AUTO 19009KT 3SM BR BKN024 02/02 A3018 RMK AO2 BKN V OVC
RCA,2017-04-01 13:43,-103.1036,44.1451,35.60,35.60,100.00,190.00,9.00,0.00,30.18,M,5.00,M,SCT,M,M,M,2300.00,M,M,M,BR,KRCA 011343Z AUTO 19009KT 5SM BR SCT023 02/02 A3018 RMK AO2
RCA,2017-04-01 13:58,-103.1036,44.1451,36.70,36.70,100.00,190.00,8.00,0.00,30.18,1024.30,10.00,M,CLR,M,M,M,M,M,M,M,M,KRCA 011358Z AUTO 19008KT 10SM CLR 03/03 A3018 RMK AO2 SLP243 T00260026
RCA,2017-04-01 14:58,-103.1036,44.1451,40.30,39.00,95.06,190.00,10.00,0.00,30.18,1024.00,10.00,M,CLR,M,M,M,M,M,M,M,M,KRCA 011458Z AUTO 19010KT 10SM CLR 05/04 A3018 RMK AO2 SLP240 T00460039 50005
RCA,2017-04-01 15:58,-103.1036,44.1451,43.50,37.00,77.69,180.00,16.00,0.00,30.17,1023.70,10.00,M,OVC,M,M,M,4500.00,M,M,M,M,KRCA 011558Z AUTO 18016KT 10SM OVC045 06/03 A3017 RMK AO2 SLP237 T00640028
RCA,2017-04-01 16:58,-103.1036,44.1451,49.60,36.00,59.31,190.00,12.00,0.00,30.14,1022.10,10.00,M,CLR,M,M,M,M,M,M,M,M,KRCA 011658Z AUTO 19012KT 10SM CLR 10/02 A3014 RMK AO2 SLP221 T00980022
RCA,2017-04-01 17:58,-103.1036,44.1451,53.20,36.30,52.54,190.00,13.00,0.00,30.11,M,10.00,M,CLR,M,M,M,M,M,M,M,M,KRCA 011758Z AUTO 19013KT 10SM CLR 12/02 A3011 RMK AO2 SLPNO T01180024 10120 20001 57021
RCA,2017-04-01 18:58,-103.1036,44.1451,55.40,37.20,50.24,180.00,13.00,0.00,30.08,M,10.00,M,FEW,M,M,M,4100.00,M,M,M,M,KRCA 011858Z AUTO 18013KT 10SM FEW041 13/03 A3008 RMK AO2 SLPNO T01300029
RCA,2017-04-01 19:05,-103.1036,44.1451,55.40,37.40,50.64,200.00,16.00,0.00,30.07,M,10.00,21.00,FEW,M,M,M,3800.00,M,M,M,M,KRCA 011905Z AUTO 20016G21KT 10SM FEW038 13/03 A3007 RMK AO2 WSHFT 1850
RCA,2017-04-01 19:58,-103.1036,44.1451,57.00,34.30,42.26,190.00,13.00,0.00,30.04,M,10.00,22.00,CLR,M,M,M,M,M,M,M,M,KRCA 011958Z AUTO 19013G22KT 10SM CLR 14/01 A3004 RMK AO2 SLPNO T01390013
RCA,2017-04-01 20:58,-103.1036,44.1451,57.40,34.20,41.49,170.00,19.00,0.00,30.00,M,10.00,23.00,CLR,M,M,M,M,M,M,M,M,KRCA 012058Z AUTO 17019G23KT 10SM CLR 14/01 A3000 RMK AO2 SLPNO T01410012 57034
RCA,2017-04-01 21:58,-103.1036,44.1451,57.40,36.00,44.57,180.00,22.00,0.00,29.98,1016.00,10.00,28.00,CLR,M,M,M,M,M,M,M,M,KRCA 012158Z AUTO 18022G28KT 10SM CLR 14/02 A2998 RMK AO2 PK WND 16031/16 SLP160 T01410022
RCA,2017-04-01 22:58,-103.1036,44.1451,56.10,36.00,46.71,170.00,21.00,0.00,29.96,1015.60,10.00,30.00,CLR,M,M,M,M,M,M,M,M,KRCA 012258Z AUTO 17021G30KT 10SM CLR 13/02 A2996 RMK AO2 PK WND 16032/56 SLP156 T01340022
RCA,2017-04-01 23:58,-103.1036,44.1451,53.60,36.50,52.19,180.00,20.00,0.00,29.95,1015.50,10.00,29.00,CLR,M,M,M,M,M,M,M,M,KRCA 012358Z AUTO 18020G29KT 10SM CLR 12/03 A2995 RMK AO2 PK WND 16031/10 SLP155 T01200025 10144 20120 57014
