#DEBUG: Format Typ    -> comma
#DEBUG: Time Period   -> 2017-04-01 00:00:00+00:00 2017-04-02 00:00:00+00:00
#DEBUG: Time Zone     -> Etc/UTC
#DEBUG: Data Contact   -> daryl herzmann akrherz@iastate.edu 515-294-5978
#DEBUG: Entries Found -> -1
station,valid,lon,lat,tmpf, dwpf, relh, drct, sknt, p01i, alti, mslp, vsby, gust, skyc1, skyc2, skyc3, skyc4, skyl1, skyl2, skyl3, skyl4, presentwx, metar
RYT,2017-04-01 00:06,-77.4300,39.7340,42.80,42.80,100.00,300.00,3.00,0.00,29.65,M,4.00,M,OVC,M,M,M,300.00,M,M,M,BR,KRYT 010006Z AUTO 30003KT 4SM BR OVC003 06/06 A2965 RMK AO2 TSNO $
RYT,2017-04-01 00:24,-77.4300,39.7340,42.80,42.80,100.00,210.00,3.00,0.00,29.67,M,2.50,M,OVC,M,M,M,300.00,M,M,M,BR,KRYT 010024Z AUTO 21003KT 2 1/2SM BR OVC003 06/06 A2967 RMK AO2 TSNO $
RYT,2017-04-01 00:53,-77.4300,39.7340,41.00,41.00,100.00,0.00,0.00,0.00,29.65,1004.80,1.50,M,OVC,M,M,M,300.00,M,M,M,BR,KRYT 010053Z AUTO 00000KT 1 1/2SM BR OVC003 05/05 A2965 RMK AO2 SLP048 T00500050 TSNO $
RYT,2017-04-01 01:08,-77.4300,39.7340,42.80,42.80,100.00,0.00,0.00,0.00,29.65,M,2.50,M,OVC,M,M,M,300.00,M,M,M,BR,KRYT 010108Z AUTO 00000KT 2 1/2SM BR OVC003 06/06 A2965 RMK AO2 RAB0055E02 P0000 TSNO $
RYT,2017-04-01 01:18,-77.4300,39.7340,42.80,42.80,100.00,0.00,0.00,0.00,29.66,M,4.00,M,OVC,M,M,M,300.00,M,M,M,BR,KRYT 010118Z AUTO 00000KT 4SM BR OVC003 06/06 A2966 RMK AO2 RAB0055E02 P0000 TSNO $
RYT,2017-04-01 01:53,-77.4300,39.7340,42.10,42.10,100.00,0.00,0.00,0.00,29.66,1005.10,5.00,M,OVC,M,M,M,500.00,M,M,M,BR,KRYT 010153Z AUTO 00000KT 5SM BR OVC005 06/06 A2966 RMK AO2 RAB0055E02 CIG 004V009 SLP051 P0000 T00560056 TSNO $
RYT,2017-04-01 02:21,-77.4300,39.7340,42.80,42.80,100.00,0.00,0.00,0.00,29.65,M,5.00,M,SCT,OVC,M,M,700.00,1300.00,M,M,BR,KRYT 010221Z AUTO 00000KT 5SM BR SCT007 OVC013 06/06 A2965 RMK AO2 TSNO $
RYT,2017-04-01 02:53,-77.4300,39.7340,41.00,41.00,100.00,260.00,3.00,0.00,29.65,1004.80,5.00,M,FEW,OVC,M,M,400.00,1200.00,M,M,BR,KRYT 010253Z AUTO 26003KT 5SM BR FEW004 OVC012 05/05 A2965 RMK AO2 SLP048 60000 T00500050 58003 TSNO $
RYT,2017-04-01 03:10,-77.4300,39.7340,41.00,41.00,100.00,0.00,0.00,0.00,29.65,M,4.00,M,BKN,OVC,M,M,500.00,1200.00,M,M,BR,KRYT 010310Z AUTO 00000KT 4SM BR BKN005 OVC012 05/05 A2965 RMK AO2 CIG 003V008 TSNO $
RYT,2017-04-01 05:11,-77.4300,39.7340,42.80,42.80,100.00,0.00,0.00,0.00,29.66,M,2.50,M,BKN,OVC,M,M,600.00,1200.00,M,M,-RA BR,KRYT 010511Z AUTO 00000KT 2 1/2SM -RA BR BKN006 OVC012 06/06 A2966 RMK AO2 RAB07 CIG 004V010 P0000 TSNO $
RYT,2017-04-01 07:03,-77.4300,39.7340,42.80,42.80,100.00,M,5.00,0.00,29.68,M,4.00,M,SCT,BKN,OVC,M,1600.00,5500.00,7500.00,M,-RA BR,KRYT 010703Z AUTO VRB05KT 4SM -RA BR SCT016 BKN055 OVC075 06/06 A2968 RMK AO2 P0000 TSNO $
RYT,2017-04-01 07:53,-77.4300,39.7340,44.10,41.00,88.77,350.00,6.00,0.00,29.71,1006.80,10.00,M,FEW,OVC,M,M,3600.00,6000.00,M,M,M,KRYT 010753Z AUTO 35006KT 10SM FEW036 OVC060 07/05 A2971 RMK AO2 RAE15 SLP068 P0000 T00670050 TSNO $
RYT,2017-04-01 08:53,-77.4300,39.7340,44.10,39.90,85.06,360.00,5.00,0.00,29.74,1007.70,10.00,M,OVC,M,M,M,4800.00,M,M,M,M,KRYT 010853Z AUTO 36005KT 10SM OVC048 07/04 A2974 RMK AO2 SLP077 60000 T00670044 53025 TSNO $
RYT,2017-04-01 09:53,-77.4300,39.7340,45.00,41.00,85.77,M,5.00,0.00,29.75,1008.20,10.00,15.00,FEW,SCT,M,M,4200.00,5000.00,M,M,M,KRYT 010953Z AUTO VRB05G15KT 10SM FEW042 SCT050 07/05 A2975 RMK AO2 SLP082 T00720050 TSNO $
RYT,2017-04-01 10:20,-77.4300,39.7340,44.60,41.00,87.09,M,3.00,0.00,29.78,M,10.00,M,BKN,BKN,M,M,2200.00,5000.00,M,M,M,KRYT 011020Z AUTO VRB03KT 10SM BKN022 BKN050 07/05 A2978 RMK AO2 TSNO $
RYT,2017-04-01 10:53,-77.4300,39.7340,46.00,41.00,82.58,M,4.00,0.00,29.79,1009.30,10.00,M,BKN,OVC,M,M,2200.00,4600.00,M,M,M,KRYT 011053Z AUTO VRB04KT 10SM BKN022 OVC046 08/05 A2979 RMK AO2 SLP093 T00780050 TSNO $
RYT,2017-04-01 11:53,-77.4300,39.7340,46.00,42.10,86.16,0.00,0.00,0.00,29.82,1010.50,10.00,M,OVC,M,M,M,2400.00,M,M,M,M,KRYT 011153Z AUTO 00000KT 10SM OVC024 08/06 A2982 RMK AO2 SLP105 60000 70068 T00780056 10078 20050 53028 TSNO $
RYT,2017-04-01 12:53,-77.4300,39.7340,46.90,42.10,83.28,300.00,7.00,0.00,29.84,1011.20,10.00,M,OVC,M,M,M,1800.00,M,M,M,M,KRYT 011253Z AUTO 30007KT 260V320 10SM OVC018 08/06 A2984 RMK AO2 SLP112 T00830056 TSNO $
RYT,2017-04-01 13:53,-77.4300,39.7340,46.90,39.90,76.48,M,5.00,0.00,29.86,1011.80,10.00,M,OVC,M,M,M,2200.00,M,M,M,M,KRYT 011353Z AUTO VRB05KT 10SM OVC022 08/04 A2986 RMK AO2 SLP118 T00830044 TSNO $
RYT,2017-04-01 14:53,-77.4300,39.7340,48.00,39.90,73.38,310.00,8.00,0.00,29.88,1012.50,10.00,15.00,OVC,M,M,M,2200.00,M,M,M,M,KRYT 011453Z AUTO 31008G15KT 270V350 10SM OVC022 09/04 A2988 RMK AO2 SLP125 T00890044 53020 TSNO $
RYT,2017-04-01 18:53,-77.4300,39.7340,48.90,37.90,65.62,M,4.00,0.00,29.94,1014.60,10.00,M,OVC,M,M,M,2800.00,M,M,M,M,KRYT 011853Z AUTO VRB04KT 10SM OVC028 09/03 A2994 RMK AO2 SLP146 T00940033 TSNO $
RYT,2017-04-01 19:10,-77.4300,39.7340,48.20,37.40,66.05,M,5.00,0.00,29.94,M,10.00,17.00,OVC,M,M,M,3000.00,M,M,M,M,KRYT 011910Z AUTO VRB05G17KT 10SM OVC030 09/03 A2994 RMK AO2 TSNO $
RYT,2017-04-01 19:53,-77.4300,39.7340,48.90,37.00,63.34,M,5.00,0.00,29.95,1014.70,10.00,M,OVC,M,M,M,3000.00,M,M,M,M,KRYT 011953Z AUTO VRB05KT 10SM OVC030 09/03 A2995 RMK AO2 SLP147 T00940028 TSNO $
RYT,2017-04-01 20:53,-77.4300,39.7340,48.00,37.00,65.51,M,5.00,0.00,29.98,1015.80,10.00,16.00,OVC,M,M,M,3000.00,M,M,M,M,KRYT 012053Z AUTO VRB05G16KT 10SM OVC030 09/03 A2998 RMK AO2 SLP158 T00890028 53017 TSNO $
RYT,2017-04-01 21:53,-77.4300,39.7340,46.90,37.00,68.27,M,4.00,0.00,30.00,1016.50,10.00,M,OVC,M,M,M,3200.00,M,M,M,M,KRYT 012153Z AUTO VRB04KT 10SM OVC032 08/03 A3000 RMK AO2 SLP165 T00830028 TSNO $
RYT,2017-04-01 22:53,-77.4300,39.7340,46.00,36.00,67.90,M,3.00,0.00,30.05,1018.20,10.00,M,OVC,M,M,M,3200.00,M,M,M,M,KRYT 012253Z AUTO VRB03KT 10SM OVC032 08/02 A3005 RMK AO2 SLP182 T00780022 TSNO $
RYT,2017-04-01 23:53,-77.4300,39.7340,46.00,37.00,70.64,M,3.00,0.00,30.07,1018.90,10.00,M,OVC,M,M,M,3200.00,M,M,M,M,KRYT 012353Z AUTO VRB03KT 10SM OVC032 08/03 A3007 RMK AO2 SLP189 T00780028 10094 20078 51030 TSNO $
