#DEBUG: Format Typ    -> comma
#DEBUG: Time Period   -> 2017-04-01 00:00:00+00:00 2017-04-02 00:00:00+00:00
#DEBUG: Time Zone     -> Etc/UTC
#DEBUG: Data Contact   -> daryl herzmann akrherz@iastate.edu 515-294-5978
#DEBUG: Entries Found -> -1
station,valid,lon,lat,tmpf, dwpf, relh, drct, sknt, p01i, alti, mslp, vsby, gust, skyc1, skyc2, skyc3, skyc4, skyl1, skyl2, skyl3, skyl4, presentwx, metar
SJS,2017-04-01 00:15,-82.6367,37.7510,52.50,49.60,89.82,250.00,7.00,0.00,29.83,M,7.00,M,BKN,OVC,M,M,1300.00,2600.00,M,M,DZ,KSJS 010015Z AUTO 25007KT 7SM DZ BKN013 OVC026 11/10 A2983 RMK AO2 T01140098
SJS,2017-04-01 00:35,-82.6367,37.7510,52.20,50.00,92.18,260.00,6.00,0.00,29.84,M,10.00,M,OVC,M,M,M,1300.00,M,M,M,-DZ,KSJS 010035Z AUTO 26006KT 10SM -DZ OVC013 11/10 A2984 RMK AO2 T01120100
SJS,2017-04-01 00:55,-82.6367,37.7510,52.20,50.00,92.18,260.00,7.00,0.00,29.84,M,10.00,M,OVC,M,M,M,1500.00,M,M,M,M,KSJS 010055Z AUTO 26007KT 10SM OVC015 11/10 A2984 RMK AO2 T01120100
SJS,2017-04-01 01:15,-82.6367,37.7510,52.50,49.10,88.16,270.00,7.00,0.00,29.86,M,10.00,M,BKN,OVC,M,M,1700.00,3200.00,M,M,M,KSJS 010115Z AUTO 27007KT 10SM BKN017 OVC032 11/10 A2986 RMK AO2 T01140095
SJS,2017-04-01 01:35,-82.6367,37.7510,52.70,49.50,88.83,260.00,7.00,0.00,29.87,M,10.00,M,BKN,OVC,M,M,1500.00,1900.00,M,M,M,KSJS 010135Z AUTO 26007KT 10SM BKN015 OVC019 12/10 A2987 RMK AO2 T01150097
SJS,2017-04-01 01:55,-82.6367,37.7510,52.20,50.00,92.18,270.00,10.00,0.00,29.88,M,7.00,15.00,OVC,M,M,M,1300.00,M,M,M,M,KSJS 010155Z AUTO 27010G15KT 7SM OVC013 11/10 A2988 RMK AO2 T01120100
SJS,2017-04-01 02:15,-82.6367,37.7510,51.30,50.00,95.29,280.00,9.00,0.00,29.89,M,5.00,15.00,OVC,M,M,M,1100.00,M,M,M,-DZ,KSJS 010215Z AUTO 28009G15KT 240V310 5SM -DZ OVC011 11/10 A2989 RMK AO2 T01070100
SJS,2017-04-01 02:35,-82.6367,37.7510,50.90,48.70,92.14,280.00,10.00,0.00,29.89,M,10.00,18.00,OVC,M,M,M,1100.00,M,M,M,M,KSJS 010235Z AUTO 28010G18KT 10SM OVC011 11/09 A2989 RMK AO2 T01050093
SJS,2017-04-01 02:55,-82.6367,37.7510,50.90,48.70,92.14,290.00,6.00,0.00,29.90,M,10.00,M,OVC,M,M,M,1300.00,M,M,M,M,KSJS 010255Z AUTO 29006KT 10SM OVC013 11/09 A2990 RMK AO2 T01050093
SJS,2017-04-01 03:15,-82.6367,37.7510,50.90,48.40,91.11,320.00,4.00,0.00,29.90,M,10.00,M,OVC,M,M,M,1100.00,M,M,M,M,KSJS 010315Z AUTO 32004KT 10SM OVC011 11/09 A2990 RMK AO2 T01050091
SJS,2017-04-01 03:35,-82.6367,37.7510,50.90,48.00,89.75,290.00,7.00,0.00,29.90,M,10.00,M,BKN,BKN,OVC,M,1100.00,1900.00,2700.00,M,M,KSJS 010335Z AUTO 29007KT 10SM BKN011 BKN019 OVC027 11/09 A2990 RMK AO2 T01050089
SJS,2017-04-01 03:55,-82.6367,37.7510,50.90,47.50,88.08,280.00,5.00,0.00,29.90,M,10.00,M,BKN,OVC,M,M,1700.00,2700.00,M,M,M,KSJS 010355Z AUTO 28005KT 10SM BKN017 OVC027 11/09 A2990 RMK AO2 T01050086
SJS,2017-04-01 04:15,-82.6367,37.7510,50.90,47.30,87.42,280.00,5.00,0.00,29.90,M,10.00,M,OVC,M,M,M,1700.00,M,M,M,M,KSJS 010415Z AUTO 28005KT 10SM OVC017 11/09 A2990 RMK AO2 T01050085
SJS,2017-04-01 04:35,-82.6367,37.7510,50.90,46.80,85.79,270.00,8.00,0.00,29.91,M,10.00,M,OVC,M,M,M,1500.00,M,M,M,M,KSJS 010435Z AUTO 27008KT 10SM OVC015 11/08 A2991 RMK AO2 T01050082
SJS,2017-04-01 04:55,-82.6367,37.7510,50.50,47.10,88.06,280.00,6.00,0.00,29.91,M,10.00,M,OVC,M,M,M,1500.00,M,M,M,M,KSJS 010455Z AUTO 28006KT 10SM OVC015 10/08 A2991 RMK AO2 T01030084 402000103
SJS,2017-04-01 05:15,-82.6367,37.7510,50.40,46.80,87.39,270.00,5.00,0.00,29.92,M,10.00,M,OVC,M,M,M,1500.00,M,M,M,M,KSJS 010515Z AUTO 27005KT 10SM OVC015 10/08 A2992 RMK AO2 T01020082
SJS,2017-04-01 05:35,-82.6367,37.7510,50.20,46.20,86.07,270.00,7.00,0.00,29.92,M,10.00,M,OVC,M,M,M,1500.00,M,M,M,M,KSJS 010535Z AUTO 27007KT 10SM OVC015 10/08 A2992 RMK AO2 T01010079
SJS,2017-04-01 05:55,-82.6367,37.7510,50.20,46.00,85.42,280.00,7.00,0.00,29.93,M,10.00,M,OVC,M,M,M,1500.00,M,M,M,M,KSJS 010555Z AUTO 28007KT 250V310 10SM OVC015 10/08 A2993 RMK AO2 T01010078 10117 20101
SJS,2017-04-01 06:15,-82.6367,37.7510,50.00,45.90,85.74,270.00,9.00,0.00,29.93,M,10.00,M,OVC,M,M,M,1500.00,M,M,M,M,KSJS 010615Z AUTO 27009KT 10SM OVC015 10/08 A2993 RMK AO2 T01000077
SJS,2017-04-01 06:35,-82.6367,37.7510,50.00,45.90,85.74,290.00,5.00,0.00,29.94,M,10.00,M,OVC,M,M,M,1500.00,M,M,M,M,KSJS 010635Z AUTO 29005KT 10SM OVC015 10/08 A2994 RMK AO2 T01000077
SJS,2017-04-01 06:55,-82.6367,37.7510,49.50,46.00,87.68,280.00,8.00,0.00,29.94,M,10.00,14.00,OVC,M,M,M,1300.00,M,M,M,M,KSJS 010655Z AUTO 28008G14KT 230V310 10SM OVC013 10/08 A2994 RMK AO2 T00970078
SJS,2017-04-01 07:15,-82.6367,37.7510,49.10,46.40,90.35,280.00,5.00,0.00,29.95,M,10.00,M,OVC,M,M,M,1100.00,M,M,M,M,KSJS 010715Z AUTO 28005KT 10SM OVC011 10/08 A2995 RMK AO2 T00950080
SJS,2017-04-01 07:35,-82.6367,37.7510,48.20,46.80,94.87,280.00,7.00,0.00,29.96,M,7.00,M,OVC,M,M,M,1100.00,M,M,M,-DZ,KSJS 010735Z AUTO 28007KT 7SM -DZ OVC011 09/08 A2996 RMK AO2 T00900082
SJS,2017-04-01 07:55,-82.6367,37.7510,48.20,47.30,96.68,290.00,4.00,0.00,29.96,M,5.00,M,OVC,M,M,M,900.00,M,M,M,DZ,KSJS 010755Z AUTO 29004KT 5SM DZ OVC009 09/09 A2996 RMK AO2 T00900085
SJS,2017-04-01 08:15,-82.6367,37.7510,47.80,47.10,97.40,300.00,5.00,0.00,29.97,M,10.00,M,OVC,M,M,M,700.00,M,M,M,M,KSJS 010815Z AUTO 30005KT 10SM OVC007 09/08 A2997 RMK AO2 T00880084
SJS,2017-04-01 08:35,-82.6367,37.7510,48.00,46.20,93.44,290.00,7.00,0.00,29.97,M,10.00,M,OVC,M,M,M,900.00,M,M,M,M,KSJS 010835Z AUTO 29007KT 10SM OVC009 09/08 A2997 RMK AO2 T00890079
SJS,2017-04-01 08:55,-82.6367,37.7510,48.20,45.50,90.32,290.00,4.00,0.00,29.98,M,10.00,M,OVC,M,M,M,1100.00,M,M,M,M,KSJS 010855Z AUTO 29004KT 10SM OVC011 09/08 A2998 RMK AO2 T00900075
SJS,2017-04-01 09:15,-82.6367,37.7510,47.70,45.50,92.03,300.00,6.00,0.00,29.99,M,10.00,M,OVC,M,M,M,1100.00,M,M,M,M,KSJS 010915Z AUTO 30006KT 10SM OVC011 09/08 A2999 RMK AO2 T00870075
SJS,2017-04-01 09:35,-82.6367,37.7510,47.50,45.50,92.72,280.00,5.00,0.00,30.00,M,10.00,M,OVC,M,M,M,1100.00,M,M,M,M,KSJS 010935Z AUTO 28005KT 10SM OVC011 09/08 A3000 RMK AO2 T00860075
SJS,2017-04-01 09:55,-82.6367,37.7510,47.30,45.50,93.42,310.00,6.00,0.00,30.01,M,10.00,M,OVC,M,M,M,900.00,M,M,M,M,KSJS 010955Z AUTO 31006KT 280V350 10SM OVC009 09/08 A3001 RMK AO2 T00850075
SJS,2017-04-01 10:15,-82.6367,37.7510,46.90,45.50,94.84,310.00,4.00,0.00,30.02,M,5.00,M,OVC,M,M,M,900.00,M,M,M,RA,KSJS 011015Z AUTO 31004KT 5SM RA OVC009 08/08 A3002 RMK AO2 T00830075
SJS,2017-04-01 10:35,-82.6367,37.7510,46.40,45.90,98.13,300.00,3.00,0.00,30.02,M,4.00,M,OVC,M,M,M,900.00,M,M,M,DZ,KSJS 011035Z AUTO 30003KT 4SM DZ OVC009 08/08 A3002 RMK AO2 T00800077
SJS,2017-04-01 10:55,-82.6367,37.7510,45.90,45.90,100.00,330.00,4.00,0.00,30.04,M,3.00,M,BKN,OVC,M,M,600.00,1100.00,M,M,DZ,KSJS 011055Z AUTO 33004KT 3SM DZ BKN006 OVC011 08/08 A3004 RMK AO2 T00770077
SJS,2017-04-01 11:15,-82.6367,37.7510,45.50,45.50,100.00,330.00,6.00,0.00,30.05,M,2.00,M,OVC,M,M,M,400.00,M,M,M,DZ,KSJS 011115Z AUTO 33006KT 2SM DZ OVC004 08/08 A3005 RMK AO2 T00750075
SJS,2017-04-01 11:35,-82.6367,37.7510,45.00,45.00,100.00,310.00,4.00,0.00,30.06,M,2.50,M,BKN,BKN,OVC,M,700.00,1000.00,1500.00,M,DZ,KSJS 011135Z AUTO 31004KT 2 1/2SM DZ BKN007 BKN010 OVC015 07/07 A3006 RMK AO2 T00720072
SJS,2017-04-01 11:55,-82.6367,37.7510,44.80,44.80,100.00,350.00,3.00,0.00,30.06,M,2.50,M,OVC,M,M,M,500.00,M,M,M,-DZ,KSJS 011155Z AUTO 35003KT 2 1/2SM -DZ OVC005 07/07 A3006 RMK AO2 T00710071 10101 20071
SJS,2017-04-01 12:15,-82.6367,37.7510,44.20,44.20,100.00,330.00,5.00,0.00,30.07,M,5.00,M,BKN,OVC,M,M,500.00,1100.00,M,M,BR,KSJS 011215Z AUTO 33005KT 5SM BR BKN005 OVC011 07/07 A3007 RMK AO2 T00680068
SJS,2017-04-01 12:35,-82.6367,37.7510,44.20,43.90,98.86,320.00,3.00,0.00,30.08,M,10.00,M,BKN,OVC,M,M,1000.00,1300.00,M,M,M,KSJS 011235Z AUTO 32003KT 10SM BKN010 OVC013 07/07 A3008 RMK AO2 T00680066
SJS,2017-04-01 12:55,-82.6367,37.7510,44.60,44.10,98.11,300.00,3.00,0.00,30.09,M,5.00,M,BKN,OVC,M,M,800.00,1300.00,M,M,BR,KSJS 011255Z AUTO 30003KT 5SM BR BKN008 OVC013 07/07 A3009 RMK AO2 T00700067
SJS,2017-04-01 13:15,-82.6367,37.7510,44.40,44.10,98.86,310.00,3.00,0.00,30.10,M,4.00,M,OVC,M,M,M,800.00,M,M,M,BR,KSJS 011315Z AUTO 31003KT 4SM BR OVC008 07/07 A3010 RMK AO2 T00690067
SJS,2017-04-01 13:35,-82.6367,37.7510,44.20,44.10,99.62,300.00,3.00,0.00,30.10,M,5.00,M,OVC,M,M,M,600.00,M,M,M,BR,KSJS 011335Z AUTO 30003KT 5SM BR OVC006 07/07 A3010 RMK AO2 T00680067
SJS,2017-04-01 13:55,-82.6367,37.7510,44.80,44.20,97.74,320.00,4.00,0.00,30.11,M,10.00,M,BKN,OVC,M,M,900.00,1500.00,M,M,M,KSJS 011355Z AUTO 32004KT 10SM BKN009 OVC015 07/07 A3011 RMK AO2 T00710068
SJS,2017-04-01 14:15,-82.6367,37.7510,45.30,43.90,94.81,330.00,4.00,0.00,30.12,M,10.00,M,BKN,OVC,M,M,900.00,1500.00,M,M,M,KSJS 011415Z AUTO 33004KT 10SM BKN009 OVC015 07/07 A3012 RMK AO2 T00740066
SJS,2017-04-01 14:35,-82.6367,37.7510,45.10,42.60,90.89,300.00,4.00,0.00,30.12,M,10.00,M,OVC,M,M,M,1100.00,M,M,M,M,KSJS 011435Z AUTO 30004KT 10SM OVC011 07/06 A3012 RMK AO2 T00730059
SJS,2017-04-01 14:55,-82.6367,37.7510,45.90,41.90,85.83,300.00,7.00,0.00,30.13,M,10.00,M,SCT,BKN,OVC,M,1000.00,1500.00,2300.00,M,M,KSJS 011455Z AUTO 30007KT 270V330 10SM SCT010 BKN015 OVC023 08/06 A3013 RMK AO2 T00770055
SJS,2017-04-01 15:15,-82.6367,37.7510,44.80,40.60,85.10,290.00,4.00,0.00,30.13,M,10.00,M,BKN,OVC,M,M,1500.00,2100.00,M,M,M,KSJS 011515Z AUTO 29004KT 10SM BKN015 OVC021 07/05 A3013 RMK AO2 T00710048
SJS,2017-04-01 15:35,-82.6367,37.7510,46.20,41.00,81.96,290.00,5.00,0.00,30.13,M,10.00,M,SCT,OVC,M,M,2200.00,2900.00,M,M,M,KSJS 011535Z AUTO 29005KT 10SM SCT022 OVC029 08/05 A3013 RMK AO2 T00790050
SJS,2017-04-01 15:55,-82.6367,37.7510,46.80,40.80,79.50,270.00,4.00,0.00,30.14,M,10.00,M,BKN,OVC,M,M,2000.00,2900.00,M,M,M,KSJS 011555Z AUTO 27004KT 10SM BKN020 OVC029 08/05 A3014 RMK AO2 T00820049
SJS,2017-04-01 16:15,-82.6367,37.7510,46.90,40.60,78.59,270.00,5.00,0.00,30.14,M,10.00,M,BKN,OVC,M,M,2000.00,3200.00,M,M,M,KSJS 011615Z AUTO 27005KT 10SM BKN020 OVC032 08/05 A3014 RMK AO2 T00830048
SJS,2017-04-01 16:35,-82.6367,37.7510,47.50,40.50,76.54,270.00,4.00,0.00,30.14,M,10.00,M,BKN,OVC,M,M,2200.00,3200.00,M,M,M,KSJS 011635Z AUTO 27004KT 10SM BKN022 OVC032 09/05 A3014 RMK AO2 T00860047
SJS,2017-04-01 16:55,-82.6367,37.7510,47.50,40.80,77.43,310.00,6.00,0.00,30.14,M,10.00,M,OVC,M,M,M,2200.00,M,M,M,M,KSJS 011655Z AUTO 31006KT 10SM OVC022 09/05 A3014 RMK AO2 T00860049
SJS,2017-04-01 17:15,-82.6367,37.7510,47.70,40.60,76.26,310.00,4.00,0.00,30.14,M,10.00,M,OVC,M,M,M,2200.00,M,M,M,M,KSJS 011715Z AUTO 31004KT 10SM OVC022 09/05 A3014 RMK AO2 T00870048
SJS,2017-04-01 17:35,-82.6367,37.7510,48.40,41.20,76.03,320.00,6.00,0.00,30.15,M,10.00,M,BKN,OVC,M,M,2400.00,3300.00,M,M,M,KSJS 011735Z AUTO 32006KT 10SM BKN024 OVC033 09/05 A3015 RMK AO2 T00910051
SJS,2017-04-01 17:55,-82.6367,37.7510,50.40,41.70,71.94,340.00,5.00,0.00,30.14,M,10.00,M,SCT,OVC,M,M,2200.00,3500.00,M,M,M,KSJS 011755Z AUTO 34005KT 10SM SCT022 OVC035 10/05 A3014 RMK AO2 T01020054 10102 20068
SJS,2017-04-01 18:15,-82.6367,37.7510,50.00,40.80,70.52,310.00,3.00,0.00,30.14,M,10.00,M,BKN,OVC,M,M,2600.00,3500.00,M,M,M,KSJS 011815Z AUTO 31003KT 10SM BKN026 OVC035 10/05 A3014 RMK AO2 T01000049
SJS,2017-04-01 18:35,-82.6367,37.7510,49.30,41.90,75.53,260.00,7.00,0.00,30.14,M,10.00,M,OVC,M,M,M,2400.00,M,M,M,M,KSJS 011835Z AUTO 26007KT 10SM OVC024 10/06 A3014 RMK AO2 T00960055
SJS,2017-04-01 18:55,-82.6367,37.7510,48.70,42.10,77.84,310.00,5.00,0.00,30.14,M,10.00,M,BKN,OVC,M,M,1900.00,2500.00,M,M,M,KSJS 011855Z AUTO 31005KT 10SM BKN019 OVC025 09/06 A3014 RMK AO2 T00930056
SJS,2017-04-01 19:15,-82.6367,37.7510,48.90,41.40,75.20,310.00,5.00,0.00,30.14,M,10.00,M,OVC,M,M,M,2100.00,M,M,M,M,KSJS 011915Z AUTO 31005KT 10SM OVC021 09/05 A3014 RMK AO2 T00940052
SJS,2017-04-01 19:35,-82.6367,37.7510,48.70,41.70,76.65,310.00,4.00,0.00,30.14,M,10.00,M,OVC,M,M,M,2100.00,M,M,M,M,KSJS 011935Z AUTO 31004KT 10SM OVC021 09/05 A3014 RMK AO2 T00930054
SJS,2017-04-01 19:55,-82.6367,37.7510,49.30,42.10,76.11,10.00,3.00,0.00,30.14,M,10.00,M,OVC,M,M,M,1900.00,M,M,M,M,KSJS 011955Z AUTO 01003KT 10SM OVC019 10/06 A3014 RMK AO2 T00960056
SJS,2017-04-01 20:15,-82.6367,37.7510,49.50,41.90,74.97,310.00,3.00,0.00,30.14,M,10.00,M,OVC,M,M,M,1900.00,M,M,M,M,KSJS 012015Z AUTO 31003KT 10SM OVC019 10/06 A3014 RMK AO2 T00970055
SJS,2017-04-01 20:35,-82.6367,37.7510,49.10,42.10,76.68,320.00,4.00,0.00,30.15,M,10.00,M,OVC,M,M,M,1900.00,M,M,M,M,KSJS 012035Z AUTO 32004KT 10SM OVC019 10/06 A3015 RMK AO2 T00950056
SJS,2017-04-01 20:55,-82.6367,37.7510,50.20,42.60,75.03,0.00,0.00,0.00,30.16,M,10.00,M,BKN,OVC,M,M,1900.00,2600.00,M,M,M,KSJS 012055Z AUTO 00000KT 10SM BKN019 OVC026 10/06 A3016 RMK AO2 T01010059
SJS,2017-04-01 21:15,-82.6367,37.7510,49.60,41.70,74.11,10.00,3.00,0.00,30.16,M,10.00,M,OVC,M,M,M,2600.00,M,M,M,M,KSJS 012115Z AUTO 01003KT 10SM OVC026 10/05 A3016 RMK AO2 T00980054
SJS,2017-04-01 21:35,-82.6367,37.7510,48.70,41.50,76.06,320.00,6.00,0.00,30.17,M,10.00,M,OVC,M,M,M,2000.00,M,M,M,M,KSJS 012135Z AUTO 32006KT 10SM OVC020 09/05 A3017 RMK AO2 T00930053
SJS,2017-04-01 21:55,-82.6367,37.7510,48.40,41.90,78.11,330.00,6.00,0.00,30.18,M,10.00,M,OVC,M,M,M,2000.00,M,M,M,M,KSJS 012155Z AUTO 33006KT 10SM OVC020 09/06 A3018 RMK AO2 T00910055
SJS,2017-04-01 22:15,-82.6367,37.7510,48.40,41.20,76.03,330.00,4.00,0.00,30.18,M,10.00,M,OVC,M,M,M,2200.00,M,M,M,M,KSJS 012215Z AUTO 33004KT 10SM OVC022 09/05 A3018 RMK AO2 T00910051
SJS,2017-04-01 22:35,-82.6367,37.7510,48.20,41.00,76.01,360.00,6.00,0.00,30.19,M,10.00,M,OVC,M,M,M,2200.00,M,M,M,M,KSJS 012235Z AUTO 36006KT 10SM OVC022 09/05 A3019 RMK AO2 T00900050
SJS,2017-04-01 22:55,-82.6367,37.7510,47.70,40.80,76.85,20.00,4.00,0.00,30.19,M,10.00,M,OVC,M,M,M,2200.00,M,M,M,M,KSJS 012255Z AUTO 02004KT 10SM OVC022 09/05 A3019 RMK AO2 T00870049
SJS,2017-04-01 23:15,-82.6367,37.7510,47.50,40.50,76.54,360.00,4.00,0.00,30.20,M,10.00,M,OVC,M,M,M,2200.00,M,M,M,M,KSJS 012315Z AUTO 36004KT 10SM OVC022 09/05 A3020 RMK AO2 T00860047
SJS,2017-04-01 23:35,-82.6367,37.7510,47.30,40.50,77.12,360.00,4.00,0.00,30.20,M,10.00,M,OVC,M,M,M,2200.00,M,M,M,M,KSJS 012335Z AUTO 36004KT 10SM OVC022 09/05 A3020 RMK AO2 T00850047
SJS,2017-04-01 23:55,-82.6367,37.7510,46.80,40.30,77.98,360.00,3.00,0.00,30.21,M,10.00,M,OVC,M,M,M,2200.00,M,M,M,M,KSJS 012355Z AUTO 36003KT 10SM OVC022 08/05 A3021 RMK AO2 T00820046 10104 20082
