#DEBUG: Format Typ    -> comma
#DEBUG: Time Period   -> 2017-04-01 00:00:00+00:00 2017-04-02 00:00:00+00:00
#DEBUG: Time Zone     -> Etc/UTC
#DEBUG: Data Contact   -> daryl herzmann akrherz@iastate.edu 515-294-5978
#DEBUG: Entries Found -> -1
station,valid,lon,lat,tmpf, dwpf, relh, drct, sknt, p01i, alti, mslp, vsby, gust, skyc1, skyc2, skyc3, skyc4, skyl1, skyl2, skyl3, skyl4, presentwx, metar
SPW,2017-04-01 00:00,-95.2101,43.1682,M,M,M,70.00,11.00,M,30.05,M,10.00,M,CLR,M,M,M,M,M,M,M,M,KSPW 010000Z AUTO 07011KT 10SM CLR A3005 RMK MADISHF
SPW,2017-04-01 00:05,-95.2101,43.1682,M,M,M,70.00,9.00,M,30.05,M,10.00,M,CLR,M,M,M,M,M,M,M,M,KSPW 010005Z AUTO 07009KT 10SM CLR A3005 RMK MADISHF
SPW,2017-04-01 00:10,-95.2101,43.1682,M,M,M,70.00,10.00,M,30.05,M,10.00,M,CLR,M,M,M,M,M,M,M,M,KSPW 010010Z AUTO 07010KT 10SM CLR A3005 RMK MADISHF
SPW,2017-04-01 00:15,-95.2101,43.1682,M,M,M,80.00,8.00,M,30.06,M,10.00,M,CLR,M,M,M,M,M,M,M,M,KSPW 010015Z AUTO 08008KT 10SM CLR A3006 RMK MADISHF
SPW,2017-04-01 00:20,-95.2101,43.1682,M,M,M,80.00,8.00,M,30.06,M,10.00,M,CLR,M,M,M,M,M,M,M,M,KSPW 010020Z AUTO 08008KT 10SM CLR A3006 RMK MADISHF
SPW,2017-04-01 00:25,-95.2101,43.1682,M,M,M,80.00,7.00,M,30.06,M,10.00,M,CLR,M,M,M,M,M,M,M,M,KSPW 010025Z AUTO 08007KT 10SM CLR A3006 RMK MADISHF
SPW,2017-04-01 00:30,-95.2101,43.1682,M,M,M,90.00,7.00,M,30.06,M,10.00,M,CLR,M,M,M,M,M,M,M,M,KSPW 010030Z AUTO 09007KT 10SM CLR A3006 RMK MADISHF
SPW,2017-04-01 00:35,-95.2101,43.1682,M,M,M,80.00,8.00,M,30.06,M,10.00,M,CLR,M,M,M,M,M,M,M,M,KSPW 010035Z AUTO 08008KT 10SM CLR A3006 RMK MADISHF
SPW,2017-04-01 00:40,-95.2101,43.1682,M,M,M,90.00,6.00,M,30.06,M,10.00,M,CLR,M,M,M,M,M,M,M,M,KSPW 010040Z AUTO 09006KT 10SM CLR A3006 RMK MADISHF
SPW,2017-04-01 00:45,-95.2101,43.1682,M,M,M,90.00,6.00,M,30.07,M,10.00,M,CLR,M,M,M,M,M,M,M,M,KSPW 010045Z AUTO 09006KT 10SM CLR A3007 RMK MADISHF
SPW,2017-04-01 00:50,-95.2101,43.1682,M,M,M,100.00,5.00,M,30.07,M,10.00,M,CLR,M,M,M,M,M,M,M,M,KSPW 010050Z AUTO 10005KT 10SM CLR A3007 RMK MADISHF
SPW,2017-04-01 00:53,-95.2101,43.1682,39.90,35.10,82.80,110.00,4.00,0.00,30.08,1019.60,10.00,M,CLR,M,M,M,M,M,M,M,M,KSPW 010053Z AUTO 11004KT 10SM CLR 04/02 A3008 RMK AO2 SLP196 T00440017 TSNO
SPW,2017-04-01 01:00,-95.2101,43.1682,M,M,M,120.00,4.00,M,30.09,M,10.00,M,FEW,M,M,M,2600.00,M,M,M,M,KSPW 010100Z AUTO 12004KT 10SM FEW026 A3009 RMK MADISHF
SPW,2017-04-01 01:05,-95.2101,43.1682,M,M,M,120.00,6.00,M,30.09,M,10.00,M,FEW,M,M,M,2600.00,M,M,M,M,KSPW 010105Z AUTO 12006KT 10SM FEW026 A3009 RMK MADISHF
SPW,2017-04-01 01:10,-95.2101,43.1682,M,M,M,130.00,6.00,M,30.09,M,10.00,M,FEW,M,M,M,2600.00,M,M,M,M,KSPW 010110Z AUTO 13006KT 10SM FEW026 A3009 RMK MADISHF
SPW,2017-04-01 01:15,-95.2101,43.1682,M,M,M,150.00,5.00,M,30.10,M,10.00,M,FEW,M,M,M,2600.00,M,M,M,M,KSPW 010115Z AUTO 15005KT 10SM FEW026 A3010 RMK MADISHF
SPW,2017-04-01 01:20,-95.2101,43.1682,M,M,M,170.00,5.00,M,30.10,M,10.00,M,FEW,M,M,M,2600.00,M,M,M,M,KSPW 010120Z AUTO 17005KT 10SM FEW026 A3010 RMK MADISHF
SPW,2017-04-01 01:25,-95.2101,43.1682,M,M,M,160.00,4.00,M,30.09,M,10.00,M,FEW,M,M,M,2600.00,M,M,M,M,KSPW 010125Z AUTO 16004KT 10SM FEW026 A3009 RMK MADISHF
SPW,2017-04-01 01:30,-95.2101,43.1682,M,M,M,140.00,4.00,M,30.09,M,10.00,M,CLR,M,M,M,M,M,M,M,M,KSPW 010130Z AUTO 14004KT 10SM CLR A3009 RMK MADISHF
SPW,2017-04-01 01:35,-95.2101,43.1682,M,M,M,130.00,4.00,M,30.09,M,10.00,M,CLR,M,M,M,M,M,M,M,M,KSPW 010135Z AUTO 13004KT 10SM CLR A3009 RMK MADISHF
SPW,2017-04-01 01:40,-95.2101,43.1682,M,M,M,140.00,5.00,M,30.10,M,10.00,M,CLR,M,M,M,M,M,M,M,M,KSPW 010140Z AUTO 14005KT 10SM CLR A3010 RMK MADISHF
SPW,2017-04-01 01:45,-95.2101,43.1682,M,M,M,160.00,5.00,M,30.10,M,10.00,M,CLR,M,M,M,M,M,M,M,M,KSPW 010145Z AUTO 16005KT 10SM CLR A3010 RMK MADISHF
SPW,2017-04-01 01:50,-95.2101,43.1682,M,M,M,160.00,5.00,M,30.10,M,10.00,M,CLR,M,M,M,M,M,M,M,M,KSPW 010150Z AUTO 16005KT 10SM CLR A3010 RMK MADISHF
SPW,2017-04-01 01:53,-95.2101,43.1682,39.00,35.10,85.76,160.00,5.00,0.00,30.10,1020.30,10.00,M,CLR,M,M,M,M,M,M,M,M,KSPW 010153Z AUTO 16005KT 10SM CLR 04/02 A3010 RMK AO2 SLP203 T00390017 TSNO
SPW,2017-04-01 01:55,-95.2101,43.1682,M,M,M,160.00,4.00,M,30.10,M,10.00,M,CLR,M,M,M,M,M,M,M,M,KSPW 010155Z AUTO 16004KT 10SM CLR A3010 RMK MADISHF
SPW,2017-04-01 02:00,-95.2101,43.1682,M,M,M,160.00,4.00,M,30.10,M,10.00,M,CLR,M,M,M,M,M,M,M,M,KSPW 010200Z AUTO 16004KT 10SM CLR A3010 RMK MADISHF
SPW,2017-04-01 02:05,-95.2101,43.1682,M,M,M,180.00,4.00,M,30.11,M,10.00,M,CLR,M,M,M,M,M,M,M,M,KSPW 010205Z AUTO 18004KT 10SM CLR A3011 RMK MADISHF
SPW,2017-04-01 02:10,-95.2101,43.1682,M,M,M,170.00,4.00,M,30.11,M,10.00,M,CLR,M,M,M,M,M,M,M,M,KSPW 010210Z AUTO 17004KT 10SM CLR A3011 RMK MADISHF
SPW,2017-04-01 02:15,-95.2101,43.1682,M,M,M,160.00,4.00,M,30.11,M,10.00,M,CLR,M,M,M,M,M,M,M,M,KSPW 010215Z AUTO 16004KT 10SM CLR A3011 RMK MADISHF
SPW,2017-04-01 02:20,-95.2101,43.1682,M,M,M,170.00,4.00,M,30.11,M,10.00,M,CLR,M,M,M,M,M,M,M,M,KSPW 010220Z AUTO 17004KT 10SM CLR A3011 RMK MADISHF
SPW,2017-04-01 02:25,-95.2101,43.1682,M,M,M,170.00,4.00,M,30.12,M,10.00,M,CLR,M,M,M,M,M,M,M,M,KSPW 010225Z AUTO 17004KT 10SM CLR A3012 RMK MADISHF
SPW,2017-04-01 02:30,-95.2101,43.1682,M,M,M,170.00,4.00,M,30.12,M,10.00,M,CLR,M,M,M,M,M,M,M,M,KSPW 010230Z AUTO 17004KT 10SM CLR A3012 RMK MADISHF
SPW,2017-04-01 02:40,-95.2101,43.1682,M,M,M,170.00,4.00,M,30.12,M,10.00,M,CLR,M,M,M,M,M,M,M,M,KSPW 010240Z AUTO 17004KT 10SM CLR A3012 RMK MADISHF
SPW,2017-04-01 02:45,-95.2101,43.1682,M,M,M,180.00,4.00,M,30.13,M,10.00,M,CLR,M,M,M,M,M,M,M,M,KSPW 010245Z AUTO 18004KT 10SM CLR A3013 RMK MADISHF
SPW,2017-04-01 02:50,-95.2101,43.1682,M,M,M,180.00,4.00,M,30.13,M,10.00,M,CLR,M,M,M,M,M,M,M,M,KSPW 010250Z AUTO 18004KT 10SM CLR A3013 RMK MADISHF
SPW,2017-04-01 02:53,-95.2101,43.1682,35.10,33.10,92.32,180.00,4.00,0.00,30.13,1021.40,10.00,M,CLR,M,M,M,M,M,M,M,M,KSPW 010253Z AUTO 18004KT 10SM CLR 02/01 A3013 RMK AO2 SLP214 T00170006 51027 TSNO $
SPW,2017-04-01 02:55,-95.2101,43.1682,M,M,M,180.00,4.00,M,30.13,M,10.00,M,CLR,M,M,M,M,M,M,M,M,KSPW 010255Z AUTO 18004KT 10SM CLR A3013 RMK MADISHF
SPW,2017-04-01 03:00,-95.2101,43.1682,M,M,M,170.00,4.00,M,30.13,M,10.00,M,CLR,M,M,M,M,M,M,M,M,KSPW 010300Z AUTO 17004KT 10SM CLR A3013 RMK MADISHF
SPW,2017-04-01 03:05,-95.2101,43.1682,M,M,M,150.00,4.00,M,30.13,M,10.00,M,CLR,M,M,M,M,M,M,M,M,KSPW 010305Z AUTO 15004KT 10SM CLR A3013 RMK MADISHF
SPW,2017-04-01 03:10,-95.2101,43.1682,M,M,M,150.00,3.00,M,30.13,M,10.00,M,CLR,M,M,M,M,M,M,M,M,KSPW 010310Z AUTO 15003KT 10SM CLR A3013 RMK MADISHF
SPW,2017-04-01 03:25,-95.2101,43.1682,M,M,M,170.00,3.00,M,30.13,M,10.00,M,CLR,M,M,M,M,M,M,M,M,KSPW 010325Z AUTO 17003KT 10SM CLR A3013 RMK MADISHF
SPW,2017-04-01 03:30,-95.2101,43.1682,M,M,M,0.00,0.00,M,30.13,M,10.00,M,CLR,M,M,M,M,M,M,M,M,KSPW 010330Z AUTO 00000KT 10SM CLR A3013 RMK MADISHF
SPW,2017-04-01 03:35,-95.2101,43.1682,M,M,M,190.00,3.00,M,30.13,M,10.00,M,CLR,M,M,M,M,M,M,M,M,KSPW 010335Z AUTO 19003KT 10SM CLR A3013 RMK MADISHF
SPW,2017-04-01 03:40,-95.2101,43.1682,M,M,M,200.00,3.00,M,30.13,M,10.00,M,CLR,M,M,M,M,M,M,M,M,KSPW 010340Z AUTO 20003KT 10SM CLR A3013 RMK MADISHF
SPW,2017-04-01 03:45,-95.2101,43.1682,M,M,M,200.00,3.00,M,30.13,M,10.00,M,CLR,M,M,M,M,M,M,M,M,KSPW 010345Z AUTO 20003KT 10SM CLR A3013 RMK MADISHF
SPW,2017-04-01 03:50,-95.2101,43.1682,M,M,M,210.00,3.00,M,30.13,M,9.00,M,CLR,M,M,M,M,M,M,M,M,KSPW 010350Z AUTO 21003KT 9SM CLR A3013 RMK MADISHF
SPW,2017-04-01 03:53,-95.2101,43.1682,34.00,32.00,92.29,210.00,3.00,0.00,30.13,1021.40,9.00,M,CLR,M,M,M,M,M,M,M,M,KSPW 010353Z AUTO 21003KT 9SM CLR 01/00 A3013 RMK AO2 SLP214 T00110000 TSNO $
SPW,2017-04-01 03:55,-95.2101,43.1682,M,M,M,210.00,3.00,M,30.13,M,9.00,M,CLR,M,M,M,M,M,M,M,M,KSPW 010355Z AUTO 21003KT 9SM CLR A3013 RMK MADISHF
SPW,2017-04-01 04:10,-95.2101,43.1682,M,M,M,0.00,0.00,M,30.14,M,10.00,M,CLR,M,M,M,M,M,M,M,M,KSPW 010410Z AUTO 00000KT 10SM CLR A3014 RMK MADISHF
SPW,2017-04-01 04:15,-95.2101,43.1682,M,M,M,290.00,3.00,M,30.14,M,10.00,M,CLR,M,M,M,M,M,M,M,M,KSPW 010415Z AUTO 29003KT 10SM CLR A3014 RMK MADISHF
SPW,2017-04-01 04:20,-95.2101,43.1682,M,M,M,300.00,4.00,M,30.14,M,10.00,M,CLR,M,M,M,M,M,M,M,M,KSPW 010420Z AUTO 30004KT 10SM CLR A3014 RMK MADISHF
SPW,2017-04-01 04:25,-95.2101,43.1682,M,M,M,310.00,4.00,M,30.14,M,10.00,M,CLR,M,M,M,M,M,M,M,M,KSPW 010425Z AUTO 31004KT 10SM CLR A3014 RMK MADISHF
SPW,2017-04-01 04:30,-95.2101,43.1682,M,M,M,330.00,5.00,M,30.14,M,10.00,M,CLR,M,M,M,M,M,M,M,M,KSPW 010430Z AUTO 33005KT 10SM CLR A3014 RMK MADISHF
SPW,2017-04-01 04:35,-95.2101,43.1682,M,M,M,330.00,5.00,M,30.14,M,10.00,M,CLR,M,M,M,M,M,M,M,M,KSPW 010435Z AUTO 33005KT 10SM CLR A3014 RMK MADISHF
SPW,2017-04-01 04:45,-95.2101,43.1682,M,M,M,340.00,6.00,M,30.14,M,10.00,M,CLR,M,M,M,M,M,M,M,M,KSPW 010445Z AUTO 34006KT 10SM CLR A3014 RMK MADISHF
SPW,2017-04-01 04:50,-95.2101,43.1682,M,M,M,340.00,6.00,M,30.14,M,10.00,M,CLR,M,M,M,M,M,M,M,M,KSPW 010450Z AUTO 34006KT 10SM CLR A3014 RMK MADISHF
SPW,2017-04-01 04:53,-95.2101,43.1682,36.00,34.00,92.35,340.00,6.00,0.00,30.14,1021.60,10.00,M,CLR,M,M,M,M,M,M,M,M,KSPW 010453Z AUTO 34006KT 10SM CLR 02/01 A3014 RMK AO2 SLP216 T00220011 TSNO $
SPW,2017-04-01 04:55,-95.2101,43.1682,M,M,M,340.00,6.00,M,30.14,M,10.00,M,CLR,M,M,M,M,M,M,M,M,KSPW 010455Z AUTO 34006KT 10SM CLR A3014 RMK MADISHF
SPW,2017-04-01 05:00,-95.2101,43.1682,M,M,M,330.00,5.00,M,30.15,M,10.00,M,CLR,M,M,M,M,M,M,M,M,KSPW 010500Z AUTO 33005KT 10SM CLR A3015 RMK MADISHF
SPW,2017-04-01 05:05,-95.2101,43.1682,M,M,M,330.00,5.00,M,30.15,M,9.00,M,CLR,M,M,M,M,M,M,M,M,KSPW 010505Z AUTO 33005KT 9SM CLR A3015 RMK MADISHF
SPW,2017-04-01 05:10,-95.2101,43.1682,M,M,M,320.00,5.00,M,30.15,M,8.00,M,CLR,M,M,M,M,M,M,M,M,KSPW 010510Z AUTO 32005KT 8SM CLR A3015 RMK MADISHF
SPW,2017-04-01 05:15,-95.2101,43.1682,M,M,M,310.00,4.00,M,30.16,M,9.00,M,CLR,M,M,M,M,M,M,M,M,KSPW 010515Z AUTO 31004KT 9SM CLR A3016 RMK MADISHF
SPW,2017-04-01 05:20,-95.2101,43.1682,M,M,M,310.00,3.00,M,30.15,M,9.00,M,CLR,M,M,M,M,M,M,M,M,KSPW 010520Z AUTO 31003KT 9SM CLR A3015 RMK MADISHF
SPW,2017-04-01 05:25,-95.2101,43.1682,M,M,M,310.00,3.00,M,30.15,M,7.00,M,CLR,M,M,M,M,M,M,M,M,KSPW 010525Z AUTO 31003KT 7SM CLR A3015 RMK MADISHF
SPW,2017-04-01 05:30,-95.2101,43.1682,M,M,M,0.00,0.00,M,30.15,M,6.00,M,CLR,M,M,M,M,M,M,M,BR,KSPW 010530Z AUTO 00000KT 6SM BR CLR A3015 RMK MADISHF
SPW,2017-04-01 05:35,-95.2101,43.1682,M,M,M,320.00,3.00,M,30.15,M,6.00,M,CLR,M,M,M,M,M,M,M,BR,KSPW 010535Z AUTO 32003KT 6SM BR CLR A3015 RMK MADISHF
SPW,2017-04-01 05:50,-95.2101,43.1682,M,M,M,300.00,3.00,M,30.16,M,7.00,M,CLR,M,M,M,M,M,M,M,M,KSPW 010550Z AUTO 30003KT 7SM CLR A3016 RMK MADISHF
SPW,2017-04-01 05:53,-95.2101,43.1682,33.10,32.00,95.67,310.00,4.00,0.00,30.16,1022.20,7.00,M,CLR,M,M,M,M,M,M,M,M,KSPW 010553Z AUTO 31004KT 7SM CLR 01/00 A3016 RMK AO2 SLP222 T00060000 10072 20000 401110000 53010 TSNO $
SPW,2017-04-01 05:55,-95.2101,43.1682,M,M,M,300.00,3.00,M,30.16,M,7.00,M,CLR,M,M,M,M,M,M,M,M,KSPW 010555Z AUTO 30003KT 7SM CLR A3016 RMK MADISHF
SPW,2017-04-01 06:00,-95.2101,43.1682,M,M,M,290.00,4.00,M,30.16,M,8.00,M,CLR,M,M,M,M,M,M,M,M,KSPW 010600Z AUTO 29004KT 8SM CLR A3016 RMK MADISHF
SPW,2017-04-01 06:05,-95.2101,43.1682,M,M,M,290.00,4.00,M,30.16,M,8.00,M,CLR,M,M,M,M,M,M,M,M,KSPW 010605Z AUTO 29004KT 8SM CLR A3016 RMK MADISHF
SPW,2017-04-01 06:15,-95.2101,43.1682,M,M,M,290.00,4.00,M,30.17,M,9.00,M,CLR,M,M,M,M,M,M,M,M,KSPW 010615Z AUTO 29004KT 9SM CLR A3017 RMK MADISHF
SPW,2017-04-01 06:20,-95.2101,43.1682,M,M,M,290.00,5.00,M,30.17,M,9.00,M,CLR,M,M,M,M,M,M,M,M,KSPW 010620Z AUTO 29005KT 9SM CLR A3017 RMK MADISHF
SPW,2017-04-01 06:25,-95.2101,43.1682,M,M,M,260.00,4.00,M,30.17,M,9.00,M,CLR,M,M,M,M,M,M,M,M,KSPW 010625Z AUTO 26004KT 9SM CLR A3017 RMK MADISHF
SPW,2017-04-01 06:30,-95.2101,43.1682,M,M,M,260.00,5.00,M,30.18,M,9.00,M,CLR,M,M,M,M,M,M,M,M,KSPW 010630Z AUTO 26005KT 9SM CLR A3018 RMK MADISHF
SPW,2017-04-01 06:35,-95.2101,43.1682,M,M,M,270.00,5.00,M,30.18,M,8.00,M,CLR,M,M,M,M,M,M,M,M,KSPW 010635Z AUTO 27005KT 8SM CLR A3018 RMK MADISHF
SPW,2017-04-01 06:40,-95.2101,43.1682,M,M,M,280.00,5.00,M,30.18,M,8.00,M,CLR,M,M,M,M,M,M,M,M,KSPW 010640Z AUTO 28005KT 8SM CLR A3018 RMK MADISHF
SPW,2017-04-01 06:53,-95.2101,43.1682,33.10,32.00,95.67,280.00,3.00,0.00,30.18,1022.90,8.00,M,CLR,M,M,M,M,M,M,M,M,KSPW 010653Z AUTO 28003KT 8SM CLR 01/00 A3018 RMK AO2 SLP229 T00060000 TSNO $
SPW,2017-04-01 06:55,-95.2101,43.1682,M,M,M,290.00,3.00,M,30.18,M,8.00,M,CLR,M,M,M,M,M,M,M,M,KSPW 010655Z AUTO 29003KT 8SM CLR A3018 RMK MADISHF
SPW,2017-04-01 07:00,-95.2101,43.1682,M,M,M,290.00,3.00,M,30.18,M,8.00,M,CLR,M,M,M,M,M,M,M,M,KSPW 010700Z AUTO 29003KT 8SM CLR A3018 RMK MADISHF
SPW,2017-04-01 07:05,-95.2101,43.1682,M,M,M,290.00,4.00,M,30.18,M,8.00,M,CLR,M,M,M,M,M,M,M,M,KSPW 010705Z AUTO 29004KT 8SM CLR A3018 RMK MADISHF
SPW,2017-04-01 07:10,-95.2101,43.1682,M,M,M,290.00,4.00,M,30.18,M,8.00,M,CLR,M,M,M,M,M,M,M,M,KSPW 010710Z AUTO 29004KT 8SM CLR A3018 RMK MADISHF
SPW,2017-04-01 07:15,-95.2101,43.1682,M,M,M,300.00,4.00,M,30.18,M,9.00,M,CLR,M,M,M,M,M,M,M,M,KSPW 010715Z AUTO 30004KT 9SM CLR A3018 RMK MADISHF
SPW,2017-04-01 07:20,-95.2101,43.1682,M,M,M,310.00,4.00,M,30.18,M,9.00,M,CLR,M,M,M,M,M,M,M,M,KSPW 010720Z AUTO 31004KT 9SM CLR A3018 RMK MADISHF
SPW,2017-04-01 07:25,-95.2101,43.1682,M,M,M,310.00,3.00,M,30.18,M,9.00,M,CLR,M,M,M,M,M,M,M,M,KSPW 010725Z AUTO 31003KT 9SM CLR A3018 RMK MADISHF
SPW,2017-04-01 07:30,-95.2101,43.1682,M,M,M,0.00,0.00,M,30.18,M,9.00,M,CLR,M,M,M,M,M,M,M,M,KSPW 010730Z AUTO 00000KT 9SM CLR A3018 RMK MADISHF
SPW,2017-04-01 07:35,-95.2101,43.1682,M,M,M,0.00,0.00,M,30.18,M,8.00,M,CLR,M,M,M,M,M,M,M,M,KSPW 010735Z AUTO 00000KT 8SM CLR A3018 RMK MADISHF
SPW,2017-04-01 07:50,-95.2101,43.1682,M,M,M,0.00,0.00,M,30.18,M,9.00,M,CLR,M,M,M,M,M,M,M,M,KSPW 010750Z AUTO 00000KT 9SM CLR A3018 RMK MADISHF
SPW,2017-04-01 07:53,-95.2101,43.1682,35.10,34.00,95.71,310.00,3.00,0.00,30.18,1022.80,9.00,M,CLR,M,M,M,M,M,M,M,M,KSPW 010753Z AUTO 31003KT 9SM CLR 02/01 A3018 RMK AO2 SLP228 T00170011 TSNO $
SPW,2017-04-01 07:55,-95.2101,43.1682,M,M,M,310.00,3.00,M,30.18,M,9.00,M,CLR,M,M,M,M,M,M,M,M,KSPW 010755Z AUTO 31003KT 9SM CLR A3018 RMK MADISHF
SPW,2017-04-01 08:00,-95.2101,43.1682,M,M,M,320.00,3.00,M,30.18,M,9.00,M,CLR,M,M,M,M,M,M,M,M,KSPW 010800Z AUTO 32003KT 9SM CLR A3018 RMK MADISHF
SPW,2017-04-01 08:05,-95.2101,43.1682,M,M,M,330.00,3.00,M,30.18,M,9.00,M,CLR,M,M,M,M,M,M,M,M,KSPW 010805Z AUTO 33003KT 9SM CLR A3018 RMK MADISHF
SPW,2017-04-01 08:10,-95.2101,43.1682,M,M,M,330.00,4.00,M,30.18,M,9.00,M,CLR,M,M,M,M,M,M,M,M,KSPW 010810Z AUTO 33004KT 9SM CLR A3018 RMK MADISHF
SPW,2017-04-01 08:20,-95.2101,43.1682,M,M,M,320.00,5.00,M,30.17,M,9.00,M,CLR,M,M,M,M,M,M,M,M,KSPW 010820Z AUTO 32005KT 9SM CLR A3017 RMK MADISHF
SPW,2017-04-01 08:25,-95.2101,43.1682,M,M,M,340.00,4.00,M,30.17,M,10.00,M,CLR,M,M,M,M,M,M,M,M,KSPW 010825Z AUTO 34004KT 10SM CLR A3017 RMK MADISHF
SPW,2017-04-01 08:30,-95.2101,43.1682,M,M,M,340.00,4.00,M,30.17,M,10.00,M,CLR,M,M,M,M,M,M,M,M,KSPW 010830Z AUTO 34004KT 10SM CLR A3017 RMK MADISHF
SPW,2017-04-01 08:35,-95.2101,43.1682,M,M,M,340.00,4.00,M,30.17,M,9.00,M,CLR,M,M,M,M,M,M,M,M,KSPW 010835Z AUTO 34004KT 9SM CLR A3017 RMK MADISHF
SPW,2017-04-01 08:40,-95.2101,43.1682,M,M,M,330.00,3.00,M,30.17,M,9.00,M,CLR,M,M,M,M,M,M,M,M,KSPW 010840Z AUTO 33003KT 9SM CLR A3017 RMK MADISHF
SPW,2017-04-01 08:45,-95.2101,43.1682,M,M,M,330.00,5.00,M,30.17,M,9.00,M,CLR,M,M,M,M,M,M,M,M,KSPW 010845Z AUTO 33005KT 9SM CLR A3017 RMK MADISHF
SPW,2017-04-01 08:50,-95.2101,43.1682,M,M,M,340.00,5.00,M,30.17,M,9.00,M,CLR,M,M,M,M,M,M,M,M,KSPW 010850Z AUTO 34005KT 9SM CLR A3017 RMK MADISHF
SPW,2017-04-01 08:53,-95.2101,43.1682,35.10,33.10,92.32,340.00,6.00,0.00,30.17,1022.50,9.00,M,CLR,M,M,M,M,M,M,M,M,KSPW 010853Z AUTO 34006KT 9SM CLR 02/01 A3017 RMK AO2 SLP225 T00170006 50002 TSNO $
SPW,2017-04-01 08:55,-95.2101,43.1682,M,M,M,330.00,6.00,M,30.17,M,9.00,M,CLR,M,M,M,M,M,M,M,M,KSPW 010855Z AUTO 33006KT 9SM CLR A3017 RMK MADISHF
SPW,2017-04-01 09:05,-95.2101,43.1682,M,M,M,310.00,4.00,M,30.17,M,8.00,M,CLR,M,M,M,M,M,M,M,M,KSPW 010905Z AUTO 31004KT 8SM CLR A3017 RMK MADISHF
SPW,2017-04-01 09:10,-95.2101,43.1682,M,M,M,310.00,4.00,M,30.18,M,9.00,M,CLR,M,M,M,M,M,M,M,M,KSPW 010910Z AUTO 31004KT 9SM CLR A3018 RMK MADISHF
SPW,2017-04-01 09:15,-95.2101,43.1682,M,M,M,310.00,4.00,M,30.18,M,9.00,M,CLR,M,M,M,M,M,M,M,M,KSPW 010915Z AUTO 31004KT 9SM CLR A3018 RMK MADISHF
SPW,2017-04-01 09:20,-95.2101,43.1682,M,M,M,310.00,6.00,M,30.18,M,8.00,M,CLR,M,M,M,M,M,M,M,M,KSPW 010920Z AUTO 31006KT 8SM CLR A3018 RMK MADISHF
SPW,2017-04-01 09:25,-95.2101,43.1682,M,M,M,300.00,6.00,M,30.19,M,8.00,M,CLR,M,M,M,M,M,M,M,M,KSPW 010925Z AUTO 30006KT 8SM CLR A3019 RMK MADISHF
SPW,2017-04-01 09:30,-95.2101,43.1682,M,M,M,290.00,5.00,M,30.19,M,8.00,M,CLR,M,M,M,M,M,M,M,M,KSPW 010930Z AUTO 29005KT 8SM CLR A3019 RMK MADISHF
SPW,2017-04-01 09:35,-95.2101,43.1682,M,M,M,270.00,4.00,M,30.20,M,8.00,M,CLR,M,M,M,M,M,M,M,M,KSPW 010935Z AUTO 27004KT 8SM CLR A3020 RMK MADISHF
SPW,2017-04-01 09:45,-95.2101,43.1682,M,M,M,280.00,4.00,M,30.20,M,9.00,M,CLR,M,M,M,M,M,M,M,M,KSPW 010945Z AUTO 28004KT 9SM CLR A3020 RMK MADISHF
SPW,2017-04-01 09:50,-95.2101,43.1682,M,M,M,300.00,6.00,M,30.20,M,9.00,M,CLR,M,M,M,M,M,M,M,M,KSPW 010950Z AUTO 30006KT 9SM CLR A3020 RMK MADISHF
SPW,2017-04-01 09:53,-95.2101,43.1682,36.00,34.00,92.35,310.00,6.00,0.00,30.20,1023.50,9.00,M,CLR,M,M,M,M,M,M,M,M,KSPW 010953Z AUTO 31006KT 9SM CLR 02/01 A3020 RMK AO2 SLP235 T00220011 TSNO $
SPW,2017-04-01 09:55,-95.2101,43.1682,M,M,M,310.00,5.00,M,30.20,M,9.00,M,FEW,M,M,M,12000.00,M,M,M,M,KSPW 010955Z AUTO 31005KT 9SM FEW120 A3020 RMK MADISHF
SPW,2017-04-01 10:00,-95.2101,43.1682,M,M,M,310.00,4.00,M,30.20,M,9.00,M,FEW,M,M,M,12000.00,M,M,M,M,KSPW 011000Z AUTO 31004KT 9SM FEW120 A3020 RMK MADISHF
SPW,2017-04-01 10:05,-95.2101,43.1682,M,M,M,300.00,5.00,M,30.20,M,9.00,M,FEW,M,M,M,12000.00,M,M,M,M,KSPW 011005Z AUTO 30005KT 9SM FEW120 A3020 RMK MADISHF
SPW,2017-04-01 10:10,-95.2101,43.1682,M,M,M,300.00,4.00,M,30.20,M,9.00,M,FEW,M,M,M,12000.00,M,M,M,M,KSPW 011010Z AUTO 30004KT 9SM FEW120 A3020 RMK MADISHF
SPW,2017-04-01 10:15,-95.2101,43.1682,M,M,M,280.00,3.00,M,30.20,M,9.00,M,SCT,M,M,M,12000.00,M,M,M,M,KSPW 011015Z AUTO 28003KT 9SM SCT120 A3020 RMK MADISHF
SPW,2017-04-01 10:20,-95.2101,43.1682,M,M,M,290.00,3.00,M,30.20,M,9.00,M,BKN,M,M,M,12000.00,M,M,M,M,KSPW 011020Z AUTO 29003KT 9SM BKN120 A3020 RMK MADISHF
SPW,2017-04-01 10:30,-95.2101,43.1682,M,M,M,310.00,3.00,M,30.20,M,9.00,M,BKN,M,M,M,12000.00,M,M,M,M,KSPW 011030Z AUTO 31003KT 9SM BKN120 A3020 RMK MADISHF
SPW,2017-04-01 10:40,-95.2101,43.1682,M,M,M,320.00,4.00,M,30.20,M,9.00,M,SCT,M,M,M,12000.00,M,M,M,M,KSPW 011040Z AUTO 32004KT 9SM SCT120 A3020 RMK MADISHF
SPW,2017-04-01 10:45,-95.2101,43.1682,M,M,M,320.00,5.00,M,30.20,M,8.00,M,FEW,M,M,M,11000.00,M,M,M,M,KSPW 011045Z AUTO 32005KT 8SM FEW110 A3020 RMK MADISHF
SPW,2017-04-01 10:50,-95.2101,43.1682,M,M,M,320.00,3.00,M,30.20,M,8.00,M,FEW,M,M,M,11000.00,M,M,M,M,KSPW 011050Z AUTO 32003KT 8SM FEW110 A3020 RMK MADISHF
SPW,2017-04-01 10:53,-95.2101,43.1682,35.10,34.00,95.71,0.00,0.00,0.00,30.20,1023.70,7.00,M,CLR,M,M,M,M,M,M,M,M,KSPW 011053Z AUTO 00000KT 7SM CLR 02/01 A3020 RMK AO2 SLP237 T00170011 TSNO $
SPW,2017-04-01 10:55,-95.2101,43.1682,M,M,M,0.00,0.00,M,30.20,M,7.00,M,CLR,M,M,M,M,M,M,M,M,KSPW 011055Z AUTO 00000KT 7SM CLR A3020 RMK MADISHF
SPW,2017-04-01 11:00,-95.2101,43.1682,M,M,M,0.00,0.00,M,30.20,M,7.00,M,CLR,M,M,M,M,M,M,M,M,KSPW 011100Z AUTO 00000KT 7SM CLR A3020 RMK MADISHF
SPW,2017-04-01 11:05,-95.2101,43.1682,M,M,M,0.00,0.00,M,30.19,M,8.00,M,CLR,M,M,M,M,M,M,M,M,KSPW 011105Z AUTO 00000KT 8SM CLR A3019 RMK MADISHF
SPW,2017-04-01 11:10,-95.2101,43.1682,M,M,M,0.00,0.00,M,30.19,M,8.00,M,CLR,M,M,M,M,M,M,M,M,KSPW 011110Z AUTO 00000KT 8SM CLR A3019 RMK MADISHF
SPW,2017-04-01 11:15,-95.2101,43.1682,M,M,M,0.00,0.00,M,30.20,M,9.00,M,CLR,M,M,M,M,M,M,M,M,KSPW 011115Z AUTO 00000KT 9SM CLR A3020 RMK MADISHF
SPW,2017-04-01 11:20,-95.2101,43.1682,M,M,M,300.00,3.00,M,30.20,M,9.00,M,CLR,M,M,M,M,M,M,M,M,KSPW 011120Z AUTO 30003KT 9SM CLR A3020 RMK MADISHF
SPW,2017-04-01 11:30,-95.2101,43.1682,M,M,M,290.00,3.00,M,30.21,M,8.00,M,CLR,M,M,M,M,M,M,M,M,KSPW 011130Z AUTO 29003KT 8SM CLR A3021 RMK MADISHF
SPW,2017-04-01 11:35,-95.2101,43.1682,M,M,M,260.00,3.00,M,30.21,M,8.00,M,CLR,M,M,M,M,M,M,M,M,KSPW 011135Z AUTO 26003KT 8SM CLR A3021 RMK MADISHF
SPW,2017-04-01 11:40,-95.2101,43.1682,M,M,M,260.00,3.00,M,30.21,M,8.00,M,CLR,M,M,M,M,M,M,M,M,KSPW 011140Z AUTO 26003KT 8SM CLR A3021 RMK MADISHF
SPW,2017-04-01 11:45,-95.2101,43.1682,M,M,M,280.00,3.00,M,30.21,M,8.00,M,FEW,M,M,M,12000.00,M,M,M,M,KSPW 011145Z AUTO 28003KT 8SM FEW120 A3021 RMK MADISHF
SPW,2017-04-01 11:50,-95.2101,43.1682,M,M,M,290.00,3.00,M,30.21,M,8.00,M,SCT,M,M,M,12000.00,M,M,M,M,KSPW 011150Z AUTO 29003KT 8SM SCT120 A3021 RMK MADISHF
SPW,2017-04-01 11:53,-95.2101,43.1682,36.00,35.10,96.49,0.00,0.00,0.00,30.22,1024.20,8.00,M,SCT,M,M,M,12000.00,M,M,M,M,KSPW 011153Z AUTO 00000KT 8SM SCT120 02/02 A3022 RMK AO2 SLP242 T00220017 10028 20000 51016 TSNO $
SPW,2017-04-01 11:55,-95.2101,43.1682,M,M,M,0.00,0.00,M,30.22,M,7.00,M,SCT,M,M,M,12000.00,M,M,M,M,KSPW 011155Z AUTO 00000KT 7SM SCT120 A3022 RMK MADISHF
SPW,2017-04-01 12:05,-95.2101,43.1682,M,M,M,0.00,0.00,M,30.22,M,7.00,M,BKN,M,M,M,12000.00,M,M,M,M,KSPW 011205Z AUTO 00000KT 7SM BKN120 A3022 RMK MADISHF
SPW,2017-04-01 12:10,-95.2101,43.1682,M,M,M,0.00,0.00,M,30.22,M,6.00,M,BKN,M,M,M,11000.00,M,M,M,BR,KSPW 011210Z AUTO 00000KT 6SM BR BKN110 A3022 RMK MADISHF
SPW,2017-04-01 12:15,-95.2101,43.1682,M,M,M,0.00,0.00,M,30.22,M,5.00,M,BKN,M,M,M,11000.00,M,M,M,BR,KSPW 011215Z AUTO 00000KT 5SM BR BKN110 A3022 RMK MADISHF
SPW,2017-04-01 12:20,-95.2101,43.1682,M,M,M,220.00,3.00,M,30.22,M,5.00,M,SCT,M,M,M,11000.00,M,M,M,BR,KSPW 011220Z AUTO 22003KT 5SM BR SCT110 A3022 RMK MADISHF
SPW,2017-04-01 12:25,-95.2101,43.1682,M,M,M,210.00,4.00,M,30.23,M,5.00,M,SCT,M,M,M,11000.00,M,M,M,BR,KSPW 011225Z AUTO 21004KT 5SM BR SCT110 A3023 RMK MADISHF
SPW,2017-04-01 12:30,-95.2101,43.1682,M,M,M,240.00,3.00,M,30.22,M,5.00,M,FEW,M,M,M,11000.00,M,M,M,BR,KSPW 011230Z AUTO 24003KT 5SM BR FEW110 A3022 RMK MADISHF
SPW,2017-04-01 12:35,-95.2101,43.1682,M,M,M,260.00,4.00,M,30.23,M,5.00,M,FEW,M,M,M,11000.00,M,M,M,BR,KSPW 011235Z AUTO 26004KT 5SM BR FEW110 A3023 RMK MADISHF
SPW,2017-04-01 12:40,-95.2101,43.1682,M,M,M,250.00,3.00,M,30.23,M,5.00,M,CLR,M,M,M,M,M,M,M,BR,KSPW 011240Z AUTO 25003KT 5SM BR CLR A3023 RMK MADISHF
SPW,2017-04-01 12:45,-95.2101,43.1682,M,M,M,240.00,4.00,M,30.23,M,5.00,M,CLR,M,M,M,M,M,M,M,BR,KSPW 011245Z AUTO 24004KT 5SM BR CLR A3023 RMK MADISHF
SPW,2017-04-01 12:53,-95.2101,43.1682,35.10,34.00,95.71,230.00,4.00,0.00,30.24,1025.10,5.00,M,FEW,M,M,M,12000.00,M,M,M,BR,KSPW 011253Z AUTO 23004KT 5SM BR FEW120 02/01 A3024 RMK AO2 SLP251 T00170011 TSNO $
SPW,2017-04-01 13:00,-95.2101,43.1682,M,M,M,220.00,5.00,M,30.24,M,6.00,M,SCT,M,M,M,12000.00,M,M,M,BR,KSPW 011300Z AUTO 22005KT 6SM BR SCT120 A3024 RMK MADISHF
SPW,2017-04-01 13:05,-95.2101,43.1682,M,M,M,210.00,5.00,M,30.24,M,6.00,M,BKN,M,M,M,12000.00,M,M,M,BR,KSPW 011305Z AUTO 21005KT 6SM BR BKN120 A3024 RMK MADISHF
SPW,2017-04-01 13:10,-95.2101,43.1682,M,M,M,220.00,5.00,M,30.24,M,7.00,M,BKN,M,M,M,11000.00,M,M,M,M,KSPW 011310Z AUTO 22005KT 7SM BKN110 A3024 RMK MADISHF
SPW,2017-04-01 13:15,-95.2101,43.1682,M,M,M,230.00,4.00,M,30.25,M,7.00,M,BKN,M,M,M,11000.00,M,M,M,M,KSPW 011315Z AUTO 23004KT 7SM BKN110 A3025 RMK MADISHF
SPW,2017-04-01 13:25,-95.2101,43.1682,M,M,M,250.00,3.00,M,30.24,M,8.00,M,OVC,M,M,M,11000.00,M,M,M,M,KSPW 011325Z AUTO 25003KT 8SM OVC110 A3024 RMK MADISHF
SPW,2017-04-01 13:30,-95.2101,43.1682,M,M,M,230.00,4.00,M,30.24,M,8.00,M,OVC,M,M,M,11000.00,M,M,M,M,KSPW 011330Z AUTO 23004KT 8SM OVC110 A3024 RMK MADISHF
SPW,2017-04-01 13:35,-95.2101,43.1682,M,M,M,240.00,5.00,M,30.24,M,8.00,M,OVC,M,M,M,11000.00,M,M,M,M,KSPW 011335Z AUTO 24005KT 8SM OVC110 A3024 RMK MADISHF
SPW,2017-04-01 13:40,-95.2101,43.1682,M,M,M,260.00,5.00,M,30.24,M,9.00,M,OVC,M,M,M,11000.00,M,M,M,M,KSPW 011340Z AUTO 26005KT 9SM OVC110 A3024 RMK MADISHF
SPW,2017-04-01 13:45,-95.2101,43.1682,M,M,M,260.00,5.00,M,30.25,M,9.00,M,OVC,M,M,M,11000.00,M,M,M,M,KSPW 011345Z AUTO 26005KT 9SM OVC110 A3025 RMK MADISHF
SPW,2017-04-01 13:50,-95.2101,43.1682,M,M,M,260.00,5.00,M,30.25,M,10.00,M,OVC,M,M,M,11000.00,M,M,M,M,KSPW 011350Z AUTO 26005KT 10SM OVC110 A3025 RMK MADISHF
SPW,2017-04-01 13:53,-95.2101,43.1682,39.90,37.00,89.27,270.00,4.00,0.00,30.25,1025.30,10.00,M,OVC,M,M,M,11000.00,M,M,M,M,KSPW 011353Z AUTO 27004KT 10SM OVC110 04/03 A3025 RMK AO2 SLP253 T00440028 TSNO $
SPW,2017-04-01 14:05,-95.2101,43.1682,M,M,M,280.00,4.00,M,30.25,M,10.00,M,OVC,M,M,M,11000.00,M,M,M,M,KSPW 011405Z AUTO 28004KT 10SM OVC110 A3025 RMK MADISHF
SPW,2017-04-01 14:10,-95.2101,43.1682,M,M,M,290.00,5.00,M,30.25,M,10.00,M,OVC,M,M,M,11000.00,M,M,M,M,KSPW 011410Z AUTO 29005KT 10SM OVC110 A3025 RMK MADISHF
SPW,2017-04-01 14:15,-95.2101,43.1682,M,M,M,310.00,5.00,M,30.25,M,10.00,M,OVC,M,M,M,11000.00,M,M,M,M,KSPW 011415Z AUTO 31005KT 10SM OVC110 A3025 RMK MADISHF
SPW,2017-04-01 14:20,-95.2101,43.1682,M,M,M,330.00,5.00,M,30.25,M,10.00,M,OVC,M,M,M,11000.00,M,M,M,M,KSPW 011420Z AUTO 33005KT 10SM OVC110 A3025 RMK MADISHF
SPW,2017-04-01 14:25,-95.2101,43.1682,M,M,M,330.00,4.00,M,30.25,M,10.00,M,OVC,M,M,M,11000.00,M,M,M,M,KSPW 011425Z AUTO 33004KT 10SM OVC110 A3025 RMK MADISHF
SPW,2017-04-01 14:30,-95.2101,43.1682,M,M,M,340.00,5.00,M,30.24,M,10.00,M,OVC,M,M,M,11000.00,M,M,M,M,KSPW 011430Z AUTO 34005KT 10SM OVC110 A3024 RMK MADISHF
SPW,2017-04-01 14:50,-95.2101,43.1682,M,M,M,350.00,3.00,M,30.24,M,10.00,M,OVC,M,M,M,11000.00,M,M,M,M,KSPW 011450Z AUTO 35003KT 10SM OVC110 A3024 RMK MADISHF
SPW,2017-04-01 14:53,-95.2101,43.1682,43.00,39.00,85.66,360.00,3.00,0.00,30.24,1025.10,10.00,M,OVC,M,M,M,11000.00,M,M,M,M,KSPW 011453Z AUTO 36003KT 10SM OVC110 06/04 A3024 RMK AO2 SLP251 T00610039 50007 TSNO $
SPW,2017-04-01 14:55,-95.2101,43.1682,M,M,M,360.00,4.00,M,30.24,M,10.00,M,OVC,M,M,M,11000.00,M,M,M,M,KSPW 011455Z AUTO 36004KT 10SM OVC110 A3024 RMK MADISHF
SPW,2017-04-01 15:00,-95.2101,43.1682,M,M,M,360.00,3.00,M,30.24,M,10.00,M,OVC,M,M,M,11000.00,M,M,M,M,KSPW 011500Z AUTO 36003KT 10SM OVC110 A3024 RMK MADISHF
SPW,2017-04-01 15:15,-95.2101,43.1682,M,M,M,330.00,3.00,M,30.24,M,10.00,M,OVC,M,M,M,11000.00,M,M,M,M,KSPW 011515Z AUTO 33003KT 10SM OVC110 A3024 RMK MADISHF
SPW,2017-04-01 15:20,-95.2101,43.1682,M,M,M,0.00,0.00,M,30.24,M,10.00,M,OVC,M,M,M,11000.00,M,M,M,M,KSPW 011520Z AUTO 00000KT 10SM OVC110 A3024 RMK MADISHF
SPW,2017-04-01 15:25,-95.2101,43.1682,M,M,M,330.00,3.00,M,30.24,M,10.00,M,OVC,M,M,M,11000.00,M,M,M,M,KSPW 011525Z AUTO 33003KT 10SM OVC110 A3024 RMK MADISHF
SPW,2017-04-01 15:30,-95.2101,43.1682,M,M,M,0.00,0.00,M,30.24,M,10.00,M,OVC,M,M,M,10000.00,M,M,M,M,KSPW 011530Z AUTO 00000KT 10SM OVC100 A3024 RMK MADISHF
SPW,2017-04-01 15:35,-95.2101,43.1682,M,M,M,340.00,3.00,M,30.24,M,10.00,M,OVC,M,M,M,10000.00,M,M,M,M,KSPW 011535Z AUTO 34003KT 10SM OVC100 A3024 RMK MADISHF
SPW,2017-04-01 15:40,-95.2101,43.1682,M,M,M,0.00,0.00,M,30.24,M,10.00,M,OVC,M,M,M,10000.00,M,M,M,M,KSPW 011540Z AUTO 00000KT 10SM OVC100 A3024 RMK MADISHF
SPW,2017-04-01 15:45,-95.2101,43.1682,M,M,M,350.00,3.00,M,30.24,M,10.00,M,OVC,M,M,M,10000.00,M,M,M,M,KSPW 011545Z AUTO 35003KT 10SM OVC100 A3024 RMK MADISHF
SPW,2017-04-01 15:50,-95.2101,43.1682,M,M,M,0.00,0.00,M,30.24,M,10.00,M,BKN,M,M,M,10000.00,M,M,M,M,KSPW 011550Z AUTO 00000KT 10SM BKN100 A3024 RMK MADISHF
SPW,2017-04-01 15:53,-95.2101,43.1682,50.00,37.90,62.98,0.00,0.00,0.00,30.24,1025.10,10.00,M,BKN,M,M,M,10000.00,M,M,M,M,KSPW 011553Z AUTO 00000KT 10SM BKN100 10/03 A3024 RMK AO2 SLP251 T01000033 TSNO $
SPW,2017-04-01 15:55,-95.2101,43.1682,M,M,M,0.00,0.00,M,30.24,M,10.00,M,BKN,M,M,M,10000.00,M,M,M,M,KSPW 011555Z AUTO 00000KT 10SM BKN100 A3024 RMK MADISHF
SPW,2017-04-01 16:05,-95.2101,43.1682,M,M,M,0.00,0.00,M,30.24,M,10.00,M,SCT,M,M,M,10000.00,M,M,M,M,KSPW 011605Z AUTO 00000KT 10SM SCT100 A3024 RMK MADISHF
SPW,2017-04-01 16:10,-95.2101,43.1682,M,M,M,0.00,0.00,M,30.24,M,10.00,M,FEW,M,M,M,10000.00,M,M,M,M,KSPW 011610Z AUTO 00000KT 10SM FEW100 A3024 RMK MADISHF
SPW,2017-04-01 16:15,-95.2101,43.1682,M,M,M,0.00,0.00,M,30.24,M,10.00,M,FEW,M,M,M,10000.00,M,M,M,M,KSPW 011615Z AUTO 00000KT 10SM FEW100 A3024 RMK MADISHF
SPW,2017-04-01 16:20,-95.2101,43.1682,M,M,M,0.00,0.00,M,30.24,M,10.00,M,CLR,M,M,M,M,M,M,M,M,KSPW 011620Z AUTO 00000KT 10SM CLR A3024 RMK MADISHF
SPW,2017-04-01 16:25,-95.2101,43.1682,M,M,M,0.00,0.00,M,30.24,M,10.00,M,CLR,M,M,M,M,M,M,M,M,KSPW 011625Z AUTO 00000KT 10SM CLR A3024 RMK MADISHF
SPW,2017-04-01 16:30,-95.2101,43.1682,M,M,M,0.00,0.00,M,30.24,M,10.00,M,CLR,M,M,M,M,M,M,M,M,KSPW 011630Z AUTO 00000KT 10SM CLR A3024 RMK MADISHF
SPW,2017-04-01 16:35,-95.2101,43.1682,M,M,M,0.00,0.00,M,30.24,M,10.00,M,CLR,M,M,M,M,M,M,M,M,KSPW 011635Z AUTO 00000KT 10SM CLR A3024 RMK MADISHF
SPW,2017-04-01 16:40,-95.2101,43.1682,M,M,M,0.00,0.00,M,30.24,M,10.00,M,CLR,M,M,M,M,M,M,M,M,KSPW 011640Z AUTO 00000KT 10SM CLR A3024 RMK MADISHF
SPW,2017-04-01 16:45,-95.2101,43.1682,M,M,M,40.00,3.00,M,30.24,M,10.00,M,CLR,M,M,M,M,M,M,M,M,KSPW 011645Z AUTO 04003KT 10SM CLR A3024 RMK MADISHF
SPW,2017-04-01 16:53,-95.2101,43.1682,54.00,37.00,52.45,0.00,0.00,0.00,30.24,1025.00,10.00,M,CLR,M,M,M,M,M,M,M,M,KSPW 011653Z AUTO 00000KT 10SM CLR 12/03 A3024 RMK AO2 SLP250 T01220028 TSNO $
SPW,2017-04-01 16:55,-95.2101,43.1682,M,M,M,0.00,0.00,M,30.24,M,10.00,M,CLR,M,M,M,M,M,M,M,M,KSPW 011655Z AUTO 00000KT 10SM CLR A3024 RMK MADISHF
SPW,2017-04-01 17:00,-95.2101,43.1682,M,M,M,0.00,0.00,M,30.24,M,10.00,M,CLR,M,M,M,M,M,M,M,M,KSPW 011700Z AUTO 00000KT 10SM CLR A3024 RMK MADISHF
SPW,2017-04-01 17:05,-95.2101,43.1682,M,M,M,100.00,3.00,M,30.24,M,10.00,M,CLR,M,M,M,M,M,M,M,M,KSPW 011705Z AUTO 10003KT 10SM CLR A3024 RMK VRB03KT  MADISHF
SPW,2017-04-01 17:10,-95.2101,43.1682,M,M,M,130.00,4.00,M,30.24,M,10.00,M,CLR,M,M,M,M,M,M,M,M,KSPW 011710Z AUTO 13004KT 10SM CLR A3024 RMK MADISHF
SPW,2017-04-01 17:15,-95.2101,43.1682,M,M,M,0.00,0.00,M,30.23,M,10.00,M,CLR,M,M,M,M,M,M,M,M,KSPW 011715Z AUTO 00000KT 10SM CLR A3023 RMK MADISHF
SPW,2017-04-01 17:20,-95.2101,43.1682,M,M,M,0.00,0.00,M,30.23,M,10.00,M,CLR,M,M,M,M,M,M,M,M,KSPW 011720Z AUTO 00000KT 10SM CLR A3023 RMK MADISHF
SPW,2017-04-01 17:25,-95.2101,43.1682,M,M,M,130.00,4.00,M,30.23,M,10.00,M,CLR,M,M,M,M,M,M,M,M,KSPW 011725Z AUTO 13004KT 10SM CLR A3023 RMK VRB04KT  MADISHF
SPW,2017-04-01 17:30,-95.2101,43.1682,M,M,M,0.00,0.00,M,30.23,M,10.00,M,CLR,M,M,M,M,M,M,M,M,KSPW 011730Z AUTO 00000KT 10SM CLR A3023 RMK MADISHF
SPW,2017-04-01 17:35,-95.2101,43.1682,M,M,M,150.00,3.00,M,30.23,M,10.00,M,CLR,M,M,M,M,M,M,M,M,KSPW 011735Z AUTO 15003KT 10SM CLR A3023 RMK VRB03KT  MADISHF
SPW,2017-04-01 17:40,-95.2101,43.1682,M,M,M,190.00,5.00,M,30.23,M,10.00,M,CLR,M,M,M,M,M,M,M,M,KSPW 011740Z AUTO 19005KT 10SM CLR A3023 RMK VRB05KT  MADISHF
SPW,2017-04-01 17:45,-95.2101,43.1682,M,M,M,190.00,3.00,M,30.23,M,10.00,M,CLR,M,M,M,M,M,M,M,M,KSPW 011745Z AUTO 19003KT 10SM CLR A3023 RMK MADISHF
SPW,2017-04-01 17:50,-95.2101,43.1682,M,M,M,220.00,3.00,M,30.22,M,10.00,M,CLR,M,M,M,M,M,M,M,M,KSPW 011750Z AUTO 22003KT 10SM CLR A3022 RMK MADISHF
SPW,2017-04-01 17:53,-95.2101,43.1682,55.00,33.10,43.31,M,3.00,0.00,30.22,1024.30,10.00,M,CLR,M,M,M,M,M,M,M,M,KSPW 011753Z AUTO VRB03KT 10SM CLR 13/01 A3022 RMK AO2 SLP243 T01280006 10128 20011 58005 TSNO $
SPW,2017-04-01 17:55,-95.2101,43.1682,M,M,M,220.00,4.00,M,30.22,M,10.00,M,CLR,M,M,M,M,M,M,M,M,KSPW 011755Z AUTO 22004KT 10SM CLR A3022 RMK VRB04KT  MADISHF
SPW,2017-04-01 18:10,-95.2101,43.1682,M,M,M,170.00,5.00,M,30.22,M,10.00,M,CLR,M,M,M,M,M,M,M,M,KSPW 011810Z AUTO 17005KT 10SM CLR A3022 RMK MADISHF
SPW,2017-04-01 18:15,-95.2101,43.1682,M,M,M,190.00,3.00,M,30.21,M,10.00,M,CLR,M,M,M,M,M,M,M,M,KSPW 011815Z AUTO 19003KT 10SM CLR A3021 RMK VRB03KT  MADISHF
SPW,2017-04-01 18:20,-95.2101,43.1682,M,M,M,0.00,0.00,M,30.21,M,10.00,M,CLR,M,M,M,M,M,M,M,M,KSPW 011820Z AUTO 00000KT 10SM CLR A3021 RMK MADISHF
SPW,2017-04-01 18:25,-95.2101,43.1682,M,M,M,0.00,0.00,M,30.21,M,10.00,M,CLR,M,M,M,M,M,M,M,M,KSPW 011825Z AUTO 00000KT 10SM CLR A3021 RMK MADISHF
SPW,2017-04-01 18:30,-95.2101,43.1682,M,M,M,0.00,0.00,M,30.21,M,10.00,M,CLR,M,M,M,M,M,M,M,M,KSPW 011830Z AUTO 00000KT 10SM CLR A3021 RMK MADISHF
SPW,2017-04-01 18:35,-95.2101,43.1682,M,M,M,290.00,3.00,M,30.21,M,10.00,M,CLR,M,M,M,M,M,M,M,M,KSPW 011835Z AUTO 29003KT 10SM CLR A3021 RMK MADISHF
SPW,2017-04-01 18:40,-95.2101,43.1682,M,M,M,20.00,3.00,M,30.21,M,10.00,M,CLR,M,M,M,M,M,M,M,M,KSPW 011840Z AUTO 02003KT 10SM CLR A3021 RMK MADISHF
SPW,2017-04-01 18:45,-95.2101,43.1682,M,M,M,0.00,0.00,M,30.21,M,10.00,M,CLR,M,M,M,M,M,M,M,M,KSPW 011845Z AUTO 00000KT 10SM CLR A3021 RMK MADISHF
SPW,2017-04-01 18:50,-95.2101,43.1682,M,M,M,140.00,4.00,M,30.20,M,10.00,M,CLR,M,M,M,M,M,M,M,M,KSPW 011850Z AUTO 14004KT 10SM CLR A3020 RMK VRB04KT  MADISHF
SPW,2017-04-01 18:53,-95.2101,43.1682,57.00,30.90,36.86,180.00,6.00,0.00,30.20,1023.60,10.00,M,CLR,M,M,M,M,M,M,M,M,KSPW 011853Z AUTO 18006KT 10SM CLR 14/M01 A3020 RMK AO2 SLP236 T01391006 TSNO $
SPW,2017-04-01 18:55,-95.2101,43.1682,M,M,M,160.00,6.00,M,30.20,M,10.00,M,CLR,M,M,M,M,M,M,M,M,KSPW 011855Z AUTO 16006KT 10SM CLR A3020 RMK MADISHF
SPW,2017-04-01 19:00,-95.2101,43.1682,M,M,M,170.00,5.00,M,30.20,M,10.00,M,FEW,M,M,M,10000.00,M,M,M,M,KSPW 011900Z AUTO 17005KT 10SM FEW100 A3020 RMK MADISHF
SPW,2017-04-01 19:15,-95.2101,43.1682,M,M,M,210.00,3.00,M,30.20,M,10.00,M,SCT,M,M,M,10000.00,M,M,M,M,KSPW 011915Z AUTO 21003KT 10SM SCT100 A3020 RMK VRB03KT  MADISHF
SPW,2017-04-01 19:20,-95.2101,43.1682,M,M,M,280.00,3.00,M,30.20,M,10.00,M,FEW,M,M,M,10000.00,M,M,M,M,KSPW 011920Z AUTO 28003KT 10SM FEW100 A3020 RMK VRB03KT  MADISHF
SPW,2017-04-01 19:25,-95.2101,43.1682,M,M,M,320.00,3.00,M,30.20,M,10.00,M,FEW,M,M,M,10000.00,M,M,M,M,KSPW 011925Z AUTO 32003KT 10SM FEW100 A3020 RMK MADISHF
SPW,2017-04-01 19:30,-95.2101,43.1682,M,M,M,340.00,6.00,M,30.20,M,10.00,M,FEW,M,M,M,10000.00,M,M,M,M,KSPW 011930Z AUTO 34006KT 10SM FEW100 A3020 RMK MADISHF
SPW,2017-04-01 19:35,-95.2101,43.1682,M,M,M,320.00,4.00,M,30.19,M,10.00,M,FEW,M,M,M,10000.00,M,M,M,M,KSPW 011935Z AUTO 32004KT 10SM FEW100 A3019 RMK VRB04KT  MADISHF
SPW,2017-04-01 19:40,-95.2101,43.1682,M,M,M,340.00,5.00,M,30.19,M,10.00,M,CLR,M,M,M,M,M,M,M,M,KSPW 011940Z AUTO 34005KT 10SM CLR A3019 RMK MADISHF
SPW,2017-04-01 19:45,-95.2101,43.1682,M,M,M,0.00,0.00,M,30.19,M,10.00,M,CLR,M,M,M,M,M,M,M,M,KSPW 011945Z AUTO 00000KT 10SM CLR A3019 RMK MADISHF
SPW,2017-04-01 19:50,-95.2101,43.1682,M,M,M,160.00,3.00,M,30.18,M,10.00,M,CLR,M,M,M,M,M,M,M,M,KSPW 011950Z AUTO 16003KT 10SM CLR A3018 RMK VRB03KT  MADISHF
SPW,2017-04-01 19:53,-95.2101,43.1682,57.00,30.00,35.54,190.00,5.00,0.00,30.18,1022.80,10.00,M,CLR,M,M,M,M,M,M,M,M,KSPW 011953Z AUTO 19005KT 10SM CLR 14/M01 A3018 RMK AO2 SLP228 T01391011 TSNO $
SPW,2017-04-01 20:00,-95.2101,43.1682,M,M,M,140.00,7.00,M,30.18,M,10.00,M,CLR,M,M,M,M,M,M,M,M,KSPW 012000Z AUTO 14007KT 10SM CLR A3018 RMK MADISHF
SPW,2017-04-01 20:05,-95.2101,43.1682,M,M,M,150.00,4.00,M,30.18,M,10.00,M,CLR,M,M,M,M,M,M,M,M,KSPW 012005Z AUTO 15004KT 10SM CLR A3018 RMK MADISHF
SPW,2017-04-01 20:10,-95.2101,43.1682,M,M,M,150.00,6.00,M,30.18,M,10.00,M,CLR,M,M,M,M,M,M,M,M,KSPW 012010Z AUTO 15006KT 10SM CLR A3018 RMK VRB06KT  MADISHF
SPW,2017-04-01 20:15,-95.2101,43.1682,M,M,M,170.00,7.00,M,30.18,M,10.00,M,CLR,M,M,M,M,M,M,M,M,KSPW 012015Z AUTO 17007KT 10SM CLR A3018 RMK MADISHF
SPW,2017-04-01 20:20,-95.2101,43.1682,M,M,M,140.00,3.00,M,30.18,M,10.00,M,CLR,M,M,M,M,M,M,M,M,KSPW 012020Z AUTO 14003KT 10SM CLR A3018 RMK MADISHF
SPW,2017-04-01 20:25,-95.2101,43.1682,M,M,M,170.00,4.00,M,30.18,M,10.00,M,FEW,M,M,M,12000.00,M,M,M,M,KSPW 012025Z AUTO 17004KT 10SM FEW120 A3018 RMK MADISHF
SPW,2017-04-01 20:40,-95.2101,43.1682,M,M,M,0.00,0.00,M,30.17,M,10.00,M,BKN,M,M,M,11000.00,M,M,M,M,KSPW 012040Z AUTO 00000KT 10SM BKN110 A3017 RMK MADISHF
SPW,2017-04-01 20:45,-95.2101,43.1682,M,M,M,0.00,0.00,M,30.17,M,10.00,M,BKN,M,M,M,11000.00,M,M,M,M,KSPW 012045Z AUTO 00000KT 10SM BKN110 A3017 RMK MADISHF
SPW,2017-04-01 20:50,-95.2101,43.1682,M,M,M,0.00,0.00,M,30.16,M,10.00,M,OVC,M,M,M,11000.00,M,M,M,M,KSPW 012050Z AUTO 00000KT 10SM OVC110 A3016 RMK MADISHF
SPW,2017-04-01 20:53,-95.2101,43.1682,57.90,30.00,34.41,160.00,5.00,0.00,30.16,1022.00,10.00,M,OVC,M,M,M,11000.00,M,M,M,M,KSPW 012053Z AUTO 16005KT 10SM OVC110 14/M01 A3016 RMK AO2 SLP220 T01441011 56020 TSNO $
SPW,2017-04-01 20:55,-95.2101,43.1682,M,M,M,200.00,6.00,M,30.16,M,10.00,M,OVC,M,M,M,11000.00,M,M,M,M,KSPW 012055Z AUTO 20006KT 10SM OVC110 A3016 RMK MADISHF
SPW,2017-04-01 21:00,-95.2101,43.1682,M,M,M,160.00,4.00,M,30.17,M,10.00,M,OVC,M,M,M,11000.00,M,M,M,M,KSPW 012100Z AUTO 16004KT 10SM OVC110 A3017 RMK VRB04KT  MADISHF
SPW,2017-04-01 21:05,-95.2101,43.1682,M,M,M,0.00,0.00,M,30.16,M,10.00,M,OVC,M,M,M,11000.00,M,M,M,M,KSPW 012105Z AUTO 00000KT 10SM OVC110 A3016 RMK MADISHF
SPW,2017-04-01 21:10,-95.2101,43.1682,M,M,M,0.00,0.00,M,30.16,M,10.00,M,BKN,M,M,M,11000.00,M,M,M,M,KSPW 012110Z AUTO 00000KT 10SM BKN110 A3016 RMK MADISHF
SPW,2017-04-01 21:15,-95.2101,43.1682,M,M,M,130.00,6.00,M,30.16,M,10.00,M,BKN,M,M,M,11000.00,M,M,M,M,KSPW 012115Z AUTO 13006KT 10SM BKN110 A3016 RMK MADISHF
SPW,2017-04-01 21:20,-95.2101,43.1682,M,M,M,160.00,3.00,M,30.16,M,10.00,M,SCT,M,M,M,11000.00,M,M,M,M,KSPW 012120Z AUTO 16003KT 10SM SCT110 A3016 RMK MADISHF
SPW,2017-04-01 21:25,-95.2101,43.1682,M,M,M,0.00,0.00,M,30.16,M,10.00,M,FEW,M,M,M,11000.00,M,M,M,M,KSPW 012125Z AUTO 00000KT 10SM FEW110 A3016 RMK MADISHF
SPW,2017-04-01 21:30,-95.2101,43.1682,M,M,M,40.00,3.00,M,30.16,M,10.00,M,FEW,M,M,M,11000.00,M,M,M,M,KSPW 012130Z AUTO 04003KT 10SM FEW110 A3016 RMK MADISHF
SPW,2017-04-01 21:35,-95.2101,43.1682,M,M,M,110.00,4.00,M,30.16,M,10.00,M,CLR,M,M,M,M,M,M,M,M,KSPW 012135Z AUTO 11004KT 10SM CLR A3016 RMK MADISHF
SPW,2017-04-01 21:40,-95.2101,43.1682,M,M,M,180.00,4.00,M,30.16,M,10.00,M,CLR,M,M,M,M,M,M,M,M,KSPW 012140Z AUTO 18004KT 10SM CLR A3016 RMK MADISHF
SPW,2017-04-01 21:45,-95.2101,43.1682,M,M,M,170.00,3.00,M,30.16,M,10.00,M,CLR,M,M,M,M,M,M,M,M,KSPW 012145Z AUTO 17003KT 10SM CLR A3016 RMK VRB03KT  MADISHF
SPW,2017-04-01 21:53,-95.2101,43.1682,57.90,30.00,34.41,160.00,4.00,0.00,30.16,1021.90,10.00,M,FEW,M,M,M,11000.00,M,M,M,M,KSPW 012153Z AUTO 16004KT 10SM FEW110 14/M01 A3016 RMK AO2 SLP219 T01441011 TSNO $
SPW,2017-04-01 21:55,-95.2101,43.1682,M,M,M,180.00,5.00,M,30.16,M,10.00,M,SCT,M,M,M,11000.00,M,M,M,M,KSPW 012155Z AUTO 18005KT 10SM SCT110 A3016 RMK MADISHF
SPW,2017-04-01 22:00,-95.2101,43.1682,M,M,M,200.00,3.00,M,30.15,M,10.00,M,SCT,M,M,M,11000.00,M,M,M,M,KSPW 012200Z AUTO 20003KT 10SM SCT110 A3015 RMK MADISHF
SPW,2017-04-01 22:05,-95.2101,43.1682,M,M,M,0.00,0.00,M,30.15,M,10.00,M,SCT,M,M,M,11000.00,M,M,M,M,KSPW 012205Z AUTO 00000KT 10SM SCT110 A3015 RMK MADISHF
SPW,2017-04-01 22:10,-95.2101,43.1682,M,M,M,130.00,4.00,M,30.15,M,10.00,M,FEW,M,M,M,11000.00,M,M,M,M,KSPW 012210Z AUTO 13004KT 10SM FEW110 A3015 RMK MADISHF
SPW,2017-04-01 22:15,-95.2101,43.1682,M,M,M,150.00,6.00,M,30.14,M,10.00,M,FEW,M,M,M,11000.00,M,M,M,M,KSPW 012215Z AUTO 15006KT 10SM FEW110 A3014 RMK MADISHF
SPW,2017-04-01 22:20,-95.2101,43.1682,M,M,M,140.00,3.00,M,30.14,M,10.00,M,FEW,M,M,M,11000.00,M,M,M,M,KSPW 012220Z AUTO 14003KT 10SM FEW110 A3014 RMK MADISHF
SPW,2017-04-01 22:25,-95.2101,43.1682,M,M,M,150.00,6.00,M,30.14,M,10.00,M,FEW,M,M,M,11000.00,M,M,M,M,KSPW 012225Z AUTO 15006KT 10SM FEW110 A3014 RMK MADISHF
SPW,2017-04-01 22:30,-95.2101,43.1682,M,M,M,170.00,4.00,M,30.14,M,10.00,M,CLR,M,M,M,M,M,M,M,M,KSPW 012230Z AUTO 17004KT 10SM CLR A3014 RMK MADISHF
SPW,2017-04-01 22:40,-95.2101,43.1682,M,M,M,170.00,3.00,M,30.14,M,10.00,M,CLR,M,M,M,M,M,M,M,M,KSPW 012240Z AUTO 17003KT 10SM CLR A3014 RMK MADISHF
SPW,2017-04-01 22:45,-95.2101,43.1682,M,M,M,140.00,3.00,M,30.14,M,10.00,M,CLR,M,M,M,M,M,M,M,M,KSPW 012245Z AUTO 14003KT 10SM CLR A3014 RMK MADISHF
SPW,2017-04-01 22:50,-95.2101,43.1682,M,M,M,140.00,5.00,M,30.14,M,10.00,M,CLR,M,M,M,M,M,M,M,M,KSPW 012250Z AUTO 14005KT 10SM CLR A3014 RMK MADISHF
SPW,2017-04-01 22:53,-95.2101,43.1682,57.00,30.90,36.86,160.00,4.00,0.00,30.14,1021.40,10.00,M,CLR,M,M,M,M,M,M,M,M,KSPW 012253Z AUTO 16004KT 10SM CLR 14/M01 A3014 RMK AO2 SLP214 T01391006 TSNO $
SPW,2017-04-01 22:55,-95.2101,43.1682,M,M,M,160.00,3.00,M,30.14,M,10.00,M,CLR,M,M,M,M,M,M,M,M,KSPW 012255Z AUTO 16003KT 10SM CLR A3014 RMK MADISHF
SPW,2017-04-01 23:00,-95.2101,43.1682,M,M,M,160.00,3.00,M,30.15,M,10.00,M,CLR,M,M,M,M,M,M,M,M,KSPW 012300Z AUTO 16003KT 10SM CLR A3015 RMK MADISHF
SPW,2017-04-01 23:05,-95.2101,43.1682,M,M,M,160.00,6.00,M,30.15,M,10.00,M,CLR,M,M,M,M,M,M,M,M,KSPW 012305Z AUTO 16006KT 10SM CLR A3015 RMK MADISHF
SPW,2017-04-01 23:15,-95.2101,43.1682,M,M,M,160.00,6.00,M,30.14,M,10.00,M,CLR,M,M,M,M,M,M,M,M,KSPW 012315Z AUTO 16006KT 10SM CLR A3014 RMK MADISHF
SPW,2017-04-01 23:20,-95.2101,43.1682,M,M,M,170.00,7.00,M,30.15,M,10.00,M,CLR,M,M,M,M,M,M,M,M,KSPW 012320Z AUTO 17007KT 10SM CLR A3015 RMK MADISHF
SPW,2017-04-01 23:25,-95.2101,43.1682,M,M,M,180.00,7.00,M,30.15,M,10.00,M,CLR,M,M,M,M,M,M,M,M,KSPW 012325Z AUTO 18007KT 10SM CLR A3015 RMK MADISHF
SPW,2017-04-01 23:30,-95.2101,43.1682,M,M,M,170.00,7.00,M,30.15,M,10.00,M,CLR,M,M,M,M,M,M,M,M,KSPW 012330Z AUTO 17007KT 10SM CLR A3015 RMK MADISHF
SPW,2017-04-01 23:35,-95.2101,43.1682,M,M,M,170.00,8.00,M,30.15,M,10.00,M,CLR,M,M,M,M,M,M,M,M,KSPW 012335Z AUTO 17008KT 10SM CLR A3015 RMK MADISHF
SPW,2017-04-01 23:40,-95.2101,43.1682,M,M,M,180.00,8.00,M,30.15,M,10.00,M,CLR,M,M,M,M,M,M,M,M,KSPW 012340Z AUTO 18008KT 10SM CLR A3015 RMK MADISHF
SPW,2017-04-01 23:45,-95.2101,43.1682,M,M,M,180.00,7.00,M,30.14,M,10.00,M,CLR,M,M,M,M,M,M,M,M,KSPW 012345Z AUTO 18007KT 10SM CLR A3014 RMK MADISHF
SPW,2017-04-01 23:50,-95.2101,43.1682,M,M,M,170.00,6.00,M,30.14,M,10.00,M,CLR,M,M,M,M,M,M,M,M,KSPW 012350Z AUTO 17006KT 10SM CLR A3014 RMK MADISHF
SPW,2017-04-01 23:53,-95.2101,43.1682,54.00,37.00,52.45,170.00,6.00,0.00,30.14,1021.40,10.00,M,CLR,M,M,M,M,M,M,M,M,KSPW 012353Z AUTO 17006KT 10SM CLR 12/03 A3014 RMK AO2 SLP214 T01220028 10150 20122 58008 TSNO $
SPW,2017-04-01 23:55,-95.2101,43.1682,M,M,M,170.00,7.00,M,30.14,M,10.00,M,CLR,M,M,M,M,M,M,M,M,KSPW 012355Z AUTO 17007KT 10SM CLR A3014 RMK MADISHF
