#DEBUG: Format Typ    -> comma
#DEBUG: Time Period   -> 2017-04-01 00:00:00+00:00 2017-04-02 00:00:00+00:00
#DEBUG: Time Zone     -> Etc/UTC
#DEBUG: Data Contact   -> daryl herzmann akrherz@iastate.edu 515-294-5978
#DEBUG: Entries Found -> -1
station,valid,lon,lat,tmpf, dwpf, relh, drct, sknt, p01i, alti, mslp, vsby, gust, skyc1, skyc2, skyc3, skyc4, skyl1, skyl2, skyl3, skyl4, presentwx, metar
SUX,2017-04-01 00:00,-96.3795,42.3917,M,M,M,40.00,10.00,M,30.03,M,10.00,M,CLR,M,M,M,M,M,M,M,M,KSUX 010000Z AUTO 04010KT 10SM CLR A3003 RMK MADISHF
SUX,2017-04-01 00:05,-96.3795,42.3917,M,M,M,40.00,11.00,M,30.03,M,10.00,M,CLR,M,M,M,M,M,M,M,M,KSUX 010005Z AUTO 04011KT 10SM CLR A3003 RMK MADISHF
SUX,2017-04-01 00:10,-96.3795,42.3917,M,M,M,50.00,11.00,M,30.03,M,10.00,M,CLR,M,M,M,M,M,M,M,M,KSUX 010010Z AUTO 05011KT 10SM CLR A3003 RMK MADISHF
SUX,2017-04-01 00:15,-96.3795,42.3917,M,M,M,50.00,9.00,M,30.04,M,10.00,M,CLR,M,M,M,M,M,M,M,M,KSUX 010015Z AUTO 05009KT 10SM CLR A3004 RMK MADISHF
SUX,2017-04-01 00:20,-96.3795,42.3917,M,M,M,50.00,10.00,M,30.04,M,10.00,M,CLR,M,M,M,M,M,M,M,M,KSUX 010020Z AUTO 05010KT 10SM CLR A3004 RMK MADISHF
SUX,2017-04-01 00:30,-96.3795,42.3917,M,M,M,50.00,9.00,M,30.04,M,10.00,M,CLR,M,M,M,M,M,M,M,M,KSUX 010030Z AUTO 05009KT 10SM CLR A3004 RMK MADISHF
SUX,2017-04-01 00:35,-96.3795,42.3917,M,M,M,50.00,8.00,M,30.04,M,10.00,M,CLR,M,M,M,M,M,M,M,M,KSUX 010035Z AUTO 05008KT 10SM CLR A3004 RMK MADISHF
SUX,2017-04-01 00:40,-96.3795,42.3917,M,M,M,40.00,8.00,M,30.04,M,10.00,M,CLR,M,M,M,M,M,M,M,M,KSUX 010040Z AUTO 04008KT 10SM CLR A3004 RMK MADISHF
SUX,2017-04-01 00:45,-96.3795,42.3917,M,M,M,50.00,7.00,M,30.04,M,10.00,M,CLR,M,M,M,M,M,M,M,M,KSUX 010045Z AUTO 05007KT 10SM CLR A3004 RMK MADISHF
SUX,2017-04-01 00:50,-96.3795,42.3917,M,M,M,40.00,8.00,M,30.05,M,10.00,M,CLR,M,M,M,M,M,M,M,M,KSUX 010050Z AUTO 04008KT 10SM CLR A3005 RMK MADISHF
SUX,2017-04-01 00:52,-96.3795,42.3917,51.10,37.00,58.36,40.00,7.00,0.00,30.05,1018.00,10.00,M,CLR,M,M,M,M,M,M,M,M,KSUX 010052Z 04007KT 10SM CLR 11/03 A3005 RMK AO2 SLP180 T01060028
SUX,2017-04-01 00:55,-96.3795,42.3917,M,M,M,40.00,8.00,M,30.05,M,10.00,M,CLR,M,M,M,M,M,M,M,M,KSUX 010055Z AUTO 04008KT 10SM CLR A3005 RMK MADISHF
SUX,2017-04-01 01:00,-96.3795,42.3917,M,M,M,40.00,10.00,M,30.05,M,10.00,M,CLR,M,M,M,M,M,M,M,M,KSUX 010100Z AUTO 04010KT 10SM CLR A3005 RMK MADISHF
SUX,2017-04-01 01:05,-96.3795,42.3917,M,M,M,40.00,9.00,M,30.05,M,10.00,M,CLR,M,M,M,M,M,M,M,M,KSUX 010105Z AUTO 04009KT 10SM CLR A3005 RMK MADISHF
SUX,2017-04-01 01:10,-96.3795,42.3917,M,M,M,40.00,10.00,M,30.06,M,10.00,M,CLR,M,M,M,M,M,M,M,M,KSUX 010110Z AUTO 04010KT 10SM CLR A3006 RMK MADISHF
SUX,2017-04-01 01:20,-96.3795,42.3917,M,M,M,50.00,10.00,M,30.06,M,10.00,M,CLR,M,M,M,M,M,M,M,M,KSUX 010120Z AUTO 05010KT 10SM CLR A3006 RMK MADISHF
SUX,2017-04-01 01:25,-96.3795,42.3917,M,M,M,50.00,9.00,M,30.07,M,10.00,M,CLR,M,M,M,M,M,M,M,M,KSUX 010125Z AUTO 05009KT 10SM CLR A3007 RMK MADISHF
SUX,2017-04-01 01:30,-96.3795,42.3917,M,M,M,50.00,9.00,M,30.06,M,10.00,M,CLR,M,M,M,M,M,M,M,M,KSUX 010130Z AUTO 05009KT 10SM CLR A3006 RMK MADISHF
SUX,2017-04-01 01:35,-96.3795,42.3917,M,M,M,60.00,12.00,M,30.07,M,10.00,M,CLR,M,M,M,M,M,M,M,M,KSUX 010135Z AUTO 06012KT 10SM CLR A3007 RMK MADISHF
SUX,2017-04-01 01:40,-96.3795,42.3917,M,M,M,60.00,12.00,M,30.08,M,10.00,M,CLR,M,M,M,M,M,M,M,M,KSUX 010140Z AUTO 06012KT 10SM CLR A3008 RMK MADISHF
SUX,2017-04-01 01:45,-96.3795,42.3917,M,M,M,50.00,9.00,M,30.08,M,10.00,M,CLR,M,M,M,M,M,M,M,M,KSUX 010145Z AUTO 05009KT 10SM CLR A3008 RMK MADISHF
SUX,2017-04-01 01:50,-96.3795,42.3917,M,M,M,60.00,10.00,M,30.08,M,10.00,M,CLR,M,M,M,M,M,M,M,M,KSUX 010150Z AUTO 06010KT 10SM CLR A3008 RMK MADISHF
SUX,2017-04-01 01:52,-96.3795,42.3917,46.90,37.00,68.27,60.00,9.00,0.00,30.08,1019.30,10.00,M,CLR,M,M,M,M,M,M,M,M,KSUX 010152Z 06009KT 10SM CLR 08/03 A3008 RMK AO2 SLP193 T00830028
SUX,2017-04-01 01:55,-96.3795,42.3917,M,M,M,60.00,10.00,M,30.09,M,10.00,M,CLR,M,M,M,M,M,M,M,M,KSUX 010155Z AUTO 06010KT 10SM CLR A3009 RMK MADISHF
SUX,2017-04-01 02:00,-96.3795,42.3917,M,M,M,60.00,10.00,M,30.09,M,10.00,M,CLR,M,M,M,M,M,M,M,M,KSUX 010200Z AUTO 06010KT 10SM CLR A3009 RMK MADISHF
SUX,2017-04-01 02:15,-96.3795,42.3917,M,M,M,60.00,11.00,M,30.09,M,10.00,M,CLR,M,M,M,M,M,M,M,M,KSUX 010215Z AUTO 06011KT 10SM CLR A3009 RMK MADISHF
SUX,2017-04-01 02:20,-96.3795,42.3917,M,M,M,60.00,11.00,M,30.09,M,10.00,M,CLR,M,M,M,M,M,M,M,M,KSUX 010220Z AUTO 06011KT 10SM CLR A3009 RMK MADISHF
SUX,2017-04-01 02:25,-96.3795,42.3917,M,M,M,70.00,11.00,M,30.10,M,10.00,M,CLR,M,M,M,M,M,M,M,M,KSUX 010225Z AUTO 07011KT 10SM CLR A3010 RMK MADISHF
SUX,2017-04-01 02:30,-96.3795,42.3917,M,M,M,70.00,11.00,M,30.10,M,10.00,M,CLR,M,M,M,M,M,M,M,M,KSUX 010230Z AUTO 07011KT 10SM CLR A3010 RMK MADISHF
SUX,2017-04-01 02:35,-96.3795,42.3917,M,M,M,60.00,11.00,M,30.10,M,10.00,M,CLR,M,M,M,M,M,M,M,M,KSUX 010235Z AUTO 06011KT 10SM CLR A3010 RMK MADISHF
SUX,2017-04-01 02:40,-96.3795,42.3917,M,M,M,60.00,13.00,M,30.10,M,10.00,M,CLR,M,M,M,M,M,M,M,M,KSUX 010240Z AUTO 06013KT 10SM CLR A3010 RMK MADISHF
SUX,2017-04-01 02:45,-96.3795,42.3917,M,M,M,70.00,13.00,M,30.10,M,10.00,M,CLR,M,M,M,M,M,M,M,M,KSUX 010245Z AUTO 07013KT 10SM CLR A3010 RMK MADISHF
SUX,2017-04-01 02:50,-96.3795,42.3917,M,M,M,80.00,13.00,M,30.10,M,10.00,M,CLR,M,M,M,M,M,M,M,M,KSUX 010250Z AUTO 08013KT 10SM CLR A3010 RMK MADISHF
SUX,2017-04-01 02:52,-96.3795,42.3917,44.10,37.90,78.66,80.00,13.00,0.00,30.10,1020.10,10.00,M,CLR,M,M,M,M,M,M,M,M,KSUX 010252Z 08013KT 10SM CLR 07/03 A3010 RMK AO2 SLP201 T00670033 53025
SUX,2017-04-01 03:05,-96.3795,42.3917,M,M,M,90.00,11.00,M,30.11,M,10.00,M,CLR,M,M,M,M,M,M,M,M,KSUX 010305Z AUTO 09011KT 10SM CLR A3011 RMK MADISHF
SUX,2017-04-01 03:10,-96.3795,42.3917,M,M,M,90.00,11.00,M,30.12,M,10.00,M,CLR,M,M,M,M,M,M,M,M,KSUX 010310Z AUTO 09011KT 10SM CLR A3012 RMK MADISHF
SUX,2017-04-01 03:15,-96.3795,42.3917,M,M,M,90.00,12.00,M,30.12,M,10.00,M,CLR,M,M,M,M,M,M,M,M,KSUX 010315Z AUTO 09012KT 10SM CLR A3012 RMK MADISHF
SUX,2017-04-01 03:20,-96.3795,42.3917,M,M,M,90.00,10.00,M,30.12,M,10.00,M,CLR,M,M,M,M,M,M,M,M,KSUX 010320Z AUTO 09010KT 10SM CLR A3012 RMK MADISHF
SUX,2017-04-01 03:25,-96.3795,42.3917,M,M,M,80.00,9.00,M,30.12,M,10.00,M,CLR,M,M,M,M,M,M,M,M,KSUX 010325Z AUTO 08009KT 10SM CLR A3012 RMK MADISHF
SUX,2017-04-01 03:30,-96.3795,42.3917,M,M,M,80.00,9.00,M,30.12,M,10.00,M,CLR,M,M,M,M,M,M,M,M,KSUX 010330Z AUTO 08009KT 10SM CLR A3012 RMK MADISHF
SUX,2017-04-01 03:50,-96.3795,42.3917,M,M,M,80.00,9.00,M,30.13,M,10.00,M,CLR,M,M,M,M,M,M,M,M,KSUX 010350Z AUTO 08009KT 10SM CLR A3013 RMK MADISHF
SUX,2017-04-01 03:52,-96.3795,42.3917,41.00,36.00,82.22,80.00,8.00,0.00,30.13,1020.90,10.00,M,CLR,M,M,M,M,M,M,M,M,KSUX 010352Z 08008KT 10SM CLR 05/02 A3013 RMK AO2 SLP209 T00500022
SUX,2017-04-01 03:55,-96.3795,42.3917,M,M,M,90.00,7.00,M,30.13,M,10.00,M,CLR,M,M,M,M,M,M,M,M,KSUX 010355Z AUTO 09007KT 10SM CLR A3013 RMK MADISHF
SUX,2017-04-01 04:00,-96.3795,42.3917,M,M,M,100.00,6.00,M,30.14,M,10.00,M,CLR,M,M,M,M,M,M,M,M,KSUX 010400Z AUTO 10006KT 10SM CLR A3014 RMK MADISHF
SUX,2017-04-01 04:05,-96.3795,42.3917,M,M,M,100.00,5.00,M,30.14,M,10.00,M,CLR,M,M,M,M,M,M,M,M,KSUX 010405Z AUTO 10005KT 10SM CLR A3014 RMK MADISHF
SUX,2017-04-01 04:10,-96.3795,42.3917,M,M,M,100.00,5.00,M,30.14,M,10.00,M,CLR,M,M,M,M,M,M,M,M,KSUX 010410Z AUTO 10005KT 10SM CLR A3014 RMK MADISHF
SUX,2017-04-01 04:15,-96.3795,42.3917,M,M,M,100.00,4.00,M,30.14,M,10.00,M,CLR,M,M,M,M,M,M,M,M,KSUX 010415Z AUTO 10004KT 10SM CLR A3014 RMK MADISHF
SUX,2017-04-01 04:20,-96.3795,42.3917,M,M,M,100.00,3.00,M,30.14,M,10.00,M,CLR,M,M,M,M,M,M,M,M,KSUX 010420Z AUTO 10003KT 10SM CLR A3014 RMK MADISHF
SUX,2017-04-01 04:30,-96.3795,42.3917,M,M,M,100.00,3.00,M,30.15,M,10.00,M,CLR,M,M,M,M,M,M,M,M,KSUX 010430Z AUTO 10003KT 10SM CLR A3015 RMK MADISHF
SUX,2017-04-01 04:35,-96.3795,42.3917,M,M,M,100.00,4.00,M,30.15,M,10.00,M,CLR,M,M,M,M,M,M,M,M,KSUX 010435Z AUTO 10004KT 10SM CLR A3015 RMK MADISHF
SUX,2017-04-01 04:40,-96.3795,42.3917,M,M,M,120.00,3.00,M,30.15,M,10.00,M,CLR,M,M,M,M,M,M,M,M,KSUX 010440Z AUTO 12003KT 10SM CLR A3015 RMK MADISHF
SUX,2017-04-01 04:45,-96.3795,42.3917,M,M,M,0.00,0.00,M,30.15,M,10.00,M,CLR,M,M,M,M,M,M,M,M,KSUX 010445Z AUTO 00000KT 10SM CLR A3015 RMK MADISHF
SUX,2017-04-01 04:50,-96.3795,42.3917,M,M,M,120.00,3.00,M,30.16,M,10.00,M,CLR,M,M,M,M,M,M,M,M,KSUX 010450Z AUTO 12003KT 10SM CLR A3016 RMK MADISHF
SUX,2017-04-01 04:52,-96.3795,42.3917,39.90,36.00,85.81,120.00,3.00,0.00,30.16,1021.70,10.00,M,CLR,M,M,M,M,M,M,M,M,KSUX 010452Z 12003KT 10SM CLR 04/02 A3016 RMK AO2 SLP217 T00440022
SUX,2017-04-01 05:00,-96.3795,42.3917,M,M,M,0.00,0.00,M,30.16,M,10.00,M,CLR,M,M,M,M,M,M,M,M,KSUX 010500Z AUTO 00000KT 10SM CLR A3016 RMK MADISHF
SUX,2017-04-01 05:05,-96.3795,42.3917,M,M,M,0.00,0.00,M,30.16,M,10.00,M,CLR,M,M,M,M,M,M,M,M,KSUX 010505Z AUTO 00000KT 10SM CLR A3016 RMK MADISHF
SUX,2017-04-01 05:10,-96.3795,42.3917,M,M,M,0.00,0.00,M,30.17,M,10.00,M,CLR,M,M,M,M,M,M,M,M,KSUX 010510Z AUTO 00000KT 10SM CLR A3017 RMK MADISHF
SUX,2017-04-01 05:15,-96.3795,42.3917,M,M,M,0.00,0.00,M,30.17,M,10.00,M,CLR,M,M,M,M,M,M,M,M,KSUX 010515Z AUTO 00000KT 10SM CLR A3017 RMK MADISHF
SUX,2017-04-01 05:20,-96.3795,42.3917,M,M,M,0.00,0.00,M,30.17,M,10.00,M,CLR,M,M,M,M,M,M,M,M,KSUX 010520Z AUTO 00000KT 10SM CLR A3017 RMK MADISHF
SUX,2017-04-01 05:30,-96.3795,42.3917,M,M,M,90.00,3.00,M,30.17,M,10.00,M,CLR,M,M,M,M,M,M,M,M,KSUX 010530Z AUTO 09003KT 10SM CLR A3017 RMK MADISHF
SUX,2017-04-01 05:35,-96.3795,42.3917,M,M,M,90.00,4.00,M,30.17,M,10.00,M,CLR,M,M,M,M,M,M,M,M,KSUX 010535Z AUTO 09004KT 10SM CLR A3017 RMK MADISHF
SUX,2017-04-01 05:40,-96.3795,42.3917,M,M,M,80.00,3.00,M,30.18,M,10.00,M,CLR,M,M,M,M,M,M,M,M,KSUX 010540Z AUTO 08003KT 10SM CLR A3018 RMK MADISHF
SUX,2017-04-01 05:45,-96.3795,42.3917,M,M,M,80.00,4.00,M,30.17,M,10.00,M,CLR,M,M,M,M,M,M,M,M,KSUX 010545Z AUTO 08004KT 10SM CLR A3017 RMK MADISHF
SUX,2017-04-01 05:52,-96.3795,42.3917,39.90,35.10,82.80,70.00,5.00,0.00,30.17,1022.20,10.00,M,CLR,M,M,M,M,M,M,M,M,KSUX 010552Z 07005KT 10SM CLR 04/02 A3017 RMK AO2 SLP222 T00440017 10133 20039 401390039 51021
SUX,2017-04-01 06:00,-96.3795,42.3917,M,M,M,50.00,4.00,M,30.17,M,10.00,M,CLR,M,M,M,M,M,M,M,M,KSUX 010600Z AUTO 05004KT 10SM CLR A3017 RMK MADISHF
SUX,2017-04-01 06:05,-96.3795,42.3917,M,M,M,50.00,5.00,M,30.17,M,10.00,M,CLR,M,M,M,M,M,M,M,M,KSUX 010605Z AUTO 05005KT 10SM CLR A3017 RMK MADISHF
SUX,2017-04-01 06:10,-96.3795,42.3917,M,M,M,60.00,5.00,M,30.17,M,10.00,M,CLR,M,M,M,M,M,M,M,M,KSUX 010610Z AUTO 06005KT 10SM CLR A3017 RMK MADISHF
SUX,2017-04-01 06:15,-96.3795,42.3917,M,M,M,70.00,3.00,M,30.18,M,10.00,M,CLR,M,M,M,M,M,M,M,M,KSUX 010615Z AUTO 07003KT 10SM CLR A3018 RMK MADISHF
SUX,2017-04-01 06:20,-96.3795,42.3917,M,M,M,60.00,3.00,M,30.18,M,10.00,M,CLR,M,M,M,M,M,M,M,M,KSUX 010620Z AUTO 06003KT 10SM CLR A3018 RMK MADISHF
SUX,2017-04-01 06:30,-96.3795,42.3917,M,M,M,80.00,3.00,M,30.19,M,10.00,M,CLR,M,M,M,M,M,M,M,M,KSUX 010630Z AUTO 08003KT 10SM CLR A3019 RMK MADISHF
SUX,2017-04-01 06:35,-96.3795,42.3917,M,M,M,70.00,4.00,M,30.19,M,10.00,M,FEW,M,M,M,12000.00,M,M,M,M,KSUX 010635Z AUTO 07004KT 10SM FEW120 A3019 RMK MADISHF
SUX,2017-04-01 06:40,-96.3795,42.3917,M,M,M,60.00,4.00,M,30.18,M,10.00,M,FEW,M,M,M,12000.00,M,M,M,M,KSUX 010640Z AUTO 06004KT 10SM FEW120 A3018 RMK MADISHF
SUX,2017-04-01 06:45,-96.3795,42.3917,M,M,M,50.00,4.00,M,30.19,M,10.00,M,FEW,M,M,M,12000.00,M,M,M,M,KSUX 010645Z AUTO 05004KT 10SM FEW120 A3019 RMK MADISHF
SUX,2017-04-01 06:50,-96.3795,42.3917,M,M,M,50.00,4.00,M,30.19,M,10.00,M,FEW,M,M,M,12000.00,M,M,M,M,KSUX 010650Z AUTO 05004KT 10SM FEW120 A3019 RMK MADISHF
SUX,2017-04-01 06:52,-96.3795,42.3917,39.90,35.10,82.80,60.00,4.00,0.00,30.19,1022.70,10.00,M,FEW,M,M,M,12000.00,M,M,M,M,KSUX 010652Z 06004KT 10SM FEW120 04/02 A3019 RMK AO2 SLP227 T00440017
SUX,2017-04-01 06:55,-96.3795,42.3917,M,M,M,60.00,3.00,M,30.19,M,10.00,M,FEW,M,M,M,12000.00,M,M,M,M,KSUX 010655Z AUTO 06003KT 10SM FEW120 A3019 RMK MADISHF
SUX,2017-04-01 07:00,-96.3795,42.3917,M,M,M,70.00,3.00,M,30.19,M,10.00,M,FEW,M,M,M,12000.00,M,M,M,M,KSUX 010700Z AUTO 07003KT 10SM FEW120 A3019 RMK MADISHF
SUX,2017-04-01 07:05,-96.3795,42.3917,M,M,M,70.00,3.00,M,30.19,M,10.00,M,CLR,M,M,M,M,M,M,M,M,KSUX 010705Z AUTO 07003KT 10SM CLR A3019 RMK MADISHF
SUX,2017-04-01 07:10,-96.3795,42.3917,M,M,M,70.00,3.00,M,30.19,M,10.00,M,CLR,M,M,M,M,M,M,M,M,KSUX 010710Z AUTO 07003KT 10SM CLR A3019 RMK MADISHF
SUX,2017-04-01 07:25,-96.3795,42.3917,M,M,M,50.00,4.00,M,30.18,M,10.00,M,CLR,M,M,M,M,M,M,M,M,KSUX 010725Z AUTO 05004KT 10SM CLR A3018 RMK MADISHF
SUX,2017-04-01 07:30,-96.3795,42.3917,M,M,M,50.00,4.00,M,30.17,M,10.00,M,CLR,M,M,M,M,M,M,M,M,KSUX 010730Z AUTO 05004KT 10SM CLR A3017 RMK MADISHF
SUX,2017-04-01 07:35,-96.3795,42.3917,M,M,M,40.00,5.00,M,30.17,M,10.00,M,CLR,M,M,M,M,M,M,M,M,KSUX 010735Z AUTO 04005KT 10SM CLR A3017 RMK MADISHF
SUX,2017-04-01 07:40,-96.3795,42.3917,M,M,M,30.00,4.00,M,30.17,M,10.00,M,CLR,M,M,M,M,M,M,M,M,KSUX 010740Z AUTO 03004KT 10SM CLR A3017 RMK MADISHF
SUX,2017-04-01 07:45,-96.3795,42.3917,M,M,M,30.00,4.00,M,30.18,M,10.00,M,CLR,M,M,M,M,M,M,M,M,KSUX 010745Z AUTO 03004KT 10SM CLR A3018 RMK MADISHF
SUX,2017-04-01 07:50,-96.3795,42.3917,M,M,M,40.00,3.00,M,30.18,M,10.00,M,FEW,M,M,M,12000.00,M,M,M,M,KSUX 010750Z AUTO 04003KT 10SM FEW120 A3018 RMK MADISHF
SUX,2017-04-01 07:52,-96.3795,42.3917,39.90,36.00,85.81,40.00,3.00,0.00,30.18,1022.50,10.00,M,FEW,M,M,M,12000.00,M,M,M,M,KSUX 010752Z 04003KT 10SM FEW120 04/02 A3018 RMK AO2 SLP225 T00440022
SUX,2017-04-01 08:05,-96.3795,42.3917,M,M,M,0.00,0.00,M,30.18,M,10.00,M,BKN,M,M,M,12000.00,M,M,M,M,KSUX 010805Z AUTO 00000KT 10SM BKN120 A3018 RMK MADISHF
SUX,2017-04-01 08:10,-96.3795,42.3917,M,M,M,0.00,0.00,M,30.19,M,10.00,M,BKN,M,M,M,12000.00,M,M,M,M,KSUX 010810Z AUTO 00000KT 10SM BKN120 A3019 RMK MADISHF
SUX,2017-04-01 08:15,-96.3795,42.3917,M,M,M,0.00,0.00,M,30.19,M,10.00,M,BKN,M,M,M,12000.00,M,M,M,M,KSUX 010815Z AUTO 00000KT 10SM BKN120 A3019 RMK MADISHF
SUX,2017-04-01 08:20,-96.3795,42.3917,M,M,M,200.00,4.00,M,30.20,M,10.00,M,BKN,M,M,M,11000.00,M,M,M,M,KSUX 010820Z AUTO 20004KT 10SM BKN110 A3020 RMK MADISHF
SUX,2017-04-01 08:25,-96.3795,42.3917,M,M,M,210.00,3.00,M,30.20,M,10.00,M,SCT,M,M,M,11000.00,M,M,M,M,KSUX 010825Z AUTO 21003KT 10SM SCT110 A3020 RMK MADISHF
SUX,2017-04-01 08:35,-96.3795,42.3917,M,M,M,230.00,4.00,M,30.21,M,10.00,M,SCT,M,M,M,11000.00,M,M,M,M,KSUX 010835Z AUTO 23004KT 10SM SCT110 A3021 RMK MADISHF
SUX,2017-04-01 08:40,-96.3795,42.3917,M,M,M,220.00,5.00,M,30.21,M,10.00,M,SCT,M,M,M,11000.00,M,M,M,M,KSUX 010840Z AUTO 22005KT 10SM SCT110 A3021 RMK MADISHF
SUX,2017-04-01 08:45,-96.3795,42.3917,M,M,M,220.00,5.00,M,30.22,M,10.00,M,FEW,M,M,M,11000.00,M,M,M,M,KSUX 010845Z AUTO 22005KT 10SM FEW110 A3022 RMK MADISHF
SUX,2017-04-01 08:50,-96.3795,42.3917,M,M,M,230.00,4.00,M,30.22,M,10.00,M,SCT,M,M,M,11000.00,M,M,M,M,KSUX 010850Z AUTO 23004KT 10SM SCT110 A3022 RMK MADISHF
SUX,2017-04-01 08:52,-96.3795,42.3917,35.10,34.00,95.71,230.00,3.00,0.00,30.22,1023.80,10.00,M,SCT,M,M,M,11000.00,M,M,M,M,KSUX 010852Z 23003KT 10SM SCT110 02/01 A3022 RMK AO2 SLP238 T00170011 53015
SUX,2017-04-01 08:55,-96.3795,42.3917,M,M,M,240.00,3.00,M,30.21,M,10.00,M,BKN,M,M,M,11000.00,M,M,M,M,KSUX 010855Z AUTO 24003KT 10SM BKN110 A3021 RMK MADISHF
SUX,2017-04-01 09:00,-96.3795,42.3917,M,M,M,0.00,0.00,M,30.21,M,10.00,M,BKN,M,M,M,11000.00,M,M,M,M,KSUX 010900Z AUTO 00000KT 10SM BKN110 A3021 RMK MADISHF
SUX,2017-04-01 09:05,-96.3795,42.3917,M,M,M,0.00,0.00,M,30.20,M,10.00,M,BKN,M,M,M,11000.00,M,M,M,M,KSUX 010905Z AUTO 00000KT 10SM BKN110 A3020 RMK MADISHF
SUX,2017-04-01 09:15,-96.3795,42.3917,M,M,M,40.00,3.00,M,30.20,M,10.00,M,SCT,M,M,M,11000.00,M,M,M,M,KSUX 010915Z AUTO 04003KT 10SM SCT110 A3020 RMK MADISHF
SUX,2017-04-01 09:20,-96.3795,42.3917,M,M,M,0.00,0.00,M,30.20,M,10.00,M,SCT,M,M,M,11000.00,M,M,M,M,KSUX 010920Z AUTO 00000KT 10SM SCT110 A3020 RMK MADISHF
SUX,2017-04-01 09:25,-96.3795,42.3917,M,M,M,0.00,0.00,M,30.20,M,10.00,M,FEW,M,M,M,11000.00,M,M,M,M,KSUX 010925Z AUTO 00000KT 10SM FEW110 A3020 RMK MADISHF
SUX,2017-04-01 09:30,-96.3795,42.3917,M,M,M,20.00,3.00,M,30.20,M,10.00,M,FEW,M,M,M,11000.00,M,M,M,M,KSUX 010930Z AUTO 02003KT 10SM FEW110 A3020 RMK MADISHF
SUX,2017-04-01 09:35,-96.3795,42.3917,M,M,M,20.00,3.00,M,30.20,M,10.00,M,CLR,M,M,M,M,M,M,M,M,KSUX 010935Z AUTO 02003KT 10SM CLR A3020 RMK MADISHF
SUX,2017-04-01 09:40,-96.3795,42.3917,M,M,M,20.00,3.00,M,30.20,M,10.00,M,CLR,M,M,M,M,M,M,M,M,KSUX 010940Z AUTO 02003KT 10SM CLR A3020 RMK MADISHF
SUX,2017-04-01 09:45,-96.3795,42.3917,M,M,M,40.00,3.00,M,30.19,M,10.00,M,CLR,M,M,M,M,M,M,M,M,KSUX 010945Z AUTO 04003KT 10SM CLR A3019 RMK MADISHF
SUX,2017-04-01 09:50,-96.3795,42.3917,M,M,M,50.00,3.00,M,30.19,M,10.00,M,CLR,M,M,M,M,M,M,M,M,KSUX 010950Z AUTO 05003KT 10SM CLR A3019 RMK MADISHF
SUX,2017-04-01 09:52,-96.3795,42.3917,37.00,34.00,88.78,0.00,0.00,0.00,30.19,1022.90,10.00,M,CLR,M,M,M,M,M,M,M,M,KSUX 010952Z 00000KT 10SM CLR 03/01 A3019 RMK AO2 SLP229 T00280011
SUX,2017-04-01 10:05,-96.3795,42.3917,M,M,M,20.00,4.00,M,30.20,M,10.00,M,CLR,M,M,M,M,M,M,M,M,KSUX 011005Z AUTO 02004KT 10SM CLR A3020 RMK MADISHF
SUX,2017-04-01 10:10,-96.3795,42.3917,M,M,M,20.00,4.00,M,30.20,M,10.00,M,CLR,M,M,M,M,M,M,M,M,KSUX 011010Z AUTO 02004KT 10SM CLR A3020 RMK MADISHF
SUX,2017-04-01 10:15,-96.3795,42.3917,M,M,M,30.00,4.00,M,30.20,M,10.00,M,CLR,M,M,M,M,M,M,M,M,KSUX 011015Z AUTO 03004KT 10SM CLR A3020 RMK MADISHF
SUX,2017-04-01 10:20,-96.3795,42.3917,M,M,M,50.00,3.00,M,30.20,M,10.00,M,CLR,M,M,M,M,M,M,M,M,KSUX 011020Z AUTO 05003KT 10SM CLR A3020 RMK MADISHF
SUX,2017-04-01 10:25,-96.3795,42.3917,M,M,M,70.00,3.00,M,30.20,M,10.00,M,CLR,M,M,M,M,M,M,M,M,KSUX 011025Z AUTO 07003KT 10SM CLR A3020 RMK MADISHF
SUX,2017-04-01 10:30,-96.3795,42.3917,M,M,M,80.00,3.00,M,30.20,M,10.00,M,CLR,M,M,M,M,M,M,M,M,KSUX 011030Z AUTO 08003KT 10SM CLR A3020 RMK MADISHF
SUX,2017-04-01 10:35,-96.3795,42.3917,M,M,M,0.00,0.00,M,30.20,M,10.00,M,CLR,M,M,M,M,M,M,M,M,KSUX 011035Z AUTO 00000KT 10SM CLR A3020 RMK MADISHF
SUX,2017-04-01 10:40,-96.3795,42.3917,M,M,M,0.00,0.00,M,30.20,M,10.00,M,CLR,M,M,M,M,M,M,M,M,KSUX 011040Z AUTO 00000KT 10SM CLR A3020 RMK MADISHF
SUX,2017-04-01 10:45,-96.3795,42.3917,M,M,M,50.00,3.00,M,30.20,M,10.00,M,CLR,M,M,M,M,M,M,M,M,KSUX 011045Z AUTO 05003KT 10SM CLR A3020 RMK MADISHF
SUX,2017-04-01 10:52,-96.3795,42.3917,34.00,33.10,96.46,0.00,0.00,0.00,30.20,1023.50,10.00,M,CLR,M,M,M,M,M,M,M,M,KSUX 011052Z 00000KT 10SM CLR 01/01 A3020 RMK AO2 SLP235 T00110006
SUX,2017-04-01 10:55,-96.3795,42.3917,M,M,M,0.00,0.00,M,30.21,M,10.00,M,CLR,M,M,M,M,M,M,M,M,KSUX 011055Z AUTO 00000KT 10SM CLR A3021 RMK MADISHF
SUX,2017-04-01 11:00,-96.3795,42.3917,M,M,M,0.00,0.00,M,30.21,M,10.00,M,CLR,M,M,M,M,M,M,M,M,KSUX 011100Z AUTO 00000KT 10SM CLR A3021 RMK MADISHF
SUX,2017-04-01 11:05,-96.3795,42.3917,M,M,M,0.00,0.00,M,30.21,M,10.00,M,CLR,M,M,M,M,M,M,M,M,KSUX 011105Z AUTO 00000KT 10SM CLR A3021 RMK MADISHF
SUX,2017-04-01 11:10,-96.3795,42.3917,M,M,M,0.00,0.00,M,30.21,M,10.00,M,CLR,M,M,M,M,M,M,M,M,KSUX 011110Z AUTO 00000KT 10SM CLR A3021 RMK MADISHF
SUX,2017-04-01 11:15,-96.3795,42.3917,M,M,M,0.00,0.00,M,30.22,M,9.00,M,CLR,M,M,M,M,M,M,M,M,KSUX 011115Z AUTO 00000KT 9SM CLR A3022 RMK MADISHF
SUX,2017-04-01 11:20,-96.3795,42.3917,M,M,M,0.00,0.00,M,30.22,M,8.00,M,CLR,M,M,M,M,M,M,M,M,KSUX 011120Z AUTO 00000KT 8SM CLR A3022 RMK MADISHF
SUX,2017-04-01 11:25,-96.3795,42.3917,M,M,M,0.00,0.00,M,30.22,M,8.00,M,CLR,M,M,M,M,M,M,M,M,KSUX 011125Z AUTO 00000KT 8SM CLR A3022 RMK MADISHF
SUX,2017-04-01 11:30,-96.3795,42.3917,M,M,M,0.00,0.00,M,30.23,M,8.00,M,CLR,M,M,M,M,M,M,M,M,KSUX 011130Z AUTO 00000KT 8SM CLR A3023 RMK MADISHF
SUX,2017-04-01 11:45,-96.3795,42.3917,M,M,M,0.00,0.00,M,30.23,M,7.00,M,CLR,M,M,M,M,M,M,M,M,KSUX 011145Z AUTO 00000KT 7SM CLR A3023 RMK MADISHF
SUX,2017-04-01 11:50,-96.3795,42.3917,M,M,M,0.00,0.00,M,30.23,M,6.00,M,CLR,M,M,M,M,M,M,M,BR,KSUX 011150Z AUTO 00000KT 6SM BR CLR A3023 RMK MADISHF
SUX,2017-04-01 11:52,-96.3795,42.3917,30.90,30.90,100.00,0.00,0.00,0.00,30.23,1024.40,6.00,M,CLR,M,M,M,M,M,M,M,BR,KSUX 011152Z 00000KT 6SM BR CLR M01/M01 A3023 RMK AO2 SLP244 T10061006 10050 21011 53006
SUX,2017-04-01 11:55,-96.3795,42.3917,M,M,M,0.00,0.00,M,30.23,M,6.00,M,CLR,M,M,M,M,M,M,M,BR,KSUX 011155Z AUTO 00000KT 6SM BR CLR A3023 RMK MADISHF
SUX,2017-04-01 12:00,-96.3795,42.3917,M,M,M,0.00,0.00,M,30.24,M,5.00,M,CLR,M,M,M,M,M,M,M,BR,KSUX 011200Z AUTO 00000KT 5SM BR CLR A3024 RMK MADISHF
SUX,2017-04-01 12:05,-96.3795,42.3917,M,M,M,260.00,3.00,M,30.24,M,5.00,M,CLR,M,M,M,M,M,M,M,BR,KSUX 011205Z AUTO 26003KT 5SM BR CLR A3024 RMK MADISHF
SUX,2017-04-01 12:10,-96.3795,42.3917,M,M,M,0.00,0.00,M,30.24,M,4.00,M,CLR,M,M,M,M,M,M,M,BR,KSUX 011210Z AUTO 00000KT 4SM BR CLR A3024 RMK MADISHF
SUX,2017-04-01 12:15,-96.3795,42.3917,M,M,M,0.00,0.00,M,30.24,M,3.00,M,CLR,M,M,M,M,M,M,M,BR,KSUX 011215Z AUTO 00000KT 3SM BR CLR A3024 RMK MADISHF
SUX,2017-04-01 12:20,-96.3795,42.3917,M,M,M,250.00,3.00,M,30.25,M,2.50,M,FEW,M,M,M,12000.00,M,M,M,BR,KSUX 011220Z AUTO 25003KT 2 1/2SM BR FEW120 A3025 RMK MADISHF
SUX,2017-04-01 12:24,-96.3795,42.3917,30.90,30.90,100.00,0.00,0.00,0.00,30.24,M,2.50,M,SCT,M,M,M,12000.00,M,M,M,BR,KSUX 011224Z 00000KT 2 1/2SM BR SCT120 M01/M01 A3024 RMK AO2 TWR VIS 7 T10061006
SUX,2017-04-01 12:31,-96.3795,42.3917,30.90,30.90,100.00,0.00,0.00,0.00,30.24,M,7.00,M,SCT,M,M,M,12000.00,M,M,M,M,KSUX 011231Z 00000KT 7SM SCT120 M01/M01 A3024 RMK AO2 T10061006
SUX,2017-04-01 12:35,-96.3795,42.3917,M,M,M,0.00,0.00,M,30.24,M,7.00,M,SCT,M,M,M,12000.00,M,M,M,M,KSUX 011235Z AUTO 00000KT 7SM SCT120 A3024 RMK MADISHF
SUX,2017-04-01 12:40,-96.3795,42.3917,M,M,M,0.00,0.00,M,30.24,M,7.00,M,SCT,M,M,M,12000.00,M,M,M,M,KSUX 011240Z AUTO 00000KT 7SM SCT120 A3024 RMK MADISHF
SUX,2017-04-01 12:45,-96.3795,42.3917,M,M,M,0.00,0.00,M,30.24,M,7.00,M,SCT,M,M,M,12000.00,M,M,M,M,KSUX 011245Z AUTO 00000KT 7SM SCT120 A3024 RMK MADISHF
SUX,2017-04-01 12:50,-96.3795,42.3917,M,M,M,0.00,0.00,M,30.24,M,7.00,M,FEW,M,M,M,12000.00,M,M,M,M,KSUX 011250Z AUTO 00000KT 7SM FEW120 A3024 RMK MADISHF
SUX,2017-04-01 12:52,-96.3795,42.3917,34.00,33.10,96.46,0.00,0.00,0.00,30.24,1024.60,7.00,M,FEW,M,M,M,12000.00,M,M,M,M,KSUX 011252Z 00000KT 7SM FEW120 01/01 A3024 RMK AO2 SLP246 T00110006
SUX,2017-04-01 12:55,-96.3795,42.3917,M,M,M,0.00,0.00,M,30.24,M,5.00,M,FEW,M,M,M,12000.00,M,M,M,BR,KSUX 011255Z AUTO 00000KT 5SM BR FEW120 A3024 RMK MADISHF
SUX,2017-04-01 13:00,-96.3795,42.3917,M,M,M,0.00,0.00,M,30.24,M,5.00,M,CLR,M,M,M,M,M,M,M,BR,KSUX 011300Z AUTO 00000KT 5SM BR CLR A3024 RMK MADISHF
SUX,2017-04-01 13:05,-96.3795,42.3917,M,M,M,0.00,0.00,M,30.24,M,4.00,M,CLR,M,M,M,M,M,M,M,BR,KSUX 011305Z AUTO 00000KT 4SM BR CLR A3024 RMK MADISHF
SUX,2017-04-01 13:10,-96.3795,42.3917,M,M,M,0.00,0.00,M,30.24,M,4.00,M,CLR,M,M,M,M,M,M,M,BR,KSUX 011310Z AUTO 00000KT 4SM BR CLR A3024 RMK MADISHF
SUX,2017-04-01 13:15,-96.3795,42.3917,M,M,M,0.00,0.00,M,30.25,M,4.00,M,CLR,M,M,M,M,M,M,M,BR,KSUX 011315Z AUTO 00000KT 4SM BR CLR A3025 RMK MADISHF
SUX,2017-04-01 13:20,-96.3795,42.3917,M,M,M,0.00,0.00,M,30.24,M,4.00,M,CLR,M,M,M,M,M,M,M,BR,KSUX 011320Z AUTO 00000KT 4SM BR CLR A3024 RMK MADISHF
SUX,2017-04-01 13:25,-96.3795,42.3917,M,M,M,0.00,0.00,M,30.24,M,5.00,M,CLR,M,M,M,M,M,M,M,BR,KSUX 011325Z AUTO 00000KT 5SM BR CLR A3024 RMK MADISHF
SUX,2017-04-01 13:50,-96.3795,42.3917,M,M,M,20.00,3.00,M,30.24,M,7.00,M,CLR,M,M,M,M,M,M,M,M,KSUX 011350Z AUTO 02003KT 7SM CLR A3024 RMK MADISHF
SUX,2017-04-01 13:52,-96.3795,42.3917,39.00,37.00,92.45,30.00,3.00,0.00,30.24,1024.80,7.00,M,CLR,M,M,M,M,M,M,M,M,KSUX 011352Z 03003KT 7SM CLR 04/03 A3024 RMK AO2 SLP248 T00390028
SUX,2017-04-01 13:55,-96.3795,42.3917,M,M,M,20.00,4.00,M,30.24,M,8.00,M,CLR,M,M,M,M,M,M,M,M,KSUX 011355Z AUTO 02004KT 8SM CLR A3024 RMK MADISHF
SUX,2017-04-01 14:00,-96.3795,42.3917,M,M,M,10.00,3.00,M,30.24,M,8.00,M,CLR,M,M,M,M,M,M,M,M,KSUX 011400Z AUTO 01003KT 8SM CLR A3024 RMK MADISHF
SUX,2017-04-01 14:15,-96.3795,42.3917,M,M,M,360.00,3.00,M,30.25,M,8.00,M,CLR,M,M,M,M,M,M,M,M,KSUX 011415Z AUTO 36003KT 8SM CLR A3025 RMK MADISHF
SUX,2017-04-01 14:20,-96.3795,42.3917,M,M,M,360.00,3.00,M,30.24,M,9.00,M,FEW,M,M,M,12000.00,M,M,M,M,KSUX 011420Z AUTO 36003KT 9SM FEW120 A3024 RMK MADISHF
SUX,2017-04-01 14:25,-96.3795,42.3917,M,M,M,30.00,4.00,M,30.24,M,9.00,M,FEW,M,M,M,12000.00,M,M,M,M,KSUX 011425Z AUTO 03004KT 9SM FEW120 A3024 RMK MADISHF
SUX,2017-04-01 14:30,-96.3795,42.3917,M,M,M,50.00,3.00,M,30.24,M,10.00,M,FEW,M,M,M,12000.00,M,M,M,M,KSUX 011430Z AUTO 05003KT 10SM FEW120 A3024 RMK MADISHF
SUX,2017-04-01 14:35,-96.3795,42.3917,M,M,M,70.00,3.00,M,30.24,M,10.00,M,FEW,M,M,M,12000.00,M,M,M,M,KSUX 011435Z AUTO 07003KT 10SM FEW120 A3024 RMK MADISHF
SUX,2017-04-01 14:40,-96.3795,42.3917,M,M,M,80.00,3.00,M,30.24,M,10.00,M,SCT,M,M,M,12000.00,M,M,M,M,KSUX 011440Z AUTO 08003KT 10SM SCT120 A3024 RMK MADISHF
SUX,2017-04-01 14:45,-96.3795,42.3917,M,M,M,110.00,3.00,M,30.24,M,10.00,M,BKN,M,M,M,12000.00,M,M,M,M,KSUX 011445Z AUTO 11003KT 10SM BKN120 A3024 RMK MADISHF
SUX,2017-04-01 14:50,-96.3795,42.3917,M,M,M,90.00,4.00,M,30.24,M,10.00,M,BKN,M,M,M,11000.00,M,M,M,M,KSUX 011450Z AUTO 09004KT 10SM BKN110 A3024 RMK MADISHF
SUX,2017-04-01 14:52,-96.3795,42.3917,42.10,37.00,81.98,90.00,5.00,0.00,30.24,1024.80,10.00,M,BKN,M,M,M,11000.00,M,M,M,M,KSUX 011452Z 09005KT 10SM BKN110 06/03 A3024 RMK AO2 SLP248 T00560028 50004
SUX,2017-04-01 15:05,-96.3795,42.3917,M,M,M,90.00,4.00,M,30.25,M,10.00,M,BKN,M,M,M,11000.00,M,M,M,M,KSUX 011505Z AUTO 09004KT 10SM BKN110 A3025 RMK MADISHF
SUX,2017-04-01 15:10,-96.3795,42.3917,M,M,M,70.00,6.00,M,30.24,M,10.00,M,BKN,M,M,M,11000.00,M,M,M,M,KSUX 011510Z AUTO 07006KT 10SM BKN110 A3024 RMK MADISHF
SUX,2017-04-01 15:15,-96.3795,42.3917,M,M,M,70.00,5.00,M,30.24,M,10.00,M,SCT,M,M,M,11000.00,M,M,M,M,KSUX 011515Z AUTO 07005KT 10SM SCT110 A3024 RMK MADISHF
SUX,2017-04-01 15:35,-96.3795,42.3917,M,M,M,90.00,4.00,M,30.25,M,10.00,M,CLR,M,M,M,M,M,M,M,M,KSUX 011535Z AUTO 09004KT 10SM CLR A3025 RMK MADISHF
SUX,2017-04-01 15:40,-96.3795,42.3917,M,M,M,90.00,5.00,M,30.26,M,10.00,M,CLR,M,M,M,M,M,M,M,M,KSUX 011540Z AUTO 09005KT 10SM CLR A3026 RMK MADISHF
SUX,2017-04-01 15:45,-96.3795,42.3917,M,M,M,90.00,5.00,M,30.26,M,10.00,M,FEW,M,M,M,10000.00,M,M,M,M,KSUX 011545Z AUTO 09005KT 10SM FEW100 A3026 RMK MADISHF
SUX,2017-04-01 15:50,-96.3795,42.3917,M,M,M,80.00,5.00,M,30.26,M,10.00,M,SCT,M,M,M,11000.00,M,M,M,M,KSUX 011550Z AUTO 08005KT 10SM SCT110 A3026 RMK MADISHF
SUX,2017-04-01 15:52,-96.3795,42.3917,45.00,37.90,76.01,100.00,4.00,0.00,30.26,1025.40,10.00,M,SCT,M,M,M,11000.00,M,M,M,M,KSUX 011552Z 10004KT 10SM SCT110 07/03 A3026 RMK AO2 SLP254 T00720033
SUX,2017-04-01 15:55,-96.3795,42.3917,M,M,M,80.00,5.00,M,30.26,M,10.00,M,BKN,M,M,M,11000.00,M,M,M,M,KSUX 011555Z AUTO 08005KT 10SM BKN110 A3026 RMK MADISHF
SUX,2017-04-01 16:00,-96.3795,42.3917,M,M,M,90.00,6.00,M,30.26,M,10.00,M,BKN,M,M,M,11000.00,M,M,M,M,KSUX 011600Z AUTO 09006KT 10SM BKN110 A3026 RMK MADISHF
SUX,2017-04-01 16:05,-96.3795,42.3917,M,M,M,80.00,5.00,M,30.26,M,10.00,M,BKN,M,M,M,11000.00,M,M,M,M,KSUX 011605Z AUTO 08005KT 10SM BKN110 A3026 RMK MADISHF
SUX,2017-04-01 16:25,-96.3795,42.3917,M,M,M,100.00,4.00,M,30.26,M,10.00,M,OVC,M,M,M,11000.00,M,M,M,M,KSUX 011625Z AUTO 10004KT 10SM OVC110 A3026 RMK MADISHF
SUX,2017-04-01 16:30,-96.3795,42.3917,M,M,M,80.00,5.00,M,30.26,M,10.00,M,OVC,M,M,M,11000.00,M,M,M,M,KSUX 011630Z AUTO 08005KT 10SM OVC110 A3026 RMK VRB05KT  MADISHF
SUX,2017-04-01 16:35,-96.3795,42.3917,M,M,M,90.00,5.00,M,30.25,M,10.00,M,OVC,M,M,M,11000.00,M,M,M,M,KSUX 011635Z AUTO 09005KT 10SM OVC110 A3025 RMK VRB05KT  MADISHF
SUX,2017-04-01 16:40,-96.3795,42.3917,M,M,M,100.00,6.00,M,30.25,M,10.00,M,OVC,M,M,M,11000.00,M,M,M,M,KSUX 011640Z AUTO 10006KT 10SM OVC110 A3025 RMK MADISHF
SUX,2017-04-01 16:45,-96.3795,42.3917,M,M,M,90.00,6.00,M,30.25,M,10.00,M,OVC,M,M,M,11000.00,M,M,M,M,KSUX 011645Z AUTO 09006KT 10SM OVC110 A3025 RMK MADISHF
SUX,2017-04-01 16:50,-96.3795,42.3917,M,M,M,90.00,5.00,M,30.25,M,10.00,M,OVC,M,M,M,11000.00,M,M,M,M,KSUX 011650Z AUTO 09005KT 10SM OVC110 A3025 RMK MADISHF
SUX,2017-04-01 16:52,-96.3795,42.3917,48.00,37.90,67.87,110.00,6.00,0.00,30.25,1024.90,10.00,M,OVC,M,M,M,11000.00,M,M,M,M,KSUX 011652Z 11006KT 10SM OVC110 09/03 A3025 RMK AO2 SLP249 T00890033
SUX,2017-04-01 17:05,-96.3795,42.3917,M,M,M,130.00,7.00,M,30.24,M,10.00,M,OVC,M,M,M,11000.00,M,M,M,M,KSUX 011705Z AUTO 13007KT 10SM OVC110 A3024 RMK MADISHF
SUX,2017-04-01 17:10,-96.3795,42.3917,M,M,M,130.00,6.00,M,30.24,M,10.00,M,OVC,M,M,M,11000.00,M,M,M,M,KSUX 011710Z AUTO 13006KT 10SM OVC110 A3024 RMK MADISHF
SUX,2017-04-01 17:15,-96.3795,42.3917,M,M,M,130.00,8.00,M,30.24,M,10.00,M,OVC,M,M,M,11000.00,M,M,M,M,KSUX 011715Z AUTO 13008KT 10SM OVC110 A3024 RMK MADISHF
SUX,2017-04-01 17:20,-96.3795,42.3917,M,M,M,110.00,5.00,M,30.24,M,10.00,M,OVC,M,M,M,11000.00,M,M,M,M,KSUX 011720Z AUTO 11005KT 10SM OVC110 A3024 RMK MADISHF
SUX,2017-04-01 17:25,-96.3795,42.3917,M,M,M,140.00,6.00,M,30.24,M,10.00,M,OVC,M,M,M,11000.00,M,M,M,M,KSUX 011725Z AUTO 14006KT 10SM OVC110 A3024 RMK MADISHF
SUX,2017-04-01 17:30,-96.3795,42.3917,M,M,M,130.00,5.00,M,30.24,M,10.00,M,OVC,M,M,M,11000.00,M,M,M,M,KSUX 011730Z AUTO 13005KT 10SM OVC110 A3024 RMK MADISHF
SUX,2017-04-01 17:40,-96.3795,42.3917,M,M,M,130.00,5.00,M,30.23,M,10.00,M,OVC,M,M,M,11000.00,M,M,M,M,KSUX 011740Z AUTO 13005KT 10SM OVC110 A3023 RMK MADISHF
SUX,2017-04-01 17:45,-96.3795,42.3917,M,M,M,140.00,6.00,M,30.23,M,10.00,M,OVC,M,M,M,11000.00,M,M,M,M,KSUX 011745Z AUTO 14006KT 10SM OVC110 A3023 RMK MADISHF
SUX,2017-04-01 17:50,-96.3795,42.3917,M,M,M,140.00,6.00,M,30.23,M,10.00,M,OVC,M,M,M,11000.00,M,M,M,M,KSUX 011750Z AUTO 14006KT 10SM OVC110 A3023 RMK MADISHF
SUX,2017-04-01 17:52,-96.3795,42.3917,50.00,37.00,60.79,140.00,5.00,0.00,30.23,1024.20,10.00,M,OVC,M,M,M,11000.00,M,M,M,M,KSUX 011752Z 14005KT 10SM OVC110 10/03 A3023 RMK AO2 SLP242 T01000028 10100 21011 58005
SUX,2017-04-01 17:55,-96.3795,42.3917,M,M,M,120.00,7.00,M,30.23,M,10.00,M,OVC,M,M,M,11000.00,M,M,M,M,KSUX 011755Z AUTO 12007KT 10SM OVC110 A3023 RMK MADISHF
SUX,2017-04-01 18:00,-96.3795,42.3917,M,M,M,120.00,6.00,M,30.22,M,10.00,M,OVC,M,M,M,11000.00,M,M,M,M,KSUX 011800Z AUTO 12006KT 10SM OVC110 A3022 RMK MADISHF
SUX,2017-04-01 18:05,-96.3795,42.3917,M,M,M,130.00,8.00,M,30.22,M,10.00,M,OVC,M,M,M,11000.00,M,M,M,M,KSUX 011805Z AUTO 13008KT 10SM OVC110 A3022 RMK MADISHF
SUX,2017-04-01 18:10,-96.3795,42.3917,M,M,M,130.00,9.00,M,30.21,M,10.00,M,OVC,M,M,M,11000.00,M,M,M,M,KSUX 011810Z AUTO 13009KT 10SM OVC110 A3021 RMK MADISHF
SUX,2017-04-01 18:15,-96.3795,42.3917,M,M,M,100.00,9.00,M,30.21,M,10.00,M,OVC,M,M,M,11000.00,M,M,M,M,KSUX 011815Z AUTO 10009KT 10SM OVC110 A3021 RMK MADISHF
SUX,2017-04-01 18:35,-96.3795,42.3917,M,M,M,100.00,8.00,M,30.21,M,10.00,M,OVC,M,M,M,11000.00,M,M,M,M,KSUX 011835Z AUTO 10008KT 10SM OVC110 A3021 RMK MADISHF
SUX,2017-04-01 18:40,-96.3795,42.3917,M,M,M,120.00,6.00,M,30.21,M,10.00,M,OVC,M,M,M,11000.00,M,M,M,M,KSUX 011840Z AUTO 12006KT 10SM OVC110 A3021 RMK MADISHF
SUX,2017-04-01 18:45,-96.3795,42.3917,M,M,M,110.00,6.00,M,30.21,M,10.00,M,OVC,M,M,M,11000.00,M,M,M,M,KSUX 011845Z AUTO 11006KT 10SM OVC110 A3021 RMK MADISHF
SUX,2017-04-01 18:50,-96.3795,42.3917,M,M,M,140.00,7.00,M,30.21,M,10.00,M,OVC,M,M,M,11000.00,M,M,M,M,KSUX 011850Z AUTO 14007KT 10SM OVC110 A3021 RMK MADISHF
SUX,2017-04-01 18:52,-96.3795,42.3917,52.00,37.00,56.45,130.00,9.00,0.00,30.21,1023.50,10.00,M,OVC,M,M,M,11000.00,M,M,M,M,KSUX 011852Z 13009KT 10SM OVC110 11/03 A3021 RMK AO2 SLP235 T01110028
SUX,2017-04-01 18:55,-96.3795,42.3917,M,M,M,120.00,6.00,M,30.21,M,10.00,M,OVC,M,M,M,11000.00,M,M,M,M,KSUX 011855Z AUTO 12006KT 10SM OVC110 A3021 RMK MADISHF
SUX,2017-04-01 19:00,-96.3795,42.3917,M,M,M,100.00,10.00,M,30.20,M,10.00,M,OVC,M,M,M,11000.00,M,M,M,M,KSUX 011900Z AUTO 10010KT 10SM OVC110 A3020 RMK MADISHF
SUX,2017-04-01 19:05,-96.3795,42.3917,M,M,M,100.00,8.00,M,30.20,M,10.00,M,BKN,M,M,M,11000.00,M,M,M,M,KSUX 011905Z AUTO 10008KT 10SM BKN110 A3020 RMK MADISHF
SUX,2017-04-01 19:10,-96.3795,42.3917,M,M,M,120.00,9.00,M,30.20,M,10.00,M,BKN,M,M,M,11000.00,M,M,M,M,KSUX 011910Z AUTO 12009KT 10SM BKN110 A3020 RMK MADISHF
SUX,2017-04-01 19:15,-96.3795,42.3917,M,M,M,100.00,8.00,M,30.19,M,10.00,M,BKN,M,M,M,11000.00,M,M,M,M,KSUX 011915Z AUTO 10008KT 10SM BKN110 A3019 RMK MADISHF
SUX,2017-04-01 19:35,-96.3795,42.3917,M,M,M,120.00,9.00,M,30.20,M,10.00,M,CLR,M,M,M,M,M,M,M,M,KSUX 011935Z AUTO 12009KT 10SM CLR A3020 RMK MADISHF
SUX,2017-04-01 19:40,-96.3795,42.3917,M,M,M,120.00,9.00,M,30.20,M,10.00,M,CLR,M,M,M,M,M,M,M,M,KSUX 011940Z AUTO 12009KT 10SM CLR A3020 RMK MADISHF
SUX,2017-04-01 19:45,-96.3795,42.3917,M,M,M,110.00,11.00,M,30.19,M,10.00,M,CLR,M,M,M,M,M,M,M,M,KSUX 011945Z AUTO 11011KT 10SM CLR A3019 RMK MADISHF
SUX,2017-04-01 19:50,-96.3795,42.3917,M,M,M,120.00,9.00,M,30.19,M,10.00,M,CLR,M,M,M,M,M,M,M,M,KSUX 011950Z AUTO 12009KT 10SM CLR A3019 RMK MADISHF
SUX,2017-04-01 19:52,-96.3795,42.3917,55.00,37.00,50.58,130.00,8.00,0.00,30.19,1022.70,10.00,M,CLR,M,M,M,M,M,M,M,M,KSUX 011952Z 13008KT 10SM CLR 13/03 A3019 RMK AO2 SLP227 T01280028
SUX,2017-04-01 19:55,-96.3795,42.3917,M,M,M,110.00,7.00,M,30.19,M,10.00,M,CLR,M,M,M,M,M,M,M,M,KSUX 011955Z AUTO 11007KT 10SM CLR A3019 RMK MADISHF
SUX,2017-04-01 20:00,-96.3795,42.3917,M,M,M,120.00,10.00,M,30.18,M,10.00,M,CLR,M,M,M,M,M,M,M,M,KSUX 012000Z AUTO 12010KT 10SM CLR A3018 RMK MADISHF
SUX,2017-04-01 20:05,-96.3795,42.3917,M,M,M,120.00,10.00,M,30.18,M,10.00,M,CLR,M,M,M,M,M,M,M,M,KSUX 012005Z AUTO 12010KT 10SM CLR A3018 RMK MADISHF
SUX,2017-04-01 20:10,-96.3795,42.3917,M,M,M,80.00,11.00,M,30.18,M,10.00,M,CLR,M,M,M,M,M,M,M,M,KSUX 012010Z AUTO 08011KT 10SM CLR A3018 RMK MADISHF
SUX,2017-04-01 20:25,-96.3795,42.3917,M,M,M,130.00,11.00,M,30.18,M,10.00,M,CLR,M,M,M,M,M,M,M,M,KSUX 012025Z AUTO 13011KT 10SM CLR A3018 RMK MADISHF
SUX,2017-04-01 20:30,-96.3795,42.3917,M,M,M,130.00,10.00,M,30.18,M,10.00,M,CLR,M,M,M,M,M,M,M,M,KSUX 012030Z AUTO 13010KT 10SM CLR A3018 RMK MADISHF
SUX,2017-04-01 20:35,-96.3795,42.3917,M,M,M,140.00,9.00,M,30.18,M,10.00,M,CLR,M,M,M,M,M,M,M,M,KSUX 012035Z AUTO 14009KT 10SM CLR A3018 RMK MADISHF
SUX,2017-04-01 20:40,-96.3795,42.3917,M,M,M,120.00,12.00,M,30.18,M,10.00,M,CLR,M,M,M,M,M,M,M,M,KSUX 012040Z AUTO 12012KT 10SM CLR A3018 RMK MADISHF
SUX,2017-04-01 20:52,-96.3795,42.3917,55.90,36.00,47.05,130.00,9.00,0.00,30.18,1022.50,10.00,M,CLR,M,M,M,M,M,M,M,M,KSUX 012052Z 13009KT 10SM CLR 13/02 A3018 RMK AO2 SLP225 T01330022 56016
SUX,2017-04-01 20:55,-96.3795,42.3917,M,M,M,140.00,8.00,M,30.17,M,10.00,M,CLR,M,M,M,M,M,M,M,M,KSUX 012055Z AUTO 14008KT 10SM CLR A3017 RMK MADISHF
SUX,2017-04-01 21:00,-96.3795,42.3917,M,M,M,140.00,9.00,M,30.17,M,10.00,M,CLR,M,M,M,M,M,M,M,M,KSUX 012100Z AUTO 14009KT 10SM CLR A3017 RMK MADISHF
SUX,2017-04-01 21:05,-96.3795,42.3917,M,M,M,120.00,7.00,M,30.17,M,10.00,M,CLR,M,M,M,M,M,M,M,M,KSUX 012105Z AUTO 12007KT 10SM CLR A3017 RMK MADISHF
SUX,2017-04-01 21:10,-96.3795,42.3917,M,M,M,140.00,7.00,M,30.17,M,10.00,M,CLR,M,M,M,M,M,M,M,M,KSUX 012110Z AUTO 14007KT 10SM CLR A3017 RMK MADISHF
SUX,2017-04-01 21:30,-96.3795,42.3917,M,M,M,150.00,8.00,M,30.17,M,10.00,M,CLR,M,M,M,M,M,M,M,M,KSUX 012130Z AUTO 15008KT 10SM CLR A3017 RMK MADISHF
SUX,2017-04-01 21:35,-96.3795,42.3917,M,M,M,130.00,9.00,M,30.17,M,10.00,M,CLR,M,M,M,M,M,M,M,M,KSUX 012135Z AUTO 13009KT 10SM CLR A3017 RMK MADISHF
SUX,2017-04-01 21:40,-96.3795,42.3917,M,M,M,150.00,8.00,M,30.17,M,10.00,M,CLR,M,M,M,M,M,M,M,M,KSUX 012140Z AUTO 15008KT 10SM CLR A3017 RMK MADISHF
SUX,2017-04-01 21:45,-96.3795,42.3917,M,M,M,160.00,10.00,M,30.16,M,10.00,M,CLR,M,M,M,M,M,M,M,M,KSUX 012145Z AUTO 16010KT 10SM CLR A3016 RMK MADISHF
SUX,2017-04-01 21:50,-96.3795,42.3917,M,M,M,140.00,8.00,M,30.16,M,10.00,M,CLR,M,M,M,M,M,M,M,M,KSUX 012150Z AUTO 14008KT 10SM CLR A3016 RMK MADISHF
SUX,2017-04-01 21:52,-96.3795,42.3917,55.00,37.00,50.58,120.00,7.00,0.00,30.16,1021.80,10.00,M,CLR,M,M,M,M,M,M,M,M,KSUX 012152Z 12007KT 10SM CLR 13/03 A3016 RMK AO2 SLP218 T01280028
SUX,2017-04-01 21:55,-96.3795,42.3917,M,M,M,140.00,6.00,M,30.16,M,10.00,M,CLR,M,M,M,M,M,M,M,M,KSUX 012155Z AUTO 14006KT 10SM CLR A3016 RMK MADISHF
SUX,2017-04-01 22:00,-96.3795,42.3917,M,M,M,140.00,9.00,M,30.16,M,10.00,M,CLR,M,M,M,M,M,M,M,M,KSUX 012200Z AUTO 14009KT 10SM CLR A3016 RMK MADISHF
SUX,2017-04-01 22:15,-96.3795,42.3917,M,M,M,160.00,9.00,M,30.17,M,10.00,M,FEW,M,M,M,11000.00,M,M,M,M,KSUX 012215Z AUTO 16009KT 10SM FEW110 A3017 RMK MADISHF
SUX,2017-04-01 22:20,-96.3795,42.3917,M,M,M,160.00,11.00,M,30.17,M,10.00,M,FEW,M,M,M,11000.00,M,M,M,M,KSUX 012220Z AUTO 16011KT 10SM FEW110 A3017 RMK MADISHF
SUX,2017-04-01 22:25,-96.3795,42.3917,M,M,M,170.00,10.00,M,30.17,M,10.00,M,CLR,M,M,M,M,M,M,M,M,KSUX 012225Z AUTO 17010KT 10SM CLR A3017 RMK MADISHF
SUX,2017-04-01 22:30,-96.3795,42.3917,M,M,M,160.00,8.00,M,30.17,M,10.00,M,CLR,M,M,M,M,M,M,M,M,KSUX 012230Z AUTO 16008KT 10SM CLR A3017 RMK MADISHF
SUX,2017-04-01 22:35,-96.3795,42.3917,M,M,M,150.00,10.00,M,30.17,M,10.00,M,CLR,M,M,M,M,M,M,M,M,KSUX 012235Z AUTO 15010KT 10SM CLR A3017 RMK MADISHF
SUX,2017-04-01 22:40,-96.3795,42.3917,M,M,M,150.00,9.00,M,30.17,M,10.00,M,CLR,M,M,M,M,M,M,M,M,KSUX 012240Z AUTO 15009KT 10SM CLR A3017 RMK MADISHF
SUX,2017-04-01 22:45,-96.3795,42.3917,M,M,M,160.00,8.00,M,30.16,M,10.00,M,CLR,M,M,M,M,M,M,M,M,KSUX 012245Z AUTO 16008KT 10SM CLR A3016 RMK MADISHF
SUX,2017-04-01 22:52,-96.3795,42.3917,54.00,35.10,48.65,140.00,10.00,0.00,30.16,1022.00,10.00,M,CLR,M,M,M,M,M,M,M,M,KSUX 012252Z 14010KT 10SM CLR 12/02 A3016 RMK AO2 SLP220 T01220017
SUX,2017-04-01 22:55,-96.3795,42.3917,M,M,M,140.00,8.00,M,30.16,M,10.00,M,CLR,M,M,M,M,M,M,M,M,KSUX 012255Z AUTO 14008KT 10SM CLR A3016 RMK MADISHF
SUX,2017-04-01 23:00,-96.3795,42.3917,M,M,M,140.00,8.00,M,30.15,M,10.00,M,CLR,M,M,M,M,M,M,M,M,KSUX 012300Z AUTO 14008KT 10SM CLR A3015 RMK MADISHF
SUX,2017-04-01 23:05,-96.3795,42.3917,M,M,M,140.00,9.00,M,30.15,M,10.00,M,CLR,M,M,M,M,M,M,M,M,KSUX 012305Z AUTO 14009KT 10SM CLR A3015 RMK MADISHF
SUX,2017-04-01 23:10,-96.3795,42.3917,M,M,M,140.00,7.00,M,30.15,M,10.00,M,CLR,M,M,M,M,M,M,M,M,KSUX 012310Z AUTO 14007KT 10SM CLR A3015 RMK MADISHF
SUX,2017-04-01 23:15,-96.3795,42.3917,M,M,M,130.00,7.00,M,30.15,M,10.00,M,FEW,M,M,M,11000.00,M,M,M,M,KSUX 012315Z AUTO 13007KT 10SM FEW110 A3015 RMK MADISHF
SUX,2017-04-01 23:25,-96.3795,42.3917,M,M,M,140.00,7.00,M,30.14,M,10.00,M,SCT,M,M,M,11000.00,M,M,M,M,KSUX 012325Z AUTO 14007KT 10SM SCT110 A3014 RMK MADISHF
SUX,2017-04-01 23:30,-96.3795,42.3917,M,M,M,120.00,7.00,M,30.14,M,10.00,M,SCT,M,M,M,11000.00,M,M,M,M,KSUX 012330Z AUTO 12007KT 10SM SCT110 A3014 RMK MADISHF
SUX,2017-04-01 23:35,-96.3795,42.3917,M,M,M,130.00,7.00,M,30.13,M,10.00,M,FEW,M,M,M,11000.00,M,M,M,M,KSUX 012335Z AUTO 13007KT 10SM FEW110 A3013 RMK MADISHF
SUX,2017-04-01 23:40,-96.3795,42.3917,M,M,M,120.00,9.00,M,30.13,M,10.00,M,FEW,M,M,M,11000.00,M,M,M,M,KSUX 012340Z AUTO 12009KT 10SM FEW110 A3013 RMK MADISHF
SUX,2017-04-01 23:45,-96.3795,42.3917,M,M,M,120.00,8.00,M,30.13,M,10.00,M,FEW,M,M,M,11000.00,M,M,M,M,KSUX 012345Z AUTO 12008KT 10SM FEW110 A3013 RMK MADISHF
SUX,2017-04-01 23:52,-96.3795,42.3917,53.10,36.00,52.11,130.00,7.00,0.00,30.13,1021.20,10.00,M,CLR,M,M,M,M,M,M,M,M,KSUX 012352Z 13007KT 10SM CLR 12/02 A3013 RMK AO2 SLP212 T01170022 10133 20100 58014
