#DEBUG: Format Typ    -> comma
#DEBUG: Time Period   -> 2017-04-01 00:00:00+00:00 2017-04-02 00:00:00+00:00
#DEBUG: Time Zone     -> Etc/UTC
#DEBUG: Data Contact   -> daryl herzmann akrherz@iastate.edu 515-294-5978
#DEBUG: Entries Found -> -1
station,valid,lon,lat,tmpf, dwpf, relh, drct, sknt, p01i, alti, mslp, vsby, gust, skyc1, skyc2, skyc3, skyc4, skyl1, skyl2, skyl3, skyl4, presentwx, metar
TEB,2017-04-01 00:00,-74.0562,40.8590,M,M,M,70.00,15.00,0.01,29.76,M,3.00,M,OVC,M,M,M,900.00,M,M,M,RA BR,KTEB 010000Z AUTO 07015KT 3SM RA BR OVC009 A2976 RMK P0001 CIG 8V12  MADISHF
TEB,2017-04-01 00:05,-74.0562,40.8590,M,M,M,70.00,14.00,0.02,29.75,M,3.00,22.00,OVC,M,M,M,800.00,M,M,M,RA BR,KTEB 010005Z AUTO 07014G22KT 3SM RA BR OVC008 A2975 RMK P0002 MADISHF
TEB,2017-04-01 00:10,-74.0562,40.8590,M,M,M,70.00,15.00,0.04,29.76,M,3.00,23.00,OVC,M,M,M,800.00,M,M,M,RA BR,KTEB 010010Z AUTO 07015G23KT 3SM RA BR OVC008 A2976 RMK P0004 MADISHF
TEB,2017-04-01 00:15,-74.0562,40.8590,M,M,M,60.00,12.00,0.05,29.77,M,3.00,18.00,OVC,M,M,M,800.00,M,M,M,RA BR,KTEB 010015Z AUTO 06012G18KT 3SM RA BR OVC008 A2977 RMK P0005 MADISHF
TEB,2017-04-01 00:20,-74.0562,40.8590,M,M,M,60.00,12.00,0.06,29.77,M,3.00,M,OVC,M,M,M,800.00,M,M,M,RA BR,KTEB 010020Z AUTO 06012KT 3SM RA BR OVC008 A2977 RMK P0006 WND 36V09  MADISHF
TEB,2017-04-01 00:25,-74.0562,40.8590,M,M,M,70.00,15.00,0.06,29.77,M,3.00,M,OVC,M,M,M,800.00,M,M,M,RA BR,KTEB 010025Z AUTO 07015KT 3SM RA BR OVC008 A2977 RMK P0006 MADISHF
TEB,2017-04-01 00:30,-74.0562,40.8590,M,M,M,50.00,12.00,0.06,29.77,M,3.00,M,OVC,M,M,M,800.00,M,M,M,RA BR,KTEB 010030Z AUTO 05012KT 3SM RA BR OVC008 A2977 RMK P0006 MADISHF
TEB,2017-04-01 00:35,-74.0562,40.8590,M,M,M,60.00,10.00,0.07,29.77,M,3.00,M,OVC,M,M,M,800.00,M,M,M,RA BR,KTEB 010035Z AUTO 06010KT 3SM RA BR OVC008 A2977 RMK P0007 MADISHF
TEB,2017-04-01 00:40,-74.0562,40.8590,M,M,M,50.00,10.00,0.07,29.77,M,3.00,M,OVC,M,M,M,800.00,M,M,M,RA BR,KTEB 010040Z AUTO 05010KT 3SM RA BR OVC008 A2977 RMK P0007 MADISHF
TEB,2017-04-01 00:45,-74.0562,40.8590,M,M,M,50.00,12.00,0.08,29.77,M,3.00,M,OVC,M,M,M,800.00,M,M,M,RA BR,KTEB 010045Z AUTO 05012KT 3SM RA BR OVC008 A2977 RMK P0008 MADISHF
TEB,2017-04-01 00:50,-74.0562,40.8590,M,M,M,50.00,8.00,0.09,29.77,M,4.00,M,OVC,M,M,M,800.00,M,M,M,RA BR,KTEB 010050Z AUTO 05008KT 4SM RA BR OVC008 A2977 RMK P0009 MADISHF
TEB,2017-04-01 00:51,-74.0562,40.8590,39.00,36.00,88.87,40.00,8.00,0.09,29.77,1008.20,4.00,23.00,OVC,M,M,M,800.00,M,M,M,RA BR,KTEB 010051Z 04008G23KT 4SM RA BR OVC008 04/02 A2977 RMK AO2 PK WND 07026/0024 SLP082 P0009 T00390022
TEB,2017-04-01 00:55,-74.0562,40.8590,M,M,M,50.00,8.00,M,29.78,M,4.00,M,OVC,M,M,M,800.00,M,M,M,RA BR,KTEB 010055Z AUTO 05008KT 4SM RA BR OVC008 A2978 RMK MADISHF
TEB,2017-04-01 01:00,-74.0562,40.8590,M,M,M,50.00,10.00,0.01,29.79,M,4.00,18.00,OVC,M,M,M,800.00,M,M,M,RA BR,KTEB 010100Z AUTO 05010G18KT 4SM RA BR OVC008 A2979 RMK P0001 MADISHF
TEB,2017-04-01 01:05,-74.0562,40.8590,M,M,M,40.00,10.00,0.01,29.79,M,4.00,16.00,OVC,M,M,M,900.00,M,M,M,RA BR,KTEB 010105Z AUTO 04010G16KT 4SM RA BR OVC009 A2979 RMK P0001 MADISHF
TEB,2017-04-01 01:10,-74.0562,40.8590,M,M,M,70.00,11.00,0.02,29.79,M,4.00,M,OVC,M,M,M,900.00,M,M,M,RA BR,KTEB 010110Z AUTO 07011KT 4SM RA BR OVC009 A2979 RMK P0002 MADISHF
TEB,2017-04-01 01:15,-74.0562,40.8590,M,M,M,70.00,12.00,0.03,29.79,M,4.00,M,OVC,M,M,M,900.00,M,M,M,RA BR,KTEB 010115Z AUTO 07012KT 4SM RA BR OVC009 A2979 RMK P0003 WND 03V09  MADISHF
TEB,2017-04-01 01:20,-74.0562,40.8590,M,M,M,50.00,12.00,0.04,29.79,M,3.00,M,OVC,M,M,M,900.00,M,M,M,RA BR,KTEB 010120Z AUTO 05012KT 3SM RA BR OVC009 A2979 RMK P0004 MADISHF
TEB,2017-04-01 01:25,-74.0562,40.8590,M,M,M,60.00,10.00,0.05,29.78,M,3.00,M,BKN,OVC,M,M,900.00,1300.00,M,M,RA BR,KTEB 010125Z AUTO 06010KT 3SM RA BR BKN009 OVC013 A2978 RMK P0005 CIG 7V13  MADISHF
TEB,2017-04-01 01:30,-74.0562,40.8590,M,M,M,60.00,13.00,0.06,29.78,M,3.00,18.00,BKN,OVC,M,M,900.00,1300.00,M,M,RA BR,KTEB 010130Z AUTO 06013G18KT 3SM RA BR BKN009 OVC013 A2978 RMK P0006 CIG 7V13  MADISHF
TEB,2017-04-01 01:35,-74.0562,40.8590,M,M,M,50.00,10.00,0.07,29.78,M,3.00,M,OVC,M,M,M,900.00,M,M,M,RA BR,KTEB 010135Z AUTO 05010KT 3SM RA BR OVC009 A2978 RMK P0007 MADISHF
TEB,2017-04-01 01:40,-74.0562,40.8590,M,M,M,60.00,11.00,0.07,29.78,M,3.00,M,OVC,M,M,M,900.00,M,M,M,RA BR,KTEB 010140Z AUTO 06011KT 3SM RA BR OVC009 A2978 RMK P0007 MADISHF
TEB,2017-04-01 01:45,-74.0562,40.8590,M,M,M,60.00,10.00,0.07,29.77,M,3.00,M,OVC,M,M,M,900.00,M,M,M,RA BR,KTEB 010145Z AUTO 06010KT 3SM RA BR OVC009 A2977 RMK P0007 MADISHF
TEB,2017-04-01 01:50,-74.0562,40.8590,M,M,M,70.00,13.00,0.07,29.76,M,3.00,19.00,OVC,M,M,M,900.00,M,M,M,RA BR,KTEB 010150Z AUTO 07013G19KT 3SM RA BR OVC009 A2976 RMK P0007 MADISHF
TEB,2017-04-01 01:51,-74.0562,40.8590,37.90,36.00,92.78,70.00,13.00,0.07,29.76,1007.80,3.00,19.00,OVC,M,M,M,900.00,M,M,M,RA BR,KTEB 010151Z 07013G19KT 3SM RA BR OVC009 03/02 A2976 RMK AO2 PRESFR SLP078 P0007 T00330022 $
TEB,2017-04-01 01:55,-74.0562,40.8590,M,M,M,60.00,14.00,0.01,29.76,M,3.00,M,OVC,M,M,M,1100.00,M,M,M,DZ BR,KTEB 010155Z AUTO 06014KT 3SM DZ BR OVC011 A2976 RMK P0001 MADISHF
TEB,2017-04-01 02:00,-74.0562,40.8590,M,M,M,60.00,12.00,0.01,29.76,M,3.00,M,OVC,M,M,M,900.00,M,M,M,DZ BR,KTEB 010200Z AUTO 06012KT 3SM DZ BR OVC009 A2976 RMK P0001 MADISHF
TEB,2017-04-01 02:05,-74.0562,40.8590,M,M,M,70.00,10.00,0.01,29.76,M,3.00,M,OVC,M,M,M,900.00,M,M,M,DZ BR,KTEB 010205Z AUTO 07010KT 3SM DZ BR OVC009 A2976 RMK P0001 MADISHF
TEB,2017-04-01 02:10,-74.0562,40.8590,M,M,M,60.00,8.00,0.02,29.75,M,3.00,M,OVC,M,M,M,900.00,M,M,M,DZ BR,KTEB 010210Z AUTO 06008KT 3SM DZ BR OVC009 A2975 RMK P0002 MADISHF
TEB,2017-04-01 02:15,-74.0562,40.8590,M,M,M,60.00,12.00,0.02,29.76,M,3.00,M,OVC,M,M,M,900.00,M,M,M,DZ BR,KTEB 010215Z AUTO 06012KT 3SM DZ BR OVC009 A2976 RMK P0002 MADISHF
TEB,2017-04-01 02:20,-74.0562,40.8590,M,M,M,60.00,11.00,0.02,29.75,M,3.00,M,OVC,M,M,M,900.00,M,M,M,DZ BR,KTEB 010220Z AUTO 06011KT 3SM DZ BR OVC009 A2975 RMK P0002 MADISHF
TEB,2017-04-01 02:25,-74.0562,40.8590,M,M,M,60.00,12.00,0.03,29.75,M,3.00,19.00,OVC,M,M,M,900.00,M,M,M,DZ BR,KTEB 010225Z AUTO 06012G19KT 3SM DZ BR OVC009 A2975 RMK P0003 MADISHF
TEB,2017-04-01 02:30,-74.0562,40.8590,M,M,M,60.00,9.00,0.03,29.74,M,4.00,M,OVC,M,M,M,999.00,M,M,M,DZ BR,KTEB 010230Z AUTO 06009KT 4SM DZ BR OVC009 A2974 RMK P0003 MADISHF
TEB,2017-04-01 02:35,-74.0562,40.8590,M,M,M,60.00,15.00,0.03,29.74,M,4.00,M,OVC,M,M,M,999.00,M,M,M,DZ BR,KTEB 010235Z AUTO 06015KT 4SM DZ BR OVC009 A2974 RMK P0003 MADISHF
TEB,2017-04-01 02:36,-74.0562,40.8590,39.20,35.60,86.79,60.00,15.00,0.00,29.74,M,4.00,24.00,OVC,M,M,M,1000.00,M,M,M,DZ BR,KTEB 010236Z 06015G24KT 4SM DZ BR OVC010 04/02 A2974
TEB,2017-04-01 02:40,-74.0562,40.8590,M,M,M,60.00,11.00,0.03,29.74,M,4.00,M,OVC,M,M,M,999.00,M,M,M,DZ BR,KTEB 010240Z AUTO 06011KT 4SM DZ BR OVC009 A2974 RMK P0003 MADISHF
TEB,2017-04-01 02:45,-74.0562,40.8590,M,M,M,60.00,16.00,0.03,29.74,M,4.00,M,OVC,M,M,M,999.00,M,M,M,DZ BR,KTEB 010245Z AUTO 06016KT 4SM DZ BR OVC009 A2974 RMK P0003 MADISHF
TEB,2017-04-01 02:50,-74.0562,40.8590,M,M,M,60.00,13.00,0.03,29.74,M,4.00,19.00,OVC,M,M,M,999.00,M,M,M,DZ BR,KTEB 010250Z AUTO 06013G19KT 4SM DZ BR OVC009 A2974 RMK P0003 MADISHF
TEB,2017-04-01 02:51,-74.0562,40.8590,39.00,36.00,88.87,70.00,13.00,0.03,29.74,1007.00,4.00,23.00,OVC,M,M,M,1000.00,M,M,M,DZ BR,KTEB 010251Z 07013G23KT 4SM DZ BR OVC010 04/02 A2974 RMK AO2 RAE0153DZB0153 SLP070 P0003 60019 T00390022 58008 $
TEB,2017-04-01 02:55,-74.0562,40.8590,M,M,M,60.00,14.00,0.01,29.73,M,4.00,M,OVC,M,M,M,1100.00,M,M,M,DZ BR,KTEB 010255Z AUTO 06014KT 4SM DZ BR OVC011 A2973 RMK P0001 MADISHF
TEB,2017-04-01 03:00,-74.0562,40.8590,M,M,M,60.00,11.00,0.01,29.73,M,4.00,19.00,OVC,M,M,M,1100.00,M,M,M,DZ BR,KTEB 010300Z AUTO 06011G19KT 4SM DZ BR OVC011 A2973 RMK P0001 MADISHF
TEB,2017-04-01 03:05,-74.0562,40.8590,M,M,M,60.00,16.00,0.01,29.73,M,4.00,M,OVC,M,M,M,1100.00,M,M,M,DZ BR,KTEB 010305Z AUTO 06016KT 4SM DZ BR OVC011 A2973 RMK P0001 CIG 9V14  MADISHF
TEB,2017-04-01 03:10,-74.0562,40.8590,M,M,M,60.00,13.00,0.01,29.72,M,4.00,18.00,OVC,M,M,M,1100.00,M,M,M,DZ BR,KTEB 010310Z AUTO 06013G18KT 4SM DZ BR OVC011 A2972 RMK P0001 MADISHF
TEB,2017-04-01 03:15,-74.0562,40.8590,M,M,M,60.00,11.00,0.01,29.73,M,5.00,M,OVC,M,M,M,1100.00,M,M,M,DZ BR,KTEB 010315Z AUTO 06011KT 5SM DZ BR OVC011 A2973 RMK P0001 MADISHF
TEB,2017-04-01 03:20,-74.0562,40.8590,M,M,M,60.00,12.00,0.01,29.73,M,5.00,17.00,OVC,M,M,M,1100.00,M,M,M,DZ BR,KTEB 010320Z AUTO 06012G17KT 5SM DZ BR OVC011 A2973 RMK P0001 MADISHF
TEB,2017-04-01 03:25,-74.0562,40.8590,M,M,M,60.00,14.00,0.01,29.73,M,5.00,19.00,OVC,M,M,M,1100.00,M,M,M,DZ BR,KTEB 010325Z AUTO 06014G19KT 5SM DZ BR OVC011 A2973 RMK P0001 MADISHF
TEB,2017-04-01 03:30,-74.0562,40.8590,M,M,M,60.00,13.00,0.01,29.72,M,5.00,20.00,OVC,M,M,M,1100.00,M,M,M,DZ BR,KTEB 010330Z AUTO 06013G20KT 5SM DZ BR OVC011 A2972 RMK P0001 MADISHF
TEB,2017-04-01 03:35,-74.0562,40.8590,M,M,M,60.00,16.00,0.01,29.72,M,5.00,M,OVC,M,M,M,1100.00,M,M,M,DZ BR,KTEB 010335Z AUTO 06016KT 5SM DZ BR OVC011 A2972 RMK P0001 MADISHF
TEB,2017-04-01 03:40,-74.0562,40.8590,M,M,M,60.00,17.00,0.01,29.72,M,5.00,M,OVC,M,M,M,1100.00,M,M,M,DZ BR,KTEB 010340Z AUTO 06017KT 5SM DZ BR OVC011 A2972 RMK P0001 MADISHF
TEB,2017-04-01 03:45,-74.0562,40.8590,M,M,M,60.00,14.00,0.01,29.72,M,4.00,M,OVC,M,M,M,1100.00,M,M,M,DZ BR,KTEB 010345Z AUTO 06014KT 4SM DZ BR OVC011 A2972 RMK P0001 MADISHF
TEB,2017-04-01 03:50,-74.0562,40.8590,M,M,M,60.00,13.00,0.01,29.72,M,4.00,19.00,OVC,M,M,M,1100.00,M,M,M,DZ BR,KTEB 010350Z AUTO 06013G19KT 4SM DZ BR OVC011 A2972 RMK P0001 MADISHF
TEB,2017-04-01 03:51,-74.0562,40.8590,37.90,36.00,92.78,60.00,15.00,0.01,29.72,1006.30,4.00,27.00,OVC,M,M,M,1100.00,M,M,M,DZ BR,KTEB 010351Z 06015G27KT 4SM DZ BR OVC011 03/02 A2972 RMK AO2 PK WND 05027/0351 SLP063 P0001 T00330022 $
TEB,2017-04-01 03:55,-74.0562,40.8590,M,M,M,60.00,15.00,M,29.72,M,5.00,M,OVC,M,M,M,1100.00,M,M,M,DZ BR,KTEB 010355Z AUTO 06015KT 5SM DZ BR OVC011 A2972 RMK MADISHF
TEB,2017-04-01 04:00,-74.0562,40.8590,M,M,M,50.00,10.00,0.01,29.72,M,5.00,15.00,OVC,M,M,M,1100.00,M,M,M,DZ BR,KTEB 010400Z AUTO 05010G15KT 5SM DZ BR OVC011 A2972 RMK P0001 MADISHF
TEB,2017-04-01 04:05,-74.0562,40.8590,M,M,M,50.00,16.00,0.01,29.72,M,5.00,M,OVC,M,M,M,1100.00,M,M,M,DZ BR,KTEB 010405Z AUTO 05016KT 5SM DZ BR OVC011 A2972 RMK P0001 MADISHF
TEB,2017-04-01 04:10,-74.0562,40.8590,M,M,M,60.00,13.00,0.01,29.72,M,6.00,18.00,OVC,M,M,M,1100.00,M,M,M,DZ BR,KTEB 010410Z AUTO 06013G18KT 6SM DZ BR OVC011 A2972 RMK P0001 MADISHF
TEB,2017-04-01 04:15,-74.0562,40.8590,M,M,M,60.00,14.00,0.01,29.71,M,6.00,M,OVC,M,M,M,1100.00,M,M,M,DZ BR,KTEB 010415Z AUTO 06014KT 6SM DZ BR OVC011 A2971 RMK P0001 MADISHF
TEB,2017-04-01 04:20,-74.0562,40.8590,M,M,M,60.00,15.00,0.01,29.70,M,4.00,21.00,OVC,M,M,M,1200.00,M,M,M,DZ BR,KTEB 010420Z AUTO 06015G21KT 4SM DZ BR OVC012 A2970 RMK P0001 MADISHF
TEB,2017-04-01 04:25,-74.0562,40.8590,M,M,M,60.00,12.00,0.01,29.70,M,4.00,19.00,OVC,M,M,M,1200.00,M,M,M,DZ BR,KTEB 010425Z AUTO 06012G19KT 4SM DZ BR OVC012 A2970 RMK P0001 MADISHF
TEB,2017-04-01 04:30,-74.0562,40.8590,M,M,M,60.00,11.00,0.01,29.69,M,4.00,M,OVC,M,M,M,1200.00,M,M,M,DZ BR,KTEB 010430Z AUTO 06011KT 4SM DZ BR OVC012 A2969 RMK P0001 MADISHF
TEB,2017-04-01 04:35,-74.0562,40.8590,M,M,M,60.00,15.00,0.01,29.69,M,4.00,20.00,OVC,M,M,M,1200.00,M,M,M,DZ BR,KTEB 010435Z AUTO 06015G20KT 4SM DZ BR OVC012 A2969 RMK P0001 MADISHF
TEB,2017-04-01 04:40,-74.0562,40.8590,M,M,M,50.00,12.00,0.01,29.69,M,4.00,M,OVC,M,M,M,1200.00,M,M,M,DZ BR,KTEB 010440Z AUTO 05012KT 4SM DZ BR OVC012 A2969 RMK P0001 MADISHF
TEB,2017-04-01 04:45,-74.0562,40.8590,M,M,M,60.00,13.00,0.01,29.69,M,4.00,M,OVC,M,M,M,1200.00,M,M,M,DZ BR,KTEB 010445Z AUTO 06013KT 4SM DZ BR OVC012 A2969 RMK P0001 MADISHF
TEB,2017-04-01 04:50,-74.0562,40.8590,M,M,M,60.00,14.00,0.01,29.68,M,4.00,M,OVC,M,M,M,1200.00,M,M,M,DZ BR,KTEB 010450Z AUTO 06014KT 4SM DZ BR OVC012 A2968 RMK P0001 MADISHF
TEB,2017-04-01 04:51,-74.0562,40.8590,37.90,35.10,89.53,60.00,14.00,0.01,29.68,1005.00,4.00,25.00,OVC,M,M,M,1200.00,M,M,M,DZ BR,KTEB 010451Z 06014G25KT 4SM DZ BR OVC012 03/02 A2968 RMK AO2 PK WND 06026/0441 SLP050 P0001 T00330017 400610033 $
TEB,2017-04-01 04:55,-74.0562,40.8590,M,M,M,50.00,16.00,M,29.69,M,6.00,22.00,OVC,M,M,M,1100.00,M,M,M,DZ BR,KTEB 010455Z AUTO 05016G22KT 6SM DZ BR OVC011 A2969 RMK MADISHF
TEB,2017-04-01 05:00,-74.0562,40.8590,M,M,M,50.00,15.00,M,29.69,M,6.00,22.00,OVC,M,M,M,1100.00,M,M,M,DZ BR,KTEB 010500Z AUTO 05015G22KT 6SM DZ BR OVC011 A2969 RMK MADISHF
TEB,2017-04-01 05:05,-74.0562,40.8590,M,M,M,40.00,15.00,M,29.69,M,6.00,M,OVC,M,M,M,1200.00,M,M,M,DZ BR,KTEB 010505Z AUTO 04015KT 6SM DZ BR OVC012 A2969 RMK MADISHF
TEB,2017-04-01 05:10,-74.0562,40.8590,M,M,M,50.00,15.00,M,29.70,M,6.00,M,OVC,M,M,M,1200.00,M,M,M,DZ BR,KTEB 010510Z AUTO 05015KT 6SM DZ BR OVC012 A2970 RMK MADISHF
TEB,2017-04-01 05:15,-74.0562,40.8590,M,M,M,50.00,13.00,M,29.69,M,6.00,M,OVC,M,M,M,1200.00,M,M,M,DZ BR,KTEB 010515Z AUTO 05013KT 6SM DZ BR OVC012 A2969 RMK MADISHF
TEB,2017-04-01 05:20,-74.0562,40.8590,M,M,M,50.00,13.00,M,29.69,M,6.00,M,OVC,M,M,M,1200.00,M,M,M,DZ BR,KTEB 010520Z AUTO 05013KT 6SM DZ BR OVC012 A2969 RMK MADISHF
TEB,2017-04-01 05:25,-74.0562,40.8590,M,M,M,50.00,10.00,M,29.69,M,6.00,18.00,OVC,M,M,M,1200.00,M,M,M,DZ BR,KTEB 010525Z AUTO 05010G18KT 6SM DZ BR OVC012 A2969 RMK MADISHF
TEB,2017-04-01 05:30,-74.0562,40.8590,M,M,M,50.00,14.00,M,29.69,M,5.00,M,OVC,M,M,M,1200.00,M,M,M,DZ BR,KTEB 010530Z AUTO 05014KT 5SM DZ BR OVC012 A2969 RMK MADISHF
TEB,2017-04-01 05:35,-74.0562,40.8590,M,M,M,50.00,13.00,M,29.69,M,5.00,20.00,OVC,M,M,M,1200.00,M,M,M,DZ BR,KTEB 010535Z AUTO 05013G20KT 5SM DZ BR OVC012 A2969 RMK MADISHF
TEB,2017-04-01 05:40,-74.0562,40.8590,M,M,M,40.00,12.00,M,29.69,M,5.00,17.00,OVC,M,M,M,1200.00,M,M,M,DZ BR,KTEB 010540Z AUTO 04012G17KT 5SM DZ BR OVC012 A2969 RMK MADISHF
TEB,2017-04-01 05:45,-74.0562,40.8590,M,M,M,40.00,11.00,M,29.68,M,5.00,20.00,OVC,M,M,M,1200.00,M,M,M,DZ BR,KTEB 010545Z AUTO 04011G20KT 5SM DZ BR OVC012 A2968 RMK MADISHF
TEB,2017-04-01 05:50,-74.0562,40.8590,M,M,M,40.00,12.00,M,29.68,M,3.00,M,OVC,M,M,M,900.00,M,M,M,DZ BR,KTEB 010550Z AUTO 04012KT 3SM DZ BR OVC009 A2968 RMK MADISHF
TEB,2017-04-01 05:51,-74.0562,40.8590,37.90,36.00,92.78,50.00,15.00,0.00,29.68,1005.00,3.00,22.00,OVC,M,M,M,900.00,M,M,M,DZ BR,KTEB 010551Z 05015G22KT 3SM DZ BR OVC009 03/02 A2968 RMK AO2 SLP050 P0000 60021 T00330022 10039 20033 55019 $
TEB,2017-04-01 05:55,-74.0562,40.8590,M,M,M,40.00,14.00,M,29.68,M,3.00,19.00,OVC,M,M,M,900.00,M,M,M,DZ BR,KTEB 010555Z AUTO 04014G19KT 3SM DZ BR OVC009 A2968 RMK MADISHF
TEB,2017-04-01 06:00,-74.0562,40.8590,M,M,M,40.00,14.00,M,29.68,M,3.00,20.00,OVC,M,M,M,900.00,M,M,M,DZ BR,KTEB 010600Z AUTO 04014G20KT 3SM DZ BR OVC009 A2968 RMK MADISHF
TEB,2017-04-01 06:05,-74.0562,40.8590,M,M,M,30.00,12.00,M,29.68,M,3.00,M,OVC,M,M,M,900.00,M,M,M,DZ BR,KTEB 010605Z AUTO 03012KT 3SM DZ BR OVC009 A2968 RMK MADISHF
TEB,2017-04-01 06:10,-74.0562,40.8590,M,M,M,30.00,12.00,M,29.68,M,3.00,19.00,OVC,M,M,M,900.00,M,M,M,DZ BR,KTEB 010610Z AUTO 03012G19KT 3SM DZ BR OVC009 A2968 RMK MADISHF
TEB,2017-04-01 06:15,-74.0562,40.8590,M,M,M,20.00,9.00,M,29.68,M,3.00,M,OVC,M,M,M,900.00,M,M,M,DZ BR,KTEB 010615Z AUTO 02009KT 3SM DZ BR OVC009 A2968 RMK MADISHF
TEB,2017-04-01 06:20,-74.0562,40.8590,M,M,M,30.00,8.00,M,29.68,M,3.00,M,OVC,M,M,M,900.00,M,M,M,DZ BR,KTEB 010620Z AUTO 03008KT 3SM DZ BR OVC009 A2968 RMK MADISHF
TEB,2017-04-01 06:25,-74.0562,40.8590,M,M,M,20.00,10.00,M,29.68,M,3.00,M,OVC,M,M,M,900.00,M,M,M,DZ BR,KTEB 010625Z AUTO 02010KT 3SM DZ BR OVC009 A2968 RMK MADISHF
TEB,2017-04-01 06:30,-74.0562,40.8590,M,M,M,30.00,9.00,M,29.68,M,3.00,M,OVC,M,M,M,900.00,M,M,M,DZ BR,KTEB 010630Z AUTO 03009KT 3SM DZ BR OVC009 A2968 RMK MADISHF
TEB,2017-04-01 06:35,-74.0562,40.8590,M,M,M,30.00,9.00,M,29.68,M,3.00,14.00,OVC,M,M,M,900.00,M,M,M,DZ BR,KTEB 010635Z AUTO 03009G14KT 3SM DZ BR OVC009 A2968 RMK MADISHF
TEB,2017-04-01 06:40,-74.0562,40.8590,M,M,M,20.00,10.00,M,29.68,M,3.00,M,OVC,M,M,M,900.00,M,M,M,DZ BR,KTEB 010640Z AUTO 02010KT 3SM DZ BR OVC009 A2968 RMK MADISHF
TEB,2017-04-01 06:45,-74.0562,40.8590,M,M,M,30.00,11.00,M,29.68,M,3.00,19.00,OVC,M,M,M,900.00,M,M,M,DZ BR,KTEB 010645Z AUTO 03011G19KT 3SM DZ BR OVC009 A2968 RMK MADISHF
TEB,2017-04-01 06:50,-74.0562,40.8590,M,M,M,40.00,11.00,M,29.67,M,3.00,20.00,OVC,M,M,M,700.00,M,M,M,DZ BR,KTEB 010650Z AUTO 04011G20KT 3SM DZ BR OVC007 A2967 RMK MADISHF
TEB,2017-04-01 06:51,-74.0562,40.8590,37.90,36.00,92.78,30.00,11.00,0.00,29.67,1004.80,3.00,20.00,OVC,M,M,M,700.00,M,M,M,DZ BR,KTEB 010651Z 03011G20KT 3SM DZ BR OVC007 03/02 A2967 RMK AO2 SLP048 P0000 T00330022 $
TEB,2017-04-01 06:55,-74.0562,40.8590,M,M,M,30.00,10.00,M,29.68,M,3.00,M,OVC,M,M,M,1200.00,M,M,M,DZ BR,KTEB 010655Z AUTO 03010KT 3SM DZ BR OVC012 A2968 RMK MADISHF
TEB,2017-04-01 06:58,-74.0562,40.8590,37.90,36.00,92.78,20.00,7.00,0.01,29.68,M,3.00,20.00,OVC,M,M,M,1200.00,M,M,M,DZ BR,KTEB 010658Z 02007G20KT 3SM DZ BR OVC012 03/02 A2968 RMK AO2 P0001 T00330022 $
TEB,2017-04-01 07:00,-74.0562,40.8590,M,M,M,20.00,9.00,0.01,29.68,M,3.00,M,OVC,M,M,M,1200.00,M,M,M,DZ BR,KTEB 010700Z AUTO 02009KT 3SM DZ BR OVC012 A2968 RMK P0001 MADISHF
TEB,2017-04-01 07:05,-74.0562,40.8590,M,M,M,20.00,9.00,0.01,29.67,M,3.00,M,OVC,M,M,M,700.00,M,M,M,-RA BR,KTEB 010705Z AUTO 02009KT 3SM -RA BR OVC007 A2967 RMK P0001 MADISHF
TEB,2017-04-01 07:07,-74.0562,40.8590,37.90,36.00,92.78,20.00,9.00,0.01,29.67,M,2.50,M,OVC,M,M,M,700.00,M,M,M,-RA BR,KTEB 010707Z 02009KT 2 1/2SM -RA BR OVC007 03/02 A2967 RMK AO2 DZE03RAB03 P0001 T00330022 $
TEB,2017-04-01 07:10,-74.0562,40.8590,M,M,M,20.00,10.00,0.01,29.67,M,2.50,M,OVC,M,M,M,700.00,M,M,M,-RA BR,KTEB 010710Z AUTO 02010KT 2 1/2SM -RA BR OVC007 A2967 RMK P0001 MADISHF
TEB,2017-04-01 07:15,-74.0562,40.8590,M,M,M,20.00,10.00,0.01,29.67,M,2.50,M,OVC,M,M,M,700.00,M,M,M,-RA BR,KTEB 010715Z AUTO 02010KT 2 1/2SM -RA BR OVC007 A2967 RMK P0001 MADISHF
TEB,2017-04-01 07:20,-74.0562,40.8590,M,M,M,20.00,10.00,0.01,29.67,M,2.50,M,OVC,M,M,M,700.00,M,M,M,UP BR,KTEB 010720Z AUTO 02010KT 2 1/2SM UP BR OVC007 A2967 RMK P0001 MADISHF
TEB,2017-04-01 07:25,-74.0562,40.8590,M,M,M,20.00,8.00,0.01,29.67,M,2.50,M,OVC,M,M,M,700.00,M,M,M,UP BR,KTEB 010725Z AUTO 02008KT 2 1/2SM UP BR OVC007 A2967 RMK P0001 MADISHF
TEB,2017-04-01 07:30,-74.0562,40.8590,M,M,M,20.00,9.00,0.02,29.66,M,2.50,M,OVC,M,M,M,700.00,M,M,M,UP BR,KTEB 010730Z AUTO 02009KT 2 1/2SM UP BR OVC007 A2966 RMK P0002 MADISHF
TEB,2017-04-01 07:35,-74.0562,40.8590,M,M,M,10.00,8.00,0.02,29.66,M,2.50,M,OVC,M,M,M,700.00,M,M,M,UP BR,KTEB 010735Z AUTO 01008KT 2 1/2SM UP BR OVC007 A2966 RMK P0002 MADISHF
TEB,2017-04-01 07:40,-74.0562,40.8590,M,M,M,20.00,10.00,0.02,29.66,M,2.50,15.00,OVC,M,M,M,700.00,M,M,M,UP BR,KTEB 010740Z AUTO 02010G15KT 2 1/2SM UP BR OVC007 A2966 RMK P0002 MADISHF
TEB,2017-04-01 07:45,-74.0562,40.8590,M,M,M,20.00,10.00,0.02,29.66,M,2.50,M,OVC,M,M,M,700.00,M,M,M,-RA BR,KTEB 010745Z AUTO 02010KT 2 1/2SM -RA BR OVC007 A2966 RMK P0002 MADISHF
TEB,2017-04-01 07:50,-74.0562,40.8590,M,M,M,20.00,11.00,0.02,29.66,M,3.00,M,OVC,M,M,M,700.00,M,M,M,-RA BR,KTEB 010750Z AUTO 02011KT 3SM -RA BR OVC007 A2966 RMK P0002 MADISHF
TEB,2017-04-01 07:51,-74.0562,40.8590,37.00,36.00,96.13,20.00,10.00,0.02,29.66,1004.50,2.50,M,OVC,M,M,M,700.00,M,M,M,-RA BR,KTEB 010751Z 02010KT 2 1/2SM -RA BR OVC007 03/02 A2966 RMK AO2 DZE03RAB03E19B43UPB19E43 SLP045 P0002 T00280022 $
TEB,2017-04-01 07:55,-74.0562,40.8590,M,M,M,20.00,9.00,M,29.67,M,3.00,M,BKN,OVC,M,M,700.00,1200.00,M,M,-RA BR,KTEB 010755Z AUTO 02009KT 3SM -RA BR BKN007 OVC012 A2967 RMK MADISHF
TEB,2017-04-01 07:58,-74.0562,40.8590,37.00,36.00,96.13,10.00,9.00,0.00,29.67,M,3.00,17.00,BKN,OVC,M,M,700.00,1200.00,M,M,-RA BR,KTEB 010758Z 01009G17KT 3SM -RA BR BKN007 OVC012 03/02 A2967 RMK AO2 P0000 T00280022 $
TEB,2017-04-01 08:00,-74.0562,40.8590,M,M,M,20.00,10.00,M,29.67,M,3.00,M,BKN,OVC,M,M,700.00,1400.00,M,M,-RA BR,KTEB 010800Z AUTO 02010KT 3SM -RA BR BKN007 OVC014 A2967 RMK MADISHF
TEB,2017-04-01 08:05,-74.0562,40.8590,M,M,M,20.00,10.00,M,29.67,M,3.00,M,BKN,OVC,M,M,700.00,1400.00,M,M,-RA BR,KTEB 010805Z AUTO 02010KT 3SM -RA BR BKN007 OVC014 A2967 RMK MADISHF
TEB,2017-04-01 08:10,-74.0562,40.8590,M,M,M,10.00,7.00,0.01,29.67,M,3.00,M,OVC,M,M,M,700.00,M,M,M,-RA BR,KTEB 010810Z AUTO 01007KT 3SM -RA BR OVC007 A2967 RMK P0001 MADISHF
TEB,2017-04-01 08:15,-74.0562,40.8590,M,M,M,20.00,10.00,0.01,29.67,M,3.50,M,OVC,M,M,M,700.00,M,M,M,-RA BR,KTEB 010815Z AUTO 02010KT 3SM -RA BR OVC007 A2967 RMK P0001 MADISHF
TEB,2017-04-01 08:20,-74.0562,40.8590,M,M,M,10.00,9.00,0.01,29.67,M,3.50,M,OVC,M,M,M,700.00,M,M,M,-RA BR,KTEB 010820Z AUTO 01009KT 3SM -RA BR OVC007 A2967 RMK P0001 MADISHF
TEB,2017-04-01 08:25,-74.0562,40.8590,M,M,M,20.00,9.00,0.01,29.67,M,3.50,16.00,OVC,M,M,M,700.00,M,M,M,-RA BR,KTEB 010825Z AUTO 02009G16KT 3SM -RA BR OVC007 A2967 RMK P0001 MADISHF
TEB,2017-04-01 08:30,-74.0562,40.8590,M,M,M,20.00,10.00,0.01,29.67,M,3.50,M,OVC,M,M,M,700.00,M,M,M,-RA BR,KTEB 010830Z AUTO 02010KT 3SM -RA BR OVC007 A2967 RMK P0001 MADISHF
TEB,2017-04-01 08:35,-74.0562,40.8590,M,M,M,20.00,10.00,0.01,29.67,M,3.50,15.00,BKN,OVC,M,M,700.00,1200.00,M,M,-RA BR,KTEB 010835Z AUTO 02010G15KT 3SM -RA BR BKN007 OVC012 A2967 RMK P0001 MADISHF
TEB,2017-04-01 08:40,-74.0562,40.8590,M,M,M,10.00,10.00,0.01,29.67,M,3.50,M,OVC,M,M,M,700.00,M,M,M,-RA BR,KTEB 010840Z AUTO 01010KT 3SM -RA BR OVC007 A2967 RMK P0001 MADISHF
TEB,2017-04-01 08:45,-74.0562,40.8590,M,M,M,10.00,9.00,0.01,29.67,M,3.50,M,OVC,M,M,M,900.00,M,M,M,-RA BR,KTEB 010845Z AUTO 01009KT 3SM -RA BR OVC009 A2967 RMK P0001 CIG 6V11  MADISHF
TEB,2017-04-01 08:50,-74.0562,40.8590,M,M,M,20.00,10.00,0.01,29.67,M,3.50,M,OVC,M,M,M,900.00,M,M,M,-RA BR,KTEB 010850Z AUTO 02010KT 3SM -RA BR OVC009 A2967 RMK P0001 CIG 6V14  MADISHF
TEB,2017-04-01 08:51,-74.0562,40.8590,37.00,35.10,92.76,20.00,9.00,0.01,29.67,1004.70,3.00,16.00,BKN,OVC,M,M,900.00,1200.00,M,M,-RA BR,KTEB 010851Z 02009G16KT 3SM -RA BR BKN009 OVC012 03/02 A2967 RMK AO2 CIG 006V011 SLP047 P0001 60003 T00280017 55003 $
TEB,2017-04-01 08:55,-74.0562,40.8590,M,M,M,20.00,10.00,M,29.67,M,3.50,M,BKN,OVC,M,M,900.00,1200.00,M,M,-RA BR,KTEB 010855Z AUTO 02010KT 3SM -RA BR BKN009 OVC012 A2967 RMK MADISHF
TEB,2017-04-01 09:00,-74.0562,40.8590,M,M,M,30.00,10.00,M,29.68,M,4.00,M,BKN,OVC,M,M,900.00,1400.00,M,M,-RA BR,KTEB 010900Z AUTO 03010KT 4SM -RA BR BKN009 OVC014 A2968 RMK MADISHF
TEB,2017-04-01 09:05,-74.0562,40.8590,M,M,M,20.00,11.00,M,29.68,M,4.00,16.00,BKN,OVC,M,M,900.00,1400.00,M,M,-RA BR,KTEB 010905Z AUTO 02011G16KT 4SM -RA BR BKN009 OVC014 A2968 RMK MADISHF
TEB,2017-04-01 09:10,-74.0562,40.8590,M,M,M,10.00,10.00,M,29.68,M,4.00,M,BKN,OVC,M,M,900.00,1400.00,M,M,-RA BR,KTEB 010910Z AUTO 01010KT 4SM -RA BR BKN009 OVC014 A2968 RMK MADISHF
TEB,2017-04-01 09:15,-74.0562,40.8590,M,M,M,10.00,10.00,M,29.68,M,3.00,15.00,BKN,OVC,M,M,900.00,1400.00,M,M,-DZ BR,KTEB 010915Z AUTO 01010G15KT 3SM -DZ BR BKN009 OVC014 A2968 RMK MADISHF
TEB,2017-04-01 09:20,-74.0562,40.8590,M,M,M,10.00,11.00,M,29.69,M,3.00,M,BKN,OVC,M,M,900.00,1400.00,M,M,-DZ BR,KTEB 010920Z AUTO 01011KT 3SM -DZ BR BKN009 OVC014 A2969 RMK MADISHF
TEB,2017-04-01 09:25,-74.0562,40.8590,M,M,M,20.00,10.00,M,29.69,M,3.00,M,BKN,OVC,M,M,900.00,1400.00,M,M,-DZ BR,KTEB 010925Z AUTO 02010KT 3SM -DZ BR BKN009 OVC014 A2969 RMK MADISHF
TEB,2017-04-01 09:30,-74.0562,40.8590,M,M,M,20.00,9.00,M,29.69,M,3.00,M,OVC,M,M,M,1100.00,M,M,M,-DZ BR,KTEB 010930Z AUTO 02009KT 3SM -DZ BR OVC011 A2969 RMK MADISHF
TEB,2017-04-01 09:35,-74.0562,40.8590,M,M,M,10.00,11.00,M,29.69,M,3.00,M,BKN,OVC,M,M,1100.00,1400.00,M,M,-RA BR,KTEB 010935Z AUTO 01011KT 3SM -RA BR BKN011 OVC014 A2969 RMK WND 33V03  MADISHF
TEB,2017-04-01 09:36,-74.0562,40.8590,37.00,35.10,92.76,20.00,11.00,0.00,29.69,M,3.00,18.00,BKN,OVC,M,M,1100.00,1400.00,M,M,-RA BR,KTEB 010936Z 02011G18KT 3SM -RA BR BKN011 OVC014 03/02 A2969 RMK AO2 RAE15B32DZB15E32 P0000 T00280017 $
TEB,2017-04-01 09:40,-74.0562,40.8590,M,M,M,20.00,9.00,M,29.69,M,3.00,17.00,BKN,OVC,M,M,1100.00,1600.00,M,M,-RA BR,KTEB 010940Z AUTO 02009G17KT 3SM -RA BR BKN011 OVC016 A2969 RMK MADISHF
TEB,2017-04-01 09:45,-74.0562,40.8590,M,M,M,20.00,10.00,M,29.69,M,3.00,M,BKN,OVC,M,M,1100.00,1600.00,M,M,-RA BR,KTEB 010945Z AUTO 02010KT 3SM -RA BR BKN011 OVC016 A2969 RMK MADISHF
TEB,2017-04-01 09:50,-74.0562,40.8590,M,M,M,10.00,11.00,M,29.69,M,3.00,16.00,BKN,OVC,M,M,1100.00,1800.00,M,M,-RA BR,KTEB 010950Z AUTO 01011G16KT 3SM -RA BR BKN011 OVC018 A2969 RMK MADISHF
TEB,2017-04-01 09:51,-74.0562,40.8590,37.00,35.10,92.76,10.00,11.00,0.00,29.70,1005.50,3.00,17.00,BKN,OVC,M,M,1100.00,1800.00,M,M,-RA BR,KTEB 010951Z 01011G17KT 3SM -RA BR BKN011 OVC018 03/02 A2970 RMK AO2 RAE15B32DZB15E32 SLP055 P0000 T00280017 $
TEB,2017-04-01 09:55,-74.0562,40.8590,M,M,M,20.00,7.00,M,29.70,M,3.00,M,BKN,OVC,M,M,900.00,1500.00,M,M,-RA BR,KTEB 010955Z AUTO 02007KT 3SM -RA BR BKN009 OVC015 A2970 RMK MADISHF
TEB,2017-04-01 10:00,-74.0562,40.8590,M,M,M,360.00,8.00,M,29.70,M,3.00,M,BKN,OVC,M,M,900.00,1500.00,M,M,-RA BR,KTEB 011000Z AUTO 36008KT 3SM -RA BR BKN009 OVC015 A2970 RMK MADISHF
TEB,2017-04-01 10:01,-74.0562,40.8590,37.00,35.10,92.76,360.00,8.00,0.00,29.70,M,3.00,M,BKN,OVC,M,M,900.00,1500.00,M,M,-RA BR,KTEB 011001Z 36008KT 3SM -RA BR BKN009 OVC015 03/02 A2970 RMK AO2 P0000 T00280017 $
TEB,2017-04-01 10:05,-74.0562,40.8590,M,M,M,360.00,9.00,M,29.70,M,3.00,17.00,BKN,OVC,M,M,900.00,1500.00,M,M,-RA BR,KTEB 011005Z AUTO 36009G17KT 3SM -RA BR BKN009 OVC015 A2970 RMK MADISHF
TEB,2017-04-01 10:10,-74.0562,40.8590,M,M,M,10.00,10.00,M,29.70,M,3.00,15.00,BKN,OVC,M,M,900.00,1500.00,M,M,-RA BR,KTEB 011010Z AUTO 01010G15KT 3SM -RA BR BKN009 OVC015 A2970 RMK MADISHF
TEB,2017-04-01 10:15,-74.0562,40.8590,M,M,M,10.00,8.00,M,29.70,M,3.00,M,BKN,OVC,M,M,900.00,1500.00,M,M,-RA BR,KTEB 011015Z AUTO 01008KT 3SM -RA BR BKN009 OVC015 A2970 RMK MADISHF
TEB,2017-04-01 10:20,-74.0562,40.8590,M,M,M,10.00,10.00,M,29.71,M,3.00,M,BKN,OVC,M,M,900.00,1500.00,M,M,-RA BR,KTEB 011020Z AUTO 01010KT 3SM -RA BR BKN009 OVC015 A2971 RMK MADISHF
TEB,2017-04-01 10:25,-74.0562,40.8590,M,M,M,360.00,11.00,M,29.71,M,3.00,16.00,BKN,OVC,M,M,900.00,1500.00,M,M,-RA BR,KTEB 011025Z AUTO 36011G16KT 3SM -RA BR BKN009 OVC015 A2971 RMK MADISHF
TEB,2017-04-01 10:30,-74.0562,40.8590,M,M,M,10.00,7.00,M,29.71,M,3.00,M,BKN,OVC,M,M,900.00,1500.00,M,M,-RA BR,KTEB 011030Z AUTO 01007KT 3SM -RA BR BKN009 OVC015 A2971 RMK MADISHF
TEB,2017-04-01 10:35,-74.0562,40.8590,M,M,M,350.00,9.00,M,29.71,M,3.00,14.00,BKN,OVC,M,M,900.00,1500.00,M,M,-RA BR,KTEB 011035Z AUTO 35009G14KT 3SM -RA BR BKN009 OVC015 A2971 RMK MADISHF
TEB,2017-04-01 10:40,-74.0562,40.8590,M,M,M,360.00,8.00,M,29.72,M,3.00,M,BKN,OVC,M,M,900.00,1500.00,M,M,-RA BR,KTEB 011040Z AUTO 36008KT 3SM -RA BR BKN009 OVC015 A2972 RMK MADISHF
TEB,2017-04-01 10:45,-74.0562,40.8590,M,M,M,360.00,10.00,M,29.72,M,5.00,18.00,BKN,OVC,M,M,900.00,1500.00,M,M,BR,KTEB 011045Z AUTO 36010G18KT 5SM BR BKN009 OVC015 A2972 RMK MADISHF
TEB,2017-04-01 10:50,-74.0562,40.8590,M,M,M,360.00,11.00,M,29.72,M,5.00,18.00,BKN,OVC,M,M,999.00,2100.00,M,M,BR,KTEB 011050Z AUTO 36011G18KT 5SM BR BKN009 OVC021 A2972 RMK MADISHF
TEB,2017-04-01 10:51,-74.0562,40.8590,37.00,35.10,92.76,360.00,10.00,0.00,29.72,1006.40,5.00,20.00,BKN,OVC,M,M,1000.00,2100.00,M,M,BR,KTEB 011051Z 36010G20KT 5SM BR BKN010 OVC021 03/02 A2972 RMK AO2 RAE42 SLP064 P0000 T00280017 $
TEB,2017-04-01 10:55,-74.0562,40.8590,M,M,M,10.00,8.00,M,29.72,M,6.00,M,BKN,OVC,M,M,999.00,2100.00,M,M,BR,KTEB 011055Z AUTO 01008KT 6SM BR BKN009 OVC021 A2972 RMK MADISHF
TEB,2017-04-01 11:00,-74.0562,40.8590,M,M,M,10.00,10.00,M,29.73,M,6.00,15.00,BKN,OVC,M,M,999.00,2100.00,M,M,BR,KTEB 011100Z AUTO 01010G15KT 6SM BR BKN009 OVC021 A2973 RMK MADISHF
TEB,2017-04-01 11:05,-74.0562,40.8590,M,M,M,360.00,11.00,M,29.73,M,6.00,16.00,BKN,OVC,M,M,999.00,2100.00,M,M,BR,KTEB 011105Z AUTO 36011G16KT 6SM BR BKN009 OVC021 A2973 RMK MADISHF
TEB,2017-04-01 11:10,-74.0562,40.8590,M,M,M,360.00,9.00,M,29.73,M,6.00,14.00,BKN,OVC,M,M,999.00,2100.00,M,M,BR,KTEB 011110Z AUTO 36009G14KT 6SM BR BKN009 OVC021 A2973 RMK MADISHF
TEB,2017-04-01 11:15,-74.0562,40.8590,M,M,M,10.00,8.00,M,29.73,M,6.00,M,BKN,OVC,M,M,999.00,2100.00,M,M,BR,KTEB 011115Z AUTO 01008KT 6SM BR BKN009 OVC021 A2973 RMK MADISHF
TEB,2017-04-01 11:20,-74.0562,40.8590,M,M,M,10.00,8.00,M,29.73,M,6.00,M,BKN,OVC,M,M,999.00,2100.00,M,M,BR,KTEB 011120Z AUTO 01008KT 6SM BR BKN009 OVC021 A2973 RMK MADISHF
TEB,2017-04-01 11:25,-74.0562,40.8590,M,M,M,360.00,8.00,M,29.73,M,6.00,M,BKN,OVC,M,M,999.00,2100.00,M,M,BR,KTEB 011125Z AUTO 36008KT 6SM BR BKN009 OVC021 A2973 RMK MADISHF
TEB,2017-04-01 11:30,-74.0562,40.8590,M,M,M,10.00,9.00,M,29.73,M,6.00,17.00,BKN,OVC,M,M,999.00,2100.00,M,M,BR,KTEB 011130Z AUTO 01009G17KT 6SM BR BKN009 OVC021 A2973 RMK MADISHF
TEB,2017-04-01 11:35,-74.0562,40.8590,M,M,M,360.00,8.00,M,29.74,M,6.00,M,BKN,OVC,M,M,999.00,2100.00,M,M,BR,KTEB 011135Z AUTO 36008KT 6SM BR BKN009 OVC021 A2974 RMK MADISHF
TEB,2017-04-01 11:40,-74.0562,40.8590,M,M,M,360.00,10.00,M,29.74,M,6.00,M,BKN,OVC,M,M,999.00,2100.00,M,M,BR,KTEB 011140Z AUTO 36010KT 6SM BR BKN009 OVC021 A2974 RMK MADISHF
TEB,2017-04-01 11:45,-74.0562,40.8590,M,M,M,360.00,10.00,M,29.74,M,6.00,15.00,BKN,OVC,M,M,999.00,2100.00,M,M,BR,KTEB 011145Z AUTO 36010G15KT 6SM BR BKN009 OVC021 A2974 RMK MADISHF
TEB,2017-04-01 11:50,-74.0562,40.8590,M,M,M,10.00,8.00,M,29.74,M,6.00,M,BKN,OVC,M,M,999.00,2100.00,M,M,BR,KTEB 011150Z AUTO 01008KT 6SM BR BKN009 OVC021 A2974 RMK MADISHF
TEB,2017-04-01 11:51,-74.0562,40.8590,37.00,34.00,88.78,10.00,9.00,0.00,29.74,1007.10,6.00,17.00,BKN,OVC,M,M,1000.00,2100.00,M,M,BR,KTEB 011151Z 01009G17KT 6SM BR BKN010 OVC021 03/01 A2974 RMK AO2 SLP071 60003 70123 T00280011 10033 20028 51024 $
TEB,2017-04-01 11:55,-74.0562,40.8590,M,M,M,10.00,8.00,M,29.74,M,10.00,M,BKN,BKN,OVC,M,1699.00,2300.00,2900.00,M,BR,KTEB 011155Z AUTO 01008KT 10SM BR BKN016 BKN023 OVC029 A2974 RMK MADISHF
TEB,2017-04-01 11:58,-74.0562,40.8590,37.90,34.00,85.69,10.00,9.00,0.00,29.74,M,10.00,16.00,BKN,BKN,OVC,M,1700.00,2300.00,3100.00,M,BR,KTEB 011158Z 01009G16KT 10SM BR BKN017 BKN023 OVC031 03/01 A2974 RMK AO2 T00330011 $
TEB,2017-04-01 12:00,-74.0562,40.8590,M,M,M,360.00,8.00,M,29.75,M,10.00,M,BKN,BKN,OVC,M,1699.00,2300.00,3100.00,M,BR,KTEB 011200Z AUTO 36008KT 10SM BR BKN016 BKN023 OVC031 A2975 RMK MADISHF
TEB,2017-04-01 12:05,-74.0562,40.8590,M,M,M,360.00,10.00,M,29.75,M,10.00,M,BKN,OVC,M,M,1699.00,3100.00,M,M,BR,KTEB 011205Z AUTO 36010KT 10SM BR BKN016 OVC031 A2975 RMK MADISHF
TEB,2017-04-01 12:10,-74.0562,40.8590,M,M,M,360.00,13.00,M,29.75,M,10.00,M,BKN,BKN,OVC,M,1699.00,2300.00,3000.00,M,M,KTEB 011210Z AUTO 36013KT 10SM BKN016 BKN023 OVC030 A2975 RMK MADISHF
TEB,2017-04-01 12:15,-74.0562,40.8590,M,M,M,360.00,8.00,M,29.75,M,10.00,M,BKN,OVC,M,M,1699.00,3200.00,M,M,M,KTEB 011215Z AUTO 36008KT 10SM BKN016 OVC032 A2975 RMK MADISHF
TEB,2017-04-01 12:20,-74.0562,40.8590,M,M,M,360.00,10.00,M,29.75,M,10.00,16.00,BKN,OVC,M,M,1900.00,3200.00,M,M,M,KTEB 011220Z AUTO 36010G16KT 10SM BKN019 OVC032 A2975 RMK MADISHF
TEB,2017-04-01 12:25,-74.0562,40.8590,M,M,M,360.00,11.00,M,29.76,M,10.00,M,BKN,OVC,M,M,1900.00,3200.00,M,M,M,KTEB 011225Z AUTO 36011KT 10SM BKN019 OVC032 A2976 RMK MADISHF
TEB,2017-04-01 12:30,-74.0562,40.8590,M,M,M,360.00,10.00,M,29.76,M,10.00,16.00,BKN,OVC,M,M,1900.00,3200.00,M,M,M,KTEB 011230Z AUTO 36010G16KT 10SM BKN019 OVC032 A2976 RMK MADISHF
TEB,2017-04-01 12:35,-74.0562,40.8590,M,M,M,350.00,12.00,M,29.76,M,10.00,19.00,BKN,OVC,M,M,1900.00,3200.00,M,M,M,KTEB 011235Z AUTO 35012G19KT 10SM BKN019 OVC032 A2976 RMK MADISHF
TEB,2017-04-01 12:40,-74.0562,40.8590,M,M,M,350.00,13.00,M,29.76,M,10.00,20.00,BKN,OVC,M,M,1900.00,3200.00,M,M,M,KTEB 011240Z AUTO 35013G20KT 10SM BKN019 OVC032 A2976 RMK MADISHF
TEB,2017-04-01 12:45,-74.0562,40.8590,M,M,M,350.00,14.00,M,29.76,M,10.00,20.00,BKN,OVC,M,M,2100.00,3100.00,M,M,M,KTEB 011245Z AUTO 35014G20KT 10SM BKN021 OVC031 A2976 RMK MADISHF
TEB,2017-04-01 12:50,-74.0562,40.8590,M,M,M,360.00,11.00,M,29.77,M,10.00,16.00,BKN,OVC,M,M,2100.00,3100.00,M,M,M,KTEB 011250Z AUTO 36011G16KT 10SM BKN021 OVC031 A2977 RMK MADISHF
TEB,2017-04-01 12:51,-74.0562,40.8590,39.00,34.00,82.08,360.00,11.00,0.00,29.77,1007.90,10.00,21.00,BKN,OVC,M,M,2100.00,3100.00,M,M,M,KTEB 011251Z 36011G21KT 10SM BKN021 OVC031 04/01 A2977 RMK AO2 SLP079 T00390011 $
TEB,2017-04-01 12:55,-74.0562,40.8590,M,M,M,360.00,10.00,M,29.77,M,10.00,16.00,BKN,OVC,M,M,2100.00,3100.00,M,M,M,KTEB 011255Z AUTO 36010G16KT 10SM BKN021 OVC031 A2977 RMK MADISHF
TEB,2017-04-01 13:00,-74.0562,40.8590,M,M,M,10.00,9.00,M,29.77,M,10.00,M,BKN,OVC,M,M,2100.00,3100.00,M,M,M,KTEB 011300Z AUTO 01009KT 10SM BKN021 OVC031 A2977 RMK MADISHF
TEB,2017-04-01 13:05,-74.0562,40.8590,M,M,M,360.00,12.00,M,29.77,M,10.00,M,BKN,OVC,M,M,2300.00,3100.00,M,M,M,KTEB 011305Z AUTO 36012KT 10SM BKN023 OVC031 A2977 RMK MADISHF
TEB,2017-04-01 13:10,-74.0562,40.8590,M,M,M,360.00,12.00,M,29.77,M,10.00,M,BKN,OVC,M,M,2300.00,3100.00,M,M,M,KTEB 011310Z AUTO 36012KT 10SM BKN023 OVC031 A2977 RMK MADISHF
TEB,2017-04-01 13:15,-74.0562,40.8590,M,M,M,350.00,11.00,M,29.77,M,10.00,16.00,BKN,OVC,M,M,2300.00,2800.00,M,M,M,KTEB 011315Z AUTO 35011G16KT 10SM BKN023 OVC028 A2977 RMK MADISHF
TEB,2017-04-01 13:20,-74.0562,40.8590,M,M,M,350.00,10.00,M,29.78,M,10.00,15.00,BKN,OVC,M,M,2200.00,2800.00,M,M,M,KTEB 011320Z AUTO 35010G15KT 10SM BKN022 OVC028 A2978 RMK MADISHF
TEB,2017-04-01 13:25,-74.0562,40.8590,M,M,M,360.00,8.00,M,29.78,M,10.00,M,OVC,M,M,M,2200.00,M,M,M,M,KTEB 011325Z AUTO 36008KT 10SM OVC022 A2978 RMK MADISHF
TEB,2017-04-01 13:30,-74.0562,40.8590,M,M,M,360.00,10.00,M,29.78,M,10.00,15.00,OVC,M,M,M,2200.00,M,M,M,M,KTEB 011330Z AUTO 36010G15KT 10SM OVC022 A2978 RMK MADISHF
TEB,2017-04-01 13:35,-74.0562,40.8590,M,M,M,350.00,15.00,M,29.78,M,10.00,22.00,OVC,M,M,M,2300.00,M,M,M,M,KTEB 011335Z AUTO 35015G22KT 10SM OVC023 A2978 RMK MADISHF
TEB,2017-04-01 13:40,-74.0562,40.8590,M,M,M,360.00,10.00,M,29.78,M,10.00,M,OVC,M,M,M,2300.00,M,M,M,M,KTEB 011340Z AUTO 36010KT 10SM OVC023 A2978 RMK MADISHF
TEB,2017-04-01 13:45,-74.0562,40.8590,M,M,M,360.00,11.00,M,29.78,M,10.00,M,OVC,M,M,M,2300.00,M,M,M,M,KTEB 011345Z AUTO 36011KT 10SM OVC023 A2978 RMK MADISHF
TEB,2017-04-01 13:50,-74.0562,40.8590,M,M,M,10.00,13.00,M,29.78,M,10.00,M,OVC,M,M,M,2300.00,M,M,M,M,KTEB 011350Z AUTO 01013KT 10SM OVC023 A2978 RMK MADISHF
TEB,2017-04-01 13:51,-74.0562,40.8590,41.00,34.00,75.94,10.00,13.00,0.00,29.78,1008.40,10.00,19.00,OVC,M,M,M,2300.00,M,M,M,M,KTEB 011351Z 01013G19KT 10SM OVC023 05/01 A2978 RMK AO2 SLP084 T00500011 $
TEB,2017-04-01 13:55,-74.0562,40.8590,M,M,M,360.00,13.00,M,29.79,M,10.00,20.00,OVC,M,M,M,2300.00,M,M,M,M,KTEB 011355Z AUTO 36013G20KT 10SM OVC023 A2979 RMK MADISHF
TEB,2017-04-01 14:00,-74.0562,40.8590,M,M,M,350.00,11.00,M,29.79,M,10.00,M,OVC,M,M,M,2300.00,M,M,M,M,KTEB 011400Z AUTO 35011KT 10SM OVC023 A2979 RMK MADISHF
TEB,2017-04-01 14:05,-74.0562,40.8590,M,M,M,360.00,11.00,M,29.79,M,10.00,16.00,OVC,M,M,M,2300.00,M,M,M,M,KTEB 011405Z AUTO 36011G16KT 10SM OVC023 A2979 RMK MADISHF
TEB,2017-04-01 14:10,-74.0562,40.8590,M,M,M,10.00,12.00,M,29.79,M,10.00,17.00,OVC,M,M,M,2300.00,M,M,M,M,KTEB 011410Z AUTO 01012G17KT 10SM OVC023 A2979 RMK MADISHF
TEB,2017-04-01 14:15,-74.0562,40.8590,M,M,M,360.00,12.00,M,29.80,M,10.00,M,OVC,M,M,M,2300.00,M,M,M,M,KTEB 011415Z AUTO 36012KT 10SM OVC023 A2980 RMK MADISHF
TEB,2017-04-01 14:20,-74.0562,40.8590,M,M,M,360.00,12.00,M,29.80,M,10.00,M,OVC,M,M,M,2300.00,M,M,M,M,KTEB 011420Z AUTO 36012KT 10SM OVC023 A2980 RMK MADISHF
TEB,2017-04-01 14:25,-74.0562,40.8590,M,M,M,360.00,11.00,M,29.80,M,10.00,16.00,OVC,M,M,M,2400.00,M,M,M,M,KTEB 011425Z AUTO 36011G16KT 10SM OVC024 A2980 RMK MADISHF
TEB,2017-04-01 14:30,-74.0562,40.8590,M,M,M,10.00,13.00,M,29.80,M,10.00,M,OVC,M,M,M,2400.00,M,M,M,M,KTEB 011430Z AUTO 01013KT 10SM OVC024 A2980 RMK MADISHF
TEB,2017-04-01 14:35,-74.0562,40.8590,M,M,M,350.00,11.00,M,29.81,M,10.00,16.00,OVC,M,M,M,2400.00,M,M,M,M,KTEB 011435Z AUTO 35011G16KT 10SM OVC024 A2981 RMK MADISHF
TEB,2017-04-01 14:40,-74.0562,40.8590,M,M,M,10.00,11.00,M,29.81,M,10.00,M,OVC,M,M,M,2300.00,M,M,M,M,KTEB 011440Z AUTO 01011KT 10SM OVC023 A2981 RMK MADISHF
TEB,2017-04-01 14:45,-74.0562,40.8590,M,M,M,360.00,14.00,M,29.81,M,10.00,20.00,OVC,M,M,M,2300.00,M,M,M,M,KTEB 011445Z AUTO 36014G20KT 10SM OVC023 A2981 RMK MADISHF
TEB,2017-04-01 14:50,-74.0562,40.8590,M,M,M,10.00,11.00,M,29.81,M,10.00,16.00,OVC,M,M,M,2300.00,M,M,M,M,KTEB 011450Z AUTO 01011G16KT 10SM OVC023 A2981 RMK MADISHF
TEB,2017-04-01 14:51,-74.0562,40.8590,42.10,34.00,72.78,10.00,12.00,0.00,29.81,1009.30,10.00,20.00,OVC,M,M,M,2300.00,M,M,M,M,KTEB 011451Z 01012G20KT 10SM OVC023 06/01 A2981 RMK AO2 SLP093 T00560011 53022 $
TEB,2017-04-01 14:55,-74.0562,40.8590,M,M,M,10.00,10.00,M,29.80,M,10.00,M,OVC,M,M,M,2300.00,M,M,M,M,KTEB 011455Z AUTO 01010KT 10SM OVC023 A2980 RMK MADISHF
TEB,2017-04-01 15:00,-74.0562,40.8590,M,M,M,360.00,11.00,M,29.80,M,10.00,M,OVC,M,M,M,2300.00,M,M,M,M,KTEB 011500Z AUTO 36011KT 10SM OVC023 A2980 RMK MADISHF
TEB,2017-04-01 15:05,-74.0562,40.8590,M,M,M,350.00,12.00,M,29.81,M,10.00,18.00,OVC,M,M,M,2300.00,M,M,M,M,KTEB 011505Z AUTO 35012G18KT 10SM OVC023 A2981 RMK MADISHF
TEB,2017-04-01 15:10,-74.0562,40.8590,M,M,M,360.00,11.00,M,29.81,M,10.00,M,OVC,M,M,M,2300.00,M,M,M,M,KTEB 011510Z AUTO 36011KT 10SM OVC023 A2981 RMK MADISHF
TEB,2017-04-01 15:15,-74.0562,40.8590,M,M,M,350.00,8.00,M,29.81,M,10.00,M,OVC,M,M,M,2300.00,M,M,M,M,KTEB 011515Z AUTO 35008KT 10SM OVC023 A2981 RMK MADISHF
TEB,2017-04-01 15:20,-74.0562,40.8590,M,M,M,350.00,13.00,M,29.81,M,10.00,M,OVC,M,M,M,2300.00,M,M,M,M,KTEB 011520Z AUTO 35013KT 10SM OVC023 A2981 RMK MADISHF
TEB,2017-04-01 15:25,-74.0562,40.8590,M,M,M,360.00,11.00,M,29.81,M,10.00,M,OVC,M,M,M,2400.00,M,M,M,M,KTEB 011525Z AUTO 36011KT 10SM OVC024 A2981 RMK MADISHF
TEB,2017-04-01 15:30,-74.0562,40.8590,M,M,M,350.00,10.00,M,29.82,M,10.00,16.00,OVC,M,M,M,2400.00,M,M,M,M,KTEB 011530Z AUTO 35010G16KT 10SM OVC024 A2982 RMK MADISHF
TEB,2017-04-01 15:35,-74.0562,40.8590,M,M,M,340.00,14.00,M,29.82,M,10.00,M,OVC,M,M,M,2400.00,M,M,M,M,KTEB 011535Z AUTO 34014KT 10SM OVC024 A2982 RMK MADISHF
TEB,2017-04-01 15:40,-74.0562,40.8590,M,M,M,360.00,10.00,M,29.82,M,10.00,16.00,OVC,M,M,M,2400.00,M,M,M,M,KTEB 011540Z AUTO 36010G16KT 10SM OVC024 A2982 RMK MADISHF
TEB,2017-04-01 15:45,-74.0562,40.8590,M,M,M,350.00,13.00,M,29.82,M,10.00,M,OVC,M,M,M,2400.00,M,M,M,M,KTEB 011545Z AUTO 35013KT 10SM OVC024 A2982 RMK MADISHF
TEB,2017-04-01 15:50,-74.0562,40.8590,M,M,M,350.00,13.00,M,29.82,M,10.00,19.00,OVC,M,M,M,2400.00,M,M,M,M,KTEB 011550Z AUTO 35013G19KT 10SM OVC024 A2982 RMK MADISHF
TEB,2017-04-01 15:51,-74.0562,40.8590,43.00,34.00,70.30,350.00,13.00,0.00,29.82,1009.80,10.00,19.00,OVC,M,M,M,2400.00,M,M,M,M,KTEB 011551Z 35013G19KT 10SM OVC024 06/01 A2982 RMK AO2 SLP098 T00610011 $
TEB,2017-04-01 15:55,-74.0562,40.8590,M,M,M,350.00,13.00,M,29.82,M,10.00,18.00,OVC,M,M,M,2400.00,M,M,M,M,KTEB 011555Z AUTO 35013G18KT 10SM OVC024 A2982 RMK MADISHF
TEB,2017-04-01 16:00,-74.0562,40.8590,M,M,M,350.00,16.00,M,29.82,M,10.00,M,OVC,M,M,M,2400.00,M,M,M,M,KTEB 011600Z AUTO 35016KT 10SM OVC024 A2982 RMK MADISHF
TEB,2017-04-01 16:05,-74.0562,40.8590,M,M,M,350.00,14.00,M,29.83,M,10.00,M,OVC,M,M,M,2400.00,M,M,M,M,KTEB 011605Z AUTO 35014KT 10SM OVC024 A2983 RMK MADISHF
TEB,2017-04-01 16:10,-74.0562,40.8590,M,M,M,360.00,11.00,M,29.82,M,10.00,16.00,OVC,M,M,M,2500.00,M,M,M,M,KTEB 011610Z AUTO 36011G16KT 10SM OVC025 A2982 RMK MADISHF
TEB,2017-04-01 16:15,-74.0562,40.8590,M,M,M,360.00,12.00,M,29.82,M,10.00,M,OVC,M,M,M,2500.00,M,M,M,M,KTEB 011615Z AUTO 36012KT 10SM OVC025 A2982 RMK MADISHF
TEB,2017-04-01 16:20,-74.0562,40.8590,M,M,M,10.00,15.00,M,29.82,M,10.00,20.00,OVC,M,M,M,2600.00,M,M,M,M,KTEB 011620Z AUTO 01015G20KT 10SM OVC026 A2982 RMK MADISHF
TEB,2017-04-01 16:25,-74.0562,40.8590,M,M,M,360.00,12.00,M,29.82,M,10.00,M,OVC,M,M,M,2600.00,M,M,M,M,KTEB 011625Z AUTO 36012KT 10SM OVC026 A2982 RMK MADISHF
TEB,2017-04-01 16:30,-74.0562,40.8590,M,M,M,350.00,12.00,M,29.83,M,10.00,M,OVC,M,M,M,2600.00,M,M,M,M,KTEB 011630Z AUTO 35012KT 10SM OVC026 A2983 RMK MADISHF
TEB,2017-04-01 16:35,-74.0562,40.8590,M,M,M,350.00,14.00,M,29.83,M,10.00,M,OVC,M,M,M,2600.00,M,M,M,M,KTEB 011635Z AUTO 35014KT 10SM OVC026 A2983 RMK MADISHF
TEB,2017-04-01 16:40,-74.0562,40.8590,M,M,M,350.00,13.00,M,29.83,M,10.00,M,OVC,M,M,M,2600.00,M,M,M,M,KTEB 011640Z AUTO 35013KT 10SM OVC026 A2983 RMK MADISHF
TEB,2017-04-01 16:45,-74.0562,40.8590,M,M,M,350.00,15.00,M,29.83,M,10.00,M,OVC,M,M,M,2500.00,M,M,M,M,KTEB 011645Z AUTO 35015KT 10SM OVC025 A2983 RMK MADISHF
TEB,2017-04-01 16:50,-74.0562,40.8590,M,M,M,350.00,16.00,M,29.83,M,10.00,M,OVC,M,M,M,2500.00,M,M,M,M,KTEB 011650Z AUTO 35016KT 10SM OVC025 A2983 RMK MADISHF
TEB,2017-04-01 16:51,-74.0562,40.8590,43.00,34.00,70.30,350.00,16.00,0.00,29.83,1010.10,10.00,24.00,OVC,M,M,M,2500.00,M,M,M,M,KTEB 011651Z 35016G24KT 10SM OVC025 06/01 A2983 RMK AO2 SLP101 T00610011 $
TEB,2017-04-01 16:55,-74.0562,40.8590,M,M,M,350.00,13.00,M,29.83,M,10.00,21.00,OVC,M,M,M,2500.00,M,M,M,M,KTEB 011655Z AUTO 35013G21KT 10SM OVC025 A2983 RMK MADISHF
TEB,2017-04-01 17:00,-74.0562,40.8590,M,M,M,360.00,15.00,M,29.83,M,10.00,20.00,OVC,M,M,M,2500.00,M,M,M,M,KTEB 011700Z AUTO 36015G20KT 10SM OVC025 A2983 RMK MADISHF
TEB,2017-04-01 17:05,-74.0562,40.8590,M,M,M,360.00,14.00,M,29.83,M,10.00,19.00,OVC,M,M,M,2700.00,M,M,M,M,KTEB 011705Z AUTO 36014G19KT 10SM OVC027 A2983 RMK MADISHF
TEB,2017-04-01 17:10,-74.0562,40.8590,M,M,M,20.00,15.00,M,29.83,M,10.00,23.00,OVC,M,M,M,2700.00,M,M,M,M,KTEB 011710Z AUTO 02015G23KT 10SM OVC027 A2983 RMK MADISHF
TEB,2017-04-01 17:15,-74.0562,40.8590,M,M,M,10.00,11.00,M,29.83,M,10.00,19.00,OVC,M,M,M,2700.00,M,M,M,M,KTEB 011715Z AUTO 01011G19KT 10SM OVC027 A2983 RMK MADISHF
TEB,2017-04-01 17:20,-74.0562,40.8590,M,M,M,360.00,13.00,M,29.83,M,10.00,M,OVC,M,M,M,2700.00,M,M,M,M,KTEB 011720Z AUTO 36013KT 10SM OVC027 A2983 RMK WND 34V05  MADISHF
TEB,2017-04-01 17:25,-74.0562,40.8590,M,M,M,30.00,13.00,M,29.83,M,10.00,19.00,BKN,OVC,M,M,2600.00,3100.00,M,M,M,KTEB 011725Z AUTO 03013G19KT 10SM BKN026 OVC031 A2983 RMK MADISHF
TEB,2017-04-01 17:30,-74.0562,40.8590,M,M,M,350.00,12.00,M,29.83,M,10.00,17.00,OVC,M,M,M,2600.00,M,M,M,M,KTEB 011730Z AUTO 35012G17KT 10SM OVC026 A2983 RMK MADISHF
TEB,2017-04-01 17:35,-74.0562,40.8590,M,M,M,10.00,14.00,M,29.84,M,10.00,M,BKN,OVC,M,M,2600.00,3200.00,M,M,M,KTEB 011735Z AUTO 01014KT 10SM BKN026 OVC032 A2984 RMK MADISHF
TEB,2017-04-01 17:40,-74.0562,40.8590,M,M,M,350.00,14.00,M,29.84,M,10.00,19.00,BKN,OVC,M,M,2600.00,3200.00,M,M,M,KTEB 011740Z AUTO 35014G19KT 10SM BKN026 OVC032 A2984 RMK MADISHF
TEB,2017-04-01 17:45,-74.0562,40.8590,M,M,M,10.00,14.00,M,29.84,M,10.00,M,OVC,M,M,M,2600.00,M,M,M,M,KTEB 011745Z AUTO 01014KT 10SM OVC026 A2984 RMK MADISHF
TEB,2017-04-01 17:50,-74.0562,40.8590,M,M,M,10.00,14.00,M,29.84,M,10.00,20.00,OVC,M,M,M,2800.00,M,M,M,M,KTEB 011750Z AUTO 01014G20KT 10SM OVC028 A2984 RMK MADISHF
TEB,2017-04-01 17:51,-74.0562,40.8590,44.10,34.00,67.41,10.00,16.00,0.00,29.84,1010.30,10.00,22.00,OVC,M,M,M,2800.00,M,M,M,M,KTEB 011751Z 01016G22KT 10SM OVC028 07/01 A2984 RMK AO2 SLP103 T00670011 10078 20028 51010 $
TEB,2017-04-01 17:55,-74.0562,40.8590,M,M,M,10.00,15.00,M,29.84,M,10.00,21.00,OVC,M,M,M,2800.00,M,M,M,M,KTEB 011755Z AUTO 01015G21KT 10SM OVC028 A2984 RMK MADISHF
TEB,2017-04-01 18:00,-74.0562,40.8590,M,M,M,10.00,14.00,M,29.84,M,10.00,20.00,OVC,M,M,M,2800.00,M,M,M,M,KTEB 011800Z AUTO 01014G20KT 10SM OVC028 A2984 RMK MADISHF
TEB,2017-04-01 18:05,-74.0562,40.8590,M,M,M,10.00,15.00,M,29.84,M,10.00,21.00,OVC,M,M,M,2800.00,M,M,M,M,KTEB 011805Z AUTO 01015G21KT 10SM OVC028 A2984 RMK MADISHF
TEB,2017-04-01 18:10,-74.0562,40.8590,M,M,M,10.00,14.00,M,29.84,M,10.00,19.00,OVC,M,M,M,2900.00,M,M,M,M,KTEB 011810Z AUTO 01014G19KT 10SM OVC029 A2984 RMK MADISHF
TEB,2017-04-01 18:15,-74.0562,40.8590,M,M,M,360.00,13.00,M,29.84,M,10.00,M,BKN,OVC,M,M,2900.00,3500.00,M,M,M,KTEB 011815Z AUTO 36013KT 10SM BKN029 OVC035 A2984 RMK MADISHF
TEB,2017-04-01 18:20,-74.0562,40.8590,M,M,M,20.00,13.00,M,29.84,M,10.00,19.00,BKN,OVC,M,M,2900.00,3500.00,M,M,M,KTEB 011820Z AUTO 02013G19KT 10SM BKN029 OVC035 A2984 RMK MADISHF
TEB,2017-04-01 18:25,-74.0562,40.8590,M,M,M,340.00,15.00,M,29.85,M,10.00,M,BKN,OVC,M,M,2900.00,3500.00,M,M,M,KTEB 011825Z AUTO 34015KT 10SM BKN029 OVC035 A2985 RMK MADISHF
TEB,2017-04-01 18:30,-74.0562,40.8590,M,M,M,340.00,15.00,M,29.85,M,10.00,M,BKN,OVC,M,M,2900.00,3500.00,M,M,M,KTEB 011830Z AUTO 34015KT 10SM BKN029 OVC035 A2985 RMK MADISHF
TEB,2017-04-01 18:35,-74.0562,40.8590,M,M,M,340.00,14.00,M,29.84,M,10.00,20.00,BKN,OVC,M,M,2900.00,3500.00,M,M,M,KTEB 011835Z AUTO 34014G20KT 10SM BKN029 OVC035 A2984 RMK MADISHF
TEB,2017-04-01 18:40,-74.0562,40.8590,M,M,M,350.00,14.00,M,29.85,M,10.00,M,BKN,OVC,M,M,2900.00,3500.00,M,M,M,KTEB 011840Z AUTO 35014KT 10SM BKN029 OVC035 A2985 RMK MADISHF
TEB,2017-04-01 18:45,-74.0562,40.8590,M,M,M,340.00,14.00,M,29.85,M,10.00,M,OVC,M,M,M,2900.00,M,M,M,M,KTEB 011845Z AUTO 34014KT 10SM OVC029 A2985 RMK MADISHF
TEB,2017-04-01 18:50,-74.0562,40.8590,M,M,M,360.00,12.00,M,29.86,M,10.00,M,OVC,M,M,M,2900.00,M,M,M,M,KTEB 011850Z AUTO 36012KT 10SM OVC029 A2986 RMK MADISHF
TEB,2017-04-01 18:51,-74.0562,40.8590,45.00,34.00,65.13,350.00,12.00,0.00,29.86,1011.00,10.00,M,OVC,M,M,M,2900.00,M,M,M,M,KTEB 011851Z 35012KT 10SM OVC029 07/01 A2986 RMK AO2 PK WND 01026/1804 SLP110 T00720011 $
TEB,2017-04-01 18:55,-74.0562,40.8590,M,M,M,10.00,13.00,M,29.86,M,10.00,M,OVC,M,M,M,2900.00,M,M,M,M,KTEB 011855Z AUTO 01013KT 10SM OVC029 A2986 RMK MADISHF
TEB,2017-04-01 19:00,-74.0562,40.8590,M,M,M,340.00,14.00,M,29.86,M,10.00,22.00,OVC,M,M,M,2900.00,M,M,M,M,KTEB 011900Z AUTO 34014G22KT 10SM OVC029 A2986 RMK MADISHF
TEB,2017-04-01 19:05,-74.0562,40.8590,M,M,M,360.00,12.00,M,29.86,M,10.00,17.00,OVC,M,M,M,2900.00,M,M,M,M,KTEB 011905Z AUTO 36012G17KT 10SM OVC029 A2986 RMK MADISHF
TEB,2017-04-01 19:10,-74.0562,40.8590,M,M,M,350.00,10.00,M,29.86,M,10.00,M,OVC,M,M,M,2900.00,M,M,M,M,KTEB 011910Z AUTO 35010KT 10SM OVC029 A2986 RMK MADISHF
TEB,2017-04-01 19:15,-74.0562,40.8590,M,M,M,360.00,13.00,M,29.86,M,10.00,M,OVC,M,M,M,2900.00,M,M,M,M,KTEB 011915Z AUTO 36013KT 10SM OVC029 A2986 RMK MADISHF
TEB,2017-04-01 19:20,-74.0562,40.8590,M,M,M,350.00,12.00,M,29.86,M,10.00,M,BKN,OVC,M,M,2900.00,3999.00,M,M,M,KTEB 011920Z AUTO 35012KT 10SM BKN029 OVC039 A2986 RMK MADISHF
TEB,2017-04-01 19:25,-74.0562,40.8590,M,M,M,360.00,11.00,M,29.86,M,10.00,16.00,BKN,OVC,M,M,2900.00,4200.00,M,M,M,KTEB 011925Z AUTO 36011G16KT 10SM BKN029 OVC042 A2986 RMK MADISHF
TEB,2017-04-01 19:30,-74.0562,40.8590,M,M,M,360.00,11.00,M,29.86,M,10.00,M,SCT,OVC,M,M,2900.00,4400.00,M,M,M,KTEB 011930Z AUTO 36011KT 10SM SCT029 OVC044 A2986 RMK MADISHF
TEB,2017-04-01 19:33,-74.0562,40.8590,46.00,34.00,62.71,350.00,10.00,0.00,29.86,M,10.00,M,SCT,OVC,M,M,2900.00,4600.00,M,M,M,KTEB 011933Z 35010KT 10SM SCT029 OVC046 08/01 A2986 RMK AO2 T00780011 $
TEB,2017-04-01 19:35,-74.0562,40.8590,M,M,M,10.00,10.00,M,29.86,M,10.00,15.00,SCT,OVC,M,M,2900.00,4600.00,M,M,M,KTEB 011935Z AUTO 01010G15KT 10SM SCT029 OVC046 A2986 RMK WND 34V04  MADISHF
TEB,2017-04-01 19:40,-74.0562,40.8590,M,M,M,340.00,10.00,M,29.86,M,10.00,M,SCT,OVC,M,M,2900.00,4600.00,M,M,M,KTEB 011940Z AUTO 34010KT 10SM SCT029 OVC046 A2986 RMK MADISHF
TEB,2017-04-01 19:45,-74.0562,40.8590,M,M,M,350.00,8.00,M,29.86,M,10.00,M,SCT,OVC,M,M,2900.00,4600.00,M,M,M,KTEB 011945Z AUTO 35008KT 10SM SCT029 OVC046 A2986 RMK MADISHF
TEB,2017-04-01 19:50,-74.0562,40.8590,M,M,M,340.00,11.00,M,29.87,M,10.00,M,SCT,OVC,M,M,2900.00,4700.00,M,M,M,KTEB 011950Z AUTO 34011KT 10SM SCT029 OVC047 A2987 RMK MADISHF
TEB,2017-04-01 19:51,-74.0562,40.8590,46.90,35.10,63.33,350.00,11.00,0.00,29.87,1011.40,10.00,17.00,SCT,OVC,M,M,2900.00,4700.00,M,M,M,KTEB 011951Z 35011G17KT 10SM SCT029 OVC047 08/02 A2987 RMK AO2 SLP114 T00830017 $
TEB,2017-04-01 19:55,-74.0562,40.8590,M,M,M,340.00,11.00,M,29.87,M,10.00,M,SCT,OVC,M,M,2900.00,4700.00,M,M,M,KTEB 011955Z AUTO 34011KT 10SM SCT029 OVC047 A2987 RMK MADISHF
TEB,2017-04-01 20:00,-74.0562,40.8590,M,M,M,30.00,12.00,M,29.87,M,10.00,19.00,SCT,OVC,M,M,3000.00,4700.00,M,M,M,KTEB 012000Z AUTO 03012G19KT 10SM SCT030 OVC047 A2987 RMK MADISHF
TEB,2017-04-01 20:05,-74.0562,40.8590,M,M,M,30.00,12.00,M,29.88,M,10.00,M,SCT,OVC,M,M,3000.00,4700.00,M,M,M,KTEB 012005Z AUTO 03012KT 10SM SCT030 OVC047 A2988 RMK MADISHF
TEB,2017-04-01 20:10,-74.0562,40.8590,M,M,M,360.00,10.00,M,29.88,M,10.00,M,SCT,SCT,OVC,M,3100.00,3999.00,4700.00,M,M,KTEB 012010Z AUTO 36010KT 10SM SCT031 SCT039 OVC047 A2988 RMK MADISHF
TEB,2017-04-01 20:15,-74.0562,40.8590,M,M,M,350.00,13.00,M,29.88,M,10.00,M,SCT,SCT,OVC,M,3100.00,3800.00,4700.00,M,M,KTEB 012015Z AUTO 35013KT 10SM SCT031 SCT038 OVC047 A2988 RMK MADISHF
TEB,2017-04-01 20:20,-74.0562,40.8590,M,M,M,360.00,10.00,M,29.89,M,10.00,M,FEW,OVC,M,M,3300.00,4700.00,M,M,M,KTEB 012020Z AUTO 36010KT 10SM FEW033 OVC047 A2989 RMK MADISHF
TEB,2017-04-01 20:25,-74.0562,40.8590,M,M,M,20.00,12.00,M,29.89,M,10.00,18.00,SCT,OVC,M,M,3300.00,4500.00,M,M,M,KTEB 012025Z AUTO 02012G18KT 10SM SCT033 OVC045 A2989 RMK MADISHF
TEB,2017-04-01 20:30,-74.0562,40.8590,M,M,M,40.00,12.00,M,29.89,M,10.00,17.00,BKN,BKN,OVC,M,3300.00,3999.00,4800.00,M,M,KTEB 012030Z AUTO 04012G17KT 10SM BKN033 BKN039 OVC048 A2989 RMK MADISHF
TEB,2017-04-01 20:35,-74.0562,40.8590,M,M,M,40.00,10.00,M,29.89,M,10.00,16.00,SCT,BKN,OVC,M,3300.00,3999.00,5000.00,M,M,KTEB 012035Z AUTO 04010G16KT 10SM SCT033 BKN039 OVC050 A2989 RMK MADISHF
TEB,2017-04-01 20:40,-74.0562,40.8590,M,M,M,30.00,10.00,M,29.89,M,10.00,M,SCT,BKN,OVC,M,3300.00,4200.00,5000.00,M,M,KTEB 012040Z AUTO 03010KT 10SM SCT033 BKN042 OVC050 A2989 RMK MADISHF
TEB,2017-04-01 20:45,-74.0562,40.8590,M,M,M,20.00,9.00,M,29.89,M,10.00,M,SCT,BKN,OVC,M,3300.00,4200.00,5000.00,M,M,KTEB 012045Z AUTO 02009KT 10SM SCT033 BKN042 OVC050 A2989 RMK WND 34V05  MADISHF
TEB,2017-04-01 20:50,-74.0562,40.8590,M,M,M,10.00,12.00,M,29.89,M,10.00,M,SCT,OVC,M,M,3300.00,5000.00,M,M,M,KTEB 012050Z AUTO 01012KT 10SM SCT033 OVC050 A2989 RMK MADISHF
TEB,2017-04-01 20:51,-74.0562,40.8590,46.90,35.10,63.33,20.00,12.00,0.00,29.89,1012.20,10.00,22.00,SCT,OVC,M,M,3300.00,5000.00,M,M,M,KTEB 012051Z 02012G22KT 10SM SCT033 OVC050 08/02 A2989 RMK AO2 SLP122 T00830017 53019 $
TEB,2017-04-01 20:55,-74.0562,40.8590,M,M,M,20.00,14.00,M,29.89,M,10.00,M,SCT,OVC,M,M,3300.00,5000.00,M,M,M,KTEB 012055Z AUTO 02014KT 10SM SCT033 OVC050 A2989 RMK WND 35V05  MADISHF
TEB,2017-04-01 21:00,-74.0562,40.8590,M,M,M,10.00,11.00,M,29.90,M,10.00,16.00,FEW,OVC,M,M,3300.00,5000.00,M,M,M,KTEB 012100Z AUTO 01011G16KT 10SM FEW033 OVC050 A2990 RMK WND 35V05  MADISHF
TEB,2017-04-01 21:05,-74.0562,40.8590,M,M,M,350.00,13.00,M,29.90,M,10.00,M,FEW,OVC,M,M,3300.00,5000.00,M,M,M,KTEB 012105Z AUTO 35013KT 10SM FEW033 OVC050 A2990 RMK MADISHF
TEB,2017-04-01 21:10,-74.0562,40.8590,M,M,M,10.00,11.00,M,29.91,M,10.00,M,FEW,OVC,M,M,3300.00,5500.00,M,M,M,KTEB 012110Z AUTO 01011KT 10SM FEW033 OVC055 A2991 RMK MADISHF
TEB,2017-04-01 21:15,-74.0562,40.8590,M,M,M,10.00,11.00,M,29.91,M,10.00,20.00,OVC,M,M,M,5500.00,M,M,M,M,KTEB 012115Z AUTO 01011G20KT 10SM OVC055 A2991 RMK WND 34V05  MADISHF
TEB,2017-04-01 21:20,-74.0562,40.8590,M,M,M,350.00,12.00,M,29.91,M,10.00,17.00,OVC,M,M,M,5500.00,M,M,M,M,KTEB 012120Z AUTO 35012G17KT 10SM OVC055 A2991 RMK MADISHF
TEB,2017-04-01 21:25,-74.0562,40.8590,M,M,M,30.00,13.00,M,29.91,M,10.00,M,OVC,M,M,M,5500.00,M,M,M,M,KTEB 012125Z AUTO 03013KT 10SM OVC055 A2991 RMK MADISHF
TEB,2017-04-01 21:30,-74.0562,40.8590,M,M,M,360.00,11.00,M,29.91,M,10.00,16.00,OVC,M,M,M,5500.00,M,M,M,M,KTEB 012130Z AUTO 36011G16KT 10SM OVC055 A2991 RMK WND 34V04  MADISHF
TEB,2017-04-01 21:35,-74.0562,40.8590,M,M,M,30.00,9.00,M,29.92,M,10.00,M,OVC,M,M,M,5500.00,M,M,M,M,KTEB 012135Z AUTO 03009KT 10SM OVC055 A2992 RMK MADISHF
TEB,2017-04-01 21:40,-74.0562,40.8590,M,M,M,10.00,9.00,M,29.92,M,10.00,M,OVC,M,M,M,5500.00,M,M,M,M,KTEB 012140Z AUTO 01009KT 10SM OVC055 A2992 RMK MADISHF
TEB,2017-04-01 21:45,-74.0562,40.8590,M,M,M,20.00,10.00,M,29.92,M,10.00,16.00,OVC,M,M,M,6000.00,M,M,M,M,KTEB 012145Z AUTO 02010G16KT 10SM OVC060 A2992 RMK MADISHF
TEB,2017-04-01 21:50,-74.0562,40.8590,M,M,M,40.00,8.00,M,29.92,M,10.00,M,OVC,M,M,M,6000.00,M,M,M,M,KTEB 012150Z AUTO 04008KT 10SM OVC060 A2992 RMK MADISHF
TEB,2017-04-01 21:51,-74.0562,40.8590,46.00,34.00,62.71,40.00,8.00,0.00,29.92,1013.30,10.00,17.00,OVC,M,M,M,6000.00,M,M,M,M,KTEB 012151Z 04008G17KT 10SM OVC060 08/01 A2992 RMK AO2 SLP133 T00780011 $
TEB,2017-04-01 21:55,-74.0562,40.8590,M,M,M,20.00,5.00,M,29.92,M,10.00,M,OVC,M,M,M,6000.00,M,M,M,M,KTEB 012155Z AUTO 02005KT 10SM OVC060 A2992 RMK MADISHF
TEB,2017-04-01 22:00,-74.0562,40.8590,M,M,M,30.00,9.00,M,29.93,M,10.00,M,BKN,OVC,M,M,6000.00,7999.00,M,M,M,KTEB 012200Z AUTO 03009KT 10SM BKN060 OVC079 A2993 RMK MADISHF
TEB,2017-04-01 22:05,-74.0562,40.8590,M,M,M,40.00,8.00,M,29.93,M,10.00,M,BKN,OVC,M,M,6000.00,7999.00,M,M,M,KTEB 012205Z AUTO 04008KT 10SM BKN060 OVC079 A2993 RMK MADISHF
TEB,2017-04-01 22:10,-74.0562,40.8590,M,M,M,30.00,8.00,M,29.93,M,10.00,M,BKN,OVC,M,M,6500.00,7999.00,M,M,M,KTEB 012210Z AUTO 03008KT 10SM BKN065 OVC079 A2993 RMK MADISHF
TEB,2017-04-01 22:15,-74.0562,40.8590,M,M,M,30.00,7.00,M,29.93,M,10.00,M,OVC,M,M,M,6000.00,M,M,M,M,KTEB 012215Z AUTO 03007KT 10SM OVC060 A2993 RMK MADISHF
TEB,2017-04-01 22:20,-74.0562,40.8590,M,M,M,30.00,7.00,M,29.93,M,10.00,M,BKN,BKN,M,M,6000.00,7999.00,M,M,M,KTEB 012220Z AUTO 03007KT 10SM BKN060 BKN079 A2993 RMK MADISHF
TEB,2017-04-01 22:25,-74.0562,40.8590,M,M,M,30.00,7.00,M,29.93,M,10.00,M,BKN,BKN,M,M,6000.00,7999.00,M,M,M,KTEB 012225Z AUTO 03007KT 10SM BKN060 BKN079 A2993 RMK MADISHF
TEB,2017-04-01 22:30,-74.0562,40.8590,M,M,M,30.00,5.00,M,29.94,M,10.00,M,BKN,M,M,M,6000.00,M,M,M,M,KTEB 012230Z AUTO 03005KT 10SM BKN060 A2994 RMK MADISHF
TEB,2017-04-01 22:35,-74.0562,40.8590,M,M,M,20.00,6.00,M,29.94,M,10.00,M,SCT,M,M,M,6000.00,M,M,M,M,KTEB 012235Z AUTO 02006KT 10SM SCT060 A2994 RMK MADISHF
TEB,2017-04-01 22:40,-74.0562,40.8590,M,M,M,20.00,5.00,M,29.94,M,10.00,M,FEW,M,M,M,6000.00,M,M,M,M,KTEB 012240Z AUTO 02005KT 10SM FEW060 A2994 RMK MADISHF
TEB,2017-04-01 22:45,-74.0562,40.8590,M,M,M,30.00,5.00,M,29.94,M,10.00,M,FEW,M,M,M,6000.00,M,M,M,M,KTEB 012245Z AUTO 03005KT 10SM FEW060 A2994 RMK MADISHF
TEB,2017-04-01 22:50,-74.0562,40.8590,M,M,M,30.00,5.00,M,29.95,M,10.00,M,FEW,M,M,M,6000.00,M,M,M,M,KTEB 012250Z AUTO 03005KT 10SM FEW060 A2995 RMK MADISHF
TEB,2017-04-01 22:51,-74.0562,40.8590,46.00,35.10,65.52,30.00,5.00,0.00,29.95,1014.10,10.00,M,FEW,M,M,M,6000.00,M,M,M,M,KTEB 012251Z 03005KT 10SM FEW060 08/02 A2995 RMK AO2 SLP141 T00780017 $
TEB,2017-04-01 22:55,-74.0562,40.8590,M,M,M,40.00,6.00,M,29.95,M,10.00,M,FEW,M,M,M,6000.00,M,M,M,M,KTEB 012255Z AUTO 04006KT 10SM FEW060 A2995 RMK MADISHF
TEB,2017-04-01 23:00,-74.0562,40.8590,M,M,M,30.00,5.00,M,29.96,M,10.00,M,CLR,M,M,M,M,M,M,M,M,KTEB 012300Z AUTO 03005KT 10SM CLR A2996 RMK MADISHF
TEB,2017-04-01 23:05,-74.0562,40.8590,M,M,M,20.00,6.00,M,29.96,M,10.00,M,CLR,M,M,M,M,M,M,M,M,KTEB 012305Z AUTO 02006KT 10SM CLR A2996 RMK MADISHF
TEB,2017-04-01 23:10,-74.0562,40.8590,M,M,M,10.00,6.00,M,29.96,M,10.00,M,FEW,M,M,M,7999.00,M,M,M,M,KTEB 012310Z AUTO 01006KT 10SM FEW079 A2996 RMK MADISHF
TEB,2017-04-01 23:15,-74.0562,40.8590,M,M,M,20.00,5.00,M,29.97,M,10.00,M,FEW,M,M,M,7999.00,M,M,M,M,KTEB 012315Z AUTO 02005KT 10SM FEW079 A2997 RMK MADISHF
TEB,2017-04-01 23:20,-74.0562,40.8590,M,M,M,10.00,7.00,M,29.97,M,10.00,M,FEW,SCT,M,M,3700.00,7999.00,M,M,M,KTEB 012320Z AUTO 01007KT 10SM FEW037 SCT079 A2997 RMK MADISHF
TEB,2017-04-01 23:25,-74.0562,40.8590,M,M,M,10.00,7.00,M,29.97,M,10.00,M,SCT,BKN,M,M,3700.00,7999.00,M,M,M,KTEB 012325Z AUTO 01007KT 10SM SCT037 BKN079 A2997 RMK MADISHF
TEB,2017-04-01 23:30,-74.0562,40.8590,M,M,M,10.00,6.00,M,29.97,M,10.00,M,BKN,BKN,M,M,3700.00,7999.00,M,M,M,KTEB 012330Z AUTO 01006KT 10SM BKN037 BKN079 A2997 RMK VRB06KT  MADISHF
TEB,2017-04-01 23:35,-74.0562,40.8590,M,M,M,10.00,7.00,M,29.98,M,10.00,M,BKN,BKN,M,M,3700.00,7999.00,M,M,M,KTEB 012335Z AUTO 01007KT 10SM BKN037 BKN079 A2998 RMK MADISHF
TEB,2017-04-01 23:40,-74.0562,40.8590,M,M,M,350.00,7.00,M,29.98,M,10.00,M,BKN,OVC,M,M,3900.00,7999.00,M,M,M,KTEB 012340Z AUTO 35007KT 10SM BKN039 OVC079 A2998 RMK MADISHF
TEB,2017-04-01 23:45,-74.0562,40.8590,M,M,M,10.00,6.00,M,29.98,M,10.00,M,BKN,OVC,M,M,3900.00,7999.00,M,M,M,KTEB 012345Z AUTO 01006KT 10SM BKN039 OVC079 A2998 RMK MADISHF
TEB,2017-04-01 23:50,-74.0562,40.8590,M,M,M,20.00,6.00,M,29.97,M,10.00,M,BKN,OVC,M,M,3900.00,7999.00,M,M,M,KTEB 012350Z AUTO 02006KT 10SM BKN039 OVC079 A2997 RMK MADISHF
TEB,2017-04-01 23:51,-74.0562,40.8590,46.00,34.00,62.71,20.00,6.00,0.00,29.97,1015.00,10.00,M,BKN,OVC,M,M,3900.00,8000.00,M,M,M,KTEB 012351Z 02006KT 10SM BKN039 OVC080 08/01 A2997 RMK AO2 SLP150 T00780011 10083 20067 51028 $
TEB,2017-04-01 23:55,-74.0562,40.8590,M,M,M,360.00,6.00,M,29.98,M,10.00,M,SCT,BKN,M,M,4100.00,7999.00,M,M,M,KTEB 012355Z AUTO 36006KT 10SM SCT041 BKN079 A2998 RMK MADISHF
