#DEBUG: Format Typ    -> comma
#DEBUG: Time Period   -> 2017-04-01 00:00:00+00:00 2017-04-02 00:00:00+00:00
#DEBUG: Time Zone     -> Etc/UTC
#DEBUG: Data Contact   -> daryl herzmann akrherz@iastate.edu 515-294-5978
#DEBUG: Entries Found -> -1
station,valid,lon,lat,tmpf, dwpf, relh, drct, sknt, p01i, alti, mslp, vsby, gust, skyc1, skyc2, skyc3, skyc4, skyl1, skyl2, skyl3, skyl4, presentwx, metar
TVK,2017-04-01 00:05,-92.8983,40.6832,41.00,39.20,93.24,0.00,0.00,0.00,30.05,M,10.00,M,OVC,M,M,M,1400.00,M,M,M,M,KTVK 010005Z AUTO 00000KT 10SM OVC014 05/04 A3005 RMK AO2
TVK,2017-04-01 00:15,-92.8983,40.6832,41.00,37.40,86.89,350.00,8.00,0.00,30.06,M,10.00,M,OVC,M,M,M,1400.00,M,M,M,M,KTVK 010015Z AUTO 35008KT 10SM OVC014 05/03 A3006 RMK AO2
TVK,2017-04-01 00:25,-92.8983,40.6832,41.00,37.40,86.89,350.00,7.00,0.00,30.06,M,10.00,M,OVC,M,M,M,1400.00,M,M,M,M,KTVK 010025Z AUTO 35007KT 10SM OVC014 05/03 A3006 RMK AO2
TVK,2017-04-01 00:35,-92.8983,40.6832,41.00,37.40,86.89,360.00,4.00,0.00,30.07,M,10.00,M,OVC,M,M,M,1400.00,M,M,M,M,KTVK 010035Z AUTO 36004KT 10SM OVC014 05/03 A3007 RMK AO2
TVK,2017-04-01 00:45,-92.8983,40.6832,41.00,39.20,93.24,0.00,0.00,0.00,30.07,M,10.00,M,OVC,M,M,M,1400.00,M,M,M,M,KTVK 010045Z AUTO 00000KT 10SM OVC014 05/04 A3007 RMK AO2
TVK,2017-04-01 00:55,-92.8983,40.6832,41.00,37.40,86.89,360.00,6.00,0.00,30.08,M,10.00,M,OVC,M,M,M,1400.00,M,M,M,M,KTVK 010055Z AUTO 36006KT 10SM OVC014 05/03 A3008 RMK AO2
TVK,2017-04-01 01:05,-92.8983,40.6832,41.00,37.40,86.89,360.00,8.00,0.00,30.08,M,10.00,M,OVC,M,M,M,1400.00,M,M,M,M,KTVK 010105Z AUTO 36008KT 10SM OVC014 05/03 A3008 RMK AO2
TVK,2017-04-01 01:15,-92.8983,40.6832,41.00,37.40,86.89,20.00,8.00,0.00,30.08,M,10.00,M,OVC,M,M,M,1400.00,M,M,M,M,KTVK 010115Z AUTO 02008KT 10SM OVC014 05/03 A3008 RMK AO2
TVK,2017-04-01 01:25,-92.8983,40.6832,41.00,37.40,86.89,40.00,9.00,0.00,30.08,M,10.00,M,OVC,M,M,M,1200.00,M,M,M,M,KTVK 010125Z AUTO 04009KT 10SM OVC012 05/03 A3008 RMK AO2
TVK,2017-04-01 01:35,-92.8983,40.6832,39.20,37.40,93.19,0.00,0.00,0.00,30.09,M,10.00,M,OVC,M,M,M,1200.00,M,M,M,M,KTVK 010135Z AUTO 00000KT 10SM OVC012 04/03 A3009 RMK AO2
TVK,2017-04-01 01:45,-92.8983,40.6832,39.20,37.40,93.19,10.00,5.00,0.00,30.09,M,10.00,M,OVC,M,M,M,1200.00,M,M,M,M,KTVK 010145Z AUTO 01005KT 10SM OVC012 04/03 A3009 RMK AO2
TVK,2017-04-01 01:55,-92.8983,40.6832,39.20,37.40,93.19,0.00,0.00,0.00,30.10,M,10.00,M,OVC,M,M,M,1200.00,M,M,M,M,KTVK 010155Z AUTO 00000KT 10SM OVC012 04/03 A3010 RMK AO2
TVK,2017-04-01 02:05,-92.8983,40.6832,39.20,37.40,93.19,0.00,0.00,0.00,30.11,M,10.00,M,OVC,M,M,M,1200.00,M,M,M,M,KTVK 010205Z AUTO 00000KT 10SM OVC012 04/03 A3011 RMK AO2
TVK,2017-04-01 02:15,-92.8983,40.6832,39.20,37.40,93.19,0.00,0.00,0.00,30.11,M,10.00,M,OVC,M,M,M,1200.00,M,M,M,M,KTVK 010215Z AUTO 00000KT 10SM OVC012 04/03 A3011 RMK AO2
TVK,2017-04-01 02:25,-92.8983,40.6832,39.20,37.40,93.19,10.00,3.00,0.00,30.11,M,10.00,M,OVC,M,M,M,1200.00,M,M,M,M,KTVK 010225Z AUTO 01003KT 10SM OVC012 04/03 A3011 RMK AO2
TVK,2017-04-01 02:35,-92.8983,40.6832,39.20,37.40,93.19,20.00,4.00,0.00,30.11,M,10.00,M,OVC,M,M,M,1200.00,M,M,M,M,KTVK 010235Z AUTO 02004KT 10SM OVC012 04/03 A3011 RMK AO2
TVK,2017-04-01 02:45,-92.8983,40.6832,39.20,37.40,93.19,30.00,3.00,0.00,30.11,M,10.00,M,OVC,M,M,M,1200.00,M,M,M,M,KTVK 010245Z AUTO 03003KT 10SM OVC012 04/03 A3011 RMK AO2
TVK,2017-04-01 02:55,-92.8983,40.6832,39.20,37.40,93.19,30.00,3.00,0.00,30.10,M,10.00,M,OVC,M,M,M,1400.00,M,M,M,M,KTVK 010255Z AUTO 03003KT 10SM OVC014 04/03 A3010 RMK AO2
TVK,2017-04-01 03:05,-92.8983,40.6832,39.20,37.40,93.19,0.00,0.00,0.00,30.10,M,10.00,M,OVC,M,M,M,1400.00,M,M,M,M,KTVK 010305Z AUTO 00000KT 10SM OVC014 04/03 A3010 RMK AO2
TVK,2017-04-01 03:15,-92.8983,40.6832,39.20,37.40,93.19,30.00,3.00,0.00,30.10,M,10.00,M,OVC,M,M,M,1400.00,M,M,M,M,KTVK 010315Z AUTO 03003KT 10SM OVC014 04/03 A3010 RMK AO2
TVK,2017-04-01 03:25,-92.8983,40.6832,41.00,37.40,86.89,40.00,3.00,0.00,30.11,M,10.00,M,OVC,M,M,M,1400.00,M,M,M,M,KTVK 010325Z AUTO 04003KT 10SM OVC014 05/03 A3011 RMK AO2
TVK,2017-04-01 03:35,-92.8983,40.6832,41.00,37.40,86.89,0.00,0.00,0.00,30.12,M,10.00,M,OVC,M,M,M,1400.00,M,M,M,M,KTVK 010335Z AUTO 00000KT 10SM OVC014 05/03 A3012 RMK AO2
TVK,2017-04-01 03:45,-92.8983,40.6832,39.20,37.40,93.19,0.00,0.00,0.00,30.11,M,10.00,M,OVC,M,M,M,1400.00,M,M,M,M,KTVK 010345Z AUTO 00000KT 10SM OVC014 04/03 A3011 RMK AO2
TVK,2017-04-01 03:55,-92.8983,40.6832,41.00,37.40,86.89,50.00,5.00,0.00,30.11,M,10.00,M,OVC,M,M,M,1400.00,M,M,M,M,KTVK 010355Z AUTO 05005KT 10SM OVC014 05/03 A3011 RMK AO2
TVK,2017-04-01 04:05,-92.8983,40.6832,41.00,37.40,86.89,40.00,4.00,0.00,30.12,M,10.00,M,OVC,M,M,M,1400.00,M,M,M,M,KTVK 010405Z AUTO 04004KT 10SM OVC014 05/03 A3012 RMK AO2
TVK,2017-04-01 04:15,-92.8983,40.6832,41.00,37.40,86.89,50.00,3.00,0.00,30.12,M,10.00,M,OVC,M,M,M,1400.00,M,M,M,M,KTVK 010415Z AUTO 05003KT 10SM OVC014 05/03 A3012 RMK AO2
TVK,2017-04-01 04:25,-92.8983,40.6832,41.00,37.40,86.89,30.00,4.00,0.00,30.12,M,10.00,M,OVC,M,M,M,1400.00,M,M,M,M,KTVK 010425Z AUTO 03004KT 10SM OVC014 05/03 A3012 RMK AO2
TVK,2017-04-01 04:35,-92.8983,40.6832,41.00,37.40,86.89,50.00,3.00,0.00,30.13,M,10.00,M,OVC,M,M,M,1400.00,M,M,M,M,KTVK 010435Z AUTO 05003KT 10SM OVC014 05/03 A3013 RMK AO2
TVK,2017-04-01 04:45,-92.8983,40.6832,41.00,37.40,86.89,0.00,0.00,0.00,30.13,M,10.00,M,OVC,M,M,M,1400.00,M,M,M,M,KTVK 010445Z AUTO 00000KT 10SM OVC014 05/03 A3013 RMK AO2
TVK,2017-04-01 04:55,-92.8983,40.6832,41.00,37.40,86.89,0.00,0.00,0.00,30.14,M,10.00,M,OVC,M,M,M,1400.00,M,M,M,M,KTVK 010455Z AUTO 00000KT 10SM OVC014 05/03 A3014 RMK AO2
TVK,2017-04-01 05:05,-92.8983,40.6832,41.00,37.40,86.89,0.00,0.00,0.00,30.15,M,10.00,M,OVC,M,M,M,1400.00,M,M,M,M,KTVK 010505Z AUTO 00000KT 10SM OVC014 05/03 A3015 RMK AO2
TVK,2017-04-01 05:15,-92.8983,40.6832,41.00,37.40,86.89,0.00,0.00,0.00,30.15,M,10.00,M,OVC,M,M,M,1400.00,M,M,M,M,KTVK 010515Z AUTO 00000KT 10SM OVC014 05/03 A3015 RMK AO2
TVK,2017-04-01 05:25,-92.8983,40.6832,41.00,37.40,86.89,0.00,0.00,0.00,30.15,M,10.00,M,OVC,M,M,M,1400.00,M,M,M,M,KTVK 010525Z AUTO 00000KT 10SM OVC014 05/03 A3015 RMK AO2
TVK,2017-04-01 05:35,-92.8983,40.6832,41.00,37.40,86.89,0.00,0.00,0.00,30.15,M,10.00,M,OVC,M,M,M,1400.00,M,M,M,M,KTVK 010535Z AUTO 00000KT 10SM OVC014 05/03 A3015 RMK AO2
TVK,2017-04-01 05:45,-92.8983,40.6832,41.00,37.40,86.89,0.00,0.00,0.00,30.15,M,10.00,M,OVC,M,M,M,1400.00,M,M,M,M,KTVK 010545Z AUTO 00000KT 10SM OVC014 05/03 A3015 RMK AO2
TVK,2017-04-01 05:55,-92.8983,40.6832,41.00,37.40,86.89,0.00,0.00,0.00,30.15,M,10.00,M,OVC,M,M,M,1400.00,M,M,M,M,KTVK 010555Z AUTO 00000KT 10SM OVC014 05/03 A3015 RMK AO2
TVK,2017-04-01 06:05,-92.8983,40.6832,41.00,37.40,86.89,0.00,0.00,0.00,30.15,M,10.00,M,OVC,M,M,M,1400.00,M,M,M,M,KTVK 010605Z AUTO 00000KT 10SM OVC014 05/03 A3015 RMK AO2
TVK,2017-04-01 06:15,-92.8983,40.6832,41.00,37.40,86.89,0.00,0.00,0.00,30.15,M,10.00,M,OVC,M,M,M,1400.00,M,M,M,M,KTVK 010615Z AUTO 00000KT 10SM OVC014 05/03 A3015 RMK AO2
TVK,2017-04-01 06:25,-92.8983,40.6832,39.20,37.40,93.19,0.00,0.00,0.00,30.16,M,10.00,M,OVC,M,M,M,1400.00,M,M,M,M,KTVK 010625Z AUTO 00000KT 10SM OVC014 04/03 A3016 RMK AO2
TVK,2017-04-01 06:35,-92.8983,40.6832,39.20,37.40,93.19,0.00,0.00,0.00,30.15,M,10.00,M,OVC,M,M,M,1400.00,M,M,M,M,KTVK 010635Z AUTO 00000KT 10SM OVC014 04/03 A3015 RMK AO2
TVK,2017-04-01 06:45,-92.8983,40.6832,39.20,37.40,93.19,0.00,0.00,0.00,30.16,M,10.00,M,OVC,M,M,M,1400.00,M,M,M,M,KTVK 010645Z AUTO 00000KT 10SM OVC014 04/03 A3016 RMK AO2
TVK,2017-04-01 06:55,-92.8983,40.6832,39.20,37.40,93.19,0.00,0.00,0.00,30.17,M,10.00,M,OVC,M,M,M,1400.00,M,M,M,M,KTVK 010655Z AUTO 00000KT 10SM OVC014 04/03 A3017 RMK AO2
TVK,2017-04-01 07:05,-92.8983,40.6832,41.00,37.40,86.89,0.00,0.00,0.00,30.17,M,10.00,M,OVC,M,M,M,1600.00,M,M,M,M,KTVK 010705Z AUTO 00000KT 10SM OVC016 05/03 A3017 RMK AO2
TVK,2017-04-01 07:15,-92.8983,40.6832,41.00,37.40,86.89,0.00,0.00,0.00,30.17,M,10.00,M,OVC,M,M,M,1600.00,M,M,M,M,KTVK 010715Z AUTO 00000KT 10SM OVC016 05/03 A3017 RMK AO2
TVK,2017-04-01 07:25,-92.8983,40.6832,39.20,37.40,93.19,0.00,0.00,0.00,30.17,M,10.00,M,OVC,M,M,M,1600.00,M,M,M,M,KTVK 010725Z AUTO 00000KT 10SM OVC016 04/03 A3017 RMK AO2
TVK,2017-04-01 07:35,-92.8983,40.6832,39.20,37.40,93.19,0.00,0.00,0.00,30.17,M,10.00,M,OVC,M,M,M,1600.00,M,M,M,M,KTVK 010735Z AUTO 00000KT 10SM OVC016 04/03 A3017 RMK AO2
TVK,2017-04-01 07:45,-92.8983,40.6832,39.20,37.40,93.19,0.00,0.00,0.00,30.17,M,10.00,M,BKN,M,M,M,1600.00,M,M,M,M,KTVK 010745Z AUTO 00000KT 10SM BKN016 04/03 A3017 RMK AO2
TVK,2017-04-01 07:55,-92.8983,40.6832,39.20,37.40,93.19,0.00,0.00,0.00,30.17,M,10.00,M,OVC,M,M,M,1600.00,M,M,M,M,KTVK 010755Z AUTO 00000KT 10SM OVC016 04/03 A3017 RMK AO2
TVK,2017-04-01 08:05,-92.8983,40.6832,39.20,37.40,93.19,0.00,0.00,0.00,30.18,M,10.00,M,BKN,M,M,M,1600.00,M,M,M,M,KTVK 010805Z AUTO 00000KT 10SM BKN016 04/03 A3018 RMK AO2
TVK,2017-04-01 08:15,-92.8983,40.6832,37.40,37.40,100.00,0.00,0.00,0.00,30.17,M,10.00,M,BKN,M,M,M,1600.00,M,M,M,M,KTVK 010815Z AUTO 00000KT 10SM BKN016 03/03 A3017 RMK AO2
TVK,2017-04-01 08:25,-92.8983,40.6832,37.40,37.40,100.00,0.00,0.00,0.00,30.18,M,10.00,M,BKN,M,M,M,1600.00,M,M,M,M,KTVK 010825Z AUTO 00000KT 10SM BKN016 03/03 A3018 RMK AO2
TVK,2017-04-01 08:35,-92.8983,40.6832,37.40,37.40,100.00,0.00,0.00,0.00,30.18,M,10.00,M,OVC,M,M,M,1600.00,M,M,M,M,KTVK 010835Z AUTO 00000KT 10SM OVC016 03/03 A3018 RMK AO2
TVK,2017-04-01 08:45,-92.8983,40.6832,37.40,37.40,100.00,0.00,0.00,0.00,30.18,M,10.00,M,OVC,M,M,M,1600.00,M,M,M,M,KTVK 010845Z AUTO 00000KT 10SM OVC016 03/03 A3018 RMK AO2
TVK,2017-04-01 08:55,-92.8983,40.6832,37.40,37.40,100.00,0.00,0.00,0.00,30.18,M,10.00,M,OVC,M,M,M,1600.00,M,M,M,M,KTVK 010855Z AUTO 00000KT 10SM OVC016 03/03 A3018 RMK AO2
TVK,2017-04-01 09:05,-92.8983,40.6832,37.40,37.40,100.00,0.00,0.00,0.00,30.18,M,10.00,M,OVC,M,M,M,1600.00,M,M,M,M,KTVK 010905Z AUTO 00000KT 10SM OVC016 03/03 A3018 RMK AO2
TVK,2017-04-01 09:15,-92.8983,40.6832,37.40,37.40,100.00,0.00,0.00,0.00,30.18,M,10.00,M,BKN,M,M,M,1600.00,M,M,M,M,KTVK 010915Z AUTO 00000KT 10SM BKN016 03/03 A3018 RMK AO2
TVK,2017-04-01 09:25,-92.8983,40.6832,37.40,37.40,100.00,0.00,0.00,0.00,30.18,M,10.00,M,SCT,M,M,M,1600.00,M,M,M,M,KTVK 010925Z AUTO 00000KT 10SM SCT016 03/03 A3018 RMK AO2
TVK,2017-04-01 09:35,-92.8983,40.6832,37.40,37.40,100.00,0.00,0.00,0.00,30.18,M,10.00,M,FEW,M,M,M,1600.00,M,M,M,M,KTVK 010935Z AUTO 00000KT 10SM FEW016 03/03 A3018 RMK AO2
TVK,2017-04-01 09:45,-92.8983,40.6832,37.40,37.40,100.00,0.00,0.00,0.00,30.18,M,10.00,M,CLR,M,M,M,M,M,M,M,M,KTVK 010945Z AUTO 00000KT 10SM CLR 03/03 A3018 RMK AO2
TVK,2017-04-01 09:55,-92.8983,40.6832,37.40,37.40,100.00,0.00,0.00,0.00,30.19,M,10.00,M,CLR,M,M,M,M,M,M,M,M,KTVK 010955Z AUTO 00000KT 10SM CLR 03/03 A3019 RMK AO2
TVK,2017-04-01 10:05,-92.8983,40.6832,37.40,35.60,93.14,0.00,0.00,0.00,30.18,M,10.00,M,CLR,M,M,M,M,M,M,M,M,KTVK 011005Z AUTO 00000KT 10SM CLR 03/02 A3018 RMK AO2
TVK,2017-04-01 10:15,-92.8983,40.6832,35.60,35.60,100.00,0.00,0.00,0.00,30.19,M,10.00,M,CLR,M,M,M,M,M,M,M,M,KTVK 011015Z AUTO 00000KT 10SM CLR 02/02 A3019 RMK AO2
TVK,2017-04-01 10:25,-92.8983,40.6832,35.60,35.60,100.00,0.00,0.00,0.00,30.19,M,10.00,M,CLR,M,M,M,M,M,M,M,M,KTVK 011025Z AUTO 00000KT 10SM CLR 02/02 A3019 RMK AO2
TVK,2017-04-01 10:35,-92.8983,40.6832,35.60,35.60,100.00,0.00,0.00,0.00,30.19,M,10.00,M,CLR,M,M,M,M,M,M,M,M,KTVK 011035Z AUTO 00000KT 10SM CLR 02/02 A3019 RMK AO2
TVK,2017-04-01 10:45,-92.8983,40.6832,35.60,35.60,100.00,0.00,0.00,0.00,30.20,M,10.00,M,CLR,M,M,M,M,M,M,M,M,KTVK 011045Z AUTO 00000KT 10SM CLR 02/02 A3020 RMK AO2
TVK,2017-04-01 10:55,-92.8983,40.6832,35.60,35.60,100.00,0.00,0.00,0.00,30.19,M,10.00,M,CLR,M,M,M,M,M,M,M,M,KTVK 011055Z AUTO 00000KT 10SM CLR 02/02 A3019 RMK AO2
TVK,2017-04-01 11:05,-92.8983,40.6832,35.60,35.60,100.00,0.00,0.00,0.00,30.20,M,10.00,M,CLR,M,M,M,M,M,M,M,M,KTVK 011105Z AUTO 00000KT 10SM CLR 02/02 A3020 RMK AO2
TVK,2017-04-01 11:15,-92.8983,40.6832,35.60,35.60,100.00,0.00,0.00,0.00,30.21,M,10.00,M,CLR,M,M,M,M,M,M,M,M,KTVK 011115Z AUTO 00000KT 10SM CLR 02/02 A3021 RMK AO2
TVK,2017-04-01 11:25,-92.8983,40.6832,35.60,35.60,100.00,0.00,0.00,0.00,30.21,M,10.00,M,CLR,M,M,M,M,M,M,M,M,KTVK 011125Z AUTO 00000KT 10SM CLR 02/02 A3021 RMK AO2
TVK,2017-04-01 11:35,-92.8983,40.6832,35.60,35.60,100.00,0.00,0.00,0.00,30.21,M,10.00,M,CLR,M,M,M,M,M,M,M,M,KTVK 011135Z AUTO 00000KT 10SM CLR 02/02 A3021 RMK AO2
TVK,2017-04-01 11:45,-92.8983,40.6832,35.60,35.60,100.00,0.00,0.00,0.00,30.22,M,10.00,M,CLR,M,M,M,M,M,M,M,M,KTVK 011145Z AUTO 00000KT 10SM CLR 02/02 A3022 RMK AO2
TVK,2017-04-01 11:55,-92.8983,40.6832,35.60,35.60,100.00,0.00,0.00,0.00,30.23,M,10.00,M,CLR,M,M,M,M,M,M,M,M,KTVK 011155Z AUTO 00000KT 10SM CLR 02/02 A3023 RMK AO2
TVK,2017-04-01 12:05,-92.8983,40.6832,35.60,35.60,100.00,0.00,0.00,0.00,30.23,M,10.00,M,CLR,M,M,M,M,M,M,M,M,KTVK 011205Z AUTO 00000KT 10SM CLR 02/02 A3023 RMK AO2
TVK,2017-04-01 12:15,-92.8983,40.6832,35.60,35.60,100.00,0.00,0.00,0.00,30.24,M,10.00,M,CLR,M,M,M,M,M,M,M,M,KTVK 011215Z AUTO 00000KT 10SM CLR 02/02 A3024 RMK AO2
TVK,2017-04-01 12:25,-92.8983,40.6832,35.60,35.60,100.00,0.00,0.00,0.00,30.24,M,10.00,M,CLR,M,M,M,M,M,M,M,M,KTVK 011225Z AUTO 00000KT 10SM CLR 02/02 A3024 RMK AO2
TVK,2017-04-01 12:35,-92.8983,40.6832,37.40,37.40,100.00,0.00,0.00,0.00,30.24,M,10.00,M,CLR,M,M,M,M,M,M,M,M,KTVK 011235Z AUTO 00000KT 10SM CLR 03/03 A3024 RMK AO2
TVK,2017-04-01 12:40,-92.8983,40.6832,37.40,37.40,100.00,0.00,0.00,0.00,30.24,M,10.00,M,CLR,M,M,M,M,M,M,M,M,KTVK 011240Z AUTO 00000KT 10SM CLR 03/03 A3024 RMK AO2
TVK,2017-04-01 12:55,-92.8983,40.6832,37.40,37.40,100.00,0.00,0.00,0.00,30.24,M,10.00,M,M,M,M,M,M,M,M,M,M,KTVK 011255Z AUTO 00000KT 10SM 03/03 A3024 RMK AO2
TVK,2017-04-01 13:05,-92.8983,40.6832,37.40,37.40,100.00,0.00,0.00,0.00,30.24,M,10.00,M,CLR,M,M,M,M,M,M,M,M,KTVK 011305Z AUTO 00000KT 10SM CLR 03/03 A3024 RMK AO2
TVK,2017-04-01 13:15,-92.8983,40.6832,37.40,37.40,100.00,0.00,0.00,0.00,30.25,M,10.00,M,CLR,M,M,M,M,M,M,M,M,KTVK 011315Z AUTO 00000KT 10SM CLR 03/03 A3025 RMK AO2
TVK,2017-04-01 13:25,-92.8983,40.6832,39.20,37.40,93.19,0.00,0.00,0.00,30.26,M,10.00,M,CLR,M,M,M,M,M,M,M,M,KTVK 011325Z AUTO 00000KT 10SM CLR 04/03 A3026 RMK AO2
TVK,2017-04-01 13:35,-92.8983,40.6832,39.20,39.20,100.00,0.00,0.00,0.00,30.26,M,10.00,M,CLR,M,M,M,M,M,M,M,M,KTVK 011335Z AUTO 00000KT 10SM CLR 04/04 A3026 RMK AO2
TVK,2017-04-01 13:45,-92.8983,40.6832,39.20,37.40,93.19,0.00,0.00,0.00,30.26,M,10.00,M,CLR,M,M,M,M,M,M,M,M,KTVK 011345Z AUTO 00000KT 10SM CLR 04/03 A3026 RMK AO2
TVK,2017-04-01 13:55,-92.8983,40.6832,39.20,37.40,93.19,0.00,0.00,0.00,30.25,M,10.00,M,CLR,M,M,M,M,M,M,M,M,KTVK 011355Z AUTO 00000KT 10SM CLR 04/03 A3025 RMK AO2
TVK,2017-04-01 14:05,-92.8983,40.6832,39.20,37.40,93.19,0.00,0.00,0.00,30.26,M,10.00,M,CLR,M,M,M,M,M,M,M,M,KTVK 011405Z AUTO 00000KT 10SM CLR 04/03 A3026 RMK AO2
TVK,2017-04-01 14:15,-92.8983,40.6832,39.20,37.40,93.19,0.00,0.00,0.00,30.25,M,10.00,M,CLR,M,M,M,M,M,M,M,M,KTVK 011415Z AUTO 00000KT 10SM CLR 04/03 A3025 RMK AO2
TVK,2017-04-01 14:25,-92.8983,40.6832,41.00,37.40,86.89,0.00,0.00,0.00,30.25,M,10.00,M,CLR,M,M,M,M,M,M,M,M,KTVK 011425Z AUTO 00000KT 10SM CLR 05/03 A3025 RMK AO2
TVK,2017-04-01 14:35,-92.8983,40.6832,41.00,39.20,93.24,0.00,0.00,0.00,30.25,M,10.00,M,CLR,M,M,M,M,M,M,M,M,KTVK 011435Z AUTO 00000KT 10SM CLR 05/04 A3025 RMK AO2
TVK,2017-04-01 14:45,-92.8983,40.6832,41.00,39.20,93.24,0.00,0.00,0.00,30.25,M,10.00,M,CLR,M,M,M,M,M,M,M,M,KTVK 011445Z AUTO 00000KT 10SM CLR 05/04 A3025 RMK AO2
TVK,2017-04-01 14:55,-92.8983,40.6832,41.00,39.20,93.24,0.00,0.00,0.00,30.24,M,10.00,M,CLR,M,M,M,M,M,M,M,M,KTVK 011455Z AUTO 00000KT 10SM CLR 05/04 A3024 RMK AO2
TVK,2017-04-01 15:05,-92.8983,40.6832,42.80,39.20,86.99,0.00,0.00,0.00,30.25,M,10.00,M,CLR,M,M,M,M,M,M,M,M,KTVK 011505Z AUTO 00000KT 10SM CLR 06/04 A3025 RMK AO2
TVK,2017-04-01 15:15,-92.8983,40.6832,42.80,39.20,86.99,0.00,0.00,0.00,30.25,M,10.00,M,CLR,M,M,M,M,M,M,M,M,KTVK 011515Z AUTO 00000KT 10SM CLR 06/04 A3025 RMK AO2
TVK,2017-04-01 15:25,-92.8983,40.6832,44.60,39.20,81.20,0.00,0.00,0.00,30.26,M,10.00,M,CLR,M,M,M,M,M,M,M,M,KTVK 011525Z AUTO 00000KT 10SM CLR 07/04 A3026 RMK AO2
TVK,2017-04-01 15:35,-92.8983,40.6832,44.60,39.20,81.20,0.00,0.00,0.00,30.26,M,10.00,M,CLR,M,M,M,M,M,M,M,M,KTVK 011535Z AUTO 00000KT 10SM CLR 07/04 A3026 RMK AO2
TVK,2017-04-01 15:45,-92.8983,40.6832,46.40,39.20,75.84,0.00,0.00,0.00,30.26,M,10.00,M,CLR,M,M,M,M,M,M,M,M,KTVK 011545Z AUTO 00000KT 10SM CLR 08/04 A3026 RMK AO2
TVK,2017-04-01 15:55,-92.8983,40.6832,46.40,39.20,75.84,40.00,3.00,0.00,30.26,M,10.00,M,CLR,M,M,M,M,M,M,M,M,KTVK 011555Z AUTO 04003KT 10SM CLR 08/04 A3026 RMK AO2
TVK,2017-04-01 16:05,-92.8983,40.6832,46.40,37.40,70.68,70.00,3.00,0.00,30.26,M,10.00,M,CLR,M,M,M,M,M,M,M,M,KTVK 011605Z AUTO 07003KT 10SM CLR 08/03 A3026 RMK AO2
TVK,2017-04-01 16:15,-92.8983,40.6832,48.20,37.40,66.05,0.00,0.00,0.00,30.27,M,10.00,M,CLR,M,M,M,M,M,M,M,M,KTVK 011615Z AUTO 00000KT 10SM CLR 09/03 A3027 RMK AO2
TVK,2017-04-01 16:25,-92.8983,40.6832,48.20,37.40,66.05,0.00,0.00,0.00,30.27,M,10.00,M,CLR,M,M,M,M,M,M,M,M,KTVK 011625Z AUTO 00000KT 10SM CLR 09/03 A3027 RMK AO2
TVK,2017-04-01 16:35,-92.8983,40.6832,48.20,37.40,66.05,0.00,0.00,0.00,30.27,M,10.00,M,CLR,M,M,M,M,M,M,M,M,KTVK 011635Z AUTO 00000KT 10SM CLR 09/03 A3027 RMK AO2
TVK,2017-04-01 16:45,-92.8983,40.6832,50.00,37.40,61.76,110.00,6.00,0.00,30.27,M,10.00,M,CLR,M,M,M,M,M,M,M,M,KTVK 011645Z AUTO 11006KT 10SM CLR 10/03 A3027 RMK AO2
TVK,2017-04-01 16:55,-92.8983,40.6832,50.00,37.40,61.76,0.00,0.00,0.00,30.26,M,10.00,M,FEW,M,M,M,8500.00,M,M,M,M,KTVK 011655Z AUTO 00000KT 10SM FEW085 10/03 A3026 RMK AO2
TVK,2017-04-01 17:05,-92.8983,40.6832,50.00,37.40,61.76,0.00,0.00,0.00,30.25,M,10.00,M,FEW,M,M,M,8500.00,M,M,M,M,KTVK 011705Z AUTO 00000KT 10SM FEW085 10/03 A3025 RMK AO2
TVK,2017-04-01 17:15,-92.8983,40.6832,50.00,37.40,61.76,0.00,0.00,0.00,30.25,M,10.00,M,CLR,M,M,M,M,M,M,M,M,KTVK 011715Z AUTO 00000KT 10SM CLR 10/03 A3025 RMK AO2
TVK,2017-04-01 17:25,-92.8983,40.6832,51.80,39.20,61.99,90.00,4.00,0.00,30.25,M,10.00,M,CLR,M,M,M,M,M,M,M,M,KTVK 011725Z AUTO 09004KT 10SM CLR 11/04 A3025 RMK AO2
TVK,2017-04-01 17:35,-92.8983,40.6832,51.80,37.40,57.77,0.00,0.00,0.00,30.24,M,10.00,M,CLR,M,M,M,M,M,M,M,M,KTVK 011735Z AUTO 00000KT 10SM CLR 11/03 A3024 RMK AO2
TVK,2017-04-01 17:45,-92.8983,40.6832,53.60,37.40,54.07,100.00,6.00,0.00,30.24,M,10.00,M,CLR,M,M,M,M,M,M,M,M,KTVK 011745Z AUTO 10006KT 10SM CLR 12/03 A3024 RMK AO2
TVK,2017-04-01 17:55,-92.8983,40.6832,53.60,37.40,54.07,80.00,3.00,0.00,30.23,M,10.00,M,CLR,M,M,M,M,M,M,M,M,KTVK 011755Z AUTO 08003KT 10SM CLR 12/03 A3023 RMK AO2
TVK,2017-04-01 18:05,-92.8983,40.6832,53.60,37.40,54.07,140.00,3.00,0.00,30.24,M,10.00,M,CLR,M,M,M,M,M,M,M,M,KTVK 011805Z AUTO 14003KT 10SM CLR 12/03 A3024 RMK AO2
TVK,2017-04-01 18:15,-92.8983,40.6832,53.60,37.40,54.07,130.00,6.00,0.00,30.23,M,10.00,14.00,CLR,M,M,M,M,M,M,M,M,KTVK 011815Z AUTO 13006G14KT 10SM CLR 12/03 A3023 RMK AO2
TVK,2017-04-01 18:25,-92.8983,40.6832,53.60,37.40,54.07,100.00,11.00,0.00,30.23,M,10.00,M,CLR,M,M,M,M,M,M,M,M,KTVK 011825Z AUTO 10011KT 10SM CLR 12/03 A3023 RMK AO2
TVK,2017-04-01 18:35,-92.8983,40.6832,51.80,37.40,57.77,0.00,0.00,0.00,30.24,M,10.00,M,CLR,M,M,M,M,M,M,M,M,KTVK 011835Z AUTO 00000KT 10SM CLR 11/03 A3024 RMK AO2
TVK,2017-04-01 18:45,-92.8983,40.6832,53.60,35.60,50.36,130.00,8.00,0.00,30.23,M,10.00,M,CLR,M,M,M,M,M,M,M,M,KTVK 011845Z AUTO 13008KT 10SM CLR 12/02 A3023 RMK AO2
TVK,2017-04-01 18:55,-92.8983,40.6832,51.80,37.40,57.77,0.00,0.00,0.00,30.23,M,10.00,M,CLR,M,M,M,M,M,M,M,M,KTVK 011855Z AUTO 00000KT 10SM CLR 11/03 A3023 RMK AO2
TVK,2017-04-01 19:05,-92.8983,40.6832,53.60,37.40,54.07,100.00,9.00,0.00,30.23,M,10.00,M,CLR,M,M,M,M,M,M,M,M,KTVK 011905Z AUTO 10009KT 10SM CLR 12/03 A3023 RMK AO2
TVK,2017-04-01 19:15,-92.8983,40.6832,53.60,37.40,54.07,0.00,0.00,0.00,30.21,M,10.00,M,CLR,M,M,M,M,M,M,M,M,KTVK 011915Z AUTO 00000KT 10SM CLR 12/03 A3021 RMK AO2
TVK,2017-04-01 19:25,-92.8983,40.6832,53.60,35.60,50.36,100.00,8.00,0.00,30.21,M,10.00,M,CLR,M,M,M,M,M,M,M,M,KTVK 011925Z AUTO 10008KT 10SM CLR 12/02 A3021 RMK AO2
TVK,2017-04-01 19:35,-92.8983,40.6832,53.60,37.40,54.07,100.00,3.00,0.00,30.20,M,10.00,M,CLR,M,M,M,M,M,M,M,M,KTVK 011935Z AUTO 10003KT 10SM CLR 12/03 A3020 RMK AO2
TVK,2017-04-01 19:45,-92.8983,40.6832,53.60,35.60,50.36,100.00,5.00,0.00,30.20,M,10.00,M,CLR,M,M,M,M,M,M,M,M,KTVK 011945Z AUTO 10005KT 10SM CLR 12/02 A3020 RMK AO2
TVK,2017-04-01 19:55,-92.8983,40.6832,53.60,37.40,54.07,100.00,5.00,0.00,30.21,M,10.00,M,CLR,M,M,M,M,M,M,M,M,KTVK 011955Z AUTO 10005KT 10SM CLR 12/03 A3021 RMK AO2
TVK,2017-04-01 20:05,-92.8983,40.6832,53.60,35.60,50.36,80.00,7.00,0.00,30.20,M,10.00,M,CLR,M,M,M,M,M,M,M,M,KTVK 012005Z AUTO 08007KT 10SM CLR 12/02 A3020 RMK AO2
TVK,2017-04-01 20:15,-92.8983,40.6832,53.60,35.60,50.36,0.00,0.00,0.00,30.20,M,10.00,M,CLR,M,M,M,M,M,M,M,M,KTVK 012015Z AUTO 00000KT 10SM CLR 12/02 A3020 RMK AO2
TVK,2017-04-01 20:25,-92.8983,40.6832,53.60,37.40,54.07,100.00,9.00,0.00,30.17,M,10.00,M,CLR,M,M,M,M,M,M,M,M,KTVK 012025Z AUTO 10009KT 10SM CLR 12/03 A3017 RMK AO2
TVK,2017-04-01 20:35,-92.8983,40.6832,53.60,37.40,54.07,110.00,8.00,0.00,30.18,M,10.00,M,CLR,M,M,M,M,M,M,M,M,KTVK 012035Z AUTO 11008KT 10SM CLR 12/03 A3018 RMK AO2
TVK,2017-04-01 20:45,-92.8983,40.6832,53.60,37.40,54.07,80.00,5.00,0.00,30.17,M,10.00,M,CLR,M,M,M,M,M,M,M,M,KTVK 012045Z AUTO 08005KT 10SM CLR 12/03 A3017 RMK AO2
TVK,2017-04-01 20:55,-92.8983,40.6832,53.60,37.40,54.07,80.00,10.00,0.00,30.18,M,10.00,14.00,CLR,M,M,M,M,M,M,M,M,KTVK 012055Z AUTO 08010G14KT 10SM CLR 12/03 A3018 RMK AO2
TVK,2017-04-01 21:05,-92.8983,40.6832,53.60,37.40,54.07,100.00,7.00,0.00,30.18,M,10.00,M,CLR,M,M,M,M,M,M,M,M,KTVK 012105Z AUTO 10007KT 10SM CLR 12/03 A3018 RMK AO2
TVK,2017-04-01 21:15,-92.8983,40.6832,53.60,37.40,54.07,100.00,10.00,0.00,30.18,M,10.00,M,CLR,M,M,M,M,M,M,M,M,KTVK 012115Z AUTO 10010KT 10SM CLR 12/03 A3018 RMK AO2
TVK,2017-04-01 21:25,-92.8983,40.6832,53.60,37.40,54.07,110.00,7.00,0.00,30.18,M,10.00,M,CLR,M,M,M,M,M,M,M,M,KTVK 012125Z AUTO 11007KT 10SM CLR 12/03 A3018 RMK AO2
TVK,2017-04-01 21:35,-92.8983,40.6832,53.60,37.40,54.07,0.00,0.00,0.00,30.18,M,10.00,M,FEW,M,M,M,12000.00,M,M,M,M,KTVK 012135Z AUTO 00000KT 10SM FEW120 12/03 A3018 RMK AO2
TVK,2017-04-01 21:45,-92.8983,40.6832,53.60,37.40,54.07,0.00,0.00,0.00,30.19,M,10.00,M,CLR,M,M,M,M,M,M,M,M,KTVK 012145Z AUTO 00000KT 10SM CLR 12/03 A3019 RMK AO2
TVK,2017-04-01 21:55,-92.8983,40.6832,53.60,37.40,54.07,100.00,5.00,0.00,30.18,M,10.00,M,CLR,M,M,M,M,M,M,M,M,KTVK 012155Z AUTO 10005KT 10SM CLR 12/03 A3018 RMK AO2
TVK,2017-04-01 22:05,-92.8983,40.6832,53.60,37.40,54.07,0.00,0.00,0.00,30.18,M,10.00,M,CLR,M,M,M,M,M,M,M,M,KTVK 012205Z AUTO 00000KT 10SM CLR 12/03 A3018 RMK AO2
TVK,2017-04-01 22:15,-92.8983,40.6832,53.60,37.40,54.07,110.00,3.00,0.00,30.18,M,10.00,M,CLR,M,M,M,M,M,M,M,M,KTVK 012215Z AUTO 11003KT 10SM CLR 12/03 A3018 RMK AO2
TVK,2017-04-01 22:25,-92.8983,40.6832,53.60,37.40,54.07,90.00,3.00,0.00,30.18,M,10.00,M,CLR,M,M,M,M,M,M,M,M,KTVK 012225Z AUTO 09003KT 10SM CLR 12/03 A3018 RMK AO2
TVK,2017-04-01 22:35,-92.8983,40.6832,53.60,37.40,54.07,0.00,0.00,0.00,30.18,M,10.00,M,CLR,M,M,M,M,M,M,M,M,KTVK 012235Z AUTO 00000KT 10SM CLR 12/03 A3018 RMK AO2
TVK,2017-04-01 22:45,-92.8983,40.6832,51.80,37.40,57.77,0.00,0.00,0.00,30.17,M,10.00,M,CLR,M,M,M,M,M,M,M,M,KTVK 012245Z AUTO 00000KT 10SM CLR 11/03 A3017 RMK AO2
TVK,2017-04-01 22:55,-92.8983,40.6832,51.80,39.20,61.99,0.00,0.00,0.00,30.18,M,10.00,M,CLR,M,M,M,M,M,M,M,M,KTVK 012255Z AUTO 00000KT 10SM CLR 11/04 A3018 RMK AO2
TVK,2017-04-01 23:05,-92.8983,40.6832,51.80,39.20,61.99,0.00,0.00,0.00,30.17,M,10.00,M,CLR,M,M,M,M,M,M,M,M,KTVK 012305Z AUTO 00000KT 10SM CLR 11/04 A3017 RMK AO2
TVK,2017-04-01 23:15,-92.8983,40.6832,51.80,37.40,57.77,0.00,0.00,0.00,30.17,M,10.00,M,CLR,M,M,M,M,M,M,M,M,KTVK 012315Z AUTO 00000KT 10SM CLR 11/03 A3017 RMK AO2
TVK,2017-04-01 23:25,-92.8983,40.6832,51.80,39.20,61.99,0.00,0.00,0.00,30.17,M,10.00,M,CLR,M,M,M,M,M,M,M,M,KTVK 012325Z AUTO 00000KT 10SM CLR 11/04 A3017 RMK AO2
TVK,2017-04-01 23:35,-92.8983,40.6832,50.00,39.20,66.27,0.00,0.00,0.00,30.18,M,10.00,M,CLR,M,M,M,M,M,M,M,M,KTVK 012335Z AUTO 00000KT 10SM CLR 10/04 A3018 RMK AO2
TVK,2017-04-01 23:45,-92.8983,40.6832,50.00,39.20,66.27,0.00,0.00,0.00,30.18,M,10.00,M,FEW,M,M,M,8000.00,M,M,M,M,KTVK 012345Z AUTO 00000KT 10SM FEW080 10/04 A3018 RMK AO2
TVK,2017-04-01 23:55,-92.8983,40.6832,50.00,39.20,66.27,0.00,0.00,0.00,30.18,M,10.00,M,SCT,M,M,M,8000.00,M,M,M,M,KTVK 012355Z AUTO 00000KT 10SM SCT080 10/04 A3018 RMK AO2
