#DEBUG: Format Typ    -> comma
#DEBUG: Time Period   -> 2017-04-01 00:00:00+00:00 2017-04-02 00:00:00+00:00
#DEBUG: Time Zone     -> Etc/UTC
#DEBUG: Data Contact   -> daryl herzmann akrherz@iastate.edu 515-294-5978
#DEBUG: Entries Found -> -1
station,valid,lon,lat,tmpf, dwpf, relh, drct, sknt, p01i, alti, mslp, vsby, gust, skyc1, skyc2, skyc3, skyc4, skyl1, skyl2, skyl3, skyl4, presentwx, metar
TZR,2017-04-01 00:15,-83.1369,39.9012,46.40,45.50,96.65,310.00,9.00,0.01,29.79,M,4.00,M,OVC,M,M,M,700.00,M,M,M,-RA,KTZR 010015Z AUTO 31009KT 4SM -RA OVC007 08/08 A2979 RMK AO2 P0001 T00800075
TZR,2017-04-01 00:35,-83.1369,39.9012,46.00,44.80,95.55,310.00,10.00,0.01,29.80,M,5.00,18.00,OVC,M,M,M,700.00,M,M,M,BR,KTZR 010035Z AUTO 31010G18KT 5SM BR OVC007 08/07 A2980 RMK AO2 P0001 T00780071
TZR,2017-04-01 00:55,-83.1369,39.9012,45.70,44.60,95.91,310.00,12.00,0.01,29.82,M,5.00,16.00,OVC,M,M,M,700.00,M,M,M,BR,KTZR 010055Z AUTO 31012G16KT 5SM BR OVC007 08/07 A2982 RMK AO2 P0001 T00760070
TZR,2017-04-01 01:15,-83.1369,39.9012,45.50,44.60,96.64,310.00,9.00,0.00,29.83,M,5.00,M,OVC,M,M,M,700.00,M,M,M,BR,KTZR 010115Z AUTO 31009KT 5SM BR OVC007 08/07 A2983 RMK AO2 T00750070
TZR,2017-04-01 01:35,-83.1369,39.9012,45.50,44.10,94.81,320.00,7.00,0.00,29.85,M,7.00,M,OVC,M,M,M,700.00,M,M,M,M,KTZR 010135Z AUTO 32007KT 7SM OVC007 08/07 A2985 RMK AO2 T00750067
TZR,2017-04-01 01:55,-83.1369,39.9012,45.10,44.40,97.37,310.00,7.00,0.00,29.86,M,3.00,M,OVC,M,M,M,700.00,M,M,M,DZ,KTZR 010155Z AUTO 31007KT 3SM DZ OVC007 07/07 A2986 RMK AO2 T00730069
TZR,2017-04-01 02:15,-83.1369,39.9012,44.80,44.10,97.37,310.00,12.00,0.00,29.86,M,2.50,17.00,OVC,M,M,M,700.00,M,M,M,RA,KTZR 010215Z AUTO 31012G17KT 2 1/2SM RA OVC007 07/07 A2986 RMK AO2 T00710067
TZR,2017-04-01 02:35,-83.1369,39.9012,44.60,43.20,94.79,310.00,11.00,0.00,29.87,M,10.00,M,OVC,M,M,M,900.00,M,M,M,M,KTZR 010235Z AUTO 31011KT 10SM OVC009 07/06 A2987 RMK AO2 T00700062
TZR,2017-04-01 02:55,-83.1369,39.9012,44.20,42.80,94.78,300.00,8.00,0.00,29.87,M,7.00,M,OVC,M,M,M,900.00,M,M,M,M,KTZR 010255Z AUTO 30008KT 7SM OVC009 07/06 A2987 RMK AO2 60001 T00680060
TZR,2017-04-01 03:15,-83.1369,39.9012,43.50,42.40,95.87,310.00,11.00,0.00,29.88,M,5.00,15.00,OVC,M,M,M,700.00,M,M,M,BR,KTZR 010315Z AUTO 31011G15KT 5SM BR OVC007 06/06 A2988 RMK AO2 T00640058
TZR,2017-04-01 03:35,-83.1369,39.9012,43.00,41.50,94.39,300.00,10.00,0.00,29.88,M,7.00,16.00,OVC,M,M,M,700.00,M,M,M,M,KTZR 010335Z AUTO 30010G16KT 7SM OVC007 06/05 A2988 RMK AO2 T00610053
TZR,2017-04-01 03:55,-83.1369,39.9012,42.40,41.40,96.22,310.00,7.00,0.00,29.89,M,4.00,M,OVC,M,M,M,700.00,M,M,M,BR,KTZR 010355Z AUTO 31007KT 4SM BR OVC007 06/05 A2989 RMK AO2 T00580052
TZR,2017-04-01 04:15,-83.1369,39.9012,42.40,41.20,95.48,310.00,10.00,0.00,29.89,M,10.00,M,BKN,OVC,M,M,700.00,1400.00,M,M,M,KTZR 010415Z AUTO 31010KT 10SM BKN007 OVC014 06/05 A2989 RMK AO2 T00580051
TZR,2017-04-01 04:35,-83.1369,39.9012,42.40,41.00,94.74,310.00,8.00,0.00,29.89,M,10.00,M,OVC,M,M,M,700.00,M,M,M,M,KTZR 010435Z AUTO 31008KT 10SM OVC007 06/05 A2989 RMK AO2 T00580050
TZR,2017-04-01 04:55,-83.1369,39.9012,42.80,41.00,93.30,310.00,6.00,0.00,29.90,M,10.00,M,OVC,M,M,M,700.00,M,M,M,M,KTZR 010455Z AUTO 31006KT 10SM OVC007 06/05 A2990 RMK AO2 T00600050
TZR,2017-04-01 05:15,-83.1369,39.9012,42.60,40.30,91.50,310.00,6.00,0.00,29.91,M,10.00,M,OVC,M,M,M,900.00,M,M,M,M,KTZR 010515Z AUTO 31006KT 10SM OVC009 06/05 A2991 RMK AO2 T00590046
TZR,2017-04-01 05:35,-83.1369,39.9012,42.40,40.10,91.49,310.00,10.00,0.00,29.92,M,10.00,M,OVC,M,M,M,900.00,M,M,M,M,KTZR 010535Z AUTO 31010KT 10SM OVC009 06/05 A2992 RMK AO2 T00580045
TZR,2017-04-01 05:50,-83.1369,39.9012,42.30,40.10,91.84,320.00,7.00,0.00,29.93,M,10.00,M,OVC,M,M,M,900.00,M,M,M,M,KTZR 010550Z AUTO 32007KT 10SM OVC009 06/05 A2993 RMK AO2 60001 T00570045 10081 20057 401450057
TZR,2017-04-01 06:15,-83.1369,39.9012,41.70,40.10,93.99,310.00,11.00,0.00,29.94,M,7.00,15.00,OVC,M,M,M,900.00,M,M,M,M,KTZR 010615Z AUTO 31011G15KT 7SM OVC009 05/05 A2994 RMK AO2 T00540045
TZR,2017-04-01 06:35,-83.1369,39.9012,41.70,39.20,90.75,310.00,6.00,0.00,29.94,M,10.00,M,OVC,M,M,M,1200.00,M,M,M,M,KTZR 010635Z AUTO 31006KT 10SM OVC012 05/04 A2994 RMK AO2 T00540040
TZR,2017-04-01 06:55,-83.1369,39.9012,41.40,39.40,92.53,310.00,12.00,0.00,29.95,M,10.00,15.00,BKN,OVC,M,M,1000.00,1400.00,M,M,M,KTZR 010655Z AUTO 31012G15KT 10SM BKN010 OVC014 05/04 A2995 RMK AO2 T00520041
TZR,2017-04-01 07:15,-83.1369,39.9012,41.00,39.20,93.24,300.00,8.00,0.00,29.96,M,7.00,17.00,OVC,M,M,M,800.00,M,M,M,M,KTZR 010715Z AUTO 30008G17KT 7SM OVC008 05/04 A2996 RMK AO2 T00500040
TZR,2017-04-01 07:35,-83.1369,39.9012,40.60,39.00,93.96,310.00,10.00,0.00,29.97,M,10.00,15.00,OVC,M,M,M,800.00,M,M,M,M,KTZR 010735Z AUTO 31010G15KT 10SM OVC008 05/04 A2997 RMK AO2 T00480039
TZR,2017-04-01 07:55,-83.1369,39.9012,40.50,38.70,93.23,320.00,9.00,0.00,29.98,M,7.00,16.00,OVC,M,M,M,800.00,M,M,M,M,KTZR 010755Z AUTO 32009G16KT 7SM OVC008 05/04 A2998 RMK AO2 T00470037
TZR,2017-04-01 08:15,-83.1369,39.9012,40.10,38.70,94.69,310.00,10.00,0.00,29.99,M,4.00,14.00,OVC,M,M,M,800.00,M,M,M,DZ,KTZR 010815Z AUTO 31010G14KT 4SM DZ OVC008 05/04 A2999 RMK AO2 T00450037
TZR,2017-04-01 08:35,-83.1369,39.9012,39.60,38.50,95.80,330.00,9.00,0.00,29.99,M,4.00,15.00,OVC,M,M,M,800.00,M,M,M,RA,KTZR 010835Z AUTO 33009G15KT 4SM RA OVC008 04/04 A2999 RMK AO2 T00420036
TZR,2017-04-01 08:55,-83.1369,39.9012,39.40,38.50,96.55,350.00,12.00,0.00,29.99,M,4.00,M,OVC,M,M,M,800.00,M,M,M,BR,KTZR 010855Z AUTO 35012KT 4SM BR OVC008 04/04 A2999 RMK AO2 T00410036
TZR,2017-04-01 09:15,-83.1369,39.9012,39.20,37.80,94.67,320.00,9.00,0.00,29.99,M,10.00,M,BKN,OVC,M,M,800.00,1600.00,M,M,M,KTZR 010915Z AUTO 32009KT 10SM BKN008 OVC016 04/03 A2999 RMK AO2 T00400032
TZR,2017-04-01 09:35,-83.1369,39.9012,39.20,37.00,91.73,320.00,6.00,0.00,30.00,M,10.00,M,SCT,OVC,M,M,800.00,2000.00,M,M,M,KTZR 010935Z AUTO 32006KT 10SM SCT008 OVC020 04/03 A3000 RMK AO2 T00400028
TZR,2017-04-01 09:55,-83.1369,39.9012,39.00,36.90,92.09,330.00,8.00,0.00,30.00,M,10.00,M,SCT,BKN,OVC,M,1000.00,2000.00,4200.00,M,M,KTZR 010955Z AUTO 33008KT 10SM SCT010 BKN020 OVC042 04/03 A3000 RMK AO2 T00390027
TZR,2017-04-01 10:15,-83.1369,39.9012,38.80,36.50,91.36,320.00,6.00,0.00,30.01,M,10.00,M,SCT,BKN,OVC,M,1000.00,2200.00,4200.00,M,M,KTZR 011015Z AUTO 32006KT 10SM SCT010 BKN022 OVC042 04/03 A3001 RMK AO2 T00380025
TZR,2017-04-01 10:35,-83.1369,39.9012,38.80,36.50,91.36,330.00,7.00,0.00,30.03,M,10.00,M,BKN,BKN,OVC,M,1000.00,1500.00,4400.00,M,M,KTZR 011035Z AUTO 33007KT 10SM BKN010 BKN015 OVC044 04/03 A3003 RMK AO2 T00380025
TZR,2017-04-01 10:55,-83.1369,39.9012,38.80,36.50,91.36,340.00,8.00,0.00,30.04,M,10.00,M,OVC,M,M,M,1000.00,M,M,M,M,KTZR 011055Z AUTO 34008KT 10SM OVC010 04/03 A3004 RMK AO2 T00380025
TZR,2017-04-01 11:15,-83.1369,39.9012,38.70,36.70,92.44,330.00,7.00,0.00,30.06,M,10.00,M,OVC,M,M,M,800.00,M,M,M,M,KTZR 011115Z AUTO 33007KT 10SM OVC008 04/03 A3006 RMK AO2 T00370026
TZR,2017-04-01 11:18,-83.1369,39.9012,39.20,37.40,93.19,330.00,7.00,0.00,30.06,M,10.00,M,OVC,M,M,M,800.00,M,M,M,M,KTZR 011118Z 33007KT 10SM OVC008 04/03 A3006
TZR,2017-04-01 11:35,-83.1369,39.9012,38.50,36.30,91.71,320.00,7.00,0.00,30.07,M,10.00,M,OVC,M,M,M,1000.00,M,M,M,M,KTZR 011135Z AUTO 32007KT 10SM OVC010 04/02 A3007 RMK AO2 T00360024
TZR,2017-04-01 11:50,-83.1369,39.9012,39.20,35.60,86.79,320.00,8.00,0.00,30.08,M,10.00,M,OVC,M,M,M,1000.00,M,M,M,M,KTZR 011150Z 32008KT 10SM OVC010 04/02 A3008
TZR,2017-04-01 11:55,-83.1369,39.9012,38.50,36.10,90.99,330.00,8.00,0.00,30.08,M,10.00,M,OVC,M,M,M,1000.00,M,M,M,M,KTZR 011155Z AUTO 33008KT 10SM OVC010 04/02 A3008 RMK AO2 70021 T00360023 10056 20036
TZR,2017-04-01 12:15,-83.1369,39.9012,38.30,36.10,91.70,340.00,7.00,0.00,30.09,M,10.00,M,OVC,M,M,M,1000.00,M,M,M,M,KTZR 011215Z AUTO 34007KT 10SM OVC010 04/02 A3009 RMK AO2 T00350023
TZR,2017-04-01 12:50,-83.1369,39.9012,37.40,35.60,93.14,330.00,6.00,0.00,30.11,M,10.00,M,OVC,M,M,M,1000.00,M,M,M,M,KTZR 011250Z 33006KT 10SM OVC010 03/02 A3011
TZR,2017-04-01 13:16,-83.1369,39.9012,37.40,35.60,93.14,330.00,10.00,0.00,30.11,M,7.00,M,OVC,M,M,M,800.00,M,M,M,M,KTZR 011316Z 33010KT 7SM OVC008 03/02 A3011
TZR,2017-04-01 13:48,-83.1369,39.9012,37.40,35.60,93.14,340.00,9.00,0.00,30.12,M,5.00,M,OVC,M,M,M,800.00,M,M,M,BR,KTZR 011348Z 34009KT 5SM BR OVC008 03/02 A3012
TZR,2017-04-01 14:29,-83.1369,39.9012,39.20,37.40,93.19,330.00,6.00,0.00,30.13,M,7.00,M,OVC,M,M,M,1200.00,M,M,M,M,KTZR 011429Z 33006KT 7SM OVC012 04/03 A3013
TZR,2017-04-01 14:50,-83.1369,39.9012,39.20,37.40,93.19,350.00,8.00,0.00,30.15,M,10.00,M,BKN,OVC,M,M,900.00,1400.00,M,M,M,KTZR 011450Z 35008KT 10SM BKN009 OVC014 04/03 A3015
TZR,2017-04-01 15:50,-83.1369,39.9012,39.20,35.60,86.79,330.00,8.00,0.00,30.16,M,10.00,M,OVC,M,M,M,1300.00,M,M,M,M,KTZR 011550Z 33008KT 10SM OVC013 04/02 A3016
TZR,2017-04-01 16:55,-83.1369,39.9012,42.80,37.40,81.07,330.00,7.00,0.00,30.16,M,10.00,M,OVC,M,M,M,1500.00,M,M,M,M,KTZR 011655Z 33007KT 10SM OVC015 06/03 A3016
TZR,2017-04-01 17:55,-83.1369,39.9012,42.80,37.40,81.07,330.00,8.00,0.00,30.16,M,10.00,M,OVC,M,M,M,1500.00,M,M,M,M,KTZR 011755Z 33008KT 10SM OVC015 06/03 A3016
TZR,2017-04-01 18:45,-83.1369,39.9012,42.80,37.40,81.07,310.00,9.00,0.00,30.17,M,10.00,M,OVC,M,M,M,1500.00,M,M,M,M,KTZR 011845Z 31009KT 10SM OVC015 06/03 A3017
TZR,2017-04-01 19:47,-83.1369,39.9012,42.80,37.40,81.07,330.00,7.00,0.00,30.17,M,10.00,M,OVC,M,M,M,1700.00,M,M,M,M,KTZR 011947Z 33007KT 10SM OVC017 06/03 A3017
TZR,2017-04-01 20:50,-83.1369,39.9012,42.80,37.40,81.07,340.00,8.00,0.00,30.19,M,10.00,M,OVC,M,M,M,1700.00,M,M,M,M,KTZR 012050Z 34008KT 10SM OVC017 06/03 A3019
TZR,2017-04-01 21:47,-83.1369,39.9012,42.80,37.40,81.07,350.00,8.00,0.00,30.20,M,10.00,M,OVC,M,M,M,1900.00,M,M,M,M,KTZR 012147Z 35008KT 10SM OVC019 06/03 A3020
TZR,2017-04-01 22:47,-83.1369,39.9012,42.80,35.60,75.50,360.00,5.00,0.00,30.21,M,10.00,M,OVC,M,M,M,1900.00,M,M,M,M,KTZR 012247Z 36005KT 10SM OVC019 06/02 A3021
TZR,2017-04-01 23:22,-83.1369,39.9012,42.80,35.60,75.50,350.00,5.00,0.00,30.22,M,10.00,M,OVC,M,M,M,2100.00,M,M,M,M,KTZR 012322Z 35005KT 10SM OVC021 06/02 A3022
