#DEBUG: Format Typ    -> comma
#DEBUG: Time Period   -> 2017-04-01 00:00:00+00:00 2017-04-02 00:00:00+00:00
#DEBUG: Time Zone     -> Etc/UTC
#DEBUG: Data Contact   -> daryl herzmann akrherz@iastate.edu 515-294-5978
#DEBUG: Entries Found -> -1
station,valid,lon,lat,tmpf, dwpf, relh, drct, sknt, p01i, alti, mslp, vsby, gust, skyc1, skyc2, skyc3, skyc4, skyl1, skyl2, skyl3, skyl4, presentwx, metar
UNI,2017-04-01 00:15,-82.2293,39.2119,52.00,52.00,100.00,260.00,10.00,0.00,29.75,M,10.00,M,SCT,OVC,M,M,700.00,1600.00,M,M,M,KUNI 010015Z AUTO 26010KT 10SM SCT007 OVC016 11/11 A2975 RMK AO2 T01110111
UNI,2017-04-01 00:35,-82.2293,39.2119,52.30,52.30,100.00,270.00,9.00,0.00,29.77,M,10.00,17.00,SCT,OVC,M,M,900.00,1600.00,M,M,M,KUNI 010035Z AUTO 27009G17KT 10SM SCT009 OVC016 11/11 A2977 RMK AO2 T01130113
UNI,2017-04-01 00:55,-82.2293,39.2119,51.80,51.80,100.00,290.00,11.00,0.00,29.78,M,10.00,19.00,SCT,BKN,OVC,M,1100.00,1600.00,2400.00,M,M,KUNI 010055Z AUTO 29011G19KT 10SM SCT011 BKN016 OVC024 11/11 A2978 RMK AO2 T01100110
UNI,2017-04-01 01:15,-82.2293,39.2119,51.10,51.10,100.00,290.00,13.00,0.00,29.79,M,10.00,23.00,SCT,OVC,M,M,1500.00,2400.00,M,M,M,KUNI 010115Z AUTO 29013G23KT 10SM SCT015 OVC024 11/11 A2979 RMK AO2 T01060106
UNI,2017-04-01 01:35,-82.2293,39.2119,50.40,49.60,97.07,290.00,12.00,0.00,29.81,M,10.00,19.00,SCT,BKN,OVC,M,1200.00,1700.00,2300.00,M,M,KUNI 010135Z AUTO 29012G19KT 10SM SCT012 BKN017 OVC023 10/10 A2981 RMK AO2 T01020098
UNI,2017-04-01 01:55,-82.2293,39.2119,50.00,47.30,90.39,280.00,13.00,0.00,29.82,M,10.00,19.00,BKN,BKN,OVC,M,1500.00,2300.00,2800.00,M,M,KUNI 010155Z AUTO 28013G19KT 10SM BKN015 BKN023 OVC028 10/09 A2982 RMK AO2 T01000085
UNI,2017-04-01 02:15,-82.2293,39.2119,49.50,46.40,89.02,290.00,11.00,0.01,29.84,M,10.00,18.00,BKN,BKN,OVC,M,1700.00,2600.00,3300.00,M,M,KUNI 010215Z AUTO 29011G18KT 10SM BKN017 BKN026 OVC033 10/08 A2984 RMK AO2 P0001 T00970080
UNI,2017-04-01 02:35,-82.2293,39.2119,48.40,48.40,100.00,290.00,8.00,0.01,29.84,M,7.00,17.00,SCT,SCT,OVC,M,1100.00,1900.00,3500.00,M,-RA,KUNI 010235Z AUTO 29008G17KT 7SM -RA SCT011 SCT019 OVC035 09/09 A2984 RMK AO2 P0001 T00910091
UNI,2017-04-01 02:55,-82.2293,39.2119,48.00,48.00,100.00,290.00,5.00,0.01,29.84,M,7.00,M,SCT,BKN,OVC,M,800.00,1400.00,3500.00,M,-RA,KUNI 010255Z AUTO 29005KT 7SM -RA SCT008 BKN014 OVC035 09/09 A2984 RMK AO2 P0001 60001 T00890089
UNI,2017-04-01 03:15,-82.2293,39.2119,48.20,48.20,100.00,290.00,9.00,0.00,29.85,M,10.00,15.00,SCT,OVC,M,M,800.00,1600.00,M,M,M,KUNI 010315Z AUTO 29009G15KT 10SM SCT008 OVC016 09/09 A2985 RMK AO2 T00900090
UNI,2017-04-01 03:35,-82.2293,39.2119,47.70,47.70,100.00,290.00,9.00,0.00,29.86,M,10.00,17.00,OVC,M,M,M,1400.00,M,M,M,M,KUNI 010335Z AUTO 29009G17KT 10SM OVC014 09/09 A2986 RMK AO2 T00870087
UNI,2017-04-01 03:55,-82.2293,39.2119,47.50,47.50,100.00,310.00,6.00,0.00,29.86,M,10.00,M,BKN,OVC,M,M,900.00,1200.00,M,M,M,KUNI 010355Z AUTO 31006KT 10SM BKN009 OVC012 09/09 A2986 RMK AO2 T00860086 401610086
UNI,2017-04-01 04:15,-82.2293,39.2119,47.30,47.30,100.00,290.00,5.00,0.00,29.86,M,10.00,M,OVC,M,M,M,900.00,M,M,M,M,KUNI 010415Z AUTO 29005KT 10SM OVC009 09/09 A2986 RMK AO2 T00850085
UNI,2017-04-01 04:35,-82.2293,39.2119,47.10,47.10,100.00,300.00,4.00,0.00,29.87,M,10.00,M,OVC,M,M,M,900.00,M,M,M,M,KUNI 010435Z AUTO 30004KT 10SM OVC009 08/08 A2987 RMK AO2 T00840084
UNI,2017-04-01 04:55,-82.2293,39.2119,47.10,47.10,100.00,280.00,6.00,0.01,29.87,M,7.00,M,BKN,OVC,M,M,900.00,1200.00,M,M,M,KUNI 010455Z AUTO 28006KT 7SM BKN009 OVC012 08/08 A2987 RMK AO2 P0001 T00840084
UNI,2017-04-01 05:15,-82.2293,39.2119,46.60,46.60,100.00,290.00,9.00,0.00,29.88,M,10.00,M,OVC,M,M,M,1100.00,M,M,M,M,KUNI 010515Z AUTO 29009KT 10SM OVC011 08/08 A2988 RMK AO2 T00810081
UNI,2017-04-01 05:35,-82.2293,39.2119,46.00,46.00,100.00,280.00,8.00,0.00,29.89,M,10.00,M,OVC,M,M,M,1200.00,M,M,M,M,KUNI 010535Z AUTO 28008KT 10SM OVC012 08/08 A2989 RMK AO2 T00780078
UNI,2017-04-01 05:55,-82.2293,39.2119,45.70,45.70,100.00,290.00,9.00,0.00,29.90,M,10.00,M,OVC,M,M,M,1000.00,M,M,M,M,KUNI 010555Z AUTO 29009KT 10SM OVC010 08/08 A2990 RMK AO2 60002 T00760076 10113 20076
UNI,2017-04-01 06:15,-82.2293,39.2119,45.50,45.50,100.00,300.00,7.00,0.00,29.91,M,10.00,M,BKN,OVC,M,M,800.00,1300.00,M,M,M,KUNI 010615Z AUTO 30007KT 10SM BKN008 OVC013 08/08 A2991 RMK AO2 T00750075
UNI,2017-04-01 06:35,-82.2293,39.2119,45.10,45.10,100.00,280.00,12.00,0.01,29.91,M,7.00,17.00,OVC,M,M,M,800.00,M,M,M,M,KUNI 010635Z AUTO 28012G17KT 7SM OVC008 07/07 A2991 RMK AO2 P0001 T00730073
UNI,2017-04-01 06:55,-82.2293,39.2119,44.60,44.60,100.00,300.00,10.00,0.01,29.92,M,7.00,M,OVC,M,M,M,800.00,M,M,M,M,KUNI 010655Z AUTO 30010KT 7SM OVC008 07/07 A2992 RMK AO2 P0001 T00700070
UNI,2017-04-01 07:15,-82.2293,39.2119,44.60,44.60,100.00,300.00,9.00,0.00,29.93,M,10.00,15.00,BKN,OVC,M,M,1000.00,1300.00,M,M,M,KUNI 010715Z AUTO 30009G15KT 10SM BKN010 OVC013 07/07 A2993 RMK AO2 T00700070
UNI,2017-04-01 07:35,-82.2293,39.2119,44.20,44.20,100.00,290.00,11.00,0.00,29.94,M,10.00,18.00,OVC,M,M,M,1400.00,M,M,M,M,KUNI 010735Z AUTO 29011G18KT 10SM OVC014 07/07 A2994 RMK AO2 T00680068
UNI,2017-04-01 07:55,-82.2293,39.2119,44.10,44.10,100.00,290.00,7.00,0.00,29.94,M,10.00,M,OVC,M,M,M,1400.00,M,M,M,M,KUNI 010755Z AUTO 29007KT 10SM OVC014 07/07 A2994 RMK AO2 T00670067
UNI,2017-04-01 08:15,-82.2293,39.2119,44.20,44.10,99.62,300.00,9.00,0.01,29.95,M,10.00,M,BKN,OVC,M,M,1400.00,2200.00,M,M,M,KUNI 010815Z AUTO 30009KT 10SM BKN014 OVC022 07/07 A2995 RMK AO2 P0001 T00680067
UNI,2017-04-01 08:35,-82.2293,39.2119,43.50,43.50,100.00,290.00,7.00,0.01,29.97,M,5.00,M,OVC,M,M,M,1400.00,M,M,M,BR,KUNI 010835Z AUTO 29007KT 5SM BR OVC014 06/06 A2997 RMK AO2 P0001 T00640064
UNI,2017-04-01 08:55,-82.2293,39.2119,43.30,43.30,100.00,310.00,5.00,0.01,29.98,M,4.00,M,OVC,M,M,M,1200.00,M,M,M,BR,KUNI 010855Z AUTO 31005KT 4SM BR OVC012 06/06 A2998 RMK AO2 P0001 60002 T00630063
UNI,2017-04-01 09:15,-82.2293,39.2119,43.00,43.00,100.00,300.00,4.00,0.00,29.99,M,7.00,M,OVC,M,M,M,1200.00,M,M,M,M,KUNI 010915Z AUTO 30004KT 7SM OVC012 06/06 A2999 RMK AO2 T00610061
UNI,2017-04-01 09:35,-82.2293,39.2119,43.00,43.00,100.00,290.00,7.00,0.00,29.99,M,10.00,15.00,BKN,BKN,OVC,M,1200.00,1800.00,3200.00,M,M,KUNI 010935Z AUTO 29007G15KT 10SM BKN012 BKN018 OVC032 06/06 A2999 RMK AO2 T00610061
UNI,2017-04-01 09:55,-82.2293,39.2119,43.00,41.50,94.39,290.00,8.00,0.01,30.00,M,10.00,M,SCT,SCT,OVC,M,1200.00,1800.00,3200.00,M,M,KUNI 010955Z AUTO 29008KT 10SM SCT012 SCT018 OVC032 06/05 A3000 RMK AO2 P0001 T00610053
UNI,2017-04-01 10:15,-82.2293,39.2119,42.80,41.20,94.02,280.00,6.00,0.00,30.00,M,10.00,M,OVC,M,M,M,1400.00,M,M,M,M,KUNI 011015Z AUTO 28006KT 10SM OVC014 06/05 A3000 RMK AO2 T00600051
UNI,2017-04-01 10:35,-82.2293,39.2119,42.80,41.40,94.75,290.00,5.00,0.00,30.00,M,10.00,M,OVC,M,M,M,1400.00,M,M,M,M,KUNI 011035Z AUTO 29005KT 10SM OVC014 06/05 A3000 RMK AO2 T00600052
UNI,2017-04-01 10:55,-82.2293,39.2119,42.80,41.20,94.02,270.00,5.00,0.00,30.02,M,10.00,M,OVC,M,M,M,1400.00,M,M,M,M,KUNI 011055Z AUTO 27005KT 10SM OVC014 06/05 A3002 RMK AO2 T00600051
UNI,2017-04-01 11:20,-82.2293,39.2119,42.80,40.80,92.58,280.00,5.00,0.00,30.03,M,10.00,M,OVC,M,M,M,1400.00,M,M,M,M,KUNI 011120Z AUTO 28005KT 10SM OVC014 06/05 A3003 RMK AO2 T00600049
UNI,2017-04-01 11:35,-82.2293,39.2119,42.40,40.60,93.28,270.00,10.00,0.00,30.04,M,10.00,M,OVC,M,M,M,1400.00,M,M,M,M,KUNI 011135Z AUTO 27010KT 10SM OVC014 06/05 A3004 RMK AO2 T00580048
UNI,2017-04-01 11:55,-82.2293,39.2119,41.90,41.90,100.00,290.00,7.00,0.01,30.06,M,4.00,M,OVC,M,M,M,1200.00,M,M,M,BR,KUNI 011155Z AUTO 29007KT 4SM BR OVC012 06/06 A3006 RMK AO2 P0001 60004 70025 T00550055 10076 20055
UNI,2017-04-01 12:15,-82.2293,39.2119,41.90,41.90,100.00,290.00,5.00,0.00,30.07,M,4.00,M,OVC,M,M,M,1200.00,M,M,M,BR,KUNI 011215Z AUTO 29005KT 4SM BR OVC012 06/06 A3007 RMK AO2 T00550055
UNI,2017-04-01 12:35,-82.2293,39.2119,41.90,41.90,100.00,300.00,5.00,0.00,30.08,M,10.00,M,BKN,OVC,M,M,1200.00,1800.00,M,M,M,KUNI 011235Z AUTO 30005KT 10SM BKN012 OVC018 06/06 A3008 RMK AO2 T00550055
UNI,2017-04-01 12:55,-82.2293,39.2119,41.90,41.90,100.00,290.00,5.00,0.00,30.09,M,5.00,M,OVC,M,M,M,1400.00,M,M,M,BR,KUNI 011255Z AUTO 29005KT 5SM BR OVC014 06/06 A3009 RMK AO2 T00550055
UNI,2017-04-01 13:15,-82.2293,39.2119,42.30,42.30,100.00,310.00,5.00,0.00,30.09,M,10.00,M,SCT,BKN,OVC,M,1100.00,1600.00,3300.00,M,M,KUNI 011315Z AUTO 31005KT 10SM SCT011 BKN016 OVC033 06/06 A3009 RMK AO2 T00570057
UNI,2017-04-01 13:35,-82.2293,39.2119,42.10,41.90,99.23,310.00,5.00,0.01,30.10,M,10.00,M,BKN,OVC,M,M,1500.00,3300.00,M,M,M,KUNI 011335Z AUTO 31005KT 10SM BKN015 OVC033 06/06 A3010 RMK AO2 P0001 T00560055
UNI,2017-04-01 13:55,-82.2293,39.2119,42.30,40.60,93.64,300.00,5.00,0.01,30.10,M,10.00,M,BKN,OVC,M,M,1500.00,3500.00,M,M,M,KUNI 011355Z AUTO 30005KT 10SM BKN015 OVC035 06/05 A3010 RMK AO2 P0001 T00570048
UNI,2017-04-01 14:15,-82.2293,39.2119,42.60,39.60,89.04,300.00,5.00,0.00,30.11,M,10.00,M,BKN,OVC,M,M,1500.00,2100.00,M,M,M,KUNI 011415Z AUTO 30005KT 10SM BKN015 OVC021 06/04 A3011 RMK AO2 T00590042
UNI,2017-04-01 14:35,-82.2293,39.2119,42.60,38.80,86.30,300.00,5.00,0.00,30.11,M,10.00,M,BKN,OVC,M,M,1500.00,1900.00,M,M,M,KUNI 011435Z AUTO 30005KT 10SM BKN015 OVC019 06/04 A3011 RMK AO2 T00590038
UNI,2017-04-01 14:55,-82.2293,39.2119,42.80,39.00,86.32,310.00,5.00,0.00,30.12,M,10.00,M,BKN,OVC,M,M,1500.00,2100.00,M,M,M,KUNI 011455Z AUTO 31005KT 10SM BKN015 OVC021 06/04 A3012 RMK AO2 60001 T00600039
UNI,2017-04-01 15:15,-82.2293,39.2119,43.00,39.40,87.00,320.00,6.00,0.00,30.12,M,10.00,M,BKN,OVC,M,M,1300.00,2000.00,M,M,M,KUNI 011515Z AUTO 32006KT 10SM BKN013 OVC020 06/04 A3012 RMK AO2 T00610041
UNI,2017-04-01 15:35,-82.2293,39.2119,42.80,38.50,84.64,320.00,3.00,0.00,30.12,M,10.00,M,OVC,M,M,M,1500.00,M,M,M,M,KUNI 011535Z AUTO 32003KT 10SM OVC015 06/04 A3012 RMK AO2 T00600036
UNI,2017-04-01 15:55,-82.2293,39.2119,43.00,37.90,82.04,300.00,7.00,0.00,30.13,M,10.00,M,OVC,M,M,M,1500.00,M,M,M,M,KUNI 011555Z AUTO 30007KT 10SM OVC015 06/03 A3013 RMK AO2 T00610033
UNI,2017-04-01 16:15,-82.2293,39.2119,43.70,38.50,81.77,320.00,7.00,0.01,30.14,M,10.00,M,OVC,M,M,M,1500.00,M,M,M,M,KUNI 011615Z AUTO 32007KT 10SM OVC015 07/04 A3014 RMK AO2 P0001 T00650036
UNI,2017-04-01 16:35,-82.2293,39.2119,43.90,38.30,80.52,320.00,4.00,0.01,30.14,M,10.00,M,BKN,OVC,M,M,1700.00,2500.00,M,M,M,KUNI 011635Z AUTO 32004KT 10SM BKN017 OVC025 07/04 A3014 RMK AO2 P0001 T00660035
UNI,2017-04-01 16:55,-82.2293,39.2119,43.90,38.80,82.11,280.00,7.00,0.01,30.14,M,10.00,M,OVC,M,M,M,1700.00,M,M,M,M,KUNI 011655Z AUTO 28007KT 10SM OVC017 07/04 A3014 RMK AO2 P0001 T00660038
UNI,2017-04-01 17:15,-82.2293,39.2119,43.50,38.70,83.05,300.00,5.00,0.00,30.14,M,10.00,M,OVC,M,M,M,1500.00,M,M,M,M,KUNI 011715Z AUTO 30005KT 10SM OVC015 06/04 A3014 RMK AO2 T00640037
UNI,2017-04-01 17:35,-82.2293,39.2119,44.20,38.80,81.17,320.00,6.00,0.00,30.14,M,10.00,M,OVC,M,M,M,1500.00,M,M,M,M,KUNI 011735Z AUTO 32006KT 10SM OVC015 07/04 A3014 RMK AO2 T00680038
UNI,2017-04-01 17:55,-82.2293,39.2119,44.60,38.80,79.95,310.00,5.00,0.00,30.14,M,10.00,M,BKN,OVC,M,M,1500.00,2100.00,M,M,M,KUNI 011755Z AUTO 31005KT 10SM BKN015 OVC021 07/04 A3014 RMK AO2 60002 T00700038 10070 20053
UNI,2017-04-01 18:15,-82.2293,39.2119,45.00,38.50,77.82,320.00,4.00,0.00,30.14,M,10.00,M,BKN,OVC,M,M,1500.00,2500.00,M,M,M,KUNI 011815Z AUTO 32004KT 10SM BKN015 OVC025 07/04 A3014 RMK AO2 T00720036
UNI,2017-04-01 18:35,-82.2293,39.2119,44.60,38.30,78.40,280.00,6.00,0.01,30.14,M,10.00,M,OVC,M,M,M,1700.00,M,M,M,M,KUNI 011835Z AUTO 28006KT 10SM OVC017 07/04 A3014 RMK AO2 P0001 T00700035
UNI,2017-04-01 18:55,-82.2293,39.2119,44.60,38.80,79.95,270.00,8.00,0.01,30.15,M,10.00,M,OVC,M,M,M,1700.00,M,M,M,M,KUNI 011855Z AUTO 27008KT 10SM OVC017 07/04 A3015 RMK AO2 P0001 T00700038
UNI,2017-04-01 19:15,-82.2293,39.2119,44.80,38.70,79.03,280.00,5.00,0.00,30.15,M,10.00,M,OVC,M,M,M,1700.00,M,M,M,M,KUNI 011915Z AUTO 28005KT 10SM OVC017 07/04 A3015 RMK AO2 T00710037
UNI,2017-04-01 19:35,-82.2293,39.2119,45.00,38.80,78.74,280.00,8.00,0.00,30.15,M,10.00,M,OVC,M,M,M,1700.00,M,M,M,M,KUNI 011935Z AUTO 28008KT 10SM OVC017 07/04 A3015 RMK AO2 T00720038
UNI,2017-04-01 19:55,-82.2293,39.2119,44.60,38.70,79.63,280.00,6.00,0.00,30.15,M,10.00,M,OVC,M,M,M,1700.00,M,M,M,M,KUNI 011955Z AUTO 28006KT 10SM OVC017 07/04 A3015 RMK AO2 T00700037
UNI,2017-04-01 20:15,-82.2293,39.2119,45.50,38.70,76.96,290.00,5.00,0.00,30.15,M,10.00,M,OVC,M,M,M,1900.00,M,M,M,M,KUNI 012015Z AUTO 29005KT 10SM OVC019 08/04 A3015 RMK AO2 T00750037
UNI,2017-04-01 20:35,-82.2293,39.2119,46.00,38.70,75.51,290.00,6.00,0.00,30.16,M,10.00,M,OVC,M,M,M,2100.00,M,M,M,M,KUNI 012035Z AUTO 29006KT 10SM OVC021 08/04 A3016 RMK AO2 T00780037
UNI,2017-04-01 20:55,-82.2293,39.2119,45.70,39.20,77.88,290.00,5.00,0.00,30.17,M,10.00,M,OVC,M,M,M,1900.00,M,M,M,M,KUNI 012055Z AUTO 29005KT 10SM OVC019 08/04 A3017 RMK AO2 60001 T00760040
UNI,2017-04-01 21:15,-82.2293,39.2119,46.20,39.00,75.83,330.00,6.00,0.00,30.17,M,10.00,M,OVC,M,M,M,2100.00,M,M,M,M,KUNI 012115Z AUTO 33006KT 10SM OVC021 08/04 A3017 RMK AO2 T00790039
UNI,2017-04-01 21:35,-82.2293,39.2119,46.60,39.40,75.86,310.00,3.00,0.00,30.17,M,10.00,M,OVC,M,M,M,2100.00,M,M,M,M,KUNI 012135Z AUTO 31003KT 10SM OVC021 08/04 A3017 RMK AO2 T00810041
UNI,2017-04-01 21:55,-82.2293,39.2119,46.00,38.50,74.92,330.00,5.00,0.00,30.19,M,10.00,M,OVC,M,M,M,2100.00,M,M,M,M,KUNI 012155Z AUTO 33005KT 10SM OVC021 08/04 A3019 RMK AO2 T00780036
UNI,2017-04-01 22:15,-82.2293,39.2119,46.00,38.70,75.51,340.00,6.00,0.00,30.19,M,10.00,M,BKN,OVC,M,M,2300.00,3000.00,M,M,M,KUNI 012215Z AUTO 34006KT 10SM BKN023 OVC030 08/04 A3019 RMK AO2 T00780037
UNI,2017-04-01 22:35,-82.2293,39.2119,46.00,39.00,76.40,350.00,3.00,0.00,30.20,M,10.00,M,OVC,M,M,M,2900.00,M,M,M,M,KUNI 012235Z AUTO 35003KT 10SM OVC029 08/04 A3020 RMK AO2 T00780039
UNI,2017-04-01 22:55,-82.2293,39.2119,45.90,38.50,75.21,340.00,5.00,0.01,30.20,M,10.00,M,OVC,M,M,M,2900.00,M,M,M,M,KUNI 012255Z AUTO 34005KT 10SM OVC029 08/04 A3020 RMK AO2 P0001 T00770036
UNI,2017-04-01 23:15,-82.2293,39.2119,45.70,38.70,76.37,330.00,3.00,0.00,30.21,M,10.00,M,OVC,M,M,M,2700.00,M,M,M,M,KUNI 012315Z AUTO 33003KT 10SM OVC027 08/04 A3021 RMK AO2 T00760037
UNI,2017-04-01 23:35,-82.2293,39.2119,45.50,38.50,76.36,340.00,4.00,0.00,30.21,M,10.00,M,OVC,M,M,M,2500.00,M,M,M,M,KUNI 012335Z AUTO 34004KT 10SM OVC025 08/04 A3021 RMK AO2 T00750036
UNI,2017-04-01 23:55,-82.2293,39.2119,45.10,38.30,76.92,340.00,3.00,0.00,30.22,M,10.00,M,SCT,OVC,M,M,2000.00,2500.00,M,M,M,KUNI 012355Z AUTO 34003KT 10SM SCT020 OVC025 07/04 A3022 RMK AO2 60002 T00730035 10082 20070
